##########################################################
# Query made at 01/18/2013 15:59:00 UTC
# Time interval: from 07/01/2010 00:00  to 07/31/2010 23:59  UTC
##########################################################

##########################################################
# LMML, Luqa (Malta)
# WMO index: 16597
# Latitude 35-51N. Longitude 014-29E. Altitude 91 m.
##########################################################

###################################
#  METAR/SPECI from LMML
###################################
201007312345 METAR LMML 312345Z 04004KT CAVOK 24/19 Q1015 NOSIG=
201007312330 METAR LMML NIL=
201007312315 METAR LMML 312315Z 03004KT CAVOK 24/19 Q1015 NOSIG=
201007312300 METAR LMML NIL=
201007312245 METAR LMML 312245Z VRB02KT CAVOK 24/18 Q1015 NOSIG=
201007312230 METAR LMML NIL=
201007312215 METAR LMML 312215Z 00000KT CAVOK 23/17 Q1015 NOSIG=
201007312200 METAR LMML NIL=
201007312145 METAR LMML 312145Z VRB02KT CAVOK 24/17 Q1015 NOSIG=
201007312130 METAR LMML NIL=
201007312115 METAR LMML 312115Z 30006KT CAVOK 24/18 Q1015 NOSIG=
201007312100 METAR LMML NIL=
201007312045 METAR LMML 312045Z VRB02KT CAVOK 24/18 Q1015 NOSIG=
201007312030 METAR LMML NIL=
201007312015 METAR LMML 312015Z 30008KT CAVOK 24/18 Q1015 NOSIG=
201007312000 METAR LMML NIL=
201007311945 METAR LMML 311945Z 31010KT CAVOK 24/18 Q1015 NOSIG=
201007311930 METAR LMML NIL=
201007311915 METAR LMML 311915Z 31008KT 270V330 9999 FEW020 24/18 Q1015
                        NOSIG=
201007311900 METAR LMML NIL=
201007311845 METAR LMML 311845Z 29011KT 250V330 9999 FEW020 24/19 Q1015
                        NOSIG=
201007311830 METAR LMML NIL=
201007311815 METAR LMML 311815Z 29011KT 260V320 CAVOK 24/18 Q1014 NOSIG=
201007311800 METAR LMML NIL=
201007311745 METAR LMML 311745Z 29011KT 260V320 CAVOK 25/18 Q1014 NOSIG=
201007311730 METAR LMML NIL=
201007311715 METAR LMML 311715Z 30017KT CAVOK 25/18 Q1014 NOSIG=
201007311700 METAR LMML NIL=
201007311645 METAR LMML 311645Z 30015KT 9999 FEW020 25/19 Q1014 NOSIG=
201007311630 METAR LMML NIL=
201007311615 METAR LMML 311615Z 29014KT 9999 FEW020 26/18 Q1014 NOSIG=
201007311600 METAR LMML NIL=
201007311545 METAR LMML 311545Z 29014KT CAVOK 27/17 Q1014 NOSIG=
201007311530 METAR LMML NIL=
201007311515 METAR LMML 311515Z 28014KT 250V320 CAVOK 27/16 Q1014 NOSIG=
201007311500 METAR LMML NIL=
201007311445 METAR LMML 311445Z 29015KT 260V320 9999 FEW020 27/17 Q1014
                        NOSIG=
201007311430 METAR LMML NIL=
201007311415 METAR LMML 311415Z 28016KT 9999 FEW020 28/15 Q1014 NOSIG=
201007311400 METAR LMML NIL=
201007311345 METAR LMML 311345Z 28016KT 9999 FEW020 28/16 Q1014 NOSIG=
201007311330 METAR LMML NIL=
201007311315 METAR LMML 311315Z 28015KT 240V320 9999 FEW020 28/18 Q1015
                        NOSIG=
201007311300 METAR LMML NIL=
201007311245 METAR LMML 311245Z 29013KT 260V320 9999 FEW020 28/17 Q1015
                        NOSIG=
201007311230 METAR LMML NIL=
201007311215 METAR LMML 311215Z 27013KT 230V310 9999 FEW020 28/17 Q1015
                        NOSIG=
201007311200 METAR LMML NIL=
201007311145 METAR LMML 311145Z 28013KT 250V310 CAVOK 28/17 Q1015 NOSIG=
201007311115 METAR LMML 311115Z 28014KT 230V310 CAVOK 28/17 Q1015 NOSIG=
201007311100 METAR LMML NIL=
201007311045 METAR LMML 311045Z 29015KT 250V310 9999 FEW020 28/15 Q1015
                        NOSIG=
201007311030 METAR LMML NIL=
201007311015 METAR LMML 311015Z 28012KT 230V320 9999 FEW020 28/16 Q1015
                        NOSIG=
201007311000 METAR LMML NIL=
201007310945 METAR LMML 310945Z 29013KT 250V320 9999 FEW015 28/14 Q1015
                        NOSIG=
201007310930 METAR LMML NIL=
201007310915 METAR LMML 310915Z 30012KT 270V330 9999 FEW015 28/14 Q1015
                        NOSIG=
201007310900 METAR LMML NIL=
201007310845 METAR LMML 310845Z 29013KT 250V310 9999 FEW015 SCT100 27/17
                        Q1015 NOSIG=
201007310830 METAR LMML NIL=
201007310815 METAR LMML 310815Z 29013KT 260V320 9999 FEW015 SCT100 26/18
                        Q1015 NOSIG=
201007310800 METAR LMML NIL=
201007310745 METAR LMML 310745Z 30012KT 260V330 9999 FEW015 26/18 Q1015
                        NOSIG=
201007310730 METAR LMML NIL=
201007310715 METAR LMML 310715Z 29010KT 250V330 9999 FEW015 26/19 Q1014
                        NOSIG=
201007310645 METAR LMML 310645Z 29009KT 260V330 9999 FEW012 26/19 Q1014
                        NOSIG=
201007310630 METAR LMML NIL=
201007310615 METAR LMML 310615Z 29011KT 260V320 9999 FEW012 25/19 Q1014
                        NOSIG=
201007310600 METAR LMML NIL=
201007310545 METAR LMML 310545Z 28006KT 220V310 9999 FEW012 24/20 Q1014
                        NOSIG=
201007310515 METAR LMML 310515Z 28006KT 240V320 9999 FEW012 24/21 Q1013
                        NOSIG=
201007310500 METAR LMML NIL=
201007310445 METAR LMML 310445Z 27005KT 240V300 9999 FEW012 23/21 Q1013
                        NOSIG=
201007310430 METAR LMML NIL=
201007310415 METAR LMML 310415Z 27005KT 240V300 9999 FEW012 23/21 Q1013
                        NOSIG=
201007310400 METAR LMML NIL=
201007310345 METAR LMML 310345Z 27006KT 9999 FEW012 23/21 Q1013 NOSIG=
201007310330 METAR LMML NIL=
201007310315 METAR LMML 310315Z 28007KT 240V300 9999 FEW012 23/21 Q1013
                        NOSIG=
201007310300 METAR LMML NIL=
201007310245 METAR LMML 310245Z 27008KT 240V300 9999 FEW012 23/21 Q1013
                        NOSIG=
201007310230 METAR LMML NIL=
201007310215 METAR LMML 310215Z 27010KT 240V310 9999 FEW012 23/21 Q1013
                        NOSIG=
201007310200 METAR LMML NIL=
201007310145 METAR LMML 310145Z 27008KT 240V300 9999 FEW012 23/21 Q1013
                        NOSIG=
201007310130 METAR LMML NIL=
201007310115 METAR LMML 310115Z 28007KT 240V310 9999 FEW012 23/21 Q1013
                        NOSIG=
201007310100 METAR LMML NIL=
201007310045 METAR LMML 310045Z 28006KT 240V310 9999 FEW012 23/21 Q1013
                        NOSIG=
201007310030 METAR LMML NIL=
201007310015 METAR LMML 310015Z 27006KT 230V300 9999 FEW012 23/21 Q1013
                        NOSIG=
201007310000 METAR LMML NIL=
201007302345 METAR LMML 302345Z 25006KT 220V280 9999 FEW012 23/21 Q1013
                        NOSIG=
201007302330 METAR LMML NIL=
201007302315 METAR LMML 302315Z 25004KT 210V280 9999 FEW012 23/21 Q1013
                        NOSIG=
201007302300 METAR LMML NIL=
201007302245 METAR LMML 302245Z 25004KT 220V290 9999 FEW012 24/21 Q1013
                        NOSIG=
201007302230 METAR LMML NIL=
201007302215 METAR LMML 302215Z 25005KT 210V280 9999 FEW012 24/21 Q1013
                        NOSIG=
201007302200 METAR LMML NIL=
201007302145 METAR LMML 302145Z 26005KT 220V300 9999 FEW013 24/21 Q1013
                        NOSIG=
201007302130 METAR LMML NIL=
201007302115 METAR LMML 302115Z 27006KT 230V310 9999 FEW013 24/21 Q1013
                        NOSIG=
201007302100 METAR LMML NIL=
201007302045 METAR LMML 302045Z 28006KT 240V310 9999 FEW013 24/21 Q1013
                        NOSIG=
201007302030 METAR LMML NIL=
201007302015 METAR LMML 302015Z 28007KT 250V310 9999 FEW014 24/21 Q1013
                        NOSIG=
201007302000 METAR LMML NIL=
201007301945 METAR LMML 301945Z 26008KT 220V300 9999 FEW011 24/21 Q1013
                        NOSIG=
201007301930 METAR LMML NIL=
201007301915 METAR LMML 301915Z 26006KT 230V290 9999 FEW012 24/21 Q1013
                        NOSIG=
201007301900 METAR LMML NIL=
201007301845 METAR LMML 301845Z 25006KT 220V290 9999 FEW014 25/21 Q1013
                        NOSIG=
201007301830 METAR LMML NIL=
201007301815 METAR LMML 301815Z 25008KT 210V290 9999 FEW015 25/21 Q1013
                        NOSIG=
201007301800 METAR LMML NIL=
201007301745 METAR LMML 301745Z 26008KT 220V300 9999 SCT016 25/21 Q1013
                        NOSIG=
201007301730 METAR LMML NIL=
201007301715 METAR LMML 301715Z 26008KT 230V310 9999 SCT017 26/21 Q1013
                        NOSIG=
201007301700 METAR LMML NIL=
201007301645 METAR LMML 301645Z 26008KT 210V300 9999 FEW025 26/20 Q1012
                        NOSIG=
201007301630 METAR LMML NIL=
201007301615 METAR LMML 301615Z 25009KT 220V290 9999 FEW025 27/20 Q1012
                        NOSIG=
201007301600 METAR LMML NIL=
201007301545 METAR LMML 301545Z 25009KT 200V300 9999 FEW025 27/20 Q1012
                        NOSIG=
201007301530 METAR LMML NIL=
201007301515 METAR LMML 301515Z 23008KT 190V270 9999 FEW025 27/20 Q1012
                        NOSIG=
201007301500 METAR LMML NIL=
201007301445 METAR LMML 301445Z 23008KT 200V280 9999 FEW025 27/19 Q1012
                        NOSIG=
201007301430 METAR LMML NIL=
201007301415 METAR LMML 301415Z 24008KT 200V290 9999 FEW025 28/20 Q1013
                        NOSIG=
201007301400 METAR LMML NIL=
201007301345 METAR LMML 301345Z 24008KT 190V300 9999 FEW025 SCT053 28/19
                        Q1012 NOSIG=
201007301330 METAR LMML NIL=
201007301315 METAR LMML 301315Z 24008KT 210V290 9999 FEW025 28/19 Q1013
                        NOSIG=
201007301300 METAR LMML NIL=
201007301245 METAR LMML 301245Z 23008KT 170V290 CAVOK 27/19 Q1013 NOSIG=
201007301230 METAR LMML NIL=
201007301215 METAR LMML 301215Z 24007KT 190V290 9999 FEW025 28/19 Q1013
                        NOSIG=
201007301200 METAR LMML NIL=
201007301145 METAR LMML 301145Z 24008KT 190V290 9999 FEW025 27/19 Q1013
                        NOSIG=
201007301130 METAR LMML NIL=
201007301115 METAR LMML 301115Z 23008KT 200V280 9999 FEW025 27/18 Q1013
                        NOSIG=
201007301100 METAR LMML NIL=
201007301045 METAR LMML 301045Z 23009KT 180V270 9999 FEW025 27/19 Q1013
                        NOSIG=
201007301030 METAR LMML NIL=
201007301015 METAR LMML 301015Z 24008KT 200V300 9999 FEW025 27/19 Q1013
                        NOSIG=
201007301000 METAR LMML NIL=
201007300945 METAR LMML 300945Z 21007KT 170V300 9999 FEW025 28/17 Q1013
                        NOSIG=
201007300930 METAR LMML NIL=
201007300915 METAR LMML 300915Z 21005KT 160V290 9999 FEW020 28/17 Q1013
                        NOSIG=
201007300900 METAR LMML NIL=
201007300845 METAR LMML 300845Z 25005KT 200V340 9999 FEW020 26/18 Q1013
                        NOSIG=
201007300830 METAR LMML NIL=
201007300815 METAR LMML 300815Z 25006KT 200V300 9999 FEW018 26/19 Q1013
                        NOSIG=
201007300800 METAR LMML NIL=
201007300745 METAR LMML 300745Z 25006KT 190V320 9999 FEW017 26/19 Q1013
                        NOSIG=
201007300730 METAR LMML NIL=
201007300715 METAR LMML 300715Z 26005KT 190V310 9999 FEW017 25/19 Q1013
                        NOSIG=
201007300700 METAR LMML NIL=
201007300645 METAR LMML 300645Z 24005KT 200V290 9999 SCT017 24/20 Q1013
                        NOSIG=
201007300630 METAR LMML NIL=
201007300615 METAR LMML 300615Z 24004KT 190V310 9999 FEW015 24/20 Q1013
                        NOSIG=
201007300600 METAR LMML NIL=
201007300545 METAR LMML 300545Z VRB02KT 9999 FEW015 23/20 Q1012 NOSIG=
201007300530 METAR LMML NIL=
201007300515 METAR LMML 300515Z VRB02KT 9999 FEW016 22/20 Q1012 NOSIG=
201007300500 METAR LMML NIL=
201007300445 METAR LMML 300445Z VRB03KT 9999 SCT015 21/19 Q1012 NOSIG=
201007300430 METAR LMML NIL=
201007300415 METAR LMML 300415Z VRB03KT 9999 FEW018 20/18 Q1012 NOSIG=
201007300400 METAR LMML NIL=
201007300345 METAR LMML 300345Z VRB01KT 9999 FEW018 20/18 Q1012 NOSIG=
201007300330 METAR LMML NIL=
201007300315 METAR LMML 300315Z VRB01KT 9999 FEW018 20/18 Q1012 NOSIG=
201007300300 METAR LMML NIL=
201007300245 METAR LMML 300245Z 00000KT 9999 FEW018 20/18 Q1012 NOSIG=
201007300230 METAR LMML NIL=
201007300215 METAR LMML 300215Z VRB01KT 9999 FEW018 21/19 Q1012 NOSIG=
201007300200 METAR LMML NIL=
201007300145 METAR LMML 300145Z VRB01KT 9999 FEW017 21/19 Q1012 NOSIG=
201007300130 METAR LMML NIL=
201007300115 METAR LMML 300115Z VRB01KT 9999 FEW017 21/19 Q1012 NOSIG=
201007300100 METAR LMML NIL=
201007300045 METAR LMML 300045Z VRB02KT 9999 FEW017 22/19 Q1012 NOSIG=
201007300030 METAR LMML NIL=
201007300015 METAR LMML 300015Z VRB03KT 9999 FEW017 22/19 Q1013 NOSIG=
201007300000 METAR LMML NIL=
201007292345 METAR LMML 292345Z VRB02KT CAVOK 21/19 Q1013 NOSIG=
201007292330 METAR LMML NIL=
201007292315 METAR LMML 292315Z VRB02KT CAVOK 22/19 Q1013 NOSIG=
201007292300 METAR LMML NIL=
201007292245 METAR LMML 292245Z VRB01KT CAVOK 22/19 Q1013 NOSIG=
201007292230 METAR LMML NIL=
201007292215 METAR LMML 292215Z VRB02KT CAVOK 22/19 Q1013 NOSIG=
201007292200 METAR LMML NIL=
201007292145 METAR LMML 292145Z VRB02KT CAVOK 23/19 Q1013 NOSIG=
201007292130 METAR LMML NIL=
201007292115 METAR LMML 292115Z VRB02KT CAVOK 23/19 Q1013 NOSIG=
201007292100 METAR LMML NIL=
201007292045 METAR LMML 292045Z VRB02KT CAVOK 23/19 Q1013 NOSIG=
201007292030 METAR LMML NIL=
201007292015 METAR LMML 292015Z VRB03KT 9999 FEW020 23/19 Q1013 NOSIG=
201007292000 METAR LMML NIL=
201007291945 METAR LMML 291945Z VRB01KT 9999 FEW020 23/19 Q1013 NOSIG=
201007291930 METAR LMML NIL=
201007291915 METAR LMML 291915Z VRB02KT 9999 FEW020 23/19 Q1013 NOSIG=
201007291900 METAR LMML NIL=
201007291845 METAR LMML 291845Z 23004KT 180V280 9999 FEW020 23/19 Q1013
                        NOSIG=
201007291830 METAR LMML NIL=
201007291815 METAR LMML 291815Z 21005KT 170V260 9999 FEW020 24/19 Q1013
                        NOSIG=
201007291800 METAR LMML NIL=
201007291745 METAR LMML 291745Z 22005KT 180V280 9999 FEW020 24/19 Q1013
                        NOSIG=
201007291730 METAR LMML NIL=
201007291715 METAR LMML 291715Z 22007KT 180V270 9999 FEW020 25/19 Q1013
                        NOSIG=
201007291700 METAR LMML NIL=
201007291645 METAR LMML 291645Z 21008KT 170V260 9999 FEW020 25/20 Q1013
                        NOSIG=
201007291630 METAR LMML NIL=
201007291615 METAR LMML 291615Z 22008KT 150V260 9999 FEW020 26/20 Q1013
                        NOSIG=
201007291600 METAR LMML NIL=
201007291545 METAR LMML 291545Z 22007KT 180V260 9999 FEW025 26/19 Q1013
                        NOSIG=
201007291530 METAR LMML NIL=
201007291445 METAR LMML 291445Z 22007KT 180V270 9999 FEW030 27/19 Q1013
                        NOSIG=
201007291430 METAR LMML NIL=
201007291400 METAR LMML NIL=
201007291345 METAR LMML 291345Z 22007KT 180V260 9999 FEW030 27/18 Q1013
                        NOSIG=
201007291330 METAR LMML NIL=
201007291315 METAR LMML 291315Z 20008KT 160V240 9999 FEW030 27/19 Q1014
                        NOSIG=
201007291300 METAR LMML NIL=
201007291245 METAR LMML 291245Z VRB03KT 9999 FEW028 28/18 Q1014 NOSIG=
201007291230 METAR LMML NIL=
201007291215 METAR LMML 291215Z 03006KT 330V200 9999 FEW026 28/20 Q1014
                        NOSIG=
201007291200 METAR LMML NIL=
201007291145 METAR LMML 291145Z 01005KT 280V050 9999 FEW026 28/20 Q1014
                        NOSIG=
201007291130 METAR LMML NIL=
201007291115 METAR LMML 291115Z VRB03KT 9999 SCT027 27/19 Q1014 NOSIG=
201007291100 METAR LMML NIL=
201007291045 METAR LMML 291045Z 36005KT 9999 SCT025 28/20 Q1014 NOSIG=
201007291015 METAR LMML 291015Z 05004KT 310V150 9999 FEW027 27/20 Q1014
                        NOSIG=
201007290945 METAR LMML 290945Z 10005KT 060V160 9999 FEW029 27/20 Q1015
                        NOSIG=
201007290930 METAR LMML NIL=
201007290915 METAR LMML 290915Z 21004KT 090V320 9999 FEW020 27/17 Q1015
                        NOSIG=
201007290900 METAR LMML NIL=
201007290845 METAR LMML 290845Z VRB03KT 9999 FEW019 27/17 Q1015 NOSIG=
201007290830 METAR LMML NIL=
201007290815 METAR LMML 290815Z VRB03KT 9999 FEW019 25/18 Q1015 NOSIG=
201007290800 METAR LMML NIL=
201007290745 METAR LMML 290745Z 26004KT 210V340 9999 FEW019 25/18 Q1015
                        NOSIG=
201007290730 METAR LMML NIL=
201007290715 METAR LMML 290715Z 27004KT 200V020 9999 FEW017 24/19 Q1015
                        NOSIG=
201007290700 METAR LMML NIL=
201007290645 METAR LMML 290645Z 25004KT 210V310 9999 FEW015 24/19 Q1015
                        NOSIG=
201007290630 METAR LMML NIL=
201007290615 METAR LMML 290615Z 25005KT 200V300 9999 FEW015 23/19 Q1015
                        NOSIG=
201007290600 METAR LMML NIL=
201007290545 METAR LMML 290545Z VRB02KT 9999 SCT012 22/20 Q1015 NOSIG=
201007290530 METAR LMML NIL=
201007290515 METAR LMML 290515Z VRB01KT 9999 FEW012 21/20 Q1015 NOSIG=
201007290500 METAR LMML NIL=
201007290445 METAR LMML 290445Z VRB01KT 9999 FEW012 21/19 Q1015 NOSIG=
201007290430 METAR LMML NIL=
201007290415 METAR LMML 290415Z VRB01KT 9999 FEW020 20/19 Q1015 NOSIG=
201007290400 METAR LMML NIL=
201007290345 METAR LMML 290345Z VRB01KT 9999 FEW020 21/19 Q1015 NOSIG=
201007290330 METAR LMML NIL=
201007290315 METAR LMML 290315Z VRB01KT 9999 FEW020 21/19 Q1015 NOSIG=
201007290300 METAR LMML NIL=
201007290245 METAR LMML 290245Z VRB02KT 9999 FEW020 21/19 Q1015 NOSIG=
201007290230 METAR LMML NIL=
201007290215 METAR LMML 290215Z VRB02KT 9999 FEW020 21/19 Q1015 NOSIG=
201007290200 METAR LMML NIL=
201007290145 METAR LMML 290145Z VRB02KT 9999 FEW020 21/19 Q1015 NOSIG=
201007290130 METAR LMML NIL=
201007290115 METAR LMML 290115Z VRB03KT 9999 FEW020 21/19 Q1016 NOSIG=
201007290100 METAR LMML NIL=
201007290045 METAR LMML 290045Z VRB03KT 9999 FEW020 22/19 Q1016 NOSIG=
201007290030 METAR LMML NIL=
201007290015 METAR LMML 290015Z VRB03KT 9999 FEW020 22/19 Q1016 NOSIG=
201007282345 METAR LMML 282345Z VRB02KT 9999 FEW020 22/19 Q1016 NOSIG=
201007282315 METAR LMML 282315Z VRB02KT 9999 FEW020 22/19 Q1016 NOSIG=
201007282300 METAR LMML NIL=
201007282245 METAR LMML 282245Z VRB02KT 9999 FEW020 22/19 Q1017 NOSIG=
201007282215 METAR LMML 282215Z VRB03KT 9999 FEW020 22/19 Q1017 NOSIG=
201007282145 METAR LMML 282145Z VRB03KT 9999 FEW025 23/19 Q1017 NOSIG=
201007282115 METAR LMML 282115Z VRB03KT 9999 FEW025 23/19 Q1017 NOSIG=
201007282045 METAR LMML 282045Z 27004KT 220V300 9999 FEW025 23/19 Q1017
                        NOSIG=
201007282015 METAR LMML 282015Z 28004KT 9999 FEW025 23/19 Q1017 NOSIG=
201007282000 METAR LMML NIL=
201007281945 METAR LMML 281945Z 28005KT 9999 FEW025 23/19 Q1017 NOSIG=
201007281930 METAR LMML NIL=
201007281915 METAR LMML 281915Z 26005KT 220V300 9999 FEW025 23/19 Q1017
                        NOSIG=
201007281900 METAR LMML NIL=
201007281845 METAR LMML 281845Z 26005KT 230V290 9999 FEW025 23/19 Q1017
                        NOSIG=
201007281815 METAR LMML 281815Z 25005KT 210V290 9999 FEW025 24/19 Q1017
                        NOSIG=
201007281800 METAR LMML NIL=
201007281745 METAR LMML 281745Z 25006KT 200V280 9999 FEW025 24/19 Q1017
                        NOSIG=
201007281730 METAR LMML NIL=
201007281715 METAR LMML 281715Z 26006KT 220V300 9999 FEW027 25/18 Q1017
                        NOSIG=
201007281700 METAR LMML NIL=
201007281645 METAR LMML 281645Z 25007KT 210V300 9999 FEW027 25/18 Q1017
                        NOSIG=
201007281630 METAR LMML NIL=
201007281615 METAR LMML 281615Z 27008KT 220V320 9999 FEW029 26/18 Q1017
                        NOSIG=
201007281600 METAR LMML NIL=
201007281545 METAR LMML 281545Z 26010KT 220V300 9999 FEW031 26/18 Q1017
                        NOSIG=
201007281530 METAR LMML NIL=
201007281515 METAR LMML 281515Z 28010KT 230V320 9999 FEW035 27/17 Q1017
                        NOSIG=
201007281500 METAR LMML NIL=
201007281445 METAR LMML 281445Z 29012KT 240V310 9999 FEW033 27/17 Q1017
                        NOSIG=
201007281430 METAR LMML NIL=
201007281415 METAR LMML 281415Z 28010KT 240V310 9999 SCT037 27/17 Q1017
                        NOSIG=
201007281400 METAR LMML NIL=
201007281345 METAR LMML 281345Z 30013KT 250V330 9999 SCT035 28/16 Q1018
                        NOSIG=
201007281330 METAR LMML NIL=
201007281315 METAR LMML 281315Z 30012KT 9999 SCT035 27/16 Q1018 NOSIG=
201007281300 METAR LMML NIL=
201007281245 METAR LMML 281245Z 31010KT 270V360 9999 SCT038 28/16 Q1018
                        NOSIG=
201007281230 METAR LMML NIL=
201007281215 METAR LMML 281215Z 34009KT 300V020 9999 SCT033 27/17 Q1018
                        NOSIG=
201007281200 METAR LMML NIL=
201007281145 METAR LMML 281145Z 34009KT 300V020 9999 FEW034 27/18 Q1018
                        NOSIG=
201007281130 METAR LMML NIL=
201007281115 METAR LMML 281115Z 32009KT 280V010 9999 FEW035 28/17 Q1018
                        NOSIG=
201007281100 METAR LMML NIL=
201007281045 METAR LMML 281045Z 32009KT 280V360 9999 FEW033 27/18 Q1018
                        NOSIG=
201007281030 METAR LMML NIL=
201007281015 METAR LMML 281015Z 32011KT 280V360 9999 FEW030 27/18 Q1019
                        NOSIG=
201007281000 METAR LMML NIL=
201007280945 METAR LMML 280945Z 32009KT 290V360 9999 FEW031 27/18 Q1019
                        NOSIG=
201007280930 METAR LMML NIL=
201007280915 METAR LMML 280915Z 31010KT 280V350 9999 FEW030 27/18 Q1019
                        NOSIG=
201007280900 METAR LMML NIL=
201007280845 METAR LMML 280845Z 31010KT 270V340 9999 FEW026 27/18 Q1019
                        NOSIG=
201007280830 METAR LMML NIL=
201007280815 METAR LMML 280815Z 32011KT 280V350 9999 FEW025 27/18 Q1018
                        NOSIG=
201007280800 METAR LMML NIL=
201007280745 METAR LMML 280745Z 33011KT 290V360 9999 FEW020 26/18 Q1018
                        NOSIG=
201007280730 METAR LMML NIL=
201007280715 METAR LMML 280715Z 33011KT 300V360 9999 FEW020 25/18 Q1018
                        NOSIG=
201007280700 METAR LMML NIL=
201007280645 METAR LMML 280645Z 33012KT 9999 FEW020 25/18 Q1018 NOSIG=
201007280630 METAR LMML NIL=
201007280615 METAR LMML 280615Z 33011KT 290V350 9999 FEW018 24/19 Q1018
                        NOSIG=
201007280600 METAR LMML NIL=
201007280545 METAR LMML 280545Z 32007KT 280V340 9999 FEW018 23/19 Q1018
                        NOSIG=
201007280530 METAR LMML NIL=
201007280515 METAR LMML 280515Z 32007KT 9999 FEW015 22/19 Q1018 NOSIG=
201007280500 METAR LMML NIL=
201007280445 METAR LMML 280445Z 33008KT 9999 FEW015 22/19 Q1018 NOSIG=
201007280430 METAR LMML NIL=
201007280415 METAR LMML 280415Z 32009KT 9999 FEW015 22/19 Q1018 NOSIG=
201007280400 METAR LMML NIL=
201007280345 METAR LMML 280345Z 30007KT 9999 FEW015 22/19 Q1017 NOSIG=
201007280330 METAR LMML NIL=
201007280315 METAR LMML 280315Z 31010KT CAVOK 22/19 Q1017 NOSIG=
201007280300 METAR LMML NIL=
201007280245 METAR LMML 280245Z 31009KT CAVOK 22/19 Q1017 NOSIG=
201007280230 METAR LMML NIL=
201007280215 METAR LMML 280215Z 31006KT CAVOK 22/19 Q1017 NOSIG=
201007280200 METAR LMML NIL=
201007280145 METAR LMML 280145Z 31008KT CAVOK 22/19 Q1017 NOSIG=
201007280130 METAR LMML NIL=
201007280115 METAR LMML 280115Z 31007KT 9999 FEW015 22/18 Q1017 NOSIG=
201007280100 METAR LMML NIL=
201007280045 METAR LMML 280045Z 30007KT 9999 FEW015 23/19 Q1017 NOSIG=
201007280030 METAR LMML NIL=
201007280015 METAR LMML 280015Z VRB03KT 9999 FEW015 23/18 Q1017 NOSIG=
201007280000 METAR LMML NIL=
201007272345 METAR LMML 272345Z VRB03KT 9999 FEW015 23/18 Q1017 NOSIG=
201007272330 METAR LMML NIL=
201007272315 METAR LMML 272315Z 29006KT 9999 FEW015 23/18 Q1017 NOSIG=
201007272300 METAR LMML NIL=
201007272245 METAR LMML 272245Z 28007KT 250V320 9999 FEW015 23/18 Q1017
                        NOSIG=
201007272230 METAR LMML NIL=
201007272215 METAR LMML 272215Z 28006KT 240V300 9999 FEW015 23/18 Q1017
                        NOSIG=
201007272200 METAR LMML NIL=
201007272145 METAR LMML 272145Z 28008KT 9999 FEW015 23/18 Q1017 NOSIG=
201007272130 METAR LMML NIL=
201007272115 METAR LMML 272115Z 28009KT 9999 FEW015 23/18 Q1017 NOSIG=
201007272100 METAR LMML NIL=
201007272045 METAR LMML 272045Z 28007KT 9999 FEW015 23/18 Q1017 NOSIG=
201007272030 METAR LMML NIL=
201007272015 METAR LMML 272015Z 29008KT 9999 FEW015 23/18 Q1017 NOSIG=
201007272000 METAR LMML NIL=
201007271945 METAR LMML 271945Z 30009KT 9999 FEW015 23/18 Q1016 NOSIG=
201007271930 METAR LMML NIL=
201007271915 METAR LMML 271915Z 31010KT 9999 FEW015 23/18 Q1016 NOSIG=
201007271900 METAR LMML NIL=
201007271845 METAR LMML 271845Z 31010KT 280V340 9999 FEW015 23/19 Q1016
                        NOSIG=
201007271830 METAR LMML NIL=
201007271815 METAR LMML 271815Z 31011KT 9999 FEW015 24/18 Q1016 NOSIG=
201007271800 METAR LMML NIL=
201007271745 METAR LMML 271745Z 28008KT 240V310 9999 FEW015 24/19 Q1015
                        NOSIG=
201007271730 METAR LMML NIL=
201007271715 METAR LMML 271715Z 29010KT 260V320 CAVOK 25/18 Q1015 NOSIG=
201007271700 METAR LMML NIL=
201007271645 METAR LMML 271645Z 28010KT 9999 FEW025 26/19 Q1015 NOSIG=
201007271630 METAR LMML NIL=
201007271615 METAR LMML 271615Z 30010KT 270V330 9999 FEW025 27/18 Q1015
                        NOSIG=
201007271600 METAR LMML NIL=
201007271545 METAR LMML 271545Z 29009KT 240V330 9999 FEW025 27/17 Q1015
                        NOSIG=
201007271530 METAR LMML NIL=
201007271515 METAR LMML 271515Z 27008KT 230V320 9999 FEW025 27/18 Q1015
                        NOSIG=
201007271500 METAR LMML NIL=
201007271445 METAR LMML 271445Z 31010KT 270V360 9999 FEW025 28/17 Q1015
                        NOSIG=
201007271430 METAR LMML NIL=
201007271415 METAR LMML 271415Z 29009KT 250V340 9999 FEW035 27/17 Q1015
                        NOSIG=
201007271400 METAR LMML NIL=
201007271345 METAR LMML 271345Z 28010KT 230V320 9999 FEW035 27/18 Q1015
                        NOSIG=
201007271330 METAR LMML NIL=
201007271315 METAR LMML 271315Z 31010KT 280V350 9999 FEW025 27/17 Q1015
                        NOSIG=
201007271300 METAR LMML NIL=
201007271245 METAR LMML 271245Z 31010KT 270V340 9999 FEW025 28/17 Q1015
                        NOSIG=
201007271230 METAR LMML NIL=
201007271215 METAR LMML 271215Z 31011KT 260V350 9999 FEW025 27/16 Q1015
                        NOSIG=
201007271200 METAR LMML NIL=
201007271145 METAR LMML 271145Z 29011KT 250V310 9999 FEW025 27/17 Q1015
                        NOSIG=
201007271130 METAR LMML NIL=
201007271115 METAR LMML 271115Z 29010KT 260V330 9999 FEW025 27/17 Q1015
                        NOSIG=
201007271100 METAR LMML NIL=
201007271045 METAR LMML 271045Z 29011KT 9999 FEW025 27/16 Q1015 NOSIG=
201007271030 METAR LMML NIL=
201007271015 METAR LMML 271015Z 29011KT 250V320 9999 FEW025 27/16 Q1015
                        NOSIG=
201007271000 METAR LMML NIL=
201007270945 METAR LMML 270945Z 30010KT 9999 FEW025 26/15 Q1015 NOSIG=
201007270930 METAR LMML NIL=
201007270915 METAR LMML 270915Z 32011KT 270V350 9999 FEW025 26/15 Q1015
                        NOSIG=
201007270900 METAR LMML NIL=
201007270845 METAR LMML 270845Z 30011KT 260V330 9999 FEW025 26/16 Q1015
                        NOSIG=
201007270815 METAR LMML 270815Z 30010KT 250V330 9999 FEW025 25/17 Q1014
                        NOSIG=
201007270800 METAR LMML NIL=
201007270745 METAR LMML 270745Z 30011KT 280V340 9999 FEW025 25/17 Q1014
                        NOSIG=
201007270730 METAR LMML NIL=
201007270715 METAR LMML 270715Z 30012KT 250V330 9999 FEW025 24/18 Q1014
                        NOSIG=
201007270700 METAR LMML NIL=
201007270645 METAR LMML 270645Z 29010KT 260V330 9999 FEW025 24/17 Q1014
                        NOSIG=
201007270630 METAR LMML NIL=
201007270615 METAR LMML 270615Z 31012KT 9999 FEW025 24/18 Q1014 NOSIG=
201007270600 METAR LMML NIL=
201007270545 METAR LMML 270545Z 31012KT 9999 FEW025 23/18 Q1013 NOSIG=
201007270530 METAR LMML NIL=
201007270515 METAR LMML 270515Z 31009KT 9999 FEW025 22/18 Q1013 NOSIG=
201007270500 METAR LMML NIL=
201007270445 METAR LMML 270445Z 31008KT 9999 FEW025 21/18 Q1013 NOSIG=
201007270430 METAR LMML NIL=
201007270415 METAR LMML 270415Z 29007KT 260V320 9999 FEW025 21/19 Q1013
                        NOSIG=
201007270400 METAR LMML NIL=
201007270345 METAR LMML 270345Z 31010KT 9999 FEW025 21/19 Q1012 NOSIG=
201007270330 METAR LMML NIL=
201007270315 METAR LMML 270315Z 32009KT 9999 FEW025 21/19 Q1012 NOSIG=
201007270300 METAR LMML NIL=
201007270245 METAR LMML 270245Z 31010KT 9999 FEW025 21/18 Q1012 NOSIG=
201007270230 METAR LMML NIL=
201007270215 METAR LMML 270215Z 31010KT 9999 FEW025 21/18 Q1012 NOSIG=
201007270200 METAR LMML NIL=
201007270145 METAR LMML 270145Z 31009KT 9999 FEW025 21/18 Q1012 NOSIG=
201007270130 METAR LMML NIL=
201007270115 METAR LMML 270115Z 32009KT 9999 FEW025 22/18 Q1012 NOSIG=
201007270100 METAR LMML NIL=
201007270045 METAR LMML 270045Z 32009KT 9999 FEW025 22/18 Q1012 NOSIG=
201007270030 METAR LMML NIL=
201007270015 METAR LMML 270015Z 32009KT 9999 FEW025 22/18 Q1012 NOSIG=
201007270000 METAR LMML NIL=
201007262345 METAR LMML 262345Z 31012KT 9999 FEW025 22/19 Q1011 NOSIG=
201007262315 METAR LMML 262315Z 31011KT 9999 FEW025 22/18 Q1012 NOSIG=
201007262300 METAR LMML NIL=
201007262245 METAR LMML 262245Z 31007KT 9999 FEW025 22/18 Q1012 NOSIG=
201007262230 METAR LMML NIL=
201007262215 METAR LMML 262215Z 31010KT 9999 FEW025 22/18 Q1012 NOSIG=
201007262200 METAR LMML NIL=
201007262145 METAR LMML 262145Z 31012KT 9999 FEW025 23/19 Q1012 NOSIG=
201007262130 METAR LMML NIL=
201007262115 METAR LMML 262115Z 29008KT 260V320 9999 FEW025 23/19 Q1012
                        NOSIG=
201007262100 METAR LMML NIL=
201007262045 METAR LMML 262045Z 29009KT 250V310 9999 FEW025 23/19 Q1012
                        NOSIG=
201007262030 METAR LMML NIL=
201007262015 METAR LMML 262015Z 30010KT 9999 FEW025 23/19 Q1011 NOSIG=
201007262000 METAR LMML NIL=
201007261945 METAR LMML 261945Z 30010KT 9999 FEW025 23/19 Q1011 NOSIG=
201007261930 METAR LMML NIL=
201007261915 METAR LMML 261915Z 31013KT 9999 FEW025 23/19 Q1011 NOSIG=
201007261900 METAR LMML NIL=
201007261845 METAR LMML 261845Z 30013KT 270V330 9999 FEW025 24/19 Q1010
                        NOSIG=
201007261830 METAR LMML NIL=
201007261815 METAR LMML 261815Z 30013KT 9999 FEW025 24/19 Q1010 NOSIG=
201007261800 METAR LMML NIL=
201007261745 METAR LMML 261745Z 31010KT 9999 FEW025 25/18 Q1010 NOSIG=
201007261730 METAR LMML NIL=
201007261715 METAR LMML 261715Z 30012KT 270V330 9999 FEW025 25/17 Q1010
                        NOSIG=
201007261700 METAR LMML NIL=
201007261645 METAR LMML 261645Z 30013KT 9999 FEW027 26/17 Q1010 NOSIG=
201007261630 METAR LMML NIL=
201007261615 METAR LMML 261615Z 29012KT 260V330 9999 FEW027 27/19 Q1009
                        NOSIG=
201007261600 METAR LMML NIL=
201007261545 METAR LMML 261545Z 29012KT 250V320 9999 FEW027 27/19 Q1009
                        NOSIG=
201007261515 METAR LMML 261515Z 30014KT 270V330 9999 FEW029 27/18 Q1009
                        NOSIG=
201007261500 METAR LMML NIL=
201007261445 METAR LMML 261445Z 30015KT 270V340 9999 FEW032 27/18 Q1009
                        NOSIG=
201007261430 METAR LMML NIL=
201007261415 METAR LMML 261415Z 29013KT 260V320 9999 FEW033 27/18 Q1009
                        NOSIG=
201007261400 METAR LMML NIL=
201007261345 METAR LMML 261345Z 29011KT 230V330 9999 FEW030 28/17 Q1009
                        NOSIG=
201007261315 METAR LMML 261315Z 29011KT 240V330 9999 FEW030 28/17 Q1008
                        NOSIG=
201007261300 METAR LMML NIL=
201007261245 METAR LMML 261245Z 29011KT 240V340 9999 FEW030 27/18 Q1008
                        NOSIG=
201007261230 METAR LMML NIL=
201007261215 METAR LMML 261215Z 29012KT 250V320 9999 FEW030 27/17 Q1008
                        NOSIG=
201007261200 METAR LMML NIL=
201007261145 METAR LMML 261145Z 30014KT 260V320 9999 SCT026 27/18 Q1008
                        NOSIG=
201007261130 METAR LMML NIL=
201007261115 METAR LMML 261115Z 29011KT 250V320 9999 SCT026 27/19 Q1008
                        NOSIG=
201007261100 METAR LMML NIL=
201007261045 METAR LMML 261045Z 31012KT 9999 SCT028 27/18 Q1008 NOSIG=
201007261030 METAR LMML NIL=
201007261015 METAR LMML 261015Z 31012KT 9999 SCT028 26/18 Q1008 NOSIG=
201007261000 METAR LMML NIL=
201007260945 METAR LMML 260945Z 30008KT 260V340 9999 SCT027 25/18 Q1008
                        NOSIG=
201007260930 METAR LMML NIL=
201007260915 METAR LMML 260915Z 32009KT 210V030 9999 SCT026 26/18 Q1008
                        NOSIG=
201007260900 METAR LMML NIL=
201007260845 METAR LMML 260845Z 33010KT 290V350 9999 FEW025 27/18 Q1008
                        NOSIG=
201007260830 METAR LMML NIL=
201007260815 METAR LMML 260815Z 30009KT 260V340 9999 FEW024 25/18 Q1008
                        NOSIG=
201007260800 METAR LMML NIL=
201007260745 METAR LMML 260745Z 31011KT 290V350 9999 FEW025 25/18 Q1008
                        NOSIG=
201007260715 METAR LMML 260715Z 31010KT 9999 FEW025 24/18 Q1008 NOSIG=
201007260700 METAR LMML NIL=
201007260645 METAR LMML 260645Z 32013KT 9999 FEW025 24/17 Q1008 NOSIG=
201007260615 METAR LMML 260615Z 32014KT 9999 FEW025 23/17 Q1008 NOSIG=
201007260600 METAR LMML NIL=
201007260545 METAR LMML 260545Z 30014KT 9999 FEW020 23/18 Q1007 NOSIG=
201007260530 METAR LMML NIL=
201007260515 METAR LMML 260515Z 29014KT 9999 FEW020 22/18 Q1007 NOSIG=
201007260500 METAR LMML NIL=
201007260445 METAR LMML 260445Z 29014KT 9999 FEW020 22/18 Q1007 NOSIG=
201007260430 METAR LMML NIL=
201007260415 METAR LMML 260415Z 30014KT 9999 FEW016 22/18 Q1007 NOSIG=
201007260400 METAR LMML NIL=
201007260345 METAR LMML 260345Z 30014KT 9999 FEW016 22/18 Q1007 NOSIG=
201007260330 METAR LMML NIL=
201007260315 METAR LMML 260315Z 30013KT 9999 FEW016 22/18 Q1007 NOSIG=
201007260300 METAR LMML NIL=
201007260245 METAR LMML 260245Z 31015KT 9999 FEW016 22/18 Q1007 NOSIG=
201007260230 METAR LMML NIL=
201007260215 METAR LMML 260215Z 30016KT 9999 FEW016 22/18 Q1007 NOSIG=
201007260200 METAR LMML NIL=
201007260145 METAR LMML 260145Z 30019KT 9999 FEW016 22/18 Q1007 NOSIG=
201007260130 METAR LMML NIL=
201007260115 METAR LMML 260115Z 31020KT 9999 FEW016 22/18 Q1007 NOSIG=
201007260100 METAR LMML NIL=
201007260045 METAR LMML 260045Z 31019KT 9999 FEW017 22/18 Q1007 NOSIG=
201007260030 METAR LMML NIL=
201007260015 METAR LMML 260015Z 31019KT 9999 FEW017 22/19 Q1007 NOSIG=
201007260000 METAR LMML NIL=
201007252345 METAR LMML 252345Z 31019KT 9999 BKN016 22/19 Q1007 NOSIG=
201007252330 METAR LMML NIL=
201007252315 METAR LMML 252315Z 30017KT 270V330 9999 SCT015 22/19 Q1007
                        NOSIG=
201007252300 METAR LMML NIL=
201007252245 METAR LMML 252245Z 30017KT 9999 FEW020 22/19 Q1007 NOSIG=
201007252230 METAR LMML NIL=
201007252215 METAR LMML 252215Z 30017KT 9999 FEW020 22/19 Q1007 NOSIG=
201007252200 METAR LMML NIL=
201007252145 METAR LMML 252145Z 31019G29KT 9999 FEW025 22/19 Q1007 NOSIG=
201007252130 METAR LMML NIL=
201007252115 METAR LMML 252115Z 31018KT 9999 FEW025 22/19 Q1007 NOSIG=
201007252100 METAR LMML NIL=
201007252045 METAR LMML 252045Z 30017KT 9999 FEW025 23/18 Q1007 NOSIG=
201007252030 METAR LMML NIL=
201007252015 METAR LMML 252015Z 31016KT 280V340 9999 FEW025 23/18 Q1007
                        NOSIG=
201007252000 METAR LMML NIL=
201007251945 METAR LMML 251945Z 31018KT 9999 FEW025 23/18 Q1007 NOSIG=
201007251930 METAR LMML NIL=
201007251915 METAR LMML 251915Z 31018KT 9999 FEW025 23/18 Q1007 NOSIG=
201007251900 METAR LMML NIL=
201007251845 METAR LMML 251845Z 30020KT 9999 FEW023 SCT250 23/18 Q1007
                        NOSIG=
201007251830 METAR LMML NIL=
201007251815 METAR LMML 251815Z 30020KT 270V330 9999 FEW023 23/18 Q1007
                        NOSIG=
201007251800 METAR LMML NIL=
201007251745 METAR LMML 251745Z 30020KT 260V320 9999 FEW023 24/18 Q1007
                        TEMPO 29020G30KT=
201007251715 METAR LMML 251715Z 30021KT 9999 FEW023 24/19 Q1007 TEMPO
                        29020G30KT=
201007251700 METAR LMML NIL=
201007251645 METAR LMML 251645Z 30021KT 9999 FEW023 24/18 Q1007 TEMPO
                        29020G30KT=
201007251630 METAR LMML NIL=
201007251615 METAR LMML 251615Z 30022KT 9999 FEW023 25/18 Q1007 TEMPO
                        29020G30KT=
201007251600 METAR LMML NIL=
201007251545 METAR LMML 251545Z 29020KT 270V330 9999 FEW023 25/18 Q1007
                        TEMPO 29020G30KT=
201007251515 METAR LMML 251515Z 30021KT 270V330 9999 FEW023 26/19 Q1007
                        TEMPO 29020G30KT=
201007251500 METAR LMML NIL=
201007251445 METAR LMML 251445Z 29019KT 250V320 9999 FEW022 26/18 Q1007
                        NOSIG=
201007251430 METAR LMML NIL=
201007251415 METAR LMML 251415Z 30019KT 270V330 9999 FEW022 27/19 Q1008
                        NOSIG=
201007251400 METAR LMML NIL=
201007251345 METAR LMML 251345Z 28020KT 9999 FEW029 27/17 Q1008 NOSIG=
201007251330 METAR LMML NIL=
201007251315 METAR LMML 251315Z 30016KT 9999 FEW029 28/18 Q1008 NOSIG=
201007251245 METAR LMML 251245Z 30018KT 9999 FEW029 27/19 Q1008 NOSIG=
201007251230 METAR LMML NIL=
201007251215 METAR LMML 251215Z 30019KT 9999 FEW025 27/18 Q1008 NOSIG=
201007251200 METAR LMML NIL=
201007251145 METAR LMML 251145Z 31019KT 9999 FEW025 27/18 Q1009 NOSIG=
201007251130 METAR LMML NIL=
201007251115 METAR LMML 251115Z 28018KT 250V320 9999 FEW025 27/18 Q1009
                        NOSIG=
201007251100 METAR LMML NIL=
201007251045 METAR LMML 251045Z 29015KT 250V320 9999 FEW025 28/18 Q1009
                        NOSIG=
201007251030 METAR LMML NIL=
201007251015 METAR LMML 251015Z 30018KT 9999 FEW025 27/17 Q1009 NOSIG=
201007251000 METAR LMML NIL=
201007250945 METAR LMML 250945Z 29016KT 250V330 9999 FEW025 26/17 Q1009
                        NOSIG=
201007250930 METAR LMML NIL=
201007250915 METAR LMML 250915Z 29016KT 260V320 9999 FEW025 26/18 Q1009
                        NOSIG=
201007250900 METAR LMML NIL=
201007250845 METAR LMML 250845Z 30016KT 260V320 9999 FEW024 26/18 Q1009
                        NOSIG=
201007250830 METAR LMML NIL=
201007250815 METAR LMML 250815Z 30013KT 260V350 9999 SCT024 25/18 Q1009
                        NOSIG=
201007250800 METAR LMML NIL=
201007250745 METAR LMML 250745Z 32014KT 280V360 9999 FEW023 25/19 Q1009
                        NOSIG=
201007250730 METAR LMML NIL=
201007250715 METAR LMML 250715Z 31018KT 290V350 9999 FEW018 25/19 Q1009
                        NOSIG=
201007250700 METAR LMML NIL=
201007250645 METAR LMML 250645Z 32016KT 9999 FEW018 25/19 Q1009 NOSIG=
201007250630 METAR LMML NIL=
201007250615 METAR LMML 250615Z 33017KT 9999 FEW018 24/19 Q1009 NOSIG=
201007250600 METAR LMML NIL=
201007250545 METAR LMML 250545Z 32014KT 9999 BKN018 24/19 Q1009 NOSIG=
201007250530 METAR LMML NIL=
201007250515 METAR LMML 250515Z 30014KT 9999 FEW017 23/19 Q1009 NOSIG=
201007250500 METAR LMML NIL=
201007250445 METAR LMML 250445Z 31012KT 270V330 9999 FEW015 23/19 Q1009
                        NOSIG=
201007250430 METAR LMML NIL=
201007250415 METAR LMML 250415Z 31016KT 9999 FEW015 22/19 Q1009 NOSIG=
201007250345 METAR LMML 250345Z 31015KT 9999 FEW015 22/19 Q1009 NOSIG=
201007250330 METAR LMML NIL=
201007250315 METAR LMML 250315Z 30014KT 9999 FEW015 22/19 Q1009 NOSIG=
201007250245 METAR LMML 250245Z 31012KT 280V340 9999 FEW015 23/19 Q1009
                        NOSIG=
201007250215 METAR LMML 250215Z 31016KT 280V340 9999 FEW015 23/19 Q1009
                        NOSIG=
201007250145 METAR LMML 250145Z 32018KT 9999 FEW015 23/19 Q1009 NOSIG=
201007250130 METAR LMML NIL=
201007250115 METAR LMML 250115Z 32015KT 9999 FEW015 23/19 Q1009 NOSIG=
201007250045 METAR LMML 250045Z 32017KT CAVOK 23/19 Q1010 NOSIG=
201007250030 METAR LMML NIL=
201007250015 METAR LMML 250015Z 31017KT CAVOK 23/19 Q1010 NOSIG=
201007242345 METAR LMML 242345Z 31019KT CAVOK 23/19 Q1010 NOSIG=
201007242315 METAR LMML 242315Z 31020KT CAVOK 23/19 Q1010 NOSIG=
201007242245 METAR LMML 242245Z 31018KT CAVOK 23/18 Q1011 NOSIG=
201007242215 METAR LMML 242215Z 31018KT CAVOK 24/19 Q1011 NOSIG=
201007242145 METAR LMML 242145Z 30022KT CAVOK 24/18 Q1011 NOSIG=
201007242130 METAR LMML NIL=
201007242115 METAR LMML 242115Z 30022KT CAVOK 24/19 Q1011 NOSIG=
201007242045 METAR LMML 242045Z 30017KT 270V330 CAVOK 24/18 Q1011 NOSIG=
201007242015 METAR LMML 242015Z 30019G30KT CAVOK 24/19 Q1011 NOSIG=
201007241945 METAR LMML 241945Z 30020KT 270V330 CAVOK 25/20 Q1011 NOSIG=
201007241915 METAR LMML 241915Z 30020KT CAVOK 25/19 Q1011 NOSIG=
201007241845 METAR LMML 241845Z 30022KT CAVOK 25/19 Q1011 NOSIG=
201007241815 METAR LMML 241815Z 30021KT 280V340 CAVOK 26/19 Q1010 NOSIG=
201007241745 METAR LMML 241745Z 31023G34KT CAVOK 26/19 Q1011 NOSIG=
201007241715 METAR LMML 241715Z 30022KT CAVOK 27/20 Q1010 NOSIG=
201007241700 METAR LMML NIL=
201007241645 METAR LMML 241645Z 30023KT CAVOK 27/20 Q1010 NOSIG=
201007241615 METAR LMML 241615Z 30025KT CAVOK 28/19 Q1010 NOSIG=
201007241545 METAR LMML 241545Z 30021KT CAVOK 28/20 Q1010 NOSIG=
201007241530 METAR LMML NIL=
201007241515 METAR LMML 241515Z 30024G39KT CAVOK 30/22 Q1010 BECMG 9999=
201007241500 METAR LMML NIL=
201007241445 METAR LMML 241445Z 31027KT CAVOK 30/23 Q1011 NOSIG=
201007241430 METAR LMML NIL=
201007241415 METAR LMML 241415Z 30026KT 9999 FEW012 30/23 Q1011 NOSIG=
201007241400 METAR LMML NIL=
201007241345 METAR LMML 241345Z 29023KT 270V330 9000 FEW012 31/24 Q1011
                        BECMG 9999=
201007241315 METAR LMML 241315Z 30021KT 260V330 9000 FEW013 31/23 Q1011
                        BECMG 9999=
201007241300 METAR LMML NIL=
201007241245 METAR LMML 241245Z 30017KT 260V330 7000 FEW013 31/23 Q1011
                        TEMPO 5000 HZ BKN012=
201007241230 METAR LMML NIL=
201007241215 METAR LMML 241215Z 29021KT 260V320 6000 FEW013 29/22 Q1012
                        TEMPO 5000 HZ BKN012=
201007241200 METAR LMML NIL=
201007241145 METAR LMML 241145Z 28021KT 250V320 6000 FEW013 30/24 Q1012
                        TEMPO 5000 HZ BKN012 RMK DUST HAZE=
201007241115 METAR LMML 241115Z 28016G30KT 240V320 9000 FEW012 36/25 Q1012
                        TEMPO 8000 BKN012=
201007241045 METAR LMML 241045Z 31007KT 260V350 CAVOK 37/15 Q1011 NOSIG=
201007241015 METAR LMML 241015Z 30011KT 270V330 CAVOK 36/17 Q1011 NOSIG=
201007241000 METAR LMML NIL=
201007240945 METAR LMML 240945Z 30012KT 270V330 CAVOK 35/19 Q1012 NOSIG=
201007240915 METAR LMML 240915Z 31014KT 270V340 CAVOK 32/21 Q1012 NOSIG=
201007240900 METAR LMML NIL=
201007240845 METAR LMML 240845Z 31015KT 9000 FEW015 30/22 Q1013 BECMG
                        9999=
201007240815 METAR LMML 240815Z 32015KT 8000 FEW015 31/24 Q1013 TEMPO
                        9999 BKN015=
201007240800 METAR LMML NIL=
201007240745 METAR LMML 240745Z 31017KT 8000 FEW015 28/23 Q1013 TEMPO
                        9999 BKN015=
201007240730 METAR LMML NIL=
201007240715 METAR LMML 240715Z 31016KT 8000 FEW015 28/23 Q1013 TEMPO
                        9999 BKN015=
201007240645 METAR LMML 240645Z 30012KT 9999 FEW015 28/23 Q1013 NOSIG=
201007240630 METAR LMML NIL=
201007240615 METAR LMML 240615Z 29011KT 270V330 9999 FEW015 28/23 Q1013
                        NOSIG=
201007240600 METAR LMML NIL=
201007240545 METAR LMML 240545Z 29008KT 270V330 9999 FEW015 27/22 Q1013
                        NOSIG=
201007240530 METAR LMML NIL=
201007240515 METAR LMML 240515Z 30007KT CAVOK 27/22 Q1013 NOSIG=
201007240445 METAR LMML 240445Z 30014KT CAVOK 27/21 Q1013 NOSIG=
201007240430 METAR LMML NIL=
201007240415 METAR LMML 240415Z 30010KT CAVOK 27/19 Q1013 NOSIG=
201007240400 METAR LMML NIL=
201007240345 METAR LMML 240345Z 29011KT CAVOK 27/22 Q1013 NOSIG=
201007240330 METAR LMML NIL=
201007240315 METAR LMML 240315Z 28010KT 250V310 CAVOK 27/20 Q1013 NOSIG=
201007240300 METAR LMML NIL=
201007240245 METAR LMML 240245Z 27007KT 240V310 CAVOK 27/18 Q1013 NOSIG=
201007240230 METAR LMML NIL=
201007240215 METAR LMML 240215Z 26005KT 230V290 CAVOK 27/19 Q1013 NOSIG=
201007240145 METAR LMML 240145Z 27005KT 230V290 CAVOK 26/20 Q1013 NOSIG=
201007240130 METAR LMML NIL=
201007240115 METAR LMML 240115Z 28007KT CAVOK 26/22 Q1014 NOSIG=
201007240100 METAR LMML NIL=
201007240045 METAR LMML 240045Z 27007KT 240V300 CAVOK 26/21 Q1014 NOSIG=
201007240015 METAR LMML 240015Z 26004KT 210V290 CAVOK 27/21 Q1014 NOSIG=
201007240000 METAR LMML NIL=
201007232345 METAR LMML 232345Z 24005KT 210V270 CAVOK 27/18 Q1014 NOSIG=
201007232330 METAR LMML NIL=
201007232315 METAR LMML 232315Z 25004KT 220V280 CAVOK 26/20 Q1014 NOSIG=
201007232300 METAR LMML NIL=
201007232245 METAR LMML 232245Z VRB02KT CAVOK 26/21 Q1015 NOSIG=
201007232230 METAR LMML NIL=
201007232215 METAR LMML 232215Z VRB02KT CAVOK 26/20 Q1015 NOSIG=
201007232200 METAR LMML NIL=
201007232145 METAR LMML 232145Z VRB02KT CAVOK 27/20 Q1015 NOSIG=
201007232130 METAR LMML NIL=
201007232115 METAR LMML 232115Z VRB02KT CAVOK 27/20 Q1015 NOSIG=
201007232100 METAR LMML NIL=
201007232045 METAR LMML 232045Z VRB03KT CAVOK 27/21 Q1015 NOSIG=
201007232030 METAR LMML NIL=
201007232015 METAR LMML 232015Z VRB02KT CAVOK 28/17 Q1015 NOSIG=
201007232000 METAR LMML NIL=
201007231945 METAR LMML 231945Z 32004KT 300V360 CAVOK 28/18 Q1015 NOSIG=
201007231930 METAR LMML NIL=
201007231915 METAR LMML 231915Z VRB03KT CAVOK 28/16 Q1015 NOSIG=
201007231900 METAR LMML NIL=
201007231845 METAR LMML 231845Z VRB02KT CAVOK 29/17 Q1015 NOSIG=
201007231830 METAR LMML NIL=
201007231815 METAR LMML 231815Z VRB03KT CAVOK 29/17 Q1015 NOSIG=
201007231800 METAR LMML NIL=
201007231745 METAR LMML 231745Z VRB03KT CAVOK 31/19 Q1015 NOSIG=
201007231715 METAR LMML 231715Z 31004KT 260V030 CAVOK 31/18 Q1015 NOSIG=
201007231700 METAR LMML NIL=
201007231645 METAR LMML 231645Z 04004KT 010V090 CAVOK 32/22 Q1015 NOSIG=
201007231615 METAR LMML 231615Z 23005KT 200V270 CAVOK 32/19 Q1015 NOSIG=
201007231545 METAR LMML 231545Z 24005KT 200V280 CAVOK 32/19 Q1015 NOSIG=
201007231530 METAR LMML NIL=
201007231515 METAR LMML 231515Z 21005KT 170V260 CAVOK 32/21 Q1015 NOSIG=
201007231500 METAR LMML NIL=
201007231445 METAR LMML 231445Z 21005KT 170V260 CAVOK 33/21 Q1015 NOSIG=
201007231430 METAR LMML NIL=
201007231415 METAR LMML 231415Z 03005KT 340V070 CAVOK 34/21 Q1015 NOSIG=
201007231345 METAR LMML 231345Z 04004KT 320V110 CAVOK 34/21 Q1015 NOSIG=
201007231330 METAR LMML NIL=
201007231315 METAR LMML 231315Z 04005KT 350V080 CAVOK 34/22 Q1016 NOSIG=
201007231300 METAR LMML NIL=
201007231245 METAR LMML 231245Z 04006KT 010V110 CAVOK 34/22 Q1016 NOSIG=
201007231230 METAR LMML NIL=
201007231215 METAR LMML 231215Z 01004KT 320V110 CAVOK 34/22 Q1016 NOSIG=
201007231200 METAR LMML NIL=
201007231145 METAR LMML 231145Z 15005KT CAVOK 33/21 Q1016 NOSIG=
201007231115 METAR LMML 231115Z 03006KT 340V110 CAVOK 33/21 Q1016 NOSIG=
201007231045 METAR LMML 231045Z 06007KT 350V110 CAVOK 33/20 Q1016 NOSIG=
201007231030 METAR LMML NIL=
201007231015 METAR LMML 231015Z 04006KT 360V080 CAVOK 34/20 Q1016 NOSIG=
201007231000 METAR LMML NIL=
201007230945 METAR LMML 230945Z 07004KT 350V130 CAVOK 33/20 Q1016 NOSIG=
201007230930 METAR LMML NIL=
201007230915 METAR LMML 230915Z 06005KT 350V140 CAVOK 32/21 Q1016 NOSIG=
201007230845 METAR LMML 230845Z 05005KT 360V100 CAVOK 32/20 Q1016 NOSIG=
201007230830 METAR LMML NIL=
201007230815 METAR LMML 230815Z 01004KT 320V060 CAVOK 32/18 Q1016 NOSIG=
201007230800 METAR LMML NIL=
201007230745 METAR LMML 230745Z VRB03KT CAVOK 31/19 Q1016 NOSIG=
201007230730 METAR LMML NIL=
201007230715 METAR LMML 230715Z VRB03KT CAVOK 30/18 Q1016 NOSIG=
201007230700 METAR LMML NIL=
201007230645 METAR LMML 230645Z 32004KT 280V360 CAVOK 28/21 Q1016 NOSIG=
201007230630 METAR LMML NIL=
201007230615 METAR LMML 230615Z 32004KT 280V360 CAVOK 26/24 Q1016 NOSIG=
201007230600 METAR LMML NIL=
201007230545 METAR LMML 230545Z VRB03KT 8000 NSC 25/25 Q1015 BECMG 9999=
201007230530 METAR LMML NIL=
201007230515 METAR LMML 230515Z VRB03KT 6000 NSC 25/24 Q1015 BECMG 8000=
201007230500 METAR LMML NIL=
201007230445 METAR LMML 230445Z VRB03KT 6000 NSC 24/24 Q1015 BECMG 8000=
201007230430 METAR LMML NIL=
201007230415 METAR LMML 230415Z VRB02KT 5000 BR FEW004 24/23 Q1015 BECMG
                        8000=
201007230400 METAR LMML NIL=
201007230345 METAR LMML 230345Z 30004KT 260V320 7000 FEW004 24/23 Q1014
                        TEMPO 5000 BKN004=
201007230330 METAR LMML NIL=
201007230315 METAR LMML 230315Z VRB02KT 7000 FEW004 24/23 Q1015 TEMPO
                        5000 BKN004=
201007230300 METAR LMML NIL=
201007230245 METAR LMML 230245Z VRB02KT 7000 FEW004 24/23 Q1014 TEMPO
                        5000 BKN004=
201007230230 METAR LMML NIL=
201007230215 METAR LMML 230215Z 33004KT 320V020 9999 FEW010 24/23 Q1015
                        NOSIG=
201007230200 METAR LMML NIL=
201007230145 METAR LMML 230145Z VRB01KT CAVOK 24/22 Q1014 NOSIG=
201007230130 METAR LMML NIL=
201007230115 METAR LMML 230115Z VRB02KT CAVOK 24/22 Q1015 NOSIG=
201007230100 METAR LMML NIL=
201007230045 METAR LMML 230045Z VRB03KT CAVOK 25/23 Q1015 NOSIG=
201007230030 METAR LMML NIL=
201007230015 METAR LMML 230015Z VRB03KT CAVOK 25/23 Q1015 NOSIG=
201007222345 METAR LMML 222345Z VRB01KT CAVOK 25/22 Q1015 NOSIG=
201007222330 METAR LMML NIL=
201007222315 METAR LMML 222315Z VRB02KT CAVOK 25/22 Q1015 NOSIG=
201007222300 METAR LMML NIL=
201007222245 METAR LMML 222245Z VRB03KT CAVOK 25/21 Q1015 NOSIG=
201007222230 METAR LMML NIL=
201007222215 METAR LMML 222215Z VRB01KT CAVOK 26/21 Q1015 NOSIG=
201007222200 METAR LMML NIL=
201007222145 METAR LMML 222145Z VRB01KT CAVOK 26/21 Q1015 NOSIG=
201007222130 METAR LMML NIL=
201007222115 METAR LMML 222115Z VRB02KT CAVOK 26/21 Q1015 NOSIG=
201007222100 METAR LMML NIL=
201007222045 METAR LMML 222045Z VRB02KT CAVOK 27/21 Q1015 NOSIG=
201007222030 METAR LMML NIL=
201007222015 METAR LMML 222015Z VRB03KT CAVOK 27/21 Q1015 NOSIG=
201007222000 METAR LMML NIL=
201007221945 METAR LMML 221945Z VRB03KT CAVOK 27/21 Q1015 NOSIG=
201007221930 METAR LMML NIL=
201007221915 METAR LMML 221915Z VRB03KT CAVOK 27/21 Q1014 NOSIG=
201007221900 METAR LMML NIL=
201007221845 METAR LMML 221845Z 22005KT 190V260 CAVOK 27/21 Q1014 NOSIG=
201007221830 METAR LMML NIL=
201007221815 METAR LMML 221815Z 21005KT 190V250 CAVOK 27/22 Q1014 NOSIG=
201007221800 METAR LMML NIL=
201007221745 METAR LMML 221745Z 20005KT 170V240 CAVOK 28/22 Q1014 NOSIG=
201007221730 METAR LMML NIL=
201007221715 METAR LMML 221715Z 21004KT 180V250 CAVOK 28/21 Q1014 NOSIG=
201007221700 METAR LMML NIL=
201007221645 METAR LMML 221645Z 21004KT 170V250 CAVOK 31/21 Q1014 NOSIG=
201007221630 METAR LMML NIL=
201007221615 METAR LMML 221615Z 21004KT 180V250 CAVOK 31/21 Q1014 NOSIG=
201007221545 METAR LMML 221545Z 18005KT 130V230 CAVOK 31/19 Q1014 NOSIG=
201007221515 METAR LMML 221515Z VRB02KT CAVOK 32/22 Q1014 NOSIG=
201007221500 METAR LMML NIL=
201007221445 METAR LMML 221445Z 20004KT 150V260 CAVOK 31/20 Q1014 NOSIG=
201007221430 METAR LMML NIL=
201007221415 METAR LMML 221415Z 22006KT 150V260 CAVOK 30/20 Q1014 NOSIG=
201007221345 METAR LMML 221345Z 21006KT 160V270 CAVOK 30/21 Q1014 NOSIG=
201007221330 METAR LMML NIL=
201007221315 METAR LMML 221315Z 20006KT 150V250 9999 FEW025 31/22 Q1015
                        TEMPO CAVOK=
201007221300 METAR LMML NIL=
201007221245 METAR LMML 221245Z 22005KT 140V320 CAVOK 31/22 Q1015 NOSIG=
201007221230 METAR LMML NIL=
201007221215 METAR LMML 221215Z 22005KT 170V290 CAVOK 31/22 Q1015 NOSIG=
201007221200 METAR LMML NIL=
201007221145 METAR LMML 221145Z 21006KT 180V270 CAVOK 31/22 Q1015 NOSIG=
201007221130 METAR LMML NIL=
201007221115 METAR LMML 221115Z 20005KT 160V260 CAVOK 31/22 Q1015 NOSIG=
201007221100 METAR LMML NIL=
201007221045 METAR LMML 221045Z 19005KT 150V250 CAVOK 30/22 Q1015 NOSIG=
201007221030 METAR LMML NIL=
201007221015 METAR LMML 221015Z 18005KT 140V240 CAVOK 30/22 Q1015 NOSIG=
201007221000 METAR LMML NIL=
201007220945 METAR LMML 220945Z 21005KT 150V300 CAVOK 30/22 Q1015 NOSIG=
201007220930 METAR LMML NIL=
201007220915 METAR LMML 220915Z 02004KT 330V080 CAVOK 31/22 Q1015 NOSIG=
201007220900 METAR LMML NIL=
201007220845 METAR LMML 220845Z 02004KT 310V110 CAVOK 31/21 Q1015 NOSIG=
201007220830 METAR LMML NIL=
201007220815 METAR LMML 220815Z VRB02KT CAVOK 29/19 Q1015 NOSIG=
201007220800 METAR LMML NIL=
201007220745 METAR LMML 220745Z VRB02KT CAVOK 28/20 Q1015 NOSIG=
201007220730 METAR LMML NIL=
201007220715 METAR LMML 220715Z VRB03KT CAVOK 27/21 Q1015 NOSIG=
201007220700 METAR LMML NIL=
201007220645 METAR LMML 220645Z VRB03KT CAVOK 26/21 Q1015 NOSIG=
201007220630 METAR LMML NIL=
201007220615 METAR LMML 220615Z VRB03KT CAVOK 25/21 Q1015 NOSIG=
201007220600 METAR LMML NIL=
201007220545 METAR LMML 220545Z VRB02KT CAVOK 25/22 Q1014 NOSIG=
201007220530 METAR LMML NIL=
201007220515 METAR LMML 220515Z VRB02KT 9999 FEW025 23/22 Q1014 NOSIG=
201007220500 METAR LMML NIL=
201007220445 METAR LMML 220445Z VRB01KT 9999 FEW025 22/20 Q1014 NOSIG=
201007220430 METAR LMML NIL=
201007220415 METAR LMML 220415Z VRB01KT 9999 FEW025 22/20 Q1014 NOSIG=
201007220400 METAR LMML NIL=
201007220345 METAR LMML 220345Z VRB01KT CAVOK 22/20 Q1013 NOSIG=
201007220330 METAR LMML NIL=
201007220315 METAR LMML 220315Z 00000KT 9999 FEW018 22/20 Q1013 NOSIG=
201007220245 METAR LMML 220245Z VRB01KT 9999 FEW018 22/20 Q1013 NOSIG=
201007220230 METAR LMML NIL=
201007220215 METAR LMML 220215Z VRB01KT 9999 FEW018 22/20 Q1013 NOSIG=
201007220200 METAR LMML NIL=
201007220145 METAR LMML 220145Z VRB02KT 9999 FEW018 23/20 Q1013 NOSIG=
201007220130 METAR LMML NIL=
201007220115 METAR LMML 220115Z VRB02KT 9999 FEW018 23/20 Q1013 NOSIG=
201007220100 METAR LMML NIL=
201007220045 METAR LMML 220045Z VRB03KT 9999 FEW018 23/20 Q1014 NOSIG=
201007220030 METAR LMML NIL=
201007220015 METAR LMML 220015Z VRB02KT 9999 FEW018 23/20 Q1014 NOSIG=
201007220000 METAR LMML NIL=
201007212345 METAR LMML 212345Z VRB01KT 9999 FEW018 23/20 Q1014 NOSIG=
201007212330 METAR LMML NIL=
201007212315 METAR LMML 212315Z VRB02KT CAVOK 24/21 Q1014 NOSIG=
201007212300 METAR LMML NIL=
201007212245 METAR LMML 212245Z VRB03KT 9999 FEW018 24/21 Q1014 NOSIG=
201007212230 METAR LMML NIL=
201007212215 METAR LMML 212215Z VRB03KT 9999 FEW020 24/21 Q1014 NOSIG=
201007212200 METAR LMML NIL=
201007212145 METAR LMML 212145Z VRB03KT 9999 FEW020 25/21 Q1014 NOSIG=
201007212130 METAR LMML NIL=
201007212115 METAR LMML 212115Z 32004KT 300V360 9999 FEW025 25/21 Q1014
                        NOSIG=
201007212100 METAR LMML NIL=
201007212045 METAR LMML 212045Z VRB03KT 9999 FEW025 25/21 Q1015 NOSIG=
201007212030 METAR LMML NIL=
201007212015 METAR LMML 212015Z VRB03KT 9999 FEW030 25/21 Q1014 NOSIG=
201007212000 METAR LMML NIL=
201007211945 METAR LMML 211945Z VRB03KT 9999 FEW030 26/21 Q1014 NOSIG=
201007211930 METAR LMML NIL=
201007211915 METAR LMML 211915Z VRB02KT 9999 FEW030 26/21 Q1014 NOSIG=
201007211900 METAR LMML NIL=
201007211845 METAR LMML 211845Z 26004KT 220V290 9999 FEW030 26/21 Q1014
                        NOSIG=
201007211830 METAR LMML NIL=
201007211815 METAR LMML 211815Z 25005KT 200V290 9999 FEW030 26/21 Q1013
                        NOSIG=
201007211800 METAR LMML NIL=
201007211745 METAR LMML 211745Z 25006KT 200V290 9999 FEW030 27/21 Q1013
                        NOSIG=
201007211730 METAR LMML NIL=
201007211715 METAR LMML 211715Z 25005KT 200V290 9999 FEW030 28/21 Q1013
                        NOSIG=
201007211700 METAR LMML NIL=
201007211645 METAR LMML 211645Z 23006KT 180V300 9999 FEW040 28/20 Q1013
                        NOSIG=
201007211630 METAR LMML NIL=
201007211615 METAR LMML 211615Z 23007KT 190V270 9999 FEW040 28/20 Q1013
                        NOSIG=
201007211600 METAR LMML NIL=
201007211545 METAR LMML 211545Z 22007KT 180V280 9999 FEW040 28/19 Q1013
                        NOSIG=
201007211530 METAR LMML NIL=
201007211515 METAR LMML 211515Z 22007KT 180V280 9999 FEW040 29/19 Q1013
                        NOSIG=
201007211500 METAR LMML NIL=
201007211445 METAR LMML 211445Z 22009KT 180V260 9999 FEW041 29/18 Q1013
                        NOSIG=
201007211430 METAR LMML NIL=
201007211415 METAR LMML 211415Z 22009KT 160V260 9999 FEW041 29/18 Q1014
                        NOSIG=
201007211400 METAR LMML NIL=
201007211345 METAR LMML 211345Z 22009KT 170V280 9999 FEW041 29/18 Q1014
                        NOSIG=
201007211330 METAR LMML NIL=
201007211315 METAR LMML 211315Z 22008KT 180V290 9999 FEW038 30/18 Q1014
                        NOSIG=
201007211300 METAR LMML NIL=
201007211245 METAR LMML 211245Z 23008KT 180V280 9999 FEW037 28/19 Q1014
                        NOSIG=
201007211230 METAR LMML NIL=
201007211215 METAR LMML 211215Z VRB02KT 9999 SCT026 28/19 Q1014 NOSIG=
201007211200 METAR LMML NIL=
201007211145 METAR LMML 211145Z 02005KT 340V060 9999 SCT030 29/20 Q1014
                        NOSIG=
201007211130 METAR LMML NIL=
201007211115 METAR LMML 211115Z 01006KT 320V050 9999 FEW022 28/21 Q1014
                        NOSIG=
201007211045 METAR LMML 211045Z 36007KT 290V030 9999 FEW022 30/23 Q1014
                        NOSIG=
201007211030 METAR LMML NIL=
201007211015 METAR LMML 211015Z 23006KT 190V280 9999 FEW020 30/16 Q1014
                        NOSIG=
201007211000 METAR LMML NIL=
201007210945 METAR LMML 210945Z 19004KT 140V270 9999 FEW020 30/17 Q1014
                        NOSIG=
201007210930 METAR LMML NIL=
201007210915 METAR LMML 210915Z VRB03KT 9999 FEW020 30/18 Q1015 NOSIG=
201007210900 METAR LMML NIL=
201007210845 METAR LMML 210845Z 23005KT 160V290 CAVOK 28/20 Q1015 NOSIG=
201007210830 METAR LMML NIL=
201007210815 METAR LMML 210815Z 24005KT 180V310 9999 FEW020 28/21 Q1014
                        NOSIG=
201007210745 METAR LMML 210745Z 22005KT 180V280 9999 FEW020 27/21 Q1014
                        NOSIG=
201007210730 METAR LMML NIL=
201007210715 METAR LMML 210715Z 22006KT 170V270 9999 FEW020 27/21 Q1014
                        NOSIG=
201007210700 METAR LMML NIL=
201007210645 METAR LMML 210645Z 22006KT 160V280 9999 FEW020 26/22 Q1014
                        NOSIG=
201007210615 METAR LMML 210615Z 23007KT 200V270 9999 FEW020 26/22 Q1014
                        NOSIG=
201007210600 METAR LMML NIL=
201007210545 METAR LMML 210545Z 24005KT 190V280 9999 FEW020 25/22 Q1014
                        NOSIG=
201007210530 METAR LMML NIL=
201007210515 METAR LMML 210515Z 23004KT 200V270 9999 FEW020 24/22 Q1013
                        NOSIG=
201007210500 METAR LMML NIL=
201007210445 METAR LMML 210445Z VRB03KT 9000 FEW018 24/21 Q1013 NOSIG=
201007210430 METAR LMML NIL=
201007210415 METAR LMML 210415Z 21004KT 9000 FEW018 23/21 Q1013 NOSIG=
201007210400 METAR LMML NIL=
201007210345 METAR LMML 210345Z VRB03KT CAVOK 23/21 Q1013 NOSIG=
201007210330 METAR LMML NIL=
201007210315 METAR LMML 210315Z VRB02KT CAVOK 23/21 Q1012 NOSIG=
201007210300 METAR LMML NIL=
201007210245 METAR LMML 210245Z VRB02KT 9999 FEW018 23/21 Q1012 NOSIG=
201007210230 METAR LMML NIL=
201007210215 METAR LMML 210215Z VRB02KT 9999 FEW018 23/20 Q1012 NOSIG=
201007210200 METAR LMML NIL=
201007210145 METAR LMML 210145Z VRB02KT 9999 FEW018 23/21 Q1013 NOSIG=
201007210115 METAR LMML 210115Z VRB03KT 9999 FEW017 23/21 Q1013 NOSIG=
201007210100 METAR LMML NIL=
201007210045 METAR LMML 210045Z VRB03KT 9999 FEW017 24/21 Q1013 NOSIG=
201007210030 METAR LMML NIL=
201007210015 METAR LMML 210015Z VRB01KT 9999 FEW017 24/20 Q1013 NOSIG=
201007202345 METAR LMML 202345Z VRB03KT 9999 FEW017 24/21 Q1013 NOSIG=
201007202330 METAR LMML NIL=
201007202315 METAR LMML 202315Z VRB03KT CAVOK 24/21 Q1013 NOSIG=
201007202300 METAR LMML NIL=
201007202245 METAR LMML 202245Z VRB03KT CAVOK 24/21 Q1014 NOSIG=
201007202215 METAR LMML 202215Z 34004KT 310V030 CAVOK 25/20 Q1014 NOSIG=
201007202200 METAR LMML NIL=
201007202145 METAR LMML 202145Z VRB03KT CAVOK 24/20 Q1014 NOSIG=
201007202130 METAR LMML NIL=
201007202115 METAR LMML 202115Z VRB03KT CAVOK 25/21 Q1014 NOSIG=
201007202100 METAR LMML NIL=
201007202045 METAR LMML 202045Z VRB02KT CAVOK 25/21 Q1014 NOSIG=
201007202030 METAR LMML NIL=
201007202015 METAR LMML 202015Z VRB02KT 9999 FEW025 25/21 Q1013 NOSIG=
201007202000 METAR LMML NIL=
201007201945 METAR LMML 201945Z VRB03KT 9999 FEW025 26/21 Q1013 NOSIG=
201007201930 METAR LMML NIL=
201007201915 METAR LMML 201915Z VRB03KT 9999 FEW025 26/22 Q1013 NOSIG=
201007201900 METAR LMML NIL=
201007201845 METAR LMML 201845Z VRB02KT 9999 FEW025 26/22 Q1013 NOSIG=
201007201830 METAR LMML NIL=
201007201815 METAR LMML 201815Z VRB03KT 9999 FEW025 26/22 Q1013 NOSIG=
201007201800 METAR LMML NIL=
201007201745 METAR LMML 201745Z VRB03KT 9999 FEW025 27/23 Q1013 NOSIG=
201007201730 METAR LMML NIL=
201007201715 METAR LMML 201715Z 20004KT 160V240 9999 FEW025 28/23 Q1013
                        NOSIG=
201007201700 METAR LMML NIL=
201007201645 METAR LMML 201645Z 19004KT 150V240 9999 FEW025 28/23 Q1013
                        NOSIG=
201007201630 METAR LMML NIL=
201007201615 METAR LMML 201615Z VRB03KT 9000 SCT025 28/23 Q1012 TEMPO
                        9999=
201007201545 METAR LMML 201545Z 20005KT 160V260 9000 FEW017 28/23 Q1012
                        TEMPO BKN015=
201007201515 METAR LMML 201515Z 21006KT 170V260 9000 SCT017 28/23 Q1012
                        TEMPO BKN015=
201007201500 METAR LMML NIL=
201007201445 METAR LMML 201445Z 21006KT 140V260 9000 BKN015 29/23 Q1013
                        NOSIG=
201007201430 METAR LMML NIL=
201007201415 METAR LMML 201415Z 19005KT 150V250 9000 BKN016 29/23 Q1013
                        TEMPO BKN014=
201007201400 METAR LMML NIL=
201007201345 METAR LMML 201345Z 19006KT 150V220 9000 BKN016 29/24 Q1013
                        TEMPO BKN014=
201007201330 METAR LMML NIL=
201007201315 METAR LMML 201315Z 20005KT 140V250 9000 BKN018 29/24 Q1013
                        NOSIG=
201007201300 METAR LMML NIL=
201007201245 METAR LMML 201245Z 17005KT 130V220 9000 BKN019 29/24 Q1013
                        NOSIG=
201007201230 METAR LMML NIL=
201007201215 METAR LMML 201215Z 19005KT 150V220 9000 BKN019 30/23 Q1013
                        NOSIG=
201007201200 METAR LMML NIL=
201007201145 METAR LMML 201145Z VRB03KT 9000 BKN021 28/22 Q1013 TEMPO
                        BKN015=
201007201130 METAR LMML NIL=
201007201115 METAR LMML 201115Z 12005KT 040V170 9000 BKN017 30/23 Q1014
                        TEMPO BKN015=
201007201100 METAR LMML NIL=
201007201045 METAR LMML 201045Z 09006KT 050V150 9000 BKN014 28/23 Q1014
                        BECMG 9999 SCT015=
201007201030 METAR LMML NIL=
201007201015 METAR LMML 201015Z 08005KT 040V140 9000 BKN014 28/23 Q1014
                        NOSIG=
201007201000 METAR LMML NIL=
201007200945 METAR LMML 200945Z 07005KT 020V110 9000 BKN014 28/23 Q1014
                        NOSIG=
201007200930 METAR LMML NIL=
201007200915 METAR LMML 200915Z 06004KT 340V140 9999 BKN014 28/24 Q1014
                        NOSIG=
201007200900 METAR LMML NIL=
201007200845 METAR LMML 200845Z 06007KT 020V100 9999 BKN014 28/24 Q1014
                        NOSIG=
201007200830 METAR LMML NIL=
201007200815 METAR LMML 200815Z 09006KT 050V140 9000 BKN015 29/23 Q1014
                        NOSIG=
201007200800 METAR LMML NIL=
201007200745 METAR LMML 200745Z VRB02KT 9000 SCT018 29/23 Q1014 BECMG
                        9999=
201007200730 METAR LMML NIL=
201007200715 METAR LMML 200715Z VRB02KT 9000 BKN016 28/23 Q1014 BECMG
                        9999=
201007200700 METAR LMML NIL=
201007200645 METAR LMML 200645Z VRB03KT 7000 FEW008 SCT013 27/24 Q1014
                        BECMG 9999=
201007200630 METAR LMML NIL=
201007200615 METAR LMML 200615Z VRB03KT 6000 FEW008 26/24 Q1014 TEMPO
                        BKN008=
201007200600 METAR LMML NIL=
201007200545 METAR LMML 200545Z 31004KT 6000 FEW012 25/24 Q1014 TEMPO
                        BKN012 RMK MIST=
201007200530 METAR LMML NIL=
201007200515 METAR LMML 200515Z VRB03KT 6000 SCT012 25/24 Q1014 TEMPO
                        BKN012=
201007200500 METAR LMML NIL=
201007200445 METAR LMML 200445Z VRB02KT 6000 FEW012 25/23 Q1013 TEMPO
                        BKN010=
201007200430 METAR LMML NIL=
201007200415 METAR LMML 200415Z VRB02KT 6000 FEW012 25/23 Q1013 TEMPO
                        BKN010=
201007200400 METAR LMML NIL=
201007200345 METAR LMML 200345Z VRB02KT 6000 FEW012 25/23 Q1013 TEMPO
                        BKN010=
201007200330 METAR LMML NIL=
201007200315 METAR LMML 200315Z VRB03KT 6000 FEW009 25/24 Q1013 NOSIG=
201007200300 METAR LMML NIL=
201007200245 METAR LMML 200245Z VRB02KT 6000 FEW007 25/24 Q1013 NOSIG=
201007200230 METAR LMML NIL=
201007200215 METAR LMML 200215Z VRB01KT 6000 FEW008 26/24 Q1013 NOSIG=
201007200200 METAR LMML NIL=
201007200145 METAR LMML 200145Z VRB02KT 6000 FEW007 26/24 Q1013 NOSIG=
201007200130 METAR LMML NIL=
201007200115 METAR LMML 200115Z 07004KT 7000 SCT005 26/24 Q1013 NOSIG=
201007200100 METAR LMML NIL=
201007200045 METAR LMML 200045Z VRB03KT 7000 FEW008 26/24 Q1013 NOSIG=
201007200030 METAR LMML NIL=
201007200015 METAR LMML 200015Z VRB03KT 9000 FEW010 26/24 Q1013 NOSIG=
201007200000 METAR LMML NIL=
201007192345 METAR LMML 192345Z 07004KT 9000 FEW010 26/24 Q1013 NOSIG=
201007192330 METAR LMML NIL=
201007192315 METAR LMML 192315Z VRB03KT 9999 SCT010 26/24 Q1013 NOSIG=
201007192245 METAR LMML 192245Z VRB03KT 9999 SCT010 26/24 Q1013 NOSIG=
201007192230 METAR LMML NIL=
201007192215 METAR LMML 192215Z 05004KT 020V090 9999 SCT010 27/24 Q1014
                        NOSIG=
201007192145 METAR LMML 192145Z VRB03KT 9999 SCT010 27/24 Q1013 TEMPO
                        BKN010=
201007192130 METAR LMML NIL=
201007192115 METAR LMML 192115Z VRB03KT 9999 SCT010 27/24 Q1014 TEMPO
                        BKN010=
201007192100 METAR LMML NIL=
201007192045 METAR LMML 192045Z VRB03KT 9999 BKN009 27/24 Q1014 NOSIG=
201007192030 METAR LMML NIL=
201007192015 METAR LMML 192015Z 01004KT 320V100 9999 SCT012 27/24 Q1014
                        NOSIG=
201007191945 METAR LMML 191945Z 03004KT 350V060 9999 FEW011 27/24 Q1014
                        NOSIG=
201007191930 METAR LMML NIL=
201007191915 METAR LMML 191915Z 03004KT 350V120 9999 SCT011 27/24 Q1014
                        NOSIG=
201007191845 METAR LMML 191845Z 02005KT 360V060 9999 FEW012 27/24 Q1013
                        NOSIG=
201007191830 METAR LMML NIL=
201007191815 METAR LMML 191815Z 01005KT 340V040 9999 FEW013 27/23 Q1013
                        NOSIG=
201007191745 METAR LMML 191745Z 01006KT 9999 FEW012 28/24 Q1013 NOSIG=
201007191730 METAR LMML NIL=
201007191715 METAR LMML 191715Z 02006KT 350V050 9999 FEW012 28/23 Q1013
                        NOSIG=
201007191700 METAR LMML NIL=
201007191645 METAR LMML 191645Z 01004KT 260V070 9999 FEW020 30/23 Q1013
                        NOSIG=
201007191630 METAR LMML NIL=
201007191615 METAR LMML 191615Z 04005KT 360V070 9999 FEW020 30/24 Q1013
                        NOSIG=
201007191600 METAR LMML NIL=
201007191545 METAR LMML 191545Z 02005KT 310V060 9999 FEW022 31/23 Q1013
                        NOSIG=
201007191530 METAR LMML NIL=
201007191515 METAR LMML 191515Z 03006KT 360V070 9999 FEW022 31/24 Q1013
                        NOSIG=
201007191500 METAR LMML NIL=
201007191445 METAR LMML 191445Z 04007KT 350V080 9999 FEW021 32/24 Q1013
                        NOSIG=
201007191430 METAR LMML NIL=
201007191415 METAR LMML 191415Z 04006KT 340V110 9999 FEW021 32/24 Q1013
                        NOSIG=
201007191400 METAR LMML NIL=
201007191345 METAR LMML 191345Z 06007KT 360V100 9999 FEW021 32/23 Q1013
                        NOSIG=
201007191330 METAR LMML NIL=
201007191315 METAR LMML 191315Z 06009KT 020V100 9999 FEW018 31/22 Q1013
                        NOSIG=
201007191300 METAR LMML NIL=
201007191245 METAR LMML 191245Z 05009KT 010V080 9999 FEW016 31/23 Q1013
                        NOSIG=
201007191230 METAR LMML NIL=
201007191215 METAR LMML 191215Z 06010KT 020V110 9999 FEW014 31/24 Q1013
                        NOSIG=
201007191200 METAR LMML NIL=
201007191145 METAR LMML 191145Z 06009KT 020V100 9999 FEW015 31/22 Q1013
                        NOSIG=
201007191130 METAR LMML NIL=
201007191115 METAR LMML 191115Z 05010KT 010V100 9999 FEW015 32/22 Q1013
                        NOSIG=
201007191100 METAR LMML NIL=
201007191045 METAR LMML 191045Z 05010KT 010V100 9999 FEW015 31/22 Q1013
                        NOSIG=
201007191030 METAR LMML NIL=
201007191015 METAR LMML 191015Z 03009KT 340V070 9999 FEW015 31/23 Q1013
                        NOSIG=
201007191000 METAR LMML NIL=
201007190945 METAR LMML 190945Z 02009KT 9999 FEW015 31/24 Q1013 NOSIG=
201007190930 METAR LMML NIL=
201007190915 METAR LMML 190915Z 03009KT 360V080 9999 FEW015 30/23 Q1013
                        NOSIG=
201007190845 METAR LMML 190845Z 01011KT 9999 FEW015 29/22 Q1013 NOSIG=
201007190830 METAR LMML NIL=
201007190815 METAR LMML 190815Z 01010KT 350V050 9999 FEW020 30/23 Q1013
                        NOSIG=
201007190800 METAR LMML NIL=
201007190745 METAR LMML 190745Z 03011KT 360V060 CAVOK 29/21 Q1013 NOSIG=
201007190730 METAR LMML NIL=
201007190715 METAR LMML 190715Z 03010KT 360V060 CAVOK 29/21 Q1013 NOSIG=
201007190700 METAR LMML NIL=
201007190645 METAR LMML 190645Z 02008KT CAVOK 28/22 Q1013 NOSIG=
201007190630 METAR LMML NIL=
201007190615 METAR LMML 190615Z 05007KT 350V090 CAVOK 28/21 Q1013 NOSIG=
201007190600 METAR LMML NIL=
201007190545 METAR LMML 190545Z VRB03KT CAVOK 26/23 Q1013 NOSIG=
201007190530 METAR LMML NIL=
201007190515 METAR LMML 190515Z VRB01KT 9000 NSC 25/23 Q1012 BECMG 9999=
201007190500 METAR LMML NIL=
201007190445 METAR LMML 190445Z VRB01KT 9000 NSC 24/23 Q1012 NOSIG=
201007190430 METAR LMML NIL=
201007190415 METAR LMML 190415Z VRB02KT 7000 NSC 24/23 Q1012 NOSIG=
201007190400 METAR LMML NIL=
201007190345 METAR LMML 190345Z VRB03KT 8000 FEW005 24/23 Q1012 NOSIG=
201007190330 METAR LMML NIL=
201007190315 METAR LMML 190315Z 21004KT 7000 FEW005 24/23 Q1012 TEMPO
                        5000 BKN005=
201007190300 METAR LMML NIL=
201007190245 METAR LMML 190245Z VRB02KT 7000 FEW005 24/23 Q1012 TEMPO
                        5000 BKN005=
201007190215 METAR LMML 190215Z VRB01KT 8000 SCT007 24/23 Q1012 TEMPO
                        7000=
201007190200 METAR LMML NIL=
201007190145 METAR LMML 190145Z VRB02KT 9000 FEW007 24/23 Q1012 TEMPO
                        7000=
201007190130 METAR LMML NIL=
201007190115 METAR LMML 190115Z VRB02KT 9000 FEW007 24/23 Q1012 TEMPO
                        7000=
201007190100 METAR LMML NIL=
201007190045 METAR LMML 190045Z VRB02KT 9999 FEW007 25/23 Q1012 TEMPO
                        7000=
201007190030 METAR LMML NIL=
201007190015 METAR LMML 190015Z VRB02KT CAVOK 25/23 Q1013 NOSIG=
201007190000 METAR LMML NIL=
201007182345 METAR LMML 182345Z 28004KT 240V330 CAVOK 25/23 Q1013 NOSIG=
201007182330 METAR LMML NIL=
201007182315 METAR LMML 182315Z VRB03KT CAVOK 25/22 Q1013 NOSIG=
201007182300 METAR LMML NIL=
201007182245 METAR LMML 182245Z VRB03KT CAVOK 25/22 Q1013 NOSIG=
201007182230 METAR LMML NIL=
201007182215 METAR LMML 182215Z VRB03KT CAVOK 25/22 Q1013 NOSIG=
201007182200 METAR LMML NIL=
201007182145 METAR LMML 182145Z 26005KT 220V300 CAVOK 26/22 Q1013 NOSIG=
201007182130 METAR LMML NIL=
201007182115 METAR LMML 182115Z VRB03KT CAVOK 26/21 Q1014 NOSIG=
201007182100 METAR LMML NIL=
201007182045 METAR LMML 182045Z 30007KT CAVOK 26/21 Q1013 NOSIG=
201007182030 METAR LMML NIL=
201007182015 METAR LMML 182015Z 28004KT 250V330 CAVOK 26/22 Q1014 NOSIG=
201007182000 METAR LMML NIL=
201007181945 METAR LMML 181945Z 33006KT 290V010 CAVOK 26/22 Q1013 NOSIG=
201007181930 METAR LMML NIL=
201007181915 METAR LMML 181915Z 30004KT 260V330 CAVOK 27/22 Q1013 NOSIG=
201007181900 METAR LMML NIL=
201007181845 METAR LMML 181845Z 30006KT 270V330 CAVOK 27/22 Q1013 NOSIG=
201007181830 METAR LMML NIL=
201007181815 METAR LMML 181815Z 30008KT CAVOK 28/22 Q1013 NOSIG=
201007181800 METAR LMML NIL=
201007181745 METAR LMML 181745Z 33008KT CAVOK 29/22 Q1013 NOSIG=
201007181730 METAR LMML NIL=
201007181715 METAR LMML 181715Z 33009KT CAVOK 30/23 Q1013 NOSIG=
201007181700 METAR LMML NIL=
201007181645 METAR LMML 181645Z 33010KT 300V360 CAVOK 30/22 Q1013 NOSIG=
201007181630 METAR LMML NIL=
201007181615 METAR LMML 181615Z 34012KT CAVOK 32/19 Q1013 NOSIG=
201007181600 METAR LMML NIL=
201007181545 METAR LMML 181545Z 33012KT CAVOK 32/17 Q1013 NOSIG=
201007181530 METAR LMML NIL=
201007181515 METAR LMML 181515Z 34011KT 300V010 CAVOK 32/20 Q1013 NOSIG=
201007181500 METAR LMML NIL=
201007181445 METAR LMML 181445Z 34010KT CAVOK 32/20 Q1013 NOSIG=
201007181430 METAR LMML NIL=
201007181415 METAR LMML 181415Z 35009KT CAVOK 33/21 Q1013 NOSIG=
201007181400 METAR LMML NIL=
201007181345 METAR LMML 181345Z 34009KT 280V010 CAVOK 33/21 Q1014 NOSIG=
201007181330 METAR LMML NIL=
201007181315 METAR LMML 181315Z 33010KT 290V360 CAVOK 33/20 Q1014 NOSIG=
201007181300 METAR LMML NIL=
201007181245 METAR LMML 181245Z 34009KT 310V020 9999 FEW020 33/21 Q1014
                        NOSIG=
201007181230 METAR LMML NIL=
201007181215 METAR LMML 181215Z 35008KT 300V030 9999 FEW020 33/23 Q1014
                        NOSIG=
201007181200 METAR LMML NIL=
201007181145 METAR LMML 181145Z 36008KT 340V050 9999 FEW020 33/23 Q1014
                        NOSIG=
201007181115 METAR LMML 181115Z 33007KT 300V010 9999 FEW020 33/23 Q1014
                        TEMPO CAVOK=
201007181100 METAR LMML NIL=
201007181045 METAR LMML 181045Z 34007KT 280V020 9999 FEW020 33/18 Q1014
                        TEMPO CAVOK=
201007181030 METAR LMML NIL=
201007181015 METAR LMML 181015Z 33005KT 280V040 9999 FEW020 33/19 Q1014
                        NOSIG=
201007181000 METAR LMML NIL=
201007180945 METAR LMML 180945Z 33007KT 290V020 CAVOK 32/18 Q1014 NOSIG=
201007180930 METAR LMML NIL=
201007180915 METAR LMML 180915Z 34007KT 290V010 9999 FEW020 32/19 Q1014
                        NOSIG=
201007180900 METAR LMML NIL=
201007180845 METAR LMML 180845Z 34005KT 270V070 9999 FEW020 31/22 Q1014
                        NOSIG=
201007180830 METAR LMML NIL=
201007180815 METAR LMML 180815Z 31005KT 270V020 9999 FEW012 30/22 Q1014
                        NOSIG=
201007180745 METAR LMML 180745Z 33004KT 260V030 9999 FEW012 31/24 Q1014
                        NOSIG=
201007180730 METAR LMML NIL=
201007180715 METAR LMML 180715Z 34005KT 290V010 9999 FEW008 30/23 Q1014
                        NOSIG=
201007180700 METAR LMML NIL=
201007180645 METAR LMML 180645Z 33004KT 290V020 9999 FEW008 28/23 Q1014
                        NOSIG=
201007180630 METAR LMML NIL=
201007180615 METAR LMML 180615Z 30005KT 260V330 9999 FEW008 27/23 Q1014
                        NOSIG=
201007180600 METAR LMML NIL=
201007180545 METAR LMML 180545Z 28006KT 250V320 9999 FEW007 26/24 Q1014
                        NOSIG=
201007180530 METAR LMML NIL=
201007180515 METAR LMML 180515Z VRB03KT 9000 FEW007 25/24 Q1014 NOSIG=
201007180500 METAR LMML NIL=
201007180445 METAR LMML 180445Z 20004KT 170V230 9000 FEW007 25/23 Q1014
                        NOSIG=
201007180430 METAR LMML NIL=
201007180415 METAR LMML 180415Z VRB03KT 9000 FEW007 25/23 Q1014 NOSIG=
201007180400 METAR LMML NIL=
201007180345 METAR LMML 180345Z 25007KT 200V280 8000 FEW007 25/23 Q1014
                        NOSIG=
201007180330 METAR LMML NIL=
201007180315 METAR LMML 180315Z 25011KT 220V280 CAVOK 25/23 Q1014 NOSIG=
201007180300 METAR LMML NIL=
201007180245 METAR LMML 180245Z 26009KT CAVOK 26/23 Q1014 NOSIG=
201007180230 METAR LMML NIL=
201007180215 METAR LMML 180215Z 26006KT 230V290 CAVOK 26/19 Q1014 NOSIG=
201007180200 METAR LMML NIL=
201007180145 METAR LMML 180145Z 23004KT 200V260 CAVOK 26/17 Q1014 NOSIG=
201007180130 METAR LMML NIL=
201007180115 METAR LMML 180115Z 23007KT 200V270 CAVOK 27/19 Q1014 NOSIG=
201007180100 METAR LMML NIL=
201007180045 METAR LMML 180045Z 23006KT CAVOK 27/16 Q1014 NOSIG=
201007180030 METAR LMML NIL=
201007180015 METAR LMML 180015Z 24005KT 200V260 CAVOK 26/19 Q1014 NOSIG=
201007180000 METAR LMML NIL=
201007172345 METAR LMML 172345Z VRB03KT CAVOK 27/19 Q1014 NOSIG=
201007172330 METAR LMML NIL=
201007172315 METAR LMML 172315Z VRB03KT CAVOK 27/15 Q1015 NOSIG=
201007172300 METAR LMML NIL=
201007172245 METAR LMML 172245Z VRB03KT CAVOK 26/17 Q1015 NOSIG=
201007172230 METAR LMML NIL=
201007172215 METAR LMML 172215Z 27004KT CAVOK 27/18 Q1015 NOSIG=
201007172200 METAR LMML NIL=
201007172145 METAR LMML 172145Z 26004KT CAVOK 27/16 Q1015 NOSIG=
201007172130 METAR LMML NIL=
201007172115 METAR LMML 172115Z 26004KT 230V290 CAVOK 28/14 Q1015 NOSIG=
201007172100 METAR LMML NIL=
201007172045 METAR LMML 172045Z 27005KT CAVOK 28/11 Q1015 NOSIG=
201007172030 METAR LMML NIL=
201007172015 METAR LMML 172015Z 26005KT CAVOK 28/12 Q1015 NOSIG=
201007172000 METAR LMML NIL=
201007171945 METAR LMML 171945Z 27004KT CAVOK 28/15 Q1015 NOSIG=
201007171930 METAR LMML NIL=
201007171915 METAR LMML 171915Z 26004KT 230V290 CAVOK 29/17 Q1015 NOSIG=
201007171900 METAR LMML NIL=
201007171845 METAR LMML 171845Z 25004KT 220V280 CAVOK 29/17 Q1015 NOSIG=
201007171830 METAR LMML NIL=
201007171815 METAR LMML 171815Z VRB03KT CAVOK 29/14 Q1015 NOSIG=
201007171800 METAR LMML NIL=
201007171745 METAR LMML 171745Z 20004KT 170V240 CAVOK 31/16 Q1014 NOSIG=
201007171730 METAR LMML NIL=
201007171715 METAR LMML 171715Z 23005KT 200V280 CAVOK 32/14 Q1014 NOSIG=
201007171700 METAR LMML NIL=
201007171645 METAR LMML 171645Z 24006KT 210V290 CAVOK 32/14 Q1014 NOSIG=
201007171615 METAR LMML 171615Z 24007KT 200V280 CAVOK 33/14 Q1014 NOSIG=
201007171545 METAR LMML 171545Z 22008KT 200V270 CAVOK 33/14 Q1014 NOSIG=
201007171530 METAR LMML NIL=
201007171515 METAR LMML 171515Z 21007KT 180V260 CAVOK 34/14 Q1014 NOSIG=
201007171500 METAR LMML NIL=
201007171445 METAR LMML 171445Z 21007KT 170V260 CAVOK 34/15 Q1014 NOSIG=
201007171430 METAR LMML NIL=
201007171415 METAR LMML 171415Z 23006KT 190V270 CAVOK 34/14 Q1015 NOSIG=
201007171400 METAR LMML NIL=
201007171345 METAR LMML 171345Z 22006KT 170V270 CAVOK 34/15 Q1015 NOSIG=
201007171330 METAR LMML NIL=
201007171315 METAR LMML 171315Z 21004KT 150V010 CAVOK 34/18 Q1015 NOSIG=
201007171300 METAR LMML NIL=
201007171245 METAR LMML 171245Z 18004KT CAVOK 34/18 Q1015 NOSIG=
201007171230 METAR LMML NIL=
201007171215 METAR LMML 171215Z 15004KT 060V220 CAVOK 34/18 Q1015 NOSIG=
201007171200 METAR LMML NIL=
201007171145 METAR LMML 171145Z 14007KT 080V200 CAVOK 34/19 Q1015 NOSIG=
201007171130 METAR LMML NIL=
201007171115 METAR LMML 171115Z 16005KT 080V220 CAVOK 34/17 Q1015 NOSIG=
201007171100 METAR LMML NIL=
201007171045 METAR LMML 171045Z 06005KT 360V150 CAVOK 36/16 Q1015 NOSIG=
201007171030 METAR LMML NIL=
201007171015 METAR LMML 171015Z 04005KT 360V100 CAVOK 35/15 Q1015 NOSIG=
201007171000 METAR LMML NIL=
201007170945 METAR LMML 170945Z VRB02KT CAVOK 35/15 Q1015 NOSIG=
201007170930 METAR LMML NIL=
201007170915 METAR LMML 170915Z 03005KT CAVOK 35/15 Q1015 NOSIG=
201007170845 METAR LMML 170845Z 36004KT 250V090 CAVOK 34/14 Q1015 NOSIG=
201007170830 METAR LMML NIL=
201007170815 METAR LMML 170815Z VRB03KT CAVOK 34/13 Q1015 NOSIG=
201007170800 METAR LMML NIL=
201007170745 METAR LMML 170745Z VRB03KT CAVOK 33/14 Q1015 NOSIG=
201007170730 METAR LMML NIL=
201007170715 METAR LMML 170715Z VRB03KT CAVOK 33/15 Q1015 NOSIG=
201007170700 METAR LMML NIL=
201007170645 METAR LMML 170645Z VRB02KT CAVOK 31/19 Q1015 NOSIG=
201007170630 METAR LMML NIL=
201007170615 METAR LMML 170615Z VRB02KT CAVOK 29/18 Q1015 NOSIG=
201007170600 METAR LMML NIL=
201007170545 METAR LMML 170545Z VRB03KT CAVOK 28/18 Q1014 NOSIG=
201007170530 METAR LMML NIL=
201007170515 METAR LMML 170515Z VRB03KT CAVOK 27/19 Q1014 NOSIG=
201007170500 METAR LMML NIL=
201007170445 METAR LMML 170445Z 32004KT CAVOK 26/18 Q1014 NOSIG=
201007170430 METAR LMML NIL=
201007170415 METAR LMML 170415Z VRB03KT 7000 NSC 24/21 Q1014 TEMPO 5000
                        BR=
201007170400 METAR LMML NIL=
201007170345 METAR LMML 170345Z VRB02KT 6000 NSC 25/23 Q1014 TEMPO 5000
                        BR=
201007170330 METAR LMML NIL=
201007170315 METAR LMML 170315Z VRB03KT 7000 NSC 25/23 Q1014 TEMPO 5000
                        BR=
201007170300 METAR LMML NIL=
201007170245 METAR LMML 170245Z VRB03KT 7000 NSC 25/23 Q1014 NOSIG=
201007170230 METAR LMML NIL=
201007170215 METAR LMML 170215Z VRB03KT 9000 NSC 25/22 Q1014 NOSIG=
201007170200 METAR LMML NIL=
201007170145 METAR LMML 170145Z VRB03KT CAVOK 25/22 Q1014 NOSIG=
201007170130 METAR LMML NIL=
201007170115 METAR LMML 170115Z VRB03KT CAVOK 25/22 Q1014 NOSIG=
201007170100 METAR LMML NIL=
201007170045 METAR LMML 170045Z VRB03KT CAVOK 26/22 Q1014 NOSIG=
201007170030 METAR LMML NIL=
201007170015 METAR LMML 170015Z VRB03KT CAVOK 26/21 Q1014 NOSIG=
201007170000 METAR LMML NIL=
201007162345 METAR LMML 162345Z VRB03KT CAVOK 26/21 Q1014 NOSIG=
201007162330 METAR LMML NIL=
201007162315 METAR LMML 162315Z VRB03KT CAVOK 26/22 Q1014 NOSIG=
201007162300 METAR LMML NIL=
201007162245 METAR LMML 162245Z VRB03KT CAVOK 27/22 Q1015 NOSIG=
201007162230 METAR LMML NIL=
201007162215 METAR LMML 162215Z 36004KT 320V020 CAVOK 27/21 Q1015 NOSIG=
201007162200 METAR LMML NIL=
201007162145 METAR LMML 162145Z VRB03KT CAVOK 27/22 Q1015 NOSIG=
201007162130 METAR LMML NIL=
201007162115 METAR LMML 162115Z VRB03KT CAVOK 27/22 Q1015 NOSIG=
201007162100 METAR LMML NIL=
201007162045 METAR LMML 162045Z VRB02KT CAVOK 27/21 Q1014 NOSIG=
201007162030 METAR LMML NIL=
201007162015 METAR LMML 162015Z 33004KT 300V360 CAVOK 28/22 Q1014 NOSIG=
201007162000 METAR LMML NIL=
201007161945 METAR LMML 161945Z 34004KT 300V020 CAVOK 28/21 Q1014 NOSIG=
201007161930 METAR LMML NIL=
201007161915 METAR LMML 161915Z VRB03KT CAVOK 29/17 Q1014 NOSIG=
201007161900 METAR LMML NIL=
201007161845 METAR LMML 161845Z VRB02KT CAVOK 29/18 Q1013 NOSIG=
201007161830 METAR LMML NIL=
201007161815 METAR LMML 161815Z VRB02KT CAVOK 29/19 Q1013 NOSIG=
201007161745 METAR LMML 161745Z VRB03KT CAVOK 31/20 Q1013 NOSIG=
201007161715 METAR LMML 161715Z 21004KT 180V240 CAVOK 31/18 Q1013 NOSIG=
201007161700 METAR LMML NIL=
201007161645 METAR LMML 161645Z 20004KT 170V250 CAVOK 32/15 Q1013 NOSIG=
201007161630 METAR LMML NIL=
201007161615 METAR LMML 161615Z VRB03KT CAVOK 33/15 Q1013 NOSIG=
201007161600 METAR LMML NIL=
201007161545 METAR LMML 161545Z 18004KT 090V240 CAVOK 33/15 Q1013 NOSIG=
201007161530 METAR LMML NIL=
201007161515 METAR LMML 161515Z 16004KT 070V220 CAVOK 33/16 Q1013 NOSIG=
201007161500 METAR LMML NIL=
201007161445 METAR LMML 161445Z 17005KT 130V250 CAVOK 33/16 Q1013 NOSIG=
201007161430 METAR LMML NIL=
201007161415 METAR LMML 161415Z 19005KT 140V230 CAVOK 33/17 Q1014 NOSIG=
201007161400 METAR LMML NIL=
201007161345 METAR LMML 161345Z 17005KT 120V220 CAVOK 33/15 Q1014 NOSIG=
201007161330 METAR LMML NIL=
201007161315 METAR LMML 161315Z 16005KT 110V210 CAVOK 33/17 Q1014 NOSIG=
201007161300 METAR LMML NIL=
201007161245 METAR LMML 161245Z 20005KT 160V270 CAVOK 33/18 Q1014 NOSIG=
201007161230 METAR LMML NIL=
201007161215 METAR LMML 161215Z 20005KT 160V260 CAVOK 33/18 Q1014 NOSIG=
201007161145 METAR LMML 161145Z 14005KT 100V190 CAVOK 33/15 Q1014 NOSIG=
201007161130 METAR LMML NIL=
201007161115 METAR LMML 161115Z 15006KT 100V190 CAVOK 34/12 Q1014 NOSIG=
201007161100 METAR LMML NIL=
201007161045 METAR LMML 161045Z 10005KT 060V160 CAVOK 34/15 Q1014 NOSIG=
201007161030 METAR LMML NIL=
201007161015 METAR LMML 161015Z 14005KT 070V190 CAVOK 34/15 Q1014 NOSIG=
201007161000 METAR LMML NIL=
201007160945 METAR LMML 160945Z VRB03KT CAVOK 34/14 Q1014 NOSIG=
201007160930 METAR LMML NIL=
201007160915 METAR LMML 160915Z VRB03KT CAVOK 33/16 Q1014 NOSIG=
201007160900 METAR LMML NIL=
201007160845 METAR LMML 160845Z 12004KT 040V180 CAVOK 31/21 Q1014 NOSIG=
201007160830 METAR LMML NIL=
201007160815 METAR LMML 160815Z 11004KT 030V200 CAVOK 31/21 Q1014 NOSIG=
201007160800 METAR LMML NIL=
201007160745 METAR LMML 160745Z 04004KT 340V100 CAVOK 31/22 Q1014 NOSIG=
201007160730 METAR LMML NIL=
201007160715 METAR LMML 160715Z VRB02KT CAVOK 31/19 Q1014 NOSIG=
201007160700 METAR LMML NIL=
201007160645 METAR LMML 160645Z VRB01KT 9999 FEW025 29/17 Q1013 NOSIG=
201007160630 METAR LMML NIL=
201007160615 METAR LMML 160615Z VRB02KT CAVOK 27/20 Q1013 NOSIG=
201007160600 METAR LMML NIL=
201007160545 METAR LMML 160545Z VRB01KT CAVOK 26/20 Q1013 NOSIG=
201007160530 METAR LMML NIL=
201007160515 METAR LMML 160515Z VRB01KT CAVOK 25/19 Q1013 NOSIG=
201007160500 METAR LMML NIL=
201007160445 METAR LMML 160445Z VRB03KT 9999 FEW015 23/17 Q1013 NOSIG=
201007160430 METAR LMML NIL=
201007160415 METAR LMML 160415Z 00000KT 9999 FEW015 23/17 Q1013 NOSIG=
201007160400 METAR LMML NIL=
201007160345 METAR LMML 160345Z 00000KT CAVOK 23/17 Q1013 NOSIG=
201007160330 METAR LMML NIL=
201007160315 METAR LMML 160315Z VRB01KT CAVOK 23/18 Q1012 NOSIG=
201007160300 METAR LMML NIL=
201007160245 METAR LMML 160245Z VRB02KT CAVOK 24/19 Q1012 NOSIG=
201007160230 METAR LMML NIL=
201007160215 METAR LMML 160215Z VRB01KT CAVOK 24/19 Q1012 NOSIG=
201007160200 METAR LMML NIL=
201007160145 METAR LMML 160145Z VRB03KT CAVOK 24/19 Q1012 NOSIG=
201007160130 METAR LMML NIL=
201007160115 METAR LMML 160115Z VRB02KT CAVOK 24/16 Q1013 NOSIG=
201007160100 METAR LMML NIL=
201007160045 METAR LMML 160045Z VRB02KT CAVOK 25/16 Q1013 NOSIG=
201007160030 METAR LMML NIL=
201007160015 METAR LMML 160015Z VRB03KT CAVOK 25/16 Q1013 NOSIG=
201007160000 METAR LMML NIL=
201007152345 METAR LMML 152345Z VRB02KT CAVOK 25/16 Q1013 NOSIG=
201007152330 METAR LMML NIL=
201007152315 METAR LMML 152315Z VRB02KT CAVOK 25/15 Q1013 NOSIG=
201007152300 METAR LMML NIL=
201007152245 METAR LMML 152245Z VRB03KT CAVOK 26/15 Q1013 NOSIG=
201007152230 METAR LMML NIL=
201007152215 METAR LMML 152215Z VRB03KT CAVOK 26/17 Q1013 NOSIG=
201007152200 METAR LMML NIL=
201007152145 METAR LMML 152145Z VRB02KT CAVOK 26/16 Q1013 NOSIG=
201007152130 METAR LMML NIL=
201007152115 METAR LMML 152115Z VRB02KT CAVOK 27/16 Q1013 NOSIG=
201007152100 METAR LMML NIL=
201007152045 METAR LMML 152045Z VRB01KT CAVOK 28/19 Q1013 NOSIG=
201007152030 METAR LMML NIL=
201007152015 METAR LMML 152015Z VRB02KT CAVOK 29/11 Q1013 NOSIG=
201007152000 METAR LMML NIL=
201007151945 METAR LMML 151945Z VRB02KT CAVOK 29/13 Q1013 NOSIG=
201007151930 METAR LMML NIL=
201007151915 METAR LMML 151915Z 27004KT CAVOK 29/11 Q1013 NOSIG=
201007151900 METAR LMML NIL=
201007151845 METAR LMML 151845Z VRB03KT CAVOK 29/12 Q1012 NOSIG=
201007151830 METAR LMML NIL=
201007151815 METAR LMML 151815Z 23004KT CAVOK 31/13 Q1012 NOSIG=
201007151800 METAR LMML NIL=
201007151745 METAR LMML 151745Z VRB03KT CAVOK 32/13 Q1012 NOSIG=
201007151730 METAR LMML NIL=
201007151715 METAR LMML 151715Z VRB03KT CAVOK 32/14 Q1012 NOSIG=
201007151700 METAR LMML NIL=
201007151645 METAR LMML 151645Z 23005KT 190V270 CAVOK 33/13 Q1012 NOSIG=
201007151630 METAR LMML NIL=
201007151615 METAR LMML 151615Z 22006KT 190V270 CAVOK 33/15 Q1012 NOSIG=
201007151600 METAR LMML NIL=
201007151545 METAR LMML 151545Z 22005KT 170V310 CAVOK 33/17 Q1012 NOSIG=
201007151515 METAR LMML 151515Z 24007KT 190V270 CAVOK 34/14 Q1013 NOSIG=
201007151445 METAR LMML 151445Z 21006KT 160V270 CAVOK 34/15 Q1013 NOSIG=
201007151430 METAR LMML NIL=
201007151415 METAR LMML 151415Z 22007KT 190V280 CAVOK 34/14 Q1013 NOSIG=
201007151400 METAR LMML NIL=
201007151345 METAR LMML 151345Z 22007KT 160V270 CAVOK 34/15 Q1013 NOSIG=
201007151330 METAR LMML NIL=
201007151315 METAR LMML 151315Z 20007KT 170V280 CAVOK 34/13 Q1013 NOSIG=
201007151300 METAR LMML NIL=
201007151245 METAR LMML 151245Z 19008KT 160V240 CAVOK 34/12 Q1013 NOSIG=
201007151230 METAR LMML NIL=
201007151215 METAR LMML 151215Z 21008KT 160V250 CAVOK 34/14 Q1013 NOSIG=
201007151200 METAR LMML NIL=
201007151145 METAR LMML 151145Z 21007KT 170V270 CAVOK 35/12 Q1013 NOSIG=
201007151130 METAR LMML NIL=
201007151115 METAR LMML 151115Z 21006KT 150V270 CAVOK 34/11 Q1013 NOSIG=
201007151100 METAR LMML NIL=
201007151045 METAR LMML 151045Z 22006KT 160V270 CAVOK 33/11 Q1013 NOSIG=
201007151030 METAR LMML NIL=
201007151015 METAR LMML 151015Z 21005KT 150V260 CAVOK 33/14 Q1013 NOSIG=
201007151000 METAR LMML NIL=
201007150945 METAR LMML 150945Z 22005KT 170V280 CAVOK 33/12 Q1014 NOSIG=
201007150930 METAR LMML NIL=
201007150915 METAR LMML 150915Z 23006KT 200V270 CAVOK 32/13 Q1014 NOSIG=
201007150900 METAR LMML NIL=
201007150845 METAR LMML 150845Z 21005KT 150V270 CAVOK 32/13 Q1014 NOSIG=
201007150830 METAR LMML NIL=
201007150815 METAR LMML 150815Z 22005KT 170V270 CAVOK 31/14 Q1014 NOSIG=
201007150800 METAR LMML NIL=
201007150745 METAR LMML 150745Z 21005KT 160V250 CAVOK 31/14 Q1013 NOSIG=
201007150730 METAR LMML NIL=
201007150715 METAR LMML 150715Z VRB03KT CAVOK 30/14 Q1013 NOSIG=
201007150700 METAR LMML NIL=
201007150645 METAR LMML 150645Z VRB03KT CAVOK 30/16 Q1013 NOSIG=
201007150615 METAR LMML 150615Z VRB02KT CAVOK 29/17 Q1013 NOSIG=
201007150600 METAR LMML NIL=
201007150545 METAR LMML 150545Z VRB03KT CAVOK 27/16 Q1013 NOSIG=
201007150530 METAR LMML NIL=
201007150515 METAR LMML 150515Z VRB01KT CAVOK 26/14 Q1013 NOSIG=
201007150500 METAR LMML NIL=
201007150445 METAR LMML 150445Z VRB02KT CAVOK 24/13 Q1012 NOSIG=
201007150430 METAR LMML NIL=
201007150415 METAR LMML 150415Z VRB02KT CAVOK 23/14 Q1012 NOSIG=
201007150400 METAR LMML NIL=
201007150345 METAR LMML 150345Z VRB01KT CAVOK 23/16 Q1012 NOSIG=
201007150330 METAR LMML NIL=
201007150315 METAR LMML 150315Z 00000KT CAVOK 23/17 Q1012 NOSIG=
201007150300 METAR LMML NIL=
201007150245 METAR LMML 150245Z 00000KT CAVOK 23/18 Q1012 NOSIG=
201007150230 METAR LMML NIL=
201007150215 METAR LMML 150215Z VRB01KT CAVOK 23/18 Q1012 NOSIG=
201007150200 METAR LMML NIL=
201007150145 METAR LMML 150145Z VRB01KT CAVOK 24/18 Q1012 NOSIG=
201007150130 METAR LMML NIL=
201007150115 METAR LMML 150115Z VRB01KT CAVOK 24/17 Q1013 NOSIG=
201007150100 METAR LMML NIL=
201007150045 METAR LMML 150045Z VRB01KT CAVOK 24/16 Q1013 NOSIG=
201007150030 METAR LMML NIL=
201007150015 METAR LMML 150015Z VRB01KT CAVOK 24/16 Q1013 NOSIG=
201007150000 METAR LMML NIL=
201007142345 METAR LMML 142345Z VRB01KT CAVOK 25/15 Q1013 NOSIG=
201007142330 METAR LMML NIL=
201007142315 METAR LMML 142315Z VRB01KT CAVOK 25/16 Q1013 NOSIG=
201007142300 METAR LMML NIL=
201007142245 METAR LMML 142245Z VRB01KT CAVOK 25/15 Q1013 NOSIG=
201007142215 METAR LMML 142215Z VRB01KT CAVOK 25/16 Q1013 NOSIG=
201007142200 METAR LMML NIL=
201007142145 METAR LMML 142145Z VRB02KT CAVOK 26/15 Q1014 NOSIG=
201007142130 METAR LMML NIL=
201007142115 METAR LMML 142115Z VRB01KT CAVOK 26/17 Q1013 NOSIG=
201007142100 METAR LMML NIL=
201007142045 METAR LMML 142045Z VRB01KT CAVOK 26/19 Q1013 NOSIG=
201007142030 METAR LMML NIL=
201007142015 METAR LMML 142015Z VRB02KT CAVOK 26/21 Q1013 NOSIG=
201007142000 METAR LMML NIL=
201007141945 METAR LMML 141945Z VRB02KT CAVOK 26/21 Q1013 NOSIG=
201007141930 METAR LMML NIL=
201007141915 METAR LMML 141915Z VRB03KT CAVOK 26/21 Q1013 NOSIG=
201007141900 METAR LMML NIL=
201007141845 METAR LMML 141845Z 22004KT 200V260 CAVOK 27/21 Q1013 NOSIG=
201007141830 METAR LMML NIL=
201007141815 METAR LMML 141815Z VRB03KT CAVOK 27/20 Q1013 NOSIG=
201007141800 METAR LMML NIL=
201007141745 METAR LMML 141745Z 23007KT 200V260 CAVOK 28/19 Q1013 NOSIG=
201007141730 METAR LMML NIL=
201007141715 METAR LMML 141715Z 22007KT 200V260 CAVOK 29/18 Q1013 NOSIG=
201007141700 METAR LMML NIL=
201007141645 METAR LMML 141645Z 23007KT 180V270 CAVOK 29/17 Q1013 NOSIG=
201007141615 METAR LMML 141615Z 22007KT CAVOK 29/17 Q1013 NOSIG=
201007141545 METAR LMML 141545Z 22006KT 190V270 CAVOK 31/17 Q1013 NOSIG=
201007141530 METAR LMML NIL=
201007141515 METAR LMML 141515Z 24007KT 180V290 CAVOK 32/15 Q1013 NOSIG=
201007141500 METAR LMML NIL=
201007141445 METAR LMML 141445Z 22007KT 190V280 CAVOK 31/16 Q1014 NOSIG=
201007141430 METAR LMML NIL=
201007141415 METAR LMML 141415Z 23009KT 190V280 CAVOK 31/18 Q1014 NOSIG=
201007141400 METAR LMML NIL=
201007141345 METAR LMML 141345Z 23010KT 200V260 CAVOK 32/16 Q1014 NOSIG=
201007141330 METAR LMML NIL=
201007141315 METAR LMML 141315Z 23009KT 200V270 CAVOK 32/14 Q1014 NOSIG=
201007141300 METAR LMML NIL=
201007141245 METAR LMML 141245Z 22009KT CAVOK 32/15 Q1014 NOSIG=
201007141230 METAR LMML NIL=
201007141215 METAR LMML 141215Z 22008KT 180V280 CAVOK 32/15 Q1014 NOSIG=
201007141200 METAR LMML NIL=
201007141145 METAR LMML 141145Z 22008KT 180V280 CAVOK 32/14 Q1014 NOSIG=
201007141130 METAR LMML NIL=
201007141115 METAR LMML 141115Z 23009KT 200V270 CAVOK 32/15 Q1015 NOSIG=
201007141100 METAR LMML NIL=
201007141045 METAR LMML 141045Z 28007KT 190V010 CAVOK 33/15 Q1015 NOSIG=
201007141030 METAR LMML NIL=
201007141015 METAR LMML 141015Z 24004KT 180V350 CAVOK 33/15 Q1015 NOSIG=
201007141000 METAR LMML NIL=
201007140945 METAR LMML 140945Z 22006KT 180V270 CAVOK 31/14 Q1015 NOSIG=
201007140930 METAR LMML NIL=
201007140915 METAR LMML 140915Z 23006KT 200V270 CAVOK 31/13 Q1015 NOSIG=
201007140900 METAR LMML NIL=
201007140845 METAR LMML 140845Z 23006KT 200V310 CAVOK 31/14 Q1015 NOSIG=
201007140830 METAR LMML NIL=
201007140815 METAR LMML 140815Z 22005KT 190V260 CAVOK 31/14 Q1015 NOSIG=
201007140800 METAR LMML NIL=
201007140745 METAR LMML 140745Z 22005KT 200V270 CAVOK 29/15 Q1015 NOSIG=
201007140730 METAR LMML NIL=
201007140715 METAR LMML 140715Z 23006KT 200V280 CAVOK 29/15 Q1014 NOSIG=
201007140700 METAR LMML NIL=
201007140645 METAR LMML 140645Z 25005KT 190V310 CAVOK 30/14 Q1014 NOSIG=
201007140630 METAR LMML NIL=
201007140615 METAR LMML 140615Z 24005KT 190V290 CAVOK 28/13 Q1014 NOSIG=
201007140600 METAR LMML NIL=
201007140545 METAR LMML 140545Z 25004KT 200V280 CAVOK 27/16 Q1014 NOSIG=
201007140530 METAR LMML NIL=
201007140515 METAR LMML 140515Z VRB03KT CAVOK 25/18 Q1014 NOSIG=
201007140500 METAR LMML NIL=
201007140445 METAR LMML 140445Z VRB02KT CAVOK 23/20 Q1014 NOSIG=
201007140430 METAR LMML NIL=
201007140415 METAR LMML 140415Z VRB03KT CAVOK 23/20 Q1014 NOSIG=
201007140400 METAR LMML NIL=
201007140345 METAR LMML 140345Z VRB02KT CAVOK 23/20 Q1014 NOSIG=
201007140330 METAR LMML NIL=
201007140315 METAR LMML 140315Z VRB02KT CAVOK 24/21 Q1014 NOSIG=
201007140300 METAR LMML NIL=
201007140245 METAR LMML 140245Z 23006KT 200V260 CAVOK 24/20 Q1014 NOSIG=
201007140230 METAR LMML NIL=
201007140215 METAR LMML 140215Z 23004KT CAVOK 24/17 Q1014 NOSIG=
201007140200 METAR LMML NIL=
201007140145 METAR LMML 140145Z VRB03KT CAVOK 23/18 Q1014 NOSIG=
201007140130 METAR LMML NIL=
201007140115 METAR LMML 140115Z VRB01KT CAVOK 23/19 Q1014 NOSIG=
201007140100 METAR LMML NIL=
201007140045 METAR LMML 140045Z VRB03KT CAVOK 24/19 Q1014 NOSIG=
201007140030 METAR LMML NIL=
201007140015 METAR LMML 140015Z 24004KT CAVOK 24/19 Q1015 NOSIG=
201007132345 METAR LMML 132345Z 23004KT CAVOK 24/18 Q1015 NOSIG=
201007132330 METAR LMML NIL=
201007132315 METAR LMML 132315Z VRB03KT CAVOK 24/19 Q1015 NOSIG=
201007132300 METAR LMML NIL=
201007132245 METAR LMML 132245Z VRB01KT CAVOK 24/19 Q1015 NOSIG=
201007132230 METAR LMML NIL=
201007132215 METAR LMML 132215Z VRB02KT CAVOK 23/20 Q1015 NOSIG=
201007132200 METAR LMML NIL=
201007132145 METAR LMML 132145Z VRB02KT CAVOK 24/21 Q1015 NOSIG=
201007132130 METAR LMML NIL=
201007132115 METAR LMML 132115Z VRB02KT CAVOK 25/21 Q1015 NOSIG=
201007132100 METAR LMML NIL=
201007132045 METAR LMML 132045Z VRB01KT CAVOK 25/21 Q1015 NOSIG=
201007132030 METAR LMML NIL=
201007132015 METAR LMML 132015Z VRB03KT CAVOK 25/21 Q1015 NOSIG=
201007132000 METAR LMML NIL=
201007131945 METAR LMML 131945Z 28004KT CAVOK 25/21 Q1015 NOSIG=
201007131930 METAR LMML NIL=
201007131915 METAR LMML 131915Z 27005KT CAVOK 26/21 Q1015 NOSIG=
201007131900 METAR LMML NIL=
201007131845 METAR LMML 131845Z 29005KT CAVOK 26/20 Q1015 NOSIG=
201007131830 METAR LMML NIL=
201007131815 METAR LMML 131815Z 25005KT 220V290 CAVOK 27/20 Q1015 NOSIG=
201007131800 METAR LMML NIL=
201007131745 METAR LMML 131745Z 24005KT 210V280 CAVOK 27/20 Q1015 NOSIG=
201007131730 METAR LMML NIL=
201007131715 METAR LMML 131715Z 25006KT 200V300 CAVOK 27/20 Q1015 NOSIG=
201007131700 METAR LMML NIL=
201007131645 METAR LMML 131645Z 25007KT 220V290 CAVOK 28/20 Q1014 NOSIG=
201007131630 METAR LMML NIL=
201007131615 METAR LMML 131615Z 24007KT 200V280 CAVOK 28/19 Q1014 NOSIG=
201007131600 METAR LMML NIL=
201007131545 METAR LMML 131545Z 24008KT 200V280 CAVOK 29/19 Q1015 NOSIG=
201007131530 METAR LMML NIL=
201007131515 METAR LMML 131515Z 24008KT 200V280 CAVOK 29/16 Q1015 NOSIG=
201007131500 METAR LMML NIL=
201007131445 METAR LMML 131445Z 22008KT 190V270 CAVOK 29/17 Q1015 NOSIG=
201007131430 METAR LMML NIL=
201007131415 METAR LMML 131415Z 23008KT 190V260 CAVOK 29/17 Q1015 NOSIG=
201007131400 METAR LMML NIL=
201007131345 METAR LMML 131345Z 22009KT CAVOK 31/16 Q1015 NOSIG=
201007131330 METAR LMML NIL=
201007131315 METAR LMML 131315Z 22008KT 190V270 CAVOK 31/15 Q1015 NOSIG=
201007131300 METAR LMML NIL=
201007131245 METAR LMML 131245Z 22009KT 190V280 CAVOK 30/12 Q1015 NOSIG=
201007131230 METAR LMML NIL=
201007131215 METAR LMML 131215Z 22008KT 180V280 CAVOK 31/14 Q1015 NOSIG=
201007131200 METAR LMML NIL=
201007131145 METAR LMML 131145Z 24007KT 190V300 CAVOK 31/14 Q1016 NOSIG=
201007131130 METAR LMML NIL=
201007131115 METAR LMML 131115Z 25008KT 210V290 CAVOK 31/12 Q1016 NOSIG=
201007131100 METAR LMML NIL=
201007131045 METAR LMML 131045Z 22008KT 180V280 CAVOK 30/13 Q1016 NOSIG=
201007131030 METAR LMML NIL=
201007131015 METAR LMML 131015Z 26006KT 200V320 CAVOK 30/15 Q1016 NOSIG=
201007131000 METAR LMML NIL=
201007130945 METAR LMML 130945Z 27006KT 180V010 CAVOK 31/15 Q1016 NOSIG=
201007130930 METAR LMML NIL=
201007130915 METAR LMML 130915Z 27006KT 230V320 CAVOK 29/14 Q1016 NOSIG=
201007130900 METAR LMML NIL=
201007130845 METAR LMML 130845Z 28007KT 230V320 9999 FEW020 29/17 Q1016
                        NOSIG=
201007130830 METAR LMML NIL=
201007130815 METAR LMML 130815Z 26007KT 200V300 9999 FEW020 28/19 Q1016
                        NOSIG=
201007130800 METAR LMML NIL=
201007130745 METAR LMML 130745Z 23007KT 180V300 9999 FEW020 27/20 Q1016
                        NOSIG=
201007130730 METAR LMML NIL=
201007130715 METAR LMML 130715Z 28005KT 240V320 9999 FEW020 27/18 Q1016
                        NOSIG=
201007130700 METAR LMML NIL=
201007130645 METAR LMML 130645Z 28005KT 220V330 9999 FEW020 26/19 Q1016
                        NOSIG=
201007130630 METAR LMML NIL=
201007130615 METAR LMML 130615Z 27004KT 210V300 9999 FEW020 25/22 Q1016
                        NOSIG=
201007130600 METAR LMML NIL=
201007130545 METAR LMML 130545Z VRB02KT 9999 FEW015 24/22 Q1016 NOSIG=
201007130530 METAR LMML NIL=
201007130515 METAR LMML 130515Z VRB03KT 9999 FEW015 23/22 Q1015 NOSIG=
201007130500 METAR LMML NIL=
201007130445 METAR LMML 130445Z VRB02KT 9999 FEW015 22/21 Q1015 NOSIG=
201007130430 METAR LMML NIL=
201007130415 METAR LMML 130415Z VRB02KT 9000 FEW015 22/21 Q1015 NOSIG=
201007130400 METAR LMML NIL=
201007130345 METAR LMML 130345Z VRB03KT 9999 FEW015 22/21 Q1015 NOSIG=
201007130330 METAR LMML NIL=
201007130315 METAR LMML 130315Z VRB02KT CAVOK 22/21 Q1015 NOSIG=
201007130245 METAR LMML 130245Z 25004KT 220V290 CAVOK 23/21 Q1015 NOSIG=
201007130230 METAR LMML NIL=
201007130215 METAR LMML 130215Z 24004KT 210V280 CAVOK 23/21 Q1015 NOSIG=
201007130200 METAR LMML NIL=
201007130145 METAR LMML 130145Z 23004KT 200V260 CAVOK 23/21 Q1015 NOSIG=
201007130130 METAR LMML NIL=
201007130115 METAR LMML 130115Z VRB03KT CAVOK 22/21 Q1015 NOSIG=
201007130100 METAR LMML NIL=
201007130045 METAR LMML 130045Z 27004KT CAVOK 23/21 Q1015 NOSIG=
201007130030 METAR LMML NIL=
201007130015 METAR LMML 130015Z VRB03KT CAVOK 22/20 Q1016 NOSIG=
201007130000 METAR LMML NIL=
201007122345 METAR LMML 122345Z VRB02KT CAVOK 22/20 Q1016 NOSIG=
201007122330 METAR LMML NIL=
201007122315 METAR LMML 122315Z VRB03KT CAVOK 23/20 Q1016 NOSIG=
201007122300 METAR LMML NIL=
201007122245 METAR LMML 122245Z VRB03KT CAVOK 23/20 Q1016 NOSIG=
201007122215 METAR LMML 122215Z VRB03KT CAVOK 23/20 Q1016 NOSIG=
201007122200 METAR LMML NIL=
201007122145 METAR LMML 122145Z VRB02KT CAVOK 23/21 Q1016 NOSIG=
201007122115 METAR LMML 122115Z VRB02KT CAVOK 24/21 Q1017 NOSIG=
201007122045 METAR LMML 122045Z VRB03KT CAVOK 24/21 Q1016 NOSIG=
201007122015 METAR LMML 122015Z VRB02KT CAVOK 24/21 Q1017 NOSIG=
201007122000 METAR LMML NIL=
201007121945 METAR LMML 121945Z VRB02KT CAVOK 24/21 Q1016 NOSIG=
201007121915 METAR LMML 121915Z VRB03KT CAVOK 24/21 Q1016 NOSIG=
201007121845 METAR LMML 121845Z VRB03KT CAVOK 24/21 Q1016 NOSIG=
201007121830 METAR LMML NIL=
201007121815 METAR LMML 121815Z 24005KT 200V280 CAVOK 25/21 Q1016 NOSIG=
201007121745 METAR LMML 121745Z 24005KT 200V280 CAVOK 26/20 Q1016 NOSIG=
201007121730 METAR LMML NIL=
201007121715 METAR LMML 121715Z 24006KT 190V280 CAVOK 26/20 Q1016 NOSIG=
201007121700 METAR LMML NIL=
201007121645 METAR LMML 121645Z 23006KT 190V290 CAVOK 26/20 Q1016 NOSIG=
201007121630 METAR LMML NIL=
201007121615 METAR LMML 121615Z 23007KT 200V270 CAVOK 27/20 Q1016 NOSIG=
201007121600 METAR LMML NIL=
201007121545 METAR LMML 121545Z 24008KT 200V280 9999 FEW025 27/19 Q1016
                        NOSIG=
201007121530 METAR LMML NIL=
201007121515 METAR LMML 121515Z 23009KT 200V280 9999 FEW025 28/18 Q1016
                        NOSIG=
201007121500 METAR LMML NIL=
201007121445 METAR LMML 121445Z 23009KT 200V270 9999 FEW025 28/17 Q1016
                        NOSIG=
201007121430 METAR LMML NIL=
201007121415 METAR LMML 121415Z 23008KT 200V270 CAVOK 29/16 Q1017 NOSIG=
201007121400 METAR LMML NIL=
201007121345 METAR LMML 121345Z 22008KT 190V260 9999 FEW030 29/19 Q1017
                        NOSIG=
201007121330 METAR LMML NIL=
201007121315 METAR LMML 121315Z 23006KT 180V290 9999 FEW030 28/19 Q1017
                        NOSIG=
201007121300 METAR LMML NIL=
201007121245 METAR LMML 121245Z 23008KT 210V280 9999 FEW030 29/19 Q1017
                        NOSIG=
201007121230 METAR LMML NIL=
201007121215 METAR LMML 121215Z 23008KT 190V280 9999 FEW030 28/18 Q1017
                        NOSIG=
201007121200 METAR LMML NIL=
201007121145 METAR LMML 121145Z 23008KT 190V290 9999 FEW030 28/19 Q1017
                        NOSIG=
201007121130 METAR LMML NIL=
201007121115 METAR LMML 121115Z 23008KT 200V270 9999 FEW030 28/19 Q1018
                        NOSIG=
201007121100 METAR LMML NIL=
201007121045 METAR LMML 121045Z 24007KT 200V300 9999 FEW030 28/18 Q1018
                        NOSIG=
201007121030 METAR LMML NIL=
201007121015 METAR LMML 121015Z 24007KT 200V290 9999 FEW027 28/19 Q1018
                        NOSIG=
201007121000 METAR LMML NIL=
201007120945 METAR LMML 120945Z 23007KT 190V270 9999 FEW027 27/19 Q1018
                        NOSIG=
201007120930 METAR LMML NIL=
201007120915 METAR LMML 120915Z 21007KT 160V270 9999 FEW027 27/20 Q1018
                        NOSIG=
201007120900 METAR LMML NIL=
201007120845 METAR LMML 120845Z 24006KT 190V310 9999 FEW024 27/19 Q1018
                        NOSIG=
201007120830 METAR LMML NIL=
201007120815 METAR LMML 120815Z 26006KT 180V320 9999 FEW024 27/19 Q1017
                        NOSIG=
201007120800 METAR LMML NIL=
201007120745 METAR LMML 120745Z 23005KT 190V340 9999 FEW024 26/20 Q1017
                        NOSIG=
201007120730 METAR LMML NIL=
201007120715 METAR LMML 120715Z 27004KT 9999 FEW016 26/20 Q1017 NOSIG=
201007120700 METAR LMML NIL=
201007120645 METAR LMML 120645Z 27004KT 210V330 9999 FEW017 25/20 Q1017
                        NOSIG=
201007120630 METAR LMML NIL=
201007120615 METAR LMML 120615Z 28004KT 230V310 9999 SCT016 24/20 Q1017
                        NOSIG=
201007120600 METAR LMML NIL=
201007120545 METAR LMML 120545Z VRB03KT 9999 SCT015 24/21 Q1017 NOSIG=
201007120530 METAR LMML NIL=
201007120515 METAR LMML 120515Z VRB03KT 9999 FEW015 23/21 Q1017 NOSIG=
201007120445 METAR LMML 120445Z VRB03KT 9999 FEW015 22/20 Q1017 NOSIG=
201007120430 METAR LMML NIL=
201007120415 METAR LMML 120415Z VRB03KT 9999 FEW012 22/20 Q1017 NOSIG=
201007120400 METAR LMML NIL=
201007120345 METAR LMML 120345Z VRB03KT 9999 FEW012 22/20 Q1017 NOSIG=
201007120330 METAR LMML NIL=
201007120315 METAR LMML 120315Z VRB03KT 9999 FEW012 22/20 Q1017 NOSIG=
201007120300 METAR LMML NIL=
201007120245 METAR LMML 120245Z VRB03KT 9999 FEW012 22/20 Q1017 NOSIG=
201007120230 METAR LMML NIL=
201007120215 METAR LMML 120215Z VRB03KT 9999 FEW012 22/20 Q1017 NOSIG=
201007120200 METAR LMML NIL=
201007120145 METAR LMML 120145Z VRB03KT 9999 FEW020 22/20 Q1017 NOSIG=
201007120130 METAR LMML NIL=
201007120115 METAR LMML 120115Z VRB02KT 9999 FEW020 22/20 Q1017 NOSIG=
201007120100 METAR LMML NIL=
201007120045 METAR LMML 120045Z VRB03KT CAVOK 22/20 Q1018 NOSIG=
201007120030 METAR LMML NIL=
201007120015 METAR LMML 120015Z VRB03KT CAVOK 23/20 Q1018 NOSIG=
201007120000 METAR LMML NIL=
201007112345 METAR LMML 112345Z VRB02KT CAVOK 23/20 Q1018 NOSIG=
201007112330 METAR LMML NIL=
201007112315 METAR LMML 112315Z VRB02KT CAVOK 23/20 Q1018 NOSIG=
201007112300 METAR LMML NIL=
201007112245 METAR LMML 112245Z VRB02KT CAVOK 23/20 Q1018 NOSIG=
201007112230 METAR LMML NIL=
201007112215 METAR LMML 112215Z VRB03KT CAVOK 23/20 Q1018 NOSIG=
201007112200 METAR LMML NIL=
201007112145 METAR LMML 112145Z VRB02KT CAVOK 23/20 Q1018 NOSIG=
201007112130 METAR LMML NIL=
201007112115 METAR COR LMML 112115Z VRB02KT CAVOK 24/21 Q1018 NOSIG=
201007112100 METAR LMML NIL=
201007112045 METAR LMML 112045Z VRB02KT 9999 FEW020 24/21 Q1018 TEMPO
                        CAVOK=
201007112030 METAR LMML NIL=
201007112015 METAR LMML 112015Z VRB02KT 9999 FEW020 24/21 Q1018 NOSIG=
201007112000 METAR LMML NIL=
201007111945 METAR LMML 111945Z VRB02KT 9999 FEW020 24/20 Q1018 NOSIG=
201007111930 METAR LMML NIL=
201007111915 METAR LMML 111915Z VRB03KT 9999 FEW020 24/21 Q1017 NOSIG=
201007111900 METAR LMML NIL=
201007111845 METAR LMML 111845Z 26005KT 230V300 9999 FEW020 24/21 Q1017
                        NOSIG=
201007111830 METAR LMML NIL=
201007111815 METAR LMML 111815Z 25006KT 200V280 9999 FEW025 25/20 Q1017
                        NOSIG=
201007111800 METAR LMML NIL=
201007111745 METAR LMML 111745Z 24006KT 200V280 9999 FEW025 25/20 Q1017
                        NOSIG=
201007111730 METAR LMML NIL=
201007111715 METAR LMML 111715Z 25006KT 200V300 9999 FEW025 26/20 Q1017
                        NOSIG=
201007111700 METAR LMML NIL=
201007111645 METAR LMML 111645Z 24007KT 200V280 9999 FEW025 26/20 Q1017
                        NOSIG=
201007111630 METAR LMML NIL=
201007111615 METAR LMML 111615Z 24008KT 200V280 9999 FEW025 26/20 Q1017
                        NOSIG=
201007111600 METAR LMML NIL=
201007111545 METAR LMML 111545Z 23009KT 200V270 9999 FEW025 27/19 Q1017
                        NOSIG=
201007111530 METAR LMML NIL=
201007111515 METAR LMML 111515Z 25008KT 200V280 9999 FEW025 27/19 Q1017
                        NOSIG=
201007111445 METAR LMML 111445Z 25008KT 200V290 9999 FEW025 27/19 Q1017
                        NOSIG=
201007111430 METAR LMML NIL=
201007111415 METAR LMML 111415Z 24009KT 190V290 9999 FEW025 27/19 Q1018
                        NOSIG=
201007111400 METAR LMML NIL=
201007111345 METAR LMML 111345Z 24009KT 190V280 9999 FEW025 28/19 Q1018
                        NOSIG=
201007111330 METAR LMML NIL=
201007111315 METAR LMML 111315Z 22009KT 200V260 9999 FEW025 27/19 Q1018
                        NOSIG=
201007111245 METAR LMML 111245Z 23009KT 200V280 9999 FEW025 28/19 Q1018
                        NOSIG=
201007111230 METAR LMML NIL=
201007111215 METAR LMML 111215Z 22009KT 180V250 9999 FEW025 28/18 Q1018
                        NOSIG=
201007111200 METAR LMML NIL=
201007111145 METAR LMML 111145Z 22009KT 180V260 9999 FEW025 28/18 Q1018
                        NOSIG=
201007111130 METAR LMML NIL=
201007111115 METAR LMML 111115Z 22007KT 170V290 9999 FEW025 28/19 Q1018
                        NOSIG=
201007111100 METAR LMML NIL=
201007111045 METAR LMML 111045Z 23007KT 200V270 9999 FEW025 28/19 Q1018
                        NOSIG=
201007111030 METAR LMML NIL=
201007111015 METAR LMML 111015Z 24006KT 200V300 9999 FEW025 28/18 Q1018
                        NOSIG=
201007111000 METAR LMML NIL=
201007110945 METAR LMML 110945Z 24006KT 140V060 9999 FEW025 27/19 Q1018
                        NOSIG=
201007110930 METAR LMML NIL=
201007110915 METAR LMML 110915Z 23006KT 190V290 9999 FEW025 27/19 Q1018
                        NOSIG=
201007110900 METAR LMML NIL=
201007110845 METAR LMML 110845Z 25004KT 150V310 9999 FEW023 27/19 Q1018
                        NOSIG=
201007110830 METAR LMML NIL=
201007110815 METAR LMML 110815Z 21005KT 160V280 9999 FEW023 26/19 Q1018
                        NOSIG=
201007110745 METAR LMML 110745Z 26004KT 180V340 9999 FEW020 26/19 Q1018
                        NOSIG=
201007110730 METAR LMML NIL=
201007110715 METAR LMML 110715Z VRB03KT 9999 SCT019 26/20 Q1018 NOSIG=
201007110700 METAR LMML NIL=
201007110645 METAR LMML 110645Z 26004KT 210V320 9999 SCT017 25/20 Q1018
                        NOSIG=
201007110630 METAR LMML NIL=
201007110615 METAR LMML 110615Z 27004KT 230V310 9999 SCT014 25/20 Q1018
                        NOSIG=
201007110545 METAR LMML 110545Z VRB03KT 9999 FEW012 24/21 Q1018 NOSIG=
201007110515 METAR LMML 110515Z VRB02KT 9999 FEW012 23/21 Q1017 NOSIG=
201007110500 METAR LMML NIL=
201007110445 METAR LMML 110445Z VRB01KT 9999 FEW012 22/20 Q1017 TEMPO
                        8000=
201007110430 METAR LMML NIL=
201007110415 METAR LMML 110415Z VRB01KT 9000 FEW009 22/20 Q1017 TEMPO
                        8000=
201007110400 METAR LMML NIL=
201007110345 METAR LMML 110345Z VRB01KT 9000 FEW009 22/20 Q1017 TEMPO
                        8000=
201007110330 METAR LMML NIL=
201007110315 METAR LMML 110315Z VRB02KT 9999 FEW010 22/20 Q1017 TEMPO
                        8000=
201007110300 METAR LMML NIL=
201007110245 METAR LMML 110245Z VRB03KT 9999 FEW010 22/20 Q1017 TEMPO
                        8000=
201007110230 METAR LMML NIL=
201007110215 METAR LMML 110215Z VRB03KT 9999 FEW010 22/20 Q1017 TEMPO
                        8000=
201007110200 METAR LMML NIL=
201007110145 METAR LMML 110145Z VRB02KT 9999 FEW010 22/20 Q1017 TEMPO
                        8000=
201007110130 METAR LMML NIL=
201007110115 METAR LMML 110115Z VRB02KT 9999 FEW010 22/20 Q1017 TEMPO
                        8000=
201007110100 METAR LMML NIL=
201007110045 METAR LMML 110045Z VRB02KT 9999 FEW010 22/20 Q1017 TEMPO
                        8000=
201007110030 METAR LMML NIL=
201007110015 METAR LMML 110015Z VRB02KT 9999 FEW012 23/20 Q1017 TEMPO
                        8000=
201007110000 METAR LMML NIL=
201007102345 METAR LMML 102345Z VRB02KT 9999 FEW015 23/20 Q1018 TEMPO
                        8000=
201007102330 METAR LMML NIL=
201007102315 METAR LMML 102315Z VRB03KT 9999 FEW015 23/20 Q1018 TEMPO
                        8000=
201007102300 METAR LMML NIL=
201007102245 METAR LMML 102245Z VRB02KT 9999 FEW015 23/20 Q1018 TEMPO
                        8000=
201007102230 METAR LMML NIL=
201007102215 METAR LMML 102215Z VRB02KT 9999 FEW015 23/20 Q1018 TEMPO
                        8000 RMK SMOKE OVER AIRFIELD=
201007102200 METAR LMML NIL=
201007102145 METAR LMML 102145Z VRB02KT 9999 FEW015 23/20 Q1018 TEMPO
                        8000=
201007102130 METAR LMML NIL=
201007102115 METAR LMML 102115Z VRB02KT 9999 FEW015 23/20 Q1018 TEMPO
                        8000 RMK SMOKE OVER AIRFIELD=
201007102100 METAR LMML NIL=
201007102045 METAR LMML 102045Z VRB02KT 9999 FEW015 23/20 Q1018 NOSIG
                        RMK SMOKE OVER AIRFIELD=
201007102030 METAR LMML NIL=
201007102015 METAR LMML 102015Z VRB03KT 9999 FEW020 24/20 Q1018 NOSIG
                        RMK SMOKE OVER AIRFIELD=
201007102000 METAR LMML NIL=
201007101945 METAR LMML 101945Z VRB03KT 9999 FEW020 24/20 Q1018 NOSIG=
201007101930 METAR LMML NIL=
201007101915 METAR LMML 101915Z 26004KT 230V310 9999 FEW020 24/20 Q1018
                        NOSIG=
201007101900 METAR LMML NIL=
201007101845 METAR LMML 101845Z 25004KT 210V280 9999 FEW020 24/20 Q1017
                        NOSIG=
201007101830 METAR LMML NIL=
201007101815 METAR LMML 101815Z 24007KT 210V280 9999 FEW020 24/20 Q1017
                        NOSIG=
201007101800 METAR LMML NIL=
201007101745 METAR LMML 101745Z 25007KT 210V280 9999 FEW025 25/20 Q1017
                        NOSIG=
201007101730 METAR LMML NIL=
201007101715 METAR LMML 101715Z 23008KT 210V280 9999 FEW025 26/20 Q1017
                        NOSIG=
201007101700 METAR LMML NIL=
201007101645 METAR LMML 101645Z 23008KT 200V280 9999 FEW030 26/20 Q1017
                        NOSIG=
201007101630 METAR LMML NIL=
201007101615 METAR LMML 101615Z 25007KT 200V310 9999 FEW030 27/19 Q1017
                        NOSIG=
201007101600 METAR LMML NIL=
201007101545 METAR LMML 101545Z 27008KT 210V310 9999 SCT030 28/18 Q1017
                        NOSIG=
201007101530 METAR LMML NIL=
201007101515 METAR LMML 101515Z 25008KT 210V300 9999 SCT030 28/19 Q1017
                        NOSIG=
201007101500 METAR LMML NIL=
201007101445 METAR LMML 101445Z 25008KT 200V330 9999 SCT027 28/19 Q1018
                        NOSIG=
201007101430 METAR LMML NIL=
201007101415 METAR LMML 101415Z 25007KT 200V320 9999 SCT025 28/20 Q1018
                        NOSIG=
201007101400 METAR LMML NIL=
201007101345 METAR LMML 101345Z 24007KT 190V300 9999 SCT022 29/19 Q1018
                        NOSIG=
201007101330 METAR LMML NIL=
201007101315 METAR COR LMML 101315Z 11008KT 050V180 9999 SCT023 28/21
                        Q1018 NOSIG=
201007101300 METAR LMML NIL=
201007101245 METAR LMML 101245Z 31005KT 9999 SCT022 29/21 Q1018 NOSIG=
201007101230 METAR LMML NIL=
201007101215 METAR LMML 101215Z 10005KT 9999 SCT021 30/21 Q1018 NOSIG=
201007101200 METAR LMML NIL=
201007101145 METAR LMML 101145Z 26004KT 9999 SCT023 28/19 Q1019 NOSIG=
201007101130 METAR LMML NIL=
201007101115 METAR LMML 101115Z 13005KT 080V200 9999 SCT027 28/21 Q1019
                        NOSIG=
201007101100 METAR LMML NIL=
201007101045 METAR LMML 101045Z 27006KT 190V360 9999 FEW024 28/19 Q1019
                        NOSIG=
201007101030 METAR LMML NIL=
201007101015 METAR LMML 101015Z 30004KT 230V030 9999 SCT019 28/18 Q1019
                        NOSIG=
201007101000 METAR LMML NIL=
201007100945 METAR LMML 100945Z 28006KT 220V340 9999 SCT025 28/19 Q1019
                        NOSIG=
201007100930 METAR LMML NIL=
201007100915 METAR LMML 100915Z 27006KT 200V320 9999 SCT025 28/19 Q1019
                        NOSIG=
201007100900 METAR LMML NIL=
201007100845 METAR LMML 100845Z 29005KT 200V340 9999 SCT025 27/20 Q1019
                        NOSIG=
201007100830 METAR LMML NIL=
201007100815 METAR LMML 100815Z VRB03KT 9999 SCT030 28/19 Q1019 NOSIG=
201007100800 METAR LMML NIL=
201007100745 METAR LMML 100745Z VRB03KT 9999 SCT025 26/19 Q1019 NOSIG=
201007100730 METAR LMML NIL=
201007100715 METAR LMML 100715Z 34004KT 290V030 9999 SCT022 26/20 Q1019
                        NOSIG=
201007100700 METAR LMML NIL=
201007100645 METAR LMML 100645Z 32004KT 280V350 9999 SCT020 26/20 Q1019
                        NOSIG=
201007100630 METAR LMML NIL=
201007100615 METAR LMML 100615Z 28004KT 250V320 9999 FEW015 24/20 Q1019
                        NOSIG=
201007100600 METAR LMML NIL=
201007100545 METAR LMML 100545Z VRB03KT 9999 FEW015 24/21 Q1018 NOSIG=
201007100530 METAR LMML NIL=
201007100515 METAR LMML 100515Z VRB02KT 9999 FEW012 23/21 Q1018 NOSIG=
201007100500 METAR LMML NIL=
201007100445 METAR LMML 100445Z VRB02KT 9999 FEW013 22/20 Q1018 NOSIG=
201007100430 METAR LMML NIL=
201007100415 METAR LMML 100415Z VRB02KT 9999 FEW012 22/20 Q1018 NOSIG=
201007100400 METAR LMML NIL=
201007100345 METAR LMML 100345Z VRB02KT 9999 FEW012 22/20 Q1018 NOSIG=
201007100330 METAR LMML NIL=
201007100315 METAR LMML 100315Z VRB02KT CAVOK 22/20 Q1018 NOSIG=
201007100300 METAR LMML NIL=
201007100245 METAR LMML 100245Z VRB02KT CAVOK 22/20 Q1018 NOSIG=
201007100230 METAR LMML NIL=
201007100215 METAR LMML 100215Z VRB02KT CAVOK 22/19 Q1018 NOSIG=
201007100200 METAR LMML NIL=
201007100145 METAR LMML 100145Z VRB02KT CAVOK 22/19 Q1019 NOSIG=
201007100130 METAR LMML NIL=
201007100115 METAR LMML 100115Z VRB01KT CAVOK 22/20 Q1019 NOSIG=
201007100100 METAR LMML NIL=
201007100045 METAR LMML 100045Z VRB01KT CAVOK 22/19 Q1019 NOSIG=
201007100015 METAR LMML 100015Z VRB01KT CAVOK 22/19 Q1019 NOSIG=
201007100000 METAR LMML NIL=
201007092345 METAR LMML 092345Z VRB01KT CAVOK 23/20 Q1019 NOSIG=
201007092330 METAR LMML NIL=
201007092315 METAR LMML 092315Z VRB02KT CAVOK 23/19 Q1019 NOSIG=
201007092300 METAR LMML NIL=
201007092245 METAR LMML 092245Z VRB02KT CAVOK 23/19 Q1019 NOSIG=
201007092230 METAR LMML NIL=
201007092215 METAR LMML 092215Z VRB03KT CAVOK 23/19 Q1019 NOSIG=
201007092200 METAR LMML NIL=
201007092145 METAR LMML 092145Z VRB03KT CAVOK 23/19 Q1019 NOSIG=
201007092130 METAR LMML NIL=
201007092115 METAR LMML 092115Z VRB03KT CAVOK 23/19 Q1019 NOSIG=
201007092100 METAR LMML NIL=
201007092045 METAR LMML 092045Z VRB02KT CAVOK 24/19 Q1019 NOSIG=
201007092030 METAR LMML NIL=
201007092015 METAR LMML 092015Z VRB02KT CAVOK 24/19 Q1019 NOSIG=
201007092000 METAR LMML NIL=
201007091945 METAR LMML 091945Z VRB03KT CAVOK 24/19 Q1019 NOSIG=
201007091930 METAR LMML NIL=
201007091915 METAR LMML 091915Z VRB03KT CAVOK 24/19 Q1019 NOSIG=
201007091900 METAR LMML NIL=
201007091845 METAR LMML 091845Z VRB03KT CAVOK 25/19 Q1019 NOSIG=
201007091830 METAR LMML NIL=
201007091815 METAR LMML 091815Z VRB03KT CAVOK 25/19 Q1019 NOSIG=
201007091800 METAR LMML NIL=
201007091745 METAR LMML 091745Z 21004KT 170V280 CAVOK 26/19 Q1019 NOSIG=
201007091715 METAR LMML 091715Z 20005KT 170V240 CAVOK 26/18 Q1018 NOSIG=
201007091700 METAR LMML NIL=
201007091645 METAR LMML 091645Z 22006KT 180V280 CAVOK 27/17 Q1018 NOSIG=
201007091630 METAR LMML NIL=
201007091615 METAR LMML 091615Z 18006KT 150V230 9999 FEW025 27/17 Q1019
                        NOSIG=
201007091545 METAR LMML 091545Z 18005KT 140V230 9999 FEW025 27/16 Q1019
                        NOSIG=
201007091530 METAR LMML NIL=
201007091515 METAR LMML 091515Z 18006KT 120V250 9999 FEW025 27/17 Q1019
                        NOSIG=
201007091500 METAR LMML NIL=
201007091445 METAR LMML 091445Z 17006KT 120V220 9999 FEW025 28/17 Q1019
                        NOSIG=
201007091430 METAR LMML NIL=
201007091415 METAR LMML 091415Z 17006KT 140V240 9999 FEW025 28/17 Q1019
                        NOSIG=
201007091400 METAR LMML NIL=
201007091345 METAR LMML 091345Z 17006KT 110V200 9999 FEW025 28/17 Q1019
                        NOSIG=
201007091315 METAR LMML 091315Z 17007KT 110V210 9999 FEW025 28/16 Q1019
                        NOSIG=
201007091300 METAR LMML NIL=
201007091245 METAR LMML 091245Z 17006KT 090V250 9999 FEW025 28/15 Q1019
                        NOSIG=
201007091230 METAR LMML NIL=
201007091215 METAR LMML 091215Z 17006KT 100V220 9999 FEW025 28/17 Q1019
                        NOSIG=
201007091200 METAR LMML NIL=
201007091145 METAR LMML 091145Z 17007KT 130V230 9999 FEW025 28/15 Q1019
                        NOSIG=
201007091130 METAR LMML NIL=
201007091115 METAR LMML 091115Z 17007KT 130V220 9999 FEW025 28/17 Q1019
                        NOSIG=
201007091100 METAR LMML NIL=
201007091045 METAR LMML 091045Z 18006KT 130V240 9999 FEW025 28/16 Q1019
                        NOSIG=
201007091030 METAR LMML NIL=
201007091015 METAR LMML 091015Z 16006KT 100V210 9999 FEW025 28/16 Q1019
                        NOSIG=
201007091000 METAR LMML NIL=
201007090945 METAR LMML 090945Z 18007KT 140V220 9999 FEW025 27/16 Q1020
                        NOSIG=
201007090930 METAR LMML NIL=
201007090915 METAR LMML 090915Z 15006KT 110V220 9999 FEW025 27/17 Q1019
                        NOSIG=
201007090900 METAR LMML NIL=
201007090845 METAR LMML 090845Z 12006KT 080V190 9999 FEW026 27/18 Q1019
                        NOSIG=
201007090830 METAR LMML NIL=
201007090815 METAR LMML 090815Z 11006KT 060V150 9999 FEW026 27/16 Q1019
                        NOSIG=
201007090800 METAR LMML NIL=
201007090745 METAR LMML 090745Z 13006KT 100V170 9999 FEW026 27/15 Q1019
                        NOSIG=
201007090730 METAR LMML NIL=
201007090715 METAR LMML 090715Z 13006KT 090V180 9999 FEW026 26/16 Q1019
                        NOSIG=
201007090700 METAR LMML NIL=
201007090645 METAR LMML 090645Z 10006KT 070V150 9999 FEW025 26/19 Q1019
                        NOSIG=
201007090630 METAR LMML NIL=
201007090615 METAR LMML 090615Z 10006KT 070V130 9999 FEW022 25/19 Q1019
                        NOSIG=
201007090600 METAR LMML NIL=
201007090545 METAR LMML 090545Z 09006KT 9999 FEW021 25/19 Q1019 NOSIG=
201007090530 METAR LMML NIL=
201007090515 METAR LMML 090515Z 09005KT 060V130 9999 FEW021 SCT120 24/19
                        Q1018 NOSIG=
201007090445 METAR LMML 090445Z 10004KT CAVOK 23/19 Q1018 NOSIG=
201007090415 METAR LMML 090415Z 09004KT CAVOK 23/19 Q1018 NOSIG=
201007090400 METAR LMML NIL=
201007090345 METAR LMML 090345Z 09004KT 9999 FEW015 23/20 Q1018 NOSIG=
201007090330 METAR LMML NIL=
201007090315 METAR LMML 090315Z 09004KT 9999 FEW015 23/20 Q1018 NOSIG=
201007090300 METAR LMML NIL=
201007090245 METAR LMML 090245Z 10004KT 050V120 9999 FEW015 23/20 Q1018
                        NOSIG=
201007090215 METAR LMML 090215Z 11004KT 9999 FEW015 23/20 Q1018 NOSIG=
201007090200 METAR LMML NIL=
201007090145 METAR LMML 090145Z 10004KT 060V140 9999 FEW016 23/20 Q1018
                        NOSIG=
201007090130 METAR LMML NIL=
201007090115 METAR LMML 090115Z 10004KT 9999 FEW016 23/20 Q1018 NOSIG=
201007090100 METAR LMML NIL=
201007090045 METAR LMML 090045Z 09004KT 9999 FEW016 23/20 Q1018 NOSIG=
201007090030 METAR LMML NIL=
201007090015 METAR LMML 090015Z 09004KT 050V110 9999 FEW016 24/21 Q1018
                        NOSIG=
201007090000 METAR LMML NIL=
201007082345 METAR LMML 082345Z 10004KT 9999 FEW016 24/21 Q1018 NOSIG=
201007082330 METAR LMML NIL=
201007082315 METAR LMML 082315Z 10004KT 9999 FEW016 24/20 Q1018 NOSIG=
201007082245 METAR LMML 082245Z 10004KT 040V130 9999 FEW016 24/21 Q1018
                        NOSIG=
201007082230 METAR LMML NIL=
201007082215 METAR LMML 082215Z 10005KT 070V130 9999 FEW018 24/21 Q1019
                        NOSIG=
201007082200 METAR LMML NIL=
201007082145 METAR LMML 082145Z 09004KT 9999 FEW018 24/20 Q1019 NOSIG=
201007082130 METAR LMML NIL=
201007082115 METAR LMML 082115Z 09004KT 9999 FEW018 24/21 Q1019 NOSIG=
201007082100 METAR LMML NIL=
201007082045 METAR LMML 082045Z 11005KT 9999 FEW018 24/21 Q1019 NOSIG=
201007082030 METAR LMML NIL=
201007082015 METAR LMML 082015Z 11006KT 9999 SCT018 24/21 Q1019 NOSIG=
201007082000 METAR LMML NIL=
201007081945 METAR LMML 081945Z 11006KT 9999 SCT018 25/21 Q1019 NOSIG=
201007081915 METAR LMML 081915Z 10007KT 070V130 9999 SCT017 25/21 Q1018
                        NOSIG=
201007081900 METAR LMML NIL=
201007081845 METAR LMML 081845Z 09006KT 050V130 9999 SCT015 25/21 Q1018
                        NOSIG=
201007081830 METAR LMML NIL=
201007081815 METAR LMML 081815Z 11007KT 070V140 9999 SCT017 25/21 Q1018
                        NOSIG=
201007081800 METAR LMML NIL=
201007081745 METAR LMML 081745Z 11007KT 9999 FEW014 26/21 Q1018 NOSIG=
201007081715 METAR LMML 081715Z 11008KT 080V140 9999 FEW020 26/21 Q1018
                        NOSIG=
201007081700 METAR LMML NIL=
201007081645 METAR LMML 081645Z 12008KT 9999 FEW020 27/21 Q1017 NOSIG=
201007081630 METAR LMML NIL=
201007081615 METAR LMML 081615Z 12009KT 9999 FEW020 27/21 Q1017 NOSIG=
201007081545 METAR LMML 081545Z 11009KT 9999 FEW023 27/21 Q1018 NOSIG=
201007081530 METAR LMML NIL=
201007081515 METAR LMML 081515Z 12010KT 090V150 9999 FEW023 28/21 Q1018
                        NOSIG=
201007081500 METAR LMML NIL=
201007081445 METAR LMML 081445Z 10009KT 060V150 9999 FEW021 28/21 Q1018
                        NOSIG=
201007081430 METAR LMML NIL=
201007081415 METAR LMML 081415Z 11010KT 070V140 9999 FEW021 28/21 Q1018
                        NOSIG=
201007081345 METAR LMML 081345Z 08010KT 040V130 9999 FEW017 29/21 Q1018
                        NOSIG=
201007081330 METAR LMML NIL=
201007081315 METAR LMML 081315Z 09011KT 050V130 9999 FEW016 29/21 Q1018
                        NOSIG=
201007081300 METAR LMML NIL=
201007081245 METAR LMML 081245Z 09009KT 040V120 9999 SCT017 30/21 Q1018
                        NOSIG=
201007081230 METAR LMML NIL=
201007081215 METAR LMML 081215Z 06008KT 360V100 9999 FEW022 30/22 Q1018
                        NOSIG=
201007081200 METAR LMML NIL=
201007081145 METAR LMML 081145Z 05008KT 360V090 9999 FEW021 30/22 Q1018
                        NOSIG=
201007081130 METAR LMML NIL=
201007081115 METAR LMML 081115Z 06007KT 020V090 CAVOK 29/21 Q1018 NOSIG=
201007081100 METAR LMML NIL=
201007081045 METAR LMML 081045Z 04007KT 360V090 CAVOK 29/20 Q1018 NOSIG=
201007081030 METAR LMML NIL=
201007081015 METAR LMML 081015Z 04007KT 360V090 9999 FEW030 29/21 Q1019
                        NOSIG=
201007081000 METAR LMML NIL=
201007080945 METAR LMML 080945Z 04006KT 330V090 CAVOK 29/21 Q1018 NOSIG=
201007080930 METAR LMML NIL=
201007080915 METAR LMML 080915Z 03007KT 360V080 CAVOK 28/19 Q1018 NOSIG=
201007080900 METAR LMML NIL=
201007080845 METAR LMML 080845Z 05006KT 360V130 CAVOK 28/19 Q1018 NOSIG=
201007080830 METAR LMML NIL=
201007080815 METAR LMML 080815Z VRB03KT CAVOK 27/20 Q1018 BECMG 9999=
201007080800 METAR LMML NIL=
201007080745 METAR LMML 080745Z 33005KT 260V020 9000 NSC 26/20 Q1018 BECMG
                        9999=
201007080730 METAR LMML NIL=
201007080715 METAR LMML 080715Z 32004KT 270V360 9000 FEW013 25/21 Q1018
                        BECMG 9999=
201007080700 METAR LMML NIL=
201007080645 METAR LMML 080645Z 34004KT 260V060 7000 FEW010 25/21 Q1018
                        BECMG 9999=
201007080630 METAR LMML NIL=
201007080615 METAR LMML 080615Z 33004KT 280V010 7000 SCT009 24/21 Q1018
                        BECMG 9999=
201007080600 METAR LMML NIL=
201007080545 METAR LMML 080545Z 30004KT 270V340 7000 FEW008 23/21 Q1017
                        BECMG 9999=
201007080530 METAR LMML NIL=
201007080515 METAR LMML 080515Z VRB01KT 7000 FEW010 22/21 Q1017 BECMG
                        9999=
201007080500 METAR LMML NIL=
201007080445 METAR LMML 080445Z VRB02KT 6000 FEW005 22/21 Q1017 BECMG
                        9999=
201007080430 METAR LMML NIL=
201007080415 METAR LMML 080415Z VRB01KT 7000 FEW008 21/20 Q1017 TEMPO
                        5000 BR=
201007080400 METAR LMML NIL=
201007080345 METAR LMML 080345Z 00000KT 7000 NSC 22/21 Q1016 NOSIG=
201007080330 METAR LMML NIL=
201007080315 METAR LMML 080315Z VRB01KT 9000 NSC 22/21 Q1016 NOSIG=
201007080300 METAR LMML NIL=
201007080245 METAR LMML 080245Z VRB03KT 9000 NSC 22/20 Q1016 NOSIG=
201007080215 METAR LMML 080215Z VRB02KT 9000 NSC 22/20 Q1016 NOSIG=
201007080200 METAR LMML NIL=
201007080145 METAR LMML 080145Z VRB02KT CAVOK 22/20 Q1016 NOSIG=
201007080130 METAR LMML NIL=
201007080115 METAR LMML 080115Z 28004KT 240V300 CAVOK 22/20 Q1017 NOSIG=
201007080100 METAR LMML NIL=
201007080045 METAR LMML 080045Z VRB02KT CAVOK 23/20 Q1017 NOSIG=
201007080030 METAR LMML NIL=
201007080015 METAR LMML 080015Z VRB03KT CAVOK 23/20 Q1017 NOSIG=
201007080000 METAR LMML NIL=
201007072345 METAR LMML 072345Z VRB02KT CAVOK 23/20 Q1017 NOSIG=
201007072330 METAR LMML NIL=
201007072315 METAR LMML 072315Z VRB02KT CAVOK 23/20 Q1017 NOSIG=
201007072300 METAR LMML NIL=
201007072245 METAR LMML 072245Z VRB01KT CAVOK 23/20 Q1018 NOSIG=
201007072230 METAR LMML NIL=
201007072215 METAR LMML 072215Z VRB01KT CAVOK 23/21 Q1017 NOSIG=
201007072200 METAR LMML NIL=
201007072130 METAR LMML NIL=
201007072115 METAR LMML 072115Z VRB03KT CAVOK 24/22 Q1017 NOSIG=
201007072100 METAR LMML NIL=
201007072045 METAR LMML 072045Z 34004KT CAVOK 24/22 Q1017 NOSIG=
201007072030 METAR LMML NIL=
201007072015 METAR LMML 072015Z VRB03KT CAVOK 24/21 Q1017 NOSIG=
201007072000 METAR LMML NIL=
201007071945 METAR LMML 071945Z 32005KT 9999 FEW015 25/20 Q1017 NOSIG=
201007071915 METAR LMML 071915Z 29005KT 250V320 CAVOK 25/18 Q1017 NOSIG=
201007071900 METAR LMML NIL=
201007071845 METAR LMML 071845Z VRB03KT 9999 FEW015 26/20 Q1016 NOSIG=
201007071830 METAR LMML NIL=
201007071815 METAR LMML 071815Z VRB03KT 9999 FEW015 27/21 Q1016 NOSIG=
201007071800 METAR LMML NIL=
201007071745 METAR LMML 071745Z 29004KT 250V320 CAVOK 28/17 Q1016 NOSIG=
201007071730 METAR LMML NIL=
201007071715 METAR LMML 071715Z 29006KT CAVOK 28/18 Q1016 NOSIG=
201007071700 METAR LMML NIL=
201007071645 METAR LMML 071645Z 31004KT 260V360 CAVOK 31/20 Q1016 NOSIG=
201007071615 METAR LMML 071615Z 26005KT 130V330 CAVOK 31/19 Q1015 NOSIG=
201007071600 METAR LMML NIL=
201007071545 METAR LMML 071545Z 19005KT 150V260 CAVOK 30/19 Q1015 NOSIG=
201007071530 METAR LMML NIL=
201007071515 METAR LMML 071515Z 04006KT 280V120 CAVOK 31/19 Q1016 NOSIG=
201007071500 METAR LMML NIL=
201007071445 METAR LMML 071445Z 12005KT 030V170 CAVOK 31/20 Q1016 NOSIG=
201007071430 METAR LMML NIL=
201007071415 METAR LMML 071415Z 06005KT 340V170 CAVOK 31/18 Q1016 NOSIG=
201007071345 METAR LMML 071345Z 02005KT 310V080 9999 FEW030 32/18 Q1016
                        NOSIG=
201007071330 METAR LMML NIL=
201007071315 METAR LMML 071315Z 35006KT 300V050 9999 FEW030 32/18 Q1016
                        NOSIG=
201007071300 METAR LMML NIL=
201007071245 METAR LMML 071245Z 19005KT CAVOK 31/20 Q1016 NOSIG=
201007071230 METAR LMML NIL=
201007071215 METAR LMML 071215Z 16004KT 100V240 9999 FEW030 31/19 Q1016
                        NOSIG=
201007071200 METAR LMML NIL=
201007071145 METAR LMML 071145Z 07005KT 360V170 CAVOK 31/19 Q1016 NOSIG=
201007071130 METAR LMML NIL=
201007071115 METAR LMML 071115Z 08004KT 300V160 CAVOK 31/18 Q1016 NOSIG=
201007071100 METAR LMML NIL=
201007071045 METAR LMML 071045Z 06005KT 360V140 CAVOK 30/19 Q1016 NOSIG=
201007071030 METAR LMML NIL=
201007071015 METAR LMML 071015Z 05006KT 340V130 CAVOK 31/20 Q1017 NOSIG=
201007071000 METAR LMML NIL=
201007070945 METAR LMML 070945Z 05005KT 010V130 CAVOK 31/20 Q1017 NOSIG=
201007070930 METAR LMML NIL=
201007070915 METAR LMML 070915Z 07006KT 020V130 CAVOK 29/18 Q1017 NOSIG=
201007070900 METAR LMML NIL=
201007070845 METAR LMML 070845Z 08007KT 040V130 CAVOK 30/19 Q1016 NOSIG=
201007070830 METAR LMML NIL=
201007070815 METAR LMML 070815Z 08005KT 040V130 CAVOK 30/19 Q1016 NOSIG=
201007070800 METAR LMML NIL=
201007070745 METAR LMML 070745Z 12005KT 080V170 CAVOK 28/19 Q1016 NOSIG=
201007070730 METAR LMML NIL=
201007070715 METAR LMML 070715Z 09005KT 030V140 CAVOK 27/20 Q1016 NOSIG=
201007070700 METAR LMML NIL=
201007070645 METAR LMML 070645Z VRB03KT CAVOK 27/20 Q1016 NOSIG=
201007070630 METAR LMML NIL=
201007070615 METAR LMML 070615Z VRB02KT CAVOK 25/21 Q1016 BECMG 9999 FEW012=
201007070600 METAR LMML NIL=
201007070545 METAR LMML 070545Z VRB02KT 9000 NSC 24/21 Q1015 BECMG 9999
                        FEW012=
201007070530 METAR LMML NIL=
201007070515 METAR LMML 070515Z VRB03KT 9000 NSC 23/21 Q1015 BECMG 9999
                        FEW012=
201007070500 METAR LMML NIL=
201007070445 METAR LMML 070445Z VRB01KT 7000 FEW009 22/21 Q1015 NOSIG=
201007070430 METAR LMML NIL=
201007070415 METAR LMML 070415Z VRB02KT 7000 FEW009 22/20 Q1015 NOSIG=
201007070400 METAR LMML NIL=
201007070345 METAR LMML 070345Z 30004KT 6000 FEW009 22/20 Q1015 TEMPO
                        5000 BKN005=
201007070330 METAR LMML NIL=
201007070315 METAR LMML 070315Z VRB03KT 9000 NSC 22/20 Q1015 TEMPO 6000
                        SCT003=
201007070300 METAR LMML NIL=
201007070245 METAR LMML 070245Z VRB03KT CAVOK 22/20 Q1015 NOSIG=
201007070230 METAR LMML NIL=
201007070215 METAR LMML 070215Z VRB02KT CAVOK 22/19 Q1014 NOSIG=
201007070200 METAR LMML NIL=
201007070145 METAR LMML 070145Z VRB03KT CAVOK 22/19 Q1014 NOSIG=
201007070130 METAR LMML NIL=
201007070115 METAR LMML 070115Z 33004KT CAVOK 23/19 Q1014 NOSIG=
201007070100 METAR LMML NIL=
201007070045 METAR LMML 070045Z VRB03KT CAVOK 23/19 Q1014 NOSIG=
201007070030 METAR LMML NIL=
201007070015 METAR LMML 070015Z VRB03KT CAVOK 23/20 Q1014 NOSIG=
201007070000 METAR LMML NIL=
201007062345 METAR LMML 062345Z VRB03KT CAVOK 23/20 Q1014 NOSIG=
201007062330 METAR LMML NIL=
201007062315 METAR LMML 062315Z VRB03KT CAVOK 23/20 Q1015 NOSIG=
201007062300 METAR LMML NIL=
201007062245 METAR LMML 062245Z VRB03KT CAVOK 23/20 Q1015 NOSIG=
201007062230 METAR LMML NIL=
201007062215 METAR LMML 062215Z 32004KT CAVOK 23/20 Q1015 NOSIG=
201007062200 METAR LMML NIL=
201007062145 METAR LMML 062145Z 33004KT 9999 FEW015 23/20 Q1015 NOSIG=
201007062130 METAR LMML NIL=
201007062115 METAR LMML 062115Z 33005KT 9999 FEW015 23/21 Q1015 NOSIG=
201007062100 METAR LMML NIL=
201007062045 METAR LMML 062045Z 33004KT 300V360 9999 FEW015 23/21 Q1015
                        NOSIG=
201007062030 METAR LMML NIL=
201007062015 METAR LMML 062015Z 31005KT 9999 FEW015 24/21 Q1015 NOSIG=
201007062000 METAR LMML NIL=
201007061945 METAR LMML 061945Z 30006KT 9999 FEW015 24/20 Q1015 NOSIG=
201007061930 METAR LMML NIL=
201007061915 METAR LMML 061915Z 32006KT 9999 FEW015 24/20 Q1014 NOSIG=
201007061900 METAR LMML NIL=
201007061845 METAR LMML 061845Z 33009KT 9999 FEW015 24/20 Q1014 NOSIG=
201007061830 METAR LMML NIL=
201007061815 METAR LMML 061815Z 34008KT CAVOK 25/20 Q1014 NOSIG=
201007061800 METAR LMML NIL=
201007061745 METAR LMML 061745Z 33010KT 9999 FEW015 26/18 Q1014 NOSIG=
201007061730 METAR LMML NIL=
201007061715 METAR LMML 061715Z 35010KT 320V020 CAVOK 27/17 Q1014 NOSIG=
201007061700 METAR LMML NIL=
201007061645 METAR LMML 061645Z 32009KT 290V350 9999 FEW015 27/21 Q1014
                        NOSIG=
201007061630 METAR LMML NIL=
201007061615 METAR LMML 061615Z 30011KT 9999 FEW015 27/20 Q1014 NOSIG=
201007061600 METAR LMML NIL=
201007061545 METAR LMML 061545Z 31010KT 260V340 CAVOK 29/18 Q1014 NOSIG=
201007061530 METAR LMML NIL=
201007061515 METAR LMML 061515Z 31013KT 280V340 CAVOK 28/19 Q1014 NOSIG=
201007061500 METAR LMML NIL=
201007061445 METAR LMML 061445Z 32011KT 280V350 9999 FEW015 29/19 Q1014
                        NOSIG=
201007061430 METAR LMML NIL=
201007061415 METAR LMML 061415Z 30012KT 9999 FEW015 28/19 Q1014 NOSIG=
201007061400 METAR LMML NIL=
201007061345 METAR LMML 061345Z 29012KT 270V330 9999 FEW020 29/19 Q1014
                        NOSIG=
201007061330 METAR LMML NIL=
201007061315 METAR LMML 061315Z 30012KT 260V340 9999 FEW020 28/20 Q1014
                        NOSIG=
201007061300 METAR LMML NIL=
201007061245 METAR LMML 061245Z 30011KT 9999 FEW020 30/18 Q1014 NOSIG=
201007061230 METAR LMML NIL=
201007061215 METAR LMML 061215Z 30011KT 260V330 9999 FEW020 28/19 Q1014
                        TEMPO CAVOK=
201007061200 METAR LMML NIL=
201007061145 METAR LMML 061145Z 29013KT 250V320 9999 FEW020 28/19 Q1015
                        TEMPO CAVOK=
201007061115 METAR LMML 061115Z 30012KT 260V330 9999 FEW020 29/19 Q1014
                        TEMPO CAVOK=
201007061100 METAR LMML NIL=
201007061045 METAR LMML 061045Z 29010KT 230V340 9999 FEW020 30/17 Q1014
                        NOSIG=
201007061030 METAR LMML NIL=
201007061015 METAR LMML 061015Z 30010KT 270V340 CAVOK 29/19 Q1014 NOSIG=
201007061000 METAR LMML NIL=
201007060945 METAR LMML 060945Z 30010KT 270V340 9999 FEW020 28/19 Q1015
                        NOSIG=
201007060930 METAR LMML NIL=
201007060915 METAR LMML 060915Z 29010KT 250V320 9999 FEW020 28/20 Q1014
                        NOSIG=
201007060900 METAR LMML NIL=
201007060845 METAR LMML 060845Z 30009KT 270V340 9999 FEW020 28/19 Q1014
                        NOSIG=
201007060830 METAR LMML NIL=
201007060815 METAR LMML 060815Z 30012KT 9999 FEW020 27/20 Q1014 NOSIG=
201007060745 METAR LMML 060745Z 32010KT 9999 FEW015 27/19 Q1014 NOSIG=
201007060730 METAR LMML NIL=
201007060715 METAR LMML 060715Z 31009KT 270V330 9999 FEW015 26/20 Q1014
                        NOSIG=
201007060700 METAR LMML NIL=
201007060645 METAR LMML 060645Z 32011KT 9999 FEW015 26/20 Q1014 NOSIG=
201007060630 METAR LMML NIL=
201007060615 METAR LMML 060615Z 31010KT 280V340 9999 FEW015 25/20 Q1014
                        NOSIG=
201007060600 METAR LMML NIL=
201007060545 METAR LMML 060545Z 32008KT 9999 FEW015 25/20 Q1014 NOSIG=
201007060530 METAR LMML NIL=
201007060515 METAR LMML 060515Z 31006KT 280V340 CAVOK 24/19 Q1014 NOSIG=
201007060500 METAR LMML NIL=
201007060445 METAR LMML 060445Z 32007KT CAVOK 24/18 Q1014 NOSIG=
201007060430 METAR LMML NIL=
201007060415 METAR LMML 060415Z 29007KT CAVOK 24/16 Q1013 NOSIG=
201007060400 METAR LMML NIL=
201007060345 METAR LMML 060345Z 30008KT CAVOK 24/17 Q1013 NOSIG=
201007060330 METAR LMML NIL=
201007060315 METAR LMML 060315Z 30006KT 250V330 CAVOK 24/17 Q1013 NOSIG=
201007060300 METAR LMML NIL=
201007060245 METAR LMML 060245Z 30010KT CAVOK 24/16 Q1013 NOSIG=
201007060230 METAR LMML NIL=
201007060215 METAR LMML 060215Z 29007KT 240V330 CAVOK 24/17 Q1013 NOSIG=
201007060200 METAR LMML NIL=
201007060145 METAR LMML 060145Z 28006KT 240V310 CAVOK 24/18 Q1014 NOSIG=
201007060130 METAR LMML NIL=
201007060115 METAR LMML 060115Z 28009KT 250V310 CAVOK 24/18 Q1014 NOSIG=
201007060100 METAR LMML NIL=
201007060045 METAR LMML 060045Z 28006KT 230V320 CAVOK 24/18 Q1014 NOSIG=
201007060030 METAR LMML NIL=
201007060015 METAR LMML 060015Z 28007KT 240V310 CAVOK 24/19 Q1014 NOSIG=
201007060000 METAR LMML NIL=
201007052345 METAR LMML 052345Z 24004KT 200V280 CAVOK 24/19 Q1014 NOSIG=
201007052330 METAR LMML NIL=
201007052315 METAR LMML 052315Z 24005KT 210V280 CAVOK 24/16 Q1014 NOSIG=
201007052300 METAR LMML NIL=
201007052245 METAR LMML 052245Z VRB03KT CAVOK 24/18 Q1015 NOSIG=
201007052230 METAR LMML NIL=
201007052215 METAR LMML 052215Z VRB03KT CAVOK 25/14 Q1015 NOSIG=
201007052200 METAR LMML NIL=
201007052145 METAR LMML 052145Z 25004KT CAVOK 25/13 Q1015 NOSIG=
201007052130 METAR LMML NIL=
201007052115 METAR LMML 052115Z VRB03KT CAVOK 25/14 Q1015 NOSIG=
201007052100 METAR LMML NIL=
201007052045 METAR LMML 052045Z VRB03KT CAVOK 26/15 Q1015 NOSIG=
201007052030 METAR LMML NIL=
201007052015 METAR LMML 052015Z 32004KT CAVOK 26/14 Q1015 NOSIG=
201007052000 METAR LMML NIL=
201007051945 METAR LMML 051945Z VRB03KT CAVOK 26/15 Q1015 NOSIG=
201007051930 METAR LMML NIL=
201007051915 METAR LMML 051915Z 31005KT CAVOK 26/13 Q1015 NOSIG=
201007051900 METAR LMML NIL=
201007051845 METAR LMML 051845Z VRB01KT CAVOK 28/18 Q1015 NOSIG=
201007051830 METAR LMML NIL=
201007051815 METAR LMML 051815Z 31004KT CAVOK 28/12 Q1015 NOSIG=
201007051800 METAR LMML NIL=
201007051745 METAR LMML 051745Z VRB03KT CAVOK 28/16 Q1015 NOSIG=
201007051730 METAR LMML NIL=
201007051715 METAR LMML 051715Z VRB03KT CAVOK 29/19 Q1014 NOSIG=
201007051700 METAR LMML NIL=
201007051645 METAR LMML 051645Z 02005KT 360V060 CAVOK 29/19 Q1014 NOSIG=
201007051630 METAR LMML NIL=
201007051615 METAR LMML 051615Z 03004KT 360V090 CAVOK 31/19 Q1014 NOSIG=
201007051600 METAR LMML NIL=
201007051545 METAR LMML 051545Z 07006KT 010V140 CAVOK 31/18 Q1014 NOSIG=
201007051530 METAR LMML NIL=
201007051515 METAR LMML 051515Z 11005KT 060V170 CAVOK 30/20 Q1015 NOSIG=
201007051500 METAR LMML NIL=
201007051445 METAR LMML 051445Z 11006KT 080V180 9999 FEW012 31/20 Q1015
                        NOSIG=
201007051430 METAR LMML NIL=
201007051415 METAR LMML 051415Z 11005KT 030V190 9999 FEW012 32/21 Q1015
                        NOSIG=
201007051400 METAR LMML NIL=
201007051345 METAR LMML 051345Z VRB03KT CAVOK 33/17 Q1015 NOSIG=
201007051330 METAR LMML NIL=
201007051315 METAR LMML 051315Z 08006KT 040V140 9999 FEW012 32/21 Q1015
                        NOSIG=
201007051245 METAR LMML 051245Z 18005KT 130V280 CAVOK 31/19 Q1016 NOSIG=
201007051230 METAR LMML NIL=
201007051215 METAR LMML 051215Z 27005KT 180V350 9999 FEW012 33/12 Q1016
                        NOSIG=
201007051200 METAR LMML NIL=
201007051145 METAR LMML 051145Z 22008KT 200V280 CAVOK 31/17 Q1016 NOSIG=
201007051130 METAR LMML NIL=
201007051115 METAR LMML 051115Z 23006KT 180V280 CAVOK 31/18 Q1016 NOSIG=
201007051100 METAR LMML NIL=
201007051045 METAR LMML 051045Z 22007KT 200V270 9999 FEW012 28/20 Q1017
                        NOSIG=
201007051015 METAR LMML 051015Z 22009KT 170V280 9999 FEW012 27/21 Q1016
                        NOSIG=
201007051000 METAR LMML NIL=
201007050945 METAR LMML 050945Z 22009KT 180V270 9999 FEW012 27/21 Q1016
                        NOSIG=
201007050915 METAR LMML 050915Z 22010KT 190V260 9999 FEW012 27/21 Q1017
                        NOSIG=
201007050900 METAR LMML NIL=
201007050845 METAR LMML 050845Z 17005KT 060V240 9999 FEW012 31/21 Q1016
                        NOSIG=
201007050830 METAR LMML NIL=
201007050815 METAR LMML 050815Z VRB03KT CAVOK 30/20 Q1016 NOSIG=
201007050800 METAR LMML NIL=
201007050745 METAR LMML 050745Z 12004KT 040V170 CAVOK 29/19 Q1016 NOSIG=
201007050730 METAR LMML NIL=
201007050715 METAR LMML 050715Z VRB03KT CAVOK 29/18 Q1016 NOSIG=
201007050700 METAR LMML NIL=
201007050645 METAR LMML 050645Z VRB03KT CAVOK 28/16 Q1016 NOSIG=
201007050630 METAR LMML NIL=
201007050615 METAR LMML 050615Z VRB03KT 9000 FEW012 25/19 Q1016 NOSIG=
201007050600 METAR LMML NIL=
201007050545 METAR LMML 050545Z VRB03KT 7000 FEW012 24/20 Q1016 NOSIG=
201007050530 METAR LMML NIL=
201007050515 METAR LMML 050515Z 29004KT 230V350 7000 FEW012 24/19 Q1016
                        NOSIG=
201007050500 METAR LMML NIL=
201007050445 METAR LMML 050445Z VRB02KT 9999 FEW015 24/16 Q1016 NOSIG=
201007050430 METAR LMML NIL=
201007050415 METAR LMML 050415Z 24004KT 210V280 9999 FEW015 23/14 Q1016
                        NOSIG=
201007050400 METAR LMML NIL=
201007050345 METAR LMML 050345Z 27005KT CAVOK 23/15 Q1016 NOSIG=
201007050330 METAR LMML NIL=
201007050315 METAR LMML 050315Z 24004KT CAVOK 23/16 Q1016 NOSIG=
201007050300 METAR LMML NIL=
201007050245 METAR LMML 050245Z VRB03KT CAVOK 23/15 Q1016 NOSIG=
201007050230 METAR LMML NIL=
201007050215 METAR LMML 050215Z VRB02KT CAVOK 23/15 Q1016 NOSIG=
201007050200 METAR LMML NIL=
201007050145 METAR LMML 050145Z 26004KT CAVOK 23/16 Q1016 NOSIG=
201007050115 METAR LMML 050115Z VRB03KT CAVOK 23/17 Q1016 NOSIG=
201007050100 METAR LMML NIL=
201007050045 METAR LMML 050045Z VRB03KT CAVOK 23/18 Q1016 NOSIG=
201007050030 METAR LMML NIL=
201007050015 METAR LMML 050015Z VRB03KT CAVOK 23/16 Q1016 NOSIG=
201007042345 METAR LMML 042345Z VRB02KT CAVOK 23/16 Q1016 NOSIG=
201007042315 METAR LMML 042315Z VRB02KT CAVOK 23/16 Q1016 NOSIG=
201007042300 METAR LMML NIL=
201007042245 METAR LMML 042245Z VRB01KT CAVOK 24/16 Q1017 NOSIG=
201007042215 METAR LMML 042215Z 00000KT CAVOK 24/16 Q1017 NOSIG=
201007042200 METAR LMML NIL=
201007042145 METAR LMML 042145Z VRB01KT CAVOK 24/16 Q1017 NOSIG=
201007042115 METAR LMML 042115Z VRB02KT CAVOK 24/17 Q1017 NOSIG=
201007042100 METAR LMML NIL=
201007042045 METAR LMML 042045Z 31004KT CAVOK 25/18 Q1017 NOSIG=
201007042015 METAR LMML 042015Z 32005KT CAVOK 25/18 Q1017 NOSIG=
201007042000 METAR LMML NIL=
201007041945 METAR LMML 041945Z 33005KT CAVOK 25/17 Q1017 NOSIG=
201007041930 METAR LMML NIL=
201007041915 METAR LMML 041915Z 31004KT 290V350 CAVOK 25/18 Q1017 NOSIG=
201007041900 METAR LMML NIL=
201007041845 METAR LMML 041845Z 33005KT CAVOK 26/19 Q1016 NOSIG=
201007041815 METAR LMML 041815Z 33005KT CAVOK 27/19 Q1016 NOSIG=
201007041745 METAR LMML 041745Z 32006KT CAVOK 29/17 Q1016 NOSIG=
201007041715 METAR LMML 041715Z VRB02KT CAVOK 29/19 Q1016 NOSIG=
201007041700 METAR LMML NIL=
201007041645 METAR LMML 041645Z VRB03KT CAVOK 30/21 Q1016 NOSIG=
201007041615 METAR LMML 041615Z VRB03KT CAVOK 31/18 Q1016 NOSIG=
201007041600 METAR LMML NIL=
201007041545 METAR LMML 041545Z 36005KT 310V050 CAVOK 30/18 Q1016 NOSIG=
201007041530 METAR LMML NIL=
201007041515 METAR LMML 041515Z 01005KT 330V050 9999 FEW030 30/19 Q1016
                        NOSIG=
201007041500 METAR LMML NIL=
201007041445 METAR LMML 041445Z 19005KT 140V250 9999 FEW030 29/21 Q1016
                        NOSIG=
201007041430 METAR LMML NIL=
201007041415 METAR LMML 041415Z 18006KT 110V230 9999 FEW030 28/21 Q1016
                        NOSIG=
201007041400 METAR LMML NIL=
201007041345 METAR LMML 041345Z 04004KT 330V120 9999 FEW030 32/17 Q1016
                        NOSIG=
201007041315 METAR LMML 041315Z 03004KT 330V080 9999 FEW030 31/20 Q1017
                        NOSIG=
201007041300 METAR LMML NIL=
201007041245 METAR LMML 041245Z 05006KT 9999 FEW030 31/20 Q1017 NOSIG=
201007041230 METAR LMML NIL=
201007041215 METAR LMML 041215Z 08004KT 020V220 9999 FEW030 31/21 Q1017
                        NOSIG=
201007041200 METAR LMML NIL=
201007041145 METAR LMML 041145Z 08006KT 030V130 CAVOK 30/21 Q1017 NOSIG=
201007041130 METAR LMML NIL=
201007041115 METAR LMML 041115Z 08007KT 030V120 CAVOK 30/21 Q1017 NOSIG=
201007041045 METAR LMML 041045Z 06007KT 030V090 CAVOK 30/21 Q1017 NOSIG=
201007041030 METAR LMML NIL=
201007041015 METAR LMML 041015Z 03008KT CAVOK 30/21 Q1017 NOSIG=
201007041000 METAR LMML NIL=
201007040945 METAR LMML 040945Z 36004KT 290V060 CAVOK 32/17 Q1017 NOSIG=
201007040930 METAR LMML NIL=
201007040915 METAR LMML 040915Z VRB03KT CAVOK 30/16 Q1017 NOSIG=
201007040845 METAR LMML 040845Z VRB02KT CAVOK 30/19 Q1017 NOSIG=
201007040815 METAR LMML 040815Z VRB03KT CAVOK 28/19 Q1016 NOSIG=
201007040745 METAR LMML 040745Z VRB01KT 9999 FEW020 28/20 Q1017 NOSIG=
201007040730 METAR LMML NIL=
201007040715 METAR LMML 040715Z VRB02KT 9999 FEW020 26/19 Q1017 NOSIG=
201007040700 METAR LMML NIL=
201007040645 METAR LMML 040645Z VRB01KT 9999 FEW020 25/19 Q1017 NOSIG=
201007040630 METAR LMML NIL=
201007040615 METAR LMML 040615Z VRB03KT 9999 FEW015 25/19 Q1017 NOSIG=
201007040600 METAR LMML NIL=
201007040545 METAR LMML 040545Z VRB02KT 9999 FEW015 23/20 Q1017 NOSIG=
201007040530 METAR LMML NIL=
201007040515 METAR LMML 040515Z VRB03KT CAVOK 23/20 Q1016 NOSIG=
201007040500 METAR LMML NIL=
201007040445 METAR LMML 040445Z 35004KT 310V010 CAVOK 23/19 Q1016 NOSIG=
201007040430 METAR LMML NIL=
201007040415 METAR LMML 040415Z 33004KT CAVOK 21/16 Q1016 NOSIG=
201007040400 METAR LMML NIL=
201007040345 METAR LMML 040345Z VRB03KT CAVOK 21/16 Q1016 NOSIG=
201007040330 METAR LMML NIL=
201007040315 METAR LMML 040315Z VRB01KT CAVOK 21/17 Q1016 NOSIG=
201007040300 METAR LMML NIL=
201007040245 METAR LMML 040245Z VRB02KT CAVOK 21/18 Q1016 NOSIG=
201007040230 METAR LMML NIL=
201007040215 METAR LMML 040215Z 00000KT CAVOK 21/18 Q1016 NOSIG=
201007040200 METAR LMML NIL=
201007040145 METAR LMML 040145Z VRB02KT CAVOK 22/19 Q1015 NOSIG=
201007040130 METAR LMML NIL=
201007040115 METAR LMML 040115Z VRB03KT CAVOK 22/19 Q1016 NOSIG=
201007040100 METAR LMML NIL=
201007040045 METAR LMML 040045Z VRB03KT CAVOK 22/20 Q1016 NOSIG=
201007040030 METAR LMML NIL=
201007040015 METAR LMML 040015Z 26005KT 230V300 CAVOK 22/20 Q1016 NOSIG=
201007040000 METAR LMML NIL=
201007032345 METAR LMML 032345Z VRB03KT CAVOK 22/18 Q1016 NOSIG=
201007032330 METAR LMML NIL=
201007032315 METAR LMML 032315Z VRB02KT CAVOK 22/18 Q1016 NOSIG=
201007032300 METAR LMML NIL=
201007032245 METAR LMML 032245Z VRB03KT CAVOK 22/18 Q1016 NOSIG=
201007032230 METAR LMML NIL=
201007032215 METAR LMML 032215Z 26005KT CAVOK 22/17 Q1016 NOSIG=
201007032200 METAR LMML NIL=
201007032145 METAR LMML 032145Z VRB03KT CAVOK 23/18 Q1016 NOSIG=
201007032130 METAR LMML NIL=
201007032115 METAR LMML 032115Z 32004KT 280V340 CAVOK 23/18 Q1016 NOSIG=
201007032100 METAR LMML NIL=
201007032045 METAR LMML 032045Z 32005KT 290V360 CAVOK 23/18 Q1016 NOSIG=
201007032030 METAR LMML NIL=
201007032015 METAR LMML 032015Z 29004KT CAVOK 23/17 Q1016 NOSIG=
201007032000 METAR LMML NIL=
201007031945 METAR LMML 031945Z 28004KT 240V300 CAVOK 24/17 Q1016 NOSIG=
201007031930 METAR LMML NIL=
201007031915 METAR LMML 031915Z 30004KT CAVOK 24/17 Q1016 NOSIG=
201007031900 METAR LMML NIL=
201007031845 METAR LMML 031845Z 30006KT CAVOK 25/16 Q1016 NOSIG=
201007031830 METAR LMML NIL=
201007031815 METAR LMML 031815Z 31006KT 280V340 CAVOK 25/16 Q1015 NOSIG=
201007031800 METAR LMML NIL=
201007031745 METAR LMML 031745Z 25006KT 210V290 CAVOK 26/17 Q1015 NOSIG=
201007031730 METAR LMML NIL=
201007031715 METAR LMML 031715Z 22005KT 160V290 CAVOK 27/16 Q1015 NOSIG=
201007031700 METAR LMML NIL=
201007031645 METAR LMML 031645Z 19004KT 140V240 CAVOK 27/16 Q1015 NOSIG=
201007031630 METAR LMML NIL=
201007031615 METAR LMML 031615Z 22005KT 170V280 CAVOK 27/17 Q1015 NOSIG=
201007031600 METAR LMML NIL=
201007031545 METAR LMML 031545Z 21006KT 160V250 CAVOK 27/17 Q1015 NOSIG=
201007031530 METAR LMML NIL=
201007031515 METAR LMML 031515Z 21007KT 180V250 9999 FEW020 27/18 Q1015
                        NOSIG=
201007031445 METAR LMML 031445Z 22006KT 170V250 9999 FEW020 28/18 Q1015
                        NOSIG=
201007031430 METAR LMML NIL=
201007031415 METAR LMML 031415Z 04004KT 290V110 9999 FEW020 29/17 Q1015
                        NOSIG=
201007031345 METAR LMML 031345Z 20007KT 160V240 9999 FEW020 28/18 Q1015
                        NOSIG=
201007031330 METAR LMML NIL=
201007031315 METAR LMML 031315Z 20004KT 9999 FEW020 30/18 Q1015 NOSIG=
201007031245 METAR LMML 031245Z 04005KT 350V120 9999 FEW020 31/18 Q1016
                        NOSIG=
201007031230 METAR LMML NIL=
201007031215 METAR LMML 031215Z 02004KT 340V060 9999 FEW020 29/17 Q1016
                        NOSIG=
201007031145 METAR LMML 031145Z 02006KT CAVOK 30/18 Q1016 NOSIG=
201007031130 METAR LMML NIL=
201007031115 METAR LMML 031115Z 02005KT 340V060 CAVOK 31/19 Q1016 NOSIG=
201007031100 METAR LMML NIL=
201007031045 METAR LMML 031045Z 04006KT 010V080 CAVOK 29/19 Q1016 NOSIG=
201007031030 METAR LMML NIL=
201007031015 METAR LMML 031015Z 02006KT 300V060 CAVOK 30/19 Q1016 NOSIG=
201007031000 METAR LMML NIL=
201007030945 METAR LMML 030945Z VRB03KT CAVOK 28/16 Q1016 NOSIG=
201007030930 METAR LMML NIL=
201007030915 METAR LMML 030915Z 22006KT 180V280 CAVOK 27/16 Q1016 NOSIG=
201007030900 METAR LMML NIL=
201007030845 METAR LMML 030845Z 21005KT 180V250 9999 FEW012 27/15 Q1016
                        NOSIG=
201007030830 METAR LMML NIL=
201007030815 METAR LMML 030815Z 19004KT 120V260 9999 FEW015 27/18 Q1016
                        NOSIG=
201007030800 METAR LMML NIL=
201007030745 METAR LMML 030745Z VRB02KT CAVOK 27/18 Q1016 NOSIG=
201007030730 METAR LMML NIL=
201007030715 METAR LMML 030715Z VRB02KT CAVOK 26/18 Q1016 NOSIG=
201007030700 METAR LMML NIL=
201007030645 METAR LMML 030645Z VRB02KT CAVOK 25/19 Q1016 NOSIG=
201007030630 METAR LMML NIL=
201007030615 METAR LMML 030615Z VRB02KT 9999 FEW020 24/18 Q1016 NOSIG=
201007030600 METAR LMML NIL=
201007030545 METAR LMML 030545Z VRB03KT 9999 FEW012 23/18 Q1015 NOSIG=
201007030530 METAR LMML NIL=
201007030515 METAR LMML 030515Z VRB03KT 9999 FEW012 23/16 Q1015 NOSIG=
201007030500 METAR LMML NIL=
201007030445 METAR LMML 030445Z VRB03KT 9999 FEW012 21/14 Q1015 NOSIG=
201007030430 METAR LMML NIL=
201007030415 METAR LMML 030415Z VRB01KT 9999 FEW012 20/14 Q1015 TEMPO
                        8000=
201007030400 METAR LMML NIL=
201007030345 METAR LMML 030345Z VRB03KT CAVOK 20/15 Q1014 TEMPO 8000=
201007030330 METAR LMML NIL=
201007030315 METAR LMML 030315Z VRB03KT CAVOK 21/15 Q1014 TEMPO 8000=
201007030300 METAR LMML NIL=
201007030245 METAR LMML 030245Z 22004KT CAVOK 21/15 Q1014 TEMPO 8000=
201007030215 METAR LMML 030215Z 23004KT 210V270 CAVOK 22/16 Q1014 TEMPO
                        8000=
201007030200 METAR LMML NIL=
201007030145 METAR LMML 030145Z VRB03KT CAVOK 21/16 Q1014 TEMPO 8000=
201007030130 METAR LMML NIL=
201007030115 METAR LMML 030115Z VRB03KT CAVOK 21/17 Q1014 TEMPO 8000=
201007030100 METAR LMML NIL=
201007030045 METAR LMML 030045Z VRB03KT CAVOK 22/18 Q1014 TEMPO 8000=
201007030030 METAR LMML NIL=
201007030015 METAR LMML 030015Z 21004KT 180V240 CAVOK 22/18 Q1015 NOSIG=
201007030000 METAR LMML NIL=
201007022345 METAR LMML 022345Z 21004KT 180V240 CAVOK 22/18 Q1015 NOSIG=
201007022330 METAR LMML NIL=
201007022315 METAR LMML 022315Z VRB03KT CAVOK 22/18 Q1015 NOSIG=
201007022300 METAR LMML NIL=
201007022245 METAR LMML 022245Z VRB03KT CAVOK 22/18 Q1015 NOSIG=
201007022230 METAR LMML NIL=
201007022215 METAR LMML 022215Z VRB03KT CAVOK 22/18 Q1015 NOSIG=
201007022200 METAR LMML NIL=
201007022145 METAR LMML 022145Z VRB01KT CAVOK 22/18 Q1015 NOSIG=
201007022130 METAR LMML NIL=
201007022115 METAR LMML 022115Z VRB01KT CAVOK 22/18 Q1015 NOSIG=
201007022045 METAR LMML 022045Z VRB01KT CAVOK 23/18 Q1016 NOSIG=
201007022030 METAR LMML NIL=
201007022015 METAR LMML 022015Z VRB02KT CAVOK 23/18 Q1016 NOSIG=
201007022000 METAR LMML NIL=
201007021945 METAR LMML 021945Z VRB03KT CAVOK 23/18 Q1015 NOSIG=
201007021930 METAR LMML NIL=
201007021915 METAR LMML 021915Z 30004KT CAVOK 23/18 Q1015 NOSIG=
201007021900 METAR LMML NIL=
201007021845 METAR LMML 021845Z 32006KT CAVOK 24/18 Q1015 NOSIG=
201007021830 METAR LMML NIL=
201007021815 METAR LMML 021815Z 26004KT CAVOK 25/18 Q1015 NOSIG=
201007021800 METAR LMML NIL=
201007021745 METAR LMML 021745Z 23004KT 200V270 CAVOK 25/19 Q1015 NOSIG=
201007021730 METAR LMML NIL=
201007021715 METAR LMML 021715Z 22007KT 200V260 CAVOK 26/19 Q1014 NOSIG=
201007021700 METAR LMML NIL=
201007021645 METAR LMML 021645Z 25005KT 190V290 9999 FEW015 28/17 Q1014
                        NOSIG=
201007021630 METAR LMML NIL=
201007021615 METAR LMML 021615Z 24006KT 200V280 9999 FEW015 28/17 Q1014
                        NOSIG=
201007021600 METAR LMML NIL=
201007021545 METAR LMML 021545Z 28005KT 240V350 9999 FEW015 29/16 Q1014
                        NOSIG=
201007021530 METAR LMML NIL=
201007021515 METAR LMML 021515Z 28006KT 170V340 9999 FEW015 30/19 Q1014
                        NOSIG=
201007021500 METAR LMML NIL=
201007021445 METAR LMML 021445Z 26007KT 220V310 9999 FEW020 29/17 Q1014
                        NOSIG=
201007021430 METAR LMML NIL=
201007021415 METAR LMML 021415Z 22007KT 190V270 9999 FEW020 28/19 Q1014
                        NOSIG=
201007021400 METAR LMML NIL=
201007021345 METAR LMML 021345Z 22006KT 170V250 9999 FEW020 28/20 Q1015
                        NOSIG RMK CB TOPS TO NORTH=
201007021330 METAR LMML NIL=
201007021315 METAR LMML 021315Z 19006KT 160V260 9999 FEW020 28/20 Q1015
                        NOSIG=
201007021300 METAR LMML NIL=
201007021245 METAR LMML 021245Z 21006KT 160V270 9999 FEW020 28/20 Q1015
                        NOSIG=
201007021230 METAR LMML NIL=
201007021215 METAR LMML 021215Z 21008KT 160V280 9999 FEW015 27/20 Q1015
                        NOSIG=
201007021200 METAR LMML NIL=
201007021145 METAR LMML 021145Z 22009KT 180V260 9999 FEW015 26/20 Q1015
                        NOSIG=
201007021130 METAR LMML NIL=
201007021115 METAR LMML 021115Z 21005KT 160V280 9999 FEW015 27/20 Q1015
                        NOSIG=
201007021100 METAR LMML NIL=
201007021045 METAR LMML 021045Z 22008KT 200V270 9000 FEW015 26/20 Q1015
                        NOSIG=
201007021030 METAR LMML NIL=
201007021015 METAR LMML 021015Z 04006KT 010V080 CAVOK 28/20 Q1015 NOSIG=
201007021000 METAR LMML NIL=
201007020945 METAR LMML 020945Z 24004KT 190V290 9000 NSC 27/19 Q1015 BECMG
                        CAVOK=
201007020930 METAR LMML NIL=
201007020915 METAR LMML 020915Z 19006KT 170V230 8000 NSC 27/20 Q1015 NOSIG=
201007020900 METAR LMML NIL=
201007020845 METAR LMML 020845Z 21005KT 140V260 8000 NSC 26/19 Q1015 BECMG
                        9999 FEW015=
201007020830 METAR LMML NIL=
201007020815 METAR LMML 020815Z 21004KT 170V260 8000 FEW012 26/20 Q1015
                        BECMG 9999=
201007020800 METAR LMML NIL=
201007020745 METAR LMML 020745Z 22006KT 170V270 8000 FEW012 25/20 Q1015
                        BECMG 9999=
201007020730 METAR LMML NIL=
201007020715 METAR LMML 020715Z VRB03KT 8000 FEW012 26/19 Q1015 BECMG
                        9999=
201007020700 METAR LMML NIL=
201007020645 METAR LMML 020645Z 12004KT 070V160 8000 FEW012 25/18 Q1015
                        BECMG 9999=
201007020630 METAR LMML NIL=
201007020615 METAR LMML 020615Z VRB01KT 8000 NSC 24/18 Q1015 TEMPO SCT003=
201007020600 METAR LMML NIL=
201007020545 METAR LMML 020545Z VRB02KT 6000 NSC 22/19 Q1015 TEMPO SCT003=
201007020530 METAR LMML NIL=
201007020515 METAR LMML 020515Z VRB02KT 6000 NSC 22/20 Q1015 TEMPO SCT003=
201007020500 METAR LMML NIL=
201007020445 METAR LMML 020445Z VRB01KT 6000 BR NSC 21/20 Q1015 TEMPO
                        SCT003=
201007020415 METAR LMML 020415Z VRB02KT 3000 BR NSC 20/19 Q1015 TEMPO
                        SCT003=
201007020400 METAR LMML NIL=
201007020345 METAR LMML 020345Z VRB03KT 3000 BR NSC 21/19 Q1015 TEMPO
                        SCT003=
201007020330 METAR LMML NIL=
201007020315 METAR LMML 020315Z 29004KT 5000 BR NSC 21/19 Q1015 TEMPO
                        3000 BKN003=
201007020300 METAR LMML NIL=
201007020245 METAR LMML 020245Z VRB03KT 5000 BR NSC 21/19 Q1015 TEMPO
                        3000 BKN003=
201007020230 METAR LMML NIL=
201007020215 METAR LMML 020215Z VRB03KT 5000 BR NSC 21/19 Q1015 TEMPO
                        3000 BKN003=
201007020200 METAR LMML NIL=
201007020145 METAR LMML 020145Z 25004KT 200V290 5000 BR NSC 21/20 Q1015
                        TEMPO 3000 BR SCT003=
201007020130 METAR LMML NIL=
201007020115 METAR LMML 020115Z VRB03KT 6000 NSC 21/19 Q1015 NOSIG=
201007020100 METAR LMML NIL=
201007020045 METAR LMML 020045Z 22005KT CAVOK 22/19 Q1014 NOSIG=
201007020030 METAR LMML NIL=
201007020015 METAR LMML 020015Z VRB03KT CAVOK 21/18 Q1015 NOSIG=
201007020000 METAR LMML NIL=
201007012345 METAR LMML 012345Z VRB03KT CAVOK 21/19 Q1015 NOSIG=
201007012330 METAR LMML NIL=
201007012315 METAR LMML 012315Z VRB03KT CAVOK 22/19 Q1015 NOSIG=
201007012300 METAR LMML NIL=
201007012245 METAR LMML 012245Z VRB03KT CAVOK 22/19 Q1015 NOSIG=
201007012230 METAR LMML NIL=
201007012215 METAR LMML 012215Z VRB03KT CAVOK 22/18 Q1015 NOSIG=
201007012200 METAR LMML NIL=
201007012145 METAR LMML 012145Z VRB03KT CAVOK 22/17 Q1015 NOSIG=
201007012130 METAR LMML NIL=
201007012115 METAR LMML 012115Z VRB02KT CAVOK 23/18 Q1015 NOSIG=
201007012100 METAR LMML NIL=
201007012045 METAR LMML 012045Z VRB01KT CAVOK 23/17 Q1015 NOSIG=
201007012030 METAR LMML NIL=
201007012015 METAR LMML 012015Z VRB02KT 9999 FEW020 23/16 Q1015 NOSIG=
201007012000 METAR LMML NIL=
201007011945 METAR LMML 011945Z VRB02KT 9999 FEW020 23/17 Q1015 NOSIG=
201007011930 METAR LMML NIL=
201007011915 METAR LMML 011915Z VRB02KT 9999 FEW020 24/16 Q1015 NOSIG=
201007011900 METAR LMML NIL=
201007011845 METAR LMML 011845Z 31004KT 9999 FEW020 24/16 Q1015 NOSIG=
201007011830 METAR LMML NIL=
201007011815 METAR LMML 011815Z 33006KT 9999 FEW020 25/17 Q1014 NOSIG=
201007011800 METAR LMML NIL=
201007011745 METAR LMML 011745Z 35006KT 320V040 9999 FEW020 26/14 Q1014
                        NOSIG=
201007011730 METAR LMML NIL=
201007011715 METAR LMML 011715Z 01005KT 290V080 CAVOK 27/12 Q1014 NOSIG=
201007011700 METAR LMML NIL=
201007011645 METAR LMML 011645Z 02004KT 350V060 CAVOK 28/17 Q1014 NOSIG=
201007011630 METAR LMML NIL=
201007011615 METAR LMML 011615Z 01005KT 330V060 CAVOK 29/18 Q1014 NOSIG=
201007011600 METAR LMML NIL=
201007011545 METAR LMML 011545Z 01004KT 310V060 CAVOK 29/16 Q1014 NOSIG=
201007011530 METAR LMML NIL=
201007011515 METAR LMML 011515Z 33005KT 220V030 CAVOK 30/16 Q1014 NOSIG=
201007011500 METAR LMML NIL=
201007011445 METAR LMML 011445Z 19007KT 160V230 CAVOK 29/16 Q1014 NOSIG=
201007011430 METAR LMML NIL=
201007011415 METAR LMML 011415Z 22007KT 190V280 9999 FEW040 28/18 Q1014
                        NOSIG=
201007011400 METAR LMML NIL=
201007011345 METAR LMML 011345Z 20004KT 150V260 9999 FEW040 28/19 Q1014
                        NOSIG=
201007011330 METAR LMML NIL=
201007011315 METAR LMML 011315Z 19004KT 130V260 9999 FEW039 28/20 Q1015
                        NOSIG=
201007011300 METAR LMML NIL=
201007011245 METAR LMML 011245Z 21006KT 160V260 9999 FEW040 28/19 Q1015
                        NOSIG=
201007011230 METAR LMML NIL=
201007011215 METAR LMML 011215Z 17004KT 080V220 9999 FEW030 28/19 Q1015
                        NOSIG=
201007011200 METAR LMML NIL=
201007011145 METAR LMML 011145Z VRB03KT CAVOK 31/16 Q1015 NOSIG=
201007011130 METAR LMML NIL=
201007011115 METAR LMML 011115Z 02005KT 330V070 CAVOK 30/14 Q1015 NOSIG=
201007011100 METAR LMML NIL=
201007011045 METAR LMML 011045Z 03005KT 330V080 CAVOK 29/17 Q1015 NOSIG=
201007011030 METAR LMML NIL=
201007011015 METAR LMML 011015Z 02004KT 340V080 9999 FEW020 29/17 Q1015
                        NOSIG=
201007011000 METAR LMML NIL=
201007010945 METAR LMML 010945Z 04006KT 350V080 9999 FEW020 28/17 Q1015
                        NOSIG=
201007010930 METAR LMML NIL=
201007010915 METAR LMML 010915Z 01004KT 320V130 CAVOK 29/18 Q1015 NOSIG=
201007010900 METAR LMML NIL=
201007010845 METAR LMML 010845Z 02005KT 340V070 9000 NSC 28/18 Q1015 BECMG
                        CAVOK=
201007010830 METAR LMML NIL=
201007010815 METAR LMML 010815Z 36004KT 310V050 9000 NSC 27/20 Q1015 BECMG
                        CAVOK=
201007010800 METAR LMML NIL=
201007010745 METAR LMML 010745Z VRB03KT 7000 NSC 27/20 Q1015 BECMG CAVOK=
201007010730 METAR LMML NIL=
201007010715 METAR LMML 010715Z VRB02KT 7000 NSC 26/19 Q1015 BECMG 9999=
201007010700 METAR LMML NIL=
201007010645 METAR LMML 010645Z VRB02KT 7000 FEW011 24/19 Q1015 BECMG
                        9999=
201007010630 METAR LMML NIL=
201007010615 METAR LMML 010615Z VRB01KT 7000 FEW011 23/21 Q1015 BECMG
                        9999=
201007010600 METAR LMML NIL=
201007010545 METAR LMML 010545Z VRB02KT 5000 BR FEW003 22/21 Q1015 BECMG
                        9999=
201007010530 METAR LMML NIL=
201007010515 METAR LMML 010515Z VRB03KT 5000 BR FEW003 21/20 Q1014 BECMG
                        9999=
201007010500 METAR LMML NIL=
201007010445 METAR LMML 010445Z VRB02KT 5000 BR FEW005 21/20 Q1015 BECMG
                        9999=
201007010430 METAR LMML NIL=
201007010415 METAR LMML 010415Z VRB02KT 6000 FEW007 20/19 Q1015 NOSIG=
201007010400 METAR LMML NIL=
201007010345 METAR LMML 010345Z VRB01KT 6000 FEW007 20/19 Q1015 NOSIG=
201007010330 METAR LMML NIL=
201007010315 METAR LMML 010315Z VRB01KT 6000 FEW007 21/20 Q1015 BECMG
                        5000 BR=
201007010300 METAR LMML NIL=
201007010245 METAR LMML 010245Z 28005KT 240V300 6000 BKN006 21/20 Q1015
                        NOSIG=
201007010230 METAR LMML NIL=
201007010215 METAR LMML 010215Z VRB03KT 6000 BKN005 21/20 Q1015 NOSIG=
201007010200 METAR LMML NIL=
201007010145 METAR LMML 010145Z 26004KT 220V290 6000 SCT003 21/20 Q1015
                        NOSIG=
201007010130 METAR LMML NIL=
201007010115 METAR LMML 010115Z 24006KT 200V290 6000 SCT003 21/20 Q1015
                        NOSIG=
201007010100 METAR LMML NIL=
201007010045 METAR LMML 010045Z 23007KT 190V290 9000 BKN002 21/20 Q1015
                        NOSIG=
201007010030 METAR LMML NIL=
201007010015 METAR LMML 010015Z 24004KT 210V280 9000 BKN002 21/20 Q1015
                        NOSIG=
201007010000 METAR LMML NIL=

###################################
#  short TAF from LMML
###################################
201007312300 TAF LMML 312300Z 0100/0109 VRB03KT CAVOK
                      TEMPO 0100/0109 9999 FEW015=
201007312000 TAF LMML 312000Z 3121/0106 33010KT 9999 FEW015
                      TEMPO 3121/0106 CAVOK
                      BECMG 3122/0101 VRB05KT
                      PROB30 TEMPO 0102/0106 BKN015=
201007311700 TAF LMML 311700Z 3118/0103 29012KT 9999 FEW015
                      TEMPO 3118/3124 CAVOK
                      PROB30 TEMPO 0100/0103 9999 BKN012=
201007311400 TAF LMML 311400Z 3115/3124 29013KT 9999 FEW015
                      TEMPO 3115/3124 CAVOK=
201007311100 TAF LMML 311100Z 3112/3121 29013KT CAVOK
                      TEMPO 3112/3121 9999 FEW018=
201007310800 TAF LMML 310800Z 3109/3118 29012KT 9999 FEW015=
201007310500 TAF LMML 310500Z 3106/3115 28012KT 9999 SCT015=
201007310200 TAF LMML 310200Z 3103/3112 28010KT CAVOK
                      TEMPO 3103/3112 9999 FEW012
                      PROB30 TEMPO 3103/3106 9000 BKN008=
201007302300 TAF LMML 302300Z 3100/3109 28008KT 9999 FEW012
                      PROB30 TEMPO 3100/3106 9000 BKN008=
201007302000 TAF LMML 302000Z 3021/3106 28008KT 9999 FEW012
                      PROB30 TEMPO 3021/3106 9000 BKN008=
201007301700 TAF LMML 301700Z 3018/3103 27004KT 9999 FEW015
                      TEMPO 3018/3103 CAVOK
                      PROB30 TEMPO 3023/3103 BKN009=
201007301400 TAF LMML 301400Z 3015/3024 27005KT 9999 FEW015
                      PROB30 TEMPO 3020/3024 BKN009=
201007301100 TAF LMML 301100Z 3012/3021 27005KT 9999 FEW018=
201007300800 TAF LMML 300800Z 3009/3018 25007KT 9999 FEW018=
201007300500 TAF LMML 300500Z 3006/3015 23006KT 9999 FEW025=
201007300200 TAF LMML 300200Z 3003/3012 VRB03KT 9999 FEW018=
201007292300 TAF LMML 292300Z 3000/3009 VRB03KT 9999 FEW018 PR0B30
                      TEMPO 3000/3005 CAVOK=
201007292000 TAF LMML 292000Z 2921/3006 VRB03KT 9999 FEW015=
201007291700 TAF LMML 291700Z 2918/3003 19005KT 9999 FEW018=
201007291400 TAF LMML 291400Z 2915/2924 19005KT 9999 FEW020=
201007291100 TAF LMML 291100Z 2912/2921 VRB05KT 9999 SCT020=
201007290800 TAF LMML 290800Z 2909/2918 27005KT 9999 SCT020=
201007290500 TAF LMML 290500Z 2906/2915 26006KT 9999 SCT015
                      PROB30 TEMPO 2906/2908 9000 BKN015=
201007290200 TAF LMML 290200Z 2903/2912 28005KT 9999 FEW020
                      PROB30 TEMPO 2903/2906 9000 BKN015=
201007282300 TAF LMML 282300Z 2900/2909 28004KT 9999 FEW020
                      PROB30 TEMPO 2900/2906 9000 BKN015=
201007282000 TAF LMML 282000Z 2821/2906 28004KT 9999 FEW020
                      PROB30 TEMPO 2821/2906 9000 BKN015=
201007281700 TAF LMML 281700Z 2818/2903 27005KT 9999 FEW020=
201007281600 LMML 281600Z 2815/2824 30010KT 9999 FEW035=
201007281400 TAF LMML NIL=
201007281100 TAF LMML 281100Z 2812/2821 32010KT 9999 FEW030=
201007280800 TAF LMML 280800Z 2809/2818 32012KT 9999 FEW025=
201007280500 TAF LMML 280500Z 2806/2815 31011KT 9999 FEW018
                      PROB30 TEMPO 2806/2810 BKN015=
201007280200 TAF LMML 280200Z 2803/2812 31010KT 9999 FEW015
                      TEMPO 2803/2806 CAVOK=
201007272300 TAF LMML 272300Z 2800/2809 31010KT 9999 FEW015
                      TEMPO 2800/2806 CAVOK=
201007272000 TAF LMML 272000Z 2721/2806 30010KT 9999 FEW015
                      TEMPO 2721/2806 CAVOK=
201007271700 TAF LMML 271700Z 2718/2803 30012KT 9999 FEW020
                      TEMPO 2718/2803 CAVOK=
201007271400 TAF LMML 271400Z 2715/2724 29011KT 9999 FEW030
                      TEMPO 2718/2724 CAVOK=
201007271100 TAF LMML 271100Z 2712/2721 29012KT 9999 FEW025
                      TEMPO 2718/2721 CAVOK=
201007270800 TAF LMML 270800Z 2709/2718 30012KT 9999 FEW025=
201007270500 TAF LMML 270500Z 2706/2715 31010KT 9999 SCT020=
201007270200 TAF LMML 270200Z 2703/2712 31008KT 9999 FEW015=
201007262300 TAF LMML 262300Z 2700/2709 31010KT 9999 FEW015=
201007262000 TAF LMML 262000Z 2621/2706 30010KT 9999 FEW016=
201007261700 TAF LMML 261700Z 2618/2703 30012KT 9999 FEW016=
201007261400 TAF LMML 261400Z 2615/2624 30012KT 9999 FEW020=
201007261100 TAF LMML 261100Z 2612/2621 30015KT 9999 FEW022=
201007260800 TAF LMML 260800Z 2609/2618 30015KT 9999 FEW025=
201007260500 TAF LMML 260500Z 2606/2615 30015KT 9999 FEW020=
201007260200 TAF LMML 260200Z 2603/2612 30015KT 9999 FEW018
                      TEMPO 2603/2607 30020G30KT=
201007252345 LMML 252345Z 2600/2609 30017KT 9999 SCT020
                      PROB40 TEMPO 2600/2606 9000 BKN015
                      PROB30 TEMPO 2600/2603 29017G27KT=
201007252300 TAF LMML 252300Z 2600/2609 30017KT 9999 FEW020
                      PROB30 TEMPO 2600/2603 29017G27KT=
201007252000 TAF LMML 252000Z 2521/2606 30017KT 9999 SCT025
                      TEMPO 2521/2524 29017G27KT=
201007251700 TAF LMML 251700Z 2518/2603 31018G28KT 9999 SCT020
                      BECMG 2519/2522 29015KT=
201007251400 TAF LMML 251400Z 2515/2524 28018KT 9999 SCT025
                      PROB30 TEMPO 2515/2521 28018G28KT=
201007251100 TAF LMML 251100Z 2512/2521 29017KT 9999 SCT020
                      TEMPO 2515/2521 29018G28KT=
201007250800 TAF LMML 250800Z 2509/2518 32018KT 9999 SCT018
                      BECMG 2515/2518 32018G28KT=
201007250500 TAF LMML 250500Z 2506/2515 30018KT 9999 FEW020
                      TEMPO 2510/2515 30020G30KT=
201007250200 TAF LMML 250200Z 2503/2512 30018KT CAVOK
                      TEMPO 2503/2512 9999 FEW020=
201007242300 TAF LMML 242300Z 2500/2509 30020KT CAVOK
                      PROB30 TEMPO 2500/2509 9999 FEW020=
201007242000 TAF LMML 242000Z 2421/2506 30023G33KT CAVOK
                      PROB30 TEMPO 2421/2503 9999 FEW020=
201007241700 TAF LMML 241700Z 2418/2503 30020G30KT CAVOK
                      PROB30 TEMPO 2421/2503 9999 FEW018=
201007241400 TAF LMML 241400Z 2415/2424 29018KT 9000
                      TEMPO 2415/2424 29028KT CAVOK=
201007241100 TAF LMML 241100Z 2412/2421 30015KT CAVOK
                      TEMPO 2412/2421 30025KT 9999 FEW020=
201007240800 TAF LMML 240800Z 2409/2418 30015KT 9999 FEW015
                      PROB 30
                      TEMPO 2412/2418 30025G35KT=
201007240500 TAF LMML 240500Z 2406/2415 30015KT CAVOK
                      TEMPO 2406/2415 9999 FEW020
                      PROB30 TEMPO 2409/2415 29017G27KT=
201007240200 TAF LMML 240200Z 2403/2412 28006KT CAVOK
                      TEMPO 2403/2412 9999 FEW015
                      PROB30 TEMPO 2403/2407 8000 BKN008
                      BECMG 2404/2407 29016KT=
201007232300 TAF LMML 232300Z 2400/2409 28005KT CAVOK
                      TEMPO 2400/2409 9999 FEW015
                      PROB40 TEMPO 2400/2406 9000 SCT010
                      PROB30 TEMPO 2402/2406 5000 BKN005
                      BECMG 2403/2406 29015KT=
201007232000 TAF LMML 232000Z 2321/2406 29005KT CAVOK
                      TEMPO 2321/2406 9999 FEW015
                      PROB40 TEMPO 2400/2406 9000 SCT010
                      PROB30 TEMPO 2400/2406 5000 BKN005
                      BECMG 2402/2406 29015KT=
201007231700 TAF LMML 231700Z 2318/2403 27004KT CAVOK
                      BECMG 2400/2403 28014KT 9999 FEW010
                      PROB40 TEMPO 2400/2403 BKN007=
201007231400 TAF LMML 231400Z 2315/2324 VRB05KT CAVOK=
201007231100 TAF LMML 231100Z 2312/2321 VRB05KT CAVOK=
201007230800 TAF LMML 230800Z 2309/2318 VRB05KT CAVOK=
201007230500 TAF LMML 230500Z 2306/2315 VRB05KT CAVOK
                      PROB30 TEMPO 2306/2307 8000 FEW010=
201007230200 TAF LMML 230200Z 2303/2312 33004KT CAVOK=
201007222300 TAF LMML 222300Z 2300/2309 VRB03KT CAVOK=
201007222000 TAF LMML NIL=
201007221700 TAF LMML 221700Z 2218/2303 20005KT CAVOK
                      TEMPO 2218/2303 9999 FEW012
                      PROB30 TEMPO 2221/2303 9000 SCT008=
201007221400 TAF LMML 221400Z 2215/2224 23007KT CAVOK
                      TEMPO 2215/2218 9999 FEW025=
201007221100 TAF LMML 221100Z 2212/2221 22006KT CAVOK
                      PROB30 TEMPO 2212/2218 9999 FEW020=
201007220800 TAF LMML 220800Z 2209/2218 VRB06KT CAVOK
                      TEMPO 2209/2218 9999 FEW020=
201007220500 TAF LMML 220500Z 2206/2215 VRB06KT CAVOK
                      PROB30 TEMPO 2206/2215 9999 FEW025=
201007220200 TAF LMML 220200Z 2203/2212 VRB05KT 9999 FEW018=
201007212300 TAF LMML 212300Z 2200/2209 VRB03KT 9999 FEW020
                      PROB30 TEMPO 2203/2205 5000 BKN010=
201007212000 TAF LMML 212000Z 2121/2206 VRB04KT 9999 FEW025
                      PROB30 TEMPO 2203/2206 5000 BKN010=
201007211700 TAF LMML 211700Z 2118/2203 VRB03KT 9999 FEW015
                      PROB30 TEMPO 2123/2203 9000 BKN008=
201007211400 TAF LMML 211400Z 2115/2124 VRB04KT 9999 FEW020
                      PROB30 TEMPO 2118/2124 BKN012=
201007211100 TAF LMML 211100Z 2112/2121 VRB06KT 9999 FEW020
                      PROB30 TEMPO 2118/2121 BKN015=
201007210800 TAF LMML 210800Z 2109/2118 VRB06KT 9999 FEW020=
201007210500 TAF LMML 210500Z 2106/2115 25005KT 9999 FEW020=
201007210200 TAF LMML 210200Z 2103/2112 25007KT 9999 FEW018
                      PROB30 TEMPO 2103/2106 9000=
201007202300 TAF LMML 202300Z 2100/2109 25005KT CAVOK FEW018
                      PROB30 TEMPO 2100/2106 9000 BKN010=
201007202000 TAF LMML 202000Z 2021/2106 25005KT 9999 FEW018
                      PROB30 TEMPO 2100/2106 9000 BKN010=
201007201700 TAF LMML 201700Z 2018/2103 23005KT 9999 SCT020
                      TEMPO 2018/2103 9000 BKN015
                      PROB30 TEMPO 2021/2103 7000 BKN010=
201007201400 TAF LMML 201400Z 2015/2024 21007KT 9000 SCT017
                      TEMPO 2015/2024 BKN013
                      PROB40 TEMPO 2018/2024 BKN010
                      PROB30 TEMPO 2021/2024 5000 BR BKN005=
201007201100 TAF LMML 201100Z 2012/2021 14006KT 9999 SCT020
                      TEMPO 2012/2021 9000 BKN015
                      PROB30 TEMPO 2018/2021 7000 BKN010=
201007200800 TAF LMML 200800Z 2009/2018 VRB06KT 9000 SCT020
                      BECMG 2009/2012 9999
                      PROB30 TEMPO 2009/2018 BKN015=
201007200500 TAF LMML 200500Z 2006/2015 VRB05KT 9999 FEW015=
201007200200 TAF LMML 200200Z 2003/2012 VRB05KT 9999 FEW012
                      PROB40 TEMPO 2003/2006 BKN009=
201007192300 TAF LMML 192300Z 2000/2009 VRB03KT 9999 FEW010
                      PROB40 TEMPO 2000/2006 BKN009=
201007192000 TAF LMML 192000Z 1921/2006 02005KT 9999 SCT011
                      TEMPO 1921/2006 BKN009
                      PROB30 TEMPO 1921/2001 SCT010TCU=
201007191700 TAF LMML 191700Z 1918/2003 02005KT 9999 FEW013
                      PROB30 TEMPO 1918/2003 CAVOK=
201007191400 TAF LMML 191400Z 1915/1924 05007KT 9999 FEW015
                      TEMPO 1915/1924 CAVOK=
201007191100 TAF LMML 191100Z 1912/1921 03007KT 9999 FEW018
                      TEMPO 1912/1921 CAVOK=
201007190800 TAF LMML 190800Z 1909/1918 03007KT CAVOK
                      PROB30 TEMPO 1909/1918 9999 FEW020=
201007190500 TAF LMML 190500Z 1906/1915 35005KT 8000 FEW008
                      BECMG 1906/1908 9999 FEW015=
201007190200 TAF LMML 190200Z 1903/1912 33005KT CAVOK
                      TEMPO 1903/1905 7000 FEW005
                      PROB30 TEMPO 1903/1905 5000 BKN005=
201007182300 TAF LMML 182300Z 1900/1909 33005KT CAVOK
                      PROB30 TEMPO 1900/1905 7000 FEW004=
201007182000 TAF LMML 182000Z 1821/1906 32004KT CAVOK
                      PROB30 TEMPO 1900/1906 8000 FEW003=
201007181700 TAF LMML 181700Z 1818/1903 31010KT CAVOK
                      TEMPO 1818/1903 9999 FEW010
                      BECMG 1900/1903 02005KT
                      PROB30 TEMPO 1900/1903 9000 SCT008=
201007181400 TAF LMML 181400Z 1815/1824 31010KT CAVOK
                      PROB30 TEMPO 1815/1818 9999 FEW020=
201007181100 TAF LMML 181100Z 1812/1821 31010KT CAVOK
                      TEMPO 1812/1818 9999 FEW020=
201007180800 TAF LMML 180800Z 1809/1818 34006KT 9999 FEW012
                      BECMG 1809/1812 28010KT CAVOK=
201007180500 TAF LMML 180500Z 1806/1815 30012KT 9999 FEW008
                      BECMG 1806/1809 CAVOK=
201007180200 TAF LMML 180200Z 1803/1812 VRB03KT CAVOK
                      PROB30 TEMPO 1803/1805 5000 BR=
201007172300 TAF LMML 172300Z 1800/1809 VRB03KT CAVOK
                      PROB30 TEMPO 1803/1805 5000 BR FEW008=
201007172000 TAF LMML 172000Z 1721/1806 VRB03KT CAVOK
                      PROB30 TEMPO 1803/1805 5000 BR FEW008=
201007171700 TAF LMML 171700Z 1718/1803 25004KT CAVOK=
201007171400 TAF LMML 171400Z 1715/1724 20005KT CAVOK=
201007171100 TAF LMML 171100Z 1712/1721 VRB05KT CAVOK=
201007170800 TAF LMML 170800Z 1709/1718 03005KT CAVOK=
201007170500 TAF LMML 170500Z 1706/1715 VRB06KT CAVOK=
201007170200 TAF LMML 170200Z 1703/1712 VRB03KT CAVOK
                      PROB30 TEMPO 1703/1705 9000 FEW010=
201007162300 TAF LMML 162300Z 1700/1709 VRB03KT CAVOK
                      PROB30 TEMPO 1703/1705 9000 FEW010=
201007162000 TAF LMML 162000Z 1621/1706 VRB03KT CAVOK
                      PROB30 TEMPO 1702/1705 9000 FEW010=
201007161700 TAF LMML 161700Z 1618/1703 VRB03KT CAVOK
                      PROB30 TEMPO 1700/1703 9000 FEW010=
201007161400 TAF LMML 161400Z 1615/1624 VRB05KT CAVOK=
201007161100 TAF LMML 161100Z 1612/1621 VRB05KT CAVOK=
201007160800 TAF LMML 160800Z 1609/1618 VRB05KT CAVOK=
201007160500 TAF LMML 160500Z 1606/1615 VRB06KT 9999 FEW015
                      TEMPO 1606/1615 CAVOK=
201007160200 TAF LMML 160200Z 1603/1612 VRB06KT CAVOK
                      TEMPO 1603/1612 9999 FEW012
                      PROB30 TEMPO 1603/1606 8000 SCT008=
201007152300 TAF LMML 152300Z 1600/1609 31004KT CAVOK
                      TEMPO 1600/1609 9999 FEW012
                      PROB30 TEMPO 1600/1606 8000 FEW008=
201007152000 TAF LMML 152000Z 1521/1606 30004KT CAVOK
                      PROB30 TEMPO 1600/1606 9000 FEW010=
201007151700 TAF LMML 151700Z 1518/1603 VRB05KT CAVOK=
201007151400 TAF LMML 151400Z 1515/1524 VRB05KT CAVOK=
201007151100 TAF LMML 151100Z 1512/1521 VRB05KT CAVOK=
201007150800 TAF LMML 150800Z 1509/1518 VRB05KT CAVOK=
201007150500 TAF LMML 150500Z 1506/1515 25005KT CAVOK=
201007150200 TAF LMML 150200Z 1503/1512 24004KT CAVOK=
201007142300 TAF LMML 142300Z 1500/1509 VRB03KT CAVOK=
201007142000 TAF LMML 142000Z 1421/1506 VRB03KT CAVOK=
201007141700 TAF LMML 141700Z 1418/1503 22006KT CAVOK=
201007141400 TAF LMML 141400Z 1415/1424 23008KT CAVOK=
201007141100 TAF LMML 141100Z 1412/1421 23008KT CAVOK=
201007140800 TAF LMML 140800Z 1409/1418 24006KT CAVOK=
201007140500 TAF LMML 140500Z 1406/1415 VRB06KT CAVOK=
201007140200 TAF LMML 140200Z 1403/1412 VRB05KT CAVOK
                      PROB30 TEMPO 1403/1406 9000 FEW005=
201007132300 TAF LMML 132300Z 1400/1409 VRB03KT CAVOK
                      PROB30 TEMPO 1402/1406 9000 FEW005=
201007132000 TAF LMML 132000Z 1321/1406 VRB03KT CAVOK
                      PROB30 TEMPO 1402/1406 9000 FEW005=
201007131700 TAF LMML 131700Z 1318/1403 25005KT CAVOK
                      PROB30 TEMPO 1401/1403 8000 FEW004=
201007131400 TAF LMML 131400Z 1315/1324 23005KT CAVOK=
201007131100 TAF LMML 131100Z 1312/1321 25007KT CAVOK=
201007130800 TAF LMML 130800Z 1309/1318 27006KT 9999 FEW022=
201007130500 TAF LMML 130500Z 1306/1315 26005KT CAVOK
                      PROB40 TEMPO 1306/1315 FEW018=
201007130200 TAF LMML 130200Z 1303/1312 VRB03KT CAVOK
                      PROB40 TEMPO 1303/1312 FEW012=
201007122300 TAF LMML 122300Z 1300/1309 VRB03KT CAVOK
                      PROB40 TEMPO 1300/1309 FEW010=
201007122000 TAF LMML 122000Z 1221/1306 VRB03KT CAVOK
                      PROB40 TEMPO 9000 FEW010=
201007121700 TAF LMML 121700Z 1218/1303 VRB03KT CAVOK
                      TEMPO 1221/1303 9999 FEW010
                      PROB30 TEMPO 1300/1303 8000 BKN008=
201007121400 TAF LMML 121400Z 1215/1224 26005KT CAVOK
                      TEMPO 1215/1224 9999 FEW015=
201007121100 TAF LMML 121100Z 1212/1221 26006KT 9999 FEW025
                      TEMPO 1215/1221 CAVOK=
201007120800 TAF LMML 120800Z 1209/1218 26007KT 9999 FEW020=
201007120500 TAF LMML 120500Z 1206/1215 26006KT 9999 FEW015
                      TEMPO 1206/1215 CAVOK=
201007120200 TAF LMML 120200Z 1203/1212 25005KT CAVOK
                      TEMPO 1203/1212 9999 FEW012
                      PROB30 TEMPO 1203/1206 5000 BR BKN005=
201007112300 TAF LMML 112300Z 1200/1209 27004KT CAVOK
                      TEMPO 1200/1209 9999 FEW012
                      PROB30 TEMPO 1200/1206 9000 SCT008=
201007112000 TAF LMML 112000Z 1121/1206 26004KT 9999 FEW015
                      TEMPO 1121/1206 CAVOK
                      PROB30 TEMPO 1200/1206 9000 SCT008=
201007111700 TAF LMML 111700Z 1118/1103 26004KT 9999 FEW012
                      PROB30 TEMPO 1200/1203 8000 BKN008=
201007111400 TAF LMML 111400Z 1115/1124 26005KT 9999 FEW015=
201007111100 TAF LMML 111100Z 1112/1121 26006KT 9999 FEW018=
201007110800 TAF LMML 110800Z 1109/1118 27005KT 9999 SCT018=
201007110500 TAF LMML 110500Z 1106/1115 27005KT 9999 FEW015=
201007110200 TAF LMML 110200Z 1103/1112 25004KT 9999 SCT011
                      TEMPO 1103/1106 5000 BR
                      PROB30 TEMPO 1103/1105 1500 MIFG=
201007102300 TAF LMML 102300Z 1100/1109 VRB03KT 9999 FEW011
                      TEMPO 1100/1105 5000 BR
                      PROB30 TEMPO 1102/1105 0500 BCFG BKN003=
201007102000 TAF LMML 102000Z 1021/1106 27004KT 9999 FEW015
                      PROB30 TEMPO 1100/1106 6000 BKN006=
201007101700 TAF LMML 101700Z 1018/1103 25007KT 9999 FEW020
                      BECMG 1018/1020 CAVOK
                      TEMPO 1020/1103 9999 FEW012
                      PROB30 TEMPO 1100/1103 9000 SCT008=
201007101400 TAF LMML 101400Z 1015/1024 24008KT 9999 SCT020
                      BECMG 1015/1018 CAVOK
                      PROB30 TEMPO 1018/1024 9999 FEW015=
201007101100 TAF LMML 101100Z 1012/1021 26008KT 9999 SCT020
                      PROB30 TEMPO 1015/1021 CAVOK=
201007100800 TAF LMML 100800Z 1009/1018 25006KT 9999 SCT025
                      PROB30 TEMPO 1015/1018 CAVOK=
201007100500 TAF LMML 100500Z 1006/1015 27006KT 9999 FEW015
                      PROB40 TEMPO 1006/1015 CAVOK=
201007100200 TAF LMML 100200Z 1003/1012 27006KT CAVOK
                      TEMPO 1003/1012 9999 SCT015
                      PROB30 TEMPO 1003/1007 9000 BKN008=
201007092300 TAF LMML 092300Z 1000/1009 27005KT CAVOK
                      TEMPO 1000/1009 9999 FEW011
                      PROB30 TEMPO 1000/1007 9000 BKN008=
201007092000 TAF LMML 092000Z 0921/1006 VRB03KT CAVOK
                      PROB40 TEMPO 0923/1006 9999 FEW011
                      PROB30 TEMPO 1000/1006 9000 BKN005=
201007091700 TAF LMML 091700Z 0918/1003 25005KT CAVOK
                      PROB30 TEMPO 1000/1003 9000 SCT003=
201007091400 TAF LMML 091400Z 0915/0924 14005KT 9999 FEW025=
201007091100 TAF LMML 091100Z 0912/0921 18005KT 9999 FEW025=
201007090800 TAF LMML 090800Z 0909/0918 14005KT 9999 FEW020=
201007090500 TAF LMML 090500Z 0906/0915 11006KT 9999 FEW025
                      TEMPO 0906/0915 CAVOK=
201007090200 TAF LMML 090200Z 0903/0912 09006KT 9999 FEW015
                      PROB40 TEMPO 0903/0906 9000 BKN013
                      PROB30 TEMPO 0903/0906 BKN007=
201007082300 TAF LMML 082300Z 0900/0909 09006KT 9999 FEW015
                      PROB40 TEMPO 0900/0906 9000 BKN013
                      PROB30 TEMPO 0900/0906 BKN007=
201007082000 TAF LMML 082000Z 0821/0906 09006KT 9999 FEW012
                      PROB40 TEMPO 0821/0906 9000 BKN012
                      PROB30 TEMPO 0900/0906 BKN005=
201007081700 TAF LMML 081700Z 0818/0903 09005KT 9999 FEW011
                      PROB40 TEMPO 0823/0903 9000
                      PROB30 TEMPO 0900/0903 BKN005=
201007081400 TAF LMML 081400Z 0815/0824 08005KT 9999 FEW011
                      TEMPO 0815/0824 CAVOK=
201007081100 TAF LMML 081100Z 0812/0821 06005KT CAVOK
                      PROB40 TEMPO 0812/0821 9999 FEW015=
201007080800 TAF LMML 080800Z 0809/0818 VRB05KT 9999 FEW015
                      PROB40 TEMPO 0811/0818 CAVOK=
201007080500 TAF LMML 080500Z 0806/0815 VRB05KT 8000 FEW010
                      BECMG 0806/0807 9999
                      TEMPO 0807/0815 CAVOK=
201007080200 TAF LMML 080200Z 0803/0812 30005KT CAVOK
                      TEMPO 0803/0806 8000 FEW008
                      PROB30 TEMPO 0803/0806 3000 BR BKN003
                      TEMPO 0806/0812 9999 FEW015=
201007072300 TAF LMML 072300Z 0800/0809 VRB04KT CAVOK
                      TEMPO 0800/0809 9999 FEW010
                      PROB30 TEMPO 0800/0806 5000 BR SCT007=
201007072000 TAF LMML 072000Z 0721/0806 30004KT CAVOK
                      TEMPO 0721/0806 9000 FEW010
                      PROB30 TEMPO 0800/0806 5000 BR SCT008=
201007071700 TAF LMML 071700Z 0718/0803 31005KT CAVOK
                      TEMPO 0723/0803 9000 FEW010
                      PROB30 TEMPO 0801/0803 BKN003=
201007071400 TAF LMML 071400Z 0715/0724 VRB05KT CAVOK
                      PROB30 TEMPO 0715/0718 9999 FEW015=
201007071100 TAF LMML 071100Z 0712/0721 VRB05KT CAVOK
                      PROB30 TEMPO 0712/0718 9999 FEW015=
201007070800 TAF LMML 070800Z 0709/0718 VRB05KT CAVOK
                      PROB30 TEMPO 0709/0718 9999 FEW015=
201007070500 TAF LMML 070500Z 0706/0715 33005KT 8000 FEW008
                      BECMG 0706/0708 CAVOK=
201007070200 TAF LMML 070200Z 0703/0712 32005KT CAVOK
                      TEMPO 0703/0706 8000 SCT003
                      PROB30 TEMPO 0703/0705 3000 BR BKN003=
201007062300 TAF LMML 062300Z 0700/0709 31004KT CAVOK
                      TEMPO 0700/0706 7000 FEW003
                      PROB30 TEMPO 0702/0705 3000 BR BKN003=
201007062000 TAF LMML 062000Z 0621/0706 31007KT CAVOK
                      TEMPO 0621/0706 7000 SCT003
                      PROB30 TEMPO 0701/0705 3000 BR BKN003=
201007061700 TAF LMML 061700Z 0618/0703 30008KT 9999 FEW012
                      BECMG 0618/0621 CAVOK
                      PROB30 TEMPO 0621/0703 9000 SCT008=
201007061400 TAF LMML 061400Z 0615/0624 30011KT 9999 FEW020
                      TEMPO 0615/0624 CAVOK=
201007061100 TAF LMML 061100Z 0612/0621 30011KT CAVOK
                      TEMPO 0612/0617 9999 FEW020=
201007060800 TAF LMML 060800Z 0609/0618 30011KT 9999 FEW015
                      TEMPO 0609/0618 CAVOK=
201007060500 TAF LMML 060500Z 0606/0615 31010KT CAVOK
                      PROB40 TEMPO 0606/0615 9999 FEW012=
201007060200 TAF LMML 060200Z 0603/0612 VRB03KT CAVOK
                      TEMPO 0603/0612 9999 FEW012
                      BECMG 0606/0609 30010KT=
201007052300 TAF LMML 052300Z 0600/0609 VRB05KT CAVOK
                      PROB30 TEMPO 0600/0606 9000 FEW003
                      BECMG 0606/0609 30010KT 9999 FEW012=
201007052000 TAF LMML 052000Z 0521/0606 VRB05KT CAVOK
                      PROB30 TEMPO 0600/0606 9000 FEW003=
201007051700 TAF LMML 051700Z 0518/0603 26005KT CAVOK
                      PROB30 TEMPO 0600/0603 8000 FEW004=
201007051400 TAF LMML 051400Z 0515/0524 27005KT 9999 FEW011=
201007051100 TAF LMML 051100Z 0512/0521 24008KT CAVOK=
201007050800 TAF LMML 050800Z 0509/0518 VRB05KT CAVOK=
201007050500 TAF LMML 050500Z 0506/0515 28005KT CAVOK
                      PROB30 TEMPO 0506/0508 9999 FEW008=
201007050200 TAF LMML 050200Z 0503/0512 VRB03KT CAVOK
                      PROB30 TEMPO 0503/0507 9999 FEW008=
201007042300 TAF LMML 042300Z 0500/0509 VRB05KT CAVOK=
201007042000 TAF LMML 042000Z 0421/0506 30005KT CAVOK
                      PROB30 TEMPO 0423/0506 9000 FEW010=
201007041700 TAF LMML 041700Z 0418/0503 VRB03KT CAVOK
                      PROB30 TEMPO 0500/0503 5000 BR SCT003=
201007041400 TAF LMML 041400Z 0415/0424 VRB04KT CAVOK
                      PROB30 TEMPO 0415/0424 9999 FEW020=
201007041100 TAF LMML 041100Z 0412/0421 VRB05KT CAVOK=
201007040800 TAF LMML 040800Z 0409/0418 VRB05KT 9999 FEW020
                      TEMPO 0409/0418 CAVOK=
201007040500 TAF LMML 040500Z 0406/0415 VRB06KT CAVOK
                      PROB30 TEMPO 0406/0415 9999 FEW020=
201007040200 TAF LMML 040200Z 0403/0412 29005KT CAVOK
                      TEMPO 0403/0412 9999 FEW015
                      PROB30 TEMPO 0403/0406 9000 NSC=
201007032300 TAF LMML 032300Z 0400/0409 27005KT CAVOK
                      TEMPO 0400/0409 9999 FEW012
                      PROB30 TEMPO 0400/0406 9000 NSC=
201007032000 TAF LMML 032000Z 0321/0406 27005KT CAVOK
                      TEMPO 0321/0406 9999 FEW012
                      PROB30 TEMPO 0321/0406 9000 NSC=
201007031700 TAF LMML 031700Z 0318/0403 VRB03KT CAVOK=
201007031400 TAF LMML 031400Z 0315/0324 VRB05KT CAVOK
                      PROB30 TEMPO 0315/0319 FEW030=
201007031100 TAF LMML 031100Z 0312/0321 VRB05KT CAVOK=
201007030800 TAF LMML 030800Z 0309/0318 VRB05KT CAVOK
                      PROB30 TEMPO 0309/0318 9999 FEW030=
201007030500 TAF LMML 030500Z 0306/0315 VRB05KT CAVOK=
201007030200 TAF LMML 030200Z 0303/0312 26004KT 7000 SCT003
                      PROB30 TEMPO 0303/0305 3000 BR BKN003
                      BECMG 0306/0308 CAVOK=
201007022300 TAF LMML 022300Z 0300/0309 VRB03KT CAVOK
                      TEMPO 0300/0306 7000 SCT003
                      PROB30 TEMPO 0300/0305 3000 BR BKN003=
201007022000 TAF LMML 022000Z 0221/0306 30004KT CAVOK
                      TEMPO 0221/0306 8000 SCT003
                      PROB30 TEMPO 0300/0305 4000 BR BKN003=
201007021700 TAF LMML 021700Z 0218/0303 28005KT 9999 FEW015
                      TEMPO 0218/0303 9000
                      PROB40 TEMPO 0221/0303 5000 BR BKN005
                      PROB30 TEMPO 0300/0303 2000 BR BKN002=
201007021400 TAF LMML 021400Z 0215/0224 24007KT 9999 FEW015
                      TEMPO 0215/0224 9000
                      PROB30 TEMPO 0218/0224 5000 BR BKN005=
201007021100 TAF LMML 021100Z 0212/0221 24008KT CAVOK
                      TEMPO 0212/0221 9999 FEW015
                      PROB30 TEMPO 0212/0221 9000 NSC=
201007020800 TAF LMML 020800Z 0209/0218 24008KT 9999 FEW015
                      TEMPO 0209/0218 CAVOK=
201007020500 TAF LMML 020500Z 0206/0215 VRB05KT CAVOK
                      PROB40 TEMPO 0206/0209 8000 SCT008=
201007020200 TAF LMML 020200Z 0203/0212 10005KT CAVOK
                      TEMPO 0203/0207 5000 BR SCT004
                      PROB30 TEMPO 0203/0205 1000 BCFG BKN002=
201007012300 TAF LMML 012300Z 0200/0209 VRB04KT CAVOK
                      TEMPO 0200/0207 9000 SCT004
                      PROB30 TEMPO 0202/0205 1000 BCFG BKN002=
201007012000 TAF LMML 012000Z 0121/0206 VRB03KT CAVOK
                      TEMPO 0121/0206 7000 SCT004
                      PROB30 TEMPO 0121/0206 1000 BCFG BKN002=
201007011700 TAF LMML 011700Z 0118/0203 28004KT CAVOK
                      TEMPO 0121/0203 8000 SCT004
                      PROB30 TEMPO 0200/0203 5000 BKN002=
201007011400 TAF LMML 011400Z 0115/0124 VRB05KT 9999 FEW025
                      BECMG 0117/0120 CAVOK
                      TEMPO 0120/0124 8000 SCT005=
201007011100 TAF LMML 011100Z 0112/0121 VRB05KT 9999 FEW020=
201007010800 TAF LMML 010800Z 0109/0118 VRB05KT CAVOK
                      TEMPO 0109/0118 9999 FEW011=
201007010500 TAF LMML 010500Z 0106/0115 27005KT CAVOK
                      PROB40 TEMPO 0106/0115 9999 FEW015=
201007010200 TAF LMML 010200Z 0103/0112 30007KT 9999 SCT003
                      TEMPO 0103/0106 9000 BKN003
                      PROB30 TEMPO 0103/0105 1000 BCFG=

###################################
#  large TAF from LMML
###################################
201007312300 TAF LMML NIL=
201007311700 TAF LMML NIL=
201007311100 TAF LMML NIL=
201007310500 TAF LMML NIL=
201007302300 TAF LMML NIL=
201007301700 TAF LMML NIL=
201007301100 TAF LMML NIL=
201007300500 TAF LMML NIL=
201007292300 TAF LMML NIL=
201007291700 TAF LMML NIL=
201007291100 TAF LMML NIL=
201007290500 TAF LMML NIL=
201007282300 TAF LMML NIL=
201007281700 TAF LMML NIL=
201007281100 TAF LMML NIL=
201007280500 TAF LMML NIL=
201007272300 TAF LMML NIL=
201007271700 TAF LMML NIL=
201007271100 TAF LMML NIL=
201007270500 TAF LMML NIL=
201007262300 TAF LMML NIL=
201007261700 TAF LMML NIL=
201007261100 TAF LMML NIL=
201007260500 TAF LMML NIL=
201007252300 TAF LMML NIL=
201007251700 TAF LMML NIL=
201007251100 TAF LMML NIL=
201007250500 TAF LMML NIL=
201007242300 TAF LMML NIL=
201007241700 TAF LMML NIL=
201007241100 TAF LMML NIL=
201007240500 TAF LMML NIL=
201007232300 TAF LMML NIL=
201007231700 TAF LMML NIL=
201007231100 TAF LMML NIL=
201007230500 TAF LMML NIL=
201007222300 TAF LMML NIL=
201007221700 TAF LMML NIL=
201007221100 TAF LMML NIL=
201007220500 TAF LMML NIL=
201007212300 TAF LMML NIL=
201007211700 TAF LMML NIL=
201007211100 TAF LMML NIL=
201007210500 TAF LMML NIL=
201007202300 TAF LMML NIL=
201007201700 TAF LMML NIL=
201007201100 TAF LMML NIL=
201007200500 TAF LMML NIL=
201007191700 TAF LMML NIL=
201007191100 TAF LMML NIL=
201007190500 TAF LMML NIL=
201007182300 TAF LMML NIL=
201007181700 TAF LMML NIL=
201007181100 TAF LMML NIL=
201007180500 TAF LMML NIL=
201007172300 TAF LMML NIL=
201007171700 TAF LMML NIL=
201007171100 TAF LMML NIL=
201007170500 TAF LMML NIL=
201007162300 TAF LMML NIL=
201007161700 TAF LMML NIL=
201007161100 TAF LMML NIL=
201007160500 TAF LMML NIL=
201007152300 TAF LMML NIL=
201007151700 TAF LMML NIL=
201007151100 TAF LMML NIL=
201007150500 TAF LMML NIL=
201007142300 TAF LMML NIL=
201007141700 TAF LMML NIL=
201007141100 TAF LMML NIL=
201007140500 TAF LMML NIL=
201007132300 TAF LMML NIL=
201007131700 TAF LMML NIL=
201007131100 TAF LMML NIL=
201007130500 TAF LMML NIL=
201007122300 TAF LMML NIL=
201007121700 TAF LMML NIL=
201007121100 TAF LMML NIL=
201007120500 TAF LMML NIL=
201007112300 TAF LMML NIL=
201007111700 TAF LMML NIL=
201007111100 TAF LMML NIL=
201007110500 TAF LMML NIL=
201007102300 TAF LMML NIL=
201007101700 TAF LMML NIL=
201007101100 TAF LMML NIL=
201007100500 TAF LMML NIL=
201007092300 TAF LMML NIL=
201007091700 TAF LMML NIL=
201007091100 TAF LMML NIL=
201007090500 TAF LMML NIL=
201007082300 TAF LMML NIL=
201007081700 TAF LMML NIL=
201007081100 TAF LMML NIL=
201007080500 TAF LMML NIL=
201007072300 TAF LMML NIL=
201007071700 TAF LMML NIL=
201007071100 TAF LMML NIL=
201007070500 TAF LMML NIL=
201007062300 TAF LMML NIL=
201007061700 TAF LMML NIL=
201007061100 TAF LMML NIL=
201007060500 TAF LMML NIL=
201007052300 TAF LMML NIL=
201007051700 TAF LMML NIL=
201007051100 TAF LMML NIL=
201007050500 TAF LMML NIL=
201007042300 TAF LMML NIL=
201007041700 TAF LMML NIL=
201007041100 TAF LMML NIL=
201007040500 TAF LMML NIL=
201007032300 TAF LMML NIL=
201007031700 TAF LMML NIL=
201007031100 TAF LMML NIL=
201007030500 TAF LMML NIL=
201007022300 TAF LMML NIL=
201007021700 TAF LMML NIL=
201007021100 TAF LMML NIL=
201007020500 TAF LMML NIL=
201007012300 TAF LMML NIL=
201007011700 TAF LMML NIL=
201007011100 TAF LMML NIL=
201007010500 TAF LMML NIL=
