##########################################################
# Query made at 01/18/2013 16:09:48 UTC
# Time interval: from 07/01/2009 00:00  to 07/31/2009 23:59  UTC
##########################################################

##########################################################
# LMML, Luqa (Malta)
# WMO index: 16597
# Latitude 35-51N. Longitude 014-29E. Altitude 91 m.
##########################################################

###################################
#  METAR/SPECI from LMML
###################################
200907312345 METAR LMML 312345Z VRB02KT CAVOK 24/19 Q1016 TEMPO 7000 SCT004=
200907312330 METAR LMML NIL=
200907312315 METAR LMML 312315Z VRB03KT CAVOK 24/21 Q1016 TEMPO 7000 SCT004=
200907312300 METAR LMML NIL=
200907312245 METAR LMML 312245Z VRB03KT CAVOK 24/21 Q1016 TEMPO 7000 SCT004=
200907312230 METAR LMML NIL=
200907312215 METAR LMML 312215Z 31004KT CAVOK 25/22 Q1016 TEMPO 7000 SCT004=
200907312200 METAR LMML NIL=
200907312145 METAR LMML 312145Z 31004KT CAVOK 25/22 Q1017 TEMPO 7000 SCT004=
200907312130 METAR LMML NIL=
200907312115 METAR LMML 312115Z 34004KT 300V060 CAVOK 25/23 Q1017 TEMPO
                        7000 SCT004=
200907312100 METAR LMML NIL=
200907312045 METAR LMML 312045Z 33004KT CAVOK 25/23 Q1017 NOSIG=
200907312030 METAR LMML NIL=
200907312015 METAR LMML 312015Z 33004KT CAVOK 25/23 Q1017 NOSIG=
200907312000 METAR LMML NIL=
200907311945 METAR LMML 311945Z 34006KT 300V010 CAVOK 26/22 Q1016 NOSIG=
200907311930 METAR LMML NIL=
200907311915 METAR LMML 311915Z 31005KT CAVOK 26/20 Q1016 NOSIG=
200907311900 METAR LMML NIL=
200907311845 METAR LMML 311845Z 31006KT CAVOK 27/20 Q1016 NOSIG=
200907311830 METAR LMML NIL=
200907311815 METAR LMML 311815Z 31006KT CAVOK 27/20 Q1016 NOSIG=
200907311800 METAR LMML NIL=
200907311745 METAR LMML 311745Z 33006KT 290V020 CAVOK 28/20 Q1016 NOSIG=
200907311730 METAR LMML NIL=
200907311715 METAR LMML 311715Z 01005KT 340V040 CAVOK 30/21 Q1016 NOSIG=
200907311700 METAR LMML NIL=
200907311645 METAR LMML 311645Z 02004KT 330V150 CAVOK 31/20 Q1016 NOSIG=
200907311630 METAR LMML NIL=
200907311600 METAR LMML NIL=
200907311545 METAR LMML 311545Z 22004KT 170V290 CAVOK 30/20 Q1015 NOSIG=
200907311530 METAR LMML NIL=
200907311515 METAR LMML 311515Z 19006KT 150V240 CAVOK 30/20 Q1016 NOSIG=
200907311500 METAR LMML NIL=
200907311445 METAR LMML 311445Z 20005KT 170V250 CAVOK 31/20 Q1015 NOSIG=
200907311430 METAR LMML NIL=
200907311415 METAR LMML 311415Z 20004KT 130V290 9999 FEW025 31/19 Q1016
                        NOSIG=
200907311400 METAR LMML NIL=
200907311345 METAR LMML 311345Z 21005KT 170V300 9999 FEW025 31/19 Q1016
                        NOSIG=
200907311330 METAR LMML NIL=
200907311315 METAR LMML 311315Z 20004KT 130V300 9999 FEW025 32/19 Q1016
                        NOSIG=
200907311300 METAR LMML NIL=
200907311245 METAR LMML 311245Z 20005KT 120V260 CAVOK 31/19 Q1016 NOSIG=
200907311230 METAR LMML NIL=
200907311215 METAR LMML 311215Z VRB03KT CAVOK 33/16 Q1016 NOSIG=
200907311200 METAR LMML NIL=
200907311145 METAR LMML 311145Z 07005KT 010V160 CAVOK 33/16 Q1016 NOSIG=
200907311130 METAR LMML NIL=
200907311115 METAR LMML 311115Z 10004KT 360V160 CAVOK 32/15 Q1016 NOSIG=
200907311100 METAR LMML NIL=
200907311045 METAR LMML 311045Z 10006KT 040V160 CAVOK 31/15 Q1017 NOSIG=
200907311030 METAR LMML NIL=
200907311015 METAR LMML 311015Z 08007KT 020V120 CAVOK 31/16 Q1017 NOSIG=
200907311000 METAR LMML NIL=
200907310945 METAR LMML 310945Z 08007KT 040V120 CAVOK 31/15 Q1017 NOSIG=
200907310930 METAR LMML NIL=
200907310915 METAR LMML 310915Z 05006KT 020V110 CAVOK 32/17 Q1017 NOSIG=
200907310900 METAR LMML NIL=
200907310845 METAR LMML 310845Z 02005KT 350V080 CAVOK 31/20 Q1017 NOSIG=
200907310830 METAR LMML NIL=
200907310815 METAR LMML 310815Z 08006KT 040V200 CAVOK 31/15 Q1016 NOSIG=
200907310800 METAR LMML NIL=
200907310745 METAR LMML 310745Z VRB03KT CAVOK 29/20 Q1016 NOSIG=
200907310730 METAR LMML NIL=
200907310715 METAR LMML 310715Z VRB02KT CAVOK 29/17 Q1016 NOSIG=
200907310700 METAR LMML NIL=
200907310645 METAR LMML 310645Z VRB01KT 9999 FEW012 28/18 Q1016 NOSIG=
200907310630 METAR LMML NIL=
200907310615 METAR LMML 310615Z VRB01KT 7000 FEW012 25/21 Q1016 BECMG
                        9999=
200907310600 METAR LMML NIL=
200907310545 METAR LMML 310545Z VRB02KT 7000 FEW012 24/22 Q1016 BECMG
                        9999=
200907310530 METAR LMML NIL=
200907310515 METAR LMML 310515Z VRB02KT 7000 FEW012 22/21 Q1016 BECMG
                        9999=
200907310500 METAR LMML NIL=
200907310445 METAR LMML 310445Z VRB01KT 7000 FEW012 21/20 Q1016 BECMG
                        9999=
200907310430 METAR LMML NIL=
200907310415 METAR LMML 310415Z VRB02KT 7000 FEW012 21/20 Q1015 NOSIG=
200907310400 METAR LMML NIL=
200907310345 METAR LMML 310345Z VRB02KT 9999 FEW015 21/20 Q1015 NOSIG=
200907310330 METAR LMML NIL=
200907310315 METAR LMML 310315Z VRB01KT 9000 NSC 22/21 Q1015 NOSIG=
200907310300 METAR LMML NIL=
200907310245 METAR LMML 310245Z VRB01KT 9000 NSC 22/21 Q1015 NOSIG=
200907310230 METAR LMML NIL=
200907310215 METAR LMML 310215Z VRB02KT 9000 NSC 23/22 Q1015 NOSIG=
200907310200 METAR LMML NIL=
200907310145 METAR LMML 310145Z VRB02KT CAVOK 23/22 Q1015 NOSIG=
200907310130 METAR LMML NIL=
200907310115 METAR LMML 310115Z VRB03KT CAVOK 23/20 Q1015 NOSIG=
200907310100 METAR LMML NIL=
200907310045 METAR LMML 310045Z VRB02KT CAVOK 23/19 Q1015 NOSIG=
200907310030 METAR LMML NIL=
200907310015 METAR LMML 310015Z VRB02KT CAVOK 23/19 Q1015 NOSIG=
200907310000 METAR LMML NIL=
200907302345 METAR LMML 302345Z VRB02KT CAVOK 23/20 Q1016 NOSIG=
200907302330 METAR LMML NIL=
200907302315 METAR LMML 302315Z VRB02KT CAVOK 24/20 Q1016 NOSIG=
200907302300 METAR LMML NIL=
200907302245 METAR LMML 302245Z VRB02KT CAVOK 24/21 Q1016 NOSIG=
200907302230 METAR LMML NIL=
200907302215 METAR LMML 302215Z VRB03KT CAVOK 24/21 Q1016 NOSIG=
200907302200 METAR LMML NIL=
200907302145 METAR LMML 302145Z VRB01KT CAVOK 24/21 Q1016 NOSIG=
200907302130 METAR LMML NIL=
200907302115 METAR LMML 302115Z VRB02KT CAVOK 24/21 Q1016 NOSIG=
200907302100 METAR LMML NIL=
200907302045 METAR LMML 302045Z VRB03KT CAVOK 24/21 Q1016 NOSIG=
200907302030 METAR LMML NIL=
200907302015 METAR LMML 302015Z VRB02KT 9999 FEW018 25/21 Q1016 NOSIG=
200907302000 METAR LMML NIL=
200907301945 METAR LMML 301945Z VRB03KT 9999 FEW018 25/21 Q1016 NOSIG=
200907301930 METAR LMML NIL=
200907301915 METAR LMML 301915Z VRB03KT 9999 FEW018 25/21 Q1016 NOSIG=
200907301900 METAR LMML NIL=
200907301845 METAR LMML 301845Z 31006KT 9999 FEW018 25/21 Q1016 NOSIG=
200907301830 METAR LMML NIL=
200907301815 METAR LMML 301815Z 32007KT 9999 FEW018 26/21 Q1016 NOSIG=
200907301800 METAR LMML NIL=
200907301745 METAR LMML 301745Z VRB03KT 9999 FEW018 27/20 Q1016 NOSIG=
200907301730 METAR LMML NIL=
200907301715 METAR LMML 301715Z VRB03KT 9999 FEW018 28/20 Q1016 NOSIG=
200907301700 METAR LMML NIL=
200907301645 METAR LMML 301645Z 23004KT 190V280 9999 FEW018 28/20 Q1015
                        NOSIG=
200907301630 METAR LMML NIL=
200907301615 METAR LMML 301615Z 22005KT 190V280 9999 FEW018 28/21 Q1015
                        NOSIG=
200907301600 METAR LMML NIL=
200907301545 METAR LMML 301545Z 23006KT 190V280 9999 FEW018 28/21 Q1015
                        NOSIG=
200907301530 METAR LMML NIL=
200907301515 METAR LMML 301515Z 23007KT 200V270 9999 FEW018 28/21 Q1016
                        NOSIG=
200907301500 METAR LMML NIL=
200907301445 METAR LMML 301445Z 21006KT 170V280 9999 FEW018 29/19 Q1016
                        NOSIG=
200907301430 METAR LMML NIL=
200907301415 METAR LMML 301415Z 20006KT 150V250 9999 FEW018 30/16 Q1016
                        NOSIG=
200907301400 METAR LMML NIL=
200907301345 METAR LMML 301345Z 21006KT 140V270 CAVOK 30/14 Q1016 NOSIG=
200907301330 METAR LMML NIL=
200907301315 METAR LMML 301315Z 19005KT 130V270 CAVOK 31/16 Q1016 NOSIG=
200907301300 METAR LMML NIL=
200907301245 METAR LMML 301245Z 18005KT 120V240 9999 FEW025 32/12 Q1016
                        NOSIG=
200907301230 METAR LMML NIL=
200907301215 METAR LMML 301215Z 16005KT 070V290 9999 FEW025 31/13 Q1016
                        NOSIG=
200907301200 METAR LMML NIL=
200907301145 METAR LMML 301145Z 12006KT 040V180 9999 FEW025 32/13 Q1016
                        NOSIG=
200907301130 METAR LMML NIL=
200907301115 METAR LMML 301115Z 14007KT 090V170 CAVOK 31/13 Q1016 NOSIG=
200907301100 METAR LMML NIL=
200907301045 METAR LMML 301045Z 11006KT 040V150 CAVOK 31/15 Q1016 NOSIG=
200907301030 METAR LMML NIL=
200907301015 METAR LMML 301015Z 06005KT 340V150 CAVOK 32/16 Q1016 NOSIG=
200907301000 METAR LMML NIL=
200907300945 METAR LMML 300945Z 06004KT 340V170 CAVOK 31/18 Q1016 NOSIG=
200907300930 METAR LMML NIL=
200907300915 METAR LMML 300915Z VRB03KT CAVOK 29/19 Q1016 NOSIG=
200907300900 METAR LMML NIL=
200907300845 METAR LMML 300845Z VRB02KT CAVOK 29/20 Q1016 NOSIG=
200907300830 METAR LMML NIL=
200907300815 METAR LMML 300815Z 03005KT 360V070 CAVOK 28/21 Q1016 NOSIG=
200907300800 METAR LMML NIL=
200907300745 METAR LMML 300745Z VRB03KT 9999 FEW015 28/21 Q1016 NOSIG=
200907300730 METAR LMML NIL=
200907300715 METAR LMML 300715Z VRB03KT 9999 FEW015 27/21 Q1016 NOSIG=
200907300700 METAR LMML NIL=
200907300645 METAR LMML 300645Z VRB03KT 9999 FEW012 25/21 Q1016 NOSIG=
200907300630 METAR LMML NIL=
200907300615 METAR LMML 300615Z 34005KT 300V360 9999 FEW012 24/22 Q1016
                        NOSIG=
200907300600 METAR LMML NIL=
200907300545 METAR LMML 300545Z 31004KT 9000 FEW008 23/22 Q1016 NOSIG=
200907300530 METAR LMML NIL=
200907300515 METAR LMML 300515Z VRB03KT 8000 FEW008 23/22 Q1015 NOSIG=
200907300500 METAR LMML NIL=
200907300445 METAR LMML 300445Z VRB02KT 8000 FEW008 22/22 Q1015 NOSIG=
200907300430 METAR LMML NIL=
200907300415 METAR LMML 300415Z VRB03KT 8000 FEW008 22/21 Q1015 BECMG
                        7000=
200907300400 METAR LMML NIL=
200907300345 METAR LMML 300345Z VRB02KT 9999 FEW008 22/21 Q1015 BECMG
                        8000=
200907300330 METAR LMML NIL=
200907300315 METAR LMML 300315Z VRB03KT 9999 FEW008 22/21 Q1015 NOSIG=
200907300300 METAR LMML NIL=
200907300245 METAR LMML 300245Z VRB02KT 9999 FEW008 22/21 Q1015 NOSIG=
200907300230 METAR LMML NIL=
200907300215 METAR LMML 300215Z VRB02KT 9999 FEW008 22/21 Q1015 NOSIG=
200907300200 METAR LMML NIL=
200907300145 METAR LMML 300145Z VRB03KT 9999 FEW008 22/21 Q1015 NOSIG=
200907300130 METAR LMML NIL=
200907300115 METAR LMML 300115Z VRB02KT 9999 FEW008 22/21 Q1015 NOSIG=
200907300100 METAR LMML NIL=
200907300045 METAR LMML 300045Z VRB03KT 9999 FEW008 22/21 Q1015 NOSIG=
200907300030 METAR LMML NIL=
200907300015 METAR LMML 300015Z VRB02KT 9999 FEW008 23/21 Q1015 NOSIG=
200907300000 METAR LMML NIL=
200907292345 METAR LMML 292345Z VRB01KT 9999 FEW008 23/21 Q1015 NOSIG=
200907292330 METAR LMML NIL=
200907292315 METAR LMML 292315Z VRB02KT 9999 FEW008 23/21 Q1016 NOSIG=
200907292245 METAR LMML 292245Z VRB02KT 9999 FEW008 23/21 Q1016 NOSIG=
200907292230 METAR LMML NIL=
200907292215 METAR LMML 292215Z VRB02KT 9999 FEW008 24/22 Q1016 NOSIG=
200907292200 METAR LMML NIL=
200907292145 METAR LMML 292145Z VRB02KT 9999 SCT009 24/22 Q1016 NOSIG=
200907292130 METAR LMML NIL=
200907292115 METAR LMML 292115Z VRB02KT 9999 SCT009 24/22 Q1016 NOSIG=
200907292045 METAR LMML 292045Z VRB02KT 9999 SCT010 24/22 Q1016 TEMPO
                        BKN008=
200907292030 METAR LMML NIL=
200907292015 METAR LMML 292015Z VRB03KT 9999 SCT009 24/23 Q1016 TEMPO
                        BKN008=
200907291945 METAR LMML 291945Z VRB03KT 9999 SCT011 25/23 Q1016 TEMPO
                        BKN008=
200907291930 METAR LMML NIL=
200907291915 METAR LMML 291915Z 13004KT 9999 FEW012 25/22 Q1016 NOSIG=
200907291900 METAR LMML NIL=
200907291845 METAR LMML 291845Z 13005KT 9999 FEW015 26/22 Q1015 NOSIG=
200907291830 METAR LMML NIL=
200907291815 METAR LMML 291815Z VRB02KT CAVOK 27/21 Q1015 NOSIG=
200907291800 METAR LMML NIL=
200907291745 METAR LMML 291745Z VRB03KT CAVOK 28/21 Q1015 NOSIG=
200907291730 METAR LMML NIL=
200907291715 METAR LMML 291715Z VRB03KT 9999 FEW012 29/21 Q1015 NOSIG=
200907291700 METAR LMML NIL=
200907291645 METAR LMML 291645Z 32005KT 290V010 9999 FEW012 29/21 Q1015
                        NOSIG=
200907291630 METAR LMML NIL=
200907291615 METAR LMML 291615Z 33005KT 300V360 9999 FEW012 29/20 Q1015
                        NOSIG=
200907291600 METAR LMML NIL=
200907291545 METAR LMML 291545Z 32006KT 280V350 9999 FEW012 30/18 Q1015
                        NOSIG=
200907291530 METAR LMML NIL=
200907291515 METAR LMML 291515Z 30007KT 260V340 9999 FEW012 31/14 Q1016
                        NOSIG=
200907291500 METAR LMML NIL=
200907291445 METAR LMML 291445Z 32008KT 270V360 9999 FEW020 31/16 Q1016
                        NOSIG=
200907291430 METAR LMML NIL=
200907291415 METAR LMML 291415Z 28007KT 230V320 9999 FEW020 31/16 Q1016
                        NOSIG=
200907291400 METAR LMML NIL=
200907291345 METAR LMML 291345Z 29006KT 230V340 9999 FEW020 31/15 Q1016
                        NOSIG=
200907291330 METAR LMML NIL=
200907291315 METAR LMML 291315Z 29007KT 250V330 9999 FEW020 31/16 Q1016
                        NOSIG=
200907291300 METAR LMML NIL=
200907291245 METAR LMML 291245Z 30008KT 250V330 9999 FEW020 30/16 Q1016
                        NOSIG=
200907291230 METAR LMML NIL=
200907291215 METAR LMML 291215Z 29007KT 210V320 9999 FEW020 30/17 Q1016
                        NOSIG=
200907291200 METAR LMML NIL=
200907291145 METAR LMML 291145Z 31008KT 270V340 9999 FEW020 30/18 Q1017
                        NOSIG=
200907291130 METAR LMML NIL=
200907291115 METAR LMML 291115Z 31009KT 270V340 9999 FEW020 30/19 Q1017
                        NOSIG=
200907291100 METAR LMML NIL=
200907291045 METAR LMML 291045Z 32008KT 280V360 9999 FEW015 31/19 Q1017
                        NOSIG=
200907291030 METAR LMML NIL=
200907291015 METAR LMML 291015Z 31007KT 260V350 9999 FEW015 30/18 Q1017
                        NOSIG=
200907291000 METAR LMML NIL=
200907290945 METAR LMML 290945Z 32007KT 290V010 9999 FEW015 31/16 Q1017
                        NOSIG=
200907290930 METAR LMML NIL=
200907290915 METAR LMML 290915Z 33004KT 280V050 9999 FEW015 31/16 Q1017
                        NOSIG=
200907290900 METAR LMML NIL=
200907290845 METAR LMML 290845Z 35004KT 290V040 9999 FEW015 31/15 Q1017
                        NOSIG=
200907290830 METAR LMML NIL=
200907290815 METAR LMML 290815Z VRB02KT 9999 FEW015 30/15 Q1016 NOSIG=
200907290800 METAR LMML NIL=
200907290745 METAR LMML 290745Z VRB01KT 9999 FEW015 29/16 Q1016 NOSIG=
200907290730 METAR LMML NIL=
200907290715 METAR LMML 290715Z VRB03KT CAVOK 28/16 Q1017 NOSIG=
200907290700 METAR LMML NIL=
200907290645 METAR LMML 290645Z 30005KT 260V320 CAVOK 26/18 Q1017 NOSIG=
200907290630 METAR LMML NIL=
200907290615 METAR LMML 290615Z 30006KT 9999 FEW020 25/20 Q1017 NOSIG=
200907290600 METAR LMML NIL=
200907290545 METAR LMML 290545Z 31006KT 9999 FEW020 24/22 Q1017 NOSIG=
200907290530 METAR LMML NIL=
200907290515 METAR LMML 290515Z 31004KT 9999 FEW020 23/21 Q1017 NOSIG=
200907290500 METAR LMML NIL=
200907290445 METAR LMML 290445Z 31006KT CAVOK 23/21 Q1016 NOSIG=
200907290430 METAR LMML NIL=
200907290415 METAR LMML 290415Z 31007KT 9999 FEW020 23/21 Q1016 NOSIG=
200907290400 METAR LMML NIL=
200907290345 METAR LMML 290345Z 31006KT 9999 FEW020 23/20 Q1016 NOSIG=
200907290330 METAR LMML NIL=
200907290315 METAR LMML 290315Z 32006KT CAVOK 23/18 Q1016 NOSIG=
200907290300 METAR LMML NIL=
200907290245 METAR LMML 290245Z 31006KT CAVOK 23/20 Q1016 NOSIG=
200907290230 METAR LMML NIL=
200907290215 METAR LMML 290215Z 30006KT CAVOK 23/20 Q1016 NOSIG=
200907290200 METAR LMML NIL=
200907290145 METAR LMML 290145Z 29004KT 250V330 CAVOK 23/19 Q1016 NOSIG=
200907290130 METAR LMML NIL=
200907290115 METAR LMML 290115Z 29004KT 270V330 CAVOK 23/19 Q1016 NOSIG=
200907290100 METAR LMML NIL=
200907290045 METAR LMML 290045Z 28005KT 260V330 CAVOK 24/19 Q1016 NOSIG=
200907290030 METAR LMML NIL=
200907290015 METAR LMML 290015Z 29006KT CAVOK 24/19 Q1016 NOSIG=
200907290000 METAR LMML NIL=
200907282345 METAR LMML 282345Z 28006KT CAVOK 24/19 Q1017 NOSIG=
200907282315 METAR LMML 282315Z 28006KT 250V310 CAVOK 24/17 Q1017 NOSIG=
200907282300 METAR LMML NIL=
200907282245 METAR LMML 282245Z 28004KT 240V310 CAVOK 24/14 Q1017 NOSIG=
200907282230 METAR LMML NIL=
200907282215 METAR LMML 282215Z 29004KT CAVOK 24/14 Q1017 NOSIG=
200907282200 METAR LMML NIL=
200907282145 METAR LMML 282145Z VRB03KT CAVOK 24/16 Q1017 NOSIG=
200907282130 METAR LMML NIL=
200907282115 METAR LMML 282115Z VRB03KT CAVOK 24/17 Q1017 NOSIG=
200907282100 METAR LMML NIL=
200907282045 METAR LMML 282045Z VRB03KT CAVOK 24/18 Q1017 NOSIG=
200907282030 METAR LMML NIL=
200907282015 METAR LMML 282015Z 31004KT CAVOK 24/19 Q1017 NOSIG=
200907282000 METAR LMML NIL=
200907281945 METAR LMML 281945Z 31005KT CAVOK 24/19 Q1017 NOSIG=
200907281930 METAR LMML NIL=
200907281915 METAR LMML 281915Z 31006KT 9999 FEW030 25/19 Q1017 BECMG
                        CAVOK=
200907281900 METAR LMML NIL=
200907281845 METAR LMML 281845Z 31007KT 9999 FEW030 25/18 Q1017 BECMG
                        CAVOK=
200907281830 METAR LMML NIL=
200907281815 METAR LMML 281815Z 30007KT 9999 FEW030 26/18 Q1017 BECMG
                        CAVOK=
200907281800 METAR LMML NIL=
200907281745 METAR LMML 281745Z 31009KT 9999 FEW030 27/16 Q1017 BECMG
                        CAVOK=
200907281730 METAR LMML NIL=
200907281715 METAR COR LMML 281715Z 31009KT CAVOK 28/15 Q1017 NOSIG=
200907281700 METAR LMML NIL=
200907281645 METAR LMML 281645Z 30008KT 250V330 9999 FEW020 28/15 Q1017
                        BECMG CAVOK=
200907281630 METAR LMML NIL=
200907281615 METAR COR LMML 281615Z 30009KT 260V320 9999 FEW020 29/16
                        Q1017 BECMG CAVOK=
200907281600 METAR LMML NIL=
200907281545 METAR LMML 281545Z 29009KT 9999 FEW020 29/17 Q1017 BECMG
                        CAVOK=
200907281530 METAR LMML NIL=
200907281515 METAR LMML 281515Z 31010KT 9999 FEW020 30/15 Q1017 BECMG
                        CAVOK=
200907281500 METAR LMML NIL=
200907281445 METAR LMML 281445Z 30010KT 260V330 9999 FEW020 30/16 Q1017
                        BECMG CAVOK=
200907281430 METAR LMML NIL=
200907281415 METAR LMML 281415Z 31013KT 9999 FEW020 30/16 Q1017 NOSIG=
200907281400 METAR LMML NIL=
200907281345 METAR LMML 281345Z 29011KT 260V320 9999 FEW020 30/16 Q1017
                        NOSIG=
200907281330 METAR LMML NIL=
200907281315 METAR LMML 281315Z 29011KT 240V330 CAVOK 30/16 Q1018 NOSIG=
200907281300 METAR LMML NIL=
200907281245 METAR LMML 281245Z 28010KT 250V310 9999 FEW020 30/17 Q1018
                        NOSIG=
200907281230 METAR LMML NIL=
200907281215 METAR LMML 281215Z 28009KT 220V320 9999 FEW020 30/16 Q1018
                        NOSIG=
200907281200 METAR LMML NIL=
200907281145 METAR LMML 281145Z 29009KT 260V330 9999 FEW020 30/17 Q1018
                        NOSIG=
200907281130 METAR LMML NIL=
200907281115 METAR LMML 281115Z 29007KT 210V320 9999 FEW020 29/18 Q1018
                        NOSIG=
200907281045 METAR LMML 281045Z 27008KT 220V310 9999 FEW020 29/16 Q1018
                        NOSIG=
200907281030 METAR LMML NIL=
200907281015 METAR LMML 281015Z 27006KT 220V320 9999 FEW020 29/16 Q1018
                        NOSIG=
200907281000 METAR LMML NIL=
200907280945 METAR LMML 280945Z 30006KT 210V360 9999 FEW020 30/16 Q1018
                        BECMG CAVOK=
200907280930 METAR LMML NIL=
200907280915 METAR LMML 280915Z 28006KT 220V330 9999 FEW020 29/16 Q1018
                        BECMG CAVOK=
200907280900 METAR LMML NIL=
200907280845 METAR LMML 280845Z 29006KT 200V350 9999 FEW015 30/16 Q1018
                        BECMG CAVOK=
200907280830 METAR LMML NIL=
200907280815 METAR LMML 280815Z 31004KT 250V010 9999 FEW015 29/17 Q1018
                        BECMG CAVOK=
200907280800 METAR LMML NIL=
200907280745 METAR LMML 280745Z 28004KT 210V340 9999 FEW015 28/17 Q1018
                        BECMG CAVOK=
200907280730 METAR LMML NIL=
200907280715 METAR LMML 280715Z 27005KT 230V320 9999 FEW015 27/18 Q1018
                        BECMG CAVOK=
200907280700 METAR LMML NIL=
200907280645 METAR LMML 280645Z 28005KT 230V320 9999 FEW015 26/20 Q1018
                        NOSIG=
200907280630 METAR LMML NIL=
200907280615 METAR LMML 280615Z 28006KT 9999 FEW015 25/20 Q1018 NOSIG=
200907280600 METAR LMML NIL=
200907280545 METAR LMML 280545Z VRB03KT 9999 FEW015 24/21 Q1018 NOSIG=
200907280530 METAR LMML NIL=
200907280515 METAR COR LMML 280515Z VRB02KT 9999 FEW020 23/20 Q1017 NOSIG=
200907280500 METAR LMML NIL=
200907280445 METAR LMML 280445Z VRB02KT 9999 FEW020 23/20 Q1017 NOSIG=
200907280430 METAR LMML NIL=
200907280415 METAR LMML 280415Z 00000KT 9999 FEW020 22/19 Q1017 NOSIG=
200907280345 METAR LMML 280345Z VRB03KT CAVOK 22/19 Q1017 NOSIG=
200907280315 METAR LMML 280315Z VRB02KT CAVOK 22/19 Q1017 NOSIG=
200907280300 METAR LMML NIL=
200907280245 METAR LMML 280245Z VRB01KT CAVOK 22/20 Q1016 NOSIG=
200907280230 METAR LMML NIL=
200907280215 METAR LMML 280215Z VRB01KT CAVOK 22/20 Q1017 NOSIG=
200907280200 METAR LMML NIL=
200907280145 METAR LMML 280145Z VRB02KT CAVOK 22/19 Q1017 NOSIG=
200907280130 METAR LMML NIL=
200907280115 METAR LMML 280115Z VRB01KT CAVOK 22/19 Q1017 NOSIG=
200907280100 METAR LMML NIL=
200907280045 METAR LMML 280045Z VRB01KT CAVOK 23/20 Q1017 NOSIG=
200907280030 METAR LMML NIL=
200907280015 METAR LMML 280015Z VRB01KT CAVOK 23/19 Q1017 NOSIG=
200907280000 METAR LMML NIL=
200907272345 METAR LMML 272345Z VRB03KT CAVOK 23/19 Q1017 NOSIG=
200907272330 METAR LMML NIL=
200907272315 METAR LMML 272315Z VRB02KT CAVOK 23/19 Q1017 NOSIG=
200907272300 METAR LMML NIL=
200907272245 METAR LMML 272245Z VRB03KT CAVOK 23/19 Q1017 NOSIG=
200907272230 METAR LMML NIL=
200907272215 METAR LMML 272215Z VRB03KT CAVOK 24/20 Q1017 NOSIG=
200907272200 METAR LMML NIL=
200907272145 METAR LMML 272145Z VRB03KT CAVOK 24/19 Q1017 NOSIG=
200907272130 METAR LMML NIL=
200907272115 METAR LMML 272115Z 31004KT CAVOK 24/19 Q1017 NOSIG=
200907272100 METAR LMML NIL=
200907272045 METAR LMML 272045Z VRB02KT CAVOK 25/19 Q1017 NOSIG=
200907272030 METAR LMML NIL=
200907272015 METAR LMML 272015Z VRB02KT CAVOK 25/19 Q1017 NOSIG=
200907272000 METAR LMML NIL=
200907271945 METAR LMML 271945Z VRB03KT CAVOK 25/20 Q1017 NOSIG=
200907271930 METAR LMML NIL=
200907271915 METAR LMML 271915Z VRB03KT CAVOK 26/20 Q1017 NOSIG=
200907271900 METAR LMML NIL=
200907271845 METAR LMML 271845Z 01005KT CAVOK 26/20 Q1017 NOSIG=
200907271830 METAR LMML NIL=
200907271815 METAR LMML 271815Z 02004KT 340V080 CAVOK 26/19 Q1016 NOSIG=
200907271800 METAR LMML NIL=
200907271745 METAR LMML 271745Z 01005KT 320V070 9999 FEW030 27/19 Q1017
                        NOSIG=
200907271715 METAR LMML 271715Z VRB03KT CAVOK 27/20 Q1016 NOSIG=
200907271700 METAR LMML NIL=
200907271645 METAR LMML 271645Z 23004KT 180V280 9999 FEW030 28/20 Q1016
                        NOSIG=
200907271630 METAR LMML NIL=
200907271615 METAR LMML 271615Z 21006KT 170V260 9999 FEW030 28/19 Q1016
                        NOSIG=
200907271600 METAR LMML NIL=
200907271545 METAR LMML 271545Z 22006KT 160V260 9999 FEW030 28/20 Q1016
                        NOSIG=
200907271530 METAR LMML NIL=
200907271515 METAR LMML 271515Z 22006KT 170V240 9999 FEW038 29/19 Q1016
                        NOSIG=
200907271500 METAR LMML NIL=
200907271445 METAR LMML 271445Z 22005KT 160V280 9999 FEW037 29/19 Q1016
                        NOSIG=
200907271430 METAR LMML NIL=
200907271415 METAR LMML 271415Z 19006KT 150V240 9999 FEW025 29/19 Q1016
                        NOSIG=
200907271400 METAR LMML NIL=
200907271345 METAR LMML 271345Z 19006KT 160V220 9999 FEW025 29/19 Q1016
                        NOSIG=
200907271330 METAR LMML NIL=
200907271315 METAR LMML 271315Z 19005KT 150V250 9999 FEW025 29/18 Q1017
                        NOSIG=
200907271245 METAR LMML 271245Z 14005KT 9999 FEW025 30/17 Q1017 NOSIG=
200907271230 METAR LMML NIL=
200907271215 METAR LMML 271215Z 03006KT 320V090 9999 FEW025 32/15 Q1017
                        NOSIG=
200907271200 METAR LMML NIL=
200907271145 METAR LMML 271145Z 04005KT 330V100 9999 FEW025 32/15 Q1017
                        NOSIG=
200907271130 METAR LMML NIL=
200907271115 METAR LMML 271115Z 03005KT 350V070 9999 FEW020 31/17 Q1017
                        NOSIG=
200907271100 METAR LMML NIL=
200907271045 METAR LMML 271045Z 03005KT 350V070 9999 FEW020 31/18 Q1017
                        NOSIG=
200907271030 METAR LMML NIL=
200907271015 METAR LMML 271015Z 04006KT 320V090 9999 FEW020 30/18 Q1017
                        NOSIG=
200907271000 METAR LMML NIL=
200907270945 METAR LMML 270945Z 04005KT 350V100 9999 FEW020 30/19 Q1017
                        NOSIG=
200907270930 METAR LMML NIL=
200907270915 METAR LMML 270915Z 03005KT 340V110 9999 FEW020 29/20 Q1017
                        NOSIG=
200907270900 METAR LMML NIL=
200907270845 METAR LMML 270845Z 03005KT 010V070 9999 FEW020 29/20 Q1017
                        NOSIG=
200907270830 METAR LMML NIL=
200907270815 METAR LMML 270815Z 04005KT 340V110 9999 FEW015 29/20 Q1017
                        NOSIG=
200907270800 METAR LMML NIL=
200907270745 METAR LMML 270745Z 03005KT 350V100 9999 FEW015 28/21 Q1017
                        NOSIG=
200907270730 METAR LMML NIL=
200907270715 METAR LMML 270715Z 03006KT 340V060 9999 FEW015 27/21 Q1017
                        NOSIG=
200907270700 METAR LMML NIL=
200907270645 METAR LMML 270645Z 03004KT 350V070 9999 FEW015 27/21 Q1017
                        NOSIG=
200907270630 METAR LMML NIL=
200907270615 METAR LMML 270615Z 02004KT 350V050 9999 FEW015 26/21 Q1016
                        NOSIG=
200907270600 METAR LMML NIL=
200907270545 METAR LMML 270545Z VRB03KT 9999 FEW015 25/21 Q1016 NOSIG=
200907270530 METAR LMML NIL=
200907270515 METAR LMML 270515Z VRB02KT 9999 FEW015 23/21 Q1016 NOSIG=
200907270500 METAR LMML NIL=
200907270445 METAR LMML 270445Z VRB01KT 9999 FEW015 22/20 Q1016 NOSIG=
200907270430 METAR LMML NIL=
200907270415 METAR LMML 270415Z VRB02KT CAVOK 22/21 Q1016 NOSIG=
200907270400 METAR LMML NIL=
200907270345 METAR LMML 270345Z VRB02KT CAVOK 22/20 Q1016 NOSIG=
200907270330 METAR LMML NIL=
200907270315 METAR LMML 270315Z VRB03KT CAVOK 23/21 Q1016 NOSIG=
200907270300 METAR LMML NIL=
200907270245 METAR LMML 270245Z VRB02KT CAVOK 23/21 Q1016 NOSIG=
200907270230 METAR LMML NIL=
200907270215 METAR LMML 270215Z VRB03KT CAVOK 23/22 Q1016 NOSIG=
200907270200 METAR LMML NIL=
200907270145 METAR LMML 270145Z VRB01KT CAVOK 23/21 Q1016 NOSIG=
200907270130 METAR LMML NIL=
200907270115 METAR LMML 270115Z VRB03KT CAVOK 22/21 Q1016 NOSIG=
200907270100 METAR LMML NIL=
200907270045 METAR LMML 270045Z VRB03KT 9999 FEW008 23/21 Q1016 NOSIG=
200907270030 METAR LMML NIL=
200907270015 METAR LMML 270015Z 17004KT 9999 FEW008 23/21 Q1016 NOSIG=
200907270000 METAR LMML NIL=
200907262345 METAR LMML 262345Z 14004KT 9999 FEW008 23/21 Q1016 NOSIG=
200907262330 METAR LMML NIL=
200907262315 METAR LMML 262315Z 12005KT CAVOK 23/19 Q1016 NOSIG=
200907262300 METAR LMML NIL=
200907262245 METAR LMML 262245Z 10004KT CAVOK 24/19 Q1016 NOSIG=
200907262230 METAR LMML NIL=
200907262215 METAR LMML 262215Z VRB01KT CAVOK 23/17 Q1016 NOSIG=
200907262200 METAR LMML NIL=
200907262145 METAR LMML 262145Z VRB01KT CAVOK 24/18 Q1016 NOSIG=
200907262130 METAR LMML NIL=
200907262115 METAR LMML 262115Z VRB02KT CAVOK 24/18 Q1016 NOSIG=
200907262100 METAR LMML NIL=
200907262045 METAR LMML 262045Z VRB02KT CAVOK 24/17 Q1016 NOSIG=
200907262030 METAR LMML NIL=
200907262015 METAR LMML 262015Z VRB03KT CAVOK 24/17 Q1016 NOSIG=
200907261945 METAR LMML 261945Z VRB02KT CAVOK 24/18 Q1016 NOSIG=
200907261930 METAR LMML NIL=
200907261915 METAR LMML 261915Z VRB03KT CAVOK 24/19 Q1015 NOSIG=
200907261900 METAR LMML NIL=
200907261845 METAR LMML 261845Z 30004KT 260V320 CAVOK 25/20 Q1015 NOSIG=
200907261830 METAR LMML NIL=
200907261815 METAR LMML 261815Z 31005KT 9999 FEW025 25/20 Q1015 NOSIG=
200907261800 METAR LMML NIL=
200907261745 METAR LMML 261745Z 31008KT 9999 FEW025 26/20 Q1015 NOSIG=
200907261730 METAR LMML NIL=
200907261715 METAR LMML 261715Z 30008KT 9999 FEW025 26/21 Q1015 NOSIG=
200907261645 METAR LMML 261645Z 31007KT 280V340 9999 FEW025 27/20 Q1015
                        NOSIG=
200907261630 METAR LMML NIL=
200907261615 METAR LMML 261615Z 31009KT 280V350 9999 FEW025 28/18 Q1015
                        NOSIG=
200907261600 METAR LMML NIL=
200907261545 METAR LMML 261545Z 32010KT 270V340 9999 FEW025 28/18 Q1016
                        NOSIG=
200907261530 METAR LMML NIL=
200907261515 METAR LMML 261515Z 32009KT 270V350 9999 FEW025 30/17 Q1016
                        NOSIG=
200907261500 METAR LMML NIL=
200907261445 METAR LMML 261445Z 30011KT 9999 FEW025 30/16 Q1016 NOSIG=
200907261430 METAR LMML NIL=
200907261415 METAR LMML 261415Z 27006KT 200V330 CAVOK 32/16 Q1016 NOSIG=
200907261400 METAR LMML NIL=
200907261345 METAR LMML 261345Z VRB03KT 9999 FEW025 33/20 Q1016 NOSIG=
200907261330 METAR LMML NIL=
200907261315 METAR LMML 261315Z 34006KT 250V020 CAVOK 34/13 Q1016 NOSIG=
200907261300 METAR LMML NIL=
200907261245 METAR LMML 261245Z 32009KT CAVOK 34/12 Q1016 NOSIG=
200907261230 METAR LMML NIL=
200907261215 METAR LMML 261215Z 29010KT 250V330 CAVOK 34/11 Q1016 NOSIG=
200907261200 METAR LMML NIL=
200907261145 METAR LMML 261145Z 30007KT 260V350 CAVOK 33/14 Q1016 NOSIG=
200907261130 METAR LMML NIL=
200907261115 METAR LMML 261115Z 04008KT CAVOK 33/18 Q1016 NOSIG=
200907261045 METAR LMML 261045Z 05006KT 330V090 CAVOK 34/16 Q1016 NOSIG=
200907261030 METAR LMML NIL=
200907261000 METAR LMML NIL=
200907260945 METAR LMML 260945Z 21005KT 160V270 CAVOK 33/16 Q1016 NOSIG=
200907260930 METAR LMML NIL=
200907260915 METAR LMML 260915Z 21004KT 140V260 CAVOK 32/17 Q1016 NOSIG=
200907260900 METAR LMML NIL=
200907260845 METAR LMML 260845Z VRB03KT CAVOK 32/15 Q1016 NOSIG=
200907260830 METAR LMML NIL=
200907260815 METAR LMML 260815Z VRB03KT CAVOK 32/17 Q1016 NOSIG=
200907260800 METAR LMML NIL=
200907260745 METAR LMML 260745Z VRB03KT CAVOK 31/18 Q1016 NOSIG=
200907260730 METAR LMML NIL=
200907260715 METAR LMML 260715Z VRB03KT CAVOK 30/18 Q1016 NOSIG=
200907260700 METAR LMML NIL=
200907260645 METAR LMML 260645Z VRB02KT CAVOK 30/19 Q1016 NOSIG=
200907260630 METAR LMML NIL=
200907260615 METAR LMML 260615Z VRB02KT CAVOK 29/19 Q1016 NOSIG=
200907260600 METAR LMML NIL=
200907260545 METAR LMML 260545Z VRB02KT CAVOK 28/18 Q1016 NOSIG=
200907260530 METAR LMML NIL=
200907260515 METAR LMML 260515Z VRB02KT CAVOK 26/19 Q1016 NOSIG=
200907260500 METAR LMML NIL=
200907260445 METAR LMML 260445Z VRB02KT CAVOK 26/19 Q1016 NOSIG=
200907260430 METAR LMML NIL=
200907260415 METAR LMML 260415Z VRB01KT CAVOK 24/18 Q1016 NOSIG=
200907260400 METAR LMML NIL=
200907260345 METAR LMML 260345Z VRB01KT CAVOK 25/19 Q1015 NOSIG=
200907260330 METAR LMML NIL=
200907260315 METAR LMML 260315Z VRB02KT CAVOK 26/19 Q1015 NOSIG=
200907260300 METAR LMML NIL=
200907260245 METAR LMML 260245Z VRB03KT CAVOK 26/19 Q1015 NOSIG=
200907260230 METAR LMML NIL=
200907260215 METAR LMML 260215Z VRB03KT CAVOK 27/18 Q1015 NOSIG=
200907260200 METAR LMML NIL=
200907260145 METAR LMML 260145Z VRB03KT CAVOK 28/17 Q1015 NOSIG=
200907260130 METAR LMML NIL=
200907260115 METAR LMML 260115Z 03004KT 350V080 CAVOK 28/16 Q1015 NOSIG=
200907260100 METAR LMML NIL=
200907260045 METAR LMML 260045Z VRB02KT CAVOK 28/16 Q1015 NOSIG=
200907260030 METAR LMML NIL=
200907260015 METAR LMML 260015Z VRB02KT CAVOK 27/16 Q1015 NOSIG=
200907260000 METAR LMML NIL=
200907252345 METAR LMML 252345Z VRB01KT CAVOK 27/18 Q1015 NOSIG=
200907252330 METAR LMML NIL=
200907252315 METAR LMML 252315Z VRB01KT CAVOK 27/19 Q1015 NOSIG=
200907252300 METAR LMML NIL=
200907252245 METAR LMML 252245Z VRB03KT CAVOK 28/19 Q1015 NOSIG=
200907252215 METAR LMML 252215Z 31004KT CAVOK 27/19 Q1015 NOSIG=
200907252200 METAR LMML NIL=
200907252145 METAR LMML 252145Z 31004KT 270V350 CAVOK 28/19 Q1015 NOSIG=
200907252130 METAR LMML NIL=
200907252115 METAR LMML 252115Z 01006KT CAVOK 29/19 Q1015 NOSIG=
200907252100 METAR LMML NIL=
200907252045 METAR LMML 252045Z 34010KT CAVOK 30/17 Q1015 NOSIG=
200907252030 METAR LMML NIL=
200907252015 METAR LMML 252015Z 34008KT CAVOK 31/16 Q1015 NOSIG=
200907252000 METAR LMML NIL=
200907251945 METAR LMML 251945Z 33007KT 290V010 CAVOK 30/16 Q1015 NOSIG=
200907251930 METAR LMML NIL=
200907251915 METAR LMML 251915Z 31011KT 280V350 CAVOK 32/14 Q1015 NOSIG=
200907251900 METAR LMML NIL=
200907251845 METAR LMML 251845Z 30013KT CAVOK 34/11 Q1014 NOSIG=
200907251830 METAR LMML NIL=
200907251815 METAR LMML 251815Z 30012KT 260V330 CAVOK 33/12 Q1014 NOSIG=
200907251800 METAR LMML NIL=
200907251745 METAR LMML 251745Z 30007KT CAVOK 34/12 Q1014 NOSIG=
200907251730 METAR LMML NIL=
200907251715 METAR LMML 251715Z 29009KT 260V320 CAVOK 35/12 Q1014 NOSIG=
200907251700 METAR LMML NIL=
200907251645 METAR LMML 251645Z 30012KT CAVOK 36/11 Q1014 NOSIG=
200907251630 METAR LMML NIL=
200907251615 METAR LMML 251615Z 30010KT CAVOK 37/10 Q1014 NOSIG=
200907251600 METAR LMML NIL=
200907251545 METAR LMML 251545Z 29010KT 270V330 CAVOK 38/11 Q1014 NOSIG=
200907251530 METAR LMML NIL=
200907251515 METAR LMML 251515Z 30013KT CAVOK 38/11 Q1015 NOSIG=
200907251500 METAR LMML NIL=
200907251445 METAR LMML 251445Z 29011KT 260V320 CAVOK 39/09 Q1015 NOSIG=
200907251430 METAR LMML NIL=
200907251415 METAR LMML 251415Z 30012KT 260V320 CAVOK 40/07 Q1015 NOSIG=
200907251345 METAR LMML 251345Z 29013KT CAVOK 41/04 Q1015 NOSIG=
200907251330 METAR LMML NIL=
200907251315 METAR LMML 251315Z 31011KT 280V340 CAVOK 41/05 Q1015 NOSIG=
200907251300 METAR LMML NIL=
200907251245 METAR LMML 251245Z 31011KT 280V340 CAVOK 41/06 Q1015 NOSIG=
200907251215 METAR LMML 251215Z 31012KT 290V350 CAVOK 41/06 Q1016 NOSIG=
200907251200 METAR LMML NIL=
200907251145 METAR LMML 251145Z 31013KT 280V340 CAVOK 40/06 Q1016 NOSIG=
200907251130 METAR LMML NIL=
200907251115 METAR LMML 251115Z 30014KT CAVOK 39/06 Q1016 NOSIG=
200907251100 METAR LMML NIL=
200907251045 METAR LMML 251045Z 31012KT 280V340 CAVOK 39/04 Q1016 NOSIG=
200907251030 METAR LMML NIL=
200907251015 METAR LMML 251015Z 32010KT 280V360 CAVOK 39/08 Q1016 NOSIG=
200907251000 METAR LMML NIL=
200907250945 METAR LMML 250945Z 31011KT 290V350 CAVOK 38/09 Q1016 NOSIG=
200907250930 METAR LMML NIL=
200907250915 METAR LMML 250915Z 31012KT 280V340 CAVOK 38/05 Q1016 NOSIG=
200907250900 METAR LMML NIL=
200907250845 METAR LMML 250845Z 31009KT 270V340 CAVOK 38/06 Q1016 NOSIG=
200907250830 METAR LMML NIL=
200907250815 METAR LMML 250815Z 32008KT 280V350 CAVOK 37/08 Q1016 NOSIG=
200907250800 METAR LMML NIL=
200907250745 METAR LMML 250745Z 32009KT 290V350 CAVOK 35/10 Q1016 NOSIG=
200907250730 METAR LMML NIL=
200907250715 METAR LMML 250715Z 32008KT CAVOK 35/10 Q1016 NOSIG=
200907250700 METAR LMML NIL=
200907250645 METAR LMML 250645Z 33008KT 300V360 CAVOK 33/10 Q1016 NOSIG=
200907250630 METAR LMML NIL=
200907250615 METAR LMML 250615Z 32007KT CAVOK 32/10 Q1016 NOSIG=
200907250600 METAR LMML NIL=
200907250545 METAR LMML 250545Z 32006KT 290V350 CAVOK 31/11 Q1016 NOSIG=
200907250530 METAR LMML NIL=
200907250515 METAR LMML 250515Z 32005KT CAVOK 29/12 Q1016 NOSIG=
200907250500 METAR LMML NIL=
200907250445 METAR LMML 250445Z 31007KT CAVOK 28/12 Q1016 NOSIG=
200907250430 METAR LMML NIL=
200907250415 METAR LMML 250415Z 31007KT CAVOK 28/13 Q1016 NOSIG=
200907250400 METAR LMML NIL=
200907250345 METAR LMML 250345Z 32007KT CAVOK 27/13 Q1015 NOSIG=
200907250330 METAR LMML NIL=
200907250315 METAR LMML 250315Z 32006KT CAVOK 28/13 Q1015 NOSIG=
200907250300 METAR LMML NIL=
200907250245 METAR LMML 250245Z 32006KT CAVOK 28/13 Q1015 NOSIG=
200907250230 METAR LMML NIL=
200907250215 METAR LMML 250215Z 31007KT 280V340 CAVOK 28/13 Q1015 NOSIG=
200907250200 METAR LMML NIL=
200907250145 METAR LMML 250145Z 31008KT 290V350 CAVOK 29/11 Q1015 NOSIG=
200907250130 METAR LMML NIL=
200907250115 METAR LMML 250115Z 32004KT 280V350 CAVOK 29/09 Q1016 NOSIG=
200907250100 METAR LMML NIL=
200907250045 METAR LMML 250045Z 31004KT 280V340 CAVOK 29/06 Q1016 NOSIG=
200907250030 METAR LMML NIL=
200907250015 METAR LMML 250015Z 32004KT 290V350 CAVOK 29/07 Q1016 NOSIG=
200907250000 METAR LMML NIL=
200907242345 METAR LMML 242345Z VRB02KT CAVOK 29/08 Q1016 NOSIG=
200907242315 METAR LMML 242315Z VRB03KT CAVOK 29/09 Q1017 NOSIG=
200907242300 METAR LMML NIL=
200907242245 METAR LMML 242245Z VRB02KT CAVOK 29/08 Q1017 NOSIG=
200907242230 METAR LMML NIL=
200907242215 METAR LMML 242215Z VRB03KT CAVOK 29/08 Q1017 NOSIG=
200907242200 METAR LMML NIL=
200907242145 METAR LMML 242145Z 28004KT 240V310 CAVOK 30/08 Q1017 NOSIG=
200907242130 METAR LMML NIL=
200907242115 METAR LMML 242115Z 28005KT 240V320 CAVOK 30/08 Q1017 NOSIG=
200907242100 METAR LMML NIL=
200907242045 METAR LMML 242045Z 29004KT 260V320 CAVOK 30/08 Q1017 NOSIG=
200907242030 METAR LMML NIL=
200907242015 METAR LMML 242015Z 30005KT CAVOK 30/08 Q1017 NOSIG=
200907242000 METAR LMML NIL=
200907241945 METAR LMML 241945Z 29005KT 260V330 CAVOK 30/09 Q1017 NOSIG=
200907241930 METAR LMML NIL=
200907241915 METAR LMML 241915Z 30004KT 270V340 CAVOK 30/07 Q1017 NOSIG=
200907241900 METAR LMML NIL=
200907241845 METAR LMML 241845Z 30004KT 240V350 CAVOK 30/08 Q1017 NOSIG=
200907241830 METAR LMML NIL=
200907241815 METAR LMML 241815Z 29004KT 250V340 CAVOK 31/08 Q1017 NOSIG=
200907241800 METAR LMML NIL=
200907241745 METAR LMML 241745Z 28005KT 230V320 CAVOK 32/08 Q1017 NOSIG=
200907241730 METAR LMML NIL=
200907241715 METAR LMML 241715Z 26006KT 220V300 CAVOK 32/09 Q1017 NOSIG=
200907241700 METAR LMML NIL=
200907241645 METAR LMML 241645Z 29009KT 250V320 CAVOK 34/07 Q1017 NOSIG=
200907241630 METAR LMML NIL=
200907241615 METAR LMML 241615Z 29007KT CAVOK 35/06 Q1017 NOSIG=
200907241600 METAR LMML NIL=
200907241545 METAR LMML 241545Z 30009KT CAVOK 35/05 Q1017 NOSIG=
200907241530 METAR LMML NIL=
200907241515 METAR LMML 241515Z 30009KT 270V330 CAVOK 36/05 Q1017 NOSIG=
200907241500 METAR LMML NIL=
200907241445 METAR LMML 241445Z 30009KT 260V330 CAVOK 36/04 Q1017 NOSIG=
200907241430 METAR LMML NIL=
200907241415 METAR LMML 241415Z 30009KT 250V340 CAVOK 36/05 Q1017 NOSIG=
200907241400 METAR LMML NIL=
200907241345 METAR LMML 241345Z 32008KT 290V360 CAVOK 36/10 Q1017 NOSIG=
200907241330 METAR LMML NIL=
200907241315 METAR LMML 241315Z 31010KT 280V350 CAVOK 36/10 Q1017 NOSIG=
200907241300 METAR LMML NIL=
200907241245 METAR LMML 241245Z 31009KT 280V350 CAVOK 35/13 Q1018 NOSIG=
200907241230 METAR LMML NIL=
200907241215 METAR LMML 241215Z 32010KT 280V350 CAVOK 35/13 Q1018 NOSIG=
200907241200 METAR LMML NIL=
200907241145 METAR LMML 241145Z 31010KT 280V350 CAVOK 35/12 Q1018 NOSIG=
200907241115 METAR LMML 241115Z 31010KT 280V340 CAVOK 35/13 Q1018 NOSIG=
200907241100 METAR LMML NIL=
200907241045 METAR LMML 241045Z 31008KT 260V350 CAVOK 35/13 Q1018 NOSIG=
200907241030 METAR LMML NIL=
200907241015 METAR LMML 241015Z 30008KT 280V360 CAVOK 34/13 Q1018 NOSIG=
200907241000 METAR LMML NIL=
200907240945 METAR LMML 240945Z 31008KT 270V350 CAVOK 34/13 Q1018 NOSIG=
200907240930 METAR LMML NIL=
200907240915 METAR LMML 240915Z 32007KT 280V360 CAVOK 33/11 Q1018 NOSIG=
200907240900 METAR LMML NIL=
200907240845 METAR LMML 240845Z 31008KT 280V340 CAVOK 33/11 Q1018 NOSIG=
200907240830 METAR LMML NIL=
200907240815 METAR LMML 240815Z 32009KT 290V350 CAVOK 32/11 Q1018 NOSIG=
200907240800 METAR LMML NIL=
200907240745 METAR LMML 240745Z 32009KT 290V350 CAVOK 31/10 Q1018 NOSIG=
200907240730 METAR LMML NIL=
200907240715 METAR LMML 240715Z 32008KT CAVOK 30/09 Q1018 NOSIG=
200907240700 METAR LMML NIL=
200907240645 METAR LMML 240645Z 32008KT CAVOK 29/09 Q1018 NOSIG=
200907240630 METAR LMML NIL=
200907240615 METAR LMML 240615Z 32006KT 290V350 CAVOK 28/08 Q1018 NOSIG=
200907240600 METAR LMML NIL=
200907240545 METAR LMML 240545Z 33004KT CAVOK 28/06 Q1017 NOSIG=
200907240530 METAR LMML NIL=
200907240515 METAR LMML 240515Z 31006KT CAVOK 26/05 Q1017 NOSIG=
200907240500 METAR LMML NIL=
200907240445 METAR LMML 240445Z 31006KT CAVOK 25/05 Q1017 NOSIG=
200907240430 METAR LMML NIL=
200907240415 METAR LMML 240415Z 32006KT CAVOK 25/05 Q1017 NOSIG=
200907240400 METAR LMML NIL=
200907240345 METAR LMML 240345Z 31005KT CAVOK 24/05 Q1017 NOSIG=
200907240330 METAR LMML NIL=
200907240315 METAR LMML 240315Z 32005KT CAVOK 24/04 Q1017 NOSIG=
200907240300 METAR LMML NIL=
200907240245 METAR LMML 240245Z 32004KT CAVOK 25/04 Q1017 NOSIG=
200907240230 METAR LMML NIL=
200907240215 METAR LMML 240215Z VRB03KT CAVOK 25/05 Q1017 NOSIG=
200907240200 METAR LMML NIL=
200907240145 METAR LMML 240145Z 31006KT CAVOK 25/06 Q1017 NOSIG=
200907240130 METAR LMML NIL=
200907240115 METAR LMML 240115Z 31005KT CAVOK 25/05 Q1017 NOSIG=
200907240100 METAR LMML NIL=
200907240045 METAR LMML 240045Z 31004KT CAVOK 24/06 Q1017 NOSIG=
200907240030 METAR LMML NIL=
200907240015 METAR LMML 240015Z VRB03KT CAVOK 24/06 Q1017 NOSIG=
200907240000 METAR LMML NIL=
200907232345 METAR LMML 232345Z VRB03KT CAVOK 24/06 Q1017 NOSIG=
200907232330 METAR LMML NIL=
200907232315 METAR LMML 232315Z 31005KT CAVOK 25/06 Q1018 NOSIG=
200907232300 METAR LMML NIL=
200907232245 METAR LMML 232245Z 32005KT CAVOK 26/06 Q1018 NOSIG=
200907232230 METAR LMML NIL=
200907232215 METAR LMML 232215Z 31005KT CAVOK 26/06 Q1018 NOSIG=
200907232200 METAR LMML NIL=
200907232145 METAR LMML 232145Z 31004KT CAVOK 26/06 Q1018 NOSIG=
200907232130 METAR LMML NIL=
200907232115 METAR LMML 232115Z VRB03KT CAVOK 25/07 Q1018 NOSIG=
200907232100 METAR LMML NIL=
200907232045 METAR LMML 232045Z 30004KT CAVOK 25/07 Q1018 NOSIG=
200907232030 METAR LMML NIL=
200907232015 METAR LMML 232015Z 32006KT CAVOK 25/08 Q1018 NOSIG=
200907232000 METAR LMML NIL=
200907231945 METAR LMML 231945Z 32007KT CAVOK 26/07 Q1018 NOSIG=
200907231930 METAR LMML NIL=
200907231915 METAR LMML 231915Z 33007KT CAVOK 26/06 Q1018 NOSIG=
200907231900 METAR LMML NIL=
200907231845 METAR LMML 231845Z 34008KT CAVOK 27/02 Q1018 NOSIG=
200907231830 METAR LMML NIL=
200907231815 METAR LMML 231815Z 34007KT CAVOK 27/08 Q1018 NOSIG=
200907231800 METAR LMML NIL=
200907231745 METAR LMML 231745Z 34006KT CAVOK 28/12 Q1018 NOSIG=
200907231730 METAR LMML NIL=
200907231715 METAR LMML 231715Z 34006KT 310V010 CAVOK 30/15 Q1018 NOSIG=
200907231700 METAR LMML NIL=
200907231645 METAR LMML 231645Z VRB02KT CAVOK 31/13 Q1017 NOSIG=
200907231630 METAR LMML NIL=
200907231615 METAR LMML 231615Z 35004KT 300V050 CAVOK 32/11 Q1017 NOSIG=
200907231600 METAR LMML NIL=
200907231545 METAR LMML 231545Z 33004KT 290V030 CAVOK 32/11 Q1017 NOSIG=
200907231530 METAR LMML NIL=
200907231515 METAR LMML 231515Z 33007KT 280V010 CAVOK 32/12 Q1018 NOSIG=
200907231500 METAR LMML NIL=
200907231445 METAR LMML 231445Z 08006KT 360V120 CAVOK 32/14 Q1018 NOSIG=
200907231430 METAR LMML NIL=
200907231415 METAR LMML 231415Z 07006KT 020V130 CAVOK 33/13 Q1018 NOSIG=
200907231400 METAR LMML NIL=
200907231345 METAR LMML 231345Z 06005KT 010V110 CAVOK 33/14 Q1018 NOSIG=
200907231330 METAR LMML NIL=
200907231315 METAR LMML 231315Z 03004KT 340V110 CAVOK 33/14 Q1018 NOSIG=
200907231300 METAR LMML NIL=
200907231245 METAR LMML 231245Z 05004KT 010V120 CAVOK 32/13 Q1018 NOSIG=
200907231230 METAR LMML NIL=
200907231215 METAR LMML 231215Z 02005KT 330V050 CAVOK 33/14 Q1018 NOSIG=
200907231200 METAR LMML NIL=
200907231145 METAR LMML 231145Z 02005KT 350V070 CAVOK 33/12 Q1018 NOSIG=
200907231130 METAR LMML NIL=
200907231115 METAR LMML 231115Z 04005KT 340V100 CAVOK 34/10 Q1018 NOSIG=
200907231100 METAR LMML NIL=
200907231045 METAR LMML 231045Z 08005KT 040V130 CAVOK 32/11 Q1018 NOSIG=
200907231030 METAR LMML NIL=
200907231015 METAR LMML 231015Z VRB03KT CAVOK 33/09 Q1018 NOSIG=
200907231000 METAR LMML NIL=
200907230945 METAR LMML 230945Z 01004KT 290V070 CAVOK 33/09 Q1018 NOSIG=
200907230930 METAR LMML NIL=
200907230915 METAR LMML 230915Z VRB03KT CAVOK 33/07 Q1018 NOSIG=
200907230900 METAR LMML NIL=
200907230845 METAR LMML 230845Z VRB03KT CAVOK 32/08 Q1018 NOSIG=
200907230830 METAR LMML NIL=
200907230815 METAR LMML 230815Z 05004KT 340V100 CAVOK 32/07 Q1018 NOSIG=
200907230800 METAR LMML NIL=
200907230745 METAR LMML 230745Z VRB03KT CAVOK 30/08 Q1018 NOSIG=
200907230730 METAR LMML NIL=
200907230715 METAR LMML 230715Z 33004KT 300V010 CAVOK 29/10 Q1018 NOSIG=
200907230700 METAR LMML NIL=
200907230645 METAR LMML 230645Z 33005KT CAVOK 28/11 Q1018 NOSIG=
200907230630 METAR LMML NIL=
200907230615 METAR LMML 230615Z 33004KT 300V360 CAVOK 26/14 Q1018 NOSIG=
200907230600 METAR LMML NIL=
200907230545 METAR LMML 230545Z 31005KT CAVOK 24/15 Q1018 NOSIG=
200907230530 METAR LMML NIL=
200907230515 METAR LMML 230515Z 32005KT CAVOK 23/16 Q1017 NOSIG=
200907230500 METAR LMML NIL=
200907230445 METAR LMML 230445Z 32005KT CAVOK 22/16 Q1017 NOSIG=
200907230430 METAR LMML NIL=
200907230415 METAR LMML 230415Z 32006KT CAVOK 21/18 Q1017 NOSIG=
200907230400 METAR LMML NIL=
200907230345 METAR LMML 230345Z 32006KT CAVOK 21/19 Q1017 NOSIG=
200907230330 METAR LMML NIL=
200907230315 METAR LMML 230315Z 30004KT CAVOK 22/20 Q1017 NOSIG=
200907230300 METAR LMML NIL=
200907230245 METAR LMML 230245Z 32004KT CAVOK 21/19 Q1017 NOSIG=
200907230230 METAR LMML NIL=
200907230215 METAR LMML 230215Z 31006KT CAVOK 22/19 Q1017 NOSIG=
200907230200 METAR LMML NIL=
200907230145 METAR LMML 230145Z 32006KT CAVOK 22/19 Q1017 NOSIG=
200907230130 METAR LMML NIL=
200907230115 METAR LMML 230115Z 32005KT CAVOK 22/16 Q1017 NOSIG=
200907230100 METAR LMML NIL=
200907230045 METAR LMML 230045Z VRB03KT CAVOK 22/18 Q1017 NOSIG=
200907230030 METAR LMML NIL=
200907230015 METAR LMML 230015Z 32004KT CAVOK 22/18 Q1017 NOSIG=
200907230000 METAR LMML NIL=
200907222345 METAR LMML 222345Z VRB03KT CAVOK 23/17 Q1018 NOSIG=
200907222330 METAR LMML NIL=
200907222315 METAR LMML 222315Z VRB03KT CAVOK 22/18 Q1018 NOSIG=
200907222300 METAR LMML NIL=
200907222245 METAR LMML 222245Z VRB02KT CAVOK 23/19 Q1018 NOSIG=
200907222230 METAR LMML NIL=
200907222215 METAR LMML 222215Z VRB03KT CAVOK 23/19 Q1018 NOSIG=
200907222145 METAR LMML 222145Z VRB03KT CAVOK 23/19 Q1018 NOSIG=
200907222130 METAR LMML NIL=
200907222115 METAR LMML 222115Z 30004KT CAVOK 23/19 Q1019 NOSIG=
200907222100 METAR LMML NIL=
200907222045 METAR LMML 222045Z 33004KT CAVOK 24/19 Q1019 NOSIG=
200907222030 METAR LMML NIL=
200907222015 METAR LMML 222015Z 34004KT 310V020 CAVOK 24/19 Q1019 NOSIG=
200907222000 METAR LMML NIL=
200907221945 METAR LMML 221945Z 35005KT CAVOK 24/19 Q1019 NOSIG=
200907221930 METAR LMML NIL=
200907221915 METAR LMML 221915Z 35006KT CAVOK 25/19 Q1019 NOSIG=
200907221900 METAR LMML NIL=
200907221845 METAR LMML 221845Z 01004KT CAVOK 25/19 Q1018 NOSIG=
200907221830 METAR LMML NIL=
200907221815 METAR LMML 221815Z VRB03KT CAVOK 26/19 Q1018 NOSIG=
200907221800 METAR LMML NIL=
200907221745 METAR LMML 221745Z VRB03KT CAVOK 27/19 Q1018 NOSIG=
200907221730 METAR LMML NIL=
200907221715 METAR LMML 221715Z 02004KT 350V050 CAVOK 28/19 Q1018 NOSIG=
200907221700 METAR LMML NIL=
200907221645 METAR LMML 221645Z 03005KT 360V060 CAVOK 29/19 Q1018 NOSIG=
200907221615 METAR LMML 221615Z 05004KT 350V110 CAVOK 29/19 Q1018 NOSIG=
200907221600 METAR LMML NIL=
200907221545 METAR LMML 221545Z 03006KT 360V080 CAVOK 30/19 Q1018 NOSIG=
200907221530 METAR LMML NIL=
200907221515 METAR LMML 221515Z VRB03KT CAVOK 29/18 Q1018 NOSIG=
200907221500 METAR LMML NIL=
200907221445 METAR LMML 221445Z 19005KT 150V240 CAVOK 29/18 Q1018 NOSIG=
200907221430 METAR LMML NIL=
200907221415 METAR LMML 221415Z 36005KT 280V040 CAVOK 31/19 Q1018 NOSIG=
200907221400 METAR LMML NIL=
200907221345 METAR LMML 221345Z 03005KT 360V060 CAVOK 31/19 Q1018 NOSIG=
200907221330 METAR LMML NIL=
200907221315 METAR LMML 221315Z 02005KT 330V060 CAVOK 30/19 Q1019 NOSIG=
200907221300 METAR LMML NIL=
200907221245 METAR LMML 221245Z 19005KT 150V230 9999 FEW030 29/18 Q1018
                        NOSIG=
200907221230 METAR LMML NIL=
200907221215 METAR LMML 221215Z 21004KT 130V260 9999 FEW030 29/18 Q1018
                        NOSIG=
200907221200 METAR LMML NIL=
200907221145 METAR LMML 221145Z 20005KT 170V250 9999 FEW030 28/19 Q1019
                        NOSIG=
200907221130 METAR LMML NIL=
200907221115 METAR LMML 221115Z 17005KT 060V270 CAVOK 29/19 Q1019 NOSIG=
200907221100 METAR LMML NIL=
200907221045 METAR LMML 221045Z 10004KT 320V220 CAVOK 29/19 Q1019 NOSIG=
200907221030 METAR LMML NIL=
200907221015 METAR LMML 221015Z 06005KT 360V150 CAVOK 29/19 Q1019 NOSIG=
200907221000 METAR LMML NIL=
200907220945 METAR LMML 220945Z 04005KT 300V110 CAVOK 29/19 Q1019 NOSIG=
200907220930 METAR LMML NIL=
200907220915 METAR COR LMML 220915Z 02004KT 350V060 CAVOK 30/18 Q1019
                        NOSIG=
200907220900 METAR LMML NIL=
200907220845 METAR LMML 220845Z 03004KT 350V100 CAVOK 29/18 Q1019 NOSIG=
200907220830 METAR LMML NIL=
200907220815 METAR LMML 220815Z 04004KT 360V080 CAVOK 28/19 Q1019 NOSIG=
200907220800 METAR LMML NIL=
200907220745 METAR LMML 220745Z VRB03KT CAVOK 28/18 Q1019 NOSIG=
200907220730 METAR LMML NIL=
200907220715 METAR LMML 220715Z VRB02KT CAVOK 27/19 Q1019 NOSIG=
200907220700 METAR LMML NIL=
200907220645 METAR LMML 220645Z VRB02KT CAVOK 26/13 Q1019 NOSIG=
200907220630 METAR LMML NIL=
200907220615 METAR LMML 220615Z 00000KT CAVOK 25/14 Q1018 NOSIG=
200907220600 METAR LMML NIL=
200907220545 METAR LMML 220545Z VRB01KT CAVOK 23/17 Q1018 NOSIG=
200907220530 METAR LMML NIL=
200907220515 METAR LMML 220515Z VRB02KT CAVOK 22/17 Q1018 NOSIG=
200907220500 METAR LMML NIL=
200907220445 METAR LMML 220445Z VRB02KT CAVOK 20/17 Q1018 NOSIG=
200907220430 METAR LMML NIL=
200907220415 METAR LMML 220415Z VRB01KT CAVOK 20/17 Q1017 NOSIG=
200907220400 METAR LMML NIL=
200907220345 METAR LMML 220345Z VRB01KT CAVOK 19/16 Q1017 NOSIG=
200907220330 METAR LMML NIL=
200907220315 METAR LMML 220315Z VRB03KT CAVOK 19/16 Q1017 NOSIG=
200907220245 METAR LMML 220245Z VRB01KT CAVOK 19/17 Q1017 NOSIG=
200907220230 METAR LMML NIL=
200907220215 METAR LMML 220215Z 00000KT CAVOK 20/18 Q1017 NOSIG=
200907220200 METAR LMML NIL=
200907220145 METAR LMML 220145Z VRB01KT CAVOK 20/18 Q1017 NOSIG=
200907220130 METAR LMML NIL=
200907220115 METAR LMML 220115Z VRB03KT CAVOK 20/19 Q1018 NOSIG=
200907220100 METAR LMML NIL=
200907220045 METAR LMML 220045Z VRB02KT CAVOK 21/19 Q1018 NOSIG=
200907220030 METAR LMML NIL=
200907220015 METAR LMML 220015Z VRB03KT CAVOK 21/18 Q1018 NOSIG=
200907220000 METAR LMML NIL=
200907212345 METAR LMML 212345Z VRB02KT CAVOK 21/18 Q1018 NOSIG=
200907212330 METAR LMML NIL=
200907212315 METAR LMML 212315Z VRB02KT CAVOK 21/18 Q1018 NOSIG=
200907212245 METAR LMML 212245Z VRB02KT CAVOK 21/18 Q1019 NOSIG=
200907212230 METAR LMML NIL=
200907212215 METAR LMML 212215Z VRB03KT CAVOK 21/18 Q1019 NOSIG=
200907212200 METAR LMML NIL=
200907212145 METAR LMML 212145Z VRB02KT CAVOK 22/18 Q1019 NOSIG=
200907212130 METAR LMML NIL=
200907212115 METAR LMML 212115Z VRB01KT CAVOK 22/17 Q1019 NOSIG=
200907212045 METAR LMML 212045Z VRB02KT CAVOK 23/18 Q1019 NOSIG=
200907212030 METAR LMML NIL=
200907212015 METAR LMML 212015Z VRB03KT CAVOK 23/17 Q1019 NOSIG=
200907212000 METAR LMML NIL=
200907211945 METAR LMML 211945Z VRB02KT CAVOK 23/16 Q1019 NOSIG=
200907211930 METAR LMML NIL=
200907211915 METAR LMML 211915Z VRB02KT CAVOK 24/16 Q1018 NOSIG=
200907211845 METAR LMML 211845Z VRB02KT CAVOK 24/16 Q1018 NOSIG=
200907211830 METAR LMML NIL=
200907211815 METAR LMML 211815Z VRB02KT CAVOK 25/15 Q1018 NOSIG=
200907211800 METAR LMML NIL=
200907211745 METAR LMML 211745Z 24004KT 190V290 CAVOK 25/13 Q1018 NOSIG=
200907211715 METAR LMML 211715Z 24005KT 200V270 CAVOK 26/15 Q1018 NOSIG=
200907211700 METAR LMML NIL=
200907211645 METAR LMML 211645Z 24006KT 210V280 CAVOK 27/16 Q1018 NOSIG=
200907211630 METAR LMML NIL=
200907211615 METAR LMML 211615Z 22005KT 170V270 CAVOK 28/15 Q1018 NOSIG=
200907211600 METAR LMML NIL=
200907211545 METAR LMML 211545Z 21005KT 180V270 CAVOK 28/15 Q1018 NOSIG=
200907211515 METAR LMML 211515Z 23007KT 190V260 CAVOK 28/16 Q1018 NOSIG=
200907211500 METAR LMML NIL=
200907211445 METAR LMML 211445Z 21007KT 160V260 CAVOK 28/15 Q1018 NOSIG=
200907211430 METAR LMML NIL=
200907211415 METAR LMML 211415Z 24005KT 100V320 CAVOK 29/15 Q1018 NOSIG=
200907211400 METAR LMML NIL=
200907211345 METAR LMML 211345Z VRB03KT CAVOK 30/18 Q1019 NOSIG=
200907211330 METAR LMML NIL=
200907211315 METAR LMML 211315Z VRB03KT CAVOK 31/18 Q1019 NOSIG=
200907211245 METAR LMML 211245Z 10004KT 020V180 CAVOK 29/18 Q1019 NOSIG=
200907211230 METAR LMML NIL=
200907211215 METAR LMML 211215Z 04005KT 360V090 CAVOK 30/18 Q1019 NOSIG=
200907211200 METAR LMML NIL=
200907211145 METAR LMML 211145Z 03005KT 330V150 CAVOK 30/17 Q1019 NOSIG=
200907211130 METAR LMML NIL=
200907211115 METAR LMML 211115Z 04004KT 330V100 CAVOK 30/17 Q1019 NOSIG=
200907211100 METAR LMML NIL=
200907211045 METAR LMML 211045Z 04005KT 350V080 CAVOK 29/17 Q1020 NOSIG=
200907211030 METAR LMML NIL=
200907211015 METAR LMML 211015Z 03005KT 340V090 CAVOK 29/17 Q1020 NOSIG=
200907211000 METAR LMML NIL=
200907210945 METAR LMML 210945Z 01005G15KT 300V060 CAVOK 29/17 Q1020 NOSIG=
200907210930 METAR LMML NIL=
200907210915 METAR LMML 210915Z 04004KT 320V100 9999 FEW030 29/17 Q1020
                        NOSIG=
200907210900 METAR LMML NIL=
200907210845 METAR LMML 210845Z 09004KT CAVOK 27/18 Q1020 NOSIG=
200907210830 METAR LMML NIL=
200907210815 METAR LMML 210815Z 24004KT 170V300 9999 FEW015 26/19 Q1019
                        NOSIG=
200907210800 METAR LMML NIL=
200907210745 METAR LMML 210745Z VRB02KT CAVOK 26/17 Q1019 NOSIG=
200907210730 METAR LMML NIL=
200907210715 METAR LMML 210715Z VRB02KT CAVOK 25/16 Q1019 NOSIG=
200907210700 METAR LMML NIL=
200907210645 METAR LMML 210645Z VRB02KT 9999 FEW015 24/17 Q1019 NOSIG=
200907210630 METAR LMML NIL=
200907210615 METAR LMML 210615Z VRB02KT CAVOK 23/17 Q1019 NOSIG=
200907210600 METAR LMML NIL=
200907210545 METAR LMML 210545Z VRB02KT CAVOK 22/17 Q1019 NOSIG=
200907210530 METAR LMML NIL=
200907210515 METAR LMML 210515Z VRB01KT CAVOK 20/18 Q1019 NOSIG=
200907210500 METAR LMML NIL=
200907210445 METAR LMML 210445Z VRB01KT CAVOK 19/17 Q1018 NOSIG=
200907210430 METAR LMML NIL=
200907210415 METAR LMML 210415Z VRB02KT CAVOK 19/18 Q1018 NOSIG=
200907210400 METAR LMML NIL=
200907210345 METAR LMML 210345Z VRB03KT CAVOK 19/18 Q1018 NOSIG=
200907210330 METAR LMML NIL=
200907210315 METAR LMML 210315Z VRB03KT CAVOK 19/17 Q1018 NOSIG=
200907210300 METAR LMML NIL=
200907210245 METAR LMML 210245Z VRB01KT CAVOK 19/18 Q1018 NOSIG=
200907210215 METAR LMML 210215Z VRB01KT CAVOK 19/18 Q1018 NOSIG=
200907210200 METAR LMML NIL=
200907210145 METAR LMML 210145Z VRB02KT CAVOK 19/17 Q1018 NOSIG=
200907210130 METAR LMML NIL=
200907210115 METAR LMML 210115Z VRB01KT CAVOK 20/19 Q1018 NOSIG=
200907210100 METAR LMML NIL=
200907210045 METAR LMML 210045Z VRB01KT CAVOK 20/19 Q1018 NOSIG=
200907210030 METAR LMML NIL=
200907210015 METAR LMML 210015Z VRB02KT CAVOK 20/19 Q1019 NOSIG=
200907210000 METAR LMML NIL=
200907202345 METAR LMML 202345Z VRB03KT CAVOK 21/19 Q1019 NOSIG=
200907202330 METAR LMML NIL=
200907202315 METAR LMML 202315Z VRB03KT CAVOK 21/19 Q1019 NOSIG=
200907202300 METAR LMML NIL=
200907202245 METAR LMML 202245Z VRB02KT CAVOK 21/18 Q1019 NOSIG=
200907202230 METAR LMML NIL=
200907202215 METAR LMML 202215Z VRB03KT CAVOK 21/18 Q1019 NOSIG=
200907202200 METAR LMML NIL=
200907202145 METAR LMML 202145Z VRB03KT CAVOK 22/18 Q1019 NOSIG=
200907202130 METAR LMML NIL=
200907202115 METAR LMML 202115Z VRB02KT CAVOK 22/18 Q1019 NOSIG=
200907202100 METAR LMML NIL=
200907202045 METAR LMML 202045Z VRB03KT CAVOK 22/18 Q1019 NOSIG=
200907202030 METAR LMML NIL=
200907202015 METAR LMML 202015Z 34004KT CAVOK 22/18 Q1019 NOSIG=
200907202000 METAR LMML NIL=
200907201945 METAR LMML 201945Z 36004KT CAVOK 23/17 Q1019 NOSIG=
200907201930 METAR LMML NIL=
200907201915 METAR LMML 201915Z 36004KT 340V040 CAVOK 23/17 Q1019 NOSIG=
200907201900 METAR LMML NIL=
200907201845 METAR LMML 201845Z 02004KT 350V140 CAVOK 24/17 Q1019 NOSIG=
200907201830 METAR LMML NIL=
200907201815 METAR LMML 201815Z 01005KT CAVOK 24/18 Q1019 NOSIG=
200907201800 METAR LMML NIL=
200907201745 METAR LMML 201745Z 02004KT 350V090 CAVOK 25/18 Q1019 NOSIG=
200907201730 METAR LMML NIL=
200907201715 METAR LMML 201715Z VRB02KT CAVOK 26/19 Q1019 NOSIG=
200907201700 METAR LMML NIL=
200907201645 METAR LMML 201645Z VRB03KT 9999 FEW030 26/19 Q1018 NOSIG=
200907201630 METAR LMML NIL=
200907201615 METAR LMML 201615Z VRB03KT 9999 FEW030 27/18 Q1018 NOSIG=
200907201600 METAR LMML NIL=
200907201545 METAR LMML 201545Z VRB02KT 9999 FEW030 27/18 Q1019 NOSIG=
200907201530 METAR LMML NIL=
200907201515 METAR LMML 201515Z 13004KT 060V190 9999 FEW030 28/18 Q1019
                        NOSIG=
200907201500 METAR LMML NIL=
200907201445 METAR LMML 201445Z 16005KT 060V230 9999 FEW030 27/18 Q1019
                        NOSIG=
200907201430 METAR LMML NIL=
200907201415 METAR LMML 201415Z 11004KT 010V180 9999 FEW020 28/18 Q1019
                        NOSIG=
200907201400 METAR LMML NIL=
200907201330 METAR LMML NIL=
200907201315 METAR LMML 201315Z 11006KT 060V190 9999 FEW015 28/18 Q1019
                        NOSIG=
200907201300 METAR LMML NIL=
200907201230 METAR LMML NIL=
200907201215 METAR LMML 201215Z 13005KT 070V230 9999 FEW000 27/17 Q1020
                        NOSIG=
200907201200 METAR LMML NIL=
200907201145 METAR LMML 201145Z 13007KT 080V180 9999 FEW017 27/18 Q1020
                        NOSIG=
200907201130 METAR LMML NIL=
200907201115 METAR LMML 201115Z 12008KT 080V150 9999 FEW017 27/17 Q1020
                        NOSIG=
200907201100 METAR LMML NIL=
200907201045 METAR LMML 201045Z 12009KT 070V160 9999 FEW017 27/19 Q1020
                        NOSIG=
200907201030 METAR LMML NIL=
200907201015 METAR LMML 201015Z 07005KT 360V130 9999 FEW017 27/18 Q1020
                        NOSIG=
200907201000 METAR LMML NIL=
200907200945 METAR LMML 200945Z 09007KT 040V140 9999 FEW021 26/19 Q1020
                        NOSIG=
200907200930 METAR LMML NIL=
200907200915 METAR LMML 200915Z 12006KT 080V170 9999 FEW020 26/19 Q1020
                        NOSIG=
200907200900 METAR LMML NIL=
200907200845 METAR LMML 200845Z 12007KT 070V170 9999 FEW017 25/19 Q1020
                        NOSIG=
200907200830 METAR LMML NIL=
200907200815 METAR LMML 200815Z 11005KT 030V160 9999 FEW012 25/18 Q1020
                        NOSIG=
200907200800 METAR LMML NIL=
200907200745 METAR LMML 200745Z 14004KT 070V190 9999 FEW012 25/18 Q1020
                        NOSIG=
200907200730 METAR LMML NIL=
200907200715 METAR LMML 200715Z 08004KT 020V130 9999 FEW012 25/18 Q1020
                        NOSIG=
200907200700 METAR LMML NIL=
200907200645 METAR LMML 200645Z VRB03KT 9999 FEW012 25/18 Q1020 NOSIG=
200907200615 METAR LMML 200615Z 10004KT 060V140 9999 FEW012 23/18 Q1020
                        NOSIG=
200907200600 METAR LMML NIL=
200907200545 METAR LMML 200545Z VRB03KT 9999 FEW012 23/18 Q1019 NOSIG=
200907200515 METAR LMML 200515Z VRB01KT CAVOK 21/18 Q1019 NOSIG=
200907200500 METAR LMML NIL=
200907200445 METAR LMML 200445Z VRB01KT CAVOK 20/18 Q1019 NOSIG=
200907200430 METAR LMML NIL=
200907200415 METAR LMML 200415Z VRB01KT CAVOK 19/18 Q1019 NOSIG=
200907200345 METAR LMML 200345Z VRB01KT CAVOK 20/18 Q1018 NOSIG=
200907200315 METAR LMML 200315Z VRB01KT CAVOK 20/18 Q1018 NOSIG=
200907200245 METAR LMML 200245Z VRB03KT CAVOK 20/18 Q1018 NOSIG=
200907200230 METAR LMML NIL=
200907200215 METAR LMML 200215Z 22004KT 200V280 CAVOK 21/18 Q1018 NOSIG=
200907200200 METAR LMML NIL=
200907200145 METAR LMML 200145Z 24005KT 210V280 CAVOK 21/18 Q1018 NOSIG=
200907200130 METAR LMML NIL=
200907200115 METAR LMML 200115Z 24004KT 200V270 CAVOK 20/18 Q1018 NOSIG=
200907200100 METAR LMML NIL=
200907200045 METAR LMML 200045Z 26005KT CAVOK 21/18 Q1018 NOSIG=
200907200030 METAR LMML NIL=
200907200015 METAR LMML 200015Z VRB03KT CAVOK 21/18 Q1019 NOSIG=
200907200000 METAR LMML NIL=
200907192345 METAR LMML 192345Z 27005KT CAVOK 21/18 Q1019 NOSIG=
200907192330 METAR LMML NIL=
200907192315 METAR LMML 192315Z VRB03KT CAVOK 21/18 Q1019 NOSIG=
200907192300 METAR LMML NIL=
200907192245 METAR LMML 192245Z 27004KT 240V300 CAVOK 21/18 Q1019 NOSIG=
200907192230 METAR LMML NIL=
200907192215 METAR LMML 192215Z 28004KT CAVOK 21/18 Q1019 NOSIG=
200907192200 METAR LMML NIL=
200907192145 METAR LMML 192145Z 28004KT CAVOK 21/18 Q1019 NOSIG=
200907192130 METAR LMML NIL=
200907192115 METAR LMML 192115Z VRB02KT CAVOK 21/17 Q1019 NOSIG=
200907192100 METAR LMML NIL=
200907192045 METAR LMML 192045Z VRB02KT CAVOK 22/17 Q1019 NOSIG=
200907192030 METAR LMML NIL=
200907192015 METAR LMML 192015Z VRB03KT CAVOK 22/18 Q1019 NOSIG=
200907192000 METAR LMML NIL=
200907191945 METAR LMML 191945Z VRB03KT CAVOK 22/17 Q1019 NOSIG=
200907191930 METAR LMML NIL=
200907191915 METAR LMML 191915Z 31004KT CAVOK 23/17 Q1019 NOSIG=
200907191900 METAR LMML NIL=
200907191845 METAR LMML 191845Z 33005KT 300V360 CAVOK 23/17 Q1019 NOSIG=
200907191830 METAR LMML NIL=
200907191815 METAR LMML 191815Z 34007KT 300V360 CAVOK 23/18 Q1018 NOSIG=
200907191800 METAR LMML NIL=
200907191745 METAR LMML 191745Z 34009KT CAVOK 24/17 Q1018 NOSIG=
200907191730 METAR LMML NIL=
200907191715 METAR LMML 191715Z 34011KT CAVOK 25/17 Q1018 NOSIG=
200907191700 METAR LMML NIL=
200907191645 METAR LMML 191645Z 33010KT 9999 FEW030 25/15 Q1018 NOSIG=
200907191630 METAR LMML NIL=
200907191615 METAR LMML 191615Z 35011KT 9999 FEW030 26/13 Q1018 NOSIG=
200907191600 METAR LMML NIL=
200907191545 METAR LMML 191545Z 34010KT 310V010 9999 FEW030 27/14 Q1018
                        NOSIG=
200907191515 METAR LMML 191515Z 34012KT 310V010 9999 FEW030 27/14 Q1018
                        NOSIG=
200907191500 METAR LMML NIL=
200907191445 METAR LMML 191445Z 34011KT 9999 FEW030 27/13 Q1018 NOSIG=
200907191430 METAR LMML NIL=
200907191415 METAR LMML 191415Z 34011KT 300V020 CAVOK 28/14 Q1018 NOSIG=
200907191400 METAR LMML NIL=
200907191345 METAR LMML 191345Z 34010KT 310V010 CAVOK 28/14 Q1018 NOSIG=
200907191330 METAR LMML NIL=
200907191315 METAR LMML 191315Z 35009KT 310V030 CAVOK 28/12 Q1018 NOSIG=
200907191245 METAR LMML 191245Z 01007KT 330V050 9999 FEW025 29/12 Q1018
                        NOSIG=
200907191230 METAR LMML NIL=
200907191215 METAR LMML 191215Z 02007KT 330V060 CAVOK 29/12 Q1018 NOSIG=
200907191200 METAR LMML NIL=
200907191145 METAR LMML 191145Z 32005KT 150V030 CAVOK 28/11 Q1018 NOSIG=
200907191130 METAR LMML NIL=
200907191115 METAR LMML 191115Z 32007KT 270V010 CAVOK 28/11 Q1018 NOSIG=
200907191100 METAR LMML NIL=
200907191045 METAR LMML 191045Z 32009KT 280V360 9999 FEW025 27/13 Q1019
                        NOSIG=
200907191030 METAR LMML NIL=
200907191015 METAR LMML 191015Z 35009KT 310V020 9999 FEW025 26/14 Q1019
                        NOSIG=
200907191000 METAR LMML NIL=
200907190945 METAR LMML 190945Z 34011KT 310V010 9999 FEW025 26/13 Q1019
                        NOSIG=
200907190930 METAR LMML NIL=
200907190915 METAR LMML 190915Z 33011KT 310V010 CAVOK 26/14 Q1019 NOSIG=
200907190900 METAR LMML NIL=
200907190845 METAR LMML 190845Z 34013KT 310V010 9999 FEW025 26/15 Q1018
                        NOSIG=
200907190830 METAR LMML NIL=
200907190815 METAR LMML 190815Z 32012KT CAVOK 25/15 Q1018 NOSIG=
200907190800 METAR LMML NIL=
200907190745 METAR LMML 190745Z 33014KT 300V360 CAVOK 25/14 Q1018 NOSIG=
200907190730 METAR LMML NIL=
200907190715 METAR LMML 190715Z 33014KT 300V360 CAVOK 25/14 Q1018 NOSIG=
200907190700 METAR LMML NIL=
200907190645 METAR LMML 190645Z 33013KT 300V010 CAVOK 24/13 Q1018 NOSIG=
200907190630 METAR LMML NIL=
200907190615 METAR LMML 190615Z 33014KT CAVOK 24/15 Q1018 NOSIG=
200907190600 METAR LMML NIL=
200907190545 METAR LMML 190545Z 33013KT CAVOK 23/15 Q1017 NOSIG=
200907190530 METAR LMML NIL=
200907190515 METAR LMML 190515Z 33012KT 290V350 CAVOK 22/15 Q1017 NOSIG=
200907190500 METAR LMML NIL=
200907190445 METAR LMML 190445Z 32012KT 280V340 CAVOK 21/15 Q1017 NOSIG=
200907190430 METAR LMML NIL=
200907190415 METAR LMML 190415Z 33012KT CAVOK 21/15 Q1017 NOSIG=
200907190345 METAR LMML 190345Z 32012KT CAVOK 21/15 Q1016 NOSIG=
200907190315 METAR LMML 190315Z 33012KT CAVOK 21/15 Q1016 NOSIG=
200907190300 METAR LMML NIL=
200907190245 METAR LMML 190245Z 32011KT CAVOK 21/15 Q1016 NOSIG=
200907190230 METAR LMML NIL=
200907190215 METAR LMML 190215Z 31012KT CAVOK 21/15 Q1016 NOSIG=
200907190200 METAR LMML NIL=
200907190145 METAR LMML 190145Z 31013KT CAVOK 21/15 Q1016 NOSIG=
200907190130 METAR LMML NIL=
200907190115 METAR LMML 190115Z 32013KT CAVOK 22/15 Q1016 NOSIG=
200907190100 METAR LMML NIL=
200907190045 METAR LMML 190045Z 32012KT CAVOK 22/15 Q1017 NOSIG=
200907190030 METAR LMML NIL=
200907190015 METAR LMML 190015Z 32011KT CAVOK 22/16 Q1017 NOSIG=
200907190000 METAR LMML NIL=
200907182345 METAR LMML 182345Z 31014KT CAVOK 22/16 Q1016 NOSIG=
200907182330 METAR LMML NIL=
200907182315 METAR LMML 182315Z 31014KT CAVOK 22/16 Q1016 NOSIG=
200907182300 METAR LMML NIL=
200907182245 METAR LMML 182245Z 31017KT CAVOK 22/15 Q1017 NOSIG=
200907182230 METAR LMML NIL=
200907182215 METAR LMML 182215Z 31014KT CAVOK 22/15 Q1017 NOSIG=
200907182200 METAR LMML NIL=
200907182145 METAR LMML 182145Z 31015KT CAVOK 22/16 Q1017 NOSIG=
200907182130 METAR LMML NIL=
200907182115 METAR LMML 182115Z 31016KT CAVOK 22/17 Q1017 NOSIG=
200907182100 METAR LMML NIL=
200907182045 METAR LMML 182045Z 31019KT CAVOK 22/17 Q1016 NOSIG=
200907182030 METAR LMML NIL=
200907182015 METAR LMML 182015Z 30019KT CAVOK 23/17 Q1016 NOSIG=
200907182000 METAR LMML NIL=
200907181945 METAR LMML 181945Z 30018KT CAVOK 23/16 Q1016 NOSIG=
200907181930 METAR LMML NIL=
200907181915 METAR LMML 181915Z 30019KT CAVOK 24/15 Q1016 NOSIG=
200907181900 METAR LMML NIL=
200907181845 METAR LMML 181845Z 30019KT CAVOK 24/14 Q1015 NOSIG=
200907181830 METAR LMML NIL=
200907181815 METAR LMML 181815Z 30021KT CAVOK 25/14 Q1015 NOSIG=
200907181800 METAR LMML NIL=
200907181745 METAR LMML 181745Z 30023KT CAVOK 25/15 Q1015 NOSIG=
200907181730 METAR LMML NIL=
200907181715 METAR LMML 181715Z 30021KT CAVOK 26/15 Q1014 NOSIG=
200907181700 METAR LMML NIL=
200907181645 METAR LMML 181645Z 30020KT CAVOK 27/14 Q1014 NOSIG=
200907181630 METAR LMML NIL=
200907181615 METAR LMML 181615Z 30021KT CAVOK 27/17 Q1014 NOSIG=
200907181600 METAR LMML NIL=
200907181545 METAR LMML 181545Z 30021KT CAVOK 28/19 Q1014 NOSIG=
200907181530 METAR LMML NIL=
200907181515 METAR LMML 181515Z 30022KT 9999 FEW017 27/21 Q1014 NOSIG=
200907181500 METAR LMML NIL=
200907181445 METAR LMML 181445Z 30022KT 9999 FEW017 28/21 Q1014 TEMPO
                        30020G30KT=
200907181430 METAR LMML NIL=
200907181415 METAR LMML 181415Z 30024KT 9999 FEW017 28/21 Q1014 TEMPO
                        30020G30KT=
200907181400 METAR LMML NIL=
200907181345 METAR LMML 181345Z 30022KT 9999 FEW017 29/20 Q1014 TEMPO
                        30020G30KT=
200907181330 METAR LMML NIL=
200907181315 METAR LMML 181315Z 30021KT 260V330 9999 FEW017 29/21 Q1014
                        TEMPO 30020G30KT=
200907181300 METAR LMML NIL=
200907181245 METAR LMML 181245Z 30020KT 260V320 9999 FEW017 29/21 Q1014
                        TEMPO 30020G30KT=
200907181230 METAR LMML NIL=
200907181215 METAR LMML 181215Z 30021KT 9999 FEW017 29/21 Q1014 TEMPO
                        30020G30KT=
200907181200 METAR LMML NIL=
200907181145 METAR LMML 181145Z 29017KT 9999 FEW017 29/21 Q1014 TEMPO
                        30020G30KT=
200907181130 METAR LMML NIL=
200907181115 METAR LMML 181115Z 29017KT 250V320 9999 FEW017 29/21 Q1014
                        TEMPO 30020G30KT=
200907181100 METAR LMML NIL=
200907181045 METAR LMML 181045Z 29017KT 260V320 9999 FEW017 29/21 Q1014
                        TEMPO 30020G30KT=
200907181030 METAR LMML NIL=
200907181015 METAR LMML 181015Z 29019KT 250V320 9999 FEW017 29/21 Q1014
                        TEMPO 30020G30KT=
200907181000 METAR LMML NIL=
200907180945 METAR LMML 180945Z 30019KT 270V330 9999 FEW017 28/21 Q1014
                        TEMPO 30025G30KT=
200907180930 METAR LMML NIL=
200907180915 METAR LMML 180915Z 30018KT 270V330 9000 FEW019 28/21 Q1014
                        TEMPO 30025G30KT=
200907180900 METAR LMML NIL=
200907180845 METAR LMML 180845Z 30022KT 9000 FEW017 27/21 Q1015 TEMPO
                        30025G30KT=
200907180830 METAR LMML NIL=
200907180815 METAR LMML 180815Z 30022KT 270V330 8000 SCT015 27/20 Q1014
                        TEMPO 30025G30KT=
200907180804 SPECI LMML 180804Z 30023KT 8000 SCT015 26/21 Q1014 TEMPO
                        30025G30KT=
200907180745 METAR LMML 180745Z 30021KT 270V330 7000 BKN015 26/21 Q1014
                        BECMG 9999 SCT018=
200907180730 METAR LMML NIL=
200907180715 METAR LMML 180715Z 30020KT 7000 SCT015 26/21 Q1014 BECMG
                        9999=
200907180700 METAR LMML NIL=
200907180645 METAR LMML 180645Z 31020KT 7000 SCT013 26/21 Q1014 BECMG
                        9999=
200907180630 METAR LMML NIL=
200907180615 METAR LMML 180615Z 30015KT 270V330 7000 FEW007 25/21 Q1014
                        BECMG 9999=
200907180600 METAR LMML NIL=
200907180545 METAR LMML 180545Z 32013KT 7000 FEW007 25/21 Q1013 BECMG
                        9999=
200907180530 METAR LMML NIL=
200907180515 METAR LMML 180515Z 32012KT 7000 FEW007 24/21 Q1013 BECMG
                        9999=
200907180500 METAR LMML NIL=
200907180445 METAR LMML 180445Z 32012KT 7000 FEW007 23/21 Q1013 BECMG
                        9999=
200907180430 METAR LMML NIL=
200907180415 METAR LMML 180415Z 32011KT 290V350 6000 FEW008 23/21 Q1013
                        NOSIG=
200907180400 METAR LMML NIL=
200907180345 METAR LMML 180345Z 31008KT 280V340 9999 FEW007 24/22 Q1013
                        NOSIG=
200907180330 METAR LMML NIL=
200907180315 METAR LMML 180315Z 31009KT 280V340 9999 SCT008 24/22 Q1013
                        TEMPO BKN007=
200907180300 METAR LMML NIL=
200907180245 METAR LMML 180245Z 31006KT 280V340 9999 SCT007 24/22 Q1013
                        TEMPO BKN007=
200907180230 METAR LMML NIL=
200907180215 METAR LMML 180215Z 32010KT 9999 SCT008 24/22 Q1013 NOSIG=
200907180200 METAR LMML NIL=
200907180145 METAR LMML 180145Z 30009KT 270V330 9999 BKN008 24/22 Q1013
                        NOSIG=
200907180130 METAR LMML NIL=
200907180115 METAR LMML 180115Z 27004KT 230V320 9999 FEW009 24/22 Q1013
                        NOSIG=
200907180045 METAR LMML 180045Z 26006KT 230V300 9999 FEW015 24/22 Q1013
                        NOSIG=
200907180030 METAR LMML NIL=
200907180015 METAR LMML 180015Z 25007KT 200V290 CAVOK 24/22 Q1013 TEMPO
                        9999 FEW012=
200907180000 METAR LMML NIL=
200907172345 METAR LMML 172345Z 27005KT 240V300 CAVOK 24/22 Q1013 TEMPO
                        9999 FEW012=
200907172330 METAR LMML NIL=
200907172315 METAR LMML 172315Z 27005KT 240V310 CAVOK 25/22 Q1014 TEMPO
                        9999 FEW012=
200907172300 METAR LMML NIL=
200907172245 METAR LMML 172245Z 27008KT CAVOK 25/22 Q1014 TEMPO 9999 FEW012=
200907172230 METAR LMML NIL=
200907172215 METAR LMML 172215Z 27007KT 230V300 CAVOK 25/21 Q1014 TEMPO
                        9999 FEW012=
200907172200 METAR LMML NIL=
200907172145 METAR LMML 172145Z 27005KT 230V310 CAVOK 25/20 Q1014 TEMPO
                        9999 FEW012=
200907172115 METAR LMML 172115Z 27005KT 240V300 CAVOK 25/21 Q1014 TEMPO
                        9999 FEW012=
200907172045 METAR LMML 172045Z 25004KT 210V280 CAVOK 25/21 Q1014 TEMPO
                        9999 FEW012=
200907172030 METAR LMML NIL=
200907172015 METAR LMML 172015Z 25005KT 220V290 CAVOK 25/21 Q1014 TEMPO
                        9999 FEW012=
200907172000 METAR LMML NIL=
200907171945 METAR LMML 171945Z 24005KT 220V290 CAVOK 25/22 Q1014 NOSIG=
200907171930 METAR LMML NIL=
200907171915 METAR LMML 171915Z 23005KT 200V270 CAVOK 25/22 Q1014 NOSIG=
200907171900 METAR LMML NIL=
200907171845 METAR LMML 171845Z 24006KT 210V280 CAVOK 25/21 Q1014 NOSIG=
200907171830 METAR LMML NIL=
200907171815 METAR LMML 171815Z 25008KT 220V290 CAVOK 26/21 Q1014 NOSIG=
200907171800 METAR LMML NIL=
200907171745 METAR LMML 171745Z 24007KT 200V290 CAVOK 27/20 Q1014 NOSIG=
200907171730 METAR LMML NIL=
200907171715 METAR LMML 171715Z 24008KT 210V280 CAVOK 28/19 Q1014 NOSIG=
200907171700 METAR LMML NIL=
200907171645 METAR LMML 171645Z 26007KT CAVOK 29/17 Q1014 NOSIG=
200907171630 METAR LMML NIL=
200907171615 METAR LMML 171615Z 26008KT 220V300 CAVOK 30/14 Q1014 NOSIG=
200907171545 METAR LMML 171545Z 26010KT 220V290 CAVOK 30/14 Q1014 NOSIG=
200907171530 METAR LMML NIL=
200907171515 METAR LMML 171515Z 26009KT 220V300 CAVOK 31/13 Q1014 NOSIG=
200907171500 METAR LMML NIL=
200907171445 METAR LMML 171445Z 27010KT 210V320 CAVOK 31/14 Q1015 NOSIG=
200907171430 METAR LMML NIL=
200907171415 METAR LMML 171415Z 25009KT 200V290 CAVOK 31/13 Q1015 NOSIG=
200907171400 METAR LMML NIL=
200907171345 METAR LMML 171345Z 24009KT 190V280 CAVOK 32/15 Q1015 NOSIG=
200907171330 METAR LMML NIL=
200907171315 METAR LMML 171315Z 23009KT 200V270 CAVOK 31/18 Q1015 NOSIG=
200907171300 METAR LMML NIL=
200907171245 METAR LMML 171245Z 23007KT 190V300 CAVOK 31/17 Q1015 NOSIG=
200907171230 METAR LMML NIL=
200907171215 METAR LMML 171215Z 23009KT 180V280 CAVOK 33/14 Q1015 NOSIG=
200907171145 METAR LMML 171145Z 28005KT 220V340 CAVOK 34/10 Q1015 NOSIG=
200907171130 METAR LMML NIL=
200907171115 METAR LMML 171115Z 27006KT 210V340 CAVOK 33/09 Q1015 NOSIG=
200907171100 METAR LMML NIL=
200907171045 METAR LMML 171045Z 30007KT 250V340 CAVOK 33/11 Q1016 NOSIG=
200907171030 METAR LMML NIL=
200907171015 METAR LMML 171015Z 32006KT 270V020 CAVOK 33/11 Q1016 NOSIG=
200907171000 METAR LMML NIL=
200907170945 METAR LMML 170945Z 30006KT 260V340 CAVOK 32/12 Q1016 NOSIG=
200907170930 METAR LMML NIL=
200907170915 METAR LMML 170915Z 30007KT 250V350 CAVOK 32/12 Q1016 NOSIG=
200907170900 METAR LMML NIL=
200907170845 METAR LMML 170845Z 33004KT 250V040 CAVOK 32/13 Q1016 NOSIG=
200907170830 METAR LMML NIL=
200907170815 METAR LMML 170815Z 34004KT CAVOK 31/15 Q1016 NOSIG=
200907170800 METAR LMML NIL=
200907170745 METAR LMML 170745Z 33004KT 260V020 CAVOK 30/14 Q1016 NOSIG=
200907170730 METAR LMML NIL=
200907170715 METAR LMML 170715Z 31007KT 280V340 CAVOK 29/15 Q1016 NOSIG=
200907170700 METAR LMML NIL=
200907170645 METAR LMML 170645Z 33006KT 290V010 CAVOK 29/15 Q1016 NOSIG=
200907170630 METAR LMML NIL=
200907170615 METAR LMML 170615Z 31006KT CAVOK 28/15 Q1016 NOSIG=
200907170600 METAR LMML NIL=
200907170545 METAR LMML 170545Z 31006KT CAVOK 26/18 Q1016 NOSIG=
200907170530 METAR LMML NIL=
200907170515 METAR LMML 170515Z 30006KT CAVOK 26/18 Q1016 NOSIG=
200907170500 METAR LMML NIL=
200907170445 METAR LMML 170445Z 30005KT CAVOK 24/15 Q1015 NOSIG=
200907170430 METAR LMML NIL=
200907170415 METAR LMML 170415Z VRB03KT CAVOK 23/15 Q1016 NOSIG=
200907170400 METAR LMML NIL=
200907170345 METAR LMML 170345Z 30004KT CAVOK 24/14 Q1015 NOSIG=
200907170315 METAR LMML 170315Z 31005KT CAVOK 24/14 Q1015 NOSIG=
200907170300 METAR LMML NIL=
200907170245 METAR LMML 170245Z VRB03KT CAVOK 24/16 Q1015 NOSIG=
200907170230 METAR LMML NIL=
200907170215 METAR LMML 170215Z 29004KT CAVOK 24/15 Q1015 NOSIG=
200907170200 METAR LMML NIL=
200907170145 METAR LMML 170145Z 28005KT 250V310 CAVOK 25/14 Q1016 NOSIG=
200907170130 METAR LMML NIL=
200907170115 METAR LMML 170115Z 27004KT 240V300 CAVOK 25/13 Q1016 NOSIG=
200907170100 METAR LMML NIL=
200907170045 METAR LMML 170045Z 28004KT CAVOK 25/13 Q1016 NOSIG=
200907170030 METAR LMML NIL=
200907170015 METAR LMML 170015Z VRB03KT CAVOK 25/09 Q1016 NOSIG=
200907170000 METAR LMML NIL=
200907162345 METAR LMML 162345Z VRB03KT CAVOK 25/11 Q1016 NOSIG=
200907162330 METAR LMML NIL=
200907162315 METAR LMML 162315Z 27004KT CAVOK 24/12 Q1016 NOSIG=
200907162300 METAR LMML NIL=
200907162245 METAR LMML 162245Z VRB02KT CAVOK 24/12 Q1016 NOSIG=
200907162230 METAR LMML NIL=
200907162215 METAR LMML 162215Z VRB02KT CAVOK 25/13 Q1017 NOSIG=
200907162200 METAR LMML NIL=
200907162145 METAR LMML 162145Z VRB01KT CAVOK 25/13 Q1017 NOSIG=
200907162130 METAR LMML NIL=
200907162115 METAR LMML 162115Z VRB01KT CAVOK 25/15 Q1017 NOSIG=
200907162100 METAR LMML NIL=
200907162045 METAR LMML 162045Z VRB03KT CAVOK 26/15 Q1017 NOSIG=
200907162015 METAR LMML 162015Z 33004KT CAVOK 26/15 Q1017 NOSIG=
200907162000 METAR LMML NIL=
200907161945 METAR LMML 161945Z VRB02KT CAVOK 27/16 Q1017 NOSIG=
200907161930 METAR LMML NIL=
200907161915 METAR LMML 161915Z VRB02KT CAVOK 27/15 Q1017 NOSIG=
200907161900 METAR LMML NIL=
200907161845 METAR LMML 161845Z 32004KT CAVOK 27/16 Q1017 NOSIG=
200907161830 METAR LMML NIL=
200907161815 METAR LMML 161815Z VRB01KT CAVOK 28/18 Q1017 NOSIG=
200907161800 METAR LMML NIL=
200907161745 METAR LMML 161745Z VRB03KT CAVOK 28/19 Q1017 NOSIG=
200907161730 METAR LMML NIL=
200907161715 METAR LMML 161715Z 13004KT CAVOK 30/18 Q1017 NOSIG=
200907161700 METAR LMML NIL=
200907161645 METAR LMML 161645Z 13004KT CAVOK 30/18 Q1017 NOSIG=
200907161630 METAR LMML NIL=
200907161615 METAR LMML 161615Z 13005KT 090V160 CAVOK 30/17 Q1017 NOSIG=
200907161600 METAR LMML NIL=
200907161545 METAR LMML 161545Z 13005KT 080V160 CAVOK 31/17 Q1017 NOSIG=
200907161530 METAR LMML NIL=
200907161515 METAR LMML 161515Z 13006KT 080V200 CAVOK 32/17 Q1017 NOSIG=
200907161445 METAR LMML 161445Z 12004KT 060V160 CAVOK 32/16 Q1017 NOSIG=
200907161430 METAR LMML NIL=
200907161415 METAR LMML 161415Z 11005KT 060V160 CAVOK 32/16 Q1017 NOSIG=
200907161400 METAR LMML NIL=
200907161345 METAR LMML 161345Z 13006KT 070V180 CAVOK 32/17 Q1018 NOSIG=
200907161330 METAR LMML NIL=
200907161315 METAR LMML 161315Z 12007KT 050V190 CAVOK 33/17 Q1018 NOSIG=
200907161245 METAR LMML 161245Z VRB03KT CAVOK 34/15 Q1018 NOSIG=
200907161230 METAR LMML NIL=
200907161215 METAR LMML 161215Z 25004KT CAVOK 34/16 Q1018 NOSIG=
200907161200 METAR LMML NIL=
200907161145 METAR LMML 161145Z 34004KT 270V050 CAVOK 34/15 Q1018 NOSIG=
200907161130 METAR LMML NIL=
200907161115 METAR LMML 161115Z 02005KT 300V090 CAVOK 34/15 Q1018 NOSIG=
200907161045 METAR LMML 161045Z 03005KT 330V080 CAVOK 33/15 Q1018 NOSIG=
200907161030 METAR LMML NIL=
200907161015 METAR LMML 161015Z VRB03KT CAVOK 32/15 Q1019 NOSIG=
200907161000 METAR LMML NIL=
200907160945 METAR LMML 160945Z 35005KT 290V050 CAVOK 32/14 Q1019 NOSIG=
200907160915 METAR LMML 160915Z 34006KT 290V030 CAVOK 31/14 Q1019 NOSIG=
200907160900 METAR LMML NIL=
200907160845 METAR LMML 160845Z 33008KT 300V360 CAVOK 30/14 Q1019 NOSIG=
200907160830 METAR LMML NIL=
200907160815 METAR LMML 160815Z 34008KT CAVOK 30/13 Q1019 NOSIG=
200907160800 METAR LMML NIL=
200907160745 METAR LMML 160745Z 33007KT 300V040 CAVOK 29/12 Q1019 NOSIG=
200907160730 METAR LMML NIL=
200907160715 METAR LMML 160715Z 34008KT CAVOK 29/13 Q1019 NOSIG=
200907160700 METAR LMML NIL=
200907160645 METAR LMML 160645Z 33008KT CAVOK 28/13 Q1018 NOSIG=
200907160630 METAR LMML NIL=
200907160615 METAR LMML 160615Z 33006KT CAVOK 27/14 Q1018 NOSIG=
200907160600 METAR LMML NIL=
200907160545 METAR LMML 160545Z 32005KT CAVOK 26/14 Q1018 NOSIG=
200907160530 METAR LMML NIL=
200907160515 METAR LMML 160515Z 33004KT CAVOK 25/15 Q1018 NOSIG=
200907160500 METAR LMML NIL=
200907160445 METAR LMML 160445Z 32004KT CAVOK 24/15 Q1018 NOSIG=
200907160430 METAR LMML NIL=
200907160415 METAR LMML 160415Z VRB03KT CAVOK 23/14 Q1018 NOSIG=
200907160400 METAR LMML NIL=
200907160345 METAR LMML 160345Z 31006KT CAVOK 23/14 Q1018 NOSIG=
200907160330 METAR LMML NIL=
200907160315 METAR LMML 160315Z 32006KT CAVOK 23/13 Q1018 NOSIG=
200907160300 METAR LMML NIL=
200907160245 METAR LMML 160245Z 32004KT CAVOK 23/13 Q1018 NOSIG=
200907160230 METAR LMML NIL=
200907160215 METAR LMML 160215Z 31005KT CAVOK 23/13 Q1018 NOSIG=
200907160200 METAR LMML NIL=
200907160145 METAR LMML 160145Z VRB03KT CAVOK 24/13 Q1018 NOSIG=
200907160130 METAR LMML NIL=
200907160115 METAR LMML 160115Z VRB03KT CAVOK 24/13 Q1018 NOSIG=
200907160100 METAR LMML NIL=
200907160045 METAR LMML 160045Z 30004KT CAVOK 23/14 Q1018 NOSIG=
200907160030 METAR LMML NIL=
200907160015 METAR LMML 160015Z 30004KT CAVOK 24/16 Q1018 NOSIG=
200907160000 METAR LMML NIL=
200907152345 METAR LMML 152345Z 32004KT CAVOK 24/16 Q1018 NOSIG=
200907152330 METAR LMML NIL=
200907152315 METAR LMML 152315Z 32005KT CAVOK 24/16 Q1019 NOSIG=
200907152300 METAR LMML NIL=
200907152245 METAR LMML 152245Z 32004KT CAVOK 24/17 Q1019 NOSIG=
200907152230 METAR LMML NIL=
200907152215 METAR LMML 152215Z 30004KT CAVOK 24/17 Q1019 NOSIG=
200907152200 METAR LMML NIL=
200907152145 METAR LMML 152145Z 32005KT CAVOK 24/18 Q1019 NOSIG=
200907152130 METAR LMML NIL=
200907152115 METAR LMML 152115Z 32005KT CAVOK 24/18 Q1019 NOSIG=
200907152100 METAR LMML NIL=
200907152045 METAR LMML 152045Z 33005KT CAVOK 24/18 Q1019 NOSIG=
200907152030 METAR LMML NIL=
200907152015 METAR LMML 152015Z 33005KT CAVOK 25/18 Q1019 NOSIG=
200907152000 METAR LMML NIL=
200907151945 METAR LMML 151945Z 34007KT 250V360 CAVOK 25/17 Q1019 NOSIG=
200907151930 METAR LMML NIL=
200907151915 METAR LMML 151915Z 34007KT CAVOK 25/17 Q1019 NOSIG=
200907151900 METAR LMML NIL=
200907151845 METAR LMML 151845Z 34006KT 310V010 CAVOK 26/15 Q1019 NOSIG=
200907151830 METAR LMML NIL=
200907151815 METAR LMML 151815Z 35006KT 320V020 CAVOK 26/19 Q1019 NOSIG=
200907151800 METAR LMML NIL=
200907151745 METAR LMML 151745Z 02004KT 240V150 CAVOK 28/19 Q1018 NOSIG=
200907151730 METAR LMML NIL=
200907151715 METAR LMML 151715Z VRB03KT CAVOK 29/19 Q1018 NOSIG=
200907151700 METAR LMML NIL=
200907151645 METAR LMML 151645Z VRB03KT CAVOK 29/18 Q1018 NOSIG=
200907151630 METAR LMML NIL=
200907151615 METAR LMML 151615Z 36004KT 320V060 CAVOK 30/16 Q1018 NOSIG=
200907151600 METAR LMML NIL=
200907151545 METAR LMML 151545Z 04004KT 330V080 CAVOK 31/16 Q1018 NOSIG=
200907151530 METAR LMML NIL=
200907151515 METAR LMML 151515Z 03004KT 350V080 CAVOK 31/15 Q1018 NOSIG=
200907151500 METAR LMML NIL=
200907151445 METAR LMML 151445Z VRB03KT 9999 FEW020 30/17 Q1018 NOSIG=
200907151430 METAR LMML NIL=
200907151415 METAR LMML 151415Z 20006KT 170V260 9999 FEW020 30/17 Q1019
                        NOSIG=
200907151400 METAR LMML NIL=
200907151345 METAR LMML 151345Z 21005KT 160V290 CAVOK 30/15 Q1018 NOSIG=
200907151330 METAR LMML NIL=
200907151315 METAR LMML 151315Z 17005KT 110V240 CAVOK 30/15 Q1019 NOSIG=
200907151300 METAR LMML NIL=
200907151245 METAR LMML 151245Z 20005KT 130V280 CAVOK 31/14 Q1019 NOSIG=
200907151230 METAR LMML NIL=
200907151215 METAR LMML 151215Z 16006KT 090V260 CAVOK 30/14 Q1019 NOSIG=
200907151200 METAR LMML NIL=
200907151145 METAR LMML 151145Z 16005KT 090V230 CAVOK 31/13 Q1019 NOSIG=
200907151115 METAR LMML 151115Z 13006KT 070V170 CAVOK 31/11 Q1019 NOSIG=
200907151100 METAR LMML NIL=
200907151045 METAR LMML 151045Z 14006KT 080V190 CAVOK 32/11 Q1019 NOSIG=
200907151030 METAR LMML NIL=
200907151015 METAR LMML 151015Z 14006KT 090V190 CAVOK 31/12 Q1019 NOSIG=
200907151000 METAR LMML NIL=
200907150945 METAR LMML 150945Z 11006KT 060V170 CAVOK 31/12 Q1019 NOSIG=
200907150930 METAR LMML NIL=
200907150915 METAR LMML 150915Z 10005KT 050V160 CAVOK 31/11 Q1019 NOSIG=
200907150900 METAR LMML NIL=
200907150845 METAR LMML 150845Z 04004KT 340V090 CAVOK 31/13 Q1019 NOSIG=
200907150830 METAR LMML NIL=
200907150815 METAR LMML 150815Z VRB03KT CAVOK 30/14 Q1019 NOSIG=
200907150800 METAR LMML NIL=
200907150745 METAR LMML 150745Z 03004KT 340V100 CAVOK 30/13 Q1019 NOSIG=
200907150730 METAR LMML NIL=
200907150715 METAR LMML 150715Z 04004KT CAVOK 29/16 Q1019 NOSIG=
200907150700 METAR LMML NIL=
200907150645 METAR LMML 150645Z VRB03KT CAVOK 28/18 Q1019 NOSIG=
200907150630 METAR LMML NIL=
200907150615 METAR COR LMML 150615Z VRB02KT 9000 NSC 26/21 Q1019 BECMG
                        9999=
200907150600 METAR LMML NIL=
200907150545 METAR LMML 150545Z VRB02KT 7000 NSC 24/22 Q1019 NOSIG=
200907150530 METAR LMML NIL=
200907150515 METAR LMML 150515Z VRB03KT 7000 FEW012 23/22 Q1019 NOSIG=
200907150500 METAR LMML NIL=
200907150445 METAR LMML 150445Z VRB03KT 7000 FEW012 22/21 Q1019 NOSIG=
200907150430 METAR LMML NIL=
200907150415 METAR LMML 150415Z VRB02KT 7000 FEW012 21/20 Q1019 NOSIG=
200907150400 METAR LMML NIL=
200907150345 METAR LMML 150345Z VRB01KT 7000 FEW012 21/20 Q1018 NOSIG=
200907150330 METAR LMML NIL=
200907150315 METAR LMML 150315Z VRB02KT 9000 FEW012 21/20 Q1018 NOSIG=
200907150245 METAR LMML 150245Z VRB03KT 9000 FEW012 21/19 Q1018 NOSIG=
200907150230 METAR LMML NIL=
200907150215 METAR LMML 150215Z VRB02KT CAVOK 21/19 Q1018 NOSIG=
200907150200 METAR LMML NIL=
200907150145 METAR LMML 150145Z VRB03KT CAVOK 22/19 Q1018 NOSIG=
200907150130 METAR LMML NIL=
200907150115 METAR LMML 150115Z VRB02KT CAVOK 22/19 Q1018 NOSIG=
200907150100 METAR LMML NIL=
200907150045 METAR LMML 150045Z 30004KT CAVOK 22/19 Q1018 NOSIG=
200907150030 METAR LMML NIL=
200907150015 METAR LMML 150015Z VRB03KT CAVOK 22/18 Q1018 NOSIG=
200907150000 METAR LMML NIL=
200907142345 METAR LMML 142345Z VRB03KT CAVOK 22/18 Q1018 NOSIG=
200907142330 METAR LMML NIL=
200907142315 METAR LMML 142315Z VRB01KT CAVOK 23/18 Q1018 NOSIG=
200907142300 METAR LMML NIL=
200907142245 METAR LMML 142245Z VRB02KT CAVOK 23/18 Q1019 NOSIG=
200907142230 METAR LMML NIL=
200907142215 METAR LMML 142215Z VRB02KT CAVOK 23/19 Q1018 NOSIG=
200907142200 METAR LMML NIL=
200907142145 METAR LMML 142145Z VRB03KT CAVOK 23/19 Q1018 NOSIG=
200907142130 METAR LMML NIL=
200907142115 METAR LMML 142115Z 00000KT CAVOK 24/19 Q1018 NOSIG=
200907142100 METAR LMML NIL=
200907142045 METAR LMML 142045Z VRB03KT CAVOK 24/19 Q1018 NOSIG=
200907142030 METAR LMML NIL=
200907142015 METAR LMML 142015Z VRB02KT CAVOK 24/19 Q1018 NOSIG=
200907142000 METAR LMML NIL=
200907141945 METAR LMML 141945Z VRB03KT CAVOK 24/18 Q1018 NOSIG=
200907141930 METAR LMML NIL=
200907141915 METAR LMML 141915Z VRB03KT CAVOK 25/18 Q1017 NOSIG=
200907141900 METAR LMML NIL=
200907141845 METAR LMML 141845Z VRB03KT CAVOK 25/18 Q1017 NOSIG=
200907141830 METAR LMML NIL=
200907141815 METAR LMML 141815Z VRB03KT CAVOK 26/16 Q1017 NOSIG=
200907141800 METAR LMML NIL=
200907141745 METAR LMML 141745Z VRB03KT CAVOK 27/16 Q1017 NOSIG=
200907141730 METAR LMML NIL=
200907141715 METAR LMML 141715Z VRB03KT 9999 FEW020 27/17 Q1017 NOSIG=
200907141700 METAR LMML NIL=
200907141645 METAR LMML 141645Z 16005KT 130V200 9999 FEW020 28/15 Q1017
                        NOSIG=
200907141630 METAR LMML NIL=
200907141615 METAR LMML 141615Z 17005KT 140V200 CAVOK 28/16 Q1017 NOSIG=
200907141600 METAR LMML NIL=
200907141545 METAR LMML 141545Z 16006KT 130V200 CAVOK 28/16 Q1017 NOSIG=
200907141530 METAR LMML NIL=
200907141515 METAR LMML 141515Z 15007KT 110V200 CAVOK 29/17 Q1017 NOSIG=
200907141500 METAR LMML NIL=
200907141445 METAR LMML 141445Z 15006KT 100V190 CAVOK 29/17 Q1017 NOSIG=
200907141430 METAR LMML NIL=
200907141415 METAR LMML 141415Z 17006KT 100V210 CAVOK 29/16 Q1017 NOSIG=
200907141400 METAR LMML NIL=
200907141345 METAR LMML 141345Z VRB03KT 9999 FEW030 30/17 Q1017 NOSIG=
200907141330 METAR LMML NIL=
200907141315 METAR LMML 141315Z 20005KT 140V250 9999 FEW030 29/17 Q1017
                        NOSIG=
200907141300 METAR LMML NIL=
200907141245 METAR LMML 141245Z 21004KT 140V280 9999 FEW030 29/18 Q1017
                        NOSIG=
200907141230 METAR LMML NIL=
200907141215 METAR LMML 141215Z VRB03KT 9999 FEW028 30/20 Q1018 NOSIG=
200907141200 METAR LMML NIL=
200907141145 METAR LMML 141145Z 04004KT 340V100 9999 FEW027 30/20 Q1018
                        NOSIG=
200907141130 METAR LMML NIL=
200907141115 METAR LMML 141115Z 22004KT 130V330 9999 FEW029 29/18 Q1018
                        NOSIG=
200907141100 METAR LMML NIL=
200907141030 METAR LMML NIL=
200907141015 METAR LMML 141015Z 21005KT 150V290 9999 FEW020 28/17 Q1018
                        NOSIG=
200907141000 METAR LMML NIL=
200907140945 METAR LMML 140945Z 21005KT 140V270 9999 FEW020 28/17 Q1018
                        NOSIG=
200907140930 METAR LMML NIL=
200907140915 METAR LMML 140915Z 20004KT 150V260 9999 FEW020 28/19 Q1018
                        NOSIG=
200907140900 METAR LMML NIL=
200907140845 METAR LMML 140845Z 22004KT 150V340 9999 FEW020 27/19 Q1018
                        NOSIG=
200907140830 METAR LMML NIL=
200907140815 METAR LMML 140815Z 21005KT 160V280 9999 FEW015 27/19 Q1018
                        NOSIG=
200907140800 METAR LMML NIL=
200907140745 METAR LMML 140745Z VRB03KT 9999 FEW015 26/18 Q1018 NOSIG=
200907140730 METAR LMML NIL=
200907140715 METAR LMML 140715Z 18004KT 140V230 CAVOK 26/19 Q1018 NOSIG=
200907140700 METAR LMML NIL=
200907140645 METAR LMML 140645Z 17004KT 140V220 CAVOK 25/20 Q1018 NOSIG=
200907140630 METAR LMML NIL=
200907140615 METAR LMML 140615Z 16004KT CAVOK 24/20 Q1017 NOSIG=
200907140600 METAR LMML NIL=
200907140545 METAR LMML 140545Z VRB03KT CAVOK 24/20 Q1017 NOSIG=
200907140530 METAR LMML NIL=
200907140515 METAR LMML 140515Z VRB01KT CAVOK 22/20 Q1017 NOSIG=
200907140500 METAR LMML NIL=
200907140445 METAR LMML 140445Z 00000KT CAVOK 20/18 Q1017 NOSIG=
200907140430 METAR LMML NIL=
200907140415 METAR LMML 140415Z 00000KT CAVOK 20/18 Q1017 NOSIG=
200907140400 METAR LMML NIL=
200907140345 METAR LMML 140345Z VRB01KT CAVOK 20/18 Q1017 NOSIG=
200907140330 METAR LMML NIL=
200907140315 METAR LMML 140315Z VRB03KT CAVOK 21/18 Q1016 NOSIG=
200907140300 METAR LMML NIL=
200907140245 METAR LMML 140245Z VRB01KT CAVOK 20/18 Q1016 NOSIG=
200907140230 METAR LMML NIL=
200907140215 METAR LMML 140215Z VRB03KT CAVOK 21/18 Q1016 NOSIG=
200907140200 METAR LMML NIL=
200907140145 METAR LMML 140145Z VRB01KT CAVOK 20/16 Q1016 NOSIG=
200907140130 METAR LMML NIL=
200907140115 METAR LMML 140115Z VRB02KT CAVOK 20/17 Q1017 NOSIG=
200907140100 METAR LMML NIL=
200907140045 METAR LMML 140045Z VRB01KT CAVOK 21/17 Q1017 NOSIG=
200907140030 METAR LMML NIL=
200907140015 METAR LMML 140015Z VRB01KT CAVOK 21/17 Q1017 NOSIG=
200907140000 METAR LMML NIL=
200907132345 METAR LMML 132345Z VRB02KT CAVOK 22/17 Q1017 NOSIG=
200907132330 METAR LMML NIL=
200907132315 METAR LMML 132315Z VRB03KT CAVOK 22/17 Q1017 NOSIG=
200907132300 METAR LMML NIL=
200907132245 METAR LMML 132245Z VRB02KT CAVOK 22/18 Q1018 NOSIG=
200907132230 METAR LMML NIL=
200907132215 METAR LMML 132215Z VRB03KT CAVOK 22/18 Q1018 NOSIG=
200907132200 METAR LMML NIL=
200907132145 METAR LMML 132145Z VRB03KT CAVOK 23/18 Q1018 NOSIG=
200907132130 METAR LMML NIL=
200907132115 METAR LMML 132115Z VRB02KT CAVOK 23/17 Q1018 NOSIG=
200907132045 METAR LMML 132045Z VRB01KT CAVOK 23/18 Q1018 NOSIG=
200907132030 METAR LMML NIL=
200907132015 METAR LMML 132015Z VRB02KT CAVOK 23/18 Q1018 NOSIG=
200907132000 METAR LMML NIL=
200907131945 METAR LMML 131945Z VRB01KT CAVOK 23/18 Q1018 NOSIG=
200907131930 METAR LMML NIL=
200907131915 METAR LMML 131915Z VRB03KT CAVOK 24/18 Q1018 NOSIG=
200907131900 METAR LMML NIL=
200907131845 METAR LMML 131845Z 23004KT 210V270 CAVOK 24/17 Q1018 NOSIG=
200907131830 METAR LMML NIL=
200907131815 METAR LMML 131815Z VRB03KT CAVOK 24/17 Q1017 NOSIG=
200907131800 METAR LMML NIL=
200907131745 METAR LMML 131745Z 22004KT 170V270 CAVOK 25/16 Q1017 NOSIG=
200907131715 METAR LMML 131715Z 23006KT 190V270 CAVOK 26/16 Q1017 NOSIG=
200907131700 METAR LMML NIL=
200907131645 METAR LMML 131645Z 22006KT 180V270 CAVOK 26/15 Q1017 NOSIG=
200907131630 METAR LMML NIL=
200907131615 METAR LMML 131615Z 22005KT 180V280 CAVOK 27/15 Q1017 NOSIG=
200907131600 METAR LMML NIL=
200907131545 METAR LMML 131545Z 22008KT 190V260 CAVOK 27/15 Q1017 NOSIG=
200907131530 METAR LMML NIL=
200907131515 METAR LMML 131515Z 22006KT 180V270 CAVOK 27/15 Q1017 NOSIG=
200907131445 METAR LMML 131445Z 20007KT 150V240 CAVOK 27/14 Q1017 NOSIG=
200907131430 METAR LMML NIL=
200907131415 METAR LMML 131415Z 20007KT 170V260 CAVOK 28/15 Q1018 NOSIG=
200907131400 METAR LMML NIL=
200907131345 METAR LMML 131345Z 22006KT 160V270 CAVOK 28/15 Q1018 NOSIG=
200907131330 METAR LMML NIL=
200907131315 METAR LMML 131315Z 22007KT 170V300 CAVOK 28/15 Q1018 NOSIG=
200907131300 METAR LMML NIL=
200907131245 METAR LMML 131245Z 22008KT 170V250 CAVOK 27/14 Q1018 NOSIG=
200907131230 METAR LMML NIL=
200907131215 METAR LMML 131215Z 21008KT 160V270 CAVOK 27/16 Q1018 NOSIG=
200907131200 METAR LMML NIL=
200907131145 METAR LMML 131145Z 20008KT 150V260 CAVOK 27/15 Q1018 NOSIG=
200907131130 METAR LMML NIL=
200907131115 METAR LMML 131115Z 20007KT 160V240 9999 FEW025 27/15 Q1018
                        NOSIG=
200907131100 METAR LMML NIL=
200907131045 METAR LMML 131045Z 20007KT 160V270 9999 FEW025 27/15 Q1018
                        NOSIG=
200907131015 METAR LMML 131015Z 19007KT 150V290 9999 FEW025 27/15 Q1018
                        NOSIG=
200907131000 METAR LMML NIL=
200907130945 METAR LMML 130945Z 20006KT 160V250 9999 FEW025 27/14 Q1018
                        NOSIG=
200907130930 METAR LMML NIL=
200907130915 METAR LMML 130915Z 19007KT 160V240 9999 FEW025 27/13 Q1018
                        NOSIG=
200907130900 METAR LMML NIL=
200907130845 METAR LMML 130845Z 21005KT 170V260 CAVOK 28/13 Q1018 NOSIG=
200907130830 METAR LMML NIL=
200907130815 METAR LMML 130815Z VRB02KT CAVOK 27/16 Q1018 NOSIG=
200907130800 METAR LMML NIL=
200907130745 METAR LMML 130745Z VRB03KT CAVOK 27/17 Q1018 NOSIG=
200907130730 METAR LMML NIL=
200907130715 METAR LMML 130715Z VRB03KT CAVOK 26/15 Q1018 NOSIG=
200907130700 METAR LMML NIL=
200907130645 METAR LMML 130645Z VRB02KT CAVOK 26/17 Q1018 NOSIG=
200907130630 METAR LMML NIL=
200907130615 METAR LMML 130615Z VRB02KT CAVOK 24/18 Q1018 NOSIG=
200907130600 METAR LMML NIL=
200907130545 METAR LMML 130545Z VRB02KT CAVOK 23/19 Q1018 NOSIG=
200907130530 METAR LMML NIL=
200907130515 METAR LMML 130515Z VRB01KT CAVOK 22/18 Q1017 NOSIG=
200907130500 METAR LMML NIL=
200907130445 METAR LMML 130445Z VRB02KT CAVOK 20/17 Q1017 NOSIG RMK SMOKE
                        TO SOUTH=
200907130430 METAR LMML NIL=
200907130415 METAR LMML 130415Z VRB02KT 9999 FEW012 20/17 Q1017 NOSIG=
200907130400 METAR LMML NIL=
200907130345 METAR LMML 130345Z VRB02KT CAVOK 20/17 Q1017 NOSIG=
200907130330 METAR LMML NIL=
200907130315 METAR LMML 130315Z VRB03KT CAVOK 20/16 Q1017 NOSIG=
200907130300 METAR LMML NIL=
200907130245 METAR LMML 130245Z VRB01KT CAVOK 20/17 Q1017 NOSIG=
200907130230 METAR LMML NIL=
200907130215 METAR LMML 130215Z VRB02KT CAVOK 20/17 Q1017 NOSIG=
200907130200 METAR LMML NIL=
200907130145 METAR LMML 130145Z VRB01KT CAVOK 20/17 Q1017 NOSIG=
200907130130 METAR LMML NIL=
200907130115 METAR LMML 130115Z VRB02KT CAVOK 21/17 Q1017 NOSIG=
200907130100 METAR LMML NIL=
200907130045 METAR LMML 130045Z VRB02KT CAVOK 21/17 Q1017 NOSIG=
200907130030 METAR LMML NIL=
200907130015 METAR LMML 130015Z VRB01KT CAVOK 21/17 Q1017 NOSIG=
200907130000 METAR LMML NIL=
200907122345 METAR LMML 122345Z VRB01KT CAVOK 21/17 Q1017 NOSIG=
200907122330 METAR LMML NIL=
200907122315 METAR LMML 122315Z VRB01KT CAVOK 21/18 Q1017 NOSIG=
200907122300 METAR LMML NIL=
200907122245 METAR LMML 122245Z VRB01KT CAVOK 22/18 Q1017 NOSIG=
200907122230 METAR LMML NIL=
200907122215 METAR LMML 122215Z VRB02KT CAVOK 22/17 Q1017 NOSIG=
200907122200 METAR LMML NIL=
200907122145 METAR LMML 122145Z VRB03KT CAVOK 22/17 Q1017 NOSIG=
200907122130 METAR LMML NIL=
200907122115 METAR LMML 122115Z VRB01KT CAVOK 22/17 Q1017 NOSIG=
200907122100 METAR LMML NIL=
200907122045 METAR LMML 122045Z VRB01KT CAVOK 23/17 Q1017 NOSIG=
200907122030 METAR LMML NIL=
200907122015 METAR LMML 122015Z VRB01KT CAVOK 23/17 Q1017 NOSIG=
200907122000 METAR LMML NIL=
200907121945 METAR LMML 121945Z 32004KT CAVOK 23/16 Q1017 NOSIG=
200907121930 METAR LMML NIL=
200907121915 METAR LMML 121915Z VRB03KT CAVOK 24/15 Q1017 NOSIG=
200907121900 METAR LMML NIL=
200907121845 METAR LMML 121845Z VRB03KT 9999 FEW020 24/13 Q1016 NOSIG=
200907121830 METAR LMML NIL=
200907121815 METAR LMML 121815Z 28004KT CAVOK 25/11 Q1016 NOSIG=
200907121800 METAR LMML NIL=
200907121745 METAR LMML 121745Z 02005KT 340V160 CAVOK 26/16 Q1016 NOSIG=
200907121730 METAR LMML NIL=
200907121715 METAR LMML 121715Z 01006KT CAVOK 27/16 Q1016 NOSIG=
200907121700 METAR LMML NIL=
200907121645 METAR LMML 121645Z 21006KT 160V260 CAVOK 26/13 Q1016 NOSIG=
200907121630 METAR LMML NIL=
200907121615 METAR LMML 121615Z 19007KT 150V240 CAVOK 26/15 Q1016 NOSIG=
200907121545 METAR LMML 121545Z 16005KT 120V220 9999 FEW040 27/13 Q1016
                        NOSIG=
200907121530 METAR LMML NIL=
200907121515 METAR LMML 121515Z 19005KT 9999 FEW040 28/13 Q1016 NOSIG=
200907121500 METAR LMML NIL=
200907121445 METAR LMML 121445Z 14005KT 070V240 9999 FEW040 28/13 Q1017
                        NOSIG=
200907121430 METAR LMML NIL=
200907121415 METAR LMML 121415Z 08005KT 9999 FEW038 29/15 Q1017 NOSIG=
200907121400 METAR LMML NIL=
200907121345 METAR LMML 121345Z VRB02KT 9999 FEW039 28/13 Q1017 NOSIG=
200907121330 METAR LMML NIL=
200907121315 METAR LMML 121315Z 32005KT 280V010 9999 FEW040 29/15 Q1017
                        NOSIG=
200907121300 METAR LMML NIL=
200907121245 METAR LMML 121245Z 35006KT 290V050 9999 FEW039 29/15 Q1017
                        NOSIG=
200907121230 METAR LMML NIL=
200907121215 METAR LMML 121215Z 04006KT 350V100 9999 FEW041 29/17 Q1017
                        NOSIG=
200907121200 METAR LMML NIL=
200907121145 METAR LMML 121145Z 06009KT 020V100 9999 FEW039 28/17 Q1017
                        NOSIG=
200907121130 METAR LMML NIL=
200907121115 METAR LMML 121115Z 03005KT 300V130 9999 FEW039 29/17 Q1017
                        NOSIG=
200907121100 METAR LMML NIL=
200907121045 METAR LMML 121045Z 01005KT 310V070 9999 FEW037 29/17 Q1017
                        NOSIG=
200907121030 METAR LMML NIL=
200907121015 METAR LMML 121015Z 03006KT 350V090 9999 FEW037 28/16 Q1017
                        NOSIG=
200907121000 METAR LMML NIL=
200907120945 METAR LMML 120945Z VRB03KT 9999 FEW041 27/15 Q1017 NOSIG=
200907120930 METAR LMML NIL=
200907120915 METAR LMML 120915Z 05005KT 010V120 9999 FEW045 29/13 Q1017
                        NOSIG=
200907120900 METAR LMML NIL=
200907120845 METAR LMML 120845Z VRB03KT 9999 FEW043 28/14 Q1017 NOSIG=
200907120830 METAR LMML NIL=
200907120815 METAR LMML 120815Z VRB03KT 9999 FEW036 28/15 Q1017 NOSIG=
200907120800 METAR LMML NIL=
200907120745 METAR LMML 120745Z 04004KT 350V110 CAVOK 27/16 Q1017 NOSIG=
200907120730 METAR LMML NIL=
200907120715 METAR LMML 120715Z VRB03KT CAVOK 26/16 Q1017 NOSIG=
200907120700 METAR LMML NIL=
200907120645 METAR LMML 120645Z VRB03KT CAVOK 25/17 Q1017 NOSIG=
200907120630 METAR LMML NIL=
200907120615 METAR LMML 120615Z 33005KT CAVOK 24/17 Q1016 NOSIG=
200907120600 METAR LMML NIL=
200907120545 METAR LMML 120545Z 32005KT CAVOK 23/17 Q1016 NOSIG=
200907120530 METAR LMML NIL=
200907120515 METAR LMML 120515Z 30005KT 270V330 CAVOK 22/18 Q1016 NOSIG=
200907120500 METAR LMML NIL=
200907120445 METAR LMML 120445Z 32007KT CAVOK 21/18 Q1015 NOSIG=
200907120430 METAR LMML NIL=
200907120415 METAR LMML 120415Z 32006KT CAVOK 21/18 Q1015 NOSIG=
200907120400 METAR LMML NIL=
200907120345 METAR LMML 120345Z 32005KT 300V360 CAVOK 21/18 Q1015 NOSIG=
200907120330 METAR LMML NIL=
200907120315 METAR LMML 120315Z VRB03KT CAVOK 21/18 Q1015 NOSIG=
200907120300 METAR LMML NIL=
200907120245 METAR LMML 120245Z VRB03KT CAVOK 21/18 Q1015 NOSIG=
200907120215 METAR LMML 120215Z 31004KT CAVOK 21/18 Q1015 NOSIG=
200907120200 METAR LMML NIL=
200907120145 METAR LMML 120145Z 32004KT CAVOK 22/18 Q1015 NOSIG=
200907120130 METAR LMML NIL=
200907120115 METAR LMML 120115Z 31005KT CAVOK 22/18 Q1015 NOSIG=
200907120100 METAR LMML NIL=
200907120045 METAR LMML 120045Z 32004KT 280V360 CAVOK 22/17 Q1015 NOSIG=
200907120015 METAR LMML 120015Z 33006KT CAVOK 22/18 Q1015 NOSIG=
200907120000 METAR LMML NIL=
200907112345 METAR LMML 112345Z 33009KT CAVOK 22/18 Q1016 NOSIG=
200907112330 METAR LMML NIL=
200907112315 METAR LMML 112315Z 33011KT CAVOK 22/18 Q1016 NOSIG=
200907112245 METAR LMML 112245Z 32013KT CAVOK 23/18 Q1016 NOSIG=
200907112230 METAR LMML NIL=
200907112215 METAR LMML 112215Z 33013KT CAVOK 23/17 Q1016 NOSIG=
200907112200 METAR LMML NIL=
200907112145 METAR LMML 112145Z 31012KT CAVOK 23/17 Q1015 NOSIG=
200907112130 METAR LMML NIL=
200907112115 METAR LMML 112115Z 31011KT CAVOK 23/17 Q1015 NOSIG=
200907112100 METAR LMML NIL=
200907112045 METAR LMML 112045Z 30009KT CAVOK 23/16 Q1015 NOSIG=
200907112030 METAR LMML NIL=
200907112015 METAR LMML 112015Z 31008KT CAVOK 23/16 Q1015 NOSIG=
200907112000 METAR LMML NIL=
200907111945 METAR LMML 111945Z 31010KT 280V340 CAVOK 23/17 Q1015 NOSIG=
200907111930 METAR LMML NIL=
200907111915 METAR LMML 111915Z 31012KT CAVOK 23/17 Q1015 NOSIG=
200907111900 METAR LMML NIL=
200907111845 METAR LMML 111845Z 30009KT CAVOK 23/17 Q1014 NOSIG=
200907111830 METAR LMML NIL=
200907111815 METAR LMML 111815Z 30013KT CAVOK 24/17 Q1014 NOSIG=
200907111800 METAR LMML NIL=
200907111745 METAR LMML 111745Z 29011KT 260V320 CAVOK 24/17 Q1014 NOSIG=
200907111730 METAR LMML NIL=
200907111715 METAR LMML 111715Z 30016KT 9999 FEW020 25/15 Q1014 NOSIG=
200907111700 METAR LMML NIL=
200907111645 METAR LMML 111645Z 30015KT 270V330 9999 FEW020 25/16 Q1014
                        NOSIG=
200907111630 METAR LMML NIL=
200907111615 METAR LMML 111615Z 29015KT 260V320 9999 FEW020 26/16 Q1014
                        NOSIG=
200907111600 METAR LMML NIL=
200907111545 METAR LMML 111545Z 29013KT 260V320 9999 FEW020 26/16 Q1015
                        NOSIG=
200907111530 METAR LMML NIL=
200907111515 METAR LMML 111515Z 29015KT 260V320 9999 FEW020 27/17 Q1014
                        NOSIG=
200907111500 METAR LMML NIL=
200907111445 METAR LMML 111445Z 30013KT 9999 FEW020 28/17 Q1014 NOSIG=
200907111430 METAR LMML NIL=
200907111415 METAR LMML 111415Z 30015KT 260V330 CAVOK 28/17 Q1015 NOSIG=
200907111400 METAR LMML NIL=
200907111345 METAR LMML 111345Z 30016KT 9999 FEW022 28/16 Q1015 NOSIG=
200907111330 METAR LMML NIL=
200907111315 METAR LMML 111315Z 30015KT 260V330 9999 FEW022 27/17 Q1015
                        NOSIG=
200907111300 METAR LMML NIL=
200907111245 METAR LMML 111245Z 29015KT 270V330 9999 FEW022 27/18 Q1015
                        NOSIG=
200907111230 METAR LMML NIL=
200907111215 METAR LMML 111215Z 30016KT 260V320 9999 FEW022 27/18 Q1015
                        NOSIG=
200907111200 METAR LMML NIL=
200907111145 METAR LMML 111145Z 30015KT 260V330 9999 FEW022 27/18 Q1015
                        NOSIG=
200907111130 METAR LMML NIL=
200907111115 METAR LMML 111115Z 29013KT 250V330 9999 FEW022 27/19 Q1015
                        NOSIG=
200907111100 METAR LMML NIL=
200907111045 METAR LMML 111045Z 30015KT 280V350 9999 FEW022 26/18 Q1015
                        NOSIG=
200907111030 METAR LMML NIL=
200907111015 METAR LMML 111015Z 30014KT 9999 FEW022 27/19 Q1015 NOSIG=
200907111000 METAR LMML NIL=
200907110945 METAR LMML 110945Z 30014KT 260V330 9999 FEW020 27/18 Q1015
                        NOSIG=
200907110930 METAR LMML NIL=
200907110915 METAR LMML 110915Z 29013KT 250V330 9999 FEW020 27/18 Q1015
                        NOSIG=
200907110900 METAR LMML NIL=
200907110845 METAR LMML 110845Z 29012KT 240V320 9999 FEW020 27/17 Q1015
                        NOSIG=
200907110830 METAR LMML NIL=
200907110815 METAR LMML 110815Z 30010KT 260V350 9999 FEW020 26/17 Q1014
                        NOSIG=
200907110800 METAR LMML NIL=
200907110745 METAR LMML 110745Z 33012KT 310V010 9999 FEW020 26/17 Q1014
                        NOSIG=
200907110730 METAR LMML NIL=
200907110715 METAR LMML 110715Z 33012KT 9999 FEW020 26/18 Q1014 NOSIG=
200907110700 METAR LMML NIL=
200907110700 SPECI LMML 110700Z 32012KT 280V350 CAVOK 25/18 Q1014 NOSIG=
200907110645 METAR LMML 110645Z 31011KT 270V340 CAVOK 25/18 Q1014 NOSIG=
200907110630 METAR LMML NIL=
200907110615 METAR LMML 110615Z 32013KT 290V350 CAVOK 24/18 Q1014 NOSIG=
200907110600 METAR LMML NIL=
200907110545 METAR LMML 110545Z 32014KT 9999 FEW020 24/19 Q1014 NOSIG=
200907110530 METAR LMML NIL=
200907110515 METAR LMML 110515Z 32012KT CAVOK 23/18 Q1014 NOSIG=
200907110500 METAR LMML NIL=
200907110445 METAR LMML 110445Z 31011KT 9999 FEW018 22/18 Q1014 NOSIG=
200907110430 METAR LMML NIL=
200907110415 METAR LMML 110415Z 31011KT 9999 FEW018 22/18 Q1014 NOSIG=
200907110400 METAR LMML NIL=
200907110345 METAR LMML 110345Z 31011KT CAVOK 22/18 Q1013 NOSIG=
200907110330 METAR LMML NIL=
200907110315 METAR LMML 110315Z 31015KT CAVOK 22/18 Q1013 NOSIG=
200907110300 METAR LMML NIL=
200907110245 METAR LMML 110245Z 30014KT CAVOK 22/18 Q1013 NOSIG=
200907110230 METAR LMML NIL=
200907110215 METAR LMML 110215Z 30014KT CAVOK 22/19 Q1013 NOSIG=
200907110200 METAR LMML NIL=
200907110145 METAR LMML 110145Z 31014KT CAVOK 22/19 Q1013 NOSIG=
200907110130 METAR LMML NIL=
200907110115 METAR LMML 110115Z 31017KT CAVOK 22/19 Q1013 NOSIG=
200907110100 METAR LMML NIL=
200907110045 METAR LMML 110045Z 30016KT CAVOK 22/19 Q1013 NOSIG=
200907110030 METAR LMML NIL=
200907110015 METAR LMML 110015Z 30016KT 260V320 CAVOK 23/18 Q1013 NOSIG=
200907110000 METAR LMML NIL=
200907102345 METAR LMML 102345Z 31015KT CAVOK 23/19 Q1013 NOSIG=
200907102330 METAR LMML NIL=
200907102315 METAR LMML 102315Z 31016KT CAVOK 23/19 Q1013 NOSIG=
200907102300 METAR LMML NIL=
200907102245 METAR LMML 102245Z 30015G25KT CAVOK 23/19 Q1014 NOSIG=
200907102215 METAR LMML 102215Z 30018KT CAVOK 23/19 Q1014 NOSIG=
200907102200 METAR LMML NIL=
200907102145 METAR LMML 102145Z 32012KT CAVOK 24/19 Q1014 NOSIG=
200907102115 METAR LMML 102115Z 32010KT CAVOK 24/19 Q1014 NOSIG=
200907102100 METAR LMML NIL=
200907102045 METAR LMML 102045Z 32009KT CAVOK 24/19 Q1014 NOSIG=
200907102030 METAR LMML NIL=
200907102015 METAR LMML 102015Z 32007KT CAVOK 24/19 Q1014 NOSIG=
200907101945 METAR LMML 101945Z 31008KT CAVOK 25/19 Q1013 NOSIG=
200907101930 METAR LMML NIL=
200907101915 METAR LMML 101915Z 31006KT 270V330 CAVOK 25/19 Q1013 NOSIG=
200907101900 METAR LMML NIL=
200907101845 METAR LMML 101845Z 29008KT 260V320 CAVOK 25/20 Q1013 NOSIG=
200907101830 METAR LMML NIL=
200907101815 METAR LMML 101815Z 30009KT CAVOK 26/19 Q1013 NOSIG=
200907101800 METAR LMML NIL=
200907101745 METAR LMML 101745Z 30007KT CAVOK 27/18 Q1013 NOSIG=
200907101730 METAR LMML NIL=
200907101715 METAR LMML 101715Z 32007KT CAVOK 27/18 Q1013 NOSIG=
200907101700 METAR LMML NIL=
200907101645 METAR LMML 101645Z 34009KT CAVOK 28/18 Q1013 NOSIG=
200907101630 METAR LMML NIL=
200907101615 METAR LMML 101615Z 35011KT CAVOK 29/19 Q1013 NOSIG=
200907101600 METAR LMML NIL=
200907101545 METAR LMML 101545Z 35009KT 320V020 CAVOK 30/17 Q1013 NOSIG=
200907101530 METAR LMML NIL=
200907101515 METAR LMML 101515Z 34010KT 300V010 CAVOK 30/14 Q1013 NOSIG=
200907101500 METAR LMML NIL=
200907101445 METAR LMML 101445Z 34009KT 300V010 CAVOK 31/15 Q1013 NOSIG=
200907101430 METAR LMML NIL=
200907101415 METAR LMML 101415Z 34008KT 290V080 9999 FEW025 31/19 Q1013
                        NOSIG=
200907101400 METAR LMML NIL=
200907101345 METAR LMML 101345Z 32006KT 250V010 9999 FEW025 31/19 Q1013
                        NOSIG=
200907101330 METAR LMML NIL=
200907101315 METAR LMML 101315Z 11005KT 040V190 CAVOK 30/21 Q1013 NOSIG=
200907101300 METAR LMML NIL=
200907101245 METAR LMML 101245Z 34004KT 9999 FEW025 31/18 Q1013 NOSIG=
200907101230 METAR LMML NIL=
200907101215 METAR LMML 101215Z 31008KT 250V360 CAVOK 31/17 Q1013 NOSIG=
200907101200 METAR LMML NIL=
200907101145 METAR LMML 101145Z 31011KT 280V350 9999 FEW030 32/13 Q1013
                        NOSIG=
200907101130 METAR LMML NIL=
200907101115 METAR LMML 101115Z 32010KT 280V350 9999 FEW030 31/19 Q1013
                        NOSIG=
200907101100 METAR LMML NIL=
200907101045 METAR LMML 101045Z 33008KT 280V020 CAVOK 31/20 Q1013 NOSIG=
200907101030 METAR LMML NIL=
200907101015 METAR LMML 101015Z 35005KT 300V030 CAVOK 31/17 Q1013 NOSIG=
200907101000 METAR LMML NIL=
200907100945 METAR LMML 100945Z VRB03KT CAVOK 31/19 Q1013 NOSIG=
200907100930 METAR LMML NIL=
200907100915 METAR LMML 100915Z 35004KT 300V030 CAVOK 30/18 Q1013 NOSIG=
200907100900 METAR LMML NIL=
200907100845 METAR LMML 100845Z 35007KT 310V030 CAVOK 30/18 Q1013 NOSIG=
200907100830 METAR LMML NIL=
200907100815 METAR LMML 100815Z 01005KT 330V060 CAVOK 28/18 Q1013 NOSIG=
200907100800 METAR LMML NIL=
200907100745 METAR LMML 100745Z 01005KT 270V060 CAVOK 27/19 Q1013 NOSIG=
200907100730 METAR LMML NIL=
200907100715 METAR LMML 100715Z 36007KT 330V030 CAVOK 27/17 Q1012 NOSIG=
200907100700 METAR LMML NIL=
200907100645 METAR LMML 100645Z 34009KT CAVOK 29/15 Q1013 NOSIG=
200907100630 METAR LMML NIL=
200907100615 METAR LMML 100615Z VRB03KT CAVOK 28/15 Q1012 NOSIG=
200907100600 METAR LMML NIL=
200907100545 METAR LMML 100545Z 34008KT 9999 RA NSC 26/17 Q1013 NOSIG=
200907100530 METAR LMML NIL=
200907100515 METAR LMML 100515Z 32009KT CAVOK 25/17 Q1014 NOSIG=
200907100500 METAR LMML NIL=
200907100445 METAR LMML 100445Z 31007KT CAVOK 25/18 Q1014 NOSIG=
200907100430 METAR LMML NIL=
200907100415 METAR LMML 100415Z 31012KT CAVOK 24/18 Q1014 NOSIG=
200907100400 METAR LMML NIL=
200907100345 METAR LMML 100345Z 31015KT CAVOK 24/20 Q1014 NOSIG=
200907100330 METAR LMML NIL=
200907100315 METAR LMML 100315Z 30011KT CAVOK 24/20 Q1014 NOSIG=
200907100300 METAR LMML NIL=
200907100245 METAR LMML 100245Z 31016KT 9999 -SHRA NSC 25/21 Q1014 NOSIG=
200907100230 METAR LMML NIL=
200907100215 METAR LMML 100215Z 29006KT 260V320 CAVOK 25/19 Q1014 NOSIG=
200907100200 METAR LMML NIL=
200907100145 METAR LMML 100145Z VRB01KT CAVOK 24/18 Q1013 NOSIG=
200907100130 METAR LMML NIL=
200907100115 METAR LMML 100115Z VRB03KT CAVOK 25/18 Q1013 NOSIG=
200907100100 METAR LMML NIL=
200907100045 METAR LMML 100045Z VRB03KT CAVOK 25/18 Q1013 NOSIG=
200907100030 METAR LMML NIL=
200907100015 METAR LMML 100015Z 31005KT CAVOK 25/18 Q1013 NOSIG=
200907100000 METAR LMML NIL=
200907092345 METAR LMML 092345Z VRB01KT CAVOK 25/18 Q1013 NOSIG=
200907092330 METAR LMML NIL=
200907092315 METAR LMML 092315Z VRB02KT CAVOK 26/18 Q1013 NOSIG=
200907092300 METAR LMML NIL=
200907092245 METAR LMML 092245Z VRB02KT CAVOK 26/18 Q1013 NOSIG=
200907092230 METAR LMML NIL=
200907092215 METAR LMML 092215Z 32004KT 290V360 CAVOK 26/18 Q1013 NOSIG=
200907092200 METAR LMML NIL=
200907092145 METAR LMML 092145Z 33005KT CAVOK 26/17 Q1013 NOSIG=
200907092130 METAR LMML NIL=
200907092115 METAR LMML 092115Z 31006KT CAVOK 26/17 Q1013 NOSIG=
200907092100 METAR LMML NIL=
200907092045 METAR LMML 092045Z 32005KT CAVOK 26/17 Q1013 NOSIG=
200907092030 METAR LMML NIL=
200907092015 METAR LMML 092015Z VRB03KT CAVOK 26/17 Q1013 NOSIG=
200907091945 METAR LMML 091945Z 31006KT CAVOK 26/20 Q1013 NOSIG=
200907091930 METAR LMML NIL=
200907091915 METAR LMML 091915Z 31005KT 280V340 CAVOK 26/20 Q1013 NOSIG=
200907091900 METAR LMML NIL=
200907091845 METAR LMML 091845Z 31006KT CAVOK 27/21 Q1012 NOSIG=
200907091830 METAR LMML NIL=
200907091815 METAR LMML 091815Z 31008KT CAVOK 28/20 Q1012 NOSIG=
200907091800 METAR LMML NIL=
200907091745 METAR LMML 091745Z 32007KT 280V340 CAVOK 29/20 Q1012 NOSIG=
200907091730 METAR LMML NIL=
200907091715 METAR LMML 091715Z 32008KT CAVOK 30/18 Q1012 NOSIG=
200907091700 METAR LMML NIL=
200907091645 METAR LMML 091645Z 02004KT 330V050 CAVOK 33/16 Q1012 NOSIG=
200907091630 METAR LMML NIL=
200907091615 METAR LMML 091615Z 02005KT 350V060 CAVOK 34/14 Q1012 NOSIG=
200907091600 METAR LMML NIL=
200907091545 METAR LMML 091545Z VRB03KT CAVOK 33/15 Q1012 NOSIG=
200907091530 METAR LMML NIL=
200907091515 METAR LMML 091515Z 07004KT 360V160 CAVOK 33/16 Q1012 NOSIG=
200907091500 METAR LMML NIL=
200907091445 METAR LMML 091445Z 03005KT 340V090 CAVOK 34/16 Q1013 NOSIG=
200907091430 METAR LMML NIL=
200907091415 METAR LMML 091415Z 02004KT 330V100 CAVOK 34/15 Q1013 NOSIG=
200907091400 METAR LMML NIL=
200907091345 METAR LMML 091345Z 06005KT 010V120 CAVOK 34/18 Q1013 NOSIG=
200907091330 METAR LMML NIL=
200907091315 METAR LMML 091315Z 04005KT 320V130 CAVOK 34/18 Q1013 NOSIG=
200907091300 METAR LMML NIL=
200907091245 METAR LMML 091245Z VRB03KT CAVOK 32/21 Q1013 NOSIG=
200907091230 METAR LMML NIL=
200907091215 METAR LMML 091215Z 20005KT 160V270 CAVOK 31/22 Q1013 NOSIG=
200907091200 METAR LMML NIL=
200907091145 METAR LMML 091145Z 19005KT 150V230 CAVOK 32/22 Q1014 NOSIG=
200907091130 METAR LMML NIL=
200907091115 METAR LMML 091115Z VRB03KT CAVOK 33/20 Q1014 NOSIG=
200907091100 METAR LMML NIL=
200907091045 METAR LMML 091045Z 19006KT 150V230 CAVOK 32/19 Q1014 NOSIG=
200907091030 METAR LMML NIL=
200907091015 METAR LMML 091015Z 35006KT 290V040 CAVOK 34/13 Q1014 NOSIG=
200907091000 METAR LMML NIL=
200907090945 METAR LMML 090945Z 36006KT 300V040 CAVOK 33/18 Q1014 NOSIG=
200907090930 METAR LMML NIL=
200907090915 METAR LMML 090915Z 01006KT 330V090 CAVOK 32/20 Q1014 NOSIG=
200907090900 METAR LMML NIL=
200907090845 METAR LMML 090845Z 01007KT 340V050 CAVOK 32/19 Q1013 NOSIG=
200907090830 METAR LMML NIL=
200907090815 METAR LMML 090815Z 36007KT 320V030 CAVOK 32/14 Q1014 NOSIG=
200907090800 METAR LMML NIL=
200907090745 METAR LMML 090745Z 01006KT 300V060 CAVOK 33/12 Q1014 NOSIG=
200907090730 METAR LMML NIL=
200907090715 METAR LMML 090715Z 36005KT 330V040 CAVOK 32/12 Q1014 NOSIG=
200907090700 METAR LMML NIL=
200907090645 METAR LMML 090645Z 10004KT 070V130 CAVOK 31/12 Q1013 NOSIG=
200907090630 METAR LMML NIL=
200907090615 METAR LMML 090615Z VRB02KT CAVOK 31/12 Q1013 NOSIG=
200907090600 METAR LMML NIL=
200907090545 METAR LMML 090545Z VRB01KT CAVOK 29/14 Q1013 NOSIG=
200907090530 METAR LMML NIL=
200907090515 METAR LMML 090515Z VRB02KT CAVOK 27/16 Q1013 NOSIG=
200907090500 METAR LMML NIL=
200907090445 METAR LMML 090445Z VRB03KT CAVOK 26/15 Q1013 NOSIG=
200907090430 METAR LMML NIL=
200907090415 METAR LMML 090415Z VRB03KT CAVOK 25/17 Q1013 NOSIG=
200907090400 METAR LMML NIL=
200907090345 METAR LMML 090345Z 21004KT 160V230 CAVOK 25/16 Q1012 NOSIG=
200907090330 METAR LMML NIL=
200907090315 METAR LMML 090315Z VRB03KT CAVOK 25/15 Q1012 NOSIG=
200907090300 METAR LMML NIL=
200907090245 METAR LMML 090245Z VRB02KT CAVOK 24/15 Q1013 NOSIG=
200907090230 METAR LMML NIL=
200907090215 METAR LMML 090215Z VRB02KT CAVOK 24/17 Q1012 NOSIG=
200907090200 METAR LMML NIL=
200907090145 METAR LMML 090145Z 29004KT 240V320 CAVOK 24/17 Q1013 NOSIG=
200907090130 METAR LMML NIL=
200907090115 METAR LMML 090115Z VRB02KT CAVOK 25/17 Q1013 NOSIG=
200907090100 METAR LMML NIL=
200907090045 METAR LMML 090045Z 30005KT CAVOK 25/17 Q1013 NOSIG=
200907090015 METAR LMML 090015Z 32008KT CAVOK 26/17 Q1014 NOSIG=
200907090000 METAR LMML NIL=
200907082345 METAR LMML 082345Z 30004KT 190V350 CAVOK 26/17 Q1013 NOSIG=
200907082330 METAR LMML NIL=
200907082315 METAR LMML 082315Z VRB02KT CAVOK 27/17 Q1013 NOSIG=
200907082300 METAR LMML NIL=
200907082245 METAR LMML 082245Z 34004KT 300V360 CAVOK 27/17 Q1014 NOSIG=
200907082230 METAR LMML NIL=
200907082215 METAR LMML 082215Z 29007KT 260V320 CAVOK 27/15 Q1014 NOSIG=
200907082200 METAR LMML NIL=
200907082145 METAR LMML 082145Z VRB02KT CAVOK 28/11 Q1014 NOSIG=
200907082130 METAR LMML NIL=
200907082115 METAR LMML 082115Z 30007KT CAVOK 28/11 Q1014 NOSIG=
200907082100 METAR LMML NIL=
200907082045 METAR LMML 082045Z VRB02KT CAVOK 28/12 Q1014 NOSIG=
200907082030 METAR LMML NIL=
200907082015 METAR LMML 082015Z VRB03KT CAVOK 29/11 Q1013 NOSIG=
200907082000 METAR LMML NIL=
200907081945 METAR LMML 081945Z VRB01KT CAVOK 29/10 Q1013 NOSIG=
200907081930 METAR LMML NIL=
200907081915 METAR LMML 081915Z 31005KT CAVOK 30/09 Q1014 NOSIG=
200907081900 METAR LMML NIL=
200907081845 METAR LMML 081845Z VRB02KT CAVOK 30/07 Q1013 NOSIG=
200907081830 METAR LMML NIL=
200907081815 METAR LMML 081815Z VRB03KT CAVOK 30/09 Q1013 NOSIG=
200907081800 METAR LMML NIL=
200907081745 METAR LMML 081745Z 01004KT 330V080 CAVOK 32/09 Q1013 NOSIG=
200907081730 METAR LMML NIL=
200907081715 METAR LMML 081715Z VRB02KT CAVOK 34/19 Q1013 NOSIG=
200907081700 METAR LMML NIL=
200907081645 METAR LMML 081645Z 09004KT 030V160 CAVOK 32/20 Q1012 NOSIG=
200907081630 METAR LMML NIL=
200907081615 METAR LMML 081615Z 08004KT 040V130 CAVOK 32/20 Q1012 NOSIG=
200907081600 METAR LMML NIL=
200907081545 METAR LMML 081545Z 08004KT CAVOK 32/20 Q1012 NOSIG=
200907081530 METAR LMML NIL=
200907081515 METAR LMML 081515Z 13004KT 060V230 CAVOK 32/21 Q1013 NOSIG=
200907081500 METAR LMML NIL=
200907081445 METAR LMML 081445Z VRB03KT CAVOK 32/22 Q1013 NOSIG=
200907081430 METAR LMML NIL=
200907081415 METAR LMML 081415Z 12004KT 050V180 CAVOK 32/20 Q1013 NOSIG=
200907081400 METAR LMML NIL=
200907081345 METAR LMML 081345Z 11004KT CAVOK 34/19 Q1013 NOSIG=
200907081330 METAR LMML NIL=
200907081315 METAR LMML 081315Z 13006KT 080V200 CAVOK 33/20 Q1013 NOSIG=
200907081300 METAR LMML NIL=
200907081245 METAR LMML 081245Z 11006KT 080V150 CAVOK 34/18 Q1013 NOSIG=
200907081230 METAR LMML NIL=
200907081215 METAR LMML 081215Z 12006KT 060V160 CAVOK 34/17 Q1013 NOSIG=
200907081200 METAR LMML NIL=
200907081145 METAR LMML 081145Z 12005KT 040V170 CAVOK 33/18 Q1013 NOSIG=
200907081130 METAR LMML NIL=
200907081115 METAR LMML 081115Z 10004KT 040V170 CAVOK 33/19 Q1014 NOSIG=
200907081100 METAR LMML NIL=
200907081045 METAR LMML 081045Z 12006KT 060V180 CAVOK 33/19 Q1014 NOSIG=
200907081030 METAR LMML NIL=
200907081015 METAR LMML 081015Z 11005KT 060V170 CAVOK 33/17 Q1014 NOSIG=
200907081000 METAR LMML NIL=
200907080945 METAR LMML 080945Z 11006KT 040V160 CAVOK 33/15 Q1014 NOSIG=
200907080930 METAR LMML NIL=
200907080915 METAR LMML 080915Z 10005KT 050V170 CAVOK 33/13 Q1014 NOSIG=
200907080900 METAR LMML NIL=
200907080845 METAR LMML 080845Z 10005KT 050V170 CAVOK 32/12 Q1014 NOSIG=
200907080830 METAR LMML NIL=
200907080815 METAR LMML 080815Z VRB03KT CAVOK 31/15 Q1014 NOSIG=
200907080800 METAR LMML NIL=
200907080745 METAR LMML 080745Z 04004KT 340V110 CAVOK 30/18 Q1014 NOSIG=
200907080730 METAR LMML NIL=
200907080715 METAR LMML 080715Z 03004KT 340V080 CAVOK 30/18 Q1014 NOSIG=
200907080700 METAR LMML NIL=
200907080645 METAR LMML 080645Z 03004KT 350V070 CAVOK 29/18 Q1013 NOSIG=
200907080630 METAR LMML NIL=
200907080615 METAR LMML 080615Z VRB03KT CAVOK 28/17 Q1013 NOSIG=
200907080600 METAR LMML NIL=
200907080545 METAR LMML 080545Z VRB02KT CAVOK 27/16 Q1013 NOSIG=
200907080515 METAR LMML 080515Z VRB01KT CAVOK 25/15 Q1013 NOSIG=
200907080500 METAR LMML NIL=
200907080445 METAR LMML 080445Z VRB01KT CAVOK 23/15 Q1013 NOSIG=
200907080430 METAR LMML NIL=
200907080415 METAR LMML 080415Z 00000KT CAVOK 23/15 Q1013 NOSIG=
200907080400 METAR LMML NIL=
200907080345 METAR LMML 080345Z VRB01KT CAVOK 22/15 Q1012 NOSIG=
200907080330 METAR LMML NIL=
200907080315 METAR LMML 080315Z VRB01KT CAVOK 22/14 Q1012 NOSIG=
200907080300 METAR LMML NIL=
200907080245 METAR LMML 080245Z VRB01KT CAVOK 23/15 Q1012 NOSIG=
200907080215 METAR LMML 080215Z VRB02KT CAVOK 23/15 Q1013 NOSIG=
200907080145 METAR LMML 080145Z 00000KT CAVOK 23/16 Q1013 NOSIG=
200907080130 METAR LMML NIL=
200907080115 METAR LMML 080115Z 00000KT CAVOK 24/16 Q1013 NOSIG=
200907080100 METAR LMML NIL=
200907080045 METAR LMML 080045Z VRB01KT CAVOK 24/15 Q1013 NOSIG=
200907080030 METAR LMML NIL=
200907080015 METAR LMML 080015Z VRB01KT CAVOK 24/16 Q1013 NOSIG=
200907080000 METAR LMML NIL=
200907072345 METAR LMML 072345Z VRB02KT CAVOK 24/16 Q1014 NOSIG=
200907072330 METAR LMML NIL=
200907072315 METAR LMML 072315Z VRB03KT CAVOK 25/16 Q1014 NOSIG=
200907072300 METAR LMML NIL=
200907072245 METAR LMML 072245Z VRB02KT CAVOK 24/16 Q1014 NOSIG=
200907072215 METAR LMML 072215Z VRB02KT CAVOK 25/16 Q1013 NOSIG=
200907072145 METAR LMML 072145Z 00000KT CAVOK 25/16 Q1014 NOSIG=
200907072130 METAR LMML NIL=
200907072115 METAR LMML 072115Z VRB02KT CAVOK 26/16 Q1014 NOSIG=
200907072100 METAR LMML NIL=
200907072045 METAR LMML 072045Z VRB01KT CAVOK 26/17 Q1014 NOSIG=
200907072030 METAR LMML NIL=
200907072015 METAR LMML 072015Z VRB02KT CAVOK 26/18 Q1014 NOSIG=
200907072000 METAR LMML NIL=
200907071945 METAR LMML 071945Z VRB02KT CAVOK 26/19 Q1013 NOSIG=
200907071930 METAR LMML NIL=
200907071915 METAR LMML 071915Z VRB03KT CAVOK 27/18 Q1012 NOSIG=
200907071900 METAR LMML NIL=
200907071845 METAR LMML 071845Z 18004KT 150V220 CAVOK 27/16 Q1012 NOSIG=
200907071830 METAR LMML NIL=
200907071815 METAR LMML 071815Z 16005KT CAVOK 28/16 Q1012 NOSIG=
200907071800 METAR LMML NIL=
200907071730 METAR LMML NIL=
200907071715 METAR LMML 071715Z 18004KT 150V220 CAVOK 29/18 Q1012 NOSIG=
200907071700 METAR LMML NIL=
200907071645 METAR LMML 071645Z VRB03KT CAVOK 30/16 Q1012 NOSIG=
200907071630 METAR LMML NIL=
200907071615 METAR LMML 071615Z 17005KT 140V210 CAVOK 30/16 Q1012 NOSIG=
200907071600 METAR LMML NIL=
200907071545 METAR LMML 071545Z 15004KT 090V220 CAVOK 31/17 Q1012 NOSIG=
200907071530 METAR LMML NIL=
200907071515 METAR LMML 071515Z VRB03KT CAVOK 31/17 Q1012 NOSIG=
200907071500 METAR LMML NIL=
200907071445 METAR LMML 071445Z 16005KT 130V220 CAVOK 31/18 Q1013 NOSIG=
200907071430 METAR LMML NIL=
200907071415 METAR LMML 071415Z 19006KT 150V250 CAVOK 31/18 Q1013 NOSIG=
200907071400 METAR LMML NIL=
200907071345 METAR LMML 071345Z VRB02KT CAVOK 34/17 Q1012 NOSIG=
200907071315 METAR LMML 071315Z 02006KT 360V060 CAVOK 34/17 Q1012 NOSIG=
200907071245 METAR LMML 071245Z VRB03KT CAVOK 36/16 Q1012 NOSIG=
200907071230 METAR LMML NIL=
200907071215 METAR LMML 071215Z VRB03KT CAVOK 35/16 Q1013 NOSIG=
200907071200 METAR LMML NIL=
200907071145 METAR LMML 071145Z 13007KT 090V170 CAVOK 34/16 Q1013 NOSIG=
200907071130 METAR LMML NIL=
200907071115 METAR LMML 071115Z 32006KT 230V030 CAVOK 35/11 Q1013 NOSIG=
200907071100 METAR LMML NIL=
200907071045 METAR LMML 071045Z 31005KT 260V020 CAVOK 35/12 Q1013 NOSIG=
200907071030 METAR LMML NIL=
200907071015 METAR LMML 071015Z 29004KT 210V020 CAVOK 34/11 Q1013 NOSIG=
200907071000 METAR LMML NIL=
200907070945 METAR LMML 070945Z 27005KT 190V320 CAVOK 34/12 Q1013 NOSIG=
200907070930 METAR LMML NIL=
200907070915 METAR LMML 070915Z 27005KT 220V320 CAVOK 33/12 Q1013 NOSIG=
200907070900 METAR LMML NIL=
200907070845 METAR LMML 070845Z 27006KT 210V320 CAVOK 33/12 Q1013 NOSIG=
200907070830 METAR LMML NIL=
200907070815 METAR LMML 070815Z 28007KT 230V310 CAVOK 32/12 Q1013 NOSIG=
200907070800 METAR LMML NIL=
200907070745 METAR LMML 070745Z 25006KT 200V300 CAVOK 31/12 Q1013 NOSIG=
200907070730 METAR LMML NIL=
200907070715 METAR LMML 070715Z 23004KT 200V290 CAVOK 28/17 Q1013 NOSIG=
200907070700 METAR LMML NIL=
200907070645 METAR LMML 070645Z 23007KT 190V280 9999 FEW020 27/17 Q1013
                        NOSIG=
200907070630 METAR LMML NIL=
200907070615 METAR LMML 070615Z 23004KT 190V270 9999 FEW020 28/14 Q1013
                        NOSIG=
200907070600 METAR LMML NIL=
200907070545 METAR LMML 070545Z 27005KT 240V300 CAVOK 28/11 Q1012 NOSIG=
200907070530 METAR LMML NIL=
200907070515 METAR LMML 070515Z VRB01KT CAVOK 25/13 Q1012 NOSIG=
200907070500 METAR LMML NIL=
200907070445 METAR LMML 070445Z 27004KT CAVOK 24/13 Q1012 NOSIG=
200907070430 METAR LMML NIL=
200907070415 METAR LMML 070415Z 26004KT CAVOK 23/16 Q1012 NOSIG=
200907070345 METAR LMML 070345Z 26004KT CAVOK 23/17 Q1012 NOSIG=
200907070330 METAR LMML NIL=
200907070315 METAR LMML 070315Z 30005KT 9999 FEW015 22/19 Q1011 NOSIG=
200907070245 METAR LMML 070245Z 31005KT 9999 FEW015 SCT120 22/19 Q1011
                        NOSIG=
200907070230 METAR LMML NIL=
200907070215 METAR LMML 070215Z VRB03KT 9999 FEW015 23/19 Q1011 NOSIG=
200907070200 METAR LMML NIL=
200907070145 METAR LMML 070145Z VRB03KT 9999 FEW015 23/17 Q1011 NOSIG=
200907070130 METAR LMML NIL=
200907070115 METAR LMML 070115Z 27006KT 9999 FEW020 24/17 Q1012 NOSIG=
200907070045 METAR LMML 070045Z 28004KT 9999 FEW020 23/20 Q1012 NOSIG=
200907070030 METAR LMML NIL=
200907070015 METAR LMML 070015Z 33004KT 300V360 CAVOK 23/20 Q1012 NOSIG=
200907070000 METAR LMML NIL=
200907062345 METAR LMML 062345Z VRB03KT CAVOK 23/19 Q1012 NOSIG=
200907062330 METAR LMML NIL=
200907062315 METAR LMML 062315Z 32004KT CAVOK 24/19 Q1012 NOSIG=
200907062300 METAR LMML NIL=
200907062245 METAR LMML 062245Z VRB03KT CAVOK 24/19 Q1012 NOSIG=
200907062230 METAR LMML NIL=
200907062215 METAR LMML 062215Z VRB03KT CAVOK 25/16 Q1012 NOSIG=
200907062200 METAR LMML NIL=
200907062145 METAR LMML 062145Z VRB03KT CAVOK 25/17 Q1012 NOSIG=
200907062130 METAR LMML NIL=
200907062115 METAR LMML 062115Z VRB02KT CAVOK 25/18 Q1012 NOSIG=
200907062100 METAR LMML NIL=
200907062045 METAR LMML 062045Z 30004KT 270V330 CAVOK 25/18 Q1012 NOSIG=
200907062030 METAR LMML NIL=
200907062015 METAR LMML 062015Z 30004KT 260V330 CAVOK 26/18 Q1012 NOSIG=
200907062000 METAR LMML NIL=
200907061945 METAR LMML 061945Z 30005KT CAVOK 26/18 Q1012 NOSIG=
200907061930 METAR LMML NIL=
200907061915 METAR LMML 061915Z 28009KT CAVOK 26/17 Q1011 NOSIG=
200907061900 METAR LMML NIL=
200907061845 METAR LMML 061845Z 28005KT 240V320 CAVOK 27/14 Q1011 NOSIG=
200907061830 METAR LMML NIL=
200907061815 METAR LMML 061815Z 29006KT 260V320 CAVOK 28/11 Q1011 NOSIG=
200907061800 METAR LMML NIL=
200907061745 METAR LMML 061745Z 29006KT 240V320 CAVOK 30/10 Q1011 NOSIG=
200907061730 METAR LMML NIL=
200907061715 METAR LMML 061715Z 28005KT 210V320 CAVOK 31/10 Q1011 NOSIG=
200907061700 METAR LMML NIL=
200907061645 METAR LMML 061645Z 27007KT 230V300 CAVOK 31/10 Q1011 NOSIG=
200907061630 METAR LMML NIL=
200907061615 METAR LMML 061615Z 28007KT 240V320 CAVOK 32/11 Q1011 NOSIG=
200907061600 METAR LMML NIL=
200907061545 METAR LMML 061545Z 31009KT CAVOK 33/11 Q1011 NOSIG=
200907061530 METAR LMML NIL=
200907061515 METAR LMML 061515Z 29010KT 260V330 CAVOK 32/11 Q1011 NOSIG=
200907061500 METAR LMML NIL=
200907061445 METAR LMML 061445Z 32010KT CAVOK 33/11 Q1011 NOSIG=
200907061430 METAR LMML NIL=
200907061415 METAR LMML 061415Z 32011KT 280V350 CAVOK 33/12 Q1011 NOSIG
                        RMK CB TOP TO EAST=
200907061400 METAR LMML NIL=
200907061345 METAR LMML 061345Z 29010KT 250V330 CAVOK 33/12 Q1011 NOSIG
                        RMK CB TOP TO NORTHEAST=
200907061330 METAR LMML NIL=
200907061315 METAR LMML 061315Z 31010KT 270V340 CAVOK 33/11 Q1011 NOSIG
                        RMK CB TOP TO NORTHEAST=
200907061300 METAR LMML NIL=
200907061245 METAR LMML 061245Z 32011KT CAVOK 33/10 Q1011 NOSIG RMK CB
                        TOP TO NORTH=
200907061230 METAR LMML NIL=
200907061215 METAR LMML 061215Z 31010KT 280V350 CAVOK 34/11 Q1012 NOSIG
                        RMK CB TOP TO NORTH=
200907061200 METAR LMML NIL=
200907061145 METAR LMML 061145Z 31012KT 9999 FEW020 33/07 Q1011 NOSIG
                        RMK CB TO NORTH=
200907061130 METAR LMML NIL=
200907061115 METAR LMML 061115Z 30010KT 270V340 9999 FEW020 34/10 Q1011
                        NOSIG=
200907061100 METAR LMML NIL=
200907061045 METAR LMML 061045Z 31009KT 280V360 CAVOK 33/10 Q1011 NOSIG=
200907061030 METAR LMML NIL=
200907061015 METAR LMML 061015Z 32009KT 280V340 CAVOK 33/12 Q1011 NOSIG=
200907061000 METAR LMML NIL=
200907060945 METAR LMML 060945Z 30009KT 260V330 CAVOK 32/11 Q1012 NOSIG=
200907060930 METAR LMML NIL=
200907060915 METAR LMML 060915Z 33005KT 260V040 CAVOK 31/17 Q1012 NOSIG=
200907060845 METAR LMML 060845Z 36005KT 320V060 CAVOK 32/15 Q1012 NOSIG=
200907060830 METAR LMML NIL=
200907060815 METAR LMML 060815Z 34005KT 270V030 CAVOK 31/14 Q1011 NOSIG=
200907060800 METAR LMML NIL=
200907060745 METAR LMML 060745Z 34005KT 300V010 CAVOK 30/14 Q1011 NOSIG=
200907060730 METAR LMML NIL=
200907060715 METAR LMML 060715Z 31008KT 280V340 CAVOK 30/13 Q1011 NOSIG=
200907060700 METAR LMML NIL=
200907060645 METAR LMML 060645Z 32007KT CAVOK 28/15 Q1011 NOSIG=
200907060630 METAR LMML NIL=
200907060615 METAR LMML 060615Z 32009KT 280V350 CAVOK 27/15 Q1011 NOSIG=
200907060600 METAR LMML NIL=
200907060545 METAR LMML 060545Z 33006KT 280V010 CAVOK 26/15 Q1011 NOSIG=
200907060530 METAR LMML NIL=
200907060515 METAR LMML 060515Z 34004KT 300V360 CAVOK 25/17 Q1010 NOSIG=
200907060500 METAR LMML NIL=
200907060445 METAR LMML 060445Z VRB03KT CAVOK 24/16 Q1010 NOSIG=
200907060430 METAR LMML NIL=
200907060415 METAR LMML 060415Z 30004KT 220V360 9999 FEW040 23/17 Q1010
                        NOSIG=
200907060400 METAR LMML NIL=
200907060345 METAR LMML 060345Z VRB02KT CAVOK 23/17 Q1010 NOSIG=
200907060330 METAR LMML NIL=
200907060315 METAR LMML 060315Z VRB03KT CAVOK 23/17 Q1010 NOSIG=
200907060300 METAR LMML NIL=
200907060245 METAR LMML 060245Z 29006KT CAVOK 24/17 Q1010 NOSIG=
200907060230 METAR LMML NIL=
200907060215 METAR LMML 060215Z 31004KT 260V360 CAVOK 23/15 Q1009 NOSIG=
200907060200 METAR LMML NIL=
200907060145 METAR LMML 060145Z 28006KT 230V300 CAVOK 24/15 Q1010 NOSIG=
200907060130 METAR LMML NIL=
200907060115 METAR LMML 060115Z 27007KT 240V310 CAVOK 24/14 Q1010 NOSIG=
200907060100 METAR LMML NIL=
200907060045 METAR LMML 060045Z 28011KT CAVOK 25/12 Q1010 NOSIG=
200907060030 METAR LMML NIL=
200907060015 METAR LMML 060015Z 27007KT 240V310 CAVOK 24/11 Q1010 NOSIG=
200907060000 METAR LMML NIL=
200907052345 METAR LMML 052345Z 27005KT 210V310 CAVOK 24/13 Q1010 NOSIG=
200907052315 METAR LMML 052315Z 28004KT 240V330 CAVOK 24/12 Q1010 NOSIG=
200907052300 METAR LMML NIL=
200907052245 METAR LMML 052245Z 29007KT CAVOK 25/12 Q1010 NOSIG=
200907052215 METAR LMML 052215Z 31005KT 280V350 CAVOK 25/09 Q1011 NOSIG=
200907052200 METAR LMML NIL=
200907052145 METAR LMML 052145Z VRB03KT CAVOK 24/11 Q1010 NOSIG=
200907052130 METAR LMML NIL=
200907052115 METAR LMML 052115Z VRB01KT CAVOK 25/13 Q1010 NOSIG=
200907052100 METAR LMML NIL=
200907052045 METAR LMML 052045Z VRB01KT CAVOK 26/12 Q1010 NOSIG=
200907052030 METAR LMML NIL=
200907052015 METAR LMML 052015Z VRB02KT CAVOK 26/09 Q1010 NOSIG=
200907052000 METAR LMML NIL=
200907051945 METAR LMML 051945Z 27004KT 220V300 CAVOK 27/08 Q1010 NOSIG=
200907051930 METAR LMML NIL=
200907051915 METAR LMML 051915Z 29006KT 250V310 CAVOK 27/08 Q1010 NOSIG=
200907051900 METAR LMML NIL=
200907051845 METAR LMML 051845Z VRB03KT CAVOK 27/08 Q1010 NOSIG RMK DISTANT
                        CB TOPS TO NE=
200907051830 METAR LMML NIL=
200907051815 METAR LMML 051815Z 30006KT 250V330 9999 FEW020 28/06 Q1010
                        NOSIG RMK DISTANT CB TOPS TO NE=
200907051800 METAR LMML NIL=
200907051745 METAR LMML 051745Z 28006KT 240V310 9999 FEW020 30/06 Q1010
                        NOSIG RMK DISTANT CB TO NE=
200907051730 METAR LMML NIL=
200907051715 METAR LMML 051715Z 29008KT 250V330 9999 FEW020 31/05 Q1010
                        NOSIG=
200907051700 METAR LMML NIL=
200907051645 METAR LMML 051645Z 30008KT 260V330 9999 FEW020 31/06 Q1009
                        NOSIG=
200907051630 METAR LMML NIL=
200907051615 METAR LMML 051615Z 30010KT 9999 FEW020 32/05 Q1009 NOSIG=
200907051600 METAR LMML NIL=
200907051545 METAR LMML 051545Z 29007KT 230V330 9999 FEW020 33/08 Q1009
                        NOSIG=
200907051530 METAR LMML NIL=
200907051515 METAR LMML 051515Z 30010KT 9999 FEW020 32/10 Q1010 NOSIG=
200907051500 METAR LMML NIL=
200907051445 METAR LMML 051445Z 31011KT 9999 FEW020 32/13 Q1010 NOSIG=
200907051430 METAR LMML NIL=
200907051415 METAR LMML 051415Z 30011KT 9999 FEW020 32/13 Q1010 NOSIG=
200907051400 METAR LMML NIL=
200907051345 METAR LMML 051345Z 30011KT 270V330 9999 FEW008 32/14 Q1010
                        NOSIG=
200907051330 METAR LMML NIL=
200907051315 METAR LMML 051315Z 30010KT 250V340 9999 FEW008 32/14 Q1011
                        NOSIG=
200907051300 METAR LMML NIL=
200907051245 METAR LMML 051245Z 31009KT 280V350 9999 FEW008 32/14 Q1011
                        NOSIG=
200907051230 METAR LMML NIL=
200907051215 METAR LMML 051215Z 34008KT 9999 FEW008 34/13 Q1011 NOSIG=
200907051200 METAR LMML NIL=
200907051145 METAR LMML 051145Z 30006KT 250V350 9999 FEW012 33/13 Q1011
                        NOSIG=
200907051130 METAR LMML NIL=
200907051115 METAR LMML 051115Z 32009KT 290V350 9999 FEW012 33/13 Q1011
                        NOSIG=
200907051100 METAR LMML NIL=
200907051045 METAR LMML 051045Z 33009KT 9999 FEW012 32/14 Q1011 NOSIG=
200907051030 METAR LMML NIL=
200907051015 METAR LMML 051015Z 31010KT 280V030 9999 FEW009 32/14 Q1011
                        NOSIG=
200907051000 METAR LMML NIL=
200907050945 METAR LMML 050945Z 32009KT 290V350 CAVOK 31/15 Q1011 NOSIG=
200907050930 METAR LMML NIL=
200907050915 METAR LMML 050915Z 32007KT 280V360 9999 FEW008 30/16 Q1011
                        NOSIG=
200907050900 METAR LMML NIL=
200907050845 METAR LMML 050845Z 31007KT 260V340 9999 FEW009 30/17 Q1011
                        NOSIG=
200907050815 METAR LMML 050815Z 29006KT 240V350 9999 FEW009 29/17 Q1011
                        NOSIG=
200907050800 METAR LMML NIL=
200907050745 METAR LMML 050745Z 31005KT 280V340 9999 FEW009 28/17 Q1011
                        NOSIG=
200907050730 METAR LMML NIL=
200907050715 METAR LMML 050715Z 32004KT 260V360 9999 FEW009 28/18 Q1011
                        NOSIG=
200907050700 METAR LMML NIL=
200907050645 METAR LMML 050645Z 31005KT 270V340 9999 FEW009 27/17 Q1011
                        NOSIG=
200907050630 METAR LMML NIL=
200907050615 METAR LMML 050615Z 32005KT 9999 FEW012 26/18 Q1011 NOSIG=
200907050600 METAR LMML NIL=
200907050545 METAR LMML 050545Z VRB01KT 9999 FEW012 25/19 Q1010 NOSIG=
200907050530 METAR LMML NIL=
200907050515 METAR LMML 050515Z VRB02KT 9999 FEW012 24/18 Q1010 NOSIG=
200907050500 METAR LMML NIL=
200907050445 METAR LMML 050445Z VRB03KT 9999 FEW012 23/18 Q1010 NOSIG=
200907050430 METAR LMML NIL=
200907050415 METAR LMML 050415Z VRB03KT 9999 FEW012 22/19 Q1010 NOSIG=
200907050400 METAR LMML NIL=
200907050345 METAR LMML 050345Z 31004KT 9999 FEW012 22/18 Q1010 NOSIG=
200907050330 METAR LMML NIL=
200907050315 METAR LMML 050315Z VRB01KT 9999 FEW012 22/17 Q1010 NOSIG=
200907050300 METAR LMML NIL=
200907050245 METAR LMML 050245Z VRB02KT CAVOK 23/18 Q1010 TEMPO 9999 FEW011=
200907050215 METAR LMML 050215Z 28005KT 250V310 CAVOK 23/18 Q1010 TEMPO
                        9999 FEW011=
200907050200 METAR LMML NIL=
200907050145 METAR LMML 050145Z 30005KT 270V330 CAVOK 23/19 Q1010 NOSIG=
200907050130 METAR LMML NIL=
200907050115 METAR LMML 050115Z 28006KT 240V300 CAVOK 23/19 Q1010 NOSIG=
200907050045 METAR LMML 050045Z 31006KT 280V340 CAVOK 23/18 Q1010 NOSIG=
200907050030 METAR LMML NIL=
200907050015 METAR LMML 050015Z 30006KT 270V330 CAVOK 23/17 Q1011 NOSIG=
200907050000 METAR LMML NIL=
200907042345 METAR LMML 042345Z 28005KT 220V350 CAVOK 24/17 Q1011 NOSIG=
200907042330 METAR LMML NIL=
200907042315 METAR LMML 042315Z 25005KT 230V290 CAVOK 24/16 Q1011 NOSIG=
200907042300 METAR LMML NIL=
200907042245 METAR LMML 042245Z 28006KT 240V300 CAVOK 24/18 Q1011 NOSIG=
200907042230 METAR LMML NIL=
200907042215 METAR LMML 042215Z VRB03KT CAVOK 24/17 Q1011 NOSIG=
200907042200 METAR LMML NIL=
200907042145 METAR LMML 042145Z VRB03KT CAVOK 24/18 Q1011 NOSIG=
200907042130 METAR LMML NIL=
200907042115 METAR LMML 042115Z 28004KT CAVOK 24/17 Q1011 NOSIG=
200907042100 METAR LMML NIL=
200907042045 METAR LMML 042045Z 27006KT CAVOK 25/18 Q1011 NOSIG=
200907042030 METAR LMML NIL=
200907042015 METAR LMML 042015Z VRB03KT CAVOK 25/16 Q1011 NOSIG=
200907042000 METAR LMML NIL=
200907041945 METAR LMML 041945Z 30004KT 260V350 CAVOK 25/16 Q1011 NOSIG=
200907041930 METAR LMML NIL=
200907041915 METAR LMML 041915Z 27005KT 200V320 CAVOK 26/15 Q1010 NOSIG=
200907041900 METAR LMML NIL=
200907041845 METAR LMML 041845Z 28005KT 230V320 CAVOK 26/14 Q1010 NOSIG=
200907041830 METAR LMML NIL=
200907041815 METAR LMML 041815Z 27004KT 220V320 CAVOK 27/13 Q1010 NOSIG=
200907041800 METAR LMML NIL=
200907041745 METAR LMML 041745Z 27006KT 240V310 CAVOK 28/12 Q1010 NOSIG=
200907041715 METAR LMML 041715Z 28009KT CAVOK 28/13 Q1010 NOSIG=
200907041700 METAR LMML NIL=
200907041645 METAR LMML 041645Z 27009KT 240V320 CAVOK 29/13 Q1010 NOSIG=
200907041630 METAR LMML NIL=
200907041615 METAR LMML 041615Z 28010KT 210V310 CAVOK 30/13 Q1010 NOSIG=
200907041600 METAR LMML NIL=
200907041545 METAR LMML 041545Z 27012KT 230V300 CAVOK 30/13 Q1010 NOSIG=
200907041530 METAR LMML NIL=
200907041515 METAR LMML 041515Z 27011KT 240V320 CAVOK 31/13 Q1010 NOSIG=
200907041500 METAR LMML NIL=
200907041445 METAR LMML 041445Z 29010KT 260V320 CAVOK 33/12 Q1010 NOSIG=
200907041430 METAR LMML NIL=
200907041415 METAR LMML 041415Z 30009KT 260V330 CAVOK 32/13 Q1011 NOSIG=
200907041400 METAR LMML NIL=
200907041345 METAR LMML 041345Z 29010KT 250V330 CAVOK 32/14 Q1011 NOSIG=
200907041330 METAR LMML NIL=
200907041315 METAR LMML 041315Z 30011KT 260V330 CAVOK 32/13 Q1011 NOSIG=
200907041300 METAR LMML NIL=
200907041245 METAR LMML 041245Z 28009KT 220V310 CAVOK 33/13 Q1011 NOSIG=
200907041230 METAR LMML NIL=
200907041215 METAR LMML 041215Z 26009KT 220V310 CAVOK 32/13 Q1011 NOSIG=
200907041200 METAR LMML NIL=
200907041145 METAR LMML 041145Z 33004KT 260V050 CAVOK 33/11 Q1012 NOSIG=
200907041130 METAR LMML NIL=
200907041115 METAR LMML 041115Z VRB03KT CAVOK 32/16 Q1012 NOSIG=
200907041100 METAR LMML NIL=
200907041045 METAR LMML 041045Z 08005KT 020V150 CAVOK 31/19 Q1012 NOSIG=
200907041030 METAR LMML NIL=
200907041015 METAR LMML 041015Z 36004KT 300V050 CAVOK 32/13 Q1012 NOSIG=
200907041000 METAR LMML NIL=
200907040945 METAR LMML 040945Z 32005KT 270V030 CAVOK 31/13 Q1012 NOSIG=
200907040930 METAR LMML NIL=
200907040915 METAR LMML 040915Z 34006KT 290V030 CAVOK 30/13 Q1012 NOSIG=
200907040900 METAR LMML NIL=
200907040845 METAR LMML 040845Z 35008KT 320V020 CAVOK 30/15 Q1012 NOSIG=
200907040830 METAR LMML NIL=
200907040815 METAR LMML 040815Z 33007KT 290V360 CAVOK 29/16 Q1012 NOSIG=
200907040745 METAR LMML 040745Z 34006KT 290V010 CAVOK 28/17 Q1012 NOSIG=
200907040730 METAR LMML NIL=
200907040715 METAR LMML 040715Z 33006KT 300V010 9999 FEW020 27/18 Q1012
                        NOSIG=
200907040700 METAR LMML NIL=
200907040645 METAR LMML 040645Z 33007KT 9999 FEW020 26/19 Q1012 NOSIG=
200907040630 METAR LMML NIL=
200907040615 METAR LMML 040615Z 32008KT 9999 FEW020 25/19 Q1012 NOSIG=
200907040600 METAR LMML NIL=
200907040545 METAR LMML 040545Z 33004KT 310V010 9000 FEW020 23/20 Q1012
                        BECMG CAVOK=
200907040530 METAR LMML NIL=
200907040515 METAR LMML 040515Z 31004KT 6000 BR NSC 22/21 Q1011 BECMG
                        9999=
200907040500 METAR LMML NIL=
200907040445 METAR LMML 040445Z 31005KT 4000 BR FEW005 22/21 Q1011 NOSIG=
200907040430 METAR LMML NIL=
200907040415 METAR LMML 040415Z 33004KT 4000 BR FEW005 21/21 Q1011 NOSIG=
200907040400 METAR LMML NIL=
200907040345 METAR LMML 040345Z 32005KT 4000 BR FEW004 21/21 Q1011 NOSIG=
200907040330 METAR LMML NIL=
200907040315 METAR LMML 040315Z 32006KT 6000 FEW004 22/21 Q1011 TEMPO
                        5000=
200907040300 METAR LMML NIL=
200907040245 METAR LMML 040245Z 34004KT 310V020 6000 FEW012 22/21 Q1011
                        TEMPO 5000=
200907040215 METAR LMML 040215Z 31007KT 7000 FEW012 22/21 Q1011 NOSIG=
200907040200 METAR LMML NIL=
200907040145 METAR LMML 040145Z 31004KT 7000 FEW012 22/20 Q1011 NOSIG=
200907040130 METAR LMML NIL=
200907040115 METAR LMML 040115Z VRB03KT 7000 FEW012 22/20 Q1011 NOSIG=
200907040100 METAR LMML NIL=
200907040045 METAR LMML 040045Z VRB03KT 9000 FEW012 22/20 Q1011 NOSIG=
200907040015 METAR LMML 040015Z 27004KT 230V320 CAVOK 22/20 Q1011 NOSIG=
200907032345 METAR LMML 032345Z 29004KT 240V320 CAVOK 23/20 Q1012 NOSIG=
200907032315 METAR LMML 032315Z 28007KT 240V300 CAVOK 23/19 Q1012 NOSIG=
200907032300 METAR LMML NIL=
200907032245 METAR LMML 032245Z 28005KT 230V330 CAVOK 23/19 Q1012 NOSIG=
200907032230 METAR LMML NIL=
200907032215 METAR LMML 032215Z 27004KT 230V320 CAVOK 23/18 Q1012 NOSIG=
200907032200 METAR LMML NIL=
200907032145 METAR LMML 032145Z 27005KT 240V300 CAVOK 23/18 Q1012 NOSIG=
200907032130 METAR LMML NIL=
200907032115 METAR LMML 032115Z 28004KT 250V310 CAVOK 23/17 Q1013 NOSIG=
200907032045 METAR LMML 032045Z VRB01KT CAVOK 23/17 Q1013 NOSIG RMK SMOKE
                        TO NORTHWEST=
200907032030 METAR LMML NIL=
200907032015 METAR LMML 032015Z VRB03KT CAVOK 24/17 Q1013 NOSIG=
200907032000 METAR LMML NIL=
200907031945 METAR LMML 031945Z 29004KT 260V330 CAVOK 24/16 Q1013 NOSIG=
200907031915 METAR LMML 031915Z 29005KT CAVOK 24/15 Q1013 NOSIG=
200907031900 METAR LMML NIL=
200907031845 METAR LMML 031845Z VRB03KT CAVOK 24/16 Q1012 NOSIG=
200907031830 METAR LMML NIL=
200907031815 METAR LMML 031815Z VRB03KT 9999 FEW020 25/18 Q1012 NOSIG=
200907031800 METAR LMML NIL=
200907031745 METAR LMML 031745Z 27004KT 230V310 9999 FEW020 25/18 Q1012
                        NOSIG=
200907031715 METAR LMML 031715Z 27005KT 200V320 CAVOK 26/18 Q1012 NOSIG=
200907031700 METAR LMML NIL=
200907031645 METAR LMML 031645Z 22006KT 200V260 CAVOK 26/20 Q1012 NOSIG=
200907031630 METAR LMML NIL=
200907031615 METAR LMML 031615Z 22006KT 190V260 CAVOK 26/19 Q1012 NOSIG=
200907031600 METAR LMML NIL=
200907031545 METAR LMML 031545Z 23006KT 190V290 CAVOK 27/19 Q1012 NOSIG
                        RMK CB TOP TO NE=
200907031530 METAR LMML NIL=
200907031515 METAR LMML 031515Z 28009KT 220V320 CAVOK 29/16 Q1013 NOSIG
                        RMK CB TOP TO NE=
200907031500 METAR LMML NIL=
200907031445 METAR LMML 031445Z 28009KT 230V330 CAVOK 30/14 Q1013 NOSIG
                        RMK CB TOP TO NORTHEAST=
200907031430 METAR LMML NIL=
200907031415 METAR LMML 031415Z 30012KT CAVOK 30/12 Q1013 NOSIG RMK CB
                        TOP TO NORTHEAST=
200907031400 METAR LMML NIL=
200907031345 METAR LMML 031345Z 30012KT 260V330 9999 FEW015 30/13 Q1013
                        NOSIG RMK CB TOP TO NORTHEAST=
200907031330 METAR LMML NIL=
200907031315 METAR LMML 031315Z 29011KT 240V330 9999 FEW015 30/14 Q1014
                        NOSIG RMK CB TOP TO NORTHEAST=
200907031300 METAR LMML NIL=
200907031245 METAR LMML 031245Z 30012KT 260V340 9999 FEW012 30/14 Q1014
                        NOSIG=
200907031230 METAR LMML NIL=
200907031215 METAR LMML 031215Z 31010KT 240V350 9999 FEW012 30/14 Q1014
                        NOSIG=
200907031200 METAR LMML NIL=
200907031145 METAR LMML 031145Z 30010KT 250V330 9999 FEW012 30/15 Q1014
                        NOSIG=
200907031130 METAR LMML NIL=
200907031115 METAR LMML 031115Z 31011KT 9999 FEW012 29/15 Q1014 NOSIG=
200907031100 METAR LMML NIL=
200907031045 METAR LMML 031045Z 30011KT 270V340 9999 FEW012 29/16 Q1014
                        NOSIG=
200907031030 METAR LMML NIL=
200907031015 METAR LMML 031015Z 32008KT 280V360 9999 FEW012 29/18 Q1015
                        NOSIG=
200907031000 METAR LMML NIL=
200907030945 METAR LMML 030945Z 31007KT 280V360 9999 FEW012 29/18 Q1014
                        NOSIG=
200907030930 METAR LMML NIL=
200907030915 METAR LMML 030915Z 34006KT 310V020 9000 FEW012 29/20 Q1014
                        BECMG 9999=
200907030900 METAR LMML NIL=
200907030845 METAR LMML 030845Z 30008KT 280V340 9000 FEW012 28/18 Q1014
                        BECMG 9999=
200907030830 METAR LMML NIL=
200907030815 METAR LMML 030815Z 31008KT 280V350 9000 FEW012 28/19 Q1014
                        BECMG 9999=
200907030800 METAR LMML NIL=
200907030745 METAR LMML 030745Z 30008KT 250V330 9000 FEW012 26/19 Q1014
                        BECMG 9999=
200907030730 METAR LMML NIL=
200907030715 METAR LMML 030715Z 29006KT 260V330 9000 FEW012 25/20 Q1014
                        BECMG 9999=
200907030700 METAR LMML NIL=
200907030645 METAR LMML 030645Z 32009KT 7000 FEW012 25/20 Q1014 BECMG
                        9999=
200907030630 METAR LMML NIL=
200907030615 METAR LMML 030615Z 31009KT 7000 NSC 24/20 Q1014 BECMG 9999=
200907030545 METAR LMML 030545Z 30009KT 7000 FEW011 23/20 Q1014 BECMG
                        9999=
200907030530 METAR LMML NIL=
200907030515 METAR LMML 030515Z 29008KT 270V330 7000 FEW011 22/20 Q1014
                        BECMG 9999=
200907030500 METAR LMML NIL=
200907030445 METAR LMML 030445Z 30007KT 7000 FEW011 22/20 Q1013 BECMG
                        9999=
200907030430 METAR LMML NIL=
200907030415 METAR LMML 030415Z 31008KT 280V340 7000 FEW011 22/20 Q1013
                        NOSIG=
200907030400 METAR LMML NIL=
200907030345 METAR LMML 030345Z 29008KT 260V320 9999 FEW012 22/19 Q1013
                        NOSIG=
200907030330 METAR LMML NIL=
200907030315 METAR LMML 030315Z 27004KT 220V310 CAVOK 22/18 Q1013 NOSIG=
200907030300 METAR LMML NIL=
200907030245 METAR LMML 030245Z VRB03KT CAVOK 22/19 Q1013 NOSIG=
200907030230 METAR LMML NIL=
200907030215 METAR LMML 030215Z VRB01KT CAVOK 21/18 Q1014 NOSIG=
200907030200 METAR LMML NIL=
200907030145 METAR LMML 030145Z 28004KT 250V320 CAVOK 22/19 Q1014 NOSIG=
200907030130 METAR LMML NIL=
200907030115 METAR LMML 030115Z 26006KT 200V290 CAVOK 22/19 Q1014 NOSIG=
200907030100 METAR LMML NIL=
200907030045 METAR LMML 030045Z 24005KT 210V280 CAVOK 22/18 Q1014 NOSIG=
200907030030 METAR LMML NIL=
200907030015 METAR LMML 030015Z 25005KT 210V310 CAVOK 21/18 Q1014 NOSIG=
200907030000 METAR LMML NIL=
200907022345 METAR LMML 022345Z 26004KT 230V290 CAVOK 21/19 Q1014 NOSIG=
200907022330 METAR LMML NIL=
200907022315 METAR LMML 022315Z 25004KT 210V290 CAVOK 21/19 Q1015 NOSIG=
200907022300 METAR LMML NIL=
200907022245 METAR LMML 022245Z 25004KT 220V280 CAVOK 22/19 Q1015 NOSIG=
200907022230 METAR LMML NIL=
200907022215 METAR LMML 022215Z VRB03KT CAVOK 22/19 Q1015 NOSIG=
200907022200 METAR LMML NIL=
200907022145 METAR LMML 022145Z VRB03KT CAVOK 22/19 Q1015 NOSIG=
200907022130 METAR LMML NIL=
200907022115 METAR LMML 022115Z VRB03KT CAVOK 22/19 Q1016 NOSIG=
200907022100 METAR LMML NIL=
200907022045 METAR LMML 022045Z VRB02KT CAVOK 22/19 Q1016 NOSIG=
200907022030 METAR LMML NIL=
200907022015 METAR LMML 022015Z VRB02KT CAVOK 23/19 Q1016 NOSIG=
200907022000 METAR LMML NIL=
200907021945 METAR LMML 021945Z 29004KT CAVOK 23/19 Q1015 NOSIG=
200907021930 METAR LMML NIL=
200907021915 METAR LMML 021915Z 29005KT CAVOK 23/19 Q1016 NOSIG=
200907021900 METAR LMML NIL=
200907021845 METAR LMML 021845Z 30005KT 9999 FEW020 24/17 Q1015 NOSIG=
200907021830 METAR LMML NIL=
200907021815 METAR LMML 021815Z 31004KT 9999 FEW020 25/17 Q1015 NOSIG=
200907021800 METAR LMML NIL=
200907021745 METAR LMML 021745Z 32005KT 290V350 9999 FEW020 26/17 Q1015
                        NOSIG=
200907021730 METAR LMML NIL=
200907021715 METAR LMML 021715Z 30006KT 280V340 9999 FEW020 26/16 Q1015
                        NOSIG=
200907021700 METAR LMML NIL=
200907021645 METAR LMML 021645Z 31006KT 280V340 9999 FEW020 27/16 Q1015
                        NOSIG=
200907021630 METAR LMML NIL=
200907021615 METAR LMML 021615Z 32007KT 9999 FEW020 27/17 Q1015 NOSIG=
200907021600 METAR LMML NIL=
200907021545 METAR LMML 021545Z 29008KT 240V330 9999 FEW026 28/17 Q1015
                        NOSIG=
200907021515 METAR LMML 021515Z 24008KT 200V290 9999 FEW020 27/19 Q1015
                        NOSIG=
200907021500 METAR LMML NIL=
200907021445 METAR LMML 021445Z 23008KT 200V280 9999 FEW025 27/19 Q1015
                        NOSIG RMK CB TOP TO NORTH NORTHWEST=
200907021430 METAR LMML NIL=
200907021415 METAR LMML 021415Z 24007KT 190V310 9999 FEW031 28/18 Q1016
                        NOSIG RMK CB TOP TO NORTH=
200907021400 METAR LMML NIL=
200907021345 METAR LMML 021345Z 22007KT 180V260 9999 FEW031 28/18 Q1016
                        NOSIG=
200907021330 METAR LMML NIL=
200907021315 METAR LMML 021315Z 23007KT 200V290 9999 FEW031 28/18 Q1016
                        NOSIG=
200907021245 METAR LMML 021245Z 22010KT 190V250 9999 FEW027 27/19 Q1016
                        NOSIG=
200907021215 METAR LMML 021215Z 23009KT 200V290 9999 FEW027 27/19 Q1016
                        NOSIG=
200907021200 METAR LMML NIL=
200907021145 METAR LMML 021145Z VRB03KT 9999 FEW032 28/19 Q1016 NOSIG=
200907021130 METAR LMML NIL=
200907021115 METAR LMML 021115Z 22008KT 160V300 9999 FEW032 27/18 Q1017
                        NOSIG=
200907021100 METAR LMML NIL=
200907021045 METAR LMML 021045Z 21009KT 170V280 9999 FEW027 27/19 Q1017
                        NOSIG=
200907021030 METAR LMML NIL=
200907021015 METAR LMML 021015Z 10005KT 030V200 9999 FEW025 27/19 Q1017
                        NOSIG=
200907021000 METAR LMML NIL=
200907020945 METAR LMML 020945Z 11008KT 060V150 9999 FEW026 28/20 Q1017
                        NOSIG=
200907020930 METAR LMML NIL=
200907020915 METAR LMML 020915Z 32004KT 180V060 9999 FEW015 29/16 Q1017
                        NOSIG=
200907020900 METAR LMML NIL=
200907020845 METAR LMML 020845Z VRB03KT 9999 FEW015 27/17 Q1017 NOSIG=
200907020830 METAR LMML NIL=
200907020815 METAR LMML 020815Z VRB03KT 9999 FEW012 27/17 Q1017 NOSIG=
200907020800 METAR LMML NIL=
200907020745 METAR LMML 020745Z 31004KT 250V040 9999 FEW012 26/19 Q1017
                        NOSIG=
200907020730 METAR LMML NIL=
200907020715 METAR LMML 020715Z 31004KT 220V360 9999 FEW012 25/18 Q1017
                        NOSIG=
200907020700 METAR LMML NIL=
200907020645 METAR LMML 020645Z VRB03KT 9999 FEW012 24/19 Q1017 NOSIG=
200907020630 METAR LMML NIL=
200907020615 METAR LMML 020615Z VRB03KT 8000 FEW012 23/19 Q1017 BECMG
                        9999=
200907020600 METAR LMML NIL=
200907020545 METAR LMML 020545Z VRB02KT 7000 FEW012 22/20 Q1017 BECMG
                        9999=
200907020530 METAR LMML NIL=
200907020515 METAR LMML 020515Z VRB03KT 7000 FEW012 21/20 Q1016 BECMG
                        9999=
200907020500 METAR LMML NIL=
200907020445 METAR LMML 020445Z VRB02KT 7000 FEW012 21/19 Q1016 BECMG
                        9999=
200907020430 METAR LMML NIL=
200907020415 METAR LMML 020415Z VRB02KT 8000 FEW012 20/19 Q1016 BECMG
                        9999=
200907020400 METAR LMML NIL=
200907020345 METAR LMML 020345Z VRB03KT 8000 FEW012 20/19 Q1016 NOSIG=
200907020330 METAR LMML NIL=
200907020315 METAR LMML 020315Z VRB01KT 9999 FEW012 20/19 Q1016 NOSIG=
200907020300 METAR LMML NIL=
200907020245 METAR LMML 020245Z VRB02KT CAVOK 20/19 Q1016 NOSIG=
200907020230 METAR LMML NIL=
200907020215 METAR LMML 020215Z VRB01KT CAVOK 20/19 Q1016 NOSIG=
200907020145 METAR LMML 020145Z VRB02KT CAVOK 21/19 Q1016 NOSIG=
200907020130 METAR LMML NIL=
200907020115 METAR LMML 020115Z VRB02KT CAVOK 21/19 Q1017 NOSIG=
200907020100 METAR LMML NIL=
200907020045 METAR LMML 020045Z 26005KT 230V290 CAVOK 21/19 Q1017 NOSIG=
200907020030 METAR LMML NIL=
200907020015 METAR LMML 020015Z 26004KT 210V290 CAVOK 21/17 Q1017 NOSIG=
200907020000 METAR LMML NIL=
200907012345 METAR LMML 012345Z 24004KT CAVOK 21/15 Q1017 NOSIG=
200907012330 METAR LMML NIL=
200907012315 METAR LMML 012315Z VRB03KT CAVOK 21/17 Q1017 NOSIG=
200907012245 METAR LMML 012245Z VRB03KT CAVOK 22/17 Q1017 NOSIG=
200907012215 METAR LMML 012215Z VRB03KT CAVOK 22/18 Q1017 NOSIG=
200907012200 METAR LMML NIL=
200907012145 METAR LMML 012145Z VRB02KT CAVOK 22/18 Q1017 NOSIG=
200907012130 METAR LMML NIL=
200907012115 METAR LMML 012115Z VRB02KT CAVOK 22/18 Q1017 NOSIG=
200907012100 METAR LMML NIL=
200907012045 METAR LMML 012045Z VRB03KT CAVOK 22/19 Q1017 NOSIG=
200907012030 METAR LMML NIL=
200907012015 METAR LMML 012015Z 30004KT 270V330 CAVOK 22/19 Q1018 NOSIG=
200907012000 METAR LMML NIL=
200907011945 METAR LMML 011945Z 31006KT CAVOK 22/19 Q1017 NOSIG=
200907011915 METAR LMML 011915Z 30004KT 270V330 CAVOK 23/19 Q1017 NOSIG=
200907011845 METAR LMML 011845Z 32005KT 9999 FEW013 23/19 Q1017 NOSIG=
200907011830 METAR LMML NIL=
200907011815 METAR LMML 011815Z 33006KT 300V010 9999 FEW013 24/19 Q1016
                        NOSIG=
200907011800 METAR LMML NIL=
200907011745 METAR LMML 011745Z 31007KT 9999 FEW014 24/18 Q1016 NOSIG=
200907011730 METAR LMML NIL=
200907011715 METAR LMML 011715Z 27006KT 240V300 9999 FEW020 26/18 Q1016
                        NOSIG=
200907011700 METAR LMML NIL=
200907011645 METAR LMML 011645Z 28004KT 230V330 9999 FEW020 27/18 Q1016
                        NOSIG RMK CB TOPS TO N=
200907011630 METAR LMML NIL=
200907011615 METAR LMML 011615Z 06004KT 350V120 9999 FEW024 28/20 Q1016
                        NOSIG RMK CB TOPS TO N=
200907011545 METAR LMML 011545Z 25004KT 200V300 9999 FEW024 27/18 Q1016
                        NOSIG=
200907011530 METAR LMML NIL=
200907011515 METAR LMML 011515Z 22006KT 180V280 9999 FEW020 25/19 Q1016
                        NOSIG=
200907011500 METAR LMML NIL=
200907011445 METAR LMML 011445Z 20008KT 170V250 9999 FEW020 25/20 Q1016
                        NOSIG=
200907011430 METAR LMML NIL=
200907011415 METAR LMML 011415Z 21007KT 170V270 9999 FEW020 26/19 Q1016
                        NOSIG=
200907011400 METAR LMML NIL=
200907011345 METAR LMML 011345Z 22007KT 170V270 9999 FEW023 26/19 Q1016
                        NOSIG RMK CB TOP TO NORTHEAST=
200907011330 METAR LMML NIL=
200907011315 METAR LMML 011315Z 21008KT 160V250 9999 FEW023 27/19 Q1016
                        NOSIG RMK CB TOP TO NORTHEAST=
200907011300 METAR LMML NIL=
200907011245 METAR LMML 011245Z 22007KT 160V270 9999 FEW023 27/19 Q1017
                        NOSIG RMK CB TOP TO NORTHEAST=
200907011230 METAR LMML NIL=
200907011215 METAR LMML 011215Z 22008KT 180V270 9999 FEW023 26/20 Q1017
                        NOSIG=
200907011200 METAR LMML NIL=
200907011145 METAR LMML 011145Z 21007KT 170V260 9999 FEW023 27/19 Q1017
                        NOSIG=
200907011130 METAR LMML NIL=
200907011115 METAR LMML 011115Z 22008KT 170V260 9999 FEW023 26/19 Q1017
                        NOSIG=
200907011100 METAR LMML NIL=
200907011045 METAR LMML 011045Z 22007KT 170V290 9999 FEW023 27/19 Q1017
                        NOSIG=
200907011030 METAR LMML NIL=
200907011015 METAR LMML 011015Z 36005KT 9999 FEW023 27/19 Q1017 NOSIG=
200907011000 METAR LMML NIL=
200907010945 METAR LMML 010945Z 02005KT 330V070 9999 FEW015 27/19 Q1017
                        TEMPO BKN012=
200907010930 METAR LMML NIL=
200907010915 METAR LMML 010915Z 02004KT 340V110 9999 FEW012 28/19 Q1017
                        TEMPO BKN012=
200907010900 METAR LMML NIL=
200907010845 METAR COR LMML 010845Z 08005KT 9999 FEW012 27/19 Q1017 TEMPO
                        BKN012=
200907010830 METAR LMML NIL=
200907010815 METAR LMML 010815Z VRB02KT 9999 FEW012 28/18 Q1017 TEMPO
                        BKN012=
200907010800 METAR LMML NIL=
200907010745 METAR LMML 010745Z VRB01KT 9999 FEW015 27/12 Q1017 NOSIG=
200907010730 METAR LMML NIL=
200907010715 METAR LMML 010715Z VRB03KT 9999 FEW015 26/14 Q1016 NOSIG=
200907010700 METAR LMML NIL=
200907010645 METAR LMML 010645Z VRB02KT 9999 FEW012 25/15 Q1016 NOSIG=
200907010630 METAR LMML NIL=
200907010615 METAR LMML 010615Z VRB01KT 9999 FEW012 24/18 Q1016 NOSIG=
200907010545 METAR LMML 010545Z VRB02KT 9000 FEW012 22/19 Q1016 NOSIG=
200907010530 METAR LMML NIL=
200907010515 METAR LMML 010515Z VRB01KT 9000 FEW008 21/19 Q1016 BECMG
                        9999=
200907010500 METAR LMML NIL=
200907010445 METAR LMML 010445Z 00000KT 7000 FEW008 20/19 Q1016 BECMG
                        9999=
200907010430 METAR LMML NIL=
200907010415 METAR LMML 010415Z VRB02KT 9000 FEW008 20/18 Q1016 BECMG
                        9999=
200907010400 METAR LMML NIL=
200907010345 METAR LMML 010345Z VRB01KT 9999 FEW008 20/18 Q1015 NOSIG=
200907010330 METAR LMML NIL=
200907010315 METAR LMML 010315Z VRB02KT CAVOK 20/18 Q1015 NOSIG=
200907010300 METAR LMML NIL=
200907010245 METAR LMML 010245Z VRB03KT CAVOK 20/18 Q1016 NOSIG=
200907010230 METAR LMML NIL=
200907010215 METAR LMML 010215Z VRB02KT CAVOK 20/18 Q1016 NOSIG=
200907010200 METAR LMML NIL=
200907010145 METAR LMML 010145Z VRB02KT CAVOK 20/17 Q1016 NOSIG=
200907010130 METAR LMML NIL=
200907010115 METAR LMML 010115Z VRB03KT CAVOK 20/17 Q1016 NOSIG=
200907010100 METAR LMML NIL=
200907010045 METAR LMML 010045Z VRB03KT CAVOK 20/16 Q1016 NOSIG=
200907010030 METAR LMML NIL=
200907010015 METAR LMML 010015Z VRB01KT CAVOK 20/15 Q1016 NOSIG=
200907010000 METAR LMML NIL=

###################################
#  short TAF from LMML
###################################
200907312300 TAF LMML 312300Z 0100/0109 30004KT CAVOK
                      PROB30 TEMPO 0100/0106 6000 SCT004=
200907312000 TAF LMML 312000Z 3121/0106 33004KT CAVOK
                      TEMPO 3121/0106 7000 SCT004=
200907311700 TAF LMML 311700Z 3118/0103 28004KT CAVOK
                      TEMPO 3121/0103 9999 FEW010
                      PROB30 TEMPO 0100/0103 8000 SCT008=
200907311400 TAF LMML 311400Z 3115/3124 23006KT 9999 FEW025
                      BECMG 3115/3118 CAVOK=
200907311100 TAF LMML 311100Z 3112/3121 VRB05KT CAVOK
                      PROB30 TEMPO 3112/3117 9999 FEW020=
200907310800 TAF LMML 310800Z 3109/3118 VRB05KT CAVOK
                      TEMPO 3109/3118 9999 FEW020=
200907310500 TAF LMML 310500Z 3106/3115 VRB05KT 9999 FEW015
                      TEMPO 3108/3115 CAVOK=
200907310200 TAF LMML 310200Z 3103/3112 VRB03KT CAVOK
                      TEMPO 3103/3112 9999 FEW012
                      PROB30 TEMPO 3103/3106 8000 BKN008=
200907302300 TAF LMML 302300Z 3100/3109 VRB03KT CAVOK
                      TEMPO 3100/3109 9999 FEW012
                      PROB30 TEMPO 3100/3106 8000 BKN008=
200907302000 TAF LMML 302000Z 3021/3106 VRB03KT 9999 FEW012
                      PROB40 TEMPO 3021/3106 8000 BKN008=
200907301700 TAF LMML 301700Z 3018/3103 VRB03KT 9999 FEW012
                      PROB30 TEMPO 3020/3103 9999 BKN008=
200907301400 TAF LMML 301400Z 3015/3024 23005KT CAVOK
                      PROB30 TEMPO 3015/3024 9999 FEW015=
200907301100 TAF LMML 301100Z 3012/3021 VRB06KT CAVOK
                      PROB30 TEMPO 3015/3021 9999 FEW018=
200907300800 TAF LMML 300800Z 3009/3018 VRB06KT 9999 FEW025
                      PROB30 TEMPO 3009/3015 CAVOK=
200907300500 TAF LMML 300500Z 3006/3015 VRB03KT 9999 FEW012=
200907300200 TAF LMML 300200Z 3003/3012 VRB03KT 9999 FEW008
                      PROB40 TEMPO 3003/3006 8000 BKN008
                      PROB30 TEMPO 3003/3006 4000 BR BKN005=
200907292300 TAF LMML 292300Z 3000/3009 VRB03KT 9999 FEW008
                      PROB40 TEMPO 3000/3006 8000 BKN008
                      PROB30 TEMPO 3000/3006 4000 BR BKN005=
200907292000 TAF LMML 292000Z 2921/3006 VRB03KT 9999 FEW008
                      PROB40 TEMPO 2921/3006 8000 BKN008
                      PROB30 TEMPO 2921/3006 4000 BR BKN004=
200907291700 TAF LMML 291700Z 2918/3003 VRB05KT 9999 FEW012
                      PROB40 TEMPO 2918/3003 8000 BKN008
                      PROB30 TEMPO 3000/3003 5000 BR BKN005=
200907291400 TAF LMML 291400Z 2915/2924 29005KT 9999 FEW015
                      TEMPO 2918/2924 CAVOK=
200907291100 TAF LMML 291100Z 2912/2921 VRB05KT 9999 FEW015
                      TEMPO 2918/2921 CAVOK=
200907290800 TAF LMML 290800Z 2909/2918 VRB05KT CAVOK
                      TEMPO 2909/2918 9999 FEW020=
200907290500 TAF LMML 290500Z 2906/2915 30008KT 9999 FEW020
                      TEMPO 2906/2915 CAVOK=
200907290200 TAF LMML 290200Z 2903/2912 28006KT CAVOK
                      TEMPO 2903/2912 9999 FEW015
                      PROB30 TEMPO 2903/2906 7000 BKN005=
200907282300 TAF LMML 282300Z 2900/2909 28005KT CAVOK
                      PROB30 TEMPO 2900/2906 9000 FEW008
                      BECMG 2906/2909 9999 FEW015=
200907282000 TAF LMML 282000Z 2821/2906 30005KT 9999 FEW020
                      BECMG 2821/2824 CAVOK
                      PROB30 TEMPO 2900/2906 9000 FEW008=
200907281700 TAF LMML 281700Z 2818/2903 30006KT CAVOK
                      TEMPO 2818/2821 9999 FEW015=
200907281400 TAF LMML 281400Z 2815/2824 27005KT 9999 FEW015
                      TEMPO 2818/2824 CAVOK=
200907281100 TAF LMML 281100Z 2812/2821 27005KT 9999 FEW015
                      PROB40 TEMPO 2818/2824 CAVOK=
200907280800 TAF LMML 280800Z 2809/2818 27005KT CAVOK
                      PROB40 TEMPO 9999 FEW020=
200907280500 TAF LMML 280500Z 2806/2815 VRB05KT CAVOK=
200907280200 TAF LMML 280200Z 2803/2812 27004KT CAVOK
                      PROB30 TEMPO 2803/2806 7000 FEW005=
200907272300 TAF LMML 272300Z 2800/2809 27004KT CAVOK
                      PROB30 TEMPO 2800/2806 7000 FEW005=
200907272000 TAF LMML 272000Z 2721/2806 VRB03KT CAVOK
                      PROB30 TEMPO 2723/2806 7000 FEW005=
200907271700 TAF LMML 271700Z 2718/2803 VRB03KT CAVOK
                      PROB40 TEMPO 2718/2803 9999FEW025=
200907271400 TAF LMML 271400Z 2715/2724 VRB04KT CAVOK
                      TEMPO 9999 FEW025=
200907271100 TAF LMML 271100Z 2712/2721 VRB06KT CAVOK
                      TEMPO 2712/2721 9999 FEW020=
200907270800 TAF LMML 270800Z 2709/2718 VRB06KT CAVOK
                      TEMPO 2709/2718 9999 FEW018=
200907270500 TAF LMML 270500Z 2706/2715 09005KT CAVOK
                      PROB30 TEMPO 2706/2709 9999 FEW015=
200907270200 TAF LMML 270200Z 2703/2712 09005KT CAVOK
                      PROB40 TEMPO 2703/2707 9999 FEW015=
200907262300 TAF LMML 262300Z 2700/2709 09005KT CAVOK
                      PROB40 TEMPO 2702/2706 9999 FEW011=
200907262000 TAF LMML 262000Z 2621/2706 VRB04KT CAVOK
                      TEMPO 2700/2706 9999 FEW011=
200907261700 TAF LMML 261700Z 2618/2703 30005KT CAVOK
                      TEMPO 2618/2703 9999 FEW011=
200907261400 TAF LMML 261400Z 2615/2624 30005KT CAVOK=
200907261100 TAF LMML 261100Z 2612/2621 VRB05KT CAVOK=
200907260800 TAF LMML 260800Z 2609/2618 32006KT CAVOK=
200907260500 TAF LMML 260500Z 2606/2615 30005KT CAVOK=
200907260200 TAF LMML 260200Z 2603/2612 30005KT CAVOK=
200907252300 TAF LMML 252300Z 2600/2609 30005KT CAVOK=
200907252000 TAF LMML 252000Z 2521/2606 29010KT CAVOK=
200907251700 TAF LMML 251700Z 2518/2603 32010KT CAVOK
                      BECMG 2522/2601 VRB03KT=
200907251400 TAF LMML 251400Z 2515/2524 33012KT CAVOK
                      BECMG 2521/2524 VRB03KT=
200907251100 TAF LMML 251100Z 2512/2521 32012KT CAVOK=
200907250800 TAF LMML 250800Z 2509/2518 30010KT CAVOK=
200907250500 TAF LMML 250500Z 2506/2515 30010KT CAVOK=
200907250200 TAF LMML 250200Z 2503/2512 30008KT CAVOK
                      PROB30 TEMPO 2509/2512 29015G25KT=
200907242300 TAF LMML 242300Z 2500/2509 29006KT CAVOK=
200907242000 TAF LMML 242000Z 2421/2506 29007KT CAVOK=
200907241700 TAF LMML 241700Z 2418/2503 30008KT CAVOK=
200907241400 TAF LMML 241400Z 2415/2424 30008KT CAVOK=
200907241100 TAF LMML 241100Z 2412/2421 30008KT CAVOK=
200907240800 TAF LMML 240800Z 2409/2418 30008KT CAVOK=
200907240500 TAF LMML 240500Z 2406/2415 31008KT CAVOK=
200907240200 TAF LMML 240200Z 2403/2412 31006KT CAVOK=
200907232300 TAF LMML 232300Z 2400/2409 30004KT CAVOK=
200907232000 TAF LMML 232000Z 2321/2406 30004KT CAVOK=
200907231700 TAF LMML 231700Z 2318/2403 VRB04KT CAVOK=
200907231400 TAF LMML 231400Z 2315/2324 VRB06KT CAVOK=
200907231100 TAF LMML 231100Z 2312/2321 VRB06KT CAVOK=
200907230800 TAF LMML 230800Z 2309/2318 VRB06KT CAVOK=
200907230500 TAF LMML 230500Z 2306/2315 VRB05KT CAVOK=
200907230200 TAF LMML 230200Z 2303/2312 VRB04KT CAVOK
                      PROB40 TEMPO 2303/2306 9000 NSC
                      PROB30 TEMPO 2303/2306 FEW005=
200907222300 TAF LMML 222300Z 2300/2309 VRB03KT CAVOK
                      PROB40 TEMPO 2300/2306 8000 NSC
                      PROB30 TEMPO 2302/2306 FEW005=
200907222000 TAF LMML 222000Z 2221/2306 VRB03KT CAVOK
                      PROB30 TEMPO 2300/2306 8000 FEW008=
200907221700 TAF LMML 221700Z 2218/2303 VRB03KT CAVOK
                      PROB30 TEMPO 2300/2305 6000 FEW003=
200907221400 TAF LMML 221400Z 2215/2224 VRB05KT CAVOK
                      PROB30 TEMPO 2222/2224 8000 FEW005=
200907221100 TAF LMML 221100Z 2212/2221 VRB05KT CAVOK=
200907220800 TAF LMML 220800Z 2209/2218 VRB05KT CAVOK=
200907220500 TAF LMML 220500Z 2206/2215 VRB05KT CAVOK=
200907220200 TAF LMML 220200Z 2203/2212 29004KT CAVOK
                      TEMPO 2203/2206 9999 FEW010
                      PROB30 TEMPO 2203/2206 5000 BR BKN005=
200907212300 TAF LMML 212300Z 2200/2209 29004KT CAVOK
                      TEMPO 2200/2206 9999 FEW010
                      PROB30 TEMPO 2200/2205 5000 BR BKN005=
200907212000 TAF LMML 212000Z 2121/2206 VRB03KT CAVOK
                      TEMPO 2121/2206 9999 FEW010
                      PROB30 TEMPO 2200/2206 7000 SCT007=
200907211700 TAF LMML 211700Z 2118/2203 VRB04KT CAVOK
                      PROB40 TEMPO 2121/2203 9999 FEW010
                      PROB30 TEMPO 2200/2203 5000 BR BKN005=
200907211400 TAF LMML 211400Z 2115/2124 VRB04KT CAVOK=
200907211100 TAF LMML 211100Z 2112/2121 VRB05KT CAVOK
                      PROB30 TEMPO 2112/2121 9999 FEW020=
200907210800 TAF LMML 210800Z 2109/2118 VRB05KT CAVOK
                      PROB30 TEMPO 2109/2118 9999 FEW015=
200907210500 TAF LMML 210500Z 2106/2115 24005KT CAVOK
                      PROB30 TEMPO 2106/2115 9999 FEW015=
200907210200 TAF LMML 210200Z 2103/2112 VRB03KT CAVOK
                      PROB30 TEMPO 2103/2106 99990 FEW012=
200907202300 TAF LMML 202300Z 2100/2109 VRB03KT CAVOK
                      PROB30 TEMPO 2103/2106 9999 FEW012=
200907202000 TAF LMML 202000Z 2021/2106 VRB03KT CAVOK
                      PROB30 TEMPO 2103/2106 9999 FEW012=
200907201700 TAF LMML 201700Z 2018/2103 30005KT CAVOK=
200907201400 TAF LMML 201400Z 2015/2024 30005KT CAVOK
                      TEMPO 2015/2018 9999 FEW020=
200907201100 TAF LMML 201100Z 2012/2021 30005KT CAVOK
                      TEMPO 2012/2018 9999 FEW020=
200907200800 TAF LMML 200800Z 2009/2018 VRB05KT CAVOK
                      TEMPO 2009/2018 9999 FEW020=
200907200500 TAF LMML 200500Z 2006/2015 VRB05KT CAVOK=
200907200200 TAF LMML 200200Z 2003/2012 27005KT CAVOK
                      PROB30 TEMPO 2003/2006 7000 FEW006=
200907192300 TAF LMML 192300Z 2000/2009 28004KT CAVOK
                      PROB30 TEMPO 2002/2006 7000 FEW006=
200907192000 TAF LMML 192000Z 1921/2006 31004KT CAVOK=
200907191700 TAF LMML 191700Z 1918/2003 31007KT CAVOK=
200907191400 TAF LMML 191400Z 1915/1924 31008KT CAVOK=
200907191100 TAF LMML 191100Z 1912/1921 31008KT CAVOK
                      TEMPO 1912/1918 9999 FEW020=
200907190800 TAF LMML 190800Z 1909/1918 31012KT CAVOK
                      PROB30 TEMPO 1909/1918 9999 FEW020=
200907190500 TAF LMML 190500Z 1906/1915 32012KT CAVOK
                      PROB30 TEMPO 1906/1915 FEW018=
200907190200 TAF LMML 190200Z 1903/1912 32015KT CAVOK
                      TEMPO 1903/1912 FEW015=
200907182300 TAF LMML 182300Z 1900/1909 31015KT CAVOK
                      TEMPO 1900/1909 9999 FEW012=
200907182000 TAF LMML 182000Z 1821/1906 29020KT CAVOK
                      TEMPO 1821/1906 SCT012
                      BECMG 1903/1906 30010KT=
200907181700 TAF LMML 181700Z 1818/1903 30020G30KT 9999 FEW015
                      BECMG 1821/1824 30015KT=
200907181400 TAF LMML 181400Z 1815/1824 30020G30KT 9999 FEW015
                      BECMG 1820/1823 30017KT=
200907181100 TAF LMML 181100Z 1812/1821 31020G30KT 9999 FEW018=
200907180800 TAF LMML 180800Z 1809/1818 31020KT 9999 SCT018
                      BECMG 0810/0814 31020G30KT=
200907180500 TAF LMML 180500Z 1806/1815 30017KT 9999 FEW018=
200907180200 TAF LMML 180200Z 1803/1812 29015KT 9999 SCT015
                      TEMPO 1803/1806 9000 BKN008=
200907172300 TAF LMML 172300Z 1800/1809 28012KT CAVOK
                      TEMPO 1800/1809 9999 SCT015
                      PROB40 TEMPO 1800/1806 9000 BKN008=
200907172000 TAF LMML 172000Z 1721/1806 30012KT CAVOK
                      TEMPO 1721/1806 9999 FEW012
                      PROB40 TEMPO 1721/1806 8000 BKN008=
200907171700 TAF LMML 171700Z 1718/1803 28012KT CAVOK
                      TEMPO 1718/1803 9999 FEW012
                      PROB30 TEMPO 1800/1803 8000 BKN008=
200907171400 TAF LMML 171400Z 1715/1724 27012KT CAVOK
                      PROB30 TEMPO 1721/1724 9999 FEW010=
200907171100 TAF LMML 171100Z 1712/1721 27010KT CAVOK=
200907170800 TAF LMML 170800Z 1709/1718 27010KT CAVOK=
200907170500 TAF LMML 170500Z 1706/1715 28008KT CAVOK=
200907170200 TAF LMML 170200Z 1703/1712 28006KT CAVOK=
200907162300 TAF LMML 162300Z 1700/1709 29004KT CAVOK=
200907162000 TAF LMML 162000Z 1621/1706 VRB03KT CAVOK=
200907161700 TAF LMML 161700Z 1618/1703 30005KT CAVOK=
200907161400 TAF LMML 161400Z 1615/1624 30005KT CAVOK=
200907161100 TAF LMML 161100Z 1612/1621 31005KT CAVOK=
200907160800 TAF LMML 160800Z 1609/1618 33005KT CAVOK=
200907160500 TAF LMML 160500Z 1606/1615 33005KT CAVOK=
200907160200 TAF LMML 160200Z 1603/1612 29005KT CAVOK
                      PROB30 TEMPO 1603/1606 8000 NSC=
200907152300 TAF LMML 152300Z 1600/1609 32005KT CAVOK
                      PROB30 TEMPO 1602/1606 8000 FEW005=
200907152000 TAF LMML 152000Z 1521/1606 31005KT CAVOK
                      PROB30 TEMPO 1601/1606 8000 SCT005=
200907151700 TAF LMML 151700Z 1518/1603 VRB05KT CAVOK
                      TEMPO 1521/1603 9999 FEW011
                      PROB30 TEMPO 1600/1603 8000 SCT008=
200907151400 TAF LMML 151400Z 1515/1524 20006KT CAVOK
                      PROB30 TEMPO 1515/1518 9999 FEW015=
200907151100 TAF LMML 151100Z 1512/1521 13006KT CAVOK
                      PROB30 TEMPO 1512/1518 9999 FEW020=
200907150800 TAF LMML 150800Z 1509/1518 VRB05KT CAVOK
                      TEMPO 1509/1518 9999 FEW020=
200907150500 TAF LMML 150500Z 1506/1515 VRB04KT 9000 FEW015
                      BECMG 1506/1509 9999
                      TEMPO 1509/1515 CAVOK=
200907150200 TAF LMML 150200Z 1503/1512 VRB04KT CAVOK
                      TEMPO 1503/1512 9999 FEW020=
200907142300 TAF LMML 142300Z 1500/1509 VRB04KT CAVOK
                      PROB40 TEMPO 1502/1509 9999 FEW020=
200907142000 TAF LMML 142000Z 1421/1506 VRB04KT CAVOK
                      PROB40 TEMPO 1502/1506 9999 FEW010=
200907141700 TAF LMML 141700Z 1418/1503 VRB03KT CAVOK
                      PROB30 TEMPO 9999 FEW008=
200907141400 TAF LMML 141400Z 1415/1424 VRB03KT CAVOK
                      PROB30 TEMPO 9999 FEW020=
200907141100 TAF LMML 141100Z 1412/1421 18005KT CAVOK
                      PROB30 TEMPO 1412/1421 9999 FEW020=
200907140800 TAF LMML 140800Z 1409/1418 15005KT CAVOK
                      PROB30 TEMPO 1409/1418 9999 FEW020=
200907140500 TAF LMML 140500Z 1406/1415 15005KT CAVOK
                      PROB30 TEMPO 1406/1410 9999 FEW020=
200907140200 TAF LMML 140200Z 1403/1412 15005KT CAVOK
                      PROB30 TEMPO 1405/1410 9999 FEW020=
200907132300 TAF LMML 132300Z 1400/1409 VRB05KT CAVOK
                      PROB30 TEMPO 1405/1409 9999 FEW020=
200907132000 TAF LMML 132000Z 1321/1406 VRB05KT CAVOK
                      PROB30 TEMPO 1400/1406 9999 FEW012=
200907131700 TAF LMML 131700Z 1318/1403 VRB05KT CAVOK
                      PROB30 TEMPO 1400/1403 9999 FEW012=
200907131400 TAF LMML 131400Z 1315/1324 VRB05KT CAVOK=
200907131100 TAF LMML 131100Z 1312/1321 VRB04KT CAVOK
                      TEMPO 1312/1321 9999 FEW025=
200907130800 TAF LMML 130800Z 1309/1318 VRB05KT CAVOK
                      PROB30 TEMPO 1309/1312 9999 FEW025=
200907130500 TAF LMML 130500Z 1306/1315 VRB06KT 9999 FEW015
                      TEMPO 1306/1315 CAVOK=
200907130200 TAF LMML 130200Z 1303/1312 VRB04KT CAVOK
                      PROB30 TEMPO 1303/1306 9000 FEW008
                      BECMG 1306/1309 9999 FEW015=
200907122300 TAF LMML 122300Z 1300/1309 VRB03KT CAVOK
                      PROB30 TEMPO 1300/1305 9000 FEW008
                      BECMG 1306/1309 9999 FEW015=
200907122000 TAF LMML 122000Z 1221/1306 VRB04KT CAVOK
                      PROB30 TEMPO 1221/1306 9000 FEW008=
200907121700 TAF LMML 121700Z 1218/1303 VRB03KT CAVOK
                      PROB30 TEMPO 1300/1303 9999 FEW010=
200907121400 TAF LMML 121400Z 1215/1224 VRB05KT CAVOK
                      TEMPO 1215/1224 9999 FEW030=
200907121100 TAF LMML 121100Z 1212/1221 VRB05KT CAVOK
                      TEMPO 1212/1221 9999 FEW036=
200907120800 TAF LMML 120800Z 1209/1218 VRB03KT CAVOK
                      TEMPO 1209/1218 9999 FEW020=
200907120500 TAF LMML 120500Z 1206/1215 35005KT CAVOK
                      TEMPO 1208/1215 9999 FEW020 SCT250=
200907120400 TAF LMML 120400Z 1206/1215 35005KT CAVOK
                      TEMPO 1208/1215 9999 FEW020 SCT250=
200907120200 TAF LMML 120200Z 1203/1212 33007KT CAVOK=
200907112300 TAF LMML 112300Z 1200/1209 32011KT CAVOK=
200907112000 TAF LMML 112000Z 1121/1206 32010KT CAVOK=
200907111700 TAF LMML 111700Z 1118/1203 29014KT 9999 FEW015
                      BECMG 1118/1121 CAVOK=
200907111400 TAF LMML 111400Z 1115/1124 30015KT 9999 FEW020
                      PROB30 TEMPO 1115/1118 29015G25KT
                      BECMG 1115/1118 CAVOK=
200907111100 TAF LMML 111100Z 1112/1121 30015KT 9999 FEW025
                      PROB30 TEMPO 1112/1118 29017G27KT
                      BECMG 1118/1121 CAVOK=
200907110800 TAF LMML 110800Z 1109/1118 31014KT 9999 FEW020
                      TEMPO 1109/1118 30017G27KT CAVOK=
200907110500 TAF LMML 110500Z 1106/1115 30015KT CAVOK
                      PROB30 TEMPO 1112/1115 FEW030=
200907110200 TAF LMML 110200Z 1103/1112 30015KT CAVOK
                      PROB30 TEMPO 1103/1106 FEW008
                      BECMG 1109/1112 9999 FEW025=
200907102300 TAF LMML 102300Z 1100/1109 30015KT CAVOK
                      PROB30 TEMPO 1102/1106 SCT008
                      BECMG 1106/1109 9999 FEW018=
200907102000 TAF LMML 102000Z 1021/1106 30013KT CAVOK
                      PROB30 TEMPO 1102/1106 SCT008=
200907101700 TAF LMML 101700Z 1018/1103 33010KT CAVOK
                      TEMPO 1022/1103 33012G22KT 9999 FEW007=
200907101100 TAF LMML 101100Z 1012/1021 33013KT CAVOK=
200907100800 TAF LMML 100800Z 1009/1018 33013KT CAVOK
                      TEMPO 1009/1015 9000 SHRA SCT080=
200907100500 TAF LMML 100500Z 1006/1015 31009KT CAVOK
                      TEMPO 1006/1010 30015G25KT 8000 SHRA FEW015
                       SCT100
                      BECMG 1010/1013 9999 FEW015=
200907100200 TAF LMML 100200Z 1003/1012 VRB06KT CAVOK
                      TEMPO 1003/1009 8000 SHRA FEW015 SCT120
                      PROB30 TEMPO 1003/1009 5000 TSRA SCT012 BKN060CB=
200907092300 TAF LMML 092300Z 1000/1009 31006KT CAVOK
                      TEMPO 1000/1006 9000 NSC
                      PROB30 TEMPO 1003/1009 8000 SHRA FEW012 SCT100=
200907092000 TAF LMML 092000Z 0921/1006 31006KT CAVOK
                      TEMPO 0921/1006 9000 NSC
                      PROB30 TEMPO 1000/1005 5000 BR SCT005 SCT120=
200907091700 TAF LMML 091700Z 0918/1003 29005KT CAVOK=
200907091400 TAF LMML 091400Z 0915/0924 29005KT CAVOK=
200907091100 TAF LMML 091100Z 0912/0921 VRB05KT CAVOK=
200907090800 TAF LMML 090800Z 0909/0918 VRB05KT CAVOK=
200907090500 TAF LMML 090500Z 0906/0915 31008KT CAVOK=
200907090200 TAF LMML 090200Z 0903/0912 VRB05KT CAVOK=
200907082300 TAF LMML 082300Z 0900/0909 31005KT CAVOK=
200907082000 TAF LMML 082000Z 0821/0906 VRB03KT CAVOK
                      PROB30 TEMPO 0900/0905 9000 NSC=
200907081700 TAF LMML 081700Z 0818/0903 VRB05KT CAVOK
                      PROB30 TEMPO 0900/0903 6000 NSC=
200907081400 TAF LMML 081400Z 0815/0824 VRB05KT CAVOK=
200907081100 TAF LMML 081100Z 0812/0821 VRB05KT CAVOK=
200907080800 TAF LMML 080800Z 0809/0818 VRB05KT CAVOK=
200907080500 TAF LMML 080500Z 0806/0815 VRB05KT CAVOK=
200907080200 TAF LMML 080200Z 0803/0812 VRB05KT CAVOK
                      TEMPO 0803/0805 6000=
200907072300 TAF LMML 072300Z 0800/0809 VRB03KT CAVOK
                      TEMPO 0800/0805 6000 NSC=
200907072000 TAF LMML 072000Z 0721/0806 VRB03KT CAVOK
                      TEMPO 0800/0805 6000 NSC=
200907071700 TAF LMML 071700Z 0718/0803 VRB05KT CAVOK
                      PROB30 TEMPO 0800/0803 9000 FEW012=
200907071400 TAF LMML 071400Z 0715/0724 VRB05KT CAVOK=
200907071100 TAF LMML 071100Z 0712/0721 VRB05KT CAVOK=
200907070800 TAF LMML 070800Z 0709/0718 27005KT CAVOK=
200907070500 TAF LMML 070500Z 0706/0715 29006KT CAVOK
                      TEMPO 0710/0715 FEW025=
200907070200 TAF LMML 070200Z 0703/0712 27004KT CAVOK
                      TEMPO 0703/0706 FEW010=
200907062300 TAF LMML 062300Z 0700/0709 VRB03KT CAVOK=
200907062000 TAF LMML 062000Z 0621/0706 VRB03KT CAVOK=
200907061700 TAF LMML 061700Z 0618/0703 27004KT CAVOK
                      TEMPO 0700/0703 7000 NSC=
200907061400 TAF LMML 061400Z 0615/0624 29008KT CAVOK=
200907061100 TAF LMML 061100Z 0612/0621 32008KT CAVOK=
200907060800 TAF LMML 060800Z 0609/0618 31008KT CAVOK=
200907060500 TAF LMML 060500Z 0606/0615 29006KT CAVOK=
200907060200 TAF LMML 060200Z 0603/0612 29008KT CAVOK
                      PROB30 TEMPO 0603/0606 9000 FEW012=
200907052300 TAF LMML 052300Z 0600/0609 29005KT CAVOK
                      TEMPO 0600/0609 9999 FEW010
                      PROB30 TEMPO 0602/0606 5000 BR=
200907052000 TAF LMML 052000Z 0521/0606 27006KT CAVOK
                      PROB40 TEMPO 0600/0606 9999 FEW010
                      PROB30 TEMPO 0601/0606 5000 BR BKN005=
200907051700 TAF LMML 051700Z 0518/0603 28005KT CAVOK
                      TEMPO 0518/0603 FEW012
                      PROB30 TEMPO 0601/0603 5000 SCT008=
200907051400 TAF LMML 051400Z 0515/0524 30010KT CAVOK
                      TEMPO 0515/0524 FEW010
                      PROB30 TEMPO 0521/0524 BKN005=
200907051100 TAF LMML 051100Z 0512/0521 30008KT CAVOK
                      PROB30 TEMPO 0512/0521 FEW010=
200907050800 TAF LMML 050800Z 0509/0518 29008KT 9999 FEW012=
200907050500 TAF LMML 050500Z 0506/0515 28008KT 9999 FEW015
                      BECMG 0512/0515 CAVOK=
200907050200 TAF LMML 050200Z 0503/0512 29006KT CAVOK
                      TEMPO 0503/0506 9000 FEW011
                      PROB30 TEMPO 0503/0506 5000 BR BKN005
                      BECMG 0506/0509 9999 FEW015=
200907042300 TAF LMML 042300Z 0500/0509 28005KT CAVOK
                      TEMPO 0500/0506 9000 FEW011
                      PROB30 TEMPO 0500/0506 5000 BR SCT005
                      BECMG 0506/0509 9999 FEW015=
200907042000 TAF LMML 042000Z 0421/0506 28005KT CAVOK
                      TEMPO 0421/0506 9999 FEW011
                      PROB30 TEMPO 0500/0506 7000 SCT006=
200907041700 TAF LMML 041700Z 0418/0503 28010KT CAVOK
                      BECMG 0418/0421 VRB04KT
                      TEMPO 0421/0503 9000 FEW010
                      PROB30 TEMPO 0500/0503 4000 BR BKN004=
200907041400 TAF LMML 041400Z 0415/0424 29008KT CAVOK=
200907041100 TAF LMML 041100Z 0412/0421 VRB08KT CAVOK=
200907040800 TAF LMML 040800Z 0409/0418 VRB09KT 9999 FEW020
                      TEMPO 0409/0418 CAVOK=
200907040500 TAF LMML 040500Z 0406/0415 30007KT 8000 FEW012
                      BECMG 0406/0409 CAVOK=
200907040200 TAF LMML 040200Z 0403/0412 27004KT CAVOK
                      TEMPO 0403/0406 6000 SCT005=
200907032300 TAF LMML 032300Z 0400/0409 28004KT CAVOK
                      TEMPO 0400/0406 6000 SCT005=
200907032000 TAF LMML 032000Z 0321/0406 28004KT CAVOK
                      TEMPO 0400/0406 6000 SCT005=
200907031700 TAF LMML 031700Z 0318/0403 26006KT CAVOK
                      TEMPO 0321/0403 9999 FEW012
                      PROB30 TEMPO 0400/0403 8000 SCT008=
200907031400 TAF LMML 031400Z 0315/0324 29009KT 9999 FEW015
                      BECMG 0315/0318 CAVOK=
200907031100 TAF LMML 031100Z 0312/0321 30009KT 9999 FEW015
                      BECMG 0314/0317 CAVOK=
200907030800 TAF LMML 030800Z 0309/0318 30008KT 9999 FEW015=
200907030500 TAF LMML 030500Z 0306/0315 29008KT 9999 FEW012
                      TEMPO 0306/0315 CAVOK=
200907030200 TAF LMML 030200Z 0303/0312 29007KT CAVOK
                      TEMPO 0303/0312 9999 FEW015
                      PROB30 TEMPO 0303/0306 9000=
200907022300 TAF LMML 022300Z 0300/0309 29006KT CAVOK
                      TEMPO 0303/0309 9999 FEW012
                      PROB30 TEMPO 0302/0306 8000=
200907022000 TAF LMML 022000Z 0221/0306 29006KT CAVOK
                      TEMPO 0223/0306 8000 SCT008=
200907021700 TAF LMML 021700Z 0218/0303 29006KT 9999 FEW012=
200907021400 TAF LMML 021400Z 0215/0224 VRB05KT 9999 FEW020=
200907021100 TAF LMML 021100Z 0212/0221 VRB05KT 9999 FEW020=
200907020800 TAF LMML 020800Z 0209/0218 29005KT 9999 FEW020=
200907020500 TAF LMML 020500Z 0206/0215 VRB06KT 9999 FEW015
                      PROB40 TEMPO 0206/0215 CAVOK=
200907020200 TAF LMML 020200Z 0203/0212 VRB05KT CAVOK
                      TEMPO 0203/0212 9999 FEW015
                      PROB30 TEMPO 0203/0206 8000 BKN008=
200907012300 TAF LMML 012300Z 0200/0209 VRB04KT CAVOK
                      TEMPO 0200/0209 9999 FEW012
                      PROB30 TEMPO 0200/0206 8000 BKN006=
200907012000 TAF LMML 012000Z 0121/0206 VRB04KT CAVOK
                      TEMPO 0121/0206 8000 SCT008
                      PROB30 TEMPO 0200/0206 BKN006=
200907011700 TAF LMML 011700Z 0118/0203 27004KT 9999 FEW015
                      PROB30 TEMPO 0120/0203 8000 BKN005=
200907011400 TAF LMML 011400Z 0115/0124 24008KT 9999 FEW020
                      PROB30 TEMPO 0120/0124 BKN005=
200907011100 TAF LMML 011100Z 0112/0121 VRB06KT 9999 FEW012
                      PROB30 TEMPO 0112/0121 BKN010=
200907010800 TAF LMML 010800Z 0109/0118 VRB06KT 9999 FEW015
                      PROB30 TEMPO 0109/0118 CAVOK=
200907010500 TAF LMML 010500Z 0106/0115 30005KT 9999 FEW015
                      TEMPO 0106/0115 CAVOK=
200907010200 TAF LMML 010200Z 0103/0112 VRB03KT CAVOK
                      TEMPO 0103/0112 9999 FEW015
                      PROB30 TEMPO 0103/0106 9000 BKN005=

###################################
#  large TAF from LMML
###################################
200907312300 TAF LMML NIL=
200907311700 TAF LMML NIL=
200907311100 TAF LMML NIL=
200907310500 TAF LMML NIL=
200907302300 TAF LMML NIL=
200907301700 TAF LMML NIL=
200907301100 TAF LMML NIL=
200907300500 TAF LMML NIL=
200907292300 TAF LMML NIL=
200907291700 TAF LMML NIL=
200907291100 TAF LMML NIL=
200907290500 TAF LMML NIL=
200907282300 TAF LMML NIL=
200907281700 TAF LMML NIL=
200907281100 TAF LMML NIL=
200907280500 TAF LMML NIL=
200907272300 TAF LMML NIL=
200907271700 TAF LMML NIL=
200907271100 TAF LMML NIL=
200907270500 TAF LMML NIL=
200907262300 TAF LMML NIL=
200907261700 TAF LMML NIL=
200907261100 TAF LMML NIL=
200907260500 TAF LMML NIL=
200907252300 TAF LMML NIL=
200907251700 TAF LMML NIL=
200907251100 TAF LMML NIL=
200907250500 TAF LMML NIL=
200907242300 TAF LMML NIL=
200907241700 TAF LMML NIL=
200907241100 TAF LMML NIL=
200907240500 TAF LMML NIL=
200907232300 TAF LMML NIL=
200907231700 TAF LMML NIL=
200907231100 TAF LMML NIL=
200907230500 TAF LMML NIL=
200907222300 TAF LMML NIL=
200907221700 TAF LMML NIL=
200907221100 TAF LMML NIL=
200907220500 TAF LMML NIL=
200907212300 TAF LMML NIL=
200907211700 TAF LMML NIL=
200907211100 TAF LMML NIL=
200907210500 TAF LMML NIL=
200907202300 TAF LMML NIL=
200907201700 TAF LMML NIL=
200907201100 TAF LMML NIL=
200907200500 TAF LMML NIL=
200907192300 TAF LMML NIL=
200907191700 TAF LMML NIL=
200907191100 TAF LMML NIL=
200907190500 TAF LMML NIL=
200907182300 TAF LMML NIL=
200907181700 TAF LMML NIL=
200907181100 TAF LMML NIL=
200907180500 TAF LMML NIL=
200907172300 TAF LMML NIL=
200907171700 TAF LMML NIL=
200907171100 TAF LMML NIL=
200907170500 TAF LMML NIL=
200907162300 TAF LMML NIL=
200907161700 TAF LMML NIL=
200907161100 TAF LMML NIL=
200907160500 TAF LMML NIL=
200907152300 TAF LMML NIL=
200907151700 TAF LMML NIL=
200907151100 TAF LMML NIL=
200907150500 TAF LMML NIL=
200907142300 TAF LMML NIL=
200907141700 TAF LMML NIL=
200907141100 TAF LMML NIL=
200907140500 TAF LMML NIL=
200907132300 TAF LMML NIL=
200907131700 TAF LMML NIL=
200907131100 TAF LMML NIL=
200907130500 TAF LMML NIL=
200907122300 TAF LMML NIL=
200907121700 TAF LMML NIL=
200907121100 TAF LMML NIL=
200907120500 TAF LMML NIL=
200907112300 TAF LMML NIL=
200907111700 TAF LMML NIL=
200907111100 TAF LMML NIL=
200907110500 TAF LMML NIL=
200907102300 TAF LMML NIL=
200907101700 TAF LMML NIL=
200907101100 TAF LMML NIL=
200907100500 TAF LMML NIL=
200907092300 TAF LMML NIL=
200907091700 TAF LMML NIL=
200907091100 TAF LMML NIL=
200907090500 TAF LMML NIL=
200907082300 TAF LMML NIL=
200907081700 TAF LMML NIL=
200907081100 TAF LMML NIL=
200907080500 TAF LMML NIL=
200907072300 TAF LMML NIL=
200907071700 TAF LMML NIL=
200907071100 TAF LMML NIL=
200907070500 TAF LMML NIL=
200907062300 TAF LMML NIL=
200907061700 TAF LMML NIL=
200907061100 TAF LMML NIL=
200907060500 TAF LMML NIL=
200907052300 TAF LMML NIL=
200907051700 TAF LMML NIL=
200907051100 TAF LMML NIL=
200907050500 TAF LMML NIL=
200907042300 TAF LMML NIL=
200907041700 TAF LMML NIL=
200907041100 TAF LMML NIL=
200907040500 TAF LMML NIL=
200907032300 TAF LMML NIL=
200907031700 TAF LMML NIL=
200907031100 TAF LMML NIL=
200907030500 TAF LMML NIL=
200907022300 TAF LMML NIL=
200907021700 TAF LMML NIL=
200907021100 TAF LMML NIL=
200907020500 TAF LMML NIL=
200907012300 TAF LMML NIL=
200907011700 TAF LMML NIL=
200907011100 TAF LMML NIL=
200907010500 TAF LMML NIL=
