##########################################################
# Query made at 01/18/2013 16:59:51 UTC
# Time interval: from 07/01/2008 00:00  to 07/31/2008 23:59  UTC
##########################################################

##########################################################
# LMML, Luqa (Malta)
# WMO index: 16597
# Latitude 35-51N. Longitude 014-29E. Altitude 91 m.
##########################################################

###################################
#  METAR/SPECI from LMML
###################################
200807312345 METAR LMML 312345Z VRB03KT CAVOK 24/18 Q1016 NOSIG=
200807312330 METAR LMML NIL=
200807312315 METAR LMML 312315Z VRB02KT CAVOK 23/20 Q1016 NOSIG=
200807312245 METAR LMML 312245Z VRB03KT CAVOK 24/21 Q1017 NOSIG=
200807312230 METAR LMML NIL=
200807312215 METAR LMML 312215Z VRB03KT CAVOK 24/21 Q1017 NOSIG=
200807312200 METAR LMML NIL=
200807312145 METAR LMML 312145Z VRB02KT CAVOK 24/20 Q1017 NOSIG=
200807312130 METAR LMML NIL=
200807312115 METAR LMML 312115Z VRB03KT CAVOK 25/21 Q1017 NOSIG=
200807312100 METAR LMML NIL=
200807312045 METAR LMML 312045Z VRB03KT CAVOK 25/21 Q1017 NOSIG=
200807312030 METAR LMML NIL=
200807312015 METAR LMML 312015Z VRB03KT CAVOK 25/21 Q1017 NOSIG=
200807312000 LMML NIL=
200807311945 METAR LMML 311945Z 36005KT 280V050 CAVOK 25/21 Q1016 NOSIG=
200807311930 METAR LMML NIL=
200807311915 METAR LMML 311915Z 36005KT CAVOK 26/21 Q1016 NOSIG=
200807311900 METAR LMML NIL=
200807311845 METAR LMML 311845Z 36006KT CAVOK 26/21 Q1016 NOSIG=
200807311830 METAR LMML NIL=
200807311815 METAR LMML 311815Z 36004KT CAVOK 27/19 Q1016 NOSIG=
200807311800 METAR LMML NIL=
200807311745 METAR LMML 311745Z VRB03KT CAVOK 28/19 Q1016 NOSIG=
200807311730 METAR LMML NIL=
200807311715 METAR LMML 311715Z 02004KT 360V060 CAVOK 28/19 Q1016 NOSIG=
200807311700 METAR LMML NIL=
200807311645 METAR LMML 311645Z 02004KT 330V050 CAVOK 29/19 Q1015 NOSIG=
200807311630 METAR LMML NIL=
200807311615 METAR LMML 311615Z 04006KT 320V080 CAVOK 29/19 Q1016 NOSIG=
200807311600 METAR LMML NIL=
200807311545 METAR LMML 311545Z 03004KT 340V080 CAVOK 30/18 Q1015 NOSIG=
200807311530 METAR LMML NIL=
200807311515 METAR LMML 311515Z 12005KT 9999 FEW040 31/18 Q1016 NOSIG=
200807311500 METAR LMML NIL=
200807311445 METAR LMML 311445Z VRB03KT 9999 FEW040 31/16 Q1016 NOSIG=
200807311430 METAR LMML NIL=
200807311415 METAR LMML 311415Z 03004KT 350V070 CAVOK 31/17 Q1016 NOSIG=
200807311400 METAR LMML NIL=
200807311345 METAR LMML 311345Z 04006KT 340V100 9999 FEW040 31/16 Q1016
                        NOSIG=
200807311330 METAR LMML NIL=
200807311315 METAR LMML 311315Z 05005KT 340V200 9999 FEW040 31/16 Q1016
                        NOSIG=
200807311300 METAR LMML NIL=
200807311245 METAR LMML 311245Z 04004KT 330V130 9999 FEW040 32/17 Q1016
                        NOSIG=
200807311230 METAR LMML NIL=
200807311215 METAR LMML 311215Z 02005KT 320V090 9999 FEW040 31/15 Q1016
                        NOSIG=
200807311200 METAR LMML NIL=
200807311145 METAR LMML 311145Z 02005KT 330V120 9999 FEW040 31/16 Q1017
                        NOSIG=
200807311130 METAR LMML NIL=
200807311115 METAR LMML 311115Z 03005KT 320V090 9999 FEW040 32/15 Q1017
                        NOSIG=
200807311100 METAR LMML NIL=
200807311045 METAR LMML 311045Z 02006KT 320V060 CAVOK 32/15 Q1017 NOSIG=
200807311030 METAR LMML NIL=
200807311015 METAR LMML 311015Z 01005KT 300V060 9999 FEW040 31/15 Q1017
                        NOSIG=
200807311000 METAR LMML NIL=
200807310945 METAR LMML 310945Z 03005KT 320V100 9999 FEW040 31/13 Q1017
                        NOSIG=
200807310930 METAR LMML NIL=
200807310915 METAR LMML 310915Z 01004KT 290V070 9999 FEW040 31/14 Q1017
                        NOSIG=
200807310900 METAR LMML NIL=
200807310845 METAR LMML 310845Z 35004KT 270V040 CAVOK 30/16 Q1017 NOSIG=
200807310830 METAR LMML NIL=
200807310815 METAR LMML 310815Z VRB03KT CAVOK 29/19 Q1017 NOSIG=
200807310800 METAR LMML NIL=
200807310745 METAR LMML 310745Z 32004KT 280V020 CAVOK 28/20 Q1017 NOSIG=
200807310730 METAR LMML NIL=
200807310715 METAR LMML 310715Z 33004KT 300V010 CAVOK 27/21 Q1017 NOSIG=
200807310700 METAR LMML NIL=
200807310645 METAR LMML 310645Z 35004KT 320V050 CAVOK 27/21 Q1017 NOSIG=
200807310630 METAR LMML NIL=
200807310615 METAR LMML 310615Z 32005KT 290V010 CAVOK 25/22 Q1016 NOSIG=
200807310600 METAR LMML NIL=
200807310545 METAR LMML 310545Z 33004KT CAVOK 24/23 Q1016 NOSIG=
200807310530 METAR LMML NIL=
200807310515 METAR LMML 310515Z VRB03KT CAVOK 23/23 Q1016 NOSIG=
200807310500 METAR LMML NIL=
200807310445 METAR LMML 310445Z VRB02KT CAVOK 23/22 Q1016 NOSIG=
200807310430 METAR LMML NIL=
200807310415 METAR LMML 310415Z VRB03KT CAVOK 23/20 Q1016 NOSIG=
200807310400 METAR LMML NIL=
200807310345 METAR LMML 310345Z VRB03KT CAVOK 23/18 Q1015 NOSIG=
200807310330 METAR LMML NIL=
200807310315 METAR LMML 310315Z VRB03KT CAVOK 23/19 Q1015 NOSIG=
200807310300 METAR LMML NIL=
200807310245 METAR LMML 310245Z VRB03KT CAVOK 23/19 Q1015 NOSIG=
200807310230 METAR LMML NIL=
200807310215 METAR LMML 310215Z VRB03KT CAVOK 23/23 Q1016 NOSIG=
200807310200 METAR LMML NIL=
200807310145 METAR LMML 310145Z VRB03KT CAVOK 23/23 Q1016 NOSIG=
200807310130 METAR LMML NIL=
200807310115 METAR LMML 310115Z VRB02KT CAVOK 23/22 Q1016 NOSIG=
200807310100 METAR LMML NIL=
200807310045 METAR LMML 310045Z VRB03KT CAVOK 24/22 Q1016 NOSIG=
200807310030 METAR LMML NIL=
200807310015 METAR LMML 310015Z VRB03KT CAVOK 23/22 Q1016 NOSIG=
200807310000 METAR LMML NIL=
200807302345 METAR LMML 302345Z VRB02KT CAVOK 24/22 Q1017 NOSIG=
200807302330 METAR LMML NIL=
200807302315 METAR LMML 302315Z VRB02KT CAVOK 24/22 Q1017 NOSIG=
200807302300 METAR LMML NIL=
200807302245 METAR LMML 302245Z VRB02KT CAVOK 24/22 Q1017 NOSIG=
200807302230 METAR LMML NIL=
200807302215 METAR LMML 302215Z VRB03KT CAVOK 25/21 Q1017 NOSIG=
200807302200 METAR LMML NIL=
200807302145 METAR LMML 302145Z 32004KT CAVOK 25/21 Q1017 NOSIG=
200807302130 METAR LMML NIL=
200807302115 METAR LMML 302115Z VRB02KT CAVOK 25/21 Q1017 NOSIG=
200807302100 METAR LMML NIL=
200807302045 METAR LMML 302045Z 33004KT CAVOK 25/21 Q1017 NOSIG=
200807302030 METAR LMML NIL=
200807302015 METAR LMML 302015Z 32005KT 290V350 CAVOK 25/21 Q1017 NOSIG=
200807302000 METAR LMML NIL=
200807301945 METAR LMML 301945Z 35007KT CAVOK 25/21 Q1017 NOSIG=
200807301930 METAR LMML NIL=
200807301915 METAR LMML 301915Z 34006KT CAVOK 26/20 Q1017 NOSIG=
200807301900 METAR LMML NIL=
200807301845 METAR LMML 301845Z 35004KT 320V020 CAVOK 26/20 Q1017 NOSIG=
200807301830 METAR LMML NIL=
200807301815 METAR LMML 301815Z 01004KT 310V060 CAVOK 27/19 Q1017 NOSIG=
200807301800 METAR LMML NIL=
200807301745 METAR LMML 301745Z 36006KT CAVOK 27/19 Q1017 NOSIG=
200807301730 METAR LMML NIL=
200807301715 METAR LMML 301715Z 01006KT CAVOK 28/19 Q1017 NOSIG=
200807301700 METAR LMML NIL=
200807301645 METAR LMML 301645Z 28006KT 170V060 CAVOK 29/17 Q1016 NOSIG=
200807301630 METAR LMML NIL=
200807301615 METAR LMML 301615Z 21006KT 170V250 9999 FEW040 29/13 Q1016
                        NOSIG=
200807301600 METAR LMML NIL=
200807301545 METAR LMML 301545Z 22006KT 180V270 9999 FEW040 29/15 Q1016
                        NOSIG=
200807301530 METAR LMML NIL=
200807301515 METAR LMML 301515Z 22005KT 150V280 9999 FEW030 30/15 Q1017
                        NOSIG=
200807301500 METAR LMML NIL=
200807301445 METAR LMML 301445Z 22005KT 180V300 9999 FEW040 30/14 Q1017
                        NOSIG=
200807301430 METAR LMML NIL=
200807301415 METAR LMML 301415Z 20006KT 160V240 9999 FEW040 30/13 Q1017
                        NOSIG=
200807301400 METAR LMML NIL=
200807301345 METAR LMML 301345Z 20006KT 160V250 9999 FEW042 30/16 Q1017
                        NOSIG=
200807301330 METAR LMML NIL=
200807301315 METAR LMML 301315Z 21006KT 150V280 9999 FEW042 30/16 Q1017
                        NOSIG=
200807301300 METAR LMML NIL=
200807301245 METAR LMML 301245Z 18005KT 080V260 9999 FEW038 30/17 Q1017
                        NOSIG=
200807301230 METAR LMML NIL=
200807301215 METAR LMML 301215Z 21006KT 150V290 9999 FEW036 29/18 Q1017
                        NOSIG=
200807301200 METAR LMML NIL=
200807301145 METAR LMML 301145Z 18004KT 120V250 9999 FEW040 30/18 Q1017
                        NOSIG=
200807301130 METAR LMML NIL=
200807301115 METAR LMML 301115Z 12005KT 030V190 9999 FEW040 29/19 Q1017
                        NOSIG=
200807301100 METAR LMML NIL=
200807301045 METAR LMML 301045Z 06004KT 350V190 9999 FEW040 30/18 Q1017
                        NOSIG=
200807301030 METAR LMML NIL=
200807301015 METAR LMML 301015Z 03005KT 350V100 9999 FEW040 30/18 Q1017
                        NOSIG=
200807301000 METAR LMML NIL=
200807300945 METAR LMML 300945Z 06005KT 300V140 CAVOK 31/17 Q1017 NOSIG=
200807300930 METAR LMML NIL=
200807300915 METAR LMML 300915Z 03004KT 340V100 CAVOK 31/16 Q1017 NOSIG=
200807300900 METAR LMML NIL=
200807300845 METAR LMML 300845Z 35004KT 290V030 CAVOK 29/17 Q1017 NOSIG=
200807300830 METAR LMML NIL=
200807300815 METAR LMML 300815Z 03004G17KT 350V090 CAVOK 30/16 Q1017 NOSIG=
200807300800 METAR LMML NIL=
200807300745 METAR LMML 300745Z 03004KT 330V070 CAVOK 29/15 Q1017 NOSIG=
200807300730 METAR LMML NIL=
200807300715 METAR LMML 300715Z 35004KT 280V060 CAVOK 28/15 Q1017 NOSIG=
200807300700 METAR LMML NIL=
200807300645 METAR LMML 300645Z 33004KT 290V040 CAVOK 27/16 Q1017 NOSIG=
200807300630 METAR LMML NIL=
200807300615 METAR LMML 300615Z 33004KT CAVOK 26/17 Q1017 NOSIG=
200807300600 METAR LMML NIL=
200807300545 METAR LMML 300545Z VRB03KT CAVOK 25/20 Q1016 NOSIG=
200807300530 METAR LMML NIL=
200807300515 METAR LMML 300515Z VRB02KT CAVOK 24/21 Q1016 NOSIG=
200807300500 METAR LMML NIL=
200807300445 METAR LMML 300445Z 32005KT CAVOK 23/21 Q1016 NOSIG=
200807300430 METAR LMML NIL=
200807300415 METAR LMML 300415Z 32005KT CAVOK 23/22 Q1016 NOSIG=
200807300400 METAR LMML NIL=
200807300345 METAR LMML 300345Z 33004KT CAVOK 23/22 Q1016 NOSIG=
200807300330 METAR LMML NIL=
200807300315 METAR LMML 300315Z VRB03KT CAVOK 23/22 Q1016 NOSIG=
200807300300 METAR LMML NIL=
200807300245 METAR LMML 300245Z 32004KT CAVOK 23/22 Q1016 NOSIG=
200807300230 METAR LMML NIL=
200807300215 METAR LMML 300215Z 32005KT CAVOK 23/22 Q1016 NOSIG=
200807300200 METAR LMML NIL=
200807300145 METAR LMML 300145Z 32005KT CAVOK 24/22 Q1016 NOSIG=
200807300130 METAR LMML NIL=
200807300115 METAR LMML 300115Z 32005KT CAVOK 24/22 Q1016 NOSIG=
200807300100 METAR LMML NIL=
200807300045 METAR LMML 300045Z 32004KT CAVOK 24/21 Q1016 NOSIG=
200807300030 METAR LMML NIL=
200807300015 METAR LMML 300015Z 33004KT 280V010 CAVOK 24/21 Q1016 NOSIG=
200807300000 METAR LMML NIL=
200807292345 METAR LMML 292345Z 31004KT CAVOK 24/20 Q1017 NOSIG=
200807292330 METAR LMML NIL=
200807292315 METAR LMML 292315Z 30004KT CAVOK 24/20 Q1017 NOSIG=
200807292300 METAR LMML NIL=
200807292245 METAR LMML 292245Z VRB03KT CAVOK 24/20 Q1017 NOSIG=
200807292230 METAR LMML NIL=
200807292215 METAR LMML 292215Z 31004KT CAVOK 24/20 Q1017 NOSIG=
200807292200 METAR LMML NIL=
200807292145 METAR LMML 292145Z VRB03KT CAVOK 24/20 Q1017 NOSIG=
200807292130 METAR LMML NIL=
200807292115 METAR LMML 292115Z VRB03KT CAVOK 25/20 Q1017 NOSIG=
200807292100 METAR LMML NIL=
200807292045 METAR LMML 292045Z VRB02KT CAVOK 25/20 Q1017 NOSIG=
200807292030 METAR LMML NIL=
200807292015 METAR LMML 292015Z VRB02KT CAVOK 25/20 Q1016 NOSIG=
200807292000 METAR LMML NIL=
200807291945 METAR LMML 291945Z VRB03KT CAVOK 26/20 Q1016 NOSIG=
200807291930 METAR LMML NIL=
200807291915 METAR LMML 291915Z VRB02KT CAVOK 26/20 Q1016 NOSIG=
200807291900 METAR LMML NIL=
200807291845 METAR LMML 291845Z VRB02KT 9999 FEW033 26/20 Q1016 NOSIG=
200807291830 METAR LMML NIL=
200807291815 METAR LMML 291815Z VRB03KT 9999 FEW033 26/20 Q1016 NOSIG=
200807291800 METAR LMML NIL=
200807291745 METAR LMML 291745Z 04005KT 340V080 9999 FEW033 27/20 Q1016
                        NOSIG=
200807291730 METAR LMML NIL=
200807291715 METAR LMML 291715Z 02004KT 330V060 9999 FEW033 27/19 Q1015
                        NOSIG=
200807291700 METAR LMML NIL=
200807291645 METAR LMML 291645Z 03005KT 310V070 9999 FEW033 28/19 Q1015
                        NOSIG=
200807291630 METAR LMML NIL=
200807291615 METAR LMML 291615Z 03006KT 330V070 9999 FEW033 29/19 Q1015
                        NOSIG=
200807291600 METAR LMML NIL=
200807291545 METAR LMML 291545Z 24005KT 170V350 9999 FEW030 28/20 Q1015
                        NOSIG=
200807291530 METAR LMML NIL=
200807291515 METAR LMML 291515Z 20004KT 150V280 9999 FEW031 28/20 Q1015
                        NOSIG=
200807291500 METAR LMML NIL=
200807291445 METAR LMML 291445Z 20004KT 140V260 9999 FEW030 27/20 Q1015
                        NOSIG=
200807291430 METAR LMML NIL=
200807291415 METAR LMML 291415Z 17006KT 120V200 9999 SCT030 27/20 Q1015
                        NOSIG=
200807291400 METAR LMML NIL=
200807291345 METAR LMML 291345Z 19005KT 120V260 9999 SCT032 29/19 Q1015
                        NOSIG=
200807291330 METAR LMML NIL=
200807291315 METAR LMML 291315Z VRB01KT 9999 FEW035 28/19 Q1015 NOSIG=
200807291300 METAR LMML NIL=
200807291245 METAR LMML 291245Z 18005KT 130V300 9999 FEW033 29/19 Q1015
                        NOSIG=
200807291230 METAR LMML NIL=
200807291215 METAR LMML 291215Z 22006KT 170V280 9999 FEW030 28/19 Q1016
                        NOSIG=
200807291200 METAR LMML NIL=
200807291145 METAR LMML 291145Z 04004KT 350V130 9999 SCT028 29/20 Q1016
                        NOSIG=
200807291130 METAR LMML NIL=
200807291115 METAR LMML 291115Z 02004KT 330V080 9999 FEW028 SCT130 29/21
                        Q1016 NOSIG=
200807291045 METAR LMML 291045Z 04005KT 310V100 9999 FEW033 30/20 Q1016
                        NOSIG=
200807291030 METAR LMML NIL=
200807291015 METAR LMML 291015Z 04005KT 330V130 9999 FEW020 30/20 Q1016
                        NOSIG=
200807291000 METAR LMML NIL=
200807290945 METAR LMML 290945Z 04006KT 360V080 9999 FEW020 29/20 Q1015
                        NOSIG=
200807290930 METAR LMML NIL=
200807290915 METAR LMML 290915Z 05005KT 360V140 9999 FEW020 29/19 Q1015
                        NOSIG=
200807290900 METAR LMML NIL=
200807290845 METAR LMML 290845Z 07005KT 340V160 9999 FEW020 28/19 Q1015
                        NOSIG=
200807290830 METAR LMML NIL=
200807290815 METAR LMML 290815Z 04004KT 320V110 9999 FEW018 29/18 Q1015
                        NOSIG=
200807290800 METAR LMML NIL=
200807290745 METAR LMML 290745Z VRB03KT 9999 FEW018 27/19 Q1015 NOSIG=
200807290730 METAR LMML NIL=
200807290715 METAR LMML 290715Z VRB02KT 9999 FEW015 26/19 Q1015 NOSIG=
200807290700 METAR LMML NIL=
200807290645 METAR LMML 290645Z VRB03KT 9999 FEW015 26/20 Q1015 NOSIG=
200807290630 METAR LMML NIL=
200807290615 METAR LMML 290615Z VRB03KT 9000 FEW015 25/21 Q1015 BECMG
                        9999=
200807290600 METAR LMML NIL=
200807290545 METAR LMML 290545Z VRB03KT 8000 FEW015 24/21 Q1014 BECMG
                        9999=
200807290530 METAR LMML NIL=
200807290515 METAR LMML 290515Z VRB02KT 8000 FEW012 23/21 Q1014 BECMG
                        9999=
200807290500 METAR LMML NIL=
200807290445 METAR LMML 290445Z VRB03KT 8000 FEW250 22/21 Q1014 NOSIG=
200807290430 METAR LMML NIL=
200807290415 METAR LMML 290415Z VRB02KT 8000 FEW100 22/20 Q1014 NOSIG=
200807290400 METAR LMML NIL=
200807290345 METAR LMML 290345Z VRB03KT CAVOK 21/20 Q1014 TEMPO 7000=
200807290330 METAR LMML NIL=
200807290315 METAR LMML 290315Z VRB02KT CAVOK 22/21 Q1014 NOSIG=
200807290300 METAR LMML NIL=
200807290245 METAR LMML 290245Z VRB02KT CAVOK 22/20 Q1014 NOSIG=
200807290230 METAR LMML NIL=
200807290215 METAR LMML 290215Z VRB01KT CAVOK 22/20 Q1014 NOSIG=
200807290200 METAR LMML NIL=
200807290145 METAR LMML 290145Z VRB01KT CAVOK 22/20 Q1013 NOSIG=
200807290130 METAR LMML NIL=
200807290115 METAR LMML 290115Z 00000KT CAVOK 22/20 Q1014 NOSIG=
200807290100 METAR LMML NIL=
200807290045 METAR LMML 290045Z 00000KT CAVOK 22/20 Q1014 NOSIG=
200807290030 METAR LMML NIL=
200807290015 METAR LMML 290015Z 00000KT CAVOK 23/20 Q1014 NOSIG=
200807290000 METAR LMML NIL=
200807282345 METAR LMML 282345Z VRB01KT CAVOK 22/20 Q1014 NOSIG=
200807282330 METAR LMML NIL=
200807282315 METAR LMML 282315Z VRB01KT CAVOK 22/20 Q1014 NOSIG=
200807282300 METAR LMML NIL=
200807282245 METAR LMML 282245Z VRB01KT CAVOK 23/20 Q1014 NOSIG=
200807282230 METAR LMML NIL=
200807282215 METAR LMML 282215Z VRB02KT CAVOK 24/20 Q1014 NOSIG=
200807282200 METAR LMML NIL=
200807282145 METAR LMML 282145Z VRB02KT CAVOK 24/20 Q1014 NOSIG=
200807282130 METAR LMML NIL=
200807282115 METAR LMML 282115Z VRB03KT CAVOK 25/20 Q1014 NOSIG=
200807282100 METAR LMML NIL=
200807282045 METAR LMML 282045Z VRB02KT CAVOK 24/20 Q1014 NOSIG=
200807282030 METAR LMML NIL=
200807282015 METAR LMML 282015Z VRB02KT CAVOK 24/20 Q1014 NOSIG=
200807282000 METAR LMML NIL=
200807281945 METAR LMML 281945Z VRB01KT 9999 FEW025 24/20 Q1014 NOSIG=
200807281930 METAR LMML NIL=
200807281915 METAR LMML 281915Z VRB01KT 9999 FEW025 25/21 Q1014 NOSIG=
200807281900 METAR LMML NIL=
200807281845 METAR LMML 281845Z VRB02KT 9999 FEW025 25/20 Q1013 NOSIG=
200807281830 METAR LMML NIL=
200807281815 METAR LMML 281815Z VRB03KT 9999 FEW025 25/20 Q1013 NOSIG=
200807281800 METAR LMML NIL=
200807281745 METAR LMML 281745Z VRB03KT 9999 FEW025 25/20 Q1013 NOSIG=
200807281730 METAR LMML NIL=
200807281715 METAR LMML 281715Z VRB03KT 9999 FEW027 26/20 Q1013 NOSIG=
200807281700 METAR LMML NIL=
200807281645 METAR LMML 281645Z VRB02KT 9999 FEW028 26/20 Q1013 NOSIG=
200807281630 METAR LMML NIL=
200807281615 METAR LMML 281615Z VRB03KT 9999 BKN031 26/19 Q1013 NOSIG=
200807281600 METAR LMML NIL=
200807281545 METAR LMML 281545Z VRB03KT 9999 SCT030 27/19 Q1013 NOSIG=
200807281530 METAR LMML NIL=
200807281515 METAR LMML 281515Z 08004KT 010V120 9999 SCT033 27/19 Q1013
                        NOSIG=
200807281500 METAR LMML NIL=
200807281445 METAR LMML 281445Z VRB02KT 9999 SCT030 27/19 Q1013 NOSIG=
200807281430 METAR LMML NIL=
200807281415 METAR LMML 281415Z VRB03KT 9999 SCT030 27/19 Q1013 NOSIG=
200807281400 METAR LMML NIL=
200807281345 METAR LMML 281345Z VRB03KT 9999 FEW030 SCT038 27/19 Q1013
                        NOSIG=
200807281330 METAR LMML NIL=
200807281315 METAR LMML 281315Z 04004KT 360V090 9999 SCT033 28/19 Q1013
                        NOSIG=
200807281300 METAR LMML NIL=
200807281245 METAR LMML 281245Z VRB03KT 9999 BKN030 29/19 Q1013 NOSIG=
200807281230 METAR LMML NIL=
200807281215 METAR LMML 281215Z 18004KT 110V260 9999 BKN023 27/17 Q1013
                        NOSIG=
200807281200 METAR LMML NIL=
200807281145 METAR LMML 281145Z 05006KT 010V120 9999 BKN028 27/21 Q1014
                        NOSIG=
200807281130 METAR LMML NIL=
200807281115 METAR LMML 281115Z VRB03KT 9999 SCT024 27/19 Q1014 NOSIG=
200807281100 METAR LMML NIL=
200807281045 METAR LMML 281045Z 25004KT 190V320 9999 SCT029 27/18 Q1014
                        NOSIG=
200807281030 METAR LMML NIL=
200807281015 METAR LMML 281015Z 23006KT 190V290 9999 SCT025 26/19 Q1014
                        NOSIG=
200807281000 METAR LMML NIL=
200807280945 METAR LMML 280945Z VRB02KT 9999 -SHRA SCT024 26/20 Q1014
                        NOSIG=
200807280930 METAR LMML NIL=
200807280915 METAR LMML 280915Z VRB02KT 9999 SCT024 27/20 Q1014 NOSIG=
200807280900 METAR LMML NIL=
200807280845 METAR LMML 280845Z 04004KT 350V100 9999 FEW018 28/20 Q1013
                        NOSIG=
200807280830 METAR LMML NIL=
200807280815 METAR LMML 280815Z 04005KT 360V090 9999 FEW017 27/21 Q1013
                        NOSIG=
200807280800 METAR LMML NIL=
200807280745 METAR LMML 280745Z 04004KT 340V110 9999 FEW025 27/20 Q1013
                        NOSIG=
200807280730 METAR LMML NIL=
200807280715 METAR LMML 280715Z 04005KT 340V090 9999 FEW025 27/20 Q1013
                        NOSIG=
200807280700 METAR LMML NIL=
200807280645 METAR LMML 280645Z VRB03KT 9999 FEW025 27/20 Q1013 NOSIG=
200807280630 METAR LMML NIL=
200807280615 METAR LMML 280615Z 02004KT 280V090 CAVOK 26/21 Q1013 NOSIG=
200807280600 METAR LMML NIL=
200807280545 METAR LMML 280545Z 03004KT 360V070 CAVOK 25/21 Q1012 NOSIG=
200807280530 METAR LMML NIL=
200807280515 METAR LMML 280515Z VRB03KT CAVOK 24/21 Q1012 NOSIG=
200807280500 METAR LMML NIL=
200807280445 METAR LMML 280445Z VRB02KT CAVOK 24/21 Q1012 NOSIG=
200807280430 METAR LMML NIL=
200807280415 METAR LMML 280415Z VRB03KT CAVOK 23/21 Q1012 NOSIG=
200807280400 METAR LMML NIL=
200807280345 METAR LMML 280345Z 04005KT 9999 FEW015 23/21 Q1012 NOSIG=
200807280330 METAR LMML NIL=
200807280315 METAR LMML 280315Z 04005KT 280V090 9999 FEW015 24/21 Q1012
                        NOSIG=
200807280300 METAR LMML NIL=
200807280245 METAR LMML 280245Z 04005KT 9999 FEW015 24/22 Q1012 NOSIG=
200807280230 METAR LMML NIL=
200807280215 METAR LMML 280215Z 03004KT 360V080 9999 FEW015 24/22 Q1012
                        NOSIG=
200807280200 LMML NIL=
200807280145 LMML 280145Z VRB03KT CAVOK 24/22 Q1012 NOSIG=
200807280130 METAR LMML NIL=
200807280115 METAR LMML 280115Z 04005KT CAVOK 24/22 Q1012 NOSIG=
200807280100 METAR LMML NIL=
200807280045 METAR LMML 280045Z 03005KT 350V070 CAVOK 24/22 Q1012 NOSIG=
200807280030 METAR LMML NIL=
200807280015 METAR LMML 280015Z 01006KT 9999 FEW012 24/23 Q1012 NOSIG=
200807280000 METAR LMML NIL=
200807272345 METAR LMML 272345Z 36008KT CAVOK 24/22 Q1012 NOSIG=
200807272330 METAR LMML NIL=
200807272315 METAR LMML 272315Z 35007KT CAVOK 24/22 Q1012 NOSIG=
200807272300 METAR LMML NIL=
200807272245 METAR LMML 272245Z 35008KT CAVOK 24/22 Q1012 NOSIG=
200807272230 METAR LMML NIL=
200807272215 METAR LMML 272215Z 31004KT 280V340 CAVOK 24/21 Q1012 NOSIG=
200807272200 METAR LMML NIL=
200807272145 METAR LMML 272145Z 30004KT 260V330 CAVOK 24/21 Q1012 NOSIG=
200807272130 METAR LMML NIL=
200807272115 METAR LMML 272115Z VRB02KT CAVOK 25/21 Q1012 NOSIG=
200807272100 METAR LMML NIL=
200807272045 METAR LMML 272045Z 31005KT 280V340 CAVOK 25/20 Q1012 NOSIG=
200807272030 METAR LMML NIL=
200807272015 METAR LMML 272015Z 26005KT 200V300 CAVOK 25/21 Q1012 NOSIG=
200807272000 METAR LMML NIL=
200807271945 METAR LMML 271945Z 28006KT 250V310 CAVOK 25/21 Q1012 NOSIG=
200807271930 METAR LMML NIL=
200807271915 METAR LMML 271915Z 29007KT CAVOK 25/21 Q1012 NOSIG=
200807271900 METAR LMML NIL=
200807271845 METAR LMML 271845Z 29006KT CAVOK 25/21 Q1012 NOSIG=
200807271830 METAR LMML NIL=
200807271815 METAR LMML 271815Z 30005KT CAVOK 26/21 Q1012 NOSIG=
200807271800 METAR LMML NIL=
200807271745 METAR LMML 271745Z 30007KT CAVOK 26/21 Q1012 NOSIG=
200807271730 METAR LMML NIL=
200807271715 METAR LMML 271715Z 29007KT 9999 FEW012 27/20 Q1012 NOSIG=
200807271700 METAR LMML NIL=
200807271645 METAR LMML 271645Z 31009KT 9999 FEW012 27/20 Q1012 NOSIG=
200807271630 METAR LMML NIL=
200807271615 METAR LMML 271615Z 32009KT 290V350 9999 FEW012 28/18 Q1011
                        NOSIG=
200807271600 METAR LMML NIL=
200807271545 METAR LMML 271545Z 31006KT 270V340 CAVOK 29/14 Q1011 NOSIG=
200807271530 METAR LMML NIL=
200807271515 METAR LMML 271515Z 29006KT 240V320 9999 FEW012 29/16 Q1011
                        NOSIG=
200807271500 METAR LMML NIL=
200807271445 METAR LMML 271445Z 30007KT 240V330 9999 FEW012 29/17 Q1011
                        NOSIG=
200807271430 METAR LMML NIL=
200807271415 METAR LMML 271415Z 32007KT 270V010 9999 FEW012 30/16 Q1011
                        NOSIG=
200807271400 METAR LMML NIL=
200807271345 METAR LMML 271345Z 35006KT 240V050 9999 FEW012 30/17 Q1011
                        NOSIG=
200807271330 METAR LMML NIL=
200807271315 METAR LMML 271315Z 30007KT CAVOK 30/18 Q1011 NOSIG=
200807271300 METAR LMML NIL=
200807271245 METAR LMML 271245Z 02005KT 320V140 CAVOK 30/17 Q1011 NOSIG=
200807271230 METAR LMML NIL=
200807271215 METAR LMML 271215Z 05005KT 340V130 CAVOK 30/16 Q1012 NOSIG=
200807271200 METAR LMML NIL=
200807271145 METAR LMML 271145Z 03004KT 300V130 CAVOK 30/14 Q1012 NOSIG=
200807271130 METAR LMML NIL=
200807271115 METAR LMML 271115Z 01006KT 340V070 CAVOK 30/12 Q1012 NOSIG=
200807271100 METAR LMML NIL=
200807271045 METAR LMML 271045Z 04007KT 360V080 CAVOK 30/13 Q1012 NOSIG=
200807271030 METAR LMML NIL=
200807271015 METAR LMML 271015Z 04007KT 350V080 CAVOK 30/13 Q1012 NOSIG=
200807271000 METAR LMML NIL=
200807270945 METAR LMML 270945Z 01007KT 330V050 CAVOK 29/17 Q1012 NOSIG=
200807270930 METAR LMML NIL=
200807270915 METAR LMML 270915Z 35007KT 300V040 9999 FEW017 28/19 Q1012
                        NOSIG=
200807270900 METAR LMML NIL=
200807270845 METAR LMML 270845Z 34007KT 290V010 9999 FEW017 27/21 Q1011
                        NOSIG=
200807270830 METAR LMML NIL=
200807270815 METAR LMML 270815Z 31008KT 280V360 9999 FEW017 27/21 Q1011
                        NOSIG=
200807270800 METAR LMML NIL=
200807270745 METAR LMML 270745Z 30008KT 280V340 9999 FEW017 26/21 Q1011
                        NOSIG=
200807270730 METAR LMML NIL=
200807270715 METAR LMML 270715Z 31008KT 9999 FEW017 25/21 Q1011 NOSIG=
200807270700 METAR LMML NIL=
200807270645 METAR LMML 270645Z 30008KT 260V330 9000 BKN016 25/21 Q1011
                        BECMG SCT015=
200807270630 METAR LMML NIL=
200807270615 METAR LMML 270615Z 31007KT 270V330 9000 BKN015 24/21 Q1011
                        NOSIG=
200807270600 METAR LMML NIL=
200807270545 METAR LMML 270545Z 30005KT 270V330 9000 BKN014 24/21 Q1011
                        NOSIG=
200807270530 METAR LMML NIL=
200807270515 METAR LMML 270515Z VRB01KT 9000 BKN014 23/21 Q1011 NOSIG=
200807270500 METAR LMML NIL=
200807270445 METAR LMML 270445Z VRB02KT 9000 SCT016 22/21 Q1011 TEMPO
                        8000 BKN014=
200807270430 METAR LMML NIL=
200807270415 METAR LMML 270415Z 29004KT 9000 SCT015 22/20 Q1010 TEMPO
                        8000 BKN014=
200807270345 METAR LMML 270345Z VRB02KT 9000 SCT017 22/20 Q1010 TEMPO
                        8000 BKN014=
200807270330 METAR LMML NIL=
200807270315 METAR LMML 270315Z 29004KT 9000 SCT016 22/20 Q1011 TEMPO
                        8000 BKN014=
200807270245 METAR LMML 270245Z 28006KT 9000 SCT015 22/20 Q1011 TEMPO
                        8000 BKN014=
200807270230 METAR LMML NIL=
200807270215 METAR LMML 270215Z 29007KT 9000 SCT014 23/21 Q1011 TEMPO
                        8000 BKN014=
200807270200 METAR LMML NIL=
200807270145 METAR LMML 270145Z 29006KT 9000 SCT014 23/21 Q1011 TEMPO
                        BKN014=
200807270130 METAR LMML NIL=
200807270115 METAR LMML 270115Z 29007KT 9999 SCT015 23/21 Q1011 TEMPO
                        9000 BKN014=
200807270100 METAR LMML NIL=
200807270045 METAR LMML 270045Z 29007KT 9999 SCT014 23/21 Q1011 NOSIG=
200807270030 METAR LMML NIL=
200807270015 METAR LMML 270015Z 30006KT 9999 FEW015 23/22 Q1011 NOSIG=
200807270000 METAR LMML NIL=
200807262345 METAR LMML 262345Z 28004KT 230V300 9999 FEW015 23/22 Q1011
                        NOSIG=
200807262330 METAR LMML NIL=
200807262315 METAR LMML 262315Z VRB03KT CAVOK 23/22 Q1011 NOSIG=
200807262245 METAR LMML 262245Z VRB03KT 9999 FEW015 23/22 Q1012 NOSIG=
200807262230 METAR LMML NIL=
200807262215 METAR LMML 262215Z VRB03KT 9999 FEW015 24/22 Q1012 NOSIG=
200807262200 METAR LMML NIL=
200807262145 METAR LMML 262145Z VRB02KT 9999 FEW015 24/22 Q1012 NOSIG=
200807262130 METAR LMML NIL=
200807262115 METAR LMML 262115Z VRB03KT 9999 FEW015 24/22 Q1012 NOSIG=
200807262100 METAR LMML NIL=
200807262045 METAR LMML 262045Z 30004KT CAVOK 24/22 Q1012 NOSIG=
200807262030 METAR LMML NIL=
200807262015 METAR LMML 262015Z 32006KT CAVOK 25/22 Q1012 NOSIG RMK SMOKE
                        LYR TO SW OF AIRFIELD=
200807262000 METAR LMML NIL=
200807261945 METAR LMML 261945Z 28005KT CAVOK 25/20 Q1012 NOSIG=
200807261930 METAR LMML NIL=
200807261915 METAR LMML 261915Z 28004KT CAVOK 26/19 Q1011 NOSIG=
200807261900 METAR LMML NIL=
200807261845 METAR LMML 261845Z 28004KT 250V320 CAVOK 26/18 Q1011 NOSIG
                        RMK SMOKE LYR TO S AND SW OF AIRFIELD=
200807261830 METAR LMML NIL=
200807261815 METAR LMML 261815Z VRB03KT CAVOK 27/18 Q1011 NOSIG=
200807261800 METAR LMML NIL=
200807261745 METAR LMML 261745Z 02004KT 350V080 CAVOK 28/18 Q1011 NOSIG=
200807261730 METAR LMML NIL=
200807261715 METAR LMML 261715Z VRB02KT CAVOK 29/15 Q1011 NOSIG=
200807261700 METAR LMML NIL=
200807261645 METAR LMML 261645Z 02005KT 350V060 CAVOK 30/17 Q1010 NOSIG=
200807261630 METAR LMML NIL=
200807261615 METAR LMML 261615Z 06004KT 300V220 CAVOK 30/16 Q1010 BECMG
                        29010KT=
200807261600 METAR LMML NIL=
200807261545 METAR LMML 261545Z VRB03KT CAVOK 30/17 Q1010 BECMG 29010KT=
200807261530 METAR LMML NIL=
200807261515 METAR LMML 261515Z 04005KT 360V080 CAVOK 31/17 Q1011 BECMG
                        29010KT=
200807261500 METAR LMML NIL=
200807261445 METAR LMML 261445Z 21007KT 160V250 CAVOK 30/13 Q1011 NOSIG=
200807261430 METAR LMML NIL=
200807261415 METAR LMML 261415Z 21008KT 180V280 CAVOK 30/12 Q1011 NOSIG=
200807261400 METAR LMML NIL=
200807261345 METAR LMML 261345Z 23007KT 180V300 CAVOK 30/13 Q1011 NOSIG=
200807261330 METAR LMML NIL=
200807261315 METAR LMML 261315Z 22006KT 160V270 CAVOK 30/14 Q1011 NOSIG=
200807261300 METAR LMML NIL=
200807261245 METAR LMML 261245Z 22007KT 180V270 CAVOK 30/14 Q1011 NOSIG=
200807261230 METAR LMML NIL=
200807261215 METAR LMML 261215Z 20007KT 160V250 CAVOK 29/15 Q1011 NOSIG=
200807261200 METAR LMML NIL=
200807261145 METAR LMML 261145Z 20008KT 170V250 CAVOK 29/15 Q1011 NOSIG=
200807261130 METAR LMML NIL=
200807261115 METAR LMML 261115Z 20007KT 170V230 CAVOK 29/16 Q1012 NOSIG=
200807261100 METAR LMML NIL=
200807261045 METAR LMML 261045Z 20006KT 160V270 CAVOK 30/14 Q1012 NOSIG=
200807261030 METAR LMML NIL=
200807261015 METAR LMML 261015Z 21005KT 140V260 CAVOK 29/16 Q1012 NOSIG=
200807261000 METAR LMML NIL=
200807260945 METAR LMML 260945Z 21005KT 160V270 CAVOK 29/17 Q1012 NOSIG=
200807260930 METAR LMML NIL=
200807260915 METAR LMML 260915Z 21005KT 160V270 CAVOK 28/17 Q1012 NOSIG=
200807260900 METAR LMML NIL=
200807260845 METAR LMML 260845Z 19006KT 150V230 CAVOK 28/19 Q1012 NOSIG=
200807260830 METAR LMML NIL=
200807260815 METAR LMML 260815Z 21005KT 170V260 CAVOK 27/19 Q1012 NOSIG=
200807260800 METAR LMML NIL=
200807260745 METAR LMML 260745Z 20005KT 150V250 CAVOK 27/20 Q1012 NOSIG=
200807260730 METAR LMML NIL=
200807260715 METAR LMML 260715Z 20005KT 160V230 CAVOK 26/21 Q1012 NOSIG=
200807260700 METAR LMML NIL=
200807260645 METAR LMML 260645Z 20004KT 170V250 CAVOK 26/20 Q1012 NOSIG=
200807260630 METAR LMML NIL=
200807260615 METAR LMML 260615Z 19004KT 160V230 CAVOK 25/21 Q1012 NOSIG=
200807260600 METAR LMML NIL=
200807260545 METAR LMML 260545Z 20004KT 170V240 CAVOK 25/21 Q1012 NOSIG=
200807260530 METAR LMML NIL=
200807260515 METAR LMML 260515Z VRB03KT CAVOK 24/21 Q1011 NOSIG=
200807260500 METAR LMML NIL=
200807260445 METAR LMML 260445Z VRB02KT CAVOK 23/21 Q1011 NOSIG=
200807260430 METAR LMML NIL=
200807260415 METAR LMML 260415Z 20004KT 180V240 CAVOK 23/21 Q1011 NOSIG=
200807260400 METAR LMML NIL=
200807260345 METAR LMML 260345Z VRB03KT CAVOK 23/21 Q1011 NOSIG=
200807260330 METAR LMML NIL=
200807260315 METAR LMML 260315Z VRB01KT CAVOK 22/20 Q1011 NOSIG=
200807260300 METAR LMML NIL=
200807260245 METAR LMML 260245Z VRB02KT CAVOK 23/20 Q1011 NOSIG=
200807260230 METAR LMML NIL=
200807260215 METAR LMML 260215Z VRB03KT CAVOK 23/20 Q1011 NOSIG=
200807260200 METAR LMML NIL=
200807260145 METAR LMML 260145Z VRB03KT CAVOK 23/20 Q1011 NOSIG=
200807260130 METAR LMML NIL=
200807260115 METAR LMML 260115Z VRB03KT CAVOK 23/20 Q1012 NOSIG=
200807260100 METAR LMML NIL=
200807260045 METAR LMML 260045Z VRB03KT CAVOK 23/20 Q1012 NOSIG=
200807260030 METAR LMML NIL=
200807260015 METAR LMML 260015Z VRB03KT CAVOK 24/20 Q1012 NOSIG=
200807260000 METAR LMML NIL=
200807252345 METAR LMML 252345Z VRB03KT CAVOK 23/20 Q1012 NOSIG=
200807252330 METAR LMML NIL=
200807252315 METAR LMML 252315Z VRB03KT CAVOK 24/20 Q1012 NOSIG=
200807252300 METAR LMML NIL=
200807252245 METAR LMML 252245Z VRB03KT CAVOK 24/20 Q1012 NOSIG=
200807252230 METAR LMML NIL=
200807252215 METAR LMML 252215Z VRB03KT CAVOK 24/20 Q1012 NOSIG=
200807252200 METAR LMML NIL=
200807252145 METAR LMML 252145Z VRB03KT CAVOK 24/20 Q1012 NOSIG=
200807252130 METAR LMML NIL=
200807252115 METAR LMML 252115Z VRB03KT CAVOK 24/20 Q1012 NOSIG=
200807252100 METAR LMML NIL=
200807252045 METAR LMML 252045Z VRB02KT CAVOK 24/20 Q1012 NOSIG=
200807252030 METAR LMML NIL=
200807252015 METAR LMML 252015Z VRB02KT CAVOK 24/20 Q1012 NOSIG=
200807252000 METAR LMML NIL=
200807251945 METAR LMML 251945Z 22004KT 190V260 CAVOK 24/20 Q1012 NOSIG=
200807251930 METAR LMML NIL=
200807251915 METAR LMML 251915Z VRB03KT CAVOK 24/19 Q1012 NOSIG=
200807251900 METAR LMML NIL=
200807251845 METAR LMML 251845Z 24005KT 200V300 CAVOK 25/19 Q1012 NOSIG=
200807251830 METAR LMML NIL=
200807251815 METAR LMML 251815Z 23005KT 190V270 CAVOK 25/19 Q1012 NOSIG=
200807251745 METAR LMML 251745Z 23007KT 200V280 CAVOK 25/18 Q1012 NOSIG=
200807251730 METAR LMML NIL=
200807251715 METAR LMML 251715Z 23007KT 190V280 CAVOK 26/18 Q1012 NOSIG=
200807251700 METAR LMML NIL=
200807251645 METAR LMML 251645Z 23009KT 200V280 CAVOK 26/18 Q1012 NOSIG=
200807251630 METAR LMML NIL=
200807251615 METAR LMML 251615Z 23010KT 190V260 CAVOK 26/17 Q1012 NOSIG=
200807251600 METAR LMML NIL=
200807251545 METAR LMML 251545Z 24010KT 200V290 CAVOK 26/17 Q1012 NOSIG=
200807251530 METAR LMML NIL=
200807251515 METAR LMML 251515Z 22010KT 180V270 CAVOK 27/16 Q1013 NOSIG=
200807251500 METAR LMML NIL=
200807251445 METAR LMML 251445Z 23009KT 190V280 CAVOK 27/15 Q1013 NOSIG=
200807251430 METAR LMML NIL=
200807251415 METAR LMML 251415Z 23009KT 190V300 CAVOK 27/16 Q1013 NOSIG=
200807251400 METAR LMML NIL=
200807251345 METAR LMML 251345Z 22009KT 170V270 CAVOK 26/14 Q1013 NOSIG=
200807251330 METAR LMML NIL=
200807251315 METAR LMML 251315Z 23010KT 190V270 CAVOK 27/15 Q1013 NOSIG=
200807251300 METAR LMML NIL=
200807251245 METAR LMML 251245Z 24009KT 200V310 CAVOK 27/16 Q1014 NOSIG=
200807251230 METAR LMML NIL=
200807251215 METAR LMML 251215Z 24010KT 190V290 CAVOK 27/14 Q1014 NOSIG=
200807251200 METAR LMML NIL=
200807251145 METAR LMML 251145Z 25009KT 200V290 CAVOK 27/16 Q1014 NOSIG=
200807251130 METAR LMML NIL=
200807251115 METAR LMML 251115Z 24008KT 200V300 CAVOK 27/13 Q1014 NOSIG=
200807251100 METAR LMML NIL=
200807251045 METAR LMML 251045Z 23008KT 190V280 9999 FEW025 27/11 Q1014
                        NOSIG=
200807251030 METAR LMML NIL=
200807251015 LMML 251015Z 23007KT 190V280 9999 FEW025 27/13 Q1014 NOSIG=
200807251000 METAR LMML NIL=
200807250945 METAR LMML 250945Z 24007KT 200V290 9999 FEW025 27/11 Q1014
                        NOSIG=
200807250930 METAR LMML NIL=
200807250915 METAR LMML 250915Z 29005KT 250V340 9999 FEW025 27/13 Q1015
                        NOSIG=
200807250900 METAR LMML NIL=
200807250845 METAR LMML 250845Z 28006KT 220V340 9999 FEW025 26/15 Q1015
                        NOSIG=
200807250830 METAR LMML NIL=
200807250815 METAR LMML 250815Z 26006KT 170V320 9999 FEW025 26/13 Q1014
                        NOSIG=
200807250800 METAR LMML NIL=
200807250745 METAR LMML 250745Z 33005KT 270V040 9999 FEW025 25/17 Q1014
                        NOSIG=
200807250730 METAR LMML NIL=
200807250715 METAR LMML 250715Z 34004KT 270V030 9999 FEW023 25/18 Q1014
                        NOSIG=
200807250700 METAR LMML NIL=
200807250645 METAR LMML 250645Z 30005KT 250V350 9999 FEW020 24/18 Q1014
                        NOSIG=
200807250630 METAR LMML NIL=
200807250615 METAR LMML 250615Z 31005KT 270V350 9999 FEW020 23/19 Q1014
                        NOSIG=
200807250600 METAR LMML NIL=
200807250545 METAR LMML 250545Z VRB03KT 9999 FEW015 22/19 Q1014 NOSIG=
200807250530 METAR LMML NIL=
200807250515 METAR LMML 250515Z VRB01KT 9999 FEW015 21/19 Q1014 NOSIG=
200807250500 METAR LMML NIL=
200807250445 METAR LMML 250445Z VRB03KT 9999 FEW015 21/18 Q1014 NOSIG=
200807250430 METAR LMML NIL=
200807250415 METAR LMML 250415Z VRB03KT 9999 FEW015 21/18 Q1014 NOSIG=
200807250400 METAR LMML NIL=
200807250345 METAR LMML 250345Z VRB02KT 9999 FEW015 20/17 Q1014 NOSIG=
200807250330 METAR LMML NIL=
200807250315 METAR LMML 250315Z 29004KT 9999 FEW015 21/17 Q1013 NOSIG=
200807250300 METAR LMML NIL=
200807250245 METAR LMML 250245Z VRB03KT CAVOK 21/17 Q1013 NOSIG=
200807250230 METAR LMML NIL=
200807250215 METAR LMML 250215Z 28004KT CAVOK 21/17 Q1014 NOSIG=
200807250200 METAR LMML NIL=
200807250145 METAR LMML 250145Z 28004KT CAVOK 21/17 Q1014 NOSIG=
200807250130 METAR LMML NIL=
200807250115 METAR LMML 250115Z 30004KT CAVOK 21/17 Q1014 NOSIG=
200807250100 METAR LMML NIL=
200807250045 METAR LMML 250045Z 27005KT CAVOK 22/17 Q1014 NOSIG=
200807250030 METAR LMML NIL=
200807250015 METAR LMML 250015Z 27005KT 230V310 CAVOK 22/17 Q1014 NOSIG=
200807250000 METAR LMML NIL=
200807242345 METAR LMML 242345Z 25005KT CAVOK 22/17 Q1014 NOSIG=
200807242330 METAR LMML NIL=
200807242315 METAR LMML 242315Z 27006KT CAVOK 22/16 Q1014 NOSIG=
200807242300 METAR LMML NIL=
200807242245 METAR LMML 242245Z 26004KT CAVOK 22/16 Q1015 NOSIG=
200807242230 METAR LMML NIL=
200807242215 METAR LMML 242215Z 27004KT 240V300 CAVOK 22/15 Q1015 NOSIG=
200807242200 METAR LMML NIL=
200807242145 METAR LMML 242145Z VRB03KT CAVOK 22/15 Q1015 NOSIG=
200807242130 METAR LMML NIL=
200807242115 METAR LMML 242115Z VRB03KT CAVOK 22/15 Q1015 NOSIG=
200807242100 METAR LMML NIL=
200807242045 METAR LMML 242045Z VRB02KT CAVOK 22/15 Q1015 NOSIG=
200807242030 METAR LMML NIL=
200807242015 METAR LMML 242015Z 31004KT CAVOK 22/15 Q1015 NOSIG=
200807242000 METAR LMML NIL=
200807241945 METAR LMML 241945Z VRB02KT CAVOK 23/14 Q1015 NOSIG=
200807241930 METAR LMML NIL=
200807241915 METAR LMML 241915Z VRB03KT CAVOK 23/13 Q1015 NOSIG=
200807241900 METAR LMML NIL=
200807241845 METAR LMML 241845Z VRB03KT CAVOK 23/12 Q1015 NOSIG=
200807241830 METAR LMML NIL=
200807241815 METAR LMML 241815Z 26005KT 210V290 CAVOK 24/11 Q1014 NOSIG=
200807241800 METAR LMML NIL=
200807241745 METAR LMML 241745Z 25005KT 200V290 CAVOK 25/10 Q1014 NOSIG=
200807241730 METAR LMML NIL=
200807241715 METAR LMML 241715Z 24006KT 200V280 CAVOK 26/10 Q1014 NOSIG=
200807241700 METAR LMML NIL=
200807241645 METAR LMML 241645Z 24006KT 200V290 CAVOK 26/11 Q1014 NOSIG=
200807241630 METAR LMML NIL=
200807241615 METAR LMML 241615Z 28007KT 240V310 CAVOK 27/05 Q1014 NOSIG=
200807241600 METAR LMML NIL=
200807241545 METAR LMML 241545Z 27007KT 220V310 CAVOK 27/09 Q1014 NOSIG=
200807241530 METAR LMML NIL=
200807241515 METAR LMML 241515Z 28006KT 210V340 9999 FEW040 28/07 Q1015
                        NOSIG=
200807241500 METAR LMML NIL=
200807241445 METAR LMML 241445Z 28007KT 240V330 9999 FEW040 27/10 Q1015
                        NOSIG=
200807241430 METAR LMML NIL=
200807241415 METAR LMML 241415Z 30007KT 240V350 9999 FEW040 27/10 Q1015
                        NOSIG=
200807241400 METAR LMML NIL=
200807241345 METAR LMML 241345Z 29008KT 260V340 9999 FEW040 27/10 Q1015
                        NOSIG=
200807241330 METAR LMML NIL=
200807241315 METAR LMML 241315Z 31009KT 270V350 9999 FEW049 28/10 Q1015
                        NOSIG=
200807241300 METAR LMML NIL=
200807241245 METAR LMML 241245Z 29007KT 200V350 9999 FEW049 28/12 Q1015
                        NOSIG=
200807241215 METAR LMML 241215Z VRB03KT 9999 FEW049 28/11 Q1015 NOSIG=
200807241200 METAR LMML NIL=
200807241145 METAR LMML 241145Z 30007KT 250V340 CAVOK 27/11 Q1015 NOSIG=
200807241130 METAR LMML NIL=
200807241115 METAR LMML 241115Z 13006G22KT 020V220 CAVOK 27/14 Q1015 NOSIG=
200807241100 METAR LMML NIL=
200807241045 METAR LMML 241045Z 02006KT 320V080 9999 FEW048 28/14 Q1015
                        NOSIG=
200807241030 METAR LMML NIL=
200807241015 METAR LMML 241015Z 34008KT 280V030 9999 FEW048 26/13 Q1016
                        NOSIG=
200807241000 METAR LMML NIL=
200807240945 METAR LMML 240945Z 25007KT 130V030 9999 FEW041 27/13 Q1015
                        NOSIG=
200807240930 METAR LMML NIL=
200807240915 METAR LMML 240915Z 17007KT 130V210 9999 FEW046 26/13 Q1016
                        NOSIG=
200807240900 METAR LMML NIL=
200807240845 METAR LMML 240845Z 23004KT 170V360 9999 FEW040 25/13 Q1016
                        NOSIG=
200807240830 METAR LMML NIL=
200807240815 METAR LMML 240815Z VRB02KT 9999 FEW032 26/13 Q1016 NOSIG=
200807240800 METAR LMML NIL=
200807240745 METAR LMML 240745Z 11004KT 360V180 9999 FEW032 26/14 Q1015
                        NOSIG=
200807240730 METAR LMML NIL=
200807240715 METAR LMML 240715Z VRB03KT 9999 FEW032 26/15 Q1015 NOSIG=
200807240700 METAR LMML NIL=
200807240645 METAR LMML 240645Z 06004KT 360V100 9999 FEW035 25/15 Q1015
                        NOSIG=
200807240630 METAR LMML NIL=
200807240615 METAR LMML 240615Z 04005KT 360V080 9999 FEW025 25/16 Q1015
                        NOSIG=
200807240600 METAR LMML NIL=
200807240545 LMML 240545Z 05005KT 010V090 9999 FEW025 24/14 Q1015 NOSIG=
200807240530 METAR LMML NIL=
200807240515 METAR LMML 240515Z 04005KT 360V080 9999 FEW025 24/15 Q1015
                        NOSIG=
200807240500 METAR LMML NIL=
200807240445 METAR LMML 240445Z 05005KT 020V090 9999 FEW025 23/15 Q1015
                        NOSIG=
200807240430 METAR LMML NIL=
200807240415 METAR LMML 240415Z 04006KT 010V080 9999 FEW025 23/15 Q1014
                        NOSIG=
200807240400 METAR LMML NIL=
200807240345 METAR LMML 240345Z 04006KT 010V080 9999 FEW020 23/14 Q1014
                        NOSIG=
200807240330 METAR LMML NIL=
200807240315 METAR LMML 240315Z 04006KT 010V070 CAVOK 23/15 Q1014 NOSIG=
200807240300 METAR LMML NIL=
200807240245 METAR LMML 240245Z 04006KT 010V090 CAVOK 23/15 Q1014 NOSIG=
200807240230 METAR LMML NIL=
200807240215 METAR LMML 240215Z 04006KT 010V070 CAVOK 23/17 Q1014 NOSIG=
200807240145 METAR LMML 240145Z 05005KT 020V080 CAVOK 23/17 Q1014 NOSIG=
200807240130 METAR LMML NIL=
200807240115 METAR LMML 240115Z 04007KT 020V080 9999 FEW026 23/17 Q1014
                        NOSIG=
200807240100 METAR LMML NIL=
200807240045 METAR LMML 240045Z 04008KT 020V080 9999 FEW025 23/17 Q1014
                        NOSIG=
200807240030 METAR LMML NIL=
200807240015 METAR LMML 240015Z 04007KT 010V070 9999 FEW023 23/18 Q1014
                        NOSIG=
200807240000 METAR LMML NIL=
200807232345 METAR LMML 232345Z 04007KT CAVOK 24/18 Q1014 NOSIG=
200807232330 METAR LMML NIL=
200807232315 METAR LMML 232315Z 04007KT 010V080 CAVOK 24/18 Q1015 NOSIG=
200807232300 METAR LMML NIL=
200807232245 METAR LMML 232245Z 04007KT 360V070 CAVOK 24/18 Q1015 NOSIG=
200807232230 METAR LMML NIL=
200807232215 METAR LMML 232215Z 04008KT CAVOK 24/18 Q1015 NOSIG=
200807232200 METAR LMML NIL=
200807232145 METAR LMML 232145Z 04008KT 360V060 CAVOK 24/17 Q1015 NOSIG=
200807232130 METAR LMML NIL=
200807232115 METAR LMML 232115Z 04007KT 010V070 CAVOK 24/18 Q1015 NOSIG=
200807232100 METAR LMML NIL=
200807232045 METAR LMML 232045Z 03006KT 360V060 CAVOK 24/18 Q1014 NOSIG=
200807232030 METAR LMML NIL=
200807232015 METAR LMML 232015Z 01009KT CAVOK 24/18 Q1014 NOSIG=
200807232000 METAR LMML NIL=
200807231945 METAR LMML 231945Z 32006KT 290V360 9999 FEW020 23/17 Q1014
                        NOSIG=
200807231930 METAR LMML NIL=
200807231915 METAR LMML 231915Z 33010KT 290V350 9999 FEW020 23/18 Q1014
                        NOSIG=
200807231900 METAR LMML NIL=
200807231845 METAR LMML 231845Z 30013KT 9999 FEW025 24/18 Q1013 NOSIG=
200807231830 METAR LMML NIL=
200807231815 METAR LMML 231815Z 30013KT 9999 FEW025 24/18 Q1014 NOSIG=
200807231745 METAR LMML 231745Z 30016KT 9999 FEW030 24/17 Q1013 NOSIG=
200807231730 METAR LMML NIL=
200807231715 METAR LMML 231715Z 30016KT 260V330 9999 FEW040 24/16 Q1014
                        NOSIG=
200807231700 METAR LMML NIL=
200807231645 METAR LMML 231645Z 29020KT 9999 FEW040 25/15 Q1014 NOSIG=
200807231630 METAR LMML NIL=
200807231615 METAR LMML 231615Z 30022KT 9999 FEW040 25/14 Q1014 NOSIG=
200807231600 METAR LMML NIL=
200807231545 METAR LMML 231545Z 31023KT 9999 FEW040 26/15 Q1014 NOSIG=
200807231530 METAR LMML NIL=
200807231515 METAR LMML 231515Z 30021KT 270V330 9999 FEW040 26/14 Q1014
                        NOSIG=
200807231500 METAR LMML NIL=
200807231445 METAR LMML 231445Z 30021KT 270V330 9999 FEW040 27/11 Q1014
                        NOSIG=
200807231430 METAR LMML NIL=
200807231415 METAR LMML 231415Z 30020KT 9999 FEW040 27/12 Q1014 NOSIG=
200807231400 METAR LMML NIL=
200807231345 METAR LMML 231345Z 30020KT 270V330 9999 FEW040 28/10 Q1014
                        NOSIG=
200807231330 METAR LMML NIL=
200807231315 METAR LMML 231315Z 30019KT 270V330 CAVOK 28/11 Q1014 NOSIG=
200807231245 METAR LMML 231245Z 30019KT 270V330 9999 FEW040 28/14 Q1014
                        NOSIG=
200807231230 METAR LMML NIL=
200807231215 METAR LMML 231215Z 30018KT 260V330 9999 FEW040 28/15 Q1014
                        NOSIG=
200807231200 METAR LMML NIL=
200807231145 METAR LMML 231145Z 30017KT 260V330 9999 FEW040 28/14 Q1014
                        NOSIG=
200807231130 METAR LMML NIL=
200807231115 METAR LMML 231115Z 30018KT 260V330 9999 FEW041 27/15 Q1015
                        NOSIG=
200807231100 METAR LMML NIL=
200807231045 METAR LMML 231045Z 30016KT 9999 FEW035 28/12 Q1015 NOSIG=
200807231030 METAR LMML NIL=
200807231015 LMML 231015Z 30016KT 260V330 9999 FEW037 28/12 Q1015 NOSIG=
200807231000 METAR LMML NIL=
200807230945 METAR LMML 230945Z 29013KT 260V320 9999 FEW034 27/16 Q1015
                        NOSIG=
200807230930 METAR LMML NIL=
200807230915 METAR LMML 230915Z 31013KT 280V340 9999 FEW033 26/17 Q1015
                        NOSIG=
200807230900 METAR LMML NIL=
200807230845 METAR LMML 230845Z 32012KT 9999 FEW028 27/15 Q1015 NOSIG=
200807230830 METAR LMML NIL=
200807230815 METAR LMML 230815Z 32012KT 290V350 9999 FEW021 27/18 Q1014
                        NOSIG=
200807230800 METAR LMML NIL=
200807230745 METAR LMML 230745Z 32013KT 280V340 9999 FEW021 26/18 Q1014
                        NOSIG=
200807230730 METAR LMML NIL=
200807230715 METAR LMML 230715Z 33012KT 300V360 9999 FEW021 26/19 Q1014
                        NOSIG=
200807230700 METAR LMML NIL=
200807230645 METAR LMML 230645Z 33015KT 9999 FEW018 25/19 Q1014 NOSIG=
200807230630 METAR LMML NIL=
200807230615 METAR LMML 230615Z 33014KT 9999 FEW018 24/19 Q1014 NOSIG=
200807230545 METAR LMML 230545Z 33012KT 9999 FEW015 23/20 Q1014 NOSIG=
200807230530 METAR LMML NIL=
200807230515 METAR LMML 230515Z 32010KT 290V360 9999 FEW015 23/20 Q1014
                        NOSIG=
200807230500 METAR LMML NIL=
200807230445 METAR LMML 230445Z 32009KT 9999 FEW015 23/20 Q1014 NOSIG=
200807230430 METAR LMML NIL=
200807230415 METAR LMML 230415Z 32008KT 9999 FEW016 22/20 Q1014 NOSIG=
200807230400 METAR LMML NIL=
200807230345 METAR LMML 230345Z 31008KT 290V350 9999 FEW015 22/20 Q1014
                        NOSIG=
200807230330 METAR LMML NIL=
200807230315 METAR LMML 230315Z 32012KT 9999 FEW014 22/20 Q1014 NOSIG=
200807230300 METAR LMML NIL=
200807230245 METAR LMML 230245Z 32010KT 290V350 9999 FEW016 22/20 Q1014
                        NOSIG=
200807230230 METAR LMML NIL=
200807230215 METAR LMML 230215Z 32011KT 9999 FEW016 23/20 Q1013 NOSIG=
200807230200 METAR LMML NIL=
200807230145 METAR LMML 230145Z 32011KT CAVOK 23/19 Q1013 NOSIG=
200807230130 METAR LMML NIL=
200807230115 METAR LMML 230115Z 32011KT 290V350 CAVOK 23/19 Q1013 NOSIG=
200807230100 METAR LMML NIL=
200807230045 METAR LMML 230045Z 32013KT 290V350 CAVOK 23/18 Q1013 NOSIG=
200807230030 METAR LMML NIL=
200807230015 METAR LMML 230015Z 32017KT CAVOK 23/18 Q1013 NOSIG=
200807230000 METAR LMML NIL=
200807222345 METAR LMML 222345Z 31015KT CAVOK 23/18 Q1013 NOSIG=
200807222330 METAR LMML NIL=
200807222315 METAR LMML 222315Z 31018KT CAVOK 23/18 Q1013 NOSIG=
200807222300 METAR LMML NIL=
200807222245 METAR LMML 222245Z 31018KT CAVOK 23/18 Q1014 NOSIG=
200807222230 METAR LMML NIL=
200807222215 METAR LMML 222215Z 31015KT CAVOK 22/18 Q1014 NOSIG=
200807222200 METAR LMML NIL=
200807222145 METAR LMML 222145Z 31013KT 270V340 CAVOK 22/17 Q1014 NOSIG=
200807222130 METAR LMML NIL=
200807222115 METAR LMML 222115Z 31020KT CAVOK 22/17 Q1014 NOSIG=
200807222100 METAR LMML NIL=
200807222045 METAR LMML 222045Z 31022KT CAVOK 22/17 Q1014 NOSIG=
200807222030 METAR LMML NIL=
200807222015 METAR LMML 222015Z 30018KT CAVOK 22/17 Q1013 NOSIG=
200807222000 METAR LMML NIL=
200807221945 METAR LMML 221945Z 30015G26KT 270V330 CAVOK 22/16 Q1013 NOSIG=
200807221930 METAR LMML NIL=
200807221915 METAR LMML 221915Z 29018KT CAVOK 22/18 Q1012 NOSIG=
200807221900 METAR LMML NIL=
200807221845 METAR LMML 221845Z 29020KT 250V320 CAVOK 23/17 Q1013 NOSIG=
200807221830 METAR LMML NIL=
200807221815 METAR LMML 221815Z 29016KT 260V320 CAVOK 23/18 Q1013 NOSIG=
200807221800 METAR LMML NIL=
200807221745 METAR LMML 221745Z 29018KT 260V320 CAVOK 23/17 Q1013 NOSIG=
200807221730 METAR LMML NIL=
200807221715 METAR LMML 221715Z 30019KT CAVOK 24/17 Q1013 NOSIG=
200807221700 METAR LMML NIL=
200807221645 METAR LMML 221645Z 31021KT 270V330 CAVOK 25/18 Q1013 NOSIG=
200807221630 METAR LMML NIL=
200807221615 METAR LMML 221615Z 30022G32KT CAVOK 25/17 Q1013 NOSIG=
200807221600 METAR LMML NIL=
200807221545 METAR LMML 221545Z 30022KT 270V330 CAVOK 25/18 Q1013 NOSIG=
200807221530 METAR LMML NIL=
200807221515 METAR LMML 221515Z 31023KT CAVOK 26/17 Q1013 NOSIG=
200807221500 METAR LMML NIL=
200807221445 METAR LMML 221445Z 30025KT CAVOK 26/17 Q1013 NOSIG=
200807221430 METAR LMML NIL=
200807221415 METAR LMML 221415Z 30024KT CAVOK 27/17 Q1013 NOSIG=
200807221400 METAR LMML NIL=
200807221345 METAR LMML 221345Z 31025KT CAVOK 27/17 Q1013 NOSIG=
200807221330 METAR LMML NIL=
200807221315 METAR LMML 221315Z 31021KT 270V330 9999 FEW020 28/18 Q1013
                        NOSIG=
200807221245 METAR LMML 221245Z 30018KT 260V330 9999 FEW020 28/17 Q1014
                        NOSIG=
200807221230 METAR LMML NIL=
200807221215 METAR LMML 221215Z 31021KT CAVOK 27/18 Q1013 NOSIG=
200807221200 METAR LMML NIL=
200807221145 METAR LMML 221145Z 30018KT 270V330 CAVOK 27/19 Q1013 NOSIG=
200807221130 METAR LMML NIL=
200807221115 METAR LMML 221115Z 31019KT 9999 FEW015 28/17 Q1013 NOSIG=
200807221100 METAR LMML NIL=
200807221045 METAR LMML 221045Z 30017KT CAVOK 28/17 Q1013 NOSIG=
200807221030 METAR LMML NIL=
200807221015 METAR LMML 221015Z 30019KT CAVOK 27/18 Q1013 NOSIG=
200807221000 METAR LMML NIL=
200807220945 METAR LMML 220945Z 30018KT CAVOK 28/18 Q1013 NOSIG=
200807220930 METAR LMML NIL=
200807220915 METAR LMML 220915Z 30017KT CAVOK 27/19 Q1013 NOSIG=
200807220900 METAR LMML NIL=
200807220845 METAR LMML 220845Z 30020KT 270V330 CAVOK 27/19 Q1013 NOSIG=
200807220830 METAR LMML NIL=
200807220800 METAR LMML NIL=
200807220745 METAR LMML 220745Z 29016KT 270V330 CAVOK 26/20 Q1012 NOSIG=
200807220730 METAR LMML NIL=
200807220715 METAR LMML 220715Z 29017KT 270V330 9999 FEW015 26/21 Q1012
                        NOSIG=
200807220700 METAR LMML NIL=
200807220645 METAR LMML 220645Z 30017KT 9999 FEW015 26/21 Q1013 NOSIG=
200807220630 METAR LMML NIL=
200807220615 METAR LMML 220615Z 29010KT 9999 FEW015 26/21 Q1012 NOSIG=
200807220600 METAR LMML NIL=
200807220545 METAR LMML 220545Z 29012KT 260V320 CAVOK 25/22 Q1012 NOSIG=
200807220530 METAR LMML NIL=
200807220515 METAR LMML 220515Z 29013KT CAVOK 25/21 Q1012 NOSIG=
200807220500 METAR LMML NIL=
200807220445 METAR LMML 220445Z 27011KT 230V300 CAVOK 25/22 Q1012 NOSIG=
200807220430 METAR LMML NIL=
200807220415 METAR LMML 220415Z 26012KT 230V310 CAVOK 25/22 Q1012 NOSIG=
200807220345 METAR LMML 220345Z 26011KT 220V300 CAVOK 25/22 Q1012 NOSIG=
200807220330 METAR LMML NIL=
200807220315 METAR LMML 220315Z 25010KT 210V280 CAVOK 25/22 Q1012 NOSIG=
200807220300 METAR LMML NIL=
200807220245 METAR LMML 220245Z 23007KT 200V270 CAVOK 25/22 Q1012 NOSIG=
200807220215 METAR LMML 220215Z 25005KT 200V290 CAVOK 25/20 Q1012 NOSIG=
200807220200 METAR LMML NIL=
200807220145 METAR LMML 220145Z VRB02KT CAVOK 24/19 Q1012 NOSIG=
200807220115 METAR LMML 220115Z VRB03KT CAVOK 25/21 Q1012 NOSIG=
200807220045 METAR LMML 220045Z VRB02KT CAVOK 25/22 Q1013 NOSIG=
200807220015 METAR LMML 220015Z 25004KT 210V300 CAVOK 25/22 Q1013 NOSIG=
200807220000 METAR LMML NIL=
200807212345 METAR LMML 212345Z 27005KT 220V330 CAVOK 25/22 Q1014 NOSIG=
200807212315 METAR LMML 212315Z 24004KT 200V280 CAVOK 25/21 Q1014 NOSIG=
200807212300 METAR LMML NIL=
200807212245 METAR LMML 212245Z 25007KT 210V280 CAVOK 25/23 Q1014 NOSIG=
200807212230 METAR LMML NIL=
200807212215 METAR LMML 212215Z 24005KT 200V300 CAVOK 25/23 Q1014 NOSIG=
200807212200 METAR LMML NIL=
200807212145 METAR LMML 212145Z 25007KT 220V290 CAVOK 25/23 Q1014 NOSIG=
200807212130 METAR LMML NIL=
200807212115 METAR LMML 212115Z 24005KT 200V280 CAVOK 25/22 Q1014 NOSIG=
200807212100 METAR LMML NIL=
200807212045 METAR LMML 212045Z 25004KT 220V290 CAVOK 25/22 Q1014 NOSIG=
200807212030 METAR LMML NIL=
200807212015 METAR LMML 212015Z 25005KT 210V290 CAVOK 25/21 Q1014 NOSIG=
200807212000 METAR LMML NIL=
200807211945 METAR LMML 211945Z 24004KT 200V280 CAVOK 25/22 Q1014 NOSIG=
200807211930 METAR LMML NIL=
200807211915 METAR LMML 211915Z 23004KT 210V280 CAVOK 26/19 Q1013 NOSIG=
200807211900 METAR LMML NIL=
200807211845 METAR LMML 211845Z 26004KT 220V300 CAVOK 26/18 Q1013 NOSIG=
200807211830 METAR LMML NIL=
200807211815 METAR LMML 211815Z 24004KT 210V290 CAVOK 27/16 Q1013 NOSIG=
200807211800 METAR LMML NIL=
200807211745 METAR LMML 211745Z 26005KT 230V300 CAVOK 28/12 Q1013 NOSIG=
200807211730 METAR LMML NIL=
200807211715 METAR LMML 211715Z 27006KT 220V300 CAVOK 29/10 Q1014 NOSIG=
200807211700 METAR LMML NIL=
200807211645 METAR LMML 211645Z 27008KT 210V310 CAVOK 29/12 Q1014 NOSIG=
200807211630 METAR LMML NIL=
200807211615 METAR LMML 211615Z 28009KT 240V310 CAVOK 29/13 Q1014 NOSIG=
200807211600 METAR LMML NIL=
200807211545 METAR LMML 211545Z 27007KT 220V320 CAVOK 30/14 Q1014 NOSIG=
200807211530 METAR LMML NIL=
200807211515 METAR LMML 211515Z 27009KT 230V300 CAVOK 30/14 Q1014 NOSIG=
200807211500 METAR LMML NIL=
200807211445 METAR LMML 211445Z 28008KT 230V320 CAVOK 30/15 Q1015 NOSIG=
200807211430 METAR LMML NIL=
200807211415 METAR LMML 211415Z 27009KT 230V310 CAVOK 30/14 Q1015 NOSIG=
200807211400 METAR LMML NIL=
200807211345 METAR LMML 211345Z 29010KT CAVOK 31/14 Q1015 NOSIG=
200807211330 METAR LMML NIL=
200807211315 METAR LMML 211315Z 28010KT 210V300 CAVOK 31/13 Q1015 NOSIG=
200807211300 METAR LMML NIL=
200807211245 METAR LMML 211245Z 28009KT 230V330 CAVOK 31/14 Q1015 NOSIG=
200807211230 METAR LMML NIL=
200807211215 METAR LMML 211215Z 28009KT 240V330 CAVOK 31/13 Q1015 NOSIG=
200807211200 METAR LMML NIL=
200807211145 METAR LMML 211145Z 29009KT 220V310 CAVOK 31/15 Q1015 NOSIG=
200807211130 METAR LMML NIL=
200807211115 METAR LMML 211115Z 28009KT 240V320 9999 FEW020 31/14 Q1015
                        NOSIG=
200807211100 METAR LMML NIL=
200807211045 METAR LMML 211045Z 28009KT 230V320 9999 FEW020 30/16 Q1015
                        NOSIG=
200807211030 METAR LMML NIL=
200807211015 METAR LMML 211015Z 28009KT 250V310 9999 FEW020 30/18 Q1016
                        NOSIG=
200807211000 METAR LMML NIL=
200807210945 METAR LMML 210945Z 27008KT 230V330 9999 FEW020 30/16 Q1016
                        NOSIG=
200807210915 METAR LMML 210915Z 27007KT 200V300 9999 FEW020 29/16 Q1015
                        NOSIG=
200807210900 METAR LMML NIL=
200807210845 METAR LMML 210845Z 26007KT 210V300 CAVOK 29/15 Q1015 NOSIG=
200807210830 METAR LMML NIL=
200807210815 METAR LMML 210815Z 25005KT 210V300 CAVOK 29/16 Q1015 NOSIG=
200807210800 METAR LMML NIL=
200807210745 METAR LMML 210745Z 27005KT 220V300 CAVOK 29/15 Q1015 NOSIG=
200807210730 METAR LMML NIL=
200807210715 METAR LMML 210715Z 26004KT 200V320 CAVOK 29/14 Q1015 NOSIG=
200807210700 METAR LMML NIL=
200807210645 METAR LMML 210645Z 26005KT 200V300 CAVOK 28/15 Q1015 NOSIG=
200807210630 METAR LMML NIL=
200807210615 METAR LMML 210615Z 26004KT 210V330 CAVOK 27/17 Q1015 NOSIG=
200807210600 METAR LMML NIL=
200807210545 METAR LMML 210545Z 25004KT 220V290 CAVOK 26/18 Q1014 NOSIG=
200807210530 METAR LMML NIL=
200807210515 METAR LMML 210515Z 23004KT 210V270 CAVOK 25/18 Q1014 NOSIG=
200807210500 METAR LMML NIL=
200807210445 METAR LMML 210445Z VRB02KT CAVOK 23/17 Q1014 NOSIG=
200807210430 METAR LMML NIL=
200807210415 METAR LMML 210415Z VRB03KT CAVOK 23/18 Q1014 NOSIG=
200807210400 METAR LMML NIL=
200807210345 METAR LMML 210345Z VRB03KT CAVOK 23/18 Q1014 NOSIG=
200807210330 METAR LMML NIL=
200807210315 METAR LMML 210315Z VRB03KT CAVOK 23/18 Q1014 NOSIG=
200807210300 METAR LMML NIL=
200807210245 METAR LMML 210245Z 25004KT CAVOK 23/17 Q1014 NOSIG=
200807210230 METAR LMML NIL=
200807210215 METAR LMML 210215Z VRB02KT CAVOK 23/19 Q1015 NOSIG=
200807210200 METAR LMML NIL=
200807210145 METAR LMML 210145Z VRB02KT CAVOK 23/20 Q1015 NOSIG=
200807210115 METAR LMML 210115Z VRB03KT CAVOK 23/21 Q1015 NOSIG=
200807210100 METAR LMML NIL=
200807210045 METAR LMML 210045Z VRB03KT CAVOK 23/21 Q1015 NOSIG=
200807210030 METAR LMML NIL=
200807210015 METAR LMML 210015Z VRB03KT CAVOK 23/21 Q1015 NOSIG=
200807210000 METAR LMML NIL=
200807202345 METAR LMML 202345Z VRB02KT CAVOK 24/21 Q1016 NOSIG=
200807202330 METAR LMML NIL=
200807202315 METAR LMML 202315Z 31004KT 290V360 CAVOK 24/21 Q1016 NOSIG=
200807202245 METAR LMML 202245Z 31004KT CAVOK 24/21 Q1016 NOSIG=
200807202230 METAR LMML NIL=
200807202215 METAR LMML 202215Z 32006KT CAVOK 24/21 Q1016 NOSIG=
200807202200 METAR LMML NIL=
200807202145 METAR LMML 202145Z 31004KT CAVOK 25/20 Q1016 NOSIG=
200807202130 METAR LMML NIL=
200807202115 METAR LMML 202115Z 30004KT CAVOK 25/20 Q1016 NOSIG=
200807202100 METAR LMML NIL=
200807202045 METAR LMML 202045Z 30004KT CAVOK 25/19 Q1016 NOSIG=
200807202030 METAR LMML NIL=
200807202015 METAR LMML 202015Z VRB03KT CAVOK 25/19 Q1016 NOSIG=
200807202000 METAR LMML NIL=
200807201945 METAR LMML 201945Z VRB01KT CAVOK 25/19 Q1016 NOSIG=
200807201930 METAR LMML NIL=
200807201915 METAR LMML 201915Z VRB02KT CAVOK 26/20 Q1015 NOSIG=
200807201900 METAR LMML NIL=
200807201845 METAR LMML 201845Z 13004KT 100V160 CAVOK 26/19 Q1015 NOSIG=
200807201830 METAR LMML NIL=
200807201815 METAR LMML 201815Z 06006KT 020V090 CAVOK 27/19 Q1015 NOSIG=
200807201745 METAR LMML 201745Z 07005KT 010V140 CAVOK 27/19 Q1015 NOSIG=
200807201715 METAR LMML 201715Z VRB02KT 9999 FEW025 28/19 Q1015 NOSIG=
200807201700 METAR LMML NIL=
200807201645 METAR LMML 201645Z VRB03KT 9999 FEW025 28/19 Q1015 NOSIG=
200807201630 METAR LMML NIL=
200807201615 METAR LMML 201615Z VRB03KT 9999 FEW025 28/20 Q1015 NOSIG=
200807201600 METAR LMML NIL=
200807201545 METAR LMML 201545Z 20005KT 150V240 9999 FEW025 28/20 Q1015
                        NOSIG=
200807201530 METAR LMML NIL=
200807201515 LMML 201515Z 20004KT 120V250 9999 FEW025 29/18 Q1015 NOSIG=
200807201500 METAR LMML NIL=
200807201445 METAR LMML 201445Z 18004KT 140V240 9999 FEW025 29/18 Q1015
                        NOSIG=
200807201430 METAR LMML NIL=
200807201415 METAR LMML 201415Z 14005KT 070V220 9999 FEW025 29/18 Q1015
                        NOSIG=
200807201400 METAR LMML NIL=
200807201345 METAR LMML 201345Z 16005KT 110V220 9999 FEW025 29/18 Q1015
                        NOSIG=
200807201330 METAR LMML NIL=
200807201315 METAR LMML 201315Z 17006KT 110V240 9999 FEW025 29/18 Q1016
                        NOSIG=
200807201300 METAR LMML NIL=
200807201245 METAR LMML 201245Z 11006KT 060V170 9999 FEW025 30/17 Q1016
                        NOSIG=
200807201230 METAR LMML NIL=
200807201215 METAR LMML 201215Z 12006KT 060V190 9999 FEW025 29/16 Q1016
                        NOSIG=
200807201200 METAR LMML NIL=
200807201145 METAR LMML 201145Z 13006KT 070V190 CAVOK 29/15 Q1016 NOSIG=
200807201130 METAR LMML NIL=
200807201115 METAR LMML 201115Z 12008KT 360V180 CAVOK 29/16 Q1016 NOSIG=
200807201100 METAR LMML NIL=
200807201045 METAR LMML 201045Z 09007KT 030V170 CAVOK 30/17 Q1016 NOSIG=
200807201030 METAR LMML NIL=
200807201015 METAR LMML 201015Z 08007KT 040V130 CAVOK 29/18 Q1016 NOSIG=
200807201000 METAR LMML NIL=
200807200945 METAR LMML 200945Z 07007KT 010V110 CAVOK 29/17 Q1016 NOSIG=
200807200930 METAR LMML NIL=
200807200915 METAR LMML 200915Z 09007KT 050V150 CAVOK 29/16 Q1016 NOSIG=
200807200900 METAR LMML NIL=
200807200845 METAR LMML 200845Z 08005KT 030V130 CAVOK 29/17 Q1016 NOSIG=
200807200830 METAR LMML NIL=
200807200815 METAR LMML 200815Z 08005KT 360V150 CAVOK 28/17 Q1016 NOSIG=
200807200800 METAR LMML NIL=
200807200745 METAR LMML 200745Z 08005KT 030V170 CAVOK 28/18 Q1016 NOSIG=
200807200730 METAR LMML NIL=
200807200715 METAR LMML 200715Z VRB03KT 9999 FEW018 27/18 Q1016 NOSIG=
200807200700 METAR LMML NIL=
200807200645 METAR LMML 200645Z VRB02KT 9999 FEW018 26/20 Q1016 NOSIG=
200807200630 METAR LMML NIL=
200807200615 METAR LMML 200615Z VRB03KT 9999 FEW015 24/20 Q1015 NOSIG=
200807200600 METAR LMML NIL=
200807200545 METAR LMML 200545Z VRB03KT 9999 FEW015 23/21 Q1015 NOSIG=
200807200530 METAR LMML NIL=
200807200515 METAR LMML 200515Z VRB02KT 9999 FEW015 23/21 Q1015 NOSIG=
200807200500 METAR LMML NIL=
200807200445 METAR LMML 200445Z VRB02KT 9999 FEW015 22/21 Q1015 NOSIG=
200807200430 METAR LMML NIL=
200807200415 METAR LMML 200415Z VRB02KT 9999 FEW015 22/19 Q1015 NOSIG=
200807200400 METAR LMML NIL=
200807200345 METAR LMML 200345Z 27004KT 240V300 CAVOK 22/17 Q1015 NOSIG=
200807200330 METAR LMML NIL=
200807200315 METAR LMML 200315Z VRB02KT CAVOK 21/15 Q1015 NOSIG=
200807200300 METAR LMML NIL=
200807200245 METAR LMML 200245Z VRB03KT CAVOK 21/15 Q1015 NOSIG=
200807200230 METAR LMML NIL=
200807200215 METAR LMML 200215Z VRB02KT CAVOK 22/18 Q1015 NOSIG=
200807200200 METAR LMML NIL=
200807200145 METAR LMML 200145Z VRB01KT CAVOK 22/18 Q1015 NOSIG=
200807200130 METAR LMML NIL=
200807200115 METAR LMML 200115Z 27004KT CAVOK 22/18 Q1015 NOSIG=
200807200100 METAR LMML NIL=
200807200045 METAR LMML 200045Z 29004KT CAVOK 22/20 Q1015 NOSIG=
200807200015 METAR LMML 200015Z VRB03KT CAVOK 22/20 Q1016 NOSIG=
200807200000 METAR LMML NIL=
200807192345 METAR LMML 192345Z VRB03KT CAVOK 22/20 Q1016 NOSIG=
200807192330 METAR LMML NIL=
200807192315 METAR LMML 192315Z 31005KT CAVOK 22/20 Q1016 NOSIG=
200807192300 METAR LMML NIL=
200807192245 METAR LMML 192245Z 31004KT CAVOK 23/21 Q1016 NOSIG=
200807192230 METAR LMML NIL=
200807192215 METAR LMML 192215Z 31005KT CAVOK 23/20 Q1016 NOSIG=
200807192200 METAR LMML NIL=
200807192145 METAR LMML 192145Z 31004KT CAVOK 23/20 Q1016 NOSIG=
200807192130 METAR LMML NIL=
200807192115 METAR LMML 192115Z 29004KT CAVOK 24/20 Q1016 NOSIG=
200807192100 METAR LMML NIL=
200807192045 METAR LMML 192045Z 33005KT 280V010 CAVOK 24/20 Q1016 NOSIG=
200807192030 METAR LMML NIL=
200807192015 METAR LMML 192015Z 32005KT CAVOK 24/19 Q1016 NOSIG=
200807192000 METAR LMML NIL=
200807191945 METAR LMML 191945Z 32005KT CAVOK 25/19 Q1016 NOSIG=
200807191930 METAR LMML NIL=
200807191915 METAR LMML 191915Z 33005KT CAVOK 25/19 Q1015 NOSIG=
200807191900 METAR LMML NIL=
200807191845 METAR LMML 191845Z 34007KT 9999 FEW025 25/18 Q1015 NOSIG=
200807191830 METAR LMML NIL=
200807191815 METAR LMML 191815Z 32007KT 290V030 CAVOK 26/20 Q1015 NOSIG=
200807191800 METAR LMML NIL=
200807191745 METAR LMML 191745Z 31008KT CAVOK 27/19 Q1015 NOSIG=
200807191730 METAR LMML NIL=
200807191715 METAR LMML 191715Z 30009KT CAVOK 28/18 Q1015 NOSIG=
200807191700 METAR LMML NIL=
200807191645 METAR LMML 191645Z 31008KT CAVOK 29/17 Q1014 NOSIG=
200807191630 METAR LMML NIL=
200807191615 METAR LMML 191615Z 31006KT 260V360 CAVOK 30/14 Q1015 NOSIG=
200807191600 METAR LMML NIL=
200807191545 METAR LMML 191545Z 32008KT 280V340 CAVOK 30/14 Q1015 NOSIG=
200807191530 METAR LMML NIL=
200807191515 METAR LMML 191515Z 31006KT 230V030 CAVOK 30/15 Q1015 NOSIG=
200807191500 METAR LMML NIL=
200807191445 METAR LMML 191445Z 20006KT 150V250 CAVOK 30/19 Q1015 NOSIG=
200807191430 METAR LMML NIL=
200807191415 METAR LMML 191415Z 18004KT CAVOK 30/17 Q1015 NOSIG=
200807191345 METAR LMML 191345Z 14006KT 080V210 CAVOK 30/18 Q1015 NOSIG=
200807191315 METAR LMML 191315Z 01005KT 320V090 CAVOK 33/16 Q1015 NOSIG=
200807191300 METAR LMML NIL=
200807191245 METAR LMML 191245Z 18006KT CAVOK 33/13 Q1015 NOSIG=
200807191230 METAR LMML NIL=
200807191215 METAR LMML 191215Z 34007KT 280V010 CAVOK 32/10 Q1015 NOSIG=
200807191200 METAR LMML NIL=
200807191145 METAR LMML 191145Z 35006KT 310V050 CAVOK 32/12 Q1015 NOSIG=
200807191130 METAR LMML NIL=
200807191115 METAR LMML 191115Z 35009KT 310V020 CAVOK 32/12 Q1015 NOSIG=
200807191100 METAR LMML NIL=
200807191045 METAR LMML 191045Z 34009KT 290V050 CAVOK 32/12 Q1015 NOSIG=
200807191030 METAR LMML NIL=
200807191015 METAR LMML 191015Z 33007KT 290V010 CAVOK 31/11 Q1015 NOSIG=
200807191000 METAR LMML NIL=
200807190945 METAR LMML 190945Z 35006KT 290V040 CAVOK 31/13 Q1015 NOSIG=
200807190930 METAR LMML NIL=
200807190915 METAR LMML 190915Z 02007KT 330V050 CAVOK 31/13 Q1015 NOSIG=
200807190900 METAR LMML NIL=
200807190845 METAR LMML 190845Z 01006KT 280V050 CAVOK 30/14 Q1015 NOSIG=
200807190830 METAR LMML NIL=
200807190815 METAR LMML 190815Z 01006KT 340V040 CAVOK 30/14 Q1015 NOSIG=
200807190800 METAR LMML NIL=
200807190745 METAR LMML 190745Z 35006KT 320V020 CAVOK 29/16 Q1015 NOSIG=
200807190730 METAR LMML NIL=
200807190715 METAR LMML 190715Z 33005KT 300V020 CAVOK 28/18 Q1015 NOSIG=
200807190700 METAR LMML NIL=
200807190645 METAR LMML 190645Z 34005KT 300V020 CAVOK 28/18 Q1015 NOSIG=
200807190630 METAR LMML NIL=
200807190615 METAR LMML 190615Z 33006KT 300V360 CAVOK 27/19 Q1015 NOSIG=
200807190600 METAR LMML NIL=
200807190545 METAR LMML 190545Z 32007KT CAVOK 26/20 Q1014 NOSIG=
200807190530 METAR LMML NIL=
200807190515 METAR LMML 190515Z 32004KT CAVOK 25/20 Q1014 NOSIG=
200807190500 METAR LMML NIL=
200807190445 METAR LMML 190445Z 33004KT 310V010 CAVOK 24/20 Q1014 NOSIG=
200807190430 METAR LMML NIL=
200807190415 METAR LMML 190415Z 33004KT CAVOK 24/20 Q1014 NOSIG=
200807190400 METAR LMML NIL=
200807190345 METAR LMML 190345Z 32004KT CAVOK 24/20 Q1014 NOSIG=
200807190330 METAR LMML NIL=
200807190315 METAR LMML 190315Z 33004KT CAVOK 24/20 Q1014 NOSIG=
200807190300 LMML NIL=
200807190255 LMML 190255Z 32004KT CAVOK 24/20 Q1014 NOSIG=
200807190230 METAR LMML NIL=
200807190215 METAR LMML 190215Z 33004KT 300V360 CAVOK 24/19 Q1014 NOSIG=
200807190200 METAR LMML NIL=
200807190145 METAR LMML 190145Z 33004KT CAVOK 24/19 Q1014 NOSIG=
200807190130 METAR LMML NIL=
200807190115 METAR LMML 190115Z 33005KT CAVOK 24/19 Q1014 NOSIG=
200807190100 METAR LMML NIL=
200807190045 METAR LMML 190045Z 33005KT CAVOK 24/18 Q1014 NOSIG=
200807190030 METAR LMML NIL=
200807190015 METAR LMML 190015Z 32007KT CAVOK 25/17 Q1014 NOSIG=
200807190000 METAR LMML NIL=
200807182345 METAR LMML 182345Z 31007KT CAVOK 25/18 Q1014 NOSIG=
200807182330 METAR LMML NIL=
200807182315 METAR LMML 182315Z 30004KT CAVOK 25/17 Q1014 NOSIG=
200807182300 METAR LMML NIL=
200807182245 METAR LMML 182245Z 31007KT CAVOK 25/17 Q1014 NOSIG=
200807182230 METAR LMML NIL=
200807182215 METAR LMML 182215Z 30005KT CAVOK 25/17 Q1014 NOSIG=
200807182200 METAR LMML NIL=
200807182145 METAR LMML 182145Z 28004KT 260V320 CAVOK 25/17 Q1014 NOSIG=
200807182115 METAR LMML 182115Z 28005KT 240V300 CAVOK 26/17 Q1014 NOSIG=
200807182100 METAR LMML NIL=
200807182045 METAR LMML 182045Z 28004KT CAVOK 26/17 Q1014 NOSIG=
200807182030 METAR LMML NIL=
200807182015 METAR LMML 182015Z 30004KT 270V330 CAVOK 26/17 Q1015 NOSIG=
200807182000 METAR LMML NIL=
200807181945 METAR LMML 181945Z 31008KT 280V340 CAVOK 27/16 Q1015 NOSIG=
200807181930 METAR LMML NIL=
200807181915 METAR LMML 181915Z 32008KT CAVOK 27/15 Q1014 NOSIG=
200807181900 METAR LMML NIL=
200807181845 METAR LMML 181845Z 32005KT 290V360 CAVOK 28/14 Q1014 NOSIG
                        RMK DISTANT LIGHTNING TO NNE=
200807181830 METAR LMML NIL=
200807181815 METAR LMML 181815Z 29004KT 250V320 CAVOK 29/14 Q1014 NOSIG=
200807181800 METAR LMML NIL=
200807181745 METAR LMML 181745Z VRB03KT CAVOK 29/13 Q1014 NOSIG=
200807181730 METAR LMML NIL=
200807181715 METAR LMML 181715Z 31007KT 280V340 CAVOK 29/13 Q1015 NOSIG=
200807181700 METAR LMML NIL=
200807181645 METAR LMML 181645Z 32010KT 290V360 CAVOK 28/17 Q1014 NOSIG=
200807181630 METAR LMML NIL=
200807181615 METAR LMML 181615Z 30012KT 270V330 CAVOK 29/15 Q1014 NOSIG=
200807181600 METAR LMML NIL=
200807181545 METAR LMML 181545Z 29011KT 260V320 CAVOK 30/11 Q1014 NOSIG=
200807181530 METAR LMML NIL=
200807181515 METAR LMML 181515Z 29013KT 250V310 CAVOK 30/12 Q1015 NOSIG=
200807181500 METAR LMML NIL=
200807181445 METAR LMML 181445Z 26013KT 220V300 CAVOK 30/10 Q1015 NOSIG=
200807181430 METAR LMML NIL=
200807181415 METAR LMML 181415Z 24010KT 200V290 CAVOK 30/11 Q1014 NOSIG=
200807181400 METAR LMML NIL=
200807181345 METAR LMML 181345Z 22010KT 190V260 CAVOK 30/13 Q1014 NOSIG=
200807181315 METAR LMML 181315Z 22009KT 190V290 CAVOK 30/13 Q1014 NOSIG=
200807181245 METAR LMML 181245Z 24009KT 200V280 CAVOK 30/10 Q1014 NOSIG=
200807181215 METAR LMML 181215Z 23009KT 200V270 CAVOK 31/13 Q1014 NOSIG=
200807181200 METAR LMML NIL=
200807181145 METAR LMML 181145Z 22007KT 190V270 CAVOK 31/13 Q1014 NOSIG=
200807181130 METAR LMML NIL=
200807181115 METAR LMML 181115Z 27008KT 210V300 CAVOK 31/13 Q1015 NOSIG=
200807181100 METAR LMML NIL=
200807181045 METAR LMML 181045Z 27010KT 240V320 CAVOK 31/13 Q1015 NOSIG=
200807181030 METAR LMML NIL=
200807181015 METAR LMML 181015Z 23009KT 200V280 CAVOK 29/16 Q1015 NOSIG=
200807181000 METAR LMML NIL=
200807180945 METAR LMML 180945Z 23009KT 200V270 CAVOK 28/16 Q1014 NOSIG=
200807180930 METAR LMML NIL=
200807180915 METAR LMML 180915Z 23007KT 190V280 CAVOK 29/16 Q1014 NOSIG=
200807180845 METAR LMML 180845Z 20007KT 160V250 CAVOK 29/16 Q1014 NOSIG=
200807180830 METAR LMML NIL=
200807180815 METAR LMML 180815Z VRB01KT CAVOK 31/07 Q1014 NOSIG=
200807180800 METAR LMML NIL=
200807180745 METAR LMML 180745Z VRB02KT CAVOK 30/06 Q1014 NOSIG=
200807180715 METAR LMML 180715Z 31004KT 220V010 CAVOK 28/08 Q1014 NOSIG=
200807180700 METAR LMML NIL=
200807180645 METAR LMML 180645Z 33004KT 290V360 CAVOK 27/13 Q1014 NOSIG=
200807180630 METAR LMML NIL=
200807180615 METAR LMML 180615Z 32004KT 270V020 CAVOK 26/16 Q1014 NOSIG=
200807180600 METAR LMML NIL=
200807180545 METAR LMML 180545Z 29006KT 260V320 CAVOK 25/18 Q1014 NOSIG=
200807180530 METAR LMML NIL=
200807180515 METAR LMML 180515Z 29006KT 260V330 CAVOK 24/18 Q1015 NOSIG=
200807180500 METAR LMML NIL=
200807180445 METAR LMML 180445Z 29007KT CAVOK 24/19 Q1015 NOSIG=
200807180430 METAR LMML NIL=
200807180415 METAR LMML 180415Z 28006KT 250V320 CAVOK 24/20 Q1015 NOSIG=
200807180400 METAR LMML NIL=
200807180345 METAR LMML 180345Z 29007KT CAVOK 23/20 Q1015 NOSIG=
200807180330 METAR LMML NIL=
200807180315 METAR LMML 180315Z 28008KT CAVOK 23/20 Q1014 NOSIG=
200807180300 METAR LMML NIL=
200807180245 METAR LMML 180245Z 26005KT CAVOK 23/21 Q1014 NOSIG=
200807180230 METAR LMML NIL=
200807180215 METAR LMML 180215Z VRB03KT CAVOK 23/22 Q1014 NOSIG=
200807180200 METAR LMML NIL=
200807180145 METAR LMML 180145Z VRB02KT CAVOK 23/22 Q1014 NOSIG=
200807180130 METAR LMML NIL=
200807180115 METAR LMML 180115Z VRB03KT CAVOK 24/22 Q1013 NOSIG=
200807180045 METAR LMML 180045Z 21004KT 180V250 CAVOK 23/22 Q1013 NOSIG=
200807180015 METAR LMML 180015Z VRB03KT CAVOK 23/22 Q1013 NOSIG=
200807180000 METAR LMML NIL=
200807172345 METAR LMML 172345Z VRB03KT CAVOK 23/21 Q1014 NOSIG=
200807172330 METAR LMML NIL=
200807172315 METAR LMML 172315Z VRB02KT CAVOK 23/21 Q1014 NOSIG=
200807172245 METAR LMML 172245Z VRB01KT CAVOK 23/21 Q1015 NOSIG=
200807172230 METAR LMML NIL=
200807172215 METAR LMML 172215Z VRB03KT CAVOK 24/21 Q1015 NOSIG=
200807172200 METAR LMML NIL=
200807172145 METAR LMML 172145Z VRB03KT CAVOK 24/21 Q1015 NOSIG=
200807172130 METAR LMML NIL=
200807172115 METAR LMML 172115Z 30004KT CAVOK 24/22 Q1015 NOSIG=
200807172100 METAR LMML NIL=
200807172045 METAR LMML 172045Z 30004KT CAVOK 24/22 Q1015 NOSIG=
200807172030 METAR LMML NIL=
200807172015 METAR LMML 172015Z 30005KT CAVOK 24/21 Q1015 NOSIG=
200807172000 METAR LMML NIL=
200807171945 METAR LMML 171945Z 31005KT CAVOK 24/21 Q1015 NOSIG=
200807171930 METAR LMML NIL=
200807171915 METAR LMML 171915Z 30007KT 9999 FEW015 25/22 Q1015 NOSIG=
200807171900 METAR LMML NIL=
200807171845 METAR LMML 171845Z 31008KT 9999 FEW015 25/21 Q1015 NOSIG=
200807171830 METAR LMML NIL=
200807171815 METAR LMML 171815Z 29008KT 9999 FEW015 25/20 Q1015 NOSIG=
200807171800 METAR LMML NIL=
200807171745 METAR LMML 171745Z 29008KT CAVOK 25/19 Q1015 NOSIG=
200807171730 METAR LMML NIL=
200807171715 METAR LMML 171715Z 28007KT 240V310 CAVOK 26/17 Q1015 NOSIG=
200807171700 METAR LMML NIL=
200807171645 METAR LMML 171645Z 26007KT 220V310 CAVOK 27/16 Q1015 NOSIG=
200807171630 METAR LMML NIL=
200807171615 METAR LMML 171615Z 23008KT 200V270 CAVOK 27/18 Q1015 NOSIG=
200807171600 METAR LMML NIL=
200807171545 METAR LMML 171545Z 26005KT 150V310 CAVOK 28/16 Q1015 NOSIG=
200807171530 METAR LMML NIL=
200807171515 METAR LMML 171515Z 29007KT 250V320 CAVOK 29/09 Q1015 NOSIG=
200807171500 METAR LMML NIL=
200807171445 METAR LMML 171445Z 28008KT 230V320 CAVOK 29/10 Q1015 NOSIG=
200807171430 METAR LMML NIL=
200807171415 METAR LMML 171415Z 26008KT 210V320 CAVOK 29/12 Q1015 NOSIG=
200807171400 METAR LMML NIL=
200807171345 METAR LMML 171345Z 24008KT 190V280 CAVOK 29/14 Q1015 NOSIG=
200807171330 METAR LMML NIL=
200807171315 METAR LMML 171315Z 24007KT 200V300 CAVOK 29/12 Q1015 NOSIG=
200807171300 METAR LMML NIL=
200807171245 METAR LMML 171245Z 25009KT 200V300 9999 FEW032 29/16 Q1016
                        NOSIG=
200807171230 METAR LMML NIL=
200807171215 METAR LMML 171215Z 22009KT 180V280 9999 FEW032 29/17 Q1016
                        NOSIG=
200807171200 METAR LMML NIL=
200807171145 METAR LMML 171145Z 22009KT 190V270 9999 FEW032 28/19 Q1016
                        NOSIG=
200807171130 METAR LMML NIL=
200807171115 METAR LMML 171115Z 22009KT 170V260 9999 FEW023 28/20 Q1016
                        NOSIG=
200807171100 METAR LMML NIL=
200807171045 METAR LMML 171045Z 20008KT 150V250 9999 FEW023 28/20 Q1017
                        NOSIG=
200807171030 METAR LMML NIL=
200807171015 METAR LMML 171015Z 21007KT 150V280 9999 FEW023 28/20 Q1017
                        NOSIG=
200807171000 METAR LMML NIL=
200807170945 METAR LMML 170945Z 23005KT 140V310 9999 FEW022 27/20 Q1017
                        NOSIG=
200807170930 METAR LMML NIL=
200807170915 METAR LMML 170915Z 19005KT 140V280 9999 FEW022 27/20 Q1017
                        NOSIG=
200807170900 METAR LMML NIL=
200807170845 METAR LMML 170845Z VRB03KT 9999 FEW023 26/20 Q1017 NOSIG=
200807170830 METAR LMML NIL=
200807170815 METAR LMML 170815Z VRB03KT 9999 SCT023 27/20 Q1017 NOSIG=
200807170800 METAR LMML NIL=
200807170745 METAR LMML 170745Z VRB03KT 9999 SCT022 26/20 Q1017 NOSIG=
200807170730 METAR LMML NIL=
200807170715 METAR LMML 170715Z VRB03KT 9999 FEW023 26/20 Q1017 NOSIG=
200807170700 METAR LMML NIL=
200807170645 METAR LMML 170645Z VRB03KT 9999 FEW018 26/20 Q1017 NOSIG=
200807170630 METAR LMML NIL=
200807170615 METAR LMML 170615Z VRB01KT 9999 FEW018 25/20 Q1016 NOSIG=
200807170600 METAR LMML NIL=
200807170545 METAR LMML 170545Z VRB02KT 9999 FEW016 25/21 Q1016 NOSIG=
200807170530 METAR LMML NIL=
200807170515 METAR LMML 170515Z VRB03KT 9999 FEW016 24/20 Q1016 NOSIG=
200807170500 METAR LMML NIL=
200807170445 METAR LMML 170445Z VRB02KT 9999 FEW017 23/20 Q1016 NOSIG=
200807170415 METAR LMML 170415Z VRB02KT 9999 FEW017 23/20 Q1016 NOSIG=
200807170400 METAR LMML NIL=
200807170345 METAR LMML 170345Z 00000KT 9999 FEW017 22/20 Q1016 NOSIG=
200807170330 METAR LMML NIL=
200807170315 METAR LMML 170315Z VRB01KT 9999 FEW017 23/20 Q1016 NOSIG=
200807170300 METAR LMML NIL=
200807170245 METAR LMML 170245Z VRB01KT 9999 FEW015 23/19 Q1016 NOSIG=
200807170230 METAR LMML NIL=
200807170215 METAR LMML 170215Z VRB01KT 9999 FEW025 23/19 Q1016 NOSIG=
200807170200 METAR LMML NIL=
200807170145 METAR LMML 170145Z VRB02KT CAVOK 23/20 Q1016 NOSIG=
200807170130 METAR LMML NIL=
200807170115 METAR LMML 170115Z VRB02KT CAVOK 24/20 Q1016 NOSIG=
200807170045 METAR LMML 170045Z 24005KT 210V280 CAVOK 24/20 Q1016 NOSIG=
200807170015 METAR LMML 170015Z VRB03KT CAVOK 24/20 Q1017 NOSIG=
200807170000 METAR LMML NIL=
200807162345 METAR LMML 162345Z 25007KT 220V290 CAVOK 24/20 Q1017 NOSIG=
200807162315 METAR LMML 162315Z 25007KT 220V290 CAVOK 24/21 Q1017 NOSIG=
200807162300 METAR LMML NIL=
200807162245 METAR LMML 162245Z 23005KT 200V280 CAVOK 24/21 Q1017 NOSIG=
200807162230 METAR LMML NIL=
200807162215 METAR LMML 162215Z 25004KT CAVOK 23/21 Q1017 NOSIG=
200807162200 METAR LMML NIL=
200807162145 METAR LMML 162145Z VRB03KT 9999 FEW030 23/21 Q1018 NOSIG=
200807162130 METAR LMML NIL=
200807162115 METAR LMML 162115Z 27004KT 230V290 CAVOK 24/21 Q1018 NOSIG=
200807162100 METAR LMML NIL=
200807162045 METAR LMML 162045Z VRB03KT CAVOK 24/20 Q1018 NOSIG=
200807162030 METAR LMML NIL=
200807162015 METAR LMML 162015Z VRB03KT CAVOK 24/20 Q1018 NOSIG=
200807162000 METAR LMML NIL=
200807161945 METAR LMML 161945Z 30005KT 270V330 CAVOK 24/20 Q1018 NOSIG=
200807161930 METAR LMML NIL=
200807161915 METAR LMML 161915Z 31007KT 9999 FEW030 24/20 Q1018 NOSIG=
200807161900 METAR LMML NIL=
200807161845 METAR LMML 161845Z 30008KT 9999 FEW029 25/20 Q1017 NOSIG=
200807161830 METAR LMML NIL=
200807161815 METAR LMML 161815Z 30008KT 270V330 9999 FEW029 25/20 Q1017
                        NOSIG=
200807161800 METAR LMML NIL=
200807161745 METAR LMML 161745Z 29009KT 270V330 9999 FEW029 26/18 Q1017
                        NOSIG=
200807161730 METAR LMML NIL=
200807161715 METAR LMML 161715Z 36008KT 320V030 9999 FEW032 27/19 Q1017
                        NOSIG=
200807161700 METAR LMML NIL=
200807161645 METAR LMML 161645Z 33010KT 300V010 9999 FEW037 27/18 Q1018
                        NOSIG=
200807161630 METAR LMML NIL=
200807161615 METAR LMML 161615Z 35008G18KT 310V040 9999 FEW041 29/17 Q1018
                        NOSIG=
200807161600 METAR LMML NIL=
200807161545 METAR LMML 161545Z 02007KT 350V050 9999 FEW025 29/15 Q1018
                        NOSIG=
200807161530 METAR LMML NIL=
200807161515 METAR LMML 161515Z 36008KT 290V050 9999 FEW025 29/14 Q1018
                        NOSIG=
200807161500 METAR LMML NIL=
200807161445 METAR LMML 161445Z 24008KT 180V300 9999 FEW025 28/17 Q1018
                        NOSIG=
200807161430 METAR LMML NIL=
200807161415 METAR LMML 161415Z 21007KT 160V250 9999 FEW025 28/18 Q1018
                        NOSIG=
200807161400 METAR LMML NIL=
200807161345 METAR LMML 161345Z 20005KT 160V270 9999 FEW025 28/17 Q1019
                        NOSIG=
200807161330 METAR LMML NIL=
200807161315 METAR LMML 161315Z 21004KT 150V310 9999 FEW025 28/17 Q1019
                        NOSIG=
200807161300 METAR LMML NIL=
200807161245 METAR LMML 161245Z 19005KT 070V300 9999 FEW025 28/17 Q1019
                        NOSIG=
200807161230 METAR LMML NIL=
200807161215 METAR LMML 161215Z 36004KT 210V050 9999 FEW025 30/12 Q1019
                        NOSIG=
200807161200 METAR LMML NIL=
200807161145 METAR LMML 161145Z 01005KT 320V060 9999 FEW028 30/13 Q1020
                        NOSIG=
200807161130 METAR LMML NIL=
200807161115 METAR LMML 161115Z 02007KT 330V090 9999 FEW028 29/16 Q1020
                        NOSIG=
200807161100 METAR LMML NIL=
200807161100 LMML 161100Z 02008KT 340V050 9999 FEW028 29/17 Q1020=
200807161045 METAR LMML 161045Z 01005KT 300V090 9999 FEW028 29/16 Q1020
                        NOSIG=
200807161030 METAR LMML NIL=
200807161015 METAR LMML 161015Z 04005KT 320V110 9999 FEW028 29/16 Q1020
                        NOSIG=
200807161000 METAR LMML NIL=
200807160945 METAR LMML 160945Z 03005KT 350V080 9999 FEW027 29/18 Q1020
                        NOSIG=
200807160930 METAR LMML NIL=
200807160915 METAR LMML 160915Z 01006KT 340V050 9999 FEW020 28/18 Q1020
                        NOSIG=
200807160900 METAR LMML NIL=
200807160845 METAR LMML 160845Z 06007KT 360V100 9999 FEW020 28/17 Q1020
                        NOSIG=
200807160830 METAR LMML NIL=
200807160815 METAR LMML 160815Z 05008KT 350V090 CAVOK 27/17 Q1020 NOSIG=
200807160800 METAR LMML NIL=
200807160745 METAR LMML 160745Z 05008KT 360V100 CAVOK 27/17 Q1020 NOSIG=
200807160730 METAR LMML NIL=
200807160715 METAR LMML 160715Z 05009KT 010V090 CAVOK 27/18 Q1020 NOSIG=
200807160700 METAR LMML NIL=
200807160645 METAR LMML 160645Z 04010KT 360V080 CAVOK 27/18 Q1020 NOSIG=
200807160630 METAR LMML NIL=
200807160615 METAR LMML 160615Z 05010KT 010V100 CAVOK 26/18 Q1020 NOSIG=
200807160600 METAR LMML NIL=
200807160545 METAR LMML 160545Z 05009KT 020V090 9999 FEW025 26/18 Q1019
                        NOSIG=
200807160530 METAR LMML NIL=
200807160515 METAR LMML 160515Z 06009KT 030V090 9999 FEW025 26/17 Q1019
                        NOSIG=
200807160500 METAR LMML NIL=
200807160445 METAR LMML 160445Z 04009KT 010V070 9999 FEW028 25/17 Q1019
                        NOSIG=
200807160430 METAR LMML NIL=
200807160415 METAR LMML 160415Z 05009KT 020V080 9999 FEW028 25/17 Q1018
                        NOSIG=
200807160400 METAR LMML NIL=
200807160345 METAR LMML 160345Z 05009KT 020V080 9999 FEW028 25/18 Q1018
                        NOSIG=
200807160330 METAR LMML NIL=
200807160315 METAR LMML 160315Z 06008KT 020V110 9999 FEW021 25/19 Q1018
                        NOSIG=
200807160245 METAR LMML 160245Z 07007KT 040V110 9999 SCT023 25/20 Q1018
                        NOSIG=
200807160230 METAR LMML NIL=
200807160215 METAR LMML 160215Z 08006KT 040V100 9999 FEW025 25/20 Q1018
                        NOSIG=
200807160145 METAR LMML 160145Z 08004KT 040V150 9999 SCT028 25/20 Q1019
                        NOSIG=
200807160130 METAR LMML NIL=
200807160115 METAR LMML 160115Z 09004KT 9999 FEW028 25/21 Q1019 NOSIG=
200807160100 METAR LMML NIL=
200807160045 METAR LMML 160045Z 08005KT 9999 FEW027 25/21 Q1019 TEMPO
                        8000 BKN015=
200807160015 METAR LMML 160015Z 07006KT 040V100 9999 FEW015 25/22 Q1019
                        TEMPO 8000 BKN015=
200807160000 METAR LMML NIL=
200807152345 METAR LMML 152345Z 08006KT 9999 SCT016 25/22 Q1019 TEMPO
                        8000 BKN015=
200807152330 METAR LMML NIL=
200807152315 METAR LMML 152315Z 08006KT 020V110 9999 BKN016 25/22 Q1019
                        TEMPO 8000 BKN015=
200807152300 METAR LMML NIL=
200807152245 METAR LMML 152245Z 08005KT 030V110 9999 SCT016 25/22 Q1019
                        NOSIG=
200807152230 METAR LMML NIL=
200807152215 METAR LMML 152215Z 09004KT 060V120 9999 FEW017 25/22 Q1019
                        NOSIG=
200807152200 METAR LMML NIL=
200807152145 METAR LMML 152145Z 10005KT 060V120 9999 FEW014 25/22 Q1019
                        NOSIG=
200807152130 METAR LMML NIL=
200807152115 METAR LMML 152115Z VRB02KT 9999 FEW013 25/22 Q1019 NOSIG=
200807152100 METAR LMML NIL=
200807152045 METAR LMML 152045Z VRB03KT 9999 FEW016 25/22 Q1019 NOSIG=
200807152030 METAR LMML NIL=
200807152015 METAR LMML 152015Z VRB03KT 9999 FEW017 26/22 Q1019 NOSIG=
200807152000 METAR LMML NIL=
200807151945 METAR LMML 151945Z 01004KT 9999 FEW017 26/22 Q1019 NOSIG=
200807151930 METAR LMML NIL=
200807151915 METAR LMML 151915Z VRB03KT 9999 FEW018 26/22 Q1019 NOSIG=
200807151900 METAR LMML NIL=
200807151845 METAR LMML 151845Z 01005KT 340V050 9999 FEW018 26/22 Q1019
                        NOSIG=
200807151830 METAR LMML NIL=
200807151815 METAR LMML 151815Z 01004KT 320V050 9999 FEW018 27/23 Q1019
                        NOSIG=
200807151800 METAR LMML NIL=
200807151745 METAR LMML 151745Z 02004KT 350V060 9999 FEW021 27/22 Q1018
                        NOSIG=
200807151730 METAR LMML NIL=
200807151715 METAR LMML 151715Z VRB02KT 9999 FEW021 27/21 Q1018 NOSIG=
200807151700 METAR LMML NIL=
200807151645 METAR LMML 151645Z VRB03KT 9999 FEW022 28/21 Q1018 NOSIG=
200807151630 METAR LMML NIL=
200807151615 METAR LMML 151615Z 03004KT 350V070 9999 FEW025 30/20 Q1018
                        NOSIG=
200807151600 METAR LMML NIL=
200807151545 METAR LMML 151545Z 02005KT 340V070 9999 FEW025 30/20 Q1018
                        NOSIG=
200807151530 METAR LMML NIL=
200807151515 METAR LMML 151515Z 03004KT 350V100 9999 FEW025 30/19 Q1019
                        NOSIG=
200807151500 METAR LMML NIL=
200807151445 METAR LMML 151445Z 01004KT 330V060 9999 FEW025 31/19 Q1019
                        NOSIG=
200807151430 METAR LMML NIL=
200807151415 METAR LMML 151415Z VRB03KT CAVOK 30/19 Q1019 NOSIG=
200807151400 METAR LMML NIL=
200807151345 METAR LMML 151345Z 35005KT 320V040 CAVOK 30/19 Q1019 NOSIG=
200807151330 METAR LMML NIL=
200807151315 METAR LMML 151315Z 02006KT 330V070 CAVOK 30/19 Q1019 NOSIG=
200807151300 METAR LMML NIL=
200807151245 METAR LMML 151245Z 05006KT 350V110 CAVOK 30/19 Q1019 NOSIG=
200807151215 METAR LMML 151215Z 09007KT 030V150 CAVOK 29/20 Q1019 NOSIG=
200807151145 METAR LMML 151145Z 07008KT 020V180 CAVOK 30/20 Q1019 NOSIG=
200807151130 METAR LMML NIL=
200807151115 METAR LMML 151115Z 14007KT 9999 FEW021 30/21 Q1020 NOSIG=
200807151100 METAR LMML NIL=
200807151045 METAR LMML 151045Z 10008KT 050V150 9000 FEW016 29/22 Q1019
                        NOSIG=
200807151030 METAR LMML NIL=
200807151015 METAR LMML 151015Z 09008KT 060V120 9000 BKN014 29/23 Q1020
                        NOSIG=
200807151000 METAR LMML NIL=
200807150945 METAR LMML 150945Z 06008KT 010V100 9999 BKN016 29/22 Q1020
                        NOSIG=
200807150930 METAR LMML NIL=
200807150915 METAR LMML 150915Z 07008KT 010V120 9999 BKN013 29/23 Q1020
                        NOSIG=
200807150900 METAR LMML NIL=
200807150845 METAR LMML 150845Z 08010KT 050V110 9999 FEW012 28/23 Q1019
                        NOSIG=
200807150830 METAR LMML NIL=
200807150815 METAR LMML 150815Z 05006KT 010V110 9999 FEW013 29/23 Q1019
                        NOSIG=
200807150800 METAR LMML NIL=
200807150745 METAR LMML 150745Z 04007KT 350V070 9999 FEW012 28/23 Q1018
                        NOSIG=
200807150730 METAR LMML NIL=
200807150715 METAR LMML 150715Z 01008KT 340V040 9999 FEW010 27/23 Q1019
                        NOSIG=
200807150700 METAR LMML NIL=
200807150645 METAR LMML 150645Z 36010KT 9999 FEW010 27/23 Q1018 NOSIG=
200807150630 METAR LMML NIL=
200807150615 METAR LMML 150615Z 34011KT 9999 FEW010 26/24 Q1018 NOSIG=
200807150600 METAR LMML NIL=
200807150545 METAR LMML 150545Z 34010KT 9999 FEW010 26/24 Q1018 NOSIG=
200807150515 METAR LMML 150515Z 33007KT 9999 FEW008 25/24 Q1019 NOSIG=
200807150500 METAR LMML NIL=
200807150445 METAR LMML 150445Z 32007KT 9999 FEW008 24/24 Q1018 NOSIG=
200807150430 METAR LMML NIL=
200807150415 METAR LMML 150415Z 31008KT 9999 FEW012 24/24 Q1018 NOSIG=
200807150400 LMML NIL=
200807150330 METAR LMML NIL=
200807150315 METAR LMML 150315Z 28006KT 240V310 9999 FEW012 25/24 Q1018
                        NOSIG=
200807150245 METAR LMML 150245Z 27005KT 230V310 CAVOK 24/24 Q1018 NOSIG=
200807150230 METAR LMML NIL=
200807150215 METAR LMML 150215Z 25007KT 200V290 CAVOK 24/24 Q1018 NOSIG=
200807150200 METAR LMML NIL=
200807150145 METAR LMML 150145Z 26006KT 220V290 CAVOK 25/24 Q1018 NOSIG=
200807150130 METAR LMML NIL=
200807150115 METAR LMML 150115Z 25005KT 210V300 CAVOK 25/25 Q1018 NOSIG=
200807150100 METAR LMML NIL=
200807150045 METAR LMML 150045Z VRB03KT CAVOK 25/25 Q1018 NOSIG=
200807150030 METAR LMML NIL=
200807150015 METAR LMML 150015Z VRB02KT CAVOK 25/24 Q1018 NOSIG=
200807150000 METAR LMML NIL=
200807142345 METAR LMML 142345Z VRB03KT CAVOK 25/24 Q1018 NOSIG=
200807142330 METAR LMML NIL=
200807142315 METAR LMML 142315Z VRB03KT CAVOK 25/24 Q1018 NOSIG=
200807142300 METAR LMML NIL=
200807142245 METAR LMML 142245Z VRB01KT CAVOK 25/24 Q1018 NOSIG=
200807142230 METAR LMML NIL=
200807142215 METAR LMML 142215Z VRB01KT CAVOK 25/24 Q1018 NOSIG=
200807142200 METAR LMML NIL=
200807142145 METAR LMML 142145Z VRB01KT 9999 FEW012 25/24 Q1018 NOSIG=
200807142115 METAR LMML 142115Z VRB01KT 9999 FEW012 26/24 Q1018 NOSIG=
200807142100 METAR LMML NIL=
200807142045 METAR LMML 142045Z VRB02KT 9999 FEW012 26/24 Q1018 NOSIG=
200807142030 METAR LMML NIL=
200807142015 METAR LMML 142015Z VRB03KT 9999 FEW012 26/24 Q1018 NOSIG=
200807142000 METAR LMML NIL=
200807141945 METAR LMML 141945Z 30004KT 260V330 9999 FEW012 26/23 Q1018
                        BECMG BKN007=
200807141915 METAR LMML 141915Z 29005KT 9999 FEW012 26/23 Q1017 BECMG
                        BKN007=
200807141900 METAR LMML NIL=
200807141845 METAR LMML 141845Z 29004KT 250V320 9999 FEW012 27/22 Q1017
                        BECMG BKN007=
200807141830 METAR LMML NIL=
200807141815 METAR LMML 141815Z VRB03KT CAVOK 27/21 Q1017 NOSIG=
200807141800 METAR LMML NIL=
200807141745 METAR LMML 141745Z 23004KT 200V270 CAVOK 28/20 Q1017 NOSIG=
200807141730 METAR LMML NIL=
200807141715 METAR LMML 141715Z 27004KT 220V300 CAVOK 28/20 Q1017 NOSIG=
200807141700 METAR LMML NIL=
200807141645 METAR LMML 141645Z 25004KT 200V280 CAVOK 29/20 Q1016 NOSIG=
200807141630 METAR LMML NIL=
200807141615 METAR LMML 141615Z 23004KT 190V300 CAVOK 29/18 Q1016 NOSIG=
200807141600 METAR LMML NIL=
200807141545 METAR LMML 141545Z VRB03KT CAVOK 29/21 Q1016 BECMG 27010KT=
200807141530 METAR LMML NIL=
200807141515 METAR LMML 141515Z 21006KT 180V260 CAVOK 29/21 Q1016 BECMG
                        27010KT=
200807141500 METAR LMML NIL=
200807141445 METAR LMML 141445Z 21006KT 170V260 CAVOK 30/21 Q1016 BECMG
                        27010KT=
200807141430 METAR LMML NIL=
200807141415 METAR LMML 141415Z 20006KT 160V280 CAVOK 30/21 Q1016 BECMG
                        27010KT=
200807141400 METAR LMML NIL=
200807141345 METAR LMML 141345Z 19008KT 160V260 CAVOK 29/21 Q1016 BECMG
                        27010KT=
200807141330 METAR LMML NIL=
200807141315 METAR LMML 141315Z 18007KT 150V300 CAVOK 30/20 Q1016 NOSIG=
200807141300 METAR LMML NIL=
200807141245 METAR LMML 141245Z 19009KT 150V250 CAVOK 30/20 Q1016 NOSIG=
200807141215 METAR LMML 141215Z 20007KT 150V240 CAVOK 30/20 Q1016 NOSIG=
200807141200 METAR LMML NIL=
200807141145 METAR LMML 141145Z 19008KT 130V230 CAVOK 30/21 Q1016 NOSIG=
200807141130 METAR LMML NIL=
200807141115 METAR LMML 141115Z 18009KT 140V230 CAVOK 30/21 Q1016 NOSIG=
200807141100 METAR LMML NIL=
200807141045 METAR LMML 141045Z 19007KT 150V240 CAVOK 29/21 Q1016 NOSIG=
200807141032 LMML 141032Z 18007KT 120V230 CAVOK 30/21 Q1016 NOSIG=
200807141030 METAR LMML NIL=
200807141015 METAR LMML 141015Z 18008KT 140V220 CAVOK 30/21 Q1016 NOSIG=
200807141000 METAR LMML NIL=
200807140945 METAR LMML 140945Z 19007KT 140V250 CAVOK 29/20 Q1016 NOSIG=
200807140930 METAR LMML NIL=
200807140915 METAR LMML 140915Z 18007KT 120V220 CAVOK 29/22 Q1016 NOSIG=
200807140900 METAR LMML NIL=
200807140845 METAR LMML 140845Z 17007KT CAVOK 29/22 Q1016 NOSIG=
200807140830 METAR LMML NIL=
200807140815 METAR LMML 140815Z 16007KT 130V200 CAVOK 29/21 Q1016 NOSIG=
200807140745 METAR LMML 140745Z 16006KT 140V200 9999 FEW012 28/22 Q1016
                        NOSIG=
200807140730 METAR LMML NIL=
200807140715 METAR LMML 140715Z 18005KT 130V220 9999 FEW012 28/22 Q1016
                        NOSIG=
200807140700 METAR LMML NIL=
200807140645 METAR LMML 140645Z VRB03KT 9999 FEW012 27/23 Q1016 NOSIG=
200807140630 METAR LMML NIL=
200807140615 METAR LMML 140615Z 17005KT 140V200 9999 FEW012 27/24 Q1015
                        NOSIG=
200807140600 METAR LMML NIL=
200807140545 METAR LMML 140545Z 15006KT 130V190 CAVOK 26/24 Q1015 NOSIG=
200807140530 METAR LMML NIL=
200807140515 METAR LMML 140515Z 17005KT CAVOK 26/24 Q1015 NOSIG=
200807140500 METAR LMML NIL=
200807140445 METAR LMML 140445Z 17006KT CAVOK 25/24 Q1014 NOSIG=
200807140430 METAR LMML NIL=
200807140415 METAR LMML 140415Z 16006KT 120V190 CAVOK 25/24 Q1014 NOSIG=
200807140345 METAR LMML 140345Z 15006KT CAVOK 25/25 Q1014 NOSIG=
200807140330 METAR LMML NIL=
200807140315 METAR LMML 140315Z 14006KT CAVOK 24/24 Q1013 NOSIG=
200807140300 METAR LMML NIL=
200807140245 METAR LMML 140245Z 12004KT CAVOK 24/24 Q1013 NOSIG=
200807140230 METAR LMML NIL=
200807140215 METAR LMML 140215Z 12004KT CAVOK 24/24 Q1013 NOSIG=
200807140200 METAR LMML NIL=
200807140145 METAR LMML 140145Z 12004KT CAVOK 24/24 Q1014 NOSIG=
200807140130 METAR LMML NIL=
200807140115 METAR LMML 140115Z VRB01KT CAVOK 24/24 Q1014 NOSIG=
200807140100 METAR LMML NIL=
200807140045 METAR LMML 140045Z VRB03KT CAVOK 25/24 Q1014 NOSIG=
200807140030 METAR LMML NIL=
200807140015 METAR LMML 140015Z 12005KT CAVOK 25/24 Q1014 NOSIG=
200807140000 METAR LMML NIL=
200807132345 METAR LMML 132345Z VRB03KT CAVOK 25/24 Q1014 NOSIG=
200807132315 METAR LMML 132315Z VRB03KT CAVOK 25/24 Q1014 NOSIG=
200807132300 METAR LMML NIL=
200807132245 METAR LMML 132245Z VRB03KT CAVOK 25/24 Q1014 NOSIG=
200807132215 METAR LMML 132215Z 15004KT 120V180 CAVOK 26/24 Q1014 NOSIG=
200807132200 METAR LMML NIL=
200807132145 METAR LMML 132145Z 14007KT CAVOK 26/24 Q1014 NOSIG=
200807132130 METAR LMML NIL=
200807132115 METAR LMML 132115Z 16007KT 130V190 CAVOK 26/24 Q1014 NOSIG=
200807132100 METAR LMML NIL=
200807132045 METAR LMML 132045Z 15008KT 130V190 CAVOK 26/24 Q1013 NOSIG=
200807132030 METAR LMML NIL=
200807132015 METAR LMML 132015Z 15008KT 120V180 CAVOK 26/24 Q1013 NOSIG=
200807132000 METAR LMML NIL=
200807131945 METAR LMML 131945Z 15008KT 130V190 CAVOK 26/24 Q1012 NOSIG=
200807131930 METAR LMML NIL=
200807131915 METAR LMML 131915Z 15011KT CAVOK 26/24 Q1012 NOSIG=
200807131900 METAR LMML NIL=
200807131845 METAR LMML 131845Z 14012KT CAVOK 26/23 Q1011 NOSIG=
200807131830 METAR LMML NIL=
200807131815 METAR LMML 131815Z 14011KT CAVOK 27/23 Q1011 NOSIG=
200807131800 METAR LMML NIL=
200807131745 METAR LMML 131745Z 14012KT 120V180 CAVOK 27/23 Q1011 NOSIG=
200807131730 METAR LMML NIL=
200807131715 METAR LMML 131715Z 15011KT 110V170 CAVOK 27/22 Q1011 NOSIG=
200807131700 METAR LMML NIL=
200807131645 METAR LMML 131645Z 15015KT CAVOK 28/23 Q1011 NOSIG=
200807131630 METAR LMML NIL=
200807131615 METAR LMML 131615Z 16016KT CAVOK 28/22 Q1011 NOSIG=
200807131600 METAR LMML NIL=
200807131545 METAR LMML 131545Z 15016KT CAVOK 28/22 Q1011 NOSIG=
200807131530 METAR LMML NIL=
200807131515 METAR LMML 131515Z 15015KT 120V190 CAVOK 28/22 Q1011 NOSIG=
200807131500 METAR LMML NIL=
200807131445 METAR LMML 131445Z 16014KT 110V190 CAVOK 29/22 Q1011 NOSIG=
200807131430 METAR LMML NIL=
200807131415 METAR LMML 131415Z 15016KT 120V180 CAVOK 29/21 Q1012 NOSIG=
200807131400 METAR LMML NIL=
200807131345 METAR LMML 131345Z 15015KT 110V180 CAVOK 30/21 Q1012 NOSIG=
200807131330 METAR LMML NIL=
200807131315 METAR LMML 131315Z 15015KT 120V180 CAVOK 29/21 Q1012 NOSIG=
200807131300 METAR LMML NIL=
200807131245 METAR LMML 131245Z 15016KT 110V180 CAVOK 29/21 Q1012 NOSIG=
200807131230 METAR LMML NIL=
200807131215 METAR LMML 131215Z 14015KT 110V180 CAVOK 30/22 Q1012 NOSIG=
200807131200 METAR LMML NIL=
200807131145 METAR LMML 131145Z 14014KT 120V180 CAVOK 29/22 Q1012 NOSIG=
200807131130 METAR LMML NIL=
200807131115 METAR LMML 131115Z 16014KT 130V190 CAVOK 30/22 Q1012 NOSIG=
200807131100 METAR LMML NIL=
200807131045 METAR LMML 131045Z 15013KT 120V180 CAVOK 30/22 Q1012 NOSIG=
200807131030 METAR LMML NIL=
200807131015 METAR LMML 131015Z 15015KT 110V180 CAVOK 29/22 Q1013 NOSIG=
200807131000 METAR LMML NIL=
200807130945 METAR LMML 130945Z 15013KT 130V190 CAVOK 29/22 Q1013 NOSIG=
200807130930 METAR LMML NIL=
200807130915 METAR LMML 130915Z 15012KT 120V190 CAVOK 29/22 Q1013 NOSIG=
200807130900 METAR LMML NIL=
200807130845 METAR LMML 130845Z 14012KT 110V180 CAVOK 28/22 Q1013 NOSIG=
200807130830 METAR LMML NIL=
200807130815 METAR LMML 130815Z 13012KT CAVOK 28/22 Q1013 NOSIG=
200807130800 METAR LMML NIL=
200807130745 METAR LMML 130745Z 15010KT 120V190 CAVOK 28/22 Q1013 NOSIG=
200807130715 METAR LMML 130715Z 15010KT 120V190 CAVOK 28/22 Q1013 NOSIG=
200807130700 METAR LMML NIL=
200807130645 METAR LMML 130645Z 16009KT 130V190 CAVOK 28/23 Q1012 NOSIG=
200807130630 METAR LMML NIL=
200807130615 METAR LMML 130615Z 14011KT CAVOK 27/23 Q1012 NOSIG=
200807130600 METAR LMML NIL=
200807130545 METAR LMML 130545Z 14009KT 110V170 CAVOK 26/23 Q1011 NOSIG=
200807130515 METAR LMML 130515Z 14008KT CAVOK 26/23 Q1011 NOSIG=
200807130500 METAR LMML NIL=
200807130445 METAR LMML 130445Z 14009KT CAVOK 25/23 Q1011 NOSIG=
200807130430 METAR LMML NIL=
200807130415 METAR LMML 130415Z 14007KT CAVOK 25/23 Q1011 NOSIG=
200807130400 METAR LMML NIL=
200807130345 METAR LMML 130345Z 14007KT CAVOK 25/22 Q1011 TEMPO 8000 FEW005=
200807130330 METAR LMML NIL=
200807130315 METAR LMML 130315Z 14005KT 100V170 CAVOK 25/22 Q1011 TEMPO
                        8000 FEW005=
200807130300 METAR LMML NIL=
200807130245 METAR LMML 130245Z 15005KT 120V180 CAVOK 25/22 Q1011 TEMPO
                        8000 FEW005=
200807130230 METAR LMML NIL=
200807130215 METAR LMML 130215Z 15006KT 120V180 CAVOK 25/23 Q1011 TEMPO
                        8000 FEW005=
200807130200 METAR LMML NIL=
200807130145 METAR LMML 130145Z 16005KT 120V180 CAVOK 25/23 Q1011 TEMPO
                        8000 FEW005=
200807130130 METAR LMML NIL=
200807130115 METAR LMML 130115Z 15006KT 110V190 CAVOK 25/23 Q1011 TEMPO
                        8000 FEW005=
200807130100 METAR LMML NIL=
200807130045 METAR LMML 130045Z 14004KT CAVOK 25/23 Q1011 TEMPO 8000 FEW005=
200807130015 METAR LMML 130015Z 16006KT 130V190 CAVOK 25/23 Q1011 TEMPO
                        8000 FEW005=
200807130000 METAR LMML NIL=
200807122345 METAR LMML 122345Z 16005KT CAVOK 25/23 Q1011 TEMPO 8000 FEW005=
200807122330 METAR LMML NIL=
200807122315 METAR LMML 122315Z 16004KT 130V200 CAVOK 25/23 Q1012 TEMPO
                        8000 FEW005=
200807122300 METAR LMML NIL=
200807122245 METAR LMML 122245Z 16005KT 120V190 CAVOK 25/23 Q1012 TEMPO
                        8000 FEW005=
200807122230 METAR LMML NIL=
200807122215 METAR LMML 122215Z 16005KT 130V190 CAVOK 25/23 Q1012 TEMPO
                        8000 FEW005=
200807122200 METAR LMML NIL=
200807122145 METAR LMML 122145Z 16005KT CAVOK 26/23 Q1012 NOSIG RMK SMOKE
                        TO SW=
200807122130 METAR LMML NIL=
200807122115 METAR LMML 122115Z 15005KT 130V190 CAVOK 26/23 Q1012 NOSIG
                        RMK SMOKE TO SOUTHWEST=
200807122100 METAR LMML NIL=
200807122045 METAR LMML 122045Z 16006KT 120V190 CAVOK 26/23 Q1012 NOSIG=
200807122030 METAR LMML NIL=
200807122015 METAR LMML 122015Z 15005KT 130V190 CAVOK 26/23 Q1012 NOSIG=
200807121945 METAR LMML 121945Z 16007KT CAVOK 26/23 Q1012 NOSIG=
200807121930 METAR LMML NIL=
200807121915 METAR LMML 121915Z 15007KT CAVOK 26/23 Q1011 NOSIG=
200807121900 METAR LMML NIL=
200807121845 METAR LMML 121845Z 14009KT CAVOK 26/24 Q1011 NOSIG=
200807121830 METAR LMML NIL=
200807121815 METAR LMML 121815Z 15009KT 120V190 CAVOK 26/23 Q1011 NOSIG=
200807121800 METAR LMML NIL=
200807121745 METAR LMML 121745Z 15010KT 120V180 CAVOK 27/23 Q1011 NOSIG=
200807121715 METAR LMML 121715Z 16010KT 130V190 9999 FEW013 27/23 Q1011
                        NOSIG=
200807121700 METAR LMML NIL=
200807121645 METAR LMML 121645Z 15011KT 9999 FEW013 27/23 Q1011 NOSIG=
200807121630 METAR LMML NIL=
200807121615 METAR LMML 121615Z 16010KT 120V190 9999 FEW013 27/23 Q1011
                        NOSIG=
200807121600 METAR LMML NIL=
200807121545 METAR LMML 121545Z 17010KT 140V200 9999 FEW013 28/23 Q1011
                        NOSIG=
200807121530 METAR LMML NIL=
200807121515 METAR LMML 121515Z 16010KT 120V200 9999 FEW013 28/23 Q1011
                        NOSIG=
200807121500 METAR LMML NIL=
200807121445 METAR LMML 121445Z 16011KT 130V210 9999 FEW013 28/23 Q1012
                        NOSIG=
200807121430 METAR LMML NIL=
200807121415 METAR LMML 121415Z 16011KT 9999 FEW013 28/22 Q1012 NOSIG=
200807121400 METAR LMML NIL=
200807121345 METAR LMML 121345Z 16010KT 120V220 9999 FEW015 29/21 Q1012
                        NOSIG=
200807121330 METAR LMML NIL=
200807121315 METAR LMML 121315Z 17010KT 150V220 9999 FEW015 29/21 Q1012
                        NOSIG=
200807121300 METAR LMML NIL=
200807121245 METAR LMML 121245Z 17010KT 140V210 9999 FEW015 29/21 Q1013
                        NOSIG=
200807121230 METAR LMML NIL=
200807121215 METAR LMML 121215Z 17010KT 130V210 9999 FEW015 29/22 Q1013
                        NOSIG=
200807121200 METAR LMML NIL=
200807121145 METAR LMML 121145Z 18007KT 100V230 9999 FEW015 29/19 Q1013
                        NOSIG=
200807121130 METAR LMML NIL=
200807121115 METAR LMML 121115Z 16008KT 120V220 9999 FEW015 29/22 Q1013
                        NOSIG=
200807121100 METAR LMML NIL=
200807121045 METAR LMML 121045Z 18007KT 130V220 9999 FEW015 29/21 Q1014
                        NOSIG=
200807121030 METAR LMML NIL=
200807121015 METAR LMML 121015Z 17007KT 130V210 9999 FEW015 29/21 Q1014
                        NOSIG=
200807121000 METAR LMML NIL=
200807120945 METAR LMML 120945Z 16009KT 130V190 9999 FEW012 29/22 Q1013
                        NOSIG=
200807120930 METAR LMML NIL=
200807120915 METAR LMML 120915Z 17007KT 140V210 9999 FEW012 29/20 Q1013
                        NOSIG=
200807120900 METAR LMML NIL=
200807120845 METAR LMML 120845Z 17007KT 150V210 9999 FEW011 28/21 Q1013
                        NOSIG=
200807120815 METAR LMML 120815Z 18007KT 140V250 9999 FEW011 28/23 Q1013
                        NOSIG=
200807120800 METAR LMML NIL=
200807120745 METAR LMML 120745Z 19008KT 140V260 9999 FEW011 27/23 Q1013
                        NOSIG=
200807120730 METAR LMML NIL=
200807120715 METAR LMML 120715Z 18007KT 140V220 9999 FEW011 27/24 Q1013
                        NOSIG=
200807120700 METAR LMML NIL=
200807120645 METAR LMML 120645Z 17006KT 140V230 9999 FEW011 27/24 Q1013
                        NOSIG=
200807120615 METAR LMML 120615Z 15006KT 110V180 9999 FEW011 26/24 Q1013
                        NOSIG=
200807120600 METAR LMML NIL=
200807120545 METAR LMML 120545Z 13005KT 100V160 9999 SCT011 25/25 Q1012
                        NOSIG=
200807120530 METAR LMML NIL=
200807120515 METAR LMML 120515Z VRB02KT 9999 SCT010 24/24 Q1013 TEMPO
                        8000 SCT008=
200807120500 METAR LMML NIL=
200807120445 METAR LMML 120445Z VRB01KT 9999 FEW010 23/23 Q1013 TEMPO
                        8000 SCT008=
200807120430 METAR LMML NIL=
200807120415 METAR LMML 120415Z VRB01KT 9999 FEW010 23/23 Q1013 TEMPO
                        8000 SCT008=
200807120400 METAR LMML NIL=
200807120345 METAR LMML 120345Z 00000KT 9999 FEW010 23/23 Q1013 TEMPO
                        8000 SCT008=
200807120330 METAR LMML NIL=
200807120315 METAR LMML 120315Z 00000KT 9999 SCT010 23/23 Q1013 TEMPO
                        8000 SCT008=
200807120300 METAR LMML NIL=
200807120245 METAR LMML 120245Z VRB01KT 9999 FEW010 23/23 Q1013 NOSIG=
200807120215 METAR LMML 120215Z VRB02KT CAVOK 23/23 Q1012 NOSIG=
200807120200 METAR LMML NIL=
200807120145 METAR LMML 120145Z VRB01KT CAVOK 24/23 Q1013 NOSIG=
200807120130 METAR LMML NIL=
200807120115 METAR LMML 120115Z VRB03KT CAVOK 24/23 Q1013 NOSIG=
200807120100 METAR LMML NIL=
200807120045 METAR LMML 120045Z VRB01KT CAVOK 24/23 Q1013 NOSIG=
200807120030 METAR LMML NIL=
200807120015 METAR LMML 120015Z VRB02KT CAVOK 24/23 Q1013 NOSIG=
200807120000 METAR LMML NIL=
200807112345 METAR LMML 112345Z VRB02KT CAVOK 24/23 Q1014 NOSIG=
200807112330 METAR LMML NIL=
200807112315 METAR LMML 112315Z VRB03KT CAVOK 25/23 Q1014 NOSIG=
200807112300 METAR LMML NIL=
200807112245 METAR LMML 112245Z VRB03KT CAVOK 25/23 Q1014 NOSIG=
200807112230 METAR LMML NIL=
200807112215 METAR LMML 112215Z 17004KT CAVOK 25/23 Q1014 NOSIG=
200807112200 METAR LMML NIL=
200807112145 METAR LMML 112145Z VRB03KT CAVOK 25/23 Q1014 NOSIG=
200807112130 METAR LMML NIL=
200807112115 METAR LMML 112115Z 13004KT CAVOK 24/23 Q1014 NOSIG=
200807112100 METAR LMML NIL=
200807112045 METAR LMML 112045Z VRB03KT CAVOK 25/23 Q1014 NOSIG=
200807112030 METAR LMML NIL=
200807112015 METAR LMML 112015Z 18004KT 140V220 CAVOK 25/23 Q1014 NOSIG=
200807112000 METAR LMML NIL=
200807111945 METAR LMML 111945Z 17004KT 140V200 CAVOK 26/23 Q1014 NOSIG=
200807111930 METAR LMML NIL=
200807111915 METAR LMML 111915Z VRB03KT CAVOK 26/23 Q1014 NOSIG=
200807111900 METAR LMML NIL=
200807111845 METAR LMML 111845Z 16005KT 120V190 CAVOK 26/22 Q1013 NOSIG=
200807111830 METAR LMML NIL=
200807111815 METAR LMML 111815Z 15007KT 120V190 CAVOK 26/22 Q1013 NOSIG=
200807111800 METAR LMML NIL=
200807111745 METAR LMML 111745Z 16008KT 130V190 CAVOK 26/22 Q1013 NOSIG=
200807111730 METAR LMML NIL=
200807111715 METAR LMML 111715Z 12009KT CAVOK 27/20 Q1013 NOSIG=
200807111700 METAR LMML NIL=
200807111645 METAR LMML 111645Z 12007KT 100V160 CAVOK 27/21 Q1013 NOSIG=
200807111630 METAR LMML NIL=
200807111615 METAR LMML 111615Z 17005KT 130V220 CAVOK 27/21 Q1013 NOSIG=
200807111600 METAR LMML NIL=
200807111545 METAR LMML 111545Z 20005KT 160V250 CAVOK 27/20 Q1014 NOSIG=
200807111530 METAR LMML NIL=
200807111515 METAR LMML 111515Z 21006KT 160V260 CAVOK 27/20 Q1015 NOSIG=
200807111500 METAR LMML NIL=
200807111445 METAR LMML 111445Z 21006KT 170V270 CAVOK 28/21 Q1016 NOSIG=
200807111415 METAR LMML 111415Z 19005KT 150V230 CAVOK 28/19 Q1016 NOSIG=
200807111400 METAR LMML NIL=
200807111345 METAR LMML 111345Z 18006KT 150V230 CAVOK 28/19 Q1015 NOSIG=
200807111330 METAR LMML NIL=
200807111315 METAR LMML 111315Z 16006KT 130V200 CAVOK 29/17 Q1015 NOSIG=
200807111300 METAR LMML NIL=
200807111245 METAR LMML 111245Z 17006KT 120V220 CAVOK 29/17 Q1015 NOSIG=
200807111230 METAR LMML NIL=
200807111215 METAR LMML 111215Z 17006KT 120V210 CAVOK 30/17 Q1015 NOSIG=
200807111200 METAR LMML NIL=
200807111145 METAR LMML 111145Z 18004KT 120V240 CAVOK 29/17 Q1015 NOSIG=
200807111130 METAR LMML NIL=
200807111115 METAR LMML 111115Z 17007KT 140V220 CAVOK 29/16 Q1015 NOSIG=
200807111100 METAR LMML NIL=
200807111045 METAR LMML 111045Z 18006KT 140V220 CAVOK 30/17 Q1015 NOSIG=
200807111030 METAR LMML NIL=
200807111015 METAR LMML 111015Z 17005KT 110V220 CAVOK 29/18 Q1016 NOSIG=
200807111000 METAR LMML NIL=
200807110945 METAR LMML 110945Z 18005KT 110V240 CAVOK 29/17 Q1016 NOSIG=
200807110930 METAR LMML NIL=
200807110915 METAR LMML 110915Z 19004KT 130V260 CAVOK 29/16 Q1016 NOSIG=
200807110900 METAR LMML NIL=
200807110845 METAR LMML 110845Z 17005KT 110V220 9999 FEW020 28/16 Q1015
                        NOSIG=
200807110830 METAR LMML NIL=
200807110815 METAR LMML 110815Z 16004KT 110V220 CAVOK 28/14 Q1015 NOSIG=
200807110800 METAR LMML NIL=
200807110745 METAR LMML 110745Z 18004KT 090V240 CAVOK 28/15 Q1015 NOSIG=
200807110730 METAR LMML NIL=
200807110715 METAR LMML 110715Z 17004KT 110V220 CAVOK 27/15 Q1015 NOSIG=
200807110700 METAR LMML NIL=
200807110645 METAR LMML 110645Z 18004KT 150V220 CAVOK 27/19 Q1015 NOSIG=
200807110630 METAR LMML NIL=
200807110615 METAR LMML 110615Z VRB03KT CAVOK 26/20 Q1015 NOSIG=
200807110545 METAR LMML 110545Z VRB02KT CAVOK 25/23 Q1015 NOSIG=
200807110530 METAR LMML NIL=
200807110515 METAR LMML 110515Z VRB01KT CAVOK 24/23 Q1015 NOSIG=
200807110500 METAR LMML NIL=
200807110445 METAR LMML 110445Z VRB01KT CAVOK 23/22 Q1014 NOSIG=
200807110430 METAR LMML NIL=
200807110415 METAR LMML 110415Z VRB03KT CAVOK 23/22 Q1014 NOSIG=
200807110345 METAR LMML 110345Z VRB03KT CAVOK 22/21 Q1014 NOSIG=
200807110330 METAR LMML NIL=
200807110315 METAR LMML 110315Z VRB02KT CAVOK 22/21 Q1014 NOSIG=
200807110300 METAR LMML NIL=
200807110245 METAR LMML 110245Z VRB03KT CAVOK 23/21 Q1014 NOSIG=
200807110230 METAR LMML NIL=
200807110215 METAR LMML 110215Z VRB02KT CAVOK 22/20 Q1014 NOSIG=
200807110200 METAR LMML NIL=
200807110145 METAR LMML 110145Z VRB03KT CAVOK 23/20 Q1014 NOSIG=
200807110130 METAR LMML NIL=
200807110115 METAR LMML 110115Z VRB03KT CAVOK 23/20 Q1014 NOSIG=
200807110100 METAR LMML NIL=
200807110045 METAR LMML 110045Z VRB01KT CAVOK 23/20 Q1015 NOSIG=
200807110030 METAR LMML NIL=
200807110015 METAR LMML 110015Z VRB01KT CAVOK 23/20 Q1015 NOSIG=
200807110000 METAR LMML NIL=
200807102345 METAR LMML 102345Z VRB01KT CAVOK 23/20 Q1015 NOSIG=
200807102315 METAR LMML 102315Z VRB01KT CAVOK 24/20 Q1015 NOSIG=
200807102300 METAR LMML NIL=
200807102245 METAR LMML 102245Z VRB01KT CAVOK 24/19 Q1015 NOSIG=
200807102230 METAR LMML NIL=
200807102215 METAR LMML 102215Z VRB03KT CAVOK 24/19 Q1016 NOSIG=
200807102200 METAR LMML NIL=
200807102145 METAR LMML 102145Z VRB03KT CAVOK 24/20 Q1016 NOSIG=
200807102130 METAR LMML NIL=
200807102115 METAR LMML 102115Z VRB03KT CAVOK 25/20 Q1015 NOSIG=
200807102100 METAR LMML NIL=
200807102045 METAR LMML 102045Z VRB02KT CAVOK 25/19 Q1015 NOSIG=
200807102030 METAR LMML NIL=
200807102015 METAR LMML 102015Z VRB03KT CAVOK 25/19 Q1015 NOSIG RMK SMOKE
                        LAYER TO NW=
200807102000 METAR LMML NIL=
200807101945 METAR LMML 101945Z VRB02KT CAVOK 25/18 Q1015 NOSIG=
200807101930 METAR LMML NIL=
200807101915 METAR LMML 101915Z VRB03KT CAVOK 25/18 Q1014 NOSIG=
200807101900 METAR LMML NIL=
200807101845 METAR LMML 101845Z VRB03KT CAVOK 26/18 Q1014 NOSIG=
200807101830 METAR LMML NIL=
200807101815 METAR LMML 101815Z 15004KT 120V180 CAVOK 26/17 Q1014 NOSIG=
200807101800 METAR LMML NIL=
200807101745 METAR LMML 101745Z 17004KT 120V210 CAVOK 27/16 Q1014 NOSIG=
200807101730 METAR LMML NIL=
200807101715 METAR LMML 101715Z 13004KT CAVOK 28/14 Q1014 NOSIG=
200807101700 METAR LMML NIL=
200807101645 METAR LMML 101645Z 13004KT 100V160 CAVOK 28/12 Q1014 NOSIG=
200807101630 METAR LMML NIL=
200807101615 METAR LMML 101615Z 13005KT 090V180 CAVOK 29/16 Q1014 NOSIG=
200807101545 METAR LMML 101545Z 20004KT 150V240 CAVOK 29/12 Q1015 NOSIG=
200807101530 METAR LMML NIL=
200807101515 METAR LMML 101515Z 18004KT 140V230 CAVOK 29/11 Q1015 NOSIG=
200807101500 METAR LMML NIL=
200807101445 METAR LMML 101445Z VRB03KT CAVOK 30/12 Q1015 NOSIG=
200807101430 METAR LMML NIL=
200807101415 METAR LMML 101415Z 12006KT 070V170 CAVOK 29/12 Q1015 NOSIG=
200807101400 METAR LMML NIL=
200807101345 METAR LMML 101345Z 15006KT 110V190 CAVOK 30/12 Q1015 NOSIG=
200807101315 METAR LMML 101315Z 11006KT 060V180 CAVOK 30/11 Q1015 NOSIG=
200807101300 METAR LMML NIL=
200807101245 METAR LMML 101245Z 12006KT 060V180 CAVOK 30/13 Q1015 NOSIG=
200807101230 METAR LMML NIL=
200807101215 METAR LMML 101215Z 12005KT 040V220 CAVOK 30/14 Q1016 NOSIG=
200807101200 METAR LMML NIL=
200807101145 METAR LMML 101145Z 14008KT 090V180 CAVOK 29/16 Q1016 NOSIG=
200807101130 METAR LMML NIL=
200807101115 METAR LMML 101115Z 12005KT 060V180 CAVOK 29/16 Q1016 NOSIG=
200807101100 METAR LMML NIL=
200807101045 METAR LMML 101045Z 09006KT 030V140 CAVOK 29/17 Q1016 NOSIG=
200807101030 METAR LMML NIL=
200807101015 METAR LMML 101015Z 09006KT 040V150 CAVOK 28/17 Q1016 NOSIG=
200807101000 METAR LMML NIL=
200807100945 METAR LMML 100945Z 08006KT 040V120 CAVOK 28/19 Q1016 NOSIG=
200807100930 METAR LMML NIL=
200807100915 METAR LMML 100915Z 08005KT 040V210 CAVOK 28/19 Q1016 NOSIG=
200807100900 METAR LMML NIL=
200807100845 METAR LMML 100845Z 09007KT 040V150 CAVOK 28/19 Q1016 NOSIG=
200807100815 METAR LMML 100815Z 09007KT 040V130 CAVOK 28/18 Q1016 NOSIG=
200807100800 METAR LMML NIL=
200807100745 METAR LMML 100745Z 10008KT 060V130 CAVOK 27/17 Q1016 NOSIG=
200807100730 METAR LMML NIL=
200807100715 METAR LMML 100715Z 09006KT 040V130 CAVOK 28/18 Q1016 NOSIG=
200807100700 METAR LMML NIL=
200807100645 METAR LMML 100645Z 09007KT 030V130 9999 FEW012 27/17 Q1016
                        NOSIG=
200807100630 METAR LMML NIL=
200807100615 METAR LMML 100615Z 08005KT 040V120 9999 FEW012 26/21 Q1015
                        NOSIG=
200807100600 METAR LMML NIL=
200807100545 METAR LMML 100545Z 06005KT 030V090 9999 FEW012 26/22 Q1015
                        NOSIG=
200807100530 METAR LMML NIL=
200807100515 METAR LMML 100515Z 04005KT 350V210 9999 FEW012 25/22 Q1015
                        NOSIG=
200807100500 METAR LMML NIL=
200807100445 METAR LMML 100445Z 01007KT 9999 FEW012 24/23 Q1014 NOSIG=
200807100430 METAR LMML NIL=
200807100415 METAR LMML 100415Z 36007KT 9999 FEW012 24/22 Q1014 NOSIG=
200807100400 METAR LMML NIL=
200807100345 METAR LMML 100345Z 34005KT CAVOK 24/20 Q1014 NOSIG=
200807100330 METAR LMML NIL=
200807100315 METAR LMML 100315Z 31005KT 290V350 CAVOK 24/17 Q1014 NOSIG=
200807100300 METAR LMML NIL=
200807100245 METAR LMML 100245Z 32007KT CAVOK 24/17 Q1014 NOSIG=
200807100230 METAR LMML NIL=
200807100215 METAR LMML 100215Z 33006KT CAVOK 25/15 Q1014 NOSIG=
200807100200 METAR LMML NIL=
200807100145 METAR LMML 100145Z 32007KT CAVOK 25/15 Q1014 NOSIG=
200807100130 METAR LMML NIL=
200807100115 METAR LMML 100115Z 31006KT 280V350 CAVOK 26/15 Q1014 NOSIG=
200807100100 METAR LMML NIL=
200807100045 METAR LMML 100045Z 31006KT CAVOK 26/15 Q1015 NOSIG=
200807100030 METAR LMML NIL=
200807100015 METAR LMML 100015Z VRB03KT CAVOK 25/17 Q1015 NOSIG=
200807100000 METAR LMML NIL=
200807092345 METAR LMML 092345Z 27006KT 230V300 CAVOK 25/17 Q1015 NOSIG=
200807092330 METAR LMML NIL=
200807092315 METAR LMML 092315Z 26006KT 240V300 CAVOK 26/17 Q1015 NOSIG=
200807092300 METAR LMML NIL=
200807092245 METAR LMML 092245Z 28006KT 250V310 CAVOK 26/17 Q1015 NOSIG=
200807092230 METAR LMML NIL=
200807092215 METAR LMML 092215Z 29008KT CAVOK 25/17 Q1016 NOSIG=
200807092200 METAR LMML NIL=
200807092145 METAR LMML 092145Z 28006KT 250V320 CAVOK 26/16 Q1016 NOSIG=
200807092130 METAR LMML NIL=
200807092115 METAR LMML 092115Z 24004KT 200V280 CAVOK 25/17 Q1016 NOSIG=
200807092100 METAR LMML NIL=
200807092045 METAR LMML 092045Z VRB03KT CAVOK 25/19 Q1016 NOSIG=
200807092030 METAR LMML NIL=
200807092015 METAR LMML 092015Z VRB03KT CAVOK 25/19 Q1016 NOSIG=
200807092000 METAR LMML NIL=
200807091945 METAR LMML 091945Z VRB03KT CAVOK 26/13 Q1016 NOSIG=
200807091930 METAR LMML NIL=
200807091915 METAR LMML 091915Z VRB02KT CAVOK 26/13 Q1015 NOSIG=
200807091900 METAR LMML NIL=
200807091845 METAR LMML 091845Z VRB01KT CAVOK 26/20 Q1015 NOSIG=
200807091830 METAR LMML NIL=
200807091815 METAR LMML 091815Z VRB02KT CAVOK 27/21 Q1015 NOSIG=
200807091800 METAR LMML NIL=
200807091745 METAR LMML 091745Z VRB03KT CAVOK 28/21 Q1015 NOSIG=
200807091730 METAR LMML NIL=
200807091715 METAR LMML 091715Z VRB03KT CAVOK 28/21 Q1015 NOSIG=
200807091700 METAR LMML NIL=
200807091645 METAR LMML 091645Z 01004KT 350V050 CAVOK 29/20 Q1015 NOSIG=
200807091630 METAR LMML NIL=
200807091615 METAR LMML 091615Z 01007KT CAVOK 29/20 Q1015 NOSIG=
200807091600 METAR LMML NIL=
200807091545 METAR LMML 091545Z 20006KT 160V260 CAVOK 28/21 Q1015 NOSIG=
200807091530 METAR LMML NIL=
200807091515 METAR LMML 091515Z 23006KT 180V270 CAVOK 29/19 Q1015 NOSIG=
200807091500 METAR LMML NIL=
200807091445 METAR LMML 091445Z 21007KT 160V270 CAVOK 29/19 Q1015 NOSIG=
200807091430 METAR LMML NIL=
200807091415 METAR LMML 091415Z 21006KT 160V260 CAVOK 29/19 Q1015 NOSIG=
200807091345 METAR LMML 091345Z 20006KT 160V260 CAVOK 29/19 Q1016 NOSIG=
200807091330 METAR LMML NIL=
200807091315 METAR LMML 091315Z 19005KT 150V250 CAVOK 30/18 Q1016 NOSIG=
200807091300 METAR LMML NIL=
200807091245 METAR LMML 091245Z 13005KT 060V220 CAVOK 31/19 Q1016 NOSIG=
200807091230 METAR LMML NIL=
200807091215 METAR LMML 091215Z 10004KT 040V190 CAVOK 30/18 Q1016 NOSIG=
200807091200 METAR LMML NIL=
200807091145 METAR LMML 091145Z 13007KT 080V170 CAVOK 30/18 Q1016 NOSIG=
200807091130 METAR LMML NIL=
200807091115 METAR LMML 091115Z 11005KT 060V190 CAVOK 31/17 Q1016 NOSIG=
200807091100 METAR LMML NIL=
200807091045 METAR LMML 091045Z 07005KT 020V130 CAVOK 31/16 Q1016 NOSIG=
200807091030 METAR LMML NIL=
200807091015 METAR LMML 091015Z 09005KT 010V160 CAVOK 30/16 Q1016 NOSIG=
200807091000 METAR LMML NIL=
200807090945 METAR LMML 090945Z 10007KT 060V140 CAVOK 29/17 Q1016 NOSIG=
200807090930 METAR LMML NIL=
200807090915 METAR LMML 090915Z 08007KT 030V130 CAVOK 30/18 Q1016 NOSIG=
200807090900 METAR LMML NIL=
200807090845 METAR LMML 090845Z 08007KT 010V130 CAVOK 30/18 Q1016 NOSIG=
200807090830 METAR LMML NIL=
200807090815 METAR LMML 090815Z 10006KT 360V260 CAVOK 29/19 Q1016 NOSIG=
200807090800 LMML NIL=
200807090745 LMML 090745Z 08004KT 020V220 CAVOK 29/21 Q1016 NOSIG=
200807090730 LMML NIL=
200807090715 METAR LMML 090715Z 03005KT 350V070 9999 FEW020 28/23 Q1016
                        NOSIG=
200807090700 METAR LMML NIL=
200807090645 METAR LMML 090645Z 02005KT 340V040 CAVOK 28/22 Q1016 NOSIG=
200807090630 METAR LMML NIL=
200807090615 METAR LMML 090615Z 02005KT 340V050 CAVOK 28/21 Q1016 NOSIG=
200807090600 METAR LMML NIL=
200807090545 METAR LMML 090545Z 34005KT 310V010 CAVOK 27/20 Q1015 NOSIG=
200807090515 METAR LMML 090515Z 31004KT 290V350 CAVOK 26/21 Q1015 NOSIG=
200807090500 METAR LMML NIL=
200807090445 METAR LMML 090445Z VRB03KT CAVOK 25/21 Q1014 NOSIG=
200807090430 METAR LMML NIL=
200807090415 METAR LMML 090415Z VRB02KT CAVOK 25/19 Q1014 NOSIG=
200807090400 METAR LMML NIL=
200807090345 METAR LMML 090345Z VRB02KT CAVOK 25/17 Q1014 NOSIG=
200807090330 METAR LMML NIL=
200807090315 METAR LMML 090315Z VRB03KT CAVOK 26/17 Q1013 NOSIG=
200807090300 METAR LMML NIL=
200807090245 METAR LMML 090245Z VRB03KT CAVOK 26/18 Q1013 NOSIG=
200807090230 METAR LMML NIL=
200807090215 METAR LMML 090215Z VRB03KT CAVOK 26/19 Q1013 NOSIG=
200807090145 METAR LMML 090145Z VRB03KT CAVOK 26/16 Q1014 NOSIG=
200807090130 METAR LMML NIL=
200807090115 METAR LMML 090115Z 27008KT CAVOK 27/15 Q1014 NOSIG=
200807090045 METAR LMML 090045Z VRB02KT CAVOK 27/15 Q1014 NOSIG=
200807090015 METAR LMML 090015Z 26005KT 220V310 CAVOK 27/15 Q1014 NOSIG=
200807090000 METAR LMML NIL=
200807082345 METAR LMML 082345Z 28004KT CAVOK 26/15 Q1015 NOSIG=
200807082330 METAR LMML NIL=
200807082315 METAR LMML 082315Z VRB02KT CAVOK 26/16 Q1015 NOSIG=
200807082300 METAR LMML NIL=
200807082245 METAR LMML 082245Z 27004KT 240V300 CAVOK 26/17 Q1015 NOSIG=
200807082230 METAR LMML NIL=
200807082215 METAR LMML 082215Z 30004KT 250V340 CAVOK 26/17 Q1015 NOSIG=
200807082200 METAR LMML NIL=
200807082145 METAR LMML 082145Z 28005KT 240V300 CAVOK 26/17 Q1015 NOSIG=
200807082130 METAR LMML NIL=
200807082115 METAR LMML 082115Z 29005KT 270V330 CAVOK 26/18 Q1015 NOSIG=
200807082100 METAR LMML NIL=
200807082045 METAR LMML 082045Z 30008KT CAVOK 26/19 Q1015 NOSIG=
200807082030 METAR LMML NIL=
200807082015 METAR LMML 082015Z 29007KT 250V330 CAVOK 27/19 Q1015 NOSIG=
200807082000 METAR LMML NIL=
200807081945 METAR LMML 081945Z 26007KT 230V300 CAVOK 27/19 Q1015 NOSIG=
200807081930 METAR LMML NIL=
200807081915 METAR LMML 081915Z 27004KT 230V300 CAVOK 27/21 Q1015 NOSIG=
200807081900 METAR LMML NIL=
200807081845 METAR LMML 081845Z 30008KT CAVOK 27/22 Q1015 NOSIG=
200807081830 METAR LMML NIL=
200807081815 METAR LMML 081815Z 31004KT 270V340 CAVOK 28/21 Q1014 NOSIG=
200807081800 METAR LMML NIL=
200807081745 METAR LMML 081745Z 24004KT 170V280 CAVOK 29/20 Q1014 NOSIG=
200807081730 METAR LMML NIL=
200807081715 METAR LMML 081715Z 24005KT 200V290 CAVOK 29/20 Q1014 NOSIG=
200807081700 METAR LMML NIL=
200807081645 METAR LMML 081645Z 26005KT 210V310 CAVOK 29/22 Q1014 NOSIG=
200807081630 METAR LMML NIL=
200807081615 METAR LMML 081615Z 24007KT 190V290 CAVOK 30/22 Q1014 NOSIG=
200807081600 METAR LMML NIL=
200807081545 METAR LMML 081545Z 25007KT 200V310 CAVOK 31/19 Q1015 NOSIG=
200807081530 METAR LMML NIL=
200807081515 METAR LMML 081515Z 24008KT 210V270 CAVOK 31/19 Q1015 NOSIG=
200807081500 METAR LMML NIL=
200807081445 METAR LMML 081445Z 23009KT 210V280 CAVOK 32/18 Q1015 NOSIG=
200807081415 METAR LMML 081415Z 23009KT 200V270 CAVOK 32/18 Q1015 NOSIG=
200807081400 METAR LMML NIL=
200807081345 METAR LMML 081345Z 22009KT 200V270 CAVOK 31/19 Q1015 NOSIG=
200807081330 METAR LMML NIL=
200807081315 METAR LMML 081315Z 21009KT 170V270 CAVOK 31/20 Q1015 NOSIG=
200807081300 METAR LMML NIL=
200807081245 METAR LMML 081245Z 21009KT 180V270 CAVOK 32/17 Q1015 NOSIG=
200807081230 METAR LMML NIL=
200807081215 METAR LMML 081215Z 22010KT 190V260 CAVOK 32/16 Q1015 NOSIG=
200807081200 METAR LMML NIL=
200807081145 METAR LMML 081145Z 21007KT 170V260 CAVOK 32/18 Q1015 NOSIG=
200807081130 METAR LMML NIL=
200807081115 METAR LMML 081115Z 23008KT 190V270 CAVOK 32/16 Q1016 NOSIG=
200807081100 METAR LMML NIL=
200807081045 METAR LMML 081045Z 23009KT 190V270 CAVOK 32/16 Q1015 NOSIG=
200807081030 METAR LMML NIL=
200807081015 METAR LMML 081015Z 22009KT 200V280 CAVOK 33/14 Q1015 NOSIG=
200807081000 METAR LMML NIL=
200807080945 METAR LMML 080945Z 11005KT CAVOK 35/14 Q1015 NOSIG=
200807080930 METAR LMML NIL=
200807080915 METAR LMML 080915Z VRB03KT CAVOK 34/10 Q1015 NOSIG=
200807080900 METAR LMML NIL=
200807080845 METAR LMML 080845Z 30006KT CAVOK 33/11 Q1016 NOSIG=
200807080830 METAR LMML NIL=
200807080815 METAR LMML 080815Z 30005KT 240V350 CAVOK 31/15 Q1016 NOSIG=
200807080745 METAR LMML 080745Z 32009KT 290V350 CAVOK 30/18 Q1016 NOSIG=
200807080730 METAR LMML NIL=
200807080715 METAR LMML 080715Z 30007KT 250V340 CAVOK 30/17 Q1016 NOSIG=
200807080700 METAR LMML NIL=
200807080645 METAR LMML 080645Z 28005KT 210V330 CAVOK 30/14 Q1016 NOSIG=
200807080630 METAR LMML NIL=
200807080615 METAR LMML 080615Z VRB02KT CAVOK 28/16 Q1016 NOSIG=
200807080600 METAR LMML NIL=
200807080545 METAR LMML 080545Z 30008KT 210V340 CAVOK 26/23 Q1016 NOSIG=
200807080530 METAR LMML NIL=
200807080515 METAR LMML 080515Z 20005KT 160V240 CAVOK 25/25 Q1014 NOSIG=
200807080500 METAR LMML NIL=
200807080445 METAR LMML 080445Z 19005KT 160V230 CAVOK 25/25 Q1014 NOSIG=
200807080430 METAR LMML NIL=
200807080415 METAR LMML 080415Z 19006KT 170V230 CAVOK 25/25 Q1014 NOSIG=
200807080400 METAR LMML NIL=
200807080345 METAR LMML 080345Z 20005KT 170V230 8000 SKC 25/25 Q1014 NOSIG=
200807080330 METAR LMML NIL=
200807080315 METAR LMML 080315Z 20004KT 140V260 7000 SKC 25/25 Q1014 NOSIG=
200807080300 METAR LMML NIL=
200807080245 METAR LMML 080245Z 19004KT 170V230 6000 FEW003 25/25 Q1014
                        TEMPO 3000 BR=
200807080230 METAR LMML NIL=
200807080215 METAR LMML 080215Z 18004KT 6000 FEW003 25/25 Q1014 TEMPO
                        3000 BR=
200807080200 METAR LMML NIL=
200807080145 METAR LMML 080145Z 18004KT 160V220 4000 BR BKN002 25/25 Q1015
                        TEMPO 3000 BR=
200807080130 METAR LMML NIL=
200807080115 METAR LMML 080115Z 18005KT 4000 BR BKN002 25/25 Q1015 TEMPO
                        3000 BR=
200807080100 METAR LMML NIL=
200807080045 METAR LMML 080045Z 18004KT 150V210 4000 BR BKN002 25/25 Q1015
                        TEMPO 3000 BR=
200807080030 LMML NIL=
200807080015 METAR LMML 080015Z 19004KT 160V230 4000 BR BKN002 25/25 Q1015
                        TEMPO 3000 BR=
200807080000 METAR LMML NIL=
200807072345 METAR LMML 072345Z 18006KT 6000 SCT002 25/25 Q1015 TEMPO
                        5000 BR BKN002=
200807072330 LMML NIL=
200807072315 METAR LMML 072315Z 19004KT 160V220 6000 FEW003 25/25 Q1016
                        TEMPO 5000 BR SCT003=
200807072300 METAR LMML NIL=
200807072245 METAR LMML 072245Z 17004KT 6000 FEW003 25/25 Q1016 TEMPO
                        5000 BR SCT003=
200807072230 METAR LMML NIL=
200807072215 METAR LMML 072215Z 17004KT 6000 FEW003 25/25 Q1016 TEMPO
                        5000 BR BKN003=
200807072200 METAR LMML NIL=
200807072145 METAR LMML 072145Z VRB03KT 6000 BKN003 25/25 Q1016 TEMPO
                        5000 BR BKN003=
200807072130 METAR LMML NIL=
200807072115 LMML 072115Z 18005KT 150V210 7000 FEW003 25/25 Q1016 TEMPO
                        5000 BR BKN003=
200807072100 METAR LMML NIL=
200807072045 METAR LMML 072045Z 17005KT 140V200 7000 FEW004 25/25 Q1016
                        TEMPO 5000 BR BKN004=
200807072030 LMML NIL=
200807072015 METAR LMML 072015Z 16005KT 9999 FEW004 25/25 Q1016 TEMPO
                        9000 BKN004=
200807071945 METAR LMML 071945Z VRB03KT CAVOK 25/25 Q1016 NOSIG=
200807071930 METAR LMML NIL=
200807071915 METAR LMML 071915Z 17004KT CAVOK 26/24 Q1015 NOSIG=
200807071900 METAR LMML NIL=
200807071845 METAR LMML 071845Z VRB03KT CAVOK 26/23 Q1015 NOSIG=
200807071830 METAR LMML NIL=
200807071815 METAR LMML 071815Z VRB01KT CAVOK 27/21 Q1015 NOSIG=
200807071800 METAR LMML NIL=
200807071745 METAR LMML 071745Z VRB03KT CAVOK 27/21 Q1015 NOSIG=
200807071730 METAR LMML NIL=
200807071715 METAR LMML 071715Z 20005KT 170V230 CAVOK 28/20 Q1015 NOSIG=
200807071700 METAR LMML NIL=
200807071645 METAR LMML 071645Z 21005KT 160V260 CAVOK 28/20 Q1015 NOSIG=
200807071630 METAR LMML NIL=
200807071615 METAR LMML 071615Z 21006KT 170V250 CAVOK 29/19 Q1015 NOSIG=
200807071600 METAR LMML NIL=
200807071545 METAR LMML 071545Z 22005KT 150V280 CAVOK 29/18 Q1015 NOSIG=
200807071530 METAR LMML NIL=
200807071515 METAR LMML 071515Z 22007KT 170V260 CAVOK 29/19 Q1015 NOSIG=
200807071500 METAR LMML NIL=
200807071445 METAR LMML 071445Z 20009KT 170V230 CAVOK 28/20 Q1016 NOSIG=
200807071430 METAR LMML NIL=
200807071415 METAR LMML 071415Z 20008KT 150V270 CAVOK 30/20 Q1015 NOSIG=
200807071400 METAR LMML NIL=
200807071345 METAR LMML 071345Z 20010KT 150V230 CAVOK 29/20 Q1016 NOSIG=
200807071330 METAR LMML NIL=
200807071315 METAR LMML 071315Z 19010KT 150V230 CAVOK 29/20 Q1016 NOSIG=
200807071300 METAR LMML NIL=
200807071245 METAR LMML 071245Z 19009KT 160V240 CAVOK 29/19 Q1016 NOSIG=
200807071230 METAR LMML NIL=
200807071215 METAR LMML 071215Z 20008KT 160V240 CAVOK 29/20 Q1016 NOSIG=
200807071200 METAR LMML NIL=
200807071145 METAR LMML 071145Z 20009KT 160V230 CAVOK 29/22 Q1016 NOSIG=
200807071130 METAR LMML NIL=
200807071115 METAR LMML 071115Z 19009KT 150V240 CAVOK 29/21 Q1016 NOSIG=
200807071100 METAR LMML NIL=
200807071045 METAR LMML 071045Z 18008KT 150V230 CAVOK 29/18 Q1016 NOSIG=
200807071030 METAR LMML NIL=
200807071015 METAR LMML 071015Z 17009KT 130V220 CAVOK 29/20 Q1015 NOSIG=
200807071000 METAR LMML NIL=
200807070945 METAR LMML 070945Z 17009KT CAVOK 29/19 Q1015 NOSIG=
200807070930 METAR LMML NIL=
200807070915 METAR LMML 070915Z 17007KT 120V210 CAVOK 29/19 Q1015 NOSIG=
200807070900 METAR LMML NIL=
200807070845 METAR LMML 070845Z 18006KT 120V230 CAVOK 29/20 Q1016 NOSIG=
200807070830 METAR LMML NIL=
200807070815 METAR LMML 070815Z 18006KT 150V220 CAVOK 28/20 Q1016 NOSIG=
200807070800 METAR LMML NIL=
200807070745 METAR LMML 070745Z 18005KT 130V220 9999 FEW012 27/21 Q1015
                        NOSIG=
200807070730 METAR LMML NIL=
200807070715 METAR LMML 070715Z 17007KT 130V210 9999 FEW012 27/24 Q1015
                        NOSIG=
200807070700 METAR LMML NIL=
200807070645 METAR LMML 070645Z 19004KT 160V230 CAVOK 26/23 Q1016 BECMG
                        CAVOK=
200807070630 METAR LMML NIL=
200807070615 METAR LMML 070615Z VRB03KT 9000 SKC 25/24 Q1016 BECMG CAVOK=
200807070600 METAR LMML NIL=
200807070545 METAR LMML 070545Z VRB02KT 6000 SKC 24/24 Q1016 BECMG CAVOK=
200807070530 METAR LMML NIL=
200807070515 METAR LMML 070515Z VRB03KT 6000 SKC 23/23 Q1015 BECMG CAVOK=
200807070500 METAR LMML NIL=
200807070445 METAR LMML 070445Z VRB01KT 9000 SKC 22/22 Q1015 BECMG CAVOK=
200807070430 METAR LMML NIL=
200807070415 METAR LMML 070415Z VRB02KT 9000 SKC 23/23 Q1015 BECMG CAVOK=
200807070400 METAR LMML NIL=
200807070345 METAR LMML 070345Z VRB02KT CAVOK 23/22 Q1014 TEMPO 9000 SKC=
200807070330 METAR LMML NIL=
200807070315 METAR LMML 070315Z VRB01KT CAVOK 22/22 Q1014 TEMPO 9000 SKC=
200807070300 METAR LMML NIL=
200807070245 METAR LMML 070245Z VRB03KT CAVOK 23/21 Q1014 TEMPO 9000 SKC=
200807070230 METAR LMML NIL=
200807070215 METAR LMML 070215Z VRB02KT CAVOK 22/22 Q1014 NOSIG=
200807070200 METAR LMML NIL=
200807070145 METAR LMML 070145Z VRB01KT CAVOK 22/21 Q1014 NOSIG=
200807070130 METAR LMML NIL=
200807070115 METAR LMML 070115Z VRB01KT CAVOK 22/21 Q1014 NOSIG=
200807070100 METAR LMML NIL=
200807070045 METAR LMML 070045Z VRB02KT CAVOK 22/21 Q1014 NOSIG=
200807070030 METAR LMML NIL=
200807070015 METAR LMML 070015Z VRB01KT CAVOK 22/21 Q1014 NOSIG=
200807070000 METAR LMML NIL=
200807062345 METAR LMML 062345Z 00000KT CAVOK 23/21 Q1014 NOSIG=
200807062330 METAR LMML NIL=
200807062315 METAR LMML 062315Z 00000KT CAVOK 23/21 Q1014 NOSIG=
200807062300 METAR LMML NIL=
200807062245 METAR LMML 062245Z VRB02KT CAVOK 23/21 Q1015 NOSIG=
200807062230 METAR LMML NIL=
200807062215 METAR LMML 062215Z VRB02KT CAVOK 23/21 Q1015 NOSIG=
200807062200 METAR LMML NIL=
200807062145 METAR LMML 062145Z VRB01KT CAVOK 24/20 Q1015 NOSIG=
200807062130 LMML NIL=
200807062100 METAR LMML NIL=
200807062045 METAR LMML 062045Z VRB01KT CAVOK 24/21 Q1014 NOSIG=
200807062015 METAR LMML 062015Z 13004KT CAVOK 24/22 Q1014 NOSIG=
200807061945 METAR LMML 061945Z VRB03KT CAVOK 25/22 Q1014 NOSIG=
200807061930 METAR LMML NIL=
200807061915 METAR LMML 061915Z VRB03KT CAVOK 25/22 Q1014 NOSIG=
200807061900 METAR LMML NIL=
200807061845 METAR LMML 061845Z VRB03KT CAVOK 25/22 Q1014 NOSIG=
200807061830 METAR LMML NIL=
200807061815 METAR LMML 061815Z VRB02KT CAVOK 25/21 Q1013 NOSIG=
200807061800 METAR LMML NIL=
200807061745 METAR LMML 061745Z 18004KT 120V230 CAVOK 26/21 Q1013 NOSIG=
200807061730 METAR LMML NIL=
200807061715 METAR LMML 061715Z VRB03KT CAVOK 27/21 Q1013 NOSIG=
200807061700 METAR LMML NIL=
200807061645 METAR LMML 061645Z VRB03KT CAVOK 27/21 Q1013 NOSIG=
200807061630 METAR LMML NIL=
200807061615 METAR LMML 061615Z 20004KT 150V260 CAVOK 28/20 Q1013 NOSIG=
200807061600 METAR LMML NIL=
200807061545 METAR LMML 061545Z 13004KT 080V200 CAVOK 29/20 Q1013 NOSIG=
200807061530 METAR LMML NIL=
200807061515 METAR LMML 061515Z VRB03KT CAVOK 30/20 Q1014 NOSIG=
200807061500 METAR LMML NIL=
200807061445 METAR LMML 061445Z VRB03KT CAVOK 30/20 Q1014 NOSIG=
200807061430 METAR LMML NIL=
200807061415 METAR LMML 061415Z 36004KT 310V060 CAVOK 30/20 Q1014 NOSIG=
200807061345 METAR LMML 061345Z 03005KT 340V070 CAVOK 30/19 Q1014 NOSIG=
200807061330 METAR LMML NIL=
200807061315 METAR LMML 061315Z 01004KT 310V070 CAVOK 30/18 Q1014 NOSIG=
200807061300 METAR LMML NIL=
200807061245 METAR LMML 061245Z 02004KT 330V080 CAVOK 31/17 Q1014 NOSIG=
200807061230 METAR LMML NIL=
200807061215 METAR LMML 061215Z 01006KT 320V070 CAVOK 30/17 Q1014 NOSIG=
200807061200 METAR LMML NIL=
200807061145 METAR LMML 061145Z 07005KT 010V140 CAVOK 30/18 Q1014 NOSIG=
200807061130 METAR LMML NIL=
200807061115 METAR LMML 061115Z 04006KT 010V070 CAVOK 30/19 Q1014 NOSIG=
200807061100 METAR LMML NIL=
200807061045 METAR LMML 061045Z 03006KT 340V100 CAVOK 30/20 Q1014 NOSIG=
200807061030 METAR LMML NIL=
200807061015 METAR LMML 061015Z 06007KT 360V110 CAVOK 29/18 Q1014 NOSIG=
200807061000 METAR LMML NIL=
200807060945 METAR LMML 060945Z 02007KT 350V050 CAVOK 29/19 Q1014 NOSIG=
200807060930 METAR LMML NIL=
200807060915 METAR LMML 060915Z 07010KT 040V100 CAVOK 29/16 Q1014 NOSIG=
200807060900 METAR LMML NIL=
200807060845 METAR LMML 060845Z 06009KT 030V090 CAVOK 29/18 Q1014 NOSIG=
200807060830 METAR LMML NIL=
200807060815 METAR LMML 060815Z 06008KT CAVOK 28/18 Q1014 NOSIG=
200807060800 METAR LMML NIL=
200807060745 METAR LMML 060745Z 06008KT 030V090 CAVOK 28/19 Q1014 NOSIG=
200807060730 METAR LMML NIL=
200807060715 METAR LMML 060715Z 07009KT 040V100 9999 FEW011 27/20 Q1014
                        NOSIG=
200807060700 METAR LMML NIL=
200807060645 METAR LMML 060645Z 07009KT 030V100 9999 FEW011 26/22 Q1013
                        NOSIG=
200807060630 METAR LMML NIL=
200807060615 METAR LMML 060615Z 07009KT 040V280 9999 SCT012 25/22 Q1013
                        NOSIG=
200807060600 METAR LMML NIL=
200807060545 METAR LMML 060545Z 07009KT 040V100 9999 FEW009 25/21 Q1013
                        NOSIG=
200807060530 METAR LMML NIL=
200807060515 METAR LMML 060515Z VRB03KT CAVOK 24/24 Q1013 NOSIG=
200807060445 METAR LMML 060445Z VRB03KT CAVOK 23/23 Q1013 NOSIG=
200807060430 METAR LMML NIL=
200807060415 METAR LMML 060415Z VRB02KT CAVOK 22/22 Q1012 NOSIG=
200807060400 METAR LMML NIL=
200807060345 METAR LMML 060345Z VRB02KT CAVOK 22/22 Q1012 NOSIG=
200807060330 METAR LMML NIL=
200807060315 METAR LMML 060315Z VRB01KT CAVOK 22/21 Q1012 TEMPO 9000 FEW011=
200807060300 METAR LMML NIL=
200807060245 METAR LMML 060245Z VRB01KT CAVOK 22/21 Q1012 TEMPO 9000 FEW011=
200807060230 METAR LMML NIL=
200807060215 METAR LMML 060215Z VRB02KT CAVOK 22/21 Q1012 TEMPO 9000 FEW011=
200807060200 METAR LMML NIL=
200807060145 METAR LMML 060145Z VRB01KT CAVOK 22/21 Q1012 TEMPO 9000 FEW011=
200807060130 METAR LMML NIL=
200807060115 METAR LMML 060115Z VRB01KT CAVOK 22/21 Q1012 NOSIG=
200807060100 METAR LMML NIL=
200807060045 METAR LMML 060045Z VRB01KT CAVOK 23/21 Q1012 NOSIG=
200807060030 METAR LMML NIL=
200807060015 METAR LMML 060015Z VRB02KT CAVOK 23/21 Q1012 NOSIG=
200807060000 METAR LMML NIL=
200807052345 METAR LMML 052345Z VRB03KT CAVOK 23/21 Q1012 NOSIG=
200807052330 METAR LMML NIL=
200807052315 METAR LMML 052315Z VRB01KT CAVOK 23/20 Q1012 NOSIG=
200807052300 METAR LMML NIL=
200807052245 METAR LMML 052245Z VRB02KT CAVOK 23/20 Q1013 NOSIG=
200807052230 METAR LMML NIL=
200807052215 METAR LMML 052215Z 28004KT 240V320 CAVOK 24/20 Q1013 NOSIG=
200807052200 METAR LMML NIL=
200807052145 METAR LMML 052145Z VRB03KT CAVOK 23/20 Q1013 NOSIG=
200807052130 METAR LMML NIL=
200807052115 METAR LMML 052115Z VRB03KT CAVOK 23/20 Q1013 NOSIG=
200807052100 METAR LMML NIL=
200807052045 METAR LMML 052045Z 26004KT 200V300 CAVOK 24/21 Q1013 NOSIG=
200807052030 METAR LMML NIL=
200807052015 METAR LMML 052015Z 26004KT 230V290 CAVOK 24/21 Q1013 NOSIG=
200807052000 METAR LMML NIL=
200807051945 METAR LMML 051945Z 28005KT CAVOK 24/21 Q1013 NOSIG=
200807051930 METAR LMML NIL=
200807051915 METAR LMML 051915Z 29004KT 250V310 CAVOK 24/21 Q1013 NOSIG=
200807051900 METAR LMML NIL=
200807051845 METAR LMML 051845Z 28004KT 250V330 CAVOK 24/21 Q1012 NOSIG=
200807051830 METAR LMML NIL=
200807051815 METAR LMML 051815Z 30005KT 270V330 9999 FEW015 24/21 Q1012
                        NOSIG=
200807051800 METAR LMML NIL=
200807051745 METAR LMML 051745Z 30007KT 9999 FEW015 25/21 Q1012 NOSIG=
200807051730 METAR LMML NIL=
200807051715 METAR LMML 051715Z 30012KT 9999 FEW015 26/21 Q1012 NOSIG=
200807051700 METAR LMML NIL=
200807051645 METAR LMML 051645Z 31012KT 280V350 9999 FEW015 26/20 Q1012
                        NOSIG=
200807051630 METAR LMML NIL=
200807051615 METAR LMML 051615Z 31015KT 9999 FEW015 27/19 Q1012 NOSIG=
200807051600 METAR LMML NIL=
200807051545 METAR LMML 051545Z 29014KT 250V310 9999 FEW015 27/20 Q1012
                        NOSIG=
200807051530 METAR LMML NIL=
200807051515 METAR LMML 051515Z 29014KT 9999 FEW015 28/19 Q1012 NOSIG=
200807051500 METAR LMML NIL=
200807051445 METAR LMML 051445Z 29013KT 250V320 9999 FEW015 28/18 Q1013
                        NOSIG=
200807051430 METAR LMML NIL=
200807051415 METAR LMML 051415Z 30013KT 250V330 9999 FEW012 29/18 Q1013
                        NOSIG=
200807051345 METAR LMML 051345Z 29012KT 250V330 9999 FEW015 29/19 Q1013
                        NOSIG=
200807051330 METAR LMML NIL=
200807051315 METAR LMML 051315Z 30013KT 260V330 9999 FEW015 29/19 Q1013
                        NOSIG=
200807051300 METAR LMML NIL=
200807051245 METAR LMML 051245Z 29013KT 250V330 9999 FEW015 29/19 Q1013
                        NOSIG=
200807051230 METAR LMML NIL=
200807051215 METAR LMML 051215Z 29014KT 240V330 9999 FEW015 29/19 Q1013
                        NOSIG=
200807051200 METAR LMML NIL=
200807051145 METAR LMML 051145Z 28013KT 9999 FEW012 29/15 Q1013 NOSIG=
200807051130 METAR LMML NIL=
200807051115 METAR LMML 051115Z 30015KT 270V330 9999 FEW012 30/15 Q1013
                        NOSIG=
200807051100 METAR LMML NIL=
200807051045 METAR LMML 051045Z 29013KT 250V320 9999 FEW012 30/12 Q1013
                        NOSIG=
200807051030 METAR LMML NIL=
200807051015 LMML 051015Z 31012KT 280V340 9999 FEW012 29/16 Q1014 NOSIG=
200807051000 METAR LMML NIL=
200807050945 METAR LMML 050945Z 31014KT 280V340 9999 FEW012 28/17 Q1013
                        NOSIG=
200807050930 METAR LMML NIL=
200807050915 METAR LMML 050915Z 30013KT 9999 FEW012 28/16 Q1014 NOSIG=
200807050900 METAR LMML NIL=
200807050845 METAR LMML 050845Z 29011KT 250V330 9999 FEW012 28/16 Q1014
                        NOSIG=
200807050830 METAR LMML NIL=
200807050815 METAR LMML 050815Z 29011KT 260V320 9999 FEW012 28/16 Q1013
                        NOSIG=
200807050800 METAR LMML NIL=
200807050745 METAR LMML 050745Z 31012KT 250V330 9999 FEW012 28/17 Q1013
                        NOSIG=
200807050730 METAR LMML NIL=
200807050715 METAR LMML 050715Z 30013KT 9999 FEW012 26/19 Q1013 NOSIG=
200807050700 METAR LMML NIL=
200807050645 METAR LMML 050645Z 30013KT 9999 FEW012 26/20 Q1014 NOSIG=
200807050630 METAR LMML NIL=
200807050615 METAR LMML 050615Z 30010KT 270V330 9999 FEW012 26/21 Q1013
                        NOSIG=
200807050600 METAR LMML NIL=
200807050545 METAR LMML 050545Z 31012KT 9999 FEW012 25/21 Q1013 NOSIG=
200807050530 METAR LMML NIL=
200807050515 METAR LMML 050515Z 30011KT 9999 FEW009 24/22 Q1013 NOSIG=
200807050445 METAR LMML 050445Z 30008KT 9000 FEW009 23/22 Q1013 NOSIG=
200807050430 METAR LMML NIL=
200807050415 METAR LMML 050415Z 30008KT 270V330 9000 FEW009 23/22 Q1013
                        NOSIG=
200807050400 METAR LMML NIL=
200807050345 METAR LMML 050345Z 30009KT 270V330 9000 FEW009 23/22 Q1013
                        TEMPO 8000 SCT005=
200807050330 METAR LMML NIL=
200807050315 METAR LMML 050315Z 29010KT 260V330 9000 FEW009 23/22 Q1013
                        TEMPO 8000 SCT005=
200807050300 METAR LMML NIL=
200807050245 METAR LMML 050245Z 30008KT 250V330 9000 FEW009 23/22 Q1013
                        TEMPO 8000 SCT005=
200807050230 METAR LMML NIL=
200807050215 METAR LMML 050215Z 30008KT 260V330 9000 FEW009 23/22 Q1013
                        TEMPO 8000 SCT005=
200807050200 METAR LMML NIL=
200807050145 METAR LMML 050145Z 32006KT 280V350 9000 FEW009 23/22 Q1013
                        TEMPO 8000 SCT005=
200807050115 METAR LMML 050115Z 31007KT 270V340 9000 FEW008 24/22 Q1013
                        TEMPO 8000 SCT005=
200807050100 METAR LMML NIL=
200807050045 METAR LMML 050045Z 31006KT 270V330 CAVOK 24/22 Q1013 TEMPO
                        9999 FEW005=
200807050030 METAR LMML NIL=
200807050015 METAR LMML 050015Z 31006KT CAVOK 24/22 Q1014 TEMPO 9999 FEW005=
200807050000 METAR LMML NIL=
200807042345 METAR LMML 042345Z 29005KT 260V320 CAVOK 24/22 Q1014 TEMPO
                        9999 FEW005=
200807042330 METAR LMML NIL=
200807042315 METAR LMML 042315Z 29007KT CAVOK 24/22 Q1014 TEMPO 9999 FEW005=
200807042300 METAR LMML NIL=
200807042245 METAR LMML 042245Z 29007KT CAVOK 25/23 Q1014 NOSIG=
200807042230 METAR LMML NIL=
200807042215 METAR LMML 042215Z 28006KT 240V310 CAVOK 25/23 Q1014 NOSIG=
200807042200 METAR LMML NIL=
200807042145 METAR LMML 042145Z 28006KT CAVOK 25/21 Q1014 NOSIG=
200807042115 METAR LMML 042115Z 26008KT 220V300 CAVOK 26/21 Q1014 NOSIG=
200807042100 METAR LMML NIL=
200807042045 METAR LMML 042045Z 26008KT CAVOK 26/22 Q1014 NOSIG=
200807042030 METAR LMML NIL=
200807042015 METAR LMML 042015Z 26007KT 230V290 CAVOK 26/22 Q1014 NOSIG=
200807042000 METAR LMML NIL=
200807041945 METAR LMML 041945Z 25005KT 220V300 CAVOK 26/22 Q1014 NOSIG=
200807041930 METAR LMML NIL=
200807041915 METAR LMML 041915Z VRB03KT CAVOK 26/22 Q1014 NOSIG=
200807041900 METAR LMML NIL=
200807041845 METAR LMML 041845Z 24005KT 210V280 CAVOK 26/22 Q1014 NOSIG=
200807041815 METAR LMML 041815Z 24006KT 200V280 CAVOK 26/22 Q1014 NOSIG=
200807041800 METAR LMML NIL=
200807041745 METAR LMML 041745Z 23005KT 190V270 CAVOK 27/21 Q1014 NOSIG=
200807041730 METAR LMML NIL=
200807041715 METAR LMML 041715Z 23005KT 190V280 CAVOK 28/20 Q1014 NOSIG=
200807041700 LMML NIL=
200807041645 LMML 041645Z 24006KT 200V290 CAVOK 28/19 Q1014 NOSIG=
200807041630 METAR LMML NIL=
200807041615 METAR LMML 041615Z 22006KT 180V270 CAVOK 29/19 Q1014 NOSIG=
200807041600 METAR LMML NIL=
200807041545 METAR LMML 041545Z 24005KT 190V290 CAVOK 30/17 Q1014 NOSIG=
200807041530 METAR LMML NIL=
200807041515 METAR LMML 041515Z 23006KT 190V270 CAVOK 30/14 Q1014 NOSIG=
200807041500 METAR LMML NIL=
200807041445 METAR LMML 041445Z 23006KT 190V280 CAVOK 31/14 Q1014 NOSIG=
200807041430 METAR LMML NIL=
200807041415 METAR LMML 041415Z 27007KT 200V310 CAVOK 33/09 Q1015 NOSIG=
200807041400 METAR LMML NIL=
200807041345 METAR LMML 041345Z 27007KT 210V310 CAVOK 33/08 Q1015 NOSIG=
200807041330 METAR LMML NIL=
200807041315 METAR LMML 041315Z 22007KT 190V270 CAVOK 31/13 Q1015 NOSIG=
200807041245 METAR LMML 041245Z 22008KT 190V250 CAVOK 31/13 Q1015 NOSIG=
200807041230 METAR LMML NIL=
200807041215 METAR LMML 041215Z 22007KT 180V250 CAVOK 31/14 Q1015 NOSIG=
200807041200 METAR LMML NIL=
200807041130 METAR LMML NIL=
200807041115 METAR LMML 041115Z 23007KT 210V290 CAVOK 31/11 Q1015 NOSIG=
200807041100 METAR LMML NIL=
200807041045 METAR LMML 041045Z 22008KT 180V270 CAVOK 32/12 Q1015 NOSIG=
200807041030 METAR LMML NIL=
200807041015 METAR LMML 041015Z 24005KT 200V340 CAVOK 33/04 Q1015 NOSIG=
200807041000 METAR LMML NIL=
200807040945 METAR LMML 040945Z 30006KT 260V340 CAVOK 32/08 Q1015 NOSIG=
200807040930 METAR LMML NIL=
200807040915 METAR LMML 040915Z 28006KT 190V320 CAVOK 32/06 Q1015 NOSIG=
200807040900 METAR LMML NIL=
200807040845 METAR LMML 040845Z 22006KT 190V290 CAVOK 32/08 Q1015 NOSIG=
200807040830 METAR LMML NIL=
200807040815 METAR LMML 040815Z 26005KT 190V350 CAVOK 32/03 Q1015 NOSIG=
200807040745 METAR LMML 040745Z 27005KT 210V310 CAVOK 31/06 Q1015 NOSIG=
200807040730 METAR LMML NIL=
200807040715 METAR LMML 040715Z 24004KT 180V310 CAVOK 29/13 Q1015 NOSIG=
200807040700 METAR LMML NIL=
200807040645 METAR LMML 040645Z VRB03KT CAVOK 29/13 Q1015 NOSIG=
200807040630 METAR LMML NIL=
200807040615 METAR LMML 040615Z 27005KT 220V310 CAVOK 28/13 Q1015 NOSIG=
200807040600 METAR LMML NIL=
200807040545 METAR LMML 040545Z 24006KT 210V270 CAVOK 27/15 Q1014 NOSIG=
200807040515 METAR LMML 040515Z 24004KT 210V270 CAVOK 26/18 Q1014 NOSIG=
200807040500 METAR LMML NIL=
200807040445 METAR LMML 040445Z VRB03KT CAVOK 25/15 Q1014 NOSIG=
200807040430 METAR LMML NIL=
200807040415 METAR LMML 040415Z VRB03KT CAVOK 24/14 Q1014 NOSIG=
200807040345 METAR LMML 040345Z VRB03KT CAVOK 23/17 Q1014 NOSIG=
200807040315 METAR LMML 040315Z 25004KT CAVOK 24/21 Q1014 NOSIG=
200807040300 METAR LMML NIL=
200807040245 METAR LMML 040245Z 24005KT CAVOK 24/19 Q1014 NOSIG=
200807040230 METAR LMML NIL=
200807040215 METAR LMML 040215Z 24005KT 210V270 CAVOK 24/17 Q1014 NOSIG=
200807040200 METAR LMML NIL=
200807040145 METAR LMML 040145Z 23005KT 210V270 CAVOK 24/19 Q1014 NOSIG=
200807040130 METAR LMML NIL=
200807040115 METAR LMML 040115Z 23006KT 200V280 CAVOK 24/19 Q1014 NOSIG=
200807040100 METAR LMML NIL=
200807040045 METAR LMML 040045Z 23005KT 200V260 CAVOK 24/19 Q1014 NOSIG=
200807040030 METAR LMML NIL=
200807040015 METAR LMML 040015Z VRB03KT CAVOK 24/19 Q1014 NOSIG=
200807040000 METAR LMML NIL=
200807032345 METAR LMML 032345Z VRB03KT CAVOK 24/20 Q1014 NOSIG=
200807032330 METAR LMML NIL=
200807032315 METAR LMML 032315Z VRB03KT CAVOK 24/19 Q1015 NOSIG=
200807032300 METAR LMML NIL=
200807032245 METAR LMML 032245Z 21004KT CAVOK 25/16 Q1015 NOSIG=
200807032230 METAR LMML NIL=
200807032215 METAR LMML 032215Z VRB01KT CAVOK 24/15 Q1015 NOSIG=
200807032200 METAR LMML NIL=
200807032145 METAR LMML 032145Z VRB02KT CAVOK 24/14 Q1015 NOSIG=
200807032130 METAR LMML NIL=
200807032115 METAR LMML 032115Z VRB03KT CAVOK 25/13 Q1015 NOSIG=
200807032100 METAR LMML NIL=
200807032045 METAR LMML 032045Z 00000KT CAVOK 25/13 Q1015 NOSIG=
200807032030 METAR LMML NIL=
200807031945 METAR LMML 031945Z VRB01KT CAVOK 26/13 Q1015 NOSIG=
200807031930 METAR LMML NIL=
200807031915 METAR LMML 031915Z VRB03KT CAVOK 26/14 Q1014 NOSIG=
200807031900 METAR LMML NIL=
200807031845 METAR LMML 031845Z VRB02KT CAVOK 26/14 Q1014 NOSIG=
200807031830 METAR LMML NIL=
200807031815 METAR LMML 031815Z 29006KT CAVOK 27/13 Q1014 NOSIG=
200807031800 METAR LMML NIL=
200807031745 METAR LMML 031745Z 28008KT CAVOK 29/10 Q1014 NOSIG=
200807031730 METAR LMML NIL=
200807031715 METAR LMML 031715Z 30004KT 240V010 CAVOK 31/09 Q1014 NOSIG=
200807031700 METAR LMML NIL=
200807031645 METAR LMML 031645Z VRB02KT CAVOK 31/16 Q1014 NOSIG=
200807031630 METAR LMML NIL=
200807031615 METAR LMML 031615Z VRB02KT CAVOK 33/05 Q1014 NOSIG=
200807031600 METAR LMML NIL=
200807031545 METAR LMML 031545Z VRB03KT CAVOK 32/07 Q1014 NOSIG=
200807031530 METAR LMML NIL=
200807031515 METAR LMML 031515Z 30004KT 250V020 CAVOK 33/08 Q1014 NOSIG=
200807031500 METAR LMML NIL=
200807031445 METAR LMML 031445Z 32006KT 280V020 CAVOK 33/07 Q1014 NOSIG=
200807031430 METAR LMML NIL=
200807031415 METAR LMML 031415Z 35004KT 190V110 CAVOK 33/10 Q1014 NOSIG=
200807031400 METAR LMML NIL=
200807031345 METAR LMML 031345Z 03004KT 280V130 CAVOK 33/11 Q1014 NOSIG=
200807031330 METAR LMML NIL=
200807031315 METAR LMML 031315Z 09007KT 050V140 CAVOK 31/17 Q1014 NOSIG=
200807031245 METAR LMML 031245Z 11007KT 080V150 CAVOK 31/17 Q1014 NOSIG=
200807031215 METAR LMML 031215Z 12007KT 060V210 CAVOK 32/17 Q1014 NOSIG=
200807031200 METAR LMML NIL=
200807031145 METAR LMML 031145Z 06007KT 310V110 CAVOK 33/16 Q1014 NOSIG=
200807031130 METAR LMML NIL=
200807031115 METAR LMML 031115Z 08007G20KT 030V150 CAVOK 33/15 Q1015 NOSIG=
200807031100 METAR LMML NIL=
200807031045 METAR LMML 031045Z 24005KT 200V300 CAVOK 31/18 Q1015 NOSIG=
200807031030 METAR LMML NIL=
200807031015 METAR LMML 031015Z 22006KT 160V270 CAVOK 30/19 Q1015 NOSIG=
200807030945 METAR LMML 030945Z 19006KT 150V230 CAVOK 30/20 Q1015 NOSIG=
200807030930 METAR LMML NIL=
200807030915 METAR LMML 030915Z VRB03KT CAVOK 31/12 Q1015 NOSIG=
200807030900 LMML NIL=
200807030845 LMML 030845Z 22005KT CAVOK 31/14 Q1015 NOSIG=
200807030830 METAR LMML NIL=
200807030815 METAR LMML 030815Z VRB02KT CAVOK 30/19 Q1014 NOSIG=
200807030800 METAR LMML NIL=
200807030745 METAR LMML 030745Z VRB02KT CAVOK 30/20 Q1014 NOSIG=
200807030715 METAR LMML 030715Z VRB02KT CAVOK 29/18 Q1014 NOSIG=
200807030700 METAR LMML NIL=
200807030645 METAR LMML 030645Z VRB03KT CAVOK 27/19 Q1014 NOSIG=
200807030630 METAR LMML NIL=
200807030615 METAR LMML 030615Z 33004KT 300V360 CAVOK 27/20 Q1014 NOSIG=
200807030600 METAR LMML NIL=
200807030545 METAR LMML 030545Z 33004KT 290V350 8000 SKC 25/21 Q1014 BECMG
                        CAVOK=
200807030530 METAR LMML NIL=
200807030515 METAR LMML 030515Z 30004KT 8000 SKC 24/22 Q1014 BECMG CAVOK=
200807030500 METAR LMML NIL=
200807030445 METAR LMML 030445Z VRB03KT 9000 SKC 24/20 Q1014 NOSIG=
200807030430 METAR LMML NIL=
200807030415 METAR LMML 030415Z 26004KT 9000 SKC 23/20 Q1014 NOSIG=
200807030400 METAR LMML NIL=
200807030345 METAR LMML 030345Z VRB01KT 7000 SKC 23/22 Q1013 NOSIG=
200807030330 METAR LMML NIL=
200807030315 METAR LMML 030315Z VRB02KT 9000 FEW130 23/21 Q1013 TEMPO
                        7000=
200807030300 METAR LMML NIL=
200807030245 METAR LMML 030245Z 29004KT 9000 SKC 23/21 Q1013 NOSIG=
200807030230 METAR LMML NIL=
200807030215 METAR LMML 030215Z VRB02KT 9000 SKC 23/22 Q1013 NOSIG=
200807030200 METAR LMML NIL=
200807030145 METAR LMML 030145Z VRB03KT 9000 SKC 24/23 Q1013 NOSIG=
200807030130 METAR LMML NIL=
200807030115 METAR LMML 030115Z VRB02KT 9000 SKC 24/21 Q1013 NOSIG=
200807030100 METAR LMML NIL=
200807030045 METAR LMML 030045Z VRB02KT 9000 SKC 24/22 Q1014 NOSIG=
200807030030 METAR LMML NIL=
200807030015 METAR LMML 030015Z VRB02KT 9000 SKC 24/22 Q1014 NOSIG=
200807030000 METAR LMML NIL=
200807022345 METAR LMML 022345Z VRB03KT CAVOK 24/22 Q1014 NOSIG=
200807022330 METAR LMML NIL=
200807022315 METAR LMML 022315Z VRB03KT CAVOK 24/21 Q1014 NOSIG=
200807022300 METAR LMML NIL=
200807022245 METAR LMML 022245Z VRB03KT CAVOK 25/21 Q1014 NOSIG=
200807022230 METAR LMML NIL=
200807022215 METAR LMML 022215Z VRB02KT CAVOK 25/21 Q1014 NOSIG=
200807022200 METAR LMML NIL=
200807022145 METAR LMML 022145Z VRB03KT CAVOK 25/21 Q1014 NOSIG=
200807022130 METAR LMML NIL=
200807022115 METAR LMML 022115Z 32004KT CAVOK 25/20 Q1014 NOSIG=
200807022100 METAR LMML NIL=
200807022045 METAR LMML 022045Z VRB03KT CAVOK 26/21 Q1014 NOSIG=
200807022030 METAR LMML NIL=
200807022015 METAR LMML 022015Z VRB03KT CAVOK 26/21 Q1014 NOSIG=
200807022000 METAR LMML NIL=
200807021945 METAR LMML 021945Z VRB02KT CAVOK 26/21 Q1014 NOSIG=
200807021930 METAR LMML NIL=
200807021915 METAR LMML 021915Z VRB02KT CAVOK 27/21 Q1014 NOSIG=
200807021900 METAR LMML NIL=
200807021845 METAR LMML 021845Z VRB03KT CAVOK 27/21 Q1014 NOSIG=
200807021830 METAR LMML NIL=
200807021815 METAR LMML 021815Z 35004KT 180V040 CAVOK 27/20 Q1013 NOSIG=
200807021800 METAR LMML NIL=
200807021745 METAR LMML 021745Z VRB03KT CAVOK 27/20 Q1013 NOSIG=
200807021730 METAR LMML NIL=
200807021715 METAR LMML 021715Z VRB03KT CAVOK 28/20 Q1013 NOSIG=
200807021700 METAR LMML NIL=
200807021645 METAR LMML 021645Z VRB03KT CAVOK 28/18 Q1013 NOSIG=
200807021630 METAR LMML NIL=
200807021615 METAR LMML 021615Z 20005KT 160V270 CAVOK 28/19 Q1013 NOSIG=
200807021600 METAR LMML NIL=
200807021545 METAR LMML 021545Z 18006KT 160V230 9999 FEW040 29/19 Q1013
                        NOSIG=
200807021530 METAR LMML NIL=
200807021515 METAR LMML 021515Z 15005KT 070V230 CAVOK 30/19 Q1013 NOSIG=
200807021500 METAR LMML NIL=
200807021445 METAR LMML 021445Z VRB02KT CAVOK 30/19 Q1013 NOSIG=
200807021430 METAR LMML NIL=
200807021415 METAR LMML 021415Z 12005KT 060V170 CAVOK 30/19 Q1013 NOSIG=
200807021400 METAR LMML NIL=
200807021345 METAR LMML 021345Z 14004KT 080V220 CAVOK 30/19 Q1013 NOSIG
                        RMK DISTANT CU TOPS TO NNE=
200807021330 METAR LMML NIL=
200807021315 METAR LMML 021315Z 14005KT 070V340 9999 FEW040 30/19 Q1014
                        NOSIG=
200807021245 METAR LMML 021245Z 13006KT 040V200 9999 FEW040 30/18 Q1014
                        NOSIG=
200807021230 METAR LMML NIL=
200807021215 METAR LMML 021215Z 08005KT 010V140 CAVOK 31/18 Q1014 NOSIG=
200807021200 METAR LMML NIL=
200807021145 METAR LMML 021145Z 10005KT 050V170 CAVOK 30/17 Q1014 NOSIG=
200807021115 METAR LMML 021115Z 08006KT 340V170 CAVOK 31/17 Q1014 NOSIG=
200807021100 METAR LMML NIL=
200807021045 METAR LMML 021045Z 10006KT 010V140 CAVOK 31/17 Q1014 NOSIG=
200807021030 METAR LMML NIL=
200807021015 METAR LMML 021015Z 08005KT 030V180 CAVOK 30/16 Q1014 NOSIG=
200807021000 METAR LMML NIL=
200807020945 METAR LMML 020945Z 08007KT 030V140 CAVOK 31/17 Q1014 NOSIG=
200807020930 METAR LMML NIL=
200807020915 METAR LMML 020915Z 09006KT 040V150 CAVOK 30/16 Q1015 NOSIG=
200807020900 METAR LMML NIL=
200807020845 METAR LMML 020845Z VRB03KT 9999 FEW035 30/17 Q1014 NOSIG=
200807020830 METAR LMML NIL=
200807020815 METAR LMML 020815Z 02004KT 330V090 9999 FEW035 29/21 Q1015
                        NOSIG=
200807020800 METAR LMML NIL=
200807020745 METAR LMML 020745Z 03004KT 340V080 CAVOK 29/21 Q1015 NOSIG=
200807020730 METAR LMML NIL=
200807020715 METAR LMML 020715Z VRB03KT CAVOK 28/19 Q1015 NOSIG=
200807020700 METAR LMML NIL=
200807020645 METAR LMML 020645Z VRB01KT 9000 FEW090 27/19 Q1014 NOSIG=
200807020630 METAR LMML NIL=
200807020615 METAR LMML 020615Z VRB01KT 9000 FEW100 26/20 Q1014 NOSIG=
200807020600 METAR LMML NIL=
200807020545 METAR LMML 020545Z VRB02KT 9000 FEW100 25/21 Q1014 NOSIG=
200807020530 METAR LMML NIL=
200807020515 METAR LMML 020515Z VRB03KT 9000 FEW100 24/20 Q1013 NOSIG=
200807020500 METAR LMML NIL=
200807020445 METAR LMML 020445Z VRB03KT CAVOK 23/18 Q1013 NOSIG=
200807020430 METAR LMML NIL=
200807020415 METAR LMML 020415Z VRB03KT CAVOK 23/17 Q1013 NOSIG=
200807020400 METAR LMML NIL=
200807020345 METAR LMML 020345Z 32004KT CAVOK 23/15 Q1013 NOSIG=
200807020330 METAR LMML NIL=
200807020315 METAR LMML 020315Z 33004KT CAVOK 23/13 Q1013 NOSIG=
200807020300 METAR LMML NIL=
200807020245 METAR LMML 020245Z VRB03KT CAVOK 23/13 Q1013 NOSIG=
200807020230 METAR LMML NIL=
200807020215 METAR LMML 020215Z 32005KT CAVOK 23/11 Q1013 NOSIG=
200807020200 METAR LMML NIL=
200807020145 METAR LMML 020145Z VRB03KT CAVOK 23/10 Q1013 NOSIG=
200807020130 METAR LMML NIL=
200807020115 METAR LMML 020115Z VRB02KT CAVOK 23/12 Q1013 NOSIG=
200807020100 METAR LMML NIL=
200807020045 METAR LMML 020045Z VRB02KT CAVOK 23/15 Q1013 NOSIG=
200807020030 METAR LMML NIL=
200807020015 METAR LMML 020015Z VRB02KT CAVOK 23/14 Q1014 NOSIG=
200807020000 METAR LMML NIL=
200807012345 METAR LMML 012345Z VRB03KT CAVOK 24/14 Q1014 NOSIG=
200807012330 METAR LMML NIL=
200807012315 METAR LMML 012315Z VRB01KT CAVOK 24/14 Q1014 NOSIG=
200807012300 METAR LMML NIL=
200807012245 METAR LMML 012245Z 00000KT CAVOK 24/17 Q1014 NOSIG=
200807012230 METAR LMML NIL=
200807012215 METAR LMML 012215Z VRB01KT CAVOK 24/17 Q1014 NOSIG=
200807012200 METAR LMML NIL=
200807012145 METAR LMML 012145Z VRB02KT CAVOK 24/18 Q1014 NOSIG=
200807012130 METAR LMML NIL=
200807012115 METAR LMML 012115Z VRB01KT CAVOK 25/20 Q1015 NOSIG=
200807012100 METAR LMML NIL=
200807012045 METAR LMML 012045Z VRB02KT CAVOK 25/20 Q1015 NOSIG=
200807012030 METAR LMML NIL=
200807012015 METAR LMML 012015Z VRB02KT CAVOK 26/20 Q1014 NOSIG=
200807012000 METAR LMML NIL=
200807011945 METAR LMML 011945Z VRB02KT CAVOK 25/21 Q1014 NOSIG=
200807011930 METAR LMML NIL=
200807011915 METAR LMML 011915Z VRB02KT CAVOK 26/21 Q1014 NOSIG=
200807011900 METAR LMML NIL=
200807011845 METAR LMML 011845Z VRB03KT CAVOK 26/22 Q1013 NOSIG=
200807011815 METAR LMML 011815Z 35008KT 320V020 CAVOK 28/21 Q1013 NOSIG=
200807011800 METAR LMML NIL=
200807011745 METAR LMML 011745Z 34005KT CAVOK 30/12 Q1013 NOSIG=
200807011730 METAR LMML NIL=
200807011715 METAR LMML 011715Z 33005KT 300V360 CAVOK 30/15 Q1013 NOSIG=
200807011700 METAR LMML NIL=
200807011645 METAR LMML 011645Z 02006KT CAVOK 30/19 Q1013 NOSIG=
200807011630 METAR LMML NIL=
200807011615 METAR LMML 011615Z 03007KT 360V060 CAVOK 31/19 Q1013 NOSIG=
200807011600 METAR LMML NIL=
200807011545 METAR LMML 011545Z 04008KT 010V090 CAVOK 30/20 Q1013 NOSIG=
200807011530 METAR LMML NIL=
200807011515 METAR LMML 011515Z 04006KT 340V070 CAVOK 32/19 Q1013 NOSIG=
200807011500 METAR LMML NIL=
200807011445 METAR LMML 011445Z 03005KT 350V060 CAVOK 33/16 Q1014 NOSIG=
200807011430 METAR LMML NIL=
200807011415 METAR LMML 011415Z VRB02KT CAVOK 32/13 Q1014 NOSIG=
200807011400 METAR LMML NIL=
200807011345 METAR LMML 011345Z 21005KT 170V270 CAVOK 31/12 Q1014 NOSIG=
200807011330 METAR LMML NIL=
200807011315 METAR LMML 011315Z 20006KT 150V280 CAVOK 30/12 Q1014 NOSIG=
200807011300 METAR LMML NIL=
200807011245 METAR LMML 011245Z 20006KT 160V270 CAVOK 30/14 Q1014 NOSIG=
200807011230 METAR LMML NIL=
200807011215 METAR LMML 011215Z 19008KT 150V240 CAVOK 30/15 Q1015 NOSIG=
200807011200 METAR LMML NIL=
200807011145 LMML 011145Z VRB03KT CAVOK 33/12 Q1015 NOSIG=
200807011130 METAR LMML NIL=
200807011115 METAR LMML 011115Z 23006KT 170V310 CAVOK 31/12 Q1015 NOSIG=
200807011100 METAR LMML NIL=
200807011045 METAR LMML 011045Z VRB03KT CAVOK 32/15 Q1015 NOSIG=
200807011030 METAR LMML NIL=
200807011015 METAR LMML 011015Z 19005KT 140V340 CAVOK 31/12 Q1015 NOSIG=
200807011000 METAR LMML NIL=
200807010945 METAR LMML 010945Z 20005KT 140V270 CAVOK 32/11 Q1015 NOSIG=
200807010930 METAR LMML NIL=
200807010915 METAR LMML 010915Z 22004KT 150V280 CAVOK 31/12 Q1015 NOSIG=
200807010900 METAR LMML NIL=
200807010845 METAR LMML 010845Z 20006KT 170V260 CAVOK 30/13 Q1015 NOSIG=
200807010830 METAR LMML NIL=
200807010815 METAR LMML 010815Z VRB03KT CAVOK 31/11 Q1015 NOSIG=
200807010800 METAR LMML NIL=
200807010745 METAR LMML 010745Z VRB03KT CAVOK 30/11 Q1015 NOSIG=
200807010730 METAR LMML NIL=
200807010715 METAR LMML 010715Z VRB02KT CAVOK 29/12 Q1015 NOSIG=
200807010700 METAR LMML NIL=
200807010645 METAR LMML 010645Z VRB01KT CAVOK 28/11 Q1015 NOSIG=
200807010630 METAR LMML NIL=
200807010615 METAR LMML 010615Z VRB02KT CAVOK 27/13 Q1015 NOSIG=
200807010545 METAR LMML 010545Z VRB02KT CAVOK 26/14 Q1015 NOSIG=
200807010530 METAR LMML NIL=
200807010515 METAR LMML 010515Z VRB03KT CAVOK 25/12 Q1015 NOSIG=
200807010500 METAR LMML NIL=
200807010445 METAR LMML 010445Z 30004KT CAVOK 24/12 Q1014 NOSIG=
200807010430 METAR LMML NIL=
200807010415 METAR LMML 010415Z VRB03KT CAVOK 24/12 Q1014 NOSIG=
200807010345 METAR LMML 010345Z VRB02KT CAVOK 23/13 Q1014 NOSIG=
200807010330 METAR LMML NIL=
200807010315 METAR LMML 010315Z VRB03KT CAVOK 23/13 Q1014 NOSIG=
200807010300 METAR LMML NIL=
200807010245 METAR LMML 010245Z VRB02KT CAVOK 23/14 Q1014 NOSIG=
200807010230 METAR LMML NIL=
200807010215 METAR LMML 010215Z VRB03KT CAVOK 24/13 Q1014 NOSIG=
200807010200 METAR LMML NIL=
200807010145 METAR LMML 010145Z VRB03KT CAVOK 23/15 Q1014 NOSIG=
200807010130 METAR LMML NIL=
200807010115 METAR LMML 010115Z VRB03KT CAVOK 24/16 Q1015 NOSIG=
200807010100 METAR LMML NIL=
200807010045 METAR LMML 010045Z VRB02KT CAVOK 24/15 Q1015 NOSIG=
200807010030 METAR LMML NIL=
200807010015 METAR LMML 010015Z 21004KT CAVOK 25/14 Q1015 NOSIG=
200807010000 METAR LMML NIL=

###################################
#  short TAF from LMML
###################################
200807312300 TAF LMML 312300Z 010009 30005KT CAVOK
                      PROB30 TEMPO 0006 8000 FEW006=
200807312000 TAF LMML 312000Z 312106 32005KT CAVOK
                      PROB30 TEMPO 0006 8000 FEW006=
200807311700 TAF LMML 311700Z 311803 VRB03KT CAVOK=
200807311400 TAF LMML 311400Z 311524 29005KT 9999 FEW040
                      BECMG 1618 CAVOK=
200807311100 LMML 311100Z 311221 33006KT 9999 FEW025
                      BECMG 1518 CAVOK=
200807310800 TAF LMML 310800Z 310918 33005KT 9999 FEW025=
200807310500 TAF LMML 310500Z 310615 33005KT CAVOK
                      TEMPO 0615 9999 FEW020=
200807310200 TAF LMML 310200Z 310312 30006KT CAVOK
                      PROB30 TEMPO 0305 8000 SCT012
                      BECMG 0609 9999 FEW018=
200807302300 TAF LMML 302300Z 310009 32004KT CAVOK
                      PROB30 TEMPO 0205 8000 SCT012=
200807302000 TAF LMML 302000Z 302106 33006KT CAVOK
                      PROB30 TEMPO 0205 8000 SCT012=
200807301700 TAF LMML 301700Z 301803 VRB03KT CAVOK
                      PROB30 TEMPO 1803 FEW018=
200807301400 TAF LMML 301400Z 301524 20006KT CAVOK
                      TEMPO 1519 FEW035=
200807301100 TAF LMML 301100Z 301221 03006KT CAVOK
                      PROB30 TEMPO 0306 FEW020=
200807300800 TAF LMML 300800Z 300918 02008KT CAVOK
                      PROB40 TEMPO 0918 FEW020=
200807300500 TAF LMML 300500Z 300615 33007KT CAVOK
                      BECMG 0609 9999 FEW020=
200807300200 TAF LMML 300200Z 300312 33007KT CAVOK
                      TEMPO 0306 9999 FEW011
                      PROB30 TEMPO 0305 9000 SCT008
                      BECMG 0609 9999 SCT020=
200807292300 TAF LMML 292300Z 300009 33006KT CAVOK
                      TEMPO 0006 9999 FEW011
                      PROB30 TEMPO 0205 9000 SCT008
                      BECMG 0609 9999 FEW020=
200807292000 TAF LMML 292000Z 292106 01005KT CAVOK
                      TEMPO 2106 9999 FEW011
                      PROB30 TEMPO 0006 9000 SCT008=
200807291700 TAF LMML 291700Z 291803 VRB03KT 9999 FEW018
                      PROB30 TEMPO 0003 7000=
200807291400 TAF LMML 291400Z 291524 20008KT 9999 FEW020
                      BECMG 1720 CAVOK=
200807291100 TAF LMML 291100Z 291221 08010KT 9999 SCT020
                      BECMG 1417 13010KT=
200807290800 TAF LMML 290800Z 290918 06006KT 9999 FEW018=
200807290500 TAF LMML 290500Z 290615 35005KT 9999 FEW015=
200807290200 TAF LMML 290200Z 290312 VRB03KT 9999 FEW015
                      PROB30 TEMPO 0305 6000 BKN009=
200807282300 TAF LMML 282300Z 290009 VRB02KT 9999 FEW011
                      PROB30 TEMPO 0205 6000 BKN009=
200807282000 TAF LMML 282000Z 282106 VRB03KT 9999 FEW013
                      PROB30 TEMPO 0105 7000 BKN011=
200807281700 TAF LMML 281700Z 281803 29005KT 9999 FEW020=
200807281400 TAF LMML 281400Z 281524 27005KT 9999 SCT025=
200807281100 TAF LMML 281100Z 281221 27005KT 9999 SCT025=
200807280800 TAF LMML 280800Z 280918 35007KT 9999 FEW025
                      BECMG CAVOK=
200807280500 TAF LMML 280500Z 280615 02005KT CAVOK
                      PROB30 TEMPO 0615 9999 FEW020=
200807280200 TAF LMML 280200Z 280312 03005KT CAVOK
                      PROB30 TEMPO 0312 FEW015
                      BECMG 0912 30010KT=
200807272300 TAF LMML 272300Z 280009 35005KT CAVOK
                      PROB30 TEMPO 0009 9000 FEW015=
200807272000 TAF LMML 272000Z 272106 29006KT CAVOK
                      PROB30 TEMPO 2106 9000 FEW012=
200807271700 TAF LMML 271700Z 271803 30008KT 9999 FEW012=
200807271400 TAF LMML 271400Z 271524 30008KT CAVOK
                      TEMPO 2124 9999 FEW008=
200807271200 LMML 271200Z 271221 06008KT CAVOK
                      BECMG 1518 30012KT
                      TEMPO 1521 9999 FEW018=
200807271100 LMML NIL=
200807270800 TAF LMML 270800Z 270918 30010KT CAVOK
                      TEMPO 1218 9999 FEW018=
200807270500 TAF LMML 270500Z 270615 30010KT CAVOK
                      BECMG 0811 CAVOK=
200807270200 TAF LMML 270200Z 270312 29008KT 9999 SCT014
                      TEMPO 0308 8000 BKN010
                      BECMG 0811 CAVOK=
200807262300 TAF LMML 262300Z 270009 31008KT 9999 SCT011
                      TEMPO 0008 8000 BKN006=
200807262000 TAF LMML 262000Z 262106 30010KT CAVOK
                      TEMPO 2306 9000 SCT008=
200807261700 TAF LMML 261700Z 261803 32005KT CAVOK
                      PROB40 TEMPO 0003 9000 SCT012=
200807261400 TAF LMML 261400Z 261524 22008KT CAVOK
                      BECMG 1518 30010KT
                      PROB30 TEMPO 2124 9999 FEW012=
200807261100 TAF LMML 261100Z 261221 23006KT CAVOK
                      PROB30 TEMPO 1521 9999 FEW015
                      BECMG 1619 30012KT=
200807260800 TAF LMML 260800Z 260918 22005KT CAVOK
                      PROB30 TEMPO 1215 9999 FEW018
                      BECMG 1518 30012KT=
200807260500 TAF LMML 260500Z 260615 22005KT CAVOK
                      TEMPO 0615 9999 FEW020=
200807260200 TAF LMML 260200Z 260312 23005KT CAVOK
                      PROB30 TEMPO 0306 9999 FEW011
                      BECMG 0609 9999 FEW015=
200807252300 TAF LMML 252300Z 260009 21004KT CAVOK
                      TEMPO 0006 9999 FEW011
                      PROB30 TEMPO 0005 9000 SCT008
                      BECMG 0609 9999 FEW015=
200807252000 TAF LMML 252000Z 252106 23005KT CAVOK
                      TEMPO 2106 9999 FEW011
                      PROB30 TEMPO 0005 9000 SCT008=
200807251700 TAF LMML 251700Z 251803 23008KT CAVOK
                      TEMPO 2003 FEW010=
200807251400 LMML 251400Z 251524 22010KT CAVOK
                      TEMPO 2124 9999 FEW010=
200807251100 TAF LMML 251100Z 251221 24010KT 9999 FEW023=
200807250800 TAF LMML 250800Z 250918 29008KT 9999 FEW023=
200807250500 TAF LMML 250500Z 250615 30008KT 9999 FEW015
                      BECMG 0912 CAVOK=
200807250200 TAF LMML 250200Z 250312 28008KT CAVOK=
200807242300 TAF LMML 242300Z 250009 28005KT CAVOK
                      PROB30 TEMPO 0206 9999 FEW015=
200807242000 TAF LMML 242000Z 242106 29005KT CAVOK
                      PROB30 TEMPO 0006 9999 FEW015=
200807241700 TAF LMML 241700Z 241803 27007KT CAVOK=
200807241400 TAF LMML 241400Z 241524 30009KT 9999 FEW040
                      BECMG 1821 CAVOK=
200807241100 TAF LMML 241100Z 241221 03010KT 9999 FEW040
                      BECMG 1215 29009KT
                      BECMG 1821 CAVOK=
200807240800 TAF LMML 240800Z 240918 04005KT 9999 FEW030
                      BECMG 0912 29010KT=
200807240500 TAF LMML 240500Z 240615 03006KT CAVOK
                      BECMG 0609 32010KT
                      PROB30 TEMPO 0610 9999 FEW015=
200807240200 TAF LMML 240200Z 240312 03005KT 9999 FEW020=
200807232300 TAF LMML 232300Z 240009 03006KT CAVOK
                      PROB30 TEMPO 0009 FEWO15=
200807232000 TAF LMML 232000Z 232106 34006KT 9999 FEW015=
200807231700 TAF LMML 231700Z 231803 32017KT CAVOK=
200807231400 TAF LMML 231400Z 231524 32017KT CAVOK
                      TEMPO 2024 9999 FEW017=
200807231100 TAF LMML 231100Z 231221 32015KT 9999 FEW025
                      TEMPO 1221 CAVOK=
200807230800 TAF LMML 230800Z 230918 34015KT 9999 FEW021
                      TEMPO 1518 CAVOK=
200807230500 TAF LMML 230500Z 230615 33015KT 9999 FEW020=
200807230200 TAF LMML 230200Z 230312 33015KT 9999 FEW018=
200807222300 TAF LMML 222300Z 230009 30015G25KT CAVOK
                      BECMG 0003 31015KT 9999 FEW015=
200807222000 TAF LMML 222000Z 222106 30018G28KT CAVOK
                      BECMG 0003 31015KT 9999 FEW015=
200807221700 TAF LMML 221700Z 221803 30018G28KT 9999 FEW020=
200807221400 TAF LMML 221400Z 221524 29018G28KT 9999 FEW020=
200807221100 TAF LMML 221100Z 221221 30018G28KT 9999 FEW020=
200807220800 TAF LMML 220800Z 220918 30018G28KT 9999 FEW020=
200807220500 TAF LMML 220500Z 220615 26013KT CAVOK
                      BECMG 0609 29017G27KT 9999 FEW015=
200807220200 TAF LMML 220200Z 220312 24005KT CAVOK
                      BECMG 0306 30012KT
                      TEMPO 0307 9999 FEW011
                      PROB30 TEMPO 0306 9000 SCT008
                      BECMG 0711 29017G27KT 9999 SCT015=
200807212300 TAF LMML 212300Z 220009 24006KT CAVOK
                      TEMPO 0006 9999 FEW011
                      BECMG 0205 30012KT
                      PROB30 TEMPO 0206 9000 SCT008
                      BECMG 0609 29015G25KT 9999 SCT014=
200807212000 TAF LMML 212000Z 212106 23006KT CAVOK
                      TEMPO 0006 9999 FEW011
                      PROB30 TEMPO 0006 9000 SCT008
                      BECMG 0104 29012KT=
200807211700 TAF LMML 211700Z 211803 27010KT CAVOK=
200807211400 TAF LMML 211400Z 211524 27008KT CAVOK=
200807211100 TAF LMML 211100Z 211221 27008KT CAVOK
                      TEMPO 1219 9999 FEW020=
200807210800 TAF LMML 210800Z 210918 27008KT CAVOK=
200807210500 TAF LMML 210500Z 210615 26008KT CAVOK=
200807210200 TAF LMML 210200Z 210312 27006KT 9999 FEW008
                      PROB30 TEMPO 0005 8000=
200807202300 TAF LMML 202300Z 210009 20005KT CAVOK
                      TEMPO 0009 8000 SCT008=
200807202000 TAF LMML 202000Z 202106 VRB03KT CAVOK
                      PROB30 TEMPO 0006 8000 SCT008=
200807201700 TAF LMML 201700Z 201803 28005KT 9999 FEW015
                      BECMG 1821 CAVOK
                      PROB30 TEMPO 0003 9000 FEW008=
200807201400 TAF LMML 201400Z 201524 15007KT 9999 FEW025
                      BECMG 1720 CAVOK=
200807201100 TAF LMML 201100Z 201221 11006KT CAVOK
                      TEMPO 1215 9999 FEW020=
200807200800 TAF LMML 200800Z 200918 10006KT 9999 FEW020=
200807200500 TAF LMML 200500Z 200615 09006KT 9999 FEW020=
200807200200 TAF LMML 200200Z 200312 30005KT 9999 FEW018
                      PROB30 0306 7000 SCT011=
200807192300 TAF LMML 192300Z 200009 30005KT 9999 FEW015
                      PROB30 TEMPO 0006 7000 SCT011=
200807192000 TAF LMML 192000Z 192106 VRB03KT 9999 FEW018
                      PROB30 TEMPO 0006 7000 SCT011=
200807191700 TAF LMML 191700Z 191803 30005KT CAVOK=
200807191400 TAF LMML 191400Z 191524 30005KT CAVOK=
200807191100 TAF LMML 191100Z 191221 31008KT CAVOK=
200807190800 TAF LMML 190800Z 190918 34006KT CAVOK=
200807190500 TAF LMML 190500Z 190615 32010KT CAVOK=
200807190200 TAF LMML 190200Z 190312 32012KT CAVOK=
200807182300 TAF LMML 182300Z 190009 31012KT CAVOK=
200807182000 TAF LMML 182000Z 182106 31013KT CAVOK=
200807181700 TAF LMML 181700Z 181803 30010KT CAVOK=
200807181400 TAF LMML 181400Z 181524 27006KT CAVOK=
200807181100 TAF LMML 181100Z 181221 27010KT CAVOK=
200807180800 TAF LMML 180800Z 180918 27010KT CAVOK
                      PROB30 TEMPO 1015 FEW015=
200807180500 TAF LMML 180500Z 180615 26007KT CAVOK
                      BECMG 0912 9999 FEW015=
200807180200 TAF LMML 180200Z 180312 26005KT CAVOK
                      PROB30 TEMPO 0306 9000 FEW011
                      BECMG 0912 9999 FEW015=
200807172300 TAF LMML 172300Z 180009 25004KT CAVOK
                      PROB30 TEMPO 0006 9999 FEW011=
200807172000 TAF LMML 172000Z 172106 30006KT CAVOK
                      TEMPO 2106 9999 FEW011
                      PROB30 TEMPO 0005 8000 SCT006=
200807171700 TAF LMML 171700Z 171803 24008KT CAVOK=
200807171400 TAF LMML 171400Z 171524 24008KT CAVOK
                      TEMPO 1524 FEW015=
200807171100 TAF LMML 171100Z 171221 24008KT 9999 FEW023=
200807170800 TAF LMML 170800Z 170918 22008KT 9999 FEW023=
200807170500 TAF LMML 170500Z 170615 26006KT 9999 FEW020=
200807170200 TAF LMML 170200Z 170312 27008KT CAVOK
                      PROB30 TEMPO 0312 9999 FEW025=
200807162300 TAF LMML 162300Z 170009 26005KT 9999 FEW015=
200807162000 TAF LMML 162000Z 162106 27005KT 9999 FEW012=
200807161700 TAF LMML 161700Z 161803 34010KT 9999 FEW030
                      BECMG 1821 25005KT CAVOK
                      PROB30 TEMPO 0003 9000 SCT008=
200807161400 TAF LMML 161400Z 161524 23007KT 9999 FEW020
                      BECMG 2124 CAVOK=
200807161100 TAF LMML 161100Z 161221 02010KT 9999 FEW025
                      BECMG 1417 25006KT=
200807160800 TAF LMML 160800Z 160918 06011KT 9999 FEW020
                      BECMG 1417 25006KT=
200807160500 TAF LMML 160500Z 160615 08010KT 9999 FEW025=
200807160200 TAF LMML 160200Z 160312 05005KT 9999 FEW015=
200807152300 TAF LMML 152300Z 160009 05005KT 9999 FEW015=
200807152000 TAF LMML 152000Z 152106 05005KT 9999 FEW015=
200807151700 LMML 151700Z 151803 03003KT 9999 SCT020=
200807151400 TAF LMML 151400Z 151524 02010KT CAVOK=
200807151100 TAF LMML 151100Z 151221 08010KT 9999 FEW015
                      BECMG 02010KT CAVOK=
200807150800 TAF LMML 150800Z 150918 05009KT CAVOK=
200807150500 TAF LMML 150500Z 150615 34010KT 9999 FEW015
                      TEMPO 0615 CAVOK
                      BECMG 0609 04007KT=
200807150200 TAF LMML 150200Z 150312 03005KT 9999 FEW010
                      TEMPO 0312 CAVOK
                      PROB30 TEMPO 0306 8000 BKN005=
200807142300 TAF LMML 142300Z 150009 VRB03KT 9999 FEW010
                      TEMPO 0009 CAVOK
                      PROB30 TEMPO 0006 8000 BKN005=
200807142000 TAF LMML 142000Z 142106 33005KT 9999 FEW010
                      PROB40 TEMPO 2106 7000 BKN005=
200807141700 TAF LMML 141700Z 141803 VRB03KT CAVOK
                      PROB30 TEMPO 1803 9000 FEW008=
200807141400 TAF LMML 141400Z 141524 20008KT CAVOK
                      PROB30 TEMPO 1824 FEW012=
200807141100 TAF LMML 141100Z 141221 20007KT CAVOK
                      PROB30 TEMPO 2021 9999 FEW006=
200807140800 TAF LMML 140800Z 140918 15008KT CAVOK
                      TEMPO 0912 FEW012=
200807140500 TAF LMML 140500Z 140615 14006KT CAVOK
                      PROB30 TEMPO 0612 9999 FEW013=
200807140200 TAF LMML 140200Z 140312 14006KT CAVOK
                      PROB40 TEMPO 0312 9999 FEW013
                      PROB30 TEMPO 0306 8000 SCT005=
200807132300 TAF LMML 132300Z 140009 14008KT CAVOK
                      PROB30 TEMPO 0008 9000 SCT005=
200807132000 TAF LMML 132000Z 132106 14010KT CAVOK
                      PROB30 TEMPO 0106 9000 FEW005=
200807131700 TAF LMML 131700Z 131803 15012KT CAVOK
                      PROB30 TEMPO 2306 9000 FEW007=
200807131400 TAF LMML 131400Z 131524 15010KT CAVOK=
200807131100 TAF LMML 131100Z 131221 15010KT CAVOK=
200807130800 TAF LMML 130800Z 130918 15010KT CAVOK=
200807130500 TAF LMML 130500Z 130615 14010KT CAVOK=
200807130200 TAF LMML 130200Z 130312 14009KT 9999 FEW008
                      PROB30 TEMPO 0305 8000 BKN005=
200807122300 TAF LMML 122300Z 130009 15008KT 9999 FEW005
                      PROB30 TEMPO 0005 8000 BKN005=
200807122000 TAF LMML 122000Z 122106 13008KT 9999 FEW008
                      PROB30 TEMPO 0005 8000 BKN005=
200807121700 TAF LMML 121700Z 121803 16012KT 9999 SCT012
                      TEMPO 2203 8000 BKN007
                      PROB30 TEMPO 0003 5000 BR BKN005=
200807121400 TAF LMML 121400Z 121524 16010KT 9999 FEW012
                      PROB30 TEMPO 2124 8000 BKN008=
200807121100 TAF LMML 121100Z 121221 16010KT 9999 FEW012=
200807120800 TAF LMML 120800Z 120918 16010KT 9999 FEW012=
200807120500 TAF LMML 120500Z 120615 15006KT CAVOK
                      PROB30 TEMPO 0610 9999 FEW012=
200807120200 TAF LMML 120200Z 120312 15006KT CAVOK
                      PROB30TEMPO 0306 8000 FEW005=
200807112300 TAF LMML 112300Z 120009 15005KT CAVOK PRON30
                      TEMPO 0006 8000 FEW005=
200807112000 TAF LMML 112000Z 112106 15004KT CAVOK
                      PROB30 TEMPO 0006 8000 SCT005=
200807111700 TAF LMML 111700Z 111803 15005KT CAVOK
                      TEMPO 0003 8000 SCT005=
200807111400 TAF LMML 111400Z 111524 14005KT CAVOK=
200807111100 TAF LMML 111100Z 111221 16006KT CAVOK=
200807110800 TAF LMML 110800Z 110918 13005KT CAVOK=
200807110500 TAF LMML 110500Z 110615 15005KT CAVOK=
200807110200 TAF LMML 110200Z 110312 VRB03KT CAVOK=
200807102300 TAF LMML 102300Z 110009 VRB03KT CAVOK=
200807102000 TAF LMML 102000Z 102106 VRB03KT CAVOK=
200807101700 TAF LMML 101700Z 101803 VRB03KT CAVOK=
200807101400 TAF LMML 101400Z 101524 VRB03KT CAVOK=
200807101100 TAF LMML 101100Z 101221 13006KT CAVOK=
200807100800 TAF LMML 100800Z 100918 13010KT CAVOK=
200807100500 TAF LMML 100500Z 100615 36010KT CAVOK
                      BECMG 0912 11010KT=
200807100200 TAF LMML 100200Z 100312 32010KT CAVOK
                      BECMG 0312 12010KT=
200807092300 TAF LMML 092300Z 100009 29014KT CAVOK
                      PROB30 TEMPO 0103 9999 FEW012
                      BECMG 0406 35010KT=
200807092000 TAF LMML 092000Z 092106 29010KT CAVOK
                      PROB30 TEMPO 0103 9000 FEW012=
200807091700 TAF LMML 091700Z 091803 29009KT CAVOK
                      PROB30 TEMPO 0103 9000 FEW012=
200807091400 TAF LMML 091400Z 091524 28009KT CAVOK=
200807091100 TAF LMML 091100Z 091221 06005KT CAVOK
                      BECMG 1821 28010KT=
200807090800 TAF LMML 090800Z 090918 03005KT CAVOK
                      PROB30 TEMPO 0911 FEW015=
200807090500 TAF LMML 090500Z 090615 30007KT CAVOK=
200807090200 TAF LMML 090200Z 090312 30010KT CAVOK
                      PROB30 TEMPO 0306 7000 FEW005=
200807082300 TAF LMML 082300Z 090009 27007KT CAVOK
                      PROB30 TEMPO 0005 7000 FEW005=
200807082000 TAF LMML 082000Z 082106 28007KT CAVOK
                      PROB30 TEMPO 0005 7000 SCT004=
200807081700 TAF LMML 081700Z 081803 28007KT CAVOK
                      TEMPO 1803 9999 FEW011
                      PROB30 TEMPO 2103 8000 SCT006=
200807081400 TAF LMML 081400Z 081524 23010KT CAVOK
                      BECMG 1821 29007KT
                      TEMPO 1824 9999 FEW011
                      PROB30 TEMPO 2124 8000 SCT006=
200807081100 TAF LMML 081100Z 081221 24008KT CAVOK
                      TEMPO 1821 9999 FEW011=
200807080800 TAF LMML 080800Z 080918 30009KT CAVOK
                      BECMG 1518 9999 FEW015=
200807080500 TAF LMML 080500Z 080615 26008KT 9999 FEW015=
200807080200 TAF LMML 080200Z 080312 18006KT 3000 BR BKN002
                      PROB30 TEMPO 0305 1500 BR
                      BECMG 0406 24010KT 7000 SCT008
                      BECMG 0609 9999=
200807072300 TAF LMML 072300Z 080009 18004KT 4000 BR SCT003
                      PROB30 TEMPO 0005 1500 BR BKN002
                      BECMG 0306 24010KT=
200807072000 TAF LMML 072000Z 072106 18004KT CAVOK
                      TEMPO 2106 9000 SCT005
                      PROB30 TEMPO 0006 5000 BR BKN005=
200807071700 TAF LMML 071700Z 071803 18005KT CAVOK
                      BECMG 2023 9999 SCT005
                      PROB30 TEMPO 0003 6000 BKN005=
200807071400 TAF LMML 071400Z 071524 17008KT CAVOK
                      BECMG 1821 9999 SCT005=
200807071100 TAF LMML 071100Z 071221 17008KT CAVOK
                      BECMG 1820 9999 FEW008=
200807070800 TAF LMML 070800Z 070918 17005KT CAVOK=
200807070500 LMML 070500Z 070615 15006KT CAVOK=
200807070200 TAF LMML 070200Z 070312 VRB03KT CAVOK
                      PROB30 TEMPO 0305 8000 FEW012=
200807062300 TAF LMML 062300Z 070009 VRB03KT CAVOK
                      PROB30 TEMPO 0005 8000 FEW012=
200807062000 TAF LMML 062000Z 062106 VRB03KT CAVOK
                      TEMPO 2106 9000 FEW012
                      PROB30 TEMPO 2306 5000 BR BKN009=
200807061700 TAF LMML 061700Z 061803 12005KT CAVOK
                      PROB30 TEMPO 0003 8000 SCT008=
200807061400 TAF LMML 061400Z 061524 06010KT CAVOK
                      BECMG 1518 12008KT=
200807061100 TAF LMML 061100Z 061221 09010KT CAVOK=
200807060800 TAF LMML 060800Z 060918 09010KT CAVOK=
200807060500 TAF LMML 060500Z 060615 04007KT CAVOK
                      BECMG 1013 9999 FEW015=
200807060200 TAF LMML 060200Z 060312 02005KT 9999 FEW011
                      TEMPO 0306 8000
                      PROB30 TEMPO 0305 5000 BR BKN004=
200807052300 TAF LMML 052300Z 060009 33005KT CAVOK
                      BECMG 0003 9999 FEW011
                      TEMPO 0006 8000
                      PROB30 TEMPO 0005 5000 BR BKN004=
200807052000 TAF LMML 052000Z 052106 31006KT 9999 FEW012
                      TEMPO 2106 9000
                      PROB30 TEMPO 0006 5000 BR BKN004=
200807051700 TAF LMML 051700Z 051803 30013KT CAVOK
                      TEMPO 1803 9000 FEW012=
200807051400 TAF LMML 051400Z 051524 30014KT CAVOK
                      TEMPO 1524 FEW012=
200807051100 TAF LMML 051100Z 051221 30014KT CAVOK
                      TEMPO 1221 FEW015=
200807050800 TAF LMML 050800Z 050918 30014KT CAVOK
                      PROB30 TEMPO 0911 FEW020=
200807050500 TAF LMML 050500Z 050615 30014KT 9999 FEW010
                      BECMG 0609 CAVOK=
200807050200 TAF LMML 050200Z 050312 31014KT 9999 FEW008
                      PROB30 TEMPO 0306 7000 BKN005
                      BECMG 0507 CAVOK=
200807042300 TAF LMML 042300Z 050009 30010KT CAVOK
                      TEMPO 0006 9999 FEW006=
200807042000 TAF LMML 042000Z 042106 24005KT CAVOK
                      BECMG 2124 30010KT
                      PROB30 TEMPO 2103 9999 FEW006=
200807041700 TAF LMML 041700Z 041803 23006KT CAVOK
                      PROB30 TEMPO 2003 9000 FEW010
                      BECMG 2124 29010KT=
200807041400 TAF LMML 041400Z 041524 23008KT CAVOK
                      BECMG 2124 29010KT=
200807041100 TAF LMML 041100Z 041221 25008KT CAVOK=
200807040800 TAF LMML 040800Z 040918 27008KT CAVOK=
200807040500 TAF LMML 040500Z 040615 26008KT CAVOK=
200807040200 TAF LMML 040200Z 040312 25006KT CAVOK
                      PROB30 0305 8000 NSC=
200807032300 TAF LMML 032300Z 040009 VRB03KT CAVOK
                      PROB30 TEMPO 0305 7000 NSC=
200807032000 TAF LMML 032000Z 032106 27004KT CAVOK
                      PROB30 TEMPO 0205 7000 NSC=
200807031700 TAF LMML 031700Z 031803 26005KT CAVOK=
200807031400 TAF LMML 031400Z 031524 25006KT CAVOK=
200807031100 TAF LMML 031100Z 031221 24008KT CAVOK=
200807030800 TAF LMML 030800Z 030918 25005KT CAVOK=
200807030500 TAF LMML 030500Z 030615 28004KT CAVOK=
200807030200 TAF LMML 030200Z 030312 VRB03KT CAVOK
                      PROB30 TEMPO 0305 8000=
200807022300 TAF LMML 022300Z 030009 VRB03KT CAVOK
                      PROB30 TEMPO 0105 8000=
200807022000 TAF LMML 022000Z 022106 VRB03KT CAVOK
                      PROB30 TEMPO 0105 8000=
200807021700 TAF LMML 021700Z 021803 VRB03KT CAVOK=
200807021400 TAF LMML 021400Z 021524 VRB03KT CAVOK
                      PROB30 TEMPO 1524 FEW040=
200807021100 TAF LMML 021100Z 021221 VRB03KT CAVOK=
200807020800 TAF LMML 020800Z 020918 VRB03KT CAVOK
                      PROB30 TEMPO 0910 9000 NSC=
200807020500 TAF LMML 020500Z 020615 32005KT CAVOK=
200807020200 TAF LMML 020200Z 020312 VRB03KT CAVOK=
200807012300 TAF LMML 012300Z 020009 VRB03KT CAVOK
                      PROB30 TEMPO 0004 7000 FEW007=
200807012000 TAF LMML 012000Z 012106 VRB03KT CAVOK
                      TEMPO 2306 8000 NSC
                      PROB30 TEMPO 0004 5000 BR FEW005=
200807011700 TAF LMML 011700Z 011803 VRB03KT CAVOK
                      PROB30 TEMPO 0003 7000 FEW005=
200807011400 TAF LMML 011400Z 011524 VRB03KT CAVOK=
200807011100 TAF LMML 011100Z 011221 VRB03KT CAVOK=
200807010800 TAF LMML 010800Z 010918 VRB03KT CAVOK=
200807010500 TAF LMML 010500Z 010615 29006KT CAVOK=
200807010200 TAF LMML 010200Z 010312 26005KT 8000 FEW004 SCT100
                      BECMG 0508 CAVOK=

###################################
#  large TAF from LMML
###################################
200807312300 TAF LMML 312300Z 010606 32005KT 9999 FEW040
                      BECMG 1518 CAVOK
                      PROB30 TEMPO 0006 9000 FEW006=
200807311700 TAF LMML 311700Z 010024 31005KT CAVOK
                      PROB30 TEMPO 0305 8000=
200807311100 TAF LMML 311100Z 311818 31004KT CAVOK
                      PROB30 TEMPO 0205 8000=
200807310500 LMML 310500Z 311212 33007KT CAVOK
                      TEMPO 1215 9999 FEW020=
200807302300 TAF LMML 302300Z 310606 32008KT 9999 FEW020=
200807301700 TAF LMML 301700Z 310024 VRB03KT 9999 FEW015
                      PROB30 TEMPO 0306 8000 BKN012
                      BECMG 1215 CAVOK=
200807301100 TAF LMML 301100Z 301818 VRB03KT CAVOK
                      PROB30 TEMPO 0306 SCT012
                      BECMG 0912 30010KT=
200807300500 TAF LMML 300500Z 301212 02008KT 9999 SCT025
                      BECMG 1821 CAVOK
                      TEMPO 2106 9999 FEW011
                      PROB30 TEMPO 0006 9000 SCT008
                      BECMG 0609 9999 FEW020=
200807292300 TAF LMML 292300Z 300606 35006KT CAVOK
                      BECMG 0609 9999 FEW020=
200807291700 TAF LMML 291700Z 300024 VRB03KT 9999 FEW015
                      PROB30 TEMPO 0006 7000=
200807291100 TAF LMML 291100Z 291818 13010KT 9999 FEW015
                      BECMG 1720 CAVOK
                      PROB30 TEMPO 0006 6000 FEW010=
200807290500 TAF LMML 290500Z 291212 02005KT 9999 FEW015
                      BECMG 1518 CAVOK
                      PROB30 TEMPO 0205 6000=
200807282300 TAF LMML 282300Z 290606 04005KT 9999 FEW015
                      PROB30 TEMPO 0005 5000 BR BKN006=
200807281700 TAF LMML 281700Z 290024 27004KT 9999 FEW015
                      PROB30 TEMPO 0306 9000 BKN009
                      BECMG 1922 CAVOK=
200807281100 TAF LMML 281100Z 281818 30005KT 9999 FEW015=
200807280500 TAF LMML 280500Z 281212 32005KT CAVOK
                      PROB40 TEMPO 1212 9999 FEW020=
200807272300 TAF LMML 272300Z 280606 36006KT CAVOK
                      TEMPO 0618 9999 FEW020
                      BECMG 1821 FEW015 SCT045=
200807271700 TAF LMML 271700Z 280024 33005KT 9999 FEW010
                      PROB30 TEMPO 0305 7000
                      BECMG 0508 CAVOK
                      BECMG 1720 9999 FEW012=
200807271200 LMML 271200Z 271818 30010KT 9999 SCT015=
200807271100 TAF LMML 271100Z 271212 06008KT CAVOK
                      BECMG 1518 30012KT
                      TEMPO 1521 9999 FEW018=
200807270500 TAF LMML 270500Z 271212 31012KT CAVOK
                      TEMPO 1212 9999 FEW015
                      PROB40 TEMO 2306 9000 SCT008
                      BECMG 2201 02010KT=
200807262300 TAF LMML 262300Z 270606 32005KT 9999 SCT011
                      BECMG 0710 CAVOK
                      PROB30 TEMPO 0006 9999 FEW012=
200807261700 TAF LMML 261700Z 270024 32008KT CAVOK
                      PROB40 TEMPO 0008 7000 SCT008=
200807261100 TAF LMML 261100Z 261818 30012KT 9999 FEW015
                      PROB30 TEMPO 2109 7000 BKN007=
200807260500 TAF LMML 260500Z 261212 23007KT CAVOK
                      TEMPO 1218 9999 FEW020
                      BECMG 1821 29011KT 9999 SCT009
                      PROB30 TEMPO 2106 8000 BKN006=
200807252300 TAF LMML 252300Z 260606 23006KT CAVOK
                      BECMG 0609 9999 FEW015
                      BECMG 1518 29011KT
                      PROB30 TEMPO 2106 8000 BKN006=
200807251700 TAF LMML 251700Z 260024 23006KT CAVOK
                      TEMPO 0006 SCT010
                      BECMG 0609 9999 FEW020
                      BECMG 1518 30010KT
                      PROB30 TEMPO 2024 8000 BKN006=
200807251100 TAF LMML 251100Z 251818 23005KT CAVOK
                      TEMPO 2106 9999 FEW010=
200807250500 TAF LMML 250500Z 251212 24008KT CAVOK
                      TEMPO 2106 9999 FEW010=
200807242300 TAF LMML 242300Z 250606 28008KT CAVOK
                      BECMG 2124 9999 FEW012=
200807241700 TAF LMML 241700Z 250024 28006KT CAVOK
                      PROB30 TEMPO 0306 9999 FEW015
                      BECMG 0609 9999 FEW025
                      BECMG 1821 CAVOK=
200807241100 TAF LMML 241100Z 241818 28008KT 9999 FEW030
                      BECMG 1821 CAVOK
                      BECMG 0306 9999 FEW020=
200807240500 TAF LMML 240500Z 241212 32010KT CAVOK
                      PROB30 TEMPO 2212 FEW015=
200807232300 TAF LMML 232300Z 240606 03006KT CAVOK
                      BECMG 1215 280KT
                      PROB30 TEMPO 2206 9999 FEW015=
200807231700 TAF LMML 231700Z 240024 34008KT CAVOK
                      PROB30 TEMPO 0618 9999 FEW020
                      BECMG 1215 28013KT=
200807231100 TAF LMML 231100Z 231818 32012KT CAVOK
                      TEMPO 1818 9999 FEW020=
200807230500 TAF LMML 230500Z 231212 33015KT 9999 FEW020=
200807222300 TAF LMML 222300Z 230606 33015KT 9999 FEW020=
200807221700 TAF LMML 221700Z 230024 30015KT 9999 FEW015=
200807221100 TAF LMML 221100Z 221818 30015G25KT 9999 FEW015
                      BECMG 0912 30013KT=
200807220500 TAF LMML 220500Z 221212 28020G35KT 9999 FEW020
                      BECMG 2124 30015G25KT
                      BECMG 0609 30012KT=
200807212300 TAF LMML 212300Z 220606 29013KT 9999 SCT014
                      BECMG 0609 29015G25KT
                      BECMG 1114 28020G35KT
                      BECMG 0003 28014KT=
200807211700 TAF LMML 211700Z 220024 30015KT 9999 FEW020
                      TEMPO 0006 CAVOK
                      BECMG 0609 30020G30KT=
200807211100 TAF LMML 211100Z 211818 25008KT CAVOK
                      TEMPO 1818 9999 FEW020
                      BECMG 0609 30017G30KT=
200807210500 TAF LMML 210500Z 211212 26012KT CAVOK
                      PROB30 TEMPO 2306 9999 SCT008
                      BECMG 0912 29015KT=
200807202300 TAF LMML 202300Z 210606 27010KT 9999 FEW012
                      BECMG 0609 CAVOK
                      BECMG 1821 9999 FEW012=
200807201700 TAF LMML 201700Z 210024 26005KT CAVOK
                      PROB30 TEMPO 0005 9000 FEW008
                      BECMG 0811 9999 FEW020
                      BECMG 1821 CAVOK=
200807201100 TAF LMML 201100Z 201818 30005KT CAVOK
                      PROB30 TEMPO 0005 9000 FEW008
                      BECMG 0912 24010KT=
200807200500 TAF LMML 200500Z 201212 15008KT 9999 FEW020=
200807192300 TAF LMML 192300Z 200606 30005KT 9999 FEW020=
200807191700 TAF LMML 191700Z 200024 30004KT CAVOK
                      BECMG 0204 9999 FEW011
                      PROB30 TEMPO 0305 7000
                      BECMG 0609 CAVOK
                      BECMG 1821 9999 FEW011=
200807191100 TAF LMML 191100Z 191818 30004KT CAVOK
                      BECMG 2124 9999 SCT009=
200807190500 TAF LMML 190500Z 191212 32010KT CAVOK
                      TEMPO 1812 9999 SCT015=
200807182300 TAF LMML 182300Z 190606 31013KT CAVOK
                      PROB30 TEMPO 0206 9999 FEW012=
200807181700 TAF LMML 181700Z 190024 30012KT CAVOK=
200807181100 TAF LMML 181100Z 181818 27008KT CAVOK=
200807180500 TAF LMML 180500Z 181212 23008KT 9999 FEW015
                      BECMG 1518 CAVOK
                      BECMG 2124 29011KT
                      TEMPO 0006 9999 FEW011
                      PROB30 TEMPO 0005 9000 SCT008
                      BECMG 0609 9999 FEW015=
200807172300 TAF LMML 172300Z 180606 24006KT CAVOK
                      TEMPO 0918 9999 FEW015
                      BECMG 0003 30010KT
                      PROB30 TEMPO 0005 9000 SCT008=
200807171700 TAF LMML 171700Z 180024 24008KT CAVOK
                      TEMPO 0924 FEW020=
200807171100 TAF LMML 171100Z 171818 24008KT 9999 FEW015
                      TEMPO 1818 CAVOK=
200807170500 TAF LMML 170500Z 171212 24010KT 9999 FEW030
                      BECMG 1720 CAVOK
                      PROB30 TEMP0 0005 8000 FEW007=
200807162300 TAF LMML 162300Z 170606 26008KT 9999 FEW025
                      PROB30 TEMPO 0006 7000=
200807161705 LMML 161705Z 170024 24006KT CAVOK
                      PROB30 TEMPO 0005 9000 SCT008
                      BECMG 0609 9999 FEW015
                      BECMG 2124 CAVOK=
200807161700 TAF LMML 161700Z 170024 24006KT CAVOK
                      TEMPO 0006 9999 FEW011
                      PROB30 TEMPO 0005 9000 SCT008
                      BECMG 0609 9999 FEW015
                      BECMG 2124 CAVOK=
200807161100 TAF LMML 161100Z 161818 26006KT 9999 FEW018
                      BECMG 2124 CAVOK
                      PROB30 TEMPO 0006 9000 SCT008
                      BECMG 0609 9999 FEW015=
200807160500 TAF LMML 160500Z 161212 08008KT 9999 FEW025
                      PROB30 TEMPO 0006 SCT005
                      BECMG 0609 27010KT=
200807152300 TAF LMML 152300Z 160606 05006KT 9999 FEW018
                      PROB40 TEMPO 0006 8000 BKN008=
200807151700 TAF LMML 151700Z 160024 02006KT CAVOK
                      BECMG 0205 09010KT=
200807151100 TAF LMML 151100Z 151818 02010KT CAVOK
                      BECMG 0205 09010KT=
200807150500 TAF LMML 150500Z 151212 04007KT CAVOK
                      TEMPO 1220 9999 FEW015=
200807142300 TAF LMML 142300Z 150606 03008KT 9999 FEW012
                      TEMPO 0606 CAVOK=
200807141700 TAF LMML 141700Z 150024 30005KT CAVOK
                      PROB30 TEMPO 0006 5000 BR SCT005=
200807141100 TAF LMML 141100Z 141818 33007KT CAVOK
                      PROB30 TEMPO 0206 5000 BR FEW006=
200807140500 TAF LMML 140500Z 141212 24006KT CAVOK
                      BECMG 0306 30010KT
                      PROB30 TEMPO 2104 8000 BKN005=
200807132300 TAF LMML 132300Z 140606 15006KT CAVOK
                      PROB30 TEMPO 0608 9000 FEW012
                      BECMG 2124 30010KT
                      PROB40 TEMPO 2104 8000 BKN005=
200807131700 TAF LMML 131700Z 140024 15005KT CAVOK
                      PROB30 TEMPO 0006 9000 FEW007=
200807131100 TAF LMML 131100Z 131818 15005KT CAVOK
                      PROB30 TEMPO 2108 9000 FEW005=
200807130500 TAF LMML 130500Z 131212 13012KT CAVOK
                      PROB30 TEMPO 0005 9999 FEW005=
200807122300 TAF LMML 122300Z 130606 12010KT CAVOK
                      BECMG 2023 7000 FEW004
                      PROB30 TEMPO 0005 5000 BR BKN004=
200807121700 TAF LMML 121700Z 130024 15010KT 9999 SCT010
                      TEMPO 0006 8000 BKN007
                      PROB30 TEMPO 0004 5000 BR BKN005
                      BECMG 0710 14015G25KT FEW015=
200807121100 TAF LMML 121100Z 121818 15010KT 9999 FEW012
                      TEMPO 2106 8000 BKN008
                      PROB30 TEMPO 0005 5000 BR BKN005=
200807120500 TAF LMML 120500Z 121212 15010KT CAVOK
                      PROB30 TEMPO 0006 8000 SCT008=
200807112300 TAF LMML 112300Z 120606 15010KT CAVOK
                      PROB30 TEMPO 0006 8000 FEW005=
200807111700 TAF LMML 111700Z 120024 12007KT CAVOK
                      PROB30 TEMPO 0005 7000 SCT005=
200807111100 TAF LMML 111100Z 111818 12004KT CAVOK
                      PROB30 TEMPO 0005 8000 SCT005=
200807110500 TAF LMML 110500Z 111212 15008KT CAVOK=
200807102300 TAF LMML 102300Z 110606 15008KT CAVOK=
200807101700 TAF LMML 101700Z 110024 15005KT CAVOK
                      PROB30 TEMPO 0306 8000 FEW010=
200807101100 TAF LMML 101100Z 101818 VRB03KT CAVOK
                      PROB30 TEMPO 0306 9000 FEW010=
200807100500 TAF LMML 100500Z 101212 11010KT CAVOK
                      PROB30 TEMPO 0003 9000 FEW012=
200807092300 TAF LMML 092300Z 100606 35010KT CAVOK
                      BECMG 0912 12010KT
                      PROB30 TEMPO 0003 9000 FEW012=
200807091700 TAF LMML 091700Z 100024 29010KT CAVOK
                      PROB30 TEMPO 0107 9000 FEW012
                      BECMG 0609 09005KT=
200807091100 TAF LMML 091100Z 091818 29010KT CAVOK
                      BECMG 0407 03005KT
                      PROB30 TEMPO 0207 9000 FEW012=
200807090500 TAF LMML 090500Z 091212 33005KT CAVOK
                      PROB30 TEMPO 0205 7000 NSC=
200807082300 TAF LMML 082300Z 090606 30010KT CAVOK
                      PROB30 TEMPO 0005 7000 FEW005=
200807081700 TAF LMML 081700Z 090024 29008KT CAVOK
                      TEMPO 0006 9999 FEW011
                      PROB30 TEMPO 0005 9000 SCT008=
200807081100 TAF LMML 081100Z 081818 25006KT CAVOK
                      TEMPO 1806 9999 FEW011
                      PROB30 TEMPO 2105 8000 SCT006=
200807080500 TAF LMML 080500Z 081212 23010KT CAVOK
                      BECMG 1518 30012KT 9999 FEW010
                      PROB30 TEMPO 2103 SCT007=
200807072300 TAF LMML 072300Z 080606 24010KT 4000 BR SCT003
                      BECMG 0609 9999 FEW012
                      BECMG 1518 30012KT
                      TEMPO 1806 7000 BKN007=
200807071700 TAF LMML 071700Z 080024 VRB03KT 9999 SCT005
                      PROB30 TEMPO 0006 6000 BKN005
                      BECMG 0609 CAVOK
                      BECMG 1013 27010KT=
200807071100 TAF LMML 071100Z 071818 13004KT 9999 FEW008
                      PROB30 TEMPO 0005 6000 SCT005
                      BECMG 0609 25010KT CAVOK=
200807070500 TAF LMML 070500Z 071212 16006KT CAVOK
                      PROB30 TEMPO 0105 8000
                      BECMG 0811 25011KT=
200807062300 TAF LMML 062300Z 070606 18006KT CAVOK
                      PROB30 TEMPO 0005 8000=
200807061700 TAF LMML 061700Z 070024 12005KT CAVOK
                      PROB30 TEMPO 0006 8000 SCT008
                      BECMG 0912 18010KT=
200807061100 TAF LMML 061100Z 061818 13006KT CAVOK
                      PROB30 TEMPO 0006 9000 SCT009
                      BECMG 0912 19010KT=
200807060500 TAF LMML 060500Z 061212 07010KT 9999 FEW015
                      BECMG 1821 14005KT CAVOK
                      PROB30 TEMPO 0006 9000 NSC=
200807052300 TAF LMML 052300Z 060606 04006KT 9999 FEW015
                      BECMG 1316 CAVOK
                      TEMPO 2106 9000 FEW011=
200807051700 TAF LMML 051700Z 060024 30010KT CAVOK
                      TEMPO 0024 FEW012
                      BECMG 0306 01007KT
                      PROB30 TEMPO 0206 9000=
200807051100 TAF LMML 051100Z 051818 30008KT CAVOK
                      TEMPO 1818 FEW012=
200807050500 TAF LMML 050500Z 051212 30015KT CAVOK
                      BECMG 2124 29005KT 9999 FEW008
                      BECMG 0609 CAVOK=
200807042300 TAF LMML 042300Z 050606 30014KT CAVOK
                      BECMG 2124 30005KT
                      TEMPO 2106 9999 SCT006=
200807041700 TAF LMML 041700Z 050024 28010KT CAVOK
                      PROB30 TEMPO 0005 9000 FEW010
                      BECMG 0609 29015G25KT
                      BECMG 1518 28008KT=
200807041100 TAF LMML 041100Z 041818 23008KT CAVOK
                      BECMG 2124 29011KT
                      BECMG 0609 28015G25KT
                      BECMG 1518 28008KT=
200807040500 TAF LMML 040500Z 041212 25010KT CAVOK
                      BECMG 0407 31015KT=
200807032300 TAF LMML 032300Z 040606 25008KT CAVOK
                      PROB30 TEMPO 0005 8000 FEW010=
200807031700 TAF LMML 031700Z 040024 23007KT CAVOK
                      PROB30 TEMPO 0205 7000 NSC=
200807031100 TAF LMML 031100Z 031818 26006KT CAVOK
                      PROB30 TEMPO 0005 7000 NSC=
200807030500 LMML NIL=
200807022300 TAF LMML 022300Z 030606 VRB03KT CAVOK
                      PROB30 TEMPO 0105 8000=
200807021700 TAF LMML 021700Z 030024 VRB03KT CAVOK
                      PROB30 TEMPO 0306 8000 FEW008=
200807021100 TAF LMML 021100Z 021818 VRB03KT CAVOK
                      PROB30 TEMPO 2106 8000 FEW008=
200807020500 TAF LMML 020500Z 021212 33005KT CAVOK
                      PROB30 TEMPO 0305 8000 NSC=
200807012300 TAF LMML 012300Z 020606 32005KT CAVOK
                      PROB30 TEMPO 0004 7000 NSC=
200807011700 TAF LMML 011700Z 020024 33005KT CAVOK
                      PROB30 TEMPO 0005 7000 FEW005=
200807011100 TAF LMML 011100Z 011818 VRB03KT CAVOK
                      PROB30 TEMPO 0005 7000 FEW005=
200807010500 TAF LMML 010500Z 011212 27005KT CAVOK
                      PROB30 TEMPO 0005 7000 SCT005=
