##########################################################
# Query made at 01/18/2013 16:09:08 UTC
# Time interval: from 06/01/2009 00:00  to 07/01/2009 23:59  UTC
##########################################################

##########################################################
# LMML, Luqa (Malta)
# WMO index: 16597
# Latitude 35-51N. Longitude 014-29E. Altitude 91 m.
##########################################################

###################################
#  METAR/SPECI from LMML
###################################
200907012345 METAR LMML 012345Z 24004KT CAVOK 21/15 Q1017 NOSIG=
200907012330 METAR LMML NIL=
200907012315 METAR LMML 012315Z VRB03KT CAVOK 21/17 Q1017 NOSIG=
200907012245 METAR LMML 012245Z VRB03KT CAVOK 22/17 Q1017 NOSIG=
200907012215 METAR LMML 012215Z VRB03KT CAVOK 22/18 Q1017 NOSIG=
200907012200 METAR LMML NIL=
200907012145 METAR LMML 012145Z VRB02KT CAVOK 22/18 Q1017 NOSIG=
200907012130 METAR LMML NIL=
200907012115 METAR LMML 012115Z VRB02KT CAVOK 22/18 Q1017 NOSIG=
200907012100 METAR LMML NIL=
200907012045 METAR LMML 012045Z VRB03KT CAVOK 22/19 Q1017 NOSIG=
200907012030 METAR LMML NIL=
200907012015 METAR LMML 012015Z 30004KT 270V330 CAVOK 22/19 Q1018 NOSIG=
200907012000 METAR LMML NIL=
200907011945 METAR LMML 011945Z 31006KT CAVOK 22/19 Q1017 NOSIG=
200907011915 METAR LMML 011915Z 30004KT 270V330 CAVOK 23/19 Q1017 NOSIG=
200907011845 METAR LMML 011845Z 32005KT 9999 FEW013 23/19 Q1017 NOSIG=
200907011830 METAR LMML NIL=
200907011815 METAR LMML 011815Z 33006KT 300V010 9999 FEW013 24/19 Q1016
                        NOSIG=
200907011800 METAR LMML NIL=
200907011745 METAR LMML 011745Z 31007KT 9999 FEW014 24/18 Q1016 NOSIG=
200907011730 METAR LMML NIL=
200907011715 METAR LMML 011715Z 27006KT 240V300 9999 FEW020 26/18 Q1016
                        NOSIG=
200907011700 METAR LMML NIL=
200907011645 METAR LMML 011645Z 28004KT 230V330 9999 FEW020 27/18 Q1016
                        NOSIG RMK CB TOPS TO N=
200907011630 METAR LMML NIL=
200907011615 METAR LMML 011615Z 06004KT 350V120 9999 FEW024 28/20 Q1016
                        NOSIG RMK CB TOPS TO N=
200907011545 METAR LMML 011545Z 25004KT 200V300 9999 FEW024 27/18 Q1016
                        NOSIG=
200907011530 METAR LMML NIL=
200907011515 METAR LMML 011515Z 22006KT 180V280 9999 FEW020 25/19 Q1016
                        NOSIG=
200907011500 METAR LMML NIL=
200907011445 METAR LMML 011445Z 20008KT 170V250 9999 FEW020 25/20 Q1016
                        NOSIG=
200907011430 METAR LMML NIL=
200907011415 METAR LMML 011415Z 21007KT 170V270 9999 FEW020 26/19 Q1016
                        NOSIG=
200907011400 METAR LMML NIL=
200907011345 METAR LMML 011345Z 22007KT 170V270 9999 FEW023 26/19 Q1016
                        NOSIG RMK CB TOP TO NORTHEAST=
200907011330 METAR LMML NIL=
200907011315 METAR LMML 011315Z 21008KT 160V250 9999 FEW023 27/19 Q1016
                        NOSIG RMK CB TOP TO NORTHEAST=
200907011300 METAR LMML NIL=
200907011245 METAR LMML 011245Z 22007KT 160V270 9999 FEW023 27/19 Q1017
                        NOSIG RMK CB TOP TO NORTHEAST=
200907011230 METAR LMML NIL=
200907011215 METAR LMML 011215Z 22008KT 180V270 9999 FEW023 26/20 Q1017
                        NOSIG=
200907011200 METAR LMML NIL=
200907011145 METAR LMML 011145Z 21007KT 170V260 9999 FEW023 27/19 Q1017
                        NOSIG=
200907011130 METAR LMML NIL=
200907011115 METAR LMML 011115Z 22008KT 170V260 9999 FEW023 26/19 Q1017
                        NOSIG=
200907011100 METAR LMML NIL=
200907011045 METAR LMML 011045Z 22007KT 170V290 9999 FEW023 27/19 Q1017
                        NOSIG=
200907011030 METAR LMML NIL=
200907011015 METAR LMML 011015Z 36005KT 9999 FEW023 27/19 Q1017 NOSIG=
200907011000 METAR LMML NIL=
200907010945 METAR LMML 010945Z 02005KT 330V070 9999 FEW015 27/19 Q1017
                        TEMPO BKN012=
200907010930 METAR LMML NIL=
200907010915 METAR LMML 010915Z 02004KT 340V110 9999 FEW012 28/19 Q1017
                        TEMPO BKN012=
200907010900 METAR LMML NIL=
200907010845 METAR COR LMML 010845Z 08005KT 9999 FEW012 27/19 Q1017 TEMPO
                        BKN012=
200907010830 METAR LMML NIL=
200907010815 METAR LMML 010815Z VRB02KT 9999 FEW012 28/18 Q1017 TEMPO
                        BKN012=
200907010800 METAR LMML NIL=
200907010745 METAR LMML 010745Z VRB01KT 9999 FEW015 27/12 Q1017 NOSIG=
200907010730 METAR LMML NIL=
200907010715 METAR LMML 010715Z VRB03KT 9999 FEW015 26/14 Q1016 NOSIG=
200907010700 METAR LMML NIL=
200907010645 METAR LMML 010645Z VRB02KT 9999 FEW012 25/15 Q1016 NOSIG=
200907010630 METAR LMML NIL=
200907010615 METAR LMML 010615Z VRB01KT 9999 FEW012 24/18 Q1016 NOSIG=
200907010545 METAR LMML 010545Z VRB02KT 9000 FEW012 22/19 Q1016 NOSIG=
200907010530 METAR LMML NIL=
200907010515 METAR LMML 010515Z VRB01KT 9000 FEW008 21/19 Q1016 BECMG
                        9999=
200907010500 METAR LMML NIL=
200907010445 METAR LMML 010445Z 00000KT 7000 FEW008 20/19 Q1016 BECMG
                        9999=
200907010430 METAR LMML NIL=
200907010415 METAR LMML 010415Z VRB02KT 9000 FEW008 20/18 Q1016 BECMG
                        9999=
200907010400 METAR LMML NIL=
200907010345 METAR LMML 010345Z VRB01KT 9999 FEW008 20/18 Q1015 NOSIG=
200907010330 METAR LMML NIL=
200907010315 METAR LMML 010315Z VRB02KT CAVOK 20/18 Q1015 NOSIG=
200907010300 METAR LMML NIL=
200907010245 METAR LMML 010245Z VRB03KT CAVOK 20/18 Q1016 NOSIG=
200907010230 METAR LMML NIL=
200907010215 METAR LMML 010215Z VRB02KT CAVOK 20/18 Q1016 NOSIG=
200907010200 METAR LMML NIL=
200907010145 METAR LMML 010145Z VRB02KT CAVOK 20/17 Q1016 NOSIG=
200907010130 METAR LMML NIL=
200907010115 METAR LMML 010115Z VRB03KT CAVOK 20/17 Q1016 NOSIG=
200907010100 METAR LMML NIL=
200907010045 METAR LMML 010045Z VRB03KT CAVOK 20/16 Q1016 NOSIG=
200907010030 METAR LMML NIL=
200907010015 METAR LMML 010015Z VRB01KT CAVOK 20/15 Q1016 NOSIG=
200907010000 METAR LMML NIL=
200906302345 METAR LMML 302345Z VRB03KT CAVOK 21/15 Q1016 NOSIG=
200906302330 METAR LMML NIL=
200906302315 METAR LMML 302315Z VRB02KT CAVOK 21/16 Q1016 NOSIG=
200906302300 METAR LMML NIL=
200906302245 METAR LMML 302245Z VRB01KT CAVOK 21/16 Q1017 NOSIG=
200906302230 METAR LMML NIL=
200906302215 METAR LMML 302215Z VRB02KT CAVOK 21/17 Q1017 NOSIG=
200906302200 METAR LMML NIL=
200906302145 METAR LMML 302145Z 31006KT CAVOK 22/16 Q1017 NOSIG=
200906302130 METAR LMML NIL=
200906302115 METAR LMML 302115Z 33004KT CAVOK 22/16 Q1017 NOSIG=
200906302100 METAR LMML NIL=
200906302045 METAR LMML 302045Z 33004KT CAVOK 22/16 Q1017 NOSIG=
200906302030 METAR LMML NIL=
200906302015 METAR LMML 302015Z 33004KT 290V350 CAVOK 22/16 Q1017 NOSIG=
200906302000 METAR LMML NIL=
200906301945 METAR LMML 301945Z 33005KT CAVOK 22/16 Q1017 NOSIG=
200906301930 METAR LMML NIL=
200906301915 METAR LMML 301915Z 32007KT CAVOK 23/17 Q1016 NOSIG=
200906301900 METAR LMML NIL=
200906301845 METAR LMML 301845Z 31007KT CAVOK 23/18 Q1016 NOSIG=
200906301830 METAR LMML NIL=
200906301815 METAR LMML 301815Z 34006KT CAVOK 24/17 Q1016 NOSIG=
200906301800 METAR LMML NIL=
200906301745 METAR LMML 301745Z 34006KT 300V010 9999 FEW025 25/17 Q1016
                        NOSIG=
200906301730 METAR LMML NIL=
200906301715 METAR LMML 301715Z 32008KT 9999 FEW030 25/17 Q1016 NOSIG=
200906301700 METAR LMML NIL=
200906301645 METAR LMML 301645Z 33007KT 9999 FEW032 26/17 Q1015 NOSIG=
200906301630 METAR LMML NIL=
200906301615 METAR LMML 301615Z 32005KT 240V030 9999 FEW032 27/17 Q1015
                        NOSIG=
200906301600 METAR LMML NIL=
200906301545 METAR LMML 301545Z 31007KT 250V010 9999 FEW032 27/18 Q1015
                        NOSIG=
200906301530 METAR LMML NIL=
200906301515 METAR LMML 301515Z 23005KT 180V310 9999 FEW032 26/19 Q1015
                        NOSIG=
200906301500 METAR LMML NIL=
200906301445 METAR LMML 301445Z 23006KT 190V290 9999 FEW029 27/19 Q1015
                        NOSIG=
200906301430 METAR LMML NIL=
200906301415 METAR LMML 301415Z 22008KT 180V260 9999 FEW030 26/19 Q1016
                        NOSIG=
200906301400 METAR LMML NIL=
200906301345 METAR LMML 301345Z 22005KT 170V280 9999 FEW022 26/19 Q1016
                        NOSIG=
200906301330 METAR LMML NIL=
200906301315 METAR LMML 301315Z 20006KT 160V240 9999 FEW022 26/20 Q1016
                        NOSIG RMK CB TOP TO NNE=
200906301300 METAR LMML NIL=
200906301245 METAR LMML 301245Z 17004KT 360V260 9999 FEW029 27/20 Q1016
                        NOSIG=
200906301230 METAR LMML NIL=
200906301215 METAR LMML 301215Z 05005KT 340V100 9999 FEW022 29/17 Q1016
                        NOSIG=
200906301145 METAR LMML 301145Z 01006KT 330V050 9999 FEW022 29/18 Q1016
                        NOSIG=
200906301115 METAR LMML 301115Z 01006KT 330V060 9999 FEW022 29/19 Q1016
                        NOSIG=
200906301100 METAR LMML NIL=
200906301045 METAR LMML 301045Z 04008KT 010V080 9999 FEW022 28/19 Q1016
                        NOSIG=
200906301030 METAR LMML NIL=
200906301015 METAR LMML 301015Z 36006KT 330V050 9999 FEW022 28/19 Q1016
                        NOSIG=
200906301000 METAR LMML NIL=
200906300945 METAR LMML 300945Z 02007KT 350V070 9999 FEW022 28/18 Q1016
                        NOSIG=
200906300930 METAR LMML NIL=
200906300915 METAR LMML 300915Z 03005KT 9999 FEW022 28/17 Q1016 NOSIG=
200906300900 METAR LMML NIL=
200906300845 METAR LMML 300845Z 23004KT 9999 FEW022 27/18 Q1015 NOSIG=
200906300830 METAR LMML NIL=
200906300815 METAR LMML 300815Z 31007KT 280V360 9999 FEW012 27/17 Q1015
                        NOSIG=
200906300800 METAR LMML NIL=
200906300745 METAR LMML 300745Z 33007KT 290V360 9999 FEW012 27/16 Q1015
                        NOSIG=
200906300730 METAR LMML NIL=
200906300715 METAR LMML 300715Z 31007KT 9999 FEW009 26/15 Q1015 NOSIG=
200906300700 METAR LMML NIL=
200906300645 METAR LMML 300645Z 31007KT 280V350 9999 FEW009 25/16 Q1015
                        NOSIG=
200906300630 METAR LMML NIL=
200906300615 METAR LMML 300615Z 30005KT 260V330 9999 FEW012 24/18 Q1015
                        NOSIG=
200906300600 METAR LMML NIL=
200906300545 METAR LMML 300545Z 30006KT 280V350 9999 FEW012 23/19 Q1015
                        NOSIG=
200906300515 METAR LMML 300515Z 30006KT 260V330 9000 FEW012 22/19 Q1015
                        NOSIG=
200906300500 METAR LMML NIL=
200906300445 METAR LMML 300445Z 31005KT 270V330 9000 FEW012 21/19 Q1015
                        NOSIG=
200906300430 METAR LMML NIL=
200906300415 METAR LMML 300415Z 27005KT 240V300 7000 FEW012 21/19 Q1015
                        NOSIG=
200906300400 METAR LMML NIL=
200906300345 METAR LMML 300345Z VRB03KT 7000 FEW008 20/19 Q1015 NOSIG=
200906300330 METAR LMML NIL=
200906300315 METAR LMML 300315Z 26005KT 9000 FEW008 21/19 Q1014 NOSIG=
200906300300 METAR LMML NIL=
200906300245 METAR LMML 300245Z 25007KT 200V300 9999 FEW008 21/19 Q1014
                        NOSIG=
200906300230 METAR LMML NIL=
200906300215 METAR LMML 300215Z 25009KT 200V290 CAVOK 21/19 Q1014 NOSIG=
200906300200 METAR LMML NIL=
200906300145 METAR LMML 300145Z 24008KT 210V290 CAVOK 21/18 Q1014 NOSIG=
200906300130 METAR LMML NIL=
200906300115 METAR LMML 300115Z 25009KT 220V280 CAVOK 21/19 Q1015 NOSIG=
200906300100 METAR LMML NIL=
200906300045 METAR LMML 300045Z VRB03KT CAVOK 21/19 Q1015 NOSIG=
200906300030 METAR LMML NIL=
200906300015 METAR LMML 300015Z 23006KT 180V290 CAVOK 21/19 Q1015 NOSIG=
200906300000 METAR LMML NIL=
200906292345 METAR LMML 292345Z 22006KT 200V280 CAVOK 21/19 Q1015 NOSIG=
200906292330 METAR LMML NIL=
200906292315 METAR LMML 292315Z VRB03KT CAVOK 21/19 Q1015 NOSIG=
200906292300 METAR LMML NIL=
200906292245 METAR LMML 292245Z VRB03KT CAVOK 21/19 Q1015 NOSIG=
200906292230 METAR LMML NIL=
200906292215 METAR LMML 292215Z 23004KT CAVOK 21/18 Q1016 NOSIG=
200906292200 METAR LMML NIL=
200906292145 METAR LMML 292145Z 24004KT 220V280 CAVOK 21/17 Q1016 NOSIG=
200906292130 METAR LMML NIL=
200906292115 METAR LMML 292115Z VRB03KT CAVOK 21/17 Q1016 NOSIG=
200906292100 METAR LMML NIL=
200906292045 METAR LMML 292045Z 27004KT 230V300 CAVOK 22/17 Q1016 NOSIG=
200906292030 METAR LMML NIL=
200906292015 METAR LMML 292015Z 28004KT CAVOK 22/17 Q1015 NOSIG=
200906292000 METAR LMML NIL=
200906291945 METAR LMML 291945Z 28004KT 240V300 CAVOK 22/16 Q1015 NOSIG=
200906291930 METAR LMML NIL=
200906291915 METAR LMML 291915Z 30005KT CAVOK 22/16 Q1015 NOSIG=
200906291900 METAR LMML NIL=
200906291845 METAR LMML 291845Z 31006KT CAVOK 23/16 Q1015 NOSIG=
200906291830 METAR LMML NIL=
200906291815 METAR LMML 291815Z 32006KT CAVOK 24/15 Q1015 NOSIG=
200906291800 METAR LMML NIL=
200906291745 METAR LMML 291745Z 31005KT CAVOK 25/13 Q1015 NOSIG=
200906291730 METAR LMML NIL=
200906291715 METAR LMML 291715Z VRB03KT CAVOK 26/12 Q1014 NOSIG=
200906291700 METAR LMML NIL=
200906291645 METAR LMML 291645Z 29006KT 250V320 CAVOK 27/13 Q1014 NOSIG=
200906291630 METAR LMML NIL=
200906291615 METAR LMML 291615Z VRB03KT CAVOK 27/17 Q1014 NOSIG=
200906291600 METAR LMML NIL=
200906291545 METAR LMML 291545Z 02004KT 330V060 9999 FEW033 28/17 Q1014
                        NOSIG=
200906291530 METAR LMML NIL=
200906291515 METAR LMML 291515Z VRB03KT 9999 FEW033 27/17 Q1014 NOSIG=
200906291500 METAR LMML NIL=
200906291445 METAR LMML 291445Z VRB03KT 9999 FEW025 26/18 Q1015 NOSIG=
200906291430 METAR LMML NIL=
200906291415 METAR LMML 291415Z 11006KT 040V160 9999 FEW030 SCT250 26/18
                        Q1015 NOSIG=
200906291400 METAR LMML NIL=
200906291345 METAR LMML 291345Z 13008KT 100V160 9999 FEW030 SCT250 26/18
                        Q1015 NOSIG=
200906291330 METAR LMML NIL=
200906291315 METAR LMML 291315Z 13010KT 100V160 9999 FEW030 SCT250 26/18
                        Q1015 NOSIG=
200906291300 METAR LMML NIL=
200906291245 METAR LMML 291245Z 02005KT 290V120 CAVOK 29/14 Q1014 NOSIG=
200906291230 METAR LMML NIL=
200906291215 METAR LMML 291215Z 33005KT 270V060 CAVOK 29/12 Q1014 NOSIG=
200906291200 METAR LMML NIL=
200906291145 METAR LMML 291145Z 34006KT 250V030 9999 FEW030 SCT250 28/12
                        Q1015 NOSIG=
200906291130 METAR LMML NIL=
200906291115 METAR LMML 291115Z 34006KT 270V030 9999 FEW030 SCT250 29/13
                        Q1015 NOSIG=
200906291100 METAR LMML NIL=
200906291045 METAR LMML 291045Z 34007KT 270V030 9999 FEW030 SCT250 29/15
                        Q1015 NOSIG=
200906291030 METAR LMML NIL=
200906291015 METAR LMML 291015Z 33008KT 280V010 9999 FEW030 SCT250 28/14
                        Q1015 NOSIG=
200906291000 METAR LMML NIL=
200906290945 METAR LMML 290945Z 33007KT 260V020 9999 FEW020 SCT250 28/15
                        Q1015 NOSIG=
200906290930 METAR LMML NIL=
200906290915 METAR LMML 290915Z 31006KT 250V360 9999 FEW030 SCT250 27/14
                        Q1015 NOSIG=
200906290900 METAR LMML NIL=
200906290845 METAR LMML 290845Z 29007KT 220V340 9999 FEW030 26/15 Q1015
                        NOSIG=
200906290830 METAR LMML NIL=
200906290815 METAR LMML 290815Z 30007KT 220V010 9999 FEW030 27/14 Q1014
                        NOSIG=
200906290800 METAR LMML NIL=
200906290745 METAR LMML 290745Z 28005KT 230V340 9999 FEW030 26/16 Q1014
                        NOSIG=
200906290730 METAR LMML NIL=
200906290715 METAR LMML 290715Z VRB02KT 9999 FEW020 26/16 Q1014 NOSIG=
200906290700 METAR LMML NIL=
200906290645 METAR LMML 290645Z VRB03KT 9999 FEW020 25/16 Q1014 NOSIG=
200906290630 METAR LMML NIL=
200906290615 METAR LMML 290615Z VRB02KT CAVOK 24/17 Q1014 NOSIG=
200906290600 METAR LMML NIL=
200906290545 METAR LMML 290545Z VRB02KT CAVOK 23/18 Q1014 NOSIG=
200906290530 METAR LMML NIL=
200906290515 METAR LMML 290515Z 31004KT 290V360 CAVOK 22/18 Q1014 NOSIG=
200906290500 METAR LMML NIL=
200906290445 METAR LMML 290445Z 32004KT CAVOK 20/18 Q1014 NOSIG=
200906290430 METAR LMML NIL=
200906290415 METAR LMML 290415Z 32004KT 9000 FEW012 20/18 Q1014 NOSIG=
200906290400 METAR LMML NIL=
200906290345 METAR LMML 290345Z VRB03KT 9000 FEW012 20/18 Q1013 NOSIG=
200906290330 METAR LMML NIL=
200906290315 METAR LMML 290315Z 33005KT 9000 FEW012 20/18 Q1013 NOSIG=
200906290300 METAR LMML NIL=
200906290245 METAR LMML 290245Z 34004KT 9000 FEW012 20/19 Q1013 NOSIG=
200906290230 METAR LMML NIL=
200906290215 METAR LMML 290215Z 33005KT CAVOK 20/19 Q1013 NOSIG=
200906290200 METAR LMML NIL=
200906290145 METAR LMML 290145Z 33005KT CAVOK 20/18 Q1013 NOSIG=
200906290130 METAR LMML NIL=
200906290115 METAR LMML 290115Z 34005KT CAVOK 21/19 Q1013 NOSIG=
200906290100 METAR LMML NIL=
200906290045 METAR LMML 290045Z 35008KT CAVOK 21/18 Q1013 NOSIG=
200906290030 METAR LMML NIL=
200906290000 METAR LMML NIL=
200906282345 METAR LMML 282345Z 35008KT 9999 FEW012 21/18 Q1013 NOSIG=
200906282330 METAR LMML NIL=
200906282315 METAR LMML 282315Z 34010KT 9999 FEW012 21/18 Q1013 NOSIG=
200906282300 METAR LMML NIL=
200906282245 METAR LMML 282245Z 33011KT CAVOK 21/18 Q1012 NOSIG=
200906282215 METAR LMML 282215Z 31011KT CAVOK 22/17 Q1013 NOSIG=
200906282200 METAR LMML NIL=
200906282145 METAR LMML 282145Z 32009KT CAVOK 21/17 Q1013 NOSIG=
200906282130 METAR LMML NIL=
200906282115 METAR LMML 282115Z 32009KT 290V360 CAVOK 21/17 Q1013 NOSIG=
200906282100 METAR LMML NIL=
200906282045 METAR LMML 282045Z 29013KT 250V320 CAVOK 22/17 Q1013 NOSIG=
200906282030 METAR LMML NIL=
200906282015 METAR LMML 282015Z 30012KT CAVOK 22/16 Q1013 NOSIG=
200906282000 METAR LMML NIL=
200906281945 METAR LMML 281945Z 29012KT 250V320 CAVOK 22/16 Q1013 NOSIG=
200906281915 METAR LMML 281915Z 29010KT 260V320 CAVOK 22/16 Q1012 NOSIG=
200906281900 METAR LMML NIL=
200906281845 METAR LMML 281845Z 29011KT 260V320 CAVOK 22/16 Q1013 NOSIG=
200906281830 METAR LMML NIL=
200906281815 METAR LMML 281815Z 29012KT 260V330 CAVOK 22/16 Q1012 NOSIG=
200906281800 METAR LMML NIL=
200906281745 METAR LMML 281745Z 29015KT CAVOK 23/15 Q1012 NOSIG=
200906281730 METAR LMML NIL=
200906281715 METAR LMML 281715Z 29017KT 260V320 CAVOK 24/14 Q1012 NOSIG=
200906281700 METAR LMML NIL=
200906281645 METAR LMML 281645Z 30017KT CAVOK 25/13 Q1012 NOSIG=
200906281630 METAR LMML NIL=
200906281615 METAR LMML 281615Z 29016KT 260V320 CAVOK 25/13 Q1012 NOSIG=
200906281600 METAR LMML NIL=
200906281545 METAR LMML 281545Z 30016KT 9999 FEW020 26/14 Q1012 NOSIG
                        RMK CB TO NORTHEAST=
200906281530 METAR LMML NIL=
200906281515 METAR LMML 281515Z 28015KT 250V310 9999 FEW020 27/14 Q1012
                        NOSIG RMK CB TO NORTHEAST=
200906281500 METAR LMML NIL=
200906281445 METAR LMML 281445Z 29018KT 260V320 9999 FEW020 27/13 Q1013
                        NOSIG RMK CB TO NORTHEAST=
200906281430 METAR LMML NIL=
200906281415 METAR LMML 281415Z 29017KT 9999 FEW020 27/14 Q1013 NOSIG
                        RMK CB TO NORTH=
200906281400 METAR LMML NIL=
200906281345 METAR LMML 281345Z 29019KT 260V320 9999 FEW020 27/14 Q1013
                        NOSIG RMK CB TO NORTH=
200906281330 METAR LMML NIL=
200906281315 METAR LMML 281315Z 29019KT 9999 FEW020 27/13 Q1013 NOSIG
                        RMK CB TO NORTH=
200906281300 METAR LMML NIL=
200906281245 METAR LMML 281245Z 29016KT 260V320 9999 FEW020 27/16 Q1012
                        NOSIG RMK CB TOPS TO NORTH=
200906281230 METAR LMML NIL=
200906281215 METAR LMML 281215Z 31015KT 270V340 9999 FEW020 27/16 Q1013
                        NOSIG RMK CB TOPS TO NORTH=
200906281200 METAR LMML NIL=
200906281145 METAR LMML 281145Z 31019KT 270V330 9999 FEW020 27/17 Q1013
                        NOSIG RMK CB TOP TO NORTH=
200906281130 METAR LMML NIL=
200906281115 METAR LMML 281115Z 30019KT 9999 FEW018 26/17 Q1013 NOSIG=
200906281100 METAR LMML NIL=
200906281045 METAR LMML 281045Z 30018KT 270V330 9999 FEW018 26/17 Q1013
                        NOSIG=
200906281030 METAR LMML NIL=
200906281015 METAR LMML 281015Z 30017KT 250V320 9999 FEW018 25/17 Q1013
                        NOSIG=
200906281000 METAR LMML NIL=
200906280945 METAR LMML 280945Z 29015KT 250V320 9999 FEW016 25/17 Q1013
                        NOSIG=
200906280930 METAR LMML NIL=
200906280915 METAR LMML 280915Z 29015KT 260V320 9999 FEW016 26/17 Q1013
                        NOSIG=
200906280900 METAR LMML NIL=
200906280845 METAR LMML 280845Z 29017KT 260V320 9999 FEW016 25/17 Q1013
                        NOSIG=
200906280830 METAR LMML NIL=
200906280815 METAR LMML 280815Z 30018KT 9999 FEW016 24/17 Q1013 NOSIG=
200906280800 METAR LMML NIL=
200906280745 METAR LMML 280745Z 28018KT 250V330 9999 FEW016 24/18 Q1013
                        NOSIG=
200906280730 METAR LMML NIL=
200906280715 METAR LMML 280715Z 29017KT 260V320 9999 FEW015 24/18 Q1013
                        NOSIG=
200906280700 METAR LMML NIL=
200906280645 METAR LMML 280645Z 29016KT 260V320 9999 FEW015 23/18 Q1013
                        NOSIG=
200906280630 METAR LMML NIL=
200906280615 METAR LMML 280615Z 29014KT 250V310 9999 SCT015 22/18 Q1013
                        NOSIG=
200906280600 METAR LMML NIL=
200906280545 METAR LMML 280545Z 28015KT 250V310 9999 SCT013 22/18 Q1012
                        NOSIG=
200906280530 METAR LMML NIL=
200906280515 METAR LMML 280515Z 29017KT 260V320 9999 FEW012 SCT250 21/18
                        Q1012 NOSIG=
200906280500 METAR LMML NIL=
200906280445 METAR LMML 280445Z 29014KT 9999 FEW012 21/18 Q1012 NOSIG=
200906280430 METAR LMML NIL=
200906280415 METAR LMML 280415Z 29010KT 9999 FEW012 20/18 Q1012 NOSIG=
200906280345 METAR LMML 280345Z 29008KT 250V320 9999 FEW011 20/18 Q1012
                        NOSIG=
200906280315 METAR LMML 280315Z 31004KT 270V340 9999 FEW011 20/18 Q1012
                        NOSIG=
200906280300 METAR LMML NIL=
200906280245 METAR LMML 280245Z 31005KT 280V350 9999 SCT010 20/18 Q1012
                        NOSIG=
200906280215 METAR LMML 280215Z 30005KT 270V330 9999 FEW009 20/18 Q1012
                        NOSIG=
200906280200 METAR LMML NIL=
200906280145 METAR LMML 280145Z 28007KT 250V320 9999 FEW009 20/18 Q1012
                        NOSIG=
200906280130 METAR LMML NIL=
200906280115 METAR LMML 280115Z 28009KT 240V310 9999 FEW009 20/18 Q1013
                        NOSIG=
200906280100 METAR LMML NIL=
200906280045 METAR LMML 280045Z 29005KT 260V330 9999 FEW009 20/17 Q1013
                        NOSIG=
200906280030 METAR LMML NIL=
200906280015 METAR LMML 280015Z 32004KT 290V360 9999 FEW009 20/18 Q1013
                        NOSIG=
200906280000 METAR LMML NIL=
200906272345 METAR LMML 272345Z 30007KT 270V340 9999 FEW009 21/18 Q1013
                        BECMG CAVOK=
200906272330 METAR LMML NIL=
200906272315 METAR LMML 272315Z 29004KT 210V350 9999 FEW009 21/19 Q1013
                        NOSIG=
200906272300 METAR LMML NIL=
200906272245 METAR LMML 272245Z 26004KT 200V330 CAVOK 21/18 Q1013 NOSIG=
200906272230 METAR LMML NIL=
200906272215 METAR LMML 272215Z VRB03KT CAVOK 21/18 Q1013 NOSIG=
200906272200 METAR LMML NIL=
200906272145 METAR LMML 272145Z 31005KT 270V350 CAVOK 22/17 Q1013 NOSIG=
200906272130 METAR LMML NIL=
200906272115 METAR LMML 272115Z VRB02KT CAVOK 22/14 Q1013 NOSIG=
200906272100 METAR LMML NIL=
200906272045 METAR LMML 272045Z 32004KT 220V060 CAVOK 22/14 Q1013 NOSIG=
200906272030 METAR LMML NIL=
200906272015 METAR LMML 272015Z 28010KT CAVOK 22/17 Q1013 NOSIG=
200906272000 METAR LMML NIL=
200906271945 METAR LMML 271945Z 28010KT 250V310 CAVOK 22/18 Q1012 NOSIG=
200906271930 METAR LMML NIL=
200906271915 METAR LMML 271915Z 28008KT 230V320 CAVOK 22/18 Q1012 NOSIG=
200906271900 METAR LMML NIL=
200906271845 METAR LMML 271845Z 29005KT 260V330 CAVOK 22/17 Q1012 NOSIG=
200906271830 METAR LMML NIL=
200906271815 METAR LMML 271815Z 30008KT 230V330 CAVOK 23/17 Q1012 NOSIG=
200906271800 METAR LMML NIL=
200906271745 METAR LMML 271745Z 30009KT 9999 FEW020 23/18 Q1012 NOSIG=
200906271730 METAR LMML NIL=
200906271715 METAR LMML 271715Z 30012KT 9999 FEW020 23/18 Q1012 NOSIG=
200906271700 METAR LMML NIL=
200906271645 METAR LMML 271645Z 27011KT 240V310 9999 FEW020 24/18 Q1012
                        NOSIG RMK CB TOPS TO NE=
200906271630 METAR LMML NIL=
200906271615 METAR LMML 271615Z 29011KT 250V310 9999 FEW020 25/17 Q1012
                        NOSIG=
200906271600 METAR LMML NIL=
200906271545 METAR LMML 271545Z 29012KT 9999 FEW020 25/17 Q1012 NOSIG
                        RMK CB TOPS TO NNE=
200906271530 METAR LMML NIL=
200906271515 METAR LMML 271515Z 30013KT 9999 FEW020 26/17 Q1013 NOSIG
                        RMK CB TOPS TO N=
200906271500 METAR LMML NIL=
200906271445 METAR LMML 271445Z 28011KT 240V310 9999 FEW020 26/16 Q1013
                        NOSIG=
200906271430 METAR LMML NIL=
200906271415 METAR LMML 271415Z 28012KT 240V320 9999 FEW020 26/17 Q1013
                        NOSIG=
200906271345 METAR LMML 271345Z 31012KT 270V340 9999 FEW020 27/17 Q1013
                        NOSIG=
200906271330 METAR LMML NIL=
200906271315 METAR LMML 271315Z 31012KT 280V340 9999 FEW020 27/17 Q1013
                        NOSIG=
200906271300 METAR LMML NIL=
200906271245 METAR LMML 271245Z 29014KT 260V320 9999 FEW020 27/16 Q1013
                        NOSIG=
200906271230 METAR LMML NIL=
200906271215 METAR LMML 271215Z 30013KT 270V330 9999 FEW020 28/16 Q1013
                        NOSIG=
200906271200 METAR LMML NIL=
200906271145 METAR LMML 271145Z 30014KT 270V330 9999 FEW020 27/17 Q1013
                        NOSIG=
200906271130 METAR LMML NIL=
200906271115 METAR LMML 271115Z 31013KT 270V340 9999 FEW020 SCT120 27/17
                        Q1013 NOSIG=
200906271100 METAR LMML NIL=
200906271045 METAR LMML 271045Z 31014KT 280V340 9999 FEW020 27/17 Q1013
                        NOSIG=
200906271030 METAR LMML NIL=
200906271015 METAR LMML 271015Z 31010KT 270V350 9999 FEW025 28/17 Q1013
                        NOSIG=
200906271000 METAR LMML NIL=
200906270945 METAR LMML 270945Z 30013KT 9999 FEW025 26/17 Q1013 NOSIG=
200906270930 METAR LMML NIL=
200906270915 METAR LMML 270915Z 30013KT 270V340 CAVOK 26/18 Q1013 NOSIG=
200906270900 METAR LMML NIL=
200906270845 METAR LMML 270845Z 31013KT CAVOK 26/17 Q1013 NOSIG=
200906270830 METAR LMML NIL=
200906270815 METAR LMML 270815Z 29010KT 250V330 9999 FEW015 26/18 Q1013
                        NOSIG=
200906270800 METAR LMML NIL=
200906270745 METAR LMML 270745Z 30009KT 270V330 9999 FEW015 24/18 Q1013
                        NOSIG=
200906270730 METAR LMML NIL=
200906270715 METAR LMML 270715Z 31011KT 9999 FEW015 SCT120 24/19 Q1013
                        NOSIG=
200906270700 METAR LMML NIL=
200906270645 METAR LMML 270645Z VRB03KT 9999 FEW012 SCT120 22/19 Q1013
                        NOSIG=
200906270630 METAR LMML NIL=
200906270615 METAR LMML 270615Z 29004KT 250V340 9999 FEW012 BKN100 22/18
                        Q1013 NOSIG=
200906270600 METAR LMML NIL=
200906270545 METAR LMML 270545Z 34004KT 160V040 9999 FEW012 BKN100 21/18
                        Q1012 NOSIG=
200906270530 METAR LMML NIL=
200906270515 METAR LMML 270515Z 34007KT 310V020 9999 FEW012 BKN110 20/19
                        Q1012 NOSIG=
200906270500 METAR LMML NIL=
200906270445 METAR LMML 270445Z 26006KT 210V310 8000 -RA FEW011 BKN110
                        21/19 Q1013 NOSIG=
200906270431 SPECI LMML 270431Z 27009KT 220V310 8000 -RA FEW011 BKN110
                        21/19 Q1013 NOSIG=
200906270430 METAR LMML NIL=
200906270415 METAR LMML 270415Z 28010KT 240V310 5000 -RA FEW011 BKN110
                        21/19 Q1013 NOSIG=
200906270400 METAR LMML NIL=
200906270345 METAR LMML 270345Z 28013KT 250V330 9999 -RA FEW012 BKN110
                        21/19 Q1013 NOSIG=
200906270330 METAR LMML NIL=
200906270315 METAR LMML 270315Z 28014KT 250V310 9999 FEW012 BKN120 21/18
                        Q1013 NOSIG=
200906270300 METAR LMML NIL=
200906270245 METAR LMML 270245Z 28010KT 240V310 9999 FEW012 BKN110 21/18
                        Q1013 TEMPO 8000 SHRA=
200906270230 METAR LMML NIL=
200906270215 METAR LMML 270215Z 27009KT 230V310 9999 FEW009 BKN100 21/18
                        Q1014 TEMPO 8000 SHRA=
200906270200 METAR LMML NIL=
200906270145 METAR LMML 270145Z 26004KT 210V300 CAVOK 21/18 Q1013 NOSIG=
200906270130 METAR LMML NIL=
200906270115 METAR LMML 270115Z 32005KT CAVOK 21/18 Q1012 NOSIG=
200906270045 METAR LMML 270045Z VRB01KT CAVOK 21/18 Q1012 NOSIG=
200906270030 METAR LMML NIL=
200906270015 METAR LMML 270015Z VRB03KT CAVOK 21/18 Q1012 NOSIG=
200906270000 METAR LMML NIL=
200906262345 METAR LMML 262345Z VRB03KT CAVOK 21/18 Q1012 NOSIG=
200906262330 METAR LMML NIL=
200906262315 METAR LMML 262315Z 28004KT 250V310 CAVOK 21/19 Q1012 NOSIG=
200906262300 METAR LMML NIL=
200906262245 METAR LMML 262245Z 27005KT 230V290 CAVOK 22/19 Q1012 NOSIG=
200906262230 METAR LMML NIL=
200906262215 METAR LMML 262215Z 23004KT CAVOK 21/20 Q1012 NOSIG=
200906262200 METAR LMML NIL=
200906262145 METAR LMML 262145Z 23004KT 200V260 CAVOK 22/20 Q1012 NOSIG=
200906262130 METAR LMML NIL=
200906262115 METAR LMML 262115Z 23004KT 200V270 CAVOK 22/20 Q1012 NOSIG=
200906262100 METAR LMML NIL=
200906262045 METAR LMML 262045Z 25004KT 220V280 CAVOK 22/20 Q1012 NOSIG=
200906262030 METAR LMML NIL=
200906262015 METAR LMML 262015Z VRB03KT CAVOK 22/20 Q1012 NOSIG=
200906262000 METAR LMML NIL=
200906261945 METAR LMML 261945Z 23004KT 190V270 CAVOK 22/20 Q1012 NOSIG=
200906261930 METAR LMML NIL=
200906261915 METAR LMML 261915Z 24006KT 210V280 CAVOK 22/20 Q1012 NOSIG=
200906261900 METAR LMML NIL=
200906261845 METAR LMML 261845Z 24006KT 210V270 CAVOK 23/18 Q1012 NOSIG=
200906261830 METAR LMML NIL=
200906261815 METAR LMML 261815Z 24005KT 200V280 CAVOK 24/18 Q1012 NOSIG=
200906261800 METAR LMML NIL=
200906261745 METAR LMML 261745Z 24006KT 210V270 CAVOK 24/18 Q1012 NOSIG=
200906261730 METAR LMML NIL=
200906261715 METAR LMML 261715Z 25007KT 220V280 CAVOK 25/18 Q1012 NOSIG=
200906261645 METAR LMML 261645Z 25007KT 190V300 CAVOK 26/17 Q1012 NOSIG=
200906261630 METAR LMML NIL=
200906261615 METAR LMML 261615Z 25008KT 200V290 CAVOK 26/17 Q1012 NOSIG=
200906261600 METAR LMML NIL=
200906261545 METAR LMML 261545Z 25007KT 180V300 CAVOK 27/17 Q1012 NOSIG=
200906261530 METAR LMML NIL=
200906261515 METAR LMML 261515Z 23006KT 180V270 CAVOK 27/15 Q1012 NOSIG=
200906261500 METAR LMML NIL=
200906261445 METAR LMML 261445Z 22007KT 180V270 CAVOK 27/17 Q1012 NOSIG=
200906261430 METAR LMML NIL=
200906261415 METAR LMML 261415Z 25008KT 190V290 CAVOK 27/16 Q1012 NOSIG=
200906261400 METAR LMML NIL=
200906261345 METAR LMML 261345Z 24008KT 180V300 CAVOK 28/14 Q1012 NOSIG=
200906261330 METAR LMML NIL=
200906261315 METAR LMML 261315Z 24008KT 200V300 CAVOK 28/15 Q1012 NOSIG=
200906261300 METAR LMML NIL=
200906261245 METAR LMML 261245Z 25008KT 150V310 CAVOK 27/14 Q1013 NOSIG=
200906261230 METAR LMML NIL=
200906261215 METAR LMML 261215Z 26008KT 210V310 CAVOK 28/13 Q1012 NOSIG=
200906261200 METAR LMML NIL=
200906261145 METAR LMML 261145Z 24006KT 170V310 CAVOK 27/13 Q1012 NOSIG=
200906261130 METAR LMML NIL=
200906261115 METAR LMML 261115Z 23007KT 200V290 CAVOK 27/14 Q1013 NOSIG=
200906261100 METAR LMML NIL=
200906261045 METAR LMML 261045Z 23008KT 200V270 CAVOK 27/13 Q1013 NOSIG=
200906261030 METAR LMML NIL=
200906261015 METAR COR LMML 261015Z 24008KT 200V300 CAVOK 26/14 Q1013
                        NOSIG=
200906261000 METAR LMML NIL=
200906260945 METAR LMML 260945Z 23007KT 190V290 CAVOK 26/16 Q1013 NOSIG=
200906260930 METAR LMML NIL=
200906260915 METAR LMML 260915Z 24007KT 190V300 CAVOK 25/17 Q1013 NOSIG=
200906260900 METAR LMML NIL=
200906260845 METAR LMML 260845Z 23008KT 190V270 CAVOK 25/15 Q1013 NOSIG=
200906260830 METAR LMML NIL=
200906260815 METAR LMML 260815Z 25006KT 200V290 CAVOK 26/14 Q1013 NOSIG=
200906260800 METAR LMML NIL=
200906260745 METAR LMML 260745Z 25006KT 200V280 CAVOK 25/14 Q1013 NOSIG=
200906260730 METAR LMML NIL=
200906260715 METAR LMML 260715Z 24006KT 200V290 CAVOK 24/14 Q1012 NOSIG=
200906260700 METAR LMML NIL=
200906260645 METAR LMML 260645Z 25006KT 210V300 CAVOK 24/14 Q1012 NOSIG=
200906260630 METAR LMML NIL=
200906260615 METAR LMML 260615Z 27007KT 230V300 9999 FEW020 23/16 Q1012
                        NOSIG=
200906260600 METAR LMML NIL=
200906260545 METAR LMML 260545Z VRB03KT 9999 FEW018 22/19 Q1012 NOSIG=
200906260530 METAR LMML NIL=
200906260515 METAR LMML 260515Z VRB03KT 9999 FEW000 21/19 Q1012 NOSIG=
200906260500 METAR LMML NIL=
200906260445 METAR LMML 260445Z VRB03KT 9999 FEW018 20/18 Q1012 NOSIG=
200906260430 METAR LMML NIL=
200906260415 METAR LMML 260415Z VRB03KT 9999 FEW018 19/18 Q1012 NOSIG=
200906260400 METAR LMML NIL=
200906260345 METAR LMML 260345Z VRB03KT 9999 FEW018 19/18 Q1012 NOSIG=
200906260330 METAR LMML NIL=
200906260315 METAR LMML 260315Z VRB03KT 9999 FEW018 19/17 Q1012 NOSIG=
200906260300 METAR LMML NIL=
200906260245 METAR LMML 260245Z VRB03KT 9999 FEW018 SCT250 19/17 Q1012
                        NOSIG=
200906260230 METAR LMML NIL=
200906260215 METAR LMML 260215Z VRB03KT 9999 FEW018 BKN250 19/17 Q1012
                        NOSIG=
200906260200 METAR LMML NIL=
200906260145 METAR LMML 260145Z VRB03KT 9999 FEW018 BKN250 19/17 Q1012
                        NOSIG=
200906260130 METAR LMML NIL=
200906260115 METAR LMML 260115Z 25004KT 220V290 9999 FEW018 BKN250 19/17
                        Q1012 NOSIG=
200906260100 METAR LMML NIL=
200906260045 METAR LMML 260045Z 26005KT 230V290 9999 FEW018 BKN250 20/17
                        Q1012 NOSIG=
200906260030 METAR LMML NIL=
200906260015 METAR LMML 260015Z 28004KT 9999 FEW018 BKN250 20/17 Q1012
                        NOSIG=
200906260000 METAR LMML NIL=
200906252345 METAR LMML 252345Z 26004KT 230V290 9999 FEW018 SCT120 BKN250
                        20/17 Q1012 NOSIG=
200906252330 METAR LMML NIL=
200906252315 METAR LMML 252315Z VRB02KT 9999 FEW018 SCT120 BKN250 20/17
                        Q1012 NOSIG=
200906252300 METAR LMML NIL=
200906252245 METAR LMML 252245Z 26004KT 230V300 9999 FEW018 SCT120 BKN250
                        20/17 Q1013 NOSIG=
200906252230 METAR LMML NIL=
200906252215 METAR LMML 252215Z VRB02KT 9999 FEW018 SCT120 BKN250 20/17
                        Q1013 NOSIG=
200906252200 METAR LMML NIL=
200906252145 METAR LMML 252145Z VRB01KT 9999 FEW018 BKN250 20/17 Q1013
                        NOSIG=
200906252130 METAR LMML NIL=
200906252115 METAR LMML 252115Z VRB03KT 9999 FEW018 BKN250 20/17 Q1013
                        NOSIG=
200906252100 METAR LMML NIL=
200906252045 METAR LMML 252045Z 26007KT 230V290 9999 FEW018 BKN250 20/17
                        Q1012 NOSIG=
200906252030 METAR LMML NIL=
200906252015 METAR LMML 252015Z 26005KT 230V300 9999 FEW018 BKN250 21/17
                        Q1012 NOSIG=
200906252000 METAR LMML NIL=
200906251945 METAR LMML 251945Z VRB03KT 9999 FEW018 BKN250 21/17 Q1013
                        NOSIG=
200906251915 METAR LMML 251915Z VRB03KT 9999 FEW018 BKN250 21/17 Q1013
                        NOSIG=
200906251900 METAR LMML NIL=
200906251845 METAR LMML 251845Z 25005KT 210V290 9999 FEW018 BKN250 21/17
                        Q1012 NOSIG=
200906251830 METAR LMML NIL=
200906251815 METAR LMML 251815Z 25008KT 220V290 9999 FEW018 BKN250 21/17
                        Q1012 NOSIG=
200906251800 METAR LMML NIL=
200906251745 METAR LMML 251745Z 25007KT 210V280 CAVOK 21/17 Q1012 NOSIG=
200906251730 METAR LMML NIL=
200906251715 METAR LMML 251715Z 24007KT 190V300 CAVOK 22/17 Q1012 NOSIG=
200906251700 METAR LMML NIL=
200906251645 METAR LMML 251645Z 26007KT 210V300 CAVOK 22/16 Q1012 NOSIG=
200906251615 METAR LMML 251615Z 26009KT 010V260 CAVOK 23/16 Q1012 NOSIG=
200906251600 METAR LMML NIL=
200906251545 METAR LMML 251545Z 25008KT 210V290 CAVOK 23/15 Q1012 NOSIG=
200906251530 METAR LMML NIL=
200906251515 METAR LMML 251515Z 27008KT 230V320 CAVOK 25/13 Q1012 NOSIG=
200906251500 METAR LMML NIL=
200906251445 METAR LMML 251445Z 27008KT 240V320 CAVOK 25/11 Q1012 NOSIG=
200906251430 METAR LMML NIL=
200906251415 METAR LMML 251415Z 26007KT 220V310 9999 FEW035 BKN250 25/12
                        Q1013 NOSIG=
200906251345 METAR LMML 251345Z 26009KT 220V310 9999 FEW035 BKN250 25/13
                        Q1013 NOSIG=
200906251315 METAR LMML 251315Z 25009KT 190V300 9999 FEW035 BKN250 26/11
                        Q1013 NOSIG=
200906251245 METAR LMML 251245Z 27007KT 210V330 9999 FEW035 BKN250 26/11
                        Q1013 NOSIG=
200906251230 METAR LMML NIL=
200906251215 METAR LMML 251215Z 26008KT 200V320 9999 FEW034 BKN250 26/10
                        Q1013 NOSIG=
200906251145 METAR LMML 251145Z 29007KT 220V330 9999 FEW040 27/11 Q1013
                        NOSIG=
200906251130 METAR LMML NIL=
200906251115 METAR LMML 251115Z 29008KT 230V350 9999 FEW040 27/13 Q1013
                        NOSIG=
200906251100 METAR LMML NIL=
200906251045 METAR LMML 251045Z 03006KT 320V100 9999 FEW040 28/16 Q1013
                        NOSIG=
200906251030 METAR LMML NIL=
200906251015 METAR LMML 251015Z 12004KT 340V240 9999 FEW041 26/15 Q1013
                        NOSIG=
200906251000 METAR LMML NIL=
200906250945 METAR LMML 250945Z VRB02KT 9999 FEW040 27/14 Q1013 NOSIG=
200906250930 METAR LMML NIL=
200906250915 METAR LMML 250915Z 32006KT 230V020 9999 FEW035 26/14 Q1013
                        NOSIG=
200906250900 METAR LMML NIL=
200906250845 METAR LMML 250845Z 32006KT 270V360 CAVOK 26/14 Q1013 NOSIG=
200906250830 METAR LMML NIL=
200906250815 METAR LMML 250815Z 32007KT 290V360 CAVOK 25/13 Q1013 NOSIG=
200906250800 METAR LMML NIL=
200906250745 METAR LMML 250745Z 32007KT 270V010 CAVOK 24/13 Q1013 NOSIG=
200906250730 METAR LMML NIL=
200906250715 METAR LMML 250715Z 30008KT 280V340 CAVOK 23/13 Q1013 NOSIG=
200906250700 METAR LMML NIL=
200906250645 METAR LMML 250645Z 32009KT 280V340 9999 FEW015 23/13 Q1013
                        NOSIG=
200906250630 METAR LMML NIL=
200906250615 METAR LMML 250615Z 32009KT 9999 FEW015 22/13 Q1012 NOSIG=
200906250600 METAR LMML NIL=
200906250545 METAR LMML 250545Z 32009KT CAVOK 21/16 Q1012 NOSIG=
200906250530 METAR LMML NIL=
200906250515 METAR LMML 250515Z 32008KT 9999 FEW020 20/16 Q1012 NOSIG=
200906250500 METAR LMML NIL=
200906250445 METAR LMML 250445Z 33008KT 9999 FEW020 19/16 Q1012 NOSIG=
200906250430 METAR LMML NIL=
200906250415 METAR LMML 250415Z 31008KT 9999 FEW020 18/15 Q1012 NOSIG=
200906250400 METAR LMML NIL=
200906250345 METAR LMML 250345Z 31010KT CAVOK 18/15 Q1012 NOSIG=
200906250330 METAR LMML NIL=
200906250315 METAR LMML 250315Z 30012KT CAVOK 19/14 Q1012 NOSIG=
200906250300 METAR LMML NIL=
200906250245 METAR LMML 250245Z 30012KT CAVOK 19/14 Q1012 NOSIG=
200906250230 METAR LMML NIL=
200906250215 METAR LMML 250215Z 29008KT 260V330 CAVOK 19/14 Q1012 NOSIG=
200906250200 METAR LMML NIL=
200906250145 METAR LMML 250145Z 29009KT 260V320 CAVOK 19/14 Q1012 NOSIG=
200906250130 METAR LMML NIL=
200906250115 METAR LMML 250115Z 29011KT CAVOK 19/15 Q1012 NOSIG=
200906250100 METAR LMML NIL=
200906250045 METAR LMML 250045Z 27010KT 240V300 CAVOK 19/15 Q1012 NOSIG=
200906250030 METAR LMML NIL=
200906250015 METAR LMML 250015Z 27008KT 240V300 CAVOK 19/15 Q1012 NOSIG=
200906250000 METAR LMML NIL=
200906242345 METAR LMML 242345Z 27007KT 220V310 CAVOK 19/15 Q1012 NOSIG=
200906242330 METAR LMML NIL=
200906242315 METAR LMML 242315Z 26007KT 200V290 CAVOK 19/15 Q1012 NOSIG=
200906242300 METAR LMML NIL=
200906242245 METAR LMML 242245Z 26005KT 210V300 CAVOK 19/15 Q1012 NOSIG=
200906242230 METAR LMML NIL=
200906242215 METAR LMML 242215Z 28007KT 210V320 CAVOK 19/15 Q1012 NOSIG=
200906242200 METAR LMML NIL=
200906242145 METAR LMML 242145Z 28006KT 240V320 CAVOK 19/15 Q1012 NOSIG=
200906242130 METAR LMML NIL=
200906242115 METAR LMML 242115Z 28005KT 230V310 CAVOK 19/15 Q1012 NOSIG=
200906242100 METAR LMML NIL=
200906242045 METAR LMML 242045Z 28008KT 240V310 CAVOK 19/14 Q1012 NOSIG=
200906242030 METAR LMML NIL=
200906242015 METAR LMML 242015Z 29011KT CAVOK 19/14 Q1012 NOSIG=
200906242000 METAR LMML NIL=
200906241945 METAR LMML 241945Z 29010KT CAVOK 20/14 Q1012 NOSIG=
200906241930 METAR LMML NIL=
200906241915 METAR LMML 241915Z 28010KT CAVOK 20/14 Q1012 NOSIG=
200906241900 METAR LMML NIL=
200906241845 METAR LMML 241845Z 30010KT CAVOK 20/13 Q1012 NOSIG=
200906241830 METAR LMML NIL=
200906241815 METAR LMML 241815Z 29011KT 260V320 CAVOK 21/12 Q1011 NOSIG=
200906241800 METAR LMML NIL=
200906241745 METAR LMML 241745Z 28013KT 240V310 9999 FEW029 21/12 Q1011
                        NOSIG=
200906241730 METAR LMML NIL=
200906241715 METAR LMML 241715Z 29013KT 260V320 9999 FEW029 22/12 Q1011
                        NOSIG=
200906241700 METAR LMML NIL=
200906241645 METAR LMML 241645Z 28013KT 250V310 9999 FEW029 22/11 Q1011
                        NOSIG=
200906241630 METAR LMML NIL=
200906241615 METAR LMML 241615Z 28014KT 240V310 9999 FEW029 23/11 Q1011
                        NOSIG=
200906241600 METAR LMML NIL=
200906241545 METAR LMML 241545Z 28013KT 250V310 9999 FEW029 23/13 Q1011
                        NOSIG=
200906241530 METAR LMML NIL=
200906241515 METAR LMML 241515Z 28014KT 230V310 9999 FEW029 23/13 Q1011
                        NOSIG=
200906241500 METAR LMML NIL=
200906241445 METAR LMML 241445Z 28014KT 240V320 9999 FEW025 23/13 Q1012
                        NOSIG=
200906241430 METAR LMML NIL=
200906241415 METAR LMML 241415Z 29014KT 9999 FEW025 24/13 Q1011 NOSIG=
200906241400 METAR LMML NIL=
200906241345 METAR LMML 241345Z 28014KT 9999 SCT026 24/14 Q1011 NOSIG=
200906241330 METAR LMML NIL=
200906241315 METAR LMML 241315Z 28013KT 240V310 9999 SCT023 24/15 Q1011
                        NOSIG=
200906241300 METAR LMML NIL=
200906241245 METAR LMML 241245Z 28014KT 240V310 9999 SCT024 SCT250 22/15
                        Q1011 NOSIG=
200906241230 METAR LMML NIL=
200906241215 METAR LMML 241215Z 27014KT 220V300 9999 SCT028 SCT250 24/14
                        Q1012 NOSIG=
200906241200 METAR LMML NIL=
200906241145 METAR LMML 241145Z 28013KT 240V310 9999 SCT028 24/14 Q1011
                        NOSIG=
200906241130 METAR LMML NIL=
200906241115 METAR LMML 241115Z 27014KT 230V300 9999 SCT028 24/14 Q1012
                        NOSIG=
200906241100 METAR LMML NIL=
200906241045 METAR LMML 241045Z 27012KT 210V310 9999 SCT029 23/14 Q1012
                        NOSIG=
200906241030 METAR LMML NIL=
200906241015 METAR LMML 241015Z 28013KT 230V300 9999 SCT025 24/14 Q1012
                        NOSIG=
200906241000 METAR LMML NIL=
200906240945 METAR LMML 240945Z 25012KT 210V290 9999 SCT025 22/15 Q1012
                        NOSIG=
200906240930 METAR LMML NIL=
200906240915 METAR LMML 240915Z 27011KT 210V310 9999 SCT028 23/14 Q1012
                        NOSIG=
200906240900 METAR LMML NIL=
200906240845 METAR LMML 240845Z 28011KT 220V310 9999 SCT027 23/14 Q1011
                        NOSIG=
200906240830 METAR LMML NIL=
200906240815 METAR LMML 240815Z 28011KT 240V300 9999 FEW026 23/14 Q1011
                        NOSIG=
200906240800 METAR LMML NIL=
200906240745 METAR LMML 240745Z 28009KT 240V310 9999 FEW023 23/14 Q1011
                        NOSIG=
200906240730 METAR LMML NIL=
200906240715 METAR LMML 240715Z 28011KT 230V320 9999 FEW023 22/14 Q1011
                        NOSIG=
200906240700 METAR LMML NIL=
200906240645 METAR LMML 240645Z 28011KT 240V300 9999 FEW019 22/15 Q1011
                        NOSIG=
200906240630 METAR LMML NIL=
200906240615 METAR LMML 240615Z 28010KT 240V320 9999 FEW019 21/15 Q1011
                        NOSIG=
200906240600 METAR LMML NIL=
200906240545 METAR LMML 240545Z 29008KT 260V330 9999 FEW022 20/15 Q1011
                        NOSIG=
200906240530 METAR LMML NIL=
200906240515 METAR LMML 240515Z 28007KT 9999 FEW022 20/15 Q1011 NOSIG=
200906240500 METAR LMML NIL=
200906240445 METAR LMML 240445Z 29007KT 9999 FEW022 18/15 Q1011 NOSIG=
200906240430 METAR LMML NIL=
200906240415 METAR LMML 240415Z 23004KT 200V270 9999 FEW022 17/14 Q1011
                        NOSIG=
200906240400 METAR LMML NIL=
200906240345 METAR LMML 240345Z 30006KT 9999 FEW022 17/14 Q1011 NOSIG=
200906240330 METAR LMML NIL=
200906240315 METAR LMML 240315Z 29005KT 9999 FEW022 17/13 Q1011 NOSIG=
200906240300 METAR LMML NIL=
200906240245 METAR LMML 240245Z 29007KT 9999 FEW022 18/14 Q1011 NOSIG=
200906240215 METAR LMML 240215Z 28007KT 9999 FEW022 17/13 Q1011 NOSIG=
200906240200 METAR LMML NIL=
200906240145 METAR LMML 240145Z 29005KT 250V320 9999 FEW022 18/14 Q1011
                        NOSIG=
200906240130 METAR LMML NIL=
200906240115 METAR LMML 240115Z 30006KT 9999 FEW022 18/13 Q1012 NOSIG=
200906240100 METAR LMML NIL=
200906240045 METAR LMML 240045Z 30009KT 9999 FEW022 18/13 Q1011 NOSIG=
200906240030 METAR LMML NIL=
200906240015 METAR LMML 240015Z 31008KT 9999 FEW022 18/13 Q1012 NOSIG=
200906240000 METAR LMML NIL=
200906232345 METAR LMML 232345Z 30008KT 9999 FEW022 18/14 Q1012 NOSIG=
200906232330 METAR LMML NIL=
200906232315 METAR LMML 232315Z 27005KT 240V310 9999 FEW022 19/14 Q1012
                        NOSIG=
200906232300 METAR LMML NIL=
200906232245 METAR LMML 232245Z 29007KT 9999 FEW025 19/14 Q1012 NOSIG=
200906232230 METAR LMML NIL=
200906232215 METAR LMML 232215Z 29010KT 260V330 9999 FEW025 19/14 Q1012
                        NOSIG=
200906232200 METAR LMML NIL=
200906232145 METAR LMML 232145Z 27010KT 240V300 9999 FEW025 19/14 Q1012
                        NOSIG=
200906232130 METAR LMML NIL=
200906232115 METAR LMML 232115Z 28011KT 250V310 9999 FEW025 19/13 Q1012
                        NOSIG=
200906232100 METAR LMML NIL=
200906232045 METAR LMML 232045Z 28014KT 9999 FEW025 SCT080 20/14 Q1012
                        NOSIG=
200906232030 METAR LMML NIL=
200906232015 METAR LMML 232015Z 29016KT 250V320 9999 FEW028 SCT080 20/14
                        Q1012 NOSIG=
200906232000 METAR LMML NIL=
200906231945 METAR LMML 231945Z 28013KT 250V310 9999 FEW024 SCT080 20/14
                        Q1012 NOSIG=
200906231930 METAR LMML NIL=
200906231915 METAR LMML 231915Z 28015KT 9999 FEW024 SCT080 20/15 Q1012
                        NOSIG=
200906231900 METAR LMML NIL=
200906231845 METAR LMML 231845Z 28012KT 230V300 9999 FEW024 SCT080 20/15
                        Q1012 NOSIG=
200906231830 METAR LMML NIL=
200906231815 METAR LMML 231815Z 27010KT 230V310 9999 FEW022 BKN080 21/15
                        Q1011 NOSIG=
200906231800 METAR LMML NIL=
200906231745 METAR LMML 231745Z 28012KT 250V320 9999 SCT022 BKN080 21/15
                        Q1011 NOSIG=
200906231730 METAR LMML NIL=
200906231715 METAR LMML 231715Z 29012KT 240V320 9999 SCT035 BKN070 21/15
                        Q1011 NOSIG=
200906231700 METAR LMML NIL=
200906231645 METAR LMML 231645Z 29011KT 260V340 9999 SCT028 BKN070 21/15
                        Q1011 NOSIG=
200906231630 METAR LMML NIL=
200906231615 METAR LMML 231615Z 29013KT 240V330 9999 FEW028 BKN080 22/15
                        Q1011 NOSIG=
200906231545 METAR LMML 231545Z 26014KT 220V310 9999 FEW029 23/14 Q1011
                        NOSIG=
200906231530 METAR LMML NIL=
200906231515 METAR LMML 231515Z 26018KT 220V280 9999 FEW031 BKN046 23/14
                        Q1011 NOSIG=
200906231500 METAR LMML NIL=
200906231445 METAR LMML 231445Z 26016KT 210V300 9999 FEW033 24/13 Q1011
                        NOSIG=
200906231430 METAR LMML NIL=
200906231415 METAR LMML 231415Z 27017KT 230V310 9999 FEW031 24/13 Q1011
                        NOSIG=
200906231400 METAR LMML NIL=
200906231345 METAR LMML 231345Z 27019KT 240V300 9999 FEW031 23/13 Q1012
                        NOSIG=
200906231330 METAR LMML NIL=
200906231315 METAR LMML 231315Z 28020KT 240V310 9999 FEW033 23/14 Q1012
                        NOSIG=
200906231300 METAR LMML NIL=
200906231245 METAR LMML 231245Z 27017KT 230V310 9999 FEW034 24/14 Q1012
                        NOSIG=
200906231230 METAR LMML NIL=
200906231215 METAR LMML 231215Z 28016KT 240V310 9999 FEW032 24/14 Q1012
                        NOSIG=
200906231200 METAR LMML NIL=
200906231145 METAR LMML 231145Z 28016KT 230V310 9999 SCT032 24/14 Q1012
                        NOSIG=
200906231130 METAR LMML NIL=
200906231115 METAR LMML 231115Z 28016KT 240V320 9999 BKN033 24/13 Q1012
                        NOSIG=
200906231100 METAR LMML NIL=
200906231045 METAR LMML 231045Z 27017KT 240V300 9999 SCT034 22/13 Q1012
                        NOSIG=
200906231030 METAR LMML NIL=
200906231015 METAR LMML 231015Z 28017KT 240V300 9999 SCT035 23/13 Q1013
                        NOSIG=
200906231000 METAR LMML NIL=
200906230945 METAR LMML 230945Z 28016KT 240V320 9999 FEW036 23/12 Q1013
                        NOSIG=
200906230930 METAR LMML NIL=
200906230915 METAR LMML 230915Z 29018KT 260V320 9999 SCT029 24/13 Q1013
                        NOSIG=
200906230900 METAR LMML NIL=
200906230845 METAR LMML 230845Z 29018KT 260V340 9999 SCT029 23/14 Q1013
                        NOSIG=
200906230830 METAR LMML NIL=
200906230815 METAR LMML 230815Z 29019KT 260V320 9999 SCT028 22/14 Q1013
                        NOSIG=
200906230800 METAR LMML NIL=
200906230745 METAR LMML 230745Z 28018KT 250V310 9999 SCT025 22/14 Q1013
                        NOSIG=
200906230730 METAR LMML NIL=
200906230715 METAR LMML 230715Z 28017KT 240V310 9999 BKN025 22/14 Q1013
                        NOSIG=
200906230700 METAR LMML NIL=
200906230645 METAR LMML 230645Z 28015KT 230V310 9999 SCT026 22/14 Q1012
                        NOSIG=
200906230630 METAR LMML NIL=
200906230615 METAR LMML 230615Z 28015KT 240V310 9999 FEW026 22/14 Q1012
                        NOSIG=
200906230600 METAR LMML NIL=
200906230545 METAR LMML 230545Z 29018KT 9999 FEW026 21/14 Q1012 NOSIG=
200906230530 METAR LMML NIL=
200906230515 METAR LMML 230515Z 28014KT 9999 FEW026 20/14 Q1012 NOSIG=
200906230445 METAR LMML 230445Z 28013KT 9999 FEW026 20/14 Q1012 NOSIG=
200906230430 METAR LMML NIL=
200906230415 METAR LMML 230415Z 29009KT 9999 FEW028 19/14 Q1012 NOSIG=
200906230400 METAR LMML NIL=
200906230345 METAR LMML 230345Z 29009KT 250V310 9999 FEW035 19/14 Q1012
                        NOSIG=
200906230330 METAR LMML NIL=
200906230315 METAR LMML 230315Z 29009KT 260V320 9999 FEW036 19/14 Q1012
                        NOSIG=
200906230300 METAR LMML NIL=
200906230245 METAR LMML 230245Z 29008KT 260V320 9999 FEW031 19/14 Q1012
                        NOSIG=
200906230230 METAR LMML NIL=
200906230215 METAR LMML 230215Z 29010KT 260V320 9999 FEW024 19/14 Q1012
                        NOSIG=
200906230200 METAR LMML NIL=
200906230145 METAR LMML 230145Z 28013KT 9999 FEW024 19/14 Q1013 NOSIG=
200906230130 METAR LMML NIL=
200906230115 METAR LMML 230115Z 30009KT 270V330 9999 FEW024 19/14 Q1013
                        NOSIG=
200906230100 METAR LMML NIL=
200906230045 METAR LMML 230045Z 30009KT 270V330 CAVOK 19/14 Q1013 NOSIG=
200906230030 METAR LMML NIL=
200906230015 METAR LMML 230015Z 29011KT 250V320 CAVOK 19/14 Q1013 NOSIG=
200906230000 METAR LMML NIL=
200906222345 METAR LMML 222345Z 30012KT CAVOK 19/14 Q1013 NOSIG=
200906222330 METAR LMML NIL=
200906222315 METAR LMML 222315Z 30011KT 270V330 CAVOK 19/14 Q1014 NOSIG=
200906222300 METAR LMML NIL=
200906222245 METAR LMML 222245Z 30015KT CAVOK 19/14 Q1014 NOSIG=
200906222230 METAR LMML NIL=
200906222215 METAR LMML 222215Z 30013KT CAVOK 19/14 Q1014 NOSIG=
200906222200 METAR LMML NIL=
200906222145 METAR LMML 222145Z 30011KT CAVOK 19/15 Q1014 NOSIG=
200906222130 METAR LMML NIL=
200906222115 METAR LMML 222115Z 30013KT 270V330 CAVOK 19/15 Q1014 NOSIG=
200906222100 METAR LMML NIL=
200906222045 METAR LMML 222045Z 30012KT 270V330 CAVOK 20/15 Q1014 NOSIG=
200906222030 METAR LMML NIL=
200906222015 METAR LMML 222015Z 29011KT CAVOK 20/15 Q1014 NOSIG=
200906222000 METAR LMML NIL=
200906221945 METAR LMML 221945Z 29014KT CAVOK 20/16 Q1013 NOSIG=
200906221930 METAR LMML NIL=
200906221915 METAR LMML 221915Z 29012KT 270V330 CAVOK 20/15 Q1013 NOSIG=
200906221900 METAR LMML NIL=
200906221845 METAR LMML 221845Z 29012KT 250V320 CAVOK 20/15 Q1013 NOSIG=
200906221830 METAR LMML NIL=
200906221815 METAR LMML 221815Z 29017KT 260V320 9999 FEW020 20/15 Q1013
                        NOSIG=
200906221800 METAR LMML NIL=
200906221745 METAR LMML 221745Z 28017KT 9999 FEW020 21/15 Q1013 NOSIG=
200906221730 METAR LMML NIL=
200906221715 METAR LMML 221715Z 29015KT 260V330 CAVOK 22/14 Q1012 NOSIG=
200906221700 METAR LMML NIL=
200906221645 METAR LMML 221645Z 28019KT 240V310 9999 FEW028 22/14 Q1013
                        NOSIG=
200906221630 METAR LMML NIL=
200906221615 METAR LMML 221615Z 29019KT 250V320 9999 FEW028 23/14 Q1013
                        NOSIG=
200906221600 METAR LMML NIL=
200906221545 METAR LMML 221545Z 30020KT 270V330 9999 FEW028 24/13 Q1012
                        NOSIG=
200906221530 METAR LMML NIL=
200906221515 METAR LMML 221515Z 30021KT 9999 FEW028 24/14 Q1013 NOSIG=
200906221500 METAR LMML NIL=
200906221445 METAR LMML 221445Z 30023KT 270V330 9999 FEW028 24/12 Q1013
                        NOSIG=
200906221430 METAR LMML NIL=
200906221415 METAR LMML 221415Z 30022KT 270V330 9999 FEW028 24/13 Q1013
                        NOSIG=
200906221400 METAR LMML NIL=
200906221345 METAR LMML 221345Z 30022KT 270V330 9999 FEW028 25/14 Q1013
                        NOSIG=
200906221330 METAR LMML NIL=
200906221315 METAR LMML 221315Z 29021KT 9999 FEW028 24/14 Q1013 NOSIG=
200906221245 METAR LMML 221245Z 28020KT 240V310 9999 FEW028 24/12 Q1013
                        NOSIG=
200906221215 METAR LMML 221215Z 29020KT 260V320 9999 FEW028 24/13 Q1014
                        NOSIG=
200906221200 METAR LMML NIL=
200906221145 METAR LMML 221145Z 29016KT 250V320 9999 SCT028 24/15 Q1014
                        NOSIG=
200906221130 METAR LMML NIL=
200906221115 METAR LMML 221115Z 28016KT 240V300 9999 SCT029 24/15 Q1014
                        NOSIG=
200906221100 METAR LMML NIL=
200906221045 METAR LMML 221045Z 28015KT 240V310 9999 SCT029 24/14 Q1014
                        NOSIG=
200906221030 METAR LMML NIL=
200906221015 METAR LMML 221015Z 27015KT 220V310 9999 SCT028 23/14 Q1014
                        NOSIG=
200906221000 METAR LMML NIL=
200906220945 METAR LMML 220945Z 28015KT 250V310 9999 FEW029 24/14 Q1014
                        NOSIG=
200906220930 METAR LMML NIL=
200906220915 METAR LMML 220915Z 28014KT 240V320 9999 FEW027 24/14 Q1014
                        NOSIG=
200906220900 METAR LMML NIL=
200906220845 METAR LMML 220845Z 28015KT 9999 SCT029 23/14 Q1014 NOSIG=
200906220830 METAR LMML NIL=
200906220815 METAR LMML 220815Z 29016KT 230V320 9999 SCT027 23/14 Q1014
                        NOSIG=
200906220800 METAR LMML NIL=
200906220745 METAR LMML 220745Z 28016KT 9999 SCT027 22/14 Q1014 NOSIG=
200906220730 METAR LMML NIL=
200906220715 METAR LMML 220715Z 28014KT 240V310 9999 SCT025 22/14 Q1014
                        NOSIG=
200906220700 METAR LMML NIL=
200906220645 METAR LMML 220645Z 29015KT 250V320 9999 SCT025 21/15 Q1014
                        NOSIG=
200906220630 METAR LMML NIL=
200906220615 METAR LMML 220615Z 28013KT 250V310 9999 SCT024 21/15 Q1013
                        NOSIG=
200906220600 METAR LMML NIL=
200906220545 METAR LMML 220545Z 28013KT 250V310 9999 SCT023 21/15 Q1013
                        NOSIG=
200906220530 METAR LMML NIL=
200906220515 METAR LMML 220515Z 28010KT 250V310 9999 FEW023 21/15 Q1013
                        NOSIG=
200906220500 METAR LMML NIL=
200906220445 METAR LMML 220445Z 28010KT 9999 FEW024 20/15 Q1012 NOSIG=
200906220430 METAR LMML NIL=
200906220415 METAR LMML 220415Z 29010KT 240V320 9999 FEW024 20/15 Q1012
                        NOSIG=
200906220400 METAR LMML NIL=
200906220345 METAR LMML 220345Z 29009KT 9999 FEW023 20/15 Q1012 NOSIG=
200906220330 METAR LMML NIL=
200906220315 METAR LMML 220315Z 29008KT 260V320 9999 FEW024 20/15 Q1012
                        NOSIG=
200906220300 METAR LMML NIL=
200906220245 METAR LMML 220245Z 29009KT 9999 FEW024 20/14 Q1012 NOSIG=
200906220230 METAR LMML NIL=
200906220215 METAR LMML 220215Z 30011KT 270V330 9999 FEW024 20/14 Q1012
                        NOSIG=
200906220200 METAR LMML NIL=
200906220145 METAR LMML 220145Z 29011KT 250V320 9999 FEW024 20/15 Q1012
                        NOSIG=
200906220130 METAR LMML NIL=
200906220115 METAR LMML 220115Z 29010KT 260V320 9999 FEW024 20/15 Q1012
                        NOSIG=
200906220100 METAR LMML NIL=
200906220045 METAR LMML 220045Z 30011KT 250V320 9999 FEW023 20/15 Q1012
                        NOSIG=
200906220030 METAR LMML NIL=
200906220015 METAR LMML 220015Z 29011KT 260V320 9999 SCT024 20/15 Q1013
                        NOSIG=
200906220000 METAR LMML NIL=
200906212345 METAR LMML 212345Z 30010KT 9999 SCT024 20/15 Q1013 NOSIG=
200906212330 METAR LMML NIL=
200906212315 METAR LMML 212315Z 30010KT 270V330 9999 FEW024 20/15 Q1013
                        NOSIG=
200906212300 METAR LMML NIL=
200906212245 METAR LMML 212245Z 29008KT 250V320 9999 FEW024 20/15 Q1013
                        NOSIG=
200906212230 METAR LMML NIL=
200906212215 METAR LMML 212215Z 30011KT 260V330 9999 FEW023 20/15 Q1013
                        NOSIG=
200906212200 METAR LMML NIL=
200906212145 METAR LMML 212145Z 30012KT 9999 FEW023 20/15 Q1013 NOSIG=
200906212130 METAR LMML NIL=
200906212115 METAR LMML 212115Z 30010KT 9999 FEW025 20/15 Q1013 NOSIG=
200906212100 METAR LMML NIL=
200906212045 METAR LMML 212045Z 30009KT CAVOK 20/14 Q1013 NOSIG=
200906212030 METAR LMML NIL=
200906212015 METAR LMML 212015Z 31012KT CAVOK 21/15 Q1013 NOSIG=
200906212000 METAR LMML NIL=
200906211945 METAR LMML 211945Z 31013KT CAVOK 21/14 Q1013 NOSIG=
200906211930 METAR LMML NIL=
200906211915 METAR LMML 211915Z 30018KT 260V330 CAVOK 22/12 Q1013 NOSIG=
200906211900 METAR LMML NIL=
200906211845 METAR LMML 211845Z 30017KT 260V320 CAVOK 22/14 Q1012 NOSIG=
200906211830 METAR LMML NIL=
200906211815 METAR LMML 211815Z 30018KT CAVOK 22/14 Q1012 NOSIG=
200906211800 METAR LMML NIL=
200906211745 METAR LMML 211745Z 30018KT CAVOK 23/13 Q1013 NOSIG=
200906211730 METAR LMML NIL=
200906211715 METAR LMML 211715Z 30017KT CAVOK 23/13 Q1013 NOSIG=
200906211700 METAR LMML NIL=
200906211645 METAR LMML 211645Z 30019KT CAVOK 23/14 Q1013 NOSIG=
200906211630 METAR LMML NIL=
200906211615 METAR LMML 211615Z 30016KT 270V330 CAVOK 25/15 Q1013 NOSIG=
200906211600 METAR LMML NIL=
200906211545 METAR LMML 211545Z 29016KT 250V330 CAVOK 25/15 Q1013 NOSIG=
200906211530 METAR LMML NIL=
200906211515 METAR LMML 211515Z 29018KT 260V330 9999 FEW020 SCT120 25/16
                        Q1013 NOSIG=
200906211500 METAR LMML NIL=
200906211445 METAR LMML 211445Z 31019KT 270V340 9999 FEW020 SCT110 26/16
                        Q1013 NOSIG=
200906211430 METAR LMML NIL=
200906211415 METAR LMML 211415Z 30018KT 270V330 CAVOK 26/16 Q1013 NOSIG=
200906211400 METAR LMML NIL=
200906211345 METAR LMML 211345Z 30019KT 260V330 CAVOK 26/15 Q1013 NOSIG=
200906211330 METAR LMML NIL=
200906211315 METAR LMML 211315Z 31017KT 280V340 CAVOK 25/15 Q1013 NOSIG=
200906211300 METAR LMML NIL=
200906211245 METAR LMML 211245Z 31018KT CAVOK 25/16 Q1013 NOSIG=
200906211230 METAR LMML NIL=
200906211215 METAR LMML 211215Z 30016KT 280V340 CAVOK 26/15 Q1013 NOSIG=
200906211200 METAR LMML NIL=
200906211145 METAR LMML 211145Z 29015KT 250V330 CAVOK 26/15 Q1013 NOSIG=
200906211130 METAR LMML NIL=
200906211115 METAR LMML 211115Z 29014KT 260V320 9999 FEW015 SCT250 26/16
                        Q1013 NOSIG=
200906211100 METAR LMML NIL=
200906211045 METAR LMML 211045Z 29016KT 250V330 9999 FEW015 BKN120 24/16
                        Q1014 NOSIG=
200906211030 METAR LMML NIL=
200906211015 METAR LMML 211015Z 29016KT 250V320 9999 FEW015 SCT120 25/16
                        Q1014 NOSIG=
200906211000 METAR LMML NIL=
200906210945 METAR LMML 210945Z 30015KT 260V320 9999 FEW015 SCT120 27/16
                        Q1013 NOSIG=
200906210915 METAR LMML 210915Z 29014KT 260V320 9999 FEW015 SCT120 26/16
                        Q1013 NOSIG=
200906210900 METAR LMML NIL=
200906210845 METAR LMML 210845Z 29016KT 250V330 9999 FEW015 SCT120 26/17
                        Q1013 NOSIG=
200906210830 METAR LMML NIL=
200906210815 METAR LMML 210815Z 30014KT 260V320 9999 FEW012 SCT120 25/16
                        Q1013 NOSIG=
200906210800 METAR LMML NIL=
200906210745 METAR LMML 210745Z 30017KT 9999 FEW012 SCT120 24/18 Q1013
                        NOSIG=
200906210730 METAR LMML NIL=
200906210715 METAR LMML 210715Z 29013KT 260V320 9999 FEW012 SCT120 24/18
                        Q1013 NOSIG=
200906210700 METAR LMML NIL=
200906210645 METAR LMML 210645Z 29012KT 240V320 9999 FEW012 BKN120 24/19
                        Q1012 NOSIG=
200906210615 METAR LMML 210615Z 28013KT 250V310 9999 FEW015 BKN120 23/19
                        Q1012 NOSIG=
200906210600 METAR LMML NIL=
200906210545 METAR LMML 210545Z 28009KT 230V310 9999 FEW015 BKN120 23/19
                        Q1012 TEMPO SCT008=
200906210515 METAR LMML 210515Z 28010KT 240V310 9999 FEW015 BKN120 23/19
                        Q1012 TEMPO SCT008=
200906210500 METAR LMML NIL=
200906210445 METAR LMML 210445Z 28010KT 250V310 9999 FEW015 BKN120 22/20
                        Q1012 TEMPO SCT008=
200906210415 METAR LMML 210415Z 26007KT 220V300 9999 FEW015 SCT120 22/20
                        Q1011 TEMPO SCT008=
200906210400 METAR LMML NIL=
200906210345 METAR LMML 210345Z 28006KT 240V320 9999 FEW010 22/20 Q1011
                        TEMPO SCT008=
200906210330 METAR LMML NIL=
200906210315 METAR LMML 210315Z 29007KT 260V340 9999 FEW010 22/20 Q1011
                        TEMPO SCT008=
200906210300 METAR LMML NIL=
200906210245 METAR LMML 210245Z 29006KT 260V340 9999 FEW010 22/20 Q1011
                        TEMPO SCT008=
200906210215 METAR LMML 210215Z 28004KT 240V320 9999 FEW010 22/20 Q1011
                        TEMPO BKN009=
200906210200 METAR LMML NIL=
200906210145 METAR LMML 210145Z 28005KT 240V300 9999 FEW010 22/20 Q1012
                        TEMPO BKN009=
200906210130 METAR LMML NIL=
200906210115 METAR LMML 210115Z 27005KT 220V310 9999 FEW012 22/20 Q1012
                        TEMPO BKN009=
200906210100 METAR LMML NIL=
200906210045 METAR LMML 210045Z 29006KT 250V330 9999 SCT010 22/20 Q1012
                        TEMPO BKN009=
200906210015 METAR LMML 210015Z 28006KT 250V310 9999 SCT010 23/20 Q1012
                        NOSIG=
200906210000 METAR LMML NIL=
200906202345 METAR LMML 202345Z 27006KT 230V300 9999 FEW011 23/20 Q1013
                        NOSIG=
200906202315 METAR LMML 202315Z 27007KT 230V300 9999 FEW015 23/21 Q1013
                        NOSIG=
200906202300 METAR LMML NIL=
200906202245 METAR LMML 202245Z 26007KT 220V300 9999 FEW015 23/20 Q1013
                        NOSIG=
200906202230 METAR LMML NIL=
200906202215 METAR LMML 202215Z 28007KT 240V300 9999 FEW015 23/21 Q1013
                        NOSIG=
200906202200 METAR LMML NIL=
200906202145 METAR LMML 202145Z 27005KT 210V300 9999 FEW015 23/20 Q1013
                        NOSIG=
200906202130 METAR LMML NIL=
200906202115 METAR LMML 202115Z 27005KT 220V300 CAVOK 23/19 Q1013 NOSIG=
200906202100 METAR LMML NIL=
200906202045 METAR LMML 202045Z 27006KT 200V310 9999 FEW015 23/19 Q1013
                        NOSIG=
200906202030 METAR LMML NIL=
200906202015 METAR LMML 202015Z 25004KT 210V280 CAVOK 23/20 Q1013 NOSIG=
200906202000 METAR LMML NIL=
200906201945 METAR LMML 201945Z 28005KT 9999 FEW015 23/20 Q1013 NOSIG=
200906201930 METAR LMML NIL=
200906201915 METAR LMML 201915Z VRB03KT 9999 FEW015 23/20 Q1013 NOSIG=
200906201900 METAR LMML NIL=
200906201845 METAR LMML 201845Z 27007KT 220V310 9999 FEW015 24/20 Q1013
                        NOSIG=
200906201830 METAR LMML NIL=
200906201815 METAR LMML 201815Z 25007KT 210V290 9999 FEW015 24/20 Q1013
                        NOSIG=
200906201800 METAR LMML NIL=
200906201745 METAR LMML 201745Z 27006KT 240V320 9999 FEW015 BKN120 25/17
                        Q1013 NOSIG=
200906201730 METAR LMML NIL=
200906201715 METAR LMML 201715Z 28007KT 240V300 9999 FEW015 BKN120 26/18
                        Q1013 NOSIG=
200906201700 METAR LMML NIL=
200906201615 METAR LMML 201615Z 28008KT 260V320 9999 FEW015 SCT140 27/19
                        Q1013 NOSIG=
200906201600 METAR LMML NIL=
200906201545 METAR LMML 201545Z 28008KT 240V310 9999 FEW020 27/19 Q1013
                        NOSIG=
200906201530 METAR LMML NIL=
200906201515 METAR LMML 201515Z 28007KT 210V320 9999 FEW020 28/18 Q1013
                        NOSIG=
200906201500 METAR LMML NIL=
200906201445 METAR LMML 201445Z 28009KT 250V320 9999 FEW020 29/16 Q1013
                        NOSIG=
200906201430 METAR LMML NIL=
200906201415 METAR LMML 201415Z 27009KT 240V320 9999 FEW020 29/17 Q1013
                        NOSIG=
200906201400 METAR LMML NIL=
200906201345 METAR LMML 201345Z 25007KT 200V300 9999 FEW020 29/18 Q1013
                        NOSIG=
200906201330 METAR LMML NIL=
200906201315 METAR LMML 201315Z 26007KT 210V310 9999 FEW020 29/18 Q1014
                        NOSIG=
200906201300 METAR LMML NIL=
200906201245 METAR LMML 201245Z 23008KT 200V310 9999 FEW020 28/18 Q1014
                        NOSIG=
200906201230 METAR LMML NIL=
200906201215 METAR LMML 201215Z 24009KT 200V280 CAVOK 28/19 Q1014 NOSIG=
200906201200 METAR LMML NIL=
200906201145 METAR LMML 201145Z 24007KT 200V280 9999 FEW020 29/18 Q1014
                        NOSIG=
200906201130 METAR LMML NIL=
200906201115 METAR LMML 201115Z 24007KT 190V300 9999 FEW020 29/17 Q1014
                        NOSIG=
200906201100 METAR LMML NIL=
200906201045 METAR LMML 201045Z 23007KT 180V290 9999 FEW020 29/16 Q1015
                        NOSIG=
200906201030 METAR LMML NIL=
200906201015 METAR LMML 201015Z 22006KT 170V280 9999 FEW016 29/16 Q1015
                        SMOKE TO S OF AIRFIELD=
200906201000 METAR LMML NIL=
200906200945 METAR LMML 200945Z 22007KT 180V290 9999 FEW016 28/17 Q1015
                        NOSIG=
200906200930 METAR LMML NIL=
200906200915 METAR LMML 200915Z 24006KT 190V300 9999 FEW016 28/18 Q1015
                        NOSIG=
200906200900 METAR LMML NIL=
200906200845 METAR LMML 200845Z 27006KT 220V320 9999 FEW016 28/16 Q1015
                        NOSIG=
200906200830 METAR LMML NIL=
200906200815 METAR LMML 200815Z 25007KT 210V300 9999 FEW016 27/18 Q1015
                        NOSIG=
200906200800 METAR LMML NIL=
200906200745 METAR LMML 200745Z 24006KT 200V300 9999 FEW014 27/18 Q1015
                        NOSIG=
200906200730 METAR LMML NIL=
200906200715 METAR LMML 200715Z 25006KT 200V300 9999 FEW014 26/19 Q1015
                        NOSIG=
200906200700 METAR LMML NIL=
200906200645 METAR LMML 200645Z 25006KT 200V300 9999 FEW014 25/20 Q1015
                        NOSIG=
200906200630 METAR LMML NIL=
200906200615 METAR LMML 200615Z 23005KT 200V280 9999 FEW011 25/20 Q1015
                        NOSIG=
200906200600 METAR LMML NIL=
200906200545 METAR LMML 200545Z 24005KT 200V300 9999 FEW009 24/21 Q1015
                        NOSIG=
200906200530 METAR LMML NIL=
200906200515 METAR LMML 200515Z VRB01KT 9000 FEW012 23/21 Q1014 NOSIG=
200906200500 METAR LMML NIL=
200906200445 METAR LMML 200445Z VRB01KT 9000 FEW012 22/20 Q1014 NOSIG=
200906200430 METAR LMML NIL=
200906200415 METAR LMML 200415Z VRB01KT 9000 FEW010 21/20 Q1014 NOSIG=
200906200400 METAR LMML NIL=
200906200345 METAR LMML 200345Z VRB02KT 8000 NSC 20/19 Q1014 BECMG 9999
                        FEW015=
200906200330 METAR LMML NIL=
200906200315 METAR LMML 200315Z VRB02KT CAVOK 20/19 Q1014 NOSIG=
200906200300 METAR LMML NIL=
200906200245 METAR LMML 200245Z VRB02KT CAVOK 20/19 Q1014 NOSIG=
200906200230 METAR LMML NIL=
200906200215 METAR LMML 200215Z VRB01KT CAVOK 20/19 Q1014 NOSIG=
200906200200 METAR LMML NIL=
200906200145 METAR LMML 200145Z VRB01KT CAVOK 21/20 Q1014 NOSIG=
200906200130 METAR LMML NIL=
200906200115 METAR LMML 200115Z VRB01KT CAVOK 21/19 Q1015 NOSIG=
200906200100 METAR LMML NIL=
200906200045 METAR LMML 200045Z VRB02KT CAVOK 22/19 Q1015 NOSIG=
200906200030 METAR LMML NIL=
200906200015 METAR LMML 200015Z VRB03KT CAVOK 22/20 Q1015 NOSIG=
200906200000 METAR LMML NIL=
200906192345 METAR LMML 192345Z VRB03KT CAVOK 22/20 Q1015 NOSIG=
200906192315 METAR LMML 192315Z VRB02KT CAVOK 22/20 Q1016 NOSIG=
200906192245 METAR LMML 192245Z VRB01KT CAVOK 22/20 Q1016 NOSIG=
200906192230 METAR LMML NIL=
200906192215 METAR LMML 192215Z VRB02KT CAVOK 22/19 Q1016 NOSIG=
200906192145 METAR LMML 192145Z VRB02KT CAVOK 23/20 Q1016 NOSIG=
200906192115 METAR LMML 192115Z VRB02KT CAVOK 23/19 Q1016 NOSIG=
200906192045 METAR LMML 192045Z VRB01KT CAVOK 23/19 Q1016 NOSIG=
200906192030 METAR LMML NIL=
200906192015 METAR LMML 192015Z VRB03KT CAVOK 23/19 Q1016 NOSIG=
200906192000 METAR LMML NIL=
200906191945 METAR LMML 191945Z VRB02KT CAVOK 23/20 Q1016 NOSIG=
200906191930 METAR LMML NIL=
200906191915 METAR LMML 191915Z VRB02KT CAVOK 23/20 Q1016 NOSIG=
200906191900 METAR LMML NIL=
200906191845 METAR LMML 191845Z VRB02KT CAVOK 24/20 Q1015 NOSIG=
200906191830 METAR LMML NIL=
200906191815 METAR LMML 191815Z VRB02KT CAVOK 24/20 Q1015 NOSIG=
200906191800 METAR LMML NIL=
200906191745 METAR LMML 191745Z 19004KT 160V230 CAVOK 24/20 Q1015 NOSIG=
200906191730 METAR LMML NIL=
200906191715 METAR LMML 191715Z 20004KT 160V240 CAVOK 25/20 Q1015 NOSIG=
200906191700 METAR LMML NIL=
200906191645 METAR LMML 191645Z 20005KT 160V240 CAVOK 26/20 Q1015 NOSIG=
200906191630 METAR LMML NIL=
200906191615 METAR LMML 191615Z 19006KT 160V230 CAVOK 26/20 Q1015 NOSIG=
200906191600 METAR LMML NIL=
200906191545 METAR LMML 191545Z 19006KT 160V260 9999 FEW012 26/20 Q1016
                        NOSIG=
200906191530 METAR LMML NIL=
200906191515 METAR LMML 191515Z 21005KT 150V290 9999 FEW018 27/20 Q1016
                        NOSIG=
200906191445 METAR LMML 191445Z 21005KT 170V270 9999 FEW018 26/20 Q1016
                        NOSIG=
200906191430 METAR LMML NIL=
200906191415 METAR LMML 191415Z 18006KT 150V210 9999 FEW018 27/20 Q1016
                        NOSIG=
200906191400 METAR LMML NIL=
200906191345 METAR LMML 191345Z 20005KT 150V240 9999 FEW018 27/20 Q1016
                        NOSIG=
200906191330 METAR LMML NIL=
200906191315 METAR LMML 191315Z 21005KT 140V300 9999 FEW015 28/20 Q1017
                        NOSIG=
200906191300 METAR LMML NIL=
200906191245 METAR LMML 191245Z 19005KT 150V260 9999 FEW015 27/20 Q1017
                        NOSIG=
200906191230 METAR LMML NIL=
200906191215 METAR LMML 191215Z 21004KT 130V270 9999 FEW015 28/20 Q1017
                        NOSIG=
200906191200 METAR LMML NIL=
200906191145 METAR LMML 191145Z 18005KT 130V250 9999 FEW015 SCT250 28/19
                        Q1017 NOSIG=
200906191130 METAR LMML NIL=
200906191115 METAR LMML 191115Z 16006KT 110V210 9999 FEW015 SCT250 27/18
                        Q1017 NOSIG=
200906191100 METAR LMML NIL=
200906191045 METAR LMML 191045Z 17006KT 110V210 9999 FEW020 SCT250 28/16
                        Q1018 NOSIG=
200906191030 METAR LMML NIL=
200906191015 METAR LMML 191015Z 18006KT 120V230 9999 FEW020 SCT250 27/17
                        Q1018 NOSIG=
200906191000 METAR LMML NIL=
200906190945 METAR LMML 190945Z 18006KT 130V230 9999 FEW020 SCT250 28/15
                        Q1018 NOSIG=
200906190930 METAR LMML NIL=
200906190915 METAR LMML 190915Z 16005KT 090V220 9999 FEW012 SCT250 27/16
                        Q1018 NOSIG=
200906190900 METAR LMML NIL=
200906190845 METAR LMML 190845Z 12006KT 080V180 9999 FEW012 SCT250 27/19
                        Q1018 NOSIG=
200906190830 METAR LMML NIL=
200906190815 METAR LMML 190815Z 12005KT 080V160 9999 FEW012 BKN250 26/20
                        Q1017 NOSIG=
200906190800 METAR LMML NIL=
200906190745 METAR LMML 190745Z 12006KT 080V160 9999 FEW011 BKN250 25/19
                        Q1017 NOSIG=
200906190730 METAR LMML NIL=
200906190715 METAR LMML 190715Z 12005KT 080V160 9999 FEW008 BKN250 24/21
                        Q1017 NOSIG=
200906190700 METAR LMML NIL=
200906190645 METAR LMML 190645Z 08004KT 050V110 8000 SCT008 BKN250 23/20
                        Q1017 BECMG 9999=
200906190630 METAR LMML NIL=
200906190615 METAR LMML 190615Z 09004KT 060V120 7000 FEW008 BKN250 22/20
                        Q1017 BECMG 9999=
200906190600 METAR LMML NIL=
200906190545 METAR LMML 190545Z 08005KT 050V110 6000 FEW008 SCT120 BKN250
                        22/20 Q1017 BECMG 9999=
200906190530 METAR LMML NIL=
200906190515 METAR LMML 190515Z 08004KT 6000 FEW006 BKN250 22/20 Q1017
                        BECMG 9999=
200906190500 METAR LMML NIL=
200906190445 METAR LMML 190445Z VRB03KT 6000 FEW006 BKN250 22/20 Q1017
                        BECMG 9999=
200906190430 METAR LMML NIL=
200906190415 METAR LMML 190415Z 07004KT 030V100 4000 BR SCT006 BKN250
                        21/20 Q1017 TEMPO BKN005=
200906190400 METAR LMML NIL=
200906190345 METAR LMML 190345Z 07004KT 4000 BR SCT006 SCT250 21/20 Q1017
                        NOSIG=
200906190330 METAR LMML NIL=
200906190315 METAR LMML 190315Z VRB02KT 6000 FEW006 BKN250 21/20 Q1017
                        TEMPO 4000 BR=
200906190300 METAR LMML NIL=
200906190245 METAR LMML 190245Z VRB01KT 6000 FEW006 SCT250 21/20 Q1017
                        TEMPO BKN005=
200906190230 METAR LMML NIL=
200906190215 METAR LMML 190215Z VRB03KT 6000 SCT006 SCT250 22/20 Q1017
                        TEMPO BKN005=
200906190200 METAR LMML NIL=
200906190145 METAR LMML 190145Z VRB03KT 6000 SCT006 22/21 Q1017 TEMPO
                        BKN005=
200906190130 METAR LMML NIL=
200906190115 METAR LMML 190115Z VRB03KT 6000 SCT006 SCT250 22/21 Q1017
                        TEMPO SCT005=
200906190100 METAR LMML NIL=
200906190045 METAR LMML 190045Z VRB02KT 6000 BKN005 21/20 Q1017 TEMPO
                        SCT005=
200906190030 METAR LMML NIL=
200906190015 METAR LMML 190015Z VRB01KT 6000 BKN005 22/20 Q1017 TEMPO
                        SCT005=
200906190000 METAR LMML NIL=
200906182345 METAR LMML 182345Z VRB03KT 6000 BKN005 22/20 Q1017 TEMPO
                        SCT005=
200906182330 METAR LMML NIL=
200906182315 METAR LMML 182315Z 07004KT 6000 BKN005 22/21 Q1017 TEMPO
                        SCT005=
200906182300 METAR LMML NIL=
200906182245 METAR LMML 182245Z VRB03KT 6000 BKN005 22/21 Q1017 TEMPO
                        4000 BR BKN004=
200906182230 METAR LMML NIL=
200906182215 METAR LMML 182215Z VRB03KT 6000 BKN005 23/21 Q1018 TEMPO
                        4000 BR BKN004=
200906182200 METAR LMML NIL=
200906182145 METAR LMML 182145Z VRB03KT 6000 BKN005 23/21 Q1018 TEMPO
                        4000 BR BKN004=
200906182130 METAR LMML NIL=
200906182115 METAR LMML 182115Z VRB03KT 6000 FEW005 23/21 Q1018 NOSIG=
200906182100 METAR LMML NIL=
200906182045 METAR LMML 182045Z VRB03KT 9000 NSC 23/21 Q1018 TEMPO FEW005=
200906182030 METAR LMML NIL=
200906182015 METAR LMML 182015Z VRB03KT 9000 NSC 23/21 Q1018 NOSIG=
200906182000 METAR LMML NIL=
200906181945 METAR LMML 181945Z 08004KT 9000 FEW015 SCT250 23/21 Q1018
                        NOSIG=
200906181930 METAR LMML NIL=
200906181915 METAR LMML 181915Z 08004KT 030V110 9000 FEW018 SCT250 23/21
                        Q1017 NOSIG=
200906181900 METAR LMML NIL=
200906181845 METAR LMML 181845Z VRB03KT 9000 FEW018 SCT250 24/21 Q1017
                        NOSIG=
200906181830 METAR LMML NIL=
200906181815 METAR LMML 181815Z VRB03KT 9999 FEW018 BKN250 24/21 Q1017
                        NOSIG=
200906181800 METAR LMML NIL=
200906181745 METAR LMML 181745Z 03006KT 360V060 CAVOK 26/21 Q1017 NOSIG=
200906181730 METAR LMML NIL=
200906181715 METAR LMML 181715Z 03004KT 360V070 CAVOK 27/20 Q1017 NOSIG=
200906181700 METAR LMML NIL=
200906181645 METAR LMML 181645Z 07005KT 350V120 CAVOK 27/20 Q1017 NOSIG=
200906181630 METAR LMML NIL=
200906181615 METAR LMML 181615Z 06004KT 350V110 CAVOK 28/20 Q1017 NOSIG=
200906181600 METAR LMML NIL=
200906181545 METAR LMML 181545Z 04004KT 340V130 CAVOK 29/20 Q1017 NOSIG=
200906181530 METAR LMML NIL=
200906181515 METAR LMML 181515Z 04004KT 340V120 CAVOK 29/20 Q1017 NOSIG=
200906181500 METAR LMML NIL=
200906181445 METAR LMML 181445Z 02006KT 340V060 CAVOK 29/20 Q1017 NOSIG=
200906181430 METAR LMML NIL=
200906181415 METAR LMML 181415Z 03007KT 350V080 CAVOK 30/19 Q1018 NOSIG=
200906181400 METAR LMML NIL=
200906181345 METAR LMML 181345Z 03007KT 360V060 CAVOK 30/18 Q1018 NOSIG=
200906181330 METAR LMML NIL=
200906181315 METAR LMML 181315Z 06004KT 320V190 CAVOK 30/16 Q1018 NOSIG=
200906181300 METAR LMML NIL=
200906181245 METAR LMML 181245Z 02007KT 350V060 CAVOK 31/18 Q1018 NOSIG=
200906181230 METAR LMML NIL=
200906181215 METAR LMML 181215Z 02006KT 340V060 CAVOK 31/17 Q1018 NOSIG=
200906181145 METAR LMML 181145Z 14006KT 350V220 CAVOK 30/17 Q1018 NOSIG=
200906181115 METAR LMML 181115Z 07004KT 340V210 CAVOK 31/18 Q1018 NOSIG=
200906181100 METAR LMML NIL=
200906181045 METAR LMML 181045Z 03005KT 340V100 CAVOK 31/15 Q1018 NOSIG=
200906181030 METAR LMML NIL=
200906181015 METAR LMML 181015Z 09005KT 030V160 CAVOK 29/16 Q1018 NOSIG=
200906181000 METAR LMML NIL=
200906180945 METAR LMML 180945Z 07005KT 020V140 CAVOK 29/17 Q1018 NOSIG=
200906180930 METAR LMML NIL=
200906180915 METAR LMML 180915Z 09006KT 040V140 CAVOK 29/17 Q1018 NOSIG=
200906180900 METAR LMML NIL=
200906180845 METAR LMML 180845Z 11005KT 020V150 CAVOK 28/16 Q1018 NOSIG=
200906180830 METAR LMML NIL=
200906180815 METAR LMML 180815Z 11006KT 070V170 CAVOK 28/17 Q1018 NOSIG=
200906180800 METAR LMML NIL=
200906180745 METAR LMML 180745Z 10005KT 060V140 CAVOK 28/16 Q1018 NOSIG=
200906180730 METAR LMML NIL=
200906180715 METAR LMML 180715Z VRB03KT CAVOK 28/17 Q1018 NOSIG=
200906180700 METAR LMML NIL=
200906180645 METAR LMML 180645Z VRB02KT CAVOK 27/17 Q1018 NOSIG=
200906180615 METAR LMML 180615Z VRB02KT CAVOK 25/18 Q1017 NOSIG=
200906180545 METAR LMML 180545Z VRB02KT CAVOK 23/18 Q1017 NOSIG=
200906180530 METAR LMML NIL=
200906180515 METAR LMML 180515Z 31004KT CAVOK 22/17 Q1017 NOSIG=
200906180500 METAR LMML NIL=
200906180445 METAR LMML 180445Z VRB03KT CAVOK 22/17 Q1017 NOSIG=
200906180430 METAR LMML NIL=
200906180415 METAR LMML 180415Z 32004KT CAVOK 20/16 Q1017 NOSIG=
200906180400 METAR LMML NIL=
200906180345 METAR LMML 180345Z 32005KT CAVOK 20/16 Q1017 NOSIG=
200906180330 METAR LMML NIL=
200906180315 METAR LMML 180315Z 33004KT CAVOK 20/16 Q1017 NOSIG=
200906180300 METAR LMML NIL=
200906180245 METAR LMML 180245Z 33004KT CAVOK 21/16 Q1016 NOSIG=
200906180230 METAR LMML NIL=
200906180215 METAR LMML 180215Z 32004KT CAVOK 21/15 Q1017 NOSIG=
200906180200 METAR LMML NIL=
200906180145 METAR LMML 180145Z 33004KT CAVOK 21/15 Q1017 NOSIG=
200906180130 METAR LMML NIL=
200906180115 METAR LMML 180115Z 33004KT CAVOK 21/14 Q1017 NOSIG=
200906180100 METAR LMML NIL=
200906180045 METAR LMML 180045Z VRB03KT CAVOK 21/13 Q1017 NOSIG=
200906180030 METAR LMML NIL=
200906180015 METAR LMML 180015Z 31005KT CAVOK 22/12 Q1017 NOSIG=
200906180000 METAR LMML NIL=
200906172345 METAR LMML 172345Z 31005KT CAVOK 22/11 Q1018 NOSIG=
200906172315 METAR LMML 172315Z 30004KT CAVOK 22/11 Q1018 NOSIG=
200906172300 METAR LMML NIL=
200906172245 METAR LMML 172245Z 31004KT CAVOK 22/11 Q1018 NOSIG=
200906172230 METAR LMML NIL=
200906172215 METAR LMML 172215Z 30004KT CAVOK 22/12 Q1018 NOSIG=
200906172200 METAR LMML NIL=
200906172145 METAR LMML 172145Z 30005KT 270V330 CAVOK 22/13 Q1018 NOSIG=
200906172130 METAR LMML NIL=
200906172115 METAR LMML 172115Z 31005KT CAVOK 22/13 Q1018 NOSIG=
200906172100 METAR LMML NIL=
200906172045 METAR LMML 172045Z 31006KT CAVOK 22/13 Q1018 NOSIG=
200906172030 METAR LMML NIL=
200906172015 METAR LMML 172015Z 30006KT CAVOK 22/13 Q1018 NOSIG=
200906172000 METAR LMML NIL=
200906171945 METAR LMML 171945Z 30006KT CAVOK 23/13 Q1018 NOSIG=
200906171930 METAR LMML NIL=
200906171915 METAR LMML 171915Z 32005KT CAVOK 23/13 Q1018 NOSIG=
200906171900 METAR LMML NIL=
200906171845 METAR LMML 171845Z 33007KT CAVOK 23/13 Q1018 NOSIG=
200906171830 METAR LMML NIL=
200906171815 METAR LMML 171815Z 31008KT CAVOK 24/14 Q1017 NOSIG=
200906171800 METAR LMML NIL=
200906171745 METAR LMML 171745Z 31008KT CAVOK 26/13 Q1017 NOSIG=
200906171715 METAR LMML 171715Z 31008KT CAVOK 27/13 Q1018 NOSIG=
200906171700 METAR LMML NIL=
200906171645 METAR LMML 171645Z 31008KT 270V330 CAVOK 27/12 Q1017 NOSIG=
200906171630 METAR LMML NIL=
200906171615 METAR LMML 171615Z 30009KT CAVOK 28/12 Q1017 NOSIG=
200906171600 METAR LMML NIL=
200906171545 METAR LMML 171545Z 32009KT CAVOK 28/12 Q1017 NOSIG=
200906171530 METAR LMML NIL=
200906171515 METAR LMML 171515Z 31009KT CAVOK 28/11 Q1017 NOSIG=
200906171500 METAR LMML NIL=
200906171445 METAR LMML 171445Z 31008KT 280V350 CAVOK 29/11 Q1018 NOSIG=
200906171430 METAR LMML NIL=
200906171415 METAR LMML 171415Z 30009KT 270V340 CAVOK 29/10 Q1018 NOSIG=
200906171400 METAR LMML NIL=
200906171345 METAR LMML 171345Z 30010KT 280V350 CAVOK 29/10 Q1018 NOSIG=
200906171330 METAR LMML NIL=
200906171315 METAR LMML 171315Z 32010KT 280V350 CAVOK 30/10 Q1018 NOSIG=
200906171300 METAR LMML NIL=
200906171245 METAR LMML 171245Z 29009KT 250V320 CAVOK 29/12 Q1018 NOSIG=
200906171230 METAR LMML NIL=
200906171215 METAR LMML 171215Z 31009KT 280V340 CAVOK 29/11 Q1018 NOSIG=
200906171200 METAR LMML NIL=
200906171145 METAR LMML 171145Z 30008KT 250V340 CAVOK 30/12 Q1018 NOSIG=
200906171130 METAR LMML NIL=
200906171115 METAR LMML 171115Z 30008KT 250V340 9999 FEW020 29/12 Q1019
                        NOSIG=
200906171100 METAR LMML NIL=
200906171045 METAR LMML 171045Z 28007KT 210V330 CAVOK 29/13 Q1019 NOSIG=
200906171030 METAR LMML NIL=
200906171015 METAR LMML 171015Z 32006KT 280V010 CAVOK 29/13 Q1019 NOSIG=
200906171000 METAR LMML NIL=
200906170945 METAR LMML 170945Z 30008KT 260V340 CAVOK 29/11 Q1019 NOSIG=
200906170930 METAR LMML NIL=
200906170915 METAR LMML 170915Z 31005KT 240V350 9999 FEW020 SCT250 28/12
                        Q1019 NOSIG=
200906170900 METAR LMML NIL=
200906170845 METAR LMML 170845Z 29005KT 250V330 9999 FEW020 SCT250 28/12
                        Q1019 NOSIG=
200906170830 METAR LMML NIL=
200906170815 METAR LMML 170815Z 31007KT 270V340 9999 FEW020 27/13 Q1019
                        NOSIG=
200906170800 METAR LMML NIL=
200906170745 METAR LMML 170745Z 32007KT 290V350 9999 FEW020 27/14 Q1019
                        NOSIG=
200906170730 METAR LMML NIL=
200906170715 METAR LMML 170715Z 34006KT 9999 FEW020 27/13 Q1018 NOSIG=
200906170700 METAR LMML NIL=
200906170645 METAR LMML 170645Z 31005KT 280V340 9999 FEW012 26/15 Q1018
                        NOSIG=
200906170630 METAR LMML NIL=
200906170615 METAR LMML 170615Z VRB03KT 9999 FEW012 24/16 Q1018 NOSIG=
200906170600 METAR LMML NIL=
200906170545 METAR LMML 170545Z VRB02KT CAVOK 24/16 Q1018 NOSIG=
200906170530 METAR LMML NIL=
200906170515 METAR LMML 170515Z VRB03KT 9999 FEW012 22/17 Q1018 NOSIG=
200906170500 METAR LMML NIL=
200906170445 METAR LMML 170445Z VRB03KT 9999 FEW012 20/14 Q1018 NOSIG=
200906170430 METAR LMML NIL=
200906170415 METAR LMML 170415Z 25004KT CAVOK 19/14 Q1018 NOSIG=
200906170400 METAR LMML NIL=
200906170345 METAR LMML 170345Z 29004KT CAVOK 19/15 Q1018 NOSIG=
200906170330 METAR LMML NIL=
200906170315 METAR LMML 170315Z 30004KT CAVOK 19/15 Q1018 NOSIG=
200906170300 METAR LMML NIL=
200906170245 METAR LMML 170245Z VRB03KT CAVOK 19/14 Q1018 NOSIG=
200906170230 METAR LMML NIL=
200906170215 METAR LMML 170215Z VRB03KT CAVOK 18/12 Q1018 NOSIG=
200906170200 METAR LMML NIL=
200906170145 METAR LMML 170145Z 32004KT CAVOK 19/12 Q1018 NOSIG=
200906170130 METAR LMML NIL=
200906170115 METAR LMML 170115Z VRB03KT CAVOK 19/12 Q1018 NOSIG=
200906170100 METAR LMML NIL=
200906170045 METAR LMML 170045Z VRB03KT CAVOK 19/17 Q1018 NOSIG=
200906170030 METAR LMML NIL=
200906170015 METAR LMML 170015Z VRB03KT CAVOK 19/18 Q1018 NOSIG=
200906162345 METAR LMML 162345Z VRB03KT CAVOK 19/17 Q1018 NOSIG=
200906162330 METAR LMML NIL=
200906162315 METAR LMML 162315Z VRB03KT CAVOK 20/17 Q1019 NOSIG=
200906162300 METAR LMML NIL=
200906162245 METAR LMML 162245Z 30004KT CAVOK 20/18 Q1019 NOSIG=
200906162230 METAR LMML NIL=
200906162215 METAR LMML 162215Z VRB03KT CAVOK 20/15 Q1019 NOSIG=
200906162145 METAR LMML 162145Z VRB02KT CAVOK 20/15 Q1019 NOSIG=
200906162130 METAR LMML NIL=
200906162115 METAR LMML 162115Z VRB03KT CAVOK 20/16 Q1019 NOSIG=
200906162045 METAR LMML 162045Z VRB02KT CAVOK 21/16 Q1019 NOSIG=
200906162030 METAR LMML NIL=
200906162000 METAR LMML NIL=
200906161945 METAR LMML 161945Z 32004KT CAVOK 22/16 Q1019 NOSIG=
200906161930 METAR LMML NIL=
200906161915 METAR LMML 161915Z VRB02KT CAVOK 22/15 Q1019 NOSIG=
200906161900 METAR LMML NIL=
200906161845 METAR LMML 161845Z 27004KT CAVOK 23/15 Q1019 NOSIG=
200906161830 METAR LMML NIL=
200906161815 METAR LMML 161815Z 28004KT 240V310 CAVOK 24/14 Q1019 NOSIG=
200906161800 METAR LMML NIL=
200906161745 METAR LMML 161745Z 25004KT 210V290 CAVOK 25/14 Q1019 NOSIG=
200906161730 METAR LMML NIL=
200906161715 METAR LMML 161715Z 23005KT 200V280 CAVOK 25/15 Q1019 NOSIG=
200906161700 METAR LMML NIL=
200906161645 METAR LMML 161645Z 23006KT 200V290 CAVOK 26/14 Q1019 NOSIG=
200906161630 METAR LMML NIL=
200906161615 METAR LMML 161615Z 21005KT 180V240 9999 FEW020 26/14 Q1019
                        NOSIG=
200906161545 METAR LMML 161545Z 26011KT CAVOK 27/18 Q1019 NOSIG=
200906161530 METAR LMML NIL=
200906161515 METAR LMML 161515Z 24014KT CAVOK 27/17 Q1019 NOSIG=
200906161500 METAR LMML NIL=
200906161445 METAR LMML 161445Z 21007KT 9999 FEW020 27/17 Q1019 NOSIG=
200906161430 METAR LMML NIL=
200906161415 METAR LMML 161415Z 21007KT 170V260 9999 FEW020 27/15 Q1019
                        NOSIG=
200906161400 METAR LMML NIL=
200906161345 METAR LMML 161345Z 20006KT 160V260 9999 FEW020 28/14 Q1019
                        NOSIG=
200906161330 METAR LMML NIL=
200906161315 METAR LMML 161315Z 20007KT 160V250 9999 FEW020 27/16 Q1019
                        NOSIG=
200906161300 METAR LMML NIL=
200906161245 METAR LMML 161245Z 20007KT 160V250 9999 FEW020 27/18 Q1019
                        NOSIG=
200906161230 METAR LMML NIL=
200906161215 METAR LMML 161215Z 20006KT 160V260 9999 FEW020 27/17 Q1020
                        NOSIG=
200906161200 METAR LMML NIL=
200906161145 METAR LMML 161145Z 20006KT 160V260 9999 FEW020 27/17 Q1020
                        NOSIG=
200906161130 METAR LMML NIL=
200906161115 METAR LMML 161115Z 20005KT 160V260 9999 FEW020 27/17 Q1020
                        NOSIG=
200906161100 METAR LMML NIL=
200906161045 METAR LMML 161045Z 19006KT 140V240 9999 FEW020 26/19 Q1020
                        NOSIG=
200906161030 METAR LMML NIL=
200906161015 METAR LMML 161015Z 21005KT 140V310 9999 FEW020 26/19 Q1020
                        NOSIG=
200906161000 METAR LMML NIL=
200906160945 METAR LMML 160945Z 20007KT 160V250 9999 FEW020 26/19 Q1021
                        NOSIG=
200906160930 METAR LMML NIL=
200906160915 METAR LMML 160915Z 18004KT 130V220 9999 FEW020 26/20 Q1021
                        NOSIG=
200906160900 METAR LMML NIL=
200906160845 METAR LMML 160845Z 13004KT 050V270 9999 FEW020 27/19 Q1021
                        NOSIG=
200906160830 METAR LMML NIL=
200906160815 METAR LMML 160815Z 02005KT 320V070 9999 FEW020 28/17 Q1021
                        NOSIG=
200906160800 METAR LMML NIL=
200906160745 METAR LMML 160745Z 02005KT 340V080 CAVOK 28/17 Q1020 NOSIG=
200906160730 METAR LMML NIL=
200906160715 METAR LMML 160715Z VRB01KT CAVOK 27/14 Q1020 NOSIG=
200906160700 METAR LMML NIL=
200906160645 METAR LMML 160645Z VRB01KT CAVOK 25/17 Q1020 NOSIG=
200906160630 METAR LMML NIL=
200906160615 METAR LMML 160615Z VRB02KT CAVOK 24/18 Q1020 NOSIG=
200906160600 METAR LMML NIL=
200906160545 METAR LMML 160545Z VRB03KT 9999 FEW012 23/19 Q1020 NOSIG=
200906160530 METAR LMML NIL=
200906160515 METAR LMML 160515Z VRB03KT 9000 FEW012 21/19 Q1020 NOSIG=
200906160500 METAR LMML NIL=
200906160445 METAR LMML 160445Z VRB01KT 9000 NSC 20/18 Q1019 NOSIG=
200906160430 METAR LMML NIL=
200906160415 METAR LMML 160415Z VRB01KT 9000 NSC 19/18 Q1019 NOSIG=
200906160345 METAR LMML 160345Z VRB01KT 9999 FEW012 19/18 Q1019 NOSIG=
200906160315 METAR LMML 160315Z VRB01KT 9999 FEW012 18/17 Q1019 NOSIG=
200906160300 METAR LMML NIL=
200906160245 METAR LMML 160245Z VRB01KT 9999 FEW012 19/17 Q1019 NOSIG=
200906160230 METAR LMML NIL=
200906160215 METAR LMML 160215Z 00000KT 9999 FEW012 19/17 Q1019 NOSIG=
200906160200 METAR LMML NIL=
200906160145 METAR LMML 160145Z 00000KT 9999 FEW012 19/17 Q1019 NOSIG=
200906160130 METAR LMML NIL=
200906160115 METAR LMML 160115Z VRB01KT 9999 FEW012 19/16 Q1020 NOSIG=
200906160100 METAR LMML NIL=
200906160045 METAR LMML 160045Z VRB01KT 9999 FEW020 19/17 Q1020 NOSIG=
200906160030 METAR LMML NIL=
200906160015 METAR LMML 160015Z 00000KT CAVOK 19/17 Q1020 NOSIG=
200906160000 METAR LMML NIL=
200906152345 METAR LMML 152345Z VRB01KT CAVOK 19/17 Q1020 NOSIG=
200906152330 METAR LMML NIL=
200906152315 METAR LMML 152315Z VRB02KT CAVOK 19/17 Q1020 NOSIG=
200906152300 METAR LMML NIL=
200906152245 METAR LMML 152245Z VRB02KT CAVOK 20/17 Q1020 NOSIG=
200906152230 METAR LMML NIL=
200906152215 METAR LMML 152215Z VRB02KT CAVOK 21/18 Q1020 NOSIG=
200906152200 METAR LMML NIL=
200906152145 METAR LMML 152145Z VRB02KT CAVOK 21/18 Q1021 NOSIG=
200906152130 METAR LMML NIL=
200906152115 METAR LMML 152115Z VRB03KT CAVOK 22/18 Q1021 NOSIG=
200906152100 METAR LMML NIL=
200906152045 METAR LMML 152045Z VRB02KT CAVOK 22/18 Q1021 NOSIG=
200906152030 METAR LMML NIL=
200906152015 METAR LMML 152015Z VRB02KT CAVOK 22/18 Q1021 NOSIG=
200906152000 METAR LMML NIL=
200906151945 METAR LMML 151945Z VRB03KT CAVOK 23/18 Q1021 NOSIG=
200906151930 METAR LMML NIL=
200906151915 METAR LMML 151915Z VRB03KT CAVOK 23/17 Q1021 NOSIG=
200906151900 METAR LMML NIL=
200906151845 METAR LMML 151845Z VRB03KT CAVOK 24/16 Q1021 NOSIG=
200906151830 METAR LMML NIL=
200906151815 METAR LMML 151815Z 09004KT 050V130 CAVOK 24/16 Q1021 NOSIG=
200906151800 METAR LMML NIL=
200906151745 METAR LMML 151745Z 12005KT CAVOK 25/15 Q1021 NOSIG=
200906151730 METAR LMML NIL=
200906151715 METAR LMML 151715Z 12006KT 100V160 CAVOK 26/14 Q1021 NOSIG=
200906151700 METAR LMML NIL=
200906151645 METAR LMML 151645Z 13007KT CAVOK 26/11 Q1021 NOSIG=
200906151630 METAR LMML NIL=
200906151615 METAR LMML 151615Z 12007KT 090V170 CAVOK 27/11 Q1021 NOSIG=
200906151600 METAR LMML NIL=
200906151545 METAR LMML 151545Z 12007KT 070V170 CAVOK 28/13 Q1021 NOSIG=
200906151530 METAR LMML NIL=
200906151515 METAR LMML 151515Z 11008KT 070V180 CAVOK 28/13 Q1021 NOSIG=
200906151500 METAR LMML NIL=
200906151445 METAR LMML 151445Z 12008KT 080V160 CAVOK 28/12 Q1021 NOSIG=
200906151430 METAR LMML NIL=
200906151415 METAR LMML 151415Z 12008KT 090V160 CAVOK 28/11 Q1021 NOSIG=
200906151400 METAR LMML NIL=
200906151345 METAR LMML 151345Z 13008KT 090V160 CAVOK 29/09 Q1021 NOSIG=
200906151330 METAR LMML NIL=
200906151315 METAR LMML 151315Z 12008KT 080V160 CAVOK 29/08 Q1021 NOSIG=
200906151300 METAR LMML NIL=
200906151245 METAR LMML 151245Z 13007KT 080V170 CAVOK 29/08 Q1022 NOSIG=
200906151215 METAR LMML 151215Z 13008KT 080V160 CAVOK 29/09 Q1022 NOSIG=
200906151200 METAR LMML NIL=
200906151145 METAR LMML 151145Z 13009KT 080V160 CAVOK 28/07 Q1022 NOSIG=
200906151130 METAR LMML NIL=
200906151115 METAR LMML 151115Z 13008KT 100V160 CAVOK 29/09 Q1022 NOSIG=
200906151100 METAR LMML NIL=
200906151045 METAR LMML 151045Z 13007KT 080V170 CAVOK 29/09 Q1022 NOSIG=
200906151030 METAR LMML NIL=
200906151015 METAR LMML 151015Z 11007KT 060V170 CAVOK 28/12 Q1022 NOSIG=
200906151000 METAR LMML NIL=
200906150945 METAR LMML 150945Z 09008KT 060V120 CAVOK 29/11 Q1022 NOSIG=
200906150930 METAR LMML NIL=
200906150915 METAR LMML 150915Z 11007KT 070V140 CAVOK 28/13 Q1022 NOSIG=
200906150900 METAR LMML NIL=
200906150845 METAR LMML 150845Z 04006KT CAVOK 28/13 Q1022 NOSIG=
200906150830 METAR LMML NIL=
200906150815 METAR LMML 150815Z 10005KT 060V140 CAVOK 27/15 Q1022 NOSIG=
200906150800 METAR LMML NIL=
200906150745 METAR LMML 150745Z 07005KT 020V120 CAVOK 27/17 Q1022 NOSIG=
200906150730 METAR LMML NIL=
200906150715 METAR LMML 150715Z 08005KT 350V170 9999 FEW020 26/18 Q1022
                        NOSIG=
200906150700 METAR LMML NIL=
200906150645 METAR LMML 150645Z VRB03KT 9999 FEW020 25/19 Q1022 NOSIG=
200906150630 METAR LMML NIL=
200906150615 METAR LMML 150615Z 04004KT 010V090 9999 FEW009 25/19 Q1022
                        NOSIG=
200906150600 METAR LMML NIL=
200906150545 METAR LMML 150545Z VRB03KT CAVOK 24/19 Q1022 NOSIG=
200906150530 METAR LMML NIL=
200906150515 METAR LMML 150515Z VRB01KT CAVOK 22/20 Q1021 NOSIG=
200906150500 METAR LMML NIL=
200906150445 METAR LMML 150445Z VRB02KT CAVOK 20/19 Q1021 NOSIG=
200906150430 METAR LMML NIL=
200906150415 METAR LMML 150415Z VRB02KT 9000 NSC 19/18 Q1021 NOSIG=
200906150400 METAR LMML NIL=
200906150345 METAR LMML 150345Z VRB01KT 9000 NSC 19/18 Q1021 NOSIG=
200906150330 METAR LMML NIL=
200906150315 METAR LMML 150315Z 00000KT 9000 NSC 19/17 Q1021 TEMPO 7000=
200906150300 METAR LMML NIL=
200906150245 METAR LMML 150245Z VRB01KT 9000 NSC 18/17 Q1021 TEMPO 7000=
200906150230 METAR LMML NIL=
200906150215 METAR LMML 150215Z VRB02KT 9000 NSC 19/17 Q1021 TEMPO 7000=
200906150200 METAR LMML NIL=
200906150145 METAR LMML 150145Z VRB01KT 9000 NSC 19/17 Q1020 TEMPO 7000=
200906150130 METAR LMML NIL=
200906150115 METAR LMML 150115Z 00000KT CAVOK 19/18 Q1020 TEMPO 7000=
200906150100 METAR LMML NIL=
200906150045 METAR LMML 150045Z 00000KT CAVOK 19/18 Q1020 TEMPO 7000=
200906150030 METAR LMML NIL=
200906150015 METAR LMML 150015Z VRB01KT CAVOK 19/18 Q1020 NOSIG=
200906150000 METAR LMML NIL=
200906142345 METAR LMML 142345Z VRB01KT CAVOK 19/18 Q1021 NOSIG=
200906142330 METAR LMML NIL=
200906142315 METAR LMML 142315Z VRB01KT CAVOK 20/18 Q1021 NOSIG=
200906142300 METAR LMML NIL=
200906142245 METAR LMML 142245Z VRB01KT CAVOK 20/18 Q1021 NOSIG=
200906142230 METAR LMML NIL=
200906142215 METAR LMML 142215Z VRB01KT CAVOK 20/18 Q1021 NOSIG=
200906142200 METAR LMML NIL=
200906142145 METAR LMML 142145Z VRB01KT CAVOK 20/18 Q1021 NOSIG=
200906142130 METAR LMML NIL=
200906142115 METAR LMML 142115Z VRB01KT CAVOK 21/19 Q1021 NOSIG=
200906142100 METAR LMML NIL=
200906142045 METAR LMML 142045Z VRB01KT CAVOK 21/19 Q1022 NOSIG=
200906142030 METAR LMML NIL=
200906142015 METAR LMML 142015Z VRB03KT CAVOK 21/19 Q1021 NOSIG=
200906142000 METAR LMML NIL=
200906141945 METAR LMML 141945Z VRB03KT CAVOK 22/19 Q1021 NOSIG=
200906141930 METAR LMML NIL=
200906141915 METAR LMML 141915Z VRB03KT CAVOK 22/18 Q1021 NOSIG=
200906141900 METAR LMML NIL=
200906141845 METAR LMML 141845Z 20004KT 170V240 CAVOK 22/18 Q1020 NOSIG=
200906141830 METAR LMML NIL=
200906141815 METAR LMML 141815Z VRB03KT CAVOK 23/17 Q1020 NOSIG=
200906141800 METAR LMML NIL=
200906141745 METAR LMML 141745Z VRB03KT CAVOK 24/17 Q1021 NOSIG=
200906141715 METAR LMML 141715Z 22005KT 190V260 CAVOK 24/18 Q1020 NOSIG=
200906141700 METAR LMML NIL=
200906141645 METAR LMML 141645Z 20006KT 160V250 CAVOK 25/18 Q1020 NOSIG=
200906141615 METAR LMML 141615Z 21006KT 170V240 CAVOK 25/18 Q1020 NOSIG=
200906141600 METAR LMML NIL=
200906141545 METAR LMML 141545Z 21006KT 170V250 CAVOK 26/17 Q1020 NOSIG=
200906141530 METAR LMML NIL=
200906141515 METAR LMML 141515Z 20007KT 170V250 9999 FEW030 26/17 Q1020
                        NOSIG=
200906141500 METAR LMML NIL=
200906141445 METAR LMML 141445Z 19006KT 160V230 9999 FEW030 26/16 Q1020
                        NOSIG=
200906141430 METAR LMML NIL=
200906141415 METAR LMML 141415Z 22006KT 180V270 9999 FEW030 27/14 Q1020
                        NOSIG=
200906141400 METAR LMML NIL=
200906141345 METAR LMML 141345Z 21006KT 160V270 9999 FEW030 27/14 Q1020
                        NOSIG=
200906141330 METAR LMML NIL=
200906141315 METAR LMML 141315Z 22007KT 180V260 9999 FEW030 28/12 Q1021
                        NOSIG=
200906141300 METAR LMML NIL=
200906141245 METAR LMML 141245Z 21006KT 170V270 CAVOK 28/13 Q1021 NOSIG=
200906141230 METAR LMML NIL=
200906141215 METAR LMML 141215Z VRB03KT CAVOK 29/12 Q1021 NOSIG=
200906141200 METAR LMML NIL=
200906141145 METAR LMML 141145Z VRB03KT CAVOK 29/18 Q1021 NOSIG=
200906141130 METAR LMML NIL=
200906141115 METAR LMML 141115Z VRB03KT CAVOK 28/18 Q1021 NOSIG=
200906141100 METAR LMML NIL=
200906141045 METAR LMML 141045Z 23005KT 190V270 9999 FEW012 28/12 Q1021
                        NOSIG=
200906141030 METAR LMML NIL=
200906141015 METAR LMML 141015Z 22005KT 200V270 9999 FEW012 27/12 Q1021
                        NOSIG=
200906141000 METAR LMML NIL=
200906140945 METAR LMML 140945Z 23006KT 200V270 9999 FEW012 27/14 Q1021
                        NOSIG=
200906140930 METAR LMML NIL=
200906140915 METAR LMML 140915Z 22006KT 160V270 9999 FEW012 27/15 Q1021
                        NOSIG=
200906140900 METAR LMML NIL=
200906140845 METAR LMML 140845Z 21004KT 160V260 9999 FEW012 27/14 Q1021
                        NOSIG=
200906140830 METAR LMML NIL=
200906140815 METAR LMML 140815Z 20004KT 160V250 9999 FEW012 26/15 Q1021
                        NOSIG=
200906140800 METAR LMML NIL=
200906140745 METAR LMML 140745Z 21004KT 160V270 9999 FEW012 26/14 Q1021
                        NOSIG=
200906140730 METAR LMML NIL=
200906140715 METAR LMML 140715Z 21004KT 160V280 9999 FEW012 26/12 Q1020
                        NOSIG=
200906140700 METAR LMML NIL=
200906140645 METAR LMML 140645Z VRB02KT 9999 FEW012 25/15 Q1020 NOSIG=
200906140630 METAR LMML NIL=
200906140615 METAR LMML 140615Z 32004KT 280V350 9999 FEW012 24/15 Q1020
                        NOSIG=
200906140600 METAR LMML NIL=
200906140545 METAR LMML 140545Z VRB02KT 9999 FEW012 23/13 Q1020 NOSIG=
200906140530 METAR LMML NIL=
200906140515 METAR LMML 140515Z VRB02KT 9999 FEW012 22/14 Q1020 NOSIG=
200906140500 METAR LMML NIL=
200906140445 METAR LMML 140445Z VRB03KT 9999 FEW012 21/14 Q1019 NOSIG=
200906140430 METAR LMML NIL=
200906140415 METAR LMML 140415Z VRB03KT CAVOK 20/16 Q1019 NOSIG=
200906140400 METAR LMML NIL=
200906140345 METAR LMML 140345Z VRB03KT CAVOK 20/16 Q1019 NOSIG=
200906140330 METAR LMML NIL=
200906140315 METAR LMML 140315Z 21004KT CAVOK 20/16 Q1019 NOSIG=
200906140300 METAR LMML NIL=
200906140245 METAR LMML 140245Z VRB03KT CAVOK 20/16 Q1019 NOSIG=
200906140230 METAR LMML NIL=
200906140215 METAR LMML 140215Z VRB03KT CAVOK 20/18 Q1019 NOSIG=
200906140200 METAR LMML NIL=
200906140145 METAR LMML 140145Z VRB02KT CAVOK 20/17 Q1019 NOSIG=
200906140130 METAR LMML NIL=
200906140115 METAR LMML 140115Z VRB03KT CAVOK 20/18 Q1018 NOSIG=
200906140100 METAR LMML NIL=
200906140045 METAR LMML 140045Z VRB03KT CAVOK 20/17 Q1019 NOSIG=
200906140030 METAR LMML NIL=
200906140015 METAR LMML 140015Z VRB02KT CAVOK 20/17 Q1019 NOSIG=
200906140000 METAR LMML NIL=
200906132345 METAR LMML 132345Z VRB02KT CAVOK 20/17 Q1019 NOSIG=
200906132330 METAR LMML NIL=
200906132315 METAR LMML 132315Z VRB01KT CAVOK 20/17 Q1019 NOSIG=
200906132300 METAR LMML NIL=
200906132245 METAR LMML 132245Z VRB01KT CAVOK 20/17 Q1019 NOSIG=
200906132230 METAR LMML NIL=
200906132215 METAR LMML 132215Z VRB01KT CAVOK 21/17 Q1019 NOSIG=
200906132200 METAR LMML NIL=
200906132145 METAR LMML 132145Z VRB02KT CAVOK 21/17 Q1019 NOSIG=
200906132130 METAR LMML NIL=
200906132115 METAR LMML 132115Z VRB02KT CAVOK 22/18 Q1019 NOSIG=
200906132100 METAR LMML NIL=
200906132045 METAR LMML 132045Z VRB03KT CAVOK 21/18 Q1019 NOSIG=
200906132030 METAR LMML NIL=
200906132015 METAR LMML 132015Z VRB02KT CAVOK 22/18 Q1019 NOSIG=
200906132000 METAR LMML NIL=
200906131945 METAR LMML 131945Z VRB02KT CAVOK 22/17 Q1019 NOSIG=
200906131930 METAR LMML NIL=
200906131915 METAR LMML 131915Z VRB01KT CAVOK 23/17 Q1019 NOSIG=
200906131900 METAR LMML NIL=
200906131845 METAR LMML 131845Z VRB02KT CAVOK 23/18 Q1018 NOSIG=
200906131830 METAR LMML NIL=
200906131815 METAR LMML 131815Z VRB03KT CAVOK 24/18 Q1018 NOSIG=
200906131800 METAR LMML NIL=
200906131745 METAR LMML 131745Z 01004KT CAVOK 25/18 Q1018 NOSIG=
200906131730 METAR LMML NIL=
200906131715 METAR LMML 131715Z VRB03KT CAVOK 26/18 Q1018 NOSIG=
200906131700 METAR LMML NIL=
200906131645 METAR LMML 131645Z VRB03KT CAVOK 27/12 Q1018 NOSIG=
200906131630 METAR LMML NIL=
200906131615 METAR LMML 131615Z 19004KT 160V260 CAVOK 28/11 Q1018 NOSIG=
200906131600 METAR LMML NIL=
200906131545 METAR LMML 131545Z VRB03KT CAVOK 28/12 Q1018 NOSIG=
200906131530 METAR LMML NIL=
200906131515 METAR LMML 131515Z VRB03KT CAVOK 28/12 Q1018 NOSIG=
200906131500 METAR LMML NIL=
200906131445 METAR LMML 131445Z 15004KT CAVOK 29/13 Q1018 NOSIG=
200906131430 METAR LMML NIL=
200906131415 METAR LMML 131415Z 12005KT 070V180 CAVOK 28/14 Q1018 NOSIG=
200906131400 METAR LMML NIL=
200906131345 METAR LMML 131345Z 14006KT 090V190 CAVOK 29/14 Q1018 NOSIG=
200906131315 METAR LMML 131315Z 12006KT 060V180 CAVOK 30/12 Q1018 NOSIG=
200906131300 METAR LMML NIL=
200906131245 METAR LMML 131245Z 14004KT 050V220 CAVOK 29/13 Q1018 NOSIG=
200906131230 METAR LMML NIL=
200906131215 METAR LMML 131215Z VRB03KT CAVOK 29/13 Q1018 NOSIG=
200906131200 METAR LMML NIL=
200906131145 METAR LMML 131145Z 12004KT CAVOK 29/14 Q1018 NOSIG=
200906131115 METAR LMML 131115Z 03004KT 340V150 CAVOK 31/12 Q1018 NOSIG=
200906131100 METAR LMML NIL=
200906131045 METAR LMML 131045Z 31004KT CAVOK 30/12 Q1018 NOSIG=
200906131030 METAR LMML NIL=
200906131015 METAR LMML 131015Z 05005KT 010V110 CAVOK 29/12 Q1018 NOSIG=
200906131000 METAR LMML NIL=
200906130945 METAR LMML 130945Z 06006KT 020V100 CAVOK 28/12 Q1018 NOSIG=
200906130930 METAR LMML NIL=
200906130915 METAR LMML 130915Z 02006KT 320V090 CAVOK 28/12 Q1018 NOSIG=
200906130900 METAR LMML NIL=
200906130845 METAR LMML 130845Z 36006KT 320V050 CAVOK 28/13 Q1017 NOSIG=
200906130830 METAR LMML NIL=
200906130815 METAR LMML 130815Z 36007KT 320V050 CAVOK 27/14 Q1017 NOSIG=
200906130745 METAR LMML 130745Z 36007KT 330V040 CAVOK 27/14 Q1017 NOSIG=
200906130730 METAR LMML NIL=
200906130715 METAR LMML 130715Z 01006KT 340V040 CAVOK 26/15 Q1017 NOSIG=
200906130700 METAR LMML NIL=
200906130645 METAR LMML 130645Z 35007KT 330V030 CAVOK 25/16 Q1017 NOSIG=
200906130630 METAR LMML NIL=
200906130615 METAR LMML 130615Z 01006KT 300V050 CAVOK 24/17 Q1017 NOSIG=
200906130600 METAR LMML NIL=
200906130545 METAR LMML 130545Z 36006KT CAVOK 23/17 Q1016 NOSIG=
200906130530 METAR LMML NIL=
200906130515 METAR LMML 130515Z 01005KT CAVOK 22/18 Q1016 NOSIG=
200906130500 METAR LMML NIL=
200906130445 METAR LMML 130445Z 36006KT CAVOK 21/18 Q1016 NOSIG=
200906130415 METAR LMML 130415Z 35005KT CAVOK 20/18 Q1016 NOSIG=
200906130400 METAR LMML NIL=
200906130345 METAR LMML 130345Z 35006KT CAVOK 20/18 Q1015 NOSIG=
200906130330 METAR LMML NIL=
200906130315 METAR LMML 130315Z 35006KT CAVOK 20/18 Q1015 NOSIG=
200906130300 METAR LMML NIL=
200906130245 METAR LMML 130245Z 35004KT CAVOK 20/18 Q1015 NOSIG=
200906130230 METAR LMML NIL=
200906130215 METAR LMML 130215Z 36006KT CAVOK 20/18 Q1015 NOSIG=
200906130200 METAR LMML NIL=
200906130145 METAR LMML 130145Z 36005KT CAVOK 20/18 Q1015 NOSIG=
200906130130 METAR LMML NIL=
200906130115 METAR LMML 130115Z 36004KT CAVOK 20/18 Q1015 NOSIG=
200906130100 METAR LMML NIL=
200906130045 METAR LMML 130045Z 01004KT CAVOK 20/18 Q1015 NOSIG=
200906130030 METAR LMML NIL=
200906130015 METAR LMML 130015Z 01004KT CAVOK 20/18 Q1015 NOSIG=
200906130000 METAR LMML NIL=
200906122345 METAR LMML 122345Z 01004KT CAVOK 21/18 Q1015 NOSIG=
200906122330 METAR LMML NIL=
200906122315 METAR LMML 122315Z VRB02KT CAVOK 20/17 Q1015 NOSIG=
200906122300 METAR LMML NIL=
200906122245 METAR LMML 122245Z VRB01KT CAVOK 20/17 Q1015 NOSIG=
200906122215 METAR LMML 122215Z VRB02KT CAVOK 21/17 Q1015 NOSIG=
200906122200 METAR LMML NIL=
200906122145 METAR LMML 122145Z VRB02KT CAVOK 21/17 Q1015 NOSIG=
200906122130 METAR LMML NIL=
200906122115 METAR LMML 122115Z 33004KT 280V360 CAVOK 21/17 Q1016 NOSIG=
200906122100 METAR LMML NIL=
200906122045 METAR LMML 122045Z 30004KT 250V340 CAVOK 21/17 Q1015 NOSIG=
200906122030 METAR LMML NIL=
200906122015 METAR LMML 122015Z VRB02KT CAVOK 21/17 Q1016 NOSIG=
200906122000 METAR LMML NIL=
200906121945 METAR LMML 121945Z VRB01KT CAVOK 21/17 Q1016 NOSIG=
200906121930 METAR LMML NIL=
200906121915 METAR LMML 121915Z 29006KT CAVOK 22/17 Q1015 NOSIG=
200906121900 METAR LMML NIL=
200906121845 METAR LMML 121845Z 31005KT 270V040 CAVOK 22/18 Q1015 NOSIG=
200906121815 METAR LMML 121815Z 30011KT 270V330 CAVOK 22/18 Q1015 NOSIG=
200906121800 METAR LMML NIL=
200906121745 METAR LMML 121745Z 33008KT CAVOK 24/17 Q1016 NOSIG=
200906121730 METAR LMML NIL=
200906121715 METAR LMML 121715Z 30011KT 270V340 CAVOK 25/15 Q1015 NOSIG=
200906121700 METAR LMML NIL=
200906121645 METAR LMML 121645Z 28015KT CAVOK 26/13 Q1015 NOSIG=
200906121630 METAR LMML NIL=
200906121615 METAR LMML 121615Z 29016KT CAVOK 27/13 Q1015 NOSIG=
200906121600 METAR LMML NIL=
200906121545 METAR LMML 121545Z 28012KT CAVOK 28/13 Q1015 NOSIG=
200906121530 METAR LMML NIL=
200906121515 METAR LMML 121515Z 28013KT 250V310 CAVOK 29/13 Q1015 NOSIG=
200906121500 METAR LMML NIL=
200906121445 METAR LMML 121445Z 29012KT 260V320 CAVOK 30/11 Q1015 NOSIG=
200906121430 METAR LMML NIL=
200906121415 METAR LMML 121415Z 28010KT 250V310 9999 FEW020 31/09 Q1015
                        NOSIG=
200906121400 METAR LMML NIL=
200906121345 METAR LMML 121345Z 30010KT 250V350 9999 FEW020 31/09 Q1015
                        NOSIG=
200906121330 METAR LMML NIL=
200906121315 METAR LMML 121315Z 35005KT 150V090 9999 FEW020 32/11 Q1016
                        NOSIG=
200906121300 METAR LMML NIL=
200906121245 METAR LMML 121245Z 03004KT 310V110 9999 FEW020 33/12 Q1016
                        NOSIG=
200906121230 METAR LMML NIL=
200906121215 METAR LMML 121215Z 01004KT 310V090 9999 FEW020 32/11 Q1016
                        NOSIG=
200906121200 METAR LMML NIL=
200906121145 METAR LMML 121145Z 35005KT 290V060 CAVOK 32/11 Q1016 NOSIG=
200906121130 METAR LMML NIL=
200906121115 METAR LMML 121115Z 32004KT 250V030 CAVOK 31/08 Q1016 NOSIG=
200906121100 METAR LMML NIL=
200906121045 METAR LMML 121045Z 33005KT 270V020 CAVOK 30/09 Q1016 NOSIG=
200906121030 METAR LMML NIL=
200906121015 METAR LMML 121015Z 35007KT 300V030 CAVOK 29/08 Q1017 NOSIG=
200906121000 METAR LMML NIL=
200906120945 METAR LMML 120945Z 35008KT 310V020 CAVOK 29/08 Q1017 NOSIG=
200906120930 METAR LMML NIL=
200906120915 METAR LMML 120915Z 34007KT 280V030 CAVOK 29/08 Q1017 NOSIG=
200906120900 METAR LMML NIL=
200906120845 METAR LMML 120845Z 34010KT 300V020 CAVOK 28/09 Q1017 NOSIG=
200906120830 METAR LMML NIL=
200906120815 METAR LMML 120815Z 33010KT CAVOK 27/09 Q1017 NOSIG=
200906120800 METAR LMML NIL=
200906120745 METAR LMML 120745Z 34007KT 300V010 9999 FEW012 27/12 Q1017
                        BECMG CAVOK=
200906120730 METAR LMML NIL=
200906120715 METAR LMML 120715Z 35004KT 300V050 9999 FEW012 26/17 Q1017
                        NOSIG=
200906120700 METAR LMML NIL=
200906120645 METAR LMML 120645Z 34005KT 290V010 9999 FEW012 24/17 Q1017
                        NOSIG=
200906120630 METAR LMML NIL=
200906120615 METAR LMML 120615Z 33004KT 290V040 9999 FEW012 23/19 Q1016
                        NOSIG=
200906120545 METAR LMML 120545Z 32004KT 290V350 7000 FEW004 22/20 Q1016
                        BECMG 9999=
200906120530 METAR LMML NIL=
200906120515 METAR LMML 120515Z 32004KT 280V350 6000 FEW004 21/20 Q1016
                        BECMG 9999=
200906120500 METAR LMML NIL=
200906120445 METAR LMML 120445Z VRB03KT 6000 FEW004 20/19 Q1016 BECMG
                        9999=
200906120432 SPECI LMML 120432Z VRB03KT 6000 FEW010 20/19 Q1016 BECMG
                        9999=
200906120430 METAR LMML NIL=
200906120415 METAR LMML 120415Z 29004KT 9999 FEW012 19/19 Q1016 NOSIG=
200906120345 METAR LMML 120345Z VRB03KT CAVOK 19/19 Q1016 NOSIG=
200906120315 METAR LMML 120315Z VRB03KT CAVOK 19/19 Q1015 NOSIG=
200906120300 METAR LMML NIL=
200906120245 METAR LMML 120245Z VRB01KT CAVOK 19/18 Q1015 NOSIG=
200906120230 METAR LMML NIL=
200906120215 METAR LMML 120215Z VRB03KT CAVOK 19/18 Q1015 NOSIG=
200906120200 METAR LMML NIL=
200906120145 METAR LMML 120145Z VRB02KT CAVOK 20/18 Q1015 NOSIG=
200906120115 METAR LMML 120115Z 33004KT CAVOK 20/18 Q1015 NOSIG=
200906120100 METAR LMML NIL=
200906120045 METAR LMML 120045Z VRB03KT CAVOK 20/17 Q1015 NOSIG=
200906120030 METAR LMML NIL=
200906120015 METAR LMML 120015Z 34004KT CAVOK 20/17 Q1016 NOSIG=
200906120000 METAR LMML NIL=
200906112345 METAR LMML 112345Z 33004KT CAVOK 20/17 Q1016 NOSIG=
200906112315 METAR LMML 112315Z 32004KT CAVOK 21/17 Q1016 NOSIG=
200906112245 METAR LMML 112245Z 31005KT CAVOK 21/17 Q1016 NOSIG=
200906112230 METAR LMML NIL=
200906112215 METAR LMML 112215Z 30006KT CAVOK 22/17 Q1016 NOSIG=
200906112200 METAR LMML NIL=
200906112145 METAR LMML 112145Z 30004KT 260V330 CAVOK 22/16 Q1016 NOSIG=
200906112130 METAR LMML NIL=
200906112115 METAR LMML 112115Z VRB03KT CAVOK 22/16 Q1016 NOSIG=
200906112100 METAR LMML NIL=
200906112045 METAR LMML 112045Z VRB03KT CAVOK 22/15 Q1016 NOSIG=
200906112030 METAR LMML NIL=
200906112015 METAR LMML 112015Z VRB01KT CAVOK 22/15 Q1016 NOSIG=
200906112000 METAR LMML NIL=
200906111945 METAR LMML 111945Z 29005KT CAVOK 23/15 Q1016 NOSIG=
200906111930 METAR LMML NIL=
200906111915 METAR LMML 111915Z 31004KT CAVOK 23/16 Q1016 NOSIG=
200906111900 METAR LMML NIL=
200906111845 METAR LMML 111845Z 32005KT CAVOK 23/14 Q1016 NOSIG=
200906111830 METAR LMML NIL=
200906111815 METAR LMML 111815Z 32010KT CAVOK 24/14 Q1016 NOSIG=
200906111800 METAR LMML NIL=
200906111745 METAR LMML 111745Z 33009KT CAVOK 25/14 Q1016 NOSIG=
200906111730 METAR LMML NIL=
200906111715 METAR LMML 111715Z 34006KT 270V050 CAVOK 26/14 Q1016 NOSIG=
200906111700 METAR LMML NIL=
200906111645 METAR LMML 111645Z 33006KT 290V020 CAVOK 27/14 Q1016 NOSIG=
200906111630 METAR LMML NIL=
200906111615 METAR LMML 111615Z 33006KT 300V360 CAVOK 27/15 Q1017 NOSIG=
200906111600 METAR LMML NIL=
200906111545 METAR LMML 111545Z 03004KT 320V090 CAVOK 28/17 Q1017 NOSIG=
200906111530 METAR LMML NIL=
200906111515 METAR LMML 111515Z 03005KT 360V100 CAVOK 28/18 Q1017 NOSIG=
200906111500 METAR LMML NIL=
200906111445 METAR LMML 111445Z VRB03KT CAVOK 29/18 Q1017 NOSIG=
200906111430 METAR LMML NIL=
200906111415 METAR LMML 111415Z VRB03KT CAVOK 29/18 Q1017 NOSIG=
200906111400 METAR LMML NIL=
200906111345 METAR LMML 111345Z 03004KT 320V180 CAVOK 29/18 Q1017 NOSIG=
200906111330 METAR LMML NIL=
200906111315 METAR LMML 111315Z 08005KT 020V130 CAVOK 28/18 Q1017 NOSIG=
200906111300 METAR LMML NIL=
200906111245 METAR LMML 111245Z 07006KT 030V120 CAVOK 28/17 Q1018 NOSIG=
200906111215 METAR LMML 111215Z 07006KT 030V120 CAVOK 28/17 Q1018 NOSIG=
200906111200 METAR LMML NIL=
200906111145 METAR LMML 111145Z 06007KT 320V110 CAVOK 29/17 Q1018 NOSIG=
200906111130 METAR LMML NIL=
200906111115 METAR LMML 111115Z 35006KT 260V070 CAVOK 31/15 Q1018 NOSIG=
200906111100 METAR LMML NIL=
200906111045 METAR LMML 111045Z 33005KT 220V020 9999 FEW020 30/15 Q1018
                        NOSIG=
200906111030 METAR LMML NIL=
200906111015 METAR LMML 111015Z 33007KT 290V020 CAVOK 30/14 Q1018 NOSIG=
200906111000 METAR LMML NIL=
200906110945 METAR LMML 110945Z 34007KT 280V030 CAVOK 30/16 Q1018 NOSIG=
200906110930 METAR LMML NIL=
200906110915 METAR LMML 110915Z 32010KT 280V350 CAVOK 29/15 Q1018 NOSIG=
200906110900 METAR LMML NIL=
200906110845 METAR LMML 110845Z 31012KT CAVOK 29/15 Q1018 NOSIG=
200906110830 METAR LMML NIL=
200906110815 METAR LMML 110815Z 30012KT CAVOK 29/14 Q1018 NOSIG=
200906110800 METAR LMML NIL=
200906110745 METAR LMML 110745Z 31010KT 280V340 CAVOK 29/15 Q1018 NOSIG=
200906110730 METAR LMML NIL=
200906110715 METAR LMML 110715Z 32008KT 280V340 CAVOK 28/15 Q1018 NOSIG=
200906110700 METAR LMML NIL=
200906110645 METAR LMML 110645Z 31008KT 280V340 CAVOK 27/15 Q1018 NOSIG=
200906110615 METAR LMML 110615Z 30008KT 270V340 CAVOK 27/15 Q1018 NOSIG=
200906110600 METAR LMML NIL=
200906110545 METAR LMML 110545Z 28005KT 260V320 CAVOK 25/14 Q1018 NOSIG=
200906110530 METAR LMML NIL=
200906110515 METAR LMML 110515Z 28004KT 250V310 CAVOK 23/15 Q1017 NOSIG=
200906110500 METAR LMML NIL=
200906110445 METAR LMML 110445Z 27005KT 230V300 CAVOK 22/16 Q1017 NOSIG=
200906110430 METAR LMML NIL=
200906110415 METAR LMML 110415Z 28006KT CAVOK 21/16 Q1018 NOSIG=
200906110400 METAR LMML NIL=
200906110345 METAR LMML 110345Z 29008KT CAVOK 22/15 Q1017 NOSIG=
200906110330 METAR LMML NIL=
200906110315 METAR LMML 110315Z 30005KT CAVOK 22/12 Q1017 NOSIG=
200906110300 METAR LMML NIL=
200906110245 METAR LMML 110245Z 29004KT CAVOK 22/14 Q1017 NOSIG=
200906110230 METAR LMML NIL=
200906110215 METAR LMML 110215Z 29006KT CAVOK 22/15 Q1017 NOSIG=
200906110200 METAR LMML NIL=
200906110145 METAR LMML 110145Z 29007KT CAVOK 23/11 Q1018 NOSIG=
200906110130 METAR LMML NIL=
200906110115 METAR LMML 110115Z 28005KT 250V310 CAVOK 23/10 Q1018 NOSIG=
200906110100 METAR LMML NIL=
200906110045 METAR LMML 110045Z 28004KT 250V310 CAVOK 23/10 Q1018 NOSIG=
200906110030 METAR LMML NIL=
200906110015 METAR LMML 110015Z 28004KT CAVOK 22/11 Q1018 NOSIG=
200906110000 METAR LMML NIL=
200906102345 METAR LMML 102345Z 29004KT CAVOK 22/12 Q1018 NOSIG=
200906102330 METAR LMML NIL=
200906102315 METAR LMML 102315Z VRB03KT CAVOK 21/13 Q1018 NOSIG=
200906102300 METAR LMML NIL=
200906102245 METAR LMML 102245Z VRB03KT CAVOK 21/13 Q1019 NOSIG=
200906102230 METAR LMML NIL=
200906102215 METAR LMML 102215Z VRB03KT CAVOK 21/16 Q1019 NOSIG=
200906102145 METAR LMML 102145Z VRB03KT CAVOK 22/16 Q1019 NOSIG=
200906102130 METAR LMML NIL=
200906102115 METAR LMML 102115Z 31005KT CAVOK 22/16 Q1019 NOSIG=
200906102100 METAR LMML NIL=
200906102045 METAR LMML 102045Z 33005KT 290V360 CAVOK 22/16 Q1019 NOSIG=
200906102030 METAR LMML NIL=
200906102015 METAR LMML 102015Z 36004KT CAVOK 23/14 Q1019 NOSIG=
200906102000 METAR LMML NIL=
200906101945 METAR LMML 101945Z 33004KT CAVOK 23/16 Q1019 NOSIG=
200906101930 METAR LMML NIL=
200906101915 METAR LMML 101915Z VRB02KT CAVOK 24/18 Q1019 NOSIG=
200906101900 METAR LMML NIL=
200906101845 METAR LMML 101845Z VRB01KT CAVOK 24/14 Q1018 NOSIG=
200906101830 METAR LMML NIL=
200906101815 METAR LMML 101815Z VRB01KT CAVOK 25/18 Q1018 NOSIG=
200906101800 METAR LMML NIL=
200906101745 METAR LMML 101745Z VRB03KT CAVOK 26/18 Q1018 NOSIG=
200906101730 METAR LMML NIL=
200906101715 METAR LMML 101715Z VRB02KT CAVOK 27/18 Q1018 NOSIG=
200906101700 METAR LMML NIL=
200906101645 METAR LMML 101645Z 02004KT 350V060 CAVOK 28/17 Q1018 NOSIG=
200906101630 METAR LMML NIL=
200906101615 METAR LMML 101615Z 01004KT 310V050 CAVOK 29/17 Q1018 NOSIG=
200906101600 METAR LMML NIL=
200906101545 METAR LMML 101545Z 36005KT 310V060 CAVOK 28/18 Q1018 NOSIG=
200906101530 METAR LMML NIL=
200906101515 METAR LMML 101515Z 01005KT 330V040 CAVOK 29/17 Q1019 NOSIG=
200906101500 METAR LMML NIL=
200906101445 METAR LMML 101445Z 01006KT 330V050 CAVOK 30/17 Q1019 NOSIG=
200906101430 METAR LMML NIL=
200906101415 METAR LMML 101415Z 03005KT 300V060 CAVOK 31/17 Q1018 NOSIG=
200906101400 METAR LMML NIL=
200906101345 METAR LMML 101345Z 06004KT 010V150 CAVOK 31/15 Q1018 NOSIG=
200906101330 METAR LMML NIL=
200906101315 METAR LMML 101315Z VRB03KT CAVOK 31/08 Q1019 NOSIG=
200906101300 METAR LMML NIL=
200906101245 METAR LMML 101245Z 18004KT 100V240 CAVOK 30/08 Q1018 NOSIG=
200906101230 METAR LMML NIL=
200906101215 METAR LMML 101215Z 19005KT CAVOK 29/10 Q1019 NOSIG=
200906101200 METAR LMML NIL=
200906101145 METAR LMML 101145Z 18006KT 150V230 CAVOK 29/09 Q1019 NOSIG=
200906101130 METAR LMML NIL=
200906101115 METAR LMML 101115Z 17008KT 140V210 CAVOK 28/10 Q1019 NOSIG=
200906101100 METAR LMML NIL=
200906101045 METAR LMML 101045Z 16008KT 120V200 CAVOK 29/11 Q1019 NOSIG=
200906101030 METAR LMML NIL=
200906101015 METAR LMML 101015Z 14008KT 120V180 CAVOK 28/11 Q1019 NOSIG=
200906101000 METAR LMML NIL=
200906100945 METAR LMML 100945Z 16009KT 120V180 CAVOK 28/12 Q1019 NOSIG=
200906100930 METAR LMML NIL=
200906100915 METAR LMML 100915Z 12008KT 080V160 CAVOK 28/12 Q1018 NOSIG=
200906100900 METAR LMML NIL=
200906100845 METAR LMML 100845Z 13007KT 090V180 CAVOK 27/15 Q1018 NOSIG=
200906100830 METAR LMML NIL=
200906100815 METAR LMML 100815Z 13007KT 100V160 CAVOK 27/13 Q1018 NOSIG=
200906100800 METAR LMML NIL=
200906100745 METAR LMML 100745Z 12004KT 070V150 CAVOK 27/15 Q1019 NOSIG=
200906100730 METAR LMML NIL=
200906100715 METAR LMML 100715Z VRB02KT CAVOK 27/17 Q1018 NOSIG=
200906100700 METAR LMML NIL=
200906100645 METAR LMML 100645Z VRB03KT CAVOK 25/18 Q1018 NOSIG=
200906100630 METAR LMML NIL=
200906100615 METAR LMML 100615Z 06005KT 020V110 CAVOK 24/20 Q1017 NOSIG=
200906100600 METAR LMML NIL=
200906100545 METAR LMML 100545Z 06004KT 030V090 7000 BR NSC 23/20 Q1017
                        BECMG CAVOK=
200906100530 METAR LMML NIL=
200906100515 METAR LMML 100515Z 07004KT 030V100 4000 BR NSC 21/20 Q1017
                        BECMG 5000=
200906100500 METAR LMML NIL=
200906100445 METAR LMML 100445Z VRB03KT 3000 BR FEW007 21/20 Q1017 BECMG
                        5000=
200906100430 METAR LMML NIL=
200906100415 METAR LMML 100415Z VRB01KT 2000 MIFG FEW005 20/20 Q1017 BECMG
                        5000 BR=
200906100400 METAR LMML NIL=
200906100345 METAR LMML 100345Z VRB02KT 3000 BR FEW005 20/20 Q1017 BECMG
                        5000 BR=
200906100330 METAR LMML NIL=
200906100315 METAR LMML 100315Z VRB03KT 4000 BR FEW002 20/20 Q1017 NOSIG=
200906100300 METAR LMML NIL=
200906100245 METAR LMML 100245Z VRB03KT 4000 BR FEW002 20/20 Q1017 NOSIG=
200906100215 METAR LMML 100215Z VRB03KT 4000 BR FEW003 SCT120 20/20 Q1017
                        NOSIG=
200906100200 METAR LMML NIL=
200906100145 METAR LMML 100145Z 03004KT 3000 BR BKN001 20/20 Q1017 NOSIG=
200906100130 METAR LMML NIL=
200906100115 METAR LMML 100115Z VRB02KT 2000 BR BKN006 20/19 Q1017 NOSIG=
200906100100 METAR LMML NIL=
200906100045 METAR LMML 100045Z VRB03KT 7000 NSC 20/19 Q1017 NOSIG=
200906100030 METAR LMML NIL=
200906100015 METAR LMML 100015Z VRB03KT 9000 NSC 20/19 Q1017 NOSIG=
200906092345 METAR LMML 092345Z VRB03KT CAVOK 20/19 Q1017 NOSIG=
200906092330 METAR LMML NIL=
200906092315 METAR LMML 092315Z VRB02KT CAVOK 20/19 Q1017 NOSIG=
200906092245 METAR LMML 092245Z VRB02KT CAVOK 21/19 Q1017 NOSIG=
200906092230 METAR LMML NIL=
200906092215 METAR LMML 092215Z 08005KT 060V120 CAVOK 21/19 Q1017 NOSIG=
200906092200 METAR LMML NIL=
200906092145 METAR LMML 092145Z 07004KT 330V100 CAVOK 21/19 Q1017 NOSIG=
200906092130 METAR LMML NIL=
200906092115 METAR LMML 092115Z 09005KT 050V120 CAVOK 21/19 Q1017 NOSIG=
200906092100 METAR LMML NIL=
200906092045 METAR LMML 092045Z 09004KT 040V130 CAVOK 21/19 Q1017 NOSIG=
200906092030 METAR LMML NIL=
200906092015 METAR LMML 092015Z 10004KT CAVOK 22/18 Q1017 NOSIG=
200906092000 METAR LMML NIL=
200906091945 METAR LMML 091945Z 11006KT CAVOK 22/18 Q1016 NOSIG=
200906091930 METAR LMML NIL=
200906091915 METAR LMML 091915Z 11005KT 070V160 CAVOK 22/18 Q1016 NOSIG=
200906091900 METAR LMML NIL=
200906091845 METAR LMML 091845Z 11009KT CAVOK 22/17 Q1015 NOSIG=
200906091830 METAR LMML NIL=
200906091815 METAR LMML 091815Z 13007KT CAVOK 22/18 Q1016 NOSIG=
200906091800 METAR LMML NIL=
200906091745 METAR LMML 091745Z 12008KT CAVOK 23/18 Q1016 NOSIG=
200906091730 METAR LMML NIL=
200906091715 METAR LMML 091715Z 12009KT CAVOK 23/18 Q1015 NOSIG=
200906091700 METAR LMML NIL=
200906091645 METAR LMML 091645Z 13011KT CAVOK 25/16 Q1015 NOSIG=
200906091630 METAR LMML NIL=
200906091615 METAR LMML 091615Z 11011KT 080V140 CAVOK 26/15 Q1015 NOSIG=
200906091600 METAR LMML NIL=
200906091545 METAR LMML 091545Z 12011KT CAVOK 26/14 Q1015 NOSIG=
200906091530 METAR LMML NIL=
200906091515 METAR LMML 091515Z 11011KT 070V140 CAVOK 27/14 Q1015 NOSIG=
200906091500 METAR LMML NIL=
200906091445 METAR LMML 091445Z 11011KT 080V140 CAVOK 28/13 Q1015 NOSIG=
200906091430 METAR LMML NIL=
200906091415 METAR LMML 091415Z 10011KT CAVOK 28/13 Q1015 NOSIG=
200906091400 METAR LMML NIL=
200906091345 METAR LMML 091345Z 11011KT 080V140 CAVOK 28/12 Q1015 NOSIG=
200906091330 METAR LMML NIL=
200906091315 METAR LMML 091315Z 12011KT 090V150 CAVOK 28/13 Q1015 NOSIG=
200906091245 METAR LMML 091245Z 13009KT 100V160 CAVOK 28/13 Q1016 NOSIG=
200906091230 METAR LMML NIL=
200906091215 METAR LMML 091215Z 12011KT 100V160 CAVOK 28/13 Q1016 NOSIG=
200906091200 METAR LMML NIL=
200906091145 METAR LMML 091145Z 13012KT CAVOK 27/12 Q1015 NOSIG=
200906091130 METAR LMML NIL=
200906091115 METAR LMML 091115Z 12011KT 090V150 CAVOK 28/13 Q1015 NOSIG=
200906091100 METAR LMML NIL=
200906091045 METAR LMML 091045Z 13011KT 090V150 CAVOK 27/12 Q1016 NOSIG=
200906091030 METAR LMML NIL=
200906091015 METAR LMML 091015Z 12010KT 090V150 CAVOK 27/15 Q1016 NOSIG=
200906091000 METAR LMML NIL=
200906090945 METAR LMML 090945Z 11011KT 070V130 CAVOK 27/15 Q1016 NOSIG=
200906090930 METAR LMML NIL=
200906090915 METAR LMML 090915Z 10010KT 070V140 CAVOK 26/15 Q1016 NOSIG=
200906090900 METAR LMML NIL=
200906090845 METAR LMML 090845Z 08009KT CAVOK 26/15 Q1015 NOSIG=
200906090830 METAR LMML NIL=
200906090815 METAR LMML 090815Z 05009KT 020V100 CAVOK 26/17 Q1015 NOSIG=
200906090800 METAR LMML NIL=
200906090745 METAR LMML 090745Z 06007KT 030V090 CAVOK 26/18 Q1015 NOSIG=
200906090730 METAR LMML NIL=
200906090715 METAR LMML 090715Z 07006KT 020V120 CAVOK 26/17 Q1015 NOSIG=
200906090700 METAR LMML NIL=
200906090645 METAR LMML 090645Z 06006KT 030V100 CAVOK 25/17 Q1015 NOSIG=
200906090630 METAR LMML NIL=
200906090615 METAR LMML 090615Z 09004KT 060V120 CAVOK 24/17 Q1015 NOSIG=
200906090600 METAR LMML NIL=
200906090545 METAR LMML 090545Z VRB03KT CAVOK 23/18 Q1015 NOSIG=
200906090530 METAR LMML NIL=
200906090515 METAR LMML 090515Z VRB03KT CAVOK 22/19 Q1014 NOSIG=
200906090500 METAR LMML NIL=
200906090445 METAR LMML 090445Z VRB03KT CAVOK 20/18 Q1014 NOSIG=
200906090430 METAR LMML NIL=
200906090415 METAR LMML 090415Z VRB03KT CAVOK 19/17 Q1014 NOSIG=
200906090400 METAR LMML NIL=
200906090345 METAR LMML 090345Z VRB01KT CAVOK 19/16 Q1014 NOSIG=
200906090330 METAR LMML NIL=
200906090315 METAR LMML 090315Z VRB02KT CAVOK 19/17 Q1013 NOSIG=
200906090300 METAR LMML NIL=
200906090245 METAR LMML 090245Z VRB02KT CAVOK 19/17 Q1014 NOSIG=
200906090230 METAR LMML NIL=
200906090215 METAR LMML 090215Z VRB02KT CAVOK 19/17 Q1013 NOSIG=
200906090200 METAR LMML NIL=
200906090145 METAR LMML 090145Z VRB02KT CAVOK 20/17 Q1014 NOSIG=
200906090130 METAR LMML NIL=
200906090115 METAR LMML 090115Z VRB02KT CAVOK 20/17 Q1013 NOSIG=
200906090100 METAR LMML NIL=
200906090045 METAR LMML 090045Z 06004KT CAVOK 21/18 Q1014 NOSIG=
200906090030 METAR LMML NIL=
200906090015 METAR LMML 090015Z VRB02KT CAVOK 20/17 Q1014 NOSIG=
200906090000 METAR LMML NIL=
200906082345 METAR LMML 082345Z 00000KT CAVOK 20/18 Q1014 NOSIG=
200906082330 METAR LMML NIL=
200906082315 METAR LMML 082315Z VRB02KT CAVOK 21/18 Q1014 NOSIG=
200906082300 METAR LMML NIL=
200906082245 METAR LMML 082245Z VRB02KT CAVOK 20/18 Q1014 NOSIG=
200906082230 METAR LMML NIL=
200906082215 METAR LMML 082215Z VRB02KT CAVOK 21/18 Q1014 NOSIG=
200906082145 METAR LMML 082145Z VRB03KT CAVOK 21/18 Q1014 NOSIG=
200906082130 METAR LMML NIL=
200906082115 METAR LMML 082115Z VRB02KT CAVOK 21/18 Q1014 NOSIG=
200906082100 METAR LMML NIL=
200906082045 METAR LMML 082045Z VRB03KT CAVOK 22/18 Q1014 NOSIG=
200906082030 METAR LMML NIL=
200906082015 METAR LMML 082015Z VRB03KT CAVOK 21/18 Q1014 NOSIG=
200906082000 METAR LMML NIL=
200906081945 METAR LMML 081945Z 10004KT 080V140 CAVOK 22/17 Q1014 NOSIG=
200906081930 METAR LMML NIL=
200906081915 METAR LMML 081915Z VRB01KT CAVOK 22/17 Q1014 NOSIG=
200906081900 METAR LMML NIL=
200906081845 METAR LMML 081845Z VRB03KT CAVOK 23/17 Q1014 NOSIG=
200906081830 METAR LMML NIL=
200906081815 METAR LMML 081815Z 04004KT 350V090 CAVOK 23/17 Q1013 NOSIG=
200906081800 METAR LMML NIL=
200906081745 METAR LMML 081745Z VRB02KT CAVOK 24/15 Q1013 NOSIG=
200906081730 METAR LMML NIL=
200906081715 METAR LMML 081715Z VRB03KT CAVOK 25/15 Q1013 NOSIG=
200906081700 METAR LMML NIL=
200906081645 METAR LMML 081645Z 12005KT 100V160 CAVOK 26/16 Q1013 NOSIG=
200906081630 METAR LMML NIL=
200906081615 METAR LMML 081615Z 15005KT 110V180 CAVOK 27/15 Q1012 NOSIG=
200906081600 METAR LMML NIL=
200906081545 METAR LMML 081545Z VRB03KT CAVOK 28/16 Q1013 NOSIG=
200906081530 METAR LMML NIL=
200906081515 METAR LMML 081515Z 08004KT 010V140 CAVOK 28/15 Q1013 NOSIG=
200906081500 METAR LMML NIL=
200906081445 METAR LMML 081445Z 03004KT 340V090 CAVOK 28/16 Q1013 NOSIG=
200906081430 METAR LMML NIL=
200906081415 METAR LMML 081415Z 04005KT 360V100 CAVOK 29/16 Q1013 NOSIG=
200906081400 METAR LMML NIL=
200906081345 METAR LMML 081345Z 04004KT 330V080 CAVOK 29/15 Q1013 NOSIG=
200906081330 METAR LMML NIL=
200906081315 METAR LMML 081315Z 22004KT CAVOK 29/15 Q1013 NOSIG=
200906081300 METAR LMML NIL=
200906081245 METAR LMML 081245Z 33004KT CAVOK 29/16 Q1013 NOSIG=
200906081230 METAR LMML NIL=
200906081215 METAR LMML 081215Z 06005KT 360V170 CAVOK 28/16 Q1013 NOSIG=
200906081200 METAR LMML NIL=
200906081145 METAR LMML 081145Z 06005KT 010V120 CAVOK 29/15 Q1013 NOSIG=
200906081130 METAR LMML NIL=
200906081115 METAR LMML 081115Z 07006KT 030V130 CAVOK 28/16 Q1013 NOSIG=
200906081100 METAR LMML NIL=
200906081045 METAR LMML 081045Z 06004KT 350V140 CAVOK 28/16 Q1013 NOSIG=
200906081030 METAR LMML NIL=
200906081015 METAR LMML 081015Z 03005KT 360V070 CAVOK 28/15 Q1013 NOSIG=
200906081000 METAR LMML NIL=
200906080945 METAR LMML 080945Z 07005KT 020V130 CAVOK 28/14 Q1014 NOSIG=
200906080930 METAR LMML NIL=
200906080915 METAR LMML 080915Z 08004KT 020V160 CAVOK 27/15 Q1013 NOSIG=
200906080900 METAR LMML NIL=
200906080845 METAR LMML 080845Z VRB02KT CAVOK 26/17 Q1014 NOSIG=
200906080830 METAR LMML NIL=
200906080815 METAR LMML 080815Z VRB02KT CAVOK 27/16 Q1014 NOSIG=
200906080800 METAR LMML NIL=
200906080745 METAR LMML 080745Z VRB03KT CAVOK 26/16 Q1013 NOSIG=
200906080730 METAR LMML NIL=
200906080715 METAR LMML 080715Z VRB02KT CAVOK 25/16 Q1014 NOSIG=
200906080700 METAR LMML NIL=
200906080645 METAR LMML 080645Z VRB03KT CAVOK 24/17 Q1013 NOSIG=
200906080630 METAR LMML NIL=
200906080615 METAR LMML 080615Z 02004KT 350V080 CAVOK 23/18 Q1013 NOSIG=
200906080600 METAR LMML NIL=
200906080545 METAR LMML 080545Z VRB03KT CAVOK 22/18 Q1013 NOSIG=
200906080530 METAR LMML NIL=
200906080515 METAR LMML 080515Z VRB03KT CAVOK 21/18 Q1012 NOSIG=
200906080500 METAR LMML NIL=
200906080445 METAR LMML 080445Z 04004KT CAVOK 20/18 Q1012 NOSIG=
200906080430 METAR LMML NIL=
200906080415 METAR LMML 080415Z VRB03KT CAVOK 19/17 Q1012 NOSIG=
200906080400 METAR LMML NIL=
200906080345 METAR LMML 080345Z 33004KT CAVOK 18/16 Q1012 NOSIG=
200906080330 METAR LMML NIL=
200906080315 METAR LMML 080315Z VRB03KT CAVOK 18/16 Q1012 NOSIG=
200906080300 METAR LMML NIL=
200906080245 METAR LMML 080245Z VRB02KT CAVOK 18/17 Q1011 NOSIG=
200906080230 METAR LMML NIL=
200906080215 METAR LMML 080215Z VRB02KT CAVOK 19/17 Q1012 BECMG BKN005=
200906080200 METAR LMML NIL=
200906080145 METAR LMML 080145Z VRB02KT CAVOK 19/17 Q1011 BECMG BKN005=
200906080130 METAR LMML NIL=
200906080115 METAR LMML 080115Z 36005KT CAVOK 19/17 Q1011 BECMG BKN005=
200906080100 METAR LMML NIL=
200906080045 METAR LMML 080045Z 34004KT 9999 FEW005 19/17 Q1012 BECMG
                        BKN005=
200906080030 METAR LMML NIL=
200906080015 METAR LMML 080015Z 34004KT 9999 FEW005 19/17 Q1012 BECMG
                        BKN005=
200906080000 METAR LMML NIL=
200906072345 METAR LMML 072345Z 34004KT 320V020 9999 FEW005 19/18 Q1012
                        BECMG BKN005=
200906072330 METAR LMML NIL=
200906072315 METAR LMML 072315Z 35006KT 9999 FEW005 20/18 Q1012 BECMG
                        BKN005=
200906072300 METAR LMML NIL=
200906072245 METAR LMML 072245Z 35005KT 9999 SCT005 20/19 Q1012 BECMG
                        BKN005=
200906072230 METAR LMML NIL=
200906072215 METAR LMML 072215Z 34008KT 9999 SCT005 20/19 Q1012 BECMG
                        BKN005=
200906072145 METAR LMML 072145Z 33008KT 9999 SCT006 20/19 Q1012 BECMG
                        BKN005=
200906072130 METAR LMML NIL=
200906072115 METAR LMML 072115Z 34010KT 9999 SCT007 20/19 Q1012 BECMG
                        BKN005=
200906072100 METAR LMML NIL=
200906072045 METAR LMML 072045Z 33008KT 300V010 CAVOK 20/19 Q1012 NOSIG=
200906072030 METAR LMML NIL=
200906072015 METAR LMML 072015Z 32009KT CAVOK 20/19 Q1012 NOSIG=
200906072000 METAR LMML NIL=
200906071945 METAR LMML 071945Z 32007KT 290V360 9000 FEW015 BKN250 21/19
                        Q1011 NOSIG=
200906071930 METAR LMML NIL=
200906071915 METAR LMML 071915Z 28006KT 9000 FEW015 BKN250 21/19 Q1011
                        NOSIG=
200906071900 METAR LMML NIL=
200906071845 METAR LMML 071845Z 22004KT 170V270 9000 NSC 22/19 Q1011 NOSIG=
200906071830 METAR LMML NIL=
200906071815 METAR LMML 071815Z 05004KT 020V090 CAVOK 24/18 Q1010 NOSIG=
200906071745 METAR LMML 071745Z VRB03KT CAVOK 25/19 Q1010 NOSIG=
200906071715 METAR LMML 071715Z VRB02KT CAVOK 26/19 Q1009 NOSIG=
200906071700 METAR LMML NIL=
200906071645 METAR LMML 071645Z VRB02KT CAVOK 25/20 Q1009 NOSIG=
200906071630 METAR LMML NIL=
200906071615 METAR LMML 071615Z VRB03KT CAVOK 25/19 Q1009 NOSIG=
200906071600 METAR LMML NIL=
200906071545 METAR LMML 071545Z 11004KT 070V170 CAVOK 25/19 Q1010 NOSIG=
200906071530 METAR LMML NIL=
200906071515 METAR LMML 071515Z VRB03KT CAVOK 27/19 Q1010 NOSIG=
200906071500 METAR LMML NIL=
200906071445 METAR LMML 071445Z VRB03KT CAVOK 27/19 Q1010 NOSIG=
200906071430 METAR LMML NIL=
200906071415 METAR LMML 071415Z VRB03KT CAVOK 27/19 Q1010 NOSIG=
200906071400 METAR LMML NIL=
200906071345 METAR LMML 071345Z VRB03KT CAVOK 26/18 Q1010 NOSIG=
200906071330 METAR LMML NIL=
200906071315 METAR LMML 071315Z 19006KT 150V230 CAVOK 26/19 Q1010 NOSIG=
200906071300 METAR LMML NIL=
200906071245 METAR LMML 071245Z 20005KT 150V260 CAVOK 24/18 Q1010 NOSIG=
200906071230 SPECI LMML 071230Z 20005KT 170V240 CAVOK 25/19 Q1010 NOSIG=
200906071230 METAR LMML NIL=
200906071215 METAR LMML 071215Z 18008KT 150V220 CAVOK 24/19 Q1010 NOSIG=
200906071145 METAR LMML 071145Z 18008KT 160V220 CAVOK 24/18 Q1011 NOSIG=
200906071130 METAR LMML NIL=
200906071115 METAR LMML 071115Z 18008KT 150V220 CAVOK 25/18 Q1011 NOSIG=
200906071100 METAR LMML NIL=
200906071045 METAR LMML 071045Z 16009KT 100V190 CAVOK 25/18 Q1011 NOSIG=
200906071030 METAR LMML NIL=
200906071015 METAR LMML 071015Z 17009KT 140V220 CAVOK 23/18 Q1011 NOSIG=
200906071000 METAR LMML NIL=
200906070945 METAR LMML 070945Z 18010KT 150V220 CAVOK 23/18 Q1011 NOSIG=
200906070930 METAR LMML NIL=
200906070915 METAR LMML 070915Z 16009KT CAVOK 23/18 Q1011 NOSIG=
200906070900 METAR LMML NIL=
200906070845 METAR LMML 070845Z 16012KT 130V190 CAVOK 23/18 Q1010 NOSIG=
200906070830 METAR LMML NIL=
200906070815 METAR LMML 070815Z 16011KT 120V190 CAVOK 22/18 Q1010 NOSIG=
200906070800 METAR LMML NIL=
200906070745 METAR LMML 070745Z 15010KT 120V180 CAVOK 22/18 Q1010 NOSIG=
200906070730 METAR LMML NIL=
200906070715 METAR LMML 070715Z 16010KT 120V200 CAVOK 22/18 Q1010 NOSIG=
200906070700 METAR LMML NIL=
200906070645 METAR LMML 070645Z 14011KT CAVOK 22/18 Q1010 NOSIG=
200906070630 METAR LMML NIL=
200906070615 METAR LMML 070615Z 14009KT CAVOK 21/18 Q1010 NOSIG=
200906070600 METAR LMML NIL=
200906070545 METAR LMML 070545Z 14009KT CAVOK 21/18 Q1010 NOSIG=
200906070530 METAR LMML NIL=
200906070515 METAR LMML 070515Z 13010KT 100V160 CAVOK 20/17 Q1010 NOSIG=
200906070500 METAR LMML NIL=
200906070445 METAR LMML 070445Z 12007KT 080V160 CAVOK 20/18 Q1010 NOSIG=
200906070430 METAR LMML NIL=
200906070415 METAR LMML 070415Z 13011KT CAVOK 20/17 Q1010 NOSIG=
200906070400 METAR LMML NIL=
200906070345 METAR LMML 070345Z 12007KT CAVOK 20/17 Q1010 NOSIG=
200906070330 METAR LMML NIL=
200906070315 METAR LMML 070315Z 11006KT CAVOK 20/17 Q1010 NOSIG=
200906070300 METAR LMML NIL=
200906070245 METAR LMML 070245Z 11007KT CAVOK 19/17 Q1010 NOSIG=
200906070230 METAR LMML NIL=
200906070215 METAR LMML 070215Z 09005KT 060V120 CAVOK 19/17 Q1010 NOSIG=
200906070200 METAR LMML NIL=
200906070145 METAR LMML 070145Z 08004KT 040V100 CAVOK 19/17 Q1010 NOSIG=
200906070130 METAR LMML NIL=
200906070115 METAR LMML 070115Z 11005KT 070V130 CAVOK 19/17 Q1010 NOSIG=
200906070100 METAR LMML NIL=
200906070045 METAR LMML 070045Z 11005KT 080V140 CAVOK 19/17 Q1010 NOSIG=
200906070030 METAR LMML NIL=
200906070015 METAR LMML 070015Z 10005KT 070V140 CAVOK 20/17 Q1010 NOSIG=
200906070000 METAR LMML NIL=
200906062345 METAR LMML 062345Z 14007KT 110V170 CAVOK 20/17 Q1010 NOSIG=
200906062330 METAR LMML NIL=
200906062315 METAR LMML 062315Z 13008KT CAVOK 19/17 Q1010 NOSIG=
200906062300 METAR LMML NIL=
200906062245 METAR LMML 062245Z 13009KT CAVOK 20/17 Q1010 NOSIG=
200906062230 METAR LMML NIL=
200906062215 METAR LMML 062215Z 13008KT CAVOK 20/18 Q1011 NOSIG=
200906062200 METAR LMML NIL=
200906062145 METAR LMML 062145Z 13009KT CAVOK 20/18 Q1011 NOSIG=
200906062130 METAR LMML NIL=
200906062115 METAR LMML 062115Z 13012KT CAVOK 20/18 Q1011 NOSIG=
200906062100 METAR LMML NIL=
200906062045 METAR LMML 062045Z 13011KT CAVOK 20/18 Q1011 NOSIG=
200906062030 METAR LMML NIL=
200906062015 METAR LMML 062015Z 14013KT CAVOK 20/18 Q1011 NOSIG=
200906062000 METAR LMML NIL=
200906061945 METAR LMML 061945Z 14013KT 110V170 CAVOK 20/18 Q1010 NOSIG=
200906061930 METAR LMML NIL=
200906061915 METAR LMML 061915Z 14013KT CAVOK 20/18 Q1010 NOSIG=
200906061900 METAR LMML NIL=
200906061845 METAR LMML 061845Z 14015KT 120V180 CAVOK 20/18 Q1010 NOSIG=
200906061830 METAR LMML NIL=
200906061815 METAR LMML 061815Z 15014KT 110V180 CAVOK 21/17 Q1010 NOSIG=
200906061800 METAR LMML NIL=
200906061745 METAR LMML 061745Z 14015KT 120V180 CAVOK 21/17 Q1010 NOSIG=
200906061730 METAR LMML NIL=
200906061715 METAR LMML 061715Z 14016KT 110V170 CAVOK 22/17 Q1010 NOSIG=
200906061700 METAR LMML NIL=
200906061645 METAR LMML 061645Z 13019KT CAVOK 22/17 Q1010 NOSIG=
200906061630 METAR LMML NIL=
200906061615 METAR LMML 061615Z 13020KT CAVOK 22/17 Q1010 NOSIG=
200906061600 METAR LMML NIL=
200906061545 METAR LMML 061545Z 13022KT CAVOK 22/17 Q1010 NOSIG=
200906061530 METAR LMML NIL=
200906061515 METAR LMML 061515Z 14014KT 110V180 CAVOK 21/17 Q1011 NOSIG=
200906061500 METAR LMML NIL=
200906061445 METAR LMML 061445Z 15014KT 120V180 CAVOK 22/17 Q1012 NOSIG=
200906061430 METAR LMML NIL=
200906061415 METAR LMML 061415Z 17013KT 140V210 CAVOK 23/17 Q1013 NOSIG=
200906061400 METAR LMML NIL=
200906061345 METAR LMML 061345Z 14014KT 120V180 CAVOK 23/17 Q1013 NOSIG=
200906061330 METAR LMML NIL=
200906061315 METAR LMML 061315Z 14016KT CAVOK 24/17 Q1012 NOSIG=
200906061300 METAR LMML NIL=
200906061245 METAR LMML 061245Z 14022KT CAVOK 24/16 Q1011 NOSIG=
200906061230 METAR LMML NIL=
200906061215 METAR LMML 061215Z 13016KT CAVOK 23/17 Q1012 NOSIG=
200906061145 METAR LMML 061145Z 14015KT 110V170 CAVOK 23/17 Q1012 NOSIG=
200906061130 METAR LMML NIL=
200906061115 METAR LMML 061115Z 16012KT 120V200 CAVOK 24/17 Q1014 NOSIG=
200906061100 METAR LMML NIL=
200906061045 METAR LMML 061045Z 17011KT 130V220 CAVOK 23/17 Q1014 NOSIG=
200906061030 METAR LMML NIL=
200906061015 METAR LMML 061015Z 17011KT 140V220 CAVOK 23/17 Q1014 NOSIG=
200906061000 METAR LMML NIL=
200906060945 METAR LMML 060945Z 15014KT 110V190 CAVOK 23/17 Q1014 NOSIG=
200906060930 METAR LMML NIL=
200906060915 METAR LMML 060915Z 14015KT 110V170 CAVOK 23/17 Q1014 NOSIG=
200906060900 METAR LMML NIL=
200906060845 METAR LMML 060845Z 15013KT 120V180 CAVOK 23/17 Q1014 NOSIG=
200906060830 METAR LMML NIL=
200906060815 METAR LMML 060815Z 15015KT 120V180 CAVOK 22/17 Q1013 NOSIG=
200906060800 METAR LMML NIL=
200906060745 METAR LMML 060745Z 16013KT 130V190 CAVOK 22/17 Q1014 NOSIG=
200906060730 METAR LMML NIL=
200906060715 METAR LMML 060715Z 15013KT 120V180 CAVOK 22/17 Q1014 NOSIG=
200906060645 METAR LMML 060645Z 15011KT 120V190 9999 FEW009 SCT120 22/18
                        Q1014 NOSIG=
200906060630 METAR LMML NIL=
200906060615 METAR LMML 060615Z 15012KT 110V180 9999 FEW009 SCT120 21/18
                        Q1014 NOSIG=
200906060600 METAR LMML NIL=
200906060545 METAR LMML 060545Z 16011KT 130V190 9999 FEW008 20/18 Q1014
                        NOSIG=
200906060530 METAR LMML NIL=
200906060515 METAR LMML 060515Z 16010KT 9999 SCT007 20/18 Q1014 NOSIG=
200906060500 METAR LMML NIL=
200906060445 METAR LMML 060445Z 16008KT 120V190 9999 SCT007 19/18 Q1013
                        NOSIG=
200906060430 METAR LMML NIL=
200906060415 METAR LMML 060415Z 16007KT 120V190 9999 FEW007 19/18 Q1013
                        NOSIG=
200906060400 METAR LMML NIL=
200906060345 METAR LMML 060345Z 16009KT 9999 FEW006 19/18 Q1013 TEMPO
                        8000 BKN005=
200906060330 METAR LMML NIL=
200906060315 METAR LMML 060315Z 15008KT 120V180 9999 FEW006 19/18 Q1013
                        TEMPO 8000 BKN005=
200906060300 METAR LMML NIL=
200906060245 METAR LMML 060245Z 14008KT 120V180 9999 FEW006 19/18 Q1013
                        TEMPO 8000 BKN005=
200906060230 METAR LMML NIL=
200906060215 METAR LMML 060215Z 16007KT 120V180 9999 SCT005 19/18 Q1014
                        TEMPO 8000 BKN005=
200906060200 METAR LMML NIL=
200906060145 METAR LMML 060145Z 15006KT 110V180 9999 SCT005 19/18 Q1014
                        TEMPO 8000 BKN005=
200906060130 METAR LMML NIL=
200906060115 METAR LMML 060115Z 14008KT 110V170 9999 FEW005 19/18 Q1014
                        TEMPO 8000 BKN005=
200906060100 METAR LMML NIL=
200906060045 METAR LMML 060045Z 14009KT 9999 SCT005 19/17 Q1014 TEMPO
                        8000 BKN005=
200906060030 METAR LMML NIL=
200906060015 METAR LMML 060015Z 14007KT 9999 SCT005 19/17 Q1014 TEMPO
                        8000 BKN005=
200906060000 METAR LMML NIL=
200906052345 METAR LMML 052345Z 14007KT 9999 SCT005 19/18 Q1015 TEMPO
                        8000 BKN005=
200906052330 METAR LMML NIL=
200906052315 METAR LMML 052315Z 16007KT 9999 SCT005 19/18 Q1015 TEMPO
                        8000 BKN005=
200906052300 METAR LMML NIL=
200906052245 METAR LMML 052245Z 16005KT CAVOK 19/17 Q1015 NOSIG=
200906052230 METAR LMML NIL=
200906052215 METAR LMML 052215Z 15006KT CAVOK 19/17 Q1016 NOSIG=
200906052200 METAR LMML NIL=
200906052145 METAR LMML 052145Z 17005KT 120V200 CAVOK 19/18 Q1016 NOSIG=
200906052130 METAR LMML NIL=
200906052115 METAR LMML 052115Z 16006KT 130V190 CAVOK 19/17 Q1016 NOSIG=
200906052100 METAR LMML NIL=
200906052045 METAR LMML 052045Z 16006KT CAVOK 19/17 Q1016 NOSIG=
200906052030 METAR LMML NIL=
200906052015 METAR LMML 052015Z 16005KT CAVOK 19/17 Q1016 NOSIG=
200906052000 METAR LMML NIL=
200906051945 METAR LMML 051945Z 15005KT 110V190 CAVOK 19/17 Q1016 NOSIG=
200906051930 METAR LMML NIL=
200906051915 METAR LMML 051915Z 16005KT 130V190 CAVOK 20/17 Q1015 NOSIG=
200906051900 METAR LMML NIL=
200906051845 METAR LMML 051845Z 16005KT CAVOK 20/17 Q1015 NOSIG=
200906051815 METAR LMML 051815Z 17005KT 130V190 CAVOK 20/17 Q1016 NOSIG=
200906051800 METAR LMML NIL=
200906051745 METAR LMML 051745Z 16006KT CAVOK 21/17 Q1015 NOSIG=
200906051730 METAR LMML NIL=
200906051715 METAR LMML 051715Z 18005KT 150V220 CAVOK 22/16 Q1015 NOSIG=
200906051700 METAR LMML NIL=
200906051645 METAR LMML 051645Z 17006KT 140V210 CAVOK 22/15 Q1015 NOSIG=
200906051630 METAR LMML NIL=
200906051615 METAR LMML 051615Z 17006KT 130V210 CAVOK 23/15 Q1015 NOSIG=
200906051545 METAR LMML 051545Z 18007KT 140V240 CAVOK 23/14 Q1015 NOSIG=
200906051530 METAR LMML NIL=
200906051515 METAR LMML 051515Z 18007KT 150V210 CAVOK 25/15 Q1015 NOSIG=
200906051500 METAR LMML NIL=
200906051445 METAR LMML 051445Z 19006KT 150V230 CAVOK 25/17 Q1015 NOSIG=
200906051430 METAR LMML NIL=
200906051415 METAR LMML 051415Z 19008KT 160V250 CAVOK 25/16 Q1015 NOSIG=
200906051400 METAR LMML NIL=
200906051345 METAR LMML 051345Z 19009KT 160V230 CAVOK 24/14 Q1015 NOSIG=
200906051330 METAR LMML NIL=
200906051315 METAR LMML 051315Z 19008KT 160V230 CAVOK 25/14 Q1016 NOSIG=
200906051300 METAR LMML NIL=
200906051245 METAR LMML 051245Z 18009KT 150V230 CAVOK 25/12 Q1016 NOSIG=
200906051230 METAR LMML NIL=
200906051215 METAR LMML 051215Z 18008KT 140V260 CAVOK 25/11 Q1016 NOSIG=
200906051200 METAR LMML NIL=
200906051145 METAR LMML 051145Z 18008KT 150V220 CAVOK 24/10 Q1016 NOSIG=
200906051130 METAR LMML NIL=
200906051115 METAR LMML 051115Z 18008KT 160V220 CAVOK 25/13 Q1016 NOSIG=
200906051100 METAR LMML NIL=
200906051045 METAR LMML 051045Z 17007KT 140V210 CAVOK 27/11 Q1016 NOSIG=
200906051030 METAR LMML NIL=
200906051015 METAR LMML 051015Z 14005KT 100V200 CAVOK 27/06 Q1016 NOSIG=
200906051000 METAR LMML NIL=
200906050945 METAR LMML 050945Z 17005KT 120V220 CAVOK 26/07 Q1016 NOSIG=
200906050930 METAR LMML NIL=
200906050915 METAR LMML 050915Z 19004KT 140V250 CAVOK 25/10 Q1016 NOSIG=
200906050900 METAR LMML NIL=
200906050845 METAR LMML 050845Z 19006KT 150V230 CAVOK 25/10 Q1016 NOSIG=
200906050830 METAR LMML NIL=
200906050815 METAR LMML 050815Z 20005KT 160V250 CAVOK 25/10 Q1016 NOSIG=
200906050800 METAR LMML NIL=
200906050745 METAR LMML 050745Z 16004KT 090V220 CAVOK 25/10 Q1016 NOSIG=
200906050730 METAR LMML NIL=
200906050715 METAR LMML 050715Z VRB02KT CAVOK 25/08 Q1016 NOSIG=
200906050700 METAR LMML NIL=
200906050645 METAR LMML 050645Z VRB01KT CAVOK 26/07 Q1016 NOSIG=
200906050630 METAR LMML NIL=
200906050615 METAR LMML 050615Z VRB01KT CAVOK 24/06 Q1016 NOSIG=
200906050600 METAR LMML NIL=
200906050545 METAR LMML 050545Z VRB01KT CAVOK 22/08 Q1015 NOSIG=
200906050530 METAR LMML NIL=
200906050515 METAR LMML 050515Z VRB02KT CAVOK 20/11 Q1015 NOSIG=
200906050500 METAR LMML NIL=
200906050445 METAR LMML 050445Z VRB01KT CAVOK 18/12 Q1015 NOSIG=
200906050430 METAR LMML NIL=
200906050415 METAR LMML 050415Z VRB03KT CAVOK 18/12 Q1015 NOSIG=
200906050400 METAR LMML NIL=
200906050345 METAR LMML 050345Z VRB03KT CAVOK 17/13 Q1015 NOSIG=
200906050330 METAR LMML NIL=
200906050315 METAR LMML 050315Z 24004KT CAVOK 16/16 Q1015 NOSIG=
200906050300 METAR LMML NIL=
200906050245 METAR LMML 050245Z VRB03KT CAVOK 16/15 Q1015 NOSIG=
200906050215 METAR LMML 050215Z VRB02KT CAVOK 17/15 Q1015 NOSIG=
200906050200 METAR LMML NIL=
200906050145 METAR LMML 050145Z VRB03KT CAVOK 18/15 Q1015 NOSIG=
200906050115 METAR LMML 050115Z VRB03KT CAVOK 18/13 Q1015 NOSIG=
200906050100 METAR LMML NIL=
200906050045 METAR LMML 050045Z VRB03KT CAVOK 17/14 Q1015 NOSIG=
200906050030 METAR LMML NIL=
200906050015 METAR LMML 050015Z VRB02KT CAVOK 18/14 Q1016 NOSIG=
200906050000 METAR LMML NIL=
200906042345 METAR LMML 042345Z VRB02KT CAVOK 18/14 Q1016 NOSIG=
200906042330 METAR LMML NIL=
200906042315 METAR LMML 042315Z VRB02KT CAVOK 18/13 Q1016 NOSIG=
200906042300 METAR LMML NIL=
200906042245 METAR LMML 042245Z VRB03KT CAVOK 19/15 Q1016 NOSIG=
200906042230 METAR LMML NIL=
200906042215 METAR LMML 042215Z 24004KT 200V280 CAVOK 19/15 Q1016 NOSIG=
200906042200 METAR LMML NIL=
200906042145 METAR LMML 042145Z 23005KT 200V260 CAVOK 20/15 Q1016 NOSIG=
200906042130 METAR LMML NIL=
200906042115 METAR LMML 042115Z 23004KT 210V270 CAVOK 19/15 Q1016 NOSIG=
200906042100 METAR LMML NIL=
200906042045 METAR LMML 042045Z VRB03KT CAVOK 20/15 Q1016 NOSIG=
200906042030 METAR LMML NIL=
200906042015 METAR LMML 042015Z 23004KT 210V270 CAVOK 20/14 Q1016 NOSIG=
200906042000 METAR LMML NIL=
200906041945 METAR LMML 041945Z VRB03KT CAVOK 20/13 Q1016 NOSIG=
200906041930 METAR LMML NIL=
200906041915 METAR LMML 041915Z VRB02KT CAVOK 21/13 Q1015 NOSIG=
200906041900 METAR LMML NIL=
200906041845 METAR LMML 041845Z VRB01KT CAVOK 21/10 Q1015 NOSIG=
200906041830 METAR LMML NIL=
200906041815 METAR LMML 041815Z VRB01KT CAVOK 22/12 Q1015 NOSIG=
200906041800 METAR LMML NIL=
200906041745 METAR LMML 041745Z VRB03KT CAVOK 23/12 Q1015 NOSIG=
200906041730 METAR LMML NIL=
200906041715 METAR LMML 041715Z VRB03KT CAVOK 25/13 Q1015 NOSIG=
200906041700 METAR LMML NIL=
200906041645 METAR LMML 041645Z VRB01KT CAVOK 25/12 Q1015 NOSIG=
200906041630 METAR LMML NIL=
200906041615 METAR LMML 041615Z 09005KT 040V140 CAVOK 25/11 Q1015 NOSIG=
200906041600 METAR LMML NIL=
200906041545 METAR LMML 041545Z 04005KT 360V090 CAVOK 27/12 Q1015 NOSIG=
200906041530 METAR LMML NIL=
200906041515 METAR LMML 041515Z 02006KT 340V070 CAVOK 27/12 Q1015 NOSIG=
200906041500 METAR LMML NIL=
200906041445 METAR LMML 041445Z 02006KT 340V060 CAVOK 28/12 Q1015 NOSIG=
200906041430 METAR LMML NIL=
200906041415 METAR LMML 041415Z 04005KT 330V170 9999 FEW025 28/12 Q1015
                        NOSIG=
200906041400 METAR LMML NIL=
200906041345 METAR LMML 041345Z 25004KT 150V320 9999 FEW025 27/10 Q1015
                        NOSIG=
200906041330 METAR LMML NIL=
200906041315 METAR LMML 041315Z 22005KT 160V290 9999 FEW025 27/10 Q1015
                        NOSIG=
200906041300 METAR LMML NIL=
200906041245 METAR LMML 041245Z 20006KT 150V290 9999 FEW025 26/10 Q1016
                        NOSIG=
200906041230 METAR LMML NIL=
200906041215 METAR LMML 041215Z 18005KT 140V250 9999 FEW020 26/10 Q1016
                        NOSIG=
200906041200 METAR LMML NIL=
200906041145 METAR LMML 041145Z 04006KT 360V080 9999 FEW020 28/12 Q1016
                        NOSIG=
200906041130 METAR LMML NIL=
200906041115 METAR LMML 041115Z VRB03KT CAVOK 28/11 Q1016 NOSIG=
200906041100 METAR LMML NIL=
200906041045 METAR LMML 041045Z 04006KT 350V080 CAVOK 27/11 Q1016 NOSIG=
200906041030 METAR LMML NIL=
200906041015 METAR LMML 041015Z 02005KT 340V060 CAVOK 27/11 Q1016 NOSIG=
200906041000 METAR LMML NIL=
200906040945 METAR LMML 040945Z 20005KT 160V260 CAVOK 26/09 Q1016 NOSIG=
200906040930 METAR LMML NIL=
200906040915 METAR LMML 040915Z 17004KT 110V250 CAVOK 26/08 Q1016 NOSIG=
200906040900 METAR LMML NIL=
200906040845 METAR LMML 040845Z 18005KT 140V230 CAVOK 26/08 Q1016 NOSIG=
200906040830 METAR LMML NIL=
200906040815 METAR LMML 040815Z 17006KT 120V210 CAVOK 24/09 Q1016 NOSIG=
200906040800 METAR LMML NIL=
200906040745 METAR LMML 040745Z 12005KT 060V200 CAVOK 26/08 Q1016 NOSIG=
200906040730 METAR LMML NIL=
200906040715 METAR LMML 040715Z VRB03KT CAVOK 24/08 Q1015 NOSIG=
200906040700 METAR LMML NIL=
200906040645 METAR LMML 040645Z VRB03KT CAVOK 24/10 Q1015 NOSIG=
200906040630 METAR LMML NIL=
200906040615 METAR LMML 040615Z 12004KT 080V150 CAVOK 22/11 Q1015 NOSIG=
200906040600 METAR LMML NIL=
200906040545 METAR LMML 040545Z VRB02KT CAVOK 22/13 Q1015 NOSIG=
200906040530 METAR LMML NIL=
200906040515 METAR LMML 040515Z VRB01KT CAVOK 20/16 Q1015 NOSIG=
200906040500 METAR LMML NIL=
200906040445 METAR LMML 040445Z VRB01KT CAVOK 18/16 Q1014 NOSIG=
200906040430 METAR LMML NIL=
200906040415 METAR LMML 040415Z VRB01KT 9999 FEW020 17/16 Q1014 NOSIG=
200906040400 METAR LMML NIL=
200906040345 METAR LMML 040345Z VRB01KT 9999 FEW020 16/16 Q1014 NOSIG=
200906040330 METAR LMML NIL=
200906040315 METAR LMML 040315Z VRB01KT CAVOK 16/15 Q1014 NOSIG=
200906040300 METAR LMML NIL=
200906040245 METAR LMML 040245Z VRB01KT CAVOK 16/15 Q1014 NOSIG=
200906040230 METAR LMML NIL=
200906040215 METAR LMML 040215Z VRB01KT CAVOK 16/16 Q1014 NOSIG=
200906040200 METAR LMML NIL=
200906040145 METAR LMML 040145Z VRB01KT CAVOK 17/16 Q1014 NOSIG=
200906040130 METAR LMML NIL=
200906040115 METAR LMML 040115Z VRB02KT CAVOK 17/16 Q1014 NOSIG=
200906040100 METAR LMML NIL=
200906040045 METAR LMML 040045Z VRB02KT CAVOK 18/16 Q1014 NOSIG=
200906040030 METAR LMML NIL=
200906040015 METAR LMML 040015Z VRB03KT CAVOK 18/16 Q1014 NOSIG=
200906040000 METAR LMML NIL=
200906032345 METAR LMML 032345Z VRB01KT CAVOK 18/16 Q1014 NOSIG=
200906032330 METAR LMML NIL=
200906032315 METAR LMML 032315Z VRB01KT CAVOK 18/16 Q1014 NOSIG=
200906032300 METAR LMML NIL=
200906032245 METAR LMML 032245Z VRB02KT CAVOK 19/16 Q1014 NOSIG=
200906032215 METAR LMML 032215Z VRB03KT CAVOK 19/16 Q1014 NOSIG=
200906032200 METAR LMML NIL=
200906032145 METAR LMML 032145Z 28008KT CAVOK 19/16 Q1014 NOSIG=
200906032130 METAR LMML NIL=
200906032115 METAR LMML 032115Z 31007KT 280V340 CAVOK 19/16 Q1014 NOSIG=
200906032100 METAR LMML NIL=
200906032045 METAR LMML 032045Z 32004KT 290V350 9999 FEW025 19/16 Q1014
                        NOSIG=
200906032015 METAR LMML 032015Z 28004KT 250V310 9999 FEW025 19/16 Q1014
                        NOSIG=
200906032000 METAR LMML NIL=
200906031945 METAR LMML 031945Z 30007KT 270V340 9999 FEW025 19/16 Q1014
                        NOSIG=
200906031930 METAR LMML NIL=
200906031915 METAR LMML 031915Z 30010KT 9999 FEW025 20/16 Q1013 NOSIG=
200906031900 METAR LMML NIL=
200906031845 METAR LMML 031845Z 28011KT 250V310 9999 FEW025 20/15 Q1013
                        NOSIG=
200906031830 METAR LMML NIL=
200906031815 METAR LMML 031815Z 28009KT 240V310 9999 FEW025 20/15 Q1013
                        NOSIG=
200906031800 METAR LMML NIL=
200906031745 METAR LMML 031745Z 29011KT 9999 FEW025 21/14 Q1013 NOSIG=
200906031730 METAR LMML NIL=
200906031715 METAR LMML 031715Z 30013KT 270V330 CAVOK 22/13 Q1013 NOSIG=
200906031700 METAR LMML NIL=
200906031645 METAR LMML 031645Z 29012KT 250V330 9999 FEW025 23/12 Q1012
                        NOSIG=
200906031630 METAR LMML NIL=
200906031615 METAR LMML 031615Z 28014KT 9999 FEW025 24/12 Q1012 NOSIG=
200906031600 METAR LMML NIL=
200906031545 METAR LMML 031545Z 29013KT 240V310 CAVOK 25/12 Q1012 NOSIG=
200906031530 METAR LMML NIL=
200906031515 METAR LMML 031515Z 29015KT 250V320 9999 FEW025 24/10 Q1013
                        NOSIG=
200906031500 METAR LMML NIL=
200906031445 METAR LMML 031445Z 29014KT 260V320 9999 FEW025 25/11 Q1013
                        NOSIG=
200906031430 METAR LMML NIL=
200906031415 METAR LMML 031415Z 30013KT 270V330 9999 FEW025 26/12 Q1013
                        NOSIG=
200906031400 METAR LMML NIL=
200906031345 METAR LMML 031345Z 29013KT 9999 FEW025 25/13 Q1013 NOSIG=
200906031330 METAR LMML NIL=
200906031315 METAR LMML 031315Z 28013KT 230V310 9999 FEW025 26/11 Q1013
                        NOSIG=
200906031245 METAR LMML 031245Z 28014KT 250V320 9999 FEW025 25/11 Q1013
                        NOSIG=
200906031230 METAR LMML NIL=
200906031215 METAR LMML 031215Z 28013KT 240V320 9999 FEW025 25/12 Q1014
                        NOSIG=
200906031200 METAR LMML NIL=
200906031145 METAR LMML 031145Z 29013KT 260V320 9999 FEW025 25/12 Q1014
                        NOSIG=
200906031130 METAR LMML NIL=
200906031115 METAR LMML 031115Z 28013KT 260V320 CAVOK 25/11 Q1014 NOSIG=
200906031100 METAR LMML NIL=
200906031045 METAR LMML 031045Z 27012KT 220V300 9999 FEW030 26/13 Q1014
                        NOSIG=
200906031030 METAR LMML NIL=
200906031015 METAR LMML 031015Z 27012KT 230V300 9999 FEW040 24/11 Q1014
                        NOSIG=
200906031000 METAR LMML NIL=
200906030945 METAR LMML 030945Z 27011KT 240V310 9999 FEW040 25/13 Q1014
                        NOSIG=
200906030930 METAR LMML NIL=
200906030915 METAR COR LMML 030915Z 29011KT 220V330 9999 FEW040 26/12
                        Q1013 NOSIG=
200906030900 METAR LMML NIL=
200906030845 METAR LMML 030845Z 29013KT 250V330 9999 FEW020 24/08 Q1013
                        NOSIG=
200906030830 METAR LMML NIL=
200906030815 METAR LMML 030815Z 31014KT 270V340 9999 FEW020 24/10 Q1013
                        NOSIG=
200906030800 METAR LMML NIL=
200906030745 METAR LMML 030745Z 29011KT 260V320 9999 FEW020 24/11 Q1013
                        NOSIG=
200906030730 METAR LMML NIL=
200906030715 METAR LMML 030715Z 30011KT 260V330 9999 FEW020 23/11 Q1013
                        NOSIG=
200906030700 METAR LMML NIL=
200906030645 METAR LMML 030645Z 30012KT 270V330 9999 FEW020 23/10 Q1013
                        NOSIG=
200906030630 METAR LMML NIL=
200906030615 METAR LMML 030615Z 30010KT 9999 FEW020 22/11 Q1013 NOSIG=
200906030600 METAR LMML NIL=
200906030545 METAR LMML 030545Z 29010KT 9999 FEW020 21/14 Q1013 NOSIG=
200906030530 METAR LMML NIL=
200906030515 METAR LMML 030515Z 31008KT 9999 FEW020 20/14 Q1012 NOSIG=
200906030500 METAR LMML NIL=
200906030445 METAR LMML 030445Z 32007KT 9999 FEW020 19/15 Q1012 NOSIG=
200906030430 METAR LMML NIL=
200906030415 METAR LMML 030415Z 31007KT 9999 FEW020 18/15 Q1012 NOSIG=
200906030400 METAR LMML NIL=
200906030345 METAR LMML 030345Z 30006KT 270V330 CAVOK 18/14 Q1012 NOSIG=
200906030330 METAR LMML NIL=
200906030315 METAR LMML 030315Z 29010KT 260V320 CAVOK 18/15 Q1012 NOSIG=
200906030300 METAR LMML NIL=
200906030245 METAR LMML 030245Z 30010KT CAVOK 19/14 Q1012 NOSIG=
200906030230 METAR LMML NIL=
200906030215 METAR LMML 030215Z 29011KT CAVOK 19/14 Q1012 NOSIG=
200906030200 METAR LMML NIL=
200906030145 METAR LMML 030145Z 28010KT 240V310 CAVOK 19/14 Q1012 NOSIG=
200906030130 METAR LMML NIL=
200906030115 METAR LMML 030115Z 28009KT 230V310 9999 FEW016 19/15 Q1012
                        NOSIG=
200906030100 METAR LMML NIL=
200906030045 METAR LMML 030045Z 28009KT 240V300 9999 FEW016 19/15 Q1012
                        NOSIG=
200906030030 METAR LMML NIL=
200906030015 METAR LMML 030015Z 28011KT 9999 FEW016 19/15 Q1012 NOSIG=
200906030000 METAR LMML NIL=
200906022345 METAR LMML 022345Z 28010KT 250V310 9999 FEW016 19/17 Q1013
                        NOSIG=
200906022330 METAR LMML NIL=
200906022315 METAR LMML 022315Z 28010KT 230V310 9999 FEW016 20/17 Q1013
                        NOSIG=
200906022300 METAR LMML NIL=
200906022245 METAR LMML 022245Z 28009KT 240V310 CAVOK 19/16 Q1013 TEMPO
                        9999 FEW008=
200906022230 METAR LMML NIL=
200906022215 METAR LMML 022215Z 28011KT 240V300 CAVOK 20/17 Q1013 TEMPO
                        9999 FEW008=
200906022200 METAR LMML NIL=
200906022145 METAR LMML 022145Z 26010KT 230V300 CAVOK 20/18 Q1013 NOSIG=
200906022130 METAR LMML NIL=
200906022115 METAR LMML 022115Z 26008KT 230V290 9999 FEW006 20/18 Q1013
                        NOSIG=
200906022100 METAR LMML NIL=
200906022045 METAR LMML 022045Z 26009KT 220V290 9999 SCT006 20/18 Q1013
                        NOSIG=
200906022030 METAR LMML NIL=
200906022015 METAR COR LMML 022015Z 25010KT 200V280 9999 SCT008 20/18
                        Q1013 TEMPO 9000 BKN008=
200906022000 METAR LMML NIL=
200906021945 METAR LMML 021945Z 24010KT 190V280 9999 SCT008 20/18 Q1013
                        TEMPO 9000 BKN008=
200906021930 METAR LMML NIL=
200906021915 METAR LMML 021915Z 24009KT 210V270 9999 FEW010 20/18 Q1013
                        NOSIG=
200906021900 METAR LMML NIL=
200906021845 METAR LMML 021845Z 24008KT 200V280 9999 FEW015 20/17 Q1013
                        NOSIG=
200906021830 METAR LMML NIL=
200906021815 METAR LMML 021815Z 25008KT 200V290 9999 FEW015 20/16 Q1013
                        NOSIG=
200906021800 METAR LMML NIL=
200906021745 METAR LMML 021745Z 26009KT 220V290 CAVOK 22/14 Q1013 NOSIG=
200906021730 METAR LMML NIL=
200906021715 METAR LMML 021715Z 28010KT 250V310 9999 FEW020 23/12 Q1012
                        NOSIG=
200906021700 METAR LMML NIL=
200906021645 METAR LMML 021645Z 28012KT 250V320 9999 FEW020 23/11 Q1012
                        NOSIG=
200906021630 METAR LMML NIL=
200906021615 METAR COR LMML 021615Z 28013KT 9999 FEW020 24/11 Q1012 NOSIG=
200906021600 METAR LMML NIL=
200906021545 METAR LMML 021545Z 29012KT 250V320 9999 FEW025 24/12 Q1012
                        NOSIG=
200906021530 METAR LMML NIL=
200906021515 METAR LMML 021515Z 29015KT 260V330 9999 FEW025 23/13 Q1013
                        NOSIG=
200906021500 METAR LMML NIL=
200906021445 METAR LMML 021445Z 28015KT 240V310 9999 FEW025 24/13 Q1013
                        NOSIG=
200906021430 METAR LMML NIL=
200906021415 METAR LMML 021415Z 29015KT 9999 FEW025 24/13 Q1013 NOSIG=
200906021400 METAR LMML NIL=
200906021345 METAR LMML 021345Z 28015KT 230V300 9999 FEW025 24/13 Q1013
                        NOSIG=
200906021330 METAR LMML NIL=
200906021315 METAR LMML 021315Z 28014KT 220V320 9999 FEW025 24/14 Q1013
                        NOSIG=
200906021300 METAR LMML NIL=
200906021245 METAR LMML 021245Z 28014KT 240V320 9999 FEW025 23/14 Q1013
                        NOSIG=
200906021230 METAR LMML NIL=
200906021215 METAR LMML 021215Z 28015KT 240V310 9999 FEW025 24/15 Q1013
                        NOSIG=
200906021200 METAR LMML NIL=
200906021145 METAR LMML 021145Z 29016KT 240V330 9999 FEW025 24/14 Q1013
                        NOSIG=
200906021130 METAR LMML NIL=
200906021115 METAR LMML 021115Z 28016KT 9999 FEW025 24/15 Q1013 NOSIG=
200906021100 METAR LMML NIL=
200906021045 METAR LMML 021045Z 28016KT 230V300 9999 FEW025 24/15 Q1013
                        NOSIG=
200906021030 METAR LMML NIL=
200906021015 METAR LMML 021015Z 29015KT 260V320 9999 FEW022 24/15 Q1013
                        NOSIG=
200906021000 METAR LMML NIL=
200906020945 METAR LMML 020945Z 28015KT 9999 SCT023 23/15 Q1013 NOSIG=
200906020930 METAR LMML NIL=
200906020915 METAR LMML 020915Z 29015KT 260V320 9999 FEW026 23/15 Q1013
                        NOSIG=
200906020900 METAR LMML NIL=
200906020845 METAR LMML 020845Z 29015KT 260V320 9999 FEW023 23/15 Q1013
                        NOSIG=
200906020830 METAR LMML NIL=
200906020815 METAR LMML 020815Z 28012KT 240V320 9999 FEW022 23/15 Q1013
                        NOSIG=
200906020800 METAR LMML NIL=
200906020745 METAR LMML 020745Z 30013KT 260V330 9999 SCT021 22/15 Q1014
                        NOSIG=
200906020730 METAR LMML NIL=
200906020715 METAR LMML 020715Z 29014KT 250V320 9999 BKN019 21/15 Q1013
                        NOSIG=
200906020700 METAR LMML NIL=
200906020645 METAR LMML 020645Z 30013KT 270V330 9999 BKN017 21/16 Q1013
                        NOSIG=
200906020630 METAR LMML NIL=
200906020615 METAR LMML 020615Z 30012KT 9999 BKN015 20/16 Q1013 NOSIG=
200906020600 METAR LMML NIL=
200906020545 METAR LMML 020545Z 30013KT 9999 BKN014 20/16 Q1013 NOSIG=
200906020530 METAR LMML NIL=
200906020515 METAR LMML 020515Z 30010KT 9999 FEW015 19/16 Q1013 NOSIG=
200906020500 METAR LMML NIL=
200906020445 METAR LMML 020445Z 31014KT 9999 FEW020 19/16 Q1012 NOSIG=
200906020430 METAR LMML NIL=
200906020415 METAR LMML 020415Z 30012KT 9999 FEW015 18/16 Q1012 NOSIG=
200906020400 METAR LMML NIL=
200906020345 METAR LMML 020345Z 31015KT 9999 FEW015 18/16 Q1012 NOSIG=
200906020315 METAR LMML 020315Z 30010KT 9999 FEW015 18/16 Q1012 NOSIG=
200906020300 METAR LMML NIL=
200906020245 METAR LMML 020245Z 30011KT 9999 FEW015 18/16 Q1012 NOSIG=
200906020230 METAR LMML NIL=
200906020215 METAR LMML 020215Z 30011KT CAVOK 18/16 Q1012 NOSIG=
200906020200 METAR LMML NIL=
200906020145 METAR LMML 020145Z 30012KT CAVOK 18/16 Q1012 NOSIG=
200906020130 METAR LMML NIL=
200906020115 METAR LMML 020115Z 30013KT CAVOK 19/16 Q1012 NOSIG=
200906020100 METAR LMML NIL=
200906020045 METAR LMML 020045Z 30014KT CAVOK 19/16 Q1012 NOSIG=
200906020030 METAR LMML NIL=
200906020015 METAR LMML 020015Z 30016KT 9999 FEW015 19/16 Q1012 NOSIG=
200906020000 METAR LMML NIL=
200906012345 METAR LMML 012345Z 30014KT CAVOK 19/16 Q1012 NOSIG=
200906012330 METAR LMML NIL=
200906012315 METAR LMML 012315Z 30013KT 270V330 CAVOK 19/17 Q1012 NOSIG=
200906012300 METAR LMML NIL=
200906012245 METAR LMML 012245Z 30014KT CAVOK 19/17 Q1012 NOSIG=
200906012230 METAR LMML NIL=
200906012215 METAR LMML 012215Z 30014KT CAVOK 19/17 Q1012 NOSIG=
200906012200 METAR LMML NIL=
200906012145 METAR LMML 012145Z 29016KT 9999 FEW015 19/17 Q1012 NOSIG=
200906012130 METAR LMML NIL=
200906012115 METAR LMML 012115Z 30015KT 9999 FEW015 19/17 Q1012 NOSIG=
200906012100 METAR LMML NIL=
200906012045 METAR LMML 012045Z 30016KT CAVOK 19/17 Q1012 NOSIG=
200906012030 METAR LMML NIL=
200906012015 METAR LMML 012015Z 29013KT 9999 FEW015 19/17 Q1012 NOSIG=
200906012000 METAR LMML NIL=
200906011945 METAR LMML 011945Z 30012KT 9999 FEW014 20/16 Q1012 NOSIG=
200906011930 METAR LMML NIL=
200906011915 METAR LMML 011915Z 31016KT 9999 FEW014 20/16 Q1011 NOSIG=
200906011900 METAR LMML NIL=
200906011845 METAR LMML 011845Z 32016KT 9999 FEW014 20/16 Q1010 NOSIG=
200906011830 METAR LMML NIL=
200906011815 METAR LMML 011815Z 32016KT 9999 FEW014 21/17 Q1010 NOSIG=
200906011800 METAR LMML NIL=
200906011745 METAR LMML 011745Z 31017KT 9000 FEW014 21/17 Q1010 BECMG
                        9999=
200906011730 METAR LMML NIL=
200906011715 METAR LMML 011715Z 32018KT 9000 SCT013 22/18 Q1010 BECMG
                        9999=
200906011700 METAR LMML NIL=
200906011645 METAR LMML 011645Z 31016KT 8000 BKN013 23/19 Q1010 TEMPO
                        BKN010=
200906011630 METAR LMML NIL=
200906011615 METAR LMML 011615Z 30016KT 270V330 8000 SCT012 23/19 Q1009
                        NOSIG=
200906011600 METAR LMML NIL=
200906011545 METAR LMML 011545Z 29015KT 260V320 8000 SCT014 24/18 Q1009
                        NOSIG=
200906011530 METAR LMML NIL=
200906011515 METAR LMML 011515Z 29017KT 250V310 9999 FEW012 25/19 Q1009
                        NOSIG=
200906011500 METAR LMML NIL=
200906011445 METAR LMML 011445Z 28010KT 210V300 9999 FEW012 27/19 Q1009
                        NOSIG=
200906011430 METAR LMML NIL=
200906011415 METAR LMML 011415Z 24008KT 200V300 9999 FEW012 26/19 Q1009
                        NOSIG=
200906011400 METAR LMML NIL=
200906011345 METAR LMML 011345Z 23009KT 180V300 CAVOK 27/19 Q1009 NOSIG=
200906011330 METAR LMML NIL=
200906011315 METAR LMML 011315Z 20009KT 150V280 CAVOK 27/17 Q1009 NOSIG=
200906011300 METAR LMML NIL=
200906011245 METAR LMML 011245Z 20009KT 150V270 9000 NSC 27/17 Q1009 NOSIG=
200906011230 METAR LMML NIL=
200906011215 METAR LMML 011215Z 22012KT 180V270 9000 NSC 27/18 Q1009 NOSIG=
200906011200 METAR LMML NIL=
200906011145 METAR LMML 011145Z 21011KT 170V250 7000 NSC 26/18 Q1009 NOSIG=
200906011130 METAR LMML NIL=
200906011115 METAR LMML 011115Z 20013KT 160V250 7000 NSC 25/18 Q1010 NOSIG=
200906011100 METAR LMML NIL=
200906011045 METAR LMML 011045Z 19014KT 150V230 7000 NSC 26/19 Q1010 NOSIG=
200906011030 METAR LMML NIL=
200906011015 METAR LMML 011015Z 15019KT 110V190 7000 NSC 25/18 Q1009 NOSIG=
200906011000 METAR LMML NIL=
200906010945 METAR LMML 010945Z 15019KT 120V180 CAVOK 25/19 Q1008 NOSIG=
200906010930 METAR LMML NIL=
200906010915 METAR LMML 010915Z 14020G31KT CAVOK 25/18 Q1008 NOSIG=
200906010900 METAR LMML NIL=
200906010845 METAR LMML 010845Z 14019KT 110V170 CAVOK 25/18 Q1008 NOSIG=
200906010830 METAR LMML NIL=
200906010815 METAR LMML 010815Z 13020KT 110V170 CAVOK 25/18 Q1008 NOSIG=
200906010800 METAR LMML NIL=
200906010745 METAR LMML 010745Z 12020KT CAVOK 23/19 Q1009 NOSIG=
200906010730 METAR LMML NIL=
200906010715 METAR LMML 010715Z 12024KT CAVOK 23/19 Q1010 NOSIG=
200906010700 METAR LMML NIL=
200906010645 METAR LMML 010645Z 12021KT CAVOK 22/19 Q1010 NOSIG=
200906010630 METAR LMML NIL=
200906010615 METAR LMML 010615Z 12020KT 8000 FEW040 SCT120 BKN250 22/19
                        Q1010 NOSIG=
200906010600 METAR LMML NIL=
200906010545 METAR LMML 010545Z 12020KT 8000 FEW040 BKN120 22/19 Q1010
                        NOSIG=
200906010530 METAR LMML NIL=
200906010515 METAR LMML 010515Z 11027KT 8000 FEW040 BKN090 21/19 Q1010
                        NOSIG=
200906010500 METAR LMML NIL=
200906010445 METAR LMML 010445Z 09011KT 8000 FEW040 BKN120 21/20 Q1013
                        TEMPO 6000 TSRA FEW008 BKN060=
200906010415 METAR LMML 010415Z 06009KT 020V090 8000 FEW040 BKN120 21/19
                        Q1013 TEMPO 6000 TSRA FEW008 BKN060=
200906010400 METAR LMML NIL=
200906010345 METAR LMML 010345Z 05009KT 020V090 8000 -SHRA SCT019 BKN120
                        21/20 Q1014 TEMPO 6000 TSRA FEW008
                        BKN060=
200906010330 METAR LMML NIL=
200906010315 METAR LMML 010315Z VRB03KT 9999 -SHRA FEW019 BKN120 22/19
                        Q1016 TEMPO 8000 TSRA FEW008 BKN060=
200906010300 METAR LMML NIL=
200906010245 METAR LMML 010245Z 07006KT 010V190 CAVOK 22/18 Q1014 TEMPO
                        8000 TSRA FEW008 BKN060=
200906010230 METAR LMML NIL=
200906010215 METAR LMML 010215Z 11011KT 080V140 CAVOK 21/19 Q1013 NOSIG=
200906010200 METAR LMML NIL=
200906010145 METAR LMML 010145Z 13017KT CAVOK 22/19 Q1012 NOSIG=
200906010130 METAR LMML NIL=
200906010115 METAR LMML 010115Z 13018KT CAVOK 21/19 Q1012 NOSIG=
200906010100 METAR LMML NIL=
200906010045 METAR LMML 010045Z 14017KT CAVOK 22/19 Q1013 NOSIG=
200906010030 METAR LMML NIL=
200906010015 METAR LMML 010015Z 12017KT CAVOK 21/19 Q1013 NOSIG=
200906010000 METAR LMML NIL=

###################################
#  short TAF from LMML
###################################
200907012300 TAF LMML 012300Z 0200/0209 VRB04KT CAVOK
                      TEMPO 0200/0209 9999 FEW012
                      PROB30 TEMPO 0200/0206 8000 BKN006=
200907012000 TAF LMML 012000Z 0121/0206 VRB04KT CAVOK
                      TEMPO 0121/0206 8000 SCT008
                      PROB30 TEMPO 0200/0206 BKN006=
200907011700 TAF LMML 011700Z 0118/0203 27004KT 9999 FEW015
                      PROB30 TEMPO 0120/0203 8000 BKN005=
200907011400 TAF LMML 011400Z 0115/0124 24008KT 9999 FEW020
                      PROB30 TEMPO 0120/0124 BKN005=
200907011100 TAF LMML 011100Z 0112/0121 VRB06KT 9999 FEW012
                      PROB30 TEMPO 0112/0121 BKN010=
200907010800 TAF LMML 010800Z 0109/0118 VRB06KT 9999 FEW015
                      PROB30 TEMPO 0109/0118 CAVOK=
200907010500 TAF LMML 010500Z 0106/0115 30005KT 9999 FEW015
                      TEMPO 0106/0115 CAVOK=
200907010200 TAF LMML 010200Z 0103/0112 VRB03KT CAVOK
                      TEMPO 0103/0112 9999 FEW015
                      PROB30 TEMPO 0103/0106 9000 BKN005=
200906302300 TAF LMML 302300Z 0100/0109 VRB03KT CAVOK
                      TEMPO 0100/0109 9999 SCT010
                      PROB30 TEMPO 0100/0106 7000 BKN005=
200906302000 TAF LMML 302000Z 3021/0106 31004KT CAVOK
                      TEMPO 3021/0106 9000 SCT010
                      PROB30 TEMPO 0100/0106 5000 BR BKN005=
200906301700 TAF LMML 301700Z 3018/0103 VRB05KT 9999 FEW030
                      TEMPO 3018/0103 CAVOK
                      PROB40 TEMPO 3021/0103 8000 BKN008
                      PROB30 TEMPO 0100/0103 5000 BR BKN005=
200906301400 TAF LMML 301400Z 3015/3024 VRB05KT 9999 FEW022
                      TEMPO 3015/3024 CAVOK
                      PROB30 TEMPO 3021/3024 8000 BKN008=
200906301100 TAF LMML 301100Z 3012/3021 VRB07KT 9999 FEW022
                      TEMPO 3012/3021 CAVOK=
200906300800 TAF LMML 300800Z 3009/3018 VRB07KT 9999 FEW012
                      TEMPO 3009/3018 CAVOK=
200906300500 TAF LMML 300500Z 3006/3015 28007KT 9999 FEW012
                      BECMG 3007/3009 CAVOK=
200906300200 TAF LMML 300200Z 3003/3012 24005KT CAVOK
                      TEMPO 3003/3006 8000 SCT005=
200906292300 TAF LMML 292300Z 3000/3009 28005KT CAVOK
                      PROB30 TEMPO 3000/3006 9000 FEW007=
200906292000 TAF LMML 292000Z 2921/3006 28004KT CAVOK
                      TEMPO 3000/3006 9999 FEW012
                      PROB30 TEMPO 3003/3006 9000 SCT007=
200906291700 TAF LMML 291700Z 2918/3003 29005KT CAVOK
                      TEMPO 2918/3003 9999 FEW012
                      PROB30 TEMPO 3000/3003 9000 SCT007=
200906291400 TAF LMML 291400Z 2915/2924 VRB08KT 9999 FEW030
                      BECMG 2915/2918 28006KT CAVOK=
200906291100 TAF LMML 291100Z 2912/2921 31007KT 9999 FEW030
                      BECMG 2915/2918 CAVOK=
200906290800 TAF LMML 290800Z 2909/2918 30007KT CAVOK
                      TEMPO 2909/2915 9999 FEW020=
200906290500 TAF LMML 290500Z 2906/2915 30008KT CAVOK=
200906290200 TAF LMML 290200Z 2903/2912 30008KT CAVOK
                      PROB30 TEMPO 2903/2905 FEW012=
200906282300 TAF LMML 282300Z 2900/2909 30010KT CAVOK
                      PROB30 TEMPO 2902/2905 FEW012=
200906282000 TAF LMML 282000Z 2821/2906 30008KT CAVOK
                      PROB30 TEMPO 2902/2905 FEW012=
200906281700 TAF LMML 281700Z 2818/2903 29012KT 9999 FEW011
                      PROB30 TEMPO 2900/2903 9000 BKN007=
200906281400 TAF LMML 281400Z 2815/2824 29015KT 9999 FEW013=
200906281100 TAF LMML 281100Z 2812/2821 29015KT 9999 FEW015=
200906280800 TAF LMML 280800Z 2809/2818 28015KT 9999 FEW015=
200906280500 TAF LMML 280500Z 2806/2815 29014KT 9999 FEW015
                      TEMPO 2806/2815 CAVOK=
200906280200 TAF LMML 280200Z 2803/2812 28009KT 9999 FEW012
                      TEMPO 2803/2812 CAVOK
                      PROB30 TEMPO 2803/2806 9000 BKN009=
200906272300 TAF LMML 272300Z 2800/2809 28006KT CAVOK
                      PROB30 TEMPO 2800/2809 FEW015=
200906272000 TAF LMML 272000Z 2721/2806 28006KT CAVOK
                      PROB30 TEMPO 2721/2806 9000 FEW015=
200906271700 TAF LMML 271700Z 2718/2803 28006KT 9999 FEW015
                      PROB30 TEMPO 2720/2803 CAVOK=
200906271400 TAF LMML 271400Z 2715/2724 28012KT 9999 FEW020
                      TEMPO 2715/2724 CAVOK=
200906271100 TAF LMML 271100Z 2712/2721 29012KT CAVOK
                      PROB30 TEMPO 2712/2721 FEW015=
200906270800 TAF LMML 270800Z 2709/2718 29010KT 9999 FEW015 FEW120
                      TEMPO 2709/2718 CAVOK=
200906270500 TAF LMML 270500Z 2706/2715 28013KT 7000 RA SCT012 BKN110
                      BECMG 2706/2709 9999 NSW=
200906270200 TAF LMML 270200Z 2703/2712 28008KT 9999 FEW015 SCT120
                      TEMPO 2703/2712 8000 SHRA BKN013 BKN100
                      PROB30 TEMPO 2703/2709 28015G25KT 3000 TSRA
                       BKN010 BKN050CB=
200906262300 TAF LMML 262300Z 2700/2709 27008KT CAVOK
                      TEMPO 2700/2709 9999 FEW011 SCT120
                      PROB30 TEMPO 2700/2706 5000 BKN005 BKN090=
200906262000 TAF LMML 262000Z 2621/2706 26008KT CAVOK
                      BECMG 2621/2624 9999 FEW011 SCT100
                      PROB30 TEMPO 2700/2706 8000 BKN007 BKN080=
200906261700 TAF LMML 261700Z 2618/2703 25007KT CAVOK
                      PROB30 TEMPO 2623/2703 8000 SCT010=
200906261400 TAF LMML 261400Z 2612/2624 25007KT CAVOK=
200906261100 TAF LMML 261100Z 2612/2621 24007KT CAVOK=
200906260800 TAF LMML 260800Z 2609/2618 25007KT CAVOK=
200906260500 TAF LMML 260500Z 2606/2615 23007KT 9999 FEW015 SCT200=
200906260200 TAF LMML 260200Z 2603/2612 26005KT 9999 FEW011 SCT200
                      PROB30 TEMPO 2603/2606 7000 BKN007=
200906252300 TAF LMML 252300Z 2600/2609 25005KT 9999 FEW011 SCT200
                      PROB30 TEMPO 2600/2606 7000 BKN007=
200906252000 TAF LMML 252000Z 2521/2606 26005KT 9999 FEW011
                      PROB30 TEMPO 2523/2606 7000 BKN007=
200906251700 TAF LMML 251700Z 2518/2603 26007KT CAVOK
                      TEMPO 2518/2603 9999 FEW015
                      PROB30 TEMPO 2521/2603 9000 SCT008=
200906251400 TAF LMML 251400Z 2515/2524 26008KT 9999 FEW030
                      BECMG 2515/2518 CAVOK=
200906251100 TAF LMML 251100Z 2512/2521 VRB07KT 9999 FEW035
                      BECMG 2512/2515 28010KT
                      BECMG 2515/2518 CAVOK=
200906250800 TAF LMML 250800Z 2509/2518 29010KT CAVOK
                      PROB30 TEMPO 2509/2515 9999 FEW020=
200906250500 TAF LMML 250500Z 2506/2515 30012KT CAVOK=
200906250200 TAF LMML 250200Z 2503/2512 30010KT CAVOK
                      PROB30 TEMPO 2503/2506 FEW020=
200906242300 TAF LMML 242300Z 2500/2509 29008KT CAVOK
                      PROB30 TEMPO 2502/2506 FEW020=
200906242000 TAF LMML 242000Z 2421/2506 28010KT CAVOK
                      PROB30 TEMPO 2502/2506 FEW020=
200906241700 TAF LMML 241700Z 2418/2503 27012KT 9999 FEW025=
200906241400 TAF LMML 241400Z 2415/2424 27014KT 9999 FEW025=
200906241100 TAF LMML 241100Z 2412/2421 27014KT 9999 FEW025=
200906240800 TAF LMML 240800Z 2409/2418 26010KT 9999 SCT025=
200906240500 TAF LMML 240500Z 2406/2415 29012KT 9999 FEW022=
200906240200 TAF LMML 240200Z 2403/2412 29010KT 9999 FEW025
                      TEMPO 2403/2412 CAVOK=
200906232300 TAF LMML 232300Z 2400/2409 30010KT 9999 FEW025
                      TEMPO 2400/2409 CAVOK=
200906232000 TAF LMML 232000Z 2321/2406 29015KT 9999 FEW024=
200906231700 TAF LMML 231700Z 2318/2403 29012KT 9999 SCT025=
200906231400 TAF LMML 231400Z 2315/2324 29018KT 9999 SCT030=
200906231100 TAF LMML 231100Z 2312/2321 29018KT 9999 SCT035=
200906230800 TAF LMML 230800Z 2309/2318 29020KT 9999 SCT025=
200906230500 TAF LMML 230500Z 2306/2315 28015KT 9999 SCT025
                      PROB40 TEMPO 2306/2315 8000 SHRA
                      BECMG 2308/2315 28018G28KT=
200906230200 TAF LMML 230200Z 2303/2312 29013KT 9999 SCT020
                      PROB30 TEMPO 2306/2312 29015G25KT=
200906222300 TAF LMML 222300Z 2300/2309 30015KT CAVOK
                      BECMG 2300/2302 9999 SCT020
                      PROB30 TEMPO 2302/2306 BKN015=
200906222000 TAF LMML 222000Z 2221/2306 29013KT CAVOK
                      PROB30 TEMPO 2221/2306 9999 FEW020=
200906221700 TAF LMML 221700Z 2218/2303 28016KT 9999 FEW023=
200906221400 TAF LMML 221400Z 2215/2224 28019KT 9999 FEW025=
200906221100 TAF LMML 221100Z 2212/2221 28017KT 9999 SCT025=
200906220800 TAF LMML 220800Z 2209/2218 28017KT 9999 SCT025=
200906220500 TAF LMML 220500Z 2206/2215 28011KT 9999 FEW025=
200906220200 TAF LMML 220200Z 2203/2212 28012KT 9999 SCT020=
200906212300 TAF LMML 212300Z 2200/2209 29012KT 9999 FEW020 SCT120=
200906212000 TAF LMML 212000Z 2121/2206 29015KT CAVOK
                      TEMPO 2121/2103 29015G25KT=
200906211700 TAF LMML 211700Z 2118/2203 29017KT 9999 FEW015
                      PROB30 TEMPO 2121/2203 BKN013=
200906211400 TAF LMML 211400Z 2115/2124 29017KT 9999 FEW020 SCT120
                      PROB30 TEMPO 2115/2118 29018G28KT=
200906211100 TAF LMML 211100Z 2112/2121 29017KT 9999 FEW020 SCT120
                      TEMPO 2112/2118 29017G27KT
                      PROB30 TEMPO 2112/2115 8000 SHRA=
200906210800 TAF LMML 210800Z 2109/2118 29017KT 9999 FEW020 SCT120
                      TEMPO 2109/2118 29017G27KT
                      PROB30 TEMPO 2109/2115 8000 SHRA=
200906210500 TAF LMML 210500Z 2106/2115 30015KT 9999 FEW020 SCT100
                      PROB30 TEMPO 2112/2115 SHRA=
200906210200 TAF LMML 210200Z 2103/2112 28012KT 9999 FEW012
                      PROB30 TEMPO 2103/2106 8000 BKN008=
200906202300 TAF LMML 202300Z 2100/2109 28012KT CAVOK
                      PROB30 TEMPO 2100/2106 8000 SCT008=
200906202000 TAF LMML 202000Z 2021/2106 28012KT 9999 FEW015
                      PROB30 TEMPO 2022/2106 8000 BKN008=
200906201700 TAF LMML 201700Z 2018/2103 27008KT 9999 FEW015 SCT110
                      PROB30 TEMPO 2021/2103 7000 BKN006 SCT110=
200906201400 TAF LMML 201400Z 2015/2024 26008KT 9999 FEW015
                      PROB30 TEMPO 2021/2024 8000 BKN011=
200906201100 TAF LMML 201100Z 2012/2021 26008KT 9999 FEW015=
200906200800 TAF LMML 200800Z 2009/2018 26008KT 9999 FEW015
                      BECMG 2015/2018 CAVOK=
200906200500 TAF LMML 200500Z 2006/2015 27005KT CAVOK
                      PROB40 TEMPO 2006/2011 9999 FEW015=
200906200200 TAF LMML 200200Z 2003/2012 27005KT CAVOK
                      TEMPO 2003/2009 9999 FEW015
                      PROB30 TEMPO 2003/2007 8000 BKN005=
200906192300 TAF LMML 192300Z 2000/2009 VRB04KT CAVOK
                      PROB40 TEMPO 2000/2009 9999 SCT010
                      PROB30 TEMPO 2000/2006 5000 BR BKN005=
200906192000 TAF LMML 192000Z 1921/2006 VRB04KT CAVOK
                      PROB40 TEMPO 1921/2006 8000 SCT008
                      PROB30 TEMPO 1923/2006 4000 BR BKN004=
200906191700 TAF LMML 191700Z 1918/2003 24004KT CAVOK
                      PROB30 TEMPO 2000/2003 8000 SCT005=
200906191400 TAF LMML 191400Z 1915/1924 18005KT 9999 FEW015
                      PROB30 TEMPO 1918/1924 SCT006=
200906191100 TAF LMML 191100Z 1912/1921 12006KT 9999 FEW020=
200906190800 TAF LMML 190800Z 1909/1918 09005KT 9999 FEW009 BKN250
                      BECMG 1910/1913 9999 FEW018=
200906190500 TAF LMML 190500Z 1906/1915 08006KT 8000 SCT011
                      BECMG 1906/1909 9999=
200906190200 TAF LMML 190200Z 1903/1912 07004KT 8000 SCT011
                      TEMPO 1903/1906 5000 BR BKN005
                      PROB30 TEMPO 1903/1906 0600 BCFG BKN001
                      BECMG 1906/1909 9999=
200906182300 TAF LMML 182300Z 1900/1909 08004KT 8000 SCT011
                      TEMPO 1900/1906 4000 BR BKN004
                      PROB30 TEMPO 1900/1906 0600 BCFG BKN001
                      BECMG 1906/1909 9999=
200906182000 TAF LMML 182000Z 1821/1906 08004KT 9000 FEW012
                      TEMPO 1821/1906 5000 BR BKN005
                      PROB30 TEMPO 1900/1906 0800 BCFG BKN001=
200906181700 TAF LMML 181700Z 1818/1903 09005KT CAVOK
                      TEMPO 1818/1903 9999 SCT010
                      PROB40 TEMPO 1821/1903 5000 BR BKN005
                      PROB30 TEMPO 1900/1903 1000 BCFG BKN003=
200906181400 TAF LMML 181400Z 1815/1824 09005KT CAVOK
                      PROB40 TEMPO 1818/1824 9999 SCT010
                      PROB30 TEMPO 1821/1824 5000 BR BKN005=
200906181100 TAF LMML 181100Z 1812/1821 08005KT CAVOK
                      PROB30 TEMPO 1818/1821 9999 FEW012=
200906180800 TAF LMML 180800Z 1809/1818 VRB05KT CAVOK=
200906180500 TAF LMML 180500Z 1806/1815 30005KT CAVOK=
200906180200 TAF LMML 180200Z 1803/1812 31004KT CAVOK
                      PROB30 TEMPO 1803/1805 8000 FEW004=
200906172300 TAF LMML 172300Z 1800/1809 31005KT CAVOK
                      PROB 30
                      TEMPO 1800/1805 8000 FEW004=
200906172000 TAF LMML 172000Z 1721/1806 30005KT CAVOK
                      PROB30 TEMPO 1800/1805 8000 FEW004=
200906171700 TAF LMML 171700Z 1718/1803 29007KT CAVOK
                      PROB30 TEMPO 1800/1803 9000 FEW007=
200906171400 TAF LMML 171400Z 1715/1724 30008KT CAVOK
                      PROB30 TEMPO 1721/1724 9000 FEW008=
200906171100 TAF LMML 171100Z 1712/1721 31008KT CAVOK=
200906170800 TAF LMML 170800Z 1709/1718 31008KT 9999 FEW015
                      BECMG 1709/1712 CAVOK=
200906170500 TAF LMML 170500Z 1706/1715 29006KT CAVOK=
200906170200 TAF LMML 170200Z 1703/1712 27005KT CAVOK
                      PROB30 TEMPO 1703/1706 8000 FEW012=
200906162300 TAF LMML 162300Z 1700/1709 27004KT CAVOK
                      PROB30 TEMPO 1703/1706 8000 FEW012=
200906162000 TAF LMML 162000Z 1621/1706 VRB03KT CAVOK
                      PROB30 TEMPO 1703/1706 8000 FEW012=
200906161700 TAF LMML 161700Z 1618/1703 23004KT CAVOK
                      PROB30 TEMPO 1700/1703 8000 SCT004=
200906161400 TAF LMML 161400Z 1615/1624 19006KT 9999 FEW025
                      BECMG 1615/1618 CAVOK
                      PROB30 TEMPO 1622/1624 SCT004=
200906161100 TAF LMML 161100Z 1612/1621 VRB05KT 9999 FEW025
                      BECMG 1615/1618 CAVOK=
200906160800 TAF LMML 160800Z 1609/1618 VRB05KT CAVOK=
200906160500 TAF LMML 160500Z 1606/1615 VRB05KT CAVOK
                      PROB40 TEMPO 1606/1612 9999 FEW012=
200906160200 TAF LMML 160200Z 1603/1612 VRB05KT 9999 FEW012
                      PROB40 TEMPO 1603/1607 8000 BKN010
                      PROB30 TEMPO 1603/1606 3000 BR BKN003
                      BECMG 1606/1609 CAVOK=
200906152300 TAF LMML 152300Z 1600/1609 VRB05KT CAVOK
                      PROB40 TEMPO 8000 FEW010
                      PROB30 TEMPO 1600/1605 3000 BR BKN003=
200906152000 TAF LMML 152000Z 1521/1606 VRB05KT CAVOK
                      PROB40 TEMPO 1600/1605 8000 FEW010
                      PROB30 TEMPO 1601/1605 5000 BR BKN003=
200906151700 TAF LMML 151700Z 1518/1603 12005KT CAVOK
                      PROB40 TEMPO 1520/1603 SCT008=
200906151400 TAF LMML 151400Z 1515/1524 12008KT CAVOK
                      PROB40 TEMPO 1518/1524 FEW008=
200906151100 TAF LMML 151100Z 1512/1521 09008KT CAVOK
                      PROB40 TEMPO 1512/1521 FEW012=
200906150800 TAF LMML 150800Z 1509/1518 09006KT 9999 FEW018
                      PROB40 TEMPO 1512/1518 FEW008=
200906150500 TAF LMML 150500Z 1506/1515 VRB04KT CAVOK=
200906150200 TAF LMML 150200Z 1503/1512 VRB04KT CAVOK
                      PROB30 TEMPO 1503/1505 5000 BR FEW003=
200906142300 TAF LMML 142300Z 1500/1509 VRB03KT CAVOK
                      PROB30 TEMPO 1501/1506 5000 BR FEW003=
200906142000 TAF LMML 142000Z 1421/1506 VRB02KT CAVOK
                      PROB30 TEMPO 1501/1505 5000 BR FEW003=
200906141700 TAF LMML 141700Z 1418/1503 VRB05KT CAVOK
                      PROB40 TEMPO 1422/1503 5000 BR SCT005
                      PROB30 TEMPO 1500/1503 1000 BCFG BKN003=
200906141400 TAF LMML 141400Z 1415/1424 VRB05KT CAVOK
                      PROB30 TEMPO 1415/1424 9999 FEW015=
200906141100 TAF LMML 141100Z 1412/1421 VRB05KT CAVOK
                      PROB30 TEMPO 1412/1421 9999 FEW015=
200906140800 TAF LMML 140800Z 1409/1418 VRB05KT 9999 FEW012
                      TEMPO 1409/1418 CAVOK=
200906140500 TAF LMML 140500Z 1406/1415 VRB05KT CAVOK
                      PROB30 TEMPO 1406/1409 9999 FEW008=
200906140200 TAF LMML 140200Z 1403/1412 VRB05KT CAVOK
                      PROB40 TEMPO 1403/1407 8000 FEW008
                      PROB30 TEMPO 1403/1406 5000 BR BKN005=
200906132300 TAF LMML 132300Z 1400/1409 VRB03KT CAVOK
                      PROB40 TEMPO 1400/1407 8000 FEW008
                      PROB30 TEMPO 1402/1406 5000 BR BKN005=
200906132000 TAF LMML 132000Z 1321/1406 VRB03KT CAVOK
                      PROB30 TEMPO 1400/1406 8000 FEW008=
200906131700 TAF LMML 131700Z 1318/1403 VRB03KT CAVOK=
200906131400 TAF LMML 131400Z 1315/1324 VRB04KT CAVOK=
200906131100 TAF LMML 131100Z 1312/1321 36005KT CAVOK=
200906130800 TAF LMML 130800Z 1309/1318 33008KT CAVOK=
200906130500 TAF LMML 130500Z 1306/1315 VRB06KT CAVOK=
200906130200 TAF LMML 130200Z 1303/1312 07005KT CAVOK
                      PROB30 TEMPO 1303/1306 8000 FEW008=
200906122300 TAF LMML 122300Z 1300/1309 VRB03KT CAVOK
                      PROB30 1303/13006 8000 FEW008=
200906122000 TAF LMML 122000Z 1221/1306 33004KT CAVOK
                      PROB30 TEMPO 1303/1306 8000 FEW008
                      BECMG 1303/1306 07004KT=
200906121700 TAF LMML 121700Z 1218/1303 33010KT CAVOK
                      PROB30 TEMPO 1221/1303 9000 FEW005
                      BECMG 1300/1303 05005KT=
200906121400 TAF LMML 121400Z 1215/1224 VRB06KT 9999 FEW020
                      TEMPO 1215/1224 CAVOK=
200906121100 TAF LMML 121100Z 1212/1221 31010KT CAVOK=
200906120800 TAF LMML 120800Z 1209/1218 31010KT CAVOK
                      PROB30 TEMPO 1209/1212 9999 FEW012=
200906120500 TAF LMML 120500Z 1206/1215 30007KT CAVOK=
200906120200 TAF LMML 120200Z 1203/1212 30006KT CAVOK
                      PROB30 TEMPO 1203/1206 8000 FEW010=
200906112300 TAF LMML 112300Z 1200/1209 30005KT CAVOK
                      PROB30 TEMPO 1200/1206 8000 FEW010=
200906112000 TAF LMML 112000Z 1121/1206 30005KT CAVOK
                      PROB30 TEMPO 1123/1206 8000 FEW008=
200906111700 TAF LMML 111700Z 1118/1203 30004KT CAVOK
                      PROB30 TEMPO 1201/1203 8000 FEW005=
200906111400 TAF LMML 111400Z 1115/1124 VRB06KT CAVOK
                      BECMG 1118/1121 30005KT=
200906111100 TAF LMML 111100Z 1112/1121 32010KT CAVOK=
200906110800 TAF LMML 110800Z 1109/1118 32010KT CAVOK=
200906110500 TAF LMML 110500Z 1106/1115 29008KT CAVOK=
200906110200 TAF LMML 110200Z 1103/1112 28008KT CAVOK
                      PROB30 TEMPO 1103/1106 9999 FEW011=
200906102300 TAF LMML 102300Z 1100/1109 27005KT CAVOK
                      TEMPO 1100/1106 9000 FEW008
                      PROB30 TEMPO 1100/1106 7000 SCT006=
200906102000 TAF LMML 102000Z 1021/1106 31007KT CAVOK
                      TEMPO 1021/1106 9000 FEW008
                      PROB30 TEMPO 1021/1106 5000 BKN005=
200906101700 TAF LMML 101700Z 1018/1103 30007KT CAVOK
                      PROB30 TEMPO 1020/1103 7000 FEW008=
200906101400 TAF LMML 101400Z 1015/1024 30007KT CAVOK
                      PROB30 TEMPO 1022/1024 8000 FEW008=
200906101100 TAF LMML 101100Z 1012/1021 03007KT CAVOK=
200906100800 TAF LMML 100800Z 1009/1018 VRB05KT CAVOK=
200906100500 TAF LMML 100500Z 1006/1015 VRB05KT 8000 FEW008
                      PROB40 TEMPO 1006/1009 5000 BR BKN005
                      BECMG 1007/1010 CAVOK=
200906100200 TAF LMML 100200Z 1003/1012 VRB04KT 2000 BR SCT001
                      TEMPO 1003/1006 5000 BKN005
                      PROB30 TEMPO 1003/1006 0800 FG BKN001
                      BECMG 1005/1008 CAVOK=
200906092300 TAF LMML 092300Z 1000/1009 08005KT CAVOK
                      PROB30 TEMPO 1000/1005 9000 FEW005=
200906092000 TAF LMML 092000Z 0921/1006 09008KT CAVOK=
200906091700 TAF LMML 091700Z 0918/1003 10008KT CAVOK
                      PROB30 TEMPO 1000/1003 9999 FEW008=
200906091400 TAF LMML 091400Z 0915/0924 10010KT CAVOK=
200906091100 TAF LMML 091100Z 0912/0921 11010KT CAVOK=
200906090800 TAF LMML 090800Z 0909/0918 08009KT CAVOK=
200906090500 TAF LMML 090500Z 0906/0915 12010KT CAVOK=
200906090200 TAF LMML 090200Z 0903/0912 12006KT CAVOK
                      PROB30 TEMPO 0903/0905 9000 FEW005=
200906082300 TAF LMML 082300Z 0900/0909 08004KT CAVOK
                      PROB30 TEMPO 0901/0905 6000 FEW003=
200906082000 TAF LMML 082000Z 0821/0906 VRB03KT CAVOK
                      PROB30 TEMPO 0822/0905 9000 FEW005=
200906081700 TAF LMML 081700Z 0818/0903 VRB05KT CAVOK
                      PROB40 TEMPO 0818/0903 8000 NSC
                      PROB30 TEMPO 0818/0903 9999 FEW005
                      PROB30 TEMPO 0821/0803 5000 BR BKN005=
200906081400 TAF LMML 081400Z 0815/0824 VRB04KT CAVOK
                      PROB30 TEMPO 0820/0824 8000 FEW005=
200906081100 TAF LMML 081100Z 0812/0821 VRB05KT CAVOK=
200906080800 TAF LMML 080800Z 0809/0818 VRB04KT CAVOK=
200906080500 TAF LMML 080500Z 0806/0815 01004KT CAVOK
                      PROB30 TEMPO 0806/0809 9999 FEW015=
200906080200 TAF LMML 080200Z 0803/0812 03004KT 9999 SCT005
                      TEMPO 0803/0806 7000 BKN005
                      PROB30 TEMPO 0803/0805 5000 BR=
200906072300 TAF LMML 072300Z 0800/0809 35005KT 9999 SCT005
                      TEMPO 0800/0806 7000 BKN005
                      PROB30 TEMPO 0800/0805 5000 BR=
200906072000 TAF LMML 072000Z 0721/0806 03004KT 9000 FEW012
                      TEMPO 0721/0806 CAVOK
                      PROB30 TEMPO 0722/0805 5000 BR BKN005=
200906071700 TAF LMML 071700Z 0718/0803 VRB03KT CAVOK
                      PROB40 TEMPO 0718/0803 8000 SCT005=
200906071400 TAF LMML 071400Z 0715/0724 20006KT CAVOK
                      PROB30 TEMPO 0715/0724 FEW010
                      BECMG 0718/0724 30006KT SCT008=
200906071100 TAF LMML 071100Z 0712/0721 18010KT CAVOK
                      PROB40 TEMPO 0712/0721 FEW010
                      BECMG 0718/0721 30006KT SCT008=
200906070800 TAF LMML 070800Z 0709/0718 13010KT CAVOK
                      PROB40 TEMPO 0709/0718 9000 FEW011=
200906070500 TAF LMML 070500Z 0706/0715 11012KT CAVOK
                      TEMPO 0706/0715 9999 FEW015 BKN200=
200906070200 TAF LMML 070200Z 0703/0712 10007KT CAVOK
                      TEMPO 0703/0712 9999 FEW011 BKN200
                      PROB30 TEMPO 0703/0706 9000 BKN007 BKN200=
200906062300 TAF LMML 062300Z 0700/0709 12010KT CAVOK
                      TEMPO 0700/0709 9999 FEW011
                      PROB30 TEMPO 0700/0706 9000 BKN007=
200906062000 TAF LMML 062000Z 0621/0706 14013KT CAVOK
                      TEMPO 0621/0706 9999 FEW011 SCT120
                      PROB30 TEMPO 0621/0706 9000 BKN008 BKN100=
200906061700 TAF LMML 061700Z 0618/0703 14013KT CAVOK
                      TEMPO 0618/0703 9999 FEW012
                      PROB30 TEMPO 0622/0703 BKN008=
200906061400 TAF LMML 061400Z 0615/0624 14015KT CAVOK
                      PROB30 TEMPO 0615/0624 9999 SCT012=
200906061100 TAF LMML 061100Z 0612/0621 15015KT CAVOK
                      PROB30 TEMPO 0612/0621 9999 FEW012=
200906060800 TAF LMML 060800Z 0609/0618 16015KT CAVOK
                      PROB30 TEMPO 0609/0618 9999 FEW012=
200906060500 TAF LMML 060500Z 0606/0615 16015KT 9999 FEW009
                      BECMG 0606/0609 FEW015
                      PROB40 TEMPO 0609/0615 CAVOK=
200906060200 TAF LMML 060200Z 0603/0612 16012KT 9999 SCT005
                      PROB30 TEMPO 0603/0607 6000 BKN006
                      BECMG 0605/0608 9999 BKN012=
200906052300 TAF LMML 052300Z 0600/0609 16012KT CAVOK
                      TEMPO 0600/0609 9999 FEW012
                      PROB30 TEMPO 0600/0609 8000 BKN008=
200906052000 TAF LMML 052000Z 0521/0606 16009KT CAVOK
                      TEMPO 0600/0606 9999 FEW012
                      PROB30 TEMPO 0600/0606 9000 BKN008=
200906051700 TAF LMML 051700Z 0518/0603 15009KT CAVOK
                      TEMPO 0518/0603 9999 FEW011
                      PROB30 TEMPO 0600/0603 9000 BKN008=
200906051400 TAF LMML 051400Z 0515/0524 19008KT CAVOK
                      BECMG 0521/0524 13013KT 9999 FEW011=
200906051100 TAF LMML 051100Z 0512/0521 16008KT CAVOK=
200906050800 TAF LMML 050800Z 0509/0518 16007KT CAVOK=
200906050500 TAF LMML 050500Z 0506/0515 18008KT CAVOK=
200906050200 TAF LMML 050200Z 0503/0512 20005KT CAVOK
                      PROB30 TEMPO 0503/0505 8000=
200906042300 TAF LMML 042300Z 0500/0509 21004KT CAVOK
                      PROB30 TEMPO 0503/0505 8000=
200906042000 TAF LMML 042000Z 0421/0506 VRB03KT CAVOK
                      PROB30 TEMPO 0503/0505 8000=
200906041700 TAF LMML 041700Z 0418/0503 VRB04KT CAVOK
                      PROB40 TEMPO 0418/0503 8000 FEW012
                      PROB30 TEMPO 0422/0503 4000 BR BKN004=
200906041400 TAF LMML 041400Z 0415/0424 VRB05KT 9999 FEW025
                      TEMPO 0415/0424 CAVOK
                      PROB30 TEMPO 0421/0424 8000 BKN008=
200906041100 TAF LMML 041100Z 0412/0421 VRB05KT CAVOK
                      PROB40 TEMPO 0412/0421 9999 FEW018=
200906040800 TAF LMML 040800Z 0409/0418 VRB05KT CAVOK
                      PROB30 TEMPO 0409/0418 9999 FEW018=
200906040500 TAF LMML 040500Z 0406/0415 29007KT CAVOK
                      PROB30 TEMPO 0406/0415 9999 FEW020=
200906040200 TAF LMML 040200Z 0403/0412 29007KT CAVOK
                      PROB30 TEMPO 0403/0412 9999 FEW020=
200906032300 TAF LMML 032300Z 0400/0409 28005KT CAVOK
                      PROB30 TEMPO 0400/0409 9999 FEW020=
200906032000 TAF LMML 032000Z 0321/0406 28007KT 9999 FEW020
                      PROB40 TEMPO 0321/0406 CAVOK=
200906031700 TAF LMML 031700Z 0318/0403 30015KT 9999 FEW025
                      BECMG 0321/0324 30005KT=
200906031400 TAF LMML 031400Z 0315/0324 31010KT 9999 FEW025=
200906031100 TAF LMML 031100Z 0312/0321 29014KT 9999 FEW025=
200906030800 TAF LMML 030800Z 0309/0318 30014KT 9999 FEW025=
200906030500 TAF LMML 030500Z 0306/0315 30013KT 9999 FEW020=
200906030200 TAF LMML 030200Z 0303/0312 28013KT 9999 FEW015
                      PROB30 TEMPO 0303/0306 9000 BKN010=
200906022300 TAF LMML 022300Z 0300/0309 28013KT CAVOK
                      TEMPO 0300/0309 9999 SCT013
                      PROB30 TEMPO 0300/0306 8000 BKN007=
200906022000 TAF LMML 022000Z 0221/0306 23009KT 9999 SCT012
                      TEMPO 0221/0306 9000 BKN008
                      PROB30 TEMPO 0221/0306 5000 BKN005
                      BECMG 0221/0224 29014KT=
200906021700 TAF LMML 021700Z 0218/0303 27015KT 9999 FEW020=
200906021400 TAF LMML 021400Z 0215/0224 27015KT 9999 FEW020=
200906021100 TAF LMML 021100Z 0212/0221 27015KT 9999 FEW020=
200906020800 TAF LMML 020800Z 0209/0218 29015KT 9999 SCT020=
200906020500 TAF LMML 020500Z 0206/0215 29016KT 9999 FEW015
                      TEMPO 0206/0215 CAVOK=
200906020200 TAF LMML 020200Z 0203/0212 30018KT CAVOK
                      TEMPO 0203/0212 9999 FEW015
                      PROB40 TEMPO 0203/0209 7000 BKN007=
200906012300 TAF LMML 012300Z 0200/0209 30018KT CAVOK
                      TEMPO 0200/0209 9999 FEW015
                      PROB40 TEMPO 0200/0209 7000 NSC
                      PROB30 TEMPO 0200/0209 BKN009=
200906012000 TAF LMML 012000Z 0121/0206 31018KT 9999 FEW014
                      TEMPO 0121/0206 CAVOK
                      PROB40 TEMPO 0121/0206 7000 NSC
                      PROB30 TEMPO 0200/0206 BKN009=
200906011700 TAF LMML 011700Z 0118/0203 29014KT 9000 SCT013
                      BECMG 0118/0121 9999
                      TEMPO 0118/0203 8000 BKN010
                      PROB30 TEMPO 0120/0203 5000 BKN005=
200906011400 TAF LMML 011400Z 0115/0124 22012KT CAVOK
                      BECMG 0115/0118 28017KT 9999 SCT015
                      TEMPO 0115/0121 29020G30KT
                      PROB30 TEMPO 0118/0124 9000 BKN010=
200906011100 TAF LMML 011100Z 0112/0121 18012KT 9000 NSC
                      BECMG 0112/0115 28017KT 9999 SCT015
                      PROB30 TEMPO 0114/0121 29020G30KT BKN010=
200906010800 TAF LMML 010800Z 0109/0118 12020KT CAVOK
                      TEMPO 0109/0112 12025G35KT 9000 NSC
                      BECMG 0110/0113 19010KT 9999 SCT015
                      BECMG 0112/0115 28015KT
                      TEMPO 0114/0118 29020G30KT=
200906010500 TAF LMML 010500Z 0106/0115 13017KT 9999 FEW020 SCT040 BKN100
                      TEMPO 0106/0109 8000 RA
                      PROB30 TEMPO 0106/0109 6000 TSRA FEW008 SCT050CB=
200906010200 TAF LMML 010200Z 0103/0112 14017KT CAVOK
                      PROB30 TEMPO 0103/0106 8000 TSRA FEW008 SCT060
                       BKN100=

###################################
#  large TAF from LMML
###################################
200907012300 TAF LMML NIL=
200907011700 TAF LMML NIL=
200907011100 TAF LMML NIL=
200907010500 TAF LMML NIL=
200906302300 TAF LMML NIL=
200906301700 TAF LMML NIL=
200906301100 TAF LMML NIL=
200906300500 TAF LMML NIL=
200906292300 TAF LMML NIL=
200906291700 TAF LMML NIL=
200906291100 TAF LMML NIL=
200906290500 TAF LMML NIL=
200906282300 TAF LMML NIL=
200906281700 TAF LMML NIL=
200906281100 TAF LMML NIL=
200906280500 TAF LMML NIL=
200906272300 TAF LMML NIL=
200906271700 TAF LMML NIL=
200906271100 TAF LMML NIL=
200906270500 TAF LMML NIL=
200906262300 TAF LMML NIL=
200906261700 TAF LMML NIL=
200906261100 TAF LMML NIL=
200906260500 TAF LMML NIL=
200906252300 TAF LMML NIL=
200906251700 TAF LMML NIL=
200906251100 TAF LMML NIL=
200906250500 TAF LMML NIL=
200906242300 TAF LMML NIL=
200906241700 TAF LMML NIL=
200906241100 TAF LMML NIL=
200906240500 TAF LMML NIL=
200906232300 TAF LMML NIL=
200906231700 TAF LMML NIL=
200906231100 TAF LMML NIL=
200906230500 TAF LMML NIL=
200906222300 TAF LMML NIL=
200906221700 TAF LMML NIL=
200906221100 TAF LMML NIL=
200906220500 TAF LMML NIL=
200906212300 TAF LMML NIL=
200906211700 TAF LMML NIL=
200906211100 TAF LMML NIL=
200906210500 TAF LMML NIL=
200906202300 TAF LMML NIL=
200906201700 TAF LMML NIL=
200906201100 TAF LMML NIL=
200906200500 TAF LMML NIL=
200906192300 TAF LMML NIL=
200906191700 TAF LMML NIL=
200906191100 TAF LMML NIL=
200906190500 TAF LMML NIL=
200906182300 TAF LMML NIL=
200906181700 TAF LMML NIL=
200906181100 TAF LMML NIL=
200906180500 TAF LMML NIL=
200906172300 TAF LMML NIL=
200906171700 TAF LMML NIL=
200906171100 TAF LMML NIL=
200906170500 TAF LMML NIL=
200906162300 TAF LMML NIL=
200906161700 TAF LMML NIL=
200906161100 TAF LMML NIL=
200906160500 TAF LMML NIL=
200906152300 TAF LMML NIL=
200906151700 TAF LMML NIL=
200906151100 TAF LMML NIL=
200906150500 TAF LMML NIL=
200906142300 TAF LMML NIL=
200906141700 TAF LMML NIL=
200906141100 TAF LMML NIL=
200906140500 TAF LMML NIL=
200906132300 TAF LMML NIL=
200906131700 TAF LMML NIL=
200906131100 TAF LMML NIL=
200906130500 TAF LMML NIL=
200906122300 TAF LMML NIL=
200906121700 TAF LMML NIL=
200906121100 TAF LMML NIL=
200906120500 TAF LMML NIL=
200906112300 TAF LMML NIL=
200906111700 TAF LMML NIL=
200906111100 TAF LMML NIL=
200906110500 TAF LMML NIL=
200906102300 TAF LMML NIL=
200906101700 TAF LMML NIL=
200906101100 TAF LMML NIL=
200906100500 TAF LMML NIL=
200906092300 TAF LMML NIL=
200906091700 TAF LMML NIL=
200906091100 TAF LMML NIL=
200906090500 TAF LMML NIL=
200906082300 TAF LMML NIL=
200906081700 TAF LMML NIL=
200906081100 TAF LMML NIL=
200906080500 TAF LMML NIL=
200906072300 TAF LMML NIL=
200906071700 TAF LMML NIL=
200906071100 TAF LMML NIL=
200906070500 TAF LMML NIL=
200906062300 TAF LMML NIL=
200906061700 TAF LMML NIL=
200906061100 TAF LMML NIL=
200906060500 TAF LMML NIL=
200906052300 TAF LMML NIL=
200906051700 TAF LMML NIL=
200906051100 TAF LMML NIL=
200906050500 TAF LMML NIL=
200906042300 TAF LMML NIL=
200906041700 TAF LMML NIL=
200906041100 TAF LMML NIL=
200906040500 TAF LMML NIL=
200906032300 TAF LMML NIL=
200906031700 TAF LMML NIL=
200906031100 TAF LMML NIL=
200906030500 TAF LMML NIL=
200906022300 TAF LMML NIL=
200906021700 TAF LMML NIL=
200906021100 TAF LMML NIL=
200906020500 TAF LMML NIL=
200906012300 TAF LMML NIL=
200906011700 TAF LMML NIL=
200906011100 TAF LMML NIL=
200906010500 TAF LMML NIL=
