##########################################################
# Query made at 01/18/2013 15:58:00 UTC
# Time interval: from 06/01/2010 00:00  to 07/01/2010 23:59  UTC
##########################################################

##########################################################
# LMML, Luqa (Malta)
# WMO index: 16597
# Latitude 35-51N. Longitude 014-29E. Altitude 91 m.
##########################################################

###################################
#  METAR/SPECI from LMML
###################################
201007012345 METAR LMML 012345Z VRB03KT CAVOK 21/19 Q1015 NOSIG=
201007012330 METAR LMML NIL=
201007012315 METAR LMML 012315Z VRB03KT CAVOK 22/19 Q1015 NOSIG=
201007012300 METAR LMML NIL=
201007012245 METAR LMML 012245Z VRB03KT CAVOK 22/19 Q1015 NOSIG=
201007012230 METAR LMML NIL=
201007012215 METAR LMML 012215Z VRB03KT CAVOK 22/18 Q1015 NOSIG=
201007012200 METAR LMML NIL=
201007012145 METAR LMML 012145Z VRB03KT CAVOK 22/17 Q1015 NOSIG=
201007012130 METAR LMML NIL=
201007012115 METAR LMML 012115Z VRB02KT CAVOK 23/18 Q1015 NOSIG=
201007012100 METAR LMML NIL=
201007012045 METAR LMML 012045Z VRB01KT CAVOK 23/17 Q1015 NOSIG=
201007012030 METAR LMML NIL=
201007012015 METAR LMML 012015Z VRB02KT 9999 FEW020 23/16 Q1015 NOSIG=
201007012000 METAR LMML NIL=
201007011945 METAR LMML 011945Z VRB02KT 9999 FEW020 23/17 Q1015 NOSIG=
201007011930 METAR LMML NIL=
201007011915 METAR LMML 011915Z VRB02KT 9999 FEW020 24/16 Q1015 NOSIG=
201007011900 METAR LMML NIL=
201007011845 METAR LMML 011845Z 31004KT 9999 FEW020 24/16 Q1015 NOSIG=
201007011830 METAR LMML NIL=
201007011815 METAR LMML 011815Z 33006KT 9999 FEW020 25/17 Q1014 NOSIG=
201007011800 METAR LMML NIL=
201007011745 METAR LMML 011745Z 35006KT 320V040 9999 FEW020 26/14 Q1014
                        NOSIG=
201007011730 METAR LMML NIL=
201007011715 METAR LMML 011715Z 01005KT 290V080 CAVOK 27/12 Q1014 NOSIG=
201007011700 METAR LMML NIL=
201007011645 METAR LMML 011645Z 02004KT 350V060 CAVOK 28/17 Q1014 NOSIG=
201007011630 METAR LMML NIL=
201007011615 METAR LMML 011615Z 01005KT 330V060 CAVOK 29/18 Q1014 NOSIG=
201007011600 METAR LMML NIL=
201007011545 METAR LMML 011545Z 01004KT 310V060 CAVOK 29/16 Q1014 NOSIG=
201007011530 METAR LMML NIL=
201007011515 METAR LMML 011515Z 33005KT 220V030 CAVOK 30/16 Q1014 NOSIG=
201007011500 METAR LMML NIL=
201007011445 METAR LMML 011445Z 19007KT 160V230 CAVOK 29/16 Q1014 NOSIG=
201007011430 METAR LMML NIL=
201007011415 METAR LMML 011415Z 22007KT 190V280 9999 FEW040 28/18 Q1014
                        NOSIG=
201007011400 METAR LMML NIL=
201007011345 METAR LMML 011345Z 20004KT 150V260 9999 FEW040 28/19 Q1014
                        NOSIG=
201007011330 METAR LMML NIL=
201007011315 METAR LMML 011315Z 19004KT 130V260 9999 FEW039 28/20 Q1015
                        NOSIG=
201007011300 METAR LMML NIL=
201007011245 METAR LMML 011245Z 21006KT 160V260 9999 FEW040 28/19 Q1015
                        NOSIG=
201007011230 METAR LMML NIL=
201007011215 METAR LMML 011215Z 17004KT 080V220 9999 FEW030 28/19 Q1015
                        NOSIG=
201007011200 METAR LMML NIL=
201007011145 METAR LMML 011145Z VRB03KT CAVOK 31/16 Q1015 NOSIG=
201007011130 METAR LMML NIL=
201007011115 METAR LMML 011115Z 02005KT 330V070 CAVOK 30/14 Q1015 NOSIG=
201007011100 METAR LMML NIL=
201007011045 METAR LMML 011045Z 03005KT 330V080 CAVOK 29/17 Q1015 NOSIG=
201007011030 METAR LMML NIL=
201007011015 METAR LMML 011015Z 02004KT 340V080 9999 FEW020 29/17 Q1015
                        NOSIG=
201007011000 METAR LMML NIL=
201007010945 METAR LMML 010945Z 04006KT 350V080 9999 FEW020 28/17 Q1015
                        NOSIG=
201007010930 METAR LMML NIL=
201007010915 METAR LMML 010915Z 01004KT 320V130 CAVOK 29/18 Q1015 NOSIG=
201007010900 METAR LMML NIL=
201007010845 METAR LMML 010845Z 02005KT 340V070 9000 NSC 28/18 Q1015 BECMG
                        CAVOK=
201007010830 METAR LMML NIL=
201007010815 METAR LMML 010815Z 36004KT 310V050 9000 NSC 27/20 Q1015 BECMG
                        CAVOK=
201007010800 METAR LMML NIL=
201007010745 METAR LMML 010745Z VRB03KT 7000 NSC 27/20 Q1015 BECMG CAVOK=
201007010730 METAR LMML NIL=
201007010715 METAR LMML 010715Z VRB02KT 7000 NSC 26/19 Q1015 BECMG 9999=
201007010700 METAR LMML NIL=
201007010645 METAR LMML 010645Z VRB02KT 7000 FEW011 24/19 Q1015 BECMG
                        9999=
201007010630 METAR LMML NIL=
201007010615 METAR LMML 010615Z VRB01KT 7000 FEW011 23/21 Q1015 BECMG
                        9999=
201007010600 METAR LMML NIL=
201007010545 METAR LMML 010545Z VRB02KT 5000 BR FEW003 22/21 Q1015 BECMG
                        9999=
201007010530 METAR LMML NIL=
201007010515 METAR LMML 010515Z VRB03KT 5000 BR FEW003 21/20 Q1014 BECMG
                        9999=
201007010500 METAR LMML NIL=
201007010445 METAR LMML 010445Z VRB02KT 5000 BR FEW005 21/20 Q1015 BECMG
                        9999=
201007010430 METAR LMML NIL=
201007010415 METAR LMML 010415Z VRB02KT 6000 FEW007 20/19 Q1015 NOSIG=
201007010400 METAR LMML NIL=
201007010345 METAR LMML 010345Z VRB01KT 6000 FEW007 20/19 Q1015 NOSIG=
201007010330 METAR LMML NIL=
201007010315 METAR LMML 010315Z VRB01KT 6000 FEW007 21/20 Q1015 BECMG
                        5000 BR=
201007010300 METAR LMML NIL=
201007010245 METAR LMML 010245Z 28005KT 240V300 6000 BKN006 21/20 Q1015
                        NOSIG=
201007010230 METAR LMML NIL=
201007010215 METAR LMML 010215Z VRB03KT 6000 BKN005 21/20 Q1015 NOSIG=
201007010200 METAR LMML NIL=
201007010145 METAR LMML 010145Z 26004KT 220V290 6000 SCT003 21/20 Q1015
                        NOSIG=
201007010130 METAR LMML NIL=
201007010115 METAR LMML 010115Z 24006KT 200V290 6000 SCT003 21/20 Q1015
                        NOSIG=
201007010100 METAR LMML NIL=
201007010045 METAR LMML 010045Z 23007KT 190V290 9000 BKN002 21/20 Q1015
                        NOSIG=
201007010030 METAR LMML NIL=
201007010015 METAR LMML 010015Z 24004KT 210V280 9000 BKN002 21/20 Q1015
                        NOSIG=
201007010000 METAR LMML NIL=
201006302345 METAR LMML 302345Z 23005KT 200V280 9000 BKN002 21/20 Q1015
                        NOSIG=
201006302315 METAR LMML 302315Z VRB03KT 9000 NSC 21/20 Q1015 NOSIG=
201006302245 METAR LMML 302245Z 23007KT 200V270 CAVOK 21/19 Q1016 NOSIG=
201006302230 METAR LMML NIL=
201006302215 METAR LMML 302215Z 21005KT CAVOK 21/19 Q1015 NOSIG=
201006302145 METAR LMML 302145Z VRB03KT CAVOK 22/19 Q1016 NOSIG=
201006302115 METAR LMML 302115Z VRB02KT CAVOK 22/17 Q1016 NOSIG=
201006302100 METAR LMML NIL=
201006302045 METAR LMML 302045Z VRB02KT CAVOK 22/15 Q1016 NOSIG=
201006302015 METAR LMML 302015Z VRB01KT CAVOK 23/15 Q1016 NOSIG=
201006302000 METAR LMML NIL=
201006301945 METAR LMML 301945Z VRB03KT CAVOK 23/15 Q1016 NOSIG=
201006301915 METAR LMML 301915Z VRB03KT CAVOK 23/15 Q1015 NOSIG=
201006301900 METAR LMML NIL=
201006301845 METAR LMML 301845Z 30005KT CAVOK 24/14 Q1015 NOSIG=
201006301830 METAR LMML NIL=
201006301815 METAR LMML 301815Z 32005KT 300V360 9999 FEW009 24/14 Q1015
                        NOSIG=
201006301745 METAR LMML 301745Z 31005KT 270V340 CAVOK 26/14 Q1015 NOSIG=
201006301715 METAR LMML 301715Z 31006KT CAVOK 27/14 Q1015 NOSIG=
201006301700 METAR LMML NIL=
201006301645 METAR LMML 301645Z 28006KT 250V320 CAVOK 28/12 Q1015 NOSIG=
201006301630 METAR LMML NIL=
201006301615 METAR LMML 301615Z 28007KT 240V320 CAVOK 28/13 Q1015 NOSIG=
201006301600 METAR LMML NIL=
201006301545 METAR LMML 301545Z 28007KT 230V330 CAVOK 30/12 Q1015 NOSIG=
201006301530 METAR LMML NIL=
201006301515 METAR LMML 301515Z 30009KT 260V340 CAVOK 30/13 Q1015 NOSIG=
201006301500 METAR LMML NIL=
201006301445 METAR LMML 301445Z 30011KT CAVOK 29/11 Q1015 NOSIG=
201006301430 METAR LMML NIL=
201006301415 METAR LMML 301415Z 31009KT 280V340 CAVOK 30/13 Q1015 NOSIG=
201006301400 METAR LMML NIL=
201006301345 METAR LMML 301345Z 30009KT 250V340 9999 FEW030 29/13 Q1015
                        NOSIG=
201006301330 METAR LMML NIL=
201006301315 METAR LMML 301315Z 31008KT 280V340 9999 FEW030 31/13 Q1016
                        NOSIG=
201006301300 METAR LMML NIL=
201006301245 METAR LMML 301245Z VRB02KT 9999 FEW030 30/12 Q1016 NOSIG=
201006301230 METAR LMML NIL=
201006301215 METAR LMML 301215Z 14006KT 080V190 9999 FEW030 28/17 Q1016
                        NOSIG=
201006301200 METAR LMML NIL=
201006301145 METAR LMML 301145Z VRB03KT 9999 FEW030 28/17 Q1016 NOSIG=
201006301130 METAR LMML NIL=
201006301115 METAR LMML 301115Z 10006KT 050V160 9999 FEW030 29/18 Q1016
                        NOSIG=
201006301100 METAR LMML NIL=
201006301045 METAR LMML 301045Z 12007KT 080V170 9999 FEW020 29/16 Q1016
                        NOSIG=
201006301030 METAR LMML NIL=
201006301015 METAR LMML 301015Z 35005KT 280V100 9999 FEW020 30/14 Q1016
                        NOSIG=
201006301000 METAR LMML NIL=
201006300945 METAR LMML 300945Z 31007KT 270V340 9999 FEW009 30/13 Q1016
                        NOSIG=
201006300930 METAR LMML NIL=
201006300915 METAR LMML 300915Z 31006KT 200V360 CAVOK 29/14 Q1016 NOSIG
                        RMK SEA FOG PATCHES=
201006300900 METAR LMML NIL=
201006300845 METAR LMML 300845Z 31006KT 270V340 CAVOK 28/14 Q1016 NOSIG=
201006300830 METAR LMML NIL=
201006300815 METAR LMML 300815Z 28007KT 210V330 CAVOK 28/13 Q1015 NOSIG=
201006300800 METAR LMML NIL=
201006300745 METAR LMML 300745Z 30005KT 210V360 9999 FEW012 28/18 Q1015
                        NOSIG=
201006300730 METAR LMML NIL=
201006300715 METAR LMML 300715Z 32004KT 270V020 9999 FEW012 27/12 Q1015
                        NOSIG=
201006300700 METAR LMML NIL=
201006300645 METAR LMML 300645Z 32004KT 280V350 CAVOK 26/14 Q1015 NOSIG=
201006300630 METAR LMML NIL=
201006300615 METAR LMML 300615Z VRB02KT 9999 FEW015 25/12 Q1015 NOSIG=
201006300600 METAR LMML NIL=
201006300545 METAR LMML 300545Z VRB02KT 9999 FEW015 24/12 Q1015 NOSIG=
201006300530 METAR LMML NIL=
201006300515 METAR LMML 300515Z VRB03KT CAVOK 22/13 Q1015 NOSIG=
201006300500 METAR LMML NIL=
201006300445 METAR LMML 300445Z VRB03KT CAVOK 20/14 Q1015 NOSIG=
201006300430 METAR LMML NIL=
201006300415 METAR LMML 300415Z VRB03KT CAVOK 20/15 Q1015 NOSIG=
201006300400 METAR LMML NIL=
201006300345 METAR LMML 300345Z VRB02KT CAVOK 19/15 Q1015 NOSIG=
201006300330 METAR LMML NIL=
201006300315 METAR LMML 300315Z VRB02KT CAVOK 19/16 Q1015 NOSIG=
201006300300 METAR LMML NIL=
201006300245 METAR LMML 300245Z VRB03KT CAVOK 20/17 Q1015 NOSIG=
201006300230 METAR LMML NIL=
201006300215 METAR LMML 300215Z VRB01KT CAVOK 20/17 Q1015 NOSIG=
201006300200 METAR LMML NIL=
201006300145 METAR LMML 300145Z VRB01KT CAVOK 20/18 Q1015 NOSIG=
201006300130 METAR LMML NIL=
201006300115 METAR LMML 300115Z VRB02KT CAVOK 20/18 Q1015 NOSIG=
201006300100 METAR LMML NIL=
201006300045 METAR LMML 300045Z VRB02KT CAVOK 20/18 Q1015 NOSIG=
201006300030 METAR LMML NIL=
201006300015 METAR LMML 300015Z VRB03KT CAVOK 20/18 Q1015 NOSIG=
201006300000 METAR LMML NIL=
201006292345 METAR LMML 292345Z VRB01KT CAVOK 21/18 Q1015 NOSIG=
201006292330 METAR LMML NIL=
201006292315 METAR LMML 292315Z VRB01KT CAVOK 21/18 Q1015 NOSIG=
201006292300 METAR LMML NIL=
201006292245 METAR LMML 292245Z VRB02KT CAVOK 21/18 Q1016 NOSIG=
201006292230 METAR LMML NIL=
201006292215 METAR LMML 292215Z VRB03KT CAVOK 21/18 Q1015 NOSIG=
201006292200 METAR LMML NIL=
201006292145 METAR LMML 292145Z 25004KT 210V290 CAVOK 21/18 Q1016 NOSIG=
201006292130 METAR LMML NIL=
201006292115 METAR LMML 292115Z VRB03KT CAVOK 21/18 Q1016 NOSIG=
201006292100 METAR LMML NIL=
201006292045 METAR LMML 292045Z VRB02KT CAVOK 21/18 Q1016 NOSIG=
201006292030 METAR LMML NIL=
201006292015 METAR LMML 292015Z VRB02KT CAVOK 21/18 Q1016 NOSIG=
201006292000 METAR LMML NIL=
201006291945 METAR LMML 291945Z VRB02KT CAVOK 21/18 Q1015 NOSIG=
201006291930 METAR LMML NIL=
201006291915 METAR LMML 291915Z 27004KT 240V300 CAVOK 22/18 Q1015 NOSIG=
201006291900 METAR LMML NIL=
201006291845 METAR LMML 291845Z 28004KT 250V310 CAVOK 22/18 Q1015 NOSIG=
201006291830 METAR LMML NIL=
201006291815 METAR LMML 291815Z 28006KT 9999 FEW025 23/18 Q1015 NOSIG=
201006291800 METAR LMML NIL=
201006291745 METAR LMML 291745Z 31007KT 9999 FEW025 23/18 Q1015 NOSIG=
201006291730 METAR LMML NIL=
201006291715 METAR LMML 291715Z 30008KT 270V330 9999 FEW025 24/18 Q1015
                        NOSIG=
201006291700 METAR LMML NIL=
201006291645 METAR LMML 291645Z 30008KT 260V330 9999 FEW025 24/17 Q1015
                        NOSIG=
201006291630 METAR LMML NIL=
201006291615 METAR LMML 291615Z 27007KT 210V320 9999 FEW025 26/17 Q1015
                        NOSIG=
201006291600 METAR LMML NIL=
201006291545 METAR LMML 291545Z 27007KT 230V320 9999 FEW025 26/16 Q1015
                        NOSIG=
201006291530 METAR LMML NIL=
201006291515 METAR LMML 291515Z 28007KT 230V320 9999 FEW025 27/15 Q1015
                        NOSIG=
201006291500 METAR LMML NIL=
201006291445 METAR LMML 291445Z 30010KT 9999 FEW025 28/11 Q1015 NOSIG=
201006291430 METAR LMML NIL=
201006291415 METAR LMML 291415Z 29011KT 9999 FEW030 28/12 Q1016 NOSIG=
201006291345 METAR LMML 291345Z 31012KT 280V340 9999 FEW030 28/13 Q1016
                        NOSIG=
201006291330 METAR LMML NIL=
201006291315 METAR LMML 291315Z 30013KT 9999 FEW030 28/12 Q1016 NOSIG=
201006291300 METAR LMML NIL=
201006291245 METAR LMML 291245Z 31014KT 9999 FEW030 28/13 Q1016 NOSIG=
201006291230 METAR LMML NIL=
201006291215 METAR LMML 291215Z 30012KT 280V340 9999 FEW030 28/14 Q1016
                        NOSIG=
201006291200 METAR LMML NIL=
201006291145 METAR LMML 291145Z 30010KT 260V330 9999 FEW020 28/13 Q1016
                        NOSIG=
201006291130 METAR LMML NIL=
201006291115 METAR LMML 291115Z 30012KT 240V330 9999 FEW020 28/13 Q1016
                        NOSIG=
201006291100 METAR LMML NIL=
201006291045 METAR LMML 291045Z 30010KT 280V340 9999 FEW020 28/12 Q1016
                        NOSIG=
201006291030 METAR LMML NIL=
201006291015 METAR LMML 291015Z 30011KT 270V330 9999 FEW020 29/11 Q1016
                        NOSIG=
201006291000 METAR LMML NIL=
201006290945 METAR LMML 290945Z 23008KT 190V300 9999 FEW020 27/16 Q1016
                        NOSIG=
201006290930 METAR LMML NIL=
201006290915 METAR LMML 290915Z 25009KT 210V290 9999 FEW020 28/15 Q1016
                        NOSIG=
201006290900 METAR LMML NIL=
201006290845 METAR LMML 290845Z 23006KT 200V280 9999 FEW015 27/16 Q1016
                        NOSIG=
201006290830 METAR LMML NIL=
201006290815 METAR LMML 290815Z 23007KT 190V300 CAVOK 26/16 Q1016 NOSIG=
201006290800 METAR LMML NIL=
201006290745 METAR LMML 290745Z 23008KT 200V280 CAVOK 26/15 Q1016 NOSIG=
201006290730 METAR LMML NIL=
201006290715 METAR LMML 290715Z 22005KT 190V280 CAVOK 26/13 Q1016 NOSIG=
201006290700 METAR LMML NIL=
201006290645 METAR LMML 290645Z VRB03KT CAVOK 25/16 Q1016 NOSIG=
201006290630 METAR LMML NIL=
201006290615 METAR LMML 290615Z 23004KT 200V280 CAVOK 23/17 Q1016 NOSIG=
201006290600 METAR LMML NIL=
201006290545 METAR LMML 290545Z 25004KT 200V300 9999 FEW020 22/19 Q1016
                        NOSIG=
201006290515 METAR LMML 290515Z 22004KT 9999 FEW012 21/19 Q1016 NOSIG=
201006290500 METAR LMML NIL=
201006290445 METAR LMML 290445Z VRB02KT 9999 FEW012 20/19 Q1016 NOSIG=
201006290430 METAR LMML NIL=
201006290415 METAR LMML 290415Z VRB02KT 9999 FEW012 20/18 Q1016 NOSIG=
201006290400 METAR LMML NIL=
201006290345 METAR LMML 290345Z VRB03KT CAVOK 20/18 Q1016 NOSIG=
201006290330 METAR LMML NIL=
201006290315 METAR LMML 290315Z VRB03KT CAVOK 19/17 Q1015 NOSIG=
201006290300 METAR LMML NIL=
201006290245 METAR LMML 290245Z VRB03KT CAVOK 20/17 Q1016 NOSIG=
201006290230 METAR LMML NIL=
201006290215 METAR LMML 290215Z VRB03KT CAVOK 20/18 Q1016 NOSIG=
201006290200 METAR LMML NIL=
201006290145 METAR LMML 290145Z VRB02KT CAVOK 20/18 Q1016 NOSIG=
201006290130 METAR LMML NIL=
201006290115 METAR LMML 290115Z VRB01KT CAVOK 20/17 Q1016 NOSIG=
201006290100 METAR LMML NIL=
201006290045 METAR LMML 290045Z VRB02KT CAVOK 20/18 Q1016 NOSIG=
201006290015 METAR LMML 290015Z VRB02KT CAVOK 20/17 Q1016 NOSIG=
201006290000 METAR LMML NIL=
201006282345 METAR LMML 282345Z VRB02KT CAVOK 20/17 Q1016 NOSIG=
201006282330 METAR LMML NIL=
201006282315 METAR LMML 282315Z VRB01KT CAVOK 20/16 Q1016 NOSIG=
201006282245 METAR LMML 282245Z VRB01KT CAVOK 21/17 Q1017 NOSIG=
201006282230 METAR LMML NIL=
201006282215 METAR LMML 282215Z VRB02KT CAVOK 21/17 Q1016 NOSIG=
201006282145 METAR LMML 282145Z VRB02KT CAVOK 21/17 Q1017 NOSIG=
201006282130 METAR LMML NIL=
201006282115 METAR LMML 282115Z VRB02KT CAVOK 22/17 Q1016 NOSIG=
201006282100 METAR LMML NIL=
201006282045 METAR LMML 282045Z VRB03KT CAVOK 22/17 Q1017 NOSIG=
201006282030 METAR LMML NIL=
201006282015 METAR LMML 282015Z VRB03KT CAVOK 22/17 Q1016 NOSIG=
201006282000 METAR LMML NIL=
201006281945 METAR LMML 281945Z VRB03KT CAVOK 22/16 Q1016 NOSIG=
201006281930 METAR LMML NIL=
201006281915 METAR LMML 281915Z VRB02KT CAVOK 22/17 Q1016 NOSIG=
201006281900 METAR LMML NIL=
201006281845 METAR LMML 281845Z VRB03KT CAVOK 23/17 Q1016 NOSIG=
201006281830 METAR LMML NIL=
201006281815 METAR LMML 281815Z 24004KT 200V280 CAVOK 23/16 Q1016 NOSIG=
201006281800 METAR LMML NIL=
201006281745 METAR LMML 281745Z 23004KT 200V280 CAVOK 24/14 Q1016 NOSIG=
201006281730 METAR LMML NIL=
201006281715 METAR LMML 281715Z 22005KT 190V270 CAVOK 24/14 Q1015 NOSIG=
201006281700 METAR LMML NIL=
201006281645 METAR LMML 281645Z 22005KT 170V270 CAVOK 25/13 Q1015 NOSIG=
201006281630 METAR LMML NIL=
201006281615 METAR LMML 281615Z 20007KT 160V230 CAVOK 25/14 Q1015 NOSIG=
201006281600 METAR LMML NIL=
201006281545 METAR LMML 281545Z 20006KT 160V240 CAVOK 25/14 Q1015 NOSIG=
201006281530 METAR LMML NIL=
201006281515 METAR LMML 281515Z 20006KT 170V250 CAVOK 25/15 Q1015 NOSIG=
201006281500 METAR LMML NIL=
201006281445 METAR LMML 281445Z 17005KT 130V210 CAVOK 26/13 Q1015 TEMPO
                        9999 FEW030=
201006281430 METAR LMML NIL=
201006281415 METAR LMML 281415Z 18005KT 070V250 CAVOK 26/13 Q1016 TEMPO
                        9999 FEW030=
201006281400 METAR LMML NIL=
201006281345 METAR LMML 281345Z 20007KT 160V230 9999 FEW030 26/13 Q1016
                        NOSIG=
201006281330 METAR LMML NIL=
201006281315 METAR LMML 281315Z 18006KT 110V240 CAVOK 26/15 Q1016 NOSIG=
201006281300 METAR LMML NIL=
201006281245 METAR LMML 281245Z 12007KT 040V170 9999 FEW035 26/15 Q1016
                        TEMPO CAVOK=
201006281230 METAR LMML NIL=
201006281215 METAR LMML 281215Z 14007KT 090V200 9999 FEW035 26/13 Q1016
                        NOSIG=
201006281200 METAR LMML NIL=
201006281145 METAR LMML 281145Z 12008KT 080V160 9999 FEW035 27/12 Q1016
                        NOSIG=
201006281130 METAR LMML NIL=
201006281115 METAR LMML 281115Z 12007KT 060V180 9999 FEW035 27/12 Q1016
                        NOSIG=
201006281100 METAR LMML NIL=
201006281045 METAR LMML 281045Z 13006KT 080V180 9999 FEW035 26/12 Q1016
                        NOSIG=
201006281030 METAR LMML NIL=
201006281015 METAR LMML 281015Z 14006KT 090V200 9999 FEW035 27/11 Q1016
                        NOSIG=
201006281000 METAR LMML NIL=
201006280945 METAR LMML 280945Z 13006KT 070V180 9999 FEW035 27/11 Q1016
                        NOSIG=
201006280930 METAR LMML NIL=
201006280915 METAR LMML 280915Z 12005KT 010V220 CAVOK 27/10 Q1016 NOSIG=
201006280900 METAR LMML NIL=
201006280845 METAR LMML 280845Z 11005KT 050V170 9999 FEW030 26/11 Q1016
                        NOSIG=
201006280830 METAR LMML NIL=
201006280815 METAR LMML 280815Z 05004KT 350V130 CAVOK 26/14 Q1016 NOSIG=
201006280800 METAR LMML NIL=
201006280745 METAR LMML 280745Z 06004KT 010V130 CAVOK 26/14 Q1016 NOSIG=
201006280730 METAR LMML NIL=
201006280715 METAR LMML 280715Z VRB03KT CAVOK 25/15 Q1016 NOSIG=
201006280700 METAR LMML NIL=
201006280645 METAR LMML 280645Z VRB02KT CAVOK 24/15 Q1016 NOSIG=
201006280630 METAR LMML NIL=
201006280615 METAR LMML 280615Z VRB01KT CAVOK 23/16 Q1016 NOSIG=
201006280600 METAR LMML NIL=
201006280545 METAR LMML 280545Z VRB02KT CAVOK 22/16 Q1015 NOSIG=
201006280530 METAR LMML NIL=
201006280515 METAR LMML 280515Z VRB02KT CAVOK 20/16 Q1015 NOSIG=
201006280500 METAR LMML NIL=
201006280445 METAR LMML 280445Z VRB03KT CAVOK 19/16 Q1015 NOSIG=
201006280415 METAR LMML 280415Z VRB03KT 9999 FEW012 18/16 Q1015 NOSIG=
201006280400 METAR LMML NIL=
201006280345 METAR LMML 280345Z VRB02KT CAVOK 18/16 Q1014 NOSIG=
201006280330 METAR LMML NIL=
201006280315 METAR LMML 280315Z VRB03KT CAVOK 19/16 Q1014 NOSIG=
201006280300 METAR LMML NIL=
201006280245 METAR LMML 280245Z VRB03KT CAVOK 19/16 Q1014 NOSIG=
201006280230 METAR LMML NIL=
201006280215 METAR LMML 280215Z VRB01KT CAVOK 19/16 Q1014 NOSIG=
201006280200 METAR LMML NIL=
201006280145 METAR LMML 280145Z 00000KT CAVOK 19/16 Q1014 NOSIG=
201006280130 METAR LMML NIL=
201006280115 METAR LMML 280115Z VRB02KT CAVOK 19/16 Q1014 NOSIG=
201006280100 METAR LMML NIL=
201006280045 METAR LMML 280045Z VRB02KT CAVOK 19/16 Q1014 NOSIG=
201006280030 METAR LMML NIL=
201006280015 METAR LMML 280015Z VRB02KT CAVOK 20/16 Q1014 NOSIG=
201006280000 METAR LMML NIL=
201006272345 METAR LMML 272345Z VRB01KT CAVOK 20/16 Q1015 NOSIG=
201006272330 METAR LMML NIL=
201006272315 METAR LMML 272315Z VRB02KT CAVOK 20/15 Q1015 NOSIG=
201006272300 METAR LMML NIL=
201006272245 METAR LMML 272245Z VRB02KT CAVOK 20/16 Q1015 NOSIG=
201006272230 METAR LMML NIL=
201006272215 METAR LMML 272215Z VRB01KT CAVOK 21/16 Q1015 NOSIG=
201006272200 METAR LMML NIL=
201006272145 METAR LMML 272145Z VRB03KT CAVOK 21/16 Q1015 NOSIG=
201006272130 METAR LMML NIL=
201006272115 METAR LMML 272115Z VRB02KT CAVOK 21/16 Q1015 NOSIG=
201006272100 METAR LMML NIL=
201006272045 METAR LMML 272045Z 30004KT CAVOK 21/16 Q1015 NOSIG=
201006272030 METAR LMML NIL=
201006272015 METAR LMML 272015Z 30004KT CAVOK 22/15 Q1015 NOSIG=
201006272000 METAR LMML NIL=
201006271945 METAR LMML 271945Z 31004KT CAVOK 22/14 Q1015 NOSIG=
201006271930 METAR LMML NIL=
201006271915 METAR LMML 271915Z 30004KT 270V340 CAVOK 22/14 Q1015 NOSIG=
201006271900 METAR LMML NIL=
201006271845 METAR LMML 271845Z 30005KT 260V330 CAVOK 23/13 Q1014 NOSIG=
201006271830 METAR LMML NIL=
201006271815 METAR LMML 271815Z 25004KT 210V290 CAVOK 23/13 Q1014 NOSIG=
201006271800 METAR LMML NIL=
201006271745 METAR LMML 271745Z 23006KT 210V280 CAVOK 23/14 Q1014 NOSIG=
201006271730 METAR LMML NIL=
201006271715 METAR LMML 271715Z 22005KT 180V250 CAVOK 24/15 Q1014 NOSIG=
201006271700 METAR LMML NIL=
201006271645 METAR LMML 271645Z 22004KT 180V270 CAVOK 24/15 Q1014 NOSIG=
201006271630 METAR LMML NIL=
201006271615 METAR LMML 271615Z 23005KT 180V270 CAVOK 24/15 Q1013 NOSIG=
201006271600 METAR LMML NIL=
201006271545 METAR LMML 271545Z 21006KT 120V260 CAVOK 24/17 Q1013 NOSIG=
201006271530 METAR LMML NIL=
201006271515 METAR LMML 271515Z 21006KT 170V280 9999 FEW023 24/17 Q1014
                        NOSIG=
201006271500 METAR LMML NIL=
201006271445 METAR LMML 271445Z 21006KT 160V270 9999 FEW023 25/18 Q1014
                        NOSIG=
201006271430 METAR LMML NIL=
201006271415 METAR LMML 271415Z 21006KT 170V320 9999 FEW023 25/18 Q1014
                        NOSIG=
201006271400 METAR LMML NIL=
201006271345 METAR LMML 271345Z 19006KT 140V250 9999 SCT025 25/18 Q1014
                        NOSIG=
201006271330 METAR LMML NIL=
201006271315 METAR LMML 271315Z 20005KT 140V270 9999 FEW025 25/18 Q1014
                        NOSIG=
201006271300 METAR LMML NIL=
201006271245 METAR LMML 271245Z 19006KT 160V260 9999 FEW030 24/18 Q1014
                        NOSIG=
201006271230 METAR LMML NIL=
201006271215 METAR LMML 271215Z 20006KT 140V270 9999 FEW030 25/17 Q1014
                        NOSIG=
201006271200 METAR LMML NIL=
201006271145 METAR LMML 271145Z 19007KT 130V240 9999 FEW030 25/18 Q1014
                        NOSIG=
201006271130 METAR LMML NIL=
201006271115 METAR LMML 271115Z 05005KT 360V100 9999 FEW020 26/16 Q1014
                        NOSIG=
201006271100 METAR LMML NIL=
201006271045 METAR LMML 271045Z 05006KT 010V100 9999 FEW022 26/17 Q1014
                        NOSIG=
201006271030 METAR LMML NIL=
201006271015 METAR LMML 271015Z VRB03KT 9999 FEW022 25/18 Q1014 NOSIG=
201006271000 METAR LMML NIL=
201006270945 METAR LMML 270945Z 19004KT 150V240 9999 SCT022 23/17 Q1014
                        NOSIG=
201006270930 METAR LMML NIL=
201006270915 METAR LMML 270915Z 05004KT 010V110 9999 SCT020 25/18 Q1014
                        NOSIG=
201006270900 METAR LMML NIL=
201006270845 METAR LMML 270845Z 04006KT 360V080 9999 SCT020 25/18 Q1014
                        NOSIG=
201006270830 METAR LMML NIL=
201006270815 METAR LMML 270815Z 06005KT 010V120 9999 SCT017 BKN250 24/18
                        Q1014 NOSIG=
201006270800 METAR LMML NIL=
201006270745 METAR LMML 270745Z VRB02KT 9999 FEW016 BKN250 24/16 Q1014
                        NOSIG=
201006270730 METAR LMML NIL=
201006270715 METAR LMML 270715Z VRB01KT 9999 FEW020 BKN250 24/16 Q1014
                        NOSIG=
201006270700 METAR LMML NIL=
201006270645 METAR LMML 270645Z VRB02KT 9999 FEW020 BKN250 23/17 Q1014
                        NOSIG=
201006270630 METAR LMML NIL=
201006270615 METAR LMML 270615Z VRB02KT 9999 FEW020 SCT120 BKN250 22/18
                        Q1014 NOSIG=
201006270600 METAR LMML NIL=
201006270545 METAR LMML 270545Z VRB01KT 9999 FEW020 SCT120 BKN250 21/18
                        Q1014 NOSIG=
201006270530 METAR LMML NIL=
201006270515 METAR LMML 270515Z VRB02KT 9999 FEW020 BKN120 20/18 Q1014
                        NOSIG=
201006270500 METAR LMML NIL=
201006270445 METAR LMML 270445Z VRB01KT 9999 FEW015 BKN120 20/18 Q1013
                        NOSIG=
201006270430 METAR LMML NIL=
201006270415 METAR LMML 270415Z VRB03KT CAVOK 20/18 Q1013 NOSIG=
201006270400 METAR LMML NIL=
201006270345 METAR LMML 270345Z 05004KT 020V090 CAVOK 20/18 Q1012 NOSIG=
201006270330 METAR LMML NIL=
201006270315 METAR LMML 270315Z VRB01KT CAVOK 19/17 Q1012 NOSIG=
201006270300 METAR LMML NIL=
201006270245 METAR LMML 270245Z VRB01KT CAVOK 20/17 Q1012 NOSIG=
201006270230 METAR LMML NIL=
201006270215 METAR LMML 270215Z VRB03KT CAVOK 19/17 Q1013 NOSIG=
201006270200 METAR LMML NIL=
201006270145 METAR LMML 270145Z VRB02KT CAVOK 19/17 Q1013 NOSIG=
201006270130 METAR LMML NIL=
201006270115 METAR LMML 270115Z VRB01KT CAVOK 20/17 Q1013 NOSIG=
201006270100 METAR LMML NIL=
201006270045 METAR LMML 270045Z VRB01KT CAVOK 20/17 Q1014 NOSIG=
201006270030 METAR LMML NIL=
201006270015 METAR LMML 270015Z VRB03KT CAVOK 20/17 Q1014 NOSIG=
201006270000 METAR LMML NIL=
201006262345 METAR LMML 262345Z VRB02KT CAVOK 20/17 Q1014 NOSIG=
201006262315 METAR LMML 262315Z VRB02KT CAVOK 20/17 Q1014 NOSIG=
201006262300 METAR LMML NIL=
201006262245 METAR LMML 262245Z VRB01KT CAVOK 20/18 Q1014 NOSIG=
201006262230 METAR LMML NIL=
201006262215 METAR LMML 262215Z VRB01KT CAVOK 20/18 Q1014 NOSIG=
201006262200 METAR LMML NIL=
201006262145 METAR LMML 262145Z VRB01KT CAVOK 20/18 Q1014 NOSIG=
201006262130 METAR LMML NIL=
201006262115 METAR LMML 262115Z VRB01KT CAVOK 20/18 Q1014 NOSIG=
201006262100 METAR LMML NIL=
201006262045 METAR LMML 262045Z VRB01KT CAVOK 21/18 Q1014 NOSIG=
201006262030 METAR LMML NIL=
201006262015 METAR LMML 262015Z VRB02KT CAVOK 20/18 Q1013 NOSIG=
201006262000 METAR LMML NIL=
201006261945 METAR LMML 261945Z 12004KT CAVOK 21/18 Q1013 NOSIG=
201006261930 METAR LMML NIL=
201006261915 METAR LMML 261915Z 13004KT CAVOK 21/17 Q1012 NOSIG=
201006261900 METAR LMML NIL=
201006261845 METAR LMML 261845Z 13004KT CAVOK 21/17 Q1012 NOSIG=
201006261830 METAR LMML NIL=
201006261815 METAR LMML 261815Z 16004KT 120V190 CAVOK 22/17 Q1013 NOSIG=
201006261800 METAR LMML NIL=
201006261745 METAR LMML 261745Z 15005KT CAVOK 22/16 Q1013 NOSIG=
201006261730 METAR LMML NIL=
201006261715 METAR LMML 261715Z 17004KT 120V210 CAVOK 23/16 Q1012 NOSIG=
201006261700 METAR LMML NIL=
201006261645 METAR LMML 261645Z 17005KT 140V220 CAVOK 24/15 Q1012 NOSIG=
201006261630 METAR LMML NIL=
201006261615 METAR LMML 261615Z 18005KT 140V230 CAVOK 24/13 Q1012 NOSIG=
201006261600 METAR LMML NIL=
201006261545 METAR LMML 261545Z 17004KT 110V220 CAVOK 25/15 Q1012 NOSIG=
201006261530 METAR LMML NIL=
201006261515 METAR LMML 261515Z VRB03KT 9999 FEW025 25/15 Q1012 NOSIG=
201006261500 METAR LMML NIL=
201006261445 METAR LMML 261445Z 17006KT 080V230 9999 FEW025 26/16 Q1012
                        NOSIG=
201006261415 METAR LMML 261415Z 04004KT 350V100 9999 FEW025 26/16 Q1013
                        NOSIG=
201006261400 METAR LMML NIL=
201006261345 METAR LMML 261345Z 19005KT 140V230 9999 FEW025 25/13 Q1013
                        NOSIG=
201006261330 METAR LMML NIL=
201006261315 METAR LMML 261315Z 21006KT 150V260 9999 FEW025 25/13 Q1013
                        NOSIG=
201006261300 METAR LMML NIL=
201006261245 METAR LMML 261245Z 19007KT 160V260 CAVOK 25/12 Q1013 NOSIG=
201006261215 METAR LMML 261215Z 21006KT 160V250 9999 FEW025 25/14 Q1013
                        NOSIG=
201006261200 METAR LMML NIL=
201006261145 METAR LMML 261145Z 19007KT 160V270 9999 FEW025 24/14 Q1013
                        NOSIG=
201006261130 METAR LMML NIL=
201006261115 METAR LMML 261115Z 18007KT 150V210 9999 FEW025 24/13 Q1014
                        NOSIG=
201006261100 METAR LMML NIL=
201006261045 METAR LMML 261045Z 19006KT 140V270 9999 FEW025 25/09 Q1014
                        NOSIG=
201006261015 METAR LMML 261015Z 11007KT 070V170 9999 FEW025 25/13 Q1014
                        NOSIG=
201006261000 METAR LMML NIL=
201006260945 METAR LMML 260945Z 13005KT 360V240 CAVOK 24/12 Q1014 NOSIG=
201006260930 METAR LMML NIL=
201006260915 METAR LMML 260915Z 09005KT 010V160 9999 FEW025 SCT250 24/14
                        Q1013 NOSIG=
201006260900 METAR LMML NIL=
201006260845 METAR LMML 260845Z 04005KT 350V090 CAVOK 24/15 Q1013 NOSIG=
201006260830 METAR LMML NIL=
201006260815 METAR LMML 260815Z 02005KT 340V070 CAVOK 24/15 Q1013 NOSIG=
201006260800 METAR LMML NIL=
201006260745 METAR LMML 260745Z 03006KT 360V080 9999 FEW040 24/15 Q1013
                        NOSIG=
201006260730 METAR LMML NIL=
201006260715 METAR LMML 260715Z VRB02KT CAVOK 24/10 Q1013 NOSIG=
201006260700 METAR LMML NIL=
201006260645 METAR LMML 260645Z VRB02KT CAVOK 23/12 Q1013 NOSIG=
201006260630 METAR LMML NIL=
201006260615 METAR LMML 260615Z VRB01KT CAVOK 22/11 Q1013 NOSIG=
201006260545 METAR LMML 260545Z VRB03KT CAVOK 20/13 Q1013 NOSIG=
201006260530 METAR LMML NIL=
201006260515 METAR LMML 260515Z 00000KT CAVOK 19/17 Q1013 NOSIG=
201006260500 METAR LMML NIL=
201006260445 METAR LMML 260445Z VRB02KT CAVOK 18/16 Q1014 NOSIG=
201006260430 METAR LMML NIL=
201006260415 METAR LMML 260415Z VRB03KT CAVOK 17/15 Q1013 NOSIG=
201006260400 METAR LMML NIL=
201006260345 METAR LMML 260345Z VRB01KT CAVOK 16/14 Q1013 NOSIG=
201006260330 METAR LMML NIL=
201006260315 METAR LMML 260315Z VRB01KT CAVOK 16/14 Q1013 NOSIG=
201006260300 METAR LMML NIL=
201006260245 METAR LMML 260245Z VRB01KT CAVOK 16/14 Q1013 NOSIG=
201006260230 METAR LMML NIL=
201006260215 METAR LMML 260215Z VRB01KT CAVOK 16/14 Q1013 NOSIG=
201006260200 METAR LMML NIL=
201006260145 METAR LMML 260145Z VRB01KT CAVOK 16/14 Q1013 NOSIG=
201006260130 METAR LMML NIL=
201006260115 METAR LMML 260115Z VRB01KT CAVOK 17/15 Q1013 NOSIG=
201006260100 METAR LMML NIL=
201006260045 METAR LMML 260045Z VRB01KT CAVOK 17/15 Q1013 NOSIG=
201006260030 METAR LMML NIL=
201006260015 METAR LMML 260015Z VRB01KT CAVOK 18/15 Q1013 NOSIG=
201006252345 METAR LMML 252345Z VRB02KT CAVOK 18/15 Q1013 NOSIG=
201006252330 METAR LMML NIL=
201006252315 METAR LMML 252315Z VRB01KT CAVOK 18/15 Q1013 NOSIG=
201006252300 METAR LMML NIL=
201006252245 METAR LMML 252245Z VRB01KT CAVOK 18/15 Q1013 NOSIG=
201006252230 METAR LMML NIL=
201006252215 METAR LMML 252215Z VRB01KT CAVOK 19/15 Q1014 NOSIG=
201006252200 METAR LMML NIL=
201006252145 METAR LMML 252145Z VRB02KT CAVOK 20/16 Q1014 NOSIG=
201006252130 METAR LMML NIL=
201006252115 METAR LMML 252115Z VRB03KT CAVOK 20/15 Q1014 NOSIG=
201006252100 METAR LMML NIL=
201006252045 METAR LMML 252045Z 35004KT 310V060 CAVOK 20/15 Q1014 NOSIG=
201006252030 METAR LMML NIL=
201006252015 METAR LMML 252015Z 34004KT 310V010 CAVOK 20/15 Q1014 NOSIG=
201006252000 METAR LMML NIL=
201006251945 METAR LMML 251945Z 31004KT CAVOK 21/13 Q1013 NOSIG=
201006251930 METAR LMML NIL=
201006251915 METAR LMML 251915Z VRB03KT CAVOK 21/12 Q1013 NOSIG=
201006251900 METAR LMML NIL=
201006251845 METAR LMML 251845Z VRB03KT CAVOK 22/08 Q1013 NOSIG=
201006251830 METAR LMML NIL=
201006251815 METAR LMML 251815Z VRB03KT CAVOK 23/07 Q1013 NOSIG=
201006251800 METAR LMML NIL=
201006251745 METAR LMML 251745Z 22004KT 200V270 CAVOK 24/07 Q1013 NOSIG=
201006251730 METAR LMML NIL=
201006251715 METAR LMML 251715Z 25004KT 200V300 CAVOK 25/08 Q1013 NOSIG=
201006251700 METAR LMML NIL=
201006251645 METAR LMML 251645Z 24005KT 200V290 CAVOK 25/07 Q1013 NOSIG=
201006251630 METAR LMML NIL=
201006251615 METAR LMML 251615Z 23008KT 200V280 9999 FEW045 25/09 Q1013
                        NOSIG=
201006251600 METAR LMML NIL=
201006251545 METAR LMML 251545Z 24009KT 200V280 9999 FEW045 26/09 Q1013
                        NOSIG=
201006251530 METAR LMML NIL=
201006251515 METAR LMML 251515Z 36005KT 330V050 9999 FEW045 27/15 Q1013
                        NOSIG=
201006251500 METAR LMML NIL=
201006251445 METAR LMML 251445Z VRB03KT 9999 FEW045 27/13 Q1013 NOSIG=
201006251430 METAR LMML NIL=
201006251415 METAR LMML 251415Z 15005KT 090V210 9999 FEW044 26/14 Q1014
                        NOSIG=
201006251400 METAR LMML NIL=
201006251345 METAR LMML 251345Z 11007KT 070V160 CAVOK 26/15 Q1014 NOSIG=
201006251330 METAR LMML NIL=
201006251315 METAR LMML 251315Z 04004KT 340V100 CAVOK 27/16 Q1014 NOSIG
                        RMK SMOKE TO SOUTHEAST=
201006251300 METAR LMML NIL=
201006251245 METAR LMML 251245Z 03007KT 360V060 CAVOK 27/16 Q1014 NOSIG=
201006251230 METAR LMML NIL=
201006251215 METAR LMML 251215Z 05008KT 010V100 CAVOK 27/15 Q1014 NOSIG=
201006251200 METAR LMML NIL=
201006251145 METAR LMML 251145Z 11008KT 050V160 CAVOK 26/15 Q1014 NOSIG=
201006251130 METAR LMML NIL=
201006251115 METAR LMML 251115Z 02007KT 320V060 CAVOK 28/15 Q1014 NOSIG=
201006251045 METAR LMML 251045Z 09008KT 040V170 CAVOK 26/13 Q1014 NOSIG=
201006251030 METAR LMML NIL=
201006251015 METAR LMML 251015Z 35008KT 200V050 CAVOK 26/12 Q1014 NOSIG=
201006251000 METAR LMML NIL=
201006250945 METAR LMML 250945Z 17009KT 140V210 CAVOK 27/10 Q1014 NOSIG=
201006250930 METAR LMML NIL=
201006250915 METAR LMML 250915Z VRB03KT CAVOK 26/10 Q1014 NOSIG=
201006250900 METAR LMML NIL=
201006250845 METAR LMML 250845Z 01004KT 290V070 CAVOK 26/14 Q1014 NOSIG=
201006250830 METAR LMML NIL=
201006250815 METAR LMML 250815Z 03004KT 340V110 CAVOK 26/13 Q1014 NOSIG=
201006250800 METAR LMML NIL=
201006250745 METAR LMML 250745Z VRB03KT CAVOK 25/13 Q1014 NOSIG=
201006250730 METAR LMML NIL=
201006250715 METAR LMML 250715Z 33004KT 280V010 CAVOK 24/13 Q1014 NOSIG=
201006250700 METAR LMML NIL=
201006250645 METAR LMML 250645Z 33005KT 230V030 CAVOK 23/15 Q1014 NOSIG=
201006250630 METAR LMML NIL=
201006250615 METAR LMML 250615Z 33005KT 290V030 CAVOK 22/16 Q1014 NOSIG=
201006250600 METAR LMML NIL=
201006250545 METAR LMML 250545Z 34005KT CAVOK 21/16 Q1014 NOSIG=
201006250530 METAR LMML NIL=
201006250515 METAR LMML 250515Z 33005KT CAVOK 20/16 Q1014 NOSIG=
201006250500 METAR LMML NIL=
201006250445 METAR LMML 250445Z 30004KT CAVOK 19/16 Q1014 NOSIG=
201006250430 METAR LMML NIL=
201006250415 METAR LMML 250415Z 31005KT CAVOK 18/15 Q1014 NOSIG=
201006250400 METAR LMML NIL=
201006250345 METAR LMML 250345Z 31006KT CAVOK 18/15 Q1014 NOSIG=
201006250330 METAR LMML NIL=
201006250315 METAR LMML 250315Z 27005KT CAVOK 18/15 Q1014 NOSIG=
201006250300 METAR LMML NIL=
201006250245 METAR LMML 250245Z 29005KT CAVOK 19/15 Q1014 NOSIG=
201006250230 METAR LMML NIL=
201006250215 METAR LMML 250215Z 30004KT CAVOK 18/15 Q1014 NOSIG=
201006250200 METAR LMML NIL=
201006250145 METAR LMML 250145Z 31007KT CAVOK 19/14 Q1014 NOSIG=
201006250130 METAR LMML NIL=
201006250115 METAR LMML 250115Z 31005KT CAVOK 19/14 Q1014 NOSIG=
201006250100 METAR LMML NIL=
201006250045 METAR LMML 250045Z 32004KT CAVOK 19/13 Q1015 NOSIG=
201006250030 METAR LMML NIL=
201006250015 METAR LMML 250015Z VRB02KT CAVOK 20/13 Q1015 NOSIG=
201006250000 METAR LMML NIL=
201006242345 METAR LMML 242345Z 31008KT CAVOK 20/14 Q1015 NOSIG=
201006242330 METAR LMML NIL=
201006242315 METAR LMML 242315Z 32009KT CAVOK 20/15 Q1015 NOSIG=
201006242300 METAR LMML NIL=
201006242245 METAR LMML 242245Z 32008KT CAVOK 20/15 Q1015 NOSIG=
201006242230 METAR LMML NIL=
201006242215 METAR LMML 242215Z 32010KT CAVOK 20/14 Q1015 NOSIG=
201006242145 METAR LMML 242145Z 31011KT CAVOK 20/14 Q1015 NOSIG=
201006242130 METAR LMML NIL=
201006242115 METAR LMML 242115Z 31011KT CAVOK 20/14 Q1015 NOSIG=
201006242100 METAR LMML NIL=
201006242045 METAR LMML 242045Z 31012KT CAVOK 21/14 Q1015 NOSIG=
201006242030 METAR LMML NIL=
201006242015 METAR LMML 242015Z 31011KT CAVOK 21/13 Q1015 NOSIG=
201006242000 METAR LMML NIL=
201006241945 METAR LMML 241945Z 30008KT 280V340 CAVOK 21/12 Q1015 NOSIG=
201006241915 METAR LMML 241915Z 30009KT CAVOK 21/12 Q1015 NOSIG=
201006241900 METAR LMML NIL=
201006241845 METAR LMML 241845Z 29011KT CAVOK 21/12 Q1014 NOSIG=
201006241830 METAR LMML NIL=
201006241815 METAR LMML 241815Z 30012KT CAVOK 22/12 Q1014 NOSIG=
201006241800 METAR LMML NIL=
201006241745 METAR LMML 241745Z 29013KT 260V320 CAVOK 23/12 Q1014 NOSIG=
201006241730 METAR LMML NIL=
201006241715 METAR LMML 241715Z 30014KT 260V320 CAVOK 24/10 Q1014 NOSIG=
201006241645 METAR LMML 241645Z 29014KT 260V320 CAVOK 24/11 Q1015 NOSIG=
201006241630 METAR LMML NIL=
201006241615 METAR LMML 241615Z 28015KT 240V300 CAVOK 24/12 Q1014 NOSIG=
201006241545 METAR LMML 241545Z 28014KT 250V320 CAVOK 25/12 Q1014 NOSIG=
201006241530 METAR LMML NIL=
201006241515 METAR LMML 241515Z 28014KT 240V300 CAVOK 26/12 Q1015 NOSIG=
201006241500 METAR LMML NIL=
201006241445 METAR LMML 241445Z 28015KT 250V310 CAVOK 26/11 Q1015 NOSIG=
201006241430 METAR LMML NIL=
201006241415 METAR LMML 241415Z 28013KT 250V310 CAVOK 26/10 Q1015 NOSIG=
201006241400 METAR LMML NIL=
201006241345 METAR LMML 241345Z 29013KT 260V320 CAVOK 27/10 Q1015 NOSIG=
201006241315 METAR LMML 241315Z 30013KT 270V330 CAVOK 26/11 Q1015 NOSIG=
201006241300 METAR LMML NIL=
201006241245 METAR LMML 241245Z 30009KT 240V340 CAVOK 27/12 Q1015 NOSIG=
201006241230 METAR LMML NIL=
201006241215 METAR LMML 241215Z 32009KT 280V360 CAVOK 27/12 Q1015 NOSIG=
201006241200 METAR LMML NIL=
201006241145 METAR LMML 241145Z 31008KT 260V350 CAVOK 27/12 Q1015 NOSIG=
201006241130 METAR LMML NIL=
201006241115 METAR LMML 241115Z 31007KT 230V010 CAVOK 27/13 Q1015 NOSIG=
201006241100 METAR LMML NIL=
201006241045 METAR LMML 241045Z 33007KT 240V030 CAVOK 27/13 Q1015 NOSIG=
201006241030 METAR LMML NIL=
201006241015 METAR LMML 241015Z 35010KT 320V020 CAVOK 26/10 Q1015 NOSIG=
201006241000 METAR LMML NIL=
201006240945 METAR LMML 240945Z 35008KT 320V020 CAVOK 26/12 Q1015 NOSIG=
201006240930 METAR LMML NIL=
201006240915 METAR LMML 240915Z 35009KT 300V020 CAVOK 25/13 Q1016 NOSIG=
201006240900 METAR LMML NIL=
201006240845 METAR LMML 240845Z 34010KT 320V020 CAVOK 24/14 Q1016 NOSIG=
201006240830 METAR LMML NIL=
201006240815 METAR LMML 240815Z 35009KT 300V020 CAVOK 24/12 Q1016 NOSIG=
201006240800 METAR LMML NIL=
201006240745 METAR LMML 240745Z 33006KT 270V020 CAVOK 24/14 Q1016 NOSIG=
201006240730 METAR LMML NIL=
201006240715 METAR LMML 240715Z 32007KT 290V350 9999 FEW030 23/14 Q1016
                        NOSIG=
201006240700 METAR LMML NIL=
201006240645 METAR LMML 240645Z 31008KT CAVOK 22/14 Q1016 NOSIG=
201006240630 METAR LMML NIL=
201006240615 METAR LMML 240615Z 32007KT 290V360 CAVOK 21/15 Q1016 NOSIG=
201006240600 METAR LMML NIL=
201006240545 METAR LMML 240545Z 32006KT CAVOK 21/16 Q1016 NOSIG=
201006240530 METAR LMML NIL=
201006240515 METAR LMML 240515Z 31006KT CAVOK 19/16 Q1015 NOSIG=
201006240500 METAR LMML NIL=
201006240445 METAR LMML 240445Z 32004KT CAVOK 18/15 Q1015 NOSIG=
201006240430 METAR LMML NIL=
201006240415 METAR LMML 240415Z 33004KT CAVOK 17/15 Q1015 NOSIG=
201006240400 METAR LMML NIL=
201006240345 METAR LMML 240345Z 32004KT CAVOK 17/15 Q1015 NOSIG=
201006240330 METAR LMML NIL=
201006240315 METAR LMML 240315Z 31006KT CAVOK 18/15 Q1015 NOSIG=
201006240300 METAR LMML NIL=
201006240245 METAR LMML 240245Z 29004KT CAVOK 18/16 Q1015 NOSIG=
201006240230 METAR LMML NIL=
201006240215 METAR LMML 240215Z 31005KT CAVOK 18/16 Q1015 NOSIG=
201006240200 METAR LMML NIL=
201006240145 METAR LMML 240145Z 32005KT CAVOK 18/15 Q1014 NOSIG=
201006240130 METAR LMML NIL=
201006240115 METAR LMML 240115Z 33005KT CAVOK 18/16 Q1015 NOSIG=
201006240100 METAR LMML NIL=
201006240045 METAR LMML 240045Z 33006KT CAVOK 18/16 Q1015 NOSIG=
201006240030 METAR LMML NIL=
201006240015 METAR LMML 240015Z 34005KT CAVOK 19/17 Q1015 NOSIG=
201006240000 METAR LMML NIL=
201006232345 METAR LMML 232345Z 33006KT CAVOK 19/17 Q1015 NOSIG=
201006232330 METAR LMML NIL=
201006232315 METAR LMML 232315Z 32006KT CAVOK 19/17 Q1015 NOSIG=
201006232300 METAR LMML NIL=
201006232245 METAR LMML 232245Z 34006KT CAVOK 20/16 Q1015 NOSIG=
201006232215 METAR LMML 232215Z 33007KT CAVOK 20/16 Q1016 NOSIG=
201006232200 METAR LMML NIL=
201006232145 METAR LMML 232145Z 32009KT CAVOK 20/16 Q1016 NOSIG=
201006232130 METAR LMML NIL=
201006232115 METAR LMML 232115Z 33008KT CAVOK 20/15 Q1016 NOSIG=
201006232100 METAR LMML NIL=
201006232045 METAR LMML 232045Z 31011KT CAVOK 20/16 Q1015 NOSIG=
201006232030 METAR LMML NIL=
201006232015 METAR LMML 232015Z 30012KT 270V330 CAVOK 20/17 Q1015 NOSIG=
201006232000 METAR LMML NIL=
201006231945 METAR LMML 231945Z 29012KT 240V320 CAVOK 20/17 Q1015 NOSIG=
201006231930 METAR LMML NIL=
201006231915 METAR LMML 231915Z 29013KT 260V320 9999 FEW020 20/17 Q1015
                        NOSIG=
201006231900 METAR LMML NIL=
201006231845 METAR LMML 231845Z 30013KT 260V320 9999 FEW020 20/17 Q1015
                        NOSIG=
201006231830 METAR LMML NIL=
201006231815 METAR LMML 231815Z 30015KT 9999 FEW020 21/17 Q1015 NOSIG=
201006231800 METAR LMML NIL=
201006231745 METAR LMML 231745Z 30015KT 9999 FEW020 21/17 Q1015 NOSIG=
201006231730 METAR LMML NIL=
201006231715 METAR LMML 231715Z 30016KT 9999 FEW020 22/17 Q1015 NOSIG=
201006231700 METAR LMML NIL=
201006231645 METAR LMML 231645Z 31016KT 280V340 9999 FEW020 22/17 Q1014
                        NOSIG=
201006231630 METAR LMML NIL=
201006231615 METAR LMML 231615Z 31016KT 9999 FEW020 23/17 Q1014 NOSIG=
201006231600 METAR LMML NIL=
201006231545 METAR LMML 231545Z 30017KT 9999 FEW020 23/17 Q1014 NOSIG=
201006231530 METAR LMML NIL=
201006231515 METAR LMML 231515Z 30016KT 9999 FEW020 24/16 Q1014 NOSIG=
201006231500 METAR LMML NIL=
201006231445 METAR LMML 231445Z 30015KT 9999 FEW020 25/16 Q1015 NOSIG=
201006231430 METAR LMML NIL=
201006231415 METAR LMML 231415Z 29014KT 260V320 9999 FEW020 25/15 Q1015
                        NOSIG=
201006231345 METAR LMML 231345Z 30015KT 9999 FEW020 25/16 Q1015 NOSIG=
201006231330 METAR LMML NIL=
201006231315 METAR LMML 231315Z 31013KT 270V340 9999 FEW020 25/16 Q1015
                        NOSIG=
201006231300 METAR LMML NIL=
201006231245 METAR LMML 231245Z 30014KT 250V320 9999 FEW025 24/15 Q1015
                        NOSIG=
201006231230 METAR LMML NIL=
201006231215 METAR LMML 231215Z 29014KT 260V360 9999 FEW024 24/16 Q1015
                        NOSIG=
201006231200 METAR LMML NIL=
201006231145 METAR LMML 231145Z 28015KT 9999 FEW024 23/16 Q1015 NOSIG=
201006231130 METAR LMML NIL=
201006231115 METAR LMML 231115Z 29014KT 250V320 9999 FEW023 24/15 Q1015
                        NOSIG=
201006231100 METAR LMML NIL=
201006231045 METAR LMML 231045Z 28017KT 250V310 9999 FEW021 23/15 Q1015
                        NOSIG=
201006231030 METAR LMML NIL=
201006231015 METAR LMML 231015Z 29014KT 240V340 9999 SCT024 24/16 Q1015
                        NOSIG=
201006231000 METAR LMML NIL=
201006230945 METAR LMML 230945Z 30015KT 9999 SCT025 23/15 Q1015 NOSIG=
201006230930 METAR LMML NIL=
201006230915 METAR LMML 230915Z 29015KT 260V330 9999 FEW025 22/15 Q1015
                        NOSIG=
201006230900 METAR LMML NIL=
201006230845 METAR LMML 230845Z 29015KT 250V320 9999 FEW025 22/14 Q1015
                        NOSIG=
201006230830 METAR LMML NIL=
201006230815 METAR LMML 230815Z 30016KT 9999 FEW020 22/15 Q1015 NOSIG=
201006230800 METAR LMML NIL=
201006230745 METAR LMML 230745Z 31013KT 270V340 9999 FEW020 22/14 Q1015
                        NOSIG=
201006230730 METAR LMML NIL=
201006230715 METAR LMML 230715Z 29014KT 260V320 9999 FEW020 22/15 Q1015
                        NOSIG=
201006230700 METAR LMML NIL=
201006230645 METAR LMML 230645Z 31013KT 270V340 9999 FEW020 21/14 Q1015
                        NOSIG=
201006230630 METAR LMML NIL=
201006230615 METAR LMML 230615Z 31015KT 9999 FEW020 21/14 Q1015 NOSIG=
201006230600 METAR LMML NIL=
201006230545 METAR LMML 230545Z 31013KT 9999 FEW015 20/15 Q1014 NOSIG=
201006230530 METAR LMML NIL=
201006230515 METAR LMML 230515Z 31011KT 9999 FEW015 19/15 Q1014 NOSIG=
201006230500 METAR LMML NIL=
201006230445 METAR LMML 230445Z 30010KT 9999 FEW014 18/15 Q1014 NOSIG=
201006230430 METAR LMML NIL=
201006230415 METAR LMML 230415Z 31011KT 9999 FEW014 18/15 Q1014 NOSIG=
201006230400 METAR LMML NIL=
201006230345 METAR LMML 230345Z 31012KT 9999 FEW014 18/15 Q1014 NOSIG=
201006230315 METAR LMML 230315Z 31014KT 9999 FEW014 18/15 Q1014 NOSIG=
201006230300 METAR LMML NIL=
201006230245 METAR LMML 230245Z 32014KT 9999 FEW015 18/15 Q1014 NOSIG=
201006230230 METAR LMML NIL=
201006230215 METAR LMML 230215Z 31014KT 9999 FEW015 18/15 Q1013 NOSIG=
201006230200 METAR LMML NIL=
201006230145 METAR LMML 230145Z 31015KT 9999 FEW040 18/15 Q1014 NOSIG=
201006230130 METAR LMML NIL=
201006230115 METAR LMML 230115Z 31013KT 280V340 9999 FEW023 18/15 Q1013
                        NOSIG=
201006230100 METAR LMML NIL=
201006230045 METAR LMML 230045Z 31016KT 270V330 9999 FEW025 18/15 Q1013
                        NOSIG=
201006230030 METAR LMML NIL=
201006230015 METAR LMML 230015Z 30014KT 9999 FEW025 18/14 Q1014 NOSIG=
201006230000 METAR LMML NIL=
201006222345 METAR LMML 222345Z 30015KT 9999 FEW025 18/14 Q1014 NOSIG=
201006222315 METAR LMML 222315Z 31015KT 9999 FEW025 18/14 Q1014 NOSIG=
201006222245 METAR LMML 222245Z 30016KT 9999 FEW025 18/14 Q1014 NOSIG=
201006222215 METAR LMML 222215Z 31017KT 9999 FEW022 18/13 Q1014 NOSIG=
201006222145 METAR LMML 222145Z 30016KT 9999 FEW023 18/13 Q1014 NOSIG=
201006222130 METAR LMML NIL=
201006222115 METAR LMML 222115Z 30015KT 9999 FEW023 18/13 Q1015 NOSIG=
201006222045 METAR LMML 222045Z 29013KT 9999 FEW023 18/14 Q1015 NOSIG=
201006222030 METAR LMML NIL=
201006222015 METAR LMML 222015Z 31015KT 9999 FEW022 18/13 Q1015 NOSIG=
201006222000 METAR LMML NIL=
201006221945 METAR LMML 221945Z 31016KT 9999 FEW022 19/14 Q1015 NOSIG=
201006221930 METAR LMML NIL=
201006221915 METAR LMML 221915Z 30014KT 9999 FEW022 19/14 Q1014 NOSIG=
201006221900 METAR LMML NIL=
201006221845 METAR LMML 221845Z 30015KT 270V340 9999 FEW020 19/14 Q1014
                        NOSIG=
201006221830 METAR LMML NIL=
201006221815 METAR LMML 221815Z 30018KT 9999 FEW025 19/14 Q1014 NOSIG=
201006221800 METAR LMML NIL=
201006221745 METAR LMML 221745Z 30020KT 9999 FEW025 20/14 Q1014 NOSIG=
201006221730 METAR LMML NIL=
201006221715 METAR LMML 221715Z 30020G31KT 260V320 9999 FEW025 20/14 Q1014
                        NOSIG=
201006221700 METAR LMML NIL=
201006221645 METAR LMML 221645Z 29021G31KT 260V320 9999 FEW028 20/13 Q1014
                        NOSIG=
201006221630 METAR LMML NIL=
201006221615 METAR LMML 221615Z 30021G32KT 260V320 9999 FEW028 21/13 Q1014
                        NOSIG=
201006221600 METAR LMML NIL=
201006221545 METAR LMML 221545Z 29019KT 250V330 9999 FEW027 21/13 Q1014
                        NOSIG=
201006221530 METAR LMML NIL=
201006221515 METAR LMML 221515Z 29023KT 9999 SCT027 SCT250 21/13 Q1014
                        NOSIG=
201006221500 METAR LMML NIL=
201006221445 METAR LMML 221445Z 29022KT 260V320 9999 SCT028 21/14 Q1014
                        NOSIG=
201006221430 METAR LMML NIL=
201006221415 METAR LMML 221415Z 29021G32KT 230V320 9999 SCT028 22/13 Q1015
                        NOSIG=
201006221345 METAR LMML 221345Z 28021KT 250V320 9999 SCT031 22/13 Q1015
                        NOSIG=
201006221330 METAR LMML NIL=
201006221315 METAR LMML 221315Z 29021KT 260V320 9999 SCT030 22/13 Q1015
                        NOSIG=
201006221300 METAR LMML NIL=
201006221245 METAR LMML 221245Z 29022KT 260V320 9999 SCT031 22/12 Q1015
                        NOSIG=
201006221230 METAR LMML NIL=
201006221215 METAR LMML 221215Z 30020KT 250V330 9999 SCT032 22/12 Q1015
                        NOSIG=
201006221200 METAR LMML NIL=
201006221145 METAR LMML 221145Z 29021KT 260V320 9999 SCT032 22/12 Q1015
                        NOSIG=
201006221130 METAR LMML NIL=
201006221115 METAR LMML 221115Z 29019KT 260V320 9999 SCT032 22/12 Q1015
                        NOSIG=
201006221100 METAR LMML NIL=
201006221045 METAR LMML 221045Z 30022KT 260V330 9999 SCT032 21/12 Q1015
                        NOSIG=
201006221030 METAR LMML NIL=
201006221015 METAR LMML 221015Z 29018KT 250V330 9999 SCT033 22/11 Q1015
                        NOSIG=
201006221000 METAR LMML NIL=
201006220945 METAR LMML 220945Z 28021KT 250V320 9999 SCT033 21/12 Q1015
                        NOSIG=
201006220930 METAR LMML NIL=
201006220915 METAR LMML 220915Z 29019KT 250V320 9999 SCT032 21/12 Q1015
                        NOSIG=
201006220900 METAR LMML NIL=
201006220845 METAR LMML 220845Z 29020KT 250V320 9999 SCT032 21/12 Q1015
                        NOSIG=
201006220830 METAR LMML NIL=
201006220815 METAR LMML 220815Z 28020KT 260V330 9999 SCT033 21/11 Q1015
                        NOSIG=
201006220800 METAR LMML NIL=
201006220745 METAR LMML 220745Z 30022KT 270V330 9999 SCT032 21/11 Q1015
                        NOSIG=
201006220730 METAR LMML NIL=
201006220715 METAR LMML 220715Z 28020KT 250V310 9999 FEW031 20/12 Q1014
                        NOSIG=
201006220700 METAR LMML NIL=
201006220645 METAR LMML 220645Z 31021KT 9999 FEW030 20/12 Q1014 NOSIG=
201006220630 METAR LMML NIL=
201006220615 METAR LMML 220615Z 30016G26KT 9999 SCT031 20/11 Q1015 NOSIG=
201006220600 METAR LMML NIL=
201006220545 METAR LMML 220545Z 30017G29KT 270V330 9999 FEW028 19/11 Q1014
                        NOSIG=
201006220530 METAR LMML NIL=
201006220515 METAR LMML 220515Z 29015KT 260V320 9999 FEW028 19/12 Q1014
                        NOSIG=
201006220500 METAR LMML NIL=
201006220445 METAR LMML 220445Z 29013KT 9999 FEW026 18/12 Q1014 NOSIG=
201006220430 METAR LMML NIL=
201006220415 METAR LMML 220415Z 30012KT 270V330 9999 FEW026 18/12 Q1014
                        NOSIG=
201006220400 METAR LMML NIL=
201006220345 METAR LMML 220345Z 28011KT 250V330 9999 FEW026 18/12 Q1014
                        NOSIG=
201006220330 METAR LMML NIL=
201006220315 METAR LMML 220315Z 29013KT 260V320 9999 FEW027 18/12 Q1014
                        NOSIG=
201006220300 METAR LMML NIL=
201006220245 METAR LMML 220245Z 29015KT 9999 FEW030 18/12 Q1014 NOSIG=
201006220230 METAR LMML NIL=
201006220215 METAR LMML 220215Z 29015KT 9999 FEW031 18/12 Q1014 NOSIG=
201006220200 METAR LMML NIL=
201006220145 METAR LMML 220145Z 28016KT 9999 FEW032 18/12 Q1014 NOSIG=
201006220130 METAR LMML NIL=
201006220115 METAR LMML 220115Z 29014KT 9999 FEW032 18/12 Q1014 NOSIG=
201006220100 METAR LMML NIL=
201006220045 METAR LMML 220045Z 30011KT 9999 FEW032 18/12 Q1014 NOSIG=
201006220030 METAR LMML NIL=
201006220015 METAR LMML 220015Z 29009KT 270V330 9999 SCT033 18/12 Q1014
                        NOSIG=
201006220000 METAR LMML NIL=
201006212345 METAR LMML 212345Z 30009KT 270V330 9999 SCT031 18/12 Q1014
                        NOSIG=
201006212330 METAR LMML NIL=
201006212315 METAR LMML 212315Z 31009KT 280V340 9999 FEW029 18/12 Q1014
                        NOSIG=
201006212300 METAR LMML NIL=
201006212245 METAR LMML 212245Z 30009KT 9999 FEW029 18/12 Q1014 NOSIG=
201006212230 METAR LMML NIL=
201006212215 METAR LMML 212215Z 31014KT 270V330 9999 FEW028 18/12 Q1014
                        NOSIG=
201006212200 METAR LMML NIL=
201006212145 METAR LMML 212145Z 31012KT 9999 FEW030 19/12 Q1014 NOSIG=
201006212130 METAR LMML NIL=
201006212115 METAR LMML 212115Z 30015KT 270V330 9999 FEW032 19/12 Q1014
                        NOSIG=
201006212100 METAR LMML NIL=
201006212045 METAR LMML 212045Z 30017KT 9999 FEW026 19/12 Q1014 NOSIG=
201006212030 METAR LMML NIL=
201006212015 METAR LMML 212015Z 30015KT 260V320 9999 FEW027 19/12 Q1014
                        NOSIG=
201006212000 METAR LMML NIL=
201006211945 METAR LMML 211945Z 30018KT 9999 FEW027 19/12 Q1014 NOSIG=
201006211930 METAR LMML NIL=
201006211915 METAR LMML 211915Z 29013KT 270V330 9999 FEW028 19/13 Q1014
                        NOSIG=
201006211900 METAR LMML NIL=
201006211845 METAR LMML 211845Z 29015KT 250V340 9999 FEW029 19/13 Q1014
                        NOSIG=
201006211830 METAR LMML NIL=
201006211815 METAR LMML 211815Z 29017KT 260V320 9999 FEW031 20/12 Q1014
                        NOSIG=
201006211800 METAR LMML NIL=
201006211745 METAR LMML 211745Z 29016KT 250V320 9999 FEW032 20/12 Q1013
                        NOSIG=
201006211730 METAR LMML NIL=
201006211715 METAR LMML 211715Z 29015KT 250V320 9999 FEW034 21/11 Q1013
                        NOSIG=
201006211700 METAR LMML NIL=
201006211645 METAR LMML 211645Z 29020KT 260V320 9999 FEW034 21/12 Q1013
                        NOSIG=
201006211630 METAR LMML NIL=
201006211615 METAR LMML 211615Z 29017KT 250V330 9999 FEW037 21/12 Q1013
                        NOSIG=
201006211600 METAR LMML NIL=
201006211545 METAR LMML 211545Z 28018KT 250V320 9999 FEW037 22/11 Q1013
                        NOSIG=
201006211530 METAR LMML NIL=
201006211515 METAR LMML 211515Z 29018G29KT 240V330 9999 FEW037 22/12 Q1013
                        NOSIG=
201006211500 METAR LMML NIL=
201006211445 METAR LMML 211445Z 28019KT 250V320 9999 SCT034 22/12 Q1013
                        NOSIG=
201006211430 METAR LMML NIL=
201006211415 METAR LMML 211415Z 28018KT 230V310 9999 SCT034 22/12 Q1013
                        NOSIG=
201006211400 METAR LMML NIL=
201006211345 METAR LMML 211345Z 27017KT 220V310 9999 SCT034 22/12 Q1013
                        NOSIG=
201006211330 METAR LMML NIL=
201006211315 METAR LMML 211315Z 29017KT 210V320 9999 FEW035 23/13 Q1013
                        NOSIG=
201006211300 METAR LMML NIL=
201006211245 METAR LMML 211245Z 29017G27KT 250V320 9999 FEW035 23/12 Q1013
                        NOSIG=
201006211230 METAR LMML NIL=
201006211215 METAR LMML 211215Z 28017KT 220V300 9999 FEW035 23/12 Q1013
                        NOSIG=
201006211200 METAR LMML NIL=
201006211145 METAR LMML 211145Z 29018KT 250V320 9999 FEW038 23/12 Q1013
                        NOSIG=
201006211115 METAR LMML 211115Z 30018KT 9999 FEW037 23/11 Q1013 NOSIG=
201006211100 METAR LMML NIL=
201006211045 METAR LMML 211045Z 30017KT 270V330 9999 FEW030 23/12 Q1013
                        NOSIG=
201006211030 METAR LMML NIL=
201006211015 METAR LMML 211015Z 28018KT 250V320 9999 FEW030 22/11 Q1013
                        NOSIG=
201006211000 METAR LMML NIL=
201006210945 METAR LMML 210945Z 29017KT 250V320 9999 FEW030 22/12 Q1013
                        NOSIG=
201006210930 METAR LMML NIL=
201006210915 METAR LMML 210915Z 29015KT 220V330 9999 FEW030 SCT080 22/11
                        Q1013 NOSIG=
201006210900 METAR LMML NIL=
201006210845 METAR LMML 210845Z 29014KT 260V330 9999 FEW020 SCT080 22/12
                        Q1013 NOSIG=
201006210815 METAR LMML 210815Z 29015KT 250V320 9999 FEW020 SCT080 21/12
                        Q1012 NOSIG=
201006210800 METAR LMML NIL=
201006210745 METAR LMML 210745Z 31013KT 280V340 CAVOK 21/12 Q1012 NOSIG=
201006210730 METAR LMML NIL=
201006210715 METAR LMML 210715Z 31013KT 280V340 CAVOK 20/11 Q1012 NOSIG=
201006210700 METAR LMML NIL=
201006210645 METAR LMML 210645Z 30012KT 270V340 9999 FEW025 SCT070 21/09
                        Q1012 NOSIG=
201006210630 METAR LMML NIL=
201006210615 METAR LMML 210615Z 32010KT 280V340 9999 FEW025 SCT080 21/07
                        Q1012 NOSIG=
201006210600 METAR LMML NIL=
201006210545 METAR LMML 210545Z 31012KT 9999 FEW025 SCT080 19/11 Q1012
                        NOSIG=
201006210515 METAR LMML 210515Z 32012KT CAVOK 19/12 Q1011 NOSIG=
201006210500 METAR LMML NIL=
201006210445 METAR LMML 210445Z 31014KT 9999 FEW025 BKN080 19/12 Q1011
                        TEMPO 8000 SHRA BKN015=
201006210430 METAR LMML NIL=
201006210415 METAR LMML 210415Z 30010KT 9999 FEW020 SCT110 18/13 Q1011
                        TEMPO 8000 SHRA BKN015=
201006210400 METAR LMML NIL=
201006210345 METAR LMML 210345Z 31010KT 9999 FEW020 SCT048 BKN090 18/14
                        Q1011 TEMPO 8000 SHRA BKN015=
201006210330 METAR LMML NIL=
201006210315 METAR LMML 210315Z 31012KT 9999 FEW020 BKN090 19/14 Q1011
                        TEMPO 8000 SHRA BKN015=
201006210300 METAR LMML NIL=
201006210245 METAR LMML 210245Z 31013KT 9999 FEW020 BKN090 19/15 Q1011
                        TEMPO 8000 SHRA BKN015=
201006210230 METAR LMML NIL=
201006210215 METAR LMML 210215Z 31011KT 9999 FEW020 SCT090 19/16 Q1011
                        TEMPO 8000 SHRA BKN015=
201006210200 METAR LMML NIL=
201006210145 METAR LMML 210145Z 30017KT 9999 -SHRA FEW017 BKN090 19/16
                        Q1011 TEMPO 8000 SHRA BKN015=
201006210130 METAR LMML NIL=
201006210115 METAR LMML 210115Z 29011KT CAVOK 21/17 Q1010 TEMPO 8000 SHRA
                        BKN015=
201006210100 METAR LMML NIL=
201006210045 METAR LMML 210045Z 30008KT CAVOK 20/17 Q1010 TEMPO 8000 SHRA
                        BKN015=
201006210030 METAR LMML NIL=
201006210015 METAR LMML 210015Z 30004KT CAVOK 20/17 Q1010 TEMPO 8000 SHRA
                        BKN015=
201006210000 METAR LMML NIL=
201006202345 METAR LMML 202345Z VRB02KT CAVOK 20/16 Q1009 NOSIG=
201006202330 METAR LMML NIL=
201006202315 METAR LMML 202315Z VRB03KT CAVOK 20/16 Q1009 NOSIG=
201006202300 METAR LMML NIL=
201006202245 METAR LMML 202245Z VRB01KT CAVOK 20/17 Q1009 NOSIG=
201006202230 METAR LMML NIL=
201006202215 METAR LMML 202215Z VRB03KT CAVOK 20/16 Q1009 NOSIG=
201006202145 METAR LMML 202145Z VRB03KT CAVOK 20/16 Q1009 NOSIG=
201006202130 METAR LMML NIL=
201006202115 METAR LMML 202115Z VRB03KT CAVOK 20/16 Q1010 NOSIG=
201006202100 METAR LMML NIL=
201006202045 METAR LMML 202045Z 25004KT 220V280 CAVOK 20/16 Q1010 NOSIG=
201006202030 METAR LMML NIL=
201006202015 METAR LMML 202015Z 24005KT 210V270 CAVOK 20/17 Q1010 NOSIG=
201006202000 METAR LMML NIL=
201006201945 METAR LMML 201945Z 23005KT 200V270 CAVOK 21/16 Q1009 NOSIG=
201006201930 METAR LMML NIL=
201006201915 METAR LMML 201915Z 22004KT 180V260 CAVOK 21/16 Q1009 NOSIG=
201006201845 METAR LMML 201845Z VRB03KT CAVOK 21/16 Q1009 NOSIG=
201006201830 METAR LMML NIL=
201006201815 METAR LMML 201815Z VRB03KT CAVOK 22/16 Q1008 NOSIG=
201006201800 METAR LMML NIL=
201006201745 METAR LMML 201745Z 24004KT 190V300 CAVOK 22/16 Q1009 NOSIG=
201006201730 METAR LMML NIL=
201006201715 METAR LMML 201715Z 23005KT 180V270 CAVOK 23/16 Q1009 NOSIG=
201006201700 METAR LMML NIL=
201006201645 METAR LMML 201645Z 25006KT 220V280 CAVOK 23/16 Q1009 NOSIG=
201006201630 METAR LMML NIL=
201006201615 METAR LMML 201615Z 26007KT 210V300 CAVOK 24/15 Q1009 NOSIG=
201006201600 METAR LMML NIL=
201006201545 METAR LMML 201545Z 26009KT 220V300 9999 FEW020 23/16 Q1009
                        NOSIG=
201006201530 METAR LMML NIL=
201006201515 METAR LMML 201515Z 26010KT 200V330 9999 FEW020 24/15 Q1009
                        NOSIG=
201006201500 METAR LMML NIL=
201006201445 METAR LMML 201445Z 27010KT 220V310 9999 FEW020 24/15 Q1009
                        NOSIG=
201006201430 METAR LMML NIL=
201006201415 METAR LMML 201415Z 26010KT 230V300 9999 FEW020 24/14 Q1009
                        NOSIG=
201006201400 METAR LMML NIL=
201006201345 METAR LMML 201345Z 26009KT 210V310 9999 FEW020 24/15 Q1009
                        NOSIG=
201006201330 METAR LMML NIL=
201006201315 METAR LMML 201315Z 26009KT 210V290 9999 FEW021 24/16 Q1009
                        NOSIG=
201006201300 METAR LMML NIL=
201006201245 METAR LMML 201245Z 25010KT 200V310 9999 FEW021 24/16 Q1009
                        NOSIG=
201006201230 METAR LMML NIL=
201006201215 METAR LMML 201215Z 25010KT 200V290 9999 FEW022 24/16 Q1009
                        NOSIG=
201006201200 METAR LMML NIL=
201006201145 METAR LMML 201145Z 24010KT 200V290 9999 FEW022 25/17 Q1009
                        NOSIG=
201006201130 METAR LMML NIL=
201006201115 METAR LMML 201115Z 25009KT 200V290 9999 FEW023 24/16 Q1009
                        NOSIG=
201006201100 METAR LMML NIL=
201006201045 METAR LMML 201045Z 27009KT 200V320 9999 FEW022 24/17 Q1009
                        NOSIG=
201006201030 METAR LMML NIL=
201006201015 METAR LMML 201015Z 27008KT 200V320 9999 SCT025 24/17 Q1009
                        NOSIG=
201006201000 METAR LMML NIL=
201006200945 METAR LMML 200945Z 28008KT 210V320 9999 FEW024 24/16 Q1009
                        NOSIG=
201006200930 METAR LMML NIL=
201006200915 METAR LMML 200915Z 29009KT 250V320 9999 FEW024 24/16 Q1009
                        NOSIG=
201006200900 METAR LMML NIL=
201006200845 METAR LMML 200845Z 30010KT 270V360 9999 FEW021 24/16 Q1009
                        NOSIG=
201006200830 METAR LMML NIL=
201006200815 METAR LMML 200815Z 30009KT 260V330 9999 FEW021 23/17 Q1009
                        NOSIG=
201006200800 METAR LMML NIL=
201006200745 METAR LMML 200745Z 30010KT 250V340 9999 FEW020 23/17 Q1009
                        NOSIG=
201006200730 METAR LMML NIL=
201006200715 METAR LMML 200715Z 31011KT 9999 FEW020 22/16 Q1009 NOSIG=
201006200700 METAR LMML NIL=
201006200645 METAR LMML 200645Z 31009KT 280V350 9999 FEW020 22/16 Q1008
                        NOSIG=
201006200630 METAR LMML NIL=
201006200615 METAR LMML 200615Z 32009KT 9999 FEW020 21/16 Q1008 NOSIG=
201006200600 METAR LMML NIL=
201006200545 METAR LMML 200545Z 32008KT CAVOK 20/16 Q1008 NOSIG=
201006200530 METAR LMML NIL=
201006200515 METAR LMML 200515Z 30007KT 260V330 CAVOK 20/16 Q1008 NOSIG=
201006200500 METAR LMML NIL=
201006200445 METAR LMML 200445Z 29008KT 260V320 CAVOK 20/15 Q1007 NOSIG=
201006200430 METAR LMML NIL=
201006200415 METAR LMML 200415Z 29009KT 9999 FEW025 19/15 Q1007 NOSIG=
201006200400 METAR LMML NIL=
201006200345 METAR LMML 200345Z 29008KT 250V310 CAVOK 19/15 Q1007 NOSIG=
201006200330 METAR LMML NIL=
201006200315 METAR LMML 200315Z 30008KT CAVOK 19/14 Q1007 NOSIG=
201006200300 METAR LMML NIL=
201006200245 METAR LMML 200245Z 31007KT CAVOK 19/14 Q1007 RETS NOSIG=
201006200230 METAR LMML NIL=
201006200215 METAR LMML 200215Z VRB03KT CAVOK 19/14 Q1007 RETS NOSIG RMK
                        LIGHTNING TO EAST=
201006200200 METAR LMML NIL=
201006200145 METAR LMML 200145Z 32012KT 9999 TS FEW060CB BKN100 20/14
                        Q1007 TEMPO TSRA SCT060=
201006200130 METAR LMML NIL=
201006200115 METAR LMML 200115Z 33007KT 9999 TS FEW060CB SCT100 20/16
                        Q1007 TEMPO TSRA SCT060=
201006200100 METAR LMML NIL=
201006200045 METAR LMML 200045Z 32007KT CAVOK 20/16 Q1007 TEMPO TSRA SCT060=
201006200030 METAR LMML NIL=
201006200015 METAR LMML 200015Z 33013KT CAVOK 21/16 Q1007 NOSIG=
201006200000 METAR LMML NIL=
201006192345 METAR LMML 192345Z 33020KT CAVOK 21/15 Q1008 NOSIG=
201006192330 METAR LMML NIL=
201006192315 METAR LMML 192315Z 32019KT CAVOK 21/13 Q1008 NOSIG=
201006192300 METAR LMML NIL=
201006192245 METAR LMML 192245Z 32019G29KT CAVOK 21/13 Q1008 NOSIG=
201006192230 METAR LMML NIL=
201006192215 METAR LMML 192215Z 31016KT CAVOK 21/13 Q1008 NOSIG=
201006192200 METAR LMML NIL=
201006192145 METAR LMML 192145Z 31017KT CAVOK 22/12 Q1008 NOSIG=
201006192130 METAR LMML NIL=
201006192115 METAR LMML 192115Z 30023KT CAVOK 22/13 Q1009 NOSIG=
201006192045 METAR LMML 192045Z 31018KT CAVOK 22/13 Q1009 NOSIG=
201006192030 METAR LMML NIL=
201006192015 METAR LMML 192015Z 30015KT CAVOK 22/13 Q1008 NOSIG=
201006192000 METAR LMML NIL=
201006191945 METAR LMML 191945Z 31014KT CAVOK 21/14 Q1008 NOSIG=
201006191930 METAR LMML NIL=
201006191915 METAR LMML 191915Z 31017KT CAVOK 21/15 Q1008 NOSIG=
201006191900 METAR LMML NIL=
201006191845 METAR LMML 191845Z 30014KT CAVOK 21/15 Q1008 NOSIG=
201006191830 METAR LMML NIL=
201006191815 METAR LMML 191815Z 29015KT CAVOK 21/15 Q1008 NOSIG=
201006191745 METAR LMML 191745Z 29013KT 260V320 CAVOK 22/14 Q1008 NOSIG=
201006191715 METAR LMML 191715Z 30014KT 260V320 CAVOK 23/14 Q1008 NOSIG=
201006191700 METAR LMML NIL=
201006191645 METAR LMML 191645Z 29017KT 250V320 CAVOK 23/14 Q1008 NOSIG=
201006191630 METAR LMML NIL=
201006191615 METAR LMML 191615Z 29016KT 260V320 CAVOK 24/14 Q1008 NOSIG=
201006191545 METAR LMML 191545Z 30016KT 260V330 9999 FEW020 25/13 Q1008
                        NOSIG=
201006191530 METAR LMML NIL=
201006191515 METAR LMML 191515Z 30017KT 270V330 9999 FEW020 25/14 Q1008
                        NOSIG=
201006191500 METAR LMML NIL=
201006191445 METAR LMML 191445Z 30017KT 9999 FEW020 25/13 Q1008 NOSIG=
201006191430 METAR LMML NIL=
201006191415 METAR LMML 191415Z 29016KT 260V330 9999 FEW020 26/14 Q1008
                        NOSIG=
201006191400 METAR LMML NIL=
201006191345 METAR LMML 191345Z 29015KT 260V320 9999 FEW020 26/14 Q1008
                        NOSIG=
201006191330 METAR LMML NIL=
201006191315 METAR LMML 191315Z 30017KT 270V330 9999 FEW020 25/15 Q1008
                        NOSIG=
201006191300 METAR LMML NIL=
201006191245 METAR LMML 191245Z 31017KT 280V340 9999 FEW020 26/16 Q1009
                        NOSIG=
201006191230 METAR LMML NIL=
201006191215 METAR LMML 191215Z 31018KT 280V340 9999 FEW020 26/16 Q1009
                        NOSIG=
201006191200 METAR LMML NIL=
201006191145 METAR LMML 191145Z 31019KT 9999 FEW020 26/17 Q1009 NOSIG=
201006191130 METAR LMML NIL=
201006191115 METAR LMML 191115Z 31018KT 280V340 9999 FEW020 25/17 Q1009
                        NOSIG=
201006191100 METAR LMML NIL=
201006191045 METAR LMML 191045Z 29015KT 250V320 9999 FEW020 25/18 Q1009
                        NOSIG=
201006191030 METAR LMML NIL=
201006191015 METAR LMML 191015Z 30017KT 260V330 9999 FEW020 25/18 Q1009
                        NOSIG=
201006191000 METAR LMML NIL=
201006190945 METAR LMML 190945Z 29014KT 250V320 9999 FEW020 25/17 Q1009
                        NOSIG=
201006190930 METAR LMML NIL=
201006190915 METAR LMML 190915Z 30018KT 9999 FEW020 25/17 Q1008 NOSIG=
201006190900 METAR LMML NIL=
201006190845 METAR LMML 190845Z 29018KT 240V320 9999 FEW020 24/18 Q1008
                        NOSIG=
201006190830 METAR LMML NIL=
201006190815 METAR LMML 190815Z 29020KT 260V320 9999 FEW020 24/18 Q1008
                        NOSIG=
201006190800 METAR LMML NIL=
201006190745 METAR LMML 190745Z 30018KT 260V330 9999 FEW020 24/18 Q1008
                        NOSIG=
201006190730 METAR LMML NIL=
201006190715 METAR LMML 190715Z 30021G31KT 9999 FEW020 24/17 Q1008 NOSIG=
201006190700 METAR LMML NIL=
201006190645 METAR LMML 190645Z 31019KT 9999 FEW020 24/17 Q1007 NOSIG=
201006190630 METAR LMML NIL=
201006190615 METAR LMML 190615Z 32019KT CAVOK 23/16 Q1007 NOSIG=
201006190600 METAR LMML NIL=
201006190545 METAR LMML 190545Z 32015KT CAVOK 22/17 Q1007 NOSIG=
201006190530 METAR LMML NIL=
201006190515 METAR LMML 190515Z 34013KT 290V360 CAVOK 21/17 Q1007 NOSIG=
201006190500 METAR LMML NIL=
201006190445 METAR LMML 190445Z 33012KT 310V010 CAVOK 20/18 Q1008 NOSIG=
201006190430 METAR LMML NIL=
201006190415 METAR LMML 190415Z 32012KT 300V360 9999 FEW007 20/18 Q1008
                        NOSIG=
201006190400 METAR LMML NIL=
201006190345 METAR LMML 190345Z 32013KT 9999 FEW007 20/19 Q1007 NOSIG=
201006190330 METAR LMML NIL=
201006190315 METAR LMML 190315Z 31012KT 9999 FEW007 20/19 Q1007 NOSIG=
201006190300 METAR LMML NIL=
201006190245 METAR LMML 190245Z 32010KT 9999 FEW007 20/19 Q1007 NOSIG=
201006190230 METAR LMML NIL=
201006190215 METAR LMML 190215Z 32010KT 9999 FEW007 20/19 Q1007 NOSIG=
201006190200 METAR LMML NIL=
201006190145 METAR LMML 190145Z 31013G23KT 280V340 9999 FEW007 21/19 Q1007
                        NOSIG=
201006190130 METAR LMML NIL=
201006190115 METAR LMML 190115Z 31009KT 250V340 9999 FEW006 21/20 Q1007
                        NOSIG=
201006190100 METAR LMML NIL=
201006190045 METAR LMML 190045Z 30011KT 9999 FEW012 21/20 Q1007 NOSIG=
201006190015 METAR LMML 190015Z 31011KT 280V340 9999 FEW012 21/20 Q1007
                        NOSIG=
201006182345 METAR LMML 182345Z 32004KT 290V360 9999 FEW012 21/19 Q1007
                        NOSIG=
201006182330 METAR LMML NIL=
201006182315 METAR LMML 182315Z 31009KT CAVOK 22/19 Q1008 NOSIG=
201006182245 METAR LMML 182245Z 31009KT CAVOK 22/19 Q1008 NOSIG=
201006182215 METAR LMML 182215Z 32006KT CAVOK 22/18 Q1008 NOSIG=
201006182145 METAR LMML 182145Z 31007KT CAVOK 23/18 Q1008 NOSIG=
201006182130 METAR LMML NIL=
201006182115 METAR LMML 182115Z 32006KT CAVOK 23/18 Q1008 NOSIG=
201006182045 METAR LMML 182045Z 33007KT CAVOK 23/18 Q1008 NOSIG=
201006182030 METAR LMML NIL=
201006182015 METAR LMML 182015Z 30004KT CAVOK 23/18 Q1009 NOSIG=
201006182000 METAR LMML NIL=
201006181945 METAR LMML 181945Z 29005KT CAVOK 23/19 Q1008 NOSIG=
201006181930 METAR LMML NIL=
201006181915 METAR LMML 181915Z 30006KT CAVOK 24/18 Q1008 NOSIG=
201006181900 METAR LMML NIL=
201006181845 METAR LMML 181845Z VRB02KT CAVOK 25/17 Q1008 NOSIG=
201006181830 METAR LMML NIL=
201006181815 METAR LMML 181815Z VRB02KT CAVOK 25/17 Q1008 NOSIG=
201006181800 METAR LMML NIL=
201006181745 METAR LMML 181745Z 25006KT 210V300 CAVOK 25/18 Q1008 NOSIG=
201006181730 METAR LMML NIL=
201006181715 METAR LMML 181715Z 23006KT 200V290 CAVOK 26/18 Q1008 NOSIG=
201006181700 METAR LMML NIL=
201006181645 METAR LMML 181645Z 21006KT 160V270 CAVOK 26/18 Q1008 NOSIG=
201006181630 METAR LMML NIL=
201006181615 METAR LMML 181615Z 20008KT 170V260 CAVOK 27/17 Q1008 NOSIG=
201006181600 METAR LMML NIL=
201006181545 METAR LMML 181545Z 18007KT 150V220 CAVOK 27/17 Q1008 NOSIG=
201006181530 METAR LMML NIL=
201006181515 METAR LMML 181515Z 14009KT 110V170 CAVOK 27/16 Q1008 NOSIG=
201006181500 METAR LMML NIL=
201006181445 METAR LMML 181445Z 12014KT CAVOK 28/14 Q1007 NOSIG=
201006181430 METAR LMML NIL=
201006181415 METAR LMML 181415Z 13018KT CAVOK 28/15 Q1007 NOSIG=
201006181400 METAR LMML NIL=
201006181345 METAR LMML 181345Z 13016KT 100V160 CAVOK 28/15 Q1008 NOSIG=
201006181330 METAR LMML NIL=
201006181315 METAR LMML 181315Z 10010KT 070V150 CAVOK 27/15 Q1009 NOSIG=
201006181300 METAR LMML NIL=
201006181245 METAR LMML 181245Z 11013KT CAVOK 29/17 Q1009 NOSIG=
201006181215 METAR LMML 181215Z 11012KT 070V140 CAVOK 29/15 Q1010 NOSIG=
201006181200 METAR LMML NIL=
201006181145 METAR LMML 181145Z 14009KT 100V170 CAVOK 28/16 Q1011 NOSIG=
201006181130 METAR LMML NIL=
201006181115 METAR LMML 181115Z 11009KT 080V150 CAVOK 28/15 Q1011 NOSIG=
201006181100 METAR LMML NIL=
201006181045 METAR LMML 181045Z 11009KT 070V150 CAVOK 30/16 Q1010 NOSIG=
201006181030 METAR LMML NIL=
201006181015 METAR LMML 181015Z 10009KT 070V130 CAVOK 29/15 Q1011 NOSIG=
201006181000 METAR LMML NIL=
201006180945 METAR LMML 180945Z 10010KT 070V150 CAVOK 29/17 Q1010 NOSIG=
201006180915 METAR LMML 180915Z 11011KT CAVOK 29/16 Q1011 NOSIG=
201006180900 METAR LMML NIL=
201006180845 METAR LMML 180845Z 09010KT 050V120 CAVOK 28/16 Q1011 NOSIG=
201006180830 METAR LMML NIL=
201006180815 METAR LMML 180815Z 09008KT 060V130 CAVOK 28/16 Q1011 NOSIG=
201006180800 METAR LMML NIL=
201006180745 METAR LMML 180745Z 09007KT 050V140 CAVOK 28/16 Q1012 NOSIG=
201006180730 METAR LMML NIL=
201006180715 METAR LMML 180715Z 10007KT 050V140 CAVOK 28/16 Q1012 NOSIG=
201006180700 METAR LMML NIL=
201006180645 METAR LMML 180645Z 16006KT CAVOK 27/18 Q1011 NOSIG=
201006180630 METAR LMML NIL=
201006180615 METAR LMML 180615Z 10006KT 070V140 CAVOK 26/18 Q1011 NOSIG=
201006180600 METAR LMML NIL=
201006180545 METAR LMML 180545Z 12008KT CAVOK 24/20 Q1011 NOSIG=
201006180530 METAR LMML NIL=
201006180515 METAR LMML 180515Z 08004KT 040V120 7000 NSC 23/21 Q1012 BECMG
                        CAVOK=
201006180500 METAR LMML NIL=
201006180445 METAR LMML 180445Z VRB02KT 7000 NSC 22/21 Q1012 NOSIG=
201006180430 METAR LMML NIL=
201006180415 METAR LMML 180415Z VRB02KT 6000 NSC 22/21 Q1012 NOSIG=
201006180400 METAR LMML NIL=
201006180345 METAR LMML 180345Z VRB03KT 5000 BR FEW004 22/21 Q1011 NOSIG=
201006180330 METAR LMML NIL=
201006180315 METAR LMML 180315Z 04004KT 350V080 5000 FEW004 SCT250 22/21
                        Q1012 NOSIG=
201006180300 METAR LMML NIL=
201006180245 METAR LMML 180245Z VRB03KT 7000 NSC 22/21 Q1012 TEMPO 5000
                        BR=
201006180230 METAR LMML NIL=
201006180215 METAR LMML 180215Z 03004KT 010V070 7000 NSC 22/21 Q1012 TEMPO
                        5000 BR=
201006180200 METAR LMML NIL=
201006180145 METAR LMML 180145Z 10004KT 070V130 9000 NSC 22/20 Q1011 TEMPO
                        5000 BR=
201006180130 METAR LMML NIL=
201006180115 METAR LMML 180115Z VRB03KT 9000 NSC 22/21 Q1012 TEMPO 5000
                        BR=
201006180100 METAR LMML NIL=
201006180045 METAR LMML 180045Z 07004KT 020V100 CAVOK 22/20 Q1012 TEMPO
                        9000 NSC=
201006180030 METAR LMML NIL=
201006180015 METAR LMML 180015Z 07004KT CAVOK 22/20 Q1012 TEMPO 9000 NSC=
201006180000 METAR LMML NIL=
201006172345 METAR LMML 172345Z VRB03KT CAVOK 22/20 Q1012 TEMPO 9000 NSC=
201006172330 METAR LMML NIL=
201006172315 METAR LMML 172315Z VRB03KT CAVOK 22/21 Q1012 BECMG 9000 NSC=
201006172300 METAR LMML NIL=
201006172245 METAR LMML 172245Z VRB03KT CAVOK 23/21 Q1012 BECMG 9000 NSC=
201006172230 METAR LMML NIL=
201006172215 METAR LMML 172215Z VRB03KT CAVOK 23/21 Q1012 NOSIG=
201006172200 METAR LMML NIL=
201006172145 METAR LMML 172145Z VRB03KT CAVOK 23/21 Q1013 NOSIG=
201006172130 METAR LMML NIL=
201006172115 METAR LMML 172115Z VRB03KT CAVOK 23/21 Q1013 NOSIG=
201006172100 METAR LMML NIL=
201006172045 METAR LMML 172045Z VRB03KT CAVOK 23/20 Q1013 NOSIG=
201006172030 METAR LMML NIL=
201006172015 METAR LMML 172015Z 09005KT 050V120 CAVOK 24/20 Q1013 NOSIG=
201006172000 METAR LMML NIL=
201006171945 METAR LMML 171945Z 09005KT CAVOK 24/20 Q1012 NOSIG=
201006171930 METAR LMML NIL=
201006171915 METAR LMML 171915Z 09005KT 030V140 CAVOK 24/19 Q1012 NOSIG=
201006171900 METAR LMML NIL=
201006171845 METAR LMML 171845Z 09006KT CAVOK 24/19 Q1012 NOSIG=
201006171830 METAR LMML NIL=
201006171815 METAR LMML 171815Z 09006KT 060V120 CAVOK 25/18 Q1012 NOSIG=
201006171800 METAR LMML NIL=
201006171745 METAR LMML 171745Z 10008KT 060V140 CAVOK 26/16 Q1012 NOSIG=
201006171730 METAR LMML NIL=
201006171715 METAR LMML 171715Z 10008KT CAVOK 27/16 Q1012 NOSIG=
201006171700 METAR LMML NIL=
201006171645 METAR LMML 171645Z 08009KT 050V120 CAVOK 28/15 Q1012 NOSIG=
201006171630 METAR LMML NIL=
201006171615 METAR LMML 171615Z 08010KT 040V110 CAVOK 29/16 Q1012 NOSIG=
201006171600 METAR LMML NIL=
201006171545 METAR LMML 171545Z 07010KT CAVOK 30/16 Q1012 NOSIG=
201006171530 METAR LMML NIL=
201006171515 METAR LMML 171515Z 09009KT CAVOK 29/14 Q1012 NOSIG=
201006171500 METAR LMML NIL=
201006171445 METAR LMML 171445Z 07010KT 040V100 CAVOK 30/15 Q1012 NOSIG=
201006171430 METAR LMML NIL=
201006171415 METAR LMML 171415Z 07010KT CAVOK 31/16 Q1012 NOSIG=
201006171400 METAR LMML NIL=
201006171345 METAR LMML 171345Z 07011KT 030V110 CAVOK 31/15 Q1012 NOSIG=
201006171330 METAR LMML NIL=
201006171315 METAR LMML 171315Z 07012KT 030V100 CAVOK 30/16 Q1013 NOSIG=
201006171300 METAR LMML NIL=
201006171245 METAR LMML 171245Z 07010KT 020V120 CAVOK 32/15 Q1013 NOSIG=
201006171230 METAR LMML NIL=
201006171215 METAR LMML 171215Z 08009KT 030V120 CAVOK 31/17 Q1013 NOSIG=
201006171200 METAR LMML NIL=
201006171145 METAR LMML 171145Z 08011KT CAVOK 31/16 Q1013 NOSIG=
201006171130 METAR LMML NIL=
201006171115 METAR LMML 171115Z 08009KT 020V120 CAVOK 32/14 Q1014 NOSIG=
201006171100 METAR LMML NIL=
201006171045 METAR LMML 171045Z 08008KT 360V120 CAVOK 31/15 Q1014 NOSIG=
201006171015 METAR LMML 171015Z 05008KT 010V120 CAVOK 32/15 Q1014 NOSIG=
201006170945 METAR LMML 170945Z 06007KT 020V100 CAVOK 31/17 Q1014 NOSIG=
201006170915 METAR LMML 170915Z 06007KT 010V100 CAVOK 29/15 Q1014 NOSIG=
201006170900 METAR LMML NIL=
201006170845 METAR LMML 170845Z 05007KT 010V090 CAVOK 31/17 Q1014 NOSIG=
201006170830 METAR LMML NIL=
201006170815 METAR LMML 170815Z 05007KT 010V080 CAVOK 29/17 Q1014 NOSIG=
201006170800 METAR LMML NIL=
201006170745 METAR LMML 170745Z 02006KT CAVOK 30/17 Q1014 NOSIG=
201006170730 METAR LMML NIL=
201006170715 METAR LMML 170715Z 06006KT 020V090 CAVOK 28/16 Q1014 NOSIG=
201006170700 METAR LMML NIL=
201006170645 METAR LMML 170645Z 10004KT 060V150 CAVOK 28/16 Q1014 NOSIG=
201006170630 METAR LMML NIL=
201006170615 METAR LMML 170615Z VRB02KT CAVOK 27/16 Q1014 NOSIG=
201006170600 METAR LMML NIL=
201006170545 METAR LMML 170545Z 05004KT 010V080 CAVOK 26/15 Q1014 NOSIG=
201006170530 METAR LMML NIL=
201006170515 METAR LMML 170515Z VRB01KT CAVOK 25/15 Q1014 NOSIG=
201006170445 METAR LMML 170445Z VRB02KT CAVOK 23/14 Q1014 NOSIG=
201006170430 METAR LMML NIL=
201006170415 METAR LMML 170415Z VRB02KT CAVOK 23/14 Q1014 NOSIG=
201006170400 METAR LMML NIL=
201006170345 METAR LMML 170345Z VRB02KT CAVOK 23/14 Q1014 NOSIG=
201006170330 METAR LMML NIL=
201006170315 METAR LMML 170315Z VRB02KT CAVOK 23/14 Q1013 NOSIG=
201006170300 METAR LMML NIL=
201006170245 METAR LMML 170245Z 30004KT CAVOK 23/14 Q1014 NOSIG=
201006170230 METAR LMML NIL=
201006170215 METAR LMML 170215Z 29004KT CAVOK 23/14 Q1014 NOSIG=
201006170200 METAR LMML NIL=
201006170145 METAR LMML 170145Z VRB02KT CAVOK 23/15 Q1013 NOSIG=
201006170130 METAR LMML NIL=
201006170115 METAR LMML 170115Z VRB02KT CAVOK 23/15 Q1014 NOSIG=
201006170100 METAR LMML NIL=
201006170045 METAR LMML 170045Z VRB03KT CAVOK 23/15 Q1014 NOSIG=
201006170030 METAR LMML NIL=
201006170015 METAR LMML 170015Z VRB03KT CAVOK 22/16 Q1014 NOSIG=
201006170000 METAR LMML NIL=
201006162345 METAR LMML 162345Z 30004KT CAVOK 23/15 Q1014 NOSIG=
201006162330 METAR LMML NIL=
201006162315 METAR LMML 162315Z VRB03KT CAVOK 23/15 Q1014 NOSIG=
201006162300 METAR LMML NIL=
201006162245 METAR LMML 162245Z VRB03KT CAVOK 23/16 Q1014 NOSIG=
201006162230 METAR LMML NIL=
201006162215 METAR LMML 162215Z 34004KT CAVOK 24/16 Q1014 NOSIG=
201006162200 METAR LMML NIL=
201006162145 METAR LMML 162145Z VRB03KT CAVOK 24/16 Q1014 NOSIG=
201006162130 METAR LMML NIL=
201006162115 METAR LMML 162115Z VRB03KT CAVOK 24/16 Q1014 NOSIG=
201006162100 METAR LMML NIL=
201006162045 METAR LMML 162045Z VRB03KT CAVOK 24/16 Q1014 NOSIG=
201006162030 METAR LMML NIL=
201006162015 METAR LMML 162015Z 32005KT CAVOK 24/16 Q1014 NOSIG=
201006162000 METAR LMML NIL=
201006161945 METAR LMML 161945Z 32006KT CAVOK 24/17 Q1014 NOSIG=
201006161915 METAR LMML 161915Z 34004KT CAVOK 24/18 Q1014 NOSIG=
201006161900 METAR LMML NIL=
201006161845 METAR LMML 161845Z VRB01KT CAVOK 26/19 Q1013 NOSIG=
201006161830 METAR LMML NIL=
201006161815 METAR LMML 161815Z VRB02KT CAVOK 27/19 Q1013 NOSIG=
201006161800 METAR LMML NIL=
201006161745 METAR LMML 161745Z 07004KT CAVOK 29/19 Q1013 NOSIG=
201006161730 METAR LMML NIL=
201006161715 METAR LMML 161715Z 36005KT 320V040 CAVOK 31/13 Q1013 NOSIG=
201006161700 METAR LMML NIL=
201006161645 METAR LMML 161645Z 34004KT 300V020 CAVOK 31/13 Q1013 NOSIG=
201006161630 METAR LMML NIL=
201006161615 METAR LMML 161615Z 31005KT 270V360 CAVOK 31/13 Q1013 NOSIG=
201006161600 METAR LMML NIL=
201006161545 METAR LMML 161545Z 33006KT 290V360 CAVOK 31/14 Q1013 NOSIG=
201006161530 METAR LMML NIL=
201006161515 METAR LMML 161515Z 33007KT 290V030 CAVOK 31/15 Q1013 NOSIG=
201006161500 METAR LMML NIL=
201006161445 METAR LMML 161445Z 34009KT 300V020 CAVOK 31/16 Q1013 NOSIG=
201006161430 METAR LMML NIL=
201006161415 METAR LMML 161415Z 35009KT 320V020 CAVOK 31/17 Q1013 NOSIG=
201006161345 METAR LMML 161345Z 35008KT 290V010 CAVOK 31/17 Q1013 NOSIG=
201006161330 METAR LMML NIL=
201006161315 METAR LMML 161315Z 35007KT 290V030 CAVOK 31/18 Q1013 NOSIG=
201006161300 METAR LMML NIL=
201006161245 METAR LMML 161245Z 35009KT CAVOK 31/18 Q1013 NOSIG=
201006161230 METAR LMML NIL=
201006161215 METAR LMML 161215Z 35008KT 320V030 CAVOK 31/19 Q1013 NOSIG=
201006161200 METAR LMML NIL=
201006161145 METAR LMML 161145Z 33009KT 300V360 CAVOK 31/19 Q1013 NOSIG=
201006161130 METAR LMML NIL=
201006161115 METAR LMML 161115Z 33008KT 300V010 CAVOK 31/21 Q1013 NOSIG=
201006161100 METAR LMML NIL=
201006161045 METAR LMML 161045Z 06004KT CAVOK 32/20 Q1013 NOSIG=
201006161030 METAR LMML NIL=
201006161015 METAR LMML 161015Z 35005KT 300V050 CAVOK 31/19 Q1013 NOSIG=
201006161000 METAR LMML NIL=
201006160945 METAR LMML 160945Z 34008KT 310V010 CAVOK 31/18 Q1013 NOSIG=
201006160930 METAR LMML NIL=
201006160915 METAR LMML 160915Z 34008KT 300V010 CAVOK 31/18 Q1013 NOSIG=
201006160900 METAR LMML NIL=
201006160845 METAR LMML 160845Z 35006KT 310V020 CAVOK 31/18 Q1012 NOSIG=
201006160830 METAR LMML NIL=
201006160815 METAR LMML 160815Z 30006KT 240V350 CAVOK 30/19 Q1012 NOSIG=
201006160800 METAR LMML NIL=
201006160745 METAR LMML 160745Z 25006KT 200V300 CAVOK 28/19 Q1012 NOSIG=
201006160730 METAR LMML NIL=
201006160715 METAR LMML 160715Z 22006KT 180V280 CAVOK 28/19 Q1012 NOSIG=
201006160700 METAR LMML NIL=
201006160645 METAR LMML 160645Z 21005KT 170V270 CAVOK 27/19 Q1012 NOSIG=
201006160630 METAR LMML NIL=
201006160615 METAR LMML 160615Z VRB03KT CAVOK 27/19 Q1011 NOSIG=
201006160600 METAR LMML NIL=
201006160545 METAR LMML 160545Z VRB02KT CAVOK 25/19 Q1011 NOSIG=
201006160530 METAR LMML NIL=
201006160515 METAR LMML 160515Z VRB03KT CAVOK 24/19 Q1011 NOSIG=
201006160500 METAR LMML NIL=
201006160445 METAR LMML 160445Z 17004KT 130V210 CAVOK 23/19 Q1011 NOSIG=
201006160430 METAR LMML NIL=
201006160415 METAR LMML 160415Z 16006KT 120V200 CAVOK 23/19 Q1011 NOSIG=
201006160400 METAR LMML NIL=
201006160345 METAR LMML 160345Z 14005KT CAVOK 22/19 Q1011 NOSIG=
201006160330 METAR LMML NIL=
201006160315 METAR LMML 160315Z 12005KT CAVOK 22/19 Q1011 NOSIG=
201006160300 METAR LMML NIL=
201006160245 METAR LMML 160245Z VRB02KT CAVOK 22/19 Q1011 NOSIG=
201006160215 METAR LMML 160215Z VRB03KT CAVOK 22/19 Q1011 NOSIG=
201006160145 METAR LMML 160145Z 08005KT CAVOK 22/19 Q1011 NOSIG=
201006160115 METAR LMML 160115Z 07004KT 030V110 CAVOK 22/19 Q1011 NOSIG=
201006160100 METAR LMML NIL=
201006160045 METAR LMML 160045Z VRB02KT CAVOK 22/19 Q1012 NOSIG=
201006160030 METAR LMML NIL=
201006160015 METAR LMML 160015Z 04005KT 360V080 CAVOK 23/19 Q1012 NOSIG=
201006160000 METAR LMML NIL=
201006152345 METAR LMML 152345Z 36006KT 330V160 CAVOK 23/19 Q1012 NOSIG=
201006152330 METAR LMML NIL=
201006152315 METAR LMML 152315Z 01004KT 310V080 CAVOK 24/19 Q1012 RETS
                        TEMPO 9000 TSRA SCT060CB=
201006152300 METAR LMML NIL=
201006152245 METAR LMML 152245Z VRB02KT CAVOK 24/18 Q1013 RETS TEMPO 9000
                        TSRA=
201006152230 METAR LMML NIL=
201006152215 METAR LMML 152215Z VRB03KT 9999 TS BKN060CB 24/19 Q1012 TEMPO
                        9000 TSRA=
201006152200 METAR LMML NIL=
201006152145 METAR LMML 152145Z 01005KT 350V070 9999 TS BKN060CB 24/19
                        Q1012 TEMPO 9000 TSRA=
201006152130 METAR LMML NIL=
201006152115 METAR LMML 152115Z 15009KT 9999 FEW060CB BKN250 25/18 Q1011
                        RETS TEMPO 9000 TSRA BKN060CB=
201006152100 METAR LMML NIL=
201006152045 METAR LMML 152045Z 13005KT 080V160 9999 TS BKN060CB 24/19
                        Q1011 TEMPO 9000 TSRA SCT060=
201006152030 METAR LMML NIL=
201006152015 METAR LMML 152015Z 14010KT 120V180 CAVOK 23/19 Q1011 RETS
                        TEMPO 9000 TSRA SCT060CB RMK LIGHTNING
                        TO N AND NNW=
201006152000 METAR LMML NIL=
201006151945 METAR LMML 151945Z 13009KT CAVOK 24/19 Q1011 NOSIG=
201006151935 SPECI LMML 151935Z 13007KT 110V170 CAVOK 24/18 Q1010 NOSIG=
201006151930 METAR LMML NIL=
201006151915 METAR LMML 151915Z 15006KT 110V190 9999 -TSRA SCT060CB 24/17
                        Q1011 NOSIG=
201006151900 METAR LMML NIL=
201006151845 METAR LMML 151845Z 13006KT CAVOK 24/18 Q1010 TEMPO 9000 TSRA
                        BKN060CB=
201006151830 METAR LMML NIL=
201006151815 METAR LMML 151815Z 13008KT CAVOK 23/20 Q1010 RETS TEMPO 9000
                        TSRA BKN060CB=
201006151800 METAR LMML NIL=
201006151745 METAR LMML 151745Z 15005KT 130V190 9000 TSRA BKN060CB 24/19
                        Q1011 TEMPO 7000 TSRA=
201006151736 SPECI LMML 151736Z 14006KT 9999 TS SCT060CB 23/19 Q1011 TEMPO
                        7000 TSRA BKN020CB=
201006151730 METAR LMML NIL=
201006151715 METAR LMML 151715Z 12008KT CAVOK 24/19 Q1011 TEMPO 7000 TSRA
                        BKN020CB=
201006151700 METAR LMML NIL=
201006151645 METAR LMML 151645Z VRB03KT CAVOK 28/18 Q1011 TEMPO 7000 TSRA
                        BKN020CB=
201006151630 METAR LMML NIL=
201006151615 METAR LMML 151615Z 19005KT CAVOK 27/19 Q1011 NOSIG=
201006151600 METAR LMML NIL=
201006151545 METAR LMML 151545Z VRB02KT CAVOK 29/15 Q1011 NOSIG=
201006151530 METAR LMML NIL=
201006151515 METAR LMML 151515Z 25004KT 200V320 CAVOK 27/16 Q1011 NOSIG=
201006151500 METAR LMML NIL=
201006151445 METAR LMML 151445Z 20006KT 160V250 CAVOK 27/17 Q1012 NOSIG=
201006151430 METAR LMML NIL=
201006151415 METAR LMML 151415Z 18008KT 150V220 CAVOK 26/18 Q1013 NOSIG=
201006151400 METAR LMML NIL=
201006151345 METAR LMML 151345Z 19009KT 150V220 CAVOK 26/18 Q1012 NOSIG=
201006151330 METAR LMML NIL=
201006151315 METAR LMML 151315Z 18009G20KT 100V220 CAVOK 27/17 Q1012 NOSIG=
201006151300 METAR LMML NIL=
201006151245 METAR LMML 151245Z 15009KT 110V190 CAVOK 28/18 Q1011 NOSIG=
201006151230 METAR LMML NIL=
201006151215 METAR LMML 151215Z 14010KT 110V190 CAVOK 28/17 Q1011 NOSIG=
201006151145 METAR LMML 151145Z 14008KT 090V180 CAVOK 28/18 Q1011 NOSIG=
201006151130 METAR LMML NIL=
201006151115 METAR LMML 151115Z 14011KT 110V170 CAVOK 28/17 Q1012 NOSIG=
201006151100 METAR LMML NIL=
201006151045 METAR LMML 151045Z 13009KT 090V170 CAVOK 27/17 Q1013 NOSIG=
201006151030 METAR LMML NIL=
201006151015 METAR LMML 151015Z 11007KT 030V200 CAVOK 26/18 Q1013 NOSIG=
201006150945 METAR LMML 150945Z 12009KT 090V160 CAVOK 26/18 Q1013 NOSIG=
201006150915 METAR LMML 150915Z 12011KT 080V140 CAVOK 27/17 Q1013 NOSIG=
201006150845 METAR LMML 150845Z 13010KT 100V170 CAVOK 27/16 Q1012 NOSIG=
201006150830 METAR LMML NIL=
201006150815 METAR LMML 150815Z 05005KT 350V130 CAVOK 26/17 Q1012 NOSIG=
201006150800 METAR LMML NIL=
201006150745 METAR LMML 150745Z 11011KT CAVOK 26/18 Q1012 NOSIG=
201006150730 METAR LMML NIL=
201006150715 METAR LMML 150715Z 12011KT 090V150 CAVOK 25/18 Q1013 NOSIG=
201006150700 METAR LMML NIL=
201006150645 METAR LMML 150645Z 10009KT CAVOK 26/17 Q1013 NOSIG=
201006150630 METAR LMML NIL=
201006150615 METAR LMML 150615Z 12006KT CAVOK 25/18 Q1013 NOSIG=
201006150600 METAR LMML NIL=
201006150545 METAR LMML 150545Z 10007KT 080V150 CAVOK 25/18 Q1013 NOSIG=
201006150530 METAR LMML NIL=
201006150515 METAR LMML 150515Z 10005KT CAVOK 24/18 Q1013 NOSIG=
201006150500 METAR LMML NIL=
201006150445 METAR LMML 150445Z 10004KT 080V140 CAVOK 23/18 Q1013 NOSIG=
201006150415 METAR LMML 150415Z 10004KT 060V130 CAVOK 23/18 Q1013 NOSIG=
201006150400 METAR LMML NIL=
201006150345 METAR LMML 150345Z VRB03KT CAVOK 23/19 Q1013 NOSIG=
201006150330 METAR LMML NIL=
201006150315 METAR LMML 150315Z VRB03KT CAVOK 23/19 Q1013 NOSIG=
201006150300 METAR LMML NIL=
201006150245 METAR LMML 150245Z VRB03KT CAVOK 24/19 Q1013 NOSIG=
201006150230 METAR LMML NIL=
201006150215 METAR LMML 150215Z VRB02KT CAVOK 24/18 Q1013 NOSIG=
201006150200 METAR LMML NIL=
201006150145 METAR LMML 150145Z 13005KT CAVOK 25/16 Q1013 NOSIG=
201006150130 METAR LMML NIL=
201006150115 METAR LMML 150115Z 08004KT 060V130 CAVOK 25/16 Q1013 NOSIG=
201006150100 METAR LMML NIL=
201006150045 METAR LMML 150045Z 16008KT CAVOK 26/15 Q1013 NOSIG=
201006150030 METAR LMML NIL=
201006150015 METAR LMML 150015Z 16009KT 120V180 CAVOK 26/15 Q1013 NOSIG=
201006150000 METAR LMML NIL=
201006142345 METAR LMML 142345Z 15008KT 120V180 CAVOK 26/15 Q1013 NOSIG=
201006142315 METAR LMML 142315Z 14006KT 120V190 CAVOK 25/15 Q1013 NOSIG=
201006142300 METAR LMML NIL=
201006142245 METAR LMML 142245Z 14008KT CAVOK 25/16 Q1013 NOSIG=
201006142230 METAR LMML NIL=
201006142215 METAR LMML 142215Z 14009KT CAVOK 24/18 Q1013 NOSIG=
201006142145 METAR LMML 142145Z 14010KT CAVOK 25/18 Q1013 NOSIG=
201006142130 METAR LMML NIL=
201006142115 METAR LMML 142115Z 14008KT CAVOK 25/17 Q1013 NOSIG=
201006142100 METAR LMML NIL=
201006142045 METAR LMML 142045Z 14006KT CAVOK 25/17 Q1013 NOSIG=
201006142015 METAR LMML 142015Z 12004KT CAVOK 25/18 Q1013 NOSIG=
201006142000 METAR LMML NIL=
201006141945 METAR LMML 141945Z 12004KT 080V140 CAVOK 25/17 Q1013 NOSIG=
201006141930 METAR LMML NIL=
201006141915 METAR LMML 141915Z 13004KT CAVOK 25/17 Q1014 NOSIG=
201006141900 METAR LMML NIL=
201006141845 METAR LMML 141845Z 13005KT CAVOK 25/17 Q1014 NOSIG=
201006141815 METAR LMML 141815Z 10004KT CAVOK 27/15 Q1014 NOSIG=
201006141800 METAR LMML NIL=
201006141745 METAR LMML 141745Z VRB03KT CAVOK 29/13 Q1014 NOSIG=
201006141715 METAR LMML 141715Z 07004KT 040V110 CAVOK 30/14 Q1014 NOSIG=
201006141645 METAR LMML 141645Z 06006KT 020V100 CAVOK 30/12 Q1014 NOSIG=
201006141615 METAR LMML 141615Z 06007KT CAVOK 31/11 Q1013 NOSIG=
201006141545 METAR LMML 141545Z 04008KT 360V090 CAVOK 32/11 Q1013 NOSIG=
201006141530 METAR LMML NIL=
201006141515 METAR LMML 141515Z 02004KT CAVOK 32/11 Q1014 NOSIG=
201006141500 METAR LMML NIL=
201006141445 METAR LMML 141445Z 02007KT CAVOK 33/12 Q1014 NOSIG=
201006141430 METAR LMML NIL=
201006141415 METAR LMML 141415Z VRB03KT CAVOK 33/13 Q1015 NOSIG=
201006141400 METAR LMML NIL=
201006141345 METAR LMML 141345Z 33004KT 290V010 CAVOK 32/13 Q1015 NOSIG=
201006141330 METAR LMML NIL=
201006141315 METAR LMML 141315Z 32004KT CAVOK 31/13 Q1016 NOSIG=
201006141300 METAR LMML NIL=
201006141245 METAR LMML 141245Z 33005KT 300V010 CAVOK 31/13 Q1015 NOSIG=
201006141215 METAR LMML 141215Z 30006KT 250V340 CAVOK 32/12 Q1016 NOSIG=
201006141200 METAR LMML NIL=
201006141145 METAR LMML 141145Z 28006KT 200V010 CAVOK 33/12 Q1016 NOSIG=
201006141130 METAR LMML NIL=
201006141115 METAR COR LMML 141115Z 23004KT 160V270 CAVOK 32/13 Q1015
                        NOSIG=
201006141100 METAR LMML NIL=
201006141045 METAR LMML 141045Z VRB02KT CAVOK 33/16 Q1015 NOSIG=
201006141030 METAR LMML NIL=
201006141015 METAR LMML 141015Z VRB02KT CAVOK 31/16 Q1015 NOSIG=
201006141000 METAR LMML NIL=
201006140945 METAR LMML 140945Z VRB01KT CAVOK 28/17 Q1015 NOSIG=
201006140930 METAR LMML NIL=
201006140915 METAR LMML 140915Z VRB02KT CAVOK 29/15 Q1015 NOSIG=
201006140900 METAR LMML NIL=
201006140845 METAR LMML 140845Z 31004KT 290V350 CAVOK 30/16 Q1015 NOSIG=
201006140830 METAR LMML NIL=
201006140815 METAR LMML 140815Z 02004KT 330V100 9000 NSC 30/16 Q1014 NOSIG=
201006140800 METAR LMML NIL=
201006140745 METAR LMML 140745Z VRB03KT CAVOK 30/17 Q1014 NOSIG=
201006140730 METAR LMML NIL=
201006140715 METAR LMML 140715Z VRB03KT CAVOK 27/17 Q1014 NOSIG=
201006140700 METAR LMML NIL=
201006140645 METAR LMML 140645Z 33004KT 300V360 CAVOK 26/17 Q1014 NOSIG=
201006140630 METAR LMML NIL=
201006140615 METAR LMML 140615Z 31007KT CAVOK 24/18 Q1014 NOSIG=
201006140600 METAR LMML NIL=
201006140545 METAR LMML 140545Z 30004KT CAVOK 23/18 Q1014 NOSIG=
201006140530 METAR LMML NIL=
201006140515 METAR LMML 140515Z 32005KT CAVOK 23/19 Q1013 NOSIG=
201006140500 METAR LMML NIL=
201006140445 METAR LMML 140445Z 32006KT 240V010 CAVOK 23/18 Q1014 NOSIG=
201006140430 METAR LMML NIL=
201006140415 METAR LMML 140415Z 33006KT CAVOK 23/18 Q1014 NOSIG=
201006140400 METAR LMML NIL=
201006140345 METAR LMML 140345Z 33004KT CAVOK 23/19 Q1013 NOSIG=
201006140330 METAR LMML NIL=
201006140315 METAR LMML 140315Z 32007KT CAVOK 24/18 Q1014 NOSIG=
201006140300 METAR LMML NIL=
201006140245 METAR LMML 140245Z 34007KT CAVOK 25/17 Q1014 NOSIG=
201006140230 METAR LMML NIL=
201006140215 METAR LMML 140215Z 30012KT CAVOK 26/17 Q1014 NOSIG=
201006140200 METAR LMML NIL=
201006140145 METAR LMML 140145Z 30012KT CAVOK 26/14 Q1014 NOSIG=
201006140130 METAR LMML NIL=
201006140115 METAR LMML 140115Z 31004KT 270V340 CAVOK 28/12 Q1013 NOSIG=
201006140100 METAR LMML NIL=
201006140045 METAR LMML 140045Z 26006KT CAVOK 29/11 Q1013 NOSIG=
201006140030 METAR LMML NIL=
201006140015 METAR LMML 140015Z 24006KT 200V270 CAVOK 29/11 Q1013 NOSIG=
201006140000 METAR LMML NIL=
201006132345 METAR LMML 132345Z VRB01KT CAVOK 26/13 Q1013 NOSIG=
201006132330 METAR LMML NIL=
201006132315 METAR LMML 132315Z VRB03KT CAVOK 26/14 Q1013 NOSIG=
201006132300 METAR LMML NIL=
201006132245 METAR LMML 132245Z VRB03KT CAVOK 26/15 Q1013 NOSIG=
201006132230 METAR LMML NIL=
201006132215 METAR LMML 132215Z 25005KT 200V290 CAVOK 24/18 Q1014 NOSIG=
201006132200 METAR LMML NIL=
201006132145 METAR LMML 132145Z 22006KT 150V270 CAVOK 23/19 Q1013 NOSIG=
201006132130 METAR LMML NIL=
201006132115 METAR LMML 132115Z 22010G23KT 180V280 CAVOK 25/20 Q1014 NOSIG=
201006132100 METAR LMML NIL=
201006132045 METAR LMML 132045Z VRB03KT CAVOK 25/19 Q1012 NOSIG=
201006132030 METAR LMML NIL=
201006132015 METAR LMML 132015Z 14006KT CAVOK 25/19 Q1012 NOSIG=
201006132000 METAR LMML NIL=
201006131945 METAR LMML 131945Z 14004KT CAVOK 25/19 Q1012 NOSIG=
201006131930 METAR LMML NIL=
201006131915 METAR LMML 131915Z VRB01KT CAVOK 25/19 Q1012 NOSIG=
201006131900 METAR LMML NIL=
201006131845 METAR LMML 131845Z VRB01KT CAVOK 25/19 Q1012 NOSIG=
201006131830 METAR LMML NIL=
201006131815 METAR LMML 131815Z VRB02KT CAVOK 25/19 Q1012 NOSIG=
201006131800 METAR LMML NIL=
201006131745 METAR LMML 131745Z VRB03KT CAVOK 25/19 Q1012 NOSIG=
201006131730 METAR LMML NIL=
201006131715 METAR LMML 131715Z VRB03KT CAVOK 26/19 Q1012 NOSIG=
201006131700 METAR LMML NIL=
201006131645 METAR LMML 131645Z VRB01KT CAVOK 27/19 Q1012 NOSIG=
201006131630 METAR LMML NIL=
201006131615 METAR LMML 131615Z VRB03KT CAVOK 28/19 Q1012 NOSIG=
201006131600 METAR LMML NIL=
201006131545 METAR LMML 131545Z VRB02KT CAVOK 29/17 Q1012 NOSIG=
201006131530 METAR LMML NIL=
201006131515 METAR LMML 131515Z 22005KT 180V270 CAVOK 28/18 Q1012 NOSIG=
201006131500 METAR LMML NIL=
201006131445 METAR LMML 131445Z 23006KT 190V280 CAVOK 27/18 Q1012 NOSIG=
201006131430 METAR LMML NIL=
201006131415 METAR LMML 131415Z 24007KT 130V300 CAVOK 26/18 Q1012 NOSIG=
201006131400 METAR LMML NIL=
201006131345 METAR LMML 131345Z 21010KT 160V250 CAVOK 27/19 Q1013 NOSIG=
201006131330 METAR LMML NIL=
201006131315 METAR LMML 131315Z 20007KT 140V240 CAVOK 27/18 Q1012 NOSIG=
201006131245 METAR LMML 131245Z 20009KT 160V230 CAVOK 27/18 Q1012 NOSIG=
201006131215 METAR LMML 131215Z 18008KT 150V250 CAVOK 27/18 Q1012 NOSIG=
201006131200 METAR LMML NIL=
201006131145 METAR LMML 131145Z 18009KT 140V220 CAVOK 27/18 Q1012 NOSIG=
201006131130 METAR LMML NIL=
201006131115 METAR LMML 131115Z 18008KT 130V210 CAVOK 27/18 Q1012 NOSIG=
201006131100 METAR LMML NIL=
201006131045 METAR LMML 131045Z 17010KT 130V210 CAVOK 27/18 Q1012 NOSIG=
201006131030 METAR LMML NIL=
201006131015 METAR LMML 131015Z 16008KT 110V200 CAVOK 27/17 Q1012 NOSIG=
201006130945 METAR LMML 130945Z 17009KT 140V200 CAVOK 27/18 Q1012 NOSIG=
201006130930 METAR LMML NIL=
201006130915 METAR LMML 130915Z 16010KT 130V190 CAVOK 26/18 Q1012 NOSIG=
201006130900 METAR LMML NIL=
201006130845 METAR LMML 130845Z 15009KT 120V190 CAVOK 27/18 Q1012 NOSIG=
201006130830 METAR LMML NIL=
201006130815 METAR LMML 130815Z 16008KT 080V230 CAVOK 26/17 Q1013 NOSIG=
201006130800 METAR LMML NIL=
201006130745 METAR LMML 130745Z 14007KT 090V190 CAVOK 25/18 Q1012 NOSIG=
201006130730 METAR LMML NIL=
201006130715 METAR LMML 130715Z 12007KT 090V160 CAVOK 25/18 Q1012 NOSIG=
201006130700 METAR LMML NIL=
201006130645 METAR LMML 130645Z 12007KT 090V160 CAVOK 25/18 Q1012 NOSIG=
201006130630 METAR LMML NIL=
201006130615 METAR LMML 130615Z 12004KT 090V150 CAVOK 23/18 Q1012 NOSIG=
201006130600 METAR LMML NIL=
201006130545 METAR LMML 130545Z VRB03KT CAVOK 22/19 Q1012 NOSIG=
201006130530 METAR LMML NIL=
201006130515 METAR LMML 130515Z VRB02KT CAVOK 21/19 Q1012 NOSIG=
201006130500 METAR LMML NIL=
201006130445 METAR LMML 130445Z VRB03KT CAVOK 21/18 Q1012 NOSIG=
201006130430 METAR LMML NIL=
201006130415 METAR LMML 130415Z VRB02KT CAVOK 20/17 Q1012 NOSIG=
201006130400 METAR LMML NIL=
201006130345 METAR LMML 130345Z VRB02KT CAVOK 20/16 Q1012 NOSIG=
201006130330 METAR LMML NIL=
201006130315 METAR LMML 130315Z VRB02KT CAVOK 20/16 Q1012 NOSIG=
201006130300 METAR LMML NIL=
201006130245 METAR LMML 130245Z VRB02KT CAVOK 21/16 Q1012 NOSIG=
201006130230 METAR LMML NIL=
201006130215 METAR LMML 130215Z VRB02KT CAVOK 21/16 Q1012 NOSIG=
201006130200 METAR LMML NIL=
201006130145 METAR LMML 130145Z VRB03KT CAVOK 21/16 Q1012 NOSIG=
201006130130 METAR LMML NIL=
201006130115 METAR LMML 130115Z VRB01KT CAVOK 21/17 Q1012 NOSIG=
201006130100 METAR LMML NIL=
201006130045 METAR LMML 130045Z VRB02KT CAVOK 21/16 Q1012 NOSIG=
201006130030 METAR LMML NIL=
201006130015 METAR LMML 130015Z VRB02KT CAVOK 21/17 Q1012 NOSIG=
201006130000 METAR LMML NIL=
201006122345 METAR LMML 122345Z VRB02KT CAVOK 21/17 Q1012 NOSIG=
201006122330 METAR LMML NIL=
201006122315 METAR LMML 122315Z VRB02KT CAVOK 21/16 Q1012 NOSIG=
201006122245 METAR LMML 122245Z VRB03KT CAVOK 22/16 Q1013 NOSIG=
201006122230 METAR LMML NIL=
201006122215 METAR LMML 122215Z 14006KT 110V170 CAVOK 22/17 Q1013 NOSIG=
201006122200 METAR LMML NIL=
201006122145 METAR LMML 122145Z 15007KT 120V190 CAVOK 23/16 Q1013 NOSIG=
201006122130 METAR LMML NIL=
201006122115 METAR LMML 122115Z 14007KT CAVOK 22/17 Q1012 NOSIG=
201006122100 METAR LMML NIL=
201006122045 METAR LMML 122045Z 16007KT 120V190 CAVOK 23/17 Q1013 NOSIG=
201006122030 METAR LMML NIL=
201006122015 METAR LMML 122015Z 16010KT 130V190 CAVOK 23/17 Q1012 NOSIG=
201006122000 METAR LMML NIL=
201006121945 METAR LMML 121945Z 14010KT 110V180 CAVOK 23/16 Q1012 NOSIG=
201006121930 METAR LMML NIL=
201006121915 METAR LMML 121915Z 14010KT CAVOK 23/17 Q1011 NOSIG=
201006121900 METAR LMML NIL=
201006121845 METAR LMML 121845Z 14011KT CAVOK 23/17 Q1011 NOSIG=
201006121830 METAR LMML NIL=
201006121815 METAR LMML 121815Z 14012KT CAVOK 23/17 Q1011 NOSIG=
201006121800 METAR LMML NIL=
201006121745 METAR LMML 121745Z 14012KT CAVOK 23/17 Q1012 NOSIG=
201006121730 METAR LMML NIL=
201006121715 METAR LMML 121715Z 13012KT CAVOK 24/17 Q1012 NOSIG=
201006121700 METAR LMML NIL=
201006121645 METAR LMML 121645Z 13013KT CAVOK 24/17 Q1012 NOSIG=
201006121630 METAR LMML NIL=
201006121615 METAR LMML 121615Z 13013KT CAVOK 25/17 Q1012 NOSIG=
201006121600 METAR LMML NIL=
201006121545 METAR LMML 121545Z 13013KT CAVOK 26/17 Q1012 NOSIG=
201006121530 METAR LMML NIL=
201006121515 METAR LMML 121515Z 14011KT 110V170 CAVOK 26/17 Q1013 NOSIG=
201006121500 METAR LMML NIL=
201006121445 METAR LMML 121445Z 13014KT 110V170 CAVOK 26/16 Q1012 NOSIG=
201006121430 METAR LMML NIL=
201006121415 METAR LMML 121415Z 14012KT 110V180 CAVOK 27/17 Q1013 NOSIG=
201006121400 METAR LMML NIL=
201006121345 METAR LMML 121345Z 13012KT 100V170 CAVOK 27/16 Q1013 NOSIG=
201006121330 METAR LMML NIL=
201006121315 METAR LMML 121315Z 13012KT 090V170 CAVOK 27/16 Q1013 NOSIG=
201006121300 METAR LMML NIL=
201006121245 METAR LMML 121245Z 13014KT CAVOK 28/16 Q1013 NOSIG=
201006121230 METAR LMML NIL=
201006121215 METAR LMML 121215Z 13021KT CAVOK 27/17 Q1012 NOSIG=
201006121200 METAR LMML NIL=
201006121145 METAR LMML 121145Z 13016KT CAVOK 27/17 Q1013 NOSIG=
201006121130 METAR LMML NIL=
201006121115 METAR LMML 121115Z 12015KT 090V150 CAVOK 27/17 Q1013 NOSIG=
201006121100 METAR LMML NIL=
201006121045 METAR LMML 121045Z 12015KT CAVOK 26/18 Q1013 NOSIG=
201006121030 METAR LMML NIL=
201006121015 METAR LMML 121015Z 13014KT 100V160 CAVOK 27/18 Q1013 NOSIG=
201006121000 METAR LMML NIL=
201006120945 METAR LMML 120945Z 13012KT 110V170 CAVOK 27/16 Q1014 NOSIG=
201006120930 METAR LMML NIL=
201006120915 METAR LMML 120915Z 12012KT CAVOK 26/17 Q1014 NOSIG=
201006120845 METAR LMML 120845Z 13012KT CAVOK 26/17 Q1014 NOSIG=
201006120830 METAR LMML NIL=
201006120815 METAR LMML 120815Z 12011KT CAVOK 25/18 Q1014 NOSIG=
201006120800 METAR LMML NIL=
201006120745 METAR LMML 120745Z 12009KT CAVOK 25/17 Q1014 NOSIG=
201006120730 METAR LMML NIL=
201006120715 METAR LMML 120715Z 12010KT 090V150 CAVOK 24/17 Q1013 NOSIG=
201006120700 METAR LMML NIL=
201006120645 METAR LMML 120645Z 13009KT CAVOK 24/17 Q1013 NOSIG=
201006120630 METAR LMML NIL=
201006120615 METAR LMML 120615Z 13007KT CAVOK 23/17 Q1013 NOSIG=
201006120600 METAR LMML NIL=
201006120545 METAR LMML 120545Z 10005KT 050V130 CAVOK 22/18 Q1013 NOSIG=
201006120530 METAR LMML NIL=
201006120515 METAR LMML 120515Z 10005KT 340V170 CAVOK 21/18 Q1013 NOSIG=
201006120500 METAR LMML NIL=
201006120445 METAR LMML 120445Z 06005KT 340V120 CAVOK 21/18 Q1013 NOSIG=
201006120430 METAR LMML NIL=
201006120415 METAR LMML 120415Z 06006KT 340V130 CAVOK 20/18 Q1013 NOSIG=
201006120400 METAR LMML NIL=
201006120345 METAR LMML 120345Z 11006KT 080V140 CAVOK 20/17 Q1013 NOSIG=
201006120330 METAR LMML NIL=
201006120315 METAR LMML 120315Z VRB02KT CAVOK 20/17 Q1013 NOSIG=
201006120300 METAR LMML NIL=
201006120245 METAR LMML 120245Z 35004KT 320V030 CAVOK 19/17 Q1013 NOSIG=
201006120230 METAR LMML NIL=
201006120215 METAR LMML 120215Z 12006KT CAVOK 19/17 Q1013 NOSIG=
201006120200 METAR LMML NIL=
201006120145 METAR LMML 120145Z 13006KT CAVOK 20/17 Q1013 NOSIG=
201006120130 METAR LMML NIL=
201006120115 METAR LMML 120115Z 15004KT 120V180 CAVOK 21/18 Q1013 NOSIG=
201006120100 METAR LMML NIL=
201006120045 METAR LMML 120045Z VRB03KT CAVOK 21/17 Q1013 NOSIG=
201006120030 METAR LMML NIL=
201006120015 METAR LMML 120015Z 14007KT CAVOK 20/17 Q1013 NOSIG=
201006120000 METAR LMML NIL=
201006112345 METAR LMML 112345Z 13005KT CAVOK 20/17 Q1013 NOSIG=
201006112330 METAR LMML NIL=
201006112315 METAR LMML 112315Z 14007KT CAVOK 21/17 Q1013 NOSIG=
201006112300 METAR LMML NIL=
201006112245 METAR LMML 112245Z 14006KT CAVOK 21/17 Q1013 NOSIG=
201006112230 METAR LMML NIL=
201006112215 METAR LMML 112215Z 14008KT CAVOK 21/17 Q1013 NOSIG=
201006112200 METAR LMML NIL=
201006112145 METAR LMML 112145Z 16009KT CAVOK 22/16 Q1013 NOSIG=
201006112130 METAR LMML NIL=
201006112115 METAR LMML 112115Z 15009KT CAVOK 22/17 Q1013 NOSIG=
201006112100 METAR LMML NIL=
201006112045 METAR LMML 112045Z 14009KT 120V180 CAVOK 22/17 Q1013 NOSIG=
201006112030 METAR LMML NIL=
201006112015 METAR LMML 112015Z 14008KT 120V180 CAVOK 22/17 Q1013 NOSIG=
201006112000 METAR LMML NIL=
201006111945 METAR LMML 111945Z 15007KT 120V190 CAVOK 22/17 Q1013 NOSIG=
201006111930 METAR LMML NIL=
201006111915 METAR LMML 111915Z 14009KT CAVOK 22/17 Q1013 NOSIG=
201006111900 METAR LMML NIL=
201006111845 METAR LMML 111845Z 14007KT CAVOK 22/17 Q1013 NOSIG=
201006111830 METAR LMML NIL=
201006111815 METAR LMML 111815Z 14009KT CAVOK 22/17 Q1013 NOSIG=
201006111800 METAR LMML NIL=
201006111745 METAR LMML 111745Z 13009KT 100V170 CAVOK 23/17 Q1013 NOSIG=
201006111730 METAR LMML NIL=
201006111715 METAR LMML 111715Z 12012KT CAVOK 23/17 Q1012 NOSIG=
201006111700 METAR LMML NIL=
201006111645 METAR LMML 111645Z 14010KT CAVOK 24/16 Q1013 NOSIG=
201006111630 METAR LMML NIL=
201006111615 METAR LMML 111615Z 13014KT CAVOK 25/16 Q1013 NOSIG=
201006111600 METAR LMML NIL=
201006111545 METAR LMML 111545Z 14013KT 100V170 CAVOK 26/15 Q1013 NOSIG=
201006111530 METAR LMML NIL=
201006111515 METAR LMML 111515Z 14012KT 110V180 CAVOK 26/16 Q1013 NOSIG=
201006111445 METAR LMML 111445Z 13015KT 110V190 CAVOK 27/16 Q1013 NOSIG=
201006111430 METAR LMML NIL=
201006111415 METAR LMML 111415Z 13014KT CAVOK 27/15 Q1013 NOSIG=
201006111400 METAR LMML NIL=
201006111345 METAR LMML 111345Z 13013KT 110V170 CAVOK 27/14 Q1014 NOSIG=
201006111330 METAR LMML NIL=
201006111315 METAR LMML 111315Z 12015KT 090V150 CAVOK 27/16 Q1013 NOSIG=
201006111300 METAR LMML NIL=
201006111245 METAR LMML 111245Z 13014KT CAVOK 27/16 Q1014 NOSIG=
201006111215 METAR LMML 111215Z 12015KT CAVOK 27/16 Q1013 NOSIG=
201006111200 METAR LMML NIL=
201006111145 METAR LMML 111145Z 12015KT CAVOK 27/16 Q1014 NOSIG=
201006111130 METAR LMML NIL=
201006111115 METAR LMML 111115Z 12016KT CAVOK 27/15 Q1014 NOSIG=
201006111100 METAR LMML NIL=
201006111045 METAR LMML 111045Z 12015KT CAVOK 26/16 Q1014 NOSIG=
201006111030 METAR LMML NIL=
201006111015 METAR LMML 111015Z 12016KT CAVOK 26/17 Q1014 NOSIG=
201006111000 METAR LMML NIL=
201006110945 METAR LMML 110945Z 12015KT CAVOK 26/17 Q1015 NOSIG=
201006110930 METAR LMML NIL=
201006110915 METAR LMML 110915Z 12015KT CAVOK 25/17 Q1015 NOSIG=
201006110900 METAR LMML NIL=
201006110845 METAR LMML 110845Z 12013KT CAVOK 25/16 Q1015 NOSIG=
201006110830 METAR LMML NIL=
201006110815 METAR LMML 110815Z 12014KT CAVOK 24/17 Q1015 NOSIG=
201006110800 METAR LMML NIL=
201006110745 METAR LMML 110745Z 12013KT CAVOK 24/17 Q1014 NOSIG=
201006110730 METAR LMML NIL=
201006110715 METAR LMML 110715Z 12013KT 090V150 CAVOK 24/17 Q1014 NOSIG=
201006110700 METAR LMML NIL=
201006110645 METAR LMML 110645Z 12012KT CAVOK 23/17 Q1014 NOSIG=
201006110630 METAR LMML NIL=
201006110615 METAR LMML 110615Z 13011KT 100V160 CAVOK 23/17 Q1014 NOSIG=
201006110545 METAR LMML 110545Z 12009KT CAVOK 22/17 Q1014 NOSIG=
201006110530 METAR LMML NIL=
201006110515 METAR LMML 110515Z 13008KT CAVOK 21/17 Q1014 NOSIG=
201006110500 METAR LMML NIL=
201006110445 METAR LMML 110445Z 14008KT 110V170 CAVOK 20/17 Q1014 NOSIG=
201006110430 METAR LMML NIL=
201006110415 METAR LMML 110415Z 12008KT CAVOK 20/18 Q1014 NOSIG=
201006110400 METAR LMML NIL=
201006110345 METAR LMML 110345Z 12008KT CAVOK 19/17 Q1013 NOSIG=
201006110330 METAR LMML NIL=
201006110315 METAR LMML 110315Z 12007KT CAVOK 19/18 Q1013 NOSIG=
201006110300 METAR LMML NIL=
201006110245 METAR LMML 110245Z 11008KT CAVOK 20/18 Q1014 NOSIG=
201006110230 METAR LMML NIL=
201006110215 METAR LMML 110215Z 13006KT CAVOK 19/18 Q1014 NOSIG=
201006110200 METAR LMML NIL=
201006110145 METAR LMML 110145Z 12008KT CAVOK 19/18 Q1014 NOSIG=
201006110130 METAR LMML NIL=
201006110115 METAR LMML 110115Z 12008KT CAVOK 20/17 Q1014 NOSIG=
201006110100 METAR LMML NIL=
201006110045 METAR LMML 110045Z 13007KT CAVOK 20/18 Q1014 NOSIG=
201006110030 METAR LMML NIL=
201006110015 METAR LMML 110015Z 13008KT CAVOK 20/17 Q1014 NOSIG=
201006110000 METAR LMML NIL=
201006102345 METAR LMML 102345Z 12009KT CAVOK 20/17 Q1014 NOSIG=
201006102330 METAR LMML NIL=
201006102315 METAR LMML 102315Z 11009KT CAVOK 20/18 Q1014 NOSIG=
201006102300 METAR LMML NIL=
201006102245 METAR LMML 102245Z 12008KT CAVOK 20/18 Q1014 NOSIG=
201006102230 METAR LMML NIL=
201006102215 METAR LMML 102215Z 13007KT CAVOK 20/18 Q1014 NOSIG=
201006102200 METAR LMML NIL=
201006102145 METAR LMML 102145Z 12008KT CAVOK 20/18 Q1014 NOSIG=
201006102130 METAR LMML NIL=
201006102115 METAR LMML 102115Z 12009KT CAVOK 20/18 Q1014 NOSIG=
201006102100 METAR LMML NIL=
201006102045 METAR LMML 102045Z 12010KT CAVOK 21/18 Q1014 NOSIG=
201006102030 METAR LMML NIL=
201006102015 METAR LMML 102015Z 12010KT CAVOK 21/18 Q1014 NOSIG=
201006102000 METAR LMML NIL=
201006101945 METAR LMML 101945Z 11010KT 080V140 CAVOK 21/18 Q1013 NOSIG=
201006101930 METAR LMML NIL=
201006101915 METAR LMML 101915Z 11011KT CAVOK 21/18 Q1013 NOSIG=
201006101900 METAR LMML NIL=
201006101845 METAR LMML 101845Z 11010KT CAVOK 21/18 Q1013 NOSIG=
201006101830 METAR LMML NIL=
201006101815 METAR LMML 101815Z 11012KT CAVOK 22/17 Q1013 NOSIG=
201006101800 METAR LMML NIL=
201006101745 METAR LMML 101745Z 10011KT CAVOK 22/18 Q1013 NOSIG=
201006101715 METAR LMML 101715Z 11012KT CAVOK 23/17 Q1013 NOSIG=
201006101700 METAR LMML NIL=
201006101645 METAR LMML 101645Z 10015KT CAVOK 23/17 Q1013 WS RWY13 NOSIG=
201006101630 METAR LMML NIL=
201006101615 METAR LMML 101615Z 10014KT CAVOK 24/18 Q1013 WS RWY13 NOSIG=
201006101545 METAR LMML 101545Z 10014KT CAVOK 24/17 Q1013 NOSIG=
201006101530 METAR LMML NIL=
201006101515 METAR LMML 101515Z 12012KT 090V150 CAVOK 24/17 Q1014 NOSIG=
201006101500 METAR LMML NIL=
201006101445 METAR LMML 101445Z 12013KT 080V150 CAVOK 24/17 Q1014 NOSIG=
201006101430 METAR LMML NIL=
201006101415 METAR LMML 101415Z 12014KT CAVOK 25/17 Q1014 NOSIG=
201006101400 METAR LMML NIL=
201006101345 METAR LMML 101345Z 12014KT CAVOK 26/17 Q1014 NOSIG=
201006101330 METAR LMML NIL=
201006101315 METAR LMML 101315Z 12012KT CAVOK 25/16 Q1014 NOSIG=
201006101300 METAR LMML NIL=
201006101245 METAR LMML 101245Z 12013KT 090V150 CAVOK 26/17 Q1014 NOSIG=
201006101230 METAR LMML NIL=
201006101215 METAR LMML 101215Z 12013KT 090V150 CAVOK 26/17 Q1014 NOSIG=
201006101145 METAR LMML 101145Z 12015KT CAVOK 25/17 Q1014 NOSIG=
201006101130 METAR LMML NIL=
201006101115 METAR LMML 101115Z 12016KT CAVOK 25/17 Q1014 NOSIG=
201006101045 METAR LMML 101045Z 12017KT 090V150 CAVOK 25/16 Q1014 NOSIG=
201006101030 METAR LMML NIL=
201006101015 METAR LMML 101015Z 11017KT 080V140 CAVOK 25/17 Q1014 NOSIG=
201006101000 METAR LMML NIL=
201006100945 METAR LMML 100945Z 11015KT 060V140 CAVOK 25/17 Q1014 NOSIG=
201006100930 METAR LMML NIL=
201006100915 METAR LMML 100915Z 10014KT CAVOK 24/17 Q1014 NOSIG=
201006100900 METAR LMML NIL=
201006100845 METAR LMML 100845Z 11013KT 090V150 CAVOK 24/17 Q1015 NOSIG=
201006100830 METAR LMML NIL=
201006100815 METAR LMML 100815Z 12011KT CAVOK 24/16 Q1015 NOSIG=
201006100800 METAR LMML NIL=
201006100745 METAR LMML 100745Z 11011KT 080V150 CAVOK 24/17 Q1014 NOSIG=
201006100730 METAR LMML NIL=
201006100715 METAR LMML 100715Z 11014KT 080V140 CAVOK 23/17 Q1014 NOSIG=
201006100700 METAR LMML NIL=
201006100645 METAR LMML 100645Z 11014KT 080V140 CAVOK 23/17 Q1013 NOSIG=
201006100630 METAR LMML NIL=
201006100615 METAR LMML 100615Z 10012KT CAVOK 22/17 Q1013 NOSIG=
201006100600 METAR LMML NIL=
201006100545 METAR LMML 100545Z 10010KT CAVOK 21/17 Q1013 NOSIG=
201006100530 METAR LMML NIL=
201006100515 METAR LMML 100515Z 09009KT 060V130 CAVOK 21/18 Q1013 NOSIG=
201006100445 METAR LMML 100445Z 09008KT 060V120 CAVOK 20/18 Q1013 NOSIG=
201006100415 METAR LMML 100415Z 10006KT 070V130 CAVOK 20/17 Q1013 NOSIG=
201006100400 METAR LMML NIL=
201006100345 METAR LMML 100345Z 09009KT CAVOK 20/17 Q1012 NOSIG=
201006100330 METAR LMML NIL=
201006100315 METAR LMML 100315Z 10007KT CAVOK 19/17 Q1012 NOSIG=
201006100300 METAR LMML NIL=
201006100245 METAR LMML 100245Z 08008KT 050V110 CAVOK 20/18 Q1012 NOSIG=
201006100230 METAR LMML NIL=
201006100215 METAR LMML 100215Z 09008KT 040V120 CAVOK 20/18 Q1012 NOSIG=
201006100200 METAR LMML NIL=
201006100145 METAR LMML 100145Z 10007KT 080V140 CAVOK 20/18 Q1012 NOSIG=
201006100130 METAR LMML NIL=
201006100115 METAR LMML 100115Z 12008KT CAVOK 19/18 Q1012 NOSIG=
201006100100 METAR LMML NIL=
201006100045 METAR LMML 100045Z 10006KT 060V130 CAVOK 20/18 Q1013 NOSIG=
201006100030 METAR LMML NIL=
201006100015 METAR LMML 100015Z 11005KT CAVOK 20/17 Q1013 NOSIG=
201006100000 METAR LMML NIL=
201006092345 METAR LMML 092345Z 11007KT CAVOK 20/18 Q1013 NOSIG=
201006092330 METAR LMML NIL=
201006092315 METAR LMML 092315Z 11008KT CAVOK 20/18 Q1013 NOSIG=
201006092300 METAR LMML NIL=
201006092245 METAR LMML 092245Z 12009KT CAVOK 20/18 Q1013 NOSIG=
201006092230 METAR LMML NIL=
201006092215 METAR LMML 092215Z 11009KT CAVOK 20/17 Q1013 NOSIG=
201006092200 METAR LMML NIL=
201006092145 METAR LMML 092145Z 10009KT CAVOK 20/17 Q1013 NOSIG=
201006092130 METAR LMML NIL=
201006092115 METAR LMML 092115Z 10010KT CAVOK 20/17 Q1013 NOSIG=
201006092100 METAR LMML NIL=
201006092045 METAR LMML 092045Z 10010KT CAVOK 21/17 Q1013 NOSIG=
201006092030 METAR LMML NIL=
201006092015 METAR LMML 092015Z 10009KT CAVOK 21/17 Q1012 NOSIG=
201006092000 METAR LMML NIL=
201006091945 METAR LMML 091945Z 10010KT CAVOK 21/17 Q1012 NOSIG=
201006091930 METAR LMML NIL=
201006091915 METAR LMML 091915Z 10011KT CAVOK 21/17 Q1012 NOSIG=
201006091900 METAR LMML NIL=
201006091845 METAR LMML 091845Z 10012KT CAVOK 21/17 Q1011 NOSIG=
201006091830 METAR LMML NIL=
201006091815 METAR LMML 091815Z 10010KT 070V130 CAVOK 21/16 Q1011 NOSIG=
201006091800 METAR LMML NIL=
201006091745 METAR LMML 091745Z 10010KT 070V130 CAVOK 22/16 Q1011 NOSIG=
201006091730 METAR LMML NIL=
201006091715 METAR LMML 091715Z 09013KT CAVOK 22/16 Q1011 NOSIG=
201006091700 METAR LMML NIL=
201006091645 METAR LMML 091645Z 10012KT CAVOK 23/15 Q1011 NOSIG=
201006091630 METAR LMML NIL=
201006091615 METAR LMML 091615Z 10013KT CAVOK 24/15 Q1011 NOSIG=
201006091600 METAR LMML NIL=
201006091545 METAR LMML 091545Z 11015KT CAVOK 24/14 Q1011 NOSIG=
201006091515 METAR LMML 091515Z 10014KT 080V140 CAVOK 24/15 Q1012 NOSIG=
201006091500 METAR LMML NIL=
201006091445 METAR LMML 091445Z 10015KT CAVOK 25/14 Q1012 NOSIG=
201006091430 METAR LMML NIL=
201006091415 METAR LMML 091415Z 11015KT 080V140 CAVOK 25/14 Q1012 NOSIG=
201006091400 METAR LMML NIL=
201006091345 METAR LMML 091345Z 10015KT 070V130 CAVOK 25/14 Q1012 NOSIG=
201006091330 METAR LMML NIL=
201006091315 METAR LMML 091315Z 11016KT CAVOK 25/14 Q1012 NOSIG=
201006091245 METAR LMML 091245Z 10014KT 070V140 CAVOK 26/15 Q1012 NOSIG=
201006091230 METAR LMML NIL=
201006091215 METAR LMML 091215Z 11014KT CAVOK 26/15 Q1013 NOSIG=
201006091200 METAR LMML NIL=
201006091145 METAR LMML 091145Z 10014KT CAVOK 26/15 Q1013 NOSIG=
201006091130 METAR LMML NIL=
201006091115 METAR LMML 091115Z 10014KT CAVOK 26/15 Q1013 NOSIG=
201006091100 METAR LMML NIL=
201006091045 METAR LMML 091045Z 10015KT CAVOK 25/15 Q1013 NOSIG=
201006091015 METAR LMML 091015Z 11015KT CAVOK 25/15 Q1013 NOSIG=
201006091000 METAR LMML NIL=
201006090945 METAR LMML 090945Z 11014KT CAVOK 25/15 Q1013 NOSIG=
201006090915 METAR LMML 090915Z 10013KT 070V140 CAVOK 25/16 Q1013 NOSIG=
201006090845 METAR LMML 090845Z 09014KT CAVOK 24/16 Q1013 NOSIG=
201006090830 METAR LMML NIL=
201006090815 METAR LMML 090815Z 09011KT CAVOK 24/17 Q1012 NOSIG=
201006090745 METAR LMML 090745Z 09011KT 060V120 CAVOK 24/17 Q1012 NOSIG=
201006090730 METAR LMML NIL=
201006090715 METAR LMML 090715Z 09012KT 060V120 CAVOK 23/17 Q1012 NOSIG=
201006090700 METAR LMML NIL=
201006090645 METAR LMML 090645Z 09011KT 060V120 9999 FEW012 23/17 Q1012
                        BECMG CAVOK=
201006090630 METAR LMML NIL=
201006090615 METAR LMML 090615Z 09010KT 050V110 9999 FEW012 22/18 Q1012
                        BECMG CAVOK=
201006090600 METAR LMML NIL=
201006090545 METAR LMML 090545Z 08008KT 050V110 9999 FEW004 21/20 Q1012
                        BECMG CAVOK=
201006090515 METAR LMML 090515Z 08008KT 050V120 9999 FEW003 20/20 Q1011
                        BECMG CAVOK=
201006090445 METAR LMML 090445Z 08007KT 9999 FEW003 20/20 Q1011 BECMG
                        CAVOK=
201006090430 METAR LMML NIL=
201006090415 METAR LMML 090415Z 09007KT 7000 FEW002 19/19 Q1011 BECMG
                        8000 FEW005=
201006090400 METAR LMML NIL=
201006090345 METAR LMML 090345Z 08007KT 6000 BKN002 19/19 Q1011 TEMPO
                        5000 BKN002=
201006090330 METAR LMML NIL=
201006090315 METAR LMML 090315Z 08007KT 6000 BKN002 19/19 Q1011 TEMPO
                        5000 BKN002=
201006090300 METAR LMML NIL=
201006090245 METAR LMML 090245Z 07006KT 040V100 6000 BKN003 19/19 Q1011
                        TEMPO 5000 BKN003=
201006090230 METAR LMML NIL=
201006090215 METAR LMML 090215Z 06006KT 040V100 8000 SCT005 19/19 Q1011
                        TEMPO 8000 SCT004=
201006090200 METAR LMML NIL=
201006090145 METAR LMML 090145Z 08004KT 050V110 9999 FEW005 19/19 Q1011
                        TEMPO 8000 SCT004=
201006090130 METAR LMML NIL=
201006090115 METAR LMML 090115Z 08005KT 9999 FEW008 19/19 Q1012 NOSIG=
201006090100 METAR LMML NIL=
201006090045 METAR LMML 090045Z 10005KT CAVOK 19/19 Q1012 NOSIG=
201006090030 METAR LMML NIL=
201006090015 METAR LMML 090015Z 09005KT CAVOK 20/19 Q1012 NOSIG=
201006082345 METAR LMML 082345Z 09005KT CAVOK 20/19 Q1012 NOSIG=
201006082315 METAR LMML 082315Z 10005KT 070V130 CAVOK 20/19 Q1012 NOSIG=
201006082300 METAR LMML NIL=
201006082245 METAR LMML 082245Z 10004KT 060V130 CAVOK 20/19 Q1012 NOSIG=
201006082230 METAR LMML NIL=
201006082215 METAR LMML 082215Z 11005KT CAVOK 20/19 Q1013 NOSIG=
201006082200 METAR LMML NIL=
201006082145 METAR LMML 082145Z 12005KT 080V140 CAVOK 20/19 Q1013 NOSIG=
201006082130 METAR LMML NIL=
201006082115 METAR LMML 082115Z 12006KT CAVOK 20/19 Q1013 NOSIG=
201006082100 METAR LMML NIL=
201006082045 METAR LMML 082045Z 12005KT CAVOK 20/18 Q1013 NOSIG=
201006082030 METAR LMML NIL=
201006082015 METAR LMML 082015Z 13007KT CAVOK 20/18 Q1012 NOSIG=
201006082000 METAR LMML NIL=
201006081945 METAR LMML 081945Z 12007KT CAVOK 20/18 Q1012 NOSIG=
201006081930 METAR LMML NIL=
201006081915 METAR LMML 081915Z 12006KT 080V140 CAVOK 20/19 Q1011 NOSIG=
201006081900 METAR LMML NIL=
201006081845 METAR LMML 081845Z 12007KT CAVOK 20/19 Q1011 NOSIG=
201006081830 METAR LMML NIL=
201006081815 METAR LMML 081815Z 12009KT CAVOK 21/19 Q1011 NOSIG=
201006081800 METAR LMML NIL=
201006081745 METAR LMML 081745Z 12009KT CAVOK 21/19 Q1011 NOSIG=
201006081730 METAR LMML NIL=
201006081715 METAR LMML 081715Z 12008KT CAVOK 22/19 Q1012 NOSIG=
201006081700 METAR LMML NIL=
201006081645 METAR LMML 081645Z 12008KT CAVOK 23/18 Q1011 NOSIG=
201006081630 METAR LMML NIL=
201006081615 METAR LMML 081615Z 14008KT 100V170 CAVOK 24/18 Q1012 NOSIG=
201006081600 METAR LMML NIL=
201006081545 METAR LMML 081545Z 12009KT CAVOK 24/17 Q1012 NOSIG=
201006081530 METAR LMML NIL=
201006081515 METAR LMML 081515Z 12008KT CAVOK 24/17 Q1012 NOSIG=
201006081500 METAR LMML NIL=
201006081445 METAR LMML 081445Z 12008KT CAVOK 25/18 Q1012 NOSIG=
201006081430 METAR LMML NIL=
201006081415 METAR LMML 081415Z 13008KT 100V160 CAVOK 25/16 Q1012 NOSIG=
201006081400 METAR LMML NIL=
201006081345 METAR LMML 081345Z 12009KT 090V160 CAVOK 25/17 Q1013 NOSIG=
201006081330 METAR LMML NIL=
201006081315 METAR LMML 081315Z 13008KT 090V180 CAVOK 25/17 Q1013 NOSIG=
201006081300 METAR LMML NIL=
201006081245 METAR LMML 081245Z 13008KT 100V170 CAVOK 25/16 Q1013 NOSIG=
201006081230 METAR LMML NIL=
201006081215 METAR LMML 081215Z 14008KT 090V180 CAVOK 25/17 Q1013 NOSIG=
201006081200 METAR LMML NIL=
201006081145 METAR LMML 081145Z 13008KT 100V170 CAVOK 26/16 Q1013 NOSIG=
201006081130 METAR LMML NIL=
201006081115 METAR LMML 081115Z 13007KT 090V180 CAVOK 26/16 Q1013 NOSIG=
201006081100 METAR LMML NIL=
201006081045 METAR LMML 081045Z 14007KT 090V180 CAVOK 26/16 Q1014 NOSIG=
201006081030 METAR LMML NIL=
201006081015 METAR LMML 081015Z 14005KT 070V200 CAVOK 25/16 Q1014 NOSIG=
201006081000 METAR LMML NIL=
201006080945 METAR LMML 080945Z 15005KT 120V210 CAVOK 25/12 Q1014 NOSIG=
201006080930 METAR LMML NIL=
201006080915 METAR LMML 080915Z 17007KT 130V210 CAVOK 24/17 Q1014 NOSIG=
201006080900 METAR LMML NIL=
201006080845 METAR LMML 080845Z 17007KT 130V210 CAVOK 24/17 Q1014 NOSIG=
201006080830 METAR LMML NIL=
201006080815 METAR LMML 080815Z 17007KT 140V220 CAVOK 24/15 Q1014 NOSIG=
201006080800 METAR LMML NIL=
201006080745 METAR LMML 080745Z 17005KT 140V220 9999 FEW030 24/15 Q1014
                        NOSIG=
201006080730 METAR LMML NIL=
201006080715 METAR LMML 080715Z 18004KT 160V220 9999 FEW030 24/15 Q1014
                        NOSIG=
201006080645 METAR LMML 080645Z 18004KT 150V220 9999 FEW020 23/16 Q1014
                        NOSIG=
201006080630 METAR LMML NIL=
201006080615 METAR LMML 080615Z 20005KT 170V250 9999 FEW020 22/15 Q1014
                        NOSIG=
201006080600 METAR LMML NIL=
201006080545 METAR LMML 080545Z 20004KT 160V230 9999 FEW020 21/17 Q1014
                        NOSIG=
201006080530 METAR LMML NIL=
201006080515 METAR LMML 080515Z 19004KT 170V230 CAVOK 20/18 Q1014 NOSIG=
201006080500 METAR LMML NIL=
201006080445 METAR LMML 080445Z VRB03KT CAVOK 19/18 Q1014 NOSIG=
201006080415 METAR LMML 080415Z VRB03KT CAVOK 19/18 Q1014 NOSIG=
201006080400 METAR LMML NIL=
201006080345 METAR LMML 080345Z VRB03KT CAVOK 19/18 Q1013 NOSIG=
201006080330 METAR LMML NIL=
201006080315 METAR LMML 080315Z VRB02KT CAVOK 19/17 Q1013 NOSIG=
201006080300 METAR LMML NIL=
201006080245 METAR LMML 080245Z VRB03KT CAVOK 19/18 Q1013 NOSIG=
201006080230 METAR LMML NIL=
201006080215 METAR LMML 080215Z VRB02KT CAVOK 18/17 Q1014 NOSIG=
201006080200 METAR LMML NIL=
201006080145 METAR LMML 080145Z VRB03KT CAVOK 19/17 Q1013 NOSIG=
201006080130 METAR LMML NIL=
201006080115 METAR LMML 080115Z VRB02KT CAVOK 18/17 Q1013 NOSIG=
201006080100 METAR LMML NIL=
201006080045 METAR LMML 080045Z VRB03KT CAVOK 19/17 Q1013 NOSIG=
201006080030 METAR LMML NIL=
201006080000 METAR LMML NIL=
201006072345 METAR LMML 072345Z VRB02KT CAVOK 19/17 Q1014 NOSIG=
201006072315 METAR LMML 072315Z VRB02KT CAVOK 19/17 Q1014 NOSIG=
201006072245 METAR LMML 072245Z VRB02KT CAVOK 19/18 Q1015 NOSIG=
201006072230 METAR LMML NIL=
201006072215 METAR LMML 072215Z VRB02KT CAVOK 20/18 Q1015 NOSIG=
201006072200 METAR LMML NIL=
201006072145 METAR LMML 072145Z VRB02KT CAVOK 20/18 Q1015 NOSIG=
201006072130 METAR LMML NIL=
201006072115 METAR LMML 072115Z VRB02KT CAVOK 20/18 Q1015 NOSIG=
201006072100 METAR LMML NIL=
201006072045 METAR LMML 072045Z VRB01KT CAVOK 20/17 Q1015 NOSIG=
201006072030 METAR LMML NIL=
201006072015 METAR LMML 072015Z VRB03KT CAVOK 20/17 Q1015 NOSIG=
201006072000 METAR LMML NIL=
201006071945 METAR LMML 071945Z VRB03KT CAVOK 20/17 Q1015 NOSIG=
201006071930 METAR LMML NIL=
201006071915 METAR LMML 071915Z 21004KT 160V250 CAVOK 20/17 Q1015 NOSIG=
201006071900 METAR LMML NIL=
201006071845 METAR LMML 071845Z 21005KT 180V280 CAVOK 20/17 Q1014 NOSIG=
201006071830 METAR LMML NIL=
201006071815 METAR LMML 071815Z 22006KT 170V260 CAVOK 21/16 Q1015 NOSIG=
201006071800 METAR LMML NIL=
201006071745 METAR LMML 071745Z 21005KT 170V280 CAVOK 21/16 Q1014 NOSIG=
201006071730 METAR LMML NIL=
201006071715 METAR LMML 071715Z 21005KT 160V250 CAVOK 22/15 Q1014 NOSIG=
201006071700 METAR LMML NIL=
201006071645 METAR LMML 071645Z 21005KT 170V250 CAVOK 23/14 Q1014 NOSIG=
201006071630 METAR LMML NIL=
201006071615 METAR LMML 071615Z 22007KT 180V250 CAVOK 23/14 Q1014 NOSIG=
201006071600 METAR LMML NIL=
201006071545 METAR LMML 071545Z 23008KT 200V270 CAVOK 24/12 Q1014 NOSIG=
201006071530 METAR LMML NIL=
201006071515 METAR LMML 071515Z 22008KT 180V280 CAVOK 24/10 Q1015 NOSIG=
201006071500 METAR LMML NIL=
201006071445 METAR LMML 071445Z 22008KT 190V270 CAVOK 24/10 Q1015 NOSIG=
201006071430 METAR LMML NIL=
201006071415 METAR LMML 071415Z 22008KT 180V260 CAVOK 25/10 Q1015 NOSIG=
201006071400 METAR LMML NIL=
201006071345 METAR LMML 071345Z 22007KT 190V270 CAVOK 25/11 Q1015 NOSIG=
201006071315 METAR LMML 071315Z 24007KT 180V300 CAVOK 26/11 Q1015 NOSIG=
201006071300 METAR LMML NIL=
201006071245 METAR LMML 071245Z 23007KT 180V330 CAVOK 25/11 Q1016 NOSIG=
201006071230 METAR LMML NIL=
201006071215 METAR LMML 071215Z 23007KT 190V280 CAVOK 25/11 Q1016 NOSIG=
201006071200 METAR LMML NIL=
201006071145 METAR LMML 071145Z 24009KT 200V290 CAVOK 25/11 Q1016 NOSIG=
201006071130 METAR LMML NIL=
201006071115 METAR LMML 071115Z 23009KT 180V290 CAVOK 25/10 Q1016 NOSIG=
201006071100 METAR LMML NIL=
201006071045 METAR LMML 071045Z 25008KT 200V290 CAVOK 25/13 Q1016 NOSIG=
201006071030 METAR LMML NIL=
201006071015 METAR LMML 071015Z 22008KT 190V260 CAVOK 25/13 Q1016 NOSIG=
201006071000 METAR LMML NIL=
201006070945 METAR LMML 070945Z 12006KT 020V270 CAVOK 26/11 Q1016 NOSIG=
201006070915 METAR LMML 070915Z VRB01KT CAVOK 26/10 Q1016 NOSIG=
201006070845 METAR LMML 070845Z VRB02KT CAVOK 26/09 Q1016 NOSIG=
201006070830 METAR LMML NIL=
201006070815 METAR LMML 070815Z VRB03KT CAVOK 25/09 Q1016 NOSIG=
201006070800 METAR LMML NIL=
201006070745 METAR LMML 070745Z 32005KT 260V360 CAVOK 24/10 Q1016 NOSIG=
201006070730 METAR LMML NIL=
201006070715 METAR LMML 070715Z VRB03KT CAVOK 23/11 Q1016 NOSIG=
201006070700 METAR LMML NIL=
201006070645 METAR LMML 070645Z 31004KT 270V010 CAVOK 22/10 Q1016 NOSIG=
201006070630 METAR LMML NIL=
201006070615 METAR LMML 070615Z 30005KT 240V330 CAVOK 22/11 Q1016 NOSIG=
201006070600 METAR LMML NIL=
201006070545 METAR LMML 070545Z 28004KT 240V320 CAVOK 20/11 Q1016 NOSIG=
201006070530 METAR LMML NIL=
201006070515 METAR LMML 070515Z VRB03KT CAVOK 19/12 Q1016 NOSIG=
201006070500 METAR LMML NIL=
201006070445 METAR LMML 070445Z VRB03KT CAVOK 18/13 Q1016 NOSIG=
201006070430 METAR LMML NIL=
201006070415 METAR LMML 070415Z VRB02KT 9999 FEW012 17/15 Q1016 NOSIG=
201006070400 METAR LMML NIL=
201006070345 METAR LMML 070345Z VRB03KT CAVOK 17/16 Q1016 NOSIG=
201006070330 METAR LMML NIL=
201006070315 METAR LMML 070315Z 24005KT 200V270 CAVOK 18/16 Q1016 NOSIG=
201006070300 METAR LMML NIL=
201006070245 METAR LMML 070245Z 23005KT CAVOK 17/15 Q1016 NOSIG=
201006070230 METAR LMML NIL=
201006070215 METAR LMML 070215Z VRB02KT CAVOK 17/13 Q1016 NOSIG=
201006070200 METAR LMML NIL=
201006070145 METAR LMML 070145Z VRB02KT CAVOK 17/13 Q1016 NOSIG=
201006070130 METAR LMML NIL=
201006070115 METAR LMML 070115Z VRB02KT CAVOK 17/13 Q1016 NOSIG=
201006070100 METAR LMML NIL=
201006070045 METAR LMML 070045Z VRB03KT CAVOK 17/13 Q1016 NOSIG=
201006070030 METAR LMML NIL=
201006070015 METAR LMML 070015Z VRB01KT CAVOK 17/13 Q1016 NOSIG=
201006070000 METAR LMML NIL=
201006062345 METAR LMML 062345Z VRB01KT CAVOK 18/14 Q1016 NOSIG=
201006062315 METAR LMML 062315Z VRB03KT CAVOK 18/14 Q1017 NOSIG=
201006062300 METAR LMML NIL=
201006062245 METAR LMML 062245Z VRB03KT CAVOK 18/15 Q1017 NOSIG=
201006062230 METAR LMML NIL=
201006062215 METAR LMML 062215Z VRB01KT CAVOK 18/15 Q1017 NOSIG=
201006062200 METAR LMML NIL=
201006062145 METAR LMML 062145Z VRB03KT CAVOK 18/15 Q1017 NOSIG=
201006062130 METAR LMML NIL=
201006062115 METAR LMML 062115Z VRB03KT CAVOK 18/15 Q1018 NOSIG=
201006062045 METAR LMML 062045Z VRB03KT CAVOK 19/15 Q1017 NOSIG=
201006062030 METAR LMML NIL=
201006062015 METAR LMML 062015Z VRB03KT CAVOK 19/15 Q1017 NOSIG=
201006062000 METAR LMML NIL=
201006061945 METAR LMML 061945Z VRB03KT CAVOK 19/15 Q1017 NOSIG=
201006061930 METAR LMML NIL=
201006061915 METAR LMML 061915Z 31005KT CAVOK 20/15 Q1017 NOSIG=
201006061845 METAR LMML 061845Z 32006KT CAVOK 20/15 Q1017 NOSIG=
201006061815 METAR LMML 061815Z 33005KT 310V010 CAVOK 21/15 Q1017 NOSIG=
201006061800 METAR LMML NIL=
201006061745 METAR LMML 061745Z 33005KT 300V010 CAVOK 22/16 Q1017 NOSIG=
201006061730 METAR LMML NIL=
201006061715 METAR LMML 061715Z 31007KT 270V340 9999 FEW025 22/15 Q1017
                        NOSIG=
201006061700 METAR LMML NIL=
201006061645 METAR LMML 061645Z 32006KT 9999 FEW024 23/15 Q1017 NOSIG=
201006061630 METAR LMML NIL=
201006061615 METAR LMML 061615Z 30007KT 260V340 9999 FEW026 24/16 Q1017
                        NOSIG=
201006061545 METAR LMML 061545Z 33004KT 250V050 9999 FEW026 24/16 Q1017
                        NOSIG=
201006061530 METAR LMML NIL=
201006061515 METAR LMML 061515Z 32006KT 260V360 9999 FEW029 24/16 Q1017
                        NOSIG=
201006061500 METAR LMML NIL=
201006061445 METAR LMML 061445Z 34007KT 300V020 9999 FEW029 24/17 Q1017
                        NOSIG=
201006061430 METAR LMML NIL=
201006061415 METAR LMML 061415Z 01007KT 340V050 9999 FEW024 25/17 Q1017
                        NOSIG=
201006061400 METAR LMML NIL=
201006061345 METAR LMML 061345Z 01005KT 330V070 9999 FEW022 25/17 Q1017
                        NOSIG=
201006061330 METAR LMML NIL=
201006061315 METAR LMML 061315Z 02005KT 340V110 9999 FEW024 26/18 Q1017
                        NOSIG=
201006061300 METAR LMML NIL=
201006061245 METAR LMML 061245Z 03005KT 340V090 9999 FEW024 25/18 Q1017
                        NOSIG=
201006061230 METAR LMML NIL=
201006061215 METAR LMML 061215Z 04006KT 360V190 9999 FEW023 26/18 Q1017
                        NOSIG=
201006061200 METAR LMML NIL=
201006061145 METAR LMML 061145Z 04006KT 350V090 9999 FEW033 25/18 Q1017
                        NOSIG=
201006061130 METAR LMML NIL=
201006061115 METAR LMML 061115Z 04008KT 010V080 9999 FEW023 25/18 Q1017
                        NOSIG=
201006061100 METAR LMML NIL=
201006061045 METAR LMML 061045Z 10006KT 020V160 9999 FEW026 25/18 Q1017
                        NOSIG=
201006061030 METAR LMML NIL=
201006061000 METAR LMML NIL=
201006060945 METAR LMML 060945Z 04005KT 350V120 9999 FEW030 26/16 Q1018
                        NOSIG=
201006060930 METAR LMML NIL=
201006060915 METAR LMML 060915Z 33005KT 280V040 9999 FEW007 25/14 Q1018
                        NOSIG=
201006060900 METAR LMML NIL=
201006060845 METAR LMML 060845Z 32007KT 280V360 9999 FEW007 25/12 Q1018
                        NOSIG=
201006060830 METAR LMML NIL=
201006060815 METAR LMML 060815Z 33009KT 290V360 9999 FEW007 24/14 Q1018
                        TEMPO BKN008=
201006060745 METAR LMML 060745Z 29005KT 230V340 9999 FEW007 23/16 Q1018
                        TEMPO BKN008=
201006060730 METAR LMML NIL=
201006060715 METAR LMML 060715Z 26004KT 210V320 9999 FEW007 22/16 Q1018
                        TEMPO BKN008=
201006060700 METAR LMML NIL=
201006060645 METAR LMML 060645Z 24004KT 200V300 9999 FEW007 21/17 Q1018
                        TEMPO BKN080=
201006060630 METAR LMML NIL=
201006060615 METAR LMML 060615Z VRB03KT 9999 FEW007 20/17 Q1018 TEMPO
                        BKN080=
201006060545 METAR LMML 060545Z 24004KT 200V280 9999 FEW007 19/17 Q1017
                        NOSIG=
201006060530 METAR LMML NIL=
201006060515 METAR LMML 060515Z 24005KT 200V280 9999 FEW007 19/17 Q1017
                        NOSIG=
201006060500 METAR LMML NIL=
201006060445 METAR LMML 060445Z 25004KT 190V310 9999 FEW007 18/17 Q1017
                        NOSIG=
201006060415 METAR LMML 060415Z 24004KT 190V300 9999 FEW007 18/16 Q1017
                        NOSIG=
201006060400 METAR LMML NIL=
201006060345 METAR LMML 060345Z 23005KT 180V280 9999 FEW007 18/16 Q1017
                        NOSIG=
201006060330 METAR LMML NIL=
201006060315 METAR LMML 060315Z 24004KT 210V280 9999 FEW009 18/16 Q1017
                        NOSIG=
201006060300 METAR LMML NIL=
201006060245 METAR LMML 060245Z 26004KT 200V320 9999 FEW009 18/16 Q1017
                        NOSIG=
201006060230 METAR LMML NIL=
201006060215 METAR LMML 060215Z VRB03KT CAVOK 18/16 Q1017 NOSIG=
201006060200 METAR LMML NIL=
201006060145 METAR LMML 060145Z 24004KT 200V290 CAVOK 18/16 Q1017 NOSIG=
201006060130 METAR LMML NIL=
201006060115 METAR LMML 060115Z 24006KT 210V270 CAVOK 18/16 Q1017 NOSIG=
201006060100 METAR LMML NIL=
201006060045 METAR LMML 060045Z 25006KT 200V290 CAVOK 18/15 Q1018 NOSIG=
201006060030 METAR LMML NIL=
201006060015 METAR LMML 060015Z 23006KT 200V270 CAVOK 18/15 Q1018 NOSIG=
201006060000 METAR LMML NIL=
201006052345 METAR LMML 052345Z 23006KT 190V280 CAVOK 18/16 Q1018 NOSIG=
201006052330 METAR LMML NIL=
201006052315 METAR LMML 052315Z 23005KT 200V270 CAVOK 18/16 Q1018 NOSIG=
201006052300 METAR LMML NIL=
201006052245 METAR LMML 052245Z 23004KT 200V270 CAVOK 18/15 Q1018 NOSIG=
201006052230 METAR LMML NIL=
201006052215 METAR LMML 052215Z 22005KT CAVOK 18/15 Q1018 NOSIG=
201006052200 METAR LMML NIL=
201006052145 METAR LMML 052145Z 23005KT 200V260 CAVOK 18/15 Q1018 NOSIG=
201006052130 METAR LMML NIL=
201006052115 METAR LMML 052115Z 21004KT 170V260 CAVOK 19/14 Q1019 NOSIG=
201006052100 METAR LMML NIL=
201006052045 METAR LMML 052045Z VRB01KT CAVOK 18/12 Q1019 NOSIG=
201006052030 METAR LMML NIL=
201006052015 METAR LMML 052015Z VRB02KT CAVOK 18/13 Q1019 NOSIG=
201006052000 METAR LMML NIL=
201006051945 METAR LMML 051945Z VRB03KT CAVOK 19/14 Q1019 NOSIG=
201006051930 METAR LMML NIL=
201006051915 METAR LMML 051915Z 28005KT CAVOK 19/13 Q1018 NOSIG=
201006051900 METAR LMML NIL=
201006051845 METAR LMML 051845Z 26004KT 230V290 CAVOK 20/11 Q1018 NOSIG=
201006051830 METAR LMML NIL=
201006051815 METAR LMML 051815Z 29005KT CAVOK 20/11 Q1018 NOSIG=
201006051800 METAR LMML NIL=
201006051745 METAR LMML 051745Z 31008KT 9999 FEW036 21/12 Q1018 BECMG
                        CAVOK=
201006051730 METAR LMML NIL=
201006051715 METAR LMML 051715Z 30008KT 270V330 9999 FEW036 22/13 Q1018
                        NOSIG=
201006051700 METAR LMML NIL=
201006051645 METAR LMML 051645Z 29009KT 260V320 9999 FEW036 22/13 Q1018
                        NOSIG=
201006051630 METAR LMML NIL=
201006051615 METAR LMML 051615Z 32007KT 280V360 9999 FEW036 23/13 Q1017
                        NOSIG=
201006051545 METAR LMML 051545Z 34005KT 270V050 9999 FEW036 24/13 Q1017
                        NOSIG=
201006051530 METAR LMML NIL=
201006051515 METAR LMML 051515Z 06004KT 9999 FEW036 24/13 Q1018 NOSIG=
201006051500 METAR LMML NIL=
201006051445 METAR LMML 051445Z 02004KT 290V120 9999 FEW034 24/13 Q1018
                        NOSIG=
201006051430 METAR LMML NIL=
201006051415 METAR LMML 051415Z 34004KT 190V110 9999 FEW035 24/13 Q1018
                        NOSIG=
201006051400 METAR LMML NIL=
201006051345 METAR LMML 051345Z 22005KT 150V280 9999 FEW033 24/14 Q1018
                        NOSIG=
201006051315 METAR LMML 051315Z 21006KT 160V250 9999 FEW033 23/14 Q1018
                        NOSIG=
201006051300 METAR LMML NIL=
201006051245 METAR LMML 051245Z 23005KT 180V290 9999 FEW035 24/14 Q1018
                        NOSIG=
201006051215 METAR LMML 051215Z 20005KT 160V260 9999 FEW036 22/14 Q1018
                        NOSIG=
201006051200 METAR LMML NIL=
201006051145 METAR LMML 051145Z VRB02KT 9999 FEW037 22/14 Q1018 NOSIG=
201006051115 METAR LMML 051115Z 12004KT 020V200 9999 FEW036 23/12 Q1018
                        NOSIG=
201006051045 METAR LMML 051045Z 04006G16KT 360V100 9999 FEW035 24/13 Q1019
                        NOSIG=
201006051030 METAR LMML NIL=
201006051015 METAR LMML 051015Z 05005KT 300V120 9999 FEW025 23/14 Q1019
                        NOSIG=
201006051000 METAR LMML NIL=
201006050945 METAR LMML 050945Z 02004KT 330V100 9999 FEW025 24/13 Q1019
                        NOSIG=
201006050915 METAR LMML 050915Z 01006KT 330V070 9999 FEW025 23/13 Q1019
                        NOSIG=
201006050900 METAR LMML NIL=
201006050845 METAR LMML 050845Z 03007KT 360V080 9999 FEW020 23/12 Q1018
                        NOSIG=
201006050830 METAR LMML NIL=
201006050815 METAR LMML 050815Z 04007KT 340V070 9999 FEW020 22/14 Q1018
                        NOSIG=
201006050800 METAR LMML NIL=
201006050745 METAR LMML 050745Z 02006KT 340V070 9999 FEW020 22/14 Q1018
                        NOSIG=
201006050730 METAR LMML NIL=
201006050715 METAR LMML 050715Z 02005KT 340V080 9999 FEW020 22/14 Q1018
                        NOSIG=
201006050700 METAR LMML NIL=
201006050645 METAR LMML 050645Z 36007KT 330V030 9999 FEW020 21/15 Q1018
                        NOSIG=
201006050615 METAR LMML 050615Z 01004KT 330V050 9999 FEW015 20/15 Q1017
                        NOSIG=
201006050545 METAR LMML 050545Z 01006KT 350V060 9999 FEW015 20/15 Q1017
                        NOSIG=
201006050530 METAR LMML NIL=
201006050515 METAR LMML 050515Z 03007KT 9999 FEW015 19/15 Q1017 NOSIG=
201006050500 METAR LMML NIL=
201006050445 METAR LMML 050445Z 02005KT 9999 FEW015 18/16 Q1017 NOSIG=
201006050430 METAR LMML NIL=
201006050415 METAR LMML 050415Z 01006KT 9999 FEW015 17/15 Q1017 NOSIG=
201006050400 METAR LMML NIL=
201006050345 METAR LMML 050345Z 36006KT 9999 FEW015 17/16 Q1017 NOSIG=
201006050330 METAR LMML NIL=
201006050315 METAR LMML 050315Z 35006KT 9999 FEW012 17/16 Q1016 NOSIG=
201006050300 METAR LMML NIL=
201006050245 METAR LMML 050245Z 36006KT 9999 FEW012 17/16 Q1016 NOSIG=
201006050230 METAR LMML NIL=
201006050215 METAR LMML 050215Z 01007KT CAVOK 18/16 Q1016 NOSIG=
201006050200 METAR LMML NIL=
201006050145 METAR LMML 050145Z 01004KT CAVOK 18/16 Q1016 NOSIG=
201006050130 METAR LMML NIL=
201006050115 METAR LMML 050115Z 02004KT 9999 FEW013 18/16 Q1016 NOSIG=
201006050100 METAR LMML NIL=
201006050045 METAR LMML 050045Z 35005KT 9999 FEW014 18/16 Q1016 NOSIG=
201006050030 METAR LMML NIL=
201006050015 METAR LMML 050015Z 36005KT CAVOK 17/15 Q1016 NOSIG=
201006050000 METAR LMML NIL=
201006042345 METAR LMML 042345Z VRB03KT CAVOK 17/15 Q1016 NOSIG=
201006042330 METAR LMML NIL=
201006042315 METAR LMML 042315Z 33004KT CAVOK 18/14 Q1016 NOSIG=
201006042300 METAR LMML NIL=
201006042245 METAR LMML 042245Z 30004KT 240V010 CAVOK 18/14 Q1016 NOSIG=
201006042230 METAR LMML NIL=
201006042215 METAR LMML 042215Z VRB03KT CAVOK 18/15 Q1016 NOSIG=
201006042200 METAR LMML NIL=
201006042145 METAR LMML 042145Z 30004KT 240V330 CAVOK 18/16 Q1016 NOSIG=
201006042130 METAR LMML NIL=
201006042115 METAR LMML 042115Z 35008KT 320V020 CAVOK 19/16 Q1016 NOSIG=
201006042100 METAR LMML NIL=
201006042045 METAR LMML 042045Z 36004KT 320V020 CAVOK 19/15 Q1016 NOSIG=
201006042030 METAR LMML NIL=
201006042015 METAR LMML 042015Z 32009KT CAVOK 18/15 Q1016 NOSIG=
201006042000 METAR LMML NIL=
201006041945 METAR LMML 041945Z 32007KT CAVOK 18/16 Q1016 NOSIG=
201006041930 METAR LMML NIL=
201006041915 METAR LMML 041915Z 31012KT CAVOK 19/15 Q1015 NOSIG=
201006041900 METAR LMML NIL=
201006041845 METAR LMML 041845Z 30010KT CAVOK 19/15 Q1015 NOSIG=
201006041830 METAR LMML NIL=
201006041815 METAR LMML 041815Z 30007KT 260V320 CAVOK 19/15 Q1015 NOSIG=
201006041800 METAR LMML NIL=
201006041745 METAR LMML 041745Z 30010KT 9999 FEW020 20/15 Q1014 NOSIG=
201006041730 METAR LMML NIL=
201006041715 METAR LMML 041715Z 29011KT 260V330 9999 FEW020 21/15 Q1014
                        NOSIG=
201006041700 METAR LMML NIL=
201006041645 METAR LMML 041645Z 29012KT 260V330 9999 FEW020 22/14 Q1014
                        NOSIG=
201006041630 METAR LMML NIL=
201006041615 METAR LMML 041615Z 29014KT 260V320 9999 FEW020 23/13 Q1014
                        NOSIG=
201006041600 METAR LMML NIL=
201006041545 METAR LMML 041545Z 31013KT 9999 FEW020 23/11 Q1014 NOSIG=
201006041530 METAR LMML NIL=
201006041515 METAR LMML 041515Z 29015KT 9999 FEW025 23/12 Q1014 NOSIG=
201006041500 METAR LMML NIL=
201006041445 METAR LMML 041445Z 31014KT 270V330 9999 FEW025 24/12 Q1014
                        NOSIG=
201006041430 METAR LMML NIL=
201006041415 METAR LMML 041415Z 29014KT 260V320 CAVOK 24/11 Q1014 NOSIG=
201006041400 METAR LMML NIL=
201006041345 METAR LMML 041345Z 29012KT 240V330 CAVOK 24/12 Q1014 NOSIG=
201006041330 METAR LMML NIL=
201006041315 METAR LMML 041315Z 27011KT 230V310 9999 FEW025 SCT110 24/12
                        Q1014 NOSIG=
201006041300 METAR LMML NIL=
201006041245 METAR LMML 041245Z 28010KT 240V310 9999 FEW025 BKN110 24/12
                        Q1014 NOSIG=
201006041230 METAR LMML NIL=
201006041215 METAR LMML 041215Z 28011KT 240V320 9999 FEW025 SCT110 23/11
                        Q1014 NOSIG=
201006041200 METAR LMML NIL=
201006041145 METAR LMML 041145Z 28013KT 250V310 CAVOK 24/12 Q1014 NOSIG=
201006041130 METAR LMML NIL=
201006041115 METAR LMML 041115Z 29013KT 250V320 CAVOK 24/13 Q1014 NOSIG=
201006041100 METAR LMML NIL=
201006041045 METAR LMML 041045Z 29012KT 250V330 CAVOK 24/13 Q1014 NOSIG=
201006041030 METAR LMML NIL=
201006041015 METAR LMML 041015Z 31011KT 260V340 CAVOK 24/13 Q1014 NOSIG=
201006041000 METAR LMML NIL=
201006040945 METAR LMML 040945Z 30010KT 280V340 CAVOK 23/13 Q1014 NOSIG=
201006040930 METAR LMML NIL=
201006040915 METAR LMML 040915Z 29012KT 260V330 CAVOK 23/12 Q1015 NOSIG=
201006040900 METAR LMML NIL=
201006040845 METAR LMML 040845Z 30010KT 250V340 9999 FEW030 BKN120 BKN250
                        22/12 Q1014 NOSIG=
201006040830 METAR LMML NIL=
201006040815 METAR LMML 040815Z 30010KT 270V330 CAVOK 21/13 Q1014 NOSIG=
201006040800 METAR LMML NIL=
201006040745 METAR LMML 040745Z 30011KT CAVOK 21/13 Q1014 NOSIG=
201006040730 METAR LMML NIL=
201006040715 METAR LMML 040715Z 32009KT 280V360 CAVOK 21/14 Q1014 NOSIG=
201006040700 METAR LMML NIL=
201006040645 METAR LMML 040645Z 28009KT 250V310 CAVOK 20/14 Q1014 TEMPO
                        8000 RA FEW015 BKN080=
201006040630 METAR LMML NIL=
201006040615 METAR LMML 040615Z 29009KT CAVOK 19/13 Q1014 TEMPO 8000 RA
                        FEW015 BKN080=
201006040600 METAR LMML NIL=
201006040545 METAR LMML 040545Z 28008KT CAVOK 19/14 Q1014 TEMPO 8000 RA
                        FEW015 BKN100=
201006040530 METAR LMML NIL=
201006040515 METAR LMML 040515Z 28008KT 250V320 CAVOK 19/14 Q1014 TEMPO
                        8000 RA FEW015 BKN100=
201006040500 METAR LMML NIL=
201006040445 METAR LMML 040445Z 29007KT 260V320 CAVOK 19/15 Q1013 NOSIG=
201006040430 METAR LMML NIL=
201006040415 METAR LMML 040415Z 26007KT 230V290 CAVOK 18/14 Q1013 NOSIG=
201006040400 METAR LMML NIL=
201006040345 METAR LMML 040345Z 27009KT 230V300 CAVOK 18/14 Q1012 NOSIG=
201006040330 METAR LMML NIL=
201006040315 METAR LMML 040315Z 27010KT 240V300 CAVOK 18/14 Q1013 NOSIG=
201006040300 METAR LMML NIL=
201006040245 METAR LMML 040245Z 28011KT 240V300 9999 FEW020 BKN250 18/14
                        Q1012 NOSIG=
201006040230 METAR LMML NIL=
201006040215 METAR LMML 040215Z 27009KT 9999 FEW020 BKN250 18/15 Q1012
                        NOSIG=
201006040200 METAR LMML NIL=
201006040145 METAR LMML 040145Z 26011KT 9999 FEW020 BKN250 18/16 Q1013
                        NOSIG=
201006040130 METAR LMML NIL=
201006040115 METAR LMML 040115Z 25010KT 220V280 9999 FEW020 SCT120 18/16
                        Q1012 NOSIG=
201006040100 METAR LMML NIL=
201006040045 METAR LMML 040045Z 25007KT 9999 FEW020 BKN250 18/14 Q1012
                        NOSIG=
201006040030 METAR LMML NIL=
201006040015 METAR LMML 040015Z 26008KT CAVOK 19/11 Q1012 NOSIG=
201006040000 METAR LMML NIL=
201006032345 METAR LMML 032345Z 29007KT 250V310 CAVOK 19/12 Q1012 NOSIG=
201006032315 METAR LMML 032315Z 28007KT 250V320 CAVOK 18/12 Q1012 NOSIG=
201006032300 METAR LMML NIL=
201006032245 METAR LMML 032245Z 27008KT 240V300 CAVOK 18/13 Q1012 NOSIG=
201006032230 METAR LMML NIL=
201006032215 METAR LMML 032215Z 27007KT CAVOK 18/13 Q1013 NOSIG=
201006032200 METAR LMML NIL=
201006032145 METAR LMML 032145Z 27008KT CAVOK 18/13 Q1013 NOSIG=
201006032130 METAR LMML NIL=
201006032115 METAR LMML 032115Z 28007KT 230V300 CAVOK 19/12 Q1013 NOSIG=
201006032100 METAR LMML NIL=
201006032045 METAR LMML 032045Z 28007KT 240V300 CAVOK 19/11 Q1013 NOSIG=
201006032030 METAR LMML NIL=
201006032015 METAR LMML 032015Z 28008KT CAVOK 19/11 Q1013 NOSIG=
201006032000 METAR LMML NIL=
201006031945 METAR LMML 031945Z 28008KT CAVOK 19/12 Q1012 NOSIG=
201006031930 METAR LMML NIL=
201006031915 METAR LMML 031915Z 27008KT CAVOK 19/13 Q1012 NOSIG=
201006031900 METAR LMML NIL=
201006031845 METAR LMML 031845Z 28009KT CAVOK 20/12 Q1012 NOSIG=
201006031830 METAR LMML NIL=
201006031815 METAR LMML 031815Z 28010KT 250V310 CAVOK 20/12 Q1012 NOSIG=
201006031800 METAR LMML NIL=
201006031745 METAR LMML 031745Z 28009KT 240V300 CAVOK 20/13 Q1012 NOSIG=
201006031730 METAR LMML NIL=
201006031715 METAR LMML 031715Z 29012KT 260V320 CAVOK 21/11 Q1012 NOSIG=
201006031700 METAR LMML NIL=
201006031645 METAR LMML 031645Z 30014KT CAVOK 21/12 Q1012 NOSIG=
201006031630 METAR LMML NIL=
201006031615 METAR LMML 031615Z 30012KT 270V330 9999 FEW015 SCT250 22/12
                        Q1012 NOSIG=
201006031600 METAR LMML NIL=
201006031545 METAR LMML 031545Z 29012KT 240V320 9999 FEW015 SCT250 22/13
                        Q1012 NOSIG=
201006031530 METAR LMML NIL=
201006031515 METAR LMML 031515Z 28012KT 230V320 9999 FEW015 SCT250 22/14
                        Q1012 NOSIG=
201006031500 METAR LMML NIL=
201006031445 METAR LMML 031445Z 29012KT 9999 FEW020 SCT250 23/13 Q1012
                        NOSIG=
201006031430 METAR LMML NIL=
201006031415 METAR LMML 031415Z 27011KT 240V310 9999 FEW020 SCT250 23/13
                        Q1012 NOSIG=
201006031345 METAR LMML 031345Z 29013KT 9999 FEW020 SCT250 22/14 Q1012
                        NOSIG=
201006031330 METAR LMML NIL=
201006031315 METAR LMML 031315Z 26010KT 210V300 9999 FEW020 22/15 Q1012
                        NOSIG=
201006031300 METAR LMML NIL=
201006031245 METAR LMML 031245Z 25010KT 210V310 9999 FEW020 SCT250 23/15
                        Q1012 NOSIG=
201006031230 METAR LMML NIL=
201006031215 METAR LMML 031215Z 27009KT 210V320 9999 FEW020 SCT250 23/14
                        Q1012 NOSIG=
201006031200 METAR LMML NIL=
201006031145 METAR LMML 031145Z 28010KT 240V310 9999 FEW020 SCT250 21/15
                        Q1012 NOSIG=
201006031130 METAR LMML NIL=
201006031115 METAR LMML 031115Z 30012KT 9999 FEW025 SCT250 22/14 Q1012
                        NOSIG=
201006031100 METAR LMML NIL=
201006031045 METAR LMML 031045Z 29013KT 260V330 9999 FEW025 SCT250 22/15
                        Q1012 NOSIG=
201006031030 METAR LMML NIL=
201006031015 METAR LMML 031015Z 28012KT 250V310 9999 FEW025 SCT250 22/13
                        Q1012 NOSIG=
201006031000 METAR LMML NIL=
201006030945 METAR LMML 030945Z 28012KT 240V310 9999 FEW020 22/14 Q1012
                        NOSIG=
201006030930 METAR LMML NIL=
201006030915 METAR LMML 030915Z 29011KT 260V320 9999 FEW015 22/14 Q1012
                        NOSIG=
201006030900 METAR LMML NIL=
201006030845 METAR LMML 030845Z 29012KT 250V330 9999 FEW015 22/15 Q1012
                        NOSIG=
201006030830 METAR LMML NIL=
201006030815 METAR LMML 030815Z 30011KT 9999 FEW012 SCT250 22/14 Q1011
                        NOSIG=
201006030745 METAR LMML 030745Z 31011KT 9999 FEW012 SCT250 21/15 Q1011
                        NOSIG=
201006030730 METAR LMML NIL=
201006030715 METAR LMML 030715Z 30014KT 9999 FEW012 SCT250 20/15 Q1011
                        NOSIG=
201006030700 METAR LMML NIL=
201006030645 METAR LMML 030645Z 29014KT 260V320 9999 FEW012 19/15 Q1011
                        NOSIG=
201006030630 METAR LMML NIL=
201006030615 METAR LMML 030615Z 29014KT 260V320 9999 SCT012 19/15 Q1011
                        NOSIG=
201006030600 METAR LMML NIL=
201006030545 METAR LMML 030545Z 29012KT 250V330 9999 FEW011 18/15 Q1011
                        NOSIG=
201006030530 METAR LMML NIL=
201006030515 METAR LMML 030515Z 30015KT 9999 FEW011 SCT250 18/15 Q1010
                        NOSIG=
201006030445 METAR LMML 030445Z 30013KT 9999 FEW010 SCT250 17/15 Q1010
                        NOSIG=
201006030415 METAR LMML 030415Z 30011KT 9999 FEW011 SCT250 17/15 Q1010
                        NOSIG=
201006030400 METAR LMML NIL=
201006030345 METAR LMML 030345Z 31012KT 9999 FEW013 SCT250 17/15 Q1010
                        NOSIG=
201006030330 METAR LMML NIL=
201006030315 METAR LMML 030315Z 31013KT 280V340 9999 FEW013 17/15 Q1010
                        NOSIG=
201006030300 METAR LMML NIL=
201006030245 METAR LMML 030245Z 31011KT 9999 FEW016 17/14 Q1010 NOSIG=
201006030230 METAR LMML NIL=
201006030215 METAR LMML 030215Z 30008KT 260V330 CAVOK 18/14 Q1010 NOSIG=
201006030200 METAR LMML NIL=
201006030145 METAR LMML 030145Z 29009KT 260V320 CAVOK 18/14 Q1010 NOSIG=
201006030130 METAR LMML NIL=
201006030115 METAR LMML 030115Z 29010KT 260V330 CAVOK 18/14 Q1010 NOSIG=
201006030100 METAR LMML NIL=
201006030045 METAR LMML 030045Z 28012KT CAVOK 18/14 Q1010 NOSIG=
201006030030 METAR LMML NIL=
201006030015 METAR LMML 030015Z 28013KT CAVOK 18/14 Q1010 NOSIG=
201006030000 METAR LMML NIL=
201006022345 METAR LMML 022345Z 30012KT CAVOK 18/14 Q1010 NOSIG=
201006022315 METAR LMML 022315Z 29013KT CAVOK 18/14 Q1010 NOSIG=
201006022245 METAR LMML 022245Z 30011KT 270V330 CAVOK 18/14 Q1010 NOSIG=
201006022230 METAR LMML NIL=
201006022215 METAR LMML 022215Z 31010KT CAVOK 18/14 Q1010 NOSIG=
201006022145 METAR LMML 022145Z 29014KT 250V320 CAVOK 19/13 Q1010 NOSIG=
201006022130 METAR LMML NIL=
201006022115 METAR LMML 022115Z 30011KT CAVOK 19/13 Q1010 NOSIG=
201006022045 METAR LMML 022045Z 29013KT 260V330 CAVOK 19/13 Q1010=
201006022030 METAR LMML NIL=
201006022015 METAR LMML 022015Z 29015KT 260V320 CAVOK 20/12 Q1010 NOSIG=
201006022000 METAR LMML NIL=
201006021945 METAR LMML 021945Z 30012KT 270V330 CAVOK 19/14 Q1010 NOSIG=
201006021930 METAR LMML NIL=
201006021915 METAR LMML 021915Z 32010KT CAVOK 19/15 Q1010 NOSIG=
201006021900 METAR LMML NIL=
201006021845 METAR LMML 021845Z 31014KT CAVOK 20/15 Q1010 NOSIG=
201006021830 METAR LMML NIL=
201006021815 METAR LMML 021815Z 29011KT CAVOK 20/15 Q1009 NOSIG=
201006021800 METAR LMML NIL=
201006021745 METAR LMML 021745Z 28012KT 250V310 CAVOK 20/15 Q1009 NOSIG=
201006021730 METAR LMML NIL=
201006021715 METAR LMML 021715Z 28011KT 230V310 CAVOK 21/15 Q1009 NOSIG=
201006021645 METAR LMML 021645Z 29015KT 250V320 CAVOK 21/15 Q1009 NOSIG=
201006021630 METAR LMML NIL=
201006021615 METAR LMML 021615Z 28016KT 250V310 CAVOK 21/15 Q1009 NOSIG=
201006021606 SPECI LMML 021606Z /////KT CAVOK 22/15 Q1009 NOSIG=
201006021600 METAR LMML NIL=
201006021545 METAR LMML 021545Z 29017KT 250V320 9999 FEW021 21/15 Q1009
                        NOSIG=
201006021530 METAR LMML NIL=
201006021515 METAR LMML 021515Z 29016KT 240V320 9999 FEW021 21/15 Q1009
                        NOSIG=
201006021500 METAR LMML NIL=
201006021445 METAR LMML 021445Z 28016KT 240V310 9999 FEW020 21/15 Q1010
                        TEMPO 30020G30KT=
201006021431 SPECI LMML 021431Z 28016KT 9999 SCT020 21/15 Q1010 TEMPO
                        30020G30KT=
201006021430 METAR LMML NIL=
201006021415 METAR LMML 021415Z 28016KT 230V320 9999 SCT020 21/15 Q1010
                        TEMPO 30020G30KT=
201006021400 METAR LMML NIL=
201006021345 METAR LMML 021345Z 28020KT 9999 BKN019 21/15 Q1010 TEMPO
                        30020G30KT=
201006021330 METAR LMML NIL=
201006021315 METAR LMML 021315Z 28022G33KT 240V310 9999 BKN019 22/15 Q1010
                        TEMPO 30020G30KT=
201006021300 METAR LMML NIL=
201006021245 METAR LMML 021245Z 27019KT 240V310 9999 BKN017 21/15 Q1010
                        TEMPO 30020G30KT=
201006021230 METAR LMML NIL=
201006021215 METAR LMML 021215Z 27018KT 230V300 9999 BKN017 21/16 Q1010
                        TEMPO 30020G30KT=
201006021200 METAR LMML NIL=
201006021145 METAR LMML 021145Z 27019KT 230V300 9999 BKN017 21/15 Q1010
                        TEMPO 30020G30KT=
201006021130 METAR LMML NIL=
201006021115 METAR LMML 021115Z 28022KT 250V310 9999 BKN018 21/15 Q1010
                        TEMPO 30020G30KT=
201006021100 METAR LMML NIL=
201006021045 METAR LMML 021045Z 27019KT 230V300 9999 BKN018 20/15 Q1010
                        TEMPO 30020G30KT=
201006021030 METAR LMML NIL=
201006021015 METAR LMML 021015Z 28021KT 250V310 9999 BKN018 21/15 Q1010
                        TEMPO 30020G30KT=
201006021000 METAR LMML NIL=
201006020945 METAR LMML 020945Z 28018KT 250V330 9999 BKN018 21/15 Q1010
                        TEMPO 30020G30KT=
201006020930 METAR LMML NIL=
201006020915 METAR LMML 020915Z 28017KT 240V310 9999 BKN016 20/15 Q1010
                        TEMPO 30020G30KT=
201006020900 METAR LMML NIL=
201006020845 METAR LMML 020845Z 30017KT 260V320 9999 BKN019 20/14 Q1010
                        TEMPO 30020G30KT=
201006020815 METAR LMML 020815Z 30015G25KT 260V320 9999 BKN022 20/14 Q1010
                        TEMPO 30020G30KT=
201006020800 METAR LMML NIL=
201006020745 METAR LMML 020745Z 29019KT 270V330 9999 SCT025 20/13 Q1010
                        TEMPO 30020G30KT=
201006020730 METAR LMML NIL=
201006020715 METAR LMML 020715Z 30017KT 260V330 9999 SCT021 20/13 Q1011
                        TEMPO 30020G30KT=
201006020700 METAR LMML NIL=
201006020645 METAR LMML 020645Z 30016KT 270V330 9999 SCT021 19/13 Q1010
                        NOSIG=
201006020630 METAR LMML NIL=
201006020615 METAR LMML 020615Z 29015KT 250V320 9999 SCT020 SCT250 18/13
                        Q1010 NOSIG=
201006020600 METAR LMML NIL=
201006020545 METAR LMML 020545Z 29014KT 250V320 9999 SCT020 SCT250 18/13
                        Q1011 NOSIG=
201006020530 METAR LMML NIL=
201006020515 METAR LMML 020515Z 29011KT 260V320 9999 BKN020 18/14 Q1010
                        NOSIG=
201006020500 METAR LMML NIL=
201006020445 METAR LMML 020445Z 28004KT 250V320 9999 BKN017 17/14 Q1010
                        NOSIG=
201006020430 METAR LMML NIL=
201006020415 METAR LMML 020415Z 29005KT 260V330 9999 BKN018 SCT250 17/14
                        Q1010 TEMPO BKN015=
201006020400 METAR LMML NIL=
201006020345 METAR LMML 020345Z 30004KT 9999 SCT017 16/14 Q1010 TEMPO
                        BKN015=
201006020330 METAR LMML NIL=
201006020315 METAR LMML 020315Z 30009KT 9999 FEW016 16/14 Q1010 TEMPO
                        BKN015=
201006020300 METAR LMML NIL=
201006020245 METAR LMML 020245Z 30010KT 9999 FEW016 16/14 Q1010 TEMPO
                        BKN015=
201006020230 METAR LMML NIL=
201006020215 METAR LMML 020215Z VRB03KT 9999 FEW013 16/14 Q1010 TEMPO
                        BKN013=
201006020200 METAR LMML NIL=
201006020145 METAR LMML 020145Z 29005KT 260V320 9999 FEW025 16/14 Q1010
                        TEMPO BKN012=
201006020130 METAR LMML NIL=
201006020115 METAR LMML 020115Z 29005KT 250V320 9999 FEW025 16/14 Q1010
                        TEMPO 9000 BKN012=
201006020100 METAR LMML NIL=
201006020045 METAR LMML 020045Z 28007KT CAVOK 16/14 Q1010 NOSIG=
201006020030 METAR LMML NIL=
201006020015 METAR LMML 020015Z 28008KT 260V320 CAVOK 17/14 Q1010 NOSIG=
201006020000 METAR LMML NIL=
201006012345 METAR LMML 012345Z 30007KT 270V330 CAVOK 17/14 Q1011 NOSIG=
201006012330 METAR LMML NIL=
201006012315 METAR LMML 012315Z 29010KT CAVOK 17/14 Q1011 NOSIG=
201006012300 METAR LMML NIL=
201006012245 METAR LMML 012245Z 31006KT CAVOK 17/14 Q1011 NOSIG=
201006012230 METAR LMML NIL=
201006012215 METAR LMML 012215Z 30010KT CAVOK 17/15 Q1011 NOSIG=
201006012200 METAR LMML NIL=
201006012145 METAR LMML 012145Z VRB02KT CAVOK 17/15 Q1012 NOSIG=
201006012130 METAR LMML NIL=
201006012115 METAR LMML 012115Z 31005KT 280V360 CAVOK 17/15 Q1012 NOSIG=
201006012100 METAR LMML NIL=
201006012045 METAR LMML 012045Z 28005KT 250V320 CAVOK 17/15 Q1012 NOSIG=
201006012030 METAR LMML NIL=
201006012015 METAR LMML 012015Z 29006KT CAVOK 17/15 Q1012 NOSIG=
201006012000 METAR LMML NIL=
201006011945 METAR LMML 011945Z 25004KT 220V290 CAVOK 17/14 Q1012 NOSIG=
201006011930 METAR LMML NIL=
201006011915 METAR LMML 011915Z 31006KT 270V330 CAVOK 18/14 Q1011 NOSIG=
201006011900 METAR LMML NIL=
201006011845 METAR LMML 011845Z 33006KT 9999 FEW015 SCT250 18/14 Q1011
                        NOSIG=
201006011830 METAR LMML NIL=
201006011815 METAR LMML 011815Z 31011KT 9999 FEW015 SCT250 18/14 Q1011
                        NOSIG=
201006011800 METAR LMML NIL=
201006011745 METAR LMML 011745Z 30012KT CAVOK 19/14 Q1011 NOSIG=
201006011730 METAR LMML NIL=
201006011715 METAR LMML 011715Z 29012KT CAVOK 19/15 Q1011 NOSIG=
201006011700 METAR LMML NIL=
201006011645 METAR LMML 011645Z 31014KT 9999 FEW020 SCT250 20/15 Q1011
                        NOSIG=
201006011630 METAR LMML NIL=
201006011615 METAR LMML 011615Z 31015KT 280V340 9999 FEW020 SCT250 21/15
                        Q1010 NOSIG=
201006011600 METAR LMML NIL=
201006011545 METAR LMML 011545Z 30015KT 9999 FEW020 SCT250 21/14 Q1010
                        NOSIG=
201006011530 METAR LMML NIL=
201006011515 METAR LMML 011515Z 30017KT 270V330 9999 FEW020 SCT250 21/14
                        Q1010 NOSIG=
201006011500 METAR LMML NIL=
201006011445 METAR LMML 011445Z 31020KT 9999 FEW020 SCT250 21/14 Q1010
                        NOSIG=
201006011430 METAR LMML NIL=
201006011415 METAR LMML 011415Z 30015KT 9999 FEW020 SCT250 22/16 Q1010
                        NOSIG=
201006011400 METAR LMML NIL=
201006011345 METAR LMML 011345Z 29016KT 260V330 9999 FEW021 22/15 Q1010
                        NOSIG=
201006011330 METAR LMML NIL=
201006011315 METAR LMML 011315Z 29014KT 240V330 9999 SCT020 22/15 Q1010
                        NOSIG=
201006011300 METAR LMML NIL=
201006011245 METAR LMML 011245Z 31020KT 9999 SCT021 22/15 Q1010 NOSIG=
201006011230 METAR LMML NIL=
201006011215 METAR LMML 011215Z 28019KT 9999 SCT022 22/14 Q1010 NOSIG=
201006011200 METAR LMML NIL=
201006011145 METAR LMML 011145Z 29018KT 270V330 9999 SCT022 22/14 Q1010
                        NOSIG=
201006011130 METAR LMML NIL=
201006011115 METAR LMML 011115Z 30019KT 260V330 9999 SCT024 SCT250 22/14
                        Q1010 NOSIG=
201006011100 METAR LMML NIL=
201006011045 METAR LMML 011045Z 30021KT 9999 FEW022 SCT250 22/14 Q1010
                        NOSIG=
201006011030 METAR LMML NIL=
201006011015 METAR LMML 011015Z 29019KT 250V320 9999 BKN023 SCT250 21/14
                        Q1010 NOSIG=
201006011000 METAR LMML NIL=
201006010945 METAR LMML 010945Z 30020KT 250V330 9999 BKN023 SCT250 21/14
                        Q1010 NOSIG=
201006010930 METAR LMML NIL=
201006010915 METAR LMML 010915Z 29017KT 260V320 9999 BKN022 21/14 Q1010
                        NOSIG=
201006010900 METAR LMML NIL=
201006010845 METAR LMML 010845Z 29019KT 9999 BKN020 21/14 Q1010 NOSIG=
201006010830 METAR LMML NIL=
201006010815 METAR LMML 010815Z 29017KT 260V320 9999 BKN018 21/15 Q1010
                        NOSIG=
201006010800 METAR LMML NIL=
201006010745 METAR LMML 010745Z 30017KT 260V320 9999 BKN017 20/15 Q1009
                        NOSIG=
201006010730 METAR LMML NIL=
201006010715 METAR LMML 010715Z 30018KT 9999 SCT016 SCT250 20/15 Q1009
                        NOSIG=
201006010700 METAR LMML NIL=
201006010645 METAR LMML 010645Z 30021KT 9999 FEW014 SCT250 20/15 Q1009
                        NOSIG=
201006010630 METAR LMML NIL=
201006010615 METAR LMML 010615Z 30020KT 260V320 9999 SCT013 SCT250 19/15
                        Q1009 NOSIG=
201006010600 METAR LMML NIL=
201006010545 METAR LMML 010545Z 30018G28KT 9999 FEW013 BKN250 19/15 Q1009
                        NOSIG=
201006010530 METAR LMML NIL=
201006010515 METAR LMML 010515Z 30016KT 9999 FEW013 SCT120 18/15 Q1009
                        NOSIG=
201006010445 METAR LMML 010445Z 30020KT 9999 FEW014 SCT120 18/15 Q1009
                        NOSIG=
201006010430 METAR LMML NIL=
201006010415 METAR LMML 010415Z 31015KT 9999 FEW014 SCT120 18/15 Q1009
                        NOSIG=
201006010400 METAR LMML NIL=
201006010345 METAR LMML 010345Z 30017KT 9999 FEW014 SCT120 18/15 Q1008
                        NOSIG=
201006010330 METAR LMML NIL=
201006010315 METAR LMML 010315Z 29016KT 250V330 9999 BKN013 18/16 Q1008
                        NOSIG=
201006010300 METAR LMML NIL=
201006010245 METAR LMML 010245Z 29016KT 260V320 9999 BKN013 18/15 Q1008
                        NOSIG=
201006010215 METAR LMML 010215Z 29017KT 270V330 9999 BKN013 SCT250 18/16
                        Q1009 NOSIG=
201006010145 METAR LMML 010145Z 29018KT 260V320 9999 BKN014 18/16 Q1009
                        NOSIG=
201006010130 METAR LMML NIL=
201006010115 METAR LMML 010115Z 30015KT 9999 BKN013 SCT250 18/16 Q1009
                        NOSIG=
201006010100 METAR LMML NIL=
201006010045 METAR LMML 010045Z 30018KT 9999 SCT013 BKN250 18/16 Q1009
                        NOSIG=
201006010030 METAR LMML NIL=
201006010015 METAR LMML 010015Z 30020KT 9999 FEW013 SCT250 18/16 Q1009
                        NOSIG=
201006010000 METAR LMML NIL=

###################################
#  short TAF from LMML
###################################
201007012300 TAF LMML 012300Z 0200/0209 VRB04KT CAVOK
                      TEMPO 0200/0207 9000 SCT004
                      PROB30 TEMPO 0202/0205 1000 BCFG BKN002=
201007012000 TAF LMML 012000Z 0121/0206 VRB03KT CAVOK
                      TEMPO 0121/0206 7000 SCT004
                      PROB30 TEMPO 0121/0206 1000 BCFG BKN002=
201007011700 TAF LMML 011700Z 0118/0203 28004KT CAVOK
                      TEMPO 0121/0203 8000 SCT004
                      PROB30 TEMPO 0200/0203 5000 BKN002=
201007011400 TAF LMML 011400Z 0115/0124 VRB05KT 9999 FEW025
                      BECMG 0117/0120 CAVOK
                      TEMPO 0120/0124 8000 SCT005=
201007011100 TAF LMML 011100Z 0112/0121 VRB05KT 9999 FEW020=
201007010800 TAF LMML 010800Z 0109/0118 VRB05KT CAVOK
                      TEMPO 0109/0118 9999 FEW011=
201007010500 TAF LMML 010500Z 0106/0115 27005KT CAVOK
                      PROB40 TEMPO 0106/0115 9999 FEW015=
201007010200 TAF LMML 010200Z 0103/0112 30007KT 9999 SCT003
                      TEMPO 0103/0106 9000 BKN003
                      PROB30 TEMPO 0103/0105 1000 BCFG=
201006302300 TAF LMML 302300Z 0100/0109 VRB03KT CAVOK
                      PROB30 TEMPO 0100/0105 1000 BCFG BKN003
                      TEMPO 0104/0109 9999 FEW015=
201006302000 TAF LMML 302000Z 3021/0106 VRB03KT CAVOK
                      PROB30 TEMPO 3024/0105 1000 BCFG BKN003=
201006301700 TAF LMML 301700Z 3018/0103 VRB03KT CAVOK
                      PROB30 TEMPO 0101/0103 5000 BR BKN005=
201006301400 TAF LMML 301400Z 3015/3024 VRB06KT 9999 FEW030
                      PROB30 TEMPO 3015/3024 CAVOK=
201006301100 TAF LMML 301100Z 3012/3021 VRB06KT 9999 FEW020
                      TEMPO 3012/3021 CAVOK=
201006300800 TAF LMML 300800Z 3009/3018 30008KT CAVOK
                      PROB40 TEMPO 3009/3018 9999 FEW012=
201006300500 TAF LMML 300500Z 3006/3015 30008KT CAVOK
                      PROB30 TEMPO 3006/3015 9999 FEW020=
201006300200 TAF LMML 300200Z 3003/3012 29005KT CAVOK
                      PROB30 TEMPO 3003/3006 9000 FEW010
                      TEMPO 3006/3012 9999 FEW020=
201006292300 TAF LMML 292300Z 3000/3009 28004KT CAVOK
                      PROB30 TEMPO 3000/3006 9000 FEW010=
201006292000 TAF LMML 292000Z 2921/3006 28004KT CAVOK
                      PROB30 TEMPO 3000/3006 9000 FEW010=
201006291700 TAF LMML 291700Z 2918/3003 30005KT CAVOK
                      TEMPO 2918/2920 9999 FEW020=
201006291400 TAF LMML 291400Z 2915/2924 30008KT CAVOK
                      TEMPO 2915/2920 9999 FEW020=
201006291100 TAF LMML 291100Z 2912/2921 30010KT CAVOK
                      TEMPO 2912/2920 9999 FEW020=
201006290800 TAF LMML 290800Z 2909/2918 VRB05KT CAVOK
                      PROB30 TEMPO 2909/2918 9999 FEW020=
201006290500 TAF LMML 290500Z 2906/2915 30007KT 9999 FEW012
                      BECMG 2906/2908 CAVOK=
201006290200 TAF LMML 290200Z 2903/2912 27005KT CAVOK
                      PROB40 TEMPO 2903/2906 7000 SCT003=
201006282300 TAF LMML 282300Z 2900/2909 VRB03KT CAVOK
                      PROB40 TEMPO 2902/2906 7000 SCT003=
201006282000 TAF LMML 282000Z 2821/2906 VRB03KT CAVOK
                      PROB40 TEMPO 2900/2906 7000 SCT003=
201006281700 TAF LMML 281700Z 2818/2903 25006KT CAVOK
                      PROB30 TEMPO 2900/2903 9000 FEW005=
201006281400 TAF LMML 281400Z 2815/2824 22007KT CAVOK
                      TEMPO 2815/2818 9999 FEW030=
201006281100 TAF LMML 281100Z 2812/2821 14007KT 9999 FEW030
                      TEMPO 2812/2821 CAVOK=
201006280800 TAF LMML 280800Z 2809/2818 VRB07KT CAVOK
                      PROB30 TEMPO 2809/2818 9999 FEW015=
201006280500 TAF LMML 280500Z 2806/2815 VRB06KT CAVOK=
201006280200 TAF LMML 280200Z 2803/2812 VRB03KT CAVOK=
201006272300 TAF LMML 272300Z 2800/2809 VRB03KT CAVOK=
201006272000 TAF LMML 272000Z 2721/2806 VRB03KT CAVOK=
201006271700 TAF LMML 271700Z 2718/2803 VRB03KT CAVOK=
201006271400 TAF LMML 271400Z 2715/2724 VRB05KT 9999 SCT020=
201006271100 TAF LMML 271100Z 2712/2721 04006KT 9999 SCT020=
201006270800 TAF LMML 270800Z 2709/2718 VRB05KT CAVOK=
201006270500 TAF LMML 270500Z 2706/2715 06005KT CAVOK=
201006270200 TAF LMML 270200Z 2703/2712 VRB03KT CAVOK=
201006262300 TAF LMML 262300Z 2700/2709 VRB03KT CAVOK=
201006262000 TAF LMML 262000Z 2621/2706 VRB05KT CAVOK=
201006261700 TAF LMML 261700Z 2618/2703 VRB05KT CAVOK
                      PROB30 TEMPO 2618/2703 9999 FEW025=
201006261400 TAF LMML 261400Z 2615/2624 VRB05KT CAVOK
                      TEMPO 2615/2624 9999 FEW025=
201006261100 TAF LMML 261100Z 2612/2621 12005KT CAVOK=
201006260800 TAF LMML 260800Z 2609/2618 VRB05KT CAVOK
                      PROB30 TEMPO 2609/2618 9999 FEW030=
201006260500 TAF LMML 260500Z 2606/2615 VRB06KT CAVOK
                      PROB30 TEMPO 2606/2615 9999 FEW015=
201006260200 TAF LMML 260200Z 2603/2612 VRB04KT CAVOK
                      PROB30 TEMPO 2603/2606 9000 NSC
                      TEMPO 2606/2612 9999 FEW015=
201006252300 TAF LMML 252300Z 2600/2609 VRB04KT CAVOK
                      PROB30 TEMPO 2600/2606 9000 NSC=
201006252000 TAF LMML 252000Z 2521/2606 VRB05KT CAVOK
                      PROB30 TEMPO 2600/2606 9000 NSC=
201006251700 TAF LMML 251700Z 2518/2603 VRB05KT CAVOK
                      PROB30 TEMPO 2600/2603 9000 MIFG NSC=
201006251400 TAF COR LMML 251400Z 2515/2524 15005KT CAVOK=
201006251100 TAF LMML 251100Z 2512/2521 VRB06KT CAVOK=
201006250800 TAF LMML 250800Z 2509/2518 30004KT CAVOK=
201006250500 TAF LMML 250500Z 2506/2515 31007KT CAVOK=
201006250200 TAF LMML 250200Z 2503/2512 31008KT CAVOK=
201006242300 TAF LMML 242300Z 2500/2509 31008KT CAVOK=
201006242000 TAF LMML 242000Z 2421/2506 31008KT CAVOK
                      PROB30 TEMPO 2502/2505 8000 NSC=
201006241700 TAF LMML 241700Z 2418/2503 29010KT CAVOK
                      PROB30 TEMPO 2500/2503 9000 NSC=
201006241400 TAF LMML 241400Z 2415/2424 29014KT CAVOK
                      PROB30 TEMPO 2415/2418 9999 FEW025=
201006241100 TAF LMML 241100Z 2412/2421 34010KT CAVOK
                      BECMG 2412/2415 28012KT
                      TEMPO 2412/2417 9999 FEW025=
201006240800 TAF LMML 240800Z 2409/2418 30011KT 9999 FEW030
                      TEMPO 2409/2418 CAVOK=
201006240500 TAF LMML 240500Z 2406/2415 30010KT CAVOK
                      TEMPO 2406/2415 9999 FEW035=
201006240200 TAF LMML 240200Z 2403/2412 30010KT CAVOK
                      TEMPO 2406/2412 9999 FEW030=
201006232300 TAF LMML 232300Z 2400/2409 30010KT CAVOK=
201006232000 TAF LMML 232000Z 2321/2406 30010KT 9999 FEW020
                      TEMPO 2321/2406 CAVOK=
201006231700 TAF LMML 231700Z 2318/2403 30014KT 9999 FEW020
                      BECMG 2318/2320 CAVOK=
201006231400 TAF LMML 231400Z 2315/2324 30015KT 9999 SCT025=
201006231100 TAF LMML 231100Z 2312/2321 29015KT 9999 SCT025
                      TEMPO 2312/2317 29015G25KT=
201006230800 TAF LMML 230800Z 2309/2318 31015KT 9999 SCT020
                      PROB30 TEMPO 2309/2316 31015G25KT=
201006230500 TAF LMML 230500Z 2306/2315 30017KT 9999 FEW025=
201006230200 TAF LMML 230200Z 2303/2312 30017KT 9999 FEW025=
201006222300 TAF LMML 222300Z 2300/2309 30017KT 9999 FEW025=
201006222000 TAF LMML 222000Z 2221/2306 30013KT 9999 FEW025=
201006221700 TAF LMML 221700Z 2218/2303 30018KT 9999 FEW025=
201006221400 TAF LMML 221400Z 2215/2224 30020G30KT 9999 SCT030=
201006221100 TAF LMML 221100Z 2212/2221 30020G30KT 9999 SCT030=
201006220800 TAF LMML 220800Z 2209/2218 30020G30KT 9999 SCT030=
201006220500 TAF LMML 220500Z 2206/2215 29017KT 9999 SCT025
                      TEMPO 2206/2215 28020G30KT=
201006220200 TAF LMML 220200Z 2203/2212 29015KT 9999 SCT030
                      TEMPO 2206/2212 30018G28KT=
201006212300 TAF LMML 212300Z 2200/2209 30014KT 9999 FEW025
                      TEMPO 2206/2209 29015G25KT=
201006212000 TAF LMML 212000Z 2121/2206 29017KT 9999 SCT025
                      PROB30 TEMPO 2121/2206 28017G27KT=
201006211700 TAF LMML 211700Z 2118/2203 30018KT 9999 FEW028=
201006211400 TAF LMML 211400Z 2115/2124 30018KT 9999 SCT028
                      PROB40 TEMPO 2115/1224 30018G28KT=
201006211100 TAF LMML 211100Z 2112/2121 30018KT 9999 SCT020
                      PROB30 TEMPO 2112/2121 30018G28KT=
201006210800 TAF LMML 210800Z 2109/2118 31015KT 9999 SCT020
                      PROB30 TEMPO 2109/2112 CAVOK=
201006210500 TAF LMML 210500Z 2106/2115 31010KT 9999 SCT020 BKN050
                      PROB30 TEMPO 2106/2108 8000 SHRA
                      BECMG 2109/2112 31020KT=
201006210200 TAF LMML 210200Z 2103/2112 31005KT 9999 SCT020 BKN100
                      TEMPO 2103/2106 8000 RA
                      PROB30 TEMPO 2103/2106 5000 TSRA BKN015CB
                       BECMG 2106/2109 31016KT=
201006202300 TAF LMML 202300Z 2100/2109 VRB03KT 9999 FEW020 SCT050 BKN100
                      TEMPO 2100/2106 8000 RA
                      PROB30 TEMPO 2103/2106 5000 TSRA BKN015CB
                       BECMG 2103/2106 31016KT=
201006202000 TAF LMML 202000Z 2021/2106 24004KT CAVOK
                      TEMPO 2100/2106 7000 SHRA SCT025 BKN100
                      PROB30 TEMPO 2103/2106 5000 TSRA BKN015CB
                       BECMG 2102/2105 31015KT=
201006201700 TAF LMML 201700Z 2018/2103 23006KT CAVOK
                      BECMG 2021/2024 9999 FEW015 SCT050
                      BECMG 2100/2103 29013KT
                      PROB30 TEMPO 2100/2103 8000 SHRA BKN015 BKN040=
201006201400 TAF LMML 201400Z 2015/2024 24008KT 9999 FEW020
                      TEMPO 2017/2024 CAVOK=
201006201100 TAF LMML 201100Z 2012/2021 27010KT 9999 SCT025
                      BECMG 2018/2021 21005KT CAVOK
                      TEMPO 2018/2021 9999 FEW015=
201006200800 TAF LMML 200800Z 2009/2018 30013KT 9999 SCT020
                      BECMG 2015/2018 24007KT=
201006200500 TAF LMML 200500Z 2006/2015 30012KT CAVOK
                      PROB30 TEMPO 2006/2015 9999 FEW025=
201006200200 TAF LMML 200200Z 2003/2012 32010KT CAVOK POB30
                      TEMPO 2003/2005 5000 TSRA SCT060CB=
201006192300 TAF LMML 192300Z 2000/2009 33013KT CAVOK
                      PROB30 TEMPO 2000/2009 9000 RA
                      PROB40 TEMPO 2003/2009 9999 FEW020=
201006192000 TAF LMML 192000Z 1921/2006 33013KT CAVOK
                      PROB30 TEMPO 1921/2006 9000 RA=
201006191700 TAF LMML 191700Z 1918/2003 29015KT CAVOK
                      PROB30 TEMPO 1921/2003 8000 SHRA BKN100=
201006191400 TAF LMML 191400Z 1915/1924 30015KT 9999 FEW020
                      TEMPO 1915/1918 30015G26KT=
201006191100 TAF LMML 191100Z 1912/1921 30015KT 9999 FEW020
                      TEMPO 1912/1918 30015G25KT=
201006190805 TAF AMD LMML 190805Z 1909/1918 30020KT 9999 FEW020
                      TEMPO 1909/1918 30020G30KT=
201006190800 TAF LMML 190800Z 1909/1918 30020KT 9999 FEW020=
201006190500 TAF LMML 190500Z 1906/1915 31015KT 9999 FEW020
                      PROB30 TEMPO 1906/1915 CAVOK=
201006190200 TAF LMML 190200Z 1903/1912 30015KT CAVOK
                      PROB30 TEMPO 1903/1912 9999 SCT010=
201006182300 TAF LMML 182300Z 1900/1909 30015KT CAVOK
                      PROB30 TEMPO 1900/1909 9999 SCT008=
201006182000 TAF LMML 182000Z 1821/1906 30012KT CAVOK
                      PROB30 TEMPO 1900/1906 9999 SCT008=
201006181700 TAF LMML 181700Z 1818/1903 30010KT CAVOK
                      PROB30 TEMPO 1821/1903 8000 SCT008=
201006181400 TAF LMML 181400Z 1815/1824 12013KT CAVOK
                      BECMG 1818/1821 33012KT
                      PROB30 TEMPO 1821/1824 8000 FEW010=
201006181100 TAF LMML 181100Z 1812/1821 10008KT CAVOK
                      BECMG 1812/1821 33012KT=
201006180800 TAF LMML 180800Z 1809/1818 07008KT CAVOK=
201006180500 TAF LMML 180500Z 1806/1815 06007KT 9000 FEW005
                      BECMG 1806/1808 CAVOK=
201006180200 TAF LMML 180200Z 1803/1812 08005KT CAVOK
                      TEMPO 1803/1807 9000 NSC
                      PROB40 TEMPO 1803/1806 5000 BR NSC
                      PROB30 TEMPO 1803/1806 2000 MIFG SCT002=
201006172300 TAF LMML 172300Z 1800/1809 08005KT CAVOK
                      TEMPO 1800/1806 8000 NSC
                      PROB30 TEMPO 1800/1806 4000 BR FEW003=
201006172000 TAF LMML 172000Z 1721/1806 08006KT CAVOK
                      PROB30 TEMPO 1800/1806 9000 NSC=
201006171700 TAF LMML 171700Z 1718/1803 08008KT CAVOK=
201006171400 TAF LMML 171400Z 1715/1724 09008KT CAVOK=
201006171100 TAF LMML 171100Z 1712/1721 08008KT CAVOK=
201006170800 TAF LMML 170800Z 1709/1718 07008KT CAVOK=
201006170500 TAF LMML 170500Z 1706/1715 04006KT CAVOK=
201006170200 TAF LMML 170200Z 1703/1712 04005KT CAVOK
                      PROB30 TEMPO 1703/1706 7000 NSC=
201006162300 TAF LMML 162300Z 1700/1709 35005KT CAVOK
                      PROB30 TEMPO 1703/1706 5000 BR NSC=
201006162000 TAF LMML 162000Z 1621/1706 35005KT CAVOK
                      TEMPO 1703/1706 5000 BR NSC=
201006161700 TAF LMML 161700Z 1618/1703 35007KT CAVOK=
201006161400 TAF LMML 161400Z 1615/1624 33010KT CAVOK
                      BECMG 1621/1624 03005KT=
201006161100 TAF LMML 161100Z 1612/1621 31011KT CAVOK=
201006160800 TAF LMML 160800Z 1609/1618 24007KT CAVOK
                      BECMG 1609/1612 32012KT
                      PROB30 TEMPO 1609/1618 9999 FEW020=
201006160500 TAF LMML 160500Z 1606/1615 15005KT CAVOK
                      BECMG 1609/1612 33010KT=
201006160200 TAF LMML 160200Z 1603/1612 VRB03KT CAVOK
                      BECMG 1609/1612 34010KT=
201006152300 TAF LMML 152300Z 1600/1609 08005KT CAVOK
                      BECMG 1606/1609 33010KT=
201006152000 TAF LMML 152000Z 1521/1606 08006KT CAVOK
                      PROB40 TEMPO 1521/1606 FEW020
                      PROB30 TEMPO 1521/1524 9000 TSRA BKN060CB=
201006151700 TAF LMML 151700Z 1518/1603 06006KT CAVOK
                      PROB30 TEMPO 1518/1520 6000 TSRA BKN020CB=
201006151400 TAF LMML 151400Z 1515/1524 16012KT CAVOK
                      PROB30 TEMPO 1515/1518 9000 RA BKN100 BKN200=
201006151100 TAF LMML 151100Z 1512/1521 13012KT CAVOK
                      PROB30 TEMPO 1512/1518 8000 RA BKN100 BKN200=
201006150800 TAF LMML 150800Z 1509/1518 10014KT CAVOK
                      PROB30 TEMPO 1509/1518 8000 RA BKN100 BKN200=
201006150500 TAF LMML 150500Z 1506/1515 09012KT CAVOK=
201006150200 TAF LMML 150200Z 1503/1512 12010KT CAVOK=
201006142300 TAF LMML 142300Z 1500/1509 12010KT CAVOK=
201006142000 TAF LMML 142000Z 1421/1506 12008KT CAVOK=
201006141700 TAF LMML 141700Z 1418/1503 13007KT CAVOK=
201006141400 TAF LMML 141400Z 1415/1424 VRB05KT CAVOK
                      BECMG 1415/1418 12010KT=
201006141100 TAF LMML 141100Z 1412/1421 VRB05KT CAVOK
                      BECMG 1412/1415 12010KT=
201006140800 TAF LMML 140800Z 1409/1418 33008KT CAVOK
                      BECMG 1412/1415 12010KT=
201006140500 TAF LMML 140500Z 1406/1415 34010KT CAVOK
                      PROB30 TEMPO 1406/1415 8000 RA FEW010 BKN100
                       BECMG 1409/1412 11008KT=
201006140200 TAF LMML 140200Z 1403/1412 29011KT CAVOK
                      PROB30 TEMPO 1403/1412 8000 RA SCT005 BKN100
                       BECMG 1407/1410 02008KT=
201006132300 TAF LMML 132300Z 1400/1409 VRB05KT CAVOK
                      TEMPO 1400/1406 9000 NSC
                      PROB30 TEMPO 1400/1409 8000 RA SCT005 BKN100=
201006132000 TAF LMML 132000Z 1321/1406 VRB05KT CAVOK
                      TEMPO 1321/1406 9000 NSC
                      PROB40 TEMPO 1321/1406 8000 RA FEW005 BKN100
                       PROB30
                      TEMPO 1321/1406 5000 TSRA BKN002 BKN080CB=
201006131700 TAF LMML 131700Z 1318/1403 VRB03KT CAVOK
                      PROB40 TEMPO 1321/1403 9000 NSC
                      PROB30 TEMPO 1324/1403 5000 BR=
201006131400 TAF LMML 131400Z 1315/1324 15006KT CAVOK
                      PROB30 TEMPO 1321/1324 9000 NSC=
201006131100 TAF LMML 131100Z 1312/1321 12007KT CAVOK=
201006130800 TAF LMML 130800Z 1309/1318 12008KT CAVOK=
201006130500 TAF LMML 130500Z 1306/1315 10006KT CAVOK=
201006130200 TAF LMML 130200Z 1303/1312 11005KT CAVOK
                      PROB30 TEMPO 1303/1306 7000 NSC=
201006122300 TAF LMML 122300Z 1300/1309 13005KT CAVOK
                      PROB30 TEMPO 1300/1306 8000 NSC=
201006122000 TAF LMML 122000Z 1221/1306 13008KT CAVOK
                      PROB30 TEMPO 1221/1306 7000 NSC=
201006121700 TAF LMML 121700Z 1218/1303 12008KT CAVOK
                      PROB30 TEMPO 1221/1303 9000 NSC=
201006121400 TAF LMML 121400Z 1215/1224 13014KT CAVOK
                      BECMG 1221/1224 10004KT=
201006121100 TAF LMML 121100Z 1212/1221 12013KT CAVOK=
201006120800 TAF LMML 120800Z 1209/1218 11012KT CAVOK=
201006120500 TAF LMML 120500Z 1206/1215 12012KT CAVOK=
201006120200 TAF LMML 120200Z 1203/1212 14010KT CAVOK=
201006112300 TAF LMML 112300Z 1200/1209 14010KT CAVOK=
201006112000 TAF LMML 112000Z 1121/1206 14007KT CAVOK=
201006111700 TAF LMML 111700Z 1118/1203 14010KT CAVOK
                      PROB30 TEMPO 1200/1203 8000 NSC=
201006111400 TAF LMML 111400Z 1115/1124 13012KT CAVOK=
201006111100 TAF LMML 111100Z 1112/1121 12015KT CAVOK=
201006110800 TAF LMML 110800Z 1109/1118 13014KT CAVOK=
201006110500 TAF LMML 110500Z 1106/1115 13012KT CAVOK=
201006110200 TAF LMML 110200Z 1103/1112 11012KT CAVOK
                      PROB30 TEMPO 1103/1106 8000 SCT005=
201006102300 TAF LMML 102300Z 1100/1109 11010KT CAVOK
                      PROB30 TEMPO 1100/1106 8000 SCT005=
201006102000 TAF LMML 102000Z 1021/1106 10010KT CAVOK
                      PROB30 TEMPO 1021/1106 7000 SCT003=
201006101700 TAF LMML 101700Z 1018/1103 11010KT CAVOK
                      PROB30 TEMPO 1102/1103 5000 BR=
201006101400 TAF LMML 101400Z 1015/1024 11015KT CAVOK=
201006101100 TAF LMML 101100Z 1012/1021 11013KT CAVOK=
201006100800 TAF LMML 100800Z 1009/1018 12013KT CAVOK=
201006100500 TAF LMML 100500Z 1006/1015 10013KT CAVOK
                      PROB30 TEMPO 1006/1015 9999 FEW015=
201006100200 TAF LMML 100200Z 1003/1012 10011KT CAVOK
                      TEMPO 1003/1009 9999 FEW010
                      PROB30 TEMPO 1003/1006 7000 BKN005=
201006092300 TAF LMML 092300Z 1000/1009 11010KT CAVOK
                      TEMPO 1000/1009 9999 FEW010
                      PROB30 TEMPO 1000/1006 7000 BKN005=
201006092000 TAF LMML 092000Z 0921/1006 10010KT CAVOK
                      TEMPO 0921/1006 9999 FEW010
                      PROB30 TEMPO 1000/1006 7000 BKN005=
201006091700 TAF LMML 091700Z 0918/1003 10010KT CAVOK
                      PROB40 TEMPO 0921/1003 6000 SCT003=
201006091400 TAF LMML 091400Z 0915/0924 09013KT CAVOK
                      PROB40 TEMPO 0921/0924 6000 FEW003=
201006091100 TAF LMML 091100Z 0912/0921 09015KT CAVOK
                      PROB30 TEMPO 0912/0921 9999 FEW020=
201006090800 TAF LMML 090800Z 0909/0918 09012KT CAVOK=
201006090500 TAF LMML 090500Z 0906/0915 09010KT CAVOK=
201006090200 TAF LMML 090200Z 0903/0912 09008KT CAVOK
                      TEMPO 0903/0906 8000 FEW004=
201006082300 TAF LMML 082300Z 0900/0909 10008KT CAVOK
                      PROB30 TEMPO 0900/0906 8000 FEW004=
201006082000 TAF LMML 082000Z 0821/0906 12010KT CAVOK
                      PROB30 TEMPO 0821/0906 8000 SCT005=
201006081700 TAF LMML 081700Z 0818/0903 12007KT CAVOK
                      TEMPO 0818/0903 9999 FEW012
                      PROB30 TEMPO 0821/0903 9000 SCT007=
201006081400 TAF LMML 081400Z 0815/0824 11008KT CAVOK
                      TEMPO 0815/0824 9999 FEW015
                      PROB30 TEMPO 0820/0824 9000 NSC=
201006081100 TAF LMML 081100Z 0812/0821 14007KT CAVOK
                      PROB30 TEMPO 0812/0821 9999 FEW025=
201006080800 TAF LMML 080800Z 0809/0818 15006KT 9999 FEW030
                      TEMPO 0809/0818 CAVOK=
201006080500 TAF LMML 080500Z 0806/0815 14008KT CAVOK
                      PROB30 TEMPO 0806/0815 9999 FEW035=
201006080200 TAF LMML 080200Z 0803/0812 15005KT CAVOK
                      PROB30 TEMPO 0803/0805 8000 FEW010=
201006072300 TAF LMML 072300Z 0800/0809 VRB03KT CAVOK
                      PROB30 TEMPO 0802/0805 8000 FEW010=
201006072000 TAF LMML 072000Z 0721/0806 21004KT CAVOK
                      PROB30 TEMPO 0802/0806 8000 FEW010=
201006071700 TAF LMML 071700Z 0718/0803 VRB04KT CAVOK
                      PROB30 TEMPO 0721/0803 8000 RA BKN080
                      PROB30 TEMPO 0800/0803 7000 SCT004=
201006071400 TAF LMML 071400Z 0715/0724 18005KT CAVOK
                      PROB30 TEMPO 0718/0724 8000 RA BKN100=
201006071100 TAF LMML 071100Z 0712/0721 19007KT CAVOK=
201006070800 TAF LMML 070800Z 0709/0718 28005KT CAVOK=
201006070500 TAF LMML 070500Z 0706/0715 24004KT 9999 FEW020
                      TEMPO 0706/0715 CAVOK=
201006070200 TAF LMML 070200Z 0703/0712 26004KT CAVOK
                      TEMPO 0703/0712 9999 FEW020=
201006062300 TAF LMML 062300Z 0700/0709 26004KT CAVOK
                      PROB30 TEMPO 0700/0709 9000 FEW015=
201006062000 TAF LMML 062000Z 0621/0706 26004KT CAVOK
                      PROB30 TEMPO 0621/0706 9000 FEW015=
201006061700 TAF LMML 061700Z 0618/0703 VRB03KT 9999 FEW020
                      PROB30 TEMPO 0618/0703 9000 FEW008=
201006061400 TAF LMML 061400Z 0615/0624 26004KT 9999 FEW025
                      PROB30 TEMPO 0620/0624 9000 FEW008=
201006061100 TAF LMML 061100Z 0612/0621 VRB06KT 9999 FEW030
                      PROB30 TEMPO 0615/0621 CAVOK=
201006060800 TAF LMML 060800Z 0609/0618 28007KT 9999 FEW009
                      PROB40 TEMPO 0612/0618 CAVOK=
201006060500 TAF LMML 060500Z 0606/0615 27007KT 9999 FEW010
                      BECMG 0606/0609 CAVOK
                      TEMPO 0609/0615 9999 FEW020=
201006060200 TAF LMML 060200Z 0603/0612 24006KT CAVOK
                      TEMPO 0603/0606 9000 NSC
                      PROB30 TEMPO 0603/0606 5000 BR SCT005
                      BECMG 0606/0609 9999 FEW015=
201006052300 TAF LMML 052300Z 0600/0609 23005KT CAVOK
                      TEMPO 0600/0609 9000 NSC
                      PROB30 TEMPO 0600/0606 5000 BR SCT005
                      BECMG 0606/0609 9999 FEW015=
201006052000 TAF LMML 052000Z 0521/0606 27004KT CAVOK
                      PROB30 TEMPO 0521/0606 9000 FEW012=
201006051700 TAF LMML 051700Z 0518/0603 29005KT CAVOK
                      PROB30 TEMPO 0518/0521 9999 FEW020=
201006051400 TAF LMML 051400Z 0515/0524 30005KT 9999 FEW020
                      TEMPO 0518/0524 CAVOK=
201006051100 TAF LMML 051100Z 0512/0521 33005KT 9999 FEW020=
201006050800 TAF LMML 050800Z 0509/0518 02007KT 9999 FEW020
                      TEMPO 0509/0518 CAVOK=
201006050500 TAF LMML 050500Z 0506/0515 02008KT 9999 SCT025=
201006050200 TAF LMML 050200Z 0503/0512 02005KT CAVOK
                      TEMPO 0503/0506 8000 SCT007
                      BECMG 0506/0509 9999 SCT020=
201006042300 TAF LMML 042300Z 0500/0509 35005KT CAVOK
                      TEMPO 0500/0506 8000 SCT007
                      BECMG 0506/0509 9999 SCT020=
201006042000 TAF LMML 042000Z 0421/0506 34006KT CAVOK
                      TEMPO 0421/0506 7000 SCT006=
201006041700 TAF LMML 041700Z 0418/0503 29014KT 9999 FEW015
                      PROB30 TEMPO 0420/0503 9000 BKN008
                      BECMG 0421/0424 35007KT=
201006041400 TAF LMML 041400Z 0415/0424 29014KT 9999 FEW020 SCT110
                      BECMG 0415/0418 CAVOK
                      BECMG 0420/0423 35010KT
                      PROB30 TEMPO 0421/0424 9999 FEW012=
201006041100 TAF LMML 041100Z 0412/0421 31013KT CAVOK
                      TEMPO 0412/0418 9999 FEW015=
201006040800 TAF LMML 040800Z 0409/0418 29010KT 9999 FEW015 BKN120
                      TEMPO 0409/0415 8000 RA
                      PROB30 TEMPO 0409/0412 5000 TSRA SCT015 BKN060CB=
201006040500 TAF LMML 040500Z 0406/0415 26008KT 9999 FEW020 SCT120
                      PROB30 TEMPO 0406/0410 RA FEW012 BKN080
                      PROB30 TEMPO 0406/0410 TS SCT060CB
                      BECMG 0412/0415 32010KT=
201006040200 TAF LMML 040200Z 0403/0412 28010KT 9999 FEW020 SCT120
                      PROB30 TEMPO 0403/0412 8000 RA FEW010 BKN080=
201006032300 TAF LMML 032300Z 0400/0409 28006KT CAVOK
                      PROB30 TEMPO 0400/0409 FEW008 SCT050 BKN120=
201006032000 TAF LMML 032000Z 0321/0406 28006KT CAVOK
                      PROB30 TEMPO 0321/0406 SCT008 SCT050 BKN120=
201006031700 TAF LMML 031700Z 0318/0403 27010KT 9999 FEW012 SCT140
                      PROB30 TEMPO 0322/0403 6000 BKN005=
201006031400 TAF LMML 031400Z 0315/0324 29012KT 9999 FEW020=
201006031100 TAF LMML 031100Z 0312/0321 30012KT 9999 SCT020=
201006030800 TAF LMML 030800Z 0309/0318 29012KT 9999 SCT015=
201006030500 TAF LMML 030500Z 0306/0315 29015KT 9999 FEW020=
201006030200 TAF LMML 030200Z 0303/0312 29015KT 9999 FEW015
                      TEMPO 0303/0306 CAVOK=
201006022300 TAF LMML 022300Z 0300/0309 29015KT 9999 FEW015
                      TEMPO 0300/0306 CAVOK=
201006022000 TAF LMML 022000Z 0221/0306 28015KT 9999 FEW015
                      TEMPO 0221/0306 CAVOK=
201006021700 TAF LMML 021700Z 0218/0303 28015KT 9999 FEW015
                      TEMPO 0218/0300 CAVOK=
201006021400 TAF LMML 021400Z 0215/0224 28018KT 9999 SCT018
                      TEMPO 0215/0218 28020G30KT
                      PROB30 TEMPO 0218/0224 BKN015=
201006021100 TAF LMML 021100Z 0212/0221 28015KT 9999 SCT020
                      TEMPO 0212/0218 29020G30KT
                      PROB30 TEMPO 0218/0221 BKN015=
201006020800 TAF LMML 020800Z 0209/0218 29015KT 9999 SCT025
                      TEMPO 0209/0218 29020G30KT=
201006020500 TAF LMML 020500Z 0206/0215 29014KT 9999 SCT018
                      TEMPO 0208/0215 28017G27KT=
201006020200 TAF LMML 020200Z 0203/0212 29011KT 9999 SCT015
                      TEMPO 0203/0207 BKN013
                      PROB30 TEMPO 0203/0206 9000 BKN010
                      BECMG 0205/0208 28015G25KT=
201006012300 TAF LMML 012300Z 0200/0209 30010KT CAVOK
                      BECMG 0200/0203 9999 FEW015
                      PROB30 TEMPO 0200/0206 9000 BKN010
                      TEMPO 0206/0209 29015G25KT=
201006012000 TAF LMML 012000Z 0121/0206 28008KT CAVOK
                      BECMG 0121/0124 9999 FEW015
                      PROB30 TEMPO 0121/0206 9000 BKN010=
201006011700 TAF LMML 011700Z 0118/0203 30016KT 9999 FEW018
                      PROB30 TEMPO 0122/0203 BKN010=
201006011400 TAF LMML 011400Z 0115/0124 30016KT 9999 FEW018
                      PROB30 TEMPO 0121/0124 BKN010=
201006011100 TAF LMML 011100Z 0112/0121 29017KT 9999 SCT017
                      PROB40 TEMPO 0117/0121 BKN008=
201006010800 TAF LMML 010800Z 0109/0118 29018KT 9999 SCT017
                      PROB30 TEMPO 0115/0118 BKN012=
201006010500 TAF LMML 010500Z 0106/0115 31017KT 9999 SCT015 SCT120
                      TEMPO 0106/0108 BKN015
                      TEMPO 0109/0115 31015G25KT=
201006010200 TAF LMML 010200Z 0103/0112 30018KT 9999 SCT015=

###################################
#  large TAF from LMML
###################################
201007012300 TAF LMML NIL=
201007011700 TAF LMML NIL=
201007011100 TAF LMML NIL=
201007010500 TAF LMML NIL=
201006302300 TAF LMML NIL=
201006301700 TAF LMML NIL=
201006301100 TAF LMML NIL=
201006300500 TAF LMML NIL=
201006292300 TAF LMML NIL=
201006291700 TAF LMML NIL=
201006291100 TAF LMML NIL=
201006290500 TAF LMML NIL=
201006282300 TAF LMML NIL=
201006281700 TAF LMML NIL=
201006281100 TAF LMML NIL=
201006280500 TAF LMML NIL=
201006272300 TAF LMML NIL=
201006271700 TAF LMML NIL=
201006271100 TAF LMML NIL=
201006270500 TAF LMML NIL=
201006262300 TAF LMML NIL=
201006261700 TAF LMML NIL=
201006261100 TAF LMML NIL=
201006260500 TAF LMML NIL=
201006252300 TAF LMML NIL=
201006251700 TAF LMML NIL=
201006251100 TAF LMML NIL=
201006250500 TAF LMML NIL=
201006242300 TAF LMML NIL=
201006241700 TAF LMML NIL=
201006241100 TAF LMML NIL=
201006240500 TAF LMML NIL=
201006232300 TAF LMML NIL=
201006231700 TAF LMML NIL=
201006231100 TAF LMML NIL=
201006230500 TAF LMML NIL=
201006222300 TAF LMML NIL=
201006221700 TAF LMML NIL=
201006221100 TAF LMML NIL=
201006220500 TAF LMML NIL=
201006212300 TAF LMML NIL=
201006211700 TAF LMML NIL=
201006211100 TAF LMML NIL=
201006210500 TAF LMML NIL=
201006202300 TAF LMML NIL=
201006201700 TAF LMML NIL=
201006201100 TAF LMML NIL=
201006200500 TAF LMML NIL=
201006192300 TAF LMML NIL=
201006191700 TAF LMML NIL=
201006191100 TAF LMML NIL=
201006190500 TAF LMML NIL=
201006182300 TAF LMML NIL=
201006181700 TAF LMML NIL=
201006181100 TAF LMML NIL=
201006180500 TAF LMML NIL=
201006172300 TAF LMML NIL=
201006171700 TAF LMML NIL=
201006171100 TAF LMML NIL=
201006170500 TAF LMML NIL=
201006162300 TAF LMML NIL=
201006161700 TAF LMML NIL=
201006161100 TAF LMML NIL=
201006160500 TAF LMML NIL=
201006152300 TAF LMML NIL=
201006151700 TAF LMML NIL=
201006151100 TAF LMML NIL=
201006150500 TAF LMML NIL=
201006142300 TAF LMML NIL=
201006141700 TAF LMML NIL=
201006141100 TAF LMML NIL=
201006140500 TAF LMML NIL=
201006132300 TAF LMML NIL=
201006131700 TAF LMML NIL=
201006131100 TAF LMML NIL=
201006130500 TAF LMML NIL=
201006122300 TAF LMML NIL=
201006121700 TAF LMML NIL=
201006121100 TAF LMML NIL=
201006120500 TAF LMML NIL=
201006112300 TAF LMML NIL=
201006111700 TAF LMML NIL=
201006111100 TAF LMML NIL=
201006110500 TAF LMML NIL=
201006102300 TAF LMML NIL=
201006101700 TAF LMML NIL=
201006101100 TAF LMML NIL=
201006100500 TAF LMML NIL=
201006092300 TAF LMML NIL=
201006091700 TAF LMML NIL=
201006091100 TAF LMML NIL=
201006090500 TAF LMML NIL=
201006082300 TAF LMML NIL=
201006081700 TAF LMML NIL=
201006081100 TAF LMML NIL=
201006080500 TAF LMML NIL=
201006072300 TAF LMML NIL=
201006071700 TAF LMML NIL=
201006071100 TAF LMML NIL=
201006070500 TAF LMML NIL=
201006062300 TAF LMML NIL=
201006061700 TAF LMML NIL=
201006061100 TAF LMML NIL=
201006060500 TAF LMML NIL=
201006052300 TAF LMML NIL=
201006051700 TAF LMML NIL=
201006051100 TAF LMML NIL=
201006050500 TAF LMML NIL=
201006042300 TAF LMML NIL=
201006041700 TAF LMML NIL=
201006041100 TAF LMML NIL=
201006040500 TAF LMML NIL=
201006032300 TAF LMML NIL=
201006031700 TAF LMML NIL=
201006031100 TAF LMML NIL=
201006030500 TAF LMML NIL=
201006022300 TAF LMML NIL=
201006021700 TAF LMML NIL=
201006021100 TAF LMML NIL=
201006020500 TAF LMML NIL=
201006012300 TAF LMML NIL=
201006011700 TAF LMML NIL=
201006011100 TAF LMML NIL=
201006010500 TAF LMML NIL=
