##########################################################
# Query made at 12/28/2012 16:26:09 UTC
# Time interval: from 06/01/2012 00:00  to 07/01/2012 23:59  UTC
##########################################################

##########################################################
# LMML, Luqa (Malta)
# WMO index: 16597
# Latitude 35-51N. Longitude 014-29E. Altitude 91 m.
##########################################################

###################################
#  METAR/SPECI from LMML
###################################
201207012345 METAR LMML 012345Z VRB02KT CAVOK 25/20 Q1015 NOSIG=
201207012315 METAR LMML 012315Z 31003KT CAVOK 25/20 Q1015 NOSIG=
201207012300 METAR LMML NIL=
201207012245 METAR LMML 012245Z 30004KT CAVOK 25/21 Q1015 NOSIG=
201207012230 METAR LMML NIL=
201207012215 METAR LMML 012215Z 30006KT CAVOK 25/21 Q1015 NOSIG=
201207012200 METAR LMML NIL=
201207012145 METAR LMML 012145Z 31005KT CAVOK 25/22 Q1015 NOSIG=
201207012130 METAR LMML NIL=
201207012115 METAR LMML 012115Z 30006KT 270V330 CAVOK 25/21 Q1015 NOSIG=
201207012100 METAR LMML NIL=
201207012045 METAR LMML 012045Z 28005KT CAVOK 25/22 Q1015 NOSIG=
201207012030 METAR LMML NIL=
201207012015 METAR LMML 012015Z 29004KT 260V320 CAVOK 26/22 Q1015 NOSIG=
201207012000 METAR LMML NIL=
201207011945 METAR LMML 011945Z 31004KT 290V360 CAVOK 26/22 Q1015 NOSIG=
201207011930 METAR LMML NIL=
201207011915 METAR LMML 011915Z 30003KT CAVOK 27/20 Q1014 NOSIG=
201207011900 METAR LMML NIL=
201207011845 METAR LMML 011845Z VRB02KT CAVOK 28/18 Q1014 NOSIG=
201207011830 METAR LMML NIL=
201207011815 METAR LMML 011815Z 07003KT CAVOK 29/19 Q1014 NOSIG=
201207011800 METAR LMML NIL=
201207011745 METAR LMML 011745Z 04003KT CAVOK 29/18 Q1014 NOSIG=
201207011730 METAR LMML NIL=
201207011715 METAR LMML 011715Z 03004KT CAVOK 31/19 Q1014 NOSIG=
201207011700 METAR LMML NIL=
201207011645 METAR LMML 011645Z 02004KT 330V060 CAVOK 31/19 Q1013 NOSIG=
201207011630 METAR LMML NIL=
201207011615 METAR LMML 011615Z 26004KT 160V030 CAVOK 31/19 Q1013 NOSIG=
201207011600 METAR LMML NIL=
201207011545 METAR LMML 011545Z 22004KT 140V280 CAVOK 31/19 Q1014 NOSIG=
201207011530 METAR LMML NIL=
201207011515 METAR LMML 011515Z 20004KT 140V270 CAVOK 32/19 Q1014 NOSIG=
201207011500 METAR LMML NIL=
201207011445 METAR LMML 011445Z 19005KT 060V270 CAVOK 32/18 Q1014 NOSIG=
201207011430 METAR LMML NIL=
201207011415 METAR LMML 011415Z 22006KT 150V020 CAVOK 33/18 Q1014 NOSIG=
201207011400 METAR LMML NIL=
201207011345 METAR LMML 011345Z 24003KT CAVOK 32/17 Q1015 NOSIG=
201207011330 METAR LMML NIL=
201207011315 METAR LMML 011315Z VRB02KT CAVOK 33/17 Q1015 NOSIG=
201207011300 METAR LMML NIL=
201207011245 METAR LMML 011245Z 18006KT 140V250 CAVOK 32/17 Q1015 NOSIG=
201207011230 METAR LMML NIL=
201207011215 METAR LMML 011215Z 18007KT 030V250 CAVOK 32/17 Q1015 NOSIG=
201207011200 METAR LMML NIL=
201207011145 METAR LMML 011145Z 13003KT CAVOK 33/18 Q1015 NOSIG=
201207011130 METAR LMML NIL=
201207011115 METAR LMML 011115Z 06004KT 350V140 CAVOK 34/14 Q1015 NOSIG=
201207011100 METAR LMML NIL=
201207011045 METAR LMML 011045Z 35006KT 310V120 CAVOK 33/14 Q1015 NOSIG=
201207011030 METAR LMML NIL=
201207011015 METAR LMML 011015Z 03006KT 330V120 CAVOK 33/12 Q1015 NOSIG=
201207011000 METAR LMML NIL=
201207010945 METAR LMML 010945Z 03006KT 320V080 CAVOK 33/13 Q1015 NOSIG=
201207010930 METAR LMML NIL=
201207010915 METAR LMML 010915Z 04005KT 340V070 CAVOK 33/13 Q1015 NOSIG=
201207010900 METAR LMML NIL=
201207010845 METAR LMML 010845Z 01004KT 310V090 CAVOK 33/13 Q1015 NOSIG=
201207010830 METAR LMML NIL=
201207010815 METAR LMML 010815Z 03005KT 340V080 CAVOK 33/13 Q1015 NOSIG=
201207010800 METAR LMML NIL=
201207010745 METAR LMML 010745Z 34004KT 290V050 CAVOK 31/13 Q1015 NOSIG=
201207010730 METAR LMML NIL=
201207010715 METAR LMML 010715Z 35005KT 310V030 CAVOK 31/14 Q1015 NOSIG=
201207010700 METAR LMML NIL=
201207010645 METAR LMML 010645Z 34004KT 290V010 CAVOK 29/14 Q1015 NOSIG=
201207010630 METAR LMML NIL=
201207010615 METAR LMML 010615Z 33003KT CAVOK 28/14 Q1015 NOSIG=
201207010600 METAR LMML NIL=
201207010545 METAR LMML 010545Z VRB02KT CAVOK 25/18 Q1015 NOSIG=
201207010530 METAR LMML NIL=
201207010515 METAR LMML 010515Z VRB02KT CAVOK 24/21 Q1015 NOSIG=
201207010500 METAR LMML NIL=
201207010445 METAR LMML 010445Z VRB02KT 9000 NSC 22/18 Q1015 BECMG CAVOK=
201207010430 METAR LMML NIL=
201207010415 METAR LMML 010415Z VRB01KT 9000 NSC 22/18 Q1015 NOSIG=
201207010400 METAR LMML NIL=
201207010345 METAR LMML 010345Z VRB01KT CAVOK 21/19 Q1015 NOSIG=
201207010330 METAR LMML NIL=
201207010315 METAR LMML 010315Z VRB01KT CAVOK 22/20 Q1015 NOSIG=
201207010300 METAR LMML NIL=
201207010245 METAR LMML 010245Z VRB02KT CAVOK 22/20 Q1014 NOSIG=
201207010230 METAR LMML NIL=
201207010215 METAR LMML 010215Z VRB02KT CAVOK 22/20 Q1014 NOSIG=
201207010200 METAR LMML NIL=
201207010145 METAR LMML 010145Z VRB01KT CAVOK 22/21 Q1014 NOSIG=
201207010130 METAR LMML NIL=
201207010115 METAR LMML 010115Z 00000KT CAVOK 23/21 Q1015 NOSIG=
201207010100 METAR LMML NIL=
201207010045 METAR LMML 010045Z VRB02KT CAVOK 24/22 Q1015 NOSIG=
201207010030 METAR LMML NIL=
201207010015 METAR LMML 010015Z VRB02KT CAVOK 24/22 Q1015 NOSIG=
201207010000 METAR LMML NIL=
201206302345 METAR LMML 302345Z VRB02KT CAVOK 24/22 Q1015 NOSIG=
201206302330 METAR LMML NIL=
201206302315 METAR LMML 302315Z 02003KT CAVOK 24/22 Q1015 NOSIG=
201206302300 METAR LMML NIL=
201206302245 METAR LMML 302245Z 02004KT CAVOK 24/22 Q1016 NOSIG=
201206302230 METAR LMML NIL=
201206302215 METAR LMML 302215Z 01004KT 330V050 CAVOK 24/23 Q1016 NOSIG=
201206302200 METAR LMML NIL=
201206302145 METAR LMML 302145Z 04004KT 360V150 CAVOK 25/22 Q1016 NOSIG=
201206302130 METAR LMML NIL=
201206302115 METAR LMML 302115Z 02004KT 350V050 CAVOK 25/22 Q1016 NOSIG=
201206302100 METAR LMML NIL=
201206302045 METAR LMML 302045Z 03005KT 360V060 CAVOK 25/22 Q1016 NOSIG=
201206302030 METAR LMML NIL=
201206302015 METAR LMML 302015Z 03005KT CAVOK 25/22 Q1016 NOSIG=
201206302000 METAR LMML NIL=
201206301945 METAR LMML 301945Z 03006KT CAVOK 25/22 Q1016 NOSIG=
201206301930 METAR LMML NIL=
201206301915 METAR LMML 301915Z 03006KT 350V060 CAVOK 26/22 Q1015 NOSIG=
201206301900 METAR LMML NIL=
201206301845 METAR LMML 301845Z 03005KT 360V080 CAVOK 26/22 Q1015 NOSIG=
201206301830 METAR LMML NIL=
201206301815 METAR LMML 301815Z 04005KT 360V090 CAVOK 27/21 Q1015 NOSIG=
201206301800 METAR LMML NIL=
201206301745 METAR LMML 301745Z 04006KT CAVOK 27/21 Q1015 NOSIG=
201206301730 METAR LMML NIL=
201206301715 METAR LMML 301715Z 04005KT 350V080 CAVOK 29/20 Q1015 NOSIG=
201206301700 METAR LMML NIL=
201206301645 METAR LMML 301645Z 01007KT 340V060 CAVOK 29/19 Q1015 NOSIG=
201206301630 METAR LMML NIL=
201206301615 METAR LMML 301615Z 01006KT 340V070 CAVOK 30/20 Q1015 NOSIG=
201206301600 METAR LMML NIL=
201206301545 METAR LMML 301545Z 03006KT 350V070 CAVOK 31/20 Q1015 NOSIG=
201206301530 METAR LMML NIL=
201206301515 METAR LMML 301515Z 02007KT 350V070 CAVOK 31/20 Q1015 NOSIG=
201206301500 METAR LMML NIL=
201206301445 METAR LMML 301445Z 04005KT 360V090 CAVOK 32/20 Q1015 NOSIG=
201206301430 METAR LMML NIL=
201206301415 METAR LMML 301415Z 04005KT 360V070 CAVOK 32/20 Q1015 NOSIG=
201206301400 METAR LMML NIL=
201206301345 METAR LMML 301345Z 03006KT 340V090 CAVOK 32/20 Q1016 NOSIG=
201206301330 METAR LMML NIL=
201206301315 METAR LMML 301315Z 05004KT 340V140 CAVOK 31/20 Q1016 NOSIG=
201206301300 METAR LMML NIL=
201206301245 METAR LMML 301245Z 04006KT 340V120 CAVOK 32/20 Q1016 NOSIG=
201206301230 METAR LMML NIL=
201206301215 METAR LMML 301215Z 03006KT 300V090 CAVOK 33/19 Q1016 NOSIG=
201206301200 METAR LMML NIL=
201206301145 METAR LMML 301145Z 22004KT CAVOK 32/19 Q1016 NOSIG=
201206301130 METAR LMML NIL=
201206301115 METAR LMML 301115Z 03005KT 340V080 CAVOK 32/19 Q1016 NOSIG=
201206301100 METAR LMML NIL=
201206301045 METAR LMML 301045Z 03006KT 290V080 CAVOK 32/19 Q1016 NOSIG=
201206301030 METAR LMML NIL=
201206301015 METAR LMML 301015Z 03006KT 340V080 CAVOK 32/18 Q1016 NOSIG=
201206301000 METAR LMML NIL=
201206300945 METAR LMML 300945Z 03007KT 350V060 CAVOK 32/17 Q1016 NOSIG=
201206300930 METAR LMML NIL=
201206300915 METAR LMML 300915Z 05005KT 340V120 CAVOK 32/16 Q1016 NOSIG=
201206300900 METAR LMML NIL=
201206300845 METAR LMML 300845Z 04003KT CAVOK 31/17 Q1016 NOSIG=
201206300830 METAR LMML NIL=
201206300815 METAR LMML 300815Z 04005KT 360V070 CAVOK 31/17 Q1016 NOSIG=
201206300800 METAR LMML NIL=
201206300745 METAR LMML 300745Z 36004KT CAVOK 30/17 Q1016 NOSIG=
201206300730 METAR LMML NIL=
201206300715 METAR LMML 300715Z 35005KT 300V050 CAVOK 29/15 Q1016 NOSIG=
201206300700 METAR LMML NIL=
201206300645 METAR LMML 300645Z 36005KT 310V030 CAVOK 29/15 Q1016 NOSIG=
201206300630 METAR LMML NIL=
201206300615 METAR LMML 300615Z 34005KT 310V040 CAVOK 27/18 Q1016 NOSIG=
201206300600 METAR LMML NIL=
201206300545 METAR LMML 300545Z 32005KT CAVOK 26/20 Q1015 NOSIG=
201206300530 METAR LMML NIL=
201206300515 METAR LMML 300515Z 31004KT CAVOK 25/21 Q1015 NOSIG=
201206300500 METAR LMML NIL=
201206300445 METAR LMML 300445Z 32004KT 9000 NSC 23/21 Q1015 NOSIG=
201206300430 METAR LMML NIL=
201206300415 METAR LMML 300415Z 33004KT 6000 NSC 23/21 Q1015 TEMPO 5000
                        BR=
201206300400 METAR LMML NIL=
201206300345 METAR LMML 300345Z 33004KT 6000 NSC 22/21 Q1015 TEMPO 5000
                        BR RMK MIST=
201206300330 METAR LMML NIL=
201206300315 METAR LMML 300315Z 32004KT 9999 FEW012 22/20 Q1015 TEMPO
                        7000=
201206300300 METAR LMML NIL=
201206300245 METAR LMML 300245Z 32004KT 9999 FEW012 23/20 Q1014 TEMPO
                        7000=
201206300230 METAR LMML NIL=
201206300215 METAR LMML 300215Z 32003KT CAVOK 23/18 Q1014 NOSIG=
201206300200 METAR LMML NIL=
201206300145 METAR LMML 300145Z 32003KT CAVOK 23/18 Q1014 NOSIG=
201206300130 METAR LMML NIL=
201206300115 METAR LMML 300115Z 33003KT CAVOK 24/18 Q1014 NOSIG=
201206300100 METAR LMML NIL=
201206300045 METAR LMML 300045Z 31003KT CAVOK 23/18 Q1015 NOSIG=
201206300030 METAR LMML NIL=
201206300015 METAR LMML 300015Z 31003KT CAVOK 24/18 Q1015 NOSIG=
201206300000 METAR LMML NIL=
201206292345 METAR LMML 292345Z 30003KT CAVOK 24/16 Q1015 NOSIG=
201206292330 METAR LMML NIL=
201206292315 METAR LMML 292315Z 29003KT CAVOK 24/17 Q1015 NOSIG=
201206292300 METAR LMML NIL=
201206292245 METAR LMML 292245Z 30003KT CAVOK 24/18 Q1015 NOSIG=
201206292230 METAR LMML NIL=
201206292215 METAR LMML 292215Z 28004KT CAVOK 25/18 Q1016 NOSIG=
201206292200 METAR LMML NIL=
201206292145 METAR LMML 292145Z 30003KT CAVOK 25/18 Q1016 NOSIG=
201206292130 METAR LMML NIL=
201206292115 METAR LMML 292115Z 30003KT CAVOK 25/18 Q1016 NOSIG=
201206292100 METAR LMML NIL=
201206292045 METAR LMML 292045Z 31004KT CAVOK 25/18 Q1016 NOSIG=
201206292030 METAR LMML NIL=
201206292015 METAR LMML 292015Z 30003KT CAVOK 26/18 Q1016 NOSIG=
201206292000 METAR LMML NIL=
201206291945 METAR LMML 291945Z 31005KT CAVOK 26/17 Q1016 NOSIG=
201206291930 METAR LMML NIL=
201206291915 METAR LMML 291915Z 29003KT CAVOK 27/15 Q1015 NOSIG=
201206291900 METAR LMML NIL=
201206291845 METAR LMML 291845Z 31003KT CAVOK 27/14 Q1015 NOSIG=
201206291830 METAR LMML NIL=
201206291815 METAR LMML 291815Z 30003KT CAVOK 28/13 Q1015 NOSIG=
201206291800 METAR LMML NIL=
201206291745 METAR LMML 291745Z 28005KT CAVOK 29/12 Q1015 NOSIG=
201206291730 METAR LMML NIL=
201206291715 METAR LMML 291715Z 28005KT 240V310 CAVOK 30/11 Q1015 NOSIG=
201206291700 METAR LMML NIL=
201206291645 METAR LMML 291645Z 29007KT CAVOK 31/09 Q1015 NOSIG=
201206291630 METAR LMML NIL=
201206291615 METAR LMML 291615Z 28007KT CAVOK 31/11 Q1015 NOSIG=
201206291600 METAR LMML NIL=
201206291545 METAR LMML 291545Z 28009KT 250V320 CAVOK 32/08 Q1015 NOSIG=
201206291530 METAR LMML NIL=
201206291515 METAR LMML 291515Z 18003KT CAVOK 32/18 Q1015 NOSIG=
201206291500 METAR LMML NIL=
201206291445 METAR LMML 291445Z 35005KT 280V060 CAVOK 32/19 Q1015 TEMPO
                        9999 FEW020=
201206291430 METAR LMML NIL=
201206291415 METAR LMML 291415Z 03007KT 360V070 CAVOK 32/20 Q1015 TEMPO
                        9999 FEW020=
201206291400 METAR LMML NIL=
201206291345 METAR LMML 291345Z 03007KT 360V080 CAVOK 32/21 Q1015 TEMPO
                        9999 FEW020=
201206291330 METAR LMML NIL=
201206291315 METAR LMML 291315Z 08007KT 040V120 CAVOK 31/21 Q1015 NOSIG=
201206291300 METAR LMML NIL=
201206291245 METAR LMML 291245Z 07006KT 020V140 CAVOK 32/22 Q1015 NOSIG=
201206291230 METAR LMML NIL=
201206291215 METAR LMML 291215Z 10006KT 030V140 CAVOK 31/21 Q1015 NOSIG=
201206291200 METAR LMML NIL=
201206291145 METAR LMML 291145Z 11008KT 080V150 CAVOK 30/21 Q1016 NOSIG=
201206291130 METAR LMML NIL=
201206291115 METAR LMML 291115Z 11007KT 070V150 CAVOK 31/21 Q1016 NOSIG=
201206291100 METAR LMML NIL=
201206291045 METAR LMML 291045Z VRB01KT CAVOK 33/19 Q1016 NOSIG=
201206291030 METAR LMML NIL=
201206291015 METAR LMML 291015Z 07005KT CAVOK 32/14 Q1016 NOSIG=
201206291000 METAR LMML NIL=
201206290945 METAR LMML 290945Z 14005KT CAVOK 32/12 Q1016 NOSIG=
201206290930 METAR LMML NIL=
201206290915 METAR LMML 290915Z 32007KT 270V360 CAVOK 32/11 Q1016 NOSIG=
201206290900 METAR LMML NIL=
201206290845 METAR LMML 290845Z 29004KT 180V350 CAVOK 32/10 Q1016 NOSIG=
201206290830 METAR LMML NIL=
201206290815 METAR LMML 290815Z 28004KT 220V350 CAVOK 31/09 Q1016 NOSIG=
201206290800 METAR LMML NIL=
201206290745 METAR LMML 290745Z 28006KT 250V310 CAVOK 30/07 Q1016 NOSIG=
201206290730 METAR LMML NIL=
201206290715 METAR LMML 290715Z 28004KT 170V340 CAVOK 30/08 Q1016 NOSIG=
201206290700 METAR LMML NIL=
201206290645 METAR LMML 290645Z 28003KT CAVOK 28/17 Q1016 NOSIG=
201206290630 METAR LMML NIL=
201206290615 METAR LMML 290615Z VRB02KT CAVOK 27/20 Q1016 NOSIG=
201206290600 METAR LMML NIL=
201206290545 METAR LMML 290545Z 20003KT CAVOK 25/22 Q1015 NOSIG=
201206290530 METAR LMML NIL=
201206290515 METAR LMML 290515Z VRB01KT CAVOK 24/22 Q1015 NOSIG=
201206290500 METAR LMML NIL=
201206290445 METAR LMML 290445Z VRB02KT CAVOK 23/21 Q1015 NOSIG RMK SMOKE
                        LAYER TO NW=
201206290430 METAR LMML NIL=
201206290415 METAR LMML 290415Z VRB01KT 9999 FEW012 22/21 Q1015 NOSIG=
201206290400 METAR LMML NIL=
201206290345 METAR LMML 290345Z VRB01KT 9999 FEW012 22/21 Q1015 NOSIG=
201206290330 METAR LMML NIL=
201206290315 METAR LMML 290315Z VRB02KT 9999 FEW012 22/20 Q1015 NOSIG=
201206290300 METAR LMML NIL=
201206290245 METAR LMML 290245Z VRB02KT CAVOK 22/20 Q1015 NOSIG=
201206290230 METAR LMML NIL=
201206290215 METAR LMML 290215Z 29003KT CAVOK 22/20 Q1015 NOSIG=
201206290200 METAR LMML NIL=
201206290145 METAR LMML 290145Z 30003KT CAVOK 23/20 Q1015 NOSIG=
201206290130 METAR LMML NIL=
201206290115 METAR LMML 290115Z VRB02KT CAVOK 23/20 Q1015 NOSIG=
201206290100 METAR LMML NIL=
201206290045 METAR LMML 290045Z VRB01KT 9999 FEW012 22/20 Q1015 NOSIG=
201206290030 METAR LMML NIL=
201206290015 METAR LMML 290015Z VRB02KT 9999 FEW012 23/20 Q1015 NOSIG=
201206290000 METAR LMML NIL=
201206282345 METAR LMML 282345Z VRB02KT 9999 FEW012 23/20 Q1015 NOSIG=
201206282330 METAR LMML NIL=
201206282315 METAR LMML 282315Z VRB02KT 9999 FEW012 24/20 Q1015 NOSIG=
201206282300 METAR LMML NIL=
201206282245 METAR LMML 282245Z VRB01KT CAVOK 24/20 Q1016 NOSIG=
201206282230 METAR LMML NIL=
201206282215 METAR LMML 282215Z VRB02KT CAVOK 25/21 Q1016 NOSIG=
201206282200 METAR LMML NIL=
201206282145 METAR LMML 282145Z 09004KT CAVOK 24/20 Q1016 NOSIG=
201206282130 METAR LMML NIL=
201206282115 METAR LMML 282115Z VRB02KT CAVOK 25/20 Q1016 NOSIG=
201206282100 METAR LMML NIL=
201206282045 METAR LMML 282045Z VRB01KT CAVOK 25/20 Q1016 NOSIG RMK SMOKE
                        TO WEST=
201206282030 METAR LMML NIL=
201206282015 METAR LMML 282015Z VRB01KT CAVOK 25/20 Q1016 NOSIG=
201206282000 METAR LMML NIL=
201206281945 METAR LMML 281945Z VRB01KT CAVOK 25/20 Q1016 NOSIG=
201206281930 METAR LMML NIL=
201206281915 METAR LMML 281915Z VRB01KT CAVOK 26/21 Q1016 NOSIG=
201206281900 METAR LMML NIL=
201206281845 METAR LMML 281845Z 20003KT CAVOK 26/20 Q1015 NOSIG=
201206281830 METAR LMML NIL=
201206281815 METAR LMML 281815Z 19005KT 160V230 CAVOK 26/20 Q1015 NOSIG=
201206281800 METAR LMML NIL=
201206281745 METAR LMML 281745Z 21004KT 150V250 CAVOK 28/18 Q1015 NOSIG=
201206281730 METAR LMML NIL=
201206281715 METAR LMML 281715Z 20004KT 140V270 CAVOK 28/17 Q1015 NOSIG=
201206281700 METAR LMML NIL=
201206281645 METAR LMML 281645Z 20005KT 150V240 CAVOK 30/13 Q1015 NOSIG=
201206281630 METAR LMML NIL=
201206281615 METAR LMML 281615Z 22005KT 150V260 CAVOK 30/12 Q1015 NOSIG=
201206281600 METAR LMML NIL=
201206281545 METAR LMML 281545Z 22005KT 120V270 CAVOK 31/13 Q1015 NOSIG=
201206281530 METAR LMML NIL=
201206281515 METAR LMML 281515Z 19007KT 150V240 9999 FEW030 30/13 Q1015
                        NOSIG=
201206281500 METAR LMML NIL=
201206281445 METAR LMML 281445Z 20007KT 140V230 9999 FEW030 31/14 Q1015
                        NOSIG=
201206281430 METAR LMML NIL=
201206281415 METAR LMML 281415Z 19006KT 140V250 9999 FEW030 31/14 Q1016
                        NOSIG=
201206281400 METAR LMML NIL=
201206281345 METAR LMML 281345Z 18007KT 140V250 9999 FEW030 31/18 Q1016
                        NOSIG=
201206281330 METAR LMML NIL=
201206281315 METAR LMML 281315Z 20005KT 130V270 9999 FEW030 31/17 Q1016
                        NOSIG=
201206281300 METAR LMML NIL=
201206281245 METAR LMML 281245Z 20006KT 110V290 9999 FEW030 31/16 Q1016
                        NOSIG=
201206281230 METAR LMML NIL=
201206281215 METAR LMML 281215Z 20005KT 130V280 9999 FEW030 31/16 Q1016
                        NOSIG=
201206281200 METAR LMML NIL=
201206281145 METAR LMML 281145Z 19006KT 140V240 9999 FEW030 31/15 Q1016
                        NOSIG=
201206281130 METAR LMML NIL=
201206281115 METAR LMML 281115Z 19007KT 150V250 CAVOK 31/16 Q1016 NOSIG=
201206281100 METAR LMML NIL=
201206281045 METAR LMML 281045Z 19006KT 140V260 9999 FEW030 31/16 Q1016
                        NOSIG=
201206281030 METAR LMML NIL=
201206281015 METAR LMML 281015Z 19006KT 130V260 CAVOK 32/13 Q1016 NOSIG=
201206280945 METAR LMML 280945Z 16004KT 130V240 CAVOK 31/10 Q1016 NOSIG=
201206280930 METAR LMML NIL=
201206280915 METAR LMML 280915Z 13005KT 090V200 CAVOK 30/13 Q1016 NOSIG=
201206280900 METAR LMML NIL=
201206280845 METAR LMML 280845Z 14004KT 070V180 CAVOK 30/12 Q1016 NOSIG=
201206280830 METAR LMML NIL=
201206280815 METAR LMML 280815Z 11004KT 050V190 CAVOK 30/15 Q1016 NOSIG=
201206280800 METAR LMML NIL=
201206280745 METAR LMML 280745Z 11003KT CAVOK 31/17 Q1016 NOSIG=
201206280730 METAR LMML NIL=
201206280715 METAR LMML 280715Z VRB02KT CAVOK 29/17 Q1016 NOSIG=
201206280700 METAR LMML NIL=
201206280645 METAR LMML 280645Z VRB02KT CAVOK 28/18 Q1016 NOSIG=
201206280630 METAR LMML NIL=
201206280615 METAR LMML 280615Z VRB01KT 7000 NSC 26/21 Q1016 BECMG CAVOK
                        RMK HAZE=
201206280600 METAR LMML NIL=
201206280545 METAR LMML 280545Z VRB01KT 4500 BR NSC 25/23 Q1016 BECMG
                        9999 NSW=
201206280530 METAR LMML NIL=
201206280515 METAR LMML 280515Z VRB01KT 4000 BR FEW007 23/23 Q1016 BECMG
                        9999=
201206280500 METAR LMML NIL=
201206280445 METAR LMML 280445Z VRB02KT 4000 BR FEW007 22/22 Q1016 BECMG
                        9999=
201206280415 METAR LMML 280415Z VRB02KT 4000 BR FEW007 21/21 Q1015 BECMG
                        9999=
201206280400 METAR LMML NIL=
201206280345 METAR LMML 280345Z VRB02KT 4000 BR FEW007 21/21 Q1015 BECMG
                        9999=
201206280315 METAR LMML 280315Z VRB02KT 6000 FEW007 22/22 Q1015 NOSIG=
201206280300 METAR LMML NIL=
201206280245 METAR LMML 280245Z VRB01KT 6000 FEW007 22/22 Q1015 NOSIG=
201206280230 METAR LMML NIL=
201206280215 METAR LMML 280215Z VRB01KT 6000 FEW007 22/22 Q1015 NOSIG=
201206280200 METAR LMML NIL=
201206280145 METAR LMML 280145Z VRB02KT 6000 FEW007 22/22 Q1015 NOSIG=
201206280115 METAR LMML 280115Z 29003KT 6000 FEW007 22/22 Q1015 NOSIG=
201206280100 METAR LMML NIL=
201206280045 METAR LMML 280045Z 30003KT 9999 FEW008 23/22 Q1015 NOSIG=
201206280030 METAR LMML NIL=
201206280015 METAR LMML 280015Z 31003KT 9999 FEW008 23/21 Q1016 NOSIG=
201206280000 METAR LMML NIL=
201206272345 METAR LMML 272345Z VRB02KT 9999 FEW008 23/21 Q1016 NOSIG=
201206272330 METAR LMML NIL=
201206272315 METAR LMML 272315Z VRB01KT 9999 FEW008 23/21 Q1016 NOSIG=
201206272245 METAR LMML 272245Z 01003KT 9999 FEW008 24/22 Q1016 NOSIG=
201206272230 METAR LMML NIL=
201206272215 METAR LMML 272215Z VRB02KT 9999 FEW008 24/22 Q1016 NOSIG=
201206272200 METAR LMML NIL=
201206272145 METAR LMML 272145Z 01003KT 9999 FEW008 24/22 Q1016 NOSIG=
201206272115 METAR LMML 272115Z 36003KT 9999 FEW008 24/22 Q1016 NOSIG=
201206272100 METAR LMML NIL=
201206272030 METAR LMML NIL=
201206272015 METAR LMML 272015Z 07003KT CAVOK 25/21 Q1016 NOSIG=
201206271945 METAR LMML 271945Z 06003KT CAVOK 25/21 Q1016 NOSIG=
201206271930 METAR LMML NIL=
201206271915 METAR LMML 271915Z 08004KT CAVOK 25/22 Q1016 NOSIG=
201206271900 METAR LMML NIL=
201206271845 METAR LMML 271845Z 07004KT CAVOK 25/22 Q1016 NOSIG=
201206271830 METAR LMML NIL=
201206271815 METAR LMML 271815Z 07006KT 040V110 CAVOK 26/22 Q1016 NOSIG=
201206271800 METAR LMML NIL=
201206271745 METAR LMML 271745Z 08006KT 040V120 CAVOK 27/22 Q1016 NOSIG=
201206271730 METAR LMML NIL=
201206271715 METAR LMML 271715Z 10005KT 9999 FEW013 27/20 Q1016 NOSIG=
201206271700 METAR LMML NIL=
201206271645 METAR LMML 271645Z 10006KT 070V130 9999 FEW013 28/20 Q1016
                        NOSIG=
201206271630 METAR LMML NIL=
201206271615 METAR LMML 271615Z 09007KT 060V120 9999 FEW013 28/21 Q1016
                        NOSIG=
201206271600 METAR LMML NIL=
201206271545 METAR LMML 271545Z 08007KT 040V120 9999 FEW017 28/22 Q1016
                        NOSIG=
201206271530 METAR LMML NIL=
201206271515 METAR LMML 271515Z 11007KT 070V150 9999 SCT017 28/22 Q1016
                        NOSIG=
201206271500 METAR LMML NIL=
201206271445 METAR LMML 271445Z 08009KT 040V100 9999 FEW018 29/21 Q1016
                        NOSIG=
201206271430 METAR LMML NIL=
201206271415 METAR LMML 271415Z 09008KT 060V120 9999 FEW018 30/21 Q1016
                        NOSIG=
201206271400 METAR LMML NIL=
201206271345 METAR LMML 271345Z 06008KT 020V110 9999 FEW017 30/22 Q1016
                        NOSIG=
201206271330 METAR LMML NIL=
201206271315 METAR LMML 271315Z 06009KT 020V090 9999 SCT018 31/23 Q1016
                        NOSIG=
201206271300 METAR LMML NIL=
201206271245 METAR LMML 271245Z 08010KT 050V120 9999 FEW018 30/22 Q1016
                        NOSIG=
201206271230 METAR LMML NIL=
201206271215 METAR LMML 271215Z 09010KT 020V130 9999 SCT018 29/21 Q1016
                        NOSIG=
201206271200 METAR LMML NIL=
201206271145 METAR LMML 271145Z 06010KT 020V100 9999 FEW019 29/21 Q1016
                        NOSIG=
201206271130 METAR LMML NIL=
201206271115 METAR LMML 271115Z 07011KT 040V110 9999 FEW019 29/22 Q1016
                        NOSIG=
201206271100 METAR LMML NIL=
201206271045 METAR LMML 271045Z 06010KT 020V110 9999 FEW020 29/21 Q1017
                        NOSIG=
201206271030 METAR LMML NIL=
201206271015 METAR LMML 271015Z 06010KT 010V100 9999 FEW020 29/20 Q1016
                        NOSIG=
201206271000 METAR LMML NIL=
201206270945 METAR LMML 270945Z 04009KT 340V100 CAVOK 29/20 Q1016 NOSIG=
201206270930 METAR LMML NIL=
201206270915 METAR LMML 270915Z 02010KT 360V060 CAVOK 29/20 Q1016 NOSIG=
201206270900 METAR LMML NIL=
201206270845 METAR LMML 270845Z 03010KT 320V060 CAVOK 29/21 Q1016 NOSIG=
201206270830 METAR LMML NIL=
201206270815 METAR LMML 270815Z 03011KT 360V070 CAVOK 28/20 Q1016 NOSIG=
201206270800 METAR LMML NIL=
201206270745 METAR LMML 270745Z 04011KT 340V070 CAVOK 28/19 Q1016 NOSIG=
201206270730 METAR LMML NIL=
201206270715 METAR LMML 270715Z 05008KT 360V090 CAVOK 28/20 Q1015 NOSIG=
201206270700 METAR LMML NIL=
201206270645 METAR LMML 270645Z 06007KT 010V100 CAVOK 27/21 Q1015 NOSIG=
201206270630 METAR LMML NIL=
201206270615 METAR LMML 270615Z 04006KT 010V070 CAVOK 26/21 Q1015 NOSIG=
201206270600 METAR LMML NIL=
201206270545 METAR LMML 270545Z 02004KT 210V060 CAVOK 25/21 Q1015 NOSIG=
201206270530 METAR LMML NIL=
201206270515 METAR LMML 270515Z VRB02KT CAVOK 23/22 Q1015 NOSIG=
201206270500 METAR LMML NIL=
201206270445 METAR LMML 270445Z 33003KT CAVOK 22/21 Q1015 NOSIG=
201206270430 METAR LMML NIL=
201206270415 METAR LMML 270415Z VRB02KT 9000 NSC 21/21 Q1014 BECMG CAVOK=
201206270400 METAR LMML NIL=
201206270345 METAR LMML 270345Z VRB02KT 9000 FEW009 22/21 Q1014 NOSIG=
201206270330 METAR LMML NIL=
201206270315 METAR LMML 270315Z VRB02KT 9000 FEW009 22/21 Q1014 NOSIG=
201206270300 METAR LMML NIL=
201206270245 METAR LMML 270245Z VRB02KT 9000 FEW009 22/21 Q1014 NOSIG=
201206270230 METAR LMML NIL=
201206270215 METAR LMML 270215Z VRB01KT CAVOK 22/21 Q1014 NOSIG=
201206270200 METAR LMML NIL=
201206270145 METAR LMML 270145Z VRB01KT CAVOK 22/21 Q1014 NOSIG=
201206270130 METAR LMML NIL=
201206270115 METAR LMML 270115Z VRB01KT CAVOK 22/21 Q1014 NOSIG=
201206270100 METAR LMML NIL=
201206270045 METAR LMML 270045Z 25004KT 220V290 CAVOK 23/21 Q1014 NOSIG=
201206270030 METAR LMML NIL=
201206270015 METAR LMML 270015Z 24004KT 210V280 CAVOK 22/21 Q1014 NOSIG=
201206270000 METAR LMML NIL=
201206262345 METAR LMML 262345Z 26004KT 230V300 CAVOK 23/21 Q1014 NOSIG=
201206262330 METAR LMML NIL=
201206262315 METAR LMML 262315Z 25004KT 220V280 CAVOK 23/21 Q1015 NOSIG=
201206262300 METAR LMML NIL=
201206262245 METAR LMML 262245Z 26004KT 220V290 CAVOK 23/21 Q1015 NOSIG=
201206262230 METAR LMML NIL=
201206262215 METAR LMML 262215Z 27003KT 9999 FEW012 23/20 Q1015 NOSIG=
201206262145 METAR LMML 262145Z 27003KT 9999 FEW012 23/21 Q1015 NOSIG=
201206262130 METAR LMML NIL=
201206262115 METAR LMML 262115Z 27004KT 9999 FEW012 23/21 Q1015 NOSIG=
201206262100 METAR LMML NIL=
201206262045 METAR LMML 262045Z 28005KT 9999 FEW012 23/21 Q1015 NOSIG=
201206262030 METAR LMML NIL=
201206262015 METAR LMML 262015Z 28004KT 240V300 9999 FEW012 23/21 Q1015
                        NOSIG=
201206262000 METAR LMML NIL=
201206261945 METAR LMML 261945Z 29007KT 250V320 9999 FEW012 23/21 Q1015
                        NOSIG=
201206261930 METAR LMML NIL=
201206261915 METAR LMML 261915Z 29008KT 9999 FEW012 23/21 Q1015 NOSIG=
201206261900 METAR LMML NIL=
201206261845 METAR LMML 261845Z 30010KT 9999 FEW012 24/21 Q1014 NOSIG=
201206261830 METAR LMML NIL=
201206261815 METAR LMML 261815Z 31010KT 9999 FEW012 24/21 Q1015 NOSIG=
201206261800 METAR LMML NIL=
201206261745 METAR LMML 261745Z 30010KT 9999 FEW012 25/20 Q1014 NOSIG=
201206261730 METAR LMML NIL=
201206261715 METAR LMML 261715Z 29010KT 9999 FEW012 26/20 Q1014 NOSIG=
201206261700 METAR LMML NIL=
201206261645 METAR LMML 261645Z 28011KT 240V300 9999 FEW012 27/20 Q1014
                        NOSIG=
201206261630 METAR LMML NIL=
201206261615 METAR LMML 261615Z 29011KT 260V330 9999 FEW012 28/20 Q1014
                        NOSIG=
201206261600 METAR LMML NIL=
201206261545 METAR LMML 261545Z 31012KT 9999 FEW012 28/20 Q1014 NOSIG=
201206261530 METAR LMML NIL=
201206261515 METAR LMML 261515Z 28012KT 9999 FEW012 28/21 Q1014 NOSIG=
201206261500 METAR LMML NIL=
201206261445 METAR LMML 261445Z 29013KT 260V320 9999 FEW012 28/22 Q1014
                        NOSIG=
201206261430 METAR LMML NIL=
201206261415 METAR LMML 261415Z 30013KT 9999 FEW012 29/19 Q1015 NOSIG=
201206261400 METAR LMML NIL=
201206261345 METAR LMML 261345Z 30014KT 270V330 9999 FEW012 29/19 Q1015
                        NOSIG=
201206261330 METAR LMML NIL=
201206261315 METAR LMML 261315Z 30013KT 260V320 9999 FEW012 30/18 Q1015
                        NOSIG=
201206261300 METAR LMML NIL=
201206261230 METAR LMML NIL=
201206261215 METAR LMML 261215Z 30013KT 260V330 9999 FEW010 29/20 Q1015
                        NOSIG=
201206261200 METAR LMML NIL=
201206261145 METAR LMML 261145Z 29010KT 260V340 9999 FEW010 28/20 Q1015
                        NOSIG=
201206261130 METAR LMML NIL=
201206261115 METAR LMML 261115Z 28011KT 250V320 9999 FEW010 28/20 Q1015
                        NOSIG=
201206261100 METAR LMML NIL=
201206261045 METAR LMML 261045Z 29010KT 240V320 9999 FEW010 28/20 Q1015
                        NOSIG=
201206261030 METAR LMML NIL=
201206261015 METAR LMML 261015Z 29010KT 260V320 9999 FEW010 28/20 Q1015
                        NOSIG=
201206261000 METAR LMML NIL=
201206260945 METAR LMML 260945Z 30012KT 9999 FEW010 28/20 Q1015 NOSIG=
201206260930 METAR LMML NIL=
201206260915 METAR LMML 260915Z 29010KT 210V320 9999 FEW010 28/21 Q1015
                        NOSIG=
201206260845 METAR LMML 260845Z 30011KT 260V320 9999 FEW010 29/21 Q1014
                        NOSIG=
201206260815 METAR LMML 260815Z 28009KT 220V310 9999 FEW010 28/20 Q1014
                        NOSIG=
201206260800 METAR LMML NIL=
201206260745 METAR LMML 260745Z 29007KT 240V330 9999 FEW010 28/21 Q1015
                        NOSIG=
201206260715 METAR LMML 260715Z 28007KT 250V320 9999 FEW010 27/20 Q1015
                        NOSIG=
201206260700 METAR LMML NIL=
201206260645 METAR LMML 260645Z 29008KT 250V330 9999 FEW010 26/20 Q1015
                        NOSIG=
201206260630 METAR LMML NIL=
201206260615 METAR LMML 260615Z 29008KT 9999 FEW010 25/20 Q1015 NOSIG=
201206260600 METAR LMML NIL=
201206260545 METAR LMML 260545Z 29007KT 9999 FEW010 24/21 Q1014 NOSIG=
201206260515 METAR LMML 260515Z 30008KT 9999 FEW010 23/21 Q1014 NOSIG=
201206260500 METAR LMML NIL=
201206260445 METAR LMML 260445Z 30008KT 9000 FEW011 23/21 Q1014 BECMG
                        9999=
201206260430 METAR LMML NIL=
201206260415 METAR LMML 260415Z 30009KT 9000 FEW011 22/21 Q1014 BECMG
                        9999=
201206260400 METAR LMML NIL=
201206260345 METAR LMML 260345Z 30008KT 9000 FEW011 22/21 Q1014 NOSIG=
201206260330 METAR LMML NIL=
201206260315 METAR LMML 260315Z 30007KT 9999 FEW011 22/21 Q1014 NOSIG=
201206260245 METAR LMML 260245Z 29010KT 9999 FEW011 22/21 Q1014 NOSIG=
201206260230 METAR LMML NIL=
201206260215 METAR LMML 260215Z 28010KT 9999 SCT011 22/21 Q1014 NOSIG=
201206260145 METAR LMML 260145Z 29010KT 9999 SCT011 23/21 Q1014 NOSIG=
201206260130 METAR LMML NIL=
201206260115 METAR LMML 260115Z 29007KT CAVOK 23/21 Q1014 NOSIG=
201206260100 METAR LMML NIL=
201206260045 METAR LMML 260045Z 27006KT 210V300 CAVOK 23/21 Q1014 NOSIG=
201206260030 METAR LMML NIL=
201206260015 METAR LMML 260015Z 28006KT 240V310 CAVOK 23/21 Q1014 NOSIG=
201206260000 METAR LMML NIL=
201206252345 METAR LMML 252345Z 24003KT CAVOK 23/19 Q1014 NOSIG=
201206252315 METAR LMML 252315Z 26003KT CAVOK 23/19 Q1014 NOSIG=
201206252300 METAR LMML NIL=
201206252245 METAR LMML 252245Z 25004KT 220V300 CAVOK 24/19 Q1014 NOSIG=
201206252215 METAR LMML 252215Z 26006KT CAVOK 24/20 Q1014 NOSIG=
201206252200 METAR LMML NIL=
201206252145 METAR LMML 252145Z 25005KT 210V300 CAVOK 24/21 Q1015 NOSIG=
201206252130 METAR LMML NIL=
201206252115 METAR LMML 252115Z 24007KT 210V280 CAVOK 24/21 Q1015 NOSIG=
201206252100 METAR LMML NIL=
201206252045 METAR LMML 252045Z 23006KT 190V260 CAVOK 24/20 Q1015 NOSIG=
201206252030 METAR LMML NIL=
201206252015 METAR LMML 252015Z 23005KT CAVOK 24/20 Q1014 NOSIG RMK SMOKE
                        LAYER TO SSW=
201206252000 METAR LMML NIL=
201206251945 METAR LMML 251945Z 25004KT CAVOK 25/17 Q1014 NOSIG=
201206251930 METAR LMML NIL=
201206251915 METAR LMML 251915Z 27004KT CAVOK 26/15 Q1014 NOSIG=
201206251900 METAR LMML NIL=
201206251845 METAR LMML 251845Z 29006KT CAVOK 26/14 Q1014 NOSIG=
201206251830 METAR LMML NIL=
201206251815 METAR LMML 251815Z 29007KT 260V320 CAVOK 27/15 Q1014 NOSIG=
201206251800 METAR LMML NIL=
201206251745 METAR LMML 251745Z 29007KT CAVOK 28/14 Q1014 NOSIG RMK SMOKE
                        TO NORTH=
201206251730 METAR LMML NIL=
201206251715 METAR LMML 251715Z 29008KT CAVOK 29/12 Q1014 NOSIG=
201206251700 METAR LMML NIL=
201206251645 METAR LMML 251645Z 02005KT 330V070 CAVOK 31/15 Q1014 NOSIG=
201206251630 METAR LMML NIL=
201206251615 METAR LMML 251615Z 33007KT 280V030 CAVOK 33/18 Q1014 NOSIG=
201206251600 METAR LMML NIL=
201206251545 METAR LMML 251545Z 02003KT CAVOK 33/13 Q1013 NOSIG=
201206251530 METAR LMML NIL=
201206251515 METAR LMML 251515Z 03003KT CAVOK 33/16 Q1014 NOSIG=
201206251500 METAR LMML NIL=
201206251445 METAR LMML 251445Z 06006KT 010V100 CAVOK 32/17 Q1014 NOSIG=
201206251430 METAR LMML NIL=
201206251415 METAR LMML 251415Z 03008KT 350V060 CAVOK 33/18 Q1014 NOSIG=
201206251400 METAR LMML NIL=
201206251345 METAR LMML 251345Z 03007KT 350V070 CAVOK 33/19 Q1014 NOSIG=
201206251330 METAR LMML NIL=
201206251315 METAR LMML 251315Z 02006KT 340V100 CAVOK 33/18 Q1014 NOSIG=
201206251300 METAR LMML NIL=
201206251245 METAR LMML 251245Z 03005KT 330V130 CAVOK 33/17 Q1014 NOSIG=
201206251230 METAR LMML NIL=
201206251215 METAR LMML 251215Z 02006KT 340V080 CAVOK 33/18 Q1015 NOSIG=
201206251200 METAR LMML NIL=
201206251145 METAR LMML 251145Z 01005KT 320V080 CAVOK 33/19 Q1015 NOSIG=
201206251130 METAR LMML NIL=
201206251115 METAR LMML 251115Z 23006KT 190V300 CAVOK 31/20 Q1015 NOSIG=
201206251100 METAR LMML NIL=
201206251045 METAR LMML 251045Z 19006KT 130V270 CAVOK 31/20 Q1015 NOSIG=
201206251030 METAR LMML NIL=
201206251015 METAR LMML 251015Z 16004KT 9999 FEW001 33/18 Q1015 NOSIG=
201206251000 METAR LMML NIL=
201206250945 METAR LMML 250945Z VRB02KT CAVOK 31/18 Q1015 NOSIG=
201206250930 METAR LMML NIL=
201206250915 METAR LMML 250915Z 04004KT 300V130 CAVOK 31/18 Q1015 NOSIG=
201206250900 METAR LMML NIL=
201206250845 METAR LMML 250845Z 03004KT 320V100 CAVOK 31/19 Q1015 NOSIG=
201206250830 METAR LMML NIL=
201206250815 METAR LMML 250815Z 02005KT 320V070 CAVOK 30/20 Q1015 NOSIG=
201206250800 METAR LMML NIL=
201206250745 METAR LMML 250745Z 03005KT 330V100 CAVOK 30/21 Q1015 NOSIG=
201206250730 METAR LMML NIL=
201206250715 METAR LMML 250715Z 03003KT CAVOK 30/21 Q1015 NOSIG=
201206250700 METAR LMML NIL=
201206250645 METAR LMML 250645Z 01004KT 320V080 9999 FEW012 28/21 Q1015
                        NOSIG=
201206250630 METAR LMML NIL=
201206250615 METAR LMML 250615Z 36004KT 300V040 9999 FEW012 27/22 Q1015
                        NOSIG=
201206250600 METAR LMML NIL=
201206250545 METAR LMML 250545Z 35003KT 6000 FEW012 26/23 Q1014 BECMG
                        9999=
201206250530 METAR LMML NIL=
201206250515 METAR LMML 250515Z 35004KT 6000 FEW012 25/23 Q1014 BECMG
                        9999=
201206250500 METAR LMML NIL=
201206250445 METAR LMML 250445Z 33004KT 3000 BR FEW006 23/23 Q1014 BECMG
                        7000 FEW005=
201206250430 METAR LMML NIL=
201206250415 METAR LMML 250415Z 33004KT 2500 BR FEW006 23/22 Q1014 TEMPO
                        0900 BCFG BKN003=
201206250400 METAR LMML NIL=
201206250345 METAR LMML 250345Z 35003KT 2500 BR FEW006 23/23 Q1014 TEMPO
                        0900 BCFG BKN003=
201206250330 METAR LMML NIL=
201206250315 METAR LMML 250315Z 03003KT 3000 BR FEW006 24/23 Q1014 TEMPO
                        0900 BCFG BKN003=
201206250300 METAR LMML NIL=
201206250245 METAR LMML 250245Z 02003KT 4000 BR FEW006 23/23 Q1014 TEMPO
                        2000 BKN003=
201206250230 METAR LMML NIL=
201206250215 METAR LMML 250215Z 05003KT 6000 FEW007 24/23 Q1014 NOSIG=
201206250200 METAR LMML NIL=
201206250145 METAR LMML 250145Z 07004KT 6000 FEW007 24/22 Q1014 NOSIG=
201206250130 METAR LMML NIL=
201206250115 METAR LMML 250115Z 04004KT 360V070 6000 FEW008 24/22 Q1014
                        NOSIG=
201206250100 METAR LMML NIL=
201206250045 METAR LMML 250045Z 05004KT 020V080 8000 FEW008 24/23 Q1014
                        NOSIG=
201206250030 METAR LMML NIL=
201206250015 METAR LMML 250015Z 03005KT 9000 FEW008 24/23 Q1014 NOSIG=
201206250000 METAR LMML NIL=
201206242345 METAR LMML 242345Z 04005KT 9000 FEW008 24/22 Q1014 NOSIG=
201206242330 METAR LMML NIL=
201206242315 METAR LMML 242315Z 02005KT 350V060 9000 FEW008 24/22 Q1015
                        NOSIG=
201206242300 METAR LMML NIL=
201206242245 METAR LMML 242245Z 36005KT 9000 FEW008 24/22 Q1015 NOSIG=
201206242230 METAR LMML NIL=
201206242215 METAR LMML 242215Z 01004KT 340V050 9999 FEW008 24/21 Q1015
                        NOSIG=
201206242200 METAR LMML NIL=
201206242145 METAR LMML 242145Z 05004KT 010V080 9999 FEW008 24/21 Q1015
                        NOSIG=
201206242130 METAR LMML NIL=
201206242115 METAR LMML 242115Z 03003KT 9999 FEW008 25/21 Q1015 NOSIG=
201206242100 METAR LMML NIL=
201206242045 METAR LMML 242045Z 05004KT 360V080 9999 FEW008 25/21 Q1015
                        NOSIG=
201206242030 METAR LMML NIL=
201206242015 METAR LMML 242015Z 01004KT 9999 FEW008 25/22 Q1015 NOSIG=
201206242000 METAR LMML NIL=
201206241945 METAR LMML 241945Z 02005KT 9999 FEW008 25/22 Q1015 NOSIG=
201206241930 METAR LMML NIL=
201206241915 METAR LMML 241915Z 01005KT 340V040 9999 FEW008 25/22 Q1014
                        NOSIG RMK SMOKE TO NW - SW OF AIRFIELD=
201206241900 METAR LMML NIL=
201206241845 METAR LMML 241845Z 01005KT 9999 FEW012 26/21 Q1014 NOSIG=
201206241830 METAR LMML NIL=
201206241815 METAR LMML 241815Z 02006KT 9999 FEW012 27/22 Q1014 NOSIG=
201206241800 METAR LMML NIL=
201206241745 METAR LMML 241745Z 03006KT 9999 FEW012 28/21 Q1014 NOSIG=
201206241730 METAR LMML NIL=
201206241715 METAR LMML 241715Z 02005KT 350V060 CAVOK 29/20 Q1014 NOSIG=
201206241700 METAR LMML NIL=
201206241645 METAR LMML 241645Z 02005KT 340V080 CAVOK 31/21 Q1014 NOSIG=
201206241630 METAR LMML NIL=
201206241615 METAR LMML 241615Z 02005KT 330V090 CAVOK 31/20 Q1014 NOSIG=
201206241600 METAR LMML NIL=
201206241545 METAR LMML 241545Z 02006KT 350V090 CAVOK 31/21 Q1014 NOSIG=
201206241530 METAR LMML NIL=
201206241515 METAR LMML 241515Z 13004KT 080V170 CAVOK 31/20 Q1014 NOSIG=
201206241500 METAR LMML NIL=
201206241445 METAR LMML 241445Z 17006KT 120V210 CAVOK 29/20 Q1014 NOSIG=
201206241430 METAR LMML NIL=
201206241415 METAR LMML 241415Z 17007KT 130V240 CAVOK 29/21 Q1015 NOSIG=
201206241400 METAR LMML NIL=
201206241345 METAR LMML 241345Z 17008KT 130V230 CAVOK 31/21 Q1015 NOSIG=
201206241330 METAR LMML NIL=
201206241315 METAR LMML 241315Z 20007KT 150V240 CAVOK 31/20 Q1015 NOSIG=
201206241245 METAR LMML 241245Z VRB02KT 9999 FEW012 31/20 Q1015 NOSIG=
201206241230 METAR LMML NIL=
201206241215 METAR LMML 241215Z 19004KT 070V280 9999 FEW012 31/21 Q1016
                        BECMG CAVOK=
201206241200 METAR LMML NIL=
201206241145 METAR LMML 241145Z 20006KT 120V250 9999 FEW012 31/23 Q1016
                        BECMG CAVOK=
201206241130 METAR LMML NIL=
201206241115 METAR LMML 241115Z 14005KT 040V250 9999 FEW012 31/20 Q1016
                        BECMG CAVOK=
201206241100 METAR LMML NIL=
201206241045 METAR LMML 241045Z 10005KT 020V170 9999 FEW012 31/22 Q1016
                        BECMG CAVOK=
201206241030 METAR LMML NIL=
201206241015 METAR LMML 241015Z 10005KT 020V140 CAVOK 31/20 Q1016 NOSIG=
201206241000 METAR LMML NIL=
201206240945 METAR LMML 240945Z 10005KT 040V190 9999 FEW005 31/18 Q1016
                        BECMG CAVOK=
201206240930 METAR LMML NIL=
201206240915 METAR LMML 240915Z 11004KT 020V200 9999 FEW005 31/19 Q1016
                        NOSIG=
201206240900 METAR LMML NIL=
201206240845 METAR LMML 240845Z 10004KT 030V170 9999 FEW005 31/20 Q1016
                        NOSIG=
201206240830 METAR LMML NIL=
201206240815 METAR LMML 240815Z 03004KT 330V060 CAVOK 31/21 Q1016 NOSIG=
201206240800 METAR LMML NIL=
201206240745 METAR LMML 240745Z 04004KT 360V090 CAVOK 31/22 Q1016 NOSIG=
201206240730 METAR LMML NIL=
201206240715 METAR LMML 240715Z VRB02KT CAVOK 29/21 Q1016 NOSIG=
201206240700 METAR LMML NIL=
201206240645 METAR LMML 240645Z VRB02KT CAVOK 29/21 Q1016 NOSIG=
201206240630 METAR LMML NIL=
201206240615 METAR LMML 240615Z VRB01KT CAVOK 27/21 Q1016 NOSIG=
201206240600 METAR LMML NIL=
201206240545 METAR LMML 240545Z 21003KT CAVOK 26/21 Q1016 NOSIG=
201206240530 METAR LMML NIL=
201206240515 METAR LMML 240515Z VRB02KT CAVOK 26/20 Q1016 NOSIG=
201206240445 METAR LMML 240445Z 14004KT CAVOK 24/19 Q1016 NOSIG=
201206240430 METAR LMML NIL=
201206240415 METAR LMML 240415Z 12003KT CAVOK 24/17 Q1016 NOSIG=
201206240400 METAR LMML NIL=
201206240345 METAR LMML 240345Z VRB02KT CAVOK 24/15 Q1016 NOSIG=
201206240330 METAR LMML NIL=
201206240315 METAR LMML 240315Z VRB02KT CAVOK 24/18 Q1016 NOSIG=
201206240300 METAR LMML NIL=
201206240245 METAR LMML 240245Z 25004KT CAVOK 25/18 Q1016 NOSIG=
201206240230 METAR LMML NIL=
201206240215 METAR LMML 240215Z 21003KT CAVOK 25/13 Q1016 NOSIG=
201206240200 METAR LMML NIL=
201206240145 METAR LMML 240145Z VRB01KT CAVOK 25/13 Q1016 NOSIG=
201206240130 METAR LMML NIL=
201206240115 METAR LMML 240115Z 33004KT 230V030 CAVOK 25/14 Q1017 NOSIG=
201206240100 METAR LMML NIL=
201206240045 METAR LMML 240045Z 22003KT CAVOK 26/14 Q1017 NOSIG=
201206240030 METAR LMML NIL=
201206240015 METAR LMML 240015Z VRB02KT CAVOK 26/15 Q1017 NOSIG=
201206240000 METAR LMML NIL=
201206232345 METAR LMML 232345Z 22003KT CAVOK 26/14 Q1017 NOSIG=
201206232315 METAR LMML 232315Z 23003KT CAVOK 26/16 Q1017 NOSIG=
201206232300 METAR LMML NIL=
201206232245 METAR LMML 232245Z 24003KT CAVOK 26/16 Q1017 NOSIG=
201206232230 METAR LMML NIL=
201206232215 METAR LMML 232215Z 25003KT CAVOK 26/17 Q1018 NOSIG=
201206232200 METAR LMML NIL=
201206232145 METAR LMML 232145Z VRB02KT CAVOK 26/19 Q1018 NOSIG=
201206232130 METAR LMML NIL=
201206232115 METAR LMML 232115Z VRB01KT CAVOK 26/20 Q1018 NOSIG=
201206232045 METAR LMML 232045Z VRB01KT CAVOK 26/20 Q1018 NOSIG=
201206232030 METAR LMML NIL=
201206232015 METAR LMML 232015Z VRB01KT CAVOK 27/20 Q1018 NOSIG=
201206232000 METAR LMML NIL=
201206231945 METAR LMML 231945Z VRB01KT CAVOK 27/20 Q1018 NOSIG=
201206231930 METAR LMML NIL=
201206231915 METAR LMML 231915Z 02003KT CAVOK 27/20 Q1017 NOSIG=
201206231900 METAR LMML NIL=
201206231845 METAR LMML 231845Z 01004KT CAVOK 27/20 Q1017 NOSIG=
201206231830 METAR LMML NIL=
201206231815 METAR LMML 231815Z 03004KT 360V070 CAVOK 28/20 Q1017 NOSIG=
201206231800 METAR LMML NIL=
201206231745 METAR LMML 231745Z 02003KT CAVOK 30/19 Q1017 NOSIG=
201206231730 METAR LMML NIL=
201206231715 METAR LMML 231715Z 36003KT CAVOK 31/20 Q1017 NOSIG=
201206231700 METAR LMML NIL=
201206231645 METAR LMML 231645Z 03004KT 350V070 CAVOK 32/20 Q1017 NOSIG=
201206231630 METAR LMML NIL=
201206231615 METAR LMML 231615Z 01006KT 340V070 CAVOK 32/20 Q1017 NOSIG=
201206231600 METAR LMML NIL=
201206231545 METAR LMML 231545Z 22003KT CAVOK 32/19 Q1017 NOSIG=
201206231530 METAR LMML NIL=
201206231515 METAR LMML 231515Z 19005KT 130V250 CAVOK 32/20 Q1017 NOSIG=
201206231500 METAR LMML NIL=
201206231445 METAR LMML 231445Z 18004KT 090V250 CAVOK 32/20 Q1017 NOSIG=
201206231430 METAR LMML NIL=
201206231415 METAR LMML 231415Z 19006KT 140V270 CAVOK 32/20 Q1017 NOSIG=
201206231400 METAR LMML NIL=
201206231345 METAR LMML 231345Z 21005KT 160V310 CAVOK 32/20 Q1017 NOSIG=
201206231330 METAR LMML NIL=
201206231315 METAR LMML 231315Z 01004KT 310V150 CAVOK 34/17 Q1017 NOSIG=
201206231300 METAR LMML NIL=
201206231245 METAR LMML 231245Z 09004KT 020V200 CAVOK 33/15 Q1017 NOSIG=
201206231230 METAR LMML NIL=
201206231215 METAR LMML 231215Z 06006KT 320V120 CAVOK 33/15 Q1017 NOSIG=
201206231200 METAR LMML NIL=
201206231145 METAR LMML 231145Z 07006KT 360V100 CAVOK 33/14 Q1017 NOSIG=
201206231130 METAR LMML NIL=
201206231115 METAR LMML 231115Z 08005KT 020V140 CAVOK 33/14 Q1018 NOSIG=
201206231100 METAR LMML NIL=
201206231045 METAR LMML 231045Z 06005KT 020V140 CAVOK 33/15 Q1018 NOSIG=
201206231030 METAR LMML NIL=
201206231015 METAR LMML 231015Z 07005KT 310V160 CAVOK 33/15 Q1018 NOSIG=
201206231000 METAR LMML NIL=
201206230945 METAR LMML 230945Z 03004KT 300V200 CAVOK 33/16 Q1017 NOSIG=
201206230930 METAR LMML NIL=
201206230915 METAR LMML 230915Z 04004KT 340V090 CAVOK 32/17 Q1017 NOSIG=
201206230900 METAR LMML NIL=
201206230845 METAR LMML 230845Z 03004KT 340V080 CAVOK 31/17 Q1017 NOSIG=
201206230830 METAR LMML NIL=
201206230815 METAR LMML 230815Z 02005KT 350V070 CAVOK 32/15 Q1017 NOSIG=
201206230800 METAR LMML NIL=
201206230745 METAR LMML 230745Z 05006KT 010V100 CAVOK 31/15 Q1017 NOSIG=
201206230730 METAR LMML NIL=
201206230715 METAR LMML 230715Z 01005KT 320V030 CAVOK 31/13 Q1017 NOSIG=
201206230700 METAR LMML NIL=
201206230645 METAR LMML 230645Z 34004KT CAVOK 29/13 Q1017 NOSIG=
201206230630 METAR LMML NIL=
201206230615 METAR LMML 230615Z 32006KT 290V360 CAVOK 29/15 Q1017 NOSIG=
201206230600 METAR LMML NIL=
201206230545 METAR LMML 230545Z 34003KT CAVOK 27/17 Q1017 NOSIG=
201206230530 METAR LMML NIL=
201206230515 METAR LMML 230515Z 33004KT CAVOK 25/19 Q1016 NOSIG=
201206230500 METAR LMML NIL=
201206230445 METAR LMML 230445Z 30004KT CAVOK 23/20 Q1016 NOSIG=
201206230430 METAR LMML NIL=
201206230415 METAR LMML 230415Z 30005KT CAVOK 23/21 Q1016 NOSIG=
201206230400 METAR LMML NIL=
201206230345 METAR LMML 230345Z 31005KT CAVOK 23/21 Q1016 NOSIG=
201206230330 METAR LMML NIL=
201206230315 METAR LMML 230315Z 31006KT CAVOK 23/20 Q1016 NOSIG=
201206230300 METAR LMML NIL=
201206230245 METAR LMML 230245Z 33004KT CAVOK 23/20 Q1015 NOSIG=
201206230230 METAR LMML NIL=
201206230215 METAR LMML 230215Z 01005KT CAVOK 24/20 Q1015 NOSIG=
201206230200 METAR LMML NIL=
201206230145 METAR LMML 230145Z 04004KT 300V120 CAVOK 25/20 Q1015 NOSIG=
201206230130 METAR LMML NIL=
201206230115 METAR LMML 230115Z 04004KT 010V070 CAVOK 25/19 Q1015 NOSIG=
201206230100 METAR LMML NIL=
201206230045 METAR LMML 230045Z 03004KT 360V070 CAVOK 26/18 Q1015 NOSIG=
201206230030 METAR LMML NIL=
201206230015 METAR LMML 230015Z 04004KT 010V080 CAVOK 25/17 Q1015 NOSIG=
201206230000 METAR LMML NIL=
201206222345 METAR LMML 222345Z VRB01KT CAVOK 25/16 Q1015 NOSIG=
201206222330 METAR LMML NIL=
201206222315 METAR LMML 222315Z VRB01KT CAVOK 25/17 Q1015 NOSIG=
201206222300 METAR LMML NIL=
201206222245 METAR LMML 222245Z VRB02KT CAVOK 26/17 Q1015 NOSIG=
201206222230 METAR LMML NIL=
201206222215 METAR LMML 222215Z VRB02KT CAVOK 26/17 Q1015 NOSIG=
201206222200 METAR LMML NIL=
201206222145 METAR LMML 222145Z 08003KT CAVOK 26/15 Q1015 NOSIG=
201206222130 METAR LMML NIL=
201206222115 METAR LMML 222115Z VRB01KT CAVOK 26/16 Q1015 NOSIG=
201206222100 METAR LMML NIL=
201206222045 METAR LMML 222045Z VRB02KT CAVOK 26/16 Q1015 NOSIG=
201206222030 METAR LMML NIL=
201206222015 METAR LMML 222015Z 08003KT CAVOK 26/16 Q1014 NOSIG=
201206222000 METAR LMML NIL=
201206221945 METAR LMML 221945Z 08004KT CAVOK 27/16 Q1014 NOSIG=
201206221930 METAR LMML NIL=
201206221915 METAR LMML 221915Z 08003KT CAVOK 28/15 Q1014 NOSIG=
201206221900 METAR LMML NIL=
201206221845 METAR LMML 221845Z 08004KT 050V110 CAVOK 28/14 Q1014 NOSIG=
201206221830 METAR LMML NIL=
201206221815 METAR LMML 221815Z 08005KT 050V110 CAVOK 28/13 Q1013 NOSIG=
201206221800 METAR LMML NIL=
201206221745 METAR LMML 221745Z 09004KT 040V130 CAVOK 31/14 Q1013 NOSIG=
201206221730 METAR LMML NIL=
201206221715 METAR LMML 221715Z 03003KT CAVOK 33/15 Q1013 NOSIG=
201206221700 METAR LMML NIL=
201206221645 METAR LMML 221645Z 03003KT CAVOK 33/16 Q1013 NOSIG=
201206221630 METAR LMML NIL=
201206221615 METAR LMML 221615Z 36005KT 320V050 CAVOK 33/15 Q1013 NOSIG=
201206221600 METAR LMML NIL=
201206221545 METAR LMML 221545Z 34007KT 300V360 CAVOK 32/16 Q1013 NOSIG=
201206221530 METAR LMML NIL=
201206221515 METAR LMML 221515Z 01005KT 260V070 CAVOK 33/17 Q1013 NOSIG=
201206221500 METAR LMML NIL=
201206221445 METAR LMML 221445Z 01007KT 340V060 CAVOK 33/18 Q1013 NOSIG=
201206221430 METAR LMML NIL=
201206221415 METAR LMML 221415Z 36007KT 320V040 CAVOK 34/18 Q1013 NOSIG=
201206221400 METAR LMML NIL=
201206221345 METAR LMML 221345Z 01007KT 310V060 CAVOK 34/17 Q1014 NOSIG=
201206221330 METAR LMML NIL=
201206221315 METAR LMML 221315Z 03007KT 340V080 CAVOK 35/15 Q1013 NOSIG=
201206221300 METAR LMML NIL=
201206221245 METAR LMML 221245Z 36009KT 300V030 CAVOK 34/14 Q1014 NOSIG=
201206221230 METAR LMML NIL=
201206221215 METAR LMML 221215Z 35009KT 320V020 CAVOK 34/14 Q1013 NOSIG=
201206221200 METAR LMML NIL=
201206221145 METAR LMML 221145Z 34010KT CAVOK 34/13 Q1013 NOSIG=
201206221130 METAR LMML NIL=
201206221115 METAR LMML 221115Z 36012KT CAVOK 33/12 Q1013 NOSIG=
201206221100 METAR LMML NIL=
201206221045 METAR LMML 221045Z 36010KT 320V040 CAVOK 33/15 Q1013 NOSIG=
201206221030 METAR LMML NIL=
201206221015 METAR LMML 221015Z 35011KT CAVOK 32/17 Q1013 NOSIG=
201206221000 METAR LMML NIL=
201206220945 METAR LMML 220945Z 35011KT CAVOK 32/17 Q1013 NOSIG=
201206220930 METAR LMML NIL=
201206220915 METAR LMML 220915Z 35012KT 320V020 CAVOK 31/17 Q1013 NOSIG=
201206220900 METAR LMML NIL=
201206220845 METAR LMML 220845Z 33011KT CAVOK 29/17 Q1013 NOSIG=
201206220830 METAR LMML NIL=
201206220815 METAR LMML 220815Z 34013KT CAVOK 29/17 Q1013 NOSIG=
201206220800 METAR LMML NIL=
201206220745 METAR LMML 220745Z 32014KT CAVOK 28/18 Q1013 NOSIG=
201206220730 METAR LMML NIL=
201206220715 METAR LMML 220715Z 32015KT CAVOK 29/18 Q1012 NOSIG=
201206220700 METAR LMML NIL=
201206220645 METAR LMML 220645Z 33011KT CAVOK 28/19 Q1012 NOSIG=
201206220630 METAR LMML NIL=
201206220615 METAR LMML 220615Z 31009KT 280V340 9000 NSC 26/21 Q1012 BECMG
                        CAVOK=
201206220600 METAR LMML NIL=
201206220545 METAR LMML 220545Z 30010KT 9000 FEW008 24/21 Q1012 BECMG
                        CAVOK=
201206220530 METAR LMML NIL=
201206220515 METAR LMML 220515Z 30011KT 7000 FEW007 24/21 Q1012 BECMG
                        CAVOK=
201206220500 METAR LMML NIL=
201206220445 METAR LMML 220445Z 30011KT 260V320 7000 FEW007 23/21 Q1012
                        BECMG CAVOK=
201206220430 METAR LMML NIL=
201206220415 METAR LMML 220415Z 31011KT 280V340 7000 BKN007 23/21 Q1012
                        BECMG 9999 FEW008=
201206220400 METAR LMML NIL=
201206220345 METAR LMML 220345Z 30010KT 7000 BKN007 23/21 Q1012 NOSIG=
201206220330 METAR LMML NIL=
201206220315 METAR LMML 220315Z 30009KT 7000 BKN008 23/21 Q1012 NOSIG=
201206220300 METAR LMML NIL=
201206220245 METAR LMML 220245Z 30009KT 9000 BKN008 23/21 Q1012 TEMPO
                        BKN008=
201206220230 METAR LMML NIL=
201206220215 METAR LMML 220215Z 29008KT 260V320 9000 FEW008 23/21 Q1012
                        TEMPO BKN008=
201206220200 METAR LMML NIL=
201206220145 METAR LMML 220145Z 29011KT 260V320 9000 FEW008 23/21 Q1012
                        TEMPO BKN008=
201206220130 METAR LMML NIL=
201206220115 METAR LMML 220115Z 29008KT 270V330 9999 FEW008 23/21 Q1012
                        TEMPO BKN008=
201206220100 METAR LMML NIL=
201206220045 METAR LMML 220045Z 29005KT 220V350 9999 FEW008 23/21 Q1012
                        TEMPO BKN008=
201206220030 METAR LMML NIL=
201206220015 METAR LMML 220015Z 28008KT 9999 FEW008 23/21 Q1012 TEMPO
                        BKN008=
201206220000 METAR LMML NIL=
201206212345 METAR LMML 212345Z 28008KT 250V320 9000 FEW008 23/21 Q1012
                        TEMPO BKN008=
201206212330 METAR LMML NIL=
201206212315 METAR LMML 212315Z 29007KT 230V320 9000 SCT007 23/21 Q1013
                        TEMPO BKN008=
201206212300 METAR LMML NIL=
201206212245 METAR LMML 212245Z 28007KT 240V320 9000 FEW008 23/21 Q1013
                        TEMPO BKN008=
201206212230 METAR LMML NIL=
201206212215 METAR LMML 212215Z 29008KT 250V310 9000 NSC 24/22 Q1013 BECMG
                        FEW008=
201206212200 METAR LMML NIL=
201206212145 METAR LMML 212145Z 29007KT 260V330 CAVOK 24/21 Q1013 BECMG
                        9000 FEW008=
201206212130 METAR LMML NIL=
201206212115 METAR LMML 212115Z 29007KT CAVOK 24/21 Q1013 BECMG 9999 FEW008=
201206212100 METAR LMML NIL=
201206212045 METAR LMML 212045Z 30006KT CAVOK 25/20 Q1013 NOSIG=
201206212030 METAR LMML NIL=
201206212015 METAR LMML 212015Z 30007KT CAVOK 26/18 Q1013 NOSIG=
201206212000 METAR LMML NIL=
201206211945 METAR LMML 211945Z 31008KT CAVOK 25/19 Q1013 NOSIG=
201206211930 METAR LMML NIL=
201206211915 METAR LMML 211915Z 31008KT CAVOK 25/19 Q1013 NOSIG=
201206211900 METAR LMML NIL=
201206211845 METAR LMML 211845Z 31008KT CAVOK 26/20 Q1012 NOSIG=
201206211830 METAR LMML NIL=
201206211815 METAR LMML 211815Z 31007KT 280V340 CAVOK 26/20 Q1012 NOSIG=
201206211800 METAR LMML NIL=
201206211745 METAR LMML 211745Z 31012KT 290V350 CAVOK 28/18 Q1012 NOSIG=
201206211730 METAR LMML NIL=
201206211715 METAR LMML 211715Z 30010KT CAVOK 28/16 Q1012 NOSIG=
201206211700 METAR LMML NIL=
201206211645 METAR LMML 211645Z 30010KT 260V330 CAVOK 31/14 Q1012 NOSIG=
201206211630 METAR LMML NIL=
201206211615 METAR LMML 211615Z 28010KT 250V310 CAVOK 31/12 Q1012 NOSIG=
201206211545 METAR LMML 211545Z 29010KT CAVOK 33/10 Q1012 NOSIG=
201206211530 METAR LMML NIL=
201206211515 METAR LMML 211515Z 30009KT CAVOK 33/11 Q1012 NOSIG=
201206211500 METAR LMML NIL=
201206211445 METAR LMML 211445Z 29011KT 260V320 CAVOK 33/11 Q1012 NOSIG=
201206211430 METAR LMML NIL=
201206211415 METAR LMML 211415Z 28009KT 250V320 CAVOK 35/10 Q1012 NOSIG=
201206211400 METAR LMML NIL=
201206211345 METAR LMML 211345Z 29008KT 260V330 CAVOK 35/10 Q1012 NOSIG=
201206211330 METAR LMML NIL=
201206211315 METAR LMML 211315Z 30009KT 270V010 CAVOK 36/09 Q1012 NOSIG=
201206211300 METAR LMML NIL=
201206211245 METAR LMML 211245Z 32009KT 260V020 CAVOK 36/09 Q1013 NOSIG=
201206211230 METAR LMML NIL=
201206211215 METAR LMML 211215Z 32008KT 280V360 CAVOK 35/09 Q1013 NOSIG=
201206211200 METAR LMML NIL=
201206211145 METAR LMML 211145Z 32008KT 270V360 CAVOK 35/10 Q1013 NOSIG=
201206211130 METAR LMML NIL=
201206211115 METAR LMML 211115Z 31007KT 270V010 CAVOK 36/11 Q1013 NOSIG=
201206211100 METAR LMML NIL=
201206211045 METAR LMML 211045Z 33008KT 290V360 CAVOK 35/11 Q1013 NOSIG=
201206211030 METAR LMML NIL=
201206211015 METAR LMML 211015Z 30010KT CAVOK 34/09 Q1013 NOSIG=
201206211000 METAR LMML NIL=
201206210945 METAR LMML 210945Z 32010KT 280V350 CAVOK 33/15 Q1013 NOSIG=
201206210930 METAR LMML NIL=
201206210915 METAR LMML 210915Z 30013KT CAVOK 32/14 Q1013 NOSIG=
201206210900 METAR LMML NIL=
201206210845 METAR LMML 210845Z 29012KT CAVOK 32/15 Q1013 NOSIG=
201206210830 METAR LMML NIL=
201206210815 METAR LMML 210815Z 30010KT CAVOK 30/16 Q1013 NOSIG=
201206210800 METAR LMML NIL=
201206210745 METAR LMML 210745Z 31008KT 280V340 CAVOK 32/13 Q1013 NOSIG=
201206210730 METAR LMML NIL=
201206210715 METAR LMML 210715Z 32006KT 290V350 CAVOK 32/11 Q1013 NOSIG=
201206210700 METAR LMML NIL=
201206210645 METAR LMML 210645Z 31005KT CAVOK 31/11 Q1013 NOSIG=
201206210615 METAR LMML 210615Z 31005KT CAVOK 29/11 Q1013 NOSIG=
201206210600 METAR LMML NIL=
201206210545 METAR LMML 210545Z 31003KT CAVOK 28/12 Q1012 NOSIG=
201206210530 METAR LMML NIL=
201206210515 METAR LMML 210515Z 31004KT 280V360 CAVOK 27/13 Q1012 NOSIG=
201206210500 METAR LMML NIL=
201206210445 METAR LMML 210445Z 31004KT 280V340 CAVOK 25/13 Q1012 NOSIG=
201206210430 METAR LMML NIL=
201206210415 METAR LMML 210415Z VRB02KT CAVOK 25/09 Q1012 NOSIG=
201206210400 METAR LMML NIL=
201206210345 METAR LMML 210345Z 29004KT CAVOK 26/10 Q1012 NOSIG=
201206210330 METAR LMML NIL=
201206210315 METAR LMML 210315Z 29005KT CAVOK 26/09 Q1012 NOSIG=
201206210300 METAR LMML NIL=
201206210245 METAR LMML 210245Z 29004KT CAVOK 26/10 Q1012 NOSIG=
201206210230 METAR LMML NIL=
201206210215 METAR LMML 210215Z 27004KT CAVOK 26/09 Q1012 NOSIG=
201206210200 METAR LMML NIL=
201206210145 METAR LMML 210145Z 29004KT CAVOK 26/10 Q1012 NOSIG=
201206210130 METAR LMML NIL=
201206210115 METAR LMML 210115Z VRB02KT CAVOK 24/12 Q1012 NOSIG=
201206210100 METAR LMML NIL=
201206210045 METAR LMML 210045Z 28003KT CAVOK 25/11 Q1012 NOSIG=
201206210030 METAR LMML NIL=
201206210015 METAR LMML 210015Z 29003KT CAVOK 25/10 Q1013 NOSIG=
201206210000 METAR LMML NIL=
201206202345 METAR LMML 202345Z 30003KT CAVOK 25/10 Q1013 NOSIG=
201206202330 METAR LMML NIL=
201206202315 METAR LMML 202315Z 28004KT CAVOK 25/11 Q1013 NOSIG=
201206202300 METAR LMML NIL=
201206202245 METAR LMML 202245Z 28004KT CAVOK 25/14 Q1013 NOSIG=
201206202230 METAR LMML NIL=
201206202215 METAR LMML 202215Z 29003KT CAVOK 25/16 Q1013 NOSIG=
201206202200 METAR LMML NIL=
201206202145 METAR LMML 202145Z 31003KT CAVOK 25/17 Q1013 NOSIG=
201206202115 METAR LMML 202115Z 31003KT CAVOK 25/18 Q1014 NOSIG=
201206202100 METAR LMML NIL=
201206202045 METAR LMML 202045Z VRB01KT CAVOK 25/21 Q1013 NOSIG=
201206202030 METAR LMML NIL=
201206202015 METAR LMML 202015Z VRB02KT CAVOK 26/21 Q1014 NOSIG=
201206202000 METAR LMML NIL=
201206201945 METAR LMML 201945Z VRB02KT CAVOK 26/20 Q1013 NOSIG=
201206201930 METAR LMML NIL=
201206201915 METAR LMML 201915Z VRB02KT CAVOK 27/21 Q1013 NOSIG=
201206201900 METAR LMML NIL=
201206201845 METAR LMML 201845Z VRB02KT CAVOK 27/21 Q1013 NOSIG=
201206201830 METAR LMML NIL=
201206201815 METAR LMML 201815Z 34004KT 310V010 CAVOK 27/21 Q1013 NOSIG=
201206201800 METAR LMML NIL=
201206201745 METAR LMML 201745Z 33004KT 310V040 CAVOK 29/22 Q1013 NOSIG=
201206201730 METAR LMML NIL=
201206201715 METAR LMML 201715Z VRB02KT CAVOK 31/20 Q1013 NOSIG=
201206201700 METAR LMML NIL=
201206201645 METAR LMML 201645Z 19003KT CAVOK 31/15 Q1013 NOSIG=
201206201630 METAR LMML NIL=
201206201615 METAR LMML 201615Z 12004KT 080V170 CAVOK 31/17 Q1013 NOSIG=
201206201600 METAR LMML NIL=
201206201545 METAR LMML 201545Z 13005KT 100V160 CAVOK 32/18 Q1013 NOSIG=
201206201530 METAR LMML NIL=
201206201515 METAR LMML 201515Z 10005KT 040V160 CAVOK 33/18 Q1013 NOSIG=
201206201500 METAR LMML NIL=
201206201445 METAR LMML 201445Z 05004KT 310V090 CAVOK 33/18 Q1013 NOSIG=
201206201430 METAR LMML NIL=
201206201415 METAR LMML 201415Z 04006KT 360V080 CAVOK 33/18 Q1013 NOSIG=
201206201400 METAR LMML NIL=
201206201345 METAR LMML 201345Z 21003KT CAVOK 33/18 Q1014 NOSIG=
201206201330 METAR LMML NIL=
201206201315 METAR LMML 201315Z 18005KT 130V240 CAVOK 33/18 Q1014 NOSIG=
201206201300 METAR LMML NIL=
201206201245 METAR LMML 201245Z 02004KT 330V120 CAVOK 35/12 Q1014 NOSIG=
201206201230 METAR LMML NIL=
201206201215 METAR LMML 201215Z 17005KT 120V230 CAVOK 33/18 Q1014 NOSIG=
201206201200 METAR LMML NIL=
201206201145 METAR LMML 201145Z 02004KT 330V070 CAVOK 35/14 Q1014 NOSIG=
201206201130 METAR LMML NIL=
201206201115 METAR LMML 201115Z 03005KT 340V070 CAVOK 34/13 Q1014 NOSIG=
201206201100 METAR LMML NIL=
201206201045 METAR LMML 201045Z 04006KT 010V100 CAVOK 34/14 Q1014 NOSIG=
201206201030 METAR LMML NIL=
201206201015 METAR LMML 201015Z 04006KT 010V090 CAVOK 34/16 Q1014 NOSIG=
201206201000 METAR LMML NIL=
201206200945 METAR LMML 200945Z 03005KT 300V120 CAVOK 34/18 Q1014 NOSIG=
201206200930 METAR LMML NIL=
201206200915 METAR LMML 200915Z 35006KT 320V030 CAVOK 34/12 Q1014 NOSIG=
201206200900 METAR LMML NIL=
201206200845 METAR LMML 200845Z 31005KT 270V010 CAVOK 33/11 Q1014 NOSIG=
201206200830 METAR LMML NIL=
201206200815 METAR LMML 200815Z 28005KT 230V340 CAVOK 32/12 Q1014 NOSIG=
201206200800 METAR LMML NIL=
201206200745 METAR LMML 200745Z VRB02KT CAVOK 30/18 Q1014 NOSIG=
201206200730 METAR LMML NIL=
201206200715 METAR LMML 200715Z 34004KT 290V020 CAVOK 29/17 Q1015 NOSIG=
201206200700 METAR LMML NIL=
201206200645 METAR LMML 200645Z 32005KT 290V360 CAVOK 28/17 Q1015 NOSIG=
201206200630 METAR LMML NIL=
201206200615 METAR LMML 200615Z 33005KT CAVOK 27/17 Q1014 NOSIG=
201206200600 METAR LMML NIL=
201206200545 METAR LMML 200545Z 34005KT CAVOK 26/19 Q1014 NOSIG=
201206200530 METAR LMML NIL=
201206200515 METAR LMML 200515Z 31004KT CAVOK 24/20 Q1014 NOSIG=
201206200500 METAR LMML NIL=
201206200445 METAR LMML 200445Z 31004KT CAVOK 23/20 Q1014 NOSIG=
201206200430 METAR LMML NIL=
201206200415 METAR LMML 200415Z 35005KT 320V020 CAVOK 23/19 Q1014 NOSIG=
201206200400 METAR LMML NIL=
201206200345 METAR LMML 200345Z 31004KT CAVOK 22/16 Q1014 NOSIG=
201206200330 METAR LMML NIL=
201206200315 METAR LMML 200315Z 27003KT CAVOK 23/16 Q1013 NOSIG=
201206200300 METAR LMML NIL=
201206200245 METAR LMML 200245Z 28005KT CAVOK 23/18 Q1014 NOSIG=
201206200230 METAR LMML NIL=
201206200215 METAR LMML 200215Z 26003KT CAVOK 22/18 Q1014 NOSIG=
201206200200 METAR LMML NIL=
201206200145 METAR LMML 200145Z 27004KT 240V320 CAVOK 23/18 Q1014 NOSIG=
201206200115 METAR LMML 200115Z 26004KT CAVOK 23/15 Q1014 NOSIG=
201206200100 METAR LMML NIL=
201206200045 METAR LMML 200045Z 24003KT CAVOK 22/16 Q1014 NOSIG=
201206200030 METAR LMML NIL=
201206200015 METAR LMML 200015Z VRB02KT CAVOK 23/16 Q1014 NOSIG=
201206200000 METAR LMML NIL=
201206192345 METAR LMML 192345Z 27003KT CAVOK 23/16 Q1015 NOSIG=
201206192330 METAR LMML NIL=
201206192315 METAR LMML 192315Z 26004KT CAVOK 23/16 Q1015 NOSIG=
201206192300 METAR LMML NIL=
201206192245 METAR LMML 192245Z 26003KT CAVOK 23/15 Q1015 NOSIG=
201206192215 METAR LMML 192215Z 23003KT CAVOK 23/16 Q1015 NOSIG=
201206192200 METAR LMML NIL=
201206192145 METAR LMML 192145Z VRB02KT CAVOK 23/17 Q1016 NOSIG=
201206192130 METAR LMML NIL=
201206192115 METAR LMML 192115Z VRB01KT CAVOK 24/17 Q1016 NOSIG=
201206192100 METAR LMML NIL=
201206192045 METAR LMML 192045Z 31003KT CAVOK 24/17 Q1016 NOSIG=
201206192030 METAR LMML NIL=
201206192015 METAR LMML 192015Z 32004KT CAVOK 24/17 Q1015 NOSIG=
201206192000 METAR LMML NIL=
201206191945 METAR LMML 191945Z 31004KT CAVOK 24/18 Q1015 NOSIG=
201206191930 METAR LMML NIL=
201206191915 METAR LMML 191915Z 31005KT 290V350 CAVOK 25/17 Q1015 NOSIG=
201206191900 METAR LMML NIL=
201206191845 METAR LMML 191845Z 30005KT CAVOK 26/14 Q1015 NOSIG=
201206191830 METAR LMML NIL=
201206191815 METAR LMML 191815Z 30006KT CAVOK 26/15 Q1015 NOSIG=
201206191800 METAR LMML NIL=
201206191745 METAR LMML 191745Z 32008KT CAVOK 27/15 Q1015 NOSIG=
201206191730 METAR LMML NIL=
201206191715 METAR LMML 191715Z 29008KT CAVOK 28/16 Q1015 NOSIG=
201206191700 METAR LMML NIL=
201206191645 METAR LMML 191645Z 32004KT CAVOK 29/16 Q1014 NOSIG=
201206191630 METAR LMML NIL=
201206191615 METAR LMML 191615Z 09005KT 050V130 CAVOK 30/20 Q1014 NOSIG=
201206191600 METAR LMML NIL=
201206191545 METAR LMML 191545Z 12005KT 080V160 CAVOK 30/19 Q1014 NOSIG=
201206191530 METAR LMML NIL=
201206191515 METAR LMML 191515Z 13006KT 100V160 CAVOK 29/19 Q1014 NOSIG=
201206191500 METAR LMML NIL=
201206191445 METAR LMML 191445Z 12005KT 070V170 CAVOK 30/19 Q1015 NOSIG=
201206191430 METAR LMML NIL=
201206191415 METAR LMML 191415Z 08008KT 050V110 CAVOK 32/19 Q1015 NOSIG=
201206191400 METAR LMML NIL=
201206191345 METAR LMML 191345Z 08004KT CAVOK 33/15 Q1015 NOSIG=
201206191330 METAR LMML NIL=
201206191315 METAR LMML 191315Z 29003KT CAVOK 34/10 Q1015 NOSIG=
201206191300 METAR LMML NIL=
201206191245 METAR LMML 191245Z VRB02KT CAVOK 34/14 Q1015 NOSIG=
201206191230 METAR LMML NIL=
201206191215 METAR LMML 191215Z 29006KT 250V330 CAVOK 33/10 Q1015 NOSIG=
201206191200 METAR LMML NIL=
201206191145 METAR LMML 191145Z 30007KT 250V010 CAVOK 33/11 Q1016 NOSIG=
201206191130 METAR LMML NIL=
201206191115 METAR LMML 191115Z 29007KT 250V330 CAVOK 33/11 Q1016 NOSIG=
201206191100 METAR LMML NIL=
201206191045 METAR COR LMML 191045Z 31008KT 260V340 CAVOK 33/11 Q1016
                        NOSIG=
201206191030 METAR LMML NIL=
201206191015 METAR LMML 191015Z 34006KT 270V040 CAVOK 33/14 Q1016 NOSIG=
201206191000 METAR LMML NIL=
201206190945 METAR LMML 190945Z 35004KT 280V070 CAVOK 33/14 Q1016 NOSIG=
201206190930 METAR LMML NIL=
201206190915 METAR LMML 190915Z 34003KT CAVOK 31/15 Q1016 NOSIG=
201206190900 METAR LMML NIL=
201206190845 METAR LMML 190845Z 34005KT 300V050 CAVOK 31/16 Q1016 NOSIG=
201206190830 METAR LMML NIL=
201206190815 METAR LMML 190815Z 35007KT 320V020 CAVOK 30/14 Q1016 NOSIG=
201206190800 METAR LMML NIL=
201206190745 METAR LMML 190745Z 33008KT 270V360 CAVOK 30/14 Q1016 NOSIG=
201206190730 METAR LMML NIL=
201206190715 METAR LMML 190715Z 33007KT 300V010 CAVOK 28/13 Q1016 NOSIG=
201206190700 METAR LMML NIL=
201206190645 METAR LMML 190645Z 32006KT CAVOK 27/15 Q1016 NOSIG=
201206190630 METAR LMML NIL=
201206190615 METAR LMML 190615Z 34006KT CAVOK 26/15 Q1016 NOSIG=
201206190600 METAR LMML NIL=
201206190545 METAR LMML 190545Z 33007KT CAVOK 25/17 Q1015 NOSIG=
201206190530 METAR LMML NIL=
201206190515 METAR LMML 190515Z 31005KT CAVOK 24/19 Q1015 NOSIG=
201206190500 METAR LMML NIL=
201206190445 METAR LMML 190445Z 32004KT CAVOK 23/19 Q1015 NOSIG=
201206190430 METAR LMML NIL=
201206190415 METAR LMML 190415Z 32006KT CAVOK 22/19 Q1015 NOSIG=
201206190400 METAR LMML NIL=
201206190345 METAR LMML 190345Z 33005KT CAVOK 22/20 Q1015 NOSIG=
201206190330 METAR LMML NIL=
201206190315 METAR LMML 190315Z 32006KT CAVOK 22/19 Q1015 NOSIG=
201206190300 METAR LMML NIL=
201206190245 METAR LMML 190245Z 31004KT CAVOK 22/19 Q1015 NOSIG=
201206190230 METAR LMML NIL=
201206190215 METAR LMML 190215Z 31005KT CAVOK 22/19 Q1015 NOSIG=
201206190200 METAR LMML NIL=
201206190145 METAR LMML 190145Z 31005KT CAVOK 22/18 Q1015 NOSIG=
201206190130 METAR LMML NIL=
201206190115 METAR LMML 190115Z 31005KT CAVOK 22/16 Q1015 NOSIG=
201206190100 METAR LMML NIL=
201206190045 METAR LMML 190045Z 31005KT CAVOK 22/15 Q1015 NOSIG=
201206190030 METAR LMML NIL=
201206190015 METAR LMML 190015Z 31005KT CAVOK 22/15 Q1016 NOSIG=
201206190000 METAR LMML NIL=
201206182345 METAR LMML 182345Z 31005KT CAVOK 22/16 Q1016 NOSIG=
201206182330 METAR LMML NIL=
201206182315 METAR LMML 182315Z 31004KT CAVOK 23/18 Q1016 NOSIG=
201206182300 METAR LMML NIL=
201206182245 METAR LMML 182245Z 31003KT CAVOK 23/19 Q1016 NOSIG=
201206182230 METAR LMML NIL=
201206182215 METAR LMML 182215Z 29003KT CAVOK 23/18 Q1016 NOSIG=
201206182200 METAR LMML NIL=
201206182145 METAR LMML 182145Z 31005KT CAVOK 23/17 Q1016 NOSIG=
201206182130 METAR LMML NIL=
201206182115 METAR LMML 182115Z 31004KT CAVOK 24/15 Q1016 NOSIG=
201206182100 METAR LMML NIL=
201206182045 METAR LMML 182045Z VRB02KT CAVOK 24/16 Q1016 NOSIG=
201206182030 METAR LMML NIL=
201206182015 METAR LMML 182015Z VRB02KT CAVOK 25/17 Q1016 NOSIG=
201206182000 METAR LMML NIL=
201206181945 METAR LMML 181945Z VRB01KT CAVOK 25/16 Q1016 NOSIG=
201206181930 METAR LMML NIL=
201206181915 METAR LMML 181915Z VRB02KT CAVOK 25/16 Q1016 NOSIG=
201206181900 METAR LMML NIL=
201206181845 METAR LMML 181845Z 04003KT CAVOK 26/16 Q1015 NOSIG=
201206181830 METAR LMML NIL=
201206181815 METAR LMML 181815Z 02003KT CAVOK 27/16 Q1015 NOSIG=
201206181800 METAR LMML NIL=
201206181745 METAR LMML 181745Z 03003KT CAVOK 28/15 Q1015 NOSIG=
201206181730 METAR LMML NIL=
201206181715 METAR LMML 181715Z 01004KT CAVOK 30/15 Q1015 NOSIG=
201206181700 METAR LMML NIL=
201206181645 METAR LMML 181645Z 01005KT CAVOK 30/13 Q1015 NOSIG=
201206181630 METAR LMML NIL=
201206181615 METAR LMML 181615Z 02005KT 350V070 CAVOK 31/13 Q1015 NOSIG=
201206181600 METAR LMML NIL=
201206181545 METAR LMML 181545Z 04005KT 360V080 CAVOK 32/13 Q1015 NOSIG=
201206181530 METAR LMML NIL=
201206181515 METAR LMML 181515Z 04005KT 340V240 CAVOK 32/12 Q1015 NOSIG=
201206181500 METAR LMML NIL=
201206181445 METAR LMML 181445Z 03005KT 350V080 CAVOK 33/14 Q1015 NOSIG=
201206181430 METAR LMML NIL=
201206181415 METAR LMML 181415Z 03004KT 340V110 CAVOK 33/12 Q1016 NOSIG=
201206181400 METAR LMML NIL=
201206181345 METAR LMML 181345Z 05003KT CAVOK 32/13 Q1016 NOSIG=
201206181330 METAR LMML NIL=
201206181315 METAR LMML 181315Z 21007KT 160V250 CAVOK 31/14 Q1016 NOSIG=
201206181300 METAR LMML NIL=
201206181245 METAR LMML 181245Z 24004KT 120V360 CAVOK 32/13 Q1016 NOSIG=
201206181230 METAR LMML NIL=
201206181215 METAR LMML 181215Z 22005KT 160V310 CAVOK 32/13 Q1016 NOSIG=
201206181200 METAR LMML NIL=
201206181145 METAR LMML 181145Z 22007KT 150V290 CAVOK 31/14 Q1016 NOSIG=
201206181130 METAR LMML NIL=
201206181115 METAR LMML 181115Z 20005KT 160V260 CAVOK 32/13 Q1016 NOSIG=
201206181100 METAR LMML NIL=
201206181045 METAR LMML 181045Z 34003KT CAVOK 33/12 Q1016 NOSIG=
201206181030 METAR LMML NIL=
201206181015 METAR LMML 181015Z 01003KT CAVOK 32/12 Q1016 NOSIG=
201206181000 METAR LMML NIL=
201206180945 METAR LMML 180945Z 03004KT 330V130 CAVOK 32/11 Q1016 NOSIG=
201206180930 METAR LMML NIL=
201206180915 METAR LMML 180915Z 03005KT 340V090 CAVOK 31/11 Q1017 NOSIG=
201206180900 METAR LMML NIL=
201206180845 METAR LMML 180845Z 04006KT 350V090 CAVOK 31/11 Q1017 NOSIG=
201206180830 METAR LMML NIL=
201206180815 METAR LMML 180815Z 03006KT 330V070 CAVOK 31/12 Q1016 NOSIG=
201206180800 METAR LMML NIL=
201206180745 METAR LMML 180745Z 36006KT 250V050 CAVOK 31/13 Q1017 NOSIG=
201206180730 METAR LMML NIL=
201206180715 METAR LMML 180715Z 36007KT 330V030 CAVOK 28/13 Q1017 NOSIG=
201206180700 METAR LMML NIL=
201206180645 METAR LMML 180645Z 36007KT CAVOK 28/14 Q1017 NOSIG=
201206180630 METAR LMML NIL=
201206180615 METAR LMML 180615Z 34006KT CAVOK 27/14 Q1017 NOSIG=
201206180600 METAR LMML NIL=
201206180545 METAR LMML 180545Z 35005KT CAVOK 26/15 Q1016 NOSIG=
201206180530 METAR LMML NIL=
201206180515 METAR LMML 180515Z 32004KT CAVOK 24/15 Q1016 NOSIG=
201206180500 METAR LMML NIL=
201206180445 METAR LMML 180445Z 33006KT CAVOK 23/15 Q1016 NOSIG=
201206180430 METAR LMML NIL=
201206180415 METAR LMML 180415Z 32006KT CAVOK 22/14 Q1016 NOSIG=
201206180400 METAR LMML NIL=
201206180345 METAR LMML 180345Z 33006KT CAVOK 22/13 Q1016 NOSIG=
201206180330 METAR LMML NIL=
201206180315 METAR LMML 180315Z 32006KT CAVOK 22/13 Q1015 NOSIG=
201206180300 METAR LMML NIL=
201206180245 METAR LMML 180245Z 32006KT CAVOK 22/14 Q1015 NOSIG=
201206180230 METAR LMML NIL=
201206180215 METAR LMML 180215Z 31005KT CAVOK 22/13 Q1015 NOSIG=
201206180200 METAR LMML NIL=
201206180145 METAR LMML 180145Z 32005KT CAVOK 22/13 Q1015 NOSIG=
201206180130 METAR LMML NIL=
201206180115 METAR LMML 180115Z 32004KT CAVOK 22/13 Q1015 NOSIG=
201206180100 METAR LMML NIL=
201206180045 METAR LMML 180045Z 30004KT CAVOK 22/13 Q1016 NOSIG=
201206180030 METAR LMML NIL=
201206180015 METAR LMML 180015Z 32003KT CAVOK 22/13 Q1016 NOSIG=
201206180000 METAR LMML NIL=
201206172345 METAR LMML 172345Z 31003KT CAVOK 22/14 Q1016 NOSIG=
201206172315 METAR LMML 172315Z 30004KT CAVOK 22/15 Q1016 NOSIG=
201206172300 METAR LMML NIL=
201206172245 METAR LMML 172245Z 31004KT CAVOK 22/13 Q1016 NOSIG=
201206172230 METAR LMML NIL=
201206172215 METAR LMML 172215Z 32003KT CAVOK 23/15 Q1017 NOSIG=
201206172200 METAR LMML NIL=
201206172145 METAR LMML 172145Z 36004KT 340V060 CAVOK 23/15 Q1017 NOSIG=
201206172130 METAR LMML NIL=
201206172115 METAR LMML 172115Z 35004KT 320V020 CAVOK 24/16 Q1017 NOSIG=
201206172100 METAR LMML NIL=
201206172045 METAR LMML 172045Z 36004KT CAVOK 23/17 Q1017 NOSIG=
201206172030 METAR LMML NIL=
201206172015 METAR LMML 172015Z 36004KT CAVOK 24/18 Q1017 NOSIG=
201206172000 METAR LMML NIL=
201206171945 METAR LMML 171945Z 35005KT CAVOK 24/19 Q1017 NOSIG=
201206171915 METAR LMML 171915Z 35008KT CAVOK 24/18 Q1017 NOSIG=
201206171900 METAR LMML NIL=
201206171845 METAR LMML 171845Z 35008KT CAVOK 25/18 Q1017 NOSIG=
201206171830 METAR LMML NIL=
201206171815 METAR LMML 171815Z 01006KT 330V060 CAVOK 26/17 Q1016 NOSIG=
201206171800 METAR LMML NIL=
201206171745 METAR LMML 171745Z 01005KT 330V050 CAVOK 28/14 Q1016 NOSIG=
201206171715 METAR LMML 171715Z 10003KT CAVOK 29/12 Q1016 NOSIG=
201206171700 METAR LMML NIL=
201206171645 METAR LMML 171645Z 07004KT 030V130 CAVOK 29/11 Q1016 NOSIG=
201206171630 METAR LMML NIL=
201206171615 METAR LMML 171615Z 07004KT 010V110 CAVOK 30/11 Q1016 NOSIG=
201206171600 METAR LMML NIL=
201206171545 METAR LMML 171545Z 05005KT 010V100 CAVOK 31/10 Q1016 NOSIG=
201206171530 METAR LMML NIL=
201206171515 METAR LMML 171515Z 07005KT 030V120 CAVOK 30/12 Q1016 NOSIG=
201206171500 METAR LMML NIL=
201206171445 METAR LMML 171445Z 07007KT 020V110 CAVOK 31/12 Q1016 NOSIG=
201206171430 METAR LMML NIL=
201206171415 METAR LMML 171415Z 07007KT 010V120 CAVOK 31/12 Q1016 NOSIG=
201206171400 METAR LMML NIL=
201206171345 METAR LMML 171345Z 04006KT 320V120 CAVOK 32/13 Q1017 NOSIG=
201206171330 METAR LMML NIL=
201206171315 METAR LMML 171315Z 04006KT 360V080 CAVOK 32/12 Q1017 NOSIG=
201206171300 METAR LMML NIL=
201206171245 METAR LMML 171245Z 03006KT 340V070 CAVOK 32/13 Q1017 NOSIG=
201206171230 METAR LMML NIL=
201206171215 METAR LMML 171215Z 04006KT 360V080 CAVOK 32/14 Q1017 NOSIG=
201206171200 METAR LMML NIL=
201206171145 METAR LMML 171145Z 02007KT 340V090 CAVOK 32/15 Q1017 NOSIG=
201206171130 METAR LMML NIL=
201206171115 METAR LMML 171115Z 02007KT 350V070 CAVOK 31/14 Q1017 NOSIG=
201206171100 METAR LMML NIL=
201206171045 METAR LMML 171045Z 04007KT 360V090 CAVOK 31/13 Q1018 NOSIG=
201206171030 METAR LMML NIL=
201206171015 METAR LMML 171015Z 36007KT 330V050 CAVOK 31/16 Q1018 NOSIG=
201206171000 METAR LMML NIL=
201206170945 METAR LMML 170945Z 04006KT 330V120 CAVOK 30/14 Q1018 NOSIG=
201206170930 METAR LMML NIL=
201206170915 METAR LMML 170915Z 06006KT 010V110 CAVOK 31/15 Q1018 NOSIG=
201206170900 METAR LMML NIL=
201206170845 METAR LMML 170845Z 09009KT 060V130 CAVOK 30/12 Q1018 NOSIG=
201206170830 METAR LMML NIL=
201206170815 METAR LMML 170815Z 07008KT 030V120 CAVOK 29/13 Q1017 NOSIG=
201206170800 METAR LMML NIL=
201206170745 METAR LMML 170745Z 07009KT 030V110 CAVOK 29/15 Q1017 NOSIG=
201206170730 METAR LMML NIL=
201206170715 METAR LMML 170715Z 07010KT CAVOK 28/15 Q1017 NOSIG=
201206170700 METAR LMML NIL=
201206170645 METAR LMML 170645Z 06008KT 030V090 CAVOK 27/15 Q1017 NOSIG=
201206170630 METAR LMML NIL=
201206170615 METAR LMML 170615Z 06007KT 020V100 CAVOK 27/15 Q1017 NOSIG=
201206170600 METAR LMML NIL=
201206170545 METAR LMML 170545Z 03005KT CAVOK 26/14 Q1017 NOSIG=
201206170530 METAR LMML NIL=
201206170515 METAR LMML 170515Z 02003KT CAVOK 24/16 Q1017 NOSIG=
201206170500 METAR LMML NIL=
201206170445 METAR LMML 170445Z 02006KT CAVOK 23/15 Q1017 NOSIG=
201206170430 METAR LMML NIL=
201206170415 METAR LMML 170415Z 01005KT CAVOK 22/13 Q1017 NOSIG=
201206170400 METAR LMML NIL=
201206170345 METAR LMML 170345Z 34005KT CAVOK 22/14 Q1017 NOSIG=
201206170330 METAR LMML NIL=
201206170315 METAR LMML 170315Z 34006KT CAVOK 22/15 Q1016 NOSIG=
201206170300 METAR LMML NIL=
201206170245 METAR LMML 170245Z 35007KT CAVOK 22/15 Q1016 NOSIG=
201206170230 METAR LMML NIL=
201206170215 METAR LMML 170215Z 35007KT CAVOK 22/16 Q1016 NOSIG=
201206170200 METAR LMML NIL=
201206170145 METAR LMML 170145Z 34007KT CAVOK 22/16 Q1017 NOSIG=
201206170130 METAR LMML NIL=
201206170115 METAR LMML 170115Z 36006KT CAVOK 22/15 Q1017 NOSIG=
201206170100 METAR LMML NIL=
201206170045 METAR LMML 170045Z 34005KT CAVOK 22/16 Q1017 NOSIG=
201206170030 METAR LMML NIL=
201206170015 METAR LMML 170015Z 36006KT CAVOK 22/17 Q1017 NOSIG=
201206170000 METAR LMML NIL=
201206162345 METAR LMML 162345Z 36006KT CAVOK 22/17 Q1017 NOSIG=
201206162330 METAR LMML NIL=
201206162315 METAR LMML 162315Z 34004KT 290V010 CAVOK 22/18 Q1018 NOSIG=
201206162300 METAR LMML NIL=
201206162245 METAR LMML 162245Z 33004KT CAVOK 22/17 Q1018 NOSIG=
201206162230 METAR LMML NIL=
201206162215 METAR LMML 162215Z 36005KT 340V040 CAVOK 23/17 Q1018 NOSIG=
201206162200 METAR LMML NIL=
201206162145 METAR LMML 162145Z 01005KT CAVOK 23/17 Q1018 NOSIG=
201206162130 METAR LMML NIL=
201206162115 METAR LMML 162115Z 02004KT 350V060 CAVOK 23/17 Q1018 NOSIG=
201206162100 METAR LMML NIL=
201206162045 METAR LMML 162045Z 05005KT 020V080 CAVOK 24/16 Q1018 NOSIG
                        RMK SMOKE TO SW OF AIRFIELD=
201206162030 METAR LMML NIL=
201206162015 METAR LMML 162015Z 05004KT 020V080 CAVOK 24/16 Q1018 NOSIG=
201206162000 METAR LMML NIL=
201206161945 METAR LMML 161945Z 05006KT 020V110 CAVOK 24/15 Q1017 NOSIG=
201206161930 METAR LMML NIL=
201206161915 METAR LMML 161915Z 06005KT 020V090 CAVOK 24/14 Q1017 NOSIG=
201206161900 METAR LMML NIL=
201206161845 METAR LMML 161845Z 07006KT CAVOK 24/16 Q1017 NOSIG=
201206161830 METAR LMML NIL=
201206161815 METAR LMML 161815Z 07006KT 040V100 CAVOK 24/15 Q1017 NOSIG=
201206161800 METAR LMML NIL=
201206161745 METAR LMML 161745Z 09008KT CAVOK 25/13 Q1017 NOSIG=
201206161730 METAR LMML NIL=
201206161715 METAR LMML 161715Z 09007KT CAVOK 26/12 Q1017 NOSIG=
201206161700 METAR LMML NIL=
201206161645 METAR LMML 161645Z 10006KT 070V130 CAVOK 27/11 Q1017 NOSIG=
201206161630 METAR LMML NIL=
201206161615 METAR LMML 161615Z 07008KT 030V100 CAVOK 28/14 Q1017 NOSIG=
201206161600 METAR LMML NIL=
201206161545 METAR LMML 161545Z 08010KT CAVOK 28/10 Q1017 NOSIG=
201206161530 METAR LMML NIL=
201206161515 METAR LMML 161515Z 09010KT CAVOK 28/10 Q1017 NOSIG=
201206161500 METAR LMML NIL=
201206161445 METAR LMML 161445Z 08011KT 050V120 CAVOK 29/10 Q1017 NOSIG=
201206161430 METAR LMML NIL=
201206161415 METAR LMML 161415Z 10009KT CAVOK 28/10 Q1017 NOSIG=
201206161400 METAR LMML NIL=
201206161345 METAR LMML 161345Z 08010KT 050V120 CAVOK 29/11 Q1018 NOSIG=
201206161330 METAR LMML NIL=
201206161315 METAR LMML 161315Z 10008KT 060V130 CAVOK 29/10 Q1018 NOSIG=
201206161300 METAR LMML NIL=
201206161245 METAR LMML 161245Z 09008KT 050V130 CAVOK 29/10 Q1019 NOSIG=
201206161230 METAR LMML NIL=
201206161215 METAR LMML 161215Z 09008KT 040V130 CAVOK 31/11 Q1019 NOSIG=
201206161200 METAR LMML NIL=
201206161145 METAR LMML 161145Z 09008KT 060V150 CAVOK 31/08 Q1019 NOSIG=
201206161115 METAR LMML 161115Z 10009KT 070V150 CAVOK 30/09 Q1019 NOSIG=
201206161100 METAR LMML NIL=
201206161045 METAR LMML 161045Z 08009KT CAVOK 30/11 Q1020 NOSIG=
201206161030 METAR LMML NIL=
201206161015 METAR LMML 161015Z 08009KT 050V120 CAVOK 30/11 Q1020 NOSIG=
201206161000 METAR LMML NIL=
201206160945 METAR LMML 160945Z 09009KT 050V120 CAVOK 29/10 Q1020 NOSIG=
201206160930 METAR LMML NIL=
201206160915 METAR LMML 160915Z 08010KT 360V140 CAVOK 28/11 Q1019 NOSIG=
201206160900 METAR LMML NIL=
201206160845 METAR LMML 160845Z 10009KT CAVOK 28/11 Q1019 NOSIG=
201206160830 METAR LMML NIL=
201206160815 METAR LMML 160815Z 08009KT CAVOK 28/12 Q1019 NOSIG=
201206160800 METAR LMML NIL=
201206160745 METAR LMML 160745Z 09010KT 060V120 CAVOK 27/14 Q1019 NOSIG=
201206160730 METAR LMML NIL=
201206160715 METAR LMML 160715Z 08008KT CAVOK 26/14 Q1019 NOSIG=
201206160700 METAR LMML NIL=
201206160645 METAR LMML 160645Z 09008KT 050V120 CAVOK 26/16 Q1019 NOSIG=
201206160630 METAR LMML NIL=
201206160615 METAR LMML 160615Z 08007KT 060V120 CAVOK 25/17 Q1019 NOSIG=
201206160600 METAR LMML NIL=
201206160545 METAR LMML 160545Z 07007KT 040V240 9000 NSC 23/21 Q1018 NOSIG=
201206160530 METAR LMML NIL=
201206160515 METAR LMML 160515Z 06005KT 030V100 9000 FEW006 23/21 Q1018
                        NOSIG=
201206160500 METAR LMML NIL=
201206160445 METAR LMML 160445Z 04004KT 020V080 9000 FEW012 22/21 Q1018
                        NOSIG=
201206160415 METAR LMML 160415Z 04003KT 9000 FEW005 21/21 Q1018 NOSIG=
201206160400 METAR LMML NIL=
201206160345 METAR LMML 160345Z 04003KT 4000 BR FEW003 21/21 Q1018 BECMG
                        9999=
201206160315 METAR LMML 160315Z 06005KT 040V100 7000 BKN002 22/21 Q1017
                        TEMPO 3000 BR=
201206160245 METAR LMML 160245Z 07005KT 040V100 9000 FEW009 21/21 Q1017
                        NOSIG=
201206160215 METAR LMML 160215Z 07004KT CAVOK 21/21 Q1017 NOSIG=
201206160200 METAR LMML NIL=
201206160145 METAR LMML 160145Z 07005KT CAVOK 22/21 Q1017 NOSIG=
201206160130 METAR LMML NIL=
201206160115 METAR LMML 160115Z 07005KT CAVOK 22/21 Q1017 NOSIG=
201206160100 METAR LMML NIL=
201206160045 METAR LMML 160045Z 07004KT CAVOK 22/21 Q1017 NOSIG=
201206160030 METAR LMML NIL=
201206160015 METAR LMML 160015Z 08004KT CAVOK 22/21 Q1018 NOSIG=
201206160000 METAR LMML NIL=
201206152345 METAR LMML 152345Z 08005KT CAVOK 22/21 Q1018 NOSIG=
201206152330 METAR LMML NIL=
201206152315 METAR LMML 152315Z 08005KT CAVOK 22/20 Q1018 NOSIG=
201206152300 METAR LMML NIL=
201206152245 METAR LMML 152245Z 09005KT CAVOK 22/21 Q1018 NOSIG=
201206152230 METAR LMML NIL=
201206152215 METAR LMML 152215Z 09004KT CAVOK 22/20 Q1019 NOSIG=
201206152200 METAR LMML NIL=
201206152145 METAR LMML 152145Z 09004KT 050V120 CAVOK 22/21 Q1019 NOSIG=
201206152130 METAR LMML NIL=
201206152115 METAR LMML 152115Z 08004KT 040V110 9999 FEW015 22/21 Q1019
                        NOSIG=
201206152100 METAR LMML NIL=
201206152045 METAR LMML 152045Z 09003KT CAVOK 22/20 Q1019 NOSIG=
201206152030 METAR LMML NIL=
201206152015 METAR LMML 152015Z 11004KT 080V150 CAVOK 22/20 Q1019 NOSIG=
201206152000 METAR LMML NIL=
201206151945 METAR LMML 151945Z 14009KT CAVOK 23/20 Q1018 NOSIG=
201206151930 METAR LMML NIL=
201206151915 METAR LMML 151915Z 12008KT CAVOK 23/21 Q1019 NOSIG=
201206151900 METAR LMML NIL=
201206151845 METAR LMML 151845Z 13008KT CAVOK 23/20 Q1019 NOSIG=
201206151830 METAR LMML NIL=
201206151815 METAR LMML 151815Z 13009KT CAVOK 23/21 Q1018 NOSIG=
201206151800 METAR LMML NIL=
201206151745 METAR LMML 151745Z 12008KT 090V150 CAVOK 25/18 Q1019 NOSIG=
201206151730 METAR LMML NIL=
201206151715 METAR LMML 151715Z 11006KT 080V150 CAVOK 25/18 Q1018 NOSIG=
201206151700 METAR LMML NIL=
201206151645 METAR LMML 151645Z 10009KT 070V130 9999 FEW009 25/19 Q1018
                        NOSIG=
201206151615 METAR LMML 151615Z 09009KT 060V130 9999 FEW009 26/20 Q1018
                        NOSIG=
201206151600 METAR LMML NIL=
201206151545 METAR LMML 151545Z 10009KT 060V130 9999 FEW010 26/19 Q1018
                        NOSIG=
201206151530 METAR LMML NIL=
201206151515 METAR LMML 151515Z 09009KT 030V150 CAVOK 26/20 Q1018 NOSIG=
201206151500 METAR LMML NIL=
201206151445 METAR LMML 151445Z 10011KT 060V130 9999 FEW030 28/20 Q1018
                        NOSIG=
201206151430 METAR LMML NIL=
201206151415 METAR LMML 151415Z 14004KT 9999 FEW030 28/16 Q1019 NOSIG=
201206151400 METAR LMML NIL=
201206151345 METAR LMML 151345Z 17014KT 140V210 CAVOK 28/17 Q1017 NOSIG=
201206151330 METAR LMML NIL=
201206151315 METAR LMML 151315Z 16010KT 120V200 CAVOK 29/17 Q1018 NOSIG=
201206151300 METAR LMML NIL=
201206151245 METAR LMML 151245Z 17011KT 140V210 CAVOK 28/14 Q1018 NOSIG=
201206151230 METAR LMML NIL=
201206151215 METAR LMML 151215Z 15008KT 110V220 CAVOK 30/15 Q1018 NOSIG=
201206151200 METAR LMML NIL=
201206151145 METAR LMML 151145Z 18008KT 130V260 CAVOK 28/14 Q1019 NOSIG=
201206151130 METAR LMML NIL=
201206151115 METAR LMML 151115Z 15008KT 110V210 CAVOK 29/09 Q1019 NOSIG=
201206151045 METAR LMML 151045Z 13005KT 090V170 CAVOK 28/17 Q1020 NOSIG=
201206151030 METAR LMML NIL=
201206151015 METAR LMML 151015Z 13006KT 090V270 CAVOK 28/18 Q1020 NOSIG=
201206151000 METAR LMML NIL=
201206150945 METAR LMML 150945Z 13009KT 100V160 CAVOK 28/17 Q1019 NOSIG=
201206150915 METAR LMML 150915Z 13007KT 090V170 CAVOK 28/17 Q1019 NOSIG=
201206150900 METAR LMML NIL=
201206150845 METAR LMML 150845Z 04003KT CAVOK 28/19 Q1020 NOSIG=
201206150830 METAR LMML NIL=
201206150815 METAR LMML 150815Z 04009KT 020V080 9999 FEW008 27/20 Q1020
                        NOSIG=
201206150745 METAR LMML 150745Z 03008KT 360V080 9999 FEW008 27/20 Q1020
                        NOSIG=
201206150730 METAR LMML NIL=
201206150715 METAR LMML 150715Z 34006KT 310V030 CAVOK 28/13 Q1020 NOSIG=
201206150700 METAR LMML NIL=
201206150645 METAR LMML 150645Z VRB01KT CAVOK 28/10 Q1019 NOSIG=
201206150630 METAR LMML NIL=
201206150615 METAR LMML 150615Z 15004KT 110V240 CAVOK 25/17 Q1018 NOSIG=
201206150600 METAR LMML NIL=
201206150545 METAR LMML 150545Z 12006KT 9999 FEW007 SCT120 24/17 Q1018
                        NOSIG=
201206150530 METAR LMML NIL=
201206150515 METAR LMML 150515Z 13005KT 090V150 9999 FEW001 21/21 Q1017
                        NOSIG=
201206150500 METAR LMML NIL=
201206150445 METAR LMML 150445Z 12003KT 0200 R13/1000N FG SCT001 21/21
                        Q1017 NOSIG=
201206150430 METAR LMML NIL=
201206150415 METAR LMML 150415Z VRB02KT 0200 R13/0517VP1500U FG FEW001
                        20/20 Q1017 NOSIG=
201206150400 METAR LMML NIL=
201206150345 METAR LMML 150345Z VRB02KT 7000 NSC 20/19 Q1018 TEMPO FEW008=
201206150330 METAR LMML NIL=
201206150315 METAR LMML 150315Z VRB02KT CAVOK 20/18 Q1017 NOSIG=
201206150300 METAR LMML NIL=
201206150245 METAR LMML 150245Z 06003KT CAVOK 21/18 Q1018 NOSIG=
201206150230 METAR LMML NIL=
201206150215 METAR LMML 150215Z VRB02KT CAVOK 20/18 Q1018 NOSIG=
201206150200 METAR LMML NIL=
201206150145 METAR LMML 150145Z 32004KT CAVOK 20/18 Q1018 NOSIG=
201206150130 METAR LMML NIL=
201206150115 METAR LMML 150115Z VRB01KT CAVOK 20/18 Q1018 NOSIG=
201206150100 METAR LMML NIL=
201206150045 METAR LMML 150045Z VRB01KT CAVOK 21/19 Q1017 NOSIG=
201206150030 METAR LMML NIL=
201206150015 METAR LMML 150015Z 12003KT CAVOK 21/20 Q1017 NOSIG=
201206150000 METAR LMML NIL=
201206142345 METAR LMML 142345Z 12004KT CAVOK 21/19 Q1017 NOSIG=
201206142330 METAR LMML NIL=
201206142315 METAR LMML 142315Z 12003KT CAVOK 21/19 Q1018 NOSIG=
201206142245 METAR LMML 142245Z VRB02KT CAVOK 22/17 Q1018 NOSIG=
201206142230 METAR LMML NIL=
201206142215 METAR LMML 142215Z VRB02KT CAVOK 22/17 Q1018 NOSIG=
201206142200 METAR LMML NIL=
201206142145 METAR LMML 142145Z 12004KT CAVOK 21/18 Q1018 NOSIG=
201206142130 METAR LMML NIL=
201206142115 METAR LMML 142115Z 12005KT CAVOK 21/19 Q1018 NOSIG=
201206142100 METAR LMML NIL=
201206142045 METAR LMML 142045Z 13004KT CAVOK 22/19 Q1018 NOSIG=
201206142030 METAR LMML NIL=
201206142015 METAR LMML 142015Z 08003KT CAVOK 22/19 Q1018 NOSIG=
201206142000 METAR LMML NIL=
201206141945 METAR LMML 141945Z VRB02KT CAVOK 22/18 Q1018 NOSIG=
201206141930 METAR LMML NIL=
201206141915 METAR LMML 141915Z 13003KT CAVOK 23/17 Q1017 NOSIG=
201206141900 METAR LMML NIL=
201206141845 METAR LMML 141845Z 13004KT CAVOK 22/18 Q1017 NOSIG=
201206141830 METAR LMML NIL=
201206141815 METAR LMML 141815Z 13005KT CAVOK 23/17 Q1017 NOSIG=
201206141800 METAR LMML NIL=
201206141745 METAR LMML 141745Z 13007KT CAVOK 24/17 Q1017 NOSIG=
201206141730 METAR LMML NIL=
201206141715 METAR LMML 141715Z 13008KT 110V170 CAVOK 25/17 Q1017 NOSIG=
201206141645 METAR LMML 141645Z 13004KT CAVOK 26/14 Q1017 NOSIG=
201206141630 METAR LMML NIL=
201206141615 METAR LMML 141615Z 12004KT 080V150 CAVOK 26/17 Q1017 NOSIG=
201206141600 METAR LMML NIL=
201206141545 METAR LMML 141545Z 12007KT 080V160 CAVOK 26/16 Q1017 NOSIG=
201206141530 METAR LMML NIL=
201206141515 METAR LMML 141515Z 13006KT 090V160 CAVOK 27/14 Q1017 NOSIG=
201206141445 METAR LMML 141445Z 13006KT 090V160 CAVOK 27/12 Q1017 NOSIG=
201206141430 METAR LMML NIL=
201206141415 METAR LMML 141415Z 11006KT 070V160 CAVOK 28/15 Q1017 NOSIG=
201206141400 METAR LMML NIL=
201206141345 METAR LMML 141345Z 28003KT CAVOK 28/14 Q1018 NOSIG=
201206141330 METAR LMML NIL=
201206141315 METAR LMML 141315Z 06005KT 350V110 CAVOK 29/13 Q1018 NOSIG=
201206141245 METAR LMML 141245Z 09008KT 030V130 CAVOK 28/13 Q1018 NOSIG=
201206141230 METAR LMML NIL=
201206141215 METAR LMML 141215Z 04006KT 350V080 CAVOK 29/15 Q1018 NOSIG=
201206141200 METAR LMML NIL=
201206141145 METAR LMML 141145Z 04005KT 300V100 CAVOK 29/14 Q1018 NOSIG=
201206141130 METAR LMML NIL=
201206141115 METAR LMML 141115Z 19007KT CAVOK 27/14 Q1018 NOSIG=
201206141045 METAR LMML 141045Z 08007KT 030V120 CAVOK 27/13 Q1018 NOSIG=
201206141015 METAR LMML 141015Z 10007KT 060V140 CAVOK 27/12 Q1018 NOSIG=
201206141000 METAR LMML NIL=
201206140945 METAR LMML 140945Z 07011KT 030V110 CAVOK 27/14 Q1018 NOSIG=
201206140930 METAR LMML NIL=
201206140915 METAR LMML 140915Z 07011KT 040V100 CAVOK 26/16 Q1017 NOSIG=
201206140900 METAR LMML NIL=
201206140845 METAR LMML 140845Z 08010KT 040V110 CAVOK 26/16 Q1017 NOSIG=
201206140830 METAR LMML NIL=
201206140815 METAR LMML 140815Z 06005KT 360V100 CAVOK 26/17 Q1018 NOSIG=
201206140745 METAR LMML 140745Z 06009KT 020V100 CAVOK 25/17 Q1018 NOSIG=
201206140715 METAR LMML 140715Z 07010KT 030V110 CAVOK 24/17 Q1017 NOSIG=
201206140645 METAR LMML 140645Z 08012KT 9999 FEW015 23/17 Q1017 NOSIG=
201206140615 METAR LMML 140615Z 09009KT 9999 FEW012 24/18 Q1016 NOSIG=
201206140545 METAR LMML 140545Z 09008KT 060V120 9999 SCT011 23/19 Q1017
                        NOSIG=
201206140530 METAR LMML NIL=
201206140515 METAR LMML 140515Z 09008KT 060V120 9999 BKN010 22/19 Q1017
                        BECMG FEW012=
201206140500 METAR LMML NIL=
201206140445 METAR LMML 140445Z 08007KT 050V110 9999 BKN009 22/19 Q1017
                        BECMG FEW012=
201206140430 METAR LMML NIL=
201206140415 METAR LMML 140415Z 07005KT 030V110 9000 BKN009 21/19 Q1017
                        NOSIG=
201206140345 METAR LMML 140345Z 08006KT 050V110 9000 FEW008 21/19 Q1016
                        NOSIG=
201206140330 METAR LMML NIL=
201206140315 METAR LMML 140315Z 07005KT 020V090 9000 BKN010 21/19 Q1016
                        NOSIG=
201206140300 METAR LMML NIL=
201206140245 METAR LMML 140245Z 05004KT 360V090 9999 SCT009 21/19 Q1016
                        NOSIG=
201206140230 METAR LMML NIL=
201206140215 METAR LMML 140215Z 04004KT 010V080 9999 BKN009 21/19 Q1016
                        NOSIG=
201206140145 METAR LMML 140145Z 04005KT CAVOK 21/18 Q1016 NOSIG=
201206140130 METAR LMML NIL=
201206140115 METAR LMML 140115Z 03006KT CAVOK 21/18 Q1016 NOSIG=
201206140100 METAR LMML NIL=
201206140045 METAR LMML 140045Z 03006KT 360V060 CAVOK 21/18 Q1016 NOSIG=
201206140015 METAR LMML 140015Z 04005KT 010V080 9999 FEW010 21/18 Q1016
                        NOSIG=
201206132345 METAR LMML 132345Z 03004KT 360V060 9999 FEW010 22/19 Q1016
                        NOSIG=
201206132330 METAR LMML NIL=
201206132315 METAR LMML 132315Z 01004KT 9999 FEW010 22/19 Q1016 NOSIG=
201206132300 METAR LMML NIL=
201206132245 METAR LMML 132245Z 01004KT 330V060 CAVOK 22/18 Q1016 NOSIG=
201206132230 METAR LMML NIL=
201206132215 METAR LMML 132215Z 35004KT 310V010 CAVOK 22/18 Q1016 NOSIG=
201206132200 METAR LMML NIL=
201206132145 METAR LMML 132145Z 33006KT CAVOK 22/18 Q1016 NOSIG=
201206132130 METAR LMML NIL=
201206132115 METAR LMML 132115Z 35007KT 320V020 CAVOK 22/18 Q1016 NOSIG=
201206132100 METAR LMML NIL=
201206132045 METAR LMML 132045Z 35008KT 320V020 CAVOK 22/18 Q1016 NOSIG=
201206132030 METAR LMML NIL=
201206132015 METAR LMML 132015Z 33011KT CAVOK 22/18 Q1016 NOSIG=
201206132000 METAR LMML NIL=
201206131945 METAR LMML 131945Z 35009KT CAVOK 23/17 Q1016 NOSIG=
201206131930 METAR LMML NIL=
201206131915 METAR LMML 131915Z 33004KT CAVOK 24/16 Q1015 NOSIG=
201206131900 METAR LMML NIL=
201206131845 METAR LMML 131845Z 33004KT CAVOK 24/16 Q1015 NOSIG=
201206131830 METAR LMML NIL=
201206131815 METAR LMML 131815Z 33007KT CAVOK 25/15 Q1015 NOSIG=
201206131800 METAR LMML NIL=
201206131745 METAR LMML 131745Z 32006KT CAVOK 26/14 Q1014 NOSIG=
201206131730 METAR LMML NIL=
201206131715 METAR LMML 131715Z 33006KT 290V010 CAVOK 27/13 Q1014 NOSIG=
201206131645 METAR LMML 131645Z 33010KT CAVOK 27/13 Q1014 NOSIG=
201206131630 METAR LMML NIL=
201206131615 METAR LMML 131615Z 34009KT CAVOK 28/13 Q1015 NOSIG=
201206131600 METAR LMML NIL=
201206131545 METAR LMML 131545Z 33009KT 300V010 CAVOK 28/14 Q1015 NOSIG=
201206131530 METAR LMML NIL=
201206131515 METAR LMML 131515Z 34011KT CAVOK 28/15 Q1015 NOSIG=
201206131445 METAR LMML 131445Z 34012KT CAVOK 29/14 Q1015 NOSIG=
201206131430 METAR LMML NIL=
201206131415 METAR LMML 131415Z 33013KT CAVOK 30/17 Q1015 NOSIG=
201206131400 METAR LMML NIL=
201206131345 METAR LMML 131345Z 35007KT 290V040 CAVOK 31/19 Q1015 NOSIG=
201206131330 METAR LMML NIL=
201206131315 METAR LMML 131315Z 33008KT 300V360 CAVOK 31/17 Q1015 NOSIG=
201206131300 METAR LMML NIL=
201206131245 METAR LMML 131245Z 34008KT 290V040 CAVOK 32/17 Q1015 NOSIG=
201206131230 METAR LMML NIL=
201206131215 METAR LMML 131215Z 02007KT 310V080 CAVOK 31/18 Q1015 NOSIG=
201206131200 METAR LMML NIL=
201206131145 METAR LMML 131145Z 34006KT 260V060 CAVOK 31/17 Q1015 NOSIG=
201206131130 METAR LMML NIL=
201206131115 METAR LMML 131115Z 33009KT 300V030 CAVOK 31/16 Q1015 NOSIG=
201206131045 METAR LMML 131045Z 34007KT 280V020 CAVOK 32/15 Q1015 NOSIG=
201206131030 METAR LMML NIL=
201206131015 METAR LMML 131015Z 34008KT 300V030 CAVOK 31/17 Q1015 NOSIG=
201206131000 METAR LMML NIL=
201206130945 METAR LMML 130945Z 03008KT 360V100 CAVOK 31/16 Q1014 NOSIG=
201206130930 METAR LMML NIL=
201206130915 METAR LMML 130915Z 03005KT 330V100 CAVOK 30/18 Q1014 NOSIG=
201206130900 METAR LMML NIL=
201206130845 METAR LMML 130845Z 33005KT 280V040 CAVOK 29/16 Q1014 NOSIG=
201206130830 METAR LMML NIL=
201206130815 METAR LMML 130815Z 34003KT CAVOK 29/18 Q1014 NOSIG=
201206130800 METAR LMML NIL=
201206130745 METAR LMML 130745Z 33005KT 300V020 CAVOK 28/18 Q1014 NOSIG=
201206130715 METAR LMML 130715Z 32005KT 290V020 CAVOK 27/19 Q1014 NOSIG=
201206130700 METAR LMML NIL=
201206130645 METAR LMML 130645Z 32005KT 290V350 CAVOK 26/19 Q1014 NOSIG=
201206130630 METAR LMML NIL=
201206130615 METAR LMML 130615Z 31004KT 280V360 CAVOK 25/19 Q1013 NOSIG=
201206130600 METAR LMML NIL=
201206130545 METAR LMML 130545Z 31005KT CAVOK 24/19 Q1013 NOSIG=
201206130530 METAR LMML NIL=
201206130515 METAR LMML 130515Z VRB02KT CAVOK 23/19 Q1013 NOSIG=
201206130445 METAR LMML 130445Z 29003KT 9999 FEW008 22/20 Q1013 NOSIG=
201206130430 METAR LMML NIL=
201206130415 METAR LMML 130415Z 31003KT 9999 FEW008 21/19 Q1013 NOSIG=
201206130400 METAR LMML NIL=
201206130345 METAR LMML 130345Z VRB02KT 9000 FEW008 21/19 Q1012 TEMPO
                        5000 BR=
201206130330 METAR LMML NIL=
201206130315 METAR LMML 130315Z 30005KT 9000 NSC 21/20 Q1012 TEMPO 5000
                        BR=
201206130300 METAR LMML NIL=
201206130245 METAR LMML 130245Z 30006KT CAVOK 21/20 Q1012 TEMPO 8000 NSC=
201206130230 METAR LMML NIL=
201206130215 METAR LMML 130215Z 30003KT CAVOK 21/18 Q1012 NOSIG=
201206130200 METAR LMML NIL=
201206130145 METAR LMML 130145Z VRB02KT CAVOK 21/18 Q1012 NOSIG=
201206130130 METAR LMML NIL=
201206130115 METAR LMML 130115Z VRB02KT CAVOK 21/17 Q1012 NOSIG=
201206130100 METAR LMML NIL=
201206130045 METAR LMML 130045Z 29003KT CAVOK 22/17 Q1012 NOSIG=
201206130030 METAR LMML NIL=
201206130015 METAR LMML 130015Z 26003KT CAVOK 21/17 Q1012 NOSIG=
201206130000 METAR LMML NIL=
201206122345 METAR LMML 122345Z 26003KT CAVOK 21/17 Q1012 NOSIG=
201206122315 METAR LMML 122315Z VRB01KT CAVOK 22/16 Q1012 NOSIG=
201206122300 METAR LMML NIL=
201206122245 METAR LMML 122245Z VRB02KT CAVOK 22/16 Q1012 NOSIG=
201206122230 METAR LMML NIL=
201206122215 METAR LMML 122215Z 24005KT CAVOK 22/16 Q1012 NOSIG=
201206122200 METAR LMML NIL=
201206122145 METAR LMML 122145Z 24004KT CAVOK 22/16 Q1012 NOSIG=
201206122130 METAR LMML NIL=
201206122115 METAR LMML 122115Z 24003KT CAVOK 23/16 Q1012 NOSIG=
201206122100 METAR LMML NIL=
201206122045 METAR LMML 122045Z 25003KT CAVOK 23/16 Q1012 NOSIG=
201206122030 METAR LMML NIL=
201206122015 METAR LMML 122015Z 20003KT CAVOK 23/17 Q1012 NOSIG=
201206122000 METAR LMML NIL=
201206121945 METAR LMML 121945Z VRB02KT CAVOK 24/17 Q1012 NOSIG=
201206121930 METAR LMML NIL=
201206121915 METAR LMML 121915Z VRB02KT CAVOK 24/18 Q1011 NOSIG=
201206121900 METAR LMML NIL=
201206121845 METAR LMML 121845Z 24003KT CAVOK 24/18 Q1011 NOSIG=
201206121830 METAR LMML NIL=
201206121815 METAR LMML 121815Z 18005KT 150V220 CAVOK 25/17 Q1011 NOSIG=
201206121800 METAR LMML NIL=
201206121745 METAR LMML 121745Z 20005KT 160V240 CAVOK 26/17 Q1011 NOSIG=
201206121715 METAR LMML 121715Z 17005KT 140V210 CAVOK 27/17 Q1011 NOSIG=
201206121700 METAR LMML NIL=
201206121645 METAR LMML 121645Z 19007KT 150V230 CAVOK 27/15 Q1011 NOSIG=
201206121630 METAR LMML NIL=
201206121615 METAR LMML 121615Z 20005KT 140V260 CAVOK 28/15 Q1011 NOSIG=
201206121545 METAR LMML 121545Z 21009KT 150V250 CAVOK 29/14 Q1011 NOSIG=
201206121515 METAR LMML 121515Z 21010KT 160V250 CAVOK 29/13 Q1011 NOSIG=
201206121445 METAR LMML 121445Z 21011KT 160V250 CAVOK 28/14 Q1011 NOSIG=
201206121430 METAR LMML NIL=
201206121415 METAR LMML 121415Z 20010KT 160V250 CAVOK 28/14 Q1011 NOSIG=
201206121400 METAR LMML NIL=
201206121345 METAR LMML 121345Z 21012KT 160V250 CAVOK 29/16 Q1011 NOSIG=
201206121315 METAR LMML 121315Z 21012KT 150V260 CAVOK 28/16 Q1011 NOSIG=
201206121245 METAR LMML 121245Z 19012KT 160V240 CAVOK 28/16 Q1011 NOSIG=
201206121230 METAR LMML NIL=
201206121215 METAR LMML 121215Z 20011KT 140V270 CAVOK 28/17 Q1011 NOSIG=
201206121200 METAR LMML NIL=
201206121145 METAR LMML 121145Z 20013KT 160V240 CAVOK 28/16 Q1011 NOSIG=
201206121115 METAR LMML 121115Z 21013KT 150V250 CAVOK 28/16 Q1011 NOSIG=
201206121100 METAR LMML NIL=
201206121045 METAR LMML 121045Z 21013KT 140V250 CAVOK 28/17 Q1011 NOSIG=
201206121030 METAR LMML NIL=
201206121015 METAR LMML 121015Z 20014KT 140V260 CAVOK 27/17 Q1011 NOSIG=
201206120945 METAR LMML 120945Z 20013KT 150V270 CAVOK 27/18 Q1011 NOSIG=
201206120930 METAR LMML NIL=
201206120915 METAR LMML 120915Z 19012KT 130V260 CAVOK 27/17 Q1011 NOSIG=
201206120845 METAR LMML 120845Z 19012KT 130V240 CAVOK 27/17 Q1011 NOSIG=
201206120830 METAR LMML NIL=
201206120815 METAR LMML 120815Z 19009KT 150V240 CAVOK 26/18 Q1011 NOSIG=
201206120800 METAR LMML NIL=
201206120745 METAR LMML 120745Z 20010KT 160V250 CAVOK 26/17 Q1011 NOSIG=
201206120730 METAR LMML NIL=
201206120715 METAR LMML 120715Z 19009KT 150V240 CAVOK 26/18 Q1011 NOSIG=
201206120700 METAR LMML NIL=
201206120645 METAR LMML 120645Z 18007KT 140V240 CAVOK 25/17 Q1011 NOSIG=
201206120630 METAR LMML NIL=
201206120615 METAR LMML 120615Z 19007KT 170V230 CAVOK 25/18 Q1011 NOSIG=
201206120545 METAR LMML 120545Z 19007KT 150V250 CAVOK 24/17 Q1011 NOSIG=
201206120530 METAR LMML NIL=
201206120515 METAR LMML 120515Z 19006KT 150V240 CAVOK 23/19 Q1011 NOSIG=
201206120500 METAR LMML NIL=
201206120445 METAR LMML 120445Z 18005KT 150V250 CAVOK 22/17 Q1011 NOSIG=
201206120430 METAR LMML NIL=
201206120415 METAR LMML 120415Z 20005KT 160V240 CAVOK 21/17 Q1010 NOSIG=
201206120400 METAR LMML NIL=
201206120345 METAR LMML 120345Z 21006KT 160V240 CAVOK 21/16 Q1010 NOSIG=
201206120330 METAR LMML NIL=
201206120315 METAR LMML 120315Z 22005KT 180V250 CAVOK 21/14 Q1010 NOSIG=
201206120300 METAR LMML NIL=
201206120245 METAR LMML 120245Z 22004KT CAVOK 21/14 Q1010 NOSIG=
201206120230 METAR LMML NIL=
201206120215 METAR LMML 120215Z 23004KT 200V260 CAVOK 21/13 Q1010 NOSIG=
201206120200 METAR LMML NIL=
201206120145 METAR LMML 120145Z 22004KT 180V250 CAVOK 21/15 Q1010 NOSIG=
201206120130 METAR LMML NIL=
201206120115 METAR LMML 120115Z 21004KT 170V240 CAVOK 20/14 Q1010 NOSIG=
201206120100 METAR LMML NIL=
201206120045 METAR LMML 120045Z 23003KT CAVOK 20/18 Q1011 NOSIG=
201206120030 METAR LMML NIL=
201206120015 METAR LMML 120015Z 19003KT CAVOK 21/20 Q1011 NOSIG=
201206120000 METAR LMML NIL=
201206112345 METAR LMML 112345Z VRB02KT CAVOK 21/20 Q1011 NOSIG=
201206112330 METAR LMML NIL=
201206112315 METAR LMML 112315Z 20003KT CAVOK 21/19 Q1011 NOSIG=
201206112300 METAR LMML NIL=
201206112245 METAR LMML 112245Z 18003KT CAVOK 21/19 Q1011 NOSIG=
201206112215 METAR LMML 112215Z VRB01KT CAVOK 21/16 Q1011 NOSIG=
201206112145 METAR LMML 112145Z 25004KT CAVOK 21/15 Q1011 NOSIG=
201206112115 METAR LMML 112115Z 25004KT CAVOK 21/18 Q1011 NOSIG=
201206112100 METAR LMML NIL=
201206112045 METAR LMML 112045Z 24006KT CAVOK 22/18 Q1011 NOSIG=
201206112030 METAR LMML NIL=
201206112015 METAR LMML 112015Z 24003KT CAVOK 22/16 Q1011 NOSIG=
201206111945 METAR LMML 111945Z 21003KT CAVOK 22/16 Q1011 NOSIG=
201206111930 METAR LMML NIL=
201206111915 METAR LMML 111915Z VRB01KT CAVOK 23/14 Q1011 NOSIG=
201206111900 METAR LMML NIL=
201206111845 METAR LMML 111845Z 24003KT CAVOK 23/12 Q1011 NOSIG=
201206111830 METAR LMML NIL=
201206111815 METAR LMML 111815Z 25006KT CAVOK 24/11 Q1011 NOSIG=
201206111800 METAR LMML NIL=
201206111745 METAR LMML 111745Z 26006KT 230V290 CAVOK 24/15 Q1011 NOSIG=
201206111730 METAR LMML NIL=
201206111715 METAR LMML 111715Z 25007KT 210V290 CAVOK 25/17 Q1011 NOSIG=
201206111645 METAR LMML 111645Z 25007KT 210V280 CAVOK 25/17 Q1011 NOSIG=
201206111630 METAR LMML NIL=
201206111615 METAR LMML 111615Z 23007KT 200V280 CAVOK 26/16 Q1011 NOSIG=
201206111600 METAR LMML NIL=
201206111545 METAR LMML 111545Z 23008KT 190V270 CAVOK 26/17 Q1011 NOSIG=
201206111530 METAR LMML NIL=
201206111515 METAR LMML 111515Z 26006KT 220V300 CAVOK 28/13 Q1011 NOSIG=
201206111445 METAR LMML 111445Z 25008KT 210V290 CAVOK 28/16 Q1011 NOSIG=
201206111430 METAR LMML NIL=
201206111415 METAR LMML 111415Z 24008KT 190V280 CAVOK 28/16 Q1011 NOSIG=
201206111345 METAR LMML 111345Z 26007KT 220V310 CAVOK 29/15 Q1011 NOSIG=
201206111330 METAR LMML NIL=
201206111315 METAR LMML 111315Z 26008KT 230V310 CAVOK 29/14 Q1012 NOSIG=
201206111300 METAR LMML NIL=
201206111245 METAR LMML 111245Z 26008KT 230V340 CAVOK 29/13 Q1012 NOSIG=
201206111230 METAR LMML NIL=
201206111215 METAR LMML 111215Z 28008KT 250V310 CAVOK 29/13 Q1012 NOSIG=
201206111200 METAR LMML NIL=
201206111145 METAR LMML 111145Z 28008KT 240V330 CAVOK 30/13 Q1012 NOSIG=
201206111130 METAR LMML NIL=
201206111115 METAR LMML 111115Z 28009KT 240V310 CAVOK 29/13 Q1012 NOSIG=
201206111100 METAR LMML NIL=
201206111045 METAR LMML 111045Z 27009KT 240V310 CAVOK 28/14 Q1012 NOSIG=
201206111030 METAR LMML NIL=
201206111015 METAR LMML 111015Z 28008KT 220V330 CAVOK 29/13 Q1013 NOSIG=
201206111000 METAR LMML NIL=
201206110945 METAR LMML 110945Z 31008KT 280V070 9999 FEW015 30/12 Q1012
                        NOSIG=
201206110930 METAR LMML NIL=
201206110915 METAR LMML 110915Z 29006KT 240V330 9999 FEW010 29/13 Q1012
                        NOSIG=
201206110900 METAR LMML NIL=
201206110845 METAR LMML 110845Z 27007KT 230V320 9999 FEW010 27/15 Q1012
                        NOSIG=
201206110830 METAR LMML NIL=
201206110815 METAR LMML 110815Z 27007KT 230V320 9999 FEW010 26/17 Q1012
                        NOSIG=
201206110800 METAR LMML NIL=
201206110745 METAR LMML 110745Z 26007KT 210V300 9999 FEW010 25/19 Q1012
                        NOSIG=
201206110730 METAR LMML NIL=
201206110715 METAR LMML 110715Z 27008KT 240V310 9999 FEW010 24/20 Q1012
                        NOSIG=
201206110700 METAR LMML NIL=
201206110645 METAR LMML 110645Z 23010KT 9000 FEW010 23/20 Q1012 BECMG
                        9999=
201206110630 METAR LMML NIL=
201206110615 METAR LMML 110615Z 24011KT 210V270 9000 SCT006 22/20 Q1012
                        BECMG 9999=
201206110600 METAR LMML NIL=
201206110545 METAR LMML 110545Z 24010KT 200V280 9000 SCT006 22/20 Q1012
                        BECMG 9999=
201206110530 METAR LMML NIL=
201206110515 METAR LMML 110515Z 25008KT 220V290 9000 FEW012 21/19 Q1012
                        BECMG 9999=
201206110445 METAR LMML 110445Z 25006KT 200V280 9000 FEW012 21/19 Q1012
                        BECMG 9999=
201206110430 METAR LMML NIL=
201206110415 METAR LMML 110415Z 26004KT 200V290 9000 FEW012 20/19 Q1012
                        NOSIG=
201206110400 METAR LMML NIL=
201206110345 METAR LMML 110345Z 25006KT 220V290 9000 FEW012 20/19 Q1012
                        TEMPO BKN008=
201206110330 METAR LMML NIL=
201206110315 METAR LMML 110315Z 25004KT 220V310 9000 FEW012 20/19 Q1012
                        TEMPO BKN008=
201206110300 METAR LMML NIL=
201206110245 METAR LMML 110245Z 26006KT 230V290 9000 NSC 20/19 Q1012 TEMPO
                        9999 FEW006=
201206110230 METAR LMML NIL=
201206110215 METAR LMML 110215Z 25003KT 9000 NSC 20/19 Q1012 TEMPO 9999
                        FEW006=
201206110200 METAR LMML NIL=
201206110145 METAR LMML 110145Z 27003KT CAVOK 20/19 Q1012 TEMPO 9999 FEW006=
201206110130 METAR LMML NIL=
201206110115 METAR LMML 110115Z 26005KT 230V290 CAVOK 20/19 Q1012 TEMPO
                        9999 FEW006=
201206110045 METAR LMML 110045Z 26006KT CAVOK 20/19 Q1012 TEMPO 9999 FEW006=
201206110030 METAR LMML NIL=
201206110015 METAR LMML 110015Z 27006KT 240V300 CAVOK 20/19 Q1012 TEMPO
                        9999 FEW006=
201206110000 METAR LMML NIL=
201206102345 METAR LMML 102345Z VRB02KT CAVOK 20/19 Q1012 TEMPO 9999 FEW006=
201206102330 METAR LMML NIL=
201206102315 METAR LMML 102315Z 26004KT CAVOK 20/19 Q1013 TEMPO 9999 FEW006=
201206102300 METAR LMML NIL=
201206102245 METAR LMML 102245Z VRB01KT CAVOK 20/16 Q1013 TEMPO 9999 FEW006=
201206102230 METAR LMML NIL=
201206102215 METAR LMML 102215Z 28003KT CAVOK 21/16 Q1013 NOSIG=
201206102200 METAR LMML NIL=
201206102145 METAR LMML 102145Z 28005KT CAVOK 21/17 Q1013 NOSIG=
201206102130 METAR LMML NIL=
201206102115 METAR LMML 102115Z 28006KT 240V300 CAVOK 21/16 Q1013 NOSIG=
201206102100 METAR LMML NIL=
201206102045 METAR LMML 102045Z 27004KT 240V300 CAVOK 21/14 Q1013 NOSIG=
201206102030 METAR LMML NIL=
201206102015 METAR LMML 102015Z 28005KT 250V330 CAVOK 21/14 Q1013 NOSIG=
201206102000 METAR LMML NIL=
201206101945 METAR LMML 101945Z VRB02KT CAVOK 21/17 Q1012 NOSIG RMK SMOKE
                        TO NORTH=
201206101930 METAR LMML NIL=
201206101915 METAR LMML 101915Z 31003KT CAVOK 21/18 Q1012 NOSIG=
201206101900 METAR LMML NIL=
201206101845 METAR LMML 101845Z 31004KT CAVOK 22/18 Q1012 NOSIG=
201206101830 METAR LMML NIL=
201206101815 METAR LMML 101815Z 31006KT 9999 FEW007 22/17 Q1012 NOSIG=
201206101800 METAR LMML NIL=
201206101745 METAR LMML 101745Z 31008KT 9999 FEW007 23/18 Q1012 NOSIG=
201206101715 METAR LMML 101715Z 29006KT 250V320 9999 FEW007 25/17 Q1012
                        NOSIG=
201206101645 METAR LMML 101645Z 26004KT 210V320 9999 FEW007 27/15 Q1012
                        NOSIG=
201206101630 METAR LMML NIL=
201206101615 METAR LMML 101615Z 23006KT 210V270 9999 FEW007 27/15 Q1012
                        NOSIG=
201206101600 METAR LMML NIL=
201206101545 METAR LMML 101545Z 23008KT CAVOK 27/15 Q1012 NOSIG=
201206101515 METAR LMML 101515Z 22005KT 160V290 CAVOK 28/15 Q1012 NOSIG=
201206101500 METAR LMML NIL=
201206101445 METAR LMML 101445Z 23007KT 200V280 CAVOK 27/16 Q1012 NOSIG=
201206101430 METAR LMML NIL=
201206101415 METAR LMML 101415Z 23008KT 190V270 CAVOK 27/16 Q1013 NOSIG=
201206101400 METAR LMML NIL=
201206101345 METAR LMML 101345Z 23008KT 170V300 CAVOK 27/15 Q1013 NOSIG=
201206101330 METAR LMML NIL=
201206101315 METAR LMML 101315Z 24008KT 200V280 CAVOK 27/15 Q1013 NOSIG=
201206101300 METAR LMML NIL=
201206101245 METAR LMML 101245Z 22009KT 180V260 CAVOK 28/14 Q1013 NOSIG=
201206101230 METAR LMML NIL=
201206101215 METAR LMML 101215Z 21007KT 110V280 CAVOK 27/17 Q1013 NOSIG=
201206101200 METAR LMML NIL=
201206101145 METAR LMML 101145Z 20009KT 150V260 CAVOK 27/17 Q1014 NOSIG=
201206101130 METAR LMML NIL=
201206101115 METAR LMML 101115Z 21008KT 150V250 CAVOK 27/15 Q1014 NOSIG=
201206101045 METAR LMML 101045Z 19006KT 130V250 CAVOK 28/13 Q1014 NOSIG=
201206101030 METAR LMML NIL=
201206101015 METAR LMML 101015Z 19005KT 120V260 CAVOK 29/09 Q1014 NOSIG=
201206101000 METAR LMML NIL=
201206100945 METAR LMML 100945Z 17003KT CAVOK 29/10 Q1014 NOSIG=
201206100930 METAR LMML NIL=
201206100915 METAR LMML 100915Z 15004KT 090V020 CAVOK 28/13 Q1014 NOSIG=
201206100900 METAR LMML NIL=
201206100845 METAR LMML 100845Z 12003KT CAVOK 28/15 Q1014 NOSIG=
201206100830 METAR LMML NIL=
201206100815 METAR LMML 100815Z 12006KT 080V180 CAVOK 27/16 Q1014 NOSIG=
201206100800 METAR LMML NIL=
201206100745 METAR LMML 100745Z VRB02KT CAVOK 27/13 Q1014 NOSIG=
201206100715 METAR LMML 100715Z 06003KT CAVOK 27/16 Q1014 NOSIG=
201206100700 METAR LMML NIL=
201206100645 METAR LMML 100645Z 04003KT CAVOK 26/18 Q1014 NOSIG=
201206100630 METAR LMML NIL=
201206100615 METAR LMML 100615Z 03003KT CAVOK 24/18 Q1014 NOSIG=
201206100545 METAR LMML 100545Z VRB02KT CAVOK 22/18 Q1014 NOSIG=
201206100530 METAR LMML NIL=
201206100515 METAR LMML 100515Z VRB01KT CAVOK 21/18 Q1014 NOSIG=
201206100445 METAR LMML 100445Z VRB02KT CAVOK 20/18 Q1014 NOSIG=
201206100430 METAR LMML NIL=
201206100415 METAR LMML 100415Z 29003KT 9000 FEW012 19/19 Q1014 NOSIG=
201206100400 METAR LMML NIL=
201206100345 METAR LMML 100345Z VRB02KT CAVOK 19/19 Q1014 TEMPO 8000 FEW006=
201206100330 METAR LMML NIL=
201206100315 METAR LMML 100315Z VRB02KT CAVOK 19/18 Q1014 TEMPO 8000 FEW006=
201206100300 METAR LMML NIL=
201206100245 METAR LMML 100245Z VRB02KT CAVOK 20/18 Q1014 TEMPO 8000 FEW006=
201206100230 METAR LMML NIL=
201206100215 METAR LMML 100215Z 30003KT CAVOK 20/19 Q1014 TEMPO 8000 FEW006=
201206100200 METAR LMML NIL=
201206100145 METAR LMML 100145Z 31004KT CAVOK 20/19 Q1014 TEMPO 8000 FEW006=
201206100130 METAR LMML NIL=
201206100115 METAR LMML 100115Z 31004KT CAVOK 21/19 Q1014 TEMPO 8000 FEW006=
201206100100 METAR LMML NIL=
201206100045 METAR LMML 100045Z 30005KT 9999 FEW011 BKN120 21/19 Q1014
                        TEMPO 8000 FEW006=
201206100030 METAR LMML NIL=
201206100015 METAR LMML 100015Z 33004KT CAVOK 21/18 Q1014 NOSIG=
201206100000 METAR LMML NIL=
201206092345 METAR LMML 092345Z 32005KT 290V350 CAVOK 21/18 Q1014 NOSIG=
201206092330 METAR LMML NIL=
201206092315 METAR LMML 092315Z 32005KT 300V010 CAVOK 21/17 Q1014 NOSIG=
201206092245 METAR LMML 092245Z 01003KT CAVOK 21/17 Q1014 NOSIG=
201206092230 METAR LMML NIL=
201206092215 METAR LMML 092215Z VRB01KT CAVOK 21/17 Q1015 NOSIG=
201206092200 METAR LMML NIL=
201206092145 METAR LMML 092145Z 28004KT 230V310 CAVOK 21/18 Q1015 NOSIG=
201206092130 METAR LMML NIL=
201206092115 METAR LMML 092115Z 23004KT 140V280 CAVOK 21/19 Q1015 NOSIG=
201206092100 METAR LMML NIL=
201206092045 METAR LMML 092045Z 12010KT CAVOK 21/19 Q1014 NOSIG=
201206092030 METAR LMML NIL=
201206092015 METAR LMML 092015Z 12009KT 100V160 CAVOK 22/19 Q1014 NOSIG=
201206092000 METAR LMML NIL=
201206091945 METAR LMML 091945Z 11008KT CAVOK 22/19 Q1014 NOSIG=
201206091930 METAR LMML NIL=
201206091915 METAR LMML 091915Z 14006KT 120V190 CAVOK 22/19 Q1014 NOSIG=
201206091900 METAR LMML NIL=
201206091845 METAR LMML 091845Z 13008KT CAVOK 22/19 Q1014 NOSIG=
201206091830 METAR LMML NIL=
201206091815 METAR LMML 091815Z 12009KT CAVOK 22/19 Q1014 NOSIG=
201206091800 METAR LMML NIL=
201206091745 METAR LMML 091745Z 13008KT CAVOK 23/19 Q1014 NOSIG=
201206091730 METAR LMML NIL=
201206091715 METAR LMML 091715Z 13007KT 100V170 CAVOK 23/18 Q1014 NOSIG=
201206091700 METAR LMML NIL=
201206091645 METAR LMML 091645Z 11011KT CAVOK 24/18 Q1014 NOSIG=
201206091630 METAR LMML NIL=
201206091615 METAR LMML 091615Z 11007KT 090V150 CAVOK 25/17 Q1014 NOSIG=
201206091600 METAR LMML NIL=
201206091545 METAR LMML 091545Z 12010KT CAVOK 25/18 Q1014 NOSIG=
201206091530 METAR LMML NIL=
201206091515 METAR COR LMML 091515Z 10009KT CAVOK 25/18 Q1014 NOSIG=
201206091445 METAR LMML 091445Z 12010KT 090V150 CAVOK 27/17 Q1015 NOSIG=
201206091430 METAR LMML NIL=
201206091415 METAR LMML 091415Z 12007KT 090V160 CAVOK 27/16 Q1015 NOSIG=
201206091400 METAR LMML NIL=
201206091345 METAR LMML 091345Z 12007KT 090V160 CAVOK 28/18 Q1016 NOSIG=
201206091330 METAR LMML NIL=
201206091315 METAR LMML 091315Z 12007KT 070V170 CAVOK 28/17 Q1016 NOSIG=
201206091300 METAR LMML NIL=
201206091245 METAR LMML 091245Z 13007KT 100V190 CAVOK 28/17 Q1016 NOSIG=
201206091230 METAR LMML NIL=
201206091215 METAR LMML 091215Z 12006KT 070V180 CAVOK 28/16 Q1016 NOSIG=
201206091200 METAR LMML NIL=
201206091145 METAR LMML 091145Z 12004KT 060V170 9999 FEW012 27/17 Q1017
                        NOSIG=
201206091130 METAR LMML NIL=
201206091115 METAR LMML 091115Z 12007KT 070V170 9999 FEW012 27/18 Q1016
                        NOSIG=
201206091045 METAR LMML 091045Z 12008KT 080V160 9999 FEW010 27/18 Q1016
                        NOSIG=
201206091030 METAR LMML NIL=
201206091015 METAR LMML 091015Z 12008KT CAVOK 27/15 Q1017 NOSIG=
201206091000 METAR LMML NIL=
201206090945 METAR LMML 090945Z 12006KT 080V180 9999 FEW012 27/17 Q1017
                        NOSIG=
201206090915 METAR LMML 090915Z 13006KT 080V190 9999 FEW010 26/17 Q1017
                        NOSIG=
201206090900 METAR LMML NIL=
201206090845 METAR LMML 090845Z 12007KT 100V180 9999 FEW008 26/18 Q1016
                        NOSIG=
201206090830 METAR LMML NIL=
201206090815 METAR LMML 090815Z 12006KT 090V180 9999 FEW008 26/18 Q1016
                        NOSIG=
201206090800 METAR LMML NIL=
201206090745 METAR LMML 090745Z 14007KT 100V210 9999 FEW008 25/18 Q1016
                        NOSIG=
201206090730 METAR LMML NIL=
201206090715 METAR LMML 090715Z 13007KT 9999 FEW008 24/17 Q1016 NOSIG=
201206090700 METAR LMML NIL=
201206090645 METAR LMML 090645Z 15006KT 110V190 CAVOK 24/19 Q1016 NOSIG=
201206090630 METAR LMML NIL=
201206090615 METAR LMML 090615Z 15006KT 120V200 CAVOK 23/19 Q1016 NOSIG=
201206090600 METAR LMML NIL=
201206090545 METAR LMML 090545Z 16007KT CAVOK 22/19 Q1016 NOSIG=
201206090530 METAR LMML NIL=
201206090515 METAR LMML 090515Z 16005KT 120V210 CAVOK 22/19 Q1015 NOSIG=
201206090500 METAR LMML NIL=
201206090445 METAR LMML 090445Z 14007KT 110V170 CAVOK 21/19 Q1015 NOSIG=
201206090430 METAR LMML NIL=
201206090415 METAR LMML 090415Z 15006KT 120V180 CAVOK 20/19 Q1015 NOSIG=
201206090400 METAR LMML NIL=
201206090345 METAR LMML 090345Z 14007KT CAVOK 20/19 Q1015 NOSIG=
201206090330 METAR LMML NIL=
201206090315 METAR LMML 090315Z 15005KT 120V220 CAVOK 20/19 Q1015 NOSIG=
201206090300 METAR LMML NIL=
201206090245 METAR LMML 090245Z 14009KT CAVOK 20/19 Q1014 NOSIG=
201206090230 METAR LMML NIL=
201206090215 METAR LMML 090215Z 14008KT CAVOK 20/19 Q1014 NOSIG=
201206090200 METAR LMML NIL=
201206090145 METAR LMML 090145Z 14009KT CAVOK 20/19 Q1014 NOSIG=
201206090130 METAR LMML NIL=
201206090115 METAR LMML 090115Z 15005KT CAVOK 20/19 Q1015 NOSIG=
201206090100 METAR LMML NIL=
201206090045 METAR LMML 090045Z 15006KT 120V180 CAVOK 20/19 Q1015 NOSIG=
201206090030 METAR LMML NIL=
201206090015 METAR LMML 090015Z 14008KT CAVOK 21/19 Q1015 NOSIG=
201206090000 METAR LMML NIL=
201206082345 METAR LMML 082345Z 14010KT 110V170 CAVOK 21/19 Q1015 NOSIG=
201206082330 METAR LMML NIL=
201206082315 METAR LMML 082315Z 14008KT CAVOK 21/19 Q1015 NOSIG=
201206082300 METAR LMML NIL=
201206082245 METAR LMML 082245Z 14007KT CAVOK 21/19 Q1015 NOSIG=
201206082230 METAR LMML NIL=
201206082215 METAR LMML 082215Z 14006KT CAVOK 21/19 Q1016 NOSIG=
201206082200 METAR LMML NIL=
201206082145 METAR LMML 082145Z 14007KT CAVOK 21/19 Q1016 NOSIG=
201206082130 METAR LMML NIL=
201206082115 METAR LMML 082115Z 13007KT CAVOK 21/19 Q1016 NOSIG=
201206082100 METAR LMML NIL=
201206082045 METAR LMML 082045Z 13007KT CAVOK 21/19 Q1016 NOSIG=
201206082030 METAR LMML NIL=
201206082015 METAR LMML 082015Z 14008KT CAVOK 21/19 Q1016 NOSIG=
201206082000 METAR LMML NIL=
201206081945 METAR LMML 081945Z 14005KT CAVOK 21/19 Q1016 NOSIG=
201206081930 METAR LMML NIL=
201206081915 METAR LMML 081915Z 16005KT 120V200 CAVOK 21/19 Q1016 NOSIG=
201206081900 METAR LMML NIL=
201206081845 METAR LMML 081845Z 16006KT CAVOK 22/19 Q1015 NOSIG=
201206081830 METAR LMML NIL=
201206081815 METAR LMML 081815Z 15008KT CAVOK 22/19 Q1016 NOSIG=
201206081800 METAR LMML NIL=
201206081745 METAR LMML 081745Z 15009KT CAVOK 23/18 Q1016 NOSIG=
201206081730 METAR LMML NIL=
201206081715 METAR LMML 081715Z 15007KT 120V200 CAVOK 24/18 Q1016 NOSIG=
201206081645 METAR LMML 081645Z 15008KT 120V180 CAVOK 24/17 Q1016 NOSIG=
201206081630 METAR LMML NIL=
201206081615 METAR LMML 081615Z 16008KT 130V190 CAVOK 25/16 Q1016 NOSIG=
201206081600 METAR LMML NIL=
201206081545 METAR LMML 081545Z 16008KT 120V200 CAVOK 26/15 Q1016 NOSIG=
201206081530 METAR LMML NIL=
201206081515 METAR LMML 081515Z 15008KT 120V200 CAVOK 26/14 Q1016 NOSIG=
201206081445 METAR LMML 081445Z 14010KT 120V190 CAVOK 26/14 Q1016 NOSIG=
201206081430 METAR LMML NIL=
201206081415 METAR LMML 081415Z 15009KT 110V210 CAVOK 27/14 Q1016 NOSIG=
201206081400 METAR LMML NIL=
201206081345 METAR LMML 081345Z 15010KT 120V190 CAVOK 27/12 Q1016 NOSIG=
201206081330 METAR LMML NIL=
201206081315 METAR LMML 081315Z 16009KT 120V220 CAVOK 27/13 Q1016 NOSIG=
201206081300 METAR LMML NIL=
201206081245 METAR LMML 081245Z 16009KT 120V220 CAVOK 27/15 Q1016 NOSIG=
201206081230 METAR LMML NIL=
201206081215 METAR LMML 081215Z 17008KT 130V250 CAVOK 27/13 Q1016 NOSIG=
201206081145 METAR LMML 081145Z 16010KT CAVOK 27/13 Q1016 NOSIG=
201206081130 METAR LMML NIL=
201206081115 METAR LMML 081115Z 17007KT 140V210 CAVOK 27/12 Q1016 NOSIG=
201206081045 METAR LMML 081045Z 18006KT 110V240 CAVOK 27/13 Q1017 NOSIG=
201206081030 METAR LMML NIL=
201206081015 METAR LMML 081015Z 17007KT 130V220 CAVOK 26/13 Q1017 NOSIG=
201206080945 METAR LMML 080945Z 18007KT 140V240 CAVOK 26/15 Q1016 NOSIG=
201206080930 METAR LMML NIL=
201206080915 METAR LMML 080915Z 17008KT 140V210 CAVOK 26/16 Q1016 NOSIG=
201206080900 METAR LMML NIL=
201206080845 METAR LMML 080845Z 18008KT 150V230 CAVOK 25/16 Q1016 NOSIG=
201206080830 METAR LMML NIL=
201206080815 METAR LMML 080815Z 18010KT 150V220 9999 FEW011 24/17 Q1016
                        NOSIG=
201206080800 METAR LMML NIL=
201206080745 METAR LMML 080745Z 16009KT 130V240 9999 FEW011 24/18 Q1016
                        NOSIG=
201206080730 METAR LMML NIL=
201206080715 METAR LMML 080715Z 17009KT 150V240 9999 FEW009 23/19 Q1016
                        NOSIG=
201206080700 METAR LMML NIL=
201206080645 METAR LMML 080645Z 16009KT 140V200 9999 FEW008 23/19 Q1016
                        NOSIG=
201206080630 METAR LMML NIL=
201206080615 METAR LMML 080615Z 16008KT 9000 SCT007 22/19 Q1015 BECMG
                        9999=
201206080545 METAR LMML 080545Z 16006KT 120V220 9000 SCT006 21/20 Q1015
                        BECMG 9999=
201206080530 METAR LMML NIL=
201206080515 METAR LMML 080515Z 16006KT 130V190 9000 SCT006 21/20 Q1015
                        BECMG 9999=
201206080445 METAR LMML 080445Z 16004KT 140V210 9000 SCT006 SCT250 20/19
                        Q1015 BECMG CAVOK=
201206080430 METAR LMML NIL=
201206080415 METAR LMML 080415Z 14004KT 9000 FEW006 18/17 Q1015 NOSIG=
201206080400 METAR LMML NIL=
201206080345 METAR LMML 080345Z 16004KT 140V200 9000 FEW012 19/18 Q1015
                        NOSIG=
201206080330 METAR LMML NIL=
201206080315 METAR LMML 080315Z 21004KT 160V250 9000 NSC 18/18 Q1015 NOSIG=
201206080300 METAR LMML NIL=
201206080245 METAR LMML 080245Z 18003KT 9000 NSC 18/18 Q1014 NOSIG=
201206080230 METAR LMML NIL=
201206080215 METAR LMML 080215Z 12005KT 9000 NSC 18/17 Q1014 NOSIG=
201206080200 METAR LMML NIL=
201206080145 METAR LMML 080145Z 14004KT CAVOK 18/18 Q1015 NOSIG=
201206080130 METAR LMML NIL=
201206080115 METAR LMML 080115Z VRB02KT CAVOK 18/17 Q1015 NOSIG=
201206080045 METAR LMML 080045Z VRB01KT CAVOK 18/17 Q1015 NOSIG=
201206080030 METAR LMML NIL=
201206080015 METAR LMML 080015Z VRB01KT CAVOK 18/17 Q1015 NOSIG=
201206080000 METAR LMML NIL=
201206072345 METAR LMML 072345Z VRB01KT CAVOK 18/16 Q1015 NOSIG=
201206072330 METAR LMML NIL=
201206072315 METAR LMML 072315Z VRB01KT CAVOK 19/17 Q1015 NOSIG=
201206072245 METAR LMML 072245Z 00000KT CAVOK 18/16 Q1015 NOSIG=
201206072230 METAR LMML NIL=
201206072215 METAR LMML 072215Z VRB02KT CAVOK 20/17 Q1015 NOSIG=
201206072200 METAR LMML NIL=
201206072145 METAR LMML 072145Z VRB01KT CAVOK 20/17 Q1015 NOSIG=
201206072115 METAR LMML 072115Z 12003KT CAVOK 20/17 Q1015 NOSIG=
201206072100 METAR LMML NIL=
201206072045 METAR LMML 072045Z 14004KT CAVOK 20/17 Q1015 NOSIG=
201206072030 METAR LMML NIL=
201206072015 METAR LMML 072015Z 12003KT CAVOK 20/17 Q1015 NOSIG=
201206072000 METAR LMML NIL=
201206071945 METAR LMML 071945Z 16003KT CAVOK 21/17 Q1015 NOSIG=
201206071930 METAR LMML NIL=
201206071915 METAR LMML 071915Z 16003KT CAVOK 21/17 Q1015 NOSIG=
201206071900 METAR LMML NIL=
201206071845 METAR LMML 071845Z 17003KT CAVOK 21/17 Q1015 NOSIG=
201206071830 METAR LMML NIL=
201206071815 METAR LMML 071815Z 17004KT 140V220 CAVOK 22/17 Q1015 NOSIG=
201206071800 METAR LMML NIL=
201206071745 METAR LMML 071745Z 17004KT 140V230 CAVOK 23/15 Q1015 NOSIG=
201206071730 METAR LMML NIL=
201206071715 METAR LMML 071715Z 15004KT 120V180 CAVOK 24/13 Q1014 NOSIG=
201206071645 METAR LMML 071645Z 17004KT 100V240 CAVOK 24/15 Q1014 NOSIG=
201206071630 METAR LMML NIL=
201206071615 METAR LMML 071615Z 20005KT 170V250 CAVOK 25/15 Q1014 NOSIG=
201206071545 METAR LMML 071545Z 19006KT 140V260 CAVOK 25/15 Q1014 NOSIG=
201206071530 METAR LMML NIL=
201206071515 METAR LMML 071515Z 19007KT 160V240 CAVOK 25/15 Q1015 NOSIG=
201206071500 METAR LMML NIL=
201206071445 METAR LMML 071445Z 18007KT 140V280 CAVOK 25/15 Q1015 NOSIG=
201206071430 METAR LMML NIL=
201206071415 METAR LMML 071415Z 17007KT 140V240 CAVOK 25/15 Q1015 NOSIG=
201206071345 METAR LMML 071345Z 18007KT 130V220 CAVOK 25/15 Q1015 NOSIG=
201206071330 METAR LMML NIL=
201206071315 METAR LMML 071315Z 18006KT 120V230 CAVOK 26/14 Q1015 NOSIG=
201206071300 METAR LMML NIL=
201206071245 METAR LMML 071245Z 19006KT 120V270 CAVOK 26/14 Q1015 NOSIG=
201206071230 METAR LMML NIL=
201206071215 METAR LMML 071215Z 18008KT 140V230 CAVOK 26/13 Q1015 NOSIG=
201206071145 METAR LMML 071145Z 17005KT 120V240 CAVOK 27/08 Q1015 NOSIG=
201206071130 METAR LMML NIL=
201206071115 METAR LMML 071115Z 20006KT 140V250 CAVOK 26/13 Q1016 NOSIG=
201206071100 METAR LMML NIL=
201206071045 METAR LMML 071045Z 18005KT 130V250 CAVOK 26/14 Q1016 NOSIG=
201206071030 METAR LMML NIL=
201206071015 METAR LMML 071015Z 20006KT 150V260 CAVOK 25/14 Q1016 NOSIG=
201206071000 METAR LMML NIL=
201206070945 METAR LMML 070945Z 18006KT 130V260 CAVOK 25/14 Q1016 NOSIG=
201206070930 METAR LMML NIL=
201206070915 METAR LMML 070915Z 21005KT 150V260 CAVOK 25/15 Q1016 NOSIG=
201206070900 METAR LMML NIL=
201206070845 METAR LMML 070845Z 22006KT 160V260 CAVOK 24/15 Q1016 NOSIG=
201206070830 METAR LMML NIL=
201206070815 METAR LMML 070815Z 19005KT 150V250 CAVOK 25/13 Q1015 NOSIG=
201206070800 METAR LMML NIL=
201206070745 METAR LMML 070745Z 21005KT 150V250 CAVOK 24/15 Q1015 NOSIG=
201206070730 METAR LMML NIL=
201206070715 METAR LMML 070715Z 18003KT CAVOK 24/14 Q1015 NOSIG=
201206070700 METAR LMML NIL=
201206070645 METAR LMML 070645Z VRB02KT CAVOK 24/15 Q1015 NOSIG=
201206070630 METAR LMML NIL=
201206070615 METAR LMML 070615Z VRB02KT CAVOK 22/16 Q1015 NOSIG=
201206070600 METAR LMML NIL=
201206070545 METAR LMML 070545Z 34003KT CAVOK 20/17 Q1015 NOSIG=
201206070530 METAR LMML NIL=
201206070515 METAR LMML 070515Z VRB01KT CAVOK 19/17 Q1015 NOSIG=
201206070500 METAR LMML NIL=
201206070445 METAR LMML 070445Z VRB01KT CAVOK 18/16 Q1015 NOSIG=
201206070415 METAR LMML 070415Z VRB01KT CAVOK 16/16 Q1015 NOSIG=
201206070400 METAR LMML NIL=
201206070345 METAR LMML 070345Z 30003KT 9999 FEW015 16/15 Q1015 NOSIG=
201206070315 METAR LMML 070315Z VRB02KT 9999 FEW015 16/15 Q1015 NOSIG=
201206070300 METAR LMML NIL=
201206070245 METAR LMML 070245Z VRB01KT CAVOK 16/15 Q1015 NOSIG=
201206070230 METAR LMML NIL=
201206070215 METAR LMML 070215Z VRB02KT CAVOK 17/15 Q1015 NOSIG=
201206070200 METAR LMML NIL=
201206070145 METAR LMML 070145Z 25003KT CAVOK 17/15 Q1015 NOSIG=
201206070130 METAR LMML NIL=
201206070115 METAR LMML 070115Z 24003KT CAVOK 17/16 Q1015 NOSIG=
201206070100 METAR LMML NIL=
201206070045 METAR LMML 070045Z 21003KT CAVOK 17/16 Q1015 NOSIG=
201206070030 METAR LMML NIL=
201206070015 METAR LMML 070015Z 22003KT CAVOK 17/16 Q1015 NOSIG=
201206070000 METAR LMML NIL=
201206062345 METAR LMML 062345Z 24003KT CAVOK 17/16 Q1015 NOSIG=
201206062330 METAR LMML NIL=
201206062315 METAR LMML 062315Z 24003KT CAVOK 18/15 Q1016 NOSIG=
201206062300 METAR LMML NIL=
201206062245 METAR LMML 062245Z 22003KT CAVOK 18/16 Q1015 NOSIG=
201206062230 METAR LMML NIL=
201206062215 METAR LMML 062215Z VRB02KT CAVOK 18/16 Q1015 NOSIG=
201206062145 METAR LMML 062145Z 25003KT CAVOK 18/16 Q1016 NOSIG=
201206062130 METAR LMML NIL=
201206062115 METAR LMML 062115Z VRB02KT CAVOK 19/16 Q1016 NOSIG=
201206062045 METAR LMML 062045Z VRB01KT CAVOK 19/16 Q1016 NOSIG=
201206062030 METAR LMML NIL=
201206062015 METAR LMML 062015Z VRB01KT CAVOK 19/16 Q1016 NOSIG=
201206062000 METAR LMML NIL=
201206061945 METAR LMML 061945Z VRB02KT 9999 FEW020 19/16 Q1016 NOSIG=
201206061930 METAR LMML NIL=
201206061915 METAR LMML 061915Z VRB02KT CAVOK 20/16 Q1015 NOSIG=
201206061900 METAR LMML NIL=
201206061845 METAR LMML 061845Z 20003KT CAVOK 20/17 Q1015 NOSIG=
201206061830 METAR LMML NIL=
201206061815 METAR LMML 061815Z 18005KT 150V220 CAVOK 20/17 Q1015 NOSIG=
201206061800 METAR LMML NIL=
201206061745 METAR LMML 061745Z VRB02KT CAVOK 22/17 Q1015 NOSIG=
201206061730 METAR LMML NIL=
201206061715 METAR LMML 061715Z 34006KT 320V020 CAVOK 24/13 Q1015 NOSIG=
201206061645 METAR LMML 061645Z 04004KT 340V110 CAVOK 25/16 Q1014 NOSIG=
201206061630 METAR LMML NIL=
201206061615 METAR LMML 061615Z 06005KT 020V130 CAVOK 24/16 Q1014 NOSIG=
201206061600 METAR LMML NIL=
201206061545 METAR LMML 061545Z 05007KT 020V090 9999 FEW030 25/17 Q1014
                        NOSIG=
201206061515 METAR LMML 061515Z 06007KT 360V130 9999 FEW030 25/16 Q1014
                        NOSIG=
201206061445 METAR LMML 061445Z 10005KT 050V160 9999 FEW034 25/15 Q1015
                        NOSIG=
201206061430 METAR LMML NIL=
201206061415 METAR LMML 061415Z 08006KT 020V150 9999 FEW034 25/15 Q1015
                        NOSIG=
201206061400 METAR LMML NIL=
201206061345 METAR LMML 061345Z 36005G15KT 9999 FEW035 24/15 Q1015 NOSIG=
201206061330 METAR LMML NIL=
201206061315 METAR LMML 061315Z 10004KT 320V210 9999 FEW034 24/15 Q1015
                        NOSIG=
201206061300 METAR LMML NIL=
201206061245 METAR LMML 061245Z 01004KT 270V100 CAVOK 27/14 Q1015 NOSIG=
201206061230 METAR LMML NIL=
201206061215 METAR LMML 061215Z 34006KT 280V060 9999 FEW030 26/14 Q1015
                        NOSIG=
201206061200 METAR LMML NIL=
201206061145 METAR LMML 061145Z 33007KT 270V030 9999 FEW030 26/16 Q1016
                        NOSIG=
201206061130 METAR LMML NIL=
201206061115 METAR LMML 061115Z 32006KT 220V040 9999 FEW030 25/16 Q1016
                        NOSIG=
201206061100 METAR LMML NIL=
201206061045 METAR LMML 061045Z 34006KT 300V050 9999 FEW030 26/15 Q1016
                        NOSIG=
201206061030 METAR LMML NIL=
201206061015 METAR LMML 061015Z 32005KT 280V010 9999 FEW030 25/15 Q1016
                        NOSIG=
201206061000 METAR LMML NIL=
201206060945 METAR LMML 060945Z 36007KT 300V060 9999 FEW020 25/15 Q1016
                        NOSIG=
201206060930 METAR LMML NIL=
201206060915 METAR LMML 060915Z 35007KT 280V050 9999 FEW020 25/14 Q1016
                        NOSIG=
201206060900 METAR LMML NIL=
201206060845 METAR LMML 060845Z 34006KT 290V020 9999 FEW020 25/13 Q1015
                        NOSIG=
201206060830 METAR LMML NIL=
201206060815 METAR LMML 060815Z 33006KT 280V360 9999 FEW015 24/15 Q1015
                        NOSIG=
201206060800 METAR LMML NIL=
201206060745 METAR LMML 060745Z 32006KT 270V010 9999 FEW015 23/15 Q1015
                        NOSIG=
201206060730 METAR LMML NIL=
201206060715 METAR LMML 060715Z 35007KT 320V020 9999 FEW015 23/16 Q1015
                        NOSIG=
201206060700 METAR LMML NIL=
201206060645 METAR LMML 060645Z 34008KT 9999 FEW013 22/16 Q1015 NOSIG=
201206060630 METAR LMML NIL=
201206060615 METAR LMML 060615Z 32009KT 9999 FEW013 21/16 Q1015 NOSIG=
201206060600 METAR LMML NIL=
201206060545 METAR LMML 060545Z 32006KT 9999 FEW012 20/16 Q1015 NOSIG=
201206060530 METAR LMML NIL=
201206060515 METAR LMML 060515Z 34007KT 310V010 9999 FEW012 19/17 Q1015
                        NOSIG=
201206060445 METAR LMML 060445Z 35004KT 320V040 9999 FEW011 19/16 Q1015
                        TEMPO 9000 FEW005=
201206060430 METAR LMML NIL=
201206060415 METAR LMML 060415Z 33005KT 9999 FEW011 17/16 Q1015 TEMPO
                        9000 FEW005=
201206060345 METAR LMML 060345Z 31004KT 9999 FEW011 17/16 Q1015 TEMPO
                        9000 FEW005=
201206060330 METAR LMML NIL=
201206060315 METAR LMML 060315Z 32006KT 290V360 CAVOK 17/16 Q1015 TEMPO
                        9000 FEW005=
201206060300 METAR LMML NIL=
201206060245 METAR LMML 060245Z 30006KT CAVOK 17/16 Q1014 NOSIG=
201206060230 METAR LMML NIL=
201206060215 METAR LMML 060215Z 30006KT CAVOK 18/16 Q1015 NOSIG=
201206060200 METAR LMML NIL=
201206060145 METAR LMML 060145Z 30004KT CAVOK 18/15 Q1015 NOSIG=
201206060130 METAR LMML NIL=
201206060115 METAR LMML 060115Z 26003KT CAVOK 18/15 Q1015 NOSIG=
201206060100 METAR LMML NIL=
201206060045 METAR LMML 060045Z 32004KT CAVOK 18/15 Q1014 NOSIG=
201206060030 METAR LMML NIL=
201206060015 METAR LMML 060015Z 28003KT 9999 FEW012 18/15 Q1014 NOSIG=
201206052345 METAR LMML 052345Z 32006KT 280V360 9999 FEW012 19/16 Q1014
                        NOSIG=
201206052330 METAR LMML NIL=
201206052315 METAR LMML 052315Z 02004KT 290V080 9999 FEW012 19/15 Q1015
                        NOSIG=
201206052300 METAR LMML NIL=
201206052245 METAR LMML 052245Z 32006KT 290V020 CAVOK 19/15 Q1015 NOSIG=
201206052230 METAR LMML NIL=
201206052215 METAR LMML 052215Z 30006KT 260V360 CAVOK 19/15 Q1015 NOSIG=
201206052200 METAR LMML NIL=
201206052145 METAR LMML 052145Z 32009KT CAVOK 19/15 Q1015 NOSIG=
201206052130 METAR LMML NIL=
201206052115 METAR LMML 052115Z 32005KT CAVOK 19/14 Q1015 NOSIG=
201206052045 METAR LMML 052045Z 33005KT CAVOK 19/14 Q1015 NOSIG=
201206052030 METAR LMML NIL=
201206052015 METAR LMML 052015Z 31006KT CAVOK 19/15 Q1015 NOSIG=
201206052000 METAR LMML NIL=
201206051945 METAR LMML 051945Z 29006KT CAVOK 20/15 Q1015 NOSIG=
201206051930 METAR LMML NIL=
201206051915 METAR LMML 051915Z 30007KT 270V330 CAVOK 20/15 Q1015 NOSIG=
201206051900 METAR LMML NIL=
201206051845 METAR LMML 051845Z 31005KT 280V340 CAVOK 20/15 Q1014 NOSIG=
201206051830 METAR LMML NIL=
201206051815 METAR LMML 051815Z 31006KT 270V340 CAVOK 21/15 Q1014 NOSIG=
201206051800 METAR LMML NIL=
201206051745 METAR LMML 051745Z 29007KT 240V350 CAVOK 22/15 Q1014 NOSIG=
201206051730 METAR LMML NIL=
201206051715 METAR LMML 051715Z 30013KT CAVOK 22/15 Q1014 NOSIG=
201206051645 METAR LMML 051645Z 30016KT CAVOK 23/14 Q1014 NOSIG=
201206051615 METAR LMML 051615Z 29016KT 260V330 CAVOK 23/14 Q1013 NOSIG=
201206051545 METAR LMML 051545Z 29016KT 260V330 CAVOK 24/14 Q1013 NOSIG=
201206051530 METAR LMML NIL=
201206051515 METAR LMML 051515Z 28014KT 250V320 CAVOK 24/13 Q1014 NOSIG=
201206051500 METAR LMML NIL=
201206051445 METAR LMML 051445Z 30015KT 260V330 CAVOK 25/13 Q1014 NOSIG=
201206051430 METAR LMML NIL=
201206051415 METAR LMML 051415Z 28013KT 250V320 CAVOK 25/14 Q1014 NOSIG=
201206051400 METAR LMML NIL=
201206051345 METAR LMML 051345Z 30016KT CAVOK 25/13 Q1015 NOSIG=
201206051330 METAR LMML NIL=
201206051315 METAR LMML 051315Z 30015KT CAVOK 25/14 Q1015 NOSIG=
201206051300 METAR LMML NIL=
201206051245 METAR LMML 051245Z 30013KT 270V330 CAVOK 26/14 Q1015 NOSIG=
201206051230 METAR LMML NIL=
201206051215 METAR LMML 051215Z 29014KT 260V330 CAVOK 26/15 Q1015 NOSIG=
201206051200 METAR LMML NIL=
201206051145 METAR LMML 051145Z 29012KT 240V330 CAVOK 26/15 Q1014 NOSIG=
201206051130 METAR LMML NIL=
201206051115 METAR LMML 051115Z 31015KT 280V340 CAVOK 27/14 Q1014 NOSIG=
201206051045 METAR LMML 051045Z 31014KT 280V340 CAVOK 27/14 Q1014 NOSIG=
201206051030 METAR LMML NIL=
201206051015 METAR LMML 051015Z 30015KT CAVOK 27/11 Q1014 NOSIG=
201206050945 METAR LMML 050945Z 30013KT CAVOK 28/09 Q1014 NOSIG=
201206050930 METAR LMML NIL=
201206050915 METAR LMML 050915Z 32016KT CAVOK 27/08 Q1014 NOSIG=
201206050900 METAR LMML NIL=
201206050845 METAR LMML 050845Z 32015KT 290V350 CAVOK 26/15 Q1014 NOSIG=
201206050830 METAR LMML NIL=
201206050815 METAR LMML 050815Z 32015KT 9999 FEW015 26/13 Q1014 BECMG
                        CAVOK=
201206050745 METAR LMML 050745Z 31013KT 9999 FEW015 25/16 Q1014 BECMG
                        CAVOK=
201206050730 METAR LMML NIL=
201206050715 METAR LMML 050715Z 31012KT 9999 FEW015 24/17 Q1014 BECMG
                        CAVOK=
201206050700 METAR LMML NIL=
201206050645 METAR LMML 050645Z 31012KT 9999 FEW012 23/18 Q1014 BECMG
                        CAVOK=
201206050630 METAR LMML NIL=
201206050615 METAR LMML 050615Z 31012KT 9999 FEW012 22/18 Q1014 BECMG
                        CAVOK=
201206050600 METAR LMML NIL=
201206050545 METAR LMML 050545Z 30014KT 9999 FEW015 21/18 Q1014 BECMG
                        CAVOK=
201206050530 METAR LMML NIL=
201206050515 METAR LMML 050515Z 31012KT 9999 FEW012 SCT110 21/18 Q1013
                        BECMG CAVOK=
201206050500 METAR LMML NIL=
201206050445 METAR LMML 050445Z 30010KT 9999 FEW009 SCT110 20/18 Q1013
                        NOSIG=
201206050430 METAR LMML NIL=
201206050415 METAR LMML 050415Z 29007KT 260V320 9999 FEW007 SCT120 20/18
                        Q1013 NOSIG=
201206050400 METAR LMML NIL=
201206050345 METAR LMML 050345Z 30007KT 260V330 9999 FEW007 20/18 Q1013
                        NOSIG=
201206050330 METAR LMML NIL=
201206050315 METAR LMML 050315Z 31009KT 9999 FEW007 20/19 Q1013 NOSIG=
201206050300 METAR LMML NIL=
201206050245 METAR LMML 050245Z 30009KT 9999 FEW007 20/19 Q1013 NOSIG=
201206050230 METAR LMML NIL=
201206050215 METAR LMML 050215Z 30007KT 9999 FEW007 20/19 Q1013 NOSIG=
201206050200 METAR LMML NIL=
201206050145 METAR LMML 050145Z 31006KT 9999 FEW007 20/19 Q1013 NOSIG=
201206050130 METAR LMML NIL=
201206050115 METAR LMML 050115Z 32006KT 9999 FEW007 20/19 Q1013 NOSIG=
201206050100 METAR LMML NIL=
201206050045 METAR LMML 050045Z 28004KT 230V310 9999 SCT008 20/19 Q1013
                        NOSIG=
201206050030 METAR LMML NIL=
201206050015 METAR LMML 050015Z 26004KT 220V290 9999 BKN008 20/19 Q1014
                        NOSIG=
201206050000 METAR LMML NIL=
201206042345 METAR LMML 042345Z 25003KT 9999 BKN007 SCT250 20/19 Q1014
                        NOSIG=
201206042330 METAR LMML NIL=
201206042315 METAR LMML 042315Z 24003KT 9999 FEW007 20/19 Q1014 NOSIG=
201206042245 METAR LMML 042245Z 25003KT 9999 FEW007 SCT250 20/19 Q1015
                        NOSIG=
201206042230 METAR LMML NIL=
201206042215 METAR LMML 042215Z 24006KT 9999 FEW015 21/19 Q1015 NOSIG=
201206042200 METAR LMML NIL=
201206042145 METAR LMML 042145Z 21004KT 170V250 CAVOK 21/19 Q1014 NOSIG=
201206042130 METAR LMML NIL=
201206042115 METAR LMML 042115Z 23003KT CAVOK 20/19 Q1014 NOSIG=
201206042100 METAR LMML NIL=
201206042045 METAR LMML 042045Z 23003KT CAVOK 21/19 Q1015 NOSIG=
201206042030 METAR LMML NIL=
201206042015 METAR LMML 042015Z 21004KT 160V250 CAVOK 21/19 Q1014 NOSIG=
201206042000 METAR LMML NIL=
201206041945 METAR LMML 041945Z 18006KT 160V220 CAVOK 21/19 Q1014 NOSIG=
201206041930 METAR LMML NIL=
201206041915 METAR LMML 041915Z 17004KT 150V230 CAVOK 21/19 Q1014 NOSIG=
201206041900 METAR LMML NIL=
201206041845 METAR LMML 041845Z 17005KT CAVOK 21/19 Q1014 NOSIG=
201206041830 METAR LMML NIL=
201206041815 METAR LMML 041815Z 17003KT CAVOK 22/18 Q1014 NOSIG=
201206041800 METAR LMML NIL=
201206041745 METAR LMML 041745Z 17003KT CAVOK 23/18 Q1014 NOSIG=
201206041730 METAR LMML NIL=
201206041715 METAR LMML 041715Z 18004KT 140V240 CAVOK 23/18 Q1014 NOSIG=
201206041700 METAR LMML NIL=
201206041645 METAR LMML 041645Z 16008KT 120V180 CAVOK 23/18 Q1014 NOSIG=
201206041630 METAR LMML NIL=
201206041615 METAR LMML 041615Z 17006KT 140V220 CAVOK 24/18 Q1013 NOSIG=
201206041600 METAR LMML NIL=
201206041545 METAR LMML 041545Z 18006KT 150V250 CAVOK 24/18 Q1014 NOSIG=
201206041530 METAR LMML NIL=
201206041515 METAR LMML 041515Z 20007KT 160V250 CAVOK 25/18 Q1014 NOSIG=
201206041500 METAR LMML NIL=
201206041445 METAR LMML 041445Z 16007KT 140V210 CAVOK 25/18 Q1014 NOSIG=
201206041430 METAR LMML NIL=
201206041415 METAR LMML 041415Z 19005KT 150V260 CAVOK 26/18 Q1014 NOSIG=
201206041400 METAR LMML NIL=
201206041345 METAR LMML 041345Z 19005KT 160V240 CAVOK 25/17 Q1014 NOSIG=
201206041330 METAR LMML NIL=
201206041315 METAR LMML 041315Z 18005KT 120V270 CAVOK 25/17 Q1015 NOSIG=
201206041300 METAR LMML NIL=
201206041245 METAR LMML 041245Z 20007KT 150V270 CAVOK 25/17 Q1015 NOSIG=
201206041230 METAR LMML NIL=
201206041215 METAR LMML 041215Z 19006KT 120V280 CAVOK 25/18 Q1015 NOSIG=
201206041200 METAR LMML NIL=
201206041145 METAR LMML 041145Z 18009KT 140V260 CAVOK 25/18 Q1015 NOSIG=
201206041130 METAR LMML NIL=
201206041115 METAR LMML 041115Z 18009KT 150V250 CAVOK 25/17 Q1015 NOSIG=
201206041100 METAR LMML NIL=
201206041045 METAR LMML 041045Z 18011KT 160V230 CAVOK 24/18 Q1015 NOSIG=
201206041030 METAR LMML NIL=
201206041015 METAR LMML 041015Z 19009KT 160V250 CAVOK 24/18 Q1015 NOSIG=
201206041000 METAR LMML NIL=
201206040945 METAR LMML 040945Z 17009KT 140V230 CAVOK 24/18 Q1015 NOSIG=
201206040930 METAR LMML NIL=
201206040915 METAR LMML 040915Z 18010KT 130V230 CAVOK 24/18 Q1015 NOSIG=
201206040900 METAR LMML NIL=
201206040845 METAR LMML 040845Z 18011KT 140V240 CAVOK 24/18 Q1015 NOSIG=
201206040830 METAR LMML NIL=
201206040815 METAR LMML 040815Z 18011KT 150V240 CAVOK 24/18 Q1015 NOSIG=
201206040800 METAR LMML NIL=
201206040745 METAR LMML 040745Z 17010KT 130V230 CAVOK 23/17 Q1015 NOSIG=
201206040730 METAR LMML NIL=
201206040715 METAR LMML 040715Z 17010KT 140V230 CAVOK 23/17 Q1015 NOSIG=
201206040700 METAR LMML NIL=
201206040645 METAR LMML 040645Z 16011KT CAVOK 23/18 Q1015 NOSIG=
201206040630 METAR LMML NIL=
201206040615 METAR LMML 040615Z 16010KT 130V190 CAVOK 22/18 Q1015 NOSIG=
201206040600 METAR LMML NIL=
201206040545 METAR LMML 040545Z 17007KT 140V230 CAVOK 22/18 Q1015 NOSIG=
201206040530 METAR LMML NIL=
201206040515 METAR LMML 040515Z 17007KT 130V220 CAVOK 21/18 Q1015 NOSIG=
201206040500 METAR LMML NIL=
201206040445 METAR LMML 040445Z 16006KT CAVOK 20/18 Q1015 NOSIG=
201206040415 METAR LMML 040415Z 16006KT CAVOK 20/18 Q1015 NOSIG=
201206040400 METAR LMML NIL=
201206040345 METAR LMML 040345Z 17007KT 150V220 CAVOK 20/17 Q1015 NOSIG=
201206040330 METAR LMML NIL=
201206040315 METAR LMML 040315Z 17007KT 140V210 CAVOK 20/17 Q1015 NOSIG=
201206040300 METAR LMML NIL=
201206040245 METAR LMML 040245Z 17007KT CAVOK 20/17 Q1015 NOSIG=
201206040215 METAR LMML 040215Z 17007KT CAVOK 20/17 Q1015 NOSIG=
201206040200 METAR LMML NIL=
201206040145 METAR LMML 040145Z 16009KT CAVOK 20/17 Q1015 NOSIG=
201206040130 METAR LMML NIL=
201206040115 METAR LMML 040115Z 16007KT 140V200 CAVOK 20/17 Q1015 NOSIG=
201206040100 METAR LMML NIL=
201206040045 METAR LMML 040045Z 16006KT 130V210 CAVOK 20/17 Q1016 NOSIG=
201206040030 METAR LMML NIL=
201206040015 METAR LMML 040015Z 16006KT CAVOK 20/17 Q1016 NOSIG=
201206040000 METAR LMML NIL=
201206032345 METAR LMML 032345Z 16007KT CAVOK 20/17 Q1016 NOSIG=
201206032330 METAR LMML NIL=
201206032315 METAR LMML 032315Z 16007KT CAVOK 20/17 Q1017 NOSIG=
201206032300 METAR LMML NIL=
201206032245 METAR LMML 032245Z 16006KT 140V210 CAVOK 20/17 Q1017 NOSIG=
201206032230 METAR LMML NIL=
201206032215 METAR LMML 032215Z 16006KT CAVOK 20/17 Q1017 NOSIG=
201206032200 METAR LMML NIL=
201206032145 METAR LMML 032145Z 16005KT CAVOK 20/17 Q1017 NOSIG=
201206032130 METAR LMML NIL=
201206032115 METAR LMML 032115Z 14005KT CAVOK 20/17 Q1017 NOSIG=
201206032100 METAR LMML NIL=
201206032045 METAR LMML 032045Z 14005KT 110V170 CAVOK 20/17 Q1017 NOSIG=
201206032030 METAR LMML NIL=
201206032015 METAR LMML 032015Z 16005KT 130V190 CAVOK 20/17 Q1017 NOSIG=
201206032000 METAR LMML NIL=
201206031945 METAR LMML 031945Z 14007KT CAVOK 20/17 Q1017 NOSIG=
201206031930 METAR LMML NIL=
201206031915 METAR LMML 031915Z 14007KT CAVOK 21/17 Q1017 NOSIG=
201206031900 METAR LMML NIL=
201206031845 METAR LMML 031845Z 13006KT CAVOK 21/17 Q1017 NOSIG=
201206031830 METAR LMML NIL=
201206031815 METAR LMML 031815Z 14009KT CAVOK 21/17 Q1017 NOSIG=
201206031800 METAR LMML NIL=
201206031745 METAR LMML 031745Z 14007KT 110V180 CAVOK 22/16 Q1017 NOSIG=
201206031730 METAR LMML NIL=
201206031715 METAR LMML 031715Z 14008KT 110V180 CAVOK 23/16 Q1017 NOSIG=
201206031700 METAR LMML NIL=
201206031645 METAR LMML 031645Z 14008KT CAVOK 23/16 Q1017 NOSIG=
201206031630 METAR LMML NIL=
201206031615 METAR LMML 031615Z 16008KT 120V220 CAVOK 24/15 Q1017 NOSIG=
201206031600 METAR LMML NIL=
201206031545 METAR LMML 031545Z 15009KT 110V190 CAVOK 24/15 Q1017 NOSIG=
201206031530 METAR LMML NIL=
201206031515 METAR LMML 031515Z 15008KT 130V190 CAVOK 24/16 Q1017 NOSIG=
201206031500 METAR LMML NIL=
201206031445 METAR LMML 031445Z 16010KT 130V200 CAVOK 24/16 Q1018 NOSIG=
201206031430 METAR LMML NIL=
201206031415 METAR LMML 031415Z 15012KT CAVOK 24/16 Q1018 NOSIG=
201206031400 METAR LMML NIL=
201206031345 METAR LMML 031345Z 16011KT 130V210 CAVOK 24/15 Q1018 NOSIG=
201206031330 METAR LMML NIL=
201206031315 METAR LMML 031315Z 16010KT 140V200 CAVOK 25/15 Q1019 NOSIG=
201206031300 METAR LMML NIL=
201206031245 METAR LMML 031245Z 17010KT 140V230 CAVOK 25/15 Q1019 NOSIG=
201206031230 METAR LMML NIL=
201206031215 METAR LMML 031215Z 16010KT 140V230 CAVOK 26/14 Q1019 NOSIG=
201206031200 METAR LMML NIL=
201206031145 METAR LMML 031145Z 18009KT 140V240 CAVOK 25/14 Q1019 NOSIG=
201206031130 METAR LMML NIL=
201206031115 METAR LMML 031115Z 17009KT 130V260 CAVOK 25/13 Q1019 NOSIG=
201206031100 METAR LMML NIL=
201206031045 METAR LMML 031045Z 17008KT 130V220 CAVOK 25/16 Q1020 NOSIG=
201206031030 METAR LMML NIL=
201206031015 METAR LMML 031015Z 18007KT 130V250 CAVOK 26/14 Q1020 NOSIG=
201206031000 METAR LMML NIL=
201206030945 METAR LMML 030945Z 18007KT 140V240 CAVOK 25/15 Q1020 NOSIG=
201206030930 METAR LMML NIL=
201206030915 METAR LMML 030915Z 17007KT 120V250 CAVOK 25/16 Q1020 NOSIG=
201206030900 METAR LMML NIL=
201206030845 METAR LMML 030845Z 18006KT 140V250 CAVOK 25/16 Q1020 NOSIG=
201206030830 METAR LMML NIL=
201206030815 METAR LMML 030815Z 18007KT 140V230 CAVOK 25/14 Q1019 NOSIG=
201206030800 METAR LMML NIL=
201206030745 METAR LMML 030745Z 18006KT 150V230 CAVOK 24/13 Q1019 NOSIG=
201206030730 METAR LMML NIL=
201206030715 METAR LMML 030715Z 18006KT 140V230 CAVOK 23/15 Q1019 NOSIG=
201206030700 METAR LMML NIL=
201206030645 METAR LMML 030645Z 17006KT 140V220 CAVOK 23/17 Q1020 NOSIG=
201206030630 METAR LMML NIL=
201206030615 METAR LMML 030615Z 19004KT 160V260 CAVOK 22/16 Q1019 NOSIG=
201206030600 METAR LMML NIL=
201206030545 METAR LMML 030545Z VRB02KT CAVOK 22/18 Q1019 NOSIG=
201206030530 METAR LMML NIL=
201206030515 METAR LMML 030515Z VRB02KT CAVOK 21/18 Q1019 NOSIG=
201206030500 METAR LMML NIL=
201206030445 METAR LMML 030445Z VRB01KT CAVOK 19/17 Q1019 NOSIG=
201206030430 METAR LMML NIL=
201206030415 METAR LMML 030415Z 17004KT CAVOK 18/18 Q1018 NOSIG=
201206030400 METAR LMML NIL=
201206030345 METAR LMML 030345Z VRB02KT 9999 MIFG NSC 18/18 Q1018 NOSIG=
201206030330 METAR LMML NIL=
201206030315 METAR LMML 030315Z 00000KT CAVOK 18/18 Q1018 NOSIG=
201206030300 METAR LMML NIL=
201206030245 METAR LMML 030245Z VRB02KT CAVOK 19/18 Q1018 NOSIG=
201206030230 METAR LMML NIL=
201206030215 METAR LMML 030215Z 17004KT 140V250 CAVOK 19/18 Q1018 NOSIG=
201206030200 METAR LMML NIL=
201206030145 METAR LMML 030145Z VRB02KT CAVOK 19/18 Q1018 NOSIG=
201206030130 METAR LMML NIL=
201206030115 METAR LMML 030115Z 18003KT CAVOK 19/18 Q1018 NOSIG=
201206030100 METAR LMML NIL=
201206030045 METAR LMML 030045Z 17004KT CAVOK 19/18 Q1018 NOSIG=
201206030030 METAR LMML NIL=
201206030015 METAR LMML 030015Z 16004KT CAVOK 19/18 Q1018 NOSIG=
201206030000 METAR LMML NIL=
201206022345 METAR LMML 022345Z 16004KT CAVOK 19/17 Q1018 NOSIG=
201206022330 METAR LMML NIL=
201206022315 METAR LMML 022315Z VRB02KT CAVOK 19/17 Q1018 NOSIG=
201206022300 METAR LMML NIL=
201206022245 METAR LMML 022245Z VRB02KT CAVOK 19/17 Q1019 NOSIG=
201206022230 METAR LMML NIL=
201206022215 METAR LMML 022215Z 14003KT CAVOK 20/17 Q1019 NOSIG=
201206022200 METAR LMML NIL=
201206022145 METAR LMML 022145Z 17003KT CAVOK 20/17 Q1019 NOSIG=
201206022130 METAR LMML NIL=
201206022115 METAR LMML 022115Z 17003KT CAVOK 20/17 Q1019 NOSIG=
201206022100 METAR LMML NIL=
201206022045 METAR LMML 022045Z 17005KT CAVOK 20/17 Q1019 NOSIG=
201206022030 METAR LMML NIL=
201206022015 METAR LMML 022015Z 16005KT 140V200 CAVOK 21/17 Q1019 NOSIG=
201206022000 METAR LMML NIL=
201206021945 METAR LMML 021945Z 19004KT 160V240 CAVOK 21/17 Q1019 NOSIG=
201206021930 METAR LMML NIL=
201206021915 METAR LMML 021915Z 20005KT 160V240 CAVOK 21/17 Q1019 NOSIG=
201206021900 METAR LMML NIL=
201206021845 METAR LMML 021845Z 20004KT 160V240 CAVOK 21/17 Q1019 NOSIG=
201206021830 METAR LMML NIL=
201206021815 METAR LMML 021815Z 23003KT CAVOK 22/16 Q1018 NOSIG=
201206021800 METAR LMML NIL=
201206021745 METAR LMML 021745Z 22004KT 190V260 CAVOK 23/14 Q1018 NOSIG=
201206021730 METAR LMML NIL=
201206021715 METAR LMML 021715Z 24005KT 210V270 CAVOK 24/11 Q1018 NOSIG=
201206021700 METAR LMML NIL=
201206021645 METAR LMML 021645Z 23006KT 180V260 CAVOK 25/12 Q1018 NOSIG=
201206021630 METAR LMML NIL=
201206021615 METAR LMML 021615Z 20004KT 160V260 CAVOK 26/10 Q1018 NOSIG=
201206021600 METAR LMML NIL=
201206021545 METAR LMML 021545Z 22006KT 160V270 9999 FEW045 26/09 Q1018
                        NOSIG=
201206021530 METAR LMML NIL=
201206021515 METAR LMML 021515Z 23006KT 180V270 9999 FEW045 26/10 Q1018
                        NOSIG=
201206021500 METAR LMML NIL=
201206021445 METAR LMML 021445Z 23007G17KT 130V330 9999 FEW045 26/12 Q1018
                        NOSIG=
201206021430 METAR LMML NIL=
201206021415 METAR LMML 021415Z 18005KT 9999 FEW045 27/15 Q1018 NOSIG=
201206021400 METAR LMML NIL=
201206021345 METAR LMML 021345Z 09004KT 350V190 CAVOK 27/15 Q1019 NOSIG=
201206021330 METAR LMML NIL=
201206021315 METAR LMML 021315Z 11006KT 070V150 CAVOK 27/16 Q1019 NOSIG=
201206021300 METAR LMML NIL=
201206021245 METAR LMML 021245Z 12006KT 080V180 CAVOK 27/15 Q1019 NOSIG=
201206021230 METAR LMML NIL=
201206021215 METAR LMML 021215Z 16004KT CAVOK 28/11 Q1019 NOSIG=
201206021200 METAR LMML NIL=
201206021145 METAR LMML 021145Z 22006KT 150V260 CAVOK 27/11 Q1019 NOSIG=
201206021130 METAR LMML NIL=
201206021115 METAR LMML 021115Z 22006KT 150V270 CAVOK 26/13 Q1020 NOSIG=
201206021100 METAR LMML NIL=
201206021045 METAR LMML 021045Z 24006KT 180V300 9999 FEW015 26/13 Q1020
                        NOSIG=
201206021030 METAR LMML NIL=
201206021015 METAR LMML 021015Z 23009KT 200V270 9999 FEW015 25/15 Q1020
                        NOSIG=
201206021000 METAR LMML NIL=
201206020945 METAR LMML 020945Z 23009KT 200V280 9999 FEW015 25/14 Q1020
                        NOSIG=
201206020930 METAR LMML NIL=
201206020915 METAR LMML 020915Z 23008KT 200V260 9999 FEW015 25/13 Q1020
                        NOSIG=
201206020900 METAR LMML NIL=
201206020845 METAR LMML 020845Z 24008KT 210V280 9999 FEW015 24/14 Q1020
                        NOSIG=
201206020830 METAR LMML NIL=
201206020815 METAR LMML 020815Z 23008KT 200V270 9999 FEW014 24/13 Q1019
                        NOSIG=
201206020800 METAR LMML NIL=
201206020745 METAR LMML 020745Z 23006KT 190V270 CAVOK 24/12 Q1019 NOSIG=
201206020730 METAR LMML NIL=
201206020715 METAR LMML 020715Z 23005KT 170V280 CAVOK 23/14 Q1019 NOSIG=
201206020700 METAR LMML NIL=
201206020645 METAR LMML 020645Z 23005KT 9999 FEW011 22/15 Q1019 NOSIG=
201206020630 METAR LMML NIL=
201206020615 METAR LMML 020615Z 23004KT 200V280 9999 FEW012 22/17 Q1018
                        NOSIG=
201206020600 METAR LMML NIL=
201206020545 METAR LMML 020545Z 22005KT 180V260 9999 FEW011 21/18 Q1018
                        NOSIG=
201206020530 METAR LMML NIL=
201206020515 METAR LMML 020515Z 23004KT 9999 FEW012 20/18 Q1018 NOSIG=
201206020500 METAR LMML NIL=
201206020445 METAR LMML 020445Z 21004KT CAVOK 19/11 Q1018 NOSIG=
201206020430 METAR LMML NIL=
201206020415 METAR LMML 020415Z VRB02KT CAVOK 17/09 Q1018 NOSIG=
201206020400 METAR LMML NIL=
201206020345 METAR LMML 020345Z VRB01KT CAVOK 17/10 Q1017 NOSIG=
201206020330 METAR LMML NIL=
201206020315 METAR LMML 020315Z VRB02KT CAVOK 16/11 Q1017 NOSIG=
201206020300 METAR LMML NIL=
201206020245 METAR LMML 020245Z VRB02KT CAVOK 16/12 Q1017 NOSIG=
201206020230 METAR LMML NIL=
201206020215 METAR LMML 020215Z VRB02KT CAVOK 17/12 Q1017 NOSIG=
201206020200 METAR LMML NIL=
201206020145 METAR LMML 020145Z VRB02KT CAVOK 18/12 Q1017 NOSIG=
201206020130 METAR LMML NIL=
201206020115 METAR LMML 020115Z 28003KT CAVOK 18/12 Q1017 NOSIG=
201206020100 METAR LMML NIL=
201206020045 METAR LMML 020045Z VRB02KT CAVOK 18/14 Q1017 NOSIG=
201206020030 METAR LMML NIL=
201206020015 METAR LMML 020015Z 24003KT CAVOK 18/13 Q1017 NOSIG=
201206020000 METAR LMML NIL=
201206012345 METAR LMML 012345Z 24003KT CAVOK 17/12 Q1017 NOSIG=
201206012330 METAR LMML NIL=
201206012315 METAR LMML 012315Z VRB01KT CAVOK 18/12 Q1018 NOSIG=
201206012300 METAR LMML NIL=
201206012245 METAR LMML 012245Z VRB02KT CAVOK 19/08 Q1018 NOSIG=
201206012230 METAR LMML NIL=
201206012215 METAR LMML 012215Z 25003KT CAVOK 18/09 Q1018 NOSIG=
201206012200 METAR LMML NIL=
201206012145 METAR LMML 012145Z 27003KT CAVOK 19/09 Q1018 NOSIG=
201206012130 METAR LMML NIL=
201206012115 METAR LMML 012115Z VRB02KT CAVOK 19/14 Q1018 NOSIG=
201206012100 METAR LMML NIL=
201206012045 METAR LMML 012045Z VRB02KT CAVOK 19/14 Q1018 NOSIG=
201206012015 METAR LMML 012015Z 24003KT CAVOK 19/14 Q1018 NOSIG=
201206012000 METAR LMML NIL=
201206011945 METAR LMML 011945Z 25003KT CAVOK 20/13 Q1018 NOSIG=
201206011930 METAR LMML NIL=
201206011915 METAR LMML 011915Z 23003KT CAVOK 20/12 Q1018 NOSIG=
201206011845 METAR LMML 011845Z VRB01KT CAVOK 21/12 Q1017 NOSIG=
201206011830 METAR LMML NIL=
201206011815 METAR LMML 011815Z 27003KT CAVOK 22/11 Q1017 NOSIG=
201206011800 METAR LMML NIL=
201206011745 METAR LMML 011745Z 27004KT 230V300 CAVOK 23/10 Q1017 NOSIG=
201206011730 METAR LMML NIL=
201206011715 METAR LMML 011715Z 27005KT 240V320 CAVOK 24/11 Q1017 NOSIG=
201206011645 METAR LMML 011645Z 26004KT 220V310 CAVOK 25/10 Q1017 NOSIG=
201206011630 METAR LMML NIL=
201206011615 METAR LMML 011615Z 26005KT 230V300 CAVOK 26/10 Q1017 NOSIG=
201206011600 METAR LMML NIL=
201206011545 METAR LMML 011545Z 27006KT 220V310 CAVOK 26/09 Q1017 NOSIG=
201206011530 METAR LMML NIL=
201206011515 METAR LMML 011515Z 28006KT 230V320 9999 FEW015 26/11 Q1017
                        NOSIG=
201206011500 METAR LMML NIL=
201206011445 METAR LMML 011445Z 28007KT 240V320 9999 FEW015 26/11 Q1017
                        NOSIG=
201206011430 METAR LMML NIL=
201206011415 METAR LMML 011415Z 26005KT 210V330 CAVOK 26/11 Q1018 NOSIG=
201206011400 METAR LMML NIL=
201206011345 METAR LMML 011345Z 26007KT 210V300 9999 FEW015 26/12 Q1018
                        NOSIG=
201206011330 METAR LMML NIL=
201206011315 METAR LMML 011315Z 25007KT 210V310 9999 FEW015 26/15 Q1018
                        NOSIG=
201206011300 METAR LMML NIL=
201206011245 METAR LMML 011245Z 23010KT 200V280 CAVOK 26/13 Q1018 NOSIG=
201206011230 METAR LMML NIL=
201206011215 METAR LMML 011215Z 23008KT 180V270 CAVOK 26/11 Q1018 NOSIG=
201206011200 METAR LMML NIL=
201206011145 METAR LMML 011145Z 23009KT 210V290 CAVOK 26/08 Q1018 NOSIG=
201206011130 METAR LMML NIL=
201206011115 METAR LMML 011115Z 23009KT 180V270 CAVOK 27/12 Q1019 NOSIG=
201206011100 METAR LMML NIL=
201206011045 METAR LMML 011045Z 24006KT 170V300 CAVOK 27/11 Q1019 NOSIG=
201206011030 METAR LMML NIL=
201206011015 METAR LMML 011015Z 28004KT 200V350 CAVOK 27/09 Q1019 NOSIG=
201206011000 METAR LMML NIL=
201206010945 METAR LMML 010945Z 31006KT 260V020 CAVOK 26/13 Q1019 NOSIG=
201206010930 METAR LMML NIL=
201206010915 METAR LMML 010915Z 30006KT 240V340 9999 FEW015 25/13 Q1019
                        NOSIG=
201206010900 METAR LMML NIL=
201206010845 METAR LMML 010845Z 31007KT 9999 FEW015 25/14 Q1019 NOSIG=
201206010830 METAR LMML NIL=
201206010815 METAR LMML 010815Z 28005KT 220V360 9999 FEW015 25/13 Q1019
                        NOSIG=
201206010800 METAR LMML NIL=
201206010745 METAR LMML 010745Z 28006KT 230V330 9999 FEW012 24/13 Q1019
                        NOSIG=
201206010730 METAR LMML NIL=
201206010715 METAR LMML 010715Z 30005KT 9999 FEW012 23/15 Q1018 NOSIG=
201206010700 METAR LMML NIL=
201206010645 METAR LMML 010645Z 28004KT 250V330 9999 FEW012 SCT200 22/15
                        Q1018 NOSIG=
201206010630 METAR LMML NIL=
201206010615 METAR LMML 010615Z 28004KT 240V320 9999 FEW012 SCT200 21/16
                        Q1018 NOSIG=
201206010600 METAR LMML NIL=
201206010545 METAR LMML 010545Z 28004KT 9999 FEW012 SCT200 19/17 Q1018
                        NOSIG=
201206010530 METAR LMML NIL=
201206010515 METAR LMML 010515Z 27003KT 9999 FEW012 SCT200 20/16 Q1018
                        NOSIG=
201206010500 METAR LMML NIL=
201206010445 METAR LMML 010445Z 25004KT 210V290 CAVOK 19/17 Q1018 NOSIG=
201206010430 METAR LMML NIL=
201206010415 METAR LMML 010415Z 24004KT CAVOK 18/17 Q1018 NOSIG=
201206010400 METAR LMML NIL=
201206010345 METAR LMML 010345Z 24006KT 9000 NSC 18/17 Q1017 NOSIG=
201206010330 METAR LMML NIL=
201206010315 METAR LMML 010315Z 23006KT 210V280 9000 NSC 18/17 Q1017 NOSIG=
201206010300 METAR LMML NIL=
201206010245 METAR LMML 010245Z 23005KT 200V260 CAVOK 18/18 Q1018 NOSIG=
201206010230 METAR LMML NIL=
201206010215 METAR LMML 010215Z 23007KT CAVOK 19/18 Q1018 NOSIG=
201206010200 METAR LMML NIL=
201206010145 METAR LMML 010145Z 23005KT 200V260 CAVOK 19/18 Q1018 NOSIG=
201206010130 METAR LMML NIL=
201206010115 METAR LMML 010115Z 23005KT 200V260 CAVOK 18/18 Q1018 NOSIG=
201206010100 METAR LMML NIL=
201206010045 METAR LMML 010045Z 24006KT CAVOK 18/17 Q1018 NOSIG=
201206010030 METAR LMML NIL=
201206010015 METAR LMML 010015Z 25003KT CAVOK 18/17 Q1019 NOSIG=
201206010000 METAR LMML NIL=
