##########################################################
# Query made at 01/18/2013 15:37:57 UTC
# Time interval: from 06/01/2011 00:00  to 07/01/2011 23:59  UTC
##########################################################

##########################################################
# LMML, Luqa (Malta)
# WMO index: 16597
# Latitude 35-51N. Longitude 014-29E. Altitude 91 m.
##########################################################

###################################
#  METAR/SPECI from LMML
###################################
201107012345 METAR LMML 012345Z 31013KT CAVOK 21/17 Q1012 NOSIG=
201107012330 METAR LMML NIL=
201107012315 METAR LMML 012315Z 31011KT CAVOK 21/17 Q1012 NOSIG=
201107012300 METAR LMML NIL=
201107012245 METAR LMML 012245Z 31012KT CAVOK 21/17 Q1013 NOSIG=
201107012230 METAR LMML NIL=
201107012215 METAR LMML 012215Z 31011KT CAVOK 21/17 Q1013 NOSIG=
201107012200 METAR LMML NIL=
201107012145 METAR LMML 012145Z 30010KT CAVOK 21/17 Q1013 NOSIG=
201107012130 METAR LMML NIL=
201107012115 METAR LMML 012115Z 31012KT CAVOK 21/17 Q1013 NOSIG=
201107012100 METAR LMML NIL=
201107012045 METAR LMML 012045Z 33010KT 300V360 CAVOK 21/17 Q1013 NOSIG=
201107012030 METAR LMML NIL=
201107012015 METAR LMML 012015Z 33011KT 300V360 CAVOK 21/17 Q1013 NOSIG=
201107012000 METAR LMML NIL=
201107011945 METAR LMML 011945Z 33008KT 290V360 CAVOK 22/17 Q1013 NOSIG=
201107011930 METAR LMML NIL=
201107011915 METAR LMML 011915Z 33007KT 280V020 CAVOK 22/17 Q1013 NOSIG=
201107011900 METAR LMML NIL=
201107011845 METAR LMML 011845Z 34007KT 300V030 CAVOK 22/17 Q1012 NOSIG=
201107011830 METAR LMML NIL=
201107011815 METAR LMML 011815Z 30014KT 270V330 CAVOK 23/16 Q1012 NOSIG=
201107011800 METAR LMML NIL=
201107011745 METAR LMML 011745Z 30015KT CAVOK 23/16 Q1012 NOSIG=
201107011730 METAR LMML NIL=
201107011715 METAR LMML 011715Z 29017KT CAVOK 24/16 Q1012 NOSIG=
201107011700 METAR LMML NIL=
201107011645 METAR LMML 011645Z 29018KT 250V320 CAVOK 25/15 Q1012 NOSIG=
201107011630 METAR LMML NIL=
201107011615 METAR LMML 011615Z 29018KT 250V330 CAVOK 25/15 Q1012 NOSIG=
201107011600 METAR LMML NIL=
201107011545 METAR LMML 011545Z 29018KT 260V320 CAVOK 26/16 Q1012 NOSIG=
201107011530 METAR LMML NIL=
201107011515 METAR LMML 011515Z 29018KT 260V320 CAVOK 26/17 Q1012 NOSIG=
201107011500 METAR LMML NIL=
201107011445 METAR LMML 011445Z 29020KT 9999 FEW020 26/16 Q1013 NOSIG=
201107011430 METAR LMML NIL=
201107011415 METAR LMML 011415Z 30019KT 9999 FEW020 26/15 Q1013 NOSIG=
201107011400 METAR LMML NIL=
201107011345 METAR LMML 011345Z 29020KT 9999 FEW020 26/16 Q1014 NOSIG=
201107011330 METAR LMML NIL=
201107011315 METAR LMML 011315Z 30019KT 260V320 9999 FEW020 27/16 Q1014
                        NOSIG=
201107011300 METAR LMML NIL=
201107011245 METAR LMML 011245Z 30019KT 270V330 9999 FEW020 27/17 Q1014
                        NOSIG=
201107011230 METAR LMML NIL=
201107011215 METAR LMML 011215Z 29018KT 260V320 9999 FEW020 27/16 Q1014
                        NOSIG=
201107011200 METAR LMML NIL=
201107011145 METAR LMML 011145Z 30021KT 9999 FEW020 27/16 Q1014 NOSIG=
201107011130 METAR LMML NIL=
201107011115 METAR LMML 011115Z 30018KT 9999 FEW020 27/17 Q1014 NOSIG=
201107011100 METAR LMML NIL=
201107011045 METAR LMML 011045Z 30018KT 9999 FEW020 27/17 Q1014 NOSIG=
201107011030 METAR LMML NIL=
201107011015 METAR LMML 011015Z 30016KT 9999 FEW020 27/19 Q1014 NOSIG=
201107011000 METAR LMML NIL=
201107010945 METAR LMML 010945Z 30013KT 270V340 9999 FEW020 27/19 Q1014
                        NOSIG=
201107010930 METAR LMML NIL=
201107010915 METAR LMML 010915Z 31014KT 9999 FEW015 27/19 Q1014 NOSIG=
201107010900 METAR LMML NIL=
201107010845 METAR LMML 010845Z 31015KT 9999 FEW015 26/19 Q1014 NOSIG=
201107010830 METAR LMML NIL=
201107010815 METAR LMML 010815Z 31014KT 9999 FEW015 26/19 Q1014 NOSIG=
201107010800 METAR LMML NIL=
201107010745 METAR LMML 010745Z 32013KT 280V340 9999 FEW015 26/19 Q1014
                        NOSIG=
201107010730 METAR LMML NIL=
201107010715 METAR LMML 010715Z 33013KT 9999 FEW015 25/19 Q1014 NOSIG=
201107010645 METAR LMML 010645Z 31014KT 290V350 9999 FEW015 24/19 Q1014
                        NOSIG=
201107010630 METAR LMML NIL=
201107010615 METAR LMML 010615Z 31015KT 9999 FEW015 23/19 Q1014 NOSIG=
201107010600 METAR LMML NIL=
201107010545 METAR LMML 010545Z 31014KT 280V340 7000 FEW015 23/19 Q1014
                        BECMG 9999=
201107010530 METAR LMML NIL=
201107010515 METAR LMML 010515Z 32011KT 290V350 7000 FEW015 22/20 Q1013
                        BECMG 9999=
201107010500 METAR LMML NIL=
201107010445 METAR LMML 010445Z 31012KT 7000 FEW015 22/20 Q1013 NOSIG=
201107010430 METAR LMML NIL=
201107010415 METAR LMML 010415Z 31009KT 8000 FEW015 21/19 Q1013 NOSIG=
201107010400 METAR LMML NIL=
201107010345 METAR LMML 010345Z 30011KT 9999 FEW015 21/19 Q1013 NOSIG=
201107010330 METAR LMML NIL=
201107010315 METAR LMML 010315Z 30012KT 9999 FEW015 21/19 Q1013 NOSIG=
201107010245 METAR LMML 010245Z 30011KT CAVOK 21/19 Q1013 NOSIG=
201107010230 METAR LMML NIL=
201107010215 METAR LMML 010215Z 30010KT CAVOK 21/19 Q1013 NOSIG=
201107010200 METAR LMML NIL=
201107010145 METAR LMML 010145Z 29009KT 260V330 CAVOK 21/19 Q1013 NOSIG=
201107010130 METAR LMML NIL=
201107010115 METAR LMML 010115Z 31013KT CAVOK 22/19 Q1013 NOSIG=
201107010100 METAR LMML NIL=
201107010045 METAR LMML 010045Z 30015KT 270V330 CAVOK 22/19 Q1013 NOSIG=
201107010030 METAR LMML NIL=
201107010015 METAR LMML 010015Z 29013KT CAVOK 22/19 Q1013 NOSIG=
201107010000 METAR LMML NIL=
201106302345 METAR LMML 302345Z 30018KT CAVOK 22/19 Q1013 NOSIG=
201106302330 METAR LMML NIL=
201106302315 METAR LMML 302315Z 29014KT 260V320 CAVOK 22/19 Q1013 NOSIG=
201106302300 METAR LMML NIL=
201106302245 METAR LMML 302245Z 29012KT CAVOK 22/19 Q1013 NOSIG=
201106302230 METAR LMML NIL=
201106302215 METAR LMML 302215Z 29016KT CAVOK 22/19 Q1013 NOSIG=
201106302200 METAR LMML NIL=
201106302145 METAR LMML 302145Z 28013KT CAVOK 22/19 Q1013 NOSIG=
201106302130 METAR LMML NIL=
201106302115 METAR LMML 302115Z 30012KT 260V320 CAVOK 22/19 Q1013 NOSIG=
201106302100 METAR LMML NIL=
201106302045 METAR LMML 302045Z 28011KT 240V310 CAVOK 22/20 Q1013 NOSIG=
201106302030 METAR LMML NIL=
201106302015 METAR LMML 302015Z 27012KT CAVOK 23/19 Q1013 NOSIG=
201106302000 METAR LMML NIL=
201106301945 METAR LMML 301945Z 27012KT 240V300 CAVOK 23/19 Q1013 NOSIG=
201106301930 METAR LMML NIL=
201106301915 METAR LMML 301915Z 27010KT 230V300 CAVOK 23/20 Q1013 NOSIG=
201106301900 METAR LMML NIL=
201106301845 METAR LMML 301845Z 27009KT 230V300 CAVOK 23/19 Q1013 NOSIG=
201106301830 METAR LMML NIL=
201106301815 METAR LMML 301815Z 27009KT 230V310 9999 FEW012 24/19 Q1013
                        NOSIG=
201106301800 METAR LMML NIL=
201106301745 METAR LMML 301745Z 28012KT 250V310 9999 FEW012 24/19 Q1013
                        NOSIG=
201106301730 METAR LMML NIL=
201106301715 METAR LMML 301715Z 29012KT 250V310 9999 FEW012 24/19 Q1013
                        NOSIG=
201106301700 METAR LMML NIL=
201106301645 METAR LMML 301645Z 29011KT 260V320 9999 FEW012 25/19 Q1013
                        NOSIG=
201106301630 METAR LMML NIL=
201106301615 METAR LMML 301615Z 28013KT 250V310 9999 FEW012 26/19 Q1013
                        NOSIG=
201106301600 METAR LMML NIL=
201106301545 METAR LMML 301545Z 27012KT 220V300 9999 FEW012 26/20 Q1013
                        NOSIG=
201106301530 METAR LMML NIL=
201106301515 METAR LMML 301515Z 28011KT 250V320 9999 FEW012 27/19 Q1014
                        NOSIG=
201106301500 METAR LMML NIL=
201106301445 METAR LMML 301445Z 29012KT 260V320 9999 FEW012 29/17 Q1014
                        NOSIG=
201106301430 METAR LMML NIL=
201106301415 METAR LMML 301415Z 28013KT 250V320 9999 FEW012 29/18 Q1014
                        NOSIG=
201106301400 METAR LMML NIL=
201106301345 METAR LMML 301345Z 30013KT 270V330 9999 FEW012 28/19 Q1014
                        NOSIG=
201106301330 METAR LMML NIL=
201106301315 METAR LMML 301315Z 30012KT 260V320 9999 FEW012 29/18 Q1014
                        NOSIG=
201106301300 METAR LMML NIL=
201106301245 METAR LMML 301245Z 30014KT 260V320 CAVOK 29/19 Q1014 NOSIG=
201106301230 METAR LMML NIL=
201106301215 METAR LMML 301215Z 28011KT 240V320 9999 FEW012 29/17 Q1014
                        NOSIG=
201106301200 METAR LMML NIL=
201106301145 METAR LMML 301145Z 29010KT 250V320 9999 FEW012 29/15 Q1015
                        NOSIG=
201106301130 METAR LMML NIL=
201106301115 METAR LMML 301115Z 29010KT 260V320 9999 FEW012 30/14 Q1015
                        NOSIG=
201106301100 METAR LMML NIL=
201106301045 METAR LMML 301045Z 29009KT 250V340 9999 FEW012 30/15 Q1015
                        NOSIG=
201106301030 METAR LMML NIL=
201106301015 METAR LMML 301015Z 31010KT 260V340 9999 FEW012 30/15 Q1015
                        NOSIG=
201106301000 METAR LMML NIL=
201106300945 METAR LMML 300945Z 28009KT 9999 FEW012 30/12 Q1015 BECMG
                        CAVOK=
201106300930 METAR LMML NIL=
201106300915 METAR LMML 300915Z 29010KT 260V330 9999 FEW012 30/12 Q1014
                        BECMG CAVOK=
201106300900 METAR LMML NIL=
201106300845 METAR LMML 300845Z 29010KT 240V320 9999 FEW012 30/14 Q1014
                        TEMPO CAVOK=
201106300830 METAR LMML NIL=
201106300815 METAR LMML 300815Z 28012KT 250V310 CAVOK 29/13 Q1014 NOSIG=
201106300800 METAR LMML NIL=
201106300745 METAR LMML 300745Z 28011KT 250V310 CAVOK 28/14 Q1014 NOSIG=
201106300730 METAR LMML NIL=
201106300715 METAR LMML 300715Z 28009KT CAVOK 28/15 Q1014 NOSIG=
201106300700 METAR LMML NIL=
201106300645 METAR LMML 300645Z 25006KT 200V300 CAVOK 27/17 Q1014 NOSIG=
201106300630 METAR LMML NIL=
201106300615 METAR LMML 300615Z 23008KT 200V260 9000 FEW005 25/20 Q1014
                        BECMG 9999=
201106300600 METAR LMML NIL=
201106300545 METAR LMML 300545Z 23009KT 200V270 9000 FEW005 24/21 Q1014
                        BECMG 9999=
201106300530 METAR LMML NIL=
201106300515 METAR LMML 300515Z 24008KT 210V270 8000 FEW005 23/21 Q1014
                        NOSIG=
201106300500 METAR LMML NIL=
201106300445 METAR LMML 300445Z 23007KT 210V270 8000 FEW002 22/21 Q1014
                        BECMG 9000=
201106300430 METAR LMML NIL=
201106300415 METAR LMML 300415Z 23005KT 200V260 6000 FEW002 22/21 Q1014
                        BECMG 9000=
201106300400 METAR LMML NIL=
201106300345 METAR LMML 300345Z 24007KT 4000 BR SCT002 22/21 Q1013 BECMG
                        7000=
201106300330 METAR LMML NIL=
201106300315 METAR LMML 300315Z 24007KT 210V270 7000 FEW002 22/22 Q1013
                        NOSIG=
201106300300 METAR LMML NIL=
201106300245 METAR LMML 300245Z 23005KT 200V270 7000 FEW002 22/21 Q1013
                        NOSIG=
201106300230 METAR LMML NIL=
201106300215 METAR LMML 300215Z 23004KT 7000 SCT002 21/21 Q1013 NOSIG=
201106300130 METAR LMML NIL=
201106300115 METAR LMML 300115Z 21004KT 180V240 5000 BKN002 22/22 Q1013
                        NOSIG=
201106300100 METAR LMML NIL=
201106300045 METAR LMML 300045Z 21005KT 9999 FEW002 22/21 Q1013 NOSIG=
201106300030 METAR LMML NIL=
201106300015 METAR LMML 300015Z 22003KT CAVOK 22/21 Q1014 NOSIG=
201106300000 METAR LMML NIL=
201106292345 METAR LMML 292345Z 21003KT CAVOK 22/21 Q1014 NOSIG=
201106292330 METAR LMML NIL=
201106292315 METAR LMML 292315Z 19003KT CAVOK 22/21 Q1014 NOSIG=
201106292245 METAR LMML 292245Z 19003KT CAVOK 22/20 Q1014 NOSIG=
201106292215 METAR LMML 292215Z VRB02KT CAVOK 23/17 Q1014 NOSIG=
201106292145 METAR LMML 292145Z VRB01KT CAVOK 23/17 Q1014 NOSIG=
201106292115 METAR LMML 292115Z VRB01KT CAVOK 23/17 Q1014 NOSIG=
201106292045 METAR LMML 292045Z VRB02KT CAVOK 24/17 Q1014 NOSIG=
201106292015 METAR LMML 292015Z VRB02KT CAVOK 24/16 Q1014 NOSIG=
201106291945 METAR LMML 291945Z 28005KT CAVOK 24/15 Q1014 NOSIG=
201106291930 METAR LMML NIL=
201106291915 METAR LMML 291915Z 28003KT CAVOK 25/13 Q1013 NOSIG=
201106291900 METAR LMML NIL=
201106291845 METAR LMML 291845Z 27003KT CAVOK 26/12 Q1013 NOSIG=
201106291830 METAR LMML NIL=
201106291815 METAR LMML 291815Z 10003KT CAVOK 27/11 Q1013 NOSIG=
201106291800 METAR LMML NIL=
201106291745 METAR LMML 291745Z 28010KT 240V310 CAVOK 27/12 Q1012 NOSIG=
201106291715 METAR LMML 291715Z 28010KT 240V320 CAVOK 28/12 Q1012 NOSIG=
201106291645 METAR LMML 291645Z 28014KT 250V320 CAVOK 29/12 Q1012 NOSIG=
201106291630 METAR LMML NIL=
201106291615 METAR LMML 291615Z 27015KT CAVOK 29/12 Q1012 NOSIG=
201106291600 METAR LMML NIL=
201106291545 METAR LMML 291545Z 27015KT 240V300 CAVOK 29/11 Q1012 NOSIG=
201106291530 METAR LMML NIL=
201106291515 METAR LMML 291515Z 27013KT 230V310 CAVOK 31/10 Q1012 NOSIG=
201106291500 METAR LMML NIL=
201106291445 METAR LMML 291445Z 28014KT 250V320 CAVOK 32/10 Q1012 NOSIG=
201106291430 METAR LMML NIL=
201106291415 METAR LMML 291415Z 28013KT 240V310 CAVOK 32/10 Q1012 NOSIG=
201106291400 METAR LMML NIL=
201106291345 METAR LMML 291345Z 28013KT 240V310 CAVOK 32/10 Q1012 NOSIG=
201106291330 METAR LMML NIL=
201106291315 METAR LMML 291315Z 28012KT 250V320 CAVOK 31/10 Q1013 NOSIG=
201106291300 METAR LMML NIL=
201106291245 METAR LMML 291245Z 30011KT 250V320 CAVOK 32/10 Q1013 NOSIG=
201106291230 METAR LMML NIL=
201106291215 METAR LMML 291215Z 29012KT 240V330 CAVOK 32/10 Q1013 NOSIG=
201106291200 METAR LMML NIL=
201106291145 METAR LMML 291145Z 29011KT 250V340 CAVOK 32/09 Q1013 NOSIG=
201106291130 METAR LMML NIL=
201106291115 METAR LMML 291115Z 29013KT 250V320 CAVOK 32/09 Q1013 NOSIG=
201106291100 METAR LMML NIL=
201106291045 METAR LMML 291045Z 31010KT 270V350 CAVOK 31/10 Q1013 NOSIG=
201106291030 METAR LMML NIL=
201106291015 METAR LMML 291015Z 30013KT 250V330 CAVOK 32/11 Q1013 NOSIG=
201106291000 METAR LMML NIL=
201106290945 METAR LMML 290945Z 31012KT 280V340 CAVOK 31/11 Q1013 NOSIG=
201106290930 METAR LMML NIL=
201106290915 METAR LMML 290915Z 28008KT 260V330 CAVOK 31/11 Q1013 NOSIG=
201106290900 METAR LMML NIL=
201106290845 METAR LMML 290845Z 31008KT 280V340 CAVOK 30/12 Q1013 NOSIG=
201106290830 METAR LMML NIL=
201106290815 METAR LMML 290815Z 29008KT 260V320 CAVOK 29/14 Q1013 NOSIG=
201106290800 METAR LMML NIL=
201106290745 METAR LMML 290745Z 29007KT 250V320 CAVOK 29/14 Q1013 NOSIG=
201106290730 METAR LMML NIL=
201106290715 METAR LMML 290715Z 30008KT CAVOK 28/16 Q1013 NOSIG=
201106290700 METAR LMML NIL=
201106290645 METAR LMML 290645Z 28008KT CAVOK 27/16 Q1013 NOSIG=
201106290630 METAR LMML NIL=
201106290615 METAR LMML 290615Z 28008KT 240V310 CAVOK 26/17 Q1013 NOSIG=
201106290600 METAR LMML NIL=
201106290545 METAR LMML 290545Z 28008KT 250V310 CAVOK 24/18 Q1013 NOSIG=
201106290530 METAR LMML NIL=
201106290515 METAR LMML 290515Z 30007KT 270V330 CAVOK 24/18 Q1013 NOSIG=
201106290500 METAR LMML NIL=
201106290445 METAR LMML 290445Z 29007KT CAVOK 23/18 Q1012 NOSIG=
201106290430 METAR LMML NIL=
201106290415 METAR LMML 290415Z 29009KT CAVOK 22/18 Q1012 NOSIG=
201106290400 METAR LMML NIL=
201106290345 METAR LMML 290345Z 28008KT 240V310 CAVOK 22/18 Q1012 NOSIG=
201106290330 METAR LMML NIL=
201106290315 METAR LMML 290315Z 28007KT CAVOK 22/17 Q1012 NOSIG=
201106290300 METAR LMML NIL=
201106290245 METAR LMML 290245Z 27006KT CAVOK 22/17 Q1012 NOSIG=
201106290230 METAR LMML NIL=
201106290215 METAR LMML 290215Z 27004KT CAVOK 22/18 Q1012 NOSIG=
201106290200 METAR LMML NIL=
201106290145 METAR LMML 290145Z 27005KT 250V310 CAVOK 22/18 Q1012 NOSIG=
201106290130 METAR LMML NIL=
201106290115 METAR LMML 290115Z 25007KT 220V280 CAVOK 22/17 Q1012 NOSIG=
201106290100 METAR LMML NIL=
201106290045 METAR LMML 290045Z 27006KT CAVOK 22/17 Q1012 NOSIG=
201106290030 METAR LMML NIL=
201106290015 METAR LMML 290015Z 28007KT CAVOK 22/17 Q1013 NOSIG=
201106290000 METAR LMML NIL=
201106282345 METAR LMML 282345Z 28008KT CAVOK 23/16 Q1013 NOSIG=
201106282330 METAR LMML NIL=
201106282315 METAR LMML 282315Z 29006KT CAVOK 23/16 Q1013 NOSIG=
201106282300 METAR LMML NIL=
201106282245 METAR LMML 282245Z 28006KT 240V320 CAVOK 23/15 Q1013 NOSIG=
201106282230 METAR LMML NIL=
201106282215 METAR LMML 282215Z 27008KT 220V300 CAVOK 23/16 Q1014 NOSIG=
201106282200 METAR LMML NIL=
201106282145 METAR LMML 282145Z 25006KT 200V300 CAVOK 23/15 Q1014 NOSIG=
201106282130 METAR LMML NIL=
201106282115 METAR LMML 282115Z 25003KT CAVOK 23/14 Q1014 NOSIG=
201106282100 METAR LMML NIL=
201106282045 METAR LMML 282045Z 24004KT 190V290 CAVOK 23/15 Q1014 NOSIG=
201106282030 METAR LMML NIL=
201106282015 METAR LMML 282015Z 24004KT 200V290 CAVOK 24/13 Q1014 NOSIG=
201106282000 METAR LMML NIL=
201106281945 METAR LMML 281945Z 26004KT 210V310 CAVOK 24/13 Q1014 NOSIG=
201106281930 METAR LMML NIL=
201106281915 METAR LMML 281915Z 28007KT 250V310 CAVOK 24/14 Q1014 NOSIG=
201106281900 METAR LMML NIL=
201106281845 METAR LMML 281845Z 27006KT 240V300 CAVOK 24/14 Q1013 NOSIG=
201106281830 METAR LMML NIL=
201106281815 METAR LMML 281815Z 28008KT 260V320 CAVOK 25/13 Q1013 NOSIG=
201106281800 METAR LMML NIL=
201106281745 METAR LMML 281745Z 29009KT CAVOK 25/13 Q1013 NOSIG=
201106281730 METAR LMML NIL=
201106281715 METAR LMML 281715Z 28009KT 260V320 CAVOK 26/13 Q1014 NOSIG=
201106281700 METAR LMML NIL=
201106281645 METAR LMML 281645Z 28012KT 240V300 CAVOK 26/14 Q1014 NOSIG=
201106281630 METAR LMML NIL=
201106281615 METAR LMML 281615Z 27011KT 220V300 CAVOK 27/14 Q1014 NOSIG=
201106281600 METAR LMML NIL=
201106281545 METAR LMML 281545Z 26011KT 210V300 CAVOK 28/12 Q1014 NOSIG=
201106281530 METAR LMML NIL=
201106281515 METAR LMML 281515Z 25010KT 210V310 CAVOK 28/12 Q1014 NOSIG=
201106281500 METAR LMML NIL=
201106281445 METAR LMML 281445Z 24008KT 190V290 CAVOK 29/13 Q1014 NOSIG=
201106281430 METAR LMML NIL=
201106281415 METAR LMML 281415Z 26012KT 200V300 CAVOK 29/11 Q1015 NOSIG=
201106281400 METAR LMML NIL=
201106281345 METAR LMML 281345Z 24011KT 200V280 CAVOK 29/11 Q1015 NOSIG=
201106281330 METAR LMML NIL=
201106281315 METAR LMML 281315Z 22011KT 190V270 CAVOK 29/11 Q1015 NOSIG=
201106281245 METAR LMML 281245Z 23009KT 200V280 CAVOK 29/10 Q1015 NOSIG=
201106281230 METAR LMML NIL=
201106281215 METAR LMML 281215Z 23009KT 200V280 9999 FEW020 30/11 Q1015
                        NOSIG=
201106281200 METAR LMML NIL=
201106281145 METAR LMML 281145Z 27007KT 110V330 9999 FEW020 30/10 Q1015
                        NOSIG=
201106281130 METAR LMML NIL=
201106281115 METAR LMML 281115Z 21007KT 170V270 9999 FEW020 29/15 Q1016
                        NOSIG=
201106281045 METAR LMML 281045Z 22007KT 180V260 9999 FEW020 29/12 Q1016
                        NOSIG=
201106281030 METAR LMML NIL=
201106281015 METAR LMML 281015Z 20005KT 150V270 9999 FEW020 29/11 Q1016
                        NOSIG=
201106281000 METAR LMML NIL=
201106280945 METAR LMML 280945Z 20006KT 170V260 9999 FEW020 28/14 Q1016
                        NOSIG=
201106280930 METAR LMML NIL=
201106280915 METAR LMML 280915Z 21006KT 170V260 CAVOK 28/13 Q1016 NOSIG=
201106280900 METAR LMML NIL=
201106280845 METAR LMML 280845Z 20005KT 160V260 CAVOK 28/12 Q1016 NOSIG=
201106280830 METAR LMML NIL=
201106280815 METAR LMML 280815Z 19004KT 140V230 CAVOK 28/12 Q1016 NOSIG=
201106280745 METAR LMML 280745Z 23004KT 190V280 CAVOK 27/15 Q1017 NOSIG=
201106280730 METAR LMML NIL=
201106280715 METAR LMML 280715Z VRB02KT CAVOK 27/15 Q1016 NOSIG=
201106280700 METAR LMML NIL=
201106280645 METAR LMML 280645Z VRB02KT CAVOK 25/17 Q1017 NOSIG=
201106280630 METAR LMML NIL=
201106280615 METAR LMML 280615Z VRB02KT CAVOK 24/17 Q1017 NOSIG=
201106280600 METAR LMML NIL=
201106280545 METAR LMML 280545Z 31003KT CAVOK 23/18 Q1017 NOSIG=
201106280530 METAR LMML NIL=
201106280515 METAR LMML 280515Z VRB02KT CAVOK 22/18 Q1016 NOSIG=
201106280500 METAR LMML NIL=
201106280445 METAR LMML 280445Z 32003KT CAVOK 21/18 Q1016 NOSIG=
201106280430 METAR LMML NIL=
201106280415 METAR LMML 280415Z 23004KT 200V270 CAVOK 21/18 Q1016 NOSIG=
201106280400 METAR LMML NIL=
201106280345 METAR LMML 280345Z 21004KT 180V240 CAVOK 21/18 Q1016 NOSIG=
201106280330 METAR LMML NIL=
201106280315 METAR LMML 280315Z 21005KT 160V250 CAVOK 21/18 Q1016 NOSIG=
201106280300 METAR LMML NIL=
201106280245 METAR LMML 280245Z 21005KT 170V240 CAVOK 21/17 Q1016 NOSIG=
201106280230 METAR LMML NIL=
201106280215 METAR LMML 280215Z 21004KT 170V260 CAVOK 21/17 Q1016 NOSIG=
201106280200 METAR LMML NIL=
201106280145 METAR LMML 280145Z 21004KT 170V250 CAVOK 21/17 Q1016 NOSIG=
201106280130 METAR LMML NIL=
201106280115 METAR LMML 280115Z 20004KT 170V240 CAVOK 21/18 Q1016 NOSIG=
201106280100 METAR LMML NIL=
201106280045 METAR LMML 280045Z 19003KT CAVOK 21/18 Q1016 NOSIG=
201106280030 METAR LMML NIL=
201106280015 METAR LMML 280015Z 19004KT 160V230 CAVOK 21/18 Q1017 NOSIG=
201106280000 METAR LMML NIL=
201106272345 METAR LMML 272345Z 20003KT CAVOK 21/17 Q1017 NOSIG=
201106272330 METAR LMML NIL=
201106272315 METAR LMML 272315Z 20003KT CAVOK 21/17 Q1017 NOSIG=
201106272300 METAR LMML NIL=
201106272245 METAR LMML 272245Z VRB02KT CAVOK 21/17 Q1017 NOSIG=
201106272230 METAR LMML NIL=
201106272215 METAR LMML 272215Z 20003KT CAVOK 21/17 Q1017 NOSIG=
201106272200 METAR LMML NIL=
201106272145 METAR LMML 272145Z 20003KT CAVOK 21/17 Q1017 NOSIG=
201106272115 METAR LMML 272115Z VRB02KT CAVOK 22/17 Q1018 NOSIG=
201106272100 METAR LMML NIL=
201106272045 METAR LMML 272045Z VRB02KT CAVOK 22/17 Q1018 NOSIG=
201106272030 METAR LMML NIL=
201106272015 METAR LMML 272015Z VRB02KT CAVOK 22/16 Q1017 NOSIG RMK SMOKE=
201106272000 METAR LMML NIL=
201106271945 METAR LMML 271945Z VRB01KT CAVOK 23/15 Q1017 NOSIG=
201106271930 METAR LMML NIL=
201106271915 METAR LMML 271915Z VRB02KT CAVOK 23/15 Q1017 NOSIG=
201106271900 METAR LMML NIL=
201106271845 METAR LMML 271845Z VRB02KT CAVOK 23/15 Q1017 NOSIG=
201106271830 METAR LMML NIL=
201106271815 METAR LMML 271815Z VRB01KT CAVOK 24/15 Q1017 NOSIG=
201106271800 METAR LMML NIL=
201106271745 METAR LMML 271745Z 29004KT 260V330 CAVOK 25/13 Q1017 NOSIG=
201106271730 METAR LMML NIL=
201106271715 METAR LMML 271715Z VRB02KT CAVOK 26/15 Q1017 NOSIG=
201106271700 METAR LMML NIL=
201106271645 METAR LMML 271645Z 04006KT 340V080 9999 FEW043 26/16 Q1017
                        BECMG CAVOK=
201106271630 METAR LMML NIL=
201106271615 METAR LMML 271615Z 03007KT 360V060 9999 FEW043 27/14 Q1017
                        NOSIG=
201106271600 METAR LMML NIL=
201106271545 METAR LMML 271545Z 02007KT 350V070 9999 FEW043 27/14 Q1017
                        NOSIG=
201106271530 METAR LMML NIL=
201106271515 METAR LMML 271515Z 31006KT 9999 FEW043 27/15 Q1017 NOSIG=
201106271500 METAR LMML NIL=
201106271445 METAR LMML 271445Z 22007KT 170V260 9999 FEW043 28/14 Q1018
                        NOSIG=
201106271430 METAR LMML NIL=
201106271415 METAR LMML 271415Z 23005KT 160V320 9999 FEW040 27/15 Q1018
                        NOSIG=
201106271345 METAR LMML 271345Z 21004KT 110V290 9999 FEW038 28/15 Q1018
                        NOSIG=
201106271330 METAR LMML NIL=
201106271315 METAR LMML 271315Z 15006KT 090V210 9999 FEW039 26/16 Q1018
                        NOSIG=
201106271300 METAR LMML NIL=
201106271245 METAR LMML 271245Z 10006KT 340V200 CAVOK 28/16 Q1018 NOSIG=
201106271230 METAR LMML NIL=
201106271215 METAR LMML 271215Z 03006KT 350V070 9999 FEW037 29/11 Q1018
                        NOSIG=
201106271145 METAR LMML 271145Z 03006KT 340V080 9999 FEW020 29/11 Q1018
                        NOSIG=
201106271130 METAR LMML NIL=
201106271115 METAR LMML 271115Z 03008KT 350V070 9999 FEW020 29/12 Q1019
                        BECMG CAVOK=
201106271045 METAR LMML 271045Z 02008KT 330V080 9999 FEW020 28/12 Q1019
                        BECMG CAVOK=
201106271030 METAR LMML NIL=
201106271015 METAR LMML 271015Z 04007KT 320V100 9999 FEW020 29/11 Q1019
                        BECMG CAVOK=
201106271000 METAR LMML NIL=
201106270945 METAR LMML 270945Z 01008KT 340V050 9999 FEW020 29/12 Q1019
                        BECMG CAVOK=
201106270930 METAR LMML NIL=
201106270915 METAR LMML 270915Z 03005KT 320V110 9999 FEW020 28/12 Q1019
                        BECMG CAVOK=
201106270900 METAR LMML NIL=
201106270845 METAR LMML 270845Z 01006KT 300V070 9999 FEW020 28/11 Q1019
                        BECMG CAVOK=
201106270830 METAR LMML NIL=
201106270815 METAR LMML 270815Z 01006KT 320V060 9999 FEW020 28/11 Q1019
                        BECMG CAVOK=
201106270800 METAR LMML NIL=
201106270745 METAR LMML 270745Z 02004KT 310V070 9999 FEW020 27/12 Q1019
                        BECMG CAVOK=
201106270730 METAR LMML NIL=
201106270715 METAR LMML 270715Z VRB02KT 9999 FEW020 26/14 Q1019 NOSIG=
201106270700 METAR LMML NIL=
201106270645 METAR LMML 270645Z 32003KT 9999 FEW020 25/16 Q1019 NOSIG=
201106270630 METAR LMML NIL=
201106270615 METAR LMML 270615Z VRB02KT 9999 FEW020 24/17 Q1019 NOSIG=
201106270545 METAR LMML 270545Z VRB01KT 9999 FEW020 23/18 Q1018 NOSIG=
201106270530 METAR LMML NIL=
201106270515 METAR LMML 270515Z 00000KT 9999 FEW018 22/18 Q1018 NOSIG=
201106270500 METAR LMML NIL=
201106270445 METAR LMML 270445Z 00000KT 9999 FEW018 20/18 Q1018 NOSIG=
201106270430 METAR LMML NIL=
201106270415 METAR LMML 270415Z VRB02KT 9999 FEW018 19/17 Q1018 NOSIG=
201106270400 METAR LMML NIL=
201106270345 METAR LMML 270345Z VRB02KT CAVOK 19/18 Q1018 NOSIG=
201106270330 METAR LMML NIL=
201106270315 METAR LMML 270315Z VRB02KT 9999 FEW020 19/17 Q1018 NOSIG=
201106270300 METAR LMML NIL=
201106270245 METAR LMML 270245Z VRB02KT 9999 FEW020 19/17 Q1018 NOSIG=
201106270230 METAR LMML NIL=
201106270215 METAR LMML 270215Z VRB01KT CAVOK 19/17 Q1018 NOSIG=
201106270200 METAR LMML NIL=
201106270145 METAR LMML 270145Z VRB01KT CAVOK 20/17 Q1018 NOSIG=
201106270130 METAR LMML NIL=
201106270115 METAR LMML 270115Z VRB02KT CAVOK 20/18 Q1018 NOSIG=
201106270100 METAR LMML NIL=
201106270045 METAR LMML 270045Z VRB02KT CAVOK 21/18 Q1018 NOSIG=
201106270030 METAR LMML NIL=
201106270015 METAR LMML 270015Z VRB02KT CAVOK 21/18 Q1018 NOSIG=
201106270000 METAR LMML NIL=
201106262345 METAR LMML 262345Z 14003KT CAVOK 21/18 Q1018 NOSIG=
201106262330 METAR LMML NIL=
201106262315 METAR LMML 262315Z 15004KT 120V190 CAVOK 22/18 Q1018 NOSIG=
201106262300 METAR LMML NIL=
201106262245 METAR LMML 262245Z 14006KT CAVOK 22/18 Q1018 NOSIG=
201106262215 METAR LMML 262215Z 13005KT CAVOK 21/18 Q1019 NOSIG=
201106262200 METAR LMML NIL=
201106262145 METAR LMML 262145Z 13005KT 9999 FEW014 22/18 Q1019 NOSIG=
201106262130 METAR LMML NIL=
201106262115 METAR LMML 262115Z 14006KT 9999 FEW014 22/18 Q1019 NOSIG=
201106262100 METAR LMML NIL=
201106262045 METAR LMML 262045Z 13005KT 9999 FEW015 22/18 Q1019 NOSIG=
201106262030 METAR LMML NIL=
201106262015 METAR LMML 262015Z VRB02KT 9999 FEW025 22/19 Q1018 NOSIG=
201106262000 METAR LMML NIL=
201106261945 METAR LMML 261945Z VRB02KT 9999 FEW025 23/19 Q1018 NOSIG=
201106261930 METAR LMML NIL=
201106261915 METAR LMML 261915Z 20004KT 160V240 9999 FEW025 23/19 Q1018
                        NOSIG=
201106261900 METAR LMML NIL=
201106261845 METAR LMML 261845Z 23005KT 200V270 9999 FEW030 23/19 Q1018
                        NOSIG=
201106261830 METAR LMML NIL=
201106261815 METAR LMML 261815Z 22005KT 190V280 9999 FEW030 23/19 Q1018
                        NOSIG=
201106261800 METAR LMML NIL=
201106261745 METAR LMML 261745Z 22007KT 200V260 9999 FEW029 24/18 Q1018
                        NOSIG=
201106261715 METAR LMML 261715Z 21007KT 170V250 9999 SCT030 25/18 Q1018
                        NOSIG=
201106261700 METAR LMML NIL=
201106261645 METAR LMML 261645Z 19006KT 160V240 9999 SCT018 25/17 Q1017
                        NOSIG=
201106261630 METAR LMML NIL=
201106261615 METAR LMML 261615Z 22004KT 150V270 9999 SCT024 SCT045 25/18
                        Q1018 NOSIG=
201106261600 METAR LMML NIL=
201106261545 METAR LMML 261545Z 23004KT 200V270 9999 SCT023 SCT045 25/17
                        Q1018 NOSIG=
201106261530 METAR LMML NIL=
201106261515 METAR LMML 261515Z 22003KT 9999 SCT030 SCT045 25/17 Q1018
                        NOSIG=
201106261445 METAR LMML 261445Z 13004KT 090V180 9999 SCT029 25/17 Q1018
                        NOSIG=
201106261430 METAR LMML NIL=
201106261415 METAR LMML 261415Z 14004KT 060V220 9999 SCT030 25/17 Q1018
                        NOSIG=
201106261400 METAR LMML NIL=
201106261345 METAR LMML 261345Z 14003KT 9999 SCT032 26/17 Q1018 NOSIG=
201106261330 METAR LMML NIL=
201106261315 METAR LMML 261315Z 15004KT 100V220 9999 SCT027 26/17 Q1018
                        NOSIG=
201106261300 METAR LMML NIL=
201106261245 METAR LMML 261245Z 05003KT 9999 SCT028 29/17 Q1018 NOSIG=
201106261230 METAR LMML NIL=
201106261215 METAR LMML 261215Z 03005KT 330V110 9999 SCT025 29/17 Q1018
                        NOSIG=
201106261200 METAR LMML NIL=
201106261145 METAR LMML 261145Z 02006KT 320V090 9999 FEW025 29/16 Q1018
                        NOSIG=
201106261130 METAR LMML NIL=
201106261115 METAR LMML 261115Z 03008KT 360V060 9999 FEW020 28/16 Q1018
                        NOSIG=
201106261100 METAR LMML NIL=
201106261045 METAR LMML 261045Z 01007KT 330V040 9999 FEW020 28/16 Q1018
                        NOSIG=
201106261030 METAR LMML NIL=
201106261015 METAR LMML 261015Z 04009KT 340V100 9999 FEW020 28/15 Q1018
                        NOSIG=
201106261000 METAR LMML NIL=
201106260945 METAR LMML 260945Z 04008KT 010V090 9999 FEW020 28/16 Q1018
                        NOSIG=
201106260930 METAR LMML NIL=
201106260915 METAR LMML 260915Z 05007KT 360V100 9999 FEW018 28/16 Q1018
                        NOSIG=
201106260900 METAR LMML NIL=
201106260845 METAR LMML 260845Z 08008KT 030V130 9999 FEW018 28/17 Q1018
                        NOSIG=
201106260830 METAR LMML NIL=
201106260815 METAR LMML 260815Z 08009KT 050V120 9999 FEW018 27/15 Q1018
                        NOSIG=
201106260800 METAR LMML NIL=
201106260745 METAR LMML 260745Z 34005KT 9999 FEW018 27/17 Q1018 NOSIG=
201106260730 METAR LMML NIL=
201106260715 METAR LMML 260715Z 10007KT 040V140 9999 FEW018 26/18 Q1018
                        NOSIG=
201106260700 METAR LMML NIL=
201106260645 METAR LMML 260645Z 09008KT 040V130 9999 FEW018 25/19 Q1017
                        NOSIG=
201106260630 METAR LMML NIL=
201106260615 METAR LMML 260615Z 08008KT 030V110 9999 FEW014 25/19 Q1017
                        NOSIG=
201106260600 METAR LMML NIL=
201106260545 METAR LMML 260545Z 07009KT 040V100 9999 FEW018 24/19 Q1017
                        NOSIG=
201106260530 METAR LMML NIL=
201106260515 METAR LMML 260515Z 07007KT 030V140 9999 FEW018 24/20 Q1017
                        NOSIG=
201106260500 METAR LMML NIL=
201106260445 METAR LMML 260445Z 04006KT 010V080 9999 FEW018 23/20 Q1016
                        NOSIG=
201106260415 METAR LMML 260415Z 03007KT CAVOK 22/19 Q1016 NOSIG=
201106260400 METAR LMML NIL=
201106260345 METAR LMML 260345Z 02005KT 360V070 CAVOK 22/19 Q1016 NOSIG=
201106260315 METAR LMML 260315Z 03006KT 010V070 CAVOK 22/18 Q1016 NOSIG=
201106260300 METAR LMML NIL=
201106260245 METAR LMML 260245Z 03005KT 350V080 CAVOK 22/19 Q1016 NOSIG=
201106260230 METAR LMML NIL=
201106260215 METAR LMML 260215Z 05004KT 010V080 CAVOK 22/20 Q1016 NOSIG=
201106260200 METAR LMML NIL=
201106260145 METAR LMML 260145Z 04003KT CAVOK 22/20 Q1016 NOSIG=
201106260130 METAR LMML NIL=
201106260115 METAR LMML 260115Z 06004KT CAVOK 22/19 Q1016 NOSIG=
201106260100 METAR LMML NIL=
201106260045 METAR LMML 260045Z 07003KT CAVOK 22/19 Q1016 NOSIG=
201106260030 METAR LMML NIL=
201106260015 METAR LMML 260015Z 09003KT CAVOK 21/18 Q1016 NOSIG=
201106260000 METAR LMML NIL=
201106252345 METAR LMML 252345Z VRB02KT CAVOK 22/17 Q1016 NOSIG=
201106252330 METAR LMML NIL=
201106252315 METAR LMML 252315Z VRB02KT CAVOK 22/16 Q1016 NOSIG=
201106252300 METAR LMML NIL=
201106252245 METAR LMML 252245Z VRB01KT CAVOK 21/16 Q1016 NOSIG=
201106252230 METAR LMML NIL=
201106252215 METAR LMML 252215Z VRB01KT CAVOK 21/16 Q1016 NOSIG=
201106252145 METAR LMML 252145Z VRB02KT CAVOK 22/16 Q1016 NOSIG=
201106252115 METAR LMML 252115Z VRB02KT CAVOK 22/16 Q1016 NOSIG=
201106252045 METAR LMML 252045Z 31004KT CAVOK 22/17 Q1016 NOSIG=
201106252030 METAR LMML NIL=
201106252015 METAR LMML 252015Z 31005KT CAVOK 22/17 Q1016 NOSIG=
201106252000 METAR LMML NIL=
201106251945 METAR LMML 251945Z 31005KT CAVOK 22/17 Q1016 NOSIG=
201106251930 METAR LMML NIL=
201106251915 METAR LMML 251915Z 31006KT CAVOK 23/17 Q1016 NOSIG=
201106251900 METAR LMML NIL=
201106251845 METAR LMML 251845Z 31008KT CAVOK 23/16 Q1016 NOSIG=
201106251830 METAR LMML NIL=
201106251815 METAR LMML 251815Z 32008KT CAVOK 24/16 Q1016 NOSIG=
201106251800 METAR LMML NIL=
201106251745 METAR LMML 251745Z 33009KT CAVOK 25/16 Q1015 NOSIG=
201106251730 METAR LMML NIL=
201106251715 METAR LMML 251715Z 33008KT CAVOK 26/16 Q1015 NOSIG=
201106251645 METAR LMML 251645Z 33010KT CAVOK 27/16 Q1015 NOSIG=
201106251630 METAR LMML NIL=
201106251615 METAR LMML 251615Z 32012KT CAVOK 27/17 Q1015 NOSIG=
201106251600 METAR LMML NIL=
201106251545 METAR LMML 251545Z 33011KT CAVOK 27/18 Q1015 NOSIG=
201106251530 METAR LMML NIL=
201106251515 METAR LMML 251515Z 33014KT CAVOK 27/18 Q1015 NOSIG=
201106251500 METAR LMML NIL=
201106251445 METAR LMML 251445Z 33014KT 9999 FEW020 27/18 Q1016 NOSIG=
201106251430 METAR LMML NIL=
201106251415 METAR LMML 251415Z 33013KT 9999 FEW020 27/19 Q1015 NOSIG=
201106251400 METAR LMML NIL=
201106251345 METAR LMML 251345Z 33014KT 9999 FEW020 27/19 Q1016 NOSIG=
201106251330 METAR LMML NIL=
201106251315 METAR LMML 251315Z 34015KT 9999 FEW020 28/18 Q1016 NOSIG=
201106251300 METAR LMML NIL=
201106251245 METAR LMML 251245Z 35015KT 9999 FEW020 28/18 Q1016 NOSIG=
201106251230 METAR LMML NIL=
201106251215 METAR LMML 251215Z 34013KT 280V030 9999 FEW020 29/18 Q1016
                        NOSIG=
201106251200 METAR LMML NIL=
201106251145 METAR LMML 251145Z 31011KT 270V010 9999 FEW020 28/19 Q1016
                        NOSIG=
201106251130 METAR LMML NIL=
201106251115 METAR LMML 251115Z 29013KT 260V330 9999 FEW020 27/19 Q1016
                        NOSIG=
201106251045 METAR LMML 251045Z 30012KT 9999 FEW020 27/18 Q1016 NOSIG=
201106251030 METAR LMML NIL=
201106251015 METAR LMML 251015Z 29012KT 260V320 9999 FEW020 27/18 Q1016
                        NOSIG=
201106251000 METAR LMML NIL=
201106250945 METAR LMML 250945Z 30013KT 270V330 9999 FEW020 27/19 Q1016
                        NOSIG=
201106250930 METAR LMML NIL=
201106250915 METAR LMML 250915Z 30014KT 9999 FEW020 27/18 Q1016 NOSIG=
201106250900 METAR LMML NIL=
201106250845 METAR LMML 250845Z 30011KT CAVOK 27/18 Q1016 NOSIG=
201106250830 METAR LMML NIL=
201106250815 METAR LMML 250815Z 31012KT CAVOK 27/18 Q1015 NOSIG=
201106250800 METAR LMML NIL=
201106250745 METAR LMML 250745Z 31011KT 280V340 CAVOK 27/17 Q1015 NOSIG=
201106250730 METAR LMML NIL=
201106250715 METAR LMML 250715Z 31012KT CAVOK 26/18 Q1015 NOSIG=
201106250700 METAR LMML NIL=
201106250645 METAR LMML 250645Z 31012KT 280V340 CAVOK 26/18 Q1015 NOSIG=
201106250630 METAR LMML NIL=
201106250615 METAR LMML 250615Z 31009KT 290V350 CAVOK 25/18 Q1015 NOSIG=
201106250600 METAR LMML NIL=
201106250545 METAR LMML 250545Z 32009KT CAVOK 24/17 Q1015 NOSIG=
201106250530 METAR LMML NIL=
201106250515 METAR LMML 250515Z 33008KT 300V360 CAVOK 23/17 Q1015 NOSIG=
201106250500 METAR LMML NIL=
201106250445 METAR LMML 250445Z 32009KT CAVOK 22/17 Q1015 NOSIG=
201106250430 METAR LMML NIL=
201106250415 METAR LMML 250415Z 33009KT CAVOK 22/17 Q1014 TEMPO 9999 FEW012=
201106250400 METAR LMML NIL=
201106250345 METAR LMML 250345Z 33008KT CAVOK 22/17 Q1014 TEMPO 9999 FEW012=
201106250330 METAR LMML NIL=
201106250315 METAR LMML 250315Z 33008KT CAVOK 22/17 Q1014 TEMPO 9999 FEW012=
201106250300 METAR LMML NIL=
201106250245 METAR LMML 250245Z 33008KT CAVOK 22/18 Q1014 TEMPO 9999 FEW012=
201106250230 METAR LMML NIL=
201106250215 METAR LMML 250215Z 33008KT CAVOK 22/19 Q1014 NOSIG=
201106250145 METAR LMML 250145Z 32011KT CAVOK 22/18 Q1014 NOSIG=
201106250130 METAR LMML NIL=
201106250115 METAR LMML 250115Z 31005KT 270V340 CAVOK 22/19 Q1014 NOSIG=
201106250100 METAR LMML NIL=
201106250045 METAR LMML 250045Z 32007KT 280V350 CAVOK 22/19 Q1014 NOSIG=
201106250030 METAR LMML NIL=
201106250015 METAR LMML 250015Z 30010KT CAVOK 22/19 Q1015 NOSIG=
201106250000 METAR LMML NIL=
201106242345 METAR LMML 242345Z 30007KT 270V330 CAVOK 22/19 Q1015 NOSIG=
201106242330 METAR LMML NIL=
201106242315 METAR LMML 242315Z 29010KT CAVOK 22/19 Q1015 NOSIG=
201106242300 METAR LMML NIL=
201106242245 METAR LMML 242245Z 29011KT 260V330 CAVOK 23/19 Q1015 NOSIG=
201106242230 METAR LMML NIL=
201106242215 METAR LMML 242215Z 28008KT 240V310 CAVOK 23/18 Q1015 NOSIG=
201106242200 METAR LMML NIL=
201106242145 METAR LMML 242145Z VRB02KT CAVOK 23/17 Q1016 NOSIG=
201106242130 METAR LMML NIL=
201106242115 METAR LMML 242115Z 29006KT 260V320 CAVOK 23/17 Q1016 NOSIG=
201106242100 METAR LMML NIL=
201106242045 METAR LMML 242045Z 30003KT CAVOK 23/16 Q1016 NOSIG=
201106242030 METAR LMML NIL=
201106242015 METAR LMML 242015Z VRB02KT CAVOK 23/16 Q1015 NOSIG=
201106242000 METAR LMML NIL=
201106241945 METAR LMML 241945Z 31006KT 270V340 CAVOK 24/16 Q1015 NOSIG=
201106241930 METAR LMML NIL=
201106241915 METAR LMML 241915Z 31004KT 270V350 CAVOK 23/17 Q1015 NOSIG=
201106241900 METAR LMML NIL=
201106241845 METAR LMML 241845Z 31007KT CAVOK 23/18 Q1015 NOSIG=
201106241830 METAR LMML NIL=
201106241815 METAR LMML 241815Z 31009KT 270V330 CAVOK 24/18 Q1015 NOSIG=
201106241800 METAR LMML NIL=
201106241745 METAR LMML 241745Z 31008KT 280V340 CAVOK 25/18 Q1015 NOSIG=
201106241730 METAR LMML NIL=
201106241715 METAR LMML 241715Z 30010KT CAVOK 27/17 Q1015 NOSIG=
201106241700 METAR LMML NIL=
201106241645 METAR LMML 241645Z 32010KT CAVOK 28/16 Q1015 NOSIG=
201106241630 METAR LMML NIL=
201106241615 METAR LMML 241615Z 30011KT CAVOK 29/14 Q1014 NOSIG=
201106241600 METAR LMML NIL=
201106241545 METAR LMML 241545Z 31012KT 9999 FEW020 29/15 Q1015 BECMG
                        CAVOK=
201106241530 METAR LMML NIL=
201106241515 METAR LMML 241515Z 32011KT 9999 FEW020 29/15 Q1015 BECMG
                        CAVOK=
201106241500 METAR LMML NIL=
201106241445 METAR LMML 241445Z 31012KT 280V340 9999 FEW020 30/14 Q1015
                        BECMG CAVOK=
201106241430 METAR LMML NIL=
201106241415 METAR LMML 241415Z 29012KT 260V320 9999 FEW020 30/12 Q1015
                        BECMG CAVOK=
201106241345 METAR LMML 241345Z 29012KT 250V320 9999 FEW020 30/15 Q1015
                        BECMG CAVOK=
201106241315 METAR LMML 241315Z 29010KT 230V320 9999 FEW020 31/15 Q1016
                        BECMG CAVOK=
201106241300 METAR LMML NIL=
201106241245 METAR LMML 241245Z 28010KT 230V320 9999 FEW020 31/15 Q1016
                        NOSIG=
201106241230 METAR LMML NIL=
201106241215 METAR LMML 241215Z 28011KT CAVOK 30/14 Q1016 BECMG 9999 FEW020=
201106241200 METAR LMML NIL=
201106241145 METAR LMML 241145Z 29010KT 260V330 CAVOK 30/15 Q1016 NOSIG=
201106241115 METAR LMML 241115Z 29010KT 230V320 CAVOK 31/14 Q1016 NOSIG=
201106241045 METAR LMML 241045Z 30012KT 240V330 CAVOK 31/12 Q1017 NOSIG=
201106241030 METAR LMML NIL=
201106241015 METAR LMML 241015Z 30013KT 260V320 CAVOK 31/09 Q1017 NOSIG=
201106241000 METAR LMML NIL=
201106240945 METAR LMML 240945Z 30010KT 270V330 CAVOK 30/12 Q1016 NOSIG=
201106240930 METAR LMML NIL=
201106240915 METAR LMML 240915Z 31009KT 280V340 CAVOK 30/13 Q1016 NOSIG=
201106240900 METAR LMML NIL=
201106240830 METAR LMML NIL=
201106240815 METAR LMML 240815Z 32010KT 290V360 CAVOK 29/14 Q1016 NOSIG=
201106240800 METAR LMML NIL=
201106240745 METAR LMML 240745Z 32011KT 290V360 CAVOK 28/14 Q1016 NOSIG=
201106240730 METAR LMML NIL=
201106240715 METAR LMML 240715Z 31010KT 280V350 CAVOK 27/15 Q1016 NOSIG=
201106240700 METAR LMML NIL=
201106240645 METAR LMML 240645Z 32012KT CAVOK 27/15 Q1016 NOSIG=
201106240630 METAR LMML NIL=
201106240615 METAR LMML 240615Z 31010KT 280V340 CAVOK 26/14 Q1016 NOSIG=
201106240545 METAR LMML 240545Z 31006KT 270V330 CAVOK 26/15 Q1016 NOSIG=
201106240530 METAR LMML NIL=
201106240515 METAR LMML 240515Z 31006KT CAVOK 24/15 Q1016 NOSIG=
201106240445 METAR LMML 240445Z 30004KT CAVOK 23/15 Q1016 NOSIG=
201106240430 METAR LMML NIL=
201106240415 METAR LMML 240415Z 31004KT CAVOK 22/14 Q1016 NOSIG=
201106240400 METAR LMML NIL=
201106240345 METAR LMML 240345Z 30005KT CAVOK 22/13 Q1016 NOSIG=
201106240330 METAR LMML NIL=
201106240315 METAR LMML 240315Z 31005KT CAVOK 22/13 Q1016 NOSIG=
201106240300 METAR LMML NIL=
201106240245 METAR LMML 240245Z 32004KT CAVOK 22/13 Q1016 NOSIG=
201106240230 METAR LMML NIL=
201106240215 METAR LMML 240215Z 31004KT 280V340 CAVOK 22/12 Q1016 NOSIG=
201106240200 METAR LMML NIL=
201106240145 METAR LMML 240145Z 31004KT CAVOK 22/13 Q1016 NOSIG=
201106240115 METAR LMML 240115Z 31004KT CAVOK 22/13 Q1016 NOSIG=
201106240100 METAR LMML NIL=
201106240045 METAR LMML 240045Z 31004KT CAVOK 22/13 Q1016 NOSIG=
201106240030 METAR LMML NIL=
201106240015 METAR LMML 240015Z 31005KT CAVOK 22/14 Q1016 NOSIG=
201106240000 METAR LMML NIL=
201106232345 METAR LMML 232345Z 31005KT CAVOK 22/14 Q1017 NOSIG=
201106232330 METAR LMML NIL=
201106232315 METAR LMML 232315Z 32005KT CAVOK 22/13 Q1017 NOSIG=
201106232300 METAR LMML NIL=
201106232245 METAR LMML 232245Z 31004KT CAVOK 22/12 Q1017 NOSIG=
201106232230 METAR LMML NIL=
201106232215 METAR LMML 232215Z 31005KT CAVOK 22/13 Q1017 NOSIG=
201106232200 METAR LMML NIL=
201106232145 METAR LMML 232145Z 31005KT CAVOK 22/14 Q1017 NOSIG=
201106232130 METAR LMML NIL=
201106232115 METAR LMML 232115Z 31004KT CAVOK 22/15 Q1017 NOSIG=
201106232100 METAR LMML NIL=
201106232045 METAR LMML 232045Z 31004KT CAVOK 22/16 Q1017 NOSIG=
201106232030 METAR LMML NIL=
201106232015 METAR LMML 232015Z 31004KT CAVOK 23/17 Q1017 NOSIG=
201106232000 METAR LMML NIL=
201106231945 METAR LMML 231945Z 31004KT CAVOK 23/17 Q1017 NOSIG=
201106231930 METAR LMML NIL=
201106231915 METAR LMML 231915Z 31005KT CAVOK 23/17 Q1017 NOSIG=
201106231845 METAR LMML 231845Z 31005KT CAVOK 24/16 Q1017 NOSIG=
201106231830 METAR LMML NIL=
201106231815 METAR LMML 231815Z 31006KT CAVOK 25/15 Q1017 NOSIG=
201106231800 METAR LMML NIL=
201106231745 METAR LMML 231745Z 32005KT 280V020 CAVOK 26/15 Q1017 NOSIG=
201106231730 METAR LMML NIL=
201106231715 METAR LMML 231715Z 34004KT 280V070 CAVOK 27/15 Q1017 NOSIG=
201106231700 METAR LMML NIL=
201106231645 METAR LMML 231645Z 14004KT 100V190 CAVOK 27/18 Q1016 NOSIG=
201106231630 METAR LMML NIL=
201106231615 METAR LMML 231615Z 13004KT 070V180 CAVOK 27/17 Q1016 NOSIG=
201106231600 METAR LMML NIL=
201106231545 METAR LMML 231545Z 13004KT 020V200 CAVOK 28/17 Q1016 NOSIG=
201106231530 METAR LMML NIL=
201106231515 METAR LMML 231515Z 09006KT 050V130 CAVOK 28/17 Q1017 NOSIG=
201106231500 METAR LMML NIL=
201106231445 METAR LMML 231445Z 09007KT 040V130 CAVOK 29/17 Q1017 NOSIG=
201106231430 METAR LMML NIL=
201106231415 METAR LMML 231415Z 08007KT 040V140 CAVOK 29/17 Q1017 NOSIG=
201106231400 METAR LMML NIL=
201106231345 METAR LMML 231345Z 21003KT CAVOK 30/16 Q1017 NOSIG=
201106231330 METAR LMML NIL=
201106231315 METAR LMML 231315Z VRB02KT CAVOK 30/14 Q1017 NOSIG=
201106231300 METAR LMML NIL=
201106231245 METAR LMML 231245Z 35005KT CAVOK 30/16 Q1017 NOSIG=
201106231230 METAR LMML NIL=
201106231215 METAR LMML 231215Z 19006KT 150V240 CAVOK 29/15 Q1017 NOSIG=
201106231200 METAR LMML NIL=
201106231145 METAR LMML 231145Z 19006KT 140V250 CAVOK 29/15 Q1017 NOSIG=
201106231130 METAR LMML NIL=
201106231115 METAR LMML 231115Z 03005KT CAVOK 30/14 Q1017 NOSIG=
201106231100 METAR LMML NIL=
201106231045 METAR LMML 231045Z 19004KT 120V270 CAVOK 29/17 Q1017 NOSIG=
201106231030 METAR LMML NIL=
201106231015 METAR LMML 231015Z 05006KT 360V160 CAVOK 31/13 Q1017 NOSIG=
201106231000 METAR LMML NIL=
201106230945 METAR LMML 230945Z 09004KT 340V260 CAVOK 30/12 Q1017 NOSIG=
201106230930 METAR LMML NIL=
201106230915 METAR LMML 230915Z 12003KT CAVOK 30/15 Q1018 NOSIG=
201106230900 METAR LMML NIL=
201106230845 METAR LMML 230845Z 21005KT 180V260 CAVOK 28/17 Q1018 NOSIG=
201106230815 METAR LMML 230815Z 20004KT 150V240 CAVOK 28/16 Q1018 NOSIG=
201106230800 METAR LMML NIL=
201106230745 METAR LMML 230745Z VRB02KT CAVOK 28/16 Q1018 NOSIG=
201106230730 METAR LMML NIL=
201106230715 METAR LMML 230715Z VRB01KT CAVOK 28/12 Q1018 NOSIG=
201106230645 METAR LMML 230645Z VRB02KT CAVOK 26/13 Q1018 NOSIG=
201106230630 METAR LMML NIL=
201106230615 METAR LMML 230615Z VRB02KT 9999 FEW020 25/13 Q1018 NOSIG=
201106230600 METAR LMML NIL=
201106230545 METAR LMML 230545Z VRB02KT 9999 FEW020 24/14 Q1018 NOSIG=
201106230530 METAR LMML NIL=
201106230515 METAR LMML 230515Z VRB02KT 9999 FEW020 23/14 Q1017 NOSIG=
201106230445 METAR LMML 230445Z VRB02KT CAVOK 21/14 Q1017 NOSIG=
201106230430 METAR LMML NIL=
201106230415 METAR LMML 230415Z VRB02KT CAVOK 20/14 Q1017 NOSIG=
201106230400 METAR LMML NIL=
201106230345 METAR LMML 230345Z VRB02KT CAVOK 20/15 Q1017 NOSIG=
201106230330 METAR LMML NIL=
201106230315 METAR LMML 230315Z VRB02KT CAVOK 19/15 Q1017 NOSIG=
201106230300 METAR LMML NIL=
201106230245 METAR LMML 230245Z VRB01KT CAVOK 20/15 Q1017 NOSIG=
201106230230 METAR LMML NIL=
201106230215 METAR LMML 230215Z VRB01KT 9999 FEW012 20/16 Q1017 NOSIG=
201106230200 METAR LMML NIL=
201106230145 METAR LMML 230145Z VRB02KT 9999 FEW012 20/17 Q1017 NOSIG=
201106230130 METAR LMML NIL=
201106230115 METAR LMML 230115Z 28003KT 9999 FEW012 21/17 Q1017 NOSIG=
201106230100 METAR LMML NIL=
201106230045 METAR LMML 230045Z 28003KT 9999 FEW012 21/17 Q1017 NOSIG=
201106230030 METAR LMML NIL=
201106230015 METAR LMML 230015Z VRB02KT CAVOK 21/17 Q1018 NOSIG=
201106230000 METAR LMML NIL=
201106222345 METAR LMML 222345Z VRB02KT CAVOK 21/17 Q1018 NOSIG=
201106222330 METAR LMML NIL=
201106222315 METAR LMML 222315Z VRB02KT CAVOK 21/18 Q1018 NOSIG=
201106222300 METAR LMML NIL=
201106222245 METAR LMML 222245Z 25003KT CAVOK 21/17 Q1018 NOSIG=
201106222230 METAR LMML NIL=
201106222215 METAR LMML 222215Z VRB02KT CAVOK 21/16 Q1019 NOSIG=
201106222200 METAR LMML NIL=
201106222145 METAR LMML 222145Z VRB02KT CAVOK 22/15 Q1019 NOSIG=
201106222115 METAR LMML 222115Z 30003KT CAVOK 22/15 Q1019 NOSIG=
201106222100 METAR LMML NIL=
201106222045 METAR LMML 222045Z VRB02KT CAVOK 22/17 Q1019 NOSIG=
201106222030 METAR LMML NIL=
201106222015 METAR LMML 222015Z VRB02KT CAVOK 23/16 Q1019 NOSIG=
201106222000 METAR LMML NIL=
201106221945 METAR LMML 221945Z VRB01KT CAVOK 23/15 Q1018 NOSIG=
201106221930 METAR LMML NIL=
201106221915 METAR LMML 221915Z VRB01KT CAVOK 24/15 Q1018 NOSIG=
201106221900 METAR LMML NIL=
201106221845 METAR LMML 221845Z VRB01KT CAVOK 24/15 Q1018 NOSIG=
201106221830 METAR LMML NIL=
201106221815 METAR LMML 221815Z VRB02KT CAVOK 25/14 Q1018 NOSIG=
201106221800 METAR LMML NIL=
201106221745 METAR LMML 221745Z VRB02KT CAVOK 26/14 Q1018 NOSIG=
201106221730 METAR LMML NIL=
201106221715 METAR LMML 221715Z 20003KT CAVOK 27/14 Q1018 NOSIG=
201106221645 METAR LMML 221645Z 21003KT CAVOK 27/14 Q1018 NOSIG=
201106221630 METAR LMML NIL=
201106221615 METAR LMML 221615Z 19003KT CAVOK 28/13 Q1018 NOSIG=
201106221600 METAR LMML NIL=
201106221545 METAR LMML 221545Z 20004KT 140V290 CAVOK 28/13 Q1018 NOSIG=
201106221530 METAR LMML NIL=
201106221515 METAR LMML 221515Z 22006KT 190V280 CAVOK 28/13 Q1018 NOSIG=
201106221500 METAR LMML NIL=
201106221445 METAR LMML 221445Z 22005KT 180V270 CAVOK 28/14 Q1019 NOSIG=
201106221430 METAR LMML NIL=
201106221415 METAR LMML 221415Z 12004KT 040V210 CAVOK 30/11 Q1019 NOSIG=
201106221345 METAR LMML 221345Z 10006KT 060V190 CAVOK 31/12 Q1019 NOSIG=
201106221330 METAR LMML NIL=
201106221315 METAR LMML 221315Z 08005KT 330V150 CAVOK 31/12 Q1019 NOSIG=
201106221300 METAR LMML NIL=
201106221245 METAR LMML 221245Z 09005KT 040V140 CAVOK 30/12 Q1019 NOSIG=
201106221230 METAR LMML NIL=
201106221215 METAR LMML 221215Z 07006KT 010V130 CAVOK 30/15 Q1019 NOSIG=
201106221200 METAR LMML NIL=
201106221145 METAR LMML 221145Z 04005KT 320V100 CAVOK 31/14 Q1019 NOSIG=
201106221115 METAR LMML 221115Z 05004KT 320V150 CAVOK 31/13 Q1019 NOSIG=
201106221100 METAR LMML NIL=
201106221045 METAR LMML 221045Z 03005KT 320V090 CAVOK 31/14 Q1020 NOSIG=
201106221030 METAR LMML NIL=
201106221015 METAR LMML 221015Z 03004KT 330V100 CAVOK 30/13 Q1020 NOSIG=
201106221000 METAR LMML NIL=
201106220945 METAR LMML 220945Z 04006KT 290V100 CAVOK 29/12 Q1020 NOSIG=
201106220930 METAR LMML NIL=
201106220915 METAR LMML 220915Z 36007KT 330V030 CAVOK 28/14 Q1020 NOSIG=
201106220845 METAR LMML 220845Z 36008KT CAVOK 28/14 Q1020 NOSIG=
201106220830 METAR LMML NIL=
201106220815 METAR LMML 220815Z 02008KT CAVOK 28/14 Q1020 NOSIG=
201106220800 METAR LMML NIL=
201106220745 METAR LMML 220745Z 35008KT 230V050 CAVOK 28/14 Q1020 NOSIG=
201106220730 METAR LMML NIL=
201106220715 METAR LMML 220715Z 34007KT 310V020 CAVOK 27/14 Q1020 NOSIG=
201106220700 METAR LMML NIL=
201106220645 METAR LMML 220645Z 34006KT 310V030 CAVOK 27/14 Q1020 NOSIG=
201106220630 METAR LMML NIL=
201106220615 METAR LMML 220615Z 34005KT 310V010 CAVOK 25/16 Q1019 NOSIG=
201106220600 METAR LMML NIL=
201106220545 METAR LMML 220545Z 17003KT CAVOK 24/17 Q1019 NOSIG=
201106220530 METAR LMML NIL=
201106220515 METAR LMML 220515Z VRB02KT CAVOK 22/18 Q1019 NOSIG=
201106220500 METAR LMML NIL=
201106220445 METAR LMML 220445Z VRB02KT CAVOK 21/18 Q1019 NOSIG=
201106220430 METAR LMML NIL=
201106220415 METAR LMML 220415Z VRB02KT CAVOK 20/18 Q1019 NOSIG=
201106220345 METAR LMML 220345Z 33003KT CAVOK 19/18 Q1019 NOSIG=
201106220330 METAR LMML NIL=
201106220315 METAR LMML 220315Z 32004KT CAVOK 19/18 Q1019 NOSIG=
201106220300 METAR LMML NIL=
201106220245 METAR LMML 220245Z 32004KT CAVOK 20/17 Q1019 NOSIG=
201106220230 METAR LMML NIL=
201106220215 METAR LMML 220215Z 32003KT CAVOK 20/17 Q1019 NOSIG=
201106220200 METAR LMML NIL=
201106220145 METAR LMML 220145Z 32003KT CAVOK 20/17 Q1019 NOSIG=
201106220130 METAR LMML NIL=
201106220115 METAR LMML 220115Z 33003KT CAVOK 20/18 Q1019 NOSIG=
201106220100 METAR LMML NIL=
201106220045 METAR LMML 220045Z 33004KT CAVOK 20/18 Q1019 NOSIG=
201106220015 METAR LMML 220015Z 34003KT CAVOK 21/18 Q1019 NOSIG=
201106220000 METAR LMML NIL=
201106212345 METAR LMML 212345Z 33003KT CAVOK 21/18 Q1019 NOSIG=
201106212315 METAR LMML 212315Z 33003KT CAVOK 21/16 Q1020 NOSIG=
201106212245 METAR LMML 212245Z VRB02KT CAVOK 21/15 Q1020 NOSIG=
201106212230 METAR LMML NIL=
201106212215 METAR LMML 212215Z VRB02KT CAVOK 22/15 Q1020 NOSIG=
201106212200 METAR LMML NIL=
201106212145 METAR LMML 212145Z 36003KT CAVOK 22/15 Q1020 NOSIG=
201106212130 METAR LMML NIL=
201106212115 METAR LMML 212115Z 36004KT 320V150 CAVOK 22/15 Q1020 NOSIG=
201106212100 METAR LMML NIL=
201106212045 METAR LMML 212045Z 01004KT CAVOK 22/15 Q1020 NOSIG=
201106212030 METAR LMML NIL=
201106212015 METAR LMML 212015Z 02003KT CAVOK 22/15 Q1020 NOSIG=
201106211945 METAR LMML 211945Z 01003KT CAVOK 23/15 Q1020 NOSIG=
201106211930 METAR LMML NIL=
201106211915 METAR LMML 211915Z 01004KT CAVOK 23/14 Q1019 NOSIG=
201106211845 METAR LMML 211845Z 01003KT CAVOK 24/14 Q1019 NOSIG=
201106211830 METAR LMML NIL=
201106211815 METAR LMML 211815Z VRB02KT CAVOK 25/13 Q1019 NOSIG=
201106211800 METAR LMML NIL=
201106211745 METAR LMML 211745Z 03004KT 350V080 CAVOK 26/13 Q1019 NOSIG=
201106211730 METAR LMML NIL=
201106211715 METAR LMML 211715Z 02005KT 350V050 CAVOK 27/13 Q1019 NOSIG=
201106211700 METAR LMML NIL=
201106211645 METAR LMML 211645Z 06005KT 010V110 CAVOK 28/13 Q1019 NOSIG=
201106211630 METAR LMML NIL=
201106211615 METAR LMML 211615Z 08007KT 050V120 CAVOK 28/11 Q1019 NOSIG=
201106211600 METAR LMML NIL=
201106211545 METAR LMML 211545Z 08007KT 060V120 CAVOK 28/10 Q1019 NOSIG=
201106211530 METAR LMML NIL=
201106211515 METAR LMML 211515Z 10007KT 050V120 CAVOK 28/10 Q1019 NOSIG=
201106211500 METAR LMML NIL=
201106211445 METAR LMML 211445Z 09009KT 050V140 CAVOK 29/11 Q1019 NOSIG=
201106211430 METAR LMML NIL=
201106211415 METAR LMML 211415Z 08008KT 040V120 CAVOK 29/10 Q1019 NOSIG=
201106211400 METAR LMML NIL=
201106211345 METAR LMML 211345Z 09008KT 030V190 CAVOK 29/11 Q1019 NOSIG=
201106211330 METAR LMML NIL=
201106211315 METAR LMML 211315Z 08008KT 030V120 CAVOK 29/12 Q1019 NOSIG=
201106211300 METAR LMML NIL=
201106211245 METAR LMML 211245Z 07008KT 020V110 CAVOK 29/13 Q1020 NOSIG=
201106211230 METAR LMML NIL=
201106211215 METAR LMML 211215Z 08009KT 050V120 CAVOK 28/13 Q1020 NOSIG=
201106211200 METAR LMML NIL=
201106211145 METAR LMML 211145Z 06008KT 360V170 CAVOK 29/13 Q1020 NOSIG=
201106211130 METAR LMML NIL=
201106211115 METAR LMML 211115Z 06009KT 350V100 CAVOK 29/13 Q1020 NOSIG=
201106211100 METAR LMML NIL=
201106211045 METAR LMML 211045Z 06008KT 010V110 CAVOK 28/15 Q1020 NOSIG=
201106211030 METAR LMML NIL=
201106211015 METAR LMML 211015Z 03007KT 350V060 CAVOK 28/17 Q1020 NOSIG=
201106211000 METAR LMML NIL=
201106210945 METAR LMML 210945Z 02007KT 340V070 CAVOK 28/17 Q1019 NOSIG=
201106210930 METAR LMML NIL=
201106210915 METAR LMML 210915Z 04009KT 010V070 CAVOK 27/15 Q1019 NOSIG=
201106210900 METAR LMML NIL=
201106210845 METAR LMML 210845Z 03008KT 010V070 CAVOK 27/16 Q1019 NOSIG=
201106210830 METAR LMML NIL=
201106210815 METAR LMML 210815Z 03007KT 350V060 CAVOK 27/16 Q1019 NOSIG=
201106210745 METAR LMML 210745Z 05007KT 010V080 CAVOK 27/17 Q1019 NOSIG=
201106210730 METAR LMML NIL=
201106210715 METAR LMML 210715Z 05008KT 020V100 CAVOK 27/16 Q1018 NOSIG=
201106210700 METAR LMML NIL=
201106210645 METAR LMML 210645Z 05007KT 020V090 CAVOK 26/17 Q1018 NOSIG=
201106210630 METAR LMML NIL=
201106210615 METAR LMML 210615Z 04006KT 360V090 CAVOK 25/17 Q1018 NOSIG=
201106210600 METAR LMML NIL=
201106210545 METAR LMML 210545Z 05006KT CAVOK 24/18 Q1018 NOSIG=
201106210530 METAR LMML NIL=
201106210515 METAR LMML 210515Z 03004KT 360V060 CAVOK 23/18 Q1017 NOSIG=
201106210500 METAR LMML NIL=
201106210445 METAR LMML 210445Z VRB02KT CAVOK 21/18 Q1017 NOSIG=
201106210430 METAR LMML NIL=
201106210415 METAR LMML 210415Z 36003KT CAVOK 20/17 Q1017 NOSIG=
201106210400 METAR LMML NIL=
201106210345 METAR LMML 210345Z VRB02KT CAVOK 20/17 Q1017 NOSIG=
201106210330 METAR LMML NIL=
201106210315 METAR LMML 210315Z VRB02KT CAVOK 20/17 Q1016 NOSIG=
201106210300 METAR LMML NIL=
201106210245 METAR LMML 210245Z 03004KT CAVOK 20/17 Q1016 NOSIG=
201106210230 METAR LMML NIL=
201106210215 METAR LMML 210215Z 03003KT CAVOK 20/17 Q1016 NOSIG=
201106210200 METAR LMML NIL=
201106210145 METAR LMML 210145Z 03003KT CAVOK 20/18 Q1016 NOSIG=
201106210130 METAR LMML NIL=
201106210115 METAR LMML 210115Z 03003KT CAVOK 20/18 Q1017 NOSIG=
201106210100 METAR LMML NIL=
201106210045 METAR LMML 210045Z 03003KT CAVOK 20/16 Q1017 NOSIG=
201106210030 METAR LMML NIL=
201106210015 METAR LMML 210015Z VRB02KT CAVOK 19/16 Q1017 NOSIG=
201106210000 METAR LMML NIL=
201106202345 METAR LMML 202345Z VRB02KT CAVOK 20/16 Q1017 NOSIG=
201106202330 METAR LMML NIL=
201106202315 METAR LMML 202315Z 33003KT CAVOK 20/16 Q1017 NOSIG=
201106202300 METAR LMML NIL=
201106202245 METAR LMML 202245Z 34003KT CAVOK 20/13 Q1017 NOSIG=
201106202230 METAR LMML NIL=
201106202215 METAR LMML 202215Z VRB02KT CAVOK 20/11 Q1017 NOSIG=
201106202200 METAR LMML NIL=
201106202145 METAR LMML 202145Z 36003KT CAVOK 21/11 Q1017 NOSIG=
201106202130 METAR LMML NIL=
201106202115 METAR LMML 202115Z VRB02KT CAVOK 21/10 Q1017 NOSIG=
201106202100 METAR LMML NIL=
201106202045 METAR LMML 202045Z VRB02KT CAVOK 21/10 Q1017 NOSIG=
201106202030 METAR LMML NIL=
201106202015 METAR LMML 202015Z VRB02KT CAVOK 22/10 Q1016 NOSIG=
201106202000 METAR LMML NIL=
201106201945 METAR LMML 201945Z VRB01KT CAVOK 21/14 Q1016 NOSIG=
201106201930 METAR LMML NIL=
201106201915 METAR LMML 201915Z VRB02KT CAVOK 22/12 Q1016 NOSIG=
201106201900 METAR LMML NIL=
201106201845 METAR LMML 201845Z 32003KT CAVOK 22/11 Q1016 NOSIG=
201106201830 METAR LMML NIL=
201106201815 METAR LMML 201815Z 01004KT CAVOK 23/10 Q1015 NOSIG=
201106201800 METAR LMML NIL=
201106201745 METAR LMML 201745Z 02003KT CAVOK 26/10 Q1015 NOSIG=
201106201730 METAR LMML NIL=
201106201715 METAR LMML 201715Z 36004KT 300V100 CAVOK 27/08 Q1015 NOSIG=
201106201645 METAR LMML 201645Z 33005KT 300V360 CAVOK 26/08 Q1015 NOSIG=
201106201630 METAR LMML NIL=
201106201615 METAR LMML 201615Z 31006KT 280V350 CAVOK 26/11 Q1015 NOSIG=
201106201545 METAR LMML 201545Z 35005KT 310V020 CAVOK 27/13 Q1015 NOSIG=
201106201515 METAR LMML 201515Z 32006KT 280V350 CAVOK 27/11 Q1015 NOSIG=
201106201500 METAR LMML NIL=
201106201445 METAR LMML 201445Z 35005KT 290V060 CAVOK 26/15 Q1015 NOSIG=
201106201430 METAR LMML NIL=
201106201415 METAR LMML 201415Z 03006KT 340V080 9999 FEW025 27/16 Q1016
                        NOSIG=
201106201345 METAR LMML 201345Z 34006KT 270V050 CAVOK 28/15 Q1016 NOSIG=
201106201330 METAR LMML NIL=
201106201315 METAR LMML 201315Z 34006KT 290V050 CAVOK 27/16 Q1016 NOSIG=
201106201300 METAR LMML NIL=
201106201245 METAR LMML 201245Z 34008KT 290V030 9999 FEW025 27/16 Q1016
                        NOSIG=
201106201230 METAR LMML NIL=
201106201215 METAR LMML 201215Z 35007KT 280V030 9999 FEW025 27/16 Q1016
                        NOSIG=
201106201200 METAR LMML NIL=
201106201145 METAR LMML 201145Z 35007KT 290V030 9999 FEW025 27/17 Q1016
                        NOSIG=
201106201130 METAR LMML NIL=
201106201115 METAR LMML 201115Z 35007KT 270V030 9999 FEW025 27/16 Q1016
                        NOSIG=
201106201045 METAR LMML 201045Z 35007KT 290V030 9999 FEW025 27/15 Q1016
                        NOSIG=
201106201030 METAR LMML NIL=
201106201015 METAR LMML 201015Z 35006KT 290V040 CAVOK 26/14 Q1016 NOSIG=
201106201000 METAR LMML NIL=
201106200945 METAR LMML 200945Z 34006KT 290V040 9999 FEW025 26/12 Q1016
                        NOSIG=
201106200930 METAR LMML NIL=
201106200915 METAR LMML 200915Z 36005KT 290V050 9999 FEW020 27/14 Q1016
                        NOSIG=
201106200900 METAR LMML NIL=
201106200845 METAR LMML 200845Z 35007KT 320V020 9999 FEW020 25/14 Q1015
                        NOSIG=
201106200830 METAR LMML NIL=
201106200815 METAR LMML 200815Z 35008KT 300V040 9999 FEW020 26/14 Q1015
                        NOSIG=
201106200800 METAR LMML NIL=
201106200745 METAR LMML 200745Z 35006KT 310V030 9999 FEW015 25/13 Q1015
                        NOSIG=
201106200730 METAR LMML NIL=
201106200715 METAR LMML 200715Z 34007KT 280V030 9999 FEW015 25/14 Q1015
                        NOSIG=
201106200700 METAR LMML NIL=
201106200645 METAR LMML 200645Z 31008KT 9999 FEW012 23/14 Q1015 NOSIG=
201106200630 METAR LMML NIL=
201106200615 METAR LMML 200615Z 34007KT 9999 FEW012 22/16 Q1015 NOSIG=
201106200600 METAR LMML NIL=
201106200545 METAR LMML 200545Z 32009KT 9999 FEW012 22/16 Q1014 NOSIG=
201106200530 METAR LMML NIL=
201106200515 METAR LMML 200515Z 32006KT 280V340 9999 FEW012 21/17 Q1014
                        NOSIG=
201106200500 METAR LMML NIL=
201106200445 METAR LMML 200445Z 31008KT 9999 FEW012 20/17 Q1014 NOSIG=
201106200430 METAR LMML NIL=
201106200415 METAR LMML 200415Z 32007KT 9999 FEW012 19/16 Q1014 NOSIG=
201106200400 METAR LMML NIL=
201106200345 METAR LMML 200345Z 31003KT CAVOK 19/16 Q1014 NOSIG=
201106200330 METAR LMML NIL=
201106200315 METAR LMML 200315Z 31004KT CAVOK 19/16 Q1014 NOSIG=
201106200300 METAR LMML NIL=
201106200245 METAR LMML 200245Z 30004KT CAVOK 19/16 Q1014 NOSIG=
201106200230 METAR LMML NIL=
201106200215 METAR LMML 200215Z 31005KT CAVOK 19/16 Q1014 NOSIG=
201106200200 METAR LMML NIL=
201106200145 METAR LMML 200145Z 31010KT CAVOK 20/17 Q1014 NOSIG=
201106200130 METAR LMML NIL=
201106200115 METAR LMML 200115Z 30011KT 270V330 CAVOK 20/17 Q1014 NOSIG=
201106200100 METAR LMML NIL=
201106200045 METAR LMML 200045Z 29014KT CAVOK 20/17 Q1014 NOSIG=
201106200030 METAR LMML NIL=
201106200015 METAR LMML 200015Z 30015KT CAVOK 20/17 Q1014 NOSIG=
201106200000 METAR LMML NIL=
201106192345 METAR LMML 192345Z 30014KT CAVOK 20/16 Q1014 NOSIG=
201106192330 METAR LMML NIL=
201106192315 METAR LMML 192315Z 31015KT CAVOK 20/16 Q1014 NOSIG=
201106192300 METAR LMML NIL=
201106192245 METAR LMML 192245Z 31015KT CAVOK 21/16 Q1014 NOSIG=
201106192230 METAR LMML NIL=
201106192215 METAR LMML 192215Z 31012KT CAVOK 21/16 Q1014 NOSIG=
201106192200 METAR LMML NIL=
201106192145 METAR LMML 192145Z 30015KT 9999 FEW015 21/17 Q1014 NOSIG=
201106192130 METAR LMML NIL=
201106192115 METAR LMML 192115Z 29016KT 9999 FEW015 21/17 Q1014 NOSIG=
201106192100 METAR LMML NIL=
201106192045 METAR LMML 192045Z 30015KT 9999 FEW015 21/17 Q1015 NOSIG=
201106192030 METAR LMML NIL=
201106192015 METAR LMML 192015Z 28015KT 9999 FEW015 21/17 Q1015 NOSIG=
201106192000 METAR LMML NIL=
201106191945 METAR LMML 191945Z 29015KT 9000 FEW015 22/18 Q1014 NOSIG=
201106191930 METAR LMML NIL=
201106191915 METAR LMML 191915Z 30015KT 9000 FEW015 22/18 Q1015 NOSIG=
201106191845 METAR LMML 191845Z 30014KT 7000 FEW015 22/19 Q1014 NOSIG=
201106191830 METAR LMML NIL=
201106191815 METAR LMML 191815Z 29015KT 270V330 9000 FEW015 22/19 Q1014
                        NOSIG=
201106191800 METAR LMML NIL=
201106191745 METAR LMML 191745Z 28011KT 240V310 9000 FEW015 22/18 Q1014
                        NOSIG=
201106191730 METAR LMML NIL=
201106191715 METAR LMML 191715Z 29009KT 260V340 9000 FEW015 24/18 Q1014
                        NOSIG=
201106191700 METAR LMML NIL=
201106191645 METAR LMML 191645Z 29011KT 260V320 9000 FEW015 24/18 Q1014
                        NOSIG=
201106191630 METAR LMML NIL=
201106191615 METAR LMML 191615Z 28009KT 240V310 9999 FEW018 26/18 Q1014
                        NOSIG=
201106191545 METAR LMML 191545Z 31010KT 270V330 9999 FEW018 26/18 Q1014
                        NOSIG=
201106191530 METAR LMML NIL=
201106191515 METAR LMML 191515Z 29010KT 250V320 9999 FEW018 26/18 Q1014
                        NOSIG=
201106191500 METAR LMML NIL=
201106191445 METAR LMML 191445Z 29010KT 260V330 9999 FEW018 27/18 Q1015
                        NOSIG=
201106191430 METAR LMML NIL=
201106191415 METAR LMML 191415Z 31011KT 280V340 9999 FEW018 27/18 Q1015
                        NOSIG=
201106191400 METAR LMML NIL=
201106191345 METAR LMML 191345Z 30010KT 250V330 9999 FEW018 28/19 Q1015
                        NOSIG=
201106191330 METAR LMML NIL=
201106191315 METAR LMML 191315Z 29007KT 240V310 9999 FEW018 28/18 Q1015
                        NOSIG=
201106191300 METAR LMML NIL=
201106191245 METAR LMML 191245Z 28008KT 220V320 9999 FEW018 28/18 Q1015
                        BECMG 9999 FEW015=
201106191230 METAR LMML NIL=
201106191215 METAR LMML 191215Z 25007KT 200V310 9999 FEW018 29/17 Q1015
                        NOSIG=
201106191200 METAR LMML NIL=
201106191145 METAR LMML 191145Z 24009KT 200V280 CAVOK 27/18 Q1015 NOSIG
                        RMK SMOKE ON AIRFIELD=
201106191130 METAR LMML NIL=
201106191115 METAR LMML 191115Z 23010KT 200V280 CAVOK 28/17 Q1015 NOSIG=
201106191100 METAR LMML NIL=
201106191045 METAR LMML 191045Z 24009KT 200V280 CAVOK 28/16 Q1016 NOSIG=
201106191030 METAR LMML NIL=
201106191015 METAR LMML 191015Z 22007KT 170V270 CAVOK 27/17 Q1016 NOSIG=
201106191000 METAR LMML NIL=
201106190945 METAR LMML 190945Z 22006KT 150V270 CAVOK 26/18 Q1016 NOSIG=
201106190930 METAR LMML NIL=
201106190915 METAR LMML 190915Z 22006KT 180V290 CAVOK 26/17 Q1015 NOSIG=
201106190900 METAR LMML NIL=
201106190845 METAR LMML 190845Z 21006KT 160V270 CAVOK 26/17 Q1015 NOSIG=
201106190830 METAR LMML NIL=
201106190815 METAR LMML 190815Z 22005KT 160V270 CAVOK 27/17 Q1015 NOSIG=
201106190800 METAR LMML NIL=
201106190745 METAR LMML 190745Z 19004KT 120V240 CAVOK 25/18 Q1015 NOSIG=
201106190730 METAR LMML NIL=
201106190715 METAR LMML 190715Z 17005KT 130V220 CAVOK 24/18 Q1015 NOSIG=
201106190700 METAR LMML NIL=
201106190645 METAR LMML 190645Z 20004KT 150V220 9999 FEW015 24/18 Q1015
                        NOSIG=
201106190630 METAR LMML NIL=
201106190615 METAR LMML 190615Z 19003KT 9999 FEW015 23/19 Q1015 NOSIG=
201106190600 METAR LMML NIL=
201106190545 METAR LMML 190545Z 20003KT 9999 FEW015 23/19 Q1015 NOSIG=
201106190530 METAR LMML NIL=
201106190515 METAR LMML 190515Z VRB02KT 9999 FEW015 22/19 Q1015 NOSIG=
201106190500 METAR LMML NIL=
201106190445 METAR LMML 190445Z VRB01KT 9000 NSC 21/19 Q1015 NOSIG=
201106190430 METAR LMML NIL=
201106190415 METAR LMML 190415Z VRB01KT 9000 NSC 20/19 Q1015 NOSIG=
201106190400 METAR LMML NIL=
201106190345 METAR LMML 190345Z VRB02KT 8000 NSC 20/19 Q1015 NOSIG=
201106190330 METAR LMML NIL=
201106190315 METAR LMML 190315Z 18004KT 140V210 CAVOK 20/19 Q1014 NOSIG=
201106190300 METAR LMML NIL=
201106190245 METAR LMML 190245Z 19004KT 150V230 CAVOK 20/19 Q1015 NOSIG=
201106190230 METAR LMML NIL=
201106190215 METAR LMML 190215Z 19005KT 160V230 CAVOK 20/19 Q1015 NOSIG=
201106190200 METAR LMML NIL=
201106190145 METAR LMML 190145Z 19005KT 160V260 CAVOK 21/19 Q1015 NOSIG=
201106190130 METAR LMML NIL=
201106190115 METAR LMML 190115Z 18006KT 160V220 CAVOK 21/19 Q1015 NOSIG=
201106190100 METAR LMML NIL=
201106190045 METAR LMML 190045Z 18006KT 150V220 CAVOK 21/19 Q1015 NOSIG=
201106190030 METAR LMML NIL=
201106190015 METAR LMML 190015Z 18006KT 150V210 CAVOK 21/19 Q1015 NOSIG=
201106190000 METAR LMML NIL=
201106182345 METAR LMML 182345Z 19005KT 160V230 CAVOK 21/19 Q1016 NOSIG=
201106182330 METAR LMML NIL=
201106182315 METAR LMML 182315Z 17006KT 140V210 CAVOK 20/19 Q1015 NOSIG=
201106182300 METAR LMML NIL=
201106182245 METAR LMML 182245Z 18006KT 9999 FEW006 21/19 Q1016 NOSIG=
201106182230 METAR LMML NIL=
201106182215 METAR LMML 182215Z 18006KT 9999 FEW006 21/19 Q1016 NOSIG=
201106182200 METAR LMML NIL=
201106182145 METAR LMML 182145Z 17005KT 130V200 CAVOK 21/19 Q1016 NOSIG=
201106182130 METAR LMML NIL=
201106182115 METAR LMML 182115Z 17005KT 9999 FEW006 21/19 Q1016 NOSIG=
201106182100 METAR LMML NIL=
201106182045 METAR LMML 182045Z 17005KT 140V200 9999 FEW006 21/19 Q1016
                        NOSIG=
201106182030 METAR LMML NIL=
201106182015 METAR LMML 182015Z 17004KT 120V200 9999 FEW015 21/19 Q1016
                        NOSIG=
201106182000 METAR LMML NIL=
201106181945 METAR LMML 181945Z 17005KT 140V200 CAVOK 21/18 Q1016 NOSIG=
201106181930 METAR LMML NIL=
201106181915 METAR LMML 181915Z 18005KT 140V210 9999 FEW015 21/18 Q1016
                        NOSIG=
201106181900 METAR LMML NIL=
201106181845 METAR LMML 181845Z 17005KT 140V220 9999 FEW015 21/18 Q1016
                        NOSIG=
201106181830 METAR LMML NIL=
201106181815 METAR LMML 181815Z 17005KT 130V210 CAVOK 22/18 Q1016 NOSIG=
201106181800 METAR LMML NIL=
201106181745 METAR LMML 181745Z 18005KT 150V240 CAVOK 22/18 Q1016 NOSIG=
201106181730 METAR LMML NIL=
201106181715 METAR LMML 181715Z 18006KT 150V210 CAVOK 23/17 Q1016 NOSIG=
201106181700 METAR LMML NIL=
201106181645 METAR LMML 181645Z 19005KT 150V230 CAVOK 24/16 Q1016 NOSIG=
201106181630 METAR LMML NIL=
201106181615 METAR LMML 181615Z 19006KT 160V220 CAVOK 24/17 Q1016 NOSIG=
201106181600 METAR LMML NIL=
201106181545 METAR LMML 181545Z 20006KT 150V240 CAVOK 24/17 Q1016 NOSIG=
201106181530 METAR LMML NIL=
201106181515 METAR LMML 181515Z 19006KT 150V230 9999 FEW015 24/17 Q1016
                        NOSIG=
201106181500 METAR LMML NIL=
201106181445 METAR LMML 181445Z 19007KT 160V260 9999 FEW015 25/16 Q1017
                        NOSIG=
201106181430 METAR LMML NIL=
201106181415 METAR LMML 181415Z 21008KT 160V260 9999 FEW015 25/16 Q1017
                        NOSIG=
201106181400 METAR LMML NIL=
201106181345 METAR LMML 181345Z 21008KT 170V260 9999 FEW014 24/18 Q1017
                        NOSIG=
201106181330 METAR LMML NIL=
201106181315 METAR LMML 181315Z 19009KT 9999 FEW013 24/17 Q1017 NOSIG=
201106181300 METAR LMML NIL=
201106181245 METAR LMML 181245Z 19007KT 150V240 9999 FEW015 25/17 Q1017
                        NOSIG=
201106181230 METAR LMML NIL=
201106181215 METAR LMML 181215Z 20007KT 160V230 9999 FEW020 25/17 Q1018
                        NOSIG=
201106181200 METAR LMML NIL=
201106181145 METAR LMML 181145Z 19008KT 150V250 9999 FEW020 25/17 Q1018
                        NOSIG=
201106181130 METAR LMML NIL=
201106181115 METAR LMML 181115Z 21006KT 140V270 9999 FEW020 25/16 Q1018
                        NOSIG=
201106181100 METAR LMML NIL=
201106181045 METAR LMML 181045Z 20006KT 140V240 9999 FEW020 25/16 Q1018
                        NOSIG=
201106181030 METAR LMML NIL=
201106181015 METAR LMML 181015Z 20006KT 160V270 9999 FEW020 25/17 Q1018
                        NOSIG=
201106181000 METAR LMML NIL=
201106180945 METAR LMML 180945Z 23005KT 180V290 9999 FEW020 25/17 Q1019
                        NOSIG=
201106180930 METAR LMML NIL=
201106180915 METAR LMML 180915Z 21006KT 150V290 9999 FEW015 24/17 Q1019
                        NOSIG=
201106180900 METAR LMML NIL=
201106180845 METAR LMML 180845Z 23006KT 170V310 9999 FEW015 25/17 Q1018
                        NOSIG=
201106180830 METAR LMML NIL=
201106180815 METAR LMML 180815Z 23007KT 190V280 9999 FEW015 24/17 Q1018
                        NOSIG=
201106180800 METAR LMML NIL=
201106180745 METAR LMML 180745Z 21009KT 180V240 9999 FEW011 23/17 Q1018
                        NOSIG=
201106180730 METAR LMML NIL=
201106180715 METAR LMML 180715Z 21008KT 180V270 9999 FEW011 23/18 Q1018
                        NOSIG=
201106180700 METAR LMML NIL=
201106180645 METAR LMML 180645Z 22008KT 180V250 9999 FEW011 23/17 Q1018
                        NOSIG=
201106180630 METAR LMML NIL=
201106180615 METAR LMML 180615Z 23008KT 200V300 9999 FEW011 22/18 Q1018
                        NOSIG=
201106180600 METAR LMML NIL=
201106180545 METAR LMML 180545Z 24007KT 190V280 9999 FEW009 21/18 Q1018
                        NOSIG=
201106180530 METAR LMML NIL=
201106180515 METAR LMML 180515Z 24004KT 190V300 9999 FEW009 21/18 Q1018
                        NOSIG=
201106180445 METAR LMML 180445Z 25004KT 210V300 9999 FEW009 20/18 Q1018
                        NOSIG=
201106180430 METAR LMML NIL=
201106180415 METAR LMML 180415Z 23004KT 8000 FEW009 19/18 Q1018 NOSIG=
201106180400 METAR LMML NIL=
201106180345 METAR LMML 180345Z VRB02KT 8000 SCT008 19/18 Q1018 NOSIG=
201106180330 METAR LMML NIL=
201106180315 METAR LMML 180315Z VRB01KT 8000 SCT007 18/18 Q1017 NOSIG=
201106180300 METAR LMML NIL=
201106180245 METAR LMML 180245Z VRB02KT 8000 FEW005 19/19 Q1018 NOSIG=
201106180230 METAR LMML NIL=
201106180215 METAR LMML 180215Z 21003KT 8000 FEW005 19/19 Q1018 NOSIG=
201106180200 METAR LMML NIL=
201106180145 METAR LMML 180145Z VRB02KT 8000 BKN005 19/18 Q1018 NOSIG=
201106180115 METAR LMML 180115Z 19003KT 8000 FEW005 19/19 Q1018 NOSIG=
201106180100 METAR LMML NIL=
201106180045 METAR LMML 180045Z 20003KT CAVOK 19/18 Q1018 NOSIG=
201106180030 METAR LMML NIL=
201106180015 METAR LMML 180015Z VRB02KT CAVOK 19/18 Q1018 NOSIG=
201106180000 METAR LMML NIL=
201106172345 METAR LMML 172345Z VRB02KT CAVOK 19/18 Q1018 NOSIG=
201106172330 METAR LMML NIL=
201106172315 METAR LMML 172315Z 21003KT CAVOK 19/18 Q1018 NOSIG=
201106172245 METAR LMML 172245Z 20003KT CAVOK 19/18 Q1019 NOSIG=
201106172230 METAR LMML NIL=
201106172215 METAR LMML 172215Z VRB02KT CAVOK 19/17 Q1019 NOSIG=
201106172145 METAR LMML 172145Z VRB02KT CAVOK 20/17 Q1019 NOSIG=
201106172130 METAR LMML NIL=
201106172115 METAR LMML 172115Z VRB02KT CAVOK 20/17 Q1019 NOSIG=
201106172045 METAR LMML 172045Z VRB02KT CAVOK 20/17 Q1019 NOSIG=
201106172015 METAR LMML 172015Z VRB02KT CAVOK 20/17 Q1019 NOSIG=
201106172000 METAR LMML NIL=
201106171945 METAR LMML 171945Z VRB02KT CAVOK 20/17 Q1019 NOSIG=
201106171930 METAR LMML NIL=
201106171915 METAR LMML 171915Z VRB02KT CAVOK 21/17 Q1019 NOSIG=
201106171900 METAR LMML NIL=
201106171845 METAR LMML 171845Z VRB02KT CAVOK 21/17 Q1019 NOSIG=
201106171815 METAR LMML 171815Z 23005KT 200V270 CAVOK 22/17 Q1019 NOSIG=
201106171800 METAR LMML NIL=
201106171745 METAR LMML 171745Z 23005KT 200V260 9999 FEW015 22/17 Q1018
                        NOSIG=
201106171730 METAR LMML NIL=
201106171715 METAR LMML 171715Z 23006KT 190V270 9999 FEW015 23/17 Q1018
                        NOSIG=
201106171645 METAR LMML 171645Z 23006KT 200V270 9999 FEW015 24/16 Q1018
                        NOSIG=
201106171630 METAR LMML NIL=
201106171615 METAR LMML 171615Z 23006KT 200V290 9999 FEW017 24/16 Q1019
                        TEMPO CAVOK=
201106171600 METAR LMML NIL=
201106171545 METAR LMML 171545Z 23008KT 210V270 9999 FEW017 24/16 Q1019
                        TEMPO CAVOK=
201106171530 METAR LMML NIL=
201106171515 METAR LMML 171515Z 24007KT 200V290 CAVOK 25/16 Q1019 NOSIG=
201106171500 METAR LMML NIL=
201106171445 METAR LMML 171445Z 22007KT 170V270 CAVOK 25/16 Q1019 BECMG
                        CAVOK=
201106171430 METAR LMML NIL=
201106171415 METAR LMML 171415Z 22007KT 180V270 9999 FEW020 25/15 Q1019
                        BECMG CAVOK=
201106171400 METAR LMML NIL=
201106171345 METAR LMML 171345Z 22007KT 180V270 9999 FEW020 26/16 Q1020
                        NOSIG=
201106171330 METAR LMML NIL=
201106171315 METAR LMML 171315Z 22007KT 190V280 9999 FEW020 25/16 Q1020
                        NOSIG=
201106171300 METAR LMML NIL=
201106171245 METAR LMML 171245Z 22007KT 200V270 CAVOK 25/17 Q1020 NOSIG=
201106171230 METAR LMML NIL=
201106171215 METAR LMML 171215Z 22008KT 190V270 9999 FEW020 25/17 Q1020
                        NOSIG=
201106171200 METAR LMML NIL=
201106171145 METAR LMML 171145Z 22008KT 190V270 9999 FEW020 25/16 Q1020
                        NOSIG=
201106171130 METAR LMML NIL=
201106171115 METAR LMML 171115Z 23008KT 170V270 9999 FEW020 25/17 Q1020
                        TEMPO CAVOK=
201106171100 METAR LMML NIL=
201106171045 METAR LMML 171045Z 21007KT 150V270 9999 FEW020 25/17 Q1020
                        TEMPO CAVOK=
201106171030 METAR LMML NIL=
201106171015 METAR LMML 171015Z 22007KT 180V270 9999 FEW015 25/17 Q1020
                        NOSIG=
201106170945 METAR LMML 170945Z 22006KT 170V260 9999 FEW015 25/17 Q1020
                        NOSIG=
201106170930 METAR LMML NIL=
201106170915 METAR LMML 170915Z 21006KT 170V260 9999 FEW015 24/17 Q1020
                        NOSIG=
201106170900 METAR LMML NIL=
201106170845 METAR LMML 170845Z 23005KT 170V280 9999 FEW015 24/17 Q1020
                        NOSIG=
201106170830 METAR LMML NIL=
201106170815 METAR LMML 170815Z 21006KT 160V250 9999 FEW015 24/17 Q1020
                        NOSIG=
201106170800 METAR LMML NIL=
201106170745 METAR LMML 170745Z 22006KT 170V280 9999 FEW018 23/17 Q1020
                        NOSIG=
201106170730 METAR LMML NIL=
201106170715 METAR LMML 170715Z 21005KT 170V280 9999 SCT016 22/18 Q1020
                        NOSIG=
201106170700 METAR LMML NIL=
201106170645 METAR LMML 170645Z VRB02KT 9999 FEW012 24/17 Q1020 NOSIG=
201106170630 METAR LMML NIL=
201106170615 METAR LMML 170615Z 35003KT 9999 FEW012 22/18 Q1020 NOSIG=
201106170600 METAR LMML NIL=
201106170545 METAR LMML 170545Z VRB02KT 9999 FEW012 21/18 Q1019 NOSIG=
201106170530 METAR LMML NIL=
201106170515 METAR LMML 170515Z VRB01KT 9999 FEW012 20/18 Q1019 NOSIG=
201106170500 METAR LMML NIL=
201106170445 METAR LMML 170445Z VRB02KT 9999 FEW012 19/17 Q1019 NOSIG=
201106170430 METAR LMML NIL=
201106170415 METAR LMML 170415Z 26003KT 9999 FEW015 18/17 Q1019 NOSIG=
201106170345 METAR LMML 170345Z 28003KT 9999 FEW015 18/17 Q1019 NOSIG=
201106170330 METAR LMML NIL=
201106170315 METAR LMML 170315Z 26003KT 9999 FEW015 18/17 Q1018 NOSIG=
201106170300 METAR LMML NIL=
201106170245 METAR LMML 170245Z VRB01KT 9999 FEW015 18/17 Q1018 NOSIG=
201106170230 METAR LMML NIL=
201106170215 METAR LMML 170215Z 28003KT 9999 FEW015 18/17 Q1018 NOSIG=
201106170200 METAR LMML NIL=
201106170145 METAR LMML 170145Z VRB01KT 9999 FEW015 18/17 Q1019 NOSIG=
201106170130 METAR LMML NIL=
201106170115 METAR LMML 170115Z VRB02KT 9999 FEW015 18/17 Q1019 NOSIG=
201106170100 METAR LMML NIL=
201106170045 METAR LMML 170045Z VRB01KT 9999 FEW015 18/17 Q1019 NOSIG=
201106170030 METAR LMML NIL=
201106170015 METAR LMML 170015Z 00000KT 9999 FEW015 18/17 Q1019 NOSIG=
201106170000 METAR LMML NIL=
201106162345 METAR LMML 162345Z 27003KT 9999 FEW015 19/17 Q1019 NOSIG=
201106162330 METAR LMML NIL=
201106162315 METAR LMML 162315Z VRB02KT 9999 FEW015 19/17 Q1019 NOSIG=
201106162300 METAR LMML NIL=
201106162245 METAR LMML 162245Z VRB02KT 9999 FEW015 19/17 Q1019 NOSIG=
201106162230 METAR LMML NIL=
201106162215 METAR LMML 162215Z VRB02KT 9999 FEW015 19/16 Q1019 NOSIG=
201106162200 METAR LMML NIL=
201106162145 METAR LMML 162145Z VRB01KT 9999 FEW015 20/17 Q1019 NOSIG=
201106162130 METAR LMML NIL=
201106162115 METAR LMML 162115Z VRB02KT 9999 FEW015 20/17 Q1019 NOSIG=
201106162100 METAR LMML NIL=
201106162045 METAR LMML 162045Z VRB02KT 9999 FEW015 20/17 Q1019 NOSIG=
201106162030 METAR LMML NIL=
201106162015 METAR LMML 162015Z VRB02KT 9999 FEW015 20/17 Q1019 NOSIG=
201106162000 METAR LMML NIL=
201106161945 METAR LMML 161945Z 30003KT 9999 SCT015 21/17 Q1019 NOSIG=
201106161930 METAR LMML NIL=
201106161915 METAR LMML 161915Z 28003KT 9999 FEW014 21/17 Q1018 NOSIG=
201106161900 METAR LMML NIL=
201106161845 METAR LMML 161845Z VRB02KT 9999 FEW016 21/17 Q1018 NOSIG=
201106161830 METAR LMML NIL=
201106161815 METAR LMML 161815Z VRB02KT 9999 SCT016 22/17 Q1018 NOSIG=
201106161800 METAR LMML NIL=
201106161745 METAR LMML 161745Z 36005KT 330V030 9999 BKN018 22/18 Q1018
                        NOSIG=
201106161730 METAR LMML NIL=
201106161715 METAR LMML 161715Z 33003KT 9999 BKN019 22/17 Q1018 NOSIG=
201106161700 METAR LMML NIL=
201106161645 METAR LMML 161645Z 26003KT 9999 SCT021 23/17 Q1018 NOSIG=
201106161630 METAR LMML NIL=
201106161615 METAR LMML 161615Z 24003KT 9999 SCT024 23/17 Q1018 NOSIG=
201106161600 METAR LMML NIL=
201106161545 METAR LMML 161545Z 21005KT 150V290 9999 SCT024 23/17 Q1018
                        NOSIG=
201106161530 METAR LMML NIL=
201106161515 METAR LMML 161515Z 25003KT 9999 SCT024 23/17 Q1018 NOSIG=
201106161445 METAR LMML 161445Z 24004KT 190V290 9999 SCT026 24/16 Q1018
                        NOSIG=
201106161430 METAR LMML NIL=
201106161415 METAR LMML 161415Z 22005KT 170V280 9999 FEW027 25/17 Q1018
                        NOSIG=
201106161400 METAR LMML NIL=
201106161345 METAR LMML 161345Z 22006KT 170V280 9999 FEW026 25/16 Q1018
                        NOSIG=
201106161330 METAR LMML NIL=
201106161315 METAR LMML 161315Z 23007KT 170V290 9999 FEW022 25/17 Q1018
                        NOSIG=
201106161300 METAR LMML NIL=
201106161245 METAR LMML 161245Z 20007KT 160V260 9999 FEW025 25/16 Q1018
                        NOSIG=
201106161230 METAR LMML NIL=
201106161215 METAR LMML 161215Z 21007KT 160V250 9999 FEW025 24/16 Q1018
                        NOSIG=
201106161200 METAR LMML NIL=
201106161145 METAR LMML 161145Z 20006KT 150V240 9999 FEW025 25/16 Q1018
                        NOSIG=
201106161115 METAR LMML 161115Z 20005KT 150V260 9999 FEW025 25/15 Q1018
                        NOSIG=
201106161100 METAR LMML NIL=
201106161045 METAR LMML 161045Z 22006KT 120V280 9999 FEW022 24/16 Q1018
                        NOSIG=
201106161030 METAR LMML NIL=
201106161015 METAR LMML 161015Z 19006KT 130V240 9999 FEW022 24/16 Q1019
                        NOSIG=
201106161000 METAR LMML NIL=
201106160945 METAR LMML 160945Z 20006KT 170V260 9999 FEW022 24/16 Q1019
                        NOSIG=
201106160930 METAR LMML NIL=
201106160915 METAR LMML 160915Z 17005KT 070V250 9999 FEW022 24/17 Q1018
                        NOSIG=
201106160900 METAR LMML NIL=
201106160845 METAR LMML 160845Z 17004KT 010V280 9999 SCT019 24/17 Q1018
                        NOSIG=
201106160830 METAR LMML NIL=
201106160815 METAR LMML 160815Z 18003KT 9999 SCT029 22/17 Q1018 NOSIG=
201106160800 METAR LMML NIL=
201106160745 METAR LMML 160745Z VRB02KT 9999 SCT024 22/15 Q1018 NOSIG=
201106160730 METAR LMML NIL=
201106160715 METAR LMML 160715Z VRB01KT 9999 SCT023 23/15 Q1018 NOSIG=
201106160700 METAR LMML NIL=
201106160645 METAR LMML 160645Z VRB01KT 9999 SCT016 22/16 Q1018 NOSIG=
201106160630 METAR LMML NIL=
201106160615 METAR LMML 160615Z VRB01KT 9999 FEW013 22/17 Q1018 NOSIG=
201106160600 METAR LMML NIL=
201106160545 METAR LMML 160545Z VRB01KT 9999 FEW020 22/17 Q1017 NOSIG=
201106160530 METAR LMML NIL=
201106160515 METAR LMML 160515Z VRB01KT 9999 FEW015 21/17 Q1017 NOSIG=
201106160500 METAR LMML NIL=
201106160445 METAR LMML 160445Z VRB02KT 9000 FEW015 19/17 Q1017 BECMG
                        9999=
201106160430 METAR LMML NIL=
201106160415 METAR LMML 160415Z VRB02KT 7000 FEW015 17/17 Q1017 BECMG
                        9999=
201106160400 METAR LMML NIL=
201106160345 METAR LMML 160345Z VRB02KT 7000 FEW015 17/17 Q1017 NOSIG=
201106160330 METAR LMML NIL=
201106160315 METAR LMML 160315Z VRB02KT 9999 FEW015 17/17 Q1016 TEMPO
                        6000=
201106160300 METAR LMML NIL=
201106160245 METAR LMML 160245Z VRB02KT 9999 FEW015 17/16 Q1016 TEMPO
                        6000=
201106160230 METAR LMML NIL=
201106160215 METAR LMML 160215Z VRB02KT 9999 FEW015 17/16 Q1017 NOSIG=
201106160200 METAR LMML NIL=
201106160145 METAR LMML 160145Z VRB02KT CAVOK 18/16 Q1017 NOSIG=
201106160130 METAR LMML NIL=
201106160115 METAR LMML 160115Z VRB02KT CAVOK 18/16 Q1017 NOSIG=
201106160100 METAR LMML NIL=
201106160045 METAR LMML 160045Z VRB02KT CAVOK 18/16 Q1017 NOSIG=
201106160030 METAR LMML NIL=
201106160015 METAR LMML 160015Z VRB02KT CAVOK 18/15 Q1017 NOSIG=
201106160000 METAR LMML NIL=
201106152345 METAR LMML 152345Z VRB02KT CAVOK 18/16 Q1017 NOSIG=
201106152330 METAR LMML NIL=
201106152315 METAR LMML 152315Z VRB02KT CAVOK 18/16 Q1017 NOSIG=
201106152300 METAR LMML NIL=
201106152245 METAR LMML 152245Z VRB01KT CAVOK 19/17 Q1017 NOSIG=
201106152230 METAR LMML NIL=
201106152215 METAR LMML 152215Z VRB02KT CAVOK 19/17 Q1017 NOSIG=
201106152200 METAR LMML NIL=
201106152145 METAR LMML 152145Z VRB01KT 9999 FEW017 19/17 Q1018 NOSIG=
201106152130 METAR LMML NIL=
201106152115 METAR LMML 152115Z VRB01KT 9999 FEW017 19/17 Q1018 NOSIG=
201106152100 METAR LMML NIL=
201106152045 METAR LMML 152045Z VRB01KT 9999 FEW017 19/17 Q1018 NOSIG=
201106152030 METAR LMML NIL=
201106152015 METAR LMML 152015Z 28003KT 9999 FEW020 20/17 Q1017 NOSIG=
201106152000 METAR LMML NIL=
201106151945 METAR LMML 151945Z 28003KT 9999 FEW020 20/17 Q1017 NOSIG=
201106151930 METAR LMML NIL=
201106151915 METAR LMML 151915Z 28005KT 240V300 9999 FEW020 20/17 Q1017
                        NOSIG=
201106151845 METAR LMML 151845Z 27004KT 240V300 9999 FEW020 21/17 Q1016
                        NOSIG=
201106151830 METAR LMML NIL=
201106151815 METAR LMML 151815Z 29005KT 260V320 9999 FEW020 21/16 Q1016
                        NOSIG=
201106151745 METAR LMML 151745Z 34004KT 310V040 9999 SCT020 22/17 Q1016
                        NOSIG=
201106151730 METAR LMML NIL=
201106151715 METAR LMML 151715Z 31003KT 9999 BKN022 22/16 Q1016 NOSIG=
201106151700 METAR LMML NIL=
201106151645 METAR LMML 151645Z 05004KT 340V110 9999 BKN023 23/16 Q1016
                        NOSIG=
201106151630 METAR LMML NIL=
201106151615 METAR LMML 151615Z 05006KT 020V080 9999 FEW029 24/15 Q1016
                        NOSIG=
201106151600 METAR LMML NIL=
201106151545 METAR LMML 151545Z 20003KT 9999 FEW031 24/15 Q1016 NOSIG=
201106151530 METAR LMML NIL=
201106151515 METAR LMML 151515Z 21004KT 120V300 9999 FEW034 23/14 Q1016
                        NOSIG=
201106151500 METAR LMML NIL=
201106151445 METAR LMML 151445Z 20005KT 090V250 9999 FEW037 24/14 Q1016
                        NOSIG=
201106151430 METAR LMML NIL=
201106151415 METAR LMML 151415Z 28004KT 190V020 9999 FEW036 26/14 Q1016
                        NOSIG=
201106151345 METAR LMML 151345Z 02005KT 330V070 9999 FEW025 26/14 Q1016
                        NOSIG=
201106151330 METAR LMML NIL=
201106151315 METAR LMML 151315Z 04005KT 360V100 CAVOK 26/14 Q1016 NOSIG=
201106151300 METAR LMML NIL=
201106151245 METAR LMML 151245Z 04007KT 360V090 9999 FEW025 26/15 Q1016
                        NOSIG=
201106151230 METAR LMML NIL=
201106151215 METAR LMML 151215Z 03007KT 350V090 9999 FEW025 26/14 Q1016
                        NOSIG=
201106151200 METAR LMML NIL=
201106151145 METAR LMML 151145Z 03006KT 340V090 9999 FEW025 26/15 Q1017
                        NOSIG=
201106151130 METAR LMML NIL=
201106151115 METAR LMML 151115Z 02006KT 330V100 9999 FEW025 26/14 Q1017
                        NOSIG=
201106151045 METAR LMML 151045Z 04008KT 010V100 9999 FEW025 26/14 Q1017
                        NOSIG=
201106151030 METAR LMML NIL=
201106151015 METAR LMML 151015Z 02007KT 340V070 9999 FEW025 26/14 Q1017
                        NOSIG=
201106151000 METAR LMML NIL=
201106150945 METAR LMML 150945Z 04007KT 320V090 CAVOK 25/15 Q1017 NOSIG=
201106150930 METAR LMML NIL=
201106150915 METAR LMML 150915Z 02007KT 350V060 9999 FEW020 25/15 Q1017
                        NOSIG=
201106150900 METAR LMML NIL=
201106150845 METAR LMML 150845Z 02006KT 350V060 9999 FEW020 24/16 Q1016
                        NOSIG=
201106150830 METAR LMML NIL=
201106150815 METAR LMML 150815Z 02008KT 350V060 9999 FEW020 24/17 Q1016
                        NOSIG=
201106150800 METAR LMML NIL=
201106150745 METAR LMML 150745Z 04010KT 010V070 9999 FEW020 23/16 Q1016
                        NOSIG=
201106150730 METAR LMML NIL=
201106150715 METAR LMML 150715Z 04008KT 360V080 9999 FEW020 23/16 Q1016
                        NOSIG=
201106150645 METAR LMML 150645Z 03007KT 360V060 9999 FEW020 23/16 Q1016
                        NOSIG=
201106150630 METAR LMML NIL=
201106150615 METAR LMML 150615Z 03007KT 9999 FEW020 22/16 Q1016 NOSIG=
201106150600 METAR LMML NIL=
201106150545 METAR LMML 150545Z 02005KT 9999 FEW020 21/17 Q1015 NOSIG=
201106150530 METAR LMML NIL=
201106150515 METAR LMML 150515Z VRB02KT CAVOK 20/16 Q1015 NOSIG=
201106150500 METAR LMML NIL=
201106150445 METAR LMML 150445Z VRB01KT CAVOK 19/16 Q1015 NOSIG=
201106150430 METAR LMML NIL=
201106150415 METAR LMML 150415Z VRB01KT CAVOK 17/15 Q1015 NOSIG=
201106150400 METAR LMML NIL=
201106150345 METAR LMML 150345Z VRB01KT CAVOK 17/15 Q1015 NOSIG=
201106150330 METAR LMML NIL=
201106150315 METAR LMML 150315Z VRB01KT CAVOK 17/15 Q1015 NOSIG=
201106150300 METAR LMML NIL=
201106150245 METAR LMML 150245Z VRB01KT CAVOK 17/16 Q1015 NOSIG=
201106150230 METAR LMML NIL=
201106150215 METAR LMML 150215Z VRB01KT CAVOK 17/16 Q1015 NOSIG=
201106150200 METAR LMML NIL=
201106150145 METAR LMML 150145Z VRB01KT CAVOK 17/16 Q1015 NOSIG=
201106150130 METAR LMML NIL=
201106150115 METAR LMML 150115Z VRB01KT CAVOK 18/16 Q1015 NOSIG=
201106150100 METAR LMML NIL=
201106150045 METAR LMML 150045Z VRB02KT CAVOK 17/15 Q1015 NOSIG=
201106150030 METAR LMML NIL=
201106150015 METAR LMML 150015Z VRB01KT CAVOK 18/16 Q1015 NOSIG=
201106150000 METAR LMML NIL=
201106142345 METAR LMML 142345Z 00000KT CAVOK 18/16 Q1015 NOSIG=
201106142330 METAR LMML NIL=
201106142315 METAR LMML 142315Z VRB01KT CAVOK 18/16 Q1015 NOSIG=
201106142300 METAR LMML NIL=
201106142245 METAR LMML 142245Z VRB01KT CAVOK 18/16 Q1015 NOSIG=
201106142230 METAR LMML NIL=
201106142215 METAR LMML 142215Z VRB02KT CAVOK 19/16 Q1015 NOSIG=
201106142200 METAR LMML NIL=
201106142145 METAR LMML 142145Z VRB02KT CAVOK 19/16 Q1015 NOSIG=
201106142130 METAR LMML NIL=
201106142115 METAR LMML 142115Z 30003KT CAVOK 19/16 Q1016 NOSIG=
201106142100 METAR LMML NIL=
201106142045 METAR LMML 142045Z 29004KT 260V330 CAVOK 19/16 Q1016 NOSIG=
201106142030 METAR LMML NIL=
201106142015 METAR LMML 142015Z 29004KT 250V330 9999 FEW025 SCT250 19/16
                        Q1016 NOSIG=
201106142000 METAR LMML NIL=
201106141945 METAR LMML 141945Z 28004KT 240V310 9999 FEW025 SCT250 20/16
                        Q1015 NOSIG=
201106141930 METAR LMML NIL=
201106141915 METAR LMML 141915Z 32005KT 9999 FEW025 BKN250 20/16 Q1015
                        NOSIG=
201106141900 METAR LMML NIL=
201106141845 METAR LMML 141845Z 33008KT 9999 FEW025 20/16 Q1015 NOSIG=
201106141830 METAR LMML NIL=
201106141815 METAR LMML 141815Z 33009KT 9999 FEW025 21/15 Q1015 NOSIG=
201106141800 METAR LMML NIL=
201106141745 METAR LMML 141745Z 33009KT 9999 FEW025 21/15 Q1015 NOSIG=
201106141730 METAR LMML NIL=
201106141715 METAR LMML 141715Z 33010KT 9999 FEW025 21/16 Q1014 NOSIG=
201106141700 METAR LMML NIL=
201106141645 METAR LMML 141645Z 34011KT 9999 FEW025 22/14 Q1014 NOSIG=
201106141630 METAR LMML NIL=
201106141615 METAR LMML 141615Z 33012KT 300V360 9999 FEW025 22/14 Q1014
                        NOSIG=
201106141545 METAR LMML 141545Z 34012KT 9999 FEW025 23/14 Q1014 NOSIG=
201106141530 METAR LMML NIL=
201106141515 METAR LMML 141515Z 32010KT 290V010 9999 FEW029 SCT120 23/15
                        Q1014 NOSIG=
201106141500 METAR LMML NIL=
201106141445 METAR LMML 141445Z 29010KT 250V320 9999 FEW025 SCT250 24/15
                        Q1014 NOSIG=
201106141430 METAR LMML NIL=
201106141415 METAR LMML 141415Z 30010KT 240V330 CAVOK 24/15 Q1014 NOSIG=
201106141400 METAR LMML NIL=
201106141345 METAR LMML 141345Z 31009KT 270V360 9999 FEW025 SCT250 25/13
                        Q1014 NOSIG=
201106141330 METAR LMML NIL=
201106141315 METAR LMML 141315Z 28009KT 240V320 9999 FEW024 25/13 Q1014
                        NOSIG=
201106141300 METAR LMML NIL=
201106141245 METAR LMML 141245Z 34006KT 280V040 9999 FEW026 26/15 Q1015
                        NOSIG=
201106141230 METAR LMML NIL=
201106141215 METAR LMML 141215Z 08007KT 9999 SCT025 25/16 Q1015 NOSIG=
201106141200 METAR LMML NIL=
201106141145 METAR LMML 141145Z 01008KT 340V050 9999 FEW027 26/17 Q1015
                        NOSIG=
201106141130 METAR LMML NIL=
201106141115 METAR LMML 141115Z 35008KT 310V020 9999 FEW025 25/17 Q1015
                        NOSIG=
201106141100 METAR LMML NIL=
201106141045 METAR LMML 141045Z 34008KT 300V030 9999 FEW025 25/16 Q1015
                        NOSIG=
201106141030 METAR LMML NIL=
201106141015 METAR LMML 141015Z 33011KT 9999 FEW025 SCT250 25/15 Q1015
                        NOSIG=
201106140945 METAR LMML 140945Z 33009KT 9999 FEW025 SCT250 24/16 Q1015
                        NOSIG=
201106140930 METAR LMML NIL=
201106140915 METAR LMML 140915Z 34009KT 310V010 9999 FEW025 BKN250 24/15
                        Q1015 NOSIG=
201106140900 METAR LMML NIL=
201106140845 METAR LMML 140845Z 33006KT 300V010 9999 FEW025 BKN250 24/16
                        Q1015 NOSIG=
201106140830 METAR LMML NIL=
201106140815 METAR LMML 140815Z 34006KT 300V010 9999 FEW025 BKN250 24/17
                        Q1015 NOSIG=
201106140800 METAR LMML NIL=
201106140745 METAR LMML 140745Z 33008KT 300V010 9999 FEW025 BKN250 23/17
                        Q1015 NOSIG=
201106140730 METAR LMML NIL=
201106140715 METAR LMML 140715Z 31010KT CAVOK 24/13 Q1015 NOSIG=
201106140700 METAR LMML NIL=
201106140645 METAR LMML 140645Z 30007KT 270V330 CAVOK 22/14 Q1015 NOSIG=
201106140630 METAR LMML NIL=
201106140615 METAR LMML 140615Z 29006KT 260V320 CAVOK 22/15 Q1014 NOSIG=
201106140600 METAR LMML NIL=
201106140545 METAR LMML 140545Z 30005KT 260V350 CAVOK 20/16 Q1014 NOSIG=
201106140530 METAR LMML NIL=
201106140515 METAR LMML 140515Z VRB02KT CAVOK 20/16 Q1014 NOSIG=
201106140500 METAR LMML NIL=
201106140445 METAR LMML 140445Z 28004KT 220V310 CAVOK 19/17 Q1014 NOSIG=
201106140430 METAR LMML NIL=
201106140415 METAR LMML 140415Z 27003KT 9999 FEW008 19/17 Q1014 NOSIG=
201106140345 METAR LMML 140345Z 24003KT 9999 FEW008 18/17 Q1014 NOSIG=
201106140315 METAR LMML 140315Z VRB02KT 9999 FEW008 18/17 Q1014 NOSIG=
201106140300 METAR LMML NIL=
201106140245 METAR LMML 140245Z 27003KT 9999 FEW015 18/17 Q1014 NOSIG=
201106140230 METAR LMML NIL=
201106140215 METAR LMML 140215Z 25003KT 9999 FEW015 18/16 Q1014 NOSIG=
201106140200 METAR LMML NIL=
201106140145 METAR LMML 140145Z VRB02KT 9999 FEW015 18/17 Q1014 NOSIG=
201106140130 METAR LMML NIL=
201106140115 METAR LMML 140115Z 28005KT 240V310 9999 FEW015 18/16 Q1014
                        NOSIG=
201106140100 METAR LMML NIL=
201106140045 METAR LMML 140045Z 28005KT 240V320 9999 FEW015 18/16 Q1014
                        NOSIG=
201106140030 METAR LMML NIL=
201106140015 METAR LMML 140015Z 27007KT 9999 FEW015 18/16 Q1014 NOSIG=
201106140000 METAR LMML NIL=
201106132345 METAR LMML 132345Z 27006KT 240V310 9999 FEW015 18/16 Q1015
                        NOSIG=
201106132330 METAR LMML NIL=
201106132315 METAR LMML 132315Z 29005KT 9999 FEW015 18/17 Q1015 NOSIG=
201106132300 METAR LMML NIL=
201106132245 METAR LMML 132245Z 27005KT 230V300 9999 FEW015 18/17 Q1015
                        NOSIG=
201106132230 METAR LMML NIL=
201106132215 METAR LMML 132215Z 29006KT CAVOK 18/17 Q1015 NOSIG=
201106132200 METAR LMML NIL=
201106132145 METAR LMML 132145Z 28004KT 230V300 CAVOK 18/16 Q1015 NOSIG=
201106132130 METAR LMML NIL=
201106132115 METAR LMML 132115Z 28003KT CAVOK 18/16 Q1016 NOSIG=
201106132100 METAR LMML NIL=
201106132045 METAR LMML 132045Z VRB02KT CAVOK 19/16 Q1016 NOSIG=
201106132030 METAR LMML NIL=
201106132015 METAR LMML 132015Z 28004KT 250V310 CAVOK 19/16 Q1016 NOSIG=
201106132000 METAR LMML NIL=
201106131945 METAR LMML 131945Z 28004KT 250V320 9999 FEW020 SCT250 19/16
                        Q1016 NOSIG=
201106131930 METAR LMML NIL=
201106131915 METAR LMML 131915Z 30005KT 260V330 9999 FEW020 SCT250 19/16
                        Q1015 NOSIG=
201106131900 METAR LMML NIL=
201106131845 METAR LMML 131845Z 30007KT 250V330 9999 FEW020 SCT250 19/16
                        Q1015 NOSIG=
201106131830 METAR LMML NIL=
201106131815 METAR LMML 131815Z 30010KT 270V330 9999 FEW020 BKN250 20/16
                        Q1015 NOSIG=
201106131800 METAR LMML NIL=
201106131745 METAR LMML 131745Z 29009KT 260V330 9999 FEW020 BKN250 20/16
                        Q1015 NOSIG=
201106131715 METAR LMML 131715Z 30013KT 9999 FEW020 BKN250 21/15 Q1015
                        NOSIG=
201106131700 METAR LMML NIL=
201106131645 METAR LMML 131645Z 28012KT 250V310 9999 FEW030 BKN250 21/15
                        Q1015 NOSIG=
201106131630 METAR LMML NIL=
201106131615 METAR LMML 131615Z 28013KT 220V310 9999 FEW030 BKN250 22/16
                        Q1015 NOSIG=
201106131600 METAR LMML NIL=
201106131545 METAR LMML 131545Z 29011KT 260V320 9999 FEW030 BKN250 23/14
                        Q1015 NOSIG=
201106131530 METAR LMML NIL=
201106131515 METAR LMML 131515Z 29014KT 9999 FEW030 BKN250 23/13 Q1016
                        NOSIG=
201106131500 METAR LMML NIL=
201106131445 METAR LMML 131445Z 29013KT 260V320 9999 FEW030 BKN250 23/14
                        Q1016 NOSIG=
201106131430 METAR LMML NIL=
201106131415 METAR LMML 131415Z 29013KT 9999 FEW030 BKN250 24/13 Q1016
                        NOSIG=
201106131400 METAR LMML NIL=
201106131345 METAR LMML 131345Z 30014KT 270V350 9999 FEW030 BKN250 24/14
                        Q1016 NOSIG=
201106131330 METAR LMML NIL=
201106131315 METAR LMML 131315Z 29013KT 260V320 9999 FEW031 BKN250 24/14
                        Q1016 NOSIG=
201106131300 METAR LMML NIL=
201106131245 METAR LMML 131245Z 29013KT 260V350 9999 FEW031 BKN250 24/12
                        Q1016 NOSIG=
201106131230 METAR LMML NIL=
201106131215 METAR LMML 131215Z 29013KT 260V320 9999 FEW031 SCT250 25/12
                        Q1017 NOSIG=
201106131200 METAR LMML NIL=
201106131145 METAR LMML 131145Z 30012KT 260V340 9999 FEW031 SCT250 24/13
                        Q1017 NOSIG=
201106131115 METAR LMML 131115Z 29013KT 250V320 9999 FEW031 SCT250 24/13
                        Q1017 NOSIG=
201106131100 METAR LMML NIL=
201106131045 METAR LMML 131045Z 28014KT 9999 FEW031 SCT250 24/12 Q1017
                        NOSIG=
201106131030 METAR LMML NIL=
201106131015 METAR LMML 131015Z 29013KT 250V320 9999 FEW029 24/14 Q1018
                        NOSIG=
201106131000 METAR LMML NIL=
201106130945 METAR LMML 130945Z 29011KT 250V330 9999 FEW030 23/14 Q1017
                        NOSIG=
201106130930 METAR LMML NIL=
201106130915 METAR LMML 130915Z 29012KT 250V330 9999 FEW031 24/13 Q1017
                        NOSIG=
201106130900 METAR LMML NIL=
201106130845 METAR LMML 130845Z 29011KT 250V340 9999 FEW021 23/14 Q1017
                        NOSIG=
201106130830 METAR LMML NIL=
201106130815 METAR LMML 130815Z 28010KT 250V320 9999 FEW021 23/14 Q1017
                        NOSIG=
201106130745 METAR LMML 130745Z 29012KT 270V330 9999 FEW021 22/14 Q1017
                        NOSIG=
201106130730 METAR LMML NIL=
201106130715 METAR LMML 130715Z 29010KT 260V320 9999 FEW021 22/14 Q1017
                        NOSIG=
201106130700 METAR LMML NIL=
201106130645 METAR LMML 130645Z 30011KT 9999 FEW021 22/14 Q1017 NOSIG=
201106130630 METAR LMML NIL=
201106130615 METAR LMML 130615Z 32010KT 9999 FEW025 SCT250 21/14 Q1017
                        NOSIG=
201106130600 METAR LMML NIL=
201106130545 METAR LMML 130545Z 32009KT 9999 FEW020 SCT250 21/15 Q1017
                        NOSIG=
201106130530 METAR LMML NIL=
201106130515 METAR LMML 130515Z 32009KT 9999 FEW020 SCT250 20/16 Q1017
                        NOSIG=
201106130500 METAR LMML NIL=
201106130445 METAR LMML 130445Z 32008KT 9999 FEW020 19/16 Q1017 NOSIG=
201106130415 METAR LMML 130415Z 32010KT 9999 FEW020 18/16 Q1016 NOSIG=
201106130345 METAR LMML 130345Z 30010KT 9999 FEW020 18/16 Q1016 NOSIG=
201106130330 METAR LMML NIL=
201106130315 METAR LMML 130315Z 30011KT 9999 FEW020 18/16 Q1016 NOSIG=
201106130300 METAR LMML NIL=
201106130245 METAR LMML 130245Z 30011KT CAVOK 18/16 Q1016 NOSIG=
201106130215 METAR LMML 130215Z 29009KT 270V330 CAVOK 18/16 Q1016 NOSIG=
201106130200 METAR LMML NIL=
201106130145 METAR LMML 130145Z 29008KT 250V320 CAVOK 18/16 Q1016 NOSIG=
201106130130 METAR LMML NIL=
201106130115 METAR LMML 130115Z 33004KT 300V020 CAVOK 18/16 Q1016 NOSIG=
201106130100 METAR LMML NIL=
201106130045 METAR LMML 130045Z 29008KT 250V310 CAVOK 18/16 Q1016 NOSIG=
201106130030 METAR LMML NIL=
201106130015 METAR LMML 130015Z 26007KT 220V290 CAVOK 18/16 Q1016 NOSIG=
201106130000 METAR LMML NIL=
201106122345 METAR LMML 122345Z 26003KT CAVOK 18/15 Q1017 NOSIG=
201106122330 METAR LMML NIL=
201106122315 METAR LMML 122315Z 28008KT CAVOK 18/15 Q1017 NOSIG=
201106122300 METAR LMML NIL=
201106122245 METAR LMML 122245Z 33003KT CAVOK 18/15 Q1017 NOSIG=
201106122230 METAR LMML NIL=
201106122215 METAR LMML 122215Z 31005KT 280V340 CAVOK 18/15 Q1017 NOSIG=
201106122200 METAR LMML NIL=
201106122145 METAR LMML 122145Z 31003KT CAVOK 18/15 Q1017 NOSIG=
201106122115 METAR LMML 122115Z 31010KT CAVOK 18/14 Q1017 NOSIG=
201106122100 METAR LMML NIL=
201106122045 METAR LMML 122045Z 31011KT CAVOK 18/14 Q1017 NOSIG=
201106122030 METAR LMML NIL=
201106122015 METAR LMML 122015Z 31012KT CAVOK 19/14 Q1017 NOSIG=
201106122000 METAR LMML NIL=
201106121945 METAR LMML 121945Z 31014KT CAVOK 19/13 Q1017 NOSIG=
201106121930 METAR LMML NIL=
201106121915 METAR LMML 121915Z 31013KT 9999 FEW020 19/14 Q1017 NOSIG=
201106121900 METAR LMML NIL=
201106121845 METAR LMML 121845Z 30017KT 9999 FEW020 19/14 Q1017 NOSIG=
201106121830 METAR LMML NIL=
201106121815 METAR LMML 121815Z 30016KT 270V330 9999 FEW020 SCT250 20/15
                        Q1017 NOSIG=
201106121800 METAR LMML NIL=
201106121745 METAR LMML 121745Z 31016KT CAVOK 21/15 Q1017 NOSIG=
201106121730 METAR LMML NIL=
201106121715 METAR LMML 121715Z 30020KT 270V330 9999 FEW020 SCT250 21/16
                        Q1017 NOSIG=
201106121700 METAR LMML NIL=
201106121645 METAR LMML 121645Z 30019KT 9999 FEW020 SCT250 22/16 Q1016
                        NOSIG=
201106121630 METAR LMML NIL=
201106121615 METAR LMML 121615Z 30018KT 9999 FEW020 BKN250 22/16 Q1016
                        NOSIG=
201106121600 METAR LMML NIL=
201106121545 METAR LMML 121545Z 30019KT 9999 FEW025 BKN250 22/16 Q1016
                        NOSIG=
201106121530 METAR LMML NIL=
201106121515 METAR LMML 121515Z 30021KT 9999 FEW025 BKN250 23/17 Q1017
                        NOSIG=
201106121500 METAR LMML NIL=
201106121445 METAR LMML 121445Z 30018KT 9999 FEW025 SCT250 24/16 Q1017
                        NOSIG=
201106121415 METAR LMML 121415Z 28015KT 240V320 9999 FEW025 SCT250 24/15
                        Q1017 NOSIG=
201106121345 METAR LMML 121345Z 28015KT 250V310 CAVOK 24/16 Q1017 NOSIG=
201106121330 METAR LMML NIL=
201106121315 METAR LMML 121315Z 29014KT 250V320 9999 FEW025 SCT250 25/16
                        Q1017 NOSIG=
201106121300 METAR LMML NIL=
201106121245 METAR LMML 121245Z 29014KT 260V320 9999 FEW025 SCT250 25/15
                        Q1017 NOSIG=
201106121215 METAR LMML 121215Z 28015KT 240V310 9999 FEW025 SCT250 24/15
                        Q1017 NOSIG=
201106121200 METAR LMML NIL=
201106121145 METAR LMML 121145Z 30016KT 260V330 9999 FEW022 25/16 Q1017
                        NOSIG=
201106121115 METAR LMML 121115Z 30013KT 280V340 9999 FEW022 25/15 Q1017
                        NOSIG=
201106121045 METAR LMML 121045Z 29012KT 260V320 9999 FEW022 24/16 Q1018
                        NOSIG=
201106121015 METAR LMML 121015Z 30013KT 250V340 9999 FEW022 25/16 Q1018
                        NOSIG=
201106121000 METAR LMML NIL=
201106120945 METAR LMML 120945Z 29013KT 260V320 9999 SCT022 24/15 Q1018
                        NOSIG=
201106120930 METAR LMML NIL=
201106120915 METAR LMML 120915Z 29013KT 260V320 9999 SCT021 24/16 Q1018
                        NOSIG=
201106120900 METAR LMML NIL=
201106120845 METAR LMML 120845Z 31014KT 9999 SCT019 23/16 Q1018 NOSIG=
201106120815 METAR LMML 120815Z 30012KT 9999 SCT019 23/16 Q1018 NOSIG=
201106120800 METAR LMML NIL=
201106120745 METAR LMML 120745Z 30014KT 9999 FEW018 23/16 Q1018 NOSIG=
201106120730 METAR LMML NIL=
201106120715 METAR LMML 120715Z 30014KT 9999 FEW016 23/16 Q1018 NOSIG=
201106120700 METAR LMML NIL=
201106120645 METAR LMML 120645Z 29012KT 260V320 9999 SCT015 21/16 Q1017
                        NOSIG=
201106120630 METAR LMML NIL=
201106120615 METAR LMML 120615Z 31009KT 9999 FEW012 21/16 Q1017 NOSIG=
201106120600 METAR LMML NIL=
201106120545 METAR LMML 120545Z 31009KT 9999 FEW011 20/17 Q1017 NOSIG=
201106120515 METAR LMML 120515Z 31010KT 9999 FEW009 20/17 Q1017 NOSIG=
201106120445 METAR LMML 120445Z 31008KT 9999 FEW009 SCT250 19/17 Q1017
                        TEMPO BKN009=
201106120430 METAR LMML NIL=
201106120415 METAR LMML 120415Z 32008KT 9999 FEW015 SCT250 18/17 Q1016
                        NOSIG=
201106120400 METAR LMML NIL=
201106120345 METAR LMML 120345Z 31010KT 9999 FEW015 SCT250 18/17 Q1016
                        NOSIG=
201106120330 METAR LMML NIL=
201106120315 METAR LMML 120315Z 31010KT 9999 FEW020 SCT250 18/17 Q1016
                        NOSIG=
201106120300 METAR LMML NIL=
201106120245 METAR LMML 120245Z 31009KT CAVOK 18/16 Q1016 NOSIG=
201106120230 METAR LMML NIL=
201106120215 METAR LMML 120215Z 30008KT CAVOK 19/15 Q1016 NOSIG=
201106120200 METAR LMML NIL=
201106120145 METAR LMML 120145Z 32007KT CAVOK 18/15 Q1016 NOSIG=
201106120130 METAR LMML NIL=
201106120115 METAR LMML 120115Z 31008KT CAVOK 19/15 Q1016 NOSIG=
201106120100 METAR LMML NIL=
201106120045 METAR LMML 120045Z 30009KT CAVOK 19/16 Q1016 NOSIG=
201106120030 METAR LMML NIL=
201106120015 METAR LMML 120015Z 31009KT CAVOK 19/15 Q1016 NOSIG=
201106120000 METAR LMML NIL=
201106112345 METAR LMML 112345Z 32009KT CAVOK 19/15 Q1016 NOSIG=
201106112330 METAR LMML NIL=
201106112315 METAR LMML 112315Z 31008KT CAVOK 20/15 Q1016 NOSIG=
201106112300 METAR LMML NIL=
201106112245 METAR LMML 112245Z 30009KT CAVOK 20/15 Q1016 NOSIG=
201106112230 METAR LMML NIL=
201106112215 METAR LMML 112215Z 30012KT CAVOK 20/16 Q1016 NOSIG=
201106112200 METAR LMML NIL=
201106112145 METAR LMML 112145Z 30013KT CAVOK 20/16 Q1016 NOSIG=
201106112130 METAR LMML NIL=
201106112115 METAR LMML 112115Z 30011KT 260V320 CAVOK 20/16 Q1016 NOSIG=
201106112100 METAR LMML NIL=
201106112045 METAR LMML 112045Z 30011KT 270V330 CAVOK 20/16 Q1016 NOSIG=
201106112015 METAR LMML 112015Z 29014KT 9999 FEW020 20/16 Q1016 NOSIG=
201106112000 METAR LMML NIL=
201106111945 METAR LMML 111945Z 29016KT 9999 FEW020 20/17 Q1016 NOSIG=
201106111915 METAR LMML 111915Z 29014KT 260V320 9999 FEW020 20/17 Q1015
                        NOSIG=
201106111900 METAR LMML NIL=
201106111845 METAR LMML 111845Z 29012KT 9999 FEW020 20/17 Q1015 NOSIG=
201106111830 METAR LMML NIL=
201106111815 METAR LMML 111815Z 29015KT 9999 FEW020 20/17 Q1015 NOSIG=
201106111745 METAR LMML 111745Z 30015KT 9999 FEW025 21/16 Q1015 NOSIG=
201106111730 METAR LMML NIL=
201106111715 METAR LMML 111715Z 31018KT 9999 FEW025 22/16 Q1014 NOSIG=
201106111700 METAR LMML NIL=
201106111645 METAR LMML 111645Z 30017KT 9999 FEW025 23/14 Q1014 NOSIG=
201106111630 METAR LMML NIL=
201106111615 METAR LMML 111615Z 29015KT 260V320 9999 FEW025 24/15 Q1014
                        NOSIG=
201106111600 METAR LMML NIL=
201106111545 METAR LMML 111545Z 29016KT 9999 FEW025 24/15 Q1014 NOSIG=
201106111530 METAR LMML NIL=
201106111515 METAR LMML 111515Z 29015KT 9999 FEW025 25/14 Q1014 NOSIG=
201106111500 METAR LMML NIL=
201106111445 METAR LMML 111445Z 28012KT 250V320 9999 FEW025 25/15 Q1014
                        NOSIG=
201106111430 METAR LMML NIL=
201106111415 METAR LMML 111415Z 30013KT 270V330 9999 FEW025 25/15 Q1014
                        NOSIG=
201106111400 METAR LMML NIL=
201106111345 METAR LMML 111345Z 30013KT 270V330 9999 FEW025 26/12 Q1014
                        NOSIG=
201106111330 METAR LMML NIL=
201106111315 METAR LMML 111315Z 29012KT 250V320 9999 FEW025 26/12 Q1015
                        NOSIG=
201106111245 METAR LMML 111245Z 31015KT 9999 FEW025 27/10 Q1015 NOSIG=
201106111230 METAR LMML NIL=
201106111215 METAR LMML 111215Z 31012KT 270V330 9999 FEW025 26/12 Q1015
                        NOSIG=
201106111200 METAR LMML NIL=
201106111145 METAR LMML 111145Z 30014KT 9999 FEW025 26/11 Q1015 NOSIG=
201106111130 METAR LMML NIL=
201106111115 METAR LMML 111115Z 30012KT 260V330 9999 FEW025 27/13 Q1015
                        NOSIG=
201106111100 METAR LMML NIL=
201106111045 METAR LMML 111045Z 30012KT 270V340 CAVOK 26/13 Q1015 NOSIG=
201106111030 METAR LMML NIL=
201106111015 METAR LMML 111015Z 30012KT 270V330 CAVOK 27/12 Q1015 NOSIG=
201106111000 METAR LMML NIL=
201106110945 METAR LMML 110945Z 32012KT 280V340 CAVOK 27/11 Q1015 NOSIG=
201106110930 METAR LMML NIL=
201106110915 METAR LMML 110915Z 31010KT 280V360 CAVOK 26/12 Q1015 NOSIG=
201106110845 METAR LMML 110845Z 33010KT 290V360 CAVOK 26/12 Q1016 NOSIG=
201106110830 METAR LMML NIL=
201106110815 METAR LMML 110815Z 34009KT 300V010 CAVOK 25/10 Q1015 NOSIG=
201106110800 METAR LMML NIL=
201106110745 METAR LMML 110745Z 33009KT 300V360 CAVOK 25/09 Q1015 NOSIG=
201106110730 METAR LMML NIL=
201106110715 METAR LMML 110715Z 34005KT 300V020 CAVOK 25/10 Q1015 NOSIG=
201106110700 METAR LMML NIL=
201106110645 METAR LMML 110645Z 33006KT 300V010 CAVOK 24/13 Q1015 NOSIG=
201106110630 METAR LMML NIL=
201106110615 METAR LMML 110615Z 31010KT CAVOK 22/15 Q1016 NOSIG=
201106110600 METAR LMML NIL=
201106110545 METAR LMML 110545Z 31010KT CAVOK 21/15 Q1015 NOSIG=
201106110530 METAR LMML NIL=
201106110515 METAR LMML 110515Z 31008KT CAVOK 19/15 Q1015 NOSIG=
201106110500 METAR LMML NIL=
201106110445 METAR LMML 110445Z 31008KT CAVOK 19/15 Q1015 NOSIG=
201106110430 METAR LMML NIL=
201106110415 METAR LMML 110415Z 31007KT CAVOK 19/15 Q1014 NOSIG=
201106110400 METAR LMML NIL=
201106110345 METAR LMML 110345Z 32006KT CAVOK 18/14 Q1014 NOSIG=
201106110330 METAR LMML NIL=
201106110315 METAR LMML 110315Z 33005KT CAVOK 19/14 Q1013 NOSIG=
201106110245 METAR LMML 110245Z 31007KT CAVOK 19/13 Q1014 NOSIG=
201106110230 METAR LMML NIL=
201106110215 METAR LMML 110215Z 31006KT CAVOK 18/14 Q1014 NOSIG=
201106110200 METAR LMML NIL=
201106110145 METAR LMML 110145Z 33004KT CAVOK 18/14 Q1013 NOSIG=
201106110130 METAR LMML NIL=
201106110115 METAR LMML 110115Z 32005KT CAVOK 19/14 Q1014 NOSIG=
201106110100 METAR LMML NIL=
201106110045 METAR LMML 110045Z 31009KT CAVOK 19/14 Q1014 NOSIG=
201106110030 METAR LMML NIL=
201106110015 METAR LMML 110015Z 30009KT CAVOK 20/14 Q1015 NOSIG=
201106110000 METAR LMML NIL=
201106102345 METAR LMML 102345Z 30008KT CAVOK 20/13 Q1015 NOSIG=
201106102330 METAR LMML NIL=
201106102315 METAR LMML 102315Z 31007KT CAVOK 19/14 Q1015 NOSIG=
201106102300 METAR LMML NIL=
201106102245 METAR LMML 102245Z 30010KT CAVOK 20/14 Q1015 NOSIG=
201106102230 METAR LMML NIL=
201106102215 METAR LMML 102215Z 30010KT CAVOK 20/13 Q1015 NOSIG=
201106102200 METAR LMML NIL=
201106102145 METAR LMML 102145Z 30013KT CAVOK 20/12 Q1015 NOSIG=
201106102130 METAR LMML NIL=
201106102115 METAR LMML 102115Z 30012KT 270V330 CAVOK 20/12 Q1015 NOSIG
                        RMK SMOKE OVER AIRFIELD=
201106102100 METAR LMML NIL=
201106102045 METAR LMML 102045Z 29010KT 260V320 CAVOK 20/12 Q1015 NOSIG=
201106102030 METAR LMML NIL=
201106102015 METAR LMML 102015Z 28004KT 250V320 CAVOK 20/13 Q1015 NOSIG=
201106102000 METAR LMML NIL=
201106101945 METAR LMML 101945Z 31004KT CAVOK 19/14 Q1015 NOSIG=
201106101930 METAR LMML NIL=
201106101915 METAR LMML 101915Z 31005KT 270V340 CAVOK 20/14 Q1015 NOSIG=
201106101900 METAR LMML NIL=
201106101845 METAR LMML 101845Z 30006KT CAVOK 20/14 Q1014 NOSIG=
201106101830 METAR LMML NIL=
201106101815 METAR LMML 101815Z 31008KT CAVOK 20/14 Q1014 NOSIG=
201106101800 METAR LMML NIL=
201106101745 METAR LMML 101745Z 30010KT CAVOK 21/14 Q1014 NOSIG=
201106101730 METAR LMML NIL=
201106101715 METAR LMML 101715Z 29010KT 250V330 9999 FEW020 22/15 Q1014
                        NOSIG=
201106101700 METAR LMML NIL=
201106101645 METAR LMML 101645Z 30012KT 270V330 9999 FEW020 23/13 Q1014
                        NOSIG=
201106101630 METAR LMML NIL=
201106101615 METAR LMML 101615Z 30011KT 270V330 9999 FEW020 23/14 Q1014
                        NOSIG=
201106101600 METAR LMML NIL=
201106101545 METAR LMML 101545Z 30011KT 9999 FEW020 24/13 Q1014 NOSIG=
201106101530 METAR LMML NIL=
201106101515 METAR LMML 101515Z 30013KT 270V330 9999 FEW020 24/12 Q1014
                        NOSIG=
201106101500 METAR LMML NIL=
201106101445 METAR LMML 101445Z 28014KT 260V330 9999 FEW022 24/13 Q1014
                        NOSIG=
201106101415 METAR LMML 101415Z 29014KT 250V310 9999 FEW022 25/12 Q1015
                        NOSIG=
201106101400 METAR LMML NIL=
201106101345 METAR LMML 101345Z 30015KT 9999 FEW022 25/10 Q1015 NOSIG=
201106101330 METAR LMML NIL=
201106101315 METAR LMML 101315Z 30013KT 240V330 9999 FEW022 25/11 Q1015
                        NOSIG=
201106101300 METAR LMML NIL=
201106101245 METAR LMML 101245Z 31014KT 9999 FEW022 25/12 Q1015 NOSIG=
201106101230 METAR LMML NIL=
201106101215 METAR LMML 101215Z 29013KT 260V320 9999 FEW022 25/09 Q1015
                        NOSIG=
201106101200 METAR LMML NIL=
201106101145 METAR LMML 101145Z 29012KT 260V320 9999 FEW022 25/13 Q1015
                        NOSIG=
201106101130 METAR LMML NIL=
201106101115 METAR LMML 101115Z 29014KT 260V320 9999 FEW022 25/15 Q1016
                        NOSIG=
201106101100 METAR LMML NIL=
201106101045 METAR LMML 101045Z 30014KT 9999 FEW022 25/13 Q1016 NOSIG=
201106101030 METAR LMML NIL=
201106101015 METAR LMML 101015Z 29013KT CAVOK 24/15 Q1016 NOSIG=
201106101000 METAR LMML NIL=
201106100945 METAR LMML 100945Z 31014KT 9999 FEW022 24/15 Q1016 NOSIG=
201106100915 METAR LMML 100915Z 30012KT 270V350 9999 FEW022 24/15 Q1016
                        NOSIG=
201106100900 METAR LMML NIL=
201106100845 METAR LMML 100845Z 29012KT 250V310 9999 FEW022 24/15 Q1016
                        NOSIG=
201106100830 METAR LMML NIL=
201106100815 METAR LMML 100815Z 28012KT 250V310 9999 FEW020 23/16 Q1016
                        NOSIG=
201106100800 METAR LMML NIL=
201106100745 METAR LMML 100745Z 30011KT 280V340 9999 FEW025 23/15 Q1016
                        NOSIG=
201106100730 METAR LMML NIL=
201106100715 METAR LMML 100715Z 32011KT 290V350 9999 FEW014 23/12 Q1016
                        NOSIG=
201106100645 METAR LMML 100645Z 32011KT 9999 FEW014 23/14 Q1016 NOSIG=
201106100630 METAR LMML NIL=
201106100615 METAR LMML 100615Z 31010KT 9999 FEW014 21/16 Q1015 NOSIG=
201106100600 METAR LMML NIL=
201106100545 METAR LMML 100545Z 31009KT 9999 FEW013 20/16 Q1015 NOSIG=
201106100530 METAR LMML NIL=
201106100515 METAR LMML 100515Z 31009KT 9999 FEW012 19/16 Q1015 NOSIG=
201106100500 METAR LMML NIL=
201106100445 METAR LMML 100445Z 31008KT 9999 FEW012 18/16 Q1015 NOSIG=
201106100415 METAR LMML 100415Z 31010KT 9999 FEW012 18/16 Q1015 NOSIG=
201106100400 METAR LMML NIL=
201106100345 METAR LMML 100345Z 31012KT 9999 FEW012 18/16 Q1015 NOSIG=
201106100330 METAR LMML NIL=
201106100315 METAR LMML 100315Z 30011KT 9999 FEW012 18/16 Q1015 NOSIG=
201106100300 METAR LMML NIL=
201106100245 METAR LMML 100245Z 29011KT 260V330 9999 FEW012 18/16 Q1015
                        NOSIG=
201106100230 METAR LMML NIL=
201106100215 METAR LMML 100215Z 29012KT 260V320 9999 FEW012 18/16 Q1015
                        NOSIG=
201106100200 METAR LMML NIL=
201106100145 METAR LMML 100145Z 30010KT 260V330 9999 FEW012 18/16 Q1016
                        NOSIG=
201106100130 METAR LMML NIL=
201106100115 METAR LMML 100115Z 29012KT 260V320 9999 FEW012 18/16 Q1016
                        NOSIG=
201106100100 METAR LMML NIL=
201106100045 METAR LMML 100045Z 30011KT CAVOK 18/16 Q1016 NOSIG=
201106100030 METAR LMML NIL=
201106100015 METAR LMML 100015Z 29011KT CAVOK 18/16 Q1016 NOSIG=
201106100000 METAR LMML NIL=
201106092345 METAR LMML 092345Z 28014KT CAVOK 18/16 Q1016 NOSIG=
201106092315 METAR LMML 092315Z 29010KT CAVOK 18/16 Q1016 NOSIG=
201106092300 METAR LMML NIL=
201106092245 METAR LMML 092245Z 29009KT 260V320 CAVOK 18/15 Q1016 NOSIG=
201106092215 METAR LMML 092215Z 29011KT CAVOK 18/15 Q1016 NOSIG=
201106092145 METAR LMML 092145Z 28013KT CAVOK 18/15 Q1017 NOSIG=
201106092130 METAR LMML NIL=
201106092115 METAR LMML 092115Z 29011KT 260V320 CAVOK 18/15 Q1017 NOSIG=
201106092045 METAR LMML 092045Z 29012KT 260V320 CAVOK 19/15 Q1017 NOSIG=
201106092030 METAR LMML NIL=
201106092015 METAR LMML 092015Z 29011KT 260V320 CAVOK 19/15 Q1017 NOSIG=
201106092000 METAR LMML NIL=
201106091945 METAR LMML 091945Z 29011KT 260V320 CAVOK 19/15 Q1017 NOSIG=
201106091930 METAR LMML NIL=
201106091915 METAR LMML 091915Z 29014KT 260V320 CAVOK 19/15 Q1016 NOSIG=
201106091845 METAR LMML 091845Z 29014KT 250V310 CAVOK 19/15 Q1016 NOSIG=
201106091830 METAR LMML NIL=
201106091815 METAR LMML 091815Z 29015KT 260V320 9999 FEW020 20/15 Q1016
                        NOSIG=
201106091745 METAR LMML 091745Z 30016G26KT 9999 FEW020 21/14 Q1016 NOSIG=
201106091715 METAR LMML 091715Z 30017KT 270V330 9999 FEW020 21/14 Q1016
                        NOSIG=
201106091645 METAR LMML 091645Z 30017KT 270V330 9999 FEW020 22/15 Q1016
                        NOSIG=
201106091630 METAR LMML NIL=
201106091615 METAR LMML 091615Z 30017KT 9999 FEW020 22/14 Q1016 NOSIG=
201106091545 METAR LMML 091545Z 30018KT 260V320 9999 FEW020 22/15 Q1016
                        NOSIG=
201106091530 METAR LMML NIL=
201106091515 METAR LMML 091515Z 30019KT 9999 FEW020 23/15 Q1016 NOSIG=
201106091500 METAR LMML NIL=
201106091445 METAR LMML 091445Z 30020KT 280V340 9999 FEW021 23/15 Q1016
                        NOSIG=
201106091430 METAR LMML NIL=
201106091415 METAR LMML 091415Z 29017KT 270V330 9999 FEW021 24/15 Q1016
                        NOSIG=
201106091400 METAR LMML NIL=
201106091345 METAR LMML 091345Z 28019KT 9999 FEW021 24/16 Q1016 NOSIG=
201106091330 METAR LMML NIL=
201106091315 METAR LMML 091315Z 29014KT 250V320 9999 FEW021 25/15 Q1016
                        NOSIG=
201106091300 METAR LMML NIL=
201106091245 METAR LMML 091245Z 30017KT 270V330 9999 FEW021 24/14 Q1017
                        NOSIG=
201106091230 METAR LMML NIL=
201106091215 METAR LMML 091215Z 28013KT 240V320 9999 FEW021 24/15 Q1017
                        NOSIG=
201106091200 METAR LMML NIL=
201106091145 METAR LMML 091145Z 31013KT 9999 FEW021 24/15 Q1017 NOSIG=
201106091130 METAR LMML NIL=
201106091115 METAR LMML 091115Z 30012KT 260V330 9999 FEW021 24/16 Q1017
                        NOSIG=
201106091100 METAR LMML NIL=
201106091045 METAR LMML 091045Z 30013KT 9999 FEW021 24/16 Q1017 NOSIG=
201106091030 METAR LMML NIL=
201106091015 METAR LMML 091015Z 29013KT 240V330 9999 FEW021 24/16 Q1017
                        NOSIG=
201106091000 METAR LMML NIL=
201106090945 METAR LMML 090945Z 29013KT 210V320 9999 FEW020 24/16 Q1017
                        NOSIG=
201106090930 METAR LMML NIL=
201106090915 METAR LMML 090915Z 31012KT 270V340 9999 FEW020 24/16 Q1017
                        NOSIG=
201106090900 METAR LMML NIL=
201106090845 METAR LMML 090845Z 30013KT 250V340 9999 FEW025 25/16 Q1017
                        NOSIG=
201106090830 METAR LMML NIL=
201106090815 METAR LMML 090815Z 30013KT 270V330 9999 FEW025 24/16 Q1016
                        NOSIG=
201106090745 METAR LMML 090745Z 30010KT 250V340 9999 FEW025 23/16 Q1017
                        NOSIG=
201106090730 METAR LMML NIL=
201106090715 METAR LMML 090715Z 31011KT 280V340 9999 FEW025 23/16 Q1016
                        NOSIG=
201106090700 METAR LMML NIL=
201106090645 METAR LMML 090645Z 30011KT 9999 FEW025 23/15 Q1016 NOSIG=
201106090630 METAR LMML NIL=
201106090615 METAR LMML 090615Z 31010KT 9999 FEW025 23/14 Q1016 NOSIG=
201106090600 METAR LMML NIL=
201106090545 METAR LMML 090545Z 31006KT 270V340 CAVOK 22/14 Q1016 NOSIG=
201106090530 METAR LMML NIL=
201106090515 METAR LMML 090515Z 33006KT 280V010 CAVOK 21/13 Q1015 NOSIG=
201106090445 METAR LMML 090445Z 34006KT CAVOK 21/13 Q1015 NOSIG=
201106090430 METAR LMML NIL=
201106090415 METAR LMML 090415Z 32008KT CAVOK 20/12 Q1015 NOSIG=
201106090400 METAR LMML NIL=
201106090345 METAR LMML 090345Z 32008KT CAVOK 20/11 Q1015 NOSIG=
201106090330 METAR LMML NIL=
201106090315 METAR LMML 090315Z 32009KT CAVOK 20/12 Q1014 NOSIG=
201106090300 METAR LMML NIL=
201106090245 METAR LMML 090245Z 32013KT CAVOK 20/13 Q1014 NOSIG=
201106090215 METAR LMML 090215Z 31013KT CAVOK 20/13 Q1014 NOSIG=
201106090200 METAR LMML NIL=
201106090145 METAR LMML 090145Z 31013KT CAVOK 20/14 Q1014 NOSIG=
201106090130 METAR LMML NIL=
201106090115 METAR LMML 090115Z 31013KT CAVOK 20/13 Q1014 NOSIG=
201106090045 METAR LMML 090045Z 31014KT CAVOK 20/13 Q1014 NOSIG=
201106090015 METAR LMML 090015Z 30011KT CAVOK 20/14 Q1014 NOSIG=
201106090000 METAR LMML NIL=
201106082345 METAR LMML 082345Z 31012KT CAVOK 20/15 Q1014 NOSIG=
201106082330 METAR LMML NIL=
201106082315 METAR LMML 082315Z 31010KT CAVOK 20/15 Q1014 NOSIG=
201106082300 METAR LMML NIL=
201106082245 METAR LMML 082245Z 32009KT CAVOK 19/14 Q1014 NOSIG=
201106082230 METAR LMML NIL=
201106082215 METAR LMML 082215Z 32009KT 290V350 CAVOK 20/15 Q1014 NOSIG=
201106082200 METAR LMML NIL=
201106082145 METAR LMML 082145Z 32006KT 290V350 CAVOK 20/15 Q1014 NOSIG=
201106082130 METAR LMML NIL=
201106082115 METAR LMML 082115Z 31009KT CAVOK 21/14 Q1014 NOSIG=
201106082100 METAR LMML NIL=
201106082045 METAR LMML 082045Z 31009KT CAVOK 21/14 Q1014 NOSIG=
201106082030 METAR LMML NIL=
201106082015 METAR LMML 082015Z 31008KT CAVOK 21/15 Q1013 NOSIG=
201106082000 METAR LMML NIL=
201106081945 METAR LMML 081945Z 32007KT CAVOK 21/15 Q1013 NOSIG=
201106081930 METAR LMML NIL=
201106081915 METAR LMML 081915Z 31009KT 290V350 CAVOK 21/15 Q1013 NOSIG=
201106081900 METAR LMML NIL=
201106081845 METAR LMML 081845Z 32010KT CAVOK 21/15 Q1013 NOSIG=
201106081830 METAR LMML NIL=
201106081815 METAR LMML 081815Z 30011KT CAVOK 22/15 Q1012 NOSIG=
201106081800 METAR LMML NIL=
201106081745 METAR LMML 081745Z 30009KT CAVOK 24/14 Q1011 NOSIG=
201106081730 METAR LMML NIL=
201106081715 METAR LMML 081715Z 31010KT CAVOK 25/14 Q1011 NOSIG=
201106081700 METAR LMML NIL=
201106081645 METAR LMML 081645Z 30011KT CAVOK 26/14 Q1011 NOSIG=
201106081615 METAR LMML 081615Z 31011KT CAVOK 27/14 Q1011 NOSIG=
201106081600 METAR LMML NIL=
201106081545 METAR LMML 081545Z 31012KT 280V340 CAVOK 26/15 Q1011 NOSIG=
201106081530 METAR LMML NIL=
201106081515 METAR LMML 081515Z 31012KT 290V350 CAVOK 27/14 Q1011 NOSIG=
201106081445 METAR LMML 081445Z 31011KT CAVOK 27/14 Q1011 NOSIG=
201106081415 METAR LMML 081415Z 30009KT 280V340 CAVOK 28/15 Q1010 NOSIG=
201106081400 METAR LMML NIL=
201106081345 METAR LMML 081345Z 30009KT 270V330 CAVOK 29/15 Q1010 NOSIG=
201106081330 METAR LMML NIL=
201106081315 METAR LMML 081315Z 34010KT CAVOK 28/13 Q1010 NOSIG=
201106081300 METAR LMML NIL=
201106081245 METAR LMML 081245Z 34011KT CAVOK 28/13 Q1011 NOSIG=
201106081230 METAR LMML NIL=
201106081215 METAR LMML 081215Z 35010KT 320V020 CAVOK 30/13 Q1011 NOSIG=
201106081200 METAR LMML NIL=
201106081145 METAR LMML 081145Z 34012KT 320V020 CAVOK 29/13 Q1011 NOSIG=
201106081130 METAR LMML NIL=
201106081115 METAR LMML 081115Z 34012KT CAVOK 30/13 Q1011 NOSIG=
201106081100 METAR LMML NIL=
201106081045 METAR LMML 081045Z 34014KT CAVOK 28/12 Q1011 NOSIG=
201106081030 METAR LMML NIL=
201106081015 METAR LMML 081015Z 34014KT CAVOK 27/13 Q1011 NOSIG=
201106080945 METAR LMML 080945Z 34013KT CAVOK 27/15 Q1011 NOSIG=
201106080930 METAR LMML NIL=
201106080915 METAR LMML 080915Z 34012KT CAVOK 26/16 Q1011 NOSIG=
201106080900 METAR LMML NIL=
201106080845 METAR LMML 080845Z 34012KT 310V010 CAVOK 25/18 Q1011 NOSIG=
201106080830 METAR LMML NIL=
201106080815 METAR LMML 080815Z 33010KT CAVOK 24/18 Q1010 NOSIG=
201106080800 METAR LMML NIL=
201106080745 METAR LMML 080745Z 34011KT CAVOK 25/19 Q1010 NOSIG=
201106080730 METAR LMML NIL=
201106080715 METAR LMML 080715Z 34011KT CAVOK 24/19 Q1010 NOSIG=
201106080700 METAR LMML NIL=
201106080645 METAR LMML 080645Z 31011KT CAVOK 23/19 Q1010 NOSIG=
201106080615 METAR LMML 080615Z 32008KT CAVOK 22/20 Q1009 NOSIG=
201106080600 METAR LMML NIL=
201106080545 METAR LMML 080545Z 32005KT 290V350 CAVOK 22/19 Q1009 NOSIG=
201106080530 METAR LMML NIL=
201106080515 METAR LMML 080515Z 31006KT 7000 FEW005 20/20 Q1009 BECMG
                        9000=
201106080500 METAR LMML NIL=
201106080445 METAR LMML 080445Z 29005KT 260V320 5000 BR FEW005 20/19 Q1008
                        BECMG 7000=
201106080430 METAR LMML NIL=
201106080415 METAR LMML 080415Z 29003KT 4000 BR FEW005 19/19 Q1008 BECMG
                        7000=
201106080345 METAR LMML 080345Z VRB02KT 3000 BR FEW005 19/19 Q1008 BECMG
                        5000=
201106080330 METAR LMML NIL=
201106080315 METAR LMML 080315Z 35008KT 5000 BR FEW005 20/19 Q1008 TEMPO
                        3000 BKN004=
201106080300 METAR LMML NIL=
201106080245 METAR LMML 080245Z 36009KT 5000 BR FEW005 20/19 Q1007 TEMPO
                        3000 BKN004=
201106080230 METAR LMML NIL=
201106080215 METAR LMML 080215Z 35007KT 6000 FEW005 SCT250 20/19 Q1008
                        TEMPO 5000 BR BKN004=
201106080200 METAR LMML NIL=
201106080145 METAR LMML 080145Z 33006KT 6000 FEW005 SCT250 20/19 Q1008
                        TEMPO 3000 BR=
201106080130 METAR LMML NIL=
201106080115 METAR LMML 080115Z 33005KT 5000 BR FEW005 SCT250 20/19 Q1008
                        TEMPO 3000 BR=
201106080100 METAR LMML NIL=
201106080045 METAR LMML 080045Z 32007KT 5000 BR BKN004 SCT250 20/20 Q1009
                        TEMPO 3000 BR=
201106080030 METAR LMML NIL=
201106080015 METAR LMML 080015Z 35006KT 6000 BKN004 SCT250 20/20 Q1008
                        BECMG 5000 BR=
201106080000 METAR LMML NIL=
201106072345 METAR LMML 072345Z 01005KT 6000 BKN004 20/19 Q1008 BECMG
                        5000 BR=
201106072336 SPECI LMML 072336Z 01006KT 6000 BKN005 20/19 Q1008 NOSIG=
201106072330 METAR LMML NIL=
201106072315 METAR LMML 072315Z 02005KT 350V050 7000 NSC 21/19 Q1008 NOSIG=
201106072300 METAR LMML NIL=
201106072245 METAR LMML 072245Z 36007KT 340V040 7000 NSC 21/19 Q1008 NOSIG=
201106072230 METAR LMML NIL=
201106072215 METAR LMML 072215Z 35009KT 290V020 8000 NSC 21/19 Q1008 NOSIG=
201106072200 METAR LMML NIL=
201106072145 METAR LMML 072145Z 35009KT 8000 NSC 21/19 Q1008 NOSIG=
201106072130 METAR LMML NIL=
201106072115 METAR LMML 072115Z 34006KT 8000 NSC 21/19 Q1008 NOSIG=
201106072100 METAR LMML NIL=
201106072045 METAR LMML 072045Z 33007KT 8000 NSC 21/19 Q1008 NOSIG=
201106072030 METAR LMML NIL=
201106072015 METAR LMML 072015Z 34005KT 8000 NSC 21/19 Q1007 NOSIG=
201106072000 METAR LMML NIL=
201106071945 METAR LMML 071945Z 36005KT 8000 NSC 21/20 Q1007 NOSIG=
201106071930 METAR LMML NIL=
201106071915 METAR LMML 071915Z 36005KT 7000 NSC 21/20 Q1007 NOSIG=
201106071845 METAR LMML 071845Z 01004KT 7000 NSC 22/20 Q1006 NOSIG=
201106071830 METAR LMML NIL=
201106071815 METAR LMML 071815Z 17004KT 7000 NSC 22/20 Q1006 NOSIG=
201106071800 METAR LMML NIL=
201106071745 METAR LMML 071745Z 02004KT 7000 NSC 23/19 Q1006 NOSIG=
201106071730 METAR LMML NIL=
201106071715 METAR LMML 071715Z 02004KT 8000 NSC 24/20 Q1005 NOSIG=
201106071700 METAR LMML NIL=
201106071645 METAR LMML 071645Z 03004KT 8000 NSC 25/20 Q1005 NOSIG=
201106071630 METAR LMML NIL=
201106071615 METAR LMML 071615Z 02003KT 8000 NSC 25/20 Q1005 NOSIG=
201106071600 METAR LMML NIL=
201106071545 METAR LMML 071545Z 02004KT 340V050 8000 NSC 27/20 Q1006 NOSIG=
201106071530 METAR LMML NIL=
201106071515 METAR LMML 071515Z 04006KT 010V080 8000 NSC 27/19 Q1006 NOSIG=
201106071500 METAR LMML NIL=
201106071445 METAR LMML 071445Z 03004KT 350V090 8000 NSC 29/19 Q1006 NOSIG=
201106071430 METAR LMML NIL=
201106071415 METAR LMML 071415Z 12005KT 080V160 8000 NSC 27/17 Q1006 NOSIG=
201106071345 METAR LMML 071345Z 11005KT 010V160 8000 NSC 29/19 Q1006 NOSIG=
201106071330 METAR LMML NIL=
201106071315 METAR LMML 071315Z 09004KT 060V150 8000 NSC 28/19 Q1006 NOSIG=
201106071300 METAR LMML NIL=
201106071245 METAR LMML 071245Z 10006KT 050V150 8000 NSC 28/19 Q1005 NOSIG=
201106071230 METAR LMML NIL=
201106071215 METAR LMML 071215Z 08008KT 050V160 8000 NSC 27/18 Q1006 NOSIG=
201106071200 METAR LMML NIL=
201106071145 METAR LMML 071145Z 05007KT 010V090 8000 NSC 29/19 Q1006 NOSIG=
201106071130 METAR LMML NIL=
201106071115 METAR LMML 071115Z 06008KT 360V100 8000 NSC 28/19 Q1006 NOSIG=
201106071100 METAR LMML NIL=
201106071045 METAR LMML 071045Z 04006KT 350V080 8000 NSC 28/20 Q1006 NOSIG=
201106071030 METAR LMML NIL=
201106071015 METAR LMML 071015Z 02006KT 350V090 8000 NSC 29/20 Q1006 NOSIG=
201106071000 METAR LMML NIL=
201106070945 METAR LMML 070945Z 02006KT 350V090 8000 NSC 28/19 Q1006 NOSIG=
201106070930 METAR LMML NIL=
201106070915 METAR LMML 070915Z 06006KT 020V110 8000 NSC 27/18 Q1006 NOSIG=
201106070845 METAR LMML 070845Z 08006KT 040V120 8000 NSC 27/18 Q1005 NOSIG=
201106070830 METAR LMML NIL=
201106070815 METAR LMML 070815Z 08003KT 8000 NSC 26/19 Q1006 NOSIG=
201106070800 METAR LMML NIL=
201106070745 METAR LMML 070745Z 13004KT 090V180 7000 NSC 25/19 Q1006 NOSIG=
201106070730 METAR LMML NIL=
201106070715 METAR LMML 070715Z 09005KT 050V140 7000 NSC 24/19 Q1006 NOSIG=
201106070645 METAR LMML 070645Z 09007KT 050V110 7000 NSC 23/19 Q1005 NOSIG=
201106070630 METAR LMML NIL=
201106070615 METAR LMML 070615Z 08004KT 040V130 6000 NSC 22/19 Q1005 NOSIG=
201106070545 METAR LMML 070545Z 08004KT 030V120 5000 HZ NSC 21/19 Q1005
                        NOSIG=
201106070530 METAR LMML NIL=
201106070515 METAR LMML 070515Z 11004KT 060V170 5000 HZ NSC 20/20 Q1005
                        NOSIG=
201106070500 METAR LMML NIL=
201106070445 METAR LMML 070445Z 11007KT 5000 HZ FEW004 20/19 Q1004 NOSIG=
201106070430 METAR LMML NIL=
201106070415 METAR LMML 070415Z 10005KT 070V160 5000 HZ FEW004 20/19 Q1004
                        NOSIG=
201106070400 METAR LMML NIL=
201106070345 METAR LMML 070345Z 09006KT 060V120 5000 BR FEW004 20/19 Q1004
                        NOSIG=
201106070330 METAR LMML NIL=
201106070315 METAR LMML 070315Z 09007KT 060V140 5000 BR FEW004 20/19 Q1005
                        NOSIG=
201106070300 METAR LMML NIL=
201106070245 METAR LMML 070245Z 08005KT 060V120 5000 BR FEW004 20/19 Q1005
                        NOSIG=
201106070230 METAR LMML NIL=
201106070215 METAR LMML 070215Z 10007KT 050V120 5000 BR FEW004 20/19 Q1004
                        NOSIG=
201106070200 METAR LMML NIL=
201106070145 METAR LMML 070145Z 09008KT 060V120 5000 BR FEW004 20/19 Q1004
                        NOSIG=
201106070130 METAR LMML NIL=
201106070115 METAR LMML 070115Z 09007KT 5000 BR FEW004 20/19 Q1005 TEMPO
                        BKN005=
201106070100 METAR LMML NIL=
201106070045 METAR LMML 070045Z 09007KT 060V120 5000 BR FEW004 20/19 Q1005
                        TEMPO BKN005=
201106070030 METAR LMML NIL=
201106070015 METAR LMML 070015Z 10009KT 070V130 5000 BR FEW004 20/19 Q1005
                        TEMPO BKN005=
201106070000 METAR LMML NIL=
201106062345 METAR LMML 062345Z 09009KT 070V130 5000 BR FEW005 20/19 Q1005
                        TEMPO BKN005=
201106062330 METAR LMML NIL=
201106062315 METAR LMML 062315Z 08009KT 040V100 6000 FEW005 20/19 Q1006
                        TEMPO 5000 BR BKN004=
201106062300 METAR LMML NIL=
201106062245 METAR LMML 062245Z 07008KT 040V110 6000 SCT004 20/19 Q1006
                        TEMPO 5000 BR BKN004=
201106062230 METAR LMML NIL=
201106062215 METAR LMML 062215Z 07008KT 040V100 6000 FEW005 SCT100 20/19
                        Q1006 NOSIG=
201106062200 METAR LMML NIL=
201106062145 METAR LMML 062145Z 06010KT 040V100 6000 FEW005 SCT100 20/19
                        Q1006 NOSIG=
201106062130 METAR LMML NIL=
201106062115 METAR LMML 062115Z 07008KT 040V100 6000 FEW005 SCT100 20/19
                        Q1007 NOSIG=
201106062100 METAR LMML NIL=
201106062045 METAR LMML 062045Z 07009KT 030V100 6000 FEW005 SCT120 20/19
                        Q1007 TEMPO 5000 BR BKN003=
201106062030 METAR LMML NIL=
201106062015 METAR LMML 062015Z 08011KT 6000 SCT005 20/19 Q1007 TEMPO
                        5000 BR BKN003=
201106062000 METAR LMML NIL=
201106061945 METAR LMML 061945Z 08011KT 040V110 6000 BKN004 20/19 Q1007
                        TEMPO 5000 BR BKN003=
201106061930 METAR LMML NIL=
201106061915 METAR LMML 061915Z 07010KT 040V100 6000 SCT003 20/19 Q1007
                        TEMPO 5000 BR BKN003=
201106061900 METAR LMML NIL=
201106061845 METAR LMML 061845Z 07009KT 030V100 6000 SCT003 20/19 Q1006
                        TEMPO 5000 BR BKN004=
201106061830 METAR LMML NIL=
201106061815 METAR LMML 061815Z 07009KT 030V110 6000 FEW004 20/19 Q1006
                        TEMPO 5000 BR BKN004=
201106061800 METAR LMML NIL=
201106061745 METAR LMML 061745Z 10009KT 070V140 6000 SCT005 20/19 Q1007
                        TEMPO 5000 BR BKN005=
201106061730 METAR LMML NIL=
201106061715 METAR LMML 061715Z 10009KT 060V130 6000 FEW005 21/19 Q1006
                        TEMPO 5000 BR BKN005=
201106061700 METAR LMML NIL=
201106061645 METAR LMML 061645Z 10011KT 070V150 7000 FEW006 22/19 Q1006
                        NOSIG=
201106061630 METAR LMML NIL=
201106061615 METAR LMML 061615Z 10014KT 7000 FEW006 22/19 Q1005 NOSIG=
201106061600 METAR LMML NIL=
201106061545 METAR LMML 061545Z 12016KT 7000 FEW006 22/19 Q1006 NOSIG=
201106061530 METAR LMML NIL=
201106061515 METAR LMML 061515Z 12015KT 7000 SCT006 SCT120 BKN250 22/19
                        Q1006 NOSIG=
201106061500 METAR LMML NIL=
201106061445 METAR LMML 061445Z 12016KT 7000 SCT006 SCT120 BKN250 22/19
                        Q1006 NOSIG=
201106061430 METAR LMML NIL=
201106061415 METAR LMML 061415Z 13017KT 100V160 7000 FEW006 SCT120 BKN250
                        22/19 Q1007 NOSIG=
201106061345 METAR LMML 061345Z 13016KT 7000 FEW006 SCT120 BKN250 22/19
                        Q1007 NOSIG=
201106061330 METAR LMML NIL=
201106061315 METAR LMML 061315Z 12019KT 7000 FEW005 BKN120 BKN250 22/19
                        Q1007 NOSIG=
201106061300 METAR LMML NIL=
201106061245 METAR LMML 061245Z 13013KT 100V170 7000 NSC 22/19 Q1009 NOSIG=
201106061230 METAR LMML NIL=
201106061215 METAR LMML 061215Z 13012KT 100V180 7000 FEW008 SCT120 BKN250
                        24/19 Q1010 NOSIG=
201106061200 METAR LMML NIL=
201106061145 METAR LMML 061145Z 12010KT 090V150 7000 FEW008 SCT250 24/19
                        Q1011 NOSIG=
201106061130 METAR LMML NIL=
201106061115 METAR LMML 061115Z 10012KT 7000 FEW007 24/19 Q1010 NOSIG=
201106061100 METAR LMML NIL=
201106061045 METAR LMML 061045Z 10012KT 070V140 7000 FEW007 24/19 Q1010
                        NOSIG=
201106061015 METAR LMML 061015Z 08011KT 040V130 7000 FEW008 25/19 Q1011
                        NOSIG RMK DUST HAZE=
201106061000 METAR LMML NIL=
201106060945 METAR LMML 060945Z 09012KT 7000 FEW008 24/18 Q1011 NOSIG
                        RMK DUST HAZE=
201106060930 METAR LMML NIL=
201106060915 METAR LMML 060915Z 08009KT 030V110 7000 FEW008 24/19 Q1010
                        NOSIG=
201106060900 METAR LMML NIL=
201106060845 METAR LMML 060845Z 09010KT 060V120 6000 SCT007 23/19 Q1010
                        TEMPO BKN008 RMK DUST HAZE=
201106060830 METAR LMML NIL=
201106060815 METAR LMML 060815Z 08011KT 6000 BKN005 22/19 Q1010 NOSIG
                        RMK DUST HAZE=
201106060745 METAR LMML 060745Z 08012KT 6000 SCT006 22/19 Q1010 NOSIG=
201106060730 METAR LMML NIL=
201106060715 METAR LMML 060715Z 06010KT 020V090 5000 BR SCT006 SCT120
                        22/20 Q1010 TEMPO TS BKN060CB=
201106060700 METAR LMML NIL=
201106060645 METAR LMML 060645Z 06009KT 5000 BR BKN006 SCT120 21/19 Q1010
                        TEMPO TS BKN060CB=
201106060630 METAR LMML NIL=
201106060615 METAR LMML 060615Z 03006KT 360V070 4000 BR BKN004 BKN120
                        20/19 Q1010 TEMPO TS BKN060CB=
201106060600 METAR LMML NIL=
201106060545 METAR LMML 060545Z 05006KT 360V080 4000 -SHRA BKN004 BKN120
                        20/19 Q1010 TEMPO TS BKN060CB RMK
                        MIST=
201106060515 METAR LMML 060515Z 01006KT 5000 BR BKN006 BKN120 20/19 Q1010
                        NOSIG=
201106060500 METAR LMML NIL=
201106060445 METAR LMML 060445Z 02005KT 330V080 6000 FEW006 BKN120 20/19
                        Q1010 BECMG 5000 BR BKN006=
201106060430 METAR LMML NIL=
201106060415 METAR LMML 060415Z 04007KT 010V070 6000 SCT006 SCT120 20/19
                        Q1009 NOSIG=
201106060400 METAR LMML NIL=
201106060345 METAR LMML 060345Z 03008KT 6000 BKN008 20/19 Q1009 NOSIG=
201106060330 METAR LMML NIL=
201106060315 METAR LMML 060315Z 04007KT 020V080 6000 BKN006 SCT009 20/19
                        Q1009 NOSIG=
201106060245 METAR LMML 060245Z 03007KT 360V060 3000 BR BKN004 20/19 Q1009
                        NOSIG=
201106060230 METAR LMML NIL=
201106060215 METAR LMML 060215Z 04005KT 010V070 3000 BR BKN004 20/19 Q1009
                        NOSIG=
201106060145 METAR LMML 060145Z 03006KT 320V090 3000 BR BKN004 19/19 Q1009
                        NOSIG=
201106060130 METAR LMML NIL=
201106060115 METAR LMML 060115Z 01005KT 3000 BR BKN003 19/19 Q1009 NOSIG=
201106060100 METAR LMML NIL=
201106060045 METAR LMML 060045Z VRB02KT 4000 BR NSC 19/18 Q1009 BECMG
                        3000 BR BKN005=
201106060030 METAR LMML NIL=
201106060015 METAR LMML 060015Z VRB02KT 6000 NSC 19/18 Q1009 BECMG 5000
                        BR BKN005=
201106060000 METAR LMML NIL=
201106052345 METAR LMML 052345Z VRB01KT 7000 NSC 19/18 Q1010 BECMG 5000
                        BR BKN005=
201106052330 METAR LMML NIL=
201106052315 METAR LMML 052315Z 32004KT 7000 NSC 19/18 Q1010 BECMG 5000
                        BR BKN005=
201106052245 METAR LMML 052245Z 32004KT 7000 NSC 19/18 Q1010 NOSIG=
201106052230 METAR LMML NIL=
201106052215 METAR LMML 052215Z 32004KT 7000 NSC 19/18 Q1010 NOSIG=
201106052145 METAR LMML 052145Z 31005KT 7000 NSC 19/18 Q1010 NOSIG=
201106052115 METAR LMML 052115Z 31005KT 7000 NSC 19/18 Q1010 NOSIG=
201106052100 METAR LMML NIL=
201106052045 METAR LMML 052045Z 33004KT 7000 NSC 20/18 Q1010 NOSIG=
201106052030 METAR LMML NIL=
201106052015 METAR LMML 052015Z 34006KT 7000 FEW007 20/19 Q1010 NOSIG=
201106052000 METAR LMML NIL=
201106051945 METAR LMML 051945Z 31007KT 7000 SCT008 SCT250 20/18 Q1010
                        NOSIG=
201106051915 METAR LMML 051915Z 31006KT 7000 FEW016 SCT250 20/18 Q1010
                        NOSIG=
201106051900 METAR LMML NIL=
201106051845 METAR LMML 051845Z 29004KT 7000 FEW016 BKN250 20/18 Q1009
                        NOSIG=
201106051830 METAR LMML NIL=
201106051815 METAR LMML 051815Z 28005KT 250V310 7000 FEW016 BKN250 21/18
                        Q1009 NOSIG=
201106051800 METAR LMML NIL=
201106051745 METAR LMML 051745Z 31006KT 280V350 9000 FEW016 BKN250 22/18
                        Q1009 NOSIG=
201106051715 METAR LMML 051715Z 30006KT 240V330 9000 FEW016 BKN250 22/18
                        Q1009 NOSIG=
201106051700 METAR LMML NIL=
201106051645 METAR LMML 051645Z 02004KT 9000 FEW019 BKN250 23/18 Q1009
                        NOSIG=
201106051630 METAR LMML NIL=
201106051615 METAR LMML 051615Z 31005KT 270V350 8000 SCT017 SCT250 23/18
                        Q1009 NOSIG=
201106051600 METAR LMML NIL=
201106051545 METAR LMML 051545Z 32004KT 250V060 8000 SCT018 SCT250 24/18
                        Q1008 NOSIG=
201106051530 METAR LMML NIL=
201106051515 METAR LMML 051515Z 23005KT 180V290 8000 SCT017 24/18 Q1008
                        BECMG 30010KT=
201106051500 METAR LMML NIL=
201106051445 METAR LMML 051445Z 23008KT 170V290 8000 SCT013 23/18 Q1009
                        BECMG 30010KT=
201106051430 METAR LMML NIL=
201106051415 METAR LMML 051415Z 22006KT 170V280 8000 FEW012 SCT250 24/18
                        Q1009 BECMG 30010KT=
201106051400 METAR LMML NIL=
201106051345 METAR LMML 051345Z 20007KT 140V260 7000 FEW011 BKN250 23/18
                        Q1009 BECMG 30010KT=
201106051330 METAR LMML NIL=
201106051315 METAR LMML 051315Z 17005KT 100V230 6000 FEW013 BKN250 24/18
                        Q1009 NOSIG=
201106051300 METAR LMML NIL=
201106051245 METAR LMML 051245Z 16006KT 090V240 6000 FEW015 SCT250 24/18
                        Q1008 NOSIG=
201106051230 METAR LMML NIL=
201106051215 METAR LMML 051215Z 16008KT 130V200 6000 SCT016 SCT250 24/18
                        Q1008 NOSIG=
201106051200 METAR LMML NIL=
201106051145 METAR LMML 051145Z 13005KT 060V200 6000 FEW015 24/18 Q1008
                        NOSIG=
201106051130 METAR LMML NIL=
201106051115 METAR LMML 051115Z 17003KT 6000 SCT015 24/18 Q1009 NOSIG=
201106051100 METAR LMML NIL=
201106051045 METAR LMML 051045Z 16005KT 110V210 6000 BKN014 23/19 Q1009
                        NOSIG=
201106051030 METAR LMML NIL=
201106051015 METAR LMML 051015Z 13006KT 070V180 7000 BKN014 23/18 Q1009
                        NOSIG=
201106051000 METAR LMML NIL=
201106050945 METAR LMML 050945Z 15006KT 080V210 7000 BKN014 24/18 Q1009
                        NOSIG=
201106050915 METAR LMML 050915Z 17006KT 100V220 7000 SCT014 SCT250 23/18
                        Q1009 TEMPO BKN014=
201106050900 METAR LMML NIL=
201106050845 METAR LMML 050845Z 17007KT 130V220 7000 SCT014 SCT250 23/18
                        Q1009 TEMPO BKN014=
201106050830 METAR LMML NIL=
201106050815 METAR LMML 050815Z 12008KT 070V150 6000 SCT013 SCT250 23/18
                        Q1009 NOSIG=
201106050800 METAR LMML NIL=
201106050745 METAR LMML 050745Z 13007KT 090V170 6000 FEW012 SCT250 22/18
                        Q1009 NOSIG=
201106050730 METAR LMML NIL=
201106050715 METAR LMML 050715Z 11008KT 080V140 6000 FEW007 BKN250 22/18
                        Q1009 NOSIG=
201106050700 METAR LMML NIL=
201106050645 METAR LMML 050645Z 11008KT 080V140 4000 BR SCT007 BKN250
                        21/19 Q1009 TEMPO 5000=
201106050630 METAR LMML NIL=
201106050615 METAR LMML 050615Z 12009KT 080V140 4000 BR SCT005 20/19 Q1009
                        TEMPO 5000=
201106050600 METAR LMML NIL=
201106050545 METAR LMML 050545Z 11009KT 4000 BR BKN005 20/20 Q1009 TEMPO
                        5000 BKN006=
201106050530 METAR LMML NIL=
201106050515 METAR LMML 050515Z 10008KT 4000 BR BKN004 20/20 Q1009 TEMPO
                        5000 BKN006=
201106050500 METAR LMML NIL=
201106050445 METAR LMML 050445Z 10007KT 4000 BR BKN004 BKN250 20/19 Q1009
                        NOSIG=
201106050430 METAR LMML NIL=
201106050415 METAR LMML 050415Z 10009KT 4000 BR BKN005 BKN250 19/19 Q1008
                        NOSIG=
201106050400 METAR LMML NIL=
201106050345 METAR LMML 050345Z 09010KT 4000 BR FEW004 BKN250 19/19 Q1008
                        TEMPO BKN004=
201106050330 METAR LMML NIL=
201106050315 METAR LMML 050315Z 09010KT 050V120 4000 BR FEW004 SCT250
                        19/19 Q1008 TEMPO BKN004=
201106050300 METAR LMML NIL=
201106050245 METAR LMML 050245Z 09008KT 070V130 4000 BR SCT005 SCT250
                        19/19 Q1008 TEMPO BKN005=
201106050230 METAR LMML NIL=
201106050215 METAR LMML 050215Z 08008KT 4000 BR SCT005 SCT250 19/19 Q1008
                        TEMPO BKN005=
201106050200 METAR LMML NIL=
201106050145 METAR LMML 050145Z 07011KT 040V100 4000 BR FEW005 BKN250
                        19/19 Q1008 NOSIG=
201106050130 METAR LMML NIL=
201106050115 METAR LMML 050115Z 06013KT 030V100 4000 BR FEW004 BKN250
                        20/19 Q1008 NOSIG=
201106050100 METAR LMML NIL=
201106050045 METAR LMML 050045Z 07012KT 030V100 4000 BR SCT004 BKN250
                        20/19 Q1008 TEMPO 3000 BKN003=
201106050030 METAR LMML NIL=
201106050015 METAR LMML 050015Z 07014KT 5000 BR BKN004 BKN250 20/19 Q1009
                        NOSIG=
201106050000 METAR LMML NIL=
201106042345 METAR LMML 042345Z 07013KT 020V100 5000 BR SCT005 BKN250
                        20/19 Q1009 TEMPO BKN005=
201106042315 METAR LMML 042315Z 06012G22KT 030V100 5000 BR SCT005 BKN250
                        20/19 Q1009 TEMPO BKN005=
201106042300 METAR LMML NIL=
201106042245 METAR LMML 042245Z 06012KT 020V090 5000 BR FEW006 BKN250
                        20/19 Q1009 NOSIG=
201106042230 METAR LMML NIL=
201106042215 METAR LMML 042215Z 07013KT 040V100 6000 FEW006 BKN250 20/19
                        Q1010 NOSIG=
201106042200 METAR LMML NIL=
201106042145 METAR LMML 042145Z 06011KT 030V100 6000 FEW006 BKN250 20/19
                        Q1010 NOSIG=
201106042130 METAR LMML NIL=
201106042115 METAR LMML 042115Z 05012KT 010V090 6000 FEW006 BKN250 20/19
                        Q1010 NOSIG=
201106042100 METAR LMML NIL=
201106042045 METAR LMML 042045Z 06012KT 020V090 6000 FEW006 BKN250 20/19
                        Q1010 NOSIG=
201106042030 METAR LMML NIL=
201106042015 METAR LMML 042015Z 06012KT 020V090 6000 FEW006 BKN250 20/19
                        Q1010 NOSIG=
201106042000 METAR LMML NIL=
201106041945 METAR LMML 041945Z 06012KT 030V090 6000 FEW006 BKN250 20/19
                        Q1010 TEMPO 5000 BR=
201106041930 METAR LMML NIL=
201106041915 METAR LMML 041915Z 06013KT 030V100 6000 FEW006 SCT120 BKN250
                        20/19 Q1009 TEMPO 5000 BR=
201106041900 METAR LMML NIL=
201106041845 METAR LMML 041845Z 07013KT 040V100 6000 NSC 20/19 Q1009 TEMPO
                        5000 BR FEW010=
201106041830 METAR LMML NIL=
201106041815 METAR LMML 041815Z 07011KT 030V100 6000 NSC 20/19 Q1010 TEMPO
                        5000 BR FEW010=
201106041800 METAR LMML NIL=
201106041745 METAR LMML 041745Z 07011KT 040V100 6000 NSC 20/19 Q1010 TEMPO
                        5000 BR FEW010=
201106041730 METAR LMML NIL=
201106041715 METAR LMML 041715Z 07012KT 020V100 7000 NSC 21/19 Q1010 TEMPO
                        FEW010=
201106041700 METAR LMML NIL=
201106041645 METAR LMML 041645Z 07013KT 040V100 7000 FEW011 SCT120 BKN250
                        21/19 Q1010 BECMG BKN010=
201106041630 METAR LMML NIL=
201106041615 METAR LMML 041615Z 07013KT 040V100 7000 FEW011 BKN120 21/19
                        Q1010 BECMG BKN010=
201106041600 METAR LMML NIL=
201106041545 METAR LMML 041545Z 07014KT 030V100 8000 FEW011 BKN120 22/19
                        Q1011 BECMG BKN010=
201106041530 METAR LMML NIL=
201106041515 METAR LMML 041515Z 06014KT 040V100 8000 FEW020 BKN120 22/19
                        Q1011 NOSIG=
201106041500 METAR LMML NIL=
201106041445 METAR LMML 041445Z 07015KT 030V090 9000 FEW020 BKN120 23/18
                        Q1011 NOSIG=
201106041430 METAR LMML NIL=
201106041415 METAR LMML 041415Z 07013KT 030V110 9000 NSC 24/19 Q1011 NOSIG=
201106041400 METAR LMML NIL=
201106041345 METAR LMML 041345Z 08018KT 050V110 9000 NSC 23/18 Q1011 NOSIG=
201106041330 METAR LMML NIL=
201106041315 METAR LMML 041315Z 08017KT 060V120 9000 NSC 23/18 Q1011 NOSIG=
201106041300 METAR LMML NIL=
201106041245 METAR LMML 041245Z 07012KT 030V110 9000 NSC 23/19 Q1011 NOSIG=
201106041230 METAR LMML NIL=
201106041215 METAR LMML 041215Z 07013KT 030V110 9000 -RA NSC 23/18 Q1011
                        NOSIG=
201106041200 METAR LMML NIL=
201106041145 METAR LMML 041145Z 07015KT 030V100 9000 FEW014 BKN120 24/18
                        Q1012 NOSIG=
201106041115 METAR LMML 041115Z 09015KT 050V110 9000 FEW014 BKN120 24/18
                        Q1012 NOSIG=
201106041100 METAR LMML NIL=
201106041045 METAR LMML 041045Z 08016KT 050V110 9000 FEW014 BKN120 23/18
                        Q1012 NOSIG=
201106041030 METAR LMML NIL=
201106041015 METAR LMML 041015Z 08016KT 040V110 9000 FEW014 SCT120 24/18
                        Q1012 NOSIG=
201106040945 METAR LMML 040945Z 08017KT 020V110 9000 FEW014 SCT250 23/18
                        Q1012 BECMG 9999=
201106040930 METAR LMML NIL=
201106040915 METAR LMML 040915Z 08017KT 050V110 8000 FEW014 SCT120 BKN250
                        23/19 Q1012 BECMG 9999=
201106040900 METAR LMML NIL=
201106040845 METAR LMML 040845Z 08019KT 050V120 7000 FEW012 SCT120 23/19
                        Q1012 BECMG 9999=
201106040830 METAR LMML NIL=
201106040815 METAR LMML 040815Z 08017KT 040V110 7000 BKN011 22/18 Q1012
                        BECMG 9999=
201106040800 METAR LMML NIL=
201106040745 METAR LMML 040745Z 07016KT 040V100 7000 SCT011 22/19 Q1012
                        BECMG 9999=
201106040730 METAR LMML NIL=
201106040715 METAR LMML 040715Z 06016KT 030V100 6000 BKN008 22/19 Q1012
                        BECMG 9000 SCT010=
201106040700 METAR LMML NIL=
201106040645 METAR LMML 040645Z 06015KT 030V090 6000 BR BKN005 21/19 Q1012
                        BECMG 9000 SCT007=
201106040630 METAR LMML NIL=
201106040615 METAR LMML 040615Z 06014KT 030V100 5000 BR BKN005 20/19 Q1012
                        BECMG 9000=
201106040545 METAR LMML 040545Z 06014KT 020V090 5000 BR BKN003 20/19 Q1012
                        BECMG BKN005=
201106040530 METAR LMML NIL=
201106040515 METAR LMML 040515Z 06013KT 020V090 5000 BR BKN003 20/19 Q1012
                        BECMG BKN005=
201106040500 METAR LMML NIL=
201106040445 METAR LMML 040445Z 06012G22KT 020V090 5000 BR BKN003 20/19
                        Q1012 BECMG BKN005=
201106040430 METAR LMML NIL=
201106040415 METAR LMML 040415Z 07012KT 030V100 4000 BR BKN003 19/19 Q1012
                        BECMG 5000=
201106040345 METAR LMML 040345Z 07012KT 030V100 4000 BR BKN003 19/19 Q1012
                        NOSIG=
201106040330 METAR LMML NIL=
201106040315 METAR LMML 040315Z 06012KT 030V090 5000 BR BKN003 19/19 Q1011
                        NOSIG=
201106040245 METAR LMML 040245Z 06011KT 020V110 6000 BKN003 19/19 Q1011
                        NOSIG=
201106040230 METAR LMML NIL=
201106040215 METAR LMML 040215Z 06013KT 020V100 6000 BKN003 19/19 Q1011
                        NOSIG=
201106040145 METAR LMML 040145Z 06013KT 010V090 6000 BKN003 19/19 Q1012
                        NOSIG=
201106040130 METAR LMML NIL=
201106040115 METAR LMML 040115Z 05013KT 020V090 6000 BKN004 19/19 Q1012
                        NOSIG=
201106040100 METAR LMML NIL=
201106040045 METAR LMML 040045Z 05011KT 010V090 6000 BKN004 19/19 Q1012
                        NOSIG=
201106040030 METAR LMML NIL=
201106040015 METAR LMML 040015Z 04010KT 010V090 7000 BKN004 19/19 Q1012
                        TEMPO BKN005=
201106040000 METAR LMML NIL=
201106032345 METAR LMML 032345Z 04011KT 010V070 7000 SCT006 19/18 Q1012
                        TEMPO BKN005=
201106032330 METAR LMML NIL=
201106032315 METAR LMML 032315Z 04009G19KT 360V080 7000 FEW006 19/18 Q1013
                        TEMPO BKN005=
201106032300 METAR LMML NIL=
201106032245 METAR LMML 032245Z 04012KT 010V070 7000 BKN006 19/19 Q1013
                        TEMPO 5000 BR BKN005=
201106032230 METAR LMML NIL=
201106032215 METAR LMML 032215Z 04011KT 360V070 7000 BKN006 19/19 Q1013
                        TEMPO 5000 BR BKN005=
201106032200 METAR LMML NIL=
201106032145 METAR LMML 032145Z 04011KT 360V070 7000 BKN005 19/19 Q1013
                        NOSIG=
201106032130 METAR LMML NIL=
201106032115 METAR LMML 032115Z 03012KT 7000 BKN005 19/19 Q1013 NOSIG=
201106032100 METAR LMML NIL=
201106032045 METAR LMML 032045Z 04013KT 010V080 9000 SCT006 19/19 Q1013
                        BECMG BKN006=
201106032030 METAR LMML NIL=
201106032015 METAR LMML 032015Z 05013KT 9000 SCT006 20/19 Q1013 BECMG
                        BKN006=
201106031945 METAR LMML 031945Z 05013KT 020V090 9000 SCT006 20/19 Q1013
                        BECMG BKN006=
201106031930 METAR LMML NIL=
201106031915 METAR LMML 031915Z 05013KT 020V090 9000 SCT006 20/19 Q1013
                        BECMG BKN006=
201106031900 METAR LMML NIL=
201106031845 METAR LMML 031845Z 04014KT 020V080 9000 SCT006 20/19 Q1013
                        BECMG BKN006=
201106031830 METAR LMML NIL=
201106031815 METAR LMML 031815Z 05015KT 020V090 9000 SCT006 20/19 Q1013
                        BECMG BKN006=
201106031800 METAR LMML NIL=
201106031745 METAR LMML 031745Z 04015KT 010V080 9000 FEW007 20/18 Q1013
                        NOSIG=
201106031730 METAR LMML NIL=
201106031715 METAR LMML 031715Z 04014KT 010V080 9000 FEW008 21/18 Q1013
                        NOSIG=
201106031700 METAR LMML NIL=
201106031645 METAR LMML 031645Z 04017KT 010V070 9999 FEW009 21/18 Q1012
                        NOSIG=
201106031615 METAR LMML 031615Z 05014KT 360V080 9999 FEW008 21/18 Q1012
                        NOSIG=
201106031600 METAR LMML NIL=
201106031545 METAR LMML 031545Z 03012KT 360V070 8000 BKN007 21/19 Q1013
                        TEMPO BKN005=
201106031530 METAR LMML NIL=
201106031515 METAR LMML 031515Z 03016KT 360V070 8000 BKN006 22/19 Q1013
                        TEMPO BKN005=
201106031500 METAR LMML NIL=
201106031445 METAR LMML 031445Z 04016KT 010V070 9000 SCT007 22/19 Q1013
                        TEMPO BKN005=
201106031430 METAR LMML NIL=
201106031415 METAR LMML 031415Z 05015G25KT 010V100 9000 SCT008 SCT012
                        22/19 Q1013 TEMPO BKN008=
201106031400 METAR LMML NIL=
201106031345 METAR LMML 031345Z 05015KT 010V090 9000 SCT010 23/19 Q1014
                        TEMPO BKN008=
201106031330 METAR LMML NIL=
201106031315 METAR LMML 031315Z 05017KT 020V090 9000 SCT010 23/18 Q1014
                        NOSIG=
201106031300 METAR LMML NIL=
201106031245 METAR LMML 031245Z 05016KT 020V080 9000 SCT009 23/19 Q1014
                        TEMPO BKN008=
201106031230 METAR LMML NIL=
201106031215 METAR LMML 031215Z 06016KT 020V090 9000 SCT009 23/19 Q1014
                        TEMPO BKN008=
201106031200 METAR LMML NIL=
201106031145 METAR LMML 031145Z 06016KT 020V100 9000 SCT010 SCT120 23/19
                        Q1014 TEMPO 9999=
201106031115 METAR LMML 031115Z 06018KT 9000 SCT010 SCT100 23/18 Q1014
                        TEMPO 9999=
201106031100 METAR LMML NIL=
201106031045 METAR LMML 031045Z 05019KT 9999 FEW010 SCT100 23/19 Q1014
                        NOSIG=
201106031030 METAR LMML NIL=
201106031015 METAR LMML 031015Z 05017KT 020V090 9999 SCT009 22/19 Q1014
                        NOSIG=
201106031000 METAR LMML NIL=
201106030945 METAR LMML 030945Z 06015KT 020V100 9000 FEW008 BKN100 22/19
                        Q1015 NOSIG=
201106030930 METAR LMML NIL=
201106030915 METAR LMML 030915Z 05014KT 020V080 9000 SCT008 BKN100 21/19
                        Q1015 BECMG 9999=
201106030900 METAR LMML NIL=
201106030845 METAR LMML 030845Z 06014KT 020V100 8000 FEW009 BKN100 21/18
                        Q1015 BECMG 9999=
201106030830 METAR LMML NIL=
201106030815 METAR LMML 030815Z 06015KT 030V090 8000 FEW009 BKN100 22/18
                        Q1015 BECMG 9999=
201106030800 METAR LMML NIL=
201106030745 METAR LMML 030745Z 05013KT 020V100 7000 SCT007 BKN100 22/19
                        Q1014 BECMG 9999=
201106030730 METAR LMML NIL=
201106030715 METAR LMML 030715Z 05013KT 020V090 7000 BKN006 BKN130 21/19
                        Q1015 BECMG 9999=
201106030700 METAR LMML NIL=
201106030645 METAR LMML 030645Z 05012KT 020V090 5000 BR BKN006 BKN130
                        20/19 Q1015 NOSIG=
201106030630 METAR LMML NIL=
201106030615 METAR LMML 030615Z 05010KT 010V090 5000 BR BKN005 BKN130
                        20/19 Q1015 NOSIG=
201106030600 METAR LMML NIL=
201106030545 METAR LMML 030545Z 05010KT 010V080 5000 BR BKN005 BKN130
                        19/19 Q1014 NOSIG=
201106030530 METAR LMML NIL=
201106030515 METAR LMML 030515Z 06009KT 340V100 5000 BR BKN005 BKN130
                        19/19 Q1014 NOSIG=
201106030500 METAR LMML NIL=
201106030445 METAR LMML 030445Z 06010KT 030V090 4000 BR BKN006 BKN130
                        19/18 Q1014 TEMPO 3000=
201106030430 METAR LMML NIL=
201106030415 METAR LMML 030415Z 05009KT 010V100 4000 BR BKN006 SCT130
                        19/18 Q1014 TEMPO 3000=
201106030345 METAR LMML 030345Z 06009KT 020V090 4000 BR BKN006 SCT130
                        19/18 Q1014 TEMPO 3000=
201106030330 METAR LMML NIL=
201106030315 METAR LMML 030315Z 05010KT 010V080 5000 BR BKN005 BKN110
                        19/18 Q1014 NOSIG=
201106030300 METAR LMML NIL=
201106030245 METAR LMML 030245Z 04009KT 020V080 5000 BR BKN006 SCT100
                        19/18 Q1014 NOSIG=
201106030230 METAR LMML NIL=
201106030215 METAR LMML 030215Z 04008KT 5000 BR SCT006 SCT100 19/18 Q1014
                        NOSIG=
201106030200 METAR LMML NIL=
201106030145 METAR LMML 030145Z 04009KT 010V070 5000 BR BKN005 19/18 Q1014
                        NOSIG=
201106030130 METAR LMML NIL=
201106030115 METAR LMML 030115Z 04010KT 010V070 5000 BR BKN005 19/18 Q1014
                        TEMPO 3000=
201106030100 METAR LMML NIL=
201106030045 METAR LMML 030045Z 04008KT 010V070 5000 BR BKN005 19/18 Q1014
                        NOSIG=
201106030030 METAR LMML NIL=
201106030015 METAR LMML 030015Z 04009KT 7000 FEW006 SCT120 19/18 Q1015
                        TEMPO 5000 BKN006=
201106030000 METAR LMML NIL=
201106022345 METAR LMML 022345Z 05006KT 020V080 9000 FEW007 SCT110 19/18
                        Q1015 TEMPO 6000 BKN006=
201106022330 METAR LMML NIL=
201106022315 METAR LMML 022315Z 04008KT 010V070 9999 FEW007 19/18 Q1015
                        TEMPO 6000 BKN006=
201106022300 METAR LMML NIL=
201106022245 METAR LMML 022245Z 04009KT 9000 FEW007 19/18 Q1015 TEMPO
                        6000 BKN006=
201106022230 METAR LMML NIL=
201106022215 METAR LMML 022215Z 03008KT 360V060 9000 SCT006 19/18 Q1015
                        TEMPO 6000 BKN006=
201106022200 METAR LMML NIL=
201106022145 METAR LMML 022145Z 02009KT 350V050 9000 BKN007 19/18 Q1015
                        TEMPO 6000 BKN006=
201106022130 METAR LMML NIL=
201106022115 METAR LMML 022115Z 01007KT 9999 SCT009 19/18 Q1015 NOSIG=
201106022100 METAR LMML NIL=
201106022045 METAR LMML 022045Z 01006KT CAVOK 19/18 Q1015 NOSIG=
201106022030 METAR LMML NIL=
201106022015 METAR LMML 022015Z 01006KT CAVOK 19/17 Q1015 NOSIG=
201106022000 METAR LMML NIL=
201106021945 METAR LMML 021945Z 01006KT 330V050 CAVOK 19/17 Q1015 NOSIG=
201106021930 METAR LMML NIL=
201106021915 METAR LMML 021915Z 01005KT CAVOK 19/17 Q1015 NOSIG=
201106021900 METAR LMML NIL=
201106021845 METAR LMML 021845Z 01004KT CAVOK 19/17 Q1015 NOSIG=
201106021830 METAR LMML NIL=
201106021815 METAR LMML 021815Z 03004KT 360V120 CAVOK 20/17 Q1015 NOSIG=
201106021800 METAR LMML NIL=
201106021745 METAR LMML 021745Z 02005KT 350V110 CAVOK 20/17 Q1015 NOSIG=
201106021730 METAR LMML NIL=
201106021715 METAR LMML 021715Z 03006KT 340V060 9999 FEW012 SCT120 21/17
                        Q1015 NOSIG=
201106021700 METAR LMML NIL=
201106021645 METAR LMML 021645Z 02005KT 340V080 9999 FEW025 SCT120 22/17
                        Q1015 NOSIG=
201106021630 METAR LMML NIL=
201106021615 METAR LMML 021615Z 08005KT 040V130 9999 FEW025 SCT120 22/16
                        Q1015 NOSIG=
201106021600 METAR LMML NIL=
201106021545 METAR LMML 021545Z 12005KT 070V160 9999 FEW025 23/16 Q1015
                        NOSIG=
201106021530 METAR LMML NIL=
201106021515 METAR LMML 021515Z 09005KT 040V150 9999 FEW020 23/16 Q1015
                        NOSIG=
201106021500 METAR LMML NIL=
201106021445 METAR LMML 021445Z 09006KT 040V120 9999 FEW020 23/15 Q1014
                        NOSIG=
201106021430 METAR LMML NIL=
201106021415 METAR LMML 021415Z 08006KT 040V150 9999 FEW020 23/16 Q1014
                        NOSIG=
201106021345 METAR LMML 021345Z 09007KT 020V160 9999 SCT013 SCT250 22/17
                        Q1015 NOSIG=
201106021330 METAR LMML NIL=
201106021315 METAR LMML 021315Z 12008KT 090V150 9999 SCT011 SCT250 21/18
                        Q1015 TEMPO BKN015=
201106021300 METAR LMML NIL=
201106021245 METAR LMML 021245Z 13006KT 070V170 9999 BKN011 SCT120 21/18
                        Q1015 NOSIG=
201106021230 METAR LMML NIL=
201106021215 METAR LMML 021215Z 14008KT 110V170 9000 BKN008 BKN120 20/18
                        Q1015 NOSIG=
201106021201 SPECI LMML 021201Z 12009KT 8000 BKN008 BKN120 20/18 Q1015
                        NOSIG=
201106021200 METAR LMML NIL=
201106021145 METAR LMML 021145Z 12008KT 090V180 8000 BKN007 BKN100 20/19
                        Q1015 NOSIG=
201106021115 METAR LMML 021115Z 08007KT 310V140 7000 BKN005 OVC100 19/19
                        Q1015 TEMPO BKN004=
201106021100 METAR LMML NIL=
201106021045 METAR LMML 021045Z 12013KT 7000 SCT004 OVC120 19/19 Q1014
                        RERA NOSIG=
201106021030 METAR LMML NIL=
201106021015 METAR LMML 021015Z 13011KT 6000 -RA NSC 19/18 Q1015 NOSIG=
201106021000 METAR LMML NIL=
201106020945 METAR LMML 020945Z 09009KT 050V120 6000 -RA SCT037 OVC110
                        18/18 Q1015 NOSIG=
201106020930 METAR LMML NIL=
201106020915 METAR LMML 020915Z 36004KT 330V030 6000 -RA FEW007 SCT042
                        OVC100 19/18 Q1016 TEMPO 5000 BKN008=
201106020845 METAR LMML 020845Z VRB02KT 6000 -RA FEW007 OVC100 19/18 Q1016
                        TEMPO 5000 TSRA BKN008 BKN080CB=
201106020830 METAR LMML NIL=
201106020815 METAR LMML 020815Z VRB02KT 7000 -RA FEW007 SCT060 OVC110
                        18/18 Q1016 RERA TEMPO TSRA BKN008
                        BKN080CB=
201106020800 METAR LMML NIL=
201106020745 METAR LMML 020745Z 35008KT 5000 RA FEW008 SCT060 OVC110 19/18
                        Q1016 TEMPO TSRA BKN008 BKN080CB=
201106020730 METAR LMML NIL=
201106020715 METAR LMML 020715Z 01003KT 6000 -RA FEW011 SCT070 OVC110
                        19/18 Q1015 TEMPO BKN013=
201106020700 METAR LMML NIL=
201106020645 METAR LMML 020645Z VRB01KT 7000 -RA FEW011 OVC130 19/18 Q1016
                        TEMPO BKN013=
201106020630 METAR LMML NIL=
201106020615 METAR LMML 020615Z VRB01KT 6000 -SHRA FEW009 SCT013 OVC100
                        19/18 Q1016 TEMPO BKN013=
201106020545 METAR LMML 020545Z 31003KT 7000 FEW009 OVC110 18/18 Q1016
                        TEMPO SHRA BKN015=
201106020530 METAR LMML NIL=
201106020515 METAR LMML 020515Z 25004KT 210V300 7000 -SHRA SCT009 BKN120
                        18/18 Q1016 BECMG 9999=
201106020500 METAR LMML NIL=
201106020445 METAR LMML 020445Z 34007KT 7000 SCT008 BKN120 18/18 Q1015
                        BECMG 9999=
201106020430 METAR LMML NIL=
201106020415 METAR LMML 020415Z 33004KT 290V360 7000 SCT008 BKN120 18/18
                        Q1014 BECMG 9999=
201106020345 METAR LMML 020345Z 36005KT 9999 SCT006 BKN120 18/18 Q1014
                        NOSIG=
201106020330 METAR LMML NIL=
201106020315 METAR LMML 020315Z 32003KT 9999 SCT006 SCT040 BKN120 18/18
                        Q1014 NOSIG=
201106020300 METAR LMML NIL=
201106020245 METAR LMML 020245Z 34003KT 9999 FEW039 SCT070 BKN120 18/18
                        Q1014 NOSIG=
201106020230 METAR LMML NIL=
201106020215 METAR LMML 020215Z 34004KT 9999 FEW039 SCT070 BKN120 18/18
                        Q1015 NOSIG=
201106020145 METAR LMML 020145Z 31005KT 9999 FEW039 SCT070 BKN120 18/18
                        Q1015 NOSIG=
201106020130 METAR LMML NIL=
201106020115 METAR LMML 020115Z 35003KT 9999 -RA SCT039 SCT080 BKN120
                        18/17 Q1015 NOSIG=
201106020100 METAR LMML NIL=
201106020045 METAR LMML 020045Z 32004KT 9999 FEW012 BKN120 18/18 Q1016
                        NOSIG=
201106020030 METAR LMML NIL=
201106020015 METAR LMML 020015Z VRB01KT 9999 SCT012 BKN100 18/18 Q1016
                        NOSIG=
201106020000 METAR LMML NIL=
201106012345 METAR LMML 012345Z 26004KT 220V290 9999 SCT030 BKN120 18/18
                        Q1017 NOSIG=
201106012330 METAR LMML NIL=
201106012315 METAR LMML 012315Z 28004KT 250V310 9999 SCT036 BKN120 18/17
                        Q1016 NOSIG=
201106012245 METAR LMML 012245Z 28005KT 250V320 9999 SCT040 BKN120 18/17
                        Q1016 NOSIG=
201106012215 METAR LMML 012215Z 29003KT 9999 SCT040 BKN120 18/17 Q1016
                        NOSIG=
201106012200 METAR LMML NIL=
201106012145 METAR LMML 012145Z 28004KT 250V330 9999 -RA SCT043 BKN120
                        19/17 Q1016 NOSIG=
201106012130 METAR LMML NIL=
201106012115 METAR LMML 012115Z 29004KT 250V320 9999 SCT015 BKN120 19/17
                        Q1016 NOSIG=
201106012100 METAR LMML NIL=
201106012045 METAR LMML 012045Z 30005KT 280V350 9999 SCT015 BKN120 19/17
                        Q1016 NOSIG=
201106012030 METAR LMML NIL=
201106012015 METAR LMML 012015Z 29006KT 9999 FEW012 SCT070 BKN120 19/17
                        Q1016 NOSIG=
201106012000 METAR LMML NIL=
201106011945 METAR LMML 011945Z 29007KT 260V320 CAVOK 19/17 Q1016 NOSIG=
201106011915 METAR LMML 011915Z 29007KT 9999 -RA FEW012 SCT080 BKN120
                        19/17 Q1016 NOSIG=
201106011900 METAR LMML NIL=
201106011845 METAR LMML 011845Z 02003KT 9999 FEW011 SCT060 BKN120 19/17
                        Q1014 NOSIG=
201106011830 METAR LMML NIL=
201106011815 METAR LMML 011815Z 05004KT 350V100 9999 FEW011 SCT060 BKN110
                        19/17 Q1014 NOSIG=
201106011800 METAR LMML NIL=
201106011745 METAR LMML 011745Z VRB02KT 9999 RA FEW015 SCT060 BKN120 19/17
                        Q1015 NOSIG=
201106011730 METAR LMML NIL=
201106011715 METAR LMML 011715Z 27009KT 220V300 9999 SCT018 SCT120 20/17
                        Q1017 TEMPO 8000 RA BKN015=
201106011700 METAR LMML NIL=
201106011645 METAR LMML 011645Z 28008KT 240V310 9999 SCT019 SCT120 20/17
                        Q1016 TEMPO BKN015=
201106011630 METAR LMML NIL=
201106011615 METAR LMML 011615Z 30005KT 250V360 9999 SCT017 SCT120 21/17
                        Q1016 TEMPO BKN015=
201106011545 METAR LMML 011545Z 01005KT 330V060 9999 SCT017 SCT120 21/17
                        Q1015 NOSIG=
201106011530 METAR LMML NIL=
201106011515 METAR LMML 011515Z 31004KT 280V010 9999 BKN021 BKN120 21/16
                        Q1015 NOSIG=
201106011500 METAR LMML NIL=
201106011445 METAR LMML 011445Z 25006KT 210V300 9999 BKN022 BKN120 22/16
                        Q1016 NOSIG=
201106011430 METAR LMML NIL=
201106011415 METAR LMML 011415Z 22006KT 180V260 9999 SCT017 BKN120 21/17
                        Q1016 NOSIG=
201106011345 METAR LMML 011345Z 18007KT 160V230 9999 FEW011 BKN019 21/18
                        Q1016 NOSIG=
201106011330 METAR LMML NIL=
201106011315 METAR LMML 011315Z 13007KT 9999 FEW012 SCT100 BKN250 21/19
                        Q1015 NOSIG=
201106011245 METAR LMML 011245Z VRB02KT 9999 -SHRA FEW018 BKN120 21/17
                        Q1015 NOSIG=
201106011230 METAR LMML NIL=
201106011215 METAR LMML 011215Z 30007KT 260V330 9000 -SHRA FEW018 BKN120
                        21/17 Q1016 NOSIG=
201106011200 METAR LMML NIL=
201106011145 METAR LMML 011145Z 34007KT 9999 FEW025 SCT120 23/15 Q1016
                        NOSIG=
201106011130 METAR LMML NIL=
201106011115 METAR LMML 011115Z 31005KT 240V020 9999 FEW027 SCT120 25/16
                        Q1016 NOSIG=
201106011100 METAR LMML NIL=
201106011045 METAR LMML 011045Z 22006KT 170V280 9999 FEW027 SCT120 23/17
                        Q1016 NOSIG=
201106011030 METAR LMML NIL=
201106011015 METAR LMML 011015Z 30005KT 250V010 9999 FEW026 SCT250 25/16
                        Q1016 NOSIG=
201106011000 METAR LMML NIL=
201106010945 METAR LMML 010945Z 28005KT 210V020 9999 FEW022 SCT250 23/17
                        Q1017 NOSIG=
201106010930 METAR LMML NIL=
201106010915 METAR LMML 010915Z 28010KT 240V310 9999 SCT021 22/16 Q1017
                        NOSIG=
201106010845 METAR LMML 010845Z 28011KT 230V310 9999 SCT019 SCT100 23/15
                        Q1017 NOSIG=
201106010830 METAR LMML NIL=
201106010815 METAR LMML 010815Z 24006KT 180V290 9999 FEW016 SCT100 22/17
                        Q1017 NOSIG=
201106010800 METAR LMML NIL=
201106010745 METAR LMML 010745Z 21006KT 160V270 9999 FEW012 SCT100 21/17
                        Q1016 NOSIG=
201106010715 METAR LMML 010715Z 18004KT 110V260 9999 FEW012 SCT100 21/17
                        Q1016 NOSIG=
201106010700 METAR LMML NIL=
201106010645 METAR LMML 010645Z 23004KT 180V280 9999 FEW012 SCT120 21/17
                        Q1017 NOSIG=
201106010630 METAR LMML NIL=
201106010615 METAR LMML 010615Z 22004KT 170V280 8000 SCT011 20/17 Q1017
                        BECMG 9999=
201106010600 METAR LMML NIL=
201106010545 METAR LMML 010545Z 22004KT 190V260 7000 FEW009 19/18 Q1017
                        BECMG 9999=
201106010530 METAR LMML NIL=
201106010515 METAR LMML 010515Z 21003KT 6000 FEW011 19/18 Q1017 BECMG
                        9999=
201106010500 METAR LMML NIL=
201106010445 METAR LMML 010445Z VRB02KT 7000 FEW011 SCT250 18/17 Q1017
                        BECMG 9999=
201106010430 METAR LMML NIL=
201106010415 METAR LMML 010415Z 26003KT 6000 BKN006 SCT120 BKN250 17/17
                        Q1017 TEMPO 5000 BR BKN005=
201106010400 METAR LMML NIL=
201106010345 METAR LMML 010345Z 24003KT 7000 BKN007 BKN250 17/17 Q1016
                        TEMPO 5000 BR=
201106010330 METAR LMML NIL=
201106010315 METAR LMML 010315Z 12003KT 9000 FEW007 SCT120 17/17 Q1015
                        TEMPO 5000 BR=
201106010300 METAR LMML NIL=
201106010245 METAR LMML 010245Z VRB02KT 9000 FEW007 SCT120 BKN250 17/17
                        Q1015 NOSIG=
201106010230 METAR LMML NIL=
201106010215 METAR LMML 010215Z VRB02KT 9000 FEW007 BKN130 BKN250 18/17
                        Q1015 TEMPO BKN007=
201106010200 METAR LMML NIL=
201106010145 METAR LMML 010145Z VRB01KT 9000 FEW007 BKN250 17/17 Q1016
                        TEMPO BKN007=
201106010130 METAR LMML NIL=
201106010115 METAR LMML 010115Z VRB01KT 9000 FEW007 SCT120 17/16 Q1016
                        TEMPO BKN007=
201106010100 METAR LMML NIL=
201106010045 METAR LMML 010045Z VRB01KT 9000 SCT007 SCT120 BKN250 17/16
                        Q1016 TEMPO BKN005=
201106010030 METAR LMML NIL=
201106010015 METAR LMML 010015Z VRB01KT 9999 FEW011 BKN250 18/17 Q1016
                        NOSIG=
201106010000 METAR LMML NIL=

###################################
#  short TAF from LMML
###################################
201107012300 TAF LMML 012300Z 0200/0209 32010KT CAVOK
                      TEMPO 0200/0209 9999 FEW012=
201107012000 TAF LMML 012000Z 0121/0206 32010KT CAVOK
                      TEMPO 0121/0206 9000 FEW008=
201107011700 TAF LMML 011700Z 0118/0203 32015KT CAVOK
                      PROB40 TEMPO 0200/0203 8000 NSC
                      PROB30 TEMPO 0200/0203 9999 FEW005=
201107011400 TAF LMML 011400Z 0115/0124 30018KT 9999 FEW012
                      TEMPO 0115/0124 CAVOK
                      PROB30 TEMPO 0115/0118 29015G25KT=
201107011100 TAF LMML 011100Z 0112/0121 29016KT 9999 FEW015
                      TEMPO 0112/0121 CAVOK
                      PROB30 TEMPO 0112/0118 29015G25KT=
201107010800 TAF LMML 010800Z 0109/0118 29018KT 9999 FEW015
                      TEMPO 0109/0118 CAVOK
                      PROB30 TEMPO 0109/0118 29015G25KT=
201107010500 TAF LMML 010500Z 0106/0115 31015G25KT CAVOK
                      TEMPO 0106/0115 9999 FEW015=
201107010200 TAF LMML 010200Z 0103/0112 30015G25KT CAVOK
                      PROB30 TEMPO 0103/0106 8000 FEW005=
201106302300 TAF LMML 302300Z 0100/0109 30012KT CAVOK
                      PROB30 TEMPO 0100/0106 5000 BR SCT005=
201106302000 TAF LMML 302000Z 3021/0106 29010KT CAVOK
                      PROB40 TEMPO 3021/0106 8000 SCT005=
201106301700 TAF LMML 301700Z 3018/0103 29014KT 9999 FEW015
                      TEMPO 3018/0103 9000 BKN010
                      PROB30 TEMPO 3021/0103 5000 BR BKN005=
201106301400 TAF LMML 301400Z 3015/3024 30014KT 9999 FEW015
                      PROB30 TEMPO 3017/3024 9000 BKN008=
201106301100 TAF LMML 301100Z 3012/3021 30012KT 9999 FEW015
                      TEMPO 3012/3015 CAVOK
                      PROB30 TEMPO 3015/3021 9000 BKN010=
201106300800 TAF LMML 300800Z 3009/3018 28011KT CAVOK
                      TEMPO 3009/3018 9999 FEW020
                      PROB30 TEMPO 3015/3018 9000 BKN010=
201106300500 TAF LMML 300500Z 3006/3015 27010KT 9999 FEW010
                      PROB40 TEMPO 3006/3012 CAVOK=
201106300200 TAF LMML 300200Z 3003/3012 27010KT 9999 FEW030
                      PROB40 TEMPO 3003/3006 5000 BR BKN002=
201106292300 TAF LMML 292300Z 3000/3009 27007KT CAVOK=
201106292000 TAF LMML 292000Z 2921/3006 27007KT CAVOK=
201106291700 TAF LMML 291700Z 2918/3003 28015KT CAVOK
                      TEMPO 2918/3003 25005KT
                      PROB30 TEMPO 3000/3003 8000 FEW008=
201106291400 TAF LMML 291400Z 2915/2924 30010KT CAVOK=
201106291100 TAF LMML 291100Z 2912/2921 30010KT CAVOK=
201106290800 TAF LMML 290800Z 2909/2918 29010KT CAVOK=
201106290500 TAF LMML 290500Z 2906/2915 27010KT CAVOK=
201106290200 TAF LMML 290200Z 2903/2912 28009KT CAVOK=
201106282300 TAF LMML 282300Z 2900/2909 28009KT CAVOK=
201106282000 TAF LMML 282000Z 2821/2906 27007KT CAVOK=
201106281700 TAF LMML 281700Z 2818/2903 26008KT CAVOK=
201106281400 TAF LMML 281400Z 2815/2824 26008KT CAVOK=
201106281100 TAF LMML 281100Z 2812/2821 26008KT CAVOK
                      PROB30 TEMPO 2812/2815 9999 FEW015=
201106280800 TAF LMML 280800Z 2809/2818 VRB05KT CAVOK
                      BECMG 2812/2815 26010KT=
201106280500 TAF LMML 280500Z 2806/2815 25005KT CAVOK=
201106280200 TAF LMML 280200Z 2803/2812 20005KT CAVOK
                      TEMPO 2803/2805 9000 FEW005=
201106272300 TAF LMML 272300Z 2800/2809 21004KT CAVOK
                      TEMPO 2800/2805 9000 FEW005=
201106272000 TAF LMML 272000Z 2721/2806 18004KT CAVOK
                      TEMPO 2721/2806 9000 FEW005=
201106271700 TAF LMML 271700Z 2718/2803 VRB05KT CAVOK
                      PROB30 TEMPO 2718/2721 9999 FEW030=
201106271400 TAF LMML 271400Z 2715/2724 VRB04KT CAVOK
                      TEMPO 2715/2724 9999 FEW020=
201106271100 TAF LMML 271100Z 2712/2721 VRB05KT CAVOK
                      PROB30 TEMPO 2712/2718 9999 FEW020=
201106270800 TAF LMML 270800Z 2709/2718 VRB05KT CAVOK
                      PROB30 TEMPO 2709/2718 9999 FEW025=
201106270500 TAF LMML 270500Z 2706/2715 27004KT CAVOK
                      PROB30 TEMPO 2706/2715 9999 FEW030=
201106270200 TAF LMML 270200Z 2703/2712 VRB03KT CAVOK
                      TEMPO 2703/2707 9999 FEW018=
201106262300 TAF LMML 262300Z 2700/2709 VRB03KT CAVOK
                      TEMPO 2700/2709 9999 FEW015=
201106262000 TAF LMML 262000Z 2621/2706 VRB03KT 9999 FEW015=
201106261700 TAF LMML 261700Z 2618/2703 VRB03KT 9999 SCT015=
201106261400 TAF LMML 261400Z 2615/2624 11005KT 9999 FEW025=
201106261100 TAF LMML 261100Z 2612/2621 09006KT 9999 FEW025=
201106260800 TAF LMML 260800Z 2609/2618 10006KT 9999 FEW025=
201106260500 TAF LMML 260500Z 2606/2615 07005KT 9999 FEW020
                      TEMPO 2606/2615 CAVOK=
201106260200 TAF LMML 260200Z 2603/2612 05007KT 9999 FEW020
                      PROB40 TEMPO 2603/2606 CAVOK=
201106252300 TAF LMML 252300Z 2600/2609 05007KT CAVOK
                      TEMPO 2600/2609 9999 FEW015=
201106252000 TAF LMML 252000Z 2521/2606 04008KT CAVOK
                      PROB40 TEMPO 2521/2606 9999 FEW015=
201106251700 TAF LMML 251700Z 2518/2603 33010KT CAVOK
                      BECMG 2521/2524 03004KT
                      PROB30 TEMPO 2601/2603 SCT005=
201106251400 TAF LMML 251400Z 2515/2524 32012KT 9999 FEW020
                      BECMG 2521/2524 03004KT
                      TEMPO 2515/2524 CAVOK=
201106251100 TAF LMML 251100Z 2512/2521 32012KT 9999 FEW020
                      TEMPO 2512/2521 CAVOK=
201106250800 TAF LMML 250800Z 2509/2518 32012KT CAVOK=
201106250500 TAF LMML 250500Z 2506/2515 32013KT CAVOK
                      PROB30 TEMPO 2506/2515 9999 FEW020=
201106250200 TAF LMML 250200Z 2503/2512 31012KT CAVOK
                      TEMPO 2503/2512 9999 FEW015
                      PROB30 TEMPO 2503/2506 5000 BR BKN005=
201106242300 TAF LMML 242300Z 2500/2509 30010KT CAVOK
                      TEMPO 2500/2509 9999 FEW015
                      PROB30 TEMPO 2500/2506 9000 SCT010=
201106242000 TAF LMML 242000Z 2421/2506 32010KT CAVOK
                      TEMPO 2421/2506 9999 FEW015
                      PROB30 TEMPO 2500/2506 9000 BKN010=
201106241700 TAF LMML 241700Z 2418/2503 29012KT 9999 FEW015
                      PROB40 TEMPO 2418/2421 CAVOK
                      PROB30 TEMPO 2500/2503 9000 BKN010=
201106241400 TAF LMML 241400Z 2415/2424 29012KT 9999 FEW015
                      PROB40 TEMPO 2415/2420 CAVOK=
201106241100 TAF LMML 241100Z 2412/2421 32008KT CAVOK
                      PROB30 TEMPO 2412/2421 9999 FEW015=
201106240800 TAF LMML 240800Z 2409/2418 32008KT CAVOK=
201106240500 TAF LMML 240500Z 2406/2415 30008KT CAVOK=
201106240200 TAF LMML 240200Z 2403/2412 31005KT CAVOK=
201106232300 TAF LMML 232300Z 2400/2409 31005KT CAVOK=
201106232000 TAF LMML 232000Z 2321/2406 30005KT CAVOK=
201106231700 TAF LMML 231700Z 2318/2403 VRB05KT CAVOK
                      PROB30 TEMPO 2400/2403 9000 FEW012=
201106231400 TAF LMML 231400Z 2315/2324 26007KT CAVOK=
201106231100 TAF LMML 231100Z 2312/2321 VRB07KT CAVOK=
201106230800 TAF LMML 230800Z 2309/2318 VRB05KT CAVOK=
201106230500 TAF LMML 230500Z 2306/2315 27005KT CAVOK=
201106230200 TAF LMML 230200Z 2303/2312 27004KT CAVOK
                      TEMPO 2303/2306 9999 FEW012=
201106222300 TAF LMML 222300Z 2300/2309 VRB03KT CAVOK=
201106222000 TAF LMML 222000Z 2221/2306 VRB03KT CAVOK=
201106221700 TAF LMML 221700Z 2218/2303 VRB03KT CAVOK=
201106221400 TAF LMML 221400Z 2215/2224 36005KT CAVOK=
201106221100 TAF LMML 221100Z 2212/2221 02005KT CAVOK=
201106220800 TAF LMML 220800Z 2209/2218 36006KT CAVOK=
201106220500 TAF LMML 220500Z 2206/2215 36005KT CAVOK=
201106220200 TAF LMML 220200Z 2203/2212 36005KT CAVOK=
201106212300 TAF LMML 212300Z 2200/2209 36005KT CAVOK=
201106212000 TAF LMML 212000Z 2121/2206 VRB03KT CAVOK=
201106211700 TAF LMML 211700Z 2118/2203 05005KT CAVOK=
201106211400 TAF LMML 211400Z 2115/2124 07010KT CAVOK
                      BECMG 2118/2121 36003KT=
201106211100 TAF LMML 211100Z 2112/2121 04010KT CAVOK=
201106210800 TAF LMML 210800Z 2109/2118 04007KT CAVOK=
201106210500 TAF LMML 210500Z 2106/2115 04007KT CAVOK
                      PROB30 TEMPO 2106/2115 9999 FEW020=
201106210200 TAF LMML 210200Z 2103/2112 04007KT CAVOK
                      PROB30 TEMPO 2103/2106 9000 FEW012
                      TEMPO 2106/2112 9999 FEW020=
201106202300 TAF LMML 202300Z 2100/2109 03006KT CAVOK
                      PROB30 TEMPO 2100/2106 9000 FEW015
                      TEMPO 2106/2109 9999 FEW020=
201106202000 TAF LMML 202000Z 2021/2106 VRB04KT CAVOK
                      PROB30 TEMPO 2100/2106 9000 FEW015=
201106201700 TAF LMML 201700Z 2018/2103 03005KT CAVOK
                      PROB30 TEMPO 2101/2103 9000 FEW015=
201106201400 TAF LMML 201400Z 2015/2024 35007KT CAVOK
                      PROB30 TEMPO 2015/2018 9999 FEW015=
201106201100 TAF LMML 201100Z 2012/2021 34007KT 9999 FEW015
                      PROB30 TEMPO 2012/2021 CAVOK=
201106200800 TAF LMML 200800Z 2009/2018 34007KT 9999 FEW015
                      PROB40 TEMPO 2009/2018 CAVOK=
201106200500 TAF LMML 200500Z 2006/2015 32008KT 9999 FEW015=
201106200200 TAF LMML 200200Z 2003/2012 30015KT CAVOK
                      PROB30 TEMPO 2003/2006 7000 SCT007
                      BECMG 2006/2009 9999 FEW020=
201106192300 TAF LMML 192300Z 2000/2009 32012KT CAVOK
                      TEMPO 2000/2006 9000 SCT007=
201106192000 TAF LMML 192000Z 1921/2006 30012KT 9999 FEW012
                      PROB30 TEMPO 1921/2006 6000 BKN006=
201106191700 TAF LMML 191700Z 1918/2003 30012KT 9999 SCT015
                      PROB30 TEMPO 1918/1920 9000 BKN009
                      TEMPO 1920/2003 CAVOK=
201106191400 TAF LMML 191400Z 1915/1924 30013KT 9999 FEW020
                      TEMPO 1915/1924 CAVOK
                      PROB30 TEMPO 1917/1921 9000 BKN010=
201106191100 TAF LMML 191100Z 1912/1921 24009KT CAVOK
                      TEMPO 1912/1921 9999 FEW020
                      BECMG 1912/1915 30014KT
                      PROB30 TEMPO 1914/1921 9000 BKN010=
201106190800 TAF LMML 190800Z 1909/1918 20007KT CAVOK
                      TEMPO 1909/1918 9999 FEW020
                      BECMG 1913/1916 28013KT
                      PROB30 TEMPO 1914/1918 9000 BKN010=
201106190500 TAF LMML 190500Z 1906/1915 VRB03KT CAVOK
                      BECMG 1912/1915 27010KT=
201106190200 TAF LMML 190200Z 1903/1912 18005KT CAVOK
                      PROB40 TEMPO 1903/1905 8000 SCT005=
201106182300 TAF LMML 182300Z 1900/1909 VRB03KT 9999 FEW006
                      TEMPO 1900/1909 CAVOK=
201106182000 TAF LMML 182000Z 1821/1906 VRB03KT 9999 FEW012
                      PROB30 1821/1906 CAVOK
                      TEMPO 1823/1905 7000 SCT005=
201106181700 TAF LMML 181700Z 1818/1903 18006KT CAVOK
                      TEMPO 1821/1903 7000 SCT005=
201106181400 TAF LMML 181400Z 1815/1824 18008KT 9999 FEW013
                      TEMPO 1821/1824 7000 BKN005=
201106181100 TAF LMML 181100Z 1812/1821 18008KT 9999 FEW015=
201106180800 TAF LMML 180800Z 1809/1818 19008KT 9999 FEW012=
201106180500 TAF LMML 180500Z 1806/1815 20005KT CAVOK
                      PROB30 TEMPO 1806/1815 FEW015=
201106180200 TAF LMML 180200Z 1803/1812 23005KT CAVOK
                      TEMPO 1803/1806 9000 FEW005=
201106172300 TAF LMML 172300Z 1800/1809 24005KT CAVOK
                      PROB30 TEMPO 1802/1806 9000 FEW010=
201106172000 TAF LMML 172000Z 1721/1806 25005KT CAVOK
                      PROB30 TEMPO 1802/1806 9000 FEW010=
201106171700 TAF LMML 171700Z 1718/1803 22006KT 9999 FEW015
                      TEMPO 1718/1803 CAVOK
                      PROB30 TEMPO 1721/1803 9000=
201106171400 TAF LMML 171400Z 1715/1724 23008KT 9999 FEW020
                      TEMPO 1715/1724 CAVOK=
201106171100 TAF LMML 171100Z 1712/1721 23007KT 9999 FEW020
                      PROB30 TEMPO 1712/1721 CAVOK=
201106170800 TAF LMML 170800Z 1709/1718 24007KT 9999 SCT018
                      PROB30 TEMPO 1712/1718 CAVOK=
201106170500 TAF LMML 170500Z 1706/1715 27005KT 9999 FEW020
                      TEMPO 1706/1715 CAVOK=
201106170200 TAF LMML 170200Z 1703/1712 27005KT 9999 FEW020
                      TEMPO 1703/1712 CAVOK
                      PROB30 TEMPO 1703/1706 9000 BKN005=
201106162300 TAF LMML 162300Z 1700/1709 27004KT 9999 FEW015
                      TEMPO 1700/1709 CAVOK
                      PROB30 TEMPO 1702/1706 9000 BKN005=
201106162000 TAF LMML 162000Z 1621/1706 VRB03KT 9999 FEW015
                      TEMPO 1621/1706 CAVOK
                      PROB30 TEMPO 1700/1706 9000 BKN005=
201106161700 TAF LMML 161700Z 1618/1703 27005KT 9999 FEW020=
201106161400 TAF LMML 161400Z 1615/1624 VRB05KT 9999 FEW020=
201106161100 TAF LMML 161100Z 1612/1621 VRB05KT 9999 FEW020=
201106160800 TAF LMML 160800Z 1609/1618 VRB05KT 9999 FEW025=
201106160500 TAF LMML 160500Z 1606/1615 27006KT 9999 FEW015=
201106160200 TAF LMML 160200Z 1603/1612 26004KT 9999 FEW015
                      PROB30 TEMPO 1603/1606 8000 BKN015=
201106152300 TAF LMML 152300Z 1600/1609 VRB03KT 9999 FEW015
                      PROB30 TEMPO 1600/1609 8000 BKN015=
201106152000 TAF LMML 152000Z 1521/1606 27005KT 9999 FEW018
                      PROB30 TEMPO 1521/1606 8000 BKN015=
201106151700 TAF LMML 151700Z 1518/1603 VRB05KT 9999 FEW025
                      TEMPO 1518/1603 CAVOK
                      PROB30 TEMPO 1521/1603 9000=
201106151400 TAF LMML 151400Z 1515/1524 01010KT 9999 FEW025
                      TEMPO 1515/1524 CAVOK
                      BECMG 1515/1518 29006KT=
201106151100 TAF LMML 151100Z 1512/1521 02010KT 9999 FEW025
                      TEMPO 1512/1521 CAVOK
                      BECMG 1512/1515 31006KT=
201106150800 TAF LMML 150800Z 1509/1518 04010KT 9999 FEW025
                      TEMPO 1509/1518 CAVOK
                      BECMG 1510/1513 32006KT=
201106150500 TAF LMML 150500Z 1506/1515 VRB05KT CAVOK
                      TEMPO 1506/1515 9999 FEW030=
201106150200 TAF LMML 150200Z 1503/1512 VRB03KT CAVOK
                      TEMPO 1503/1512 9999 FEW025=
201106142300 TAF LMML 142300Z 1500/1509 33004KT CAVOK
                      PROB30 TEMPO 1500/1509 9999 FEW025=
201106142000 TAF LMML 142000Z 1421/1506 33004KT 9999 FEW025
                      PROB30 TEMPO 1421/1506 CAVOK=
201106141700 TAF LMML 141700Z 1418/1503 33008KT 9999 FEW025
                      BECMG 1418/1420 CAVOK=
201106141400 TAF LMML 141400Z 1415/1424 30008KT 9999 FEW025
                      BECMG 1415/1418 CAVOK=
201106141100 TAF LMML 141100Z 1412/1421 32009KT 9999 FEW025=
201106140800 TAF LMML 140800Z 1409/1418 30008KT CAVOK
                      TEMPO 1409/1418 9999 FEW030=
201106140500 TAF LMML 140500Z 1406/1415 31005KT 9999 FEW010
                      PROB30 TEMPO 1406/1415 CAVOK=
201106140200 TAF LMML 140200Z 1403/1412 30007KT 9999 FEW020
                      TEMPO 1403/1407 CAVOK=
201106132300 TAF LMML 132300Z 1400/1409 29007KT 9999 FEW015
                      TEMPO 1400/1407 CAVOK=
201106132000 TAF LMML 132000Z 1321/1406 29007KT 9999 FEW015
                      PROB40 TEMPO 1321/1406 CAVOK=
201106131700 TAF LMML 131700Z 1318/1403 28008KT 9999 FEW012
                      PROB40 TEMPO 1318/1403 CAVOK=
201106131400 TAF LMML 131400Z 1315/1324 28008KT 9999 FEW012
                      PROB30 TEMPO 1315/1324 CAVOK=
201106131100 TAF LMML 131100Z 1312/1321 29010KT 9999 FEW015
                      PROB30 TEMPO 1312/1321 CAVOK=
201106130955 TAF COR LMML 130955Z 1309/1318 29014KT 9999 FEW020
                      PROB30 TEMPO 1309/1318 CAVOK=
201106130800 TAF LMML 130800Z 3009/3018 29014KT 9999 FEW020
                      PROB30 TEMPO 3009/3018 CAVOK=
201106130500 TAF LMML 130500Z 1306/1315 32013KT 9999 FEW020
                      TEMPO 1306/1315 CAVOK
                      PROB30 TEMPO 1310/1315 30015G25KT=
201106130200 TAF LMML 130200Z 1303/1312 30010KT CAVOK
                      TEMPO 1303/1312 9999 FEW015
                      PROB30 TEMPO 1303/1306 9000 NSC=
201106122300 TAF LMML 122300Z 1300/1309 30008KT CAVOK
                      TEMPO 1300/1309 9999 FEW012
                      PROB30 TEMPO 1300/1306 9000 NSC=
201106122000 TAF LMML 122000Z 1221/1306 31015KT 9999 FEW015
                      PROB30 TEMPO 1221/1306 CAVOK=
201106121700 TAF LMML 121700Z 1218/1303 29016KT 9999 FEW020
                      PROB40 TEMPO 1218/1224 CAVOK=
201106121400 TAF LMML 121400Z 1215/1224 29016KT 9999 FEW020
                      PROB40 TEMPO 1215/1224 CAVOK=
201106121100 TAF LMML 121100Z 1212/1221 30016KT 9999 FEW020
                      PROB30 TEMPO 1216/1221 CAVOK=
201106120800 TAF LMML 120800Z 1209/1218 31015KT 9999 FEW018
                      PROB30 TEMPO 1213/1218 CAVOK=
201106120500 TAF LMML 120500Z 1206/1215 31015KT 9999 FEW012
                      TEMPO 1210/1215 CAVOK=
201106120200 TAF LMML 120200Z 1203/1212 31012KT CAVOK
                      PROB30 TEMPO 1203/1212 9999 FEW020=
201106112300 TAF LMML 112300Z 1200/1209 31013KT CAVOK
                      PROB30 TEMPO 1202/1206 FEW008 SCT020=
201106112000 TAF LMML 112000Z 1121/1206 31015KT 9999 FEW020
                      PROB30 TEMPO 1200/1206 BKN008=
201106111700 TAF LMML 111700Z 1118/1203 31015KT 9999 FEW020
                      PROB30 TEMPO 1118/1203 30015G25KT CAVOK=
201106111400 TAF LMML 111400Z 1115/1124 30014KT 9999 FEW025
                      TEMPO 1115/1124 CAVOK=
201106111100 TAF LMML 111100Z 1112/1121 32014KT CAVOK
                      PROB30 TEMPO 1112/1118 9999 FEW020=
201106110800 TAF LMML 110800Z 1109/1118 32011KT CAVOK
                      TEMPO 1109/1118 9999 FEW020=
201106110500 TAF LMML 110500Z 1106/1115 31010KT CAVOK
                      PROB30 TEMPO 1109/1115 9999 FEW040=
201106110200 TAF LMML 110200Z 1103/1112 31010KT CAVOK=
201106102300 TAF LMML 102300Z 1100/1109 32010KT CAVOK=
201106102000 TAF LMML 102000Z 1021/1106 32006KT CAVOK
                      PROB30 TEMPO 1100/1106 9999 TS BKN060CB=
201106101700 TAF LMML 101700Z 1018/1103 29010KT CAVOK
                      PROB40 TEMPO 1018/1021 9999 FEW020=
201106101400 TAF LMML 101400Z 1015/1021 31005KT CAVOK
                      TEMPO 1015/1021 9999 FEW020=
201106101100 TAF LMML 101100Z 1012/1021 31014KT 9999 FEW020
                      TEMPO 1012/1021 CAVOK=
201106100800 TAF LMML 100800Z 1009/1018 32013KT 9999 FEW020
                      TEMPO 1009/1018 CAVOK=
201106100500 TAF LMML 100500Z 1006/1015 30012KT 9999 FEW018
                      PROB40 TEMPO 1006/1015 CAVOK=
201106100200 TAF LMML 100200Z 1003/1012 30012KT CAVOK
                      PROB40 TEMPO 1003/1012 9999 FEW020=
201106092300 TAF LMML 092300Z 1000/1009 29012KT CAVOK
                      PROB30 TEMPO 1000/1009 9999 FEW020=
201106092000 TAF LMML 092000Z 0921/1006 29014KT CAVOK
                      PROB30 TEMPO 0921/1006 9999 FEW020=
201106091700 TAF LMML 091700Z 0918/1003 29014KT CAVOK
                      TEMPO 0918/1003 9999 FEW011=
201106091400 TAF LMML 091400Z 0915/0924 29014KT 9999 FEW015
                      TEMPO 0915/0924 CAVOK=
201106091100 TAF LMML 091100Z 0912/0921 29015KT 9999 FEW018
                      TEMPO 0912/0921 CAVOK=
201106090800 TAF LMML 090800Z 0909/0918 29015KT 9999 FEW020
                      TEMPO 0909/0918 CAVOK=
201106090500 TAF LMML 090500Z 0906/0915 32013KT CAVOK
                      TEMPO 0906/0915 9999 FEW020=
201106090200 TAF LMML 090200Z 0903/0912 32014KT CAVOK
                      PROB30 TEMPO 0903/0912 9999 FEW015=
201106082300 TAF LMML 082300Z 0900/0909 32011KT CAVOK
                      PROB30 TEMPO 0900/0909 9999 FEW015=
201106082000 TAF LMML 082000Z 0821/0906 32011KT CAVOK
                      PROB30 TEMPO 0821/0906 9999 FEW015=
201106081700 TAF LMML 081700Z 0818/0903 30008KT CAVOK=
201106081400 TAF LMML 081400Z 0815/0824 33012KT CAVOK=
201106081100 TAF LMML 081100Z 0812/0821 33013KT CAVOK=
201106080800 TAF LMML 080800Z 0809/0818 33013KT CAVOK
                      PROB30 TEMPO 0809/0818 9999 FEW020=
201106080500 TAF LMML 080500Z 0806/0815 33008KT 7000 FEW007=
201106080200 TAF LMML 080200Z 0803/0812 35005KT 7000 SCT004
                      TEMPO 0803/0806 3000 BKN004
                      BECMG 0806/0809 9000 SCT011=
201106072300 TAF LMML 072300Z 0800/0809 34005KT 8000 FEW005
                      PROB30 TEMPO 0800/0806 5000 BR BKN005=
201106072000 TAF LMML 072000Z 0721/0806 35005KT 7000 FEW005 BKN200
                      TEMPO 0721/0806 5000 BR BKN005=
201106071700 TAF LMML 071700Z 0718/0803 01006KT 8000 NSC
                      TEMPO 0718/0803 FEW007
                      PROB40 TEMPO 0718/0803 5000 HZ SCT005
                      PROB30 TEMPO 0720/0803 3000 BR BKN002=
201106071400 TAF LMML 071400Z 0715/0724 07006KT 8000 NSC
                      TEMPO 0715/0724 FEW007
                      PROB40 TEMPO 0715/0724 5000 HZ SCT005
                      PROB30 TEMPO 0717/0724 3000 HZ BKN005=
201106071100 TAF LMML 071100Z 0712/0721 04008KT 8000 NSC
                      TEMPO 0712/0721 FEW007
                      PROB30 TEMPO 0712/0715 CAVOK
                      PROB40 TEMPO 0714/0721 5000 HZ SCT005=
201106070800 TAF LMML 070800Z 0709/0718 13006KT 8000 NSC
                      TEMPO 0709/0718 5000 HZ FEW007
                      PROB30 TEMPO 0709/0718 CAVOK=
201106070500 TAF LMML 070500Z 0706/0715 09010KT 5000 HZ FEW005
                      BECMG 0706/0709 9000
                      PROB30 TEMPO 0709/0715 CAVOK=
201106070200 TAF LMML 070200Z 0703/0712 09010KT 5000 BR FEW005
                      PROB30 TEMPO 0703/0706 BKN005
                      BECMG 0706/0709 9000=
201106062300 TAF LMML 062300Z 0700/0709 09010KT 6000 FEW005
                      TEMPO 0700/0709 BKN005
                      TEMPO 0700/0707 4000 BR BKN003=
201106062000 TAF LMML 062000Z 0621/0706 09010KT 6000 SCT003
                      TEMPO 0621/0706 4000 BR BKN003=
201106061700 TAF LMML 061700Z 0618/0703 10011KT 7000 SCT006 SCT120
                      TEMPO 0618/0624 5000 BKN005=
201106061400 TAF LMML 061400Z 0615/0624 12012KT 9999 SCT007 BKN110
                      TEMPO 0615/0624 BKN005=
201106061100 TAF LMML 061100Z 0612/0621 10012KT 8000 FEW011 BKN100
                      PROB30 TEMPO 0612/0618 10014G24KT
                      PROB30 TEMPO 0618/0621 BKN007=
201106060800 TAF LMML 060800Z 0609/0618 09013KT 8000 SCT011 SCT090
                      PROB30 TEMPO 0609/0618 10014G24KT=
201106060500 TAF LMML 060500Z 0606/0615 08007KT 7000 BKN008
                      BECMG 0606/0609 9000 SCT013
                      BECMG 0612/0615 10017KT=
201106060200 TAF LMML 060200Z 0603/0612 08007KT 5000 BR BKN005
                      BECMG 0605/0608 9000 SCT010=
201106052300 TAF LMML 052300Z 0600/0609 35005KT 8000 SCT008
                      PROB40 TEMPO 0600/0608 4000 BR BKN005
                      BECMG 0604/0607 08010KT=
201106052000 TAF LMML 052000Z 0521/0606 35005KT 8000 SCT008
                      PROB40 TEMPO 0521/0606 4000 BR BKN005
                      BECMG 0603/0606 08010KT=
201106051700 TAF LMML 051700Z 0518/0603 30005KT 8000 SCT018
                      PROB30 TEMPO 0520/0603 5000 DU BKN005=
201106051400 TAF LMML 051400Z 0515/0524 18005KT 6000 SCT013
                      TEMPO 0515/0521 30010KT
                      PROB40 TEMPO 0518/0520 BKN008
                      PROB30 TEMPO 0520/0524 5000 BR NSC=
201106051100 TAF LMML 051100Z 0512/0521 17006KT 8000 BKN011
                      PROB30 TEMPO 0512/0521 BKN008
                      BECMG 0513/0516 30015KT=
201106050800 TAF LMML 050800Z 0509/0518 13008KT 7000 SCT010
                      PROB40 TEMPO 0509/0518 BKN013
                      BECMG 0512/0515 30010KT=
201106050500 TAF LMML 050500Z 0506/0515 09012KT 7000 SCT008
                      PROB30 TEMPO 0506/0509 5000 BR BKN005
                      BECMG 0509/0512 VRB06KT 9999
                      PROB40 TEMPO 0509/0515 9000 BKN015=
201106050200 TAF LMML 050200Z 0503/0512 06014KT 6000 SCT005
                      TEMPO 0503/0507 5000 BR BKN005
                      PROB30 TEMPO 0503/0506 3000 BR BKN002
                      BECMG 0507/0509 BKN010
                      TEMPO 0509/0512 9999 SCT013=
201106042300 TAF LMML 042300Z 0500/0509 07015KT 7000 SCT006
                      TEMPO 0500/0507 5000 BR BKN005
                      PROB30 TEMPO 0500/0506 3000 BR BKN002
                      TEMPO 0507/0509 BKN010=
201106042000 TAF LMML 042000Z 0421/0506 07014KT 8000 FEW007
                      TEMPO 0421/0506 5000 BR BKN005
                      PROB30 TEMPO 0421/0506 3000 BR BKN002=
201106041700 TAF LMML 041700Z 0418/0503 07015KT 8000 FEW015
                      TEMPO 0418/0503 BKN008
                      PROB30 TEMPO 0421/0503 5000 BR BKN003=
201106041400 TAF LMML 041400Z 0415/0424 08017KT 9999 FEW015
                      PROB40 TEMPO 0418/0424 7000 BKN008=
201106041100 TAF LMML 041100Z 0412/0421 07017KT 9999 FEW015
                      PROB40 TEMPO 0418/0421 8000 BKN008=
201106040800 TAF LMML 040800Z 0409/0418 06018KT 9000 SCT012
                      BECMG 0409/0411 9999=
201106040500 TAF LMML 040500Z 0406/0415 07016KT 9000 BKN005
                      TEMPO 0406/0409 5000 BR BKN003
                      TEMPO 0409/0415 07014G24KT 9999 BKN012=
201106040200 TAF LMML 040200Z 0403/0412 07017KT 8000 BKN008
                      PROB40 TEMPO 0403/0406 5000 BR BKN005
                      TEMPO 0406/0412 07017G27KT 9999 BKN015=
201106032300 TAF LMML 032300Z 0400/0409 07016KT 7000 SCT006
                      TEMPO 0400/0409 BKN005
                      PROB40 TEMPO 0400/0406 5000 BR
                      TEMPO 0406/0409 9999 BKN010=
201106032000 TAF LMML 032000Z 0321/0406 07015KT 8000 SCT006
                      TEMPO 0321/0406 BKN005
                      PROB40 TEMPO 0321/0406 5000 BR=
201106031700 TAF LMML 031700Z 0318/0403 06016KT 9999 SCT012
                      TEMPO 0318/0403 8000 BKN008
                      PROB30 TEMPO 0318/0403 07016G26KT 5000 BR
                       BKN005=
201106031400 TAF LMML 031400Z 0315/0324 06017KT 9999 SCT013
                      TEMPO 0315/0324 07017G27KT 9000 BKN010
                      PROB30 TEMPO 0317/0324 5000 BR BKN005=
201106031100 TAF LMML 031100Z 0312/0321 06017KT 9999 SCT012
                      TEMPO 0312/0321 07017G27KT 9000 BKN010
                      PROB30 TEMPO 0317/0321 5000 BR BKN005=
201106030800 TAF LMML 030800Z 0309/0318 06015KT 9000 BKN009
                      BECMG 0309/0311 9999 SCT013
                      PROB30 TEMPO 0309/0318 07017G27KT 9000 BKN012=
201106030500 TAF LMML 030500Z 0306/0315 05012KT 8000 BKN008
                      BECMG 0307/0310 06013G23KT BKN012=
201106030200 TAF LMML 030200Z 0303/0312 04010KT 5000 BKN005
                      BECMG 0307/0310 04015G25KT 9999 BKN012=
201106022300 TAF LMML 022300Z 0300/0309 04010KT 8000 SCT006
                      TEMPO 0300/0306 BKN005
                      BECMG 0306/0309 04012G22KT 9999 BKN012=
201106022000 TAF LMML 022000Z 0221/0306 05012KT CAVOK
                      TEMPO 0221/0306 6000 RA BKN006 BKN100=
201106021700 TAF LMML 021700Z 0218/0303 08012KT 9999 FEW012
                      PROB40 TEMPO 0220/0303 6000 BKN006
                      PROB30 TEMPO 0300/0303 5000 TSRA BKN005 BKN080CB=
201106021400 TAF LMML 021400Z 0215/0224 08012KT 9999 FEW011
                      PROB40 TEMPO 0215/0224 8000 BKN005=
201106021100 TAF LMML 021100Z 0212/0221 08012KT 9999 FEW005
                      TEMPO 0212/0221 6000 BKN005
                      PROB30 TEMPO 0212/0215 5000 BKN003 TSRA BKN080CB=
201106020800 TAF LMML 020800Z 0209/0218 07010KT 9999 FEW012
                      TEMPO 0209/0218 8000 RA BKN008
                      PROB30 TEMPO 0209/0218 5000 TSRA BKN080CB=
201106020500 TAF LMML 020500Z 0206/0215 05010KT 9999 FEW015 SCT070
                      PROB40 TEMPO 0206/0215 8000 RA BKN015
                      PROB30 TEMPO 0206/0212 5000 TSRA BKN008 BKN015CB=
201106020200 TAF LMML 020200Z 0203/0212 05010KT 9999 FEW015 SCT070
                      PROB40 TEMPO 0203/0212 8000 RA BKN015
                      PROB30 TEMPO 0203/0209 5000 TSRA BKN010 BKN015CB=
201106012300 TAF LMML 012300Z 0200/0209 03007KT 9999 FEW015 SCT070
                      PROB40 TEMPO 0200/0209 8000 RA BKN015
                      PROB30 TEMPO 0200/0209 5000 TSRA BKN010 BKN015CB=
201106012000 TAF LMML 012000Z 0121/0206 05007KT 9999 FEW015 SCT070
                      PROB40 TEMPO 8000 RA BKN015=
201106011700 TAF LMML 011700Z 0118/0203 01005KT 9999 SCT016 BKN120
                      TEMPO 0118/0203 8000 RA SCT005 BKN013=
201106011400 TAF LMML 011400Z 0115/0124 VRB05KT 9999 FEW015 BKN120
                      TEMPO 0115/0124 8000 RA
                      PROB30 TEMPO 0121/0124 BKN006=
201106011100 TAF LMML 011100Z 0112/0121 27005KT 9999 FEW020 BKN120
                      PROB30 TEMPO 0112/0121 8000 RA=
201106010800 TAF LMML 010800Z 0109/0118 VRB05KT 9999 FEW012 BKN120
                      PROB30 TEMPO 0115/0118 8000 RA=
201106010500 TAF LMML 010500Z 0106/0115 VRB06KT 9000 BKN010 SCT120
                      BECMG 0106/0109 9999 SCT015 BKN120
                      TEMPO 0106/0115 8000 RA BKN015 BKN100
                      PROB30 TEMPO 0106/0115 5000 TSRA BKN010 BKN060CB=
201106010200 TAF LMML 010200Z 0103/0112 VRB04KT 9999 FEW012 SCT120
                      TEMPO 0103/0112 9000 BKN010 BKN100
                      PROB40 TEMPO 0103/0106 5000 BR BKN005 BKN100
                       PROB30
                      TEMPO 0103/0112 3000 TSRA BKN015 BKN060CB=

###################################
#  large TAF from LMML
###################################
201107012300 TAF LMML NIL=
201107011700 TAF LMML NIL=
201107011100 TAF LMML NIL=
201107010500 TAF LMML NIL=
201106302300 TAF LMML NIL=
201106301700 TAF LMML NIL=
201106301100 TAF LMML NIL=
201106300500 TAF LMML NIL=
201106292300 TAF LMML NIL=
201106291700 TAF LMML NIL=
201106291100 TAF LMML NIL=
201106290500 TAF LMML NIL=
201106282300 TAF LMML NIL=
201106281700 TAF LMML NIL=
201106281100 TAF LMML NIL=
201106280500 TAF LMML NIL=
201106272300 TAF LMML NIL=
201106271700 TAF LMML NIL=
201106271100 TAF LMML NIL=
201106270500 TAF LMML NIL=
201106262300 TAF LMML NIL=
201106261700 TAF LMML NIL=
201106261100 TAF LMML NIL=
201106260500 TAF LMML NIL=
201106252300 TAF LMML NIL=
201106251700 TAF LMML NIL=
201106251100 TAF LMML NIL=
201106250500 TAF LMML NIL=
201106242300 TAF LMML NIL=
201106241700 TAF LMML NIL=
201106241100 TAF LMML NIL=
201106240500 TAF LMML NIL=
201106232300 TAF LMML NIL=
201106231700 TAF LMML NIL=
201106231100 TAF LMML NIL=
201106230500 TAF LMML NIL=
201106222300 TAF LMML NIL=
201106221700 TAF LMML NIL=
201106221100 TAF LMML NIL=
201106220500 TAF LMML NIL=
201106212300 TAF LMML NIL=
201106211700 TAF LMML NIL=
201106211100 TAF LMML NIL=
201106210500 TAF LMML NIL=
201106202300 TAF LMML NIL=
201106201700 TAF LMML NIL=
201106201100 TAF LMML NIL=
201106200500 TAF LMML NIL=
201106192300 TAF LMML NIL=
201106191700 TAF LMML NIL=
201106191100 TAF LMML NIL=
201106190500 TAF LMML NIL=
201106182300 TAF LMML NIL=
201106181700 TAF LMML NIL=
201106181100 TAF LMML NIL=
201106180500 TAF LMML NIL=
201106172300 TAF LMML NIL=
201106171700 TAF LMML NIL=
201106171100 TAF LMML NIL=
201106170500 TAF LMML NIL=
201106162300 TAF LMML NIL=
201106161700 TAF LMML NIL=
201106161100 TAF LMML NIL=
201106160500 TAF LMML NIL=
201106152300 TAF LMML NIL=
201106151700 TAF LMML NIL=
201106151100 TAF LMML NIL=
201106150500 TAF LMML NIL=
201106142300 TAF LMML NIL=
201106141700 TAF LMML NIL=
201106141100 TAF LMML NIL=
201106140500 TAF LMML NIL=
201106132300 TAF LMML NIL=
201106131700 TAF LMML NIL=
201106131100 TAF LMML NIL=
201106130500 TAF LMML NIL=
201106122300 TAF LMML NIL=
201106121700 TAF LMML NIL=
201106121100 TAF LMML NIL=
201106120500 TAF LMML NIL=
201106112300 TAF LMML NIL=
201106111700 TAF LMML NIL=
201106111100 TAF LMML NIL=
201106110500 TAF LMML NIL=
201106102300 TAF LMML NIL=
201106101700 TAF LMML NIL=
201106101100 TAF LMML NIL=
201106100500 TAF LMML NIL=
201106092300 TAF LMML NIL=
201106091700 TAF LMML NIL=
201106091100 TAF LMML NIL=
201106090500 TAF LMML NIL=
201106082300 TAF LMML NIL=
201106081700 TAF LMML NIL=
201106081100 TAF LMML NIL=
201106080500 TAF LMML NIL=
201106072300 TAF LMML NIL=
201106071700 TAF LMML NIL=
201106071100 TAF LMML NIL=
201106070500 TAF LMML NIL=
201106062300 TAF LMML NIL=
201106061700 TAF LMML NIL=
201106061100 TAF LMML NIL=
201106060500 TAF LMML NIL=
201106052300 TAF LMML NIL=
201106051700 TAF LMML NIL=
201106051100 TAF LMML NIL=
201106050500 TAF LMML NIL=
201106042300 TAF LMML NIL=
201106041700 TAF LMML NIL=
201106041100 TAF LMML NIL=
201106040500 TAF LMML NIL=
201106032300 TAF LMML NIL=
201106031700 TAF LMML NIL=
201106031100 TAF LMML NIL=
201106030500 TAF LMML NIL=
201106022300 TAF LMML NIL=
201106021700 TAF LMML NIL=
201106021100 TAF LMML NIL=
201106020500 TAF LMML NIL=
201106012300 TAF LMML NIL=
201106011700 TAF LMML NIL=
201106011100 TAF LMML NIL=
201106010500 TAF LMML NIL=
