##########################################################
# Query made at 01/18/2013 16:58:53 UTC
# Time interval: from 06/01/2008 00:00  to 07/01/2008 23:59  UTC
##########################################################

##########################################################
# LMML, Luqa (Malta)
# WMO index: 16597
# Latitude 35-51N. Longitude 014-29E. Altitude 91 m.
##########################################################

###################################
#  METAR/SPECI from LMML
###################################
200807012345 METAR LMML 012345Z VRB03KT CAVOK 24/14 Q1014 NOSIG=
200807012330 METAR LMML NIL=
200807012315 METAR LMML 012315Z VRB01KT CAVOK 24/14 Q1014 NOSIG=
200807012300 METAR LMML NIL=
200807012245 METAR LMML 012245Z 00000KT CAVOK 24/17 Q1014 NOSIG=
200807012230 METAR LMML NIL=
200807012215 METAR LMML 012215Z VRB01KT CAVOK 24/17 Q1014 NOSIG=
200807012200 METAR LMML NIL=
200807012145 METAR LMML 012145Z VRB02KT CAVOK 24/18 Q1014 NOSIG=
200807012130 METAR LMML NIL=
200807012115 METAR LMML 012115Z VRB01KT CAVOK 25/20 Q1015 NOSIG=
200807012100 METAR LMML NIL=
200807012045 METAR LMML 012045Z VRB02KT CAVOK 25/20 Q1015 NOSIG=
200807012030 METAR LMML NIL=
200807012015 METAR LMML 012015Z VRB02KT CAVOK 26/20 Q1014 NOSIG=
200807012000 METAR LMML NIL=
200807011945 METAR LMML 011945Z VRB02KT CAVOK 25/21 Q1014 NOSIG=
200807011930 METAR LMML NIL=
200807011915 METAR LMML 011915Z VRB02KT CAVOK 26/21 Q1014 NOSIG=
200807011900 METAR LMML NIL=
200807011845 METAR LMML 011845Z VRB03KT CAVOK 26/22 Q1013 NOSIG=
200807011815 METAR LMML 011815Z 35008KT 320V020 CAVOK 28/21 Q1013 NOSIG=
200807011800 METAR LMML NIL=
200807011745 METAR LMML 011745Z 34005KT CAVOK 30/12 Q1013 NOSIG=
200807011730 METAR LMML NIL=
200807011715 METAR LMML 011715Z 33005KT 300V360 CAVOK 30/15 Q1013 NOSIG=
200807011700 METAR LMML NIL=
200807011645 METAR LMML 011645Z 02006KT CAVOK 30/19 Q1013 NOSIG=
200807011630 METAR LMML NIL=
200807011615 METAR LMML 011615Z 03007KT 360V060 CAVOK 31/19 Q1013 NOSIG=
200807011600 METAR LMML NIL=
200807011545 METAR LMML 011545Z 04008KT 010V090 CAVOK 30/20 Q1013 NOSIG=
200807011530 METAR LMML NIL=
200807011515 METAR LMML 011515Z 04006KT 340V070 CAVOK 32/19 Q1013 NOSIG=
200807011500 METAR LMML NIL=
200807011445 METAR LMML 011445Z 03005KT 350V060 CAVOK 33/16 Q1014 NOSIG=
200807011430 METAR LMML NIL=
200807011415 METAR LMML 011415Z VRB02KT CAVOK 32/13 Q1014 NOSIG=
200807011400 METAR LMML NIL=
200807011345 METAR LMML 011345Z 21005KT 170V270 CAVOK 31/12 Q1014 NOSIG=
200807011330 METAR LMML NIL=
200807011315 METAR LMML 011315Z 20006KT 150V280 CAVOK 30/12 Q1014 NOSIG=
200807011300 METAR LMML NIL=
200807011245 METAR LMML 011245Z 20006KT 160V270 CAVOK 30/14 Q1014 NOSIG=
200807011230 METAR LMML NIL=
200807011215 METAR LMML 011215Z 19008KT 150V240 CAVOK 30/15 Q1015 NOSIG=
200807011200 METAR LMML NIL=
200807011145 LMML 011145Z VRB03KT CAVOK 33/12 Q1015 NOSIG=
200807011130 METAR LMML NIL=
200807011115 METAR LMML 011115Z 23006KT 170V310 CAVOK 31/12 Q1015 NOSIG=
200807011100 METAR LMML NIL=
200807011045 METAR LMML 011045Z VRB03KT CAVOK 32/15 Q1015 NOSIG=
200807011030 METAR LMML NIL=
200807011015 METAR LMML 011015Z 19005KT 140V340 CAVOK 31/12 Q1015 NOSIG=
200807011000 METAR LMML NIL=
200807010945 METAR LMML 010945Z 20005KT 140V270 CAVOK 32/11 Q1015 NOSIG=
200807010930 METAR LMML NIL=
200807010915 METAR LMML 010915Z 22004KT 150V280 CAVOK 31/12 Q1015 NOSIG=
200807010900 METAR LMML NIL=
200807010845 METAR LMML 010845Z 20006KT 170V260 CAVOK 30/13 Q1015 NOSIG=
200807010830 METAR LMML NIL=
200807010815 METAR LMML 010815Z VRB03KT CAVOK 31/11 Q1015 NOSIG=
200807010800 METAR LMML NIL=
200807010745 METAR LMML 010745Z VRB03KT CAVOK 30/11 Q1015 NOSIG=
200807010730 METAR LMML NIL=
200807010715 METAR LMML 010715Z VRB02KT CAVOK 29/12 Q1015 NOSIG=
200807010700 METAR LMML NIL=
200807010645 METAR LMML 010645Z VRB01KT CAVOK 28/11 Q1015 NOSIG=
200807010630 METAR LMML NIL=
200807010615 METAR LMML 010615Z VRB02KT CAVOK 27/13 Q1015 NOSIG=
200807010545 METAR LMML 010545Z VRB02KT CAVOK 26/14 Q1015 NOSIG=
200807010530 METAR LMML NIL=
200807010515 METAR LMML 010515Z VRB03KT CAVOK 25/12 Q1015 NOSIG=
200807010500 METAR LMML NIL=
200807010445 METAR LMML 010445Z 30004KT CAVOK 24/12 Q1014 NOSIG=
200807010430 METAR LMML NIL=
200807010415 METAR LMML 010415Z VRB03KT CAVOK 24/12 Q1014 NOSIG=
200807010345 METAR LMML 010345Z VRB02KT CAVOK 23/13 Q1014 NOSIG=
200807010330 METAR LMML NIL=
200807010315 METAR LMML 010315Z VRB03KT CAVOK 23/13 Q1014 NOSIG=
200807010300 METAR LMML NIL=
200807010245 METAR LMML 010245Z VRB02KT CAVOK 23/14 Q1014 NOSIG=
200807010230 METAR LMML NIL=
200807010215 METAR LMML 010215Z VRB03KT CAVOK 24/13 Q1014 NOSIG=
200807010200 METAR LMML NIL=
200807010145 METAR LMML 010145Z VRB03KT CAVOK 23/15 Q1014 NOSIG=
200807010130 METAR LMML NIL=
200807010115 METAR LMML 010115Z VRB03KT CAVOK 24/16 Q1015 NOSIG=
200807010100 METAR LMML NIL=
200807010045 METAR LMML 010045Z VRB02KT CAVOK 24/15 Q1015 NOSIG=
200807010030 METAR LMML NIL=
200807010015 METAR LMML 010015Z 21004KT CAVOK 25/14 Q1015 NOSIG=
200807010000 METAR LMML NIL=
200806302345 METAR LMML 302345Z 23004KT CAVOK 24/16 Q1015 NOSIG=
200806302330 METAR LMML NIL=
200806302315 METAR LMML 302315Z VRB02KT CAVOK 24/17 Q1016 NOSIG=
200806302245 METAR LMML 302245Z VRB02KT CAVOK 24/18 Q1016 NOSIG=
200806302215 METAR LMML 302215Z VRB02KT CAVOK 25/16 Q1016 NOSIG=
200806302200 METAR LMML NIL=
200806302145 METAR LMML 302145Z VRB03KT CAVOK 25/14 Q1016 NOSIG=
200806302115 METAR LMML 302115Z VRB03KT CAVOK 25/18 Q1016 NOSIG=
200806302100 METAR LMML NIL=
200806302045 METAR LMML 302045Z 30004KT CAVOK 25/21 Q1016 NOSIG=
200806302015 METAR LMML 302015Z VRB03KT CAVOK 25/21 Q1016 NOSIG=
200806302000 LMML NIL=
200806301945 METAR LMML 301945Z VRB03KT CAVOK 25/21 Q1016 NOSIG=
200806301915 METAR LMML 301915Z 36006KT CAVOK 26/21 Q1016 NOSIG=
200806301900 METAR LMML NIL=
200806301845 METAR LMML 301845Z VRB02KT CAVOK 27/20 Q1016 NOSIG=
200806301830 METAR LMML NIL=
200806301815 METAR LMML 301815Z VRB02KT CAVOK 27/19 Q1016 NOSIG=
200806301800 METAR LMML NIL=
200806301745 METAR LMML 301745Z VRB02KT CAVOK 27/19 Q1016 NOSIG=
200806301730 METAR LMML NIL=
200806301715 METAR LMML 301715Z 21004KT 170V260 CAVOK 28/20 Q1016 NOSIG=
200806301645 METAR LMML 301645Z 21005KT 170V250 CAVOK 28/20 Q1015 NOSIG=
200806301630 METAR LMML NIL=
200806301615 METAR LMML 301615Z VRB03KT CAVOK 31/14 Q1015 NOSIG=
200806301600 METAR LMML NIL=
200806301545 METAR LMML 301545Z 04004KT 350V090 CAVOK 31/15 Q1015 NOSIG=
200806301530 METAR LMML NIL=
200806301515 METAR LMML 301515Z 02005KT 340V090 CAVOK 32/15 Q1015 NOSIG=
200806301500 METAR LMML NIL=
200806301445 METAR LMML 301445Z 04007KT 360V070 CAVOK 32/15 Q1015 NOSIG=
200806301430 METAR LMML NIL=
200806301415 METAR LMML 301415Z 02006KT CAVOK 32/14 Q1015 NOSIG=
200806301400 METAR LMML NIL=
200806301345 METAR LMML 301345Z 03007KT 360V080 CAVOK 32/14 Q1016 NOSIG=
200806301330 METAR LMML NIL=
200806301315 METAR LMML 301315Z 01007KT 350V050 CAVOK 33/15 Q1016 NOSIG=
200806301300 METAR LMML NIL=
200806301245 METAR LMML 301245Z VRB03KT CAVOK 32/16 Q1016 NOSIG=
200806301230 METAR LMML NIL=
200806301215 METAR LMML 301215Z 20007KT 170V260 CAVOK 31/16 Q1016 NOSIG=
200806301200 METAR LMML NIL=
200806301145 METAR LMML 301145Z 18005KT 140V220 CAVOK 31/15 Q1017 NOSIG=
200806301130 METAR LMML NIL=
200806301115 METAR LMML 301115Z 21004KT 170V290 CAVOK 31/16 Q1017 NOSIG=
200806301100 METAR LMML NIL=
200806301045 METAR LMML 301045Z 20007KT 150V270 CAVOK 30/17 Q1018 NOSIG=
200806301030 METAR LMML NIL=
200806301015 METAR LMML 301015Z 19007KT 150V220 CAVOK 30/17 Q1018 NOSIG=
200806301000 METAR LMML NIL=
200806300945 METAR LMML 300945Z 34004KT 270V030 CAVOK 31/13 Q1018 NOSIG=
200806300915 METAR LMML 300915Z VRB03KT CAVOK 31/13 Q1018 NOSIG=
200806300900 METAR LMML NIL=
200806300845 METAR LMML 300845Z 01005KT 330V050 CAVOK 30/13 Q1017 NOSIG=
200806300830 METAR LMML NIL=
200806300815 METAR LMML 300815Z 02005KT 320V080 CAVOK 30/14 Q1017 NOSIG=
200806300800 METAR LMML NIL=
200806300745 METAR LMML 300745Z 34005KT 300V040 CAVOK 29/14 Q1017 NOSIG=
200806300730 METAR LMML NIL=
200806300715 METAR LMML 300715Z 35005KT 300V040 CAVOK 29/14 Q1017 NOSIG=
200806300700 METAR LMML NIL=
200806300645 METAR LMML 300645Z 33005KT CAVOK 28/15 Q1017 NOSIG=
200806300630 METAR LMML NIL=
200806300615 METAR LMML 300615Z 33004KT 290V350 CAVOK 27/18 Q1017 NOSIG=
200806300600 METAR LMML NIL=
200806300545 METAR LMML 300545Z 33004KT 300V360 CAVOK 25/18 Q1017 NOSIG=
200806300530 METAR LMML NIL=
200806300515 METAR LMML 300515Z 30004KT CAVOK 24/19 Q1017 NOSIG=
200806300500 METAR LMML NIL=
200806300445 METAR LMML 300445Z VRB03KT 9000 SKC 23/19 Q1017 NOSIG=
200806300430 METAR LMML NIL=
200806300415 METAR LMML 300415Z 32005KT 9000 SKC 23/19 Q1016 NOSIG=
200806300400 METAR LMML NIL=
200806300345 METAR LMML 300345Z 31004KT 9000 SKC 23/19 Q1016 NOSIG=
200806300330 METAR LMML NIL=
200806300315 METAR LMML 300315Z 32004KT CAVOK 23/20 Q1016 NOSIG=
200806300300 METAR LMML NIL=
200806300245 METAR LMML 300245Z 31004KT CAVOK 23/20 Q1016 NOSIG=
200806300215 METAR LMML 300215Z 32004KT CAVOK 23/21 Q1016 NOSIG=
200806300200 METAR LMML NIL=
200806300145 METAR LMML 300145Z 32004KT CAVOK 23/21 Q1016 NOSIG=
200806300130 METAR LMML NIL=
200806300115 METAR LMML 300115Z 32004KT CAVOK 23/18 Q1016 NOSIG=
200806300100 METAR LMML NIL=
200806300045 METAR LMML 300045Z VRB03KT CAVOK 23/19 Q1016 NOSIG=
200806300015 METAR LMML 300015Z VRB02KT CAVOK 23/20 Q1016 NOSIG=
200806300000 METAR LMML NIL=
200806292345 METAR LMML 292345Z VRB01KT CAVOK 24/20 Q1017 NOSIG=
200806292330 METAR LMML NIL=
200806292315 METAR LMML 292315Z VRB02KT CAVOK 24/20 Q1017 NOSIG=
200806292300 METAR LMML NIL=
200806292245 METAR LMML 292245Z VRB02KT CAVOK 24/20 Q1017 NOSIG=
200806292230 METAR LMML NIL=
200806292215 METAR LMML 292215Z 32004KT 290V360 CAVOK 24/20 Q1017 NOSIG=
200806292200 METAR LMML NIL=
200806292145 METAR LMML 292145Z 31004KT 280V010 CAVOK 25/20 Q1017 NOSIG=
200806292130 METAR LMML NIL=
200806292115 METAR LMML 292115Z 31004KT CAVOK 25/20 Q1018 NOSIG=
200806292100 METAR LMML NIL=
200806292045 METAR LMML 292045Z 32004KT CAVOK 25/20 Q1018 NOSIG=
200806292030 METAR LMML NIL=
200806292015 METAR LMML 292015Z VRB03KT CAVOK 25/19 Q1017 NOSIG=
200806292000 METAR LMML NIL=
200806291945 METAR LMML 291945Z VRB01KT CAVOK 26/19 Q1018 NOSIG=
200806291930 METAR LMML NIL=
200806291915 METAR LMML 291915Z VRB02KT CAVOK 26/19 Q1017 NOSIG=
200806291900 METAR LMML NIL=
200806291845 METAR LMML 291845Z VRB03KT CAVOK 26/19 Q1017 NOSIG=
200806291815 METAR LMML 291815Z 02004KT 360V060 CAVOK 27/15 Q1017 NOSIG=
200806291800 METAR LMML NIL=
200806291745 METAR LMML 291745Z VRB03KT CAVOK 28/17 Q1017 NOSIG=
200806291730 METAR LMML NIL=
200806291715 METAR LMML 291715Z VRB03KT CAVOK 29/16 Q1016 NOSIG=
200806291700 METAR LMML NIL=
200806291645 METAR LMML 291645Z 06004KT 360V150 CAVOK 29/14 Q1016 NOSIG=
200806291630 METAR LMML NIL=
200806291615 METAR LMML 291615Z 02006KT CAVOK 30/15 Q1017 NOSIG=
200806291600 METAR LMML NIL=
200806291545 METAR LMML 291545Z VRB03KT CAVOK 31/14 Q1016 NOSIG=
200806291530 METAR LMML NIL=
200806291515 METAR LMML 291515Z 02004KT 350V070 CAVOK 31/14 Q1017 NOSIG=
200806291500 METAR LMML NIL=
200806291445 METAR LMML 291445Z 02005KT 340V070 CAVOK 31/15 Q1017 NOSIG=
200806291430 METAR LMML NIL=
200806291415 METAR LMML 291415Z 03007KT 360V060 CAVOK 31/15 Q1016 NOSIG=
200806291345 METAR LMML 291345Z 02006KT 350V080 CAVOK 32/16 Q1017 NOSIG=
200806291330 METAR LMML NIL=
200806291315 METAR LMML 291315Z 04006KT 350V080 CAVOK 31/15 Q1017 NOSIG=
200806291300 METAR LMML NIL=
200806291245 METAR LMML 291245Z 03005KT 350V080 CAVOK 32/16 Q1017 NOSIG=
200806291230 METAR LMML NIL=
200806291215 METAR LMML 291215Z 02007KT 350V090 CAVOK 31/16 Q1017 NOSIG=
200806291200 METAR LMML NIL=
200806291145 METAR LMML 291145Z 05007KT 360V110 CAVOK 31/16 Q1017 NOSIG=
200806291115 METAR LMML 291115Z 05008KT 010V110 CAVOK 31/14 Q1017 NOSIG=
200806291100 METAR LMML NIL=
200806291045 METAR LMML 291045Z 10006KT 050V170 CAVOK 31/14 Q1017 NOSIG=
200806291030 METAR LMML NIL=
200806291015 METAR LMML 291015Z 09007KT 050V130 CAVOK 30/14 Q1017 NOSIG=
200806290945 METAR LMML 290945Z 09005KT 010V140 CAVOK 30/16 Q1017 NOSIG=
200806290930 METAR LMML NIL=
200806290915 METAR LMML 290915Z 06005KT 350V130 CAVOK 30/18 Q1017 NOSIG=
200806290900 METAR LMML NIL=
200806290845 METAR LMML 290845Z 02004KT 320V150 CAVOK 29/19 Q1017 NOSIG=
200806290830 METAR LMML NIL=
200806290815 METAR LMML 290815Z 04004KT 360V090 CAVOK 29/18 Q1017 NOSIG=
200806290800 METAR LMML NIL=
200806290745 METAR LMML 290745Z VRB03KT CAVOK 28/20 Q1017 BECMG CAVOK=
200806290733 LMML 290733Z 03004KT 190V080 9000 SKC 28/20 Q1017 BECMG CAVOK=
200806290730 METAR LMML NIL=
200806290715 METAR LMML 290715Z 03005KT 010V080 8000 SKC 27/21 Q1017 BECMG
                        CAVOK=
200806290700 METAR LMML NIL=
200806290645 METAR LMML 290645Z 03004KT 360V080 8000 FEW006 26/23 Q1017
                        BECMG CAVOK=
200806290615 METAR LMML 290615Z 02004KT 350V050 7000 FEW006 25/21 Q1017
                        BECMG CAVOK=
200806290600 METAR LMML NIL=
200806290545 METAR LMML 290545Z 01005KT 7000 FEW006 25/21 Q1016 BECMG
                        CAVOK=
200806290530 METAR LMML NIL=
200806290515 METAR LMML 290515Z 36005KT 7000 FEW120 24/21 Q1016 BECMG
                        CAVOK=
200806290500 METAR LMML NIL=
200806290445 METAR LMML 290445Z 35004KT 7000 FEW120 23/22 Q1016 BECMG
                        CAVOK=
200806290430 METAR LMML NIL=
200806290415 METAR LMML 290415Z VRB03KT 7000 SCT120 22/21 Q1016 BECMG
                        CAVOK=
200806290400 METAR LMML NIL=
200806290345 METAR LMML 290345Z 32004KT 7000 FEW120 22/21 Q1015 NOSIG=
200806290330 METAR LMML NIL=
200806290315 METAR LMML 290315Z 32004KT 9000 FEW120 22/21 Q1015 NOSIG=
200806290300 METAR LMML NIL=
200806290245 METAR LMML 290245Z 30004KT 9000 FEW130 22/21 Q1015 NOSIG=
200806290230 METAR LMML NIL=
200806290215 METAR LMML 290215Z 30004KT 9000 FEW120 22/20 Q1015 NOSIG=
200806290200 METAR LMML NIL=
200806290145 METAR LMML 290145Z VRB03KT CAVOK 22/20 Q1015 NOSIG=
200806290130 METAR LMML NIL=
200806290115 METAR LMML 290115Z VRB02KT CAVOK 23/18 Q1015 NOSIG=
200806290100 METAR LMML NIL=
200806290045 METAR LMML 290045Z VRB03KT CAVOK 23/17 Q1015 NOSIG=
200806290030 METAR LMML NIL=
200806290015 METAR LMML 290015Z VRB03KT CAVOK 23/17 Q1015 NOSIG=
200806290000 METAR LMML NIL=
200806282345 METAR LMML 282345Z VRB01KT CAVOK 23/18 Q1015 NOSIG=
200806282330 METAR LMML NIL=
200806282315 METAR LMML 282315Z VRB01KT CAVOK 24/20 Q1016 NOSIG=
200806282300 METAR LMML NIL=
200806282245 METAR LMML 282245Z VRB02KT CAVOK 24/20 Q1016 NOSIG=
200806282230 METAR LMML NIL=
200806282215 METAR LMML 282215Z VRB02KT CAVOK 24/18 Q1016 NOSIG=
200806282200 METAR LMML NIL=
200806282145 METAR LMML 282145Z VRB02KT CAVOK 24/17 Q1016 NOSIG=
200806282130 METAR LMML NIL=
200806282115 METAR LMML 282115Z VRB02KT CAVOK 25/17 Q1016 NOSIG=
200806282100 METAR LMML NIL=
200806282045 METAR LMML 282045Z VRB01KT CAVOK 24/18 Q1016 NOSIG=
200806282030 METAR LMML NIL=
200806282015 METAR LMML 282015Z VRB02KT CAVOK 24/18 Q1016 NOSIG=
200806282000 METAR LMML NIL=
200806281945 METAR LMML 281945Z VRB02KT 9000 FEW090 25/18 Q1016 NOSIG=
200806281930 METAR LMML NIL=
200806281915 METAR LMML 281915Z VRB01KT 9000 FEW090 25/19 Q1015 NOSIG=
200806281900 METAR LMML NIL=
200806281845 METAR LMML 281845Z VRB03KT 9000 FEW100 SCT250 25/19 Q1015
                        NOSIG=
200806281830 METAR LMML NIL=
200806281815 METAR LMML 281815Z VRB01KT CAVOK 25/19 Q1015 NOSIG=
200806281800 METAR LMML NIL=
200806281745 METAR LMML 281745Z VRB02KT CAVOK 26/19 Q1015 NOSIG=
200806281730 METAR LMML NIL=
200806281715 METAR LMML 281715Z 33005KT 310V020 CAVOK 25/20 Q1015 NOSIG=
200806281700 METAR LMML NIL=
200806281645 METAR LMML 281645Z 35006KT 320V020 CAVOK 27/20 Q1015 NOSIG=
200806281615 METAR LMML 281615Z 36007KT 320V060 CAVOK 28/19 Q1015 NOSIG=
200806281600 METAR LMML NIL=
200806281545 METAR LMML 281545Z 34007KT 290V050 CAVOK 28/19 Q1014 NOSIG=
200806281530 METAR LMML NIL=
200806281515 METAR LMML 281515Z 35007KT 320V030 CAVOK 28/21 Q1014 NOSIG=
200806281500 METAR LMML NIL=
200806281445 METAR LMML 281445Z 01008KT 320V040 CAVOK 29/20 Q1015 NOSIG=
200806281415 METAR LMML 281415Z 04009KT 010V080 9999 FEW040 30/19 Q1015
                        NOSIG=
200806281345 METAR LMML 281345Z 04005KT 010V090 9999 FEW040 31/18 Q1014
                        NOSIG=
200806281330 METAR LMML NIL=
200806281315 METAR LMML 281315Z 06004KT 300V160 9999 FEW040 31/19 Q1014
                        NOSIG=
200806281300 METAR LMML NIL=
200806281245 METAR LMML 281245Z 05004KT 310V130 CAVOK 30/18 Q1014 NOSIG=
200806281230 METAR LMML NIL=
200806281215 METAR LMML 281215Z 36005KT 300V050 CAVOK 31/18 Q1014 NOSIG=
200806281200 METAR LMML NIL=
200806281145 METAR LMML 281145Z 08004KT CAVOK 31/18 Q1014 NOSIG=
200806281130 METAR LMML NIL=
200806281115 METAR LMML 281115Z VRB03KT 9999 FEW030 31/17 Q1014 NOSIG=
200806281100 METAR LMML NIL=
200806281045 METAR LMML 281045Z 02004KT CAVOK 31/16 Q1015 NOSIG=
200806281030 METAR LMML NIL=
200806281015 METAR LMML 281015Z 03006KT 360V060 CAVOK 30/16 Q1015 NOSIG=
200806281000 METAR LMML NIL=
200806280945 METAR LMML 280945Z 04005KT 340V130 CAVOK 30/16 Q1015 NOSIG=
200806280930 METAR LMML NIL=
200806280915 METAR LMML 280915Z 01006KT 340V060 CAVOK 30/17 Q1015 NOSIG=
200806280900 METAR LMML NIL=
200806280845 METAR LMML 280845Z 07005KT 350V120 CAVOK 29/18 Q1015 NOSIG=
200806280830 METAR LMML NIL=
200806280815 METAR LMML 280815Z 04005KT 360V090 CAVOK 29/18 Q1015 NOSIG=
200806280800 METAR LMML NIL=
200806280745 METAR LMML 280745Z 03005KT 340V070 CAVOK 28/19 Q1014 NOSIG=
200806280715 METAR LMML 280715Z 01004KT 320V060 CAVOK 27/19 Q1014 NOSIG=
200806280700 METAR LMML NIL=
200806280645 METAR LMML 280645Z 34004KT 290V010 9000 FEW012 26/20 Q1014
                        NOSIG=
200806280630 METAR LMML NIL=
200806280615 METAR LMML 280615Z 33004KT 280V360 9000 SKC 25/21 Q1014 NOSIG=
200806280600 METAR LMML NIL=
200806280545 METAR LMML 280545Z 32005KT 5000 BR SKC 23/22 Q1014 BECMG
                        8000=
200806280530 METAR LMML NIL=
200806280515 METAR LMML 280515Z 32007KT 5000 BR FEW005 23/23 Q1014 BECMG
                        8000=
200806280500 METAR LMML NIL=
200806280445 METAR LMML 280445Z 33006KT 5000 BR FEW005 22/22 Q1014 TEMPO
                        3000 BR=
200806280430 METAR LMML NIL=
200806280415 METAR LMML 280415Z 32005KT 5000 FEW006 22/22 Q1013 TEMPO
                        3000 BR=
200806280400 METAR LMML NIL=
200806280345 METAR LMML 280345Z 33006KT 6000 FEW006 22/22 Q1013 TEMPO
                        4000 BR=
200806280330 METAR LMML NIL=
200806280315 METAR LMML 280315Z 34007KT 6000 FEW006 22/22 Q1013 TEMPO
                        4000 BR=
200806280300 METAR LMML NIL=
200806280245 METAR LMML 280245Z 32006KT 6000 FEW012 22/22 Q1013 TEMPO
                        4000 BR=
200806280230 METAR LMML NIL=
200806280215 METAR LMML 280215Z 32004KT 8000 FEW012 22/22 Q1013 TEMPO
                        5000 BR=
200806280200 METAR LMML NIL=
200806280145 METAR LMML 280145Z VRB03KT 8000 SKC 22/22 Q1013 TEMPO 5000
                        BR SCT008=
200806280130 LMML NIL=
200806280115 METAR LMML 280115Z VRB02KT 8000 SKC 22/22 Q1013 NOSIG=
200806280045 METAR LMML 280045Z 28005KT 250V310 8000 SKC 23/22 Q1013 NOSIG=
200806280030 METAR LMML NIL=
200806280015 METAR LMML 280015Z 28005KT CAVOK 23/21 Q1013 NOSIG=
200806280000 METAR LMML NIL=
200806272345 METAR LMML 272345Z VRB03KT CAVOK 23/20 Q1013 NOSIG=
200806272330 METAR LMML NIL=
200806272315 METAR LMML 272315Z VRB03KT CAVOK 23/20 Q1013 NOSIG=
200806272300 METAR LMML NIL=
200806272245 METAR LMML 272245Z VRB03KT CAVOK 23/20 Q1013 NOSIG=
200806272230 METAR LMML NIL=
200806272215 METAR LMML 272215Z 34005KT 300V010 CAVOK 23/19 Q1014 NOSIG=
200806272200 METAR LMML NIL=
200806272145 METAR LMML 272145Z 32006KT CAVOK 23/19 Q1014 NOSIG=
200806272130 METAR LMML NIL=
200806272115 METAR LMML 272115Z 31005KT CAVOK 23/19 Q1014 NOSIG=
200806272100 METAR LMML NIL=
200806272045 METAR LMML 272045Z 30006KT CAVOK 23/19 Q1014 NOSIG=
200806272030 METAR LMML NIL=
200806272015 METAR LMML 272015Z 30005KT 260V330 CAVOK 23/19 Q1014 NOSIG=
200806272000 METAR LMML NIL=
200806271945 METAR LMML 271945Z 29004KT 260V320 CAVOK 23/19 Q1013 NOSIG=
200806271930 METAR LMML NIL=
200806271915 METAR LMML 271915Z 28005KT 240V300 CAVOK 24/19 Q1013 NOSIG=
200806271900 METAR LMML NIL=
200806271845 METAR LMML 271845Z 30004KT 260V330 CAVOK 24/19 Q1013 NOSIG=
200806271830 METAR LMML NIL=
200806271815 METAR LMML 271815Z 30006KT 270V330 CAVOK 24/19 Q1013 NOSIG=
200806271800 METAR LMML NIL=
200806271745 METAR LMML 271745Z 31009KT CAVOK 25/19 Q1013 NOSIG=
200806271730 METAR LMML NIL=
200806271715 METAR LMML 271715Z 30009KT 260V330 9999 FEW012 26/19 Q1013
                        NOSIG=
200806271700 METAR LMML NIL=
200806271645 METAR LMML 271645Z 31007KT 270V340 9999 FEW012 27/19 Q1013
                        NOSIG=
200806271615 METAR LMML 271615Z 31008KT 9999 FEW012 27/20 Q1013 NOSIG=
200806271600 METAR LMML NIL=
200806271545 METAR LMML 271545Z 33008KT 310V010 9999 FEW012 27/20 Q1013
                        NOSIG=
200806271530 METAR LMML NIL=
200806271515 METAR LMML 271515Z 31009KT 280V340 CAVOK 27/20 Q1013 NOSIG=
200806271500 LMML NIL=
200806271445 LMML 271445Z 32009KT 280V360 9999 FEW012 28/19 Q1014 NOSIG=
200806271430 METAR LMML NIL=
200806271415 METAR LMML 271415Z 30009KT 270V330 9999 FEW012 28/19 Q1014
                        NOSIG=
200806271400 METAR LMML NIL=
200806271345 METAR LMML 271345Z 31009KT 270V350 9999 FEW012 29/19 Q1014
                        NOSIG=
200806271330 METAR LMML NIL=
200806271315 METAR LMML 271315Z 30008KT 260V330 CAVOK 29/15 Q1014 NOSIG=
200806271230 METAR LMML NIL=
200806271215 METAR LMML 271215Z 29009KT 9999 FEW012 29/17 Q1014 NOSIG=
200806271200 METAR LMML NIL=
200806271145 METAR LMML 271145Z 32008KT 9999 FEW012 30/16 Q1014 NOSIG=
200806271130 METAR LMML NIL=
200806271115 METAR LMML 271115Z 32010KT 280V350 CAVOK 30/14 Q1014 NOSIG=
200806271100 METAR LMML NIL=
200806271045 METAR LMML 271045Z 29010KT 260V320 CAVOK 30/14 Q1014 NOSIG=
200806271030 METAR LMML NIL=
200806271015 METAR LMML 271015Z 32010KT CAVOK 30/12 Q1014 NOSIG=
200806271000 METAR LMML NIL=
200806270945 METAR LMML 270945Z 31009KT CAVOK 30/14 Q1014 NOSIG=
200806270930 METAR LMML NIL=
200806270915 METAR LMML 270915Z 31010KT 280V340 CAVOK 29/13 Q1014 NOSIG=
200806270900 METAR LMML NIL=
200806270845 METAR LMML 270845Z 33007KT 290V010 CAVOK 28/16 Q1014 NOSIG=
200806270830 METAR LMML NIL=
200806270815 METAR LMML 270815Z 32009KT CAVOK 28/19 Q1014 NOSIG=
200806270800 METAR LMML NIL=
200806270745 METAR LMML 270745Z 30009KT 270V330 CAVOK 27/20 Q1014 NOSIG=
200806270730 METAR LMML NIL=
200806270715 METAR LMML 270715Z 34004KT 290V010 9999 FEW012 28/18 Q1014
                        NOSIG=
200806270645 METAR LMML 270645Z 33005KT 290V350 9999 FEW012 27/18 Q1014
                        NOSIG=
200806270630 METAR LMML NIL=
200806270615 METAR LMML 270615Z 31005KT 280V340 9999 FEW012 25/20 Q1014
                        NOSIG=
200806270600 METAR LMML NIL=
200806270545 METAR LMML 270545Z 29004KT 260V320 9000 FEW012 SCT110 24/21
                        Q1014 NOSIG=
200806270530 METAR LMML NIL=
200806270515 METAR LMML 270515Z VRB03KT 9000 FEW012 SCT110 24/20 Q1014
                        NOSIG=
200806270500 METAR LMML NIL=
200806270445 METAR LMML 270445Z VRB03KT 9000 FEW012 SCT110 24/20 Q1014
                        NOSIG=
200806270430 METAR LMML NIL=
200806270415 METAR LMML 270415Z 29006KT 9000 FEW012 23/19 Q1013 NOSIG=
200806270400 METAR LMML NIL=
200806270345 METAR LMML 270345Z 28004KT 7000 FEW012 23/20 Q1013 NOSIG=
200806270330 METAR LMML NIL=
200806270315 METAR LMML 270315Z 29005KT 260V320 CAVOK 23/19 Q1013 NOSIG=
200806270300 METAR LMML NIL=
200806270245 METAR LMML 270245Z 27006KT 250V310 CAVOK 23/20 Q1013 NOSIG=
200806270230 METAR LMML NIL=
200806270215 METAR LMML 270215Z 28004KT 250V310 CAVOK 24/16 Q1013 NOSIG=
200806270200 METAR LMML NIL=
200806270145 METAR LMML 270145Z 27004KT 250V310 CAVOK 24/15 Q1013 NOSIG=
200806270130 METAR LMML NIL=
200806270115 METAR LMML 270115Z 29005KT 260V320 CAVOK 25/14 Q1014 NOSIG=
200806270100 METAR LMML NIL=
200806270045 METAR LMML 270045Z 28006KT CAVOK 24/15 Q1014 NOSIG=
200806270030 METAR LMML NIL=
200806270015 METAR LMML 270015Z 28006KT CAVOK 25/14 Q1014 NOSIG=
200806270000 METAR LMML NIL=
200806262345 METAR LMML 262345Z 28006KT CAVOK 26/11 Q1014 NOSIG=
200806262330 METAR LMML NIL=
200806262315 METAR LMML 262315Z 28005KT CAVOK 26/11 Q1014 NOSIG=
200806262300 METAR LMML NIL=
200806262245 METAR LMML 262245Z 28005KT CAVOK 26/12 Q1014 NOSIG=
200806262230 METAR LMML NIL=
200806262215 METAR LMML 262215Z VRB03KT CAVOK 25/13 Q1015 NOSIG=
200806262145 METAR LMML 262145Z VRB02KT CAVOK 24/14 Q1015 NOSIG=
200806262130 METAR LMML NIL=
200806262115 METAR LMML 262115Z VRB01KT CAVOK 24/15 Q1015 NOSIG=
200806262045 METAR LMML 262045Z VRB01KT CAVOK 25/14 Q1015 NOSIG=
200806262015 METAR LMML 262015Z VRB02KT CAVOK 25/16 Q1015 NOSIG=
200806262000 METAR LMML NIL=
200806261945 METAR LMML 261945Z VRB03KT CAVOK 25/16 Q1015 NOSIG=
200806261930 METAR LMML NIL=
200806261915 METAR LMML 261915Z VRB03KT CAVOK 25/18 Q1015 NOSIG=
200806261900 METAR LMML NIL=
200806261845 METAR LMML 261845Z 32004KT 290V350 CAVOK 26/18 Q1015 NOSIG=
200806261830 METAR LMML NIL=
200806261815 METAR LMML 261815Z 31004KT CAVOK 26/18 Q1015 NOSIG=
200806261800 METAR LMML NIL=
200806261745 METAR LMML 261745Z 31005KT CAVOK 28/17 Q1015 NOSIG=
200806261730 METAR LMML NIL=
200806261715 METAR LMML 261715Z 32004KT 260V010 CAVOK 29/17 Q1015 NOSIG=
200806261700 METAR LMML NIL=
200806261645 METAR LMML 261645Z 31006KT 170V020 CAVOK 30/18 Q1015 NOSIG=
200806261630 METAR LMML NIL=
200806261615 METAR LMML 261615Z 05006KT 010V100 CAVOK 30/17 Q1015 NOSIG=
200806261545 METAR LMML 261545Z 05006KT 010V090 CAVOK 29/18 Q1015 NOSIG=
200806261530 METAR LMML NIL=
200806261515 METAR LMML 261515Z 03006KT 010V070 CAVOK 30/18 Q1015 NOSIG=
200806261500 METAR LMML NIL=
200806261445 METAR LMML 261445Z 04005KT 360V090 CAVOK 31/17 Q1015 NOSIG=
200806261430 METAR LMML NIL=
200806261415 METAR LMML 261415Z 12006KT 080V160 CAVOK 30/18 Q1015 NOSIG=
200806261400 METAR LMML NIL=
200806261345 METAR LMML 261345Z 11006KT 060V180 CAVOK 31/18 Q1015 NOSIG=
200806261330 METAR LMML NIL=
200806261315 METAR LMML 261315Z VRB03KT CAVOK 32/16 Q1015 NOSIG=
200806261300 METAR LMML NIL=
200806261245 METAR LMML 261245Z 01005KT 320V090 CAVOK 33/16 Q1015 NOSIG=
200806261230 METAR LMML NIL=
200806261215 METAR LMML 261215Z 08004KT 350V170 CAVOK 32/18 Q1015 NOSIG=
200806261200 METAR LMML NIL=
200806261145 METAR LMML 261145Z VRB03KT CAVOK 32/18 Q1015 NOSIG=
200806261130 METAR LMML NIL=
200806261115 METAR LMML 261115Z 04004KT 330V130 CAVOK 32/18 Q1016 NOSIG=
200806261100 METAR LMML NIL=
200806261045 METAR LMML 261045Z 04006KT 360V080 CAVOK 32/19 Q1016 NOSIG=
200806261030 METAR LMML NIL=
200806261015 METAR LMML 261015Z 07006KT 030V140 CAVOK 32/18 Q1016 NOSIG=
200806261000 METAR LMML NIL=
200806260945 METAR LMML 260945Z 11006KT 060V150 CAVOK 31/19 Q1016 NOSIG=
200806260930 METAR LMML NIL=
200806260915 METAR LMML 260915Z 12006KT 080V170 CAVOK 30/19 Q1016 NOSIG=
200806260900 METAR LMML NIL=
200806260845 METAR LMML 260845Z 10004KT 040V160 CAVOK 31/17 Q1015 NOSIG=
200806260830 METAR LMML NIL=
200806260815 METAR LMML 260815Z VRB03KT CAVOK 30/17 Q1015 NOSIG=
200806260800 METAR LMML NIL=
200806260745 METAR LMML 260745Z 36004KT 310V030 CAVOK 30/17 Q1015 NOSIG=
200806260730 METAR LMML NIL=
200806260715 METAR LMML 260715Z 35005KT 320V020 CAVOK 29/17 Q1015 NOSIG=
200806260700 METAR LMML NIL=
200806260645 METAR LMML 260645Z 35004KT 320V030 CAVOK 28/17 Q1015 NOSIG=
200806260630 METAR LMML NIL=
200806260615 METAR LMML 260615Z VRB03KT CAVOK 28/15 Q1015 NOSIG=
200806260600 METAR LMML NIL=
200806260545 METAR LMML 260545Z VRB03KT CAVOK 27/12 Q1015 NOSIG=
200806260530 METAR LMML NIL=
200806260515 METAR LMML 260515Z VRB03KT CAVOK 26/10 Q1015 NOSIG=
200806260500 METAR LMML NIL=
200806260445 METAR LMML 260445Z 29004KT CAVOK 25/08 Q1015 NOSIG=
200806260430 METAR LMML NIL=
200806260415 METAR LMML 260415Z 29004KT CAVOK 24/09 Q1014 NOSIG=
200806260400 METAR LMML NIL=
200806260345 METAR LMML 260345Z 28004KT CAVOK 23/09 Q1014 NOSIG=
200806260330 METAR LMML NIL=
200806260315 METAR LMML 260315Z 28004KT CAVOK 23/09 Q1014 NOSIG=
200806260245 METAR LMML 260245Z VRB03KT CAVOK 22/10 Q1014 NOSIG=
200806260215 METAR LMML 260215Z VRB03KT CAVOK 23/10 Q1014 NOSIG=
200806260200 METAR LMML NIL=
200806260145 METAR LMML 260145Z VRB02KT CAVOK 23/10 Q1014 NOSIG=
200806260130 METAR LMML NIL=
200806260115 METAR LMML 260115Z VRB03KT CAVOK 23/10 Q1014 NOSIG=
200806260045 METAR LMML 260045Z VRB03KT CAVOK 23/11 Q1014 NOSIG=
200806260030 METAR LMML NIL=
200806260015 METAR LMML 260015Z VRB03KT CAVOK 24/10 Q1014 NOSIG=
200806260000 METAR LMML NIL=
200806252345 METAR LMML 252345Z 31005KT CAVOK 24/11 Q1015 NOSIG=
200806252330 METAR LMML NIL=
200806252315 METAR LMML 252315Z 31006KT CAVOK 23/11 Q1015 NOSIG=
200806252300 METAR LMML NIL=
200806252245 METAR LMML 252245Z 32006KT CAVOK 24/11 Q1015 NOSIG=
200806252230 METAR LMML NIL=
200806252215 METAR LMML 252215Z 31006KT CAVOK 24/11 Q1015 NOSIG=
200806252200 METAR LMML NIL=
200806252145 METAR LMML 252145Z 33006KT CAVOK 24/11 Q1015 NOSIG=
200806252130 METAR LMML NIL=
200806252115 METAR LMML 252115Z 33006KT CAVOK 24/11 Q1015 NOSIG=
200806252045 METAR LMML 252045Z 33007KT CAVOK 25/12 Q1016 NOSIG=
200806252030 METAR LMML NIL=
200806252015 METAR LMML 252015Z 34007KT CAVOK 25/12 Q1015 NOSIG=
200806252000 METAR LMML NIL=
200806251945 METAR LMML 251945Z 33005KT CAVOK 25/11 Q1015 NOSIG=
200806251930 METAR LMML NIL=
200806251915 METAR LMML 251915Z 33007KT CAVOK 25/11 Q1015 NOSIG=
200806251900 METAR LMML NIL=
200806251845 METAR LMML 251845Z 33008KT 310V010 CAVOK 26/11 Q1015 NOSIG=
200806251830 METAR LMML NIL=
200806251815 METAR LMML 251815Z 33011KT CAVOK 26/11 Q1015 NOSIG=
200806251800 METAR LMML NIL=
200806251745 METAR LMML 251745Z 34011KT CAVOK 27/11 Q1015 NOSIG=
200806251730 METAR LMML NIL=
200806251715 METAR LMML 251715Z 33009KT CAVOK 28/10 Q1015 NOSIG=
200806251700 METAR LMML NIL=
200806251645 METAR LMML 251645Z 33009KT CAVOK 28/11 Q1015 NOSIG=
200806251630 METAR LMML NIL=
200806251615 METAR LMML 251615Z 33009KT 300V360 CAVOK 29/12 Q1015 NOSIG=
200806251600 METAR LMML NIL=
200806251545 METAR LMML 251545Z 34010KT 300V010 CAVOK 30/12 Q1015 NOSIG=
200806251530 METAR LMML NIL=
200806251515 METAR LMML 251515Z 35011KT 320V020 CAVOK 30/12 Q1015 NOSIG=
200806251500 METAR LMML NIL=
200806251445 METAR LMML 251445Z 34010KT 320V020 CAVOK 31/12 Q1015 NOSIG=
200806251415 METAR LMML 251415Z 30008KT 270V340 CAVOK 32/11 Q1015 NOSIG=
200806251400 METAR LMML NIL=
200806251345 METAR LMML 251345Z 33008KT 290V360 CAVOK 32/12 Q1015 NOSIG=
200806251330 METAR LMML NIL=
200806251315 METAR LMML 251315Z 33009KT 290V360 CAVOK 32/14 Q1015 NOSIG=
200806251300 METAR LMML NIL=
200806251245 METAR LMML 251245Z 32007KT 260V040 CAVOK 32/16 Q1015 NOSIG=
200806251230 METAR LMML NIL=
200806251215 METAR LMML 251215Z 31007KT 250V010 CAVOK 32/15 Q1015 NOSIG=
200806251200 METAR LMML NIL=
200806251145 METAR LMML 251145Z 35007KT 320V020 CAVOK 32/16 Q1015 NOSIG=
200806251130 METAR LMML NIL=
200806251115 METAR LMML 251115Z 32007KT 260V360 CAVOK 31/15 Q1015 NOSIG=
200806251100 METAR LMML NIL=
200806251045 METAR LMML 251045Z 31006KT 170V020 CAVOK 31/14 Q1015 NOSIG=
200806251030 METAR LMML NIL=
200806251015 METAR LMML 251015Z 30006KT 230V360 CAVOK 31/13 Q1015 NOSIG=
200806251000 METAR LMML NIL=
200806250945 METAR LMML 250945Z 30007KT 260V360 CAVOK 31/13 Q1015 NOSIG=
200806250930 METAR LMML NIL=
200806250915 METAR LMML 250915Z 29006KT 240V330 CAVOK 30/13 Q1015 NOSIG=
200806250900 METAR LMML NIL=
200806250845 METAR LMML 250845Z 32006KT 270V360 CAVOK 30/13 Q1015 NOSIG=
200806250830 METAR LMML NIL=
200806250815 METAR LMML 250815Z 31007KT 270V360 CAVOK 30/13 Q1015 NOSIG=
200806250800 METAR LMML NIL=
200806250745 METAR LMML 250745Z 33007KT CAVOK 29/12 Q1015 NOSIG=
200806250730 METAR LMML NIL=
200806250715 METAR LMML 250715Z 34006KT 310V020 CAVOK 30/11 Q1015 NOSIG=
200806250645 METAR LMML 250645Z 33006KT CAVOK 29/10 Q1015 NOSIG=
200806250615 METAR LMML 250615Z 33005KT 300V360 CAVOK 28/10 Q1016 NOSIG=
200806250600 METAR LMML NIL=
200806250545 METAR LMML 250545Z 30005KT CAVOK 27/11 Q1016 NOSIG=
200806250530 METAR LMML NIL=
200806250515 METAR LMML 250515Z 30004KT CAVOK 25/11 Q1015 NOSIG=
200806250500 METAR LMML NIL=
200806250445 METAR LMML 250445Z 31005KT CAVOK 24/11 Q1015 NOSIG=
200806250430 METAR LMML NIL=
200806250415 METAR LMML 250415Z VRB03KT CAVOK 23/10 Q1015 NOSIG=
200806250400 METAR LMML NIL=
200806250345 METAR LMML 250345Z 31005KT CAVOK 23/10 Q1015 NOSIG=
200806250330 METAR LMML NIL=
200806250315 METAR LMML 250315Z 30004KT CAVOK 23/10 Q1015 NOSIG=
200806250300 METAR LMML NIL=
200806250245 METAR LMML 250245Z VRB03KT CAVOK 23/10 Q1015 NOSIG=
200806250230 METAR LMML NIL=
200806250215 METAR LMML 250215Z VRB03KT CAVOK 23/11 Q1015 NOSIG=
200806250200 METAR LMML NIL=
200806250145 METAR LMML 250145Z 32004KT CAVOK 23/11 Q1015 NOSIG=
200806250130 METAR LMML NIL=
200806250115 METAR LMML 250115Z 32004KT CAVOK 23/11 Q1015 NOSIG=
200806250100 METAR LMML NIL=
200806250045 METAR LMML 250045Z 32005KT CAVOK 23/11 Q1015 NOSIG=
200806250030 METAR LMML NIL=
200806250015 METAR LMML 250015Z 32006KT CAVOK 23/11 Q1015 NOSIG=
200806250000 METAR LMML NIL=
200806242345 METAR LMML 242345Z 32005KT CAVOK 23/11 Q1016 NOSIG=
200806242330 METAR LMML NIL=
200806242315 METAR LMML 242315Z 33005KT CAVOK 23/11 Q1016 NOSIG=
200806242300 METAR LMML NIL=
200806242245 METAR LMML 242245Z 32004KT CAVOK 23/12 Q1016 NOSIG=
200806242230 METAR LMML NIL=
200806242215 METAR LMML 242215Z 32004KT CAVOK 24/13 Q1016 NOSIG=
200806242200 METAR LMML NIL=
200806242145 METAR LMML 242145Z 31005KT CAVOK 23/14 Q1016 NOSIG=
200806242130 METAR LMML NIL=
200806242115 METAR LMML 242115Z 31005KT CAVOK 24/15 Q1016 NOSIG=
200806242100 METAR LMML NIL=
200806242045 METAR LMML 242045Z 31005KT CAVOK 24/16 Q1016 NOSIG=
200806242030 METAR LMML NIL=
200806242015 METAR LMML 242015Z 32006KT CAVOK 24/16 Q1016 NOSIG=
200806242000 METAR LMML NIL=
200806241945 METAR LMML 241945Z 32006KT CAVOK 24/14 Q1016 NOSIG=
200806241930 METAR LMML NIL=
200806241915 METAR LMML 241915Z 33006KT CAVOK 25/13 Q1016 NOSIG=
200806241900 METAR LMML NIL=
200806241845 METAR LMML 241845Z 34004KT 300V040 CAVOK 26/12 Q1016 NOSIG=
200806241830 METAR LMML NIL=
200806241815 METAR LMML 241815Z 33005KT CAVOK 26/12 Q1016 NOSIG=
200806241800 METAR LMML NIL=
200806241745 METAR LMML 241745Z 34006KT CAVOK 28/11 Q1016 NOSIG=
200806241730 METAR LMML NIL=
200806241715 METAR LMML 241715Z 34007KT CAVOK 28/11 Q1016 NOSIG=
200806241700 METAR LMML NIL=
200806241645 METAR LMML 241645Z 34006KT CAVOK 29/12 Q1016 NOSIG=
200806241630 METAR LMML NIL=
200806241615 METAR LMML 241615Z 34008KT 300V010 CAVOK 30/12 Q1016 NOSIG=
200806241600 METAR LMML NIL=
200806241545 METAR LMML 241545Z 35008KT 300V030 CAVOK 31/11 Q1016 NOSIG=
200806241515 METAR LMML 241515Z 34008KT 290V010 CAVOK 31/11 Q1016 NOSIG=
200806241500 METAR LMML NIL=
200806241445 METAR LMML 241445Z 02006KT 340V090 CAVOK 31/12 Q1016 NOSIG=
200806241430 METAR LMML NIL=
200806241415 METAR LMML 241415Z 06006KT 020V130 CAVOK 31/14 Q1016 NOSIG=
200806241400 METAR LMML NIL=
200806241345 METAR LMML 241345Z 06007KT 030V100 CAVOK 31/13 Q1016 NOSIG=
200806241330 METAR LMML NIL=
200806241315 METAR LMML 241315Z 06007KT 350V110 CAVOK 32/12 Q1016 NOSIG=
200806241300 METAR LMML NIL=
200806241245 METAR LMML 241245Z 06008KT 030V100 CAVOK 32/11 Q1017 NOSIG=
200806241230 METAR LMML NIL=
200806241215 METAR LMML 241215Z 05007KT 010V100 CAVOK 32/12 Q1017 NOSIG=
200806241200 METAR LMML NIL=
200806241115 METAR LMML 241115Z 03006KT 330V100 CAVOK 32/12 Q1017 NOSIG=
200806241045 METAR LMML 241045Z 02005KT 340V090 CAVOK 32/10 Q1017 NOSIG=
200806241030 METAR LMML NIL=
200806241015 METAR LMML 241015Z 03007KT 330V090 CAVOK 32/11 Q1017 NOSIG=
200806241000 METAR LMML NIL=
200806240945 METAR LMML 240945Z 03005KT CAVOK 32/07 Q1017 NOSIG=
200806240930 METAR LMML NIL=
200806240915 METAR LMML 240915Z 36007KT 320V040 CAVOK 31/08 Q1017 NOSIG=
200806240900 METAR LMML NIL=
200806240845 METAR LMML 240845Z 34005KT 300V040 CAVOK 31/09 Q1017 NOSIG=
200806240830 METAR LMML NIL=
200806240815 METAR LMML 240815Z 34007KT 310V030 CAVOK 31/08 Q1017 NOSIG=
200806240800 METAR LMML NIL=
200806240745 METAR LMML 240745Z 33006KT 310V010 CAVOK 30/08 Q1017 NOSIG=
200806240730 METAR LMML NIL=
200806240715 METAR LMML 240715Z 33005KT 300V010 CAVOK 29/09 Q1017 NOSIG=
200806240700 METAR LMML NIL=
200806240645 METAR LMML 240645Z 33005KT CAVOK 28/10 Q1017 NOSIG=
200806240615 METAR LMML 240615Z 33004KT CAVOK 27/11 Q1017 NOSIG=
200806240600 METAR LMML NIL=
200806240545 METAR LMML 240545Z 32004KT CAVOK 26/14 Q1017 NOSIG=
200806240530 METAR LMML NIL=
200806240515 METAR LMML 240515Z 31005KT CAVOK 24/15 Q1017 NOSIG=
200806240500 METAR LMML NIL=
200806240445 METAR LMML 240445Z 31005KT CAVOK 23/14 Q1017 NOSIG=
200806240430 METAR LMML NIL=
200806240415 METAR LMML 240415Z 31006KT CAVOK 22/14 Q1017 NOSIG=
200806240400 METAR LMML NIL=
200806240345 METAR LMML 240345Z 31006KT CAVOK 22/13 Q1017 NOSIG=
200806240330 METAR LMML NIL=
200806240315 METAR LMML 240315Z 32004KT CAVOK 22/13 Q1017 NOSIG=
200806240300 METAR LMML NIL=
200806240245 METAR LMML 240245Z 32004KT CAVOK 22/12 Q1017 NOSIG=
200806240230 METAR LMML NIL=
200806240215 METAR LMML 240215Z 32004KT CAVOK 22/12 Q1017 NOSIG=
200806240200 METAR LMML NIL=
200806240145 METAR LMML 240145Z 32005KT CAVOK 22/12 Q1017 NOSIG=
200806240115 METAR LMML 240115Z 32004KT CAVOK 23/11 Q1017 NOSIG=
200806240100 METAR LMML NIL=
200806240045 METAR LMML 240045Z 31004KT CAVOK 23/11 Q1017 NOSIG=
200806240015 METAR LMML 240015Z 31004KT CAVOK 23/12 Q1017 NOSIG=
200806240000 METAR LMML NIL=
200806232345 METAR LMML 232345Z 32005KT CAVOK 23/12 Q1017 NOSIG=
200806232330 METAR LMML NIL=
200806232315 METAR LMML 232315Z 31005KT CAVOK 23/12 Q1018 NOSIG=
200806232300 METAR LMML NIL=
200806232245 METAR LMML 232245Z 30004KT CAVOK 23/12 Q1018 NOSIG=
200806232230 METAR LMML NIL=
200806232215 METAR LMML 232215Z 30004KT CAVOK 23/13 Q1018 NOSIG=
200806232200 METAR LMML NIL=
200806232145 METAR LMML 232145Z VRB03KT CAVOK 23/14 Q1018 NOSIG=
200806232130 METAR LMML NIL=
200806232115 METAR LMML 232115Z 31004KT CAVOK 23/15 Q1018 NOSIG=
200806232100 METAR LMML NIL=
200806232045 METAR LMML 232045Z 31006KT CAVOK 24/16 Q1018 NOSIG=
200806232015 METAR LMML 232015Z 32004KT CAVOK 24/16 Q1018 NOSIG=
200806231945 METAR LMML 231945Z 33005KT CAVOK 24/16 Q1018 NOSIG=
200806231915 METAR LMML 231915Z 33007KT CAVOK 25/15 Q1018 NOSIG=
200806231845 METAR LMML 231845Z 34006KT CAVOK 25/14 Q1018 NOSIG=
200806231830 METAR LMML NIL=
200806231815 METAR LMML 231815Z 34007KT CAVOK 26/13 Q1018 NOSIG=
200806231800 METAR LMML NIL=
200806231745 METAR LMML 231745Z 34006KT CAVOK 28/10 Q1018 NOSIG=
200806231715 METAR LMML 231715Z 01005KT 340V040 CAVOK 29/09 Q1018 NOSIG=
200806231645 METAR LMML 231645Z 01004KT 310V050 CAVOK 30/09 Q1018 NOSIG=
200806231630 METAR LMML NIL=
200806231615 METAR LMML 231615Z 01005KT 330V060 CAVOK 29/10 Q1018 NOSIG=
200806231600 METAR LMML NIL=
200806231545 METAR LMML 231545Z 03005KT 350V100 CAVOK 30/12 Q1018 NOSIG=
200806231530 METAR LMML NIL=
200806231515 METAR LMML 231515Z 02006KT 360V060 CAVOK 30/11 Q1018 NOSIG=
200806231500 METAR LMML NIL=
200806231445 METAR LMML 231445Z 04007KT 360V090 CAVOK 31/11 Q1018 NOSIG=
200806231430 METAR LMML NIL=
200806231415 METAR LMML 231415Z 02005KT 310V070 CAVOK 31/11 Q1018 NOSIG=
200806231345 METAR LMML 231345Z 04004KT 320V100 CAVOK 32/10 Q1018 NOSIG=
200806231330 METAR LMML NIL=
200806231315 METAR LMML 231315Z 04005KT 360V090 CAVOK 31/10 Q1018 NOSIG=
200806231300 METAR LMML NIL=
200806231245 METAR LMML 231245Z 34005KT 290V020 CAVOK 31/09 Q1019 NOSIG=
200806231230 METAR LMML NIL=
200806231200 METAR LMML NIL=
200806231145 METAR LMML 231145Z 36006KT 310V080 CAVOK 30/16 Q1019 NOSIG=
200806231130 METAR LMML NIL=
200806231115 METAR LMML 231115Z 02005KT 330V060 CAVOK 30/15 Q1019 NOSIG=
200806231100 METAR LMML NIL=
200806231045 METAR LMML 231045Z 04006KT 010V090 CAVOK 30/17 Q1019 NOSIG=
200806231030 METAR LMML NIL=
200806231015 METAR LMML 231015Z 02006KT 330V050 CAVOK 31/13 Q1019 NOSIG=
200806231000 METAR LMML NIL=
200806230945 METAR LMML 230945Z 01007KT 330V050 CAVOK 30/13 Q1019 NOSIG=
200806230930 METAR LMML NIL=
200806230915 METAR LMML 230915Z 01007KT 330V050 CAVOK 30/12 Q1019 NOSIG=
200806230900 METAR LMML NIL=
200806230845 METAR LMML 230845Z 36008KT CAVOK 30/13 Q1019 NOSIG=
200806230830 METAR LMML NIL=
200806230815 METAR LMML 230815Z 01006KT 340V040 CAVOK 30/10 Q1019 NOSIG=
200806230800 METAR LMML NIL=
200806230745 METAR LMML 230745Z 35005KT 310V020 CAVOK 29/10 Q1019 NOSIG=
200806230730 METAR LMML NIL=
200806230715 METAR LMML 230715Z 34005KT 290V040 CAVOK 29/11 Q1019 NOSIG=
200806230700 METAR LMML NIL=
200806230645 METAR LMML 230645Z 33006KT CAVOK 27/13 Q1019 NOSIG=
200806230630 METAR LMML NIL=
200806230615 METAR LMML 230615Z 33005KT CAVOK 26/15 Q1019 NOSIG=
200806230600 METAR LMML NIL=
200806230545 METAR LMML 230545Z 32005KT CAVOK 25/15 Q1019 NOSIG=
200806230530 METAR LMML NIL=
200806230515 METAR LMML 230515Z 32005KT CAVOK 23/16 Q1019 NOSIG=
200806230500 METAR LMML NIL=
200806230445 METAR LMML 230445Z 31006KT CAVOK 22/16 Q1019 NOSIG=
200806230430 METAR LMML NIL=
200806230415 METAR LMML 230415Z VRB03KT CAVOK 21/17 Q1018 NOSIG=
200806230400 METAR LMML NIL=
200806230345 METAR LMML 230345Z 30005KT 8000 SKC 21/20 Q1018 NOSIG=
200806230330 METAR LMML NIL=
200806230315 METAR LMML 230315Z 32005KT 7000 SKC 21/21 Q1018 NOSIG=
200806230300 METAR LMML NIL=
200806230245 METAR LMML 230245Z 31004KT 7000 SKC 21/21 Q1018 NOSIG=
200806230230 METAR LMML NIL=
200806230215 METAR LMML 230215Z VRB03KT 7000 SKC 21/21 Q1018 NOSIG=
200806230200 METAR LMML NIL=
200806230145 METAR LMML 230145Z VRB03KT 7000 SKC 21/21 Q1019 NOSIG=
200806230130 METAR LMML NIL=
200806230115 METAR LMML 230115Z VRB03KT CAVOK 22/22 Q1019 NOSIG=
200806230100 METAR LMML NIL=
200806230045 METAR LMML 230045Z VRB03KT CAVOK 22/22 Q1019 NOSIG=
200806230030 METAR LMML NIL=
200806230015 METAR LMML 230015Z 31004KT CAVOK 22/22 Q1019 NOSIG=
200806230000 METAR LMML NIL=
200806222345 METAR LMML 222345Z VRB03KT CAVOK 22/22 Q1019 NOSIG=
200806222330 METAR LMML NIL=
200806222315 METAR LMML 222315Z 31004KT CAVOK 22/21 Q1019 NOSIG=
200806222300 METAR LMML NIL=
200806222245 METAR LMML 222245Z 31004KT CAVOK 23/21 Q1019 NOSIG=
200806222230 METAR LMML NIL=
200806222215 METAR LMML 222215Z VRB03KT CAVOK 23/20 Q1020 NOSIG=
200806222200 METAR LMML NIL=
200806222145 METAR LMML 222145Z VRB03KT CAVOK 23/20 Q1020 NOSIG=
200806222130 METAR LMML NIL=
200806222115 METAR LMML 222115Z 35004KT 330V050 CAVOK 24/19 Q1020 NOSIG=
200806222100 METAR LMML NIL=
200806222045 METAR LMML 222045Z VRB02KT CAVOK 24/19 Q1020 NOSIG=
200806222030 METAR LMML NIL=
200806222015 METAR LMML 222015Z VRB01KT CAVOK 24/18 Q1020 NOSIG=
200806222000 METAR LMML NIL=
200806221945 METAR LMML 221945Z VRB01KT CAVOK 25/17 Q1019 NOSIG=
200806221930 METAR LMML NIL=
200806221915 METAR LMML 221915Z VRB02KT CAVOK 25/17 Q1019 NOSIG=
200806221900 METAR LMML NIL=
200806221845 METAR LMML 221845Z VRB02KT CAVOK 25/17 Q1019 NOSIG=
200806221830 METAR LMML NIL=
200806221815 METAR LMML 221815Z VRB03KT CAVOK 25/16 Q1019 NOSIG=
200806221800 METAR LMML NIL=
200806221745 METAR LMML 221745Z VRB03KT CAVOK 26/16 Q1019 NOSIG=
200806221730 METAR LMML NIL=
200806221715 METAR LMML 221715Z 18004KT 150V220 CAVOK 27/17 Q1019 NOSIG=
200806221700 METAR LMML NIL=
200806221645 METAR LMML 221645Z VRB03KT CAVOK 28/17 Q1019 NOSIG=
200806221630 METAR LMML NIL=
200806221615 METAR LMML 221615Z VRB03KT CAVOK 28/16 Q1019 NOSIG=
200806221545 METAR LMML 221545Z 20004KT 160V260 CAVOK 28/17 Q1019 NOSIG=
200806221530 METAR LMML NIL=
200806221515 METAR LMML 221515Z 18004KT 140V230 CAVOK 28/17 Q1019 NOSIG=
200806221500 METAR LMML NIL=
200806221445 METAR LMML 221445Z VRB03KT CAVOK 29/17 Q1019 NOSIG=
200806221430 METAR LMML NIL=
200806221415 METAR LMML 221415Z 18005KT 110V230 CAVOK 28/17 Q1019 NOSIG=
200806221400 METAR LMML NIL=
200806221345 METAR LMML 221345Z 15005KT 090V220 CAVOK 28/17 Q1019 NOSIG=
200806221330 METAR LMML NIL=
200806221315 METAR LMML 221315Z 13006KT 090V200 CAVOK 29/16 Q1019 NOSIG=
200806221300 METAR LMML NIL=
200806221245 METAR LMML 221245Z 13006KT 060V190 9999 FEW040 28/17 Q1019
                        NOSIG=
200806221230 METAR LMML NIL=
200806221215 METAR LMML 221215Z 12006KT 080V210 9999 FEW040 28/17 Q1020
                        NOSIG=
200806221200 METAR LMML NIL=
200806221145 METAR LMML 221145Z 13005KT 080V200 9999 FEW040 28/16 Q1020
                        NOSIG=
200806221115 METAR LMML 221115Z 11005KT 040V180 9999 FEW040 29/16 Q1020
                        NOSIG=
200806221100 METAR LMML NIL=
200806221045 METAR LMML 221045Z 09006KT 040V140 CAVOK 28/16 Q1020 NOSIG=
200806221030 METAR LMML NIL=
200806221015 METAR LMML 221015Z 09005KT 030V150 CAVOK 28/17 Q1020 NOSIG=
200806221000 METAR LMML NIL=
200806220945 METAR LMML 220945Z 09006KT 040V160 CAVOK 27/17 Q1020 NOSIG=
200806220930 METAR LMML NIL=
200806220915 METAR LMML 220915Z 08007KT 020V130 9999 FEW040 28/17 Q1020
                        NOSIG=
200806220845 METAR LMML 220845Z 08005KT 030V170 CAVOK 27/16 Q1020 NOSIG=
200806220830 METAR LMML NIL=
200806220815 METAR LMML 220815Z 07005KT 010V120 CAVOK 27/16 Q1019 NOSIG=
200806220800 METAR LMML NIL=
200806220745 METAR LMML 220745Z 09004KT 030V150 CAVOK 27/16 Q1019 NOSIG=
200806220730 METAR LMML NIL=
200806220715 METAR LMML 220715Z 10004KT 030V180 CAVOK 26/16 Q1019 NOSIG=
200806220645 METAR LMML 220645Z 07004KT 350V110 CAVOK 26/17 Q1019 NOSIG=
200806220630 METAR LMML NIL=
200806220615 METAR LMML 220615Z VRB03KT CAVOK 25/18 Q1019 NOSIG=
200806220545 METAR LMML 220545Z VRB03KT CAVOK 24/18 Q1019 NOSIG=
200806220530 METAR LMML NIL=
200806220515 METAR LMML 220515Z VRB02KT CAVOK 23/18 Q1019 NOSIG=
200806220445 METAR LMML 220445Z VRB02KT CAVOK 21/21 Q1018 NOSIG=
200806220430 METAR LMML NIL=
200806220415 METAR LMML 220415Z VRB01KT CAVOK 21/20 Q1018 NOSIG=
200806220400 METAR LMML NIL=
200806220345 METAR LMML 220345Z VRB02KT CAVOK 20/20 Q1018 NOSIG=
200806220330 METAR LMML NIL=
200806220315 METAR LMML 220315Z VRB03KT CAVOK 21/21 Q1018 NOSIG=
200806220300 METAR LMML NIL=
200806220245 METAR LMML 220245Z VRB03KT CAVOK 20/20 Q1018 NOSIG=
200806220230 METAR LMML NIL=
200806220215 METAR LMML 220215Z VRB03KT CAVOK 21/20 Q1018 NOSIG=
200806220200 METAR LMML NIL=
200806220145 METAR LMML 220145Z VRB02KT CAVOK 21/19 Q1018 NOSIG=
200806220130 METAR LMML NIL=
200806220115 METAR LMML 220115Z 32004KT 300V360 CAVOK 21/19 Q1018 NOSIG=
200806220100 METAR LMML NIL=
200806220045 METAR LMML 220045Z VRB03KT CAVOK 21/19 Q1018 NOSIG=
200806220030 METAR LMML NIL=
200806220015 METAR LMML 220015Z VRB03KT CAVOK 22/18 Q1018 NOSIG=
200806220000 METAR LMML NIL=
200806212345 METAR LMML 212345Z VRB03KT CAVOK 22/18 Q1018 NOSIG=
200806212330 METAR LMML NIL=
200806212315 METAR LMML 212315Z VRB02KT CAVOK 22/18 Q1019 NOSIG=
200806212300 METAR LMML NIL=
200806212245 METAR LMML 212245Z VRB03KT CAVOK 22/18 Q1019 NOSIG=
200806212230 METAR LMML NIL=
200806212215 METAR LMML 212215Z VRB03KT CAVOK 23/18 Q1019 NOSIG=
200806212200 METAR LMML NIL=
200806212145 METAR LMML 212145Z VRB03KT CAVOK 23/18 Q1019 NOSIG=
200806212130 METAR LMML NIL=
200806212115 METAR LMML 212115Z VRB03KT CAVOK 23/19 Q1019 NOSIG=
200806212100 METAR LMML NIL=
200806212045 METAR LMML 212045Z VRB02KT CAVOK 23/19 Q1019 NOSIG=
200806212030 METAR LMML NIL=
200806212015 METAR LMML 212015Z VRB01KT CAVOK 23/18 Q1018 NOSIG=
200806212000 METAR LMML NIL=
200806211945 METAR LMML 211945Z VRB02KT CAVOK 24/19 Q1018 NOSIG=
200806211930 METAR LMML NIL=
200806211915 METAR LMML 211915Z VRB02KT CAVOK 24/19 Q1018 NOSIG=
200806211900 METAR LMML NIL=
200806211845 METAR LMML 211845Z VRB03KT CAVOK 25/18 Q1017 NOSIG=
200806211830 METAR LMML NIL=
200806211815 METAR LMML 211815Z VRB03KT CAVOK 26/18 Q1017 NOSIG=
200806211800 METAR LMML NIL=
200806211745 METAR LMML 211745Z 08004KT 050V110 CAVOK 27/12 Q1017 NOSIG=
200806211730 METAR LMML NIL=
200806211715 METAR LMML 211715Z 11004KT 040V160 CAVOK 27/14 Q1017 NOSIG=
200806211700 METAR LMML NIL=
200806211645 METAR LMML 211645Z 13005KT 100V170 CAVOK 27/12 Q1017 NOSIG=
200806211630 METAR LMML NIL=
200806211615 METAR LMML 211615Z 14005KT 060V180 CAVOK 28/11 Q1017 NOSIG=
200806211600 METAR LMML NIL=
200806211545 METAR LMML 211545Z 14006KT 100V180 CAVOK 28/11 Q1017 NOSIG=
200806211530 METAR LMML NIL=
200806211515 METAR LMML 211515Z 14005KT 110V190 9999 FEW040 28/11 Q1017
                        NOSIG=
200806211500 METAR LMML NIL=
200806211445 METAR LMML 211445Z 15005KT 110V210 9999 FEW040 29/10 Q1017
                        NOSIG=
200806211430 METAR LMML NIL=
200806211415 METAR LMML 211415Z 14005KT 090V200 9999 FEW040 29/10 Q1017
                        NOSIG=
200806211400 METAR LMML NIL=
200806211345 METAR LMML 211345Z 14006KT 090V210 9999 FEW040 29/10 Q1017
                        NOSIG=
200806211330 METAR LMML NIL=
200806211315 METAR LMML 211315Z 10007KT 040V160 CAVOK 30/10 Q1017 NOSIG=
200806211300 METAR LMML NIL=
200806211245 METAR LMML 211245Z 12006KT 070V200 CAVOK 30/11 Q1017 NOSIG=
200806211230 METAR LMML NIL=
200806211215 METAR LMML 211215Z 08005KT CAVOK 30/12 Q1017 NOSIG=
200806211200 METAR LMML NIL=
200806211145 METAR LMML 211145Z 12005KT CAVOK 29/12 Q1017 NOSIG=
200806211130 METAR LMML NIL=
200806211115 METAR LMML 211115Z 09007KT 040V130 CAVOK 29/13 Q1017 NOSIG=
200806211100 METAR LMML NIL=
200806211045 METAR LMML 211045Z 10007KT 020V150 CAVOK 29/14 Q1017 NOSIG=
200806211030 METAR LMML NIL=
200806211015 METAR LMML 211015Z 09007KT 020V150 CAVOK 29/15 Q1018 NOSIG=
200806211000 METAR LMML NIL=
200806210945 METAR LMML 210945Z 10006KT 040V150 CAVOK 28/15 Q1018 NOSIG=
200806210930 METAR LMML NIL=
200806210915 METAR LMML 210915Z 09006KT 040V140 CAVOK 28/17 Q1017 NOSIG=
200806210900 METAR LMML NIL=
200806210845 METAR LMML 210845Z 08006KT 350V190 CAVOK 27/17 Q1017 NOSIG=
200806210830 METAR LMML NIL=
200806210815 METAR LMML 210815Z 07006KT 360V110 CAVOK 27/16 Q1017 NOSIG=
200806210745 METAR LMML 210745Z VRB03KT CAVOK 27/16 Q1017 NOSIG=
200806210730 METAR LMML NIL=
200806210715 METAR LMML 210715Z 12004KT 050V170 CAVOK 26/15 Q1017 NOSIG=
200806210700 METAR LMML NIL=
200806210645 METAR LMML 210645Z 11004KT 070V200 CAVOK 26/14 Q1017 NOSIG=
200806210630 METAR LMML NIL=
200806210615 METAR LMML 210615Z VRB03KT CAVOK 25/13 Q1016 NOSIG=
200806210600 METAR LMML NIL=
200806210545 METAR LMML 210545Z VRB02KT CAVOK 24/15 Q1016 NOSIG=
200806210530 METAR LMML NIL=
200806210515 METAR LMML 210515Z VRB01KT CAVOK 22/16 Q1016 NOSIG=
200806210500 METAR LMML NIL=
200806210445 METAR LMML 210445Z VRB02KT CAVOK 20/16 Q1016 NOSIG=
200806210430 METAR LMML NIL=
200806210415 METAR LMML 210415Z VRB01KT CAVOK 19/18 Q1016 NOSIG=
200806210400 METAR LMML NIL=
200806210345 METAR LMML 210345Z VRB01KT CAVOK 19/18 Q1016 NOSIG=
200806210330 METAR LMML NIL=
200806210315 METAR LMML 210315Z 00000KT CAVOK 19/19 Q1016 NOSIG=
200806210300 METAR LMML NIL=
200806210245 METAR LMML 210245Z 00000KT CAVOK 20/19 Q1015 NOSIG=
200806210230 METAR LMML NIL=
200806210215 METAR LMML 210215Z VRB03KT CAVOK 20/20 Q1015 NOSIG=
200806210200 METAR LMML NIL=
200806210145 METAR LMML 210145Z VRB03KT CAVOK 20/20 Q1015 NOSIG=
200806210130 METAR LMML NIL=
200806210115 METAR LMML 210115Z VRB03KT CAVOK 21/20 Q1015 NOSIG=
200806210100 METAR LMML NIL=
200806210045 METAR LMML 210045Z VRB03KT CAVOK 21/20 Q1016 NOSIG=
200806210030 METAR LMML NIL=
200806210015 METAR LMML 210015Z 23004KT CAVOK 21/21 Q1016 NOSIG=
200806210000 METAR LMML NIL=
200806202345 METAR LMML 202345Z VRB03KT CAVOK 21/20 Q1016 NOSIG=
200806202330 METAR LMML NIL=
200806202315 METAR LMML 202315Z VRB03KT CAVOK 21/20 Q1016 NOSIG=
200806202300 METAR LMML NIL=
200806202245 METAR LMML 202245Z VRB03KT CAVOK 21/20 Q1016 NOSIG=
200806202230 METAR LMML NIL=
200806202215 METAR LMML 202215Z VRB03KT CAVOK 22/19 Q1016 NOSIG=
200806202200 METAR LMML NIL=
200806202145 METAR LMML 202145Z VRB02KT CAVOK 22/17 Q1016 NOSIG=
200806202130 METAR LMML NIL=
200806202115 METAR LMML 202115Z VRB03KT CAVOK 22/14 Q1016 NOSIG=
200806202100 METAR LMML NIL=
200806202045 METAR LMML 202045Z VRB01KT CAVOK 22/16 Q1016 NOSIG=
200806202030 METAR LMML NIL=
200806202015 METAR LMML 202015Z VRB02KT CAVOK 22/16 Q1016 NOSIG=
200806202000 METAR LMML NIL=
200806201945 METAR LMML 201945Z VRB02KT CAVOK 23/16 Q1016 NOSIG=
200806201930 METAR LMML NIL=
200806201915 METAR LMML 201915Z VRB03KT CAVOK 23/15 Q1016 NOSIG=
200806201900 METAR LMML NIL=
200806201845 METAR LMML 201845Z 31005KT CAVOK 23/16 Q1015 NOSIG=
200806201815 METAR LMML 201815Z 30005KT CAVOK 24/14 Q1015 NOSIG=
200806201800 METAR LMML NIL=
200806201745 METAR LMML 201745Z 32008KT 290V350 CAVOK 24/13 Q1015 NOSIG=
200806201730 METAR LMML NIL=
200806201715 METAR LMML 201715Z 29006KT 250V320 CAVOK 26/11 Q1015 NOSIG=
200806201700 METAR LMML NIL=
200806201645 METAR LMML 201645Z 29006KT 250V320 CAVOK 27/09 Q1015 NOSIG=
200806201630 METAR LMML NIL=
200806201615 METAR LMML 201615Z 28006KT 240V310 CAVOK 28/10 Q1015 NOSIG=
200806201600 METAR LMML NIL=
200806201545 METAR LMML 201545Z 27007KT 230V300 CAVOK 28/09 Q1015 NOSIG=
200806201530 METAR LMML NIL=
200806201515 METAR LMML 201515Z 29008KT 240V320 CAVOK 29/09 Q1015 NOSIG=
200806201500 METAR LMML NIL=
200806201445 METAR LMML 201445Z 27008KT 210V310 CAVOK 29/09 Q1015 NOSIG=
200806201430 METAR LMML NIL=
200806201415 METAR LMML 201415Z 27009KT 220V300 CAVOK 29/10 Q1015 NOSIG=
200806201400 METAR LMML NIL=
200806201345 METAR LMML 201345Z 28009KT 220V010 CAVOK 29/10 Q1015 NOSIG=
200806201330 METAR LMML NIL=
200806201315 METAR LMML 201315Z 29008KT 220V060 CAVOK 29/10 Q1016 NOSIG=
200806201300 METAR LMML NIL=
200806201245 METAR LMML 201245Z 36005KT 310V080 CAVOK 30/14 Q1016 NOSIG=
200806201230 METAR LMML NIL=
200806201215 METAR LMML 201215Z 35005KT 290V040 CAVOK 29/13 Q1016 NOSIG=
200806201200 METAR LMML NIL=
200806201145 METAR LMML 201145Z 02005KT 320V070 9999 FEW030 30/14 Q1016
                        NOSIG=
200806201115 METAR LMML 201115Z 04005KT 350V120 9999 FEW030 30/15 Q1016
                        NOSIG=
200806201100 METAR LMML NIL=
200806201045 METAR LMML 201045Z 03006KT 350V070 CAVOK 30/15 Q1016 NOSIG=
200806201030 METAR LMML NIL=
200806201015 METAR LMML 201015Z 05006KT 360V120 CAVOK 29/16 Q1016 NOSIG=
200806201000 METAR LMML NIL=
200806200945 METAR LMML 200945Z 05007KT 350V100 CAVOK 29/18 Q1016 NOSIG=
200806200930 METAR LMML NIL=
200806200915 METAR LMML 200915Z 35004KT 240V120 CAVOK 29/13 Q1016 NOSIG=
200806200900 METAR LMML NIL=
200806200845 METAR LMML 200845Z 34004KT 270V080 CAVOK 28/16 Q1016 NOSIG=
200806200830 METAR LMML NIL=
200806200815 METAR LMML 200815Z VRB03KT CAVOK 27/18 Q1016 NOSIG=
200806200800 METAR LMML NIL=
200806200745 METAR LMML 200745Z VRB03KT CAVOK 26/18 Q1016 NOSIG=
200806200730 METAR LMML NIL=
200806200715 METAR LMML 200715Z VRB03KT CAVOK 25/17 Q1016 NOSIG=
200806200700 METAR LMML NIL=
200806200645 METAR LMML 200645Z VRB03KT CAVOK 24/18 Q1016 NOSIG=
200806200615 METAR LMML 200615Z VRB03KT CAVOK 23/19 Q1016 NOSIG=
200806200600 METAR LMML NIL=
200806200545 METAR LMML 200545Z 33004KT 300V360 CAVOK 22/19 Q1016 NOSIG=
200806200530 METAR LMML NIL=
200806200515 METAR LMML 200515Z VRB01KT CAVOK 21/17 Q1015 NOSIG=
200806200500 METAR LMML NIL=
200806200445 METAR LMML 200445Z VRB02KT CAVOK 21/18 Q1015 NOSIG=
200806200430 METAR LMML NIL=
200806200415 METAR LMML 200415Z 21004KT CAVOK 20/18 Q1015 NOSIG=
200806200400 METAR LMML NIL=
200806200345 METAR LMML 200345Z VRB01KT CAVOK 20/17 Q1015 NOSIG=
200806200330 METAR LMML NIL=
200806200315 METAR LMML 200315Z VRB03KT CAVOK 20/18 Q1015 NOSIG=
200806200300 METAR LMML NIL=
200806200245 METAR LMML 200245Z VRB01KT CAVOK 20/18 Q1014 NOSIG=
200806200230 METAR LMML NIL=
200806200215 METAR LMML 200215Z VRB02KT CAVOK 20/18 Q1015 NOSIG=
200806200200 METAR LMML NIL=
200806200145 METAR LMML 200145Z 21004KT CAVOK 21/18 Q1015 NOSIG=
200806200130 METAR LMML NIL=
200806200115 METAR LMML 200115Z VRB03KT CAVOK 20/18 Q1015 NOSIG=
200806200100 METAR LMML NIL=
200806200045 METAR LMML 200045Z VRB03KT CAVOK 20/18 Q1015 NOSIG=
200806200030 METAR LMML NIL=
200806200015 METAR LMML 200015Z VRB02KT CAVOK 21/19 Q1015 NOSIG=
200806200000 METAR LMML NIL=
200806192345 METAR LMML 192345Z VRB03KT CAVOK 21/19 Q1015 NOSIG=
200806192330 METAR LMML NIL=
200806192315 METAR LMML 192315Z VRB03KT CAVOK 21/19 Q1015 NOSIG=
200806192300 METAR LMML NIL=
200806192245 METAR LMML 192245Z VRB03KT CAVOK 21/19 Q1015 NOSIG=
200806192215 METAR LMML 192215Z VRB02KT CAVOK 21/19 Q1015 NOSIG=
200806192200 METAR LMML NIL=
200806192145 METAR LMML 192145Z VRB03KT CAVOK 21/19 Q1016 NOSIG=
200806192130 METAR LMML NIL=
200806192115 METAR LMML 192115Z VRB02KT CAVOK 22/18 Q1016 NOSIG=
200806192100 METAR LMML NIL=
200806192045 METAR LMML 192045Z VRB03KT CAVOK 23/18 Q1016 NOSIG=
200806192030 METAR LMML NIL=
200806192015 METAR LMML 192015Z VRB03KT CAVOK 22/18 Q1015 NOSIG=
200806192000 METAR LMML NIL=
200806191945 METAR LMML 191945Z 13004KT CAVOK 23/18 Q1015 NOSIG=
200806191930 METAR LMML NIL=
200806191915 METAR LMML 191915Z VRB02KT CAVOK 23/18 Q1015 NOSIG=
200806191900 METAR LMML NIL=
200806191845 METAR LMML 191845Z VRB03KT CAVOK 23/18 Q1015 NOSIG=
200806191830 METAR LMML NIL=
200806191815 METAR LMML 191815Z 00000KT CAVOK 24/16 Q1015 NOSIG=
200806191800 METAR LMML NIL=
200806191745 METAR LMML 191745Z VRB02KT CAVOK 25/16 Q1015 NOSIG=
200806191730 METAR LMML NIL=
200806191715 METAR LMML 191715Z VRB03KT 9999 FEW030 26/16 Q1014 NOSIG=
200806191700 METAR LMML NIL=
200806191645 METAR LMML 191645Z 36005KT 320V060 CAVOK 26/17 Q1014 NOSIG=
200806191630 METAR LMML NIL=
200806191615 METAR LMML 191615Z 01005KT 330V070 9999 FEW030 26/17 Q1015
                        NOSIG=
200806191600 METAR LMML NIL=
200806191545 METAR LMML 191545Z 01006KT 320V050 9999 FEW030 26/17 Q1015
                        NOSIG=
200806191530 METAR LMML NIL=
200806191515 METAR LMML 191515Z 36007KT 330V040 9999 FEW030 26/17 Q1015
                        NOSIG=
200806191500 METAR LMML NIL=
200806191445 METAR LMML 191445Z 01006KT 320V070 9999 FEW030 27/17 Q1015
                        NOSIG=
200806191430 METAR LMML NIL=
200806191415 METAR LMML 191415Z 03009KT 360V060 9999 FEW030 26/17 Q1015
                        NOSIG=
200806191400 METAR LMML NIL=
200806191345 METAR LMML 191345Z 02008KT 360V060 CAVOK 27/17 Q1015 NOSIG=
200806191315 METAR LMML 191315Z 02010KT CAVOK 27/17 Q1015 NOSIG=
200806191300 METAR LMML NIL=
200806191245 METAR LMML 191245Z 02008KT 350V060 CAVOK 27/18 Q1015 NOSIG=
200806191230 METAR LMML NIL=
200806191215 METAR LMML 191215Z 02011KT 350V070 CAVOK 27/17 Q1015 NOSIG=
200806191200 METAR LMML NIL=
200806191145 METAR LMML 191145Z 04010KT 360V100 CAVOK 27/17 Q1015 NOSIG=
200806191130 METAR LMML NIL=
200806191115 METAR LMML 191115Z 03009KT 350V070 CAVOK 27/17 Q1015 NOSIG=
200806191100 METAR LMML NIL=
200806191045 METAR LMML 191045Z 03009KT 360V070 CAVOK 27/17 Q1015 NOSIG=
200806191030 METAR LMML NIL=
200806191015 METAR LMML 191015Z 03011KT 340V060 CAVOK 27/17 Q1015 NOSIG=
200806191000 METAR LMML NIL=
200806190945 METAR LMML 190945Z 03009KT 360V060 CAVOK 26/17 Q1015 NOSIG=
200806190930 METAR LMML NIL=
200806190915 METAR LMML 190915Z 03007KT 360V060 CAVOK 26/17 Q1015 NOSIG=
200806190900 METAR LMML NIL=
200806190845 METAR LMML 190845Z 02007KT 350V050 CAVOK 26/17 Q1015 NOSIG=
200806190830 METAR LMML NIL=
200806190815 METAR LMML 190815Z 03006KT 360V090 CAVOK 25/18 Q1014 NOSIG=
200806190800 METAR LMML NIL=
200806190745 METAR LMML 190745Z 06006KT 360V120 CAVOK 25/19 Q1014 NOSIG=
200806190730 METAR LMML NIL=
200806190715 METAR LMML 190715Z 05006KT 360V110 9999 FEW020 25/19 Q1014
                        NOSIG=
200806190700 METAR LMML NIL=
200806190645 METAR LMML 190645Z 04006KT 010V070 9999 FEW020 24/19 Q1014
                        NOSIG=
200806190630 METAR LMML NIL=
200806190615 METAR LMML 190615Z 03005KT 360V060 9000 SKC 24/19 Q1014 NOSIG=
200806190600 METAR LMML NIL=
200806190545 METAR LMML 190545Z VRB03KT 9000 SKC 22/21 Q1013 NOSIG=
200806190530 METAR LMML NIL=
200806190515 METAR LMML 190515Z VRB03KT 9000 SKC 21/21 Q1013 NOSIG=
200806190500 METAR LMML NIL=
200806190445 METAR LMML 190445Z VRB03KT 9000 SKC 20/20 Q1013 NOSIG=
200806190430 METAR LMML NIL=
200806190415 METAR LMML 190415Z VRB03KT 9000 SKC 20/20 Q1013 NOSIG=
200806190400 METAR LMML NIL=
200806190345 METAR LMML 190345Z VRB01KT 9000 SKC 20/20 Q1013 NOSIG=
200806190330 METAR LMML NIL=
200806190315 METAR LMML 190315Z VRB02KT CAVOK 20/20 Q1013 NOSIG=
200806190300 METAR LMML NIL=
200806190245 METAR LMML 190245Z VRB02KT CAVOK 20/20 Q1013 NOSIG=
200806190230 METAR LMML NIL=
200806190215 METAR LMML 190215Z VRB02KT CAVOK 21/20 Q1013 NOSIG=
200806190145 METAR LMML 190145Z 34005KT CAVOK 21/20 Q1013 NOSIG=
200806190130 METAR LMML NIL=
200806190115 METAR LMML 190115Z 33005KT CAVOK 21/19 Q1013 NOSIG=
200806190100 METAR LMML NIL=
200806190045 METAR LMML 190045Z 33005KT CAVOK 21/18 Q1013 NOSIG=
200806190030 METAR LMML NIL=
200806190015 METAR LMML 190015Z 33006KT CAVOK 22/17 Q1013 NOSIG=
200806190000 METAR LMML NIL=
200806182345 METAR LMML 182345Z 32006KT CAVOK 21/17 Q1013 NOSIG=
200806182330 METAR LMML NIL=
200806182315 METAR LMML 182315Z 32007KT CAVOK 21/18 Q1013 NOSIG=
200806182300 METAR LMML NIL=
200806182245 METAR LMML 182245Z 32008KT CAVOK 22/18 Q1014 NOSIG=
200806182230 METAR LMML NIL=
200806182215 METAR LMML 182215Z 32007KT 9999 FEW012 22/18 Q1014 NOSIG=
200806182200 METAR LMML NIL=
200806182145 METAR LMML 182145Z 32006KT 9999 FEW012 22/18 Q1014 NOSIG=
200806182130 METAR LMML NIL=
200806182115 METAR LMML 182115Z 32008KT CAVOK 22/19 Q1014 NOSIG=
200806182100 METAR LMML NIL=
200806182045 METAR LMML 182045Z 32008KT CAVOK 22/20 Q1014 NOSIG=
200806182015 METAR LMML 182015Z 30008KT CAVOK 23/19 Q1014 NOSIG=
200806182000 METAR LMML NIL=
200806181945 METAR LMML 181945Z 29008KT 260V320 CAVOK 23/17 Q1013 NOSIG=
200806181930 METAR LMML NIL=
200806181915 METAR LMML 181915Z 25005KT 220V280 CAVOK 23/18 Q1013 NOSIG=
200806181900 METAR LMML NIL=
200806181845 METAR LMML 181845Z VRB03KT CAVOK 23/18 Q1013 NOSIG=
200806181830 METAR LMML NIL=
200806181815 METAR LMML 181815Z 20004KT 160V220 CAVOK 24/17 Q1013 NOSIG=
200806181800 METAR LMML NIL=
200806181745 METAR LMML 181745Z 21004KT 170V250 CAVOK 25/16 Q1013 NOSIG=
200806181730 METAR LMML NIL=
200806181715 METAR LMML 181715Z 21005KT 180V250 CAVOK 26/15 Q1013 NOSIG=
200806181700 METAR LMML NIL=
200806181645 METAR LMML 181645Z 20005KT 170V240 CAVOK 27/14 Q1012 NOSIG=
200806181630 METAR LMML NIL=
200806181615 METAR LMML 181615Z 22004KT 180V280 CAVOK 27/14 Q1013 NOSIG=
200806181600 METAR LMML NIL=
200806181545 METAR LMML 181545Z 24005KT 180V320 CAVOK 27/14 Q1013 NOSIG=
200806181530 METAR LMML NIL=
200806181515 METAR LMML 181515Z 23007KT 190V290 CAVOK 27/15 Q1013 NOSIG=
200806181445 METAR LMML 181445Z 21006KT 160V270 CAVOK 27/16 Q1013 NOSIG=
200806181430 METAR LMML NIL=
200806181415 METAR LMML 181415Z 21005KT 140V280 CAVOK 27/17 Q1013 NOSIG=
200806181400 METAR LMML NIL=
200806181345 METAR LMML 181345Z 19008KT 150V260 CAVOK 26/18 Q1014 NOSIG=
200806181330 METAR LMML NIL=
200806181315 METAR LMML 181315Z 18009KT 150V240 CAVOK 26/17 Q1014 NOSIG=
200806181300 METAR LMML NIL=
200806181245 METAR LMML 181245Z 18011KT 150V220 CAVOK 26/18 Q1014 NOSIG=
200806181215 METAR LMML 181215Z 18013KT 150V220 CAVOK 26/17 Q1014 NOSIG=
200806181200 METAR LMML NIL=
200806181145 METAR LMML 181145Z 17012KT 130V210 CAVOK 27/16 Q1013 NOSIG=
200806181130 METAR LMML NIL=
200806181115 METAR LMML 181115Z 17014KT 140V210 CAVOK 26/17 Q1014 NOSIG=
200806181100 METAR LMML NIL=
200806181045 METAR LMML 181045Z 17014KT 140V230 CAVOK 27/16 Q1014 NOSIG=
200806181030 METAR LMML NIL=
200806181015 METAR LMML 181015Z 17013KT 140V210 CAVOK 27/16 Q1014 NOSIG=
200806181000 METAR LMML NIL=
200806180945 METAR LMML 180945Z 18014KT 150V220 CAVOK 26/16 Q1014 NOSIG=
200806180930 METAR LMML NIL=
200806180915 METAR LMML 180915Z 18015KT 140V210 CAVOK 26/16 Q1015 NOSIG=
200806180900 METAR LMML NIL=
200806180845 METAR LMML 180845Z 18012KT 140V210 CAVOK 26/16 Q1014 NOSIG=
200806180830 METAR LMML NIL=
200806180815 METAR LMML 180815Z 17011KT 130V210 CAVOK 26/16 Q1015 NOSIG=
200806180800 METAR LMML NIL=
200806180745 METAR LMML 180745Z 17012KT 130V210 CAVOK 25/16 Q1014 NOSIG=
200806180730 METAR LMML NIL=
200806180715 METAR LMML 180715Z 17010KT CAVOK 25/16 Q1015 NOSIG=
200806180700 METAR LMML NIL=
200806180645 METAR LMML 180645Z 16011KT 130V190 CAVOK 25/16 Q1015 NOSIG=
200806180630 METAR LMML NIL=
200806180615 METAR LMML 180615Z 17010KT 130V200 CAVOK 24/17 Q1014 NOSIG=
200806180600 METAR LMML NIL=
200806180545 METAR LMML 180545Z 17011KT 130V210 CAVOK 24/17 Q1014 NOSIG=
200806180530 METAR LMML NIL=
200806180515 METAR LMML 180515Z 17011KT 140V210 CAVOK 23/17 Q1013 NOSIG=
200806180500 METAR LMML NIL=
200806180445 METAR LMML 180445Z 17012KT 140V200 CAVOK 23/17 Q1013 NOSIG=
200806180430 METAR LMML NIL=
200806180415 METAR LMML 180415Z 17012KT CAVOK 23/16 Q1013 NOSIG=
200806180400 METAR LMML NIL=
200806180345 METAR LMML 180345Z 17013KT CAVOK 23/16 Q1013 NOSIG=
200806180330 METAR LMML NIL=
200806180315 METAR LMML 180315Z 16014KT 130V190 CAVOK 23/17 Q1013 NOSIG=
200806180300 METAR LMML NIL=
200806180245 METAR LMML 180245Z 17012KT 140V200 CAVOK 23/16 Q1013 NOSIG=
200806180230 METAR LMML NIL=
200806180215 METAR LMML 180215Z 17013KT 140V200 CAVOK 23/17 Q1013 NOSIG=
200806180200 METAR LMML NIL=
200806180145 METAR LMML 180145Z 17013KT CAVOK 23/17 Q1013 NOSIG=
200806180130 METAR LMML NIL=
200806180115 METAR LMML 180115Z 17013KT 140V200 CAVOK 23/17 Q1014 NOSIG=
200806180100 METAR LMML NIL=
200806180045 METAR LMML 180045Z 16013KT CAVOK 23/17 Q1013 NOSIG=
200806180030 METAR LMML NIL=
200806180015 METAR LMML 180015Z 16013KT 130V190 CAVOK 23/16 Q1014 NOSIG=
200806180000 METAR LMML NIL=
200806172345 METAR LMML 172345Z 16013KT CAVOK 23/16 Q1014 NOSIG=
200806172330 METAR LMML NIL=
200806172315 METAR LMML 172315Z 15014KT 110V190 CAVOK 23/16 Q1014 NOSIG=
200806172300 METAR LMML NIL=
200806172245 METAR LMML 172245Z 16012KT CAVOK 23/16 Q1014 NOSIG=
200806172215 METAR LMML 172215Z 16012KT CAVOK 23/17 Q1015 NOSIG RMK WS
                        RWY13=
200806172145 METAR LMML 172145Z 15013KT CAVOK 23/17 Q1015 NOSIG RMK WS
                        RWY 13=
200806172130 METAR LMML NIL=
200806172115 METAR LMML 172115Z 15011KT CAVOK 23/17 Q1015 NOSIG=
200806172100 METAR LMML NIL=
200806172045 METAR LMML 172045Z 15011KT 120V180 CAVOK 23/17 Q1015 NOSIG=
200806172030 METAR LMML NIL=
200806172015 METAR LMML 172015Z 15012KT CAVOK 23/17 Q1015 NOSIG=
200806172000 METAR LMML NIL=
200806171945 METAR LMML 171945Z 16014KT CAVOK 23/17 Q1015 NOSIG=
200806171930 METAR LMML NIL=
200806171915 METAR LMML 171915Z 15013KT CAVOK 23/18 Q1015 NOSIG=
200806171900 METAR LMML NIL=
200806171845 METAR LMML 171845Z 15011KT CAVOK 24/17 Q1015 NOSIG=
200806171830 METAR LMML NIL=
200806171815 METAR LMML 171815Z 15012KT 120V180 CAVOK 24/17 Q1015 NOSIG=
200806171800 METAR LMML NIL=
200806171745 METAR LMML 171745Z 16013KT CAVOK 24/17 Q1015 NOSIG=
200806171730 METAR LMML NIL=
200806171715 METAR LMML 171715Z 16013KT 130V190 CAVOK 25/17 Q1015 NOSIG=
200806171700 METAR LMML NIL=
200806171645 METAR LMML 171645Z 16014KT 130V190 CAVOK 25/16 Q1015 NOSIG=
200806171630 METAR LMML NIL=
200806171615 METAR LMML 171615Z 16015KT 130V190 CAVOK 26/16 Q1015 NOSIG=
200806171600 METAR LMML NIL=
200806171545 METAR LMML 171545Z 16016KT CAVOK 26/16 Q1015 NOSIG=
200806171530 METAR LMML NIL=
200806171515 METAR LMML 171515Z 16015KT 130V210 CAVOK 26/16 Q1015 NOSIG=
200806171500 METAR LMML NIL=
200806171445 METAR LMML 171445Z 16014KT CAVOK 27/16 Q1015 NOSIG=
200806171415 METAR LMML 171415Z 15012KT 120V190 CAVOK 27/16 Q1015 NOSIG=
200806171345 METAR LMML 171345Z 16013KT 130V190 CAVOK 28/14 Q1016 NOSIG=
200806171330 METAR LMML NIL=
200806171315 METAR LMML 171315Z 17013KT 120V200 CAVOK 27/15 Q1016 NOSIG=
200806171300 METAR LMML NIL=
200806171245 METAR LMML 171245Z 17011KT 130V210 CAVOK 27/15 Q1016 NOSIG=
200806171230 METAR LMML NIL=
200806171215 METAR LMML 171215Z 17011KT 130V210 CAVOK 28/14 Q1016 NOSIG=
200806171200 METAR LMML NIL=
200806171145 METAR LMML 171145Z 18011KT 150V210 CAVOK 27/14 Q1016 NOSIG=
200806171130 METAR LMML NIL=
200806171115 METAR LMML 171115Z 19012KT 150V230 CAVOK 27/14 Q1017 NOSIG=
200806171100 METAR LMML NIL=
200806171045 METAR LMML 171045Z 20011KT 140V240 CAVOK 27/15 Q1017 NOSIG=
200806171030 METAR LMML NIL=
200806171015 METAR LMML 171015Z 19012KT 170V270 CAVOK 27/15 Q1017 NOSIG=
200806171000 METAR LMML NIL=
200806170945 METAR LMML 170945Z 19013KT 160V230 CAVOK 27/15 Q1016 NOSIG=
200806170915 METAR LMML 170915Z 20012KT 160V240 CAVOK 27/14 Q1016 NOSIG=
200806170845 METAR LMML 170845Z 19012KT 150V230 CAVOK 26/15 Q1016 NOSIG=
200806170830 METAR LMML NIL=
200806170815 METAR LMML 170815Z 19011KT 150V250 CAVOK 26/16 Q1016 NOSIG=
200806170800 METAR LMML NIL=
200806170745 METAR LMML 170745Z 19012KT 160V240 CAVOK 26/16 Q1016 NOSIG=
200806170730 METAR LMML NIL=
200806170715 METAR LMML 170715Z 19014KT 160V240 CAVOK 25/16 Q1016 NOSIG=
200806170700 METAR LMML NIL=
200806170645 METAR LMML 170645Z 20013KT 150V240 CAVOK 24/17 Q1016 NOSIG=
200806170630 METAR LMML NIL=
200806170615 METAR LMML 170615Z 19013KT 150V230 CAVOK 24/17 Q1015 NOSIG=
200806170600 METAR LMML NIL=
200806170545 METAR LMML 170545Z 19011KT 160V240 CAVOK 24/18 Q1015 NOSIG=
200806170530 METAR LMML NIL=
200806170515 METAR LMML 170515Z 19011KT 150V230 CAVOK 23/18 Q1015 NOSIG=
200806170500 METAR LMML NIL=
200806170445 METAR LMML 170445Z 19010KT 160V230 CAVOK 23/18 Q1015 NOSIG=
200806170430 METAR LMML NIL=
200806170415 METAR LMML 170415Z 19011KT 170V240 CAVOK 23/18 Q1015 NOSIG=
200806170400 METAR LMML NIL=
200806170345 METAR LMML 170345Z 19011KT CAVOK 23/17 Q1014 NOSIG=
200806170330 METAR LMML NIL=
200806170315 METAR LMML 170315Z 19012KT 160V220 CAVOK 23/17 Q1014 NOSIG=
200806170245 METAR LMML 170245Z 19012KT 160V220 CAVOK 23/18 Q1014 NOSIG=
200806170230 METAR LMML NIL=
200806170215 METAR LMML 170215Z 19012KT 160V220 CAVOK 23/18 Q1014 NOSIG=
200806170200 METAR LMML NIL=
200806170145 METAR LMML 170145Z 19012KT 160V230 CAVOK 23/18 Q1014 NOSIG=
200806170130 METAR LMML NIL=
200806170115 METAR LMML 170115Z 19012KT 160V230 CAVOK 23/18 Q1014 NOSIG=
200806170100 METAR LMML NIL=
200806170045 METAR LMML 170045Z 19012KT 170V230 CAVOK 23/18 Q1014 NOSIG=
200806170030 METAR LMML NIL=
200806170015 METAR LMML 170015Z 18014KT CAVOK 23/18 Q1014 NOSIG=
200806170000 METAR LMML NIL=
200806162345 METAR LMML 162345Z 18011KT 150V220 CAVOK 23/18 Q1014 NOSIG=
200806162330 METAR LMML NIL=
200806162315 METAR LMML 162315Z 18009KT 130V220 CAVOK 23/17 Q1015 NOSIG=
200806162300 METAR LMML NIL=
200806162245 METAR LMML 162245Z 18009KT 150V210 CAVOK 23/18 Q1015 NOSIG=
200806162230 METAR LMML NIL=
200806162215 METAR LMML 162215Z 18009KT 150V210 CAVOK 23/18 Q1015 NOSIG=
200806162200 METAR LMML NIL=
200806162145 METAR LMML 162145Z 18009KT 150V230 CAVOK 23/19 Q1015 NOSIG=
200806162130 METAR LMML NIL=
200806162115 METAR LMML 162115Z 18010KT 140V200 CAVOK 23/19 Q1015 NOSIG=
200806162100 METAR LMML NIL=
200806162045 METAR LMML 162045Z 18012KT 150V210 CAVOK 23/19 Q1015 NOSIG=
200806162030 METAR LMML NIL=
200806162015 METAR LMML 162015Z 18009KT 140V230 CAVOK 23/20 Q1015 NOSIG=
200806162000 METAR LMML NIL=
200806161945 METAR LMML 161945Z 17008KT 130V200 CAVOK 22/20 Q1014 NOSIG=
200806161930 METAR LMML NIL=
200806161900 METAR LMML NIL=
200806161845 METAR LMML 161845Z 16007KT 120V190 CAVOK 23/20 Q1014 NOSIG=
200806161830 METAR LMML NIL=
200806161815 METAR LMML 161815Z 15008KT 110V180 CAVOK 23/19 Q1014 NOSIG=
200806161800 METAR LMML NIL=
200806161745 METAR LMML 161745Z 15009KT 120V190 CAVOK 23/19 Q1014 NOSIG=
200806161730 METAR LMML NIL=
200806161715 METAR LMML 161715Z 16007KT 130V200 CAVOK 24/19 Q1014 NOSIG=
200806161645 METAR LMML 161645Z 16008KT 130V200 CAVOK 24/18 Q1014 NOSIG=
200806161630 METAR LMML NIL=
200806161615 METAR LMML 161615Z 16009KT 120V180 CAVOK 25/18 Q1014 NOSIG=
200806161600 METAR LMML NIL=
200806161545 METAR LMML 161545Z 17008KT 130V200 CAVOK 25/17 Q1014 NOSIG=
200806161530 METAR LMML NIL=
200806161515 METAR LMML 161515Z 16009KT 120V190 CAVOK 26/18 Q1014 NOSIG=
200806161500 METAR LMML NIL=
200806161445 METAR LMML 161445Z 15009KT 130V190 CAVOK 26/18 Q1014 NOSIG=
200806161430 METAR LMML NIL=
200806161415 METAR LMML 161415Z 16009KT CAVOK 25/18 Q1014 NOSIG=
200806161345 METAR LMML 161345Z 17010KT 130V200 CAVOK 25/17 Q1014 NOSIG=
200806161330 METAR LMML NIL=
200806161315 METAR LMML 161315Z 17011KT CAVOK 26/17 Q1014 NOSIG=
200806161300 METAR LMML NIL=
200806161245 METAR LMML 161245Z 17009KT 130V210 CAVOK 26/17 Q1015 NOSIG=
200806161230 METAR LMML NIL=
200806161215 METAR LMML 161215Z 16011KT 130V190 CAVOK 26/18 Q1015 NOSIG=
200806161200 METAR LMML NIL=
200806161145 METAR LMML 161145Z 15010KT 120V190 CAVOK 26/18 Q1015 NOSIG=
200806161130 METAR LMML NIL=
200806161115 METAR LMML 161115Z 15011KT CAVOK 25/18 Q1015 NOSIG=
200806161100 METAR LMML NIL=
200806161045 METAR LMML 161045Z 14011KT CAVOK 25/18 Q1015 NOSIG=
200806161015 METAR LMML 161015Z 14011KT CAVOK 25/18 Q1015 NOSIG=
200806161000 LMML NIL=
200806160945 LMML 160945Z 14009KT 100V180 CAVOK 25/18 Q1015 NOSIG=
200806160930 METAR LMML NIL=
200806160915 METAR LMML 160915Z 14008KT 110V180 CAVOK 25/18 Q1015 NOSIG=
200806160900 METAR LMML NIL=
200806160845 METAR LMML 160845Z 16007KT 120V190 9999 FEW012 SCT250 25/18
                        Q1015 NOSIG=
200806160830 METAR LMML NIL=
200806160815 METAR LMML 160815Z 14007KT 070V180 9999 FEW012 SCT250 24/18
                        Q1015 NOSIG=
200806160800 METAR LMML NIL=
200806160745 METAR LMML 160745Z 16007KT 120V220 9999 FEW012 SCT250 24/18
                        Q1015 NOSIG=
200806160730 METAR LMML NIL=
200806160715 METAR LMML 160715Z 16006KT 120V210 9999 FEW012 SCT250 24/18
                        Q1015 NOSIG=
200806160700 METAR LMML NIL=
200806160645 METAR LMML 160645Z 17007KT 130V190 CAVOK 23/19 Q1015 NOSIG=
200806160630 METAR LMML NIL=
200806160615 METAR LMML 160615Z 16006KT 120V190 CAVOK 23/18 Q1015 NOSIG=
200806160600 METAR LMML NIL=
200806160545 METAR LMML 160545Z 16005KT 130V210 CAVOK 22/17 Q1014 NOSIG=
200806160530 METAR LMML NIL=
200806160515 METAR LMML 160515Z VRB03KT CAVOK 21/19 Q1014 NOSIG=
200806160500 METAR LMML NIL=
200806160445 METAR LMML 160445Z VRB03KT CAVOK 20/19 Q1014 NOSIG=
200806160430 METAR LMML NIL=
200806160415 METAR LMML 160415Z VRB03KT CAVOK 20/19 Q1014 NOSIG=
200806160400 METAR LMML NIL=
200806160345 METAR LMML 160345Z VRB02KT CAVOK 20/19 Q1014 NOSIG=
200806160330 METAR LMML NIL=
200806160315 METAR LMML 160315Z 20004KT CAVOK 20/19 Q1014 NOSIG=
200806160300 METAR LMML NIL=
200806160245 METAR LMML 160245Z 20005KT 170V240 CAVOK 20/18 Q1014 NOSIG=
200806160230 METAR LMML NIL=
200806160215 METAR LMML 160215Z 21004KT CAVOK 20/19 Q1014 NOSIG=
200806160200 METAR LMML NIL=
200806160145 METAR LMML 160145Z 21005KT 190V250 CAVOK 20/19 Q1014 NOSIG=
200806160115 METAR LMML 160115Z 21005KT 180V240 CAVOK 20/19 Q1014 NOSIG=
200806160100 METAR LMML NIL=
200806160045 METAR LMML 160045Z 21004KT 170V240 CAVOK 20/18 Q1014 NOSIG=
200806160030 METAR LMML NIL=
200806160015 METAR LMML 160015Z 22004KT CAVOK 20/17 Q1014 NOSIG=
200806160000 METAR LMML NIL=
200806152345 METAR LMML 152345Z 21005KT CAVOK 20/17 Q1014 NOSIG=
200806152315 METAR LMML 152315Z 21004KT 170V240 CAVOK 20/16 Q1015 NOSIG=
200806152300 METAR LMML NIL=
200806152245 METAR LMML 152245Z VRB03KT CAVOK 20/16 Q1015 NOSIG=
200806152230 METAR LMML NIL=
200806152215 METAR LMML 152215Z 21004KT CAVOK 20/16 Q1015 NOSIG=
200806152200 METAR LMML NIL=
200806152145 METAR LMML 152145Z 22005KT 190V270 CAVOK 20/17 Q1015 NOSIG=
200806152130 METAR LMML NIL=
200806152115 METAR LMML 152115Z 21005KT 180V250 CAVOK 20/17 Q1015 NOSIG=
200806152100 METAR LMML NIL=
200806152045 METAR LMML 152045Z 22006KT 190V250 CAVOK 21/16 Q1015 NOSIG=
200806152030 METAR LMML NIL=
200806152015 METAR LMML 152015Z 23005KT 210V280 CAVOK 20/15 Q1015 NOSIG=
200806152000 METAR LMML NIL=
200806151945 METAR LMML 151945Z 24005KT 210V270 CAVOK 20/17 Q1015 NOSIG=
200806151930 METAR LMML NIL=
200806151915 METAR LMML 151915Z 24005KT 210V270 CAVOK 21/17 Q1015 NOSIG=
200806151900 METAR LMML NIL=
200806151845 METAR LMML 151845Z 25006KT 220V280 CAVOK 21/17 Q1015 NOSIG=
200806151830 METAR LMML NIL=
200806151815 METAR LMML 151815Z 24005KT 200V280 CAVOK 21/17 Q1015 NOSIG=
200806151745 METAR LMML 151745Z 24006KT 210V280 CAVOK 22/16 Q1015 NOSIG
                        RMK SMOKE OVER AIRFIELD=
200806151730 METAR LMML NIL=
200806151715 METAR LMML 151715Z 24006KT 200V290 CAVOK 23/15 Q1015 NOSIG=
200806151700 METAR LMML NIL=
200806151645 METAR LMML 151645Z 26008KT 220V310 CAVOK 24/11 Q1015 NOSIG=
200806151630 METAR LMML NIL=
200806151615 METAR LMML 151615Z 27009KT 220V290 CAVOK 24/11 Q1015 NOSIG=
200806151600 METAR LMML NIL=
200806151545 METAR LMML 151545Z 29009KT 250V330 CAVOK 25/10 Q1015 NOSIG=
200806151530 METAR LMML NIL=
200806151515 METAR LMML 151515Z 28009KT 230V310 CAVOK 26/10 Q1015 NOSIG=
200806151500 METAR LMML NIL=
200806151445 METAR LMML 151445Z 29010KT 250V340 CAVOK 26/10 Q1015 NOSIG=
200806151430 METAR LMML NIL=
200806151415 METAR LMML 151415Z 29010KT 260V340 CAVOK 26/10 Q1015 NOSIG=
200806151400 METAR LMML NIL=
200806151345 METAR LMML 151345Z 31011KT 270V340 CAVOK 27/10 Q1016 NOSIG=
200806151330 METAR LMML NIL=
200806151315 METAR LMML 151315Z 31010KT 260V340 CAVOK 27/10 Q1016 NOSIG=
200806151300 METAR LMML NIL=
200806151245 METAR LMML 151245Z 31009KT 260V350 CAVOK 27/10 Q1016 NOSIG=
200806151230 METAR LMML NIL=
200806151215 METAR LMML 151215Z 30010KT 250V340 CAVOK 26/10 Q1016 NOSIG=
200806151200 METAR LMML NIL=
200806151145 METAR LMML 151145Z 31010KT 280V350 CAVOK 26/11 Q1016 NOSIG=
200806151130 METAR LMML NIL=
200806151115 METAR LMML 151115Z 30011KT 250V340 CAVOK 26/11 Q1016 NOSIG=
200806151100 METAR LMML NIL=
200806151045 METAR LMML 151045Z 31011KT 270V340 CAVOK 26/11 Q1016 NOSIG=
200806151030 METAR LMML NIL=
200806151015 METAR LMML 151015Z 31011KT 280V340 CAVOK 26/10 Q1016 NOSIG=
200806151000 METAR LMML NIL=
200806150945 METAR LMML 150945Z 31010KT 280V350 CAVOK 26/09 Q1017 NOSIG=
200806150930 METAR LMML NIL=
200806150915 METAR LMML 150915Z 32011KT 280V350 9999 FEW025 25/11 Q1017
                        NOSIG=
200806150900 METAR LMML NIL=
200806150845 METAR LMML 150845Z 29010KT 9999 FEW020 25/10 Q1017 NOSIG=
200806150830 METAR LMML NIL=
200806150815 METAR LMML 150815Z 30010KT 270V330 9999 FEW020 24/12 Q1016
                        NOSIG=
200806150800 METAR LMML NIL=
200806150745 METAR LMML 150745Z 29010KT 9999 FEW020 24/14 Q1016 NOSIG=
200806150730 METAR LMML NIL=
200806150715 METAR LMML 150715Z 32010KT 9999 FEW020 24/14 Q1016 NOSIG=
200806150700 METAR LMML NIL=
200806150645 METAR LMML 150645Z 31009KT 9999 FEW020 23/15 Q1016 NOSIG=
200806150630 LMML NIL=
200806150615 METAR LMML 150615Z 31009KT 280V340 9999 FEW020 22/16 Q1016
                        NOSIG=
200806150600 METAR LMML NIL=
200806150545 METAR LMML 150545Z 31009KT 9999 FEW020 22/15 Q1016 NOSIG=
200806150530 METAR LMML NIL=
200806150515 METAR LMML 150515Z 30008KT CAVOK 21/15 Q1015 NOSIG=
200806150500 METAR LMML NIL=
200806150445 METAR LMML 150445Z 31008KT CAVOK 20/15 Q1015 NOSIG=
200806150430 METAR LMML NIL=
200806150415 METAR LMML 150415Z 31009KT CAVOK 20/15 Q1015 NOSIG=
200806150400 METAR LMML NIL=
200806150345 METAR LMML 150345Z 31009KT CAVOK 19/14 Q1015 NOSIG=
200806150330 METAR LMML NIL=
200806150315 METAR LMML 150315Z 31010KT CAVOK 20/14 Q1015 NOSIG=
200806150300 METAR LMML NIL=
200806150245 METAR LMML 150245Z 30010KT CAVOK 20/14 Q1015 NOSIG=
200806150230 METAR LMML NIL=
200806150215 METAR LMML 150215Z 29011KT CAVOK 20/13 Q1015 NOSIG=
200806150200 METAR LMML NIL=
200806150145 METAR LMML 150145Z 29009KT CAVOK 20/14 Q1015 NOSIG=
200806150130 METAR LMML NIL=
200806150115 METAR LMML 150115Z 29009KT CAVOK 20/14 Q1015 NOSIG=
200806150100 METAR LMML NIL=
200806150045 METAR LMML 150045Z 30010KT CAVOK 20/15 Q1015 NOSIG=
200806150030 METAR LMML NIL=
200806150015 METAR LMML 150015Z 29010KT CAVOK 20/15 Q1016 NOSIG=
200806150000 METAR LMML NIL=
200806142345 METAR LMML 142345Z 29009KT CAVOK 20/15 Q1016 NOSIG=
200806142330 METAR LMML NIL=
200806142315 METAR LMML 142315Z 29009KT CAVOK 20/15 Q1016 NOSIG=
200806142245 METAR LMML 142245Z 29009KT CAVOK 21/15 Q1016 NOSIG=
200806142215 METAR LMML 142215Z 29010KT CAVOK 20/14 Q1016 NOSIG=
200806142145 METAR LMML 142145Z 29010KT 260V320 CAVOK 21/14 Q1016 NOSIG=
200806142130 METAR LMML NIL=
200806142115 METAR LMML 142115Z 29010KT CAVOK 21/13 Q1016 NOSIG=
200806142100 METAR LMML NIL=
200806142045 METAR LMML 142045Z 29011KT CAVOK 21/14 Q1016 NOSIG=
200806142030 METAR LMML NIL=
200806142015 METAR LMML 142015Z 29012KT CAVOK 21/15 Q1016 NOSIG=
200806142000 METAR LMML NIL=
200806141945 METAR LMML 141945Z 29013KT CAVOK 21/14 Q1016 NOSIG=
200806141915 METAR LMML 141915Z 28014KT 250V310 CAVOK 21/15 Q1015 NOSIG=
200806141900 METAR LMML NIL=
200806141845 METAR LMML 141845Z 28012KT 250V310 CAVOK 21/16 Q1015 NOSIG=
200806141830 METAR LMML NIL=
200806141815 METAR LMML 141815Z 28013KT CAVOK 22/14 Q1015 NOSIG=
200806141800 METAR LMML NIL=
200806141745 METAR LMML 141745Z 28013KT 240V300 CAVOK 23/15 Q1015 NOSIG=
200806141730 METAR LMML NIL=
200806141715 METAR LMML 141715Z 29014KT 250V320 CAVOK 23/14 Q1015 NOSIG=
200806141645 METAR LMML 141645Z 29013KT 9999 FEW030 24/14 Q1015 NOSIG=
200806141615 METAR LMML 141615Z 29014KT 9999 FEW030 24/13 Q1015 NOSIG=
200806141600 METAR LMML NIL=
200806141545 METAR LMML 141545Z 29011KT 260V330 9999 FEW030 26/13 Q1015
                        NOSIG=
200806141530 METAR LMML NIL=
200806141515 METAR LMML 141515Z 28012KT 240V310 CAVOK 26/12 Q1015 NOSIG=
200806141500 METAR LMML NIL=
200806141445 METAR LMML 141445Z 29011KT 240V330 9999 FEW030 SCT250 27/10
                        Q1015 NOSIG=
200806141430 METAR LMML NIL=
200806141415 METAR LMML 141415Z 31009KT 280V350 9999 FEW030 SCT250 27/11
                        Q1015 NOSIG=
200806141400 METAR LMML NIL=
200806141345 METAR LMML 141345Z 30008KT 260V330 9999 FEW030 SCT250 26/11
                        Q1015 NOSIG=
200806141330 METAR LMML NIL=
200806141315 METAR LMML 141315Z 32011KT 260V340 9999 FEW030 SCT250 27/10
                        Q1015 NOSIG=
200806141300 METAR LMML NIL=
200806141245 METAR LMML 141245Z 30009KT 250V340 CAVOK 27/09 Q1015 NOSIG=
200806141230 METAR LMML NIL=
200806141215 METAR LMML 141215Z 28010KT 240V310 9999 FEW030 27/09 Q1015
                        NOSIG=
200806141200 METAR LMML NIL=
200806141145 METAR LMML 141145Z 31009KT 260V350 9999 FEW030 27/10 Q1016
                        NOSIG=
200806141130 METAR LMML NIL=
200806141115 METAR LMML 141115Z 30008KT 270V360 9999 FEW030 27/10 Q1016
                        NOSIG=
200806141100 METAR LMML NIL=
200806141045 METAR LMML 141045Z 31009KT 270V350 CAVOK 27/11 Q1016 NOSIG=
200806141030 METAR LMML NIL=
200806141015 METAR LMML 141015Z 32009KT 290V360 9999 FEW030 27/11 Q1016
                        NOSIG=
200806141000 METAR LMML NIL=
200806140945 METAR LMML 140945Z 31008KT 260V020 9999 FEW030 27/11 Q1016
                        NOSIG=
200806140930 METAR LMML NIL=
200806140915 METAR LMML 140915Z 31007KT 260V350 CAVOK 27/10 Q1015 NOSIG=
200806140900 METAR LMML NIL=
200806140845 METAR LMML 140845Z 33006KT 290V020 CAVOK 26/14 Q1015 NOSIG=
200806140830 METAR LMML NIL=
200806140815 METAR LMML 140815Z 32005KT 260V360 CAVOK 26/14 Q1015 NOSIG=
200806140800 METAR LMML NIL=
200806140745 METAR LMML 140745Z 33007KT 300V010 CAVOK 25/12 Q1015 NOSIG=
200806140730 METAR LMML NIL=
200806140715 METAR LMML 140715Z 34005KT 290V020 CAVOK 24/14 Q1015 NOSIG=
200806140700 METAR LMML NIL=
200806140645 METAR LMML 140645Z 33006KT 300V360 9999 FEW015 23/15 Q1015
                        NOSIG=
200806140630 METAR LMML NIL=
200806140615 METAR LMML 140615Z 33006KT 300V360 9999 FEW015 23/17 Q1015
                        NOSIG=
200806140600 METAR LMML NIL=
200806140545 METAR LMML 140545Z 32007KT 9999 FEW015 21/19 Q1014 NOSIG=
200806140530 METAR LMML NIL=
200806140515 METAR LMML 140515Z 33006KT 9999 FEW015 20/19 Q1014 NOSIG=
200806140500 METAR LMML NIL=
200806140445 METAR LMML 140445Z 32007KT 9999 FEW015 19/18 Q1014 NOSIG=
200806140430 METAR LMML NIL=
200806140415 METAR LMML 140415Z 32005KT 9999 FEW015 19/18 Q1014 NOSIG=
200806140400 METAR LMML NIL=
200806140345 METAR LMML 140345Z VRB03KT 9999 FEW015 19/19 Q1014 NOSIG=
200806140330 METAR LMML NIL=
200806140315 METAR LMML 140315Z 32006KT 9999 FEW015 19/18 Q1014 NOSIG=
200806140300 METAR LMML NIL=
200806140245 METAR LMML 140245Z 32007KT CAVOK 19/18 Q1014 NOSIG=
200806140230 METAR LMML NIL=
200806140215 METAR LMML 140215Z 31009KT CAVOK 19/18 Q1014 NOSIG=
200806140200 METAR LMML NIL=
200806140145 METAR LMML 140145Z 31009KT CAVOK 19/18 Q1014 NOSIG=
200806140115 METAR LMML 140115Z 32008KT CAVOK 19/19 Q1014 NOSIG=
200806140100 METAR LMML NIL=
200806140045 METAR LMML 140045Z 32012KT CAVOK 19/19 Q1014 NOSIG=
200806140015 METAR LMML 140015Z 32010KT CAVOK 20/19 Q1014 NOSIG=
200806132345 METAR LMML 132345Z 30011KT CAVOK 20/19 Q1014 NOSIG=
200806132330 METAR LMML NIL=
200806132315 METAR LMML 132315Z 30013KT 9999 FEW015 20/19 Q1014 NOSIG=
200806132300 METAR LMML NIL=
200806132245 METAR LMML 132245Z 30012KT 9999 FEW015 20/18 Q1014 NOSIG=
200806132215 METAR LMML 132215Z 29012KT 270V330 9999 FEW015 20/18 Q1014
                        NOSIG=
200806132200 METAR LMML NIL=
200806132145 METAR LMML 132145Z 29011KT 9999 FEW015 20/18 Q1014 NOSIG=
200806132130 METAR LMML NIL=
200806132115 METAR LMML 132115Z 30009KT 9999 FEW015 20/18 Q1014 NOSIG=
200806132100 METAR LMML NIL=
200806132045 METAR LMML 132045Z 29011KT 9999 FEW015 20/18 Q1014 NOSIG=
200806132030 METAR LMML NIL=
200806132015 METAR LMML 132015Z 29008KT 250V320 9999 FEW015 20/18 Q1014
                        NOSIG=
200806132000 METAR LMML NIL=
200806131945 METAR LMML 131945Z 29012KT 250V320 9999 FEW015 20/18 Q1014
                        NOSIG=
200806131930 METAR LMML NIL=
200806131915 METAR LMML 131915Z 29008KT 250V330 9999 FEW019 20/18 Q1014
                        NOSIG=
200806131900 METAR LMML NIL=
200806131845 METAR LMML 131845Z 30014KT 9999 FEW019 SCT250 20/17 Q1013
                        NOSIG=
200806131830 METAR LMML NIL=
200806131815 METAR LMML 131815Z 29015KT 260V320 9999 FEW019 SCT250 21/17
                        Q1013 NOSIG=
200806131800 METAR LMML NIL=
200806131745 METAR LMML 131745Z 29015KT 260V330 9999 FEW019 SCT250 21/17
                        Q1013 NOSIG=
200806131730 METAR LMML NIL=
200806131715 METAR LMML 131715Z 29018KT 9999 FEW019 22/17 Q1013 NOSIG=
200806131700 METAR LMML NIL=
200806131645 METAR LMML 131645Z 29017KT 9999 FEW019 22/17 Q1013 NOSIG=
200806131630 METAR LMML NIL=
200806131615 METAR LMML 131615Z 29016KT 250V320 9999 FEW021 22/16 Q1013
                        NOSIG=
200806131600 METAR LMML NIL=
200806131545 METAR LMML 131545Z 28018KT 250V310 9999 FEW020 23/16 Q1013
                        NOSIG=
200806131530 LMML NIL=
200806131515 METAR LMML 131515Z 28018KT 250V320 9999 SCT020 23/17 Q1013
                        NOSIG=
200806131500 METAR LMML NIL=
200806131445 METAR LMML 131445Z 29016KT 250V310 9999 SCT020 23/16 Q1013
                        NOSIG=
200806131430 METAR LMML NIL=
200806131415 METAR LMML 131415Z 29019KT 9999 SCT022 23/15 Q1013 NOSIG=
200806131400 METAR LMML NIL=
200806131345 METAR LMML 131345Z 28016KT 250V310 9999 SCT022 23/16 Q1013
                        NOSIG=
200806131315 METAR LMML 131315Z 28015KT 210V310 9999 BKN023 23/16 Q1014
                        NOSIG=
200806131300 METAR LMML NIL=
200806131245 METAR LMML 131245Z 28013KT 240V310 9999 BKN023 23/16 Q1014
                        NOSIG=
200806131230 METAR LMML NIL=
200806131215 METAR LMML 131215Z 29015KT 230V330 9999 BKN024 24/16 Q1014
                        NOSIG=
200806131200 METAR LMML NIL=
200806131145 METAR LMML 131145Z 29015KT 250V330 9999 SCT025 23/15 Q1014
                        NOSIG=
200806131130 METAR LMML NIL=
200806131115 METAR LMML 131115Z 30012KT 260V330 9999 SCT027 24/15 Q1014
                        NOSIG=
200806131100 METAR LMML NIL=
200806131045 METAR LMML 131045Z 29012KT 250V340 9999 SCT029 24/15 Q1014
                        NOSIG=
200806131015 METAR LMML 131015Z 30012KT 260V330 9999 FEW024 24/13 Q1014
                        NOSIG=
200806131000 METAR LMML NIL=
200806130945 METAR LMML 130945Z 30014KT 270V330 9999 SCT024 24/16 Q1014
                        NOSIG=
200806130930 METAR LMML NIL=
200806130915 METAR LMML 130915Z 31015KT 270V360 9999 SCT025 24/15 Q1014
                        NOSIG=
200806130900 METAR LMML NIL=
200806130845 METAR LMML 130845Z 31014KT 270V330 9999 FEW023 24/15 Q1013
                        NOSIG=
200806130830 METAR LMML NIL=
200806130815 METAR LMML 130815Z 30013KT 270V330 9999 FEW022 23/16 Q1013
                        NOSIG=
200806130800 METAR LMML NIL=
200806130745 METAR LMML 130745Z 32012KT 280V340 9999 FEW022 23/16 Q1013
                        NOSIG=
200806130730 METAR LMML NIL=
200806130715 METAR LMML 130715Z 30011KT 260V330 9999 FEW020 22/16 Q1013
                        NOSIG=
200806130700 METAR LMML NIL=
200806130645 METAR LMML 130645Z 30012KT 260V330 9999 FEW018 22/16 Q1013
                        NOSIG=
200806130630 METAR LMML NIL=
200806130615 METAR LMML 130615Z 31012KT 260V340 9999 FEW017 21/17 Q1013
                        NOSIG=
200806130600 METAR LMML NIL=
200806130545 METAR LMML 130545Z 32014KT 290V350 9999 FEW014 21/17 Q1013
                        NOSIG=
200806130530 METAR LMML NIL=
200806130515 METAR LMML 130515Z 32012KT 280V340 9999 FEW014 20/17 Q1013
                        NOSIG=
200806130500 METAR LMML NIL=
200806130445 METAR LMML 130445Z 31008KT 9999 SCT013 20/18 Q1013 NOSIG=
200806130430 METAR LMML NIL=
200806130415 METAR LMML 130415Z 32009KT 9999 FEW012 19/18 Q1012 NOSIG=
200806130400 METAR LMML NIL=
200806130345 METAR LMML 130345Z 32009KT 290V350 9999 FEW012 19/18 Q1012
                        NOSIG=
200806130330 METAR LMML NIL=
200806130315 METAR LMML 130315Z 31011KT 9999 FEW012 BKN120 20/18 Q1012
                        NOSIG=
200806130300 METAR LMML NIL=
200806130245 METAR LMML 130245Z 30008KT CAVOK 20/18 Q1012 NOSIG=
200806130230 METAR LMML NIL=
200806130215 METAR LMML 130215Z 31010KT 9999 FEW012 BKN120 20/18 Q1012
                        NOSIG=
200806130200 METAR LMML NIL=
200806130145 METAR LMML 130145Z 30009KT 9999 FEW012 BKN120 20/18 Q1012
                        NOSIG=
200806130130 METAR LMML NIL=
200806130115 METAR LMML 130115Z 30008KT 9999 FEW012 20/18 Q1012 NOSIG=
200806130100 METAR LMML NIL=
200806130045 METAR LMML 130045Z 30006KT 280V340 9999 FEW012 20/18 Q1012
                        NOSIG=
200806130030 METAR LMML NIL=
200806130015 METAR LMML 130015Z 31007KT 280V340 9999 FEW012 20/18 Q1012
                        NOSIG=
200806130000 METAR LMML NIL=
200806122345 METAR LMML 122345Z 31006KT 270V340 9999 FEW012 20/19 Q1012
                        NOSIG=
200806122330 METAR LMML NIL=
200806122315 METAR LMML 122315Z 30007KT 280V340 9999 FEW014 20/19 Q1013
                        NOSIG=
200806122300 METAR LMML NIL=
200806122245 METAR LMML 122245Z 29009KT 260V320 9999 FEW010 20/19 Q1013
                        NOSIG=
200806122230 METAR LMML NIL=
200806122215 METAR LMML 122215Z 29010KT 9999 FEW010 20/19 Q1013 NOSIG=
200806122200 METAR LMML NIL=
200806122145 METAR LMML 122145Z 29008KT CAVOK 21/19 Q1013 NOSIG=
200806122130 METAR LMML NIL=
200806122115 METAR LMML 122115Z 29006KT CAVOK 21/18 Q1013 NOSIG=
200806122100 METAR LMML NIL=
200806122045 METAR LMML 122045Z 29005KT CAVOK 21/18 Q1013 NOSIG=
200806122030 METAR LMML NIL=
200806122015 METAR LMML 122015Z 30006KT CAVOK 21/17 Q1013 NOSIG=
200806122000 METAR LMML NIL=
200806121945 METAR LMML 121945Z VRB03KT CAVOK 21/15 Q1012 NOSIG=
200806121930 METAR LMML NIL=
200806121915 METAR LMML 121915Z 30004KT CAVOK 22/13 Q1012 NOSIG=
200806121900 METAR LMML NIL=
200806121845 METAR LMML 121845Z 30004KT 270V330 CAVOK 22/13 Q1012 NOSIG=
200806121830 METAR LMML NIL=
200806121815 METAR LMML 121815Z 31006KT CAVOK 22/11 Q1012 NOSIG=
200806121800 METAR LMML NIL=
200806121745 METAR LMML 121745Z 31007KT CAVOK 23/12 Q1012 NOSIG=
200806121730 METAR LMML NIL=
200806121715 METAR LMML 121715Z 31009KT 9999 FEW030 24/12 Q1011 BECMG
                        30010KT=
200806121700 METAR LMML NIL=
200806121645 METAR LMML 121645Z VRB03KT 9999 FEW030 25/16 Q1011 BECMG
                        30010KT=
200806121630 METAR LMML NIL=
200806121615 METAR LMML 121615Z 06005KT 010V110 9999 FEW030 24/16 Q1011
                        BECMG 30010KT=
200806121600 METAR LMML NIL=
200806121545 METAR LMML 121545Z VRB03KT 9999 FEW034 25/14 Q1011 BECMG
                        30010KT=
200806121530 METAR LMML NIL=
200806121515 METAR LMML 121515Z 05005KT 020V100 9999 FEW034 26/14 Q1011
                        BECMG 30010KT=
200806121500 METAR LMML NIL=
200806121445 METAR LMML 121445Z 04006KT 360V090 9999 FEW030 26/16 Q1012
                        BECMG 30010KT=
200806121430 METAR LMML NIL=
200806121415 METAR LMML 121415Z 04007KT 010V070 9999 FEW030 26/16 Q1012
                        BECMG 30010KT=
200806121400 METAR LMML NIL=
200806121345 METAR LMML 121345Z 02007KT 340V060 CAVOK 26/16 Q1012 BECMG
                        30010KT=
200806121330 METAR LMML NIL=
200806121315 METAR LMML 121315Z 23005KT 180V320 9999 FEW030 26/12 Q1012
                        BECMG 30010KT=
200806121300 METAR LMML NIL=
200806121245 METAR LMML 121245Z 20006KT 160V280 9999 FEW033 26/13 Q1013
                        BECMG 30010KT=
200806121230 METAR LMML NIL=
200806121215 METAR LMML 121215Z VRB02KT 9999 FEW030 SCT120 26/13 Q1013
                        BECMG 30010KT=
200806121200 METAR LMML NIL=
200806121145 METAR LMML 121145Z 03004KT 360V080 9999 FEW031 27/16 Q1012
                        BECMG 30010KT=
200806121130 METAR LMML NIL=
200806121115 METAR LMML 121115Z 23004KT 130V310 9999 FEW025 26/12 Q1013
                        BECMG 30010KT=
200806121045 METAR LMML 121045Z 21004KT 150V280 9999 FEW025 26/12 Q1013
                        BECMG 30010KT=
200806121030 METAR LMML NIL=
200806121015 METAR LMML 121015Z 20005KT 140V290 9999 FEW025 26/12 Q1013
                        BECMG 30010KT=
200806121000 METAR LMML NIL=
200806120945 METAR LMML 120945Z 24004KT 200V300 9999 FEW025 26/06 Q1013
                        NOSIG=
200806120930 METAR LMML NIL=
200806120915 METAR LMML 120915Z 22005KT 170V290 9999 FEW012 SCT120 25/09
                        Q1014 NOSIG=
200806120900 METAR LMML NIL=
200806120845 METAR LMML 120845Z 23004KT 180V310 9999 FEW012 25/10 Q1014
                        NOSIG=
200806120830 METAR LMML NIL=
200806120815 METAR LMML 120815Z 23004KT 180V280 9999 FEW012 SCT120 24/13
                        Q1014 NOSIG=
200806120800 METAR LMML NIL=
200806120745 METAR LMML 120745Z 20005KT 160V240 9999 FEW011 SCT120 23/15
                        Q1013 NOSIG=
200806120730 METAR LMML NIL=
200806120715 METAR LMML 120715Z 19006KT 150V230 9999 FEW006 SCT120 23/15
                        Q1013 NOSIG=
200806120700 METAR LMML NIL=
200806120645 METAR LMML 120645Z 20005KT 150V250 9999 FEW006 SCT120 22/18
                        Q1013 NOSIG=
200806120630 METAR LMML NIL=
200806120615 METAR LMML 120615Z 19004KT 160V220 9999 FEW006 SCT120 21/20
                        Q1013 NOSIG=
200806120600 METAR LMML NIL=
200806120545 METAR LMML 120545Z 17004KT 140V210 6000 FEW005 SCT120 20/20
                        Q1013 NOSIG=
200806120530 METAR LMML NIL=
200806120515 METAR LMML 120515Z VRB03KT 6000 BR SCT100 20/20 Q1013 NOSIG=
200806120500 METAR LMML NIL=
200806120445 METAR LMML 120445Z 00000KT 6000 SCT100 18/18 Q1013 TEMPO
                        8000=
200806120430 METAR LMML NIL=
200806120415 METAR LMML 120415Z VRB01KT 4000 BR FEW005 18/18 Q1012 TEMPO
                        5000=
200806120400 METAR LMML NIL=
200806120345 METAR LMML 120345Z VRB01KT 3000 BR FEW005 18/18 Q1012 TEMPO
                        5000=
200806120330 METAR LMML NIL=
200806120315 METAR LMML 120315Z 00000KT 4000 BR FEW005 18/18 Q1012 TEMPO
                        3000 BKN003=
200806120300 METAR LMML NIL=
200806120245 METAR LMML 120245Z VRB02KT 4000 BR FEW005 19/19 Q1012 TEMPO
                        3000 BKN003=
200806120230 METAR LMML NIL=
200806120215 METAR LMML 120215Z VRB02KT 5000 BR BKN005 19/19 Q1013 TEMPO
                        3000 BKN003=
200806120200 METAR LMML NIL=
200806120145 METAR LMML 120145Z VRB03KT 6000 SCT005 19/19 Q1012 TEMPO
                        5000 BKN005=
200806120130 METAR LMML NIL=
200806120115 METAR LMML 120115Z VRB03KT 6000 FEW005 19/19 Q1013 TEMPO
                        5000 BKN005=
200806120100 METAR LMML NIL=
200806120045 METAR LMML 120045Z VRB03KT 7000 SCT006 19/19 Q1013 TEMPO
                        5000 BKN005=
200806120030 METAR LMML NIL=
200806120015 METAR LMML 120015Z VRB03KT 7000 SCT006 19/19 Q1014 TEMPO
                        5000 BKN005=
200806120000 METAR LMML NIL=
200806112345 METAR LMML 112345Z VRB03KT 7000 SCT006 19/19 Q1014 TEMPO
                        5000 BR BKN005=
200806112330 METAR LMML NIL=
200806112315 METAR LMML 112315Z VRB03KT 8000 SCT009 19/19 Q1014 TEMPO
                        5000 BKN008=
200806112300 METAR LMML NIL=
200806112245 METAR LMML 112245Z VRB01KT 9000 SCT009 20/20 Q1015 TEMPO
                        8000 BKN008=
200806112230 METAR LMML NIL=
200806112215 METAR LMML 112215Z VRB02KT 9000 SCT009 20/20 Q1015 TEMPO
                        8000 BKN008=
200806112200 METAR LMML NIL=
200806112145 METAR LMML 112145Z VRB01KT 9000 SCT009 20/19 Q1015 TEMPO
                        8000 BKN008=
200806112130 METAR LMML NIL=
200806112115 METAR LMML 112115Z VRB01KT 9000 FEW009 20/19 Q1015 TEMPO
                        8000 BKN008=
200806112100 METAR LMML NIL=
200806112045 METAR LMML 112045Z VRB01KT 9000 FEW012 20/20 Q1016 NOSIG=
200806112030 METAR LMML NIL=
200806112015 METAR LMML 112015Z VRB01KT CAVOK 20/19 Q1016 NOSIG=
200806112000 METAR LMML NIL=
200806111945 METAR LMML 111945Z VRB03KT CAVOK 20/19 Q1015 NOSIG=
200806111930 METAR LMML NIL=
200806111915 METAR LMML 111915Z VRB03KT CAVOK 21/18 Q1015 NOSIG=
200806111900 METAR LMML NIL=
200806111845 METAR LMML 111845Z VRB02KT CAVOK 21/18 Q1015 NOSIG=
200806111830 METAR LMML NIL=
200806111815 METAR LMML 111815Z 13004KT 090V160 CAVOK 22/18 Q1015 NOSIG=
200806111800 METAR LMML NIL=
200806111745 METAR LMML 111745Z 13005KT CAVOK 22/17 Q1015 NOSIG=
200806111730 METAR LMML NIL=
200806111715 METAR LMML 111715Z 13005KT CAVOK 23/17 Q1015 NOSIG=
200806111700 METAR LMML NIL=
200806111645 METAR LMML 111645Z 12005KT CAVOK 23/16 Q1014 NOSIG=
200806111630 METAR LMML NIL=
200806111615 METAR LMML 111615Z 14005KT 090V170 CAVOK 24/17 Q1015 NOSIG=
200806111600 METAR LMML NIL=
200806111545 METAR LMML 111545Z 13006KT 100V160 CAVOK 24/15 Q1015 NOSIG=
200806111530 METAR LMML NIL=
200806111515 METAR LMML 111515Z 14006KT 100V180 CAVOK 25/12 Q1015 NOSIG=
200806111500 METAR LMML NIL=
200806111445 METAR LMML 111445Z 13006KT CAVOK 25/12 Q1016 NOSIG=
200806111430 METAR LMML NIL=
200806111415 METAR LMML 111415Z 11007KT 070V160 CAVOK 25/12 Q1016 NOSIG=
200806111400 METAR LMML NIL=
200806111345 METAR LMML 111345Z 10008KT 040V140 CAVOK 25/12 Q1016 NOSIG=
200806111330 METAR LMML NIL=
200806111315 METAR LMML 111315Z 12006KT 040V190 CAVOK 25/13 Q1017 NOSIG=
200806111300 METAR LMML NIL=
200806111245 METAR LMML 111245Z 14007KT 080V190 9999 FEW012 24/16 Q1017
                        NOSIG=
200806111230 METAR LMML NIL=
200806111215 METAR LMML 111215Z 13009KT 090V170 9999 FEW012 24/17 Q1017
                        NOSIG=
200806111200 METAR LMML NIL=
200806111145 METAR LMML 111145Z 12009KT 090V160 9999 FEW012 25/17 Q1017
                        NOSIG=
200806111130 METAR LMML NIL=
200806111115 METAR LMML 111115Z 13009KT 100V160 9999 FEW012 24/16 Q1018
                        NOSIG=
200806111100 METAR LMML NIL=
200806111045 METAR LMML 111045Z 11010KT 060V140 9999 FEW012 25/17 Q1018
                        NOSIG=
200806111030 METAR LMML NIL=
200806111015 METAR LMML 111015Z 07009KT 020V110 9999 FEW012 25/17 Q1018
                        NOSIG=
200806111000 METAR LMML NIL=
200806110945 METAR LMML 110945Z 08010KT 040V120 9999 FEW012 24/18 Q1018
                        NOSIG=
200806110930 METAR LMML NIL=
200806110915 METAR LMML 110915Z 09009KT 040V130 9999 BKN011 23/18 Q1018
                        BECMG SCT011=
200806110900 METAR LMML NIL=
200806110845 METAR LMML 110845Z 09009KT 060V120 9999 BKN010 24/18 Q1018
                        BECMG SCT011=
200806110830 METAR LMML NIL=
200806110815 METAR LMML 110815Z 10010KT 050V170 9999 BKN009 23/18 Q1018
                        BECMG BKN011=
200806110800 METAR LMML NIL=
200806110745 METAR LMML 110745Z 07010KT 040V100 9999 SCT009 23/18 Q1017
                        TEMPO BKN010=
200806110730 METAR LMML NIL=
200806110715 METAR LMML 110715Z 07009KT 030V100 9999 SCT009 23/19 Q1017
                        TEMPO BKN008=
200806110700 METAR LMML NIL=
200806110645 METAR LMML 110645Z 06010KT 020V080 9999 SCT008 22/19 Q1017
                        TEMPO BKN008=
200806110630 METAR LMML NIL=
200806110615 METAR LMML 110615Z 06009KT 020V090 9999 SCT007 22/19 Q1017
                        TEMPO BKN008=
200806110600 METAR LMML NIL=
200806110545 METAR LMML 110545Z 06009KT 030V090 9999 SCT006 21/20 Q1017
                        TEMPO BKN008=
200806110530 METAR LMML NIL=
200806110515 METAR LMML 110515Z 06008KT 030V100 7000 BKN005 20/20 Q1017
                        NOSIG=
200806110500 METAR LMML NIL=
200806110445 METAR LMML 110445Z 05006KT 020V080 7000 BKN005 20/20 Q1017
                        NOSIG=
200806110430 METAR LMML NIL=
200806110415 METAR LMML 110415Z 04007KT 010V080 7000 SCT005 20/20 Q1017
                        NOSIG=
200806110400 METAR LMML NIL=
200806110345 METAR LMML 110345Z 04008KT 360V060 7000 BKN006 20/20 Q1017
                        NOSIG=
200806110330 METAR LMML NIL=
200806110315 METAR LMML 110315Z 04006KT 010V070 7000 BKN006 20/20 Q1017
                        NOSIG=
200806110300 METAR LMML NIL=
200806110245 METAR LMML 110245Z 03007KT 7000 BKN006 20/20 Q1017 NOSIG=
200806110230 METAR LMML NIL=
200806110215 METAR LMML 110215Z 04008KT 7000 BKN006 20/20 Q1017 NOSIG=
200806110200 METAR LMML NIL=
200806110145 METAR LMML 110145Z 03007KT 7000 BKN006 20/20 Q1017 NOSIG=
200806110130 METAR LMML NIL=
200806110115 METAR LMML 110115Z 05007KT 010V080 7000 BKN006 20/20 Q1017
                        NOSIG=
200806110100 METAR LMML NIL=
200806110045 METAR LMML 110045Z 04008KT 010V070 7000 BKN005 20/20 Q1017
                        NOSIG=
200806110030 METAR LMML NIL=
200806110015 METAR LMML 110015Z 04006KT 360V090 7000 BKN005 20/20 Q1017
                        NOSIG=
200806110000 METAR LMML NIL=
200806102345 METAR LMML 102345Z 05007KT 020V090 7000 BKN005 20/20 Q1017
                        NOSIG=
200806102330 METAR LMML NIL=
200806102315 METAR LMML 102315Z 07007KT 360V100 7000 BKN005 20/20 Q1017
                        NOSIG=
200806102300 METAR LMML NIL=
200806102245 METAR LMML 102245Z 06006KT 010V090 7000 BKN005 21/20 Q1018
                        NOSIG=
200806102215 METAR LMML 102215Z 06006KT 020V100 7000 BKN005 21/20 Q1018
                        NOSIG=
200806102200 METAR LMML NIL=
200806102145 METAR LMML 102145Z 05008KT 7000 BKN005 21/20 Q1018 NOSIG=
200806102115 METAR LMML 102115Z 06008KT 9999 BKN006 21/20 Q1018 NOSIG=
200806102100 METAR LMML NIL=
200806102045 METAR LMML 102045Z 06007KT 030V100 9999 BKN006 21/20 Q1018
                        NOSIG=
200806102015 METAR LMML 102015Z 07008KT 360V110 9999 BKN007 21/20 Q1018
                        TEMPO BKN006=
200806102000 METAR LMML NIL=
200806101945 METAR LMML 101945Z 07008KT 040V110 9999 SCT007 21/20 Q1017
                        TEMPO BKN006=
200806101930 METAR LMML NIL=
200806101915 METAR LMML 101915Z 07010KT 050V120 9999 SCT007 21/20 Q1017
                        TEMPO SCT008=
200806101900 METAR LMML NIL=
200806101845 METAR LMML 101845Z 07009KT 020V100 9999 FEW008 21/20 Q1017
                        TEMPO SCT008=
200806101830 LMML NIL=
200806101815 METAR LMML 101815Z 07009KT 020V100 9999 SCT008 21/20 Q1017
                        TEMPO SCT008=
200806101800 METAR LMML NIL=
200806101745 METAR LMML 101745Z 08012KT 040V100 9999 SCT007 21/20 Q1017
                        TEMPO SCT006=
200806101730 METAR LMML NIL=
200806101715 METAR LMML 101715Z 07011KT 040V100 9999 FEW008 22/19 Q1016
                        TEMPO SCT008=
200806101700 METAR LMML NIL=
200806101645 METAR LMML 101645Z 08014KT 040V120 9999 FEW011 22/19 Q1016
                        TEMPO SCT008=
200806101630 LMML NIL=
200806101615 METAR LMML 101615Z 08012KT 040V110 9999 FEW011 23/19 Q1016
                        TEMPO SCT008=
200806101600 METAR LMML NIL=
200806101545 METAR LMML 101545Z 09011KT 050V120 9999 FEW011 23/18 Q1016
                        NOSIG=
200806101530 METAR LMML NIL=
200806101515 METAR LMML 101515Z 08013KT 050V110 9999 FEW011 24/18 Q1016
                        NOSIG=
200806101500 METAR LMML NIL=
200806101445 METAR LMML 101445Z 08013KT 050V120 9999 FEW012 24/18 Q1017
                        NOSIG=
200806101430 METAR LMML NIL=
200806101415 METAR LMML 101415Z 08014KT 040V120 9999 FEW011 24/18 Q1017
                        NOSIG=
200806101400 METAR LMML NIL=
200806101345 METAR LMML 101345Z 09015KT 060V120 9999 FEW012 24/17 Q1017
                        NOSIG=
200806101330 METAR LMML NIL=
200806101315 METAR LMML 101315Z 10016KT 9999 FEW012 24/18 Q1017 TEMPO
                        SCT015=
200806101300 METAR LMML NIL=
200806101245 METAR LMML 101245Z 09015KT 060V120 9999 FEW012 24/17 Q1018
                        TEMPO SCT015=
200806101230 METAR LMML NIL=
200806101215 METAR LMML 101215Z 09016KT 050V120 9999 FEW012 25/17 Q1018
                        TEMPO SCT015=
200806101200 METAR LMML NIL=
200806101145 METAR LMML 101145Z 10015KT 060V120 9999 FEW012 25/18 Q1018
                        TEMPO SCT015=
200806101130 METAR LMML NIL=
200806101115 METAR LMML 101115Z 07015KT 040V100 9999 FEW016 24/18 Q1018
                        TEMPO SCT015=
200806101045 METAR LMML 101045Z 08015KT 040V110 9999 FEW011 24/17 Q1018
                        TEMPO SCT015=
200806101030 METAR LMML NIL=
200806101015 METAR LMML 101015Z 08014KT 050V110 9999 SCT009 24/19 Q1018
                        TEMPO SCT015=
200806101000 METAR LMML NIL=
200806100945 METAR LMML 100945Z 08016KT 9999 SCT009 24/19 Q1018 TEMPO
                        SCT015=
200806100930 METAR LMML NIL=
200806100915 METAR LMML 100915Z 08013KT 030V110 9999 SCT009 24/18 Q1018
                        TEMPO SCT012=
200806100900 METAR LMML NIL=
200806100845 METAR LMML 100845Z 07014KT 040V100 9999 SCT009 23/19 Q1018
                        TEMPO SCT012=
200806100830 METAR LMML NIL=
200806100815 METAR LMML 100815Z 07013KT 030V100 9999 FEW009 23/18 Q1018
                        BECMG FEW010=
200806100800 METAR LMML NIL=
200806100745 METAR LMML 100745Z 07013KT 030V100 9999 FEW008 23/18 Q1018
                        BECMG 9999 FEW010=
200806100730 METAR LMML NIL=
200806100715 METAR LMML 100715Z 06010KT 030V100 9999 FEW008 23/19 Q1018
                        BECMG 9999 FEW010=
200806100700 METAR LMML NIL=
200806100645 METAR LMML 100645Z 07012KT 020V090 9999 SCT007 22/19 Q1018
                        BECMG 9999 FEW010=
200806100630 METAR LMML NIL=
200806100615 METAR LMML 100615Z 06010KT 030V100 9000 SCT007 21/19 Q1017
                        BECMG 9999 FEW010=
200806100600 METAR LMML NIL=
200806100545 METAR LMML 100545Z 07010KT 040V100 7000 BKN006 21/20 Q1017
                        BECMG 9999 SCT008=
200806100530 METAR LMML NIL=
200806100515 METAR LMML 100515Z 05009KT 020V080 7000 BKN005 20/20 Q1017
                        BECMG 9999 SCT008=
200806100500 METAR LMML NIL=
200806100445 METAR LMML 100445Z 05008KT 010V080 7000 BKN005 20/20 Q1017
                        BECMG 9999 SCT008=
200806100430 METAR LMML NIL=
200806100415 METAR LMML 100415Z 05008KT 6000 BKN006 20/20 Q1017 BECMG
                        SCT006=
200806100400 METAR LMML NIL=
200806100345 METAR LMML 100345Z 05007KT 020V080 6000 BKN005 20/20 Q1017
                        TEMPO 5000 BKN005=
200806100330 METAR LMML NIL=
200806100315 METAR LMML 100315Z 05008KT 030V090 8000 BKN006 20/20 Q1016
                        TEMPO 6000 BKN005=
200806100300 METAR LMML NIL=
200806100245 METAR LMML 100245Z 05007KT 020V080 8000 FEW006 20/20 Q1016
                        TEMPO 6000 BKN005=
200806100230 METAR LMML NIL=
200806100215 METAR LMML 100215Z 04006KT 8000 SKC 20/20 Q1017 TEMPO 6000
                        BKN005=
200806100200 METAR LMML NIL=
200806100145 METAR LMML 100145Z 06005KT 8000 SKC 20/20 Q1017 TEMPO 6000
                        BKN005=
200806100130 METAR LMML NIL=
200806100115 METAR LMML 100115Z 04005KT 010V070 8000 FEW006 20/20 Q1017
                        TEMPO 6000 BKN005=
200806100100 METAR LMML NIL=
200806100045 METAR LMML 100045Z 04004KT 8000 FEW006 20/20 Q1017 TEMPO
                        6000 BKN005=
200806100030 METAR LMML NIL=
200806100015 METAR LMML 100015Z 05004KT 020V090 9000 FEW006 20/20 Q1017
                        TEMPO 6000 BKN005=
200806100000 METAR LMML NIL=
200806092345 METAR LMML 092345Z 06004KT 030V100 9000 SCT004 20/20 Q1018
                        TEMPO 6000 BKN005=
200806092330 METAR LMML NIL=
200806092315 METAR LMML 092315Z 07004KT 040V100 9000 SCT004 20/20 Q1018
                        TEMPO 6000 BKN005=
200806092300 METAR LMML NIL=
200806092245 METAR LMML 092245Z 07005KT 040V110 9000 FEW004 20/20 Q1017
                        TEMPO 6000 BKN005=
200806092230 METAR LMML NIL=
200806092215 METAR LMML 092215Z 07005KT 030V090 9000 FEW004 20/20 Q1017
                        TEMPO 6000 BKN005=
200806092200 METAR LMML NIL=
200806092145 METAR LMML 092145Z 07004KT 030V100 9000 FEW005 20/20 Q1017
                        TEMPO 6000 BKN005=
200806092115 METAR LMML 092115Z 07004KT 010V140 9000 FEW005 20/20 Q1017
                        TEMPO 6000 BKN005=
200806092045 METAR LMML 092045Z 07004KT 040V110 9999 FEW012 21/20 Q1017
                        TEMPO BKN007=
200806092030 METAR LMML NIL=
200806092015 METAR LMML 092015Z 08004KT 9999 FEW012 20/19 Q1017 TEMPO
                        BKN007=
200806091945 METAR LMML 091945Z VRB03KT 9999 FEW012 20/19 Q1017 TEMPO
                        BKN007=
200806091930 METAR LMML NIL=
200806091915 METAR LMML 091915Z 08005KT 050V110 9999 FEW015 21/19 Q1016
                        NOSIG=
200806091845 METAR LMML 091845Z 08004KT CAVOK 21/16 Q1016 NOSIG=
200806091830 METAR LMML NIL=
200806091815 METAR LMML 091815Z 08004KT CAVOK 22/14 Q1016 NOSIG=
200806091800 METAR LMML NIL=
200806091745 METAR LMML 091745Z 10005KT 060V130 CAVOK 22/13 Q1016 NOSIG=
200806091730 METAR LMML NIL=
200806091715 METAR LMML 091715Z 09005KT CAVOK 23/14 Q1016 NOSIG=
200806091700 METAR LMML NIL=
200806091645 METAR LMML 091645Z 13006KT 090V150 CAVOK 24/13 Q1016 NOSIG=
200806091630 METAR LMML NIL=
200806091615 METAR LMML 091615Z 11005KT 070V160 CAVOK 24/12 Q1015 NOSIG=
200806091600 METAR LMML NIL=
200806091545 METAR LMML 091545Z 11007KT 080V150 CAVOK 24/13 Q1016 NOSIG=
200806091530 METAR LMML NIL=
200806091515 METAR LMML 091515Z 10006KT 070V150 CAVOK 25/12 Q1016 NOSIG=
200806091500 METAR LMML NIL=
200806091445 METAR LMML 091445Z 11008KT 070V140 CAVOK 25/11 Q1016 NOSIG=
200806091430 METAR LMML NIL=
200806091415 METAR LMML 091415Z 10007KT 060V130 CAVOK 25/12 Q1016 NOSIG=
200806091345 METAR LMML 091345Z 08007KT 030V130 CAVOK 25/13 Q1016 NOSIG=
200806091330 METAR LMML NIL=
200806091315 METAR LMML 091315Z 09008KT 030V150 CAVOK 25/13 Q1016 NOSIG=
200806091245 METAR LMML 091245Z 06007KT 020V120 CAVOK 26/13 Q1016 NOSIG=
200806091230 METAR LMML NIL=
200806091215 METAR LMML 091215Z 07007KT 020V120 CAVOK 25/13 Q1016 NOSIG=
200806091200 METAR LMML NIL=
200806091145 METAR LMML 091145Z 05007KT 020V120 CAVOK 25/14 Q1016 NOSIG=
200806091130 METAR LMML NIL=
200806091115 METAR LMML 091115Z 06007KT 020V110 CAVOK 25/14 Q1016 NOSIG=
200806091100 METAR LMML NIL=
200806091045 METAR LMML 091045Z 07006KT 030V120 CAVOK 25/14 Q1016 NOSIG=
200806091015 METAR LMML 091015Z 09007KT 040V150 CAVOK 25/14 Q1016 NOSIG=
200806091000 METAR LMML NIL=
200806090945 METAR LMML 090945Z 07007KT 020V130 CAVOK 25/13 Q1016 NOSIG=
200806090930 METAR LMML NIL=
200806090915 METAR LMML 090915Z 06004KT 360V160 CAVOK 25/13 Q1016 NOSIG=
200806090900 METAR LMML NIL=
200806090845 METAR LMML 090845Z 05004KT 360V100 CAVOK 24/14 Q1016 NOSIG=
200806090830 METAR LMML NIL=
200806090815 METAR LMML 090815Z 03005KT 350V070 CAVOK 24/15 Q1016=
200806090800 METAR LMML NIL=
200806090745 METAR LMML 090745Z 01007KT CAVOK 23/16 Q1016 NOSIG=
200806090730 METAR LMML NIL=
200806090715 METAR LMML 090715Z 36008KT 320V030 CAVOK 22/16 Q1016 NOSIG=
200806090700 METAR LMML NIL=
200806090645 METAR LMML 090645Z 35007KT CAVOK 22/17 Q1016 NOSIG=
200806090615 METAR LMML 090615Z 33008KT CAVOK 21/17 Q1015 NOSIG=
200806090600 METAR LMML NIL=
200806090545 METAR LMML 090545Z 33006KT CAVOK 20/18 Q1015 NOSIG=
200806090530 METAR LMML NIL=
200806090515 METAR LMML 090515Z 32004KT 290V350 CAVOK 19/18 Q1015 NOSIG=
200806090500 METAR LMML NIL=
200806090445 METAR LMML 090445Z 32006KT CAVOK 18/18 Q1015 NOSIG=
200806090430 METAR LMML NIL=
200806090415 METAR LMML 090415Z 32006KT CAVOK 17/17 Q1015 NOSIG=
200806090400 METAR LMML NIL=
200806090345 METAR LMML 090345Z VRB03KT CAVOK 17/17 Q1014 NOSIG=
200806090330 METAR LMML NIL=
200806090315 METAR LMML 090315Z 31004KT CAVOK 17/16 Q1014 NOSIG=
200806090300 METAR LMML NIL=
200806090245 METAR LMML 090245Z 31006KT CAVOK 17/16 Q1014 NOSIG=
200806090230 METAR LMML NIL=
200806090215 METAR LMML 090215Z 28005KT CAVOK 17/15 Q1014 NOSIG=
200806090145 METAR LMML 090145Z 29004KT CAVOK 17/15 Q1015 NOSIG=
200806090130 METAR LMML NIL=
200806090115 METAR LMML 090115Z VRB02KT CAVOK 18/15 Q1015 NOSIG=
200806090100 METAR LMML NIL=
200806090045 METAR LMML 090045Z VRB03KT CAVOK 18/15 Q1015 NOSIG=
200806090030 METAR LMML NIL=
200806090015 METAR LMML 090015Z VRB03KT CAVOK 18/15 Q1015 NOSIG=
200806090000 METAR LMML NIL=
200806082345 METAR LMML 082345Z VRB03KT CAVOK 18/15 Q1016 NOSIG=
200806082330 METAR LMML NIL=
200806082315 METAR LMML 082315Z VRB03KT CAVOK 18/16 Q1015 NOSIG=
200806082300 METAR LMML NIL=
200806082245 METAR LMML 082245Z VRB03KT CAVOK 18/16 Q1016 NOSIG=
200806082230 METAR LMML NIL=
200806082215 METAR LMML 082215Z 32004KT 290V360 CAVOK 19/16 Q1015 NOSIG=
200806082200 METAR LMML NIL=
200806082145 METAR LMML 082145Z VRB03KT CAVOK 18/15 Q1015 NOSIG=
200806082130 METAR LMML NIL=
200806082115 METAR LMML 082115Z VRB03KT CAVOK 18/15 Q1015 NOSIG=
200806082100 METAR LMML NIL=
200806082045 METAR LMML 082045Z VRB03KT CAVOK 18/16 Q1015 NOSIG=
200806082030 METAR LMML NIL=
200806082015 METAR LMML 082015Z 32005KT CAVOK 18/16 Q1014 NOSIG=
200806082000 METAR LMML NIL=
200806081945 METAR LMML 081945Z 32006KT 290V360 CAVOK 19/16 Q1014 NOSIG=
200806081930 METAR LMML NIL=
200806081915 METAR LMML 081915Z 28004KT 230V310 CAVOK 19/16 Q1014 NOSIG=
200806081900 METAR LMML NIL=
200806081845 METAR LMML 081845Z VRB02KT CAVOK 19/15 Q1014 NOSIG=
200806081830 METAR LMML NIL=
200806081815 METAR LMML 081815Z VRB03KT CAVOK 19/15 Q1014 NOSIG=
200806081800 METAR LMML NIL=
200806081745 METAR LMML 081745Z 31006KT 280V340 CAVOK 20/15 Q1014 NOSIG=
200806081730 METAR LMML NIL=
200806081715 METAR LMML 081715Z VRB02KT CAVOK 21/13 Q1014 NOSIG=
200806081700 METAR LMML NIL=
200806081645 METAR LMML 081645Z VRB03KT CAVOK 20/16 Q1014 NOSIG=
200806081630 METAR LMML NIL=
200806081615 METAR LMML 081615Z 33007KT CAVOK 20/16 Q1014 NOSIG=
200806081600 METAR LMML NIL=
200806081545 METAR LMML 081545Z 30010KT 270V340 9999 -SHRA SCT100 BKN250
                        21/15 Q1014 NOSIG=
200806081530 METAR LMML NIL=
200806081515 METAR LMML 081515Z 31010KT 280V350 CAVOK 22/15 Q1014 NOSIG=
200806081500 LMML NIL=
200806081430 METAR LMML NIL=
200806081415 METAR LMML 081415Z 34012KT CAVOK 23/14 Q1013 NOSIG=
200806081345 METAR LMML 081345Z 33009KT 300V360 CAVOK 23/15 Q1014 NOSIG=
200806081330 METAR LMML NIL=
200806081315 METAR LMML 081315Z 34009KT 310V010 CAVOK 24/15 Q1014 NOSIG=
200806081245 METAR LMML 081245Z 33009KT 280V010 CAVOK 24/15 Q1014 NOSIG=
200806081230 METAR LMML NIL=
200806081215 METAR LMML 081215Z 31009KT 280V360 CAVOK 24/14 Q1014 NOSIG=
200806081200 METAR LMML NIL=
200806081145 METAR LMML 081145Z 29009KT 250V330 9999 FEW020 SCT120 23/14
                        Q1014 NOSIG=
200806081130 LMML NIL=
200806081115 METAR LMML 081115Z 29011KT 260V320 9999 FEW020 SCT120 BKN250
                        22/16 Q1015 NOSIG=
200806081100 METAR LMML NIL=
200806081045 METAR LMML 081045Z 27013KT 240V300 9999 FEW018 SCT120 BKN250
                        21/16 Q1015 NOSIG=
200806081030 METAR LMML NIL=
200806081015 METAR LMML 081015Z 28015KT 240V300 9999 SCT020 SCT100 BKN250
                        22/16 Q1016 NOSIG=
200806081000 METAR LMML NIL=
200806080945 METAR LMML 080945Z 29011KT 250V310 9999 FEW020 BKN250 22/15
                        Q1015 NOSIG=
200806080930 METAR LMML NIL=
200806080915 METAR LMML 080915Z 30012KT 250V330 9999 FEW018 BKN250 23/14
                        Q1015 NOSIG=
200806080900 METAR LMML NIL=
200806080845 METAR LMML 080845Z 32010KT 280V010 9999 FEW018 SCT250 23/15
                        Q1014 NOSIG=
200806080830 METAR LMML NIL=
200806080815 METAR LMML 080815Z 33007KT 270V010 9999 FEW015 SCT110 23/16
                        Q1014 NOSIG=
200806080800 METAR LMML NIL=
200806080745 METAR LMML 080745Z 33008KT 280V020 9999 FEW018 SCT250 22/16
                        Q1013 NOSIG=
200806080730 METAR LMML NIL=
200806080715 METAR LMML 080715Z 34008KT 310V010 9999 FEW018 SCT250 22/15
                        Q1013 NOSIG=
200806080700 METAR LMML NIL=
200806080645 METAR LMML 080645Z 33008KT 300V010 9999 FEW018 SCT250 21/16
                        Q1013 NOSIG=
200806080630 METAR LMML NIL=
200806080615 METAR LMML 080615Z 33008KT 300V360 9999 FEW018 SCT250 21/17
                        Q1013 NOSIG=
200806080600 METAR LMML NIL=
200806080545 METAR LMML 080545Z 33008KT 9999 SCT015 20/17 Q1013 NOSIG=
200806080530 METAR LMML NIL=
200806080515 METAR LMML 080515Z 32007KT 9999 FEW015 19/17 Q1013 NOSIG=
200806080500 METAR LMML NIL=
200806080445 METAR LMML 080445Z 31007KT 9999 FEW015 18/17 Q1013 NOSIG=
200806080430 METAR LMML NIL=
200806080415 METAR LMML 080415Z 31005KT 9999 FEW015 17/17 Q1013 NOSIG=
200806080345 METAR LMML 080345Z 32007KT 9999 FEW012 17/17 Q1013 NOSIG=
200806080330 METAR LMML NIL=
200806080315 METAR LMML 080315Z 30007KT CAVOK 18/17 Q1013 NOSIG=
200806080300 METAR LMML NIL=
200806080245 METAR LMML 080245Z 32006KT 290V350 CAVOK 18/17 Q1013 NOSIG=
200806080230 METAR LMML NIL=
200806080215 METAR LMML 080215Z 30009KT CAVOK 18/17 Q1013 NOSIG=
200806080200 METAR LMML NIL=
200806080145 METAR LMML 080145Z 31008KT CAVOK 18/17 Q1013 NOSIG=
200806080130 METAR LMML NIL=
200806080115 METAR LMML 080115Z 30007KT CAVOK 18/17 Q1013 NOSIG=
200806080100 METAR LMML NIL=
200806080045 METAR LMML 080045Z 31008KT CAVOK 18/16 Q1013 NOSIG=
200806080030 METAR LMML NIL=
200806080015 METAR LMML 080015Z 32012KT CAVOK 18/16 Q1013 NOSIG=
200806080000 METAR LMML NIL=
200806072345 METAR LMML 072345Z 30011KT 270V330 CAVOK 18/16 Q1013 NOSIG=
200806072315 METAR LMML 072315Z 30012KT 270V330 CAVOK 19/16 Q1014 NOSIG=
200806072245 METAR LMML 072245Z 30013KT 9999 FEW017 19/16 Q1014 NOSIG=
200806072215 METAR LMML 072215Z 30014KT 9999 FEW017 19/16 Q1014 NOSIG=
200806072200 METAR LMML NIL=
200806072145 METAR LMML 072145Z 29012KT 9999 FEW017 19/16 Q1014 NOSIG=
200806072130 METAR LMML NIL=
200806072115 METAR LMML 072115Z 29012KT 9999 FEW017 19/16 Q1014 NOSIG=
200806072100 METAR LMML NIL=
200806072045 METAR LMML 072045Z 30012KT 9999 FEW020 19/16 Q1014 NOSIG=
200806072030 METAR LMML NIL=
200806072015 METAR LMML 072015Z 29011KT CAVOK 19/15 Q1014 NOSIG=
200806072000 METAR LMML NIL=
200806071945 METAR LMML 071945Z 29012KT CAVOK 19/16 Q1013 NOSIG=
200806071930 METAR LMML NIL=
200806071915 METAR LMML 071915Z 29011KT 260V320 9999 FEW020 19/15 Q1013
                        NOSIG=
200806071900 METAR LMML NIL=
200806071845 METAR LMML 071845Z 30014KT 9999 FEW020 19/15 Q1013 NOSIG=
200806071830 METAR LMML NIL=
200806071815 METAR LMML 071815Z 30013KT 270V330 9999 FEW020 20/15 Q1013
                        NOSIG=
200806071800 METAR LMML NIL=
200806071745 METAR LMML 071745Z 31017KT 9999 FEW030 20/15 Q1013 NOSIG=
200806071730 METAR LMML NIL=
200806071715 METAR LMML 071715Z 29014KT 9999 FEW030 21/14 Q1013 NOSIG=
200806071700 METAR LMML NIL=
200806071645 METAR LMML 071645Z 29014KT 9999 FEW030 21/14 Q1013 NOSIG=
200806071630 METAR LMML NIL=
200806071615 METAR LMML 071615Z 31014KT 270V330 9999 FEW030 22/13 Q1013
                        NOSIG=
200806071600 METAR LMML NIL=
200806071545 METAR LMML 071545Z 29015KT 260V330 9999 FEW030 22/13 Q1013
                        NOSIG=
200806071530 METAR LMML NIL=
200806071515 METAR LMML 071515Z 30016KT 270V330 9999 FEW030 22/14 Q1013
                        NOSIG=
200806071500 METAR LMML NIL=
200806071445 METAR LMML 071445Z 30016KT 9999 FEW030 22/13 Q1014 NOSIG=
200806071430 METAR LMML NIL=
200806071415 METAR LMML 071415Z 31018KT 9999 FEW030 23/13 Q1014 NOSIG=
200806071400 METAR LMML NIL=
200806071345 METAR LMML 071345Z 30016KT 270V330 9999 FEW030 23/12 Q1014
                        NOSIG=
200806071330 METAR LMML NIL=
200806071315 METAR LMML 071315Z 30015KT 270V330 9999 FEW030 23/14 Q1014
                        NOSIG=
200806071300 METAR LMML NIL=
200806071245 METAR LMML 071245Z 30014KT 270V330 9999 FEW028 23/13 Q1014
                        NOSIG=
200806071230 METAR LMML NIL=
200806071215 METAR LMML 071215Z 29015KT 260V320 9999 FEW028 23/14 Q1014
                        NOSIG=
200806071200 METAR LMML NIL=
200806071145 METAR LMML 071145Z 29015KT 250V330 9999 FEW028 23/14 Q1014
                        NOSIG=
200806071130 METAR LMML NIL=
200806071115 METAR LMML 071115Z 31015KT 270V340 9999 FEW030 24/13 Q1015
                        NOSIG=
200806071100 METAR LMML NIL=
200806071045 METAR LMML 071045Z 30016KT 9999 FEW029 23/14 Q1014 NOSIG=
200806071015 METAR LMML 071015Z 30014KT 260V330 9999 SCT021 24/13 Q1014
                        NOSIG=
200806071000 METAR LMML NIL=
200806070945 METAR LMML 070945Z 30015KT 240V330 9999 SCT023 23/16 Q1014
                        NOSIG=
200806070930 METAR LMML NIL=
200806070915 METAR LMML 070915Z 29015KT 9999 FEW024 23/15 Q1014 NOSIG=
200806070900 METAR LMML NIL=
200806070845 METAR LMML 070845Z 29015KT 9999 FEW024 23/14 Q1014 NOSIG=
200806070830 METAR LMML NIL=
200806070815 METAR LMML 070815Z 30014KT 270V330 9999 FEW020 22/15 Q1014
                        NOSIG=
200806070745 METAR LMML 070745Z 29012KT 260V330 9999 FEW016 22/13 Q1014
                        NOSIG=
200806070730 METAR LMML NIL=
200806070715 METAR LMML 070715Z 29010KT 260V330 9999 FEW015 SCT120 22/14
                        Q1014 NOSIG=
200806070700 METAR LMML NIL=
200806070645 METAR LMML 070645Z 31012KT 9999 FEW014 BKN120 21/15 Q1014
                        NOSIG=
200806070630 METAR LMML NIL=
200806070615 METAR LMML 070615Z 29011KT 9999 FEW014 SCT120 21/16 Q1013
                        NOSIG=
200806070600 METAR LMML NIL=
200806070545 METAR LMML 070545Z 28010KT 9999 FEW014 BKN120 21/17 Q1014
                        NOSIG=
200806070530 METAR LMML NIL=
200806070515 METAR LMML 070515Z 28007KT 250V310 9999 FEW015 SCT120 20/18
                        Q1013 NOSIG=
200806070445 METAR LMML 070445Z VRB03KT 9999 FEW019 SCT130 19/18 Q1013
                        NOSIG=
200806070430 METAR LMML NIL=
200806070415 METAR LMML 070415Z 27004KT 9999 FEW019 19/18 Q1013 NOSIG=
200806070400 METAR LMML NIL=
200806070345 METAR LMML 070345Z 28008KT 240V300 9999 FEW019 19/18 Q1013
                        NOSIG=
200806070330 METAR LMML NIL=
200806070315 METAR LMML 070315Z 27007KT 230V290 9999 FEW015 19/18 Q1013
                        NOSIG=
200806070300 METAR LMML NIL=
200806070245 METAR LMML 070245Z VRB03KT 9999 FEW015 19/18 Q1013 NOSIG=
200806070215 METAR LMML 070215Z 27004KT 240V300 CAVOK 19/18 Q1013 NOSIG=
200806070200 METAR LMML NIL=
200806070145 METAR LMML 070145Z VRB03KT CAVOK 19/17 Q1013 NOSIG=
200806070130 METAR LMML NIL=
200806070115 METAR LMML 070115Z VRB02KT CAVOK 19/17 Q1013 NOSIG=
200806070100 METAR LMML NIL=
200806070045 METAR LMML 070045Z VRB01KT CAVOK 19/17 Q1013 NOSIG=
200806070030 METAR LMML NIL=
200806070015 METAR LMML 070015Z 25004KT CAVOK 19/16 Q1014 NOSIG=
200806070000 METAR LMML NIL=
200806062345 METAR LMML 062345Z 25004KT 220V290 CAVOK 20/16 Q1014 NOSIG=
200806062330 METAR LMML NIL=
200806062315 METAR LMML 062315Z 24004KT CAVOK 20/16 Q1014 NOSIG=
200806062245 METAR LMML 062245Z 26005KT 230V290 CAVOK 20/16 Q1014 NOSIG=
200806062215 METAR LMML 062215Z 26005KT 220V300 CAVOK 20/15 Q1014 NOSIG=
200806062200 METAR LMML NIL=
200806062145 METAR LMML 062145Z 28006KT CAVOK 20/16 Q1015 NOSIG=
200806062115 METAR LMML 062115Z 27004KT 230V300 CAVOK 20/15 Q1015 NOSIG=
200806062100 METAR LMML NIL=
200806062045 METAR LMML 062045Z 23004KT 210V270 CAVOK 20/14 Q1014 NOSIG=
200806062030 METAR LMML NIL=
200806062015 METAR LMML 062015Z VRB03KT CAVOK 20/11 Q1014 NOSIG=
200806062000 METAR LMML NIL=
200806061945 METAR LMML 061945Z VRB03KT CAVOK 20/08 Q1014 NOSIG=
200806061930 METAR LMML NIL=
200806061915 METAR LMML 061915Z VRB01KT CAVOK 20/10 Q1013 NOSIG=
200806061900 METAR LMML NIL=
200806061845 METAR LMML 061845Z VRB01KT CAVOK 21/15 Q1013 NOSIG=
200806061830 METAR LMML NIL=
200806061815 METAR LMML 061815Z VRB02KT CAVOK 21/14 Q1013 NOSIG=
200806061800 METAR LMML NIL=
200806061745 METAR LMML 061745Z VRB02KT CAVOK 22/12 Q1013 NOSIG=
200806061730 METAR LMML NIL=
200806061715 METAR LMML 061715Z VRB03KT CAVOK 23/09 Q1013 NOSIG=
200806061700 METAR LMML NIL=
200806061645 METAR LMML 061645Z VRB03KT CAVOK 23/10 Q1013 NOSIG=
200806061630 METAR LMML NIL=
200806061615 METAR LMML 061615Z 22004KT 160V290 CAVOK 24/09 Q1013 NOSIG=
200806061600 METAR LMML NIL=
200806061545 METAR LMML 061545Z 21005KT 180V270 9999 FEW020 23/12 Q1013
                        NOSIG=
200806061530 METAR LMML NIL=
200806061515 METAR LMML 061515Z 21007KT 170V260 9999 FEW020 23/13 Q1013
                        NOSIG=
200806061445 METAR LMML 061445Z 21007KT 150V260 9999 FEW025 24/12 Q1013
                        NOSIG=
200806061430 METAR LMML NIL=
200806061415 METAR LMML 061415Z 22006KT 190V270 9999 FEW025 24/11 Q1013
                        NOSIG=
200806061400 METAR LMML NIL=
200806061345 METAR LMML 061345Z 22007KT 170V270 9999 FEW025 23/12 Q1014
                        NOSIG=
200806061330 METAR LMML NIL=
200806061315 METAR LMML 061315Z 21008KT 170V260 9999 FEW025 24/11 Q1014
                        NOSIG=
200806061300 METAR LMML NIL=
200806061245 METAR LMML 061245Z 21007KT 180V250 9999 FEW025 23/14 Q1014
                        NOSIG=
200806061230 METAR LMML NIL=
200806061215 METAR LMML 061215Z 22007KT 190V290 9999 FEW020 24/15 Q1014
                        NOSIG=
200806061200 METAR LMML NIL=
200806061145 METAR LMML 061145Z 22006KT 160V290 9999 FEW020 23/15 Q1014
                        NOSIG=
200806061130 METAR LMML NIL=
200806061115 METAR LMML 061115Z 22006KT 170V300 9999 FEW020 23/15 Q1014
                        NOSIG=
200806061100 METAR LMML NIL=
200806061045 METAR LMML 061045Z 21007KT 170V280 9999 FEW020 23/15 Q1015
                        NOSIG=
200806061030 METAR LMML NIL=
200806061015 METAR LMML 061015Z 20005KT 140V300 9999 FEW020 23/15 Q1015
                        NOSIG=
200806061000 METAR LMML NIL=
200806060945 METAR LMML 060945Z 19007KT 140V220 9999 FEW020 22/16 Q1015
                        NOSIG=
200806060930 METAR LMML NIL=
200806060915 METAR LMML 060915Z 18006KT 120V220 9999 FEW020 23/16 Q1015
                        NOSIG=
200806060900 METAR LMML NIL=
200806060845 METAR LMML 060845Z VRB02KT CAVOK 23/15 Q1014 NOSIG=
200806060830 METAR LMML NIL=
200806060815 METAR LMML 060815Z VRB03KT CAVOK 24/12 Q1014 NOSIG=
200806060800 METAR LMML NIL=
200806060745 METAR LMML 060745Z 33005KT 280V020 CAVOK 23/12 Q1014 NOSIG=
200806060730 METAR LMML NIL=
200806060715 METAR LMML 060715Z 32006KT CAVOK 21/12 Q1014 NOSIG=
200806060700 METAR LMML NIL=
200806060645 METAR LMML 060645Z 34005KT 300V010 CAVOK 21/13 Q1014 NOSIG=
200806060630 METAR LMML NIL=
200806060615 METAR LMML 060615Z 34006KT 300V010 CAVOK 20/16 Q1014 NOSIG=
200806060600 METAR LMML NIL=
200806060545 METAR LMML 060545Z 34006KT CAVOK 19/19 Q1014 NOSIG=
200806060530 METAR LMML NIL=
200806060515 METAR LMML 060515Z VRB03KT CAVOK 18/18 Q1014 NOSIG=
200806060445 METAR LMML 060445Z 27004KT CAVOK 17/17 Q1014 NOSIG=
200806060430 METAR LMML NIL=
200806060415 METAR LMML 060415Z 27004KT CAVOK 17/17 Q1014 TEMPO 6000=
200806060400 METAR LMML NIL=
200806060345 METAR LMML 060345Z 28005KT 230V300 9999 FEW015 17/17 Q1014
                        TEMPO 6000=
200806060330 METAR LMML NIL=
200806060315 METAR LMML 060315Z 27005KT 9999 FEW015 17/17 Q1014 TEMPO
                        6000=
200806060300 METAR LMML NIL=
200806060245 METAR LMML 060245Z 24004KT CAVOK 16/16 Q1014 NOSIG=
200806060230 METAR LMML NIL=
200806060215 METAR LMML 060215Z 28004KT 260V320 CAVOK 17/16 Q1014 NOSIG=
200806060200 METAR LMML NIL=
200806060145 METAR LMML 060145Z 25004KT 220V280 CAVOK 17/17 Q1014 NOSIG=
200806060130 METAR LMML NIL=
200806060115 METAR LMML 060115Z 29006KT CAVOK 17/16 Q1015 NOSIG=
200806060100 METAR LMML NIL=
200806060045 METAR LMML 060045Z 27005KT CAVOK 17/17 Q1015 NOSIG=
200806060030 METAR LMML NIL=
200806060015 METAR LMML 060015Z VRB02KT CAVOK 16/16 Q1015 NOSIG=
200806060000 METAR LMML NIL=
200806052345 METAR LMML 052345Z 27004KT 240V310 CAVOK 17/17 Q1015 NOSIG=
200806052330 METAR LMML NIL=
200806052315 METAR LMML 052315Z VRB03KT CAVOK 17/16 Q1015 NOSIG=
200806052300 METAR LMML NIL=
200806052245 METAR LMML 052245Z 29004KT CAVOK 17/16 Q1015 NOSIG=
200806052230 METAR LMML NIL=
200806052215 METAR LMML 052215Z 28004KT CAVOK 17/16 Q1015 NOSIG=
200806052200 METAR LMML NIL=
200806052145 METAR LMML 052145Z VRB03KT CAVOK 17/16 Q1016 NOSIG=
200806052130 METAR LMML NIL=
200806052115 METAR LMML 052115Z VRB03KT CAVOK 17/15 Q1016 NOSIG=
200806052100 METAR LMML NIL=
200806052045 METAR LMML 052045Z VRB03KT CAVOK 17/15 Q1015 NOSIG=
200806052030 METAR LMML NIL=
200806052015 METAR LMML 052015Z VRB02KT CAVOK 17/15 Q1015 NOSIG=
200806052000 METAR LMML NIL=
200806051945 METAR LMML 051945Z VRB01KT CAVOK 18/17 Q1015 NOSIG=
200806051930 METAR LMML NIL=
200806051915 METAR LMML 051915Z VRB02KT CAVOK 18/17 Q1015 NOSIG=
200806051900 METAR LMML NIL=
200806051845 METAR LMML 051845Z VRB01KT CAVOK 18/16 Q1014 NOSIG=
200806051830 METAR LMML NIL=
200806051815 METAR LMML 051815Z VRB01KT CAVOK 19/16 Q1014 NOSIG=
200806051800 METAR LMML NIL=
200806051745 METAR LMML 051745Z VRB01KT CAVOK 19/15 Q1014 NOSIG=
200806051730 METAR LMML NIL=
200806051715 METAR LMML 051715Z VRB03KT CAVOK 19/16 Q1014 NOSIG=
200806051700 METAR LMML NIL=
200806051645 METAR LMML 051645Z 21004KT 180V240 CAVOK 19/17 Q1014 NOSIG=
200806051630 METAR LMML NIL=
200806051615 METAR LMML 051615Z VRB03KT CAVOK 18/16 Q1014 NOSIG=
200806051600 METAR LMML NIL=
200806051545 METAR LMML 051545Z VRB03KT 9999 -RA FEW015 BKN120 BKN250
                        18/16 Q1014 NOSIG=
200806051530 METAR LMML NIL=
200806051515 METAR LMML 051515Z VRB01KT 9999 -RA FEW015 BKN090 18/16 Q1015
                        NOSIG=
200806051500 METAR LMML NIL=
200806051445 METAR LMML 051445Z 30006KT 9999 -RA FEW015 SCT100 BKN130
                        19/15 Q1015 NOSIG=
200806051430 METAR LMML NIL=
200806051415 METAR LMML 051415Z 32007KT 9999 -RA FEW015 SCT100 OVC130
                        19/16 Q1015 NOSIG=
200806051400 METAR LMML NIL=
200806051345 METAR LMML 051345Z 30010KT 9999 -RA FEW015 SCT090 OVC130
                        19/16 Q1016 NOSIG=
200806051330 METAR LMML NIL=
200806051315 METAR LMML 051315Z 31009KT 9999 -RA FEW014 SCT090 OVC130
                        20/17 Q1016 NOSIG=
200806051245 METAR LMML 051245Z 30007KT 270V330 9999 -RA FEW015 SCT090
                        OVC110 20/16 Q1016 NOSIG=
200806051215 METAR LMML 051215Z 31011KT 9999 -RA FEW015 BKN090 19/17 Q1016
                        NOSIG=
200806051200 METAR LMML NIL=
200806051145 METAR LMML 051145Z 29012KT 250V320 9999 -RA FEW015 BKN090
                        20/17 Q1017 NOSIG=
200806051115 METAR LMML 051115Z 28011KT 9999 FEW015 BKN100 20/16 Q1017
                        NOSIG=
200806051100 METAR LMML NIL=
200806051045 METAR LMML 051045Z 29014KT 9999 FEW015 BKN100 21/16 Q1016
                        NOSIG=
200806051015 METAR LMML 051015Z 30012KT 260V330 9999 FEW015 SCT080 BKN110
                        21/16 Q1016 NOSIG=
200806051000 METAR LMML NIL=
200806050945 METAR LMML 050945Z 29014KT 9999 FEW015 SCT080 BKN110 22/16
                        Q1016 NOSIG=
200806050930 METAR LMML NIL=
200806050915 METAR LMML 050915Z 28008KT 240V320 9999 FEW011 BKN120 23/15
                        Q1015 NOSIG=
200806050900 METAR LMML NIL=
200806050845 METAR LMML 050845Z 29009KT 250V320 9999 FEW011 BKN250 22/16
                        Q1015 NOSIG=
200806050830 METAR LMML NIL=
200806050815 METAR LMML 050815Z 30010KT 270V330 9999 FEW012 SCT120 BKN250
                        22/16 Q1015 NOSIG=
200806050800 METAR LMML NIL=
200806050745 METAR LMML 050745Z 30010KT 9999 FEW011 BKN120 22/16 Q1016
                        NOSIG=
200806050715 METAR LMML 050715Z 29009KT 250V310 9999 FEW011 BKN100 20/17
                        Q1016 NOSIG=
200806050700 METAR LMML NIL=
200806050645 METAR LMML 050645Z 28009KT 9999 FEW011 BKN110 20/17 Q1016
                        NOSIG=
200806050630 METAR LMML NIL=
200806050615 METAR LMML 050615Z 29009KT 9999 FEW011 BKN120 20/17 Q1015
                        NOSIG=
200806050600 METAR LMML NIL=
200806050545 METAR LMML 050545Z 29010KT 260V320 9999 FEW011 BKN120 20/17
                        Q1015 NOSIG=
200806050530 METAR LMML NIL=
200806050515 METAR LMML 050515Z 29006KT 230V330 9999 FEW012 BKN120 19/18
                        Q1015 NOSIG=
200806050500 METAR LMML NIL=
200806050445 METAR LMML 050445Z 31005KT 9999 FEW015 SCT080 18/18 Q1015
                        NOSIG=
200806050430 METAR LMML NIL=
200806050415 METAR LMML 050415Z 28004KT 250V320 9999 FEW015 SCT125 18/18
                        Q1015 NOSIG=
200806050400 METAR LMML NIL=
200806050345 METAR LMML 050345Z 27004KT 230V300 9999 FEW015 SCT080 18/18
                        Q1015 NOSIG=
200806050330 METAR LMML NIL=
200806050315 METAR LMML 050315Z 26005KT 210V300 9999 FEW015 SCT080 18/18
                        Q1015 NOSIG=
200806050300 METAR LMML NIL=
200806050245 METAR LMML 050245Z VRB02KT 9999 FEW015 18/17 Q1015 NOSIG=
200806050230 METAR LMML NIL=
200806050215 METAR LMML 050215Z VRB03KT CAVOK 18/17 Q1014 NOSIG=
200806050200 METAR LMML NIL=
200806050145 METAR LMML 050145Z VRB03KT CAVOK 18/17 Q1014 NOSIG=
200806050130 METAR LMML NIL=
200806050115 METAR LMML 050115Z 34004KT 310V010 CAVOK 18/17 Q1015 NOSIG=
200806050100 METAR LMML NIL=
200806050045 METAR LMML 050045Z 30006KT 270V330 9999 FEW020 18/17 Q1015
                        NOSIG=
200806050015 METAR LMML 050015Z 29007KT 9999 FEW020 18/17 Q1015 NOSIG=
200806050000 METAR LMML NIL=
200806042345 METAR LMML 042345Z 28009KT 250V310 9999 FEW020 18/17 Q1015
                        NOSIG=
200806042330 METAR LMML NIL=
200806042315 METAR LMML 042315Z 30011KT 270V330 9999 FEW020 18/16 Q1015
                        NOSIG=
200806042300 METAR LMML NIL=
200806042245 METAR LMML 042245Z 27011KT 9999 FEW020 18/16 Q1016 NOSIG=
200806042230 METAR LMML NIL=
200806042215 METAR LMML 042215Z 29013KT 9999 FEW020 19/15 Q1016 NOSIG=
200806042200 METAR LMML NIL=
200806042145 METAR LMML 042145Z 29012KT 9999 FEW020 19/16 Q1016 NOSIG=
200806042130 METAR LMML NIL=
200806042115 METAR LMML 042115Z 28012KT 9999 FEW020 19/16 Q1016 NOSIG=
200806042100 METAR LMML NIL=
200806042045 METAR LMML 042045Z 29014KT 9999 FEW020 19/15 Q1016 NOSIG=
200806042030 METAR LMML NIL=
200806042015 METAR LMML 042015Z 29014KT 9999 FEW020 19/15 Q1015 NOSIG=
200806042000 METAR LMML NIL=
200806041945 METAR LMML 041945Z 29013KT 9999 FEW020 19/15 Q1015 NOSIG=
200806041930 METAR LMML NIL=
200806041915 METAR LMML 041915Z 29012KT 9999 FEW020 19/15 Q1015 NOSIG=
200806041900 METAR LMML NIL=
200806041845 METAR LMML 041845Z 29012KT 9999 FEW020 19/15 Q1014 NOSIG=
200806041830 METAR LMML NIL=
200806041815 METAR LMML 041815Z 29015KT 9999 FEW020 20/15 Q1014 NOSIG=
200806041800 METAR LMML NIL=
200806041745 METAR LMML 041745Z 29016KT 9999 FEW020 20/15 Q1014 NOSIG=
200806041730 METAR LMML NIL=
200806041715 METAR LMML 041715Z 29017KT 9999 FEW020 21/15 Q1014 NOSIG=
200806041700 METAR LMML NIL=
200806041645 METAR LMML 041645Z 29019KT 260V320 9999 FEW020 21/14 Q1014
                        NOSIG=
200806041630 METAR LMML NIL=
200806041615 METAR LMML 041615Z 29017KT 250V320 9999 FEW020 22/16 Q1014
                        NOSIG RMK CB TOP TO NE=
200806041600 LMML NIL=
200806041556 LMML 041556Z 29019KT 250V310 9999 FEW020 22/14 Q1014 NOSIG=
200806041530 METAR LMML NIL=
200806041515 METAR LMML 041515Z 29017KT 270V330 9999 FEW020 23/15 Q1014
                        NOSIG RMK CB TOP TO NE=
200806041500 METAR LMML NIL=
200806041445 METAR LMML 041445Z 29020KT 9999 FEW020 22/15 Q1014 NOSIG=
200806041415 METAR LMML 041415Z 29021KT 9999 FEW020 23/15 Q1014 NOSIG=
200806041400 METAR LMML NIL=
200806041345 METAR LMML 041345Z 29017KT 9999 FEW020 23/16 Q1015 NOSIG=
200806041315 METAR LMML 041315Z 29018KT 260V320 9999 FEW016 23/16 Q1015
                        NOSIG=
200806041300 METAR LMML NIL=
200806041245 METAR LMML 041245Z 29018KT 260V320 9999 FEW016 23/16 Q1015
                        NOSIG=
200806041230 METAR LMML NIL=
200806041215 METAR LMML 041215Z 29019KT 260V320 9999 FEW016 23/16 Q1015
                        NOSIG=
200806041200 METAR LMML NIL=
200806041145 METAR LMML 041145Z 29019KT 260V320 9999 SCT016 23/16 Q1015
                        NOSIG=
200806041130 METAR LMML NIL=
200806041115 METAR LMML 041115Z 29019KT 260V320 9999 SCT017 23/17 Q1015
                        NOSIG=
200806041100 METAR LMML NIL=
200806041045 METAR LMML 041045Z 30018KT 9999 FEW020 23/16 Q1015 NOSIG=
200806041030 METAR LMML NIL=
200806041015 METAR LMML 041015Z 29018KT 260V320 9999 FEW017 23/16 Q1015
                        NOSIG=
200806041000 METAR LMML NIL=
200806040945 METAR LMML 040945Z 29020KT 260V320 9999 FEW017 23/16 Q1015
                        NOSIG=
200806040930 METAR LMML NIL=
200806040915 METAR LMML 040915Z 31019KT 260V330 9999 FEW018 23/17 Q1015
                        NOSIG=
200806040845 METAR LMML 040845Z 30018KT 270V330 9999 FEW015 22/16 Q1015
                        NOSIG=
200806040830 METAR LMML NIL=
200806040815 METAR LMML 040815Z 30016KT 9999 FEW014 22/17 Q1014 NOSIG=
200806040745 METAR LMML 040745Z 31015KT 9999 FEW014 22/17 Q1014 NOSIG=
200806040730 METAR LMML NIL=
200806040715 METAR LMML 040715Z 30014KT 270V330 9999 FEW014 21/17 Q1014
                        NOSIG=
200806040645 METAR LMML 040645Z 30015KT 9999 FEW012 21/17 Q1014 NOSIG=
200806040630 METAR LMML NIL=
200806040615 METAR LMML 040615Z 31012KT 280V340 9999 FEW010 21/17 Q1014
                        NOSIG=
200806040600 METAR LMML NIL=
200806040545 METAR LMML 040545Z 31012KT 9999 FEW010 20/17 Q1013 NOSIG=
200806040530 METAR LMML NIL=
200806040515 METAR LMML 040515Z 31013KT 9999 FEW010 20/18 Q1013 NOSIG=
200806040500 METAR LMML NIL=
200806040445 METAR LMML 040445Z 31011KT 9999 FEW010 19/18 Q1013 NOSIG=
200806040430 METAR LMML NIL=
200806040415 METAR LMML 040415Z 31012KT 9999 FEW010 19/18 Q1013 NOSIG=
200806040400 METAR LMML NIL=
200806040345 METAR LMML 040345Z 31011KT 9999 FEW010 19/18 Q1013 NOSIG=
200806040330 METAR LMML NIL=
200806040315 METAR LMML 040315Z 31010KT 9999 FEW010 19/18 Q1013 NOSIG=
200806040300 METAR LMML NIL=
200806040245 METAR LMML 040245Z 32011KT 9999 FEW010 19/18 Q1013 NOSIG=
200806040230 METAR LMML NIL=
200806040215 METAR LMML 040215Z 32012KT 9999 FEW010 19/18 Q1013 NOSIG=
200806040200 METAR LMML NIL=
200806040145 METAR LMML 040145Z 32011KT 9999 FEW012 19/18 Q1013 NOSIG=
200806040130 METAR LMML NIL=
200806040115 METAR LMML 040115Z 32014KT 9999 FEW012 19/18 Q1013 NOSIG=
200806040100 METAR LMML NIL=
200806040045 METAR LMML 040045Z 32015KT 9999 FEW010 19/18 Q1013 NOSIG=
200806040030 METAR LMML NIL=
200806040015 METAR LMML 040015Z 32016KT 9999 FEW010 19/18 Q1013 NOSIG=
200806040000 METAR LMML NIL=
200806032345 METAR LMML 032345Z 32015KT 9999 FEW010 19/18 Q1013 NOSIG=
200806032330 METAR LMML NIL=
200806032315 METAR LMML 032315Z 32014KT 9999 FEW010 19/18 Q1013 NOSIG=
200806032300 METAR LMML NIL=
200806032245 METAR LMML 032245Z 31018KT 9999 FEW010 20/18 Q1013 NOSIG=
200806032230 METAR LMML NIL=
200806032215 METAR LMML 032215Z 30017KT 9999 FEW010 20/18 Q1013 WS RWY32
                        NOSIG=
200806032200 METAR LMML NIL=
200806032145 METAR LMML 032145Z 30020G30KT 9999 FEW010 20/18 Q1013 WS
                        RWY32 NOSIG=
200806032130 METAR LMML NIL=
200806032115 METAR LMML 032115Z 30019KT 270V330 9999 FEW010 20/18 Q1013
                        NOSIG=
200806032100 METAR LMML NIL=
200806032045 METAR LMML 032045Z 30015KT 9999 FEW010 20/18 Q1013 NOSIG=
200806032030 METAR LMML NIL=
200806032015 METAR LMML 032015Z 30015KT 9999 FEW010 20/18 Q1012 NOSIG=
200806032000 METAR LMML NIL=
200806031945 METAR LMML 031945Z 30018KT 9000 FEW010 20/18 Q1012 TEMPO
                        BKN008=
200806031930 METAR LMML NIL=
200806031915 METAR LMML 031915Z 31018KT 9000 BKN010 20/18 Q1012 TEMPO
                        BKN008=
200806031900 METAR LMML NIL=
200806031845 METAR LMML 031845Z 31017KT 9000 BKN010 20/18 Q1012 TEMPO
                        BKN008=
200806031830 METAR LMML NIL=
200806031815 METAR LMML 031815Z 31019KT 9000 SCT010 20/18 Q1012 TEMPO
                        BKN012=
200806031800 METAR LMML NIL=
200806031745 METAR LMML 031745Z 31016KT 9000 SCT010 21/18 Q1011 TEMPO
                        BKN012=
200806031730 METAR LMML NIL=
200806031715 METAR LMML 031715Z 30016KT 9000 SCT011 21/18 Q1011 TEMPO
                        BKN012=
200806031700 METAR LMML NIL=
200806031645 METAR LMML 031645Z 31013KT 9000 SCT012 22/18 Q1011 TEMPO
                        BKN012=
200806031630 METAR LMML NIL=
200806031615 METAR LMML 031615Z 30014KT 9000 SCT014 22/18 Q1011 NOSIG=
200806031600 METAR LMML NIL=
200806031545 METAR LMML 031545Z 30014KT 9000 SCT018 23/18 Q1011 NOSIG=
200806031530 METAR LMML NIL=
200806031515 METAR LMML 031515Z 33011KT 290V350 9999 SCT018 23/17 Q1011
                        NOSIG=
200806031500 METAR LMML NIL=
200806031445 METAR LMML 031445Z 33011KT 290V010 9999 SCT018 23/17 Q1011
                        NOSIG=
200806031430 METAR LMML NIL=
200806031415 METAR LMML 031415Z 30013KT 260V340 9999 FEW021 24/18 Q1011
                        NOSIG=
200806031400 METAR LMML NIL=
200806031345 METAR LMML 031345Z 30013KT 250V330 9999 FEW018 24/18 Q1011
                        NOSIG=
200806031315 METAR LMML 031315Z 29015KT 9999 FEW025 24/18 Q1011 NOSIG=
200806031300 METAR LMML NIL=
200806031245 METAR LMML 031245Z 30014KT 9999 FEW025 24/17 Q1011 NOSIG=
200806031230 METAR LMML NIL=
200806031215 METAR LMML 031215Z 30014KT 270V330 9999 FEW025 24/17 Q1011
                        NOSIG=
200806031200 METAR LMML NIL=
200806031145 METAR LMML 031145Z 29015KT 260V340 9999 FEW024 24/17 Q1011
                        NOSIG=
200806031130 METAR LMML NIL=
200806031115 METAR LMML 031115Z 29015KT 9999 FEW024 24/17 Q1011 NOSIG=
200806031100 METAR LMML NIL=
200806031045 METAR LMML 031045Z 33011KT 290V360 9999 FEW030 25/16 Q1011
                        NOSIG=
200806031030 METAR LMML NIL=
200806031015 METAR LMML 031015Z 34013KT 290V010 9999 FEW025 24/17 Q1012
                        NOSIG=
200806031000 METAR LMML NIL=
200806030945 METAR LMML 030945Z 34014KT 9999 FEW025 24/17 Q1012 NOSIG=
200806030930 METAR LMML NIL=
200806030915 METAR LMML 030915Z 34014KT 310V010 9999 FEW025 24/17 Q1011
                        NOSIG=
200806030900 METAR LMML NIL=
200806030845 METAR LMML 030845Z 33015KT 9999 FEW020 24/16 Q1011 NOSIG=
200806030830 METAR LMML NIL=
200806030815 METAR LMML 030815Z 33013KT 300V360 9999 FEW020 24/16 Q1011
                        NOSIG=
200806030800 METAR LMML NIL=
200806030745 METAR LMML 030745Z 34017KT 9999 FEW020 23/16 Q1011 NOSIG=
200806030730 METAR LMML NIL=
200806030715 METAR LMML 030715Z 33013KT 9999 FEW020 23/16 Q1011 NOSIG=
200806030700 METAR LMML NIL=
200806030645 METAR LMML 030645Z 34013KT 9999 FEW020 22/16 Q1011 NOSIG=
200806030630 METAR LMML NIL=
200806030615 METAR LMML 030615Z 34012KT 310V010 9999 FEW017 21/17 Q1010
                        NOSIG=
200806030600 METAR LMML NIL=
200806030545 METAR LMML 030545Z 35011KT 9999 FEW004 BKN014 21/18 Q1010
                        TEMPO 8000 SCT009 BKN012=
200806030530 METAR LMML NIL=
200806030515 METAR LMML 030515Z 35011KT 8000 SCT006 BKN015 20/20 Q1010
                        TEMPO 8000 BKN009=
200806030500 METAR LMML NIL=
200806030445 METAR LMML 030445Z 36011KT 6000 BKN004 BKN043 20/20 Q1009
                        NOSIG=
200806030430 METAR LMML NIL=
200806030415 METAR LMML 030415Z 36009KT 6000 BKN004 BKN043 20/20 Q1009
                        NOSIG=
200806030345 METAR LMML 030345Z 01009KT 6000 SCT004 SCT040 20/20 Q1008
                        NOSIG=
200806030330 METAR LMML NIL=
200806030315 METAR LMML 030315Z 01008KT 9000 BKN005 SCT008 20/20 Q1008
                        NOSIG=
200806030300 METAR LMML NIL=
200806030245 METAR LMML 030245Z 04006KT 010V070 9000 BKN005 BKN010 21/20
                        Q1008 NOSIG=
200806030230 METAR LMML NIL=
200806030215 METAR LMML 030215Z 05006KT 9000 BKN005 BKN009 21/20 Q1008
                        NOSIG=
200806030145 METAR LMML 030145Z 04006KT 010V080 9000 BKN005 BKN009 21/20
                        Q1008 NOSIG=
200806030130 METAR LMML NIL=
200806030115 METAR LMML 030115Z 05007KT 020V100 9000 FEW005 BKN008 BKN011
                        21/20 Q1008 NOSIG=
200806030100 METAR LMML NIL=
200806030045 METAR LMML 030045Z 06007KT 020V100 9000 FEW006 BKN008 BKN011
                        21/20 Q1008 NOSIG=
200806030030 METAR LMML NIL=
200806030015 METAR LMML 030015Z 06006KT 030V090 9000 BKN008 BKN012 21/20
                        Q1008 NOSIG=
200806030000 METAR LMML NIL=
200806022345 METAR LMML 022345Z 07008KT 9000 SCT006 BKN011 21/20 Q1008
                        TEMPO BKN005=
200806022330 METAR LMML NIL=
200806022315 METAR LMML 022315Z 07008KT 030V110 9000 SCT007 BKN011 21/20
                        Q1008 TEMPO BKN005=
200806022300 METAR LMML NIL=
200806022245 METAR LMML 022245Z 09007KT 050V120 9000 SCT006 BKN011 21/20
                        Q1009 TEMPO BKN005=
200806022230 METAR LMML NIL=
200806022215 METAR LMML 022215Z 09006KT 040V130 9999 SCT006 BKN011 21/20
                        Q1009 TEMPO BKN005=
200806022145 METAR LMML 022145Z 11008KT 070V130 9999 FEW013 BKN023 21/19
                        Q1009 NOSIG=
200806022130 METAR LMML NIL=
200806022115 METAR LMML 022115Z 11009KT 9999 FEW012 BKN024 21/19 Q1009
                        NOSIG=
200806022045 METAR LMML 022045Z 11011KT 9999 FEW012 20/19 Q1009 TEMPO
                        BKN011=
200806022015 METAR LMML 022015Z 10010KT 080V140 9999 FEW012 20/19 Q1009
                        NOSIG=
200806021945 METAR LMML 021945Z 11010KT CAVOK 21/19 Q1009 BECMG 9999 SCT015=
200806021915 METAR LMML 021915Z 10011KT 080V140 CAVOK 21/19 Q1009 BECMG
                        9999 SCT015=
200806021900 METAR LMML NIL=
200806021845 METAR LMML 021845Z 10011KT 070V130 CAVOK 21/18 Q1009 NOSIG=
200806021830 METAR LMML NIL=
200806021815 METAR LMML 021815Z 11011KT CAVOK 21/17 Q1009 NOSIG=
200806021800 METAR LMML NIL=
200806021745 METAR LMML 021745Z 11012KT CAVOK 21/17 Q1009 NOSIG=
200806021730 METAR LMML NIL=
200806021715 METAR LMML 021715Z 10013KT 070V130 CAVOK 22/17 Q1009 NOSIG=
200806021700 METAR LMML NIL=
200806021645 METAR LMML 021645Z 10013KT CAVOK 22/17 Q1009 NOSIG=
200806021630 METAR LMML NIL=
200806021615 METAR LMML 021615Z 11013KT CAVOK 23/17 Q1009 NOSIG=
200806021600 METAR LMML NIL=
200806021545 METAR LMML 021545Z 12015KT CAVOK 23/17 Q1009 NOSIG=
200806021530 METAR LMML NIL=
200806021515 METAR LMML 021515Z 11013KT 080V150 CAVOK 24/17 Q1009 NOSIG=
200806021500 METAR LMML NIL=
200806021445 METAR LMML 021445Z 12018KT 090V150 CAVOK 24/16 Q1009 NOSIG=
200806021430 METAR LMML NIL=
200806021415 METAR LMML 021415Z 13018KT 100V160 CAVOK 25/15 Q1008 NOSIG=
200806021400 METAR LMML NIL=
200806021345 METAR LMML 021345Z 13020KT CAVOK 25/14 Q1009 NOSIG=
200806021330 METAR LMML NIL=
200806021315 METAR LMML 021315Z 13021KT CAVOK 25/14 Q1009 NOSIG=
200806021300 METAR LMML NIL=
200806021245 METAR LMML 021245Z 14020KT CAVOK 25/14 Q1009 NOSIG=
200806021230 METAR LMML NIL=
200806021215 METAR LMML 021215Z 15018KT 120V180 CAVOK 25/14 Q1009 NOSIG=
200806021200 METAR LMML NIL=
200806021145 METAR LMML 021145Z 14022KT CAVOK 25/14 Q1010 NOSIG=
200806021130 METAR LMML NIL=
200806021115 METAR LMML 021115Z 13020KT CAVOK 25/15 Q1010 NOSIG=
200806021100 METAR LMML NIL=
200806021045 METAR LMML 021045Z 12018KT 100V160 CAVOK 25/14 Q1011 NOSIG=
200806021030 METAR LMML NIL=
200806021015 METAR LMML 021015Z 13019KT CAVOK 25/14 Q1011 NOSIG=
200806021000 METAR LMML NIL=
200806020945 METAR LMML 020945Z 12016KT CAVOK 25/15 Q1011 NOSIG=
200806020930 METAR LMML NIL=
200806020915 METAR LMML 020915Z 12019KT CAVOK 23/16 Q1011 NOSIG=
200806020900 METAR LMML NIL=
200806020845 METAR LMML 020845Z 10015KT 070V130 CAVOK 22/16 Q1012 NOSIG=
200806020830 METAR LMML NIL=
200806020815 METAR LMML 020815Z 09012KT 060V120 CAVOK 23/16 Q1013 BECMG
                        7000 BKN050CB TSRA=
200806020800 METAR LMML NIL=
200806020745 METAR LMML 020745Z 08012KT 050V110 CAVOK 23/16 Q1012 NOSIG=
200806020730 METAR LMML NIL=
200806020715 METAR LMML 020715Z 11012KT 080V140 CAVOK 23/16 Q1012 NOSIG=
200806020700 METAR LMML NIL=
200806020645 METAR LMML 020645Z 10013KT CAVOK 23/17 Q1011 NOSIG=
200806020630 METAR LMML NIL=
200806020615 METAR LMML 020615Z 11013KT CAVOK 22/18 Q1011 TEMPO 8000 TSRA
                        SCT060CB=
200806020600 METAR LMML NIL=
200806020545 METAR LMML 020545Z 09008KT 060V130 9999 -SHRA SKC 21/18 Q1012
                        TEMPO 8000 TSRA SCT060CB=
200806020530 LMML NIL=
200806020515 METAR LMML 020515Z 08008KT 060V120 CAVOK 21/18 Q1012 NOSIG=
200806020500 METAR LMML NIL=
200806020445 METAR LMML 020445Z 13014KT CAVOK 21/18 Q1010 NOSIG=
200806020430 METAR LMML NIL=
200806020415 METAR LMML 020415Z 12013KT CAVOK 20/18 Q1010 NOSIG=
200806020400 METAR LMML NIL=
200806020345 METAR LMML 020345Z 13015KT CAVOK 20/18 Q1010 NOSIG=
200806020330 METAR LMML NIL=
200806020315 METAR LMML 020315Z 14009KT CAVOK 20/18 Q1011 NOSIG=
200806020300 METAR LMML NIL=
200806020245 METAR LMML 020245Z 11008KT CAVOK 21/17 Q1011 NOSIG=
200806020230 METAR LMML NIL=
200806020215 METAR LMML 020215Z 12012KT CAVOK 21/17 Q1011 NOSIG=
200806020200 METAR LMML NIL=
200806020145 METAR LMML 020145Z 13011KT CAVOK 20/17 Q1011 NOSIG=
200806020130 METAR LMML NIL=
200806020115 METAR LMML 020115Z 12009KT CAVOK 20/17 Q1011 NOSIG=
200806020100 METAR LMML NIL=
200806020045 METAR LMML 020045Z 13011KT CAVOK 20/17 Q1012 NOSIG=
200806020015 METAR LMML 020015Z 13010KT CAVOK 20/17 Q1012 NOSIG=
200806020000 METAR LMML NIL=
200806012345 METAR LMML 012345Z 11010KT CAVOK 20/17 Q1012 NOSIG=
200806012315 METAR LMML 012315Z 12011KT CAVOK 20/17 Q1013 NOSIG=
200806012300 METAR LMML NIL=
200806012245 METAR LMML 012245Z 12011KT CAVOK 20/17 Q1013 NOSIG=
200806012230 METAR LMML NIL=
200806012215 METAR LMML 012215Z 13012KT CAVOK 20/17 Q1013 NOSIG=
200806012200 METAR LMML NIL=
200806012145 METAR LMML 012145Z 12012KT CAVOK 20/17 Q1013 NOSIG=
200806012130 METAR LMML NIL=
200806012115 METAR LMML 012115Z 13011KT CAVOK 20/17 Q1014 NOSIG=
200806012100 METAR LMML NIL=
200806012045 METAR LMML 012045Z 13009KT CAVOK 20/17 Q1014 NOSIG=
200806012030 METAR LMML NIL=
200806012015 METAR LMML 012015Z 13009KT CAVOK 20/17 Q1014 NOSIG=
200806011945 METAR LMML 011945Z 13009KT CAVOK 20/17 Q1014 NOSIG=
200806011930 METAR LMML NIL=
200806011915 METAR LMML 011915Z 12009KT CAVOK 21/17 Q1014 NOSIG=
200806011900 METAR LMML NIL=
200806011845 METAR LMML 011845Z 13010KT CAVOK 21/17 Q1014 NOSIG=
200806011830 METAR LMML NIL=
200806011815 METAR LMML 011815Z 13009KT CAVOK 21/17 Q1014 NOSIG=
200806011800 METAR LMML NIL=
200806011745 METAR LMML 011745Z 12009KT CAVOK 22/17 Q1014 NOSIG=
200806011730 METAR LMML NIL=
200806011715 METAR LMML 011715Z 13010KT CAVOK 22/15 Q1014 NOSIG=
200806011700 METAR LMML NIL=
200806011645 METAR LMML 011645Z 13011KT 100V160 CAVOK 23/15 Q1014 NOSIG=
200806011630 METAR LMML NIL=
200806011615 METAR LMML 011615Z 12010KT CAVOK 24/13 Q1014 NOSIG=
200806011600 METAR LMML NIL=
200806011545 METAR LMML 011545Z 10012KT CAVOK 24/13 Q1013 NOSIG=
200806011530 METAR LMML NIL=
200806011515 METAR LMML 011515Z 10010KT CAVOK 24/10 Q1014 NOSIG=
200806011500 METAR LMML NIL=
200806011445 METAR LMML 011445Z 12007KT CAVOK 25/09 Q1014 NOSIG=
200806011430 METAR LMML NIL=
200806011415 METAR LMML 011415Z 17006KT 140V210 CAVOK 26/08 Q1015 NOSIG=
200806011400 METAR LMML NIL=
200806011345 METAR LMML 011345Z 19006KT 140V220 CAVOK 25/09 Q1016 NOSIG=
200806011330 METAR LMML NIL=
200806011315 METAR LMML 011315Z 16007KT 130V190 CAVOK 24/09 Q1016 NOSIG=
200806011300 METAR LMML NIL=
200806011245 METAR LMML 011245Z 14008KT 100V180 CAVOK 25/08 Q1015 NOSIG=
200806011230 METAR LMML NIL=
200806011215 METAR LMML 011215Z 14009KT 100V170 CAVOK 26/10 Q1016 NOSIG=
200806011200 METAR LMML NIL=
200806011145 METAR LMML 011145Z 12010KT 080V160 CAVOK 26/07 Q1016 NOSIG=
200806011130 METAR LMML NIL=
200806011115 METAR LMML 011115Z 11009KT 080V150 CAVOK 26/07 Q1016 NOSIG=
200806011100 METAR LMML NIL=
200806011045 METAR LMML 011045Z 13009KT 090V160 CAVOK 26/07 Q1017 NOSIG=
200806011030 METAR LMML NIL=
200806011015 METAR LMML 011015Z 11009KT 070V140 CAVOK 26/10 Q1017 NOSIG=
200806011000 METAR LMML NIL=
200806010945 METAR LMML 010945Z 10008KT 060V150 CAVOK 26/11 Q1017 NOSIG=
200806010930 METAR LMML NIL=
200806010915 METAR LMML 010915Z 09010KT CAVOK 24/09 Q1016 NOSIG=
200806010900 METAR LMML NIL=
200806010845 METAR LMML 010845Z 09008KT 060V130 CAVOK 24/11 Q1016 NOSIG=
200806010830 METAR LMML NIL=
200806010815 METAR LMML 010815Z 09007KT 060V120 CAVOK 25/12 Q1017 NOSIG=
200806010800 METAR LMML NIL=
200806010745 METAR LMML 010745Z 08008KT 050V110 CAVOK 23/13 Q1017 NOSIG=
200806010715 METAR LMML 010715Z 08008KT CAVOK 23/13 Q1017 NOSIG=
200806010700 METAR LMML NIL=
200806010645 METAR LMML 010645Z 08007KT 040V100 CAVOK 23/11 Q1016 NOSIG=
200806010630 METAR LMML NIL=
200806010615 METAR LMML 010615Z 07008KT 040V120 CAVOK 23/13 Q1016 NOSIG=
200806010600 METAR LMML NIL=
200806010545 METAR LMML 010545Z 07005KT 040V100 CAVOK 22/13 Q1016 NOSIG=
200806010530 METAR LMML NIL=
200806010515 METAR LMML 010515Z VRB03KT CAVOK 21/11 Q1016 NOSIG=
200806010500 METAR LMML NIL=
200806010445 METAR LMML 010445Z VRB01KT CAVOK 19/10 Q1016 NOSIG=
200806010430 METAR LMML NIL=
200806010415 METAR LMML 010415Z VRB01KT CAVOK 18/07 Q1016 NOSIG=
200806010400 METAR LMML NIL=
200806010345 METAR LMML 010345Z VRB02KT CAVOK 19/06 Q1016 NOSIG=
200806010330 METAR LMML NIL=
200806010315 METAR LMML 010315Z VRB02KT CAVOK 19/06 Q1016 NOSIG=
200806010300 METAR LMML NIL=
200806010245 METAR LMML 010245Z VRB03KT CAVOK 19/06 Q1016 NOSIG=
200806010230 METAR LMML NIL=
200806010215 METAR LMML 010215Z VRB03KT CAVOK 19/06 Q1016 NOSIG=
200806010145 METAR LMML 010145Z 31004KT 280V340 CAVOK 19/07 Q1016 NOSIG=
200806010130 METAR LMML NIL=
200806010115 METAR LMML 010115Z VRB02KT CAVOK 19/08 Q1016 NOSIG=
200806010100 METAR LMML NIL=
200806010045 METAR LMML 010045Z VRB01KT CAVOK 19/09 Q1016 NOSIG=
200806010030 METAR LMML NIL=
200806010015 METAR LMML 010015Z VRB03KT CAVOK 19/09 Q1016 NOSIG=
200806010000 METAR LMML NIL=

###################################
#  short TAF from LMML
###################################
200807012300 TAF LMML 012300Z 020009 VRB03KT CAVOK
                      PROB30 TEMPO 0004 7000 FEW007=
200807012000 TAF LMML 012000Z 012106 VRB03KT CAVOK
                      TEMPO 2306 8000 NSC
                      PROB30 TEMPO 0004 5000 BR FEW005=
200807011700 TAF LMML 011700Z 011803 VRB03KT CAVOK
                      PROB30 TEMPO 0003 7000 FEW005=
200807011400 TAF LMML 011400Z 011524 VRB03KT CAVOK=
200807011100 TAF LMML 011100Z 011221 VRB03KT CAVOK=
200807010800 TAF LMML 010800Z 010918 VRB03KT CAVOK=
200807010500 TAF LMML 010500Z 010615 29006KT CAVOK=
200807010200 TAF LMML 010200Z 010312 26005KT 8000 FEW004 SCT100
                      BECMG 0508 CAVOK=
200806302300 TAF LMML 302300Z 010009 VRB03KT CAVOK
                      BECMG 0003 8000
                      PROB30 TEMPO 0305 5000 BR FEW003=
200806302000 TAF LMML 302000Z 302106 VRB03KT CAVOK
                      BECMG 2124 8000
                      PROB30 TEMPO 0105 5000 BR FEW003=
200806301700 TAF LMML 301700Z 301803 VRB03KT CAVOK
                      PROB40 TEMPO 2203 9000
                      NSCPROB30 TEMPO 0003 5000 BR FEW010=
200806301400 TAF LMML 301400Z 301524 32007KT CAVOK
                      PROB30 TEMPO 2224 9000 NSC=
200806301100 TAF LMML 301100Z 301221 16010KT CAVOK
                      BECMG 1719 32005KT=
200806300800 TAF LMML 300800Z 300918 34006KT CAVOK
                      BECMG 0912 10010KT=
200806300500 TAF LMML 300500Z 300615 02005KT CAVOK=
200806300200 TAF LMML 300200Z 300312 VRB03KT CAVOK
                      PROB40 TEMPO 0306 5000 BR FEW005=
200806292300 TAF LMML 292300Z 300009 VRB03KT CAVOK
                      PROB40 TEMPO 0106 8000 FEW008
                      PROB30 TEMPO 0306 5000 BR FEW005=
200806292000 TAF LMML 292000Z 292106 VRB03KT CAVOK
                      PROB40 TEMPO 2106 8000 FEW008 PTOB30
                      TEMPO 0206 5000 BR SCT005=
200806291700 TAF LMML 291700Z 291803 04005KT CAVOK
                      TEMPO 0203 6000 FEW005=
200806291400 TAF LMML 291400Z 291524 08006KT CAVOK=
200806291100 TAF LMML 291100Z 291221 08008KT CAVOK=
200806290800 TAF LMML 290800Z 290918 05007KT CAVOK=
200806290500 TAF LMML 290500Z 290615 36005KT CAVOK=
200806290200 TAF LMML 290200Z 290312 VRB03KT CAVOK
                      TEMPO 0306 7000
                      PROB30 TEMPO 0306 5000 BR=
200806282300 TAF LMML 282300Z 290009 VRB03KT CAVOK
                      TEMPO 0006 7000
                      PROB30 TEMPO 0106 5000 BR=
200806282000 TAF LMML 282000Z 282106 VRB03KT CAVOK
                      TEMPO 2106 7000
                      PROB30 TEMPO 0106 5000 BR=
200806281700 TAF LMML 281700Z 281803 VRB03KT CAVOK
                      PROB30 TEMPO 0003 5000 BR FEW005 SCT080=
200806281400 TAF LMML 281400Z 281524 VRB03KT CAVOK
                      PROB30 TEMPO 2024 8000 FEW040=
200806281100 TAF LMML 281100Z 281221 VRB03KT CAVOK=
200806280800 TAF LMML 280800Z 280918 33006KT 9000 FEW012
                      PROB30 TEMPO 1215 CAVOK=
200806280500 TAF LMML 280500Z 280615 33008KT 7000 FEW011
                      BECMG 0609 9999=
200806280200 TAF LMML 280200Z 280312 30006KT 7000 FEW012
                      TEMPO 0305 3000 BR BKN005
                      BECMG 0508 9999=
200806272300 TAF LMML 272300Z 280009 32005KT CAVOK
                      BECMG 0003 9999 FEW012
                      PROB30 TEMPO 0005 7000 BKN007=
200806272000 TAF LMML 272000Z 272106 30005KT CAVOK
                      PROB30 TEMPO 2303 7000 FEW010=
200806271700 TAF LMML 271700Z 271803 30007KT 9999 FEW012
                      TEMPO 1803 CAVOK
                      PROB30 TEMPO 0003 8000=
200806271400 TAF LMML 271400Z 271524 30007KT 9999 FEW012
                      TEMPO 1524 CAVOK=
200806271100 TAF LMML 271100Z 271221 31010KT CAVOK
                      PROB30 TEMPO 1621 FEW012=
200806270800 TAF LMML 270800Z 270918 31006KT 9999 FEW012=
200806270500 TAF LMML 270500Z 270615 30010KT CAVOK=
200806270200 TAF LMML 270200Z 270312 30008KT CAVOK
                      PROB30 TEMPO 0305 7000 FEW004=
200806262300 TAF LMML 262300Z 270009 30005KT CAVOK
                      PROB30 TEMPO 0005 7000 FEW004=
200806262000 TAF LMML 262000Z 262106 30005KT CAVOK
                      PROB30 TEMPO 0005 7000 FEW004=
200806261700 TAF LMML 261700Z 261803 31010KT CAVOK
                      PROB40 TEMPO 2003 8000 SKC
                      PROB30 TEMPO 2303 5000 BR SCT005=
200806261100 TAF LMML 261100Z 261221 15008KT CAVOK
                      PROB40 TEMPO 1821 8000 SKC=
200806260800 TAF LMML 260800Z 260918 33008KT CAVOK=
200806260500 TAF LMML 260500Z 260615 31010KT CAVOK=
200806260200 TAF LMML 260200Z 260312 30010KT CAVOK=
200806252300 TAF LMML 252300Z 260009 31006KT CAVOK=
200806252000 TAF LMML 252000Z 252106 31005KT CAVOK=
200806251700 TAF LMML 251700Z 251803 32006KT CAVOK=
200806251400 TAF LMML 251400Z 251524 33008KT CAVOK=
200806251100 TAF LMML 251100Z 251221 32008KT CAVOK=
200806250800 TAF LMML 250800Z 250918 32008KT CAVOK=
200806250500 TAF LMML 250500Z 250615 31008KT CAVOK=
200806250200 TAF LMML 250200Z 250312 32006KT CAVOK=
200806242300 TAF LMML 242300Z 250009 32006KT CAVOK=
200806242000 TAF LMML 242000Z 242106 33006KT CAVOK=
200806241700 TAF LMML 241700Z 241803 VRB03KT CAVOK=
200806241400 TAF LMML 241400Z 241524 03008KT CAVOK
                      BECMG 2124 30003KT=
200806241100 TAF LMML 241100Z 241221 33006KT CAVOK=
200806240800 TAF LMML 240800Z 240918 33008KT CAVOK=
200806240500 TAF LMML 240500Z 240615 33008KT CAVOK=
200806240200 TAF LMML 240200Z 240312 31005KT CAVOK=
200806232300 TAF LMML 232300Z 240009 33004KT CAVOK
                      PROB30 TEMPO 0105 7000 SKC=
200806232000 TAF LMML 232000Z 232106 33005KT CAVOK
                      PROB30 TEMPO 0105 SKC=
200806231700 TAF LMML 231700Z 231803 VRB03KT CAVOK
                      PROB30 TEMPO 0103 7000 SKC=
200806231400 TAF LMML 231400Z 231524 VRB03KT CAVOK=
200806231100 TAF LMML 231100Z 231221 36005KT CAVOK=
200806230800 TAF LMML 230800Z 230918 33005KT CAVOK=
200806230500 TAF LMML 230500Z 230615 30006KT CAVOK=
200806230200 TAF LMML 230200Z 230312 30005KT CAVOK
                      PROB30 TEMPO 0305 6000 BKN005=
200806222300 TAF LMML 222300Z 230009 VRB03KT CAVOK=
200806222000 TAF LMML 222000Z 222106 VRB03KT CAVOK=
200806221700 TAF LMML 221700Z 221803 23005KT CAVOK=
200806221400 TAF LMML 221400Z 221524 18005KT CAVOK=
200806221100 TAF LMML 221100Z 221221 12005KT CAVOK=
200806220800 TAF LMML 220800Z 220918 11005KT CAVOK=
200806220500 TAF LMML 220500Z 220615 VRB03KT CAVOK=
200806220200 TAF LMML 220200Z 220312 08005KT CAVOK=
200806212300 TAF LMML 212300Z 220009 VRB03KT CAVOK=
200806212000 TAF LMML 212000Z 212106 VRB03KT CAVOK=
200806211700 TAF LMML 211700Z 211803 12004KT CAVOK
                      PROB30 TEMPO 0003 7000 NSC=
200806211400 TAF LMML 211400Z 211524 10008KT CAVOK=
200806211100 TAF LMML 211100Z 211221 09004KT CAVOK=
200806210800 TAF LMML 210800Z 210918 09004KT CAVOK=
200806210500 TAF LMML 210500Z 210615 VRB03KT CAVOK=
200806210200 TAF LMML 210200Z 210312 VRB03KT CAVOK=
200806202300 TAF LMML 202300Z 210009 VRB03KT CAVOK=
200806202000 TAF LMML 202000Z 202106 30004KT CAVOK=
200806201700 TAF LMML 201700Z 201803 VRB03KT CAVOK
                      PROB30 TEMPO 0003 9000 FEW020=
200806201400 TAF LMML 201400Z 201524 06005KT CAVOK
                      PROB30 TEMPO 1524 FEW030=
200806201100 TAF LMML 201100Z 201221 VRB03KT CAVOK=
200806200800 TAF LMML 200800Z 200918 36005KT CAVOK
                      PROB30 TEMPO 0911 FEW045=
200806200500 TAF LMML 200500Z 200615 33005KT CAVOK=
200806200200 TAF LMML 200200Z 200312 33005KT CAVOK=
200806192300 TAF LMML 192300Z 200009 34004KT CAVOK
                      PROB30 TEMPO 0004 8000=
200806192000 TAF LMML 192000Z 192106 34004KT CAVOK
                      PROB30 TEMPO 0004 8000=
200806191700 TAF LMML 191700Z 191803 01005KT CAVOK
                      PROB30 TEMPO 2303 8000=
200806191400 TAF LMML 191400Z 191524 03008KT CAVOK=
200806191100 TAF LMML 191100Z 191221 03008KT CAVOK
                      PROB30 TEMPO 1221 FEW020=
200806190800 TAF LMML 190800Z 190918 03007KT 9999 FEW020
                      TEMPO 0918 CAVOK=
200806190500 TAF LMML 190500Z 190615 30005KT CAVOK
                      BECMG 0912 02010KT=
200806190200 TAF LMML 190200Z 190312 33010KT 9999 FEW015=
200806182300 TAF LMML 182300Z 190009 30010KT 9999 FEW011=
200806182000 TAF LMML 182000Z 182106 29010KT CAVOK
                      PROB30 TEMPO 2106 SCT007=
200806181700 TAF LMML 181700Z 181803 23006KT CAVOK
                      BECMG 2023 31010KT 9999 FEW015
                      PROB30 TEMPO 2303 7000 BKN007=
200806181400 TAF LMML 181400Z 181524 20008KT CAVOK
                      BECMG 2124 31010KT 9999 FEW015=
200806181100 TAF LMML 181100Z 181221 16015KT CAVOK=
200806180800 TAF LMML 180800Z 180918 16015KT CAVOK=
200806180500 TAF LMML 180500Z 180615 16012KT CAVOK=
200806180200 TAF LMML 180200Z 180312 16010KT CAVOK=
200806172300 TAF LMML 172300Z 180009 16012KT CAVOK=
200806172000 TAF LMML 172000Z 172106 15015KT CAVOK
                      BECMG 0306 15005KT=
200806171700 TAF LMML 171700Z 171803 15015KT CAVOK=
200806171400 TAF LMML 171400Z 171524 15015KT CAVOK=
200806171100 TAF LMML 171100Z 171221 17015KT CAVOK
                      TEMPO 1221 15015G25KT=
200806170800 TAF LMML 170800Z 170918 17015G25KT CAVOK=
200806170500 TAF LMML 170500Z 170615 16012KT CAVOK=
200806170200 TAF LMML 170200Z 170312 16008KT CAVOK=
200806162300 TAF LMML 162300Z 170009 16008KT CAVOK=
200806161700 TAF LMML 161700Z 161803 15006KT CAVOK
                      PROB30 TEMPO 0003 9000 FEW008=
200806161400 TAF LMML 161400Z 161524 15010KT CAVOK=
200806161100 TAF LMML 161100Z 161221 15012KT CAVOK
                      PROB30 TEMPO 1215 FEW012=
200806160500 TAF LMML 160500Z 160615 16006KT CAVOK=
200806160200 TAF LMML 160200Z 160312 20006KT CAVOK
                      PROB30 TEMPO 0305 9000 NSC
                      BECMG 0912 14010KT=
200806152300 TAF LMML 152300Z 160009 22004KT CAVOK
                      PROB30 TEMPO 0005 9000 NSC=
200806152000 TAF LMML 152000Z 152106 23005KT CAVOK=
200806151700 TAF LMML 151700Z 151803 24005KT CAVOK=
200806151400 TAF LMML 151400Z 151524 28008KT CAVOK=
200806151100 TAF LMML 151100Z 151221 30010KT CAVOK
                      PROB30 TEMPO 1218 FEW020=
200806150800 TAF LMML 150800Z 150918 30010KT CAVOK
                      TEMPO 0918 FEW020=
200806150500 TAF LMML 150500Z 150615 30013KT CAVOK=
200806150200 TAF LMML 150200Z 150312 29010KT 9999 FEW012=
200806142300 TAF LMML 142300Z 150009 29010KT CAVOK=
200806142000 TAF LMML 142000Z 142106 29010KT CAVOK=
200806141700 TAF LMML 141700Z 141803 29016KT 9999 FEW025=
200806141400 TAF LMML 141400Z 141524 30012KT 9999 FEW030=
200806141100 TAF LMML 141100Z 141221 31014KT 9999 FEW030=
200806140800 TAF LMML 140800Z 140918 31012KT CAVOK=
200806140500 TAF LMML 140500Z 140615 30015KT 9999 FEW015=
200806140200 TAF LMML 140200Z 140312 30005KT 9999 FEW018
                      BECMG 0912 30015KT=
200806132300 TAF LMML 132300Z 140009 29008KT 9999 FEW018=
200806132000 TAF LMML 132000Z 132106 30013KT 9999 FEW018=
200806131700 TAF LMML 131700Z 131803 28016KT 9999 FEW020
                      PROB30 TEMPO 0003 9000 BKN010=
200806131400 TAF LMML 131400Z 131524 29017KT 9999 SCT023=
200806131100 TAF LMML 131100Z 131221 30015KT 9999 FEW025=
200806130800 TAF LMML 130800Z 130918 30016KT 9999 SCT020 SCT050=
200806130500 TAF LMML 130500Z 130615 30016KT 9999 SCT018=
200806130200 TAF LMML 130200Z 130312 30015KT 9999 FEW015
                      PROB30 TEMPO 0306 8000=
200806122300 TAF LMML 122300Z 130009 30010KT 9999 FEW015
                      PROB30 TEMPO 0006 8000 BKN010=
200806122000 TAF LMML 122000Z 122106 30010KT CAVOK
                      TEMPO 2106 FEW020=
200806121700 TAF LMML 121700Z 121803 30010KT 9999 FEW020 SCT080
                      PROB3 TEMPO 1824 8000 SHRA BKN050=
200806121400 TAF LMML 121400Z 121524 30010KT 9999 FEW025=
200806121100 TAF LMML 121100Z 121221 23008KT 9999 FEW025
                      BECMG 1215 30010KT=
200806120800 TAF LMML 120800Z 120918 23008KT 9999 FEW008 SCT120
                      BECMG 1215 30012KT=
200806120500 TAF LMML 120500Z 120615 VRB03KT 8000 FEW008
                      BECMG 0710 9999 FEW018 SCT100
                      BECMG 1215 30010KT=
200806120200 TAF LMML 120200Z 120312 VRB03KT 6000 SCT005
                      PROB30 TEMPO 3000 BKN003
                      BECMG 0912 9999 FEW018=
200806112300 TAF LMML 112300Z 120009 VRB02KT 8000 SCT008
                      TEMPO 0006 5000 BR BKN005
                      PROB30 TEMPO 0305 3000 BR BKN003=
200806112000 TAF LMML 112000Z 112106 VRB03KT 9999 FEW012
                      TEMPO 2106 8000 BKN008
                      PROB30 TEMPO 0006 3000 BR BKN003=
200806111700 TAF LMML 111700Z 111803 12004KT 9999 FEW015
                      TEMPO 1803 9000 BKN005
                      PROB40 TEMPO 2003 3000 BR BKN003=
200806111400 TAF LMML 111400Z 111524 12004KT 9999 FEW020
                      TEMPO 1824 9000 BKN006
                      PROB40 TEMPO 2024 3000 BR BKN003=
200806111100 TAF LMML 111100Z 111221 10005KT 9999 FEW015
                      PROB40 TEMPO 1721 9000 BKN007=
200806110800 TAF LMML 110800Z 110918 09007KT 9999 FEW015=
200806110500 TAF LMML 110500Z 110615 07010KT 9999 FEW012=
200806110200 TAF LMML 110200Z 110312 07008KT 5000 BR BKN003
                      BECMG 0306 8000 SCT010
                      BECMG 0609 9999 FEW015=
200806102300 TAF LMML 102300Z 110009 06008KT 6000 BKN005
                      TEMPO 0006 4000 BR BKN002
                      BECMG 0609 9999 SCT010=
200806102000 TAF LMML 102000Z 102106 07010KT 9000 BKN007
                      TEMPO 2206 BKN006
                      PROB40 TEMPO 0306 5000 BKN003=
200806101700 TAF LMML 101700Z 101803 08012KT 9999 FEW011
                      PROB40 TEMPO 2103 7000 BKN005
                      BECMG 0003 03004KT=
200806101400 TAF LMML 101400Z 101524 09012KT 9999 FEW012
                      PROB40 TEMPO 1821 7000 BKN005=
200806101100 TAF LMML 101100Z 101221 08013KT 9999 FEW012
                      PROB40 TEMPO 1821 6000 BKN005=
200806100800 TAF LMML 100800Z 100918 06012KT 9999 FEW012=
200806100500 TAF LMML 100500Z 100615 06012KT 9999 FEW010
                      BECMG 0608 CAVOK=
200806100200 TAF LMML 100200Z 100312 07008KT 8000 SCT005
                      PROB30 TEMPO 0306 5000 BKN005
                      BECMG 0608 CAVOK=
200806092300 TAF LMML 092300Z 100009 07008KT 9999 SCT005
                      PROB30 TEMPO 0006 5000 BKN005
                      BECMG 0608 CAVOK=
200806092000 TAF LMML 092000Z 092106 07008KT 9999 SCT008
                      PROB30 TEMPO 2106 6000 BKN005=
200806091700 TAF LMML 091700Z 091803 12010KT CAVOK
                      TEMPO 1803 FEW012
                      BECMG 2124 06010KT
                      PROB30 TEMPO 0003 8000 BKN008=
200806091400 TAF LMML 091400Z 091524 09010KT CAVOK
                      PROB30 TEMPO 2024 6000 BKN008=
200806091100 TAF LMML 091100Z 091221 09008KT CAVOK
                      PROB30 TEMPO 1821 SCT012=
200806090800 TAF LMML 090800Z 090918 04008KT CAVOK=
200806090500 TAF LMML 090500Z 090615 32005KT CAVOK=
200806090200 TAF LMML 090200Z 090312 32005KT CAVOK
                      TEMPO 0312 FEW020=
200806082300 TAF LMML 082300Z 090009 32005KT CAVOK
                      TEMPO 0009 FEW020=
200806082000 TAF LMML 082000Z 082106 30004KT CAVOK
                      TEMPO 2106 FEW015=
200806081700 TAF LMML 081700Z 081803 30006KT 9999 FEW018 FEW100
                      PROB30 TEMPO 1803 8000 TSRA SCT015 SCT060CB=
200806081400 TAF LMML 081400Z 081524 31008KT 9999 FEW018 SCT100
                      PROB30 TEMPO 1524 8000 TSRA SCT015 SCT060CB=
200806081100 TAF LMML 081100Z 081221 32010KT 9999 FEW018 SCT080
                      PROB30 TEMPO 1221 8000 TSRA SCT015 SCT060CB=
200806080800 TAF LMML 080800Z 080918 32012KT 9999 FEW018 SCT080
                      PROB30 TEMPO 1418 8000 TSRA SCT060CB=
200806080500 TAF LMML 080500Z 080615 30012KT CAVOK
                      BECMG 1013 FEW015 BKN070=
200806080200 TAF LMML 080200Z 080312 30012KT 9999 FEW015=
200806072300 TAF LMML 072300Z 080009 29016KT 9999 FEW015=
200806072000 TAF LMML 072000Z 072106 29016KT 9999 FEW020=
200806071700 TAF LMML 071700Z 071803 29014KT 9999 FEW020=
200806071400 TAF LMML 071400Z 071524 29015KT 9999 FEW020=
200806071100 TAF LMML 071100Z 071221 30017KT 9999 FEW020=
200806070800 TAF LMML 070800Z 070918 29017KT 9999 FEW018=
200806070500 TAF LMML 070500Z 070615 28008KT 9999 FEW020 SCT100
                      BECMG 0912 29015G25KT=
200806070200 TAF LMML 070200Z 070312 27006KT CAVOK
                      BECMG 0306 9999 FEW015 SCT100
                      BECMG 0912 28015G25KT=
200806062300 TAF LMML 062300Z 070009 27008KT 9999 FEW014 BKN100=
200806062000 TAF LMML 062000Z 062106 26005KT 9999 FEW014 SCT100=
200806061700 TAF LMML 061700Z 061803 25006KT 9999 FEW020
                      BECMG 2023 FEW011 BKN100=
200806061400 TAF LMML 061400Z 061524 24006KT 9999 FEW020
                      BECMG 2124 FEW012 BKN100=
200806061100 TAF LMML 061100Z 061221 VRB03KT 9999 FEW020
                      BECMG 1821 FEW010 BKN100=
200806060800 TAF LMML 060800Z 060918 30007KT CAVOK=
200806060500 TAF LMML 060500Z 060615 28008KT CAVOK=
200806060200 TAF LMML 060200Z 060312 27005KT CAVOK
                      PROB30 TEMPO 0304 4000 BR=
200806052300 TAF LMML 052300Z 060009 28005KT CAVOK
                      PROB30 TEMPO 0104 4000 BR=
200806052000 TAF LMML 052000Z 052106 26005KT CAVOK
                      PROB30 TEMPO 2106 8000 FEW004
                      PROB30 TEMPO 0104 4000 BR=
200806051700 TAF LMML 051700Z 051803 28004KT 9999 FEW011
                      PROB30 TEMPO 2103 9000 BKN008=
200806051400 TAF LMML 051400Z 051524 29010KT 9999 SCT013 BKN090
                      PROB30 TEMPO 1519 8000 TSRA BKN070CB
                      TEMPO 2124 9000 BKN008=
200806051100 TAF LMML 051100Z 051221 29014KT 9999 FEW015 SCT040 BKN080
                      PROB30 TEMPO 1218 8000 BKN060CB=
200806050800 TAF LMML 050800Z 050918 29010KT 9999 FEW013 SCT040 BKN100
                      PROB30 TEMPO 0915 8000 TSRA BKN070CB=
200806050500 TAF LMML 050500Z 050615 29010KT 9999 FEW015 SCT040 BKN080
                      PROB30 TEMPO 0615 8000 TSRA SCT008 BKN060CB=
200806050200 TAF LMML 050200Z 050312 29008KT CAVOK
                      PROB30 TEMPO 0312 8000 TSRA SCT008 SCT060CB=
200806042300 TAF LMML 042300Z 050009 29010KT 9999 FEW012
                      PROB30 TEMPO 0009 8000 TSRA SCT005 SCT060CB=
200806042000 TAF LMML 042000Z 042106 29010KT 9999 FEW012
                      PROB30 TEMPO 0106 8000 TSRA SCT003 SCT060CB=
200806041700 TAF LMML 041700Z 041803 28015KT 9999 SCT012
                      PROB30 TEMPO 2103 8000 BKN009=
200806041400 TAF LMML 041400Z 041524 28012G25KT 9999 SCT012
                      PROB30 TEMPO 1524 8000 BKN009
                      BECMG 1923 28012KT=
200806041100 TAF LMML 041100Z 041221 29015G25KT 9999 FEW015
                      BECMG 1821 28015KT
                      PROB30 TEMPO 1821 9000 BKN010=
200806040800 TAF LMML 040800Z 040918 32015G25KT 9999 FEW015=
200806040500 TAF LMML 040500Z 040615 31015KT 9999 FEW010=
200806040200 TAF LMML 040200Z 040312 31015G25KT 9999 SCT010
                      PROB30 TEMPO 0306 8000 BKN008=
200806032300 TAF LMML 032300Z 040009 30020KT 9999 SCT010
                      PROB40 TEMPO 0006 8000 BKN008
                      BECMG 0306 30015G25KT=
200806032000 TAF LMML 032000Z 032106 31018G28KT 9000 SCT010
                      PROB40 TEMPO 2106 5000 BKN005
                      BECMG 0306 31015KT=
200806031700 TAF LMML 031700Z 031803 29010KT 9000 FEW015
                      PROB40 TEMPO 1803 6000 BKN005=
200806031400 TAF LMML 031400Z 031524 29015KT 9999 FEW025
                      PROB30 TEMPO 1624 8000 SCT008=
200806031100 TAF LMML 031100Z 031221 31015G25KT 9999 FEW025
                      PROB30 TEMPO 1221 SCT015
                      PROB30 TEMPO 1821 SCT008=
200806030800 TAF LMML 030800Z 030918 31015G25KT 9999 FEW035
                      PROB30 TEMPO 1018 SCT015=
200806030500 TAF LMML 030500Z 030615 34010KT 9000 BKN010
                      BECMG 0609 31015G25KT 9999 SCT015=
200806030200 TAF LMML 030200Z 030312 03008KT 9999 SCT012 SCT030
                      TEMPO 0306 9000 BKN008
                      PROB30 TEMPO 0305 5000 BKN004
                      BECMG 0306 32010KT
                      BECMG 0710 30015G25KT=
200806022300 TAF LMML 022300Z 030009 07008KT 9999 SCT012
                      TEMPO 0006 9000 BKN008
                      PROB30 TEMPO 0004 5000 BKN004
                      BECMG 0003 28010KT
                      BECMG 0609 30015G25KT=
200806022000 TAF LMML 022000Z 022106 11011KT CAVOK
                      BECMG 2124 28009KT 9999 SCT015
                      TEMPO 2106 9000 BKN010
                      PROB30 TEMPO 2103 5000 BKN005
                      BECMG 0406 34011KT=
200806021700 TAF LMML 021700Z 021803 11010KT CAVOK
                      BECMG 2302 33015KT
                      PROB30 TEMPO 0003 8000 BKN007=
200806021400 TAF LMML 021400Z 021524 12015KT CAVOK
                      BECMG 1619 09010KT
                      PROB30 TEMPO 2224 8000 SCT007=
200806021100 TAF LMML 021100Z 021221 12015G25KT CAVOK
                      BECMG 1518 08010KT=
200806020800 TAF LMML 020800Z 020918 11015G25KT CAVOK
                      PROB30 TEMPO 0912 8000 TSRA SCT060CB=
200806020500 TAF LMML 020500Z 020615 13015G25KT CAVOK=
200806020200 TAF LMML 020200Z 020312 12012KT CAVOK=
200806012300 TAF LMML 012300Z 020009 12008KT CAVOK=
200806012000 TAF LMML 012000Z 012106 11010KT CAVOK=
200806011700 TAF LMML 011700Z 011803 12013KT CAVOK=
200806011400 TAF LMML 011400Z 011524 13009KT CAVOK=
200806011100 TAF LMML 011100Z 011221 10012KT CAVOK=
200806010800 TAF LMML 010800Z 010918 10010KT CAVOK=
200806010500 TAF LMML 010500Z 010615 09010KT CAVOK=
200806010200 TAF LMML 010200Z 010312 09008KT CAVOK=

###################################
#  large TAF from LMML
###################################
200807012300 TAF LMML 012300Z 020606 32005KT CAVOK
                      PROB30 TEMPO 0004 7000 NSC=
200807011700 TAF LMML 011700Z 020024 33005KT CAVOK
                      PROB30 TEMPO 0005 7000 FEW005=
200807011100 TAF LMML 011100Z 011818 VRB03KT CAVOK
                      PROB30 TEMPO 0005 7000 FEW005=
200807010500 TAF LMML 010500Z 011212 27005KT CAVOK
                      PROB30 TEMPO 0005 7000 SCT005=
200806302300 TAF LMML 302300Z 010606 28005KT 7000 FEW005
                      BECMG 0608 CAVOK
                      TEMPO 0006 8000
                      PROB30 TEMPO 0205 4000 BR BKN003=
200806301700 TAF LMML 301700Z 010024 32005KT CAVOK
                      PROB40 TEMPO 0006 9000 NSC
                      PROB30 TEMPO 0004 5000 BR FEW010=
200806301100 TAF LMML 301100Z 301818 32005KT CAVOK
                      PROB40 TEMPO 2206 9000 NSC
                      PROB30 TEMPO 0004 5000 BR FEW010=
200806300500 TAF LMML 300500Z 301212 04005KT CAVOK
                      PROB40 TEMPO 0306 5000 BR=
200806292300 TAF LMML 292300Z 300606 VRB03KT CAVOK
                      PROB40 TEMPO 0608 8000
                      PROB30 TEMPO 0206 5000 BR=
200806291700 TAF LMML 291700Z 300024 VRB03KT CAVOK
                      PROB30 TEMPO 0206 6000 FEW005=
200806291100 TAF LMML 291100Z 291818 07005KT CAVOK
                      PROB30 TEMPO 0205 7000 FEW005=
200806290500 TAF LMML 290500Z 291212 36005KT CAVOK
                      PROB30 TEMPO 0006 7000=
200806282300 TAF LMML 282300Z 290606 03005KT CAVOK
                      PROB30 TEMPO 0006 7000=
200806281700 TAF LMML 281700Z 290024 VRB03KT CAVOK
                      PROB30 TEMPO 0006 5000 BR SCT005 SCT080=
200806281100 TAF LMML 281100Z 281818 VRB03KT CAVOK
                      PROB40 TEMPO 0006 5000 BR SCT005=
200806280500 TAF LMML 280500Z 281212 30010KT 9999 FEW011
                      TEMPO 2107 8000
                      PROB40 TEMPO 0005 4000 BR BKN005
                      BECMG 0912 06005KT=
200806272300 LMML 272300Z 080606 32010KT 9999 FEW012
                      PROB30 TEMPO 2106 5000 BR BKN005=
200806271700 TAF LMML 271700Z 280024 30008KT 9999 FEW012
                      TEMPO 0024 CAVOK
                      PROB30 TEMPO 0006 8000=
200806271100 TAF LMML 271100Z 271818 30008KT CAVOK
                      TEMPO 1818 FEW012
                      PROB30 TEMPO 0006 8000=
200806270500 TAF LMML 270500Z 271212 30010KT CAVOK
                      BECMG 1821 9999 FEW006
                      PROB30 TEMPO 0005 6000 BKN005
                      BECMG 0609 CAVOK=
200806262300 TAF LMML 262300Z 270606 30010KT CAVOK
                      PROB 30
                      TEMPO 0005 6000 SCT004=
200806261700 TAF LMML 261700Z 270024 30008KT CAVOK
                      PROB40 TEMPO 0006 8000
                      PROB30 TEMPO 0005 5000 BR SCT005=
200806261100 TAF LMML 261100Z 261818 31010KT CAVOK
                      PROB40 TEMPO 1806 8000 SKC
                      PROB30 TEMPO 2306 6000 BKN007=
200806260500 TAF LMML 260500Z 261212 32010KT CAVOK
                      BECMG 0912 31018KT=
200806252300 TAF LMML 252300Z 260606 31010KT CAVOK
                      BECMG 0306 31015KT=
200806251700 TAF LMML 251700Z 260024 31008KT CAVOK
                      PROB30 TEMPO 0005 7000 FEW004
                      PROB30 TEMPO 2124 8000 SCT004=
200806251100 TAF LMML 251100Z 251818 32005KT CAVOK
                      PROB30 TEMPO 0005 7000 SCT004=
200806250500 TAF LMML 250500Z 251212 31010KT CAVOK
                      PROB30 TEMPO 0105 7000 SKC=
200806242300 TAF LMML 242300Z 250606 31010KT CAVOK
                      PROB30 TEMPO 0105 7000 SKC=
200806241700 TAF LMML 241700Z 250024 VRB03KT CAVOK
                      BECMG 1013 31013KT=
200806241100 TAF LMML 241100Z 241818 VRB03KT CAVOK
                      BECMG 1013 31013KT=
200806240500 TAF LMML 240500Z 241212 33008KT CAVOK=
200806232300 TAF LMML 232300Z 240606 32006KT CAVOK
                      PROB30 TEMPO 0105 7000 SKC=
200806231700 TAF LMML 231700Z 240024 33005KT CAVOK
                      PROB30 TEMPO 0105 7000 SKC=
200806231100 TAF LMML 231100Z 231818 33004KT CAVOK
                      PROB30 TEMPO 0105 7000 SKC=
200806230500 TAF LMML 230500Z 231212 30006KT CAVOK
                      PROB30 TEMPO 0005 7000 NSC=
200806222300 TAF LMML 222300Z 230606 30005KT CAVOK=
200806221700 TAF LMML 221700Z 230024 VRB03KT CAVOK=
200806221100 TAF LMML 221100Z 221818 30005KT CAVOK=
200806220500 TAF LMML 220500Z 221212 08005KT CAVOK=
200806212300 TAF LMML 212300Z 220606 08005KT CAVOK=
200806211700 TAF LMML 211700Z 220024 VRB03KT CAVOK
                      PROB30 TEMPO 0004 7000 NSC
                      PROB30 TEMPO 2124 8000 FEW005=
200806211100 TAF LMML 211100Z 211818 VRB03KT CAVOK
                      PROB30 TEMPO 0004 7000 NSC=
200806210500 TAF LMML 210500Z 211212 VRB03KT CAVOK=
200806202300 TAF LMML 202300Z 210606 33005KT CAVOK=
200806201700 TAF LMML 201700Z 210024 VRB03KT CAVOK
                      PROB30 TEMPO 0006 8000 FEW030=
200806201100 TAF LMML 201100Z 201818 VRB03KT CAVOK
                      PROB30 TEMPO 0006 9000 FEW040=
200806200500 TAF LMML 200500Z 201212 33005KT CAVOK
                      PROB30 TEMPO 2304 8000=
200806192300 TAF LMML 192300Z 200606 34008KT CAVOK
                      PROB30 TEMPO 2304 8000 SCT008=
200806191700 TAF LMML 191700Z 200024 34005KT CAVOK
                      PROB30 TEMPO 0005 8000=
200806191100 TAF LMML 191100Z 191818 03008KT CAVOK
                      TEMPO 2305 8000=
200806190500 TAF LMML 190500Z 191212 02010KT CAVOK
                      BECMG 1518 32005KT 9999 FEW012=
200806182300 LMML NIL=
200806181700 TAF LMML 181700Z 190024 31010KT 9999 FEW015
                      PROB30 TEMPO 0006 7000 BKN007=
200806181100 TAF LMML 181100Z 181818 20008KT CAVOK
                      BECMG 2124 33010KT 9999 FEW015
                      PROB30 TEMPO 0106 BKN009=
200806180500 TAF LMML 180500Z 181212 20006KT CAVOK
                      BECMG 1518 290 10KT PRON30
                      TEMPO 1806 FEW012
                      PROB30 TEMPO 0006 8000 SCT008=
200806172300 TAF LMML 172300Z 180606 16010KT CAVOK
                      BECMG 1518 30015KT=
200806171700 TAF LMML 171700Z 180024 15014KT CAVOK
                      BECMG 1518 29009KT=
200806171100 TAF LMML 171100Z 171818 14015G25KT CAVOK
                      BECMG 0306 16008KT
                      BECMG 1316 31011KT=
200806170500 TAF LMML 170500Z 171212 16013KT CAVOK=
200806162300 TAF LMML 162300Z 170606 16010KT CAVOK=
200806161700 TAF LMML 161700Z 170024 15005KT CAVOK
                      BECMG 1013 15015KT
                      PROB30 TEMPO 0306 8000 FEW008=
200806161100 TAF LMML 161100Z 161818 15008KT CAVOK
                      PROB30 TEMPO 0306 9000 FEW012=
200806160500 TAF LMML 160500Z 161212 15011KT CAVOK
                      PROB30 TEMPO 0005 9000 SCT008=
200806152300 TAF LMML 152300Z 160606 17008KT CAVOK
                      BECMG 2124 16015G25KT
                      PROB30 TEMPO 0006 8000 SCT009=
200806151700 TAF LMML 151700Z 160024 16010KT CAVOK=
200806151100 TAF LMML 151100Z 151818 27006KT CAVOK
                      BECMG 1215 15010KT=
200806150500 TAF LMML 150500Z 151212 29013KT CAVOK
                      BECMG 1518 23008KT
                      BECMG 2124 9999 SCT006=
200806142300 TAF LMML 142300Z 150606 30013KT 9999 FEW012
                      BECMG 1316 24007KT
                      PROB30 TEMPO 2306 6000 BKN005=
200806141700 TAF LMML 141700Z 150024 31015KT CAVOK
                      PROB30 TEMPO 0306 FEW015
                      BECMG 1821 22010KT=
200806141100 TAF LMML 141100Z 141818 31015KT CAVOK
                      PROB30 TEMPO 0305 FEW015=
200806140500 TAF LMML 140500Z 141212 31015KT CAVOK
                      PROB30 TEMPO 0306 FEW015=
200806132300 TAF LMML 132300Z 140606 30014KT CAVOK
                      PROB30 TEMPO 0612 FEW020=
200806131700 TAF LMML 131700Z 140024 29012KT 9999 SCT010
                      PROB30 TEMPO 0915 30015G25KT=
200806131100 TAF LMML 131100Z 131818 28012KT 9999 FEW015
                      PROB30 TEMPO 2106 8000 BKN010=
200806130500 TAF LMML 130500Z 131212 30016KT 9999 SCT018=
200806122300 TAF LMML 122300Z 130606 30015KT 9999 FEW015=
200806121700 LMML 121700Z 120034 30012KT 9999 FEW015
                      BECMG 1518 30015G25KT=
200806121100 TAF LMML 121100Z 121818 31012KT 9999 FEW015
                      BECMG 0306 30015G25KT=
200806120500 TAF LMML 120500Z 121212 30013KT 9999 FEW018=
200806112300 TAF LMML 112300Z 120606 VRB03KT 9999 FEW015
                      PROB30 TEMPO 1806 8000 SCT008=
200806111700 TAF LMML 111700Z 120024 VRB03KT 9999 SCT008
                      TEMPO 0007 7000 BKN005
                      PROB40 TEMPO 0006 3000 BR BKN003
                      BECMG 1316 30010KT=
200806111100 TAF LMML 111100Z 111818 13005KT 9999 SCT008
                      TEMPO 1807 9000 BKN005
                      PROB40 TEMO 2006 3000 BR BKN003=
200806110500 TAF LMML 110500Z 111212 09008KT CAVOK
                      BECMG 1820 9999 BKN008
                      PROB40 TEMPO 2106 6000 BKN005
                      BECMG 0507 FEW012=
200806102300 TAF LMML 102300Z 110606 07010KT 6000 BKN005
                      BECMG 0609 9999 FEW012
                      BECMG 1820 BKN007
                      TEMPO 2106 6000 BKN005=
200806101700 TAF LMML 101700Z 110024 03004KT 8000 SCT008
                      PROB40 TEMPO 0006 5000 BKN005
                      BECMG 0609 9999 FEW012=
200806101100 TAF LMML 101100Z 101818 08006KT 9000 SCT008 SCT012
                      PROB40 TEMPO 2106 5000 BKN005
                      BECMG 0609 9999 SCT012=
200806100500 TAF LMML 100500Z 101212 06012KT CAVOK
                      BECMG 1518 9999 SCT011
                      TEMPO 2006 7000 BKN007
                      PROB30 TEMPO 0206 5000 BR BKN005=
200806092300 TAF LMML 092300Z 100606 07012KT 9999 FEW010
                      BECMG 0608 CAVOK
                      BECMG 1518 9999 SCT010
                      PROB30 TEMPO 0006 5000 BKN005=
200806091700 TAF LMML 091700Z 100024 06010KT 9999 FEW010
                      PROB30 TEMPO 0006 8000 BKN008=
200806091100 TAF LMML 091100Z 091818 09010KT CAVOK
                      PROB30 TEMPO 2106 6000 BKN008=
200806090500 TAF LMML 090500Z 091212 36005KT CAVOK
                      PROB40 TEMPO 2206 6000 FEW008=
200806082300 TAF LMML 082300Z 090606 32005KT CAVOK
                      TEMPO 0606 FEW020
                      BECMG 0306 09010KT=
200806081700 TAF LMML 081700Z 090024 31006KT 9999 FEW018
                      BECMG 0609 CAVOK
                      PROB30 TEMPO 1824 SCT012=
200806081100 TAF LMML 081100Z 081818 31005KT 9999 FEW015
                      PROB30 TEMPO 0006 8000 BKN012=
200806080500 TAF LMML 080500Z 081212 31010KT 9999 FEW015 BKN070
                      PROB30 TEMPO 1520 7000 TSRA BKN050CB
                      BECMG 0609 CAVOK=
200806072300 TAF LMML 072300Z 080606 30010KT CAVOK
                      BECMG 1114 FEW020 BKN070=
200806071700 TAF LMML 071700Z 080024 30014KT 9999 FEW020=
200806071100 TAF LMML 071100Z 071818 30015KT 9999 FEW020=
200806070500 TAF LMML 070500Z 071212 29015G25KT 9999 FEW020
                      BECMG 1720 28014KT
                      PROB30 TEMPO 1806 BKN013=
200806062300 TAF LMML 062300Z 070606 29009KT 9999 FEW015 SCT100
                      BECMG 0912 29015G25KT
                      PROB30 TEMPO 1706 BKN011
                      BECMG 2124 28014KT=
200806061700 TAF LMML 061700Z 070024 27006KT 9999 FEW011 BKN100
                      BECMG 0912 31015G25KT CAVOK
                      BECMG 1518 31022KT=
200806061100 TAF LMML 061100Z 061818 28006KT 9999 FEW010 BKN100
                      BECMG 0407 31015KT CAVOK=
200806060500 TAF LMML 060500Z 061212 28008KT CAVOK
                      BECMG 1821 FEW010 BKN100=
200806052300 TAF LMML 052300Z 060606 27008KT CAVOK
                      PROB30 TEMPO 2206 8000 SCT007=
200806051700 TAF LMML 051700Z 060024 28006KT 9999 FEW011 SCT100
                      TEMPO 0006 9000 BKN008
                      PROB30 TEMPO 0008 8000 TSRA BKN070CB
                      BECMG 0912 CAVOK
                      BECMG 1720 9999 SCT040 BKN080=
200806051100 TAF LMML 051100Z 051818 28008KT 9999 FEW012
                      PROB30 TEMPO 2105 9000 BKN008
                      BECMG 0912 CAVOK=
200806050500 TAF LMML 050500Z 051212 29010KT 9999 FEW015 SCT040 BKN080
                      PROB30 TEMPO 1216 8000 TSRA SCT008 BKN060CB=
200806042300 TAF LMML 042300Z 050606 29010KT 9999 FEW015 FEW040
                      PROB30 TEMPO 0618 8000 TSRA SCT008 SCT060CB=
200806041700 TAF LMML 041700Z 050024 27010KT 9999 SCT012
                      PROB30 TEMPO 0006 8000 BKN007
                      PROB30 TEMPO 0308 8000 TSRA BKN060CB=
200806041100 TAF LMML 041100Z 041818 28012KT 9999 FEW012
                      TEMPO 1806 BKN008
                      PROB30 TEMPO 0206 8000 RA BKN005=
200806040500 TAF LMML 040500Z 041212 31015G25KT 9999 FEW015
                      BECMG 2124 31015KT
                      PROB30 TEMPO 2206 8000 BKN008=
200806032300 TAF LMML 032300Z 040606 31015G25KT 9999 FEW015
                      PROB30 TEMPO 2206 8000 BKN008=
200806031700 TAF LMML 031700Z 040024 29010KT 6000 BKN005
                      BECMG 0609 28018KT FEW018=
200806031100 TAF LMML 031100Z 031818 29015KT 9999 SCT010
                      BECMG 0609 9999 FEW015=
200806030500 TAF LMML 030500Z 031212 30017G27KT 9999 SCT020
                      BECMG 1720 28014KT
                      PROB30 TEMPO 0005 8000 BKN009
                      BECMG 0811 28015G25KT=
200806022300 TAF LMML 022300Z 030606 30011KT 9999 SCT015
                      BECMG 0710 31017G27KT
                      BECMG 0003 29013KT=
200806021730 LMML 021730Z 030024 33015KT 9999 FEW010
                      PROB30 TEMPO 0007 8000 BKN007
                      BECMG 1518 30015G25KT=
200806021700 LMML NIL=
200806021100 TAF LMML 021100Z 021818 08010KT CAVOK
                      PROB30 TEMPO 2206 8000 SCT005
                      BECMG 0407 33015KT=
200806020500 TAF LMML 020500Z 021212 13015G25KT CAVOK
                      BECMG 0609 33015KT
                      PROB30 TEMPO 0006 8000 SCT005=
200806012300 TAF LMML 012300Z 020606 13015G25KT CAVOK
                      PROB30 TEMPO 2106 8000 SCT005=
200806011700 TAF LMML 011700Z 020024 11014KT CAVOK
                      BECMG 0609 10015G25KT
                      BECMG 1720 06010KT 9999 SCT013
                      PROB30 TEMPO 2024 8000 BKN008=
200806011100 TAF LMML 011100Z 011818 10013KT CAVOK
                      BECMG 2124 10015G25KT
                      PROB30 TEMPO 1418 9999 FEW015
                      BECMG 1518 09011KT=
200806010500 TAF LMML 010500Z 011212 09015KT CAVOK=
