##########################################################
# Query made at 01/18/2013 15:36:14 UTC
# Time interval: from 03/01/2011 00:00  to 03/31/2011 23:59  UTC
##########################################################

##########################################################
# LMML, Luqa (Malta)
# WMO index: 16597
# Latitude 35-51N. Longitude 014-29E. Altitude 91 m.
##########################################################

###################################
#  METAR/SPECI from LMML
###################################
201103312345 METAR LMML 312345Z 32005KT CAVOK 13/11 Q1019 NOSIG=
201103312330 METAR LMML NIL=
201103312315 METAR LMML 312315Z 33006KT CAVOK 13/11 Q1019 NOSIG=
201103312300 METAR LMML NIL=
201103312245 METAR LMML 312245Z 35006KT CAVOK 14/11 Q1019 NOSIG=
201103312230 METAR LMML NIL=
201103312215 METAR LMML 312215Z 36006KT CAVOK 14/12 Q1019 NOSIG=
201103312200 METAR LMML NIL=
201103312145 METAR LMML 312145Z 35004KT CAVOK 14/12 Q1019 NOSIG=
201103312130 METAR LMML NIL=
201103312115 METAR LMML 312115Z 34004KT CAVOK 14/12 Q1019 NOSIG=
201103312100 METAR LMML NIL=
201103312045 METAR LMML 312045Z 33003KT CAVOK 14/12 Q1019 NOSIG=
201103312030 METAR LMML NIL=
201103312015 METAR LMML 312015Z VRB02KT CAVOK 14/12 Q1019 NOSIG=
201103312000 METAR LMML NIL=
201103311945 METAR LMML 311945Z VRB02KT CAVOK 14/12 Q1019 NOSIG=
201103311930 METAR LMML NIL=
201103311915 METAR LMML 311915Z 30003KT CAVOK 14/12 Q1019 TEMPO 9000 SHRA=
201103311900 METAR LMML NIL=
201103311845 METAR LMML 311845Z 30004KT CAVOK 14/12 Q1019 TEMPO 9000 SHRA=
201103311830 METAR LMML NIL=
201103311815 METAR LMML 311815Z 29003KT 9999 FEW025 BKN080 15/12 Q1018
                        TEMPO 9000 SHRA=
201103311800 METAR LMML NIL=
201103311745 METAR LMML 311745Z 29005KT 9999 FEW025 BKN080 15/11 Q1018
                        NOSIG=
201103311730 METAR LMML NIL=
201103311715 METAR LMML 311715Z 30006KT 9999 FEW025 SCT080 15/10 Q1018
                        NOSIG=
201103311700 METAR LMML NIL=
201103311645 METAR LMML 311645Z 30008KT 270V330 9999 FEW027 SCT096 16/10
                        Q1018 NOSIG=
201103311630 METAR LMML NIL=
201103311615 METAR LMML 311615Z 32007KT 280V360 9999 FEW026 SCT250 16/11
                        Q1018 NOSIG RMK CB TOPS TO NNE=
201103311600 METAR LMML NIL=
201103311545 METAR LMML 311545Z 32008KT 290V010 9999 FEW034 SCT100 16/10
                        Q1018 NOSIG RMK CB TOPS TO NNE=
201103311530 METAR LMML NIL=
201103311515 METAR LMML 311515Z 32006KT 290V350 9999 FEW025 SCT096 17/10
                        Q1018 NOSIG=
201103311500 METAR LMML NIL=
201103311445 METAR LMML 311445Z 32007KT 290V350 9999 FEW031 17/10 Q1018
                        NOSIG=
201103311430 METAR LMML NIL=
201103311415 METAR LMML 311415Z 35005KT 310V030 9999 FEW031 17/09 Q1018
                        NOSIG=
201103311400 METAR LMML NIL=
201103311345 METAR LMML 311345Z 01005KT 340V060 9999 FEW031 18/10 Q1018
                        NOSIG=
201103311330 METAR LMML NIL=
201103311315 METAR LMML 311315Z 36006KT 330V040 9999 FEW026 18/10 Q1018
                        NOSIG=
201103311245 METAR LMML 311245Z 01007KT 320V050 9999 FEW025 18/11 Q1018
                        NOSIG=
201103311230 METAR LMML NIL=
201103311215 METAR LMML 311215Z 01008KT 340V040 9999 FEW023 18/11 Q1018
                        NOSIG=
201103311145 METAR LMML 311145Z 01008KT 340V050 9999 FEW022 18/11 Q1018
                        NOSIG=
201103311130 METAR LMML NIL=
201103311115 METAR LMML 311115Z 01008KT 330V060 9999 FEW027 18/10 Q1018
                        NOSIG=
201103311100 METAR LMML NIL=
201103311045 METAR LMML 311045Z 34009KT 310V010 9999 FEW025 17/12 Q1018
                        NOSIG=
201103311030 METAR LMML NIL=
201103311015 METAR LMML 311015Z 34011KT 310V010 9999 FEW024 16/10 Q1019
                        NOSIG=
201103311000 METAR LMML NIL=
201103310945 METAR LMML 310945Z 34010KT 310V010 9999 FEW022 17/11 Q1018
                        NOSIG=
201103310930 METAR LMML NIL=
201103310915 METAR LMML 310915Z 34012KT 280V030 9999 FEW021 16/11 Q1018
                        NOSIG=
201103310900 METAR LMML NIL=
201103310845 METAR LMML 310845Z 35012KT 9999 FEW020 16/11 Q1018 NOSIG=
201103310830 METAR LMML NIL=
201103310815 METAR LMML 310815Z 33011KT 310V010 9999 FEW018 15/11 Q1018
                        NOSIG=
201103310800 METAR LMML NIL=
201103310745 METAR LMML 310745Z 34011KT 9999 FEW018 15/11 Q1018 NOSIG=
201103310730 METAR LMML NIL=
201103310715 METAR LMML 310715Z 34008KT 9999 FEW017 SCT250 15/11 Q1018
                        NOSIG=
201103310700 METAR LMML NIL=
201103310645 METAR LMML 310645Z 32007KT 290V350 9999 FEW012 SCT250 13/12
                        Q1018 NOSIG=
201103310630 METAR LMML NIL=
201103310615 METAR LMML 310615Z 32003KT 9999 FEW012 SCT250 13/13 Q1017
                        NOSIG=
201103310600 METAR LMML NIL=
201103310545 METAR LMML 310545Z 33004KT 9999 FEW015 BKN250 12/12 Q1017
                        NOSIG=
201103310530 METAR LMML NIL=
201103310515 METAR LMML 310515Z 33004KT 270V360 9999 FEW015 BKN250 12/11
                        Q1017 NOSIG=
201103310500 METAR LMML NIL=
201103310445 METAR LMML 310445Z 34004KT 9999 FEW011 BKN250 12/12 Q1016
                        NOSIG=
201103310430 METAR LMML NIL=
201103310415 METAR LMML 310415Z 33003KT 9999 FEW012 SCT120 12/12 Q1016
                        TEMPO 8000 RA=
201103310400 METAR LMML NIL=
201103310345 METAR LMML 310345Z 33003KT 9999 FEW012 BKN110 12/12 Q1016
                        TEMPO 8000 RA=
201103310330 METAR LMML NIL=
201103310315 METAR LMML 310315Z 33003KT 9999 FEW012 BKN070 12/12 Q1016
                        TEMPO 8000 RA=
201103310300 METAR LMML NIL=
201103310245 METAR LMML 310245Z VRB02KT 9999 FEW009 SCT070 BKN250 12/12
                        Q1016 TEMPO 8000 RA=
201103310230 METAR LMML NIL=
201103310215 METAR LMML 310215Z 36003KT 9999 FEW014 BKN070 13/13 Q1016
                        TEMPO 8000 RA=
201103310200 METAR LMML NIL=
201103310145 METAR LMML 310145Z VRB01KT 9999 FEW014 BKN070 13/13 Q1016
                        TEMPO 8000 RA=
201103310130 METAR LMML NIL=
201103310115 METAR LMML 310115Z VRB02KT 9999 FEW014 BKN070 13/13 Q1016
                        TEMPO 8000 RA=
201103310100 METAR LMML NIL=
201103310045 METAR LMML 310045Z 28003KT 9999 FEW014 BKN080 13/13 Q1017
                        TEMPO 8000 RA=
201103310030 METAR LMML NIL=
201103310015 METAR LMML 310015Z 26003KT 9999 FEW025 BKN080 13/13 Q1017
                        RERA TEMPO 8000 RA=
201103310000 METAR LMML NIL=
201103302345 METAR LMML 302345Z 28004KT 9999 FEW019 BKN080 13/13 Q1017
                        RERA TEMPO 8000 RA=
201103302330 METAR LMML NIL=
201103302315 METAR LMML 302315Z 29006KT 9999 -RA FEW034 BKN080 BKN250
                        13/12 Q1017 TEMPO 8000 RA=
201103302300 METAR LMML NIL=
201103302245 METAR LMML 302245Z 28004KT CAVOK 12/12 Q1017 NOSIG=
201103302230 METAR LMML NIL=
201103302215 METAR LMML 302215Z 29005KT CAVOK 12/11 Q1018 NOSIG=
201103302200 METAR LMML NIL=
201103302145 METAR LMML 302145Z 28003KT 9999 FEW014 BKN090 BKN250 12/11
                        Q1018 NOSIG=
201103302130 METAR LMML NIL=
201103302115 METAR LMML 302115Z 29004KT 9999 FEW014 SCT090 BKN250 12/11
                        Q1018 NOSIG=
201103302100 METAR LMML NIL=
201103302045 METAR LMML 302045Z 29004KT 9999 FEW014 BKN250 12/11 Q1018
                        NOSIG=
201103302030 METAR LMML NIL=
201103302015 METAR LMML 302015Z 31003KT 9999 FEW014 BKN250 13/11 Q1018
                        NOSIG=
201103302000 METAR LMML NIL=
201103301945 METAR LMML 301945Z 34003KT 9999 FEW014 BKN250 13/11 Q1018
                        NOSIG=
201103301930 METAR LMML NIL=
201103301915 METAR LMML 301915Z 31004KT 9999 FEW014 BKN250 13/11 Q1018
                        NOSIG=
201103301900 METAR LMML NIL=
201103301845 METAR LMML 301845Z 32005KT 9999 FEW015 BKN250 13/11 Q1017
                        NOSIG=
201103301830 METAR LMML NIL=
201103301815 METAR LMML 301815Z 33007KT 9999 FEW015 BKN250 13/11 Q1017
                        TEMPO 8000 SHRA=
201103301800 METAR LMML NIL=
201103301745 METAR LMML 301745Z 33007KT 9999 FEW016 BKN250 13/10 Q1017
                        TEMPO 8000 SHRA=
201103301730 METAR LMML NIL=
201103301715 METAR LMML 301715Z 33006KT 9999 FEW016 BKN250 14/11 Q1017
                        TEMPO 8000 SHRA=
201103301700 METAR LMML NIL=
201103301645 METAR LMML 301645Z 33007KT 9999 FEW018 BKN250 14/11 Q1017
                        TEMPO 8000 SHRA=
201103301630 METAR LMML NIL=
201103301615 METAR LMML 301615Z 33007KT 9999 FEW025 BKN250 14/10 Q1016
                        TEMPO 8000 SHRA=
201103301600 METAR LMML NIL=
201103301545 METAR LMML 301545Z 32006KT 9999 FEW023 BKN250 16/10 Q1016
                        TEMPO 8000 SHRA=
201103301530 METAR LMML NIL=
201103301515 METAR LMML 301515Z 34004KT 290V010 9999 SCT020 BKN250 16/11
                        Q1016 TEMPO 8000 SHRA=
201103301500 METAR LMML NIL=
201103301445 METAR LMML 301445Z 33005KT 300V010 9999 SCT020 SCT045 BKN250
                        15/11 Q1016 TEMPO 8000 SHRA=
201103301430 METAR LMML NIL=
201103301415 METAR LMML 301415Z 01003KT 9999 BKN021 BKN250 15/11 Q1016
                        TEMPO 8000 SHRA=
201103301400 METAR LMML NIL=
201103301345 METAR LMML 301345Z 03005KT 350V070 9999 BKN025 BKN250 16/11
                        Q1016 TEMPO 8000 SHRA=
201103301330 METAR LMML NIL=
201103301315 METAR LMML 301315Z 04006KT 360V070 9999 BKN021 BKN090 15/11
                        Q1016 TEMPO 8000 SHRA=
201103301300 METAR LMML NIL=
201103301245 METAR LMML 301245Z 01004KT 280V060 9999 BKN020 BKN250 15/11
                        Q1017 TEMPO 8000 SHRA=
201103301230 METAR LMML NIL=
201103301215 METAR LMML 301215Z 28005KT 210V070 9999 SCT025 BKN250 15/11
                        Q1017 TEMPO 8000 SHRA=
201103301200 METAR LMML NIL=
201103301145 METAR LMML 301145Z VRB02KT 9999 SCT023 BKN250 16/11 Q1017
                        NOSIG=
201103301130 METAR LMML NIL=
201103301115 METAR LMML 301115Z VRB02KT 9999 SCT023 BKN250 17/11 Q1017
                        NOSIG=
201103301100 METAR LMML NIL=
201103301045 METAR LMML 301045Z 04005KT 350V130 9999 FEW023 BKN250 18/12
                        Q1017 NOSIG=
201103301030 METAR LMML NIL=
201103301015 METAR LMML 301015Z 04005KT 350V090 9999 FEW023 SCT250 18/12
                        Q1018 NOSIG=
201103300945 METAR LMML 300945Z 04003KT 9999 FEW023 SCT250 17/11 Q1018
                        NOSIG=
201103300930 METAR LMML NIL=
201103300915 METAR LMML 300915Z 07005KT 020V130 9999 SCT023 SCT250 17/11
                        Q1018 NOSIG=
201103300845 METAR LMML 300845Z 02005KT 310V080 9999 SCT021 SCT250 17/11
                        Q1018 NOSIG=
201103300830 METAR LMML NIL=
201103300815 METAR LMML 300815Z 02004KT 320V090 9999 SCT021 BKN250 17/12
                        Q1018 NOSIG=
201103300800 METAR LMML NIL=
201103300745 METAR LMML 300745Z 36006KT 330V030 9999 SCT020 BKN250 16/11
                        Q1017 NOSIG=
201103300730 METAR LMML NIL=
201103300715 METAR LMML 300715Z 36007KT 9999 FEW018 BKN250 15/12 Q1017
                        NOSIG=
201103300700 METAR LMML NIL=
201103300645 METAR LMML 300645Z 35003KT 9999 FEW016 BKN250 15/12 Q1017
                        NOSIG=
201103300630 METAR LMML NIL=
201103300615 METAR LMML 300615Z 32003KT 9999 FEW020 SCT060 13/12 Q1017
                        NOSIG=
201103300600 METAR LMML NIL=
201103300545 METAR LMML 300545Z 32004KT 9999 FEW020 BKN250 12/11 Q1017
                        NOSIG=
201103300530 METAR LMML NIL=
201103300515 METAR LMML 300515Z 33003KT 9999 FEW020 BKN250 11/11 Q1016
                        NOSIG=
201103300445 METAR LMML 300445Z 32005KT 9999 FEW020 BKN250 11/11 Q1016
                        NOSIG=
201103300430 METAR LMML NIL=
201103300415 METAR LMML 300415Z 32004KT 9999 FEW020 BKN250 11/11 Q1016
                        NOSIG=
201103300400 METAR LMML NIL=
201103300345 METAR LMML 300345Z 33004KT CAVOK 11/11 Q1016 NOSIG=
201103300315 METAR LMML 300315Z 32005KT CAVOK 11/11 Q1015 NOSIG=
201103300300 METAR LMML NIL=
201103300245 METAR LMML 300245Z 31007KT CAVOK 12/11 Q1015 NOSIG=
201103300230 METAR LMML NIL=
201103300215 METAR LMML 300215Z 32006KT CAVOK 11/10 Q1016 NOSIG=
201103300200 METAR LMML NIL=
201103300145 METAR LMML 300145Z 30006KT CAVOK 12/11 Q1016 NOSIG=
201103300130 METAR LMML NIL=
201103300115 METAR LMML 300115Z 29005KT 9999 FEW020 12/11 Q1016 NOSIG=
201103300100 METAR LMML NIL=
201103300045 METAR LMML 300045Z 30005KT 9999 FEW020 12/11 Q1016 NOSIG=
201103300030 METAR LMML NIL=
201103300015 METAR LMML 300015Z 30004KT 9999 FEW020 12/11 Q1016 NOSIG=
201103300000 METAR LMML NIL=
201103292345 METAR LMML 292345Z 29005KT 260V320 9999 FEW020 12/11 Q1017
                        NOSIG=
201103292330 METAR LMML NIL=
201103292315 METAR LMML 292315Z 29005KT 9999 FEW020 12/11 Q1017 NOSIG=
201103292300 METAR LMML NIL=
201103292245 METAR LMML 292245Z 30006KT CAVOK 12/11 Q1017 NOSIG=
201103292230 METAR LMML NIL=
201103292215 METAR LMML 292215Z 30005KT CAVOK 12/11 Q1017 NOSIG=
201103292200 METAR LMML NIL=
201103292145 METAR LMML 292145Z 30005KT CAVOK 12/11 Q1017 NOSIG=
201103292130 METAR LMML NIL=
201103292115 METAR LMML 292115Z 30006KT CAVOK 12/11 Q1018 NOSIG=
201103292045 METAR LMML 292045Z 29006KT 270V330 CAVOK 12/11 Q1018 NOSIG=
201103292030 METAR LMML NIL=
201103292015 METAR LMML 292015Z 30007KT 9999 FEW020 12/11 Q1018 NOSIG=
201103292000 METAR LMML NIL=
201103291945 METAR LMML 291945Z 30009KT 9999 FEW020 13/11 Q1017 NOSIG=
201103291930 METAR LMML NIL=
201103291915 METAR LMML 291915Z 32008KT 9999 FEW020 12/10 Q1017 NOSIG=
201103291900 METAR LMML NIL=
201103291845 METAR LMML 291845Z 31008KT 9999 FEW020 13/10 Q1017 NOSIG=
201103291830 METAR LMML NIL=
201103291815 METAR LMML 291815Z 30008KT 270V330 9999 FEW020 13/10 Q1017
                        NOSIG=
201103291800 METAR LMML NIL=
201103291745 METAR LMML 291745Z 30009KT 9999 FEW020 13/11 Q1016 NOSIG=
201103291730 METAR LMML NIL=
201103291715 METAR LMML 291715Z 30008KT 9999 FEW020 14/11 Q1016 NOSIG=
201103291700 METAR LMML NIL=
201103291645 METAR LMML 291645Z 30010KT 270V340 9999 FEW020 15/11 Q1016
                        NOSIG=
201103291615 METAR LMML 291615Z 29012KT 270V330 9999 FEW020 15/10 Q1016
                        NOSIG=
201103291600 METAR LMML NIL=
201103291545 METAR LMML 291545Z 30011KT 260V330 9999 FEW022 16/11 Q1016
                        NOSIG=
201103291530 METAR LMML NIL=
201103291515 METAR LMML 291515Z 31012KT 9999 FEW022 16/11 Q1016 NOSIG=
201103291500 METAR LMML NIL=
201103291445 METAR LMML 291445Z 31012KT 260V340 9999 FEW021 17/11 Q1016
                        NOSIG=
201103291430 METAR LMML NIL=
201103291415 METAR LMML 291415Z 30011KT 260V340 9999 FEW022 SCT250 16/11
                        Q1016 NOSIG=
201103291345 METAR LMML 291345Z 30011KT 260V330 9999 FEW022 BKN250 17/11
                        Q1016 NOSIG=
201103291330 METAR LMML NIL=
201103291315 METAR LMML 291315Z 29011KT 260V320 9999 FEW022 BKN250 17/11
                        Q1017 NOSIG=
201103291300 METAR LMML NIL=
201103291245 METAR LMML 291245Z 31007KT 260V340 9999 FEW022 BKN250 17/12
                        Q1017 NOSIG=
201103291230 METAR LMML NIL=
201103291215 METAR LMML 291215Z 29009KT 260V330 9999 FEW022 BKN250 17/11
                        Q1017 NOSIG=
201103291200 METAR LMML NIL=
201103291145 METAR LMML 291145Z 33009KT 310V010 9999 FEW022 BKN250 16/11
                        Q1017 NOSIG=
201103291130 METAR LMML NIL=
201103291115 METAR LMML 291115Z 34009KT 9999 FEW025 BKN250 17/12 Q1018
                        NOSIG=
201103291100 METAR LMML NIL=
201103291045 METAR LMML 291045Z 34009KT 290V020 9999 FEW023 BKN250 17/12
                        Q1018 NOSIG=
201103291030 METAR LMML NIL=
201103291015 METAR LMML 291015Z 33007KT 290V010 9999 BKN022 16/12 Q1018
                        NOSIG=
201103291000 METAR LMML NIL=
201103290945 METAR LMML 290945Z 35010KT 9999 FEW022 BKN250 18/13 Q1018
                        NOSIG=
201103290930 METAR LMML NIL=
201103290915 METAR LMML 290915Z 33010KT 290V360 9999 FEW022 BKN250 17/11
                        Q1018 NOSIG=
201103290900 METAR LMML NIL=
201103290845 METAR LMML 290845Z 33008KT 280V010 9999 FEW020 SCT250 17/12
                        Q1018 NOSIG=
201103290830 METAR LMML NIL=
201103290815 METAR LMML 290815Z 33007KT 9999 FEW018 SCT250 16/12 Q1018
                        NOSIG=
201103290800 METAR LMML NIL=
201103290745 METAR LMML 290745Z 33010KT 9999 FEW015 SCT250 16/12 Q1017
                        NOSIG=
201103290730 METAR LMML NIL=
201103290715 METAR LMML 290715Z 32009KT 9999 FEW013 15/12 Q1017 NOSIG=
201103290700 METAR LMML NIL=
201103290645 METAR LMML 290645Z 34008KT 300V360 9999 FEW011 SCT110 15/13
                        Q1017 NOSIG=
201103290630 METAR LMML NIL=
201103290615 METAR LMML 290615Z 33005KT 290V360 9999 FEW020 BKN110 14/13
                        Q1017 NOSIG=
201103290600 METAR LMML NIL=
201103290545 METAR LMML 290545Z 32005KT 9999 FEW020 BKN110 13/12 Q1017
                        NOSIG=
201103290530 METAR LMML NIL=
201103290515 METAR LMML 290515Z 32007KT CAVOK 13/12 Q1017 NOSIG=
201103290500 METAR LMML NIL=
201103290445 METAR LMML 290445Z 30007KT CAVOK 13/11 Q1016 NOSIG=
201103290430 METAR LMML NIL=
201103290415 METAR LMML 290415Z 30006KT CAVOK 13/11 Q1016 NOSIG=
201103290400 METAR LMML NIL=
201103290345 METAR LMML 290345Z 29005KT CAVOK 13/12 Q1016 NOSIG=
201103290330 METAR LMML NIL=
201103290315 METAR LMML 290315Z 29004KT CAVOK 13/12 Q1016 NOSIG=
201103290300 METAR LMML NIL=
201103290245 METAR LMML 290245Z 29004KT CAVOK 13/10 Q1016 NOSIG=
201103290230 METAR LMML NIL=
201103290215 METAR LMML 290215Z 27004KT CAVOK 14/10 Q1016 NOSIG=
201103290200 METAR LMML NIL=
201103290145 METAR LMML 290145Z 27003KT CAVOK 14/12 Q1016 NOSIG=
201103290130 METAR LMML NIL=
201103290115 METAR LMML 290115Z VRB02KT CAVOK 14/13 Q1017 NOSIG=
201103290100 METAR LMML NIL=
201103290045 METAR LMML 290045Z 33003KT CAVOK 14/13 Q1017 NOSIG=
201103290030 METAR LMML NIL=
201103290015 METAR LMML 290015Z 30003KT CAVOK 14/13 Q1017 NOSIG=
201103290000 METAR LMML NIL=
201103282345 METAR LMML 282345Z 30004KT CAVOK 14/14 Q1017 NOSIG=
201103282330 METAR LMML NIL=
201103282315 METAR LMML 282315Z 31004KT CAVOK 14/13 Q1017 NOSIG=
201103282300 METAR LMML NIL=
201103282245 METAR LMML 282245Z 32005KT CAVOK 14/13 Q1018 NOSIG=
201103282230 METAR LMML NIL=
201103282215 METAR LMML 282215Z 36004KT CAVOK 14/13 Q1017 NOSIG=
201103282200 METAR LMML NIL=
201103282145 METAR LMML 282145Z VRB02KT CAVOK 15/14 Q1018 NOSIG=
201103282130 METAR LMML NIL=
201103282115 METAR LMML 282115Z 34004KT 9999 RA FEW011 BKN100 15/14 Q1018
                        NOSIG=
201103282100 METAR LMML NIL=
201103282045 METAR LMML 282045Z 33005KT 300V360 9999 FEW011 BKN110 15/14
                        Q1018 NOSIG=
201103282030 METAR LMML NIL=
201103282015 METAR LMML 282015Z 32008KT 9999 SCT010 BKN100 15/14 Q1018
                        NOSIG=
201103282000 METAR LMML NIL=
201103281945 METAR LMML 281945Z 30008KT 260V340 9999 FEW020 BKN110 15/13
                        Q1018 NOSIG=
201103281930 METAR LMML NIL=
201103281915 METAR LMML 281915Z 28004KT 250V330 CAVOK 16/12 Q1017 BECMG
                        9999 FEW035 BKN100=
201103281900 METAR LMML NIL=
201103281845 METAR LMML 281845Z 30003KT CAVOK 15/13 Q1017 BECMG 9999 FEW035
                        BKN100=
201103281830 METAR LMML NIL=
201103281815 METAR LMML 281815Z 22004KT 190V270 CAVOK 16/13 Q1016 BECMG
                        9999 FEW035 SCT120=
201103281800 METAR LMML NIL=
201103281745 METAR LMML 281745Z 22004KT 170V330 CAVOK 15/13 Q1016 NOSIG=
201103281730 METAR LMML NIL=
201103281715 METAR LMML 281715Z 19004KT 150V240 CAVOK 16/13 Q1016 NOSIG=
201103281700 METAR LMML NIL=
201103281645 METAR LMML 281645Z 19007KT 160V240 CAVOK 16/13 Q1015 NOSIG=
201103281630 METAR LMML NIL=
201103281615 METAR LMML 281615Z 20007KT 160V240 CAVOK 17/13 Q1016 NOSIG=
201103281600 METAR LMML NIL=
201103281545 METAR LMML 281545Z 20006KT 160V250 CAVOK 17/13 Q1016 NOSIG=
201103281530 METAR LMML NIL=
201103281515 METAR LMML 281515Z 21008KT 180V250 CAVOK 18/13 Q1016 NOSIG=
201103281500 METAR LMML NIL=
201103281445 METAR LMML 281445Z 20010KT 170V240 CAVOK 18/12 Q1016 NOSIG=
201103281430 METAR LMML NIL=
201103281415 METAR LMML 281415Z 20010KT 160V260 CAVOK 19/12 Q1017 NOSIG=
201103281400 METAR LMML NIL=
201103281345 METAR LMML 281345Z 19010KT 160V240 CAVOK 19/11 Q1017 NOSIG=
201103281330 METAR LMML NIL=
201103281315 METAR LMML 281315Z 19010KT 160V230 CAVOK 19/12 Q1017 NOSIG=
201103281300 METAR LMML NIL=
201103281245 METAR LMML 281245Z 19010KT 160V230 CAVOK 19/12 Q1017 NOSIG=
201103281230 METAR LMML NIL=
201103281215 METAR LMML 281215Z 20010KT 170V230 CAVOK 19/12 Q1017 NOSIG=
201103281145 METAR LMML 281145Z 20009KT 160V260 CAVOK 19/12 Q1018 NOSIG=
201103281115 METAR LMML 281115Z 20010KT 160V240 CAVOK 19/12 Q1018 NOSIG=
201103281100 METAR LMML NIL=
201103281045 METAR LMML 281045Z 20010KT 160V230 9999 FEW025 19/12 Q1018
                        NOSIG=
201103281030 METAR LMML NIL=
201103281015 METAR LMML 281015Z 19009KT 160V220 9999 FEW025 19/13 Q1018
                        NOSIG=
201103281000 METAR LMML NIL=
201103280945 METAR LMML 280945Z 19009KT 160V230 CAVOK 18/13 Q1018 NOSIG=
201103280930 METAR LMML NIL=
201103280915 METAR LMML 280915Z 19009KT 160V240 CAVOK 18/13 Q1019 NOSIG=
201103280900 METAR LMML NIL=
201103280845 METAR LMML 280845Z 19008KT 160V220 CAVOK 18/13 Q1019 NOSIG=
201103280830 METAR LMML NIL=
201103280815 METAR LMML 280815Z 19009KT 160V220 CAVOK 17/13 Q1018 NOSIG=
201103280800 METAR LMML NIL=
201103280745 METAR LMML 280745Z 19006KT 150V230 CAVOK 17/13 Q1019 NOSIG=
201103280730 METAR LMML NIL=
201103280715 METAR LMML 280715Z 18004KT 120V210 CAVOK 17/13 Q1019 NOSIG=
201103280700 METAR LMML NIL=
201103280645 METAR LMML 280645Z 17006KT 140V200 CAVOK 16/12 Q1018 NOSIG=
201103280630 METAR LMML NIL=
201103280615 METAR LMML 280615Z 18004KT 130V230 CAVOK 15/13 Q1018 NOSIG=
201103280600 METAR LMML NIL=
201103280545 METAR LMML 280545Z 16004KT 130V200 CAVOK 13/13 Q1018 NOSIG=
201103280530 METAR LMML NIL=
201103280515 METAR LMML 280515Z 16003KT CAVOK 13/13 Q1018 NOSIG=
201103280500 METAR LMML NIL=
201103280445 METAR LMML 280445Z 17004KT 110V220 8000 NSC 13/13 Q1018 BECMG
                        CAVOK=
201103280415 METAR LMML 280415Z 16005KT 6000 NSC 13/13 Q1018 BECMG CAVOK=
201103280400 METAR LMML NIL=
201103280345 METAR LMML 280345Z 15003KT 0900 R13/0716V1497U FG FEW001
                        12/12 Q1018 BECMG 3000=
201103280334 SPECI LMML 280334Z 15003KT 0200 R13/0375N FG FEW001 12/12
                        Q1018 BECMG 3000=
201103280330 METAR LMML NIL=
201103280315 METAR LMML 280315Z 14003KT 0700 R13/1021VP1500U FG FEW001
                        12/12 Q1018 TEMPO 0500=
201103280300 METAR LMML NIL=
201103280245 METAR LMML 280245Z 15004KT 5000 BR NSC 13/13 Q1018 TEMPO
                        3000=
201103280230 METAR LMML NIL=
201103280215 METAR LMML 280215Z 16005KT 9000 NSC 13/13 Q1018 TEMPO 5000
                        BR=
201103280200 METAR LMML NIL=
201103280145 METAR LMML 280145Z 16006KT CAVOK 14/13 Q1018 NOSIG=
201103280130 METAR LMML NIL=
201103280115 METAR LMML 280115Z 16004KT CAVOK 14/10 Q1018 NOSIG=
201103280100 METAR LMML NIL=
201103280045 METAR LMML 280045Z 18005KT 9000 NSC 14/10 Q1019 TEMPO 5000
                        BR=
201103280030 METAR LMML NIL=
201103280015 METAR LMML 280015Z 17004KT 9000 NSC 13/12 Q1019 TEMPO 5000
                        BR=
201103280000 METAR LMML NIL=
201103272345 METAR LMML 272345Z VRB02KT 9000 NSC 12/12 Q1019 TEMPO 5000
                        BR=
201103272330 METAR LMML NIL=
201103272315 METAR LMML 272315Z VRB02KT CAVOK 14/13 Q1019 TEMPO 9000 NSC=
201103272300 METAR LMML NIL=
201103272245 METAR LMML 272245Z 17004KT CAVOK 14/13 Q1019 TEMPO 9000 NSC=
201103272230 METAR LMML NIL=
201103272215 METAR LMML 272215Z 18003KT CAVOK 14/13 Q1019 NOSIG=
201103272200 METAR LMML NIL=
201103272145 METAR LMML 272145Z 18004KT CAVOK 14/13 Q1019 NOSIG=
201103272130 METAR LMML NIL=
201103272115 METAR LMML 272115Z 17003KT CAVOK 14/12 Q1019 NOSIG=
201103272100 METAR LMML NIL=
201103272045 METAR LMML 272045Z 17004KT CAVOK 14/12 Q1019 NOSIG=
201103272030 METAR LMML NIL=
201103272015 METAR LMML 272015Z 17004KT CAVOK 14/12 Q1019 NOSIG=
201103272000 METAR LMML NIL=
201103271945 METAR LMML 271945Z 16004KT CAVOK 14/12 Q1019 NOSIG=
201103271930 METAR LMML NIL=
201103271915 METAR LMML 271915Z 17004KT CAVOK 15/13 Q1019 NOSIG=
201103271900 METAR LMML NIL=
201103271845 METAR LMML 271845Z 17004KT CAVOK 15/12 Q1019 NOSIG=
201103271830 METAR LMML NIL=
201103271815 METAR LMML 271815Z VRB02KT CAVOK 15/12 Q1019 NOSIG=
201103271800 METAR LMML NIL=
201103271745 METAR LMML 271745Z 15003KT CAVOK 15/12 Q1018 NOSIG=
201103271730 METAR LMML NIL=
201103271715 METAR LMML 271715Z 14004KT CAVOK 15/11 Q1018 NOSIG=
201103271645 METAR LMML 271645Z 13004KT CAVOK 16/11 Q1018 NOSIG=
201103271630 METAR LMML NIL=
201103271615 METAR LMML 271615Z 13004KT CAVOK 17/12 Q1018 NOSIG=
201103271600 METAR LMML NIL=
201103271545 METAR LMML 271545Z 12004KT 090V150 CAVOK 18/12 Q1018 NOSIG=
201103271530 METAR LMML NIL=
201103271515 METAR LMML 271515Z 14005KT 9999 FEW020 SCT250 19/13 Q1018
                        BECMG CAVOK=
201103271500 METAR LMML NIL=
201103271445 METAR LMML 271445Z 09003KT 9999 FEW020 SCT250 19/13 Q1018
                        BECMG CAVOK=
201103271430 METAR LMML NIL=
201103271415 METAR LMML 271415Z VRB02KT 9999 FEW020 SCT250 19/12 Q1018
                        NOSIG=
201103271400 METAR LMML NIL=
201103271345 METAR LMML 271345Z 19004KT 150V220 9999 FEW020 SCT250 19/13
                        Q1019 NOSIG=
201103271330 METAR LMML NIL=
201103271315 METAR LMML 271315Z 03005KT 350V060 9999 FEW020 SCT250 21/14
                        Q1019 NOSIG=
201103271300 METAR LMML NIL=
201103271245 METAR LMML 271245Z 01005KT 350V050 9999 FEW020 21/15 Q1019
                        NOSIG=
201103271230 METAR LMML NIL=
201103271215 METAR LMML 271215Z VRB01KT 9999 FEW020 20/12 Q1019 NOSIG=
201103271200 METAR LMML NIL=
201103271145 METAR LMML 271145Z VRB02KT 9999 FEW020 19/13 Q1020 NOSIG=
201103271115 METAR LMML 271115Z 21004KT 150V260 CAVOK 18/13 Q1020 NOSIG=
201103271100 METAR LMML NIL=
201103271045 METAR LMML 271045Z 17005KT 130V210 9999 FEW020 18/12 Q1020
                        NOSIG=
201103271030 METAR LMML NIL=
201103271015 METAR LMML 271015Z 16004KT 110V300 9999 FEW020 19/15 Q1020
                        NOSIG=
201103271000 METAR LMML NIL=
201103270945 METAR LMML 270945Z 07003KT CAVOK 19/14 Q1020 NOSIG=
201103270930 METAR LMML NIL=
201103270915 METAR LMML 270915Z VRB02KT CAVOK 18/12 Q1020 NOSIG=
201103270900 METAR LMML NIL=
201103270845 METAR LMML 270845Z VRB02KT CAVOK 18/13 Q1020 NOSIG=
201103270830 METAR LMML NIL=
201103270815 METAR LMML 270815Z VRB01KT 9999 FEW007 17/13 Q1020 NOSIG=
201103270800 METAR LMML NIL=
201103270745 METAR LMML 270745Z VRB01KT 9000 FEW005 16/14 Q1020 BECMG
                        9999=
201103270730 METAR LMML NIL=
201103270715 METAR LMML 270715Z VRB02KT 8000 FEW005 14/14 Q1020 NOSIG=
201103270700 METAR LMML NIL=
201103270645 METAR LMML 270645Z VRB01KT 9000 NSC 13/13 Q1019 BECMG CAVOK=
201103270630 METAR LMML NIL=
201103270615 METAR LMML 270615Z VRB02KT 9000 NSC 12/12 Q1019 BECMG CAVOK=
201103270600 METAR LMML NIL=
201103270545 METAR LMML 270545Z VRB02KT 9000 NSC 10/10 Q1019 BECMG CAVOK=
201103270515 METAR LMML 270515Z 30003KT 2500 MIFG NSC 10/09 Q1019 BECMG
                        3000 FEW011=
201103270500 METAR LMML NIL=
201103270445 METAR LMML 270445Z VRB01KT 2000 MIFG FEW001 09/09 Q1019 TEMPO
                        1000 BCFG=
201103270430 METAR LMML NIL=
201103270415 METAR LMML 270415Z VRB01KT 4000 BR FEW005 10/10 Q1019 TEMPO
                        1000 BCFG=
201103270400 METAR LMML NIL=
201103270345 METAR LMML 270345Z VRB01KT 4000 R13/0571VP1500N BR FEW005
                        10/10 Q1019 TEMPO 1000 BCFG=
201103270330 METAR LMML NIL=
201103270315 METAR LMML 270315Z VRB01KT 6000 MIFG NSC 11/10 Q1019 TEMPO
                        5000 BR=
201103270300 METAR LMML NIL=
201103270245 METAR LMML 270245Z VRB01KT 7000 MIFG FEW005 11/11 Q1019 TEMPO
                        5000 BR=
201103270230 METAR LMML NIL=
201103270215 METAR LMML 270215Z VRB02KT 7000 FEW005 10/10 Q1019 TEMPO
                        5000 BR=
201103270200 METAR LMML NIL=
201103270145 METAR LMML 270145Z VRB02KT 7000 FEW005 10/10 Q1019 TEMPO
                        5000 BR=
201103270130 METAR LMML NIL=
201103270115 METAR LMML 270115Z VRB01KT 7000 FEW006 11/11 Q1019 NOSIG=
201103270045 METAR LMML 270045Z VRB02KT 9000 FEW006 12/11 Q1019 NOSIG=
201103270030 METAR LMML NIL=
201103270015 METAR LMML 270015Z 31003KT 9000 FEW006 12/11 Q1020 NOSIG=
201103270000 METAR LMML NIL=
201103262345 METAR LMML 262345Z VRB01KT CAVOK 12/12 Q1019 NOSIG=
201103262330 METAR LMML NIL=
201103262315 METAR LMML 262315Z VRB02KT 9999 FEW006 SCT110 13/12 Q1019
                        NOSIG=
201103262300 METAR LMML NIL=
201103262245 METAR LMML 262245Z 17004KT CAVOK 13/13 Q1019 NOSIG=
201103262230 METAR LMML NIL=
201103262215 METAR LMML 262215Z 18003KT 9999 FEW013 SCT100 13/13 Q1020
                        TEMPO 8000 SHRA=
201103262200 METAR LMML NIL=
201103262145 METAR LMML 262145Z 17003KT 9999 FEW013 SCT120 13/13 Q1020
                        TEMPO 8000 SHRA=
201103262130 METAR LMML NIL=
201103262115 METAR LMML 262115Z 17003KT 9999 -SHRA FEW013 BKN110 14/13
                        Q1020 NOSIG=
201103262100 METAR LMML NIL=
201103262045 METAR LMML 262045Z 17003KT 9999 FEW013 BKN120 14/13 Q1020
                        NOSIG=
201103262030 METAR LMML NIL=
201103262015 METAR LMML 262015Z 16003KT 9999 FEW013 BKN120 14/13 Q1020
                        NOSIG=
201103262000 METAR LMML NIL=
201103261945 METAR LMML 261945Z 17003KT 9999 FEW013 BKN110 14/13 Q1020
                        NOSIG=
201103261930 METAR LMML NIL=
201103261915 METAR LMML 261915Z 16003KT 9999 FEW013 BKN120 14/12 Q1020
                        NOSIG=
201103261900 METAR LMML NIL=
201103261845 METAR LMML 261845Z 16004KT 9999 FEW013 BKN120 14/12 Q1019
                        NOSIG=
201103261830 METAR LMML NIL=
201103261815 METAR LMML 261815Z 16003KT 9999 FEW013 BKN120 14/12 Q1019
                        NOSIG=
201103261800 METAR LMML NIL=
201103261745 METAR LMML 261745Z 17004KT 150V210 9999 FEW011 BKN120 14/12
                        Q1019 NOSIG=
201103261730 METAR LMML NIL=
201103261715 METAR LMML 261715Z 18004KT 150V210 9999 FEW012 BKN120 14/13
                        Q1019 NOSIG=
201103261700 METAR LMML NIL=
201103261645 METAR LMML 261645Z 17004KT 140V210 9999 FEW012 BKN120 15/12
                        Q1019 NOSIG=
201103261630 METAR LMML NIL=
201103261615 METAR LMML 261615Z 19004KT 150V220 9999 SCT012 15/12 Q1019
                        TEMPO BKN013=
201103261545 METAR LMML 261545Z 18004KT 140V220 9999 FEW010 SCT013 15/13
                        Q1019 TEMPO BKN013=
201103261530 METAR LMML NIL=
201103261515 METAR LMML 261515Z 18006KT 150V230 9999 FEW010 SCT013 15/13
                        Q1019 TEMPO BKN013=
201103261500 METAR LMML NIL=
201103261445 METAR LMML 261445Z 19005KT 150V270 9999 FEW010 SCT014 16/13
                        Q1019 TEMPO BKN013=
201103261430 METAR LMML NIL=
201103261415 METAR LMML 261415Z 19007KT 160V230 9999 FEW010 SCT014 16/13
                        Q1019 TEMPO BKN013=
201103261400 METAR LMML NIL=
201103261345 METAR LMML 261345Z 17007KT 140V210 9999 SCT014 16/13 Q1019
                        TEMPO BKN013=
201103261330 METAR LMML NIL=
201103261315 METAR LMML 261315Z 19008KT 150V250 9999 FEW010 BKN013 16/13
                        Q1020 NOSIG=
201103261300 METAR LMML NIL=
201103261245 METAR LMML 261245Z 19007KT 150V240 9999 FEW010 BKN013 17/13
                        Q1020 NOSIG=
201103261230 METAR LMML NIL=
201103261215 METAR LMML 261215Z 19007KT 130V260 9999 FEW010 BKN015 17/14
                        Q1020 NOSIG=
201103261200 METAR LMML NIL=
201103261145 METAR LMML 261145Z 18006KT 120V240 9999 BKN013 16/13 Q1021
                        NOSIG=
201103261130 METAR LMML NIL=
201103261115 METAR LMML 261115Z 17008KT 140V220 9999 BKN014 16/13 Q1021
                        NOSIG=
201103261100 METAR LMML NIL=
201103261045 METAR LMML 261045Z 17005KT 130V230 9999 BKN014 15/12 Q1022
                        NOSIG=
201103261030 METAR LMML NIL=
201103261015 METAR LMML 261015Z 16007KT 130V190 9999 BKN014 16/13 Q1022
                        NOSIG=
201103261000 METAR LMML NIL=
201103260945 METAR LMML 260945Z 17006KT 120V230 9999 BKN016 16/13 Q1022
                        NOSIG=
201103260930 METAR LMML NIL=
201103260915 METAR LMML 260915Z 16006KT 130V200 9999 SCT016 SCT250 16/12
                        Q1022 NOSIG=
201103260900 METAR LMML NIL=
201103260845 METAR LMML 260845Z 18006KT 140V220 9999 SCT016 BKN250 15/12
                        Q1023 NOSIG=
201103260830 METAR LMML NIL=
201103260815 METAR LMML 260815Z 18005KT 140V230 9999 FEW016 BKN250 15/11
                        Q1023 NOSIG=
201103260800 METAR LMML NIL=
201103260745 METAR LMML 260745Z 18005KT 140V230 9999 FEW015 SCT120 BKN250
                        14/11 Q1023 NOSIG=
201103260730 METAR LMML NIL=
201103260715 METAR LMML 260715Z 19005KT 160V220 9999 FEW019 SCT030 BKN250
                        14/11 Q1023 NOSIG=
201103260700 METAR LMML NIL=
201103260645 METAR LMML 260645Z 18004KT 140V220 9999 FEW019 BKN250 14/12
                        Q1023 NOSIG=
201103260630 METAR LMML NIL=
201103260615 METAR LMML 260615Z VRB02KT 9999 SCT020 BKN250 13/11 Q1023
                        NOSIG=
201103260600 METAR LMML NIL=
201103260545 METAR LMML 260545Z 20003KT 9999 FEW015 BKN250 12/10 Q1023
                        NOSIG=
201103260530 METAR LMML NIL=
201103260515 METAR LMML 260515Z 21003KT 9999 FEW015 BKN250 12/10 Q1023
                        NOSIG=
201103260445 METAR LMML 260445Z 19003KT 9999 FEW015 BKN250 12/10 Q1023
                        NOSIG=
201103260430 METAR LMML NIL=
201103260415 METAR LMML 260415Z 20003KT 9999 FEW016 12/10 Q1023 NOSIG=
201103260400 METAR LMML NIL=
201103260345 METAR LMML 260345Z 19004KT 160V230 9999 FEW017 12/10 Q1023
                        NOSIG=
201103260330 METAR LMML NIL=
201103260315 METAR LMML 260315Z 20004KT 170V240 9999 FEW017 12/10 Q1023
                        NOSIG=
201103260245 METAR LMML 260245Z 19004KT 160V230 9999 FEW019 12/10 Q1023
                        NOSIG=
201103260215 METAR LMML 260215Z 20004KT 170V240 9999 FEW020 SCT120 11/09
                        Q1023 NOSIG=
201103260200 METAR LMML NIL=
201103260145 METAR LMML 260145Z 20004KT 170V230 9999 FEW019 11/10 Q1023
                        NOSIG=
201103260130 METAR LMML NIL=
201103260115 METAR LMML 260115Z VRB02KT 9999 SCT024 10/09 Q1024 NOSIG=
201103260045 METAR LMML 260045Z VRB02KT 9999 FEW021 10/08 Q1024 NOSIG=
201103260030 METAR LMML NIL=
201103260015 METAR LMML 260015Z VRB02KT 9999 SCT024 09/08 Q1024 NOSIG=
201103260000 METAR LMML NIL=
201103252345 METAR LMML 252345Z VRB02KT 9999 SCT021 10/08 Q1024 NOSIG=
201103252330 METAR LMML NIL=
201103252315 METAR LMML 252315Z VRB02KT CAVOK 10/08 Q1024 NOSIG=
201103252245 METAR LMML 252245Z 18003KT CAVOK 10/07 Q1025 NOSIG=
201103252230 METAR LMML NIL=
201103252215 METAR LMML 252215Z 18003KT CAVOK 10/07 Q1025 NOSIG=
201103252145 METAR LMML 252145Z 17003KT CAVOK 10/07 Q1025 NOSIG=
201103252115 METAR LMML 252115Z VRB01KT CAVOK 09/07 Q1026 NOSIG=
201103252045 METAR LMML 252045Z VRB01KT CAVOK 09/07 Q1026 NOSIG=
201103252030 METAR LMML NIL=
201103252015 METAR LMML 252015Z VRB01KT CAVOK 10/07 Q1026 NOSIG=
201103251945 METAR LMML 251945Z VRB01KT CAVOK 10/07 Q1026 NOSIG=
201103251930 METAR LMML NIL=
201103251915 METAR LMML 251915Z VRB01KT CAVOK 11/07 Q1026 NOSIG=
201103251900 METAR LMML NIL=
201103251845 METAR LMML 251845Z VRB02KT CAVOK 11/07 Q1026 NOSIG=
201103251830 METAR LMML NIL=
201103251815 METAR LMML 251815Z VRB01KT CAVOK 11/07 Q1026 NOSIG=
201103251800 METAR LMML NIL=
201103251745 METAR LMML 251745Z VRB02KT CAVOK 12/07 Q1025 NOSIG=
201103251715 METAR LMML 251715Z 24003KT CAVOK 12/07 Q1025 NOSIG=
201103251700 METAR LMML NIL=
201103251645 METAR LMML 251645Z 24003KT CAVOK 13/07 Q1026 NOSIG=
201103251630 METAR LMML NIL=
201103251615 METAR LMML 251615Z 23003KT 9999 FEW026 SCT250 13/07 Q1026
                        NOSIG=
201103251600 METAR LMML NIL=
201103251545 METAR LMML 251545Z 23005KT 170V290 9999 FEW026 SCT250 13/08
                        Q1026 NOSIG=
201103251530 METAR LMML NIL=
201103251515 METAR LMML 251515Z 25005KT 210V330 9999 FEW026 15/08 Q1026
                        NOSIG=
201103251500 METAR LMML NIL=
201103251445 METAR LMML 251445Z 22006KT 160V270 9999 FEW025 15/08 Q1026
                        NOSIG=
201103251430 METAR LMML NIL=
201103251415 METAR LMML 251415Z 22005KT 170V280 9999 FEW025 15/08 Q1027
                        NOSIG=
201103251400 METAR LMML NIL=
201103251345 METAR LMML 251345Z 22005KT 170V280 9999 FEW025 15/07 Q1027
                        NOSIG=
201103251330 METAR LMML NIL=
201103251315 METAR LMML 251315Z 22006KT 180V290 9999 FEW025 15/07 Q1027
                        NOSIG=
201103251300 METAR LMML NIL=
201103251245 METAR LMML 251245Z 24006KT 170V300 9999 FEW025 15/09 Q1028
                        NOSIG=
201103251230 METAR LMML NIL=
201103251215 METAR LMML 251215Z 23005KT 170V280 9999 FEW025 15/07 Q1028
                        NOSIG=
201103251200 METAR LMML NIL=
201103251145 METAR LMML 251145Z 22006KT 170V280 9999 FEW025 15/08 Q1028
                        NOSIG=
201103251130 METAR LMML NIL=
201103251115 METAR LMML 251115Z 23006KT 190V300 9999 FEW025 15/08 Q1029
                        NOSIG=
201103251100 METAR LMML NIL=
201103251045 METAR LMML 251045Z 22006KT 180V280 9999 FEW025 15/07 Q1029
                        NOSIG=
201103251030 METAR LMML NIL=
201103251015 METAR LMML 251015Z 22005KT 190V270 9999 FEW025 15/08 Q1029
                        NOSIG=
201103251000 METAR LMML NIL=
201103250945 METAR LMML 250945Z 20004KT 160V310 9999 FEW025 15/08 Q1030
                        NOSIG=
201103250930 METAR LMML NIL=
201103250915 METAR LMML 250915Z 22004KT 160V280 9999 FEW020 15/09 Q1030
                        NOSIG=
201103250900 METAR LMML NIL=
201103250845 METAR LMML 250845Z 21004KT 150V290 9999 FEW020 14/09 Q1030
                        NOSIG=
201103250830 METAR LMML NIL=
201103250815 METAR LMML 250815Z 22003KT 9999 FEW020 14/09 Q1030 NOSIG=
201103250800 METAR LMML NIL=
201103250745 METAR LMML 250745Z 22003KT CAVOK 14/09 Q1030 NOSIG=
201103250730 METAR LMML NIL=
201103250715 METAR LMML 250715Z VRB01KT CAVOK 14/09 Q1030 NOSIG=
201103250700 METAR LMML NIL=
201103250645 METAR LMML 250645Z 00000KT 9999 FEW015 13/09 Q1030 NOSIG=
201103250630 METAR LMML NIL=
201103250615 METAR LMML 250615Z VRB02KT 9999 FEW015 10/09 Q1029 NOSIG=
201103250600 METAR LMML NIL=
201103250545 METAR LMML 250545Z VRB02KT 9999 FEW015 08/07 Q1029 NOSIG=
201103250530 METAR LMML NIL=
201103250515 METAR LMML 250515Z VRB02KT 9999 FEW015 08/07 Q1029 NOSIG=
201103250445 METAR LMML 250445Z VRB02KT CAVOK 08/07 Q1029 NOSIG=
201103250430 METAR LMML NIL=
201103250415 METAR LMML 250415Z VRB02KT CAVOK 07/07 Q1029 NOSIG=
201103250400 METAR LMML NIL=
201103250345 METAR LMML 250345Z VRB01KT CAVOK 07/07 Q1029 NOSIG=
201103250330 METAR LMML NIL=
201103250315 METAR LMML 250315Z VRB01KT CAVOK 08/07 Q1029 NOSIG=
201103250300 METAR LMML NIL=
201103250245 METAR LMML 250245Z VRB02KT CAVOK 08/07 Q1029 NOSIG=
201103250230 METAR LMML NIL=
201103250215 METAR LMML 250215Z VRB01KT CAVOK 08/06 Q1029 NOSIG=
201103250200 METAR LMML NIL=
201103250145 METAR LMML 250145Z VRB02KT CAVOK 08/07 Q1029 NOSIG=
201103250130 METAR LMML NIL=
201103250115 METAR LMML 250115Z VRB02KT CAVOK 08/07 Q1030 NOSIG=
201103250100 METAR LMML NIL=
201103250045 METAR LMML 250045Z VRB02KT CAVOK 08/07 Q1030 NOSIG=
201103250030 METAR LMML NIL=
201103250015 METAR LMML 250015Z VRB02KT CAVOK 07/06 Q1030 NOSIG=
201103242345 METAR LMML 242345Z 31003KT CAVOK 08/06 Q1030 NOSIG=
201103242330 METAR LMML NIL=
201103242315 METAR LMML 242315Z VRB02KT CAVOK 08/07 Q1031 NOSIG=
201103242300 METAR LMML NIL=
201103242245 METAR LMML 242245Z VRB02KT CAVOK 09/07 Q1031 NOSIG=
201103242230 METAR LMML NIL=
201103242215 METAR LMML 242215Z VRB02KT CAVOK 09/08 Q1031 NOSIG=
201103242200 METAR LMML NIL=
201103242145 METAR LMML 242145Z VRB02KT CAVOK 09/08 Q1031 NOSIG=
201103242130 METAR LMML NIL=
201103242115 METAR LMML 242115Z VRB02KT CAVOK 10/08 Q1031 NOSIG=
201103242100 METAR LMML NIL=
201103242045 METAR LMML 242045Z VRB02KT CAVOK 10/08 Q1031 BECMG CAVOK=
201103242030 METAR LMML NIL=
201103242015 METAR LMML 242015Z 26003KT 9999 FEW030 10/08 Q1031 BECMG
                        CAVOK=
201103242000 METAR LMML NIL=
201103241945 METAR LMML 241945Z VRB02KT 9999 FEW030 10/07 Q1031 BECMG
                        CAVOK=
201103241930 METAR LMML NIL=
201103241915 METAR LMML 241915Z VRB01KT 9999 FEW030 10/08 Q1031 BECMG
                        CAVOK=
201103241900 METAR LMML NIL=
201103241845 METAR LMML 241845Z VRB02KT 9999 FEW030 11/08 Q1031 BECMG
                        CAVOK=
201103241830 METAR LMML NIL=
201103241815 METAR LMML 241815Z VRB01KT 9999 FEW030 12/07 Q1031 BECMG
                        CAVOK=
201103241800 METAR LMML NIL=
201103241745 METAR LMML 241745Z VRB02KT 9999 FEW030 12/07 Q1031 BECMG
                        CAVOK=
201103241730 METAR LMML NIL=
201103241715 METAR LMML 241715Z VRB02KT 9999 FEW030 13/07 Q1031 BECMG
                        CAVOK=
201103241700 METAR LMML NIL=
201103241645 METAR LMML 241645Z 19003KT 9999 FEW030 14/07 Q1031 BECMG
                        CAVOK=
201103241630 METAR LMML NIL=
201103241615 METAR LMML 241615Z 13003KT 9999 FEW030 14/07 Q1030 NOSIG=
201103241600 METAR LMML NIL=
201103241545 METAR LMML 241545Z 11003KT 9999 FEW033 14/07 Q1030 NOSIG=
201103241530 METAR LMML NIL=
201103241515 METAR LMML 241515Z 14003KT 9999 FEW035 14/07 Q1030 NOSIG=
201103241500 METAR LMML NIL=
201103241445 METAR LMML 241445Z VRB02KT 9999 FEW034 14/08 Q1031 NOSIG=
201103241430 METAR LMML NIL=
201103241415 METAR LMML 241415Z 13004KT 9999 FEW034 14/07 Q1031 NOSIG=
201103241345 METAR LMML 241345Z VRB02KT 9999 SCT035 16/08 Q1031 NOSIG=
201103241315 METAR LMML 241315Z 23003KT 9999 SCT034 14/08 Q1031 NOSIG=
201103241300 METAR LMML NIL=
201103241245 METAR LMML 241245Z VRB02KT 9999 SCT033 15/08 Q1031 NOSIG=
201103241230 METAR LMML NIL=
201103241215 METAR LMML 241215Z VRB02KT 9999 SCT033 14/07 Q1031 NOSIG=
201103241200 METAR LMML NIL=
201103241145 METAR LMML 241145Z 10003KT 9999 SCT030 14/08 Q1031 NOSIG=
201103241130 METAR LMML NIL=
201103241115 METAR LMML 241115Z 07003KT 9999 SCT030 15/07 Q1032 NOSIG=
201103241045 METAR LMML 241045Z 06003KT 9999 SCT033 14/07 Q1032 NOSIG=
201103241030 METAR LMML NIL=
201103241015 METAR LMML 241015Z 05004KT 350V120 9999 SCT029 14/07 Q1032
                        NOSIG=
201103241000 METAR LMML NIL=
201103240945 METAR LMML 240945Z 06005KT 360V140 9999 SCT030 16/08 Q1032
                        NOSIG=
201103240930 METAR LMML NIL=
201103240915 METAR LMML 240915Z 07005KT 030V100 9999 SCT028 14/08 Q1032
                        NOSIG=
201103240845 METAR LMML 240845Z 04003KT 9999 SCT023 13/09 Q1032 NOSIG=
201103240830 METAR LMML NIL=
201103240815 METAR LMML 240815Z 05003KT 9999 SCT023 14/08 Q1032 NOSIG=
201103240800 METAR LMML NIL=
201103240745 METAR LMML 240745Z VRB02KT 9999 FEW025 15/09 Q1031 NOSIG=
201103240730 METAR LMML NIL=
201103240715 METAR LMML 240715Z VRB01KT 9999 FEW029 14/09 Q1031 NOSIG=
201103240700 METAR LMML NIL=
201103240645 METAR LMML 240645Z VRB01KT 9999 FEW029 12/09 Q1031 NOSIG=
201103240630 METAR LMML NIL=
201103240615 METAR LMML 240615Z VRB01KT 9999 FEW029 11/09 Q1031 NOSIG=
201103240600 METAR LMML NIL=
201103240545 METAR LMML 240545Z VRB02KT 9999 FEW029 09/08 Q1030 NOSIG=
201103240515 METAR LMML 240515Z VRB02KT 9999 FEW029 09/07 Q1030 NOSIG=
201103240445 METAR LMML 240445Z 27003KT 9999 FEW029 09/07 Q1030 NOSIG=
201103240430 METAR LMML NIL=
201103240415 METAR COR LMML 240415Z 27003KT 9999 FEW029 09/07 Q1030 NOSIG=
201103240345 METAR LMML 240345Z 28003KT 9999 FEW029 SCT039 09/07 Q1030
                        NOSIG=
201103240315 METAR LMML 240315Z 26003KT 9999 FEW030 BKN036 09/07 Q1030
                        NOSIG=
201103240300 METAR LMML NIL=
201103240245 METAR LMML 240245Z 27003KT 9999 FEW027 SCT036 09/07 Q1030
                        NOSIG=
201103240230 METAR LMML NIL=
201103240215 METAR LMML 240215Z VRB02KT 9999 FEW027 BKN035 09/07 Q1030
                        NOSIG=
201103240200 METAR LMML NIL=
201103240145 METAR LMML 240145Z VRB02KT 9999 SCT032 SCT080 09/07 Q1030
                        NOSIG=
201103240130 METAR LMML NIL=
201103240115 METAR LMML 240115Z VRB02KT 9999 FEW035 SCT080 09/07 Q1030
                        NOSIG=
201103240100 METAR LMML NIL=
201103240045 METAR LMML 240045Z 27003KT 9999 FEW038 SCT080 09/07 Q1030
                        NOSIG=
201103240030 METAR LMML NIL=
201103240015 METAR LMML 240015Z VRB02KT 9999 FEW038 BKN080 10/07 Q1030
                        NOSIG=
201103240000 METAR LMML NIL=
201103232345 METAR LMML 232345Z VRB02KT 9999 FEW025 BKN080 09/07 Q1030
                        NOSIG=
201103232315 METAR LMML 232315Z VRB02KT 9999 FEW025 BKN070 09/08 Q1030
                        NOSIG=
201103232300 METAR LMML NIL=
201103232245 METAR LMML 232245Z VRB01KT 9999 FEW025 09/08 Q1030 NOSIG=
201103232230 METAR LMML NIL=
201103232215 METAR LMML 232215Z VRB01KT 9999 FEW025 09/07 Q1030 NOSIG=
201103232200 METAR LMML NIL=
201103232145 METAR LMML 232145Z VRB01KT 9999 FEW025 09/07 Q1030 NOSIG=
201103232130 METAR LMML NIL=
201103232115 METAR LMML 232115Z VRB02KT 9999 FEW025 SCT060 09/07 Q1030
                        NOSIG=
201103232100 METAR LMML NIL=
201103232045 METAR LMML 232045Z VRB01KT 9999 FEW025 10/07 Q1030 NOSIG=
201103232030 METAR LMML NIL=
201103232015 METAR LMML 232015Z VRB02KT 9999 FEW025 10/07 Q1030 NOSIG=
201103232000 METAR LMML NIL=
201103231945 METAR LMML 231945Z VRB01KT 9999 FEW025 11/07 Q1030 NOSIG=
201103231930 METAR LMML NIL=
201103231915 METAR LMML 231915Z 03003KT 9999 FEW025 11/07 Q1030 NOSIG=
201103231900 METAR LMML NIL=
201103231845 METAR LMML 231845Z VRB02KT 9999 FEW025 12/07 Q1030 NOSIG=
201103231830 METAR LMML NIL=
201103231815 METAR LMML 231815Z 04003KT 9999 FEW026 12/07 Q1029 NOSIG=
201103231800 METAR LMML NIL=
201103231745 METAR LMML 231745Z 03003KT 9999 FEW026 12/07 Q1029 NOSIG=
201103231730 METAR LMML NIL=
201103231715 METAR LMML 231715Z 03004KT 9999 FEW026 12/07 Q1029 NOSIG=
201103231700 METAR LMML NIL=
201103231645 METAR LMML 231645Z 04005KT 010V080 9999 FEW025 13/08 Q1029
                        NOSIG=
201103231615 METAR LMML 231615Z 05005KT 020V090 9999 FEW026 14/08 Q1029
                        NOSIG=
201103231600 METAR LMML NIL=
201103231545 METAR LMML 231545Z 03004KT 350V080 9999 FEW026 15/08 Q1028
                        NOSIG=
201103231515 METAR LMML 231515Z 07005KT 020V110 9999 FEW027 15/08 Q1029
                        NOSIG=
201103231500 METAR LMML NIL=
201103231445 METAR LMML 231445Z 05005KT 360V110 9999 FEW027 15/08 Q1028
                        NOSIG=
201103231430 METAR LMML NIL=
201103231415 METAR LMML 231415Z 06007KT 010V110 9999 FEW028 15/08 Q1028
                        NOSIG=
201103231400 METAR LMML NIL=
201103231345 METAR LMML 231345Z 06006KT 360V100 9999 FEW028 15/08 Q1029
                        NOSIG=
201103231330 METAR LMML NIL=
201103231315 METAR LMML 231315Z 05008KT 010V090 9999 FEW027 15/08 Q1029
                        NOSIG=
201103231245 METAR LMML 231245Z 06007KT 010V110 9999 FEW027 15/08 Q1029
                        NOSIG=
201103231230 METAR LMML NIL=
201103231215 METAR LMML 231215Z 05008KT 010V080 9999 FEW027 16/08 Q1029
                        NOSIG=
201103231200 METAR LMML NIL=
201103231145 METAR LMML 231145Z 06008KT 310V100 9999 FEW025 16/08 Q1029
                        NOSIG=
201103231130 METAR LMML NIL=
201103231115 METAR LMML 231115Z 07009KT 020V110 9999 FEW027 15/08 Q1030
                        NOSIG=
201103231100 METAR LMML NIL=
201103231045 METAR LMML 231045Z 07008KT 010V110 9999 FEW026 15/09 Q1030
                        NOSIG=
201103231030 METAR LMML NIL=
201103231015 METAR LMML 231015Z 07009KT 040V100 9999 FEW027 15/08 Q1030
                        NOSIG=
201103231000 METAR LMML NIL=
201103230945 METAR LMML 230945Z 06009KT 020V090 9999 SCT028 15/08 Q1030
                        NOSIG=
201103230930 METAR LMML NIL=
201103230915 METAR LMML 230915Z 06010KT 020V110 9999 SCT026 14/08 Q1030
                        NOSIG=
201103230845 METAR LMML 230845Z 06011KT 030V110 9999 FEW026 14/09 Q1030
                        NOSIG=
201103230830 METAR LMML NIL=
201103230815 METAR LMML 230815Z 06010KT 020V090 9999 FEW026 14/08 Q1030
                        NOSIG=
201103230745 METAR LMML 230745Z 06010KT 020V100 9999 SCT021 14/09 Q1029
                        NOSIG=
201103230730 METAR LMML NIL=
201103230715 METAR LMML 230715Z 07008KT 030V100 9999 BKN021 13/09 Q1029
                        NOSIG=
201103230700 METAR LMML NIL=
201103230645 METAR LMML 230645Z 04007KT 010V080 9999 SCT024 13/08 Q1029
                        NOSIG=
201103230630 METAR LMML NIL=
201103230615 METAR LMML 230615Z 05007KT 020V090 9999 SCT021 13/09 Q1029
                        NOSIG=
201103230600 METAR LMML NIL=
201103230545 METAR LMML 230545Z 05005KT 020V090 9999 FEW022 12/09 Q1028
                        NOSIG=
201103230530 METAR LMML NIL=
201103230515 METAR LMML 230515Z 04004KT 020V090 9999 FEW021 11/08 Q1028
                        NOSIG=
201103230500 METAR LMML NIL=
201103230445 METAR LMML 230445Z 07004KT 9999 FEW019 10/09 Q1028 NOSIG=
201103230430 METAR LMML NIL=
201103230415 METAR LMML 230415Z 07003KT 9999 FEW019 10/08 Q1027 NOSIG=
201103230400 METAR LMML NIL=
201103230345 METAR LMML 230345Z 06004KT 030V090 9999 FEW019 10/08 Q1028
                        NOSIG=
201103230330 METAR LMML NIL=
201103230315 METAR LMML 230315Z 07006KT 9999 FEW019 11/09 Q1027 NOSIG=
201103230245 METAR LMML 230245Z 07004KT 9999 FEW020 11/09 Q1027 NOSIG=
201103230230 METAR LMML NIL=
201103230215 METAR LMML 230215Z 05004KT 9999 FEW018 11/09 Q1028 NOSIG=
201103230200 METAR LMML NIL=
201103230145 METAR LMML 230145Z 06003KT 9999 FEW018 11/09 Q1028 NOSIG=
201103230130 METAR LMML NIL=
201103230115 METAR LMML 230115Z 07004KT 9999 FEW019 11/09 Q1028 NOSIG=
201103230100 METAR LMML NIL=
201103230045 METAR LMML 230045Z 06003KT 9999 FEW018 11/09 Q1028 NOSIG=
201103230030 METAR LMML NIL=
201103230015 METAR LMML 230015Z 07004KT 9999 FEW018 11/09 Q1028 NOSIG=
201103230000 METAR LMML NIL=
201103222345 METAR LMML 222345Z 04004KT 020V080 9999 FEW018 11/09 Q1028
                        NOSIG=
201103222330 METAR LMML NIL=
201103222315 METAR LMML 222315Z 04005KT 9999 FEW018 12/09 Q1028 NOSIG=
201103222300 METAR LMML NIL=
201103222245 METAR LMML 222245Z 04004KT 010V070 9999 SCT018 12/09 Q1028
                        NOSIG=
201103222230 METAR LMML NIL=
201103222215 METAR LMML 222215Z 05004KT 9999 SCT018 12/09 Q1028 NOSIG=
201103222200 METAR LMML NIL=
201103222145 METAR LMML 222145Z 04005KT 010V080 9999 FEW019 12/09 Q1028
                        NOSIG=
201103222130 METAR LMML NIL=
201103222115 METAR LMML 222115Z 04006KT 9999 SCT019 12/09 Q1028 NOSIG=
201103222100 METAR LMML NIL=
201103222045 METAR LMML 222045Z 04005KT 010V080 9999 SCT019 12/09 Q1028
                        NOSIG=
201103222030 METAR LMML NIL=
201103222015 METAR LMML 222015Z 04006KT 010V070 9999 FEW017 BKN080 12/09
                        Q1028 NOSIG=
201103222000 METAR LMML NIL=
201103221945 METAR LMML 221945Z 04006KT 010V070 9999 FEW018 BKN080 12/09
                        Q1028 NOSIG=
201103221930 METAR LMML NIL=
201103221915 METAR LMML 221915Z 04006KT 010V070 9999 FEW018 BKN080 12/09
                        Q1028 NOSIG=
201103221900 METAR LMML NIL=
201103221845 METAR LMML 221845Z 04006KT 360V070 9999 FEW017 BKN070 12/09
                        Q1028 NOSIG=
201103221830 METAR LMML NIL=
201103221815 METAR LMML 221815Z 04008KT 010V080 9999 FEW016 BKN070 12/09
                        Q1027 NOSIG=
201103221800 METAR LMML NIL=
201103221745 METAR LMML 221745Z 05008KT 020V080 9999 SCT017 BKN070 13/09
                        Q1027 NOSIG=
201103221730 METAR LMML NIL=
201103221715 METAR LMML 221715Z 05008KT 010V090 9999 SCT017 BKN060 13/09
                        Q1027 NOSIG=
201103221700 METAR LMML NIL=
201103221645 METAR LMML 221645Z 05009KT 360V080 9999 SCT017 BKN060 13/10
                        Q1027 NOSIG=
201103221630 METAR LMML NIL=
201103221615 METAR LMML 221615Z 04009KT 010V070 9999 SCT017 13/10 Q1026
                        NOSIG=
201103221600 METAR LMML NIL=
201103221545 METAR LMML 221545Z 05008KT 020V100 9999 SCT017 SCT060 14/10
                        Q1026 NOSIG=
201103221530 METAR LMML NIL=
201103221515 METAR LMML 221515Z 04009KT 010V100 9999 SCT017 15/10 Q1026
                        NOSIG=
201103221500 METAR LMML NIL=
201103221445 METAR LMML 221445Z 06009KT 020V100 9999 FEW019 15/10 Q1026
                        NOSIG=
201103221430 METAR LMML NIL=
201103221415 METAR LMML 221415Z 05010KT 020V080 9999 FEW019 15/10 Q1026
                        NOSIG=
201103221400 METAR LMML NIL=
201103221345 METAR LMML 221345Z 05010KT 010V090 9999 SCT019 15/10 Q1026
                        NOSIG=
201103221330 METAR LMML NIL=
201103221315 METAR LMML 221315Z 05010KT 020V090 9999 SCT019 15/09 Q1026
                        NOSIG=
201103221300 METAR LMML NIL=
201103221245 METAR LMML 221245Z 06010KT 020V100 9999 SCT017 SCT060 15/10
                        Q1027 NOSIG=
201103221215 METAR LMML 221215Z 03008KT 010V090 9999 BKN015 14/11 Q1027
                        NOSIG=
201103221145 METAR LMML 221145Z 04008KT 010V080 9999 BKN016 14/11 Q1027
                        NOSIG=
201103221130 METAR LMML NIL=
201103221115 METAR LMML 221115Z 04009KT 010V080 9999 BKN016 15/11 Q1027
                        NOSIG=
201103221100 METAR LMML NIL=
201103221045 METAR LMML 221045Z 04007KT 360V100 9999 SCT017 15/10 Q1028
                        NOSIG=
201103221030 METAR LMML NIL=
201103221015 METAR LMML 221015Z 06008KT 020V100 9999 BKN017 15/10 Q1028
                        NOSIG=
201103220945 METAR LMML 220945Z 02008KT 360V080 9999 BKN017 15/11 Q1028
                        NOSIG=
201103220930 METAR LMML NIL=
201103220915 METAR LMML 220915Z 05010KT 010V080 9999 BKN017 14/10 Q1028
                        NOSIG=
201103220845 METAR LMML 220845Z 04008KT 010V070 9999 SCT017 14/10 Q1027
                        NOSIG=
201103220830 METAR LMML NIL=
201103220815 METAR LMML 220815Z 04009KT 360V080 9999 FEW019 14/10 Q1027
                        NOSIG=
201103220745 METAR LMML 220745Z 05009KT 020V080 9999 FEW018 13/10 Q1027
                        NOSIG=
201103220730 METAR LMML NIL=
201103220715 METAR LMML 220715Z 05009KT 020V080 9999 FEW018 13/09 Q1027
                        NOSIG=
201103220700 METAR LMML NIL=
201103220645 METAR LMML 220645Z 05006KT 020V080 9999 SCT016 12/10 Q1026
                        NOSIG=
201103220630 METAR LMML NIL=
201103220615 METAR LMML 220615Z 04006KT 250V070 9999 SCT016 12/10 Q1026
                        NOSIG=
201103220600 METAR LMML NIL=
201103220545 METAR LMML 220545Z 04004KT 020V080 9999 SCT016 10/09 Q1026
                        NOSIG=
201103220515 METAR LMML 220515Z 03004KT 9999 SCT021 09/09 Q1025 NOSIG=
201103220500 METAR LMML NIL=
201103220445 METAR LMML 220445Z 03004KT 9999 SCT019 09/08 Q1025 NOSIG=
201103220430 METAR LMML NIL=
201103220415 METAR LMML 220415Z 02003KT 9999 SCT017 09/08 Q1025 NOSIG=
201103220400 METAR LMML NIL=
201103220345 METAR LMML 220345Z VRB02KT 9999 SCT020 08/08 Q1025 NOSIG=
201103220330 METAR LMML NIL=
201103220315 METAR LMML 220315Z VRB01KT 9999 FEW019 08/08 Q1025 NOSIG=
201103220245 METAR LMML 220245Z VRB01KT 9999 FEW021 08/08 Q1025 NOSIG=
201103220230 METAR LMML NIL=
201103220215 METAR LMML 220215Z VRB01KT 9999 FEW021 08/08 Q1025 NOSIG=
201103220200 METAR LMML NIL=
201103220145 METAR LMML 220145Z VRB02KT 9999 FEW021 08/08 Q1025 NOSIG=
201103220130 METAR LMML NIL=
201103220115 METAR LMML 220115Z VRB02KT 9999 FEW021 08/08 Q1025 NOSIG=
201103220045 METAR LMML 220045Z VRB01KT 9999 FEW020 09/08 Q1025 NOSIG=
201103220030 METAR LMML NIL=
201103220015 METAR LMML 220015Z 00000KT 9999 FEW021 08/08 Q1025 NOSIG=
201103220000 METAR LMML NIL=
201103212345 METAR LMML 212345Z VRB01KT 9999 FEW021 09/08 Q1025 NOSIG=
201103212315 METAR LMML 212315Z 00000KT 9999 FEW021 SCT060 09/09 Q1025
                        NOSIG=
201103212245 METAR LMML 212245Z 00000KT 9999 FEW021 09/09 Q1025 NOSIG=
201103212230 METAR LMML NIL=
201103212215 METAR LMML 212215Z VRB01KT 9999 FEW021 09/09 Q1025 NOSIG=
201103212200 METAR LMML NIL=
201103212145 METAR LMML 212145Z VRB02KT 9999 FEW021 09/09 Q1024 NOSIG=
201103212115 METAR LMML 212115Z VRB02KT 9999 FEW039 10/09 Q1024 NOSIG=
201103212045 METAR LMML 212045Z VRB01KT 9999 FEW039 10/09 Q1024 NOSIG=
201103212030 METAR LMML NIL=
201103212015 METAR LMML 212015Z VRB02KT 9999 FEW039 10/10 Q1024 NOSIG=
201103212000 METAR LMML NIL=
201103211945 METAR LMML 211945Z VRB01KT 9999 -SHRA FEW019 SCT036 11/10
                        Q1023 NOSIG=
201103211930 METAR LMML NIL=
201103211915 METAR LMML 211915Z VRB01KT 9999 SHRA SCT024 10/09 Q1023 NOSIG=
201103211900 METAR LMML NIL=
201103211845 METAR LMML 211845Z VRB01KT 9999 FEW026 10/09 Q1023 NOSIG=
201103211830 METAR LMML NIL=
201103211815 METAR LMML 211815Z VRB01KT 9999 SCT024 SCT042 11/09 Q1023
                        NOSIG=
201103211800 METAR LMML NIL=
201103211745 METAR LMML 211745Z VRB02KT 9999 SCT021 SCT050 11/09 Q1022
                        NOSIG=
201103211730 METAR LMML NIL=
201103211715 METAR LMML 211715Z VRB02KT 9999 SCT025 SCT070 11/10 Q1022
                        RESHRA NOSIG=
201103211700 METAR LMML NIL=
201103211645 METAR LMML 211645Z VRB02KT 9999 SCT025 SCT060 12/09 Q1022
                        RESHRA NOSIG=
201103211630 METAR LMML NIL=
201103211615 METAR LMML 211615Z 04004KT 350V070 9999 SCT025 SCT090 13/08
                        Q1022 NOSIG=
201103211600 METAR LMML NIL=
201103211545 METAR LMML 211545Z 09003KT 9999 SCT026 13/08 Q1022 NOSIG=
201103211530 METAR LMML NIL=
201103211515 METAR LMML 211515Z VRB01KT 9999 SCT028 13/08 Q1021 NOSIG=
201103211500 METAR LMML NIL=
201103211445 METAR LMML 211445Z VRB02KT 9999 SCT028 13/08 Q1021 NOSIG=
201103211430 METAR LMML NIL=
201103211415 METAR LMML 211415Z 01006KT 9999 SCT026TCU 14/08 Q1021 NOSIG=
201103211400 METAR LMML NIL=
201103211345 METAR LMML 211345Z 02004KT 320V100 9999 SCT024TCU 16/09 Q1021
                        NOSIG=
201103211330 METAR LMML NIL=
201103211315 METAR LMML 211315Z 36005KT 330V060 9999 SCT024TCU 15/09 Q1021
                        NOSIG=
201103211300 METAR LMML NIL=
201103211245 METAR LMML 211245Z 02005KT 350V070 9999 SCT024 SCT100 15/09
                        Q1021 NOSIG=
201103211230 METAR LMML NIL=
201103211215 METAR LMML 211215Z 01006KT 330V070 9999 -SHRA SCT023 BKN100
                        15/09 Q1021 NOSIG=
201103211200 METAR LMML NIL=
201103211145 METAR LMML 211145Z 05005KT 360V110 9999 BKN022 SCT100 14/09
                        Q1021 NOSIG=
201103211130 METAR LMML NIL=
201103211115 METAR LMML 211115Z 04007KT 360V070 9999 BKN023 SCT100 13/08
                        Q1021 TEMPO SHRA=
201103211100 METAR LMML NIL=
201103211045 METAR LMML 211045Z 03006KT 330V070 9999 BKN023 SCT100 14/10
                        Q1021 TEMPO SHRA=
201103211030 METAR LMML NIL=
201103211015 METAR LMML 211015Z 04008KT 010V070 9999 BKN021 SCT090 13/09
                        Q1021 TEMPO SHRA=
201103211000 METAR LMML NIL=
201103210945 METAR LMML 210945Z 03008KT 9999 BKN021 SCT090 14/10 Q1021
                        TEMPO SHRA=
201103210930 METAR LMML NIL=
201103210915 METAR LMML 210915Z 02007KT 9999 SCT021 SCT080 14/10 Q1021
                        TEMPO SHRA=
201103210845 METAR LMML 210845Z 02006KT 350V080 9999 SCT021 BKN070 13/10
                        Q1020 TEMPO SHRA=
201103210830 METAR LMML NIL=
201103210815 METAR LMML 210815Z 04007KT 360V080 9999 SCT021TCU SCT080
                        14/10 Q1020 NOSIG=
201103210800 METAR LMML NIL=
201103210745 METAR LMML 210745Z 03005KT 280V070 9999 -SHRA SCT018TCU SCT050
                        11/10 Q1020 NOSIG=
201103210730 METAR LMML NIL=
201103210715 METAR LMML 210715Z 32003KT 9999 SCT018TCU 12/10 Q1020 NOSIG=
201103210700 METAR LMML NIL=
201103210645 METAR LMML 210645Z 33003KT 9999 FEW020TCU 12/10 Q1019 NOSIG=
201103210630 METAR LMML NIL=
201103210615 METAR LMML 210615Z 34003KT 9999 FEW020 10/09 Q1019 NOSIG=
201103210545 METAR LMML 210545Z 35003KT CAVOK 09/08 Q1019 NOSIG=
201103210530 METAR LMML NIL=
201103210515 METAR LMML 210515Z VRB02KT 9999 FEW015 09/08 Q1018 NOSIG=
201103210500 METAR LMML NIL=
201103210445 METAR LMML 210445Z 04004KT 9999 FEW014 SCT090 10/08 Q1018
                        NOSIG=
201103210430 METAR LMML NIL=
201103210415 METAR LMML 210415Z 05004KT 020V080 9999 FEW014 BKN100 10/09
                        Q1018 NOSIG=
201103210400 METAR LMML NIL=
201103210345 METAR LMML 210345Z 03004KT 360V060 9999 FEW008 SCT017 BKN060
                        10/10 Q1018 NOSIG=
201103210330 METAR LMML NIL=
201103210315 METAR LMML 210315Z 33004KT 9999 -RA FEW008 BKN050 10/09 Q1018
                        NOSIG=
201103210300 METAR LMML NIL=
201103210245 METAR LMML 210245Z 02003KT 9999 -RA FEW007 BKN050 10/09 Q1018
                        NOSIG=
201103210230 METAR LMML NIL=
201103210215 METAR LMML 210215Z 01005KT 9999 -RA FEW007 SCT038 BKN050
                        10/09 Q1018 NOSIG=
201103210200 METAR LMML NIL=
201103210145 METAR LMML 210145Z 02006KT 9999 -RA FEW009 SCT038 BKN051
                        10/09 Q1018 NOSIG=
201103210130 METAR LMML NIL=
201103210115 METAR LMML 210115Z 36005KT 9999 -RA FEW010 SCT033 BKN048
                        10/09 Q1018 NOSIG=
201103210100 METAR LMML NIL=
201103210045 METAR LMML 210045Z 03003KT 9999 -RA FEW011 BKN039 BKN060
                        10/09 Q1018 NOSIG=
201103210030 METAR LMML NIL=
201103210015 METAR LMML 210015Z 30003KT 9999 FEW044 BKN060 10/09 Q1018
                        NOSIG=
201103210000 METAR LMML NIL=
201103202345 METAR LMML 202345Z VRB02KT CAVOK 09/09 Q1018 NOSIG=
201103202330 METAR LMML NIL=
201103202315 METAR LMML 202315Z VRB02KT 9999 FEW033 BKN070 09/09 Q1018
                        NOSIG=
201103202300 METAR LMML NIL=
201103202245 METAR LMML 202245Z VRB02KT 9999 FEW033 BKN070 BKN120 10/09
                        Q1018 NOSIG=
201103202230 METAR LMML NIL=
201103202215 METAR LMML 202215Z VRB02KT 9999 -RA FEW033 SCT050 BKN120
                        10/09 Q1018 NOSIG=
201103202200 METAR LMML NIL=
201103202145 METAR LMML 202145Z 02004KT 9999 -RA FEW035 BKN120 10/09 Q1018
                        NOSIG=
201103202130 METAR LMML NIL=
201103202115 METAR LMML 202115Z 02006KT 9999 -SHRA BKN035TCU SCT120 10/09
                        Q1018 TEMPO 8000 SHRA BKN015TCU=
201103202100 METAR LMML NIL=
201103202045 METAR LMML 202045Z 36006KT 320V040 9999 FEW008 SCT020 BKN120
                        10/09 Q1018 RETS TEMPO 8000 SHRA
                        BKN015TCU RMK LIGHTNING TO E=
201103202030 METAR LMML NIL=
201103202015 METAR LMML 202015Z 36004KT 300V030 9999 TS SCT020CB BKN120
                        09/08 Q1018 TEMPO 5000 TSGR BKN015CB
                        RMK LIGHTNING TO ENE=
201103202001 SPECI LMML 202001Z 01006KT 9999 TS BKN020CB BKN120 SCT120
                        09/08 Q1018 TEMPO 5000 TSGR BKN015CB=
201103202000 METAR LMML NIL=
201103201945 METAR LMML 201945Z 36010KT 9999 -SHRA BKN020 BKN120 09/08
                        Q1018 TEMPO 5000 TSGR BKN015CB=
201103201930 METAR LMML NIL=
201103201915 METAR LMML 201915Z 33013KT 300V360 9999 FEW012 BKN025 BKN100
                        10/09 Q1018 TEMPO 5000 TSGR BKN013CB
                        RMK LIGHTNING TO NNW=
201103201900 METAR LMML NIL=
201103201845 METAR LMML 201845Z 32003KT 9999 FEW014CB BKN120 11/10 Q1017
                        TEMPO 5000 TSGR BKN013CB RMK LIGHTNING
                        TO NNW=
201103201830 METAR LMML NIL=
201103201815 METAR LMML 201815Z VRB02KT 9999 FEW014TCU 12/11 Q1017 TEMPO
                        5000 TSGR BKN015CB=
201103201800 METAR LMML NIL=
201103201745 METAR LMML 201745Z VRB02KT 9999 SCT015CB FEW020TCU 12/10
                        Q1017 TEMPO 5000 TSGR BKN015CB=
201103201730 METAR LMML NIL=
201103201715 METAR LMML 201715Z VRB01KT 9999 FEW020CB FEW025TCU 12/10
                        Q1016 TEMPO 5000 TSGR BKN015CB=
201103201700 METAR LMML NIL=
201103201645 METAR LMML 201645Z VRB02KT 9999 FEW020CB FEW025 12/10 Q1016
                        TEMPO 5000 TSGR BKN015CB RMK CB TO
                        WEST=
201103201630 METAR LMML NIL=
201103201615 METAR LMML 201615Z 07005KT 040V100 9999 FEW022 12/10 Q1016
                        TEMPO 5000 TSGR BKN015CB RMK CB TOPS
                        TO NW=
201103201600 METAR LMML NIL=
201103201545 METAR LMML 201545Z VRB02KT 9999 FEW020TCU 15/12 Q1016 TEMPO
                        5000 TSGR BKN015CB=
201103201530 METAR LMML NIL=
201103201515 METAR LMML 201515Z 08003KT 9999 SCT018TCU 13/11 Q1016 NOSIG=
201103201500 METAR LMML NIL=
201103201445 METAR LMML 201445Z 08005KT 050V110 9999 SCT016 BKN050 13/10
                        Q1016 NOSIG=
201103201430 METAR LMML NIL=
201103201415 METAR LMML 201415Z 08006KT 9999 FEW009 SCT018TCU 13/12 Q1016
                        TEMPO BKN015TCU=
201103201400 METAR LMML NIL=
201103201345 METAR LMML 201345Z 11003KT 9000 -SHRA FEW009 SCT014TCU BKN060
                        13/12 Q1016 TEMPO BKN015TCU=
201103201330 METAR LMML NIL=
201103201315 METAR LMML 201315Z 12004KT 090V150 9999 FEW008 SCT015TCU
                        BKN050 13/12 Q1016 TEMPO 9000 SHRA
                        BKN015TCU=
201103201300 METAR LMML NIL=
201103201245 METAR LMML 201245Z 08003KT 9000 -SHRA FEW008 SCT015TCU 14/12
                        Q1016 BECMG 9999=
201103201230 METAR LMML NIL=
201103201215 METAR LMML 201215Z 08003KT 9000 -SHRA SCT030 SCT050 13/11
                        Q1016 BECMG 9999=
201103201200 METAR LMML NIL=
201103201145 METAR LMML 201145Z 08004KT 020V120 9999 BKN032TCU 13/10 Q1016
                        NOSIG=
201103201130 METAR LMML NIL=
201103201115 METAR LMML 201115Z 09004KT 040V170 8000 SHRA BKN027TCU 13/10
                        Q1016 RETSGR BECMG 9000=
201103201100 METAR LMML NIL=
201103201045 METAR LMML 201045Z 09004KT 350V190 3000 SHRA FEW007 BKN032TCU
                        11/09 Q1017 RETSGR BECMG 9000=
201103201030 METAR LMML NIL=
201103201015 METAR LMML 201015Z 22007KT 170V260 6000 TSRA SCT007 BKN013CB
                        11/09 Q1017 BECMG 9000=
201103201000 METAR LMML NIL=
201103200945 METAR LMML 200945Z VRB01KT 4000 TSRA SCT009 BKN016CB 12/11
                        Q1016 BECMG 6000=
201103200932 SPECI LMML 200932Z VRB01KT 5000 TSRA SCT009 BKN016CB 12/10
                        Q1016 BECMG BKN015=
201103200930 METAR LMML NIL=
201103200915 METAR LMML 200915Z 15003KT 9000 -TSRA FEW004 SCT016CB SCT022TCU
                        12/11 Q1016 BECMG BKN015=
201103200906 SPECI LMML 200906Z VRB02KT 6000 TSRA FEW004 BKN015CB 12/10
                        Q1016 BECMG BKN015=
201103200900 METAR LMML NIL=
201103200845 METAR LMML 200845Z VRB02KT 8000 TSRA BKN015CB 13/11 Q1016
                        NOSIG=
201103200831 SPECI LMML 200831Z 02004KT 360V060 8000 -SHRA SCT015TCU SCT021
                        14/11 Q1016 NOSIG=
201103200830 METAR LMML NIL=
201103200815 METAR LMML 200815Z 03004KT 360V080 9999 SCT013TCU SCT016
                        14/11 Q1016 TEMPO BKN013=
201103200800 METAR LMML NIL=
201103200745 METAR LMML 200745Z 01004KT 310V060 9999 SCT013 15/12 Q1016
                        NOSIG=
201103200730 METAR LMML NIL=
201103200715 METAR LMML 200715Z 34005KT 300V360 9999 SCT022 13/12 Q1016
                        NOSIG=
201103200700 METAR LMML NIL=
201103200645 METAR LMML 200645Z 36005KT 270V020 9999 FEW021TCU 12/11 Q1015
                        NOSIG=
201103200630 METAR LMML NIL=
201103200615 METAR LMML 200615Z 30006KT 9999 FEW020TCU 11/11 Q1015 TEMPO
                        6000 TSRA BKN011CB=
201103200600 METAR LMML NIL=
201103200545 METAR LMML 200545Z 32006KT 9999 FEW020TCU 11/10 Q1015 TEMPO
                        6000 TSRA BKN011CB=
201103200530 METAR LMML NIL=
201103200515 METAR LMML 200515Z 30008KT 9000 FEW015TCU 11/11 Q1015 TEMPO
                        6000 TSRA BKN011CB=
201103200500 METAR LMML NIL=
201103200445 METAR LMML 200445Z 30008KT 9000 FEW015TCU SCT250 11/11 Q1015
                        TEMPO 6000 TSRA BKN011CB RMK LIGHTNING
                        TO N=
201103200430 METAR LMML NIL=
201103200415 METAR LMML 200415Z 30007KT 9000 FEW015TCU BKN250 12/11 Q1015
                        TEMPO 7000 SHRA BKN011TCU RMK LIGHTNING
                        TO N NW=
201103200400 METAR LMML NIL=
201103200345 METAR LMML 200345Z 29008KT 9000 FEW012 BKN250 12/11 Q1015
                        NOSIG=
201103200330 METAR LMML NIL=
201103200315 METAR LMML 200315Z 29007KT 9000 FEW012 BKN250 12/11 Q1015
                        TEMPO BKN010=
201103200245 METAR LMML 200245Z 29007KT 9000 FEW012 SCT120 BKN250 12/11
                        Q1015 TEMPO BKN010=
201103200230 METAR LMML NIL=
201103200215 METAR LMML 200215Z 30007KT 9000 FEW012 BKN120 12/11 Q1015
                        TEMPO BKN010=
201103200200 METAR LMML NIL=
201103200145 METAR LMML 200145Z 29008KT 9000 FEW012 BKN130 12/11 Q1015
                        TEMPO BKN010=
201103200130 METAR LMML NIL=
201103200115 METAR LMML 200115Z 30006KT 9000 FEW012 BKN130 12/11 Q1015
                        TEMPO BKN010=
201103200100 METAR LMML NIL=
201103200045 METAR LMML 200045Z 29006KT 9000 FEW012 SCT090 BKN130 12/11
                        Q1015 TEMPO BKN010=
201103200030 METAR LMML NIL=
201103200015 METAR LMML 200015Z 31007KT 9000 FEW012 SCT060 BKN090 12/12
                        Q1016 TEMPO 9000 SHRA SCT015TCU=
201103200000 METAR LMML NIL=
201103192345 METAR LMML 192345Z 31007KT 9000 FEW012 SCT060 BKN090 13/12
                        Q1016 TEMPO 9000 SHRA SCT015TCU=
201103192330 METAR LMML NIL=
201103192315 METAR LMML 192315Z 30006KT 9999 FEW012 BKN070 13/12 Q1016
                        TEMPO 9000 SHRA SCT015TCU=
201103192300 METAR LMML NIL=
201103192245 METAR LMML 192245Z 31006KT 9999 FEW013 BKN080 12/11 Q1016
                        TEMPO 9000 SHRA SCT015TCU=
201103192230 METAR LMML NIL=
201103192215 METAR COR LMML 192215Z 31006KT 9999 SCT013 BKN080 13/11 Q1016
                        TEMPO 9000 SHRA SCT015TCU=
201103192200 METAR LMML NIL=
201103192145 METAR LMML 192145Z 31005KT 9999 SCT013 BKN080 13/11 Q1016
                        TEMPO 9000 SHRA SCT015TCU=
201103192130 METAR LMML NIL=
201103192115 METAR LMML 192115Z 31008KT 280V340 9999 SCT017 SCT090 13/11
                        Q1016 TEMPO 9000 SHRA SCT015TCU=
201103192100 METAR LMML NIL=
201103192045 METAR LMML 192045Z 30005KT 270V330 9999 SCT014 SCT080 12/11
                        Q1016 TEMPO 9000 SHRA SCT015TCU=
201103192030 METAR LMML NIL=
201103192015 METAR LMML 192015Z 30005KT 270V330 9999 BKN014 BKN080 13/11
                        Q1016 TEMPO 9000 SHRA SCT015TCU=
201103192000 METAR LMML NIL=
201103191945 METAR LMML 191945Z 30006KT 9999 BKN014 SCT090 13/12 Q1016
                        TEMPO 9000 SHRA SCT015TCU=
201103191930 METAR LMML NIL=
201103191915 METAR LMML 191915Z 31007KT 9999 SCT014 13/11 Q1016 TEMPO
                        9000 SHRA SCT015TCU=
201103191900 METAR LMML NIL=
201103191845 METAR LMML 191845Z 31010KT 9999 BKN015 13/11 Q1016 TEMPO
                        9000 SHRA SCT015TCU=
201103191830 METAR LMML NIL=
201103191815 METAR LMML 191815Z 31011KT 9999 BKN015 13/11 Q1016 TEMPO
                        9000 SHRA SCT015TCU=
201103191800 METAR LMML NIL=
201103191745 METAR LMML 191745Z 30010KT 9999 BKN015 13/11 Q1015 TEMPO
                        9000 SHRA SCT015TCU=
201103191730 METAR LMML NIL=
201103191715 METAR LMML 191715Z 30008KT 270V330 9999 SCT015 SCT100 13/11
                        Q1015 TEMPO 9000 SHRA SCT015TCU=
201103191700 METAR LMML NIL=
201103191645 METAR LMML 191645Z 31013KT 280V340 9999 FEW016 14/11 Q1015
                        TEMPO 9000 SHRA SCT015TCU=
201103191630 METAR LMML NIL=
201103191615 METAR LMML 191615Z 30014KT 9999 SCT017TCU 14/11 Q1015 TEMPO
                        9000 SHRA=
201103191600 METAR LMML NIL=
201103191545 METAR LMML 191545Z 29016KT 9999 FEW016TCU SCT017 14/11 Q1015
                        NOSIG=
201103191530 METAR LMML NIL=
201103191515 METAR LMML 191515Z 29015KT 9999 FEW018TCU SCT026 14/11 Q1015
                        NOSIG=
201103191500 METAR LMML NIL=
201103191445 METAR LMML 191445Z 29015KT 260V320 9999 BKN017 15/11 Q1015
                        NOSIG=
201103191430 METAR LMML NIL=
201103191415 METAR LMML 191415Z 29014KT 260V320 9999 BKN021 14/11 Q1015
                        NOSIG=
201103191345 METAR LMML 191345Z 29014KT 9999 FEW018 FEW025 SCT081 16/11
                        Q1015 NOSIG=
201103191330 METAR LMML NIL=
201103191315 METAR LMML 191315Z 30013KT 260V330 9999 BKN018 14/11 Q1015
                        NOSIG=
201103191300 METAR LMML NIL=
201103191245 METAR COR LMML 191245Z 29014KT 260V330 9999 FEW019TCU BKN020
                        16/11 Q1016 NOSIG=
201103191230 METAR LMML NIL=
201103191215 METAR LMML 191215Z 31009KT 280V340 9999 SCT020TCU SCT080
                        14/11 Q1016 NOSIG=
201103191200 METAR LMML NIL=
201103191145 METAR LMML 191145Z 32011KT 280V340 9999 -SHRA BKN020TCU SCT080
                        15/11 Q1016 NOSIG=
201103191130 METAR LMML NIL=
201103191115 METAR LMML 191115Z 30012KT 270V330 9999 BKN020TCU BKN079
                        15/11 Q1016 NOSIG=
201103191100 METAR LMML NIL=
201103191045 METAR LMML 191045Z 30013KT 9999 BKN019TCU SCT080 15/11 Q1016
                        NOSIG=
201103191030 METAR LMML NIL=
201103191015 METAR LMML 191015Z 30014KT 9999 -SHRA BKN016TCU SCT080 15/12
                        Q1017 NOSIG=
201103191000 METAR LMML NIL=
201103190945 METAR LMML 190945Z 30012KT 270V340 9999 BKN016TCU BKN085
                        15/12 Q1016 TEMPO 8000 SHRA=
201103190930 METAR LMML NIL=
201103190915 METAR LMML 190915Z 31013KT 9999 SCT016TCU BKN080 14/11 Q1017
                        TEMPO 8000 SHRA=
201103190900 METAR LMML NIL=
201103190845 METAR LMML 190845Z 30013KT 270V330 9999 SCT017TCU BKN081
                        14/11 Q1017 TEMPO 8000 SHRA=
201103190830 METAR LMML NIL=
201103190815 METAR LMML 190815Z 31010KT 280V340 9999 -SHRA FEW015TCU SCT017
                        BKN081 13/12 Q1017 TEMPO 8000=
201103190800 METAR LMML NIL=
201103190745 METAR LMML 190745Z 30009KT 9999 SCT019TCU BKN080 14/12 Q1016
                        TEMPO 8000 SHRA=
201103190730 METAR LMML NIL=
201103190715 METAR LMML 190715Z 29008KT 9999 -RA FEW013TCU BKN080 13/10
                        Q1016 TEMPO 8000=
201103190700 METAR LMML NIL=
201103190645 METAR LMML 190645Z 28007KT 250V310 9999 FEW014TCU SCT040
                        BKN080 13/11 Q1016 TEMPO 8000 SHRA=
201103190630 METAR LMML NIL=
201103190615 METAR LMML 190615Z 27005KT 250V310 9999 FEW017 BKN080 12/10
                        Q1016 NOSIG=
201103190600 METAR LMML NIL=
201103190545 METAR LMML 190545Z 28011KT 9999 FEW017 BKN080 12/10 Q1016
                        NOSIG=
201103190530 METAR LMML NIL=
201103190515 METAR LMML 190515Z 28007KT 250V320 9999 FEW017 BKN070 12/10
                        Q1016 NOSIG=
201103190500 METAR LMML NIL=
201103190445 METAR LMML 190445Z 28007KT 240V300 9999 FEW017 BKN080 12/11
                        Q1016 NOSIG=
201103190430 METAR LMML NIL=
201103190415 METAR LMML 190415Z 28008KT 9999 FEW013 SCT080 12/11 Q1016
                        NOSIG=
201103190400 METAR LMML NIL=
201103190345 METAR LMML 190345Z 28008KT 240V310 9999 FEW020 SCT070 12/10
                        Q1016 NOSIG=
201103190330 METAR LMML NIL=
201103190315 METAR LMML 190315Z 29010KT 260V320 9999 SCT020 SCT070 12/10
                        Q1016 TEMPO 5000 SHRA BKN015=
201103190300 METAR LMML NIL=
201103190245 METAR LMML 190245Z 28009KT 9999 SCT013 SCT018 12/11 Q1016
                        RESHRA TEMPO 5000 SHRA BKN015=
201103190230 METAR LMML NIL=
201103190215 METAR LMML 190215Z 27008KT 240V300 9999 -SHRA BKN013 11/10
                        Q1016 RESHRA TEMPO 5000 SHRA BKN015=
201103190200 METAR LMML NIL=
201103190145 METAR LMML 190145Z 28014KT 250V310 9000 SHRA BKN013 12/10
                        Q1016 TEMPO 5000 SHRA BKN015=
201103190130 METAR LMML NIL=
201103190115 METAR LMML 190115Z 27010KT 9999 SCT018 12/10 Q1016 NOSIG=
201103190100 METAR LMML NIL=
201103190045 METAR LMML 190045Z 27010KT 9999 SCT021 12/10 Q1017 NOSIG=
201103190030 METAR LMML NIL=
201103190015 METAR LMML 190015Z 27011KT 230V310 9999 FEW020 FEW026 FEW031
                        12/09 Q1017 NOSIG=
201103190000 METAR LMML NIL=
201103182345 METAR LMML 182345Z 26010KT 230V290 9999 FEW025 12/09 Q1017
                        NOSIG=
201103182330 METAR LMML NIL=
201103182315 METAR LMML 182315Z 27010KT 230V300 9999 FEW025 SCT060 12/09
                        Q1017 NOSIG=
201103182245 METAR LMML 182245Z 28007KT 240V310 9999 FEW025 12/09 Q1017
                        NOSIG=
201103182230 METAR LMML NIL=
201103182215 METAR LMML 182215Z 28006KT 9999 FEW025 12/09 Q1018 NOSIG=
201103182200 METAR LMML NIL=
201103182145 METAR LMML 182145Z 28006KT 250V310 9999 FEW025 12/09 Q1018
                        NOSIG=
201103182130 METAR LMML NIL=
201103182115 METAR LMML 182115Z 27007KT 230V300 9999 FEW021 12/09 Q1018
                        NOSIG=
201103182100 METAR LMML NIL=
201103182045 METAR LMML 182045Z 29005KT 250V330 9999 FEW021 12/09 Q1018
                        NOSIG=
201103182030 METAR LMML NIL=
201103182015 METAR LMML 182015Z 29008KT 260V320 9999 FEW021 12/09 Q1017
                        NOSIG=
201103182000 METAR LMML NIL=
201103181945 METAR LMML 181945Z 30009KT 9999 FEW021 13/10 Q1018 NOSIG=
201103181930 METAR LMML NIL=
201103181915 METAR LMML 181915Z 30009KT 9999 SCT021 13/10 Q1018 NOSIG=
201103181900 METAR LMML NIL=
201103181845 METAR LMML 181845Z 29010KT CAVOK 13/10 Q1017 NOSIG=
201103181830 METAR LMML NIL=
201103181815 METAR LMML 181815Z 29010KT CAVOK 13/10 Q1017 NOSIG=
201103181800 METAR LMML NIL=
201103181745 METAR LMML 181745Z 29008KT 260V320 9999 FEW020 13/10 Q1017
                        NOSIG=
201103181730 METAR LMML NIL=
201103181715 METAR LMML 181715Z 29009KT 9999 FEW020 13/10 Q1017 NOSIG=
201103181700 METAR LMML NIL=
201103181645 METAR LMML 181645Z 30012KT 9999 FEW020 14/10 Q1017 NOSIG=
201103181630 METAR LMML NIL=
201103181615 METAR LMML 181615Z 29013KT 9999 FEW020 14/11 Q1017 NOSIG=
201103181545 METAR LMML 181545Z 29016KT 9999 FEW020 15/11 Q1017 NOSIG=
201103181530 METAR LMML NIL=
201103181515 METAR LMML 181515Z 29017G27KT 270V330 9999 FEW020 15/10 Q1017
                        NOSIG=
201103181500 METAR LMML NIL=
201103181445 METAR LMML 181445Z 29016KT 9999 FEW020 16/10 Q1017 NOSIG=
201103181430 METAR LMML NIL=
201103181415 METAR LMML 181415Z 30017KT 260V320 9999 FEW021 16/11 Q1017
                        NOSIG=
201103181400 METAR LMML NIL=
201103181345 METAR LMML 181345Z 28017KT 250V320 9999 FEW021 16/11 Q1017
                        NOSIG=
201103181330 METAR LMML NIL=
201103181315 METAR LMML 181315Z 29017KT 250V330 9999 FEW017 16/09 Q1017
                        NOSIG=
201103181245 METAR LMML 181245Z 29018KT 260V330 9999 FEW017 16/11 Q1017
                        NOSIG=
201103181230 METAR LMML NIL=
201103181215 METAR LMML 181215Z 29016KT 260V320 9999 FEW017 16/11 Q1017
                        NOSIG=
201103181200 METAR LMML NIL=
201103181145 METAR LMML 181145Z 29016KT 9999 FEW017 16/12 Q1018 NOSIG=
201103181130 METAR LMML NIL=
201103181115 METAR LMML 181115Z 29013KT 250V320 9999 FEW020 17/11 Q1018
                        NOSIG=
201103181100 METAR LMML NIL=
201103181045 METAR LMML 181045Z 28013KT 250V310 9999 FEW020 17/10 Q1018
                        NOSIG=
201103181015 METAR LMML 181015Z 28012KT 240V300 9999 FEW019 16/11 Q1018
                        NOSIG=
201103181000 METAR LMML NIL=
201103180945 METAR LMML 180945Z 28011KT 250V310 9999 SCT020 16/11 Q1018
                        NOSIG=
201103180930 METAR LMML NIL=
201103180915 METAR LMML 180915Z 28010KT 220V310 9999 FEW019 16/11 Q1018
                        NOSIG=
201103180900 METAR LMML NIL=
201103180845 METAR LMML 180845Z 30008KT 270V340 9999 SCT017 16/12 Q1018
                        NOSIG=
201103180830 METAR LMML NIL=
201103180815 METAR LMML 180815Z 30008KT 9999 SCT016 15/12 Q1018 NOSIG=
201103180800 METAR LMML NIL=
201103180745 METAR LMML 180745Z 31009KT 9999 SCT013 14/12 Q1018 NOSIG=
201103180730 METAR LMML NIL=
201103180715 METAR LMML 180715Z 30007KT 9999 FEW013 14/12 Q1017 NOSIG=
201103180700 METAR LMML NIL=
201103180645 METAR LMML 180645Z 28003KT 9999 FEW020 14/12 Q1017 NOSIG=
201103180630 METAR LMML NIL=
201103180615 METAR LMML 180615Z 26004KT 230V300 9999 FEW020 13/11 Q1017
                        NOSIG=
201103180600 METAR LMML NIL=
201103180545 METAR LMML 180545Z 26004KT 220V300 9999 FEW020 11/11 Q1017
                        NOSIG=
201103180530 METAR LMML NIL=
201103180515 METAR LMML 180515Z 29004KT 260V320 9999 FEW012 11/11 Q1016
                        TEMPO BKN010=
201103180445 METAR LMML 180445Z 31003KT 9999 FEW012 11/11 Q1016 TEMPO
                        BKN010=
201103180430 METAR LMML NIL=
201103180415 METAR LMML 180415Z 32003KT 9999 FEW012 11/11 Q1016 NOSIG=
201103180345 METAR LMML 180345Z 32004KT 9999 FEW012 11/10 Q1016 NOSIG=
201103180330 METAR LMML NIL=
201103180315 METAR LMML 180315Z 30004KT 9999 FEW012 SCT080 11/10 Q1016
                        NOSIG=
201103180300 METAR LMML NIL=
201103180245 METAR LMML 180245Z 30004KT 9999 FEW012 11/10 Q1016 NOSIG=
201103180230 METAR LMML NIL=
201103180215 METAR LMML 180215Z 30003KT 9999 FEW012 11/10 Q1016 NOSIG=
201103180200 METAR LMML NIL=
201103180145 METAR LMML 180145Z 29003KT 9999 FEW012 11/11 Q1016 NOSIG=
201103180130 METAR LMML NIL=
201103180115 METAR LMML 180115Z VRB02KT 9999 FEW012 11/11 Q1016 NOSIG=
201103180100 METAR LMML NIL=
201103180045 METAR LMML 180045Z 31003KT 9999 FEW012 12/11 Q1016 NOSIG=
201103180030 METAR LMML NIL=
201103180015 METAR LMML 180015Z 28005KT 9999 FEW012 12/11 Q1016 NOSIG=
201103180000 METAR LMML NIL=
201103172345 METAR LMML 172345Z 25007KT 210V280 9999 FEW012 13/12 Q1017
                        NOSIG=
201103172330 METAR LMML NIL=
201103172315 METAR LMML 172315Z 25005KT 220V290 9999 FEW012 13/12 Q1017
                        NOSIG=
201103172245 METAR LMML 172245Z 21005KT 190V250 9999 FEW012 13/13 Q1017
                        NOSIG=
201103172230 METAR LMML NIL=
201103172215 METAR LMML 172215Z 22006KT 190V250 9999 FEW005 13/13 Q1017
                        NOSIG=
201103172145 METAR LMML 172145Z 21007KT 180V240 9999 FEW005 13/13 Q1017
                        NOSIG=
201103172130 METAR LMML NIL=
201103172115 METAR LMML 172115Z 21008KT 180V260 9999 FEW004 13/13 Q1016
                        NOSIG=
201103172100 METAR LMML NIL=
201103172045 METAR LMML 172045Z 21007KT 180V250 9999 FEW004 13/13 Q1016
                        NOSIG=
201103172030 METAR LMML NIL=
201103172015 METAR LMML 172015Z 21006KT 170V250 9999 FEW004 13/13 Q1016
                        NOSIG=
201103171945 METAR LMML 171945Z 21006KT 170V260 9999 FEW004 13/13 Q1016
                        NOSIG=
201103171930 METAR LMML NIL=
201103171915 METAR LMML 171915Z 21006KT 180V240 9999 SCT005 13/13 Q1016
                        NOSIG=
201103171900 METAR LMML NIL=
201103171845 METAR LMML 171845Z 21006KT 170V250 9999 SCT005 13/13 Q1015
                        NOSIG=
201103171830 METAR LMML NIL=
201103171815 METAR LMML 171815Z 21005KT 180V240 9999 FEW012 13/13 Q1015
                        NOSIG=
201103171800 METAR LMML NIL=
201103171745 METAR LMML 171745Z 21006KT 180V280 9999 FEW012 13/12 Q1015
                        NOSIG=
201103171715 METAR LMML 171715Z 21005KT 180V240 9999 FEW012 14/13 Q1015
                        NOSIG=
201103171700 METAR LMML NIL=
201103171645 METAR LMML 171645Z 20006KT 170V230 9999 FEW012 15/13 Q1015
                        NOSIG=
201103171630 METAR LMML NIL=
201103171615 METAR LMML 171615Z 22006KT 180V250 9999 FEW012 15/12 Q1015
                        NOSIG=
201103171600 METAR LMML NIL=
201103171545 METAR LMML 171545Z 20006KT 170V240 9999 FEW012 16/12 Q1015
                        NOSIG=
201103171530 METAR LMML NIL=
201103171515 METAR LMML 171515Z 20005KT 170V270 9999 FEW012 16/12 Q1015
                        NOSIG=
201103171500 METAR LMML NIL=
201103171445 METAR LMML 171445Z 20006KT 170V240 9999 FEW012 16/12 Q1015
                        NOSIG=
201103171430 METAR LMML NIL=
201103171415 METAR LMML 171415Z 20006KT 160V260 9999 FEW012 17/12 Q1015
                        NOSIG=
201103171400 METAR LMML NIL=
201103171345 METAR LMML 171345Z 19007KT 150V260 9999 FEW012 16/12 Q1015
                        NOSIG=
201103171330 METAR LMML NIL=
201103171315 METAR LMML 171315Z 20006KT 160V230 9999 FEW013 16/11 Q1015
                        NOSIG=
201103171300 METAR LMML NIL=
201103171245 METAR LMML 171245Z 19005KT 140V230 9999 FEW015 17/10 Q1016
                        NOSIG=
201103171215 METAR LMML 171215Z 20006KT 150V250 9999 FEW025 17/11 Q1016
                        NOSIG=
201103171200 METAR LMML NIL=
201103171145 METAR LMML 171145Z 20006KT 160V250 9999 FEW025 17/09 Q1016
                        NOSIG=
201103171130 METAR LMML NIL=
201103171115 METAR LMML 171115Z 20005KT 150V240 9999 FEW020 17/08 Q1016
                        NOSIG=
201103171100 METAR LMML NIL=
201103171045 METAR LMML 171045Z 20005KT 170V300 9999 FEW025 17/10 Q1016
                        NOSIG=
201103171030 METAR LMML NIL=
201103171015 METAR LMML 171015Z 20007KT 160V250 9999 FEW020 16/12 Q1017
                        NOSIG=
201103171000 METAR LMML NIL=
201103170945 METAR LMML 170945Z 20005KT 150V260 9999 FEW020 17/12 Q1017
                        NOSIG=
201103170930 METAR LMML NIL=
201103170915 METAR LMML 170915Z VRB02KT 9999 FEW020 17/11 Q1017 NOSIG=
201103170900 METAR LMML NIL=
201103170845 METAR LMML 170845Z VRB01KT 9999 FEW020 17/09 Q1016 NOSIG=
201103170830 METAR LMML NIL=
201103170815 METAR LMML 170815Z VRB02KT 9999 FEW020 17/10 Q1016 NOSIG=
201103170800 METAR LMML NIL=
201103170745 METAR LMML 170745Z VRB01KT 9999 FEW015 15/09 Q1016 NOSIG=
201103170730 METAR LMML NIL=
201103170715 METAR LMML 170715Z 27003KT 9999 FEW012 14/12 Q1016 NOSIG=
201103170700 METAR LMML NIL=
201103170645 METAR LMML 170645Z VRB02KT 9999 FEW012 13/12 Q1016 NOSIG=
201103170630 METAR LMML NIL=
201103170615 METAR LMML 170615Z VRB02KT 9999 FEW015 12/11 Q1015 NOSIG=
201103170600 METAR LMML NIL=
201103170545 METAR LMML 170545Z VRB01KT CAVOK 11/11 Q1015 NOSIG=
201103170530 METAR LMML NIL=
201103170515 METAR LMML 170515Z VRB02KT 9999 FEW030 10/10 Q1015 NOSIG=
201103170500 METAR LMML NIL=
201103170445 METAR LMML 170445Z VRB01KT 9999 FEW030 10/10 Q1015 NOSIG=
201103170430 METAR LMML NIL=
201103170415 METAR LMML 170415Z 29005KT CAVOK 11/10 Q1015 NOSIG=
201103170400 METAR LMML NIL=
201103170345 METAR LMML 170345Z 29008KT CAVOK 12/11 Q1014 NOSIG=
201103170330 METAR LMML NIL=
201103170315 METAR LMML 170315Z 29008KT CAVOK 12/11 Q1014 NOSIG=
201103170300 METAR LMML NIL=
201103170245 METAR LMML 170245Z 28007KT CAVOK 12/11 Q1014 NOSIG=
201103170230 METAR LMML NIL=
201103170215 METAR LMML 170215Z 29008KT CAVOK 12/11 Q1014 NOSIG=
201103170200 METAR LMML NIL=
201103170145 METAR LMML 170145Z 30008KT CAVOK 12/11 Q1014 NOSIG=
201103170130 METAR LMML NIL=
201103170115 METAR LMML 170115Z 30005KT CAVOK 12/11 Q1014 NOSIG=
201103170100 METAR LMML NIL=
201103170045 METAR LMML 170045Z VRB02KT CAVOK 12/11 Q1014 NOSIG=
201103170030 METAR LMML NIL=
201103170015 METAR LMML 170015Z 29003KT CAVOK 12/11 Q1014 NOSIG=
201103170000 METAR LMML NIL=
201103162345 METAR LMML 162345Z 29004KT 270V330 CAVOK 12/11 Q1014 NOSIG=
201103162330 METAR LMML NIL=
201103162315 METAR LMML 162315Z 30008KT 9000 FEW009 13/12 Q1014 BECMG
                        9999=
201103162300 METAR LMML NIL=
201103162245 METAR LMML 162245Z 30007KT 270V340 9000 FEW009 13/12 Q1014
                        BECMG 9999=
201103162230 METAR LMML NIL=
201103162215 METAR LMML 162215Z 29012KT 260V320 9000 SCT009 SCT100 14/13
                        Q1014 BECMG 9999=
201103162200 METAR LMML NIL=
201103162145 METAR LMML 162145Z 27012KT 230V300 9000 BKN007 BKN100 14/13
                        Q1014 TEMPO BKN005=
201103162130 METAR LMML NIL=
201103162115 METAR LMML 162115Z 26014KT 220V300 CAVOK 15/13 Q1013 TEMPO
                        9000 BKN010=
201103162100 METAR LMML NIL=
201103162045 METAR LMML 162045Z 25012KT 210V280 CAVOK 16/11 Q1013 TEMPO
                        9000 BKN010=
201103162030 METAR LMML NIL=
201103162015 METAR LMML 162015Z 24013KT 200V280 CAVOK 17/10 Q1012 TEMPO
                        9000 BKN010=
201103162000 METAR LMML NIL=
201103161945 METAR LMML 161945Z 23008KT 200V290 CAVOK 17/10 Q1011 TEMPO
                        8000 NSC=
201103161930 METAR LMML NIL=
201103161915 METAR COR LMML 161915Z 22011KT 190V270 CAVOK 17/11 Q1011
                        TEMPO 8000 NSC=
201103161900 METAR LMML NIL=
201103161845 METAR LMML 161845Z 22010KT 190V270 8000 NSC 17/11 Q1010 NOSIG=
201103161815 METAR LMML 161815Z 22010KT 180V260 8000 -SHRA NSC 16/12 Q1009
                        NOSIG=
201103161800 METAR LMML NIL=
201103161745 METAR LMML 161745Z 22008KT 180V260 8000 NSC 16/12 Q1009 NOSIG=
201103161730 METAR LMML NIL=
201103161715 METAR LMML 161715Z 21009KT 180V240 8000 NSC 17/13 Q1009 NOSIG=
201103161700 METAR LMML NIL=
201103161645 METAR LMML 161645Z 20010KT 170V250 8000 NSC 16/13 Q1008 NOSIG=
201103161630 METAR LMML NIL=
201103161615 METAR LMML 161615Z 19012KT 160V230 9000 NSC 16/14 Q1008 NOSIG=
201103161545 METAR LMML 161545Z 19012KT 160V220 9000 NSC 17/13 Q1007 NOSIG=
201103161530 METAR LMML NIL=
201103161515 METAR LMML 161515Z 18012KT 9999 -SHRA NSC 17/13 Q1007 NOSIG=
201103161500 METAR LMML NIL=
201103161445 METAR LMML 161445Z 18012KT 140V210 CAVOK 18/13 Q1007 NOSIG=
201103161430 METAR LMML NIL=
201103161415 METAR LMML 161415Z 17011KT 130V210 CAVOK 17/13 Q1007 RETSRA
                        NOSIG=
201103161400 METAR LMML NIL=
201103161345 METAR LMML 161345Z 16016KT 130V200 9999 TSRA NSC 17/12 Q1008
                        BECMG CAVOK=
201103161336 SPECI LMML 161336Z 16015KT 130V190 9999 TSRA NSC 17/12 Q1008
                        NOSIG=
201103161330 METAR LMML NIL=
201103161315 METAR LMML 161315Z 16016KT 130V190 CAVOK 19/12 Q1008 NOSIG=
201103161300 METAR LMML NIL=
201103161245 METAR LMML 161245Z 16016KT CAVOK 19/11 Q1008 NOSIG=
201103161230 METAR LMML NIL=
201103161215 METAR LMML 161215Z 16017KT 120V190 CAVOK 19/12 Q1008 NOSIG=
201103161200 METAR LMML NIL=
201103161145 METAR LMML 161145Z 15016KT 120V190 CAVOK 19/12 Q1009 NOSIG=
201103161130 METAR LMML NIL=
201103161115 METAR LMML 161115Z 15016KT 120V180 CAVOK 19/11 Q1010 NOSIG=
201103161100 METAR LMML NIL=
201103161045 METAR LMML 161045Z 15016KT 9999 -SHRA NSC 20/10 Q1010 NOSIG=
201103161030 METAR LMML NIL=
201103161015 METAR LMML 161015Z 15017KT 120V190 CAVOK 20/10 Q1010 NOSIG=
201103160945 METAR LMML 160945Z 16015KT 130V200 CAVOK 19/10 Q1011 NOSIG=
201103160930 METAR LMML NIL=
201103160915 METAR LMML 160915Z 16017KT 130V190 CAVOK 19/10 Q1011 NOSIG=
201103160900 METAR LMML NIL=
201103160845 METAR LMML 160845Z 15014KT 110V190 CAVOK 18/09 Q1011 NOSIG=
201103160815 METAR LMML 160815Z 16013KT CAVOK 19/10 Q1011 NOSIG=
201103160800 METAR LMML NIL=
201103160745 METAR LMML 160745Z 16013KT 130V190 CAVOK 18/11 Q1012 NOSIG=
201103160730 METAR LMML NIL=
201103160715 METAR LMML 160715Z 16013KT 100V190 CAVOK 18/11 Q1012 NOSIG=
201103160700 METAR LMML NIL=
201103160645 METAR LMML 160645Z 16014KT 9999 FEW035 BKN110 18/11 Q1012
                        NOSIG=
201103160630 METAR LMML NIL=
201103160615 METAR LMML 160615Z 16016KT 130V190 9999 FEW035 BKN100 18/10
                        Q1012 NOSIG=
201103160600 METAR LMML NIL=
201103160545 METAR LMML 160545Z 16013KT 9999 FEW035 BKN120 17/11 Q1012
                        NOSIG=
201103160530 METAR LMML NIL=
201103160515 METAR LMML 160515Z 17012KT 140V200 9000 NSC 16/11 Q1013 NOSIG=
201103160500 METAR LMML NIL=
201103160445 METAR LMML 160445Z 17012KT 9000 NSC 16/11 Q1013 NOSIG=
201103160430 METAR LMML NIL=
201103160415 METAR LMML 160415Z 17012KT 140V200 9000 NSC 16/12 Q1013 NOSIG=
201103160400 METAR LMML NIL=
201103160345 METAR LMML 160345Z 18015KT 9000 NSC 16/12 Q1013 NOSIG=
201103160330 METAR LMML NIL=
201103160315 METAR LMML 160315Z 17013KT 140V210 9000 NSC 16/12 Q1013 NOSIG=
201103160300 METAR LMML NIL=
201103160245 METAR LMML 160245Z 16012KT 9000 NSC 16/12 Q1014 NOSIG=
201103160230 METAR LMML NIL=
201103160215 METAR LMML 160215Z 17013KT 120V210 9000 NSC 16/12 Q1014 NOSIG=
201103160200 METAR LMML NIL=
201103160145 METAR LMML 160145Z 15011KT 110V180 9000 NSC 18/11 Q1013 NOSIG=
201103160130 METAR LMML NIL=
201103160115 METAR LMML 160115Z 16011KT 120V190 9000 NSC 17/11 Q1014 NOSIG=
201103160100 METAR LMML NIL=
201103160045 METAR LMML 160045Z 16011KT 130V200 9000 NSC 16/11 Q1014 NOSIG=
201103160030 METAR LMML NIL=
201103160015 METAR LMML 160015Z 14011KT 9000 NSC 15/12 Q1015 TEMPO 5000
                        BR=
201103160000 METAR LMML NIL=
201103152345 METAR LMML 152345Z 14011KT 9000 NSC 15/12 Q1015 TEMPO 5000
                        BR=
201103152330 METAR LMML NIL=
201103152315 METAR LMML 152315Z 15010KT 120V180 9000 NSC 17/11 Q1016 TEMPO
                        5000 BR=
201103152300 METAR LMML NIL=
201103152245 METAR LMML 152245Z 17011KT 140V210 9000 NSC 17/11 Q1017 TEMPO
                        5000 BR=
201103152230 METAR LMML NIL=
201103152215 METAR LMML 152215Z 16012KT 130V190 9000 -RA NSC 16/11 Q1017
                        TEMPO 5000 BR=
201103152200 METAR LMML NIL=
201103152145 METAR LMML 152145Z 15010KT 9000 NSC 16/11 Q1017 TEMPO 5000
                        BR=
201103152130 METAR LMML NIL=
201103152115 METAR LMML 152115Z 13008KT 5000 DU NSC 14/14 Q1017 TEMPO
                        3000 BKN003=
201103152100 METAR LMML NIL=
201103152045 METAR LMML 152045Z 13006KT 5000 -RA NSC 14/14 Q1018 TEMPO
                        3000 BKN003=
201103152030 METAR LMML NIL=
201103152015 METAR LMML 152015Z 14004KT 5000 DU FEW003 SCT130 BKN250 14/14
                        Q1019 TEMPO 3000 BKN003=
201103152000 METAR LMML NIL=
201103151945 METAR LMML 151945Z 09003KT 5000 DU FEW003 SCT130 BKN250 14/14
                        Q1018 TEMPO 3000 BKN003=
201103151930 METAR LMML NIL=
201103151915 METAR LMML 151915Z 08005KT 360V130 5000 DU SCT003 SCT130
                        BKN250 14/14 Q1018 TEMPO 3000 BKN003=
201103151900 METAR LMML NIL=
201103151845 METAR LMML 151845Z 12005KT 5000 DU NSC 14/14 Q1017 NOSIG=
201103151830 METAR LMML NIL=
201103151815 METAR LMML 151815Z VRB02KT 5000 DU NSC 14/14 Q1017 NOSIG=
201103151800 METAR LMML NIL=
201103151745 METAR LMML 151745Z 16005KT 120V190 5000 DU NSC 14/14 Q1017
                        NOSIG=
201103151730 METAR LMML NIL=
201103151715 METAR LMML 151715Z 11004KT 080V140 5000 HZ NSC 15/14 Q1017
                        NOSIG=
201103151700 METAR LMML NIL=
201103151645 METAR LMML 151645Z 11005KT 070V140 6000 NSC 15/14 Q1017 NOSIG=
201103151630 METAR LMML NIL=
201103151615 METAR LMML 151615Z 11003KT 6000 NSC 15/14 Q1017 NOSIG=
201103151600 METAR LMML NIL=
201103151545 METAR LMML 151545Z 12004KT 080V140 6000 NSC 15/14 Q1017 NOSIG=
201103151530 METAR LMML NIL=
201103151515 METAR LMML 151515Z 07003KT 6000 NSC 16/14 Q1017 NOSIG=
201103151500 METAR LMML NIL=
201103151445 METAR LMML 151445Z 08004KT 040V110 6000 NSC 16/14 Q1017 NOSIG
                        RMK DUST=
201103151430 METAR LMML NIL=
201103151415 METAR LMML 151415Z 07004KT 010V110 6000 NSC 16/14 Q1017 NOSIG
                        RMK DUST=
201103151400 METAR LMML NIL=
201103151345 METAR LMML 151345Z 09006KT 6000 NSC 17/14 Q1016 NOSIG RMK
                        DUST HAZE=
201103151330 METAR LMML NIL=
201103151315 METAR LMML 151315Z 09004KT 060V140 6000 NSC 17/14 Q1017 NOSIG
                        RMK DUST=
201103151300 METAR LMML NIL=
201103151245 METAR LMML 151245Z 07003KT 6000 NSC 17/14 Q1017 NOSIG RMK
                        DUST HAZE=
201103151230 METAR LMML NIL=
201103151215 METAR LMML 151215Z 09003KT 6000 NSC 17/14 Q1017 NOSIG RMK
                        DUST HAZE=
201103151200 METAR LMML NIL=
201103151145 METAR LMML 151145Z 10006KT 060V130 6000 NSC 17/14 Q1017 NOSIG=
201103151115 METAR LMML 151115Z 07004KT 030V120 6000 NSC 18/14 Q1018 NOSIG=
201103151100 METAR LMML NIL=
201103151045 METAR LMML 151045Z 04004KT 010V100 4500 HZ NSC 19/14 Q1017
                        BECMG 6000=
201103151030 METAR LMML NIL=
201103151015 METAR LMML 151015Z 03004KT 350V070 4000 HZ NSC 19/15 Q1018
                        BECMG 6000=
201103151000 METAR LMML NIL=
201103150945 METAR LMML 150945Z VRB02KT 4000 HZ NSC 18/15 Q1018 BECMG
                        6000=
201103150930 METAR LMML NIL=
201103150915 METAR LMML 150915Z VRB01KT 4000 HZ NSC 17/14 Q1018 BECMG
                        6000=
201103150900 METAR LMML NIL=
201103150845 METAR LMML 150845Z 00000KT 3000 BR NSC 17/16 Q1018 BECMG
                        5000 BR=
201103150830 METAR LMML NIL=
201103150815 METAR LMML 150815Z VRB01KT 2000 BR FEW011 SCT120 BKN250 15/15
                        Q1017 BECMG 3000 BR=
201103150800 METAR LMML NIL=
201103150745 METAR LMML 150745Z 09003KT 1500 BR NSC 15/15 Q1017 BECMG
                        3000 BR=
201103150730 METAR LMML NIL=
201103150715 METAR LMML 150715Z VRB02KT 0900 R13/P1500N FG NSC 13/13 Q1017
                        BECMG 1500 BR FEW005=
201103150700 METAR LMML NIL=
201103150645 METAR LMML 150645Z VRB01KT 0700 R13/P1500N FG NSC 12/12 Q1017
                        BECMG 0800 BCFG FEW005=
201103150630 METAR LMML NIL=
201103150615 METAR LMML 150615Z VRB01KT 0700 R13/P1500N FG NSC 12/12 Q1017
                        BECMG 0800 BCFG=
201103150600 METAR LMML NIL=
201103150545 METAR LMML 150545Z VRB02KT 0500 R13/0534V0822N FG NSC 11/11
                        Q1016 TEMPO 0150 FG=
201103150530 METAR LMML NIL=
201103150515 METAR LMML 150515Z VRB02KT 0500 R13/0689VP1500U FG NSC 11/11
                        Q1016 TEMPO 0150 FG=
201103150506 SPECI LMML 150506Z VRB02KT 0500 R13/0836VP1500D FG NSC 11/11
                        Q1016 NOSIG=
201103150500 METAR LMML NIL=
201103150445 METAR LMML 150445Z VRB02KT 2000 DU NSC 12/12 Q1016 NOSIG=
201103150430 METAR LMML NIL=
201103150415 METAR LMML 150415Z VRB02KT 3000 DU NSC 12/12 Q1016 NOSIG=
201103150400 METAR LMML NIL=
201103150345 METAR LMML 150345Z 14003KT 3000 DU NSC 13/13 Q1016 NOSIG=
201103150330 METAR LMML NIL=
201103150315 METAR LMML 150315Z 15005KT 120V180 4000 DU NSC 13/13 Q1016
                        NOSIG=
201103150300 METAR LMML NIL=
201103150245 METAR LMML 150245Z 14006KT 4000 DU NSC 13/13 Q1016 NOSIG=
201103150230 METAR LMML NIL=
201103150215 METAR LMML 150215Z 13006KT 4000 DU NSC 13/13 Q1016 NOSIG=
201103150200 METAR LMML NIL=
201103150145 METAR LMML 150145Z 13007KT 4000 HZ NSC 13/13 Q1016 NOSIG=
201103150130 METAR LMML NIL=
201103150115 METAR LMML 150115Z 13006KT 4000 BR NSC 13/13 Q1016 NOSIG=
201103150100 METAR LMML NIL=
201103150045 METAR LMML 150045Z 12007KT 4000 BR NSC 13/13 Q1017 NOSIG=
201103150030 METAR LMML NIL=
201103150015 METAR LMML 150015Z 14007KT 5000 BR NSC 14/13 Q1017 NOSIG=
201103150000 METAR LMML NIL=
201103142345 METAR LMML 142345Z 12009KT 5000 BR NSC 14/13 Q1017 NOSIG=
201103142330 METAR LMML NIL=
201103142315 METAR LMML 142315Z 13008KT 5000 BR NSC 14/13 Q1017 NOSIG=
201103142300 METAR LMML NIL=
201103142245 METAR LMML 142245Z 14009KT 6000 NSC 14/13 Q1017 TEMPO 5000=
201103142230 METAR LMML NIL=
201103142215 METAR LMML 142215Z 14010KT 6000 NSC 14/13 Q1017 TEMPO 5000=
201103142200 METAR LMML NIL=
201103142145 METAR LMML 142145Z 13009KT 7000 NSC 14/13 Q1017 TEMPO 5000=
201103142130 METAR LMML NIL=
201103142115 METAR LMML 142115Z 14010KT 8000 NSC 14/13 Q1017 TEMPO 5000=
201103142100 METAR LMML NIL=
201103142045 METAR LMML 142045Z 13011KT 9000 NSC 14/13 Q1017 NOSIG=
201103142030 METAR LMML NIL=
201103142015 METAR LMML 142015Z 13012KT 9000 NSC 14/13 Q1017 NOSIG=
201103142000 METAR LMML NIL=
201103141945 METAR LMML 141945Z 13011KT 9000 NSC 14/13 Q1017 NOSIG=
201103141930 METAR LMML NIL=
201103141915 METAR LMML 141915Z 13012KT 9000 NSC 14/13 Q1017 NOSIG=
201103141900 METAR LMML NIL=
201103141845 METAR LMML 141845Z 13013KT 9000 NSC 14/13 Q1016 NOSIG=
201103141830 METAR LMML NIL=
201103141815 METAR LMML 141815Z 12011KT 9000 NSC 14/13 Q1016 NOSIG=
201103141800 METAR LMML NIL=
201103141745 METAR LMML 141745Z 12012KT 9000 NSC 14/13 Q1016 NOSIG=
201103141730 METAR LMML NIL=
201103141715 METAR LMML 141715Z 12012KT 9000 NSC 14/13 Q1016 NOSIG=
201103141700 METAR LMML NIL=
201103141645 METAR LMML 141645Z 12012KT 9000 NSC 15/13 Q1016 NOSIG=
201103141630 METAR LMML NIL=
201103141615 METAR LMML 141615Z 12014KT 9000 NSC 15/13 Q1016 NOSIG=
201103141600 METAR LMML NIL=
201103141545 METAR LMML 141545Z 12014KT 9000 NSC 15/13 Q1016 NOSIG=
201103141530 METAR LMML NIL=
201103141515 METAR LMML 141515Z 12015KT 9000 NSC 16/13 Q1016 NOSIG=
201103141445 METAR LMML 141445Z 12015KT 090V150 9000 NSC 17/14 Q1016 NOSIG=
201103141430 METAR LMML NIL=
201103141415 METAR LMML 141415Z 12015KT 9000 NSC 16/13 Q1016 NOSIG=
201103141345 METAR LMML 141345Z 12016KT 9000 NSC 17/14 Q1016 NOSIG=
201103141330 METAR LMML NIL=
201103141315 METAR LMML 141315Z 12016KT 9000 NSC 16/13 Q1016 NOSIG=
201103141300 METAR LMML NIL=
201103141245 METAR LMML 141245Z 12017KT 9000 NSC 17/14 Q1016 NOSIG=
201103141230 METAR LMML NIL=
201103141215 METAR LMML 141215Z 12016KT 9000 NSC 17/14 Q1016 NOSIG=
201103141200 METAR LMML NIL=
201103141145 METAR LMML 141145Z 12017KT 9000 NSC 17/14 Q1017 NOSIG=
201103141130 METAR LMML NIL=
201103141115 METAR LMML 141115Z 12015KT 9000 NSC 17/14 Q1017 NOSIG=
201103141100 METAR LMML NIL=
201103141045 METAR LMML 141045Z 12016KT 9000 NSC 17/14 Q1017 NOSIG=
201103141030 METAR LMML NIL=
201103141015 METAR LMML 141015Z 12016KT 9000 NSC 17/13 Q1017 NOSIG=
201103141000 METAR LMML NIL=
201103140945 METAR LMML 140945Z 12015KT 9000 NSC 16/14 Q1017 NOSIG=
201103140930 METAR LMML NIL=
201103140915 METAR LMML 140915Z 12013KT 9000 NSC 16/13 Q1018 NOSIG=
201103140900 METAR LMML NIL=
201103140845 METAR LMML 140845Z 12015KT 9000 NSC 16/13 Q1017 NOSIG=
201103140830 METAR LMML NIL=
201103140815 METAR LMML 140815Z 12014KT 9000 NSC 16/13 Q1018 NOSIG=
201103140745 METAR LMML 140745Z 12013KT 9000 NSC 16/13 Q1017 NOSIG=
201103140730 METAR LMML NIL=
201103140715 METAR LMML 140715Z 12012KT 9000 NSC 15/13 Q1017 NOSIG=
201103140700 METAR LMML NIL=
201103140645 METAR LMML 140645Z 12012KT 9000 NSC 15/13 Q1017 NOSIG=
201103140615 METAR LMML 140615Z 11011KT 9000 NSC 14/13 Q1016 NOSIG=
201103140600 METAR LMML NIL=
201103140545 METAR LMML 140545Z 12009KT 9000 NSC 13/12 Q1017 NOSIG=
201103140530 METAR LMML NIL=
201103140515 METAR LMML 140515Z 12009KT 9000 NSC 13/12 Q1017 NOSIG=
201103140500 METAR LMML NIL=
201103140445 METAR LMML 140445Z 12009KT 9000 NSC 13/12 Q1017 NOSIG=
201103140430 METAR LMML NIL=
201103140415 METAR LMML 140415Z 12009KT 9000 NSC 13/12 Q1017 NOSIG=
201103140400 METAR LMML NIL=
201103140345 METAR LMML 140345Z 13009KT 9000 NSC 13/12 Q1017 NOSIG=
201103140330 METAR LMML NIL=
201103140315 METAR LMML 140315Z 13010KT 9000 NSC 13/12 Q1017 NOSIG=
201103140300 METAR LMML NIL=
201103140245 METAR LMML 140245Z 13010KT 9000 NSC 13/12 Q1016 NOSIG=
201103140230 METAR LMML NIL=
201103140215 METAR LMML 140215Z 14009KT 9000 NSC 13/12 Q1017 NOSIG=
201103140200 METAR LMML NIL=
201103140145 METAR LMML 140145Z 14010KT 9000 NSC 13/12 Q1017 NOSIG=
201103140130 METAR LMML NIL=
201103140115 METAR LMML 140115Z 13011KT 9000 NSC 13/12 Q1017 NOSIG=
201103140100 METAR LMML NIL=
201103140045 METAR LMML 140045Z 14010KT 110V170 9000 NSC 13/12 Q1017 NOSIG=
201103140030 METAR LMML NIL=
201103140015 METAR LMML 140015Z 14010KT 9000 NSC 13/12 Q1017 NOSIG=
201103140000 METAR LMML NIL=
201103132345 METAR LMML 132345Z 14011KT 9000 NSC 13/12 Q1017 NOSIG=
201103132330 METAR LMML NIL=
201103132315 METAR LMML 132315Z 14011KT 9000 NSC 13/12 Q1017 NOSIG=
201103132245 METAR LMML 132245Z 14013KT 9000 NSC 14/12 Q1017 NOSIG=
201103132230 METAR LMML NIL=
201103132215 METAR LMML 132215Z 14012KT 9000 NSC 13/12 Q1017 NOSIG=
201103132200 METAR LMML NIL=
201103132145 METAR LMML 132145Z 14012KT 9000 NSC 14/12 Q1017 NOSIG=
201103132130 METAR LMML NIL=
201103132115 METAR LMML 132115Z 14012KT 9000 NSC 13/12 Q1017 NOSIG=
201103132100 METAR LMML NIL=
201103132045 METAR LMML 132045Z 13012KT 9000 NSC 13/12 Q1017 NOSIG=
201103132030 METAR LMML NIL=
201103132015 METAR LMML 132015Z 13012KT 9000 NSC 13/12 Q1017 NOSIG=
201103132000 METAR LMML NIL=
201103131945 METAR LMML 131945Z 13011KT 9000 NSC 13/12 Q1017 NOSIG=
201103131930 METAR LMML NIL=
201103131915 METAR LMML 131915Z 14012KT 9000 NSC 13/12 Q1016 NOSIG=
201103131900 METAR LMML NIL=
201103131845 METAR LMML 131845Z 14011KT 9000 NSC 14/12 Q1016 NOSIG=
201103131830 METAR LMML NIL=
201103131815 METAR LMML 131815Z 14011KT 5000 HZ NSC 14/12 Q1016 NOSIG=
201103131800 METAR LMML NIL=
201103131745 METAR LMML 131745Z 14011KT 5000 NSC 13/12 Q1016 NOSIG=
201103131730 METAR LMML NIL=
201103131715 METAR COR LMML 131715Z 13008KT 5000 HZ NSC 13/13 Q1016 NOSIG=
201103131700 METAR LMML NIL=
201103131645 METAR LMML 131645Z 13011KT 6000 NSC 14/12 Q1015 NOSIG=
201103131630 METAR LMML NIL=
201103131615 METAR LMML 131615Z 13011KT 9000 NSC 15/12 Q1015 NOSIG=
201103131600 METAR LMML NIL=
201103131545 METAR LMML 131545Z 14010KT 9000 NSC 15/12 Q1015 NOSIG=
201103131530 METAR LMML NIL=
201103131515 METAR LMML 131515Z 14011KT 110V170 9000 NSC 15/12 Q1015 NOSIG=
201103131500 METAR LMML NIL=
201103131445 METAR LMML 131445Z 15012KT 9999 FEW031 BKN060 BKN120 15/12
                        Q1015 NOSIG=
201103131430 METAR LMML NIL=
201103131415 METAR LMML 131415Z 16013KT 130V190 9999 FEW031 BKN060 BKN150
                        15/12 Q1015 NOSIG=
201103131400 METAR LMML NIL=
201103131345 METAR LMML 131345Z 16012KT 9000 SCT031 BKN050 OVC150 15/13
                        Q1015 NOSIG=
201103131330 METAR LMML NIL=
201103131315 METAR LMML 131315Z 15012KT 120V190 8000 BKN029 OVC150 14/13
                        Q1015 TEMPO 4000 RA BKN012=
201103131300 METAR LMML NIL=
201103131245 METAR LMML 131245Z 15012KT 120V180 7000 -RA BKN024 OVC150
                        13/12 Q1015 TEMPO 4000 RA BKN012=
201103131230 METAR LMML NIL=
201103131215 METAR LMML 131215Z 16016KT 120V190 5000 -RA BKN013 OVC150
                        13/12 Q1014 TEMPO 4000 RA BKN012=
201103131200 METAR LMML NIL=
201103131145 METAR LMML 131145Z 16014KT 130V200 5000 -RA SCT017 SCT060
                        OVC150 14/12 Q1015 NOSIG=
201103131130 METAR LMML NIL=
201103131115 METAR LMML 131115Z 15015KT 4500 -RA FEW034 OVC150 14/12 Q1015
                        NOSIG=
201103131100 METAR LMML NIL=
201103131045 METAR LMML 131045Z 15014KT 4500 -RA SCT034 OVC150 14/13 Q1015
                        RERA NOSIG=
201103131030 METAR LMML NIL=
201103131015 METAR LMML 131015Z 15015KT 120V180 4500 -RA SCT035 SCT080
                        OVC150 14/12 Q1016 RERA NOSIG=
201103131000 METAR LMML NIL=
201103130945 METAR LMML 130945Z 15015G25KT 120V180 4500 RA FEW013 SCT040
                        OVC150 14/13 Q1016 TEMPO 4000 RA
                        SCT008 BKN035=
201103130930 METAR LMML NIL=
201103130915 METAR LMML 130915Z 15016KT 120V180 4500 RA FEW013 BKN080
                        OVC150 13/13 Q1016 TEMPO 4000 RA
                        SCT008 BKN035=
201103130902 SPECI LMML 130902Z 15017KT 120V180 5000 RA FEW018 SCT060
                        OVC150 13/12 Q1016 NOSIG=
201103130900 METAR LMML NIL=
201103130845 METAR LMML 130845Z 15018KT 120V180 6000 RA NSC 13/12 Q1016
                        TEMPO 5000 RA=
201103130830 METAR LMML NIL=
201103130815 METAR LMML 130815Z 16018KT 130V190 9000 -RA NSC 14/12 Q1016
                        TEMPO 5000 RA=
201103130800 METAR LMML NIL=
201103130745 METAR LMML 130745Z 15020KT 120V180 9000 -RA NSC 14/12 Q1016
                        TEMPO 5000 RA=
201103130730 METAR LMML NIL=
201103130715 METAR LMML 130715Z 15019KT 9000 NSC 14/12 Q1015 TEMPO 5000
                        RA=
201103130700 METAR LMML NIL=
201103130645 METAR LMML 130645Z 14019G29KT 7000 -RA FEW035 SCT070 OVC150
                        13/11 Q1015 TEMPO 5000 RA=
201103130630 METAR LMML NIL=
201103130615 METAR LMML 130615Z 14018KT 6000 -RA FEW035 BKN050 OVC150
                        13/11 Q1015 TEMPO 5000 RA=
201103130600 METAR LMML NIL=
201103130545 METAR LMML 130545Z 14019KT 7000 -RA FEW034 BKN070 13/11 Q1015
                        NOSIG=
201103130530 METAR LMML NIL=
201103130515 METAR LMML 130515Z 14017KT 7000 -RA FEW034 BKN080 13/11 Q1015
                        NOSIG=
201103130500 METAR LMML NIL=
201103130445 METAR LMML 130445Z 14018G30KT 110V170 7000 -RA FEW039 BKN080
                        13/11 Q1015 NOSIG=
201103130430 METAR LMML NIL=
201103130415 METAR LMML 130415Z 14019KT 110V170 7000 -RA FEW040 BKN070
                        13/11 Q1015 NOSIG=
201103130345 METAR LMML 130345Z 14019KT 110V170 7000 -RA SCT036 BKN090
                        13/11 Q1015 NOSIG=
201103130330 METAR LMML NIL=
201103130315 METAR LMML 130315Z 14018KT 9000 -RA FEW035 BKN090 13/11 Q1015
                        NOSIG=
201103130300 METAR LMML NIL=
201103130245 METAR LMML 130245Z 14017KT 110V170 9999 SCT037 BKN080 13/11
                        Q1016 NOSIG=
201103130230 METAR LMML NIL=
201103130215 METAR LMML 130215Z 15015KT 9999 -RA FEW037 BKN085 13/11 Q1017
                        NOSIG=
201103130200 METAR LMML NIL=
201103130145 METAR LMML 130145Z 15017KT 110V170 9999 -RA FEW035 BKN085
                        13/11 Q1017 NOSIG=
201103130130 METAR LMML NIL=
201103130115 METAR LMML 130115Z 14020KT 9999 -RA FEW017 BKN100 13/10 Q1016
                        NOSIG=
201103130100 METAR LMML NIL=
201103130045 METAR LMML 130045Z 14016KT 9999 FEW018 SCT080 BKN100 13/11
                        Q1017 NOSIG=
201103130030 METAR LMML NIL=
201103130015 METAR LMML 130015Z 14016KT 9999 -RA FEW020 SCT047 BKN120
                        13/11 Q1018 NOSIG=
201103130000 METAR LMML NIL=
201103122345 METAR LMML 122345Z 14018KT 120V180 9999 FEW019 BKN120 14/10
                        Q1017 NOSIG=
201103122330 METAR LMML NIL=
201103122315 METAR LMML 122315Z 13017KT CAVOK 13/11 Q1018 TEMPO 9999 FEW020=
201103122300 METAR LMML NIL=
201103122245 METAR LMML 122245Z 14015KT 110V170 9999 FEW017 BKN120 13/11
                        Q1018 NOSIG=
201103122230 METAR LMML NIL=
201103122215 METAR LMML 122215Z 14018KT 9999 FEW020 BKN120 13/11 Q1018
                        NOSIG=
201103122200 METAR LMML NIL=
201103122145 METAR LMML 122145Z 14018KT 110V170 9999 FEW023 BKN033 BKN120
                        14/11 Q1019 NOSIG=
201103122130 METAR LMML NIL=
201103122115 METAR LMML 122115Z 14016KT 9999 FEW025 SCT033 BKN120 13/11
                        Q1019 NOSIG=
201103122100 METAR LMML NIL=
201103122045 METAR LMML 122045Z 13015KT 9999 FEW026 SCT034 BKN120 13/10
                        Q1019 NOSIG=
201103122030 METAR LMML NIL=
201103122015 METAR LMML 122015Z 14014KT 9999 FEW033 SCT120 BKN250 13/10
                        Q1020 NOSIG=
201103122000 METAR LMML NIL=
201103121945 METAR LMML 121945Z 14015KT 9999 FEW030 SCT120 BKN250 13/10
                        Q1020 NOSIG=
201103121930 METAR LMML NIL=
201103121915 METAR LMML 121915Z 13014KT 110V170 9999 FEW030 SCT120 BKN250
                        13/09 Q1020 NOSIG=
201103121900 METAR LMML NIL=
201103121845 METAR LMML 121845Z 15011KT 110V180 9999 FEW027 SCT035 BKN250
                        13/08 Q1021 NOSIG=
201103121830 METAR LMML NIL=
201103121815 METAR LMML 121815Z 16013KT 130V190 9999 BKN027 SCT250 13/09
                        Q1021 NOSIG=
201103121800 METAR LMML NIL=
201103121745 METAR LMML 121745Z 16012KT 120V180 9999 BKN029 SCT250 13/09
                        Q1021 NOSIG=
201103121730 METAR LMML NIL=
201103121715 METAR LMML 121715Z 15012KT 120V180 9999 BKN028 BKN250 13/09
                        Q1020 NOSIG=
201103121700 METAR LMML NIL=
201103121645 METAR LMML 121645Z 14013KT 110V180 9999 BKN032 BKN250 13/08
                        Q1020 NOSIG=
201103121630 METAR LMML NIL=
201103121615 METAR LMML 121615Z 14014KT 9999 SCT033 BKN250 13/08 Q1020
                        NOSIG=
201103121600 METAR LMML NIL=
201103121545 METAR LMML 121545Z 14015KT 100V170 9999 FEW028 BKN250 14/08
                        Q1020 NOSIG=
201103121530 METAR LMML NIL=
201103121515 METAR LMML 121515Z 15014KT 110V180 9999 FEW027 SCT037 BKN250
                        14/08 Q1020 NOSIG=
201103121500 METAR LMML NIL=
201103121445 METAR LMML 121445Z 14014KT 110V170 9999 FEW024 BKN036 14/10
                        Q1021 NOSIG=
201103121430 METAR LMML NIL=
201103121415 METAR LMML 121415Z 14015KT 9999 FEW027 BKN038 14/09 Q1021
                        NOSIG=
201103121400 METAR LMML NIL=
201103121345 METAR LMML 121345Z 14014KT 9999 FEW025 BKN039 15/09 Q1021
                        NOSIG=
201103121330 METAR LMML NIL=
201103121315 METAR LMML 121315Z 14014KT 120V180 9999 BKN037 15/09 Q1021
                        NOSIG=
201103121300 METAR LMML NIL=
201103121245 METAR LMML 121245Z 13015KT 9999 BKN036 14/08 Q1022 NOSIG=
201103121230 METAR LMML NIL=
201103121215 METAR LMML 121215Z 13016KT 100V160 9999 BKN036 14/08 Q1022
                        NOSIG=
201103121200 METAR LMML NIL=
201103121145 METAR LMML 121145Z 14013KT 110V180 9999 BKN037 SCT120 15/08
                        Q1023 NOSIG=
201103121130 METAR LMML NIL=
201103121115 METAR LMML 121115Z 14013KT 120V180 9999 SCT034 SCT120 15/07
                        Q1023 NOSIG=
201103121100 METAR LMML NIL=
201103121045 METAR LMML 121045Z 15012KT 120V180 9999 BKN034 14/07 Q1024
                        NOSIG=
201103121030 METAR LMML NIL=
201103121015 METAR LMML 121015Z 15012KT 110V180 9999 BKN034 14/07 Q1024
                        NOSIG=
201103121000 METAR LMML NIL=
201103120945 METAR LMML 120945Z 15013KT 120V180 9999 BKN034 14/06 Q1024
                        NOSIG=
201103120930 METAR LMML NIL=
201103120915 METAR LMML 120915Z 15012KT 110V180 9999 BKN033 14/06 Q1024
                        NOSIG=
201103120900 METAR LMML NIL=
201103120845 METAR LMML 120845Z 14012KT 110V170 9999 BKN033 13/06 Q1024
                        NOSIG=
201103120830 METAR LMML NIL=
201103120815 METAR LMML 120815Z 13011KT 9999 BKN033 13/07 Q1024 NOSIG=
201103120800 METAR LMML NIL=
201103120745 METAR LMML 120745Z 13012KT 100V170 9999 BKN031 12/07 Q1023
                        NOSIG=
201103120730 METAR LMML NIL=
201103120715 METAR LMML 120715Z 13008KT 110V170 9999 SCT030 11/07 Q1024
                        NOSIG=
201103120700 METAR LMML NIL=
201103120645 METAR LMML 120645Z 13010KT 9999 FEW029 11/07 Q1023 NOSIG=
201103120630 METAR LMML NIL=
201103120615 METAR LMML 120615Z 13007KT 100V160 9999 FEW030 10/07 Q1023
                        NOSIG=
201103120600 METAR LMML NIL=
201103120545 METAR LMML 120545Z 12006KT 9999 FEW030 08/06 Q1024 NOSIG=
201103120530 METAR LMML NIL=
201103120515 METAR LMML 120515Z 12006KT 9999 FEW031 07/05 Q1024 NOSIG=
201103120500 METAR LMML NIL=
201103120445 METAR LMML 120445Z 12005KT 9999 FEW031 08/06 Q1024 NOSIG=
201103120430 METAR LMML NIL=
201103120415 METAR LMML 120415Z 11006KT 9999 FEW030 08/05 Q1023 NOSIG=
201103120400 METAR LMML NIL=
201103120345 METAR LMML 120345Z 11005KT 9999 FEW031 07/05 Q1023 NOSIG=
201103120330 METAR LMML NIL=
201103120315 METAR LMML 120315Z 12005KT 9999 FEW031 08/05 Q1023 NOSIG=
201103120300 METAR LMML NIL=
201103120245 METAR LMML 120245Z 12004KT 9999 FEW031 08/05 Q1023 NOSIG=
201103120230 METAR LMML NIL=
201103120215 METAR LMML 120215Z 12005KT 9999 FEW031 07/05 Q1023 NOSIG=
201103120200 METAR LMML NIL=
201103120145 METAR LMML 120145Z 12004KT 9999 FEW032 08/04 Q1024 NOSIG=
201103120115 METAR LMML 120115Z 12004KT 9999 FEW032 08/05 Q1024 NOSIG=
201103120100 METAR LMML NIL=
201103120045 METAR LMML 120045Z 13004KT 9999 FEW031 08/05 Q1024 NOSIG=
201103120030 METAR LMML NIL=
201103120015 METAR LMML 120015Z 13003KT 9999 FEW031 08/05 Q1025 NOSIG=
201103120000 METAR LMML NIL=
201103112345 METAR LMML 112345Z 14003KT 9999 FEW030 08/04 Q1025 NOSIG=
201103112330 METAR LMML NIL=
201103112315 METAR LMML 112315Z 14003KT 9999 FEW030 08/05 Q1025 NOSIG=
201103112300 METAR LMML NIL=
201103112245 METAR LMML 112245Z 13003KT 9999 FEW030 08/05 Q1025 NOSIG=
201103112230 METAR LMML NIL=
201103112215 METAR LMML 112215Z 13003KT 9999 FEW030 09/05 Q1025 NOSIG=
201103112200 METAR LMML NIL=
201103112145 METAR LMML 112145Z VRB02KT 9999 FEW030 08/05 Q1025 NOSIG=
201103112130 METAR LMML NIL=
201103112115 METAR LMML 112115Z 16003KT 9999 FEW030 09/05 Q1024 NOSIG=
201103112100 METAR LMML NIL=
201103112045 METAR LMML 112045Z 15003KT 9999 FEW030 09/05 Q1024 NOSIG=
201103112015 METAR LMML 112015Z VRB02KT CAVOK 09/05 Q1024 NOSIG=
201103112000 METAR LMML NIL=
201103111945 METAR LMML 111945Z 15003KT 9999 FEW032 09/05 Q1024 NOSIG=
201103111930 METAR LMML NIL=
201103111915 METAR LMML 111915Z 15003KT 9999 FEW032 10/05 Q1024 NOSIG=
201103111900 METAR LMML NIL=
201103111845 METAR LMML 111845Z 16004KT 9999 FEW032 10/05 Q1024 NOSIG=
201103111830 METAR LMML NIL=
201103111815 METAR LMML 111815Z 16004KT 9999 FEW032 10/05 Q1024 NOSIG=
201103111800 METAR LMML NIL=
201103111745 METAR LMML 111745Z 15003KT 9999 FEW030 10/05 Q1024 NOSIG=
201103111730 METAR LMML NIL=
201103111715 METAR LMML 111715Z 15004KT 110V170 9999 FEW030 11/06 Q1023
                        NOSIG=
201103111700 METAR LMML NIL=
201103111645 METAR LMML 111645Z 13005KT 9999 FEW030 11/05 Q1023 NOSIG=
201103111630 METAR LMML NIL=
201103111615 METAR LMML 111615Z 13005KT 9999 FEW030 12/04 Q1023 NOSIG=
201103111545 METAR LMML 111545Z 11003KT 9999 FEW030 13/05 Q1023 NOSIG=
201103111530 METAR LMML NIL=
201103111515 METAR LMML 111515Z VRB02KT 9999 FEW030 15/04 Q1023 NOSIG=
201103111500 METAR LMML NIL=
201103111445 METAR LMML 111445Z 04004KT 360V080 9999 FEW030 SCT039 13/04
                        Q1023 NOSIG=
201103111430 METAR LMML NIL=
201103111415 METAR LMML 111415Z 36004G15KT 210V090 9999 FEW030 SCT037
                        13/05 Q1023 NOSIG=
201103111400 METAR LMML NIL=
201103111345 METAR LMML 111345Z 01004KT 310V220 9999 FEW030 SCT036 13/05
                        Q1023 NOSIG=
201103111330 METAR LMML NIL=
201103111315 METAR LMML 111315Z 35004KT 310V020 9999 FEW030 SCT038 13/05
                        Q1024 NOSIG=
201103111245 METAR LMML 111245Z 01005KT 330V050 9999 FEW030 SCT036 14/05
                        Q1024 NOSIG=
201103111230 METAR LMML NIL=
201103111215 METAR LMML 111215Z 05005KT 010V110 9999 FEW032 SCT045 14/05
                        Q1024 NOSIG=
201103111200 METAR LMML NIL=
201103111145 METAR LMML 111145Z 04007KT 270V070 9999 FEW032 BKN045 14/06
                        Q1024 NOSIG=
201103111130 METAR LMML NIL=
201103111115 METAR LMML 111115Z 01005KT 340V060 9999 FEW035 SCT045 14/05
                        Q1025 NOSIG=
201103111100 METAR LMML NIL=
201103111045 METAR LMML 111045Z 01004KT 340V050 9999 FEW035 SCT045 15/05
                        Q1025 NOSIG=
201103111030 METAR LMML NIL=
201103111015 METAR LMML 111015Z 36005KT 340V040 9999 FEW035 BKN045 15/05
                        Q1025 NOSIG=
201103111000 METAR LMML NIL=
201103110945 METAR LMML 110945Z 03005KT 320V080 9999 FEW035 BKN048 14/05
                        Q1025 NOSIG=
201103110930 METAR LMML NIL=
201103110915 METAR LMML 110915Z 06005KT 020V110 9999 FEW037 SCT046 14/04
                        Q1025 NOSIG=
201103110900 METAR LMML NIL=
201103110845 METAR LMML 110845Z 01005KT 330V060 9999 FEW030 14/04 Q1025
                        NOSIG=
201103110830 METAR LMML NIL=
201103110815 METAR LMML 110815Z 02003KT 9999 FEW030 14/05 Q1025 NOSIG=
201103110800 METAR LMML NIL=
201103110745 METAR LMML 110745Z VRB02KT 9999 FEW030 SCT048 12/05 Q1025
                        NOSIG=
201103110730 METAR LMML NIL=
201103110715 METAR LMML 110715Z 33003KT 9999 FEW030 BKN047 11/06 Q1024
                        NOSIG=
201103110700 METAR LMML NIL=
201103110645 METAR LMML 110645Z 32003KT 9999 FEW033 BKN043 10/06 Q1024
                        NOSIG=
201103110630 METAR LMML NIL=
201103110615 METAR LMML 110615Z 32004KT 9999 FEW030 BKN047 09/06 Q1024
                        NOSIG=
201103110545 METAR LMML 110545Z 27003KT 9999 FEW027 BKN047 09/05 Q1024
                        NOSIG=
201103110530 METAR LMML NIL=
201103110515 METAR LMML 110515Z VRB02KT 9999 FEW027 BKN045 08/05 Q1023
                        NOSIG=
201103110500 METAR LMML NIL=
201103110445 METAR LMML 110445Z VRB02KT 9999 FEW028 BKN041 08/06 Q1023
                        NOSIG=
201103110430 METAR LMML NIL=
201103110415 METAR LMML 110415Z 00000KT 9999 BKN027 08/06 Q1023 NOSIG=
201103110400 METAR LMML NIL=
201103110345 METAR LMML 110345Z VRB02KT 9999 BKN040 08/06 Q1023 NOSIG=
201103110330 METAR LMML NIL=
201103110315 METAR LMML 110315Z VRB01KT 9999 BKN038 07/05 Q1023 NOSIG=
201103110300 METAR LMML NIL=
201103110245 METAR LMML 110245Z VRB01KT 9999 BKN043 07/05 Q1023 NOSIG=
201103110230 METAR LMML NIL=
201103110215 METAR LMML 110215Z VRB01KT 9999 BKN048 06/04 Q1023 NOSIG=
201103110200 METAR LMML NIL=
201103110145 METAR LMML 110145Z VRB01KT CAVOK 06/04 Q1023 NOSIG=
201103110130 METAR LMML NIL=
201103110115 METAR LMML 110115Z VRB02KT CAVOK 05/03 Q1024 NOSIG=
201103110100 METAR LMML NIL=
201103110045 METAR LMML 110045Z 20003KT CAVOK 06/04 Q1024 NOSIG=
201103110030 METAR LMML NIL=
201103110015 METAR LMML 110015Z VRB01KT CAVOK 06/04 Q1024 NOSIG=
201103110000 METAR LMML NIL=
201103102345 METAR LMML 102345Z VRB01KT CAVOK 06/04 Q1024 NOSIG=
201103102330 METAR LMML NIL=
201103102315 METAR LMML 102315Z VRB01KT CAVOK 06/05 Q1024 NOSIG=
201103102300 METAR LMML NIL=
201103102245 METAR LMML 102245Z VRB01KT CAVOK 06/05 Q1024 NOSIG=
201103102230 METAR LMML NIL=
201103102215 METAR LMML 102215Z VRB01KT 9999 FEW040 06/05 Q1024 NOSIG=
201103102200 METAR LMML NIL=
201103102145 METAR LMML 102145Z VRB01KT CAVOK 07/05 Q1024 NOSIG=
201103102130 METAR LMML NIL=
201103102115 METAR LMML 102115Z 24003KT CAVOK 07/05 Q1024 NOSIG=
201103102100 METAR LMML NIL=
201103102045 METAR LMML 102045Z VRB02KT CAVOK 07/05 Q1024 NOSIG=
201103102030 METAR LMML NIL=
201103102015 METAR LMML 102015Z VRB01KT CAVOK 07/05 Q1024 NOSIG=
201103102000 METAR LMML NIL=
201103101945 METAR LMML 101945Z VRB01KT CAVOK 07/05 Q1024 NOSIG=
201103101930 METAR LMML NIL=
201103101915 METAR LMML 101915Z VRB01KT CAVOK 08/05 Q1024 NOSIG=
201103101900 METAR LMML NIL=
201103101845 METAR LMML 101845Z VRB01KT CAVOK 08/05 Q1024 NOSIG=
201103101830 METAR LMML NIL=
201103101815 METAR LMML 101815Z VRB02KT CAVOK 09/05 Q1024 NOSIG=
201103101800 METAR LMML NIL=
201103101745 METAR LMML 101745Z VRB02KT CAVOK 09/05 Q1024 NOSIG=
201103101730 METAR LMML NIL=
201103101715 METAR LMML 101715Z VRB02KT 9999 FEW025 SCT060 10/05 Q1023
                        NOSIG=
201103101700 METAR LMML NIL=
201103101645 METAR LMML 101645Z 15004KT 120V180 9999 FEW025 11/05 Q1023
                        NOSIG=
201103101630 METAR LMML NIL=
201103101615 METAR LMML 101615Z 15005KT 100V190 9999 FEW035 11/05 Q1023
                        NOSIG=
201103101600 METAR LMML NIL=
201103101545 METAR LMML 101545Z 16006KT 9999 FEW035 12/05 Q1023 NOSIG=
201103101530 METAR LMML NIL=
201103101515 METAR LMML 101515Z 15006KT 9999 FEW035 SCT060 12/05 Q1022
                        NOSIG=
201103101500 METAR LMML NIL=
201103101445 METAR LMML 101445Z 15005KT 110V190 CAVOK 11/04 Q1023 NOSIG=
201103101430 METAR LMML NIL=
201103101415 METAR LMML 101415Z 14006KT CAVOK 11/04 Q1023 NOSIG=
201103101400 METAR LMML NIL=
201103101345 METAR LMML 101345Z 13007KT 100V160 9999 FEW042 BKN060 12/04
                        Q1023 NOSIG=
201103101330 METAR LMML NIL=
201103101315 METAR LMML 101315Z 13007KT CAVOK 12/04 Q1023 NOSIG=
201103101300 METAR LMML NIL=
201103101245 METAR LMML 101245Z 12006KT 090V170 CAVOK 12/04 Q1023 NOSIG=
201103101215 METAR LMML 101215Z 12006KT 080V150 9999 FEW042 BKN050 12/04
                        Q1024 NOSIG=
201103101200 METAR LMML NIL=
201103101145 METAR LMML 101145Z 11005KT 080V150 9999 FEW042 BKN050 11/03
                        Q1024 NOSIG=
201103101130 METAR LMML NIL=
201103101115 METAR LMML 101115Z 07007KT 040V110 9999 FEW042 BKN050 12/04
                        Q1024 NOSIG=
201103101045 METAR LMML 101045Z 08006KT 040V140 CAVOK 12/03 Q1024 NOSIG=
201103101030 METAR LMML NIL=
201103101015 METAR LMML 101015Z 08005KT 020V130 CAVOK 12/04 Q1024 NOSIG=
201103101000 METAR LMML NIL=
201103100945 METAR LMML 100945Z 08007KT 040V120 CAVOK 12/04 Q1024 NOSIG=
201103100930 METAR LMML NIL=
201103100915 METAR LMML 100915Z 08006KT 040V120 CAVOK 11/03 Q1025 NOSIG=
201103100900 METAR LMML NIL=
201103100845 METAR LMML 100845Z 08007KT 060V130 CAVOK 11/04 Q1025 NOSIG=
201103100830 METAR LMML NIL=
201103100815 METAR LMML 100815Z 08006KT 050V120 CAVOK 11/04 Q1025 NOSIG=
201103100800 METAR LMML NIL=
201103100745 METAR LMML 100745Z 08004KT 030V100 CAVOK 10/04 Q1025 NOSIG=
201103100730 METAR LMML NIL=
201103100715 METAR LMML 100715Z 07003KT CAVOK 09/04 Q1024 NOSIG=
201103100700 METAR LMML NIL=
201103100645 METAR LMML 100645Z 06003KT CAVOK 09/04 Q1024 NOSIG=
201103100630 METAR LMML NIL=
201103100615 METAR LMML 100615Z 06003KT CAVOK 07/03 Q1024 NOSIG=
201103100545 METAR LMML 100545Z VRB02KT 9999 BKN049 06/03 Q1024 NOSIG=
201103100515 METAR LMML 100515Z VRB02KT 9999 BKN046 06/02 Q1024 NOSIG=
201103100500 METAR LMML NIL=
201103100445 METAR LMML 100445Z VRB02KT 9999 SCT049 05/02 Q1024 NOSIG=
201103100430 METAR LMML NIL=
201103100415 METAR LMML 100415Z VRB01KT 9999 SCT048 05/02 Q1023 NOSIG=
201103100400 METAR LMML NIL=
201103100345 METAR LMML 100345Z VRB02KT 9999 SCT049 05/01 Q1023 NOSIG=
201103100315 METAR LMML 100315Z 06004KT 9999 FEW049 05/02 Q1023 NOSIG=
201103100245 METAR LMML 100245Z VRB01KT 9999 FEW040 05/02 Q1023 NOSIG=
201103100230 METAR LMML NIL=
201103100215 METAR LMML 100215Z VRB01KT 9999 FEW040 04/02 Q1023 NOSIG=
201103100200 METAR LMML NIL=
201103100145 METAR LMML 100145Z 35003KT 9999 FEW030 04/01 Q1024 NOSIG=
201103100130 METAR LMML NIL=
201103100115 METAR LMML 100115Z VRB01KT 9999 FEW030 05/02 Q1024 NOSIG=
201103100100 METAR LMML NIL=
201103100045 METAR LMML 100045Z VRB01KT 9999 FEW030 05/02 Q1025 NOSIG=
201103100030 METAR LMML NIL=
201103100015 METAR LMML 100015Z VRB02KT 9999 FEW030 05/01 Q1025 NOSIG=
201103092345 METAR LMML 092345Z VRB02KT 9999 FEW030 06/02 Q1024 NOSIG=
201103092330 METAR LMML NIL=
201103092315 METAR LMML 092315Z VRB02KT 9999 FEW030 06/02 Q1024 NOSIG=
201103092300 METAR LMML NIL=
201103092245 METAR LMML 092245Z 11003KT 9999 FEW030 06/02 Q1024 NOSIG=
201103092230 METAR LMML NIL=
201103092215 METAR LMML 092215Z VRB01KT 9999 FEW030 06/02 Q1024 NOSIG=
201103092200 METAR LMML NIL=
201103092145 METAR LMML 092145Z VRB02KT 9999 FEW030 06/02 Q1024 NOSIG=
201103092115 METAR LMML 092115Z VRB02KT 9999 FEW040 06/02 Q1024 NOSIG=
201103092100 METAR LMML NIL=
201103092045 METAR LMML 092045Z VRB01KT 9999 FEW040 06/02 Q1025 NOSIG=
201103092030 METAR LMML NIL=
201103092015 METAR LMML 092015Z VRB01KT 9999 FEW040 06/02 Q1025 NOSIG=
201103092000 METAR LMML NIL=
201103091945 METAR LMML 091945Z 00000KT 9999 FEW040 06/03 Q1025 NOSIG=
201103091930 METAR LMML NIL=
201103091915 METAR LMML 091915Z VRB01KT 9999 FEW040 07/02 Q1024 NOSIG=
201103091900 METAR LMML NIL=
201103091845 METAR LMML 091845Z VRB01KT 9999 FEW040 07/02 Q1024 NOSIG=
201103091830 METAR LMML NIL=
201103091815 METAR LMML 091815Z VRB01KT 9999 FEW040 08/01 Q1024 NOSIG=
201103091800 METAR LMML NIL=
201103091745 METAR LMML 091745Z VRB02KT 9999 FEW040 08/01 Q1024 NOSIG=
201103091730 METAR LMML NIL=
201103091715 METAR LMML 091715Z 11003KT 9999 FEW040 08/01 Q1024 NOSIG=
201103091700 METAR LMML NIL=
201103091645 METAR LMML 091645Z 13004KT 9999 FEW040 SCT250 09/01 Q1023
                        NOSIG=
201103091630 METAR LMML NIL=
201103091615 METAR LMML 091615Z 14003KT CAVOK 10/01 Q1023 NOSIG=
201103091600 METAR LMML NIL=
201103091545 METAR LMML 091545Z 09005KT 040V150 CAVOK 11/01 Q1023 NOSIG=
201103091530 METAR LMML NIL=
201103091515 METAR LMML 091515Z 07004KT 010V110 CAVOK 11/00 Q1023 NOSIG=
201103091500 METAR LMML NIL=
201103091445 METAR LMML 091445Z 13005KT 090V180 9999 FEW043 SCT250 11/01
                        Q1023 NOSIG=
201103091430 METAR LMML NIL=
201103091415 METAR LMML 091415Z 09005KT 020V160 9999 FEW043 SCT250 11/01
                        Q1023 NOSIG=
201103091400 METAR LMML NIL=
201103091345 METAR LMML 091345Z 10005KT 360V150 9999 FEW043 SCT250 12/01
                        Q1024 NOSIG=
201103091315 METAR LMML 091315Z 11006KT 050V160 9999 FEW044 SCT250 12/01
                        Q1024 NOSIG=
201103091300 METAR LMML NIL=
201103091245 METAR LMML 091245Z 23004KT 9999 FEW044 SCT250 11/00 Q1024
                        NOSIG=
201103091230 METAR LMML NIL=
201103091215 METAR LMML 091215Z 13007KT 070V220 9999 FEW044 SCT250 11/00
                        Q1025 NOSIG=
201103091200 METAR LMML NIL=
201103091145 METAR LMML 091145Z 11007KT 070V160 9999 FEW046 SCT250 12/00
                        Q1025 NOSIG=
201103091115 METAR LMML 091115Z 12005KT 030V210 9999 FEW048 BKN250 11/00
                        Q1025 NOSIG=
201103091045 METAR LMML 091045Z 12007KT 070V170 9999 FEW048 BKN250 12/00
                        Q1026 NOSIG=
201103091015 METAR LMML 091015Z VRB02KT 9999 FEW047 BKN250 13/00 Q1026
                        NOSIG=
201103091000 METAR LMML NIL=
201103090945 METAR LMML 090945Z 10005KT 050V140 9999 FEW048 BKN250 11/M00
                        Q1026 NOSIG=
201103090930 METAR LMML NIL=
201103090915 METAR LMML 090915Z 10005KT 070V140 9999 SCT047 BKN250 10/00
                        Q1026 NOSIG=
201103090900 METAR LMML NIL=
201103090845 METAR LMML 090845Z 36005KT 9999 SCT048 BKN250 10/M01 Q1026
                        NOSIG=
201103090830 METAR LMML NIL=
201103090815 METAR LMML 090815Z 09005KT 060V120 9999 SCT049 BKN250 10/M02
                        Q1026 NOSIG=
201103090800 METAR LMML NIL=
201103090745 METAR LMML 090745Z 07006KT 010V100 9999 SCT049 BKN250 09/M00
                        Q1026 NOSIG=
201103090730 METAR LMML NIL=
201103090715 METAR LMML 090715Z 08006KT 9999 BKN049 BKN250 09/00 Q1026
                        NOSIG=
201103090700 METAR LMML NIL=
201103090645 METAR LMML 090645Z 08006G18KT 040V140 9999 BKN048 BKN250
                        09/M01 Q1026 NOSIG=
201103090630 METAR LMML NIL=
201103090615 METAR LMML 090615Z 08006KT 9999 BKN048 BKN250 08/M01 Q1025
                        NOSIG=
201103090600 METAR LMML NIL=
201103090545 METAR LMML 090545Z 08006KT 020V120 9999 BKN049 08/M00 Q1025
                        NOSIG=
201103090530 METAR LMML NIL=
201103090515 METAR LMML 090515Z 07005KT 9999 BKN048 08/00 Q1025 NOSIG=
201103090500 METAR LMML NIL=
201103090445 METAR LMML 090445Z 06006KT 020V100 9999 BKN045 08/M00 Q1025
                        NOSIG=
201103090430 METAR LMML NIL=
201103090415 METAR LMML 090415Z 05006KT 020V100 9999 BKN046 08/M00 Q1025
                        NOSIG=
201103090345 METAR LMML 090345Z 05005KT 9999 BKN042 08/00 Q1025 NOSIG=
201103090330 METAR LMML NIL=
201103090315 METAR LMML 090315Z 05008KT 030V090 9999 FEW037 BKN049 08/01
                        Q1025 NOSIG=
201103090300 METAR LMML NIL=
201103090245 METAR LMML 090245Z 04006KT 360V070 9999 SCT036 SCT050 08/01
                        Q1025 NOSIG=
201103090230 METAR LMML NIL=
201103090215 METAR LMML 090215Z 03006KT 360V060 9999 FEW036 SCT050 08/01
                        Q1025 NOSIG=
201103090200 METAR LMML NIL=
201103090145 METAR LMML 090145Z 04005KT 010V070 9999 FEW036 SCT056 08/01
                        Q1025 NOSIG=
201103090130 METAR LMML NIL=
201103090115 METAR LMML 090115Z 04005KT 360V080 9999 FEW038 BKN057 08/01
                        Q1026 NOSIG=
201103090045 METAR LMML 090045Z 04006KT 350V080 9999 FEW038 BKN056 08/01
                        Q1026 NOSIG=
201103090030 METAR LMML NIL=
201103090015 METAR LMML 090015Z VRB02KT 9999 FEW041 BKN051 07/01 Q1026
                        NOSIG=
201103090000 METAR LMML NIL=
201103082345 METAR LMML 082345Z VRB01KT 9999 FEW044 BKN055 06/00 Q1026
                        NOSIG=
201103082330 METAR LMML NIL=
201103082315 METAR LMML 082315Z VRB01KT 9999 BKN047 06/00 Q1027 NOSIG=
201103082300 METAR LMML NIL=
201103082245 METAR LMML 082245Z 06003KT CAVOK 07/M01 Q1027 NOSIG=
201103082215 METAR LMML 082215Z 07003KT CAVOK 07/M02 Q1027 NOSIG=
201103082145 METAR LMML 082145Z 09005KT 050V120 9999 SCT049 07/M02 Q1027
                        NOSIG=
201103082115 METAR COR LMML 082115Z 10004KT 070V140 CAVOK 06/M02 Q1028
                        NOSIG=
201103082100 METAR LMML NIL=
201103082045 METAR LMML 082045Z 05006KT 010V100 CAVOK 07/M03 Q1027 NOSIG=
201103082030 METAR LMML NIL=
201103082015 METAR LMML 082015Z 07004KT 040V100 CAVOK 07/M02 Q1027 NOSIG=
201103082000 METAR LMML NIL=
201103081945 METAR LMML 081945Z 05005KT 010V090 9999 FEW047 07/M02 Q1026
                        NOSIG=
201103081930 METAR LMML NIL=
201103081915 METAR LMML 081915Z 05006KT 020V100 9999 SCT048 07/M02 Q1026
                        NOSIG=
201103081900 METAR LMML NIL=
201103081845 METAR LMML 081845Z 04007KT 360V070 9999 SCT048 08/M02 Q1026
                        NOSIG=
201103081830 METAR LMML NIL=
201103081815 METAR LMML 081815Z 05007KT 010V090 9999 SCT049 08/M03 Q1026
                        NOSIG=
201103081745 METAR LMML 081745Z 04007KT 360V080 9999 SCT048 08/M02 Q1026
                        NOSIG=
201103081730 METAR LMML NIL=
201103081715 METAR LMML 081715Z 04007KT 010V080 9999 FEW049 08/M03 Q1026
                        NOSIG=
201103081700 METAR LMML NIL=
201103081645 METAR LMML 081645Z 04009KT 360V080 CAVOK 08/M03 Q1026 NOSIG=
201103081630 METAR LMML NIL=
201103081615 METAR LMML 081615Z 04008KT 010V100 CAVOK 09/M03 Q1025 NOSIG=
201103081600 METAR LMML NIL=
201103081545 METAR LMML 081545Z 03009KT 350V060 CAVOK 09/M04 Q1025 NOSIG=
201103081530 METAR LMML NIL=
201103081515 METAR LMML 081515Z 03011KT 360V060 CAVOK 10/M04 Q1025 NOSIG=
201103081500 METAR LMML NIL=
201103081445 METAR LMML 081445Z 03011KT 360V070 CAVOK 10/M03 Q1025 NOSIG=
201103081430 METAR LMML NIL=
201103081415 METAR LMML 081415Z 04012KT 360V070 CAVOK 10/M03 Q1025 NOSIG=
201103081400 METAR LMML NIL=
201103081345 METAR LMML 081345Z 03015KT 350V070 CAVOK 11/M03 Q1025 NOSIG=
201103081330 METAR LMML NIL=
201103081315 METAR LMML 081315Z 03014KT 360V060 CAVOK 11/M02 Q1025 NOSIG=
201103081245 METAR LMML 081245Z 03014KT 010V070 9999 SCT048 10/M02 Q1025
                        NOSIG=
201103081215 METAR LMML 081215Z 03015G26KT 360V070 9999 FEW049 11/M03
                        Q1025 NOSIG=
201103081145 METAR LMML 081145Z 03016G26KT CAVOK 11/M02 Q1025 NOSIG=
201103081115 METAR LMML 081115Z 03018G28KT 360V070 CAVOK 10/M04 Q1025
                        NOSIG=
201103081100 METAR LMML NIL=
201103081045 METAR LMML 081045Z 03017G27KT 010V080 9999 SCT045 10/M04
                        Q1026 NOSIG=
201103081030 METAR LMML NIL=
201103081015 METAR LMML 081015Z 03013G23KT 360V060 9999 SCT045 09/M02
                        Q1025 NOSIG=
201103081000 METAR LMML NIL=
201103080945 METAR LMML 080945Z 01015KT 9999 SCT045 09/M01 Q1026 NOSIG=
201103080930 METAR LMML NIL=
201103080915 METAR LMML 080915Z 02012KT 350V060 9999 SCT044 10/M01 Q1025
                        NOSIG=
201103080900 METAR LMML NIL=
201103080845 METAR LMML 080845Z 02016KT 350V060 9999 SCT045 09/M02 Q1025
                        NOSIG=
201103080830 METAR LMML NIL=
201103080815 METAR LMML 080815Z 02013KT 350V050 9999 SCT048 09/M02 Q1025
                        NOSIG=
201103080800 METAR LMML NIL=
201103080745 METAR LMML 080745Z 01015G31KT 9999 SCT049 08/M02 Q1025 NOSIG=
201103080730 METAR LMML NIL=
201103080715 METAR LMML 080715Z 01015G26KT 340V040 9999 FEW045 08/M03
                        Q1025 NOSIG=
201103080700 METAR LMML NIL=
201103080645 METAR LMML 080645Z 02012KT 350V060 9999 FEW045 07/M03 Q1025
                        NOSIG=
201103080630 METAR LMML NIL=
201103080615 METAR LMML 080615Z 02013G24KT 350V050 9999 FEW045 07/M03
                        Q1024 NOSIG=
201103080600 METAR LMML NIL=
201103080545 METAR LMML 080545Z 02012G24KT 9999 FEW043 SCT060 06/M02 Q1024
                        NOSIG=
201103080530 METAR LMML NIL=
201103080515 METAR LMML 080515Z 01012G23KT 9999 FEW046 BKN060 06/M01 Q1024
                        NOSIG=
201103080500 METAR LMML NIL=
201103080445 METAR LMML 080445Z 02012G23KT 360V070 9999 BKN044 07/M02
                        Q1023 NOSIG=
201103080430 METAR LMML NIL=
201103080415 METAR LMML 080415Z 03012G23KT 360V070 9999 BKN041 07/M01
                        Q1023 NOSIG=
201103080400 METAR LMML NIL=
201103080345 METAR LMML 080345Z 02012G22KT 9999 BKN045 08/00 Q1023 NOSIG=
201103080330 METAR LMML NIL=
201103080315 METAR LMML 080315Z 02011G24KT 9999 BKN040 08/00 Q1023 TEMPO
                        BKN015=
201103080300 METAR LMML NIL=
201103080245 METAR LMML 080245Z 03012KT 010V080 9999 BKN036 08/02 Q1022
                        TEMPO BKN015=
201103080230 METAR LMML NIL=
201103080215 METAR LMML 080215Z 03014KT 360V060 9999 FEW024 BKN045 09/03
                        Q1022 TEMPO BKN015=
201103080200 METAR LMML NIL=
201103080145 METAR LMML 080145Z 04012KT 010V070 9999 SCT025 BKN038 09/05
                        Q1022 TEMPO BKN015=
201103080130 METAR LMML NIL=
201103080115 METAR LMML 080115Z 04011KT 010V080 9999 SCT025 BKN042 09/05
                        Q1022 TEMPO BKN015=
201103080100 METAR LMML NIL=
201103080045 METAR LMML 080045Z 06010KT 020V090 9999 SCT016 BKN038 09/06
                        Q1022 TEMPO BKN015=
201103080030 METAR LMML NIL=
201103080015 METAR LMML 080015Z 07009KT 020V100 9999 FEW010 BKN017 09/07
                        Q1022 TEMPO BKN004=
201103072345 METAR LMML 072345Z 06010KT 030V090 9999 FEW010 BKN016 09/07
                        Q1022 TEMPO BKN004=
201103072315 METAR LMML 072315Z 06010KT 030V100 9000 SCT010 BKN016 09/07
                        Q1021 TEMPO BKN004=
201103072300 METAR LMML NIL=
201103072245 METAR LMML 072245Z 07011KT 040V110 5000 -RA FEW004 BKN014
                        09/09 Q1021 RERA TEMPO BKN004=
201103072230 METAR LMML NIL=
201103072215 METAR LMML 072215Z 08006KT 5000 -RA FEW005 BKN014 10/10 Q1021
                        RERA TEMPO BKN004=
201103072200 METAR LMML NIL=
201103072145 METAR LMML 072145Z 11009KT 9999 BKN017 11/09 Q1020 NOSIG=
201103072130 METAR LMML NIL=
201103072115 METAR LMML 072115Z 10005KT 070V130 9999 SCT022 BKN032 12/10
                        Q1020 NOSIG=
201103072100 METAR LMML NIL=
201103072045 METAR LMML 072045Z 12003KT 9999 SCT020 BKN036 12/10 Q1020
                        NOSIG=
201103072015 METAR LMML 072015Z 10006KT 070V140 9999 -RA FEW018 BKN035
                        12/09 Q1020 NOSIG=
201103072000 METAR LMML NIL=
201103071945 METAR LMML 071945Z 28004KT 9999 SCT019 12/09 Q1019 NOSIG/=
201103071930 METAR LMML NIL=
201103071915 METAR LMML 071915Z 31006KT 9999 FEW021 11/09 Q1019 NOSIG=
201103071900 METAR LMML NIL=
201103071845 METAR LMML 071845Z 31005KT 9999 FEW021 11/09 Q1019 NOSIG=
201103071830 METAR LMML NIL=
201103071815 METAR LMML 071815Z 32005KT 300V010 9999 FEW029 11/09 Q1019
                        NOSIG=
201103071800 METAR LMML NIL=
201103071745 METAR LMML 071745Z 32006KT 9999 FEW029 12/09 Q1019 NOSIG=
201103071730 METAR LMML NIL=
201103071715 METAR LMML 071715Z 32008KT 9999 FEW029 12/09 Q1019 NOSIG=
201103071645 METAR LMML 071645Z 33009KT 9999 FEW029 13/08 Q1019 NOSIG=
201103071630 METAR LMML NIL=
201103071615 METAR LMML 071615Z 32011KT 9999 FEW029 14/08 Q1019 NOSIG=
201103071600 METAR LMML NIL=
201103071545 METAR LMML 071545Z 31010KT 9999 FEW030 15/09 Q1019 NOSIG=
201103071530 METAR LMML NIL=
201103071515 METAR LMML 071515Z 29011KT 9999 FEW028 15/08 Q1019 NOSIG=
201103071500 METAR LMML NIL=
201103071445 METAR LMML 071445Z 30012KT 9999 FEW029 15/08 Q1019 NOSIG=
201103071430 METAR LMML NIL=
201103071415 METAR LMML 071415Z 34009KT 9999 FEW032 15/08 Q1019 NOSIG=
201103071400 METAR LMML NIL=
201103071345 METAR LMML 071345Z 33011KT 9999 FEW033 14/06 Q1019 NOSIG=
201103071330 METAR LMML NIL=
201103071315 METAR LMML 071315Z 32010KT 280V340 9999 FEW031 15/06 Q1019
                        NOSIG=
201103071300 METAR LMML NIL=
201103071245 METAR LMML 071245Z 33010KT 300V360 9999 FEW030 15/09 Q1020
                        NOSIG=
201103071230 METAR LMML NIL=
201103071215 METAR LMML 071215Z 33010KT 9999 FEW025 16/08 Q1020 NOSIG=
201103071200 METAR LMML NIL=
201103071145 METAR LMML 071145Z 33012KT 300V360 9999 FEW025 16/09 Q1020
                        NOSIG=
201103071130 METAR LMML NIL=
201103071115 METAR LMML 071115Z 33012KT 290V360 9999 FEW030 16/08 Q1020
                        NOSIG=
201103071100 METAR LMML NIL=
201103071045 METAR LMML 071045Z 33013KT 290V360 9999 FEW030 16/08 Q1021
                        NOSIG=
201103071030 METAR LMML NIL=
201103071015 METAR LMML 071015Z 34012KT 9999 FEW030 16/09 Q1020 NOSIG=
201103071000 METAR LMML NIL=
201103070945 METAR LMML 070945Z 33012KT 300V010 9999 FEW030 15/07 Q1020
                        NOSIG=
201103070930 METAR LMML NIL=
201103070915 METAR LMML 070915Z 32013KT 290V360 9999 FEW030 15/06 Q1020
                        NOSIG=
201103070900 METAR LMML NIL=
201103070845 METAR LMML 070845Z 31012KT 280V340 9999 FEW030 15/08 Q1020
                        NOSIG=
201103070830 METAR LMML NIL=
201103070815 METAR LMML 070815Z 31009KT 280V340 CAVOK 14/09 Q1020 NOSIG=
201103070800 METAR LMML NIL=
201103070745 METAR LMML 070745Z 31009KT CAVOK 13/08 Q1020 NOSIG=
201103070730 METAR LMML NIL=
201103070715 METAR LMML 070715Z 30008KT CAVOK 13/08 Q1020 NOSIG=
201103070700 METAR LMML NIL=
201103070645 METAR LMML 070645Z 31007KT CAVOK 12/08 Q1019 NOSIG=
201103070630 METAR LMML NIL=
201103070615 METAR LMML 070615Z 30008KT CAVOK 11/07 Q1019 NOSIG=
201103070600 METAR LMML NIL=
201103070545 METAR LMML 070545Z 29007KT CAVOK 10/07 Q1019 NOSIG=
201103070530 METAR LMML NIL=
201103070515 METAR LMML 070515Z 29007KT 9999 FEW020 10/07 Q1018 NOSIG=
201103070500 METAR LMML NIL=
201103070445 METAR LMML 070445Z 31008KT 9999 FEW020 09/07 Q1018 NOSIG=
201103070430 METAR LMML NIL=
201103070415 METAR LMML 070415Z 30009KT CAVOK 10/07 Q1018 NOSIG=
201103070400 METAR LMML NIL=
201103070345 METAR LMML 070345Z 30009KT CAVOK 10/07 Q1018 NOSIG=
201103070330 METAR LMML NIL=
201103070315 METAR LMML 070315Z 30008KT CAVOK 10/07 Q1018 NOSIG=
201103070300 METAR LMML NIL=
201103070245 METAR LMML 070245Z 30007KT CAVOK 10/07 Q1018 NOSIG=
201103070230 METAR LMML NIL=
201103070215 METAR LMML 070215Z 29008KT CAVOK 10/07 Q1018 NOSIG=
201103070200 METAR LMML NIL=
201103070145 METAR LMML 070145Z 30007KT CAVOK 10/07 Q1018 NOSIG=
201103070130 METAR LMML NIL=
201103070115 METAR LMML 070115Z 31010KT 9999 FEW025 10/07 Q1018 NOSIG=
201103070100 METAR LMML NIL=
201103070045 METAR LMML 070045Z 30009KT 9999 FEW025 10/07 Q1019 NOSIG=
201103070030 METAR LMML NIL=
201103070015 METAR LMML 070015Z 30006KT 260V320 9999 FEW025 10/06 Q1018
                        NOSIG=
201103062345 METAR LMML 062345Z 29008KT 260V320 9999 FEW025 11/07 Q1018
                        NOSIG=
201103062330 METAR LMML NIL=
201103062315 METAR LMML 062315Z 30007KT 260V330 9999 FEW025 11/07 Q1019
                        NOSIG=
201103062300 METAR LMML NIL=
201103062245 METAR LMML 062245Z 29009KT 270V330 9999 FEW025 11/07 Q1018
                        NOSIG=
201103062230 METAR LMML NIL=
201103062215 METAR LMML 062215Z 29008KT 260V320 9999 FEW025 11/07 Q1019
                        NOSIG=
201103062200 METAR LMML NIL=
201103062145 METAR LMML 062145Z 30007KT 9999 FEW023 10/08 Q1019 NOSIG=
201103062130 METAR LMML NIL=
201103062115 METAR LMML 062115Z 30009KT 270V330 9999 FEW023 11/07 Q1019
                        NOSIG=
201103062100 METAR LMML NIL=
201103062045 METAR LMML 062045Z 29008KT 9999 FEW023 11/08 Q1019 NOSIG=
201103062030 METAR LMML NIL=
201103062015 METAR LMML 062015Z 28011KT 250V310 9999 FEW023 11/07 Q1018
                        NOSIG=
201103062000 METAR LMML NIL=
201103061945 METAR LMML 061945Z 28011KT 9999 FEW023 11/08 Q1018 NOSIG=
201103061930 METAR LMML NIL=
201103061915 METAR LMML 061915Z 28010KT 9999 FEW023 11/08 Q1018 NOSIG=
201103061900 METAR LMML NIL=
201103061845 METAR LMML 061845Z 27011KT 240V300 9999 FEW025 12/08 Q1018
                        NOSIG=
201103061830 METAR LMML NIL=
201103061815 METAR LMML 061815Z 28012KT 9999 FEW025 12/08 Q1018 NOSIG=
201103061800 METAR LMML NIL=
201103061745 METAR LMML 061745Z 28011KT 9999 FEW026 12/08 Q1018 NOSIG=
201103061730 METAR LMML NIL=
201103061715 METAR LMML 061715Z 28011KT 240V310 9999 FEW024 12/08 Q1017
                        NOSIG=
201103061700 METAR LMML NIL=
201103061645 METAR LMML 061645Z 28014KT 250V310 9999 FEW024 12/08 Q1017
                        NOSIG=
201103061630 METAR LMML NIL=
201103061615 METAR LMML 061615Z 28014KT 9999 SCT024 13/08 Q1017 NOSIG=
201103061600 METAR LMML NIL=
201103061545 METAR LMML 061545Z 28013KT 250V310 9999 SCT023 13/08 Q1017
                        NOSIG=
201103061530 METAR LMML NIL=
201103061515 METAR LMML 061515Z 29016KT 9999 BKN027 13/08 Q1017 NOSIG=
201103061500 METAR LMML NIL=
201103061445 METAR LMML 061445Z 28017KT 9999 BKN025 13/08 Q1017 NOSIG=
201103061430 METAR LMML NIL=
201103061415 METAR LMML 061415Z 29015KT 9999 BKN025 14/08 Q1017 NOSIG=
201103061400 METAR LMML NIL=
201103061345 METAR LMML 061345Z 29016KT 250V310 9999 BKN024 14/08 Q1017
                        NOSIG=
201103061330 METAR LMML NIL=
201103061315 METAR LMML 061315Z 28017KT 250V320 9999 BKN023 15/09 Q1017
                        NOSIG=
201103061300 METAR LMML NIL=
201103061245 METAR LMML 061245Z 30016KT 270V330 9999 BKN023 14/09 Q1017
                        NOSIG=
201103061215 METAR LMML 061215Z 29017KT 240V320 9999 BKN024 14/09 Q1017
                        NOSIG=
201103061200 METAR LMML NIL=
201103061145 METAR LMML 061145Z 29016KT 250V330 9999 SCT024 15/09 Q1018
                        NOSIG=
201103061115 METAR LMML 061115Z 29018KT 270V330 9999 SCT026 15/09 Q1018
                        NOSIG=
201103061100 METAR LMML NIL=
201103061045 METAR LMML 061045Z 29019KT 9999 SCT024 15/08 Q1018 NOSIG=
201103061030 METAR LMML NIL=
201103061015 METAR LMML 061015Z 28017KT 250V320 9999 BKN023 15/08 Q1018
                        NOSIG=
201103061000 METAR LMML NIL=
201103060945 METAR LMML 060945Z 29015KT 260V320 9999 SCT024 14/08 Q1018
                        NOSIG=
201103060930 METAR LMML NIL=
201103060915 METAR LMML 060915Z 29017KT 9999 SCT026 15/08 Q1018 NOSIG=
201103060900 METAR LMML NIL=
201103060845 METAR LMML 060845Z 29017KT 260V320 9999 SCT029 14/07 Q1018
                        NOSIG=
201103060830 METAR LMML NIL=
201103060815 METAR LMML 060815Z 29015KT 270V330 9999 FEW026 14/08 Q1018
                        NOSIG=
201103060800 METAR LMML NIL=
201103060745 METAR LMML 060745Z 29014KT 260V320 9999 FEW026 14/08 Q1018
                        NOSIG=
201103060730 METAR LMML NIL=
201103060715 METAR LMML 060715Z 29014KT 260V320 9999 FEW026 13/07 Q1017
                        NOSIG=
201103060700 METAR LMML NIL=
201103060645 METAR LMML 060645Z 30012KT 9999 FEW026 13/08 Q1017 NOSIG=
201103060615 METAR LMML 060615Z 29010KT 270V330 9999 SCT024 12/08 Q1017
                        NOSIG=
201103060600 METAR LMML NIL=
201103060545 METAR LMML 060545Z 30008KT 9999 SCT024 11/08 Q1017 NOSIG=
201103060530 METAR LMML NIL=
201103060515 METAR LMML 060515Z 30010KT 9999 SCT023 11/08 Q1017 NOSIG=
201103060500 METAR LMML NIL=
201103060445 METAR LMML 060445Z 30011KT 9999 FEW023 11/08 Q1016 NOSIG=
201103060430 METAR LMML NIL=
201103060415 METAR LMML 060415Z 29009KT 260V320 9999 FEW023 11/08 Q1016
                        NOSIG=
201103060400 METAR LMML NIL=
201103060345 METAR LMML 060345Z 30008KT 9999 FEW029 11/08 Q1016 NOSIG=
201103060330 METAR LMML NIL=
201103060315 METAR LMML 060315Z 30010KT 9999 FEW029 11/08 Q1016 NOSIG=
201103060300 METAR LMML NIL=
201103060245 METAR LMML 060245Z 29010KT 9999 FEW022 11/08 Q1016 NOSIG=
201103060230 METAR LMML NIL=
201103060215 METAR LMML 060215Z 30010KT 9999 FEW022 11/08 Q1016 NOSIG=
201103060200 METAR LMML NIL=
201103060145 METAR LMML 060145Z 30010KT 9999 FEW022 11/08 Q1017 NOSIG=
201103060130 METAR LMML NIL=
201103060115 METAR LMML 060115Z 30011KT 9999 FEW022 11/08 Q1017 NOSIG=
201103060100 METAR LMML NIL=
201103060045 METAR LMML 060045Z 30010KT 9999 FEW022 11/08 Q1017 NOSIG=
201103060030 METAR LMML NIL=
201103060015 METAR LMML 060015Z 30011KT 9999 FEW020 11/08 Q1017 NOSIG=
201103060000 METAR LMML NIL=
201103052345 METAR LMML 052345Z 30015KT 9999 FEW020 11/08 Q1017 NOSIG=
201103052330 METAR LMML NIL=
201103052315 METAR LMML 052315Z 30012KT 9999 FEW020 11/08 Q1017 NOSIG=
201103052300 METAR LMML NIL=
201103052245 METAR LMML 052245Z 30014KT 9999 FEW020 11/08 Q1017 NOSIG=
201103052215 METAR LMML 052215Z 30012KT 9999 FEW020 11/08 Q1017 NOSIG=
201103052200 METAR LMML NIL=
201103052145 METAR LMML 052145Z 30014KT 9999 FEW022 11/07 Q1017 NOSIG=
201103052130 METAR LMML NIL=
201103052115 METAR LMML 052115Z 30013KT 9999 FEW022 11/08 Q1017 NOSIG=
201103052100 METAR LMML NIL=
201103052045 METAR LMML 052045Z 30015KT 9999 FEW022 11/08 Q1017 NOSIG=
201103052030 METAR LMML NIL=
201103052015 METAR LMML 052015Z 30016KT 9999 FEW022 12/08 Q1017 NOSIG=
201103051945 METAR LMML 051945Z 30014KT 9999 FEW021 12/09 Q1017 NOSIG=
201103051930 METAR LMML NIL=
201103051915 METAR LMML 051915Z 30013KT 9999 FEW021 12/09 Q1016 NOSIG=
201103051900 METAR LMML NIL=
201103051845 METAR LMML 051845Z 29013KT 270V330 9999 FEW020 12/09 Q1016
                        NOSIG=
201103051830 METAR LMML NIL=
201103051815 METAR LMML 051815Z 29016KT 9999 FEW020 12/09 Q1016 NOSIG=
201103051800 METAR LMML NIL=
201103051745 METAR LMML 051745Z 29015KT 9999 FEW019 12/09 Q1016 NOSIG=
201103051730 METAR LMML NIL=
201103051715 METAR LMML 051715Z 29015KT 260V330 9999 SCT020 13/09 Q1016
                        NOSIG=
201103051700 METAR LMML NIL=
201103051645 METAR LMML 051645Z 29017KT 260V320 9999 SCT020 13/09 Q1015
                        NOSIG=
201103051630 METAR LMML NIL=
201103051615 METAR LMML 051615Z 29016KT 250V310 9999 SCT020 13/09 Q1015
                        NOSIG=
201103051600 METAR LMML NIL=
201103051545 METAR LMML 051545Z 28014KT 260V320 9999 BKN022 13/09 Q1015
                        NOSIG=
201103051530 METAR LMML NIL=
201103051515 METAR LMML 051515Z 29018KT 250V310 9999 BKN021 14/09 Q1015
                        NOSIG=
201103051500 METAR LMML NIL=
201103051445 METAR LMML 051445Z 28020G30KT 250V310 9999 SCT023 14/09 Q1015
                        NOSIG=
201103051430 METAR LMML NIL=
201103051415 METAR LMML 051415Z 29018KT 240V320 9999 SCT023 15/09 Q1015
                        NOSIG=
201103051400 METAR LMML NIL=
201103051345 METAR LMML 051345Z 28020KT 240V300 9999 BKN021 14/09 Q1015
                        NOSIG=
201103051330 METAR LMML NIL=
201103051315 METAR LMML 051315Z 28019KT 240V320 9999 BKN022 14/10 Q1014
                        NOSIG=
201103051300 METAR LMML NIL=
201103051245 METAR LMML 051245Z 28019KT 250V320 9999 BKN021 15/10 Q1015
                        NOSIG=
201103051230 METAR LMML NIL=
201103051215 METAR LMML 051215Z 29020KT 260V320 9999 BKN020 15/10 Q1015
                        NOSIG=
201103051200 METAR LMML NIL=
201103051145 METAR LMML 051145Z 29019KT 260V320 9999 BKN020 15/10 Q1015
                        NOSIG=
201103051130 METAR LMML NIL=
201103051115 METAR LMML 051115Z 29020KT 250V320 9999 BKN019 15/10 Q1015
                        NOSIG=
201103051100 METAR LMML NIL=
201103051045 METAR LMML 051045Z 29019KT 260V320 9999 BKN018 14/10 Q1015
                        NOSIG=
201103051030 METAR LMML NIL=
201103051015 METAR LMML 051015Z 29017KT 260V320 9999 BKN018 15/10 Q1015
                        NOSIG=
201103051000 METAR LMML NIL=
201103050945 METAR LMML 050945Z 29016KT 260V320 9999 BKN017 15/11 Q1014
                        NOSIG=
201103050930 METAR LMML NIL=
201103050915 METAR LMML 050915Z 29016KT 250V320 9999 BKN016 14/11 Q1014
                        NOSIG=
201103050900 METAR LMML NIL=
201103050845 METAR LMML 050845Z 29017KT 260V330 9999 SCT014 BKN019 15/11
                        Q1014 NOSIG=
201103050830 METAR LMML NIL=
201103050815 METAR LMML 050815Z 29015KT 260V330 9999 SCT015 BKN027 15/12
                        Q1014 NOSIG=
201103050800 METAR LMML NIL=
201103050745 METAR LMML 050745Z 30015KT 9999 FEW015 BKN026 14/12 Q1014
                        NOSIG=
201103050730 METAR LMML NIL=
201103050715 METAR LMML 050715Z 29017KT 250V320 9999 BKN013 13/11 Q1013
                        NOSIG=
201103050700 METAR LMML NIL=
201103050645 METAR LMML 050645Z 29014KT 9999 BKN012 13/12 Q1013 NOSIG=
201103050630 METAR LMML NIL=
201103050615 METAR LMML 050615Z 29014KT 9999 SCT006 BKN010 13/12 Q1012
                        NOSIG=
201103050600 METAR LMML NIL=
201103050545 METAR LMML 050545Z 28013KT 250V310 4000 BR FEW006 13/13 Q1012
                        BECMG 6000=
201103050530 METAR LMML NIL=
201103050515 METAR LMML 050515Z 27010KT 240V300 4000 -RA SCT006 BKN012
                        14/14 Q1012 BECMG 6000=
201103050445 METAR LMML 050445Z 26010KT 230V300 4000 BR SCT004 BKN010
                        14/14 Q1011 BECMG 6000=
201103050430 METAR LMML NIL=
201103050415 METAR LMML 050415Z 25006KT 210V280 3000 BR SCT003 BKN012
                        14/13 Q1011 BECMG 6000=
201103050345 METAR LMML 050345Z 25006KT 210V290 4000 BR BKN005 13/13 Q1011
                        BECMG 6000 SCT010=
201103050330 METAR LMML NIL=
201103050315 METAR LMML 050315Z 25007KT 210V290 3000 -DZ BKN003 13/13
                        Q1011 BECMG 5000 BR BKN005=
201103050300 METAR LMML NIL=
201103050245 METAR LMML 050245Z 22006KT 190V260 1500 BR BKN001 14/13 Q1011
                        BECMG 3000 BR BKN005=
201103050230 METAR LMML NIL=
201103050215 METAR LMML 050215Z VRB02KT 0300 R13/0962VP1500U FG BKN001
                        13/13 Q1011 BECMG 0800 FG=
201103050200 METAR LMML NIL=
201103050145 METAR LMML 050145Z VRB02KT 1500 BR SCT001 BKN025 14/14 Q1011
                        BECMG 3000 BR=
201103050130 METAR LMML NIL=
201103050115 METAR LMML 050115Z VRB02KT 0800 R13/P1500D FG BKN001 14/14
                        Q1011 NOSIG=
201103050100 METAR LMML NIL=
201103050045 METAR LMML 050045Z VRB01KT 0800 R13/P1500N FG BKN001 14/14
                        Q1011 TEMPO 0500 FG=
201103050035 SPECI LMML 050035Z VRB01KT 0800 R13/P1500N FG BKN001 14/14
                        Q1012 TEMPO 0500 FG=
201103050030 METAR LMML NIL=
201103050015 METAR LMML 050015Z VRB02KT 1200 R13/P1500N BR OVC001 14/14
                        Q1012 TEMPO 0800 FG=
201103042345 METAR LMML 042345Z 09003KT 1500 BR OVC001 14/14 Q1011 TEMPO
                        0900 FG=
201103042330 METAR LMML NIL=
201103042315 METAR LMML 042315Z 09004KT 060V120 2500 BR OVC002 14/14 Q1012
                        TEMPO 1500 BR OVC001=
201103042300 METAR LMML NIL=
201103042245 METAR LMML 042245Z 08006KT 2700 BR OVC002 14/14 Q1012 TEMPO
                        1500 BR OVC001=
201103042230 METAR LMML NIL=
201103042215 METAR LMML 042215Z 08006KT 050V110 2800 BR OVC002 14/14 Q1012
                        TEMPO 1500 BR OVC001=
201103042200 METAR LMML NIL=
201103042145 METAR LMML 042145Z 09008KT 050V110 2800 BR OVC002 14/14 Q1012
                        TEMPO 1500 BR OVC001=
201103042130 METAR LMML NIL=
201103042115 METAR LMML 042115Z 07009KT 3200 BR OVC003 14/14 Q1012 BECMG
                        2000 BR OVC002=
201103042100 METAR LMML NIL=
201103042045 METAR LMML 042045Z 09008KT 050V120 5000 BR OVC004 14/14 Q1012
                        NOSIG=
201103042030 METAR LMML NIL=
201103042015 METAR LMML 042015Z 09010KT 050V110 5000 BKN004 14/14 Q1012
                        NOSIG=
201103042000 METAR LMML NIL=
201103041945 METAR LMML 041945Z 08010KT 5000 OVC004 14/14 Q1012 NOSIG=
201103041930 METAR LMML NIL=
201103041915 METAR LMML 041915Z 09012KT 060V120 5000 BKN004 14/14 Q1012
                        NOSIG=
201103041900 METAR LMML NIL=
201103041845 METAR LMML 041845Z 08012KT 060V120 5000 OVC005 14/14 Q1012
                        NOSIG=
201103041830 METAR LMML NIL=
201103041815 METAR LMML 041815Z 09012KT 060V130 5000 OVC004 14/14 Q1012
                        NOSIG=
201103041800 METAR LMML NIL=
201103041745 METAR LMML 041745Z 08015KT 050V110 5000 OVC005 14/14 Q1011
                        NOSIG=
201103041715 METAR LMML 041715Z 08015KT 3000 HZ OVC005 14/14 Q1011 TEMPO
                        2000 BR=
201103041700 METAR LMML NIL=
201103041645 METAR LMML 041645Z 08014KT 050V110 3000 HZ OVC005 14/14 Q1011
                        TEMPO 2000 BR=
201103041630 METAR LMML NIL=
201103041615 METAR LMML 041615Z 08012KT 050V120 3000 HZ OVC005 14/14 Q1012
                        TEMPO 2000 BR=
201103041600 METAR LMML NIL=
201103041545 METAR LMML 041545Z 08012KT 3000 HZ OVC005 14/14 Q1012 TEMPO
                        2000 BR=
201103041530 METAR LMML NIL=
201103041515 METAR LMML 041515Z 08014KT 050V110 3000 HZ OVC006 15/14 Q1011
                        TEMPO BKN005=
201103041500 METAR LMML NIL=
201103041445 METAR LMML 041445Z 08013KT 050V110 3000 HZ BKN006 15/14 Q1011
                        NOSIG=
201103041430 METAR LMML NIL=
201103041415 METAR LMML 041415Z 08013KT 040V110 5000 OVC006 15/14 Q1012
                        NOSIG=
201103041400 METAR LMML NIL=
201103041345 METAR LMML 041345Z 08014KT 040V110 5000 OVC006 15/14 Q1012
                        NOSIG=
201103041330 METAR LMML NIL=
201103041315 METAR LMML 041315Z 08014KT 040V110 5000 OVC006 15/14 Q1012
                        NOSIG=
201103041245 METAR LMML 041245Z 08015KT 040V100 5000 OVC006 15/14 Q1012
                        NOSIG=
201103041230 METAR LMML NIL=
201103041215 METAR LMML 041215Z 08014KT 050V110 5000 BKN006 BKN020 15/14
                        Q1012 NOSIG=
201103041145 METAR LMML 041145Z 09014KT 060V120 5000 BKN006 OVC020 15/14
                        Q1013 NOSIG=
201103041130 METAR LMML NIL=
201103041115 METAR LMML 041115Z 09016KT 5000 BKN006 OVC020 15/14 Q1013
                        NOSIG=
201103041100 METAR LMML NIL=
201103041045 METAR LMML 041045Z 09015KT 060V120 6000 BKN006 BKN020 15/14
                        Q1013 NOSIG=
201103041030 METAR LMML NIL=
201103041015 METAR LMML 041015Z 10018KT 070V130 6000 BKN007 OVC020 15/14
                        Q1014 NOSIG=
201103041000 METAR LMML NIL=
201103040945 METAR LMML 040945Z 10017KT 070V130 6000 BKN007 OVC020 15/14
                        Q1014 NOSIG=
201103040930 METAR LMML NIL=
201103040915 METAR LMML 040915Z 10017KT 060V120 6000 BKN007 OVC020 15/14
                        Q1014 BECMG BKN010=
201103040900 METAR LMML NIL=
201103040845 METAR LMML 040845Z 10019KT 070V130 6000 BKN008 BKN020 14/13
                        Q1014 BECMG BKN010=
201103040830 METAR LMML NIL=
201103040815 METAR LMML 040815Z 10019KT 070V130 6000 BKN008 BKN023 14/13
                        Q1014 BECMG BKN010=
201103040745 METAR LMML 040745Z 10019KT 6000 BKN008 BKN023 14/13 Q1014
                        BECMG BKN010=
201103040730 METAR LMML NIL=
201103040715 METAR LMML 040715Z 10018KT 070V140 6000 BKN008 BKN024 14/13
                        Q1014 NOSIG=
201103040700 METAR LMML NIL=
201103040645 METAR LMML 040645Z 09016KT 060V130 6000 BKN007 BKN012 14/13
                        Q1014 NOSIG=
201103040630 METAR LMML NIL=
201103040615 METAR LMML 040615Z 09017KT 6000 BKN006 BKN012 14/13 Q1014
                        TEMPO 5000 BKN012=
201103040600 METAR LMML NIL=
201103040545 METAR LMML 040545Z 08019KT 060V120 6000 BKN007 BKN012 13/13
                        Q1014 TEMPO 5000 BKN012=
201103040530 METAR LMML NIL=
201103040515 METAR LMML 040515Z 08018KT 050V110 6000 BKN006 BKN015 13/13
                        Q1014 TEMPO 5000 BKN012=
201103040500 METAR LMML NIL=
201103040445 METAR LMML 040445Z 07019KT 040V100 8000 SCT008 BKN100 13/13
                        Q1014 TEMPO BKN012=
201103040430 METAR LMML NIL=
201103040415 METAR LMML 040415Z 06015KT 030V110 9999 FEW034 BKN100 13/12
                        Q1015 NOSIG=
201103040400 METAR LMML NIL=
201103040345 METAR LMML 040345Z 07015KT 030V100 9999 SCT034 BKN080 12/11
                        Q1014 NOSIG=
201103040315 METAR LMML 040315Z 05012KT 9000 -RA SCT034 BKN070 12/11 Q1016
                        NOSIG=
201103040300 METAR LMML NIL=
201103040245 METAR LMML 040245Z 06011KT 020V090 9000 -RA SCT033 BKN090
                        12/11 Q1017 NOSIG=
201103040230 METAR LMML NIL=
201103040215 METAR LMML 040215Z 07010KT 020V110 9999 SCT023 BKN037 12/11
                        Q1018 NOSIG=
201103040200 METAR LMML NIL=
201103040145 METAR LMML 040145Z 09009KT 060V130 9999 SCT022 BKN034 12/10
                        Q1019 NOSIG=
201103040130 METAR LMML NIL=
201103040115 METAR COR LMML 040115Z 13003KT 9999 BKN025 BKN110 13/10 Q1020
                        NOSIG=
201103040100 METAR LMML NIL=
201103040045 METAR LMML 040045Z 08014KT 9999 -RA BKN026 BKN110 12/10 Q1018
                        NOSIG=
201103040030 METAR LMML NIL=
201103040015 METAR LMML 040015Z 08013KT 050V110 9999 FEW018 SCT026 BKN120
                        12/09 Q1018 NOSIG=
201103040000 METAR LMML NIL=
201103032345 METAR LMML 032345Z 08013KT 040V110 9999 FEW018 SCT026 BKN120
                        12/09 Q1018 NOSIG=
201103032330 METAR LMML NIL=
201103032315 METAR LMML 032315Z 09013KT 9999 FEW021 BKN120 12/09 Q1019
                        NOSIG=
201103032300 METAR LMML NIL=
201103032245 METAR LMML 032245Z 08016KT 050V110 9999 SCT021 BKN120 12/08
                        Q1019 NOSIG=
201103032230 METAR LMML NIL=
201103032215 METAR COR LMML 032215Z 07016KT 040V110 9999 FEW021 BKN120
                        12/08 Q1019 NOSIG=
201103032200 METAR LMML NIL=
201103032145 METAR LMML 032145Z 09013KT 9999 SCT022 SCT120 13/09 Q1020
                        NOSIG=
201103032130 METAR LMML NIL=
201103032115 METAR LMML 032115Z 08015KT 9999 FEW024 SCT120 13/08 Q1020
                        NOSIG=
201103032100 METAR LMML NIL=
201103032045 METAR LMML 032045Z 07012KT 040V100 9999 FEW030 SCT120 12/08
                        Q1020 NOSIG=
201103032030 METAR LMML NIL=
201103032015 METAR LMML 032015Z 08009KT 050V110 CAVOK 12/08 Q1021 NOSIG=
201103032000 METAR LMML NIL=
201103031945 METAR LMML 031945Z 08008KT 050V110 CAVOK 12/08 Q1021 NOSIG=
201103031930 METAR LMML NIL=
201103031915 METAR LMML 031915Z 09008KT CAVOK 12/08 Q1021 NOSIG=
201103031900 METAR LMML NIL=
201103031845 METAR LMML 031845Z 08007KT CAVOK 12/09 Q1021 NOSIG=
201103031830 METAR LMML NIL=
201103031815 METAR LMML 031815Z 07006KT 040V120 9999 FEW020 BKN250 12/09
                        Q1021 NOSIG=
201103031800 METAR LMML NIL=
201103031745 METAR LMML 031745Z 07005KT CAVOK 12/09 Q1021 NOSIG=
201103031730 METAR LMML NIL=
201103031715 METAR LMML 031715Z 07005KT 040V100 CAVOK 12/09 Q1021 NOSIG=
201103031700 METAR LMML NIL=
201103031645 METAR LMML 031645Z 07006KT 040V110 9999 FEW030 BKN250 13/08
                        Q1021 NOSIG=
201103031630 METAR LMML NIL=
201103031615 METAR LMML 031615Z 08006KT 050V120 9999 FEW026 BKN250 13/07
                        Q1021 NOSIG=
201103031600 METAR LMML NIL=
201103031545 METAR LMML 031545Z 08008KT 9999 FEW026 BKN250 14/07 Q1021
                        NOSIG=
201103031530 METAR LMML NIL=
201103031515 METAR LMML 031515Z 10007KT 070V140 9999 FEW026 BKN250 14/07
                        Q1021 NOSIG=
201103031500 METAR LMML NIL=
201103031445 METAR LMML 031445Z 10009KT 9999 FEW026 SCT250 14/06 Q1021
                        NOSIG=
201103031430 METAR LMML NIL=
201103031415 METAR LMML 031415Z 10009KT 070V130 9999 FEW026 15/05 Q1021
                        NOSIG=
201103031345 METAR LMML 031345Z 10008KT 050V170 9999 FEW026 15/07 Q1021
                        NOSIG=
201103031330 METAR LMML NIL=
201103031315 METAR LMML 031315Z 10008KT 9999 FEW026 15/08 Q1021 NOSIG=
201103031300 METAR LMML NIL=
201103031245 METAR LMML 031245Z 10007KT 040V150 9999 FEW030 15/06 Q1021
                        NOSIG=
201103031230 METAR LMML NIL=
201103031215 METAR LMML 031215Z 08008KT 050V130 9999 FEW030 16/06 Q1022
                        NOSIG=
201103031200 METAR LMML NIL=
201103031145 METAR LMML 031145Z 10007KT 060V130 9999 FEW030 16/07 Q1022
                        NOSIG=
201103031130 METAR LMML NIL=
201103031115 METAR LMML 031115Z 12006KT 060V160 9999 FEW030 16/07 Q1022
                        NOSIG=
201103031100 METAR LMML NIL=
201103031045 METAR LMML 031045Z 11005KT 050V160 9999 FEW030 16/07 Q1022
                        NOSIG=
201103031030 METAR LMML NIL=
201103031015 METAR LMML 031015Z 09003KT 9999 FEW030 16/07 Q1022 NOSIG=
201103031000 METAR LMML NIL=
201103030945 METAR LMML 030945Z 14003KT 9999 FEW030 15/06 Q1022 NOSIG=
201103030930 METAR LMML NIL=
201103030915 METAR LMML 030915Z VRB02KT 9999 FEW030 16/07 Q1022 NOSIG=
201103030900 METAR LMML NIL=
201103030845 METAR LMML 030845Z VRB01KT 9999 FEW030 15/06 Q1022 NOSIG=
201103030830 METAR LMML NIL=
201103030815 METAR LMML 030815Z VRB01KT 9999 FEW030 15/07 Q1022 NOSIG=
201103030745 METAR LMML 030745Z VRB02KT 9999 FEW030 14/07 Q1022 NOSIG=
201103030730 METAR LMML NIL=
201103030715 METAR LMML 030715Z VRB01KT 9999 FEW030 13/08 Q1022 NOSIG=
201103030700 METAR LMML NIL=
201103030645 METAR LMML 030645Z VRB01KT 9999 FEW030 10/07 Q1021 NOSIG=
201103030630 METAR LMML NIL=
201103030615 METAR LMML 030615Z VRB01KT 9999 FEW030 09/05 Q1021 NOSIG=
201103030600 METAR LMML NIL=
201103030545 METAR LMML 030545Z 20004KT 9999 FEW030 10/05 Q1021 NOSIG=
201103030530 METAR LMML NIL=
201103030515 METAR LMML 030515Z 19003KT 9999 FEW030 10/05 Q1021 NOSIG=
201103030500 METAR LMML NIL=
201103030445 METAR LMML 030445Z 20004KT 9999 FEW030 09/05 Q1021 NOSIG=
201103030430 METAR LMML NIL=
201103030415 METAR LMML 030415Z 20003KT 9999 FEW030 09/05 Q1021 NOSIG=
201103030400 METAR LMML NIL=
201103030345 METAR LMML 030345Z VRB02KT 9999 FEW030 09/05 Q1021 NOSIG=
201103030330 METAR LMML NIL=
201103030315 METAR LMML 030315Z 19004KT 9999 FEW030 10/05 Q1021 NOSIG=
201103030300 METAR LMML NIL=
201103030245 METAR LMML 030245Z 19004KT 9999 FEW030 10/05 Q1021 NOSIG=
201103030230 METAR LMML NIL=
201103030215 METAR LMML 030215Z 19003KT 9999 FEW030 10/06 Q1021 NOSIG=
201103030200 METAR LMML NIL=
201103030145 METAR LMML 030145Z VRB02KT 9999 FEW030 10/05 Q1021 NOSIG=
201103030130 METAR LMML NIL=
201103030115 METAR LMML 030115Z 19003KT 9999 FEW030 10/06 Q1021 NOSIG=
201103030100 METAR LMML NIL=
201103030045 METAR LMML 030045Z 20004KT 9999 FEW030 10/06 Q1021 NOSIG=
201103030030 METAR LMML NIL=
201103030015 METAR LMML 030015Z 20004KT CAVOK 10/05 Q1021 NOSIG=
201103030000 METAR LMML NIL=
201103022345 METAR LMML 022345Z 21004KT CAVOK 10/06 Q1021 NOSIG=
201103022330 METAR LMML NIL=
201103022315 METAR LMML 022315Z 20004KT 9999 FEW030 10/06 Q1021 NOSIG=
201103022300 METAR LMML NIL=
201103022245 METAR LMML 022245Z 21003KT 9999 FEW030 11/06 Q1021 NOSIG=
201103022230 METAR LMML NIL=
201103022215 METAR LMML 022215Z 21003KT 9999 FEW030 10/06 Q1021 NOSIG=
201103022200 METAR LMML NIL=
201103022145 METAR LMML 022145Z 22003KT 9999 FEW034 10/06 Q1020 NOSIG=
201103022130 METAR LMML NIL=
201103022115 METAR LMML 022115Z 21004KT 180V240 9999 FEW034 11/06 Q1020
                        NOSIG=
201103022100 METAR LMML NIL=
201103022045 METAR LMML 022045Z 21004KT 180V240 9999 FEW034 11/06 Q1020
                        NOSIG=
201103022030 METAR LMML NIL=
201103022015 METAR LMML 022015Z 21004KT 9999 FEW034 11/06 Q1020 NOSIG=
201103022000 METAR LMML NIL=
201103021945 METAR LMML 021945Z 21003KT 9999 FEW034 11/06 Q1020 NOSIG=
201103021930 METAR LMML NIL=
201103021915 METAR LMML 021915Z 21003KT 9999 FEW034 11/06 Q1020 NOSIG=
201103021900 METAR LMML NIL=
201103021845 METAR LMML 021845Z 21004KT 180V260 9999 FEW034 11/06 Q1019
                        NOSIG=
201103021830 METAR LMML NIL=
201103021815 METAR LMML 021815Z 21004KT 160V250 9999 FEW037 12/05 Q1019
                        NOSIG=
201103021800 METAR LMML NIL=
201103021745 METAR LMML 021745Z 21004KT 180V250 9999 FEW036 12/05 Q1019
                        NOSIG=
201103021730 METAR LMML NIL=
201103021715 METAR LMML 021715Z 22006KT 180V270 9999 FEW036 12/05 Q1018
                        NOSIG=
201103021645 METAR LMML 021645Z 22008KT 180V260 9999 SCT038 13/05 Q1018
                        NOSIG=
201103021630 METAR LMML NIL=
201103021615 METAR LMML 021615Z 22008KT 200V280 9999 SCT035 13/05 Q1018
                        NOSIG=
201103021600 METAR LMML NIL=
201103021545 METAR LMML 021545Z 22007KT 180V270 9999 SCT036 14/06 Q1017
                        NOSIG=
201103021530 METAR LMML NIL=
201103021515 METAR LMML 021515Z 20008KT 160V240 9999 SCT036 14/06 Q1017
                        NOSIG=
201103021500 METAR LMML NIL=
201103021445 METAR LMML 021445Z 21008KT 180V260 9999 FEW036 15/06 Q1017
                        NOSIG=
201103021430 METAR LMML NIL=
201103021415 METAR LMML 021415Z 22009KT 160V270 9999 FEW035 15/06 Q1017
                        NOSIG=
201103021400 METAR LMML NIL=
201103021345 METAR LMML 021345Z 22010KT 170V280 9999 FEW035 15/06 Q1017
                        NOSIG=
201103021315 METAR LMML 021315Z 22010KT 170V280 9999 SCT035 15/06 Q1017
                        NOSIG=
201103021300 METAR LMML NIL=
201103021245 METAR LMML 021245Z 22010KT 170V270 9999 SCT035 15/07 Q1017
                        NOSIG=
201103021230 METAR LMML NIL=
201103021215 METAR LMML 021215Z 21011KT 160V260 9999 SCT034 15/07 Q1017
                        NOSIG=
201103021200 METAR LMML NIL=
201103021145 METAR LMML 021145Z 22011KT 170V270 9999 FEW034 15/07 Q1017
                        NOSIG=
201103021130 METAR LMML NIL=
201103021115 METAR LMML 021115Z 22010KT 180V270 9999 FEW035 15/07 Q1017
                        NOSIG=
201103021100 METAR LMML NIL=
201103021045 METAR LMML 021045Z 22009KT 160V280 9999 FEW035 15/07 Q1017
                        NOSIG=
201103021030 METAR LMML NIL=
201103021015 METAR LMML 021015Z 22011KT 180V260 9999 FEW035 14/07 Q1017
                        NOSIG=
201103021000 METAR LMML NIL=
201103020945 METAR LMML 020945Z 21010KT 170V260 9999 FEW035 14/06 Q1017
                        NOSIG=
201103020930 METAR LMML NIL=
201103020915 METAR LMML 020915Z 21009KT 170V250 9999 FEW035 14/07 Q1017
                        NOSIG=
201103020900 METAR LMML NIL=
201103020845 METAR LMML 020845Z 21009KT 170V310 9999 FEW033 14/06 Q1017
                        NOSIG=
201103020830 METAR LMML NIL=
201103020815 METAR LMML 020815Z 22007KT 180V280 9999 FEW034 14/06 Q1017
                        NOSIG=
201103020800 METAR LMML NIL=
201103020745 METAR LMML 020745Z 23009KT 200V280 9999 SCT034 13/06 Q1017
                        NOSIG=
201103020730 METAR LMML NIL=
201103020715 METAR LMML 020715Z 22007KT 180V270 9999 SCT033 13/07 Q1016
                        NOSIG=
201103020645 METAR LMML 020645Z 22004KT 190V270 9999 BKN032 11/06 Q1016
                        NOSIG=
201103020630 METAR LMML NIL=
201103020615 METAR LMML 020615Z 22007KT 180V260 9999 BKN033 12/06 Q1016
                        NOSIG=
201103020600 METAR LMML NIL=
201103020545 METAR LMML 020545Z 22006KT 180V260 9999 SCT033 11/05 Q1015
                        NOSIG=
201103020530 METAR LMML NIL=
201103020515 METAR LMML 020515Z 22007KT 180V260 9999 SCT031 11/06 Q1015
                        NOSIG=
201103020500 METAR LMML NIL=
201103020445 METAR LMML 020445Z 22010KT 190V270 9999 SCT031 11/05 Q1015
                        NOSIG=
201103020430 METAR LMML NIL=
201103020415 METAR LMML 020415Z 22009KT 180V270 9999 SCT030 11/06 Q1015
                        NOSIG=
201103020400 METAR LMML NIL=
201103020345 METAR LMML 020345Z 22008KT 190V260 9999 SCT032 11/06 Q1015
                        NOSIG=
201103020315 METAR LMML 020315Z 23006KT 190V280 9999 SCT033 11/06 Q1014
                        NOSIG=
201103020300 METAR LMML NIL=
201103020245 METAR LMML 020245Z 24008KT 210V280 9999 SCT033 10/04 Q1014
                        NOSIG=
201103020230 METAR LMML NIL=
201103020215 METAR LMML 020215Z 24009KT 210V290 9999 SCT033 10/05 Q1014
                        NOSIG=
201103020200 METAR LMML NIL=
201103020145 METAR LMML 020145Z 24011KT 200V280 9999 FEW032 BKN050 10/05
                        Q1014 NOSIG=
201103020130 METAR LMML NIL=
201103020115 METAR LMML 020115Z 21004KT 160V240 9999 -RA FEW032 BKN060
                        09/06 Q1015 NOSIG=
201103020100 METAR LMML NIL=
201103020045 METAR LMML 020045Z 20007KT 160V220 9999 FEW035 SCT060 09/06
                        Q1015 NOSIG=
201103020030 METAR LMML NIL=
201103020015 METAR LMML 020015Z 21011KT 180V250 9999 FEW035 SCT050 11/05
                        Q1015 NOSIG=
201103020000 METAR LMML NIL=
201103012345 METAR LMML 012345Z 21009KT 180V250 9999 FEW035 SCT060 11/05
                        Q1014 NOSIG=
201103012315 METAR LMML 012315Z 21009KT 170V260 9999 FEW033 SCT050 11/05
                        Q1015 NOSIG=
201103012300 METAR LMML NIL=
201103012245 METAR LMML 012245Z 21008KT 170V270 9999 FEW032 SCT050 11/05
                        Q1014 NOSIG=
201103012230 METAR LMML NIL=
201103012215 METAR LMML 012215Z 21008KT 170V250 9999 SCT031 11/05 Q1014
                        NOSIG=
201103012145 METAR LMML 012145Z 22007KT 190V260 9999 FEW032 11/05 Q1014
                        NOSIG=
201103012130 METAR LMML NIL=
201103012115 METAR LMML 012115Z 21007KT 170V250 9999 FEW033 10/05 Q1014
                        NOSIG=
201103012100 METAR LMML NIL=
201103012045 METAR LMML 012045Z 23006KT 190V260 9999 FEW033 10/05 Q1014
                        NOSIG=
201103012030 METAR LMML NIL=
201103012015 METAR LMML 012015Z 23006KT 9999 FEW029 10/05 Q1014 NOSIG=
201103012000 METAR LMML NIL=
201103011945 METAR LMML 011945Z 23006KT 200V270 9999 FEW029 10/05 Q1014
                        NOSIG=
201103011915 METAR LMML 011915Z 23006KT 200V280 9999 FEW029 10/05 Q1014
                        NOSIG=
201103011900 METAR LMML NIL=
201103011845 METAR LMML 011845Z 24006KT 200V280 9999 FEW030 10/05 Q1014
                        NOSIG=
201103011830 METAR LMML NIL=
201103011815 METAR LMML 011815Z 25006KT 220V280 9999 FEW030 10/05 Q1014
                        NOSIG=
201103011800 METAR LMML NIL=
201103011745 METAR LMML 011745Z 26007KT 210V290 9999 FEW030 10/05 Q1013
                        NOSIG=
201103011730 METAR LMML NIL=
201103011715 METAR LMML 011715Z 27008KT 220V300 9999 FEW030 11/05 Q1013
                        NOSIG=
201103011700 METAR LMML NIL=
201103011645 METAR LMML 011645Z 27007KT 230V310 9999 FEW030 11/06 Q1012
                        NOSIG=
201103011630 METAR LMML NIL=
201103011615 METAR LMML 011615Z 27008KT 220V300 9999 FEW030 12/06 Q1012
                        NOSIG=
201103011600 METAR LMML NIL=
201103011545 METAR LMML 011545Z 26012KT 190V290 9999 FEW031 13/06 Q1012
                        NOSIG=
201103011530 METAR LMML NIL=
201103011515 METAR LMML 011515Z 27011KT 220V310 9999 SCT028 13/06 Q1012
                        NOSIG=
201103011500 METAR LMML NIL=
201103011445 METAR LMML 011445Z 27013KT 230V310 9999 SCT029 13/06 Q1011
                        NOSIG=
201103011430 METAR LMML NIL=
201103011415 METAR LMML 011415Z 27012KT 220V310 9999 SCT032 13/06 Q1011
                        NOSIG=
201103011400 METAR LMML NIL=
201103011345 METAR LMML 011345Z 27012KT 230V300 9999 SCT032 14/06 Q1011
                        NOSIG=
201103011330 METAR LMML NIL=
201103011315 METAR LMML 011315Z 29013KT 250V340 9999 SCT030 13/07 Q1011
                        NOSIG=
201103011300 METAR LMML NIL=
201103011245 METAR LMML 011245Z 29014KT 9999 SCT032 13/06 Q1011 NOSIG=
201103011230 METAR LMML NIL=
201103011215 METAR LMML 011215Z 28012KT 9999 SCT032 14/06 Q1011 NOSIG=
201103011200 METAR LMML NIL=
201103011145 METAR LMML 011145Z 29015KT 260V320 9999 SCT029 14/07 Q1011
                        NOSIG=
201103011130 METAR LMML NIL=
201103011115 METAR LMML 011115Z 27013KT 210V320 9999 SCT031 14/07 Q1011
                        NOSIG=
201103011100 METAR LMML NIL=
201103011045 METAR LMML 011045Z 29016KT 250V310 9999 SCT031 13/06 Q1011
                        NOSIG=
201103011030 METAR LMML NIL=
201103011015 METAR LMML 011015Z 30014KT 260V320 9999 FEW031 14/07 Q1011
                        NOSIG=
201103011000 METAR LMML NIL=
201103010945 METAR LMML 010945Z 29016KT 9999 FEW028 13/04 Q1011 NOSIG=
201103010930 METAR LMML NIL=
201103010915 METAR LMML 010915Z 29013KT 250V330 9999 FEW028 13/06 Q1011
                        NOSIG=
201103010900 METAR LMML NIL=
201103010845 METAR LMML 010845Z 30013KT 260V330 9999 SCT029 13/07 Q1011
                        NOSIG=
201103010830 METAR LMML NIL=
201103010815 METAR LMML 010815Z 29013KT 9999 FEW027 12/07 Q1011 NOSIG=
201103010800 METAR LMML NIL=
201103010745 METAR LMML 010745Z 30012KT 270V340 9999 FEW020 12/07 Q1011
                        NOSIG=
201103010715 METAR LMML 010715Z 31014KT 9999 FEW020 11/07 Q1010 NOSIG=
201103010700 METAR LMML NIL=
201103010645 METAR LMML 010645Z 31013KT 9999 FEW020 10/07 Q1010 NOSIG=
201103010630 METAR LMML NIL=
201103010615 METAR LMML 010615Z 31013KT 9999 FEW020 10/07 Q1010 NOSIG=
201103010600 METAR LMML NIL=
201103010545 METAR LMML 010545Z 30013KT 9999 FEW020 09/07 Q1010 NOSIG=
201103010530 METAR LMML NIL=
201103010515 METAR LMML 010515Z 31011KT 9999 SCT032 10/08 Q1009 NOSIG=
201103010500 METAR LMML NIL=
201103010445 METAR LMML 010445Z 30010KT 9999 SCT032 10/08 Q1009 NOSIG=
201103010430 METAR LMML NIL=
201103010415 METAR LMML 010415Z 31008KT 9999 SCT028 10/09 Q1009 NOSIG=
201103010400 METAR LMML NIL=
201103010345 METAR LMML 010345Z 31008KT 9999 BKN019 10/10 Q1009 NOSIG=
201103010330 METAR LMML NIL=
201103010315 METAR LMML 010315Z 31006KT 9999 SCT013 BKN019 10/10 Q1009
                        NOSIG=
201103010300 METAR LMML NIL=
201103010245 METAR LMML 010245Z 31007KT 9999 SCT012 BKN021 11/10 Q1009
                        TEMPO 9000 BKN012=
201103010230 METAR LMML NIL=
201103010215 METAR LMML 010215Z 32007KT 9999 FEW004 BKN018 11/11 Q1009
                        TEMPO BKN015=
201103010200 METAR LMML NIL=
201103010145 METAR LMML 010145Z 24003KT 9999 -SHRA FEW012 BKN019 13/12
                        Q1009 TEMPO 8000 SHRA BKN015=
201103010130 METAR LMML NIL=
201103010115 METAR LMML 010115Z 16007KT 130V200 7000 TSRA BKN022CB 13/12
                        Q1009 TEMPO 5000 TSRA BKN015CB=
201103010100 METAR LMML NIL=
201103010045 METAR LMML 010045Z 17008KT 130V190 9999 -SHRA BKN026 14/12
                        Q1010 TEMPO 8000 SHRA BKN015=
201103010030 METAR LMML NIL=
201103010015 METAR LMML 010015Z 18009KT 150V210 9999 BKN022 14/12 Q1010
                        TEMPO 8000 SHRA BKN015=
201103010000 METAR LMML NIL=

###################################
#  short TAF from LMML
###################################
201103312300 TAF LMML 312300Z 0100/0109 35012KT CAVOK
                      PROB30 TEMPO 0100/0106 9999 FEW008=
201103312000 TAF LMML 312000Z 3121/0106 34010KT CAVOK
                      PROB30 TEMPO 3121/0106 9999 FEW010=
201103311700 TAF LMML 311700Z 3118/0103 32009KT 9999 SCT020=
201103311400 TAF LMML 311400Z 3115/3124 35008KT 9999 SCT025=
201103311100 TAF LMML 311100Z 3112/3121 35010KT 9999 SCT020=
201103310800 TAF LMML 310800Z 3109/3118 35010KT 9999 SCT020
                      PROB30 TEMPO 3109/3114 8000 SHRA BKN015TCU=
201103310500 TAF LMML 310500Z 3106/3115 35005KT 9999 FEW015 SCT100
                      PROB40 TEMPO 3106/3110 8000 RA FEW008 SCT015TCU
                       BKN080=
201103310200 TAF LMML 310200Z 3103/3112 VRB03KT 9999 FEW014 SCT080
                      TEMPO 3103/3112 8000 RA FEW008 SCT015 BKN80
                       PROB30
                      TEMPO 3103/3106 5000 TSRA SCT008 BKN015CB=
201103302300 TAF LMML 302300Z 3100/3109 VRB03KT 9999 FEW014 SCT080
                      TEMPO 3100/3109 8000 RA FEW008 BKN013
                      PROB30 TEMPO 3100/3106 5000 TSRA SCT005 BKN015CB=
201103302000 TAF LMML 302000Z 3021/3106 33004KT 9999 FEW014
                      TEMPO 3021/3106 8000 RA FEW008 BKN013
                      PROB30 TEMPO 3021/3106 5000 TSRA SCT005 BKN015CB=
201103301700 TAF LMML 301700Z 3018/3103 34005KT 9999 SCT018 BKN120
                      TEMPO 3018/3103 7000 SHRA BKN015
                      PROB30 TEMPO 3018/3103 5000 TSRA BKN015CB=
201103301445 TAF COR LMML 301445Z 3015/3024 02005KT 9999 SCT020 BKN250
                      TEMPO 3015/3024 8000 SHRA BKN015
                      PROB30 TEMPO 3015/3024 5000 TSRA BKN013CB=
201103301400 TAF LMML 301400Z 3015/3024 02005KT CAVOK
                      TEMPO 3015/3024 8000 SHRA BKN015
                      PROB30 TEMPO 3015/3024 5000 TSRA BKN013CB=
201103301100 TAF LMML 301100Z 3012/3021 02005KT 9999 SCT025 BKN250
                      PROB30 TEMPO 3018/3021 8000 SHRA BKN015=
201103300800 TAF LMML 300800Z 3009/3018 35007KT 9999 SCT020=
201103300500 TAF LMML 300500Z 3006/3015 34007KT 9999 FEW020=
201103300200 TAF LMML 300200Z 3003/3012 31010KT 9999 SCT020=
201103292300 TAF LMML 292300Z 3000/3009 31007KT 9999 FEW020
                      PROB40 TEMPO 3000/3004 CAVOK=
201103292000 TAF LMML 292000Z 2921/3006 31007KT 9999 FEW020
                      PROB30 TEMPO 2921/2924 CAVOK=
201103291700 TAF LMML 291700Z 2918/3003 30008KT 9999 FEW020
                      PROB30 TEMPO 2921/3003 BKN015=
201103291400 TAF LMML 291400Z 2915/2924 30012KT 9999 FEW015 SCT100=
201103291127 TAF LMML 291115 2912/2921 30012KT 9999 FEW020=
201103291115 TAF LMML 291115Z 2912/2921 30012KT 9999 FEW020=
201103291100 TAF LMML 291115 2912/2921 30012KT 9999 FEW020=
201103290800 TAF LMML 290800Z 2909/2918 30014KT 9999 FEW018 SCT100=
201103290500 TAF LMML 290500Z 2906/2915 30009KT CAVOK
                      BECMG 2906/2909 9999 SCT020=
201103290200 TAF LMML 290200Z 2903/2912 29007KT CAVOK
                      TEMPO 2903/2906 9000 FEW010
                      PROB30 TEMPO 2903/2906 5000 BR BKN005
                      BECMG 2903/2906 9999 SCT015=
201103282300 TAF LMML 282300Z 2900/2909 34008KT CAVOK
                      BECMG 2900/2903 9999 SCT015 BKN100
                      TEMPO 2900/2906 8000 RA BKN010 BKN080
                      PROB30 TEMPO 2900/2906 5000 TSRA BKN005 BKN060CB=
201103282000 TAF LMML 282000Z 2821/2906 28008KT CAVOK
                      BECMG 2821/2824 9999 SCT015 SCT040 BKN100
                       TEMPO 2821/2906 8000 RA BKN010 BKN030 BKN080
                       PROB30
                      TEMPO 2821/2906 5000 TSRA BKN003 BKN015 BKN060CB=
201103281700 TAF LMML 281700Z 2818/2903 20007KT CAVOK
                      PROB40 TEMPO 2818/2821 9999 FEW025
                      BECMG 2819/2822 30010KT 9999 SCT017=
201103281400 TAF LMML 281400Z 2815/2824 20007KT CAVOK
                      PROB40 TEMPO 2815/2821 9999 FEW025
                      BECMG 2819/2822 30010KT 9999 FEW015=
201103281100 TAF LMML 281100Z 2812/2821 19007KT CAVOK
                      PROB40 TEMPO 2812/2816 9999 FEW025=
201103280800 TAF LMML 280800Z 2809/2818 18006KT CAVOK=
201103280500 TAF LMML 280500Z 2806/2815 17008KT CAVOK
                      TEMPO 2806/2807 8000=
201103280250 TAF AMD LMML 280250Z 2803/2812 16008KT CAVOK
                      TEMPO 2803/2805 4000 BR
                      PROB30 TEMPO 2803/2805 1500 BCFG FEW003=
201103280200 TAF LMML 280200Z 2803/2812 16008KT CAVOK
                      PROB30 TEMPO 2803/2805 7000 FEW004=
201103272300 TAF LMML 272300Z 2800/2809 18007KT CAVOK
                      TEMPO 2800/2807 9000 NSC
                      PROB40 TEMPO 2800/2806 5000 BR
                      PROB30 TEMPO 2800/2806 2000 MIFG FEW003=
201103272100 TAF LMML 272100Z 2721/2806 18005KT CAVOK
                      TEMPO 2722/2806 9000 FEW005
                      PROB40 TEMPO 2800/2806 5000 BR
                      PROB30 TEMPO 2802/2806 2000 MIFG BKN003=
201103272000 TAF LMML NIL=
201103271700 TAF LMML 271700Z 2718/2803 14005KT CAVOK
                      TEMPO 2718/2803 9000 FEW011
                      PROB30 TEMPO 2800/2803 5000 BR SCT005=
201103271400 TAF LMML 271400Z 2715/2724 15006KT 9999 FEW020
                      TEMPO 2717/2724 CAVOK
                      PROB30 TEMPO 2718/2724 9000=
201103271100 TAF LMML 271100Z 2712/2721 14007KT 9999 FEW020
                      TEMPO 2712/2718 CAVOK=
201103270800 TAF LMML 270800Z 2709/2718 08005KT 9000 FEW010
                      BECMG 2709/2712 CAVOK
                      TEMPO 2714/2718 9999 FEW012=
201103270500 TAF LMML 270500Z 2706/2715 VRB03KT 5000 BR FEW005
                      BECMG 2706/2709 CAVOK=
201103270200 TAF LMML 270200Z 2703/2712 VRB03KT 7000 FEW005
                      TEMPO 2703/2706 3000 MIFG SCT003
                      BECMG 2707/2710 CAVOK=
201103262300 TAF LMML 262300Z 2700/2709 VRB03KT 9999 FEW012
                      TEMPO 2700/2709 CAVOK
                      PROB30 TEMPO 2700/2706 5000 MIFG=
201103262000 TAF LMML 262000Z 2621/2706 VRB03KT 9999 FEW013
                      PROB30 TEMPO 2623/2706 5000 MIFG=
201103261700 TAF LMML 261700Z 2618/2703 VRB03KT 9999 SCT011 SCT070
                      PROB30 TEMPO 2618/2703 7000 SCT007=
201103261400 TAF LMML 261400Z 2615/2624 18006KT 9999 SCT012
                      TEMPO 2615/2618 BKN012
                      PROB30 TEMPO 2618/2624 7000 BKN006=
201103261239 TAF AMD LMML 2611230Z 2612/2621 16008KT 9999 SCT010 SCT015
                      TEMPO 2612/2618 BKN011=
201103261238 TAF AMD LMML 2612/2621 16008KT 9999 SCT010 SCT015
                      TEMPO 2612/2618 BKN011=
201103261130 TAF AMD LMML 261130Z 2612/2621 16008KT 9999 SCT010 SCT015
                      TEMPO 2612/2618 BKN011=
201103261100 TAF AMD LMML 2611230Z 2612/2621 16008KT 9999 SCT010 SCT015
                      TEMPO 2612/2618 BKN011=
201103260800 TAF LMML 260800Z 2609/2618 19008KT 9999 SCT015=
201103260500 TAF LMML 260500Z 2606/2615 20007KT 9999 FEW020=
201103260200 TAF LMML 260200Z 2603/2612 20007KT 9999 FEW020
                      PROB40 TEMPO 2603/2606 CAVOK
                      PROB30 TEMPO 2603/2606 8000 BKN015=
201103252300 TAF LMML 252300Z 2600/2609 20005KT 9999 FEW020
                      PROB40 TEMPO 2600/2606 CAVOK
                      PROB30 TEMPO 2600/2606 8000 BKN015=
201103252000 TAF LMML 252000Z 2521/2606 VRB05KT CAVOK
                      PROB40 TEMPO 2521/2606 8000 SCT015=
201103251700 TAF LMML 251700Z 2518/2603 20004KT 9999 FEW025
                      PROB30 TEMPO 2600/2603 BKN015 SCT100=
201103251400 TAF LMML 251400Z 2515/2524 23006KT CAVOK
                      TEMPO 2515/2524 9999 FEW018=
201103251100 TAF LMML 251100Z 2512/2521 23006KT CAVOK
                      TEMPO 2512/2519 9999 FEW025=
201103250800 TAF LMML 250800Z 2509/2518 23005KT CAVOK
                      PROB30 TEMPO 2509/2518 9999 FEW025=
201103250500 TAF LMML 250500Z 2506/2515 27005KT CAVOK
                      PROB40 TEMPO 2506/2515 9999 FEW020=
201103250200 TAF LMML 250200Z 2503/2512 27005KT CAVOK
                      PROB30 TEMPO 2503/2506 8000
                      PROB40 TEMPO 2503/2512 FEW015=
201103242300 TAF LMML 242300Z 2500/2509 VRB03KT CAVOK
                      PROB30 TEMPO 2500/2507 8000 FEW015=
201103242000 TAF LMML 242000Z 2421/2506 VRB03KT CAVOK
                      PROB30 TEMPO 2421/2506 8000 FEW015=
201103241700 TAF LMML 241700Z 2418/2503 VRB04KT 9999 FEW025
                      BECMG 2418/2420 CAVOK
                      PROB30 TEMPO 2500/2503 9000 FEW012=
201103241400 TAF LMML 241400Z 2415/2424 VRB05KT 9999 SCT030
                      TEMPO 2417/2424 CAVOK=
201103241100 TAF LMML 241100Z 2412/2421 07008KT 9999 SCT025
                      TEMPO 2417/2421 CAVOK=
201103240800 TAF LMML 240800Z 2409/2418 03006KT 9999 FEW025
                      TEMPO 2415/2418 CAVOK=
201103240500 TAF LMML 240500Z 2406/2415 30005KT 9999 SCT027=
201103240200 TAF LMML 240200Z 2403/2412 VRB04KT 9999 FEW030
                      PROB30 TEMPO 2406/2412 CAVOK=
201103232300 TAF LMML 232300Z 2400/2409 VRB03KT 9999 FEW025=
201103232000 TAF LMML 232000Z 2321/2406 VRB03KT 9999 FEW022 BKN035=
201103231700 TAF LMML 231700Z 2318/2403 03006KT 9999 FEW025=
201103231400 TAF LMML 231400Z 2315/2324 04007KT 9999 SCT025=
201103231100 TAF LMML 231100Z 2312/2321 07010KT 9999 SCT025
                      PROB30 TEMPO 2312/2315 7000 SHRA BKN015TCU
                       BECMG 2317/2320 01006KT=
201103230800 TAF LMML 230800Z 2309/2318 05011KT 9999 SCT020
                      PROB30 TEMPO 2309/2315 7000 SHRA BKN015TCU=
201103230500 TAF LMML 230500Z 2306/2315 05006KT 9999 SCT018=
201103230200 TAF LMML 230200Z 2303/2312 04006KT 9999 SCT018
                      PROB30 TEMPO 2303/2309 SHRA BKN015TCU=
201103222000 TAF LMML 222000Z 2221/2306 04004KT 9999 SCT015 SCT070
                      PROB30 TEMPO 2221/2306 SHRA BKN015TCU=
201103221700 TAF COR LMML 221700Z 2218/2303 04007KT 9999 SCT016
                      PROB30 TEMPO 2220/2303 8000 BKN012=
201103221400 TAF LMML 221400Z 2215/2224 04010KT 9999 SCT016
                      TEMPO 2215/2224 BKN015=
201103221100 TAF LMML 221100Z 2212/2221 04010KT 9999 SCT016
                      TEMPO 2212/2221 BKN015=
201103220800 TAF LMML 220800Z 2209/2218 04012KT 9999 SCT025
                      PROB30 TEMPO 2209/2215 9000 SHRA=
201103220500 TAF LMML 220500Z 2206/2215 04010KT 9999 SCT025
                      PROB30 TEMPO 2206/2215 9000 SHRA=
201103220200 TAF LMML 220200Z 2203/2212 04010KT 9999 SCT025
                      PROB30 TEMPO 2203/2212 9000 SHRA=
201103212300 TAF LMML 212300Z 2200/2209 04008KT 9999 SCT025
                      PROB30 TEMPO 2200/2209 8000 SHRA=
201103212000 TAF LMML 212000Z 2121/2206 04007KT 9999 SCT025
                      PROB30 TEMPO 2121/2206 8000 SHRA BKN015=
201103211700 TAF LMML 211700Z 2118/2203 VRB03KT 9999 SCT020
                      PROB30 TEMPO 2118/2203 SHRA BKN015TCU=
201103211400 TAF LMML 211400Z 2115/2124 03005KT 9999 SCT020
                      PROB30 TEMPO 2115/2118 SHRA BKN015TCU=
201103211100 TAF LMML 211100Z 2112/2121 03007KT 9999 SCT020
                      PROB30 TEMPO 2112/2115 SHRA BKN015TCU=
201103210800 TAF LMML 210800Z 2109/2118 03005KT 9999 SCT020
                      PROB30 2109/218 SHRA BKN015TCU=
201103210500 TAF LMML 210500Z 2106/2115 03008KT 9999 SCT015 SCT080
                      TEMPO 2106/2112 8000 RA SCT010 BKN015 BKN080
                       PROB30
                      TEMPO 2106/2109 04015G25KT 3000 TSRA BKN010
                       BKN015CB BKN060=
201103210200 TAF LMML 210200Z 2103/2112 03008KT 9999 FEW008 SCT025 SCT050
                      TEMPO 2103/2112 8000 RA SCT007 BKN015 BKN050
                       PROB30
                      TEMPO 2103/2112 05015G25KT 3000 TSRA BKN005
                       BKN015CB BKN040=
201103202300 TAF LMML 202300Z 2100/2109 02006KT 9999 SCT025 SCT040
                      TEMPO 2100/2109 7000 SHRA BKN015TCU BKN040
                       PROB30
                      TEMPO 2100/2109 01015G25KT 3000 TSRA BKN010
                       BKN015CB BKN030=
201103202000 TAF LMML 202000Z 2021/2106 02008KT 9999 SCT015
                      TEMPO 2021/2106 01015G25KT 7000 SHRA BKN015TCU
                       PROB40
                      TEMPO 2021/2106 03020G30KT 2000 TSGR BKN010
                       BKN015CB
                      BECMG 2103/2106 08010KT=
201103201700 TAF LMML 201700Z 2018/2103 03005KT 9999 SCT015
                      TEMPO 218/2103 7000 SHRA BKN015TCU
                      PROB40 TEMPO 2018/2103 3000 TSGR SCT007 BKN015CB=
201103201400 TAF LMML 201400Z 2015/2024 03005KT 9999 SCT015
                      TEMPO 2015/2024 7000 SHRA BKN015TCU
                      PROB40 TEMPO 2015/2024 3000 TSGR SCT007 BKN015CB=
201103201100 TAF LMML 201100Z 2012/2021 03005KT 9999 SCT015
                      TEMPO 2012/2021 7000 SHRA BKN015TCU
                      PROB40 TEMPO 2012/2021 3000 TSGR SCT007 BKN015CB=
201103200800 TAF LMML 200800Z 2009/2018 36005KT 9999 SCT018
                      PROB40 TEMPO 2009/2018 7000 SHRA BKN015TCU
                       PROB30
                      TEMPO 2009/2018 5000 TSRA BKN015CB=
201103200500 TAF LMML 200500Z 2006/2015 01005KT 9999 SCT015
                      TEMPO 2006/2015 8000 SHRA BKN013TCU
                      PROB40 TEMPO 2006/2015 5000 TSRA BKN011CB=
201103200200 TAF LMML 200200Z 2003/2012 33006KT 9999 SCT015
                      TEMPO 2003/2012 7000 SHRA BKN011=
201103192300 TAF LMML 192300Z 2000/2009 02005KT 9999 FEW008 SCT015
                      TEMPO 2000/2009 7000 SHRA BKN012=
201103192000 TAF LMML 192000Z 1921/2006 31008KT 9999 SCT015
                      TEMPO 1921/2006 7000 SHRA BKN014TCU=
201103191700 TAF LMML 191700Z 1918/2003 32010KT 9999 SCT015
                      TEMPO 1918/2003 BKN015
                      TEMPO 1918/2003 8000 SHRA BKN015TCU
                      PROB30 TEMPO 1920/2003 TSRA SCT040CB=
201103191400 TAF LMML 191400Z 1915/1924 29010KT 9999 SCT016
                      TEMPO 1915/1924 9000 SHRA BKN015TCU
                      PROB40 TEMPO 1915/1924 BKN015=
201103191100 TAF LMML 191100Z 1912/1921 29013KT 9999 SCT017
                      TEMPO 1912/1921 9000 SHRA BKN015TCU
                      PROB40 TEMPO 1912/1921 BKN015=
201103190800 TAF LMML 190800Z 1909/1918 29014KT 9999 SCT018
                      TEMPO 1909/1918 8000 SHRA SCT015TCU
                      PROB30 TEMPO 1909/1918 BKN015=
201103190500 TAF LMML 190500Z 1906/1915 30015KT 9999 SCT025
                      PROB30 TEMPO 1903/1915 SHRA BKN015=
201103190200 TAF LMML 190200Z 1903/1912 30014KT 9999 SCT020
                      TEMPO 1903/1908 8000 SHRA BKN015=
201103182300 TAF LMML 182300Z 1900/1909 30010KT 9999 SCT025
                      TEMPO 1900/1908 8000 SHRA BKN018TCU=
201103182000 TAF LMML 182000Z 1821/1906 30010KT 9999 SCT020
                      TEMPO 1821/1906 8000 SHRA BKN015=
201103181700 TAF LMML 181700Z 1818/1903 29012KT 9999 FEW020
                      TEMPO 1821/1903 8000 SHRA BKN015=
201103181400 TAF LMML 181400Z 1815/1824 28015KT 9999 SCT020
                      PROB30 TEMPO 1821/1824 8000 SHRA BKN015=
201103181100 TAF LMML 181100Z 1812/1821 27012KT 9999 SCT020
                      PROB30 TEMPO 1818/1821 BKN013=
201103180800 TAF LMML 180800Z 1809/1818 27010KT 9999 SCT014=
201103180500 TAF LMML 180500Z 1806/1815 30010KT 9999 FEW015
                      PROB30 TEMPO 1806/1808 BKN009=
201103180200 TAF LMML 180200Z 1803/1812 30010KT 9999 SCT015
                      PROB30 TEMPO 1803/1807 9000 BKN007=
201103172300 TAF LMML 172300Z 1800/1809 21005KT 9999 FEW010
                      PROB30 TEMPO 1802/1807 9000 BKN007
                      BECMG 1801/1804 30010KT=
201103172000 TAF LMML 172000Z 1721/1806 21005KT 9999 FEW010
                      PROB30 TEMPO 1721/1806 BKN007
                      BECMG 1801/1804 30010KT=
201103171700 TAF LMML 171700Z 1718/1803 VRB03KT 9999 FEW013
                      TEMPO 1718/1803 CAVOK
                      BECMG 1800/1803 28005KT=
201103171400 TAF LMML 171400Z 1715/1724 22006KT 9999 FEW015
                      TEMPO 17145/1724 CAVOK=
201103171100 TAF LMML 171100Z 1712/1721 21008KT 9999 FEW020
                      TEMPO 1709/1721 CAVOK=
201103170800 TAF LMML 170800Z 1709/1718 23008KT 9999 FEW015
                      TEMPO 1709/1718 CAVOK=
201103170500 TAF LMML 170500Z 1706/1715 VRB03KT CAVOK
                      PROB40 TEMPO 1706/1708 9000 NSC
                      PROB30 TEMPO 1706/1715 9999 FEW012
                      BECMG 1712/1715 24010KT=
201103170200 TAF LMML 170200Z 1703/1712 29006KT CAVOK
                      TEMPO 1703/1709 9999 FEW009
                      PROB40 TEMPO 1703/1707 9000
                      PROB30 TEMPO 1703/1707 5000 BR BKN007=
201103162300 TAF LMML 162300Z 1700/1709 29006KT 9999 FEW009
                      TEMPO 1700/1709 CAVOK
                      PROB40 TEMPO 1700/1707 9000
                      PROB30 TEMPO 1700/1707 5000 BR BKN007=
201103162000 TAF LMML 162000Z 1621/1706 29010KT CAVOK
                      TEMPO 1621/1706 9000 BKN010
                      PROB30 TEMPO 1621/1706 5000 BR BKN005=
201103161700 TAF LMML 161700Z 1618/1703 21015KT 9999 FEW015
                      TEMPO 1618/1621 CAVOK
                      PROB30 TEMPO 1618/1620 9000
                      PROB40 TEMPO 1620/1703 9000 BKN010
                      BECMG 1620/1623 29010KT=
201103161400 TAF LMML 161400Z 1612/1624 19015G25KT CAVOK
                      PROB30 TEMPO 1615/1624 9999 FEW015=
201103161100 TAF LMML 161100Z 1612/1621 19015G25KT CAVOK
                      PROB30 TEMPO 1615/1621 9000 NSC=
201103160800 TAF LMML 160800Z 1609/1618 15018G28KT CAVOK
                      PROB30 TEMPO 1609/1618 9000 NSC
                      BECMG 1610/1613 21015G25KT=
201103160500 TAF LMML 160500Z 1606/1615 17017G28KT 9000 NSC
                      PROB30 TEMPO 1606/1615 5000 TSRA BKN070CB
                       OVC110
                      BECMG 1612/1615 20015G25KT=
201103160200 TAF LMML 160200Z 1603/1612 16012KT 9000 RA NSC
                      BECMG 1605/1608 16020G30KT=
201103152300 TAF LMML 152300Z 1600/1609 15012KT 9000 NSC
                      TEMPO 1600/1609 RA SCT004 BKN100
                      BECMG 1605/1608 16020G30KT=
201103152000 TAF LMML 152000Z 1521/1606 10008KT 5000 BR SCT003 BKN100
                      BECMG 1603/1606 14020G30KT
                      TEMPO 1521/1524 3000 RA BKN003=
201103151700 TAF LMML 151700Z 1518/1603 13005KT 6000 NSC
                      BECMG 1518/1521 15015KT 4000 BR FEW012 BKN100
                       TEMPO 1518/1603 3000 RA BKN010 BKN080
                      PROB30 TEMPO 1521/1603 15020G30KT 1500 TSRA
                       BKN010 BKN060CB=
201103151400 TAF LMML 151400Z 1515/1524 10005KT 7000 NSC
                      BECMG 1515/1518 5000 BR FEW012 BKN100
                      TEMPO 1515/1524 3000 RA BKN010 BKN080
                      BECMG 1517/1520 16015KT
                      PROB30 TEMPO 1518/1524 15020G30KT 1500 TSRA
                       BKN005 BKN060CB=
201103151100 TAF LMML 151100Z 1512/1521 08006KT 5000 HZ NSC
                      BECMG 1512/1515 9000 FEW020 SCT120
                      BECMG 1515/1518 15010KT
                      TEMPO 1515/1521 5000 RA
                      PROB30 TEMPO 1518/1521 3000 TSRA SCT025 BKN060CB=
201103150800 TAF LMML 150800Z 1509/1518 10005KT 2000 BR FEW005 SCT120
                      BECMG 1509/1512 5000 HZ NSC
                      PROB30 TEMPO 1512/1518 9000 NSC
                      BECMG 1515/1518 17010KT SCT030 BKN100=
201103150530 LMML 150530Z 1506/1515 15005KT 0500 FG
                      BECMG 1506/1509 5000 DU NSC=
201103150500 TAF LMML 150500Z 1506/1515 15005KT 8000 NSC
                      TEMPO 1506/1509 5000 DU=
201103150200 TAF LMML 150200Z 1503/1512 15005KT 9000 NSC
                      TEMPO 1503/1507 3000 DU=
201103142300 TAF LMML 142300Z 1500/1509 15005KT 9000 NSC
                      TEMPO 1500/1506 3000 BR BKN008=
201103142000 TAF LMML 142000Z 1421/1506 15012KT 9000 NSC
                      PROB30 TEMPO 1421/1506 5000 BKN008
                      PROB30 TEMPO 1502/1506 1500 BR BKN005
                      BECMG 1500/1503 18003KT=
201103141700 TAF LMML 141700Z 1418/1503 12008KT 9000 NSC
                      PROB30 TEMPO 1420/1503 5000 DU=
201103141400 TAF LMML 141400Z 1415/1424 12014KT 9000 NSC
                      PROB30 TEMPO 1420/1424 5000 DU=
201103141100 TAF LMML 141100Z 1412/1421 12013KT 9000 NSC=
201103140800 TAF LMML 140800Z 1409/1418 12012KT 9999 FEW025 BKN250
                      PROB30 TEMPO 1415/1418 5000 DU=
201103140500 TAF LMML 140500Z 1406/1415 12015KT CAVOK
                      TEMPO 1406/1415 90000 FEW015
                      PROB30 TEMPO 1406/1409 5000 DU=
201103140200 TAF LMML 140200Z 1403/1412 12015KT CAVOK
                      TEMPO 1403/1412 9000 FEW015
                      PROB30 TEMPO 1403/1409 5000 DU=
201103132300 TAF LMML 132300Z 1400/1409 12015KT CAVOK
                      TEMPO 1400/1409 8000 FEW015
                      PROB30 TEMPO 1400/1409 DU=
201103132000 TAF LMML 132000Z 1321/1406 12015KT CAVOK
                      TEMPO 1321/1406 8000 FEW015
                      PROB30 TEMPO 1321/1406 5000 DU=
201103131700 TAF LMML 131700Z 1318/1403 13010KT 9000 FEW020 SCT080=
201103131400 TAF LMML 131400Z 1315/1324 15015KT 9000 SCT030
                      PROB30 TEMPO 1315/1318 8000 RA FEW015 BKN030=
201103131100 TAF LMML 131100Z 1312/1321 14022KT 9999 FEW035 SCT060
                      PROB30 TEMPO 1312/1314 5000 RA FEW010 BKN050=
201103130800 TAF LMML 130800Z 1309/1318 14022KT 9999 FEW035 SCT070
                      PROB30 TEMPO 1309/1313 5000 TSRA BKN060CB=
201103130500 TAF LMML 130500Z 1306/1315 14020KT 9999 FEW025 BKN070
                      TEMPO 1306/1315 14020G30KT 8000 RA BKN015
                       BKN060
                      PROB30 TEMPO 1306/1313 15025G35KT 3000 TSRA
                       BKN015 BKN040CB=
201103130200 TAF LMML 130200Z 1303/1312 14020KT 9999 FEW020 BKN090
                      TEMPO 1303/1312 14020G30KT 8000 RA BKN015
                       BKN080
                      PROB30 TEMPO 1303/1312 14025G35KT 3000 TSRA
                       BKN015 BKN040CB=
201103122300 TAF LMML 122300Z 1300/1309 14020KT 9999 SCT020 BKN120
                      TEMPO 1300/1309 13020G30KT 8000 RA BKN015
                       BKN080
                      PROB30 TEMPO 1302/1309 13025G35KT 3000 TSRA
                       BKN015 BKN040CB=
201103122000 TAF LMML 122000Z 1221/1306 14018KT 9999 SCT025 SCT120
                      TEMPO 1300/1306 13020G30KT 8000 RA BKN015
                       BKN090
                      PROB30 TEMPO 1303/1306 12022G32KT 3000 TSRA
                       BKN015 BKN060CB=
201103121700 TAF LMML 121700Z 1218/1303 14018KT 9999 SCT030
                      PROB40 TEMPO 1218/1303 14018G28KT=
201103121400 TAF LMML 121400Z 1215/1224 14017KT 9999 SCT030
                      PROB40 TEMPO 1218/1224 12018G30KT=
201103121100 TAF LMML 121100Z 1212/1221 14015KT 9999 SCT030
                      PROB40 TEMPO 1218/1221 12015G25KT=
201103120800 TAF LMML 120800Z 1209/1218 13015KT 9999 SCT030=
201103120500 TAF LMML 120500Z 1206/1215 12010KT 9999 SCT025 SCT250
                      TEMPO 1212/1215 12015G25KT=
201103120200 TAF LMML 120200Z 1203/1212 13005KT 9999 SCT025
                      BECMG 1208/1211 13015KT=
201103112300 TAF LMML 112300Z 1200/1209 13005KT 9999 SCT025
                      BECMG 1206/1209 13015KT=
201103112000 TAF LMML 112000Z 1121/1206 15008KT 9999 SCT025=
201103111700 TAF LMML 111700Z 1118/1203 13008KT 9999 FEW025
                      TEMPO 1118/1124 CAVOK=
201103111400 TAF LMML 111400Z 1115/1124 07006KT 9999 FEW025 SCT035
                      BECMG 1118/1121 13010KT=
201103111100 TAF LMML 111100Z 1112/1121 06006KT 9999 FEW030 SCT045
                      BECMG 1115/1118 12010KT=
201103110800 TAF LMML 110800Z 1109/1118 06006KT 9999 FEW030 SCT045
                      BECMG 1115/1118 12010KT=
201103110500 TAF LMML 110500Z 1106/1115 08006KT 9999 SCT030=
201103110200 TAF LMML 110200Z 1103/1112 07004KT CAVOK
                      TEMPO 1103/1112 9999 SCT040=
201103102300 TAF LMML 102300Z 1100/1109 VRB03KT 9999 SCT030=
201103102000 TAF LMML 102000Z 1021/1106 VRB03KT 9999 SCT030=
201103101700 TAF LMML 101700Z 1018/1103 09004KT 9999 SCT038=
201103101400 TAF LMML 101400Z 1015/1024 09005KT 9999 FEW035 BKN048
                      TEMPO 1015/1024 CAVOK=
201103101100 TAF LMML 101100Z 1012/1021 09005KT CAVOK
                      TEMPO 1012/1021 9999 SCT045=
201103100800 TAF COR LMML 100800Z 1009/1018 09005KT 9999 BKN040
                      TEMPO 1009/1018 CAVOK=
201103100500 TAF LMML 100500Z 1006/1015 08005KT 9999 SCT040=
201103100200 TAF LMML 100200Z 1003/1012 12005KT 9999 SCT040=
201103092300 TAF LMML 092300Z 1000/1009 12005KT 9999 SCT040=
201103092000 TAF LMML 092000Z 0921/1006 15005KT 9999 SCT040=
201103091700 TAF LMML 091700Z 0918/1003 10004KT 9999 FEW040=
201103091400 TAF LMML 091400Z 0915/0924 12005KT 9999 FEW040=
201103091100 TAF LMML 091100Z 0912/0921 12004KT 9999 FEW045 SCT250=
201103090800 TAF LMML 090800Z 0909/0918 08008KT 9999 SCT045 BKN250=
201103090500 TAF LMML 090500Z 0906/0915 09007KT 9999 BKN040=
201103090200 TAF LMML 090200Z 0903/0912 08008KT 9999 BKN045
                      PROB30 TEMPO 0903/0912 CAVOK=
201103082300 TAF LMML 082300Z 0900/0909 08008KT 9999 BKN045
                      TEMPO 0900/0909 CAVOK=
201103082000 TAF LMML 082000Z 0821/0906 08007KT 9999 BKN045
                      PROB30 TEMPO 0821/0906 CAVOK=
201103081700 TAF LMML 081700Z 0818/0903 05013KT 9999 SCT045
                      PROB30 TEMPO 0818/0903 CAVOK=
201103081400 TAF LMML 081400Z 0815/0824 03015KT 9999 SCT045
                      PROB30 TEMPO 0815/0818 CAVOK=
201103081100 TAF LMML 081100Z 0812/0821 03015KT 9999 SCT045=
201103080800 TAF LMML 080800Z 0809/0818 03015G25KT 9999 FEW045
                      TEMPO 0809/0818 CAVOK
                      BECMG 0811/0814 03015KT=
201103080500 TAF LMML 080500Z 0806/0815 05015KT 9999 SCT030
                      TEMPO 0806/0810 04015G25KT=
201103080200 TAF LMML 080200Z 0803/0812 05015KT 9999 SCT012 BKN030
                      PROB30 TEMPO 0803/0808 6000 RA BKN004 BKN012=
201103072300 TAF LMML 072300Z 0800/0809 06015KT 9999 FEW004 SCT012 BKN030
                      TEMPO 0800/0809 06015G25KT 4000 RA BKN004
                       BKN012=
201103072000 TAF LMML 072000Z 0721/0806 04015KT 9999 SCT020 SCT040
                      TEMPO 0721/0806 04015G25KT BKN030=
201103071700 TAF LMML 071700Z 0718/0803 36008KT 9999 FEW025 BKN035
                      BECMG 0721/0724 05018KT
                      PROB30 TEMPO 0721/0803 9000 RA=
201103071400 TAF LMML 071400Z 0715/0724 33010KT 9999 FEW020 BKN040
                      BECMG 0716/0719 04005KT
                      BECMG 0721/0724 05015KT=
201103071100 TAF LMML 071100Z 0712/0721 33012KT 9999 FEW025
                      BECMG 0717/0720 04008KT=
201103070800 TAF LMML 070800Z 0709/0718 32013KT CAVOK
                      TEMPO 0709/0718 9999 FEW020
                      BECMG 0715/0718 02005KT=
201103070500 TAF LMML 070500Z 0706/0715 30010KT 9999 FEW030=
201103070200 TAF LMML 070200Z 0703/0712 30010KT 9999 FEW030=
201103062300 TAF LMML 062300Z 0700/0709 29010KT 9999 FEW030
                      PROB30 TEMPO 0700/0709 CAVOK=
201103062000 TAF LMML 062000Z 0621/0706 28010KT 9999 FEW030
                      PROB30 TEMPO 0621/0706 CAVOK=
201103061700 TAF LMML 061700Z 0618/0703 28012KT 9999 SCT022=
201103061400 TAF LMML 061400Z 0615/0624 29015KT 9999 SCT022=
201103061100 TAF LMML 061100Z 0612/0621 30015KT 9999 SCT023
                      TEMPO 0612/0615 30015G25KT=
201103060800 TAF LMML 060800Z 0609/0618 30015KT 9999 FEW030
                      TEMPO 0609/0614 30015G25KT=
201103060715 TAF LMML 060715Z 0606/0615 30015KT 9999 FEW030=
201103060200 TAF LMML 060200Z 0603/0609 30015KT 9999 FEW025=
201103052300 TAF LMML 052300Z 0600/0609 30013KT 9999 FEW020=
201103052000 TAF LMML 052000Z 0521/0606 30013KT 9999 FEW020=
201103051700 TAF LMML 051700Z 0518/0603 29013KT 9999 SCT020=
201103051400 TAF LMML 051400Z 0515/0524 30018KT 9999 SCT020=
201103051100 TAF LMML 051100Z 0512/0521 30024KT 9999 SCT018=
201103050800 TAF LMML 050800Z 0509/0518 29018G28KT 9999 FEW012 SCT015=
201103050500 TAF LMML 050500Z 0506/0515 26015KT 8000 BKN010
                      BECMG 0506/0509 29020G30KT 9999 SCT020=
201103050200 TAF LMML 050200Z 0503/0512 23005KT 1500 BR BKN002
                      BECMG 0503/0506 29014KT 9999 BKN012
                      TEMPO 0506/0512 28018G28KT SCT015=
201103042300 TAF LMML 042300Z 0500/0509 12005KT 3000 BR BKN003
                      TEMPO 0500/0503 1500 BR OVC002
                      PROB30 TEMPO 0500/0502 0300 FG OVC001
                      BECMG 0501/0503 22010KT 6000 BKN006
                      BECMG 0503/0506 28015KT 9999 BKN012
                      TEMPO 0506/0509 29018G28KT SCT015=
201103042000 TAF LMML 042000Z 0421/0506 10012KT 6000 BKN006
                      TEMPO 0421/0503 3000 BR BKN003
                      PROB30 TEMPO 0421/0502 0300 FG BKN001
                      BECMG 0422/0501 22006KT
                      BECMG 0502/0505 28014KT 9999 SCT012=
201103041700 TAF LMML 041700Z 0418/0503 10015KT 4000 BR BKN005
                      TEMPO 0418/0503 2000 BR BNK003
                      PROB40 TEMPO 0421/0503 7000 BKN009
                      BECMG 0423/0502 29015KT=
201103041400 TAF LMML 041400Z 0415/0424 10015KT 8000 BKN008
                      PROB30 TEMPO 0415/0424 5000 BR BKN005=
201103041100 TAF LMML 041100Z 0412/0421 10015KT 8000 BKN008
                      PROB30 TEMPO 0412/0417 9999 SCT010=
201103040800 TAF LMML 040800Z 0409/0418 09018G28KT 9999 BKN012
                      TEMPO 0409/0412 7000 BKN009
                      TEMPO 0412/0418 SCT015=
201103040500 TAF LMML 040500Z 0406/0415 08020G30KT 9999 SCT020 BKN100
                      TEMPO 0406/0409 8000 RA BKN015=
201103040200 TAF LMML 040200Z 0403/0412 08015KT 9999 SCT020 BKN090
                      TEMPO 0403/0412 08018G28KT 8000 RA BKN015=
201103032300 TAF LMML 032300Z 0400/0409 08018KT 9999 SCT020 BKN100
                      TEMPO 0400/0409 08020G30KT 8000 RA BKN015=
201103032000 TAF LMML 032000Z 0321/0406 08010KT CAVOK
                      BECMG 0400/0403 9000 RA SCT007 BKN015 BKN090
                       BECMG 0403/0406 07020KT=
201103031700 TAF LMML 031700Z 0318/0403 09008KT 9999 FEW020
                      PROB30 TEMPO 0318/0401 CAVOK
                      BECMG 0322/0401 08018KT
                      PROB30 TEMPO 0400/0403 9000 RA BKN015=
201103031400 TAF LMML 031400Z 0315/0324 09012KT 9999 FEW020
                      PROB30 TEMPO 0315/0321 CAVOK=
201103031100 TAF LMML 031100Z 0312/0321 09008KT 9999 FEW030
                      TEMPO 0312/0321 CAVOK=
201103030800 TAF LMML 030800Z 0309/0318 VRB05KT 9999 FEW030
                      TEMPO 0309/0318 CAVOK=
201103030500 TAF LMML 030500Z 0306/0315 18005KT 9999 FEW030
                      BECMG 0312/0315 09008KT=
201103030200 TAF LMML 030200Z 0303/0312 VRB03KT 9999 FEW030=
201103022300 TAF LMML 022300Z 0300/0309 VRB03KT 9999 FEW030=
201103022000 TAF LMML 022000Z 0221/0306 VRB03KT 9999 FEW030=
201103021700 TAF LMML 021700Z 0218/0303 21008KT 9999 SCT030=
201103021400 TAF LMML 021400Z 0215/0224 21010KT 9999 SCT030=
201103021100 TAF LMML 021100Z 0212/0221 21012KT 9999 SCT030=
201103020800 TAF LMML 020800Z 0209/0218 23012KT 9999 SCT030=
201103020500 TAF LMML 020500Z 0206/0215 02015KT 9999 SCT030=
201103020200 TAF LMML 020200Z 0203/0212 24015KT 9999 SCT030=
201103012300 TAF LMML 012300Z 0200/0209 24013KT 9999 SCT030
                      PROB30 TEMPO 0200/0206 8000 SHRA=
201103012000 TAF LMML 012000Z 0121/0206 24010KT 9999 SCT030
                      PROB30 TEMPO 8000 SHRA=
201103011700 TAF LMML 011700Z 0118/0203 24008KT 9999 SCT030=
201103011400 TAF LMML 011400Z 0115/0124 27013KT 9999 SCT030=
201103011100 TAF LMML 011100Z 0112/0121 27015KT 9999 FEW030=
201103010800 TAF LMML 010800Z 0109/0118 29014KT 9999 FEW025=
201103010500 TAF LMML 010500Z 0106/0115 30013KT 9999 SCT025=
201103010200 TAF LMML 010200Z 0103/0112 23009KT 9999 SCT020
                      BECMG 0103/0104 29013KT
                      TEMPO 0103/0106 8000 SHRA BKN015
                      PROB30 TEMPO 0103/0104 3000 TSRA BKN010 BKN015CB=

###################################
#  large TAF from LMML
###################################
201103312300 TAF LMML NIL=
201103311700 TAF LMML NIL=
201103311100 TAF LMML NIL=
201103310500 TAF LMML NIL=
201103302300 TAF LMML NIL=
201103301700 TAF LMML NIL=
201103301100 TAF LMML NIL=
201103300500 TAF LMML NIL=
201103292300 TAF LMML NIL=
201103291700 TAF LMML NIL=
201103291115 TAF LMML 291115Z 2912/2921 30012KT 9999 FEW020=
201103291100 TAF LMML 291115 2912/2921 30012KT 9999 FEW020=
201103290500 TAF LMML NIL=
201103282300 TAF LMML NIL=
201103281700 TAF LMML NIL=
201103281100 TAF LMML NIL=
201103280500 TAF LMML NIL=
201103272300 TAF LMML NIL=
201103271700 TAF LMML NIL=
201103271100 TAF LMML NIL=
201103270500 TAF LMML NIL=
201103262300 TAF LMML NIL=
201103261700 TAF LMML NIL=
201103261100 TAF LMML NIL=
201103260500 TAF LMML NIL=
201103252300 TAF LMML NIL=
201103251700 TAF LMML NIL=
201103251100 TAF LMML NIL=
201103250500 TAF LMML NIL=
201103242300 TAF LMML NIL=
201103241700 TAF LMML NIL=
201103241100 TAF LMML NIL=
201103240500 TAF LMML NIL=
201103232300 TAF LMML NIL=
201103231700 TAF LMML NIL=
201103231100 TAF LMML NIL=
201103230500 TAF LMML NIL=
201103222300 TAF LMML NIL=
201103221700 TAF LMML NIL=
201103221100 TAF LMML NIL=
201103220500 TAF LMML NIL=
201103212300 TAF LMML NIL=
201103211700 TAF LMML NIL=
201103211100 TAF LMML NIL=
201103210500 TAF LMML NIL=
201103202300 TAF LMML NIL=
201103201700 TAF LMML NIL=
201103201100 TAF LMML NIL=
201103200500 TAF LMML NIL=
201103192300 TAF LMML NIL=
201103191700 TAF LMML NIL=
201103191100 TAF LMML NIL=
201103190500 TAF LMML NIL=
201103182300 TAF LMML NIL=
201103181700 TAF LMML NIL=
201103181100 TAF LMML NIL=
201103180500 TAF LMML NIL=
201103172300 TAF LMML NIL=
201103171700 TAF LMML NIL=
201103171100 TAF LMML NIL=
201103170500 TAF LMML NIL=
201103162300 TAF LMML NIL=
201103161700 TAF LMML NIL=
201103161400 TAF LMML 161400Z 1612/1624 19015G25KT CAVOK
                      PROB30 TEMPO 1615/1624 9999 FEW015=
201103161100 TAF LMML NIL=
201103160500 TAF LMML NIL=
201103152300 TAF LMML NIL=
201103151700 TAF LMML NIL=
201103151100 TAF LMML NIL=
201103150500 TAF LMML NIL=
201103142300 TAF LMML NIL=
201103141700 TAF LMML NIL=
201103141100 TAF LMML NIL=
201103140500 TAF LMML NIL=
201103132300 TAF LMML NIL=
201103131700 TAF LMML NIL=
201103131100 TAF LMML NIL=
201103130500 TAF LMML NIL=
201103122300 TAF LMML NIL=
201103121700 TAF LMML NIL=
201103121100 TAF LMML NIL=
201103120500 TAF LMML NIL=
201103112300 TAF LMML NIL=
201103111700 TAF LMML NIL=
201103111100 TAF LMML NIL=
201103110500 TAF LMML NIL=
201103102300 TAF LMML NIL=
201103101700 TAF LMML NIL=
201103101100 TAF LMML NIL=
201103100500 TAF LMML NIL=
201103092300 TAF LMML NIL=
201103091700 TAF LMML NIL=
201103091100 TAF LMML NIL=
201103090500 TAF LMML NIL=
201103082300 TAF LMML NIL=
201103081700 TAF LMML NIL=
201103081100 TAF LMML NIL=
201103080500 TAF LMML NIL=
201103072300 TAF LMML NIL=
201103071700 TAF LMML NIL=
201103071100 TAF LMML NIL=
201103070500 TAF LMML NIL=
201103062300 TAF LMML NIL=
201103061700 TAF LMML NIL=
201103061100 TAF LMML NIL=
201103060500 TAF LMML NIL=
201103052300 TAF LMML NIL=
201103051700 TAF LMML NIL=
201103051100 TAF LMML NIL=
201103050500 TAF LMML NIL=
201103042300 TAF LMML NIL=
201103041700 TAF LMML NIL=
201103041100 TAF LMML NIL=
201103040500 TAF LMML NIL=
201103032300 TAF LMML NIL=
201103031700 TAF LMML NIL=
201103031100 TAF LMML NIL=
201103030500 TAF LMML NIL=
201103022300 TAF LMML NIL=
201103021700 TAF LMML NIL=
201103021100 TAF LMML NIL=
201103020500 TAF LMML NIL=
201103012300 TAF LMML NIL=
201103011700 TAF LMML NIL=
201103011100 TAF LMML NIL=
201103010500 TAF LMML NIL=
