##########################################################
# Query made at 01/18/2013 16:06:56 UTC
# Time interval: from 03/01/2009 00:00  to 03/31/2009 23:59  UTC
##########################################################

##########################################################
# LMML, Luqa (Malta)
# WMO index: 16597
# Latitude 35-51N. Longitude 014-29E. Altitude 91 m.
##########################################################

###################################
#  METAR/SPECI from LMML
###################################
200903312345 METAR LMML 312345Z 14007KT 120V190 CAVOK 14/13 Q1010 NOSIG=
200903312315 METAR LMML 312315Z 11009KT CAVOK 14/13 Q1009 NOSIG=
200903312300 METAR LMML NIL=
200903312245 METAR LMML 312245Z 10008KT CAVOK 14/13 Q1009 NOSIG=
200903312230 METAR LMML NIL=
200903312215 METAR LMML 312215Z 10006KT 070V140 CAVOK 14/13 Q1010 NOSIG=
200903312200 METAR LMML NIL=
200903312145 METAR LMML 312145Z 10008KT CAVOK 14/13 Q1010 NOSIG=
200903312130 METAR LMML NIL=
200903312115 METAR LMML 312115Z 10007KT 060V120 CAVOK 15/13 Q1010 NOSIG=
200903312045 METAR LMML 312045Z 09007KT CAVOK 15/13 Q1010 NOSIG=
200903312015 METAR LMML 312015Z 10007KT CAVOK 15/13 Q1010 NOSIG=
200903312000 METAR LMML NIL=
200903311945 METAR LMML 311945Z 10006KT CAVOK 15/13 Q1010 NOSIG=
200903311930 METAR LMML NIL=
200903311915 METAR LMML 311915Z VRB03KT CAVOK 15/13 Q1010 NOSIG=
200903311845 METAR LMML 311845Z 12005KT 090V150 CAVOK 15/13 Q1010 NOSIG=
200903311815 METAR LMML 311815Z 13007KT CAVOK 15/13 Q1010 NOSIG=
200903311800 METAR LMML NIL=
200903311745 METAR LMML 311745Z 13007KT CAVOK 15/13 Q1009 NOSIG=
200903311730 METAR LMML NIL=
200903311715 METAR LMML 311715Z 12006KT CAVOK 16/13 Q1009 NOSIG=
200903311700 METAR LMML NIL=
200903311645 METAR LMML 311645Z 13008KT CAVOK 17/13 Q1009 NOSIG=
200903311630 METAR LMML NIL=
200903311615 METAR LMML 311615Z 12006KT CAVOK 19/13 Q1009 NOSIG=
200903311600 METAR LMML NIL=
200903311545 METAR LMML 311545Z 13004KT 090V150 CAVOK 20/12 Q1009 NOSIG=
200903311530 METAR LMML NIL=
200903311515 METAR LMML 311515Z 14005KT 110V190 CAVOK 20/13 Q1009 NOSIG=
200903311500 METAR LMML NIL=
200903311445 METAR LMML 311445Z 13007KT CAVOK 20/12 Q1009 NOSIG=
200903311430 METAR LMML NIL=
200903311415 METAR LMML 311415Z 16007KT 120V200 CAVOK 21/11 Q1009 NOSIG=
200903311400 METAR LMML NIL=
200903311345 METAR LMML 311345Z 14007KT 100V170 CAVOK 20/12 Q1009 NOSIG=
200903311330 METAR LMML NIL=
200903311315 METAR LMML 311315Z 16008KT 120V190 CAVOK 21/12 Q1009 NOSIG=
200903311300 METAR LMML NIL=
200903311245 METAR LMML 311245Z 16010KT 130V190 CAVOK 21/12 Q1009 NOSIG=
200903311230 METAR LMML NIL=
200903311215 METAR LMML 311215Z 15010KT CAVOK 20/13 Q1010 NOSIG=
200903311200 METAR LMML NIL=
200903311145 METAR LMML 311145Z 17010KT 140V210 CAVOK 20/13 Q1010 NOSIG=
200903311130 METAR LMML NIL=
200903311115 METAR LMML 311115Z 17009KT 140V210 CAVOK 21/12 Q1010 NOSIG=
200903311100 METAR LMML NIL=
200903311045 METAR LMML 311045Z 17011KT 130V210 CAVOK 20/12 Q1010 NOSIG=
200903311030 METAR LMML NIL=
200903311015 METAR LMML 311015Z 16008KT 120V210 CAVOK 20/14 Q1010 NOSIG=
200903311000 METAR LMML NIL=
200903310945 METAR LMML 310945Z 14009KT CAVOK 19/13 Q1010 NOSIG=
200903310930 METAR LMML NIL=
200903310915 METAR LMML 310915Z 13007KT CAVOK 19/13 Q1009 NOSIG=
200903310900 METAR LMML NIL=
200903310845 METAR LMML 310845Z 13008KT CAVOK 19/13 Q1009 NOSIG=
200903310830 METAR LMML NIL=
200903310815 METAR LMML 310815Z 13009KT CAVOK 19/13 Q1010 NOSIG=
200903310745 METAR LMML 310745Z 16011KT CAVOK 18/12 Q1010 NOSIG=
200903310730 METAR LMML NIL=
200903310715 METAR LMML 310715Z 17011KT 130V200 CAVOK 17/13 Q1010 NOSIG=
200903310700 METAR LMML NIL=
200903310645 METAR LMML 310645Z 14014KT 110V170 CAVOK 17/12 Q1010 NOSIG=
200903310630 METAR LMML NIL=
200903310615 METAR LMML 310615Z 14010KT CAVOK 17/12 Q1009 NOSIG=
200903310600 METAR LMML NIL=
200903310545 METAR LMML 310545Z 13012KT CAVOK 17/11 Q1008 NOSIG=
200903310530 METAR LMML NIL=
200903310515 METAR LMML 310515Z 15012KT 120V180 CAVOK 18/11 Q1008 NOSIG=
200903310500 METAR LMML NIL=
200903310445 METAR LMML 310445Z 14013KT CAVOK 18/11 Q1008 NOSIG=
200903310430 METAR LMML NIL=
200903310415 METAR LMML 310415Z 17012KT 100V260 CAVOK 18/11 Q1008 NOSIG=
200903310400 METAR LMML NIL=
200903310345 METAR LMML 310345Z 15013KT CAVOK 17/10 Q1009 NOSIG=
200903310330 METAR LMML NIL=
200903310315 METAR LMML 310315Z 15013KT CAVOK 18/10 Q1009 NOSIG=
200903310300 METAR LMML NIL=
200903310245 METAR LMML 310245Z 15023G37KT 130V190 CAVOK 18/10 Q1008 NOSIG=
200903310230 METAR LMML NIL=
200903310215 METAR LMML 310215Z 15027G40KT 120V180 CAVOK 19/08 Q1008 NOSIG=
200903310200 METAR LMML NIL=
200903310145 METAR LMML 310145Z 14012KT CAVOK 17/08 Q1010 NOSIG=
200903310130 METAR LMML NIL=
200903310115 METAR LMML 310115Z 13013KT 9999 FEW030 SCT120 OVC150 17/11
                        Q1010 NOSIG=
200903310100 METAR LMML NIL=
200903310045 METAR LMML 310045Z 13019KT 9999 FEW035 SCT120 OVC150 17/11
                        Q1010 NOSIG=
200903310030 METAR LMML NIL=
200903310015 METAR LMML 310015Z 14013KT 9999 FEW030 SCT120 OVC150 17/13
                        Q1011 NOSIG=
200903310000 METAR LMML NIL=
200903302345 METAR LMML 302345Z 14010KT 9999 FEW035 SCT120 OVC150 17/13
                        Q1012 NOSIG=
200903302330 METAR LMML NIL=
200903302315 METAR LMML 302315Z 12011KT 9999 FEW035 SCT120 OVC150 18/13
                        Q1012 NOSIG=
200903302300 METAR LMML NIL=
200903302245 METAR LMML 302245Z VRB01KT 9999 FEW035 SCT120 OVC150 19/12
                        Q1011 NOSIG=
200903302230 METAR LMML NIL=
200903302215 METAR LMML 302215Z 05005KT 020V080 9999 FEW038 SCT120 OVC150
                        20/12 Q1011 NOSIG=
200903302200 METAR LMML NIL=
200903302145 METAR LMML 302145Z 13005KT 070V290 9999 FEW038 SCT090 OVC150
                        20/12 Q1012 NOSIG=
200903302130 METAR LMML NIL=
200903302115 METAR LMML 302115Z 22008KT 190V270 9999 FEW034 SCT080 OVC150
                        23/10 Q1013 NOSIG=
200903302100 METAR LMML NIL=
200903302045 METAR LMML 302045Z 23018KT 200V280 9999 -RA FEW035 SCT080
                        OVC150 22/12 Q1013 NOSIG=
200903302030 METAR LMML NIL=
200903302015 METAR LMML 302015Z 17007KT 110V300 9999 -RA SCT110 OVC150
                        18/13 Q1012 NOSIG=
200903302000 METAR LMML NIL=
200903301945 METAR LMML 301945Z 16015KT 130V200 CAVOK 18/13 Q1011 NOSIG=
200903301930 METAR LMML NIL=
200903301915 METAR LMML 301915Z 16017KT 9999 -RA FEW040 SCT080 OVC120
                        18/12 Q1010 TEMPO 9000=
200903301900 METAR LMML NIL=
200903301845 METAR LMML 301845Z 17014KT 150V210 9999 FEW035 SCT080 OVC150
                        18/11 Q1011 TEMPO 9000=
200903301830 METAR LMML NIL=
200903301815 METAR LMML 301815Z 20011KT 170V240 9999 -RA FEW034 SCT080
                        OVC150 17/12 Q1013 TEMPO 9000=
200903301800 METAR LMML NIL=
200903301745 METAR LMML 301745Z 22011KT 190V260 9999 -RA FEW035 SCT080
                        OVC150 18/12 Q1012 TEMPO 9000=
200903301730 METAR LMML NIL=
200903301715 METAR LMML 301715Z 21010KT 180V270 CAVOK 18/12 Q1011 NOSIG=
200903301700 METAR LMML NIL=
200903301645 METAR LMML 301645Z 20007KT 160V240 CAVOK 18/13 Q1010 NOSIG=
200903301630 METAR LMML NIL=
200903301615 METAR LMML 301615Z 17007KT 140V210 9999 -RA BKN110 OVC250
                        17/13 Q1010 NOSIG=
200903301600 METAR LMML NIL=
200903301545 METAR LMML 301545Z 15010KT 120V180 CAVOK 18/12 Q1009 NOSIG=
200903301530 METAR LMML NIL=
200903301515 METAR LMML 301515Z 14011KT 110V170 CAVOK 18/13 Q1009 NOSIG=
200903301500 METAR LMML NIL=
200903301445 METAR LMML 301445Z 14013KT CAVOK 19/13 Q1009 NOSIG=
200903301430 METAR LMML NIL=
200903301415 METAR LMML 301415Z 14012KT 120V180 CAVOK 19/13 Q1009 NOSIG=
200903301400 METAR LMML NIL=
200903301345 METAR LMML 301345Z 16011KT 110V190 CAVOK 19/12 Q1010 NOSIG=
200903301330 METAR LMML NIL=
200903301315 METAR LMML 301315Z 14012KT CAVOK 18/12 Q1009 NOSIG=
200903301300 METAR LMML NIL=
200903301245 METAR LMML 301245Z 14012KT 120V180 CAVOK 17/13 Q1010 NOSIG=
200903301230 METAR LMML NIL=
200903301215 METAR LMML 301215Z 14010KT 100V180 9999 -RA SCT120 OVC150
                        17/13 Q1011 NOSIG=
200903301200 METAR LMML NIL=
200903301145 METAR LMML 301145Z 13015KT CAVOK 17/13 Q1011 NOSIG=
200903301130 METAR LMML NIL=
200903301115 METAR LMML 301115Z 12012KT 090V150 CAVOK 17/13 Q1011 NOSIG=
200903301100 METAR LMML NIL=
200903301045 METAR LMML 301045Z VRB03KT CAVOK 18/13 Q1012 NOSIG=
200903301030 METAR LMML NIL=
200903301015 METAR LMML 301015Z 10008KT 060V170 9999 -RA BKN120 OVC250
                        18/13 Q1013 NOSIG=
200903301000 METAR LMML NIL=
200903300945 METAR LMML 300945Z 08011KT 050V120 CAVOK 19/13 Q1013 NOSIG=
200903300930 METAR LMML NIL=
200903300915 METAR LMML 300915Z 07010KT 040V100 CAVOK 20/13 Q1013 NOSIG=
200903300900 METAR LMML NIL=
200903300845 METAR LMML 300845Z 07011KT 030V090 CAVOK 19/13 Q1012 NOSIG=
200903300830 METAR LMML NIL=
200903300815 METAR LMML 300815Z 06011KT 030V100 CAVOK 18/13 Q1012 NOSIG=
200903300800 METAR LMML NIL=
200903300745 METAR LMML 300745Z 06010KT 010V090 9000 BKN120 18/13 Q1012
                        NOSIG=
200903300730 METAR LMML NIL=
200903300715 METAR LMML 300715Z 04007KT 340V090 9000 BKN120 18/13 Q1012
                        NOSIG=
200903300700 METAR LMML NIL=
200903300645 METAR LMML 300645Z 02007KT 350V060 9000 BKN120 OVC250 17/14
                        Q1012 NOSIG=
200903300630 METAR LMML NIL=
200903300615 METAR LMML 300615Z 01006KT 340V040 9000 BKN120 OVC150 17/14
                        Q1013 NOSIG=
200903300600 METAR LMML NIL=
200903300545 METAR LMML 300545Z 03006KT 360V070 9000 BKN120 OVC150 17/14
                        Q1014 NOSIG=
200903300530 METAR LMML NIL=
200903300515 METAR LMML 300515Z 01008KT 9000 BKN120 OVC150 16/14 Q1013
                        TEMPO 6000=
200903300500 METAR LMML NIL=
200903300445 METAR LMML 300445Z 36008KT 340V040 9000 BKN120 OVC150 16/14
                        Q1012 TEMPO 6000=
200903300430 METAR LMML NIL=
200903300415 METAR LMML 300415Z 05006KT 010V090 CAVOK 16/13 Q1012 TEMPO
                        6000=
200903300400 METAR LMML NIL=
200903300345 METAR LMML 300345Z 36004KT 310V050 CAVOK 16/13 Q1012 TEMPO
                        6000=
200903300330 METAR LMML NIL=
200903300315 METAR LMML 300315Z 03005KT CAVOK 16/13 Q1011 TEMPO 6000=
200903300300 METAR LMML NIL=
200903300245 METAR LMML 300245Z 03006KT CAVOK 16/13 Q1012 TEMPO 6000=
200903300230 METAR LMML NIL=
200903300215 METAR LMML 300215Z 02004KT CAVOK 16/13 Q1012 TEMPO 6000=
200903300200 METAR LMML NIL=
200903300145 METAR LMML 300145Z 36006KT CAVOK 16/13 Q1012 TEMPO 6000=
200903300130 METAR LMML NIL=
200903300115 METAR LMML 300115Z 36011KT CAVOK 16/14 Q1013 TEMPO 6000=
200903300100 METAR LMML NIL=
200903300045 METAR LMML 300045Z 35011KT 310V020 CAVOK 16/14 Q1013 TEMPO
                        6000=
200903300030 METAR LMML NIL=
200903300015 METAR LMML 300015Z 25004KT 200V300 CAVOK 16/14 Q1014 NOSIG=
200903300000 METAR LMML NIL=
200903292345 METAR LMML 292345Z 34005KT 280V020 CAVOK 16/14 Q1012 NOSIG=
200903292330 METAR LMML NIL=
200903292315 METAR LMML 292315Z 01005KT CAVOK 17/14 Q1012 NOSIG=
200903292300 METAR LMML NIL=
200903292245 METAR LMML 292245Z 36004KT CAVOK 17/14 Q1012 NOSIG=
200903292230 METAR LMML NIL=
200903292215 METAR LMML 292215Z 01004KT CAVOK 17/14 Q1012 NOSIG=
200903292200 METAR LMML NIL=
200903292145 METAR LMML 292145Z 08005KT 040V120 CAVOK 18/14 Q1012 NOSIG=
200903292130 METAR LMML NIL=
200903292115 METAR LMML 292115Z 02004KT 350V060 CAVOK 18/14 Q1012 NOSIG=
200903292100 METAR LMML NIL=
200903292045 METAR LMML 292045Z VRB03KT CAVOK 18/14 Q1013 NOSIG=
200903292030 METAR LMML NIL=
200903292015 METAR LMML 292015Z 14005KT CAVOK 18/14 Q1012 NOSIG=
200903292000 METAR LMML NIL=
200903291945 METAR LMML 291945Z 14007KT CAVOK 19/14 Q1012 NOSIG=
200903291930 METAR LMML NIL=
200903291915 METAR LMML 291915Z 12005KT CAVOK 19/14 Q1011 NOSIG=
200903291900 METAR LMML NIL=
200903291845 METAR LMML 291845Z 12004KT CAVOK 19/14 Q1012 NOSIG=
200903291830 METAR LMML NIL=
200903291815 METAR LMML 291815Z VRB03KT CAVOK 20/13 Q1013 NOSIG=
200903291800 METAR LMML NIL=
200903291745 METAR LMML 291745Z 19005KT CAVOK 20/13 Q1013 NOSIG=
200903291730 METAR LMML NIL=
200903291715 METAR LMML 291715Z 19005KT 170V230 9000 SCT120 OVC150 20/13
                        Q1013 NOSIG=
200903291700 METAR LMML NIL=
200903291645 METAR LMML 291645Z 20005KT 170V240 9000 SCT120 BKN150 20/14
                        Q1013 NOSIG=
200903291630 METAR LMML NIL=
200903291615 METAR LMML 291615Z 22007KT 180V260 9000 SCT120 BKN150 21/14
                        Q1013 NOSIG=
200903291600 METAR LMML NIL=
200903291545 METAR LMML 291545Z 22006KT 190V270 9000 SCT120 BKN150 21/14
                        Q1012 NOSIG=
200903291530 METAR LMML NIL=
200903291515 METAR LMML 291515Z 20004KT 170V240 9000 SCT120 BKN150 21/15
                        Q1012 NOSIG=
200903291500 METAR LMML NIL=
200903291445 METAR LMML 291445Z 22005KT 180V250 9000 SCT120 BKN150 21/14
                        Q1012 NOSIG=
200903291430 METAR LMML NIL=
200903291415 METAR LMML 291415Z 21005KT 180V270 9000 SCT120 BKN150 21/15
                        Q1012 NOSIG=
200903291400 METAR LMML NIL=
200903291345 METAR LMML 291345Z 20007KT 170V240 9000 SCT120 BKN150 21/15
                        Q1012 NOSIG=
200903291330 METAR LMML NIL=
200903291315 METAR LMML 291315Z VRB02KT 9000 SCT120 BKN150 21/16 Q1011
                        NOSIG=
200903291300 METAR LMML NIL=
200903291245 METAR LMML 291245Z 19006KT 140V220 9000 SCT120 BKN150 19/15
                        Q1012 NOSIG=
200903291230 METAR LMML NIL=
200903291215 METAR LMML 291215Z 20011KT 170V240 9000 -RA SCT120 BKN150
                        20/14 Q1013 NOSIG=
200903291145 METAR LMML 291145Z VRB03KT 9000 SCT120 BKN150 20/15 Q1012
                        NOSIG=
200903291130 METAR LMML NIL=
200903291115 METAR LMML 291115Z 24004KT 190V280 9000 SCT120 BKN150 20/14
                        Q1012 NOSIG=
200903291100 METAR LMML NIL=
200903291045 METAR LMML 291045Z 20009KT 170V240 9000 SCT120 BKN150 19/15
                        Q1013 NOSIG=
200903291030 METAR LMML NIL=
200903291015 METAR LMML 291015Z 22004KT 170V280 9000 SCT120 BKN150 20/14
                        Q1013 NOSIG=
200903291000 METAR LMML NIL=
200903290945 METAR LMML 290945Z VRB03KT 9000 SCT120 BKN150 19/15 Q1013
                        NOSIG=
200903290930 METAR LMML NIL=
200903290915 METAR LMML 290915Z 20005KT 160V230 9000 SCT120 BKN150 18/14
                        Q1012 NOSIG=
200903290900 METAR LMML NIL=
200903290845 METAR LMML 290845Z 20005KT 170V250 9000 SCT120 OVC150 19/14
                        Q1011 NOSIG=
200903290830 METAR LMML NIL=
200903290815 METAR LMML 290815Z VRB03KT 9000 SCT120 OVC150 20/15 Q1011
                        NOSIG=
200903290800 METAR LMML NIL=
200903290745 METAR LMML 290745Z 23004KT 200V270 9000 SCT120 OVC150 19/14
                        Q1011 NOSIG=
200903290730 METAR LMML NIL=
200903290715 METAR LMML 290715Z VRB03KT 9000 SCT120 OVC150 18/14 Q1010
                        NOSIG=
200903290700 METAR LMML NIL=
200903290645 METAR LMML 290645Z 23005KT 190V270 9000 SCT120 OVC150 18/13
                        Q1011 NOSIG=
200903290630 METAR LMML NIL=
200903290615 METAR LMML 290615Z 22008KT 180V260 9000 SCT120 OVC150 17/13
                        Q1011 NOSIG=
200903290600 METAR LMML NIL=
200903290545 METAR LMML 290545Z 21008KT 180V260 9000 SCT120 OVC250 17/12
                        Q1010 NOSIG=
200903290530 METAR LMML NIL=
200903290515 METAR LMML 290515Z 21007KT 170V250 9000 SCT120 OVC150 17/12
                        Q1009 NOSIG=
200903290500 METAR LMML NIL=
200903290445 METAR LMML 290445Z 20009KT 170V240 9000 SCT120 OVC150 18/12
                        Q1009 NOSIG=
200903290430 METAR LMML NIL=
200903290415 METAR LMML 290415Z 21012KT 170V260 CAVOK 18/11 Q1009 NOSIG=
200903290400 METAR LMML NIL=
200903290345 METAR LMML 290345Z 20013KT 170V250 CAVOK 19/11 Q1009 NOSIG=
200903290330 METAR LMML NIL=
200903290315 METAR LMML 290315Z 19011KT 160V220 CAVOK 18/12 Q1008 NOSIG=
200903290245 METAR LMML 290245Z 18013KT 150V210 CAVOK 18/12 Q1008 NOSIG=
200903290230 METAR LMML NIL=
200903290215 METAR LMML 290215Z 18012KT 140V210 CAVOK 18/12 Q1008 NOSIG=
200903290200 METAR LMML NIL=
200903290145 METAR LMML 290145Z 18011KT 150V210 CAVOK 18/12 Q1008 NOSIG=
200903290130 METAR LMML NIL=
200903290115 METAR LMML 290115Z 18013KT 150V210 CAVOK 18/12 Q1008 NOSIG=
200903290045 METAR LMML 290045Z 18012KT 140V210 CAVOK 18/13 Q1008 NOSIG=
200903290030 METAR LMML NIL=
200903290015 METAR LMML 290015Z 18012KT 140V200 CAVOK 17/13 Q1009 NOSIG=
200903290000 METAR LMML NIL=
200903282345 METAR LMML 282345Z 17013KT 140V200 CAVOK 17/13 Q1009 NOSIG=
200903282330 METAR LMML NIL=
200903282315 METAR LMML 282315Z 17014KT 140V210 CAVOK 17/13 Q1009 NOSIG=
200903282300 METAR LMML NIL=
200903282245 METAR LMML 282245Z 17015KT 130V200 CAVOK 17/13 Q1009 NOSIG=
200903282230 METAR LMML NIL=
200903282215 METAR LMML 282215Z 16015KT CAVOK 17/13 Q1010 NOSIG=
200903282200 METAR LMML NIL=
200903282145 METAR LMML 282145Z 16015KT CAVOK 17/13 Q1010 NOSIG=
200903282130 METAR LMML NIL=
200903282115 METAR LMML 282115Z 15015KT CAVOK 17/13 Q1010 NOSIG=
200903282100 METAR LMML NIL=
200903282045 METAR LMML 282045Z 15016KT CAVOK 17/13 Q1010 NOSIG=
200903282030 METAR LMML NIL=
200903282015 METAR LMML 282015Z 15015KT 9000 BKN130 16/13 Q1010 NOSIG=
200903282000 METAR LMML NIL=
200903281945 METAR LMML 281945Z 15015KT 9000 BKN120 16/14 Q1010 NOSIG=
200903281915 METAR LMML 281915Z 14013KT 9000 BKN120 16/14 Q1010 TEMPO
                        5000=
200903281900 METAR LMML NIL=
200903281845 METAR LMML 281845Z 14013KT 9000 BKN120 15/14 Q1010 TEMPO
                        5000=
200903281830 METAR LMML NIL=
200903281815 METAR LMML 281815Z 14013KT 9000 BKN120 15/14 Q1010 TEMPO
                        5000=
200903281800 METAR LMML NIL=
200903281745 METAR LMML 281745Z 14012KT 6000 FEW011 SCT120 BKN250 15/14
                        Q1010 TEMPO 5000=
200903281730 METAR LMML NIL=
200903281715 METAR LMML 281715Z 14012KT 7000 FEW011 SCT120 BKN250 15/14
                        Q1010 NOSIG=
200903281700 METAR LMML NIL=
200903281645 METAR LMML 281645Z 14012KT 8000 FEW011 SCT120 BKN250 16/14
                        Q1010 NOSIG=
200903281630 METAR LMML NIL=
200903281615 METAR LMML 281615Z 14013KT 110V180 9000 FEW011 SCT120 BKN250
                        16/14 Q1010 NOSIG=
200903281600 METAR LMML NIL=
200903281545 METAR LMML 281545Z 14011KT 100V170 9000 FEW012 SCT130 BKN250
                        17/15 Q1010 NOSIG=
200903281530 METAR LMML NIL=
200903281515 METAR LMML 281515Z 15014KT 110V170 9000 BKN250 17/15 Q1010
                        NOSIG=
200903281500 METAR LMML NIL=
200903281445 METAR LMML 281445Z 14015KT 110V170 9000 BKN250 17/15 Q1010
                        NOSIG=
200903281430 METAR LMML NIL=
200903281415 METAR LMML 281415Z 14016KT 110V170 9000 FEW120 BKN250 17/14
                        Q1010 NOSIG=
200903281400 METAR LMML NIL=
200903281345 METAR LMML 281345Z 14014KT 110V170 9000 FEW120 BKN250 17/14
                        Q1010 NOSIG=
200903281330 METAR LMML NIL=
200903281315 METAR LMML 281315Z 15015KT 110V170 9000 FEW120 BKN250 18/15
                        Q1011 NOSIG=
200903281300 METAR LMML NIL=
200903281245 METAR LMML 281245Z 14016KT 110V170 9000 FEW008 BKN160 18/15
                        Q1011 NOSIG=
200903281230 METAR LMML NIL=
200903281215 METAR LMML 281215Z 14015KT 9000 FEW008 BKN160 17/14 Q1012
                        NOSIG=
200903281200 METAR LMML NIL=
200903281145 METAR LMML 281145Z 14015KT 9000 FEW008 BKN130 17/14 Q1012
                        NOSIG=
200903281130 METAR LMML NIL=
200903281115 METAR LMML 281115Z 14018KT 110V170 9000 FEW009 BKN120 17/14
                        Q1012 NOSIG=
200903281100 METAR LMML NIL=
200903281045 METAR LMML 281045Z 14016KT 9000 FEW009 BKN120 16/14 Q1012
                        NOSIG=
200903281030 METAR LMML NIL=
200903281015 METAR LMML 281015Z 14014KT 110V170 9000 SCT008 BKN130 17/14
                        Q1013 NOSIG=
200903281000 METAR LMML NIL=
200903280945 METAR LMML 280945Z 14013KT 080V170 9000 SCT008 SCT120 17/15
                        Q1013 NOSIG=
200903280930 METAR LMML NIL=
200903280915 METAR LMML 280915Z 14014KT 110V180 9000 SCT008 17/14 Q1013
                        NOSIG=
200903280900 METAR LMML NIL=
200903280845 METAR LMML 280845Z 14015KT 120V180 9000 SCT008 16/14 Q1013
                        NOSIG=
200903280830 METAR LMML NIL=
200903280815 METAR LMML 280815Z 14014KT 110V180 9000 SCT007 16/14 Q1013
                        NOSIG=
200903280800 METAR LMML NIL=
200903280745 METAR LMML 280745Z 14014KT 110V170 9000 SCT008 16/14 Q1013
                        NOSIG=
200903280730 METAR LMML NIL=
200903280715 METAR LMML 280715Z 14014KT 110V180 9000 FEW009 15/14 Q1012
                        NOSIG=
200903280700 METAR LMML NIL=
200903280645 METAR LMML 280645Z 13015KT 100V160 7000 FEW005 SCT130 15/14
                        Q1012 NOSIG=
200903280630 METAR LMML NIL=
200903280615 METAR LMML 280615Z 14010KT 110V170 7000 SCT005 BKN130 14/14
                        Q1013 BECMG SCT007=
200903280600 METAR LMML NIL=
200903280545 METAR LMML 280545Z 14010KT 9999 FEW005 SCT120 14/13 Q1013
                        NOSIG=
200903280530 METAR LMML NIL=
200903280515 METAR LMML 280515Z 13010KT 9000 FEW006 SCT130 13/13 Q1013
                        NOSIG=
200903280500 METAR LMML NIL=
200903280445 METAR LMML 280445Z 14009KT 9000 SCT130 13/13 Q1013 NOSIG=
200903280430 METAR LMML NIL=
200903280415 METAR LMML 280415Z 13007KT 9999 FEW007 SCT250 13/12 Q1013
                        NOSIG=
200903280400 METAR LMML NIL=
200903280345 METAR LMML 280345Z 14007KT 9999 FEW007 SCT250 13/13 Q1013
                        NOSIG=
200903280330 METAR LMML NIL=
200903280315 METAR LMML 280315Z 15006KT 120V180 9999 FEW006 BKN250 13/13
                        Q1013 NOSIG=
200903280300 METAR LMML NIL=
200903280245 METAR LMML 280245Z 14007KT 9999 FEW006 BKN250 13/12 Q1013
                        NOSIG=
200903280230 METAR LMML NIL=
200903280215 METAR LMML 280215Z 14006KT 9999 FEW006 BKN250 13/12 Q1014
                        NOSIG=
200903280200 METAR LMML NIL=
200903280145 METAR LMML 280145Z 14006KT 9999 FEW006 BKN250 13/12 Q1014
                        NOSIG=
200903280115 METAR LMML 280115Z 13006KT 9999 FEW007 SCT250 13/12 Q1015
                        NOSIG=
200903280100 METAR LMML NIL=
200903280045 METAR LMML 280045Z 16007KT 130V190 9999 FEW008 SCT250 13/12
                        Q1015 NOSIG=
200903280030 METAR LMML NIL=
200903280015 METAR LMML 280015Z 16005KT 120V180 9999 FEW008 SCT250 13/12
                        Q1015 NOSIG=
200903280000 METAR LMML NIL=
200903272345 METAR LMML 272345Z 16005KT 9999 FEW020 SCT250 13/12 Q1015
                        NOSIG=
200903272330 METAR LMML NIL=
200903272315 METAR LMML 272315Z 14006KT CAVOK 13/11 Q1015 NOSIG=
200903272300 METAR LMML NIL=
200903272245 METAR LMML 272245Z 15005KT CAVOK 13/11 Q1015 NOSIG=
200903272230 METAR LMML NIL=
200903272215 METAR LMML 272215Z 16005KT 130V190 CAVOK 13/11 Q1016 NOSIG=
200903272200 METAR LMML NIL=
200903272145 METAR LMML 272145Z 15005KT 120V180 CAVOK 12/11 Q1016 NOSIG=
200903272130 METAR LMML NIL=
200903272115 METAR LMML 272115Z 14005KT 9999 FEW020 SCT250 12/11 Q1016
                        NOSIG=
200903272045 METAR LMML 272045Z 14005KT 9999 FEW020 SCT250 12/11 Q1016
                        NOSIG=
200903272030 METAR LMML NIL=
200903272015 METAR LMML 272015Z 16006KT 9999 FEW020 SCT120 13/11 Q1016
                        NOSIG=
200903272000 METAR LMML NIL=
200903271945 METAR LMML 271945Z 17005KT 9999 FEW020 SCT120 13/11 Q1016
                        NOSIG=
200903271930 METAR LMML NIL=
200903271915 METAR LMML 271915Z 15004KT 120V180 9999 FEW020 SCT120 BKN250
                        13/11 Q1016 NOSIG=
200903271900 METAR LMML NIL=
200903271845 METAR LMML 271845Z 16005KT 130V190 9999 FEW020 SCT120 BKN250
                        13/11 Q1016 NOSIG=
200903271830 METAR LMML NIL=
200903271815 METAR LMML 271815Z 17005KT 140V200 9999 FEW020 BKN250 13/10
                        Q1016 NOSIG=
200903271800 METAR LMML NIL=
200903271745 METAR LMML 271745Z 19005KT 160V220 9999 FEW020 BKN250 13/10
                        Q1016 NOSIG=
200903271730 METAR LMML NIL=
200903271715 METAR LMML 271715Z 20004KT 160V260 9999 FEW020 BKN250 13/10
                        Q1016 NOSIG=
200903271700 METAR LMML NIL=
200903271645 METAR LMML 271645Z 19005KT 160V230 9999 FEW020 BKN250 14/10
                        Q1016 NOSIG=
200903271630 METAR LMML NIL=
200903271615 METAR LMML 271615Z 20006KT 160V230 9999 FEW020 14/10 Q1016
                        NOSIG=
200903271600 METAR LMML NIL=
200903271545 METAR LMML 271545Z 21005KT 170V250 9999 FEW020 15/10 Q1016
                        NOSIG=
200903271530 METAR LMML NIL=
200903271515 METAR LMML 271515Z 20005KT 160V240 9999 FEW020 15/10 Q1016
                        NOSIG=
200903271500 METAR LMML NIL=
200903271445 METAR LMML 271445Z 20005KT 170V230 9999 FEW022 15/10 Q1016
                        NOSIG=
200903271430 METAR LMML NIL=
200903271415 METAR LMML 271415Z 21005KT 170V270 9999 FEW022 16/10 Q1017
                        NOSIG=
200903271400 METAR LMML NIL=
200903271345 METAR LMML 271345Z 22006KT 150V270 9999 FEW022 16/10 Q1017
                        NOSIG=
200903271330 METAR LMML NIL=
200903271315 METAR LMML 271315Z 20004KT 160V260 9999 FEW022 16/10 Q1017
                        NOSIG=
200903271245 METAR LMML 271245Z 23005KT 170V290 9999 FEW022 16/10 Q1018
                        NOSIG=
200903271230 METAR LMML NIL=
200903271215 METAR LMML 271215Z 23007KT 160V290 9999 SCT021 16/10 Q1018
                        NOSIG=
200903271145 METAR LMML 271145Z 24007KT 190V290 9999 SCT021 16/10 Q1018
                        NOSIG=
200903271130 METAR LMML NIL=
200903271115 METAR LMML 271115Z 23006KT 190V280 9999 SCT020 15/10 Q1018
                        NOSIG=
200903271100 METAR LMML NIL=
200903271045 METAR LMML 271045Z 24007KT 160V290 9999 FEW024 16/10 Q1019
                        NOSIG=
200903271030 METAR LMML NIL=
200903271015 METAR LMML 271015Z 21006KT 180V250 9999 FEW024 15/09 Q1018
                        NOSIG=
200903271000 METAR LMML NIL=
200903270945 METAR LMML 270945Z 24005KT 200V300 9999 FEW024 15/10 Q1019
                        NOSIG=
200903270930 METAR LMML NIL=
200903270915 METAR LMML 270915Z 23005KT 180V290 9999 SCT024 15/10 Q1019
                        NOSIG=
200903270900 METAR LMML NIL=
200903270845 METAR LMML 270845Z 21004KT 170V300 9999 FEW024 15/10 Q1019
                        NOSIG=
200903270830 METAR LMML NIL=
200903270815 METAR LMML 270815Z VRB02KT 9999 FEW022 14/09 Q1018 NOSIG=
200903270800 METAR LMML NIL=
200903270745 METAR LMML 270745Z VRB02KT 9999 FEW019 14/10 Q1018 NOSIG=
200903270730 METAR LMML NIL=
200903270715 METAR LMML 270715Z VRB02KT 9999 FEW019 13/11 Q1018 NOSIG=
200903270700 METAR LMML NIL=
200903270645 METAR LMML 270645Z VRB02KT 9999 FEW020 12/11 Q1018 NOSIG=
200903270630 METAR LMML NIL=
200903270615 METAR LMML 270615Z VRB02KT 9999 FEW020 11/10 Q1018 NOSIG=
200903270600 METAR LMML NIL=
200903270545 METAR LMML 270545Z 25004KT 220V300 9999 FEW020 10/09 Q1018
                        NOSIG=
200903270530 METAR LMML NIL=
200903270515 METAR LMML 270515Z 28005KT 250V310 9999 FEW020 10/09 Q1018
                        NOSIG=
200903270500 METAR LMML NIL=
200903270445 METAR LMML 270445Z 28004KT 9999 FEW020 09/09 Q1017 NOSIG=
200903270430 METAR LMML NIL=
200903270415 METAR LMML 270415Z 26004KT 220V290 CAVOK 09/09 Q1017 NOSIG=
200903270400 METAR LMML NIL=
200903270345 METAR LMML 270345Z 30005KT CAVOK 10/09 Q1017 NOSIG=
200903270330 METAR LMML NIL=
200903270315 METAR LMML 270315Z 29005KT 9999 FEW020 10/09 Q1017 NOSIG=
200903270300 METAR LMML NIL=
200903270245 METAR LMML 270245Z 30004KT 270V330 9999 FEW020 10/09 Q1017
                        NOSIG=
200903270230 METAR LMML NIL=
200903270215 METAR LMML 270215Z 29005KT 9999 FEW020 10/09 Q1017 NOSIG=
200903270200 METAR LMML NIL=
200903270145 METAR LMML 270145Z 31006KT 9999 FEW020 10/09 Q1017 NOSIG=
200903270130 METAR LMML NIL=
200903270115 METAR LMML 270115Z 30005KT 9999 FEW020 10/09 Q1017 NOSIG=
200903270100 METAR LMML NIL=
200903270045 METAR LMML 270045Z 30005KT 9999 FEW020 10/09 Q1017 NOSIG=
200903270030 METAR LMML NIL=
200903270015 METAR LMML 270015Z 31006KT 9999 FEW018 10/09 Q1017 NOSIG=
200903270000 METAR LMML NIL=
200903262345 METAR LMML 262345Z 31008KT 9999 FEW018 11/09 Q1018 NOSIG=
200903262315 METAR LMML 262315Z 30007KT 9999 FEW018 11/09 Q1018 NOSIG=
200903262300 METAR LMML NIL=
200903262245 METAR LMML 262245Z 31006KT 9999 FEW018 11/09 Q1018 NOSIG=
200903262230 METAR LMML NIL=
200903262215 METAR LMML 262215Z 31008KT 9999 FEW018 11/09 Q1017 NOSIG=
200903262200 METAR LMML NIL=
200903262145 METAR LMML 262145Z 30009KT 9999 FEW018 12/09 Q1017 NOSIG=
200903262130 METAR LMML NIL=
200903262115 METAR LMML 262115Z 30009KT 270V330 9999 FEW018 12/09 Q1017
                        NOSIG=
200903262100 METAR LMML NIL=
200903262045 METAR LMML 262045Z 30009KT 260V330 9999 FEW018 12/09 Q1017
                        NOSIG=
200903262030 METAR LMML NIL=
200903262015 METAR LMML 262015Z 30009KT 270V330 9999 FEW020 12/09 Q1017
                        NOSIG=
200903262000 METAR LMML NIL=
200903261945 METAR LMML 261945Z 30010KT 9999 FEW020 12/09 Q1016 NOSIG=
200903261930 METAR LMML NIL=
200903261915 METAR LMML 261915Z 29011KT 260V320 9999 SCT021 12/09 Q1016
                        NOSIG=
200903261900 METAR LMML NIL=
200903261845 METAR LMML 261845Z 31010KT 9999 SCT022 12/09 Q1015 NOSIG=
200903261830 METAR LMML NIL=
200903261815 METAR LMML 261815Z 30013KT 9999 SCT021 13/09 Q1015 NOSIG=
200903261800 METAR LMML NIL=
200903261745 METAR LMML 261745Z 29014KT 9999 SCT022 13/09 Q1015 NOSIG=
200903261730 METAR LMML NIL=
200903261715 METAR LMML 261715Z 29015KT 9999 SCT021 13/09 Q1014 NOSIG=
200903261700 METAR LMML NIL=
200903261645 METAR LMML 261645Z 29017KT 260V320 9999 SCT023 13/09 Q1015
                        NOSIG=
200903261630 METAR LMML NIL=
200903261615 METAR LMML 261615Z 29016KT 260V320 9999 SCT022 13/09 Q1014
                        NOSIG=
200903261600 METAR LMML NIL=
200903261545 METAR LMML 261545Z 29017KT 250V310 9999 SCT026 14/09 Q1014
                        NOSIG=
200903261530 METAR LMML NIL=
200903261515 LMML 261515Z 28017KT 240V310 9999 SCT027 14/09 Q1014 NOSIG=
200903261500 METAR LMML NIL=
200903261445 METAR LMML 261445Z 29019KT 250V310 9999 SCT027 14/08 Q1014
                        NOSIG=
200903261430 METAR LMML NIL=
200903261415 METAR LMML 261415Z 28018KT 240V320 9999 SCT026 14/09 Q1014
                        NOSIG=
200903261400 METAR LMML NIL=
200903261345 METAR LMML 261345Z 28020KT 230V310 9999 SCT023 15/09 Q1014
                        NOSIG=
200903261315 METAR LMML 261315Z 28018G28KT 240V310 9999 BKN021 15/10 Q1014
                        NOSIG=
200903261245 METAR LMML 261245Z 27020KT 220V310 9999 BKN021 15/09 Q1015
                        NOSIG=
200903261230 METAR LMML NIL=
200903261215 METAR LMML 261215Z 26020KT 230V300 9999 BKN020 15/09 Q1014
                        NOSIG=
200903261200 METAR LMML NIL=
200903261145 METAR LMML 261145Z 26018KT 220V290 9999 BKN021 15/10 Q1015
                        NOSIG=
200903261130 METAR LMML NIL=
200903261115 METAR LMML 261115Z 26018KT 210V300 9999 SCT025 15/10 Q1015
                        NOSIG=
200903261100 METAR LMML NIL=
200903261045 METAR LMML 261045Z 26017KT 220V310 9999 SCT028 15/08 Q1015
                        NOSIG=
200903261030 METAR LMML NIL=
200903261015 METAR LMML 261015Z 27021KT 230V300 9999 FEW030 14/08 Q1015
                        NOSIG=
200903261000 METAR LMML NIL=
200903260945 METAR LMML 260945Z 28017KT 230V310 9999 FEW030 15/07 Q1015
                        NOSIG=
200903260930 METAR LMML NIL=
200903260900 METAR LMML NIL=
200903260845 METAR LMML 260845Z 28016KT 250V310 9999 SCT025 14/08 Q1015
                        NOSIG=
200903260830 METAR LMML NIL=
200903260815 METAR LMML 260815Z 28015KT 240V310 9999 SCT024 13/08 Q1015
                        NOSIG=
200903260800 METAR LMML NIL=
200903260745 METAR LMML 260745Z 28015KT 250V310 9999 SCT024 13/08 Q1014
                        NOSIG=
200903260730 METAR LMML NIL=
200903260715 METAR LMML 260715Z 28015KT 250V320 9999 SCT024 13/08 Q1014
                        NOSIG=
200903260700 METAR LMML NIL=
200903260645 METAR LMML 260645Z 29016KT 240V310 9999 SCT026 13/07 Q1014
                        NOSIG=
200903260630 METAR LMML NIL=
200903260615 METAR LMML 260615Z 28010KT 9999 FEW023 12/08 Q1014 NOSIG=
200903260600 METAR LMML NIL=
200903260545 METAR LMML 260545Z 27012KT 220V300 9999 SCT024 12/07 Q1014
                        NOSIG=
200903260530 METAR LMML NIL=
200903260515 METAR LMML 260515Z 27012KT 220V310 9999 FEW022 SCT040 12/08
                        Q1013 NOSIG=
200903260500 METAR LMML NIL=
200903260445 METAR LMML 260445Z 28011KT 240V300 9999 FEW022 BKN042 12/08
                        Q1014 NOSIG=
200903260430 METAR LMML NIL=
200903260415 METAR LMML 260415Z 28010KT 250V310 9999 FEW028 BKN037 12/07
                        Q1014 NOSIG=
200903260400 METAR LMML NIL=
200903260345 METAR LMML 260345Z 27011KT 240V300 9999 FEW029 SCT043 11/06
                        Q1013 NOSIG=
200903260330 METAR LMML NIL=
200903260315 METAR LMML 260315Z 28012KT 9999 FEW034 SCT042 12/06 Q1013
                        NOSIG=
200903260300 METAR LMML NIL=
200903260245 METAR LMML 260245Z 29013KT 9999 FEW033 BKN042 12/06 Q1014
                        NOSIG=
200903260230 METAR LMML NIL=
200903260215 METAR LMML 260215Z 29014KT 9999 FEW034 BKN046 12/05 Q1014
                        NOSIG=
200903260200 METAR LMML NIL=
200903260145 METAR LMML 260145Z 28009KT 250V310 9999 FEW032 BKN047 11/06
                        Q1014 NOSIG=
200903260130 METAR LMML NIL=
200903260115 METAR LMML 260115Z 28012KT 9999 FEW029 SCT045 11/05 Q1014
                        NOSIG=
200903260100 METAR LMML NIL=
200903260045 METAR LMML 260045Z 28012KT 250V310 9999 FEW029 SCT045 12/06
                        Q1014 NOSIG=
200903260030 METAR LMML NIL=
200903260015 METAR LMML 260015Z 29010KT 260V320 9999 SCT029 BKN048 12/06
                        Q1014 NOSIG=
200903260000 METAR LMML NIL=
200903252345 METAR LMML 252345Z 28009KT 250V320 9999 FEW029 SCT045 12/06
                        Q1014 NOSIG=
200903252330 METAR LMML NIL=
200903252315 METAR LMML 252315Z 29010KT 9999 FEW034 SCT045 12/06 Q1014
                        NOSIG=
200903252300 METAR LMML NIL=
200903252245 METAR LMML 252245Z 30010KT 9999 FEW032 SCT046 11/05 Q1014
                        NOSIG=
200903252230 METAR LMML NIL=
200903252215 METAR LMML 252215Z 30008KT 9999 FEW032 SCT045 11/05 Q1014
                        NOSIG=
200903252200 METAR LMML NIL=
200903252145 METAR LMML 252145Z 29008KT 260V320 9999 FEW032 SCT048 11/06
                        Q1014 NOSIG=
200903252130 METAR LMML NIL=
200903252115 METAR LMML 252115Z 30009KT 9999 FEW030 SCT047 11/05 Q1014
                        NOSIG=
200903252100 METAR LMML NIL=
200903252045 METAR LMML 252045Z 30012KT 270V330 9999 FEW031 BKN045 12/06
                        Q1014 NOSIG=
200903252030 METAR LMML NIL=
200903252015 LMML 252015Z 31009KT 9999 FEW025 SCT050 11/06 Q1014 NOSIG=
200903252000 METAR LMML NIL=
200903251945 METAR LMML 251945Z 30013KT 9999 FEW025 11/05 Q1014 NOSIG=
200903251930 METAR LMML NIL=
200903251915 METAR LMML 251915Z 29012KT 9999 FEW025 11/05 Q1014 NOSIG=
200903251900 METAR LMML NIL=
200903251845 METAR LMML 251845Z 29012KT 260V330 9999 FEW025 11/05 Q1013
                        NOSIG=
200903251830 METAR LMML NIL=
200903251815 METAR LMML 251815Z 29014KT 9999 FEW025 11/05 Q1013 NOSIG=
200903251800 METAR LMML NIL=
200903251745 METAR LMML 251745Z 29013KT 260V320 9999 FEW030 12/06 Q1013
                        NOSIG=
200903251730 METAR LMML NIL=
200903251715 METAR LMML 251715Z 30015KT 250V330 9999 FEW032 12/04 Q1013
                        NOSIG=
200903251645 METAR LMML 251645Z 29015KT 260V330 9999 FEW032 13/05 Q1013
                        NOSIG=
200903251630 METAR LMML NIL=
200903251615 METAR LMML 251615Z 30015KT 270V330 9999 FEW032 13/06 Q1012
                        NOSIG=
200903251600 METAR LMML NIL=
200903251545 METAR LMML 251545Z 29020KT 260V320 9999 FEW032 13/05 Q1012
                        NOSIG=
200903251530 METAR LMML NIL=
200903251515 METAR LMML 251515Z 29021KT 9999 FEW032 14/06 Q1012 NOSIG=
200903251500 METAR LMML NIL=
200903251445 METAR LMML 251445Z 30021KT 270V330 9999 FEW040 14/06 Q1012
                        NOSIG=
200903251430 METAR LMML NIL=
200903251415 METAR LMML 251415Z 30020KT 260V330 9999 FEW040 14/06 Q1012
                        NOSIG=
200903251400 METAR LMML NIL=
200903251345 METAR LMML 251345Z 30019KT 270V340 9999 FEW040 15/05 Q1011
                        NOSIG=
200903251330 METAR LMML NIL=
200903251315 METAR LMML 251315Z 30019KT 270V330 9999 FEW037 15/06 Q1012
                        NOSIG=
200903251245 METAR LMML 251245Z 30023KT 270V330 9999 FEW040 14/05 Q1012
                        NOSIG=
200903251230 METAR LMML NIL=
200903251215 METAR LMML 251215Z 30021G32KT 9999 FEW040 15/05 Q1012 NOSIG=
200903251200 METAR LMML NIL=
200903251145 METAR LMML 251145Z 30020KT 260V330 9999 FEW040 15/05 Q1012
                        NOSIG=
200903251130 METAR LMML NIL=
200903251115 METAR LMML 251115Z 30020G30KT 270V330 9999 FEW040 15/05 Q1012
                        NOSIG=
200903251100 METAR LMML NIL=
200903251045 METAR LMML 251045Z 29020KT 9999 FEW040 15/05 Q1012 NOSIG=
200903251030 METAR LMML NIL=
200903251015 METAR LMML 251015Z 31019KT 280V340 9999 FEW041 14/05 Q1012
                        NOSIG=
200903251000 METAR LMML NIL=
200903250945 METAR LMML 250945Z 32019KT 290V360 9999 FEW040 14/05 Q1011
                        NOSIG=
200903250930 METAR LMML NIL=
200903250915 METAR LMML 250915Z 32019KT 290V350 9999 FEW042 14/04 Q1011
                        NOSIG=
200903250900 METAR LMML NIL=
200903250845 METAR LMML 250845Z 31019KT 280V340 9999 FEW041 14/05 Q1011
                        NOSIG=
200903250830 METAR LMML NIL=
200903250815 METAR LMML 250815Z 32017G27KT 280V350 9999 FEW040 14/05 Q1011
                        NOSIG=
200903250800 METAR LMML NIL=
200903250745 METAR LMML 250745Z 32020KT 290V350 9999 FEW038 13/04 Q1010
                        NOSIG=
200903250730 METAR LMML NIL=
200903250715 METAR LMML 250715Z 31019KT 270V330 9999 FEW030 13/05 Q1010
                        NOSIG=
200903250700 METAR LMML NIL=
200903250645 METAR LMML 250645Z 31022KT 9999 FEW020 12/05 Q1010 NOSIG=
200903250630 METAR LMML NIL=
200903250615 METAR LMML 250615Z 31020KT 9999 FEW020 12/07 Q1009 NOSIG=
200903250600 METAR LMML NIL=
200903250545 METAR LMML 250545Z 30015KT 270V330 9999 SCT019 12/08 Q1009
                        NOSIG=
200903250530 METAR LMML NIL=
200903250515 METAR LMML 250515Z 31017KT 9999 FEW024 12/09 Q1008 NOSIG=
200903250500 METAR LMML NIL=
200903250445 METAR LMML 250445Z 30012KT 260V330 9999 FEW020 12/08 Q1008
                        NOSIG=
200903250430 METAR LMML NIL=
200903250415 METAR LMML 250415Z 30009KT 9999 FEW020 12/08 Q1007 NOSIG=
200903250400 METAR LMML NIL=
200903250345 METAR LMML 250345Z 27014KT 230V300 9999 FEW020 14/10 Q1008
                        NOSIG=
200903250330 METAR LMML NIL=
200903250315 METAR LMML 250315Z 25013KT 210V280 CAVOK 13/09 Q1007 NOSIG=
200903250300 METAR LMML NIL=
200903250245 METAR LMML 250245Z 24013KT 200V280 CAVOK 13/09 Q1007 NOSIG=
200903250230 METAR LMML NIL=
200903250215 METAR LMML 250215Z 23012KT 200V260 CAVOK 13/09 Q1008 NOSIG=
200903250145 METAR LMML 250145Z 23012KT 200V260 CAVOK 13/09 Q1008 NOSIG=
200903250115 METAR LMML 250115Z 22011KT 180V260 CAVOK 13/09 Q1008 NOSIG=
200903250045 METAR LMML 250045Z 22007KT 170V290 CAVOK 13/09 Q1009 NOSIG=
200903250030 METAR LMML NIL=
200903250015 METAR LMML 250015Z 22008KT 190V270 CAVOK 13/09 Q1009 NOSIG=
200903250000 METAR LMML NIL=
200903242345 METAR LMML 242345Z 21006KT 160V270 CAVOK 12/09 Q1009 NOSIG=
200903242330 METAR LMML NIL=
200903242315 METAR LMML 242315Z 22006KT 190V250 CAVOK 12/09 Q1010 NOSIG=
200903242300 METAR LMML NIL=
200903242245 METAR LMML 242245Z 23008KT 200V260 CAVOK 12/09 Q1010 NOSIG=
200903242230 METAR LMML NIL=
200903242215 METAR LMML 242215Z 23008KT 200V280 CAVOK 13/09 Q1011 NOSIG=
200903242200 METAR LMML NIL=
200903242145 METAR LMML 242145Z 23009KT 210V270 CAVOK 13/09 Q1010 NOSIG=
200903242130 METAR LMML NIL=
200903242115 METAR LMML 242115Z 23011KT CAVOK 12/09 Q1011 NOSIG=
200903242100 METAR LMML NIL=
200903242045 METAR LMML 242045Z 23010KT 200V280 CAVOK 12/09 Q1011 NOSIG=
200903242030 METAR LMML NIL=
200903242015 METAR LMML 242015Z 23010KT 200V270 CAVOK 12/08 Q1011 NOSIG=
200903242000 METAR LMML NIL=
200903241945 METAR LMML 241945Z 24009KT 200V280 CAVOK 12/09 Q1011 NOSIG=
200903241930 METAR LMML NIL=
200903241915 METAR LMML 241915Z 23009KT 200V280 CAVOK 12/08 Q1011 NOSIG=
200903241900 METAR LMML NIL=
200903241845 METAR LMML 241845Z 24010KT 200V280 CAVOK 12/08 Q1011 NOSIG=
200903241830 METAR LMML NIL=
200903241815 METAR LMML 241815Z 24008KT 190V280 9999 FEW015 12/08 Q1011
                        NOSIG=
200903241800 METAR LMML NIL=
200903241745 METAR LMML 241745Z 24010KT 200V270 CAVOK 12/08 Q1011 NOSIG=
200903241730 METAR LMML NIL=
200903241715 METAR LMML 241715Z 25011KT 200V290 CAVOK 13/08 Q1011 NOSIG=
200903241700 METAR LMML NIL=
200903241645 METAR LMML 241645Z 25015KT 200V280 CAVOK 13/08 Q1011 NOSIG=
200903241630 METAR LMML NIL=
200903241615 METAR LMML 241615Z 25014KT 210V290 CAVOK 14/08 Q1011 NOSIG=
200903241600 METAR LMML NIL=
200903241545 METAR LMML 241545Z 25017KT 220V290 CAVOK 14/08 Q1011 NOSIG=
200903241530 METAR LMML NIL=
200903241515 METAR LMML 241515Z 25014KT 190V290 CAVOK 15/08 Q1011 NOSIG=
200903241500 METAR LMML NIL=
200903241445 METAR LMML 241445Z 25016KT 200V290 CAVOK 15/08 Q1011 NOSIG=
200903241430 METAR LMML NIL=
200903241415 METAR LMML 241415Z 25016KT 210V290 9999 FEW025 15/09 Q1012
                        NOSIG=
200903241400 METAR LMML NIL=
200903241345 METAR LMML 241345Z 25014KT 200V300 CAVOK 15/09 Q1012 NOSIG=
200903241330 METAR LMML NIL=
200903241315 METAR LMML 241315Z 26016KT 230V300 CAVOK 15/07 Q1012 NOSIG=
200903241300 METAR LMML NIL=
200903241245 METAR LMML 241245Z 26017KT 220V290 CAVOK 15/07 Q1013 NOSIG=
200903241230 METAR LMML NIL=
200903241215 METAR LMML 241215Z 26017KT 9999 FEW026 15/08 Q1013 NOSIG=
200903241200 METAR LMML NIL=
200903241145 METAR LMML 241145Z 25014KT 210V290 9999 FEW025 15/09 Q1014
                        NOSIG=
200903241130 METAR LMML NIL=
200903241115 METAR LMML 241115Z 26015KT 210V300 9999 FEW023 15/08 Q1014
                        NOSIG=
200903241100 METAR LMML NIL=
200903241045 METAR LMML 241045Z 27017KT 230V300 9999 FEW025 14/08 Q1014
                        NOSIG=
200903241030 METAR LMML NIL=
200903241015 METAR LMML 241015Z 26015KT 210V300 9999 SCT024 14/09 Q1014
                        NOSIG=
200903241000 METAR LMML NIL=
200903240945 METAR LMML 240945Z 27018KT 240V310 9999 OVC023 13/08 Q1015
                        NOSIG=
200903240930 METAR LMML NIL=
200903240915 METAR LMML 240915Z 27016KT 230V320 9999 BKN024 14/08 Q1015
                        NOSIG=
200903240900 LMML NIL=
200903240830 METAR LMML NIL=
200903240815 METAR LMML 240815Z 27015KT 230V310 9999 FEW022 13/08 Q1015
                        NOSIG=
200903240800 METAR LMML NIL=
200903240745 METAR LMML 240745Z 26012KT 220V310 9999 SCT024 SCT047 13/09
                        Q1015 NOSIG=
200903240730 METAR LMML NIL=
200903240715 METAR LMML 240715Z 27011KT 230V310 9999 SCT022 SCT047 12/08
                        Q1015 NOSIG=
200903240700 METAR LMML NIL=
200903240645 METAR LMML 240645Z 28011KT 250V310 9999 SCT028 BKN049 12/08
                        Q1015 NOSIG=
200903240630 METAR LMML NIL=
200903240615 METAR LMML 240615Z 28010KT 230V330 9999 FEW026 SCT046 12/08
                        Q1015 NOSIG=
200903240600 METAR LMML NIL=
200903240545 METAR LMML 240545Z 28008KT 9999 SCT027 12/07 Q1015 NOSIG=
200903240530 METAR LMML NIL=
200903240515 METAR LMML 240515Z 27011KT 240V310 9999 SCT024 11/07 Q1015
                        NOSIG=
200903240500 METAR LMML NIL=
200903240445 METAR LMML 240445Z 28010KT 250V310 9999 SCT023 11/08 Q1015
                        NOSIG=
200903240430 METAR LMML NIL=
200903240415 METAR LMML 240415Z 28009KT 250V310 9999 FEW025 11/07 Q1015
                        NOSIG=
200903240400 METAR LMML NIL=
200903240345 METAR LMML 240345Z 28009KT 9999 FEW023 11/08 Q1015 NOSIG=
200903240330 METAR LMML NIL=
200903240315 METAR LMML 240315Z 28007KT 9999 FEW022 10/07 Q1015 NOSIG=
200903240300 METAR LMML NIL=
200903240245 METAR LMML 240245Z 28007KT 250V310 9999 FEW022 10/07 Q1016
                        NOSIG=
200903240230 METAR LMML NIL=
200903240215 METAR LMML 240215Z 29010KT 9999 FEW030 10/07 Q1016 NOSIG=
200903240200 METAR LMML NIL=
200903240145 METAR LMML 240145Z 28006KT 230V320 CAVOK 10/05 Q1016 NOSIG=
200903240115 METAR LMML 240115Z 29008KT CAVOK 10/05 Q1017 NOSIG=
200903240100 METAR LMML NIL=
200903240045 METAR LMML 240045Z 28007KT 250V310 CAVOK 10/05 Q1017 NOSIG=
200903240015 METAR LMML 240015Z 30008KT CAVOK 10/05 Q1017 NOSIG=
200903240000 METAR LMML NIL=
200903232345 METAR LMML 232345Z 30008KT CAVOK 10/05 Q1018 NOSIG=
200903232330 METAR LMML NIL=
200903232315 METAR LMML 232315Z 30008KT 270V330 CAVOK 10/06 Q1018 NOSIG=
200903232245 METAR LMML 232245Z 30007KT CAVOK 10/06 Q1018 NOSIG=
200903232215 METAR LMML 232215Z 30008KT 270V330 9999 FEW030 10/06 Q1018
                        NOSIG=
200903232145 METAR LMML 232145Z 30009KT 9999 FEW030 11/06 Q1018 NOSIG=
200903232130 METAR LMML NIL=
200903232115 METAR LMML 232115Z 29010KT 260V330 9999 FEW030 11/06 Q1018
                        NOSIG=
200903232100 METAR LMML NIL=
200903232045 METAR LMML 232045Z 30012KT 9999 FEW030 11/07 Q1018 NOSIG=
200903232030 METAR LMML NIL=
200903232015 METAR LMML 232015Z 30012KT 9999 FEW030 11/07 Q1018 NOSIG=
200903231945 METAR LMML 231945Z 29010KT 260V320 9999 FEW030 11/07 Q1018
                        NOSIG=
200903231915 METAR LMML 231915Z 29011KT 260V330 9999 FEW030 11/07 Q1018
                        NOSIG=
200903231900 METAR LMML NIL=
200903231845 METAR LMML 231845Z 29011KT 260V330 9999 FEW030 11/06 Q1018
                        NOSIG=
200903231830 METAR LMML NIL=
200903231815 METAR LMML 231815Z 29010KT 260V320 9999 FEW030 11/06 Q1018
                        NOSIG=
200903231800 METAR LMML NIL=
200903231745 METAR LMML 231745Z 29011KT 9999 FEW031 11/06 Q1018 NOSIG=
200903231730 METAR LMML NIL=
200903231715 METAR LMML 231715Z 29013KT 9999 FEW031 12/05 Q1018 NOSIG=
200903231645 METAR LMML 231645Z 29014KT 9999 FEW031 12/05 Q1018 NOSIG=
200903231630 METAR LMML NIL=
200903231615 METAR LMML 231615Z 29014KT 250V320 9999 FEW031 13/06 Q1018
                        NOSIG=
200903231600 METAR LMML NIL=
200903231545 METAR LMML 231545Z 30016KT 270V330 9999 FEW031 13/06 Q1018
                        NOSIG=
200903231530 METAR LMML NIL=
200903231515 METAR LMML 231515Z 30018KT 270V330 9999 FEW031 13/06 Q1018
                        NOSIG=
200903231500 METAR LMML NIL=
200903231445 METAR LMML 231445Z 30017KT 270V330 9999 FEW032 14/07 Q1017
                        NOSIG=
200903231430 METAR LMML NIL=
200903231415 METAR LMML 231415Z 30019KT 260V330 9999 FEW037 14/06 Q1017
                        NOSIG=
200903231400 METAR LMML NIL=
200903231345 METAR LMML 231345Z 30019KT 250V330 9999 FEW037 14/06 Q1018
                        NOSIG=
200903231315 METAR LMML 231315Z 30017KT 270V330 9999 FEW034 15/07 Q1018
                        NOSIG=
200903231300 METAR LMML NIL=
200903231245 METAR LMML 231245Z 31020KT 9999 FEW038 14/06 Q1018 NOSIG=
200903231230 METAR LMML NIL=
200903231215 METAR LMML 231215Z 31016KT 280V340 9999 SCT038 14/06 Q1018
                        NOSIG=
200903231200 METAR LMML NIL=
200903231145 METAR LMML 231145Z 32015KT 280V340 9999 FEW040 14/05 Q1018
                        NOSIG=
200903231130 METAR LMML NIL=
200903231115 METAR LMML 231115Z 31016KT 280V340 9999 FEW038 15/05 Q1018
                        NOSIG=
200903231100 METAR LMML NIL=
200903231045 METAR LMML 231045Z 32014KT 9999 SCT037 13/06 Q1019 NOSIG=
200903231030 METAR LMML NIL=
200903231015 METAR LMML 231015Z 32014KT 280V350 9999 SCT038 14/05 Q1019
                        NOSIG=
200903231000 METAR LMML NIL=
200903230945 METAR LMML 230945Z 33012KT 9999 SCT037 14/06 Q1019 NOSIG=
200903230930 METAR LMML NIL=
200903230915 METAR LMML 230915Z 34015KT 9999 FEW040 14/05 Q1019 NOSIG=
200903230900 METAR LMML NIL=
200903230845 METAR LMML 230845Z 33014KT 290V360 9999 FEW030 13/05 Q1019
                        NOSIG=
200903230830 METAR LMML NIL=
200903230815 METAR LMML 230815Z 33015KT 9999 FEW030 13/05 Q1019 NOSIG=
200903230800 METAR LMML NIL=
200903230745 METAR LMML 230745Z 32013KT 290V350 9999 FEW030 12/05 Q1018
                        NOSIG=
200903230730 METAR LMML NIL=
200903230715 METAR LMML 230715Z 32011KT 290V350 9999 FEW030 12/05 Q1018
                        NOSIG=
200903230700 METAR LMML NIL=
200903230645 METAR LMML 230645Z 31010KT 9999 FEW030 11/05 Q1018 NOSIG=
200903230630 METAR LMML NIL=
200903230615 METAR LMML 230615Z 31011KT 9999 FEW030 10/04 Q1018 NOSIG=
200903230600 METAR LMML NIL=
200903230545 METAR LMML 230545Z 31011KT 9999 FEW036 09/04 Q1017 NOSIG=
200903230530 METAR LMML NIL=
200903230515 METAR LMML 230515Z 32011KT 9999 FEW036 08/04 Q1017 NOSIG=
200903230500 METAR LMML NIL=
200903230445 METAR LMML 230445Z 31010KT 9999 FEW036 08/04 Q1017 NOSIG=
200903230430 METAR LMML NIL=
200903230415 METAR LMML 230415Z 31010KT 9999 FEW036 09/04 Q1017 NOSIG=
200903230345 METAR LMML 230345Z 32008KT 9999 FEW035 08/05 Q1017 NOSIG=
200903230330 METAR LMML NIL=
200903230315 METAR LMML 230315Z 31010KT 9999 FEW034 08/05 Q1017 NOSIG=
200903230300 METAR LMML NIL=
200903230245 METAR LMML 230245Z 31009KT 9999 FEW031 09/05 Q1017 NOSIG=
200903230230 METAR LMML NIL=
200903230215 METAR LMML 230215Z 31012KT 9999 FEW030 09/05 Q1017 NOSIG=
200903230200 METAR LMML NIL=
200903230145 METAR LMML 230145Z 31011KT 9999 FEW040 09/05 Q1017 NOSIG=
200903230130 METAR LMML NIL=
200903230115 METAR LMML 230115Z 31012KT 9999 FEW033 09/05 Q1017 NOSIG=
200903230100 METAR LMML NIL=
200903230045 METAR LMML 230045Z 31011KT 9999 FEW030 09/05 Q1017 NOSIG=
200903230030 METAR LMML NIL=
200903230015 METAR LMML 230015Z 31013KT 9999 FEW033 09/05 Q1017 NOSIG=
200903230000 METAR LMML NIL=
200903222345 METAR LMML 222345Z 31013KT 9999 FEW033 09/05 Q1017 NOSIG=
200903222330 METAR LMML NIL=
200903222315 METAR LMML 222315Z 30009KT 9999 FEW033 09/05 Q1017 NOSIG=
200903222300 METAR LMML NIL=
200903222245 METAR LMML 222245Z 31013KT 9999 FEW033 SCT060 09/04 Q1017
                        NOSIG=
200903222230 METAR LMML NIL=
200903222215 METAR LMML 222215Z 31011KT 9999 FEW033 SCT070 09/05 Q1017
                        NOSIG=
200903222200 METAR LMML NIL=
200903222145 METAR LMML 222145Z 33013KT 9999 SCT033 09/04 Q1017 NOSIG=
200903222130 METAR LMML NIL=
200903222115 METAR LMML 222115Z 32011KT 9999 FEW033 09/05 Q1017 NOSIG=
200903222100 METAR LMML NIL=
200903222045 METAR LMML 222045Z 31012KT 9999 FEW029 09/05 Q1016 NOSIG=
200903222030 METAR LMML NIL=
200903222015 METAR LMML 222015Z 31014KT 9999 SCT035 SCT090 09/05 Q1016
                        NOSIG=
200903222000 METAR LMML NIL=
200903221945 METAR LMML 221945Z 31012KT 9999 SCT040 SCT090 09/05 Q1016
                        NOSIG=
200903221930 METAR LMML NIL=
200903221915 METAR LMML 221915Z 31013KT 9999 SCT040 SCT080 09/05 Q1016
                        NOSIG=
200903221900 METAR LMML NIL=
200903221845 METAR LMML 221845Z 30011KT 9999 FEW030 SCT100 09/05 Q1015
                        NOSIG=
200903221830 METAR LMML NIL=
200903221815 METAR LMML 221815Z 30010KT 9999 SCT030 BKN100 08/04 Q1015
                        NOSIG=
200903221800 METAR LMML NIL=
200903221745 METAR LMML 221745Z 28016KT 9999 SCT030 SCT090 07/04 Q1015
                        NOSIG=
200903221730 METAR LMML NIL=
200903221715 METAR LMML 221715Z 30015G25KT 270V330 9999 SCT029 BKN080
                        08/04 Q1014 NOSIG=
200903221700 METAR LMML NIL=
200903221645 METAR LMML 221645Z 32013KT 280V340 9999 SCT042 SCT080 10/04
                        Q1014 TEMPO 8000 SHRA=
200903221630 METAR LMML NIL=
200903221615 METAR LMML 221615Z 32017KT 290V350 9999 SCT036 10/05 Q1014
                        NOSIG=
200903221600 METAR LMML NIL=
200903221545 METAR LMML 221545Z 31015KT 9999 SCT036 12/04 Q1014 NOSIG=
200903221530 METAR LMML NIL=
200903221515 METAR LMML 221515Z 30017KT 260V330 9999 SCT036 12/04 Q1014
                        NOSIG=
200903221500 METAR LMML NIL=
200903221445 METAR LMML 221445Z 30017KT 9999 SCT037 11/03 Q1014 NOSIG=
200903221430 METAR LMML NIL=
200903221415 METAR LMML 221415Z 30019KT 260V320 9999 SCT036 12/03 Q1014
                        NOSIG=
200903221400 METAR LMML NIL=
200903221330 METAR LMML NIL=
200903221300 METAR LMML NIL=
200903221245 METAR LMML 221245Z 28016KT 250V310 9999 FEW030 SCT080 12/05
                        Q1014 NOSIG=
200903221230 METAR LMML NIL=
200903221215 METAR LMML 221215Z 30019G30KT 240V330 9999 SCT036 SCT080
                        12/04 Q1014 NOSIG=
200903221200 METAR LMML NIL=
200903221145 METAR LMML 221145Z 31020KT 9999 BKN031 12/04 Q1015 NOSIG=
200903221130 METAR LMML NIL=
200903221115 METAR LMML 221115Z 28017G28KT 230V310 9999 SCT029 SCT080
                        11/05 Q1015 NOSIG=
200903221100 METAR LMML NIL=
200903221045 METAR LMML 221045Z 28012KT 250V310 9999 FEW025 SCT080 10/05
                        Q1015 NOSIG=
200903221030 METAR LMML NIL=
200903221015 METAR LMML 221015Z 29023KT 260V330 9000 -SHRA SCT025 SCT060
                        09/04 Q1015 BECMG 9999=
200903221002 SPECI LMML 221002Z 30021KT 260V320 8000 -SHRA BKN026 10/06
                        Q1015 BECMG 9999=
200903221000 METAR LMML NIL=
200903220945 METAR LMML 220945Z 30018KT 270V330 9999 SCT035 11/04 Q1015
                        NOSIG=
200903220930 METAR LMML NIL=
200903220915 METAR LMML 220915Z 30019KT 270V330 9999 SCT035 11/04 Q1015
                        NOSIG=
200903220900 METAR LMML NIL=
200903220845 METAR LMML 220845Z 30018KT 9999 SCT033 11/04 Q1015 NOSIG=
200903220830 METAR LMML NIL=
200903220815 METAR LMML 220815Z 27011KT 230V310 9999 SCT027 09/04 Q1015
                        NOSIG=
200903220800 METAR LMML NIL=
200903220745 METAR LMML 220745Z 31017KT 280V340 9999 BKN033TCU 10/04 Q1015
                        NOSIG=
200903220730 METAR LMML NIL=
200903220715 METAR LMML 220715Z 31014KT 280V340 9999 SCT030TCU 09/05 Q1014
                        TEMPO 5000 SHRA BKN015TCU=
200903220700 METAR LMML NIL=
200903220645 METAR LMML 220645Z 32014KT 9999 FEW030 09/04 Q1014 TEMPO
                        8000 SHRA BKN020TCU=
200903220630 METAR LMML NIL=
200903220615 METAR LMML 220615Z 31018G29KT 9999 FEW030 09/00 Q1014 TEMPO
                        8000 SHRA BKN020TCU=
200903220600 METAR LMML NIL=
200903220545 METAR LMML 220545Z 30016KT 270V330 9999 FEW040 08/00 Q1014
                        TEMPO 8000 SHRA BKN020TCU=
200903220530 METAR LMML NIL=
200903220515 METAR LMML 220515Z 30011KT 270V330 9999 FEW040 07/02 Q1014
                        TEMPO 8000 SHRA BKN020TCU=
200903220500 METAR LMML NIL=
200903220445 METAR LMML 220445Z 31012KT 9999 FEW035 07/02 Q1014 TEMPO
                        8000 SHRA BKN020TCU=
200903220430 METAR LMML NIL=
200903220415 METAR LMML 220415Z 31014KT 9999 FEW035 07/02 Q1014 TEMPO
                        8000 SHRA BKN020TCU=
200903220400 METAR LMML NIL=
200903220345 METAR LMML 220345Z 31015KT 9999 FEW035 07/02 Q1013 TEMPO
                        8000 SHRA BKN020TCU=
200903220330 METAR LMML NIL=
200903220315 METAR LMML 220315Z 31015KT 270V330 9999 FEW035 07/02 Q1013
                        TEMPO 8000 SHRA BKN020TCU=
200903220300 METAR LMML NIL=
200903220245 METAR LMML 220245Z 32017KT 9999 FEW035 07/02 Q1013 TEMPO
                        8000 SHRA BKN020TCU=
200903220230 METAR LMML NIL=
200903220215 METAR LMML 220215Z 31013KT 9999 FEW035 07/03 Q1014 TEMPO
                        8000 SHRA BKN020TCU=
200903220200 METAR LMML NIL=
200903220145 METAR LMML 220145Z 32011KT 9999 SCT035 07/03 Q1014 TEMPO
                        8000 SHRA BKN020TCU=
200903220130 METAR LMML NIL=
200903220115 METAR LMML 220115Z 31013KT 9999 FEW030 07/03 Q1014 NOSIG=
200903220100 METAR LMML NIL=
200903220045 METAR LMML 220045Z 31015G25KT 9999 FEW030 SCT080 07/02 Q1014
                        NOSIG=
200903220030 METAR LMML NIL=
200903220015 METAR LMML 220015Z 30013G29KT 270V330 9999 -SHRA SCT033 BKN080
                        08/02 Q1015 NOSIG=
200903220000 METAR LMML NIL=
200903212345 METAR LMML 212345Z 31013KT 9999 FEW037 SCT080 08/02 Q1014
                        NOSIG=
200903212330 METAR LMML NIL=
200903212315 METAR LMML 212315Z 30012KT 270V330 9999 SCT037 08/02 Q1014
                        NOSIG=
200903212300 METAR LMML NIL=
200903212245 METAR LMML 212245Z 31018KT 9999 FEW035 08/02 Q1014 NOSIG=
200903212230 METAR LMML NIL=
200903212215 METAR LMML 212215Z 31015KT 9999 FEW035 08/02 Q1014 NOSIG=
200903212200 METAR LMML NIL=
200903212145 METAR LMML 212145Z 31015KT 9999 FEW035 08/03 Q1014 NOSIG=
200903212130 METAR LMML NIL=
200903212115 METAR LMML 212115Z 30018KT 9999 SCT024 08/04 Q1014 NOSIG=
200903212100 METAR LMML NIL=
200903212045 METAR LMML 212045Z 31017KT 9999 FEW032 08/02 Q1014 NOSIG=
200903212030 METAR LMML NIL=
200903212015 METAR LMML 212015Z 31017KT 9999 FEW033 08/02 Q1014 NOSIG=
200903212000 METAR LMML NIL=
200903211945 METAR LMML 211945Z 31021KT 9999 FEW028 08/02 Q1014 NOSIG=
200903211930 METAR LMML NIL=
200903211915 METAR LMML 211915Z 30017KT 270V340 9999 FEW029 09/04 Q1013
                        NOSIG=
200903211900 METAR LMML NIL=
200903211845 METAR LMML 211845Z 30019KT 9999 FEW030 09/03 Q1013 NOSIG=
200903211830 METAR LMML NIL=
200903211815 METAR LMML 211815Z 30019KT 9999 SCT030 09/03 Q1012 NOSIG=
200903211800 METAR LMML NIL=
200903211745 METAR LMML 211745Z 30017KT 280V340 9999 SCT029 09/04 Q1012
                        NOSIG=
200903211730 METAR LMML NIL=
200903211715 METAR LMML 211715Z 30022G32KT 270V330 9999 SCT028 09/03 Q1011
                        NOSIG=
200903211700 METAR LMML NIL=
200903211645 METAR LMML 211645Z 29023G35KT 260V320 9999 SCT029 09/03 Q1011
                        NOSIG=
200903211630 METAR LMML NIL=
200903211615 METAR LMML 211615Z 30024G35KT 9999 SCT030 10/04 Q1011 NOSIG=
200903211600 METAR LMML NIL=
200903211545 METAR LMML 211545Z 29026G36KT 260V320 9999 FEW026 SCT031
                        SCT037 09/03 Q1011 NOSIG=
200903211530 METAR LMML NIL=
200903211515 METAR LMML 211515Z 28025G35KT 240V310 9999 SCT025 10/04 Q1011
                        NOSIG=
200903211500 METAR LMML NIL=
200903211445 METAR LMML 211445Z 29025G35KT 260V320 9999 SCT032 10/03 Q1010
                        NOSIG=
200903211430 METAR LMML NIL=
200903211415 METAR LMML 211415Z 28026G36KT 9999 SCT031 11/04 Q1011 NOSIG=
200903211400 METAR LMML NIL=
200903211345 METAR LMML 211345Z 29025G36KT 260V320 9999 SCT036 11/03 Q1010
                        NOSIG=
200903211330 METAR LMML NIL=
200903211315 METAR LMML 211315Z 29025G36KT 9999 SCT037 11/03 Q1010 NOSIG=
200903211300 METAR LMML NIL=
200903211245 METAR LMML 211245Z 29026KT 250V320 9999 SCT033 11/03 Q1011
                        NOSIG=
200903211230 METAR LMML NIL=
200903211215 METAR LMML 211215Z 29025G37KT 9999 SCT039 12/03 Q1011 NOSIG=
200903211200 METAR LMML NIL=
200903211145 METAR LMML 211145Z 30026KT 9999 SCT034 11/03 Q1010 NOSIG=
200903211130 METAR LMML NIL=
200903211115 METAR LMML 211115Z 29027G38KT 250V320 9999 SCT040 12/01 Q1010
                        NOSIG=
200903211100 LMML NIL=
200903211030 METAR LMML NIL=
200903211015 METAR LMML 211015Z 30021G32KT 270V330 9999 SCT026 12/04 Q1010
                        NOSIG=
200903211000 METAR LMML NIL=
200903210945 METAR LMML 210945Z 29022KT 270V330 9999 -SHRA BKN027 09/05
                        Q1011 NOSIG=
200903210930 METAR LMML NIL=
200903210915 METAR LMML 210915Z 29025G35KT 250V320 9999 -SHRA BKN028 10/03
                        Q1010 NOSIG=
200903210900 METAR LMML NIL=
200903210845 METAR LMML 210845Z 29023KT 260V320 9999 -SHRA BKN037 10/04
                        Q1010 NOSIG=
200903210830 METAR LMML NIL=
200903210815 METAR LMML 210815Z 30021G33KT 270V340 9999 FEW035 SCT043
                        11/03 Q1010 NOSIG=
200903210800 METAR LMML NIL=
200903210745 METAR LMML 210745Z 29023KT 9999 SCT027 11/05 Q1010 NOSIG=
200903210730 METAR LMML NIL=
200903210715 METAR LMML 210715Z 30020KT 270V330 9999 SCT036 11/02 Q1010
                        NOSIG=
200903210700 METAR LMML NIL=
200903210645 METAR LMML 210645Z 30021KT 270V330 9999 SCT036 10/03 Q1009
                        NOSIG=
200903210630 METAR LMML NIL=
200903210615 METAR LMML 210615Z 29018KT 250V330 9999 SCT036 10/03 Q1009
                        NOSIG=
200903210600 METAR LMML NIL=
200903210545 METAR LMML 210545Z 30016KT 9999 SCT034 10/04 Q1009 NOSIG=
200903210530 METAR LMML NIL=
200903210515 METAR LMML 210515Z 30017KT 9999 SCT029 10/05 Q1009 NOSIG=
200903210500 METAR LMML NIL=
200903210445 METAR LMML 210445Z 30015KT 9999 SCT030 10/05 Q1009 TEMPO
                        8000 SHRA=
200903210430 METAR LMML NIL=
200903210415 METAR LMML 210415Z 30015KT 9999 FEW029 10/05 Q1009 TEMPO
                        8000 SHRA=
200903210400 METAR LMML NIL=
200903210345 METAR LMML 210345Z 30016KT 9999 FEW029 10/06 Q1008 TEMPO
                        8000 SHRA=
200903210330 METAR LMML NIL=
200903210315 METAR LMML 210315Z 29013KT 9999 FEW024 10/07 Q1008 TEMPO
                        8000 SHRA=
200903210300 METAR LMML NIL=
200903210245 METAR LMML 210245Z 28012KT 9999 FEW025 10/08 Q1008 TEMPO
                        8000 SHRA=
200903210230 METAR LMML NIL=
200903210215 METAR LMML 210215Z 28010KT 9999 FEW025 10/08 Q1008 NOSIG=
200903210200 METAR LMML NIL=
200903210145 METAR LMML 210145Z 28010KT 240V310 9999 FEW039 10/07 Q1008
                        NOSIG=
200903210130 LMML NIL=
200903210115 METAR LMML 210115Z 30022G34KT 260V330 9999 -TSRA FEW015CB
                        BKN021 10/08 Q1009 TEMPO 5000 SHRA
                        BKN015CB=
200903210100 METAR LMML NIL=
200903210045 METAR LMML 210045Z 26011KT 220V300 9999 SCT019 SCT120 12/09
                        Q1009 TEMPO 5000 SHRA BKN015 RMK
                        LIGHTNING TO N AND NNE=
200903210030 METAR LMML NIL=
200903210015 METAR LMML 210015Z 25009KT 200V280 9999 SCT025 12/09 Q1009
                        NOSIG RMK LIGHTNING TO NNE=
200903210000 METAR LMML NIL=
200903202345 METAR LMML 202345Z 26010KT 230V300 9999 FEW025 12/08 Q1009
                        NOSIG=
200903202330 METAR LMML NIL=
200903202315 METAR LMML 202315Z 26009KT 9999 FEW025 SCT080 SCT100 12/08
                        Q1009 NOSIG=
200903202300 METAR LMML NIL=
200903202245 METAR LMML 202245Z 26009KT 230V300 9999 FEW025 SCT100 12/08
                        Q1009 NOSIG=
200903202230 METAR LMML NIL=
200903202215 METAR LMML 202215Z 28010KT 240V300 9999 FEW025 SCT100 13/08
                        Q1010 NOSIG=
200903202200 METAR LMML NIL=
200903202145 METAR LMML 202145Z 28011KT 240V300 9999 FEW025 SCT070 13/08
                        Q1010 NOSIG=
200903202130 METAR LMML NIL=
200903202115 METAR LMML 202115Z 27010KT 240V300 9999 FEW025 SCT100 12/08
                        Q1010 NOSIG=
200903202100 METAR LMML NIL=
200903202045 METAR LMML 202045Z 26009KT 230V290 9999 FEW025 SCT100 12/09
                        Q1010 TEMPO 8000 SHRA=
200903202030 METAR LMML NIL=
200903202015 METAR LMML 202015Z 26008KT 220V280 9999 FEW025 11/09 Q1010
                        RETS NOSIG=
200903202000 METAR LMML NIL=
200903201945 METAR LMML 201945Z 29009KT 9999 FEW020CB 12/09 Q1010 RETS
                        NOSIG RMK LIGHTNING TO NE=
200903201930 METAR LMML NIL=
200903201915 METAR LMML 201915Z 27006KT 240V320 9999 TS FEW020CB 12/09
                        Q1010 TEMPO 6000 SHRA BKN015CB RMK
                        CB TOP TO NE=
200903201900 METAR LMML NIL=
200903201845 METAR LMML 201845Z 26008KT 230V300 9999 TS FEW020CB 12/09
                        Q1010 TEMPO 6000 SHRA BKN015CB=
200903201830 METAR LMML NIL=
200903201815 METAR LMML 201815Z 27006KT 9999 FEW022 12/08 Q1010 TEMPO
                        6000 SHRA BKN015CB=
200903201800 METAR LMML NIL=
200903201745 METAR LMML 201745Z 27009KT 240V310 9999 FEW022 12/08 Q1010
                        NOSIG=
200903201730 METAR LMML NIL=
200903201715 METAR LMML 201715Z 28011KT 9999 FEW022 13/08 Q1010 TEMPO
                        7000 SHRA BKN013=
200903201700 METAR LMML NIL=
200903201645 METAR LMML 201645Z 26012KT 210V290 9999 FEW022 13/08 Q1010
                        TEMPO 7000 SHRA BKN013=
200903201630 METAR LMML NIL=
200903201615 METAR LMML 201615Z 28012KT 240V310 9999 FEW022 14/09 Q1010
                        TEMPO 7000 SHRA BKN013=
200903201600 METAR LMML NIL=
200903201545 METAR LMML 201545Z 28012KT 230V310 9999 FEW020 14/09 Q1010
                        TEMPO 7000 SHRA BKN013=
200903201530 METAR LMML NIL=
200903201515 METAR LMML 201515Z 27014KT 230V310 9999 SCT018 15/10 Q1010
                        TEMPO 7000 SHRA BKN013=
200903201500 METAR LMML NIL=
200903201445 METAR LMML 201445Z 26016KT 240V310 9999 SCT015 15/10 Q1010
                        NOSIG=
200903201430 METAR LMML NIL=
200903201415 METAR LMML 201415Z 24015KT 210V280 9999 SCT015 SCT035 15/11
                        Q1010 NOSIG=
200903201400 METAR LMML NIL=
200903201345 METAR LMML 201345Z 24015G25KT 200V290 9999 SCT018 SCT100
                        16/11 Q1010 NOSIG=
200903201330 METAR LMML NIL=
200903201315 METAR LMML 201315Z 24017G27KT 200V280 9999 SCT023 16/11 Q1010
                        NOSIG=
200903201300 METAR LMML NIL=
200903201245 METAR LMML 201245Z 24016KT 200V280 9999 FEW021 SCT070 16/11
                        Q1010 NOSIG=
200903201230 METAR LMML NIL=
200903201215 METAR LMML 201215Z 22017KT 190V270 9999 -SHRA FEW018 BKN070
                        15/12 Q1011 NOSIG=
200903201200 METAR LMML NIL=
200903201145 METAR LMML 201145Z 22014KT 180V270 9999 FEW018 BKN070 14/12
                        Q1011 TEMPO 8000 SHRA BKN015=
200903201130 METAR LMML NIL=
200903201115 METAR LMML 201115Z 22014KT 190V270 9999 FEW019 BKN070 15/11
                        Q1012 NOSIG=
200903201100 METAR LMML NIL=
200903201045 METAR LMML 201045Z 21013KT 170V260 9999 FEW016 SCT070 16/12
                        Q1012 NOSIG=
200903201030 METAR LMML NIL=
200903201015 METAR LMML 201015Z 21011KT 170V260 9999 FEW016 SCT070 15/11
                        Q1012 NOSIG=
200903201000 METAR LMML NIL=
200903200945 METAR LMML 200945Z 21011KT 170V330 9999 FEW016 BKN070 15/11
                        Q1012 NOSIG=
200903200930 METAR LMML NIL=
200903200915 METAR LMML 200915Z 20015KT 170V240 9999 FEW016 BKN070 14/11
                        Q1013 NOSIG=
200903200900 METAR LMML NIL=
200903200845 METAR LMML 200845Z 20013KT 160V240 9999 FEW017 SCT060 BKN070
                        14/10 Q1013 NOSIG=
200903200830 METAR LMML NIL=
200903200815 METAR LMML 200815Z 20013KT 170V250 9999 FEW017 SCT060 14/10
                        Q1013 NOSIG=
200903200800 METAR LMML NIL=
200903200745 METAR LMML 200745Z 20013KT 170V240 9999 FEW021 SCT060 14/10
                        Q1013 NOSIG=
200903200730 METAR LMML NIL=
200903200715 METAR LMML 200715Z 20014KT 170V250 9999 FEW021 SCT060 14/10
                        Q1013 NOSIG=
200903200700 METAR LMML NIL=
200903200645 METAR LMML 200645Z 20014KT 160V240 9999 FEW021 BKN080 14/09
                        Q1014 NOSIG=
200903200630 METAR LMML NIL=
200903200615 METAR LMML 200615Z 20014KT 160V230 9999 SCT023 SCT060 BKN070
                        13/09 Q1014 NOSIG=
200903200600 METAR LMML NIL=
200903200545 METAR LMML 200545Z 20014KT 160V240 9999 SCT022 BKN060 13/09
                        Q1014 NOSIG=
200903200530 METAR LMML NIL=
200903200515 METAR LMML 200515Z 20014KT 160V240 9999 SCT025 13/08 Q1014
                        NOSIG=
200903200500 METAR LMML NIL=
200903200445 METAR LMML 200445Z 20014KT 160V250 9999 SCT026 13/08 Q1014
                        NOSIG=
200903200430 METAR LMML NIL=
200903200415 METAR LMML 200415Z 20014KT 170V240 9999 SCT026 12/07 Q1015
                        NOSIG=
200903200400 METAR LMML NIL=
200903200345 METAR LMML 200345Z 20011G21KT 160V260 9999 SCT024 12/08 Q1015
                        NOSIG=
200903200330 METAR LMML NIL=
200903200315 METAR LMML 200315Z 20012KT 160V250 9999 SCT025 SCT070 12/08
                        Q1015 NOSIG=
200903200300 METAR LMML NIL=
200903200245 METAR LMML 200245Z 20012KT 170V260 9999 SCT025 SCT070 12/08
                        Q1016 NOSIG=
200903200230 METAR LMML NIL=
200903200215 METAR LMML 200215Z 20011KT 160V250 9999 FEW025 SCT250 12/07
                        Q1016 NOSIG=
200903200200 METAR LMML NIL=
200903200145 METAR LMML 200145Z 19010KT 160V250 9999 FEW025 12/07 Q1017
                        NOSIG=
200903200130 METAR LMML NIL=
200903200115 METAR LMML 200115Z 19010KT 150V230 9999 FEW024 12/07 Q1017
                        NOSIG=
200903200100 METAR LMML NIL=
200903200045 METAR LMML 200045Z 19009KT 160V220 9999 FEW025 12/07 Q1017
                        NOSIG=
200903200030 METAR LMML NIL=
200903200015 METAR LMML 200015Z 19009KT 160V240 9999 FEW030 12/07 Q1018
                        NOSIG=
200903200000 METAR LMML NIL=
200903192345 METAR LMML 192345Z 19008KT 170V230 9999 FEW030 12/06 Q1018
                        NOSIG=
200903192330 METAR LMML NIL=
200903192315 METAR LMML 192315Z 19007KT 160V250 9999 FEW030 11/06 Q1018
                        NOSIG=
200903192300 METAR LMML NIL=
200903192245 METAR LMML 192245Z 18006KT 140V210 9999 FEW030 11/06 Q1019
                        NOSIG=
200903192230 METAR LMML NIL=
200903192215 METAR LMML 192215Z 19006KT 150V230 9999 FEW030 11/06 Q1019
                        NOSIG=
200903192200 METAR LMML NIL=
200903192145 METAR LMML 192145Z 19005KT 9999 FEW030 11/05 Q1019 NOSIG=
200903192130 METAR LMML NIL=
200903192115 METAR LMML 192115Z 19005KT 170V230 9999 FEW030 11/05 Q1019
                        NOSIG=
200903192100 METAR LMML NIL=
200903192045 METAR LMML 192045Z 19005KT 160V230 9999 FEW030 12/05 Q1019
                        NOSIG=
200903192030 METAR LMML NIL=
200903192015 METAR LMML 192015Z 19004KT 150V220 9999 FEW030 11/06 Q1020
                        NOSIG=
200903192000 METAR LMML NIL=
200903191945 METAR LMML 191945Z 19004KT 160V220 9999 FEW030 12/06 Q1020
                        NOSIG=
200903191930 METAR LMML NIL=
200903191915 METAR LMML 191915Z 19004KT 160V230 9999 FEW030 11/06 Q1020
                        NOSIG=
200903191900 METAR LMML NIL=
200903191845 METAR LMML 191845Z VRB03KT 9999 FEW030 SCT250 11/07 Q1020
                        NOSIG=
200903191830 METAR LMML NIL=
200903191815 METAR LMML 191815Z VRB03KT 9999 FEW030 SCT250 12/06 Q1020
                        NOSIG=
200903191800 METAR LMML NIL=
200903191745 LMML 191745Z 19004KT 170V230 9999 FEW031 SCT250 12/06 Q1020
                        NOSIG=
200903191730 METAR LMML NIL=
200903191715 METAR LMML 191715Z VRB03KT 9999 FEW031 SCT250 12/06 Q1020
                        NOSIG=
200903191700 METAR LMML NIL=
200903191645 METAR LMML 191645Z 19005KT 9999 FEW031 SCT250 13/06 Q1020
                        NOSIG=
200903191630 METAR LMML NIL=
200903191615 METAR LMML 191615Z 17006KT 9999 FEW031 14/07 Q1020 NOSIG=
200903191600 METAR LMML NIL=
200903191545 METAR LMML 191545Z 18005KT 160V220 9999 FEW031 14/07 Q1021
                        NOSIG=
200903191530 METAR LMML NIL=
200903191515 METAR LMML 191515Z 18005KT 130V220 CAVOK 14/07 Q1021 NOSIG=
200903191500 METAR LMML NIL=
200903191445 METAR LMML 191445Z 19005KT 110V300 9999 FEW030 SCT250 14/08
                        Q1021 NOSIG=
200903191430 METAR LMML NIL=
200903191415 METAR LMML 191415Z 18005KT 130V250 9999 FEW029 14/07 Q1021
                        NOSIG=
200903191400 METAR LMML NIL=
200903191345 METAR LMML 191345Z 19006KT 130V230 9999 FEW029 15/06 Q1021
                        NOSIG=
200903191330 METAR LMML NIL=
200903191315 METAR LMML 191315Z 17006KT 130V210 9999 FEW028 15/08 Q1021
                        NOSIG=
200903191300 METAR LMML NIL=
200903191245 METAR LMML 191245Z 18005KT 100V260 9999 FEW027 15/09 Q1021
                        NOSIG=
200903191230 METAR LMML NIL=
200903191215 METAR LMML 191215Z 13006KT 090V170 9999 SCT026 15/08 Q1021
                        NOSIG=
200903191200 METAR LMML NIL=
200903191145 METAR LMML 191145Z 13006KT 050V200 9999 SCT026 15/08 Q1021
                        NOSIG=
200903191115 METAR LMML 191115Z 14006KT 100V180 9999 FEW026 15/08 Q1022
                        NOSIG=
200903191100 METAR LMML NIL=
200903191045 METAR LMML 191045Z 13007KT 100V160 9999 SCT025 SCT250 15/09
                        Q1022 NOSIG=
200903191030 METAR LMML NIL=
200903191015 METAR LMML 191015Z 11007KT 060V170 9999 SCT024 SCT250 15/09
                        Q1022 NOSIG=
200903191000 METAR LMML NIL=
200903190945 METAR LMML 190945Z 13007KT 100V170 9999 FEW028 BKN250 15/08
                        Q1022 NOSIG=
200903190930 METAR LMML NIL=
200903190915 METAR LMML 190915Z 11007KT 070V150 9999 FEW025 BKN250 14/08
                        Q1022 NOSIG=
200903190900 METAR LMML NIL=
200903190845 METAR LMML 190845Z 09006KT 050V130 9999 FEW025 SCT250 14/09
                        Q1022 NOSIG=
200903190815 METAR LMML 190815Z 09007KT 050V120 9999 FEW025 BKN250 14/08
                        Q1022 NOSIG=
200903190800 METAR LMML NIL=
200903190745 METAR LMML 190745Z 09006KT 050V120 9999 FEW025 BKN250 13/09
                        Q1022 NOSIG=
200903190715 METAR LMML 190715Z VRB03KT 9999 FEW023 BKN250 13/10 Q1022
                        NOSIG=
200903190645 METAR LMML 190645Z VRB01KT 9999 FEW023 BKN250 11/09 Q1021
                        NOSIG=
200903190630 METAR LMML NIL=
200903190615 METAR LMML 190615Z VRB01KT 9999 FEW023 SCT250 10/09 Q1021
                        NOSIG=
200903190600 METAR LMML NIL=
200903190545 METAR LMML 190545Z 00000KT 9999 FEW022 SCT250 09/07 Q1021
                        NOSIG=
200903190530 METAR LMML NIL=
200903190515 METAR LMML 190515Z VRB01KT 9999 FEW020 08/07 Q1021 NOSIG=
200903190445 METAR LMML 190445Z VRB01KT 9999 FEW020 SCT250 08/07 Q1021
                        NOSIG=
200903190430 METAR LMML NIL=
200903190415 METAR LMML 190415Z VRB01KT 9999 FEW038 SCT250 08/07 Q1021
                        NOSIG=
200903190400 METAR LMML NIL=
200903190345 METAR LMML 190345Z VRB02KT 9999 FEW040 08/06 Q1021 NOSIG=
200903190330 METAR LMML NIL=
200903190315 METAR LMML 190315Z VRB02KT 9999 FEW030 08/06 Q1020 NOSIG=
200903190300 METAR LMML NIL=
200903190245 METAR LMML 190245Z VRB02KT CAVOK 08/06 Q1020 NOSIG=
200903190230 METAR LMML NIL=
200903190200 METAR LMML NIL=
200903190145 METAR LMML 190145Z VRB02KT CAVOK 08/06 Q1021 NOSIG=
200903190130 LMML NIL=
200903190115 METAR LMML 190115Z VRB03KT CAVOK 08/06 Q1021 NOSIG=
200903190100 METAR LMML NIL=
200903190045 METAR LMML 190045Z VRB02KT CAVOK 08/06 Q1021 NOSIG=
200903190030 METAR LMML NIL=
200903190015 METAR LMML 190015Z VRB02KT CAVOK 08/06 Q1021 NOSIG=
200903190000 METAR LMML NIL=
200903182345 METAR LMML 182345Z VRB01KT CAVOK 08/06 Q1021 NOSIG=
200903182330 METAR LMML NIL=
200903182315 METAR LMML 182315Z VRB01KT CAVOK 09/07 Q1021 NOSIG=
200903182300 METAR LMML NIL=
200903182245 METAR LMML 182245Z VRB02KT CAVOK 09/06 Q1021 NOSIG=
200903182230 METAR LMML NIL=
200903182215 METAR LMML 182215Z VRB01KT CAVOK 09/07 Q1021 NOSIG=
200903182200 METAR LMML NIL=
200903182145 METAR LMML 182145Z VRB02KT CAVOK 09/06 Q1021 NOSIG=
200903182130 METAR LMML NIL=
200903182115 METAR LMML 182115Z VRB02KT CAVOK 09/06 Q1021 NOSIG=
200903182100 METAR LMML NIL=
200903182045 METAR LMML 182045Z VRB01KT CAVOK 09/06 Q1021 NOSIG=
200903182030 METAR LMML NIL=
200903182015 METAR LMML 182015Z VRB01KT CAVOK 10/06 Q1021 NOSIG=
200903182000 METAR LMML NIL=
200903181945 METAR LMML 181945Z VRB02KT CAVOK 10/06 Q1021 NOSIG=
200903181930 METAR LMML NIL=
200903181915 METAR LMML 181915Z VRB02KT CAVOK 11/06 Q1021 NOSIG=
200903181900 METAR LMML NIL=
200903181845 METAR LMML 181845Z VRB03KT 9999 FEW030 SCT250 12/06 Q1020
                        NOSIG=
200903181830 METAR LMML NIL=
200903181815 METAR LMML 181815Z VRB03KT 9999 FEW030 SCT250 12/06 Q1020
                        NOSIG=
200903181800 METAR LMML NIL=
200903181745 METAR LMML 181745Z VRB02KT 9999 FEW030 SCT250 12/07 Q1020
                        NOSIG=
200903181730 METAR LMML NIL=
200903181715 METAR LMML 181715Z VRB03KT 9999 FEW035 SCT250 13/06 Q1019
                        NOSIG=
200903181700 METAR LMML NIL=
200903181645 METAR LMML 181645Z VRB03KT 9999 FEW035 BKN250 14/07 Q1019
                        NOSIG=
200903181630 METAR LMML NIL=
200903181615 METAR LMML 181615Z VRB03KT 9999 FEW035 BKN250 14/07 Q1019
                        NOSIG=
200903181600 METAR LMML NIL=
200903181545 METAR LMML 181545Z 04005KT 010V080 9999 FEW035 BKN250 14/07
                        Q1019 NOSIG=
200903181530 METAR LMML NIL=
200903181515 METAR LMML 181515Z 03004KT 340V120 9999 FEW040 BKN250 14/06
                        Q1019 NOSIG=
200903181500 METAR LMML NIL=
200903181445 METAR LMML 181445Z 04005KT 350V090 9999 FEW040 BKN250 15/06
                        Q1019 NOSIG=
200903181430 METAR LMML NIL=
200903181415 METAR LMML 181415Z 08005KT 030V140 9999 FEW040 BKN250 16/06
                        Q1020 NOSIG=
200903181400 METAR LMML NIL=
200903181345 METAR LMML 181345Z 04005KT 330V090 9999 FEW042 SCT250 16/07
                        Q1020 NOSIG=
200903181315 METAR LMML 181315Z 04006KT 010V090 9999 FEW042 SCT250 16/08
                        Q1020 NOSIG=
200903181300 METAR LMML NIL=
200903181245 METAR LMML 181245Z 04004KT 300V110 9999 FEW033 SCT250 15/07
                        Q1020 NOSIG=
200903181230 METAR LMML NIL=
200903181215 METAR LMML 181215Z VRB03KT 9999 SCT029 15/08 Q1021 NOSIG=
200903181200 METAR LMML NIL=
200903181145 METAR LMML 181145Z VRB03KT 9999 SCT028 14/07 Q1021 NOSIG=
200903181130 METAR LMML NIL=
200903181115 METAR LMML 181115Z 22004KT 180V290 9999 SCT030 14/08 Q1021
                        NOSIG=
200903181100 METAR LMML NIL=
200903181045 METAR LMML 181045Z VRB03KT 9999 SCT035 14/08 Q1022 NOSIG=
200903181030 METAR LMML NIL=
200903181015 METAR LMML 181015Z VRB03KT 9999 SCT036 16/07 Q1022 NOSIG=
200903181000 METAR LMML NIL=
200903180945 METAR LMML 180945Z 02005KT 340V060 9999 FEW035 16/08 Q1022
                        NOSIG=
200903180930 METAR LMML NIL=
200903180915 METAR LMML 180915Z VRB03KT 9999 FEW030 15/07 Q1022 NOSIG=
200903180900 METAR LMML NIL=
200903180845 METAR LMML 180845Z 02004KT 350V060 9999 FEW033 16/08 Q1021
                        NOSIG=
200903180830 METAR LMML NIL=
200903180815 METAR LMML 180815Z VRB03KT 9999 FEW031 15/08 Q1021 NOSIG=
200903180800 METAR LMML NIL=
200903180745 METAR LMML 180745Z VRB03KT 9999 FEW028 14/08 Q1021 NOSIG=
200903180730 METAR LMML NIL=
200903180715 METAR LMML 180715Z VRB01KT 9999 FEW030 13/09 Q1021 NOSIG=
200903180700 METAR LMML NIL=
200903180645 METAR LMML 180645Z VRB01KT 9999 FEW030 12/09 Q1021 NOSIG=
200903180630 METAR LMML NIL=
200903180615 METAR LMML 180615Z VRB01KT 9999 FEW038 10/08 Q1021 NOSIG=
200903180600 METAR LMML NIL=
200903180545 METAR LMML 180545Z VRB01KT 9999 FEW038 09/07 Q1021 NOSIG=
200903180530 METAR LMML NIL=
200903180515 METAR LMML 180515Z VRB01KT 9999 FEW038 08/06 Q1021 NOSIG=
200903180500 METAR LMML NIL=
200903180445 METAR LMML 180445Z VRB02KT 9999 FEW038 09/06 Q1021 NOSIG=
200903180430 METAR LMML NIL=
200903180415 METAR LMML 180415Z 05004KT 020V080 9999 FEW038 11/07 Q1021
                        NOSIG=
200903180400 METAR LMML NIL=
200903180345 METAR LMML 180345Z 05004KT 020V080 9999 FEW038 10/07 Q1021
                        NOSIG=
200903180330 METAR LMML NIL=
200903180315 METAR LMML 180315Z 04004KT 9999 FEW038 11/07 Q1021 NOSIG=
200903180300 METAR LMML NIL=
200903180245 METAR LMML 180245Z 04005KT 010V080 9999 FEW038 11/07 Q1021
                        NOSIG=
200903180230 METAR LMML NIL=
200903180215 METAR LMML 180215Z VRB03KT 9999 FEW039 10/07 Q1021 NOSIG=
200903180200 METAR LMML NIL=
200903180145 METAR LMML 180145Z VRB03KT 9999 FEW038 10/07 Q1022 NOSIG=
200903180130 METAR LMML NIL=
200903180115 METAR LMML 180115Z VRB03KT CAVOK 11/07 Q1022 NOSIG=
200903180100 METAR LMML NIL=
200903180045 METAR LMML 180045Z 05004KT 020V090 CAVOK 11/07 Q1022 NOSIG=
200903180030 METAR LMML NIL=
200903180015 METAR LMML 180015Z 05004KT 010V100 CAVOK 11/07 Q1022 NOSIG=
200903180000 METAR LMML NIL=
200903172345 METAR LMML 172345Z 06004KT CAVOK 11/07 Q1022 NOSIG=
200903172330 METAR LMML NIL=
200903172315 METAR LMML 172315Z 06004KT 010V090 CAVOK 11/07 Q1022 NOSIG=
200903172300 METAR LMML NIL=
200903172245 METAR LMML 172245Z 05006KT 020V080 CAVOK 12/07 Q1022 NOSIG=
200903172230 METAR LMML NIL=
200903172215 METAR LMML 172215Z 04005KT 010V070 CAVOK 12/07 Q1022 NOSIG=
200903172200 METAR LMML NIL=
200903172145 METAR LMML 172145Z 05006KT 020V080 CAVOK 12/08 Q1022 NOSIG=
200903172115 METAR LMML 172115Z 05007KT CAVOK 12/08 Q1022 NOSIG=
200903172100 METAR LMML NIL=
200903172045 METAR LMML 172045Z 06007KT 020V090 CAVOK 12/08 Q1022 NOSIG=
200903172030 METAR LMML NIL=
200903172015 METAR LMML 172015Z 06005KT 030V100 CAVOK 12/08 Q1022 NOSIG=
200903172000 METAR LMML NIL=
200903171945 METAR LMML 171945Z 06005KT 030V100 CAVOK 12/08 Q1022 NOSIG=
200903171930 METAR LMML NIL=
200903171915 METAR LMML 171915Z 07008KT 9999 FEW020 12/08 Q1022 NOSIG=
200903171900 METAR LMML NIL=
200903171845 METAR LMML 171845Z 08008KT 040V100 9999 FEW020 12/08 Q1022
                        NOSIG=
200903171830 METAR LMML NIL=
200903171815 METAR LMML 171815Z 07008KT 040V110 9999 FEW020 12/08 Q1022
                        NOSIG=
200903171800 METAR LMML NIL=
200903171745 METAR LMML 171745Z 07009KT 040V100 9999 FEW020 12/09 Q1022
                        NOSIG=
200903171730 METAR LMML NIL=
200903171715 METAR LMML 171715Z 07012KT 040V100 9999 FEW020 13/08 Q1021
                        NOSIG=
200903171700 METAR LMML NIL=
200903171645 METAR LMML 171645Z 07012KT 040V100 9999 FEW020 13/08 Q1021
                        NOSIG=
200903171630 METAR LMML NIL=
200903171615 METAR LMML 171615Z 06014KT 020V100 9999 FEW021 14/08 Q1021
                        NOSIG=
200903171545 METAR LMML 171545Z 06013KT 010V090 9999 FEW021 14/09 Q1021
                        NOSIG=
200903171530 METAR LMML NIL=
200903171515 METAR LMML 171515Z 06015KT 030V100 9999 FEW023 14/09 Q1021
                        NOSIG=
200903171500 METAR LMML NIL=
200903171445 METAR LMML 171445Z 06014KT 020V090 9999 FEW022 15/09 Q1021
                        NOSIG=
200903171430 METAR LMML NIL=
200903171415 METAR LMML 171415Z 06014KT 020V100 9999 SCT021 14/09 Q1021
                        NOSIG=
200903171400 METAR LMML NIL=
200903171345 METAR LMML 171345Z 07013KT 030V100 9999 SCT022 15/09 Q1021
                        NOSIG=
200903171330 METAR LMML NIL=
200903171315 METAR LMML 171315Z 07014KT 040V100 9999 SCT022 15/10 Q1022
                        NOSIG=
200903171300 METAR LMML NIL=
200903171245 METAR LMML 171245Z 06013KT 020V100 9999 FEW023 SCT250 15/10
                        Q1022 NOSIG=
200903171230 METAR LMML NIL=
200903171215 METAR LMML 171215Z 06016KT 030V110 9999 SCT021 15/10 Q1022
                        NOSIG=
200903171200 METAR LMML NIL=
200903171145 METAR LMML 171145Z 07015KT 020V110 9999 FEW023 15/10 Q1022
                        NOSIG=
200903171130 METAR LMML NIL=
200903171115 METAR LMML 171115Z 05015KT 020V080 9999 SCT023 15/09 Q1022
                        NOSIG=
200903171100 METAR LMML NIL=
200903171045 METAR LMML 171045Z 05014KT 020V080 9999 SCT024 15/09 Q1022
                        NOSIG=
200903171030 METAR LMML NIL=
200903171015 METAR LMML 171015Z 06017KT 030V090 9999 SCT024 15/09 Q1022
                        NOSIG=
200903171000 METAR LMML NIL=
200903170945 METAR LMML 170945Z 06013KT 030V100 9999 SCT025 15/09 Q1023
                        NOSIG=
200903170930 METAR LMML NIL=
200903170915 METAR LMML 170915Z 07014KT 030V110 9999 SCT024 15/09 Q1022
                        NOSIG=
200903170900 METAR LMML NIL=
200903170845 METAR LMML 170845Z 07014KT 030V100 9999 SCT025 15/09 Q1022
                        NOSIG=
200903170830 METAR LMML NIL=
200903170815 METAR LMML 170815Z 07014KT 030V100 9999 SCT025 14/09 Q1022
                        NOSIG=
200903170800 METAR LMML NIL=
200903170745 METAR LMML 170745Z 07014KT 040V120 9999 SCT023 14/09 Q1022
                        NOSIG=
200903170730 METAR LMML NIL=
200903170715 METAR LMML 170715Z 08013KT 040V110 9999 SCT026 13/08 Q1022
                        NOSIG=
200903170700 METAR LMML NIL=
200903170645 METAR LMML 170645Z 08014KT 040V110 9999 SCT025 13/08 Q1022
                        NOSIG=
200903170630 METAR LMML NIL=
200903170615 METAR LMML 170615Z 08013KT 050V110 9999 FEW022 13/09 Q1022
                        NOSIG=
200903170600 METAR LMML NIL=
200903170545 METAR LMML 170545Z 08011KT 050V110 9999 FEW022 12/08 Q1021
                        NOSIG=
200903170530 METAR LMML NIL=
200903170515 METAR LMML 170515Z 08012KT 9999 FEW023 12/08 Q1021 NOSIG=
200903170500 METAR LMML NIL=
200903170445 METAR LMML 170445Z 08011KT 9999 SCT023 12/08 Q1021 NOSIG=
200903170430 METAR LMML NIL=
200903170415 METAR LMML 170415Z 08011KT 040V100 9999 SCT022 12/09 Q1021
                        NOSIG=
200903170400 METAR LMML NIL=
200903170345 METAR LMML 170345Z 08011KT 9999 SCT022 12/09 Q1021 NOSIG=
200903170330 METAR LMML NIL=
200903170315 METAR LMML 170315Z 08011KT 050V110 9999 SCT021 SCT125 12/09
                        Q1021 NOSIG=
200903170300 METAR LMML NIL=
200903170245 METAR LMML 170245Z 08010KT 050V110 9999 SCT020 BKN125 12/09
                        Q1021 NOSIG=
200903170230 METAR LMML NIL=
200903170215 METAR LMML 170215Z 09009KT 9999 SCT021 BKN120 12/09 Q1021
                        NOSIG=
200903170200 METAR LMML NIL=
200903170145 METAR LMML 170145Z 08010KT 9999 FEW019 BKN120 12/09 Q1021
                        NOSIG=
200903170130 METAR LMML NIL=
200903170115 METAR LMML 170115Z 08011KT 9999 FEW018 BKN120 13/09 Q1021
                        NOSIG=
200903170100 METAR LMML NIL=
200903170045 METAR LMML 170045Z 08010KT 9999 FEW018 BKN120 13/09 Q1021
                        NOSIG=
200903170030 METAR LMML NIL=
200903170015 METAR LMML 170015Z 08012KT 9999 FEW018 SCT120 13/09 Q1021
                        NOSIG=
200903170000 METAR LMML NIL=
200903162345 METAR LMML 162345Z 09009KT 060V120 9999 FEW017 SCT120 12/10
                        Q1021 NOSIG=
200903162330 METAR LMML NIL=
200903162315 METAR LMML 162315Z 09010KT 9999 FEW015 13/10 Q1021 NOSIG=
200903162300 METAR LMML NIL=
200903162245 METAR LMML 162245Z 09009KT 9999 FEW015 13/10 Q1021 NOSIG=
200903162230 METAR LMML NIL=
200903162215 METAR LMML 162215Z 09009KT 9999 FEW015 13/10 Q1021 NOSIG=
200903162200 METAR LMML NIL=
200903162145 METAR LMML 162145Z 10009KT 9999 FEW015 13/10 Q1021 NOSIG=
200903162130 METAR LMML NIL=
200903162115 METAR LMML 162115Z 10009KT 050V130 9999 FEW020 SCT250 13/10
                        Q1021 NOSIG=
200903162100 METAR LMML NIL=
200903162045 METAR LMML 162045Z 10008KT 070V130 9999 FEW020 SCT250 13/10
                        Q1021 NOSIG=
200903162030 METAR LMML NIL=
200903162015 METAR LMML 162015Z 10009KT 060V120 9999 FEW020 SCT250 13/10
                        Q1021 NOSIG=
200903162000 METAR LMML NIL=
200903161945 METAR LMML 161945Z 10010KT 060V130 9999 FEW020 SCT250 13/10
                        Q1020 NOSIG=
200903161930 METAR LMML NIL=
200903161915 METAR LMML 161915Z 09008KT 060V130 9999 FEW020 SCT250 13/11
                        Q1020 NOSIG=
200903161900 METAR LMML NIL=
200903161845 METAR LMML 161845Z 09007KT 060V120 9999 FEW019 SCT250 13/11
                        Q1020 NOSIG=
200903161830 METAR LMML NIL=
200903161815 METAR LMML 161815Z 10009KT 9999 FEW019 SCT250 13/11 Q1020
                        NOSIG=
200903161800 METAR LMML NIL=
200903161745 METAR LMML 161745Z 10007KT 9999 SCT015 BKN250 14/11 Q1019
                        NOSIG=
200903161730 METAR LMML NIL=
200903161715 METAR LMML 161715Z 10007KT 060V130 9999 SCT017 BKN250 14/11
                        Q1019 NOSIG=
200903161700 METAR LMML NIL=
200903161645 METAR LMML 161645Z 09009KT 060V120 9999 FEW016 BKN250 14/11
                        Q1019 NOSIG=
200903161630 LMML NIL=
200903161615 LMML 161615Z 10010KT 060V140 9999 SCT017 BKN250 14/11 Q1019
                        NOSIG=
200903161600 METAR LMML NIL=
200903161545 METAR LMML 161545Z 09011KT 060V120 9999 SCT017 BKN250 15/11
                        Q1019 NOSIG=
200903161530 METAR LMML NIL=
200903161515 METAR LMML 161515Z 10010KT 070V140 9999 FEW013 BKN250 15/11
                        Q1019 NOSIG=
200903161500 METAR LMML NIL=
200903161445 METAR LMML 161445Z 10009KT 060V140 9999 FEW018 BKN250 16/12
                        Q1018 NOSIG=
200903161430 METAR LMML NIL=
200903161415 METAR LMML 161415Z 12011KT 080V160 9999 FEW019 BKN250 16/12
                        Q1018 NOSIG=
200903161400 METAR LMML NIL=
200903161345 METAR LMML 161345Z 13010KT 090V150 9999 SCT020 BKN250 16/12
                        Q1018 NOSIG=
200903161330 METAR LMML NIL=
200903161315 METAR LMML 161315Z 13010KT 100V160 9999 FEW020 BKN250 16/11
                        Q1019 NOSIG=
200903161300 METAR LMML NIL=
200903161245 METAR LMML 161245Z 12009KT 090V150 9999 FEW018 SCT250 16/12
                        Q1019 NOSIG=
200903161230 METAR LMML NIL=
200903161215 METAR LMML 161215Z 12008KT 080V150 9999 FEW018 SCT250 16/11
                        Q1019 NOSIG=
200903161200 METAR LMML NIL=
200903161145 METAR LMML 161145Z 11007KT 050V140 9999 SCT018 BKN250 16/11
                        Q1019 NOSIG=
200903161130 METAR LMML NIL=
200903161115 METAR LMML 161115Z 14008KT 110V180 9999 SCT015 BKN250 16/11
                        Q1019 NOSIG=
200903161100 LMML NIL=
200903161045 METAR LMML 161045Z 15008KT 100V190 9999 BKN015 SCT250 16/11
                        Q1019 NOSIG=
200903161030 METAR LMML NIL=
200903161015 METAR LMML 161015Z 14008KT 110V190 9999 BKN015 SCT250 16/12
                        Q1019 NOSIG=
200903161000 METAR LMML NIL=
200903160945 METAR LMML 160945Z 15009KT 120V200 9999 BKN014 16/12 Q1019
                        NOSIG=
200903160930 METAR LMML NIL=
200903160915 METAR LMML 160915Z 16007KT 120V200 9999 BKN014 15/12 Q1019
                        NOSIG=
200903160900 METAR LMML NIL=
200903160845 METAR LMML 160845Z 16006KT 110V230 9999 SCT014 15/12 Q1019
                        NOSIG=
200903160830 METAR LMML NIL=
200903160815 METAR LMML 160815Z 16008KT 120V200 9999 FEW013 15/12 Q1019
                        NOSIG=
200903160800 METAR LMML NIL=
200903160745 METAR LMML 160745Z 16007KT 120V190 9999 SCT014 14/12 Q1019
                        NOSIG=
200903160730 METAR LMML NIL=
200903160715 METAR LMML 160715Z 16007KT 130V190 9999 FEW013 14/13 Q1019
                        NOSIG=
200903160700 METAR LMML NIL=
200903160645 METAR LMML 160645Z 16004KT 120V190 9999 FEW013 13/12 Q1019
                        NOSIG=
200903160630 METAR LMML NIL=
200903160615 METAR LMML 160615Z VRB03KT 9999 FEW012 12/12 Q1019 NOSIG=
200903160600 METAR LMML NIL=
200903160545 METAR LMML 160545Z VRB03KT 9999 FEW012 11/10 Q1018 NOSIG=
200903160530 METAR LMML NIL=
200903160515 METAR LMML 160515Z 15004KT 9999 SCT016 10/10 Q1018 NOSIG=
200903160500 METAR LMML NIL=
200903160445 METAR LMML 160445Z VRB02KT 9999 FEW015 09/08 Q1018 NOSIG=
200903160430 METAR LMML NIL=
200903160415 METAR LMML 160415Z 00000KT 9999 FEW016 09/08 Q1018 NOSIG=
200903160400 METAR LMML NIL=
200903160345 METAR LMML 160345Z VRB03KT 9999 FEW015 10/09 Q1018 NOSIG=
200903160330 METAR LMML NIL=
200903160315 METAR LMML 160315Z VRB01KT 9999 FEW015 10/09 Q1018 NOSIG=
200903160300 METAR LMML NIL=
200903160245 METAR LMML 160245Z VRB01KT 9999 FEW014 10/09 Q1018 NOSIG=
200903160230 METAR LMML NIL=
200903160215 METAR LMML 160215Z VRB01KT 9999 FEW014 10/09 Q1018 NOSIG=
200903160200 METAR LMML NIL=
200903160145 METAR LMML 160145Z VRB02KT 9999 FEW014 10/09 Q1019 NOSIG=
200903160130 METAR LMML NIL=
200903160115 METAR LMML 160115Z VRB01KT 9999 FEW015 11/10 Q1019 NOSIG=
200903160100 METAR LMML NIL=
200903160045 METAR LMML 160045Z VRB02KT 9999 SCT015 11/10 Q1019 NOSIG=
200903160030 METAR LMML NIL=
200903160015 METAR LMML 160015Z VRB03KT 9999 SCT015 11/09 Q1019 NOSIG=
200903160000 METAR LMML NIL=
200903152345 METAR LMML 152345Z VRB02KT 9999 FEW014 11/10 Q1019 NOSIG=
200903152330 METAR LMML NIL=
200903152315 METAR LMML 152315Z VRB02KT 9999 FEW012 11/10 Q1019 NOSIG=
200903152300 METAR LMML NIL=
200903152245 METAR LMML 152245Z 16004KT 9999 FEW012 12/11 Q1019 NOSIG=
200903152230 METAR LMML NIL=
200903152215 METAR LMML 152215Z 16004KT 9999 FEW012 12/11 Q1020 NOSIG=
200903152200 METAR LMML NIL=
200903152145 METAR LMML 152145Z 17004KT 9999 FEW012 12/11 Q1020 NOSIG=
200903152130 METAR LMML NIL=
200903152115 METAR LMML 152115Z VRB02KT 9999 FEW015 11/10 Q1020 NOSIG=
200903152100 METAR LMML NIL=
200903152045 METAR LMML 152045Z VRB02KT 9999 FEW015 12/10 Q1020 NOSIG=
200903152030 METAR LMML NIL=
200903152015 METAR LMML 152015Z VRB01KT 9999 FEW015 11/10 Q1020 NOSIG=
200903152000 METAR LMML NIL=
200903151945 METAR LMML 151945Z VRB01KT 9999 FEW015 12/10 Q1020 NOSIG=
200903151930 METAR LMML NIL=
200903151915 METAR LMML 151915Z VRB01KT 9999 FEW015 12/10 Q1020 NOSIG=
200903151900 METAR LMML NIL=
200903151845 METAR LMML 151845Z VRB01KT 9999 FEW015 13/10 Q1020 NOSIG=
200903151830 METAR LMML NIL=
200903151815 METAR LMML 151815Z VRB01KT 9999 FEW015 13/10 Q1020 NOSIG=
200903151800 METAR LMML NIL=
200903151745 METAR LMML 151745Z VRB03KT 9999 FEW016 13/10 Q1020 NOSIG=
200903151730 METAR LMML NIL=
200903151715 METAR LMML 151715Z VRB03KT 9999 FEW018 14/10 Q1020 NOSIG=
200903151700 METAR LMML NIL=
200903151645 METAR LMML 151645Z VRB03KT 9999 FEW018 14/10 Q1020 NOSIG=
200903151630 METAR LMML NIL=
200903151615 METAR LMML 151615Z 17004KT 140V210 9999 FEW018 14/10 Q1020
                        NOSIG=
200903151600 METAR LMML NIL=
200903151545 METAR LMML 151545Z 18004KT 150V210 9999 FEW018 15/10 Q1020
                        NOSIG=
200903151530 METAR LMML NIL=
200903151515 METAR LMML 151515Z 20004KT 140V270 9999 SCT018 16/11 Q1020
                        NOSIG=
200903151500 METAR LMML NIL=
200903151445 METAR LMML 151445Z 19004KT 130V270 9999 SCT017 16/11 Q1021
                        NOSIG=
200903151430 METAR LMML NIL=
200903151415 METAR LMML 151415Z 18006KT 130V230 9999 FEW017 16/11 Q1021
                        NOSIG=
200903151400 METAR LMML NIL=
200903151345 METAR LMML 151345Z 17006KT 140V220 9999 FEW019 16/10 Q1021
                        NOSIG=
200903151330 METAR LMML NIL=
200903151315 METAR LMML 151315Z 18005KT 120V240 9999 FEW018 16/11 Q1021
                        NOSIG=
200903151300 METAR LMML NIL=
200903151245 METAR LMML 151245Z 17005KT 130V230 9999 FEW019 16/11 Q1021
                        NOSIG=
200903151230 METAR LMML NIL=
200903151215 LMML 151215Z 18005KT 9999 SCT019 16/10 Q1021 NOSIG=
200903151200 METAR LMML NIL=
200903151145 METAR LMML 151145Z 17005KT 100V240 9999 SCT022 15/11 Q1022
                        NOSIG=
200903151130 METAR LMML NIL=
200903151115 METAR LMML 151115Z 17006KT 130V210 9999 SCT020 15/10 Q1022
                        NOSIG=
200903151100 METAR LMML NIL=
200903151045 METAR LMML 151045Z 17007KT 100V210 9999 BKN019 16/11 Q1022
                        NOSIG=
200903151030 METAR LMML NIL=
200903151015 METAR LMML 151015Z 17007KT 140V200 9999 BKN021 15/10 Q1023
                        NOSIG=
200903151000 METAR LMML NIL=
200903150945 METAR LMML 150945Z 16006KT 120V200 9999 SCT021 15/10 Q1023
                        NOSIG=
200903150930 METAR LMML NIL=
200903150915 METAR LMML 150915Z 17006KT 140V200 9999 BKN021 15/10 Q1023
                        NOSIG=
200903150900 METAR LMML NIL=
200903150845 METAR LMML 150845Z 15005KT 100V190 9999 SCT019 15/11 Q1023
                        NOSIG=
200903150830 METAR LMML NIL=
200903150815 METAR LMML 150815Z 15005KT 120V190 9999 SCT019 14/10 Q1023
                        NOSIG=
200903150800 METAR LMML NIL=
200903150745 METAR LMML 150745Z 17004KT 120V200 9999 BKN019 13/11 Q1023
                        NOSIG=
200903150730 METAR LMML NIL=
200903150715 METAR LMML 150715Z VRB02KT 9999 BKN019 12/12 Q1022 NOSIG=
200903150700 METAR LMML NIL=
200903150645 METAR LMML 150645Z VRB01KT 9999 SCT017 12/11 Q1022 NOSIG=
200903150630 METAR LMML NIL=
200903150615 METAR LMML 150615Z VRB01KT 9999 SCT017 10/09 Q1022 NOSIG=
200903150600 METAR LMML NIL=
200903150545 METAR LMML 150545Z VRB02KT 9000 SCT017 09/09 Q1022 NOSIG=
200903150530 METAR LMML NIL=
200903150515 METAR LMML 150515Z VRB01KT 9999 SCT016 09/09 Q1022 TEMPO
                        BKN015=
200903150500 METAR LMML NIL=
200903150445 METAR LMML 150445Z VRB01KT 9999 SCT017 10/09 Q1022 TEMPO
                        BKN015=
200903150430 METAR LMML NIL=
200903150415 METAR LMML 150415Z VRB01KT 9999 BKN015 09/09 Q1022 TEMPO
                        SCT015=
200903150400 METAR LMML NIL=
200903150345 METAR LMML 150345Z VRB02KT 9999 SCT013 09/09 Q1022 TEMPO
                        BKN012=
200903150330 METAR LMML NIL=
200903150315 METAR LMML 150315Z VRB01KT 9999 FEW014 10/08 Q1022 TEMPO
                        BKN014=
200903150300 METAR LMML NIL=
200903150245 METAR LMML 150245Z VRB01KT 9999 SCT015 10/08 Q1022 TEMPO
                        BKN015=
200903150230 METAR LMML NIL=
200903150215 METAR LMML 150215Z VRB01KT 9999 SCT015 10/08 Q1022 TEMPO
                        BKN015=
200903150200 METAR LMML NIL=
200903150145 METAR LMML 150145Z VRB03KT 9999 SCT016 11/10 Q1022 TEMPO
                        BKN015=
200903150130 METAR LMML NIL=
200903150115 METAR LMML 150115Z VRB03KT 9999 SCT016 11/09 Q1022 TEMPO
                        BKN015=
200903150100 METAR LMML NIL=
200903150045 METAR LMML 150045Z VRB02KT 9999 SCT016 11/09 Q1022 TEMPO
                        BKN015=
200903150030 METAR LMML NIL=
200903150015 METAR LMML 150015Z VRB03KT 9999 SCT016 11/10 Q1022 NOSIG=
200903150000 METAR LMML NIL=
200903142345 METAR LMML 142345Z VRB02KT 9999 BKN019 11/10 Q1022 NOSIG=
200903142330 METAR LMML NIL=
200903142315 METAR LMML 142315Z VRB02KT 9999 BKN019 11/10 Q1022 NOSIG=
200903142300 METAR LMML NIL=
200903142245 METAR LMML 142245Z VRB01KT 9999 BKN017 10/09 Q1022 TEMPO
                        BKN015=
200903142230 METAR LMML NIL=
200903142215 METAR LMML 142215Z VRB01KT 9999 SCT016 11/09 Q1022 TEMPO
                        BKN015=
200903142200 METAR LMML NIL=
200903142145 METAR LMML 142145Z VRB01KT 9999 SCT016 11/09 Q1022 NOSIG=
200903142130 METAR LMML NIL=
200903142115 METAR LMML 142115Z VRB02KT 9999 FEW000 11/10 Q1022 NOSIG=
200903142100 METAR LMML NIL=
200903142045 METAR LMML 142045Z VRB03KT 9999 FEW020 12/10 Q1022 NOSIG=
200903142030 METAR LMML NIL=
200903142015 METAR LMML 142015Z VRB02KT 9999 FEW020 12/10 Q1022 NOSIG=
200903142000 METAR LMML NIL=
200903141945 METAR LMML 141945Z VRB02KT 9999 FEW020 12/10 Q1022 NOSIG=
200903141930 METAR LMML NIL=
200903141915 METAR LMML 141915Z VRB03KT 9999 FEW020 13/10 Q1022 NOSIG=
200903141900 METAR LMML NIL=
200903141845 METAR LMML 141845Z VRB03KT 9999 BKN020 13/10 Q1021 NOSIG=
200903141830 METAR LMML NIL=
200903141815 METAR LMML 141815Z 14004KT 9999 BKN020 13/10 Q1021 NOSIG=
200903141800 METAR LMML NIL=
200903141745 METAR LMML 141745Z 14004KT 110V170 9999 BKN017 13/11 Q1021
                        NOSIG=
200903141730 METAR LMML NIL=
200903141715 METAR LMML 141715Z 15004KT 120V180 9999 BKN017 13/11 Q1021
                        NOSIG=
200903141700 METAR LMML NIL=
200903141645 METAR LMML 141645Z 15004KT 120V180 9999 SCT022 14/11 Q1021
                        NOSIG=
200903141630 METAR LMML NIL=
200903141615 METAR LMML 141615Z 16005KT 130V200 9999 SCT021 14/11 Q1021
                        NOSIG=
200903141600 METAR LMML NIL=
200903141545 METAR LMML 141545Z 18004KT 120V250 9999 SCT017 15/11 Q1020
                        NOSIG=
200903141530 METAR LMML NIL=
200903141515 METAR LMML 141515Z VRB03KT 9999 SCT023 16/11 Q1020 NOSIG=
200903141500 METAR LMML NIL=
200903141445 METAR LMML 141445Z 35006KT 320V050 9999 FEW020 17/12 Q1020
                        NOSIG=
200903141430 METAR LMML NIL=
200903141415 METAR LMML 141415Z 01004KT 340V040 9999 FEW022 17/12 Q1020
                        NOSIG=
200903141400 METAR LMML NIL=
200903141345 METAR LMML 141345Z 01006KT 340V050 9999 FEW022 17/12 Q1020
                        NOSIG=
200903141330 METAR LMML NIL=
200903141315 METAR LMML 141315Z 27004KT 170V020 9999 FEW023 16/11 Q1020
                        NOSIG=
200903141245 METAR LMML 141245Z 24005KT 190V280 9999 SCT023 16/12 Q1020
                        NOSIG=
200903141230 METAR LMML NIL=
200903141215 METAR LMML 141215Z 21004KT 150V280 9999 FEW023 17/11 Q1021
                        NOSIG=
200903141200 METAR LMML NIL=
200903141145 METAR LMML 141145Z 23004KT 160V290 9999 FEW024 17/11 Q1021
                        NOSIG=
200903141130 METAR LMML NIL=
200903141115 METAR LMML 141115Z 21005KT 140V290 9999 SCT026 16/11 Q1022
                        NOSIG=
200903141100 METAR LMML NIL=
200903141045 METAR LMML 141045Z 21006KT 150V270 9999 SCT024 16/11 Q1022
                        NOSIG=
200903141030 METAR LMML NIL=
200903141015 METAR LMML 141015Z 22004KT 130V070 9999 SCT027 16/11 Q1022
                        NOSIG=
200903141000 METAR LMML NIL=
200903140945 METAR LMML 140945Z VRB02KT 9999 SCT022 16/11 Q1022 NOSIG=
200903140930 METAR LMML NIL=
200903140915 METAR LMML 140915Z VRB03KT 9999 SCT021 16/11 Q1022 NOSIG=
200903140900 METAR LMML NIL=
200903140845 METAR LMML 140845Z VRB03KT 9999 SCT019 15/11 Q1022 NOSIG=
200903140830 METAR LMML NIL=
200903140815 METAR LMML 140815Z 30006KT 270V350 9999 SCT018 14/11 Q1022
                        NOSIG=
200903140800 METAR LMML NIL=
200903140745 METAR LMML 140745Z 32005KT 270V360 9999 SCT018 14/11 Q1022
                        NOSIG=
200903140730 METAR LMML NIL=
200903140715 METAR LMML 140715Z VRB02KT 9999 FEW020 13/11 Q1021 NOSIG=
200903140700 METAR LMML NIL=
200903140645 METAR LMML 140645Z VRB02KT 9999 FEW020 13/11 Q1021 NOSIG=
200903140630 METAR LMML NIL=
200903140615 METAR LMML 140615Z VRB03KT 9999 FEW020 11/09 Q1021 NOSIG=
200903140600 METAR LMML NIL=
200903140545 METAR LMML 140545Z 27006KT 9999 FEW020 11/09 Q1021 NOSIG=
200903140530 METAR LMML NIL=
200903140515 METAR LMML 140515Z VRB03KT 9999 FEW020 10/08 Q1021 NOSIG=
200903140500 METAR LMML NIL=
200903140445 METAR LMML 140445Z 28006KT 250V310 9999 FEW030 11/09 Q1021
                        NOSIG=
200903140415 METAR LMML 140415Z 28005KT CAVOK 11/09 Q1021 NOSIG=
200903140400 LMML NIL=
200903140345 METAR LMML 140345Z 26007KT CAVOK 11/08 Q1020 NOSIG=
200903140330 METAR LMML NIL=
200903140315 METAR LMML 140315Z 25006KT CAVOK 10/08 Q1020 NOSIG=
200903140300 METAR LMML NIL=
200903140245 METAR LMML 140245Z 25007KT 220V280 CAVOK 11/09 Q1020 NOSIG=
200903140230 METAR LMML NIL=
200903140215 METAR LMML 140215Z 26007KT CAVOK 11/09 Q1020 NOSIG=
200903140200 METAR LMML NIL=
200903140145 METAR LMML 140145Z 26009KT 230V290 CAVOK 11/08 Q1021 NOSIG=
200903140130 METAR LMML NIL=
200903140115 METAR LMML 140115Z 26008KT CAVOK 11/08 Q1021 NOSIG=
200903140100 METAR LMML NIL=
200903140045 METAR LMML 140045Z 26009KT 230V290 CAVOK 11/08 Q1021 NOSIG=
200903140030 METAR LMML NIL=
200903140015 METAR LMML 140015Z 26010KT 230V290 CAVOK 11/08 Q1021 NOSIG=
200903140000 METAR LMML NIL=
200903132345 METAR LMML 132345Z 26008KT 230V290 CAVOK 11/08 Q1022 NOSIG=
200903132330 METAR LMML NIL=
200903132315 METAR LMML 132315Z 26007KT 230V300 CAVOK 11/08 Q1022 NOSIG=
200903132300 METAR LMML NIL=
200903132245 METAR LMML 132245Z 25005KT 210V310 CAVOK 11/08 Q1022 NOSIG=
200903132230 METAR LMML NIL=
200903132215 METAR LMML 132215Z 24006KT 210V270 CAVOK 10/08 Q1022 NOSIG=
200903132200 METAR LMML NIL=
200903132145 METAR LMML 132145Z 25006KT CAVOK 10/07 Q1022 NOSIG=
200903132130 METAR LMML NIL=
200903132115 METAR LMML 132115Z 25005KT CAVOK 10/07 Q1022 NOSIG=
200903132100 METAR LMML NIL=
200903132045 METAR LMML 132045Z 27006KT CAVOK 10/07 Q1022 NOSIG=
200903132030 METAR LMML NIL=
200903132015 METAR LMML 132015Z 26005KT 230V300 CAVOK 10/07 Q1022 NOSIG=
200903132000 METAR LMML NIL=
200903131945 METAR LMML 131945Z 26005KT 220V290 CAVOK 10/07 Q1022 NOSIG=
200903131930 METAR LMML NIL=
200903131915 METAR LMML 131915Z 27006KT 240V300 CAVOK 11/07 Q1022 NOSIG=
200903131900 METAR LMML NIL=
200903131845 METAR LMML 131845Z 28005KT CAVOK 11/07 Q1022 NOSIG=
200903131830 METAR LMML NIL=
200903131815 METAR LMML 131815Z 27007KT 240V300 CAVOK 11/06 Q1022 NOSIG=
200903131800 METAR LMML NIL=
200903131745 METAR LMML 131745Z 28007KT 250V310 9999 FEW020 11/06 Q1022
                        NOSIG=
200903131715 METAR LMML 131715Z 28009KT 240V300 9999 FEW020 12/06 Q1022
                        NOSIG=
200903131645 METAR LMML 131645Z 28007KT 240V320 CAVOK 12/06 Q1022 NOSIG=
200903131615 METAR LMML 131615Z 28009KT 230V310 CAVOK 13/05 Q1022 NOSIG=
200903131600 METAR LMML NIL=
200903131545 METAR LMML 131545Z 27009KT 220V300 CAVOK 13/05 Q1022 NOSIG=
200903131530 METAR LMML NIL=
200903131515 METAR LMML 131515Z 27008KT 220V300 CAVOK 14/05 Q1022 NOSIG=
200903131500 METAR LMML NIL=
200903131445 METAR LMML 131445Z 28007KT 250V320 CAVOK 14/02 Q1022 NOSIG=
200903131430 METAR LMML NIL=
200903131415 METAR LMML 131415Z 28007KT 240V330 CAVOK 15/00 Q1022 NOSIG=
200903131400 METAR LMML NIL=
200903131345 METAR LMML 131345Z 31006KT 280V360 CAVOK 14/02 Q1022 NOSIG=
200903131330 METAR LMML NIL=
200903131315 METAR LMML 131315Z 30007KT 260V340 9999 FEW030 14/04 Q1023
                        NOSIG=
200903131300 METAR LMML NIL=
200903131245 METAR LMML 131245Z 28006KT 230V310 9999 FEW030 15/04 Q1023
                        NOSIG=
200903131230 METAR LMML NIL=
200903131215 METAR LMML 131215Z 29008KT 240V330 9999 FEW030 15/04 Q1023
                        NOSIG=
200903131200 METAR LMML NIL=
200903131145 METAR LMML 131145Z 29008KT 240V330 9999 FEW030 14/05 Q1024
                        NOSIG=
200903131130 METAR LMML NIL=
200903131115 LMML 131115Z 29007KT 250V340 9999 FEW030 14/05 Q1024 NOSIG=
200903131100 METAR LMML NIL=
200903131045 METAR LMML 131045Z 34005KT 270V020 9999 FEW030 SCT250 15/05
                        Q1024 NOSIG=
200903131030 METAR LMML NIL=
200903131015 METAR LMML 131015Z 35006KT 320V040 CAVOK 14/05 Q1024 NOSIG=
200903131000 METAR LMML NIL=
200903130945 METAR LMML 130945Z 35005KT 290V040 9999 FEW030 SCT250 14/04
                        Q1024 NOSIG=
200903130930 METAR LMML NIL=
200903130915 METAR LMML 130915Z 30004KT 240V040 9999 FEW030 BKN250 14/04
                        Q1024 NOSIG=
200903130900 METAR LMML NIL=
200903130845 METAR LMML 130845Z 32005KT 9999 FEW030 BKN250 13/04 Q1024
                        NOSIG=
200903130830 METAR LMML NIL=
200903130815 METAR LMML 130815Z 31006KT 9999 FEW030 BKN250 13/04 Q1024
                        NOSIG=
200903130800 METAR LMML NIL=
200903130745 METAR LMML 130745Z 32005KT 290V010 9999 FEW020 BKN250 12/05
                        Q1024 NOSIG=
200903130730 METAR LMML NIL=
200903130715 METAR LMML 130715Z 31004KT 9999 FEW020 BKN250 11/06 Q1024
                        NOSIG=
200903130700 METAR LMML NIL=
200903130645 METAR LMML 130645Z 29004KT 9999 FEW020 BKN250 09/05 Q1023
                        NOSIG=
200903130630 METAR LMML NIL=
200903130615 METAR LMML 130615Z VRB03KT 9999 FEW020 BKN250 08/04 Q1023
                        NOSIG=
200903130600 METAR LMML NIL=
200903130545 METAR LMML 130545Z VRB02KT 9999 FEW020 BKN250 08/04 Q1023
                        NOSIG=
200903130530 METAR LMML NIL=
200903130515 METAR LMML 130515Z VRB01KT 9999 FEW020 SCT250 07/03 Q1023
                        NOSIG=
200903130500 METAR LMML NIL=
200903130445 METAR LMML 130445Z VRB03KT 9999 FEW020 SCT250 07/04 Q1023
                        NOSIG=
200903130430 METAR LMML NIL=
200903130415 METAR LMML 130415Z VRB03KT CAVOK 08/04 Q1023 NOSIG=
200903130400 METAR LMML NIL=
200903130345 METAR LMML 130345Z VRB03KT CAVOK 07/03 Q1023 NOSIG=
200903130330 METAR LMML NIL=
200903130315 METAR LMML 130315Z 32005KT CAVOK 08/03 Q1022 NOSIG=
200903130300 METAR LMML NIL=
200903130245 METAR LMML 130245Z 29006KT 260V320 9999 FEW020 08/04 Q1023
                        NOSIG=
200903130230 METAR LMML NIL=
200903130215 METAR LMML 130215Z 27004KT 200V330 CAVOK 08/04 Q1023 NOSIG=
200903130200 METAR LMML NIL=
200903130145 METAR LMML 130145Z 30006KT CAVOK 08/03 Q1023 NOSIG=
200903130130 METAR LMML NIL=
200903130115 METAR LMML 130115Z VRB03KT CAVOK 08/03 Q1023 NOSIG=
200903130100 METAR LMML NIL=
200903130045 METAR LMML 130045Z 31004KT 9999 FEW026 09/03 Q1023 NOSIG=
200903130030 METAR LMML NIL=
200903130015 METAR LMML 130015Z 34005KT 9999 FEW026 09/03 Q1023 NOSIG=
200903130000 METAR LMML NIL=
200903122345 METAR LMML 122345Z 35005KT 320V030 9999 FEW023 10/04 Q1023
                        NOSIG=
200903122330 METAR LMML NIL=
200903122315 METAR LMML 122315Z 35006KT 9999 FEW026 10/04 Q1023 NOSIG=
200903122300 METAR LMML NIL=
200903122245 METAR LMML 122245Z 32004KT 290V360 9999 SCT030 10/07 Q1023
                        NOSIG=
200903122230 METAR LMML NIL=
200903122215 METAR LMML 122215Z VRB03KT 9999 SCT036 09/08 Q1022 NOSIG=
200903122200 METAR LMML NIL=
200903122145 METAR LMML 122145Z VRB02KT 9999 FEW033 09/07 Q1022 NOSIG=
200903122130 LMML NIL=
200903122115 METAR LMML 122115Z VRB02KT 9999 FEW045 10/07 Q1022 NOSIG=
200903122100 METAR LMML NIL=
200903122045 METAR LMML 122045Z VRB01KT 9999 FEW040 10/07 Q1022 NOSIG=
200903122030 METAR LMML NIL=
200903122015 METAR LMML 122015Z 00000KT 9999 FEW044 11/08 Q1021 NOSIG=
200903122000 METAR LMML NIL=
200903121945 METAR LMML 121945Z VRB02KT 9999 FEW041 11/08 Q1021 NOSIG=
200903121930 METAR LMML NIL=
200903121915 METAR LMML 121915Z VRB03KT 9999 FEW030 11/08 Q1021 NOSIG=
200903121845 METAR LMML 121845Z VRB03KT 9999 FEW030 12/08 Q1020 NOSIG=
200903121830 METAR LMML NIL=
200903121815 METAR LMML 121815Z 07005KT 030V110 9999 FEW030 12/08 Q1020
                        NOSIG=
200903121800 METAR LMML NIL=
200903121745 METAR LMML 121745Z 02007KT 340V070 9999 FEW030 13/08 Q1019
                        NOSIG=
200903121730 METAR LMML NIL=
200903121715 METAR LMML 121715Z 32009KT 9999 FEW030 13/06 Q1019 NOSIG=
200903121700 METAR LMML NIL=
200903121645 METAR LMML 121645Z 32012KT 9999 FEW030 13/06 Q1019 NOSIG=
200903121630 METAR LMML NIL=
200903121615 METAR LMML 121615Z 31012KT 290V350 9999 FEW030 14/07 Q1018
                        NOSIG=
200903121600 METAR LMML NIL=
200903121545 METAR LMML 121545Z 32013KT 9999 FEW030 15/07 Q1018 NOSIG=
200903121530 METAR LMML NIL=
200903121515 METAR LMML 121515Z 32017KT 9999 FEW035 15/05 Q1018 NOSIG=
200903121500 METAR LMML NIL=
200903121445 METAR LMML 121445Z 33017KT 9999 FEW038 16/06 Q1017 NOSIG=
200903121430 METAR LMML NIL=
200903121415 METAR LMML 121415Z 32016KT 300V360 9999 FEW038 16/05 Q1017
                        NOSIG=
200903121400 METAR LMML NIL=
200903121345 METAR LMML 121345Z 33015KT 9999 FEW038 16/05 Q1017 NOSIG=
200903121330 METAR LMML NIL=
200903121315 METAR LMML 121315Z 31015KT 9999 FEW038 16/07 Q1017 NOSIG=
200903121300 METAR LMML NIL=
200903121245 METAR LMML 121245Z 31015KT 280V350 9999 FEW031 16/08 Q1017
                        NOSIG=
200903121230 METAR LMML NIL=
200903121215 METAR LMML 121215Z 32015KT 290V350 9999 FEW030 15/08 Q1017
                        NOSIG=
200903121200 METAR LMML NIL=
200903121145 METAR LMML 121145Z 31014KT 280V350 9999 FEW030 16/08 Q1018
                        NOSIG=
200903121130 METAR LMML NIL=
200903121115 METAR LMML 121115Z 33016KT 9999 SCT029 15/08 Q1018 NOSIG=
200903121100 METAR LMML NIL=
200903121045 METAR LMML 121045Z 32015KT 290V360 9999 FEW027 15/09 Q1018
                        NOSIG=
200903121030 METAR LMML NIL=
200903121015 METAR LMML 121015Z 32015KT 290V350 9999 FEW028 15/09 Q1018
                        NOSIG=
200903121000 METAR LMML NIL=
200903120945 METAR LMML 120945Z 31017KT 280V340 9999 FEW028 15/09 Q1017
                        NOSIG=
200903120930 METAR LMML NIL=
200903120915 METAR LMML 120915Z 31017KT 270V330 9999 FEW025 SCT250 15/09
                        Q1017 NOSIG=
200903120900 METAR LMML NIL=
200903120845 METAR LMML 120845Z 32017KT 9999 FEW023 SCT250 14/09 Q1017
                        NOSIG=
200903120830 METAR LMML NIL=
200903120815 METAR LMML 120815Z 32015KT 9999 FEW018 BKN250 14/09 Q1017
                        NOSIG=
200903120800 METAR LMML NIL=
200903120745 METAR LMML 120745Z 31013KT 9999 FEW018 BKN250 14/09 Q1017
                        NOSIG=
200903120730 METAR LMML NIL=
200903120715 METAR LMML 120715Z 32014KT 9999 FEW018 BKN250 13/09 Q1016
                        NOSIG=
200903120700 METAR LMML NIL=
200903120645 METAR LMML 120645Z 31010KT 9999 FEW018 BKN250 13/10 Q1016
                        NOSIG=
200903120630 METAR LMML NIL=
200903120615 METAR LMML 120615Z 31010KT 9999 FEW019 BKN250 12/09 Q1016
                        NOSIG=
200903120600 METAR LMML NIL=
200903120545 METAR LMML 120545Z 31010KT 9999 SCT017 BKN250 12/09 Q1016
                        NOSIG=
200903120530 METAR LMML NIL=
200903120515 METAR LMML 120515Z 30010KT 9999 -SHRA SCT019 BKN250 12/09
                        Q1015 NOSIG=
200903120500 METAR LMML NIL=
200903120445 METAR LMML 120445Z 30010KT 280V340 9999 SCT025 BKN250 12/09
                        Q1015 NOSIG=
200903120430 METAR LMML NIL=
200903120415 METAR LMML 120415Z 30010KT 9999 SCT022 BKN250 12/09 Q1015
                        NOSIG=
200903120400 METAR LMML NIL=
200903120345 METAR LMML 120345Z 30008KT 9999 SCT022 BKN250 12/09 Q1015
                        NOSIG=
200903120330 METAR LMML NIL=
200903120315 METAR LMML 120315Z 30011KT 9999 SCT020 BKN250 12/09 Q1016
                        NOSIG=
200903120300 METAR LMML NIL=
200903120245 METAR LMML 120245Z 30011KT 250V330 9999 SCT020 BKN250 12/09
                        Q1016 NOSIG=
200903120230 METAR LMML NIL=
200903120215 METAR LMML 120215Z 30011KT 9999 SCT035 BKN250 12/09 Q1016
                        NOSIG=
200903120200 METAR LMML NIL=
200903120145 METAR LMML 120145Z 30010KT 260V320 9999 SCT018 SCT250 12/09
                        Q1016 NOSIG=
200903120130 METAR LMML NIL=
200903120115 METAR LMML 120115Z 30010KT 9999 SCT018 SCT250 12/09 Q1016
                        NOSIG=
200903120100 METAR LMML NIL=
200903120045 METAR LMML 120045Z 31012KT 9999 SCT020 SCT250 12/09 Q1016
                        NOSIG=
200903120030 METAR LMML NIL=
200903120015 METAR LMML 120015Z 30013KT 9999 SCT019 SCT250 12/09 Q1016
                        NOSIG=
200903120000 METAR LMML NIL=
200903112345 METAR LMML 112345Z 30013KT 9999 SCT018 SCT250 12/09 Q1016
                        NOSIG=
200903112330 METAR LMML NIL=
200903112315 METAR LMML 112315Z 29013KT 260V320 9999 SCT025 SCT250 12/09
                        Q1016 NOSIG=
200903112300 METAR LMML NIL=
200903112245 METAR LMML 112245Z 29014KT 9999 FEW018 12/09 Q1016 NOSIG=
200903112230 METAR LMML NIL=
200903112215 METAR LMML 112215Z 29014KT 260V320 9999 FEW018 12/09 Q1017
                        NOSIG=
200903112200 METAR LMML NIL=
200903112145 METAR LMML 112145Z 29014KT 230V310 9999 SCT019 12/09 Q1017
                        NOSIG=
200903112130 METAR LMML NIL=
200903112115 METAR LMML 112115Z 28014KT 9999 FEW021 SCT250 12/09 Q1017
                        NOSIG=
200903112100 METAR LMML NIL=
200903112045 METAR LMML 112045Z 29016KT 9999 FEW021 SCT250 13/09 Q1017
                        NOSIG=
200903112030 METAR LMML NIL=
200903112015 METAR LMML 112015Z 28012KT 9999 FEW027 13/09 Q1017 NOSIG=
200903112000 METAR LMML NIL=
200903111945 METAR LMML 111945Z 27008KT 230V300 9999 FEW027 12/09 Q1016
                        NOSIG=
200903111930 METAR LMML NIL=
200903111915 METAR LMML 111915Z 27007KT 9999 FEW033 12/08 Q1016 NOSIG=
200903111900 METAR LMML NIL=
200903111845 METAR LMML 111845Z 27008KT 240V300 9999 FEW034 12/08 Q1016
                        NOSIG=
200903111830 METAR LMML NIL=
200903111815 METAR LMML 111815Z 27008KT 9999 FEW023 12/08 Q1016 NOSIG=
200903111800 METAR LMML NIL=
200903111745 METAR LMML 111745Z 28009KT 9999 FEW023 12/08 Q1016 NOSIG=
200903111730 METAR LMML NIL=
200903111715 METAR LMML 111715Z 29013KT 9999 FEW023 12/08 Q1016 NOSIG=
200903111700 METAR LMML NIL=
200903111645 METAR LMML 111645Z 29013KT 250V320 9999 FEW023 13/08 Q1016
                        NOSIG=
200903111630 METAR LMML NIL=
200903111615 METAR LMML 111615Z 28014KT 250V320 9999 FEW023 13/09 Q1016
                        NOSIG=
200903111600 METAR LMML NIL=
200903111545 METAR LMML 111545Z 28018KT 9999 FEW022 14/09 Q1016 NOSIG=
200903111530 METAR LMML NIL=
200903111515 METAR LMML 111515Z 28018KT 250V310 9999 FEW022 14/09 Q1016
                        NOSIG=
200903111500 METAR LMML NIL=
200903111445 METAR LMML 111445Z 28017KT 9999 SCT022 14/09 Q1016 NOSIG=
200903111430 METAR LMML NIL=
200903111415 METAR LMML 111415Z 28019KT 240V310 9999 SCT022 14/09 Q1017
                        NOSIG=
200903111400 METAR LMML NIL=
200903111345 METAR LMML 111345Z 27018KT 230V300 9999 SCT022 14/09 Q1017
                        NOSIG=
200903111330 METAR LMML NIL=
200903111315 METAR LMML 111315Z 29018KT 260V330 9999 BKN022 15/10 Q1017
                        NOSIG=
200903111300 METAR LMML NIL=
200903111245 METAR LMML 111245Z 28019KT 240V310 9999 BKN021 14/09 Q1017
                        NOSIG=
200903111230 METAR LMML NIL=
200903111215 METAR LMML 111215Z 27016KT 210V310 9999 BKN022 15/10 Q1018
                        NOSIG=
200903111200 LMML NIL=
200903111145 METAR LMML 111145Z 27016KT 230V310 9999 BKN022 15/10 Q1018
                        NOSIG=
200903111130 METAR LMML NIL=
200903111115 METAR LMML 111115Z 28016KT 240V310 9999 SCT023 14/09 Q1019
                        NOSIG=
200903111100 METAR LMML NIL=
200903111045 METAR LMML 111045Z 28016KT 9999 BKN020 14/09 Q1019 NOSIG=
200903111030 METAR LMML NIL=
200903111015 METAR LMML 111015Z 28014KT 250V310 9999 BKN021 14/09 Q1019
                        NOSIG=
200903111000 METAR LMML NIL=
200903110945 METAR LMML 110945Z 28014KT 240V310 9999 SCT023 14/09 Q1019
                        NOSIG=
200903110930 METAR LMML NIL=
200903110915 METAR LMML 110915Z 28014KT 250V330 9999 BKN023 14/09 Q1019
                        NOSIG=
200903110900 METAR LMML NIL=
200903110845 METAR LMML 110845Z 28013KT 250V310 9999 BKN024 14/09 Q1019
                        NOSIG=
200903110830 METAR LMML NIL=
200903110815 METAR LMML 110815Z 28014KT 250V310 9999 SCT024 13/09 Q1019
                        NOSIG=
200903110800 METAR LMML NIL=
200903110745 METAR LMML 110745Z 29011KT 240V320 9999 BKN022 13/09 Q1019
                        NOSIG=
200903110730 METAR LMML NIL=
200903110715 METAR LMML 110715Z 29010KT 9999 SCT024 13/09 Q1019 NOSIG=
200903110700 METAR LMML NIL=
200903110645 METAR LMML 110645Z 28007KT 240V320 9999 SCT025 12/09 Q1019
                        NOSIG=
200903110630 METAR LMML NIL=
200903110615 METAR LMML 110615Z 29007KT 9999 SCT025 11/08 Q1019 NOSIG=
200903110600 METAR LMML NIL=
200903110545 METAR LMML 110545Z 28005KT 250V310 9999 SCT024 10/07 Q1019
                        NOSIG=
200903110530 METAR LMML NIL=
200903110515 METAR LMML 110515Z 27007KT 240V300 9999 SCT025 10/08 Q1019
                        NOSIG=
200903110500 METAR LMML NIL=
200903110445 METAR LMML 110445Z 29008KT 9999 SCT024 10/07 Q1019 NOSIG=
200903110430 METAR LMML NIL=
200903110415 METAR LMML 110415Z 29008KT 9999 FEW026 10/07 Q1019 NOSIG=
200903110400 METAR LMML NIL=
200903110345 METAR LMML 110345Z 28008KT 9999 FEW026 10/08 Q1019 NOSIG=
200903110330 METAR LMML NIL=
200903110315 METAR LMML 110315Z 28008KT 9999 FEW023 10/08 Q1019 NOSIG=
200903110300 METAR LMML NIL=
200903110245 METAR LMML 110245Z 28007KT 9999 FEW021 10/07 Q1019 NOSIG=
200903110230 METAR LMML NIL=
200903110215 METAR LMML 110215Z 27006KT 9999 FEW020 09/07 Q1020 NOSIG=
200903110200 METAR LMML NIL=
200903110145 METAR LMML 110145Z VRB03KT 9999 FEW020 09/07 Q1020 NOSIG=
200903110130 METAR LMML NIL=
200903110115 METAR LMML 110115Z 27005KT 9999 FEW020 09/07 Q1020 NOSIG=
200903110100 METAR LMML NIL=
200903110045 METAR LMML 110045Z 27005KT 9999 FEW020 10/07 Q1021 NOSIG=
200903110030 METAR LMML NIL=
200903110015 METAR LMML 110015Z 27006KT 230V290 9999 FEW020 10/08 Q1021
                        NOSIG=
200903110000 METAR LMML NIL=
200903102345 METAR LMML 102345Z 26004KT 210V310 9999 FEW020 09/07 Q1021
                        NOSIG=
200903102330 METAR LMML NIL=
200903102315 METAR LMML 102315Z 27006KT 240V300 9999 FEW020 09/07 Q1021
                        NOSIG=
200903102300 METAR LMML NIL=
200903102245 METAR LMML 102245Z VRB03KT 9999 FEW020 10/07 Q1021 NOSIG=
200903102230 METAR LMML NIL=
200903102215 METAR LMML 102215Z 27004KT 9999 FEW020 10/07 Q1021 NOSIG=
200903102200 METAR LMML NIL=
200903102145 METAR LMML 102145Z VRB03KT 9999 FEW020 09/07 Q1021 NOSIG=
200903102130 METAR LMML NIL=
200903102115 METAR LMML 102115Z VRB03KT 9999 FEW020 10/08 Q1021 NOSIG=
200903102100 LMML NIL=
200903102045 LMML 102045Z 27004KT 9999 FEW020 10/08 Q1022 NOSIG=
200903102030 METAR LMML NIL=
200903102015 METAR LMML 102015Z 28004KT 9999 FEW020 10/08 Q1022 NOSIG=
200903102000 METAR LMML NIL=
200903101945 METAR LMML 101945Z VRB03KT 9999 FEW020 11/08 Q1022 NOSIG=
200903101930 METAR LMML NIL=
200903101915 METAR LMML 101915Z 28004KT 9999 FEW020 11/08 Q1021 NOSIG=
200903101900 METAR LMML NIL=
200903101845 METAR LMML 101845Z VRB03KT 9999 FEW020 BKN250 11/08 Q1021
                        NOSIG=
200903101815 METAR LMML 101815Z VRB02KT 9999 FEW020 BKN250 12/07 Q1021
                        NOSIG=
200903101800 METAR LMML NIL=
200903101745 METAR LMML 101745Z VRB02KT 9999 FEW020 BKN250 12/08 Q1021
                        NOSIG=
200903101730 METAR LMML NIL=
200903101715 METAR LMML 101715Z VRB03KT 9999 FEW020 BKN250 13/08 Q1021
                        NOSIG=
200903101700 METAR LMML NIL=
200903101645 METAR LMML 101645Z VRB02KT CAVOK 14/08 Q1021 NOSIG=
200903101630 METAR LMML NIL=
200903101615 METAR LMML 101615Z VRB03KT CAVOK 15/08 Q1020 NOSIG=
200903101600 METAR LMML NIL=
200903101545 METAR LMML 101545Z VRB03KT CAVOK 15/08 Q1020 NOSIG=
200903101530 METAR LMML NIL=
200903101515 METAR LMML 101515Z 04004KT 010V080 CAVOK 15/08 Q1020 NOSIG=
200903101500 METAR LMML NIL=
200903101445 METAR LMML 101445Z VRB03KT CAVOK 16/07 Q1020 NOSIG=
200903101430 METAR LMML NIL=
200903101415 METAR LMML 101415Z 35006KT 320V030 CAVOK 15/07 Q1020 NOSIG=
200903101400 METAR LMML NIL=
200903101345 METAR LMML 101345Z 35006KT 290V040 9999 FEW020 BKN250 16/07
                        Q1020 NOSIG=
200903101330 METAR LMML NIL=
200903101315 METAR LMML 101315Z 35008KT 310V030 9999 FEW020 BKN250 16/07
                        Q1020 NOSIG=
200903101300 METAR LMML NIL=
200903101245 METAR LMML 101245Z 36008KT 320V040 9999 FEW020 BKN250 16/08
                        Q1021 NOSIG=
200903101230 METAR LMML NIL=
200903101215 METAR LMML 101215Z 34009KT 320V020 9999 FEW020 BKN250 16/08
                        Q1021 NOSIG=
200903101200 METAR LMML NIL=
200903101145 METAR LMML 101145Z 35010KT 9999 FEW020 BKN250 16/08 Q1021
                        NOSIG=
200903101130 METAR LMML NIL=
200903101115 METAR LMML 101115Z 34010KT CAVOK 16/09 Q1021 NOSIG=
200903101100 METAR LMML NIL=
200903101045 METAR LMML 101045Z 33009KT 300V010 CAVOK 16/08 Q1022 NOSIG=
200903101030 METAR LMML NIL=
200903101015 METAR LMML 101015Z 33008KT 310V010 CAVOK 15/08 Q1021 NOSIG=
200903101000 METAR LMML NIL=
200903100945 METAR LMML 100945Z 32009KT 290V350 9999 FEW020 BKN250 15/08
                        Q1022 NOSIG=
200903100930 METAR LMML NIL=
200903100915 METAR LMML 100915Z 33009KT 290V010 9999 FEW020 BKN250 15/09
                        Q1021 NOSIG=
200903100900 METAR LMML NIL=
200903100845 METAR LMML 100845Z 32010KT 9999 FEW020 BKN250 14/10 Q1021
                        NOSIG=
200903100830 METAR LMML NIL=
200903100815 METAR LMML 100815Z 32010KT 9999 FEW020 BKN250 14/09 Q1021
                        NOSIG=
200903100800 METAR LMML NIL=
200903100745 METAR LMML 100745Z 31010KT 9999 FEW020 BKN250 14/10 Q1021
                        NOSIG=
200903100730 METAR LMML NIL=
200903100715 METAR LMML 100715Z 29006KT 250V330 CAVOK 13/10 Q1020 NOSIG=
200903100700 METAR LMML NIL=
200903100645 METAR LMML 100645Z 28006KT 250V320 9999 FEW018 13/09 Q1020
                        NOSIG=
200903100630 METAR LMML NIL=
200903100615 METAR LMML 100615Z 28008KT 9999 FEW018 BKN250 12/10 Q1019
                        NOSIG=
200903100600 METAR LMML NIL=
200903100545 METAR LMML 100545Z 31010KT 270V330 9999 FEW017 BKN250 11/09
                        Q1019 NOSIG=
200903100530 METAR LMML NIL=
200903100515 METAR LMML 100515Z 29007KT 9999 FEW017 BKN250 11/10 Q1019
                        NOSIG=
200903100445 METAR LMML 100445Z 31011KT 9999 FEW017 12/10 Q1018 NOSIG=
200903100430 METAR LMML NIL=
200903100415 METAR LMML 100415Z 30010KT 9999 FEW018 12/10 Q1018 NOSIG=
200903100400 METAR LMML NIL=
200903100345 METAR LMML 100345Z 31013KT 9999 FEW018 12/09 Q1018 NOSIG=
200903100330 METAR LMML NIL=
200903100315 METAR LMML 100315Z 30013KT 9999 FEW020 12/09 Q1018 NOSIG=
200903100300 METAR LMML NIL=
200903100245 METAR LMML 100245Z 30014KT 270V340 CAVOK 12/09 Q1018 NOSIG=
200903100230 METAR LMML NIL=
200903100215 METAR LMML 100215Z 30014KT CAVOK 12/09 Q1018 NOSIG=
200903100200 METAR LMML NIL=
200903100145 METAR LMML 100145Z 30016KT 270V330 CAVOK 12/09 Q1018 NOSIG=
200903100130 METAR LMML NIL=
200903100115 METAR LMML 100115Z 29016KT 260V320 CAVOK 12/09 Q1018 NOSIG=
200903100100 METAR LMML NIL=
200903100045 METAR LMML 100045Z 29018KT CAVOK 12/10 Q1018 NOSIG=
200903100030 METAR LMML NIL=
200903100015 METAR LMML 100015Z 29015KT 240V310 9999 FEW020 12/10 Q1019
                        NOSIG=
200903100000 METAR LMML NIL=
200903092345 METAR LMML 092345Z 29016KT 9999 FEW020 12/10 Q1018 NOSIG=
200903092330 METAR LMML NIL=
200903092315 METAR LMML 092315Z 29015KT 9999 FEW020 SCT250 12/10 Q1018
                        NOSIG=
200903092300 METAR LMML NIL=
200903092245 METAR LMML 092245Z 29016KT 9999 FEW020 SCT250 12/10 Q1019
                        NOSIG=
200903092230 METAR LMML NIL=
200903092215 METAR LMML 092215Z 29013KT 250V320 9999 FEW020 SCT250 12/09
                        Q1019 NOSIG=
200903092200 METAR LMML NIL=
200903092145 METAR LMML 092145Z 29014KT 9999 FEW021 SCT250 12/10 Q1019
                        NOSIG=
200903092130 METAR LMML NIL=
200903092115 METAR LMML 092115Z 29013KT 9999 FEW021 12/09 Q1019 NOSIG=
200903092100 METAR LMML NIL=
200903092045 METAR LMML 092045Z 28012KT 250V310 9999 FEW021 12/10 Q1018
                        NOSIG=
200903092030 METAR LMML NIL=
200903092015 METAR LMML 092015Z 28010KT 250V320 9999 FEW021 12/09 Q1018
                        NOSIG=
200903092000 METAR LMML NIL=
200903091945 METAR LMML 091945Z 28011KT 240V310 9999 SCT019 13/10 Q1018
                        NOSIG=
200903091930 METAR LMML NIL=
200903091915 METAR LMML 091915Z 28011KT 240V310 9999 SCT021 12/10 Q1018
                        NOSIG=
200903091900 METAR LMML NIL=
200903091845 METAR LMML 091845Z 28009KT 240V310 9999 SCT023 12/10 Q1018
                        NOSIG=
200903091830 METAR LMML NIL=
200903091815 METAR LMML 091815Z 28009KT 250V310 9999 FEW020 12/09 Q1018
                        NOSIG=
200903091800 METAR LMML NIL=
200903091745 METAR LMML 091745Z 28009KT 240V310 9999 FEW021 12/09 Q1017
                        NOSIG=
200903091730 METAR LMML NIL=
200903091715 METAR LMML 091715Z 29012KT 260V320 9999 SCT021 12/09 Q1017
                        NOSIG=
200903091700 METAR LMML NIL=
200903091645 METAR LMML 091645Z 28013KT 250V310 9999 SCT024 13/09 Q1017
                        NOSIG=
200903091630 METAR LMML NIL=
200903091615 METAR LMML 091615Z 27014KT 240V300 9999 BKN022 13/09 Q1017
                        NOSIG=
200903091600 METAR LMML NIL=
200903091545 METAR LMML 091545Z 27014KT 240V300 9999 SCT022 14/09 Q1017
                        NOSIG=
200903091530 METAR LMML NIL=
200903091515 METAR LMML 091515Z 27016KT 240V310 9999 SCT023 14/09 Q1017
                        NOSIG=
200903091500 METAR LMML NIL=
200903091445 METAR LMML 091445Z 28014KT 240V300 9999 BKN022 14/09 Q1017
                        NOSIG=
200903091430 METAR LMML NIL=
200903091415 METAR LMML 091415Z 27016KT 220V300 9999 BKN023 14/09 Q1017
                        NOSIG=
200903091400 METAR LMML NIL=
200903091345 METAR LMML 091345Z 28015KT 240V310 9999 BKN024 14/09 Q1018
                        NOSIG=
200903091330 METAR LMML NIL=
200903091315 METAR LMML 091315Z 28015KT 240V310 9999 BKN025 14/09 Q1018
                        NOSIG=
200903091245 METAR LMML 091245Z 28020KT 250V310 9999 BKN025 14/08 Q1018
                        NOSIG=
200903091230 METAR LMML NIL=
200903091215 METAR LMML 091215Z 27019KT 220V300 9999 BKN024 14/09 Q1018
                        NOSIG=
200903091200 METAR LMML NIL=
200903091145 METAR LMML 091145Z 27018KT 240V310 9999 BKN024 14/09 Q1019
                        NOSIG=
200903091130 METAR LMML NIL=
200903091115 METAR LMML 091115Z 27017KT 230V300 9999 SCT025 14/08 Q1019
                        NOSIG=
200903091100 METAR LMML NIL=
200903091045 METAR LMML 091045Z 27019KT 240V310 9999 SCT026 14/08 Q1019
                        NOSIG=
200903091030 METAR LMML NIL=
200903091015 METAR LMML 091015Z 28019KT 250V310 9999 SCT024 14/08 Q1019
                        NOSIG=
200903091000 METAR LMML NIL=
200903090945 METAR LMML 090945Z 28015KT 240V310 9999 BKN024 13/08 Q1019
                        NOSIG=
200903090930 METAR LMML NIL=
200903090915 METAR LMML 090915Z 28014KT 250V310 9999 SCT025 14/08 Q1019
                        NOSIG=
200903090900 METAR LMML NIL=
200903090845 METAR LMML 090845Z 28015KT 240V310 9999 SCT024 13/08 Q1019
                        NOSIG=
200903090830 METAR LMML NIL=
200903090815 METAR LMML 090815Z 29012KT 230V320 9999 SCT024 13/09 Q1019
                        NOSIG=
200903090745 METAR LMML 090745Z 29013KT 260V320 9999 SCT027 13/09 Q1018
                        NOSIG=
200903090730 METAR LMML NIL=
200903090715 METAR LMML 090715Z 29013KT 9999 BKN026 13/08 Q1018 NOSIG=
200903090700 METAR LMML NIL=
200903090645 METAR LMML 090645Z 28011KT 240V310 9999 SCT024 12/09 Q1018
                        NOSIG=
200903090630 METAR LMML NIL=
200903090615 METAR LMML 090615Z 29008KT 240V320 9999 SCT021 12/09 Q1018
                        NOSIG=
200903090600 METAR LMML NIL=
200903090545 METAR LMML 090545Z 29010KT 9999 FEW020 11/08 Q1018 NOSIG=
200903090530 METAR LMML NIL=
200903090515 METAR LMML 090515Z 29011KT 9999 FEW019 11/08 Q1017 NOSIG=
200903090500 METAR LMML NIL=
200903090445 METAR LMML 090445Z 29011KT 9999 FEW020 11/09 Q1017 NOSIG=
200903090430 METAR LMML NIL=
200903090415 METAR LMML 090415Z 28007KT 250V310 9999 SCT018 11/09 Q1017
                        NOSIG=
200903090400 METAR LMML NIL=
200903090345 METAR LMML 090345Z 28010KT 250V310 9999 SCT016 11/09 Q1017
                        NOSIG=
200903090330 METAR LMML NIL=
200903090315 METAR LMML 090315Z 28012KT 250V320 9999 FEW015 11/09 Q1017
                        NOSIG=
200903090300 METAR LMML NIL=
200903090245 METAR LMML 090245Z 27005KT 230V300 9999 FEW015 11/09 Q1016
                        NOSIG=
200903090230 METAR LMML NIL=
200903090215 METAR LMML 090215Z 27007KT 250V310 9999 FEW015 11/09 Q1017
                        NOSIG=
200903090200 METAR LMML NIL=
200903090145 METAR LMML 090145Z 28005KT 230V320 9999 FEW015 11/09 Q1016
                        NOSIG=
200903090130 METAR LMML NIL=
200903090115 METAR LMML 090115Z 29008KT 260V320 CAVOK 11/09 Q1017 NOSIG=
200903090100 METAR LMML NIL=
200903090045 METAR LMML 090045Z 28006KT 240V310 9999 FEW015 11/09 Q1017
                        NOSIG=
200903090030 METAR LMML NIL=
200903090015 METAR LMML 090015Z 30006KT CAVOK 11/09 Q1017 NOSIG=
200903090000 METAR LMML NIL=
200903082345 METAR LMML 082345Z 31008KT CAVOK 11/10 Q1017 NOSIG=
200903082330 METAR LMML NIL=
200903082315 METAR LMML 082315Z 30007KT 270V330 9999 FEW014 11/10 Q1017
                        NOSIG=
200903082245 METAR LMML 082245Z 30011KT 9999 SCT014 12/10 Q1017 NOSIG=
200903082230 METAR LMML NIL=
200903082215 METAR LMML 082215Z 31012KT 9999 SCT014 12/10 Q1016 NOSIG=
200903082200 METAR LMML NIL=
200903082145 METAR LMML 082145Z 30010KT 9999 SCT014 12/10 Q1016 NOSIG=
200903082130 METAR LMML NIL=
200903082115 METAR LMML 082115Z 29007KT 260V320 9999 SCT014 12/10 Q1016
                        NOSIG=
200903082100 METAR LMML NIL=
200903082045 METAR LMML 082045Z 31012KT 9999 SCT015 12/10 Q1016 NOSIG=
200903082030 METAR LMML NIL=
200903082015 METAR LMML 082015Z 31013KT 9999 FEW015 12/10 Q1015 NOSIG=
200903082000 METAR LMML NIL=
200903081945 METAR LMML 081945Z 30010KT 9999 SCT014 12/10 Q1015 NOSIG=
200903081930 METAR LMML NIL=
200903081915 METAR LMML 081915Z 31016KT 9999 FEW014 12/10 Q1015 NOSIG=
200903081900 METAR LMML NIL=
200903081845 METAR LMML 081845Z 30017KT 280V340 9999 SCT013 12/10 Q1015
                        NOSIG=
200903081830 METAR LMML NIL=
200903081815 METAR LMML 081815Z 30013KT 270V330 9999 FEW012 12/10 Q1015
                        NOSIG=
200903081800 METAR LMML NIL=
200903081745 METAR LMML 081745Z 30010KT 9999 FEW020 12/10 Q1014 NOSIG=
200903081730 METAR LMML NIL=
200903081715 METAR LMML 081715Z 31013KT 9999 FEW020 13/10 Q1014 NOSIG=
200903081700 METAR LMML NIL=
200903081645 METAR LMML 081645Z 30012KT 270V330 9999 FEW020 13/10 Q1013
                        NOSIG=
200903081630 METAR LMML NIL=
200903081615 METAR LMML 081615Z 30016KT 9999 FEW020 14/10 Q1013 NOSIG=
200903081600 METAR LMML NIL=
200903081545 METAR LMML 081545Z 31016KT 9999 FEW021 14/10 Q1013 NOSIG=
200903081530 METAR LMML NIL=
200903081515 METAR LMML 081515Z 30016KT 9999 FEW022 15/10 Q1012 NOSIG=
200903081500 METAR LMML NIL=
200903081445 METAR LMML 081445Z 31014KT 9999 FEW030 15/09 Q1012 NOSIG=
200903081430 METAR LMML NIL=
200903081415 METAR LMML 081415Z 32013KT 9999 FEW030 15/08 Q1012 NOSIG=
200903081400 METAR LMML NIL=
200903081345 METAR LMML 081345Z 32014KT 9999 FEW030 15/08 Q1012 NOSIG=
200903081330 METAR LMML NIL=
200903081315 METAR LMML 081315Z 30013KT 9999 FEW031 15/09 Q1011 NOSIG=
200903081300 METAR LMML NIL=
200903081245 METAR LMML 081245Z 32013KT 280V340 9999 FEW029 15/09 Q1011
                        NOSIG=
200903081230 METAR LMML NIL=
200903081215 METAR LMML 081215Z 32014KT 9999 SCT025 14/09 Q1012 NOSIG=
200903081200 METAR LMML NIL=
200903081145 METAR LMML 081145Z 32015KT 9999 FEW026 14/09 Q1011 NOSIG=
200903081130 METAR LMML NIL=
200903081115 METAR LMML 081115Z 31016KT 280V340 9999 SCT026 15/10 Q1011
                        NOSIG=
200903081100 METAR LMML NIL=
200903081045 METAR LMML 081045Z 31016KT 280V340 9999 SCT027 14/09 Q1011
                        NOSIG=
200903081030 METAR LMML NIL=
200903081015 METAR LMML 081015Z 32014KT 9999 BKN024 14/09 Q1011 TEMPO
                        7000 SHRA BKN015TCU=
200903081000 METAR LMML NIL=
200903080945 METAR LMML 080945Z 30013KT 260V330 9999 SCT022 14/10 Q1011
                        NOSIG=
200903080930 METAR LMML NIL=
200903080915 METAR LMML 080915Z 30015KT 9999 FEW025 SCT080 13/10 Q1011
                        TEMPO 7000 SHRA BKN015TCU=
200903080900 METAR LMML NIL=
200903080845 METAR LMML 080845Z 30015KT 9999 FEW024 SCT080 13/09 Q1010
                        TEMPO 7000 SHRA BKN015TCU=
200903080830 METAR LMML NIL=
200903080815 METAR LMML 080815Z 30014KT 270V340 9999 FEW025 SCT080 13/09
                        Q1010 TEMPO 7000 SHRA BKN015TCU=
200903080800 METAR LMML NIL=
200903080745 METAR LMML 080745Z 31010KT 9999 FEW025 SCT100 13/09 Q1010
                        TEMPO 7000 SHRA BKN015TCU=
200903080730 METAR LMML NIL=
200903080715 METAR LMML 080715Z 32013KT 9999 FEW025 SCT090 12/09 Q1009
                        TEMPO 7000 SHRA BKN015TCU=
200903080700 METAR LMML NIL=
200903080645 METAR LMML 080645Z 32014KT 9999 FEW020CB SCT025 BKN080 11/09
                        Q1009 RETS TEMPO 5000 TSRA BKN015CB=
200903080633 SPECI LMML 080633Z 32013KT 9999 TS BKN022CB SCT025 11/09
                        Q1008 TEMPO 5000 TSRA BKN015CB=
200903080630 METAR LMML NIL=
200903080615 METAR LMML 080615Z 31016KT 4000 -TSRA BKN022CB SCT120 11/09
                        Q1008 TEMPO 5000 TSRA BKN015CB=
200903080606 SPECI LMML 080606Z 31012G22KT 5000 -TSRA SCT022CB SCT120
                        12/09 Q1008 TEMPO 5000 TSRA BKN015CB=
200903080600 METAR LMML NIL=
200903080545 METAR LMML 080545Z 31012KT 9999 SCT020TCU 11/08 Q1008 NOSIG=
200903080530 LMML NIL=
200903080515 METAR LMML 080515Z 31012KT 9999 FEW020 SCT080 11/08 Q1007
                        NOSIG=
200903080500 METAR LMML NIL=
200903080445 METAR LMML 080445Z 31012KT 9999 FEW023 SCT090 11/09 Q1007
                        NOSIG=
200903080430 METAR LMML NIL=
200903080415 METAR LMML 080415Z 31012KT 9999 FEW020 SCT080 11/09 Q1007
                        NOSIG=
200903080400 METAR LMML NIL=
200903080345 METAR LMML 080345Z 31013KT 9999 FEW020 SCT080 11/08 Q1006
                        NOSIG=
200903080330 METAR LMML NIL=
200903080315 METAR LMML 080315Z 31016KT 9999 FEW015 SCT080 11/08 Q1006
                        NOSIG=
200903080300 METAR LMML NIL=
200903080245 METAR LMML 080245Z 31014KT 9999 FEW015 SCT080 11/08 Q1006
                        NOSIG=
200903080230 METAR LMML NIL=
200903080215 METAR LMML 080215Z 30014KT 9999 -SHRA FEW033 BKN070 12/08
                        Q1006 NOSIG=
200903080200 METAR LMML NIL=
200903080145 METAR LMML 080145Z 31014KT 9999 FEW025 SCT080 11/08 Q1006
                        NOSIG=
200903080130 METAR LMML NIL=
200903080115 METAR LMML 080115Z 31012KT 9999 FEW025 SCT080 11/08 Q1006
                        NOSIG=
200903080100 METAR LMML NIL=
200903080045 METAR LMML 080045Z 30010KT 9999 FEW020 SCT070 11/08 Q1006
                        NOSIG=
200903080015 METAR LMML 080015Z 30011KT 9999 FEW020 SCT090 11/08 Q1006
                        NOSIG=
200903080000 METAR LMML NIL=
200903072345 METAR LMML 072345Z 31013KT 9999 FEW023 SCT090 11/08 Q1005
                        NOSIG=
200903072330 METAR LMML NIL=
200903072315 METAR LMML 072315Z 30012KT 9999 FEW020 SCT090 11/08 Q1005
                        NOSIG=
200903072300 METAR LMML NIL=
200903072245 METAR LMML 072245Z 31012KT 9999 FEW020 SCT090 11/08 Q1005
                        NOSIG=
200903072215 METAR LMML 072215Z 30011KT 9999 FEW020 11/08 Q1005 NOSIG=
200903072200 METAR LMML NIL=
200903072145 METAR LMML 072145Z 31012KT 280V340 9999 FEW020 SCT070 11/08
                        Q1005 NOSIG=
200903072115 METAR LMML 072115Z 30013KT 9999 FEW022 SCT070 11/08 Q1004
                        NOSIG=
200903072100 METAR LMML NIL=
200903072045 METAR LMML 072045Z 30011KT 9999 FEW028 SCT070 11/07 Q1004
                        NOSIG=
200903072030 METAR LMML NIL=
200903072015 METAR LMML 072015Z 30014KT 270V330 9999 FEW028 SCT070 12/07
                        Q1003 NOSIG=
200903071945 METAR LMML 071945Z 30013KT 9999 FEW027 BKN080 12/08 Q1003
                        NOSIG=
200903071930 METAR LMML NIL=
200903071915 METAR LMML 071915Z 30012G22KT 9999 FEW027 SCT070 11/08 Q1003
                        NOSIG=
200903071900 METAR LMML NIL=
200903071845 METAR LMML 071845Z 30014KT 270V330 9999 FEW046 11/07 Q1003
                        NOSIG=
200903071830 METAR LMML NIL=
200903071815 METAR LMML 071815Z 30012KT 9999 SCT028 SCT060 11/08 Q1002
                        TEMPO 8000 SHRA=
200903071800 METAR LMML NIL=
200903071745 METAR LMML 071745Z 31016KT 9999 SCT025 BKN250 11/07 Q1002
                        TEMPO 8000 SHRA=
200903071730 METAR LMML NIL=
200903071715 METAR LMML 071715Z 30012KT 270V330 9999 SCT025 BKN250 11/07
                        Q1001 TEMPO 8000 SHRA=
200903071700 METAR LMML NIL=
200903071645 METAR LMML 071645Z 30014KT 9999 FEW022 BKN250 12/07 Q1001
                        TEMPO 8000 SHRA=
200903071630 METAR LMML NIL=
200903071615 METAR LMML 071615Z 28014KT 250V310 9999 SCT019 BKN250 12/09
                        Q1001 TEMPO 8000 SHRA=
200903071600 METAR LMML NIL=
200903071545 METAR LMML 071545Z 29016KT 9999 SCT020 BKN250 12/09 Q1001
                        TEMPO 8000 SHRA=
200903071530 METAR LMML NIL=
200903071515 METAR LMML 071515Z 28015KT 9999 SCT020 SCT090 BKN250 12/09
                        Q1000 TEMPO 8000 SHRA=
200903071500 METAR LMML NIL=
200903071445 METAR LMML 071445Z 28019KT 250V310 9999 SCT020 SCT250 12/09
                        Q1000 TEMPO 8000 SHRA=
200903071430 METAR LMML NIL=
200903071415 METAR LMML 071415Z 28017KT 250V310 9999 FEW023 BKN060 12/08
                        Q1000 TEMPO 5000 SHRA=
200903071345 METAR LMML 071345Z 27012KT 240V300 9999 -SHRA SCT025 BKN046
                        10/08 Q1000 TEMPO 5000 SHRA=
200903071330 METAR LMML NIL=
200903071315 METAR LMML 071315Z 29020KT 7000 -SHRA SCT018TCU BKN060 12/09
                        Q1000 TEMPO 5000 SHRA=
200903071245 METAR LMML 071245Z 28019KT 250V310 9999 BKN019 SCT250 12/09
                        Q0999 RESHRA TEMPO 8000 SHRA=
200903071230 METAR LMML NIL=
200903071215 METAR LMML 071215Z 28018G32KT 250V310 5000 SHRA SCT021CB
                        SCT025 12/08 Q0999 TEMPO 8000 SHRA=
200903071200 METAR LMML NIL=
200903071145 METAR LMML 071145Z 28017KT 250V310 9999 SCT020 SCT250 13/09
                        Q0999 TEMPO 8000 SHRA=
200903071130 METAR LMML NIL=
200903071115 METAR LMML 071115Z 28019KT 240V310 9999 BKN020 SCT250 13/09
                        Q0999 NOSIG=
200903071045 METAR LMML 071045Z 29018KT 250V330 9999 SCT033 SCT250 14/07
                        Q0999 NOSIG=
200903071030 METAR LMML NIL=
200903071015 METAR LMML 071015Z 29017KT 260V320 9999 SCT029 SCT250 14/07
                        Q0999 NOSIG=
200903071000 METAR LMML NIL=
200903070945 METAR LMML 070945Z 29017KT 250V320 9999 SCT030 SCT250 13/07
                        Q0999 NOSIG=
200903070930 METAR LMML NIL=
200903070915 METAR LMML 070915Z 29018KT 9999 SCT031 SCT250 13/07 Q0998
                        NOSIG=
200903070900 METAR LMML NIL=
200903070845 METAR LMML 070845Z 30019KT 270V330 9999 FEW025TCU SCT030
                        BKN250 13/08 Q0998 NOSIG=
200903070830 METAR LMML NIL=
200903070815 METAR LMML 070815Z 29019KT 9999 SCT032 SCT250 13/07 Q0998
                        NOSIG=
200903070800 METAR LMML NIL=
200903070745 METAR LMML 070745Z 29015KT 9999 FEW031 BKN250 12/06 Q0997
                        NOSIG=
200903070730 METAR LMML NIL=
200903070715 METAR LMML 070715Z 29016KT 250V320 9999 SCT032 SCT250 11/06
                        Q0997 RETS NOSIG=
200903070700 METAR LMML NIL=
200903070645 METAR LMML 070645Z 29011KT 9999 FEW020CB SCT025 09/05 Q0996
                        RETS TEMPO 8000 SHRA=
200903070630 METAR LMML NIL=
200903070615 METAR LMML 070615Z 31021KT 9999 TSRA BKN020CB SCT100 09/05
                        Q0997 TEMPO TSRA BKN015CB=
200903070515 METAR LMML 070515Z 31013KT 9999 SCT030 BKN049 09/04 Q0995
                        TEMPO 7000 SHRA BKN015=
200903070500 METAR LMML NIL=
200903070445 METAR LMML 070445Z 31019G29KT 9999 -SHRA SCT028 BKN048 08/06
                        Q0996 TEMPO 7000 SHRA BKN015=
200903070430 METAR LMML NIL=
200903070415 METAR LMML 070415Z 30014KT 270V330 9999 FEW028 SCT120 10/06
                        Q0994 TEMPO 7000 SHRA BKN015=
200903070400 METAR LMML NIL=
200903070345 METAR LMML 070345Z 30017KT 9999 FEW028 SCT120 10/06 Q0994
                        TEMPO 7000 SHRA BKN015=
200903070330 METAR LMML NIL=
200903070315 METAR LMML 070315Z 31020KT 280V340 9999 SCT026 SCT100 SCT000
                        10/06 Q0994 TEMPO 7000 SHRA BKN015=
200903070300 METAR LMML NIL=
200903070245 METAR LMML 070245Z 30023G36KT 270V330 9999 SCT022 SCT049
                        10/06 Q0993 TEMPO 7000 SHRA BKN015=
200903070230 METAR LMML NIL=
200903070215 METAR LMML 070215Z 29019KT 250V310 9999 -SHRA SCT020 SCT049
                        09/07 Q0993 TEMPO 7000 SHRA BKN015=
200903070200 METAR LMML NIL=
200903070145 METAR LMML 070145Z 29018G29KT 9999 SCT016 09/06 Q0992 TEMPO
                        7000 SHRA BKN015=
200903070130 METAR LMML NIL=
200903070115 METAR LMML 070115Z 26020G30KT 190V300 9000 -SHRA BKN020 BKN130
                        09/07 Q0992 RESHRA NOSIG=
200903070100 METAR LMML NIL=
200903070045 METAR LMML 070045Z 25018G28KT 220V290 9999 BKN017 SCT050
                        09/07 Q0993 RESHRA TEMPO 7000 SHRA=
200903070031 SPECI LMML 070031Z 24017G30KT 210V300 9999 BKN017 09/07 Q0993
                        RESHRA TEMPO 7000 SHRA=
200903070030 METAR LMML NIL=
200903070015 METAR LMML 070015Z 24023KT 210V280 5000 SHRA BKN017 09/07
                        Q0993 BECMG 9999=
200903070000 METAR LMML NIL=
200903062345 METAR LMML 062345Z 25024G36KT 210V280 9999 SCT020 09/06 Q0993
                        TEMPO 7000 SHRA=
200903062330 METAR LMML NIL=
200903062315 METAR LMML 062315Z 25024G37KT 210V290 9999 SCT028 10/06 Q0993
                        TEMPO 7000 SHRA=
200903062300 METAR LMML NIL=
200903062245 METAR LMML 062245Z 25024G38KT 210V290 9999 SCT026 09/06 Q0994
                        NOSIG=
200903062230 METAR LMML NIL=
200903062215 METAR LMML 062215Z 26025G43KT 220V290 9999 BKN027 10/05 Q0994
                        NOSIG=
200903062200 METAR LMML NIL=
200903062145 METAR LMML 062145Z 25028G38KT 220V290 9999 SCT028 10/05 Q0995
                        NOSIG=
200903062130 METAR LMML NIL=
200903062115 METAR LMML 062115Z 26024G35KT 220V300 9999 SCT027 10/05 Q0995
                        TEMPO 8000 SHRA=
200903062100 METAR LMML NIL=
200903062045 METAR LMML 062045Z 27027KT 240V300 9999 -SHRA SCT028 BKN060
                        10/06 Q0995 TEMPO 8000 SHRA=
200903062030 METAR LMML NIL=
200903062015 METAR LMML 062015Z 26026G37KT 200V290 9999 SCT033 BKN070
                        11/05 Q0994 TEMPO 8000 SHRA=
200903062000 METAR LMML NIL=
200903061945 METAR LMML 061945Z 26026G36KT 220V290 9999 -SHRA SCT034 BKN049
                        11/05 Q0995 TEMPO 8000 SHRA=
200903061930 METAR LMML NIL=
200903061915 METAR LMML 061915Z 26022G32KT 220V290 9999 SCT034 SCT049
                        11/04 Q0994 NOSIG=
200903061900 METAR LMML NIL=
200903061845 METAR LMML 061845Z 27019G33KT 230V300 9999 SCT031 SCT060
                        10/05 Q0994 TEMPO 8000 SHRA=
200903061830 METAR LMML NIL=
200903061815 METAR LMML 061815Z 27023KT 240V300 9999 SCT027 BKN060 11/05
                        Q0994 TEMPO 8000 SHRA=
200903061800 METAR LMML NIL=
200903061745 METAR LMML 061745Z 26018G30KT 210V290 9999 SCT036 SCT060
                        11/05 Q0993 NOSIG=
200903061730 METAR LMML NIL=
200903061715 METAR LMML 061715Z 27021G34KT 230V300 9999 SCT035 SCT060
                        11/04 Q0993 NOSIG=
200903061700 METAR LMML NIL=
200903061645 METAR LMML 061645Z 26018G28KT 220V290 9999 BKN035 SCT250
                        11/05 Q0993 NOSIG=
200903061630 METAR LMML NIL=
200903061615 METAR LMML 061615Z 26021G31KT 220V290 9999 BKN034 11/04 Q0993
                        NOSIG=
200903061600 METAR LMML NIL=
200903061545 METAR LMML 061545Z 27022KT 230V300 9999 SCT035 SCT060 11/05
                        Q0993 NOSIG=
200903061530 METAR LMML NIL=
200903061515 METAR LMML 061515Z 25018KT 210V300 9999 BKN028 SCT050 10/06
                        Q0992 NOSIG=
200903061500 METAR LMML NIL=
200903061445 METAR LMML 061445Z 26022G32KT 220V290 9999 BKN025 SCT045
                        10/05 Q0992 NOSIG=
200903061430 METAR LMML NIL=
200903061415 METAR LMML 061415Z 26020G33KT 230V300 9999 BKN023 SCT033
                        09/05 Q0992 NOSIG=
200903061400 METAR LMML NIL=
200903061345 METAR LMML 061345Z 24018G32KT 200V290 9999 BKN021 SCT041
                        08/05 Q0992 NOSIG=
200903061330 METAR LMML NIL=
200903061315 METAR LMML 061315Z 26022KT 220V290 9999 BKN029 SCT045 11/04
                        Q0992 NOSIG=
200903061300 METAR LMML NIL=
200903061245 METAR LMML 061245Z 27020G30KT 220V300 9999 SHRA BKN031 SCT060
                        11/04 Q0992 NOSIG=
200903061230 METAR LMML NIL=
200903061215 METAR LMML 061215Z 27021KT 230V320 9999 BKN028 11/06 Q0992
                        NOSIG=
200903061200 METAR LMML NIL=
200903061145 METAR LMML 061145Z 25019KT 200V290 9999 BKN037 12/05 Q0992
                        NOSIG=
200903061130 METAR LMML NIL=
200903061115 METAR LMML 061115Z 25021KT 210V300 9999 BKN034 12/05 Q0992
                        NOSIG=
200903061100 METAR LMML NIL=
200903061045 METAR LMML 061045Z 25017KT 200V290 9999 BKN036TCU 13/06 Q0992
                        NOSIG=
200903061030 METAR LMML NIL=
200903061015 METAR LMML 061015Z 25016G26KT 220V290 9999 BKN030TCU 11/05
                        Q0992 NOSIG=
200903061000 METAR LMML NIL=
200903060945 METAR LMML 060945Z 26019KT 210V300 9999 SHRA BKN033TCU 11/05
                        Q0992 NOSIG=
200903060930 METAR LMML NIL=
200903060915 METAR LMML 060915Z 25019KT 210V290 9999 BKN035TCU 11/06 Q0991
                        NOSIG=
200903060900 METAR LMML NIL=
200903060845 METAR LMML 060845Z 26020G30KT 200V300 9999 SCT030 12/06 Q0991
                        NOSIG=
200903060815 METAR LMML 060815Z 27017KT 220V290 9999 SCT027 SCT042 11/06
                        Q0991 TEMPO 7000 SHRA BKN015=
200903060800 METAR LMML NIL=
200903060745 METAR LMML 060745Z 27014KT 230V310 9000 SHGR SCT031 SCT060
                        10/06 Q0991 TEMPO 7000 SHRA BKN015=
200903060738 SPECI LMML 060738Z 27014KT 240V310 9000 SHGR FEW036 SCT042
                        SCT049 10/06 Q0991 TEMPO 7000 SHRA
                        BKN015=
200903060730 METAR LMML NIL=
200903060715 METAR LMML 060715Z 26019G30KT 220V300 9000 SHRA SCT022 SCT046
                        08/05 Q0991 TEMPO 7000 SHRA BKN015=
200903060700 METAR LMML NIL=
200903060645 METAR LMML 060645Z 26014KT 230V310 9999 SCT029 SCT070 10/06
                        Q0990 TEMPO 7000 SHRA BKN015=
200903060630 METAR LMML NIL=
200903060615 METAR LMML 060615Z 28017KT 250V310 9999 FEW030 BKN250 11/06
                        Q0990 TEMPO 7000 SHRA BKN015=
200903060600 METAR LMML NIL=
200903060545 METAR LMML 060545Z 26017KT 210V290 9999 SCT029 SCT250 11/06
                        Q0990 TEMPO 7000 SHRA BKN015=
200903060530 METAR LMML NIL=
200903060515 METAR LMML 060515Z 27018KT 240V300 9999 FEW033 SCT070 11/05
                        Q0990 TEMPO 7000 SHRA BKN015=
200903060500 METAR LMML NIL=
200903060445 METAR LMML 060445Z 27019KT 230V310 9999 FEW035 SCT070 11/05
                        Q0989 NOSIG=
200903060430 METAR LMML NIL=
200903060415 METAR LMML 060415Z 27016KT 230V300 9999 FEW027 BKN070 11/05
                        Q0989 TEMPO 7000 SHRA=
200903060345 METAR LMML 060345Z 27018KT 230V300 9999 FEW027 11/06 Q0989
                        TEMPO 7000 SHRA=
200903060330 METAR LMML NIL=
200903060315 METAR LMML 060315Z 26018KT 230V290 9999 SCT027 12/07 Q0988
                        TEMPO 7000 SHRA=
200903060300 METAR LMML NIL=
200903060245 METAR LMML 060245Z 25016KT 220V300 9999 SCT025 SCT080 12/08
                        Q0988 TEMPO 7000 SHRA=
200903060230 METAR LMML NIL=
200903060215 METAR LMML 060215Z 26023KT 220V290 9999 SCT024 SCT050 12/07
                        Q0988 RETS NOSIG=
200903060200 METAR LMML NIL=
200903060145 METAR LMML 060145Z 26020KT 220V300 6000 -RA SCT020CB BKN150
                        12/09 Q0988 RETSRA TEMPO 3000 TSRA
                        SCT015CB=
200903060130 METAR LMML NIL=
200903060115 METAR LMML 060115Z 19020KT 150V210 6000 FEW030 SCT060 OVC150
                        15/10 Q0986 TEMPO 3000 TSRA SCT015CB=
200903060100 METAR LMML NIL=
200903060045 METAR LMML 060045Z 18016KT 140V230 6000 FEW030 SCT060 OVC150
                        14/09 Q0987 TEMPO 5000 TSRA SCT015CB
                        RMK LIGHTNING TO NORTHWEST=
200903060030 METAR LMML NIL=
200903060015 METAR LMML 060015Z 18018G28KT 150V220 6000 -RA FEW030 SCT060
                        OVC150 13/09 Q0989 TEMPO 8000 RA=
200903060000 METAR LMML NIL=
200903052345 METAR LMML 052345Z 16017KT 130V200 7000 FEW030 SCT060 OVC150
                        13/09 Q0990 TEMPO 8000 RA=
200903052330 METAR LMML NIL=
200903052315 METAR LMML 052315Z 16015KT 130V190 7000 FEW030 SCT060 OVC150
                        13/09 Q0990 TEMPO 8000 RA=
200903052300 METAR LMML NIL=
200903052245 METAR LMML 052245Z 17013KT 140V210 9999 FEW030 SCT070 BKN250
                        13/09 Q0992 TEMPO 8000 RA=
200903052230 METAR LMML NIL=
200903052215 METAR LMML 052215Z 16012KT 140V200 9999 FEW030 BKN250 13/08
                        Q0993 TEMPO 8000 RA=
200903052200 METAR LMML NIL=
200903052145 METAR LMML 052145Z 17012KT 9999 FEW033 SCT130 12/07 Q0994
                        NOSIG=
200903052130 METAR LMML NIL=
200903052115 METAR LMML 052115Z 17009KT 140V220 CAVOK 12/07 Q0995 NOSIG=
200903052100 METAR LMML NIL=
200903052045 METAR LMML 052045Z 17007KT 140V200 CAVOK 12/07 Q0995 NOSIG=
200903052030 METAR LMML NIL=
200903052015 METAR LMML 052015Z 18006KT CAVOK 11/06 Q0996 NOSIG=
200903052000 METAR LMML NIL=
200903051945 METAR LMML 051945Z 18004KT CAVOK 11/06 Q0996 NOSIG=
200903051930 METAR LMML NIL=
200903051915 METAR LMML 051915Z VRB03KT CAVOK 09/05 Q0996 NOSIG=
200903051900 METAR LMML NIL=
200903051845 METAR LMML 051845Z VRB02KT CAVOK 09/05 Q0997 NOSIG=
200903051830 METAR LMML NIL=
200903051815 METAR LMML 051815Z VRB01KT 9999 FEW028 11/06 Q0997 NOSIG=
200903051800 METAR LMML NIL=
200903051745 METAR LMML 051745Z 27004KT 9999 FEW028 SCT100 11/06 Q0996
                        NOSIG=
200903051730 METAR LMML NIL=
200903051715 METAR LMML 051715Z 27007KT 230V310 9999 FEW028 SCT100 12/06
                        Q0997 NOSIG=
200903051700 METAR LMML NIL=
200903051645 METAR LMML 051645Z 28008KT 240V310 9999 FEW028 BKN100 13/06
                        Q0997 NOSIG=
200903051630 METAR LMML NIL=
200903051615 METAR LMML 051615Z 28010KT 250V320 9999 FEW028 BKN100 13/06
                        Q0997 NOSIG=
200903051600 METAR LMML NIL=
200903051545 METAR LMML 051545Z 27009KT 230V300 9999 FEW028 BKN080 13/06
                        Q0996 TEMPO 8000 SHRA=
200903051530 METAR LMML NIL=
200903051515 METAR LMML 051515Z 27010KT 230V300 9999 SCT028 BKN080 13/07
                        Q0997 TEMPO 8000 SHRA=
200903051500 METAR LMML NIL=
200903051445 METAR LMML 051445Z 28014KT 220V310 9999 SCT029 SCT080 13/07
                        Q0996 TEMPO 8000 SHRA=
200903051430 METAR LMML NIL=
200903051415 METAR LMML 051415Z 28016KT 250V310 9999 SCT030 SCT080 14/08
                        Q0996 TEMPO 8000 SHRA=
200903051400 METAR LMML NIL=
200903051345 METAR LMML 051345Z 29016KT 9999 FEW028 SCT120 15/08 Q0996
                        TEMPO 8000 SHRA=
200903051330 METAR LMML NIL=
200903051315 METAR LMML 051315Z 27015KT 230V310 9999 FEW025 SCT050 14/08
                        Q0996 TEMPO 8000 SHRA=
200903051300 METAR LMML NIL=
200903051245 METAR LMML 051245Z 28018KT 230V310 9999 SCT027 BKN090 14/09
                        Q0996 TEMPO 8000 SHRA=
200903051230 METAR LMML NIL=
200903051215 METAR LMML 051215Z 26018KT 230V300 9999 SCT023 SCT090 15/10
                        Q0995 TEMPO 8000 SHRA=
200903051200 METAR LMML NIL=
200903051145 METAR LMML 051145Z 27019KT 240V300 8000 SCT027 SCT120 15/09
                        Q0996 NOSIG=
200903051130 METAR LMML NIL=
200903051115 METAR LMML 051115Z 26022KT 220V300 8000 SCT027 SCT250 15/09
                        Q0996 NOSIG=
200903051100 METAR LMML NIL=
200903051045 METAR LMML 051045Z 25019KT 200V290 4000 HZ SCT029 BKN250
                        15/10 Q0996 NOSIG=
200903051030 METAR LMML NIL=
200903051015 METAR LMML 051015Z 24018KT 200V280 4000 HZ FEW120 BKN250
                        16/10 Q0995 NOSIG=
200903051000 METAR LMML NIL=
200903050945 METAR LMML 050945Z 24021KT 200V280 6000 BKN250 15/10 Q0995
                        NOSIG=
200903050930 METAR LMML NIL=
200903050915 METAR LMML 050915Z 23019G30KT 190V270 CAVOK 15/10 Q0996 NOSIG=
200903050900 METAR LMML NIL=
200903050845 METAR LMML 050845Z 23019KT 200V280 9999 FEW020 BKN250 15/10
                        Q0995 NOSIG=
200903050830 METAR LMML NIL=
200903050815 METAR LMML 050815Z 23019KT 200V290 9999 FEW020 BKN250 14/09
                        Q0996 NOSIG=
200903050800 METAR LMML NIL=
200903050745 METAR LMML 050745Z 23016KT 200V260 CAVOK 14/10 Q0995 NOSIG=
200903050730 METAR LMML NIL=
200903050715 METAR LMML 050715Z 22018KT 190V260 9999 FEW020 BKN250 14/10
                        Q0995 NOSIG=
200903050700 METAR LMML NIL=
200903050645 METAR LMML 050645Z 22013KT 190V270 CAVOK 14/10 Q0995 NOSIG=
200903050630 METAR LMML NIL=
200903050615 METAR LMML 050615Z 22011KT 190V270 CAVOK 13/09 Q0995 NOSIG=
200903050600 METAR LMML NIL=
200903050545 METAR LMML 050545Z 23009KT 200V270 9999 FEW022 SCT250 13/09
                        Q0996 NOSIG=
200903050530 METAR LMML NIL=
200903050515 METAR LMML 050515Z 24012KT 200V280 9999 FEW022 13/09 Q0995
                        NOSIG=
200903050500 METAR LMML NIL=
200903050445 METAR LMML 050445Z 25012KT 200V290 9999 FEW022 12/09 Q0995
                        NOSIG=
200903050430 METAR LMML NIL=
200903050415 METAR LMML 050415Z 25013KT 210V290 9999 FEW022 12/09 Q0996
                        NOSIG=
200903050400 METAR LMML NIL=
200903050345 METAR LMML 050345Z 25014KT 200V280 9999 FEW024 12/09 Q0995
                        NOSIG=
200903050330 METAR LMML NIL=
200903050315 METAR LMML 050315Z 25014KT 210V290 9999 FEW021 12/09 Q0995
                        NOSIG=
200903050300 METAR LMML NIL=
200903050245 METAR LMML 050245Z 25014KT 220V280 9999 FEW018 12/10 Q0995
                        NOSIG=
200903050230 METAR LMML NIL=
200903050215 METAR LMML 050215Z 26017KT 210V290 9999 FEW018 13/10 Q0996
                        NOSIG=
200903050200 METAR LMML NIL=
200903050145 METAR LMML 050145Z 27015KT 220V290 9999 FEW014 13/10 Q0996
                        NOSIG=
200903050130 METAR LMML NIL=
200903050115 METAR LMML 050115Z 27016KT 240V310 9000 BKN013 13/11 Q0996
                        NOSIG=
200903050100 METAR LMML NIL=
200903050045 METAR LMML 050045Z 27018KT 210V300 5000 FEW011 14/12 Q0996
                        NOSIG=
200903050030 METAR LMML NIL=
200903050015 METAR LMML 050015Z 23017KT 200V270 5000 HZ SCT250 15/09 Q0995
                        NOSIG=
200903050000 METAR LMML NIL=
200903042345 METAR LMML 042345Z 22015KT 190V260 6000 BKN250 15/11 Q0995
                        NOSIG=
200903042330 METAR LMML NIL=
200903042315 METAR LMML 042315Z 20010KT 160V260 7000 BKN130 15/13 Q0996
                        RESHRA NOSIG=
200903042300 METAR LMML NIL=
200903042245 METAR LMML 042245Z 22013G24KT 150V280 7000 FEW009 SCT016
                        BKN080 14/13 Q0997 RESHRA NOSIG=
200903042236 SPECI LMML 042236Z 19016KT 150V270 2000 +SHRA FEW007 BKN020
                        BKN080 15/13 Q0998 TEMPO 5000 SHRA=
200903042215 LMML 042215Z 15019KT 130V200 9000 +SHRA FEW007 BKN020 BKN080
                        14/13 Q0996 NOSIG=
200903042200 METAR LMML NIL=
200903042145 METAR LMML 042145Z 15025G36KT 9000 SCT090 BKN110 15/12 Q0996
                        NOSIG=
200903042130 METAR LMML NIL=
200903042115 METAR LMML 042115Z 17024G41KT 130V210 9000 FEW007 BKN120
                        15/13 Q0996 BECMG 8000 RA=
200903042104 SPECI LMML 042104Z 17022G34KT 130V210 9000 FEW012 SCT049
                        BKN120 15/13 Q0996 RERA BECMG 8000
                        RA=
200903042100 METAR LMML NIL=
200903042045 METAR LMML 042045Z 17029G45KT 140V220 5000 -RA SCT049 BKN100
                        15/14 Q0996 BECMG 8000 RA=
200903042030 METAR LMML NIL=
200903042015 METAR LMML 042015Z 21018G30KT 170V260 3000 RA FEW010 SCT039
                        OVC060 15/14 Q0999 TEMPO 5000 RA=
200903042000 METAR LMML NIL=
200903041945 METAR LMML 041945Z 18016KT 150V220 5000 RA FEW010 SCT039
                        OVC049 15/14 Q0998 TEMPO 5000 RA=
200903041930 METAR LMML NIL=
200903041915 METAR LMML 041915Z 19016KT 160V240 5000 RA FEW019 SCT036
                        OVC042 16/14 Q0998 TEMPO 5000 RA=
200903041900 METAR LMML NIL=
200903041845 METAR LMML 041845Z 20011KT 160V270 7000 -RA FEW010 SCT060
                        OVC090 18/13 Q0999 TEMPO 5000 RA=
200903041830 METAR LMML NIL=
200903041815 METAR LMML 041815Z 15013KT 120V190 7000 -RA FEW040 SCT080
                        OVC100 16/13 Q0998 NOSIG=
200903041800 METAR LMML NIL=
200903041745 METAR LMML 041745Z 15019G29KT 120V180 7000 -RA FEW030 SCT090
                        OVC130 15/13 Q0999 NOSIG=
200903041730 METAR LMML NIL=
200903041715 METAR LMML 041715Z 16018G28KT 120V180 7000 -RA FEW030 SCT090
                        OVC160 15/13 Q0999 NOSIG=
200903041700 METAR LMML NIL=
200903041630 METAR LMML NIL=
200903041615 METAR LMML 041615Z 17017KT 130V190 CAVOK 16/13 Q1000 NOSIG=
200903041545 METAR LMML 041545Z 16021G31KT 120V200 CAVOK 16/13 Q1000 NOSIG=
200903041530 METAR LMML NIL=
200903041515 METAR LMML 041515Z 16017KT 130V190 CAVOK 17/13 Q1000 NOSIG=
200903041500 METAR LMML NIL=
200903041445 METAR LMML 041445Z 15014KT CAVOK 16/13 Q1001 NOSIG=
200903041430 METAR LMML NIL=
200903041415 METAR LMML 041415Z 15015KT 120V180 CAVOK 16/13 Q1001 NOSIG=
200903041400 METAR LMML NIL=
200903041345 METAR LMML 041345Z 14018KT CAVOK 15/13 Q1002 NOSIG=
200903041330 METAR LMML NIL=
200903041315 METAR LMML 041315Z 15012KT 120V180 9999 -RA SCT130 OVC150
                        15/13 Q1004 NOSIG=
200903041300 METAR LMML NIL=
200903041245 METAR LMML 041245Z 15014KT CAVOK 15/13 Q1005 NOSIG=
200903041230 METAR LMML NIL=
200903041215 METAR LMML 041215Z 16015KT CAVOK 16/13 Q1006 NOSIG=
200903041200 METAR LMML NIL=
200903041145 METAR LMML 041145Z 15014KT CAVOK 15/13 Q1007 TEMPO BKN010=
200903041130 METAR LMML NIL=
200903041115 METAR LMML 041115Z 15013KT 120V180 CAVOK 15/13 Q1007 TEMPO
                        BKN010=
200903041100 METAR LMML NIL=
200903041045 METAR LMML 041045Z 16015KT 9000 FEW012 OVC150 15/13 Q1008
                        TEMPO BKN010 RMK DUST HAZE=
200903041030 METAR LMML NIL=
200903041015 METAR LMML 041015Z 15015KT 9000 FEW012 OVC150 15/13 Q1008
                        TEMPO BKN007 RMK DUST HAZE=
200903041000 METAR LMML NIL=
200903040945 METAR LMML 040945Z 15013KT 9000 OVC150 15/13 Q1009 TEMPO
                        BKN007=
200903040930 METAR LMML NIL=
200903040915 METAR LMML 040915Z 15013KT 9000 SCT120 OVC250 15/13 Q1009
                        TEMPO BKN007=
200903040900 METAR LMML NIL=
200903040845 METAR LMML 040845Z 14011KT 120V180 8000 SCT150 OVC250 15/14
                        Q1010 TEMPO BKN007=
200903040830 METAR LMML NIL=
200903040815 METAR LMML 040815Z 14010KT 110V170 7000 FEW004 SCT150 BKN250
                        14/14 Q1011 TEMPO BKN007=
200903040800 LMML NIL=
200903040745 LMML 040745Z 14010KT 6000 SCT004 SCT150 BKN250 14/14 Q1011
                        BECMG 7000 BKN007=
200903040730 METAR LMML NIL=
200903040715 METAR LMML 040715Z 14010KT 4000 BR BKN004 SCT150 BKN250 14/13
                        Q1011 BECMG 7000 BKN007=
200903040645 METAR LMML 040645Z 13009KT 100V170 4000 BR BKN005 SCT150
                        BKN250 13/13 Q1011 BECMG 7000 BKN007=
200903040630 METAR LMML NIL=
200903040615 METAR LMML 040615Z 14008KT 4000 BR BKN005 SCT150 BKN250 13/13
                        Q1011 BECMG 7000 BKN007=
200903040600 METAR LMML NIL=
200903040545 METAR LMML 040545Z 14007KT 4000 BR BKN004 BKN250 13/12 Q1012
                        NOSIG=
200903040530 METAR LMML NIL=
200903040515 METAR LMML 040515Z 14007KT 5000 BR BKN005 BKN250 12/12 Q1012
                        NOSIG=
200903040500 METAR LMML NIL=
200903040445 METAR LMML 040445Z 14007KT 5000 BR BKN004 12/12 Q1012 NOSIG=
200903040430 METAR LMML NIL=
200903040415 METAR LMML 040415Z 14007KT 5000 BR BKN005 12/12 Q1012 NOSIG=
200903040400 METAR LMML NIL=
200903040345 METAR LMML 040345Z 14006KT 5000 BR SCT005 12/11 Q1012 NOSIG=
200903040330 METAR LMML NIL=
200903040315 METAR LMML 040315Z 14007KT 5000 BR SCT006 12/11 Q1012 NOSIG=
200903040300 METAR LMML NIL=
200903040245 METAR LMML 040245Z 15005KT 5000 BR SCT006 12/12 Q1013 NOSIG=
200903040230 METAR LMML NIL=
200903040215 METAR LMML 040215Z 16006KT 5000 BR BKN005 12/12 Q1013 NOSIG=
200903040200 METAR LMML NIL=
200903040145 METAR LMML 040145Z 16006KT 120V180 5000 BR FEW004 12/12 Q1014
                        NOSIG=
200903040130 METAR LMML NIL=
200903040115 METAR LMML 040115Z 15007KT 5000 BR FEW003 12/12 Q1014 TEMPO
                        0900 BCFG BKN003=
200903040100 METAR LMML NIL=
200903040045 METAR LMML 040045Z 14007KT 1200 R14/P1500N BR BKN003 12/12
                        Q1014 TEMPO 0900 BCFG BKN003=
200903040030 METAR LMML NIL=
200903040015 METAR LMML 040015Z 15005KT 130V190 1200 R14/P1500N BR BKN003
                        12/12 Q1015 TEMPO 0900 BCFG BKN003=
200903040000 METAR LMML NIL=
200903032345 METAR LMML 032345Z 14004KT 1200 R14/P1500N BR FEW004 11/11
                        Q1015 TEMPO 0600 MIFG BKN003=
200903032330 METAR LMML NIL=
200903032315 METAR LMML 032315Z 15005KT 2000 BR FEW004 12/12 Q1016 NOSIG=
200903032300 METAR LMML NIL=
200903032245 METAR LMML 032245Z 16004KT 2000 BR FEW004 12/12 Q1016 TEMPO
                        0800 MIFG BKN001=
200903032230 METAR LMML NIL=
200903032215 METAR LMML 032215Z 15004KT 2000 BR SCT004 12/12 Q1016 BECMG
                        3000 BR SCT005=
200903032205 SPECI LMML 032205Z VRB03KT 2000 BR SCT003 12/12 Q1016 BECMG
                        3000 BR SCT005=
200903032200 METAR LMML NIL=
200903032145 METAR LMML 032145Z 15004KT 0100 R14/P1500U FG SCT003 12/11
                        Q1016 NOSIG=
200903032132 SPECI LMML 032132Z VRB03KT 0200 R14/0716VP1500U FG SCT025
                        12/11 Q1016 NOSIG=
200903032130 METAR LMML NIL=
200903032115 METAR LMML 032115Z VRB03KT 1500 R14/1083VP1500D BR SCT250
                        12/12 Q1016 BECMG 0800 MIFG BKN004=
200903032100 METAR LMML NIL=
200903032045 METAR LMML 032045Z VRB03KT 4000 BR SCT250 12/11 Q1017 BECMG
                        3000 BR BKN005=
200903032030 METAR LMML NIL=
200903032015 METAR LMML 032015Z VRB02KT 6000 SCT250 12/12 Q1017 BECMG
                        5000 BR=
200903032000 METAR LMML NIL=
200903031945 METAR LMML 031945Z VRB02KT 6000 SCT250 12/12 Q1017 BECMG
                        5000 BR=
200903031930 METAR LMML NIL=
200903031915 METAR LMML 031915Z VRB02KT 6000 BKN250 13/12 Q1016 BECMG
                        5000 BR=
200903031900 METAR LMML NIL=
200903031845 METAR LMML 031845Z VRB03KT 7000 BKN250 13/12 Q1017 BECMG
                        5000 BR=
200903031830 METAR LMML NIL=
200903031815 METAR LMML 031815Z VRB01KT 7000 BKN250 13/12 Q1017 NOSIG=
200903031800 METAR LMML NIL=
200903031745 METAR LMML 031745Z VRB01KT 7000 BKN250 13/12 Q1017 NOSIG=
200903031730 METAR LMML NIL=
200903031715 METAR LMML 031715Z VRB01KT 7000 BKN250 14/12 Q1017 NOSIG=
200903031700 METAR LMML NIL=
200903031645 METAR LMML 031645Z 22004KT 190V260 8000 BKN250 14/12 Q1017
                        NOSIG=
200903031630 METAR LMML NIL=
200903031615 METAR LMML 031615Z 22004KT 8000 BKN250 15/12 Q1017 NOSIG=
200903031600 METAR LMML NIL=
200903031545 METAR LMML 031545Z 21004KT 170V260 8000 BKN250 15/13 Q1017
                        NOSIG=
200903031530 METAR LMML NIL=
200903031515 METAR LMML 031515Z 22005KT 200V260 9000 FEW030 BKN250 16/13
                        Q1017 NOSIG=
200903031500 METAR LMML NIL=
200903031445 METAR LMML 031445Z 22005KT 180V260 9000 FEW030 BKN250 16/13
                        Q1017 NOSIG=
200903031430 METAR LMML NIL=
200903031415 METAR LMML 031415Z 22005KT 190V270 9999 FEW030 BKN250 16/13
                        Q1017 NOSIG=
200903031400 METAR LMML NIL=
200903031345 METAR LMML 031345Z 22004KT 190V270 9999 FEW030 BKN250 16/13
                        Q1017 NOSIG=
200903031330 METAR LMML NIL=
200903031315 METAR LMML 031315Z 21005KT 170V280 9999 FEW030 BKN250 16/12
                        Q1017 NOSIG=
200903031245 METAR LMML 031245Z 21004KT 170V270 9999 FEW030 BKN250 16/13
                        Q1018 NOSIG=
200903031230 METAR LMML NIL=
200903031215 METAR LMML 031215Z 20005KT 170V230 9999 FEW030 BKN250 17/13
                        Q1018 NOSIG=
200903031200 METAR LMML NIL=
200903031145 METAR LMML 031145Z 17004KT 060V220 CAVOK 18/13 Q1018 NOSIG=
200903031130 METAR LMML NIL=
200903031115 METAR LMML 031115Z VRB03KT CAVOK 18/11 Q1018 NOSIG=
200903031100 METAR LMML NIL=
200903031045 METAR LMML 031045Z VRB03KT CAVOK 17/12 Q1018 NOSIG=
200903031030 METAR LMML NIL=
200903031015 METAR LMML 031015Z 36004KT 320V050 CAVOK 17/13 Q1018 NOSIG=
200903031000 METAR LMML NIL=
200903030945 METAR LMML 030945Z 34005KT CAVOK 16/12 Q1019 NOSIG=
200903030930 METAR LMML NIL=
200903030915 METAR LMML 030915Z 34005KT 290V010 9999 FEW009 BKN250 15/13
                        Q1019 NOSIG=
200903030900 METAR LMML NIL=
200903030845 METAR LMML 030845Z 33006KT 9000 FEW009 SCT250 14/13 Q1019
                        NOSIG=
200903030830 METAR LMML NIL=
200903030815 METAR LMML 030815Z 33006KT 280V360 9000 SCT008 14/13 Q1019
                        NOSIG=
200903030800 METAR LMML NIL=
200903030745 METAR LMML 030745Z 33007KT 9000 BKN008 13/12 Q1019 BECMG
                        9999 BKN010=
200903030730 METAR LMML NIL=
200903030715 METAR LMML 030715Z 32005KT 300V010 6000 BKN008 12/12 Q1019
                        BECMG 9000 SCT008=
200903030700 METAR LMML NIL=
200903030645 METAR LMML 030645Z VRB02KT 2700 BR BKN007 12/11 Q1018 BECMG
                        6000 SCT008=
200903030630 METAR LMML NIL=
200903030615 METAR LMML 030615Z VRB03KT 3000 BR SCT006 11/11 Q1018 BECMG
                        6000=
200903030600 METAR LMML NIL=
200903030545 METAR LMML 030545Z 31004KT 3000 BR BKN006 11/11 Q1018 NOSIG=
200903030530 METAR LMML NIL=
200903030515 METAR LMML 030515Z 31005KT 4000 BR SCT005 10/10 Q1018 TEMPO
                        BKN004=
200903030500 METAR LMML NIL=
200903030445 METAR LMML 030445Z 31005KT 7000 SCT006 10/10 Q1018 TEMPO
                        5000 BR BKN004=
200903030430 METAR LMML NIL=
200903030415 METAR LMML 030415Z 31004KT 7000 BKN006 11/10 Q1018 TEMPO
                        5000 BR BKN004=
200903030400 METAR LMML NIL=
200903030345 METAR LMML 030345Z 32004KT 7000 BKN006 11/11 Q1018 TEMPO
                        5000 BR BKN004=
200903030330 METAR LMML NIL=
200903030315 METAR LMML 030315Z 33004KT 7000 BKN006 11/10 Q1018 TEMPO
                        5000 BR BKN004=
200903030300 METAR LMML NIL=
200903030245 METAR LMML 030245Z 33005KT 9000 BKN006 11/11 Q1018 TEMPO
                        5000 BR BKN004=
200903030230 METAR LMML NIL=
200903030215 METAR LMML 030215Z 34004KT 310V010 9000 BKN007 11/11 Q1018
                        TEMPO 5000 BR BKN005=
200903030200 METAR LMML NIL=
200903030145 METAR LMML 030145Z 32005KT 9000 BKN007 11/10 Q1019 TEMPO
                        5000 BR BKN005=
200903030130 METAR LMML NIL=
200903030115 METAR LMML 030115Z 33004KT 290V020 9999 FEW012 11/10 Q1019
                        BECMG 7000=
200903030100 METAR LMML NIL=
200903030045 METAR LMML 030045Z VRB02KT 9999 FEW012 11/10 Q1019 TEMPO
                        8000=
200903030030 METAR LMML NIL=
200903030015 METAR LMML 030015Z 30004KT CAVOK 11/10 Q1019 TEMPO 8000 FEW011=
200903030000 METAR LMML NIL=
200903022345 METAR LMML 022345Z VRB03KT CAVOK 12/10 Q1019 NOSIG=
200903022330 METAR LMML NIL=
200903022315 METAR LMML 022315Z 28005KT CAVOK 12/10 Q1019 NOSIG=
200903022300 METAR LMML NIL=
200903022245 METAR LMML 022245Z 25005KT 220V280 9999 FEW015 11/10 Q1019
                        NOSIG=
200903022230 METAR LMML NIL=
200903022215 METAR LMML 022215Z VRB03KT 9999 FEW015 11/10 Q1019 NOSIG=
200903022200 METAR LMML NIL=
200903022145 METAR LMML 022145Z 28004KT 250V310 9999 FEW015 12/10 Q1019
                        NOSIG=
200903022130 METAR LMML NIL=
200903022115 METAR LMML 022115Z VRB03KT 9999 FEW015 11/10 Q1018 NOSIG=
200903022100 METAR LMML NIL=
200903022045 METAR LMML 022045Z 32004KT 9999 FEW015 11/10 Q1018 NOSIG=
200903022030 METAR LMML NIL=
200903022015 METAR LMML 022015Z 33004KT 9999 FEW015 11/10 Q1018 NOSIG=
200903022000 METAR LMML NIL=
200903021945 METAR LMML 021945Z 33004KT 9999 FEW015 12/11 Q1018 NOSIG=
200903021930 METAR LMML NIL=
200903021915 METAR LMML 021915Z 33004KT 9999 FEW015 12/11 Q1018 NOSIG=
200903021900 METAR LMML NIL=
200903021845 METAR LMML 021845Z 32005KT 9999 FEW015 12/11 Q1018 NOSIG=
200903021830 METAR LMML NIL=
200903021815 METAR LMML 021815Z 32006KT 290V350 9999 FEW015 13/11 Q1018
                        NOSIG=
200903021800 METAR LMML NIL=
200903021745 METAR LMML 021745Z 32006KT 9999 FEW012 13/11 Q1018 NOSIG=
200903021730 METAR LMML NIL=
200903021715 METAR LMML 021715Z 33006KT 9999 FEW012 14/12 Q1018 NOSIG=
200903021700 METAR LMML NIL=
200903021645 METAR LMML 021645Z 34005KT 9999 FEW015 14/12 Q1017 NOSIG=
200903021630 METAR LMML NIL=
200903021615 METAR LMML 021615Z 34005KT 300V030 9999 FEW015 15/12 Q1017
                        NOSIG=
200903021545 METAR LMML 021545Z 34007KT 300V020 9999 FEW015 16/13 Q1017
                        NOSIG=
200903021530 METAR LMML NIL=
200903021515 METAR LMML 021515Z 33009KT 300V360 9999 FEW015 17/12 Q1017
                        NOSIG=
200903021500 METAR LMML NIL=
200903021445 METAR LMML 021445Z 34009KT 290V360 9999 FEW015 17/12 Q1017
                        NOSIG=
200903021430 METAR LMML NIL=
200903021415 METAR LMML 021415Z 35007KT 310V030 9999 FEW015 18/11 Q1017
                        NOSIG=
200903021400 METAR LMML NIL=
200903021345 METAR LMML 021345Z 34007KT 300V360 CAVOK 18/10 Q1017 NOSIG=
200903021330 METAR LMML NIL=
200903021315 METAR LMML 021315Z 33007KT CAVOK 18/10 Q1017 NOSIG=
200903021300 METAR LMML NIL=
200903021245 METAR LMML 021245Z 36006KT 290V050 CAVOK 19/10 Q1017 NOSIG=
200903021230 METAR LMML NIL=
200903021215 METAR LMML 021215Z VRB03KT 9999 FEW012 19/12 Q1017 NOSIG=
200903021200 METAR LMML NIL=
200903021145 METAR LMML 021145Z VRB03KT 9999 FEW012 18/13 Q1018 NOSIG=
200903021130 METAR LMML NIL=
200903021115 METAR LMML 021115Z 02005KT 330V090 9999 FEW010 18/13 Q1018
                        NOSIG=
200903021100 METAR LMML NIL=
200903021045 METAR LMML 021045Z 01006KT 350V050 9999 FEW010 18/13 Q1018
                        NOSIG=
200903021030 METAR LMML NIL=
200903021015 METAR LMML 021015Z 01004KT 9999 FEW010 18/14 Q1018 NOSIG=
200903021000 METAR LMML NIL=
200903020945 METAR LMML 020945Z 36007KT 9999 FEW010 17/15 Q1018 NOSIG=
200903020915 METAR LMML 020915Z 01006KT 330V040 9999 FEW010 SCT250 16/15
                        Q1018 NOSIG=
200903020900 METAR LMML NIL=
200903020845 METAR LMML 020845Z 36006KT 320V020 9999 FEW007 SCT250 15/15
                        Q1018 NOSIG=
200903020830 METAR LMML NIL=
200903020815 METAR LMML 020815Z 34004KT 310V020 4000 BR BKN005 15/14 Q1018
                        BECMG 7000 SCT007=
200903020800 METAR LMML NIL=
200903020745 METAR LMML 020745Z VRB03KT 0500 R14/0627V1334U FG BKN001
                        14/13 Q1018 BECMG 1500 BR SCT003=
200903020730 METAR LMML NIL=
200903020715 METAR LMML 020715Z VRB02KT 0300 R14/0600N FG BKN001 13/13
                        Q1017 BECMG 1500 BR SCT003=
200903020700 METAR LMML NIL=
200903020645 METAR LMML 020645Z VRB03KT 0400 R14/0669V0843D FG SCT001
                        12/12 Q1017 BECMG 1500 BR=
200903020630 METAR LMML NIL=
200903020615 METAR LMML 020615Z VRB01KT 0200 R14/0400N FG SCT001 11/11
                        Q1017 BECMG 1500 BR=
200903020600 METAR LMML NIL=
200903020545 METAR LMML 020545Z VRB03KT 0150 R14/0643V1274U FG SCT001
                        11/10 Q1017 BECMG 1500 BR=
200903020530 METAR LMML NIL=
200903020515 METAR LMML 020515Z 31004KT 0900 R14/1152VP1500N FG FEW003
                        11/11 Q1017 BECMG 2000 BR=
200903020500 METAR LMML NIL=
200903020445 METAR LMML 020445Z VRB02KT 0250 R14/P1500N FG SCT010 SCT100
                        11/10 Q1016 BECMG 1500 BR=
200903020430 METAR LMML NIL=
200903020415 METAR LMML 020415Z VRB03KT 0400 R14/0826VP1500U FG SCT001
                        11/10 Q1016 TEMPO 0200 FG=
200903020400 METAR LMML NIL=
200903020345 METAR LMML 020345Z VRB01KT 0600 R14/P1500N FG FEW090 SCT250
                        11/11 Q1016 TEMPO 0500 FG=
200903020337 LMML 020337Z VRB01KT 0800 R14/P1500N FG FEW090 SCT250 11/11
                        Q1016 TEMPO 0500 FG=
200903020330 METAR LMML NIL=
200903020315 METAR LMML 020315Z VRB03KT 6000 FEW090 SCT250 11/11 Q1016
                        TEMPO 5000=
200903020300 METAR LMML NIL=
200903020245 METAR LMML 020245Z VRB03KT 7000 FEW090 SCT250 12/11 Q1016
                        TEMPO 5000=
200903020230 METAR LMML NIL=
200903020215 METAR LMML 020215Z VRB01KT 8000 FEW042 BKN090 12/12 Q1017
                        TEMPO 5000=
200903020200 METAR LMML NIL=
200903020130 METAR LMML NIL=
200903020115 METAR LMML 020115Z 14004KT CAVOK 12/11 Q1017 NOSIG=
200903020100 METAR LMML NIL=
200903020045 METAR LMML 020045Z 14005KT CAVOK 13/12 Q1017 NOSIG=
200903020030 METAR LMML NIL=
200903020015 METAR LMML 020015Z 14005KT CAVOK 12/11 Q1017 NOSIG=
200903020000 METAR LMML NIL=
200903012345 METAR LMML 012345Z 14005KT CAVOK 12/11 Q1017 NOSIG=
200903012330 METAR LMML NIL=
200903012315 METAR LMML 012315Z 14006KT CAVOK 13/12 Q1017 NOSIG=
200903012300 METAR LMML NIL=
200903012245 METAR LMML 012245Z 14004KT CAVOK 12/11 Q1018 NOSIG=
200903012230 METAR LMML NIL=
200903012215 METAR LMML 012215Z 14005KT CAVOK 13/12 Q1018 TEMPO SHRA SCT015TCU=
200903012200 METAR LMML NIL=
200903012145 METAR LMML 012145Z 13004KT 100V160 CAVOK 13/12 Q1018 TEMPO
                        SHRA SCT015TCU=
200903012130 METAR LMML NIL=
200903012115 METAR LMML 012115Z 15006KT 110V190 CAVOK 14/13 Q1018 TEMPO
                        SHRA SCT015TCU=
200903012100 METAR LMML NIL=
200903012045 METAR LMML 012045Z 15007KT 120V180 CAVOK 14/13 Q1018 NOSIG=
200903012030 METAR LMML NIL=
200903012015 METAR LMML 012015Z 15006KT 120V190 CAVOK 14/12 Q1018 NOSIG=
200903012000 METAR LMML NIL=
200903011945 METAR LMML 011945Z 16005KT 130V190 CAVOK 14/12 Q1018 NOSIG=
200903011930 METAR LMML NIL=
200903011915 METAR LMML 011915Z 17006KT 120V230 CAVOK 14/12 Q1018 NOSIG=
200903011900 METAR LMML NIL=
200903011845 METAR LMML 011845Z 18009KT 150V210 CAVOK 14/12 Q1018 NOSIG=
200903011830 METAR LMML NIL=
200903011815 METAR LMML 011815Z 18010KT CAVOK 14/11 Q1018 NOSIG=
200903011800 METAR LMML NIL=
200903011745 METAR LMML 011745Z 19009KT CAVOK 14/12 Q1018 NOSIG=
200903011730 METAR LMML NIL=
200903011715 METAR LMML 011715Z 18008KT CAVOK 14/12 Q1017 NOSIG=
200903011700 METAR LMML NIL=
200903011645 METAR LMML 011645Z 18010KT 150V220 9000 FEW009 SCT090 14/12
                        Q1017 NOSIG=
200903011630 METAR LMML NIL=
200903011615 METAR LMML 011615Z 18011KT 150V210 9000 FEW009 SCT100 14/13
                        Q1017 NOSIG=
200903011600 METAR LMML NIL=
200903011545 METAR LMML 011545Z 17012KT 9000 FEW009 SCT100 BKN250 15/13
                        Q1017 NOSIG=
200903011530 METAR LMML NIL=
200903011515 METAR LMML 011515Z 16011KT 9000 FEW010 BKN100 BKN250 15/13
                        Q1017 NOSIG=
200903011500 METAR LMML NIL=
200903011445 METAR LMML 011445Z 16013KT 9999 FEW009 BKN100 BKN250 16/13
                        Q1017 NOSIG=
200903011430 METAR LMML NIL=
200903011415 METAR LMML 011415Z 17011KT 130V220 9999 FEW011 SCT100 BKN250
                        16/13 Q1017 NOSIG=
200903011400 METAR LMML NIL=
200903011345 METAR LMML 011345Z 17010KT 140V210 9999 SCT011 SCT100 16/13
                        Q1017 TEMPO BKN011=
200903011330 METAR LMML NIL=
200903011315 METAR LMML 011315Z 16012KT 130V200 9999 SCT011 BKN090 16/13
                        Q1018 TEMPO BKN011=
200903011300 METAR LMML NIL=
200903011245 METAR LMML 011245Z 17013KT 130V220 9999 SCT012 BKN090 16/13
                        Q1018 TEMPO BKN012=
200903011230 METAR LMML NIL=
200903011215 METAR LMML 011215Z 17012KT 140V200 9999 BKN012 BKN090 15/13
                        Q1018 NOSIG=
200903011200 METAR LMML NIL=
200903011145 METAR LMML 011145Z 16014KT 9999 FEW013 BKN110 BKN250 15/13
                        Q1019 TEMPO BKN013=
200903011130 METAR LMML NIL=
200903011115 METAR LMML 011115Z 17012KT 9999 SCT014 SCT110 BKN250 15/13
                        Q1019 NOSIG=
200903011100 METAR LMML NIL=
200903011045 METAR LMML 011045Z 16013KT 9999 FEW015 SCT120 BKN250 15/13
                        Q1019 NOSIG=
200903011030 METAR LMML NIL=
200903011015 METAR LMML 011015Z 16014KT 130V190 9999 FEW015 SCT120 BKN250
                        15/13 Q1019 NOSIG=
200903011000 METAR LMML NIL=
200903010945 METAR LMML 010945Z 16014KT 9999 FEW015 SCT120 BKN250 15/12
                        Q1020 NOSIG=
200903010930 METAR LMML NIL=
200903010915 METAR LMML 010915Z 16014KT 130V200 9999 FEW016 SCT120 OVC250
                        14/12 Q1020 NOSIG=
200903010900 METAR LMML NIL=
200903010845 METAR LMML 010845Z 16013KT 9999 FEW016 SCT120 BKN250 14/12
                        Q1020 NOSIG=
200903010830 METAR LMML NIL=
200903010815 METAR LMML 010815Z 16013KT 9999 FEW016 BKN120 BKN250 14/12
                        Q1021 NOSIG=
200903010800 METAR LMML NIL=
200903010745 METAR LMML 010745Z 15009KT 120V180 9999 FEW017 BKN125 BKN250
                        14/11 Q1021 NOSIG=
200903010730 METAR LMML NIL=
200903010715 METAR LMML 010715Z 16009KT 9999 FEW017 BKN120 BKN250 14/11
                        Q1021 NOSIG=
200903010700 METAR LMML NIL=
200903010645 METAR LMML 010645Z 17009KT 9999 FEW017 BKN120 BKN250 13/11
                        Q1020 NOSIG=
200903010630 METAR LMML NIL=
200903010615 METAR LMML 010615Z 17007KT 120V200 9999 FEW017 BKN125 13/11
                        Q1021 NOSIG=
200903010600 METAR LMML NIL=
200903010545 METAR LMML 010545Z 16007KT 140V200 9999 FEW018 BKN120 13/10
                        Q1021 NOSIG=
200903010500 METAR LMML NIL=
200903010445 LMML 010445Z 16007KT 120V200 9999 FEW019 BKN120 13/10 Q1021
                        NOSIG=
200903010430 METAR LMML NIL=
200903010415 METAR LMML 010415Z 16006KT 130V190 CAVOK 13/10 Q1021 NOSIG=
200903010400 METAR LMML NIL=
200903010345 METAR LMML 010345Z 14005KT 100V180 CAVOK 13/10 Q1021 NOSIG=
200903010330 METAR LMML NIL=
200903010315 METAR LMML 010315Z 17007KT 140V210 CAVOK 13/10 Q1021 NOSIG=
200903010300 METAR LMML NIL=
200903010230 METAR LMML NIL=
200903010215 METAR LMML 010215Z 17007KT 140V210 CAVOK 12/09 Q1022 NOSIG=
200903010200 METAR LMML NIL=
200903010145 METAR LMML 010145Z 17007KT CAVOK 12/09 Q1022 NOSIG=
200903010130 METAR LMML NIL=
200903010115 METAR LMML 010115Z 16006KT 130V190 CAVOK 12/10 Q1022 NOSIG=
200903010100 METAR LMML NIL=
200903010045 METAR LMML 010045Z 16007KT 140V200 CAVOK 12/09 Q1022 NOSIG=
200903010030 METAR LMML NIL=
200903010015 METAR LMML 010015Z 16007KT 9999 FEW018 BKN250 13/09 Q1022
                        NOSIG=
200903010000 METAR LMML NIL=

###################################
#  short TAF from LMML
###################################
200903312300 TAF LMML 312300Z 0100/0109 07008KT CAVOK
                      TEMPO 0100/0109 9000 FEW005
                      PROB40 TEMPO 0100/0107 5000 BR BKN005=
200903312000 TAF LMML 312000Z 3121/0106 07008KT CAVOK
                      TEMPO 3121/0106 FEW005
                      PROB30 TEMPO 3123/0106 8000 BKN005=
200903311700 TAF LMML 311700Z 3118/0103 09005KT CAVOK
                      BECMG 3118/3121 9999 SCT012
                      PROB40 TEMPO 3118/0103 9000 BKN005
                      PROB30 TEMPO 3122/0103 5000 BR BKN003=
200903311400 TAF LMML 311400Z 3115/3124 16010KT CAVOK
                      BECMG 3115/3118 09005KT
                      PROB30 TEMPO 3116/3124 9000 SCT005=
200903311100 TAF LMML 311100Z 3112/3121 16010KT CAVOK
                      BECMG 3115/3118 10005KT
                      PROB30 TEMPO 3116/3121 9000 SCT005=
200903310800 TAF LMML 310800Z 3109/3118 16014KT CAVOK
                      BECMG 3115/3118 10005KT
                      PROB30 TEMPO 3116/3118 9000 FEW005=
200903310500 TAF LMML 310500Z 3106/3115 16014KT 9999 FEW030 BKN130
                      TEMPO 3106/3110 15020G34KT 8000 RA
                      BECMG 3111/3114 10011KT CAVOK=
200903310200 TAF LMML 310200Z 3103/3112 13012KT 9999 FEW030 BKN130
                      TEMPO 3103/3106 15015G25KT 8000 RA
                      PROB30 TEMPO 3103/3106 5000 TSRA BKN010 BKN025
                       BKN070CB=
200903302000 TAF LMML 302000Z 3021/3106 16013KT 9999 FEW035 SCT080 BKN120
                      TEMPO 3021/3106 15016G26KT 8000 RA
                      PROB30 TEMPO 3021/3104 5000 TSRA BKN010 BKN025
                       BKN060CB
                      BECMG 3021/3024 10011KT=
200903301700 TAF LMML 301700Z 3018/3103 13006KT CAVOK
                      PROB30 TEMPO 3021/3103 8000 TSRA FEW007 BKN080CB=
200903301400 TAF LMML 301400Z 3015/3024 13010KT CAVOK
                      PROB30 TEMPO 3015/3024 9000=
200903301100 TAF LMML 301100Z 3012/3021 09008KT CAVOK
                      PROB30 TEMPO 3012/3021 9000=
200903300800 TAF LMML 300800Z 3009/3018 07010KT 9000 NSC
                      PROB30 TEMPO 3009/3018 FEW005=
200903300500 TAF LMML 300500Z 3006/3015 05008KT 9999 FEW006 BKN140 OVC250
                      TEMPO 3006/3015 8000 RA=
200903300200 TAF LMML 300200Z 3003/3012 14005KT 9999 FEW004 BKN130 OVC250
                      PROB30 TEMPO 3003/3006 5000 BR=
200903292300 TAF LMML 292300Z 3000/3009 14005KT 9999 FEW004 BKN150 OVC250
                      PROB30 TEMPO 3000/3006 5000 BR=
200903292000 TAF LMML 292000Z 2921/3006 12008KT 9999 FEW003 BKN150 OVC200
                      PROB30=
200903291700 TAF LMML 291700Z 2918/3003 19007KT 9000 NSC
                      TEMPO 2918/3003 FEW012 BKN130
                      PROB30 TEMPO 2918/3003 5000 BR BKN007 BKN100=
200903291400 TAF LMML 291400Z 2915/2924 19008KT 9000 NSC
                      TEMPO 2915/2924 FEW011 SCT120
                      PROB30 TEMPO 2915/2924 5000 BR BKN007 BKN100=
200903291100 TAF LMML 291100Z 2912/2921 19011KT 9000 NSC
                      TEMPO 2912/2921 9999 FEW012 SCT120
                      PROB30 TEMPO 2915/2921 5000 BKN007 BKN100
                       BECMG 2915/2918 12006KT=
200903290800 TAF LMML 290800Z 2909/2918 20010KT 9000 NSC
                      TEMPO 2909/2918 9999 FEW012 SCT120
                      PROB30 TEMPO 2909/2918 5000 BKN007 BKN100=
200903290500 TAF LMML 290500Z 2906/2915 17013KT CAVOK
                      PROB30 TEMPO 2906/2915 8000 FEW008=
200903290200 TAF LMML 290200Z 2903/2912 17010KT CAVOK
                      PROB30 TEMPO 2903/2906 5000 HZ SCT008=
200903282300 TAF LMML 282300Z 2900/2909 14013KT CAVOK
                      PROB40 TEMPO 2900/2906 6000 HZ SCT008=
200903282000 TAF LMML 282000Z 2821/2906 14015KT 8000 SCT120
                      PROB30 TEMPO 2821/2906 5000 HZ BKN005=
200903281700 TAF LMML 281700Z 2818/2903 14012KT 8000 SCT007 SCT150 BKN250
                      PROB30 TEMPO 2818/2903 6000 BKN005=
200903281400 TAF LMML 281400Z 2815/2824 15015KT 9000 FEW008 SCT150
                      BECMG 2817/2820 6000 BKN005=
200903281100 TAF LMML 281100Z 2812/2821 14015KT 9999 SCT008 SCT100
                      BECMG 2815/2818 6000 BKN005=
200903280800 TAF LMML 280800Z 2809/2818 13014KT 9999 FEW006=
200903280500 TAF LMML 280500Z 2806/2815 14015KT CAVOK
                      PROB30 TEMPO 2806/2812 9999 FEW006=
200903280200 TAF LMML 280200Z 2803/2812 15013KT CAVOK=
200903272300 TAF LMML 272300Z 2800/2809 15010KT CAVOK
                      PROB30 TEMPO 2800/2804 9999 FEW015=
200903272000 TAF LMML 272000Z 2721/2806 14010KT CAVOK
                      PROB40 TEMPO 2721/2806 9999 FEW015=
200903271700 TAF LMML 271700Z 2718/2803 16007KT CAVOK
                      TEMPO 2718/2721 9999 FEW022=
200903271400 TAF LMML 271400Z 2715/2724 16006KT CAVOK
                      TEMPO 2715/2718 9999 FEW022=
200903271100 TAF LMML 271100Z 2712/2721 22005KT 9999 FEW024
                      TEMPO 2712/2721 CAVOK=
200903270800 TAF LMML 270800Z 2709/2718 VRB03KT CAVOK
                      TEMPO 2709/2718 9999 FEW015
                      BECMG 2715/2718 16010KT=
200903270500 TAF LMML 270500Z 2706/2715 27006KT 9999 FEW015
                      TEMPO 2712/2715 CAVOK=
200903270200 TAF LMML 270200Z 2703/2712 29005KT 9999 FEW015
                      TEMPO 2703/2706 CAVOK
                      PROB30 TEMPO 2704/2707 8000 MIFG=
200903262300 TAF LMML 262300Z 2700/2709 30007KT 9999 FEW015
                      TEMPO 2700/2706 CAVOK=
200903262000 TAF LMML 262000Z 2621/2706 29009KT 9999 FEW020=
200903261700 TAF LMML 261700Z 2618/2703 29012KT 9999 SCT025=
200903261400 TAF LMML 261400Z 2615/2624 28018KT 999 SCT025=
200903261100 LMML 261100Z 2612/2621 28016G26KT 9999 SCT025=
200903260800 TAF LMML 260800Z 2609/2618 28015G25KT 9999 SCT025=
200903260500 TAF LMML 260500Z 2606/2615 27015KT 9999 SCT025=
200903260200 LMML 260200Z 2603/2612 28014KT 9999 SCT025=
200903252300 TAF LMML 252300Z 2600/2609 29012KT 9999 SCT030=
200903252100 LMML 252100Z 2521/2606 28013KT 9999 SCT030=
200903252000 LMML 252000Z 2512/2606 28013KT 9999 SCT030=
200903251700 TAF LMML 251700Z 2518/2603 28016KT 9999 SCT030
                      PROB30 TEMPO 2521/2603 8000 SHRA=
200903251400 TAF LMML 251400Z 2515/2524 29020KT 9999 FEW035
                      TEMPO 2515/2517 28022G32KT
                      PROB30 TEMPO 2521/2524 8000 SHRA=
200903251100 TAF LMML 251100Z 2512/2521 29020KT 9999 SCT035
                      TEMPO 2512/2516 29022G32KT=
200903250800 TAF LMML 250800Z 2509/2518 30019KT 9999 SCT030
                      PROB30 TEMPO 2509/2516 29020G30KT=
200903250500 TAF LMML 250500Z 2506/2515 31020KT 9999 SCT030=
200903250200 TAF LMML 250200Z 2503/2512 24012KT CAVOK
                      PROB30 TEMPO 2503/2512 SCT030
                      BECMG 2506/2509 31020KT=
200903242300 LMML 242300 2500/2509 24010KT CAVOK
                      PROB30 TEMPO 2503/2509 FEW030
                      BECMG 2505/25008 31020KT=
200903242000 TAF LMML 242000Z 2421/2506 23010KT CAVOK
                      PROB30 TEMPO 2500/2506 FEW030
                      BECMG 2503/2506 31018KT=
200903241700 TAF LMML 241700Z 2418/2503 24015KT CAVOK
                      BECMG 2500/2503 30018KT=
200903241400 TAF LMML 241400Z 2415/2424 25015KT CAVOK=
200903241100 TAF LMML 241100Z 2412/2421 26015KT 9999 SCT025
                      PROB40 TEMPO 2415/2421 CAVOK=
200903240800 TAF LMML 240800Z 2409/2418 26015KT 9999 SCT025
                      PROB40 TEMPO 2415/2418 CAVOK=
200903240500 TAF LMML 240500Z 2406/2415 27015KT 9999 FEW030=
200903240200 TAF LMML 240200Z 2403/2412 27015KT 9999 FEW030=
200903232300 TAF LMML 232300Z 2400/2409 29013KT 9999 FEW030=
200903232000 TAF LMML 232000Z 2321/2406 28013KT 9999 FEW030=
200903231700 TAF LMML 231700Z 2318/2403 28012KT 9999 FEW030=
200903231400 TAF LMML 231400Z 2315/2324 29015KT 9999 SCT035=
200903231100 TAF LMML 231100Z 2312/2321 31012KT 9999 SCT035=
200903230800 TAF LMML 230800Z 2309/2318 32013KT 9999 FEW030=
200903230500 TAF LMML 230500Z 2306/2315 31015KT 9999 FEW035=
200903230200 LMML 230200Z 2303/2312 32015KT 9999 FEW030=
200903222300 TAF LMML 222300Z 2300/2309 32015KT 9999 FEW030=
200903222000 TAF LMML 222000Z 2221/2306 32015KT 9999 SCT030
                      PROB30 TEMPO 2221/2303 8000 SHRA BKN020TCU=
200903221700 TAF LMML 221700Z 2218/2303 30015KT 9999 SCT030
                      TEMPO 2215/2303 7000 SHRA BKN020TCU
                      PROB40 TEMPO 2215/2221 5000 TSGR BKN018CB=
200903221100 TAF LMML 221100Z 2212/2221 30015G25KT 9999 SCT030
                      TEMPO 2212/2221 7000 SHRA BKN020TCU
                      PROB30 TEMPO 2212/2221 5000 TSRA BKN018CB=
200903220800 TAF LMML 220800Z 2209/2218 31015G25KT 9999 SCT030
                      TEMPO 2209/2218 7000 SHRA BKN020TCU
                      PROB30 TEMPO 2212/2218 5000 TSRA BKN018CB=
200903220500 TAF LMML 220500Z 2206/2215 31015G25KT 9999 SCT030
                      TEMPO 2206/2215 8000 SHRA BKN025TCU=
200903220200 TAF LMML 220200Z 2203/2212 30014G24KT 9999 SCT025
                      TEMPO 2203/2212 8000 SHRA BKN020TCU=
200903212300 TAF LMML 212300Z 2200/2209 30015/25KT 9999 FEW025
                      PROB30 TEMPO 2200/2209 8000 SHRA BKN020TCU=
200903212030 LMML 212030Z 2121/2206 30015G25KT 9999 FEW025
                      TEMPO 2121/2206 8000 SHRA BKN020TCU=
200903212000 LMML 212000Z 2121/2106 30015G25KT 9999 FEW025
                      TEMPO 2121/2106 8000 SHRA BKN020TCU=
200903211700 TAF LMML 211700Z 2118/2203 31025G35KT 9999 SCT020
                      PROB30 TEMPO 2118/2203 8000 SHRA
                      PROB30 TEMPO 2118/2203 5000 SHGS BKN030TCU=
200903211400 TAF LMML 211400Z 2115/2124 30025G35KT 9999 SCT035
                      PROB30 TEMPO 2115/2124 9000 SHRA=
200903211100 TAF LMML 211100Z 2112/2121 30025G35KT 9999 SCT028
                      PROB30 TEMPO 2112/2121 8000 SHRA=
200903210800 TAF LMML 210800Z 2109/2118 29025G35KT 9999 SCT030
                      PROB30 TEMPO 2109/2118 8000 SHRA=
200903210500 TAF LMML 210500Z 2106/2115 31020KT 9999 SCT030
                      PROB30 TEMPO 2106/2115 8000 SHRA=
200903210200 TAF LMML 210200Z 2103/2112 29010KT 9999 SCT025
                      PROB30 TEMPO 2103/2112 8000 SHRA BKN015
                      BECMG 2106/2109 31020KT=
200903202300 TAF LMML 202300Z 2100/2109 29010KT 9999 SCT025
                      PROB30 TEMPO 2100/2109 8000 SHRA BKN015
                      BECMG 2106/2109 31020KT=
200903202000 TAF LMML 202000Z 2021/2106 28008KT 9999 SCT018
                      PROB30 TEMPO 2021/2106 8000 SHRA BKN015
                      BECMG 2103/2106 30018KT=
200903201700 LMML 201700Z 2018/2103 26013KT 9999 SCT018
                      PROB30 TEMPO 2018/2003 8000 SHRA BKN015
                      BECMG 2100/2103 28015G25KT=
200903201400 LMML 201400Z 2015/2024 25015G25KT 9999 SCT018
                      PROB30 TEMPO 2015/2024 8000 SHRA BKN015=
200903201100 TAF LMML 201100Z 2012/2021 23015KT 9999 SCT015 BKN100
                      TEMPO 2012/2021 8000 SHRA BKN011=
200903200800 LMML 200800Z 2009/2018 20016KT 9999 SCT020 BKN100
                      BECMG 2012/2015 26012KT
                      TEMPO 0918 9000 RA BKN015=
200903200500 LMML 200500Z 2006/2015 23018KT 9999 SCT020 SCT045
                      TEMPO 2006/2012 24020G30KT
                      PROB30 TEMPO 2012/2015 9000 SHRA=
200903200200 TAF LMML 200200Z 2003/2012 20015G25KT 9999 SCT020 SCT045=
200903192300 TAF LMML 192300Z 2000/2009 20007KT 9999 SCT020
                      BECMG 2002/2005 20017G27KT=
200903192000 TAF LMML 192000Z 1921/2006 20007KT 9999 FEW020
                      BECMG 2002/2005 20017G27KT=
200903191700 TAF LMML 191700Z 1918/2003 19010KT 9999 FEW025
                      PROB30 TEMPO 1922/2003 BKN015=
200903191400 TAF LMML 191400Z 1915/1924 18010KT 9999 SCT025=
200903191100 TAF LMML 191100Z 1912/1921 14010KT 9999 SCT025=
200903190800 TAF LMML 190800Z 1908/1918 14007KT 9999 FEW025=
200903190500 TAF LMML 190500Z 1906/1915 VRB03KT 9999 SCT025
                      BECMG 1906/1909 10006KT
                      BECMG 1912/1915 16010KT=
200903190200 TAF LMML 190200Z 1903/1912 VRB03KT CAVOK
                      BECMG 1903/1906 9999 FEW025
                      BECMG 1908/1911 14007KT=
200903182300 TAF LMML 182300Z 1900/1909 VRB03KT CAVOK
                      PROB30 TEMPO 1900/1905 9999 FEW025
                      BECMG 1905/1908 09007KT 9999 SCT025=
200903182000 TAF LMML 182000Z 1821/1906 VRB03KT CAVOK
                      PROB30 TEMPO 1900/1906 9999 FEW030=
200903181700 TAF LMML 181700Z 1818/1903 VRB03KT 9999 FEW030
                      PROB40 TEMPO 1818/1903 CAVOK=
200903181400 TAF LMML 181400Z 1815/1824 06006KT 9999 SCT030
                      PROB40 TEMPO 1815/1824 CAVOK=
200903181100 TAF LMML 181100Z 1812/1821 VRB03KT 9999 SCT030
                      TEMPO 1812/1821 CAVOK=
200903180800 TAF LMML 180800Z 1809/1818 VRB03KT 9999 FEW030
                      TEMPO 1809/1818 CAVOK=
200903180500 TAF LMML 180500Z 1806/1815 04005KT 9999 SCT020 SCT200=
200903180200 TAF LMML 180200Z 1803/1812 06005KT 9999 SCT015 BKN035=
200903172300 LMML 172300Z 1800/1809 05007KT 9999 SCT018=
200903172000 LMML 172000Z 1721/1806 06009KT 9999 SCT018=
200903171700 TAF LMML 171700Z 1718/1803 06012KT 9999 SCT018
                      PROB30 TEMPO 1720/1803 9000 BKN013=
200903171400 TAF LMML 171400Z 1715/1724 06015KT 9999 SCT020
                      PROB30 TEMPO 1717/1724 BKN015=
200903171100 TAF LMML 171100Z 1712/1721 06015KT 9999 SCT020
                      PROB30 TEMPO 1717/1721 BKN015=
200903170800 TAF LMML 170800Z 1709/1718 07014KT 9999 SCT020
                      PROB30 TEMPO 1709/1712 BKN015=
200903170500 TAF LMML 170500Z 1706/1715 08015KT 9999 SCT020=
200903170200 TAF LMML 170200Z 1703/1712 08015KT 9999 SCT018 PRB30
                      TEMPO 1703/1708 8000 SHRA BKN015 BKN030=
200903162300 TAF LMML 162300Z 1700/1709 09010KT 9999 SCT018
                      PROB30 TEMPO 1700/1708 8000 SHRA BKN015 BKN030=
200903162000 TAF LMML 162000Z 1621/1706 08010KT 9999 SCT018
                      PROB30 TEMPO 1621/1706 8000 RA BKN015 BKN030=
200903161700 TAF LMML 161700Z 1618/1703 07010KT 9999 SCT015
                      PROB40 TEMPO 1618/1703 8000 BKN013=
200903161400 LMML 161400Z 1615/1624 08010KT 9999 SCT013
                      TEMPO 1615/1624 8000 BKN011=
200903161200 LMML 161200Z 1612/1621 13008KT 9999 SCT013
                      PROB30 TEMPO 1612/1621 BKN012
                      BECMG 1615/1618 07010KT=
200903161100 TAF LMML 161100Z 1615/1621 13008KT 9999 SCT013
                      PROB30 TEMPO 1615/1621 BKN012
                      BECMG 1615/1618 07010KT=
200903160800 LMML 160800Z 1609/1618 14008KT 9999 SCT015
                      BECMG 1612/1615 07010KT=
200903160500 TAF LMML 160500Z 1606/1615 VRB03KT 9999 FEW015
                      TEMPO 1606/1615 9000 BKN011
                      BECMG 1612/1615 09010KT=
200903160200 TAF LMML 160200Z 1603/1612 15005KT 9999 FEW014
                      TEMPO 1603/1612 CAVOK
                      TEMPO 1603/1612 9000 BKN012
                      PROB30 TEMPO 1603/1606 4000 MIFG BKN007=
200903152300 TAF LMML 152300Z 1600/1609 15005KT 9999 FEW012
                      TEMPO 1600/1609 CAVOK
                      TEMPO 1600/1609 9000 BKN012
                      PROB30 TEMPO 1600/1606 4000 MIFG BKN007=
200903152000 TAF LMML 152000Z 1521/1606 VRB03KT 9999 FEW015
                      TEMPO 1521/1606 CAVOK
                      TEMPO 1521/1606 9000 BKN012
                      PROB30 TEMPO 1600/1606 4000 MIFG BKN007=
200903151700 TAF LMML 151700Z 1518/1603 15005KT 9999 FEW016
                      TEMPO 1520/1603 9000 BKN013
                      PROB30 TEMPO 1524/1603 4000 MIFG BKN007=
200903151400 TAF LMML 151400Z 1515/1524 16005KT 9999 FEW020
                      PROB30 TEMPO 1521/1524 8000=
200903151100 TAF LMML 151100Z 1512/1521 15005KT 9999 FEW020=
200903150800 LMML 180800Z 1509/1518 14005KT 9999 SCT020=
200903150745 TAF LMML 180800Z 1509/1518 14005KT 9999 SCT020=
200903150742 TAF LMML 180800Z 1509/1518 14005KT 9999 SCT020=
200903150500 TAF LMML 150500Z 1506/1515 14005KT 9999 SCT015
                      PROB30 TEMPO 1506/1508 BKN015=
200903150200 TAF LMML 150200Z 1503/1512 16005KT 9999 SCT015
                      TEMPO 1503/1507 8000 BKN012
                      PROB30 TEMPO 1503/1506 5000 BR BKN005=
200903142300 TAF LMML 142300Z 1500/1509 14004KT 9999 SCT015
                      TEMPO 1500/1507 8000 BKN012
                      PROB30 TEMPO 1500/1506 2000 BR BKN004=
200903142000 TAF LMML 142000Z 1421/1506 13003KT 9999 FEW015
                      TEMPO 1421/1506 8000 BKN012
                      PROB30 TEMPO 1421/1506 2000 BR BKN004=
200903141700 TAF LMML 141700Z 1418/1503 VRB03KT 9999 FEW020
                      TEMPO 1418/1503 CAVOK
                      PROB40 TEMPO 1420/1503 5000 BR BKN010
                      PROB30 TEMPO 1500/1503 1000 BCFG BKN003=
200903141400 TAF LMML 141400Z 1415/1424 VRB03KT 9999 FEW020
                      TEMPO 1415/1424 CAVOK
                      PROB30 TEMPO 1420/1424 5000 BR BKN010=
200903141100 TAF LMML 141100Z 1412/1421 VRB03KT 9999 BKN020
                      TEMPO 1412/1421 CAVOK=
200903140800 TAF LMML 140800Z 1409/1418 VRB03KT 9999 FEW018
                      TEMPO 1409/1418 CAVOK=
200903140500 TAF LMML 140500Z 1406/1415 27006KT CAVOK=
200903140200 TAF LMML 140200Z 1403/1412 25006KT CAVOK
                      PROB30 TEMPO 1403/1406 8000 FEW011
                      BECMG 1408/1411 9999 FEW025=
200903132300 TAF LMML 132300Z 1400/1409 26009KT CAVOK
                      PROB30 TEMPO 1402/1406 7000 FEW011=
200903132000 TAF LMML 132000Z 1321/1406 27009KT 9999 SCT012 SCT200=
200903131700 TAF LMML 131700Z 1318/1403 28009KT CAVOK
                      TEMPO 1318/1403 9999 FEW020
                      PROB30 TEMPO 1321/1403 9000 SCT013=
200903131400 TAF LMML 131400Z 1315/1324 30009KT CAVOK
                      TEMPO 1315/1324 9999 FEW025
                      PROB30 TEMPO 1318/1324 9999 SCT015=
200903131100 TAF LMML 131100Z 1312/1321 31008KT 9999 FEW025=
200903130800 TAF LMML 130800Z 1309/1318 30008KT 9999 FEW020=
200903130500 TAF LMML 130500Z 1306/1315 30008KT 9999 FEW035
                      TEMPO 1306/1315 CAVOK=
200903130200 TAF LMML 130200Z 1303/1312 32006KT 9999 FEW035=
200903122300 TAF LMML 122300Z 1300/1309 32005KT 9999 FEW035=
200903122000 TAF LMML 122000Z 1221/1306 02005KT 9999 FEW030=
200903121700 TAF LMML 121700Z 1218/1303 32010KT 9999 FEW025=
200903121400 TAF LMML 121400Z 1215/1224 33015KT 9999 FEW025
                      BECMG 1221/1224 33005KT=
200903121100 TAF LMML 121100Z 1212/1221 32017KT 9999 FEW025
                      BECMG 1218/1221 35007KT=
200903120800 TAF LMML 120800Z 1209/1218 31015KT 9999 SCT020 SCT250=
200903120500 TAF LMML 120500Z 1206/1215 31015KT 9999 SCT022=
200903120200 LMML 120200Z 1203/1212 31016KT 9999 SCT018
                      PROB30 TEMPO 1203/1209 BKN015=
200903112000 TAF LMML 112000Z 1121/1206 29012KT 9999 SCT020
                      PROB40 TEMPO 1121/1206 BKN012=
200903111700 TAF LMML 111700Z 1118/1203 28012KT 9999 SCT020
                      PROB40 TEMPO 1121/1203 BKN012=
200903111600 LMML 111600Z 1118/1203 28012KT 9999 SCT020
                      PROB40 TEMPO 1121/1203 BKN012=
200903111400 TAF LMML 111400Z 1115/1124 28015KT 9999 SCT025
                      BECMG 1120/1123 28005KT=
200903111100 TAF LMML 111100Z 1112/1121 28013KT 9999 SCT025
                      TEMPO 1112/1117 28018KT=
200903110800 TAF LMML 110800Z 1109/1118 28013KT 9999 SCT025
                      PROB30 TEMPO 1111/1118 29018KT=
200903110500 TAF LMML 110500Z 1106/1115 29013KT 9999 SCT025
                      PROB40 TEMPO 1109/1115 29016G26KT=
200903110200 TAF LMML 110200Z 1103/1112 28006KT CAVOK
                      BECMG 1103/1105 9999 SCT015
                      PROB30 TEMPO 1103/1106 7000 BKN010
                      BECMG 1106/1109 28016KT=
200903102300 TAF LMML 102300Z 1100/1109 28005KT 9999 FEW020
                      PROB30 TEMPO 1100/1106 7000
                      BECMG 1106/1109 28015KT=
200903102000 TAF LMML 102000Z 1021/1106 28006KT 9999 FEW015
                      PROB30 TEMPO 1021/1106 8000=
200903101700 TAF LMML 101700Z 1018/1103 VRB03KT CAVOK
                      TEMPO 1018/1103 9999 FEW015
                      PROB30 TEMPO 1021/1103 5000 BR
                      BECMG 1100/1103 29010KT=
200903101100 TAF LMML 101100Z 1012/1021 32008KT CAVOK
                      TEMPO 1012/1021 9999 FEW018=
200903100800 TAF LMML 100800Z 1009/1018 32010KT CAVOK
                      TEMPO 1009/1018 9999 FEW018=
200903100500 TAF LMML 100500Z 1006/1015 31011KT 9999 FEW020=
200903100200 TAF LMML 100200Z 1003/1012 30013KT 9999 FEW020=
200903092300 TAF LMML 092300Z 1000/1009 30010KT 9999 FEW020=
200903092000 TAF LMML 092000Z 0921/1006 30010KT 9999 FEW022=
200903091700 TAF LMML 091700Z 0918/1003 28014KT 9999 SCT020
                      TEMPO 0918/0924 BKN015
                      PROB30 TEMPO 0922/1002 29015G25KT=
200903091400 TAF LMML 091400Z 0915/0924 28018KT 9999 SCT025
                      PROB30 TEMPO 0917/0924 BKN015=
200903091100 TAF LMML 091100Z 0912/0921 28017KT 9999 SCT025
                      TEMPO 0912/0917 28016G26KT
                      PROB30 TEMPO 0915/0921 BKN015=
200903090800 TAF LMML 090800Z 0909/0918 28015KT 9999 SCT025
                      PROB30 TEMPO 0915/0918 BKN015=
200903090500 TAF LMML 090500Z 0906/0915 29018KT 9999 SCT020=
200903090200 TAF LMML 090200Z 0903/0912 29015KT 9999 FEW018
                      PROB30 TEMPO 0903/0908 BKN015=
200903082300 TAF LMML 082300Z 0900/0909 29015KT 9999 FEW015
                      PROB30 TEMPO 0900/0906 BKN015=
200903082000 TAF LMML 082000Z 0821/0906 29015KT 9999 FEW014
                      PROB40 TEMPO 0821/0906 BKN012=
200903081700 TAF LMML 081700Z 0818/0903 30015KT 9999 FEW020=
200903081400 TAF LMML 081400Z 0815/0824 31015KT 9999 FEW020=
200903081100 TAF LMML 081100Z 0812/0821 31015KT 9999 SCT022=
200903080800 TAF LMML 080800Z 0809/0818 31012KT 9999 SCT020
                      TEMPO 0809/0812 7000 SHRA BKN015=
200903080500 TAF LMML 080500Z 0806/0815 32015KT 9999 FEW020
                      PROB40 TEMPO 0806/0815 CAVOK=
200903080200 TAF LMML 080200Z 0803/0812 30015KT 9999 SCT028=
200903072300 TAF LMML 072300Z 0800/0809 30013KT 9999 SCT028=
200903072000 TAF LMML 072000Z 0721/0806 29015KT 9999 SCT028
                      PROB30 TEMPO 0721/0806 9000 SHRA=
200903071700 TAF LMML 071700Z 0718/0803 28013KT 9999 SCT025
                      PROB30 TEMPO 0718/0722 8000 SHRA BKN015=
200903071400 TAF LMML 071400Z 0715/0724 28015KT 9999 SCT030
                      PROB30 TEMPO 0715/0718 8000 SHRA BKN015KT=
200903071100 TAF LMML 071100Z 0712/0721 30018KT 9999 SCT035
                      PROB30 TEMPO 0712/0718 8000 SHRA=
200903070800 TAF LMML 070800Z 0709/0718 30020KT 9999 SCT035
                      PROB30 TEMPO 0709/0718 8000 SHRA=
200903070500 TAF LMML 070500Z 0706/0715 30020G32KT 9999 SCT020
                      TEMPO 0706/0712 31025G42KT 6000 SHRA BKN015
                       PROB30
                      TEMPO 0706/0710 3000 TSGR BKN015CB=
200903070200 TAF LMML 070200Z 0703/0712 28022G32KT 9999 SCT020
                      TEMPO 0703/0709 7000 SHRA BKN015
                      PROB30 TEMPO 0703/0708 2000 TSRA BKN015CB
                       BECMG 0708/0711 28020KT=
200903062300 TAF LMML 062300Z 0700/0709 26025G37KT 9999 SCT025
                      TEMPO 0700/0709 7000 SHRA BKN015
                      PROB30 TEMPO 0700/0708 27035G45KT 2000 TSGR
                       BKN015CB
                      BECMG 0700/0703 29023G35KT=
200903062100 TAF LMML 062100Z 0621/0706 26022G34KT 9999 SCT030 SCT050
                      TEMPO 0621/0706 7000 SHRA BKN015 BKN040
                      PROB40 TEMPO 0621/0706 2000 TSGR BKN015CB
                       BKN040
                      BECMG 0700/0703 30020G30KT
                      BECMG 0704/0706 27015G25KT=
200903061700 TAF LMML 061700Z 0618/0703 26022G35KT 9999 BKN030
                      TEMPO 0618/0703 8000 SHRA BKN018TCU
                      PROB40 TEMPO 0618/0703 5000 TSGR BKN015CB
                       BECMG 0600/0703 30020G35KT=
200903061400 TAF LMML 061400Z 0615/0624 26022G35KT 9999 SCT025TCU
                      TEMPO 0615/0624 8000 SHRA
                      PROB40 TEMPO 0615/0624 6000 TSGR BKN015CB=
200903061100 TAF LMML 061100Z 0612/0621 26022G35KT 9999 SCT030TCU
                      TEMPO 0612/0621 8000 SHRA
                      PROB30 TEMPO 0612/0621 8000 SHGR BKN015CB=
200903060800 TAF LMML 060800Z 0609/0618 27020G35KT 9999 SCT020
                      TEMPO 0609/0618 6000 SHRA BKN 015 BKN100=
200903060500 TAF LMML 060500Z 0606/0615 26020G35KT 9999 SCT025
                      TEMPO 0606/0615 6000 SHRA BKN015 BKN100=
200903060200 TAF LMML 060200Z 0603/0612 26026G37KT 9999 SCT025
                      TEMPO 0603/0612 7000 SHRA BKN 015CB
                      TEMPO 0603/0606 3000 TSGR BKN015CB=
200903052300 TAF LMML 052300Z 0600/0609 20018KT 9999 FEW015 BKN100
                      BECMG 0600/0603 26020G35KT
                      TEMPO 0600/0609 7000 RA BKN015 OVC080
                      PROB30 TEMPO 0600/0606 4000 TSGR BKN015CB=
200903052000 LMML 052000Z 0521/0606 18017KT 9999 FEW025 BKN120 OVC200
                      BECMG 0600/0603 25020G35KT 7000 RA
                      TEMPO 0600/0606 4000 TSGR BKN015CB=
200903051700 TAF LMML 051700Z 0518/0603 25010KT 9999 SCT020
                      BECMG 0518/0521 16013KT
                      TEMPO 0520/0603 8000 SHRA BKN015
                      PROB30 TEMPO 0521/0603 3000 TSRA BKN015CB
                       BECMG 0522/0601 23022G34KT=
200903051100 TAF LMML 051100Z 0512/0521 24017KT 8000 SCT020 SCT100
                      TEMPO 0512/0515 25022G35KT
                      PROB30 TEMPO 0512/0521 4000 SHRA BKN015 BKN080
                       BECMG 0516/0518 23007KT
                      BECMG 0518/0521 15011KT=
200903050800 LMML 050800Z 0509/0518 23019KT 9999 SCT020
                      TEMPO 0509/0515 25022G35KT
                      PROB40 TEMPO 0509/0518 7000 SHRA BKN015
                      BECMG 0516/0518 23009KT=
200903050500 TAF LMML 050500Z 0506/0515 24020KT 9999
                      PROB40 TEMPO 0509/0515 8000 SHRA BKN030 BKN070=
200903050200 TAF LMML 050200Z 0503/0512 24015KT 9999FEW030
                      TEMPO 0503/0512 8000 SHRA BKN025
                      PROB30 TEMPO 0509/0512 5000 TSRA BKN018CB=
200903042300 TAF LMML 042300Z 0500/0509 21018KT 9999 FEW030
                      TEMPO 0500/0506 8000 SHRA BKN030
                      PROB30 TEMPO 0500/0503 5000 TSRA BKN018CB=
200903042000 LMML 042000Z 0421/0506 16025G35KT 9999 FEW040
                      TEMPO 0423/0506 8000 SHRA
                      BECMG 0500/0503 24018G28KT=
200903041700 TAF LMML 041700Z 0418/0503 15020G30KT 9999 FEW010 BKN150 OVC250
                       BECMG 0420/0423 21020G30KT
                      BECMG 0500/0503 24015KT
                      PROB30 TEMPO 0421/0503 7000 SHRA BKN015=
200903041400 TAF LMML 041400Z 0415/0424 15015KT 9999 FEW009 SCT120
                      PROB30 TEMPO 0415/0424 16015G25KT 7000 BKN008=
200903041100 TAF LMML 041100Z 0412/0421 15015KT 9999 FEW010 BKN100 OVC200
                      PROB30 TEMPO 0415/0421 15015G25KT 7000 RA
                       BKN008=
200903040800 LMML 040800Z 0409/0418 13015KT 7000 BR SCT007 BKN110 OVC200
                      PROB30 TEMPO 0409/0418 5000 RA BKN006=
200903031400 LMML 0315/0324 16005KT 16005KT 9999 FEW015
                      PROB40 TEMPO 0318/0324 7000 BKN010=
200903031336 TAF LMML 0315/0324 16005KT 16005KT 9999 FEW015
                      PROB40 TEMPO 0318/0324 7000 BKN010=
200903031333 LMML 0315/0324 16005KT 16005KT 9999 FEW015
                      PROB40 TEMPO 0318/0324 7000 BKN010=
200903031100 TAF LMML 031100Z 0312/0321 VRB03KT 9999 FEW015
                      TEMPO 0312/0318 CAVOK
                      PROB30 TEMPO 0318/0321 9000 BKN010=
200903030800 TAF LMML 030800Z 0309/0318 30006KT 9999 SCT012
                      PROB30 TEMPO 0309/0312 9000 BKN010=
200903030500 TAF LMML 030500Z 0306/0315 30006KT 9999 FEW015
                      PROB30 TEMPO 0306/0308 8000 BKN010=
200903030200 TAF LMML 030200Z 0303/0312 30005KT 9999 FEW011
                      TEMPO 0303/0307 4000 BR BKN005
                      PROB30 TEMPO 0303/0306 0150 BCFG BKN001=
200903022300 TAF LMML 022300Z 0300/0309 27005KT 9999 FEW015
                      TEMPO 0300/0306 7000 BKN008
                      PROB30 TEMPO 0300/0306 3000 BR BKN005=
200903022000 LMML 022000Z 0221/0306 31006KT 9999 FEW015
                      TEMPO 0221/0306 7000 BKN008
                      PROB30 TEMPO 0300/0306 2000 BR BKN004=
200903021700 TAF LMML 021700Z 0218/0303 32005KT 9999 FEW015
                      TEMPO 0218/0303 CAVOK
                      PROB40 TEMPO 0218/0303 8000 BKN008
                      PROB30 TEMPO 0300/0303 2000 BR BKN003=
200903021400 TAF LMML 021400Z 0215/0224 34009KT CAVOK
                      TEMPO 0215/0224 9999 FEW015
                      PROB30 TEMPO 0217/0224 8000 BKN008=
200903021100 TAF LMML 021100Z 0212/0221 34009KT CAVOK
                      TEMPO 0212/0221 9999 FEW020=
200903020800 LMML 020800Z 0209/0218 34006KT 9999 FEW020=
200903020400 TAF LMML 020400Z 0203/0212 07004KT 9999 FEW015
                      TEMPO 0203/0206 0500 BCFG
                      BECMG 0209/0212 32010KT=
200903020345 TAF LMML 0203400Z 0203/0212 07004KT 9999 FEW015
                      TEMPO 0203/0206 0500 BCFG
                      BECMG 0209/0212 32010KT=
200903020343 TAF LMML 0203400Z 0203/0212 07004KT 9999 FEW015
                      TEMPO 0203/0206 0500 BCFG
                      BECMG 0209/0212 32010KT=
200903020342 LMML 0203400Z 0203/0212 07004KT 9999 FEW015
                      TEMPO 0203/0206 0500 BCFG
                      BECMG 0209/0212 32010KT=
200903020340 LMML 020340Z 0203/0212 07004KT 9999 FEW015
                      TEMPO 0203/0206 0500 BCFG
                      BECMG 0209/0212 32010KT=
200903020200 LMML 0203400Z 0203/0212 07004KT 9999 FEW015
                      TEMPO 0203/0206 0500 BCFG
                      BECMG 0209/0212 32010KT=
200903012300 TAF LMML 012300Z 0200/0209 08004KT 9999 FEW015
                      PROB30 TEMPO 0200/0207 7000 BKN005
                      TEMPO 0203/0206 4000 BR=
200903012000 TAF LMML 012000Z 0121/0206 16004KT 9999 FEW015
                      PROB30 TEMPO 0121/0206 7000 SCT005 BKN012
                       TEMPO 0203/0206 5000 BR=
200903011700 TAF LMML 011700Z 0118/0203 17010KT 9999 FEW013
                      TEMPO 0118/0203 8000 BKN010
                      PROB30 TEMPO 0121/0203 5000 BR BKN005
                      BECMG 0123/0202 31005KT=
200903011400 TAF LMML 011400Z 0115/0124 16013KT 9999 SCT013 SCT090
                      TEMPO 0115/0124 BKN010 SCT090
                      PROB30 TEMPO 0118/0124 6000 BKN005
                      BECMG 0120/0123 10005KT=
200903011100 TAF LMML 011100Z 0112/0121 15014KT 9999 SCT015 SCT100=
200903010800 TAF LMML 010800Z 0109/0118 15013KT 9999 SCT020 BKN120
                      PROB30 TEMPO 0109/0118 8000 RA BKN015 BKN100=
200903010500 TAF LMML 010500Z 0106/0115 15015KT CAVOK
                      TEMPO 0106/0115 SCT015 BKN080=
200903010200 TAF LMML 010200Z 0103/0112 14012KT 9999 SCT015=

###################################
#  large TAF from LMML
###################################
200903312300 LMML NIL=
200903311700 LMML NIL=
200903311100 LMML NIL=
200903310500 LMML NIL=
200903302300 LMML NIL=
200903301700 LMML NIL=
200903301100 LMML NIL=
200903300500 LMML NIL=
200903292300 LMML NIL=
200903291700 LMML NIL=
200903291100 LMML NIL=
200903290500 LMML NIL=
200903282300 LMML NIL=
200903281700 LMML NIL=
200903281100 LMML NIL=
200903280500 LMML NIL=
200903272300 LMML NIL=
200903271700 LMML NIL=
200903270500 LMML NIL=
200903262300 LMML NIL=
200903261700 LMML NIL=
200903261100 LMML NIL=
200903260500 LMML NIL=
200903252300 LMML NIL=
200903252000 TAF LMML 252000Z 2512/2606 28013KT 9999 SCT030=
200903251700 LMML NIL=
200903251100 LMML NIL=
200903250500 LMML NIL=
200903242300 LMML NIL=
200903241700 LMML NIL=
200903241100 LMML NIL=
200903240500 LMML NIL=
200903232300 LMML NIL=
200903231700 LMML NIL=
200903231100 LMML NIL=
200903230500 LMML NIL=
200903222300 LMML NIL=
200903221700 LMML NIL=
200903221100 LMML NIL=
200903220500 LMML NIL=
200903212300 LMML NIL=
200903211700 LMML NIL=
200903211100 LMML NIL=
200903210500 LMML NIL=
200903202300 LMML NIL=
200903201700 LMML NIL=
200903201100 LMML NIL=
200903200500 LMML NIL=
200903192300 LMML NIL=
200903191700 LMML NIL=
200903191100 LMML NIL=
200903190500 LMML NIL=
200903182300 LMML NIL=
200903181700 LMML NIL=
200903181100 LMML NIL=
200903180500 LMML NIL=
200903172300 LMML NIL=
200903171700 LMML NIL=
200903171100 LMML NIL=
200903170500 LMML NIL=
200903162300 LMML NIL=
200903161700 LMML NIL=
200903161100 LMML NIL=
200903160500 LMML NIL=
200903152300 LMML NIL=
200903151700 LMML NIL=
200903151100 LMML NIL=
200903150500 LMML NIL=
200903142300 LMML NIL=
200903141700 LMML NIL=
200903141100 LMML NIL=
200903140500 LMML NIL=
200903132300 LMML NIL=
200903131700 LMML NIL=
200903131100 LMML NIL=
200903130500 LMML NIL=
200903122300 LMML NIL=
200903121700 LMML NIL=
200903121100 LMML NIL=
200903120500 LMML NIL=
200903112300 LMML NIL=
200903111700 LMML NIL=
200903111100 LMML NIL=
200903110500 LMML NIL=
200903102300 LMML NIL=
200903101700 LMML NIL=
200903101100 LMML NIL=
200903100500 LMML NIL=
200903092300 LMML NIL=
200903091700 LMML NIL=
200903091100 LMML NIL=
200903090500 LMML NIL=
200903082300 LMML NIL=
200903081700 LMML NIL=
200903081100 LMML NIL=
200903080500 LMML NIL=
200903072300 LMML NIL=
200903071700 LMML NIL=
200903070500 LMML NIL=
200903062300 LMML NIL=
200903061700 LMML NIL=
200903061100 LMML NIL=
200903060500 LMML NIL=
200903052300 LMML NIL=
200903051700 LMML NIL=
200903051100 LMML NIL=
200903050500 LMML NIL=
200903042300 LMML NIL=
200903041700 LMML NIL=
200903041100 LMML NIL=
200903040500 LMML NIL=
200903032300 LMML NIL=
200903031700 LMML NIL=
200903031100 LMML NIL=
200903030500 LMML NIL=
200903022300 LMML NIL=
200903021700 LMML NIL=
200903021100 LMML NIL=
200903020500 LMML NIL=
200903012300 LMML NIL=
200903011700 LMML NIL=
200903011100 LMML NIL=
200903010500 LMML NIL=
