##########################################################
# Query made at 01/18/2013 15:56:07 UTC
# Time interval: from 03/01/2010 00:00  to 03/31/2010 23:59  UTC
##########################################################

##########################################################
# LMML, Luqa (Malta)
# WMO index: 16597
# Latitude 35-51N. Longitude 014-29E. Altitude 91 m.
##########################################################

###################################
#  METAR/SPECI from LMML
###################################
201003312345 METAR LMML 312345Z 33004KT 300V360 CAVOK 13/09 Q1017 NOSIG=
201003312330 METAR LMML NIL=
201003312315 METAR LMML 312315Z 32004KT 290V350 CAVOK 13/09 Q1017 NOSIG=
201003312300 METAR LMML NIL=
201003312245 METAR LMML 312245Z VRB02KT CAVOK 13/08 Q1017 NOSIG=
201003312230 METAR LMML NIL=
201003312215 METAR LMML 312215Z 33004KT CAVOK 13/08 Q1018 NOSIG=
201003312200 METAR LMML NIL=
201003312145 METAR LMML 312145Z 31005KT 270V340 CAVOK 14/08 Q1018 NOSIG=
201003312130 METAR LMML NIL=
201003312115 METAR LMML 312115Z 29006KT 260V330 CAVOK 14/09 Q1018 NOSIG=
201003312100 METAR LMML NIL=
201003312045 METAR LMML 312045Z 29006KT 250V320 CAVOK 14/10 Q1017 NOSIG=
201003312030 METAR LMML NIL=
201003312015 METAR LMML 312015Z 29008KT CAVOK 14/10 Q1017 NOSIG=
201003312000 METAR LMML NIL=
201003311945 METAR LMML 311945Z 29006KT 260V320 CAVOK 14/10 Q1017 NOSIG=
201003311930 METAR LMML NIL=
201003311915 METAR LMML 311915Z 30009KT CAVOK 14/10 Q1017 NOSIG=
201003311900 METAR LMML NIL=
201003311845 METAR LMML 311845Z 30010KT CAVOK 14/10 Q1016 NOSIG=
201003311830 METAR LMML NIL=
201003311815 METAR LMML 311815Z 31009KT CAVOK 14/10 Q1016 NOSIG=
201003311800 METAR LMML NIL=
201003311745 METAR LMML 311745Z 29008KT CAVOK 14/10 Q1016 NOSIG=
201003311730 METAR LMML NIL=
201003311715 METAR LMML 311715Z 30010KT CAVOK 15/10 Q1016 NOSIG=
201003311645 METAR LMML 311645Z 31010KT CAVOK 15/10 Q1016 NOSIG=
201003311630 METAR LMML NIL=
201003311615 METAR LMML 311615Z 30013KT CAVOK 16/10 Q1016 NOSIG=
201003311600 METAR LMML NIL=
201003311545 METAR LMML 311545Z 30015KT CAVOK 17/09 Q1016 NOSIG=
201003311530 METAR LMML NIL=
201003311515 METAR LMML 311515Z 30016KT CAVOK 16/09 Q1016 NOSIG=
201003311445 METAR LMML 311445Z 30017KT CAVOK 17/08 Q1016 NOSIG=
201003311430 METAR LMML NIL=
201003311415 METAR LMML 311415Z 28015KT 250V310 CAVOK 17/09 Q1016 NOSIG=
201003311400 METAR LMML NIL=
201003311345 METAR LMML 311345Z 31017KT CAVOK 18/09 Q1016 NOSIG=
201003311330 METAR LMML NIL=
201003311315 METAR LMML 311315Z 30016KT 270V330 9999 FEW020 SCT250 18/09
                        Q1017 NOSIG=
201003311300 METAR LMML NIL=
201003311245 METAR LMML 311245Z 30016KT 270V330 9999 FEW020 SCT250 18/10
                        Q1017 NOSIG=
201003311230 METAR LMML NIL=
201003311215 METAR LMML 311215Z 29017KT 250V320 9999 FEW020 18/09 Q1017
                        NOSIG=
201003311200 METAR LMML NIL=
201003311145 METAR LMML 311145Z 31017KT 280V340 9999 FEW020 18/11 Q1017
                        NOSIG=
201003311115 METAR LMML 311115Z 31018KT 9999 FEW023 18/10 Q1017 NOSIG=
201003311100 METAR LMML NIL=
201003311045 METAR LMML 311045Z 31016KT 9999 FEW023 18/11 Q1017 NOSIG=
201003311030 METAR LMML NIL=
201003311015 METAR LMML 311015Z 30015KT 270V330 9999 FEW023 18/10 Q1017
                        NOSIG=
201003311000 METAR LMML NIL=
201003310945 METAR LMML 310945Z 30016KT 9999 FEW023 17/10 Q1017 NOSIG=
201003310930 METAR LMML NIL=
201003310915 METAR LMML 310915Z 30017KT 270V330 9999 FEW023 17/10 Q1016
                        NOSIG=
201003310900 METAR LMML NIL=
201003310845 METAR LMML 310845Z 30015KT 260V330 9999 FEW023 17/11 Q1016
                        NOSIG=
201003310830 METAR LMML NIL=
201003310815 METAR LMML 310815Z 32015KT 290V350 9999 FEW023 SCT250 17/11
                        Q1016 NOSIG=
201003310800 METAR LMML NIL=
201003310745 METAR LMML 310745Z 32014KT 290V350 9999 FEW021 SCT250 17/11
                        Q1016 NOSIG=
201003310730 METAR LMML NIL=
201003310715 METAR LMML 310715Z 32014KT 290V350 9999 FEW020 SCT250 16/11
                        Q1015 NOSIG=
201003310700 METAR LMML NIL=
201003310645 METAR LMML 310645Z 31013KT CAVOK 15/12 Q1015 NOSIG=
201003310630 METAR LMML NIL=
201003310615 METAR LMML 310615Z 30012KT CAVOK 15/12 Q1014 NOSIG=
201003310600 METAR LMML NIL=
201003310545 METAR LMML 310545Z 31013KT CAVOK 14/12 Q1014 NOSIG=
201003310530 METAR LMML NIL=
201003310515 METAR LMML 310515Z 30012KT CAVOK 14/12 Q1014 NOSIG=
201003310500 METAR LMML NIL=
201003310445 METAR LMML 310445Z 29012KT CAVOK 14/12 Q1013 NOSIG=
201003310415 METAR LMML 310415Z 31013KT CAVOK 14/12 Q1013 NOSIG=
201003310345 METAR LMML 310345Z 30010KT CAVOK 14/13 Q1013 NOSIG=
201003310330 METAR LMML NIL=
201003310315 METAR LMML 310315Z 30014KT CAVOK 14/13 Q1013 NOSIG=
201003310300 METAR LMML NIL=
201003310245 METAR LMML 310245Z 30012KT CAVOK 14/13 Q1012 NOSIG=
201003310230 METAR LMML NIL=
201003310215 METAR LMML 310215Z 29010KT 270V330 CAVOK 14/12 Q1012 NOSIG=
201003310200 METAR LMML NIL=
201003310145 METAR LMML 310145Z 29007KT CAVOK 14/12 Q1012 NOSIG=
201003310130 METAR LMML NIL=
201003310115 METAR LMML 310115Z 32008KT CAVOK 14/12 Q1012 NOSIG=
201003310100 METAR LMML NIL=
201003310045 METAR LMML 310045Z 31010KT CAVOK 14/12 Q1012 NOSIG=
201003310030 METAR LMML NIL=
201003310015 METAR LMML 310015Z 32006KT CAVOK 14/12 Q1012 NOSIG=
201003310000 METAR LMML NIL=
201003302345 METAR LMML 302345Z 33006KT CAVOK 14/12 Q1012 NOSIG=
201003302330 METAR LMML NIL=
201003302315 METAR LMML 302315Z 33008KT 300V360 CAVOK 14/12 Q1012 NOSIG=
201003302245 METAR LMML 302245Z 32008KT CAVOK 15/13 Q1012 NOSIG=
201003302230 METAR LMML NIL=
201003302215 METAR LMML 302215Z 33007KT CAVOK 15/13 Q1012 NOSIG=
201003302145 METAR LMML 302145Z 33007KT CAVOK 15/13 Q1012 NOSIG=
201003302130 METAR LMML NIL=
201003302115 METAR LMML 302115Z 34010KT 310V010 CAVOK 15/13 Q1012 NOSIG=
201003302100 METAR LMML NIL=
201003302045 METAR LMML 302045Z 33010KT 300V360 CAVOK 16/13 Q1011 NOSIG=
201003302030 METAR LMML NIL=
201003302015 METAR LMML 302015Z 33011KT CAVOK 16/13 Q1011 NOSIG=
201003302000 METAR LMML NIL=
201003301945 METAR LMML 301945Z 33014KT CAVOK 16/13 Q1011 NOSIG=
201003301930 METAR LMML NIL=
201003301915 METAR LMML 301915Z 32016KT CAVOK 16/14 Q1011 NOSIG=
201003301900 METAR LMML NIL=
201003301845 METAR LMML 301845Z 32016KT CAVOK 16/14 Q1011 NOSIG=
201003301830 METAR LMML NIL=
201003301815 METAR LMML 301815Z 31012KT CAVOK 16/14 Q1010 NOSIG=
201003301800 METAR LMML NIL=
201003301745 METAR LMML 301745Z 30011KT 260V320 CAVOK 17/14 Q1009 NOSIG=
201003301730 METAR LMML NIL=
201003301715 METAR LMML 301715Z 28013KT CAVOK 17/14 Q1009 NOSIG=
201003301700 METAR LMML NIL=
201003301645 METAR LMML 301645Z 26005KT 220V290 CAVOK 17/14 Q1009 NOSIG
                        RMK DUST=
201003301630 METAR LMML NIL=
201003301615 METAR LMML 301615Z VRB03KT CAVOK 18/15 Q1009 BECMG 28018KT
                        RMK DUST=
201003301600 METAR LMML NIL=
201003301545 METAR LMML 301545Z 22006KT 150V270 CAVOK 18/14 Q1009 BECMG
                        28018KT RMK DUST HAZE=
201003301530 METAR LMML NIL=
201003301515 METAR LMML 301515Z 20009KT 160V240 CAVOK 18/14 Q1009 BECMG
                        28018KT RMK DUST HAZE=
201003301500 METAR LMML NIL=
201003301445 METAR LMML 301445Z 20007KT 140V260 CAVOK 19/14 Q1009 BECMG
                        28018KT RMK DUST HAZE=
201003301430 METAR LMML NIL=
201003301415 METAR LMML 301415Z 19012KT 140V220 CAVOK 19/14 Q1009 BECMG
                        28018KT RMK DUST HAZE=
201003301400 METAR LMML NIL=
201003301345 METAR LMML 301345Z 18013KT 160V220 CAVOK 19/14 Q1009 NOSIG
                        RMK DUST=
201003301330 METAR LMML NIL=
201003301315 METAR LMML 301315Z 18014KT 150V280 CAVOK 19/14 Q1009 NOSIG
                        RMK DUST=
201003301300 METAR LMML NIL=
201003301245 METAR LMML 301245Z 18015KT 120V200 CAVOK 18/14 Q1009 NOSIG
                        RMK DUST=
201003301230 METAR LMML NIL=
201003301215 METAR LMML 301215Z 17015KT 140V220 CAVOK 19/14 Q1010 NOSIG
                        RMK DUST=
201003301200 METAR LMML NIL=
201003301145 METAR LMML 301145Z 17017KT 140V210 CAVOK 19/14 Q1010 NOSIG
                        RMK DUST=
201003301130 METAR LMML NIL=
201003301115 METAR LMML 301115Z 18018KT 150V210 CAVOK 18/14 Q1011 NOSIG
                        RMK DUST=
201003301100 METAR LMML NIL=
201003301045 METAR LMML 301045Z 17018G28KT 140V210 CAVOK 19/15 Q1011 NOSIG
                        RMK DUST=
201003301030 METAR LMML NIL=
201003301015 METAR LMML 301015Z 17019KT 140V210 CAVOK 18/14 Q1012 NOSIG
                        RMK DUST=
201003301000 METAR LMML NIL=
201003300945 METAR LMML 300945Z 16016KT 130V200 CAVOK 18/14 Q1012 NOSIG
                        RMK DUST=
201003300930 METAR LMML NIL=
201003300915 METAR LMML 300915Z 16015KT 130V190 CAVOK 18/15 Q1013 NOSIG
                        RMK DUST=
201003300845 METAR LMML 300845Z 15014KT 120V190 CAVOK 18/14 Q1013 NOSIG=
201003300830 METAR LMML NIL=
201003300815 METAR LMML 300815Z 15013KT 120V180 CAVOK 18/14 Q1013 NOSIG
                        RMK DUST=
201003300800 METAR LMML NIL=
201003300745 METAR LMML 300745Z 15013KT 110V180 CAVOK 17/14 Q1014 NOSIG
                        RMK DUST=
201003300730 METAR LMML NIL=
201003300715 METAR LMML 300715Z 14015KT 120V180 CAVOK 16/14 Q1013 NOSIG=
201003300700 METAR LMML NIL=
201003300645 METAR LMML 300645Z 16009KT 140V200 CAVOK 16/14 Q1015 NOSIG=
201003300630 METAR LMML NIL=
201003300615 METAR LMML 300615Z 16009KT 120V190 CAVOK 16/14 Q1015 NOSIG=
201003300600 METAR LMML NIL=
201003300545 METAR LMML 300545Z 15010KT CAVOK 15/14 Q1014 NOSIG=
201003300530 METAR LMML NIL=
201003300515 METAR LMML 300515Z 16009KT CAVOK 15/13 Q1014 NOSIG=
201003300500 METAR LMML NIL=
201003300445 METAR LMML 300445Z 16010KT CAVOK 15/13 Q1014 NOSIG=
201003300415 METAR LMML 300415Z 15011KT CAVOK 15/13 Q1014 NOSIG=
201003300400 METAR LMML NIL=
201003300345 METAR LMML 300345Z 15011KT CAVOK 15/13 Q1014 NOSIG=
201003300330 METAR LMML NIL=
201003300315 METAR LMML 300315Z 15009KT 120V180 CAVOK 15/13 Q1015 NOSIG=
201003300300 METAR LMML NIL=
201003300245 METAR LMML 300245Z 15007KT 110V190 CAVOK 14/13 Q1015 NOSIG=
201003300230 METAR LMML NIL=
201003300215 METAR LMML 300215Z 14007KT CAVOK 14/13 Q1015 NOSIG=
201003300200 METAR LMML NIL=
201003300145 METAR LMML 300145Z 16006KT 100V200 CAVOK 14/13 Q1016 NOSIG=
201003300130 METAR LMML NIL=
201003300115 METAR LMML 300115Z 15007KT CAVOK 14/13 Q1016 NOSIG=
201003300100 METAR LMML NIL=
201003300045 METAR LMML 300045Z 15007KT 120V180 CAVOK 14/13 Q1016 NOSIG=
201003300030 METAR LMML NIL=
201003300015 METAR LMML 300015Z 15008KT CAVOK 14/12 Q1017 NOSIG=
201003300000 METAR LMML NIL=
201003292345 METAR LMML 292345Z 15008KT CAVOK 14/12 Q1017 NOSIG=
201003292330 METAR LMML NIL=
201003292315 METAR LMML 292315Z 15008KT CAVOK 14/12 Q1017 NOSIG=
201003292300 METAR LMML NIL=
201003292245 METAR LMML 292245Z 15008KT 120V180 CAVOK 14/12 Q1017 NOSIG=
201003292230 METAR LMML NIL=
201003292215 METAR LMML 292215Z 16008KT CAVOK 14/12 Q1018 NOSIG=
201003292200 METAR LMML NIL=
201003292145 METAR LMML 292145Z 16008KT 130V190 CAVOK 14/12 Q1018 NOSIG=
201003292130 METAR LMML NIL=
201003292115 METAR LMML 292115Z 15006KT 120V180 CAVOK 14/12 Q1018 NOSIG=
201003292100 METAR LMML NIL=
201003292045 METAR LMML 292045Z 15006KT 120V180 CAVOK 14/12 Q1018 NOSIG=
201003292030 METAR LMML NIL=
201003292015 METAR LMML 292015Z 16007KT CAVOK 14/12 Q1018 NOSIG=
201003292000 METAR LMML NIL=
201003291945 METAR LMML 291945Z 16007KT CAVOK 14/11 Q1018 NOSIG=
201003291930 METAR LMML NIL=
201003291915 METAR LMML 291915Z 15005KT 120V200 CAVOK 14/11 Q1018 NOSIG=
201003291900 METAR LMML NIL=
201003291845 METAR LMML 291845Z 16007KT CAVOK 14/11 Q1018 NOSIG=
201003291830 METAR LMML NIL=
201003291815 METAR LMML 291815Z 16007KT CAVOK 14/11 Q1018 NOSIG=
201003291800 METAR LMML NIL=
201003291745 METAR LMML 291745Z 16005KT 140V200 CAVOK 15/11 Q1018 NOSIG=
201003291715 METAR LMML 291715Z 16006KT CAVOK 15/10 Q1018 NOSIG=
201003291700 METAR LMML NIL=
201003291645 METAR LMML 291645Z 17004KT 140V210 CAVOK 16/10 Q1018 NOSIG=
201003291630 METAR LMML NIL=
201003291615 METAR LMML 291615Z 17005KT 150V210 CAVOK 17/09 Q1018 NOSIG=
201003291600 METAR LMML NIL=
201003291545 METAR LMML 291545Z VRB03KT CAVOK 18/05 Q1018 NOSIG=
201003291530 METAR LMML NIL=
201003291515 METAR LMML 291515Z 20006KT 170V260 CAVOK 18/06 Q1018 NOSIG=
201003291500 METAR LMML NIL=
201003291445 METAR LMML 291445Z 21006KT 170V250 CAVOK 17/08 Q1018 NOSIG=
201003291430 METAR LMML NIL=
201003291415 METAR LMML 291415Z 19007KT 160V240 CAVOK 18/08 Q1018 NOSIG=
201003291400 METAR LMML NIL=
201003291345 METAR LMML 291345Z 21007KT 150V250 CAVOK 18/07 Q1018 NOSIG=
201003291330 METAR LMML NIL=
201003291315 METAR LMML 291315Z 22007KT 170V280 CAVOK 18/09 Q1019 NOSIG=
201003291300 METAR LMML NIL=
201003291245 METAR LMML 291245Z 23006KT 170V280 CAVOK 19/10 Q1019 NOSIG=
201003291230 METAR LMML NIL=
201003291215 METAR LMML 291215Z 22005KT 170V280 CAVOK 18/08 Q1019 NOSIG=
201003291200 METAR LMML NIL=
201003291145 METAR LMML 291145Z 22006KT 170V270 CAVOK 18/09 Q1019 NOSIG=
201003291130 METAR LMML NIL=
201003291115 METAR LMML 291115Z 23006KT 190V270 CAVOK 18/11 Q1020 NOSIG=
201003291100 METAR LMML NIL=
201003291045 METAR LMML 291045Z 24008KT 200V270 CAVOK 18/10 Q1020 NOSIG=
201003291030 METAR LMML NIL=
201003291015 METAR LMML 291015Z 23007KT 200V280 CAVOK 19/09 Q1020 NOSIG=
201003291000 METAR LMML NIL=
201003290945 METAR LMML 290945Z 28004KT 240V340 CAVOK 19/08 Q1020 NOSIG=
201003290930 METAR LMML NIL=
201003290915 METAR LMML 290915Z 27006KT 200V320 CAVOK 19/06 Q1020 NOSIG=
201003290900 METAR LMML NIL=
201003290845 METAR LMML 290845Z 24004KT CAVOK 18/08 Q1020 NOSIG=
201003290830 METAR LMML NIL=
201003290815 METAR LMML 290815Z 30004KT 250V360 CAVOK 17/10 Q1020 NOSIG=
201003290800 METAR LMML NIL=
201003290745 METAR LMML 290745Z 30005KT 260V340 CAVOK 16/11 Q1020 NOSIG=
201003290730 METAR LMML NIL=
201003290715 METAR LMML 290715Z 29007KT 260V320 9999 FEW020 15/11 Q1020
                        NOSIG=
201003290700 METAR LMML NIL=
201003290645 METAR LMML 290645Z 28007KT 220V320 9999 FEW020 15/12 Q1020
                        NOSIG=
201003290630 METAR LMML NIL=
201003290615 METAR LMML 290615Z 26004KT 210V290 9999 FEW020 14/11 Q1019
                        NOSIG=
201003290600 METAR LMML NIL=
201003290545 METAR LMML 290545Z 25004KT 220V290 9999 FEW020 12/10 Q1019
                        NOSIG=
201003290530 METAR LMML NIL=
201003290515 METAR LMML 290515Z 27004KT 230V320 9999 FEW020 11/09 Q1019
                        NOSIG=
201003290500 METAR LMML NIL=
201003290445 METAR LMML 290445Z VRB03KT 9999 FEW020 11/09 Q1019 NOSIG=
201003290430 METAR LMML NIL=
201003290415 METAR LMML 290415Z 28005KT 250V310 9999 FEW020 BKN250 12/10
                        Q1019 NOSIG=
201003290400 METAR LMML NIL=
201003290345 METAR LMML 290345Z 28008KT 250V310 CAVOK 12/10 Q1019 NOSIG=
201003290330 METAR LMML NIL=
201003290315 METAR LMML 290315Z 27008KT 240V300 CAVOK 12/11 Q1019 NOSIG=
201003290300 METAR LMML NIL=
201003290245 METAR LMML 290245Z 27008KT 240V300 CAVOK 12/11 Q1019 NOSIG=
201003290230 METAR LMML NIL=
201003290215 METAR LMML 290215Z 27008KT CAVOK 13/11 Q1019 NOSIG=
201003290200 METAR LMML NIL=
201003290145 METAR LMML 290145Z 27009KT 240V300 CAVOK 13/11 Q1019 NOSIG=
201003290130 METAR LMML NIL=
201003290115 METAR LMML 290115Z 26009KT 220V290 CAVOK 13/11 Q1019 NOSIG=
201003290100 METAR LMML NIL=
201003290045 METAR LMML 290045Z 26008KT 220V300 CAVOK 13/11 Q1020 NOSIG=
201003290030 METAR LMML NIL=
201003290015 METAR LMML 290015Z 27008KT CAVOK 13/11 Q1020 NOSIG=
201003290000 METAR LMML NIL=
201003282345 METAR LMML 282345Z 27008KT CAVOK 13/11 Q1020 NOSIG=
201003282330 METAR LMML NIL=
201003282315 METAR LMML 282315Z 24005KT 200V280 CAVOK 12/11 Q1020 NOSIG=
201003282300 METAR LMML NIL=
201003282245 METAR LMML 282245Z 26006KT 220V300 CAVOK 13/11 Q1020 NOSIG=
201003282230 METAR LMML NIL=
201003282215 METAR LMML 282215Z 27004KT 200V330 CAVOK 13/11 Q1020 NOSIG=
201003282200 METAR LMML NIL=
201003282145 METAR LMML 282145Z 26005KT 200V300 CAVOK 13/11 Q1020 NOSIG=
201003282130 METAR LMML NIL=
201003282115 METAR LMML 282115Z 28012KT CAVOK 13/11 Q1020 NOSIG=
201003282045 METAR LMML 282045Z 28008KT 250V310 CAVOK 13/11 Q1020 NOSIG=
201003282030 METAR LMML NIL=
201003282015 METAR LMML 282015Z 29008KT CAVOK 13/10 Q1020 NOSIG=
201003282000 METAR LMML NIL=
201003281945 METAR LMML 281945Z 29010KT 260V320 CAVOK 13/10 Q1020 NOSIG=
201003281930 METAR LMML NIL=
201003281915 METAR LMML 281915Z 29011KT CAVOK 13/11 Q1020 NOSIG=
201003281845 METAR LMML 281845Z 29011KT 260V320 9999 FEW020 SCT250 14/11
                        Q1019 NOSIG=
201003281830 METAR LMML NIL=
201003281815 METAR LMML 281815Z 28012KT 9999 FEW020 14/11 Q1019 NOSIG=
201003281800 METAR LMML NIL=
201003281745 METAR LMML 281745Z 28014KT 250V310 9999 FEW020 SCT250 14/11
                        Q1019 NOSIG=
201003281730 METAR LMML NIL=
201003281715 METAR LMML 281715Z 28011KT 250V310 9999 FEW020 SCT250 14/10
                        Q1019 NOSIG=
201003281700 METAR LMML NIL=
201003281645 METAR LMML 281645Z 29014KT 230V310 9999 FEW020 SCT250 15/10
                        Q1019 NOSIG=
201003281630 METAR LMML NIL=
201003281615 METAR LMML 281615Z 29013KT 9999 FEW020 SCT250 16/11 Q1019
                        NOSIG=
201003281600 METAR LMML NIL=
201003281545 METAR LMML 281545Z 29016KT 9999 FEW020 SCT250 16/10 Q1019
                        NOSIG=
201003281530 METAR LMML NIL=
201003281515 METAR LMML 281515Z 28014KT 260V320 9999 FEW020 SCT250 16/11
                        Q1019 NOSIG=
201003281500 METAR LMML NIL=
201003281445 METAR LMML 281445Z 29018KT 9999 FEW020 17/11 Q1019 NOSIG=
201003281415 METAR LMML 281415Z 29018KT 260V320 9999 FEW020 17/10 Q1020
                        NOSIG=
201003281400 METAR LMML NIL=
201003281345 METAR LMML 281345Z 29019KT 260V320 9999 FEW020 BKN250 17/10
                        Q1019 NOSIG=
201003281330 METAR LMML NIL=
201003281315 METAR LMML 281315Z 29016KT 260V320 9999 FEW020 BKN250 17/11
                        Q1019 NOSIG=
201003281300 METAR LMML NIL=
201003281245 METAR LMML 281245Z 29019KT 260V320 9999 FEW020 BKN250 16/10
                        Q1020 NOSIG=
201003281230 METAR LMML NIL=
201003281215 METAR LMML 281215Z 29018KT 9999 FEW020 BKN250 16/10 Q1020
                        NOSIG=
201003281145 METAR LMML 281145Z 29016KT 250V310 9999 FEW020 BKN250 17/10
                        Q1020 NOSIG=
201003281130 METAR LMML NIL=
201003281115 METAR LMML 281115Z 29017KT 260V320 9999 FEW020 17/10 Q1020
                        NOSIG=
201003281045 METAR LMML 281045Z 30017KT 260V330 9999 FEW020 18/09 Q1021
                        NOSIG=
201003281015 METAR LMML 281015Z 30017KT 270V330 9999 FEW020 18/08 Q1021
                        NOSIG=
201003280945 METAR LMML 280945Z 29016KT 260V330 9999 FEW020 17/09 Q1021
                        NOSIG=
201003280930 METAR LMML NIL=
201003280915 METAR LMML 280915Z 30015KT 260V330 9999 FEW020 17/09 Q1021
                        NOSIG=
201003280900 METAR LMML NIL=
201003280845 METAR LMML 280845Z 30015KT 9999 FEW020 17/10 Q1021 NOSIG=
201003280830 METAR LMML NIL=
201003280815 METAR LMML 280815Z 30015KT 9999 FEW020 17/09 Q1021 NOSIG=
201003280800 METAR LMML NIL=
201003280745 METAR LMML 280745Z 30013KT 270V330 9999 FEW017 16/11 Q1021
                        NOSIG=
201003280730 METAR LMML NIL=
201003280715 METAR LMML 280715Z 30013KT 260V320 9999 FEW016 15/11 Q1021
                        NOSIG=
201003280700 METAR LMML NIL=
201003280645 METAR LMML 280645Z 30011KT 270V340 9999 FEW020 15/11 Q1021
                        NOSIG=
201003280630 METAR LMML NIL=
201003280615 METAR LMML 280615Z 30008KT 270V330 9999 FEW020 14/11 Q1020
                        NOSIG=
201003280600 METAR LMML NIL=
201003280545 METAR LMML 280545Z 30007KT 9999 FEW020 13/11 Q1020 NOSIG=
201003280530 METAR LMML NIL=
201003280515 METAR LMML 280515Z 30008KT 270V330 9999 FEW019 13/10 Q1020
                        TEMPO 31015G25KT=
201003280500 METAR LMML NIL=
201003280445 METAR LMML 280445Z 31011KT 9999 FEW019 13/11 Q1020 TEMPO
                        31015G25KT=
201003280430 METAR LMML NIL=
201003280415 METAR LMML 280415Z 31015KT 9999 FEW019 13/10 Q1019 TEMPO
                        31015G25KT=
201003280345 METAR LMML 280345Z 31016KT CAVOK 13/10 Q1019 TEMPO 31015G25KT=
201003280330 METAR LMML NIL=
201003280315 METAR LMML 280315Z 31012KT CAVOK 13/10 Q1019 TEMPO 31015G25KT=
201003280300 METAR LMML NIL=
201003280245 METAR LMML 280245Z 31016KT 290V350 CAVOK 13/10 Q1019 TEMPO
                        31015G25KT=
201003280230 METAR LMML NIL=
201003280215 METAR LMML 280215Z 31010KT 270V340 9999 FEW019 13/10 Q1019
                        NOSIG=
201003280200 METAR LMML NIL=
201003280145 METAR LMML 280145Z 33011KT 300V360 9999 FEW018 13/10 Q1019
                        NOSIG=
201003280130 METAR LMML NIL=
201003280115 METAR LMML 280115Z 30011KT 270V330 9999 FEW018 13/10 Q1019
                        NOSIG=
201003280100 METAR LMML NIL=
201003280045 METAR LMML 280045Z 31012KT 9999 FEW018 13/10 Q1019 NOSIG=
201003280030 METAR LMML NIL=
201003280015 METAR LMML 280015Z 31014KT 270V340 CAVOK 14/09 Q1019 NOSIG=
201003280000 METAR LMML NIL=
201003272345 METAR LMML 272345Z 32016KT 290V350 CAVOK 14/10 Q1019 NOSIG=
201003272330 METAR LMML NIL=
201003272315 METAR LMML 272315Z 31016KT 280V340 9999 FEW018 14/10 Q1020
                        NOSIG=
201003272300 METAR LMML NIL=
201003272245 METAR LMML 272245Z 30009KT 250V350 9999 FEW018 14/11 Q1019
                        NOSIG=
201003272230 METAR LMML NIL=
201003272215 METAR LMML 272215Z 31017KT 270V330 9999 FEW018 14/11 Q1019
                        NOSIG=
201003272200 METAR LMML NIL=
201003272145 METAR LMML 272145Z 31013KT 9999 FEW015 SCT250 14/11 Q1019
                        NOSIG=
201003272130 METAR LMML NIL=
201003272115 METAR LMML 272115Z 31015KT 9999 FEW015 SCT250 14/10 Q1019
                        NOSIG=
201003272100 METAR LMML NIL=
201003272045 METAR LMML 272045Z 31018KT 280V340 CAVOK 14/10 Q1019 NOSIG=
201003272030 METAR LMML NIL=
201003272015 METAR LMML 272015Z 31008KT 260V350 CAVOK 14/09 Q1019 NOSIG=
201003272000 METAR LMML NIL=
201003271945 METAR LMML 271945Z 31015KT 280V340 CAVOK 14/09 Q1018 NOSIG=
201003271930 METAR LMML NIL=
201003271915 METAR LMML 271915Z 30018G28KT 270V330 CAVOK 14/08 Q1018 NOSIG=
201003271900 METAR LMML NIL=
201003271845 METAR LMML 271845Z 30017KT 270V330 CAVOK 14/10 Q1018 NOSIG=
201003271830 METAR LMML NIL=
201003271815 METAR LMML 271815Z 30017KT CAVOK 15/09 Q1018 NOSIG=
201003271800 METAR LMML NIL=
201003271745 METAR LMML 271745Z 30019G29KT CAVOK 15/08 Q1017 NOSIG=
201003271715 METAR LMML 271715Z 30017KT CAVOK 15/08 Q1017 NOSIG=
201003271700 METAR LMML NIL=
201003271645 METAR LMML 271645Z 31020KT CAVOK 15/09 Q1017 NOSIG=
201003271630 METAR LMML NIL=
201003271615 METAR LMML 271615Z 31019KT CAVOK 16/10 Q1017 NOSIG=
201003271600 METAR LMML NIL=
201003271545 METAR LMML 271545Z 30021KT CAVOK 17/10 Q1017 NOSIG=
201003271530 METAR LMML NIL=
201003271515 METAR LMML 271515Z 31021KT CAVOK 18/10 Q1017 NOSIG=
201003271500 METAR LMML NIL=
201003271445 METAR LMML 271445Z 31019KT CAVOK 18/10 Q1017 NOSIG=
201003271430 METAR LMML NIL=
201003271415 METAR LMML 271415Z 31019G29KT CAVOK 19/11 Q1017 NOSIG=
201003271400 METAR LMML NIL=
201003271345 METAR LMML 271345Z 31017KT CAVOK 18/11 Q1017 NOSIG=
201003271330 METAR LMML NIL=
201003271315 METAR LMML 271315Z 31019KT CAVOK 19/11 Q1017 NOSIG=
201003271300 METAR LMML NIL=
201003271245 METAR LMML 271245Z 31019KT CAVOK 20/11 Q1017 NOSIG=
201003271230 METAR LMML NIL=
201003271215 METAR LMML 271215Z 30020KT CAVOK 20/11 Q1017 NOSIG=
201003271200 METAR LMML NIL=
201003271145 METAR LMML 271145Z 30019KT 270V330 CAVOK 19/13 Q1018 NOSIG=
201003271130 METAR LMML NIL=
201003271115 METAR LMML 271115Z 31019KT 270V330 CAVOK 19/12 Q1018 NOSIG=
201003271100 METAR LMML NIL=
201003271045 METAR LMML 271045Z 31017KT CAVOK 19/13 Q1018 NOSIG=
201003271030 METAR LMML NIL=
201003271015 METAR LMML 271015Z 31015KT 280V340 CAVOK 19/13 Q1018 NOSIG=
201003271000 METAR LMML NIL=
201003270945 METAR LMML 270945Z 30014KT 9000 FEW012 BKN250 18/13 Q1018
                        NOSIG=
201003270915 METAR LMML 270915Z 31011KT 280V340 9000 FEW012 BKN250 19/14
                        Q1018 NOSIG=
201003270900 METAR LMML NIL=
201003270845 METAR LMML 270845Z 31010KT 9000 FEW007 BKN250 18/14 Q1018
                        NOSIG=
201003270830 METAR LMML NIL=
201003270815 METAR LMML 270815Z 31011KT 280V340 8000 FEW007 BKN250 17/14
                        Q1018 NOSIG=
201003270800 METAR LMML NIL=
201003270745 METAR LMML 270745Z 31009KT 7000 FEW007 BKN250 16/14 Q1018
                        NOSIG=
201003270730 METAR LMML NIL=
201003270715 METAR LMML 270715Z 30010KT 7000 FEW007 BKN250 16/14 Q1018
                        NOSIG=
201003270700 METAR LMML NIL=
201003270645 METAR LMML 270645Z 32009KT 6000 FEW006 SCT250 15/14 Q1017
                        NOSIG=
201003270630 METAR LMML NIL=
201003270615 METAR LMML 270615Z 32008KT 6000 SCT006 SCT250 15/14 Q1017
                        NOSIG=
201003270600 METAR LMML NIL=
201003270545 METAR LMML 270545Z 30007KT 3000 BR BKN005 BKN250 14/14 Q1018
                        BECMG 6000 SCT006=
201003270530 METAR LMML NIL=
201003270515 METAR LMML 270515Z 31008KT 280V340 3000 BR BKN004 15/14 Q1018
                        BECMG 6000 BKN006=
201003270500 METAR LMML NIL=
201003270445 METAR COR LMML 270445Z 33008KT 3000 BR OVC004 15/14 Q1018
                        BECMG 6000 BKN006=
201003270430 METAR LMML NIL=
201003270415 METAR LMML 270415Z 35005KT 6000 BKN006 15/14 Q1017 NOSIG=
201003270400 METAR LMML NIL=
201003270345 METAR LMML 270345Z 35007KT 6000 OVC006 14/14 Q1017 NOSIG=
201003270330 METAR LMML NIL=
201003270315 METAR LMML 270315Z 36010KT 6000 OVC007 14/14 Q1017 BECMG
                        7000=
201003270303 SPECI LMML 270303Z 35010KT 6000 OVC005 14/14 Q1017 BECMG
                        8000=
201003270300 METAR LMML NIL=
201003270245 METAR LMML 270245Z 35008KT 4000 BR OVC003 14/14 Q1017 NOSIG=
201003270232 SPECI LMML 270232Z 36009KT 4000 BR OVC003 14/14 Q1017 NOSIG=
201003270230 METAR LMML NIL=
201003270215 METAR LMML 270215Z 36007KT 330V030 2000 BR OVC002 14/14 Q1017
                        NOSIG=
201003270200 METAR LMML NIL=
201003270145 METAR LMML 270145Z 35010KT 2000 BR OVC001 14/14 Q1017 NOSIG=
201003270130 METAR LMML NIL=
201003270115 METAR LMML 270115Z 35007KT 330V030 0400 R13/1383VP1500U FG
                        OVC001 15/14 Q1017 NOSIG=
201003270100 METAR LMML NIL=
201003270045 METAR LMML 270045Z 35006KT 310V030 0400 R13/0723VP1500U FG
                        OVC001 15/14 Q1018 NOSIG=
201003270030 METAR LMML NIL=
201003270015 METAR LMML 270015Z 02005KT 1000 R13/1268VP1500D FG OVC001
                        15/15 Q1017 NOSIG=
201003262345 METAR LMML 262345Z 35005KT 320V020 2000 BR OVC001 15/15 Q1018
                        NOSIG=
201003262330 METAR LMML NIL=
201003262315 METAR LMML 262315Z 01004KT 340V040 2000 BR OVC001 15/15 Q1018
                        NOSIG=
201003262300 METAR LMML NIL=
201003262245 METAR LMML 262245Z 01005KT 340V040 2000 BR OVC001 15/15 Q1018
                        NOSIG=
201003262230 METAR LMML NIL=
201003262215 METAR LMML 262215Z 36006KT 2000 BR OVC001 15/15 Q1018 NOSIG=
201003262200 METAR LMML NIL=
201003262145 METAR LMML 262145Z 36004KT 4000 BR OVC001 15/15 Q1019 NOSIG=
201003262130 METAR LMML NIL=
201003262115 METAR LMML 262115Z 04004KT 340V110 4000 BR OVC001 15/15 Q1018
                        NOSIG=
201003262100 METAR LMML NIL=
201003262045 METAR LMML 262045Z 06005KT 010V110 4000 BR OVC001 15/15 Q1018
                        NOSIG=
201003262030 METAR LMML NIL=
201003262015 METAR LMML 262015Z VRB03KT 5000 BR OVC002 16/15 Q1019 NOSIG=
201003262000 METAR LMML NIL=
201003261945 METAR LMML 261945Z 03004KT 010V070 6000 BKN002 16/15 Q1019
                        BECMG 5000=
201003261915 METAR LMML 261915Z 04004KT 330V090 8000 SCT002 16/15 Q1019
                        BECMG BKN002=
201003261900 METAR LMML NIL=
201003261845 METAR LMML 261845Z 03004KT 350V090 8000 SCT003 16/15 Q1019
                        BECMG BKN003=
201003261830 METAR LMML NIL=
201003261815 METAR LMML 261815Z 06004KT 020V100 8000 SCT003 16/15 Q1018
                        NOSIG=
201003261800 METAR LMML NIL=
201003261745 METAR LMML 261745Z 08004KT 030V120 8000 SCT003 16/15 Q1018
                        TEMPO BKN003=
201003261715 METAR LMML 261715Z 09004KT 8000 SCT003 16/15 Q1018 NOSIG=
201003261700 METAR LMML NIL=
201003261645 METAR LMML 261645Z 09004KT 060V130 8000 FEW003 16/15 Q1018
                        NOSIG=
201003261630 METAR LMML NIL=
201003261615 METAR LMML 261615Z 08006KT 8000 FEW004 17/15 Q1017 NOSIG=
201003261600 METAR LMML NIL=
201003261545 METAR LMML 261545Z 09007KT 8000 SCT004 17/15 Q1017 NOSIG=
201003261530 METAR LMML NIL=
201003261515 METAR LMML 261515Z 08007KT 050V120 8000 BKN005 18/16 Q1018
                        NOSIG=
201003261500 METAR LMML NIL=
201003261445 METAR LMML 261445Z 09009KT 060V120 8000 BKN005 18/16 Q1018
                        NOSIG=
201003261430 METAR LMML NIL=
201003261415 METAR LMML 261415Z 08009KT 050V130 8000 BKN005 SCT007 18/16
                        Q1018 NOSIG=
201003261400 METAR LMML NIL=
201003261345 METAR LMML 261345Z 09008KT 060V120 8000 BKN004 SCT008 19/16
                        Q1018 NOSIG=
201003261330 METAR LMML NIL=
201003261315 METAR LMML 261315Z 08009KT 050V130 8000 BKN005 SCT008 19/16
                        Q1018 NOSIG=
201003261300 METAR LMML NIL=
201003261245 METAR LMML 261245Z 10009G20KT 040V140 8000 BKN005 SCT008
                        19/16 Q1018 NOSIG=
201003261230 METAR LMML NIL=
201003261215 METAR LMML 261215Z 10009KT 060V130 8000 BKN005 SCT009 19/16
                        Q1019 NOSIG=
201003261200 METAR LMML NIL=
201003261145 METAR LMML 261145Z 10009KT 070V150 8000 BKN005 19/16 Q1019
                        NOSIG=
201003261130 METAR LMML NIL=
201003261115 METAR LMML 261115Z 11010KT 070V150 8000 BKN004 19/16 Q1019
                        NOSIG=
201003261100 METAR LMML NIL=
201003261045 METAR LMML 261045Z 10011KT 080V140 7000 BKN004 18/16 Q1019
                        NOSIG=
201003261030 METAR LMML NIL=
201003261015 METAR LMML 261015Z 10009KT 7000 BKN006 18/16 Q1019 NOSIG=
201003261000 METAR LMML NIL=
201003260945 METAR LMML 260945Z 10008KT 060V140 7000 BKN004 18/16 Q1020
                        NOSIG=
201003260930 METAR LMML NIL=
201003260915 METAR LMML 260915Z 10009KT 040V130 7000 BKN004 18/16 Q1020
                        NOSIG=
201003260900 METAR LMML NIL=
201003260845 METAR LMML 260845Z 11008KT 080V140 7000 BKN004 17/17 Q1020
                        NOSIG=
201003260830 METAR LMML NIL=
201003260815 METAR LMML 260815Z 10006KT 070V130 6000 BKN004 17/17 Q1020
                        NOSIG=
201003260800 METAR LMML NIL=
201003260745 METAR LMML 260745Z 10007KT 5000 BR BKN003 16/16 Q1020 NOSIG=
201003260730 METAR LMML NIL=
201003260715 METAR LMML 260715Z 12008KT 080V160 4000 BR OVC002 16/16 Q1019
                        NOSIG=
201003260700 METAR LMML NIL=
201003260645 METAR LMML 260645Z 12009KT 080V140 2600 BR OVC002 15/15 Q1019
                        NOSIG=
201003260630 METAR LMML NIL=
201003260615 METAR LMML 260615Z 11007KT 3000 BR OVC002 15/15 Q1019 TEMPO
                        2000 BR BKN001=
201003260600 METAR LMML NIL=
201003260545 METAR LMML 260545Z 10007KT 3000 BR BKN002 15/15 Q1019 TEMPO
                        2000 BR BKN001=
201003260530 METAR LMML NIL=
201003260515 METAR LMML 260515Z 10005KT 3000 BR BKN002 15/15 Q1019 TEMPO
                        2000 BR BKN001=
201003260500 METAR LMML NIL=
201003260445 METAR LMML 260445Z 10006KT 3500 BR BKN002 15/15 Q1019 TEMPO
                        3000 BR BKN001=
201003260430 METAR LMML NIL=
201003260415 METAR LMML 260415Z 11005KT 6000 SCT003 14/14 Q1019 NOSIG=
201003260400 METAR LMML NIL=
201003260345 METAR LMML 260345Z 10005KT 070V130 6000 SCT003 15/14 Q1019
                        NOSIG=
201003260330 METAR LMML NIL=
201003260315 METAR LMML 260315Z 14005KT 100V190 6000 SCT003 15/14 Q1019
                        NOSIG=
201003260300 METAR LMML NIL=
201003260245 METAR LMML 260245Z 14006KT 6000 SCT003 15/15 Q1019 TEMPO
                        5000 BR BKN003=
201003260230 METAR LMML NIL=
201003260215 METAR LMML 260215Z 14008KT 6000 SCT003 SCT200 15/15 Q1019
                        TEMPO 5000 BR BKN003=
201003260200 METAR LMML NIL=
201003260145 METAR LMML 260145Z 13008KT 6000 BKN002 15/15 Q1019 TEMPO
                        5000 BR=
201003260130 METAR LMML NIL=
201003260115 METAR COR LMML 260115Z 14009KT 6000 OVC002 15/15 Q1019 TEMPO
                        5000 BR=
201003260100 METAR LMML NIL=
201003260045 METAR LMML 260045Z 14009KT 6000 OVC002 15/15 Q1019 TEMPO
                        5000 BR=
201003260030 METAR LMML NIL=
201003260015 METAR LMML 260015Z 14009KT 6000 OVC002 15/15 Q1020 TEMPO
                        5000 BR=
201003252345 METAR LMML 252345Z 14010KT 6000 OVC002 15/15 Q1020 TEMPO
                        5000 BR=
201003252330 METAR LMML NIL=
201003252315 METAR LMML 252315Z 13013KT 6000 OVC002 15/15 Q1020 TEMPO
                        5000 BR=
201003252300 METAR LMML NIL=
201003252245 METAR LMML 252245Z 13011KT 6000 OVC002 15/15 Q1020 TEMPO
                        5000 BR=
201003252230 METAR LMML NIL=
201003252215 METAR LMML 252215Z 12010KT 6000 OVC002 15/15 Q1020 TEMPO
                        5000 BR=
201003252200 METAR LMML NIL=
201003252145 METAR LMML 252145Z 12009KT 090V150 6000 OVC002 15/15 Q1020
                        TEMPO 5000 BR=
201003252130 METAR LMML NIL=
201003252115 METAR LMML 252115Z 12010KT 6000 BKN003 15/15 Q1020 TEMPO
                        5000 BR BKN002=
201003252100 METAR LMML NIL=
201003252045 METAR LMML 252045Z 13009KT 100V160 6000 BKN003 15/15 Q1020
                        TEMPO 5000 BR BKN002=
201003252030 METAR LMML NIL=
201003252015 METAR LMML 252015Z 12009KT 6000 BKN003 15/15 Q1020 TEMPO
                        5000 BR BKN002=
201003252000 METAR LMML NIL=
201003251945 METAR LMML 251945Z 13010KT 6000 BKN003 15/15 Q1020 TEMPO
                        5000 BR BKN002=
201003251930 METAR LMML NIL=
201003251915 METAR LMML 251915Z 13009KT 100V160 6000 BKN003 15/15 Q1020
                        NOSIG=
201003251900 METAR LMML NIL=
201003251845 METAR LMML 251845Z 13010KT 7000 BKN003 15/15 Q1020 NOSIG=
201003251830 METAR LMML NIL=
201003251815 METAR LMML 251815Z 13010KT 7000 BKN003 15/15 Q1019 NOSIG=
201003251800 METAR LMML NIL=
201003251745 METAR LMML 251745Z 13009KT 8000 BKN004 15/15 Q1019 NOSIG=
201003251730 METAR LMML NIL=
201003251715 METAR LMML 251715Z 15008KT 110V180 8000 BKN004 16/15 Q1019
                        NOSIG=
201003251700 METAR LMML NIL=
201003251645 METAR LMML 251645Z 14010KT 120V180 8000 BKN004 16/15 Q1018
                        NOSIG=
201003251630 METAR LMML NIL=
201003251615 METAR LMML 251615Z 14012KT 9000 BKN004 16/15 Q1018 NOSIG=
201003251545 METAR LMML 251545Z 14010KT 110V180 9000 BKN005 16/15 Q1018
                        NOSIG=
201003251530 METAR LMML NIL=
201003251515 METAR LMML 251515Z 15012KT 120V180 9000 BKN005 16/15 Q1018
                        NOSIG=
201003251500 METAR LMML NIL=
201003251445 METAR LMML 251445Z 14011KT 9999 BKN007 17/15 Q1018 NOSIG=
201003251415 METAR LMML 251415Z 15011KT 110V180 9999 BKN006 17/15 Q1018
                        NOSIG=
201003251400 METAR LMML NIL=
201003251345 METAR LMML 251345Z 15012KT 110V180 9999 BKN008 17/15 Q1019
                        NOSIG=
201003251330 METAR LMML NIL=
201003251315 METAR LMML 251315Z 15013KT 120V180 9999 SCT009 17/15 Q1019
                        NOSIG=
201003251245 METAR LMML 251245Z 15012KT 120V180 9999 SCT008 18/14 Q1019
                        NOSIG=
201003251230 METAR LMML NIL=
201003251215 METAR LMML 251215Z 14012KT 9999 SCT008 18/14 Q1020 NOSIG=
201003251200 METAR LMML NIL=
201003251145 METAR LMML 251145Z 14013KT 100V170 9999 SCT009 18/15 Q1020
                        NOSIG=
201003251130 METAR LMML NIL=
201003251115 METAR LMML 251115Z 14012KT 110V170 9999 SCT009 18/14 Q1020
                        NOSIG=
201003251100 METAR LMML NIL=
201003251045 METAR LMML 251045Z 14012KT 110V170 9999 SCT009 17/14 Q1020
                        NOSIG=
201003251015 METAR LMML 251015Z 15011KT 100V190 9999 SCT009 17/14 Q1021
                        NOSIG=
201003251000 METAR LMML NIL=
201003250945 METAR LMML 250945Z 14012KT 110V200 9999 SCT010 17/14 Q1021
                        NOSIG=
201003250915 METAR LMML 250915Z 15012KT 120V190 9999 SCT010 17/13 Q1021
                        NOSIG=
201003250900 METAR LMML NIL=
201003250845 METAR LMML 250845Z 14013KT 9999 SCT011 16/13 Q1020 NOSIG=
201003250830 METAR LMML NIL=
201003250815 METAR LMML 250815Z 14013KT 9999 SCT011 16/13 Q1020 NOSIG=
201003250800 METAR LMML NIL=
201003250745 METAR LMML 250745Z 13012KT 9999 SCT010 16/13 Q1020 NOSIG=
201003250730 METAR LMML NIL=
201003250715 METAR LMML 250715Z 14010KT 9999 FEW010 15/13 Q1020 NOSIG=
201003250700 METAR LMML NIL=
201003250645 METAR LMML 250645Z 14008KT 9999 FEW012 15/13 Q1020 NOSIG=
201003250630 METAR LMML NIL=
201003250615 METAR LMML 250615Z 13007KT 9999 FEW012 14/13 Q1019 NOSIG=
201003250600 METAR LMML NIL=
201003250545 METAR LMML 250545Z 13005KT 9999 FEW012 12/11 Q1019 NOSIG=
201003250530 METAR LMML NIL=
201003250515 METAR LMML 250515Z 13006KT 9999 SCT013 13/11 Q1019 NOSIG=
201003250500 METAR LMML NIL=
201003250445 METAR LMML 250445Z 15005KT 120V180 9999 BKN013 13/12 Q1019
                        NOSIG=
201003250430 METAR LMML NIL=
201003250415 METAR LMML 250415Z 16004KT 9000 BKN013 13/12 Q1019 TEMPO
                        5000 DU=
201003250400 METAR LMML NIL=
201003250345 METAR LMML 250345Z 16004KT 9000 BKN012 13/12 Q1019 NOSIG=
201003250315 METAR LMML 250315Z 14005KT 9000 BKN011 12/12 Q1018 NOSIG=
201003250300 METAR LMML NIL=
201003250245 METAR LMML 250245Z 14004KT 9000 BKN011 12/11 Q1018 NOSIG=
201003250230 METAR LMML NIL=
201003250215 METAR LMML 250215Z 14005KT 9000 BKN011 12/12 Q1018 NOSIG=
201003250200 METAR LMML NIL=
201003250145 METAR LMML 250145Z 16004KT 120V180 9000 BKN010 13/12 Q1018
                        NOSIG=
201003250130 METAR LMML NIL=
201003250115 METAR LMML 250115Z VRB03KT 9000 BKN010 13/11 Q1019 NO SIG=
201003250100 METAR LMML NIL=
201003250045 METAR LMML 250045Z 16004KT 9000 SCT008 13/12 Q1019 TEMPO
                        7000 BKN007=
201003250030 METAR LMML NIL=
201003250015 METAR LMML 250015Z VRB03KT 9000 SCT008 13/12 Q1019 TEMPO
                        7000 BKN007=
201003250000 METAR LMML NIL=
201003242345 METAR LMML 242345Z 17004KT 9000 SCT008 13/12 Q1019 TEMPO
                        7000 BKN007=
201003242330 METAR LMML NIL=
201003242315 METAR LMML 242315Z 16004KT 130V200 9000 SCT008 13/12 Q1019
                        TEMPO 7000 BKN007=
201003242300 METAR LMML NIL=
201003242245 METAR LMML 242245Z 14006KT 9000 SCT008 13/12 Q1018 TEMPO
                        7000 BKN007=
201003242215 METAR LMML 242215Z 15004KT 120V180 9000 SCT008 13/12 Q1019
                        TEMPO 7000 BKN007=
201003242200 METAR LMML NIL=
201003242145 METAR LMML 242145Z 16004KT 140V200 9000 SCT008 13/12 Q1019
                        TEMPO 7000 BKN007=
201003242130 METAR LMML NIL=
201003242115 METAR LMML 242115Z VRB03KT 9000 SCT008 13/12 Q1019 TEMPO
                        7000 BKN007=
201003242100 METAR LMML NIL=
201003242045 METAR LMML 242045Z VRB03KT 9000 SCT008 13/11 Q1018 TEMPO
                        7000 BKN007=
201003242030 METAR LMML NIL=
201003242015 METAR LMML 242015Z VRB03KT 9000 FEW010 13/11 Q1018 NOSIG=
201003242000 METAR LMML NIL=
201003241945 METAR LMML 241945Z 14005KT 9000 FEW010 13/11 Q1018 NOSIG=
201003241930 METAR LMML NIL=
201003241915 METAR LMML 241915Z VRB03KT 9000 FEW010 13/12 Q1018 NOSIG=
201003241900 METAR LMML NIL=
201003241845 METAR LMML 241845Z VRB03KT 9000 FEW010 SCT250 13/11 Q1018
                        NOSIG=
201003241830 METAR LMML NIL=
201003241815 METAR LMML 241815Z VRB03KT 9000 FEW011 SCT250 14/12 Q1018
                        NOSIG=
201003241800 METAR LMML NIL=
201003241745 METAR LMML 241745Z 17004KT 140V210 9000 FEW011 SCT250 14/11
                        Q1017 NOSIG=
201003241730 METAR LMML NIL=
201003241715 METAR LMML 241715Z 18004KT 9000 FEW012 SCT250 14/12 Q1017
                        NOSIG=
201003241700 METAR LMML NIL=
201003241645 METAR LMML 241645Z 15004KT 120V180 9999 FEW012 SCT250 15/12
                        Q1017 NOSIG=
201003241630 METAR LMML NIL=
201003241615 METAR LMML 241615Z VRB03KT 9999 FEW012 15/12 Q1017 NOSIG=
201003241600 METAR LMML NIL=
201003241545 METAR LMML 241545Z 18004KT 130V220 9999 FEW012 16/12 Q1017
                        NOSIG=
201003241530 METAR LMML NIL=
201003241515 METAR LMML 241515Z 17004KT 130V210 9999 FEW014 16/12 Q1017
                        NOSIG=
201003241500 METAR LMML NIL=
201003241445 METAR LMML 241445Z 17006KT 140V230 9999 FEW014 16/12 Q1017
                        NOSIG=
201003241430 METAR LMML NIL=
201003241415 METAR LMML 241415Z 18006KT 130V210 9999 FEW014 16/12 Q1017
                        NOSIG=
201003241400 METAR LMML NIL=
201003241345 METAR LMML 241345Z 16006KT 130V190 9999 FEW017 16/12 Q1017
                        NOSIG=
201003241330 METAR LMML NIL=
201003241315 METAR LMML 241315Z 17007KT 120V210 9999 FEW017 17/12 Q1017
                        NOSIG=
201003241300 METAR LMML NIL=
201003241245 METAR LMML 241245Z 18006KT 110V220 9999 FEW017 17/12 Q1017
                        NOSIG=
201003241230 METAR LMML NIL=
201003241215 METAR LMML 241215Z 13004KT 080V200 9999 FEW018 17/11 Q1017
                        NOSIG=
201003241200 METAR LMML NIL=
201003241145 METAR LMML 241145Z 12007KT 070V170 9999 FEW020 17/12 Q1017
                        NOSIG=
201003241130 METAR LMML NIL=
201003241115 METAR LMML 241115Z 11007KT 070V150 9999 FEW019 17/12 Q1017
                        NOSIG=
201003241100 METAR LMML NIL=
201003241045 METAR LMML 241045Z 10008KT 040V160 9999 SCT017 16/12 Q1018
                        NOSIG=
201003241030 METAR LMML NIL=
201003241015 METAR LMML 241015Z 11005KT 010V160 9000 SCT017 16/12 Q1018
                        BECMG 9999=
201003241000 METAR LMML NIL=
201003240945 METAR LMML 240945Z 08005KT 030V110 9000 SCT019 17/12 Q1018
                        BECMG 9999=
201003240930 METAR LMML NIL=
201003240915 METAR LMML 240915Z 03005KT 350V110 9000 SCT017 16/11 Q1018
                        NOSIG=
201003240900 METAR LMML NIL=
201003240845 METAR LMML 240845Z 09004KT 010V140 9999 BKN017 16/11 Q1018
                        NOSIG=
201003240830 METAR LMML NIL=
201003240815 METAR LMML 240815Z 08004KT 010V140 9999 BKN016 16/11 Q1018
                        NOSIG=
201003240800 METAR LMML NIL=
201003240745 METAR LMML 240745Z 05005KT 010V110 9000 SCT016 16/11 Q1017
                        BECMG 9999=
201003240730 METAR LMML NIL=
201003240715 METAR LMML 240715Z 07004KT 030V150 8000 BKN016 14/11 Q1018
                        BECMG 9999=
201003240700 METAR LMML NIL=
201003240645 METAR LMML 240645Z VRB02KT 7000 BKN016 14/11 Q1017 NOSIG=
201003240630 METAR LMML NIL=
201003240615 METAR LMML 240615Z VRB02KT 7000 BKN014 14/11 Q1017 NOSIG=
201003240600 METAR LMML NIL=
201003240545 METAR LMML 240545Z VRB02KT 9000 BKN014 12/10 Q1017 NOSIG=
201003240530 METAR LMML NIL=
201003240515 METAR LMML 240515Z VRB02KT 9000 BKN015 13/11 Q1017 NOSIG=
201003240500 METAR LMML NIL=
201003240445 METAR LMML 240445Z VRB01KT 9000 BKN012 13/11 Q1017 NOSIG=
201003240430 METAR LMML NIL=
201003240415 METAR LMML 240415Z VRB03KT 9000 BKN011 13/11 Q1016 NOSIG=
201003240400 METAR LMML NIL=
201003240345 METAR LMML 240345Z 03004KT 360V060 9000 BKN011 13/11 Q1016
                        NOSIG=
201003240330 METAR LMML NIL=
201003240315 METAR LMML 240315Z 04005KT 010V080 9000 BKN011 13/11 Q1016
                        NOSIG=
201003240300 METAR LMML NIL=
201003240245 METAR LMML 240245Z 04004KT 010V070 9000 BKN011 13/11 Q1016
                        NOSIG=
201003240230 METAR LMML NIL=
201003240215 METAR LMML 240215Z 04005KT 360V060 9000 BKN012 13/11 Q1016
                        NOSIG=
201003240200 METAR LMML NIL=
201003240145 METAR LMML 240145Z 04005KT 9000 SCT011 13/12 Q1016 NOSIG=
201003240130 METAR LMML NIL=
201003240115 METAR LMML 240115Z 04004KT 010V070 9000 SCT011 13/11 Q1016
                        NOSIG=
201003240100 METAR LMML NIL=
201003240045 METAR LMML 240045Z VRB03KT 9000 SCT010 13/11 Q1016 NOSIG=
201003240030 METAR LMML NIL=
201003240015 METAR LMML 240015Z VRB03KT 9000 SCT011 13/11 Q1017 NOSIG=
201003240000 METAR LMML NIL=
201003232345 METAR LMML 232345Z 06004KT 020V080 9000 SCT011 13/11 Q1017
                        NOSIG=
201003232330 METAR LMML NIL=
201003232315 METAR LMML 232315Z 06004KT 9999 SCT010 13/11 Q1017 NOSIG=
201003232300 METAR LMML NIL=
201003232245 METAR LMML 232245Z VRB03KT 9999 SCT010 13/11 Q1017 NOSIG=
201003232230 METAR LMML NIL=
201003232215 METAR LMML 232215Z 06004KT 030V090 9999 SCT010 13/12 Q1017
                        NOSIG=
201003232200 METAR LMML NIL=
201003232145 METAR LMML 232145Z VRB03KT 9999 SCT009 13/12 Q1017 NOSIG=
201003232130 METAR LMML NIL=
201003232115 METAR LMML 232115Z 06004KT 9999 BKN008 13/12 Q1017 NOSIG=
201003232100 METAR LMML NIL=
201003232045 METAR LMML 232045Z 07005KT 9999 SCT008 13/12 Q1017 NOSIG=
201003232030 METAR LMML NIL=
201003232015 METAR LMML 232015Z 06004KT 9999 BKN008 13/12 Q1017 NOSIG=
201003232000 METAR LMML NIL=
201003231945 METAR LMML 231945Z 07005KT 9999 BKN009 13/12 Q1017 NOSIG=
201003231930 METAR LMML NIL=
201003231915 METAR COR LMML 231915Z 07005KT 9999 SCT009 13/12 Q1017 NOSIG=
201003231900 METAR LMML NIL=
201003231845 METAR LMML 231845Z 07005KT 030V100 9999 BKN010 14/12 Q1016
                        NOSIG=
201003231830 METAR LMML NIL=
201003231815 METAR LMML 231815Z 07005KT 9999 BKN010 SCT250 14/12 Q1016
                        NOSIG=
201003231800 METAR LMML NIL=
201003231745 METAR LMML 231745Z 07008KT 9999 BKN010 BKN250 14/12 Q1016
                        NOSIG=
201003231730 METAR LMML NIL=
201003231715 METAR LMML 231715Z 07008KT 030V100 9999 BKN010 BKN250 14/12
                        Q1016 NOSIG=
201003231700 METAR LMML NIL=
201003231645 METAR LMML 231645Z 07008KT 9999 BKN010 BKN250 15/12 Q1016
                        NOSIG=
201003231630 METAR LMML NIL=
201003231615 METAR LMML 231615Z 05007KT 010V100 9999 BKN010 BKN130 15/12
                        Q1016 NOSIG=
201003231600 METAR LMML NIL=
201003231545 METAR LMML 231545Z 06007KT 020V110 9999 SCT010 BKN130 16/12
                        Q1016 NOSIG=
201003231530 METAR LMML NIL=
201003231515 METAR LMML 231515Z 04007KT 360V080 9999 SCT010 BKN130 16/12
                        Q1016 NOSIG=
201003231500 METAR LMML NIL=
201003231445 METAR LMML 231445Z 07007KT 020V100 9999 SCT009 BKN120 17/13
                        Q1016 NOSIG=
201003231430 METAR LMML NIL=
201003231415 METAR LMML 231415Z 05008KT 020V110 9999 FEW008 BKN120 17/13
                        Q1016 NOSIG=
201003231400 METAR LMML NIL=
201003231345 METAR LMML 231345Z 07006KT 020V100 9999 FEW007 OVC120 17/13
                        Q1016 NOSIG=
201003231330 METAR LMML NIL=
201003231315 METAR LMML 231315Z 07006KT 040V110 9999 FEW007 OVC120 16/13
                        Q1016 NOSIG=
201003231300 METAR LMML NIL=
201003231245 METAR LMML 231245Z 08007KT 030V120 9999 FEW007 OVC120 16/13
                        Q1016 NOSIG=
201003231230 METAR LMML NIL=
201003231215 METAR LMML 231215Z 06007KT 020V120 9999 SCT009 OVC120 16/14
                        Q1017 NOSIG=
201003231200 METAR LMML NIL=
201003231145 METAR LMML 231145Z 07007KT 020V110 9999 SCT007 OVC150 16/13
                        Q1017 NOSIG=
201003231130 METAR LMML NIL=
201003231115 METAR LMML 231115Z 09007KT 050V120 9999 SCT007 OVC150 15/13
                        Q1017 NOSIG=
201003231100 METAR LMML NIL=
201003231045 METAR LMML 231045Z 07005KT 040V100 9999 SCT007 OVC150 15/14
                        Q1017 NOSIG=
201003231030 METAR LMML NIL=
201003231015 METAR LMML 231015Z 08006KT 050V110 9999 SCT006 SCT100 OVC150
                        15/14 Q1018 NOSIG=
201003231000 METAR LMML NIL=
201003230945 METAR LMML 230945Z 10008KT 9000 BKN006 SCT120 OVC150 15/14
                        Q1018 NOSIG=
201003230930 METAR LMML NIL=
201003230915 METAR LMML 230915Z 10008KT 060V130 9000 BKN006 BKN120 BKN250
                        15/14 Q1018 NOSIG=
201003230900 METAR LMML NIL=
201003230845 METAR LMML 230845Z 10009KT 8000 SCT006 BKN120 OVC250 15/14
                        Q1018 TEMPO BKN006=
201003230830 METAR LMML NIL=
201003230815 METAR LMML 230815Z 09008KT 070V130 7000 BKN005 BKN120 OVC250
                        14/14 Q1018 NOSIG=
201003230800 METAR LMML NIL=
201003230745 METAR LMML 230745Z 08007KT 060V120 7000 BKN005 SCT120 OVC250
                        14/14 Q1017 NOSIG=
201003230730 METAR LMML NIL=
201003230715 METAR LMML 230715Z 08006KT 7000 BKN005 BKN120 OVC250 14/14
                        Q1018 NOSIG=
201003230700 METAR LMML NIL=
201003230645 METAR LMML 230645Z 08006KT 040V100 6000 SCT005 BKN120 OVC250
                        14/14 Q1017 TEMPO BKN005=
201003230630 METAR LMML NIL=
201003230615 METAR LMML 230615Z 08005KT 6000 FEW005 BKN120 OVC250 14/13
                        Q1017 TEMPO BKN005=
201003230600 METAR LMML NIL=
201003230545 METAR LMML 230545Z 08004KT 4000 SCT004 SCT120 BKN250 13/13
                        Q1017 BECMG 9000=
201003230530 METAR LMML NIL=
201003230515 METAR LMML 230515Z 08004KT 6000 FEW005 SCT150 BKN250 13/13
                        Q1017 BECMG 9000=
201003230500 METAR LMML NIL=
201003230445 METAR LMML 230445Z 09004KT 7000 SCT005 BKN250 13/13 Q1017
                        BECMG 9000=
201003230430 METAR LMML NIL=
201003230415 METAR LMML 230415Z 09004KT 7000 SCT005 BKN250 14/13 Q1017
                        BECMG 9000=
201003230400 METAR LMML NIL=
201003230345 METAR LMML 230345Z 11005KT 5000 BKN005 14/14 Q1017 BECMG
                        4000=
201003230330 METAR LMML NIL=
201003230315 METAR LMML 230315Z 10004KT 5000 BKN004 14/14 Q1017 BECMG
                        4000=
201003230245 METAR LMML 230245Z VRB03KT 5000 BKN003 14/14 Q1017 BECMG
                        4000=
201003230230 METAR LMML NIL=
201003230215 METAR LMML 230215Z VRB02KT 6000 BKN004 14/14 Q1017 BECMG
                        5000=
201003230200 METAR LMML NIL=
201003230145 METAR LMML 230145Z 13005KT 6000 BKN003 14/14 Q1017 BECMG
                        5000=
201003230130 METAR LMML NIL=
201003230115 METAR LMML 230115Z 13006KT 6000 BKN003 14/13 Q1017 BECMG
                        5000=
201003230100 METAR LMML NIL=
201003230045 METAR LMML 230045Z 13007KT 6000 BKN004 14/14 Q1018 BECMG
                        5000=
201003230015 METAR LMML 230015Z 13008KT 6000 BKN003 14/14 Q1018 BECMG
                        5000=
201003230000 METAR LMML NIL=
201003222345 METAR LMML 222345Z 14008KT 6000 BKN002 14/14 Q1018 BECMG
                        5000=
201003222330 METAR LMML NIL=
201003222315 METAR LMML 222315Z 14007KT 6000 BKN002 14/14 Q1018 BECMG
                        5000=
201003222245 METAR LMML 222245Z 14007KT 6000 BKN002 14/14 Q1018 BECMG
                        5000=
201003222215 METAR LMML 222215Z 14005KT 6000 BKN002 14/14 Q1019 NOSIG=
201003222200 METAR LMML NIL=
201003222145 METAR LMML 222145Z 14005KT 7000 BKN002 15/14 Q1019 NOSIG=
201003222130 METAR LMML NIL=
201003222115 METAR LMML 222115Z 14007KT 7000 BKN002 15/14 Q1019 NOSIG=
201003222100 METAR LMML NIL=
201003222045 METAR LMML 222045Z 13007KT 7000 BKN002 15/14 Q1019 NOSIG=
201003222015 METAR LMML 222015Z 13007KT 9000 BKN003 SCT250 15/14 Q1019
                        NOSIG=
201003221945 METAR LMML 221945Z 13005KT 9000 BKN003 BKN250 15/14 Q1020
                        NOSIG=
201003221930 METAR LMML NIL=
201003221915 METAR LMML 221915Z 14007KT 9000 BKN003 SCT120 BKN250 15/14
                        Q1020 NOSIG=
201003221845 METAR LMML 221845Z 13007KT 9000 SCT003 SCT120 BKN250 15/14
                        Q1020 TEMPO BKN004=
201003221830 METAR LMML NIL=
201003221815 METAR LMML 221815Z 14006KT 9000 SCT004 BKN250 15/14 Q1019
                        TEMPO BKN004=
201003221800 METAR LMML NIL=
201003221745 METAR LMML 221745Z 13007KT 9000 SCT004 BKN250 15/14 Q1019
                        TEMPO BKN004=
201003221730 METAR LMML NIL=
201003221730 SPECI LMML 221730Z 12008KT 9999 SCT004 BKN250 15/14 Q1019
                        TEMPO BKN004=
201003221715 METAR LMML 221715Z 12008KT 9999 BKN005 BKN250 15/14 Q1019
                        TEMPO BKN004=
201003221700 METAR LMML NIL=
201003221645 METAR LMML 221645Z 12008KT 9999 SCT005 BKN250 15/14 Q1020
                        TEMPO BKN007=
201003221630 METAR LMML NIL=
201003221615 METAR LMML 221615Z 12008KT 9999 SCT006 BKN250 16/14 Q1020
                        TEMPO BKN007=
201003221600 METAR LMML NIL=
201003221545 METAR LMML 221545Z 12007KT 9999 FEW008 SCT120 BKN250 16/14
                        Q1020 TEMPO BKN007=
201003221530 METAR LMML NIL=
201003221515 METAR LMML 221515Z 13006KT 9999 FEW007 SCT120 BKN250 16/14
                        Q1020 NOSIG=
201003221500 METAR LMML NIL=
201003221445 METAR LMML 221445Z 13006KT 100V160 9999 FEW007 SCT120 BKN250
                        17/14 Q1021 NOSIG=
201003221430 METAR LMML NIL=
201003221415 METAR LMML 221415Z 13008KT 9999 FEW008 SCT120 BKN250 16/14
                        Q1021 NOSIG=
201003221400 METAR LMML NIL=
201003221345 METAR LMML 221345Z 13006KT 100V160 9999 FEW008 SCT120 BKN250
                        17/14 Q1021 NOSIG=
201003221330 METAR LMML NIL=
201003221315 METAR LMML 221315Z 14008KT 9999 FEW008 BKN250 18/14 Q1021
                        NOSIG=
201003221300 METAR LMML NIL=
201003221245 METAR LMML 221245Z 15008KT 110V190 9999 FEW008 BKN250 18/14
                        Q1021 NOSIG=
201003221215 METAR LMML 221215Z 16008KT 110V210 9999 FEW009 BKN250 18/14
                        Q1022 NOSIG=
201003221200 METAR LMML NIL=
201003221145 METAR LMML 221145Z 15009KT 110V180 9999 FEW009 BKN250 18/14
                        Q1022 NOSIG=
201003221130 METAR LMML NIL=
201003221115 METAR LMML 221115Z 15008KT 120V200 9999 FEW009 SCT250 18/14
                        Q1022 NOSIG=
201003221100 METAR LMML NIL=
201003221045 METAR LMML 221045Z 16008KT 130V200 9999 FEW009 SCT250 18/14
                        Q1023 NOSIG=
201003221030 METAR LMML NIL=
201003221015 METAR LMML 221015Z 16008KT 130V200 9999 FEW008 SCT120 18/14
                        Q1023 NOSIG=
201003221000 METAR LMML NIL=
201003220945 METAR LMML 220945Z 17007KT 140V220 9999 FEW008 17/14 Q1023
                        NOSIG=
201003220930 METAR LMML NIL=
201003220915 METAR LMML 220915Z 17008KT 130V210 9999 FEW008 17/14 Q1023
                        NOSIG=
201003220900 METAR LMML NIL=
201003220845 METAR LMML 220845Z 18010KT 150V230 9999 FEW008 17/14 Q1023
                        NOSIG=
201003220830 METAR LMML NIL=
201003220815 METAR LMML 220815Z 17009KT 140V210 9999 FEW007 16/14 Q1023
                        NOSIG=
201003220800 METAR LMML NIL=
201003220745 METAR LMML 220745Z 16008KT 140V200 9999 FEW007 SCT130 16/14
                        Q1023 NOSIG=
201003220730 METAR LMML NIL=
201003220715 METAR LMML 220715Z 17008KT 140V200 9999 FEW008 BKN250 15/14
                        Q1023 NOSIG=
201003220700 METAR LMML NIL=
201003220645 METAR LMML 220645Z 17007KT 9999 FEW008 BKN250 15/14 Q1023
                        NOSIG=
201003220630 METAR LMML NIL=
201003220615 METAR LMML 220615Z 18008KT 9999 FEW008 BKN250 15/14 Q1024
                        NOSIG=
201003220600 METAR LMML NIL=
201003220545 METAR LMML 220545Z 19007KT 9999 FEW008 BKN250 14/13 Q1024
                        NOSIG=
201003220530 METAR LMML NIL=
201003220515 METAR LMML 220515Z 19007KT 9999 FEW009 BKN250 14/13 Q1023
                        NOSIG=
201003220500 METAR LMML NIL=
201003220445 METAR LMML 220445Z 19006KT 160V230 9999 SCT008 SCT250 14/13
                        Q1023 NOSIG=
201003220430 METAR LMML NIL=
201003220415 METAR LMML 220415Z 19006KT 150V240 9999 SCT009 14/14 Q1023
                        NOSIG=
201003220400 METAR LMML NIL=
201003220345 METAR LMML 220345Z 18006KT 150V220 9999 BKN009 14/14 Q1023
                        NOSIG=
201003220330 METAR LMML NIL=
201003220315 METAR LMML 220315Z 17006KT 130V220 9999 BKN008 14/14 Q1023
                        TEMPO 9000=
201003220245 METAR LMML 220245Z 17006KT 140V200 9999 BKN008 14/14 Q1023
                        TEMPO 9000=
201003220230 METAR LMML NIL=
201003220215 METAR LMML 220215Z 18007KT 150V210 9999 BKN007 14/14 Q1024
                        TEMPO 9000=
201003220200 METAR LMML NIL=
201003220145 METAR LMML 220145Z 17008KT 140V200 9999 BKN004 14/14 Q1024
                        TEMPO 9000=
201003220130 METAR LMML NIL=
201003220115 METAR LMML 220115Z 17006KT 120V210 9999 BKN004 14/14 Q1024
                        TEMPO 9000=
201003220100 METAR LMML NIL=
201003220045 METAR LMML 220045Z 18007KT 140V210 9999 BKN004 14/14 Q1024
                        TEMPO 9000=
201003220030 METAR LMML NIL=
201003220015 METAR LMML 220015Z 17008KT 150V210 9999 BKN004 15/14 Q1024
                        TEMPO 9000=
201003220000 METAR LMML NIL=
201003212345 METAR LMML 212345Z 17007KT 150V210 9999 SCT004 14/14 Q1025
                        TEMPO 9000 BKN004=
201003212330 METAR LMML NIL=
201003212315 METAR LMML 212315Z 17007KT 9999 SCT004 14/14 Q1025 TEMPO
                        9000 BKN004=
201003212300 METAR LMML NIL=
201003212245 METAR LMML 212245Z 17006KT 9999 SCT004 14/14 Q1025 TEMPO
                        9000 BKN004=
201003212230 METAR LMML NIL=
201003212215 METAR LMML 212215Z 16006KT 9999 SCT004 14/14 Q1026 TEMPO
                        BKN004=
201003212200 METAR LMML NIL=
201003212145 METAR LMML 212145Z 17007KT 9999 SCT004 14/14 Q1026 NOSIG=
201003212130 METAR LMML NIL=
201003212115 METAR LMML 212115Z 16006KT 9999 FEW004 14/14 Q1026 NOSIG=
201003212100 METAR LMML NIL=
201003212045 METAR LMML 212045Z 17005KT 9999 FEW004 15/14 Q1026 NOSIG=
201003212030 METAR LMML NIL=
201003212015 METAR LMML 212015Z 17005KT 150V210 9999 FEW005 SCT250 15/14
                        Q1026 NOSIG=
201003212000 METAR LMML NIL=
201003211945 METAR LMML 211945Z VRB03KT 9999 FEW005 SCT250 15/14 Q1027
                        NOSIG=
201003211915 METAR LMML 211915Z 17004KT 9999 FEW009 SCT250 15/14 Q1027
                        NOSIG=
201003211900 METAR LMML NIL=
201003211845 METAR LMML 211845Z 18004KT 9999 FEW009 SCT250 15/14 Q1027
                        NOSIG=
201003211830 METAR LMML NIL=
201003211815 METAR LMML 211815Z 17004KT 140V200 9999 FEW009 SCT250 15/14
                        Q1027 NOSIG=
201003211800 METAR LMML NIL=
201003211745 METAR LMML 211745Z 17004KT 9999 FEW009 SCT250 15/14 Q1027
                        NOSIG=
201003211730 METAR LMML NIL=
201003211715 METAR LMML 211715Z 18004KT 150V220 9999 FEW009 SCT250 15/14
                        Q1027 NOSIG=
201003211700 METAR LMML NIL=
201003211645 METAR LMML 211645Z 18005KT 150V220 9999 FEW009 SCT250 16/14
                        Q1027 NOSIG=
201003211630 METAR LMML NIL=
201003211615 METAR LMML 211615Z 17006KT 140V210 9999 FEW009 SCT250 16/14
                        Q1027 NOSIG=
201003211600 METAR LMML NIL=
201003211545 METAR LMML 211545Z 18005KT 150V230 9999 FEW009 SCT250 17/14
                        Q1027 NOSIG=
201003211515 METAR LMML 211515Z 18005KT 150V230 9999 SCT010 SCT250 17/14
                        Q1027 NOSIG=
201003211500 METAR LMML NIL=
201003211445 METAR LMML 211445Z 18006KT 140V220 9999 SCT010 17/14 Q1027
                        NOSIG=
201003211430 METAR LMML NIL=
201003211415 METAR LMML 211415Z 18008KT 140V210 9999 SCT009 17/14 Q1027
                        NOSIG=
201003211400 METAR LMML NIL=
201003211345 METAR LMML 211345Z 17008KT 140V210 9999 SCT009 17/14 Q1027
                        NOSIG=
201003211330 METAR LMML NIL=
201003211315 METAR LMML 211315Z 18009KT 9999 SCT010 17/14 Q1027 NOSIG=
201003211300 METAR LMML NIL=
201003211245 METAR LMML 211245Z 17007KT 140V250 9999 FEW010 18/14 Q1027
                        NOSIG=
201003211230 METAR LMML NIL=
201003211215 METAR LMML 211215Z 18008KT 140V210 9999 FEW010 17/14 Q1028
                        NOSIG=
201003211200 METAR LMML NIL=
201003211145 METAR LMML 211145Z 17007KT 140V220 9999 FEW010 SCT250 18/14
                        Q1028 NOSIG=
201003211130 METAR LMML NIL=
201003211115 METAR LMML 211115Z 18007KT 140V220 9999 FEW010 SCT250 18/14
                        Q1028 NOSIG=
201003211100 METAR LMML NIL=
201003211045 METAR LMML 211045Z 17007KT 140V210 9999 FEW011 SCT250 17/14
                        Q1028 NOSIG=
201003211030 METAR LMML NIL=
201003211015 METAR LMML 211015Z 18008KT 9999 FEW010 SCT250 17/14 Q1028
                        NOSIG=
201003211000 METAR LMML NIL=
201003210945 METAR LMML 210945Z 18007KT 150V210 9999 FEW011 SCT250 17/13
                        Q1028 NOSIG=
201003210930 METAR LMML NIL=
201003210915 METAR LMML 210915Z 18006KT 140V240 9999 FEW010 SCT250 17/14
                        Q1028 NOSIG=
201003210900 METAR LMML NIL=
201003210845 METAR LMML 210845Z 19008KT 160V220 9999 SCT010 16/14 Q1028
                        NOSIG=
201003210830 METAR LMML NIL=
201003210815 METAR LMML 210815Z 18008KT 150V220 9999 SCT009 SCT250 16/14
                        Q1028 NOSIG=
201003210800 METAR LMML NIL=
201003210745 METAR LMML 210745Z 17008KT 140V200 9999 FEW008 SCT250 16/14
                        Q1028 NOSIG=
201003210730 METAR LMML NIL=
201003210715 METAR LMML 210715Z 17008KT 140V200 9999 FEW007 SCT250 15/14
                        Q1028 NOSIG=
201003210700 METAR LMML NIL=
201003210645 METAR LMML 210645Z 17005KT 140V200 9999 FEW008 SCT250 15/14
                        Q1028 NOSIG=
201003210630 METAR LMML NIL=
201003210615 METAR LMML 210615Z 17004KT 140V200 9999 FEW008 SCT250 14/14
                        Q1027 NOSIG=
201003210600 METAR LMML NIL=
201003210545 METAR LMML 210545Z 16006KT 9999 FEW015 BKN250 13/13 Q1027
                        NOSIG=
201003210530 METAR LMML NIL=
201003210515 METAR LMML 210515Z 17005KT 9999 FEW015 BKN250 13/12 Q1027
                        NOSIG=
201003210500 METAR LMML NIL=
201003210445 METAR LMML 210445Z 18004KT 9999 FEW015 SCT250 13/12 Q1027
                        NOSIG=
201003210430 METAR LMML NIL=
201003210415 METAR LMML 210415Z 16005KT 9999 FEW015 12/12 Q1027 NOSIG=
201003210400 METAR LMML NIL=
201003210345 METAR LMML 210345Z 17004KT 9999 FEW015 13/12 Q1027 NOSIG=
201003210315 METAR LMML 210315Z 17004KT 9999 FEW015 13/12 Q1027 NOSIG=
201003210300 METAR LMML NIL=
201003210245 METAR LMML 210245Z VRB03KT CAVOK 13/12 Q1027 NOSIG=
201003210230 METAR LMML NIL=
201003210215 METAR LMML 210215Z VRB03KT CAVOK 13/12 Q1027 NOSIG=
201003210200 METAR LMML NIL=
201003210145 METAR LMML 210145Z VRB02KT CAVOK 13/12 Q1027 NOSIG=
201003210130 METAR LMML NIL=
201003210115 METAR LMML 210115Z 17004KT CAVOK 13/12 Q1028 NOSIG=
201003210100 METAR LMML NIL=
201003210045 METAR LMML 210045Z 18004KT CAVOK 13/12 Q1028 NOSIG=
201003210030 METAR LMML NIL=
201003210015 METAR LMML 210015Z 18005KT 9999 FEW012 13/12 Q1028 NOSIG=
201003210000 METAR LMML NIL=
201003202345 METAR LMML 202345Z 18005KT 9999 FEW012 13/12 Q1028 NOSIG=
201003202330 METAR LMML NIL=
201003202315 METAR LMML 202315Z 17005KT 9999 FEW012 SCT250 13/12 Q1028
                        NOSIG=
201003202300 METAR LMML NIL=
201003202245 METAR LMML 202245Z 17005KT 9999 FEW012 SCT250 13/12 Q1028
                        NOSIG=
201003202230 METAR LMML NIL=
201003202215 METAR LMML 202215Z 17004KT 9999 FEW012 13/12 Q1029 NOSIG=
201003202200 METAR LMML NIL=
201003202145 METAR LMML 202145Z 18004KT CAVOK 13/12 Q1029 NOSIG=
201003202130 METAR LMML NIL=
201003202115 METAR LMML 202115Z 17004KT CAVOK 13/12 Q1029 NOSIG=
201003202100 METAR LMML NIL=
201003202045 METAR LMML 202045Z 16004KT CAVOK 14/12 Q1029 NOSIG=
201003202030 METAR LMML NIL=
201003202015 METAR LMML 202015Z VRB03KT CAVOK 14/12 Q1029 NOSIG=
201003202000 METAR LMML NIL=
201003201945 METAR LMML 201945Z 17004KT 140V200 CAVOK 14/12 Q1028 NOSIG=
201003201930 METAR LMML NIL=
201003201915 METAR LMML 201915Z 16004KT CAVOK 14/12 Q1028 NOSIG=
201003201900 METAR LMML NIL=
201003201845 METAR LMML 201845Z 15005KT CAVOK 14/11 Q1028 NOSIG=
201003201830 METAR LMML NIL=
201003201815 METAR LMML 201815Z 16005KT 9999 FEW020 14/11 Q1028 NOSIG=
201003201800 METAR LMML NIL=
201003201745 METAR LMML 201745Z 16005KT CAVOK 14/10 Q1028 NOSIG=
201003201730 METAR LMML NIL=
201003201715 METAR LMML 201715Z 17004KT 150V210 CAVOK 15/10 Q1028 NOSIG=
201003201700 METAR LMML NIL=
201003201645 METAR LMML 201645Z 18005KT 140V200 CAVOK 16/09 Q1028 NOSIG=
201003201630 METAR LMML NIL=
201003201615 METAR LMML 201615Z 17005KT 140V210 CAVOK 16/09 Q1028 NOSIG=
201003201600 METAR LMML NIL=
201003201545 METAR LMML 201545Z 18006KT 150V220 CAVOK 17/08 Q1028 NOSIG=
201003201530 METAR LMML NIL=
201003201515 METAR LMML 201515Z 16007KT 130V200 CAVOK 17/08 Q1028 NOSIG=
201003201500 METAR LMML NIL=
201003201445 METAR LMML 201445Z 17007KT 140V210 CAVOK 17/06 Q1028 NOSIG=
201003201430 METAR LMML NIL=
201003201415 METAR LMML 201415Z 18007KT 140V220 CAVOK 17/05 Q1028 NOSIG=
201003201400 METAR LMML NIL=
201003201345 METAR LMML 201345Z 18007KT 140V220 CAVOK 18/06 Q1029 NOSIG=
201003201330 METAR LMML NIL=
201003201315 METAR LMML 201315Z 19005KT 120V280 CAVOK 18/10 Q1029 NOSIG=
201003201300 METAR LMML NIL=
201003201245 METAR LMML 201245Z 20005KT 150V270 CAVOK 18/11 Q1029 NOSIG=
201003201230 METAR LMML NIL=
201003201215 METAR LMML 201215Z 21006KT 140V270 CAVOK 17/11 Q1029 NOSIG=
201003201200 METAR LMML NIL=
201003201145 METAR LMML 201145Z 19006KT 140V280 CAVOK 18/11 Q1030 NOSIG=
201003201130 METAR LMML NIL=
201003201115 METAR LMML 201115Z 20007KT 170V250 CAVOK 17/09 Q1030 NOSIG=
201003201100 METAR LMML NIL=
201003201045 METAR LMML 201045Z 19007KT 140V230 CAVOK 17/10 Q1030 NOSIG=
201003201030 METAR LMML NIL=
201003201015 METAR LMML 201015Z 18008KT 130V220 CAVOK 17/10 Q1030 NOSIG=
201003201000 METAR LMML NIL=
201003200945 METAR LMML 200945Z 20007KT 150V250 CAVOK 17/11 Q1030 NOSIG=
201003200915 METAR LMML 200915Z 19006KT 160V260 CAVOK 17/11 Q1030 NOSIG=
201003200900 METAR LMML NIL=
201003200845 METAR LMML 200845Z 18006KT 140V260 CAVOK 16/11 Q1030 NOSIG=
201003200830 METAR LMML NIL=
201003200815 METAR LMML 200815Z 18005KT 160V230 CAVOK 16/11 Q1030 NOSIG=
201003200800 METAR LMML NIL=
201003200745 METAR LMML 200745Z 17005KT CAVOK 15/11 Q1030 NOSIG=
201003200730 METAR LMML NIL=
201003200715 METAR LMML 200715Z 18005KT 140V210 CAVOK 15/11 Q1030 NOSIG=
201003200700 METAR LMML NIL=
201003200645 METAR LMML 200645Z VRB03KT CAVOK 14/11 Q1030 NOSIG=
201003200630 METAR LMML NIL=
201003200615 METAR LMML 200615Z 18005KT CAVOK 13/10 Q1030 NOSIG=
201003200600 METAR LMML NIL=
201003200545 METAR LMML 200545Z 18004KT CAVOK 12/11 Q1030 NOSIG=
201003200530 METAR LMML NIL=
201003200515 METAR LMML 200515Z VRB03KT CAVOK 11/10 Q1030 NOSIG=
201003200500 METAR LMML NIL=
201003200445 METAR LMML 200445Z 18004KT CAVOK 11/10 Q1030 NOSIG=
201003200430 METAR LMML NIL=
201003200415 METAR LMML 200415Z 18004KT CAVOK 11/10 Q1030 NOSIG=
201003200400 METAR LMML NIL=
201003200345 METAR LMML 200345Z VRB03KT CAVOK 10/09 Q1030 NOSIG=
201003200330 METAR LMML NIL=
201003200315 METAR LMML 200315Z VRB03KT CAVOK 10/09 Q1030 NOSIG=
201003200300 METAR LMML NIL=
201003200245 METAR LMML 200245Z VRB03KT CAVOK 11/10 Q1029 NOSIG=
201003200230 METAR LMML NIL=
201003200215 METAR LMML 200215Z VRB03KT CAVOK 11/10 Q1030 NOSIG=
201003200200 METAR LMML NIL=
201003200145 METAR LMML 200145Z VRB03KT CAVOK 12/10 Q1030 NOSIG=
201003200130 METAR LMML NIL=
201003200115 METAR LMML 200115Z VRB03KT CAVOK 12/10 Q1030 NOSIG=
201003200100 METAR LMML NIL=
201003200045 METAR LMML 200045Z VRB03KT CAVOK 12/10 Q1030 NOSIG=
201003200015 METAR LMML 200015Z VRB02KT CAVOK 12/10 Q1030 NOSIG=
201003200000 METAR LMML NIL=
201003192345 METAR LMML 192345Z VRB03KT CAVOK 12/10 Q1031 NOSIG=
201003192330 METAR LMML NIL=
201003192315 METAR LMML 192315Z VRB03KT CAVOK 12/10 Q1031 NOSIG=
201003192245 METAR LMML 192245Z 19004KT CAVOK 12/10 Q1031 NOSIG=
201003192230 METAR LMML NIL=
201003192215 METAR LMML 192215Z 19004KT 160V220 CAVOK 13/10 Q1031 NOSIG=
201003192145 METAR LMML 192145Z VRB03KT CAVOK 13/11 Q1031 NOSIG=
201003192115 METAR LMML 192115Z VRB03KT CAVOK 13/10 Q1031 NOSIG=
201003192100 METAR LMML NIL=
201003192045 METAR LMML 192045Z 20004KT 160V230 CAVOK 13/10 Q1031 NOSIG=
201003192030 METAR LMML NIL=
201003192015 METAR LMML 192015Z 20004KT 170V230 CAVOK 13/10 Q1031 NOSIG=
201003192000 METAR LMML NIL=
201003191945 METAR LMML 191945Z VRB03KT CAVOK 13/09 Q1031 NOSIG=
201003191930 METAR LMML NIL=
201003191915 METAR LMML 191915Z VRB03KT CAVOK 13/09 Q1031 NOSIG=
201003191900 METAR LMML NIL=
201003191845 METAR LMML 191845Z VRB03KT CAVOK 13/09 Q1031 NOSIG=
201003191830 METAR LMML NIL=
201003191815 METAR LMML 191815Z 19004KT CAVOK 13/09 Q1031 NOSIG=
201003191800 METAR LMML NIL=
201003191745 METAR LMML 191745Z 19004KT 170V230 9999 FEW025 13/09 Q1031
                        NOSIG=
201003191730 METAR LMML NIL=
201003191715 METAR LMML 191715Z 20004KT 170V230 9999 FEW025 14/09 Q1031
                        NOSIG=
201003191700 METAR LMML NIL=
201003191645 METAR LMML 191645Z 19005KT 160V230 CAVOK 15/09 Q1031 NOSIG=
201003191630 METAR LMML NIL=
201003191615 METAR LMML 191615Z 20005KT 150V260 9999 FEW025 15/10 Q1031
                        NOSIG=
201003191600 METAR LMML NIL=
201003191545 METAR LMML 191545Z 21006KT 160V260 9999 FEW022 16/10 Q1031
                        NOSIG=
201003191530 METAR LMML NIL=
201003191515 METAR LMML 191515Z 19007KT 160V240 9999 FEW021 16/10 Q1031
                        NOSIG=
201003191445 METAR LMML 191445Z 20006KT 160V270 9999 SCT021 16/10 Q1031
                        NOSIG=
201003191430 METAR LMML NIL=
201003191415 METAR LMML 191415Z 22006KT 170V280 9999 SCT022 16/10 Q1032
                        NOSIG=
201003191400 METAR LMML NIL=
201003191345 METAR LMML 191345Z 22008KT 170V270 9999 SCT022 17/11 Q1032
                        NOSIG=
201003191330 METAR LMML NIL=
201003191315 METAR LMML 191315Z 22006KT 170V280 9999 SCT022 16/11 Q1032
                        NOSIG=
201003191300 METAR LMML NIL=
201003191245 METAR LMML 191245Z 21007KT 160V260 9999 SCT025 16/10 Q1032
                        NOSIG=
201003191230 METAR LMML NIL=
201003191215 METAR LMML 191215Z 21007KT 160V290 9999 SCT026 17/10 Q1032
                        NOSIG=
201003191200 METAR LMML NIL=
201003191145 METAR LMML 191145Z 22007KT 180V300 9999 FEW027 17/09 Q1032
                        NOSIG=
201003191130 METAR LMML NIL=
201003191115 METAR LMML 191115Z 22006KT 160V320 9999 FEW030 17/10 Q1033
                        NOSIG=
201003191100 METAR LMML NIL=
201003191045 METAR LMML 191045Z 25007KT 200V330 9999 FEW031 16/09 Q1033
                        NOSIG=
201003191030 METAR LMML NIL=
201003191015 METAR LMML 191015Z 23008KT 190V270 9999 FEW025 16/09 Q1033
                        NOSIG=
201003190945 METAR LMML 190945Z 21006KT 170V300 9999 FEW030 16/09 Q1033
                        NOSIG=
201003190930 METAR LMML NIL=
201003190915 METAR LMML 190915Z 23007KT 180V280 9999 FEW029 16/09 Q1033
                        NOSIG=
201003190900 METAR LMML NIL=
201003190845 METAR LMML 190845Z 22007KT 160V270 9999 SCT031 16/08 Q1033
                        NOSIG=
201003190815 METAR LMML 190815Z 23005KT 200V300 9999 SCT029 15/08 Q1033
                        NOSIG=
201003190800 METAR LMML NIL=
201003190745 METAR LMML 190745Z 22006KT 170V280 9999 SCT028 14/08 Q1033
                        NOSIG=
201003190730 METAR LMML NIL=
201003190715 METAR LMML 190715Z 23005KT 170V270 9999 SCT028 14/09 Q1033
                        NOSIG=
201003190700 METAR LMML NIL=
201003190645 METAR LMML 190645Z 23004KT 190V260 9999 SCT028 13/08 Q1033
                        NOSIG=
201003190630 METAR LMML NIL=
201003190615 METAR LMML 190615Z VRB02KT 9999 SCT028 11/07 Q1033 NOSIG=
201003190600 METAR LMML NIL=
201003190545 METAR LMML 190545Z VRB03KT 9999 FEW040 10/06 Q1033 NOSIG=
201003190530 METAR LMML NIL=
201003190515 METAR LMML 190515Z VRB03KT CAVOK 10/06 Q1033 NOSIG=
201003190500 METAR LMML NIL=
201003190445 METAR LMML 190445Z 24004KT CAVOK 10/06 Q1033 NOSIG=
201003190430 METAR LMML NIL=
201003190415 METAR LMML 190415Z VRB02KT CAVOK 10/06 Q1032 NOSIG=
201003190400 METAR LMML NIL=
201003190345 METAR LMML 190345Z VRB01KT CAVOK 09/06 Q1032 NOSIG=
201003190315 METAR LMML 190315Z VRB02KT CAVOK 10/06 Q1032 NOSIG=
201003190300 METAR LMML NIL=
201003190245 METAR LMML 190245Z 24004KT 200V280 CAVOK 11/06 Q1032 NOSIG=
201003190230 METAR LMML NIL=
201003190215 METAR LMML 190215Z 22004KT 190V260 CAVOK 11/06 Q1032 NOSIG=
201003190200 METAR LMML NIL=
201003190145 METAR LMML 190145Z 22004KT 180V270 CAVOK 11/06 Q1033 NOSIG=
201003190130 METAR LMML NIL=
201003190115 METAR LMML 190115Z 23004KT 200V260 CAVOK 11/06 Q1033 NOSIG=
201003190100 METAR LMML NIL=
201003190045 METAR LMML 190045Z VRB01KT CAVOK 10/06 Q1033 NOSIG=
201003190030 METAR LMML NIL=
201003190015 METAR LMML 190015Z 22004KT 190V260 CAVOK 11/06 Q1033 NOSIG=
201003182345 METAR LMML 182345Z 23004KT CAVOK 11/07 Q1034 NOSIG=
201003182330 METAR LMML NIL=
201003182315 METAR LMML 182315Z VRB03KT CAVOK 11/07 Q1034 NOSIG=
201003182245 METAR LMML 182245Z VRB02KT CAVOK 11/06 Q1034 NOSIG=
201003182230 METAR LMML NIL=
201003182215 METAR LMML 182215Z VRB03KT CAVOK 11/07 Q1034 NOSIG=
201003182145 METAR LMML 182145Z 21004KT 190V250 CAVOK 11/07 Q1034 NOSIG=
201003182130 METAR LMML NIL=
201003182115 METAR LMML 182115Z 21004KT CAVOK 11/07 Q1034 NOSIG=
201003182100 METAR LMML NIL=
201003182045 METAR LMML 182045Z VRB02KT CAVOK 11/07 Q1034 NOSIG=
201003182030 METAR LMML NIL=
201003182015 METAR LMML 182015Z VRB03KT CAVOK 11/07 Q1034 NOSIG=
201003182000 METAR LMML NIL=
201003181945 METAR LMML 181945Z VRB03KT CAVOK 11/07 Q1034 NOSIG=
201003181930 METAR LMML NIL=
201003181915 METAR LMML 181915Z VRB03KT CAVOK 11/07 Q1034 NOSIG=
201003181900 METAR LMML NIL=
201003181845 METAR LMML 181845Z VRB03KT CAVOK 11/07 Q1034 NOSIG=
201003181830 METAR LMML NIL=
201003181815 METAR LMML 181815Z VRB03KT CAVOK 12/07 Q1034 NOSIG=
201003181800 METAR LMML NIL=
201003181745 METAR LMML 181745Z VRB03KT CAVOK 12/07 Q1034 NOSIG=
201003181730 METAR LMML NIL=
201003181715 METAR LMML 181715Z VRB03KT CAVOK 13/07 Q1034 NOSIG=
201003181700 METAR LMML NIL=
201003181645 METAR LMML 181645Z 25006KT 220V290 CAVOK 14/07 Q1034 NOSIG=
201003181630 METAR LMML NIL=
201003181615 METAR LMML 181615Z 23006KT 200V260 CAVOK 14/07 Q1034 NOSIG=
201003181600 METAR LMML NIL=
201003181545 METAR LMML 181545Z 23006KT 190V270 CAVOK 15/07 Q1034 NOSIG=
201003181530 METAR LMML NIL=
201003181515 METAR LMML 181515Z 26007KT 210V300 CAVOK 15/05 Q1034 NOSIG=
201003181500 METAR LMML NIL=
201003181445 METAR LMML 181445Z 25006KT 200V300 CAVOK 15/06 Q1034 NOSIG=
201003181430 METAR LMML NIL=
201003181415 METAR LMML 181415Z 26008KT 230V310 CAVOK 15/06 Q1034 NOSIG=
201003181345 METAR LMML 181345Z 24008KT 180V300 CAVOK 16/03 Q1035 NOSIG=
201003181330 METAR LMML NIL=
201003181315 METAR LMML 181315Z 25009KT 200V290 9999 FEW020 15/06 Q1035
                        NOSIG=
201003181300 METAR LMML NIL=
201003181245 METAR LMML 181245Z 24007KT 190V280 9999 FEW020 16/06 Q1035
                        NOSIG=
201003181230 METAR LMML NIL=
201003181215 METAR LMML 181215Z 23008KT 190V270 9999 FEW020 16/05 Q1036
                        NOSIG=
201003181200 METAR LMML NIL=
201003181145 METAR LMML 181145Z 23008KT 200V280 9999 FEW030 16/06 Q1036
                        NOSIG=
201003181130 METAR LMML NIL=
201003181115 METAR LMML 181115Z 24008KT 200V280 9999 FEW030 16/06 Q1036
                        NOSIG=
201003181100 METAR LMML NIL=
201003181045 METAR LMML 181045Z 23007KT 200V280 CAVOK 16/06 Q1036 NOSIG=
201003181030 METAR LMML NIL=
201003181015 METAR LMML 181015Z 23007KT 190V290 CAVOK 15/05 Q1036 NOSIG=
201003181000 METAR LMML NIL=
201003180945 METAR LMML 180945Z 24006KT 200V300 CAVOK 15/04 Q1036 NOSIG=
201003180930 METAR LMML NIL=
201003180915 METAR LMML 180915Z 24006KT 200V280 CAVOK 15/07 Q1036 NOSIG=
201003180845 METAR LMML 180845Z 23006KT 200V270 CAVOK 15/09 Q1036 NOSIG=
201003180815 METAR LMML 180815Z 23005KT 200V290 CAVOK 15/09 Q1036 NOSIG=
201003180800 METAR LMML NIL=
201003180745 METAR LMML 180745Z 26004KT 210V310 CAVOK 14/09 Q1036 NOSIG=
201003180730 METAR LMML NIL=
201003180715 METAR LMML 180715Z VRB02KT CAVOK 13/09 Q1036 NOSIG=
201003180700 METAR LMML NIL=
201003180645 METAR LMML 180645Z VRB03KT CAVOK 12/09 Q1035 NOSIG=
201003180630 METAR LMML NIL=
201003180615 METAR LMML 180615Z VRB03KT CAVOK 10/08 Q1035 NOSIG=
201003180600 METAR LMML NIL=
201003180545 METAR LMML 180545Z 27004KT CAVOK 09/08 Q1035 NOSIG=
201003180530 METAR LMML NIL=
201003180515 METAR LMML 180515Z VRB03KT CAVOK 08/07 Q1035 NOSIG=
201003180500 METAR LMML NIL=
201003180445 METAR LMML 180445Z VRB03KT CAVOK 08/07 Q1035 NOSIG=
201003180430 METAR LMML NIL=
201003180415 METAR LMML 180415Z VRB03KT CAVOK 08/07 Q1035 NOSIG=
201003180400 METAR LMML NIL=
201003180345 METAR LMML 180345Z VRB03KT CAVOK 09/07 Q1034 NOSIG=
201003180330 METAR LMML NIL=
201003180315 METAR LMML 180315Z VRB03KT CAVOK 08/07 Q1034 NOSIG=
201003180300 METAR LMML NIL=
201003180245 METAR LMML 180245Z VRB03KT CAVOK 08/06 Q1034 NOSIG=
201003180230 METAR LMML NIL=
201003180215 METAR LMML 180215Z VRB02KT CAVOK 08/06 Q1034 NOSIG=
201003180200 METAR LMML NIL=
201003180145 METAR LMML 180145Z VRB03KT CAVOK 09/06 Q1035 NOSIG=
201003180130 METAR LMML NIL=
201003180115 METAR LMML 180115Z 27004KT CAVOK 09/06 Q1035 NOSIG=
201003180100 METAR LMML NIL=
201003180045 METAR LMML 180045Z VRB03KT CAVOK 09/05 Q1035 NOSIG=
201003180030 METAR LMML NIL=
201003180015 METAR LMML 180015Z VRB03KT CAVOK 09/06 Q1035 NOSIG=
201003180000 METAR LMML NIL=
201003172345 METAR LMML 172345Z VRB03KT CAVOK 09/06 Q1035 NOSIG=
201003172330 METAR LMML NIL=
201003172315 METAR LMML 172315Z VRB03KT CAVOK 09/06 Q1035 NOSIG=
201003172245 METAR LMML 172245Z VRB03KT CAVOK 09/06 Q1035 NOSIG=
201003172230 METAR LMML NIL=
201003172215 METAR LMML 172215Z VRB02KT CAVOK 09/07 Q1035 NOSIG=
201003172200 METAR LMML NIL=
201003172145 METAR LMML 172145Z VRB03KT CAVOK 09/07 Q1035 NOSIG=
201003172130 METAR LMML NIL=
201003172115 METAR LMML 172115Z 28004KT CAVOK 10/07 Q1035 NOSIG=
201003172100 METAR LMML NIL=
201003172045 METAR LMML 172045Z VRB03KT CAVOK 09/07 Q1035 NOSIG=
201003172030 METAR LMML NIL=
201003172015 METAR LMML 172015Z VRB02KT CAVOK 10/07 Q1035 NOSIG=
201003172000 METAR LMML NIL=
201003171945 METAR LMML 171945Z VRB02KT CAVOK 10/07 Q1035 NOSIG=
201003171930 METAR LMML NIL=
201003171915 METAR COR LMML 171915Z VRB02KT CAVOK 11/07 Q1034 NOSIG=
201003171900 METAR LMML NIL=
201003171845 METAR LMML 171845Z VRB01KT 9999 FEW030 11/07 Q1034 BECMG
                        CAVOK=
201003171830 METAR LMML NIL=
201003171815 METAR LMML 171815Z VRB01KT 9999 FEW030 11/07 Q1034 NOSIG=
201003171800 METAR LMML NIL=
201003171745 METAR LMML 171745Z VRB02KT 9999 FEW030 12/07 Q1034 NOSIG=
201003171730 METAR LMML NIL=
201003171715 METAR LMML 171715Z VRB02KT 9999 FEW030 13/07 Q1033 NOSIG=
201003171700 METAR LMML NIL=
201003171645 METAR LMML 171645Z 08005KT 050V110 9999 FEW030 13/07 Q1032
                        NOSIG=
201003171630 METAR LMML NIL=
201003171615 METAR LMML 171615Z 06005KT 360V150 9999 FEW030 14/07 Q1032
                        NOSIG=
201003171545 METAR LMML 171545Z 02005KT 330V050 CAVOK 15/07 Q1032 NOSIG=
201003171530 METAR LMML NIL=
201003171515 METAR LMML 171515Z 02005KT 270V060 9999 FEW030 15/07 Q1032
                        NOSIG=
201003171500 METAR LMML NIL=
201003171445 METAR LMML 171445Z 03006KT 360V080 9999 FEW030 15/07 Q1032
                        NOSIG=
201003171430 METAR LMML NIL=
201003171415 METAR LMML 171415Z 01006KT 340V060 9999 FEW030 16/08 Q1032
                        NOSIG=
201003171400 METAR LMML NIL=
201003171345 METAR LMML 171345Z 03008KT 340V080 9999 FEW028 16/07 Q1032
                        NOSIG=
201003171330 METAR LMML NIL=
201003171315 METAR LMML 171315Z 03007KT 360V090 9999 FEW030 16/08 Q1031
                        NOSIG=
201003171300 METAR LMML NIL=
201003171245 METAR LMML 171245Z 03007KT 350V090 9999 FEW030 16/08 Q1031
                        NOSIG=
201003171230 METAR LMML NIL=
201003171215 METAR LMML 171215Z 03007KT 350V090 9999 FEW031 16/08 Q1031
                        NOSIG=
201003171200 METAR LMML NIL=
201003171145 METAR LMML 171145Z 03007KT 360V080 9999 FEW030 16/07 Q1031
                        NOSIG=
201003171130 METAR LMML NIL=
201003171115 METAR LMML 171115Z 04008KT 350V090 9999 FEW030 15/07 Q1031
                        NOSIG=
201003171100 METAR LMML NIL=
201003171045 METAR LMML 171045Z 02008KT 320V060 9999 FEW030 15/07 Q1031
                        NOSIG=
201003171030 METAR LMML NIL=
201003171015 METAR LMML 171015Z 02007KT 340V050 9999 FEW030 15/07 Q1031
                        NOSIG=
201003171000 METAR LMML NIL=
201003170945 METAR LMML 170945Z 03009KT 9999 FEW030 15/07 Q1031 NOSIG=
201003170930 METAR LMML NIL=
201003170915 METAR LMML 170915Z 04007KT 350V070 9999 FEW030 15/07 Q1031
                        NOSIG=
201003170900 METAR LMML NIL=
201003170845 METAR LMML 170845Z 01008KT 9999 FEW022 14/08 Q1031 NOSIG=
201003170830 METAR LMML NIL=
201003170815 METAR LMML 170815Z 01009KT 330V040 9999 SCT022 13/09 Q1030
                        NOSIG=
201003170800 METAR LMML NIL=
201003170745 METAR LMML 170745Z 35010KT 310V030 9999 SCT025 13/08 Q1030
                        NOSIG=
201003170730 METAR LMML NIL=
201003170715 METAR LMML 170715Z 35011KT 320V020 9999 FEW000 13/08 Q1029
                        NOSIG=
201003170700 METAR LMML NIL=
201003170645 METAR LMML 170645Z 35007KT 310V020 9999 FEW024 12/08 Q1028
                        NOSIG=
201003170630 METAR LMML NIL=
201003170615 METAR LMML 170615Z 34008KT 9999 FEW025 11/07 Q1028 NOSIG=
201003170600 METAR LMML NIL=
201003170545 METAR LMML 170545Z 33007KT 300V360 9999 FEW025 10/07 Q1028
                        NOSIG=
201003170530 METAR LMML NIL=
201003170515 METAR LMML 170515Z 33005KT 9999 FEW027 09/06 Q1027 NOSIG=
201003170500 METAR LMML NIL=
201003170445 METAR LMML 170445Z 30007KT 9999 FEW027 09/07 Q1027 NOSIG=
201003170430 METAR LMML NIL=
201003170415 METAR LMML 170415Z 29005KT 270V330 9999 FEW027 09/07 Q1027
                        NOSIG=
201003170400 METAR LMML NIL=
201003170345 METAR LMML 170345Z 30006KT 270V340 9999 FEW028 09/06 Q1026
                        NOSIG=
201003170330 METAR LMML NIL=
201003170315 METAR LMML 170315Z 30006KT 9999 FEW029 09/07 Q1026 NOSIG=
201003170300 METAR LMML NIL=
201003170245 METAR LMML 170245Z 31007KT 9999 SCT028 09/07 Q1026 NOSIG=
201003170230 METAR LMML NIL=
201003170215 METAR LMML 170215Z 31006KT 9999 FEW026 09/07 Q1026 NOSIG=
201003170200 METAR LMML NIL=
201003170145 METAR LMML 170145Z 32008KT 9999 FEW020 10/07 Q1026 NOSIG=
201003170130 METAR LMML NIL=
201003170115 METAR LMML 170115Z 31008KT 9999 FEW020 10/07 Q1026 NOSIG=
201003170100 METAR LMML NIL=
201003170045 METAR LMML 170045Z 30010KT 270V330 9999 FEW020 10/07 Q1025
                        NOSIG=
201003170030 METAR LMML NIL=
201003170015 METAR LMML 170015Z 30009KT 9999 FEW021 10/08 Q1025 NOSIG=
201003170000 METAR LMML NIL=
201003162345 METAR LMML 162345Z 27007KT 240V310 9999 FEW021 09/07 Q1025
                        NOSIG=
201003162330 METAR LMML NIL=
201003162315 METAR LMML 162315Z 29010G21KT 250V320 9999 SCT021 10/07 Q1026
                        TEMPO 8000 SHRA BKN020TCU=
201003162300 METAR LMML NIL=
201003162245 METAR LMML 162245Z 30006KT 9999 FEW027 10/07 Q1025 TEMPO
                        8000 SHRA BKN020TCU=
201003162230 METAR LMML NIL=
201003162215 METAR LMML 162215Z 30007KT 9999 SCT025 11/07 Q1026 TEMPO
                        8000 SHRA=
201003162200 METAR LMML NIL=
201003162145 METAR LMML 162145Z 29010KT 9999 SCT028 11/07 Q1025 TEMPO
                        8000 SHRA=
201003162130 METAR LMML NIL=
201003162115 METAR LMML 162115Z 29010KT 9999 SCT029 11/07 Q1025 TEMPO
                        8000 SHRA=
201003162100 METAR LMML NIL=
201003162045 METAR LMML 162045Z 30010KT 9999 FEW029 11/07 Q1025 TEMPO
                        8000 SHRA=
201003162030 METAR LMML NIL=
201003162015 METAR LMML 162015Z 29013KT 260V320 9999 BKN029 11/07 Q1025
                        TEMPO 8000 SHRA=
201003162000 METAR LMML NIL=
201003161945 METAR LMML 161945Z 29008KT 9999 FEW027 11/07 Q1025 TEMPO
                        8000 SHRA=
201003161930 METAR LMML NIL=
201003161915 METAR LMML 161915Z 28008KT 260V320 9999 FEW027 10/07 Q1025
                        TEMPO 8000 SHRA=
201003161900 METAR LMML NIL=
201003161845 METAR LMML 161845Z 31007KT 9999 SCT027 10/08 Q1025 TEMPO
                        TSRA BKN018CB=
201003161830 METAR LMML NIL=
201003161815 METAR LMML 161815Z 32011G24KT 250V350 9999 BKN027 10/08 Q1024
                        TEMPO TSRA BKN018CB=
201003161800 METAR LMML NIL=
201003161745 METAR LMML 161745Z 30016KT 250V330 7000 SHRA BKN029TCU 10/07
                        Q1024 TEMPO TSRA BKN018CB=
201003161730 METAR LMML NIL=
201003161715 METAR LMML 161715Z 27013KT 230V310 9999 BKN032 12/06 Q1024
                        TEMPO 6000 TSRA BKN018CB=
201003161700 METAR LMML NIL=
201003161645 METAR LMML 161645Z 27012KT 230V300 9999 SCT028 13/07 Q1024
                        TEMPO 6000 TSRA BKN018CB=
201003161630 METAR LMML NIL=
201003161615 METAR LMML 161615Z 27011KT 240V320 9999 SCT028 13/07 Q1024
                        TEMPO 6000 TSRA BKN018CB=
201003161600 METAR LMML NIL=
201003161545 METAR LMML 161545Z 27014KT 240V320 9999 SCT024 14/08 Q1024
                        NOSIG=
201003161530 METAR LMML NIL=
201003161515 METAR LMML 161515Z 27013KT 230V310 9999 SCT029 13/08 Q1024
                        NOSIG=
201003161500 METAR LMML NIL=
201003161445 METAR LMML 161445Z 28014KT 9999 FEW023 14/08 Q1024 NOSIG=
201003161430 METAR LMML NIL=
201003161425 SPECI LMML 161425Z 27012KT 230V310 9999 SCT023 13/08 Q1023
                        NOSIG=
201003161415 METAR LMML 161415Z 27012KT 9999 SCT023 13/08 Q1023 NOSIG=
201003161400 METAR LMML NIL=
201003161345 METAR LMML 161345Z 28011KT 210V320 9999 SCT024 14/09 Q1023
                        NOSIG=
201003161330 METAR LMML NIL=
201003161315 METAR LMML 161315Z 29008KT 240V320 9999 FEW025 13/09 Q1024
                        NOSIG=
201003161300 METAR LMML NIL=
201003161245 METAR LMML 161245Z 30009KT 9999 FEW025 SCT060 BKN080 11/09
                        Q1024 NOSIG=
201003161230 METAR LMML NIL=
201003161215 METAR LMML 161215Z 29010KT 240V330 9999 SCT023 SCT060 BKN080
                        14/08 Q1024 TEMPO 9000 SHRA=
201003161200 METAR LMML NIL=
201003161145 METAR LMML 161145Z 25008KT 200V300 9999 SCT024 BKN070 13/08
                        Q1025 TEMPO 9000 SHRA=
201003161130 METAR LMML NIL=
201003161115 METAR LMML 161115Z 23004KT 190V260 9999 SCT030 SCT070 13/08
                        Q1025 NOSIG=
201003161045 METAR LMML 161045Z 27009KT 230V300 9000 -SHRA BKN029 SCT070
                        11/07 Q1025 NOSIG=
201003161030 METAR LMML NIL=
201003161015 METAR LMML 161015Z 26009KT 220V310 9999 BKN035 SCT070 14/06
                        Q1025 TEMPO 8000 SHRA=
201003161000 METAR LMML NIL=
201003160945 METAR LMML 160945Z 26010KT 210V290 9999 SCT039 SCT070 15/06
                        Q1025 NOSIG=
201003160930 METAR LMML NIL=
201003160915 METAR LMML 160915Z 26007KT 220V310 9999 FEW030 BKN070 14/05
                        Q1025 NOSIG=
201003160900 METAR LMML NIL=
201003160845 METAR LMML 160845Z 30007KT 240V340 9999 FEW030 SCT070 14/05
                        Q1025 NOSIG=
201003160830 METAR LMML NIL=
201003160815 METAR LMML 160815Z 28009KT 9999 FEW030 14/05 Q1025 NOSIG=
201003160800 METAR LMML NIL=
201003160745 METAR LMML 160745Z 30009KT 250V330 9999 FEW030 13/07 Q1024
                        NOSIG=
201003160730 METAR LMML NIL=
201003160715 METAR LMML 160715Z 29007KT 260V320 9999 FEW030 13/07 Q1024
                        NOSIG=
201003160700 METAR LMML NIL=
201003160645 METAR LMML 160645Z 29004KT 250V320 9999 FEW030 11/06 Q1024
                        NOSIG=
201003160630 METAR LMML NIL=
201003160615 METAR LMML 160615Z 27004KT 9999 FEW030 10/06 Q1024 NOSIG=
201003160600 METAR LMML NIL=
201003160545 METAR LMML 160545Z 27005KT 230V290 9999 FEW040 09/06 Q1023
                        NOSIG=
201003160530 METAR LMML NIL=
201003160515 METAR LMML 160515Z 28004KT 250V310 9999 FEW030 09/06 Q1023
                        NOSIG=
201003160500 METAR LMML NIL=
201003160445 METAR LMML 160445Z 28004KT 9999 FEW039 09/06 Q1023 NOSIG=
201003160430 METAR LMML NIL=
201003160415 METAR LMML 160415Z 27004KT 240V300 9999 FEW039 SCT080 09/07
                        Q1023 NOSIG=
201003160400 METAR LMML NIL=
201003160345 METAR LMML 160345Z 29004KT 260V320 9999 FEW032 SCT070 10/08
                        Q1023 NOSIG=
201003160330 METAR LMML NIL=
201003160315 METAR LMML 160315Z 29004KT 260V320 9999 FEW039 BKN060 10/08
                        Q1023 NOSIG=
201003160300 METAR LMML NIL=
201003160245 METAR LMML 160245Z 24007KT 200V280 9999 FEW034 BKN060 09/08
                        Q1023 TEMPO SHRA=
201003160230 METAR LMML NIL=
201003160215 METAR LMML 160215Z VRB03KT 9999 FEW028 BKN070 08/06 Q1023
                        TEMPO SHRA=
201003160200 METAR LMML NIL=
201003160145 METAR LMML 160145Z VRB03KT 9999 FEW028 09/06 Q1023 TEMPO
                        SHRA=
201003160130 METAR LMML NIL=
201003160115 METAR LMML 160115Z 29004KT 260V320 9999 FEW028 10/07 Q1023
                        TEMPO SHRA=
201003160100 METAR LMML NIL=
201003160045 METAR LMML 160045Z 29005KT 9999 FEW028 09/07 Q1023 TEMPO
                        SHRA=
201003160030 METAR LMML NIL=
201003160015 METAR LMML 160015Z 31004KT 9999 FEW028 09/06 Q1024 NOSIG=
201003160000 METAR LMML NIL=
201003152345 METAR LMML 152345Z 31006KT 9999 FEW028 09/06 Q1023 NOSIG=
201003152330 METAR LMML NIL=
201003152315 METAR LMML 152315Z 29006KT 9999 FEW028 10/06 Q1024 NOSIG=
201003152300 METAR LMML NIL=
201003152245 METAR LMML 152245Z 28006KT 250V310 9999 FEW028 10/07 Q1024
                        NOSIG=
201003152230 METAR LMML NIL=
201003152215 METAR LMML 152215Z 29006KT 9999 FEW028 10/07 Q1024 NOSIG=
201003152200 METAR LMML NIL=
201003152145 METAR LMML 152145Z 28004KT 9999 FEW028 09/06 Q1023 NOSIG=
201003152130 METAR LMML NIL=
201003152115 METAR LMML 152115Z 28004KT 230V310 9999 FEW025 10/06 Q1023
                        NOSIG=
201003152100 METAR LMML NIL=
201003152045 METAR LMML 152045Z 28004KT 240V300 9999 FEW025 10/06 Q1023
                        NOSIG=
201003152030 METAR LMML NIL=
201003152015 METAR LMML 152015Z 28004KT 240V300 9999 FEW025 09/06 Q1023
                        NOSIG=
201003152000 METAR LMML NIL=
201003151945 METAR LMML 151945Z 30004KT 9999 FEW025 10/06 Q1023 NOSIG=
201003151930 METAR LMML NIL=
201003151915 METAR LMML 151915Z 30004KT 9999 FEW030 10/06 Q1022 NOSIG=
201003151900 METAR LMML NIL=
201003151845 METAR LMML 151845Z 28004KT 230V300 9999 FEW040 10/06 Q1022
                        NOSIG=
201003151830 METAR LMML NIL=
201003151815 METAR LMML 151815Z VRB03KT CAVOK 11/06 Q1022 NOSIG=
201003151800 METAR LMML NIL=
201003151745 METAR LMML 151745Z 30004KT 9999 FEW040 11/06 Q1022 NOSIG=
201003151730 METAR LMML NIL=
201003151715 METAR LMML 151715Z 30005KT 9999 FEW040 11/05 Q1021 NOSIG=
201003151700 METAR LMML NIL=
201003151645 METAR LMML 151645Z 30008KT 9999 FEW045 13/05 Q1021 NOSIG=
201003151615 METAR LMML 151615Z 33009KT 9999 FEW045 13/05 Q1021 NOSIG=
201003151600 METAR LMML NIL=
201003151545 METAR LMML 151545Z 34010KT 9999 FEW044 14/04 Q1021 NOSIG=
201003151530 METAR LMML NIL=
201003151515 METAR LMML 151515Z 34009KT 310V010 9999 FEW044 14/02 Q1021
                        NOSIG=
201003151500 METAR LMML NIL=
201003151445 METAR LMML 151445Z 34010KT 320V020 9999 FEW044 14/02 Q1021
                        NOSIG=
201003151430 METAR LMML NIL=
201003151415 METAR LMML 151415Z 34009KT 310V010 9999 FEW044 14/03 Q1021
                        NOSIG=
201003151400 METAR LMML NIL=
201003151345 METAR LMML 151345Z 33010KT 300V360 9999 FEW044 13/02 Q1020
                        NOSIG=
201003151315 METAR LMML 151315Z 33009KT 300V360 9999 FEW044 13/03 Q1020
                        NOSIG=
201003151300 METAR LMML NIL=
201003151245 METAR LMML 151245Z 34010KT 300V020 CAVOK 14/02 Q1020 NOSIG=
201003151230 METAR LMML NIL=
201003151215 METAR LMML 151215Z 34009KT 290V030 9999 FEW045 14/03 Q1021
                        NOSIG=
201003151200 METAR LMML NIL=
201003151145 METAR LMML 151145Z 33010KT 280V010 9999 FEW045 15/03 Q1021
                        NOSIG=
201003151130 METAR LMML NIL=
201003151115 METAR LMML 151115Z 33011KT 290V360 9999 FEW045 14/03 Q1021
                        NOSIG=
201003151100 METAR LMML NIL=
201003151045 METAR LMML 151045Z 32010KT 290V360 9999 FEW045 14/03 Q1021
                        NOSIG=
201003151030 METAR LMML NIL=
201003151015 METAR LMML 151015Z 32011KT 290V350 9999 FEW035 14/04 Q1020
                        NOSIG=
201003151000 METAR LMML NIL=
201003150945 METAR LMML 150945Z 34011KT 300V010 9999 FEW035 14/03 Q1020
                        NOSIG=
201003150930 METAR LMML NIL=
201003150915 METAR LMML 150915Z 32009KT 290V020 9999 FEW035 13/05 Q1020
                        NOSIG=
201003150900 METAR LMML NIL=
201003150845 METAR LMML 150845Z 31010KT 280V340 9999 FEW032 13/04 Q1020
                        NOSIG=
201003150830 METAR LMML NIL=
201003150815 METAR LMML 150815Z 32008KT 9999 SCT032 13/05 Q1020 NOSIG=
201003150800 METAR LMML NIL=
201003150745 METAR LMML 150745Z 33009KT 290V360 9999 FEW034 12/06 Q1020
                        NOSIG=
201003150730 METAR LMML NIL=
201003150715 METAR LMML 150715Z 33007KT 300V360 9999 FEW032 12/06 Q1019
                        NOSIG=
201003150700 METAR LMML NIL=
201003150645 METAR LMML 150645Z 30006KT 9999 FEW037 11/06 Q1019 NOSIG=
201003150630 METAR LMML NIL=
201003150615 METAR LMML 150615Z 30006KT 9999 FEW020 09/05 Q1019 NOSIG=
201003150545 METAR LMML 150545Z 31006KT 9999 FEW020 08/04 Q1018 NOSIG=
201003150515 METAR LMML 150515Z 30007KT 9999 FEW020 08/04 Q1018 NOSIG=
201003150500 METAR LMML NIL=
201003150445 METAR LMML 150445Z 30007KT 9999 FEW020 08/04 Q1018 NOSIG=
201003150430 METAR LMML NIL=
201003150415 METAR LMML 150415Z 28005KT 9999 FEW020 08/04 Q1018 NOSIG=
201003150400 METAR LMML NIL=
201003150345 METAR LMML 150345Z 31006KT 9999 FEW020 07/04 Q1017 NOSIG=
201003150330 METAR LMML NIL=
201003150315 METAR LMML 150315Z 31008KT 9999 FEW020 07/04 Q1017 NOSIG=
201003150300 METAR LMML NIL=
201003150245 METAR LMML 150245Z 30007KT 9999 FEW020 08/04 Q1017 NOSIG=
201003150230 METAR LMML NIL=
201003150215 METAR LMML 150215Z 29007KT 9999 FEW020 09/04 Q1018 NOSIG=
201003150200 METAR LMML NIL=
201003150145 METAR LMML 150145Z 29005KT 9999 FEW018 09/05 Q1018 NOSIG=
201003150130 METAR LMML NIL=
201003150115 METAR LMML 150115Z 33004KT 9999 FEW018 09/06 Q1018 NOSIG=
201003150100 METAR LMML NIL=
201003150045 METAR LMML 150045Z 36006KT 330V030 9999 FEW018 SCT060 10/07
                        Q1017 NOSIG=
201003150030 METAR LMML NIL=
201003150015 METAR LMML 150015Z 33006KT 310V010 9999 FEW025 SCT060 09/06
                        Q1017 NOSIG=
201003142345 METAR LMML 142345Z 31009KT CAVOK 09/06 Q1017 NOSIG=
201003142315 METAR LMML 142315Z 31008KT CAVOK 09/06 Q1017 NOSIG=
201003142300 METAR LMML NIL=
201003142245 METAR LMML 142245Z 30007KT CAVOK 09/07 Q1018 NOSIG=
201003142230 METAR LMML NIL=
201003142215 METAR LMML 142215Z 29007KT 9999 BKN049 10/07 Q1017 NOSIG=
201003142200 METAR LMML NIL=
201003142145 METAR LMML 142145Z 27004KT 9999 SCT036 BKN100 10/08 Q1018
                        NOSIG=
201003142130 METAR LMML NIL=
201003142115 METAR LMML 142115Z VRB03KT 9999 SCT049 BKN100 09/07 Q1017
                        NOSIG=
201003142045 METAR LMML 142045Z VRB02KT 9999 FEW045 BKN080 09/07 Q1018
                        NOSIG=
201003142030 METAR LMML NIL=
201003142015 METAR LMML 142015Z 26004KT 220V300 9999 FEW025 BKN070 09/08
                        Q1017 NOSIG=
201003142000 METAR LMML NIL=
201003141945 METAR LMML 141945Z 33009KT 300V020 9999 -RA SCT025 BKN047
                        10/07 Q1018 NOSIG=
201003141930 METAR LMML NIL=
201003141915 METAR LMML 141915Z VRB02KT CAVOK 10/06 Q1017 TEMPO SHRA FEW025=
201003141900 METAR LMML NIL=
201003141845 METAR LMML 141845Z VRB03KT CAVOK 11/05 Q1017 TEMPO SHRA=
201003141830 METAR LMML NIL=
201003141815 METAR LMML 141815Z VRB02KT 9999 BKN045 BKN100 11/05 Q1017
                        TEMPO SHRA=
201003141745 METAR LMML 141745Z VRB02KT 9999 BKN045 BKN100 11/05 Q1016
                        TEMPO SHRA=
201003141715 METAR LMML 141715Z VRB02KT 9999 SCT042 BKN100 11/05 Q1016
                        NOSIG=
201003141700 METAR LMML NIL=
201003141645 METAR LMML 141645Z VRB03KT 9999 SCT042 BKN100 12/04 Q1016
                        NOSIG=
201003141630 METAR LMML NIL=
201003141615 METAR LMML 141615Z 06004KT 020V140 9999 FEW043 SCT100 12/04
                        Q1016 NOSIG=
201003141545 METAR LMML 141545Z 04005KT 010V090 9999 FEW035 SCT100 13/05
                        Q1015 NOSIG=
201003141530 METAR LMML NIL=
201003141515 METAR LMML 141515Z 04007KT 010V080 9999 FEW035 BKN100 13/04
                        Q1015 NOSIG=
201003141500 METAR LMML NIL=
201003141445 METAR LMML 141445Z 03007KT 010V070 9999 FEW035 BKN100 13/05
                        Q1015 NOSIG=
201003141430 METAR LMML NIL=
201003141415 METAR LMML 141415Z 04010KT 360V080 9999 FEW035 BKN100 13/04
                        Q1015 NOSIG=
201003141400 METAR LMML NIL=
201003141345 METAR LMML 141345Z 04010KT 010V080 9999 FEW036 BKN100 14/06
                        Q1015 NOSIG=
201003141330 METAR LMML NIL=
201003141315 METAR LMML 141315Z 03011KT 360V060 9999 FEW031 BKN057 14/05
                        Q1015 NOSIG=
201003141300 METAR LMML NIL=
201003141245 METAR LMML 141245Z 04011KT 350V080 9999 FEW035 BKN100 14/04
                        Q1015 NOSIG=
201003141230 METAR LMML NIL=
201003141215 METAR LMML 141215Z 02010KT 9999 FEW032 BKN100 14/06 Q1016
                        NOSIG=
201003141200 METAR LMML NIL=
201003141145 METAR LMML 141145Z 04011KT 360V080 9999 FEW031 SCT100 14/06
                        Q1016 NOSIG=
201003141130 METAR LMML NIL=
201003141115 METAR LMML 141115Z 03011KT 360V080 9999 SCT026 BKN041 13/07
                        Q1016 NOSIG=
201003141100 METAR LMML NIL=
201003141045 METAR LMML 141045Z 04011KT 010V070 9999 SCT026 BKN043 12/07
                        Q1016 NOSIG=
201003141030 METAR LMML NIL=
201003141015 METAR LMML 141015Z 05010KT 020V100 9999 -SHRA BKN016 BKN048
                        13/09 Q1016 NOSIG=
201003141000 METAR LMML NIL=
201003140945 METAR LMML 140945Z 04013KT 360V080 9999 FEW016 BKN055 13/08
                        Q1016 NOSIG=
201003140930 METAR LMML NIL=
201003140915 METAR LMML 140915Z 04013KT 360V070 9999 BKN016 SCT050 13/09
                        Q1015 NOSIG=
201003140900 METAR LMML NIL=
201003140845 METAR LMML 140845Z 04014KT 360V090 9999 SCT015 SCT050 13/09
                        Q1015 NOSIG=
201003140830 METAR LMML NIL=
201003140815 METAR LMML 140815Z 04012KT 360V080 9999 SCT018 SCT050 13/08
                        Q1015 TEMPO SHRA=
201003140800 METAR LMML NIL=
201003140745 METAR LMML 140745Z 05010KT 010V100 9999 BKN020 13/09 Q1015
                        TEMPO SHRA=
201003140730 METAR LMML NIL=
201003140715 METAR LMML 140715Z 05013KT 020V080 9999 SCT014 BKN060 11/09
                        Q1015 TEMPO SHRA=
201003140700 METAR LMML NIL=
201003140645 METAR LMML 140645Z 03011KT 010V080 9999 BKN019 BKN060 11/08
                        Q1014 NOSIG=
201003140630 METAR LMML NIL=
201003140615 METAR LMML 140615Z 05011KT 360V080 9999 BKN019 BKN047 11/08
                        Q1014 NOSIG=
201003140600 METAR LMML NIL=
201003140545 METAR LMML 140545Z 05010KT 020V100 9999 BKN020 SCT035 11/07
                        Q1014 NOSIG=
201003140530 METAR LMML NIL=
201003140515 METAR LMML 140515Z 05013KT 020V080 9999 BKN019 SCT040 11/07
                        Q1013 NOSIG=
201003140500 METAR LMML NIL=
201003140445 METAR LMML 140445Z 04013KT 010V070 9999 SCT020 SCT040 BKN070
                        11/07 Q1013 NOSIG=
201003140430 METAR LMML NIL=
201003140415 METAR LMML 140415Z 04012G22KT 010V080 9999 SCT016 SCT024
                        BKN070 11/08 Q1013 NOSIG=
201003140400 METAR LMML NIL=
201003140345 METAR LMML 140345Z 04015KT 010V090 9999 SCT015 BKN022 11/08
                        Q1013 NOSIG=
201003140330 METAR LMML NIL=
201003140315 METAR LMML 140315Z 04014KT 010V070 9999 SCT013 BKN018 11/09
                        Q1013 NOSIG=
201003140300 METAR LMML NIL=
201003140245 METAR LMML 140245Z 04014KT 360V070 9999 SCT013 BKN018 11/09
                        Q1012 NOSIG=
201003140230 METAR LMML NIL=
201003140215 METAR LMML 140215Z 03015KT 350V070 9000 BKN012 BKN017 11/09
                        Q1013 NOSIG=
201003140200 METAR LMML NIL=
201003140145 METAR LMML 140145Z 03015KT 340V120 9999 SCT009 BKN014 11/10
                        Q1012 NOSIG=
201003140130 METAR LMML NIL=
201003140115 METAR LMML 140115Z 03014G24KT 360V060 9999 SCT009 BKN012
                        11/10 Q1013 NOSIG=
201003140100 METAR LMML NIL=
201003140045 METAR LMML 140045Z 03014KT 360V060 9999 -RA SCT009 BKN014
                        11/10 Q1013 NOSIG=
201003140030 METAR LMML NIL=
201003140015 METAR LMML 140015Z 03012KT 360V060 9999 -RA SCT009 BKN012
                        11/10 Q1013 NOSIG=
201003140000 METAR LMML NIL=
201003132345 METAR LMML 132345Z 04011KT 010V070 8000 BKN008 BKN014 12/10
                        Q1013 NOSIG=
201003132330 METAR LMML NIL=
201003132315 METAR LMML 132315Z 04010KT 010V070 8000 BKN008 BKN014 12/10
                        Q1013 NOSIG=
201003132245 METAR LMML 132245Z 04010KT 010V070 8000 BKN008 BKN014 12/10
                        Q1013 NOSIG=
201003132230 METAR LMML NIL=
201003132215 METAR LMML 132215Z 03010KT 8000 BKN008 BKN013 12/10 Q1013
                        NOSIG=
201003132200 METAR LMML NIL=
201003132145 METAR LMML 132145Z 04010KT 010V080 8000 BKN008 BKN013 12/11
                        Q1013 NOSIG=
201003132130 METAR LMML NIL=
201003132115 METAR LMML 132115Z 03010KT 350V070 8000 BKN008 12/11 Q1013
                        TEMPO BKN007=
201003132100 METAR LMML NIL=
201003132045 METAR LMML 132045Z 04009KT 010V090 8000 SCT008 BKN011 12/11
                        Q1013 TEMPO BKN007=
201003132030 METAR LMML NIL=
201003132015 METAR LMML 132015Z 04008KT 360V100 8000 SCT008 BKN011 12/11
                        Q1013 TEMPO BKN007=
201003132000 METAR LMML NIL=
201003131945 METAR LMML 131945Z 04009KT 020V080 8000 SCT009 BKN013 12/11
                        Q1013 TEMPO BKN007=
201003131930 METAR LMML NIL=
201003131915 METAR LMML 131915Z 03008KT 010V070 8000 SCT008 BKN013 12/11
                        Q1013 TEMPO BKN007=
201003131845 METAR LMML 131845Z 03009KT 010V070 8000 SCT007 BKN011 12/11
                        Q1012 TEMPO BKN007=
201003131830 METAR LMML NIL=
201003131815 METAR LMML 131815Z 03008KT 360V060 8000 SCT007 SCT011 BKN042
                        12/11 Q1012 NOSIG=
201003131800 METAR LMML NIL=
201003131745 METAR LMML 131745Z 03008KT 360V060 8000 -RA SCT005 SCT014
                        BKN042 13/11 Q1012 TEMPO BKN005=
201003131730 METAR LMML NIL=
201003131715 METAR LMML 131715Z 03005KT 9999 FEW010 SCT015 BKN034 13/11
                        Q1012 TEMPO 8000 SHRA BKN009 SCT014TCU=
201003131700 METAR LMML NIL=
201003131645 METAR LMML 131645Z 04004KT 360V100 9999 BKN012 BKN080 14/11
                        Q1012 TEMPO BKN009=
201003131630 METAR LMML NIL=
201003131615 METAR LMML 131615Z 07006KT 020V100 9999 FEW012 BKN080 14/11
                        Q1011 NOSIG=
201003131600 METAR LMML NIL=
201003131545 METAR LMML 131545Z 07005KT 030V110 9999 -RA FEW020 SCT050
                        BKN080 14/11 Q1011 NOSIG=
201003131530 METAR LMML NIL=
201003131515 METAR LMML 131515Z 07004KT 010V100 9999 FEW016 BKN050 14/10
                        Q1011 TEMPO 8000 SHRA BKN014TCU=
201003131500 METAR LMML NIL=
201003131445 METAR LMML 131445Z 06005KT 010V110 9999 FEW016 BKN060 14/11
                        Q1011 TEMPO 8000 SHRA BKN014TCU=
201003131430 METAR LMML NIL=
201003131415 METAR LMML 131415Z 05007KT 020V080 9999 FEW016 BKN070 14/11
                        Q1011 TEMPO 8000 SHRA BKN011=
201003131400 METAR LMML NIL=
201003131345 METAR LMML 131345Z 06006KT 020V090 9999 FEW016 BKN070 14/11
                        Q1011 TEMPO 8000 SHRA BKN011=
201003131330 METAR LMML NIL=
201003131315 METAR LMML 131315Z 08007KT 9999 FEW016 SCT070 BKN100 14/11
                        Q1012 TEMPO 9000 RA BKN007=
201003131300 METAR LMML NIL=
201003131245 METAR LMML 131245Z 09007KT 030V130 9999 FEW014 BKN070 14/11
                        Q1012 TEMPO 9000 RA BKN007=
201003131230 METAR LMML NIL=
201003131215 METAR LMML 131215Z 08008KT 040V120 9999 SCT013 BKN070 14/11
                        Q1012 TEMPO 9000 RA BKN007=
201003131200 METAR LMML NIL=
201003131145 METAR LMML 131145Z 09008KT 060V120 9999 SCT011 BKN070 14/11
                        Q1013 TEMPO 9000 RA BKN007=
201003131130 METAR LMML NIL=
201003131115 METAR LMML 131115Z 08009KT 020V120 9999 FEW010 SCT012 BKN070
                        14/12 Q1013 TEMPO 9000 RA BKN007=
201003131100 METAR LMML NIL=
201003131045 METAR LMML 131045Z 09011KT 9999 FEW007 SCT012 15/12 Q1013
                        TEMPO 9000 RA BKN007=
201003131030 METAR LMML NIL=
201003131015 METAR LMML 131015Z 06009KT 020V110 9999 SCT008 SCT014 BKN070
                        14/12 Q1013 TEMPO 9000 RA BKN007=
201003131000 METAR LMML NIL=
201003130945 METAR LMML 130945Z 05007KT 020V080 9000 -RA FEW007 SCT011
                        BKN070 14/12 Q1013 TEMPO RA BKN006=
201003130930 METAR LMML NIL=
201003130915 METAR LMML 130915Z 06008KT 020V090 9999 SCT007 SCT011 BKN070
                        13/12 Q1013 TEMPO 8000 RA BKN006=
201003130900 METAR LMML NIL=
201003130845 METAR LMML 130845Z 07007KT 030V150 9999 -RA FEW006 SCT012
                        BKN070 13/11 Q1013 TEMPO 8000 RA
                        BKN006=
201003130830 METAR LMML NIL=
201003130815 METAR LMML 130815Z 08008KT 040V110 9999 FEW014 BKN080 BKN250
                        13/12 Q1013 TEMPO 8000 RA BKN008=
201003130800 METAR LMML NIL=
201003130745 METAR LMML 130745Z 07007KT 9999 FEW009 BKN070 BKN250 12/12
                        Q1013 RERA TEMPO 8000 RA BKN008=
201003130715 METAR LMML 130715Z 08006KT 9999 -RA FEW009 BKN070 BKN250
                        12/11 Q1014 RERA TEMPO 5000 RA BKN008=
201003130700 METAR LMML NIL=
201003130645 METAR LMML 130645Z 09004KT 060V120 8000 RA FEW009 BKN060
                        OVC080 12/11 Q1014 TEMPO 5000 RA
                        BKN008=
201003130630 METAR LMML NIL=
201003130615 METAR LMML 130615Z 04005KT 010V070 9999 -RA SCT010 SCT060
                        OVC080 12/12 Q1014 TEMPO 9000 RA
                        BKN008=
201003130600 METAR LMML NIL=
201003130545 METAR LMML 130545Z 03004KT 9000 -RA FEW008 SCT035 BKN070
                        12/12 Q1014 TEMPO 6000 RA BKN005=
201003130530 METAR LMML NIL=
201003130515 METAR LMML 130515Z 04005KT 010V080 9000 -RA FEW007 SCT035
                        OVC070 12/12 Q1013 TEMPO 6000 RA
                        BKN005=
201003130500 METAR LMML NIL=
201003130445 METAR LMML 130445Z VRB02KT 9000 SHRA BKN038 BKN070 13/12
                        Q1014 TEMPO 6000 RA BKN005=
201003130430 METAR LMML NIL=
201003130415 METAR LMML 130415Z VRB02KT 9000 -RA SCT035 BKN070 13/12 Q1013
                        TEMPO 6000 RA BKN005=
201003130400 METAR LMML NIL=
201003130345 METAR LMML 130345Z VRB02KT 9000 FEW035 BKN070 13/13 Q1013
                        TEMPO 6000 RA BKN005=
201003130330 METAR LMML NIL=
201003130315 METAR LMML 130315Z VRB03KT 9000 FEW015 SCT035 BKN070 14/13
                        Q1013 TEMPO 6000 RA BKN005=
201003130300 METAR LMML NIL=
201003130245 METAR LMML 130245Z VRB03KT 9000 -RA FEW015 BKN070 14/13 Q1013
                        TEMPO 6000 RA BKN005=
201003130230 METAR LMML NIL=
201003130215 METAR LMML 130215Z VRB03KT 9000 -RA FEW015 SCT035 BKN070
                        14/13 Q1013 TEMPO 6000 RA BKN005=
201003130200 METAR LMML NIL=
201003130145 METAR LMML 130145Z 12004KT 9000 -RA SCT030 BKN070 13/13 Q1013
                        TEMPO 6000 RA BKN005=
201003130130 METAR LMML NIL=
201003130115 METAR LMML 130115Z VRB03KT 9000 -RA SCT030 BKN070 14/13 Q1014
                        TEMPO 6000 RA BKN005=
201003130100 METAR LMML NIL=
201003130045 METAR LMML 130045Z VRB02KT 9000 -RA SCT030 BKN070 14/13 Q1014
                        TEMPO 6000 RA BKN005=
201003130030 METAR LMML NIL=
201003130015 METAR LMML 130015Z VRB02KT 9000 -RA SCT030 BKN080 14/14 Q1015
                        TEMPO 6000 RA BKN005=
201003130000 METAR LMML NIL=
201003122345 METAR LMML 122345Z 15005KT 9000 -RA SCT025 BKN120 14/14 Q1014
                        TEMPO 6000 RA BKN005=
201003122330 METAR LMML NIL=
201003122315 METAR LMML 122315Z 14004KT 9000 FEW008 SCT025 BKN120 14/13
                        Q1014 TEMPO 6000 RA BKN005=
201003122300 METAR LMML NIL=
201003122245 METAR LMML 122245Z 14005KT 9000 FEW008 SCT020 BKN120 13/13
                        Q1014 TEMPO 6000 RA BKN005=
201003122230 METAR LMML NIL=
201003122215 METAR LMML 122215Z VRB03KT 9000 FEW008 SCT022 BKN120 13/13
                        Q1014 NOSIG=
201003122200 METAR LMML NIL=
201003122145 METAR LMML 122145Z VRB03KT 9000 FEW008 BKN110 14/13 Q1015
                        NOSIG=
201003122130 METAR LMML NIL=
201003122115 METAR LMML 122115Z VRB02KT 9000 SCT008 BKN090 14/14 Q1015
                        NOSIG=
201003122100 METAR LMML NIL=
201003122045 METAR LMML 122045Z VRB02KT 9000 SCT006 BKN090 14/14 Q1015
                        NOSIG=
201003122030 METAR LMML NIL=
201003122015 METAR LMML 122015Z 10004KT 9000 FEW011 BKN080 14/13 Q1014
                        NOSIG=
201003122000 METAR LMML NIL=
201003121945 METAR LMML 121945Z 06004KT 9999 FEW010 BKN100 15/14 Q1014
                        NOSIG=
201003121930 METAR LMML NIL=
201003121915 METAR LMML 121915Z VRB03KT 9999 FEW010 BKN090 14/13 Q1014
                        TEMPO BKN008=
201003121900 METAR LMML NIL=
201003121845 METAR LMML 121845Z VRB01KT 9999 SCT010 BKN090 14/13 Q1015
                        TEMPO BKN008=
201003121830 METAR LMML NIL=
201003121815 METAR LMML 121815Z VRB02KT 9999 FEW010 SCT090 14/13 Q1015
                        TEMPO BKN008=
201003121800 METAR LMML NIL=
201003121745 METAR LMML 121745Z VRB01KT 9999 SCT010 BKN090 15/13 Q1014
                        TEMPO BKN008=
201003121730 METAR LMML NIL=
201003121715 METAR LMML 121715Z VRB01KT 9999 FEW008 BKN040 BKN100 15/13
                        Q1014 NOSIG=
201003121700 METAR LMML NIL=
201003121645 METAR LMML 121645Z VRB03KT 9999 SCT021 BKN120 15/13 Q1014
                        TEMPO BKN015=
201003121630 METAR LMML NIL=
201003121615 METAR LMML 121615Z 17005KT 140V210 9999 SCT015 BKN110 15/13
                        Q1014 TEMPO BKN013=
201003121600 METAR LMML NIL=
201003121545 METAR LMML 121545Z 17006KT 9999 SCT015 BKN100 15/13 Q1014
                        TEMPO BKN013=
201003121530 METAR LMML NIL=
201003121515 METAR LMML 121515Z 17006KT 140V200 9999 SCT015 BKN100 15/13
                        Q1014 TEMPO BKN013=
201003121500 METAR LMML NIL=
201003121445 METAR LMML 121445Z 15008KT 9999 FEW018 SCT090 BKN130 15/12
                        Q1014 NOSIG=
201003121430 METAR LMML NIL=
201003121415 METAR LMML 121415Z 16007KT 130V190 9999 FEW018 SCT100 BKN130
                        15/12 Q1014 NOSIG=
201003121400 METAR LMML NIL=
201003121345 METAR LMML 121345Z 15009KT 130V210 9999 FEW018 SCT100 BKN250
                        16/12 Q1014 NOSIG=
201003121330 METAR LMML NIL=
201003121315 METAR LMML 121315Z 16007KT 130V210 9999 FEW018 SCT250 16/12
                        Q1014 NOSIG=
201003121300 METAR LMML NIL=
201003121245 METAR LMML 121245Z 17006KT 140V220 9999 FEW018 SCT100 15/12
                        Q1015 NOSIG=
201003121230 METAR LMML NIL=
201003121215 METAR LMML 121215Z 18006KT 9999 -RA SCT018 SCT045 BKN250
                        14/11 Q1015 NOSIG=
201003121145 METAR LMML 121145Z 18005KT 140V220 9999 -RA FEW037 SCT050
                        BKN130 15/12 Q1015 NOSIG=
201003121130 METAR LMML NIL=
201003121115 METAR LMML 121115Z 18006KT 140V220 9999 -RA FEW031 SCT050
                        BKN130 14/11 Q1016 NOSIG=
201003121045 METAR LMML 121045Z 20007KT 160V250 9999 -RA SCT034 BKN070
                        BKN250 15/11 Q1016 NOSIG=
201003121030 METAR LMML NIL=
201003121015 METAR LMML 121015Z 20009KT 160V240 9999 -RA FEW018 BKN090
                        BKN250 15/10 Q1017 NOSIG=
201003121000 METAR LMML NIL=
201003120945 METAR LMML 120945Z 20009KT 160V260 9999 -RA FEW018 BKN060
                        BKN250 15/10 Q1017 NOSIG=
201003120930 METAR LMML NIL=
201003120915 METAR LMML 120915Z 21007KT 170V260 9999 FEW018 BKN080 BKN250
                        15/09 Q1017 NOSIG=
201003120900 METAR LMML NIL=
201003120845 METAR LMML 120845Z VRB02KT 9999 FEW016 SCT080 BKN250 15/11
                        Q1017 NOSIG=
201003120830 METAR LMML NIL=
201003120815 METAR LMML 120815Z 10007KT 9999 SCT016 SCT120 BKN250 14/11
                        Q1017 NOSIG=
201003120800 METAR LMML NIL=
201003120745 METAR LMML 120745Z 10006KT 060V130 9999 BKN015 SCT045 BKN250
                        13/10 Q1017 NOSIG=
201003120730 METAR LMML NIL=
201003120715 METAR LMML 120715Z 10005KT 060V150 9999 BKN015 SCT045 BKN250
                        13/10 Q1017 NOSIG=
201003120700 METAR LMML NIL=
201003120645 METAR LMML 120645Z 12004KT 090V160 9999 BKN015 BKN250 12/10
                        Q1016 NOSIG=
201003120630 METAR LMML NIL=
201003120615 METAR LMML 120615Z 08004KT 040V140 9999 BKN018 BKN250 12/09
                        Q1017 NOSIG=
201003120600 METAR LMML NIL=
201003120545 METAR LMML 120545Z 09004KT 060V120 9999 BKN019 BKN250 12/09
                        Q1016 NOSIG=
201003120530 METAR LMML NIL=
201003120515 METAR LMML 120515Z 10005KT 060V120 9999 BKN019 SCT120 BKN250
                        11/09 Q1016 NOSIG=
201003120500 METAR LMML NIL=
201003120445 METAR LMML 120445Z VRB03KT 9999 BKN019 BKN120 11/09 Q1017
                        NOSIG=
201003120430 METAR LMML NIL=
201003120415 METAR LMML 120415Z VRB03KT 9999 BKN021 BKN120 11/08 Q1017
                        NOSIG=
201003120400 METAR LMML NIL=
201003120345 METAR LMML 120345Z 09004KT 9999 BKN023 BKN120 11/08 Q1017
                        NOSIG=
201003120330 METAR LMML NIL=
201003120315 METAR LMML 120315Z VRB03KT 9999 BKN024 BKN120 11/08 Q1017
                        NOSIG=
201003120300 METAR LMML NIL=
201003120245 METAR LMML 120245Z VRB03KT 9999 FEW024 BKN120 BKN250 11/08
                        Q1017 NOSIG=
201003120230 METAR LMML NIL=
201003120215 METAR LMML 120215Z VRB03KT CAVOK 11/07 Q1017 NOSIG=
201003120200 METAR LMML NIL=
201003120145 METAR LMML 120145Z 07004KT 9999 FEW031 BKN100 11/07 Q1017
                        NOSIG=
201003120130 METAR LMML NIL=
201003120115 METAR LMML 120115Z VRB03KT 9999 BKN030 BKN130 11/07 Q1017
                        NOSIG=
201003120100 METAR LMML NIL=
201003120045 METAR LMML 120045Z VRB03KT 9999 FEW031 BKN120 10/07 Q1017
                        NOSIG=
201003120030 METAR LMML NIL=
201003120015 METAR LMML 120015Z VRB03KT CAVOK 10/07 Q1017 NOSIG=
201003120000 METAR LMML NIL=
201003112345 METAR LMML 112345Z VRB02KT CAVOK 10/07 Q1018 NOSIG=
201003112330 METAR LMML NIL=
201003112315 METAR LMML 112315Z VRB01KT 9999 FEW020 BKN250 09/07 Q1018
                        NOSIG=
201003112300 METAR LMML NIL=
201003112245 METAR LMML 112245Z VRB02KT 9999 FEW015 SCT250 10/07 Q1017
                        NOSIG=
201003112230 METAR LMML NIL=
201003112215 METAR LMML 112215Z VRB01KT CAVOK 10/07 Q1018 NOSIG=
201003112200 METAR LMML NIL=
201003112145 METAR LMML 112145Z VRB02KT CAVOK 10/07 Q1018 NOSIG=
201003112130 METAR LMML NIL=
201003112115 METAR LMML 112115Z VRB02KT CAVOK 09/07 Q1017 NOSIG=
201003112100 METAR LMML NIL=
201003112045 METAR LMML 112045Z VRB02KT 9999 FEW020 BKN250 10/07 Q1017
                        NOSIG=
201003112030 METAR LMML NIL=
201003112015 METAR LMML 112015Z VRB01KT 9999 FEW020 SCT250 10/06 Q1017
                        NOSIG=
201003112000 METAR LMML NIL=
201003111945 METAR LMML 111945Z VRB02KT CAVOK 10/06 Q1017 NOSIG=
201003111930 METAR LMML NIL=
201003111915 METAR LMML 111915Z VRB02KT CAVOK 10/06 Q1017 NOSIG=
201003111900 METAR LMML NIL=
201003111845 METAR LMML 111845Z VRB01KT CAVOK 11/06 Q1017 NOSIG=
201003111830 METAR LMML NIL=
201003111815 METAR LMML 111815Z 30004KT 9999 FEW030 11/06 Q1016 NOSIG=
201003111800 METAR LMML NIL=
201003111745 METAR LMML 111745Z 30004KT 9999 FEW030 11/06 Q1016 NOSIG=
201003111730 METAR LMML NIL=
201003111715 METAR LMML 111715Z 31006KT 9999 FEW030 11/06 Q1016 NOSIG=
201003111645 METAR LMML 111645Z 31005KT 280V340 9999 FEW030 13/06 Q1015
                        NOSIG=
201003111630 METAR LMML NIL=
201003111615 METAR LMML 111615Z 30005KT 250V320 9999 FEW030 13/07 Q1015
                        NOSIG=
201003111600 METAR LMML NIL=
201003111545 METAR LMML 111545Z 29007KT 240V320 9999 FEW029 14/07 Q1016
                        NOSIG=
201003111530 METAR LMML NIL=
201003111515 METAR LMML 111515Z 30009KT 9999 FEW029 14/07 Q1015 NOSIG=
201003111500 METAR LMML NIL=
201003111445 METAR LMML 111445Z 28008KT 250V330 9999 FEW028 14/07 Q1015
                        NOSIG=
201003111430 METAR LMML NIL=
201003111415 METAR LMML 111415Z 31012KT 290V350 9999 FEW030 14/07 Q1016
                        NOSIG=
201003111400 METAR LMML NIL=
201003111345 METAR LMML 111345Z 30011KT 270V340 9999 FEW031 15/08 Q1016
                        NOSIG=
201003111330 METAR LMML NIL=
201003111315 METAR LMML 111315Z 27011KT 210V310 9999 FEW029 15/07 Q1016
                        NOSIG=
201003111300 METAR LMML NIL=
201003111245 METAR LMML 111245Z 27011KT 230V320 9999 FEW029 15/08 Q1016
                        NOSIG=
201003111230 METAR LMML NIL=
201003111215 METAR LMML 111215Z 28011KT 260V320 9999 SCT026 15/08 Q1016
                        NOSIG=
201003111200 METAR LMML NIL=
201003111145 METAR LMML 111145Z 27011KT 220V310 9999 SCT026 15/09 Q1016
                        NOSIG=
201003111130 METAR LMML NIL=
201003111115 METAR LMML 111115Z 27011KT 230V320 9999 SCT024 15/09 Q1016
                        NOSIG=
201003111100 METAR LMML NIL=
201003111045 METAR LMML 111045Z 27012KT 220V310 9999 SCT022 15/09 Q1016
                        NOSIG=
201003111030 METAR LMML NIL=
201003111015 METAR LMML 111015Z 28013KT 9999 SCT022 15/10 Q1016 NOSIG=
201003111000 METAR LMML NIL=
201003110945 METAR LMML 110945Z 28010KT 220V320 9999 SCT020 14/10 Q1016
                        NOSIG=
201003110930 METAR LMML NIL=
201003110915 METAR LMML 110915Z 28011KT 240V320 9999 SCT027 SCT070 14/09
                        Q1016 NOSIG=
201003110900 METAR LMML NIL=
201003110845 METAR LMML 110845Z 22004KT 170V270 9999 BKN026 13/07 Q1016
                        NOSIG=
201003110830 METAR LMML NIL=
201003110815 METAR LMML 110815Z 24013KT 200V280 9999 -SHRA BKN027 14/08
                        Q1016 NOSIG=
201003110800 METAR LMML NIL=
201003110745 METAR LMML 110745Z 22010KT 170V270 9999 SCT027 14/09 Q1015
                        NOSIG=
201003110730 METAR LMML NIL=
201003110715 METAR LMML 110715Z 22009KT 200V270 9999 FEW031 13/08 Q1015
                        NOSIG=
201003110700 METAR LMML NIL=
201003110645 METAR LMML 110645Z 22009KT 200V260 9999 FEW028 13/07 Q1015
                        NOSIG=
201003110630 METAR LMML NIL=
201003110615 METAR LMML 110615Z 22007KT 190V260 9999 SCT028 12/08 Q1015
                        NOSIG=
201003110600 METAR LMML NIL=
201003110545 METAR LMML 110545Z 22006KT 190V270 9999 SCT024 11/07 Q1015
                        NOSIG=
201003110530 METAR LMML NIL=
201003110515 METAR LMML 110515Z 22007KT 9999 SCT045 11/06 Q1014 NOSIG=
201003110500 METAR LMML NIL=
201003110445 METAR LMML 110445Z 21007KT 180V250 CAVOK 11/06 Q1014 NOSIG=
201003110430 METAR LMML NIL=
201003110415 METAR LMML 110415Z 21006KT CAVOK 10/05 Q1014 NOSIG=
201003110400 METAR LMML NIL=
201003110345 METAR LMML 110345Z 21006KT 180V260 CAVOK 10/05 Q1014 NOSIG=
201003110330 METAR LMML NIL=
201003110315 METAR LMML 110315Z 22004KT CAVOK 09/05 Q1014 NOSIG=
201003110300 METAR LMML NIL=
201003110245 METAR LMML 110245Z 23004KT 200V260 CAVOK 08/04 Q1014 NOSIG=
201003110230 METAR LMML NIL=
201003110215 METAR LMML 110215Z 25004KT CAVOK 09/04 Q1014 NOSIG=
201003110200 METAR LMML NIL=
201003110145 METAR LMML 110145Z 25004KT CAVOK 09/05 Q1014 NOSIG=
201003110130 METAR LMML NIL=
201003110115 METAR LMML 110115Z 25004KT CAVOK 08/04 Q1014 NOSIG=
201003110045 METAR LMML 110045Z 28004KT 240V300 CAVOK 08/04 Q1014 NOSIG=
201003110030 METAR LMML NIL=
201003110015 METAR LMML 110015Z 25004KT CAVOK 08/04 Q1014 NOSIG=
201003110000 METAR LMML NIL=
201003102345 METAR LMML 102345Z VRB03KT CAVOK 08/04 Q1014 NOSIG=
201003102330 METAR LMML NIL=
201003102315 METAR LMML 102315Z 27004KT 240V300 CAVOK 08/04 Q1014 NOSIG=
201003102300 METAR LMML NIL=
201003102245 METAR LMML 102245Z VRB03KT CAVOK 08/04 Q1014 NOSIG=
201003102230 METAR LMML NIL=
201003102215 METAR LMML 102215Z VRB03KT CAVOK 08/04 Q1014 NOSIG=
201003102200 METAR LMML NIL=
201003102145 METAR LMML 102145Z 29004KT CAVOK 09/03 Q1014 NOSIG=
201003102130 METAR LMML NIL=
201003102115 METAR LMML 102115Z 28005KT CAVOK 09/03 Q1014 NOSIG=
201003102100 METAR LMML NIL=
201003102045 METAR LMML 102045Z 27005KT 240V300 CAVOK 09/03 Q1014 NOSIG=
201003102030 METAR LMML NIL=
201003102015 METAR LMML 102015Z 28008KT 250V310 CAVOK 10/03 Q1014 NOSIG=
201003102000 METAR LMML NIL=
201003101945 METAR LMML 101945Z 29009KT 260V320 CAVOK 10/03 Q1013 NOSIG=
201003101915 METAR LMML 101915Z 29007KT 9999 FEW030 10/03 Q1013 NOSIG=
201003101900 METAR LMML NIL=
201003101845 METAR LMML 101845Z 29009KT 260V330 9999 FEW030 10/04 Q1012
                        NOSIG=
201003101830 METAR LMML NIL=
201003101815 METAR LMML 101815Z 29008KT 9999 FEW030 10/04 Q1012 NOSIG=
201003101800 METAR LMML NIL=
201003101745 METAR LMML 101745Z 30009KT 270V330 9999 FEW030 10/03 Q1012
                        NOSIG=
201003101730 METAR LMML NIL=
201003101715 METAR LMML 101715Z 29009KT 250V320 9999 FEW030 11/04 Q1011
                        NOSIG=
201003101700 METAR LMML NIL=
201003101645 METAR LMML 101645Z 30010KT 230V330 9999 FEW035 11/04 Q1011
                        NOSIG=
201003101630 METAR LMML NIL=
201003101615 METAR LMML 101615Z 30014KT 270V330 9999 FEW035 12/04 Q1011
                        NOSIG=
201003101600 METAR LMML NIL=
201003101545 METAR LMML 101545Z 31017KT 270V340 9999 FEW035 12/04 Q1010
                        NOSIG=
201003101515 METAR LMML 101515Z 30018KT 9999 FEW035 13/02 Q1010 NOSIG=
201003101500 METAR LMML NIL=
201003101445 METAR LMML 101445Z 29018KT 260V320 9999 FEW035 13/03 Q1010
                        NOSIG=
201003101430 METAR LMML NIL=
201003101415 METAR LMML 101415Z 30017KT 260V340 9999 FEW035 13/04 Q1009
                        NOSIG=
201003101400 METAR LMML NIL=
201003101345 METAR LMML 101345Z 30018KT 270V330 9999 FEW035 14/04 Q1009
                        NOSIG=
201003101330 METAR LMML NIL=
201003101315 METAR LMML 101315Z 30020KT 260V330 9999 FEW035 13/04 Q1009
                        NOSIG=
201003101300 METAR LMML NIL=
201003101245 METAR LMML 101245Z 30018KT 270V330 9999 FEW035 14/05 Q1009
                        NOSIG=
201003101230 METAR LMML NIL=
201003101215 METAR LMML 101215Z 30020KT 270V340 9999 FEW035 14/04 Q1009
                        NOSIG=
201003101200 METAR LMML NIL=
201003101145 METAR LMML 101145Z 30018KT 260V320 9999 SCT033 14/06 Q1009
                        NOSIG=
201003101130 METAR LMML NIL=
201003101115 METAR LMML 101115Z 31019KT 9999 BKN031 13/06 Q1008 NOSIG=
201003101100 METAR LMML NIL=
201003101045 METAR LMML 101045Z 30018KT 9999 BKN028 13/07 Q1008 NOSIG=
201003101030 METAR LMML NIL=
201003101015 METAR LMML 101015Z 30018KT 9999 SCT026 14/07 Q1008 NOSIG=
201003101000 METAR LMML NIL=
201003100945 METAR LMML 100945Z 31019KT 9999 SCT027 14/08 Q1008 NOSIG=
201003100930 METAR LMML NIL=
201003100915 METAR LMML 100915Z 30017KT 9999 SCT026 SCT060 13/08 Q1008
                        NOSIG=
201003100900 METAR LMML NIL=
201003100845 METAR LMML 100845Z 30016KT 9999 SCT023 BKN060 13/08 Q1008
                        NOSIG=
201003100830 METAR LMML NIL=
201003100815 METAR LMML 100815Z 31012KT 9999 SCT023 BKN042 12/08 Q1007
                        NOSIG=
201003100800 METAR LMML NIL=
201003100745 METAR LMML 100745Z 31013KT 9999 SCT021 BKN032 12/09 Q1006
                        NOSIG=
201003100730 METAR LMML NIL=
201003100715 METAR LMML 100715Z 31012KT 9999 FEW020 BKN028 12/09 Q1005
                        NOSIG=
201003100700 METAR LMML NIL=
201003100645 METAR LMML 100645Z 30010KT 9999 FEW018 BKN025 12/10 Q1005
                        NOSIG=
201003100630 METAR LMML NIL=
201003100615 METAR LMML 100615Z 31011KT 9999 SCT014 BKN027 12/10 Q1004
                        NOSIG=
201003100600 METAR LMML NIL=
201003100545 METAR LMML 100545Z 31009KT 9999 SCT016 BKN023 11/10 Q1004
                        NOSIG=
201003100530 METAR LMML NIL=
201003100515 METAR LMML 100515Z 31009KT 9999 FEW014 BKN025 11/10 Q1004
                        NOSIG=
201003100500 METAR LMML NIL=
201003100445 METAR LMML 100445Z 31011KT 9999 BKN008 SCT014 BKN027 11/10
                        Q1004 NOSIG=
201003100430 METAR LMML NIL=
201003100415 METAR LMML 100415Z 30010KT 270V330 9999 BKN007 SCT033 12/11
                        Q1003 NOSIG=
201003100400 METAR LMML NIL=
201003100345 METAR LMML 100345Z 31006KT 9999 FEW033 SCT080 12/11 Q1003
                        NOSIG=
201003100330 METAR LMML NIL=
201003100315 METAR LMML 100315Z 33005KT 9999 -SHRA SCT033 BKN080 12/11
                        Q1002 NOSIG=
201003100300 METAR LMML NIL=
201003100245 METAR LMML 100245Z 32009KT 9999 -SHRA SCT033 BKN080 13/12
                        Q1002 NOSIG=
201003100230 METAR LMML NIL=
201003100215 METAR LMML 100215Z 28009KT 240V320 9999 FEW045 SCT080 14/12
                        Q1002 NOSIG=
201003100200 METAR LMML NIL=
201003100145 METAR LMML 100145Z 24005KT 210V270 CAVOK 14/13 Q1002 NOSIG=
201003100130 METAR LMML NIL=
201003100115 METAR LMML 100115Z VRB02KT 9999 FEW036 BKN090 14/13 Q1002
                        NOSIG=
201003100100 METAR LMML NIL=
201003100045 METAR LMML 100045Z VRB02KT 9999 FEW034 BKN080 14/12 Q1002
                        NOSIG=
201003100030 METAR LMML NIL=
201003100015 METAR LMML 100015Z VRB02KT 9999 FEW030 BKN080 15/13 Q1002
                        NOSIG=
201003100000 METAR LMML NIL=
201003092345 METAR LMML 092345Z 15006KT 9999 FEW030 BKN080 15/12 Q1002
                        NOSIG=
201003092330 METAR LMML NIL=
201003092315 METAR LMML 092315Z 14010KT 9999 FEW030 BKN110 14/12 Q1002
                        NOSIG=
201003092300 METAR LMML NIL=
201003092245 METAR LMML 092245Z 14008KT 9999 FEW030 BKN100 14/13 Q1002
                        NOSIG=
201003092230 METAR LMML NIL=
201003092215 METAR LMML 092215Z 14009KT 9999 FEW030 BKN080 14/13 Q1003
                        NOSIG=
201003092200 METAR LMML NIL=
201003092145 METAR LMML 092145Z 13006KT 9999 FEW030 BKN090 14/13 Q1003
                        NOSIG=
201003092115 METAR LMML 092115Z 17004KT 9999 -RA FEW030 BKN070 14/12 Q1003
                        NOSIG=
201003092100 METAR LMML NIL=
201003092045 METAR LMML 092045Z VRB03KT 9999 -RA SCT036 OVC050 14/12 Q1004
                        NOSIG=
201003092030 METAR LMML NIL=
201003092015 METAR LMML 092015Z 21004KT 170V250 9000 -RA SCT036 OVC070
                        14/13 Q1004 TEMPO 5000 RA=
201003092000 METAR LMML NIL=
201003091945 METAR LMML 091945Z 21007KT 170V250 9000 -RA SCT036 BKN070
                        15/13 Q1004 TEMPO 5000 RA=
201003091930 METAR LMML NIL=
201003091915 METAR LMML 091915Z 20008KT 160V250 9999 -RA SCT036 BKN070
                        15/13 Q1004 TEMPO 5000 RA=
201003091900 METAR LMML NIL=
201003091845 METAR LMML 091845Z 20006KT 160V250 9999 -RA SCT033 BKN070
                        15/13 Q1003 NOSIG=
201003091830 METAR LMML NIL=
201003091815 METAR LMML 091815Z 19011KT 150V230 9999 -RA SCT033 BKN070
                        16/13 Q1003 NOSIG=
201003091800 METAR LMML NIL=
201003091745 METAR LMML 091745Z 19011KT 160V230 9999 -RA SCT033 BKN070
                        16/12 Q1002 NOSIG=
201003091730 METAR LMML NIL=
201003091715 METAR LMML 091715Z 18016G31KT 150V210 9999 -RA SCT035 BKN070
                        17/09 Q1001 NOSIG=
201003091700 METAR LMML NIL=
201003091645 METAR LMML 091645Z 16016KT 140V200 9999 -RA NSC 16/12 Q1000
                        NOSIG=
201003091630 METAR LMML NIL=
201003091615 METAR LMML 091615Z 16016KT CAVOK 16/12 Q1000 NOSIG=
201003091600 METAR LMML NIL=
201003091545 METAR LMML 091545Z 16014KT CAVOK 16/12 Q1000 NOSIG=
201003091530 METAR LMML NIL=
201003091515 METAR LMML 091515Z 16011KT 9999 -RA NSC 16/13 Q1001 NOSIG=
201003091500 METAR LMML NIL=
201003091445 METAR LMML 091445Z 16009KT 9999 -RA NSC 16/13 Q1001 NOSIG=
201003091430 METAR LMML NIL=
201003091415 METAR LMML 091415Z 18009KT 9999 -RA NSC 16/13 Q1001 NOSIG=
201003091400 METAR LMML NIL=
201003091345 METAR LMML 091345Z 18010KT 150V220 CAVOK 16/13 Q1002 NOSIG=
201003091330 METAR LMML NIL=
201003091315 METAR LMML 091315Z 19010KT 160V230 9999 FEW020 SCT080 BKN250
                        16/13 Q1002 NOSIG=
201003091300 METAR LMML NIL=
201003091245 METAR LMML 091245Z 19009KT 160V260 9999 -RA NSC 16/13 Q1002
                        NOSIG=
201003091215 METAR LMML 091215Z 19009KT 160V230 9999 -RA NSC 16/13 Q1003
                        NOSIG=
201003091145 METAR LMML 091145Z 18011KT 150V210 9999 -RA NSC 16/13 Q1003
                        NOSIG=
201003091130 METAR LMML NIL=
201003091115 METAR LMML 091115Z 17009KT 140V200 9999 -RA NSC 16/14 Q1003
                        NOSIG=
201003091100 METAR LMML NIL=
201003091045 METAR LMML 091045Z 17011KT 140V240 9999 -RA NSC 16/14 Q1003
                        NOSIG=
201003091030 METAR LMML NIL=
201003091015 METAR LMML 091015Z 17011KT 130V210 CAVOK 17/14 Q1003 NOSIG=
201003091000 METAR LMML NIL=
201003090945 METAR LMML 090945Z 17013KT 130V200 CAVOK 17/14 Q1003 NOSIG=
201003090930 METAR LMML NIL=
201003090915 METAR LMML 090915Z 17013KT 140V200 CAVOK 16/14 Q1003 NOSIG=
201003090900 METAR LMML NIL=
201003090845 METAR LMML 090845Z 17012KT 130V210 9999 FEW007 SCT100 BKN250
                        16/14 Q1003 NOSIG=
201003090830 METAR LMML NIL=
201003090815 METAR LMML 090815Z 16013KT 120V220 9999 FEW007 SCT070 16/14
                        Q1004 NOSIG=
201003090745 METAR LMML 090745Z 17011KT 130V200 9999 SCT006 SCT120 16/14
                        Q1004 NOSIG=
201003090733 SPECI LMML 090733Z 17011KT 140V200 9999 SCT007 SCT070 16/14
                        Q1004 NOSIG=
201003090730 METAR LMML NIL=
201003090715 METAR LMML 090715Z 16010KT 9999 BKN007 BKN070 15/14 Q1004
                        NOSIG=
201003090700 METAR LMML NIL=
201003090645 METAR LMML 090645Z 17010KT 140V210 9999 FEW011 BKN070 15/13
                        Q1004 NOSIG=
201003090630 METAR LMML NIL=
201003090615 METAR LMML 090615Z 17010KT 140V210 9999 FEW011 BKN070 14/13
                        Q1004 NOSIG=
201003090600 METAR LMML NIL=
201003090545 METAR LMML 090545Z 17009KT 140V200 9999 FEW011 BKN070 14/13
                        Q1004 TEMPO 7000 RA BKN008=
201003090530 METAR LMML NIL=
201003090515 METAR LMML 090515Z 18009KT 140V230 9999 FEW011 BKN070 14/12
                        Q1004 TEMPO 7000 RA BKN008=
201003090500 METAR LMML NIL=
201003090445 METAR LMML 090445Z 18008KT 140V220 9999 SCT011 14/12 Q1004
                        TEMPO 7000 RA BKN008=
201003090430 METAR LMML NIL=
201003090415 METAR LMML 090415Z 17007KT 140V210 9999 FEW012 13/11 Q1004
                        TEMPO 7000 RA BKN008=
201003090400 METAR LMML NIL=
201003090345 METAR LMML 090345Z 19007KT 160V220 9999 FEW013 13/11 Q1004
                        TEMPO 7000 RA BKN008=
201003090330 METAR LMML NIL=
201003090315 METAR LMML 090315Z 19006KT 160V230 9999 FEW013 13/11 Q1005
                        TEMPO 7000 RA BKN008=
201003090300 METAR LMML NIL=
201003090245 METAR LMML 090245Z 18007KT 9999 FEW036 13/11 Q1005 TEMPO
                        7000 RA BKN008=
201003090230 METAR LMML NIL=
201003090215 METAR LMML 090215Z 19008KT 170V230 9999 FEW036 BKN080 13/11
                        Q1005 TEMPO 7000 RA BKN008=
201003090200 METAR LMML NIL=
201003090145 METAR LMML 090145Z 20009KT 170V250 9999 FEW030 BKN090 13/11
                        Q1006 TEMPO 7000 RA BKN008=
201003090130 METAR LMML NIL=
201003090115 METAR LMML 090115Z 20007KT 160V240 9999 FEW045 BKN090 12/10
                        Q1006 TEMPO 7000 RA BKN008=
201003090100 METAR LMML NIL=
201003090045 METAR LMML 090045Z 20005KT 150V250 9999 SCT045 BKN080 12/10
                        Q1006 TEMPO 7000 RA BKN008=
201003090030 METAR LMML NIL=
201003090015 METAR LMML 090015Z 21004KT 170V240 9999 FEW017 BKN070 12/10
                        Q1007 NOSIG=
201003090000 METAR LMML NIL=
201003082345 METAR LMML 082345Z 21005KT 140V310 9999 FEW017 SCT070 11/10
                        Q1007 NOSIG=
201003082330 METAR LMML NIL=
201003082315 METAR LMML 082315Z 21004KT 190V260 9999 FEW017 11/09 Q1007
                        NOSIG=
201003082300 METAR LMML NIL=
201003082245 METAR LMML 082245Z VRB03KT 9999 FEW017 11/09 Q1007 NOSIG=
201003082230 METAR LMML NIL=
201003082215 METAR LMML 082215Z 23004KT 9999 FEW017 11/09 Q1007 NOSIG=
201003082200 METAR LMML NIL=
201003082145 METAR LMML 082145Z VRB03KT 9999 FEW017 11/09 Q1007 NOSIG=
201003082130 METAR LMML NIL=
201003082115 METAR LMML 082115Z 24004KT 210V270 9999 FEW017 11/10 Q1007
                        NOSIG=
201003082100 METAR LMML NIL=
201003082045 METAR LMML 082045Z 24004KT 9999 FEW017 11/10 Q1007 NOSIG=
201003082030 METAR LMML NIL=
201003082015 METAR LMML 082015Z VRB03KT 9999 FEW019 11/10 Q1007 TEMPO
                        BKN005=
201003082000 METAR LMML NIL=
201003081945 METAR LMML 081945Z VRB03KT 9999 FEW008 BKN120 11/10 Q1007
                        TEMPO BKN005=
201003081930 METAR LMML NIL=
201003081915 METAR LMML 081915Z VRB01KT 9999 FEW008 SCT032 BKN120 12/10
                        Q1007 TEMPO BKN005=
201003081900 METAR LMML NIL=
201003081845 METAR LMML 081845Z VRB03KT 9999 SCT008 BKN050 12/10 Q1007
                        TEMPO BKN005=
201003081830 METAR LMML NIL=
201003081815 METAR LMML 081815Z 25005KT 210V290 9999 SCT008 BKN050 12/11
                        Q1006 TEMPO BKN005=
201003081800 METAR LMML NIL=
201003081745 METAR LMML 081745Z 19008KT 160V230 9000 -RA BKN007 BKN012
                        BKN050 12/11 Q1006 TEMPO BKN005=
201003081730 METAR LMML NIL=
201003081715 METAR LMML 081715Z 19006KT 160V230 9000 -RA BKN006 BKN013
                        BKN050 12/11 Q1005 TEMPO BKN005=
201003081700 METAR LMML NIL=
201003081645 METAR LMML 081645Z 19008KT 160V220 7000 -RA BKN006 BKN019
                        BKN050 11/11 Q1005 TEMPO BKN005=
201003081630 METAR LMML NIL=
201003081615 METAR LMML 081615Z 18006KT 150V220 4000 -RA BKN004 BKN015
                        BKN050 11/11 Q1005 NOSIG=
201003081600 METAR LMML NIL=
201003081545 METAR COR LMML 081545Z 20006KT 170V230 4000 -RA SCT003 BKN005
                        BKN017 11/11 Q1005 TEMPO 6000 BKN006=
201003081530 METAR LMML NIL=
201003081515 METAR LMML 081515Z VRB03KT 9999 BKN006 BKN017 11/11 Q1005
                        TEMPO BKN005=
201003081500 METAR LMML NIL=
201003081445 METAR LMML 081445Z VRB03KT 6000 -RA SCT003 BKN007 BKN017
                        11/11 Q1005 TEMPO BKN005=
201003081430 METAR LMML NIL=
201003081415 METAR LMML 081415Z 21004KT 170V250 2000 -RA FEW003 BKN005
                        BKN018 11/11 Q1005 TEMPO 5000=
201003081400 METAR LMML NIL=
201003081345 METAR LMML 081345Z VRB02KT 7000 -DZ BKN005 BKN050 11/10 Q1005
                        NOSIG=
201003081337 SPECI LMML 081337Z VRB01KT 8000 -RA BKN005 BKN050 11/11 Q1005
                        BECMG 9999=
201003081330 METAR LMML NIL=
201003081315 METAR LMML 081315Z VRB01KT 3000 -RA BKN005 SCT011 BKN050
                        11/10 Q1005 BECMG 6000=
201003081300 METAR LMML NIL=
201003081245 METAR LMML 081245Z VRB01KT 2000 -RA SCT004 BKN007 OVC050
                        11/10 Q1005 TEMPO BKN005=
201003081230 METAR LMML NIL=
201003081215 METAR LMML 081215Z VRB02KT 2000 -RA FEW004 BKN007 OVC050
                        11/10 Q1005 TEMPO BKN005=
201003081200 METAR LMML NIL=
201003081145 METAR LMML 081145Z VRB03KT 5000 SCT006 BKN012 BKN100 12/11
                        Q1005 RERA TEMPO BKN005=
201003081130 METAR LMML NIL=
201003081115 METAR LMML 081115Z VRB03KT 5000 RA SCT008 BKN012 BKN100 12/10
                        Q1005 NOSIG=
201003081100 METAR LMML NIL=
201003081045 METAR LMML 081045Z VRB03KT 9999 -RA SCT008 BKN016 BKN100
                        11/10 Q1004 TEMPO BKN008 BKN015=
201003081030 METAR LMML NIL=
201003081015 METAR LMML 081015Z 05007KT 020V080 9000 SCT009 SCT015 BKN022
                        11/10 Q1004 RERA NOSIG=
201003081000 METAR LMML NIL=
201003080945 METAR LMML 080945Z 03006KT 360V070 9000 -RA SCT008 BKN014
                        BKN050 11/10 Q1003 NOSIG=
201003080930 METAR LMML NIL=
201003080915 METAR LMML 080915Z 03008KT 360V070 9000 -RA SCT008 BKN012
                        OVC050 11/10 Q1003 TEMPO BKN008=
201003080900 METAR LMML NIL=
201003080845 METAR LMML 080845Z 03010KT 360V060 7000 -RA SCT009 BKN012
                        OVC050 11/10 Q1003 TEMPO BKN009=
201003080830 METAR LMML NIL=
201003080815 METAR LMML 080815Z 04012KT 7000 -RA BKN010 OVC040 11/09 Q1003
                        NOSIG=
201003080800 METAR LMML NIL=
201003080745 METAR LMML 080745Z 03013KT 360V070 6000 -RA SCT010 BKN021
                        OVC040 10/09 Q1003 NOSIG=
201003080730 METAR LMML NIL=
201003080715 METAR LMML 080715Z 03016G28KT 360V060 6000 -RA SCT009 BKN012
                        OVC040 10/09 Q1002 NOSIG=
201003080700 METAR LMML NIL=
201003080645 METAR LMML 080645Z 02014G25KT 350V050 5000 RA BKN011 OVC026
                        10/09 Q1002 NOSIG=
201003080630 METAR LMML NIL=
201003080615 METAR LMML 080615Z 01016G26KT 6000 RA BKN010 OVC020 10/09
                        Q1001 NOSIG=
201003080545 METAR LMML 080545Z 01016G28KT 6000 RA BKN008 OVC020 10/09
                        Q1001 NOSIG=
201003080530 METAR LMML NIL=
201003080515 METAR LMML 080515Z 36015KT 330V030 6000 -RA SCT008 OVC033
                        10/10 Q1001 NOSIG=
201003080500 METAR LMML NIL=
201003080445 METAR LMML 080445Z 01015G25KT 340V050 7000 -RA SCT007 SCT013
                        OVC070 11/10 Q1000 NOSIG=
201003080430 METAR LMML NIL=
201003080415 METAR LMML 080415Z 01012G23KT 340V040 7000 -RA SCT006 SCT014
                        OVC070 11/11 Q0999 NOSIG=
201003080400 METAR LMML NIL=
201003080345 METAR LMML 080345Z 36014G25KT 300V050 4000 RA BKN006 OVC070
                        11/11 Q0999 NOSIG=
201003080330 METAR LMML NIL=
201003080315 METAR LMML 080315Z 03013G24KT 360V070 7000 -RA BKN005 OVC080
                        12/11 Q0998 NOSIG=
201003080300 METAR LMML NIL=
201003080245 METAR LMML 080245Z 03013KT 360V070 7000 -RA BKN005 OVC080
                        12/12 Q0998 TEMPO 3000 RA BKN003=
201003080230 METAR LMML NIL=
201003080215 METAR LMML 080215Z 04016KT 010V080 5000 RA BKN005 SCT022
                        OVC080 12/12 Q0998 TEMPO 3000 RA
                        BKN003=
201003080200 METAR LMML NIL=
201003080145 METAR LMML 080145Z 04013KT 010V080 5000 RA BKN005 BKN010
                        12/12 Q0999 NOSIG=
201003080130 METAR LMML NIL=
201003080115 METAR LMML 080115Z 06017KT 6000 RA BKN004 BKN034 12/12 Q0999
                        RERA NOSIG=
201003080100 METAR LMML NIL=
201003080045 METAR LMML 080045Z 05013KT 020V080 6000 RA BKN003 BKN034
                        12/12 Q0999 NOSIG=
201003080030 METAR LMML NIL=
201003080015 METAR LMML 080015Z 07014KT 040V100 5000 RA SCT004 BKN034
                        12/12 Q0999 NOSIG=
201003080000 METAR LMML NIL=
201003072345 METAR LMML 072345Z 09011G24KT 040V130 5000 -SHRA SCT006 BKN037
                        13/12 Q1000 TEMPO TSRA BKN015CB=
201003072330 METAR LMML NIL=
201003072315 METAR LMML 072315Z 07017G30KT 010V140 5000 SHRA SCT008 BKN039
                        13/12 Q0999 TEMPO TSRA BKN015CB=
201003072300 METAR LMML NIL=
201003072245 METAR LMML 072245Z 06017KT 020V110 9999 SCT006 SCT015 BKN090
                        13/12 Q0998 TEMPO 5000 TSRA BKN015CB=
201003072230 METAR LMML NIL=
201003072215 METAR LMML 072215Z 04014KT 010V080 7000 -SHRA BKN006 SCT015
                        BKN070 13/12 Q0999 TEMPO 5000 TSRA
                        BKN015CB=
201003072200 METAR LMML NIL=
201003072145 METAR LMML 072145Z 05018G29KT 020V100 9000 BKN003 OVC070
                        12/12 Q0998 RERA NOSIG=
201003072130 METAR LMML NIL=
201003072115 METAR LMML 072115Z 06022G33KT 020V100 4000 -RA BKN003 OVC070
                        12/12 Q0998 BECMG 6000=
201003072100 METAR LMML NIL=
201003072045 METAR LMML 072045Z 07012G23KT 040V110 4000 RA BKN004 OVC070
                        13/12 Q1003 BECMG 6000=
201003072030 METAR LMML NIL=
201003072015 METAR LMML 072015Z 06022G32KT 020V090 4000 RA BKN004 BKN070
                        13/12 Q1002 BECMG 6000=
201003072000 METAR LMML NIL=
201003071945 METAR LMML 071945Z 06020KT 030V100 6000 -RA BKN005 BKN070
                        13/12 Q1001 TEMPO 5000=
201003071930 METAR LMML NIL=
201003071915 METAR LMML 071915Z 05017KT 020V080 7000 RA BKN006 BKN070
                        13/12 Q1002 TEMPO 5000=
201003071900 METAR LMML NIL=
201003071845 METAR LMML 071845Z 06013KT 020V100 7000 RA BKN005 OVC070
                        13/12 Q1003 TEMPO 5000=
201003071830 METAR LMML NIL=
201003071815 METAR LMML 071815Z 06021G31KT 030V100 9000 BKN005 OVC070
                        13/12 Q1000 NOSIG=
201003071800 METAR LMML NIL=
201003071745 METAR LMML 071745Z 06022G36KT 020V100 6000 BKN004 OVC070
                        13/12 Q1000 NOSIG=
201003071730 METAR LMML NIL=
201003071715 METAR LMML 071715Z 07021G33KT 030V100 6000 BKN004 OVC070
                        13/12 Q1001 NOSIG=
201003071700 METAR LMML NIL=
201003071645 METAR LMML 071645Z 07023G33KT 040V100 4500 BKN004 OVC070
                        12/12 Q1000 NOSIG=
201003071630 METAR LMML NIL=
201003071615 METAR LMML 071615Z 06018KT 020V100 4500 -RA BKN004 OVC070
                        12/12 Q1002 NOSIG=
201003071600 METAR LMML NIL=
201003071545 METAR LMML 071545Z 06013KT 020V100 4500 BKN004 OVC070 13/12
                        Q1003 RERA NOSIG=
201003071530 METAR LMML NIL=
201003071515 METAR LMML 071515Z 05019KT 350V090 4000 -RA BKN003 OVC070
                        12/12 Q1003 RERA NOSIG=
201003071500 METAR LMML NIL=
201003071445 METAR LMML 071445Z 05014KT 020V090 3500 RA BKN004 OVC070
                        13/12 Q1005 NOSIG=
201003071430 METAR LMML NIL=
201003071415 METAR LMML 071415Z 07014KT 030V110 4000 RA BKN004 OVC070
                        13/12 Q1005 NOSIG=
201003071400 METAR LMML NIL=
201003071345 METAR LMML 071345Z 05014KT 010V080 5000 RA BKN005 OVC130
                        13/12 Q1006 NOSIG=
201003071330 METAR LMML NIL=
201003071315 METAR LMML 071315Z 05012KT 010V090 8000 -RA BKN005 OVC130
                        13/12 Q1006 NOSIG=
201003071300 METAR LMML NIL=
201003071245 METAR LMML 071245Z 07017KT 030V100 8000 -RA BKN005 OVC130
                        13/12 Q1006 NOSIG=
201003071230 METAR LMML NIL=
201003071215 METAR LMML 071215Z 06016KT 030V100 8000 -RA BKN005 OVC130
                        13/12 Q1006 NOSIG=
201003071200 METAR LMML NIL=
201003071145 METAR LMML 071145Z 05013KT 010V090 8000 -RA BKN006 OVC130
                        13/12 Q1008 NOSIG=
201003071130 METAR LMML NIL=
201003071115 METAR LMML 071115Z 04009KT 360V090 8000 -RA BKN006 OVC130
                        13/12 Q1008 NOSIG=
201003071100 METAR LMML NIL=
201003071045 METAR LMML 071045Z 07014KT 030V100 8000 -RA BKN007 OVC130
                        13/12 Q1009 NOSIG=
201003071030 METAR LMML NIL=
201003071015 METAR LMML 071015Z 07015KT 030V100 9000 -RA BKN009 OVC130
                        13/12 Q1009 NOSIG=
201003071000 METAR LMML NIL=
201003070945 METAR LMML 070945Z 07015KT 040V100 9000 BKN008 BKN120 14/12
                        Q1009 NOSIG=
201003070930 METAR LMML NIL=
201003070915 METAR LMML 070915Z 07016KT 040V100 9000 BKN008 BKN120 14/12
                        Q1009 NOSIG=
201003070900 METAR LMML NIL=
201003070845 METAR LMML 070845Z 07015KT 040V100 9000 BKN010 SCT013 BKN100
                        14/12 Q1009 NOSIG=
201003070830 METAR LMML NIL=
201003070815 METAR LMML 070815Z 07014KT 9000 BKN010 SCT014 BKN100 14/12
                        Q1009 NOSIG=
201003070800 METAR LMML NIL=
201003070745 METAR LMML 070745Z 05011KT 020V080 9000 BKN010 SCT016 BKN100
                        14/12 Q1011 NOSIG=
201003070730 METAR LMML NIL=
201003070715 METAR LMML 070715Z 09014KT 9000 BKN010 SCT015 BKN100 13/12
                        Q1009 NOSIG=
201003070700 METAR LMML NIL=
201003070645 METAR LMML 070645Z 08016KT 050V110 9999 BKN010 BKN015 BKN090
                        13/12 Q1008 NOSIG=
201003070630 METAR LMML NIL=
201003070615 METAR LMML 070615Z 09015KT 060V120 9999 BKN009 BKN015 BKN090
                        13/12 Q1008 NOSIG=
201003070600 METAR LMML NIL=
201003070545 METAR LMML 070545Z 09016KT 050V120 9999 BKN008 BKN013 BKN090
                        13/12 Q1008 NOSIG=
201003070530 METAR LMML NIL=
201003070515 METAR LMML 070515Z 09018KT 060V120 9999 BKN008 BKN013 BKN090
                        13/11 Q1007 NOSIG=
201003070500 METAR LMML NIL=
201003070445 METAR LMML 070445Z 09017KT 060V130 9999 -RA BKN007 BKN012
                        BKN090 13/12 Q1008 NOSIG=
201003070430 METAR LMML NIL=
201003070415 METAR LMML 070415Z 09014KT 060V120 9999 -RA BKN007 BKN011
                        BKN090 12/12 Q1009 NOSIG=
201003070400 METAR LMML NIL=
201003070345 METAR LMML 070345Z 10015KT 9999 -RA BKN010 BKN090 12/11 Q1010
                        NOSIG=
201003070315 METAR LMML 070315Z 10015KT 9999 RA BKN012 BKN090 12/11 Q1010
                        NOSIG=
201003070300 METAR LMML NIL=
201003070245 METAR LMML 070245Z 09012KT 060V120 9999 RA BKN011 BKN090
                        13/11 Q1011 NOSIG=
201003070230 METAR LMML NIL=
201003070215 METAR LMML 070215Z 11015KT 9999 -RA BKN011 BKN110 13/11 Q1011
                        NOSIG=
201003070145 METAR LMML 070145Z 09014KT 060V130 9999 SHRA BKN012 BKN120
                        13/11 Q1011 NOSIG=
201003070130 METAR LMML NIL=
201003070115 METAR LMML 070115Z 08014KT 040V110 9999 BKN013 SCT020 BKN100
                        12/11 Q1011 RESHRA NOSIG=
201003070100 METAR LMML NIL=
201003070045 METAR LMML 070045Z 07010KT 030V110 9999 SHRA BKN015 SCT020
                        BKN100 13/11 Q1012 NOSIG=
201003070030 METAR LMML NIL=
201003070015 METAR LMML 070015Z 09014KT 060V130 9999 SCT015 SCT022 BKN100
                        13/10 Q1012 NOSIG=
201003070000 METAR LMML NIL=
201003062345 METAR LMML 062345Z 09015KT 9999 SCT014 SCT021 BKN120 13/10
                        Q1012 NOSIG=
201003062315 METAR LMML 062315Z 09014KT 060V120 9999 SCT014 SCT021 BKN120
                        13/10 Q1013 NOSIG=
201003062300 METAR LMML NIL=
201003062245 METAR LMML 062245Z 09018KT 060V120 9999 SCT013 BKN120 BKN250
                        13/10 Q1012 NOSIG=
201003062230 METAR LMML NIL=
201003062215 METAR LMML 062215Z 09015KT 060V120 9999 SCT014 BKN120 BKN250
                        13/09 Q1013 NOSIG=
201003062200 METAR LMML NIL=
201003062145 METAR LMML 062145Z 08013KT 050V110 9999 SCT014 BKN120 BKN250
                        13/10 Q1014 NOSIG=
201003062130 METAR LMML NIL=
201003062115 METAR LMML 062115Z 08013KT 050V110 9999 SCT014 BKN110 BKN250
                        13/10 Q1014 NOSIG=
201003062100 METAR LMML NIL=
201003062045 METAR LMML 062045Z 08013KT 050V110 9999 BKN016 SCT130 BKN250
                        13/10 Q1013 NOSIG=
201003062030 METAR LMML NIL=
201003062015 METAR LMML 062015Z 08013KT 9999 BKN014 SCT130 BKN250 13/10
                        Q1013 NOSIG=
201003062000 METAR LMML NIL=
201003061945 METAR LMML 061945Z 07010KT 040V110 9999 SCT013 SCT130 BKN250
                        13/10 Q1014 NOSIG=
201003061930 METAR LMML NIL=
201003061915 METAR LMML 061915Z 08011KT 050V130 9999 FEW014 SCT120 BKN250
                        13/10 Q1014 NOSIG=
201003061900 METAR LMML NIL=
201003061845 METAR LMML 061845Z 07007KT 9999 FEW014 SCT120 BKN250 13/10
                        Q1014 NOSIG=
201003061830 METAR LMML NIL=
201003061815 METAR LMML 061815Z 07007KT 030V100 9999 FEW013 SCT120 BKN250
                        14/10 Q1014 NOSIG=
201003061800 METAR LMML NIL=
201003061745 METAR LMML 061745Z 05007KT 020V080 9999 FEW020 SCT120 BKN250
                        14/09 Q1014 NOSIG=
201003061730 METAR LMML NIL=
201003061715 METAR LMML 061715Z 07006KT 9999 FEW020 SCT120 BKN250 14/09
                        Q1014 NOSIG=
201003061700 METAR LMML NIL=
201003061645 METAR LMML 061645Z 07007KT 9999 FEW020 SCT120 BKN250 14/09
                        Q1014 NOSIG=
201003061630 METAR LMML NIL=
201003061615 METAR LMML 061615Z 07008KT 020V090 CAVOK 14/09 Q1013 NOSIG=
201003061600 METAR LMML NIL=
201003061545 METAR LMML 061545Z 06007KT 350V130 CAVOK 15/06 Q1013 NOSIG=
201003061530 METAR LMML NIL=
201003061515 METAR LMML 061515Z 07008KT CAVOK 15/07 Q1013 NOSIG=
201003061500 METAR LMML NIL=
201003061445 METAR LMML 061445Z 04007KT 360V090 CAVOK 16/06 Q1013 NOSIG=
201003061430 METAR LMML NIL=
201003061415 METAR LMML 061415Z 03008KT 360V060 9999 FEW024 SCT120 BKN250
                        17/04 Q1013 NOSIG=
201003061345 METAR LMML 061345Z 03008KT 350V060 9999 FEW024 BKN250 17/07
                        Q1013 NOSIG=
201003061330 METAR LMML NIL=
201003061315 METAR LMML 061315Z 02008KT 9999 FEW024 SCT130 BKN250 16/08
                        Q1014 TEMPO 06015KT=
201003061300 METAR LMML NIL=
201003061245 METAR LMML 061245Z 36010KT 9999 FEW024 SCT130 BKN250 16/09
                        Q1014 TEMPO 06015KT=
201003061215 METAR LMML 061215Z 35010KT 270V030 9999 FEW021 SCT250 17/09
                        Q1014 TEMPO 06015KT=
201003061200 METAR LMML NIL=
201003061145 METAR LMML 061145Z 36010KT 300V020 9999 FEW025 SCT250 17/10
                        Q1014 TEMPO 06015KT=
201003061130 METAR LMML NIL=
201003061115 METAR LMML 061115Z 36009KT 9999 FEW024 SCT120 17/10 Q1015
                        TEMPO 06015KT=
201003061100 METAR LMML NIL=
201003061045 METAR LMML 061045Z 36007KT 320V040 9999 SCT027 SCT120 BKN250
                        18/10 Q1015 TEMPO 06015KT=
201003061030 METAR LMML NIL=
201003061015 METAR LMML 061015Z 35004KT 260V040 9999 FEW025 BKN250 17/10
                        Q1015 TEMPO 06015KT=
201003061000 METAR LMML NIL=
201003060945 METAR LMML 060945Z 32004KT 290V350 9999 SCT025 BKN250 16/09
                        Q1015 NOSIG=
201003060930 METAR LMML NIL=
201003060915 METAR LMML 060915Z 34005KT 290V360 9999 BKN019 BKN250 16/10
                        Q1015 NOSIG=
201003060900 METAR LMML NIL=
201003060845 METAR LMML 060845Z 30005KT 260V340 9999 SCT021 SCT120 BKN250
                        15/11 Q1016 NOSIG=
201003060830 METAR LMML NIL=
201003060815 METAR LMML 060815Z 28005KT 230V310 9999 FEW020 SCT120 BKN250
                        15/10 Q1015 NOSIG=
201003060800 METAR LMML NIL=
201003060745 METAR LMML 060745Z 27005KT 220V310 9999 FEW016 BKN250 15/10
                        Q1015 NOSIG=
201003060730 METAR LMML NIL=
201003060715 METAR LMML 060715Z 25005KT 210V280 9999 FEW015 BKN250 15/11
                        Q1015 NOSIG=
201003060700 METAR LMML NIL=
201003060645 METAR LMML 060645Z 25004KT 220V290 9999 FEW015 SCT250 13/11
                        Q1015 NOSIG=
201003060630 METAR LMML NIL=
201003060615 METAR LMML 060615Z 27004KT 230V290 9999 FEW015 SCT250 12/11
                        Q1014 NOSIG=
201003060600 METAR LMML NIL=
201003060545 METAR LMML 060545Z 26004KT 230V290 9999 FEW015 SCT250 12/10
                        Q1014 NOSIG=
201003060530 METAR LMML NIL=
201003060515 METAR LMML 060515Z 24004KT 9999 FEW015 SCT250 12/10 Q1014
                        NOSIG=
201003060500 METAR LMML NIL=
201003060445 METAR LMML 060445Z 26005KT 240V300 CAVOK 12/10 Q1014 NOSIG=
201003060430 METAR LMML NIL=
201003060415 METAR LMML 060415Z 24005KT CAVOK 12/10 Q1014 NOSIG=
201003060400 METAR LMML NIL=
201003060345 METAR LMML 060345Z 26004KT CAVOK 12/10 Q1014 NOSIG=
201003060330 METAR LMML NIL=
201003060315 METAR LMML 060315Z VRB03KT CAVOK 12/10 Q1014 NOSIG=
201003060245 METAR LMML 060245Z 27004KT CAVOK 12/10 Q1014 NOSIG=
201003060230 METAR LMML NIL=
201003060215 METAR LMML 060215Z 26005KT CAVOK 12/10 Q1014 NOSIG=
201003060200 METAR LMML NIL=
201003060145 METAR LMML 060145Z 25005KT 220V280 CAVOK 12/10 Q1015 NOSIG=
201003060130 METAR LMML NIL=
201003060115 METAR LMML 060115Z 24004KT CAVOK 12/10 Q1015 NOSIG=
201003060100 METAR LMML NIL=
201003060045 METAR LMML 060045Z 26005KT 220V290 CAVOK 12/10 Q1015 NOSIG=
201003060030 METAR LMML NIL=
201003060015 METAR LMML 060015Z 24004KT 210V270 CAVOK 12/10 Q1015 NOSIG=
201003060000 METAR LMML NIL=
201003052345 METAR LMML 052345Z 25004KT 220V300 CAVOK 12/10 Q1015 NOSIG=
201003052330 METAR LMML NIL=
201003052315 METAR LMML 052315Z VRB03KT CAVOK 12/10 Q1015 NOSIG=
201003052300 METAR LMML NIL=
201003052245 METAR LMML 052245Z 23005KT 200V270 CAVOK 13/10 Q1015 NOSIG=
201003052230 METAR LMML NIL=
201003052215 METAR LMML 052215Z 25005KT 220V280 CAVOK 13/10 Q1016 NOSIG=
201003052200 METAR LMML NIL=
201003052145 METAR LMML 052145Z 24006KT 9999 FEW020 12/10 Q1016 NOSIG=
201003052130 METAR LMML NIL=
201003052115 METAR LMML 052115Z 26005KT 9999 FEW020 12/09 Q1016 NOSIG=
201003052100 METAR LMML NIL=
201003052045 METAR LMML 052045Z 27005KT 9999 FEW020 13/10 Q1016 NOSIG=
201003052030 METAR LMML NIL=
201003052015 METAR LMML 052015Z 27005KT 230V290 9999 FEW020 13/10 Q1016
                        NOSIG=
201003052000 METAR LMML NIL=
201003051945 METAR LMML 051945Z 26005KT 230V290 9999 FEW020 13/10 Q1016
                        NOSIG=
201003051930 METAR LMML NIL=
201003051915 METAR LMML 051915Z 26006KT 240V300 9999 FEW020 13/10 Q1016
                        NOSIG=
201003051900 METAR LMML NIL=
201003051845 METAR LMML 051845Z 26007KT 9999 FEW020 13/10 Q1015 NOSIG=
201003051830 METAR LMML NIL=
201003051815 METAR LMML 051815Z 25005KT 210V290 9999 FEW020 13/10 Q1015
                        NOSIG=
201003051800 METAR LMML NIL=
201003051745 METAR LMML 051745Z 25006KT 210V290 9999 FEW020 14/10 Q1015
                        NOSIG=
201003051730 METAR LMML NIL=
201003051715 METAR LMML 051715Z 26009KT 230V290 9999 FEW034 SCT250 14/09
                        Q1015 NOSIG=
201003051700 METAR LMML NIL=
201003051645 METAR LMML 051645Z 27009KT 230V300 9999 FEW034 SCT250 14/09
                        Q1015 NOSIG=
201003051630 METAR LMML NIL=
201003051615 METAR LMML 051615Z 26011KT 230V300 9999 SCT022 15/10 Q1015
                        NOSIG=
201003051600 METAR LMML NIL=
201003051545 METAR LMML 051545Z 27011KT 240V310 9999 SCT023 15/09 Q1015
                        NOSIG=
201003051530 METAR LMML NIL=
201003051515 METAR LMML 051515Z 27011KT 220V300 9999 SCT026 16/09 Q1015
                        NOSIG=
201003051500 METAR LMML NIL=
201003051445 METAR LMML 051445Z 28011KT 240V320 9999 FEW025 SCT250 17/09
                        Q1015 NOSIG=
201003051430 METAR LMML NIL=
201003051415 METAR LMML 051415Z 27013KT 240V310 9999 FEW025 FEW250 16/10
                        Q1015 NOSIG=
201003051400 METAR LMML NIL=
201003051345 METAR LMML 051345Z 28013KT 250V310 9999 SCT025 17/09 Q1015
                        NOSIG=
201003051330 METAR LMML NIL=
201003051315 METAR LMML 051315Z 28013KT 230V310 9999 BKN026 17/10 Q1015
                        NOSIG=
201003051300 METAR LMML NIL=
201003051245 METAR LMML 051245Z 28014KT 230V310 9999 BKN025 17/09 Q1015
                        NOSIG=
201003051230 METAR LMML NIL=
201003051215 METAR LMML 051215Z 28014KT 220V300 9999 BKN023 16/09 Q1015
                        NOSIG=
201003051200 METAR LMML NIL=
201003051145 METAR LMML 051145Z 28014KT 240V320 9999 SCT024 16/10 Q1016
                        NOSIG=
201003051137 SPECI LMML 051137Z 27015KT 250V320 9999 SCT023 16/10 Q1016
                        NOSIG=
201003051130 METAR LMML NIL=
201003051115 METAR LMML 051115Z 27015KT 240V310 9999 SCT023 16/09 Q1016
                        NOSIG=
201003051100 METAR LMML NIL=
201003051045 METAR LMML 051045Z 29016KT 9999 BKN024 16/09 Q1016 NOSIG=
201003051015 METAR LMML 051015Z 28013KT 250V320 9999 BKN025 17/10 Q1016
                        NOSIG=
201003051000 METAR LMML NIL=
201003050945 METAR LMML 050945Z 29014KT 250V320 9999 SCT026 16/09 Q1015
                        NOSIG=
201003050930 METAR LMML NIL=
201003050915 METAR LMML 050915Z 29014KT 9999 SCT029 16/08 Q1016 NOSIG=
201003050900 METAR LMML NIL=
201003050845 METAR LMML 050845Z 30014KT 260V350 9999 FEW027 15/09 Q1015
                        NOSIG=
201003050830 METAR LMML NIL=
201003050815 METAR LMML 050815Z 31015KT 270V330 9999 FEW027 15/09 Q1015
                        NOSIG=
201003050800 METAR LMML NIL=
201003050745 METAR LMML 050745Z 30014KT 270V340 9999 FEW025 15/09 Q1015
                        NOSIG=
201003050730 METAR LMML NIL=
201003050715 METAR LMML 050715Z 30012KT 260V340 9999 FEW025 14/09 Q1015
                        NOSIG=
201003050700 METAR LMML NIL=
201003050645 METAR LMML 050645Z 29012KT 260V340 9999 FEW024 14/09 Q1015
                        NOSIG=
201003050630 METAR LMML NIL=
201003050615 METAR LMML 050615Z 30010KT 270V330 9999 FEW024 13/09 Q1014
                        NOSIG=
201003050600 METAR LMML NIL=
201003050545 METAR LMML 050545Z 29010KT 9999 FEW025 13/09 Q1014 NOSIG=
201003050530 METAR LMML NIL=
201003050515 METAR LMML 050515Z 29011G21KT 260V320 9999 FEW026 13/08 Q1014
                        NOSIG=
201003050500 METAR LMML NIL=
201003050445 METAR LMML 050445Z 29012KT 9999 FEW024 13/09 Q1014 NOSIG=
201003050430 METAR LMML NIL=
201003050415 METAR LMML 050415Z 30012KT 9999 FEW023 13/09 Q1014 TEMPO
                        BKN012=
201003050400 METAR LMML NIL=
201003050345 METAR LMML 050345Z 30012KT 270V330 9999 FEW017 13/10 Q1014
                        TEMPO BKN012=
201003050330 METAR LMML NIL=
201003050315 METAR LMML 050315Z 29011KT 260V330 9999 SCT017 13/10 Q1014
                        TEMPO BKN012=
201003050300 METAR LMML NIL=
201003050245 METAR LMML 050245Z 30014KT 260V320 9999 SCT016 13/10 Q1013
                        TEMPO BKN012=
201003050230 METAR LMML NIL=
201003050215 METAR LMML 050215Z 29011KT 260V320 9999 SCT015 13/11 Q1013
                        TEMPO BKN012=
201003050200 METAR LMML NIL=
201003050145 METAR LMML 050145Z 29013KT 260V330 9999 SCT017 13/11 Q1014
                        TEMPO BKN012=
201003050130 METAR LMML NIL=
201003050115 METAR LMML 050115Z 28010KT 240V310 9999 SCT017 13/11 Q1014
                        TEMPO BKN012=
201003050100 METAR LMML NIL=
201003050045 METAR LMML 050045Z 28010KT 240V320 9999 FEW021 13/11 Q1014
                        TEMPO BKN012=
201003050030 METAR LMML NIL=
201003050015 METAR LMML 050015Z 27010KT 230V300 9999 FEW018 13/11 Q1014
                        TEMPO BKN012=
201003050000 METAR LMML NIL=
201003042345 METAR LMML 042345Z 28011KT 240V320 9999 FEW020 13/10 Q1013
                        TEMPO BKN012=
201003042330 METAR LMML NIL=
201003042315 METAR LMML 042315Z 28010KT 250V310 9999 FEW018 13/10 Q1014
                        TEMPO BKN012=
201003042245 METAR LMML 042245Z 28010KT 250V310 9999 FEW018 SCT080 14/11
                        Q1014 TEMPO BKN012=
201003042230 METAR LMML NIL=
201003042215 METAR COR LMML 042215Z 28010KT 240V320 9999 FEW012 SCT080
                        14/11 Q1014 TEMPO BKN012=
201003042200 METAR LMML NIL=
201003042145 METAR LMML 042145Z 28013KT 240V310 9999 FEW012 SCT080 14/11
                        Q1013 TEMPO BKN012=
201003042130 METAR LMML NIL=
201003042115 METAR LMML 042115Z 28013KT 9999 FEW012 SCT080 14/11 Q1013
                        TEMPO BKN012=
201003042100 METAR LMML NIL=
201003042045 METAR LMML 042045Z 28013KT 240V320 9999 FEW012 14/12 Q1013
                        TEMPO BKN012=
201003042030 METAR LMML NIL=
201003042015 METAR LMML 042015Z 29012KT 9999 SCT013 14/12 Q1013 TEMPO
                        BKN012=
201003042000 METAR LMML NIL=
201003041945 METAR LMML 041945Z 29013KT 250V310 9999 SCT013 14/12 Q1013
                        NOSIG=
201003041930 METAR LMML NIL=
201003041915 METAR LMML 041915Z 29013KT 9999 FEW016 15/12 Q1012 NOSIG=
201003041900 METAR LMML NIL=
201003041845 METAR LMML 041845Z 28012KT 250V320 9999 SCT013 15/13 Q1012
                        NOSIG=
201003041830 METAR LMML NIL=
201003041815 METAR LMML 041815Z 26013KT 220V290 9999 FEW015 15/13 Q1011
                        NOSIG=
201003041800 METAR LMML NIL=
201003041745 METAR LMML 041745Z 25016KT 220V280 9999 FEW015 15/13 Q1011
                        NOSIG=
201003041730 METAR LMML NIL=
201003041715 METAR LMML 041715Z 25017KT 210V290 9999 FEW015 15/13 Q1010
                        NOSIG=
201003041700 METAR LMML NIL=
201003041645 METAR LMML 041645Z 25018KT 220V280 9999 FEW015 15/13 Q1010
                        NOSIG=
201003041630 METAR LMML NIL=
201003041615 METAR LMML 041615Z 25016KT 220V280 9999 FEW020 16/12 Q1010
                        TEMPO CAVOK=
201003041600 METAR LMML NIL=
201003041545 METAR LMML 041545Z 26017KT 220V290 CAVOK 17/12 Q1010 TEMPO
                        9999 FEW020=
201003041530 METAR LMML NIL=
201003041515 METAR LMML 041515Z 26017G28KT 210V280 CAVOK 17/11 Q1009 TEMPO
                        9999 FEW020=
201003041500 METAR LMML NIL=
201003041445 METAR LMML 041445Z 26017KT 220V300 CAVOK 17/12 Q1010 TEMPO
                        9999 FEW020=
201003041430 METAR LMML NIL=
201003041415 METAR LMML 041415Z 26021KT 220V290 9999 FEW020 17/12 Q1010
                        TEMPO CAVOK=
201003041400 METAR LMML NIL=
201003041345 METAR LMML 041345Z 26020KT 220V300 9999 FEW020 17/11 Q1010
                        TEMPO CAVOK=
201003041330 METAR LMML NIL=
201003041315 METAR LMML 041315Z 26019G29KT 190V280 CAVOK 18/10 Q1009 TEMPO
                        9999 FEW020=
201003041300 METAR LMML NIL=
201003041245 METAR LMML 041245Z 26020KT 220V310 CAVOK 18/10 Q1010 TEMPO
                        9999 FEW020=
201003041230 METAR LMML NIL=
201003041215 METAR LMML 041215Z 27020KT 230V310 CAVOK 18/09 Q1010 TEMPO
                        9999 FEW020=
201003041200 METAR LMML NIL=
201003041145 METAR LMML 041145Z 28020G30KT 240V310 9999 FEW020 18/09 Q1010
                        NOSIG=
201003041130 METAR LMML NIL=
201003041115 METAR LMML 041115Z 29022G32KT 260V320 9999 FEW020 19/07 Q1010
                        NOSIG=
201003041045 METAR LMML 041045Z 29021G31KT 250V320 CAVOK 18/07 Q1010 NOSIG=
201003041030 METAR LMML NIL=
201003041015 METAR LMML 041015Z 29022KT 260V320 CAVOK 18/07 Q1010 NOSIG=
201003041000 METAR LMML NIL=
201003040945 METAR LMML 040945Z 29020KT 250V320 CAVOK 18/09 Q1010 NOSIG=
201003040930 METAR LMML NIL=
201003040915 METAR LMML 040915Z 29019KT 260V320 CAVOK 17/09 Q1010 NOSIG=
201003040900 METAR LMML NIL=
201003040845 METAR LMML 040845Z 31020KT CAVOK 17/09 Q1011 NOSIG=
201003040830 METAR LMML NIL=
201003040815 METAR LMML 040815Z 30015KT CAVOK 17/10 Q1010 NOSIG=
201003040800 METAR LMML NIL=
201003040745 METAR LMML 040745Z 30015KT 270V330 CAVOK 16/11 Q1009 NOSIG=
201003040730 METAR LMML NIL=
201003040715 METAR LMML 040715Z 29012KT CAVOK 15/12 Q1009 NOSIG=
201003040700 METAR LMML NIL=
201003040645 METAR LMML 040645Z 28009KT 9999 FEW012 15/13 Q1009 NOSIG=
201003040630 METAR LMML NIL=
201003040615 METAR LMML 040615Z 28006KT CAVOK 14/11 Q1008 NOSIG=
201003040600 METAR LMML NIL=
201003040545 METAR LMML 040545Z 29005KT CAVOK 13/12 Q1008=
201003040515 METAR LMML 040515Z 30007KT 9000 NSC 13/12 Q1008=
201003040500 METAR LMML NIL=
201003040445 METAR LMML 040445Z 31007KT 9000 FEW005 SCT250 13/13 Q1007=
201003040430 METAR LMML NIL=
201003040415 METAR LMML 040415Z 34008KT 9000 FEW005 SCT250 14/13 Q1007
                        NOSIG=
201003040400 METAR LMML NIL=
201003040345 METAR LMML 040345Z 33007KT 6000 BKN004 BKN250 14/13 Q1007
                        TEMPO BKN003=
201003040330 METAR LMML NIL=
201003040315 METAR LMML 040315Z 35009KT 7000 FEW005 BKN250 14/13 Q1006
                        NOSIG=
201003040300 METAR LMML NIL=
201003040245 METAR LMML 040245Z 01009KT 9000 FEW016 BKN250 14/13 Q1006
                        NOSIG=
201003040230 METAR LMML NIL=
201003040200 METAR LMML NIL=
201003040145 METAR LMML 040145Z 32008KT 9000 NSC 15/14 Q1006 NOSIG=
201003040130 METAR LMML NIL=
201003040115 METAR LMML 040115Z 32007KT 9000 NSC 15/14 Q1006 TEMPO 28015KT=
201003040100 METAR LMML NIL=
201003040045 METAR LMML 040045Z 32007KT 9000 NSC 15/14 Q1006 TEMPO 28015KT=
201003040030 METAR LMML NIL=
201003040015 METAR LMML 040015Z VRB03KT 9000 NSC 16/14 Q1006 TEMPO 28015KT=
201003040000 METAR LMML NIL=
201003032345 METAR LMML 032345Z 29004KT 210V350 9000 NSC 16/14 Q1006 TEMPO
                        28015KT=
201003032330 METAR LMML NIL=
201003032315 METAR LMML 032315Z 22008KT 180V270 9000 NSC 16/14 Q1006 TEMPO
                        28015KT=
201003032245 METAR LMML 032245Z 20011KT 160V260 9000 NSC 17/14 Q1006 NOSIG=
201003032230 METAR LMML NIL=
201003032215 METAR LMML 032215Z 20011KT 160V260 9000 NSC 16/14 Q1006 NOSIG=
201003032200 METAR LMML NIL=
201003032145 METAR LMML 032145Z 19012KT 160V230 9000 NSC 17/13 Q1006 NOSIG=
201003032130 METAR LMML NIL=
201003032115 METAR LMML 032115Z 18015KT 160V230 9000 NSC 16/13 Q1006 NOSIG=
201003032100 METAR LMML NIL=
201003032045 METAR LMML 032045Z 18015KT 150V220 9000 NSC 16/13 Q1007 NOSIG=
201003032030 METAR LMML NIL=
201003032015 METAR LMML 032015Z 18013KT 140V210 9000 NSC 16/13 Q1007 NOSIG=
201003032000 METAR LMML NIL=
201003031945 METAR LMML 031945Z 17014KT 140V200 9000 NSC 16/13 Q1007 NOSIG=
201003031930 METAR LMML NIL=
201003031915 METAR LMML 031915Z 17017KT 9000 NSC 16/13 Q1008 NOSIG=
201003031900 METAR LMML NIL=
201003031845 METAR LMML 031845Z 16017KT 130V190 9000 NSC 16/13 Q1008 NOSIG=
201003031830 METAR LMML NIL=
201003031815 METAR LMML 031815Z 15019G29KT 9000 NSC 16/12 Q1008 NOSIG=
201003031800 METAR LMML NIL=
201003031745 METAR LMML 031745Z 15017KT 110V180 9000 NSC 15/12 Q1009 TEMPO
                        8000 SCT005=
201003031730 METAR LMML NIL=
201003031715 METAR LMML 031715Z 14015KT 9000 NSC 15/13 Q1010 TEMPO 8000
                        SCT005=
201003031700 METAR LMML NIL=
201003031645 METAR LMML 031645Z 13016KT 9000 NSC 15/13 Q1010 TEMPO 8000
                        SCT005=
201003031630 METAR LMML NIL=
201003031615 METAR LMML 031615Z 13016KT 110V170 9999 FEW008 BKN120 BKN250
                        15/13 Q1011 NOSIG=
201003031600 METAR LMML NIL=
201003031545 METAR LMML 031545Z 13017KT 9999 FEW008 BKN120 BKN250 15/13
                        Q1012 NOSIG=
201003031530 METAR LMML NIL=
201003031515 METAR LMML 031515Z 13018KT 9999 FEW008 BKN120 BKN250 15/13
                        Q1012 NOSIG=
201003031500 METAR LMML NIL=
201003031445 METAR LMML 031445Z 13017KT 100V160 9999 SCT008 BKN120 BKN250
                        15/13 Q1013 NOSIG=
201003031430 METAR LMML NIL=
201003031415 METAR LMML 031415Z 14019KT 9999 SCT008 SCT120 BKN250 16/13
                        Q1013 NOSIG=
201003031400 METAR LMML NIL=
201003031345 METAR LMML 031345Z 14018KT 110V170 9999 FEW006 BKN120 BKN250
                        16/13 Q1013 NOSIG=
201003031330 METAR LMML NIL=
201003031315 METAR LMML 031315Z 14023KT 110V170 9999 BKN006 SCT120 SCT250
                        16/14 Q1013 NOSIG=
201003031300 METAR LMML NIL=
201003031245 METAR LMML 031245Z 13019KT 100V180 9999 BKN006 SCT120 BKN250
                        16/13 Q1014 NOSIG=
201003031230 METAR LMML NIL=
201003031215 METAR LMML 031215Z 13021KT 9999 BKN007 SCT120 BKN250 15/13
                        Q1015 NOSIG=
201003031200 METAR LMML NIL=
201003031145 METAR LMML 031145Z 12019KT 9999 SCT007 SCT120 BKN250 16/13
                        Q1016 NOSIG=
201003031130 METAR LMML NIL=
201003031115 METAR LMML 031115Z 12018KT 9999 FEW007 SCT120 BKN250 15/13
                        Q1016 NOSIG=
201003031100 METAR LMML NIL=
201003031045 METAR LMML 031045Z 12018KT 9999 FEW012 BKN150 BKN250 15/13
                        Q1017 NOSIG=
201003031030 METAR LMML NIL=
201003031015 METAR LMML 031015Z 11012KT 9999 FEW012 BKN120 BKN250 15/12
                        Q1018 NOSIG=
201003031000 METAR LMML NIL=
201003030945 METAR LMML 030945Z 12015KT 090V150 9999 SCT010 SCT120 BKN250
                        16/13 Q1019 NOSIG=
201003030930 METAR LMML NIL=
201003030915 METAR LMML 030915Z 10008KT 060V150 9999 SCT008 SCT120 BKN250
                        15/13 Q1019 NOSIG=
201003030900 METAR LMML NIL=
201003030845 METAR LMML 030845Z 13014KT 9999 SCT008 BKN120 BKN250 15/13
                        Q1019 NOSIG=
201003030830 METAR LMML NIL=
201003030815 METAR LMML 030815Z 12012KT 9999 BKN007 BKN250 15/13 Q1019
                        BECMG SCT008=
201003030800 METAR LMML NIL=
201003030745 METAR LMML 030745Z 12013KT 9000 BKN006 SCT130 BKN250 14/13
                        Q1019 BECMG SCT008=
201003030730 METAR LMML NIL=
201003030715 METAR LMML 030715Z 13012KT 9000 SCT007 SCT130 BKN250 14/13
                        Q1018 BECMG SCT008=
201003030700 METAR LMML NIL=
201003030645 METAR LMML 030645Z 11010KT 7000 BKN007 14/13 Q1019 BECMG
                        SCT008=
201003030630 METAR LMML NIL=
201003030615 METAR LMML 030615Z 11008KT 7000 BKN006 BKN250 14/13 Q1019
                        NOSIG=
201003030600 METAR LMML NIL=
201003030545 METAR LMML 030545Z 12009KT 9000 SCT007 BKN250 13/13 Q1018
                        NOSIG=
201003030530 METAR LMML NIL=
201003030515 METAR LMML 030515Z 09008KT 030V150 9999 BKN006 BKN250 13/13
                        Q1019 NOSIG=
201003030500 METAR LMML NIL=
201003030445 METAR LMML 030445Z 12009KT 9999 BKN004 BKN250 13/13 Q1019
                        TEMPO BKN003=
201003030430 METAR LMML NIL=
201003030415 METAR LMML 030415Z 11006KT 070V150 9999 SCT004 BKN250 13/12
                        Q1019 TEMPO BKN003=
201003030400 METAR LMML NIL=
201003030345 METAR LMML 030345Z 11008KT CAVOK 12/11 Q1019 NOSIG=
201003030330 METAR LMML NIL=
201003030315 METAR LMML 030315Z VRB02KT CAVOK 12/11 Q1021 NOSIG=
201003030300 METAR LMML NIL=
201003030245 METAR LMML 030245Z VRB01KT CAVOK 12/11 Q1020 NOSIG=
201003030230 METAR LMML NIL=
201003030215 METAR LMML 030215Z VRB03KT CAVOK 12/11 Q1019 NOSIG=
201003030200 METAR LMML NIL=
201003030145 METAR LMML 030145Z VRB02KT CAVOK 12/10 Q1019 NOSIG=
201003030130 METAR LMML NIL=
201003030115 METAR LMML 030115Z VRB02KT CAVOK 12/11 Q1020 NOSIG=
201003030100 METAR LMML NIL=
201003030045 METAR LMML 030045Z VRB03KT CAVOK 12/10 Q1021 NOSIG=
201003030030 METAR LMML NIL=
201003030015 METAR LMML 030015Z VRB03KT CAVOK 13/11 Q1021 NOSIG=
201003030000 METAR LMML NIL=
201003022345 METAR LMML 022345Z VRB03KT CAVOK 13/11 Q1021 NOSIG=
201003022330 METAR LMML NIL=
201003022315 METAR LMML 022315Z VRB02KT CAVOK 12/11 Q1021 NOSIG=
201003022300 METAR LMML NIL=
201003022245 METAR LMML 022245Z VRB01KT CAVOK 12/11 Q1021 NOSIG=
201003022230 METAR LMML NIL=
201003022215 METAR LMML 022215Z VRB02KT CAVOK 13/11 Q1022 NOSIG=
201003022200 METAR LMML NIL=
201003022145 METAR LMML 022145Z 32004KT CAVOK 13/11 Q1022 NOSIG=
201003022130 METAR LMML NIL=
201003022115 METAR LMML 022115Z 33004KT CAVOK 13/11 Q1022 NOSIG=
201003022100 METAR LMML NIL=
201003022045 METAR LMML 022045Z 33004KT 290V360 CAVOK 13/11 Q1022 NOSIG=
201003022030 METAR LMML NIL=
201003022015 METAR LMML 022015Z 31006KT 270V340 CAVOK 13/11 Q1023 NOSIG=
201003022000 METAR LMML NIL=
201003021945 METAR LMML 021945Z 28008KT CAVOK 14/11 Q1022 NOSIG=
201003021930 METAR LMML NIL=
201003021915 METAR LMML 021915Z 30005KT 270V350 CAVOK 14/11 Q1022 NOSIG=
201003021900 METAR LMML NIL=
201003021845 METAR LMML 021845Z 29008KT CAVOK 13/11 Q1022 NOSIG=
201003021830 METAR LMML NIL=
201003021815 METAR LMML 021815Z 28007KT 240V330 9999 FEW015 BKN250 13/11
                        Q1022 NOSIG=
201003021800 METAR LMML NIL=
201003021745 METAR LMML 021745Z 30009KT 9999 FEW015 BKN250 13/11 Q1022
                        NOSIG=
201003021730 METAR LMML NIL=
201003021715 METAR LMML 021715Z 29008KT 260V320 9999 FEW015 BKN250 14/11
                        Q1022 NOSIG=
201003021700 METAR LMML NIL=
201003021645 METAR LMML 021645Z 26007KT 180V300 9999 FEW015 SCT120 BKN250
                        14/10 Q1022 NOSIG=
201003021630 METAR LMML NIL=
201003021615 METAR LMML 021615Z 28007KT 220V320 9999 FEW020 BKN250 15/10
                        Q1021 NOSIG=
201003021600 METAR LMML NIL=
201003021545 METAR LMML 021545Z 30014KT 9999 FEW020 BKN250 15/10 Q1021
                        NOSIG=
201003021530 METAR LMML NIL=
201003021515 METAR LMML 021515Z 30016KT 9999 FEW020 BKN250 16/09 Q1022
                        NOSIG=
201003021500 METAR LMML NIL=
201003021445 METAR LMML 021445Z 29014KT 9999 FEW020 BKN250 16/11 Q1022
                        NOSIG=
201003021430 METAR LMML NIL=
201003021415 METAR LMML 021415Z 28017KT 250V310 9999 FEW025 BKN250 16/10
                        Q1022 NOSIG=
201003021400 METAR LMML NIL=
201003021345 METAR LMML 021345Z 29016KT 9999 FEW025 SCT250 16/10 Q1021
                        NOSIG=
201003021330 METAR LMML NIL=
201003021315 METAR LMML 021315Z 29012KT 250V330 9999 FEW025 BKN250 17/10
                        Q1022 NOSIG=
201003021300 METAR LMML NIL=
201003021245 METAR LMML 021245Z 29013KT 260V330 9999 FEW020 SCT250 16/10
                        Q1022 NOSIG=
201003021215 METAR LMML 021215Z 30013KT 280V350 9999 FEW020 BKN250 17/10
                        Q1022 NOSIG=
201003021200 METAR LMML NIL=
201003021145 METAR LMML 021145Z 30013KT 270V330 9999 FEW020 SCT250 17/10
                        Q1022 NOSIG=
201003021130 METAR LMML NIL=
201003021115 METAR LMML 021115Z 30013KT 250V330 9999 FEW020 18/10 Q1023
                        NOSIG=
201003021100 METAR LMML NIL=
201003021045 METAR LMML 021045Z 30013KT 250V320 9999 FEW020 18/10 Q1023
                        NOSIG=
201003021030 METAR LMML NIL=
201003021015 METAR LMML 021015Z 29013KT 9999 FEW020 17/11 Q1023 NOSIG=
201003021000 METAR LMML NIL=
201003020945 METAR LMML 020945Z 30013KT 270V330 9999 FEW020 17/10 Q1023
                        NOSIG=
201003020930 METAR LMML NIL=
201003020915 METAR LMML 020915Z 31016KT 9999 FEW020 17/10 Q1023 NOSIG=
201003020900 METAR LMML NIL=
201003020845 METAR LMML 020845Z 31013KT 9999 FEW020 17/10 Q1022 NOSIG=
201003020830 METAR LMML NIL=
201003020815 METAR LMML 020815Z 31014KT 9999 FEW015 16/10 Q1022 NOSIG=
201003020800 METAR LMML NIL=
201003020745 METAR LMML 020745Z 31014KT 9999 FEW015 15/11 Q1022 NOSIG=
201003020730 METAR LMML NIL=
201003020715 METAR LMML 020715Z 31013KT 280V340 9999 FEW015 15/11 Q1022
                        NOSIG=
201003020700 METAR LMML NIL=
201003020645 METAR LMML 020645Z 29012KT 260V320 9999 FEW012 14/11 Q1022
                        NOSIG=
201003020630 METAR LMML NIL=
201003020615 METAR LMML 020615Z 31013KT 9999 FEW012 13/11 Q1021 NOSIG=
201003020600 METAR LMML NIL=
201003020545 METAR LMML 020545Z 31015KT CAVOK 13/11 Q1021 NOSIG=
201003020530 METAR LMML NIL=
201003020515 METAR LMML 020515Z 31012KT 9999 FEW012 13/11 Q1020 NOSIG=
201003020500 METAR LMML NIL=
201003020445 METAR LMML 020445Z 31012KT CAVOK 13/10 Q1020 NOSIG=
201003020430 METAR LMML NIL=
201003020415 METAR LMML 020415Z 30010KT CAVOK 13/10 Q1020 NOSIG=
201003020400 METAR LMML NIL=
201003020345 METAR LMML 020345Z 30010KT CAVOK 13/10 Q1020 NOSIG=
201003020330 METAR LMML NIL=
201003020315 METAR LMML 020315Z 30007KT 280V340 CAVOK 13/10 Q1020 NOSIG=
201003020300 METAR LMML NIL=
201003020245 METAR LMML 020245Z 30009KT 270V330 CAVOK 13/10 Q1020 NOSIG=
201003020230 METAR LMML NIL=
201003020215 METAR LMML 020215Z 29007KT 260V320 CAVOK 13/10 Q1020 NOSIG=
201003020200 METAR LMML NIL=
201003020145 METAR LMML 020145Z 31011KT 260V330 CAVOK 13/10 Q1020 NOSIG=
201003020130 METAR LMML NIL=
201003020115 METAR LMML 020115Z 32013KT CAVOK 14/10 Q1020 NOSIG=
201003020100 METAR LMML NIL=
201003020045 METAR LMML 020045Z 31012KT CAVOK 14/10 Q1020 NOSIG=
201003020030 METAR LMML NIL=
201003020015 METAR LMML 020015Z 32014KT CAVOK 14/10 Q1020 NOSIG=
201003020000 METAR LMML NIL=
201003012345 METAR LMML 012345Z 32012KT CAVOK 14/09 Q1020 NOSIG=
201003012330 METAR LMML NIL=
201003012315 METAR LMML 012315Z 33014KT CAVOK 15/07 Q1020 NOSIG=
201003012300 METAR LMML NIL=
201003012245 METAR LMML 012245Z 32012KT CAVOK 15/06 Q1019 NOSIG=
201003012230 METAR LMML NIL=
201003012215 METAR LMML 012215Z 32016KT CAVOK 16/07 Q1019 NOSIG=
201003012200 METAR LMML NIL=
201003012145 METAR LMML 012145Z 32016KT CAVOK 16/08 Q1019 NOSIG=
201003012130 METAR LMML NIL=
201003012115 METAR LMML 012115Z 32017KT CAVOK 16/09 Q1019 NOSIG=
201003012100 METAR LMML NIL=
201003012045 METAR LMML 012045Z 33021G31KT CAVOK 17/08 Q1018 NOSIG=
201003012030 METAR LMML NIL=
201003012015 METAR LMML 012015Z 32022G35KT 290V350 CAVOK 17/07 Q1018 NOSIG=
201003012000 METAR LMML NIL=
201003011945 METAR LMML 011945Z 32023KT 280V340 CAVOK 17/08 Q1018 NOSIG=
201003011930 METAR LMML NIL=
201003011915 METAR LMML 011915Z 32025KT CAVOK 17/09 Q1017 NOSIG=
201003011900 METAR LMML NIL=
201003011845 METAR LMML 011845Z 32026G39KT CAVOK 17/09 Q1016 NOSIG=
201003011830 METAR LMML NIL=
201003011815 METAR LMML 011815Z 32028G43KT CAVOK 18/08 Q1016 NOSIG=
201003011800 METAR LMML NIL=
201003011745 METAR LMML 011745Z 31021G32KT CAVOK 18/08 Q1015 NOSIG=
201003011730 METAR LMML NIL=
201003011715 METAR LMML 011715Z 31023G33KT CAVOK 18/08 Q1014 NOSIG=
201003011700 METAR LMML NIL=
201003011645 METAR LMML 011645Z 31021KT CAVOK 18/10 Q1014 NOSIG=
201003011630 METAR LMML NIL=
201003011615 METAR LMML 011615Z 31019KT CAVOK 18/10 Q1014 NOSIG=
201003011600 METAR LMML NIL=
201003011545 METAR LMML 011545Z 31019KT CAVOK 19/10 Q1014 NOSIG=
201003011515 METAR LMML 011515Z 32019KT CAVOK 19/11 Q1013 NOSIG=
201003011500 METAR LMML NIL=
201003011445 METAR LMML 011445Z 31019KT CAVOK 19/12 Q1013 NOSIG=
201003011430 METAR LMML NIL=
201003011415 METAR LMML 011415Z 32016KT CAVOK 21/11 Q1012 NOSIG=
201003011400 METAR LMML NIL=
201003011345 METAR LMML 011345Z 32011KT CAVOK 21/11 Q1012 NOSIG=
201003011315 METAR LMML 011315Z 32016KT CAVOK 19/11 Q1012 NOSIG=
201003011300 METAR LMML NIL=
201003011245 METAR LMML 011245Z 32015KT CAVOK 18/11 Q1012 NOSIG=
201003011230 METAR LMML NIL=
201003011215 METAR LMML 011215Z 32014KT CAVOK 20/14 Q1012 NOSIG=
201003011200 METAR LMML NIL=
201003011145 METAR LMML 011145Z 33010KT CAVOK 23/10 Q1011 NOSIG=
201003011130 METAR LMML NIL=
201003011115 METAR LMML 011115Z 35008KT 320V020 CAVOK 23/11 Q1011 NOSIG=
201003011045 METAR LMML 011045Z 34007KT 310V020 CAVOK 23/12 Q1011 NOSIG=
201003011030 METAR LMML NIL=
201003011015 METAR LMML 011015Z 32011KT CAVOK 22/13 Q1011 NOSIG=
201003010945 METAR LMML 010945Z 33008KT 300V360 CAVOK 21/14 Q1011 NOSIG=
201003010930 METAR LMML NIL=
201003010915 METAR LMML 010915Z 35006KT CAVOK 21/15 Q1011 NOSIG=
201003010900 METAR LMML NIL=
201003010845 METAR LMML 010845Z 32006KT 240V010 CAVOK 22/13 Q1011 NOSIG=
201003010830 METAR LMML NIL=
201003010815 METAR LMML 010815Z VRB02KT CAVOK 21/13 Q1010 NOSIG=
201003010800 METAR LMML NIL=
201003010745 METAR LMML 010745Z 22006KT CAVOK 20/12 Q1010 NOSIG=
201003010730 METAR LMML NIL=
201003010715 METAR LMML 010715Z VRB03KT CAVOK 19/12 Q1010 NOSIG=
201003010700 METAR LMML NIL=
201003010645 METAR LMML 010645Z 28005KT 200V340 CAVOK 19/12 Q1010 NOSIG=
201003010630 METAR LMML NIL=
201003010615 METAR LMML 010615Z 19007KT 160V220 CAVOK 18/12 Q1009 NOSIG=
201003010600 METAR LMML NIL=
201003010545 METAR LMML 010545Z 19009KT 160V230 CAVOK 19/12 Q1009 NOSIG=
201003010515 METAR LMML 010515Z 19008KT 170V230 CAVOK 20/09 Q1009 NOSIG=
201003010500 METAR LMML NIL=
201003010445 METAR LMML 010445Z 19009KT 160V240 CAVOK 21/09 Q1009 NOSIG=
201003010430 METAR LMML NIL=
201003010415 METAR LMML 010415Z 19009KT 170V230 CAVOK 19/10 Q1009 NOSIG=
201003010400 METAR LMML NIL=
201003010345 METAR LMML 010345Z 19009KT CAVOK 20/09 Q1009 NOSIG=
201003010330 METAR LMML NIL=
201003010315 METAR LMML 010315Z 19009KT 170V230 CAVOK 20/08 Q1010 NOSIG=
201003010300 METAR LMML NIL=
201003010245 METAR LMML 010245Z 19009KT 150V220 CAVOK 20/09 Q1010 NOSIG=
201003010230 METAR LMML NIL=
201003010215 METAR LMML 010215Z 20009KT 160V230 CAVOK 19/09 Q1010 NOSIG=
201003010200 METAR LMML NIL=
201003010145 METAR LMML 010145Z 20009KT 160V240 CAVOK 19/09 Q1010 NOSIG=
201003010130 METAR LMML NIL=
201003010115 METAR LMML 010115Z 20009KT 160V240 CAVOK 18/09 Q1011 NOSIG=
201003010100 METAR LMML NIL=
201003010045 METAR LMML 010045Z 20009KT 170V230 CAVOK 17/11 Q1011 NOSIG=
201003010030 METAR LMML NIL=
201003010015 METAR LMML 010015Z 20009KT 170V240 CAVOK 17/12 Q1011 NOSIG=
201003010000 METAR LMML NIL=

###################################
#  short TAF from LMML
###################################
201003312300 TAF LMML 312300Z 0100/0109 VRB03KT CAVOK=
201003312000 TAF LMML 312000Z 3121/0106 33008KT CAVOK
                      BECMG 0103/0106 06003KT=
201003311700 TAF LMML 311700Z 3118/0103 30010KT CAVOK
                      TEMPO 3118/0103 9999 FEW015
                      BECMG 0100/0103 02005KT=
201003311400 TAF LMML 311400Z 3115/3124 29017KT 9999 FEW020
                      BECMG 3118/3121 31007KT CAVOK=
201003311100 TAF LMML 311100Z 3112/3121 29017KT 9999 FEW020
                      BECMG 3118/3121 31007KT CAVOK=
201003310800 TAF LMML 310800Z 3109/3118 29017KT 9999 FEW020=
201003310500 TAF LMML 310500Z 3106/3115 30015KT CAVOK
                      TEMPO 3106/3115 9999 FEW020=
201003310200 TAF LMML 310200Z 3103/3112 30015KT CAVOK
                      TEMPO 3103/3112 9999 FEW020=
201003302300 TAF LMML 302300Z 3100/3109 30013KT CAVOK
                      PROB40 TEMPO 3100/3109 9999 FEW015=
201003302000 TAF LMML 302000Z 3021/3106 30015KT CAVOK
                      PROBE30 TEMPO 3021/3106 9999 FEW015=
201003301700 TAF LMML 301700Z 3018/3103 27012KT CAVOK=
201003301400 TAF LMML 301400Z 3015/3024 22015KT CAVOK
                      BECMG 3015/3018 29018KT
                      PROB30 TEMPO 3015/3020 FEW008=
201003301100 TAF LMML 301100Z 3012/3021 18015KT CAVOK
                      BECMG 3015/3018 29015KT 9999 FEW012=
201003300800 TAF LMML 300800Z 3009/3018 16012KT CAVOK
                      BECMG 3012/3015 27015KT 9999 FEW008
                      PROB30 TEMPO 3009/3018 FEW012=
201003300500 TAF LMML 300500Z 3006/3015 17014KT CAVOK=
201003300200 TAF LMML 300200Z 3003/3012 16013KT CAVOK
                      PROB30 TEMPO 3003/3012 9999 FEW012=
201003292300 TAF LMML 292300Z 3000/3009 15013KT CAVOK
                      PROB30 TEMPO 3000/3009 9999 FEW012=
201003292000 TAF LMML 292000Z 2921/3006 15010KT CAVOK
                      PROB30 TEMPO 3000/3006 9999 FEW012=
201003291700 TAF LMML 291700Z 2918/3003 16010KT CAVOK
                      PROB30 TEMPO 2918/3003 9999 FEW015=
201003291400 TAF LMML 291400Z 2915/2924 17009KT CAVOK
                      PROB30 TEMPO 2915/2924 9999 FEW015=
201003291100 TAF LMML 291100Z 2912/2921 22006KT CAVOK
                      PROB30 TEMPO 2912/2921 9999 FEEW020=
201003290800 TAF LMML 290800Z 2909/2918 27006KT 9999 FEW020
                      PROB30 TEMPO 2909/2918 CAVOK=
201003290500 TAF LMML 290500Z 2906/2915 27005KT 9999 FEW015 SCT250=
201003290200 TAF LMML 290200Z 2903/2912 26005KT 9999 FEW015=
201003282300 TAF LMML 282300Z 2900/2909 25006KT CAVOK
                      BECMG 2902/2905 9999 FEW013=
201003282000 TAF LMML 282000Z 2821/2906 28010KT 9999 FEW012=
201003281700 TAF LMML 281700Z 2818/2903 29010KT CAVOK
                      TEMPO 2818/2903 9999 FEW015=
201003281400 TAF LMML 281400Z 2815/2824 29016KT 9999 FEW018
                      TEMPO 2815/2824 CAVOK=
201003281100 TAF LMML 281100Z 2812/2821 29017KT CAVOK
                      TEMPO 2812/2821 9999 FEW018=
201003280800 TAF LMML 280800Z 2809/2818 29017KT 9999 FEW016
                      TEMPO 2809/2818 CAVOK=
201003280500 TAF LMML 280500Z 2806/2815 30015KT CAVOK 2806/2815 9999 FEW025=
201003280200 TAF LMML 280200Z 2803/2812 30010KT 9999 FEW020
                      TEMPO 2806/2812 30020KT=
201003272300 TAF LMML 272300Z 2800/2809 30010KT 9999 FEW018=
201003272000 TAF LMML 272000Z 2721/2806 31018KT CAVOK
                      TEMPO 2723/2806 9999 FEW020=
201003271700 TAF LMML 271700Z 2718/2803 30020KT CAVOK
                      BECMG 2721/2724 9999 FEW015=
201003271400 TAF LMML 271400Z 2715/2724 31020KT CAVOK
                      BECMG 2718/2721 9999 FEW015=
201003271100 TAF LMML 271100Z 2712/2721 32015G25KT 9999 FEW012=
201003270800 TAF LMML 270800Z 2709/2718 32010KT 9000 FEW008 SCT180
                      BECMG 2715/2718 31015G25KT 9999 SCT012=
201003270500 TAF LMML 270500Z 2706/2715 34006KT 9999 FEW010
                      TEMPO 2706/2709 8000 BKN008
                      BECMG 2709/2912 31016KT=
201003270200 TAF LMML 270200Z 2703/2712 35008KT 2000 BR BKN001
                      TEMPO 2703/2706 5000 BR BKN002
                      TEMPO 2703/2706 0700 BCFG
                      BECMG 2705/2708 9000 SCT008=
201003262300 TAF LMML 262300Z 2700/2709 01007KT 2000 BR BKN001
                      PROB40 TEMPO 2700/2709 5000 BR BKN002
                      PROB30 TEMPO 2700/2707 0700 BCFG
                      BECMG 2705/2708 9000 SCT008=
201003262000 TAF LMML 262000Z 2621/2706 01007KT 7000 BKN002
                      PROB40 TEMPO 2621/2706 4000 BR
                      PROB30 TEMPO 2621/2706 SCT002=
201003261700 TAF LMML 261700Z 2618/2703 08006KT 7000 BKN004
                      TEMPO 2618/2703 3000 BR BKN003=
201003261400 TAF LMML 261400Z 2615/2624 08008KT 8000 BKN005
                      TEMPO 2618/2624 3000 BR BKN003=
201003261100 TAF LMML 261100Z 2612/2621 10008KT 8000 BKN005
                      TEMPO 2618/2621 04004KT
                      TEMPO 2618/2621 3000 BR BKN002=
201003260800 TAF LMML 260800Z 2609/2618 07008KT 5000 BR BKN005
                      TEMPO 2609/2618 BKN003=
201003260500 TAF LMML 260500Z 2606/2615 11008KT 7000 SCT007
                      TEMPO 2606/2607 5000 BR BKN003
                      BECMG 2606/2609 9999
                      PROB30 TEMPO 2607/2615 9000 BKN010=
201003260200 TAF LMML 260200Z 2603/2612 13008KT 8000 SCT004
                      TEMPO 2603/2606 5000 BR BKN003
                      PROB30 TEMPO 2603/2606 0800 BCFG OVC001
                      BECMG 2605/2608 9999
                      TEMPO 2606/2612 BKN010=
201003252300 TAF LMML 252300Z 2600/2609 12008KT 7000 BKN005
                      TEMPO 2600/2606 3000 BR BKN002
                      PROB30 TEMPO 2600/2606 0800 BCFG OVC001
                      BECMG 2606/2609 9999 SCT012=
201003252000 TAF LMML 252000Z 2521/2606 12008KT 9000 BKN005
                      TEMPO 2521/2606 3000 BR BKN002
                      PROB30 TEMPO 2521/2606 9999 SCT010=
201003251700 TAF LMML 251700Z 2518/2603 13010KT 9000 BKN005
                      PROB30 TEMPO 2518/2603 BKN003
                      PROB30 TEMPO 2600/2603 SCT005=
201003251400 TAF LMML 251400Z 2515/2524 13013KT 9999 SCT006
                      TEMPO 2515/2524 BKN006
                      PROB40 TEMPO 2518/2524 7000 BKN005=
201003251100 TAF LMML 251100Z 2512/2521 14013KT 9999 FEW010
                      PROB30 TEMPO 2518/2521 9000 BKN007=
201003250800 TAF LMML 250800Z 2509/2518 14010KT 9999 SCT015
                      PROB30 TEMPO 2509/2512 9000 BKN012=
201003250500 TAF LMML 250500Z 2506/2515 13008KT 9999 SCT015
                      TEMPO 2506/2509 8000 BKN012=
201003250200 TAF LMML 250200Z 2503/2512 15008KT 9999 SCT008
                      TEMPO 2503/2506 BKN008=
201003242300 TAF LMML 242300Z 2500/2509 13008KT 9999 SCT008
                      PROB30 TEMPO 2500/2506 5000 BKN005=
201003242000 TAF LMML 242000Z 2421/2506 13006KT 9000 SCT009
                      PROB30 TEMPO 2421/2506 BKN005=
201003241700 TAF LMML 241700Z 2418/2503 14005KT 9999 SCT012
                      TEMPO 2418/2503 9000 BKN010
                      PROB30 TEMPO 2418/2503 5000 BR BKN005=
201003241400 TAF LMML 241400Z 2415/2424 14007KT 9999 FEW018
                      TEMPO 2415/2424 BKN015
                      PROB30 TEMPO 2418/2424 8000 BKN010=
201003241100 TAF LMML 241100Z 2412/2421 11007KT 9999 SCT018
                      TEMPO 2412/2421 9000 BKN015
                      PROB30 TEMPO 2418/2421 8000 BKN010=
201003240800 TAF LMML 240800Z 2409/2418 08007KT 9999 SCT018
                      PROB30 TEMPO 2409/2418 9000 BKN015=
201003240500 TAF LMML 240500Z 2406/2415 08004KT 9000 BKN012
                      TEMPO 2409/2418 15005KT 9999 BKN015=
201003240200 TAF LMML 240200Z 2403/2412 VRB03KT 9000 SCT012
                      TEMPO 2403/2407 BKN012
                      BECMG 2407/2410 9999 BKN015=
201003232300 TAF LMML 232300Z 2400/2409 VRB03KT 9999 SCT009
                      TEMPO 2400/2406 8000 BKN004
                      PROB30TEMPO 2400/2406 0800 BCFG BKN002=
201003232000 TAF LMML 232000Z 2321/2406 VRB03KT 9999 SCT007
                      TEMPO 2321/2406 8000 BKN004
                      PROB30 TEMPO 2400/2406 0800 BCFG BKN002=
201003231700 TAF LMML 231700Z 2318/2403 06004KT 9999 SCT007
                      TEMPO 2318/2403 8000 BKN005
                      PROB30 TEMPO 2322/2403 4000 BR BKN003=
201003231400 TAF LMML 231400Z 2315/2324 08005KT 9999 FEW007
                      PROB30 TEMPO 2318/2324 8000 BKN004=
201003231100 TAF LMML 231100Z 2312/2321 08006KT 9999 SCT007
                      PROB30 TEMPO 2318/2321 8000 BKN005=
201003230800 TAF LMML 230800Z 2309/2318 08007KT 9999 SCT006
                      TEMPO 2309/2318 6000 BKN004=
201003230500 TAF LMML 230500Z 2306/2315 09007KT 9999 FEW010=
201003230200 TAF LMML 230200Z 2303/2312 10006KT 9999 SCT010
                      TEMPO 2303/2306 7000 BKN003
                      PROB40 2303/2306 5000 BR BKN002
                      PROB30 TEMPO 2303/2306 1500 BCFG BKN001=
201003222300 TAF LMML 222300Z 2300/2309 13006KT 9000 BKN003
                      PROB40 TEMPO 2300/2306 5000 BR BKN002
                      PROB30 TEMPO 2300/2306 1500 BCFG BKN001
                      BECMG 2305/2308 9999 SCT008=
201003222000 TAF LMML 222000Z 2221/2306 14007KT 9999 SCT003
                      TEMPO 2221/2306 8000 BKN003=
201003221700 TAF LMML 221700Z 2218/2303 12005KT 9999 SCT008
                      PROB40 TEMPO 2218/2303 5000 BKN005=
201003221400 TAF LMML 221400Z 2215/2224 12005KT 9999 FEW008
                      PROB40 TEMPO 2215/2224 BKN005=
201003221100 TAF LMML 221100Z 2212/2221 14010KT 9999 FEW010
                      PROB30 TEMPO 2218/2221 BKN005=
201003220800 TAF LMML 220800Z 2209/2218 14010KT 9999 FEW012
                      TEMPO 2215/2218 BKN008=
201003220500 TAF LMML 220500Z 2206/2215 15008KT 9999 SCT012
                      PROB30 TEMPO 2206/2208 9000 BKN008=
201003220200 TAF LMML 220200Z 2203/2212 16007KT 9999 SCT005
                      TEMPO 2203/2206 8000 BKN004
                      PROB30 TEMPO 2203/2206 5000 BR BKN003=
201003212300 TAF LMML 212300Z 2200/2209 16007KT 9999 SCT005
                      TEMPO 2200/2206 5000 BR BKN004
                      PROB30 TEMPO 2200/2206 0300 FG BKN001=
201003212000 TAF LMML 212000Z 2121/2206 15005KT 9999 FEW009
                      TEMPO 2121/2206 8000
                      PROB30 TEMPO 2121/2206 5000 BR BKN005=
201003211700 TAF LMML 211700Z 2118/2203 17005KT 9999 FEW009
                      PROB40 TEMPO 2118/2203 9000 BKN007
                      PROB30 TEMPO 2200/2203 5000 BR BKN005=
201003211400 TAF LMML 211400Z 2115/2124 16006KT 9999 SCT010
                      PROB40 TEMPO 2115/2124 CAVOK
                      PROB30 TEMPO 2115/2124 BKN005=
201003211100 TAF LMML 211100Z 2112/2121 17006KT CAVOK
                      TEMPO 2112/2121 9999 FEW010=
201003210800 TAF LMML 210800Z 2109/2118 16008KT CAVOK
                      TEMPO 2109/2118 9999 FEW006=
201003210500 TAF LMML 210500Z 2106/2115 16008KT 9000 FEW008
                      BECMG 2106/2108 CAVOK=
201003210200 TAF LMML 210200Z 2103/2112 16007KT 9999 FEW004=
201003202300 TAF LMML 202300Z 2100/2109 15004KT CAVOK
                      TEMPO 2100/2106 8000 SCT004 SCT250=
201003202000 TAF LMML 202000Z 2021/2106 15004KT CAVOK
                      PROB30 TEMPO 2021/2106 8000 FEW004=
201003201700 TAF LMML 201700Z 2018/2103 16006KT CAVOK
                      TEMPO 2018/2103 9999 FEW012
                      PROB30 TEMPO 2021/2103 9000 FEW010=
201003201400 TAF LMML 201400Z 2015/2024 15007KT CAVOK
                      PROB30 TEMPO 2018/2024 9000 FEW015=
201003201100 TAF LMML 201100Z 2012/2021 16008KT CAVOK
                      PROB30 TEMPO 2012/2021 9999 FEW020=
201003200800 TAF LMML 200800Z 2009/2018 16008KT CAVOK
                      PROB30 TEMPO 2009/2018 9999 FEW020=
201003200500 TAF LMML 200500Z 2006/2015 18006KT CAVOK=
201003200200 TAF LMML 200200Z 2003/2012 17004KT CAVOK
                      PROB40 TEMPO 2003/2006 9000 FEW015=
201003192300 TAF LMML 192300Z 2000/2009 17004KT CAVOK
                      PROB40 TEMPO 2000/2006 9000 FEW015=
201003192000 TAF LMML 192000Z 1921/2006 17004KT CAVOK
                      PROB40 TEMPO 2000/2006 9000 FEW015=
201003191700 TAF LMML 191700Z 1918/2003 19005KT CAVOK
                      TEMPO 1918/2003 9000 FEW005=
201003191400 TAF LMML 191400Z 1915/1924 19008KT 9999 SCT025=
201003191100 TAF LMML 191100Z 1912/1921 20008KT 9999 FEW025=
201003190800 TAF LMML 190800Z 1909/1918 22008KT 9999 FEW025=
201003190500 TAF LMML 190500Z 1906/1915 25006KT 9999 SCT020
                      TEMPO 1906/1915 CAVOK=
201003190200 TAF LMML 190200Z 1903/1912 25007KT 9999 SCT020
                      TEMPO 1903/1906 CAVOK=
201003182300 TAF LMML 182300Z 1900/1909 24006KT CAVOK
                      TEMPO 1900/1909 9999 SCT020=
201003182000 TAF LMML 182000Z 1821/1906 24006KT CAVOK
                      TEMPO 1903/1906 9999 SCT020=
201003181700 TAF LMML 181700Z 1818/1903 20006KT CAVOK=
201003181400 TAF LMML 181400Z 1815/1824 23008KT 9999 FEW030
                      TEMPO 1815/1824 CAVOK=
201003181100 TAF LMML 181100Z 1812/1821 23008KT CAVOK
                      PROB30 TEMPO 1812/1818 FEW030=
201003180800 TAF LMML 180800Z 1809/1818 23008KT CAVOK
                      TEMPO 1810/1815 FEW030=
201003180500 TAF LMML 180500Z 1806/1815 25007KT CAVOK
                      TEMPO 1806/1815 9999 FEW025
                      PROB30 TEMPO 1806/1807 9000 FEW012=
201003180200 TAF LMML 180200Z 1803/1812 25005KT CAVOK
                      TEMPO 1803/1806 9000 NSC
                      PROB30 TEMPO 1803/1806 4000 MIFG SCT003
                      TEMPO 1806/1812 9999 FEW025=
201003172300 TAF LMML 172300Z 1800/1809 27004KT CAVOK
                      TEMPO 1800/1806 9000 NSC
                      PROB30 TEMPO 1800/1806 5000 BR SCT003
                      TEMPO 1806/1809 9999 FEW020=
201003172000 TAF LMML 172000Z 1721/1806 VRB03KT CAVOK
                      TEMPO 1721/1806 9000 NSC
                      PROB30 TEMPO 1800/1806 5000 BR SCT003=
201003171700 TAF LMML 171700Z 1718/1803 VRB03KT CAVOK
                      TEMPO 1718/1721 9999 FEW030
                      PROB40 TEMPO 1721/1803 9000 NSC
                      PROB30 TEMPO 1721/1803 1000 BCFG SCT001=
201003171400 TAF LMML 171400Z 1715/1724 VRB05KT 9999 FEW025
                      TEMPO 1715/1724 CAVOK=
201003171100 TAF LMML 171100Z 1712/1721 07005KT 9999 FEW025
                      TEMPO 1712/1721 CAVOK=
201003170800 TAF LMML 170800Z 1709/1718 02010KT 9999 FEW025
                      TEMPO 1709/1718 CAVOK
                      BECMG 1713/1716 08005KT=
201003170500 TAF LMML 170500Z 1706/1715 32008KT 9999 SCT025=
201003170200 TAF LMML 170200Z 1703/1712 33008KT 9999 SCT025
                      PROB30 TEMPO 1703/1706 8000 SHRA=
201003162300 TAF LMML 162300Z 1700/1709 30010KT 9999 SCT025
                      PROB30 TEMPO 1700/1706 8000 SHRA=
201003162000 TAF LMML 162000Z 1621/1706 29010KT 9999 SCT025
                      PROB30 TEMPO 1621/1706 8000 SHRA=
201003161700 TAF LMML 161700Z 1618/1703 31013KT 9999 SCT025
                      PROB40 TEMPO 1618/1703 8000 SHRA
                      PROB30 TEMPO 1618/1624 5000 TSRA BKN018CB=
201003161548 LMML 161548Z 1615/1624 28013KT 9999 SCT025
                      PROB40 TEMPO 1615/1624 8000 SHRA
                      PROB30 TEMPO 1615/1524 5000 TSRA BKN018CB=
201003161542 TAF LMML 161542Z 1615/1624 28013KT 9999 SCT025
                      PROB40 TEMPO 1615/1624 8000 SHRA
                      PROB30 TEMPO 5000 TSRA BKN018CB=
201003161400 TAF LMML NIL=
201003161100 TAF LMML 161100Z 1612/1621 28013KT 9999 SCT030
                      PROB30 TEMPO 1612/1621 8000 SHRA=
201003160800 TAF LMML 160800Z 1609/1618 29012KT 9999 FEW030
                      PROB30 TEMPO 1609/1618 8000 SHRA=
201003160500 TAF LMML 160500Z 1606/1615 28005KT 9999 SCT025 SCT060
                      BECMG 1606/1609 28015KT
                      TEMPO 1606/1615 8000 SHRA BKN015 BKN050=
201003160200 TAF LMML 160200Z 1603/1612 30005KT 9999 FEW025
                      TEMPO 1603/1612 30015KT
                      PROB30 TEMPO 1603/1612 SHRA BKN018=
201003152300 TAF LMML 152300Z 1600/1609 28008KT 9999 FEW025
                      PROB30 TEMPO 1603/1609 SHRA BKN018=
201003152000 TAF LMML 152000Z 1521/1606 28008KT 9999 FEW030
                      PROB30 TEMPO 1603/1606 SHRA BKN020=
201003151700 TAF LMML 151700Z 1518/1603 32008KT 9999 FEW035=
201003151400 TAF LMML 151400Z 1515/1524 32010KT 9999 FEW035=
201003151100 TAF LMML 151100Z 1512/1521 32010KT 9999 SCT030=
201003150800 TAF LMML 150800Z 1509/1518 31010KT 9999 SCT030=
201003150500 TAF LMML 150500Z 1506/1515 33008KT 9999 FEW025
                      PROB30 TEMPO 1506/1515 CAVOK=
201003150200 TAF LMML 150200Z 1503/1512 34008KT 9999 FEW025
                      TEMPO 1503/1512 CAVOK
                      PROB30 TEMPO 1500/1509 9000 RA=
201003142300 TAF LMML 142300Z 1500/1509 35007KT 9999 FEW030
                      TEMPO 1500/1509 CAVOK
                      PROB30 TEMPO 1500/1509 9000 RA=
201003142000 TAF LMML 142000Z 1421/1506 35007KT 9999 FEW030
                      TEMPO 1421/1506 9000 SHRA=
201003141700 TAF LMML 141700Z 1418/1503 03005KT 9999 FEW030 FEW100
                      TEMPO 1418/1503 SHRA BKN020
                      BECMG 1421/1424 33003KT=
201003141400 TAF LMML 141400Z 1415/1424 03010KT 9999 FEW020 SCT050
                      BECMG 1418/1421 33003KT=
201003141100 TAF LMML 141100Z 1412/1421 03012KT 9999 FEW022 SCT030
                      PROB30 SHRA
                      BECMG 1418/1421 33005KT=
201003140800 TAF LMML 140800Z 1409/1418 03012KT 9999 FEW020 SCT030
                      PROB40 TEMPO 1409/1418 SHRA=
201003140500 TAF LMML 140500Z 1406/1415 03015KT 9999 SCT020
                      PROB30 TEMPO 1406/1415 8000 SHRA BKN018=
201003140200 TAF LMML 140200Z 1403/1412 03015KT 9999 SCT008 SCT013
                      TEMPO 1403/1409 8000 BKN008 BKN013
                      PROB30 TEMPO 1403/1409 5000 TSRA BKN015CB=
201003132300 TAF LMML 132300Z 1400/1409 03015KT 8000 BKN008 BKN013
                      TEMPO 1404/1409 9999 SCT008 SCT015
                      PROB30 TEMPO 1400/1409 5000 TSRA BKN015CB=
201003132000 TAF LMML 132000Z 1321/1406 03015KT 9999 SCT007 SCT013
                      TEMPO 1321/1406 8000 SHRA BKN005 BKN013=
201003131700 TAF LMML 131700Z 1318/1403 05016KT 9999 BKN010 OVC015
                      TEMPO 1318/1403 8000 SHRA BKN008 BKN012TCU
                       PROB30
                      TEMPO 1318/1403 5000 TSRA BKN005 BKN014CB=
201003131400 TAF LMML 131400Z 1315/1324 08008KT 9999 SCT009 BKN012
                      BECMG 1315/1318 05018KT
                      TEMPO 1315/1324 8000 SHRA BKN007 BKN010TCU
                       PROB30
                      TEMPO 1317/1324 5000 TSRA BKN004 BKN011CB=
201003131100 TAF LMML 131100Z 1312/1321 09005KT 9999 SCT008 SCT013
                      TEMPO 1312/1321 8000 RA BKN006 BKN010
                      BECMG 1315/1318 05018KT
                      PROB30 TEMPO 1316/1321 5000 TSRA BKN004 BKN009CB=
201003130800 TAF LMML 130800Z 1309/1318 05008KT 9999 SCT010 BKN070
                      TEMPO 1309/1318 7000 RA BKN007
                      BECMG 1313/1316 05018KT=
201003130500 TAF LMML 130500Z 1306/1315 04005KT 9999 SCT012 BKN080
                      TEMPO 1306/1315 7000 RA BKN007
                      BECMG 1312/1315 02018KT=
201003130200 TAF LMML 130200Z 1303/1312 10004KT 9999 SCT010 BKN080
                      TEMPO 1303/1312 7000 RA BKN005
                      PROB30 TEMPO 1303/1312 5000 TSRA BKN015CB=
201003122300 TAF LMML 122300Z 1300/1309 06010KT 9999 SCT010 BKN080
                      TEMPO 1300/1309 6000 RA BKN005
                      PROB30 TEMPO 1300/1309 5000 TSRA BKN060CB=
201003122000 TAF LMML 122000Z 1221/1306 06010KT 9999 SCT010 BKN080
                      TEMPO 1221/1306 6000 RA BKN005
                      PROB30 TEMPO 1221/1306 5000 TSRA BKN060CB=
201003121700 TAF LMML 121700Z 1218/1303 14007KT 9999 SCT015 SCT030 BKN100
                      TEMPO 1218/1303 8000 RA BKN010 BKN025 BKN080
                       BECMG 1220/1223 07012KT
                      PROB30 TEMPO 1221/1303 3000 TSRA BKN005 BKN013CB
                       BKN060=
201003121400 TAF LMML 121400Z 1215/1224 16010KT 9999 SCT015 SCT080
                      TEMPO 1215/1224 8000 RA BKN015 BKN060
                      BECMG 1215/1218 10008KT
                      PROB30 TEMPO 1216/1224 BKN010 BKN050=
201003121100 TAF LMML 121100Z 1212/1221 19010KT 9999 SCT018 BKN080
                      TEMPO 1212/1221 8000 RA BKN015 BKN070
                      PROB30 TEMPO 1215/1221 BKN010 BKN060
                      BECMG 1215/1218 10007KT=
201003120800 TAF LMML 120800Z 1209/1218 12007KT 9999 SCT015 SCT050 BKN100
                      TEMPO 1209/1218 8000 RA BKN010 BKN040 BKN080
                       PROB30
                      TEMPO 1209/1215 5000 RA BKN005 BKN030 BKN070=
201003120500 TAF LMML 120500Z 1206/1215 14006KT 9999 SCT025
                      TEMPO 1210/1215 8000 RA BKN030 BKN070=
201003120200 TAF LMML 120200Z 1203/1212 11006KT 9999 FEW020=
201003112300 TAF LMML 112300Z 1200/1209 11006KT 9999 FEW025
                      TEMPO 1200/1203 CAVOK=
201003112000 TAF LMML 112000Z 1121/1206 VRB05KT 9999 FEW025
                      TEMPO 1121/1202 CAVOK=
201003111700 TAF LMML 111700Z 1118/1203 30004KT 9999 FEW025=
201003111400 TAF LMML 111400Z 1115/1124 31010KT 9999 SCT025=
201003111100 TAF LMML 111100Z 1112/1121 28010KT 9999 SCT022=
201003110800 TAF LMML 110800Z 1109/1118 28015KT 9999 SCT025
                      PROB30 TEMPO 1109/1115 8000 SHRA=
201003110500 TAF LMML 110500Z 1106/1115 26012KT 9999 SCT025=
201003110200 TAF LMML 110200Z 1103/1112 VRB05KT 9999 SCT025
                      TEMPO 1103/1106 CAVOK
                      BECMG 1105/1108 27011KT=
201003102300 TAF LMML 102300Z 1100/1109 VRB05KT 9999 FEW025
                      TEMPO 1100/1105 CAVOK
                      BECMG 1105/1108 27011KT=
201003102000 TAF LMML 102000Z 1021/1106 27008KT 9999 FEW030
                      TEMPO 1021/1105 CAVOK=
201003101700 TAF LMML 101700Z 1018/1103 30015KT 9999 FEW030
                      PROB30 TEMPO 1020/1103 CAVOK=
201003101400 TAF LMML 101400Z 1015/1024 29018KT 9999 FEW030
                      PROB30 TEMPO 1015/1018 29018G28KT
                      TEMPO 1018/1024 CAVOK
                      BECMG 1020/1023 27008KT=
201003101100 TAF LMML 101100Z 1012/1021 30017KT 9999 FEW025=
201003100800 TAF LMML 100800Z 1009/1018 31017KT 9999 SCT020=
201003100500 TAF LMML 100500Z 1006/1015 31015KT 9999 FEW030
                      PROB40 TEMPO 1010/1015 31025KT=
201003100200 TAF LMML 100200Z 1003/1012 29010KT 9999 FEW030
                      TEMPO 1009/1012 30020KT=
201003092300 TAF LMML 092300Z 1000/1009 14008KT 9999 FEW030 SCT080
                      BECMG 1003/1006 28012KT
                      TEMPO 1000/1006 SHRA BKN025=
201003092000 TAF LMML 092000Z 0921/1006 20015KT 8000 RA FEW012 SCT035 BKN070
                       BECMG 0922/1001 30018KT
                      TEMPO 1000/1005 5000 SHRA BKN018=
201003091700 TAF LMML 091700Z 0918/1003 18015KT 9999 FEW012 OVC070
                      TEMPO 0918/0921 CAVOK
                      TEMPO 0918/1003 8000 SHRA BKN008
                      PROB30 TEMPO 0919/1003 5000 TSRA BKN005 BKN050CB
                       BECMG 1000/1003 31015KT=
201003091401 TAF COR LMML 091401Z 0915/0924 18012KT 9999 FEW015 OVC070
                      TEMPO 0915/0919 8000 RA BKN008
                      TEMPO 0918/0924 7000 SHRA BKN005
                      PROB30 TEMPO 0919/0924 4000 TSRA BKN003 BKN050CB=
201003091400 TAF LMML 091400Z 0915/0924 18012KT 9999 FEW015 BKN080
                      TEMPO 0915/0919 8000 RA BKN008
                      TEMPO 0918/0924 SHRA BKN005
                      PROB30 TEMPO 0919/0924 4000 RA BKN070CB=
201003091100 TAF LMML 091100Z 0912/0921 18014KT 9999 FEW012 BKN070
                      TEMPO 0912/0919 8000 RA BKN008
                      TEMPO 0918/0921 5000 SHRA BKN005=
201003090800 TAF LMML 090800Z 0909/0918 18017KT 9999 FEW013
                      TEMPO 0909/0918 7000 RA BKN011=
201003090500 TAF LMML 090500Z 0906/0915 16016KT 9999 SCT013 BKN100
                      TEMPO 0906/0915 8000 RA BKN011=
201003090200 TAF LMML 090200Z 0903/0912 18008KT 9999 SCT012
                      BECMG 0903/0906 16018KT
                      TEMPO 0903/0912 8000 RA BKN007=
201003082300 TAF LMML 082300Z 0900/0909 20005KT 9999 SCT015
                      BECMG 0902/0905 17015KT 8000 BKN007
                      PROB30 TEMPO 0900/0904 5000 BR BKN004=
201003082000 TAF LMML 082000Z 0821/0906 26005KT 9999 SCT015 SCT100
                      PROB30 TEMPO 0821/0906 8000 RA BKN007 BKN012
                       BECMG 0901/0904 17015KT=
201003081700 TAF LMML 081700Z 0818/0903 23008KT 8000 SCT008 SCT015
                      TEMPO 0818/0903 5000 RA BKN005 BKN013
                      PROB30 TEMPO 0818/0903 2000 BKN002 BKN010
                       TEMPO 0818/0903 9999=
201003081400 TAF LMML 081400Z 0815/0824 VRB04KT 8000 SCT008 SCT015
                      TEMPO 0815/0818 5000 BR BKN005 BKN013
                      PROB30 TEMPO 0815/0818 2000 RA BKN002 BKN010
                       BECMG 0815/0818 24010KT 9999
                      PROB30 TEMPO 0818/0824 8000 SHRA BKN015=
201003081250 TAF COR LMML 081250Z 0812/0821 26005KT 9999 SCT013 SCT020
                      TEMPO 0812/0821 8000 RA BKN010 BKN015
                      PROB30 TEMPO 0812/0816 1500 RA BKN003 BKN010=
201003081245 TAF COR LMML 081245Z 0812/0821 26005KT 9999 SCT013 SCT020
                      TEMPO 0812/0821 8000 RA BKN010 BKN015
                      PROB30 TEMPO 0812/0816 1500 RA BKN003 BKN010
                       BECMG 0815/0818 24010KT=
201003081100 TAF LMML 081100Z 0812/0821 02008KT 9999 SCT013 SCT020
                      PROB30 TEMPO 0812/0821 8000 SHRA BKN010 BKN015
                       BECMG 0815/0818 24010KT=
201003080800 TAF LMML 080800Z 0809/0818 02018KT 8000 BKN015 BKN050
                      TEMPO 0809/0812 01018G28KT 5000 RA BKN010
                       BKN040
                      BECMG 0809/0812 9999 SCT015 SCT050
                      PROB30 TEMPO 0812/0818 8000 SHRA BKN015 BKN040
                       BECMG 0814/0817 25008KT=
201003080500 TAF LMML 080500Z 0806/0815 36018KT 9000 RA SCT008 SCT015 BKN030
                       BECMG 0812/0815 24005KT=
201003080200 TAF LMML 080200Z 0803/0812 03017KT 9999 SCT006 SCT015
                      TEMPO 0803/0809 7000 SHRA BKN005 BKN015
                      PROB30 TEMPO 0800/0806 03017G27KT 5000 TSRA
                       BKN015CB=
201003072300 TAF LMML 072300Z 0800/0809 03018G28KT 9999 BKN006 BKN020
                      TEMPO 0800/0809 6000 SHRA BKN004
                      PROB40 TEMPO 0800/0806 3000 TSRA BKN015CB=
201003072000 TAF LMML 072000Z 0721/0806 04020G30KT 9999 BKN006 BKN020
                      TEMPO 0721/0806 6000 RA BKN004
                      PROB30 TEMPO 0721/0806 4000 TSRA BKN015CB=
201003071700 TAF LMML 071700Z 0718/0803 05025G35KT 7000 BKN004 BKN011 OVC100
                       TEMPO 0718/0803 4000 RA
                      TEMPO 0718/0803 3000 TSRA BKN015CB=
201003071400 TAF LMML 071400Z 0715/0724 05015G25KT 9000 SCT006 BKN011 OVC100
                       TEMPO 0715/0724 5000 RA BKN004
                      BECMG 0715/0718 04025G35KT
                      PROB30 TEMPO 0718/0724 3000 TSRA BKN020CB=
201003071100 TAF LMML 071100Z 0712/0721 06015G25KT 9000 SCT007 BKN012 OVC120
                       TEMPO 0712/0721 6000 RA BKN005
                      BECMG 0714/0717 04025G35KT=
201003070800 TAF LMML 070800Z 0709/0718 05015G25KT 8000 SCT007 BKN012 OVC120
                       TEMPO 0709/0718 5000 RA BKN005
                      BECMG 0712/0715 04025G35KT=
201003070500 TAF LMML 070500Z 0706/0715 09018KT 9999 BKN006 OVC013
                      TEMPO 0706/0715 7000 RA BKN004
                      PROB30 TEMPO 0706/0710 4000 TSRA BKN080CB
                       BECMG 0711/0714 08022G32KT=
201003070200 TAF LMML 070200Z 0703/0712 09018KT 9999 BKN010
                      TEMPO 0703/0712 8000 RA BKN006
                      PROB30 TEMPO 0703/0712 09018G28KT 4000 TSRA
                       BKN004 BKN080CB=
201003062300 TAF LMML 062300Z 0700/0709 09018KT 9999 SCT011
                      TEMPO 0700/0709 8000 RA BKN007
                      PROB30 TEMPO 0703/0709 09018G28KT 4000 TSRA
                       BKN005 BKN080CB=
201003062000 TAF LMML 062000Z 0621/0706 09015KT 9999 SCT011
                      TEMPO 0621/0706 BKN007
                      TEMPO 0700/0706 9000 RA
                      PROB30 TEMPO 0703/0706 5000 TSRA BKN005 BKN080CB=
201003061700 TAF LMML 061700Z 0618/0703 06015KT 9999 FEW015 SCT100
                      PROB30 TEMPO 0620/0703 06025KT=
201003061400 TAF LMML 061400Z 0615/0624 06015KT 9999 SCT025 SCT100
                      TEMPO 0618/0624 06025KT=
201003061100 TAF LMML 061100Z 0612/0621 34008KT 9999 SCT025 SCT100
                      BECMG 0615/0518 06020KT=
201003060800 TAF LMML 060800Z 0609/0618 33008KT 9999 SCT020 SCT120
                      BECMG 0613/0616 06015KT=
201003060500 TAF LMML 060500Z 0606/0615 28005KT CAVOK
                      BECMG 0606/0609 9999 SCT020 SCT100
                      BECMG 0610/0613 03010KT=
201003060200 TAF LMML 060200Z 0603/0612 26005KT CAVOK
                      TEMPO 0603/0612 9999 FEW020 SCT090
                      PROB30 TEMPO 0603/0606 9000 NSC
                      BECMG 0609/0612 02010KT=
201003052300 TAF LMML 052300Z 0600/0609 26007KT CAVOK
                      TEMPO 0600/0609 9999 FEW020
                      PROB30 TEMPO 0600/0606 9000 NSC=
201003052000 TAF LMML 052000Z 0521/0606 26007KT 9999 FEW020
                      TEMPO 0521/0606 CAVOK
                      PROB30 TEMPO 0600/0606 9000 NSC=
201003051700 TAF LMML 051700Z 0518/0603 29008KT 9999 SCT020=
201003051400 TAF LMML 051400Z 0515/0524 28010KT 9999 SCT025=
201003051100 TAF LMML 051100Z 0512/0521 28012KT 9999 FEW025=
201003050800 TAF LMML 050800Z 0509/0518 29015KT 9999 SCT025=
201003050500 TAF LMML 050500Z 0506/0515 29016KT 9999 SCT025=
201003050200 TAF LMML 050200Z 0503/0512 28012KT 9999 FEW015
                      TEMPO 0503/0506 BKN012=
201003042300 TAF LMML 042300Z 0500/0509 28010KT 9999 FEW012
                      TEMPO 0500/0506 8000 BKN011=
201003042000 TAF LMML 042000Z 0421/0506 27014KT 9999 FEW018
                      TEMPO 0421/0506 9999 BKN015=
201003041700 TAF LMML 041700Z 0418/0503 26017KT 9999 SCT020
                      PROB30 TEMPO 0418/0503 27018G28KT=
201003041400 TAF LMML 041400Z 0415/0424 26018KT CAVOK
                      TEMPO 0415/0418 9999 FEW020
                      TEMPO 0415/0424 27022G32KT
                      BECMG 0416/0419 9999 SCT020=
201003041100 TAF LMML 041100Z 0412/0421 28018KT CAVOK
                      TEMPO 0412/0415 9999 FEW020
                      TEMPO 0412/0421 27022G32KT
                      BECMG 0415/0418 9999 SCT020=
201003040800 TAF LMML 040800Z 0409/0418 29015KT CAVOK
                      TEMPO 0409/0412 9999 FEW020
                      PROB30 TEMPO 0409/0418 27015G25KT
                      BECMG 0412/0415 9999 SCT020=
201003040500 TAF LMML 040500Z 0406/0415 31015KT 9999 SCT018=
201003040200 TAF LMML 040200Z 0403/0412 30015KT 9000 NSC
                      PROB30 TEMPO 0403/0407 SCT008 SCT015
                      BECMG 0407/0410 9999 SCT018=
201003032300 TAF LMML 032300Z 0400/0409 28015KT 9000 NSC
                      PROB30 TEMPO 0400/0406 5000 SCT005
                      BECMG 0406/0409 9999 SCT015=
201003032000 TAF LMML 032000Z 0321/0406 16015KT 9000 NSC
                      BECMG 0403/0406 30015KT
                      PROB30 TEMPO 0400/0406 5000 BKN005=
201003031700 TAF LMML 031700Z 0318/0403 14015KT 9999 FEW008 BKN180
                      TEMPO 0318/0403 6000 BKN005
                      BECMG 0400/0403 30015KT=
201003031400 TAF LMML 031400Z 0315/0324 15020G30KT 9999 FEW006 BKN180
                      TEMPO 0315/0324 6000 BKN006
                      BECMG 0318/0321 16015KT=
201003031100 TAF LMML 031100Z 0312/0321 12017KT 9999 FEW012 BKN150
                      PROB30 O318/0321 8000 BKN010=
201003030800 TAF LMML 030800Z 0309/0318 12015KT 9999 FEW008 BKN200
                      TEMPO 0312/0318 12015G25KT=
201003030500 TAF LMML 030500Z 0306/0315 12014KT 9999 FEW012
                      PROB30 TEMPO 0306/0310 BKN009
                      BECMG 0311/0314 14018G28KT=
201003030200 TAF LMML 030200Z 0303/0312 09005KT CAVOK
                      TEMPO 0303/0312 9999 FEW012
                      PROB30 TEMPO 0303/0309 BKN008
                      BECMG 0304/0307 12014KT=
201003022300 TAF LMML 022300Z 0300/0309 VRB03KT CAVOK
                      TEMPO 0300/0309 9999 FEW012
                      PROB30 TEMPO 0300/0303 9000 MIFG BKN005
                      BECMG 0303/0306 09012KT
                      PROB30 TEMPO 0303/0309 BKN008=
201003022000 TAF LMML 022000Z 0221/0306 VRB04KT CAVOK
                      PROB40 TEMPO 0221/0306 9000 SCT005
                      PROB30 TEMPO 0222/0303 9000 MIFG BKN005
                      BECMG 0302/0305 09010KT=
201003021700 TAF LMML 021700Z 0218/0303 28008KT 9999 FEW015
                      BECMG 0220/0223 VRB03KT
                      PROB30 TEMPO 0221/0303 SCT005=
201003021400 TAF LMML 021400Z 0215/0224 28010KT 9999 FEW020
                      TEMPO 0218/0224 CAVOK=
201003021100 TAF LMML 021100Z 0212/0221 30008KT 9999 FEW020
                      TEMPO 0212/0221 29018KT CAVOK=
201003020800 TAF LMML 020800Z 0209/0218 30008KT 9999 FEW018
                      TEMPO 0209/0215 29018KT=
201003020500 TAF LMML 020500Z 0206/0215 30015KT CAVOK
                      TEMPO 0206/0215 9999 FEW025
                      PROB30 TEMPO 0206/0210 28015G25KT=
201003020200 TAF LMML 020200Z 0203/0212 30015KT CAVOK
                      TEMPO 0203/0212 9999 FEW020
                      PROB30 TEMPO 0203/0206 28015G25KT 9000 SCT010=
201003012300 TAF LMML 012300Z 0200/0209 31018KT CAVOK
                      TEMPO 0200/0209 9999 FEW015
                      PROB30 TEMPO 0200/0206 28018G28KT 9000 SCT010=
201003012000 TAF LMML 012000Z 0121/0206 32025G35KT CAVOK
                      BECMG 0121/0124 31020KT
                      TEMPO 0200/0206 9999 FEW015
                      PROB30 TEMPO 0200/0206 30015G25KT 9000 SCT012=
201003011700 TAF LMML 011700Z 0118/0203 31023G33KT CAVOK
                      PROB40 TEMPO 0121/0203 7000 BKN003
                      BECMG 0123/0202 32018KT=
201003011400 TAF LMML 011400Z 0115/0124 31018KT CAVOK
                      BECMG 0116/0119 30018G28KT
                      PROB30 TEMPO 0121/0124 8000 BKN005=
201003011100 TAF LMML 011100Z 0112/0121 31013KT CAVOK
                      BECMG 0116/0119 30018G28KT=
201003010800 TAF LMML 010800Z 0109/0118 VRB05KT CAVOK
                      BECMG 0110/0113 30018KT
                      BECMG 0115/0118 30020G30KT=
201003010500 TAF LMML 010500Z 0106/0115 20010KT CAVOK
                      BECMG 0109/0112 30015G25KT=
201003010200 TAF LMML 010200Z 0103/0112 21010KT CAVOK
                      PROB30 TEMPO 0103/0106 8000 FEW004
                      BECMG 0108/0111 28015KT=

###################################
#  large TAF from LMML
###################################
201003312300 TAF LMML NIL=
201003311700 TAF LMML NIL=
201003311100 TAF LMML NIL=
201003310500 TAF LMML NIL=
201003302300 TAF LMML NIL=
201003301700 TAF LMML NIL=
201003301100 TAF LMML NIL=
201003300500 TAF LMML NIL=
201003292300 TAF LMML NIL=
201003291700 TAF LMML NIL=
201003291100 TAF LMML NIL=
201003290500 TAF LMML NIL=
201003282300 TAF LMML NIL=
201003281700 TAF LMML NIL=
201003281100 TAF LMML NIL=
201003280500 TAF LMML NIL=
201003272300 TAF LMML NIL=
201003271700 TAF LMML NIL=
201003271100 TAF LMML NIL=
201003270500 TAF LMML NIL=
201003262300 TAF LMML NIL=
201003261700 TAF LMML NIL=
201003261100 TAF LMML NIL=
201003260500 TAF LMML NIL=
201003252300 TAF LMML NIL=
201003251700 TAF LMML NIL=
201003251100 TAF LMML NIL=
201003250500 TAF LMML NIL=
201003242300 TAF LMML NIL=
201003241700 TAF LMML NIL=
201003241100 TAF LMML NIL=
201003240500 TAF LMML NIL=
201003232300 TAF LMML NIL=
201003231700 TAF LMML NIL=
201003231100 TAF LMML NIL=
201003230500 TAF LMML NIL=
201003222300 TAF LMML NIL=
201003221700 TAF LMML NIL=
201003221100 TAF LMML NIL=
201003220500 TAF LMML NIL=
201003212300 TAF LMML NIL=
201003211700 TAF LMML NIL=
201003211100 TAF LMML NIL=
201003210500 TAF LMML NIL=
201003202300 TAF LMML NIL=
201003201700 TAF LMML NIL=
201003201100 TAF LMML NIL=
201003200500 TAF LMML NIL=
201003192300 TAF LMML NIL=
201003191700 TAF LMML NIL=
201003191100 TAF LMML NIL=
201003190500 TAF LMML NIL=
201003182300 TAF LMML NIL=
201003181700 TAF LMML NIL=
201003181100 TAF LMML NIL=
201003180500 TAF LMML NIL=
201003172300 TAF LMML NIL=
201003171700 TAF LMML NIL=
201003171100 TAF LMML NIL=
201003170500 TAF LMML NIL=
201003162300 TAF LMML NIL=
201003161700 TAF LMML NIL=
201003161100 TAF LMML NIL=
201003160500 TAF LMML NIL=
201003152300 TAF LMML NIL=
201003151700 TAF LMML NIL=
201003151100 TAF LMML NIL=
201003150500 TAF LMML NIL=
201003142300 TAF LMML NIL=
201003141700 TAF LMML NIL=
201003141100 TAF LMML NIL=
201003140500 TAF LMML NIL=
201003132300 TAF LMML NIL=
201003131700 TAF LMML NIL=
201003131100 TAF LMML NIL=
201003130500 TAF LMML NIL=
201003122300 TAF LMML NIL=
201003121700 TAF LMML NIL=
201003121100 TAF LMML NIL=
201003120500 TAF LMML NIL=
201003112300 TAF LMML NIL=
201003111700 TAF LMML NIL=
201003111100 TAF LMML NIL=
201003110500 TAF LMML NIL=
201003102300 TAF LMML NIL=
201003101700 TAF LMML NIL=
201003101100 TAF LMML NIL=
201003100500 TAF LMML NIL=
201003092300 TAF LMML NIL=
201003091700 TAF LMML NIL=
201003091100 TAF LMML NIL=
201003090500 TAF LMML NIL=
201003082300 TAF LMML NIL=
201003081700 TAF LMML NIL=
201003081100 TAF LMML NIL=
201003080500 TAF LMML NIL=
201003072300 TAF LMML NIL=
201003071700 TAF LMML NIL=
201003071100 TAF LMML NIL=
201003070500 TAF LMML NIL=
201003062300 TAF LMML NIL=
201003061700 TAF LMML NIL=
201003061100 TAF LMML NIL=
201003060500 TAF LMML NIL=
201003052300 TAF LMML NIL=
201003051700 TAF LMML NIL=
201003051100 TAF LMML NIL=
201003050500 TAF LMML NIL=
201003042300 TAF LMML NIL=
201003041700 TAF LMML NIL=
201003041100 TAF LMML NIL=
201003040500 TAF LMML NIL=
201003032300 TAF LMML NIL=
201003031700 TAF LMML NIL=
201003031100 TAF LMML NIL=
201003030500 TAF LMML NIL=
201003022300 TAF LMML NIL=
201003021700 TAF LMML NIL=
201003021100 TAF LMML NIL=
201003020500 TAF LMML NIL=
201003012300 TAF LMML NIL=
201003011700 TAF LMML NIL=
201003011100 TAF LMML NIL=
201003010500 TAF LMML NIL=
