##########################################################
# Query made at 01/18/2013 16:56:57 UTC
# Time interval: from 03/01/2008 00:00  to 03/31/2008 23:59  UTC
##########################################################

##########################################################
# LMML, Luqa (Malta)
# WMO index: 16597
# Latitude 35-51N. Longitude 014-29E. Altitude 91 m.
##########################################################

###################################
#  METAR/SPECI from LMML
###################################
200803312330 METAR LMML NIL=
200803312315 METAR LMML 312315Z 14009KT 9999 -RA BKN100 BKN250 16/15 Q1010
                        TEMPO 8000 RA BKN015=
200803312300 METAR LMML NIL=
200803312245 METAR LMML 312245Z 14009KT CAVOK 16/15 Q1010 TEMPO 8000 RA
                        BKN015=
200803312230 METAR LMML NIL=
200803312215 METAR LMML 312215Z 15009KT 120V180 CAVOK 16/15 Q1010 TEMPO
                        8000 RA BKN015=
200803312200 METAR LMML NIL=
200803312145 METAR LMML 312145Z 14011KT 110V170 CAVOK 16/15 Q1011 NOSIG=
200803312130 METAR LMML NIL=
200803312115 METAR LMML 312115Z 14009KT 110V170 CAVOK 16/15 Q1011 NOSIG=
200803312100 METAR LMML NIL=
200803312045 METAR LMML 312045Z 15009KT CAVOK 16/15 Q1011 NOSIG=
200803312030 METAR LMML NIL=
200803312015 METAR LMML 312015Z 14009KT 100V160 CAVOK 16/15 Q1012 NOSIG=
200803312000 METAR LMML NIL=
200803311945 METAR LMML 311945Z 15007KT CAVOK 16/15 Q1012 NOSIG=
200803311930 METAR LMML NIL=
200803311915 METAR LMML 311915Z 13007KT CAVOK 15/15 Q1012 NOSIG=
200803311900 METAR LMML NIL=
200803311845 METAR LMML 311845Z 13007KT 9999 FEW008 BKN120 16/14 Q1012
                        NOSIG=
200803311830 METAR LMML NIL=
200803311815 METAR LMML 311815Z 15008KT 9999 FEW008 BKN120 16/14 Q1012
                        NOSIG=
200803311800 METAR LMML NIL=
200803311745 METAR LMML 311745Z 14007KT 110V190 9999 FEW008 SCT120 BKN250
                        16/14 Q1012 NO SIG=
200803311730 METAR LMML NIL=
200803311715 METAR LMML 311715Z 14008KT 110V170 9999 SCT008 BKN250 16/15
                        Q1012 NOSIG=
200803311700 METAR LMML NIL=
200803311645 METAR LMML 311645Z 14008KT 110V170 9999 SCT009 BKN250 16/15
                        Q1013 BECMG BKN 008=
200803311630 METAR LMML NIL=
200803311615 METAR LMML 311615Z 14009KT 9999 BKN011 16/15 Q1013 NOSIG=
200803311600 METAR LMML NIL=
200803311545 METAR LMML 311545Z 13010KT 100V170 9999 BKN011 BKN250 16/15
                        Q1013 NOSIG=
200803311530 LMML NIL=
200803311515 METAR LMML 311515Z 14011KT 100V170 9999 BKN013 BKN250 16/14
                        Q1013 BECMG SCT 012=
200803311500 METAR LMML NIL=
200803311445 METAR LMML 311445Z 14011KT 100V170 9999 BKN011 SCT250 17/14
                        Q1014 BECMG SCT 012=
200803311430 METAR LMML NIL=
200803311415 METAR LMML 311415Z 13011KT 100V180 9999 BKN011 SCT250 17/14
                        Q1014 NOSIG=
200803311400 METAR LMML NIL=
200803311345 METAR LMML 311345Z 14010KT 100V180 9999 BKN011 18/15 Q1014
                        NOSIG=
200803311330 METAR LMML NIL=
200803311315 METAR LMML 311315Z 14010KT 110V170 9999 BKN011 18/15 Q1015
                        NOSIG=
200803311300 METAR LMML NIL=
200803311245 METAR LMML 311245Z 15009KT 110V180 9999 BKN011 18/15 Q1015
                        NOSIG=
200803311230 METAR LMML NIL=
200803311215 METAR LMML 311215Z 15009KT 110V190 9999 BKN015 18/14 Q1015
                        NOSIG=
200803311200 METAR LMML NIL=
200803311145 METAR LMML 311145Z 15009KT 120V210 9999 SCT016 18/14 Q1016
                        NOSIG=
200803311130 METAR LMML NIL=
200803311115 METAR LMML 311115Z 16009KT 130V200 9999 SCT015 SCT250 17/14
                        Q1016 NOSIG=
200803311100 METAR LMML NIL=
200803311045 METAR LMML 311045Z 15009KT 120V190 9999 FEW015 SCT250 17/14
                        Q1016 NOSIG=
200803311030 METAR LMML NIL=
200803311000 METAR LMML NIL=
200803310945 METAR LMML 310945Z 16008KT 110V220 9999 FEW016 SCT250 17/13
                        Q1017 NOSIG=
200803310930 METAR LMML NIL=
200803310915 METAR LMML 310915Z 15008KT 120V200 9999 SCT016 SCT250 17/13
                        Q1017 NOSIG=
200803310900 METAR LMML NIL=
200803310830 METAR LMML NIL=
200803310745 METAR LMML 310745Z 16005KT 120V210 9999 FEW016 BKN023 15/13
                        Q1017 NOSIG=
200803310730 METAR LMML NIL=
200803310715 METAR LMML 310715Z 16005KT 9999 BKN019 15/13 Q1017 NOSIG=
200803310700 METAR LMML NIL=
200803310645 METAR LMML 310645Z 15004KT 120V180 9999 BKN020 15/12 Q1017
                        NOSIG=
200803310630 METAR LMML NIL=
200803310615 METAR LMML 310615Z VRB03KT 9999 SCT022 SCT250 14/12 Q1017
                        NOSIG=
200803310600 METAR LMML NIL=
200803310545 METAR LMML 310545Z 16004KT 9999 BKN021 SCT250 13/12 Q1017
                        NOSIG=
200803310530 METAR LMML NIL=
200803310515 METAR LMML 310515Z 16004KT 140V200 9999 BKN020 SCT250 13/12
                        Q1017 NOSIG=
200803310500 METAR LMML NIL=
200803310445 METAR LMML 310445Z 16004KT 130V200 9999 BKN020 BKN250 13/12
                        Q1017 NOSIG=
200803310430 METAR LMML NIL=
200803310415 METAR LMML 310415Z 16004KT 9000 BKN018 13/13 Q1017 NOSIG=
200803310345 METAR LMML 310345Z 16004KT 9000 BKN017 13/13 Q1017 TEMPO
                        BKN012=
200803310330 METAR LMML NIL=
200803310315 METAR LMML 310315Z 14004KT 110V170 9000 BKN016 13/12 Q1017
                        TEMPO BKN012=
200803310300 METAR LMML NIL=
200803310245 METAR LMML 310245Z 13005KT 9000 BKN013 12/12 Q1017 TEMPO
                        BKN012=
200803310230 METAR LMML NIL=
200803310215 METAR LMML 310215Z VRB03KT 6000 BKN013 12/12 Q1017 TEMPO
                        4000 MIFG BKN010=
200803310200 METAR LMML NIL=
200803310145 METAR LMML 310145Z VRB03KT 4000 BR FEW008 BKN011 11/11 Q1017
                        TEMPO 4000 MIF G BKN008=
200803310130 METAR LMML NIL=
200803310115 METAR LMML 310115Z VRB01KT 4000 BR FEW008 11/11 Q1017 TEMPO
                        4000 MIFG BKN01 0=
200803310045 METAR LMML 310045Z VRB01KT 7000 FEW015 11/11 Q1018 TEMPO
                        6000 SCT010=
200803310030 METAR LMML NIL=
200803310015 METAR LMML 310015Z 00000KT 7000 FEW014 11/11 Q1018 TEMPO
                        6000 SCT010=
200803310000 METAR LMML NIL=
200803302345 METAR LMML 302345Z 00000KT 9000 FEW014 11/11 Q1018 TEMPO
                        8000 SCT010=
200803302330 METAR LMML NIL=
200803302315 METAR LMML 302315Z 00000KT 9000 FEW014 12/12 Q1018 TEMPO
                        8000 SCT010=
200803302245 METAR LMML 302245Z VRB01KT 9000 FEW014 13/12 Q1019 NOSIG=
200803302230 METAR LMML NIL=
200803302215 METAR LMML 302215Z VRB03KT 9000 FEW014 13/13 Q1019 NOSIG=
200803302145 METAR LMML 302145Z VRB02KT 9000 FEW014 13/13 Q1019 NOSIG=
200803302115 METAR LMML 302115Z VRB02KT 9999 FEW014 13/13 Q1019 NOSIG=
200803302100 METAR LMML NIL=
200803302045 METAR LMML 302045Z VRB02KT 9999 FEW014 13/13 Q1019 TEMPO
                        BKN014=
200803302030 METAR LMML NIL=
200803302015 METAR LMML 302015Z VRB01KT 9999 FEW014 14/12 Q1019 TEMPO
                        BKN014=
200803302000 METAR LMML NIL=
200803301945 METAR LMML 301945Z VRB01KT 9999 FEW013 SCT250 14/12 Q1019
                        TEMPO BKN014=
200803301915 METAR LMML 301915Z VRB01KT 9999 BKN014 SCT250 14/13 Q1019
                        NOSIG=
200803301900 METAR LMML NIL=
200803301845 METAR LMML 301845Z VRB01KT 9999 SCT014 SCT250 14/12 Q1019
                        NOSIG=
200803301830 METAR LMML NIL=
200803301815 METAR LMML 301815Z VRB01KT 9999 SCT013 SCT250 15/13 Q1019
                        NOSIG=
200803301800 METAR LMML NIL=
200803301745 METAR LMML 301745Z VRB02KT 9999 SCT015 SCT250 15/13 Q1019
                        NOSIG=
200803301730 METAR LMML NIL=
200803301715 METAR LMML 301715Z VRB03KT 9999 SCT017 SCT250 15/13 Q1019
                        NOSIG=
200803301700 METAR LMML NIL=
200803301645 METAR LMML 301645Z 03004KT 360V070 9999 SCT017 BKN250 16/13
                        Q1019 NOSIG=
200803301630 METAR LMML NIL=
200803301615 METAR LMML 301615Z 04005KT 010V080 9999 SCT017 SCT250 16/13
                        Q1019 NOSIG=
200803301600 METAR LMML NIL=
200803301545 METAR LMML 301545Z VRB03KT 9999 SCT018 BKN250 16/13 Q1019
                        NOSIG=
200803301530 METAR LMML NIL=
200803301515 METAR LMML 301515Z VRB02KT 9999 SCT019 BKN250 16/13 Q1019
                        NOSIG=
200803301430 METAR LMML NIL=
200803301415 METAR LMML 301415Z 04004KT 330V090 9999 BKN019 BKN250 17/13
                        Q1019 NOSIG=
200803301400 METAR LMML NIL=
200803301345 METAR LMML 301345Z 04006KT 010V110 9999 BKN020 BKN250 17/13
                        Q1019 NOSIG=
200803301330 METAR LMML NIL=
200803301315 METAR LMML 301315Z 15005KT 070V220 9999 BKN020 BKN250 18/14
                        Q1019 NOSIG=
200803301300 METAR LMML NIL=
200803301245 METAR LMML 301245Z 12007KT 060V170 9999 BKN021 BKN250 18/14
                        Q1019 NOSIG=
200803301230 METAR LMML NIL=
200803301215 METAR LMML 301215Z VRB03KT 9999 BKN022 BKN250 19/14 Q1020
                        NOSIG=
200803301200 METAR LMML NIL=
200803301145 METAR LMML 301145Z VRB03KT 9999 SCT022 BKN250 18/12 Q1020
                        NOSIG=
200803301130 METAR LMML NIL=
200803301115 METAR LMML 301115Z 28004KT 230V330 9999 SCT023 BKN250 18/13
                        Q1020 NOSIG=
200803301100 METAR LMML NIL=
200803301045 METAR LMML 301045Z 25005KT 200V310 9999 SCT022 BKN250 17/13
                        Q1021 NOSIG=
200803301030 METAR LMML NIL=
200803301015 METAR LMML 301015Z 27005KT 220V310 9999 SCT022 SCT250 17/13
                        Q1021 NOSIG=
200803301000 METAR LMML NIL=
200803300945 METAR LMML 300945Z 21004KT 150V270 9999 SCT021 SCT250 18/14
                        Q1021 NOSIG=
200803300930 METAR LMML NIL=
200803300915 METAR LMML 300915Z 27004KT 250V310 9999 SCT020 SCT250 17/13
                        Q1021 NOSIG=
200803300900 METAR LMML NIL=
200803300845 METAR LMML 300845Z VRB03KT 9999 BKN018 BKN250 17/13 Q1021
                        NOSIG=
200803300815 METAR LMML 300815Z VRB03KT 9999 BKN015 BKN250 16/14 Q1021
                        BECMG SCT018=
200803300800 METAR LMML NIL=
200803300745 METAR LMML 300745Z VRB01KT 9999 FEW008 BKN015 BKN250 15/14
                        Q1021 BECMG=
200803300715 METAR LMML 300715Z VRB01KT 8000 BKN010 BKN250 15/15 Q1020
                        BECMG 9999 SCT012=
200803300700 METAR LMML NIL=
200803300645 METAR LMML 300645Z VRB01KT 8000 BKN010 BKN250 15/15 Q1020
                        NOSIG=
200803300630 METAR LMML NIL=
200803300615 METAR LMML 300615Z VRB02KT 9999 FEW010 BKN250 14/14 Q1020
                        NOSIG=
200803300600 METAR LMML NIL=
200803300545 METAR LMML 300545Z 00000KT 9999 FEW010 BKN250 13/13 Q1020
                        NOSIG=
200803300530 METAR LMML NIL=
200803300515 METAR LMML 300515Z VRB01KT 9999 FEW010 BKN250 13/13 Q1020
                        NOSIG=
200803300500 METAR LMML NIL=
200803300445 METAR LMML 300445Z VRB01KT 9999 FEW009 BKN250 13/12 Q1020
                        NOSIG=
200803300430 METAR LMML NIL=
200803300415 METAR LMML 300415Z VRB01KT 9000 FEW009 BKN250 12/12 Q1020
                        TEMPO 8000=
200803300400 METAR LMML NIL=
200803300345 METAR LMML 300345Z VRB01KT 9000 FEW009 SCT250 13/13 Q1020
                        NOSIG=
200803300330 METAR LMML NIL=
200803300315 METAR LMML 300315Z VRB03KT 9000 FEW009 13/13 Q1019 NOSIG=
200803300300 METAR LMML NIL=
200803300245 METAR LMML 300245Z 24004KT 200V280 9000 FEW009 13/13 Q1020
                        NOSIG=
200803300230 METAR LMML NIL=
200803300215 METAR LMML 300215Z VRB03KT 9000 FEW009 12/12 Q1020 NOSIG=
200803300145 METAR LMML 300145Z VRB03KT 9000 FEW009 13/13 Q1020 NOSIG=
200803300130 METAR LMML NIL=
200803300115 METAR LMML 300115Z 31005KT 9000 FEW009 13/13 Q1020 NOSIG=
200803300045 METAR LMML 300045Z 30004KT 260V330 9000 FEW009 13/13 Q1020
                        NOSIG=
200803300030 METAR LMML NIL=
200803300015 METAR LMML 300015Z 29004KT 9999 FEW009 13/13 Q1020 NOSIG=
200803300000 METAR LMML NIL=
200803292345 METAR LMML 292345Z 29004KT 260V330 9999 FEW009 13/13 Q1020
                        NOSIG=
200803292330 METAR LMML NIL=
200803292315 METAR LMML 292315Z 27004KT 9999 FEW009 14/14 Q1021 NOSIG=
200803292300 METAR LMML NIL=
200803292245 METAR LMML 292245Z 27005KT 220V290 9999 FEW007 14/14 Q1021
                        NOSIG=
200803292230 METAR LMML NIL=
200803292215 METAR LMML 292215Z VRB01KT 9999 FEW007 13/13 Q1021 NOSIG=
200803292200 METAR LMML NIL=
200803292145 METAR LMML 292145Z VRB02KT 9999 FEW007 13/13 Q1021 NOSIG=
200803292130 METAR LMML NIL=
200803292115 METAR LMML 292115Z 30005KT 9999 FEW007 14/13 Q1021 NOSIG=
200803292100 METAR LMML NIL=
200803292045 METAR LMML 292045Z VRB03KT 9999 FEW012 14/13 Q1021 NOSIG=
200803292030 METAR LMML NIL=
200803292015 METAR LMML 292015Z 30005KT CAVOK 14/13 Q1020 NOSIG=
200803292000 METAR LMML NIL=
200803291945 METAR LMML 291945Z 30004KT CAVOK 14/13 Q1020 NOSIG=
200803291930 METAR LMML NIL=
200803291915 METAR LMML 291915Z 28005KT CAVOK 14/13 Q1020 NOSIG=
200803291900 METAR LMML NIL=
200803291845 METAR LMML 291845Z 29006KT CAVOK 14/13 Q1020 NOSIG=
200803291830 METAR LMML NIL=
200803291815 METAR LMML 291815Z 29006KT 9999 FEW020 15/13 Q1020 NOSIG=
200803291800 METAR LMML NIL=
200803291745 METAR LMML 291745Z 29005KT 9999 FEW020 15/13 Q1019 NOSIG=
200803291730 METAR LMML NIL=
200803291715 METAR LMML 291715Z 29008KT 260V320 9999 FEW020 15/12 Q1020
                        NOSIG=
200803291645 METAR LMML 291645Z 28011KT 9999 FEW020 16/12 Q1019 NOSIG=
200803291630 METAR LMML NIL=
200803291615 METAR LMML 291615Z 28011KT 250V310 9999 FEW020 17/11 Q1019
                        NOSIG=
200803291600 METAR LMML NIL=
200803291545 METAR LMML 291545Z 29011KT 9999 FEW025 17/12 Q1019 NOSIG=
200803291530 METAR LMML NIL=
200803291515 METAR LMML 291515Z 29012KT 260V320 9999 FEW030 18/11 Q1019
                        NOSIG=
200803291500 METAR LMML NIL=
200803291445 METAR LMML 291445Z 28013KT 9999 FEW030 18/11 Q1019 NOSIG=
200803291430 METAR LMML NIL=
200803291415 METAR LMML 291415Z 29013KT 9999 FEW030 19/09 Q1019 NOSIG=
200803291400 METAR LMML NIL=
200803291345 METAR LMML 291345Z 30013KT 270V330 9999 FEW030 19/09 Q1019
                        NOSIG=
200803291330 METAR LMML NIL=
200803291315 METAR LMML 291315Z 30012KT 9999 FEW040 20/07 Q1019 NOSIG=
200803291300 METAR LMML NIL=
200803291245 METAR LMML 291245Z 29011KT 260V320 9999 FEW040 19/08 Q1019
                        NOSIG=
200803291230 METAR LMML NIL=
200803291215 METAR LMML 291215Z 33009KT 290V010 9999 FEW030 20/08 Q1019
                        NOSIG=
200803291200 METAR LMML NIL=
200803291145 METAR LMML 291145Z 33006KT 280V030 9999 FEW030 20/06 Q1019
                        NOSIG=
200803291115 METAR LMML 291115Z 34005KT 280V040 CAVOK 20/05 Q1019 NOSIG=
200803291100 METAR LMML NIL=
200803291045 METAR LMML 291045Z 33006KT 290V010 CAVOK 19/07 Q1019 NOSIG=
200803291015 METAR LMML 291015Z 33005KT 280V020 CAVOK 19/09 Q1019 NOSIG=
200803291000 METAR LMML NIL=
200803290945 METAR LMML 290945Z 34004KT 290V030 CAVOK 19/09 Q1019 NOSIG=
200803290915 METAR LMML 290915Z 34007KT 290V060 CAVOK 18/08 Q1019 NOSIG=
200803290900 METAR LMML NIL=
200803290845 METAR LMML 290845Z 33007KT 300V010 CAVOK 18/09 Q1018 NOSIG=
200803290830 METAR LMML NIL=
200803290815 METAR LMML 290815Z 34009KT CAVOK 17/11 Q1018 NOSIG=
200803290800 METAR LMML NIL=
200803290745 METAR LMML 290745Z 34010KT CAVOK 17/11 Q1018 NOSIG=
200803290730 METAR LMML NIL=
200803290715 METAR LMML 290715Z 33008KT CAVOK 16/11 Q1017 NOSIG=
200803290700 METAR LMML NIL=
200803290645 METAR LMML 290645Z 33008KT CAVOK 15/12 Q1017 NOSIG=
200803290630 METAR LMML NIL=
200803290615 METAR LMML 290615Z 32005KT CAVOK 14/12 Q1017 NOSIG=
200803290600 METAR LMML NIL=
200803290545 METAR LMML 290545Z 30005KT CAVOK 13/12 Q1017 NOSIG=
200803290530 METAR LMML NIL=
200803290515 METAR LMML 290515Z 31004KT CAVOK 12/11 Q1016 NOSIG=
200803290500 METAR LMML NIL=
200803290445 METAR LMML 290445Z 32004KT CAVOK 12/11 Q1016 NOSIG=
200803290430 METAR LMML NIL=
200803290415 METAR LMML 290415Z 33006KT CAVOK 13/11 Q1015 NOSIG=
200803290400 METAR LMML NIL=
200803290345 METAR LMML 290345Z 33007KT CAVOK 13/11 Q1015 NOSIG=
200803290315 METAR LMML 290315Z 32006KT CAVOK 13/11 Q1014 NOSIG=
200803290300 METAR LMML NIL=
200803290245 METAR LMML 290245Z 33007KT CAVOK 13/10 Q1014 NOSIG=
200803290230 METAR LMML NIL=
200803290215 METAR LMML 290215Z 34007KT 9999 FEW040 13/10 Q1014 NOSIG=
200803290200 METAR LMML NIL=
200803290145 METAR LMML 290145Z 34007KT 9999 FEW040 13/10 Q1014 NOSIG=
200803290130 METAR LMML NIL=
200803290115 METAR LMML 290115Z 34007KT 9999 FEW040 13/10 Q1013 NOSIG=
200803290100 METAR LMML NIL=
200803290045 METAR LMML 290045Z 34009KT 9999 FEW040 SCT060 14/10 Q1013
                        NOSIG=
200803290030 METAR LMML NIL=
200803290015 METAR LMML 290015Z 32009KT 9999 FEW043 SCT050 14/11 Q1013
                        NOSIG=
200803290000 METAR LMML NIL=
200803282345 METAR LMML 282345Z 33009KT 9999 FEW030 SCT060 14/10 Q1013
                        NOSIG=
200803282330 METAR LMML NIL=
200803282315 METAR LMML 282315Z 33012KT 9999 FEW038 SCT050 14/10 Q1012
                        NOSIG=
200803282245 METAR LMML 282245Z 32013KT 9999 SCT038 14/11 Q1012 NOSIG=
200803282230 METAR LMML NIL=
200803282215 METAR LMML 282215Z 33013G23KT 9999 FEW044 14/10 Q1012 NOSIG=
200803282200 METAR LMML NIL=
200803282145 METAR LMML 282145Z 32015KT 9999 FEW018 BKN060 14/11 Q1011
                        NOSIG=
200803282130 METAR LMML NIL=
200803282115 METAR LMML 282115Z 32014KT 9999 FEW018 BKN060 14/11 Q1011
                        NOSIG=
200803282100 METAR LMML NIL=
200803282045 METAR LMML 282045Z 32015KT 9999 FEW020 BKN060 14/11 Q1010
                        NOSIG=
200803282030 METAR LMML NIL=
200803282015 METAR LMML 282015Z 31014G24KT 9999 FEW020 BKN060 14/11 Q1010
                        NOSIG=
200803282000 METAR LMML NIL=
200803281945 METAR LMML 281945Z 31016KT 280V340 9999 FEW020 BKN060 14/10
                        Q1009 NOSIG=
200803281930 METAR LMML NIL=
200803281915 METAR LMML 281915Z 31016KT 9999 FEW020 BKN070 14/10 Q1009
                        NOSIG=
200803281900 METAR LMML NIL=
200803281845 METAR LMML 281845Z 31019KT 9999 FEW030 SCT100 14/10 Q1008
                        NOSIG=
200803281830 METAR LMML NIL=
200803281815 METAR LMML 281815Z 31019KT 9999 FEW030 14/10 Q1007 NOSIG=
200803281800 METAR LMML NIL=
200803281745 METAR LMML 281745Z 31019KT 9999 FEW033 14/09 Q1006 NOSIG=
200803281730 METAR LMML NIL=
200803281715 METAR LMML 281715Z 31019KT 9999 FEW033 SCT100 14/09 Q1005
                        NOSIG=
200803281700 METAR LMML NIL=
200803281645 METAR LMML 281645Z 31021KT 9999 FEW033 14/08 Q1005 NOSIG=
200803281630 METAR LMML NIL=
200803281615 METAR LMML 281615Z 32019KT 9999 FEW033 15/07 Q1004 NOSIG=
200803281545 METAR LMML 281545Z 31018KT 280V340 9999 FEW033 SCT100 15/08
                        Q1004 NOSIG=
200803281530 METAR LMML NIL=
200803281515 METAR LMML 281515Z 31023KT 9999 FEW033 SCT100 15/07 Q1004
                        NOSIG=
200803281500 METAR LMML NIL=
200803281445 METAR LMML 281445Z 31025KT 9999 FEW032 SCT047 15/07 Q1004
                        NOSIG=
200803281430 METAR LMML NIL=
200803281415 METAR LMML 281415Z 31021KT 280V340 9999 BKN035 14/06 Q1004
                        NOSIG=
200803281400 METAR LMML NIL=
200803281345 METAR LMML 281345Z 29021KT 270V330 9999 SCT039 15/06 Q1003
                        NOSIG=
200803281330 METAR LMML NIL=
200803281315 METAR LMML 281315Z 29020KT 9999 SCT032 16/06 Q1003 NOSIG=
200803281245 METAR LMML 281245Z 29018KT 250V310 9999 FEW034 SCT110 15/08
                        Q1003 NOSIG=
200803281230 METAR LMML NIL=
200803281215 METAR LMML 281215Z 29018KT 260V330 9999 FEW036 BKN110 16/07
                        Q1003 NOSIG=
200803281200 METAR LMML NIL=
200803281145 METAR LMML 281145Z 29020KT 9999 FEW032 BKN080 15/07 Q1003
                        TEMPO 9000 SHRA=
200803281115 METAR LMML 281115Z 29020KT 260V320 9999 SCT032 SCT070 16/08
                        Q1003 TEMPO 900 0 SHRA=
200803281100 METAR LMML NIL=
200803281045 METAR LMML 281045Z 29018KT 9999 FEW032 15/09 Q1003 TEMPO
                        9000 SHRA=
200803281030 METAR LMML NIL=
200803281015 METAR LMML 281015Z 31016KT 280V340 9999 FEW028 BKN060 15/09
                        Q1003 TEMPO 900 0 SHRA=
200803281000 METAR LMML NIL=
200803280945 METAR LMML 280945Z 30014KT 270V330 9999 SCT031 SCT060 14/10
                        Q1003 NOSIG=
200803280915 METAR LMML 280915Z 28013KT 250V320 9999 BKN027 SCT060 14/09
                        Q1003 NOSIG=
200803280900 METAR LMML NIL=
200803280845 METAR LMML 280845Z 28012KT 220V330 9999 -SHRA SCT030 BKN050
                        13/09 Q1003 NOS IG=
200803280830 METAR LMML NIL=
200803280815 METAR LMML 280815Z 29012KT 9999 SCT033 SCT060 14/08 Q1003
                        NOSIG=
200803280800 METAR LMML NIL=
200803280745 METAR LMML 280745Z 30017KT 260V320 9999 -RA SCT030 BKN060
                        14/07 Q1003 NOSIG=
200803280730 METAR LMML NIL=
200803280715 METAR LMML 280715Z 29013KT 9999 FEW036 BKN070 13/07 Q1003
                        NOSIG=
200803280645 METAR LMML 280645Z 29015KT 9999 FEW036 SCT070 14/07 Q1003
                        NOSIG=
200803280630 METAR LMML NIL=
200803280615 METAR LMML 280615Z 29016KT 9999 FEW036 13/06 Q1003 NOSIG=
200803280600 METAR LMML NIL=
200803280545 METAR LMML 280545Z 29011KT 9999 FEW045 12/06 Q1003 NOSIG=
200803280515 METAR LMML 280515Z 29012KT 9999 FEW045 12/06 Q1002 NOSIG=
200803280445 METAR LMML 280445Z 29017KT 9999 FEW045 12/06 Q1002 NOSIG=
200803280430 METAR LMML NIL=
200803280415 LMML 280415Z 29013KT 270V330 9999 FEW045 12/06 Q1002 NOSIG=
200803280400 METAR LMML NIL=
200803280345 METAR LMML 280345Z 30012KT 9999 FEW045 12/06 Q1002 NOSIG=
200803280330 METAR LMML NIL=
200803280315 METAR LMML 280315Z 29014KT 9999 FEW039 12/06 Q1002 NOSIG=
200803280300 METAR LMML NIL=
200803280245 METAR LMML 280245Z 30015KT 9999 FEW034 12/07 Q1002 NOSIG=
200803280230 METAR LMML NIL=
200803280215 METAR LMML 280215Z 30016KT 9999 FEW031 12/07 Q1002 NOSIG=
200803280200 METAR LMML NIL=
200803280145 METAR LMML 280145Z 30014KT 9999 FEW031 12/07 Q1002 TEMPO
                        8000 SHRA=
200803280130 METAR LMML NIL=
200803280115 METAR LMML 280115Z 29016G26KT 9999 FEW032 SCT060 13/08 Q1002
                        TEMPO 8000 SHR A=
200803280100 METAR LMML NIL=
200803280045 METAR LMML 280045Z 30020KT 270V330 9999 FEW035 SCT045 13/08
                        Q1003 TEMPO 800 0 SHRA=
200803280015 METAR LMML 280015Z 30021G34KT 9999 FEW035 SCT060 13/07 Q1002
                        TEMPO 8000 SHR A=
200803280000 METAR LMML NIL=
200803272345 METAR LMML 272345Z 29024KT 9999 FEW028 SCT060 13/08 Q1002
                        TEMPO 8000 SHRA=
200803272330 METAR LMML NIL=
200803272315 METAR LMML 272315Z 30014G26KT 9999 SCT022 BKN250 12/10 Q1002
                        TEMPO 8000 SHR A=
200803272300 METAR LMML NIL=
200803272245 METAR LMML 272245Z 29022G32KT 9999 SCT018 BKN250 12/10 Q1003
                        TEMPO 8000 SHR A=
200803272230 METAR LMML NIL=
200803272215 METAR LMML 272215Z 29025G37KT 9999 SCT018 BKN250 12/09 Q1002
                        TEMPO 8000 SHR A=
200803272200 METAR LMML NIL=
200803272145 METAR LMML 272145Z 29023KT 9999 SCT018 BKN070 12/10 Q1002
                        TEMPO 8000 SHRA=
200803272130 METAR LMML NIL=
200803272115 METAR LMML 272115Z 29026G37KT 9999 -SHRA SCT018 BKN070 12/11
                        Q1002 TEMPO 80 00 SHRA=
200803272100 METAR LMML NIL=
200803272045 METAR LMML 272045Z 28019KT 9999 -SHRA SCT019 BKN070 12/11
                        Q1002 TEMPO 8000 SHRA=
200803272030 METAR LMML NIL=
200803272015 METAR LMML 272015Z 29027G40KT 9999 -SHRA SCT030 BKN070 11/11
                        Q1002 TEMPO 80 00 SHRA=
200803272000 METAR LMML NIL=
200803271945 METAR LMML 271945Z 29025G35KT 240V320 9999 -SHRA SCT022 BKN060
                        13/10 Q1002 TEMPO 8000 SHRA=
200803271930 METAR LMML NIL=
200803271915 METAR LMML 271915Z 29026G40KT 9999 SCT024 BKN060 13/10 Q1001
                        TEMPO 8000 SHR A=
200803271900 METAR LMML NIL=
200803271845 METAR LMML 271845Z 29024G37KT 260V320 9999 SCT016 SCT030
                        13/11 Q1000 NOSIG=
200803271830 METAR LMML NIL=
200803271815 METAR LMML 271815Z 28023G33KT 9999 SHRA BKN023 SCT046 13/10
                        Q1000 NOSIG=
200803271800 METAR LMML NIL=
200803271745 METAR LMML 271745Z 28026KT 250V310 9999 BKN024 13/10 Q1000
                        NOSIG=
200803271730 METAR LMML NIL=
200803271715 METAR LMML 271715Z 28022KT 240V320 9999 BKN022 13/10 Q0999
                        NOSIG=
200803271700 METAR LMML NIL=
200803271645 METAR LMML 271645Z 26021KT 220V290 9999 BKN017 SCT047 13/11
                        Q0999 NOSIG=
200803271630 METAR LMML NIL=
200803271615 METAR LMML 271615Z 26020KT 230V290 9000 -SHRA BKN020 SCT120
                        13/11 Q1000 NOS IG=
200803271600 METAR LMML NIL=
200803271545 METAR LMML 271545Z 27017KT 230V300 9000 -SHRA BKN021 SCT120
                        BKN250 13/11 Q1 000 NOSIG=
200803271530 METAR LMML NIL=
200803271515 METAR LMML 271515Z 27017G28KT 230V310 9999 SCT021 SCT050
                        BKN250 14/11 Q1000 NOSIG=
200803271500 METAR LMML NIL=
200803271445 METAR LMML 271445Z 26010KT 220V300 9999 SCT029 SCT060 BKN250
                        13/11 Q1000 RE SHRA TEMPO 8000 SHRA=
200803271432 LMML 271432Z 27014KT 230V310 9999 FEW025 SCT043 BKN250 13/11
                        Q1000 RE SHRA TEMPO 8000 SHRA=
200803271430 METAR LMML NIL=
200803271418 LMML 271418Z 25016G30KT 210V290 5000 SHRA FEW020 BKN043 14/09
                        Q1001 T EMPO 6000 SHRA=
200803271415 METAR LMML 271415Z 24013KT 190V290 9000 FEW020 BKN043 14/08
                        Q1000 TEMPO 600 0 SHRA=
200803271400 METAR LMML NIL=
200803271345 METAR LMML 271345Z 26015KT 230V300 9999 FEW025 15/07 Q1000
                        NOSIG=
200803271330 METAR LMML NIL=
200803271315 METAR LMML 271315Z 26014KT 220V310 9999 FEW025 SCT250 15/09
                        Q1001 NOSIG=
200803271300 METAR LMML NIL=
200803271245 METAR LMML 271245Z 28012KT 250V310 9999 -RA FEW025 BKN060
                        13/08 Q1001 NOSIG=
200803271230 METAR LMML NIL=
200803271215 METAR LMML 271215Z 29019KT 260V320 9999 FEW025 BKN050 BKN250
                        14/08 Q1002 NO SIG=
200803271200 METAR LMML NIL=
200803271145 METAR LMML 271145Z 30023KT 9999 FEW020 BKN140 15/08 Q1002
                        NOSIG=
200803271130 METAR LMML NIL=
200803271115 METAR LMML 271115Z 31014KT 9999 FEW012 BKN140 13/11 Q1002
                        NOSIG=
200803271100 METAR LMML NIL=
200803271045 METAR LMML 271045Z 30016KT 9000 FEW020 BKN140 13/12 Q1003
                        NOSIG=
200803271030 METAR LMML NIL=
200803271015 METAR LMML 271015Z 27019KT 200V320 8000 -SHRA FEW011 SCT019TCU
                        BKN080 14/11 Q1003 TEMPO 5000 TSRA
                        BKN015CB=
200803271000 METAR LMML NIL=
200803270945 METAR LMML 270945Z 16014KT 130V200 9999 FEW020TCU BKN100
                        BKN250 17/12 Q1002 TEMPO 5000 TSRA
                        BKN015CB=
200803270930 METAR LMML NIL=
200803270915 METAR LMML 270915Z 16012KT 120V190 9999 SCT013 BKN100 BKN250
                        16/12 Q1002 TE MPO 5000 TSRA BKN015CB=
200803270900 METAR LMML NIL=
200803270845 METAR LMML 270845Z 16013KT 130V210 9999 FEW014 BKN110 BKN250
                        16/13 Q1002 NO SIG=
200803270830 METAR LMML NIL=
200803270815 METAR LMML 270815Z 17010KT 130V210 9999 SCT012 BKN110 BKN250
                        16/14 Q1003 NO SIG=
200803270802 LMML 270802Z 18008KT 140V260 9999 BKN013 BKN110 BKN250 16/14
                        Q1004 BE CMG SCT014=
200803270800 METAR LMML NIL=
200803270745 METAR LMML 270745Z 17011KT 130V210 9999 SCT012 SCT120 BKN250
                        16/14 Q1004 NO SIG=
200803270730 METAR LMML NIL=
200803270715 METAR LMML 270715Z 17011KT 140V200 9999 FEW011 SCT120 BKN250
                        15/14 Q1003 NO SIG=
200803270700 METAR LMML NIL=
200803270645 METAR LMML 270645Z 17013KT 140V200 9999 SCT011 SCT120 BKN250
                        15/14 Q1004 NO SIG=
200803270630 METAR LMML NIL=
200803270615 METAR LMML 270615Z 17010KT 130V200 9999 SCT011 SCT250 15/14
                        Q1004 NOSIG=
200803270600 METAR LMML NIL=
200803270545 METAR LMML 270545Z 17009KT 140V200 9999 FEW020 BKN250 14/13
                        Q1005 NOSIG=
200803270530 METAR LMML NIL=
200803270515 METAR LMML 270515Z 17008KT 140V200 CAVOK 14/13 Q1005 NOSIG=
200803270500 METAR LMML NIL=
200803270445 METAR LMML 270445Z 14004KT 100V190 CAVOK 13/12 Q1005 NOSIG=
200803270430 METAR LMML NIL=
200803270415 METAR LMML 270415Z VRB03KT CAVOK 14/12 Q1005 NOSIG=
200803270345 METAR LMML 270345Z 17005KT 140V210 CAVOK 14/12 Q1006 NOSIG=
200803270330 METAR LMML NIL=
200803270315 METAR LMML 270315Z 18005KT 150V210 CAVOK 14/12 Q1006 NOSIG=
200803270300 METAR LMML NIL=
200803270245 METAR LMML 270245Z 19005KT CAVOK 13/12 Q1007 NOSIG=
200803270230 METAR LMML NIL=
200803270215 METAR LMML 270215Z 18004KT CAVOK 13/12 Q1007 NOSIG=
200803270145 METAR LMML 270145Z 20004KT CAVOK 13/12 Q1007 NOSIG=
200803270130 METAR LMML NIL=
200803270115 METAR LMML 270115Z 20004KT CAVOK 13/12 Q1008 NOSIG=
200803270100 METAR LMML NIL=
200803270045 METAR LMML 270045Z 20004KT CAVOK 13/12 Q1008 NOSIG=
200803270030 METAR LMML NIL=
200803270015 METAR LMML 270015Z 21006KT 170V240 CAVOK 14/12 Q1009 NOSIG=
200803262345 METAR LMML 262345Z 21005KT CAVOK 13/12 Q1009 NOSIG=
200803262315 METAR LMML 262315Z 21004KT 180V240 CAVOK 14/12 Q1010 NOSIG=
200803262300 METAR LMML NIL=
200803262245 METAR LMML 262245Z 21005KT 180V240 CAVOK 14/12 Q1010 NOSIG=
200803262230 METAR LMML NIL=
200803262215 METAR LMML 262215Z 21006KT 180V240 CAVOK 14/12 Q1011 NOSIG=
200803262200 METAR LMML NIL=
200803262145 METAR LMML 262145Z 22006KT CAVOK 14/12 Q1011 NOSIG=
200803262130 METAR LMML NIL=
200803262115 METAR LMML 262115Z 22006KT CAVOK 14/11 Q1011 NOSIG=
200803262100 METAR LMML NIL=
200803262045 METAR LMML 262045Z 23004KT 200V260 CAVOK 13/11 Q1011 NOSIG=
200803262030 METAR LMML NIL=
200803262015 METAR LMML 262015Z VRB03KT 9999 FEW020 13/11 Q1011 NOSIG=
200803262000 METAR LMML NIL=
200803261945 METAR LMML 261945Z VRB01KT 9999 FEW020 13/11 Q1011 NOSIG=
200803261930 METAR LMML NIL=
200803261915 METAR LMML 261915Z VRB01KT 9999 FEW020 13/11 Q1011 NOSIG=
200803261900 METAR LMML NIL=
200803261845 METAR LMML 261845Z 26004KT 220V290 9999 FEW020 13/11 Q1011
                        NOSIG=
200803261830 METAR LMML NIL=
200803261815 METAR LMML 261815Z 26004KT 180V330 9999 FEW020 14/11 Q1011
                        NOSIG=
200803261800 METAR LMML NIL=
200803261745 METAR LMML 261745Z 26008KT 220V290 9999 FEW021 14/11 Q1011
                        NOSIG=
200803261730 METAR LMML NIL=
200803261715 METAR LMML 261715Z 25008KT 210V290 9999 FEW021 15/11 Q1011
                        NOSIG=
200803261700 METAR LMML NIL=
200803261645 METAR LMML 261645Z 26010KT 210V290 9999 FEW021 15/11 Q1010
                        NOSIG=
200803261630 METAR LMML NIL=
200803261615 METAR LMML 261615Z 26010KT 220V290 9999 FEW021 16/11 Q1011
                        NOSIG=
200803261600 METAR LMML NIL=
200803261545 METAR LMML 261545Z 27012KT 220V300 9999 FEW021 16/11 Q1011
                        NOSIG=
200803261530 METAR LMML NIL=
200803261515 METAR LMML 261515Z 27012KT 200V330 9999 FEW021 17/11 Q1011
                        NOSIG=
200803261500 METAR LMML NIL=
200803261445 METAR LMML 261445Z 26012KT 220V300 9999 FEW022 17/10 Q1011
                        NOSIG=
200803261430 METAR LMML NIL=
200803261415 METAR LMML 261415Z 25014KT 220V280 9999 FEW026 17/10 Q1011
                        NOSIG=
200803261400 METAR LMML NIL=
200803261345 METAR LMML 261345Z 27011KT 230V310 9999 FEW030 17/09 Q1011
                        NOSIG=
200803261330 METAR LMML NIL=
200803261315 METAR LMML 261315Z 27012KT 220V310 9999 FEW024 17/08 Q1011
                        NOSIG=
200803261300 METAR LMML NIL=
200803261245 METAR LMML 261245Z 26012KT 210V300 9999 SCT025 17/10 Q1012
                        NOSIG=
200803261230 METAR LMML NIL=
200803261215 METAR LMML 261215Z 26012KT 220V310 9999 BKN025 17/11 Q1012
                        NOSIG=
200803261200 METAR LMML NIL=
200803261145 METAR LMML 261145Z 26013KT 210V300 9999 BKN024 17/11 Q1013
                        NOSIG=
200803261130 METAR LMML NIL=
200803261115 METAR LMML 261115Z 25013KT 210V290 9999 BKN023 17/10 Q1013
                        NOSIG=
200803261100 METAR LMML NIL=
200803261045 METAR LMML 261045Z 26012KT 230V310 9999 BKN022 17/12 Q1013
                        NOSIG=
200803261030 METAR LMML NIL=
200803261015 METAR LMML 261015Z 28010KT 240V310 9999 BKN022 16/11 Q1013
                        NOSIG=
200803261000 METAR LMML NIL=
200803260945 METAR LMML 260945Z 27010KT 240V300 9999 BKN021 16/11 Q1013
                        NOSIG=
200803260930 METAR LMML NIL=
200803260915 METAR LMML 260915Z 27012KT 220V300 9999 SCT021 16/12 Q1013
                        NOSIG=
200803260900 METAR LMML NIL=
200803260845 METAR LMML 260845Z 27011KT 230V300 9999 SCT021 16/12 Q1013
                        NOSIG=
200803260830 METAR LMML NIL=
200803260815 METAR LMML 260815Z 27012KT 240V310 9999 BKN021 16/11 Q1013
                        NOSIG=
200803260800 METAR LMML NIL=
200803260745 METAR LMML 260745Z 28012KT 240V330 9999 SCT022 16/12 Q1012
                        NOSIG=
200803260730 METAR LMML NIL=
200803260715 METAR LMML 260715Z 28011KT 240V300 9999 SCT023 16/12 Q1012
                        NOSIG=
200803260700 METAR LMML NIL=
200803260645 METAR LMML 260645Z 28010KT 250V310 9999 FEW021 15/12 Q1012
                        NOSIG=
200803260630 METAR LMML NIL=
200803260615 METAR LMML 260615Z 27009KT 230V310 9999 FEW020 15/12 Q1012
                        NOSIG=
200803260600 METAR LMML NIL=
200803260545 METAR LMML 260545Z 27007KT 230V290 9999 FEW019 14/12 Q1012
                        NOSIG=
200803260530 METAR LMML NIL=
200803260515 METAR LMML 260515Z 26005KT 230V290 9999 FEW019 13/11 Q1012
                        NOSIG=
200803260500 METAR LMML NIL=
200803260445 METAR LMML 260445Z 27006KT 9999 FEW019 13/11 Q1011 NOSIG=
200803260430 METAR LMML NIL=
200803260415 METAR LMML 260415Z 29008KT 9999 FEW022 13/11 Q1011 NOSIG=
200803260400 METAR LMML NIL=
200803260345 METAR LMML 260345Z 29009KT 9999 FEW022 13/11 Q1011 NOSIG=
200803260330 METAR LMML NIL=
200803260315 METAR LMML 260315Z 28009KT 9999 FEW022 14/11 Q1011 NOSIG=
200803260300 METAR LMML NIL=
200803260245 METAR LMML 260245Z 29009KT 9999 SCT025 14/10 Q1011 NOSIG=
200803260230 METAR LMML NIL=
200803260215 METAR LMML 260215Z 28009KT 260V320 9999 FEW029 14/10 Q1011
                        NOSIG=
200803260200 METAR LMML NIL=
200803260145 METAR LMML 260145Z 27010KT 9999 FEW029 14/10 Q1011 NOSIG=
200803260130 METAR LMML NIL=
200803260115 METAR LMML 260115Z 27010KT 240V300 9999 FEW029 14/09 Q1012
                        NOSIG=
200803260100 METAR LMML NIL=
200803260045 METAR LMML 260045Z 28009KT 9999 FEW035 14/10 Q1012 NOSIG=
200803260030 METAR LMML NIL=
200803260015 METAR LMML 260015Z 27009KT 240V310 CAVOK 15/09 Q1012 NOSIG=
200803260000 METAR LMML NIL=
200803252345 METAR LMML 252345Z 26011KT 220V290 CAVOK 15/10 Q1012 NOSIG=
200803252330 METAR LMML NIL=
200803252315 METAR LMML 252315Z 26010KT 220V290 CAVOK 15/10 Q1012 NOSIG=
200803252300 METAR LMML NIL=
200803252245 METAR LMML 252245Z 25010KT 220V290 CAVOK 15/11 Q1012 NOSIG=
200803252230 METAR LMML NIL=
200803252215 METAR LMML 252215Z 25009KT 220V280 CAVOK 14/10 Q1012 NOSIG=
200803252200 METAR LMML NIL=
200803252145 METAR LMML 252145Z 25008KT 210V290 CAVOK 14/10 Q1012 NOSIG=
200803252130 METAR LMML NIL=
200803252115 METAR LMML 252115Z 24009KT 210V280 CAVOK 14/10 Q1012 NOSIG=
200803252100 METAR LMML NIL=
200803252045 METAR LMML 252045Z 24009KT 200V270 CAVOK 14/10 Q1012 NOSIG=
200803252030 METAR LMML NIL=
200803252015 METAR LMML 252015Z 24010KT 200V280 CAVOK 15/10 Q1012 NOSIG=
200803252000 METAR LMML NIL=
200803251945 METAR LMML 251945Z 24010KT 200V280 CAVOK 14/09 Q1012 NOSIG=
200803251930 METAR LMML NIL=
200803251915 METAR LMML 251915Z 24010KT 200V270 CAVOK 15/10 Q1012 NOSIG=
200803251900 METAR LMML NIL=
200803251845 METAR LMML 251845Z 24010KT 200V280 CAVOK 15/09 Q1012 NOSIG=
200803251830 METAR LMML NIL=
200803251815 METAR LMML 251815Z 24009KT 200V280 CAVOK 14/09 Q1012 NOSIG=
200803251800 METAR LMML NIL=
200803251745 METAR LMML 251745Z 24010KT 200V280 9999 FEW020 15/09 Q1011
                        NOSIG=
200803251730 METAR LMML NIL=
200803251715 METAR LMML 251715Z 25010KT 220V290 9999 FEW020 15/09 Q1011
                        NOSIG=
200803251700 METAR LMML NIL=
200803251645 METAR LMML 251645Z 25011KT 210V290 CAVOK 16/09 Q1011 NOSIG=
200803251630 METAR LMML NIL=
200803251615 METAR LMML 251615Z 25016KT 220V280 CAVOK 16/09 Q1011 NOSIG=
200803251600 METAR LMML NIL=
200803251545 METAR LMML 251545Z 26016KT 230V300 9999 FEW030 16/09 Q1011
                        NOSIG=
200803251530 METAR LMML NIL=
200803251515 METAR LMML 251515Z 26017KT 220V290 9999 FEW030 16/09 Q1011
                        NOSIG=
200803251500 METAR LMML NIL=
200803251445 METAR LMML 251445Z 26017KT 210V290 9999 FEW030 17/09 Q1011
                        NOSIG=
200803251430 METAR LMML NIL=
200803251415 METAR LMML 251415Z 25017KT 210V280 9999 FEW030 17/09 Q1011
                        NOSIG=
200803251400 METAR LMML NIL=
200803251345 METAR LMML 251345Z 24017KT 200V280 9999 FEW030 17/10 Q1011
                        NOSIG=
200803251330 METAR LMML NIL=
200803251315 METAR LMML 251315Z 25018KT 210V290 9999 FEW030 17/09 Q1011
                        NOSIG=
200803251300 METAR LMML NIL=
200803251245 METAR LMML 251245Z 25018KT 190V280 CAVOK 17/10 Q1011 NOSIG=
200803251230 METAR LMML NIL=
200803251215 METAR LMML 251215Z 25016KT 210V290 CAVOK 17/09 Q1011 NOSIG=
200803251200 METAR LMML NIL=
200803251145 METAR LMML 251145Z 26017KT 220V300 CAVOK 17/10 Q1012 NOSIG=
200803251130 METAR LMML NIL=
200803251115 METAR LMML 251115Z 27019KT 220V310 9999 FEW028 17/09 Q1012
                        NOSIG=
200803251100 METAR LMML NIL=
200803251045 METAR LMML 251045Z 26018KT 210V300 9999 FEW028 17/09 Q1012
                        NOSIG=
200803251030 METAR LMML NIL=
200803251015 METAR LMML 251015Z 26019KT 220V300 9999 FEW029 17/09 Q1012
                        NOSIG=
200803251000 METAR LMML NIL=
200803250945 METAR LMML 250945Z 27019KT 230V300 9999 FEW030 17/09 Q1012
                        NOSIG=
200803250930 METAR LMML NIL=
200803250915 METAR LMML 250915Z 28022KT 250V310 9999 SCT028 17/09 Q1012
                        NOSIG=
200803250900 METAR LMML NIL=
200803250845 METAR LMML 250845Z 28022KT 240V310 9999 FEW028 16/09 Q1012
                        NOSIG=
200803250830 METAR LMML NIL=
200803250815 METAR LMML 250815Z 28022KT 240V310 9999 FEW030 16/09 Q1011
                        NOSIG=
200803250800 METAR LMML NIL=
200803250745 METAR LMML 250745Z 28017KT 240V320 9999 FEW030 16/09 Q1011
                        NOSIG=
200803250715 METAR LMML 250715Z 28019KT 9999 FEW030 15/09 Q1011 NOSIG=
200803250645 METAR LMML 250645Z 28019KT 9999 FEW030 15/09 Q1011 NOSIG=
200803250630 METAR LMML NIL=
200803250615 METAR LMML 250615Z 27019G34KT 230V300 9999 FEW030 14/09 Q1010
                        NOSIG=
200803250600 METAR LMML NIL=
200803250545 METAR LMML 250545Z 27019G29KT 240V300 9999 FEW038 14/08 Q1010
                        NOSIG=
200803250530 METAR LMML NIL=
200803250515 METAR LMML 250515Z 28021KT 240V320 9999 SCT034 13/08 Q1010
                        NOSIG=
200803250500 METAR LMML NIL=
200803250445 METAR LMML 250445Z 28019G31KT 250V310 9999 -SHRA BKN033 13/09
                        Q1010 NOSIG=
200803250430 METAR LMML NIL=
200803250415 METAR LMML 250415Z 27019G31KT 230V310 9999 BKN035 14/08 Q1009
                        NOSIG=
200803250400 METAR LMML NIL=
200803250345 METAR LMML 250345Z 27021KT 240V300 9999 FEW030 13/08 Q1009
                        NOSIG=
200803250330 METAR LMML NIL=
200803250315 METAR LMML 250315Z 28021G38KT 240V310 9999 BKN035 13/08 Q1009
                        NOSIG=
200803250300 METAR LMML NIL=
200803250245 METAR LMML 250245Z 28022KT 250V310 9999 FEW034 13/08 Q1009
                        NOSIG=
200803250230 METAR LMML NIL=
200803250215 METAR LMML 250215Z 27026G36KT 240V300 9999 -RA SCT031 BKN060
                        14/05 Q1009 NO SIG=
200803250200 METAR LMML NIL=
200803250145 METAR LMML 250145Z 27023G37KT 240V300 9999 FEW030 14/04 Q1009
                        NOSIG=
200803250130 METAR LMML NIL=
200803250115 METAR LMML 250115Z 30025G37KT 9999 FEW030 13/06 Q1009 NOSIG=
200803250100 METAR LMML NIL=
200803250045 METAR LMML 250045Z 29029G43KT 260V320 9999 FEW030 14/04 Q1009
                        NOSIG=
200803250030 METAR LMML NIL=
200803250015 METAR LMML 250015Z 29028G43KT 9999 FEW030 14/03 Q1009 NOSIG=
200803250000 METAR LMML NIL=
200803242345 METAR LMML 242345Z 28029G40KT 250V310 9999 FEW032 SCT100
                        14/03 Q1009 NOSIG=
200803242330 METAR LMML NIL=
200803242315 METAR LMML 242315Z 28027G45KT 250V310 9999 FEW032 13/06 Q1009
                        NOSIG=
200803242300 METAR LMML NIL=
200803242245 METAR LMML 242245Z 28032G43KT 9999 FEW032 SCT100 13/07 Q1009
                        NOSIG=
200803242215 METAR LMML 242215Z 28024G45KT 250V310 9999 FEW034 SCT100
                        13/07 Q1009 NOSIG=
200803242200 METAR LMML NIL=
200803242145 METAR LMML 242145Z 28027G40KT 240V300 9999 FEW035 BKN100
                        13/07 Q1008 NOSIG=
200803242130 METAR LMML NIL=
200803242115 METAR LMML 242115Z 27023G33KT 230V300 9999 FEW032 SCT090
                        14/07 Q1008 NOSIG=
200803242100 METAR LMML NIL=
200803242045 METAR LMML 242045Z 26019G31KT 220V300 9999 FEW033 SCT110
                        13/08 Q1008 NOSIG=
200803242030 METAR LMML NIL=
200803242015 METAR LMML 242015Z 27021KT 9999 FEW031 SCT080 13/07 Q1008
                        NOSIG=
200803242000 METAR LMML NIL=
200803241945 METAR LMML 241945Z 27017KT 230V310 9999 -RA SCT025 BKN100
                        13/09 Q1008 NOSIG=
200803241930 METAR LMML NIL=
200803241915 METAR LMML 241915Z 28015KT 240V300 9999 RA SCT023 BKN044
                        13/10 Q1008 TEMPO 8000 SHRA=
200803241900 METAR LMML NIL=
200803241845 METAR LMML 241845Z 25018KT 200V290 9999 -RA FEW040 SCT050
                        14/06 Q1007 TEMPO 8000 SHRA=
200803241830 METAR LMML NIL=
200803241815 METAR LMML 241815Z 25018KT 210V290 9999 FEW040 14/04 Q1007
                        NOSIG=
200803241800 METAR LMML NIL=
200803241745 METAR LMML 241745Z 24017G27KT 200V280 9999 FEW043 14/04 Q1006
                        NOSIG=
200803241730 METAR LMML NIL=
200803241715 METAR LMML 241715Z 24015KT 200V280 9999 FEW043 13/04 Q1006
                        NOSIG=
200803241700 METAR LMML NIL=
200803241645 METAR LMML 241645Z 25017KT 210V280 9999 FEW043 14/04 Q1006
                        NOSIG=
200803241630 METAR LMML NIL=
200803241615 METAR LMML 241615Z 25018KT 200V290 9999 FEW043 14/03 Q1007
                        NOSIG=
200803241600 METAR LMML NIL=
200803241545 METAR LMML 241545Z 26019KT 220V300 9999 FEW043 14/04 Q1007
                        NOSIG=
200803241530 METAR LMML NIL=
200803241515 METAR LMML 241515Z 26019G30KT 240V300 9999 FEW042 14/03 Q1006
                        NOSIG=
200803241500 METAR LMML NIL=
200803241445 METAR LMML 241445Z 26021KT 220V290 9999 SCT042 14/04 Q1006
                        TEMPO 27025G35KT=
200803241430 METAR LMML NIL=
200803241415 METAR LMML 241415Z 27021KT 230V310 9999 SCT040 15/04 Q1007
                        TEMPO 27025G35KT=
200803241345 METAR LMML 241345Z 26024KT 220V300 9999 SCT036 14/05 Q1006
                        TEMPO 27025G35KT=
200803241330 METAR LMML NIL=
200803241315 METAR LMML 241315Z 26025KT 220V300 9999 BKN040 15/03 Q1007
                        TEMPO 27025G35KT=
200803241300 METAR LMML NIL=
200803241245 METAR LMML 241245Z 26025KT 230V300 9999 BKN035 14/05 Q1006
                        TEMPO 27025G35KT=
200803241230 METAR LMML NIL=
200803241215 METAR LMML 241215Z 27024KT 210V300 9999 SCT035 14/05 Q1006
                        TEMPO 27025G35KT=
200803241200 METAR LMML NIL=
200803241145 METAR LMML 241145Z 27024G35KT 230V310 9999 SCT037 14/05 Q1006
                        TEMPO 27025G3 5KT=
200803241130 METAR LMML NIL=
200803241115 METAR LMML 241115Z 27022G32KT 230V300 9999 SCT037 14/06 Q1006
                        TEMPO 27025G3 5KT=
200803241100 METAR LMML NIL=
200803241045 METAR LMML 241045Z 26024KT 220V300 9999 SCT035 15/05 Q1006
                        TEMPO 27025G35KT=
200803241030 METAR LMML NIL=
200803241015 METAR LMML 241015Z 26021KT 220V300 9999 SCT033 14/06 Q1006
                        TEMPO 27025G35KT=
200803241000 METAR LMML NIL=
200803240945 METAR LMML 240945Z 27022KT 230V310 9999 SCT027 14/06 Q1005
                        NOSIG=
200803240930 METAR LMML NIL=
200803240915 METAR LMML 240915Z 28020KT 230V310 9999 SCT024 14/08 Q1006
                        NOSIG=
200803240900 METAR LMML NIL=
200803240845 METAR LMML 240845Z 28020KT 250V320 9999 BKN022 13/08 Q1005
                        NOSIG=
200803240830 METAR LMML NIL=
200803240815 METAR LMML 240815Z 27018KT 210V310 9999 BKN024 14/08 Q1004
                        NOSIG=
200803240800 METAR LMML NIL=
200803240745 METAR LMML 240745Z 27018KT 240V310 9999 BKN023 13/09 Q1003
                        NOSIG=
200803240730 METAR LMML NIL=
200803240715 METAR LMML 240715Z 27015KT 230V310 9999 FEW018 SCT032 BKN070
                        12/09 Q1003 NO SIG=
200803240700 METAR LMML NIL=
200803240645 METAR LMML 240645Z 27017KT 230V290 9999 SCT019 OVC050 11/09
                        Q1003 NOSIG=
200803240615 METAR LMML 240615Z 28015KT 250V310 9999 SCT023 OVC048 12/08
                        Q1003 NOSIG=
200803240600 METAR LMML NIL=
200803240545 METAR LMML 240545Z 29020KT 9999 SCT019 BKN046 12/08 Q1003
                        NOSIG=
200803240530 METAR LMML NIL=
200803240515 METAR LMML 240515Z 28019G29KT 250V320 9999 SCT019 BKN034
                        12/09 Q1003 NOSIG=
200803240445 METAR LMML 240445Z 29021KT 260V320 9999 FEW009 SCT016 BKN028
                        11/08 Q1002 NO SIG=
200803240430 METAR LMML NIL=
200803240415 METAR LMML 240415Z 29018G28KT 250V320 9999 -RA FEW012 BKN024
                        13/11 Q1002 NO SIG=
200803240400 METAR LMML NIL=
200803240345 METAR LMML 240345Z 28012KT 9999 SCT025 BKN110 14/10 Q1003
                        NOSIG=
200803240315 METAR LMML 240315Z VRB01KT 9999 SCT024 BKN110 13/10 Q1001
                        NOSIG=
200803240300 METAR LMML NIL=
200803240245 METAR LMML 240245Z 24005KT 200V270 CAVOK 13/10 Q1002 NOSIG=
200803240230 METAR LMML NIL=
200803240215 METAR LMML 240215Z VRB03KT CAVOK 14/10 Q1001 NOSIG=
200803240200 METAR LMML NIL=
200803240145 METAR LMML 240145Z 31010KT CAVOK 14/10 Q1001 NOSIG=
200803240130 METAR LMML NIL=
200803240115 METAR LMML 240115Z 32009KT CAVOK 14/11 Q1002 NOSIG=
200803240100 METAR LMML NIL=
200803240045 METAR LMML 240045Z 33008KT CAVOK 14/10 Q1002 NOSIG=
200803240030 METAR LMML NIL=
200803240015 METAR LMML 240015Z 32010KT CAVOK 14/10 Q1002 NOSIG=
200803240000 METAR LMML NIL=
200803232345 METAR LMML 232345Z 32008KT CAVOK 14/12 Q1002 NOSIG=
200803232330 METAR LMML NIL=
200803232315 METAR LMML 232315Z 33010KT CAVOK 15/12 Q1003 NOSIG=
200803232300 METAR LMML NIL=
200803232245 METAR LMML 232245Z 31009KT CAVOK 15/11 Q1003 NOSIG=
200803232230 METAR LMML NIL=
200803232215 METAR LMML 232215Z 29011KT CAVOK 16/13 Q1002 NOSIG=
200803232200 METAR LMML NIL=
200803232145 METAR LMML 232145Z 25014KT 220V290 CAVOK 18/11 Q1002 NOSIG=
200803232130 METAR LMML NIL=
200803232115 METAR LMML 232115Z 21011KT 170V260 CAVOK 18/11 Q1002 NOSIG=
200803232100 METAR LMML NIL=
200803232045 METAR LMML 232045Z 21008KT 170V250 CAVOK 17/12 Q1002 NOSIG=
200803232030 METAR LMML NIL=
200803232015 METAR LMML 232015Z 21007KT 170V260 CAVOK 17/13 Q1002 NOSIG=
200803232000 METAR LMML NIL=
200803231945 METAR LMML 231945Z 20008KT 160V240 CAVOK 17/13 Q1002 NOSIG=
200803231930 METAR LMML NIL=
200803231915 METAR LMML 231915Z 20009KT 170V240 CAVOK 17/13 Q1001 NOSIG=
200803231900 METAR LMML NIL=
200803231845 METAR LMML 231845Z 20007KT 160V230 CAVOK 16/13 Q1001 NOSIG=
200803231830 LMML NIL=
200803231815 METAR LMML 231815Z 20008KT 170V230 CAVOK 16/13 Q1001 NOSIG=
200803231800 METAR LMML NIL=
200803231745 METAR LMML 231745Z 20007KT 170V230 CAVOK 16/13 Q1000 NOSIG=
200803231730 METAR LMML NIL=
200803231715 METAR LMML 231715Z 20007KT 160V230 CAVOK 16/13 Q1001 NOSIG=
200803231700 METAR LMML NIL=
200803231645 METAR LMML 231645Z 20008KT 170V230 CAVOK 17/13 Q1001 NOSIG=
200803231630 METAR LMML NIL=
200803231615 METAR LMML 231615Z 21009KT 180V250 CAVOK 18/13 Q1001 NOSIG=
200803231600 METAR LMML NIL=
200803231545 METAR LMML 231545Z 21011KT 170V260 CAVOK 18/13 Q1000 NOSIG=
200803231530 METAR LMML NIL=
200803231515 METAR LMML 231515Z 21015KT 170V240 CAVOK 18/13 Q1000 NOSIG=
200803231500 METAR LMML NIL=
200803231445 METAR LMML 231445Z 21012KT 170V260 CAVOK 18/14 Q1000 NOSIG=
200803231430 METAR LMML NIL=
200803231415 METAR LMML 231415Z 21013KT 170V260 CAVOK 18/14 Q1000 NOSIG=
200803231400 METAR LMML NIL=
200803231345 METAR LMML 231345Z 21013KT 170V270 CAVOK 18/14 Q1000 NOSIG=
200803231330 METAR LMML NIL=
200803231315 METAR LMML 231315Z 21014KT 180V250 CAVOK 18/15 Q1000 NOSIG=
200803231300 METAR LMML NIL=
200803231245 METAR LMML 231245Z 21014KT 170V270 CAVOK 18/14 Q1000 NOSIG=
200803231230 METAR LMML NIL=
200803231215 METAR LMML 231215Z 20014KT 150V240 CAVOK 18/15 Q1001 NOSIG=
200803231200 METAR LMML NIL=
200803231145 METAR LMML 231145Z 21013KT 170V240 9999 FEW008 18/15 Q1001
                        NOSIG=
200803231130 METAR LMML NIL=
200803231115 METAR LMML 231115Z 20013KT 170V270 9999 SCT008 18/16 Q1001
                        NOSIG=
200803231100 METAR LMML NIL=
200803231045 METAR LMML 231045Z 21011KT 170V260 9999 SCT008 18/16 Q1001
                        BECMG SCT010=
200803231030 METAR LMML NIL=
200803231015 METAR LMML 231015Z 20012KT 160V240 9999 BKN009 17/15 Q1001
                        BECMG SCT010=
200803231000 METAR LMML NIL=
200803230945 METAR LMML 230945Z 21011KT 170V270 9999 SCT010 17/15 Q1001
                        NOSIG=
200803230930 METAR LMML NIL=
200803230915 METAR LMML 230915Z 20011KT 170V240 9999 SCT010 17/15 Q1001
                        NOSIG=
200803230845 METAR LMML 230845Z 21012KT 160V250 9999 SCT010 17/15 Q1001
                        NOSIG=
200803230830 METAR LMML NIL=
200803230815 METAR LMML 230815Z 21009KT 170V260 9999 SCT009 17/16 Q1001
                        NOSIG=
200803230800 METAR LMML NIL=
200803230745 METAR LMML 230745Z 21005KT 170V250 9999 SCT008 16/16 Q1000
                        NOSIG=
200803230730 METAR LMML NIL=
200803230715 METAR LMML 230715Z 21004KT 160V270 9999 FEW008 16/16 Q1000
                        NOSIG=
200803230700 METAR LMML NIL=
200803230645 METAR LMML 230645Z VRB03KT 9999 FEW020 15/15 Q1000 NOSIG=
200803230630 METAR LMML NIL=
200803230615 METAR LMML 230615Z 23004KT 9999 FEW022 15/14 Q1000 NOSIG=
200803230545 METAR LMML 230545Z 25004KT 220V280 9000 SCT020 14/14 Q1000
                        NOSIG=
200803230530 METAR LMML NIL=
200803230515 METAR LMML 230515Z 25005KT 9000 BKN020 13/13 Q0999 NOSIG=
200803230500 METAR LMML NIL=
200803230445 METAR LMML 230445Z VRB03KT 9000 BKN016 13/13 Q0999 NOSIG=
200803230430 METAR LMML NIL=
200803230415 METAR LMML 230415Z VRB03KT 9000 FEW012 SCT017 13/12 Q0998
                        NOSIG=
200803230400 METAR LMML NIL=
200803230345 METAR LMML 230345Z VRB01KT 9000 FEW012 13/13 Q0998 NOSIG=
200803230330 METAR LMML NIL=
200803230315 METAR LMML 230315Z VRB02KT 9999 FEW012 13/13 Q0998 NOSIG=
200803230245 METAR LMML 230245Z VRB03KT 9999 FEW012 13/13 Q0998 NOSIG=
200803230230 METAR LMML NIL=
200803230215 METAR LMML 230215Z VRB02KT 9999 FEW012 14/14 Q0997 TEMPO
                        8000 RA SCT008=
200803230145 METAR LMML 230145Z VRB03KT 9999 FEW012 SCT044 14/14 Q0998
                        TEMPO 8000 RA SCT 008=
200803230130 METAR LMML NIL=
200803230115 METAR LMML 230115Z VRB02KT 9999 FEW012 BKN030 14/14 Q0998
                        TEMPO 5000 RA BKN 008=
200803230100 METAR LMML NIL=
200803230045 METAR LMML 230045Z VRB03KT 9999 FEW008 OVC035 15/14 Q0998
                        TEMPO 5000 RA BKN 008=
200803230015 METAR LMML 230015Z VRB03KT 7000 -RA FEW008 BKN030 15/14 Q0998
                        TEMPO 5000 RA BKN008=
200803222345 METAR LMML 222345Z 10007KT 070V130 9999 FEW012 BKN033 15/14
                        Q0998 NOSIG=
200803222315 METAR LMML 222315Z 11009KT 9999 FEW010 BKN031 15/14 Q0999
                        NOSIG=
200803222300 METAR LMML NIL=
200803222245 METAR LMML 222245Z 11007KT 9999 FEW012 BKN031 15/14 Q0999
                        NOSIG=
200803222215 METAR LMML 222215Z 11008KT 9999 FEW012 BKN031 15/13 Q0999
                        NOSIG=
200803222200 METAR LMML NIL=
200803222145 METAR LMML 222145Z 09005KT 9999 FEW013 BKN030 15/13 Q0999
                        NOSIG=
200803222130 METAR LMML NIL=
200803222115 METAR LMML 222115Z 07004KT 040V100 9999 FEW013 BKN029 15/13
                        Q0999 NOSIG=
200803222100 METAR LMML NIL=
200803222045 METAR LMML 222045Z 05004KT 020V080 9999 FEW012 BKN029 15/13
                        Q0998 NOSIG=
200803222030 METAR LMML NIL=
200803222015 METAR LMML 222015Z 06004KT 010V090 9999 FEW012 BKN029 15/13
                        Q0999 NOSIG=
200803222000 METAR LMML NIL=
200803221945 METAR LMML 221945Z 07004KT 040V100 9999 FEW014 SCT030 BKN250
                        15/13 Q0999 NO SIG=
200803221930 METAR LMML NIL=
200803221915 METAR LMML 221915Z 09004KT 060V120 9999 FEW014 BKN030 BKN250
                        15/13 Q0999 NO SIG=
200803221900 METAR LMML NIL=
200803221845 METAR LMML 221845Z 11007KT 9999 FEW014 SCT030 BKN250 14/13
                        Q0998 NOSIG=
200803221830 METAR LMML NIL=
200803221815 METAR LMML 221815Z 13006KT 9999 FEW015 SCT120 BKN250 14/12
                        Q0998 NOSIG=
200803221800 METAR LMML NIL=
200803221745 METAR LMML 221745Z 11006KT 9999 FEW016 SCT120 BKN250 14/12
                        Q0998 NOSIG=
200803221730 METAR LMML NIL=
200803221715 METAR LMML 221715Z 09004KT 9999 FEW017 SCT060 BKN250 15/11
                        Q0998 NOSIG=
200803221700 METAR LMML NIL=
200803221645 METAR LMML 221645Z 11006KT 080V150 CAVOK 15/11 Q0998 NOSIG=
200803221630 METAR LMML NIL=
200803221615 METAR LMML 221615Z 11008KT CAVOK 15/11 Q0998 NOSIG=
200803221600 METAR LMML NIL=
200803221545 METAR LMML 221545Z 12011KT CAVOK 15/10 Q0998 NOSIG=
200803221530 METAR LMML NIL=
200803221515 METAR LMML 221515Z 12011KT CAVOK 15/10 Q0998 NOSIG=
200803221500 METAR LMML NIL=
200803221445 METAR LMML 221445Z 13014KT CAVOK 15/10 Q0998 NOSIG=
200803221430 METAR LMML NIL=
200803221415 METAR LMML 221415Z 13012KT CAVOK 15/10 Q0999 NOSIG=
200803221400 METAR LMML NIL=
200803221345 METAR LMML 221345Z 14010KT 100V190 CAVOK 16/11 Q0999 NOSIG=
200803221330 METAR LMML NIL=
200803221315 METAR LMML 221315Z 15010KT CAVOK 15/10 Q1000 NOSIG=
200803221300 METAR LMML NIL=
200803221245 METAR LMML 221245Z 15007KT 110V180 9999 FEW025 SCT120 BKN250
                        15/10 Q1001 NO SIG=
200803221230 METAR LMML NIL=
200803221215 METAR LMML 221215Z 15009KT 120V190 9999 FEW025 SCT120 BKN250
                        15/10 Q1001 NO SIG=
200803221200 METAR LMML NIL=
200803221145 METAR LMML 221145Z 16006KT 120V210 9999 FEW024 SCT120 BKN250
                        15/10 Q1002 NO SIG=
200803221130 METAR LMML NIL=
200803221115 METAR LMML 221115Z 15009KT 110V180 9999 FEW023 SCT120 BKN250
                        15/10 Q1002 NO SIG=
200803221100 METAR LMML NIL=
200803221045 METAR LMML 221045Z 17008KT 130V220 9999 FEW023 SCT120 BKN250
                        15/10 Q1003 NO SIG=
200803221030 METAR LMML NIL=
200803221015 METAR LMML 221015Z 17008KT 130V230 CAVOK 15/10 Q1003 NOSIG=
200803221000 METAR LMML NIL=
200803220945 METAR LMML 220945Z 18010KT 140V210 CAVOK 15/09 Q1003 NOSIG=
200803220930 METAR LMML NIL=
200803220915 METAR LMML 220915Z 18009KT 150V220 CAVOK 15/09 Q1004 NOSIG=
200803220900 METAR LMML NIL=
200803220845 METAR LMML 220845Z 18010KT 140V220 9999 FEW030 BKN250 15/09
                        Q1004 NOSIG=
200803220830 METAR LMML NIL=
200803220815 METAR LMML 220815Z 18009KT 140V230 9999 FEW030 BKN250 15/09
                        Q1004 NOSIG=
200803220800 METAR LMML NIL=
200803220745 METAR LMML 220745Z 19008KT 150V260 9999 FEW030 BKN250 15/09
                        Q1004 NOSIG=
200803220730 METAR LMML NIL=
200803220715 METAR LMML 220715Z 19010KT 150V220 9999 FEW030 BKN250 14/08
                        Q1004 NOSIG=
200803220700 METAR LMML NIL=
200803220645 METAR LMML 220645Z 19009KT 150V220 9999 FEW030 BKN250 14/08
                        Q1004 NOSIG=
200803220630 METAR LMML NIL=
200803220615 METAR LMML 220615Z 19008KT 150V220 9999 FEW028 BKN250 13/08
                        Q1004 NOSIG=
200803220600 METAR LMML NIL=
200803220545 METAR LMML 220545Z 19006KT 160V220 9999 FEW028 BKN250 12/08
                        Q1004 NOSIG=
200803220530 METAR LMML NIL=
200803220515 METAR LMML 220515Z 20004KT 9999 FEW028 BKN250 11/08 Q1003
                        NOSIG=
200803220445 METAR LMML 220445Z VRB03KT 9999 FEW028 BKN250 11/08 Q1003
                        NOSIG=
200803220430 METAR LMML NIL=
200803220415 METAR LMML 220415Z VRB02KT 9999 FEW040 BKN250 11/07 Q1003
                        NOSIG=
200803220400 METAR LMML NIL=
200803220345 METAR LMML 220345Z VRB03KT 9999 FEW040 BKN250 11/07 Q1004
                        NOSIG=
200803220330 METAR LMML NIL=
200803220315 METAR LMML 220315Z VRB03KT CAVOK 11/07 Q1004 NOSIG=
200803220300 METAR LMML NIL=
200803220245 METAR LMML 220245Z VRB03KT CAVOK 11/07 Q1005 NOSIG=
200803220230 METAR LMML NIL=
200803220215 METAR LMML 220215Z 25004KT CAVOK 11/07 Q1005 NOSIG=
200803220200 METAR LMML NIL=
200803220145 METAR LMML 220145Z 24004KT CAVOK 11/07 Q1006 NOSIG=
200803220130 METAR LMML NIL=
200803220115 METAR LMML 220115Z VRB03KT CAVOK 11/07 Q1006 NOSIG=
200803220100 METAR LMML NIL=
200803220045 METAR LMML 220045Z 27004KT CAVOK 11/07 Q1006 NOSIG=
200803220015 METAR LMML 220015Z 26004KT CAVOK 11/07 Q1007 NOSIG=
200803220000 METAR LMML NIL=
200803212345 METAR LMML 212345Z 27006KT CAVOK 12/06 Q1007 NOSIG=
200803212330 METAR LMML NIL=
200803212315 METAR LMML 212315Z 24004KT CAVOK 11/06 Q1007 NOSIG=
200803212300 METAR LMML NIL=
200803212245 METAR LMML 212245Z 26004KT 230V290 CAVOK 11/06 Q1007 NOSIG=
200803212230 METAR LMML NIL=
200803212215 METAR LMML 212215Z 29005KT 240V320 9999 FEW040 BKN250 11/06
                        Q1008 NOSIG=
200803212200 METAR LMML NIL=
200803212145 METAR LMML 212145Z 27005KT 230V300 9999 FEW040 SCT250 12/05
                        Q1008 NOSIG=
200803212130 METAR LMML NIL=
200803212115 METAR LMML 212115Z 30008KT 9999 FEW040 SCT250 12/06 Q1008
                        NOSIG=
200803212100 METAR LMML NIL=
200803212045 METAR LMML 212045Z 28009KT 9999 SCT039 12/05 Q1008 NOSIG=
200803212030 METAR LMML NIL=
200803212015 METAR LMML 212015Z 29008KT 260V320 9999 FEW038 12/05 Q1008
                        NOSIG=
200803212000 METAR LMML NIL=
200803211945 METAR LMML 211945Z 29009KT 9999 FEW038 12/05 Q1008 NOSIG=
200803211930 METAR LMML NIL=
200803211915 METAR LMML 211915Z 29008KT 9999 FEW038 12/05 Q1008 NOSIG=
200803211900 METAR LMML NIL=
200803211845 METAR LMML 211845Z 30010KT 9999 FEW028 12/03 Q1008 NOSIG=
200803211830 METAR LMML NIL=
200803211815 METAR LMML 211815Z 29009KT 9999 SCT029 12/07 Q1007 NOSIG=
200803211800 METAR LMML NIL=
200803211745 METAR LMML 211745Z 30008KT 9999 FEW035 12/06 Q1007 NOSIG=
200803211730 METAR LMML NIL=
200803211715 METAR LMML 211715Z 29010KT 9999 FEW035 13/05 Q1007 NOSIG=
200803211700 METAR LMML NIL=
200803211645 METAR LMML 211645Z 29012KT 250V330 9999 FEW035 13/05 Q1007
                        NOSIG=
200803211630 METAR LMML NIL=
200803211615 METAR LMML 211615Z 29013KT 250V320 9999 FEW035 14/05 Q1007
                        NOSIG=
200803211600 METAR LMML NIL=
200803211545 METAR LMML 211545Z 29015KT 240V330 9999 SCT032 14/07 Q1007
                        NOSIG=
200803211530 METAR LMML NIL=
200803211515 METAR LMML 211515Z 29014KT 9999 SCT029 14/08 Q1007 NOSIG=
200803211500 METAR LMML NIL=
200803211445 METAR LMML 211445Z 30014KT 9999 BKN033 15/08 Q1007 NOSIG=
200803211430 METAR LMML NIL=
200803211415 METAR LMML 211415Z 30015KT 9999 FEW036 15/07 Q1008 NOSIG=
200803211345 METAR LMML 211345Z 28013KT 250V320 9999 FEW040 15/07 Q1008
                        NOSIG=
200803211330 METAR LMML NIL=
200803211315 METAR LMML 211315Z 28015KT 240V320 9999 FEW040 16/05 Q1008
                        NOSIG=
200803211300 METAR LMML NIL=
200803211245 METAR LMML 211245Z 30014KT 250V330 9999 FEW041 17/06 Q1008
                        NOSIG=
200803211230 METAR LMML NIL=
200803211215 METAR LMML 211215Z 31014KT 9999 FEW048 16/05 Q1008 NOSIG=
200803211200 METAR LMML NIL=
200803211145 METAR LMML 211145Z 33014KT 9999 FEW040 16/05 Q1009 NOSIG=
200803211130 METAR LMML NIL=
200803211115 METAR LMML 211115Z 32015KT 290V350 9999 FEW040 16/05 Q1009
                        NOSIG=
200803211100 METAR LMML NIL=
200803211045 METAR LMML 211045Z 32016KT 9999 FEW040 16/06 Q1009 NOSIG=
200803211015 METAR LMML 211015Z 31014KT 270V340 9999 FEW040 16/06 Q1009
                        NOSIG=
200803210945 METAR LMML 210945Z 31018KT 9999 FEW040 16/05 Q1009 NOSIG=
200803210930 METAR LMML NIL=
200803210915 METAR LMML 210915Z 31015KT 270V330 9999 FEW034 16/07 Q1009
                        NOSIG=
200803210900 METAR LMML NIL=
200803210845 METAR LMML 210845Z 31015KT 280V340 9999 FEW033 15/08 Q1009
                        NOSIG=
200803210830 METAR LMML NIL=
200803210815 METAR LMML 210815Z 32014KT 290V350 9999 FEW025 15/09 Q1009
                        NOSIG=
200803210800 METAR LMML NIL=
200803210745 METAR LMML 210745Z 31014KT 9999 FEW020 15/10 Q1008 NOSIG=
200803210730 METAR LMML NIL=
200803210715 METAR LMML 210715Z 31012KT 9999 FEW020 14/10 Q1008 NOSIG=
200803210700 METAR LMML NIL=
200803210645 METAR LMML 210645Z 30009KT 9999 FEW020 13/09 Q1008 NOSIG=
200803210630 METAR LMML NIL=
200803210615 METAR LMML 210615Z 30008KT 9999 FEW015 13/09 Q1007 NOSIG=
200803210600 METAR LMML NIL=
200803210545 METAR LMML 210545Z 30010KT 9999 FEW020 12/09 Q1007 NOSIG=
200803210530 METAR LMML NIL=
200803210515 METAR LMML 210515Z 30009KT 9999 FEW020 SCT100 12/10 Q1007
                        NOSIG=
200803210500 METAR LMML NIL=
200803210445 METAR LMML 210445Z 31012KT 9999 FEW020 SCT100 12/10 Q1007
                        NOSIG=
200803210430 METAR LMML NIL=
200803210415 METAR LMML 210415Z 30013KT 9999 FEW025 BKN100 13/10 Q1007
                        NOSIG=
200803210400 METAR LMML NIL=
200803210345 METAR LMML 210345Z 30011KT 9999 FEW025 BKN100 13/10 Q1007
                        NOSIG=
200803210330 METAR LMML NIL=
200803210315 METAR LMML 210315Z 30012KT 9999 FEW025 BKN100 13/11 Q1007
                        NOSIG=
200803210300 METAR LMML NIL=
200803210245 METAR LMML 210245Z 31011KT 9999 FEW025 BKN100 13/11 Q1007
                        NOSIG=
200803210215 METAR LMML 210215Z 31011KT 9999 FEW025 BKN100 13/11 Q1007
                        NOSIG=
200803210200 METAR LMML NIL=
200803210145 METAR LMML 210145Z 31010KT 9999 FEW025 BKN080 13/11 Q1007
                        NOSIG RMK LIGHTNI NG TO SE=
200803210130 METAR LMML NIL=
200803210115 METAR LMML 210115Z 32010KT 280V340 9999 FEW025 BKN090 14/10
                        Q1008 NOSIG=
200803210100 METAR LMML NIL=
200803210045 METAR LMML 210045Z 33008KT 300V360 9999 SHRA FEW025 SCT060
                        BKN080 14/10 Q10 07 NOSIG=
200803210015 METAR LMML 210015Z 29007KT 9999 FEW025 BKN080 14/11 Q1008
                        NOSIG=
200803202345 METAR LMML 202345Z 30006KT 9999 FEW025 BKN080 14/12 Q1007
                        NOSIG=
200803202330 METAR LMML NIL=
200803202315 METAR LMML 202315Z 31008KT 280V340 9999 FEW025 SCT080 BKN250
                        14/12 Q1007 NO SIG=
200803202300 METAR LMML NIL=
200803202245 METAR LMML 202245Z 32013KT 9999 FEW025 SCT100 BKN250 14/12
                        Q1007 NOSIG=
200803202230 METAR LMML NIL=
200803202215 METAR LMML 202215Z 32010KT 9999 FEW025 SCT100 BKN250 14/13
                        Q1007 NOSIG=
200803202200 METAR LMML NIL=
200803202145 METAR LMML 202145Z 32009KT 9999 SHRA FEW025 SCT060 BKN100
                        14/13 Q1007 NOSIG RMK LIGHTNING TO
                        W=
200803202130 METAR LMML NIL=
200803202115 METAR LMML 202115Z 33008KT 9999 SCT030 BKN100 14/12 Q1007
                        NOSIG=
200803202100 METAR LMML NIL=
200803202045 METAR LMML 202045Z 32005KT 9999 FEW040 BKN120 14/13 Q1007
                        NOSIG=
200803202015 METAR LMML 202015Z 34008KT 9999 FEW040 SCT110 14/12 Q1007
                        NOSIG=
200803202000 METAR LMML NIL=
200803201945 METAR LMML 201945Z 33006KT 290V360 9999 -RA SCT040 BKN110
                        14/12 Q1007 TEMPO 7000 SHRA=
200803201930 METAR LMML NIL=
200803201915 METAR LMML 201915Z 33005KT CAVOK 14/12 Q1007 TEMPO 7000 SHRA=
200803201900 METAR LMML NIL=
200803201845 METAR LMML 201845Z 32004KT CAVOK 14/11 Q1007 NOSIG=
200803201830 METAR LMML NIL=
200803201815 METAR LMML 201815Z 32004KT CAVOK 14/11 Q1007 NOSIG=
200803201800 METAR LMML NIL=
200803201745 METAR LMML 201745Z VRB03KT CAVOK 14/10 Q1007 NOSIG=
200803201730 METAR LMML NIL=
200803201715 METAR LMML 201715Z VRB03KT CAVOK 15/10 Q1007 NOSIG=
200803201700 METAR LMML NIL=
200803201645 METAR LMML 201645Z VRB03KT 9999 FEW015 BKN250 15/11 Q1007
                        NOSIG=
200803201630 METAR LMML NIL=
200803201615 METAR LMML 201615Z 32004KT 270V360 9999 FEW015 BKN250 16/12
                        Q1007 NOSIG=
200803201600 METAR LMML NIL=
200803201545 METAR LMML 201545Z VRB03KT 9999 FEW015 BKN150 16/12 Q1007
                        NOSIG=
200803201530 METAR LMML NIL=
200803201515 METAR LMML 201515Z VRB03KT 9999 FEW015 SCT120 BKN150 16/13
                        Q1008 NOSIG=
200803201500 METAR LMML NIL=
200803201445 METAR LMML 201445Z VRB03KT 9999 FEW015 SCT120 BKN150 16/12
                        Q1007 NOSIG=
200803201430 METAR LMML NIL=
200803201415 METAR LMML 201415Z 33004KT 270V020 CAVOK 16/12 Q1007 NOSIG=
200803201400 METAR LMML NIL=
200803201345 METAR LMML 201345Z VRB02KT CAVOK 16/12 Q1007 NOSIG=
200803201330 METAR LMML NIL=
200803201315 METAR LMML 201315Z 32005KT 280V340 CAVOK 16/12 Q1008 NOSIG=
200803201300 METAR LMML NIL=
200803201245 METAR LMML 201245Z 35006KT CAVOK 17/12 Q1007 NOSIG=
200803201230 METAR LMML NIL=
200803201215 METAR LMML 201215Z 36008KT 330V030 CAVOK 18/12 Q1007 NOSIG=
200803201200 METAR LMML NIL=
200803201145 METAR LMML 201145Z VRB03KT CAVOK 18/12 Q1008 NOSIG=
200803201130 METAR LMML NIL=
200803201115 METAR LMML 201115Z 34005KT 310V010 CAVOK 16/11 Q1009 NOSIG=
200803201100 METAR LMML NIL=
200803201045 METAR LMML 201045Z 32010KT CAVOK 16/12 Q1010 NOSIG=
200803201030 METAR LMML NIL=
200803201015 METAR LMML 201015Z 34010KT CAVOK 16/12 Q1009 NOSIG=
200803201000 METAR LMML NIL=
200803200945 METAR LMML 200945Z 34012KT CAVOK 16/12 Q1009 NOSIG=
200803200930 METAR LMML NIL=
200803200915 METAR LMML 200915Z 34009KT 310V030 CAVOK 16/12 Q1009 NOSIG=
200803200900 METAR LMML NIL=
200803200845 METAR LMML 200845Z 33010KT CAVOK 16/12 Q1010 NOSIG=
200803200830 METAR LMML NIL=
200803200815 METAR LMML 200815Z 33009KT CAVOK 15/12 Q1010 NOSIG=
200803200800 METAR LMML NIL=
200803200745 METAR LMML 200745Z 32010KT CAVOK 15/12 Q1009 NOSIG=
200803200730 METAR LMML NIL=
200803200700 METAR LMML NIL=
200803200645 METAR LMML 200645Z 33008KT CAVOK 14/12 Q1008 NOSIG=
200803200615 METAR LMML 200615Z 32005KT 290V360 CAVOK 14/13 Q1008 NOSIG=
200803200600 METAR LMML NIL=
200803200545 METAR LMML 200545Z 33005KT CAVOK 13/12 Q1008 NOSIG=
200803200530 METAR LMML NIL=
200803200515 METAR LMML 200515Z 32005KT CAVOK 13/12 Q1008 NOSIG=
200803200445 METAR LMML 200445Z 32004KT 280V350 CAVOK 13/13 Q1008 NOSIG=
200803200430 METAR LMML NIL=
200803200415 METAR LMML 200415Z 32006KT 290V350 CAVOK 13/13 Q1008 NOSIG=
200803200345 METAR LMML 200345Z 31005KT CAVOK 13/12 Q1008 NOSIG=
200803200330 METAR LMML NIL=
200803200315 METAR LMML 200315Z VRB03KT CAVOK 13/11 Q1008 NOSIG=
200803200300 METAR LMML NIL=
200803200245 METAR LMML 200245Z VRB01KT CAVOK 13/11 Q1008 NOSIG=
200803200230 METAR LMML NIL=
200803200215 METAR LMML 200215Z VRB02KT CAVOK 13/11 Q1008 NOSIG=
200803200200 METAR LMML NIL=
200803200145 METAR LMML 200145Z VRB03KT CAVOK 14/11 Q1009 NOSIG=
200803200130 METAR LMML NIL=
200803200100 METAR LMML NIL=
200803200045 METAR LMML 200045Z 34006KT 310V010 CAVOK 14/13 Q1009 NOSIG=
200803200030 METAR LMML NIL=
200803200015 METAR LMML 200015Z 34005KT CAVOK 14/13 Q1009 NOSIG=
200803200000 METAR LMML NIL=
200803192345 METAR LMML 192345Z VRB03KT CAVOK 14/13 Q1009 NOSIG=
200803192330 METAR LMML NIL=
200803192315 METAR LMML 192315Z 32004KT CAVOK 14/13 Q1010 NOSIG=
200803192300 METAR LMML NIL=
200803192245 METAR LMML 192245Z 32005KT 290V360 CAVOK 15/13 Q1010 NOSIG=
200803192230 METAR LMML NIL=
200803192215 METAR LMML 192215Z 33005KT CAVOK 15/13 Q1010 NOSIG=
200803192200 METAR LMML NIL=
200803192145 METAR LMML 192145Z 33006KT 290V020 CAVOK 15/14 Q1010 NOSIG=
200803192130 METAR LMML NIL=
200803192115 METAR LMML 192115Z 34007KT CAVOK 15/14 Q1009 NOSIG=
200803192100 METAR LMML NIL=
200803192045 METAR LMML 192045Z 33009KT CAVOK 15/13 Q1009 NOSIG=
200803192030 METAR LMML NIL=
200803192015 METAR LMML 192015Z 33008KT CAVOK 15/13 Q1009 NOSIG=
200803192000 METAR LMML NIL=
200803191945 METAR LMML 191945Z 32007KT 9999 FEW012 BKN250 14/13 Q1009
                        NOSIG=
200803191930 METAR LMML NIL=
200803191915 METAR LMML 191915Z VRB02KT 9999 FEW012 BKN120 14/13 Q1009
                        NOSIG=
200803191900 METAR LMML NIL=
200803191845 METAR LMML 191845Z 30005KT 9999 FEW012 BKN120 15/13 Q1009
                        NOSIG=
200803191815 METAR LMML 191815Z 32004KT 9999 FEW012 BKN120 15/13 Q1009
                        NOSIG=
200803191800 METAR LMML NIL=
200803191745 METAR LMML 191745Z 32004KT 9999 FEW012 SCT120 BKN150 15/13
                        Q1009 NOSIG=
200803191730 METAR LMML NIL=
200803191715 METAR LMML 191715Z VRB02KT 9999 FEW012 BKN120 BKN150 15/13
                        Q1009 NOSIG=
200803191700 METAR LMML NIL=
200803191645 METAR LMML 191645Z 29004KT 230V320 9999 FEW011 BKN120 BKN150
                        16/13 Q1009 NO SIG=
200803191630 METAR LMML NIL=
200803191615 METAR LMML 191615Z 31009KT 270V340 9999 FEW012 SCT120 OVC150
                        16/14 Q1009 NO SIG=
200803191600 METAR LMML NIL=
200803191545 METAR LMML 191545Z 35012KT 9999 FEW012 SCT130 OVC150 16/13
                        Q1007 NOSIG=
200803191515 METAR LMML 191515Z 33007KT 280V350 9999 FEW012 SCT130 OVC150
                        16/13 Q1008 NO SIG=
200803191500 METAR LMML NIL=
200803191445 METAR LMML 191445Z 31007KT 9999 FEW012 SCT120 OVC150 17/13
                        Q1008 NOSIG=
200803191430 METAR LMML NIL=
200803191415 METAR LMML 191415Z 27005KT 210V300 9999 FEW012 SCT120 OVC150
                        17/12 Q1009 NO SIG=
200803191400 METAR LMML NIL=
200803191345 METAR LMML 191345Z 31008KT 280V340 CAVOK 18/13 Q1008 NOSIG=
200803191330 METAR LMML NIL=
200803191315 METAR LMML 191315Z 31006KT 260V340 CAVOK 18/13 Q1008 NOSIG=
200803191300 METAR LMML NIL=
200803191245 METAR LMML 191245Z VRB03KT CAVOK 18/13 Q1008 NOSIG=
200803191215 METAR LMML 191215Z VRB02KT CAVOK 18/12 Q1008 NOSIG=
200803191145 METAR LMML 191145Z 28008KT 230V310 9999 FEW018 SCT120 BKN250
                        19/12 Q1010 NO SIG=
200803191130 METAR LMML NIL=
200803191115 METAR LMML 191115Z 27010KT 230V310 9999 FEW018 SCT120 BKN250
                        19/13 Q1010 NO SIG=
200803191100 METAR LMML NIL=
200803191045 METAR LMML 191045Z 27009KT 230V310 CAVOK 19/12 Q1010 NOSIG=
200803191030 METAR LMML NIL=
200803191015 METAR LMML 191015Z 29005KT 220V330 CAVOK 19/10 Q1009 NOSIG=
200803191000 METAR LMML NIL=
200803190945 METAR LMML 190945Z 29004KT 220V350 CAVOK 19/13 Q1010 NOSIG=
200803190930 METAR LMML NIL=
200803190915 METAR LMML 190915Z 29005KT 250V330 CAVOK 18/14 Q1009 NOSIG=
200803190900 METAR LMML NIL=
200803190845 METAR LMML 190845Z 30009KT CAVOK 18/13 Q1009 NOSIG=
200803190830 METAR LMML NIL=
200803190815 METAR LMML 190815Z 31009KT 9999 FEW011 SCT250 17/14 Q1009
                        NOSIG=
200803190800 METAR LMML NIL=
200803190745 METAR LMML 190745Z 31009KT 9999 FEW011 SCT250 16/15 Q1010
                        NOSIG=
200803190730 METAR LMML NIL=
200803190715 METAR LMML 190715Z 31007KT 270V340 9999 FEW011 SCT250 16/15
                        Q1009 NOSIG=
200803190700 METAR LMML NIL=
200803190645 METAR LMML 190645Z 29010KT 9999 FEW011 BKN250 15/15 Q1010
                        NOSIG=
200803190630 METAR LMML NIL=
200803190615 METAR LMML 190615Z VRB03KT 9999 FEW011 BKN250 14/13 Q1009
                        NOSIG=
200803190600 METAR LMML NIL=
200803190545 METAR LMML 190545Z 27005KT 9000 FEW130 BKN250 14/13 Q1009
                        NOSIG=
200803190515 METAR LMML 190515Z 27004KT 220V300 9000 FEW130 BKN250 14/12
                        Q1008 NOSIG=
200803190500 METAR LMML NIL=
200803190445 METAR LMML 190445Z 23004KT 9000 FEW120 BKN250 13/12 Q1008
                        TEMPO 5000 BR FEW 012=
200803190430 METAR LMML NIL=
200803190415 METAR LMML 190415Z 31004KT 9000 SCT250 14/12 Q1008 TEMPO
                        5000 BR FEW012=
200803190345 METAR LMML 190345Z 30004KT 9000 SCT250 13/12 Q1008 TEMPO
                        5000 BR FEW012=
200803190315 METAR LMML 190315Z 31006KT 7000 FEW120 13/12 Q1007 TEMPO
                        5000 BR FEW012=
200803190245 METAR LMML 190245Z 30004KT 7000 FEW120 SCT250 13/13 Q1008
                        TEMPO 5000 BR FEW 012=
200803190215 METAR LMML 190215Z 31005KT 6000 SCT120 13/13 Q1008 TEMPO
                        5000 BR FEW012=
200803190200 METAR LMML NIL=
200803190145 METAR LMML 190145Z 29004KT 3000 R14/0643VP1500U BR FEW012
                        13/13 Q1008 TEMPO 3000 BR FEW012=
200803190115 METAR LMML 190115Z VRB03KT 4000 BR FEW012 13/13 Q1008 TEMPO
                        3000 BR FEW012=
200803190100 METAR LMML NIL=
200803190045 METAR LMML 190045Z 33006KT 6000 FEW012 14/13 Q1008 TEMPO
                        5000 BR FEW012=
200803190030 METAR LMML NIL=
200803190015 METAR LMML 190015Z 32006KT 7000 FEW012 14/13 Q1009 TEMPO
                        7000 FEW012=
200803190000 METAR LMML NIL=
200803182345 METAR LMML 182345Z 33006KT CAVOK 15/14 Q1009 NOSIG=
200803182330 METAR LMML NIL=
200803182315 METAR LMML 182315Z 34005KT CAVOK 14/12 Q1009 NOSIG=
200803182245 METAR LMML 182245Z VRB03KT CAVOK 15/12 Q1009 NOSIG=
200803182215 METAR LMML 182215Z VRB02KT CAVOK 15/11 Q1009 NOSIG=
200803182145 METAR LMML 182145Z 27004KT CAVOK 16/12 Q1008 NOSIG=
200803182115 METAR LMML 182115Z VRB03KT CAVOK 16/14 Q1009 NOSIG=
200803182045 METAR LMML 182045Z VRB03KT CAVOK 15/14 Q1009 NOSIG=
200803182030 METAR LMML NIL=
200803182015 METAR LMML 182015Z VRB03KT CAVOK 16/15 Q1009 NOSIG=
200803182000 METAR LMML NIL=
200803181945 METAR LMML 181945Z VRB02KT CAVOK 16/15 Q1009 NOSIG=
200803181930 METAR LMML NIL=
200803181915 METAR LMML 181915Z VRB03KT CAVOK 16/15 Q1008 NOSIG=
200803181900 METAR LMML NIL=
200803181845 METAR LMML 181845Z 20005KT 170V230 CAVOK 16/15 Q1008 NOSIG=
200803181830 METAR LMML NIL=
200803181815 METAR LMML 181815Z 20006KT 170V230 CAVOK 16/15 Q1008 NOSIG=
200803181800 METAR LMML NIL=
200803181745 METAR LMML 181745Z 20006KT 160V230 CAVOK 16/15 Q1008 NOSIG=
200803181730 METAR LMML NIL=
200803181715 METAR LMML 181715Z 20007KT 160V230 CAVOK 16/15 Q1008 NOSIG=
200803181700 METAR LMML NIL=
200803181645 METAR LMML 181645Z 20008KT 170V230 CAVOK 17/15 Q1008 NOSIG=
200803181630 METAR LMML NIL=
200803181615 METAR LMML 181615Z 20008KT 160V240 CAVOK 17/15 Q1008 NOSIG=
200803181600 METAR LMML NIL=
200803181545 METAR LMML 181545Z 20009KT 170V230 CAVOK 18/15 Q1009 NOSIG=
200803181530 METAR LMML NIL=
200803181515 METAR LMML 181515Z 21010KT 170V240 CAVOK 18/15 Q1009 NOSIG=
200803181500 METAR LMML NIL=
200803181445 METAR LMML 181445Z 20010KT 170V260 CAVOK 19/15 Q1009 NOSIG=
200803181430 METAR LMML NIL=
200803181415 METAR LMML 181415Z 20012KT 170V240 CAVOK 19/15 Q1009 NOSIG=
200803181345 METAR LMML 181345Z 20012KT 140V240 CAVOK 19/15 Q1009 NOSIG=
200803181330 METAR LMML NIL=
200803181315 METAR LMML 181315Z 19012KT 150V240 CAVOK 19/14 Q1010 NOSIG=
200803181300 METAR LMML NIL=
200803181245 METAR LMML 181245Z 19013KT 160V220 CAVOK 18/13 Q1010 NOSIG=
200803181230 METAR LMML NIL=
200803181215 METAR LMML 181215Z 19012KT 160V270 CAVOK 19/12 Q1011 NOSIG=
200803181200 METAR LMML NIL=
200803181145 METAR LMML 181145Z 18012KT 140V220 CAVOK 19/10 Q1011 NOSIG=
200803181130 METAR LMML NIL=
200803181115 METAR LMML 181115Z 18010KT 150V230 CAVOK 19/10 Q1011 NOSIG=
200803181100 METAR LMML NIL=
200803181045 METAR LMML 181045Z 19011KT 140V280 CAVOK 18/11 Q1012 NOSIG=
200803181030 METAR LMML NIL=
200803181015 METAR LMML 181015Z 19009KT 150V240 CAVOK 18/12 Q1012 NOSIG=
200803181000 METAR LMML NIL=
200803180945 METAR LMML 180945Z 19010KT 170V230 CAVOK 17/13 Q1012 NOSIG=
200803180930 METAR LMML NIL=
200803180915 METAR LMML 180915Z 20009KT 170V260 CAVOK 17/13 Q1012 NOSIG=
200803180900 METAR LMML NIL=
200803180845 METAR LMML 180845Z 21010KT 180V250 9999 FEW044 BKN250 17/12
                        Q1012 NOSIG=
200803180830 METAR LMML NIL=
200803180815 METAR LMML 180815Z 21008KT 170V260 9999 FEW044 17/13 Q1012
                        NOSIG=
200803180800 METAR LMML NIL=
200803180745 METAR LMML 180745Z 22006KT 180V270 9999 BKN046 16/13 Q1012
                        NOSIG=
200803180730 METAR LMML NIL=
200803180715 METAR LMML 180715Z 21005KT 180V260 9999 BKN044 15/13 Q1012
                        NOSIG=
200803180700 METAR LMML NIL=
200803180645 METAR LMML 180645Z 22006KT 190V260 9999 FEW013 BKN250 15/13
                        Q1012 NOSIG=
200803180630 METAR LMML NIL=
200803180615 METAR LMML 180615Z 22007KT 200V260 9999 FEW013 BKN250 15/13
                        Q1012 NOSIG=
200803180600 METAR LMML NIL=
200803180545 METAR LMML 180545Z 22007KT 9999 FEW013 BKN250 14/13 Q1012
                        NOSIG=
200803180530 METAR LMML NIL=
200803180515 METAR LMML 180515Z 23007KT 200V270 9999 FEW013 SCT048 14/13
                        Q1012 NOSIG=
200803180500 METAR LMML NIL=
200803180445 METAR LMML 180445Z VRB03KT 9999 FEW012 12/12 Q1012 NOSIG=
200803180430 METAR LMML NIL=
200803180415 METAR LMML 180415Z VRB01KT 9999 FEW012 12/11 Q1012 NOSIG=
200803180400 METAR LMML NIL=
200803180345 METAR LMML 180345Z 25006KT 220V280 9999 FEW012 12/12 Q1012
                        NOSIG=
200803180330 METAR LMML NIL=
200803180315 METAR LMML 180315Z VRB01KT CAVOK 12/11 Q1012 NOSIG=
200803180300 METAR LMML NIL=
200803180245 METAR LMML 180245Z 26007KT 230V290 CAVOK 12/12 Q1012 NOSIG=
200803180230 METAR LMML NIL=
200803180215 METAR LMML 180215Z VRB01KT CAVOK 12/11 Q1012 NOSIG=
200803180200 METAR LMML NIL=
200803180145 METAR LMML 180145Z 26006KT 220V280 CAVOK 12/11 Q1012 NOSIG=
200803180130 METAR LMML NIL=
200803180115 METAR LMML 180115Z 26006KT 220V290 CAVOK 12/11 Q1012 NOSIG=
200803180100 METAR LMML NIL=
200803180045 METAR LMML 180045Z 26006KT 220V300 CAVOK 12/11 Q1013 NOSIG=
200803180030 METAR LMML NIL=
200803180015 METAR LMML 180015Z VRB03KT CAVOK 13/11 Q1013 NOSIG=
200803180000 METAR LMML NIL=
200803172345 METAR LMML 172345Z 27008KT CAVOK 13/11 Q1013 NOSIG=
200803172330 METAR LMML NIL=
200803172315 METAR LMML 172315Z 28011KT CAVOK 13/11 Q1013 NOSIG=
200803172300 METAR LMML NIL=
200803172245 METAR LMML 172245Z 27008KT CAVOK 13/12 Q1013 NOSIG=
200803172230 METAR LMML NIL=
200803172215 METAR LMML 172215Z 27008KT CAVOK 13/12 Q1013 NOSIG=
200803172200 METAR LMML NIL=
200803172145 METAR LMML 172145Z 27009KT CAVOK 14/12 Q1013 NOSIG=
200803172130 METAR LMML NIL=
200803172115 METAR LMML 172115Z 28008KT CAVOK 13/11 Q1013 NOSIG=
200803172100 METAR LMML NIL=
200803172045 METAR LMML 172045Z 28009KT CAVOK 13/11 Q1013 NOSIG=
200803172030 METAR LMML NIL=
200803172015 METAR LMML 172015Z 29009KT CAVOK 14/11 Q1013 NOSIG=
200803172000 METAR LMML NIL=
200803171945 METAR LMML 171945Z 28010KT CAVOK 14/11 Q1013 NOSIG=
200803171930 METAR LMML NIL=
200803171915 METAR LMML 171915Z 28012KT CAVOK 14/10 Q1013 NOSIG=
200803171900 METAR LMML NIL=
200803171845 METAR LMML 171845Z 27009KT CAVOK 14/11 Q1013 NOSIG=
200803171815 METAR LMML 171815Z 28009KT CAVOK 14/12 Q1012 NOSIG=
200803171800 METAR LMML NIL=
200803171745 METAR LMML 171745Z 28012KT CAVOK 15/11 Q1012 NOSIG=
200803171730 METAR LMML NIL=
200803171715 METAR LMML 171715Z 27010KT 240V320 CAVOK 15/11 Q1012 NOSIG=
200803171645 METAR LMML 171645Z 28015KT 250V310 CAVOK 16/11 Q1012 NOSIG=
200803171615 METAR LMML 171615Z 29014KT CAVOK 16/10 Q1012 NOSIG=
200803171600 METAR LMML NIL=
200803171545 METAR LMML 171545Z 29015KT CAVOK 16/10 Q1012 NOSIG=
200803171530 METAR LMML NIL=
200803171515 METAR LMML 171515Z 30019KT 260V320 CAVOK 17/09 Q1012 NOSIG=
200803171500 METAR LMML NIL=
200803171445 METAR LMML 171445Z 30017KT 9999 FEW015 18/09 Q1012 NOSIG=
200803171430 METAR LMML NIL=
200803171415 METAR LMML 171415Z 30017KT 260V330 9999 FEW015 18/10 Q1012
                        NOSIG=
200803171400 METAR LMML NIL=
200803171345 METAR LMML 171345Z 29019KT 9999 FEW015 18/09 Q1012 NOSIG=
200803171330 METAR LMML NIL=
200803171315 METAR LMML 171315Z 29017KT CAVOK 18/08 Q1012 NOSIG=
200803171300 METAR LMML NIL=
200803171245 METAR LMML 171245Z 30019KT CAVOK 19/09 Q1012 NOSIG=
200803171215 METAR LMML 171215Z 30015KT 280V340 CAVOK 19/10 Q1013 NOSIG=
200803171200 METAR LMML NIL=
200803171145 METAR LMML 171145Z 30017KT CAVOK 19/10 Q1013 NOSIG=
200803171130 METAR LMML NIL=
200803171115 METAR LMML 171115Z 31018KT 9999 FEW012 19/10 Q1014 NOSIG=
200803171100 METAR LMML NIL=
200803171045 METAR LMML 171045Z 30017KT 9999 FEW015 SCT250 19/13 Q1013
                        NOSIG=
200803171015 METAR LMML 171015Z 30015KT 9999 FEW015 SCT250 19/14 Q1013
                        NOSIG=
200803170945 METAR LMML 170945Z 30016KT 9999 FEW015 SCT250 18/14 Q1013
                        NOSIG=
200803170930 METAR LMML NIL=
200803170915 METAR LMML 170915Z 31018KT 9999 FEW015 SCT120 BKN250 17/14
                        Q1013 NOSIG=
200803170900 METAR LMML NIL=
200803170845 METAR LMML 170845Z 30019KT 9000 FEW015 SCT120 16/15 Q1013
                        TEMPO 7000 SHRA=
200803170830 METAR LMML NIL=
200803170815 METAR LMML 170815Z 30015KT 9000 FEW015 BKN100 16/15 Q1012
                        TEMPO 7000 SHRA=
200803170800 METAR LMML NIL=
200803170745 METAR LMML 170745Z 30013KT 9000 FEW015 BKN100 16/14 Q1012
                        TEMPO 7000 SHRA=
200803170730 METAR LMML NIL=
200803170715 METAR LMML 170715Z 30014KT 9000 FEW015 BKN080 16/14 Q1012
                        TEMPO 7000 SHRA=
200803170700 METAR LMML NIL=
200803170645 METAR LMML 170645Z 27012KT 240V310 9000 FEW015 BKN090 15/14
                        Q1012 TEMPO 700 0 SHRA=
200803170630 METAR LMML NIL=
200803170615 METAR LMML 170615Z 28017KT 250V310 9000 FEW011 BKN100 15/14
                        Q1012 NOSIG=
200803170600 METAR LMML NIL=
200803170545 METAR LMML 170545Z 29009KT 250V340 9000 FEW011 BKN100 15/14
                        Q1012 NOSIG=
200803170530 METAR LMML NIL=
200803170515 METAR LMML 170515Z 30012KT 270V330 9000 FEW011 BKN130 15/14
                        Q1012 NOSIG=
200803170500 METAR LMML NIL=
200803170445 METAR LMML 170445Z 27014KT 240V310 9999 BKN011 BKN120 15/14
                        Q1013 NOSIG=
200803170415 METAR LMML 170415Z 27009KT 190V330 9999 FEW014 BKN100 15/14
                        Q1012 NOSIG=
200803170400 METAR LMML NIL=
200803170345 METAR LMML 170345Z 29012KT 9999 FEW011 BKN100 15/14 Q1013
                        TEMPO BKN008=
200803170315 METAR LMML 170315Z 30015KT 9999 FEW011 BKN120 15/14 Q1012
                        TEMPO BKN008=
200803170300 METAR LMML NIL=
200803170245 METAR LMML 170245Z 30017KT 9999 FEW012 BKN120 15/14 Q1012
                        TEMPO BKN008=
200803170230 METAR LMML NIL=
200803170215 METAR LMML 170215Z 30014KT 9999 SCT012 BKN120 15/14 Q1012
                        TEMPO BKN008=
200803170200 METAR LMML NIL=
200803170145 METAR LMML 170145Z 30011KT 9999 BKN012 15/14 Q1013 TEMPO
                        BKN008=
200803170130 METAR LMML NIL=
200803170115 METAR LMML 170115Z 29008KT 9999 BKN012 15/15 Q1013 TEMPO
                        BKN008=
200803170100 METAR LMML NIL=
200803170045 METAR LMML 170045Z 29008KT 9999 BKN013 14/14 Q1013 TEMPO
                        BKN008=
200803170015 METAR LMML 170015Z 30007KT 9999 BKN013 15/14 Q1013 TEMPO
                        BKN008=
200803170000 METAR LMML NIL=
200803162345 METAR LMML 162345Z 29008KT 260V320 9999 BKN011 15/14 Q1013
                        TEMPO BKN008=
200803162330 METAR LMML NIL=
200803162315 METAR LMML 162315Z 31008KT 9999 FEW015 14/14 Q1013 NOSIG=
200803162300 METAR LMML NIL=
200803162245 METAR LMML 162245Z 31007KT 9999 FEW015 14/13 Q1013 NOSIG=
200803162230 METAR LMML NIL=
200803162215 METAR LMML 162215Z 29007KT 9999 FEW015 15/13 Q1014 NOSIG=
200803162200 METAR LMML NIL=
200803162145 METAR LMML 162145Z 30007KT 9999 FEW015 14/13 Q1014 NOSIG=
200803162130 METAR LMML NIL=
200803162115 METAR LMML 162115Z 29004KT 9999 FEW010 14/13 Q1014 NOSIG=
200803162100 METAR LMML NIL=
200803162045 METAR LMML 162045Z 30005KT 9999 FEW010 14/13 Q1014 NOSIG=
200803162030 METAR LMML NIL=
200803162015 METAR LMML 162015Z VRB02KT 9999 FEW010 14/14 Q1014 NOSIG=
200803162000 METAR LMML NIL=
200803161945 METAR LMML 161945Z 31005KT 9999 FEW010 14/14 Q1014 NOSIG=
200803161930 METAR LMML NIL=
200803161915 METAR LMML 161915Z 31007KT 9999 FEW010 SCT250 15/14 Q1014
                        NOSIG=
200803161900 METAR LMML NIL=
200803161845 METAR LMML 161845Z 31006KT 7000 FEW010 BKN250 15/14 Q1014
                        TEMPO BKN006=
200803161815 METAR LMML 161815Z 29007KT 250V320 7000 SCT008 BKN250 15/15
                        Q1014 TEMPO BKN 006=
200803161800 METAR LMML NIL=
200803161745 METAR LMML 161745Z 30005KT 7000 SCT008 BKN250 15/15 Q1014
                        TEMPO BKN006=
200803161730 METAR LMML NIL=
200803161715 METAR LMML 161715Z 28007KT 7000 FEW014 BKN250 16/15 Q1014
                        TEMPO BKN006=
200803161700 METAR LMML NIL=
200803161645 METAR LMML 161645Z 25005KT 220V290 9999 FEW014 BKN250 16/15
                        Q1013 TEMPO 700 0 BKN006=
200803161630 METAR LMML NIL=
200803161615 METAR LMML 161615Z VRB03KT 9999 FEW014 BKN250 17/15 Q1013
                        TEMPO 7000 BKN006=
200803161600 METAR LMML NIL=
200803161545 METAR LMML 161545Z 24004KT 190V290 9999 FEW015 BKN250 18/15
                        Q1013 TEMPO 700 0 BKN006=
200803161530 METAR LMML NIL=
200803161515 METAR LMML 161515Z VRB02KT 9999 FEW012 BKN250 19/14 Q1013
                        NOSIG=
200803161500 METAR LMML NIL=
200803161445 METAR LMML 161445Z VRB03KT 9999 FEW012 BKN250 19/14 Q1013
                        NOSIG=
200803161430 METAR LMML NIL=
200803161415 METAR LMML 161415Z 09004KT 040V130 9999 FEW012 BKN250 18/15
                        Q1013 NOSIG=
200803161400 METAR LMML NIL=
200803161345 METAR LMML 161345Z 08005KT 020V120 9999 FEW012 BKN250 18/15
                        Q1013 NOSIG=
200803161330 METAR LMML NIL=
200803161315 METAR LMML 161315Z 08005KT 360V110 9999 FEW012 SCT250 18/15
                        Q1013 NOSIG=
200803161300 METAR LMML NIL=
200803161245 METAR LMML 161245Z 07006KT 020V110 9999 FEW012 18/15 Q1014
                        NOSIG=
200803161230 METAR LMML NIL=
200803161215 METAR LMML 161215Z 08005KT 350V120 9999 FEW012 18/15 Q1014
                        NOSIG=
200803161200 METAR LMML NIL=
200803161145 METAR LMML 161145Z 07007KT 050V120 9999 FEW012 18/15 Q1014
                        NOSIG=
200803161130 METAR LMML NIL=
200803161115 METAR LMML 161115Z 07007KT 020V110 9999 FEW010 18/15 Q1015
                        NOSIG=
200803161100 METAR LMML NIL=
200803161045 METAR LMML 161045Z 07007KT 030V120 9999 FEW010 18/15 Q1015
                        NOSIG=
200803161030 METAR LMML NIL=
200803161015 METAR LMML 161015Z 09007KT 050V120 9999 SCT010 18/15 Q1015
                        NOSIG=
200803161000 METAR LMML NIL=
200803160945 METAR LMML 160945Z 07008KT 020V100 9999 SCT010 17/15 Q1015
                        NOSIG=
200803160930 METAR LMML NIL=
200803160915 METAR LMML 160915Z 06007KT 020V100 9999 BKN010 17/15 Q1015
                        BECMG SCT012=
200803160900 METAR LMML NIL=
200803160845 METAR LMML 160845Z 08007KT 020V120 9999 BKN009 17/15 Q1015
                        BECMG SCT012=
200803160830 METAR LMML NIL=
200803160815 METAR LMML 160815Z 07007KT 030V100 9999 BKN008 16/15 Q1015
                        BECMG SCT010=
200803160745 METAR LMML 160745Z 07008KT 9999 BKN008 SCT250 16/15 Q1015
                        BECMG SCT010=
200803160730 METAR LMML NIL=
200803160715 METAR LMML 160715Z 07007KT 040V110 9999 BKN007 15/15 Q1015
                        NOSIG=
200803160700 METAR LMML NIL=
200803160645 METAR LMML 160645Z 07006KT 040V100 9999 BKN006 15/15 Q1015
                        NOSIG=
200803160630 METAR LMML NIL=
200803160615 METAR LMML 160615Z 08005KT 050V110 9999 BKN006 SCT250 15/15
                        Q1014 NOSIG=
200803160600 METAR LMML NIL=
200803160545 METAR LMML 160545Z 07006KT 8000 BKN007 15/14 Q1014 BECMG
                        9999=
200803160530 METAR LMML NIL=
200803160515 METAR LMML 160515Z 09006KT 8000 BKN007 14/14 Q1014 NOSIG=
200803160500 METAR LMML NIL=
200803160445 METAR LMML 160445Z 08007KT 050V110 8000 BKN006 15/14 Q1014
                        NOSIG=
200803160430 METAR LMML NIL=
200803160415 METAR LMML 160415Z 09005KT 030V110 8000 BKN006 14/14 Q1014
                        NOSIG=
200803160400 METAR LMML NIL=
200803160345 METAR LMML 160345Z 07004KT 9999 BKN005 14/14 Q1014 NOSIG=
200803160330 METAR LMML NIL=
200803160315 METAR LMML 160315Z 07004KT 030V100 9999 BKN005 14/14 Q1014
                        NOSIG=
200803160300 METAR LMML NIL=
200803160245 METAR LMML 160245Z 09004KT 060V120 9999 BKN005 14/14 Q1014
                        NOSIG=
200803160230 METAR LMML NIL=
200803160215 METAR LMML 160215Z 10006KT 9999 BKN005 14/14 Q1014 NOSIG=
200803160200 METAR LMML NIL=
200803160145 METAR LMML 160145Z 10005KT 070V130 9999 BKN005 14/14 Q1015
                        NOSIG=
200803160130 METAR LMML NIL=
200803160115 METAR LMML 160115Z 10005KT 9999 BKN005 15/15 Q1015 NOSIG=
200803160100 METAR LMML NIL=
200803160045 METAR LMML 160045Z 08006KT 9999 BKN005 14/14 Q1015 NOSIG=
200803160030 METAR LMML NIL=
200803160015 METAR LMML 160015Z 08004KT 9999 BKN005 15/15 Q1015 NOSIG=
200803160000 METAR LMML NIL=
200803152345 METAR LMML 152345Z 09006KT 9999 BKN005 15/14 Q1016 NOSIG=
200803152330 METAR LMML NIL=
200803152315 METAR LMML 152315Z 09004KT CAVOK 14/14 Q1016 NOSIG=
200803152300 METAR LMML NIL=
200803152245 METAR LMML 152245Z 07004KT CAVOK 15/14 Q1016 NOSIG=
200803152230 METAR LMML NIL=
200803152215 METAR LMML 152215Z VRB03KT CAVOK 15/14 Q1016 NOSIG=
200803152200 METAR LMML NIL=
200803152145 METAR LMML 152145Z 09004KT 9999 FEW012 14/14 Q1016 NOSIG=
200803152130 METAR LMML NIL=
200803152115 METAR LMML 152115Z VRB03KT 9999 FEW015 15/14 Q1016 NOSIG=
200803152100 METAR LMML NIL=
200803152045 METAR LMML 152045Z VRB03KT CAVOK 15/14 Q1016 NOSIG=
200803152030 METAR LMML NIL=
200803152015 METAR LMML 152015Z 07004KT CAVOK 15/14 Q1016 NOSIG=
200803152000 METAR LMML NIL=
200803151945 METAR LMML 151945Z VRB03KT 9999 FEW015 SCT250 14/14 Q1016
                        NOSIG=
200803151930 METAR LMML NIL=
200803151915 METAR LMML 151915Z 10005KT 9999 FEW015 BKN250 15/14 Q1016
                        NOSIG=
200803151900 METAR LMML NIL=
200803151845 METAR LMML 151845Z 10004KT 9999 FEW015 SCT250 15/13 Q1016
                        NOSIG=
200803151830 METAR LMML NIL=
200803151815 METAR LMML 151815Z 10004KT 050V140 CAVOK 15/14 Q1016 NOSIG=
200803151800 METAR LMML NIL=
200803151745 METAR LMML 151745Z 09005KT CAVOK 15/13 Q1015 NOSIG=
200803151730 METAR LMML NIL=
200803151715 METAR LMML 151715Z 11005KT CAVOK 15/13 Q1015 NOSIG=
200803151700 METAR LMML NIL=
200803151645 METAR LMML 151645Z 12005KT CAVOK 17/13 Q1015 NOSIG=
200803151630 METAR LMML NIL=
200803151615 METAR LMML 151615Z 11006KT 080V150 CAVOK 17/14 Q1015 NOSIG=
200803151600 METAR LMML NIL=
200803151545 METAR LMML 151545Z 12007KT 080V140 CAVOK 18/13 Q1015 NOSIG=
200803151530 METAR LMML NIL=
200803151515 METAR LMML 151515Z VRB03KT CAVOK 19/12 Q1015 NOSIG=
200803151500 METAR LMML NIL=
200803151445 METAR LMML 151445Z 16004KT 110V220 CAVOK 19/12 Q1015 NOSIG=
200803151430 METAR LMML NIL=
200803151415 METAR LMML 151415Z 15004KT 100V240 CAVOK 19/10 Q1015 NOSIG=
200803151400 METAR LMML NIL=
200803151345 METAR LMML 151345Z 10006KT 010V160 CAVOK 20/11 Q1016 NOSIG=
200803151330 METAR LMML NIL=
200803151315 METAR LMML 151315Z 02004KT 340V070 CAVOK 21/13 Q1016 NOSIG=
200803151300 METAR LMML NIL=
200803151245 METAR LMML 151245Z VRB03KT CAVOK 20/14 Q1016 NOSIG=
200803151215 METAR LMML 151215Z 01005KT 200V140 CAVOK 20/12 Q1016 NOSIG=
200803151200 METAR LMML NIL=
200803151145 METAR LMML 151145Z 18005KT CAVOK 20/10 Q1017 NOSIG=
200803151130 METAR LMML NIL=
200803151115 METAR LMML 151115Z 22005KT 180V290 CAVOK 20/09 Q1017 NOSIG=
200803151045 METAR LMML 151045Z 23005KT 190V290 CAVOK 20/09 Q1017 NOSIG=
200803151030 METAR LMML NIL=
200803151015 METAR LMML 151015Z 22004KT 190V280 CAVOK 19/09 Q1017 NOSIG=
200803151000 METAR LMML NIL=
200803150945 METAR LMML 150945Z 22004KT 190V270 9999 FEW020 19/10 Q1018
                        NOSIG=
200803150930 METAR LMML NIL=
200803150915 METAR LMML 150915Z VRB02KT 9999 FEW020 18/11 Q1018 NOSIG=
200803150900 METAR LMML NIL=
200803150845 METAR LMML 150845Z VRB02KT 9999 FEW015 18/12 Q1018 NOSIG=
200803150830 METAR LMML NIL=
200803150815 METAR LMML 150815Z VRB02KT 9999 FEW015 17/15 Q1018 NOSIG=
200803150800 METAR LMML NIL=
200803150745 METAR LMML 150745Z VRB03KT 9999 FEW015 16/15 Q1018 NOSIG=
200803150730 METAR LMML NIL=
200803150715 METAR LMML 150715Z VRB02KT 9999 FEW015 16/15 Q1018 NOSIG=
200803150701 LMML 150701Z VRB02KT 9999 FEW015 15/14 Q1018 NOSIG=
200803150700 METAR LMML NIL=
200803150700 LMML 150700Z VRB02KT 9999 FEW015 15/14 Q1018 NOSIG=
200803150645 METAR LMML 150645Z VRB01KT 9999 FEW015 15/14 Q1018 NOSIG=
200803150630 METAR LMML NIL=
200803150615 METAR LMML 150615Z VRB02KT 9999 FEW012 14/14 Q1017 NOSIG=
200803150600 METAR LMML NIL=
200803150545 METAR LMML 150545Z 26004KT 230V300 CAVOK 13/13 Q1017 NOSIG=
200803150515 METAR LMML 150515Z 27004KT 9999 FEW012 13/12 Q1017 NOSIG=
200803150500 METAR LMML NIL=
200803150445 METAR LMML 150445Z 26005KT 9999 FEW010 13/13 Q1017 NOSIG=
200803150415 METAR LMML 150415Z 24004KT 210V270 9999 FEW009 13/13 Q1017
                        NOSIG=
200803150400 METAR LMML NIL=
200803150345 METAR LMML 150345Z 26005KT 230V290 9999 FEW015 SCT250 13/12
                        Q1017 NOSIG=
200803150330 METAR LMML NIL=
200803150315 METAR LMML 150315Z 24006KT CAVOK 13/11 Q1017 NOSIG=
200803150300 METAR LMML NIL=
200803150245 METAR LMML 150245Z 24004KT 200V280 CAVOK 13/10 Q1017 NOSIG=
200803150230 METAR LMML NIL=
200803150215 METAR LMML 150215Z 22004KT 200V270 CAVOK 13/11 Q1017 NOSIG=
200803150145 METAR LMML 150145Z VRB03KT CAVOK 13/11 Q1017 NOSIG=
200803150130 METAR LMML NIL=
200803150115 METAR LMML 150115Z 25005KT 210V290 CAVOK 13/11 Q1018 NOSIG=
200803150100 METAR LMML NIL=
200803150045 METAR LMML 150045Z VRB03KT CAVOK 13/12 Q1018 NOSIG=
200803150015 METAR LMML 150015Z VRB03KT CAVOK 13/12 Q1018 NOSIG=
200803150000 METAR LMML NIL=
200803142345 METAR LMML 142345Z 25004KT 220V280 CAVOK 13/11 Q1018 NOSIG=
200803142315 METAR LMML 142315Z 25006KT 230V290 CAVOK 14/12 Q1018 NOSIG=
200803142245 METAR LMML 142245Z 26008KT 220V290 CAVOK 14/13 Q1018 NOSIG=
200803142230 METAR LMML NIL=
200803142215 METAR LMML 142215Z 24007KT 210V270 CAVOK 14/13 Q1018 NOSIG=
200803142200 METAR LMML NIL=
200803142145 METAR LMML 142145Z 24006KT 210V270 CAVOK 14/13 Q1018 NOSIG=
200803142130 METAR LMML NIL=
200803142115 METAR LMML 142115Z 24005KT 190V270 CAVOK 14/13 Q1018 NOSIG=
200803142100 METAR LMML NIL=
200803142045 METAR LMML 142045Z 23005KT 200V270 CAVOK 14/13 Q1019 NOSIG=
200803142030 METAR LMML NIL=
200803142015 METAR LMML 142015Z 25007KT 210V280 CAVOK 14/13 Q1018 NOSIG=
200803142000 METAR LMML NIL=
200803141945 METAR LMML 141945Z 25009KT 220V290 CAVOK 14/13 Q1018 NOSIG=
200803141930 METAR LMML NIL=
200803141915 METAR LMML 141915Z 26009KT 230V290 CAVOK 14/13 Q1018 NOSIG=
200803141900 METAR LMML NIL=
200803141845 METAR LMML 141845Z 26009KT 230V290 CAVOK 15/13 Q1018 NOSIG=
200803141815 METAR LMML 141815Z 26008KT 220V290 CAVOK 15/13 Q1018 NOSIG=
200803141800 METAR LMML NIL=
200803141745 METAR LMML 141745Z 26008KT 220V290 9999 FEW015 BKN250 15/13
                        Q1018 NOSIG=
200803141730 METAR LMML NIL=
200803141715 METAR LMML 141715Z 26009KT 230V300 9999 FEW015 BKN250 15/13
                        Q1018 NOSIG=
200803141700 METAR LMML NIL=
200803141645 METAR LMML 141645Z 26009KT 220V290 9999 FEW015 BKN250 16/12
                        Q1018 NOSIG=
200803141630 METAR LMML NIL=
200803141615 METAR LMML 141615Z 26009KT 220V290 9999 FEW015 BKN250 16/13
                        Q1018 NOSIG=
200803141600 METAR LMML NIL=
200803141545 METAR LMML 141545Z 26008KT 210V300 9999 FEW015 BKN250 17/13
                        Q1018 NOSIG=
200803141530 METAR LMML NIL=
200803141515 METAR LMML 141515Z 26009KT 230V310 9999 FEW015 SCT250 17/12
                        Q1018 NOSIG=
200803141500 METAR LMML NIL=
200803141445 METAR LMML 141445Z 28009KT 220V310 9999 FEW015 SCT250 18/12
                        Q1018 NOSIG=
200803141430 METAR LMML NIL=
200803141415 METAR LMML 141415Z 27009KT 240V300 9999 FEW015 18/12 Q1018
                        NOSIG=
200803141400 METAR LMML NIL=
200803141345 METAR LMML 141345Z 29010KT 250V320 9999 FEW015 18/12 Q1018
                        NOSIG=
200803141332 LMML 141332Z 29009KT 9999 FEW015 18/11 Q1018 NOSIG=
200803141330 LMML NIL=
200803141245 METAR LMML 141245Z 30012KT 270V330 9999 FEW015 18/12 Q1018
                        NOSIG=
200803141215 METAR LMML 141215Z 29010KT 250V330 9999 FEW015 18/13 Q1018
                        NOSIG=
200803141200 METAR LMML NIL=
200803141145 METAR LMML 141145Z 27010KT 240V310 9999 FEW015 18/13 Q1019
                        NOSIG=
200803141115 METAR LMML 141115Z 28010KT 240V310 9999 FEW015 18/13 Q1019
                        NOSIG=
200803141100 METAR LMML NIL=
200803141045 METAR LMML 141045Z 29009KT 250V320 9999 FEW015 18/13 Q1019
                        NOSIG=
200803141030 METAR LMML NIL=
200803141015 METAR LMML 141015Z 30010KT 270V340 9999 FEW015 18/14 Q1019
                        NOSIG=
200803141000 METAR LMML NIL=
200803140945 METAR LMML 140945Z 29011KT 270V330 9999 FEW015 17/14 Q1019
                        NOSIG=
200803140930 METAR LMML NIL=
200803140915 METAR LMML 140915Z 29012KT 9999 FEW015 17/13 Q1019 NOSIG=
200803140900 METAR LMML NIL=
200803140845 METAR LMML 140845Z 29014KT 9999 FEW015 17/13 Q1019 NOSIG=
200803140830 METAR LMML NIL=
200803140815 METAR LMML 140815Z 29012KT 260V320 9999 FEW015 16/14 Q1019
                        NOSIG=
200803140800 METAR LMML NIL=
200803140745 METAR LMML 140745Z 29012KT 9999 FEW013 16/14 Q1019 NOSIG=
200803140730 METAR LMML NIL=
200803140715 METAR LMML 140715Z 29014KT 9999 FEW013 15/14 Q1018 NOSIG=
200803140700 LMML NIL=
200803140645 LMML 140645Z 29010KT 9999 FEW011 15/14 Q1018=
200803140630 METAR LMML NIL=
200803140615 METAR LMML 140615Z 27005KT 240V310 9999 FEW011 14/14 Q1018
                        NOSIG=
200803140600 METAR LMML NIL=
200803140545 METAR LMML 140545Z 28006KT 9999 FEW012 SCT250 13/13 Q1018
                        NOSIG=
200803140530 METAR LMML NIL=
200803140515 METAR LMML 140515Z 27004KT 220V300 9999 FEW012 SCT250 13/12
                        Q1018 NOSIG=
200803140445 METAR LMML 140445Z 27007KT 9999 FEW015 SCT250 13/13 Q1017
                        NOSIG=
200803140430 METAR LMML NIL=
200803140415 METAR LMML 140415Z 27007KT CAVOK 13/13 Q1017 NOSIG=
200803140400 METAR LMML NIL=
200803140345 METAR LMML 140345Z 28004KT 250V330 CAVOK 13/13 Q1017 NOSIG=
200803140330 METAR LMML NIL=
200803140315 METAR LMML 140315Z VRB03KT CAVOK 13/13 Q1017 NOSIG=
200803140300 METAR LMML NIL=
200803140245 METAR LMML 140245Z 29004KT 240V330 CAVOK 13/13 Q1017 NOSIG=
200803140230 METAR LMML NIL=
200803140215 METAR LMML 140215Z 30008KT CAVOK 13/13 Q1017 NOSIG=
200803140145 METAR LMML 140145Z 29005KT 240V320 9999 FEW009 13/13 Q1017
                        NOSIG=
200803140130 METAR LMML NIL=
200803140115 METAR LMML 140115Z 29007KT 9999 FEW009 13/13 Q1017 NOSIG=
200803140100 METAR LMML NIL=
200803140045 METAR LMML 140045Z 29009KT CAVOK 14/13 Q1017 NOSIG=
200803140030 METAR LMML NIL=
200803140015 METAR LMML 140015Z 29009KT CAVOK 14/13 Q1018 NOSIG=
200803140000 METAR LMML NIL=
200803132330 METAR LMML NIL=
200803132315 METAR LMML 132315Z 29009KT CAVOK 14/13 Q1018 NOSIG=
200803132300 METAR LMML NIL=
200803132245 METAR LMML 132245Z 29008KT CAVOK 14/13 Q1018 NOSIG=
200803132230 METAR LMML NIL=
200803132215 METAR LMML 132215Z 28008KT 250V310 CAVOK 14/13 Q1018 NOSIG=
200803132200 METAR LMML NIL=
200803132145 METAR LMML 132145Z 28006KT 240V320 CAVOK 14/13 Q1018 NOSIG=
200803132115 METAR LMML 132115Z 28006KT 260V320 CAVOK 14/13 Q1018 NOSIG=
200803132100 METAR LMML NIL=
200803132045 METAR LMML 132045Z 28007KT 250V310 CAVOK 14/13 Q1018 NOSIG=
200803132030 METAR LMML NIL=
200803132000 METAR LMML NIL=
200803131945 METAR LMML 131945Z 29009KT CAVOK 14/13 Q1018 NOSIG=
200803131930 METAR LMML NIL=
200803131900 METAR LMML NIL=
200803131845 METAR LMML 131845Z 29008KT 9999 FEW017 14/13 Q1018 NOSIG=
200803131830 METAR LMML NIL=
200803131815 METAR LMML 131815Z 28005KT 240V300 9999 FEW017 14/13 Q1017
                        NOSIG=
200803131800 METAR LMML NIL=
200803131745 METAR LMML 131745Z 29007KT 260V330 9999 FEW017 SCT250 15/13
                        Q1017 NOSIG=
200803131730 METAR LMML NIL=
200803131715 METAR LMML 131715Z 31010KT 9999 FEW017 SCT250 15/14 Q1017
                        NOSIG=
200803131700 METAR LMML NIL=
200803131645 METAR LMML 131645Z 31012KT 270V340 9999 FEW017 SCT250 15/14
                        Q1017 NOSIG=
200803131630 LMML NIL=
200803131615 LMML 131615Z 30016KT 9999 FEW017 SCT250 16/13 Q1017 NOSIG=
200803131600 METAR LMML NIL=
200803131545 METAR LMML 131545Z 29016KT 9999 FEW017 SCT250 16/13 Q1016
                        NOSIG=
200803131530 METAR LMML NIL=
200803131515 METAR LMML 131515Z 30019KT 9999 FEW017 SCT250 17/13 Q1016
                        NOSIG=
200803131500 METAR LMML NIL=
200803131445 METAR LMML 131445Z 30013KT 270V330 9999 FEW017 BKN250 17/13
                        Q1017 NOSIG=
200803131430 METAR LMML NIL=
200803131415 METAR LMML 131415Z 30018KT 260V320 9999 FEW017 BKN250 17/12
                        Q1017 NOSIG=
200803131400 METAR LMML NIL=
200803131345 METAR LMML 131345Z 30017KT 9999 FEW017 BKN250 18/13 Q1016
                        NOSIG=
200803131315 METAR LMML 131315Z 29017KT 9999 FEW017 BKN250 18/13 Q1016
                        NOSIG=
200803131300 METAR LMML NIL=
200803131245 METAR LMML 131245Z 29017KT 9999 FEW017 SCT250 18/13 Q1017
                        NOSIG=
200803131215 METAR LMML 131215Z 30019KT 270V330 9999 FEW017 SCT250 18/13
                        Q1017 NOSIG=
200803131200 METAR LMML NIL=
200803131145 METAR LMML 131145Z 29018KT 9999 FEW016 SCT250 18/14 Q1017
                        NOSIG=
200803131115 METAR LMML 131115Z 29018KT 9999 FEW017 BKN250 18/14 Q1018
                        NOSIG=
200803131100 METAR LMML NIL=
200803131045 METAR LMML 131045Z 30018KT 9999 FEW016 BKN250 18/14 Q1018
                        NOSIG=
200803131030 METAR LMML NIL=
200803131015 METAR LMML 131015Z 30021KT 9999 FEW014 BKN250 17/13 Q1018
                        NOSIG=
200803131000 METAR LMML NIL=
200803130945 METAR LMML 130945Z 30023G35KT 9999 FEW015 BKN250 17/13 Q1017
                        NOSIG=
200803130915 METAR LMML 130915Z 30021KT 9999 FEW015 BKN250 17/14 Q1018
                        NOSIG=
200803130900 METAR LMML NIL=
200803130845 METAR LMML 130845Z 30022KT 9999 FEW016 BKN250 16/13 Q1017
                        NOSIG=
200803130830 METAR LMML NIL=
200803130815 METAR LMML 130815Z 30020KT 280V340 9999 SCT015 BKN250 16/13
                        Q1017 NOSIG=
200803130800 METAR LMML NIL=
200803130745 METAR LMML 130745Z 30022KT 9999 FEW016 BKN250 16/13 Q1017
                        NOSIG=
200803130730 METAR LMML NIL=
200803130715 METAR LMML 130715Z 30020KT 9999 FEW015 BKN250 16/13 Q1017
                        NOSIG=
200803130700 METAR LMML NIL=
200803130645 METAR LMML 130645Z 30016KT 9999 FEW016 BKN250 15/13 Q1017
                        NOSIG=
200803130630 METAR LMML NIL=
200803130615 METAR LMML 130615Z 30017KT 270V330 9999 FEW013 BKN250 15/13
                        Q1016 NOSIG=
200803130600 METAR LMML NIL=
200803130545 METAR LMML 130545Z 29013KT 9999 FEW013 BKN250 15/13 Q1016
                        NOSIG=
200803130530 METAR LMML NIL=
200803130515 METAR LMML 130515Z 28014KT 9999 FEW013 SCT250 14/13 Q1016
                        NOSIG=
200803130500 METAR LMML NIL=
200803130445 METAR LMML 130445Z 28016KT 9999 FEW013 14/13 Q1016 NOSIG=
200803130430 METAR LMML NIL=
200803130415 METAR LMML 130415Z 28013KT 250V310 9999 FEW013 14/13 Q1016
                        NOSIG=
200803130400 METAR LMML NIL=
200803130345 METAR LMML 130345Z 27012KT 240V300 9999 FEW013 15/13 Q1016
                        NOSIG=
200803130330 METAR LMML NIL=
200803130315 METAR LMML 130315Z 28012KT 250V310 9999 FEW013 15/13 Q1016
                        NOSIG=
200803130300 METAR LMML NIL=
200803130245 METAR LMML 130245Z 29012KT 9999 FEW014 15/13 Q1016 NOSIG=
200803130230 METAR LMML NIL=
200803130215 METAR LMML 130215Z 28014KT 250V310 9999 FEW014 15/13 Q1016
                        NOSIG=
200803130145 METAR LMML 130145Z 28015KT 9999 FEW015 15/13 Q1017 NOSIG=
200803130130 METAR LMML NIL=
200803130115 METAR LMML 130115Z 27012KT 240V310 CAVOK 15/14 Q1017 NOSIG=
200803130100 METAR LMML NIL=
200803130045 METAR LMML 130045Z 28011KT 240V300 CAVOK 15/13 Q1017 NOSIG=
200803130015 METAR LMML 130015Z 26011KT 210V280 CAVOK 16/14 Q1017 NOSIG=
200803130000 METAR LMML NIL=
200803122345 METAR LMML 122345Z 26015KT 230V290 CAVOK 16/13 Q1017 NOSIG=
200803122330 METAR LMML NIL=
200803122315 METAR LMML 122315Z 26017KT 230V290 CAVOK 16/13 Q1017 NOSIG=
200803122245 METAR LMML 122245Z 26010KT 220V290 CAVOK 16/13 Q1017 NOSIG=
200803122215 METAR LMML 122215Z 27010KT 240V300 CAVOK 16/13 Q1017 NOSIG=
200803122145 METAR LMML 122145Z 26010KT 220V290 CAVOK 16/13 Q1017 NOSIG=
200803122130 METAR LMML NIL=
200803122115 METAR LMML 122115Z 27008KT 240V310 CAVOK 15/13 Q1017 NOSIG=
200803122100 METAR LMML NIL=
200803122045 METAR LMML 122045Z 28013KT CAVOK 15/12 Q1018 NOSIG=
200803122030 METAR LMML NIL=
200803122015 METAR LMML 122015Z 29014KT CAVOK 16/12 Q1018 NOSIG=
200803122000 METAR LMML NIL=
200803121945 METAR LMML 121945Z 29012KT 260V320 CAVOK 16/12 Q1018 NOSIG=
200803121930 METAR LMML NIL=
200803121915 METAR LMML 121915Z 29013KT 260V320 CAVOK 16/12 Q1018 NOSIG=
200803121900 METAR LMML NIL=
200803121845 METAR LMML 121845Z 29013KT CAVOK 15/13 Q1018 NOSIG=
200803121830 METAR LMML NIL=
200803121815 METAR LMML 121815Z 29018KT CAVOK 16/13 Q1018 NOSIG=
200803121800 METAR LMML NIL=
200803121745 METAR LMML 121745Z 28019KT CAVOK 15/13 Q1017 NOSIG=
200803121730 METAR LMML NIL=
200803121715 METAR LMML 121715Z 28020KT CAVOK 16/13 Q1017 NOSIG=
200803121700 METAR LMML NIL=
200803121645 METAR LMML 121645Z 28018KT 250V310 CAVOK 16/12 Q1017 NOSIG=
200803121630 METAR LMML NIL=
200803121615 METAR LMML 121615Z 28016KT 240V310 CAVOK 16/13 Q1017 NOSIG=
200803121600 METAR LMML NIL=
200803121545 METAR LMML 121545Z 28019KT 9999 FEW020 SCT250 16/13 Q1017
                        NOSIG=
200803121530 LMML NIL=
200803121515 METAR LMML 121515Z 29016KT 250V320 9999 FEW020 SCT250 17/13
                        Q1017 NOSIG=
200803121500 METAR LMML NIL=
200803121445 METAR LMML 121445Z 28019KT 250V330 9999 FEW020 SCT250 17/13
                        Q1017 NOSIG=
200803121430 METAR LMML NIL=
200803121415 METAR LMML 121415Z 28016KT 250V320 9999 FEW020 SCT250 17/12
                        Q1017 NOSIG=
200803121400 METAR LMML NIL=
200803121345 METAR LMML 121345Z 29019KT 9999 FEW018 SCT250 18/12 Q1017
                        NOSIG=
200803121330 METAR LMML NIL=
200803121315 METAR LMML 121315Z 29017KT 9999 FEW018 18/13 Q1017 NOSIG=
200803121245 METAR LMML 121245Z 29014KT 9999 FEW018 18/13 Q1017 NOSIG=
200803121230 METAR LMML NIL=
200803121215 METAR LMML 121215Z 31012KT 280V350 9999 FEW018 19/13 Q1017
                        NOSIG=
200803121145 METAR LMML 121145Z 30015KT 9999 FEW018 18/12 Q1017 NOSIG=
200803121130 METAR LMML NIL=
200803121115 METAR LMML 121115Z 32011KT 280V350 9999 FEW018 18/13 Q1018
                        NOSIG=
200803121100 METAR LMML NIL=
200803121045 METAR LMML 121045Z 29016KT 9999 FEW016 17/13 Q1018 NOSIG=
200803121030 METAR LMML NIL=
200803121015 METAR LMML 121015Z 29015KT 260V320 9999 FEW016 17/13 Q1018
                        NOSIG=
200803121000 METAR LMML NIL=
200803120945 METAR LMML 120945Z 28012KT 250V310 9999 FEW020 18/13 Q1018
                        NOSIG=
200803120930 METAR LMML NIL=
200803120915 METAR LMML 120915Z 29012KT 250V340 9999 FEW018 17/13 Q1017
                        NOSIG=
200803120900 METAR LMML NIL=
200803120845 METAR LMML 120845Z 29018KT 260V320 9999 FEW017 17/13 Q1017
                        NOSIG=
200803120830 METAR LMML NIL=
200803120815 METAR LMML 120815Z 30018KT 270V330 9999 SCT015 16/13 Q1017
                        NOSIG=
200803120745 METAR LMML 120745Z 29018KT 270V330 9999 SCT017 16/12 Q1017
                        NOSIG=
200803120730 METAR LMML NIL=
200803120715 METAR LMML 120715Z 30016KT 270V330 9999 FEW018 16/12 Q1016
                        NOSIG=
200803120700 METAR LMML NIL=
200803120645 METAR LMML 120645Z 29019KT 260V320 9999 FEW016 15/12 Q1016
                        NOSIG=
200803120630 METAR LMML NIL=
200803120615 METAR LMML 120615Z 29018KT 9999 FEW015 15/12 Q1016 NOSIG=
200803120600 METAR LMML NIL=
200803120545 METAR LMML 120545Z 29015KT 9999 FEW020 14/12 Q1015 NOSIG=
200803120530 METAR LMML NIL=
200803120515 METAR LMML 120515Z 29016KT 9999 FEW020 14/12 Q1015 NOSIG=
200803120500 METAR LMML NIL=
200803120445 METAR LMML 120445Z 29016KT 9999 FEW020 14/12 Q1015 NOSIG=
200803120430 METAR LMML NIL=
200803120415 METAR LMML 120415Z 30016KT 9999 FEW020 SCT050 14/12 Q1015
                        NOSIG=
200803120400 METAR LMML NIL=
200803120345 METAR LMML 120345Z 30017KT 9999 FEW020 SCT050 14/11 Q1015
                        NOSIG=
200803120330 METAR LMML NIL=
200803120315 METAR LMML 120315Z 30019KT 9999 FEW020 SCT050 14/12 Q1015
                        NOSIG=
200803120300 METAR LMML NIL=
200803120245 METAR LMML 120245Z 30017KT 9999 SCT019 BKN050 14/12 Q1015
                        NOSIG=
200803120230 METAR LMML NIL=
200803120215 METAR LMML 120215Z 29016G26KT 260V320 9999 -SHRA SCT020 BKN050
                        15/12 Q1015 NOSIG=
200803120200 METAR LMML NIL=
200803120145 METAR LMML 120145Z 29015KT 9999 -SHRA SCT021 BKN050 15/12
                        Q1015 NOSIG=
200803120130 METAR LMML NIL=
200803120115 METAR LMML 120115Z 29020KT 9999 FEW022 SCT035 15/12 Q1015
                        NOSIG=
200803120100 METAR LMML NIL=
200803120045 METAR LMML 120045Z 29017KT 250V320 9999 FEW022 SCT042 15/11
                        Q1014 NOSIG=
200803120030 METAR LMML NIL=
200803120015 METAR LMML 120015Z 29019KT 9999 FEW021 SCT049 15/12 Q1014
                        NOSIG=
200803120000 METAR LMML NIL=
200803112345 METAR LMML 112345Z 29019KT 270V330 9999 FEW022 SCT049 15/12
                        Q1014 NOSIG=
200803112330 METAR LMML NIL=
200803112315 METAR LMML 112315Z 29021KT 9999 FEW022 SCT050 15/12 Q1014
                        NOSIG=
200803112300 METAR LMML NIL=
200803112245 METAR LMML 112245Z 29024KT 9999 FEW022 15/12 Q1014 NOSIG=
200803112230 METAR LMML NIL=
200803112215 METAR LMML 112215Z 29022KT 9999 FEW022 15/11 Q1014 NOSIG=
200803112200 METAR LMML NIL=
200803112145 METAR LMML 112145Z 29021KT 260V320 9999 FEW020 15/12 Q1014
                        NOSIG=
200803112130 METAR LMML NIL=
200803112115 METAR LMML 112115Z 29019KT 9999 SCT016 15/12 Q1014 NOSIG=
200803112100 METAR LMML NIL=
200803112045 METAR LMML 112045Z 29020KT 9999 SCT016 15/11 Q1014 NOSIG=
200803112030 METAR LMML NIL=
200803112015 METAR LMML 112015Z 29020KT 9999 SCT016 15/11 Q1014 NOSIG=
200803111945 METAR LMML 111945Z 29020KT 260V320 9999 SCT016 15/12 Q1013
                        NOSIG=
200803111930 METAR LMML NIL=
200803111915 METAR LMML 111915Z 29021KT 9999 SCT016 15/13 Q1013 NOSIG=
200803111900 METAR LMML NIL=
200803111845 METAR LMML 111845Z 28021KT 250V310 9999 SCT016 15/13 Q1013
                        NOSIG=
200803111830 METAR LMML NIL=
200803111815 METAR LMML 111815Z 28019KT 250V310 9999 SCT017 15/13 Q1012
                        NOSIG=
200803111800 METAR LMML NIL=
200803111745 METAR LMML 111745Z 29021KT 9999 SCT016 15/13 Q1012 NOSIG=
200803111730 METAR LMML NIL=
200803111715 METAR LMML 111715Z 28018G28KT 230V310 9999 BKN016 15/13 Q1012
                        NOSIG=
200803111700 METAR LMML NIL=
200803111645 METAR LMML 111645Z 28021KT 250V310 9999 FEW022 16/12 Q1011
                        NOSIG=
200803111630 METAR LMML NIL=
200803111615 METAR LMML 111615Z 28018KT 260V320 9999 FEW030 BKN090 16/12
                        Q1011 NOSIG=
200803111600 METAR LMML NIL=
200803111545 METAR LMML 111545Z 27018KT 220V300 9999 FEW046 BKN100 16/10
                        Q1011 TEMPO 800 0 RA=
200803111530 METAR LMML NIL=
200803111515 METAR LMML 111515Z 27016KT 240V300 9999 FEW040 SCT120 16/11
                        Q1011 TEMPO 800 0 RA=
200803111500 LMML NIL=
200803111445 LMML 111445Z 27016KT 220V310 9999 FEW040 17/11 Q1011 NOSIG=
200803111430 METAR LMML NIL=
200803111415 METAR LMML 111415Z 26015KT 210V300 CAVOK 18/11 Q1011 NOSIG=
200803111345 METAR LMML 111345Z 26014KT 220V290 9999 FEW015 17/12 Q1011
                        NOSIG=
200803111330 METAR LMML NIL=
200803111315 METAR LMML 111315Z 25014KT 210V290 9999 FEW015 18/13 Q1011
                        NOSIG=
200803111300 METAR LMML NIL=
200803111245 METAR LMML 111245Z 23013KT 190V290 CAVOK 18/13 Q1011 NOSIG=
200803111230 METAR LMML NIL=
200803111215 METAR LMML 111215Z 23008KT 190V270 CAVOK 18/12 Q1011 NOSIG=
200803111145 METAR LMML 111145Z 23007KT 200V270 CAVOK 19/11 Q1011 NOSIG=
200803111130 LMML NIL=
200803111115 METAR LMML 111115Z 27006KT 230V310 CAVOK 19/10 Q1011 NOSIG=
200803111100 METAR LMML NIL=
200803111045 METAR LMML 111045Z 30005KT 270V330 CAVOK 18/10 Q1012 NOSIG=
200803111030 LMML NIL=
200803111015 METAR LMML 111015Z 34007KT 320V020 CAVOK 19/10 Q1012 NOSIG=
200803111000 METAR LMML NIL=
200803110945 METAR LMML 110945Z 32008KT 300V360 9999 FEW035 18/10 Q1012
                        NOSIG=
200803110930 METAR LMML NIL=
200803110915 METAR LMML 110915Z 31004KT 250V350 9999 FEW030 SCT070 18/09
                        Q1011 NOSIG=
200803110900 METAR LMML NIL=
200803110845 METAR LMML 110845Z 33004KT 300V010 CAVOK 17/11 Q1011 NOSIG=
200803110830 METAR LMML NIL=
200803110815 METAR LMML 110815Z 32006KT 300V010 9999 FEW012 17/13 Q1011
                        NOSIG=
200803110800 METAR LMML NIL=
200803110745 METAR LMML 110745Z 32004KT 280V350 9999 FEW009 16/14 Q1011
                        NOSIG=
200803110730 METAR LMML NIL=
200803110715 METAR LMML 110715Z 35004KT 9999 FEW009 SCT120 15/15 Q1011
                        NOSIG=
200803110700 METAR LMML NIL=
200803110645 METAR LMML 110645Z 35004KT 9999 FEW009 SCT120 14/14 Q1011
                        NOSIG=
200803110630 METAR LMML NIL=
200803110615 METAR LMML 110615Z 34004KT 9999 FEW009 BKN120 14/14 Q1011
                        NOSIG=
200803110600 METAR LMML NIL=
200803110545 METAR LMML 110545Z 34004KT 9999 FEW012 BKN120 13/13 Q1011
                        BECMG 27010KT=
200803110530 METAR LMML NIL=
200803110515 METAR LMML 110515Z VRB03KT 9999 FEW012 BKN120 14/14 Q1010
                        BECMG 27010KT=
200803110445 METAR LMML 110445Z VRB01KT 9999 FEW012 BKN120 14/14 Q1010
                        BECMG 27010KT=
200803110430 METAR LMML NIL=
200803110415 METAR LMML 110415Z VRB01KT 9999 FEW009 BKN120 14/13 Q1011
                        NOSIG=
200803110400 LMML NIL=
200803110345 METAR LMML 110345Z VRB02KT 9999 FEW009 BKN120 14/13 Q1011
                        NOSIG=
200803110330 METAR LMML NIL=
200803110315 METAR LMML 110315Z VRB02KT 9999 FEW012 BKN120 14/13 Q1011
                        NOSIG=
200803110245 METAR LMML 110245Z 18004KT 150V220 9999 FEW012 BKN120 14/13
                        Q1011 NOSIG=
200803110215 METAR LMML 110215Z VRB02KT 9999 FEW012 BKN120 14/13 Q1011
                        NOSIG=
200803110200 METAR LMML NIL=
200803110145 METAR LMML 110145Z 18005KT 080V230 9999 FEW012 BKN120 15/14
                        Q1011 NOSIG=
200803110130 METAR LMML NIL=
200803110115 METAR LMML 110115Z 18007KT 150V220 9999 FEW012 BKN120 15/14
                        Q1011 NOSIG=
200803110100 METAR LMML NIL=
200803110045 METAR LMML 110045Z 18009KT 9999 FEW012 BKN120 15/14 Q1011
                        NOSIG=
200803110030 METAR LMML NIL=
200803110015 METAR LMML 110015Z 18008KT 150V210 9999 FEW012 BKN120 15/14
                        Q1012 NOSIG=
200803102345 METAR LMML 102345Z 18007KT 150V210 9999 FEW012 BKN120 15/14
                        Q1012 NOSIG=
200803102330 METAR LMML NIL=
200803102315 METAR LMML 102315Z 18008KT 150V220 9999 FEW012 BKN120 15/14
                        Q1013 NOSIG=
200803102300 METAR LMML NIL=
200803102245 METAR LMML 102245Z 18009KT 150V210 9999 FEW012 BKN120 15/14
                        Q1013 NOSIG=
200803102215 METAR LMML 102215Z 18010KT 140V200 9999 FEW012 BKN120 15/13
                        Q1013 NOSIG=
200803102200 METAR LMML NIL=
200803102145 METAR LMML 102145Z 17009KT 140V210 9999 FEW012 BKN120 15/13
                        Q1013 NOSIG=
200803102115 METAR LMML 102115Z 17007KT 140V210 9999 FEW012 BKN120 15/13
                        Q1013 NOSIG=
200803102100 METAR LMML NIL=
200803102045 METAR LMML 102045Z 18008KT 9999 FEW013 BKN120 15/13 Q1014
                        NOSIG=
200803102030 METAR LMML NIL=
200803102015 METAR LMML 102015Z 18007KT 150V230 9999 FEW013 BKN120 15/13
                        Q1014 NOSIG=
200803101945 METAR LMML 101945Z 18006KT 150V210 9999 FEW012 BKN120 15/13
                        Q1014 NOSIG=
200803101930 METAR LMML NIL=
200803101915 METAR LMML 101915Z 18007KT 150V210 9999 FEW013 BKN120 15/13
                        Q1014 NOSIG=
200803101900 LMML NIL=
200803101845 LMML 101845Z 19006KT 160V220 9999 FEW013 BKN120 15/13 Q1014
                        NOSIG=
200803101830 METAR LMML NIL=
200803101815 METAR LMML 101815Z 19007KT 160V230 9999 FEW014 SCT120 15/13
                        Q1014 NOSIG=
200803101800 METAR LMML NIL=
200803101745 METAR LMML 101745Z 19006KT 150V210 9999 FEW014 SCT120 SCT250
                        15/13 Q1013 NO SIG=
200803101730 METAR LMML NIL=
200803101715 METAR LMML 101715Z 18007KT 9999 FEW015 SCT120 BKN250 15/12
                        Q1013 NOSIG=
200803101700 METAR LMML NIL=
200803101645 METAR LMML 101645Z 18008KT 9999 FEW016 SCT120 BKN250 15/12
                        Q1013 NOSIG=
200803101630 METAR LMML NIL=
200803101615 METAR LMML 101615Z 18007KT 150V210 9999 FEW016 SCT120 BKN250
                        15/12 Q1013 NO SIG=
200803101600 METAR LMML NIL=
200803101545 METAR LMML 101545Z 18008KT 150V230 9999 FEW016 BKN250 15/12
                        Q1014 NOSIG=
200803101530 METAR LMML NIL=
200803101515 METAR LMML 101515Z 19007KT 160V230 9999 FEW018 BKN250 16/12
                        Q1014 NOSIG=
200803101500 METAR LMML NIL=
200803101445 METAR LMML 101445Z 18006KT 140V230 9999 FEW018 SCT250 17/12
                        Q1014 NOSIG=
200803101430 METAR LMML NIL=
200803101415 METAR LMML 101415Z 18007KT 140V220 9999 FEW020 16/12 Q1014
                        NOSIG=
200803101400 METAR LMML NIL=
200803101345 METAR LMML 101345Z 20006KT 150V260 9999 FEW021 17/12 Q1015
                        NOSIG=
200803101315 METAR LMML 101315Z 17007KT 130V210 9999 FEW021 16/11 Q1015
                        NOSIG=
200803101300 METAR LMML NIL=
200803101245 METAR LMML 101245Z 18006KT 130V210 9999 FEW025 17/11 Q1015
                        NOSIG=
200803101230 METAR LMML NIL=
200803101215 METAR LMML 101215Z 18007KT 150V230 9999 FEW025 17/11 Q1016
                        NOSIG=
200803101200 METAR LMML NIL=
200803101145 METAR LMML 101145Z 19007KT 170V230 9999 FEW025 17/11 Q1016
                        NOSIG=
200803101130 METAR LMML NIL=
200803101115 METAR LMML 101115Z 18007KT 160V240 9999 FEW025 17/11 Q1016
                        NOSIG=
200803101100 METAR LMML NIL=
200803101045 METAR LMML 101045Z 19007KT 120V260 9999 FEW025 17/11 Q1016
                        NOSIG=
200803101030 METAR LMML NIL=
200803101015 METAR LMML 101015Z 19006KT 150V270 9999 FEW020 17/12 Q1017
                        NOSIG=
200803100945 METAR LMML 100945Z 20005KT 150V270 9999 FEW020 17/11 Q1017
                        NOSIG=
200803100930 METAR LMML NIL=
200803100915 METAR LMML 100915Z 18006KT 150V220 9999 FEW020 16/10 Q1017
                        NOSIG=
200803100900 METAR LMML NIL=
200803100845 METAR LMML 100845Z 19007KT 160V250 9999 FEW020 16/11 Q1017
                        NOSIG=
200803100830 METAR LMML NIL=
200803100815 METAR LMML 100815Z 19006KT 160V250 9999 FEW020 15/11 Q1016
                        NOSIG=
200803100800 METAR LMML NIL=
200803100745 METAR LMML 100745Z 19005KT 150V250 9999 FEW020 15/11 Q1016
                        NOSIG=
200803100730 METAR LMML NIL=
200803100715 METAR LMML 100715Z 19004KT 150V230 9999 FEW018 15/12 Q1016
                        NOSIG=
200803100700 METAR LMML NIL=
200803100645 METAR LMML 100645Z VRB02KT 9999 FEW018 14/11 Q1016 NOSIG=
200803100630 METAR LMML NIL=
200803100615 METAR LMML 100615Z VRB03KT 9999 FEW018 12/11 Q1016 NOSIG=
200803100600 METAR LMML NIL=
200803100545 METAR LMML 100545Z VRB03KT 9999 FEW018 11/10 Q1016 NOSIG=
200803100530 METAR LMML NIL=
200803100515 METAR LMML 100515Z VRB03KT 9999 FEW019 11/10 Q1015 NOSIG=
200803100445 METAR LMML 100445Z VRB03KT 9999 FEW020 10/10 Q1015 NOSIG=
200803100430 METAR LMML NIL=
200803100415 METAR LMML 100415Z VRB02KT 9999 FEW021 10/10 Q1015 NOSIG=
200803100400 METAR LMML NIL=
200803100345 METAR LMML 100345Z VRB02KT 9999 FEW019 10/10 Q1015 NOSIG=
200803100315 METAR LMML 100315Z VRB02KT 9999 FEW019 11/10 Q1015 NOSIG=
200803100300 METAR LMML NIL=
200803100245 METAR LMML 100245Z VRB03KT 9999 FEW019 11/10 Q1015 NOSIG=
200803100230 METAR LMML NIL=
200803100215 METAR LMML 100215Z VRB03KT 9999 FEW020 10/10 Q1015 NOSIG=
200803100200 METAR LMML NIL=
200803100145 METAR LMML 100145Z VRB02KT 9999 FEW020 11/10 Q1016 NOSIG=
200803100130 METAR LMML NIL=
200803100115 METAR LMML 100115Z VRB02KT 9999 FEW020 10/09 Q1016 NOSIG=
200803100100 METAR LMML NIL=
200803100045 METAR LMML 100045Z VRB02KT 9999 FEW020 11/09 Q1016 NOSIG=
200803100030 METAR LMML NIL=
200803100015 METAR LMML 100015Z VRB03KT 9999 FEW020 12/10 Q1016 NOSIG=
200803100000 METAR LMML NIL=
200803092345 METAR LMML 092345Z 25004KT 9999 FEW020 11/09 Q1016 NOSIG=
200803092315 METAR LMML 092315Z 26004KT 9999 FEW020 12/09 Q1016 NOSIG=
200803092300 METAR LMML NIL=
200803092245 METAR LMML 092245Z 26004KT 9999 FEW020 12/10 Q1016 NOSIG=
200803092230 METAR LMML NIL=
200803092215 METAR LMML 092215Z 26004KT 9999 FEW020 12/10 Q1016 NOSIG=
200803092200 METAR LMML NIL=
200803092145 METAR LMML 092145Z 25004KT 9999 FEW020 12/10 Q1016 NOSIG=
200803092130 METAR LMML NIL=
200803092115 METAR LMML 092115Z 24005KT 9999 FEW022 13/10 Q1016 NOSIG=
200803092100 METAR LMML NIL=
200803092045 METAR LMML 092045Z 23004KT 9999 FEW022 BKN060 13/11 Q1016
                        NOSIG=
200803092030 METAR LMML NIL=
200803092015 METAR LMML 092015Z 23005KT 200V280 9999 FEW022 BKN060 13/10
                        Q1015 NOSIG=
200803092000 METAR LMML NIL=
200803091945 METAR LMML 091945Z 23004KT 9999 FEW022 BKN060 13/11 Q1015
                        NOSIG=
200803091930 METAR LMML NIL=
200803091915 METAR LMML 091915Z VRB02KT 9999 FEW022 BKN060 13/11 Q1015
                        NOSIG=
200803091900 METAR LMML NIL=
200803091845 METAR LMML 091845Z VRB02KT 9999 FEW022 BKN060 13/10 Q1015
                        NOSIG=
200803091830 METAR LMML NIL=
200803091815 METAR LMML 091815Z VRB03KT 9999 FEW023 SCT060 12/10 Q1015
                        NOSIG=
200803091800 METAR LMML NIL=
200803091745 METAR LMML 091745Z VRB03KT 9999 FEW023 SCT060 12/09 Q1015
                        NOSIG=
200803091730 METAR LMML NIL=
200803091715 METAR LMML 091715Z 23005KT 200V270 9999 SCT023 SCT060 13/10
                        Q1015 NOSIG=
200803091700 METAR LMML NIL=
200803091645 METAR LMML 091645Z VRB03KT 9999 SCT022 BKN060 14/09 Q1014
                        NOSIG=
200803091630 METAR LMML NIL=
200803091615 METAR LMML 091615Z 20004KT 170V240 9999 SCT024 SCT060 14/09
                        Q1014 NOSIG=
200803091600 METAR LMML NIL=
200803091545 METAR LMML 091545Z 21004KT 160V290 9999 SCT027 BKN060 15/09
                        Q1014 NOSIG=
200803091530 METAR LMML NIL=
200803091515 METAR LMML 091515Z 21005KT 160V260 9999 SCT025 BKN050 14/09
                        Q1014 NOSIG=
200803091500 METAR LMML NIL=
200803091445 METAR LMML 091445Z 19005KT 160V240 9999 FEW028 BKN050 14/09
                        Q1014 NOSIG=
200803091430 METAR LMML NIL=
200803091415 METAR LMML 091415Z 19005KT 160V230 9999 FEW027 BKN047 14/08
                        Q1014 NOSIG=
200803091345 METAR LMML 091345Z 23005KT 190V270 9999 SCT026 BKN050 14/09
                        Q1014 NOSIG=
200803091330 METAR LMML NIL=
200803091315 METAR LMML 091315Z VRB03KT 9999 SCT033 BKN050 15/09 Q1014
                        NOSIG=
200803091245 METAR LMML 091245Z 22004KT 170V260 9999 SCT030 BKN050 14/08
                        Q1014 NOSIG=
200803091230 METAR LMML NIL=
200803091215 METAR LMML 091215Z 22005KT 170V260 9999 FEW030 BKN041 14/07
                        Q1014 NOSIG=
200803091200 METAR LMML NIL=
200803091145 METAR LMML 091145Z 22005KT 150V270 9999 FEW030 BKN048 15/08
                        Q1015 NOSIG=
200803091130 METAR LMML NIL=
200803091115 METAR LMML 091115Z 24004KT 190V290 9999 FEW030 BKN050 15/06
                        Q1015 NOSIG=
200803091045 METAR LMML 091045Z 24005KT 190V290 9999 FEW030 BKN050 14/05
                        Q1015 NOSIG=
200803091030 METAR LMML NIL=
200803091015 METAR LMML 091015Z 23005KT 200V290 9999 -RA FEW030 BKN070
                        14/06 Q1015 NOSIG=
200803091000 METAR LMML NIL=
200803090945 METAR LMML 090945Z 23004KT 190V260 9999 FEW030 BKN070 15/07
                        Q1015 NOSIG=
200803090930 METAR LMML NIL=
200803090915 METAR LMML 090915Z 25004KT 200V300 9999 FEW030 BKN080 14/06
                        Q1015 NOSIG=
200803090900 METAR LMML NIL=
200803090845 METAR LMML 090845Z 25004KT 200V300 9999 FEW030 SCT090 14/08
                        Q1015 NOSIG=
200803090830 METAR LMML NIL=
200803090815 METAR LMML 090815Z VRB02KT 9999 FEW035 SCT090 14/07 Q1015
                        NOSIG=
200803090800 METAR LMML NIL=
200803090745 METAR LMML 090745Z VRB01KT 9999 FEW035 13/07 Q1015 NOSIG=
200803090730 METAR LMML NIL=
200803090715 METAR LMML 090715Z VRB01KT 9999 FEW035 SCT250 12/09 Q1015
                        NOSIG=
200803090700 METAR LMML NIL=
200803090645 METAR LMML 090645Z VRB01KT 9999 FEW035 SCT250 10/08 Q1014
                        NOSIG=
200803090630 METAR LMML NIL=
200803090615 METAR LMML 090615Z VRB02KT 9999 FEW035 SCT250 08/06 Q1014
                        NOSIG=
200803090600 METAR LMML NIL=
200803090545 METAR LMML 090545Z VRB03KT 9999 FEW035 08/06 Q1014 NOSIG=
200803090530 METAR LMML NIL=
200803090515 METAR LMML 090515Z VRB03KT 9999 FEW035 08/06 Q1013 NOSIG=
200803090500 METAR LMML NIL=
200803090445 METAR LMML 090445Z 28004KT 9999 FEW035 09/06 Q1013 NOSIG=
200803090430 METAR LMML NIL=
200803090415 METAR LMML 090415Z 27004KT CAVOK 09/06 Q1013 NOSIG=
200803090400 METAR LMML NIL=
200803090345 METAR LMML 090345Z VRB03KT CAVOK 09/07 Q1013 NOSIG=
200803090330 METAR LMML NIL=
200803090315 METAR LMML 090315Z VRB03KT CAVOK 09/06 Q1013 NOSIG=
200803090300 METAR LMML NIL=
200803090245 METAR LMML 090245Z 24004KT CAVOK 09/06 Q1013 NOSIG=
200803090230 METAR LMML NIL=
200803090215 METAR LMML 090215Z 27005KT 230V290 CAVOK 09/06 Q1013 NOSIG=
200803090200 METAR LMML NIL=
200803090145 METAR LMML 090145Z VRB03KT CAVOK 09/06 Q1013 NOSIG=
200803090130 METAR LMML NIL=
200803090115 METAR LMML 090115Z 27005KT CAVOK 10/06 Q1013 NOSIG=
200803090100 METAR LMML NIL=
200803090045 METAR LMML 090045Z 28005KT CAVOK 09/06 Q1013 NOSIG=
200803090030 METAR LMML NIL=
200803090015 METAR LMML 090015Z VRB03KT CAVOK 09/06 Q1013 NOSIG=
200803090000 METAR LMML NIL=
200803082345 METAR LMML 082345Z 26004KT CAVOK 10/06 Q1013 NOSIG=
200803082330 METAR LMML NIL=
200803082315 METAR LMML 082315Z 24004KT 9999 FEW030 10/06 Q1013 NOSIG=
200803082300 METAR LMML NIL=
200803082245 METAR LMML 082245Z VRB03KT 9999 FEW030 09/06 Q1013 NOSIG=
200803082230 METAR LMML NIL=
200803082215 METAR LMML 082215Z VRB02KT 9999 FEW030 10/06 Q1013 NOSIG=
200803082200 METAR LMML NIL=
200803082145 METAR LMML 082145Z 24004KT 9999 FEW030 10/06 Q1013 NOSIG=
200803082130 METAR LMML NIL=
200803082115 METAR LMML 082115Z 26004KT 9999 FEW039 10/07 Q1013 NOSIG=
200803082100 METAR LMML NIL=
200803082045 METAR LMML 082045Z 25004KT 9999 FEW039 10/07 Q1013 NOSIG=
200803082030 METAR LMML NIL=
200803082015 METAR LMML 082015Z 25004KT 9999 FEW039 10/07 Q1013 NOSIG=
200803081945 METAR LMML 081945Z VRB02KT 9999 FEW039 11/08 Q1012 NOSIG=
200803081930 METAR LMML NIL=
200803081915 METAR LMML 081915Z 20004KT 160V230 9999 FEW031 SCT045 11/08
                        Q1012 NOSIG=
200803081900 METAR LMML NIL=
200803081845 METAR LMML 081845Z VRB02KT 9999 SCT035 BKN060 11/08 Q1012
                        RESHRA NOSIG=
200803081830 METAR LMML NIL=
200803081815 METAR LMML 081815Z 25009G22KT 220V290 9999 SHRA SCT041 SCT050
                        BKN090 10/07 Q1012 TEMPO 8000 SHRA=
200803081800 METAR LMML NIL=
200803081745 METAR LMML 081745Z 23004KT 180V280 9999 -SHRA SCT037 SCT050
                        BKN090 10/08 Q1 012 TEMPO 8000 SHRA=
200803081730 METAR LMML NIL=
200803081715 METAR LMML 081715Z VRB02KT 9999 SCT030 SCT050 BKN090 10/08
                        Q1011 TEMPO 8000 SHRA=
200803081700 METAR LMML NIL=
200803081645 METAR LMML 081645Z 30004KT 9999 SCT030 BKN070 11/08 Q1011
                        TEMPO 8000 SHRA=
200803081630 METAR LMML NIL=
200803081615 METAR LMML 081615Z 31006KT 9999 -SHRA SCT032 BKN040 11/07
                        Q1011 TEMPO 8000 SHRA=
200803081600 METAR LMML NIL=
200803081545 METAR LMML 081545Z VRB02KT 9999 SCT027 BKN050 12/07 Q1011
                        TEMPO 8000 SHRA=
200803081530 METAR LMML NIL=
200803081515 METAR LMML 081515Z VRB03KT 9999 SCT030 SCT050 11/07 Q1011
                        TEMPO 8000 SHRA=
200803081500 LMML NIL=
200803081445 LMML 081445Z 32008KT 9999 SCT025 SCT090 12/08 Q1011 TEMPO
                        8000 SHRA=
200803081430 METAR LMML NIL=
200803081415 METAR LMML 081415Z 27009KT 230V310 8000 -SHRA SCT025TCU SCT060
                        11/08 Q1011 NOSIG=
200803081400 METAR LMML NIL=
200803081345 METAR LMML 081345Z 26010KT 230V310 8000 -SHRA SCT025TCU BKN090
                        11/07 Q1011 NOSIG=
200803081330 METAR LMML NIL=
200803081315 METAR LMML 081315Z 26012KT 230V290 8000 SCT025 SCT060 BKN090
                        11/07 Q1011 NO SIG=
200803081300 METAR LMML NIL=
200803081245 METAR LMML 081245Z 23007G18KT 180V290 9999 -SHRA SCT042 BKN047
                        14/06 Q1010 TEMPO 8000 SHRA=
200803081230 METAR LMML NIL=
200803081215 METAR LMML 081215Z 24007KT 200V290 9999 SCT030 BKN050 14/04
                        Q1011 TEMPO 800 0 SHRA=
200803081200 METAR LMML NIL=
200803081145 METAR LMML 081145Z 25006KT 200V280 9999 SCT030 BKN050 13/05
                        Q1011 TEMPO 800 0 SHRA=
200803081130 METAR LMML NIL=
200803081115 METAR LMML 081115Z 18005KT 150V220 9999 SCT030 BKN060 13/07
                        Q1011 TEMPO 800 0 SHRA=
200803081100 METAR LMML NIL=
200803081045 METAR LMML 081045Z 18008KT 130V220 9999 -SHRA SCT030 BKN060
                        12/07 Q1012 TEM PO 8000 SHRA=
200803081030 METAR LMML NIL=
200803081015 METAR LMML 081015Z 22006KT 190V270 9999 SCT030 SCT056 BKN100
                        13/05 Q1012 TE MPO 8000 SHRA=
200803081000 METAR LMML NIL=
200803080945 METAR LMML 080945Z 22004KT 190V250 9999 SCT030 SCT070 BKN100
                        13/06 Q1012 TE MPO 8000 SHRA=
200803080930 METAR LMML NIL=
200803080915 METAR LMML 080915Z 23006KT 190V270 9999 SCT030 SCT070 BKN100
                        13/05 Q1012 TE MPO 8000 SHRA=
200803080900 METAR LMML NIL=
200803080845 METAR LMML 080845Z 26012KT 230V300 9999 SCT030 BKN120 13/06
                        Q1012 TEMPO 800 0 SHRA=
200803080830 METAR LMML NIL=
200803080815 METAR LMML 080815Z 20008KT 160V240 9999 FEW030 SCT050 BKN120
                        14/05 Q1012 TE MPO 8000 SHRA=
200803080800 LMML NIL=
200803080745 LMML 080745Z 18008KT 140V240 9999 FEW039 SCT090 13/06 Q1011
                        TEMPO 800 0 SHRA=
200803080730 METAR LMML NIL=
200803080715 METAR LMML 080715Z 18013KT 150V210 9999 SCT039 SCT080 BKN250
                        12/04 Q1012 TE MPO 8000 SHRA=
200803080645 METAR LMML 080645Z 17016KT 140V210 9999 FEW039 SCT050 12/06
                        Q1012 TEMPO 800 0 SHRA=
200803080630 METAR LMML NIL=
200803080615 METAR LMML 080615Z 18007KT 150V220 9999 FEW030 SCT050 BKN250
                        13/05 Q1011 TE MPO 8000 SHRA=
200803080600 METAR LMML NIL=
200803080545 METAR LMML 080545Z 21005KT 170V260 9999 SCT030 BKN060 13/04
                        Q1011 TEMPO 800 0 SHRA=
200803080530 METAR LMML NIL=
200803080515 METAR LMML 080515Z 19008KT 150V250 9999 -RA SCT034 BKN060
                        13/04 Q1011 TEMPO 8000 SHRA=
200803080500 METAR LMML NIL=
200803080445 METAR LMML 080445Z 21010KT 180V270 CAVOK 13/02 Q1012 NOSIG=
200803080430 METAR LMML NIL=
200803080415 METAR LMML 080415Z 21010KT 170V260 CAVOK 13/02 Q1011 NOSIG=
200803080400 METAR LMML NIL=
200803080345 METAR LMML 080345Z 21011KT 160V260 CAVOK 13/01 Q1011 NOSIG=
200803080330 METAR LMML NIL=
200803080315 METAR LMML 080315Z 21010KT 160V250 CAVOK 13/02 Q1011 NOSIG=
200803080300 METAR LMML NIL=
200803080245 METAR LMML 080245Z 22010KT 190V260 CAVOK 13/03 Q1011 NOSIG=
200803080230 METAR LMML NIL=
200803080215 METAR LMML 080215Z 22011KT 180V270 CAVOK 13/02 Q1011 NOSIG=
200803080200 METAR LMML NIL=
200803080145 METAR LMML 080145Z 22012KT 190V270 CAVOK 13/02 Q1011 NOSIG=
200803080130 METAR LMML NIL=
200803080115 METAR LMML 080115Z 22012KT 180V260 CAVOK 13/02 Q1012 NOSIG=
200803080100 METAR LMML NIL=
200803080045 METAR LMML 080045Z 22012KT 190V260 CAVOK 13/02 Q1012 NOSIG=
200803080030 METAR LMML NIL=
200803080015 METAR LMML 080015Z 23013KT 190V270 CAVOK 13/02 Q1012 NOSIG=
200803080000 METAR LMML NIL=
200803072345 METAR LMML 072345Z 23012KT 200V270 9999 FEW040 13/02 Q1013
                        NOSIG=
200803072330 METAR LMML NIL=
200803072315 METAR LMML 072315Z 22012KT 180V260 9999 FEW040 13/02 Q1013
                        NOSIG=
200803072245 METAR LMML 072245Z 22012KT 190V270 9999 FEW040 13/01 Q1013
                        NOSIG=
200803072230 METAR LMML NIL=
200803072215 METAR LMML 072215Z 22014KT 190V270 9999 FEW040 13/01 Q1013
                        NOSIG=
200803072200 METAR LMML NIL=
200803072145 METAR LMML 072145Z 22009KT 190V270 9999 FEW040 13/03 Q1013
                        NOSIG=
200803072130 METAR LMML NIL=
200803072115 METAR LMML 072115Z 22013KT 190V260 9999 FEW040 13/02 Q1013
                        NOSIG=
200803072100 METAR LMML NIL=
200803072045 METAR LMML 072045Z 22012KT 190V260 9999 FEW040 13/02 Q1013
                        NOSIG=
200803072030 METAR LMML NIL=
200803072015 METAR LMML 072015Z 23010KT 200V270 9999 FEW040 13/01 Q1013
                        NOSIG=
200803072000 METAR LMML NIL=
200803071945 METAR LMML 071945Z 22012KT 190V280 9999 FEW043 13/01 Q1012
                        NOSIG=
200803071930 METAR LMML NIL=
200803071915 METAR LMML 071915Z 22012KT 180V260 9999 FEW048 13/03 Q1012
                        NOSIG=
200803071900 METAR LMML NIL=
200803071845 METAR LMML 071845Z 22012KT 190V280 9999 FEW044 13/02 Q1012
                        NOSIG=
200803071830 METAR LMML NIL=
200803071815 METAR LMML 071815Z 22011G21KT 200V270 9999 FEW044 12/04 Q1012
                        NOSIG=
200803071800 METAR LMML NIL=
200803071745 METAR LMML 071745Z 23011KT 190V260 9999 FEW045 12/03 Q1012
                        NOSIG=
200803071730 METAR LMML NIL=
200803071715 METAR LMML 071715Z 23011KT 200V270 9999 SCT043 13/04 Q1012
                        NOSIG=
200803071700 METAR LMML NIL=
200803071645 METAR LMML 071645Z 23015KT 200V280 9999 SCT048 13/03 Q1011
                        NOSIG=
200803071630 METAR LMML NIL=
200803071615 METAR LMML 071615Z 23014KT 180V280 9999 SCT048 13/04 Q1011
                        NOSIG=
200803071600 METAR LMML NIL=
200803071545 METAR LMML 071545Z 23014KT 200V280 9999 SCT047 13/03 Q1011
                        NOSIG=
200803071530 METAR LMML NIL=
200803071515 METAR LMML 071515Z 23013KT 190V280 9999 FEW048 14/03 Q1011
                        NOSIG=
200803071500 METAR LMML NIL=
200803071445 METAR LMML 071445Z 24015G25KT 200V270 9999 FEW044 14/03 Q1011
                        NOSIG=
200803071430 METAR LMML NIL=
200803071415 METAR LMML 071415Z 24016G26KT 200V270 9999 SCT040 14/05 Q1011
                        NOSIG=
200803071400 METAR LMML NIL=
200803071345 METAR LMML 071345Z 23018KT 190V270 9999 SCT036 14/06 Q1011
                        NOSIG=
200803071330 METAR LMML NIL=
200803071315 METAR LMML 071315Z 24018KT 190V280 9999 SCT035 14/05 Q1011
                        NOSIG=
200803071300 METAR LMML NIL=
200803071245 METAR LMML 071245Z 23016KT 190V290 9999 SCT035 14/06 Q1011
                        NOSIG=
200803071230 METAR LMML NIL=
200803071215 METAR LMML 071215Z 23015G25KT 180V280 9999 SCT033 14/06 Q1011
                        NOSIG=
200803071200 METAR LMML NIL=
200803071145 METAR LMML 071145Z 24016KT 210V280 9999 SCT033 14/07 Q1011
                        NOSIG=
200803071115 METAR LMML 071115Z 24018KT 200V280 9999 SCT034 14/06 Q1011
                        NOSIG=
200803071100 METAR LMML NIL=
200803071045 METAR LMML 071045Z 24017KT 200V280 9999 SCT032 13/06 Q1011
                        NOSIG=
200803071030 METAR LMML NIL=
200803071015 METAR LMML 071015Z 24014KT 190V300 9999 SCT033 14/07 Q1011
                        NOSIG=
200803071000 METAR LMML NIL=
200803070945 METAR LMML 070945Z 24017KT 200V280 9999 SCT031 13/06 Q1011
                        NOSIG=
200803070930 METAR LMML NIL=
200803070915 METAR LMML 070915Z 25018KT 210V280 9999 SCT033 13/07 Q1010
                        NOSIG=
200803070900 METAR LMML NIL=
200803070845 METAR LMML 070845Z 25018KT 180V290 9999 SCT033 13/06 Q1010
                        NOSIG=
200803070830 METAR LMML NIL=
200803070815 METAR LMML 070815Z 25019KT 210V280 9999 SCT027 13/07 Q1010
                        NOSIG=
200803070800 METAR LMML NIL=
200803070745 METAR LMML 070745Z 26013KT 210V290 9999 -SHRA SCT022 SCT050
                        11/07 Q1010 TEM PO 8000 SHRA=
200803070730 METAR LMML NIL=
200803070715 METAR LMML 070715Z 25019G29KT 200V290 9000 -SHRA SCT024 BKN041
                        11/08 Q1010 TEMPO 8000 SHRA=
200803070700 METAR LMML NIL=
200803070645 METAR LMML 070645Z 25015KT 200V280 9999 SCT029 11/06 Q1009
                        TEMPO 8000 SHRA=
200803070615 METAR LMML 070615Z 26014KT 230V290 9999 SCT029 SCT060 11/07
                        Q1009 TEMPO 800 0 SHRA=
200803070600 METAR LMML NIL=
200803070545 METAR LMML 070545Z 25012G22KT 200V300 9999 SCT033 SCT250
                        11/07 Q1008 TEMPO 8000 SHRA=
200803070515 METAR LMML 070515Z 26015KT 210V290 9999 SCT028 11/06 Q1008
                        TEMPO 8000 SHRA=
200803070500 METAR LMML NIL=
200803070445 METAR LMML 070445Z 26015KT 220V300 9999 SCT028 SCT050 11/07
                        Q1008 TEMPO 800 0 SHRA=
200803070430 METAR LMML NIL=
200803070415 METAR LMML 070415Z 27009KT 240V300 9999 SCT025 BKN050 11/08
                        Q1008 TEMPO 800 0 SHRA=
200803070400 METAR LMML NIL=
200803070345 METAR LMML 070345Z 27011KT 240V310 9999 SCT025 BKN050 11/08
                        Q1008 TEMPO 800 0 SHRA=
200803070330 METAR LMML NIL=
200803070315 METAR LMML 070315Z 27015KT 9999 SCT025 SCT050 11/08 Q1008
                        TEMPO 8000 SHRA=
200803070300 METAR LMML NIL=
200803070245 METAR LMML 070245Z 27016KT 230V300 9999 SCT026 SCT043 11/08
                        Q1007 TEMPO 800 0 SHRA=
200803070230 METAR LMML NIL=
200803070215 METAR LMML 070215Z 25011KT 200V280 9999 FEW035 SCT060 11/07
                        Q1007 TEMPO 800 0 SHRA=
200803070200 METAR LMML NIL=
200803070145 METAR LMML 070145Z 25013KT 210V290 9999 FEW030 BKN050 11/07
                        Q1007 TEMPO 800 0 SHGR=
200803070130 METAR LMML NIL=
200803070115 METAR LMML 070115Z 26011KT 210V290 9999 FEW024 SCT050 11/08
                        Q1007 TEMPO 800 0 SHGR=
200803070100 METAR LMML NIL=
200803070045 METAR LMML 070045Z VRB03KT 9999 SCT031 BKN050 10/08 Q1007
                        TEMPO 8000 SHGR=
200803070030 METAR LMML NIL=
200803070015 METAR LMML 070015Z 25010KT 210V290 9999 SCT035 BKN060 10/07
                        Q1008 TEMPO 800 0 SHGR=
200803070000 METAR LMML NIL=
200803062345 METAR LMML 062345Z 22007KT 160V270 9999 SCT030 BKN050 10/07
                        Q1008 TEMPO 800 0 SHGR=
200803062330 METAR LMML NIL=
200803062315 METAR LMML 062315Z VRB03KT 9999 SCT029 SCT070 11/07 Q1008
                        TEMPO 8000 SHRA=
200803062249 LMML 062249Z 20004KT 170V240 CAVOK 11/07 Q1008 TEMPO 8000
                        SHRA=
200803062245 METAR LMML 062245Z 21012KT 9999 FEW040 10/05 Q1008 TEMPO
                        8000 SHRA=
200803062230 METAR LMML NIL=
200803062215 METAR LMML 062215Z 22007KT 190V260 9999 FEW040 11/07 Q1008
                        TEMPO 8000 SHRA=
200803062200 METAR LMML NIL=
200803062145 METAR LMML 062145Z 23011KT 170V270 9999 FEW043 SCT060 11/06
                        Q1009 TEMPO 800 0 SHRA=
200803062115 METAR LMML 062115Z 22009KT 190V270 9999 FEW043 SCT060 11/06
                        Q1009 TEMPO 800 0 SHRA=
200803062100 METAR LMML NIL=
200803062045 METAR LMML 062045Z 22008KT 200V260 9999 -SHRA FEW027 SCT070
                        10/06 Q1009 TEM PO 8000 SHRA=
200803062030 METAR LMML NIL=
200803062029 LMML 062029Z 22009KT 160V270 9999 -SHGR FEW038 SCT076 10/05
                        Q1009 TEM PO 8000 SHRA=
200803062015 METAR LMML 062015Z 20004KT 170V240 9999 -SHRA FEW039 SCT080
                        11/05 Q1009 TEM PO 8000 SHRA=
200803062000 METAR LMML NIL=
200803061945 METAR LMML 061945Z 19005KT 160V230 9999 FEW039 11/05 Q1009
                        TEMPO 8000 SHRA=
200803061930 METAR LMML NIL=
200803061915 METAR LMML 061915Z 22005KT 160V280 9999 FEW039 SCT090 11/04
                        Q1009 TEMPO 800 0 SHRA=
200803061900 METAR LMML NIL=
200803061845 METAR LMML 061845Z 23008KT 190V280 9999 FEW039 BKN090 11/04
                        Q1009 TEMPO 800 0 SHRA=
200803061830 METAR LMML NIL=
200803061815 METAR LMML 061815Z 21014G26KT 170V260 9999 -SHRA SCT035 BKN080
                        11/04 Q1009 TEMPO 8000 SHRA=
200803061800 METAR LMML NIL=
200803061745 METAR LMML 061745Z 21009KT 170V260 9999 SCT038 BKN090 SCT000
                        12/04 Q1008 TE MPO 8000 SHRA=
200803061730 METAR LMML NIL=
200803061715 METAR LMML 061715Z 23007KT 190V270 9999 FEW046 BKN094 12/06
                        Q1008 TEMPO 800 0 SHRA=
200803061700 METAR LMML NIL=
200803061645 METAR LMML 061645Z 25008KT 200V290 9999 FEW028 12/06 Q1008
                        NOSIG=
200803061630 METAR LMML NIL=
200803061615 METAR LMML 061615Z 23008KT 190V270 9999 SCT035 12/05 Q1007
                        NOSIG=
200803061600 METAR LMML NIL=
200803061545 METAR LMML 061545Z 24010KT 190V290 9999 FEW036 13/06 Q1007
                        NOSIG=
200803061530 METAR LMML NIL=
200803061515 METAR LMML 061515Z 24010KT 200V280 9999 FEW032 13/06 Q1007
                        NOSIG=
200803061500 METAR LMML NIL=
200803061445 METAR LMML 061445Z 23010KT 190V270 9999 FEW025 SCT040 14/06
                        Q1007 NOSIG=
200803061430 METAR LMML NIL=
200803061415 METAR LMML 061415Z 22009KT 190V270 9999 FEW025 SCT040 14/06
                        Q1007 NOSIG=
200803061400 LMML NIL=
200803061345 METAR LMML 061345Z 24009KT 200V290 9999 FEW025 SCT040 13/07
                        Q1007 NOSIG=
200803061330 LMML NIL=
200803061315 METAR LMML 061315Z 26012KT 220V290 9999 FEW033 SCT050 13/08
                        Q1007 NOSIG=
200803061300 METAR LMML NIL=
200803061245 METAR LMML 061245Z 25012KT 220V290 8000 FEW041 14/09 Q1007
                        NOSIG=
200803061230 METAR LMML NIL=
200803061215 METAR LMML 061215Z 22009KT 180V280 8000 FEW036 BKN050 14/06
                        Q1007 NOSIG=
200803061200 METAR LMML NIL=
200803061145 METAR LMML 061145Z 22009KT 180V250 8000 FEW038 BKN050 14/06
                        Q1007 NOSIG=
200803061130 METAR LMML NIL=
200803061115 METAR LMML 061115Z 21005KT 170V270 8000 FEW030 BKN046 14/07
                        Q1007 NOSIG=
200803061045 METAR LMML 061045Z 22006KT 180V250 8000 FEW036 BKN048 14/07
                        Q1008 NOSIG=
200803061030 METAR LMML NIL=
200803061015 METAR LMML 061015Z 24006KT 200V280 8000 FEW039 BKN047 13/07
                        Q1008 NOSIG=
200803061000 METAR LMML NIL=
200803060945 METAR LMML 060945Z 23006KT 200V270 8000 FEW035 BKN052 14/07
                        Q1008 NOSIG=
200803060930 METAR LMML NIL=
200803060915 METAR LMML 060915Z 23005KT 180V270 9999 -RA FEW034 BKN050
                        14/08 Q1008 NOSIG=
200803060845 METAR LMML 060845Z 24004KT 190V290 9999 FEW033 BKN050 14/08
                        Q1008 NOSIG=
200803060830 METAR LMML NIL=
200803060815 METAR LMML 060815Z 24006KT 200V270 9999 FEW030 BKN050 14/08
                        Q1008 NOSIG=
200803060800 METAR LMML NIL=
200803060745 METAR LMML 060745Z 23004KT 200V270 9999 FEW033 BKN050 13/10
                        Q1007 NOSIG=
200803060730 METAR LMML NIL=
200803060715 METAR LMML 060715Z 23004KT 200V270 9999 FEW033 BKN050 13/10
                        Q1007 NOSIG=
200803060700 METAR LMML NIL=
200803060645 METAR LMML 060645Z 23004KT 9999 FEW026 BKN047 13/10 Q1007
                        NOSIG=
200803060630 METAR LMML NIL=
200803060615 METAR LMML 060615Z VRB03KT 9999 FEW024 BKN050 12/11 Q1006
                        NOSIG=
200803060600 METAR LMML NIL=
200803060545 METAR LMML 060545Z VRB03KT 9999 FEW020 SCT043 11/11 Q1006
                        NOSIG=
200803060530 METAR LMML NIL=
200803060515 METAR LMML 060515Z VRB02KT 9999 FEW020 BKN044 11/11 Q1006
                        NOSIG=
200803060500 METAR LMML NIL=
200803060445 METAR LMML 060445Z VRB02KT 9999 BKN043 12/11 Q1006 NOSIG=
200803060415 METAR LMML 060415Z VRB02KT 9999 FEW016 BKN048 12/12 Q1006
                        TEMPO 5000 BR=
200803060400 METAR LMML NIL=
200803060345 METAR LMML 060345Z VRB01KT 9999 FEW015 BKN040 12/12 Q1006
                        TEMPO 5000 BR=
200803060330 METAR LMML NIL=
200803060315 METAR LMML 060315Z VRB01KT 9999 FEW015 SCT019 BKN037 12/12
                        Q1006 TEMPO 5000 BR=
200803060300 METAR LMML NIL=
200803060245 METAR LMML 060245Z VRB01KT 9999 FEW022 BKN037 12/12 Q1006
                        TEMPO 5000 BR=
200803060230 METAR LMML NIL=
200803060215 METAR LMML 060215Z VRB01KT 9999 -RA FEW012 BKN025 12/12 Q1006
                        TEMPO BKN012=
200803060200 METAR LMML NIL=
200803060145 METAR LMML 060145Z VRB03KT 9999 SCT012 BKN019 12/12 Q1006
                        TEMPO BKN013=
200803060130 METAR LMML NIL=
200803060115 METAR LMML 060115Z 29004KT 250V330 9999 FEW012 BKN019 12/12
                        Q1006 TEMPO BKN 013=
200803060100 LMML NIL=
200803060045 LMML 060045Z VRB01KT 9999 FEW016 BKN023 12/12 Q1006 TEMPO
                        BKN013=
200803060030 LMML NIL=
200803060015 METAR LMML 060015Z VRB03KT 9999 -RA FEW008 SCT015 BKN026
                        12/12 Q1007 TEMPO BKN013=
200803060000 METAR LMML NIL=
200803052345 METAR LMML 052345Z 31005KT 280V340 9000 -RA FEW008 BKN026
                        BKN130 12/12 Q100 7 TEMPO RA BKN008=
200803052330 METAR LMML NIL=
200803052315 METAR LMML 052315Z 31005KT 280V350 9999 -RA FEW011 BKN044
                        BKN130 13/13 Q100 6 TEMPO 8000 RA=
200803052245 LMML 052245Z 29007KT 260V330 9000 -RA FEW015 SCT031 BKN130
                        13/13 Q100 6 NOSIG=
200803052215 METAR LMML 052215Z VRB03KT 9999 -RA FEW012 SCT050 BKN130
                        13/13 Q1006 TEMPO 8000 RA=
200803052145 METAR LMML 052145Z 24005KT 200V270 9999 -RA SCT036 BKN070
                        13/13 Q1006 TEMPO 8000 RA=
200803052130 METAR LMML NIL=
200803052115 METAR LMML 052115Z 23004KT 190V280 9999 -RA FEW043 BKN070
                        13/13 Q1006 TEMPO 8000 RA BKN015=
200803052100 METAR LMML NIL=
200803052045 METAR LMML 052045Z VRB02KT 9999 -RA SCT034 BKN090 14/12 Q1006
                        TEMPO 8000 RA BKN015=
200803052030 METAR LMML NIL=
200803052015 METAR LMML 052015Z VRB02KT 9999 -RA SCT036 BKN090 14/12 Q1006
                        TEMPO 8000 RA BKN015=
200803052000 METAR LMML NIL=
200803051945 METAR LMML 051945Z VRB03KT CAVOK 14/11 Q1006 TEMPO 8000 RA
                        BKN015=
200803051930 METAR LMML NIL=
200803051915 METAR LMML 051915Z 31006KT CAVOK 14/12 Q1006 TEMPO 8000 RA
                        BKN015=
200803051900 METAR LMML NIL=
200803051845 METAR LMML 051845Z 31005KT 9999 FEW022 BKN100 14/11 Q1005
                        NOSIG=
200803051830 METAR LMML NIL=
200803051815 METAR LMML 051815Z 30007KT 9999 FEW022 BKN100 14/12 Q1005
                        NOSIG=
200803051800 METAR LMML NIL=
200803051745 METAR LMML 051745Z 30007KT 270V330 9999 FEW020 BKN100 14/12
                        Q1005 NOSIG=
200803051715 METAR LMML 051715Z 30008KT 9999 FEW021 BKN120 14/12 Q1004
                        NOSIG=
200803051700 METAR LMML NIL=
200803051645 METAR LMML 051645Z 30005KT 9999 FEW018 SCT120 15/12 Q1004
                        NOSIG=
200803051630 METAR LMML NIL=
200803051615 METAR LMML 051615Z 29007KT 9999 FEW018 SCT120 15/12 Q1004
                        NOSIG=
200803051600 METAR LMML NIL=
200803051545 METAR LMML 051545Z 30005KT 270V330 9999 FEW018 SCT110 16/12
                        Q1004 NOSIG=
200803051530 METAR LMML NIL=
200803051515 METAR LMML 051515Z 27007KT 230V320 9999 FEW018 SCT110 16/12
                        Q1004 NOSIG=
200803051500 METAR LMML NIL=
200803051445 METAR LMML 051445Z 27006KT 230V300 9999 SCT014 SCT110 16/13
                        Q1004 NOSIG=
200803051430 METAR LMML NIL=
200803051415 METAR LMML 051415Z 23005KT 170V280 9999 SCT012 17/14 Q1004
                        NOSIG=
200803051400 METAR LMML NIL=
200803051345 METAR LMML 051345Z VRB03KT 9999 SCT012 17/14 Q1004 NOSIG=
200803051330 METAR LMML NIL=
200803051326 LMML 051326Z 17004KT 110V260 9999 SCT012 SCT120 17/14 Q1004
                        NOSIG=
200803051315 METAR LMML 051315Z 17004KT 130V240 9999 BKN012 SCT120 17/14
                        Q1004 NOSIG=
200803051300 METAR LMML NIL=
200803051245 METAR LMML 051245Z 18004KT 120V260 9999 BKN012 17/14 Q1004
                        NOSIG=
200803051230 METAR LMML NIL=
200803051215 METAR LMML 051215Z 16006KT 120V210 9999 BKN012 17/14 Q1004
                        NOSIG=
200803051200 METAR LMML NIL=
200803051145 METAR LMML 051145Z 13008KT 100V180 9999 FEW011 17/14 Q1005
                        NOSIG=
200803051130 METAR LMML NIL=
200803051115 METAR LMML 051115Z 11006KT 9999 FEW011 17/14 Q1005 NOSIG=
200803051100 METAR LMML NIL=
200803051045 METAR LMML 051045Z 12007KT 080V150 9999 FEW015 17/14 Q1005
                        NOSIG=
200803051030 METAR LMML NIL=
200803051015 METAR LMML 051015Z 12008KT 080V140 9999 FEW015 17/15 Q1006
                        NOSIG=
200803051000 METAR LMML NIL=
200803050945 METAR LMML 050945Z VRB02KT 9999 FEW015 18/14 Q1006 NOSIG=
200803050930 METAR LMML NIL=
200803050915 METAR LMML 050915Z VRB01KT 9999 FEW012 18/14 Q1006 NOSIG=
200803050900 METAR LMML NIL=
200803050845 METAR LMML 050845Z 06005KT 020V100 9999 FEW012 17/14 Q1006
                        NOSIG=
200803050815 METAR LMML 050815Z VRB02KT 9999 FEW015 17/15 Q1007 NOSIG=
200803050800 LMML NIL=
200803050745 METAR LMML 050745Z VRB02KT 9999 FEW015 15/15 Q1007 NOSIG=
200803050730 METAR LMML NIL=
200803050715 METAR LMML 050715Z VRB01KT 9999 FEW012 15/15 Q1007 NOSIG=
200803050700 METAR LMML NIL=
200803050645 METAR LMML 050645Z VRB01KT 9999 FEW012 14/14 Q1007 NOSIG=
200803050630 METAR LMML NIL=
200803050615 METAR LMML 050615Z VRB02KT 8000 MIFG FEW008 12/12 Q1007 BECMG
                        9999=
200803050600 METAR LMML NIL=
200803050545 METAR LMML 050545Z VRB02KT 4000 R14/0453V1205U MIFG FEW004
                        11/11 Q1007 BECM G 9999=
200803050530 METAR LMML NIL=
200803050515 METAR LMML 050515Z VRB01KT 4000 R14/0650D MIFG FEW002 12/11
                        Q1008 BECMG 600 0=
200803050500 METAR LMML NIL=
200803050454 LMML 050454Z VRB03KT 4000 BR SCT001 11/11 Q1008 BECMG 6000=
200803050445 METAR LMML 050445Z VRB02KT 0500 R14/P1500N FG SCT001 11/11
                        Q1008 BECMG 3000 BR BKN007=
200803050430 METAR LMML NIL=
200803050415 METAR LMML 050415Z 00000KT 0200 R14/1104VP1500U FG FEW001
                        12/12 Q1007 BECMG 3000 BR=
200803050408 LMML 050408Z 00000KT 0200 R14/0564VP1500U FG FEW001 11/11
                        Q1007 BECMG 3000 BR=
200803050400 METAR LMML NIL=
200803050345 METAR LMML 050345Z VRB02KT 7000 SCT005 12/12 Q1007 NOSIG=
200803050330 METAR LMML NIL=
200803050315 METAR LMML 050315Z 32005KT 9000 BKN003 12/11 Q1008 BECMG
                        7000=
200803050245 METAR LMML 050245Z VRB03KT CAVOK 12/11 Q1008 NOSIG=
200803050230 METAR LMML NIL=
200803050215 METAR LMML 050215Z VRB03KT CAVOK 11/10 Q1008 NOSIG=
200803050200 METAR LMML NIL=
200803050145 METAR LMML 050145Z VRB02KT CAVOK 12/11 Q1008 NOSIG=
200803050130 METAR LMML NIL=
200803050115 METAR LMML 050115Z 31005KT CAVOK 11/10 Q1008 NOSIG=
200803050045 METAR LMML 050045Z VRB02KT CAVOK 12/11 Q1009 NOSIG=
200803050015 METAR LMML 050015Z VRB02KT CAVOK 11/10 Q1009 NOSIG=
200803050000 METAR LMML NIL=
200803042345 METAR LMML 042345Z VRB01KT CAVOK 13/12 Q1009 NOSIG=
200803042330 METAR LMML NIL=
200803042315 METAR LMML 042315Z VRB02KT CAVOK 12/11 Q1010 NOSIG=
200803042300 METAR LMML NIL=
200803042245 METAR LMML 042245Z 23008KT CAVOK 11/11 Q1010 TEMPO 8000=
200803042230 METAR LMML NIL=
200803042215 METAR LMML 042215Z 29006KT CAVOK 12/12 Q1010 TEMPO 8000=
200803042200 METAR LMML NIL=
200803042145 METAR LMML 042145Z VRB02KT CAVOK 13/13 Q1010 TEMPO 8000=
200803042130 METAR LMML NIL=
200803042115 METAR LMML 042115Z VRB01KT CAVOK 13/13 Q1010 NOSIG=
200803042100 METAR LMML NIL=
200803042045 METAR LMML 042045Z VRB01KT CAVOK 13/13 Q1010 NOSIG=
200803042030 METAR LMML NIL=
200803042015 METAR LMML 042015Z 00000KT CAVOK 14/14 Q1010 NOSIG=
200803042000 METAR LMML NIL=
200803041945 METAR LMML 041945Z VRB01KT CAVOK 14/13 Q1010 NOSIG=
200803041930 METAR LMML NIL=
200803041915 METAR LMML 041915Z VRB01KT CAVOK 14/13 Q1010 NOSIG=
200803041900 METAR LMML NIL=
200803041845 METAR LMML 041845Z VRB02KT CAVOK 15/13 Q1010 NOSIG=
200803041830 METAR LMML NIL=
200803041815 METAR LMML 041815Z 35004KT CAVOK 15/13 Q1010 NOSIG=
200803041800 METAR LMML NIL=
200803041745 METAR LMML 041745Z 31004KT CAVOK 15/13 Q1010 NOSIG=
200803041730 METAR LMML NIL=
200803041715 METAR LMML 041715Z VRB02KT CAVOK 16/12 Q1010 NOSIG=
200803041700 METAR LMML NIL=
200803041645 METAR LMML 041645Z 30004KT CAVOK 16/10 Q1010 NOSIG=
200803041630 LMML NIL=
200803041615 METAR LMML 041615Z 31007KT CAVOK 17/09 Q1010 NOSIG=
200803041600 METAR LMML NIL=
200803041545 METAR LMML 041545Z VRB02KT CAVOK 18/11 Q1010 NOSIG=
200803041530 LMML NIL=
200803041515 METAR LMML 041515Z 30004KT 260V330 CAVOK 18/12 Q1010 NOSIG=
200803041445 METAR LMML 041445Z VRB03KT CAVOK 18/13 Q1010 NOSIG=
200803041430 METAR LMML NIL=
200803041415 METAR LMML 041415Z 26004KT 180V290 CAVOK 18/12 Q1010 NOSIG=
200803041400 METAR LMML NIL=
200803041345 METAR LMML 041345Z 24006KT 200V280 CAVOK 18/14 Q1011 NOSIG=
200803041330 METAR LMML NIL=
200803041315 METAR LMML 041315Z 21008KT 170V240 CAVOK 18/14 Q1011 NOSIG=
200803041300 METAR LMML NIL=
200803041245 METAR LMML 041245Z 20007KT 170V260 CAVOK 18/14 Q1012 NOSIG=
200803041230 METAR LMML NIL=
200803041215 METAR LMML 041215Z 21008KT 180V250 CAVOK 18/13 Q1012 NOSIG=
200803041200 METAR LMML NIL=
200803041145 METAR LMML 041145Z 22007KT 190V250 CAVOK 18/12 Q1013 NOSIG=
200803041130 METAR LMML NIL=
200803041115 METAR LMML 041115Z 21006KT 170V270 CAVOK 18/11 Q1013 NOSIG=
200803041100 METAR LMML NIL=
200803041045 METAR LMML 041045Z 22007KT 180V270 CAVOK 19/10 Q1013 NOSIG=
200803041030 METAR LMML NIL=
200803041015 METAR LMML 041015Z 22007KT 190V260 CAVOK 19/10 Q1013 NOSIG=
200803041000 METAR LMML NIL=
200803040945 METAR LMML 040945Z 22007KT 190V270 CAVOK 19/09 Q1013 NOSIG=
200803040930 METAR LMML NIL=
200803040915 METAR LMML 040915Z 22007KT 190V280 CAVOK 19/10 Q1014 NOSIG=
200803040900 METAR LMML NIL=
200803040845 METAR LMML 040845Z 22009KT 180V260 CAVOK 18/10 Q1014 NOSIG=
200803040830 METAR LMML NIL=
200803040815 METAR LMML 040815Z 22006KT 180V280 CAVOK 18/12 Q1014 NOSIG=
200803040800 METAR LMML NIL=
200803040745 METAR LMML 040745Z 22006KT 190V260 CAVOK 18/12 Q1014 NOSIG=
200803040730 METAR LMML NIL=
200803040715 METAR LMML 040715Z 22005KT 200V270 CAVOK 17/13 Q1014 NOSIG=
200803040700 METAR LMML NIL=
200803040645 METAR LMML 040645Z 22005KT 190V260 CAVOK 16/14 Q1014 NOSIG=
200803040630 METAR LMML NIL=
200803040615 METAR LMML 040615Z 22004KT 180V250 CAVOK 15/13 Q1014 NOSIG=
200803040600 METAR LMML NIL=
200803040545 METAR LMML 040545Z 22005KT 190V260 CAVOK 14/12 Q1014 NOSIG=
200803040530 METAR LMML NIL=
200803040515 METAR LMML 040515Z 21006KT 180V240 CAVOK 15/11 Q1014 NOSIG=
200803040500 METAR LMML NIL=
200803040445 METAR LMML 040445Z 23005KT 9999 FEW020 15/06 Q1014 NOSIG=
200803040430 METAR LMML NIL=
200803040415 METAR LMML 040415Z 23006KT 9999 FEW020 15/04 Q1014 NOSIG=
200803040400 METAR LMML NIL=
200803040345 METAR LMML 040345Z 23006KT 9999 FEW020 14/05 Q1014 NOSIG=
200803040330 METAR LMML NIL=
200803040315 METAR LMML 040315Z 23007KT 9999 FEW020 14/07 Q1015 NOSIG=
200803040300 METAR LMML NIL=
200803040245 METAR LMML 040245Z 24007KT 200V260 9999 FEW020 15/12 Q1015
                        NOSIG=
200803040230 METAR LMML NIL=
200803040215 METAR LMML 040215Z 23006KT 9999 FEW020 15/08 Q1015 NOSIG=
200803040200 METAR LMML NIL=
200803040145 METAR LMML 040145Z 24006KT 200V280 9999 FEW020 15/09 Q1015
                        NOSIG=
200803040130 METAR LMML NIL=
200803040115 METAR LMML 040115Z 24008KT 210V270 9999 FEW020 15/10 Q1016
                        NOSIG=
200803040100 METAR LMML NIL=
200803040045 METAR LMML 040045Z 24008KT 210V270 9999 FEW020 15/11 Q1016
                        NOSIG=
200803040030 METAR LMML NIL=
200803040015 METAR LMML 040015Z 24007KT 200V270 9999 FEW020 15/11 Q1016
                        NOSIG=
200803040000 METAR LMML NIL=
200803032345 METAR LMML 032345Z 25005KT 210V280 9999 FEW020 14/10 Q1016
                        NOSIG=
200803032330 METAR LMML NIL=
200803032315 METAR LMML 032315Z 24006KT 210V270 9999 FEW020 14/13 Q1017
                        NOSIG=
200803032300 METAR LMML NIL=
200803032245 METAR LMML 032245Z 23008KT 200V270 9999 FEW020 15/14 Q1017
                        NOSIG=
200803032230 METAR LMML NIL=
200803032215 METAR LMML 032215Z 23009KT 210V270 9999 FEW020 15/14 Q1017
                        NOSIG=
200803032200 METAR LMML NIL=
200803032145 METAR LMML 032145Z 23008KT 200V270 9999 FEW020 15/14 Q1017
                        NOSIG=
200803032130 METAR LMML NIL=
200803032115 METAR LMML 032115Z 24006KT 210V280 9999 FEW017 15/14 Q1017
                        NOSIG=
200803032100 METAR LMML NIL=
200803032045 METAR LMML 032045Z 24006KT 200V270 9999 FEW017 14/13 Q1017
                        NOSIG=
200803032030 LMML NIL=
200803032015 METAR LMML 032015Z 24007KT 210V270 9999 FEW017 15/14 Q1018
                        NOSIG=
200803032000 METAR LMML NIL=
200803031945 METAR LMML 031945Z 24006KT 210V270 9999 FEW017 15/14 Q1018
                        NOSIG=
200803031930 METAR LMML NIL=
200803031915 METAR LMML 031915Z 23006KT 200V270 9999 FEW017 15/13 Q1018
                        NOSIG=
200803031900 LMML NIL=
200803031845 METAR LMML 031845Z 25006KT 220V280 9999 FEW017 14/13 Q1017
                        NOSIG=
200803031830 METAR LMML NIL=
200803031815 METAR LMML 031815Z 24006KT 9999 FEW017 15/13 Q1017 NOSIG=
200803031800 METAR LMML NIL=
200803031745 METAR LMML 031745Z 25005KT 220V280 9999 FEW017 15/13 Q1017
                        NOSIG=
200803031730 METAR LMML NIL=
200803031715 METAR LMML 031715Z 25005KT 200V280 9999 FEW017 15/13 Q1017
                        NOSIG=
200803031700 METAR LMML NIL=
200803031645 METAR LMML 031645Z 26006KT 220V320 9999 FEW017 16/13 Q1017
                        NOSIG=
200803031630 METAR LMML NIL=
200803031615 METAR LMML 031615Z 25008KT 180V290 9999 FEW017 16/13 Q1017
                        NOSIG=
200803031600 METAR LMML NIL=
200803031545 METAR LMML 031545Z 26010KT 220V310 9999 FEW017 17/12 Q1017
                        NOSIG=
200803031530 METAR LMML NIL=
200803031515 METAR LMML 031515Z 26011KT 220V290 9999 FEW017 17/12 Q1017
                        NOSIG=
200803031500 METAR LMML NIL=
200803031445 METAR LMML 031445Z 26012KT 210V300 9999 FEW017 17/12 Q1017
                        NOSIG=
200803031430 METAR LMML NIL=
200803031415 METAR LMML 031415Z 25013KT 220V280 9999 FEW017 17/11 Q1017
                        NOSIG=
200803031400 METAR LMML NIL=
200803031345 METAR LMML 031345Z 26013KT 210V290 9999 FEW017 18/12 Q1018
                        NOSIG=
200803031330 METAR LMML NIL=
200803031315 METAR LMML 031315Z 26012KT 220V300 9999 FEW017 18/13 Q1018
                        NOSIG=
200803031300 METAR LMML NIL=
200803031245 METAR LMML 031245Z 25013KT 200V280 9999 FEW017 18/13 Q1018
                        NOSIG=
200803031230 METAR LMML NIL=
200803031215 METAR LMML 031215Z 25012KT 210V280 9999 FEW017 18/13 Q1019
                        NOSIG=
200803031200 METAR LMML NIL=
200803031145 METAR LMML 031145Z 25012KT 210V290 9999 FEW018 18/14 Q1019
                        NOSIG=
200803031130 METAR LMML NIL=
200803031115 METAR LMML 031115Z 25010KT 210V290 9999 FEW018 18/14 Q1019
                        NOSIG=
200803031100 METAR LMML NIL=
200803031045 METAR LMML 031045Z 25012KT 210V290 9999 FEW018 18/13 Q1019
                        NOSIG=
200803031030 METAR LMML NIL=
200803031015 METAR LMML 031015Z 25012KT 200V280 9999 FEW017 17/13 Q1019
                        NOSIG=
200803031000 METAR LMML NIL=
200803030945 METAR LMML 030945Z 24010KT 210V280 9999 FEW016 17/14 Q1020
                        NOSIG=
200803030930 METAR LMML NIL=
200803030915 METAR LMML 030915Z 25011KT 180V290 9999 FEW017 17/14 Q1020
                        NOSIG=
200803030900 METAR LMML NIL=
200803030845 METAR LMML 030845Z 25009KT 210V300 9999 FEW017 17/13 Q1020
                        NOSIG=
200803030830 METAR LMML NIL=
200803030815 METAR LMML 030815Z 26011KT 230V300 9999 FEW017 17/12 Q1020
                        NOSIG=
200803030800 METAR LMML NIL=
200803030745 METAR LMML 030745Z 27012KT 240V300 9999 FEW016 16/13 Q1020
                        NOSIG=
200803030730 METAR LMML NIL=
200803030715 METAR LMML 030715Z 27010KT 230V300 9999 FEW015 16/14 Q1019
                        NOSIG=
200803030700 METAR LMML NIL=
200803030645 METAR LMML 030645Z 26009KT 220V310 9999 SCT012 15/14 Q1019
                        NOSIG=
200803030630 METAR LMML NIL=
200803030615 METAR LMML 030615Z 26008KT 230V300 9000 SCT013 15/14 Q1019
                        NOSIG=
200803030600 METAR LMML NIL=
200803030545 METAR LMML 030545Z 27007KT 240V300 9000 FEW012 14/14 Q1019
                        NOSIG=
200803030530 METAR LMML NIL=
200803030515 METAR LMML 030515Z 28008KT 9000 FEW011 14/14 Q1019 NOSIG=
200803030500 METAR LMML NIL=
200803030445 METAR LMML 030445Z 28008KT 9000 SCT011 14/13 Q1019 NOSIG=
200803030430 METAR LMML NIL=
200803030415 METAR LMML 030415Z 28008KT 9000 FEW014 14/13 Q1019 NOSIG=
200803030400 METAR LMML NIL=
200803030345 METAR LMML 030345Z 28010KT 9000 FEW015 14/13 Q1019 NOSIG=
200803030330 METAR LMML NIL=
200803030315 METAR LMML 030315Z 29012KT 9000 SCT016 14/13 Q1019 NOSIG=
200803030300 METAR LMML NIL=
200803030245 METAR LMML 030245Z 28012KT 9000 FEW016 14/13 Q1019 NOSIG=
200803030230 METAR LMML NIL=
200803030215 METAR LMML 030215Z 28013KT 9000 FEW015 14/13 Q1019 NOSIG=
200803030200 METAR LMML NIL=
200803030145 METAR LMML 030145Z 27012KT 210V310 9000 FEW015 14/13 Q1019
                        NOSIG=
200803030130 METAR LMML NIL=
200803030115 METAR LMML 030115Z 27011KT 9000 FEW015 14/13 Q1019 NOSIG=
200803030100 METAR LMML NIL=
200803030045 METAR LMML 030045Z 27010KT 240V300 9000 FEW013 14/13 Q1019
                        NOSIG=
200803030015 METAR LMML 030015Z 27010KT 240V310 9000 FEW013 14/13 Q1019
                        NOSIG=
200803030000 METAR LMML NIL=
200803022345 METAR LMML 022345Z 29012KT 9000 FEW014 14/13 Q1019 NOSIG=
200803022330 METAR LMML NIL=
200803022315 METAR LMML 022315Z 29011KT 9000 FEW013 14/13 Q1019 NOSIG=
200803022300 METAR LMML NIL=
200803022245 METAR LMML 022245Z 29013KT 9000 FEW014 14/13 Q1019 NOSIG=
200803022230 LMML NIL=
200803022215 METAR LMML 022215Z 29010KT 9999 FEW013 14/13 Q1019 NOSIG=
200803022200 METAR LMML NIL=
200803022145 METAR LMML 022145Z 29011KT 9999 FEW016 14/13 Q1019 NOSIG=
200803022130 METAR LMML NIL=
200803022115 METAR LMML 022115Z 30011KT 9999 FEW016 14/13 Q1019 NOSIG=
200803022100 METAR LMML NIL=
200803022045 METAR LMML 022045Z 30013KT 9999 FEW016 14/13 Q1019 NOSIG=
200803022030 METAR LMML NIL=
200803022015 METAR LMML 022015Z 30013KT 9999 FEW017 15/12 Q1019 NOSIG=
200803022000 METAR LMML NIL=
200803021945 METAR LMML 021945Z 30013KT 9999 FEW019 15/12 Q1019 NOSIG=
200803021930 METAR LMML NIL=
200803021915 METAR LMML 021915Z 29015KT 9999 FEW019 15/12 Q1019 NOSIG=
200803021900 METAR LMML NIL=
200803021845 METAR LMML 021845Z 29016KT 9999 SCT021 15/12 Q1019 NOSIG=
200803021830 METAR LMML NIL=
200803021815 METAR LMML 021815Z 29014KT 9999 SCT021 15/12 Q1019 NOSIG=
200803021800 METAR LMML NIL=
200803021745 METAR LMML 021745Z 28013KT 240V300 9999 FEW021 15/12 Q1018
                        NOSIG=
200803021730 METAR LMML NIL=
200803021715 METAR LMML 021715Z 29015KT 9999 SCT019 15/12 Q1018 NOSIG=
200803021700 METAR LMML NIL=
200803021645 METAR LMML 021645Z 29014KT 260V320 9999 SCT018 SCT023 15/13
                        Q1018 NOSIG=
200803021630 METAR LMML NIL=
200803021615 METAR LMML 021615Z 28016KT 250V310 9999 SCT017 16/13 Q1018
                        NOSIG=
200803021600 METAR LMML NIL=
200803021545 METAR LMML 021545Z 28018KT 250V310 9999 BKN016 16/13 Q1018
                        NOSIG=
200803021530 METAR LMML NIL=
200803021515 METAR LMML 021515Z 28017KT 9999 BKN017 16/13 Q1018 NOSIG=
200803021500 METAR LMML NIL=
200803021445 METAR LMML 021445Z 29018KT 9999 BKN018 16/13 Q1018 NOSIG=
200803021430 METAR LMML NIL=
200803021415 METAR LMML 021415Z 28018KT 250V310 9999 BKN019 17/13 Q1018
                        NOSIG=
200803021400 METAR LMML NIL=
200803021345 METAR LMML 021345Z 28019KT 250V310 9999 BKN019 17/13 Q1018
                        NOSIG=
200803021315 METAR LMML 021315Z 28016KT 240V310 9999 BKN020 17/13 Q1018
                        NOSIG=
200803021300 METAR LMML NIL=
200803021245 METAR LMML 021245Z 28018KT 250V320 9999 BKN017 17/13 Q1018
                        NOSIG=
200803021230 METAR LMML NIL=
200803021215 METAR LMML 021215Z 28018KT 240V310 9999 BKN019 17/13 Q1019
                        NOSIG=
200803021200 LMML NIL=
200803021145 METAR LMML 021145Z 27018KT 240V300 9999 SCT020 17/13 Q1019
                        NOSIG=
200803021130 METAR LMML NIL=
200803021115 METAR LMML 021115Z 28017KT 9999 SCT019 17/13 Q1019 NOSIG=
200803021100 METAR LMML NIL=
200803021045 METAR LMML 021045Z 28017KT 250V310 9999 SCT018 17/13 Q1019
                        NOSIG=
200803021030 METAR LMML NIL=
200803021015 METAR LMML 021015Z 28018KT 250V320 9999 BKN017 17/13 Q1020
                        NOSIG=
200803021000 METAR LMML NIL=
200803020945 METAR LMML 020945Z 28016KT 240V320 9999 SCT016 BKN028 16/13
                        Q1020 NOSIG=
200803020930 METAR LMML NIL=
200803020915 METAR LMML 020915Z 29017KT 9999 SCT015 BKN032 16/13 Q1020
                        NOSIG=
200803020900 METAR LMML NIL=
200803020845 METAR LMML 020845Z 28017KT 9999 SCT016 BKN030 16/13 Q1019
                        NOSIG=
200803020830 METAR LMML NIL=
200803020815 METAR LMML 020815Z 28017KT 9999 SCT017 BKN033 16/13 Q1019
                        NOSIG=
200803020800 LMML NIL=
200803020745 LMML 020745Z 28017KT 250V310 9999 SCT017 BKN033 16/13 Q1019
                        NOSIG=
200803020730 METAR LMML NIL=
200803020715 METAR LMML 020715Z 28016KT 250V310 9999 FEW016 BKN034 16/13
                        Q1019 NOSIG=
200803020700 METAR LMML NIL=
200803020645 METAR LMML 020645Z 28014KT 9999 FEW016 BKN033 15/13 Q1019
                        NOSIG=
200803020630 METAR LMML NIL=
200803020615 METAR LMML 020615Z 28015KT 9000 FEW020 BKN033 15/13 Q1019
                        NOSIG=
200803020600 METAR LMML NIL=
200803020545 METAR LMML 020545Z 28016KT 9999 FEW015 BKN033 15/13 Q1019
                        NOSIG=
200803020530 METAR LMML NIL=
200803020515 METAR LMML 020515Z 28014KT 230V310 9999 SCT015 BKN034 15/13
                        Q1018 NOSIG=
200803020500 METAR LMML NIL=
200803020445 METAR LMML 020445Z 28014KT 250V310 9999 FEW016 BKN030 15/13
                        Q1018 NOSIG=
200803020430 METAR LMML NIL=
200803020415 METAR LMML 020415Z 28016KT 240V310 9999 FEW020 BKN030 15/12
                        Q1018 NOSIG=
200803020400 METAR LMML NIL=
200803020345 METAR LMML 020345Z 28015KT 9999 SCT020 BKN026 15/12 Q1018
                        NOSIG=
200803020330 METAR LMML NIL=
200803020315 METAR LMML 020315Z 28015KT 230V310 9999 FEW020 BKN024 15/12
                        Q1018 NOSIG=
200803020300 METAR LMML NIL=
200803020245 METAR LMML 020245Z 27015KT 240V300 9999 FEW018 BKN025 15/12
                        Q1018 NOSIG=
200803020230 METAR LMML NIL=
200803020215 METAR LMML 020215Z 28017KT 250V310 9999 FEW017 BKN027 15/12
                        Q1018 NOSIG=
200803020145 METAR LMML 020145Z 28015KT 250V310 9999 FEW018 BKN029 15/12
                        Q1018 NOSIG=
200803020130 METAR LMML NIL=
200803020115 METAR LMML 020115Z 28014KT 250V320 9999 SCT018 BKN031 15/12
                        Q1019 NOSIG=
200803020100 METAR LMML NIL=
200803020045 METAR LMML 020045Z 28015KT 240V300 9999 SCT018 BKN029 15/12
                        Q1019 NOSIG=
200803020030 METAR LMML NIL=
200803020015 METAR LMML 020015Z 28016KT 9999 -SHRA SCT018 BKN027 15/12
                        Q1019 NOSIG=
200803020000 METAR LMML NIL=
200803012345 METAR LMML 012345Z 28015KT 250V320 9999 BKN017 15/13 Q1019
                        NOSIG=
200803012330 METAR LMML NIL=
200803012315 METAR LMML 012315Z 29016KT 250V310 9999 BKN019 15/12 Q1019
                        NOSIG=
200803012300 METAR LMML NIL=
200803012245 METAR LMML 012245Z 29014KT 260V320 9999 SCT021 15/12 Q1019
                        NOSIG=
200803012230 METAR LMML NIL=
200803012215 METAR LMML 012215Z 28018KT 9999 SCT020 15/12 Q1020 NOSIG=
200803012200 METAR LMML NIL=
200803012145 METAR LMML 012145Z 28015KT 9999 SCT020 15/12 Q1019 NOSIG=
200803012130 METAR LMML NIL=
200803012115 METAR LMML 012115Z 29014KT 9999 FEW020 14/12 Q1020 NOSIG=
200803012100 METAR LMML NIL=
200803012045 METAR LMML 012045Z 28013KT 9999 FEW015 14/12 Q1020 NOSIG=
200803012030 METAR LMML NIL=
200803012015 METAR LMML 012015Z 29012KT 9999 FEW021 14/12 Q1020 NOSIG=
200803012000 METAR LMML NIL=
200803011945 METAR LMML 011945Z 29014KT 9999 FEW021 14/11 Q1020 NOSIG=
200803011930 METAR LMML NIL=
200803011915 METAR LMML 011915Z 29016KT 9999 FEW021 15/11 Q1019 NOSIG=
200803011845 METAR LMML 011845Z 29014KT 9999 BKN022 15/12 Q1019 NOSIG=
200803011815 METAR LMML 011815Z 28014KT 9999 BKN023 15/12 Q1020 NOSIG=
200803011800 METAR LMML NIL=
200803011745 METAR LMML 011745Z 29015KT 9999 FEW017 BKN023 15/11 Q1019
                        NOSIG=
200803011730 METAR LMML NIL=
200803011715 METAR LMML 011715Z 29014KT 9999 FEW017 15/11 Q1019 NOSIG=
200803011700 METAR LMML NIL=
200803011645 METAR LMML 011645Z 29015G25KT 9999 FEW017 BKN026 15/12 Q1020
                        NOSIG=
200803011630 METAR LMML NIL=
200803011615 METAR LMML 011615Z 28014KT 9999 FEW017 SCT028 15/11 Q1020
                        NOSIG=
200803011600 METAR LMML NIL=
200803011545 METAR LMML 011545Z 29015KT 260V320 9999 FEW017 BKN029 16/11
                        Q1020 NOSIG=
200803011530 METAR LMML NIL=
200803011515 METAR LMML 011515Z 29017KT 9999 SCT017 BKN027 16/12 Q1020
                        NOSIG=
200803011500 METAR LMML NIL=
200803011445 METAR LMML 011445Z 29014KT 240V320 9999 SCT020 BKN027 16/12
                        Q1020 NOSIG=
200803011430 METAR LMML NIL=
200803011415 METAR LMML 011415Z 29016KT 9999 BKN024 16/12 Q1020 NOSIG=
200803011400 METAR LMML NIL=
200803011345 METAR LMML 011345Z 28017KT 250V310 9999 BKN028 16/10 Q1020
                        NOSIG=
200803011330 METAR LMML NIL=
200803011315 METAR LMML 011315Z 29017KT 260V320 9999 SCT028 17/10 Q1020
                        NOSIG=
200803011300 METAR LMML NIL=
200803011245 METAR LMML 011245Z 28014KT 240V310 9999 SCT025 17/11 Q1020
                        NOSIG=
200803011230 METAR LMML NIL=
200803011215 METAR LMML 011215Z 30017KT 260V320 9999 SCT025 17/11 Q1020
                        NOSIG=
200803011200 METAR LMML NIL=
200803011145 METAR LMML 011145Z 28014KT 250V320 9999 FEW020 BKN029 16/11
                        Q1021 NOSIG=
200803011130 METAR LMML NIL=
200803011115 METAR LMML 011115Z 28016KT 9999 FEW020 BKN029 16/11 Q1022
                        NOSIG=
200803011100 METAR LMML NIL=
200803011045 METAR LMML 011045Z 29016KT 9999 FEW020 BKN029 16/11 Q1022
                        NOSIG=
200803011030 METAR LMML NIL=
200803011015 METAR LMML 011015Z 29014KT 9000 SCT020 BKN028 16/11 Q1022
                        NOSIG=
200803011000 METAR LMML NIL=
200803010945 METAR LMML 010945Z 28012KT 9000 SCT019 BKN027 16/12 Q1023
                        NOSIG=
200803010930 METAR LMML NIL=
200803010915 METAR LMML 010915Z 30012KT 260V320 9000 SCT019 SCT028 16/12
                        Q1023 NOSIG=
200803010900 METAR LMML NIL=
200803010845 METAR LMML 010845Z 29013KT 9000 BKN019 16/13 Q1023 NOSIG=
200803010830 METAR LMML NIL=
200803010815 METAR LMML 010815Z 29011KT 260V320 9000 SCT018 16/13 Q1023
                        NOSIG=
200803010800 METAR LMML NIL=
200803010745 METAR LMML 010745Z 30012KT 9000 FEW017 BKN024 15/13 Q1023
                        NOSIG=
200803010730 METAR LMML NIL=
200803010715 METAR LMML 010715Z 29009KT 9000 FEW016 15/13 Q1022 NOSIG=
200803010700 LMML NIL=
200803010645 LMML 010645Z 29007KT 8000 FEW013 BKN021 15/14 Q1022 NOSIG=
200803010630 METAR LMML NIL=
200803010615 METAR LMML 010615Z 30007KT 8000 SCT020 14/14 Q1022 NOSIG=
200803010600 METAR LMML NIL=
200803010545 METAR LMML 010545Z 29006KT 8000 SCT024 13/13 Q1022 NOSIG=
200803010530 METAR LMML NIL=
200803010515 METAR LMML 010515Z 30008KT 8000 SCT020 13/13 Q1022 NOSIG=
200803010445 METAR LMML 010445Z 29007KT 8000 FEW020 13/13 Q1022 NOSIG=
200803010430 METAR LMML NIL=
200803010415 METAR LMML 010415Z 29008KT 6000 FEW020 13/13 Q1022 NOSIG=
200803010400 METAR LMML NIL=
200803010345 METAR LMML 010345Z VRB03KT 6000 FEW014 13/13 Q1022 NOSIG=
200803010330 METAR LMML NIL=
200803010315 METAR LMML 010315Z 26005KT 230V290 6000 FEW016 13/13 Q1022
                        NOSIG=
200803010300 METAR LMML NIL=
200803010245 METAR LMML 010245Z 27004KT 240V300 6000 BKN020 14/13 Q1022
                        NOSIG=
200803010230 METAR LMML NIL=
200803010215 METAR LMML 010215Z 27005KT 6000 BKN017 SCT070 13/13 Q1022
                        NOSIG=
200803010200 METAR LMML NIL=
200803010145 METAR LMML 010145Z 26004KT 230V290 6000 FEW018 SCT070 13/12
                        Q1023 NOSIG=
200803010130 METAR LMML NIL=
200803010115 METAR LMML 010115Z 25004KT 220V290 6000 FEW015 BKN070 13/12
                        Q1023 NOSIG=
200803010100 METAR LMML NIL=
200803010045 METAR LMML 010045Z VRB03KT 6000 FEW014 SCT070 13/13 Q1023
                        NOSIG=
200803010030 METAR LMML NIL=
200803010015 METAR LMML 010015Z VRB03KT 6000 FEW014 SCT060 13/13 Q1023
                        NOSIG=
200803010000 METAR LMML NIL=

###################################
#  short TAF from LMML
###################################
200803312300 TAF LMML 312300Z 010009 14012KT 9999 FEW015 BKN100
                      TEMPO 0009 8000 SHRA B KN010
                      PROB40 TEMPO 0009 5000 TSRA BKN008 BKN012CB
                       BECMG 0507 27013KT=
200803312000 TAF LMML 312000Z 312106 13010KT 9999 FEW012 BKN100
                      TEMPO 0006 8000 SHRA B KN008
                      PROB40 TEMPO 0206 5000 TSRA BKN007 BKN012CB=
200803311925 LMML 311925Z 311803 14012KT 9999 BKN011
                      TEMPO 1803 BKN008
                      PROB40 TEMP O 0003 8000 SHRA=
200803311700 TAF LMML 311700Z 311803 14012KT 9999 BKN011
                      TEMPO 1803 8000 BKN008
                      PROB40 TEMPO 0003 8000 SHRA=
200803311400 TAF LMML 311400Z 311524 14012KT 9999 SCT015
                      PROB30 TEMPO 1524 BKN012=
200803311100 TAF LMML 311100Z 311221 15012KT 9999 SCT020=
200803310800 TAF LMML 310800Z 310918 15012KT 9999 BKN020=
200803310500 TAF LMML 310500Z 310615 13010KT 9999 SCT020=
200803310200 TAF LMML 310200Z 310312 VRB03KT 9999 SCT012 SCT018
                      TEMPO 0306 3000 MIFG B KN008
                      BECMG 0912 14010KT=
200803302300 TAF LMML 302300Z 310009 14004KT 9999 SCT013
                      PROB40 TEMPO 0006 8000 SCT008 BKN012=
200803302000 TAF LMML 302000Z 302106 VRB03KT 9999 SCT012
                      PROB40 TEMPO 2106 8000 SCT008 BKN012=
200803301700 TAF LMML 301700Z 301803 21005KT 9999 SCT015
                      TEMPO 1803 BKN012
                      PROB30 TEMP O 2103 8000 BKN006=
200803301615 LMML 301615Z 301524 14006KT 9999 SCT017
                      TEMPO 1524 BKN012
                      PROB30 TEMP O 1824 8000 BKN006=
200803301400 LMML 301400Z 131524 14006KT 9999 SCT017
                      TEMPO 1524 BKN012
                      PROB30 TEMP O 1824 8000 BKN006=
200803301100 TAF LMML 301100Z 301221 26008KT 9999 SCT020
                      PROB30 TEMPO 1821 BKN013=
200803300800 TAF LMML 300800Z 300918 28007KT 9999 SCT015=
200803300500 TAF LMML 300500Z 300615 29005KT 9999 SCT020 BKN200=
200803300200 TAF LMML 300200Z 300312 28005KT 9999 SCT015
                      PROB30 TEMPO 0306 6000 BKN005=
200803292300 TAF LMML 292300Z 300009 28004KT 9999 FEW007
                      PROB30 TEMPO 0006 6000 BKN005=
200803292000 TAF LMML 292000Z 292106 30006KT CAVOK
                      TEMPO 0006 7000 SCT006=
200803291700 TAF LMML 291700Z 291803 26004KT 9999 FEW020
                      PROB30 TEMPO 0003 BKN012=
200803291400 TAF LMML 291400Z 291524 28008KT CAVOK
                      TEMPO 1524 FEW035=
200803291100 TAF LMML 291100Z 291221 32008KT CAVOK=
200803290800 TAF LMML 290800Z 290918 32010KT CAVOK=
200803290500 TAF LMML 290500Z 290615 33010KT CAVOK=
200803290200 LMML 290200Z 090312 34012KT 9999 SCT025=
200803282300 TAF LMML 282300Z 290009 35015KT 9999 SCT025=
200803282000 TAF LMML 282000Z 282106 33017G27KT 9999 SCT025
                      BECMG 2124 34015KT=
200803281700 TAF LMML 281700Z 281803 32020G30KT 9999 SCT025
                      PROB30 TEMPO 1821 9000 SHR A
                      BECMG 1922 31015KT=
200803281400 TAF LMML 281400Z 281524 30018G28KT 9999 SCT020
                      BECMG 1821 30015KT=
200803281100 TAF LMML 281100Z 281221 30015KT 9999 SCT025 SCT060
                      TEMPO 1215 8000 SHRA B KN015=
200803280800 TAF LMML 280800Z 280918 30015G25KT 9999 SCT023 BKN065
                      TEMPO 0915 8000 SHR A BKN015=
200803280500 TAF LMML 280500Z 280615 30016G26KT 9999 SCT020 BKN040
                      TEMPO 0712 8000 SHR A
                      PROB30 TEMPO 0712 5000 TSRA BKN015CB=
200803280200 TAF LMML 280200Z 280312 29020G30KT 9999 SCT020
                      TEMPO 0312 8000 SHRA
                      PROB3 0
                      TEMPO 0312 5000 TSRA BKN015CB
                      BECMG 0306 30022KT=
200803272300 TAF LMML 272300Z 280009 30025G35KT 9999 SCT020
                      TEMPO 0009 8000 SHRA
                      PROB3 0
                      TEMPO 0009 5000 TSRA BKN015CB
                      BECMG 0306 30022KT=
200803272000 TAF LMML 272000Z 272106 30030G40KT 9999 SCT020
                      TEMPO 8000 SHRA
                      PROB30 TEM PO 2106 5000 TSRA BKN015CB
                      BECMG 0306 30022KT=
200803271700 TAF LMML 271700Z 271803 29025G35KT 9999 SCT020
                      TEMPO 1803 7000 SHRA=
200803271400 TAF LMML 271400Z 271524 29025G40KT 9999 SCT020
                      PROB30 TEMPO 1524 8000 SHR A=
200803271300 LMML 271300Z 271221 29015G25KT 9999 SCT015
                      BECMG 1518 29025G40KT TEMP O 1221 8000 SHRA=
200803271100 TAF LMML 271100Z 271221 29015G25KT 9999 SCT015
                      BECMG 1518 29025G40KT TEMP O 1221 8000 SHRA=
200803270800 TAF LMML 270800Z 270918 17015KT 9999 SCT015
                      BECMG 0912 29025G40KT
                      TEMPO 1 018 7000 SHRA
                      PROB40 TEMPO 0914 5000 TSRA BKN015CB=
200803270500 TAF LMML 270500Z 270615 18012KT 9999 FEW015 SCT100
                      TEMPO 0915 8000 SHRA B KN018
                      PROB30 TEMPO 0915 5000 TSRA BKN015CB
                      BECMG 0912 28018G28KT=
200803270200 TAF LMML 270200Z 270312 18012KT 9999 FEW012 SCT050
                      TEMPO 0912 8000 SHRA B KN018
                      BECMG 0912 27018G28KT
                      PROB30 TEMPO 0912 5000 TSRA BKN 015CB=
200803262300 TAF LMML 262300Z 270009 18015KT 9999 FEW012 SCT100
                      PROB30 TEMPO 0307 8000 SHRA BKN012 BKN080=
200803262000 TAF LMML 262000Z 262106 24005KT 9999 FEW020
                      PROB30 TEMPO 0006 8000 SCT012 BKN050
                      BECMG 0306 18018KT=
200803261700 TAF LMML 261700Z 261803 27010KT 9999 FEW020
                      BECMG 2124 21010KT=
200803261400 TAF LMML 261400Z 261524 27012KT 9999 SCT020
                      BECMG 2124 21010KT=
200803261100 TAF LMML 261100Z 261221 28012KT 9999 SCT020=
200803260800 TAF LMML 260800Z 260918 28012KT 9999 SCT020=
200803260500 TAF LMML 260500Z 260615 29012KT 9999 SCT020=
200803260200 TAF LMML 260200Z 260312 28015KT 9999 SCT020=
200803252300 TAF LMML 252300Z 260009 28015KT 9999 FEW020
                      PROB30 TEMPO 0309 9000 SHRA=
200803252000 TAF LMML 252000Z 252106 26015KT 9999 FEW020
                      PROB30 TEMPO 0306 9000 SHRA=
200803251700 TAF LMML 251700Z 251803 26015KT 9999 FEW025
                      PROB30 TEMPO 2103 9000 SHRA B KN020=
200803251500 TAF LMML 251500Z 251524 26018G28KT 9999 FEW030=
200803251100 TAF LMML 251100Z 251221 26020G30KT 9999 SCT030=
200803250800 TAF LMML 250800Z 250918 27020G35KT 9999 FEW030=
200803250500 TAF LMML 250500Z 250615 29022G32KT 9999 SCT030
                      BECMG 1215 26017G27KT=
200803250200 TAF LMML 250200Z 250312 29026G38KT 9999 FEW020=
200803242300 TAF LMML 242300Z 250009 29030G40KT 9999 SCT020=
200803242000 TAF LMML 242000Z 242106 29021G35KT 9999 SCT020 SCT050
                      PROB30 TEMPO 2100 8 000 SHRA=
200803241700 TAF LMML 241700Z 241803 26025G35KT 9999 SCT040
                      BECMG 1821 30028G38KT SCT0 25
                      PROB30 1903 8000 SHRA BKN020=
200803241400 TAF LMML 241400Z 241524 27025G35KT 9999 SCT025 SCT040
                      BECMG 2124 30028G38 KT=
200803241100 TAF LMML 241100Z 241221 27025G35KT 9999 SCT025 SCT040
                      PROB30 TEMPO 1221 9 000 SHRA BKN020=
200803240800 TAF LMML 240800Z 240918 27015G25KT 9999 FEW015 SCT030 BKN070
                      BECMG 0911 2 6025G35KT
                      PROB30 TEMPO 0911 9000 SHRA BKN015=
200803240500 TAF LMML 240500Z 240615 29023G33KT 9999 SCT015 BKN025
                      PROB30 TEMPO 0608 8 000 SHRA
                      BECMG 0811 CAVOK=
200803240200 TAF LMML 240200Z 240312 30015KT 9999 SCT015
                      PROB30 TEMPO 0412 8000 SHRA B KN010
                      BECMG 0912 28020G30KT=
200803232300 TAF LMML 232300Z 240009 31015G25KT 9999 SCT015
                      PROB30 TEMPO 0009 BKN010 P ROB30
                      TEMPO 0409 8000 SHRA=
200803232000 TAF LMML 232000Z 232106 20015KT CAVOK
                      BECMG 2224 31016G26KT 9999 SCT015 P ROB30
                       TEMPO 2206 BKN010
                      PROB30 TEMPO 0406 8000 SHRA=
200803231700 TAF LMML 231700Z 231803 21015KT CAVOK
                      BECMG 2124 30016G26KT 9999 SCT015 P ROB30
                       TEMPO 2103 BKN010=
200803231400 TAF LMML 231400Z 231524 21016KT 9999 FEW018
                      BECMG 2100 31018G28KT=
200803231100 TAF LMML 231100Z 231221 22016KT 9999 SCT015=
200803230800 TAF LMML 230800Z 230918 22015KT 9999 FEW015
                      PROB30 TEMPO 0911 BKN007=
200803230500 TAF LMML 230500Z 230615 27008KT 9999 FEW015
                      BECMG 0811 22018KT=
200803230200 TAF LMML 230200Z 230312 06008KT 9999 SCT012 SCT060
                      BECMG 0811 22018KT PRO B30
                      TEMPO 0306 8000 SCT008=
200803222300 TAF LMML 222300Z 230009 06008KT 9999 FEW012 BKN025 SCT080
                      BECMG 0205 SCT0 12 SCT060
                      PROB30 TEMPO 0006 8000 SCT008=
200803222000 TAF LMML 222000Z 222106 07008KT 9999 FEW014 BKN025 SCT080
                      BECMG 0205 SCT0 12 SCT060
                      PROB30 TEMPO 0006 8000 SCT008=
200803221700 TAF LMML 221700Z 221803 12010KT 9999 FEW025 SCT060
                      PROB30 TEMPO 2103 8000 SHRA BKN020
                      BECMG 2201 07010KT=
200803221400 TAF LMML 221400Z 221524 12010KT 9999 FEW020 BKN100
                      TEMPO 1524 9000 RA PRO B30
                      TEMPO 1824 7000 TSRA BKN015CB=
200803221100 TAF LMML 221100Z 221221 14013KT 9999 FEW030 BKN120
                      TEMPO 1221 9000 RA PRO B30
                      TEMPO 1821 7000 TSRA BKN015CB=
200803220800 TAF LMML 220800Z 220918 18015KT 9999 FEW030 BKN150
                      PROB30 TEMPO 1118 8000 RA
                      BECMG 1416 12012KT=
200803220500 TAF LMML 220500Z 220615 17010KT 9999 FEW025 BKN150
                      PROB30 TEMPO 0615 9000 RA=
200803220200 TAF LMML 220200Z 220312 20005KT 9999 FEW025 BKN150
                      BECMG 0912 14012KT TEM PO 0612 8000 RA=
200803212300 TAF LMML 212300Z 220009 28005KT 9999 FEW025 BKN200
                      BECMG 0609 16010KT TEM PO 0609 8000 RA=
200803212000 TAF LMML 212000Z 212106 29008KT 9999 FEW025=
200803211700 TAF LMML 211700Z 211803 29012KT 9999 SCT025=
200803211400 TAF LMML 211400Z 211524 30015KT 9999 FEW025=
200803211100 TAF LMML 211100Z 211221 30015G25KT 9999 FEW025
                      BECMG 1518 30015KT=
200803210800 TAF LMML 210800Z 210918 31015G25KT 9999 FEW020=
200803210500 TAF LMML 210500Z 210615 31013KT 9999 FEW020=
200803210200 TAF LMML 210200Z 210312 31013KT 9999 FEW015
                      PROB30 TEMPO 0306 BKN012=
200803202300 TAF LMML 202300Z 210009 31010KT 9999 FEW015
                      PROB30 TEMPO 0006 BKN012=
200803202000 TAF LMML 202000Z 202106 31010KT 9999 FEW015=
200803201700 TAF LMML 201700Z 201803 32005KT 9999 FEW012 SCT120 BKN200
                      PROB30 TEMPO 18 03 9000 RA
                      BECMG 2023 32015KT=
200803201400 TAF LMML 201400Z 201524 29008KT CAVOK
                      PROB30 TEMPO 1524 9000 RA SCT008 BK N100=
200803201100 TAF LMML 201100Z 201221 33013KT 9999 FEW015 BKN110 OVC200
                      PROB30 TEMPO 12 21 9000 RA=
200803200800 TAF LMML 200800Z 200918 33010KT 9999 FEW015 SCT120 BKN200=
200803200500 TAF LMML 200500Z 200615 33012KT CAVOK
                      BECMG 1215 BKN100=
200803200200 TAF LMML 200200Z 200312 33008KT 9999 FEW015 SCT120
                      BECMG 0811 BKN090=
200803192300 TAF LMML 192300Z 200009 33008KT 9999 FEW012 BKN120
                      PROB30 TEMPO 0006 8000 BKN008=
200803192000 TAF LMML 192000Z 192106 33008KT 9999 FEW012 BKN100
                      PROB30 TEMPO 0006 8000 BKN008=
200803191700 TAF LMML 191700Z 191803 30008KT 9999 FEW012
                      PROB30 TEMPO 2303 8000 BKN008=
200803191400 TAF LMML 191400Z 191524 30008KT CAVOK
                      PROB40 TEMPO 1524 FEW015=
200803191100 TAF LMML 191100Z 191221 30012KT CAVOK
                      TEMPO 1221 FEW015=
200803190800 TAF LMML 190800Z 190918 30010KT 9999 FEW015=
200803190500 TAF LMML 190500Z 190615 31010KT 9999 FEW010
                      PROB30 TEMPO 1315 8000 RA SCT 010 SCT080=
200803190200 TAF LMML 190200Z 190312 30008KT 9999 FEW012
                      PROB30 TEMPO 0306 5000 BR SCT 008=
200803182300 TAF LMML 182300Z 190009 30008KT 9999 FEW015
                      PROB30 TEMPO 0306 8000 SCT008=
200803182000 TAF LMML 182000Z 182106 20010KT 9999 FEW015
                      BECMG 2124 30008KT
                      PROB30 TEM PO 0006 8000 SCT010=
200803181700 TAF LMML 181700Z 181803 20010KT 9999 FEW020
                      BECMG 2124 30008KT
                      PROB30 TE MPO 0003 8000 BKN008=
200803181400 TAF LMML 181400Z 181524 20012KT 9999 FEW020=
200803181100 TAF LMML 181100Z 181221 20013KT 9999 FEW040=
200803180800 LMML NIL=
200803180500 TAF LMML 180500Z 180615 24005KT 9999 FEW015=
200803180200 TAF LMML 180200Z 180312 25006KT 9999 FEW012
                      PROB30 TEMPO 0306 8000
                      BECMG 0912 19010KT=
200803172300 TAF LMML 172300Z 180009 27008KT 9999 FEW012
                      BECMG 0609 21010KT=
200803172000 TAF LMML 172000Z 172106 28010KT 9999 FEW012
                      BECMG 0306 22006KT=
200803171700 TAF LMML 171700Z 171803 30015KT 9999 FEW015=
200803171400 TAF LMML 171400Z 171524 30017KT CAVOK=
200803171100 TAF LMML 171100Z 171221 31017KT CAVOK=
200803170800 TAF LMML 170800Z 170918 30015KT 9999 FEW015=
200803170500 TAF LMML 170500Z 170615 30015KT 9999 SCT015=
200803170200 TAF LMML 170200Z 170312 30015KT 9999 SCT020
                      PROB30 TEMPO 0306 7000 BKN008=
200803162300 TAF LMML 162300Z 170009 30012KT 9999 FEW015
                      PROB30 TEMPO 0006 7000 BKN008=
200803162000 TAF LMML 162000Z 162106 30012KT 9999 FEW010
                      PROB30 TEMPO 2106 7000 BKN008=
200803161700 TAF LMML 161700Z 161803 27008KT 9999 SCT012
                      TEMPO 1803 8000 BKN008
                      PROB30 TEMPO 0003 5000 BKN005=
200803161400 TAF LMML 161400Z 161524 08008KT 9999 FEW015
                      BECMG 1518 32010KT
                      PROB30 TEM PO 1724 BKN009=
200803161100 TAF LMML 161100Z 161221 08008KT 9999 SCT014
                      BECMG 1518 32010KT
                      TEMPO 1721 BKN009=
200803160800 TAF LMML 160800Z 160918 08008KT 9999 BKN009
                      BECMG 0912 SCT010
                      BECMG 1417 32010KT=
200803160500 TAF LMML 160500Z 160615 08008KT 9999 BKN007
                      BECMG 0912 SCT013=
200803160200 TAF LMML 160200Z 160312 09006KT 9999 BKN004
                      PROB30 TEMPO 0306 5000 BR BKN 002
                      BECMG 0811 SCT013=
200803152300 TAF LMML 152300Z 160009 09004KT 9999 FEW015
                      PROB30 TEMPO 0006 8000=
200803152000 TAF LMML 152000Z 152106 11005KT 9999 FEW015
                      PROB30 TEMPO 0006 8000=
200803151700 TAF LMML 151700Z 151803 15004KT 9999 FEW015=
200803151400 TAF LMML 151400Z 151524 VRB03KT 9999 FEW015=
200803151100 TAF LMML 151100Z 151221 VRB03KT 9999 FEW015=
200803150800 TAF LMML 150800Z 150918 27004KT 9999 FEW015=
200803150500 TAF LMML 150500Z 150615 26008KT 9999 FEW015=
200803150200 TAF LMML 150200Z 150312 26010KT 9999 FEW015
                      PROB30 TEMPO 0306 7000 BKN007=
200803142300 TAF LMML 142300Z 150009 26010KT 9999 FEW015
                      PROB30 TEMPO 0006 7000 BKN007=
200803142000 TAF LMML 142000Z 142106 26010KT 9999 FEW015
                      PROB30 TEMPO 0006 7000 BKN007=
200803141700 TAF LMML 141700Z 141803 27010KT 9999 FEW015
                      PROB30 TEMPO 0003 7000 BKN007=
200803141400 TAF LMML 141400Z 141524 29012KT 9999 FEW015=
200803141100 TAF LMML 141100Z 141221 30012KT 9999 FEW015=
200803140800 TAF LMML 140800Z 140918 29013KT 9999 FEW015=
200803140500 TAF LMML 140500Z 140615 28010KT 9999 FEW015=
200803140200 TAF LMML 140200Z 140312 28009KT 9999 FEW012
                      PROB30 TEMPO 0306 7000 BKN007=
200803132300 TAF LMML 132300Z 140009 28008KT 9999 FEW011
                      PROB30 TEMPO 0006 7000 BKN007=
200803132000 TAF LMML 132000Z 132106 27008KT 9999 FEW015
                      PROB30 TEMPO 2106 7000 BKN007=
200803131700 TAF LMML 131700Z 131803 30015G25KT 9999 FEW015
                      BECMG 1821 30015KT=
200803131400 TAF LMML 131400Z 131524 30018G28KT 9999 FEW015
                      BECMG 1821 30015KT=
200803131100 TAF LMML 131100Z 131221 30018G28KT 9999 FEW015
                      BECMG 1821 30015KT=
200803130800 TAF LMML 130800Z 130918 30018G28KT 9999 FEW015=
200803130500 TAF LMML 130500Z 130615 30018G28KT 9999 FEW018=
200803130200 TAF LMML 130200Z 130312 30015G25KT 9999 FEW015=
200803122300 TAF LMML 122300Z 130009 29014KT 9999 FEW015=
200803122000 TAF LMML 122000Z 122106 29015KT 9999 FEW015=
200803121700 TAF LMML 121700Z 121803 28017KT CAVOK
                      TEMPO 1803 9000 SCT008=
200803121400 TAF LMML 121400Z 121524 29016G26KT 9999 SCT018
                      BECMG 1518 28014KT
                      PROB30 TEMPO 1824 8000 BKN013=
200803121100 TAF LMML 121100Z 121221 29015G25KT 9999 SCT017
                      BECMG 1417 28014KT
                      PROB30 TEMPO 1821 9000 BKN014=
200803120800 TAF LMML 120800Z 120918 29015G25KT 9999 SCT018
                      BECMG 1215 28015KT=
200803120500 TAF LMML 120500Z 120615 30017G27KT 9999 FEW020=
200803120200 TAF LMML 120200Z 120312 29018G28KT 9999 FEW020 SCT040=
200803112300 TAF LMML 112300Z 120009 29025G35KT 9999 SCT020=
200803112000 TAF LMML 112000Z 112106 29018G28KT 9999 FEW016=
200803111700 TAF LMML 111700Z 111803 28017G27KT 9999 FEW025=
200803111400 TAF LMML 111400Z 111524 28016G26KT 9999 FEW020=
200803111100 TAF LMML 111100Z 111221 29007KT 9999 FEW020
                      BECMG 1215 30017G27KT=
200803110800 TAF LMML 110800Z 110918 30007KT 9999 FEW015
                      BECMG 1215 30017G27KT=
200803110500 TAF LMML 110500Z 110615 27010KT 9999 FEW012 SCT120
                      BECMG 1215 30020KT=
200803110200 TAF LMML 110200Z 110312 18008KT 9999 FEW012 SCT120
                      BECMG 0609 27015KT=
200803102300 TAF LMML 102300Z 110009 18010KT 9999 FEW012 SCT120
                      BECMG 0609 27015KT=
200803102000 TAF LMML 102000Z 102106 18012KT 9999 FEW013 SCT120
                      BECMG 0306 24010KT=
200803101700 TAF LMML 101700Z 101803 19013KT 9999 FEW016 SCT100=
200803101400 TAF LMML 101400Z 101524 19010KT 9999 FEW020=
200803101100 TAF LMML 101100Z 101221 19010KT 9999 FEW020=
200803100800 TAF LMML 100800Z 100918 20008KT 9999 FEW020=
200803100500 LMML 100500Z 100615 19007KT 9999 FEW020=
200803100200 TAF LMML 100200Z 100312 20006KT 9999 FEW020=
200803092300 TAF LMML 092300Z 100009 21004KT 9999 FEW020 SCT090=
200803092000 TAF LMML 092000Z 092106 VRB03KT 9999 FEW020 SCT060
                      TEMPO 2106 8000 SHRA=
200803091700 TAF LMML 091700Z 091803 24005KT 9999 SCT025=
200803091400 TAF LMML 091400Z 091524 24005KT 9999 SCT035=
200803091100 TAF LMML 091100Z 091221 26005KT 9999 FEW030 BKN070
                      PROB30 TEMPO 1221 SHRA BKN025=
200803090800 TAF LMML 090800Z 090918 28005KT 9999 FEW025
                      PROB30 TEMPO 0918 8000 SHRA B KN020=
200803090500 TAF LMML 090500Z 090615 28005KT 9999 SCT025
                      PROB30 TEMPO 1115 8000 SHRA=
200803090200 TAF LMML 090200Z 090312 25005KT 9999 FEW025=
200803082300 TAF LMML 082300Z 090009 25004KT 9999 FEW025=
200803082000 TAF LMML 082000Z 082106 25004KT 9999 FEW025=
200803081700 TAF LMML 081700Z 081803 28007KT 9999 SCT025 BKN070
                      TEMPO 1803 8000 SHRA P ROB30
                      TEMPO 1821 5000 TSRA BKN015CB=
200803081400 TAF LMML 081400Z 081524 24010KT 9999 SCT025 BKN080
                      TEMPO 1524 8000 SHRA P ROB30
                      TEMPO 1521 5000 TSRA BKN015CB=
200803081100 TAF LMML 081100Z 081221 20013KT 9999 SCT030 BKN080
                      TEMPO 1221 8000 SHRA P ROB30
                      TEMPO 1221 5000 TSRA BKN015CB=
200803080800 TAF LMML 080800Z 080918 20013KT 9999 SCT030 BKN080
                      TEMPO 0918 8000 SHRA P ROB30
                      TEMPO 0918 5000 TSRA BKN015CB=
200803080500 TAF LMML 080500Z 080615 22013KT 9999 SCT030 BKN100
                      TEMPO 0615 8000 SHRA B KNO18
                      PROB30 TEMPO 0615 5000 TSRA BKN015CB=
200803080200 TAF LMML 080200Z 080312 23015KT 9999 SCT030
                      TEMPO 0312 8000 SHRA BKN020 P ROB40
                      TEMPO 0312 5000 TSRA BKN015CB=
200803072300 TAF LMML 072300Z 080009 23015KT 9999 SCT030
                      TEMPO 0009 8000 SHRA
                      PROB30 T EMPO 0009 5000 TSRA BKN018CB=
200803072000 LMML 072000Z 072106 22013KT 9999 SCT030
                      TEMPO 2106 8000 SHRA
                      PROB30 TEMPO 0006 5000 TSRA BKN018CB=
200803071700 TAF LMML 071700Z 071803 24013KT 9999 SCT030
                      TEMPO 2103 8000 SHRA
                      PROB30 T EMPO 0003 5000 TSRA BKN018CB=
200803071400 TAF LMML 071400Z 071524 24015KT 9999 SCT030
                      PROB30 TEMPO 2124 8000 SHRA=
200803071100 TAF LMML 071100Z 071221 25016G26KT 9999 FEW030=
200803070800 TAF LMML 070800Z 070918 25013G23KT 9999 SCT025=
200803070500 TAF LMML 070500Z 070615 27015G25KT 9999 SCT030
                      TEMPO 0612 8000 SHRA BKN02 0=
200803070200 TAF LMML 070200Z 070312 25015KT 9999 SCT030
                      TEMPO 0312 8000 SHRA BKN018 P ROB40
                      TEMPO 0309 5000 TSGR BKN015CB=
200803062300 TAF LMML 062300Z 070009 24015KT 9999 SCT030
                      TEMPO 0009 8000 SHRA BKN018 P ROB40
                      TEMPO 0009 5000 TSGR BKN015CB=
200803062000 TAF LMML 062000Z 062106 23015KT 9999 SCT030
                      TEMPO 2106 8000 SHRA BKN018 P ROB40
                      TEMPO 2106 5000 TSGR BKN015CB=
200803061700 TAF LMML 061700Z 061803 22015KT 9999 SCT020
                      TEMPO 1803 8000 SHRA BKN018 P ROB40
                      TEMPO 1803 5000 TSGR BKN015CB=
200803061400 TAF LMML 061400Z 061524 23015KT 9999 FEW025 SCT050
                      PROB40 TEMPO 1524 8000 SHRA BKN020
                      PROB30 TEMPO 2024 5000 TSGR BKN015CB=
200803061100 TAF LMML 061100Z 061221 23010KT 9999 FEW025 BKN040
                      TEMPO 1221 8000 RA=
200803060800 TAF LMML 060800Z 060918 23010KT 9999 FEW025 BKN040
                      PROB30 TEMPO 0918 8000 SHRA=
200803060500 TAF LMML 060500Z 060615 25008KT 9999 SCT025 BKN040
                      TEMPO 0615 8000 SHRA=
200803060200 TAF LMML 060200Z 060312 27007KT 9999 SCT015 BKN080
                      PROB30 TEMPO 0312 8000 SHRA BKN013=
200803052300 TAF LMML 052300Z 060009 27007KT 9999 SCT015 BKN070
                      TEMPO 0006 7000 SHRA B KN012=
200803052000 TAF LMML 052000Z 052106 29006KT 9999 FEW015 BKN100
                      TEMPO 2106 7000 SHRA B KN011=
200803051700 LMML 051700Z 051803 30005KT 9999 SCT015
                      PROB30 TEMPO 1803 8000 SHRA=
200803051400 TAF LMML 051400Z 051524 30005KT 9999 SCT015
                      TEMPO BKN010
                      PROB30 TEMPO 182 4 8000 SHRA=
200803051100 TAF LMML 051100Z 051221 30005KT 9999 FEW018
                      BECMG 1417 SCT018 SCT080
                      PROB 30 1821 8000 SHRA BKN018=
200803050800 TAF LMML 050800Z 050918 30005KT 9999 FEW020
                      BECMG 1518 SCT018 SCT080=
200803050500 TAF LMML 050500Z 050615 30005KT 9999 FEW020
                      PROB30 TEMPO 0607 5000 BR=
200803050200 TAF LMML 050200Z 050312 30006KT 9999 FEW020
                      PROB30 TEMPO 0306 6000 BKN007=
200803042300 TAF LMML 042300Z 050009 30006KT 9999 FEW020
                      PROB30 TEMPO 0006 6000 BKN007=
200803042000 TAF LMML 042000Z 042106 30004KT 9999 FEW020
                      PROB30 TEMPO 2106 7000 BKN007=
200803041700 TAF LMML 041700Z 041803 31005KT 9999 FEW020 BKN180
                      PROB30 TEMPO 2103 8000 BKN010=
200803041400 TAF LMML 041400Z 041524 25008KT 9999 FEW020 SCT120 BKN200
                      PROB30 TEMPO 21 24 9000 BKN015=
200803041100 TAF LMML 041100Z 041221 24008KT CAVOK
                      PROB30 TEMPO 1218 9000 SHRA FEW020 BKN070=
200803040800 TAF LMML 040800Z 040918 24008KT CAVOK
                      PROB30 TEMPO 1218 9000 SHRA FEW020 BKN070=
200803040500 TAF LMML 040500Z 040615 23010KT CAVOK=
200803040200 TAF LMML 040200Z 040312 23008KT 9999 FEW018=
200803032300 TAF LMML 032300Z 040009 23008KT 9999 FEW017=
200803032000 TAF LMML 032000Z 032106 24008KT 9999 FEW017=
200803031700 TAF LMML 031700Z 031803 24008KT 9999 FEW015=
200803031400 TAF LMML 031400Z 031524 26011KT 9999 FEW018=
200803031100 TAF LMML 031100Z 031221 26012KT 9999 FEW018=
200803030800 TAF LMML 030800Z 030918 28012KT 9999 FEW018=
200803030500 TAF LMML 030500Z 030615 27012KT 9999 SCT015=
200803030200 TAF LMML 030200Z 030312 27012KT 9999 FEW014
                      TEMPO 0406 8000 BKN013
                      BECMG 0609 BKN018=
200803022300 TAF LMML 022300Z 030009 27015KT 9999 SCT018
                      PROB30 TEMPO 0006 BKN015=
200803022000 TAF LMML 022000Z 022106 29015G25KT 9999 SCT018
                      BECMG 2123 27015KT
                      PROB30 TEMPO 0006 8000 BKN015=
200803021700 TAF LMML 021700Z 021803 28015G25KT 9999 SCT017
                      BECMG 2023 27015KT PTOB30 TRMPO 1803 8000
                       BKN014=
200803021400 TAF LMML 021400Z 021524 28017G27KT 9999 SCT017
                      BECMG 1720 28015
                      PROB30 TE MPO 1824 8000 BKN010=
200803021100 TAF LMML 021100Z 021221 28016G26KT 9999 FEW018 SCT025
                      BECMG 1719 28015KT=
200803020800 TAF LMML 020800Z 020918 28016G26KT 9999 FEW018 SCT035
                      BECMG 1518 28015KT=
200803020500 LMML 020500Z 020615 28015G25KT 9999 SCT020 SCT240=
200803020200 TAF LMML 020200Z 020312 28015G25KT 9999 SCT020 BKN200
                      PROB30 TEMPO 0312 9 000 -SHRA BKN015=
200803012300 TAF LMML 012300Z 020009 28015G25KT 9999 SCT020 BKN200=
200803012000 TAF LMML 012000Z 012106 28015G25KT 9999 SCT020 BKN200=
200803011700 TAF LMML 011700Z 011803 30015G25KT 9999 SCT018
                      TEMPO 1803 8000 BKN011 BKN 025=
200803011400 TAF LMML 011400Z 011524 30015G25KT 9999 SCT018
                      PROB30 TEMPO 2100 8000 BKN 011=
200803011100 TAF LMML 011100Z 011221 30015KT 9999 SCT018 BKN027
                      BECMG 1821 30015G25KT=
200803010800 TAF LMML 010800Z 010918 30015KT 9999 SCT018=
200803010500 TAF LMML 010500Z 010615 29013KT 9999 SCT018=
200803010200 TAF LMML 010200Z 010312 29010KT 9999 FEW020
                      TEMPO 0306 6000
                      PROB30 TEMPO 0306 3000 BR BKN011=

###################################
#  large TAF from LMML
###################################
200803312300 TAF LMML 312300Z 010606 27013KT 9999 SCT015 BKN100
                      TEMPO 0606 7000 SHRA B KN008
                      PROB30 TEMPO 0611 5000 TSRA BKN008 BKN012CB
                       BECMG 0306 04013KT=
200803311700 LMML 311700Z 140024 14012KT 9999 BKN011
                      TEMPO 0009 8000 BKN008
                      TEMPO 0010 6000 SHRA
                      PROB40 TEMPO 0210 5000 TSRA BKN012CB
                      BECMG 0407 27013K T=
200803311100 TAF LMML 311100Z 311818 15012KT 9999 SCT020
                      TEMPO 0009 8000 SHRA
                      PROB30 T EMPO 0307 5000 TSRA BKN015CB
                      BECMG 0003 27010KT=
200803310500 TAF LMML 310500Z 311212 14010KT 9999 SCT020
                      BECMG 0609 27012KT
                      PROB40 TEM PO 0012 8000 SHRA BKN018
                      PROB30 TEMPO 0312 5000 TSRA BKN015CB=
200803302300 TAF LMML 302300Z 310606 14010KT 9999 SCT018 SCT050
                      PROB30 TEMPO 0006 5000 TSRA BKN015CB
                      PROB40 TEMPO 2106 8000 SHRA BKN018
                      BECMG 0306 27015KT=
200803301700 TAF LMML 301700Z 310024 18005KT 9999 SCT013
                      TEMPO 0006 BKN011
                      PROB30 TEMP O 0006 8000 BKN006
                      BECMG 1215 12013KT
                      TEMPO 1824 9000 RA=
200803301100 TAF LMML 301100Z 301818 22006KT 9999 SCT015
                      TEMPO 1806 BKN013
                      PROB30 TEMP O 2106 8000 BKN006
                      BECMG 0912 15010KT=
200803300500 TAF LMML 300500Z 301212 29005KT 9999 SCT020 BKN200
                      PROB30 TEMPO 2106 8000 BKN005
                      BECMG 0912 13010KT=
200803292300 TAF LMML 292300Z 300606 28006KT 9999 SCT020
                      TEMPO 1906 8000 BKN009
                      PROB30 TEMPO 0006 5000 BKN005=
200803291700 TAF LMML 291700Z 300024 VRB03KT 9999 SCT015
                      PROB30 TEMPO 0008 BKN012=
200803291100 TAF LMML 291100Z 291818 VRB03KT CAVOK
                      PROB30 TEMPO 0318 SCT015=
200803290500 TAF LMML 290500Z 291212 32010KT 9999 FEW025
                      PROB30 TEMPO 0306 8000 SCT015=
200803282300 TAF LMML 282300Z 290606 33012KT 9999 FEW025=
200803281700 TAF LMML 281700Z 290024 33015KT 9999 SCT025
                      BECMG 2124 32005KT=
200803281100 TAF LMML 281100Z 281818 32015KT 9999 SCT025
                      BECMG 0306 34008KT=
200803280500 TAF LMML 280500Z 281212 30016G26KT 9999 SCT020
                      BECMG 0306 34010KT=
200803272300 TAF LMML 272300Z 280606 29020KT 9999 SCT020
                      TEMPO 0616 8000 SHRA
                      PROB30 T EMPO 0616 5000 TSRA BKN015CB
                      BECMG 1518 32025G35KT
                      BECMG 0306 33015KT=
200803271700 TAF LMML 271700Z 280024 29025G35KT 9999 SCT020
                      TEMPO 0009 7000
                      BECMG 0407 30017G27KT=
200803271300 LMML 271300Z 271818 29025G40KT 9999 SCT020
                      TEMPO 1809 8000 SHRA=
200803271100 TAF LMML 271100Z 271818 29025G40KT 9999 SCT020
                      TEMPO 1809 8000 SHRA=
200803270500 TAF LMML 270500Z 271212 28018G28KT 9999 SCT020
                      TEMPO 1224 6000 SHRA BKN01 8
                      PROB30 TEMPO 1224 5000 TSRA BKN015CB=
200803262300 TAF LMML 262300Z 270606 18018KT 9999 SCT018 SCT100
                      TEMPO 0906 6000 SHRA B KN015
                      PROB30 TEMPO 1224 5000 TSRA BKN015CB
                      BECMG 1215 30020G30KT=
200803261700 TAF LMML 261700Z 270024 19015KT 9999 FEW020 SCT100
                      TEMPO 0924 8000 SHRA B KN015
                      PROB40 TEMPO 0924 5000 TSRA BKN012CB
                      BECMG 0912 28020G30KT=
200803261100 TAF LMML 261100Z 261818 27010KT 9999 FEW020
                      BECMG 2124 21010KT
                      TEMPO 0918 8000 SHRA BKN015
                      PROB30 TEMPO 0918 5000 TSRA BKN012CB
                      BECMG 1215 290 20G30 KT=
200803260500 TAF LMML 260500Z 261212 28012KT 9999 SCT020
                      BECMG 2023 22010KT
                      TEMPO 0606 8000 SHRA BKN015
                      PROB30 TEMPO 0612 6000 TSRA BKN015CB
                      BECMG 0612 270 15G25KT=
200803252300 TAF LMML 252300Z 260606 28015KT 9999 SCT020
                      PROB30 TEMPO 0612 9000 SHRA=
200803251700 TAF LMML 251700Z 260024 28012KT 9999 SCT025
                      PROB30 TEMPO 0012 8000 SHRA B KN018=
200803251100 TAF LMML 251100Z 251818 27015KT 9999 SCT030
                      PROB30 TEMPO 2118 8000 SHRA B KN025=
200803250500 TAF LMML 250500Z 251212 25017G27KT 9999 FEW030
                      BECMG 2124 31012KT=
200803242300 TAF LMML 242300Z 250606 29026G36KT 9999 FEW020
                      BECMG 1215 25015G25KT=
200803241700 TAF LMML 241700Z 250024 30028G38KT 9999 SCT025 SCT040
                      PROB30 0009 8000 SH RA BKN020=
200803241100 TAF LMML 241100Z 241818 26025G35KT 9999 SCT025 SCT040
                      PROB30 TEMPO 1809 8 000 SHRA BKN020
                      BECMG 2124 30028G38KT=
200803240500 TAF LMML 240500Z 241212 28025G35KT 9999 FEW015
                      PROB30 TEMPO 1806 8000 SHR A BKN012=
200803232300 TAF LMML 232300Z 240606 29020G30KT 9999 SCT015
                      PROB30 TEMPO 0612 8000 SHR A BKN010
                      PROB30 TEMPO 1824 8000 SHRA=
200803231700 TAF LMML 231700Z 240024 28018G30KT 9999 SCT020
                      PROB30 TEMPO 0004 BKN010 P ROB30
                      TEMPO 0309 8000 SHRA=
200803231100 TAF LMML 231100Z 231818 22016KT 9999 FEW015
                      BECMG 2100 31018G28KT
                      PROB30 TEMPO 2103 BKN008
                      TEMPO 0412 7000 SHRA BKN013=
200803230500 TAF LMML 230500Z 231212 22020KT 9999 FEW015
                      BECMG 2301 30015KT SCT015 BEC MG 0811 27025G35KT
                       PROB40 0212 8000 SHRA BKN015
                      PROB30 0212 5000 TSGR BKN012CB=
200803222300 TAF LMML 222300Z 230606 27008KT 9999 FEW014 SCT070
                      BECMG 0811 22018KT BEC MG 2301 30015KT
                      PROB30 0006 8000 SHRA BKN015=
200803221700 TAF LMML 221700Z 230024 07008KT 9999 FEW020 SCT060
                      PROB30 TEMPO 0003 8000 SHRA BKN020
                      BECMG 0912 22018KT=
200803221100 LMML 221100Z 221818 120120KT 9999 FEW020 BKN100
                      TEMPO 1804 9000 RA PR=
200803220500 TAF LMML 220500Z 221212 14010KT 9999 FEW020 BKN100
                      TEMPO 1204 9000 RA PRO B30
                      TEMPO 1824 8000 TSRA BKN012 BKN060CB
                      BECMG 0710 22015KT=
200803212300 TAF LMML 212300Z 220606 17010KT 9999 FEW025 BKN100 OVC200
                      TEMPO 0624 8000 RA
                      PROB 30
                      TEMPO 1824 TSRA BKN008 BKN080CB=
200803211700 TAF LMML 211700Z 220024 29012KT 9999 SCT025
                      BECMG 0306 18010KT
                      BECMG 1214 13010KT SCT020 SCT080=
200803211100 TAF LMML 211100Z 211818 30012KT 9999 FEW025
                      BECMG 0306 18010KT
                      BECMG 1114 13010KT SCT025 SCT080=
200803210500 TAF LMML 210500Z 211212 31012KT 9999 FEW020=
200803202300 TAF LMML 202300Z 210606 31013KT 9999 FEW015=
200803201700 TAF LMML 201700Z 210024 32015KT 9999 FEW012 SCT180
                      BECMG 1518 30010KT=
200803201100 TAF LMML 201100Z 201818 31013KT 9999 FEW012 SCT120 BKN200
                      TEMPO 1824 8000 RA BKN008=
200803200500 TAF LMML 200500Z 201212 33012KT 9999 FEW020 BKN100
                      PROB30 TEMPO 1624 8000 RA
                      BECMG 2124 31015G25KT=
200803192300 TAF LMML 192300Z 200606 33012KT 9999 FEW020 BKN100
                      PROB30 TEMPO 0824 8000 RA
                      BECMG 2124 33015G25KT=
200803191700 TAF LMML 191700Z 200024 30012KT 9999 SCT015
                      PROB30 TEMPO 0006 8000 BKN008
                      TEMPO 1224 8000 RA=
200803191100 TAF LMML 191100Z 191818 30012KT 9999 FEW015=
200803190500 TAF LMML 190500Z 191212 31010KT 9999 FEW010 SCT080
                      PROB30 TEMPO 1906 600 0 RA SCT010=
200803182300 TAF LMML 182300Z 190606 31010KT 9999 FEW015
                      PROB30 TEMPO 1506 8000 SCT010 SCT080=
200803181700 TAF LMML 181700Z 190024 31008KT 9999 FEW020
                      PROB30 TEMPO 0006 8000 BKN008
                      BECMG 1114 BKN080=
200803181100 TAF LMML 181100Z 181818 20010KT 9999 SCT020
                      BECMG 2124 31008KT
                      PROB30 TEM PO 2106 5000 BKN008=
200803180500 TAF LMML 180500Z 181212 20010KT 9999 FEW015
                      BECMG 2124 30008KT
                      PROB30 TEM PO 0012 9000 RA BKN012
                      PROB30 TEMPO 0007 5000 BR BK005=
200803172300 TAF LMML 172300Z 180606 22010KT 9999 FEW015
                      BECMG 2124 29008KT
                      PROB30 TEM PO 2106 BKN011=
200803171700 TAF LMML 171700Z 180024 27012KT 9999 FEW015
                      BECMG 0205 23010KT=
200803171100 TAF LMML 171100Z 171818 30015KT 9999 FEW015
                      BECMG 0205 24010KT=
200803170500 TAF LMML 170500Z 171212 30015KT 9999 FEW020
                      BECMG 0003 24010KT=
200803162300 TAF LMML 162300Z 170606 30015KT 9999 SCT020
                      BECMG 0003 24010KT=
200803161700 TAF LMML 161700Z 170024 28012KT 9999 SCT011 SCT100
                      TEMPO 0009 8000 BKN008
                      PROB30 TEMPO 0006 5000 RA BKN005=
200803161100 TAF LMML 161100Z 161818 32010KT 9999 SCT012 SCT100
                      TEMPO 1806 BKN008
                      PROB 30
                      TEMPO 0306 9000 RA
                      BECMG 0508 28015G25KT=
200803160500 TAF LMML 160500Z 161212 10008KT 9999 SCT015
                      BECMG 1518 33010KT
                      PROB30 TEM PO 1824 BKN008
                      BECMG 0306 31015G25KT=
200803152300 TAF LMML 152300Z 160606 09005KT 9999 FEW015
                      BECMG 1518 33010KT SCT015 BKN 100
                      PROB30 TEMPO 0006 8000 BKN008=
200803151700 TAF LMML 151700Z 160024 15005KT 9999 FEW015
                      PROB30 TEMPO 0006 8000=
200803151100 TAF LMML 151100Z 151818 15005KT 9999 FEW015=
200803150500 TAF LMML 150500Z 151212 25005KT 9999 FEW015
                      PROB30 TEMPO 0006 7000 BKN008=
200803142300 TAF LMML 142300Z 150606 26010KT 9999 FEW015
                      BECMG 1316 12010KT=
200803141700 TAF LMML 141700Z 150024 27010KT 9999 FEW015
                      PROB30 TEMPO 0006 7000 BKN007
                      BECMG 1316 12010KT=
200803141100 TAF LMML 141100Z 141818 29008KT 9999 FEW015
                      PROB30 TEMPO 0006 7000 BKN007
                      BECMG 1114 12010KT=
200803140500 TAF LMML 140500Z 141212 28010KT 9999 FEW015
                      PROB30 TEMPO 1806 7000 BKN008=
200803132300 TAF LMML 132300Z 140606 28012KT 9999 SCT015
                      BECMG 2124 VRB03KT
                      PROB30 TEM PO 0006 5000 BR BKN005=
200803131700 TAF LMML 131700Z 140024 30015KT 9999 FEW015=
200803131100 TAF LMML 131100Z 131818 30015G25KT 9999 FEW015
                      BECMG 1821 30015KT=
200803130500 TAF LMML 130500Z 131212 30015G25KT 9999 FEW020=
200803122300 TAF LMML 122300Z 130606 30015G25KT 9999 FEW015=
200803121700 TAF LMML 121700Z 130024 28015KT CAVOK
                      TEMPO 0006 9000 SCT008
                      TEMPO 0615 2 9018G28KT=
200803121100 TAF LMML 121100Z 121818 28014KT 9999 SCT015
                      PROB30 TEMPO 1806 8000 BKN013
                      TEMPO 0816 28015G25KT=
200803120500 TAF LMML 120500Z 121212 30017KT 9999 FEW020=
200803112300 TAF LMML 112300Z 120606 29020G30KT 9999 FEW020=
200803111700 TAF LMML 111700Z 120024 29015G25KT 9999 FEW025=
200803111100 TAF LMML 111100Z 111818 30017G27KT 9999 FEW020=
200803110500 TAF LMML 110500Z 111212 30020G30KT 9999 FEW015 SCT120=
200803102300 TAF LMML 102300Z 110606 28015KT 9999 FEW018 SCT120=
200803101700 TAF LMML 101700Z 110024 19013KT 9999 FEW016 SCT100
                      PROB30 TEMPO 0312 8000 RA
                      BECMG 0407 27015KT
                      BECMG 1518 30018G28KT=
200803101100 TAF LMML 101100Z 101818 19010KT 9999 SCT020 BKN100
                      PROB30 TEMPO 0012 8000 RA BKN012
                      BECMG 0306 27012KT
                      BECMG 1518 30018G28KT=
200803100500 TAF LMML 100500Z 101212 16008KT 9999 SCT020 SCT200
                      PROB30 TEMPO 0006 7000 RA BKN012
                      BECMG 0710 27012KT=
200803092300 TAF LMML 092300Z 100606 17007KT 9999 SCT025 SCT180
                      PROB30 TEMPO 0006 8000 RA=
200803091700 TAF LMML 091700Z 100024 22008KT 9999 SCT025=
200803091100 TAF LMML 091100Z 091818 24005KT 9999 FEW030
                      PROB30 TEMPO 1821 SHRA SCT025=
200803090500 TAF LMML 090500Z 091212 24008KT 9999 SCT025
                      PROB30 TEMPO 1218 8000 SHRA=
200803082300 TAF LMML 082300Z 090606 28007KT 9999 SCT020
                      PROB30 TEMPO 1018 8000 SHRA=
200803081700 TAF LMML 081700Z 090024 25006KT 9999 SCT025
                      TEMPO 0020 8000 SHRA
                      PROB30 T EMPO 1014 5000 TSRA BKN015CB=
200803081100 TAF LMML 081100Z 081818 24008KT 9999 SCT025
                      TEMPO 1818 8000 SHRA
                      PROB30 T EMPO 1821 5000 TSRA BKN015CB=
200803080500 TAF LMML 080500Z 081212 23013KT 9999 SCT030
                      TEMPO 1212 8000 SHRA BKN018 P ROB30
                      TEMPO 1212 5000 TSRA BKN015CB
                      BECMG 1518 27010KT=
200803072300 TAF LMML 072300Z 080606 22015KT 9999 SCT030
                      TEMPO 0606 8000 SHRA BKN018 P ROB40
                      TEMPO 0606 5000 TSGR BKN015CB
                      BECMG 1518 28010KT=
200803071700 TAF LMML 071700Z 080024 24015KT 9999 SCT025
                      TEMPO 0021 8000 SHRA
                      PROB30 T EMPO 0021 5000 TSRA BKN018CB=
200803071100 TAF LMML 071100Z 071818 23013KT 9999 SCT025
                      TEMPO 0018 8000 SHRA
                      PROB30 T EMPO 0618 5000 TSRA BKN015CB=
200803070500 TAF LMML 070500Z 071212 25015KT 9999 SCT030
                      PROB30 TEMPO 1215 8000 SHRA B KN025
                      PROB30 TEMPO 0812 8000 SHRA BKN020=
200803062300 TAF LMML 062300Z 070606 26015KT 9999 SCT030
                      TEMPO 0609 8000 SHRA BKN018 P ROB40
                      TEMPO 0609 5000 TSGR BKN015CB=
200803061700 TAF LMML 061700Z 070024 22015KT 9999 SCT020
                      TEMPO 0015 8000 SHRA BKN018 P ROB30
                      TEMPO 0012 5000 TSGR BKN015CB
                      BECMG 0306 26015G25KT=
200803061100 TAF LMML 061100Z 061818 23015KT 9999 FEW020 BKN040
                      TEMPO 1818 8000 RA PRO B40
                      TEMPO 2106 5000 TSGR BKN015CB
                      BECMG 0306 25015G25KT=
200803060500 TAF LMML 060500Z 061212 23012KT 9999 SCT025 SCT040
                      TEMPO 1212 8000 SHRA P ROB30
                      TEMPO 0012 5000 TSGR BKN015CB
                      BECMG 0306 23016G26KT=
200803052300 TAF LMML 052300Z 060606 24005KT 9999 SCT020 SCT090
                      TEMPO 0906 8000 SHRA B KN015
                      BECMG 1518 23015KT
                      PROB30 TEMPO 2106 5000 TSRA BKN015CB
                      BECMG 0 306 23016G26KT=
200803051700 LMML 051700Z 060024 30005KT 9999 SCT015
                      BECMG 1216 22012KT
                      PROB40 TEM PO 0024 8000 SHRA
                      PROB30 TEMPO 0309 5000 TS BKN012CB
                      PROB30 TEMPO 162 4 5000 TSGR BKN012CB=
200803051100 TAF LMML 051100Z 051818 30005KT 9999 SCT018 SCT080
                      PROB30 TEMPO 1818 8000 SHRA BKN018=
200803050500 TAF LMML 050500Z 051212 30005KT 9999 SCT020 SCT050
                      TEMPO 1812 6000 SHRA B ECMG 0912 24012KT=
200803042300 TAF LMML 042300Z 050606 30008KT 9999 SCT020
                      TEMPO 1806 7000 SHRA BKN015=
200803041700 TAF LMML 041700Z 050024 32007KT 9999 SCT020 SCT130
                      PROB30 TEMPO 0006 7000 BKN010
                      TEMPO 1824 7000 RA BKN012=
200803041100 TAF LMML 041100Z 041818 26005KT 9999 FEW020 SCT100
                      TEMPO 2106 9000 BKN015
                      PROB30 TEMPO 1218 8000 SHRA BKN015=
200803040500 TAF LMML 040500Z 041212 22005KT 9999 FEW030 SCT100
                      BECMG 2124 30005KT TEM PO 0012 BKN015=
200803032300 TAF LMML 032300Z 040606 21010KT 9999 FEW020
                      BECMG 2124 31005KT
                      PROB30 TEM PO 0206 8000=
200803031700 TAF LMML 031700Z 040024 23006KT 9999 FEW015=
200803031100 TAF LMML 031100Z 031818 23008KT 9999 FEW020=
200803030500 TAF LMML 030500Z 031212 25010KT 9999 SCT018=
200803022300 TAF LMML 022300Z 030606 27012KT 9999 SCT018=
200803021700 TAF LMML 021700Z 030024 27015KT 9999 SCT018
                      PROB30 TEMPO 0008 BKN013 BECM G 1518 23010KT=
200803021100 TAF LMML 021100Z 021818 28015KT 9999 SCT018
                      PROB30 TEMPO 1809 8000 BKN010
                      BECMG 1518 21010KT=
200803020500 TAF LMML 020500Z 021212 28015G25KT 9999 SCT020
                      BECMG 1518 28015KT
                      PROB30 TEMPO 1809 9000 BKN010=
200803012300 TAF LMML 012300Z 020606 28017G27KT 9999 SCT020
                      BECMG 1821 28015KT=
200803011700 TAF LMML 011700Z 020024 30015G25KT 9999 SCT018
                      TEMPO 0006 8000 BKN011 BKN 025
                      BECMG 1215 30015KT=
200803011100 TAF LMML 011100Z 011818 30015G25KT 9999 SCT015
                      BECMG 1215 30015KT
                      PROB30 TEMPO 2106 8000 BKN011=
200803010500 TAF LMML 010500Z 011212 30017KT 9999 SCT018
                      PROB40 TEMPO 1807 8000 BKN011=
