##########################################################
# Query made at 01/18/2013 15:37:24 UTC
# Time interval: from 05/01/2011 00:00  to 05/31/2011 23:59  UTC
##########################################################

##########################################################
# LMML, Luqa (Malta)
# WMO index: 16597
# Latitude 35-51N. Longitude 014-29E. Altitude 91 m.
##########################################################

###################################
#  METAR/SPECI from LMML
###################################
201105312345 METAR LMML 312345Z VRB02KT 9999 FEW011 BKN250 18/16 Q1016
                        NOSIG=
201105312330 METAR LMML NIL=
201105312315 METAR LMML 312315Z VRB01KT 9999 FEW011 BKN250 18/17 Q1017
                        NOSIG=
201105312300 METAR LMML NIL=
201105312245 METAR LMML 312245Z VRB01KT 9999 FEW011 BKN250 18/16 Q1017
                        NOSIG=
201105312230 METAR LMML NIL=
201105312215 METAR LMML 312215Z VRB02KT 9999 FEW011 BKN250 18/17 Q1018
                        NOSIG=
201105312200 METAR LMML NIL=
201105312145 METAR LMML 312145Z 24003KT 9999 FEW011 BKN250 19/17 Q1018
                        NOSIG=
201105312115 METAR LMML 312115Z 26003KT 9999 FEW011 BKN250 19/17 Q1018
                        NOSIG=
201105312100 METAR LMML NIL=
201105312045 METAR LMML 312045Z 23003KT 9999 BKN011 BKN250 19/17 Q1017
                        TEMPO 9000 BKN010=
201105312030 METAR LMML NIL=
201105312015 METAR LMML 312015Z 20003KT 9999 BKN011 BKN250 19/17 Q1017
                        TEMPO 9000 BKN010=
201105312000 METAR LMML NIL=
201105311945 METAR LMML 311945Z VRB02KT 9999 FEW020 BKN250 19/17 Q1017
                        NOSIG=
201105311930 METAR LMML NIL=
201105311915 METAR LMML 311915Z 15003KT 9999 FEW020 BKN250 19/17 Q1016
                        NOSIG=
201105311900 METAR LMML NIL=
201105311845 METAR LMML 311845Z VRB01KT CAVOK 19/17 Q1016 NOSIG=
201105311830 METAR LMML NIL=
201105311815 METAR LMML 311815Z VRB01KT CAVOK 19/17 Q1016 NOSIG=
201105311800 METAR LMML NIL=
201105311745 METAR LMML 311745Z 22003KT 9999 FEW020 BKN250 20/17 Q1016
                        NOSIG=
201105311730 METAR LMML NIL=
201105311715 METAR LMML 311715Z 20004KT 170V260 9999 FEW020 BKN250 21/17
                        Q1016 NOSIG=
201105311700 METAR LMML NIL=
201105311645 METAR LMML 311645Z 19004KT 160V230 9999 FEW020 BKN250 21/16
                        Q1016 NOSIG=
201105311630 METAR LMML NIL=
201105311615 METAR LMML 311615Z 20004KT 170V260 9999 FEW020 BKN250 22/16
                        Q1016 NOSIG=
201105311600 METAR LMML NIL=
201105311545 METAR LMML 311545Z 19003KT 9999 FEW020 BKN250 22/16 Q1016
                        NOSIG=
201105311530 METAR LMML NIL=
201105311515 METAR LMML 311515Z 20004KT 160V280 9999 FEW020 BKN250 22/16
                        Q1017 NOSIG=
201105311500 METAR LMML NIL=
201105311445 METAR LMML 311445Z 20005KT 160V260 9999 FEW020 BKN250 22/16
                        Q1017 NOSIG=
201105311430 METAR LMML NIL=
201105311415 METAR LMML 311415Z 21005KT 140V260 9999 FEW020 BKN250 22/16
                        Q1017 NOSIG=
201105311400 METAR LMML NIL=
201105311345 METAR LMML 311345Z 22007KT 180V300 9999 FEW020 SCT250 23/16
                        Q1018 NOSIG=
201105311315 METAR LMML 311315Z 22006KT 170V280 9999 FEW020 BKN250 23/15
                        Q1018 NOSIG=
201105311300 METAR LMML NIL=
201105311245 METAR LMML 311245Z 19005KT 130V240 9999 FEW020 BKN250 23/14
                        Q1018 NOSIG=
201105311215 METAR LMML 311215Z 20005KT 120V310 9999 FEW020 SCT250 24/14
                        Q1018 NOSIG=
201105311200 METAR LMML NIL=
201105311145 METAR LMML 311145Z 17005KT 120V230 9999 FEW015 SCT250 23/14
                        Q1017 NOSIG=
201105311130 METAR LMML NIL=
201105311115 METAR LMML 311115Z 19005KT 130V270 9999 FEW015 SCT250 23/16
                        Q1018 NOSIG=
201105311100 METAR LMML NIL=
201105311045 METAR LMML 311045Z 18006KT 130V230 9999 FEW015 SCT250 23/14
                        Q1018 NOSIG=
201105311030 METAR LMML NIL=
201105311015 METAR LMML 311015Z 19005KT 110V240 9999 FEW015 SCT250 23/14
                        Q1018 NOSIG=
201105310945 METAR LMML 310945Z 17005KT 120V210 9999 FEW015 SCT250 23/14
                        Q1018 NOSIG=
201105310915 METAR LMML 310915Z 17005KT 130V210 9999 FEW015 SCT250 23/13
                        Q1018 NOSIG=
201105310845 METAR LMML 310845Z 18006KT 9999 FEW015 BKN250 22/15 Q1018
                        NOSIG=
201105310830 METAR LMML NIL=
201105310815 METAR LMML 310815Z 12005KT 070V160 9999 FEW015 BKN250 23/12
                        Q1018 NOSIG=
201105310800 METAR LMML NIL=
201105310745 METAR LMML 310745Z 12005KT 080V160 9999 FEW015 BKN250 22/12
                        Q1017 NOSIG=
201105310730 METAR LMML NIL=
201105310715 METAR LMML 310715Z 13005KT 080V180 CAVOK 23/13 Q1017 NOSIG=
201105310645 METAR LMML 310645Z 11003KT CAVOK 22/14 Q1017 NOSIG=
201105310630 METAR LMML NIL=
201105310615 METAR LMML 310615Z VRB02KT 9000 NSC 20/16 Q1017 BECMG 9999=
201105310600 METAR LMML NIL=
201105310545 METAR LMML 310545Z VRB01KT 9000 NSC 19/17 Q1017 BECMG 9999=
201105310530 METAR LMML NIL=
201105310515 METAR LMML 310515Z VRB01KT 6000 NSC 18/18 Q1018 BECMG 9999
                        FEW012=
201105310500 METAR LMML NIL=
201105310445 METAR LMML 310445Z 31003KT 6000 NSC 17/17 Q1018 BECMG 9999
                        FEW012=
201105310430 METAR LMML NIL=
201105310415 METAR LMML 310415Z VRB02KT 6000 FEW006 SCT250 17/16 Q1018
                        BECMG 9000 SCT011=
201105310400 METAR LMML NIL=
201105310345 METAR LMML 310345Z 32003KT 6000 FEW006 SCT250 17/16 Q1017
                        BECMG 9000 SCT011=
201105310330 METAR LMML NIL=
201105310315 METAR LMML 310315Z VRB02KT 8000 FEW006 17/16 Q1017 TEMPO
                        4000 BR BKN005=
201105310300 METAR LMML NIL=
201105310245 METAR LMML 310245Z VRB02KT 8000 SCT006 17/17 Q1017 TEMPO
                        4000 BR BKN005=
201105310230 METAR LMML NIL=
201105310215 METAR LMML 310215Z VRB02KT 8000 SCT006 18/17 Q1017 TEMPO
                        4000 BR=
201105310200 METAR LMML NIL=
201105310145 METAR LMML 310145Z 03003KT 8000 SCT005 18/17 Q1017 TEMPO
                        4000 BR BKN004=
201105310130 METAR LMML NIL=
201105310115 METAR LMML 310115Z VRB02KT 6000 BKN005 18/17 Q1017 TEMPO
                        4000 BR=
201105310100 METAR LMML NIL=
201105310045 METAR LMML 310045Z 03004KT 6000 BKN005 18/17 Q1017 TEMPO
                        4000 BR=
201105310030 METAR LMML NIL=
201105310015 METAR LMML 310015Z 03004KT 6000 BKN005 18/17 Q1017 TEMPO
                        4000=
201105310000 METAR LMML NIL=
201105302345 METAR LMML 302345Z VRB02KT 6000 BKN005 17/17 Q1017 TEMPO
                        4000=
201105302330 METAR LMML NIL=
201105302315 METAR LMML 302315Z VRB01KT 7000 FEW006 17/16 Q1018 TEMPO
                        5000 BKN006=
201105302300 METAR LMML NIL=
201105302245 METAR LMML 302245Z 27003KT 9000 SCT006 18/17 Q1018 TEMPO
                        BKN007=
201105302230 METAR LMML NIL=
201105302215 METAR LMML 302215Z VRB02KT 9000 SCT007 18/17 Q1018 TEMPO
                        BKN007=
201105302200 METAR LMML NIL=
201105302145 METAR LMML 302145Z VRB02KT 9000 FEW012 SCT250 19/17 Q1018
                        NOSIG=
201105302130 METAR LMML NIL=
201105302115 METAR LMML 302115Z VRB02KT 9999 FEW017 SCT250 19/17 Q1018
                        TEMPO 7000=
201105302100 METAR LMML NIL=
201105302045 METAR LMML 302045Z VRB01KT 9999 FEW017 SCT250 19/17 Q1018
                        TEMPO 7000=
201105302030 METAR LMML NIL=
201105302015 METAR LMML 302015Z VRB02KT 9999 FEW017 SCT250 19/17 Q1018
                        NOSIG=
201105302000 METAR LMML NIL=
201105301945 METAR LMML 301945Z VRB02KT 9999 FEW017 19/17 Q1018 NOSIG=
201105301930 METAR LMML NIL=
201105301915 METAR LMML 301915Z 08003KT 9999 FEW017 SCT250 19/17 Q1018
                        NOSIG=
201105301900 METAR LMML NIL=
201105301845 METAR LMML 301845Z 08003KT 9999 FEW017 SCT250 19/16 Q1018
                        NOSIG=
201105301830 METAR LMML NIL=
201105301815 METAR LMML 301815Z 07005KT 040V100 9999 FEW017 SCT250 20/16
                        Q1018 NOSIG=
201105301800 METAR LMML NIL=
201105301745 METAR LMML 301745Z 09006KT CAVOK 21/15 Q1017 NOSIG=
201105301730 METAR LMML NIL=
201105301715 METAR LMML 301715Z 11006KT 080V140 CAVOK 21/14 Q1017 NOSIG=
201105301700 METAR LMML NIL=
201105301645 METAR LMML 301645Z 10006KT 070V130 CAVOK 22/14 Q1017 NOSIG=
201105301630 METAR LMML NIL=
201105301615 METAR LMML 301615Z 12007KT 070V150 9999 FEW025 SCT250 22/13
                        Q1018 NOSIG=
201105301545 METAR LMML 301545Z 11006KT 080V160 9999 FEW025 23/13 Q1018
                        NOSIG=
201105301530 METAR LMML NIL=
201105301515 METAR LMML 301515Z 18008KT CAVOK 23/11 Q1018 NOSIG=
201105301500 METAR LMML NIL=
201105301445 METAR LMML 301445Z 09010KT 050V140 CAVOK 24/13 Q1017 NOSIG=
201105301430 METAR LMML NIL=
201105301415 METAR LMML 301415Z 09009KT 030V140 CAVOK 24/13 Q1017 NOSIG=
201105301400 METAR LMML NIL=
201105301345 METAR LMML 301345Z 07009KT 030V110 CAVOK 24/14 Q1018 NOSIG=
201105301330 METAR LMML NIL=
201105301315 METAR LMML 301315Z 07007KT 010V120 CAVOK 25/15 Q1018 NOSIG=
201105301300 METAR LMML NIL=
201105301245 METAR LMML 301245Z 07009KT 040V110 CAVOK 24/14 Q1018 NOSIG=
201105301230 METAR LMML NIL=
201105301215 METAR LMML 301215Z 06010KT 020V110 CAVOK 24/15 Q1018 NOSIG=
201105301145 METAR LMML 301145Z 07008KT 360V130 CAVOK 24/14 Q1018 NOSIG=
201105301130 METAR LMML NIL=
201105301115 METAR LMML 301115Z 06009KT 010V090 9999 FEW017 BKN250 24/16
                        Q1019 NOSIG=
201105301100 METAR LMML NIL=
201105301045 METAR LMML 301045Z 04008KT 350V090 9999 FEW017 SCT250 24/16
                        Q1019 NOSIG=
201105301030 METAR LMML NIL=
201105301015 METAR LMML 301015Z 05009KT 010V100 9999 FEW017 24/16 Q1018
                        NOSIG=
201105301000 METAR LMML NIL=
201105300945 METAR LMML 300945Z 06010KT 020V110 9999 FEW016 23/16 Q1018
                        NOSIG=
201105300930 METAR LMML NIL=
201105300915 METAR LMML 300915Z 05011KT 010V090 9999 FEW015 23/17 Q1018
                        NOSIG=
201105300900 METAR LMML NIL=
201105300845 METAR LMML 300845Z 04008KT 360V100 9999 FEW015 23/17 Q1018
                        NOSIG=
201105300830 METAR LMML NIL=
201105300815 METAR LMML 300815Z 03009KT 9999 FEW017 SCT250 23/17 Q1018
                        NOSIG=
201105300800 METAR LMML NIL=
201105300745 METAR LMML 300745Z 04009KT 010V080 9999 FEW011 SCT250 22/17
                        Q1018 NOSIG=
201105300730 METAR LMML NIL=
201105300715 METAR LMML 300715Z 03008KT 360V060 9999 FEW011 22/18 Q1018
                        NOSIG=
201105300700 METAR LMML NIL=
201105300645 METAR LMML 300645Z 02009KT 9999 FEW011 21/17 Q1018 NOSIG=
201105300630 METAR LMML NIL=
201105300615 METAR LMML 300615Z 03010KT 9999 FEW012 20/17 Q1017 NOSIG=
201105300600 METAR LMML NIL=
201105300545 METAR LMML 300545Z 03008KT 360V060 9999 FEW012 20/17 Q1017
                        NOSIG=
201105300530 METAR LMML NIL=
201105300515 METAR LMML 300515Z 01005KT CAVOK 19/17 Q1017 NOSIG=
201105300500 METAR LMML NIL=
201105300445 METAR LMML 300445Z 07004KT 8000 FEW009 19/18 Q1017 BECMG
                        9999=
201105300430 METAR LMML NIL=
201105300415 METAR LMML 300415Z 03004KT 7000 FEW005 18/17 Q1016 TEMPO
                        BKN005=
201105300400 METAR LMML NIL=
201105300345 METAR LMML 300345Z 02004KT 350V050 6000 SCT007 BKN010 19/18
                        Q1016 NOSIG=
201105300330 METAR LMML NIL=
201105300315 METAR LMML 300315Z 01003KT 9000 BKN010 18/17 Q1016 NOSIG=
201105300300 METAR LMML NIL=
201105300245 METAR LMML 300245Z 01004KT 9000 BKN009 18/17 Q1016 NOSIG=
201105300230 METAR LMML NIL=
201105300215 METAR LMML 300215Z 02004KT 8000 BKN006 18/18 Q1016 NOSIG=
201105300200 METAR LMML NIL=
201105300145 METAR LMML 300145Z 03003KT 8000 BKN005 18/17 Q1015 NOSIG=
201105300130 METAR LMML NIL=
201105300115 METAR LMML 300115Z 03003KT 9000 NSC 18/17 Q1016 TEMPO 9000
                        FEW005=
201105300100 METAR LMML NIL=
201105300045 METAR LMML 300045Z 02003KT CAVOK 18/17 Q1016 TEMPO 9000 FEW005=
201105300030 METAR LMML NIL=
201105300015 METAR LMML 300015Z 01003KT CAVOK 18/17 Q1016 TEMPO 9000 FEW005=
201105292345 METAR LMML 292345Z 36003KT CAVOK 18/17 Q1016 TEMPO 9000 FEW005=
201105292330 METAR LMML NIL=
201105292315 METAR LMML 292315Z VRB02KT CAVOK 18/16 Q1016 TEMPO 9000 FEW005=
201105292300 METAR LMML NIL=
201105292245 METAR LMML 292245Z 01003KT CAVOK 18/16 Q1016 NOSIG=
201105292230 METAR LMML NIL=
201105292215 METAR LMML 292215Z 02004KT CAVOK 18/16 Q1016 NOSIG=
201105292200 METAR LMML NIL=
201105292145 METAR LMML 292145Z 01004KT CAVOK 18/16 Q1016 NOSIG=
201105292130 METAR LMML NIL=
201105292115 METAR LMML 292115Z 02003KT CAVOK 18/15 Q1016 NOSIG=
201105292100 METAR LMML NIL=
201105292045 METAR LMML 292045Z 36004KT CAVOK 18/15 Q1016 NOSIG=
201105292030 METAR LMML NIL=
201105292015 METAR LMML 292015Z 36007KT CAVOK 19/14 Q1016 NOSIG=
201105292000 METAR LMML NIL=
201105291945 METAR LMML 291945Z 34006KT 320V020 CAVOK 19/14 Q1016 NOSIG=
201105291930 METAR LMML NIL=
201105291915 METAR LMML 291915Z 34007KT CAVOK 19/14 Q1016 NOSIG=
201105291900 METAR LMML NIL=
201105291845 METAR LMML 291845Z 34008KT CAVOK 19/13 Q1015 NOSIG=
201105291830 METAR LMML NIL=
201105291815 METAR LMML 291815Z 33007KT CAVOK 19/14 Q1015 NOSIG=
201105291800 METAR LMML NIL=
201105291745 METAR LMML 291745Z 32009KT CAVOK 20/15 Q1015 NOSIG=
201105291730 METAR LMML NIL=
201105291715 METAR LMML 291715Z 31010KT 9999 FEW020 20/15 Q1015 NOSIG=
201105291700 METAR LMML NIL=
201105291645 METAR LMML 291645Z 30011KT 9999 FEW020 21/15 Q1015 NOSIG=
201105291630 METAR LMML NIL=
201105291615 METAR LMML 291615Z 31011KT 270V340 9999 FEW020 22/15 Q1015
                        NOSIG=
201105291600 METAR LMML NIL=
201105291545 METAR LMML 291545Z 30011KT CAVOK 22/15 Q1015 NOSIG=
201105291530 METAR LMML NIL=
201105291515 METAR LMML 291515Z 30010KT 250V330 CAVOK 22/15 Q1015 NOSIG=
201105291500 METAR LMML NIL=
201105291445 METAR LMML 291445Z 33010KT 290V360 9999 FEW020 24/14 Q1015
                        NOSIG=
201105291430 METAR LMML NIL=
201105291415 METAR LMML 291415Z 30011KT 250V330 9999 FEW020 23/14 Q1015
                        NOSIG=
201105291400 METAR LMML NIL=
201105291345 METAR LMML 291345Z 32011KT 280V360 9999 FEW020 23/15 Q1015
                        NOSIG=
201105291330 METAR LMML NIL=
201105291315 METAR LMML 291315Z 32011KT 9999 FEW020 24/13 Q1015 NOSIG=
201105291300 METAR LMML NIL=
201105291245 METAR LMML 291245Z 31011KT 9999 FEW025 25/12 Q1015 NOSIG=
201105291230 METAR LMML NIL=
201105291215 METAR LMML 291215Z 30013KT 260V330 9999 FEW025 24/13 Q1015
                        NOSIG=
201105291145 METAR LMML 291145Z 30013KT CAVOK 25/14 Q1015 NOSIG=
201105291130 METAR LMML NIL=
201105291115 METAR LMML 291115Z 30014KT CAVOK 25/14 Q1015 NOSIG=
201105291100 METAR LMML NIL=
201105291045 METAR LMML 291045Z 30013KT 270V330 CAVOK 25/14 Q1015 NOSIG=
201105291030 METAR LMML NIL=
201105291015 METAR LMML 291015Z 34014KT CAVOK 25/14 Q1015 NOSIG=
201105291000 METAR LMML NIL=
201105290945 METAR LMML 290945Z 32015KT CAVOK 25/14 Q1015 NOSIG=
201105290915 METAR LMML 290915Z 32018KT CAVOK 24/15 Q1015 NOSIG=
201105290845 METAR LMML 290845Z 32018KT CAVOK 24/15 Q1015 NOSIG=
201105290830 METAR LMML NIL=
201105290815 METAR LMML 290815Z 30017KT CAVOK 23/16 Q1015 NOSIG=
201105290745 METAR LMML 290745Z 31015KT 280V340 CAVOK 23/17 Q1015 NOSIG=
201105290730 METAR LMML NIL=
201105290715 METAR LMML 290715Z 30016KT 270V330 9999 FEW018 21/17 Q1015
                        NOSIG=
201105290700 METAR LMML NIL=
201105290645 METAR LMML 290645Z 30016KT 260V320 9999 FEW015 21/17 Q1015
                        NOSIG=
201105290630 METAR LMML NIL=
201105290615 METAR LMML 290615Z 31017KT 9999 FEW015 20/17 Q1014 NOSIG=
201105290600 METAR LMML NIL=
201105290545 METAR LMML 290545Z 30016KT 270V330 9999 FEW015 19/17 Q1014
                        NOSIG=
201105290515 METAR LMML 290515Z 31012KT 9999 FEW015 19/17 Q1014 NOSIG=
201105290445 METAR LMML 290445Z 31009KT 280V340 9999 FEW012 18/16 Q1014
                        NOSIG=
201105290430 METAR LMML NIL=
201105290415 METAR LMML 290415Z 31008KT 270V340 9000 FEW012 18/16 Q1014
                        NOSIG=
201105290400 METAR LMML NIL=
201105290345 METAR LMML 290345Z 30010KT 7000 FEW012 18/16 Q1014 BECMG
                        9999=
201105290330 METAR LMML NIL=
201105290315 METAR LMML 290315Z 30006KT 270V330 CAVOK 19/13 Q1014 NOSIG=
201105290300 METAR LMML NIL=
201105290245 METAR LMML 290245Z 30007KT 270V330 CAVOK 19/14 Q1013 NOSIG=
201105290215 METAR LMML 290215Z 29007KT CAVOK 19/13 Q1013 NOSIG=
201105290200 METAR LMML NIL=
201105290145 METAR LMML 290145Z 29010KT CAVOK 19/13 Q1013 NOSIG=
201105290130 METAR LMML NIL=
201105290115 METAR LMML 290115Z 29008KT CAVOK 19/13 Q1013 NOSIG=
201105290100 METAR LMML NIL=
201105290045 METAR LMML 290045Z 29010KT 260V320 CAVOK 19/13 Q1014 NOSIG=
201105290015 METAR LMML 290015Z 29010KT 270V330 CAVOK 20/11 Q1014 NOSIG=
201105290000 METAR LMML NIL=
201105282345 METAR LMML 282345Z 28010KT 250V310 CAVOK 21/09 Q1014 NOSIG=
201105282330 METAR LMML NIL=
201105282315 METAR LMML 282315Z 31008KT CAVOK 21/09 Q1014 NOSIG=
201105282300 METAR LMML NIL=
201105282245 METAR LMML 282245Z 30009KT CAVOK 21/10 Q1014 NOSIG=
201105282215 METAR LMML 282215Z 30011KT 270V330 CAVOK 21/11 Q1014 NOSIG=
201105282200 METAR LMML NIL=
201105282145 METAR LMML 282145Z 30011KT CAVOK 21/11 Q1014 NOSIG=
201105282130 METAR LMML NIL=
201105282115 METAR LMML 282115Z 30011KT CAVOK 21/11 Q1014 NOSIG=
201105282100 METAR LMML NIL=
201105282045 METAR LMML 282045Z 28014KT CAVOK 21/11 Q1014 NOSIG=
201105282030 METAR LMML NIL=
201105282015 METAR LMML 282015Z 28015KT CAVOK 21/10 Q1014 NOSIG=
201105281945 METAR LMML 281945Z 28016KT CAVOK 21/10 Q1014 NOSIG=
201105281930 METAR LMML NIL=
201105281915 METAR LMML 281915Z 28016KT CAVOK 21/10 Q1014 NOSIG=
201105281900 METAR LMML NIL=
201105281845 METAR LMML 281845Z 28016KT CAVOK 21/10 Q1014 NOSIG=
201105281815 METAR LMML 281815Z 29011KT CAVOK 21/11 Q1014 NOSIG=
201105281800 METAR LMML NIL=
201105281745 METAR LMML 281745Z 28015KT CAVOK 22/09 Q1014 NOSIG=
201105281715 METAR LMML 281715Z 29015KT CAVOK 22/09 Q1014 NOSIG=
201105281645 METAR LMML 281645Z 28014KT CAVOK 24/08 Q1014 NOSIG=
201105281615 METAR LMML 281615Z 29014KT 250V320 CAVOK 25/07 Q1014 NOSIG=
201105281545 METAR LMML 281545Z 29016KT CAVOK 25/06 Q1014 NOSIG=
201105281530 METAR LMML NIL=
201105281515 METAR LMML 281515Z 29016KT 250V320 CAVOK 25/08 Q1014 NOSIG=
201105281500 METAR LMML NIL=
201105281445 METAR LMML 281445Z 29017KT 250V320 CAVOK 26/07 Q1014 NOSIG=
201105281430 METAR LMML NIL=
201105281415 METAR LMML 281415Z 30018KT CAVOK 26/07 Q1014 NOSIG=
201105281400 METAR LMML NIL=
201105281345 METAR LMML 281345Z 29015KT 270V330 CAVOK 26/08 Q1015 NOSIG=
201105281330 METAR LMML NIL=
201105281315 METAR LMML 281315Z 30016KT 260V320 CAVOK 25/08 Q1015 NOSIG=
201105281300 METAR LMML NIL=
201105281245 METAR LMML 281245Z 29015KT 250V320 CAVOK 26/09 Q1015 NOSIG=
201105281215 METAR LMML 281215Z 29014KT 250V320 CAVOK 25/09 Q1015 NOSIG=
201105281200 METAR LMML NIL=
201105281145 METAR LMML 281145Z 28015KT 240V320 CAVOK 26/09 Q1015 NOSIG=
201105281130 METAR LMML NIL=
201105281115 METAR LMML 281115Z 28013KT 240V310 CAVOK 26/10 Q1016 NOSIG=
201105281100 METAR LMML NIL=
201105281045 METAR LMML 281045Z 30014KT 260V320 CAVOK 27/09 Q1016 NOSIG=
201105281030 METAR LMML NIL=
201105281015 METAR LMML 281015Z 29015KT 260V320 CAVOK 26/09 Q1016 NOSIG=
201105281000 METAR LMML NIL=
201105280945 METAR LMML 280945Z 31012KT 270V340 CAVOK 26/10 Q1016 NOSIG=
201105280930 METAR LMML NIL=
201105280915 METAR LMML 280915Z 31011KT 280V340 CAVOK 26/10 Q1016 NOSIG=
201105280900 METAR LMML NIL=
201105280845 METAR LMML 280845Z 30012KT 280V340 CAVOK 25/12 Q1016 NOSIG=
201105280830 METAR LMML NIL=
201105280815 METAR LMML 280815Z 30010KT 270V340 CAVOK 25/11 Q1016 NOSIG=
201105280800 METAR LMML NIL=
201105280745 METAR LMML 280745Z 31012KT CAVOK 24/12 Q1016 NOSIG=
201105280730 METAR LMML NIL=
201105280715 METAR LMML 280715Z 31011KT 280V340 CAVOK 23/13 Q1016 NOSIG=
201105280700 METAR LMML NIL=
201105280645 METAR LMML 280645Z 31011KT CAVOK 22/14 Q1016 NOSIG=
201105280630 METAR LMML NIL=
201105280615 METAR LMML 280615Z 30013KT 270V330 CAVOK 20/14 Q1016 NOSIG=
201105280600 METAR LMML NIL=
201105280545 METAR LMML 280545Z 30011KT 270V330 CAVOK 20/14 Q1016 NOSIG=
201105280530 METAR LMML NIL=
201105280515 METAR LMML 280515Z 29010KT 260V320 CAVOK 19/15 Q1016 NOSIG=
201105280445 METAR LMML 280445Z 29010KT 260V320 CAVOK 18/16 Q1016 NOSIG=
201105280430 METAR LMML NIL=
201105280415 METAR LMML 280415Z 29009KT CAVOK 18/16 Q1015 NOSIG=
201105280400 METAR LMML NIL=
201105280345 METAR LMML 280345Z 29007KT CAVOK 18/16 Q1015 NOSIG=
201105280330 METAR LMML NIL=
201105280315 METAR LMML 280315Z 26005KT 220V300 CAVOK 18/16 Q1015 NOSIG=
201105280300 METAR LMML NIL=
201105280245 METAR LMML 280245Z 26010KT 220V290 CAVOK 18/16 Q1015 NOSIG=
201105280230 METAR LMML NIL=
201105280215 METAR LMML 280215Z 26005KT CAVOK 18/15 Q1014 NOSIG=
201105280200 METAR LMML NIL=
201105280145 METAR LMML 280145Z VRB02KT CAVOK 18/15 Q1015 NOSIG=
201105280130 METAR LMML NIL=
201105280115 METAR LMML 280115Z 27006KT 230V300 CAVOK 18/15 Q1015 NOSIG=
201105280100 METAR LMML NIL=
201105280045 METAR LMML 280045Z 25005KT 220V290 CAVOK 19/15 Q1015 NOSIG=
201105280030 METAR LMML NIL=
201105280015 METAR LMML 280015Z 25004KT 230V290 9000 NSC 18/15 Q1015 NOSIG=
201105280000 METAR LMML NIL=
201105272345 METAR LMML 272345Z 24003KT 9000 NSC 18/16 Q1015 NOSIG=
201105272315 METAR LMML 272315Z 23005KT 200V270 9000 NSC 18/17 Q1015 NOSIG=
201105272245 METAR LMML 272245Z 23004KT 200V260 9000 NSC 18/16 Q1016 NOSIG=
201105272230 METAR LMML NIL=
201105272215 METAR LMML 272215Z 25005KT 9000 NSC 18/16 Q1016 NOSIG=
201105272200 METAR LMML NIL=
201105272145 METAR LMML 272145Z 25004KT 210V270 9000 NSC 18/16 Q1016 NOSIG=
201105272130 METAR LMML NIL=
201105272115 METAR LMML 272115Z 23004KT 9000 NSC 18/15 Q1016 NOSIG=
201105272100 METAR LMML NIL=
201105272045 METAR LMML 272045Z VRB02KT 9000 NSC 18/16 Q1016 BECMG CAVOK=
201105272030 METAR LMML NIL=
201105272015 METAR LMML 272015Z VRB02KT 9000 NSC 18/16 Q1016 BECMG CAVOK=
201105272000 METAR LMML NIL=
201105271945 METAR LMML 271945Z 27003KT 7000 NSC 18/17 Q1016 NOSIG=
201105271930 METAR LMML NIL=
201105271915 METAR LMML 271915Z 32003KT 7000 NSC 18/17 Q1016 NOSIG=
201105271900 METAR LMML NIL=
201105271845 METAR LMML 271845Z 32006KT 7000 NSC 19/16 Q1016 NOSIG=
201105271830 METAR LMML NIL=
201105271815 METAR LMML 271815Z 31007KT 7000 FEW012 SCT250 19/16 Q1015
                        NOSIG=
201105271800 METAR LMML NIL=
201105271745 METAR LMML 271745Z 29006KT 250V320 7000 FEW012 SCT250 19/17
                        Q1015 NOSIG=
201105271730 METAR LMML NIL=
201105271715 METAR LMML 271715Z 31008KT 8000 FEW012 SCT250 20/17 Q1016
                        NOSIG=
201105271700 METAR LMML NIL=
201105271645 METAR LMML 271645Z 29006KT 250V320 9999 FEW020 SCT250 22/16
                        Q1015 NOSIG=
201105271630 METAR LMML NIL=
201105271615 METAR LMML 271615Z 28007KT 240V320 9999 FEW027 SCT250 22/17
                        Q1015 NOSIG=
201105271600 METAR LMML NIL=
201105271545 METAR LMML 271545Z 36005KT 250V120 9999 FEW028 23/17 Q1015
                        NOSIG=
201105271530 METAR LMML NIL=
201105271515 METAR LMML 271515Z 09005KT 030V170 9999 FEW027 SCT250 24/18
                        Q1015 NOSIG=
201105271500 METAR LMML NIL=
201105271445 METAR LMML 271445Z 06005KT 010V140 9999 FEW027 25/18 Q1015
                        NOSIG=
201105271430 METAR LMML NIL=
201105271415 METAR LMML 271415Z 09003KT 9999 FEW028 24/18 Q1016 NOSIG=
201105271345 METAR LMML 271345Z 10004KT 030V170 9999 FEW026 25/17 Q1016
                        NOSIG=
201105271330 METAR LMML NIL=
201105271315 METAR LMML 271315Z 10006KT 040V140 9999 FEW027 25/18 Q1016
                        NOSIG=
201105271300 METAR LMML NIL=
201105271245 METAR LMML 271245Z 33003KT 9999 FEW025 25/16 Q1016 NOSIG=
201105271230 METAR LMML NIL=
201105271215 METAR LMML 271215Z 33006KT 220V030 9999 FEW027 25/17 Q1017
                        NOSIG=
201105271200 METAR LMML NIL=
201105271145 METAR LMML 271145Z 11004KT 030V220 9999 FEW029 24/17 Q1017
                        NOSIG=
201105271130 METAR LMML NIL=
201105271115 METAR LMML 271115Z 08004KT 030V150 9999 FEW029 25/17 Q1017
                        NOSIG=
201105271100 METAR LMML NIL=
201105271045 METAR LMML 271045Z 09006KT 030V130 9999 FEW022 25/18 Q1017
                        NOSIG=
201105271030 METAR LMML NIL=
201105271015 METAR LMML 271015Z 11007KT 060V160 9999 FEW020 24/17 Q1017
                        NOSIG=
201105271000 METAR LMML NIL=
201105270945 METAR LMML 270945Z 10006KT 010V170 9999 FEW020 25/17 Q1017
                        NOSIG=
201105270930 METAR LMML NIL=
201105270915 METAR LMML 270915Z 36004KT 280V100 9999 FEW020 25/16 Q1017
                        NOSIG=
201105270900 METAR LMML NIL=
201105270845 METAR LMML 270845Z 03003KT 9999 FEW020 25/17 Q1016 NOSIG=
201105270830 METAR LMML NIL=
201105270815 METAR LMML 270815Z 32003KT 9999 FEW009 24/17 Q1016 NOSIG=
201105270745 METAR LMML 270745Z 32004KT 260V010 9999 FEW009 22/17 Q1016
                        NOSIG=
201105270730 METAR LMML NIL=
201105270715 METAR LMML 270715Z 34005KT 310V010 9999 FEW009 22/17 Q1016
                        NOSIG=
201105270645 METAR LMML 270645Z 32004KT 280V010 6000 FEW009 20/17 Q1016
                        BECMG 9999=
201105270630 METAR LMML NIL=
201105270615 METAR LMML 270615Z 34005KT 290V010 6000 SCT008 20/17 Q1016
                        BECMG 9999=
201105270600 METAR LMML NIL=
201105270545 METAR LMML 270545Z 33007KT 290V360 6000 SCT007 19/17 Q1016
                        BECMG 9999=
201105270530 METAR LMML NIL=
201105270515 METAR LMML 270515Z 33008KT 270V020 6000 SCT006 18/17 Q1016
                        BECMG 9999=
201105270500 METAR LMML NIL=
201105270445 METAR LMML 270445Z 31006KT 280V340 6000 BKN006 18/17 Q1016
                        BECMG 9999=
201105270430 METAR LMML NIL=
201105270415 METAR LMML 270415Z 31007KT 4000 BR BKN007 18/17 Q1016 BECMG
                        6000=
201105270345 METAR LMML 270345Z 31007KT 270V340 5000 BR BKN007 18/17 Q1016
                        TEMPO 3000=
201105270330 METAR LMML NIL=
201105270315 METAR LMML 270315Z 30007KT 260V340 5000 BR BKN006 18/17 Q1016
                        TEMPO 3000=
201105270300 METAR LMML NIL=
201105270245 METAR LMML 270245Z 29007KT 240V320 5000 BR BKN004 18/17 Q1016
                        TEMPO 3000=
201105270230 METAR LMML NIL=
201105270215 METAR LMML 270215Z 29008KT 260V320 6000 BKN006 18/17 Q1016
                        BECMG 5000=
201105270200 METAR LMML NIL=
201105270145 METAR LMML 270145Z 29008KT 250V010 6000 BKN006 18/17 Q1016
                        BECMG 5000=
201105270130 METAR LMML NIL=
201105270115 METAR LMML 270115Z 28005KT 240V310 6000 BKN006 17/17 Q1016
                        BECMG 5000=
201105270100 METAR LMML NIL=
201105270045 METAR LMML 270045Z 27007KT 240V300 6000 BKN006 18/17 Q1016
                        BECMG 5000=
201105270030 METAR LMML NIL=
201105270015 METAR LMML 270015Z 28007KT 250V310 6000 BKN006 17/17 Q1016
                        BECMG 5000=
201105270000 METAR LMML NIL=
201105262345 METAR LMML 262345Z 27005KT 240V300 9000 FEW005 17/16 Q1016
                        TEMPO 5000 BKN005=
201105262330 METAR LMML NIL=
201105262315 METAR LMML 262315Z VRB02KT 9000 NSC 17/16 Q1016 TEMPO 5000
                        SCT005 RMK DISTANT STRATUS BANK TO
                        SOUTH AND SOUTHWEST=
201105262300 METAR LMML NIL=
201105262245 METAR LMML 262245Z VRB01KT 9000 NSC 17/16 Q1016 NOSIG=
201105262215 METAR LMML 262215Z VRB02KT 9000 NSC 17/15 Q1016 NOSIG=
201105262200 METAR LMML NIL=
201105262145 METAR LMML 262145Z 29003KT 9000 NSC 17/15 Q1016 NOSIG=
201105262130 METAR LMML NIL=
201105262115 METAR LMML 262115Z VRB01KT 9000 NSC 18/16 Q1016 NOSIG=
201105262100 METAR LMML NIL=
201105262045 METAR LMML 262045Z VRB02KT 9000 NSC 18/16 Q1016 NOSIG=
201105262030 METAR LMML NIL=
201105262015 METAR LMML 262015Z VRB02KT 9000 NSC 18/16 Q1016 NOSIG=
201105262000 METAR LMML NIL=
201105261945 METAR LMML 261945Z 30003KT 9000 NSC 19/16 Q1016 NOSIG=
201105261930 METAR LMML NIL=
201105261915 METAR LMML 261915Z VRB02KT 9000 NSC 19/16 Q1016 NOSIG=
201105261900 METAR LMML NIL=
201105261845 METAR LMML 261845Z 32005KT 9000 FEW012 SCT250 19/16 Q1016
                        NOSIG=
201105261830 METAR LMML NIL=
201105261815 METAR LMML 261815Z 32003KT 9000 NSC 19/16 Q1016 NOSIG=
201105261800 METAR LMML NIL=
201105261745 METAR LMML 261745Z 33004KT 9000 NSC 20/17 Q1016 NOSIG=
201105261730 METAR LMML NIL=
201105261715 METAR LMML 261715Z 31004KT 280V340 9000 NSC 21/17 Q1015 NOSIG=
201105261700 METAR LMML NIL=
201105261645 METAR LMML 261645Z 31006KT 9000 NSC 21/17 Q1016 NOSIG=
201105261630 METAR LMML NIL=
201105261615 METAR LMML 261615Z 33006KT 300V360 8000 FEW017 BKN250 21/17
                        Q1016 NOSIG=
201105261600 METAR LMML NIL=
201105261545 METAR LMML 261545Z 33005KT 300V020 8000 NSC 22/16 Q1016 NOSIG=
201105261530 METAR LMML NIL=
201105261515 METAR LMML 261515Z 34006KT 310V010 9999 FEW033 BKN250 22/16
                        Q1016 NOSIG=
201105261500 METAR LMML NIL=
201105261445 METAR LMML 261445Z 36006KT 320V040 9999 FEW035 BKN250 24/15
                        Q1016 NOSIG=
201105261415 METAR LMML 261415Z 03004KT 350V070 9999 FEW039 SCT250 24/14
                        Q1016 NOSIG=
201105261400 METAR LMML NIL=
201105261345 METAR LMML 261345Z VRB02KT 9999 FEW035 25/14 Q1016 NOSIG=
201105261330 METAR LMML NIL=
201105261315 METAR LMML 261315Z 20003KT 9999 FEW038 24/15 Q1016 NOSIG=
201105261245 METAR LMML 261245Z 17003KT 9999 FEW038 24/14 Q1016 NOSIG=
201105261230 METAR LMML NIL=
201105261215 METAR LMML 261215Z 10004KT 9999 FEW046 26/13 Q1016 NOSIG=
201105261200 METAR LMML NIL=
201105261145 METAR LMML 261145Z 03004KT 330V190 9999 FEW030 26/13 Q1016
                        NOSIG=
201105261130 METAR LMML NIL=
201105261115 METAR LMML 261115Z 02007KT 360V060 9999 FEW030 25/14 Q1016
                        NOSIG=
201105261100 METAR LMML NIL=
201105261045 METAR LMML 261045Z 05006KT 350V090 9999 FEW030 25/13 Q1016
                        NOSIG=
201105261030 METAR LMML NIL=
201105261015 METAR LMML 261015Z 03006KT 360V070 CAVOK 26/13 Q1016 NOSIG=
201105261000 METAR LMML NIL=
201105260945 METAR LMML 260945Z 04006KT 310V080 CAVOK 26/12 Q1016 NOSIG=
201105260930 METAR LMML NIL=
201105260915 METAR LMML 260915Z 01007KT 330V050 CAVOK 25/13 Q1016 NOSIG=
201105260900 METAR LMML NIL=
201105260845 METAR LMML 260845Z 35006KT 320V050 CAVOK 25/14 Q1016 NOSIG=
201105260830 METAR LMML NIL=
201105260815 METAR LMML 260815Z 35006KT 320V020 CAVOK 24/14 Q1016 NOSIG=
201105260800 METAR LMML NIL=
201105260745 METAR LMML 260745Z 35005KT 310V010 CAVOK 23/15 Q1016 NOSIG=
201105260730 METAR LMML NIL=
201105260715 METAR LMML 260715Z 35003KT CAVOK 23/15 Q1016 NOSIG=
201105260700 METAR LMML NIL=
201105260645 METAR LMML 260645Z VRB02KT CAVOK 22/15 Q1016 NOSIG=
201105260630 METAR LMML NIL=
201105260615 METAR LMML 260615Z VRB02KT CAVOK 20/15 Q1016 NOSIG=
201105260600 METAR LMML NIL=
201105260545 METAR LMML 260545Z 30003KT CAVOK 19/15 Q1016 NOSIG=
201105260530 METAR LMML NIL=
201105260515 METAR LMML 260515Z 32004KT CAVOK 18/15 Q1015 NOSIG=
201105260500 METAR LMML NIL=
201105260445 METAR LMML 260445Z 30004KT 9999 FEW040 17/15 Q1015 TEMPO
                        SHRA RMK CB TOPS TO E=
201105260430 METAR LMML NIL=
201105260415 METAR LMML 260415Z 32006KT CAVOK 17/14 Q1015 TEMPO SHRA RMK
                        CB TOPS TO NE=
201105260400 METAR LMML NIL=
201105260345 METAR LMML 260345Z 31004KT CAVOK 17/14 Q1015 TEMPO SHRA=
201105260330 METAR LMML NIL=
201105260315 METAR LMML 260315Z 32004KT 9999 FEW040 BKN080 18/14 Q1015
                        NOSIG=
201105260300 METAR LMML NIL=
201105260245 METAR LMML 260245Z 33004KT 300V360 9999 FEW038 BKN080 18/14
                        Q1015 NOSIG=
201105260230 METAR LMML NIL=
201105260215 METAR LMML 260215Z 32003KT 9999 FEW038 BKN080 18/15 Q1015
                        NOSIG=
201105260200 METAR LMML NIL=
201105260145 METAR LMML 260145Z 34003KT CAVOK 18/14 Q1015 NOSIG=
201105260130 METAR LMML NIL=
201105260115 METAR LMML 260115Z 31004KT 280V340 CAVOK 18/14 Q1015 NOSIG=
201105260100 METAR LMML NIL=
201105260045 METAR LMML 260045Z 31004KT 270V340 CAVOK 18/14 Q1015 NOSIG=
201105260030 METAR LMML NIL=
201105260015 METAR COR LMML 260015Z 30004KT 270V330 CAVOK 18/13 Q1015
                        NOSIG=
201105260000 METAR LMML NIL=
201105252345 METAR LMML 252345Z 29003KT CAVOK 19/13 Q1015 NOSIG=
201105252330 METAR LMML NIL=
201105252315 METAR LMML 252315Z 30004KT 280V340 CAVOK 18/13 Q1015 NOSIG=
201105252300 METAR LMML NIL=
201105252245 METAR LMML 252245Z 32005KT 300V360 CAVOK 18/14 Q1016 NOSIG=
201105252230 METAR LMML NIL=
201105252215 METAR LMML 252215Z 32005KT CAVOK 18/14 Q1016 NOSIG=
201105252200 METAR LMML NIL=
201105252145 METAR LMML 252145Z 33005KT CAVOK 19/14 Q1016 NOSIG=
201105252115 METAR LMML 252115Z 32005KT CAVOK 18/14 Q1016 NOSIG=
201105252100 METAR LMML NIL=
201105252045 METAR LMML 252045Z 33006KT CAVOK 19/14 Q1016 NOSIG=
201105252030 METAR LMML NIL=
201105252015 METAR LMML 252015Z 33005KT CAVOK 19/14 Q1016 NOSIG=
201105252000 METAR LMML NIL=
201105251945 METAR LMML 251945Z 32007KT CAVOK 19/14 Q1016 NOSIG=
201105251930 METAR LMML NIL=
201105251915 METAR LMML 251915Z 33008KT CAVOK 19/14 Q1016 NOSIG=
201105251900 METAR LMML NIL=
201105251845 METAR LMML 251845Z 33009KT CAVOK 19/14 Q1016 NOSIG=
201105251830 METAR LMML NIL=
201105251815 METAR LMML 251815Z 33010KT CAVOK 20/14 Q1016 NOSIG=
201105251800 METAR LMML NIL=
201105251745 METAR LMML 251745Z 33012KT CAVOK 20/13 Q1015 NOSIG=
201105251730 METAR LMML NIL=
201105251715 METAR LMML 251715Z 33014KT CAVOK 21/14 Q1015 NOSIG=
201105251700 METAR LMML NIL=
201105251645 METAR LMML 251645Z 32012KT CAVOK 21/14 Q1015 NOSIG=
201105251630 METAR LMML NIL=
201105251615 METAR LMML 251615Z 34015KT CAVOK 22/14 Q1016 NOSIG=
201105251545 METAR LMML 251545Z 33012KT CAVOK 23/11 Q1016 NOSIG=
201105251530 METAR LMML NIL=
201105251515 METAR LMML 251515Z 35010KT CAVOK 23/12 Q1015 NOSIG=
201105251500 METAR LMML NIL=
201105251445 METAR LMML 251445Z 01009KT CAVOK 23/12 Q1016 NOSIG=
201105251430 METAR LMML NIL=
201105251415 METAR LMML 251415Z 02009KT 350V050 CAVOK 24/13 Q1015 NOSIG=
201105251400 METAR LMML NIL=
201105251345 METAR LMML 251345Z 01011KT 350V050 CAVOK 25/13 Q1016 NOSIG=
201105251330 METAR LMML NIL=
201105251315 METAR LMML 251315Z 01010KT 340V060 CAVOK 25/13 Q1015 NOSIG=
201105251300 METAR LMML NIL=
201105251245 METAR LMML 251245Z 36011KT 330V070 CAVOK 24/14 Q1016 NOSIG=
201105251215 METAR LMML 251215Z 01012KT 340V050 CAVOK 24/13 Q1016 NOSIG=
201105251200 METAR LMML NIL=
201105251145 METAR LMML 251145Z 01010KT 340V050 CAVOK 25/13 Q1016 NOSIG=
201105251115 METAR LMML 251115Z 01011KT 340V050 CAVOK 24/14 Q1016 NOSIG=
201105251045 METAR LMML 251045Z 01010KT 340V040 CAVOK 24/13 Q1016 NOSIG=
201105251030 METAR LMML NIL=
201105251015 METAR LMML 251015Z 02008KT 350V080 9999 FEW017 BKN100 22/15
                        Q1016 NOSIG=
201105251000 METAR LMML NIL=
201105250945 METAR LMML 250945Z 03009KT 350V070 9999 FEW017 BKN100 22/15
                        Q1016 NOSIG=
201105250930 METAR LMML NIL=
201105250915 METAR LMML 250915Z 02009KT 340V060 9999 FEW017 SCT060 22/16
                        Q1017 NOSIG=
201105250900 METAR LMML NIL=
201105250845 METAR LMML 250845Z 02008KT 340V070 9999 FEW015 BKN060 21/16
                        Q1016 NOSIG=
201105250830 METAR LMML NIL=
201105250815 METAR LMML 250815Z 01008KT 9999 FEW015 BKN060 21/16 Q1016
                        NOSIG=
201105250800 METAR LMML NIL=
201105250745 METAR LMML 250745Z 01007KT 9999 FEW015 BKN050 20/16 Q1016
                        NOSIG=
201105250730 METAR LMML NIL=
201105250715 METAR LMML 250715Z 01007KT 9000 FEW013 BKN050 20/16 Q1016
                        TEMPO BKN013=
201105250700 METAR LMML NIL=
201105250645 METAR LMML 250645Z 02008KT 350V050 9000 SCT013 BKN030 20/16
                        Q1016 TEMPO BKN013=
201105250630 METAR LMML NIL=
201105250615 METAR LMML 250615Z 02009KT 350V050 9999 BKN012 BKN024 19/16
                        Q1016 NOSIG=
201105250600 METAR LMML NIL=
201105250545 METAR LMML 250545Z 01009KT 9999 BKN014 BKN020 18/15 Q1016
                        NOSIG=
201105250530 METAR LMML NIL=
201105250515 METAR LMML 250515Z 02008KT 9999 BKN014 18/15 Q1015 NOSIG=
201105250500 METAR LMML NIL=
201105250445 METAR LMML 250445Z 01009KT 9999 SCT015 BKN060 18/15 Q1015
                        NOSIG=
201105250430 METAR LMML NIL=
201105250415 METAR LMML 250415Z 01010KT CAVOK 18/15 Q1015 NOSIG=
201105250400 METAR LMML NIL=
201105250345 METAR LMML 250345Z 01010KT CAVOK 18/15 Q1015 NOSIG=
201105250330 METAR LMML NIL=
201105250315 METAR LMML 250315Z 36013KT 9999 FEW015 BKN070 18/15 Q1015
                        NOSIG=
201105250300 METAR LMML NIL=
201105250245 METAR LMML 250245Z 36013KT 9999 FEW016 BKN029 18/15 Q1015
                        NOSIG=
201105250215 METAR LMML 250215Z 36012KT 9999 BKN029 18/15 Q1015 NOSIG=
201105250200 METAR LMML NIL=
201105250145 METAR LMML 250145Z 36010KT 9999 FEW020 BKN050 18/15 Q1015
                        NOSIG=
201105250130 METAR LMML NIL=
201105250115 METAR LMML 250115Z 35012KT 9999 FEW020 BKN050 18/15 Q1015
                        NOSIG=
201105250100 METAR LMML NIL=
201105250045 METAR LMML 250045Z 36009KT 9999 FEW020 BKN050 18/15 Q1015
                        NOSIG=
201105250030 METAR LMML NIL=
201105250015 METAR LMML 250015Z 36010KT 9999 FEW021 BKN050 18/15 Q1015
                        NOSIG=
201105250000 METAR LMML NIL=
201105242345 METAR LMML 242345Z 36012KT 9999 FEW021 SCT050 18/15 Q1015
                        NOSIG=
201105242330 METAR LMML NIL=
201105242315 METAR LMML 242315Z 36010KT 9999 FEW034 18/15 Q1015 NOSIG=
201105242245 METAR LMML 242245Z 35010KT CAVOK 18/15 Q1015 NOSIG=
201105242215 METAR LMML 242215Z 35010KT CAVOK 18/15 Q1016 NOSIG=
201105242200 METAR LMML NIL=
201105242145 METAR LMML 242145Z 35010KT CAVOK 18/15 Q1016 NOSIG=
201105242115 METAR LMML 242115Z 34009KT CAVOK 18/15 Q1016 NOSIG=
201105242100 METAR LMML NIL=
201105242045 METAR LMML 242045Z 34009KT CAVOK 18/15 Q1016 NOSIG=
201105242015 METAR LMML 242015Z 34009KT CAVOK 18/15 Q1016 NOSIG=
201105242000 METAR LMML NIL=
201105241945 METAR LMML 241945Z 34010KT CAVOK 18/15 Q1016 NOSIG=
201105241930 METAR LMML NIL=
201105241915 METAR LMML 241915Z 34011KT CAVOK 18/15 Q1016 NOSIG=
201105241900 METAR LMML NIL=
201105241845 METAR LMML 241845Z 34011KT 9999 FEW033 18/15 Q1015 NOSIG=
201105241830 METAR LMML NIL=
201105241815 METAR LMML 241815Z 34013KT 9999 FEW033 SCT050 19/15 Q1015
                        NOSIG=
201105241800 METAR LMML NIL=
201105241745 METAR LMML 241745Z 34012KT 9999 SCT038 19/15 Q1015 NOSIG=
201105241715 METAR LMML 241715Z 34012KT 9999 BKN037 19/15 Q1015 NOSIG=
201105241700 METAR LMML NIL=
201105241645 METAR LMML 241645Z 34012KT 9999 SCT038 20/14 Q1015 NOSIG=
201105241630 METAR LMML NIL=
201105241615 METAR LMML 241615Z 35013KT 9999 FEW025 SCT050 21/14 Q1015
                        NOSIG=
201105241600 METAR LMML NIL=
201105241545 METAR LMML 241545Z 36013G23KT 9999 FEW025 SCT043 21/14 Q1015
                        NOSIG=
201105241530 METAR LMML NIL=
201105241515 METAR LMML 241515Z 36015KT 9999 FEW025 SCT041 22/14 Q1015
                        NOSIG=
201105241500 METAR LMML NIL=
201105241445 METAR LMML 241445Z 36017KT 330V040 9999 FEW025 22/13 Q1015
                        NOSIG=
201105241430 METAR LMML NIL=
201105241415 METAR LMML 241415Z 36015KT 320V020 9999 FEW025 23/15 Q1015
                        NOSIG=
201105241400 METAR LMML NIL=
201105241345 METAR LMML 241345Z 35016KT 9999 FEW025 23/15 Q1015 NOSIG=
201105241330 METAR LMML NIL=
201105241315 METAR LMML 241315Z 35017KT CAVOK 22/15 Q1015 NOSIG=
201105241300 METAR LMML NIL=
201105241245 METAR LMML 241245Z 35017KT CAVOK 23/15 Q1015 NOSIG=
201105241230 METAR LMML NIL=
201105241215 METAR LMML 241215Z 36016KT CAVOK 23/15 Q1015 NOSIG=
201105241200 METAR LMML NIL=
201105241145 METAR LMML 241145Z 36015G25KT 330V030 CAVOK 23/15 Q1015 NOSIG=
201105241130 METAR LMML NIL=
201105241115 METAR LMML 241115Z 36016KT 9999 FEW020 SCT130 23/15 Q1015
                        NOSIG=
201105241100 METAR LMML NIL=
201105241045 METAR LMML 241045Z 01015G27KT CAVOK 22/15 Q1016 NOSIG=
201105241030 METAR LMML NIL=
201105241015 METAR LMML 241015Z 01013G24KT CAVOK 22/15 Q1016 NOSIG=
201105241000 METAR LMML NIL=
201105240945 METAR LMML 240945Z 36013KT 9999 SCT049 BKN130 20/15 Q1016
                        NOSIG=
201105240930 METAR LMML NIL=
201105240915 METAR LMML 240915Z 01015KT 9999 FEW039 SCT044 BKN130 20/15
                        Q1016 NOSIG=
201105240900 METAR LMML NIL=
201105240845 METAR LMML 240845Z 01013KT 340V040 9999 FEW020 SCT037 BKN130
                        20/15 Q1016 NOSIG=
201105240830 METAR LMML NIL=
201105240815 METAR LMML 240815Z 01012G22KT 9000 FEW015 BKN130 20/16 Q1016
                        NOSIG=
201105240800 METAR LMML NIL=
201105240745 METAR LMML 240745Z 01013KT 350V050 9000 FEW015 BKN130 20/16
                        Q1016 NOSIG=
201105240730 METAR LMML NIL=
201105240715 METAR LMML 240715Z 02012KT 350V050 9000 FEW014 BKN130 19/16
                        Q1015 NOSIG=
201105240700 METAR LMML NIL=
201105240645 METAR LMML 240645Z 02011KT 9000 FEW013 SCT130 19/16 Q1015
                        NOSIG=
201105240630 METAR LMML NIL=
201105240615 METAR LMML 240615Z 02014KT 9000 FEW014 SCT050 19/16 Q1015
                        NOSIG=
201105240600 METAR LMML NIL=
201105240545 METAR LMML 240545Z 02013KT 350V060 8000 FEW012 BKN050 18/16
                        Q1015 TEMPO 9000=
201105240530 METAR LMML NIL=
201105240515 METAR LMML 240515Z 02011KT 8000 SCT012 BKN050 18/16 Q1015
                        TEMPO 9000=
201105240500 METAR LMML NIL=
201105240445 METAR LMML 240445Z 02010KT 350V050 9999 BKN012 BKN050 17/16
                        Q1015 TEMPO 9000=
201105240430 METAR LMML NIL=
201105240415 METAR LMML 240415Z 02011KT 360V070 9999 BKN011 BKN016 17/16
                        Q1015 TEMPO 9000=
201105240400 METAR LMML NIL=
201105240345 METAR LMML 240345Z 03011KT 9000 BKN010 BKN040 17/16 Q1014
                        NOSIG=
201105240330 METAR LMML NIL=
201105240315 METAR LMML 240315Z 03013KT 9999 BKN010 17/16 Q1014 NOSIG=
201105240300 METAR LMML NIL=
201105240245 METAR LMML 240245Z 03012KT 360V060 9999 BKN010 17/16 Q1014
                        NOSIG=
201105240230 METAR LMML NIL=
201105240215 METAR LMML 240215Z 03013KT 350V050 9999 BKN011 17/16 Q1014
                        NOSIG=
201105240200 METAR LMML NIL=
201105240145 METAR LMML 240145Z 03011KT 9999 BKN009 BKN120 17/16 Q1014
                        BECMG BKN010=
201105240130 METAR LMML NIL=
201105240115 METAR LMML 240115Z 02011KT 360V060 9999 BKN009 BKN120 17/16
                        Q1015 BECMG BKN010=
201105240100 METAR LMML NIL=
201105240045 METAR LMML 240045Z 03013KT 360V060 9999 BKN008 BKN120 17/16
                        Q1014 BECMG BKN010=
201105240030 METAR LMML NIL=
201105240015 METAR LMML 240015Z 03012KT 360V060 9999 BKN008 BKN120 17/16
                        Q1014 NOSIG=
201105240000 METAR LMML NIL=
201105232345 METAR LMML 232345Z 03012KT 360V060 8000 BKN007 BKN120 17/16
                        Q1015 NOSIG=
201105232330 METAR LMML NIL=
201105232315 METAR LMML 232315Z 03010KT 360V060 7000 BKN007 BKN120 17/16
                        Q1015 NOSIG=
201105232300 METAR LMML NIL=
201105232245 METAR LMML 232245Z 02008KT 6000 BKN007 BKN120 17/16 Q1015
                        NOSIG=
201105232230 METAR LMML NIL=
201105232215 METAR LMML 232215Z 02010KT 5000 DU BKN006 BKN120 17/16 Q1015
                        TEMPO 6000=
201105232200 METAR LMML NIL=
201105232145 METAR LMML 232145Z 01009KT 5000 DU BKN005 17/16 Q1015 TEMPO
                        BKN006=
201105232130 METAR LMML NIL=
201105232115 METAR LMML 232115Z 01010KT 5000 DU BKN005 BKN120 17/16 Q1015
                        TEMPO BKN006=
201105232100 METAR LMML NIL=
201105232045 METAR LMML 232045Z 02009KT 5000 DU BKN006 BKN120 17/16 Q1015
                        NOSIG=
201105232030 METAR LMML NIL=
201105232015 METAR LMML 232015Z 01011KT 5000 DU BKN005 BKN120 17/16 Q1015
                        NOSIG=
201105232000 METAR LMML NIL=
201105231945 METAR LMML 231945Z 02010G21KT 5000 DU BKN005 BKN120 18/17
                        Q1015 NOSIG=
201105231930 METAR LMML NIL=
201105231915 METAR LMML 231915Z 02009KT 350V060 5000 DU BKN005 BKN120
                        18/17 Q1014 NOSIG=
201105231900 METAR LMML NIL=
201105231845 METAR LMML 231845Z 02010KT 350V060 5000 DU BKN006 BKN120
                        18/17 Q1014 NOSIG=
201105231830 METAR LMML NIL=
201105231815 METAR LMML 231815Z 02010KT 5000 DU BKN005 BKN120 18/17 Q1014
                        NOSIG=
201105231800 METAR LMML NIL=
201105231745 METAR LMML 231745Z 02012KT 5000 DU BKN005 BKN120 18/17 Q1014
                        NOSIG=
201105231730 METAR LMML NIL=
201105231715 METAR LMML 231715Z 02013KT 360V060 6000 BKN007 BKN120 18/16
                        Q1013 NOSIG=
201105231700 METAR LMML NIL=
201105231645 METAR LMML 231645Z 02013G24KT 350V050 6000 BKN008 BKN120
                        18/16 Q1013 NOSIG=
201105231630 METAR LMML NIL=
201105231615 METAR LMML 231615Z 02012KT 360V060 6000 BKN007 BKN120 18/16
                        Q1013 BECMG BKN005=
201105231600 METAR LMML NIL=
201105231545 METAR LMML 231545Z 03013KT 360V060 6000 BKN006 BKN120 18/17
                        Q1013 BECMG BKN005=
201105231530 METAR LMML NIL=
201105231515 METAR LMML 231515Z 03015G25KT 360V070 6000 BKN006 BKN120
                        18/17 Q1013 NOSIG=
201105231500 METAR LMML NIL=
201105231445 METAR LMML 231445Z 03017KT 360V070 6000 BKN008 BKN120 19/17
                        Q1013 NOSIG=
201105231430 METAR LMML NIL=
201105231415 METAR LMML 231415Z 03017G27KT 360V070 6000 BKN009 BKN120
                        20/17 Q1013 NOSIG=
201105231345 METAR LMML 231345Z 04015KT 010V070 6000 BKN009 BKN120 19/16
                        Q1013 NOSIG=
201105231330 METAR LMML NIL=
201105231315 METAR LMML 231315Z 04017KT 010V070 6000 BKN008 BKN120 20/16
                        Q1013 NOSIG=
201105231300 METAR LMML NIL=
201105231245 METAR LMML 231245Z 04015KT 010V070 6000 FEW008 BKN120 20/17
                        Q1013 NOSIG=
201105231230 METAR LMML NIL=
201105231215 METAR LMML 231215Z 05017G28KT 010V090 7000 FEW009 BKN120
                        20/16 Q1013 BECMG BKN009=
201105231200 METAR LMML NIL=
201105231145 METAR LMML 231145Z 03015KT 360V060 7000 FEW008 BKN120 19/17
                        Q1013 BECMG BKN009=
201105231130 METAR LMML NIL=
201105231115 METAR LMML 231115Z 06017G28KT 020V090 7000 FEW011 BKN120
                        19/16 Q1014 NOSIG=
201105231100 METAR LMML NIL=
201105231045 METAR LMML 231045Z 07015KT 030V090 7000 BKN010 BKN100 19/16
                        Q1013 NOSIG=
201105231030 METAR LMML NIL=
201105231015 METAR LMML 231015Z 06016KT 030V100 7000 BKN009 BKN120 19/16
                        Q1013 NOSIG=
201105231000 METAR LMML NIL=
201105230945 METAR LMML 230945Z 06012KT 030V100 9000 SCT012 BKN120 20/16
                        Q1013 BECMG 7000 BKN008=
201105230930 METAR LMML NIL=
201105230915 METAR LMML 230915Z 08015KT 9000 FEW012 SCT050 BKN120 19/15
                        Q1013 BECMG 7000 BKN008=
201105230845 METAR LMML 230845Z 07011KT 020V110 9000 FEW010 BKN120 20/16
                        Q1013 BECMG 7000 BKN008=
201105230830 METAR LMML NIL=
201105230815 METAR LMML 230815Z 06013KT 020V090 6000 FEW007 BKN080 19/16
                        Q1012 NOSIG=
201105230800 METAR LMML NIL=
201105230745 METAR LMML 230745Z 07016KT 020V100 6000 BKN006 BKN080 18/17
                        Q1012 TEMPO 5000 TSRA BKN015CB=
201105230730 METAR LMML NIL=
201105230715 METAR LMML 230715Z 08015KT 040V120 6000 BKN007 BKN100 18/17
                        Q1012 NOSIG=
201105230700 METAR LMML NIL=
201105230645 METAR LMML 230645Z 07012KT 040V110 6000 BKN007 18/17 Q1012
                        NOSIG=
201105230635 SPECI LMML 230635Z 07012KT 030V100 6000 BKN006 BKN120 18/17
                        Q1012 TEMPO SCT006=
201105230630 METAR LMML NIL=
201105230615 METAR LMML 230615Z 06010KT 030V100 9000 BKN006 BKN120 18/16
                        Q1011 TEMPO SCT006=
201105230600 METAR LMML NIL=
201105230545 METAR LMML 230545Z 05010KT 020V090 4000 BKN006 BKN120 18/17
                        Q1011 NOSIG=
201105230530 METAR LMML NIL=
201105230515 METAR LMML 230515Z 06011KT 020V090 3000 BKN005 BKN120 18/17
                        Q1011 NOSIG=
201105230445 METAR LMML 230445Z 05011KT 010V090 6000 BKN006 BKN130 18/17
                        Q1011 NOSIG=
201105230430 METAR LMML NIL=
201105230415 METAR LMML 230415Z 05011KT 010V100 6000 SCT006 SCT018 BKN130
                        18/17 Q1011 NOSIG=
201105230400 METAR LMML NIL=
201105230345 METAR LMML 230345Z 05011KT 020V090 6000 SCT006 SCT018 BKN130
                        18/17 Q1011 NOSIG=
201105230330 METAR LMML NIL=
201105230315 METAR LMML 230315Z 05011KT 020V090 6000 SCT006 BKN016 18/17
                        Q1011 NOSIG=
201105230300 METAR LMML NIL=
201105230245 METAR LMML 230245Z 05010KT 020V090 6000 SCT007 BKN016 18/17
                        Q1011 TEMPO 3000 TSRA BKN005 BKN015CB=
201105230230 METAR LMML NIL=
201105230215 METAR LMML 230215Z 05011KT 360V090 6000 BKN015 BKN130 18/17
                        Q1010 TEMPO 3000 TSRA BKN005 BKN015CB=
201105230200 METAR LMML NIL=
201105230145 METAR LMML 230145Z 06010KT 030V110 6000 SCT015 BKN130 18/17
                        Q1011 NOSIG=
201105230130 METAR LMML NIL=
201105230115 METAR LMML 230115Z 06009KT 020V090 6000 SCT007 BKN014 18/17
                        Q1011 NOSIG=
201105230100 METAR LMML NIL=
201105230045 METAR LMML 230045Z 07010KT 030V100 6000 SCT007 BKN014 18/17
                        Q1011 NOSIG=
201105230030 METAR LMML NIL=
201105230015 METAR LMML 230015Z 07011KT 040V100 6000 SCT008 BKN013 18/17
                        Q1011 NOSIG=
201105230000 METAR LMML NIL=
201105222345 METAR LMML 222345Z 07011KT 040V110 6000 SCT008 BKN014 18/17
                        Q1012 NOSIG=
201105222330 METAR LMML NIL=
201105222315 METAR LMML 222315Z 07012KT 6000 SCT009 BKN013 BKN020 18/17
                        Q1012 NOSIG=
201105222300 METAR LMML NIL=
201105222245 METAR LMML 222245Z 08013KT 050V130 6000 FEW009 SCT013 BKN024
                        18/17 Q1012 NOSIG=
201105222230 METAR LMML NIL=
201105222215 METAR LMML 222215Z 07013KT 040V100 6000 FEW009 BKN024 18/16
                        Q1011 NOSIG=
201105222200 METAR LMML NIL=
201105222145 METAR LMML 222145Z 08014KT 050V110 7000 FEW012 BKN026 18/16
                        Q1011 NOSIG=
201105222130 METAR LMML NIL=
201105222115 METAR LMML 222115Z 07014KT 030V100 7000 FEW016 SCT027 BKN130
                        18/16 Q1011 NOSIG=
201105222100 METAR LMML NIL=
201105222045 METAR LMML 222045Z 07014KT 040V100 8000 SCT016 BKN030 18/16
                        Q1011 NOSIG=
201105222030 METAR LMML NIL=
201105222015 METAR LMML 222015Z 07014KT 040V100 8000 BKN030 BKN200 18/16
                        Q1011 NOSIG=
201105222000 METAR LMML NIL=
201105221945 METAR LMML 221945Z 07012KT 030V100 8000 FEW019 BKN200 18/16
                        Q1011 NOSIG=
201105221930 METAR LMML NIL=
201105221915 METAR LMML 221915Z 07013KT 030V100 8000 FEW019 18/16 Q1011
                        NOSIG=
201105221900 METAR LMML NIL=
201105221845 METAR LMML 221845Z 07013KT 360V110 7000 FEW018 18/16 Q1011
                        TEMPO 5000 DU=
201105221830 METAR LMML NIL=
201105221815 METAR LMML 221815Z 07014KT 030V100 7000 FEW012 18/16 Q1011
                        TEMPO 5000 DU=
201105221800 METAR LMML NIL=
201105221745 METAR LMML 221745Z 07015KT 040V100 7000 FEW012 18/16 Q1011
                        TEMPO 5000 DU=
201105221730 METAR LMML NIL=
201105221715 METAR LMML 221715Z 07016KT 040V110 7000 FEW012 19/16 Q1010
                        TEMPO 5000 DU=
201105221700 METAR LMML NIL=
201105221645 METAR LMML 221645Z 07017KT 030V100 9000 FEW013 19/16 Q1010
                        NOSIG=
201105221630 METAR LMML NIL=
201105221615 METAR LMML 221615Z 06017KT 020V100 9000 FEW014 20/16 Q1010
                        NOSIG=
201105221600 METAR LMML NIL=
201105221545 METAR LMML 221545Z 07016KT 030V110 9999 FEW016 20/16 Q1010
                        NOSIG=
201105221530 METAR LMML NIL=
201105221515 METAR LMML 221515Z 08021KT 9999 FEW016 20/16 Q1010 NOSIG=
201105221500 METAR LMML NIL=
201105221445 METAR LMML 221445Z 08019KT 9999 FEW016 21/16 Q1010 NOSIG=
201105221430 METAR LMML NIL=
201105221415 METAR LMML 221415Z 08019KT 040V110 9999 FEW019 21/16 Q1010
                        NOSIG=
201105221400 METAR LMML NIL=
201105221345 METAR LMML 221345Z 07018KT 030V110 9999 FEW019 21/16 Q1011
                        NOSIG=
201105221330 METAR LMML NIL=
201105221315 METAR LMML 221315Z 06021KT 020V100 9999 FEW015 21/16 Q1010
                        NOSIG=
201105221300 METAR LMML NIL=
201105221245 METAR LMML 221245Z 07018KT 030V100 9999 FEW015 21/15 Q1011
                        NOSIG=
201105221230 METAR LMML NIL=
201105221215 METAR LMML 221215Z 07016KT 040V110 9999 FEW015 22/15 Q1011
                        NOSIG=
201105221200 METAR LMML NIL=
201105221145 METAR LMML 221145Z 08018G30KT 040V120 9999 FEW015 21/14 Q1011
                        NOSIG=
201105221130 METAR LMML NIL=
201105221115 METAR LMML 221115Z 07019G31KT 040V110 9999 FEW015 SCT250
                        21/14 Q1011 NOSIG=
201105221100 METAR LMML NIL=
201105221045 METAR LMML 221045Z 08020G30KT 040V110 9999 FEW015 SCT250
                        21/14 Q1011 NOSIG=
201105221030 METAR LMML NIL=
201105221015 METAR LMML 221015Z 07020KT 030V100 9999 FEW015 SCT090 BKN250
                        21/14 Q1011 NOSIG=
201105221000 METAR LMML NIL=
201105220945 METAR LMML 220945Z 07019G30KT 030V110 9999 FEW015 SCT090
                        BKN250 21/15 Q1011 NOSIG=
201105220915 METAR LMML 220915Z 07020KT 040V110 9999 FEW015 BKN090 21/15
                        Q1011 NOSIG=
201105220900 METAR LMML NIL=
201105220845 METAR LMML 220845Z 07020KT 020V110 9999 FEW012 BKN090 20/16
                        Q1011 NOSIG=
201105220830 METAR LMML NIL=
201105220815 METAR LMML 220815Z 06017G27KT 030V100 9999 FEW012 BKN090
                        20/16 Q1011 NOSIG=
201105220800 METAR LMML NIL=
201105220745 METAR LMML 220745Z 06015KT 030V100 CAVOK 19/15 Q1011 NOSIG=
201105220730 METAR LMML NIL=
201105220715 METAR LMML 220715Z 07019KT 040V100 CAVOK 19/15 Q1010 NOSIG=
201105220700 METAR LMML NIL=
201105220645 METAR LMML 220645Z 07017KT 040V100 CAVOK 18/15 Q1010 NOSIG=
201105220615 METAR LMML 220615Z 08018KT 030V100 9000 NSC 18/15 Q1010 TEMPO
                        TSRA BKN090CB=
201105220600 METAR LMML NIL=
201105220545 METAR LMML 220545Z 08018KT 040V110 9000 NSC 18/15 Q1011 TEMPO
                        TSRA BKN090CB=
201105220530 METAR LMML NIL=
201105220515 METAR LMML 220515Z 07017KT 030V100 9000 NSC 17/15 Q1010 TEMPO
                        TSRA BKN090CB=
201105220500 METAR LMML NIL=
201105220445 METAR LMML 220445Z 07019KT 040V100 9000 NSC 18/15 Q1010 NOSIG=
201105220430 METAR LMML NIL=
201105220415 METAR LMML 220415Z 06018G29KT 030V100 9000 NSC 18/15 Q1009
                        NOSIG=
201105220400 METAR LMML NIL=
201105220345 METAR LMML 220345Z 06019G29KT 020V090 9000 NSC 18/15 Q1009
                        NOSIG=
201105220330 METAR LMML NIL=
201105220315 METAR LMML 220315Z 06018G28KT 020V090 CAVOK 18/15 Q1009 TEMPO
                        5000 TSRA BKN080CB=
201105220300 METAR LMML NIL=
201105220245 METAR LMML 220245Z 06018G30KT 020V090 CAVOK 18/15 Q1009 RETSRA
                        TEMPO 5000 TSRA BKN080CB=
201105220230 METAR LMML NIL=
201105220215 METAR LMML 220215Z 06017KT 020V090 9999 FEW060CB BKN120 17/15
                        Q1010 RETSRA TEMPO 5000 TSRA BKN080CB=
201105220200 METAR LMML NIL=
201105220145 METAR LMML 220145Z 06017KT 030V100 9000 TSRA FEW009 FEW060CB
                        BKN120 17/16 Q1010 NOSIG=
201105220130 METAR LMML NIL=
201105220115 METAR LMML 220115Z 05016KT 010V080 9000 TS FEW009 FEW060CB
                        BKN120 17/16 Q1011 NOSIG=
201105220100 METAR LMML NIL=
201105220045 METAR LMML 220045Z 06016KT 020V090 9000 TS FEW010 FEW060CB
                        BKN120 17/16 Q1011 NOSIG=
201105220030 METAR LMML NIL=
201105220015 METAR LMML 220015Z 06014KT 030V100 9000 TS FEW010 FEW080CB
                        BKN120 17/16 Q1012 NOSIG=
201105220000 METAR LMML NIL=
201105212345 METAR LMML 212345Z 07011KT 020V110 9000 TS FEW012 SCT080CB
                        BKN120 17/16 Q1012 NOSIG=
201105212330 METAR LMML NIL=
201105212315 METAR LMML 212315Z 08013KT 050V110 9000 FEW012 FEW080CB BKN120
                        17/16 Q1012 TEMPO 5000 TSRA BKN080CB
                        RMK LIGHTNING TO W=
201105212300 METAR LMML NIL=
201105212245 METAR LMML 212245Z 09016KT 060V120 9000 FEW012 SCT080CB BKN120
                        17/16 Q1012 RETSRA TEMPO TSRA RMK
                        LIGHTNING TO NW=
201105212230 METAR LMML NIL=
201105212215 METAR LMML 212215Z 09015KT 050V120 9000 FEW012 BKN120 17/16
                        Q1013 RETSRA TEMPO 5000 TSRA BKN080CB=
201105212200 METAR LMML NIL=
201105212145 METAR LMML 212145Z 08014KT 050V110 7000 -TSRA FEW012 SCT080CB
                        BKN120 18/16 Q1013 NOSIG=
201105212130 METAR LMML NIL=
201105212115 METAR LMML 212115Z 10017KT 070V130 9000 TS FEW012 SCT080CB
                        BKN120 18/16 Q1013 NOSIG=
201105212100 METAR LMML NIL=
201105212045 METAR LMML 212045Z 08022KT 050V110 9000 FEW012 BKN120 17/16
                        Q1011 TEMPO TSRA BKN010 BKN080CB=
201105212030 METAR LMML NIL=
201105212015 METAR LMML 212015Z 07007KT 030V110 9000 SCT012 BKN120 18/16
                        Q1014 TEMPO TSRA BKN010 BKN080CB=
201105212000 METAR LMML NIL=
201105211945 METAR LMML 211945Z 08013KT 040V110 9999 SCT012 BKN120 18/16
                        Q1014 TEMPO 9000 TSRA BKN010 BKN080CB=
201105211930 METAR LMML NIL=
201105211915 METAR LMML 211915Z 07016G26KT 040V100 9999 FEW011 BKN120
                        18/16 Q1012 TEMPO 5000 TSRA SCT010
                        BKN080CB RMK LIGHTNING TO W=
201105211900 METAR LMML NIL=
201105211845 METAR LMML 211845Z 09017KT 9999 FEW011 SCT120 18/16 Q1012
                        TEMPO 9000=
201105211830 METAR LMML NIL=
201105211815 METAR LMML 211815Z 08017KT 050V110 9999 FEW011 SCT120 18/16
                        Q1011 TEMPO 9000=
201105211800 METAR LMML NIL=
201105211745 METAR LMML 211745Z 08018KT 9999 FEW012 SCT120 18/15 Q1012
                        NOSIG=
201105211730 METAR LMML NIL=
201105211715 METAR LMML 211715Z 08018KT 040V110 9999 FEW012 BKN120 18/15
                        Q1012 NOSIG=
201105211700 METAR LMML NIL=
201105211645 METAR LMML 211645Z 08016KT 050V110 9999 FEW014 SCT120 19/15
                        Q1012 NOSIG=
201105211630 METAR LMML NIL=
201105211615 METAR LMML 211615Z 08017KT 050V110 9999 FEW014 BKN120 19/15
                        Q1012 NOSIG=
201105211600 METAR LMML NIL=
201105211545 METAR LMML 211545Z 08016KT 040V130 9999 FEW015 BKN120 19/15
                        Q1013 NOSIG=
201105211530 METAR LMML NIL=
201105211515 METAR LMML 211515Z 08017KT 050V110 9999 FEW014 BKN120 19/15
                        Q1013 NOSIG=
201105211500 METAR LMML NIL=
201105211445 METAR LMML 211445Z 09018KT 050V110 9999 FEW014 BKN120 20/15
                        Q1013 NOSIG=
201105211430 METAR LMML NIL=
201105211415 METAR LMML 211415Z 08016KT 050V110 9999 FEW015 BKN120 19/15
                        Q1014 TEMPO SHRA=
201105211400 METAR LMML NIL=
201105211345 METAR LMML 211345Z 08015G25KT 050V120 9999 FEW015 SCT070
                        BKN120 19/15 Q1014 TEMPO SHRA=
201105211330 METAR LMML NIL=
201105211315 METAR LMML 211315Z 09020KT 9999 FEW014 SCT070 BKN120 18/16
                        Q1013 TEMPO SHRA=
201105211300 METAR LMML NIL=
201105211245 METAR LMML 211245Z 10020KT 9999 FEW015 BKN120 20/15 Q1014
                        TEMPO SHRA=
201105211230 METAR LMML NIL=
201105211215 METAR LMML 211215Z 11019KT 9999 FEW016 BKN120 20/15 Q1015
                        NOSIG=
201105211200 METAR LMML NIL=
201105211145 METAR LMML 211145Z 11015KT 080V140 9999 FEW019 SCT120 20/15
                        Q1016 NOSIG=
201105211115 METAR LMML 211115Z 09018KT 060V130 9999 FEW014 SCT120 21/15
                        Q1015 NOSIG=
201105211100 METAR LMML NIL=
201105211045 METAR LMML 211045Z 09020KT 050V120 9999 FEW014 SCT120 20/15
                        Q1015 NOSIG=
201105211030 METAR LMML NIL=
201105211015 METAR LMML 211015Z 09019KT 060V120 9999 SCT013 SCT120 20/15
                        Q1015 NOSIG=
201105211000 METAR LMML NIL=
201105210945 METAR LMML 210945Z 08019KT 060V120 9999 -RA SCT015 BKN120
                        18/15 Q1015 NOSIG=
201105210930 METAR LMML NIL=
201105210915 METAR LMML 210915Z 08016KT 050V120 9999 SCT013 SCT120 19/15
                        Q1016 NOSIG=
201105210900 METAR LMML NIL=
201105210845 METAR LMML 210845Z 09016KT 060V120 9999 SCT015 SCT120 20/15
                        Q1016 NOSIG=
201105210830 METAR LMML NIL=
201105210815 METAR LMML 210815Z 08015KT 050V110 9999 SCT015 BKN120 18/14
                        Q1016 NOSIG=
201105210800 METAR LMML NIL=
201105210745 METAR LMML 210745Z 09014KT 9999 SCT016 SCT120 20/15 Q1016
                        NOSIG=
201105210730 METAR LMML NIL=
201105210715 METAR LMML 210715Z 10012KT 070V130 9999 SCT016 SCT120 19/14
                        Q1016 NOSIG=
201105210700 METAR LMML NIL=
201105210645 METAR LMML 210645Z 10014KT 060V130 9999 SCT016 SCT120 19/14
                        Q1016 NOSIG=
201105210630 METAR LMML NIL=
201105210615 METAR LMML 210615Z 09014KT 060V120 9999 FEW015 BKN120 18/14
                        Q1016 NOSIG=
201105210600 METAR LMML NIL=
201105210545 METAR LMML 210545Z 10012KT 070V130 9999 SCT016 18/14 Q1016
                        NOSIG=
201105210530 METAR LMML NIL=
201105210515 METAR LMML 210515Z 10010KT 070V130 9999 SCT016 17/14 Q1016
                        NOSIG=
201105210500 METAR LMML NIL=
201105210445 METAR LMML 210445Z 10013KT 9999 FEW015 SCT120 17/14 Q1016
                        NOSIG=
201105210430 METAR LMML NIL=
201105210415 METAR LMML 210415Z 10010KT 9999 FEW014 SCT120 17/14 Q1016
                        NOSIG=
201105210400 METAR LMML NIL=
201105210345 METAR LMML 210345Z 10009KT 9999 FEW015 16/14 Q1016 NOSIG=
201105210330 METAR LMML NIL=
201105210315 METAR LMML 210315Z 11008KT 080V140 9999 SCT015 16/14 Q1016
                        NOSIG=
201105210300 METAR LMML NIL=
201105210245 METAR LMML 210245Z 10009KT 9999 SCT016 16/14 Q1016 NOSIG=
201105210230 METAR LMML NIL=
201105210215 METAR LMML 210215Z 09007KT 9999 FEW016 SCT110 16/14 Q1016
                        NOSIG=
201105210200 METAR LMML NIL=
201105210145 METAR LMML 210145Z 10007KT 070V130 9999 FEW016 SCT120 BKN250
                        17/14 Q1016 NOSIG=
201105210130 METAR LMML NIL=
201105210115 METAR LMML 210115Z 10007KT 9999 FEW016 SCT120 BKN250 17/14
                        Q1017 NOSIG=
201105210100 METAR LMML NIL=
201105210045 METAR LMML 210045Z 11007KT 9999 FEW017 BKN120 17/13 Q1017
                        NOSIG=
201105210030 METAR LMML NIL=
201105210015 METAR LMML 210015Z 10009KT 9999 FEW016 BKN120 17/14 Q1017
                        NOSIG=
201105210000 METAR LMML NIL=
201105202345 METAR LMML 202345Z 11008KT 080V140 9999 FEW016 BKN120 17/14
                        Q1017 NOSIG=
201105202315 METAR LMML 202315Z 11007KT 9999 SCT016 SCT120 17/13 Q1017
                        NOSIG=
201105202300 METAR LMML NIL=
201105202245 METAR LMML 202245Z 11009KT 080V140 9999 SCT017 SCT120 17/14
                        Q1017 NOSIG=
201105202215 METAR LMML 202215Z 12009KT 9999 SCT018 SCT120 BKN250 17/13
                        Q1018 NOSIG=
201105202145 METAR LMML 202145Z 11011KT 9999 SCT017 SCT120 BKN250 17/13
                        Q1017 NOSIG=
201105202130 METAR LMML NIL=
201105202115 METAR LMML 202115Z 10009KT 9999 FEW016 SCT120 BKN250 17/13
                        Q1017 NOSIG=
201105202100 METAR LMML NIL=
201105202045 METAR LMML 202045Z 11010KT 9999 FEW017 BKN250 17/13 Q1017
                        NOSIG=
201105202030 METAR LMML NIL=
201105202015 METAR LMML 202015Z 11009KT 9999 FEW019 BKN250 17/13 Q1017
                        NOSIG=
201105202000 METAR LMML NIL=
201105201945 METAR LMML 201945Z 12007KT 9999 FEW018 BKN250 16/13 Q1018
                        NOSIG=
201105201930 METAR LMML NIL=
201105201915 METAR LMML 201915Z 12007KT 9999 FEW018 17/13 Q1018 NOSIG=
201105201900 METAR LMML NIL=
201105201845 METAR LMML 201845Z 13008KT 9999 FEW018 BKN250 17/13 Q1018
                        NOSIG=
201105201830 METAR LMML NIL=
201105201815 METAR LMML 201815Z 13007KT 100V160 9999 FEW018 BKN250 17/13
                        Q1018 NOSIG=
201105201800 METAR LMML NIL=
201105201745 METAR LMML 201745Z 12008KT 9999 FEW019 BKN250 17/13 Q1018
                        NOSIG=
201105201715 METAR LMML 201715Z 12008KT 9999 FEW020 SCT250 18/13 Q1018
                        NOSIG=
201105201700 METAR LMML NIL=
201105201645 METAR LMML 201645Z 10007KT 050V140 9999 FEW020 SCT250 19/13
                        Q1018 NOSIG=
201105201630 METAR LMML NIL=
201105201615 METAR LMML 201615Z 13009KT 9999 FEW020 SCT250 18/13 Q1018
                        NOSIG=
201105201600 METAR LMML NIL=
201105201545 METAR LMML 201545Z 13008KT 080V170 9999 FEW020 SCT250 19/13
                        Q1018 NOSIG=
201105201530 METAR LMML NIL=
201105201515 METAR LMML 201515Z 10008KT 070V140 9999 FEW020 BKN250 20/12
                        Q1018 NOSIG=
201105201500 METAR LMML NIL=
201105201445 METAR LMML 201445Z 12008KT 060V190 9999 FEW020 SCT250 20/13
                        Q1018 NOSIG=
201105201430 METAR LMML NIL=
201105201415 METAR LMML 201415Z 12008KT 080V140 9999 FEW020 SCT250 20/13
                        Q1018 NOSIG=
201105201400 METAR LMML NIL=
201105201345 METAR LMML 201345Z 13008KT 090V180 9999 FEW021 SCT250 20/12
                        Q1018 NOSIG=
201105201330 METAR LMML NIL=
201105201315 METAR LMML 201315Z 15007KT 090V200 9999 FEW022 SCT250 20/12
                        Q1019 NOSIG=
201105201300 METAR LMML NIL=
201105201245 METAR LMML 201245Z 16008KT 130V190 9999 FEW026 SCT250 20/13
                        Q1019 NOSIG=
201105201230 METAR LMML NIL=
201105201215 METAR LMML 201215Z 13009KT 090V170 9999 FEW021 20/12 Q1019
                        NOSIG=
201105201200 METAR LMML NIL=
201105201145 METAR LMML 201145Z 14009KT 110V180 9999 FEW020 SCT250 20/12
                        Q1019 NOSIG=
201105201130 METAR LMML NIL=
201105201115 METAR LMML 201115Z 15009KT 110V200 9999 FEW021 SCT250 19/13
                        Q1019 NOSIG=
201105201100 METAR LMML NIL=
201105201045 METAR LMML 201045Z 15009KT 120V190 9999 FEW019 SCT250 20/12
                        Q1020 NOSIG=
201105201030 METAR LMML NIL=
201105201015 METAR LMML 201015Z 15009KT 100V190 9999 SCT021 SCT120 20/13
                        Q1020 NOSIG=
201105201000 METAR LMML NIL=
201105200945 METAR LMML 200945Z 12009KT 090V160 9999 FEW018 SCT250 20/13
                        Q1020 NOSIG=
201105200930 METAR LMML NIL=
201105200915 METAR LMML 200915Z 12009KT 080V150 9999 FEW020 SCT250 20/13
                        Q1019 NOSIG=
201105200900 METAR LMML NIL=
201105200845 METAR LMML 200845Z 12009KT 080V150 9999 FEW020 19/13 Q1019
                        NOSIG=
201105200830 METAR LMML NIL=
201105200815 METAR LMML 200815Z 11008KT 070V160 9999 FEW018 20/12 Q1019
                        NOSIG=
201105200800 METAR LMML NIL=
201105200745 METAR LMML 200745Z 09008KT 030V140 9999 FEW015 SCT250 20/13
                        Q1019 NOSIG=
201105200730 METAR LMML NIL=
201105200715 METAR LMML 200715Z 10007KT 060V140 9999 FEW015 SCT250 19/13
                        Q1019 NOSIG=
201105200700 METAR LMML NIL=
201105200645 METAR LMML 200645Z 09006KT 050V120 9999 FEW015 SCT250 19/13
                        Q1019 NOSIG=
201105200630 METAR LMML NIL=
201105200615 METAR LMML 200615Z 09005KT 040V130 9999 FEW016 18/13 Q1019
                        NOSIG=
201105200600 METAR LMML NIL=
201105200545 METAR LMML 200545Z 07004KT 9999 FEW016 SCT250 17/14 Q1019
                        NOSIG=
201105200530 METAR LMML NIL=
201105200515 METAR LMML 200515Z 08003KT 9999 FEW015 16/14 Q1019 NOSIG=
201105200500 METAR LMML NIL=
201105200445 METAR LMML 200445Z VRB02KT 9999 FEW014 SCT250 14/13 Q1018
                        NOSIG=
201105200430 METAR LMML NIL=
201105200415 METAR LMML 200415Z VRB01KT 9999 FEW013 SCT250 13/12 Q1018
                        NOSIG=
201105200400 METAR LMML NIL=
201105200345 METAR LMML 200345Z VRB01KT 9999 FEW015 12/11 Q1018 NOSIG=
201105200330 METAR LMML NIL=
201105200315 METAR LMML 200315Z VRB01KT 9999 FEW015 13/12 Q1018 NOSIG=
201105200300 METAR LMML NIL=
201105200245 METAR LMML 200245Z VRB01KT 9999 FEW020 13/12 Q1018 NOSIG=
201105200230 METAR LMML NIL=
201105200215 METAR LMML 200215Z VRB01KT 9999 FEW020 13/12 Q1018 NOSIG=
201105200200 METAR LMML NIL=
201105200145 METAR LMML 200145Z VRB01KT 9999 FEW020 13/12 Q1018 NOSIG=
201105200130 METAR LMML NIL=
201105200115 METAR LMML 200115Z VRB02KT CAVOK 13/11 Q1018 NOSIG=
201105200045 METAR LMML 200045Z VRB01KT CAVOK 14/12 Q1018 NOSIG=
201105200030 METAR LMML NIL=
201105200015 METAR LMML 200015Z VRB02KT CAVOK 14/12 Q1018 NOSIG=
201105200000 METAR LMML NIL=
201105192345 METAR LMML 192345Z VRB02KT 9999 FEW020 15/12 Q1018 NOSIG=
201105192330 METAR LMML NIL=
201105192315 METAR LMML 192315Z VRB01KT 9999 FEW020 14/12 Q1019 NOSIG=
201105192300 METAR LMML NIL=
201105192245 METAR LMML 192245Z VRB01KT 9999 FEW020 14/11 Q1019 NOSIG=
201105192230 METAR LMML NIL=
201105192215 METAR LMML 192215Z VRB02KT 9999 FEW020 15/12 Q1019 NOSIG=
201105192200 METAR LMML NIL=
201105192145 METAR LMML 192145Z VRB02KT CAVOK 16/12 Q1018 NOSIG=
201105192130 METAR LMML NIL=
201105192115 METAR LMML 192115Z VRB02KT CAVOK 15/12 Q1019 NOSIG=
201105192100 METAR LMML NIL=
201105192045 METAR LMML 192045Z 13003KT CAVOK 15/12 Q1018 NOSIG=
201105192030 METAR LMML NIL=
201105192015 METAR LMML 192015Z 14003KT CAVOK 16/12 Q1019 NOSIG=
201105191945 METAR LMML 191945Z 13003KT CAVOK 16/12 Q1018 NOSIG=
201105191930 METAR LMML NIL=
201105191915 METAR LMML 191915Z 14004KT CAVOK 16/12 Q1018 NOSIG=
201105191900 METAR LMML NIL=
201105191845 METAR LMML 191845Z 14004KT CAVOK 16/12 Q1018 NOSIG=
201105191830 METAR LMML NIL=
201105191815 METAR LMML 191815Z 11005KT CAVOK 17/12 Q1018 NOSIG=
201105191800 METAR LMML NIL=
201105191745 METAR LMML 191745Z 13005KT 100V160 9999 FEW030 BKN120 17/12
                        Q1018 NOSIG=
201105191730 METAR LMML NIL=
201105191715 METAR LMML 191715Z 13005KT 110V170 9999 FEW030 BKN120 17/12
                        Q1017 NOSIG=
201105191700 METAR LMML NIL=
201105191645 METAR LMML 191645Z 14006KT 100V170 9999 FEW030 BKN120 18/12
                        Q1017 NOSIG=
201105191630 METAR LMML NIL=
201105191615 METAR LMML 191615Z 14006KT 100V180 9999 FEW030 BKN120 18/12
                        Q1017 NOSIG=
201105191600 METAR LMML NIL=
201105191545 METAR LMML 191545Z 11006KT 9999 FEW030 BKN120 18/11 Q1018
                        NOSIG=
201105191530 METAR LMML NIL=
201105191515 METAR LMML 191515Z 14008KT 9999 FEW030 BKN250 19/11 Q1017
                        NOSIG=
201105191500 METAR LMML NIL=
201105191445 METAR LMML 191445Z 13007KT 080V180 9999 FEW034 BKN250 19/11
                        Q1018 NOSIG=
201105191430 METAR LMML NIL=
201105191415 METAR LMML 191415Z 12007KT 080V160 9999 FEW034 BKN250 20/10
                        Q1018 NOSIG=
201105191400 METAR LMML NIL=
201105191345 METAR LMML 191345Z 12007KT 080V160 9999 FEW034 BKN250 20/11
                        Q1018 NOSIG=
201105191330 METAR LMML NIL=
201105191315 METAR LMML 191315Z 12007KT 060V180 9999 FEW023 SCT250 20/11
                        Q1018 NOSIG=
201105191300 METAR LMML NIL=
201105191245 METAR LMML 191245Z 12007KT 070V170 9999 FEW034 SCT250 20/12
                        Q1018 NOSIG=
201105191230 METAR LMML NIL=
201105191215 METAR LMML 191215Z 12007KT 050V160 9999 SCT034 SCT250 20/12
                        Q1018 NOSIG=
201105191200 METAR LMML NIL=
201105191145 METAR LMML 191145Z 12008KT 050V180 9999 FEW021 SCT250 20/12
                        Q1018 NOSIG=
201105191130 METAR LMML NIL=
201105191115 METAR LMML 191115Z 12008KT 060V160 9999 FEW028 SCT250 20/12
                        Q1018 NOSIG=
201105191100 METAR LMML NIL=
201105191045 METAR LMML 191045Z 10006KT 050V220 9999 FEW025 SCT250 21/12
                        Q1018 NOSIG=
201105191030 METAR LMML NIL=
201105191015 METAR LMML 191015Z 12007KT 330V170 9999 FEW025 SCT250 20/11
                        Q1018 NOSIG=
201105191000 METAR LMML NIL=
201105190945 METAR LMML 190945Z 12006KT 050V190 9999 FEW025 SCT250 20/11
                        Q1018 NOSIG=
201105190930 METAR LMML NIL=
201105190915 METAR LMML 190915Z 12006KT 040V180 9999 FEW025 SCT250 21/10
                        Q1018 NOSIG=
201105190900 METAR LMML NIL=
201105190845 METAR LMML 190845Z 08007KT 040V120 9999 FEW025 SCT250 21/10
                        Q1018 NOSIG=
201105190830 METAR LMML NIL=
201105190800 METAR LMML NIL=
201105190745 METAR LMML 190745Z 12005KT 060V170 9999 FEW020 BKN250 19/09
                        Q1017 NOSIG=
201105190730 METAR LMML NIL=
201105190700 METAR LMML NIL=
201105190630 METAR LMML NIL=
201105190615 METAR LMML 190615Z 10005KT 070V140 9999 FEW015 BKN250 18/12
                        Q1017 NOSIG=
201105190600 METAR LMML NIL=
201105190545 METAR LMML 190545Z 09003KT 9999 FEW030 BKN250 17/12 Q1017
                        NOSIG=
201105190530 METAR LMML NIL=
201105190515 METAR LMML 190515Z 08003KT CAVOK 16/13 Q1017 BECMG 08005KT=
201105190500 METAR LMML NIL=
201105190445 METAR LMML 190445Z VRB01KT CAVOK 15/12 Q1016 BECMG 08005KT=
201105190430 METAR LMML NIL=
201105190415 METAR LMML 190415Z 00000KT CAVOK 14/12 Q1016 NOSIG=
201105190345 METAR LMML 190345Z VRB01KT CAVOK 14/12 Q1016 NOSIG=
201105190330 METAR LMML NIL=
201105190315 METAR LMML 190315Z VRB01KT CAVOK 14/11 Q1016 NOSIG=
201105190300 METAR LMML NIL=
201105190245 METAR LMML 190245Z VRB01KT CAVOK 14/11 Q1016 NOSIG=
201105190230 METAR LMML NIL=
201105190215 METAR LMML 190215Z VRB01KT CAVOK 14/12 Q1016 NOSIG=
201105190200 METAR LMML NIL=
201105190145 METAR LMML 190145Z VRB02KT CAVOK 14/12 Q1016 NOSIG=
201105190130 METAR LMML NIL=
201105190115 METAR LMML 190115Z 25003KT CAVOK 15/12 Q1016 NOSIG=
201105190045 METAR LMML 190045Z VRB02KT CAVOK 15/12 Q1016 NOSIG=
201105190030 METAR LMML NIL=
201105190015 METAR LMML 190015Z VRB02KT CAVOK 15/12 Q1016 NOSIG=
201105190000 METAR LMML NIL=
201105182345 METAR LMML 182345Z 25005KT CAVOK 16/11 Q1016 NOSIG=
201105182330 METAR LMML NIL=
201105182315 METAR LMML 182315Z 24003KT CAVOK 15/10 Q1017 NOSIG=
201105182300 METAR LMML NIL=
201105182245 METAR LMML 182245Z VRB01KT CAVOK 15/10 Q1017 NOSIG=
201105182230 METAR LMML NIL=
201105182215 METAR LMML 182215Z VRB02KT CAVOK 16/09 Q1017 NOSIG=
201105182200 METAR LMML NIL=
201105182145 METAR LMML 182145Z 26005KT 220V290 CAVOK 16/10 Q1017 NOSIG=
201105182130 METAR LMML NIL=
201105182115 METAR LMML 182115Z 26006KT CAVOK 16/11 Q1017 NOSIG=
201105182100 METAR LMML NIL=
201105182045 METAR LMML 182045Z 28005KT 230V310 CAVOK 16/11 Q1017 NOSIG=
201105182030 METAR LMML NIL=
201105182015 METAR LMML 182015Z 28005KT 250V310 CAVOK 16/11 Q1017 NOSIG=
201105182000 METAR LMML NIL=
201105181945 METAR LMML 181945Z 28005KT 250V320 CAVOK 16/11 Q1017 NOSIG=
201105181930 METAR LMML NIL=
201105181915 METAR LMML 181915Z 27006KT 230V300 CAVOK 16/11 Q1016 NOSIG=
201105181900 METAR LMML NIL=
201105181845 METAR LMML 181845Z 28007KT CAVOK 16/11 Q1016 NOSIG=
201105181830 METAR LMML NIL=
201105181815 METAR LMML 181815Z 28008KT 250V310 CAVOK 17/11 Q1016 NOSIG=
201105181800 METAR LMML NIL=
201105181745 METAR LMML 181745Z 28009KT 240V320 CAVOK 17/11 Q1016 NOSIG=
201105181730 METAR LMML NIL=
201105181715 METAR LMML 181715Z 28010KT 250V310 CAVOK 18/10 Q1016 NOSIG=
201105181700 METAR LMML NIL=
201105181645 METAR LMML 181645Z 28010KT 240V310 9999 FEW030 19/10 Q1016
                        BECMG CAVOK=
201105181630 METAR LMML NIL=
201105181615 METAR LMML 181615Z 29012KT 9999 FEW030 20/08 Q1016 BECMG
                        CAVOK=
201105181600 METAR LMML NIL=
201105181545 METAR LMML 181545Z 28012KT 250V310 9999 FEW030 20/08 Q1016
                        BECMG CAVOK=
201105181530 METAR LMML NIL=
201105181515 METAR LMML 181515Z 29010KT 240V330 9999 FEW030 21/09 Q1016
                        TEMPO CAVOK=
201105181500 METAR LMML NIL=
201105181445 METAR LMML 181445Z 28011KT 250V310 9999 FEW030 21/08 Q1016
                        TEMPO CAVOK=
201105181430 METAR LMML NIL=
201105181415 METAR LMML 181415Z 28012KT 240V310 9999 FEW030 21/07 Q1016
                        TEMPO CAVOK=
201105181345 METAR LMML 181345Z 30012KT 230V340 9999 FEW030 21/06 Q1016
                        NOSIG=
201105181330 METAR LMML NIL=
201105181315 METAR LMML 181315Z 29012KT 250V320 9999 FEW030 21/06 Q1016
                        NOSIG=
201105181300 METAR LMML NIL=
201105181245 METAR LMML 181245Z 33011KT 9999 FEW030 22/04 Q1017 NOSIG=
201105181230 METAR LMML NIL=
201105181215 METAR LMML 181215Z 32011KT 290V360 9999 FEW030 22/05 Q1017
                        NOSIG=
201105181200 METAR LMML NIL=
201105181145 METAR LMML 181145Z 29012KT 260V320 9999 FEW030 21/03 Q1017
                        WS RWY31 NOSIG=
201105181130 METAR LMML NIL=
201105181115 METAR LMML 181115Z 32011KT 280V360 9999 FEW030 22/05 Q1017
                        NOSIG=
201105181100 METAR LMML NIL=
201105181045 METAR LMML 181045Z 34009KT 290V030 9999 FEW030 22/04 Q1017
                        NOSIG=
201105181030 METAR LMML NIL=
201105181015 METAR LMML 181015Z 35008KT 300V020 9999 FEW030 21/05 Q1017
                        NOSIG=
201105181000 METAR LMML NIL=
201105180945 METAR LMML 180945Z 33008KT 280V020 9999 FEW030 21/07 Q1017
                        NOSIG=
201105180930 METAR LMML NIL=
201105180915 METAR LMML 180915Z 33009KT 280V020 9999 FEW030 20/06 Q1017
                        NOSIG=
201105180900 METAR LMML NIL=
201105180845 METAR LMML 180845Z 34008KT 270V020 CAVOK 20/08 Q1017 NOSIG=
201105180830 METAR LMML NIL=
201105180815 METAR LMML 180815Z 35009KT 320V020 CAVOK 19/08 Q1017 NOSIG=
201105180800 METAR LMML NIL=
201105180745 METAR LMML 180745Z 34009KT 300V010 9999 FEW025 19/09 Q1017
                        NOSIG=
201105180730 METAR LMML NIL=
201105180715 METAR LMML 180715Z 33010KT 300V020 9999 FEW025 18/09 Q1017
                        NOSIG=
201105180700 METAR LMML NIL=
201105180645 METAR LMML 180645Z 34009KT 290V010 9999 FEW025 18/09 Q1017
                        NOSIG=
201105180630 METAR LMML NIL=
201105180615 METAR LMML 180615Z 34009KT 310V010 9999 FEW025 17/10 Q1017
                        NOSIG=
201105180545 METAR LMML 180545Z 33008KT 9999 FEW025 16/09 Q1017 NOSIG=
201105180530 METAR LMML NIL=
201105180515 METAR LMML 180515Z 32005KT 270V010 9999 FEW025 15/10 Q1017
                        NOSIG=
201105180500 METAR LMML NIL=
201105180445 METAR LMML 180445Z 31006KT 9999 FEW025 14/10 Q1017 NOSIG=
201105180430 METAR LMML NIL=
201105180415 METAR LMML 180415Z 32007KT 9999 FEW025 13/10 Q1017 NOSIG=
201105180345 METAR LMML 180345Z 32004KT 9999 FEW025 13/09 Q1016 NOSIG=
201105180330 METAR LMML NIL=
201105180315 METAR LMML 180315Z 32004KT 9999 FEW025 13/09 Q1016 NOSIG=
201105180300 METAR LMML NIL=
201105180245 METAR LMML 180245Z 28004KT CAVOK 14/10 Q1016 NOSIG=
201105180230 METAR LMML NIL=
201105180215 METAR LMML 180215Z 28004KT 250V310 CAVOK 14/10 Q1017 NOSIG=
201105180200 METAR LMML NIL=
201105180145 METAR LMML 180145Z 31006KT 9999 FEW035 14/10 Q1017 NOSIG=
201105180130 METAR LMML NIL=
201105180115 METAR LMML 180115Z 29004KT 270V330 9999 FEW035 14/10 Q1017
                        NOSIG=
201105180100 METAR LMML NIL=
201105180045 METAR LMML 180045Z 32004KT 9999 FEW035 14/10 Q1017 NOSIG=
201105180030 METAR LMML NIL=
201105180015 METAR LMML 180015Z 36005KT 9999 FEW035 15/10 Q1017 NOSIG=
201105180000 METAR LMML NIL=
201105172345 METAR LMML 172345Z 01004KT 9999 FEW035 15/10 Q1018 NOSIG=
201105172330 METAR LMML NIL=
201105172315 METAR LMML 172315Z 03006KT CAVOK 16/11 Q1018 NOSIG=
201105172300 METAR LMML NIL=
201105172245 METAR LMML 172245Z 03006KT 360V060 CAVOK 16/12 Q1018 NOSIG=
201105172230 METAR LMML NIL=
201105172215 METAR LMML 172215Z 03008KT 9999 FEW020 16/13 Q1018 NOSIG=
201105172200 METAR LMML NIL=
201105172145 METAR LMML 172145Z 02006KT 350V050 9999 FEW020 16/13 Q1018
                        NOSIG=
201105172130 METAR LMML NIL=
201105172115 METAR LMML 172115Z 33010KT CAVOK 17/12 Q1018 NOSIG=
201105172100 METAR LMML NIL=
201105172045 METAR LMML 172045Z 31010KT 280V340 CAVOK 16/10 Q1018 NOSIG=
201105172030 METAR LMML NIL=
201105172015 METAR LMML 172015Z 29008KT 260V320 CAVOK 16/11 Q1018 NOSIG=
201105172000 METAR LMML NIL=
201105171945 METAR LMML 171945Z 31015KT CAVOK 17/10 Q1018 NOSIG=
201105171915 METAR LMML 171915Z 31016KT CAVOK 17/10 Q1018 NOSIG=
201105171900 METAR LMML NIL=
201105171845 METAR LMML 171845Z 30013KT 260V320 9999 FEW018 17/10 Q1017
                        NOSIG=
201105171830 METAR LMML NIL=
201105171815 METAR LMML 171815Z 30012KT 270V330 9999 FEW018 17/11 Q1017
                        NOSIG=
201105171800 METAR LMML NIL=
201105171745 METAR LMML 171745Z 30013KT 270V330 9999 FEW018 17/12 Q1017
                        NOSIG=
201105171730 METAR LMML NIL=
201105171715 METAR LMML 171715Z 29015KT 9999 FEW018 18/13 Q1017 NOSIG=
201105171700 METAR LMML NIL=
201105171645 METAR LMML 171645Z 30018KT 9999 FEW018 18/13 Q1017 NOSIG=
201105171630 METAR LMML NIL=
201105171615 METAR LMML 171615Z 30021KT 9999 FEW023 18/13 Q1018 NOSIG=
201105171600 METAR LMML NIL=
201105171545 METAR LMML 171545Z 29018KT 260V320 9999 FEW023 19/13 Q1018
                        NOSIG=
201105171530 METAR LMML NIL=
201105171515 METAR LMML 171515Z 30020KT 260V320 9999 FEW022 19/12 Q1018
                        NOSIG=
201105171500 METAR LMML NIL=
201105171445 METAR LMML 171445Z 30020KT 9999 FEW023 19/12 Q1018 NOSIG=
201105171430 METAR LMML NIL=
201105171415 METAR LMML 171415Z 30021KT 9999 FEW027 19/12 Q1019 NOSIG=
201105171400 METAR LMML NIL=
201105171345 METAR LMML 171345Z 30018KT 270V330 9999 FEW028 20/11 Q1018
                        NOSIG=
201105171330 METAR LMML NIL=
201105171315 METAR LMML 171315Z 29017KT 260V320 9999 FEW030 20/11 Q1019
                        NOSIG=
201105171300 METAR LMML NIL=
201105171245 METAR LMML 171245Z 28018KT 9999 FEW030 21/10 Q1019 NOSIG=
201105171230 METAR LMML NIL=
201105171215 METAR LMML 171215Z 30018KT 9999 FEW039 21/09 Q1019 NOSIG=
201105171200 METAR LMML NIL=
201105171145 METAR LMML 171145Z 29018KT 260V320 9999 FEW040 20/10 Q1019
                        NOSIG=
201105171130 METAR LMML NIL=
201105171115 METAR LMML 171115Z 29017KT 250V320 9999 SCT038 20/09 Q1019
                        NOSIG=
201105171100 METAR LMML NIL=
201105171045 METAR LMML 171045Z 30019KT 9999 FEW040 21/08 Q1019 NOSIG=
201105171030 METAR LMML NIL=
201105171015 METAR LMML 171015Z 31016KT 270V340 9999 FEW042 21/09 Q1020
                        NOSIG=
201105171000 METAR LMML NIL=
201105170945 METAR LMML 170945Z 32015KT 280V350 9999 FEW030 21/05 Q1020
                        NOSIG=
201105170930 METAR LMML NIL=
201105170915 METAR LMML 170915Z 34017KT 9999 FEW030 20/03 Q1020 NOSIG=
201105170900 METAR LMML NIL=
201105170845 METAR LMML 170845Z 33017KT 290V350 9999 FEW030 20/06 Q1020
                        NOSIG=
201105170830 METAR LMML NIL=
201105170815 METAR LMML 170815Z 34017KT 9999 FEW030 20/06 Q1020 NOSIG=
201105170800 METAR LMML NIL=
201105170745 METAR LMML 170745Z 32017KT 290V360 9999 FEW030 19/07 Q1020
                        NOSIG=
201105170730 METAR LMML NIL=
201105170715 METAR LMML 170715Z 32015KT 9999 FEW030 19/08 Q1020 NOSIG=
201105170700 METAR LMML NIL=
201105170645 METAR LMML 170645Z 32016KT CAVOK 18/10 Q1020 NOSIG=
201105170630 METAR LMML NIL=
201105170615 METAR LMML 170615Z 32014KT CAVOK 18/11 Q1020 NOSIG=
201105170600 METAR LMML NIL=
201105170545 METAR LMML 170545Z 32014KT CAVOK 17/11 Q1019 NOSIG=
201105170530 METAR LMML NIL=
201105170515 METAR LMML 170515Z 32012KT 9999 FEW012 16/11 Q1019 NOSIG=
201105170500 METAR LMML NIL=
201105170445 METAR LMML 170445Z 32013KT 9999 FEW012 15/11 Q1019 NOSIG=
201105170430 METAR LMML NIL=
201105170415 METAR LMML 170415Z 32012KT 9999 FEW012 15/10 Q1019 NOSIG=
201105170400 METAR LMML NIL=
201105170345 METAR LMML 170345Z 32011KT CAVOK 15/10 Q1019 NOSIG=
201105170330 METAR LMML NIL=
201105170315 METAR LMML 170315Z 32012KT CAVOK 15/10 Q1019 NOSIG=
201105170300 METAR LMML NIL=
201105170245 METAR LMML 170245Z 31013KT CAVOK 14/10 Q1018 NOSIG=
201105170230 METAR LMML NIL=
201105170215 METAR LMML 170215Z 31013KT CAVOK 14/09 Q1019 NOSIG=
201105170200 METAR LMML NIL=
201105170145 METAR LMML 170145Z 31012KT CAVOK 14/10 Q1019 NOSIG=
201105170130 METAR LMML NIL=
201105170115 METAR LMML 170115Z 31013KT CAVOK 14/10 Q1019 NOSIG=
201105170045 METAR LMML 170045Z 31014KT CAVOK 15/10 Q1019 NOSIG=
201105170030 METAR LMML NIL=
201105170015 METAR LMML 170015Z 32013KT CAVOK 15/10 Q1019 NOSIG=
201105162345 METAR LMML 162345Z 32013KT CAVOK 15/10 Q1019 NOSIG=
201105162330 METAR LMML NIL=
201105162315 METAR LMML 162315Z 31015KT CAVOK 15/10 Q1020 NOSIG=
201105162245 METAR LMML 162245Z 31014KT CAVOK 16/10 Q1020 NOSIG=
201105162230 METAR LMML NIL=
201105162215 METAR LMML 162215Z 31017KT CAVOK 16/10 Q1020 NOSIG=
201105162145 METAR LMML 162145Z 31013KT CAVOK 16/10 Q1020 NOSIG=
201105162130 METAR LMML NIL=
201105162115 METAR LMML 162115Z 31014KT 280V340 CAVOK 16/10 Q1020 NOSIG=
201105162100 METAR LMML NIL=
201105162045 METAR LMML 162045Z 31014KT CAVOK 16/10 Q1019 NOSIG=
201105162030 METAR LMML NIL=
201105162015 METAR LMML 162015Z 31017KT 280V340 CAVOK 16/09 Q1019 NOSIG=
201105162000 METAR LMML NIL=
201105161945 METAR LMML 161945Z 31015KT CAVOK 16/09 Q1019 NOSIG=
201105161930 METAR LMML NIL=
201105161915 METAR LMML 161915Z 30017KT 270V330 CAVOK 17/09 Q1019 NOSIG=
201105161845 METAR LMML 161845Z 30016KT CAVOK 17/09 Q1018 NOSIG=
201105161830 METAR LMML NIL=
201105161815 METAR LMML 161815Z 30016KT 270V330 CAVOK 17/10 Q1018 NOSIG=
201105161800 METAR LMML NIL=
201105161745 METAR LMML 161745Z 30018KT 260V320 CAVOK 18/11 Q1018 NOSIG=
201105161730 METAR LMML NIL=
201105161715 METAR LMML 161715Z 30020KT 9999 FEW040 18/10 Q1018 NOSIG=
201105161700 METAR LMML NIL=
201105161630 METAR LMML NIL=
201105161615 METAR LMML 161615Z 30022KT 9999 FEW040 20/11 Q1018 NOSIG=
201105161600 METAR LMML NIL=
201105161545 METAR LMML 161545Z 31024KT 9999 FEW030 20/10 Q1019 NOSIG=
201105161530 METAR LMML NIL=
201105161515 METAR LMML 161515Z 31024KT 9999 FEW025 20/10 Q1019 NOSIG=
201105161500 METAR LMML NIL=
201105161445 METAR LMML 161445Z 30023KT 9999 FEW026 21/12 Q1019 NOSIG=
201105161430 METAR LMML NIL=
201105161415 METAR LMML 161415Z 29020KT 240V330 9999 FEW026 21/12 Q1019
                        NOSIG=
201105161400 METAR LMML NIL=
201105161345 METAR LMML 161345Z 29021KT 9999 FEW026 21/12 Q1019 NOSIG=
201105161330 METAR LMML NIL=
201105161315 METAR LMML 161315Z 29021KT 260V320 9999 FEW026 21/11 Q1019
                        NOSIG=
201105161300 METAR LMML NIL=
201105161245 METAR LMML 161245Z 29020G30KT 9999 FEW026 22/11 Q1019 NOSIG=
201105161230 METAR LMML NIL=
201105161215 METAR LMML 161215Z 30023KT 9999 FEW026 21/12 Q1019 NOSIG=
201105161200 METAR LMML NIL=
201105161145 METAR LMML 161145Z 29020KT 260V330 9999 FEW026 21/12 Q1019
                        NOSIG=
201105161115 METAR LMML 161115Z 31021KT 9999 FEW026 22/11 Q1019 NOSIG=
201105161100 METAR LMML NIL=
201105161045 METAR LMML 161045Z 30017KT 260V330 9999 FEW026 21/11 Q1019
                        NOSIG=
201105161030 METAR LMML NIL=
201105161015 METAR LMML 161015Z 29018KT 260V330 9999 FEW026 20/13 Q1019
                        NOSIG=
201105161000 METAR LMML NIL=
201105160945 METAR LMML 160945Z 29017KT 260V320 9999 FEW028 21/12 Q1019
                        NOSIG=
201105160930 METAR LMML NIL=
201105160915 METAR LMML 160915Z 29018KT 9999 FEW029 20/11 Q1019 NOSIG=
201105160900 METAR LMML NIL=
201105160845 METAR LMML 160845Z 29017KT 260V330 9999 FEW028 20/11 Q1019
                        NOSIG=
201105160830 METAR LMML NIL=
201105160815 METAR LMML 160815Z 29018KT 260V330 9999 FEW028 19/11 Q1019
                        NOSIG=
201105160800 METAR LMML NIL=
201105160745 METAR LMML 160745Z 30021KT 9999 FEW028 19/11 Q1019 NOSIG=
201105160730 METAR LMML NIL=
201105160715 METAR LMML 160715Z 30019G29KT 260V330 9999 FEW029 19/11 Q1019
                        NOSIG=
201105160700 METAR LMML NIL=
201105160645 METAR LMML 160645Z 30017KT 270V330 9999 FEW023 18/11 Q1019
                        NOSIG=
201105160630 METAR LMML NIL=
201105160615 METAR LMML 160615Z 30017G28KT 270V330 9999 FEW023 18/11 Q1019
                        NOSIG=
201105160600 METAR LMML NIL=
201105160545 METAR LMML 160545Z 30016G29KT 240V330 9999 FEW023 17/11 Q1018
                        NOSIG=
201105160530 METAR LMML NIL=
201105160515 METAR LMML 160515Z 31018KT 9999 FEW020 17/11 Q1018 NOSIG=
201105160500 METAR LMML NIL=
201105160445 METAR LMML 160445Z 30018KT 9999 FEW018 16/11 Q1018 NOSIG=
201105160430 METAR LMML NIL=
201105160415 METAR LMML 160415Z 30017KT 9000 FEW014 16/12 Q1018 BECMG
                        9999=
201105160400 METAR LMML NIL=
201105160345 METAR LMML 160345Z 30018KT 9000 FEW014 16/12 Q1018 NOSIG=
201105160330 METAR LMML NIL=
201105160315 METAR LMML 160315Z 30017KT 9999 FEW014 16/13 Q1017 NOSIG=
201105160300 METAR LMML NIL=
201105160245 METAR LMML 160245Z 29015KT 260V320 9999 FEW014 16/13 Q1017
                        NOSIG=
201105160230 METAR LMML NIL=
201105160215 METAR LMML 160215Z 29011KT 260V330 9999 FEW013 16/14 Q1017
                        NOSIG=
201105160145 METAR LMML 160145Z 30012KT 9999 FEW013 16/14 Q1018 NOSIG=
201105160130 METAR LMML NIL=
201105160115 METAR LMML 160115Z 29010KT 260V330 9999 SCT013 17/15 Q1018
                        NOSIG=
201105160100 METAR LMML NIL=
201105160045 METAR LMML 160045Z 30011KT 270V330 9999 FEW013 17/15 Q1018
                        TEMPO 9000 BKN010=
201105160030 METAR LMML NIL=
201105160015 METAR LMML 160015Z 30009KT 270V330 9999 SCT012 17/15 Q1018
                        TEMPO 9000 BKN010=
201105160000 METAR LMML NIL=
201105152345 METAR LMML 152345Z 31007KT 9999 FEW010 17/15 Q1018 NOSIG=
201105152315 METAR LMML 152315Z 31008KT 280V340 9999 FEW010 BKN120 18/16
                        Q1018 NOSIG=
201105152300 METAR LMML NIL=
201105152245 METAR LMML 152245Z 29007KT 260V330 9999 BKN011 18/16 Q1018
                        TEMPO 9000=
201105152230 METAR LMML NIL=
201105152215 METAR LMML 152215Z 28004KT 220V340 9999 BKN011 18/16 Q1018
                        TEMPO 9000=
201105152200 METAR LMML NIL=
201105152145 METAR LMML 152145Z 28006KT 240V320 9999 FEW010 SCT120 18/16
                        Q1018 NOSIG=
201105152130 METAR LMML NIL=
201105152115 METAR LMML 152115Z 26007KT 240V300 9999 FEW011 SCT250 18/16
                        Q1018 NOSIG=
201105152100 METAR LMML NIL=
201105152045 METAR LMML 152045Z 24005KT 210V270 CAVOK 18/16 Q1018 NOSIG=
201105152030 METAR LMML NIL=
201105152015 METAR LMML 152015Z 24006KT 200V270 CAVOK 17/15 Q1018 NOSIG=
201105152000 METAR LMML NIL=
201105151945 METAR LMML 151945Z 24007KT 210V270 CAVOK 18/15 Q1018 NOSIG=
201105151930 METAR LMML NIL=
201105151915 METAR LMML 151915Z 22005KT 200V280 CAVOK 18/15 Q1017 NOSIG=
201105151900 METAR LMML NIL=
201105151845 METAR LMML 151845Z 20004KT 170V230 CAVOK 18/14 Q1017 NOSIG=
201105151830 METAR LMML NIL=
201105151815 METAR LMML 151815Z 22003KT CAVOK 18/13 Q1017 NOSIG=
201105151800 METAR LMML NIL=
201105151745 METAR LMML 151745Z 22003KT CAVOK 19/12 Q1017 NOSIG=
201105151730 METAR LMML NIL=
201105151715 METAR LMML 151715Z 23004KT 190V270 CAVOK 20/11 Q1017 NOSIG=
201105151700 METAR LMML NIL=
201105151645 METAR LMML 151645Z 23004KT 190V270 CAVOK 21/10 Q1017 NOSIG=
201105151615 METAR LMML 151615Z 23005KT 200V280 CAVOK 21/10 Q1017 NOSIG=
201105151600 METAR LMML NIL=
201105151545 METAR LMML 151545Z 20005KT 160V270 CAVOK 22/11 Q1017 NOSIG=
201105151515 METAR LMML 151515Z 21006KT 170V260 CAVOK 22/10 Q1017 NOSIG=
201105151445 METAR LMML 151445Z 19005KT 120V260 CAVOK 22/11 Q1017 NOSIG=
201105151430 METAR LMML NIL=
201105151415 METAR LMML 151415Z 20006KT 160V250 CAVOK 22/08 Q1017 NOSIG=
201105151400 METAR LMML NIL=
201105151345 METAR LMML 151345Z 20006KT 160V260 CAVOK 22/11 Q1017 NOSIG=
201105151330 METAR LMML NIL=
201105151315 METAR LMML 151315Z 21008KT 160V270 CAVOK 22/09 Q1017 NOSIG=
201105151300 METAR LMML NIL=
201105151245 METAR LMML 151245Z 20008KT 170V250 CAVOK 22/12 Q1017 NOSIG=
201105151230 METAR LMML NIL=
201105151215 METAR LMML 151215Z 18008KT 150V220 CAVOK 22/12 Q1017 NOSIG=
201105151145 METAR LMML 151145Z 18008KT 160V220 CAVOK 22/09 Q1017 NOSIG=
201105151115 METAR LMML 151115Z 19007KT 130V240 CAVOK 23/11 Q1017 NOSIG=
201105151045 METAR LMML 151045Z 19008KT 170V230 CAVOK 22/10 Q1017 NOSIG=
201105151030 METAR LMML NIL=
201105151015 METAR LMML 151015Z 19008KT 160V230 CAVOK 22/09 Q1018 NOSIG=
201105151000 METAR LMML NIL=
201105150945 METAR LMML 150945Z 20007KT 160V270 CAVOK 22/10 Q1018 NOSIG=
201105150915 METAR LMML 150915Z 20008KT 180V250 CAVOK 21/10 Q1018 NOSIG=
201105150845 METAR LMML 150845Z 18008KT 140V200 CAVOK 21/11 Q1017 NOSIG=
201105150830 METAR LMML NIL=
201105150815 METAR LMML 150815Z 18008KT 160V220 CAVOK 21/12 Q1018 NOSIG=
201105150800 METAR LMML NIL=
201105150745 METAR LMML 150745Z 18006KT 150V220 CAVOK 21/11 Q1017 NOSIG=
201105150730 METAR LMML NIL=
201105150715 METAR LMML 150715Z 20007KT 170V250 CAVOK 20/11 Q1018 NOSIG=
201105150700 METAR LMML NIL=
201105150645 METAR LMML 150645Z 20004KT 160V270 CAVOK 20/13 Q1018 NOSIG=
201105150630 METAR LMML NIL=
201105150615 METAR LMML 150615Z 20004KT 140V270 CAVOK 19/13 Q1018 NOSIG=
201105150545 METAR LMML 150545Z 19003KT CAVOK 17/16 Q1017 NOSIG=
201105150530 METAR LMML NIL=
201105150515 METAR LMML 150515Z VRB02KT CAVOK 17/16 Q1017 NOSIG=
201105150445 METAR LMML 150445Z 20003KT CAVOK 16/16 Q1017 NOSIG=
201105150430 METAR LMML NIL=
201105150415 METAR LMML 150415Z 19003KT CAVOK 15/15 Q1017 TEMPO 5000 BR=
201105150400 METAR LMML NIL=
201105150345 METAR LMML 150345Z 20003KT CAVOK 16/15 Q1017 TEMPO 5000 BR=
201105150330 METAR LMML NIL=
201105150315 METAR LMML 150315Z 20004KT CAVOK 15/15 Q1017 TEMPO 5000 BR=
201105150300 METAR LMML NIL=
201105150245 METAR LMML 150245Z 21003KT CAVOK 15/14 Q1017 TEMPO 5000 BR=
201105150230 METAR LMML NIL=
201105150215 METAR LMML 150215Z VRB02KT CAVOK 14/14 Q1017 TEMPO 5000 BR=
201105150200 METAR LMML NIL=
201105150145 METAR LMML 150145Z VRB02KT CAVOK 16/15 Q1017 TEMPO 6000 NSC=
201105150130 METAR LMML NIL=
201105150115 METAR LMML 150115Z VRB02KT CAVOK 16/14 Q1017 TEMPO 6000 NSC=
201105150100 METAR LMML NIL=
201105150045 METAR LMML 150045Z VRB01KT CAVOK 15/11 Q1017 NOSIG=
201105150030 METAR LMML NIL=
201105150015 METAR LMML 150015Z VRB01KT CAVOK 15/09 Q1017 NOSIG=
201105142345 METAR LMML 142345Z VRB01KT CAVOK 15/09 Q1018 NOSIG=
201105142330 METAR LMML NIL=
201105142315 METAR LMML 142315Z VRB02KT CAVOK 16/10 Q1018 NOSIG=
201105142300 METAR LMML NIL=
201105142245 METAR LMML 142245Z VRB02KT CAVOK 16/11 Q1018 NOSIG=
201105142230 METAR LMML NIL=
201105142215 METAR LMML 142215Z VRB02KT CAVOK 16/12 Q1018 NOSIG=
201105142200 METAR LMML NIL=
201105142145 METAR LMML 142145Z VRB01KT CAVOK 16/10 Q1018 NOSIG=
201105142130 METAR LMML NIL=
201105142115 METAR LMML 142115Z VRB01KT CAVOK 17/11 Q1018 NOSIG=
201105142100 METAR LMML NIL=
201105142045 METAR LMML 142045Z VRB02KT CAVOK 17/11 Q1018 NOSIG=
201105142030 METAR LMML NIL=
201105142015 METAR LMML 142015Z 20003KT CAVOK 17/13 Q1018 NOSIG=
201105142000 METAR LMML NIL=
201105141945 METAR LMML 141945Z VRB02KT CAVOK 17/15 Q1018 NOSIG=
201105141930 METAR LMML NIL=
201105141915 METAR LMML 141915Z VRB02KT CAVOK 17/15 Q1018 NOSIG=
201105141900 METAR LMML NIL=
201105141845 METAR LMML 141845Z 21003KT CAVOK 18/16 Q1018 NOSIG=
201105141830 METAR LMML NIL=
201105141815 METAR LMML 141815Z 19003KT CAVOK 18/15 Q1018 NOSIG=
201105141800 METAR LMML NIL=
201105141745 METAR LMML 141745Z VRB02KT CAVOK 20/13 Q1018 NOSIG=
201105141730 METAR LMML NIL=
201105141715 METAR LMML 141715Z 21003KT CAVOK 20/12 Q1018 NOSIG=
201105141700 METAR LMML NIL=
201105141645 METAR LMML 141645Z 21006KT 170V250 CAVOK 21/12 Q1018 NOSIG=
201105141630 METAR LMML NIL=
201105141615 METAR LMML 141615Z 20006KT 170V250 CAVOK 22/08 Q1018 NOSIG=
201105141600 METAR LMML NIL=
201105141545 METAR LMML 141545Z 21006KT 180V260 CAVOK 22/07 Q1018 NOSIG=
201105141530 METAR LMML NIL=
201105141515 METAR LMML 141515Z 21006KT 180V250 CAVOK 22/08 Q1018 NOSIG=
201105141500 METAR LMML NIL=
201105141445 METAR LMML 141445Z 21007KT 170V270 CAVOK 23/09 Q1018 NOSIG=
201105141430 METAR LMML NIL=
201105141415 METAR LMML 141415Z 21005KT 170V270 CAVOK 24/05 Q1018 NOSIG=
201105141400 METAR LMML NIL=
201105141345 METAR LMML 141345Z 22006KT 170V260 CAVOK 24/05 Q1018 NOSIG=
201105141315 METAR LMML 141315Z 21006KT 160V260 CAVOK 24/03 Q1019 NOSIG=
201105141300 METAR LMML NIL=
201105141245 METAR LMML 141245Z 21006KT 160V280 CAVOK 24/03 Q1019 NOSIG=
201105141230 METAR LMML NIL=
201105141215 METAR LMML 141215Z 22006KT 180V270 CAVOK 24/05 Q1019 NOSIG=
201105141200 METAR LMML NIL=
201105141145 METAR LMML 141145Z 20007KT 180V240 CAVOK 24/05 Q1019 NOSIG=
201105141130 METAR LMML NIL=
201105141115 METAR LMML 141115Z 19006KT 160V230 CAVOK 24/06 Q1020 NOSIG=
201105141100 METAR LMML NIL=
201105141045 METAR LMML 141045Z 18006KT 150V230 CAVOK 24/05 Q1020 NOSIG=
201105141030 METAR LMML NIL=
201105141015 METAR LMML 141015Z 20005KT 160V260 CAVOK 24/07 Q1020 NOSIG
                        RMK STRATUS BANK TO SOUTH=
201105140945 METAR LMML 140945Z 21007KT 160V260 9999 FEW005 SCT250 23/06
                        Q1020 NOSIG=
201105140930 METAR LMML NIL=
201105140915 METAR LMML 140915Z 22007KT 170V280 9999 FEW005 SCT250 23/08
                        Q1020 NOSIG RMK STRATUS BANK TO SOUTH=
201105140845 METAR LMML 140845Z 21006KT 170V290 9999 FEW005 SCT250 22/11
                        Q1020 NOSIG RMK STRATUS BANK TO SOUTH=
201105140830 METAR LMML NIL=
201105140815 METAR LMML 140815Z 23006KT 200V260 9999 FEW005 SCT250 23/05
                        Q1020 NOSIG RMK STRATUS BANK TO SOUTH=
201105140800 METAR LMML NIL=
201105140745 METAR LMML 140745Z 22006KT 200V270 CAVOK 22/05 Q1020 NOSIG=
201105140730 METAR LMML NIL=
201105140715 METAR LMML 140715Z 22005KT 190V260 CAVOK 23/05 Q1020 NOSIG=
201105140700 METAR LMML NIL=
201105140645 METAR LMML 140645Z 22003KT CAVOK 22/05 Q1020 NOSIG=
201105140630 METAR LMML NIL=
201105140615 METAR LMML 140615Z 23004KT 200V260 CAVOK 20/07 Q1020 NOSIG
                        RMK DISTANT STRATUS BANK TO SOUTH=
201105140600 METAR LMML NIL=
201105140545 METAR LMML 140545Z 22004KT CAVOK 19/10 Q1020 NOSIG RMK DISTANT
                        STRATUS BANK TO SOUTH=
201105140530 METAR LMML NIL=
201105140515 METAR LMML 140515Z 20004KT CAVOK 17/15 Q1020 NOSIG RMK DISTANT
                        STRATUS BANK TO SOUTH=
201105140500 METAR LMML NIL=
201105140445 METAR LMML 140445Z 21003KT CAVOK 16/14 Q1019 NOSIG=
201105140430 METAR LMML NIL=
201105140415 METAR LMML 140415Z 21005KT CAVOK 16/13 Q1019 NOSIG=
201105140400 METAR LMML NIL=
201105140345 METAR LMML 140345Z 21006KT CAVOK 16/11 Q1019 NOSIG=
201105140330 METAR LMML NIL=
201105140315 METAR LMML 140315Z 22005KT CAVOK 15/10 Q1019 NOSIG=
201105140300 METAR LMML NIL=
201105140245 METAR LMML 140245Z 23003KT CAVOK 16/10 Q1019 NOSIG=
201105140230 METAR LMML NIL=
201105140215 METAR LMML 140215Z 22003KT CAVOK 16/10 Q1019 NOSIG=
201105140200 METAR LMML NIL=
201105140145 METAR LMML 140145Z 22004KT 8000 NSC 16/14 Q1019 NOSIG=
201105140130 METAR LMML NIL=
201105140115 METAR LMML 140115Z 19003KT 8000 NSC 16/14 Q1019 NOSIG=
201105140100 METAR LMML NIL=
201105140045 METAR LMML 140045Z VRB01KT 8000 NSC 15/14 Q1019 NOSIG=
201105140030 METAR LMML NIL=
201105140015 METAR LMML 140015Z 00000KT 8000 NSC 15/14 Q1019 NOSIG=
201105140000 METAR LMML NIL=
201105132345 METAR LMML 132345Z VRB01KT 8000 NSC 15/14 Q1020 NOSIG=
201105132330 METAR LMML NIL=
201105132315 METAR LMML 132315Z VRB02KT 8000 NSC 16/14 Q1020 NOSIG=
201105132300 METAR LMML NIL=
201105132245 METAR LMML 132245Z VRB02KT 8000 NSC 17/15 Q1020 NOSIG=
201105132230 METAR LMML NIL=
201105132215 METAR LMML 132215Z VRB01KT 9000 NSC 16/15 Q1021 NOSIG=
201105132200 METAR LMML NIL=
201105132145 METAR LMML 132145Z VRB02KT 9000 NSC 17/15 Q1021 NOSIG=
201105132130 METAR LMML NIL=
201105132115 METAR LMML 132115Z VRB01KT 9000 NSC 17/15 Q1021 NOSIG=
201105132100 METAR LMML NIL=
201105132045 METAR LMML 132045Z VRB01KT 9000 NSC 17/16 Q1021 NOSIG=
201105132030 METAR LMML NIL=
201105132015 METAR LMML 132015Z VRB01KT 9000 NSC 18/16 Q1021 NOSIG=
201105131945 METAR LMML 131945Z VRB02KT CAVOK 18/16 Q1021 NOSIG=
201105131930 METAR LMML NIL=
201105131915 METAR LMML 131915Z VRB02KT CAVOK 19/15 Q1021 NOSIG=
201105131900 METAR LMML NIL=
201105131845 METAR LMML 131845Z VRB01KT CAVOK 19/14 Q1021 NOSIG=
201105131830 METAR LMML NIL=
201105131815 METAR LMML 131815Z VRB01KT CAVOK 19/13 Q1021 NOSIG=
201105131800 METAR LMML NIL=
201105131745 METAR LMML 131745Z 16004KT 110V200 CAVOK 20/13 Q1020 NOSIG=
201105131730 METAR LMML NIL=
201105131715 METAR LMML 131715Z 15003KT CAVOK 21/14 Q1020 NOSIG=
201105131645 METAR LMML 131645Z 14004KT 100V190 CAVOK 22/13 Q1020 NOSIG=
201105131630 METAR LMML NIL=
201105131615 METAR LMML 131615Z 13003KT CAVOK 23/13 Q1020 NOSIG=
201105131600 METAR LMML NIL=
201105131545 METAR LMML 131545Z VRB02KT 9999 FEW025 24/13 Q1020 NOSIG=
201105131530 METAR LMML NIL=
201105131515 METAR LMML 131515Z 01004KT 330V040 9999 FEW025 24/12 Q1020
                        NOSIG=
201105131500 METAR LMML NIL=
201105131445 METAR LMML 131445Z 06003KT 9999 FEW025 24/12 Q1020 NOSIG=
201105131430 METAR LMML NIL=
201105131415 METAR LMML 131415Z 04004KT 340V090 9999 FEW025 24/13 Q1020
                        NOSIG=
201105131345 METAR LMML 131345Z 02005KT 320V070 9999 FEW025 25/13 Q1020
                        NOSIG=
201105131315 METAR LMML 131315Z 04005KT 360V100 9999 FEW025 25/11 Q1020
                        NOSIG=
201105131300 METAR LMML NIL=
201105131245 METAR LMML 131245Z 01007KT 330V050 9999 FEW025 25/11 Q1020
                        NOSIG=
201105131215 METAR LMML 131215Z 29004KT 9999 FEW025 26/06 Q1020 NOSIG=
201105131145 METAR LMML 131145Z 15006KT 070V250 9999 FEW025 25/05 Q1020
                        NOSIG=
201105131130 METAR LMML NIL=
201105131115 METAR LMML 131115Z 14005KT 090V220 9999 FEW025 25/05 Q1020
                        NOSIG=
201105131100 METAR LMML NIL=
201105131045 METAR LMML 131045Z 14003KT 9999 FEW025 25/05 Q1020 NOSIG=
201105131030 METAR LMML NIL=
201105131015 METAR LMML 131015Z 14005KT 090V240 9999 FEW025 25/06 Q1020
                        NOSIG=
201105131000 METAR LMML NIL=
201105130945 METAR LMML 130945Z 12003KT 9999 FEW025 25/08 Q1020 NOSIG=
201105130930 METAR LMML NIL=
201105130915 METAR LMML 130915Z 05003KT CAVOK 24/10 Q1020 NOSIG=
201105130845 METAR LMML 130845Z VRB02KT CAVOK 23/14 Q1020 NOSIG=
201105130830 METAR LMML NIL=
201105130815 METAR LMML 130815Z 19004KT 110V250 CAVOK 21/15 Q1020 NOSIG=
201105130800 METAR LMML NIL=
201105130745 METAR LMML 130745Z VRB02KT CAVOK 22/13 Q1020 NOSIG=
201105130730 METAR LMML NIL=
201105130715 METAR LMML 130715Z VRB02KT CAVOK 21/09 Q1020 NOSIG=
201105130700 METAR LMML NIL=
201105130645 METAR LMML 130645Z VRB02KT CAVOK 20/12 Q1019 NOSIG=
201105130630 METAR LMML NIL=
201105130615 METAR LMML 130615Z 04003KT CAVOK 19/13 Q1019 NOSIG=
201105130600 METAR LMML NIL=
201105130545 METAR LMML 130545Z VRB02KT 8000 NSC 17/15 Q1019 BECMG CAVOK=
201105130530 METAR LMML NIL=
201105130515 METAR LMML 130515Z VRB01KT 8000 NSC 16/15 Q1019 BECMG CAVOK=
201105130445 METAR LMML 130445Z 20003KT 8000 NSC 15/14 Q1019 BECMG CAVOK=
201105130430 METAR LMML NIL=
201105130415 METAR LMML 130415Z 27003KT 8000 NSC 14/14 Q1018 BECMG CAVOK=
201105130345 METAR LMML 130345Z VRB02KT 9000 NSC 14/13 Q1018 BECMG CAVOK=
201105130330 METAR LMML NIL=
201105130315 METAR LMML 130315Z 32003KT CAVOK 14/13 Q1018 NOSIG=
201105130300 METAR LMML NIL=
201105130245 METAR LMML 130245Z 32003KT CAVOK 14/13 Q1018 NOSIG=
201105130230 METAR LMML NIL=
201105130215 METAR LMML 130215Z 31004KT 250V340 CAVOK 15/12 Q1017 NOSIG=
201105130200 METAR LMML NIL=
201105130145 METAR LMML 130145Z 29003KT CAVOK 15/12 Q1017 NOSIG=
201105130115 METAR LMML 130115Z 33003KT CAVOK 15/12 Q1017 NOSIG=
201105130045 METAR LMML 130045Z 32004KT CAVOK 15/12 Q1017 NOSIG=
201105130015 METAR LMML 130015Z VRB01KT CAVOK 15/13 Q1017 NOSIG=
201105122345 METAR LMML 122345Z 31007KT CAVOK 16/13 Q1018 NOSIG=
201105122330 METAR LMML NIL=
201105122315 METAR LMML 122315Z 32006KT 290V350 CAVOK 16/12 Q1018 NOSIG=
201105122245 METAR LMML 122245Z 36003KT CAVOK 16/12 Q1018 NOSIG=
201105122230 METAR LMML NIL=
201105122215 METAR LMML 122215Z 29009KT 250V320 CAVOK 17/12 Q1018 NOSIG=
201105122200 METAR LMML NIL=
201105122145 METAR LMML 122145Z 31006KT 260V350 CAVOK 17/11 Q1018 NOSIG=
201105122130 METAR LMML NIL=
201105122115 METAR LMML 122115Z 30007KT 270V330 CAVOK 17/11 Q1018 NOSIG=
201105122100 METAR LMML NIL=
201105122045 METAR LMML 122045Z 29011KT 260V320 CAVOK 17/11 Q1018 NOSIG=
201105122030 METAR LMML NIL=
201105122015 METAR LMML 122015Z 29012KT CAVOK 17/11 Q1018 NOSIG=
201105122000 METAR LMML NIL=
201105121945 METAR LMML 121945Z 29010KT CAVOK 17/10 Q1018 NOSIG=
201105121915 METAR LMML 121915Z 29011KT 9999 FEW015 17/10 Q1018 NOSIG=
201105121900 METAR LMML NIL=
201105121845 METAR LMML 121845Z 29014KT 9999 FEW015 17/11 Q1018 NOSIG=
201105121830 METAR LMML NIL=
201105121815 METAR LMML 121815Z 28013KT 250V320 CAVOK 17/11 Q1017 NOSIG=
201105121800 METAR LMML NIL=
201105121745 METAR LMML 121745Z 28014KT CAVOK 18/10 Q1017 NOSIG=
201105121730 METAR LMML NIL=
201105121715 METAR LMML 121715Z 29012KT CAVOK 19/09 Q1017 NOSIG=
201105121645 METAR LMML 121645Z 30012KT 270V330 CAVOK 20/07 Q1017 NOSIG=
201105121630 METAR LMML NIL=
201105121615 METAR LMML 121615Z 29011KT 260V340 CAVOK 21/07 Q1017 NOSIG=
201105121545 METAR LMML 121545Z 29012KT 260V320 CAVOK 22/07 Q1017 NOSIG=
201105121530 METAR LMML NIL=
201105121515 METAR LMML 121515Z 29013KT CAVOK 22/07 Q1017 NOSIG=
201105121500 METAR LMML NIL=
201105121445 METAR LMML 121445Z 29017KT 260V320 CAVOK 22/07 Q1017 NOSIG=
201105121430 METAR LMML NIL=
201105121415 METAR LMML 121415Z 29013KT 250V320 CAVOK 22/10 Q1017 NOSIG=
201105121400 METAR LMML NIL=
201105121345 METAR LMML 121345Z 30013KT 250V330 CAVOK 22/09 Q1017 NOSIG=
201105121330 METAR LMML NIL=
201105121315 METAR LMML 121315Z 29013KT 250V330 CAVOK 22/10 Q1017 NOSIG=
201105121300 METAR LMML NIL=
201105121245 METAR LMML 121245Z 30014KT 260V330 CAVOK 22/11 Q1017 NOSIG=
201105121230 METAR LMML NIL=
201105121215 METAR LMML 121215Z 29012KT 250V320 CAVOK 22/11 Q1018 NOSIG=
201105121200 METAR LMML NIL=
201105121145 METAR LMML 121145Z 29014KT 260V320 CAVOK 22/10 Q1018 NOSIG=
201105121130 METAR LMML NIL=
201105121115 METAR LMML 121115Z 29015KT 250V320 9999 FEW020 22/10 Q1018
                        NOSIG=
201105121100 METAR LMML NIL=
201105121045 METAR LMML 121045Z 29014KT 250V320 9999 FEW020 22/12 Q1018
                        NOSIG=
201105121030 METAR LMML NIL=
201105121015 METAR LMML 121015Z 28014KT CAVOK 23/11 Q1018 NOSIG=
201105120945 METAR LMML 120945Z 28010KT 240V320 CAVOK 23/11 Q1018 NOSIG=
201105120930 METAR LMML NIL=
201105120915 METAR LMML 120915Z 28013KT 230V300 9999 FEW020 22/11 Q1018
                        NOSIG=
201105120900 METAR LMML NIL=
201105120845 METAR LMML 120845Z 29012KT 250V320 9999 FEW020 23/05 Q1018
                        NOSIG=
201105120830 METAR LMML NIL=
201105120815 METAR LMML 120815Z 30011KT 270V330 CAVOK 22/09 Q1018 NOSIG=
201105120745 METAR LMML 120745Z 31010KT CAVOK 21/12 Q1018 NOSIG=
201105120730 METAR LMML NIL=
201105120715 METAR LMML 120715Z 32008KT 290V360 9999 FEW020 21/12 Q1018
                        NOSIG=
201105120700 METAR LMML NIL=
201105120645 METAR LMML 120645Z 31008KT 9999 FEW020 19/11 Q1018 NOSIG=
201105120630 METAR LMML NIL=
201105120615 METAR LMML 120615Z 30006KT 9999 FEW020 18/13 Q1017 NOSIG=
201105120545 METAR LMML 120545Z 31004KT 9999 FEW020 17/12 Q1017 NOSIG=
201105120530 METAR LMML NIL=
201105120515 METAR LMML 120515Z 25003KT 9999 FEW020 16/13 Q1017 NOSIG=
201105120445 METAR LMML 120445Z 25005KT 220V280 9999 FEW020 15/13 Q1017
                        NOSIG=
201105120415 METAR LMML 120415Z 28006KT CAVOK 15/13 Q1017 NOSIG=
201105120400 METAR LMML NIL=
201105120345 METAR LMML 120345Z 31006KT CAVOK 15/13 Q1017 NOSIG=
201105120330 METAR LMML NIL=
201105120315 METAR LMML 120315Z 29008KT CAVOK 15/14 Q1017 NOSIG=
201105120300 METAR LMML NIL=
201105120245 METAR LMML 120245Z 29008KT CAVOK 15/14 Q1017 NOSIG=
201105120230 METAR LMML NIL=
201105120215 METAR LMML 120215Z 29007KT 250V330 CAVOK 15/13 Q1017 NOSIG=
201105120200 METAR LMML NIL=
201105120145 METAR LMML 120145Z 29007KT CAVOK 15/13 Q1017 NOSIG=
201105120130 METAR LMML NIL=
201105120115 METAR LMML 120115Z 30008KT CAVOK 16/11 Q1017 NOSIG=
201105120100 METAR LMML NIL=
201105120045 METAR LMML 120045Z 29006KT 260V320 CAVOK 16/11 Q1018 NOSIG=
201105120030 METAR LMML NIL=
201105120015 METAR LMML 120015Z 31007KT CAVOK 15/09 Q1018 NOSIG=
201105120000 METAR LMML NIL=
201105112345 METAR LMML 112345Z 31007KT CAVOK 16/08 Q1018 NOSIG=
201105112330 METAR LMML NIL=
201105112315 METAR LMML 112315Z 30007KT CAVOK 16/10 Q1018 NOSIG=
201105112300 METAR LMML NIL=
201105112245 METAR LMML 112245Z 31008KT CAVOK 16/11 Q1018 NOSIG=
201105112230 METAR LMML NIL=
201105112215 METAR LMML 112215Z 31009KT CAVOK 17/12 Q1019 NOSIG=
201105112200 METAR LMML NIL=
201105112145 METAR LMML 112145Z 30010KT CAVOK 17/12 Q1019 NOSIG=
201105112130 METAR LMML NIL=
201105112115 METAR LMML 112115Z 30010KT CAVOK 17/13 Q1019 NOSIG=
201105112100 METAR LMML NIL=
201105112045 METAR LMML 112045Z 30011KT CAVOK 17/13 Q1018 NOSIG=
201105112030 METAR LMML NIL=
201105112015 METAR LMML 112015Z 29011KT 260V320 CAVOK 17/12 Q1018 NOSIG=
201105112000 METAR LMML NIL=
201105111945 METAR LMML 111945Z 29011KT 270V330 CAVOK 17/12 Q1018 NOSIG=
201105111930 METAR LMML NIL=
201105111915 METAR LMML 111915Z 29010KT CAVOK 17/12 Q1018 NOSIG=
201105111845 METAR LMML 111845Z 29010KT CAVOK 17/12 Q1018 NOSIG=
201105111830 METAR LMML NIL=
201105111815 METAR LMML 111815Z 29010KT 260V320 CAVOK 18/12 Q1018 NOSIG=
201105111800 METAR LMML NIL=
201105111745 METAR LMML 111745Z 29010KT 260V320 CAVOK 19/11 Q1018 NOSIG=
201105111730 METAR LMML NIL=
201105111715 METAR LMML 111715Z 29011KT CAVOK 19/11 Q1018 NOSIG=
201105111700 METAR LMML NIL=
201105111645 METAR LMML 111645Z 30012KT 270V330 CAVOK 20/11 Q1018 NOSIG=
201105111630 METAR LMML NIL=
201105111615 METAR LMML 111615Z 30014KT 270V330 CAVOK 21/11 Q1018 NOSIG=
201105111600 METAR LMML NIL=
201105111545 METAR LMML 111545Z 30015KT CAVOK 21/11 Q1018 NOSIG=
201105111530 METAR LMML NIL=
201105111515 METAR LMML 111515Z 29013KT 260V320 CAVOK 22/09 Q1018 NOSIG=
201105111500 METAR LMML NIL=
201105111445 METAR LMML 111445Z 29013KT CAVOK 22/09 Q1018 NOSIG=
201105111430 METAR LMML NIL=
201105111415 METAR LMML 111415Z 30014KT CAVOK 23/08 Q1018 NOSIG=
201105111400 METAR LMML NIL=
201105111345 METAR LMML 111345Z 31013KT 270V340 CAVOK 23/08 Q1018 NOSIG=
201105111330 METAR LMML NIL=
201105111315 METAR LMML 111315Z 32012KT 280V340 CAVOK 23/07 Q1018 NOSIG=
201105111300 METAR LMML NIL=
201105111245 METAR LMML 111245Z 29014KT 260V330 CAVOK 23/07 Q1019 NOSIG=
201105111230 METAR LMML NIL=
201105111215 METAR LMML 111215Z 34011KT 310V010 CAVOK 23/06 Q1019 NOSIG=
201105111200 METAR LMML NIL=
201105111145 METAR LMML 111145Z 33010KT 290V010 CAVOK 24/04 Q1019 NOSIG=
201105111130 METAR LMML NIL=
201105111115 METAR LMML 111115Z 33012KT 300V010 CAVOK 23/03 Q1019 NOSIG=
201105111100 METAR LMML NIL=
201105111045 METAR LMML 111045Z 33011KT 290V360 CAVOK 22/04 Q1019 NOSIG=
201105111030 METAR LMML NIL=
201105111015 METAR LMML 111015Z 33011KT 290V360 CAVOK 22/07 Q1020 NOSIG=
201105111000 METAR LMML NIL=
201105110945 METAR LMML 110945Z 33011KT 300V010 CAVOK 21/08 Q1020 NOSIG=
201105110930 METAR LMML NIL=
201105110915 METAR LMML 110915Z 33009KT 290V010 CAVOK 22/06 Q1020 NOSIG=
201105110900 METAR LMML NIL=
201105110845 METAR LMML 110845Z 34010KT 300V010 CAVOK 21/07 Q1020 NOSIG=
201105110830 METAR LMML NIL=
201105110815 METAR LMML 110815Z 34011KT CAVOK 20/09 Q1020 NOSIG=
201105110800 METAR LMML NIL=
201105110745 METAR LMML 110745Z 34011KT CAVOK 19/08 Q1020 NOSIG=
201105110730 METAR LMML NIL=
201105110715 METAR LMML 110715Z 34010KT CAVOK 19/10 Q1020 NOSIG=
201105110700 METAR LMML NIL=
201105110645 METAR LMML 110645Z 33009KT 290V350 CAVOK 18/11 Q1020 NOSIG=
201105110630 METAR LMML NIL=
201105110615 METAR LMML 110615Z 32008KT CAVOK 18/12 Q1020 NOSIG=
201105110600 METAR LMML NIL=
201105110545 METAR LMML 110545Z 32007KT CAVOK 16/13 Q1019 NOSIG=
201105110530 METAR LMML NIL=
201105110515 METAR LMML 110515Z 31007KT CAVOK 15/13 Q1019 NOSIG=
201105110500 METAR LMML NIL=
201105110445 METAR LMML 110445Z 30007KT CAVOK 14/12 Q1019 NOSIG=
201105110430 METAR LMML NIL=
201105110415 METAR LMML 110415Z 31007KT CAVOK 14/12 Q1019 NOSIG=
201105110400 METAR LMML NIL=
201105110345 METAR LMML 110345Z 31006KT CAVOK 14/12 Q1019 NOSIG=
201105110330 METAR LMML NIL=
201105110315 METAR LMML 110315Z 30005KT CAVOK 14/11 Q1019 NOSIG=
201105110300 METAR LMML NIL=
201105110245 METAR LMML 110245Z 32005KT 290V350 CAVOK 14/11 Q1019 NOSIG=
201105110230 METAR LMML NIL=
201105110215 METAR LMML 110215Z 32005KT CAVOK 14/12 Q1019 NOSIG=
201105110200 METAR LMML NIL=
201105110145 METAR LMML 110145Z 29004KT 240V330 CAVOK 14/11 Q1019 NOSIG=
201105110130 METAR LMML NIL=
201105110115 METAR LMML 110115Z 32004KT CAVOK 13/11 Q1019 NOSIG=
201105110100 METAR LMML NIL=
201105110045 METAR LMML 110045Z 31005KT CAVOK 14/11 Q1019 NOSIG=
201105110030 METAR LMML NIL=
201105110015 METAR LMML 110015Z 32004KT CAVOK 14/10 Q1019 NOSIG=
201105110000 METAR LMML NIL=
201105102345 METAR LMML 102345Z 34006KT CAVOK 15/10 Q1020 NOSIG=
201105102330 METAR LMML NIL=
201105102315 METAR LMML 102315Z 34006KT CAVOK 15/11 Q1020 NOSIG=
201105102300 METAR LMML NIL=
201105102245 METAR LMML 102245Z 35005KT CAVOK 15/10 Q1020 NOSIG=
201105102230 METAR LMML NIL=
201105102215 METAR LMML 102215Z 35008KT CAVOK 15/10 Q1020 NOSIG=
201105102200 METAR LMML NIL=
201105102145 METAR LMML 102145Z 35007KT CAVOK 15/10 Q1020 NOSIG=
201105102130 METAR LMML NIL=
201105102115 METAR LMML 102115Z 01007KT CAVOK 15/10 Q1020 TEMPO 8000 SHRA=
201105102100 METAR LMML NIL=
201105102045 METAR LMML 102045Z 02007KT CAVOK 16/10 Q1020 TEMPO 8000 SHRA=
201105102030 METAR LMML NIL=
201105102015 METAR LMML 102015Z 03007KT 360V070 CAVOK 16/10 Q1020 TEMPO
                        8000 SHRA=
201105102000 METAR LMML NIL=
201105101945 METAR LMML 101945Z 03010KT 350V060 CAVOK 16/09 Q1020 TEMPO
                        8000 SHRA=
201105101930 METAR LMML NIL=
201105101915 METAR LMML 101915Z 03012KT 360V060 CAVOK 16/10 Q1019 TEMPO
                        8000 SHRA=
201105101900 METAR LMML NIL=
201105101845 METAR LMML 101845Z 02011KT CAVOK 16/09 Q1019 TEMPO 8000 SHRA=
201105101830 METAR LMML NIL=
201105101815 METAR LMML 101815Z 02012KT 350V060 9999 FEW030 BKN080 16/10
                        Q1019 NOSIG=
201105101800 METAR LMML NIL=
201105101745 METAR LMML 101745Z 01011G22KT 340V040 9999 FEW030 SCT080
                        16/09 Q1019 NOSIG=
201105101730 METAR LMML NIL=
201105101715 METAR LMML 101715Z 02014G25KT 350V050 9999 FEW030 SCT080
                        17/10 Q1018 NOSIG=
201105101700 METAR LMML NIL=
201105101645 METAR LMML 101645Z 01015KT 350V050 9999 FEW030 18/10 Q1018
                        NOSIG=
201105101630 METAR LMML NIL=
201105101615 METAR LMML 101615Z 02014KT 9999 FEW030 18/10 Q1018 NOSIG=
201105101600 METAR LMML NIL=
201105101545 METAR LMML 101545Z 02013KT 360V060 9999 FEW030 19/10 Q1018
                        NOSIG=
201105101530 METAR LMML NIL=
201105101515 METAR LMML 101515Z 03013G24KT 360V060 9999 FEW035 SCT060
                        19/11 Q1018 NOSIG=
201105101500 METAR LMML NIL=
201105101445 METAR LMML 101445Z 03015G26KT 350V070 9999 FEW035 SCT060
                        19/10 Q1018 NOSIG=
201105101430 METAR LMML NIL=
201105101415 METAR LMML 101415Z 03016KT 350V060 9999 FEW035 SCT060 19/10
                        Q1017 NOSIG=
201105101400 METAR LMML NIL=
201105101345 METAR LMML 101345Z 01016KT 330V030 9999 FEW035 SCT060 20/10
                        Q1018 NOSIG=
201105101330 METAR LMML NIL=
201105101315 METAR LMML 101315Z 35013KT 9999 FEW035 BKN060 18/09 Q1017
                        NOSIG=
201105101300 METAR LMML NIL=
201105101245 METAR LMML 101245Z 35015KT 330V030 9999 SCT030 BKN060 18/08
                        Q1017 NOSIG=
201105101230 METAR LMML NIL=
201105101215 METAR LMML 101215Z 35014KT 320V030 9999 FEW030 BKN060 19/07
                        Q1017 NOSIG=
201105101200 METAR LMML NIL=
201105101145 METAR LMML 101145Z 35013KT 310V020 9999 FEW030 BKN060 18/07
                        Q1018 NOSIG=
201105101130 METAR LMML NIL=
201105101115 METAR LMML 101115Z 34015KT 300V010 9999 FEW030 SCT070 19/08
                        Q1018 NOSIG=
201105101045 METAR LMML 101045Z 35016KT 320V030 9999 FEW035 18/07 Q1017
                        NOSIG=
201105101030 METAR LMML NIL=
201105101015 METAR LMML 101015Z 35016KT 310V020 9999 FEW035 18/07 Q1018
                        NOSIG=
201105101000 METAR LMML NIL=
201105100945 METAR LMML 100945Z 35015G26KT 300V010 9999 FEW033 18/07 Q1018
                        NOSIG=
201105100930 METAR LMML NIL=
201105100915 METAR LMML 100915Z 35015KT 320V020 9999 FEW034 17/07 Q1018
                        NOSIG=
201105100900 METAR LMML NIL=
201105100845 METAR LMML 100845Z 34017KT 9999 SCT033 16/07 Q1017 NOSIG=
201105100830 METAR LMML NIL=
201105100815 METAR LMML 100815Z 34015KT 300V010 9999 SCT037 17/07 Q1017
                        NOSIG=
201105100800 METAR LMML NIL=
201105100745 METAR LMML 100745Z 34015KT 320V020 9999 FEW037 16/06 Q1017
                        NOSIG=
201105100730 METAR LMML NIL=
201105100715 METAR LMML 100715Z 34012KT 310V010 9999 FEW033 16/08 Q1017
                        NOSIG=
201105100700 METAR LMML NIL=
201105100645 METAR LMML 100645Z 34014KT 9999 FEW034 16/07 Q1017 NOSIG=
201105100630 METAR LMML NIL=
201105100615 METAR LMML 100615Z 35014KT 9999 FEW037 16/07 Q1016 NOSIG=
201105100600 METAR LMML NIL=
201105100545 METAR LMML 100545Z 35013KT 310V010 9999 FEW038 15/06 Q1016
                        NOSIG=
201105100530 METAR LMML NIL=
201105100515 METAR LMML 100515Z 34013KT 310V010 9999 SCT039 15/06 Q1016
                        NOSIG=
201105100500 METAR LMML NIL=
201105100445 METAR LMML 100445Z 33012KT 9999 FEW036 14/06 Q1016 NOSIG=
201105100430 METAR LMML NIL=
201105100415 METAR LMML 100415Z 33010KT 9999 FEW036 14/07 Q1016 TEMPO
                        SHRA RMK CB TOPS NNE=
201105100400 METAR LMML NIL=
201105100345 METAR COR LMML 100345Z 34010KT 9999 FEW036 14/07 Q1016 TEMPO
                        SHRA RMK CB TOPS TO NNE=
201105100330 METAR LMML NIL=
201105100315 METAR LMML 100315Z 33010KT 300V360 9999 FEW036 14/07 Q1016
                        TEMPO SHRA=
201105100300 METAR LMML NIL=
201105100245 METAR LMML 100245Z 34012KT 9999 FEW029 14/07 Q1016 TEMPO
                        SHRA=
201105100230 METAR LMML NIL=
201105100215 METAR LMML 100215Z 35010KT 9999 FEW029 14/07 Q1016 NOSIG=
201105100200 METAR LMML NIL=
201105100145 METAR LMML 100145Z 34010KT 9999 FEW029 14/08 Q1016 NOSIG=
201105100130 METAR LMML NIL=
201105100115 METAR LMML 100115Z 36007KT 330V040 9999 SCT025 14/10 Q1016
                        NOSIG=
201105100100 METAR LMML NIL=
201105100045 METAR LMML 100045Z 01007KT 9999 SCT031 14/09 Q1016 TEMPO
                        8000 BKN008=
201105100030 METAR LMML NIL=
201105100015 METAR LMML 100015Z 01010KT 9999 SCT030 14/10 Q1016 TEMPO
                        8000 BKN008=
201105100000 METAR LMML NIL=
201105092345 METAR LMML 092345Z 03010KT 9999 SCT026 14/10 Q1016 TEMPO
                        8000 BKN008=
201105092330 METAR LMML NIL=
201105092315 METAR LMML 092315Z 03009KT 360V070 9999 BKN024 15/10 Q1016
                        TEMPO 8000 BKN008=
201105092300 METAR LMML NIL=
201105092245 METAR LMML 092245Z 04012KT 010V070 9999 SCT012 BKN018 15/11
                        Q1016 TEMPO 8000 BKN008=
201105092230 METAR LMML NIL=
201105092215 METAR LMML 092215Z 04012KT 360V080 9999 BKN011 SCT016 15/12
                        Q1016 TEMPO 8000 BKN008=
201105092200 METAR LMML NIL=
201105092145 METAR LMML 092145Z 03014KT 010V080 9999 SCT010 SCT015 15/13
                        Q1015 TEMPO 8000 BKN008=
201105092130 METAR LMML NIL=
201105092115 METAR LMML 092115Z 36008KT 330V040 9999 FEW020 16/14 Q1015
                        NOSIG=
201105092100 METAR LMML NIL=
201105092045 METAR LMML 092045Z 32005KT 9999 FEW020 16/14 Q1015 NOSIG=
201105092030 METAR LMML NIL=
201105092015 METAR LMML 092015Z 25006KT 220V280 9999 FEW020 16/14 Q1015
                        NOSIG=
201105092000 METAR LMML NIL=
201105091945 METAR LMML 091945Z 25006KT 190V280 9999 FEW020 16/14 Q1015
                        NOSIG=
201105091930 METAR LMML NIL=
201105091915 METAR LMML 091915Z 29007KT 9999 FEW020 16/14 Q1015 NOSIG=
201105091900 METAR LMML NIL=
201105091845 METAR LMML 091845Z 29007KT 9999 FEW020 16/13 Q1015 NOSIG=
201105091815 METAR LMML 091815Z 28007KT 250V310 9999 FEW020 17/13 Q1014
                        NOSIG=
201105091800 METAR LMML NIL=
201105091745 METAR LMML 091745Z 28008KT 260V320 9999 FEW020 17/13 Q1015
                        NOSIG=
201105091730 METAR LMML NIL=
201105091715 METAR LMML 091715Z 29008KT 9999 FEW025 18/13 Q1015 NOSIG=
201105091700 METAR LMML NIL=
201105091645 METAR LMML 091645Z 28012KT 9999 FEW025 18/13 Q1015 NOSIG=
201105091630 METAR LMML NIL=
201105091615 METAR LMML 091615Z 29011KT 260V320 9999 FEW025 19/12 Q1015
                        NOSIG=
201105091600 METAR LMML NIL=
201105091545 METAR LMML 091545Z 28011KT 230V310 9999 FEW025 19/13 Q1015
                        NOSIG=
201105091530 METAR LMML NIL=
201105091515 METAR LMML 091515Z 29010KT 250V330 9999 FEW028 20/13 Q1015
                        NOSIG=
201105091500 METAR LMML NIL=
201105091445 METAR LMML 091445Z 27010KT 220V320 9999 FEW024 20/12 Q1015
                        NOSIG=
201105091430 METAR LMML NIL=
201105091415 METAR LMML 091415Z 30011KT 260V320 9999 FEW025 21/12 Q1015
                        NOSIG=
201105091400 METAR LMML NIL=
201105091345 METAR LMML 091345Z 29011KT 260V320 9999 FEW025 21/11 Q1015
                        NOSIG=
201105091330 METAR LMML NIL=
201105091315 METAR LMML 091315Z 28011KT 240V320 9999 FEW025 21/09 Q1016
                        NOSIG=
201105091300 METAR LMML NIL=
201105091245 METAR LMML 091245Z 28012KT 240V300 9999 FEW025 21/11 Q1016
                        NOSIG=
201105091230 METAR LMML NIL=
201105091215 METAR LMML 091215Z 28009KT 230V320 9999 FEW025 21/11 Q1016
                        NOSIG=
201105091200 METAR LMML NIL=
201105091145 METAR LMML 091145Z 27010KT 190V310 9999 FEW024 20/12 Q1016
                        NOSIG=
201105091130 METAR LMML NIL=
201105091115 METAR LMML 091115Z 28010KT 220V340 9999 SCT024 21/13 Q1016
                        NOSIG=
201105091100 METAR LMML NIL=
201105091045 METAR LMML 091045Z 27010KT 210V320 9999 SCT028 21/12 Q1016
                        NOSIG=
201105091030 METAR LMML NIL=
201105091015 METAR LMML 091015Z 31010KT 270V340 9999 FEW033 21/08 Q1016
                        NOSIG=
201105091000 METAR LMML NIL=
201105090945 METAR LMML 090945Z 27007KT 220V350 9999 FEW033 21/11 Q1016
                        NOSIG=
201105090930 METAR LMML NIL=
201105090915 METAR LMML 090915Z 26006KT 210V320 9999 FEW020 21/05 Q1016
                        NOSIG=
201105090900 METAR LMML NIL=
201105090845 METAR LMML 090845Z 28006KT 230V340 9999 FEW020 21/04 Q1016
                        NOSIG=
201105090830 METAR LMML NIL=
201105090815 METAR LMML 090815Z 28007KT 240V320 9999 FEW020 20/08 Q1016
                        NOSIG=
201105090800 METAR LMML NIL=
201105090745 METAR LMML 090745Z 30007KT 250V360 9999 FEW020 19/07 Q1016
                        NOSIG=
201105090730 METAR LMML NIL=
201105090715 METAR LMML 090715Z 31006KT 280V340 9999 FEW020 19/09 Q1017
                        NOSIG=
201105090700 METAR LMML NIL=
201105090645 METAR LMML 090645Z 31007KT 9999 FEW020 18/08 Q1017 NOSIG=
201105090630 METAR LMML NIL=
201105090615 METAR LMML 090615Z 29004KT 240V330 9999 FEW020 17/12 Q1016
                        NOSIG=
201105090600 METAR LMML NIL=
201105090545 METAR LMML 090545Z VRB02KT 9999 FEW020 16/12 Q1016 NOSIG=
201105090530 METAR LMML NIL=
201105090515 METAR LMML 090515Z 29003KT 9999 FEW020 SCT250 15/12 Q1016
                        NOSIG=
201105090500 METAR LMML NIL=
201105090445 METAR LMML 090445Z VRB02KT CAVOK 13/11 Q1016 NOSIG=
201105090430 METAR LMML NIL=
201105090415 METAR LMML 090415Z VRB02KT CAVOK 14/11 Q1016 NOSIG=
201105090400 METAR LMML NIL=
201105090345 METAR LMML 090345Z VRB02KT CAVOK 14/11 Q1016 NOSIG=
201105090330 METAR LMML NIL=
201105090315 METAR LMML 090315Z VRB02KT CAVOK 15/11 Q1016 NOSIG=
201105090245 METAR LMML 090245Z VRB02KT CAVOK 15/11 Q1016 NOSIG=
201105090230 METAR LMML NIL=
201105090215 METAR LMML 090215Z VRB02KT CAVOK 14/11 Q1016 NOSIG=
201105090200 METAR LMML NIL=
201105090145 METAR LMML 090145Z 29003KT CAVOK 15/11 Q1017 NOSIG=
201105090130 METAR LMML NIL=
201105090115 METAR LMML 090115Z 29003KT CAVOK 15/11 Q1017 NOSIG=
201105090100 METAR LMML NIL=
201105090045 METAR LMML 090045Z 29003KT CAVOK 15/10 Q1017 NOSIG=
201105090030 METAR LMML NIL=
201105090015 METAR LMML 090015Z 28004KT CAVOK 14/10 Q1017 NOSIG=
201105090000 METAR LMML NIL=
201105082345 METAR LMML 082345Z VRB02KT CAVOK 14/10 Q1018 NOSIG=
201105082315 METAR LMML 082315Z 26003KT CAVOK 14/10 Q1018 NOSIG=
201105082300 METAR LMML NIL=
201105082245 METAR LMML 082245Z VRB01KT CAVOK 14/10 Q1018 NOSIG=
201105082215 METAR LMML 082215Z VRB02KT CAVOK 15/10 Q1018 NOSIG=
201105082200 METAR LMML NIL=
201105082145 METAR LMML 082145Z 20003KT CAVOK 14/10 Q1018 NOSIG=
201105082115 METAR LMML 082115Z VRB02KT CAVOK 15/10 Q1018 NOSIG=
201105082045 METAR LMML 082045Z VRB02KT CAVOK 15/10 Q1018 NOSIG=
201105082030 METAR LMML NIL=
201105082015 METAR LMML 082015Z 18003KT CAVOK 15/10 Q1018 NOSIG=
201105082000 METAR LMML NIL=
201105081945 METAR LMML 081945Z 16003KT CAVOK 15/10 Q1017 NOSIG=
201105081930 METAR LMML NIL=
201105081915 METAR LMML 081915Z VRB01KT CAVOK 15/10 Q1017 NOSIG=
201105081845 METAR LMML 081845Z VRB01KT CAVOK 16/10 Q1017 NOSIG=
201105081830 METAR LMML NIL=
201105081815 METAR LMML 081815Z VRB02KT CAVOK 16/10 Q1018 NOSIG=
201105081800 METAR LMML NIL=
201105081745 METAR LMML 081745Z 21003KT CAVOK 16/10 Q1017 NOSIG=
201105081730 METAR LMML NIL=
201105081715 METAR LMML 081715Z 20003KT CAVOK 17/09 Q1017 NOSIG=
201105081700 METAR LMML NIL=
201105081645 METAR LMML 081645Z 21004KT 160V250 CAVOK 18/09 Q1017 NOSIG=
201105081630 METAR LMML NIL=
201105081615 METAR LMML 081615Z 21005KT 170V260 CAVOK 18/08 Q1017 NOSIG=
201105081600 METAR LMML NIL=
201105081545 METAR LMML 081545Z 21006KT 170V270 CAVOK 19/10 Q1017 NOSIG=
201105081530 METAR LMML NIL=
201105081515 METAR LMML 081515Z 22006KT 180V280 9999 FEW030 20/09 Q1017
                        NOSIG=
201105081500 METAR LMML NIL=
201105081445 METAR LMML 081445Z 21004KT 140V300 9999 FEW030 20/09 Q1018
                        NOSIG=
201105081430 METAR LMML NIL=
201105081415 METAR LMML 081415Z 20005KT 130V270 9999 FEW030 20/08 Q1018
                        NOSIG=
201105081400 METAR LMML NIL=
201105081345 METAR LMML 081345Z 20005KT 130V250 9999 FEW030 20/09 Q1018
                        NOSIG=
201105081330 METAR LMML NIL=
201105081315 METAR LMML 081315Z 22006KT 180V270 9999 FEW030 19/09 Q1018
                        NOSIG=
201105081300 METAR LMML NIL=
201105081245 METAR LMML 081245Z 20006KT 160V260 9999 FEW030 20/09 Q1019
                        NOSIG=
201105081230 METAR LMML NIL=
201105081215 METAR LMML 081215Z 19006KT 140V230 9999 FEW030 19/09 Q1019
                        NOSIG=
201105081200 METAR LMML NIL=
201105081145 METAR LMML 081145Z 21006KT 160V280 9999 FEW030 SCT250 19/11
                        Q1019 NOSIG=
201105081130 METAR LMML NIL=
201105081115 METAR LMML 081115Z 22006KT 160V270 9999 FEW025 SCT250 19/11
                        Q1019 NOSIG=
201105081100 METAR LMML NIL=
201105081045 METAR LMML 081045Z 20005KT 160V280 9999 FEW025 BKN250 19/12
                        Q1019 NOSIG=
201105081030 METAR LMML NIL=
201105081015 METAR LMML 081015Z 21006KT 160V270 9999 FEW025 BKN250 19/12
                        Q1019 NOSIG=
201105081000 METAR LMML NIL=
201105080945 METAR LMML 080945Z 20005KT 150V250 9999 FEW025 BKN250 18/11
                        Q1019 NOSIG=
201105080930 METAR LMML NIL=
201105080915 METAR LMML 080915Z 22005KT 160V280 CAVOK 18/11 Q1020 NOSIG=
201105080900 METAR LMML NIL=
201105080845 METAR LMML 080845Z 18005KT 160V260 9999 FEW020 BKN250 18/11
                        Q1020 NOSIG=
201105080830 METAR LMML NIL=
201105080815 METAR LMML 080815Z 20004KT 120V260 CAVOK 18/11 Q1020 NOSIG=
201105080800 METAR LMML NIL=
201105080745 METAR LMML 080745Z 19004KT 150V260 CAVOK 18/10 Q1020 NOSIG=
201105080730 METAR LMML NIL=
201105080715 METAR LMML 080715Z 18004KT 150V220 CAVOK 17/10 Q1020 NOSIG=
201105080700 METAR LMML NIL=
201105080645 METAR LMML 080645Z 20003KT CAVOK 17/11 Q1020 NOSIG=
201105080630 METAR LMML NIL=
201105080615 METAR LMML 080615Z VRB02KT CAVOK 16/11 Q1020 NOSIG=
201105080600 METAR LMML NIL=
201105080545 METAR LMML 080545Z VRB02KT CAVOK 15/11 Q1020 NOSIG=
201105080530 METAR LMML NIL=
201105080515 METAR LMML 080515Z VRB02KT CAVOK 13/11 Q1020 NOSIG=
201105080500 METAR LMML NIL=
201105080445 METAR LMML 080445Z VRB02KT CAVOK 13/11 Q1020 NOSIG=
201105080430 METAR LMML NIL=
201105080415 METAR LMML 080415Z VRB01KT CAVOK 11/10 Q1020 NOSIG=
201105080400 METAR LMML NIL=
201105080345 METAR LMML 080345Z VRB02KT CAVOK 12/10 Q1020 NOSIG=
201105080330 METAR LMML NIL=
201105080315 METAR LMML 080315Z VRB01KT CAVOK 12/10 Q1020 NOSIG=
201105080300 METAR LMML NIL=
201105080245 METAR LMML 080245Z VRB01KT CAVOK 12/10 Q1020 NOSIG=
201105080215 METAR LMML 080215Z VRB01KT CAVOK 12/11 Q1020 NOSIG=
201105080200 METAR LMML NIL=
201105080145 METAR LMML 080145Z VRB01KT CAVOK 13/11 Q1020 NOSIG=
201105080130 METAR LMML NIL=
201105080115 METAR LMML 080115Z VRB01KT CAVOK 13/11 Q1021 NOSIG=
201105080100 METAR LMML NIL=
201105080045 METAR LMML 080045Z 00000KT CAVOK 12/10 Q1021 NOSIG=
201105080030 METAR LMML NIL=
201105080015 METAR LMML 080015Z VRB01KT CAVOK 13/11 Q1021 NOSIG=
201105080000 METAR LMML NIL=
201105072345 METAR LMML 072345Z VRB01KT CAVOK 12/10 Q1021 NOSIG=
201105072330 METAR LMML NIL=
201105072315 METAR LMML 072315Z VRB01KT CAVOK 13/10 Q1022 NOSIG=
201105072300 METAR LMML NIL=
201105072245 METAR LMML 072245Z VRB02KT CAVOK 14/11 Q1022 NOSIG=
201105072230 METAR LMML NIL=
201105072215 METAR LMML 072215Z VRB02KT CAVOK 14/11 Q1022 NOSIG=
201105072200 METAR LMML NIL=
201105072145 METAR LMML 072145Z VRB02KT CAVOK 14/11 Q1022 NOSIG=
201105072130 METAR LMML NIL=
201105072115 METAR LMML 072115Z VRB01KT CAVOK 14/11 Q1022 NOSIG=
201105072100 METAR LMML NIL=
201105072045 METAR LMML 072045Z VRB01KT CAVOK 15/10 Q1022 NOSIG=
201105072030 METAR LMML NIL=
201105072015 METAR LMML 072015Z 17003KT CAVOK 15/11 Q1022 NOSIG=
201105072000 METAR LMML NIL=
201105071945 METAR LMML 071945Z VRB02KT CAVOK 15/10 Q1022 NOSIG=
201105071930 METAR LMML NIL=
201105071915 METAR LMML 071915Z VRB02KT CAVOK 15/10 Q1022 NOSIG=
201105071900 METAR LMML NIL=
201105071845 METAR LMML 071845Z VRB02KT CAVOK 16/10 Q1022 NOSIG=
201105071830 METAR LMML NIL=
201105071815 METAR LMML 071815Z 17003KT CAVOK 16/10 Q1022 NOSIG=
201105071800 METAR LMML NIL=
201105071745 METAR LMML 071745Z VRB02KT CAVOK 16/10 Q1022 NOSIG=
201105071730 METAR LMML NIL=
201105071715 METAR LMML 071715Z 17003KT CAVOK 17/10 Q1022 NOSIG=
201105071700 METAR LMML NIL=
201105071645 METAR LMML 071645Z 18003KT 9999 FEW030 SCT250 17/10 Q1022
                        NOSIG=
201105071630 METAR LMML NIL=
201105071615 METAR LMML 071615Z 18005KT 140V230 9999 FEW030 18/10 Q1022
                        NOSIG=
201105071600 METAR LMML NIL=
201105071545 METAR LMML 071545Z 18005KT 110V230 9999 FEW030 18/10 Q1022
                        NOSIG=
201105071530 METAR LMML NIL=
201105071515 METAR LMML 071515Z 17005KT 120V210 9999 FEW030 18/09 Q1022
                        NOSIG=
201105071500 METAR LMML NIL=
201105071445 METAR LMML 071445Z 17006KT 120V210 9999 FEW030 19/10 Q1023
                        NOSIG=
201105071430 METAR LMML NIL=
201105071415 METAR LMML 071415Z 18006KT 100V230 9999 FEW030 20/09 Q1023
                        NOSIG=
201105071400 METAR LMML NIL=
201105071345 METAR LMML 071345Z 17007KT 110V220 9999 FEW030 19/08 Q1023
                        NOSIG=
201105071330 METAR LMML NIL=
201105071315 METAR LMML 071315Z 16007KT 120V210 9999 FEW030 19/09 Q1023
                        NOSIG=
201105071300 METAR LMML NIL=
201105071245 METAR LMML 071245Z 17008KT 130V210 9999 FEW030 20/08 Q1024
                        NOSIG=
201105071230 METAR LMML NIL=
201105071215 METAR LMML 071215Z 16007KT 110V200 9999 FEW030 20/08 Q1024
                        NOSIG=
201105071200 METAR LMML NIL=
201105071145 METAR LMML 071145Z 14008KT 080V190 9999 FEW030 20/10 Q1024
                        NOSIG=
201105071130 METAR LMML NIL=
201105071115 METAR LMML 071115Z 13008KT 080V180 9999 FEW030 20/09 Q1024
                        NOSIG=
201105071100 METAR LMML NIL=
201105071045 METAR LMML 071045Z 14009KT 110V170 9999 FEW030 20/07 Q1024
                        NOSIG=
201105071030 METAR LMML NIL=
201105071015 METAR LMML 071015Z 11010KT 080V140 9999 FEW030 20/04 Q1024
                        NOSIG=
201105071000 METAR LMML NIL=
201105070945 METAR LMML 070945Z 13010KT 100V160 CAVOK 20/06 Q1025 NOSIG=
201105070930 METAR LMML NIL=
201105070915 METAR LMML 070915Z 12008KT 080V170 CAVOK 20/06 Q1025 NOSIG=
201105070900 METAR LMML NIL=
201105070845 METAR LMML 070845Z 13007KT 090V170 CAVOK 19/06 Q1025 NOSIG=
201105070830 METAR LMML NIL=
201105070815 METAR LMML 070815Z 13006KT 090V160 CAVOK 19/07 Q1025 NOSIG=
201105070800 METAR LMML NIL=
201105070745 METAR LMML 070745Z 12007KT 080V140 CAVOK 19/06 Q1025 NOSIG=
201105070730 METAR LMML NIL=
201105070715 METAR LMML 070715Z 11007KT 070V130 CAVOK 18/11 Q1025 NOSIG=
201105070700 METAR LMML NIL=
201105070645 METAR LMML 070645Z 12006KT 080V160 CAVOK 17/11 Q1025 NOSIG=
201105070630 METAR LMML NIL=
201105070615 METAR LMML 070615Z 11005KT 070V150 CAVOK 17/12 Q1025 NOSIG=
201105070600 METAR LMML NIL=
201105070545 METAR LMML 070545Z 09003KT CAVOK 16/13 Q1025 NOSIG=
201105070530 METAR LMML NIL=
201105070515 METAR LMML 070515Z 09003KT CAVOK 15/13 Q1025 NOSIG=
201105070500 METAR LMML NIL=
201105070445 METAR LMML 070445Z 08003KT CAVOK 14/12 Q1024 NOSIG=
201105070430 METAR LMML NIL=
201105070415 METAR LMML 070415Z 08004KT 9999 FEW020 13/12 Q1024 TEMPO
                        5000 BR=
201105070400 METAR LMML NIL=
201105070345 METAR LMML 070345Z 09003KT CAVOK 13/11 Q1024 TEMPO 5000 BR=
201105070330 METAR LMML NIL=
201105070315 METAR LMML 070315Z 08003KT CAVOK 13/11 Q1024 TEMPO 5000 BR=
201105070300 METAR LMML NIL=
201105070245 METAR LMML 070245Z 06003KT CAVOK 12/11 Q1024 TEMPO 5000 BR=
201105070230 METAR LMML NIL=
201105070215 METAR LMML 070215Z VRB01KT CAVOK 12/11 Q1025 NOSIG=
201105070200 METAR LMML NIL=
201105070145 METAR LMML 070145Z VRB01KT CAVOK 12/11 Q1025 NOSIG=
201105070130 METAR LMML NIL=
201105070115 METAR LMML 070115Z VRB02KT CAVOK 14/11 Q1025 NOSIG=
201105070100 METAR LMML NIL=
201105070045 METAR LMML 070045Z 10003KT CAVOK 14/11 Q1025 NOSIG=
201105070030 METAR LMML NIL=
201105070015 METAR LMML 070015Z VRB02KT CAVOK 14/11 Q1025 NOSIG=
201105070000 METAR LMML NIL=
201105062345 METAR LMML 062345Z 10003KT CAVOK 14/11 Q1025 NOSIG=
201105062315 METAR LMML 062315Z 10003KT CAVOK 14/11 Q1025 NOSIG=
201105062300 METAR LMML NIL=
201105062245 METAR LMML 062245Z 10004KT CAVOK 14/11 Q1025 NOSIG=
201105062230 METAR LMML NIL=
201105062215 METAR LMML 062215Z 09004KT CAVOK 15/11 Q1025 NOSIG=
201105062145 METAR LMML 062145Z 09004KT CAVOK 15/11 Q1025 NOSIG=
201105062130 METAR LMML NIL=
201105062115 METAR LMML 062115Z 09003KT CAVOK 15/12 Q1025 NOSIG=
201105062100 METAR LMML NIL=
201105062045 METAR LMML 062045Z 12004KT CAVOK 14/11 Q1025 NOSIG=
201105062030 METAR LMML NIL=
201105062015 METAR LMML 062015Z 11004KT CAVOK 15/11 Q1025 NOSIG=
201105062000 METAR LMML NIL=
201105061945 METAR LMML 061945Z 10004KT CAVOK 15/11 Q1025 NOSIG=
201105061930 METAR LMML NIL=
201105061915 METAR LMML 061915Z 10006KT CAVOK 15/11 Q1025 NOSIG=
201105061900 METAR LMML NIL=
201105061845 METAR LMML 061845Z 12006KT CAVOK 15/11 Q1024 NOSIG=
201105061830 METAR LMML NIL=
201105061815 METAR LMML 061815Z 11007KT CAVOK 16/11 Q1024 NOSIG=
201105061800 METAR LMML NIL=
201105061745 METAR LMML 061745Z 11008KT 090V150 CAVOK 16/11 Q1024 NOSIG=
201105061715 METAR LMML 061715Z 12010KT CAVOK 17/11 Q1024 NOSIG=
201105061700 METAR LMML NIL=
201105061645 METAR LMML 061645Z 12010KT 080V150 CAVOK 18/12 Q1024 NOSIG=
201105061630 METAR LMML NIL=
201105061615 METAR LMML 061615Z 12010KT CAVOK 18/12 Q1024 NOSIG=
201105061600 METAR LMML NIL=
201105061545 METAR LMML 061545Z 12011KT 090V150 9999 FEW022 19/12 Q1024
                        NOSIG=
201105061530 METAR LMML NIL=
201105061515 METAR LMML 061515Z 11010KT 070V140 9999 FEW021 18/12 Q1024
                        NOSIG=
201105061500 METAR LMML NIL=
201105061445 METAR LMML 061445Z 11010KT 090V150 9999 SCT021 19/13 Q1024
                        NOSIG=
201105061415 METAR LMML 061415Z 12011KT 080V160 9999 SCT020 19/13 Q1024
                        NOSIG=
201105061400 METAR LMML NIL=
201105061345 METAR LMML 061345Z 12012KT 080V150 9999 SCT017 20/13 Q1024
                        NOSIG=
201105061315 METAR LMML 061315Z 10011KT 070V130 9999 SCT020 19/13 Q1024
                        NOSIG=
201105061300 METAR LMML NIL=
201105061245 METAR LMML 061245Z 10011KT 9999 SCT024 20/12 Q1024 NOSIG=
201105061230 METAR LMML NIL=
201105061215 METAR LMML 061215Z 10012KT 060V150 9999 FEW024 20/12 Q1024
                        NOSIG=
201105061200 METAR LMML NIL=
201105061145 METAR LMML 061145Z 10011KT 070V150 9999 FEW023 20/13 Q1024
                        NOSIG=
201105061130 METAR LMML NIL=
201105061115 METAR LMML 061115Z 12012KT 9999 FEW022 20/11 Q1024 NOSIG=
201105061100 METAR LMML NIL=
201105061045 METAR LMML 061045Z 11012KT 080V140 9999 FEW016 19/10 Q1024
                        NOSIG=
201105061030 METAR LMML NIL=
201105061015 METAR LMML 061015Z 11012KT 9999 FEW015 20/12 Q1024 NOSIG=
201105061000 METAR LMML NIL=
201105060945 METAR LMML 060945Z 12012KT 080V170 9999 FEW020 19/13 Q1024
                        NOSIG=
201105060930 METAR LMML NIL=
201105060915 METAR LMML 060915Z 12013KT 9999 FEW020 20/13 Q1024 NOSIG=
201105060900 METAR LMML NIL=
201105060845 METAR LMML 060845Z 12011KT 080V150 9999 SCT016 19/13 Q1024
                        NOSIG=
201105060830 METAR LMML NIL=
201105060815 METAR LMML 060815Z 12012KT 090V150 9999 SCT016 SCT038 18/13
                        Q1024 NOSIG=
201105060800 METAR LMML NIL=
201105060745 METAR LMML 060745Z 11010KT 070V150 9999 BKN014 SCT120 18/14
                        Q1024 NOSIG=
201105060730 METAR LMML NIL=
201105060715 METAR LMML 060715Z 12011KT 9999 SCT010 BKN014 17/14 Q1023
                        NOSIG=
201105060700 METAR LMML NIL=
201105060645 METAR LMML 060645Z 11008KT 080V150 9000 SCT011 BKN015 18/16
                        Q1023 BECMG 9999=
201105060630 METAR LMML NIL=
201105060615 METAR LMML 060615Z 11005KT 080V140 9000 SCT010 BKN015 16/15
                        Q1023 BECMG 9999=
201105060600 METAR LMML NIL=
201105060545 METAR LMML 060545Z 11004KT 070V140 9000 SCT012 BKN021 16/15
                        Q1022 BECMG 9999=
201105060530 METAR LMML NIL=
201105060515 METAR LMML 060515Z 10003KT 9000 FEW012 SCT120 16/14 Q1022
                        BECMG 9999=
201105060500 METAR LMML NIL=
201105060445 METAR LMML 060445Z VRB02KT 9000 SCT027 15/13 Q1022 NOSIG=
201105060430 METAR LMML NIL=
201105060415 METAR LMML 060415Z VRB02KT 9000 FEW015 SCT023 15/13 Q1022
                        NOSIG=
201105060400 METAR LMML NIL=
201105060345 METAR LMML 060345Z VRB02KT 9000 BKN021 15/13 Q1022 NOSIG=
201105060330 METAR LMML NIL=
201105060315 METAR LMML 060315Z 09003KT 9000 BKN020 15/14 Q1021 NOSIG=
201105060300 METAR LMML NIL=
201105060245 METAR LMML 060245Z VRB01KT 9000 SCT014 BKN020 14/14 Q1021
                        NOSIG=
201105060230 METAR LMML NIL=
201105060215 METAR LMML 060215Z 00000KT 9000 BKN017 14/14 Q1021 NOSIG=
201105060200 METAR LMML NIL=
201105060145 METAR LMML 060145Z 00000KT 9000 BKN014 14/14 Q1021 NOSIG=
201105060130 METAR LMML NIL=
201105060115 METAR LMML 060115Z VRB01KT 9999 BKN011 14/13 Q1021 TEMPO
                        BKN005=
201105060100 METAR LMML NIL=
201105060045 METAR LMML 060045Z VRB01KT 9999 BKN008 13/13 Q1021 TEMPO
                        BKN005=
201105060030 METAR LMML NIL=
201105060015 METAR LMML 060015Z VRB01KT 9999 FEW007 13/13 Q1021 TEMPO
                        BKN005=
201105060000 METAR LMML NIL=
201105052345 METAR LMML 052345Z 00000KT 9999 FEW007 13/12 Q1022 TEMPO
                        BKN005=
201105052330 METAR LMML NIL=
201105052315 METAR LMML 052315Z VRB01KT 9999 FEW008 13/13 Q1022 TEMPO
                        BKN005=
201105052300 METAR LMML NIL=
201105052245 METAR LMML 052245Z VRB01KT 9999 SCT008 14/13 Q1022 TEMPO
                        BKN005=
201105052230 METAR LMML NIL=
201105052215 METAR LMML 052215Z VRB01KT 9999 BKN008 14/13 Q1022 TEMPO
                        BKN008=
201105052200 METAR LMML NIL=
201105052145 METAR LMML 052145Z VRB01KT 9999 FEW009 14/13 Q1021 TEMPO
                        BKN008=
201105052130 METAR LMML NIL=
201105052115 METAR LMML 052115Z VRB02KT 9999 FEW010 15/13 Q1021 TEMPO
                        BKN008=
201105052100 METAR LMML NIL=
201105052045 METAR LMML 052045Z VRB01KT 9999 FEW010 15/13 Q1021 TEMPO
                        BKN008=
201105052030 METAR LMML NIL=
201105052015 METAR LMML 052015Z VRB01KT 9999 FEW009 15/13 Q1021 TEMPO
                        BKN008=
201105052000 METAR LMML NIL=
201105051945 METAR LMML 051945Z 29003KT 9999 FEW010 15/13 Q1021 NOSIG=
201105051930 METAR LMML NIL=
201105051915 METAR LMML 051915Z 30003KT 9999 SCT010 16/13 Q1020 NOSIG=
201105051900 METAR LMML NIL=
201105051845 METAR LMML 051845Z 30003KT 9999 FEW015 16/13 Q1020 NOSIG=
201105051830 METAR LMML NIL=
201105051815 METAR LMML 051815Z 32005KT 290V360 9999 FEW015 16/12 Q1019
                        NOSIG=
201105051800 METAR LMML NIL=
201105051745 METAR LMML 051745Z 32004KT 270V360 9999 FEW020 18/12 Q1019
                        NOSIG=
201105051730 METAR LMML NIL=
201105051715 METAR LMML 051715Z 31005KT 9999 FEW025 19/11 Q1019 NOSIG=
201105051700 METAR LMML NIL=
201105051645 METAR LMML 051645Z 31005KT 9999 FEW025 20/11 Q1019 NOSIG=
201105051630 METAR LMML NIL=
201105051615 METAR LMML 051615Z 30007KT 260V330 9999 FEW025 21/10 Q1019
                        NOSIG=
201105051545 METAR LMML 051545Z 29008KT 9999 FEW025 21/10 Q1019 NOSIG=
201105051530 METAR LMML NIL=
201105051515 METAR LMML 051515Z 30009KT 9999 FEW025 22/10 Q1019 NOSIG=
201105051500 METAR LMML NIL=
201105051445 METAR LMML 051445Z 31009KT 270V340 9999 FEW025 22/12 Q1019
                        NOSIG=
201105051430 METAR LMML NIL=
201105051415 METAR LMML 051415Z 30009KT 270V330 9999 FEW025 22/13 Q1019
                        NOSIG=
201105051400 METAR LMML NIL=
201105051345 METAR LMML 051345Z 28009KT 240V320 9999 FEW025 22/14 Q1019
                        NOSIG=
201105051330 METAR LMML NIL=
201105051315 METAR LMML 051315Z 32009KT 290V350 9999 FEW025 22/15 Q1019
                        NOSIG=
201105051300 METAR LMML NIL=
201105051245 METAR LMML 051245Z 30009KT 260V340 9999 FEW025 22/14 Q1019
                        NOSIG=
201105051230 METAR LMML NIL=
201105051215 METAR LMML 051215Z 32010KT 280V350 9999 FEW024 22/13 Q1019
                        NOSIG=
201105051200 METAR LMML NIL=
201105051145 METAR LMML 051145Z 31010KT 280V360 9999 FEW024 22/14 Q1019
                        NOSIG=
201105051130 METAR LMML NIL=
201105051115 METAR LMML 051115Z 31010KT 280V350 9999 FEW024 21/14 Q1018
                        NOSIG=
201105051100 METAR LMML NIL=
201105051045 METAR LMML 051045Z 29008KT 230V340 9999 FEW024 21/15 Q1018
                        NOSIG=
201105051030 METAR LMML NIL=
201105051015 METAR LMML 051015Z 29008KT 250V330 9999 FEW024 20/14 Q1018
                        NOSIG=
201105050945 METAR LMML 050945Z 31008KT 260V360 9999 FEW020 20/14 Q1018
                        NOSIG=
201105050930 METAR LMML NIL=
201105050915 METAR LMML 050915Z 29010KT 230V330 9999 FEW016 20/14 Q1018
                        NOSIG=
201105050900 METAR LMML NIL=
201105050845 METAR LMML 050845Z 31012KT 9999 FEW015 19/14 Q1018 NOSIG=
201105050830 METAR LMML NIL=
201105050815 METAR LMML 050815Z 30012KT 260V330 9999 FEW015 19/14 Q1018
                        NOSIG=
201105050800 METAR LMML NIL=
201105050745 METAR LMML 050745Z 29012KT 260V320 9999 FEW014 18/14 Q1018
                        NOSIG=
201105050730 METAR LMML NIL=
201105050715 METAR LMML 050715Z 29011KT 240V320 9999 FEW014 17/14 Q1017
                        NOSIG=
201105050700 METAR LMML NIL=
201105050645 METAR LMML 050645Z 29013KT 260V320 9999 FEW012 17/14 Q1017
                        NOSIG=
201105050630 METAR LMML NIL=
201105050615 METAR LMML 050615Z 30013KT 9999 SCT012 17/14 Q1017 NOSIG=
201105050545 METAR LMML 050545Z 30011KT 9999 FEW011 16/14 Q1017 NOSIG=
201105050530 METAR LMML NIL=
201105050515 METAR LMML 050515Z 31010KT 9000 SCT011 16/14 Q1016 BECMG
                        9999=
201105050500 METAR LMML NIL=
201105050445 METAR LMML 050445Z 31012KT 9000 SCT011 15/14 Q1016 NOSIG=
201105050415 METAR LMML 050415Z 30010KT 9999 BKN010 15/14 Q1016 NOSIG=
201105050345 METAR LMML 050345Z 31010KT 9999 FEW008 15/14 Q1016 TEMPO
                        BKN007=
201105050330 METAR LMML NIL=
201105050315 METAR LMML 050315Z 30011KT 9999 FEW008 15/14 Q1015 TEMPO
                        BKN007=
201105050300 METAR LMML NIL=
201105050245 METAR LMML 050245Z 30012KT 9999 FEW008 15/14 Q1015 TEMPO
                        BKN007=
201105050215 METAR LMML 050215Z 30014KT 9999 FEW008 15/14 Q1016 TEMPO
                        BKN007=
201105050115 METAR LMML 050115Z 29015KT 9999 FEW007 15/14 Q1016 TEMPO
                        BKN007=
201105050100 METAR LMML NIL=
201105050045 METAR LMML 050045Z 30012KT 9999 FEW007 15/14 Q1016 NOSIG=
201105050015 METAR LMML 050015Z 30013KT 270V330 9999 FEW015 15/14 Q1015
                        NOSIG=
201105050000 METAR LMML NIL=
201105042345 METAR LMML 042345Z 29014KT 260V320 9999 FEW015 15/14 Q1016
                        NOSIG=
201105042315 METAR LMML 042315Z 29013KT 9999 FEW015 15/14 Q1016 NOSIG=
201105042245 METAR LMML 042245Z 29015KT 9999 FEW015 15/14 Q1016 NOSIG=
201105042215 METAR LMML 042215Z 29015KT 260V320 9999 FEW015 16/14 Q1016
                        NOSIG=
201105042145 METAR LMML 042145Z 29015KT 270V330 9999 FEW015 16/14 Q1016
                        NOSIG=
201105042130 METAR LMML NIL=
201105042115 METAR LMML 042115Z 30012KT 9999 FEW015 16/14 Q1016 NOSIG=
201105042100 METAR LMML NIL=
201105042045 METAR LMML 042045Z 30017KT 9999 FEW015 16/14 Q1015 NOSIG=
201105042030 METAR LMML NIL=
201105042015 METAR LMML 042015Z 29013KT 260V320 9999 FEW015 16/14 Q1015
                        NOSIG=
201105041945 METAR LMML 041945Z 30017KT 9999 FEW015 16/14 Q1015 NOSIG=
201105041915 METAR LMML 041915Z 29015KT 9999 FEW015 16/14 Q1014 NOSIG=
201105041900 METAR LMML NIL=
201105041845 METAR LMML 041845Z 29016KT 9999 FEW015 16/14 Q1014 NOSIG=
201105041815 METAR LMML 041815Z 29016KT 9999 FEW015 16/14 Q1014 NOSIG=
201105041800 METAR LMML NIL=
201105041745 METAR LMML 041745Z 29014KT 260V320 9999 FEW015 16/14 Q1013
                        NOSIG=
201105041715 METAR LMML 041715Z 30016KT 260V320 9999 FEW015 17/14 Q1013
                        NOSIG=
201105041700 METAR LMML NIL=
201105041645 METAR LMML 041645Z 29019KT 260V320 9999 FEW015 17/14 Q1013
                        NOSIG=
201105041630 METAR LMML NIL=
201105041615 METAR LMML 041615Z 30021KT 9999 FEW015 18/14 Q1013 NOSIG=
201105041600 METAR LMML NIL=
201105041545 METAR LMML 041545Z 29021KT 9999 FEW015 18/14 Q1013 NOSIG=
201105041530 METAR LMML NIL=
201105041515 METAR LMML 041515Z 29019KT 260V320 9999 FEW015 19/14 Q1013
                        NOSIG=
201105041500 METAR LMML NIL=
201105041445 METAR LMML 041445Z 28022KT 9999 FEW015 19/14 Q1013 NOSIG=
201105041430 METAR LMML NIL=
201105041415 METAR LMML 041415Z 29024KT 9999 FEW015 19/13 Q1013 NOSIG=
201105041400 METAR LMML NIL=
201105041345 METAR LMML 041345Z 29021KT 9999 FEW015 19/14 Q1013 NOSIG=
201105041315 METAR LMML 041315Z 29022KT 260V320 9999 FEW015 19/14 Q1013
                        NOSIG=
201105041300 METAR LMML NIL=
201105041245 METAR LMML 041245Z 30021KT 260V330 9999 FEW017 19/14 Q1013
                        NOSIG=
201105041230 METAR LMML NIL=
201105041215 METAR LMML 041215Z 30022KT 9999 SCT019 20/14 Q1013 NOSIG=
201105041200 METAR LMML NIL=
201105041145 METAR LMML 041145Z 30023G33KT 9999 FEW016 SCT019 20/14 Q1013
                        NOSIG=
201105041115 METAR LMML 041115Z 30023KT 260V320 9999 BKN018 19/14 Q1013
                        NOSIG=
201105041100 METAR LMML NIL=
201105041045 METAR LMML 041045Z 29020KT 260V330 9999 BKN018 20/14 Q1013
                        NOSIG=
201105041030 METAR LMML NIL=
201105041015 METAR LMML 041015Z 29021KT 9999 SCT017 19/14 Q1013 NOSIG=
201105041000 METAR LMML NIL=
201105040945 METAR LMML 040945Z 29019KT 260V330 9999 SCT018 20/14 Q1013
                        NOSIG=
201105040930 METAR LMML NIL=
201105040915 METAR LMML 040915Z 29021KT 260V320 9999 SCT018 19/14 Q1013
                        NOSIG=
201105040900 METAR LMML NIL=
201105040845 METAR LMML 040845Z 28023KT 9999 SCT018 18/13 Q1013 NOSIG=
201105040830 METAR LMML NIL=
201105040815 METAR LMML 040815Z 30017G27KT 260V330 9999 BKN017 18/13 Q1013
                        NOSIG=
201105040800 METAR LMML NIL=
201105040745 METAR LMML 040745Z 29018KT 260V320 9999 BKN017 17/13 Q1012
                        NOSIG=
201105040730 METAR LMML NIL=
201105040715 METAR LMML 040715Z 30019KT 9999 BKN015 17/13 Q1012 NOSIG=
201105040700 METAR LMML NIL=
201105040645 METAR LMML 040645Z 29018KT 260V320 9000 BKN014 17/14 Q1011
                        BECMG BKN015=
201105040630 METAR LMML NIL=
201105040615 METAR LMML 040615Z 30018KT 8000 BKN014 16/14 Q1011 BECMG
                        BKN015=
201105040600 METAR LMML NIL=
201105040545 METAR LMML 040545Z 30017KT 260V330 8000 BKN012 16/14 Q1011
                        BECMG BKN015=
201105040530 METAR LMML NIL=
201105040515 METAR LMML 040515Z 29016KT 260V320 8000 BKN011 16/14 Q1010
                        BECMG BKN011=
201105040500 METAR LMML NIL=
201105040445 METAR LMML 040445Z 29019KT 9999 SCT011 16/14 Q1010 BECMG
                        BKN011=
201105040430 METAR LMML NIL=
201105040415 METAR LMML 040415Z 29016KT 270V330 9999 SCT011 16/14 Q1010
                        BECMG BKN011=
201105040400 METAR LMML NIL=
201105040345 METAR LMML 040345Z 29017KT 9999 FEW010 16/14 Q1009 NOSIG=
201105040330 METAR LMML NIL=
201105040315 METAR LMML 040315Z 29019KT 250V310 9999 FEW012 16/14 Q1009
                        NOSIG=
201105040300 METAR LMML NIL=
201105040245 METAR LMML 040245Z 29017KT 9999 FEW011 16/14 Q1009 NOSIG=
201105040230 METAR LMML NIL=
201105040215 METAR LMML 040215Z 30014KT 270V330 9999 SCT011 SCT120 16/14
                        Q1009 NOSIG=
201105040200 METAR LMML NIL=
201105040145 METAR LMML 040145Z 31014KT 9999 SCT011 SCT120 16/14 Q1009
                        NOSIG=
201105040130 METAR LMML NIL=
201105040115 METAR LMML 040115Z 31015KT 9999 SCT012 SCT120 16/14 Q1009
                        NOSIG=
201105040100 METAR LMML NIL=
201105040045 METAR LMML 040045Z 30015KT 250V320 9999 SCT012 SCT120 16/14
                        Q1010 NOSIG=
201105040030 METAR LMML NIL=
201105040015 METAR LMML 040015Z 29014KT 260V320 9999 SCT012 SCT120 16/14
                        Q1010 NOSIG=
201105032345 METAR LMML 032345Z 29013KT 9999 SCT014 SCT120 16/14 Q1010
                        NOSIG=
201105032330 METAR LMML NIL=
201105032315 METAR LMML 032315Z 28012KT 9999 FEW012 SCT120 16/14 Q1010
                        NOSIG=
201105032300 METAR LMML NIL=
201105032245 METAR LMML 032245Z 28011KT 250V310 9999 FEW011 SCT120 16/15
                        Q1010 NOSIG=
201105032230 METAR LMML NIL=
201105032215 METAR LMML 032215Z 28010KT 9999 FEW011 SCT120 16/15 Q1010
                        NOSIG=
201105032200 METAR LMML NIL=
201105032145 METAR LMML 032145Z 28009KT 220V320 CAVOK 16/15 Q1010 NOSIG=
201105032130 METAR LMML NIL=
201105032115 METAR LMML 032115Z 28009KT CAVOK 16/14 Q1010 NOSIG=
201105032100 METAR LMML NIL=
201105032045 METAR LMML 032045Z 29008KT 260V320 CAVOK 17/14 Q1010 NOSIG=
201105032030 METAR LMML NIL=
201105032015 METAR LMML 032015Z 28008KT 250V320 CAVOK 17/14 Q1010 NOSIG=
201105032000 METAR LMML NIL=
201105031945 METAR LMML 031945Z 28008KT 240V310 CAVOK 17/14 Q1010 NOSIG=
201105031930 METAR LMML NIL=
201105031915 METAR LMML 031915Z 28008KT 250V310 CAVOK 17/14 Q1009 NOSIG=
201105031900 METAR LMML NIL=
201105031845 METAR LMML 031845Z 28008KT 250V320 CAVOK 18/13 Q1009 NOSIG=
201105031830 METAR LMML NIL=
201105031815 METAR LMML 031815Z 29006KT 250V330 CAVOK 18/12 Q1008 NOSIG=
201105031800 METAR LMML NIL=
201105031745 METAR LMML 031745Z 28007KT 250V320 CAVOK 19/11 Q1008 NOSIG=
201105031730 METAR LMML NIL=
201105031715 METAR LMML 031715Z 28007KT 250V310 CAVOK 20/10 Q1008 NOSIG=
201105031700 METAR LMML NIL=
201105031645 METAR LMML 031645Z 28009KT 250V310 CAVOK 20/11 Q1008 NOSIG=
201105031630 METAR LMML NIL=
201105031615 METAR LMML 031615Z 29011KT 250V320 CAVOK 21/11 Q1007 NOSIG=
201105031600 METAR LMML NIL=
201105031545 METAR LMML 031545Z 27009KT 220V300 CAVOK 21/10 Q1007 NOSIG=
201105031530 METAR LMML NIL=
201105031515 METAR LMML 031515Z 27010KT 220V320 CAVOK 22/10 Q1007 NOSIG=
201105031500 METAR LMML NIL=
201105031445 METAR LMML 031445Z 28012KT 220V320 CAVOK 22/10 Q1007 NOSIG=
201105031430 METAR LMML NIL=
201105031415 METAR LMML 031415Z 28013KT 250V310 CAVOK 23/09 Q1007 NOSIG=
201105031345 METAR LMML 031345Z 29012KT CAVOK 23/10 Q1007 NOSIG=
201105031315 METAR LMML 031315Z 29010KT 250V340 CAVOK 23/09 Q1007 NOSIG=
201105031300 METAR LMML NIL=
201105031245 METAR LMML 031245Z 30009KT 260V340 9999 FEW030 23/10 Q1007
                        NOSIG=
201105031230 METAR LMML NIL=
201105031215 METAR LMML 031215Z 28008KT 230V330 9999 FEW030 23/11 Q1008
                        NOSIG=
201105031200 METAR LMML NIL=
201105031145 METAR LMML 031145Z 28008KT 220V340 9999 FEW030 23/10 Q1007
                        NOSIG=
201105031130 METAR LMML NIL=
201105031115 METAR LMML 031115Z 30004KT 230V110 9999 FEW030 23/10 Q1007
                        NOSIG=
201105031045 METAR LMML 031045Z 28007KT 210V350 9999 FEW030 23/10 Q1007
                        NOSIG=
201105031015 METAR LMML 031015Z 31007KT 260V350 9999 FEW030 22/11 Q1007
                        NOSIG=
201105031000 METAR LMML NIL=
201105030945 METAR LMML 030945Z 32008KT 290V360 9999 FEW030 22/11 Q1007
                        NOSIG=
201105030930 METAR LMML NIL=
201105030915 METAR LMML 030915Z 29005KT 250V350 CAVOK 22/12 Q1007 NOSIG=
201105030845 METAR LMML 030845Z 30006KT 260V360 CAVOK 21/11 Q1007 NOSIG=
201105030830 METAR LMML NIL=
201105030815 METAR LMML 030815Z 32006KT 280V360 CAVOK 21/12 Q1007 NOSIG=
201105030745 METAR LMML 030745Z 32008KT CAVOK 20/12 Q1006 NOSIG=
201105030730 METAR LMML NIL=
201105030715 METAR LMML 030715Z 31005KT 270V350 CAVOK 20/12 Q1006 NOSIG=
201105030645 METAR LMML 030645Z 31007KT 280V340 CAVOK 19/11 Q1006 NOSIG=
201105030630 METAR LMML NIL=
201105030615 METAR LMML 030615Z 30004KT CAVOK 19/12 Q1006 NOSIG=
201105030545 METAR LMML 030545Z 30006KT CAVOK 18/13 Q1005 NOSIG=
201105030515 METAR LMML 030515Z 31006KT CAVOK 16/12 Q1005 NOSIG=
201105030445 METAR LMML 030445Z 31007KT CAVOK 16/12 Q1005 NOSIG=
201105030430 METAR LMML NIL=
201105030415 METAR LMML 030415Z 31007KT CAVOK 15/12 Q1005 NOSIG=
201105030400 METAR LMML NIL=
201105030345 METAR LMML 030345Z 30005KT 8000 NSC 15/12 Q1005 NOSIG=
201105030330 METAR LMML NIL=
201105030315 METAR LMML 030315Z 30004KT 8000 NSC 15/13 Q1005 NOSIG=
201105030300 METAR LMML NIL=
201105030245 METAR LMML 030245Z 29005KT 260V320 8000 NSC 16/13 Q1004 NOSIG=
201105030230 METAR LMML NIL=
201105030215 METAR LMML 030215Z 29005KT 8000 NSC 16/13 Q1005 TEMPO 4000
                        DU=
201105030200 METAR LMML NIL=
201105030145 METAR LMML 030145Z 29006KT 8000 NSC 17/13 Q1005 TEMPO 4000
                        DU=
201105030130 METAR LMML NIL=
201105030115 METAR LMML 030115Z 29005KT 8000 NSC 17/13 Q1005 TEMPO 4000
                        DU=
201105030100 METAR LMML NIL=
201105030045 METAR LMML 030045Z 29008KT 270V330 6000 NSC 18/14 Q1005 TEMPO
                        4000 DU RMK DUST HAZE=
201105030030 METAR LMML NIL=
201105030015 METAR LMML 030015Z 27009KT 240V310 6000 NSC 18/14 Q1005 TEMPO
                        4000 DU RMK DUST HAZE=
201105030000 METAR LMML NIL=
201105022345 METAR LMML 022345Z 27009KT 230V300 6000 NSC 18/14 Q1005 NOSIG
                        RMK DUST=
201105022330 METAR LMML NIL=
201105022315 METAR LMML 022315Z 24010KT 200V280 7000 NSC 18/14 Q1005 NOSIG
                        RMK DUST=
201105022300 METAR LMML NIL=
201105022245 METAR LMML 022245Z 22012KT 190V260 9000 NSC 19/14 Q1005 NOSIG=
201105022230 METAR LMML NIL=
201105022215 METAR LMML 022215Z 21008KT 170V250 9000 NSC 19/14 Q1004 TEMPO
                        5000 TSRA SCT012 BKN050CB=
201105022200 METAR LMML NIL=
201105022145 METAR LMML 022145Z 20007KT 160V240 9000 NSC 19/14 Q1004 RETS
                        TEMPO 5000 TSRA SCT012 BKN050CB=
201105022130 METAR LMML NIL=
201105022115 METAR LMML 022115Z 17007KT 9000 FEW070CB BKN120 BKN250 18/15
                        Q1005 RETS TEMPO 5000 TSRA SCT012
                        BKN050CB=
201105022100 METAR LMML NIL=
201105022045 METAR LMML 022045Z 17005KT 140V200 9000 -TSRA SCT070CB SCT120
                        BKN250 19/14 Q1005 TEMPO 5000 TSRA
                        SCT012 BKN050CB=
201105022030 METAR LMML NIL=
201105022015 METAR LMML 022015Z 17003KT 9999 TS SCT070CB SCT120 BKN250
                        18/15 Q1005 TEMPO 5000 TSRA SCT012
                        BKN050CB=
201105022000 METAR LMML NIL=
201105021945 METAR LMML 021945Z 18005KT 140V230 9999 -TSRA SCT070CB BKN250
                        18/15 Q1005 TEMPO 5000 TSRA SCT012
                        BKN050CB=
201105021930 METAR LMML NIL=
201105021915 METAR LMML 021915Z VRB02KT 9999 TS SCT070CB SCT090 BKN250
                        18/15 Q1005 TEMPO 5000 TSRA SCT012
                        BKN050CB=
201105021900 METAR LMML NIL=
201105021845 METAR LMML 021845Z 32005KT 280V340 6000 -TSRA SCT070CB SCT100
                        BKN250 17/16 Q1006 TEMPO 5000 TSRA
                        SCT012 BKN050CB=
201105021830 METAR LMML NIL=
201105021815 METAR LMML 021815Z 24006KT 130V300 6000 -TSRA SCT070CB SCT010
                        BKN250 18/16 Q1005 TEMPO 5000 TSRA
                        SCT012 BKN050CB=
201105021800 METAR LMML NIL=
201105021745 METAR LMML 021745Z 18005KT 120V220 7000 -TSRA SCT070CB BKN100
                        BKN250 18/16 Q1004 TEMPO 5000 TSRA
                        SCT012 BKN050CB=
201105021730 METAR LMML NIL=
201105021715 METAR LMML 021715Z 15012KT 7000 NSC 19/15 Q1002 TEMPO 5000
                        RA SCT012=
201105021700 METAR LMML NIL=
201105021645 METAR LMML 021645Z 14010KT 110V170 CAVOK 20/16 Q1003 NOSIG=
201105021630 METAR LMML NIL=
201105021615 METAR LMML 021615Z 14005KT 110V170 CAVOK 21/16 Q1003 RETSRA
                        NOSIG=
201105021600 METAR LMML NIL=
201105021545 METAR LMML 021545Z VRB02KT 9000 NSC 21/16 Q1004 RETSRA NOSIG=
201105021530 METAR LMML NIL=
201105021515 METAR LMML 021515Z 16003KT 9000 NSC 21/15 Q1004 TEMPO TSRA
                        BKN080CB=
201105021500 METAR LMML NIL=
201105021445 METAR LMML 021445Z 19005KT 120V300 9000 SHRA NSC 20/15 Q1005
                        TEMPO TSRA BKN080CB=
201105021430 METAR LMML NIL=
201105021415 METAR LMML 021415Z 17007KT 140V210 9000 NSC 20/15 Q1004 NOSIG=
201105021400 METAR LMML NIL=
201105021345 METAR LMML 021345Z 16014KT 130V190 CAVOK 20/15 Q1004 NOSIG=
201105021330 METAR LMML NIL=
201105021315 METAR LMML 021315Z 15015KT 120V190 CAVOK 19/15 Q1005 NOSIG=
201105021300 METAR LMML NIL=
201105021245 METAR LMML 021245Z 15016KT CAVOK 19/15 Q1006 NOSIG=
201105021230 METAR LMML NIL=
201105021215 METAR LMML 021215Z 16016KT CAVOK 20/14 Q1007 NOSIG=
201105021200 METAR LMML NIL=
201105021145 METAR LMML 021145Z 16016KT CAVOK 20/14 Q1008 NOSIG=
201105021130 METAR LMML NIL=
201105021115 METAR LMML 021115Z 16014KT 130V210 CAVOK 21/14 Q1008 NOSIG=
201105021100 METAR LMML NIL=
201105021045 METAR LMML 021045Z 15016G26KT 120V180 CAVOK 21/13 Q1009 NOSIG=
201105021030 METAR LMML NIL=
201105021015 METAR LMML 021015Z 15015KT 120V180 CAVOK 21/13 Q1009 NOSIG=
201105021000 METAR LMML NIL=
201105020945 METAR LMML 020945Z 15019KT 130V190 CAVOK 19/14 Q1008 NOSIG=
201105020930 METAR LMML NIL=
201105020915 METAR LMML 020915Z 17014KT 140V200 CAVOK 20/14 Q1011 NOSIG=
201105020900 METAR LMML NIL=
201105020845 METAR LMML 020845Z 16012KT 130V210 CAVOK 19/14 Q1011 NOSIG=
201105020830 METAR LMML NIL=
201105020815 METAR LMML 020815Z 17009KT 140V200 CAVOK 19/15 Q1011 NOSIG=
201105020745 METAR LMML 020745Z 17008KT 140V220 CAVOK 18/14 Q1011 NOSIG=
201105020730 METAR LMML NIL=
201105020715 METAR LMML 020715Z 17008KT 130V200 CAVOK 18/15 Q1010 NOSIG=
201105020700 METAR LMML NIL=
201105020645 METAR LMML 020645Z 18009KT 150V220 CAVOK 17/15 Q1011 NOSIG=
201105020630 METAR LMML NIL=
201105020615 METAR LMML 020615Z 17007KT 130V220 CAVOK 17/16 Q1010 NOSIG=
201105020600 METAR LMML NIL=
201105020545 METAR LMML 020545Z 16006KT 130V190 CAVOK 16/16 Q1010 NOSIG=
201105020530 METAR LMML NIL=
201105020515 METAR LMML 020515Z 17005KT 130V200 9999 FEW007 BKN250 16/16
                        Q1010 NOSIG=
201105020500 METAR LMML NIL=
201105020445 METAR LMML 020445Z 16004KT 120V180 9000 NSC 15/15 Q1010 NOSIG=
201105020430 METAR LMML NIL=
201105020415 METAR LMML 020415Z 18005KT 9000 NSC 15/15 Q1010 NOSIG=
201105020400 METAR LMML NIL=
201105020345 METAR LMML 020345Z 17003KT 9999 FEW012 SCT250 15/15 Q1010
                        TEMPO 8000 SCT008=
201105020330 METAR LMML NIL=
201105020315 METAR LMML 020315Z 16003KT 9999 FEW012 15/15 Q1010 TEMPO
                        8000 SCT008=
201105020300 METAR LMML NIL=
201105020245 METAR LMML 020245Z 18006KT 9999 FEW012 15/15 Q1010 TEMPO
                        8000 SCT008=
201105020230 METAR LMML NIL=
201105020215 METAR LMML 020215Z 19005KT 9999 FEW012 14/14 Q1010 TEMPO
                        8000 SCT008=
201105020200 METAR LMML NIL=
201105020145 METAR LMML 020145Z 21004KT CAVOK 14/13 Q1011 TEMPO 8000 SCT008=
201105020130 METAR LMML NIL=
201105020115 METAR LMML 020115Z 00000KT CAVOK 14/13 Q1010 NOSIG=
201105020100 METAR LMML NIL=
201105020045 METAR LMML 020045Z 20004KT 9999 FEW012 14/14 Q1010 NOSIG=
201105020030 METAR LMML NIL=
201105020015 METAR LMML 020015Z 30003KT CAVOK 14/14 Q1010 NOSIG=
201105020000 METAR LMML NIL=
201105012345 METAR LMML 012345Z 32004KT CAVOK 15/13 Q1010 NOSIG=
201105012330 METAR LMML NIL=
201105012315 METAR LMML 012315Z 35005KT 310V040 CAVOK 15/14 Q1010 NOSIG=
201105012300 METAR LMML NIL=
201105012245 METAR LMML 012245Z 34004KT 310V010 CAVOK 15/13 Q1011 NOSIG=
201105012230 METAR LMML NIL=
201105012215 METAR LMML 012215Z VRB01KT CAVOK 15/13 Q1011 NOSIG=
201105012200 METAR LMML NIL=
201105012145 METAR LMML 012145Z 30003KT CAVOK 15/13 Q1011 NOSIG=
201105012130 METAR LMML NIL=
201105012115 METAR LMML 012115Z 29006KT 250V340 CAVOK 16/14 Q1010 NOSIG=
201105012100 METAR LMML NIL=
201105012045 METAR LMML 012045Z 29007KT CAVOK 16/14 Q1011 NOSIG=
201105012030 METAR LMML NIL=
201105012015 METAR LMML 012015Z 28008KT CAVOK 16/14 Q1010 NOSIG=
201105012000 METAR LMML NIL=
201105011945 METAR LMML 011945Z 26007KT 220V290 CAVOK 16/14 Q1011 NOSIG=
201105011930 METAR LMML NIL=
201105011915 METAR LMML 011915Z 26008KT 230V290 CAVOK 16/14 Q1010 NOSIG=
201105011900 METAR LMML NIL=
201105011845 METAR LMML 011845Z 25006KT 210V280 CAVOK 16/14 Q1010 NOSIG=
201105011830 METAR LMML NIL=
201105011815 METAR LMML 011815Z 27006KT 210V300 CAVOK 17/14 Q1010 NOSIG=
201105011800 METAR LMML NIL=
201105011745 METAR LMML 011745Z 28009KT CAVOK 17/13 Q1009 NOSIG=
201105011730 METAR LMML NIL=
201105011715 METAR LMML 011715Z 29011KT 240V330 CAVOK 18/13 Q1009 NOSIG=
201105011700 METAR LMML NIL=
201105011645 METAR LMML 011645Z 29012KT 250V310 CAVOK 19/13 Q1009 NOSIG=
201105011630 METAR LMML NIL=
201105011615 METAR LMML 011615Z 28014KT 250V310 CAVOK 19/13 Q1009 NOSIG=
201105011600 METAR LMML NIL=
201105011545 METAR LMML 011545Z 28014KT 250V310 9999 FEW025 20/13 Q1009
                        NOSIG=
201105011530 METAR LMML NIL=
201105011515 METAR LMML 011515Z 27014KT 230V310 9999 FEW024 20/13 Q1008
                        NOSIG=
201105011445 METAR LMML 011445Z 28017KT 240V310 9999 FEW024 20/12 Q1008
                        NOSIG=
201105011415 METAR LMML 011415Z 26016KT 220V300 9999 FEW024 20/13 Q1008
                        NOSIG=
201105011345 METAR LMML 011345Z 27016G26KT 200V310 9999 FEW024 20/13 Q1008
                        NOSIG=
201105011330 METAR LMML NIL=
201105011315 METAR LMML 011315Z 27017G28KT 220V300 9999 FEW024 20/13 Q1008
                        NOSIG=
201105011300 METAR LMML NIL=
201105011245 METAR LMML 011245Z 27017G29KT 230V310 9999 FEW020 21/13 Q1008
                        NOSIG=
201105011230 METAR LMML NIL=
201105011215 METAR LMML 011215Z 26016KT 200V300 9999 FEW020 20/14 Q1008
                        NOSIG=
201105011200 METAR LMML NIL=
201105011145 METAR LMML 011145Z 26017KT 220V290 9999 FEW020 21/14 Q1007
                        NOSIG=
201105011130 METAR LMML NIL=
201105011115 METAR LMML 011115Z 26017KT 220V290 9999 FEW020 21/13 Q1007
                        NOSIG=
201105011100 METAR LMML NIL=
201105011045 METAR COR LMML 011045Z 27016KT 220V300 9999 FEW020 21/13
                        Q1007 NOSIG=
201105011030 METAR LMML NIL=
201105011015 METAR LMML 011015Z 27017KT 230V300 9999 FEW020 20/13 Q1007
                        NOSIG=
201105011000 METAR LMML NIL=
201105010945 METAR LMML 010945Z 27017KT 230V300 9999 FEW020 20/13 Q1007
                        NOSIG=
201105010930 METAR LMML NIL=
201105010915 METAR LMML 010915Z 28019KT 230V310 9999 FEW020 20/13 Q1006
                        NOSIG=
201105010900 METAR LMML NIL=
201105010845 METAR LMML 010845Z 29016KT 240V310 9999 FEW020 21/13 Q1006
                        NOSIG=
201105010830 METAR LMML NIL=
201105010815 METAR LMML 010815Z 27012KT 240V310 9999 FEW020 20/14 Q1006
                        NOSIG=
201105010800 METAR LMML NIL=
201105010745 METAR LMML 010745Z 28015KT 250V310 9999 FEW020 20/14 Q1005
                        NOSIG=
201105010730 METAR LMML NIL=
201105010715 METAR LMML 010715Z 29014KT 250V310 CAVOK 19/13 Q1005 NOSIG=
201105010700 METAR LMML NIL=
201105010645 METAR LMML 010645Z 30015KT 240V340 CAVOK 18/13 Q1004 NOSIG=
201105010630 METAR LMML NIL=
201105010615 METAR LMML 010615Z 30011KT 260V330 CAVOK 19/13 Q1004 NOSIG=
201105010600 METAR LMML NIL=
201105010545 METAR LMML 010545Z 30009KT CAVOK 17/14 Q1004 NOSIG=
201105010530 METAR LMML NIL=
201105010515 METAR LMML 010515Z 30009KT 260V330 CAVOK 17/15 Q1004 NOSIG=
201105010500 METAR LMML NIL=
201105010445 METAR LMML 010445Z 30011KT 270V330 7000 NSC 16/14 Q1003 NOSIG=
201105010430 METAR LMML NIL=
201105010415 METAR LMML 010415Z 30011KT 7000 NSC 16/15 Q1003 NOSIG=
201105010400 METAR LMML NIL=
201105010345 METAR LMML 010345Z 30010KT 7000 NSC 16/14 Q1002 NOSIG=
201105010315 METAR LMML 010315Z 33005KT 7000 NSC 16/14 Q1002 NOSIG=
201105010300 METAR LMML NIL=
201105010245 METAR LMML 010245Z 34006KT 7000 NSC 16/15 Q1002 NOSIG=
201105010215 METAR LMML 010215Z 31008KT 7000 NSC 17/14 Q1001 NOSIG=
201105010145 METAR LMML 010145Z 29011KT 6000 NSC 17/15 Q1001 NOSIG=
201105010115 METAR LMML 010115Z 29014KT 7000 NSC 17/15 Q1001 NOSIG=
201105010045 METAR LMML 010045Z 28012KT 250V310 CAVOK 17/15 Q1000 NOSIG=
201105010015 METAR LMML 010015Z 27011KT 240V310 CAVOK 17/15 Q1000 NOSIG=
201105010000 METAR LMML NIL=

###################################
#  short TAF from LMML
###################################
201105312300 TAF LMML 312300Z 0100/0109 VRB05KT 9999 FEW012 SCT120
                      TEMPO 0100/0109 9000 BKN010 BKN100
                      PROB40 TEMPO 0100/0106 5000 BR BKN005 BKN100
                       PROB30
                      TEMPO 0100/0109 3000 TSRA BKN005 BKN060CB=
201105312000 TAF LMML 312000Z 3121/0106 15005KT 9999 FEW012 SCT120
                      TEMPO 3121/0106 8000 BKN008 SCT120
                      PROB40 TEMPO 3121/0106 5000 BR BKN005 BKN100
                       PROB30
                      TEMPO 3123/0106 3000 TSRA BKN002 BKN060CB=
201105311700 TAF LMML 311700Z 3118/0103 VRB03KT 9999 FEW020
                      PROB30 TEMPO 3121/0103 8000 TS BKN005 SCT060CB=
201105311400 TAF LMML 311400Z 3115/3124 18005KT 9999 FEW020
                      TEMPO 3115/3124 CAVOK=
201105311100 TAF LMML 311100Z 3112/3121 15007KT 9999 FEW015
                      TEMPO 3112/3121 CAVOK=
201105310800 TAF LMML 310800Z 3109/3118 10006KT CAVOK
                      TEMPO 3109/3118 9999 FEW025
                      BECMG 3112/3115 18005KT=
201105310500 TAF LMML 310500Z 3106/3115 08005KT 9999 FEW015=
201105310200 TAF LMML 310200Z 3103/3112 VRB04KT 7000 SCT004
                      TEMPO 3103/3106 4000 BR BKN004
                      PROB30 TEMPO 3103/3105 1500 MIFG
                      BECMG 3105/3108 9999 FEW015=
201105302300 TAF LMML 302300Z 3100/3109 VRB03KT 8000 SCT006
                      TEMPO 3100/3106 4000 BR BKN004
                      PROB30 TEMPO 3102/3105 1500 MIFG=
201105302000 TAF LMML 302000Z 3021/3106 07004KT 9999 FEW011
                      TEMPO 3100/3106 7000 5000 BR BKN005=
201105301700 TAF LMML 301700Z 3018/3103 09006KT CAVOK
                      TEMPO 3018/3103 9999 FEW015
                      PROB40 TEMPO 3021/3103 8000 NSC
                      PROB30 TEMPO 3100/3103 5000 BR BKN005=
201105301400 TAF LMML 301400Z 3015/3024 05010KT CAVOK
                      TEMPO 3015/3024 9999 FEW015
                      PROB30 TEMPO 3018/3024 9000 NSC=
201105301100 TAF LMML 301100Z 3012/3021 04010KT 9999 FEW018
                      TEMPO 3012/3021 CAVOK
                      PROB30 TEMPO 3017/3021 9000 NSC=
201105300800 TAF LMML 300800Z 3009/3018 04010KT 9999 SCT015
                      TEMPO 3011/3018 CAVOK=
201105300500 TAF LMML 300500Z 3006/3015 03005KT 9999 FEW020
                      PROB40 TEMPO 3006/3009 9000 BKN008=
201105300200 TAF LMML 300200Z 3003/3012 03005KT 9999 FEW012
                      TEMPO 3003/3007 9000 BKN008
                      PROB40 TEMPO 3003/3006 5000 BR BKN005
                      PROB30 TEMPO 3003/3006 1000 BCFG BKN001=
201105292300 TAF LMML 292300Z 3000/3009 03004KT 9999 FEW012
                      TEMPO 3000/3007 9000 BKN008
                      PROB40 TEMPO 3000/3006 5000 BR BKN005
                      PROB30 TEMPO 3000/3006 1000 BCFG BKN001=
201105292000 TAF LMML 292000Z 2921/3006 05005KT 9999 FEW012
                      TEMPO 2921/2924 CAVOK
                      PROB40 TEMPO 2921/3006 BKN010
                      PROB30 TEMPO 2923/3006 5000 BR BKN005=
201105291700 TAF LMML 291700Z 2918/3003 32010KT CAVOK
                      BECMG 2924/3003 06003KT
                      TEMPO 2924/3003 FEW012 BKN018=
201105291400 TAF LMML 291400Z 2915/2924 29010KT 9999 FEW020
                      TEMPO 2915/2924 CAVOK=
201105291100 TAF LMML 291100Z 2912/2921 29013KT CAVOK
                      PROB30 TEMPO 2912/2921 9999 FEW012=
201105290800 TAF LMML 290800Z 2909/2918 30013KT 9999 FEW018
                      TEMPO 2909/2918 CAVOK=
201105290500 TAF LMML 290500Z 2906/2915 30013KT 9999 FEW015
                      TEMPO 2906/2915 CAVOK=
201105290200 TAF LMML 290200Z 2903/2912 30010KT CAVOK
                      PROB40 TEMPO 2903/2912 FEW015=
201105282300 TAF LMML 282300Z 2900/2909 30010KT CAVOK
                      PROB30 TEMPO 2900/2909 9999 FEW015=
201105282000 TAF LMML 282000Z 2821/2906 30010KT CAVOK
                      PROB30 TEMPO 2900/2906 9999 FEW015=
201105281700 TAF LMML 281700Z 2818/2903 29010KT CAVOK
                      PROB30 TEMPO 2900/2903 BKN008=
201105281400 TAF LMML 281400Z 2815/2824 29012KT CAVOK=
201105281100 TAF LMML 281100Z 2812/2821 29012KT CAVOK=
201105280800 TAF LMML 280800Z 2809/2818 29010KT CAVOK=
201105280500 TAF LMML 280500Z 2806/2815 29012KT CAVOK
                      TEMPO 2806/2815 9999 FEW025=
201105280200 TAF LMML 280200Z 2803/2812 28006KT CAVOK
                      TEMPO 2803/2812 9999 FEW015
                      PROB30 TEMPO 2803/2806 9000 FEW010=
201105272300 TAF LMML 272300Z 2800/2809 26006KT 9000 NSC
                      PROB30 TEMPO 2800/2803 5000 BR FEW008
                      BECMG 2800/2803 CAVOK
                      TEMPO 2803/2809 9999 FEW012=
201105272000 TAF LMML 272000Z 2721/2806 28004KT 9000 NSC
                      PROB30 TEMPO 2721/2724 5000 BR FEW008
                      BECMG 2721/2724 CAVOK
                      TEMPO 2800/2806 9999 FEW015=
201105271700 TAF LMML 271700Z 2718/2803 30007KT 9999 FEW020
                      PROB40 TEMPO 2718/2803 CAVOK=
201105271400 TAF LMML 271400Z 2715/2724 30005KT 9999 FEW025
                      PROB30 TEMPO 2718/2724 CAVOK=
201105271100 TAF LMML 271100Z 2712/2721 30005KT 9999 FEW025=
201105270800 TAF LMML 270800Z 2709/2718 32008KT 9999 FEW015=
201105270500 TAF LMML 270500Z 2706/2715 30008KT 9999 SCT012=
201105270200 TAF LMML 270200Z 2703/2712 28006KT 8000 SCT004
                      TEMPO 2703/2706 3000 BR BKN004=
201105262300 TAF LMML 262300Z 2700/2709 29005KT 9000 FEW011
                      PROB30 TEMPO 2700/2705 5000 BR BKN005=
201105262000 TAF LMML 262000Z 2621/2706 30005KT 9999 FEW011
                      PROB30 TEMPO 2621/2706 5000 BR BKN005=
201105261700 TAF LMML 261700Z 2618/2703 31005KT 9999 FEW015
                      TEMPO 2618/2703 8000
                      PROB30 TEMPO 2621/2703 5000 BR BKN005=
201105261400 TAF LMML 261400Z 2615/2624 VRB04KT 9999 FEW035
                      BECMG 2615/2618 28006KT CAVOK
                      TEMPO 2618/2624 9999 FEW015
                      PROB30 TEMPO 2621/2624 9000 SCT008=
201105261100 TAF LMML 261100Z 2612/2621 03010KT CAVOK
                      TEMPO 2612/2621 9999 FEW030
                      BECMG 2612/2615 32008KT=
201105260800 TAF LMML 260800Z 2609/2618 31008KT CAVOK
                      TEMPO 2609/2618 9999 FEW030=
201105260500 TAF LMML 260500Z 2606/2615 30006KT 9999 FEW040 SCT090
                      TEMPO 2606/2615 CAVOK=
201105260200 TAF LMML 260200Z 2603/2612 30006KT CAVOK
                      TEMPO 26303/2609 9999 SCT020
                      PROB30 TEMPO 2603/2606 9000 TS SCT010 SCT020CB=
201105252300 TAF LMML 252300Z 2600/2609 30005KT CAVOK
                      TEMPO 2600/2609 9999 SCT020
                      PROB30 TEMPO 2600/2609 9000 TSRA BKN010 BKN050CB=
201105252000 TAF LMML 252000Z 2521/2606 31006KT CAVOK
                      TEMPO 2521/2606 9999 SCT020
                      PROB30 TEMPO 2600/2606 9000 TSRA BKN050CB=
201105251700 TAF LMML 251700Z 2518/2603 33011KT CAVOK
                      TEMPO 2520/2603 9999 SCT011 BKN120=
201105251400 TAF LMML 251400Z 2515/2524 35010KT CAVOK=
201105251100 TAF LMML 251100Z 2512/2521 36008KT 9999 FEW015 SCT100=
201105250800 TAF LMML 250800Z 2509/2518 35008KT 9999 SCT014 SCT050=
201105250500 TAF LMML 250500Z 2506/2515 35008KT 9999 FEW025 SCT070
                      TEMPO 2506/2509 CAVOK=
201105250200 TAF LMML 250200Z 2503/2512 35008KT 9999 FEW030 SCT050
                      TEMPO 2503/2509 CAVOK=
201105242300 TAF LMML 242300Z 2500/2509 35008KT 9999 FEW030 SCT050
                      TEMPO 2500/2509 CAVOK=
201105242000 TAF LMML 242000Z 2421/2506 35008KT 9999 FEW030 SCT050=
201105241700 TAF LMML 241700Z 2418/2503 34010KT 9999 FEW020 SCT045
                      PROB30 TEMPO 2424/2503 8000 SHRA SCT015TCU=
201105241400 TAF LMML 241400Z 2415/2424 36013KT CAVOK
                      TEMPO 2415/2420 01015G25KT 9999 FEW025=
201105241100 TAF LMML 241100Z 2412/2421 02013KT 9999 FEW020 SCT049
                      TEMPO 2412/2415 02015G25KT
                      TEMPO 2412/2421 CAVOK=
201105240800 TAF LMML 240800Z 2409/2418 02013KT 9000 FEW015 BKN130
                      BECMG 2412/2415 FEW018=
201105240500 TAF LMML 240500Z 2406/2415 02014KT 9999 BKN015 BKN050
                      PROB30 TEMPO 2406/2409 9000 BKN010 BKN040
                       PROB40
                      TEMPO 2406/2415 01015G25KT
                      BECMG 2407/2410 SCT015 BKN040=
201105240200 TAF LMML 240200Z 2403/2412 02014KT 9999 SCT015
                      TEMPO 2403/2407 9000 BKN010
                      PROB30 TEMPO 2403/2406 5000 BR BKN005=
201105232300 TAF LMML 232300Z 2400/2409 02012KT 8000 BKN008
                      TEMPO 2400/2403 5000 DU BKN005
                      PROB30 TEMPO 2401/2406 9999 SCT010
                      BECMG 2406/2409 9999 SCT015=
201105232000 TAF LMML 232000Z 2321/2406 03013KT 5000 DU BKN005
                      TEMPO 2321/2406 3000 BR BKN003
                      PROB30 TEMPO 2321/2406 8000 SCT010=
201105231700 TAF LMML 231700Z 2318/2403 06015KT 6000 BKN005
                      PROB40 TEMPO 2318/2403 9000 SCT005
                      PROB30 TEMPO 4000 DU BKN003=
201105231400 TAF LMML 231400Z 2315/2324 06015KT 9000 SCT012
                      TEMPO 2312/2321 5000 DU BKN009
                      PROB30 TEMPO 2315/2318 5000 TSRA BKN015CB
                       TEMPO 2315/2318 06015G25KT=
201105231100 TAF LMML 231100Z 2312/2321 06015KT 7000 BKN009
                      PROB40 TEMPO 2312/2321 9000 SCT011
                      PROB30 TEMPO 2312/2321 3000 TSRA BKN015CB
                       PROB40
                      TEMPO 2312/2321 06015G25KT=
201105230800 TAF LMML 230800Z 2309/2318 06015KT 7000 BKN007
                      TEMPO 2309/2318 9000 SCT006
                      PROB30 TEMPO 2309/2318 3000 TSRA BKN015CB
                       PROB40
                      TEMPO 2309/2318 06015G25KT=
201105230500 TAF LMML 230500Z 2306/2315 06015KT 6000 SCT006 BKN017
                      PROB30 TEMPO 2306/2315 5000 TSRA SCT008 BKN015CB
                       TEMPO 2310/2315 9999 SCT012 BKN060=
201105230200 TAF LMML 230200Z 2303/2312 07015KT 6000 SCT012 SCT020
                      PROB30 TEMPO 2303/2308 07015G25KT
                      TEMPO 2303/2312 3000 TSRA BKN015CB
                      TEMPO 2308/2312 9999 SCT018=
201105222300 TAF LMML 222300Z 2300/2309 07015KT 7000 SCT012 SCT030
                      PROB30 TEMPO 2300/2306 07015G25KT
                      TEMPO 2303/2309 5000 TSRA BKN005 BKN018CB=
201105222000 TAF LMML 222000Z 2221/2306 07015KT 8000 SCT012 SCT035
                      PROB30 TEMPO 2221/2306 07015G25KT
                      TEMPO 2223/2306 5000 TSRA BKN005 BKN018CB=
201105221700 TAF COR LMML 221700Z 2218/2303 08017KT 9999 FEW013
                      TEMPO 2218/2303 07017G27KT 9000 BKN010
                      PROB40 TEMPO 2221/2303 5000 BR BKN005
                      PROB30 TEMPO 2300/2303 3000 TSRA BKN005 BKN015CB=
201105221400 TAF LMML 221400Z 2215/2224 08020KT 9999 FEW015
                      TEMPO 2215/2224 07025G35KT
                      TEMPO 2216/2224 9000 BKN015
                      PROB30 TEMPO 2220/2224 5000 SHRA BKN005 BKN013=
201105221100 TAF LMML 221100Z 2212/2221 08020KT 9999 FEW015
                      TEMPO 2212/2221 07025G35KT
                      PROB30 TEMPO 2217/2221 8000 SHRA BKN015=
201105220800 TAF LMML 220800Z 2209/2218 08020KT CAVOK
                      TEMPO 2209/2218 07025G35KT 9999 FEW015 SCT100
                       PROB30
                      TEMPO 2209/2212 8000 TSRA SCT015 BKN080CB
                       BECMG 2215/2218 9999 BKN015=
201105220500 TAF LMML 220500Z 2206/2215 08022G32KT 9000 NSC
                      TEMPO 2206/2215 9999 FEW015
                      PROB30 TEMPO 2206/2209 TSRA BKN090CB=
201105220200 TAF LMML 220200Z 2203/2212 08020G30KT 9999 SCT012
                      TEMPO 2203/2212 9000
                      PROB40 TEMPO 2203/2212 5000 TSRA BKN010 BKN080CB=
201105212350 TAF COR LMML 212350Z 2200/2209 08018G28KT 9999 SCT012
                      TEMPO 2200/2209 9000
                      PROB40 TEMPO 2200/2209 5000 TSRA BKN008 BKN080CB=
201105212300 TAF LMML 212300Z 2200/2209 08018G28KT 9999 SCT012
                      TEMPO 2200/2209 9000 RA
                      PROB30 TEMPO 2200/2207 BKN008=
201105212000 TAF LMML 212000Z 2121/2206 08018G28KT 9999 SCT012
                      TEMPO 2121/2206 9000 BKN008
                      PROB30 TEMPO 2121/2203 TSRA BKN080CB=
201105211700 TAF LMML 211700Z 2118/2203 08018G28KT 9999 FEW015 BKN120
                      PROB30 TEMPO 2118/2203 TS SCT012 SCT080CB=
201105211400 TAF LMML 211400Z 2115/2124 09020G30KT 9999 FEW013 BKN120
                      PROB30 TEMPO 2115/2124 TSRA BKN013 BKN080CB=
201105211100 TAF LMML 211100Z 2112/2121 09020G30KT 9999 SCT013 BKN100
                      PROB30 TEMPO 2112/2121 TSRA BKN013 BKN080CB=
201105210800 TAF LMML 210800Z 2109/2118 10015KT 9999 SCT018 BKN100
                      PROB30 TEMPO 2112/2118 10020G30KT TSRA BKN015
                       BKN080TCB=
201105210500 TAF LMML 210500Z 2106/2115 10017KT 9999 SCT018
                      PROB30 TEMPO 2109/2115 9000 TSRA BKN080CB=
201105210200 TAF LMML 210200Z 2103/2112 10013KT 9999 FEW018
                      PROB30 TEMPO 2103/2105 9999 BKN015=
201105202300 TAF LMML 202300Z 2100/2109 10012KT 9999 FEW015
                      PROB30 TEMPO 2100/2104 9999 BKN015=
201105202000 TAF LMML 202000Z 2021/2106 10010KT 9999 FEW015
                      PROB30 TEMPO 0221/2104 CAVOK=
201105201700 TAF LMML 201700Z 2018/2103 10010KT 9999 FEW015
                      PROB30 TEMPO 2020/2103 BKN010=
201105201400 TAF LMML 201400Z 2015/2024 10010KT 9999 FEW015
                      PROB30 TEMPO 2018/2024 BKN010=
201105201100 TAF LMML 201100Z 2012/2021 10010KT 9999 FEW015
                      PROB30 TEMPO 2018/2021 BKN010=
201105200800 TAF LMML 200800Z 2009/2018 11012KT 9999 FEW015=
201105200500 TAF LMML 200500Z 2006/2015 08008KT 9999 SCT015
                      PROB30 TEMPO 2006/2008 9000 BKN010=
201105200200 TAF LMML 200200Z 2003/2012 VRB03KT CAVOK
                      TEMPO 2003/2006 9000 FEW010
                      PROB30 TEMPO 2003/2006 5000 BR BKN005
                      BECMG 2003/2006 9999 SCT015
                      BECMG 2006/2009 10010KT=
201105192300 TAF LMML 192300Z 2000/2009 VRB03KT 9999 FEW015
                      TEMPO 2000/2006 9000 BKN010
                      PROB30 TEMPO 2000/2006 5000 BR BKN005
                      BECMG 2006/2009 10010KT=
201105192000 TAF LMML 192000Z 1921/2006 12006KT CAVOK
                      TEMPO 1921/2006 9999 FEW015 SCT120
                      PROB30 TEMPO 2000/2006 9000 BKN010 BKN100=
201105191700 TAF LMML 191700Z 1918/2003 12007KT 9999 FEW020
                      PROB40 TEMPO 1918/2003 CAVOK=
201105191400 TAF LMML 191400Z 1915/1924 11006KT 9999 FEW025
                      PROB40 TEMPO 1915/1924 CAVOK=
201105191100 TAF LMML 191100Z 1912/1921 11006KT 9999 FEW025
                      PROB40 TEMPO 1915/1921 CAVOK=
201105190500 TAF LMML 190500Z 1906/1915 08005KT CAVOK
                      PROB30 TEMPO 1906/1915 9999 FEW025=
201105190200 TAF LMML 190200Z 1903/1912 VRB03KT CAVOK
                      PROB30 TEMPO 1903/1906 8000 FEW008=
201105182300 TAF LMML 182300Z 1900/1909 VRB04KT CAVOK
                      PROB30 TEMPO 1900/1906 7000 FEW008=
201105182000 TAF LMML 182000Z 1821/1906 28004KT CAVOK
                      PROB30 TEMPO 1900/1906 7000 FEW008=
201105181700 TAF LMML 181700Z 1818/1903 29008KT CAVOK
                      TEMPO 1818/1903 9999 FEW015
                      PROB30 TEMPO 1900/1903 8000 SCT008=
201105181400 TAF LMML 181400Z 1815/1824 30010KT 9999 FEW030
                      TEMPO 1815/1824 CAVOK=
201105181100 TAF LMML 181100Z 1812/1821 33010KT 9999 FEW030
                      TEMPO 1812/1821 CAVOK
                      BECMG 1818/1821 27006KT=
201105180800 TAF LMML 180800Z 1809/1818 34010KT 9999 FEW025
                      TEMPO 1809/1818 CAVOK
                      BECMG 1815/1818 28006KT=
201105180500 TAF LMML 180500Z 1806/1815 34008KT CAVOK
                      TEMPO 1806/1815 9999 FEW030=
201105180200 TAF LMML 180200Z 1803/1812 35006KT CAVOK
                      TEMPO 1803/1812 9999 FEW035=
201105172300 TAF LMML 172300Z 1800/1809 35008KT CAVOK
                      TEMPO 1800/1809 9999 FEW030=
201105172000 TAF LMML 172000Z 1721/1806 33012KT CAVOK
                      TEMPO 1721/1806 9999 FEW020=
201105171700 TAF LMML 171700Z 1718/1803 30017G27KT 9999 FEW030
                      BECMG 1718/1721 29015KT=
201105171400 TAF LMML 171400Z 1715/1724 30015G25KT 9999 FEW030
                      BECMG 1718/1721 29012KT=
201105171100 TAF LMML 171100Z 1712/1721 32015G25KT 9999 FEW035
                      BECMG 1717/1720 29014KT=
201105170800 TAF LMML 170800Z 1709/1718 32015G25KT 9999 FEW030=
201105170500 TAF LMML 170500Z 1706/1715 31017KT 9999 FEW025
                      PROB40 TEMPO 1709/1715 31018G30KT=
201105170200 TAF LMML 170200Z 1703/1712 30017KT 9999 FEW025
                      TEMPO 1703/1709 CAVOK
                      PROB30 TEMPO 1709/1712 30017G27KT=
201105162300 TAF LMML 162300Z 1700/1709 30017KT CAVOK
                      PROB30 TEMPO 1700/1709 9999 FEW025=
201105162000 TAF LMML 162000Z 1621/1706 30017KT CAVOK
                      PROB30 TEMPO 1621/1706 9999 FEW025=
201105161700 TAF LMML 161700Z 1618/1703 30018KT 9999 FEW025
                      PROB30 TEMPO 1618/1622 31020G30KT CAVOK=
201105161400 TAF LMML 161400Z 1615/1624 30018KT 9999 FEW025
                      PROB30 TEMPO 1615/1624 30020G30KT CAVOK=
201105161100 TAF LMML COR 161100Z 1612/1621 30018KT 9999 FEW030
                      PROB30 TEMPO 1612/1621 31020/30KT CAVOK=
201105160800 TAF LMML 160800Z 1609/1618 30018KT 9999 FEW030
                      PROB30 TEMPO 1609/1618 1609/1618 31020G30KT
                       CAVOK=
201105160500 TAF LMML 160500Z 1606/1615 30017KT 9999 SCT015
                      TEMPO 1606/1615 29020G30KT
                      PROB30 TEMPO 1606/1608 9000 BKN012=
201105160200 TAF LMML 160200Z 1603/1612 30015KT 9999 SCT015
                      PROB30 TEMPO 1603/1606 9000 BKN010
                      TEMPO 1605/1612 29017G27KT=
201105152300 TAF LMML 152300Z 1600/1609 28012KT 9999 SCT015
                      TEMPO 1600/1606 9000 BKN010
                      PROB30 TEMPO 1600/1603 5000 BR BKN005
                      TEMPO 1603/1609 29015G25KT=
201105152000 TAF LMML 152000Z 1521/1606 24006KT CAVOK
                      TEMPO 1521/1524 9000 FEW010
                      PROB30 TEMPO 1521/1603 5000 BR BKN005
                      BECMG 1521/1524 30013KT 9999 SCT015
                      PROB40 TEMPO 1602/1606 29015G25KT=
201105151700 TAF COR LMML 151700Z 1518/1603 25005KT CAVOK
                      TEMPO 1518/1603 9999 FEW005
                      PROB30 TEMPO 1520/1602 8000 BKN003
                      BECMG 1523/1602 30015KT=
201105151400 TAF LMML 151400Z 1515/1524 23005KT CAVOK
                      TEMPO 1518/1524 9999 FEW005
                      PROB30 TEMPO 1518/1524 8000 BKN003
                      BECMG 1521/1524 29010KT=
201105151100 TAF LMML 151100Z 1512/1521 22005KT CAVOK
                      PROB40 TEMPO 1512/1521 8000 BKN005=
201105150800 TAF LMML 150800Z 1509/1518 18008KT CAVOK=
201105150500 TAF LMML 150500Z 1506/1515 18005KT CAVOK=
201105150200 TAF LMML 150200Z 1503/1512 17005KT CAVOK
                      TEMPO 1503/1505 6000
                      PROB30 TEMPO 1503/1505 3000 BR=
201105142300 TAF LMML 142300Z 1500/1509 17004KT CAVOK
                      TEMPO 1500/1505 6000
                      PROB30 TEMPO 1502/1505 3000 BR=
201105142000 TAF LMML 142000Z 1421/1506 VRB03KT CAVOK
                      TEMPO 1500/1506 5000 BR
                      PROB30 TEMPO 1502/1505 2000 MIFG=
201105141700 TAF LMML 141700Z 1418/1503 20005KT CAVOK
                      PROB30 TEMPO 1421/1503 9000 FEW010=
201105141400 TAF LMML 141400Z 1415/1424 20007KT CAVOK
                      PROB30 TEMPO 1421/1424 9000 FEW010=
201105141100 TAF LMML 141100Z 1412/1421 21007KT CAVOK
                      PROB30 TEMPO 1412/1421 9999 FEW020=
201105140800 TAF LMML 140800Z 1409/1418 22008KT CAVOK
                      PROB30 TEMPO 1409/1418 9999 FEW025=
201105140500 TAF LMML 140500Z 1406/1415 19005KT CAVOK=
201105140200 TAF LMML 140200Z 1403/1412 VRB03KT 8000 NSC
                      PROB30 TEMPO 1403/1406 5000 BR
                      BECMG 1406/1409 CAVOK=
201105132300 TAF LMML 132300Z 1400/1409 VRB03KT 8000 NSC
                      PROB30 TEMPO 1400/1406 5000 BR
                      BECMG 1406/1409 CAVOK=
201105132000 TAF LMML 132000Z 1321/1406 VRB03KT CAVOK
                      PROB30 TEMPO 1401/1406 6000 NSC=
201105131700 TAF LMML 131700Z 1318/1403 VRB03KT CAVOK
                      PROB30 TEMPO 1400/1403 6000 NSC=
201105131400 TAF LMML 131400Z 1315/1324 VRB04KT 9999 FEW025=
201105131100 TAF LMML 131100Z 1312/1321 VRB05KT 9999 FEW025=
201105130800 TAF LMML 130800Z 1309/1318 VRB04KT CAVOK=
201105130500 TAF LMML 130500Z 1306/1315 30005KT CAVOK=
201105130200 TAF LMML 130200Z 1303/1312 30005KT CAVOK=
201105122300 TAF LMML 122300Z 1300/1309 29005KT CAVOK=
201105122000 TAF LMML 122000Z 1221/1306 29007KT CAVOK
                      PROB30 TEMPO 1221/1306 9999 FEW015=
201105121700 TAF LMML 121700Z 1218/1303 29010KT CAVOK
                      PROB30 TEMPO 1218/1303 9999 FEW018=
201105121400 TAF LMML 121400Z 1215/1224 30010KT CAVOK
                      PROB30 TEMPO 1215/1224 9999 FEW020=
201105121100 TAF LMML 121100Z 1212/1221 30013KT CAVOK
                      PROB30 TEMPO 1212/1221 9999 FEW025=
201105120800 TAF LMML 120800Z 1209/1218 31010KT CAVOK
                      PROB30 TEMPO 1209/1218 9999 FEW020=
201105120500 TAF LMML 120500Z 1206/1215 28010KT CAVOK
                      PROB30 TEMPO 1206/1215 9999 FEW025=
201105120200 TAF LMML 120200Z 1203/1212 30008KT CAVOK
                      PROB30 TEMPO 1203/1206 9000 FEW010=
201105112300 TAF LMML 112300Z 1200/1209 32010KT CAVOK
                      PROB30 TEMPO 1200/1206 9000 FEW010=
201105112000 TAF LMML 112000Z 1121/1206 30010KT CAVOK
                      PROB30 TEMPO 1200/1206 9000 FEW010=
201105111700 TAF LMML 111700Z 1118/1203 29008KT CAVOK=
201105111400 TAF LMML 111400Z 1115/1124 29008KT CAVOK=
201105111100 TAF LMML 111100Z 1112/1121 32010KT CAVOK=
201105110800 TAF LMML 110800Z 1109/1118 31010KT CAVOK=
201105110500 TAF LMML 110500Z 1106/1115 31010KT CAVOK=
201105110200 TAF LMML 110200Z 1103/1112 32006KT 9999 FEW030=
201105102300 TAF LMML 102300Z 1100/1109 34007KT 9999 FEW030 SCT060=
201105102000 TAF LMML 102000Z 1021/1106 02008KT 9999 FEW030 BKN060
                      TEMPO 1021/1106 8000 SHRA=
201105101700 TAF LMML 101700Z 1018/1103 03017KT 9999 FEW025
                      PROB30 TEMPO 1018/1021 02017G27KT
                      BECMG 1021/1024 01007KT
                      BECMG 1100/1103 31006KT
                      TEMPO 1100/1103 CAVOK=
201105101400 TAF LMML 101400Z 1015/1024 02015KT 9999 SCT030 SCT060
                      TEMPO 1015/1018 03015G25KT
                      BECMG 1021/1024 35005KT=
201105101100 TAF LMML 101100Z 1012/1021 35015KT 9999 SCT030
                      BECMG 1012/1015 05015KT
                      PROB30 TEMPO 1012/1018 02015G25KT 8000 SHRA
                       BKN015=
201105100800 TAF LMML 100800Z 1009/1018 34015KT 9999 SCT025
                      TEMPO 1009/1012 35015G25KT 8000 SHRA BKN020TCU
                       BECMG 1012/1015 04015KT
                      PROB30 TEMPO 1012/1018 03015G25KT=
201105100500 TAF LMML 100500Z 1006/1015 33012KT 9999 SCT025
                      PROB30 TEMPO 1006/1010 8000 SHRA SCT015TCU
                       BKN020=
201105100200 TAF LMML 100200Z 1003/1012 36010KT 9999 SCT025
                      PROB30 TEMPO 1003/1012 8000 SHRA SCT015TCU
                       BKN018=
201105092300 TAF LMML 092300Z 1000/1009 03013KT 9999 FEW010 SCT015
                      PROB30 TEMPO 1000/1009 8000 SHRA SCT015TCU
                       BKN018=
201105092000 TAF LMML 092000Z 0921/1006 28007KT 9999 FEW020
                      BECMG 0921/1000 02008KT
                      PROB30 TEMPO 1000/1006 8000 SHRA SCT015TCU
                       BKN018=
201105091700 TAF LMML 091700Z 0918/1003 28010KT 9999 FEW025
                      BECMG 0918/0921 36012KT
                      PROB30 TEMPO 0922/1003 8000 SHRA BKN015=
201105091400 TAF LMML 091400Z 0915/0924 27010KT 9999 SCT025
                      BECMG 0918/0921 30015KT
                      PROB30 TEMPO 0921/0924 8000 SHRA=
201105091100 TAF LMML 091100Z 0912/0921 25008KT 9999 FEW025
                      BECMG 0918/0921 30015KT=
201105090800 TAF LMML 090800Z 0909/0918 31010KT 9999 FEW025
                      BECMG 0911/0914 25012KT=
201105090500 TAF LMML 090500Z 0906/0915 27010KT CAVOK
                      PROB40 TEMPO 0906/0915 9999 FEW030=
201105090200 TAF LMML 090200Z 0903/0912 27008KT CAVOK
                      PROB40 TEMPO 0903/0912 9999 FEW030=
201105082300 TAF LMML 082300Z 0900/0909 27005KT CAVOK
                      PROB30 TEMPO 0900/0909 9999 FEW030=
201105082000 TAF LMML 082000Z 0821/0906 VRB03KT CAVOK
                      TEMPO 0821/0906 9999 FEW030
                      PROB30 TEMPO 0821/0906 TSRA BKN070CB=
201105081700 TAF LMML 081700Z 0818/0903 24004KT 9999 FEW030
                      TEMPO 0818/0903 CAVOK=
201105081400 TAF LMML 081400Z 0815/0824 VRB03KT 9999 FEW030
                      TEMPO 0815/0824 CAVOK=
201105081101 TAF COR LMML 081101Z 0812/0821 20005KT CAVOK
                      PROB30 TEMPO 0812/0821 9999 FEW030=
201105081100 TAF LMML 081100Z 0812/0821 20005KT CAVOK
                      PROB30 TEMPO 0912/0821 0812/0821 9999 FEW030=
201105080800 TAF LMML 080800Z 0809/0818 18005KT CAVOK
                      PROB30 TEMPO 0809/0818 9999 FEW030=
201105080500 TAF LMML 080500Z 0806/0815 18005KT CAVOK
                      PROB30 TEMPO 0806/0815 9999 FEW020=
201105080200 TAF LMML 080200Z 0803/0812 18004KT CAVOK
                      TEMPO 0803/0812 9999 FEW015
                      PROB30 TEMPO 0803/0806 5000 BR FEW005=
201105072300 TAF LMML 072300Z 0800/0809 19004KT CAVOK
                      TEMPO 0800/0809 9999 FEW012
                      PROB30 TEMPO 0800/0806 9000 NSC=
201105072000 TAF LMML 072000Z 0721/0806 16004KT CAVOK
                      TEMPO 0721/0806 9999 FEW015
                      PROB30 TEMPO 0800/0806 9000 NSC=
201105071700 TAF LMML 071700Z 0718/0803 VRB03KT CAVOK
                      PROB40 TEMPO 0718/0803 9999 FEW015
                      PROB30 TEMPO 0800/0803 9000 NSC=
201105071400 TAF LMML 071400Z 0715/0724 13005KT CAVOK
                      TEMPO 0715/0724 9999 FEW025=
201105071100 TAF LMML 071100Z 0712/0721 13005KT CAVOK
                      TEMPO 0712/0721 9999 FEW025=
201105070800 TAF LMML 070800Z 0709/0718 12008KT CAVOK
                      PROB30 TEMPO 0709/0718 9999 FEW030=
201105070500 TAF LMML 070500Z 0706/0715 09006KT 9999 FEW025=
201105070200 TAF LMML 070200Z 0703/0712 09005KT CAVOK
                      PROB30 TEMPO 0703/0705 5000 BR FEW005=
201105062300 TAF LMML 062300Z 0700/0709 09005KT CAVOK
                      PROB30 TEMPO 0700/0706 8000 FEW006=
201105062000 TAF LMML 062000Z 0621/0706 09005KT CAVOK
                      PROB30 TEMPO 0700/0706 7000 FEW006=
201105061700 TAF LMML 061700Z 0618/0703 11010KT CAVOK
                      TEMPO 0618/0703 9999 FEW015
                      PROB30 TEMPO 0620/0703 9000 SCT010=
201105061400 TAF LMML 061400Z 0615/0624 11010KT 9999 SCT015
                      PROB30 TEMPO 0618/0624 9000 BKN010=
201105061100 TAF LMML 061100Z 0612/0621 11012KT 9999 SCT015
                      PROB30 TEMPO 0618/0621 9000 BKN010=
201105060800 TAF LMML 060800Z 0609/0618 10010KT 9999 SCT020
                      PROB30 TEMPO 0609/0612 BKN015=
201105060500 TAF LMML 060500Z 0606/0615 09005KT 9999 FEW025=
201105060200 TAF LMML 060200Z 0603/0612 VRB03KT 9000 BKN010
                      PROB30 TEMPO 0603/0606 5000 BR BKN005
                      BECMG 0606/0609 9999 FEW025=
201105052300 TAF LMML 052300Z 0600/0609 VRB03KT 9999 SCT008
                      TEMPO 0600/0606 5000 BR BKN005=
201105052000 TAF LMML 052000Z 0521/0606 VRB03KT 9999 FEW009
                      TEMPO 0600/0606 5000 BR BKN005=
201105051700 TAF LMML 051700Z 0518/0603 29005KT 9999 FEW015
                      TEMPO 0521/0603 7000 BKN006=
201105051400 TAF LMML 051400Z 0515/0524 30008KT 9999 FEW020
                      PROB30 TEMPO 0521/0524 7000 BKN006=
201105051100 TAF LMML 051100Z 0512/0521 30008KT 9999 SCT020
                      PROB30 TEMPO 0518/0821 8000 BKN010=
201105050800 TAF LMML 050800Z 0509/0518 30010KT 9999 SCT015=
201105050500 TAF LMML 050500Z 0506/0515 31010KT 9999 FEW015
                      TEMPO 0506/0509 BKN012=
201105050200 TAF LMML 050200Z 0503/0512 30012KT 9999 FEW015
                      TEMPO 0503/0509 BKN015
                      PROB40 TEMPO 0503/0507 9000 BKN008=
201105042300 TAF LMML 042300Z 0500/0509 29013KT 9999 FEW015
                      PROB40 TEMPO 0500/0509 BKN015
                      PROB30 TEMPO 0500/0506 9000 BKN009=
201105042000 TAF LMML 042000Z 0421/0506 30015KT 9999 FEW015
                      PROB40 TEMPO 0421/0506 9000 BKN015
                      PROB30 TEMPO 0500/0506 BKN008=
201105041700 TAF LMML 041700Z 0418/0503 30015KT 9999 FEW015
                      PROB30 TEMPO 0421/0503 BKN008=
201105041400 TAF LMML 041400Z 0415/0424 30020KT 9999 SCT015
                      PROB40 TEMPO 0418/0424 BKN008=
201105041100 TAF LMML 041100Z 0412/0421 30018KT 9999 SCT018
                      PROB30 TEMPO 0418/0421 BKN012=
201105040800 TAF LMML 040800Z 0409/0418 30017KT 9999 SCT017
                      PROB30 TEMPO 0409/0418 BKN015=
201105040500 TAF LMML 040500Z 0406/0415 29017KT 9999 SCT015=
201105040200 TAF LMML 040200Z 0403/0412 29016KT 9999 SCT015
                      PROB40 TEMPO 0403/0409 9000 BKN008 BKN015=
201105032300 TAF LMML 032300Z 0400/0409 28015KT 9999 SCT010
                      PROB40 TEMPO 0400/0409 9000 BKN007 BKN015=
201105032000 TAF LMML 032000Z 0321/0406 28015KT 9999 SCT008
                      PROB40 TEMPO 0321/0406 9000 BKN007 BKN015
                       PROB30
                      TEMPO 0322/0401 TSRA BKN100CB=
201105031700 TAF LMML 031700Z 0318/0403 28012KT 9999 FEW020
                      PROB40 TEMPO 0320/0403 BKN013
                      PROB30 TEMPO 0321/0403 9000 BKN010 TSRA BKN070CB=
201105031400 TAF LMML 031400Z 0315/0324 27010KT 9999 FEW020
                      PROB30 TEMPO 0315/0318 CAVOK
                      PROB40 TEMPO 0320/0324 BKN011
                      PROB30 TEMPO 0321/0324 9000 TSRA BKN045CB=
201105031100 TAF LMML 031100Z 0312/0321 27008KT 9999 FEW020
                      PROB30 TEMPO 0312/0316 CAVOK=
201105030800 TAF LMML 030800Z 0309/0318 28008KT CAVOK
                      TEMPO 0312/0318 9999 FEW020=
201105030500 TAF LMML 030500Z 0306/0315 29008KT CAVOK
                      TEMPO 0306/0315 8000 FEW020=
201105030200 TAF LMML 030200Z 0303/0312 29010KT 8000 FEW012 SCT050
                      PROB30 REMPO 0303/0312 5000 DU=
201105022300 TAF LMML 022300Z 0300/0309 23012KT 9999 FEW012 SCT100
                      PROB30 TEMPO 0300/0303 8000 RA BKN050
                      BECMG 0303/0306 30010KT=
201105022000 TAF LMML 022000Z 0221/0306 23010KT 9999 FEW012 BKN100
                      PROB30 TEMPO 0221/0224 5000 TSRA BKN060CB
                       BECMG 0303/0306 29010KT=
201105021700 TAF LMML 021700Z 0218/0303 15012KT CAVOK
                      PROB30 TEMPO 0218/0222 8000 TSRA BKN090CB
                       BECMG 0222/0301 27012KT 9999 FEW015=
201105021400 TAF LMML 021400Z 0215/0224 15018KT CAVOK
                      PROB40 TEMPO 0212/0222 8000 TSRA FEW012 BKN080CB
                       BECMG 0221/0224 24015KT FEW015=
201105021100 TAF LMML 021100Z 0212/0221 15018KT CAVOK
                      PROB40 TEMPO 0212/0221 8000 TSRA FEW012 BKN080CB=
201105020800 TAF LMML 020800Z 0209/0218 15017KT CAVOK
                      PROB40 TEMPO 0212/0218 9000 SHRA FEW015
                      PROB30 TEMPO 0212/0218 8000 TSRA BKN080CB=
201105020500 TAF LMML 020500Z 0206/0215 15005KT CAVOK
                      PROB30 TEMPO 0206/0215 9999 FEW012
                      BECMG 0209/0212 15015KT
                      PROB30 TEMPO 0212/0215 TS SCT060CB=
201105020200 TAF LMML 020200Z 0203/0212 VRB03KT CAVOK
                      PROB40 TEMPO 0203/0206 5000 BR BKN005
                      BECMG 0209/0212 15015KT=
201105012300 TAF LMML 012300Z 0200/0209 VRB03KT CAVOK
                      PROB40 TEMPO 0202/0206 5000 BR BKN003
                      BECMG 0206/0209 15012KT=
201105012000 TAF LMML 012000Z 0121/0206 27006KT CAVOK
                      PROB40 TEMPO 0202/0206 5000 BR BKN003=
201105011700 TAF LMML 011700Z 0118/0203 27010KT CAVOK
                      PROB30 TEMPO 0121/0203 9000 SCT005=
201105011400 TAF LMML 011400Z 0115/0124 27015KT 9999 FEW020
                      TEMPO 0115/0117 27015G25KT
                      TEMPO 0121/0124 BKN014=
201105011100 TAF LMML 011100Z 0112/0121 28020G30KT 9999 FEW020
                      BECMG 0113/0116 28015KT
                      TEMPO 0118/0121 BKN015=
201105010800 TAF LMML 010800Z 0109/0118 28015KT 9999 FEW018=
201105010500 TAF COR LMML 010500Z 0106/0115 28016KT CAVOK
                      TEMPO 0106/0115 9999 FEW015
                      PROB40 TEMPO 0106/0109 9000 NSC=
201105010200 TAF LMML 010200Z 0103/0112 27014KT CAVOK
                      PROB40 TEMPO 0103/0108 8000 NSC
                      TEMPO 0103/0112 9999 FEW015=

###################################
#  large TAF from LMML
###################################
201105312300 TAF LMML NIL=
201105311700 TAF LMML NIL=
201105311100 TAF LMML NIL=
201105310500 TAF LMML NIL=
201105302300 TAF LMML NIL=
201105301700 TAF LMML NIL=
201105301100 TAF LMML NIL=
201105300500 TAF LMML NIL=
201105292300 TAF LMML NIL=
201105291700 TAF LMML NIL=
201105291100 TAF LMML NIL=
201105290500 TAF LMML NIL=
201105282300 TAF LMML NIL=
201105281700 TAF LMML NIL=
201105281100 TAF LMML NIL=
201105280500 TAF LMML NIL=
201105272300 TAF LMML NIL=
201105271700 TAF LMML NIL=
201105271100 TAF LMML NIL=
201105270500 TAF LMML NIL=
201105262300 TAF LMML NIL=
201105261700 TAF LMML NIL=
201105261100 TAF LMML NIL=
201105260500 TAF LMML NIL=
201105252300 TAF LMML NIL=
201105251700 TAF LMML NIL=
201105251100 TAF LMML NIL=
201105250500 TAF LMML NIL=
201105242300 TAF LMML NIL=
201105241700 TAF LMML NIL=
201105241100 TAF LMML NIL=
201105240500 TAF LMML NIL=
201105232300 TAF LMML NIL=
201105231700 TAF LMML NIL=
201105231100 TAF LMML NIL=
201105230500 TAF LMML NIL=
201105222300 TAF LMML NIL=
201105221700 TAF LMML NIL=
201105221100 TAF LMML NIL=
201105220500 TAF LMML NIL=
201105212300 TAF LMML NIL=
201105211700 TAF LMML NIL=
201105211100 TAF LMML NIL=
201105210500 TAF LMML NIL=
201105202300 TAF LMML NIL=
201105201700 TAF LMML NIL=
201105201100 TAF LMML NIL=
201105200500 TAF LMML NIL=
201105192300 TAF LMML NIL=
201105191700 TAF LMML NIL=
201105191100 TAF LMML NIL=
201105190500 TAF LMML NIL=
201105182300 TAF LMML NIL=
201105181700 TAF LMML NIL=
201105181100 TAF LMML NIL=
201105180500 TAF LMML NIL=
201105172300 TAF LMML NIL=
201105171700 TAF LMML NIL=
201105171100 TAF LMML NIL=
201105170500 TAF LMML NIL=
201105162300 TAF LMML NIL=
201105161700 TAF LMML NIL=
201105161100 TAF LMML NIL=
201105160500 TAF LMML NIL=
201105152300 TAF LMML NIL=
201105151700 TAF LMML NIL=
201105151100 TAF LMML NIL=
201105150500 TAF LMML NIL=
201105142300 TAF LMML NIL=
201105141700 TAF LMML NIL=
201105141100 TAF LMML NIL=
201105140500 TAF LMML NIL=
201105132300 TAF LMML NIL=
201105131700 TAF LMML NIL=
201105131100 TAF LMML NIL=
201105130500 TAF LMML NIL=
201105122300 TAF LMML NIL=
201105121700 TAF LMML NIL=
201105121100 TAF LMML NIL=
201105120500 TAF LMML NIL=
201105112300 TAF LMML NIL=
201105111700 TAF LMML NIL=
201105111100 TAF LMML NIL=
201105110500 TAF LMML NIL=
201105102300 TAF LMML NIL=
201105101700 TAF LMML NIL=
201105101100 TAF LMML NIL=
201105100500 TAF LMML NIL=
201105092300 TAF LMML NIL=
201105091700 TAF LMML NIL=
201105091100 TAF LMML NIL=
201105090500 TAF LMML NIL=
201105082300 TAF LMML NIL=
201105081700 TAF LMML NIL=
201105081100 TAF LMML NIL=
201105080500 TAF LMML NIL=
201105072300 TAF LMML NIL=
201105071700 TAF LMML NIL=
201105071100 TAF LMML NIL=
201105070500 TAF LMML NIL=
201105062300 TAF LMML NIL=
201105061700 TAF LMML NIL=
201105061100 TAF LMML NIL=
201105060500 TAF LMML NIL=
201105052300 TAF LMML NIL=
201105051700 TAF LMML NIL=
201105051100 TAF LMML NIL=
201105050500 TAF LMML NIL=
201105042300 TAF LMML NIL=
201105041700 TAF LMML NIL=
201105041100 TAF LMML NIL=
201105040500 TAF LMML NIL=
201105032300 TAF LMML NIL=
201105031700 TAF LMML NIL=
201105031100 TAF LMML NIL=
201105030500 TAF LMML NIL=
201105022300 TAF LMML NIL=
201105021700 TAF LMML NIL=
201105021100 TAF LMML NIL=
201105020500 TAF LMML NIL=
201105012300 TAF LMML NIL=
201105011700 TAF LMML NIL=
201105011100 TAF LMML NIL=
201105010500 TAF LMML NIL=
