##########################################################
# Query made at 01/18/2013 16:08:17 UTC
# Time interval: from 05/01/2009 00:00  to 05/31/2009 23:59  UTC
##########################################################

##########################################################
# LMML, Luqa (Malta)
# WMO index: 16597
# Latitude 35-51N. Longitude 014-29E. Altitude 91 m.
##########################################################

###################################
#  METAR/SPECI from LMML
###################################
200905312345 METAR LMML 312345Z 13015KT CAVOK 21/20 Q1014 NOSIG=
200905312330 METAR LMML NIL=
200905312315 METAR LMML 312315Z 12012KT 9999 FEW009 BKN120 21/20 Q1015
                        NOSIG=
200905312300 METAR LMML NIL=
200905312245 METAR LMML 312245Z 10012KT 9999 FEW009 BKN120 21/20 Q1014
                        NOSIG=
200905312230 METAR LMML NIL=
200905312215 METAR LMML 312215Z 11011KT CAVOK 21/20 Q1015 NOSIG=
200905312200 METAR LMML NIL=
200905312145 METAR LMML 312145Z 10011KT CAVOK 21/20 Q1016 NOSIG=
200905312130 METAR LMML NIL=
200905312115 METAR LMML 312115Z 11010KT CAVOK 21/19 Q1016 NOSIG=
200905312100 METAR LMML NIL=
200905312045 METAR LMML 312045Z 11013KT CAVOK 21/19 Q1016 NOSIG=
200905312030 METAR LMML NIL=
200905312015 METAR LMML 312015Z 12012KT CAVOK 21/20 Q1016 NOSIG=
200905312000 METAR LMML NIL=
200905311945 METAR LMML 311945Z 12014KT CAVOK 21/20 Q1016 NOSIG=
200905311930 METAR LMML NIL=
200905311915 METAR LMML 311915Z 12013KT CAVOK 22/19 Q1016 NOSIG=
200905311900 METAR LMML NIL=
200905311845 METAR LMML 311845Z 12012KT CAVOK 22/19 Q1016 NOSIG=
200905311830 METAR LMML NIL=
200905311815 METAR LMML 311815Z 12014KT CAVOK 22/19 Q1016 NOSIG=
200905311800 METAR LMML NIL=
200905311745 METAR LMML 311745Z 12012KT CAVOK 22/19 Q1016 NOSIG=
200905311730 METAR LMML NIL=
200905311715 METAR LMML 311715Z 12015KT CAVOK 23/19 Q1016 NOSIG=
200905311645 METAR LMML 311645Z 12015KT CAVOK 24/19 Q1015 NOSIG=
200905311630 METAR LMML NIL=
200905311615 METAR LMML 311615Z 11014KT CAVOK 24/19 Q1016 NOSIG=
200905311600 METAR LMML NIL=
200905311545 METAR LMML 311545Z 12014KT 9999 FEW010 24/18 Q1016 NOSIG=
200905311530 METAR LMML NIL=
200905311515 METAR LMML 311515Z 12017KT 9999 FEW010 25/19 Q1016 NOSIG=
200905311500 METAR LMML NIL=
200905311445 METAR LMML 311445Z 13016KT 100V160 9999 FEW010 25/18 Q1016
                        NOSIG=
200905311430 METAR LMML NIL=
200905311415 METAR LMML 311415Z 12015KT 090V160 9999 FEW010 25/18 Q1017
                        NOSIG=
200905311400 METAR LMML NIL=
200905311345 METAR LMML 311345Z 12015KT 9999 FEW010 26/18 Q1017 NOSIG=
200905311330 METAR LMML NIL=
200905311315 METAR LMML 311315Z 12015KT 9999 FEW011 25/19 Q1017 NOSIG=
200905311300 METAR LMML NIL=
200905311245 METAR LMML 311245Z 12014KT 090V150 9999 FEW010 26/18 Q1018
                        NOSIG=
200905311230 METAR LMML NIL=
200905311215 METAR LMML 311215Z 12014KT 080V150 9999 FEW010 27/19 Q1018
                        NOSIG=
200905311200 METAR LMML NIL=
200905311145 METAR LMML 311145Z 12014KT 9999 FEW010 26/18 Q1018 NOSIG=
200905311130 METAR LMML NIL=
200905311115 METAR LMML 311115Z 12016KT 9999 FEW012 25/17 Q1018 NOSIG=
200905311100 METAR LMML NIL=
200905311045 METAR LMML 311045Z 12014KT 9999 FEW012 26/17 Q1018 NOSIG=
200905311030 METAR LMML NIL=
200905311015 METAR LMML 311015Z 12013KT 9999 FEW012 26/18 Q1019 NOSIG=
200905311000 METAR LMML NIL=
200905310945 METAR LMML 310945Z 12012KT 9999 FEW012 26/18 Q1019 NOSIG=
200905310930 METAR LMML NIL=
200905310915 METAR LMML 310915Z 12012KT 080V140 9999 FEW012 25/17 Q1019
                        NOSIG=
200905310900 METAR LMML NIL=
200905310845 METAR LMML 310845Z 11010KT 9999 FEW010 25/18 Q1019 NOSIG=
200905310830 METAR LMML NIL=
200905310815 METAR LMML 310815Z 13010KT 9999 FEW009 25/18 Q1019 NOSIG=
200905310800 METAR LMML NIL=
200905310745 METAR LMML 310745Z 13010KT 100V160 9999 FEW009 24/18 Q1019
                        NOSIG=
200905310730 METAR LMML NIL=
200905310715 METAR LMML 310715Z 11009KT 090V150 9999 FEW008 23/18 Q1019
                        NOSIG=
200905310645 METAR LMML 310645Z 12010KT 9999 FEW008 23/19 Q1019 NOSIG=
200905310630 METAR LMML NIL=
200905310615 METAR LMML 310615Z 12010KT 9999 FEW007 22/19 Q1019 NOSIG=
200905310600 METAR LMML NIL=
200905310545 METAR LMML 310545Z 12009KT 7000 SCT006 22/20 Q1019 BECMG
                        9999 SCT012=
200905310530 METAR LMML NIL=
200905310515 METAR LMML 310515Z 13007KT 5000 SCT006 21/20 Q1019 BECMG
                        9999 SCT012=
200905310500 METAR LMML NIL=
200905310445 METAR LMML 310445Z 11005KT 5000 SCT006 20/20 Q1019 BECMG
                        9999=
200905310430 METAR LMML NIL=
200905310415 METAR LMML 310415Z 10005KT 3000 BR SCT006 20/20 Q1019 BECMG
                        5000 BR=
200905310400 METAR LMML NIL=
200905310345 METAR LMML 310345Z 10006KT 3000 BR BKN005 SCT120 20/20 Q1019
                        BECMG 5000 BR=
200905310330 METAR LMML NIL=
200905310315 METAR LMML 310315Z VRB03KT 5000 SCT006 SCT120 20/20 Q1019
                        NOSIG=
200905310300 METAR LMML NIL=
200905310245 METAR LMML 310245Z VRB02KT 5000 SCT005 20/19 Q1019 NOSIG=
200905310230 METAR LMML NIL=
200905310215 METAR LMML 310215Z VRB03KT 7000 SCT005 SCT012 20/19 Q1018
                        NOSIG=
200905310200 METAR LMML NIL=
200905310145 METAR LMML 310145Z VRB02KT 7000 FEW012 SCT120 20/19 Q1019
                        NOSIG=
200905310130 METAR LMML NIL=
200905310115 METAR LMML 310115Z VRB03KT 7000 FEW012 20/19 Q1019 NOSIG=
200905310100 METAR LMML NIL=
200905310045 METAR LMML 310045Z VRB03KT 9000 FEW012 20/19 Q1019 NOSIG=
200905310030 METAR LMML NIL=
200905310015 METAR LMML 310015Z VRB03KT 9000 NSC 19/18 Q1019 NOSIG=
200905310000 METAR LMML NIL=
200905302345 METAR LMML 302345Z VRB01KT CAVOK 19/18 Q1019 NOSIG=
200905302330 METAR LMML NIL=
200905302315 METAR LMML 302315Z VRB03KT CAVOK 20/18 Q1019 NOSIG=
200905302300 METAR LMML NIL=
200905302245 METAR LMML 302245Z 11004KT CAVOK 20/18 Q1019 NOSIG=
200905302230 METAR LMML NIL=
200905302215 METAR LMML 302215Z 11005KT 9999 FEW015 20/18 Q1019 NOSIG=
200905302200 METAR LMML NIL=
200905302145 METAR LMML 302145Z 10004KT 9999 FEW015 20/18 Q1019 NOSIG=
200905302130 METAR LMML NIL=
200905302115 METAR LMML 302115Z VRB03KT CAVOK 21/18 Q1019 NOSIG=
200905302100 METAR LMML NIL=
200905302045 METAR LMML 302045Z 10005KT CAVOK 20/18 Q1019 NOSIG=
200905302030 METAR LMML NIL=
200905302015 METAR LMML 302015Z 10004KT 9000 NSC 21/18 Q1019 NOSIG=
200905302000 METAR LMML NIL=
200905301945 METAR LMML 301945Z 11006KT 070V140 9000 NSC 21/18 Q1019 NOSIG=
200905301930 METAR LMML NIL=
200905301915 METAR LMML 301915Z 09004KT 040V130 9000 NSC 21/18 Q1019 NOSIG=
200905301900 METAR LMML NIL=
200905301845 METAR LMML 301845Z 12005KT 9000 NSC 21/18 Q1019 NOSIG=
200905301830 METAR LMML NIL=
200905301815 METAR LMML 301815Z 10005KT 9000 NSC 21/18 Q1018 NOSIG=
200905301800 METAR LMML NIL=
200905301745 METAR LMML 301745Z 10007KT 9000 FEW014 BKN250 22/18 Q1018
                        NOSIG=
200905301730 METAR LMML NIL=
200905301715 METAR LMML 301715Z 10006KT 060V130 9000 FEW014 BKN250 22/18
                        Q1018 NOSIG=
200905301700 METAR LMML NIL=
200905301645 METAR LMML 301645Z 10006KT 050V150 9999 FEW018 23/18 Q1018
                        NOSIG=
200905301630 METAR LMML NIL=
200905301615 METAR LMML 301615Z 11005KT 070V140 9999 FEW018 23/18 Q1018
                        NOSIG=
200905301600 METAR LMML NIL=
200905301545 METAR LMML 301545Z 08005KT 050V110 9999 FEW018 24/18 Q1018
                        NOSIG=
200905301530 METAR LMML NIL=
200905301515 METAR LMML 301515Z 06006KT 010V100 9999 SCT017 23/18 Q1019
                        NOSIG=
200905301500 METAR LMML NIL=
200905301445 METAR LMML 301445Z 08008KT 050V120 9999 SCT017 24/18 Q1019
                        NOSIG=
200905301430 METAR LMML NIL=
200905301415 METAR LMML 301415Z 07006KT 010V140 9999 SCT019 26/19 Q1019
                        NOSIG=
200905301400 METAR LMML NIL=
200905301345 METAR LMML 301345Z 09006KT 9999 SCT019 24/18 Q1019 NOSIG=
200905301330 METAR LMML NIL=
200905301315 METAR LMML 301315Z 05006KT 360V110 9999 SCT020 26/19 Q1019
                        NOSIG=
200905301300 METAR LMML NIL=
200905301245 METAR LMML 301245Z 18004KT 9999 SCT017 24/18 Q1019 NOSIG=
200905301230 METAR LMML NIL=
200905301215 METAR LMML 301215Z 01006KT 320V060 9999 SCT017 24/18 Q1019
                        NOSIG=
200905301200 METAR LMML NIL=
200905301145 METAR LMML 301145Z 03005KT 9999 SCT018 24/18 Q1019 NOSIG=
200905301130 METAR LMML NIL=
200905301115 METAR LMML 301115Z 22004KT 130V360 9999 SCT019 26/18 Q1019
                        NOSIG=
200905301100 METAR LMML NIL=
200905301045 METAR LMML 301045Z VRB03KT 9999 SCT016 25/18 Q1019 NOSIG=
200905301030 METAR LMML NIL=
200905301015 METAR LMML 301015Z 18005KT 150V220 9999 SCT014 SCT016 24/18
                        Q1019 NOSIG=
200905301000 METAR LMML NIL=
200905300945 METAR LMML 300945Z 19005KT 120V250 9999 FEW013 SCT016 25/19
                        Q1019 NOSIG=
200905300930 METAR LMML NIL=
200905300915 METAR LMML 300915Z 20006KT 160V240 9999 BKN018 24/19 Q1019
                        NOSIG=
200905300900 METAR LMML NIL=
200905300845 METAR LMML 300845Z VRB03KT 9999 BKN020 23/18 Q1019 NOSIG=
200905300830 METAR LMML NIL=
200905300815 METAR LMML 300815Z VRB03KT 9999 SCT020 26/18 Q1019 NOSIG=
200905300800 METAR LMML NIL=
200905300745 METAR LMML 300745Z 05004KT 350V100 9999 SCT019 25/17 Q1018
                        NOSIG=
200905300730 METAR LMML NIL=
200905300715 METAR LMML 300715Z VRB03KT 9999 SCT015 23/18 Q1018 NOSIG=
200905300700 METAR LMML NIL=
200905300645 METAR LMML 300645Z 03004KT 360V060 9000 FEW011 SCT014 23/18
                        Q1018 BECMG 9999 SCT018=
200905300630 METAR LMML NIL=
200905300615 METAR LMML 300615Z 07004KT 020V110 6000 FEW011 SCT018 23/18
                        Q1018 BECMG 9000 SCT018=
200905300600 METAR LMML NIL=
200905300545 METAR LMML 300545Z VRB01KT 6000 FEW008 SCT017 20/19 Q1017
                        NOSIG=
200905300530 METAR LMML NIL=
200905300515 METAR LMML 300515Z VRB01KT 6000 FEW006 SCT007 20/19 Q1018
                        NOSIG=
200905300500 METAR LMML NIL=
200905300445 METAR LMML 300445Z VRB01KT 6000 SCT008 19/19 Q1017 NOSIG=
200905300430 METAR LMML NIL=
200905300415 METAR LMML 300415Z VRB01KT 6000 SCT008 19/19 Q1017 NOSIG=
200905300400 METAR LMML NIL=
200905300345 METAR LMML 300345Z VRB02KT 7000 SCT008 19/19 Q1016 NOSIG=
200905300330 METAR LMML NIL=
200905300315 METAR LMML 300315Z VRB03KT 7000 SCT008 20/19 Q1016 NOSIG=
200905300300 METAR LMML NIL=
200905300245 METAR LMML 300245Z 05004KT 010V080 7000 SCT008 20/19 Q1016
                        TEMPO BKN006=
200905300230 METAR LMML NIL=
200905300215 METAR LMML 300215Z 05004KT 020V080 7000 SCT008 20/19 Q1016
                        TEMPO BKN006=
200905300200 METAR LMML NIL=
200905300145 METAR LMML 300145Z 03006KT 7000 SCT008 20/19 Q1016 NOSIG=
200905300130 METAR LMML NIL=
200905300115 METAR LMML 300115Z 02005KT 360V060 7000 SCT008 20/19 Q1016
                        TEMPO BKN005=
200905300100 METAR LMML NIL=
200905300045 METAR LMML 300045Z 03006KT 7000 BKN007 20/19 Q1016 TEMPO
                        BKN005=
200905300030 METAR LMML NIL=
200905300015 METAR LMML 300015Z 03005KT 7000 BKN006 20/19 Q1016 TEMPO
                        BKN005=
200905300000 METAR LMML NIL=
200905292345 METAR LMML 292345Z 03006KT 010V070 7000 BKN006 20/19 Q1016
                        TEMPO BKN005=
200905292330 METAR LMML NIL=
200905292315 METAR LMML 292315Z 03006KT 360V060 7000 BKN008 21/19 Q1016
                        NOSIG=
200905292300 METAR LMML NIL=
200905292245 METAR LMML 292245Z 36007KT 7000 BKN009 20/19 Q1016 TEMPO
                        SCT009=
200905292230 METAR LMML NIL=
200905292215 METAR LMML 292215Z 01005KT 7000 BKN009 21/19 Q1016 NOSIG=
200905292200 METAR LMML NIL=
200905292145 METAR LMML 292145Z 01005KT 7000 SCT009 20/19 Q1016 TEMPO
                        BKN008=
200905292130 METAR LMML NIL=
200905292115 METAR LMML 292115Z 35007KT 7000 SCT009 21/19 Q1016 TEMPO
                        BKN008=
200905292100 METAR LMML NIL=
200905292045 METAR LMML 292045Z 35004KT 9000 SCT011 21/19 Q1016 TEMPO
                        BKN010=
200905292030 METAR LMML NIL=
200905292015 METAR LMML 292015Z VRB03KT 9000 SCT011 21/18 Q1016 TEMPO
                        BKN010=
200905292000 METAR LMML NIL=
200905291945 METAR LMML 291945Z VRB03KT 9000 SCT011 21/19 Q1016 TEMPO
                        BKN010=
200905291930 METAR LMML NIL=
200905291915 METAR LMML 291915Z 35005KT 9000 SCT011 21/18 Q1016 TEMPO
                        BKN010=
200905291900 METAR LMML NIL=
200905291845 METAR LMML 291845Z 01004KT 320V030 9000 SCT012 22/19 Q1015
                        TEMPO BKN010=
200905291830 METAR LMML NIL=
200905291815 METAR LMML 291815Z VRB03KT 9999 SCT018 22/18 Q1015 TEMPO
                        9000=
200905291800 METAR LMML NIL=
200905291745 METAR LMML 291745Z 22004KT 9999 FEW023 22/18 Q1015 NOSIG=
200905291730 METAR LMML NIL=
200905291715 METAR LMML 291715Z 21004KT 180V270 9999 SCT023 23/18 Q1015
                        NOSIG=
200905291700 METAR LMML NIL=
200905291645 METAR LMML 291645Z 20004KT 9999 FEW027 23/18 Q1015 NOSIG=
200905291630 METAR LMML NIL=
200905291615 METAR LMML 291615Z VRB03KT 9999 SCT027 24/17 Q1015 NOSIG=
200905291600 METAR LMML NIL=
200905291545 METAR LMML 291545Z 06006KT 020V110 9999 SCT024 25/18 Q1015
                        NOSIG=
200905291530 METAR LMML NIL=
200905291515 METAR LMML 291515Z VRB03KT 9999 BKN020 23/17 Q1015 NOSIG=
200905291500 METAR LMML NIL=
200905291445 METAR LMML 291445Z 19004KT 140V250 9999 SCT021 24/18 Q1015
                        NOSIG=
200905291430 METAR LMML NIL=
200905291415 METAR LMML 291415Z 19005KT 140V260 9999 FEW021 25/18 Q1015
                        NOSIG=
200905291400 METAR LMML NIL=
200905291345 METAR LMML 291345Z 21006KT 170V270 9999 SCT019 23/17 Q1015
                        NOSIG=
200905291330 METAR LMML NIL=
200905291315 METAR LMML 291315Z 01005KT 330V050 9999 BKN020 27/18 Q1015
                        NOSIG=
200905291300 METAR LMML NIL=
200905291245 METAR LMML 291245Z 01007KT 9999 SCT019 26/18 Q1015 NOSIG=
200905291230 METAR LMML NIL=
200905291215 METAR LMML 291215Z 23005KT 160V320 9999 SCT026 26/18 Q1015
                        NOSIG=
200905291200 METAR LMML NIL=
200905291145 METAR LMML 291145Z 17004KT 100V250 9999 FEW022 25/17 Q1015
                        NOSIG=
200905291130 METAR LMML NIL=
200905291115 METAR LMML 291115Z 19005KT 100V290 9999 SCT024 26/18 Q1015
                        NOSIG=
200905291100 METAR LMML NIL=
200905291045 METAR LMML 291045Z 14004KT 080V210 9999 SCT020 26/18 Q1016
                        NOSIG=
200905291030 METAR LMML NIL=
200905291015 METAR LMML 291015Z 17007KT 120V220 9999 SCT018 23/17 Q1016
                        TEMPO BKN015=
200905291000 METAR LMML NIL=
200905290945 METAR LMML 290945Z 21007KT 160V260 9000 BKN017 23/18 Q1016
                        TEMPO BKN015=
200905290930 METAR LMML NIL=
200905290915 METAR LMML 290915Z 14005KT 060V250 9000 SCT016 25/19 Q1016
                        TEMPO BKN015=
200905290900 METAR LMML NIL=
200905290845 METAR LMML 290845Z 13004KT 080V210 9000 BKN016 25/18 Q1016
                        NOSIG=
200905290830 METAR LMML NIL=
200905290815 METAR LMML 290815Z VRB03KT 9000 SCT014 24/18 Q1016 NOSIG=
200905290800 METAR LMML NIL=
200905290745 METAR LMML 290745Z 24005KT 9000 SCT012 23/18 Q1016 NOSIG=
200905290730 METAR LMML NIL=
200905290715 METAR LMML 290715Z 13006KT 100V170 9000 FEW011 23/18 Q1016
                        NOSIG=
200905290700 METAR LMML NIL=
200905290645 METAR LMML 290645Z 11004KT 070V190 9000 FEW010 22/18 Q1016
                        NOSIG=
200905290630 METAR LMML NIL=
200905290615 METAR LMML 290615Z VRB02KT 9000 FEW016 SCT130 22/18 Q1016
                        NOSIG=
200905290600 METAR LMML NIL=
200905290545 METAR LMML 290545Z VRB02KT 9000 FEW008 SCT130 20/18 Q1016
                        NOSIG=
200905290530 METAR LMML NIL=
200905290515 METAR LMML 290515Z VRB03KT 6000 FEW009 BKN130 19/18 Q1016
                        NOSIG=
200905290500 METAR LMML NIL=
200905290445 METAR LMML 290445Z VRB02KT 6000 FEW012 BKN120 18/18 Q1016
                        NOSIG=
200905290430 METAR LMML NIL=
200905290415 METAR LMML 290415Z VRB03KT 7000 -SHRA FEW012 SCT120 18/18
                        Q1016 NOSIG=
200905290400 METAR LMML NIL=
200905290345 METAR LMML 290345Z VRB03KT 7000 FEW008 SCT120 18/17 Q1016
                        NOSIG=
200905290330 METAR LMML NIL=
200905290315 METAR LMML 290315Z VRB01KT 7000 SCT008 SCT120 19/17 Q1016
                        NOSIG=
200905290300 METAR LMML NIL=
200905290245 METAR LMML 290245Z VRB03KT 6000 BKN008 SCT120 19/18 Q1016
                        NOSIG=
200905290230 METAR LMML NIL=
200905290215 METAR LMML 290215Z 36004KT 320V030 6000 BKN006 SCT120 18/18
                        Q1016 NOSIG=
200905290200 METAR LMML NIL=
200905290145 METAR LMML 290145Z VRB01KT 9999 FEW008 SCT120 18/17 Q1016
                        NOSIG=
200905290130 METAR LMML NIL=
200905290115 METAR LMML 290115Z VRB01KT CAVOK 18/17 Q1016 NOSIG=
200905290100 METAR LMML NIL=
200905290045 METAR LMML 290045Z 31005KT CAVOK 18/17 Q1016 NOSIG=
200905290030 METAR LMML NIL=
200905290015 METAR LMML 290015Z VRB02KT CAVOK 18/17 Q1016 NOSIG=
200905290000 METAR LMML NIL=
200905282345 METAR LMML 282345Z 26004KT 230V290 CAVOK 18/16 Q1017 NOSIG=
200905282330 METAR LMML NIL=
200905282315 METAR LMML 282315Z 25004KT CAVOK 19/16 Q1017 NOSIG=
200905282300 METAR LMML NIL=
200905282245 METAR LMML 282245Z VRB03KT CAVOK 18/16 Q1017 NOSIG=
200905282230 METAR LMML NIL=
200905282215 METAR LMML 282215Z 23004KT 180V280 CAVOK 18/16 Q1017 NOSIG=
200905282200 METAR LMML NIL=
200905282145 METAR LMML 282145Z VRB02KT CAVOK 18/16 Q1017 NOSIG=
200905282130 METAR LMML NIL=
200905282115 METAR LMML 282115Z VRB03KT CAVOK 19/16 Q1017 NOSIG=
200905282100 METAR LMML NIL=
200905282045 METAR LMML 282045Z 31004KT CAVOK 19/16 Q1017 NOSIG=
200905282030 METAR LMML NIL=
200905282015 METAR LMML 282015Z VRB02KT CAVOK 19/16 Q1017 NOSIG=
200905282000 METAR LMML NIL=
200905281945 METAR LMML 281945Z 30005KT CAVOK 19/16 Q1017 NOSIG=
200905281930 METAR LMML NIL=
200905281915 METAR LMML 281915Z 31004KT CAVOK 19/16 Q1017 NOSIG=
200905281900 METAR LMML NIL=
200905281845 METAR LMML 281845Z 31006KT CAVOK 19/16 Q1017 NOSIG=
200905281830 METAR LMML NIL=
200905281815 METAR LMML 281815Z 31005KT CAVOK 20/16 Q1017 NOSIG=
200905281800 METAR LMML NIL=
200905281745 METAR LMML 281745Z 33005KT CAVOK 21/16 Q1017 NOSIG=
200905281730 METAR LMML NIL=
200905281715 METAR LMML 281715Z 33007KT 290V350 CAVOK 22/16 Q1017 NOSIG=
200905281700 METAR LMML NIL=
200905281645 METAR LMML 281645Z 33010KT CAVOK 22/16 Q1017 NOSIG=
200905281630 METAR LMML NIL=
200905281615 METAR LMML 281615Z 33009KT CAVOK 23/17 Q1017 NOSIG=
200905281600 METAR LMML NIL=
200905281545 METAR LMML 281545Z 34009KT CAVOK 24/17 Q1017 NOSIG=
200905281530 METAR LMML NIL=
200905281515 METAR LMML 281515Z 32010KT 280V340 CAVOK 24/17 Q1017 NOSIG=
200905281500 METAR LMML NIL=
200905281445 METAR LMML 281445Z 31010KT 270V350 9999 FEW020 25/17 Q1017
                        NOSIG=
200905281430 METAR LMML NIL=
200905281415 METAR LMML 281415Z 30009KT 260V340 CAVOK 25/17 Q1017 NOSIG=
200905281400 METAR LMML NIL=
200905281345 METAR LMML 281345Z 33009KT 300V360 9999 FEW020 26/17 Q1017
                        NOSIG=
200905281330 METAR LMML NIL=
200905281315 METAR LMML 281315Z 34010KT 280V360 9999 FEW020 25/17 Q1017
                        NOSIG=
200905281300 METAR LMML NIL=
200905281245 METAR LMML 281245Z 34010KT 310V010 9999 FEW020 25/17 Q1018
                        NOSIG=
200905281230 METAR LMML NIL=
200905281215 METAR LMML 281215Z 34010KT 310V010 CAVOK 25/17 Q1018 NOSIG=
200905281200 METAR LMML NIL=
200905281145 METAR LMML 281145Z 33010KT 300V010 9999 FEW020 24/17 Q1018
                        NOSIG=
200905281130 METAR LMML NIL=
200905281115 METAR LMML 281115Z 34013KT 9999 FEW018 25/18 Q1018 NOSIG=
200905281100 METAR LMML NIL=
200905281045 METAR LMML 281045Z 34011KT 9999 FEW018 25/18 Q1018 NOSIG=
200905281030 METAR LMML NIL=
200905281015 METAR LMML 281015Z 30010KT 270V350 9999 FEW030 25/18 Q1018
                        NOSIG=
200905281000 METAR LMML NIL=
200905280945 METAR LMML 280945Z 29010KT 260V330 9999 FEW030 SCT120 25/18
                        Q1018 NOSIG=
200905280930 METAR LMML NIL=
200905280915 METAR LMML 280915Z 30007KT 270V340 9999 FEW015 SCT120 25/18
                        Q1017 NOSIG=
200905280900 METAR LMML NIL=
200905280845 METAR LMML 280845Z 31007KT 250V350 9999 FEW015 SCT120 25/18
                        Q1017 NOSIG=
200905280830 METAR LMML NIL=
200905280815 METAR LMML 280815Z 30009KT 9999 FEW013 SCT120 23/18 Q1017
                        NOSIG=
200905280800 METAR LMML NIL=
200905280745 METAR LMML 280745Z 31009KT 280V340 9000 FEW013 SCT120 23/18
                        Q1017 BECMG 9999=
200905280730 METAR LMML NIL=
200905280715 METAR LMML 280715Z 31008KT 290V350 9000 SCT010 SCT120 22/18
                        Q1017 NOSIG=
200905280700 METAR LMML NIL=
200905280645 METAR LMML 280645Z 33008KT 9000 FEW009 SCT120 21/18 Q1017
                        BECMG CAVOK=
200905280630 METAR LMML NIL=
200905280615 METAR LMML 280615Z 33011KT 290V350 9000 FEW008 SCT120 21/18
                        Q1016 BECMG CAVOK=
200905280600 METAR LMML NIL=
200905280545 METAR LMML 280545Z 32009KT 9000 FEW008 BKN120 21/18 Q1017
                        NOSIG=
200905280530 METAR LMML NIL=
200905280515 METAR LMML 280515Z 33011KT 7000 FEW008 BKN120 20/18 Q1016
                        NOSIG=
200905280500 METAR LMML NIL=
200905280445 METAR LMML 280445Z 33011KT 7000 FEW009 BKN120 19/18 Q1016
                        NOSIG=
200905280430 METAR LMML NIL=
200905280415 METAR LMML 280415Z 33010KT 7000 SCT009 SCT120 19/18 Q1016
                        NOSIG=
200905280400 METAR LMML NIL=
200905280345 METAR LMML 280345Z 33008KT 7000 FEW008 SCT120 19/18 Q1016
                        NOSIG=
200905280330 METAR LMML NIL=
200905280315 METAR LMML 280315Z 32012KT 9000 FEW008 SCT120 SCT250 19/18
                        Q1016 NOSIG=
200905280300 METAR LMML NIL=
200905280245 METAR LMML 280245Z 32008KT 9000 FEW007 BKN250 19/18 Q1016
                        NOSIG=
200905280230 METAR LMML NIL=
200905280215 METAR LMML 280215Z 31012KT 9000 FEW007 BKN250 20/18 Q1016
                        NOSIG=
200905280200 METAR LMML NIL=
200905280145 METAR LMML 280145Z 30006KT 250V350 9000 FEW007 BKN250 20/18
                        Q1016 NOSIG=
200905280130 METAR LMML NIL=
200905280115 METAR LMML 280115Z 30009KT 9000 FEW007 SCT250 20/18 Q1016
                        NOSIG=
200905280100 METAR LMML NIL=
200905280045 METAR LMML 280045Z 30007KT 280V340 9999 FEW012 SCT250 20/18
                        Q1016 NOSIG=
200905280030 METAR LMML NIL=
200905280015 METAR COR LMML 280015Z 31008KT 9999 FEW012 SCT250 20/18 Q1016
                        NOSIG=
200905280000 METAR LMML NIL=
200905272345 METAR LMML 272345Z 31007KT CAVOK 20/18 Q1016 NOSIG=
200905272330 METAR LMML NIL=
200905272315 METAR LMML 272315Z 30008KT CAVOK 21/18 Q1016 NOSIG=
200905272300 METAR LMML NIL=
200905272245 METAR LMML 272245Z 31007KT CAVOK 21/18 Q1016 NOSIG=
200905272230 METAR LMML NIL=
200905272215 METAR LMML 272215Z 30006KT CAVOK 21/18 Q1016 NOSIG=
200905272200 METAR LMML NIL=
200905272145 METAR LMML 272145Z 30005KT 270V330 CAVOK 21/18 Q1016 NOSIG=
200905272130 METAR LMML NIL=
200905272115 METAR LMML 272115Z 30006KT 9999 FEW008 BKN250 21/18 Q1016
                        NOSIG=
200905272100 METAR LMML NIL=
200905272045 METAR LMML 272045Z 30005KT 9999 FEW008 BKN250 21/19 Q1016
                        NOSIG=
200905272030 METAR LMML NIL=
200905272015 METAR LMML 272015Z 32005KT 290V350 9000 FEW008 BKN250 21/18
                        Q1016 NOSIG=
200905272000 METAR LMML NIL=
200905271945 METAR LMML 271945Z 30008KT 8000 FEW008 BKN250 21/19 Q1016
                        NOSIG=
200905271930 METAR LMML NIL=
200905271915 METAR LMML 271915Z 31010KT 7000 FEW008 BKN250 21/19 Q1016
                        TEMPO 5000 BKN008=
200905271900 METAR LMML NIL=
200905271845 METAR LMML 271845Z 32008KT 7000 FEW008 BKN250 21/18 Q1015
                        TEMPO 5000 BKN008=
200905271830 METAR LMML NIL=
200905271815 METAR LMML 271815Z 30006KT 6000 FEW008 BKN250 21/18 Q1015
                        TEMPO 5000 BKN008=
200905271800 METAR LMML NIL=
200905271745 METAR LMML 271745Z 32010KT 8000 FEW008 BKN250 21/18 Q1016
                        NOSIG=
200905271730 METAR LMML NIL=
200905271715 METAR LMML 271715Z 31012KT 270V340 8000 FEW008 BKN250 22/18
                        Q1016 NOSIG=
200905271645 METAR LMML 271645Z 30009KT 260V330 9999 FEW015 BKN250 23/18
                        Q1015 NOSIG=
200905271630 METAR LMML NIL=
200905271615 METAR LMML 271615Z 30010KT 9999 FEW015 BKN250 24/17 Q1015
                        NOSIG=
200905271600 METAR LMML NIL=
200905271545 METAR LMML 271545Z 32005KT 290V360 CAVOK 26/16 Q1015 NOSIG=
200905271530 METAR LMML NIL=
200905271515 METAR LMML 271515Z 33005KT CAVOK 26/17 Q1016 NOSIG=
200905271500 METAR LMML NIL=
200905271445 METAR LMML 271445Z 35005KT CAVOK 28/18 Q1015 NOSIG=
200905271430 METAR LMML NIL=
200905271415 METAR LMML 271415Z 32006KT 280V010 CAVOK 28/17 Q1016 NOSIG=
200905271400 METAR LMML NIL=
200905271345 METAR LMML 271345Z 33008KT 290V010 CAVOK 29/17 Q1016 NOSIG=
200905271330 METAR LMML NIL=
200905271315 METAR LMML 271315Z 33007KT 300V010 CAVOK 28/17 Q1016 NOSIG=
200905271300 METAR LMML NIL=
200905271245 METAR LMML 271245Z 32007KT 270V350 CAVOK 28/16 Q1016 NOSIG=
200905271230 METAR LMML NIL=
200905271215 METAR LMML 271215Z 33008KT 280V360 CAVOK 28/18 Q1016 NOSIG=
200905271200 METAR LMML NIL=
200905271145 METAR LMML 271145Z 33007KT 290V360 9999 FEW025 28/18 Q1016
                        NOSIG=
200905271130 METAR LMML NIL=
200905271115 METAR LMML 271115Z 33007KT 300V360 CAVOK 28/17 Q1016 NOSIG=
200905271100 METAR LMML NIL=
200905271045 METAR LMML 271045Z 32007KT 280V010 CAVOK 28/18 Q1017 NOSIG=
200905271030 METAR LMML NIL=
200905271015 METAR LMML 271015Z 31008KT CAVOK 26/17 Q1016 NOSIG=
200905271000 METAR LMML NIL=
200905270945 METAR LMML 270945Z 32006KT 270V350 CAVOK 28/18 Q1017 NOSIG=
200905270930 METAR LMML NIL=
200905270915 METAR LMML 270915Z 32006KT 270V020 CAVOK 28/18 Q1017 NOSIG=
200905270900 METAR LMML NIL=
200905270845 METAR LMML 270845Z 33007KT CAVOK 28/16 Q1016 NOSIG=
200905270830 METAR LMML NIL=
200905270815 METAR LMML 270815Z 32006KT 260V010 CAVOK 28/16 Q1016 NOSIG=
200905270800 METAR LMML NIL=
200905270745 METAR LMML 270745Z 34007KT 290V360 CAVOK 26/16 Q1016 NOSIG=
200905270730 METAR LMML NIL=
200905270715 METAR LMML 270715Z 33008KT CAVOK 26/15 Q1016 NOSIG=
200905270700 METAR LMML NIL=
200905270645 METAR LMML 270645Z 33008KT CAVOK 24/15 Q1015 NOSIG=
200905270630 METAR LMML NIL=
200905270615 METAR COR LMML 270615Z 34006KT 9999 FEW015 24/17 Q1015 NOSIG=
200905270600 METAR LMML NIL=
200905270545 METAR LMML 270545Z 32007KT 9999 FEW015 22/17 Q1015 NOSIG=
200905270530 METAR LMML NIL=
200905270515 METAR LMML 270515Z 33006KT CAVOK 22/16 Q1015 NOSIG=
200905270500 METAR LMML NIL=
200905270445 METAR LMML 270445Z 32006KT CAVOK 21/15 Q1015 NOSIG=
200905270415 METAR LMML 270415Z 32006KT CAVOK 20/16 Q1015 NOSIG=
200905270400 METAR LMML NIL=
200905270345 METAR LMML 270345Z 32006KT CAVOK 20/16 Q1014 NOSIG=
200905270330 METAR LMML NIL=
200905270315 METAR LMML 270315Z 32007KT CAVOK 21/15 Q1014 NOSIG=
200905270300 METAR LMML NIL=
200905270245 METAR LMML 270245Z 31007KT CAVOK 21/16 Q1014 NOSIG=
200905270230 METAR LMML NIL=
200905270215 METAR LMML 270215Z 32006KT CAVOK 21/14 Q1014 NOSIG=
200905270200 METAR LMML NIL=
200905270145 METAR LMML 270145Z 32004KT CAVOK 22/14 Q1014 NOSIG=
200905270130 METAR LMML NIL=
200905270115 METAR LMML 270115Z 30004KT 270V330 CAVOK 22/12 Q1014 NOSIG=
200905270100 METAR LMML NIL=
200905270045 METAR LMML 270045Z 27005KT 230V310 CAVOK 22/14 Q1015 NOSIG=
200905270030 METAR LMML NIL=
200905270015 METAR LMML 270015Z VRB02KT CAVOK 21/13 Q1015 NOSIG=
200905270000 METAR LMML NIL=
200905262345 METAR LMML 262345Z VRB03KT CAVOK 21/13 Q1015 NOSIG=
200905262330 METAR LMML NIL=
200905262315 METAR LMML 262315Z VRB03KT CAVOK 22/10 Q1015 NOSIG=
200905262300 METAR LMML NIL=
200905262245 METAR LMML 262245Z VRB03KT CAVOK 22/10 Q1015 NOSIG=
200905262230 METAR LMML NIL=
200905262215 METAR LMML 262215Z 29004KT CAVOK 23/09 Q1015 NOSIG=
200905262200 METAR LMML NIL=
200905262145 METAR LMML 262145Z 30005KT CAVOK 23/09 Q1016 NOSIG=
200905262130 METAR LMML NIL=
200905262115 METAR LMML 262115Z 30005KT CAVOK 23/10 Q1016 NOSIG=
200905262100 METAR LMML NIL=
200905262045 METAR LMML 262045Z 31004KT CAVOK 23/09 Q1016 NOSIG=
200905262030 METAR LMML NIL=
200905262015 METAR LMML 262015Z 32005KT CAVOK 24/08 Q1016 NOSIG=
200905262000 METAR LMML NIL=
200905261945 METAR LMML 261945Z VRB03KT CAVOK 25/07 Q1015 NOSIG=
200905261930 METAR LMML NIL=
200905261915 METAR LMML 261915Z VRB03KT CAVOK 24/07 Q1015 NOSIG=
200905261900 METAR LMML NIL=
200905261845 METAR LMML 261845Z VRB03KT CAVOK 25/07 Q1015 NOSIG=
200905261830 METAR LMML NIL=
200905261815 METAR LMML 261815Z 31005KT CAVOK 25/09 Q1015 NOSIG=
200905261800 METAR LMML NIL=
200905261745 METAR LMML 261745Z 32004KT CAVOK 27/08 Q1015 NOSIG=
200905261730 METAR LMML NIL=
200905261715 METAR LMML 261715Z 32005KT 280V340 CAVOK 28/09 Q1015 NOSIG=
200905261700 METAR LMML NIL=
200905261645 METAR LMML 261645Z 32007KT 290V350 CAVOK 29/09 Q1015 NOSIG=
200905261630 METAR LMML NIL=
200905261615 METAR LMML 261615Z 32006KT 280V350 CAVOK 30/08 Q1015 NOSIG=
200905261600 METAR LMML NIL=
200905261545 METAR LMML 261545Z 31007KT 270V340 CAVOK 30/08 Q1015 NOSIG=
200905261530 METAR LMML NIL=
200905261515 METAR LMML 261515Z 29008KT 260V330 CAVOK 31/09 Q1015 NOSIG
                        RMK CB TOPS TO NE=
200905261500 METAR LMML NIL=
200905261445 METAR LMML 261445Z 31008KT 270V340 CAVOK 31/08 Q1015 NOSIG
                        RMK CB TOP TO NE=
200905261430 METAR LMML NIL=
200905261415 METAR LMML 261415Z 33008KT 290V350 CAVOK 32/10 Q1015 NOSIG
                        RMK CB TOP TO NE=
200905261400 METAR LMML NIL=
200905261345 METAR LMML 261345Z 31007KT 270V360 CAVOK 32/11 Q1015 NOSIG
                        RMK CB TOP TO NE=
200905261330 METAR LMML NIL=
200905261315 METAR LMML 261315Z 29007KT 240V320 CAVOK 31/09 Q1015 NOSIG=
200905261300 METAR LMML NIL=
200905261245 METAR LMML 261245Z 32008KT 260V360 CAVOK 31/09 Q1016 NOSIG=
200905261230 METAR LMML NIL=
200905261215 METAR LMML 261215Z 30007KT 250V350 CAVOK 31/10 Q1016 NOSIG=
200905261200 METAR LMML NIL=
200905261145 METAR LMML 261145Z 28009KT 250V310 CAVOK 31/10 Q1016 NOSIG=
200905261130 METAR LMML NIL=
200905261115 METAR LMML 261115Z 30007KT 250V010 CAVOK 31/11 Q1016 NOSIG=
200905261100 METAR LMML NIL=
200905261045 METAR LMML 261045Z 31006KT 270V020 CAVOK 31/12 Q1016 NOSIG=
200905261030 METAR LMML NIL=
200905261015 METAR LMML 261015Z 36006KT 310V050 CAVOK 32/13 Q1017 NOSIG=
200905261000 METAR LMML NIL=
200905260945 METAR LMML 260945Z 32005KT 260V030 CAVOK 31/12 Q1017 NOSIG=
200905260930 METAR LMML NIL=
200905260915 METAR LMML 260915Z 30007KT 260V340 CAVOK 30/10 Q1017 NOSIG=
200905260900 METAR LMML NIL=
200905260845 METAR LMML 260845Z 33008KT CAVOK 30/10 Q1016 NOSIG=
200905260830 METAR LMML NIL=
200905260815 METAR LMML 260815Z 30007KT 240V350 CAVOK 30/09 Q1017 NOSIG=
200905260800 METAR LMML NIL=
200905260745 METAR LMML 260745Z 32005KT 290V020 CAVOK 30/10 Q1016 NOSIG=
200905260730 METAR LMML NIL=
200905260715 METAR LMML 260715Z 33004KT 280V360 CAVOK 28/10 Q1016 NOSIG=
200905260700 METAR LMML NIL=
200905260645 METAR LMML 260645Z VRB03KT CAVOK 27/09 Q1016 NOSIG=
200905260630 METAR LMML NIL=
200905260615 METAR LMML 260615Z VRB03KT CAVOK 26/08 Q1016 NOSIG=
200905260600 METAR LMML NIL=
200905260545 METAR LMML 260545Z VRB03KT CAVOK 25/08 Q1016 NOSIG=
200905260530 METAR LMML NIL=
200905260515 METAR LMML 260515Z VRB03KT CAVOK 23/07 Q1016 NOSIG=
200905260500 METAR LMML NIL=
200905260445 METAR LMML 260445Z 29004KT CAVOK 21/09 Q1015 NOSIG=
200905260430 METAR LMML NIL=
200905260415 METAR LMML 260415Z VRB02KT CAVOK 19/09 Q1016 NOSIG=
200905260400 METAR LMML NIL=
200905260345 METAR LMML 260345Z 00000KT CAVOK 20/09 Q1016 NOSIG=
200905260330 METAR LMML NIL=
200905260315 METAR LMML 260315Z VRB02KT CAVOK 21/08 Q1016 NOSIG=
200905260300 METAR LMML NIL=
200905260245 METAR LMML 260245Z VRB03KT CAVOK 20/08 Q1016 NOSIG=
200905260230 METAR LMML NIL=
200905260215 METAR LMML 260215Z VRB03KT CAVOK 21/08 Q1016 NOSIG=
200905260200 METAR LMML NIL=
200905260145 METAR LMML 260145Z VRB03KT CAVOK 22/08 Q1016 NOSIG=
200905260130 METAR LMML NIL=
200905260115 METAR LMML 260115Z 29004KT CAVOK 23/08 Q1016 NOSIG=
200905260100 METAR LMML NIL=
200905260045 METAR LMML 260045Z 30005KT CAVOK 23/08 Q1016 NOSIG=
200905260030 METAR LMML NIL=
200905260015 METAR LMML 260015Z 28005KT CAVOK 23/09 Q1016 NOSIG=
200905260000 METAR LMML NIL=
200905252345 METAR LMML 252345Z 31005KT CAVOK 22/09 Q1017 NOSIG=
200905252330 METAR LMML NIL=
200905252315 METAR LMML 252315Z 32006KT CAVOK 22/10 Q1017 NOSIG=
200905252300 METAR LMML NIL=
200905252245 METAR LMML 252245Z 33005KT CAVOK 22/10 Q1017 NOSIG=
200905252230 METAR LMML NIL=
200905252200 METAR LMML NIL=
200905252145 METAR LMML 252145Z 32006KT CAVOK 22/10 Q1017 NOSIG=
200905252130 METAR LMML NIL=
200905252115 METAR LMML 252115Z 32005KT CAVOK 22/10 Q1017 NOSIG=
200905252100 METAR LMML NIL=
200905252045 METAR LMML 252045Z 33004KT 300V030 CAVOK 23/09 Q1018 NOSIG=
200905252030 METAR LMML NIL=
200905252015 METAR LMML 252015Z 30006KT CAVOK 23/08 Q1018 NOSIG=
200905252000 METAR LMML NIL=
200905251945 METAR LMML 251945Z 30004KT CAVOK 23/08 Q1017 NOSIG=
200905251930 METAR LMML NIL=
200905251915 METAR LMML 251915Z VRB02KT CAVOK 23/08 Q1017 NOSIG=
200905251900 METAR LMML NIL=
200905251845 METAR LMML 251845Z 31004KT CAVOK 25/08 Q1017 NOSIG=
200905251830 METAR LMML NIL=
200905251815 METAR LMML 251815Z 30006KT CAVOK 25/08 Q1017 NOSIG=
200905251800 METAR LMML NIL=
200905251745 METAR LMML 251745Z 28005KT CAVOK 25/08 Q1017 NOSIG=
200905251730 METAR LMML NIL=
200905251715 METAR LMML 251715Z 28007KT 250V320 CAVOK 27/08 Q1017 NOSIG=
200905251700 METAR LMML NIL=
200905251645 METAR LMML 251645Z 28005KT 220V330 CAVOK 28/09 Q1017 NOSIG=
200905251630 METAR LMML NIL=
200905251615 METAR LMML 251615Z 29005KT 230V320 CAVOK 29/08 Q1017 NOSIG=
200905251600 METAR LMML NIL=
200905251530 METAR LMML NIL=
200905251515 METAR LMML 251515Z 27006KT 210V330 CAVOK 30/08 Q1017 NOSIG=
200905251500 METAR LMML NIL=
200905251445 METAR LMML 251445Z 29007KT 230V330 CAVOK 30/09 Q1018 NOSIG=
200905251430 METAR LMML NIL=
200905251415 METAR LMML 251415Z 29008KT 240V330 CAVOK 30/08 Q1018 NOSIG=
200905251400 METAR LMML NIL=
200905251345 METAR LMML 251345Z 32007KT 260V020 CAVOK 32/08 Q1018 NOSIG=
200905251330 METAR LMML NIL=
200905251315 METAR LMML 251315Z 32006KT 250V010 CAVOK 31/08 Q1018 NOSIG=
200905251300 METAR LMML NIL=
200905251245 METAR LMML 251245Z 31006KT 260V020 CAVOK 31/08 Q1018 NOSIG=
200905251230 METAR LMML NIL=
200905251215 METAR LMML 251215Z 30006KT 250V360 CAVOK 31/09 Q1019 NOSIG=
200905251200 METAR LMML NIL=
200905251145 METAR LMML 251145Z 33008KT 290V360 CAVOK 31/09 Q1019 NOSIG=
200905251130 METAR LMML NIL=
200905251115 METAR LMML 251115Z 33009KT 300V360 CAVOK 31/08 Q1019 NOSIG=
200905251100 METAR LMML NIL=
200905251045 METAR LMML 251045Z 33010KT 290V010 CAVOK 31/09 Q1019 NOSIG=
200905251030 METAR LMML NIL=
200905251015 METAR LMML 251015Z 31011KT 270V340 CAVOK 30/08 Q1019 NOSIG=
200905251000 METAR LMML NIL=
200905250945 METAR LMML 250945Z 29008KT 250V350 CAVOK 31/08 Q1019 NOSIG=
200905250930 METAR LMML NIL=
200905250915 METAR LMML 250915Z 32010KT CAVOK 31/07 Q1019 NOSIG=
200905250900 METAR LMML NIL=
200905250845 METAR LMML 250845Z 31008KT 280V350 CAVOK 30/06 Q1019 NOSIG=
200905250830 METAR LMML NIL=
200905250815 METAR LMML 250815Z 31006KT 260V350 CAVOK 30/06 Q1019 NOSIG=
200905250800 METAR LMML NIL=
200905250745 METAR LMML 250745Z 33005KT 290V360 CAVOK 30/07 Q1019 NOSIG=
200905250730 METAR LMML NIL=
200905250715 METAR LMML 250715Z 32004KT 270V360 CAVOK 29/05 Q1019 NOSIG=
200905250700 METAR LMML NIL=
200905250645 METAR LMML 250645Z 33004KT 300V010 CAVOK 28/06 Q1018 NOSIG=
200905250630 METAR LMML NIL=
200905250615 METAR LMML 250615Z VRB03KT CAVOK 26/06 Q1018 NOSIG=
200905250600 METAR LMML NIL=
200905250545 METAR LMML 250545Z VRB02KT CAVOK 25/07 Q1018 NOSIG=
200905250530 METAR LMML NIL=
200905250515 METAR LMML 250515Z VRB02KT CAVOK 24/09 Q1018 NOSIG=
200905250500 METAR LMML NIL=
200905250445 METAR LMML 250445Z VRB02KT CAVOK 22/06 Q1018 NOSIG=
200905250430 METAR LMML NIL=
200905250415 METAR LMML 250415Z VRB03KT CAVOK 21/06 Q1018 NOSIG=
200905250400 METAR LMML NIL=
200905250345 METAR LMML 250345Z 32004KT CAVOK 21/06 Q1018 NOSIG=
200905250330 METAR LMML NIL=
200905250315 METAR LMML 250315Z 31006KT CAVOK 21/06 Q1018 NOSIG=
200905250300 METAR LMML NIL=
200905250245 METAR LMML 250245Z 30004KT CAVOK 21/06 Q1018 NOSIG=
200905250230 METAR LMML NIL=
200905250215 METAR LMML 250215Z 32004KT CAVOK 22/06 Q1018 NOSIG=
200905250200 METAR LMML NIL=
200905250145 METAR LMML 250145Z 31005KT CAVOK 22/06 Q1018 NOSIG=
200905250130 METAR LMML NIL=
200905250115 METAR LMML 250115Z VRB03KT CAVOK 22/05 Q1018 NOSIG=
200905250100 METAR LMML NIL=
200905250045 METAR LMML 250045Z 31005KT CAVOK 22/06 Q1019 NOSIG=
200905250030 METAR LMML NIL=
200905250015 METAR LMML 250015Z 31006KT CAVOK 22/07 Q1019 NOSIG=
200905250000 METAR LMML NIL=
200905242345 METAR LMML 242345Z 30004KT CAVOK 22/08 Q1019 NOSIG=
200905242330 METAR LMML NIL=
200905242315 METAR LMML 242315Z 32006KT CAVOK 22/09 Q1019 NOSIG=
200905242300 METAR LMML NIL=
200905242245 METAR LMML 242245Z 31004KT CAVOK 22/10 Q1020 NOSIG=
200905242230 METAR LMML NIL=
200905242215 METAR LMML 242215Z 32004KT CAVOK 22/10 Q1020 NOSIG=
200905242200 METAR LMML NIL=
200905242145 METAR LMML 242145Z VRB03KT CAVOK 22/08 Q1020 NOSIG=
200905242130 METAR LMML NIL=
200905242115 METAR LMML 242115Z VRB03KT CAVOK 22/07 Q1020 NOSIG=
200905242100 METAR LMML NIL=
200905242045 METAR LMML 242045Z VRB03KT CAVOK 22/08 Q1020 NOSIG=
200905242030 METAR LMML NIL=
200905242015 METAR LMML 242015Z VRB03KT CAVOK 23/07 Q1020 NOSIG=
200905242000 METAR LMML NIL=
200905241945 METAR LMML 241945Z 31004KT CAVOK 22/08 Q1020 NOSIG=
200905241930 METAR LMML NIL=
200905241915 METAR LMML 241915Z VRB03KT CAVOK 23/10 Q1020 NOSIG=
200905241900 METAR LMML NIL=
200905241845 METAR LMML 241845Z 32005KT CAVOK 23/11 Q1020 NOSIG=
200905241830 METAR LMML NIL=
200905241815 METAR LMML 241815Z 31006KT CAVOK 23/11 Q1020 NOSIG=
200905241800 METAR LMML NIL=
200905241745 METAR LMML 241745Z 30008KT CAVOK 25/10 Q1020 NOSIG=
200905241730 METAR LMML NIL=
200905241715 METAR LMML 241715Z 29007KT CAVOK 27/10 Q1020 NOSIG=
200905241700 METAR LMML NIL=
200905241645 METAR LMML 241645Z 28006KT 240V300 CAVOK 27/09 Q1019 NOSIG=
200905241630 METAR LMML NIL=
200905241615 METAR LMML 241615Z 31009KT CAVOK 28/09 Q1020 NOSIG=
200905241600 METAR LMML NIL=
200905241545 METAR LMML 241545Z 30008KT 270V330 CAVOK 29/10 Q1020 NOSIG=
200905241530 METAR LMML NIL=
200905241515 METAR LMML 241515Z 29008KT 250V320 CAVOK 29/10 Q1020 NOSIG=
200905241500 METAR LMML NIL=
200905241445 METAR LMML 241445Z 30008KT 270V330 CAVOK 30/09 Q1020 NOSIG=
200905241430 METAR LMML NIL=
200905241415 METAR LMML 241415Z 29008KT 260V330 CAVOK 30/10 Q1020 NOSIG=
200905241400 METAR LMML NIL=
200905241345 METAR LMML 241345Z 27007KT 220V320 CAVOK 30/11 Q1020 NOSIG=
200905241330 METAR LMML NIL=
200905241315 METAR LMML 241315Z 29008KT 250V320 CAVOK 30/11 Q1020 NOSIG=
200905241300 METAR LMML NIL=
200905241245 METAR LMML 241245Z 28007KT 210V330 CAVOK 30/11 Q1020 NOSIG=
200905241230 METAR LMML NIL=
200905241215 METAR LMML 241215Z 25007KT 210V300 CAVOK 29/13 Q1020 NOSIG=
200905241200 METAR LMML NIL=
200905241145 METAR LMML 241145Z 24008KT 200V290 CAVOK 28/15 Q1020 NOSIG=
200905241130 METAR LMML NIL=
200905241115 METAR LMML 241115Z 26007KT 210V310 CAVOK 30/14 Q1020 NOSIG=
200905241100 METAR LMML NIL=
200905241045 METAR LMML 241045Z 29007KT 240V340 CAVOK 31/10 Q1020 NOSIG=
200905241030 METAR LMML NIL=
200905241015 METAR LMML 241015Z 28008KT 240V310 CAVOK 30/11 Q1021 NOSIG=
200905241000 METAR LMML NIL=
200905240945 METAR LMML 240945Z 30009KT 270V330 CAVOK 31/09 Q1021 NOSIG=
200905240930 METAR LMML NIL=
200905240915 METAR LMML 240915Z 32007KT 280V350 CAVOK 30/10 Q1020 NOSIG=
200905240900 METAR LMML NIL=
200905240845 METAR LMML 240845Z 32007KT 280V360 CAVOK 30/11 Q1020 NOSIG=
200905240830 METAR LMML NIL=
200905240815 METAR LMML 240815Z 30006KT 270V350 CAVOK 29/11 Q1020 NOSIG=
200905240800 METAR LMML NIL=
200905240745 METAR LMML 240745Z 31006KT 270V340 CAVOK 28/11 Q1020 NOSIG=
200905240730 METAR LMML NIL=
200905240715 METAR LMML 240715Z 32006KT 270V020 CAVOK 28/11 Q1020 NOSIG=
200905240700 METAR LMML NIL=
200905240645 METAR LMML 240645Z 30005KT 260V340 CAVOK 27/11 Q1020 NOSIG=
200905240630 METAR LMML NIL=
200905240615 METAR LMML 240615Z 28004KT CAVOK 26/11 Q1020 NOSIG=
200905240600 METAR LMML NIL=
200905240545 METAR LMML 240545Z VRB03KT CAVOK 24/12 Q1020 NOSIG=
200905240530 METAR LMML NIL=
200905240515 METAR LMML 240515Z 26005KT CAVOK 23/11 Q1019 NOSIG=
200905240500 METAR LMML NIL=
200905240445 METAR LMML 240445Z 27005KT CAVOK 23/11 Q1019 NOSIG=
200905240430 METAR LMML NIL=
200905240415 METAR LMML 240415Z 26005KT CAVOK 21/11 Q1019 NOSIG=
200905240400 METAR LMML NIL=
200905240345 METAR LMML 240345Z 27004KT 240V300 CAVOK 21/11 Q1019 NOSIG=
200905240330 METAR LMML NIL=
200905240315 METAR LMML 240315Z 27004KT CAVOK 21/11 Q1019 NOSIG=
200905240300 METAR LMML NIL=
200905240245 METAR LMML 240245Z 29004KT CAVOK 20/11 Q1019 NOSIG=
200905240230 METAR LMML NIL=
200905240215 METAR LMML 240215Z VRB03KT CAVOK 20/11 Q1019 NOSIG=
200905240200 METAR LMML NIL=
200905240145 METAR LMML 240145Z VRB02KT CAVOK 20/11 Q1019 NOSIG=
200905240130 METAR LMML NIL=
200905240115 METAR LMML 240115Z VRB02KT CAVOK 19/12 Q1019 NOSIG=
200905240100 METAR LMML NIL=
200905240045 METAR LMML 240045Z VRB03KT CAVOK 20/13 Q1020 NOSIG=
200905240030 METAR LMML NIL=
200905240015 METAR LMML 240015Z 25004KT CAVOK 21/12 Q1020 NOSIG=
200905240000 METAR LMML NIL=
200905232345 METAR LMML 232345Z VRB03KT CAVOK 21/12 Q1020 NOSIG=
200905232330 METAR LMML NIL=
200905232315 METAR LMML 232315Z 25004KT CAVOK 21/12 Q1020 NOSIG=
200905232300 METAR LMML NIL=
200905232245 METAR LMML 232245Z VRB03KT CAVOK 21/12 Q1021 NOSIG=
200905232230 METAR LMML NIL=
200905232215 METAR LMML 232215Z VRB03KT CAVOK 21/10 Q1021 NOSIG=
200905232200 METAR LMML NIL=
200905232145 METAR LMML 232145Z 25004KT CAVOK 21/09 Q1021 NOSIG=
200905232130 METAR LMML NIL=
200905232115 METAR LMML 232115Z 26004KT 220V290 CAVOK 22/10 Q1021 NOSIG=
200905232100 METAR LMML NIL=
200905232045 METAR LMML 232045Z VRB02KT CAVOK 22/10 Q1021 NOSIG=
200905232030 METAR LMML NIL=
200905232015 METAR LMML 232015Z 28004KT 240V310 CAVOK 22/10 Q1020 NOSIG=
200905232000 METAR LMML NIL=
200905231945 METAR LMML 231945Z VRB03KT CAVOK 22/10 Q1020 NOSIG=
200905231930 METAR LMML NIL=
200905231915 METAR LMML 231915Z VRB02KT CAVOK 22/11 Q1020 NOSIG=
200905231900 METAR LMML NIL=
200905231845 METAR LMML 231845Z VRB03KT CAVOK 23/11 Q1020 NOSIG=
200905231830 METAR LMML NIL=
200905231815 METAR LMML 231815Z VRB03KT CAVOK 23/12 Q1020 NOSIG=
200905231800 METAR LMML NIL=
200905231745 METAR LMML 231745Z 25005KT 210V280 CAVOK 25/12 Q1019 NOSIG=
200905231730 METAR LMML NIL=
200905231715 METAR LMML 231715Z 25005KT 210V280 CAVOK 25/12 Q1019 NOSIG=
200905231645 METAR LMML 231645Z 26005KT 220V300 CAVOK 27/13 Q1019 NOSIG=
200905231630 METAR LMML NIL=
200905231615 METAR LMML 231615Z 25006KT 220V290 CAVOK 27/12 Q1019 NOSIG=
200905231600 METAR LMML NIL=
200905231545 METAR LMML 231545Z 25007KT 200V290 CAVOK 28/12 Q1019 NOSIG=
200905231530 METAR LMML NIL=
200905231515 METAR LMML 231515Z 25008KT 200V300 CAVOK 28/11 Q1019 NOSIG=
200905231500 METAR LMML NIL=
200905231445 METAR LMML 231445Z 23007KT 200V280 CAVOK 29/11 Q1019 NOSIG=
200905231430 METAR LMML NIL=
200905231415 METAR LMML 231415Z 22007KT 180V280 CAVOK 28/11 Q1019 NOSIG=
200905231400 METAR LMML NIL=
200905231345 METAR LMML 231345Z 23006KT 190V280 CAVOK 29/11 Q1019 NOSIG=
200905231330 METAR LMML NIL=
200905231315 METAR LMML 231315Z 23008KT 190V270 CAVOK 28/13 Q1019 NOSIG=
200905231300 METAR LMML NIL=
200905231245 METAR LMML 231245Z 23009KT 200V280 CAVOK 27/12 Q1019 NOSIG=
200905231230 METAR LMML NIL=
200905231215 METAR LMML 231215Z 23009KT 190V270 CAVOK 28/11 Q1020 NOSIG=
200905231200 METAR LMML NIL=
200905231145 METAR LMML 231145Z 22008KT 190V260 CAVOK 30/12 Q1020 NOSIG=
200905231130 METAR LMML NIL=
200905231115 METAR LMML 231115Z 23008KT 200V260 CAVOK 29/13 Q1020 NOSIG=
200905231100 METAR LMML NIL=
200905231045 METAR LMML 231045Z 22007KT 190V260 CAVOK 29/14 Q1020 NOSIG=
200905231030 METAR LMML NIL=
200905231015 METAR LMML 231015Z 22007KT 180V290 CAVOK 28/14 Q1020 NOSIG=
200905231000 METAR LMML NIL=
200905230945 METAR LMML 230945Z 22006KT 180V260 CAVOK 28/14 Q1020 NOSIG=
200905230930 METAR LMML NIL=
200905230915 METAR LMML 230915Z 22006KT 190V270 CAVOK 28/13 Q1020 NOSIG=
200905230900 METAR LMML NIL=
200905230845 METAR LMML 230845Z 21005KT 180V260 CAVOK 27/15 Q1020 NOSIG=
200905230830 METAR LMML NIL=
200905230815 METAR LMML 230815Z VRB03KT CAVOK 28/17 Q1020 NOSIG=
200905230800 METAR LMML NIL=
200905230745 METAR LMML 230745Z VRB01KT CAVOK 29/12 Q1020 NOSIG=
200905230730 METAR LMML NIL=
200905230715 METAR LMML 230715Z VRB03KT CAVOK 27/12 Q1020 NOSIG=
200905230700 METAR LMML NIL=
200905230645 METAR LMML 230645Z VRB02KT CAVOK 26/12 Q1020 NOSIG=
200905230630 METAR LMML NIL=
200905230615 METAR LMML 230615Z VRB02KT CAVOK 24/12 Q1019 NOSIG=
200905230600 METAR LMML NIL=
200905230545 METAR LMML 230545Z VRB02KT CAVOK 24/12 Q1019 NOSIG=
200905230530 METAR LMML NIL=
200905230515 METAR LMML 230515Z VRB02KT CAVOK 22/13 Q1019 NOSIG=
200905230500 METAR LMML NIL=
200905230445 METAR LMML 230445Z VRB02KT CAVOK 20/12 Q1019 NOSIG=
200905230430 METAR LMML NIL=
200905230415 METAR LMML 230415Z VRB02KT CAVOK 19/12 Q1019 NOSIG=
200905230400 METAR LMML NIL=
200905230345 METAR LMML 230345Z VRB03KT CAVOK 19/12 Q1019 NOSIG=
200905230330 METAR LMML NIL=
200905230315 METAR LMML 230315Z VRB02KT CAVOK 19/12 Q1019 NOSIG=
200905230300 METAR LMML NIL=
200905230245 METAR LMML 230245Z VRB02KT CAVOK 19/11 Q1018 TEMPO 7000=
200905230230 METAR LMML NIL=
200905230215 METAR LMML 230215Z VRB02KT CAVOK 18/11 Q1019 TEMPO 7000=
200905230200 METAR LMML NIL=
200905230145 METAR LMML 230145Z VRB03KT CAVOK 19/11 Q1019 TEMPO 7000=
200905230130 METAR LMML NIL=
200905230115 METAR LMML 230115Z 28004KT CAVOK 20/11 Q1019 TEMPO 7000=
200905230100 METAR LMML NIL=
200905230045 METAR LMML 230045Z VRB02KT CAVOK 19/13 Q1019 TEMPO 7000=
200905230030 METAR LMML NIL=
200905230015 METAR LMML 230015Z VRB02KT CAVOK 19/15 Q1019 TEMPO 7000=
200905230000 METAR LMML NIL=
200905222345 METAR LMML 222345Z VRB02KT CAVOK 19/15 Q1019 NOSIG=
200905222330 METAR LMML NIL=
200905222315 METAR LMML 222315Z VRB02KT CAVOK 20/15 Q1019 NOSIG=
200905222300 METAR LMML NIL=
200905222245 METAR LMML 222245Z VRB02KT CAVOK 20/16 Q1019 NOSIG=
200905222230 METAR LMML NIL=
200905222215 METAR LMML 222215Z VRB02KT CAVOK 20/16 Q1020 NOSIG=
200905222200 METAR LMML NIL=
200905222145 METAR LMML 222145Z VRB02KT CAVOK 20/16 Q1020 NOSIG=
200905222130 METAR LMML NIL=
200905222115 METAR LMML 222115Z VRB01KT CAVOK 20/16 Q1020 NOSIG=
200905222100 METAR LMML NIL=
200905222045 METAR LMML 222045Z VRB01KT CAVOK 21/17 Q1020 NOSIG=
200905222030 METAR LMML NIL=
200905222015 METAR LMML 222015Z VRB02KT CAVOK 21/17 Q1020 NOSIG=
200905222000 METAR LMML NIL=
200905221945 METAR LMML 221945Z VRB03KT CAVOK 21/16 Q1020 NOSIG=
200905221930 METAR LMML NIL=
200905221915 METAR LMML 221915Z VRB02KT CAVOK 21/16 Q1019 NOSIG=
200905221845 METAR LMML 221845Z VRB03KT CAVOK 22/15 Q1019 NOSIG=
200905221830 METAR LMML NIL=
200905221815 METAR LMML 221815Z VRB03KT CAVOK 23/15 Q1019 NOSIG=
200905221800 METAR LMML NIL=
200905221745 METAR LMML 221745Z VRB03KT CAVOK 24/15 Q1019 NOSIG=
200905221730 METAR LMML NIL=
200905221715 METAR LMML 221715Z 36005KT CAVOK 26/15 Q1019 NOSIG=
200905221700 METAR LMML NIL=
200905221645 METAR LMML 221645Z VRB02KT CAVOK 26/14 Q1018 NOSIG=
200905221630 METAR LMML NIL=
200905221615 METAR LMML 221615Z VRB02KT CAVOK 26/13 Q1018 NOSIG=
200905221600 METAR LMML NIL=
200905221545 METAR LMML 221545Z 22004KT 150V270 CAVOK 25/15 Q1019 NOSIG=
200905221515 METAR LMML 221515Z 20004KT 090V290 CAVOK 25/17 Q1019 NOSIG=
200905221500 METAR LMML NIL=
200905221445 METAR LMML 221445Z 19005KT 160V230 CAVOK 26/18 Q1019 NOSIG=
200905221430 METAR LMML NIL=
200905221415 METAR LMML 221415Z 20004KT CAVOK 27/18 Q1019 NOSIG=
200905221345 METAR LMML 221345Z 08005KT 030V130 CAVOK 28/14 Q1019 NOSIG=
200905221330 METAR LMML NIL=
200905221315 METAR LMML 221315Z 08006KT 020V130 CAVOK 28/14 Q1019 NOSIG=
200905221300 METAR LMML NIL=
200905221245 METAR LMML 221245Z 07007KT 010V130 CAVOK 28/15 Q1019 NOSIG=
200905221230 METAR LMML NIL=
200905221215 METAR LMML 221215Z 04005KT 350V090 CAVOK 29/16 Q1019 NOSIG=
200905221200 METAR LMML NIL=
200905221145 METAR LMML 221145Z 03005KT 310V100 CAVOK 29/15 Q1019 NOSIG=
200905221115 METAR LMML 221115Z 08005KT 020V140 CAVOK 27/14 Q1019 NOSIG=
200905221045 METAR LMML 221045Z 04005KT 360V090 CAVOK 28/15 Q1019 NOSIG=
200905221030 METAR LMML NIL=
200905221015 METAR LMML 221015Z 05006KT 020V110 CAVOK 27/15 Q1019 NOSIG=
200905221000 METAR LMML NIL=
200905220945 METAR LMML 220945Z 06006KT 350V110 CAVOK 27/15 Q1019 NOSIG=
200905220930 METAR LMML NIL=
200905220915 METAR LMML 220915Z 05007KT 010V100 CAVOK 26/14 Q1019 NOSIG=
200905220900 METAR LMML NIL=
200905220845 METAR LMML 220845Z 05007KT 010V080 CAVOK 27/13 Q1019 NOSIG=
200905220830 METAR LMML NIL=
200905220815 METAR LMML 220815Z 07006KT 010V130 CAVOK 27/12 Q1019 NOSIG=
200905220800 METAR LMML NIL=
200905220745 METAR LMML 220745Z 08005KT 020V150 CAVOK 27/12 Q1019 NOSIG=
200905220730 METAR LMML NIL=
200905220715 METAR LMML 220715Z 06004KT 020V120 CAVOK 26/12 Q1018 NOSIG=
200905220700 METAR LMML NIL=
200905220645 METAR LMML 220645Z 08005KT 030V120 CAVOK 25/11 Q1018 NOSIG=
200905220630 METAR LMML NIL=
200905220615 METAR LMML 220615Z 05004KT 020V080 CAVOK 25/11 Q1018 NOSIG=
200905220600 METAR LMML NIL=
200905220545 METAR LMML 220545Z VRB01KT CAVOK 23/12 Q1018 NOSIG=
200905220530 METAR LMML NIL=
200905220515 METAR LMML 220515Z VRB01KT CAVOK 20/11 Q1017 NOSIG=
200905220500 METAR LMML NIL=
200905220445 METAR LMML 220445Z VRB02KT CAVOK 19/10 Q1017 NOSIG=
200905220430 METAR LMML NIL=
200905220415 METAR LMML 220415Z VRB02KT CAVOK 18/09 Q1017 NOSIG=
200905220400 METAR LMML NIL=
200905220345 METAR LMML 220345Z VRB01KT CAVOK 18/09 Q1017 NOSIG=
200905220330 METAR LMML NIL=
200905220315 METAR LMML 220315Z VRB02KT CAVOK 18/09 Q1017 NOSIG=
200905220300 METAR LMML NIL=
200905220245 METAR LMML 220245Z VRB01KT CAVOK 18/10 Q1017 NOSIG=
200905220230 METAR LMML NIL=
200905220215 METAR LMML 220215Z VRB01KT CAVOK 18/09 Q1016 NOSIG=
200905220200 METAR LMML NIL=
200905220145 METAR LMML 220145Z VRB01KT CAVOK 19/10 Q1016 NOSIG=
200905220130 METAR LMML NIL=
200905220115 METAR LMML 220115Z 00000KT CAVOK 19/11 Q1016 NOSIG=
200905220100 METAR LMML NIL=
200905220045 METAR LMML 220045Z VRB01KT CAVOK 19/11 Q1016 NOSIG=
200905220030 METAR LMML NIL=
200905220015 METAR LMML 220015Z VRB02KT CAVOK 20/11 Q1016 NOSIG=
200905220000 METAR LMML NIL=
200905212345 METAR LMML 212345Z VRB03KT CAVOK 20/10 Q1017 NOSIG=
200905212330 METAR LMML NIL=
200905212315 METAR LMML 212315Z VRB03KT CAVOK 20/10 Q1017 NOSIG=
200905212300 METAR LMML NIL=
200905212245 METAR LMML 212245Z VRB03KT CAVOK 20/10 Q1017 NOSIG=
200905212230 METAR LMML NIL=
200905212215 METAR LMML 212215Z VRB02KT CAVOK 20/10 Q1017 NOSIG=
200905212200 METAR LMML NIL=
200905212145 METAR LMML 212145Z VRB01KT CAVOK 20/10 Q1017 NOSIG=
200905212130 METAR LMML NIL=
200905212115 METAR LMML 212115Z VRB03KT CAVOK 20/11 Q1017 NOSIG=
200905212100 METAR LMML NIL=
200905212045 METAR LMML 212045Z VRB02KT CAVOK 21/10 Q1017 NOSIG=
200905212030 METAR LMML NIL=
200905212015 METAR LMML 212015Z VRB03KT CAVOK 21/11 Q1017 NOSIG=
200905212000 METAR LMML NIL=
200905211945 METAR LMML 211945Z VRB02KT CAVOK 21/11 Q1017 NOSIG=
200905211930 METAR LMML NIL=
200905211915 METAR LMML 211915Z VRB02KT CAVOK 22/11 Q1016 NOSIG=
200905211900 METAR LMML NIL=
200905211845 METAR LMML 211845Z VRB03KT CAVOK 23/09 Q1016 NOSIG=
200905211830 METAR LMML NIL=
200905211815 METAR LMML 211815Z VRB02KT CAVOK 23/11 Q1016 NOSIG=
200905211800 METAR LMML NIL=
200905211745 METAR LMML 211745Z VRB02KT CAVOK 25/14 Q1016 NOSIG=
200905211730 METAR LMML NIL=
200905211715 METAR LMML 211715Z 03004KT 360V070 CAVOK 25/13 Q1016 NOSIG=
200905211700 METAR LMML NIL=
200905211645 METAR LMML 211645Z 20004KT 170V230 CAVOK 25/15 Q1015 NOSIG=
200905211630 METAR LMML NIL=
200905211615 METAR LMML 211615Z 22005KT 190V260 CAVOK 25/15 Q1015 NOSIG=
200905211600 METAR LMML NIL=
200905211545 METAR LMML 211545Z 20005KT 160V270 CAVOK 26/16 Q1015 NOSIG=
200905211530 METAR LMML NIL=
200905211515 METAR LMML 211515Z 21005KT 180V260 CAVOK 26/15 Q1015 NOSIG=
200905211500 METAR LMML NIL=
200905211445 METAR LMML 211445Z 22006KT 180V280 CAVOK 26/15 Q1016 NOSIG=
200905211415 METAR LMML 211415Z 19006KT 160V230 CAVOK 27/13 Q1016 NOSIG=
200905211400 METAR LMML NIL=
200905211345 METAR LMML 211345Z 20006KT 150V250 CAVOK 27/13 Q1016 NOSIG=
200905211330 METAR LMML NIL=
200905211315 METAR LMML 211315Z 20005KT 150V260 CAVOK 28/13 Q1016 NOSIG=
200905211300 METAR LMML NIL=
200905211245 METAR LMML 211245Z 20006KT 160V260 CAVOK 28/13 Q1016 NOSIG=
200905211230 METAR LMML NIL=
200905211215 METAR LMML 211215Z 21004KT 130V320 CAVOK 29/14 Q1016 NOSIG=
200905211200 METAR LMML NIL=
200905211145 METAR LMML 211145Z VRB03KT CAVOK 30/12 Q1016 NOSIG=
200905211130 METAR LMML NIL=
200905211115 METAR LMML 211115Z VRB03KT CAVOK 29/13 Q1016 NOSIG=
200905211045 METAR LMML 211045Z VRB02KT CAVOK 30/11 Q1016 NOSIG=
200905211030 METAR LMML NIL=
200905211015 METAR LMML 211015Z 36004KT 290V070 CAVOK 29/11 Q1016 NOSIG=
200905211000 METAR LMML NIL=
200905210945 METAR LMML 210945Z VRB03KT CAVOK 29/10 Q1016 NOSIG=
200905210930 METAR LMML NIL=
200905210915 METAR LMML 210915Z 04004KT 330V110 CAVOK 29/13 Q1016 NOSIG=
200905210900 METAR LMML NIL=
200905210845 METAR LMML 210845Z 05004KT 010V140 CAVOK 28/13 Q1016 NOSIG=
200905210830 METAR LMML NIL=
200905210815 METAR LMML 210815Z VRB03KT CAVOK 27/14 Q1017 NOSIG=
200905210800 METAR LMML NIL=
200905210745 METAR LMML 210745Z 07004KT 010V110 CAVOK 26/13 Q1017 NOSIG=
200905210730 METAR LMML NIL=
200905210715 METAR LMML 210715Z VRB03KT CAVOK 26/13 Q1017 NOSIG=
200905210700 METAR LMML NIL=
200905210645 METAR LMML 210645Z VRB03KT CAVOK 24/15 Q1017 NOSIG=
200905210630 METAR LMML NIL=
200905210615 METAR LMML 210615Z VRB03KT CAVOK 23/16 Q1016 NOSIG=
200905210600 METAR LMML NIL=
200905210545 METAR LMML 210545Z VRB02KT CAVOK 21/17 Q1016 NOSIG=
200905210530 METAR LMML NIL=
200905210515 METAR LMML 210515Z VRB01KT 9000 NSC 19/16 Q1016 BECMG CAVOK=
200905210500 METAR LMML NIL=
200905210445 METAR LMML 210445Z VRB02KT 9000 NSC 18/15 Q1016 BECMG CAVOK=
200905210430 METAR LMML NIL=
200905210415 METAR LMML 210415Z VRB02KT 9000 NSC 17/15 Q1016 BECMG CAVOK=
200905210400 METAR LMML NIL=
200905210345 METAR LMML 210345Z VRB02KT 9000 NSC 17/14 Q1016 NOSIG=
200905210330 METAR LMML NIL=
200905210315 METAR LMML 210315Z VRB02KT 9000 NSC 18/14 Q1016 NOSIG=
200905210300 METAR LMML NIL=
200905210245 METAR LMML 210245Z VRB01KT 9000 NSC 18/14 Q1016 NOSIG=
200905210230 METAR LMML NIL=
200905210215 METAR LMML 210215Z VRB03KT CAVOK 19/14 Q1016 NOSIG=
200905210200 METAR LMML NIL=
200905210145 METAR LMML 210145Z 01004KT 290V060 CAVOK 19/11 Q1016 NOSIG=
200905210130 METAR LMML NIL=
200905210115 METAR LMML 210115Z VRB03KT CAVOK 20/11 Q1016 NOSIG=
200905210100 METAR LMML NIL=
200905210045 METAR LMML 210045Z VRB03KT CAVOK 20/11 Q1016 NOSIG=
200905210030 METAR LMML NIL=
200905210015 METAR LMML 210015Z VRB01KT CAVOK 20/10 Q1016 NOSIG=
200905202345 METAR LMML 202345Z 23004KT CAVOK 20/11 Q1016 NOSIG=
200905202330 METAR LMML NIL=
200905202315 METAR LMML 202315Z VRB01KT CAVOK 20/10 Q1016 NOSIG=
200905202300 METAR LMML NIL=
200905202245 METAR LMML 202245Z VRB03KT CAVOK 20/11 Q1017 NOSIG=
200905202230 METAR LMML NIL=
200905202215 METAR LMML 202215Z VRB02KT CAVOK 20/11 Q1017 NOSIG=
200905202200 METAR LMML NIL=
200905202145 METAR LMML 202145Z 21004KT CAVOK 21/11 Q1017 NOSIG=
200905202130 METAR LMML NIL=
200905202115 METAR LMML 202115Z 21005KT CAVOK 21/09 Q1017 NOSIG=
200905202100 METAR LMML NIL=
200905202045 METAR LMML 202045Z VRB02KT CAVOK 21/10 Q1017 NOSIG=
200905202030 METAR LMML NIL=
200905202015 METAR LMML 202015Z 21004KT CAVOK 21/09 Q1017 NOSIG=
200905202000 METAR LMML NIL=
200905201945 METAR LMML 201945Z VRB03KT CAVOK 22/12 Q1017 NOSIG=
200905201930 METAR LMML NIL=
200905201915 METAR LMML 201915Z VRB01KT CAVOK 23/06 Q1017 NOSIG=
200905201900 METAR LMML NIL=
200905201845 METAR LMML 201845Z VRB03KT CAVOK 23/06 Q1017 NOSIG=
200905201830 METAR LMML NIL=
200905201815 METAR LMML 201815Z VRB03KT CAVOK 24/07 Q1017 NOSIG=
200905201800 METAR LMML NIL=
200905201745 METAR LMML 201745Z 31004KT CAVOK 25/07 Q1017 NOSIG=
200905201730 METAR LMML NIL=
200905201715 METAR LMML 201715Z 29007KT CAVOK 26/07 Q1016 NOSIG=
200905201700 METAR LMML NIL=
200905201645 METAR LMML 201645Z 33005KT 280V010 CAVOK 27/08 Q1016 NOSIG=
200905201630 METAR LMML NIL=
200905201615 METAR LMML 201615Z VRB03KT CAVOK 28/11 Q1016 NOSIG=
200905201600 METAR LMML NIL=
200905201545 METAR LMML 201545Z VRB03KT CAVOK 27/13 Q1016 NOSIG=
200905201530 METAR LMML NIL=
200905201515 METAR LMML 201515Z 20005KT 170V230 CAVOK 26/12 Q1017 NOSIG=
200905201500 METAR LMML NIL=
200905201445 METAR LMML 201445Z 20005KT 140V260 CAVOK 26/13 Q1017 NOSIG=
200905201430 METAR LMML NIL=
200905201415 METAR LMML 201415Z 14005KT 050V230 CAVOK 28/11 Q1017 NOSIG=
200905201400 METAR LMML NIL=
200905201345 METAR LMML 201345Z 05004KT 340V110 CAVOK 29/11 Q1017 NOSIG=
200905201330 METAR LMML NIL=
200905201315 METAR LMML 201315Z 03005KT 010V070 CAVOK 29/11 Q1017 NOSIG=
200905201300 METAR LMML NIL=
200905201245 METAR LMML 201245Z VRB03KT CAVOK 28/12 Q1017 NOSIG=
200905201230 METAR LMML NIL=
200905201215 METAR LMML 201215Z VRB03KT CAVOK 29/13 Q1017 NOSIG=
200905201200 METAR LMML NIL=
200905201145 METAR LMML 201145Z 36005KT 180V100 CAVOK 30/12 Q1017 NOSIG=
200905201130 METAR LMML NIL=
200905201115 METAR LMML 201115Z 19004KT 150V250 CAVOK 27/10 Q1018 NOSIG=
200905201100 METAR LMML NIL=
200905201045 METAR LMML 201045Z 21006KT 160V280 CAVOK 27/12 Q1018 NOSIG=
200905201030 METAR LMML NIL=
200905201015 METAR LMML 201015Z 10004KT 350V240 CAVOK 28/10 Q1018 NOSIG=
200905201000 METAR LMML NIL=
200905200945 METAR LMML 200945Z 13004KT 070V200 CAVOK 28/10 Q1018 NOSIG=
200905200930 METAR LMML NIL=
200905200915 METAR LMML 200915Z VRB03KT CAVOK 27/10 Q1018 NOSIG=
200905200900 METAR LMML NIL=
200905200845 METAR LMML 200845Z 11004KT 030V180 CAVOK 27/11 Q1018 NOSIG=
200905200830 METAR LMML NIL=
200905200815 METAR LMML 200815Z 10004KT 360V170 CAVOK 26/10 Q1018 NOSIG=
200905200800 METAR LMML NIL=
200905200745 METAR LMML 200745Z 07005KT 030V120 CAVOK 26/11 Q1018 NOSIG=
200905200730 METAR LMML NIL=
200905200715 METAR LMML 200715Z 09004KT 040V150 CAVOK 24/13 Q1018 NOSIG=
200905200700 METAR LMML NIL=
200905200645 METAR LMML 200645Z VRB03KT CAVOK 24/14 Q1018 NOSIG=
200905200630 METAR LMML NIL=
200905200615 METAR LMML 200615Z VRB01KT CAVOK 23/14 Q1018 NOSIG=
200905200600 METAR LMML NIL=
200905200545 METAR LMML 200545Z VRB02KT CAVOK 21/14 Q1018 NOSIG=
200905200530 METAR LMML NIL=
200905200515 METAR LMML 200515Z VRB02KT CAVOK 19/14 Q1017 NOSIG=
200905200500 METAR LMML NIL=
200905200445 METAR LMML 200445Z VRB02KT CAVOK 17/13 Q1017 NOSIG=
200905200430 METAR LMML NIL=
200905200415 METAR LMML 200415Z VRB02KT CAVOK 17/12 Q1017 NOSIG=
200905200345 METAR LMML 200345Z VRB03KT CAVOK 17/12 Q1017 NOSIG=
200905200330 METAR LMML NIL=
200905200315 METAR LMML 200315Z VRB02KT CAVOK 18/13 Q1017 NOSIG=
200905200300 METAR LMML NIL=
200905200245 METAR LMML 200245Z VRB03KT CAVOK 18/13 Q1017 NOSIG=
200905200230 METAR LMML NIL=
200905200215 METAR LMML 200215Z 34004KT CAVOK 17/12 Q1017 NOSIG=
200905200200 METAR LMML NIL=
200905200145 METAR LMML 200145Z VRB01KT CAVOK 18/11 Q1017 NOSIG=
200905200130 METAR LMML NIL=
200905200115 METAR LMML 200115Z VRB02KT CAVOK 18/12 Q1017 NOSIG=
200905200100 METAR LMML NIL=
200905200045 METAR LMML 200045Z VRB03KT CAVOK 19/12 Q1017 NOSIG=
200905200030 METAR LMML NIL=
200905200015 METAR LMML 200015Z VRB02KT CAVOK 20/10 Q1017 NOSIG=
200905200000 METAR LMML NIL=
200905192345 METAR LMML 192345Z 31004KT 280V340 CAVOK 20/10 Q1018 NOSIG=
200905192330 METAR LMML NIL=
200905192315 METAR LMML 192315Z 25006KT 220V280 CAVOK 21/10 Q1018 NOSIG=
200905192245 METAR LMML 192245Z 25006KT CAVOK 20/09 Q1018 NOSIG=
200905192215 METAR LMML 192215Z 22004KT 200V260 CAVOK 19/11 Q1018 NOSIG=
200905192200 METAR LMML NIL=
200905192145 METAR LMML 192145Z 25005KT 220V280 CAVOK 19/09 Q1018 NOSIG=
200905192130 METAR LMML NIL=
200905192115 METAR LMML 192115Z VRB01KT CAVOK 20/09 Q1018 NOSIG=
200905192100 METAR LMML NIL=
200905192045 METAR LMML 192045Z VRB02KT CAVOK 20/09 Q1018 NOSIG=
200905192030 METAR LMML NIL=
200905192015 METAR LMML 192015Z VRB01KT CAVOK 21/07 Q1018 NOSIG=
200905192000 METAR LMML NIL=
200905191945 METAR LMML 191945Z VRB01KT CAVOK 21/07 Q1018 NOSIG=
200905191930 METAR LMML NIL=
200905191915 METAR LMML 191915Z VRB02KT CAVOK 21/07 Q1018 NOSIG=
200905191900 METAR LMML NIL=
200905191845 METAR LMML 191845Z VRB03KT CAVOK 22/06 Q1018 NOSIG=
200905191830 METAR LMML NIL=
200905191815 METAR LMML 191815Z 31006KT 280V340 CAVOK 23/05 Q1018 NOSIG=
200905191800 METAR LMML NIL=
200905191745 METAR LMML 191745Z 30005KT 270V330 CAVOK 25/05 Q1018 NOSIG=
200905191730 METAR LMML NIL=
200905191715 METAR LMML 191715Z 30007KT 270V330 CAVOK 26/06 Q1017 NOSIG=
200905191700 METAR LMML NIL=
200905191645 METAR LMML 191645Z 30008KT CAVOK 27/05 Q1017 NOSIG=
200905191630 METAR LMML NIL=
200905191615 METAR LMML 191615Z 29008KT CAVOK 27/06 Q1017 NOSIG=
200905191600 METAR LMML NIL=
200905191545 METAR LMML 191545Z 29008KT 260V320 CAVOK 28/06 Q1017 NOSIG=
200905191530 METAR LMML NIL=
200905191515 METAR LMML 191515Z 29009KT 260V320 CAVOK 29/05 Q1017 NOSIG=
200905191500 METAR LMML NIL=
200905191445 METAR LMML 191445Z 31009KT 270V360 CAVOK 29/04 Q1017 NOSIG=
200905191430 METAR LMML NIL=
200905191415 METAR LMML 191415Z 30009KT 280V340 CAVOK 29/04 Q1018 NOSIG=
200905191400 METAR LMML NIL=
200905191345 METAR LMML 191345Z 31008KT 270V350 CAVOK 29/05 Q1018 NOSIG=
200905191330 METAR LMML NIL=
200905191315 METAR LMML 191315Z 31009KT 270V340 CAVOK 30/07 Q1018 NOSIG=
200905191300 METAR LMML NIL=
200905191245 METAR LMML 191245Z 29010KT 260V330 CAVOK 30/07 Q1018 NOSIG=
200905191230 METAR LMML NIL=
200905191215 METAR LMML 191215Z 34007KT 300V010 CAVOK 29/08 Q1018 NOSIG=
200905191200 METAR LMML NIL=
200905191145 METAR LMML 191145Z 32008KT 280V010 CAVOK 29/09 Q1018 NOSIG=
200905191130 METAR LMML NIL=
200905191115 METAR LMML 191115Z 32008KT 290V360 CAVOK 29/09 Q1019 NOSIG=
200905191100 METAR LMML NIL=
200905191045 METAR LMML 191045Z 33008KT 280V360 CAVOK 30/10 Q1019 NOSIG=
200905191030 METAR LMML NIL=
200905191015 METAR LMML 191015Z 31009KT 270V350 CAVOK 29/09 Q1019 NOSIG=
200905191000 METAR LMML NIL=
200905190945 METAR LMML 190945Z 29010KT 260V340 CAVOK 28/08 Q1019 NOSIG=
200905190930 METAR LMML NIL=
200905190915 METAR COR LMML 190915Z 32011KT 290V350 CAVOK 28/08 Q1019
                        NOSIG=
200905190900 METAR LMML NIL=
200905190845 METAR LMML 190845Z 32010KT CAVOK 28/09 Q1019 NOSIG=
200905190815 METAR LMML 190815Z 33007KT 300V360 CAVOK 27/09 Q1019 NOSIG=
200905190800 METAR LMML NIL=
200905190745 METAR LMML 190745Z 33008KT 300V360 CAVOK 27/08 Q1019 NOSIG=
200905190730 METAR LMML NIL=
200905190715 METAR LMML 190715Z 32007KT 280V340 CAVOK 26/09 Q1018 NOSIG=
200905190700 METAR LMML NIL=
200905190645 METAR LMML 190645Z 32007KT CAVOK 24/09 Q1018 NOSIG=
200905190630 METAR LMML NIL=
200905190615 METAR LMML 190615Z 31004KT 270V350 CAVOK 23/11 Q1018 NOSIG=
200905190600 METAR LMML NIL=
200905190545 METAR LMML 190545Z VRB03KT CAVOK 22/11 Q1018 NOSIG=
200905190530 METAR LMML NIL=
200905190515 METAR LMML 190515Z VRB03KT CAVOK 20/11 Q1018 NOSIG=
200905190500 METAR LMML NIL=
200905190445 METAR LMML 190445Z 30004KT 270V340 CAVOK 20/09 Q1018 NOSIG=
200905190430 METAR LMML NIL=
200905190415 METAR LMML 190415Z VRB03KT CAVOK 20/10 Q1018 NOSIG=
200905190400 METAR LMML NIL=
200905190345 METAR LMML 190345Z VRB03KT CAVOK 19/09 Q1017 NOSIG=
200905190330 METAR LMML NIL=
200905190315 METAR LMML 190315Z VRB03KT CAVOK 19/11 Q1017 NOSIG=
200905190300 METAR LMML NIL=
200905190245 METAR LMML 190245Z VRB02KT CAVOK 19/11 Q1017 NOSIG=
200905190230 METAR LMML NIL=
200905190215 METAR LMML 190215Z 29004KT 270V330 CAVOK 20/11 Q1017 NOSIG=
200905190200 METAR LMML NIL=
200905190145 METAR LMML 190145Z VRB02KT CAVOK 19/10 Q1018 NOSIG=
200905190130 METAR LMML NIL=
200905190115 METAR LMML 190115Z VRB02KT CAVOK 20/10 Q1018 NOSIG=
200905190100 METAR LMML NIL=
200905190045 METAR LMML 190045Z 28007KT 240V300 CAVOK 21/10 Q1018 NOSIG=
200905190030 METAR LMML NIL=
200905190015 METAR LMML 190015Z VRB03KT CAVOK 21/09 Q1018 NOSIG=
200905190000 METAR LMML NIL=
200905182345 METAR LMML 182345Z 32005KT CAVOK 21/09 Q1018 NOSIG=
200905182330 METAR LMML NIL=
200905182315 METAR LMML 182315Z 32006KT CAVOK 21/08 Q1018 NOSIG=
200905182300 METAR LMML NIL=
200905182245 METAR LMML 182245Z 31009KT CAVOK 22/07 Q1018 NOSIG=
200905182230 METAR LMML NIL=
200905182215 METAR LMML 182215Z 29010KT CAVOK 22/07 Q1018 NOSIG=
200905182200 METAR LMML NIL=
200905182145 METAR LMML 182145Z 30011KT CAVOK 22/08 Q1018 NOSIG=
200905182130 METAR LMML NIL=
200905182115 METAR LMML 182115Z 31010KT CAVOK 22/08 Q1018 NOSIG=
200905182100 METAR LMML NIL=
200905182045 METAR LMML 182045Z 30010KT CAVOK 22/09 Q1018 NOSIG=
200905182030 METAR LMML NIL=
200905182015 METAR LMML 182015Z 30009KT CAVOK 22/09 Q1017 NOSIG=
200905182000 METAR LMML NIL=
200905181945 METAR LMML 181945Z 30006KT 270V330 CAVOK 22/09 Q1017 NOSIG=
200905181930 METAR LMML NIL=
200905181915 METAR LMML 181915Z 29005KT CAVOK 22/10 Q1017 NOSIG=
200905181900 METAR LMML NIL=
200905181845 METAR LMML 181845Z 31006KT 280V340 CAVOK 22/10 Q1017 NOSIG=
200905181830 METAR LMML NIL=
200905181815 METAR LMML 181815Z 30005KT 260V330 CAVOK 23/10 Q1017 NOSIG=
200905181800 METAR LMML NIL=
200905181745 METAR LMML 181745Z 31006KT CAVOK 23/11 Q1017 NOSIG=
200905181730 METAR LMML NIL=
200905181715 METAR LMML 181715Z 31009KT CAVOK 24/11 Q1017 NOSIG=
200905181700 METAR LMML NIL=
200905181645 METAR LMML 181645Z 31010KT CAVOK 25/11 Q1016 NOSIG=
200905181630 METAR LMML NIL=
200905181615 METAR LMML 181615Z 31011KT CAVOK 26/11 Q1017 NOSIG=
200905181600 METAR LMML NIL=
200905181545 METAR LMML 181545Z 31013KT CAVOK 26/11 Q1017 NOSIG=
200905181530 METAR LMML NIL=
200905181515 METAR LMML 181515Z 31012KT 260V330 CAVOK 27/11 Q1017 NOSIG=
200905181500 METAR LMML NIL=
200905181445 METAR LMML 181445Z 30010KT 270V340 CAVOK 28/09 Q1017 NOSIG=
200905181430 METAR LMML NIL=
200905181415 METAR LMML 181415Z 28011KT 240V320 CAVOK 27/10 Q1017 NOSIG=
200905181400 METAR LMML NIL=
200905181345 METAR LMML 181345Z 30011KT 250V330 CAVOK 28/11 Q1017 NOSIG=
200905181330 METAR LMML NIL=
200905181315 METAR LMML 181315Z 34011KT 300V010 CAVOK 30/12 Q1017 NOSIG=
200905181300 METAR LMML NIL=
200905181245 METAR LMML 181245Z 33010KT 290V360 CAVOK 29/11 Q1017 NOSIG=
200905181230 METAR LMML NIL=
200905181215 METAR LMML 181215Z 34010KT 310V020 CAVOK 29/11 Q1017 NOSIG=
200905181200 METAR LMML NIL=
200905181145 METAR LMML 181145Z 31012KT 270V340 CAVOK 28/13 Q1017 NOSIG=
200905181130 METAR LMML NIL=
200905181115 METAR LMML 181115Z 34010KT 310V030 CAVOK 28/11 Q1017 NOSIG=
200905181100 METAR LMML NIL=
200905181045 METAR LMML 181045Z 34010KT 310V010 CAVOK 28/11 Q1017 NOSIG=
200905181030 METAR LMML NIL=
200905181015 METAR LMML 181015Z 33010KT CAVOK 27/12 Q1017 NOSIG=
200905181000 METAR LMML NIL=
200905180945 METAR LMML 180945Z 33010KT CAVOK 27/11 Q1017 NOSIG=
200905180930 METAR LMML NIL=
200905180915 METAR LMML 180915Z 34011KT 310V010 CAVOK 27/11 Q1017 NOSIG=
200905180900 METAR LMML NIL=
200905180845 METAR LMML 180845Z 32012KT CAVOK 26/11 Q1017 NOSIG=
200905180830 METAR LMML NIL=
200905180815 METAR LMML 180815Z 33012KT CAVOK 26/11 Q1017 NOSIG=
200905180800 METAR LMML NIL=
200905180745 METAR LMML 180745Z 32013KT CAVOK 25/11 Q1017 NOSIG=
200905180730 METAR LMML NIL=
200905180715 METAR LMML 180715Z 32010KT CAVOK 24/12 Q1017 NOSIG=
200905180700 METAR LMML NIL=
200905180645 METAR LMML 180645Z 32009KT 280V360 CAVOK 23/13 Q1017 NOSIG=
200905180630 METAR LMML NIL=
200905180615 METAR LMML 180615Z 33005KT 300V360 CAVOK 22/13 Q1017 NOSIG=
200905180600 METAR LMML NIL=
200905180545 METAR LMML 180545Z 33006KT CAVOK 20/13 Q1017 NOSIG=
200905180530 METAR LMML NIL=
200905180515 METAR LMML 180515Z 30009KT CAVOK 20/11 Q1016 NOSIG=
200905180500 METAR LMML NIL=
200905180445 METAR LMML 180445Z VRB01KT CAVOK 16/11 Q1016 NOSIG=
200905180430 METAR LMML NIL=
200905180415 METAR LMML 180415Z VRB02KT CAVOK 17/11 Q1016 NOSIG=
200905180400 METAR LMML NIL=
200905180345 METAR LMML 180345Z VRB03KT CAVOK 17/11 Q1016 NOSIG=
200905180330 METAR LMML NIL=
200905180315 METAR LMML 180315Z VRB03KT CAVOK 18/10 Q1016 NOSIG=
200905180300 METAR LMML NIL=
200905180245 METAR LMML 180245Z VRB02KT CAVOK 18/10 Q1016 NOSIG=
200905180230 METAR LMML NIL=
200905180215 METAR LMML 180215Z VRB02KT CAVOK 17/11 Q1016 NOSIG=
200905180200 METAR LMML NIL=
200905180145 METAR LMML 180145Z VRB02KT CAVOK 19/10 Q1016 NOSIG=
200905180130 METAR LMML NIL=
200905180115 METAR LMML 180115Z 26006KT 240V300 CAVOK 19/10 Q1016 NOSIG=
200905180100 METAR LMML NIL=
200905180045 METAR LMML 180045Z 26004KT 230V300 CAVOK 18/11 Q1016 NOSIG=
200905180030 METAR LMML NIL=
200905180015 METAR LMML 180015Z 25004KT CAVOK 18/10 Q1016 NOSIG=
200905180000 METAR LMML NIL=
200905172345 METAR LMML 172345Z 29004KT CAVOK 18/10 Q1016 NOSIG=
200905172330 METAR LMML NIL=
200905172315 METAR LMML 172315Z VRB03KT CAVOK 18/12 Q1016 NOSIG=
200905172300 METAR LMML NIL=
200905172245 METAR LMML 172245Z 29004KT CAVOK 19/12 Q1017 NOSIG=
200905172230 METAR LMML NIL=
200905172215 METAR LMML 172215Z 29006KT CAVOK 18/12 Q1017 NOSIG=
200905172200 METAR LMML NIL=
200905172145 METAR LMML 172145Z 30006KT CAVOK 17/14 Q1017 NOSIG=
200905172130 METAR LMML NIL=
200905172115 METAR LMML 172115Z 33006KT CAVOK 18/14 Q1017 NOSIG=
200905172100 METAR LMML NIL=
200905172045 METAR LMML 172045Z 32006KT CAVOK 18/14 Q1017 NOSIG=
200905172030 METAR LMML NIL=
200905172015 METAR LMML 172015Z 32006KT CAVOK 18/14 Q1017 NOSIG=
200905172000 METAR LMML NIL=
200905171945 METAR LMML 171945Z 34007KT 300V030 CAVOK 19/14 Q1017 NOSIG=
200905171930 METAR LMML NIL=
200905171915 METAR LMML 171915Z 34005KT CAVOK 19/14 Q1016 NOSIG=
200905171900 METAR LMML NIL=
200905171845 METAR LMML 171845Z 34006KT CAVOK 19/14 Q1016 NOSIG=
200905171830 METAR LMML NIL=
200905171815 METAR LMML 171815Z 34008KT CAVOK 19/14 Q1015 NOSIG=
200905171800 METAR LMML NIL=
200905171745 METAR LMML 171745Z 35008KT CAVOK 20/14 Q1015 NOSIG=
200905171730 METAR LMML NIL=
200905171715 METAR LMML 171715Z 01008KT CAVOK 20/15 Q1015 NOSIG=
200905171700 METAR LMML NIL=
200905171645 METAR LMML 171645Z 01012KT CAVOK 21/15 Q1015 NOSIG=
200905171630 METAR LMML NIL=
200905171615 METAR LMML 171615Z 36014KT CAVOK 22/15 Q1015 NOSIG=
200905171600 METAR LMML NIL=
200905171545 METAR LMML 171545Z 01014KT 330V030 CAVOK 22/15 Q1014 NOSIG=
200905171530 METAR LMML NIL=
200905171515 METAR LMML 171515Z 35013KT CAVOK 23/15 Q1014 NOSIG=
200905171500 METAR LMML NIL=
200905171445 METAR LMML 171445Z 01016G28KT 340V050 CAVOK 23/15 Q1014 NOSIG=
200905171430 METAR LMML NIL=
200905171415 METAR LMML 171415Z 01017G27KT 9999 FEW020 23/15 Q1014 NOSIG
                        RMK DUST=
200905171345 METAR LMML 171345Z 01012KT CAVOK 24/15 Q1014 NOSIG RMK DUST
                        HAZE=
200905171330 METAR LMML NIL=
200905171315 METAR LMML 171315Z 02013KT CAVOK 23/15 Q1014 NOSIG RMK DUST
                        HAZE=
200905171300 METAR LMML NIL=
200905171245 METAR LMML 171245Z 01013KT 340V040 CAVOK 24/15 Q1013 NOSIG=
200905171230 METAR LMML NIL=
200905171215 METAR LMML 171215Z 01013KT CAVOK 23/15 Q1013 NOSIG=
200905171145 METAR LMML 171145Z 01013KT 340V050 CAVOK 23/15 Q1013 NOSIG=
200905171130 METAR LMML NIL=
200905171115 METAR LMML 171115Z 01014KT CAVOK 24/15 Q1013 NOSIG=
200905171100 METAR LMML NIL=
200905171045 METAR LMML 171045Z 02012KT 350V050 CAVOK 23/16 Q1013 NOSIG=
200905171030 METAR LMML NIL=
200905171015 METAR LMML 171015Z 02012KT 360V060 9999 FEW012 23/16 Q1013
                        NOSIG=
200905171000 METAR LMML NIL=
200905170945 METAR LMML 170945Z 02012KT 9999 FEW012 23/16 Q1013 NOSIG=
200905170930 METAR LMML NIL=
200905170915 METAR LMML 170915Z 02009KT 350V050 8000 FEW012 22/17 Q1013
                        BECMG 9999=
200905170900 METAR LMML NIL=
200905170845 METAR LMML 170845Z 01010KT 340V040 7000 SCT011 SCT016 21/17
                        Q1013 BECMG 9999=
200905170830 METAR LMML NIL=
200905170815 METAR LMML 170815Z 01009KT 5000 BKN009 BKN014 20/17 Q1013
                        BECMG 8000=
200905170800 METAR LMML NIL=
200905170745 METAR LMML 170745Z 36010KT 330V050 5000 BKN008 BKN013 19/17
                        Q1012 BECMG 8000=
200905170730 METAR LMML NIL=
200905170715 METAR LMML 170715Z 36012KT 5000 BKN007 BKN013 19/17 Q1012
                        NOSIG=
200905170700 METAR LMML NIL=
200905170645 METAR LMML 170645Z 01011KT 350V050 5000 BKN007 BKN013 18/17
                        Q1012 NOSIG=
200905170630 METAR LMML NIL=
200905170615 METAR LMML 170615Z 36010KT 5000 BKN007 SCT028 19/17 Q1012
                        BECMG 8000=
200905170545 METAR LMML 170545Z 35011KT 5000 FEW006 SCT019 18/17 Q1011
                        BECMG 8000=
200905170530 METAR LMML NIL=
200905170515 METAR LMML 170515Z 36010KT 4500 BR BKN006 SCT018 17/17 Q1011
                        BECMG 6000=
200905170500 METAR LMML NIL=
200905170445 METAR LMML 170445Z 35009KT 4500 BR BKN006 SCT010 17/16 Q1011
                        BECMG 6000=
200905170430 METAR LMML NIL=
200905170415 METAR LMML 170415Z 36008KT 340V040 4000 BR BKN005 SCT011
                        17/16 Q1011 NOSIG=
200905170400 METAR LMML NIL=
200905170345 METAR LMML 170345Z 01010KT 6000 BKN006 SCT012 17/16 Q1010
                        NOSIG=
200905170330 METAR LMML NIL=
200905170315 METAR LMML 170315Z 36012KT 6000 BKN007 17/16 Q1010 TEMPO
                        5000 SHRA=
200905170300 METAR LMML NIL=
200905170245 METAR LMML 170245Z 36011KT 330V030 6000 -RA BKN006 SCT011
                        18/16 Q1010 TEMPO 5000 SHRA=
200905170230 METAR LMML NIL=
200905170215 METAR LMML 170215Z 35013KT 7000 BKN008 18/16 Q1010 NOSIG=
200905170200 METAR LMML NIL=
200905170145 METAR LMML 170145Z 34010KT 7000 BKN009 18/16 Q1010 NOSIG=
200905170130 METAR LMML NIL=
200905170115 METAR LMML 170115Z 33009KT 8000 BKN009 18/16 Q1010 NOSIG=
200905170100 METAR LMML NIL=
200905170045 METAR LMML 170045Z 34010KT 310V010 8000 BKN009 18/16 Q1009
                        NOSIG=
200905170030 METAR LMML NIL=
200905170015 METAR LMML 170015Z 34010KT 8000 BKN010 18/16 Q1009 NOSIG=
200905170000 METAR LMML NIL=
200905162345 METAR LMML 162345Z 34011KT 8000 BKN011 18/16 Q1009 NOSIG=
200905162330 METAR LMML NIL=
200905162315 METAR LMML 162315Z 34011KT 8000 BKN012 18/15 Q1009 NOSIG=
200905162300 METAR LMML NIL=
200905162245 METAR LMML 162245Z 34008KT 8000 BKN013 18/15 Q1009 NOSIG=
200905162230 METAR LMML NIL=
200905162215 METAR LMML 162215Z 35012KT 8000 SCT014 SCT044 18/15 Q1009
                        NOSIG=
200905162200 METAR LMML NIL=
200905162145 METAR LMML 162145Z 34011KT 320V020 8000 -RA BKN012 BKN045
                        18/16 Q1009 NOSIG=
200905162130 METAR LMML NIL=
200905162115 METAR LMML 162115Z 33012KT 300V360 8000 BKN009 18/16 Q1009
                        NOSIG=
200905162100 METAR LMML NIL=
200905162045 METAR LMML 162045Z 34012KT 8000 BKN009 SCT015 18/16 Q1009
                        TEMPO 5000 SHRA BKN007=
200905162030 METAR LMML NIL=
200905162015 METAR LMML 162015Z 34011KT 300V360 7000 BKN009 SCT012 18/16
                        Q1009 TEMPO 5000 SHRA BKN007=
200905162000 METAR LMML NIL=
200905161945 METAR LMML 161945Z 35010KT 7000 SCT009 SCT016 18/16 Q1009
                        TEMPO 5000 SHRA BKN007 RMK DUST HAZE=
200905161930 METAR LMML NIL=
200905161915 METAR LMML 161915Z 36008KT 330V030 7000 SCT009 SCT014 18/16
                        Q1008 TEMPO 5000 SHRA BKN007=
200905161900 METAR LMML NIL=
200905161845 METAR LMML 161845Z 36011KT 6000 SCT009 SCT014 18/16 Q1008
                        TEMPO 5000 SHRA BKN007 RMK DUST HAZE=
200905161830 METAR LMML NIL=
200905161815 METAR LMML 161815Z 36010KT 6000 SCT009 SCT090 18/16 Q1008
                        TEMPO 5000 BKN007 RMK DUST HAZE=
200905161800 METAR LMML NIL=
200905161745 METAR LMML 161745Z 01008G18KT 340V040 6000 SCT008 SCT250
                        18/16 Q1008 TEMPO 5000 BKN007 RMK
                        DUST HAZE=
200905161730 METAR LMML NIL=
200905161715 METAR LMML 161715Z 01011KT 350V050 6000 BKN010 SCT090 19/16
                        Q1007 NOSIG=
200905161700 METAR LMML NIL=
200905161645 METAR LMML 161645Z 02008KT 350V060 6000 BKN010 19/16 Q1007
                        NOSIG=
200905161630 METAR LMML NIL=
200905161615 METAR LMML 161615Z 03011KT 350V070 6000 BKN010 19/16 Q1007
                        TEMPO 5000 SHRA BKN011TCU=
200905161600 METAR LMML NIL=
200905161545 METAR LMML 161545Z 04013KT 010V070 6000 BKN010 20/17 Q1006
                        TEMPO 5000 SHRA BKN011TCU=
200905161515 METAR COR LMML 161515Z 03012KT 6000 BKN010 20/17 Q1007 TEMPO
                        5000 SHRA BKN011TCU=
200905161500 METAR LMML NIL=
200905161445 METAR LMML 161445Z 04010KT 350V060 6000 BKN011 20/17 Q1006
                        TEMPO 5000 SHRA BKN011TCU=
200905161430 METAR LMML NIL=
200905161415 METAR LMML 161415Z 05010KT 020V080 6000 BKN013 21/17 Q1006
                        TEMPO 5000 SHRA BKN012TCU=
200905161400 METAR LMML NIL=
200905161345 METAR LMML 161345Z 07009KT 010V120 6000 BKN014 21/17 Q1006
                        TEMPO 5000 SHRA BKN012TCU=
200905161330 METAR LMML NIL=
200905161315 METAR LMML 161315Z 06009KT 020V100 7000 BKN014 22/17 Q1006
                        TEMPO 5000 SHRA BKN012TCU=
200905161300 METAR LMML NIL=
200905161245 METAR LMML 161245Z 06008KT 010V100 7000 BKN012 21/17 Q1006
                        NOSIG=
200905161230 METAR LMML NIL=
200905161215 METAR LMML 161215Z 06010KT 020V100 7000 BKN012 21/17 Q1006
                        NOSIG=
200905161200 METAR LMML NIL=
200905161145 METAR LMML 161145Z 04010KT 010V100 6000 SCT013 BKN120 21/17
                        Q1006 NOSIG=
200905161130 METAR LMML NIL=
200905161115 METAR LMML 161115Z 03008KT 360V070 6000 SCT013 BKN120 22/17
                        Q1006 NOSIG=
200905161100 METAR LMML NIL=
200905161045 METAR LMML 161045Z 36004KT 310V040 6000 SCT012 BKN120 21/16
                        Q1007 NOSIG=
200905161030 METAR LMML NIL=
200905161015 METAR LMML 161015Z 03008KT 360V060 6000 SCT020 BKN120 22/16
                        Q1007 TEMPO 5000 TSRA BKN015CB=
200905161000 METAR LMML NIL=
200905160945 METAR LMML 160945Z 03004KT 350V090 6000 SCT020 BKN120 23/15
                        Q1006 TEMPO 5000 TSRA BKN015CB=
200905160930 METAR LMML NIL=
200905160915 METAR LMML 160915Z 08006KT 010V130 6000 SCT020 BKN100 23/16
                        Q1007 TEMPO 5000 SHRA SCT015TCU=
200905160900 METAR LMML NIL=
200905160845 METAR LMML 160845Z 04007KT 010V100 6000 FEW017 BKN100 23/16
                        Q1007 NOSIG=
200905160830 METAR LMML NIL=
200905160815 METAR LMML 160815Z VRB01KT 7000 NSC 21/16 Q1007 NOSIG=
200905160800 METAR LMML NIL=
200905160745 METAR LMML 160745Z VRB03KT 7000 NSC 20/16 Q1006 NOSIG=
200905160730 METAR LMML NIL=
200905160715 METAR LMML 160715Z 20005KT 170V230 7000 NSC 20/15 Q1006 NOSIG=
200905160700 METAR LMML NIL=
200905160645 METAR LMML 160645Z VRB03KT 7000 NSC 20/15 Q1006 NOSIG=
200905160630 METAR LMML NIL=
200905160615 METAR LMML 160615Z VRB01KT 7000 NSC 19/16 Q1005 NOSIG=
200905160600 METAR LMML NIL=
200905160545 METAR LMML 160545Z VRB01KT 7000 NSC 19/16 Q1005 NOSIG=
200905160515 METAR LMML 160515Z VRB02KT 7000 NSC 18/15 Q1005 NOSIG=
200905160500 METAR LMML NIL=
200905160445 METAR LMML 160445Z 19004KT 7000 NSC 17/16 Q1005 NOSIG=
200905160430 METAR LMML NIL=
200905160415 METAR LMML 160415Z VRB02KT 7000 NSC 17/15 Q1005 NOSIG=
200905160400 METAR LMML NIL=
200905160345 METAR LMML 160345Z VRB03KT 7000 NSC 18/16 Q1005 NOSIG RMK
                        HAZY TO NORTH=
200905160330 METAR LMML NIL=
200905160315 METAR LMML 160315Z VRB03KT 9000 NSC 17/16 Q1004 NOSIG=
200905160300 METAR LMML NIL=
200905160245 METAR LMML 160245Z VRB03KT 8000 NSC 16/15 Q1004 NOSIG=
200905160230 METAR LMML NIL=
200905160215 METAR COR LMML 160215Z VRB02KT 8000 NSC 17/16 Q1004 NOSIG=
200905160200 METAR LMML NIL=
200905160145 METAR LMML 160145Z 11005KT 8000 NSC 17/16 Q1004 NOSIG=
200905160130 METAR LMML NIL=
200905160115 METAR COR LMML 160115Z VRB02KT 8000 NSC 17/16 Q1004 NOSIG=
200905160100 METAR LMML NIL=
200905160045 METAR LMML 160045Z VRB02KT 8000 NSC 17/16 Q1004 NOSIG=
200905160030 METAR LMML NIL=
200905160015 METAR LMML 160015Z 16005KT 8000 NSC 18/16 Q1005 NOSIG=
200905160000 METAR LMML NIL=
200905152345 METAR LMML 152345Z 14005KT 8000 NSC 17/16 Q1005 NOSIG=
200905152330 METAR LMML NIL=
200905152315 METAR LMML 152315Z VRB02KT 8000 NSC 17/16 Q1004 NOSIG=
200905152300 METAR LMML NIL=
200905152245 METAR LMML 152245Z 12004KT 8000 NSC 17/16 Q1004 NOSIG=
200905152230 METAR LMML NIL=
200905152215 METAR COR LMML 152215Z VRB03KT 8000 NSC 18/16 Q1004 NOSIG=
200905152200 METAR LMML NIL=
200905152145 METAR LMML 152145Z 14005KT 8000 NSC 18/16 Q1004 NOSIG=
200905152130 METAR LMML NIL=
200905152115 METAR LMML 152115Z VRB02KT 8000 NSC 18/16 Q1005 BECMG CAVOK=
200905152100 METAR LMML NIL=
200905152045 METAR LMML 152045Z 14006KT 8000 NSC 18/16 Q1004 BECMG CAVOK=
200905152030 METAR LMML NIL=
200905152015 METAR LMML 152015Z VRB02KT 7000 NSC 18/16 Q1004 NOSIG=
200905152000 METAR LMML NIL=
200905151945 METAR LMML 151945Z 12005KT 7000 NSC 18/16 Q1004 NOSIG=
200905151930 METAR LMML NIL=
200905151915 METAR LMML 151915Z 11004KT 080V150 7000 NSC 18/16 Q1003 NOSIG=
200905151900 METAR LMML NIL=
200905151845 METAR LMML 151845Z 14004KT 100V180 7000 NSC 18/16 Q1003 NOSIG=
200905151830 METAR LMML NIL=
200905151815 METAR LMML 151815Z 13007KT 6000 NSC 19/16 Q1003 NOSIG=
200905151800 METAR LMML NIL=
200905151745 METAR LMML 151745Z 13009KT 6000 NSC 19/16 Q1002 NOSIG RMK
                        DUST HAZE=
200905151730 METAR LMML NIL=
200905151715 METAR LMML 151715Z 14010KT 110V170 6000 NSC 20/16 Q1002 NOSIG
                        RMK DUST=
200905151700 METAR LMML NIL=
200905151645 METAR LMML 151645Z 14011KT 100V160 6000 NSC 21/16 Q1002 NOSIG
                        RMK DUST=
200905151630 METAR LMML NIL=
200905151615 METAR LMML 151615Z 14011KT 110V170 6000 NSC 21/15 Q1002 NOSIG
                        RMK DUST=
200905151600 METAR LMML NIL=
200905151545 METAR LMML 151545Z 14013KT 120V180 6000 NSC 22/15 Q1002 NOSIG
                        RMK DUST=
200905151530 METAR LMML NIL=
200905151515 METAR LMML 151515Z 15013KT 120V180 6000 NSC 22/15 Q1002 NOSIG
                        RMK DUST=
200905151500 METAR LMML NIL=
200905151445 METAR LMML 151445Z 13016KT 100V160 4500 DU NSC 23/15 Q1002
                        TEMPO 3000=
200905151430 METAR LMML NIL=
200905151415 METAR LMML 151415Z 14015KT 100V170 4000 DU NSC 23/15 Q1002
                        TEMPO 3000=
200905151400 METAR LMML NIL=
200905151345 METAR LMML 151345Z 13016KT 100V160 4000 DU NSC 23/15 Q1002
                        TEMPO 3000=
200905151330 METAR LMML NIL=
200905151315 METAR LMML 151315Z 13018KT 4500 DU NSC 23/15 Q1002 NOSIG=
200905151300 METAR LMML NIL=
200905151245 METAR LMML 151245Z 12017KT 080V160 4500 DU NSC 23/15 Q1003
                        TEMPO 3000=
200905151230 METAR LMML NIL=
200905151215 METAR LMML 151215Z 11016KT 080V140 5000 DU NSC 24/15 Q1003
                        NOSIG=
200905151200 METAR LMML NIL=
200905151145 METAR LMML 151145Z 10016KT 070V130 6000 NSC 24/15 Q1003 NOSIG
                        RMK DUST=
200905151130 METAR LMML NIL=
200905151115 METAR LMML 151115Z 09015KT 9000 NSC 23/15 Q1004 NOSIG=
200905151100 METAR LMML NIL=
200905151045 METAR LMML 151045Z 09016KT 9000 NSC 23/16 Q1004 NOSIG=
200905151030 METAR LMML NIL=
200905151015 METAR LMML 151015Z 09016KT 050V120 9000 NSC 23/15 Q1004 NOSIG=
200905151000 METAR LMML NIL=
200905150945 METAR LMML 150945Z 08016KT 050V120 9000 NSC 23/15 Q1004 NOSIG=
200905150930 METAR LMML NIL=
200905150915 METAR LMML 150915Z 07015KT 030V100 9000 NSC 23/16 Q1005 TEMPO
                        8000 SHRA BKN070=
200905150900 METAR LMML NIL=
200905150845 METAR LMML 150845Z 06013KT 020V100 9000 NSC 22/16 Q1005 TEMPO
                        7000 TSRA BKN050CB=
200905150830 METAR LMML NIL=
200905150815 METAR LMML 150815Z 07014KT 040V100 9000 FEW027CB BKN120 20/16
                        Q1005 TEMPO 7000 TSRA BKN050CB=
200905150800 METAR LMML NIL=
200905150745 METAR LMML 150745Z 05011KT 020V090 CAVOK 20/15 Q1005 TEMPO
                        8000 SHRA BKN040=
200905150730 METAR LMML NIL=
200905150715 METAR LMML 150715Z 07013KT 040V110 CAVOK 21/15 Q1005 NOSIG=
200905150700 METAR LMML NIL=
200905150645 METAR LMML 150645Z 11019KT CAVOK 21/15 Q1005 NOSIG=
200905150630 METAR LMML NIL=
200905150615 METAR LMML 150615Z 11017KT CAVOK 21/15 Q1005 NOSIG=
200905150600 METAR LMML NIL=
200905150545 METAR LMML 150545Z 12019KT 090V150 CAVOK 20/15 Q1005 NOSIG=
200905150530 METAR LMML NIL=
200905150515 METAR LMML 150515Z 12018KT 100V160 CAVOK 20/14 Q1005 NOSIG=
200905150500 METAR LMML NIL=
200905150445 METAR LMML 150445Z 12019KT CAVOK 19/14 Q1005 NOSIG=
200905150430 METAR LMML NIL=
200905150415 METAR LMML 150415Z 12022KT CAVOK 20/13 Q1004 NOSIG=
200905150400 METAR LMML NIL=
200905150345 METAR LMML 150345Z 12022KT CAVOK 21/12 Q1004 NOSIG=
200905150330 METAR LMML NIL=
200905150315 METAR LMML 150315Z 11018KT 080V140 CAVOK 20/10 Q1004 NOSIG=
200905150300 METAR LMML NIL=
200905150245 METAR LMML 150245Z 09014KT CAVOK 19/14 Q1004 NOSIG=
200905150230 METAR LMML NIL=
200905150215 METAR LMML 150215Z 10016KT 070V130 CAVOK 19/15 Q1006 NOSIG=
200905150200 METAR LMML NIL=
200905150145 METAR LMML 150145Z 11012KT 080V140 CAVOK 18/15 Q1008 NOSIG=
200905150130 METAR LMML NIL=
200905150115 METAR LMML 150115Z 10010KT CAVOK 18/15 Q1008 NOSIG=
200905150100 METAR LMML NIL=
200905150045 METAR LMML 150045Z 09006KT 040V130 CAVOK 18/15 Q1008 NOSIG=
200905150030 METAR LMML NIL=
200905150015 METAR LMML 150015Z 10005KT 080V140 CAVOK 18/15 Q1009 NOSIG=
200905150000 METAR LMML NIL=
200905142345 METAR LMML 142345Z 14007KT 120V180 CAVOK 18/15 Q1010 NOSIG=
200905142330 METAR LMML NIL=
200905142315 METAR LMML 142315Z 11009KT 080V140 CAVOK 18/15 Q1009 NOSIG=
200905142300 METAR LMML NIL=
200905142245 METAR LMML 142245Z 10009KT 070V130 CAVOK 18/15 Q1009 NOSIG=
200905142230 METAR LMML NIL=
200905142215 METAR LMML 142215Z 09012KT CAVOK 18/15 Q1009 NOSIG=
200905142200 METAR LMML NIL=
200905142145 METAR LMML 142145Z 19005KT CAVOK 19/15 Q1010 NOSIG=
200905142130 METAR LMML NIL=
200905142115 METAR LMML 142115Z 13014KT 100V160 CAVOK 18/15 Q1010 NOSIG=
200905142100 METAR LMML NIL=
200905142045 METAR LMML 142045Z 11016KT CAVOK 19/15 Q1010 NOSIG=
200905142015 METAR LMML 142015Z 09013KT CAVOK 19/15 Q1010 NOSIG=
200905142000 METAR LMML NIL=
200905141945 METAR LMML 141945Z 11011KT CAVOK 18/15 Q1011 NOSIG=
200905141930 METAR LMML NIL=
200905141915 METAR LMML 141915Z 12011KT 090V150 CAVOK 18/15 Q1011 NOSIG=
200905141900 METAR LMML NIL=
200905141845 METAR LMML 141845Z 09009KT 060V140 CAVOK 19/15 Q1010 NOSIG=
200905141830 METAR LMML NIL=
200905141815 METAR LMML 141815Z 11010KT 070V140 CAVOK 19/15 Q1010 NOSIG=
200905141800 METAR LMML NIL=
200905141745 METAR LMML 141745Z 12017KT CAVOK 19/15 Q1010 NOSIG=
200905141730 METAR LMML NIL=
200905141715 METAR LMML 141715Z 12016KT CAVOK 19/15 Q1010 NOSIG=
200905141700 METAR LMML NIL=
200905141645 METAR LMML 141645Z 12011KT 090V150 CAVOK 19/15 Q1011 NOSIG=
200905141630 METAR LMML NIL=
200905141615 METAR LMML 141615Z 11016KT CAVOK 19/15 Q1010 NOSIG=
200905141600 METAR LMML NIL=
200905141545 METAR LMML 141545Z 11016KT CAVOK 20/15 Q1010 NOSIG=
200905141530 METAR LMML NIL=
200905141515 METAR LMML 141515Z 11016KT 070V140 CAVOK 21/15 Q1011 NOSIG=
200905141500 METAR LMML NIL=
200905141445 METAR LMML 141445Z 10016KT 080V140 CAVOK 20/15 Q1011 NOSIG=
200905141430 METAR LMML NIL=
200905141415 METAR LMML 141415Z 11017KT CAVOK 20/14 Q1011 NOSIG=
200905141400 METAR LMML NIL=
200905141345 METAR LMML 141345Z 11017KT 080V140 CAVOK 21/14 Q1011 NOSIG=
200905141330 METAR LMML NIL=
200905141315 METAR LMML 141315Z 12016KT CAVOK 21/14 Q1012 NOSIG=
200905141300 METAR LMML NIL=
200905141245 METAR LMML 141245Z 12016KT 090V150 CAVOK 21/14 Q1012 NOSIG=
200905141230 METAR LMML NIL=
200905141215 METAR LMML 141215Z 12017KT 090V160 CAVOK 22/14 Q1012 NOSIG=
200905141200 METAR LMML NIL=
200905141145 METAR LMML 141145Z 11016KT 090V150 CAVOK 22/14 Q1013 NOSIG=
200905141130 METAR LMML NIL=
200905141115 METAR LMML 141115Z 12017KT 090V160 CAVOK 22/14 Q1013 NOSIG=
200905141100 METAR LMML NIL=
200905141045 METAR LMML 141045Z 12020KT 090V160 CAVOK 23/14 Q1013 NOSIG=
200905141030 METAR LMML NIL=
200905141015 METAR LMML 141015Z 12020KT 090V150 CAVOK 23/13 Q1013 NOSIG=
200905141000 METAR LMML NIL=
200905140945 METAR LMML 140945Z 12018KT CAVOK 21/13 Q1013 NOSIG=
200905140930 METAR LMML NIL=
200905140915 METAR LMML 140915Z 12020KT CAVOK 21/13 Q1013 NOSIG=
200905140900 METAR LMML NIL=
200905140845 METAR LMML 140845Z 12021KT CAVOK 22/13 Q1013 NOSIG=
200905140830 METAR LMML NIL=
200905140815 METAR LMML 140815Z 12019KT CAVOK 21/14 Q1013 NOSIG=
200905140800 METAR LMML NIL=
200905140745 METAR LMML 140745Z 12017KT 100V160 CAVOK 21/14 Q1014 NOSIG=
200905140730 METAR LMML NIL=
200905140715 METAR LMML 140715Z 12014KT CAVOK 20/14 Q1014 NOSIG=
200905140700 METAR LMML NIL=
200905140645 METAR LMML 140645Z 12013KT CAVOK 20/14 Q1015 NOSIG=
200905140630 METAR LMML NIL=
200905140615 METAR LMML 140615Z 13011KT CAVOK 19/13 Q1015 TEMPO -SHRA=
200905140600 METAR LMML NIL=
200905140545 METAR LMML 140545Z 14010KT 100V160 CAVOK 18/14 Q1015 TEMPO
                        -SHRA=
200905140530 METAR LMML NIL=
200905140515 METAR LMML 140515Z 14008KT CAVOK 18/14 Q1015 NOSIG=
200905140500 METAR LMML NIL=
200905140445 METAR LMML 140445Z 13008KT CAVOK 17/14 Q1014 NOSIG=
200905140430 METAR LMML NIL=
200905140415 METAR LMML 140415Z 13009KT CAVOK 17/14 Q1014 NOSIG=
200905140400 METAR LMML NIL=
200905140345 METAR LMML 140345Z 13008KT 100V160 CAVOK 17/14 Q1014 NOSIG=
200905140315 METAR LMML 140315Z 12007KT CAVOK 16/14 Q1014 NOSIG=
200905140300 METAR LMML NIL=
200905140200 METAR LMML NIL=
200905140145 METAR LMML 140145Z 12005KT CAVOK 16/13 Q1015 NOSIG=
200905140130 METAR LMML NIL=
200905140115 METAR LMML 140115Z 12005KT CAVOK 16/14 Q1015 NOSIG=
200905140100 METAR LMML NIL=
200905140045 METAR LMML 140045Z 11006KT CAVOK 16/14 Q1015 NOSIG=
200905140030 METAR LMML NIL=
200905140015 METAR LMML 140015Z 13006KT CAVOK 16/14 Q1015 NOSIG=
200905140000 METAR LMML NIL=
200905132345 METAR LMML 132345Z 14006KT CAVOK 16/14 Q1016 NOSIG=
200905132330 METAR LMML NIL=
200905132315 METAR LMML 132315Z 13006KT CAVOK 16/15 Q1016 NOSIG=
200905132300 METAR LMML NIL=
200905132245 METAR LMML 132245Z 12006KT CAVOK 16/15 Q1016 NOSIG=
200905132230 METAR LMML NIL=
200905132215 METAR LMML 132215Z 11007KT CAVOK 17/15 Q1016 NOSIG=
200905132200 METAR LMML NIL=
200905132145 METAR LMML 132145Z 13006KT CAVOK 17/15 Q1016 NOSIG=
200905132130 METAR LMML NIL=
200905132115 METAR LMML 132115Z 13006KT CAVOK 17/15 Q1016 NOSIG=
200905132100 METAR LMML NIL=
200905132045 METAR LMML 132045Z 12007KT CAVOK 17/15 Q1016 NOSIG=
200905132030 METAR LMML NIL=
200905132015 METAR LMML 132015Z 12007KT CAVOK 17/15 Q1017 NOSIG=
200905132000 METAR LMML NIL=
200905131945 METAR LMML 131945Z 14006KT CAVOK 17/15 Q1017 NOSIG=
200905131930 METAR LMML NIL=
200905131915 METAR LMML 131915Z 12006KT CAVOK 17/15 Q1017 NOSIG=
200905131900 METAR LMML NIL=
200905131845 METAR LMML 131845Z 13007KT CAVOK 18/15 Q1016 NOSIG=
200905131830 METAR LMML NIL=
200905131815 METAR LMML 131815Z 13008KT CAVOK 18/15 Q1017 NOSIG=
200905131800 METAR LMML NIL=
200905131745 METAR LMML 131745Z 12009KT CAVOK 19/14 Q1016 NOSIG=
200905131730 METAR LMML NIL=
200905131715 METAR LMML 131715Z 12010KT CAVOK 20/14 Q1017 NOSIG=
200905131700 METAR LMML NIL=
200905131645 METAR LMML 131645Z 12009KT CAVOK 20/14 Q1017 NOSIG=
200905131630 METAR LMML NIL=
200905131615 METAR LMML 131615Z 14009KT 090V160 CAVOK 21/13 Q1017 NOSIG=
200905131600 METAR LMML NIL=
200905131545 METAR LMML 131545Z 14010KT 110V170 CAVOK 22/12 Q1017 NOSIG=
200905131530 METAR LMML NIL=
200905131515 METAR LMML 131515Z 14010KT 110V170 CAVOK 22/11 Q1017 NOSIG=
200905131500 METAR LMML NIL=
200905131445 METAR LMML 131445Z 14010KT 090V170 CAVOK 23/11 Q1018 NOSIG=
200905131430 METAR LMML NIL=
200905131415 METAR LMML 131415Z 14010KT 110V180 CAVOK 23/10 Q1018 NOSIG=
200905131400 METAR LMML NIL=
200905131345 METAR LMML 131345Z 15011KT 110V170 CAVOK 23/11 Q1018 NOSIG=
200905131330 METAR LMML NIL=
200905131315 METAR LMML 131315Z 14010KT 100V170 CAVOK 23/12 Q1018 NOSIG=
200905131300 METAR LMML NIL=
200905131245 METAR LMML 131245Z 14010KT 090V190 CAVOK 24/09 Q1018 NOSIG=
200905131230 METAR LMML NIL=
200905131215 METAR LMML 131215Z 13010KT 100V180 CAVOK 24/10 Q1019 NOSIG=
200905131200 METAR LMML NIL=
200905131145 METAR LMML 131145Z 14010KT 100V180 CAVOK 24/09 Q1019 NOSIG=
200905131130 METAR LMML NIL=
200905131115 METAR LMML 131115Z 14010KT 080V180 CAVOK 24/11 Q1019 NOSIG=
200905131100 METAR LMML NIL=
200905131045 METAR LMML 131045Z 14009KT 100V170 CAVOK 23/11 Q1019 NOSIG=
200905131030 METAR LMML NIL=
200905131015 METAR LMML 131015Z 14009KT 100V170 CAVOK 24/09 Q1019 NOSIG=
200905131000 METAR LMML NIL=
200905130945 METAR LMML 130945Z 14009KT 100V180 CAVOK 24/07 Q1020 NOSIG=
200905130930 METAR LMML NIL=
200905130915 METAR LMML 130915Z 13008KT 090V170 CAVOK 24/06 Q1019 NOSIG=
200905130900 METAR LMML NIL=
200905130845 METAR LMML 130845Z 12008KT 090V150 CAVOK 23/08 Q1019 NOSIG=
200905130830 METAR LMML NIL=
200905130815 METAR LMML 130815Z 13007KT 090V160 CAVOK 23/08 Q1019 NOSIG=
200905130800 METAR LMML NIL=
200905130745 METAR LMML 130745Z 13006KT 090V170 CAVOK 22/10 Q1020 NOSIG=
200905130730 METAR LMML NIL=
200905130715 METAR LMML 130715Z 13007KT 100V160 CAVOK 21/09 Q1020 NOSIG=
200905130700 METAR LMML NIL=
200905130645 METAR LMML 130645Z 12004KT 090V160 CAVOK 20/15 Q1020 NOSIG=
200905130630 METAR LMML NIL=
200905130615 METAR LMML 130615Z VRB03KT 9999 FEW015 18/17 Q1020 BECMG
                        CAVOK=
200905130600 METAR LMML NIL=
200905130545 METAR LMML 130545Z VRB02KT 5000 BR FEW012 17/17 Q1019 BECMG
                        CAVOK=
200905130530 LMML NIL=
200905130500 METAR LMML NIL=
200905130445 METAR LMML 130445Z VRB02KT 5000 BR FEW006 14/14 Q1019 BECMG
                        CAVOK=
200905130430 METAR LMML NIL=
200905130415 METAR LMML 130415Z VRB01KT 4000 MIFG FEW006 13/12 Q1019 BECMG
                        7000=
200905130400 METAR LMML NIL=
200905130345 METAR LMML 130345Z VRB01KT 4000 BR FEW006 13/13 Q1019 TEMPO
                        3000 FEW003=
200905130330 METAR LMML NIL=
200905130315 METAR LMML 130315Z VRB01KT 7000 NSC 14/13 Q1019 TEMPO 5000
                        BR FEW003=
200905130300 METAR LMML NIL=
200905130245 METAR LMML 130245Z VRB01KT 7000 NSC 14/13 Q1019 TEMPO 5000
                        BR FEW003=
200905130230 METAR LMML NIL=
200905130215 METAR LMML 130215Z VRB01KT 7000 NSC 14/13 Q1019 TEMPO 5000
                        BR FEW003=
200905130200 METAR LMML NIL=
200905130145 METAR LMML 130145Z 00000KT 7000 NSC 14/13 Q1019 TEMPO 5000
                        BR FEW003=
200905130130 METAR LMML NIL=
200905130115 METAR LMML 130115Z VRB01KT 7000 NSC 14/13 Q1019 TEMPO 5000
                        BR FEW003=
200905130100 METAR LMML NIL=
200905130045 METAR LMML 130045Z VRB02KT CAVOK 14/13 Q1019 TEMPO 5000 BR
                        FEW003=
200905130030 METAR LMML NIL=
200905130015 METAR LMML 130015Z VRB02KT CAVOK 15/13 Q1019 TEMPO 5000 BR
                        FEW003=
200905130000 METAR LMML NIL=
200905122345 METAR LMML 122345Z VRB01KT CAVOK 15/14 Q1020 NOSIG=
200905122330 METAR LMML NIL=
200905122315 METAR LMML 122315Z VRB02KT CAVOK 16/14 Q1020 NOSIG=
200905122300 METAR LMML NIL=
200905122245 METAR LMML 122245Z 13004KT CAVOK 16/14 Q1020 NOSIG=
200905122230 METAR LMML NIL=
200905122215 METAR LMML 122215Z 13004KT CAVOK 16/14 Q1020 NOSIG=
200905122200 METAR LMML NIL=
200905122145 METAR LMML 122145Z 14006KT CAVOK 17/15 Q1020 NOSIG=
200905122130 METAR LMML NIL=
200905122115 METAR LMML 122115Z 14006KT CAVOK 17/15 Q1020 NOSIG=
200905122100 METAR LMML NIL=
200905122045 METAR LMML 122045Z 14007KT CAVOK 17/15 Q1020 NOSIG=
200905122030 METAR LMML NIL=
200905122015 METAR LMML 122015Z 14006KT CAVOK 17/14 Q1020 NOSIG=
200905122000 METAR LMML NIL=
200905121945 METAR LMML 121945Z 13006KT CAVOK 16/14 Q1020 NOSIG=
200905121930 METAR LMML NIL=
200905121915 METAR LMML 121915Z 13006KT CAVOK 17/14 Q1020 NOSIG=
200905121900 METAR LMML NIL=
200905121845 METAR LMML 121845Z 13006KT CAVOK 17/14 Q1020 NOSIG=
200905121830 METAR LMML NIL=
200905121815 METAR LMML 121815Z 12006KT CAVOK 18/14 Q1020 NOSIG=
200905121800 METAR LMML NIL=
200905121745 METAR LMML 121745Z 12007KT CAVOK 18/13 Q1020 NOSIG=
200905121730 METAR LMML NIL=
200905121715 METAR LMML 121715Z 12006KT CAVOK 19/13 Q1020 NOSIG=
200905121700 METAR LMML NIL=
200905121645 METAR LMML 121645Z 12007KT 090V160 CAVOK 20/12 Q1019 NOSIG=
200905121630 METAR LMML NIL=
200905121615 METAR LMML 121615Z 12008KT CAVOK 21/12 Q1019 NOSIG=
200905121600 METAR LMML NIL=
200905121545 METAR LMML 121545Z 13008KT CAVOK 21/12 Q1019 NOSIG=
200905121530 METAR LMML NIL=
200905121515 METAR LMML 121515Z 12008KT 070V160 CAVOK 22/10 Q1020 NOSIG=
200905121500 METAR LMML NIL=
200905121445 METAR LMML 121445Z 11008KT CAVOK 22/08 Q1020 NOSIG=
200905121430 METAR LMML NIL=
200905121415 METAR LMML 121415Z 13008KT 090V160 CAVOK 23/11 Q1020 NOSIG=
200905121400 METAR LMML NIL=
200905121345 METAR LMML 121345Z 12008KT 080V160 CAVOK 23/11 Q1020 NOSIG=
200905121330 METAR LMML NIL=
200905121315 METAR LMML 121315Z 14007KT 100V180 CAVOK 23/08 Q1020 NOSIG=
200905121300 METAR LMML NIL=
200905121245 METAR LMML 121245Z 12008KT 080V160 CAVOK 23/11 Q1020 NOSIG=
200905121230 METAR LMML NIL=
200905121215 METAR LMML 121215Z 14007KT 080V180 CAVOK 23/10 Q1021 NOSIG=
200905121200 METAR LMML NIL=
200905121145 METAR LMML 121145Z 11008KT 040V140 CAVOK 23/11 Q1021 NOSIG=
200905121130 METAR LMML NIL=
200905121115 METAR LMML 121115Z 12008KT 080V160 CAVOK 23/11 Q1021 NOSIG=
200905121100 METAR LMML NIL=
200905121045 METAR LMML 121045Z 12007KT 080V170 CAVOK 23/10 Q1021 NOSIG=
200905121030 METAR LMML NIL=
200905121015 METAR LMML 121015Z 13007KT 090V160 CAVOK 23/10 Q1021 NOSIG=
200905121000 METAR LMML NIL=
200905120945 METAR LMML 120945Z 13007KT 080V190 CAVOK 22/07 Q1021 NOSIG=
200905120930 METAR LMML NIL=
200905120915 METAR LMML 120915Z 12006KT 080V170 CAVOK 22/06 Q1021 NOSIG=
200905120900 METAR LMML NIL=
200905120845 METAR LMML 120845Z 13007KT 060V170 CAVOK 22/08 Q1021 NOSIG=
200905120830 METAR LMML NIL=
200905120815 METAR LMML 120815Z 11005KT 050V150 CAVOK 22/10 Q1021 NOSIG=
200905120800 METAR LMML NIL=
200905120745 METAR LMML 120745Z 10005KT 050V190 CAVOK 21/12 Q1021 NOSIG=
200905120730 METAR LMML NIL=
200905120715 METAR LMML 120715Z 09004KT 010V130 CAVOK 20/13 Q1021 NOSIG=
200905120700 METAR LMML NIL=
200905120630 METAR LMML NIL=
200905120615 METAR LMML 120615Z 07005KT 030V120 7000 FEW008 17/17 Q1020
                        BECMG 9999 FEW012=
200905120600 METAR LMML NIL=
200905120545 METAR LMML 120545Z 07004KT 040V100 5000 BR FEW001 17/17 Q1020
                        BECMG 9999 FEW012=
200905120530 METAR LMML NIL=
200905120515 METAR LMML 120515Z VRB02KT 4000 BR FEW001 16/15 Q1020 BECMG
                        9999 FEW012=
200905120500 METAR LMML NIL=
200905120445 METAR LMML 120445Z VRB01KT 2000 MIFG FEW001 13/13 Q1020 BECMG
                        5000 BR=
200905120431 SPECI LMML 120431Z VRB01KT 1500 BCFG FEW001 13/12 Q1020 BECMG
                        5000 BR=
200905120430 METAR LMML NIL=
200905120415 METAR LMML 120415Z VRB01KT 0900 R13/1136VP1500U BCFG FEW001
                        13/12 Q1020 TEMPO 0800 BCFG=
200905120400 METAR LMML NIL=
200905120345 METAR LMML 120345Z VRB01KT 3000 BCFG FEW001 13/13 Q1019 TEMPO
                        0800 BCFG=
200905120330 METAR LMML NIL=
200905120315 METAR LMML 120315Z VRB01KT 6000 BCFG NSC 13/13 Q1019 TEMPO
                        5000 BCFG=
200905120300 METAR LMML NIL=
200905120245 METAR LMML 120245Z VRB01KT 7000 MIFG NSC 14/13 Q1019 TEMPO
                        5000 BCFG=
200905120230 METAR LMML NIL=
200905120215 METAR LMML 120215Z VRB01KT 9000 MIFG NSC 14/13 Q1019 TEMPO
                        5000 BCFG=
200905120200 METAR LMML NIL=
200905120145 METAR LMML 120145Z VRB02KT 9000 NSC 14/13 Q1019 NOSIG=
200905120130 METAR LMML NIL=
200905120115 METAR LMML 120115Z VRB02KT 9000 NSC 14/13 Q1019 NOSIG=
200905120100 METAR LMML NIL=
200905120045 METAR LMML 120045Z VRB03KT CAVOK 15/14 Q1020 NOSIG=
200905120030 METAR LMML NIL=
200905120015 METAR LMML 120015Z VRB03KT CAVOK 14/13 Q1020 NOSIG=
200905112345 METAR LMML 112345Z VRB02KT CAVOK 15/14 Q1020 NOSIG=
200905112330 METAR LMML NIL=
200905112315 METAR LMML 112315Z VRB03KT CAVOK 15/14 Q1020 NOSIG=
200905112300 METAR LMML NIL=
200905112245 METAR LMML 112245Z VRB03KT CAVOK 15/14 Q1020 NOSIG=
200905112230 METAR LMML NIL=
200905112215 METAR LMML 112215Z VRB02KT CAVOK 16/14 Q1020 NOSIG=
200905112200 METAR LMML NIL=
200905112145 METAR LMML 112145Z VRB03KT CAVOK 16/15 Q1020 NOSIG=
200905112130 METAR LMML NIL=
200905112115 METAR LMML 112115Z VRB03KT CAVOK 16/15 Q1020 NOSIG=
200905112100 METAR LMML NIL=
200905112045 METAR LMML 112045Z VRB03KT CAVOK 16/14 Q1020 NOSIG=
200905112030 METAR LMML NIL=
200905112015 METAR LMML 112015Z 11004KT CAVOK 16/14 Q1020 NOSIG=
200905112000 METAR LMML NIL=
200905111945 METAR LMML 111945Z VRB03KT CAVOK 16/14 Q1020 NOSIG=
200905111930 METAR LMML NIL=
200905111915 METAR LMML 111915Z 10004KT CAVOK 16/14 Q1020 NOSIG=
200905111900 METAR LMML NIL=
200905111845 METAR LMML 111845Z 12005KT CAVOK 17/14 Q1019 NOSIG=
200905111830 METAR LMML NIL=
200905111815 METAR LMML 111815Z 12006KT CAVOK 17/14 Q1019 NOSIG=
200905111800 METAR LMML NIL=
200905111745 METAR LMML 111745Z 12007KT CAVOK 18/14 Q1019 NOSIG=
200905111730 METAR LMML NIL=
200905111715 METAR LMML 111715Z 12007KT 090V150 CAVOK 18/13 Q1019 NOSIG=
200905111700 METAR LMML NIL=
200905111645 METAR LMML 111645Z 11008KT 090V150 9999 FEW020 19/14 Q1019
                        NOSIG=
200905111630 METAR LMML NIL=
200905111615 METAR LMML 111615Z 11009KT 9999 FEW020 20/14 Q1019 NOSIG=
200905111600 METAR LMML NIL=
200905111545 METAR LMML 111545Z 11009KT 080V150 9999 FEW020 20/14 Q1019
                        NOSIG=
200905111530 METAR LMML NIL=
200905111515 METAR LMML 111515Z 10007KT 050V150 9999 FEW020 21/12 Q1019
                        NOSIG=
200905111500 METAR LMML NIL=
200905111445 METAR LMML 111445Z 12009KT 9999 FEW020 20/14 Q1019 NOSIG=
200905111430 METAR LMML NIL=
200905111415 METAR LMML 111415Z 11009KT 080V140 9999 FEW020 21/14 Q1019
                        NOSIG=
200905111400 METAR LMML NIL=
200905111345 METAR LMML 111345Z 11010KT 080V140 9999 FEW020 21/14 Q1019
                        NOSIG=
200905111330 METAR LMML NIL=
200905111315 METAR LMML 111315Z 08008KT 050V140 9999 FEW015 21/13 Q1020
                        NOSIG=
200905111300 METAR LMML NIL=
200905111245 METAR LMML 111245Z 09007KT 050V130 9999 FEW016 21/12 Q1020
                        NOSIG=
200905111230 METAR LMML NIL=
200905111215 METAR LMML 111215Z 08007KT 040V130 9999 FEW016 22/14 Q1020
                        NOSIG=
200905111200 METAR LMML NIL=
200905111145 METAR LMML 111145Z 11007KT 040V160 9999 FEW016 21/14 Q1020
                        NOSIG=
200905111130 METAR LMML NIL=
200905111115 METAR LMML 111115Z 11007KT 050V180 9999 FEW015 21/12 Q1020
                        NOSIG=
200905111100 METAR LMML NIL=
200905111045 METAR LMML 111045Z 11007KT 060V170 9999 FEW015 21/14 Q1021
                        NOSIG=
200905111030 METAR LMML NIL=
200905111015 METAR LMML 111015Z 12008KT 090V170 9999 FEW015 21/14 Q1021
                        NOSIG=
200905111000 METAR LMML NIL=
200905110945 METAR LMML 110945Z 12007KT 060V170 9999 FEW015 21/14 Q1021
                        NOSIG=
200905110930 METAR LMML NIL=
200905110915 METAR LMML 110915Z 13007KT 070V170 9999 FEW015 20/14 Q1021
                        NOSIG=
200905110900 METAR LMML NIL=
200905110845 METAR LMML 110845Z 12006KT 070V170 9999 FEW015 20/14 Q1021
                        NOSIG=
200905110830 METAR LMML NIL=
200905110815 METAR LMML 110815Z 12006KT 090V150 9999 FEW015 20/14 Q1021
                        NOSIG=
200905110800 METAR LMML NIL=
200905110745 METAR LMML 110745Z 10005KT 060V140 9999 FEW012 20/14 Q1021
                        NOSIG=
200905110730 METAR LMML NIL=
200905110715 METAR LMML 110715Z 13006KT 080V170 9999 FEW011 19/14 Q1020
                        NOSIG=
200905110700 METAR LMML NIL=
200905110645 METAR LMML 110645Z 12006KT 080V150 9999 FEW010 18/15 Q1021
                        NOSIG=
200905110630 METAR LMML NIL=
200905110615 METAR LMML 110615Z 10005KT 060V150 6000 SCT010 17/16 Q1020
                        BECMG 9999=
200905110600 METAR LMML NIL=
200905110545 METAR LMML 110545Z VRB03KT 6000 FEW008 17/16 Q1020 BECMG
                        9999=
200905110530 METAR LMML NIL=
200905110515 METAR LMML 110515Z VRB03KT 6000 FEW008 16/15 Q1020 BECMG
                        9999=
200905110500 METAR LMML NIL=
200905110445 METAR LMML 110445Z VRB02KT 6000 FEW008 14/13 Q1020 TEMPO
                        4000 BR=
200905110430 METAR LMML NIL=
200905110415 METAR LMML 110415Z VRB02KT 6000 FEW008 13/13 Q1020 TEMPO
                        4000 BR=
200905110400 METAR LMML NIL=
200905110345 METAR LMML 110345Z VRB01KT 7000 FEW015 13/13 Q1019 TEMPO
                        5000 BR=
200905110315 METAR LMML 110315Z VRB02KT CAVOK 13/13 Q1019 TEMPO 8000 FEW011=
200905110300 METAR LMML NIL=
200905110245 METAR LMML 110245Z VRB02KT CAVOK 13/13 Q1019 TEMPO 8000 FEW011=
200905110230 METAR LMML NIL=
200905110215 METAR LMML 110215Z VRB02KT CAVOK 13/13 Q1019 TEMPO 8000 FEW011=
200905110200 METAR LMML NIL=
200905110145 METAR LMML 110145Z VRB01KT CAVOK 14/13 Q1019 TEMPO 9000 FEW011=
200905110130 METAR LMML NIL=
200905110115 METAR LMML 110115Z VRB02KT CAVOK 14/12 Q1019 TEMPO 9000 FEW011=
200905110100 METAR LMML NIL=
200905110045 METAR LMML 110045Z VRB01KT CAVOK 14/12 Q1019 TEMPO 9000 FEW011=
200905110030 METAR LMML NIL=
200905110015 METAR LMML 110015Z VRB01KT CAVOK 14/12 Q1019 TEMPO 9000 FEW011=
200905110000 METAR LMML NIL=
200905102345 METAR LMML 102345Z VRB02KT CAVOK 15/13 Q1020 NOSIG=
200905102330 METAR LMML NIL=
200905102315 METAR LMML 102315Z VRB02KT CAVOK 15/13 Q1020 NOSIG=
200905102300 METAR LMML NIL=
200905102245 METAR LMML 102245Z VRB03KT CAVOK 15/13 Q1020 NOSIG=
200905102230 METAR LMML NIL=
200905102215 METAR LMML 102215Z VRB03KT CAVOK 15/13 Q1020 NOSIG=
200905102200 METAR LMML NIL=
200905102145 METAR LMML 102145Z 11004KT CAVOK 15/13 Q1020 NOSIG=
200905102130 METAR LMML NIL=
200905102115 METAR LMML 102115Z 09004KT 040V120 CAVOK 16/13 Q1020 NOSIG=
200905102100 METAR LMML NIL=
200905102045 METAR LMML 102045Z 09004KT 040V120 CAVOK 16/13 Q1021 NOSIG=
200905102030 METAR LMML NIL=
200905102015 METAR LMML 102015Z 11004KT CAVOK 15/13 Q1020 NOSIG=
200905102000 METAR LMML NIL=
200905101945 METAR LMML 101945Z VRB03KT CAVOK 16/14 Q1020 NOSIG=
200905101930 METAR LMML NIL=
200905101915 METAR LMML 101915Z 11004KT CAVOK 16/14 Q1020 NOSIG=
200905101900 METAR LMML NIL=
200905101845 METAR LMML 101845Z 12004KT CAVOK 16/14 Q1020 NOSIG=
200905101830 METAR LMML NIL=
200905101815 METAR LMML 101815Z 14005KT CAVOK 17/14 Q1020 NOSIG=
200905101745 METAR LMML 101745Z 14005KT CAVOK 18/13 Q1019 NOSIG=
200905101730 METAR LMML NIL=
200905101715 METAR LMML 101715Z 14005KT 110V180 CAVOK 19/12 Q1020 NOSIG=
200905101645 METAR LMML 101645Z 16005KT 100V190 CAVOK 20/11 Q1020 NOSIG=
200905101630 METAR LMML NIL=
200905101615 METAR LMML 101615Z 13006KT 090V180 CAVOK 20/11 Q1020 NOSIG=
200905101600 METAR LMML NIL=
200905101545 METAR LMML 101545Z 16006KT 100V200 CAVOK 20/10 Q1020 NOSIG=
200905101530 METAR LMML NIL=
200905101515 METAR LMML 101515Z 18006KT 150V210 CAVOK 20/12 Q1020 NOSIG=
200905101500 METAR LMML NIL=
200905101445 METAR LMML 101445Z 17006KT 120V220 CAVOK 21/11 Q1020 NOSIG=
200905101415 METAR LMML 101415Z 17006KT 130V200 CAVOK 21/11 Q1020 NOSIG=
200905101400 METAR LMML NIL=
200905101345 METAR LMML 101345Z 16007KT 100V220 CAVOK 21/11 Q1021 NOSIG=
200905101330 METAR LMML NIL=
200905101315 METAR LMML 101315Z 17007KT 120V230 CAVOK 21/11 Q1021 NOSIG=
200905101300 METAR LMML NIL=
200905101245 METAR LMML 101245Z 17007KT 140V210 CAVOK 21/11 Q1021 NOSIG=
200905101230 METAR LMML NIL=
200905101215 METAR LMML 101215Z 16007KT 130V220 CAVOK 22/10 Q1021 NOSIG=
200905101200 METAR LMML NIL=
200905101145 METAR LMML 101145Z 17008KT 130V210 9999 FEW030 SCT250 22/10
                        Q1022 NOSIG=
200905101130 METAR LMML NIL=
200905101115 METAR LMML 101115Z 14007KT 080V220 CAVOK 22/09 Q1022 NOSIG=
200905101100 METAR LMML NIL=
200905101045 METAR LMML 101045Z 16008KT 110V200 CAVOK 22/09 Q1022 NOSIG=
200905101030 METAR LMML NIL=
200905101015 METAR LMML 101015Z 13007KT 090V160 9999 FEW030 22/11 Q1022
                        NOSIG=
200905101000 METAR LMML NIL=
200905100945 METAR LMML 100945Z 13006KT 080V190 9999 FEW030 22/11 Q1022
                        NOSIG=
200905100930 METAR LMML NIL=
200905100915 METAR LMML 100915Z 13006KT 080V190 9999 FEW030 SCT250 21/12
                        Q1022 NOSIG=
200905100900 METAR LMML NIL=
200905100845 METAR LMML 100845Z 13006KT 070V210 CAVOK 21/11 Q1022 NOSIG=
200905100830 METAR LMML NIL=
200905100815 METAR LMML 100815Z 13005KT 050V170 9999 FEW020 SCT250 21/12
                        Q1022 NOSIG=
200905100800 METAR LMML NIL=
200905100745 METAR LMML 100745Z 13006KT 090V170 9999 FEW020 20/13 Q1022
                        NOSIG=
200905100730 METAR LMML NIL=
200905100715 METAR LMML 100715Z 12005KT 070V180 9999 FEW012 19/13 Q1022
                        NOSIG=
200905100700 METAR LMML NIL=
200905100645 METAR LMML 100645Z 14004KT 110V170 9999 FEW012 18/14 Q1022
                        NOSIG=
200905100630 METAR LMML NIL=
200905100615 METAR LMML 100615Z VRB03KT 9999 FEW007 17/16 Q1022 NOSIG=
200905100600 METAR LMML NIL=
200905100545 METAR LMML 100545Z VRB03KT 9999 FEW007 17/16 Q1022 NOSIG=
200905100530 METAR LMML NIL=
200905100515 METAR LMML 100515Z VRB02KT CAVOK 15/15 Q1021 NOSIG=
200905100500 METAR LMML NIL=
200905100445 METAR LMML 100445Z VRB03KT CAVOK 15/14 Q1021 NOSIG=
200905100430 METAR LMML NIL=
200905100415 METAR LMML 100415Z 16004KT 9000 MIFG NSC 14/14 Q1021 TEMPO
                        1000 FG BKN001=
200905100400 METAR LMML NIL=
200905100345 METAR LMML 100345Z VRB01KT 9000 MIFG NSC 13/13 Q1021 TEMPO
                        1000 FG BKN001=
200905100330 METAR LMML NIL=
200905100315 METAR LMML 100315Z VRB01KT CAVOK 14/13 Q1021 NOSIG=
200905100300 METAR LMML NIL=
200905100245 METAR LMML 100245Z VRB03KT CAVOK 14/14 Q1021 NOSIG=
200905100230 METAR LMML NIL=
200905100215 METAR LMML 100215Z VRB02KT CAVOK 14/14 Q1021 NOSIG=
200905100200 METAR LMML NIL=
200905100145 METAR LMML 100145Z VRB01KT CAVOK 13/13 Q1021 NOSIG=
200905100130 METAR LMML NIL=
200905100115 METAR LMML 100115Z VRB02KT CAVOK 14/13 Q1021 NOSIG=
200905100100 METAR LMML NIL=
200905100045 METAR LMML 100045Z VRB02KT CAVOK 14/13 Q1021 NOSIG=
200905100030 METAR LMML NIL=
200905100015 METAR LMML 100015Z VRB03KT CAVOK 15/14 Q1021 NOSIG=
200905100000 METAR LMML NIL=
200905092345 METAR LMML 092345Z VRB01KT CAVOK 14/13 Q1022 NOSIG=
200905092330 METAR LMML NIL=
200905092315 METAR LMML 092315Z VRB02KT CAVOK 15/13 Q1022 NOSIG=
200905092300 METAR LMML NIL=
200905092245 METAR LMML 092245Z VRB02KT CAVOK 15/13 Q1022 NOSIG=
200905092230 METAR LMML NIL=
200905092215 METAR LMML 092215Z VRB03KT CAVOK 16/13 Q1022 NOSIG=
200905092200 METAR LMML NIL=
200905092145 METAR LMML 092145Z VRB03KT CAVOK 16/13 Q1022 NOSIG=
200905092130 METAR LMML NIL=
200905092115 METAR LMML 092115Z VRB02KT CAVOK 16/13 Q1022 NOSIG=
200905092100 METAR LMML NIL=
200905092045 METAR LMML 092045Z VRB03KT CAVOK 16/13 Q1022 NOSIG=
200905092030 METAR LMML NIL=
200905092015 METAR LMML 092015Z VRB03KT CAVOK 16/13 Q1022 NOSIG=
200905092000 METAR LMML NIL=
200905091945 METAR LMML 091945Z VRB01KT CAVOK 17/13 Q1022 NOSIG=
200905091930 METAR LMML NIL=
200905091915 METAR LMML 091915Z VRB02KT CAVOK 17/13 Q1022 NOSIG=
200905091900 METAR LMML NIL=
200905091845 METAR LMML 091845Z VRB03KT CAVOK 17/13 Q1022 NOSIG=
200905091830 METAR LMML NIL=
200905091815 METAR LMML 091815Z VRB03KT CAVOK 18/13 Q1022 NOSIG=
200905091800 METAR LMML NIL=
200905091745 METAR LMML 091745Z VRB03KT CAVOK 19/13 Q1022 NOSIG=
200905091730 METAR LMML NIL=
200905091715 METAR LMML 091715Z 02004KT 320V040 CAVOK 20/14 Q1022 NOSIG=
200905091700 METAR LMML NIL=
200905091645 METAR LMML 091645Z 03005KT 360V100 CAVOK 21/14 Q1022 NOSIG=
200905091630 METAR LMML NIL=
200905091615 METAR LMML 091615Z VRB03KT CAVOK 21/10 Q1022 NOSIG=
200905091600 METAR LMML NIL=
200905091545 METAR LMML 091545Z 20004KT 170V240 CAVOK 21/10 Q1022 NOSIG=
200905091530 METAR LMML NIL=
200905091515 METAR LMML 091515Z 21005KT 170V270 CAVOK 21/10 Q1022 NOSIG=
200905091500 METAR LMML NIL=
200905091445 METAR LMML 091445Z 22007KT 190V260 CAVOK 21/10 Q1022 NOSIG=
200905091430 METAR LMML NIL=
200905091415 METAR LMML 091415Z 21006KT 160V280 CAVOK 22/11 Q1022 NOSIG=
200905091400 METAR LMML NIL=
200905091345 METAR LMML 091345Z 22006KT 170V280 CAVOK 22/11 Q1022 NOSIG=
200905091330 METAR LMML NIL=
200905091315 METAR LMML 091315Z 22007KT 170V280 9999 FEW020 22/11 Q1023
                        NOSIG=
200905091300 METAR LMML NIL=
200905091245 METAR LMML 091245Z 22007KT 180V280 9999 FEW020 22/10 Q1023
                        NOSIG=
200905091230 METAR LMML NIL=
200905091215 METAR LMML 091215Z 23006KT 190V270 9999 FEW020 22/09 Q1023
                        NOSIG=
200905091200 METAR LMML NIL=
200905091145 METAR LMML 091145Z 21006KT 170V270 9999 FEW020 21/12 Q1023
                        NOSIG=
200905091115 METAR LMML 091115Z 20007KT 160V240 9999 FEW020 21/12 Q1023
                        NOSIG=
200905091100 METAR LMML NIL=
200905091045 METAR LMML 091045Z 21007KT 170V270 9999 FEW020 20/14 Q1024
                        NOSIG=
200905091030 METAR LMML NIL=
200905091015 METAR LMML 091015Z 22007KT 170V290 9999 FEW015 21/14 Q1024
                        NOSIG=
200905091000 METAR LMML NIL=
200905090945 METAR LMML 090945Z 22005KT 170V270 9999 FEW015 21/14 Q1024
                        NOSIG=
200905090930 METAR LMML NIL=
200905090915 METAR LMML 090915Z 21005KT 160V280 9999 FEW015 22/12 Q1024
                        NOSIG=
200905090900 METAR LMML NIL=
200905090845 METAR LMML 090845Z 23004KT 190V290 9999 FEW012 21/11 Q1024
                        NOSIG=
200905090830 METAR LMML NIL=
200905090815 METAR LMML 090815Z 21005KT 170V250 9999 FEW012 21/11 Q1023
                        NOSIG=
200905090800 METAR LMML NIL=
200905090745 METAR LMML 090745Z VRB03KT 9999 FEW012 20/13 Q1023 NOSIG=
200905090730 METAR LMML NIL=
200905090715 METAR LMML 090715Z VRB03KT 9999 FEW012 18/15 Q1023 NOSIG=
200905090700 METAR LMML NIL=
200905090645 METAR LMML 090645Z 22006KT 9999 FEW012 17/16 Q1023 NOSIG=
200905090630 METAR LMML NIL=
200905090615 METAR LMML 090615Z 20004KT 160V230 9999 FEW012 16/15 Q1023
                        NOSIG=
200905090600 METAR LMML NIL=
200905090545 METAR LMML 090545Z 20004KT 8000 FEW002 15/15 Q1023 BECMG
                        9999=
200905090533 SPECI LMML 090533Z 21004KT 180V240 2000 FEW002 15/15 Q1022
                        BECMG 6000=
200905090530 METAR LMML NIL=
200905090515 METAR LMML 090515Z 21004KT 0100 R13/0708VP1500U FG BKN001
                        15/14 Q1022 BECMG 2000 SCT002=
200905090500 METAR LMML NIL=
200905090445 METAR LMML 090445Z 21004KT 0100 R13/0200N FG BKN001 14/14
                        Q1022 TEMPO 0100 BECMG 2000 SCT002=
200905090430 METAR LMML NIL=
200905090415 METAR LMML 090415Z 21004KT 0200 R13/0295V0677D FG BKN001
                        14/13 Q1022 BECMG 5000 SCT005=
200905090406 SPECI LMML 090406Z 21004KT 0400 R13/0600N FG SCT001 14/13
                        Q1022 BECMG 5000=
200905090400 METAR LMML NIL=
200905090345 METAR LMML 090345Z VRB03KT 9999 FEW008 13/11 Q1022 NOSIG=
200905090330 METAR LMML NIL=
200905090315 METAR LMML 090315Z VRB01KT CAVOK 13/11 Q1022 NOSIG=
200905090300 METAR LMML NIL=
200905090245 METAR LMML 090245Z VRB01KT CAVOK 13/12 Q1022 NOSIG=
200905090230 METAR LMML NIL=
200905090215 METAR LMML 090215Z VRB01KT CAVOK 13/12 Q1022 NOSIG=
200905090200 METAR LMML NIL=
200905090145 METAR LMML 090145Z VRB02KT CAVOK 13/12 Q1022 NOSIG=
200905090130 METAR LMML NIL=
200905090115 METAR LMML 090115Z VRB03KT CAVOK 13/12 Q1023 NOSIG=
200905090100 METAR LMML NIL=
200905090045 METAR LMML 090045Z VRB02KT CAVOK 14/12 Q1023 NOSIG=
200905090030 METAR LMML NIL=
200905090015 METAR LMML 090015Z VRB02KT CAVOK 14/12 Q1023 NOSIG=
200905090000 METAR LMML NIL=
200905082345 METAR LMML 082345Z VRB03KT CAVOK 14/12 Q1023 NOSIG=
200905082330 METAR LMML NIL=
200905082315 METAR LMML 082315Z VRB02KT CAVOK 14/12 Q1023 NOSIG=
200905082300 METAR LMML NIL=
200905082245 METAR LMML 082245Z VRB01KT CAVOK 14/12 Q1023 NOSIG=
200905082230 METAR LMML NIL=
200905082215 METAR LMML 082215Z VRB02KT CAVOK 14/11 Q1023 NOSIG=
200905082200 METAR LMML NIL=
200905082145 METAR LMML 082145Z VRB02KT CAVOK 14/11 Q1023 NOSIG=
200905082130 METAR LMML NIL=
200905082115 METAR LMML 082115Z VRB01KT CAVOK 15/11 Q1023 NOSIG=
200905082100 METAR LMML NIL=
200905082045 METAR LMML 082045Z VRB02KT CAVOK 15/11 Q1023 NOSIG=
200905082030 METAR LMML NIL=
200905082015 METAR LMML 082015Z VRB02KT CAVOK 15/11 Q1023 NOSIG=
200905082000 METAR LMML NIL=
200905081945 METAR LMML 081945Z VRB02KT CAVOK 16/11 Q1023 NOSIG=
200905081930 METAR LMML NIL=
200905081915 METAR LMML 081915Z VRB01KT CAVOK 16/11 Q1023 NOSIG=
200905081900 METAR LMML NIL=
200905081845 METAR LMML 081845Z VRB02KT CAVOK 17/12 Q1023 NOSIG=
200905081830 METAR LMML NIL=
200905081815 METAR LMML 081815Z VRB02KT CAVOK 17/12 Q1023 NOSIG=
200905081800 METAR LMML NIL=
200905081745 METAR LMML 081745Z VRB02KT CAVOK 19/11 Q1023 NOSIG=
200905081730 METAR LMML NIL=
200905081715 METAR LMML 081715Z VRB02KT CAVOK 20/14 Q1023 NOSIG=
200905081700 METAR LMML NIL=
200905081645 METAR LMML 081645Z 04004KT 360V060 CAVOK 20/15 Q1023 NOSIG=
200905081630 METAR LMML NIL=
200905081615 METAR LMML 081615Z VRB03KT CAVOK 22/15 Q1022 NOSIG=
200905081545 METAR LMML 081545Z 36004KT 320V030 CAVOK 22/15 Q1023 NOSIG=
200905081530 METAR LMML NIL=
200905081515 METAR LMML 081515Z VRB03KT 9999 FEW025 22/15 Q1023 NOSIG=
200905081500 METAR LMML NIL=
200905081445 METAR LMML 081445Z 01004KT 320V080 9999 FEW025 23/15 Q1023
                        NOSIG=
200905081430 METAR LMML NIL=
200905081415 METAR LMML 081415Z VRB03KT 9999 FEW025 22/14 Q1023 NOSIG=
200905081400 METAR LMML NIL=
200905081345 METAR LMML 081345Z 03005KT 350V070 CAVOK 23/15 Q1023 NOSIG=
200905081330 METAR LMML NIL=
200905081315 METAR LMML 081315Z 04006KT 360V100 9999 FEW025 23/15 Q1023
                        NOSIG=
200905081300 METAR LMML NIL=
200905081245 METAR LMML 081245Z 03005KT 350V080 9999 FEW025 23/15 Q1023
                        NOSIG=
200905081230 METAR LMML NIL=
200905081215 METAR LMML 081215Z VRB03KT 9999 FEW025 23/15 Q1023 NOSIG=
200905081200 METAR LMML NIL=
200905081145 METAR LMML 081145Z 01005KT 330V050 9999 FEW022 22/16 Q1023
                        NOSIG=
200905081130 METAR LMML NIL=
200905081115 METAR LMML 081115Z 03006KT 360V090 9999 FEW022 22/16 Q1023
                        NOSIG=
200905081100 METAR LMML NIL=
200905081045 METAR LMML 081045Z 07006KT 360V130 9999 FEW022 21/16 Q1023
                        NOSIG=
200905081030 METAR LMML NIL=
200905081015 METAR LMML 081015Z 10004KT 040V200 9999 FEW022 21/15 Q1023
                        NOSIG=
200905081000 METAR LMML NIL=
200905080945 METAR LMML 080945Z 10005KT 060V180 9999 FEW022 21/15 Q1023
                        NOSIG=
200905080930 METAR LMML NIL=
200905080915 METAR LMML 080915Z 08004KT 020V150 9999 FEW020 21/15 Q1023
                        NOSIG=
200905080900 METAR LMML NIL=
200905080845 METAR LMML 080845Z VRB02KT CAVOK 21/13 Q1023 NOSIG=
200905080830 METAR LMML NIL=
200905080815 METAR LMML 080815Z VRB03KT CAVOK 20/14 Q1023 NOSIG=
200905080800 METAR LMML NIL=
200905080745 METAR LMML 080745Z 33004KT 290V020 CAVOK 19/13 Q1023 NOSIG=
200905080730 METAR LMML NIL=
200905080715 METAR LMML 080715Z 31004KT 280V360 8000 FEW006 18/14 Q1023
                        BECMG CAVOK=
200905080700 METAR LMML NIL=
200905080645 METAR LMML 080645Z 29005KT 6000 SCT006 17/14 Q1023 NOSIG=
200905080630 METAR LMML NIL=
200905080615 METAR LMML 080615Z 31006KT 6000 SCT006 16/14 Q1023 BECMG
                        CAVOK=
200905080600 METAR LMML NIL=
200905080545 METAR LMML 080545Z VRB02KT 6000 FEW006 15/14 Q1022 BECMG
                        CAVOK=
200905080530 METAR LMML NIL=
200905080515 METAR LMML 080515Z VRB02KT 6000 FEW006 14/12 Q1022 BECMG
                        CAVOK=
200905080500 METAR LMML NIL=
200905080445 METAR LMML 080445Z VRB03KT 6000 FEW006 13/10 Q1022 BECMG
                        CAVOK=
200905080415 METAR LMML 080415Z VRB02KT 7000 FEW007 11/09 Q1022 BECMG
                        CAVOK=
200905080400 METAR LMML NIL=
200905080345 METAR LMML 080345Z VRB01KT CAVOK 11/09 Q1022 NOSIG=
200905080330 METAR LMML NIL=
200905080315 METAR LMML 080315Z VRB01KT CAVOK 12/10 Q1022 NOSIG=
200905080300 METAR LMML NIL=
200905080245 METAR LMML 080245Z VRB01KT CAVOK 13/10 Q1022 NOSIG=
200905080230 METAR LMML NIL=
200905080215 METAR LMML 080215Z VRB03KT CAVOK 13/10 Q1022 NOSIG=
200905080200 METAR LMML NIL=
200905080145 METAR LMML 080145Z VRB03KT CAVOK 13/09 Q1022 NOSIG=
200905080130 METAR LMML NIL=
200905080115 METAR LMML 080115Z VRB03KT CAVOK 13/10 Q1022 NOSIG=
200905080100 METAR LMML NIL=
200905080045 METAR LMML 080045Z VRB02KT CAVOK 13/11 Q1022 NOSIG=
200905080030 METAR LMML NIL=
200905080015 METAR LMML 080015Z VRB02KT CAVOK 13/11 Q1022 NOSIG=
200905080000 METAR LMML NIL=
200905072345 METAR LMML 072345Z VRB02KT CAVOK 13/11 Q1022 NOSIG=
200905072330 METAR LMML NIL=
200905072315 METAR LMML 072315Z VRB03KT CAVOK 13/11 Q1022 NOSIG=
200905072300 METAR LMML NIL=
200905072245 METAR LMML 072245Z VRB03KT CAVOK 13/12 Q1022 NOSIG=
200905072230 METAR LMML NIL=
200905072215 METAR LMML 072215Z 25004KT CAVOK 14/12 Q1022 NOSIG=
200905072200 METAR LMML NIL=
200905072145 METAR LMML 072145Z VRB03KT CAVOK 14/13 Q1022 NOSIG=
200905072130 METAR LMML NIL=
200905072115 METAR LMML 072115Z 29004KT 250V320 CAVOK 14/13 Q1022 NOSIG=
200905072100 METAR LMML NIL=
200905072045 METAR LMML 072045Z VRB03KT CAVOK 15/13 Q1022 NOSIG=
200905072030 METAR LMML NIL=
200905072015 METAR LMML 072015Z 32004KT 9999 FEW015 15/13 Q1022 NOSIG=
200905072000 METAR LMML NIL=
200905071945 METAR LMML 071945Z 32004KT 300V360 9999 FEW012 15/13 Q1022
                        NOSIG=
200905071930 METAR LMML NIL=
200905071915 METAR LMML 071915Z 31005KT 9999 FEW015 15/14 Q1022 NOSIG=
200905071900 METAR LMML NIL=
200905071845 METAR LMML 071845Z 31006KT 9999 FEW020 16/13 Q1022 NOSIG=
200905071830 METAR LMML NIL=
200905071815 METAR LMML 071815Z 30006KT 9999 FEW020 16/13 Q1022 NOSIG=
200905071800 METAR LMML NIL=
200905071745 METAR LMML 071745Z 34004KT 300V030 9999 FEW020 18/13 Q1021
                        NOSIG=
200905071730 METAR LMML NIL=
200905071715 METAR LMML 071715Z 01004KT 340V040 9999 FEW025 19/14 Q1021
                        NOSIG=
200905071700 METAR LMML NIL=
200905071645 METAR LMML 071645Z 01004KT 340V070 9999 FEW030 20/12 Q1021
                        NOSIG=
200905071630 METAR LMML NIL=
200905071615 METAR LMML 071615Z 02005KT 340V100 9999 FEW030 20/13 Q1021
                        NOSIG=
200905071600 METAR LMML NIL=
200905071545 METAR LMML 071545Z 04005KT 340V100 9999 FEW025 21/13 Q1021
                        NOSIG=
200905071530 METAR LMML NIL=
200905071515 METAR LMML 071515Z 03005KT 360V070 9999 FEW025 21/13 Q1021
                        NOSIG=
200905071500 METAR LMML NIL=
200905071445 METAR LMML 071445Z 19004KT 110V250 9999 FEW025 21/13 Q1021
                        NOSIG=
200905071430 METAR LMML NIL=
200905071415 METAR LMML 071415Z 02005KT 340V100 9999 FEW025 22/14 Q1021
                        NOSIG=
200905071400 METAR LMML NIL=
200905071345 METAR LMML 071345Z 05006KT 360V120 9999 FEW025 21/13 Q1021
                        NOSIG=
200905071330 METAR LMML NIL=
200905071315 METAR LMML 071315Z 05004KT 350V120 9999 FEW025 22/13 Q1021
                        NOSIG=
200905071300 METAR LMML NIL=
200905071245 METAR LMML 071245Z 02005KT 340V080 9999 FEW030 22/14 Q1021
                        NOSIG=
200905071230 METAR LMML NIL=
200905071215 METAR LMML 071215Z 02007KT 340V070 9999 FEW020 22/14 Q1021
                        NOSIG=
200905071200 METAR LMML NIL=
200905071145 METAR LMML 071145Z 03007KT 340V080 9999 FEW020 22/13 Q1021
                        NOSIG=
200905071130 METAR LMML NIL=
200905071115 METAR LMML 071115Z 03006KT 310V090 9999 FEW020 22/13 Q1021
                        NOSIG=
200905071100 METAR LMML NIL=
200905071045 METAR LMML 071045Z 05005KT 330V120 9999 FEW020 22/13 Q1021
                        NOSIG=
200905071030 METAR LMML NIL=
200905071015 METAR LMML 071015Z 03004KT 270V090 9999 FEW020 22/13 Q1021
                        NOSIG=
200905071000 METAR LMML NIL=
200905070945 METAR LMML 070945Z VRB02KT 9999 FEW020 22/12 Q1021 NOSIG=
200905070930 METAR LMML NIL=
200905070915 METAR LMML 070915Z 23005KT 190V300 9999 FEW020 21/07 Q1021
                        NOSIG=
200905070900 METAR LMML NIL=
200905070845 METAR LMML 070845Z 24005KT 200V280 9999 FEW020 21/09 Q1021
                        NOSIG=
200905070830 METAR LMML NIL=
200905070815 METAR LMML 070815Z VRB03KT 9999 FEW020 20/08 Q1021 NOSIG=
200905070800 METAR LMML NIL=
200905070745 METAR LMML 070745Z VRB02KT 9999 FEW020 20/09 Q1021 NOSIG=
200905070730 METAR LMML NIL=
200905070715 METAR LMML 070715Z VRB01KT 9999 FEW020 19/10 Q1021 NOSIG=
200905070700 METAR LMML NIL=
200905070645 METAR LMML 070645Z VRB01KT CAVOK 18/11 Q1021 NOSIG=
200905070630 METAR LMML NIL=
200905070615 METAR LMML 070615Z VRB01KT CAVOK 17/11 Q1021 NOSIG=
200905070600 METAR LMML NIL=
200905070545 METAR LMML 070545Z VRB01KT CAVOK 16/12 Q1020 NOSIG=
200905070530 METAR LMML NIL=
200905070515 METAR LMML 070515Z VRB03KT CAVOK 15/12 Q1020 NOSIG=
200905070500 METAR LMML NIL=
200905070445 METAR LMML 070445Z VRB03KT 9999 FEW020 13/09 Q1020 NOSIG=
200905070430 METAR LMML NIL=
200905070415 METAR LMML 070415Z VRB02KT CAVOK 12/09 Q1019 NOSIG=
200905070400 METAR LMML NIL=
200905070345 METAR LMML 070345Z VRB03KT CAVOK 12/09 Q1019 NOSIG=
200905070330 METAR LMML NIL=
200905070315 METAR LMML 070315Z VRB03KT CAVOK 13/10 Q1019 NOSIG=
200905070300 METAR LMML NIL=
200905070245 METAR LMML 070245Z VRB03KT CAVOK 13/10 Q1019 NOSIG=
200905070230 METAR LMML NIL=
200905070215 METAR LMML 070215Z VRB03KT CAVOK 13/10 Q1019 NOSIG=
200905070200 METAR LMML NIL=
200905070145 METAR LMML 070145Z VRB03KT CAVOK 13/08 Q1019 NOSIG=
200905070130 METAR LMML NIL=
200905070115 METAR LMML 070115Z VRB03KT CAVOK 13/08 Q1019 NOSIG=
200905070100 METAR LMML NIL=
200905070045 METAR LMML 070045Z VRB03KT CAVOK 12/09 Q1019 NOSIG=
200905070030 METAR LMML NIL=
200905070015 METAR LMML 070015Z VRB03KT CAVOK 13/10 Q1019 NOSIG=
200905070000 METAR LMML NIL=
200905062345 METAR LMML 062345Z 31004KT CAVOK 13/11 Q1019 NOSIG=
200905062330 METAR LMML NIL=
200905062315 METAR LMML 062315Z VRB03KT CAVOK 13/11 Q1019 NOSIG=
200905062300 METAR LMML NIL=
200905062245 METAR LMML 062245Z VRB03KT CAVOK 13/12 Q1020 NOSIG=
200905062230 METAR LMML NIL=
200905062215 METAR LMML 062215Z VRB03KT CAVOK 14/12 Q1020 NOSIG=
200905062200 METAR LMML NIL=
200905062145 METAR LMML 062145Z 31004KT CAVOK 14/12 Q1020 NOSIG=
200905062130 METAR LMML NIL=
200905062115 METAR LMML 062115Z VRB03KT CAVOK 14/12 Q1020 NOSIG=
200905062045 METAR LMML 062045Z VRB03KT CAVOK 14/12 Q1020 NOSIG=
200905062030 METAR LMML NIL=
200905062015 METAR LMML 062015Z 32005KT CAVOK 14/12 Q1020 NOSIG=
200905062000 METAR LMML NIL=
200905061945 METAR LMML 061945Z 32005KT 290V010 CAVOK 15/12 Q1020 NOSIG=
200905061930 METAR LMML NIL=
200905061915 METAR LMML 061915Z 34007KT CAVOK 15/12 Q1020 NOSIG=
200905061900 METAR LMML NIL=
200905061845 METAR LMML 061845Z 34007KT CAVOK 15/12 Q1019 NOSIG=
200905061830 METAR LMML NIL=
200905061815 METAR LMML 061815Z 34005KT CAVOK 15/12 Q1019 NOSIG=
200905061800 METAR LMML NIL=
200905061745 METAR LMML 061745Z 35007KT CAVOK 16/12 Q1019 NOSIG=
200905061730 METAR LMML NIL=
200905061715 METAR LMML 061715Z 33005KT 290V360 9999 FEW025 SCT250 17/12
                        Q1019 NOSIG=
200905061700 METAR LMML NIL=
200905061645 METAR LMML 061645Z 33006KT 270V360 9999 FEW025 SCT250 18/12
                        Q1018 NOSIG=
200905061630 METAR LMML NIL=
200905061615 METAR LMML 061615Z 33007KT 270V010 9999 FEW024 18/12 Q1018
                        NOSIG=
200905061600 METAR LMML NIL=
200905061545 METAR LMML 061545Z 34006KT 270V030 9999 FEW025 19/13 Q1018
                        NOSIG=
200905061515 METAR LMML 061515Z 32005KT 270V020 9999 FEW031 19/12 Q1018
                        NOSIG=
200905061500 METAR LMML NIL=
200905061445 METAR LMML 061445Z 34008KT 300V020 9999 FEW029 20/12 Q1018
                        NOSIG=
200905061430 METAR LMML NIL=
200905061415 METAR LMML 061415Z 35006KT 290V040 9999 FEW026 20/12 Q1018
                        NOSIG=
200905061400 METAR LMML NIL=
200905061345 METAR LMML 061345Z 34006KT 300V030 9999 FEW032 20/12 Q1018
                        NOSIG=
200905061330 METAR LMML NIL=
200905061315 METAR LMML 061315Z 35008KT 320V040 9999 FEW036 21/12 Q1018
                        NOSIG=
200905061300 METAR LMML NIL=
200905061245 METAR LMML 061245Z 01008KT 340V050 9999 FEW035 21/12 Q1018
                        NOSIG=
200905061230 METAR LMML NIL=
200905061215 METAR LMML 061215Z 02007KT 330V080 9999 FEW039 22/11 Q1019
                        NOSIG=
200905061200 METAR LMML NIL=
200905061145 METAR LMML 061145Z 35005KT 240V060 9999 FEW035 21/11 Q1019
                        NOSIG=
200905061130 METAR LMML NIL=
200905061115 METAR LMML 061115Z 35005KT 280V050 9999 FEW035 20/11 Q1019
                        NOSIG=
200905061100 METAR LMML NIL=
200905061045 METAR LMML 061045Z 36008KT 330V040 9999 FEW029 21/13 Q1019
                        NOSIG=
200905061030 METAR LMML NIL=
200905061015 METAR LMML 061015Z 01009KT 340V050 9999 FEW029 20/13 Q1019
                        NOSIG=
200905061000 METAR LMML NIL=
200905060945 METAR LMML 060945Z 01007KT 340V050 9999 FEW029 21/13 Q1018
                        NOSIG=
200905060930 METAR LMML NIL=
200905060915 METAR LMML 060915Z 35006KT 280V030 9999 FEW030 19/12 Q1018
                        NOSIG=
200905060900 METAR LMML NIL=
200905060845 METAR LMML 060845Z 32004KT 270V030 9999 FEW029 19/11 Q1018
                        NOSIG=
200905060830 METAR LMML NIL=
200905060815 METAR LMML 060815Z 33005KT 250V020 9999 FEW019 18/12 Q1018
                        NOSIG=
200905060800 METAR LMML NIL=
200905060745 METAR LMML 060745Z 30007KT 260V340 9999 FEW019 17/12 Q1018
                        NOSIG=
200905060730 METAR LMML NIL=
200905060715 METAR LMML 060715Z 31007KT 9999 SCT017 16/12 Q1018 NOSIG=
200905060700 METAR LMML NIL=
200905060645 METAR LMML 060645Z 32007KT 290V350 9999 SCT016 16/13 Q1018
                        NOSIG=
200905060630 METAR LMML NIL=
200905060615 METAR LMML 060615Z 29006KT 250V320 9999 FEW012 15/13 Q1017
                        NOSIG=
200905060600 METAR LMML NIL=
200905060545 METAR LMML 060545Z VRB03KT 9999 FEW012 14/13 Q1017 NOSIG=
200905060530 METAR LMML NIL=
200905060515 METAR LMML 060515Z VRB03KT 9999 FEW012 SCT250 13/12 Q1017
                        NOSIG=
200905060500 METAR LMML NIL=
200905060445 METAR LMML 060445Z VRB02KT 9999 FEW012 SCT250 12/11 Q1017
                        NOSIG=
200905060430 METAR LMML NIL=
200905060415 METAR LMML 060415Z VRB02KT 9999 FEW012 SCT250 13/11 Q1017
                        NOSIG=
200905060400 METAR LMML NIL=
200905060345 METAR LMML 060345Z 30004KT 9999 FEW012 BKN250 13/12 Q1017
                        NOSIG=
200905060330 METAR LMML NIL=
200905060315 METAR LMML 060315Z 29005KT 9999 FEW011 SCT100 13/12 Q1017
                        NOSIG=
200905060300 METAR LMML NIL=
200905060245 METAR LMML 060245Z 29005KT 9999 FEW011 SCT100 14/12 Q1017
                        NOSIG=
200905060230 METAR LMML NIL=
200905060215 METAR LMML 060215Z 30006KT 9999 FEW015 SCT100 14/12 Q1017
                        NOSIG=
200905060200 METAR LMML NIL=
200905060145 METAR LMML 060145Z 28007KT 240V300 9999 FEW017 SCT080 14/12
                        Q1017 NOSIG=
200905060130 METAR LMML NIL=
200905060115 METAR LMML 060115Z 30005KT 9999 FEW015 SCT080 14/13 Q1017
                        NOSIG=
200905060100 METAR LMML NIL=
200905060045 METAR LMML 060045Z 27005KT 230V320 9999 FEW015 BKN100 14/13
                        Q1017 NOSIG=
200905060030 METAR LMML NIL=
200905060015 METAR LMML 060015Z 28006KT 250V320 9999 FEW015 BKN100 15/13
                        Q1017 NOSIG=
200905060000 METAR LMML NIL=
200905052345 METAR LMML 052345Z 28007KT 9999 FEW015 BKN100 15/13 Q1017
                        NOSIG=
200905052330 METAR LMML NIL=
200905052315 METAR LMML 052315Z 27006KT 230V300 9999 FEW015 SCT100 15/13
                        Q1018 NOSIG=
200905052300 METAR LMML NIL=
200905052245 METAR LMML 052245Z 28005KT 240V320 9999 FEW014 SCT100 15/13
                        Q1018 NOSIG=
200905052230 METAR LMML NIL=
200905052215 METAR LMML 052215Z 28008KT 250V310 9999 FEW014 SCT100 15/13
                        Q1018 NOSIG=
200905052200 METAR LMML NIL=
200905052145 METAR LMML 052145Z 28008KT 9999 FEW014 SCT090 14/13 Q1017
                        NOSIG=
200905052130 METAR LMML NIL=
200905052115 METAR LMML 052115Z 28009KT 9999 FEW014 SCT090 14/13 Q1017
                        NOSIG=
200905052100 METAR LMML NIL=
200905052045 METAR LMML 052045Z 29007KT 9999 FEW014 14/13 Q1017 NOSIG=
200905052030 METAR LMML NIL=
200905052015 METAR LMML 052015Z 30007KT 9999 FEW014 15/13 Q1017 NOSIG=
200905052000 METAR LMML NIL=
200905051945 METAR LMML 051945Z 30006KT 270V330 9999 FEW014 15/13 Q1017
                        NOSIG=
200905051930 METAR LMML NIL=
200905051915 METAR LMML 051915Z 30007KT 9999 FEW014 SCT250 15/13 Q1017
                        NOSIG=
200905051900 METAR LMML NIL=
200905051845 METAR LMML 051845Z 30008KT 9999 FEW014 SCT250 15/13 Q1017
                        NOSIG=
200905051830 METAR LMML NIL=
200905051815 METAR LMML 051815Z 29008KT 9999 FEW014 SCT250 15/13 Q1017
                        NOSIG=
200905051800 METAR LMML NIL=
200905051745 METAR LMML 051745Z 29010KT 9999 FEW016 16/13 Q1017 NOSIG=
200905051715 METAR LMML 051715Z 30013KT 9999 FEW016 16/13 Q1017 NOSIG=
200905051700 METAR LMML NIL=
200905051645 METAR LMML 051645Z 30014KT 270V330 9999 SCT017 SCT250 17/13
                        Q1017 NOSIG=
200905051630 METAR LMML NIL=
200905051615 METAR LMML 051615Z 30012KT 260V330 9999 SCT017 SCT250 18/13
                        Q1016 NOSIG=
200905051600 METAR LMML NIL=
200905051545 METAR LMML 051545Z 31015KT 260V340 9999 SCT019 SCT250 18/13
                        Q1016 NOSIG=
200905051530 METAR LMML NIL=
200905051515 METAR LMML 051515Z 30016KT 9999 SCT019 SCT250 18/12 Q1017
                        NOSIG=
200905051500 METAR LMML NIL=
200905051445 METAR LMML 051445Z 31017KT 9999 SCT018 SCT250 17/12 Q1017
                        NOSIG=
200905051430 METAR LMML NIL=
200905051415 METAR LMML 051415Z 28013KT 250V320 9999 SCT021 SCT250 18/12
                        Q1017 NOSIG=
200905051400 METAR LMML NIL=
200905051345 METAR LMML 051345Z 31014KT 270V330 9999 SCT022 19/12 Q1017
                        NOSIG=
200905051330 METAR LMML NIL=
200905051315 METAR LMML 051315Z 31014KT 260V330 9999 SCT023 SCT250 18/12
                        Q1017 NOSIG=
200905051300 METAR LMML NIL=
200905051245 METAR LMML 051245Z 30014KT 9999 SCT024 SCT250 18/11 Q1017
                        NOSIG=
200905051230 METAR LMML NIL=
200905051215 METAR LMML 051215Z 30013KT 9999 FEW031 19/11 Q1018 NOSIG=
200905051200 METAR LMML NIL=
200905051145 METAR LMML 051145Z 30012KT 250V320 9999 SCT028 19/09 Q1018
                        NOSIG=
200905051130 METAR LMML NIL=
200905051115 METAR LMML 051115Z 30011KT 270V340 9999 SCT026 19/10 Q1018
                        NOSIG=
200905051100 METAR LMML NIL=
200905051045 METAR LMML 051045Z 31012KT 9999 SCT025 18/10 Q1018 NOSIG=
200905051030 METAR LMML NIL=
200905051015 METAR LMML 051015Z 30011KT 260V330 9999 SCT028 19/11 Q1018
                        NOSIG=
200905051000 METAR LMML NIL=
200905050945 METAR LMML 050945Z 31011KT 260V340 9999 SCT025 18/10 Q1018
                        NOSIG=
200905050930 METAR LMML NIL=
200905050915 METAR LMML 050915Z 30011KT 260V330 9999 SCT023 18/11 Q1018
                        NOSIG=
200905050900 METAR LMML NIL=
200905050845 METAR LMML 050845Z 30011KT 260V320 9999 SCT021 18/12 Q1018
                        NOSIG=
200905050830 METAR LMML NIL=
200905050815 METAR LMML 050815Z 29011KT 260V320 9999 SCT021 17/11 Q1018
                        NOSIG=
200905050800 METAR LMML NIL=
200905050745 METAR LMML 050745Z 29009KT 240V340 9999 SCT020 17/12 Q1018
                        NOSIG=
200905050730 METAR LMML NIL=
200905050715 METAR LMML 050715Z 29008KT 250V310 9999 SCT020 16/11 Q1018
                        NOSIG=
200905050700 METAR LMML NIL=
200905050645 METAR LMML 050645Z 29006KT 250V330 9999 FEW020 16/12 Q1017
                        NOSIG=
200905050630 METAR LMML NIL=
200905050615 METAR LMML 050615Z 30007KT 9999 FEW020 15/12 Q1017 NOSIG=
200905050600 METAR LMML NIL=
200905050545 METAR LMML 050545Z 29005KT 270V330 9999 FEW020 14/12 Q1017
                        NOSIG=
200905050530 METAR LMML NIL=
200905050515 METAR LMML 050515Z 27004KT 9999 FEW020 13/11 Q1017 NOSIG=
200905050500 LMML NIL=
200905050430 METAR LMML NIL=
200905050415 METAR LMML 050415Z 29004KT CAVOK 13/11 Q1016 NOSIG=
200905050400 METAR LMML NIL=
200905050345 METAR LMML 050345Z VRB03KT CAVOK 12/10 Q1016 NOSIG=
200905050330 METAR LMML NIL=
200905050315 METAR LMML 050315Z 30006KT CAVOK 12/10 Q1016 NOSIG=
200905050300 METAR LMML NIL=
200905050245 METAR LMML 050245Z 30005KT CAVOK 12/10 Q1016 NOSIG=
200905050230 METAR LMML NIL=
200905050215 METAR LMML 050215Z 30005KT CAVOK 12/11 Q1016 NOSIG=
200905050200 METAR LMML NIL=
200905050145 METAR LMML 050145Z 29005KT CAVOK 13/11 Q1016 NOSIG=
200905050130 METAR LMML NIL=
200905050115 METAR LMML 050115Z 29006KT CAVOK 13/11 Q1016 NOSIG=
200905050100 METAR LMML NIL=
200905050045 METAR LMML 050045Z 29006KT CAVOK 13/11 Q1016 NOSIG=
200905050030 METAR LMML NIL=
200905050015 METAR LMML 050015Z 28006KT CAVOK 13/11 Q1016 NOSIG=
200905050000 METAR LMML NIL=
200905042345 METAR LMML 042345Z 30004KT CAVOK 13/11 Q1017 NOSIG=
200905042330 METAR LMML NIL=
200905042315 METAR LMML 042315Z 29005KT CAVOK 14/12 Q1017 NOSIG=
200905042300 METAR LMML NIL=
200905042245 METAR LMML 042245Z 29006KT CAVOK 14/12 Q1017 NOSIG=
200905042230 METAR LMML NIL=
200905042215 METAR LMML 042215Z 29008KT CAVOK 14/12 Q1017 NOSIG=
200905042200 METAR LMML NIL=
200905042145 METAR LMML 042145Z 30008KT CAVOK 14/13 Q1017 NOSIG=
200905042130 METAR LMML NIL=
200905042115 METAR LMML 042115Z 29007KT CAVOK 14/12 Q1017 NOSIG=
200905042100 METAR LMML NIL=
200905042045 METAR LMML 042045Z 29008KT 260V320 CAVOK 14/12 Q1017 NOSIG=
200905042030 METAR LMML NIL=
200905042015 METAR LMML 042015Z 28007KT CAVOK 14/12 Q1017 NOSIG=
200905042000 METAR LMML NIL=
200905041945 METAR LMML 041945Z 29009KT 260V320 CAVOK 14/12 Q1016 NOSIG=
200905041930 METAR LMML NIL=
200905041915 METAR LMML 041915Z 30008KT 9999 FEW020 14/12 Q1016 NOSIG=
200905041900 METAR LMML NIL=
200905041845 METAR LMML 041845Z 29008KT 260V330 9999 FEW020 15/12 Q1016
                        NOSIG=
200905041830 METAR LMML NIL=
200905041815 METAR LMML 041815Z 29009KT 270V330 9999 FEW020 15/12 Q1016
                        NOSIG=
200905041800 METAR LMML NIL=
200905041745 METAR LMML 041745Z 29010KT 260V320 9999 FEW020 15/12 Q1015
                        NOSIG=
200905041730 METAR LMML NIL=
200905041715 METAR LMML 041715Z 30012KT 9999 FEW020 16/13 Q1015 NOSIG=
200905041700 METAR LMML NIL=
200905041645 METAR LMML 041645Z 30014KT 260V320 9999 FEW020 17/12 Q1015
                        NOSIG=
200905041630 METAR LMML NIL=
200905041615 METAR LMML 041615Z 30013KT 260V320 9999 SCT020 18/12 Q1015
                        NOSIG=
200905041600 METAR LMML NIL=
200905041545 METAR LMML 041545Z 29013KT 250V320 9999 SCT021 18/12 Q1015
                        NOSIG=
200905041530 METAR LMML NIL=
200905041515 METAR LMML 041515Z 30015KT 260V330 9999 SCT020 17/12 Q1015
                        NOSIG=
200905041500 METAR LMML NIL=
200905041445 METAR LMML 041445Z 28015KT 250V310 9999 SCT020 18/12 Q1015
                        NOSIG=
200905041430 METAR LMML NIL=
200905041415 METAR LMML 041415Z 30012KT 240V330 9999 FEW031 19/11 Q1016
                        NOSIG=
200905041400 METAR LMML NIL=
200905041345 METAR LMML 041345Z 30016KT 250V330 9999 FEW035 19/08 Q1016
                        NOSIG=
200905041330 METAR LMML NIL=
200905041315 METAR LMML 041315Z 30016KT 260V330 9999 FEW030 19/09 Q1016
                        NOSIG=
200905041300 METAR LMML NIL=
200905041245 METAR LMML 041245Z 29015KT 270V330 9999 FEW020 SCT080 19/09
                        Q1016 NOSIG=
200905041230 METAR LMML NIL=
200905041215 METAR LMML 041215Z 30016KT 9999 -SHRA FEW020 SCT070 15/09
                        Q1016 NOSIG=
200905041200 METAR LMML NIL=
200905041145 METAR LMML 041145Z 29018KT 9999 FEW024 SCT100 18/09 Q1016
                        TEMPO 8000 SHRAGS SCT020TCU=
200905041130 METAR LMML NIL=
200905041115 METAR LMML 041115Z 31015KT 280V340 9999 FEW024 19/08 Q1016
                        NOSIG=
200905041100 METAR LMML NIL=
200905041045 METAR LMML 041045Z 32018KT 290V350 9999 SCT024 18/08 Q1017
                        NOSIG=
200905041030 METAR LMML NIL=
200905041015 METAR LMML 041015Z 32013KT 9999 SCT024 18/09 Q1017 REGS NOSIG=
200905041000 METAR LMML NIL=
200905040945 METAR LMML 040945Z 33009KT 300V360 9999 SCT024 16/10 Q1017
                        REGS NOSIG=
200905040935 SPECI LMML 040935Z 34011KT 9999 SCT024TCU 16/10 Q1017 REGS
                        BECMG SCT020=
200905040930 METAR LMML NIL=
200905040915 METAR LMML 040915Z 34013KT 310V020 9999 SCT028 17/10 Q1017
                        TEMPO 8000 SHRA SCT020TCU=
200905040900 METAR LMML NIL=
200905040845 METAR LMML 040845Z 30018KT 270V330 9999 SCT029 17/10 Q1017
                        TEMPO 8000 SHRA SCT020TCU=
200905040830 METAR LMML NIL=
200905040815 METAR LMML 040815Z 29016KT 260V330 9999 FEW027 18/11 Q1017
                        NOSIG=
200905040800 METAR LMML NIL=
200905040745 METAR LMML 040745Z 31018KT 9999 FEW030 18/11 Q1017 NOSIG
                        RMK TCU TO NORTH=
200905040730 METAR LMML NIL=
200905040715 METAR LMML 040715Z 31015KT 9999 FEW022 17/10 Q1016 NOSIG
                        RMK TCU TO NORTH=
200905040700 METAR LMML NIL=
200905040645 METAR LMML 040645Z 32015KT 9999 FEW020 16/11 Q1016 NOSIG=
200905040630 METAR LMML NIL=
200905040615 METAR LMML 040615Z 31014KT 9999 FEW012 16/12 Q1016 NOSIG=
200905040600 METAR LMML NIL=
200905040545 METAR LMML 040545Z 31012KT 9999 FEW012 15/11 Q1016 NOSIG=
200905040530 METAR LMML NIL=
200905040515 METAR LMML 040515Z 31012KT 9999 FEW012 14/11 Q1016 NOSIG=
200905040500 METAR LMML NIL=
200905040445 METAR LMML 040445Z 30011KT 9999 FEW012 14/11 Q1016 NOSIG=
200905040430 METAR LMML NIL=
200905040415 METAR LMML 040415Z 31010KT 9999 FEW012 13/11 Q1016 NOSIG=
200905040400 METAR LMML NIL=
200905040345 METAR LMML 040345Z 30010KT 270V330 9999 FEW012 13/11 Q1016
                        NOSIG=
200905040330 METAR LMML NIL=
200905040315 METAR LMML 040315Z 30012KT 9999 FEW012 14/11 Q1016 NOSIG=
200905040300 METAR LMML NIL=
200905040245 METAR LMML 040245Z 30014KT 270V330 9999 FEW012 14/12 Q1016
                        NOSIG=
200905040230 METAR LMML NIL=
200905040215 METAR LMML 040215Z 30014KT 270V330 9999 FEW012 14/12 Q1016
                        NOSIG=
200905040200 METAR LMML NIL=
200905040145 METAR LMML 040145Z 29014KT 270V330 9999 SCT012 14/13 Q1016
                        NOSIG=
200905040130 METAR LMML NIL=
200905040115 METAR LMML 040115Z 28012KT 250V310 9000 SCT011 14/13 Q1016
                        NOSIG=
200905040100 METAR LMML NIL=
200905040045 METAR LMML 040045Z 27010KT 240V300 9000 FEW009 15/13 Q1016
                        NOSIG=
200905040030 METAR LMML NIL=
200905040015 METAR LMML 040015Z 27010KT 240V300 9000 FEW012 14/13 Q1016
                        NOSIG=
200905040000 METAR LMML NIL=
200905032345 METAR LMML 032345Z 27006KT 210V310 9000 FEW012 14/13 Q1017
                        NOSIG=
200905032315 METAR LMML 032315Z 24006KT 200V280 9000 FEW012 14/13 Q1017
                        NOSIG=
200905032300 METAR LMML NIL=
200905032245 METAR LMML 032245Z 25004KT 210V320 9000 FEW012 14/13 Q1017
                        NOSIG=
200905032230 METAR LMML NIL=
200905032215 METAR LMML 032215Z 28005KT 9000 FEW012 14/13 Q1018 NOSIG=
200905032200 METAR LMML NIL=
200905032145 METAR LMML 032145Z 28005KT 9000 FEW014 15/13 Q1018 NOSIG=
200905032130 METAR LMML NIL=
200905032115 METAR LMML 032115Z 26004KT 230V300 9999 FEW014 15/13 Q1018
                        NOSIG=
200905032100 METAR LMML NIL=
200905032045 METAR LMML 032045Z 24004KT 190V280 9999 FEW014 15/13 Q1018
                        NOSIG=
200905032030 METAR LMML NIL=
200905032015 METAR LMML 032015Z 22004KT 190V270 9999 FEW014 15/13 Q1018
                        NOSIG=
200905032000 METAR LMML NIL=
200905031945 METAR LMML 031945Z VRB03KT 9999 FEW014 15/13 Q1018 NOSIG=
200905031930 METAR LMML NIL=
200905031915 METAR LMML 031915Z VRB03KT 9999 FEW014 15/13 Q1018 NOSIG=
200905031900 METAR LMML NIL=
200905031845 METAR LMML 031845Z 31004KT 9999 FEW014 16/13 Q1018 NOSIG=
200905031830 METAR LMML NIL=
200905031815 METAR LMML 031815Z VRB03KT 9999 FEW016 16/12 Q1018 NOSIG=
200905031800 METAR LMML NIL=
200905031745 METAR LMML 031745Z 01005KT 330V070 9999 FEW022 17/12 Q1017
                        NOSIG=
200905031730 METAR LMML NIL=
200905031715 METAR LMML 031715Z 36005KT 9999 FEW022 SCT090 17/12 Q1017
                        NOSIG=
200905031700 METAR LMML NIL=
200905031645 METAR LMML 031645Z 01006KT 9999 FEW034 SCT090 18/12 Q1017
                        NOSIG=
200905031630 METAR LMML NIL=
200905031615 METAR LMML 031615Z 01005KT 9999 FEW030 19/12 Q1017 NOSIG=
200905031600 METAR LMML NIL=
200905031545 METAR LMML 031545Z 01005KT 330V050 9999 FEW030 19/12 Q1017
                        NOSIG=
200905031530 METAR LMML NIL=
200905031515 METAR LMML 031515Z 04005KT 010V100 9999 FEW032 20/12 Q1017
                        NOSIG=
200905031500 METAR LMML NIL=
200905031445 METAR LMML 031445Z 04005KT 330V090 9999 FEW030 20/12 Q1017
                        NOSIG=
200905031430 METAR LMML NIL=
200905031415 METAR LMML 031415Z 03005KT 350V070 9999 FEW030 20/12 Q1017
                        NOSIG=
200905031400 METAR LMML NIL=
200905031345 METAR LMML 031345Z 36006KT 330V130 9999 SCT029 20/11 Q1017
                        NOSIG=
200905031330 METAR LMML NIL=
200905031315 METAR LMML 031315Z 03004KT 340V100 9999 FEW024 21/12 Q1017
                        NOSIG=
200905031300 METAR LMML NIL=
200905031245 METAR LMML 031245Z 02007KT 350V060 9999 FEW026 20/12 Q1017
                        NOSIG=
200905031230 METAR LMML NIL=
200905031215 METAR LMML 031215Z 05004KT 320V120 9999 SCT030 20/12 Q1017
                        NOSIG=
200905031200 METAR LMML NIL=
200905031145 METAR LMML 031145Z 05006KT 360V120 9999 SCT027 21/12 Q1018
                        NOSIG=
200905031130 METAR LMML NIL=
200905031115 METAR LMML 031115Z 03004KT 330V080 9999 FEW030 21/13 Q1018
                        NOSIG=
200905031100 METAR LMML NIL=
200905031045 METAR LMML 031045Z 04004KT 310V150 9999 FEW031 20/13 Q1018
                        NOSIG=
200905031030 METAR LMML NIL=
200905031015 METAR LMML 031015Z VRB03KT 9999 FEW040 20/13 Q1018 NOSIG=
200905031000 METAR LMML NIL=
200905030945 METAR LMML 030945Z 03004KT 350V090 CAVOK 20/13 Q1018 NOSIG=
200905030930 METAR LMML NIL=
200905030915 METAR LMML 030915Z 02005KT 340V070 CAVOK 20/13 Q1018 NOSIG=
200905030900 METAR LMML NIL=
200905030845 METAR LMML 030845Z 02006KT CAVOK 19/12 Q1018 NOSIG=
200905030830 METAR LMML NIL=
200905030815 METAR LMML 030815Z 02004KT 340V070 CAVOK 19/12 Q1018 NOSIG=
200905030800 METAR LMML NIL=
200905030745 METAR LMML 030745Z 02005KT 350V060 CAVOK 18/12 Q1018 NOSIG=
200905030730 METAR LMML NIL=
200905030715 METAR LMML 030715Z 01006KT CAVOK 17/12 Q1018 NOSIG=
200905030700 METAR LMML NIL=
200905030645 METAR LMML 030645Z 35006KT 320V020 CAVOK 16/13 Q1018 NOSIG=
200905030630 METAR LMML NIL=
200905030615 METAR LMML 030615Z 33004KT CAVOK 15/14 Q1018 NOSIG=
200905030600 METAR LMML NIL=
200905030545 METAR LMML 030545Z 31004KT 9000 NSC 14/13 Q1017 BECMG CAVOK=
200905030530 METAR LMML NIL=
200905030515 METAR LMML 030515Z VRB03KT 9000 NSC 13/13 Q1017 BECMG CAVOK=
200905030500 METAR LMML NIL=
200905030445 METAR LMML 030445Z VRB02KT 9000 NSC 12/12 Q1017 BECMG CAVOK=
200905030430 METAR LMML NIL=
200905030415 METAR LMML 030415Z VRB03KT 9000 NSC 13/11 Q1017 NOSIG=
200905030400 METAR LMML NIL=
200905030345 METAR LMML 030345Z VRB03KT CAVOK 13/11 Q1017 NOSIG=
200905030330 METAR LMML NIL=
200905030315 METAR LMML 030315Z 32004KT CAVOK 13/11 Q1017 NOSIG=
200905030300 METAR LMML NIL=
200905030245 METAR LMML 030245Z 32004KT CAVOK 12/10 Q1017 NOSIG=
200905030230 METAR LMML NIL=
200905030215 METAR LMML 030215Z VRB03KT CAVOK 13/10 Q1017 NOSIG=
200905030200 METAR LMML NIL=
200905030145 METAR LMML 030145Z VRB03KT CAVOK 13/10 Q1017 NOSIG=
200905030130 METAR LMML NIL=
200905030115 METAR LMML 030115Z VRB03KT CAVOK 12/10 Q1017 NOSIG=
200905030100 METAR LMML NIL=
200905030045 METAR LMML 030045Z VRB03KT CAVOK 13/10 Q1017 NOSIG=
200905030030 METAR LMML NIL=
200905030015 METAR LMML 030015Z VRB03KT CAVOK 12/10 Q1017 NOSIG=
200905030000 METAR LMML NIL=
200905022345 METAR LMML 022345Z 32004KT CAVOK 13/11 Q1017 NOSIG=
200905022330 METAR LMML NIL=
200905022315 METAR LMML 022315Z VRB02KT CAVOK 12/11 Q1018 NOSIG=
200905022300 METAR LMML NIL=
200905022245 METAR LMML 022245Z 30005KT CAVOK 12/11 Q1018 NOSIG=
200905022230 METAR LMML NIL=
200905022215 METAR LMML 022215Z VRB02KT CAVOK 13/11 Q1018 NOSIG=
200905022200 METAR LMML NIL=
200905022145 METAR LMML 022145Z VRB03KT CAVOK 13/11 Q1018 NOSIG=
200905022130 METAR LMML NIL=
200905022115 METAR LMML 022115Z VRB01KT CAVOK 13/11 Q1018 NOSIG=
200905022100 METAR LMML NIL=
200905022045 METAR LMML 022045Z VRB02KT 9999 FEW025 14/12 Q1018 NOSIG=
200905022030 METAR LMML NIL=
200905022015 METAR LMML 022015Z VRB03KT 9999 FEW025 14/12 Q1018 NOSIG=
200905021945 METAR LMML 021945Z VRB03KT 9999 FEW025 14/12 Q1018 NOSIG=
200905021930 METAR LMML NIL=
200905021915 METAR LMML 021915Z 01004KT 9999 FEW025 14/12 Q1018 NOSIG=
200905021900 METAR LMML NIL=
200905021845 METAR LMML 021845Z VRB03KT 9999 FEW025 15/11 Q1017 NOSIG=
200905021830 METAR LMML NIL=
200905021815 METAR LMML 021815Z VRB03KT 9999 FEW025 15/11 Q1017 NOSIG=
200905021800 METAR LMML NIL=
200905021745 METAR LMML 021745Z VRB03KT 9999 FEW030 SCT250 16/11 Q1017
                        NOSIG=
200905021730 METAR LMML NIL=
200905021715 METAR LMML 021715Z 02004KT 9999 FEW030 SCT250 18/12 Q1017
                        NOSIG=
200905021700 METAR LMML NIL=
200905021645 METAR LMML 021645Z VRB03KT 9999 FEW031 SCT250 18/12 Q1017
                        NOSIG=
200905021630 METAR LMML NIL=
200905021615 METAR LMML 021615Z 03004KT 360V070 9999 FEW031 SCT250 19/12
                        Q1016 NOSIG=
200905021600 METAR LMML NIL=
200905021545 METAR LMML 021545Z VRB03KT 9999 FEW025 SCT250 20/09 Q1016
                        NOSIG=
200905021530 METAR LMML NIL=
200905021515 METAR LMML 021515Z VRB02KT 9999 FEW025 BKN250 20/10 Q1016
                        NOSIG=
200905021500 METAR LMML NIL=
200905021445 METAR LMML 021445Z 03004KT 340V080 9999 FEW025 SCT250 19/10
                        Q1016 NOSIG=
200905021430 METAR LMML NIL=
200905021415 METAR LMML 021415Z 02005KT 350V100 9999 FEW025 BKN250 21/11
                        Q1017 NOSIG=
200905021400 METAR LMML NIL=
200905021345 METAR LMML 021345Z 02004KT 330V070 9999 FEW025 BKN250 21/11
                        Q1017 NOSIG RMK CB TOP TO NORTH=
200905021330 METAR LMML NIL=
200905021315 METAR LMML 021315Z 02006KT 340V080 9999 FEW025 BKN250 20/13
                        Q1017 NOSIG RMK CB TOP TO NORTH=
200905021300 METAR LMML NIL=
200905021245 METAR LMML 021245Z 04005KT 350V200 CAVOK 19/12 Q1017 NOSIG
                        RMK CB TOP TO NORTH=
200905021230 METAR LMML NIL=
200905021215 METAR LMML 021215Z 04006KT 010V090 CAVOK 18/11 Q1017 NOSIG=
200905021200 METAR LMML NIL=
200905021145 METAR LMML 021145Z 06007KT 030V100 CAVOK 18/13 Q1017 NOSIG=
200905021130 METAR LMML NIL=
200905021115 METAR LMML 021115Z 04006KT 360V080 9999 FEW019 BKN250 18/13
                        Q1017 NOSIG=
200905021100 METAR LMML NIL=
200905021045 METAR LMML 021045Z 03005KT 360V080 9999 FEW026 BKN250 18/13
                        Q1017 NOSIG=
200905021030 METAR LMML NIL=
200905021015 METAR LMML 021015Z 04006KT 350V070 9999 FEW026 BKN250 18/12
                        Q1017 NOSIG=
200905021000 METAR LMML NIL=
200905020945 METAR LMML 020945Z 04007KT 330V110 9999 FEW023 BKN250 19/13
                        Q1017 NOSIG=
200905020930 METAR LMML NIL=
200905020915 METAR LMML 020915Z 08005KT 360V140 9999 FEW015 BKN250 19/11
                        Q1016 NOSIG=
200905020900 METAR LMML NIL=
200905020845 METAR LMML 020845Z 06005KT 010V120 9999 FEW025 BKN250 19/12
                        Q1016 NOSIG=
200905020830 METAR LMML NIL=
200905020815 METAR LMML 020815Z 06005KT 030V100 CAVOK 18/12 Q1016 NOSIG=
200905020800 METAR LMML NIL=
200905020745 METAR LMML 020745Z 07004KT 020V110 CAVOK 18/12 Q1016 NOSIG=
200905020730 METAR LMML NIL=
200905020715 METAR LMML 020715Z 08005KT 050V120 CAVOK 17/11 Q1016 NOSIG=
200905020700 METAR LMML NIL=
200905020645 METAR LMML 020645Z 11004KT 060V150 9999 FEW020 BKN250 16/13
                        Q1016 NOSIG=
200905020630 METAR LMML NIL=
200905020615 METAR LMML 020615Z VRB03KT 9999 FEW015 BKN250 16/14 Q1015
                        NOSIG=
200905020600 METAR LMML NIL=
200905020545 METAR LMML 020545Z VRB03KT 9999 FEW015 SCT250 15/14 Q1015
                        NOSIG=
200905020530 METAR LMML NIL=
200905020515 METAR LMML 020515Z 09004KT 050V130 9999 FEW015 SCT250 14/13
                        Q1015 NOSIG=
200905020500 METAR LMML NIL=
200905020445 METAR LMML 020445Z VRB02KT 9999 FEW012 BKN250 13/12 Q1015
                        NOSIG=
200905020430 METAR LMML NIL=
200905020415 METAR LMML 020415Z 09004KT 9999 FEW011 13/12 Q1014 TEMPO
                        8000=
200905020400 METAR LMML NIL=
200905020345 METAR LMML 020345Z VRB03KT 9999 BKN010 14/13 Q1015 TEMPO
                        8000=
200905020330 METAR LMML NIL=
200905020315 METAR LMML 020315Z 09004KT 9999 BKN009 13/12 Q1014 TEMPO
                        8000 SCT010=
200905020300 LMML NIL=
200905020245 METAR LMML 020245Z VRB03KT 9999 FEW010 13/12 Q1014 NOSIG=
200905020230 METAR LMML NIL=
200905020215 METAR LMML 020215Z 08004KT 040V130 9999 FEW010 BKN200 12/11
                        Q1014 NOSIG=
200905020200 METAR LMML NIL=
200905020145 METAR LMML 020145Z VRB02KT 9999 FEW011 12/11 Q1014 NOSIG=
200905020130 METAR LMML NIL=
200905020115 METAR LMML 020115Z VRB03KT 9999 FEW009 12/11 Q1014 NOSIG=
200905020100 METAR LMML NIL=
200905020045 METAR LMML 020045Z VRB01KT CAVOK 12/11 Q1014 NOSIG=
200905020030 METAR LMML NIL=
200905020015 METAR LMML 020015Z VRB02KT CAVOK 13/11 Q1014 NOSIG=
200905020000 METAR LMML NIL=
200905012345 METAR LMML 012345Z VRB03KT CAVOK 13/12 Q1014 NOSIG=
200905012330 METAR LMML NIL=
200905012315 METAR LMML 012315Z 31004KT CAVOK 13/12 Q1014 NOSIG=
200905012300 METAR LMML NIL=
200905012245 METAR LMML 012245Z 30004KT CAVOK 13/12 Q1014 NOSIG=
200905012230 METAR LMML NIL=
200905012215 METAR LMML 012215Z 31004KT CAVOK 13/12 Q1014 NOSIG=
200905012200 METAR LMML NIL=
200905012145 METAR LMML 012145Z 32004KT 290V360 CAVOK 13/11 Q1014 NOSIG=
200905012130 METAR LMML NIL=
200905012115 METAR LMML 012115Z VRB03KT CAVOK 14/11 Q1014 NOSIG=
200905012100 METAR LMML NIL=
200905012045 METAR LMML 012045Z 31004KT 280V340 CAVOK 14/11 Q1014 NOSIG=
200905012030 METAR LMML NIL=
200905012015 METAR LMML 012015Z VRB03KT CAVOK 14/11 Q1014 NOSIG=
200905012000 METAR LMML NIL=
200905011945 METAR LMML 011945Z VRB03KT CAVOK 14/11 Q1014 NOSIG=
200905011930 METAR LMML NIL=
200905011915 METAR LMML 011915Z 29004KT 200V340 CAVOK 14/11 Q1014 NOSIG=
200905011900 METAR LMML NIL=
200905011845 METAR LMML 011845Z 31007KT CAVOK 14/11 Q1013 NOSIG=
200905011815 METAR LMML 011815Z 32007KT 290V350 CAVOK 15/11 Q1013 NOSIG=
200905011800 METAR LMML NIL=
200905011745 METAR LMML 011745Z 29009KT 250V320 9999 FEW025 BKN250 15/11
                        Q1013 NOSIG=
200905011730 METAR LMML NIL=
200905011715 METAR LMML 011715Z 29011KT 250V310 9999 FEW025 BKN250 15/10
                        Q1013 NOSIG=
200905011700 METAR LMML NIL=
200905011645 METAR LMML 011645Z 30010KT 9999 FEW025 BKN250 16/10 Q1013
                        NOSIG=
200905011630 METAR LMML NIL=
200905011615 METAR LMML 011615Z 29010KT 250V330 9999 FEW025 BKN250 17/10
                        Q1013 NOSIG=
200905011600 METAR LMML NIL=
200905011545 METAR LMML 011545Z 28012KT 9999 FEW025 BKN250 17/11 Q1012
                        NOSIG=
200905011530 METAR LMML NIL=
200905011515 METAR LMML 011515Z 29011KT 250V320 9999 FEW025 BKN250 18/10
                        Q1013 NOSIG=
200905011500 METAR LMML NIL=
200905011445 METAR LMML 011445Z 29010KT 260V320 9999 FEW025 BKN250 18/10
                        Q1013 NOSIG=
200905011430 METAR LMML NIL=
200905011415 METAR LMML 011415Z 28011KT 250V320 9999 FEW025 BKN250 18/10
                        Q1012 NOSIG=
200905011400 METAR LMML NIL=
200905011345 METAR LMML 011345Z 29012KT 230V330 9999 FEW025 BKN250 18/09
                        Q1013 NOSIG=
200905011330 METAR LMML NIL=
200905011315 METAR LMML 011315Z 30012KT 250V330 9999 FEW025 BKN250 19/11
                        Q1013 NOSIG=
200905011300 METAR LMML NIL=
200905011245 METAR LMML 011245Z 29012KT 250V320 9999 FEW021 BKN250 19/11
                        Q1013 NOSIG=
200905011230 METAR LMML NIL=
200905011215 METAR LMML 011215Z 28012KT 230V310 9999 FEW021 BKN250 18/12
                        Q1013 NOSIG=
200905011200 METAR LMML NIL=
200905011145 METAR LMML 011145Z 29013KT 250V320 9999 FEW021 SCT250 19/12
                        Q1013 NOSIG=
200905011130 METAR LMML NIL=
200905011115 METAR LMML 011115Z 29013KT 250V320 9999 FEW027 SCT250 18/11
                        Q1013 NOSIG=
200905011100 METAR LMML NIL=
200905011045 METAR LMML 011045Z 28013KT 250V320 9999 FEW023 SCT250 18/11
                        Q1014 NOSIG=
200905011030 METAR LMML NIL=
200905011015 METAR LMML 011015Z 28012KT 220V330 9999 FEW023 SCT250 18/11
                        Q1014 NOSIG=
200905011000 METAR LMML NIL=
200905010945 METAR LMML 010945Z 29012KT 240V320 9999 FEW026 18/10 Q1014
                        NOSIG=
200905010930 METAR LMML NIL=
200905010915 METAR LMML 010915Z 29011KT 250V320 9999 FEW025 18/11 Q1014
                        NOSIG=
200905010900 METAR LMML NIL=
200905010845 METAR LMML 010845Z 30012KT 260V340 9999 FEW022 18/11 Q1014
                        NOSIG=
200905010830 METAR LMML NIL=
200905010815 METAR LMML 010815Z 29011KT 250V340 9999 FEW021 17/11 Q1014
                        NOSIG=
200905010800 METAR LMML NIL=
200905010745 METAR LMML 010745Z 29011KT 240V320 9999 SCT018 17/12 Q1013
                        NOSIG=
200905010730 METAR LMML NIL=
200905010715 METAR LMML 010715Z 29013KT 260V320 9999 SCT016 16/12 Q1013
                        NOSIG=
200905010700 METAR LMML NIL=
200905010645 METAR LMML 010645Z 29011KT 260V330 9999 SCT015 15/12 Q1013
                        NOSIG=
200905010630 METAR LMML NIL=
200905010615 METAR LMML 010615Z 30011KT 260V330 9999 SCT014 15/12 Q1013
                        NOSIG=
200905010600 METAR LMML NIL=
200905010545 METAR LMML 010545Z 30009KT 270V340 9999 SCT013 14/12 Q1013
                        NOSIG=
200905010530 METAR LMML NIL=
200905010515 METAR LMML 010515Z 29009KT 9999 FEW019 14/12 Q1013 NOSIG=
200905010500 METAR LMML NIL=
200905010445 METAR LMML 010445Z 29010KT 9999 FEW019 13/11 Q1013 NOSIG=
200905010430 METAR LMML NIL=
200905010415 METAR LMML 010415Z 30009KT 9999 FEW019 13/11 Q1014 NOSIG=
200905010400 METAR LMML NIL=
200905010345 METAR LMML 010345Z 29010KT 9999 FEW015 13/11 Q1014 NOSIG=
200905010330 METAR LMML NIL=
200905010315 METAR LMML 010315Z 28009KT 9999 FEW015 13/11 Q1013 NOSIG=
200905010300 METAR LMML NIL=
200905010245 METAR LMML 010245Z 28007KT 250V310 9999 FEW015 13/11 Q1014
                        NOSIG=
200905010230 METAR LMML NIL=
200905010215 METAR LMML 010215Z 29012KT CAVOK 13/11 Q1014 NOSIG=
200905010200 METAR LMML NIL=
200905010145 METAR LMML 010145Z 28010KT CAVOK 13/11 Q1014 NOSIG=
200905010130 METAR LMML NIL=
200905010115 METAR LMML 010115Z 28011KT CAVOK 13/11 Q1014 NOSIG=
200905010100 METAR LMML NIL=
200905010045 METAR LMML 010045Z 29010KT CAVOK 13/11 Q1014 NOSIG=
200905010030 METAR LMML NIL=
200905010015 METAR LMML 010015Z 28009KT 250V310 CAVOK 13/11 Q1014 NOSIG=
200905010000 METAR LMML NIL=

###################################
#  short TAF from LMML
###################################
200905312300 TAF LMML 312300Z 0100/0109 13012KT CAVOK
                      PROB30 TEMPO 0103/0106 8000 TSRA FEW008 SCT060
                       BKN100=
200905312000 TAF LMML 312000Z 3121/0106 14012KT CAVOK
                      PROB30 TEMPO 8000 TSRA SCT008 SCT060 BKN100=
200905311700 TAF LMML 311700Z 3118/0103 11016KT CAVOK
                      TEMPO 3118/0103 9999 SCT010
                      PROB40 TEMPO 3118/0103 6000 BKN006
                      PROB30 TEMPO 0100/0103 RA=
200905311400 TAF LMML 311400Z 3115/3124 12015KT 9999 FEW012
                      PROB40 TEMPO 3115/3124 CAVOK
                      PROB30 TEMPO 3115/3124 8000 BKN008=
200905311100 TAF LMML 311100Z 3112/3121 12015KT 9999 FEW012
                      TEMPO 3112/3121 CAVOK
                      PROB30 TEMPO 3115/3121 8000 BKN008=
200905310800 TAF LMML 310800Z 3109/3118 11010KT 9999 FEW015
                      TEMPO 3109/3118 CAVOK
                      PROB30 TEMPO 3115/3118 8000 BKN008=
200905310500 TAF LMML 310500Z 3106/3115 11008KT 9999 SCT018
                      PROB30 TEMPO 3106/3108 8000 BKN010=
200905310200 TAF LMML 310200Z 3103/3112 11004KT 9999 SCT013
                      TEMPO 3103/3106 8000
                      PROB30 TEMPO 3103/3106 5000 BR BKN006=
200905302300 TAF LMML 302300Z 3100/3109 11004KT 9999 SCT013
                      PROB30 TEMPO 3100/3106 5000 BR BKN006=
200905302000 TAF LMML 302000Z 3021/3106 11004KT 9000 NSC
                      TEMPO 3021/3106 SCT015
                      PROB30 TEMPO 3022/3106 5000 BR BKN005=
200905301700 TAF LMML 301700Z 3018/3103 VRB03KT 9999 SCT015
                      PROB40 TEMPO 3023/3103 5000 BKN005=
200905301400 TAF LMML 301400Z 3015/3024 11004KT 9999 SCT020
                      PROB30 TEMPO 3018/3021 BKN008=
200905301100 TAF LMML 301100Z 3012/3021 11006KT 9999 SCT018
                      PROB30 TEMPO 3018/3021 SCT008=
200905300800 TAF LMML 300800Z 3009/3018 06006KT 9999 FEW020=
200905300500 TAF LMML 300500Z 3006/3015 VRB04KT 9000 SCT011
                      BECMG 3006/3009 03007KT 9999=
200905300200 TAF LMML 300200Z 3003/3012 03006KT 8000 SCT013
                      TEMPO 3003/3006 BKN008
                      PROB30 TEMPO 3003/3006 5000 BKN005
                      BECMG 3005/3008 9999=
200905292300 TAF LMML 292300Z 3000/3009 35006KT 8000 SCT013
                      TEMPO 3000/3006 BKN008
                      PROB30 TEMPO 3000/3006 5000 BKN005
                      BECMG 3006/3009 9999=
200905292000 TAF LMML 292000Z 2921/3006 35004KT 9999 SCT013
                      TEMPO 2921/3006 8000 BKN008
                      PROB30 TEMPO 2921/3006 5000 BKN005=
200905291700 TAF LMML 291700Z 2918/3003 23004KT 9999 SCT015
                      TEMPO 2920/3003 BKN011=
200905291400 TAF LMML 291400Z 2915/2924 20005KT 9999 SCT018
                      TEMPO 2916/2924 BKN012=
200905291100 TAF LMML 291100Z 2912/2921 13005KT CAVOK
                      TEMPO 2916/2921 BKN014=
200905290800 TAF LMML 290800Z 2909/2918 15005KT 9999 SCT014
                      TEMPO 2909/2918 BKN014=
200905290500 TAF LMML 290500Z 2906/2915 VRB03KT 8000 FEW012
                      BECMG 2906/2909 9999
                      PROB30 TEMPO 2906/2915 BKN015=
200905290200 TAF LMML 290200Z 2903/2912 VRB03KT CAVOK
                      TEMPO 2903/2912 9999 FEW015
                      PROB30 TEMPO 2903/2909 8000 BKN008=
200905282300 TAF LMML 282300Z 2900/2909 VRB03KT CAVOK
                      TEMPO 2900/2909 9999 FEW015
                      PROB40 TEMPO 2900/2909 8000 BKN008=
200905282000 TAF LMML 282000Z 2821/3006 33005KT CAVOK
                      TEMPO 2821/3006 9999 FEW015
                      PROB30 TEMPO 2821/3006 8000 BKN008=
200905281700 TAF LMML 281700Z 2818/2903 32008KT CAVOK
                      TEMPO 2818/2903 9999 FEW015
                      PROB30 TEMPO 2822/2903 8000 BKN008=
200905281400 TAF LMML 281400Z 2815/2824 32011KT 9999 FEW020
                      PROB30 TEMPO 2818/2824 9000 BKN012=
200905281100 TAF LMML 281100Z 2812/2821 32013KT 9999 FEW020=
200905280800 TAF LMML 280800Z 2809/2818 30014KT 9000 SCT013 SCT120
                      BECMG 2809/2811 9999=
200905280500 TAF LMML 280500Z 2806/2815 31015KT 9000 FEW015=
200905280200 TAF LMML 280200Z 2803/2812 31005KT 9000 FEW007
                      PROB30 TEMPO 2803/2805 6000 BKN005
                      BECMG 2809/2812 31015KT 9999 FEW015=
200905272300 TAF LMML 272300Z 2800/2809 31008KT CAVOK
                      PROB30 TEMPO 2803/2803 6000 SCT006=
200905272000 TAF LMML 272000Z 2721/2806 31008KT 8000 FEW008
                      PROB30 TEMPO 2723/2806 02005KT 5000 BKN006=
200905271700 TAF LMML 271700Z 2718/2803 30008KT 9999 FEW015
                      TEMPO 2718/2803 8000 BKN011
                      PROB30 TEMPO 2720/2803 5000 BKN005=
200905271400 TAF LMML 271400Z 2715/2724 32010KT CAVOK
                      PROB40 TEMPO 2715/2724 9999 SCT015=
200905271100 TAF LMML 271100Z 2712/2721 32012KT CAVOK
                      PROB40 TEMPO 2712/2721 9999 SCT010=
200905270800 TAF LMML 270800Z 2709/2718 32010KT CAVOK
                      TEMPO 2709/2718 9999 SCT010=
200905270500 TAF LMML 270500Z 2706/2715 32010KT CAVOK
                      TEMPO 2708/2715 9999 FEW011=
200905270200 TAF LMML 270200Z 2703/2712 31005KT CAVOK
                      BECMG 2703/2706 9999 SCT008
                      BECMG 2706/2709 32015KT=
200905262300 TAF LMML 262300Z 2700/2709 28005KT CAVOK
                      BECMG 2703/2706 9999 FEW005=
200905262000 TAF LMML 262000Z 2621/2706 27004KT CAVOK
                      BECMG 2701/2704 9999 SCT004=
200905261700 TAF LMML 261700Z 2618/2703 30005KT CAVOK
                      PROB30 TEMPO 2702/2703 8000 SCT006=
200905261400 TAF LMML 261400Z 2615/2624 30005KT CAVOK=
200905261100 TAF LMML 261100Z 2612/2621 30006KT CAVOK=
200905260800 TAF LMML 260800Z 2606/2618 32006KT CAVOK=
200905260500 TAF LMML 260500Z 2606/2615 30006KT CAVOK=
200905260200 TAF LMML 260200Z 2603/2612 30005KT CAVOK=
200905252300 TAF LMML 252300Z 2600/2609 31006KT CAVOK=
200905252000 TAF LMML 252000Z 2521/2606 29004KT CAVOK=
200905251700 TAF LMML 251700Z 2518/2603 27004KT CAVOK=
200905251400 TAF LMML 251400Z 2515/2524 30006KT CAVOK=
200905251100 TAF LMML 251100Z 2512/2521 31008KT CAVOK=
200905250800 TAF LMML 250800Z 2509/2518 29006KT CAVOK=
200905250500 TAF LMML 250500Z 2506/2515 27005KT CAVOK=
200905250200 TAF LMML 250200Z 2503/2512 31005KT CAVOK=
200905242300 TAF LMML 242300Z 2500/2509 31005KT CAVOK=
200905242000 TAF LMML 242000Z 2421/2506 VRB04KT CAVOK=
200905241700 TAF LMML 241700Z 2418/2503 29006KT CAVOK=
200905241400 TAF LMML 241400Z 2415/2424 27007KT CAVOK=
200905241100 TAF LMML 241100Z 2412/2421 28008KT CAVOK=
200905240800 TAF LMML 240800Z 2409/2418 30007KT CAVOK=
200905240500 TAF LMML 240500Z 2406/2415 28006KT CAVOK=
200905240200 TAF LMML 240200Z 2403/2412 VRB03KT CAVOK
                      PROB30 TEMPO 2403/2405 FEW010=
200905232300 TAF LMML 232300Z 2400/2409 27005KT CAVOK=
200905232000 TAF LMML 232000Z 2321/2406 VRB03KT CAVOK=
200905231700 TAF LMML 231700Z 2318/2403 VRB05KT CAVOK
                      PROB30 TEMPO 2400/2403 8000 NSC=
200905231400 TAF LMML 231400Z 2315/2324 27006KT CAVOK=
200905231100 TAF LMML 231100Z 2312/2321 27006KT CAVOK
                      PROB30 TEMPO 2312/2321 9999 FEW012=
200905230800 TAF LMML 230800Z 2309/2318 VRB05KT CAVOK
                      PROB30 TEMPO 2309/2318 9999 FEW012=
200905230500 TAF LMML 230500Z 2306/2315 27005KT CAVOK=
200905230200 TAF LMML 230200Z 2303/2312 24005KT CAVOK
                      PROB30 TEMPO 2303/2306 6000 NSC=
200905222300 TAF LMML 222300Z 2300/2309 VRB03KT CAVOK
                      PROB30 TEMPO 2302/2306 6000 NSC=
200905222000 TAF LMML 222000Z 2221/2306 36004KT CAVOK
                      PROB30 TEMPO 2302/2306 7000 NSC=
200905221700 TAF LMML 221700Z 2218/2303 VRB03KT CAVOK=
200905221400 TAF LMML 221400Z 2215/2224 10005KT CAVOK
                      BECMG 2217/2220 VRB03KT=
200905221100 TAF LMML 221100Z 2212/2221 08005KT CAVOK=
200905220800 TAF LMML 220800Z 2209/2218 08006KT CAVOK=
200905220500 TAF LMML 220500Z 2206/2215 VRB05KT CAVOK
                      BECMG 2206/2209 06007KT=
200905220200 TAF LMML 220200Z 2203/2212 VRB03KT CAVOK
                      PROB30 TEMPO 2203/2205 9000 NSC
                      BECMG 2203/2206 05006KT=
200905212300 TAF LMML 212300Z 2200/2209 VRB04KT CAVOK
                      PROB30 TEMPO 2200/2205 7000 NSC
                      BECMG 2203/2206 05006KT=
200905212000 TAF LMML 212000Z 2121/2206 VRB04KT CAVOK
                      PROB30 TEMPO 2200/2205 7000 NSC=
200905211700 TAF LMML 211700Z 2118/2203 VRB03KT CAVOK
                      TEMPO 2201/2203 7000 NSC=
200905211400 TAF LMML 211400Z 2115/2124 18005KT CAVOK=
200905211100 TAF LMML 211100Z 2112/2121 VRB05KT CAVOK=
200905210800 TAF LMML 210800Z 2109/2118 VRB05KT CAVOK=
200905210500 TAF LMML 210500Z 2106/2115 VRB03KT CAVOK=
200905210200 TAF LMML 210200Z 2103/2112 VRB03KT CAVOK=
200905202300 TAF LMML 202300Z 2100/2109 VRB03KT CAVOK=
200905202000 TAF LMML 202000Z 2021/2106 VRB03KT CAVOK=
200905201700 TAF LMML 201700Z 2018/2103 VRB06KT CAVOK
                      BECMG 2018/2021 26004KT=
200905201400 TAF LMML 201400Z 2015/2024 VRB07KT CAVOK
                      BECMG 2015/2018 25004KT=
200905201100 TAF LMML 201100Z 2012/2021 20007KT CAVOK
                      BECMG 2012/2015 VRB05KT=
200905200800 TAF LMML 200800Z 2009/2018 06007KT CAVOK
                      BECMG 2009/2012 VRB05KT=
200905200500 TAF LMML 200500Z 2006/2015 VRB03KT CAVOK=
200905200200 TAF LMML 200200Z 2003/2012 28005KT CAVOK
                      PROB30 TEMPO 2003/2005 FEW008=
200905192300 TAF LMML 192300Z 2000/2009 VRB03KT CAVOK=
200905192000 TAF LMML 192000Z 1921/2006 VRB03KT CAVOK=
200905191700 TAF LMML 191700Z 1918/2003 29010KT CAVOK
                      TEMPO 1918/2003 VRB03KT=
200905191400 TAF LMML 191400Z 1915/1924 30010KT CAVOK
                      BECMG 1918/1921 VRB03KT=
200905191100 TAF LMML 191100Z 1912/1921 29006KT CAVOK=
200905190800 TAF LMML 190800Z 1909/1918 30006KT CAVOK=
200905190500 TAF LMML 190500Z 1906/1915 30007KT CAVOK=
200905190200 TAF LMML 190200Z 1903/1912 30008KT CAVOK=
200905182300 TAF LMML 182300Z 1900/1909 31008KT CAVOK=
200905182000 TAF LMML 182000Z 1821/1906 29005KT CAVOK=
200905181700 TAF LMML 181700Z 1818/1903 30005KT CAVOK=
200905181400 TAF LMML 181400Z 1815/1824 31006KT CAVOK=
200905181100 TAF LMML 181100Z 1812/1821 32010KT CAVOK=
200905180800 TAF LMML 180800Z 1809/1818 32010KT CAVOK=
200905180500 TAF LMML NIL=
200905180200 TAF LMML 180200Z 1803/1812 30006KT CAVOK
                      PROB30 TEMPO 1803/1812 8000 NSC=
200905172300 TAF LMML 172300Z 1800/1809 30006KT CAVOK
                      PROB30 TEMPO 1800/1809 8000 NSC=
200905172000 TAF LMML 172000Z 1721/1806 32010KT CAVOK
                      PROB30 TEMPO 1721/1806 8000
                      BECMG 1800/1802 VRB03KT=
200905171700 TAF LMML 171700Z 1718/1803 34010KT CAVOK
                      PROB30 TEMPO 1721/1803 9000=
200905171400 TAF LMML 171400Z 1715/1724 35010KT CAVOK
                      PROB30 TEMPO 1718/1724 9000=
200905171100 TAF LMML 171100Z 1712/1721 36010KT 9999 FEW012
                      TEMPO 1715/1721 CAVOK=
200905170800 TAF LMML NIL=
200905170500 TAF LMML 170500Z 1706/1715 35011KT 7000 BKN012 SCT100
                      TEMPO 1706/1712 BKN006
                      BECMG 1712/1715 SCT012=
200905170200 TAF LMML 170200Z 1703/1712 33010KT 8000 BKN012 SCT100
                      TEMPO 1703/1706 BKN006 BKN012
                      TEMPO 1706/1712 SCT015=
200905162300 TAF LMML 162300Z 1700/1709 35010KT 7000 SCT012 SCT100
                      PROB30 TEMPO 1700/1706 SHRA BKN006=
200905162000 TAF LMML 162000Z 1621/1706 35012KT 6000 SCT007 BKN100
                      PROB30 TEMPO 1621/1706 4000 TSRA BKN005 BKN015CB=
200905161700 TAF LMML 161700Z 1618/1703 36015KT 6000 BKN010
                      TEMPO 1618/1703 SCT012
                      PROB40 TEMPO 1618/1703 SHRA
                      PROB30 TEMPO 1618/1703 4000 TSRA BKN012CB=
200905161400 TAF LMML 161400Z 1615/1624 08008KT 7000 BKN014
                      PROB40 TEMPO 1615/1624 SHRA SCT015TCU
                      PROB30 TEMPO 1615/1624 4000 TSRA BKN012CB
                       BECMG 1619/1622 02010KT=
200905161100 TAF LMML 161100Z 1612/1621 VRB03KT 6000 SCT020
                      PROB40 TEMPO 1612/1621 SHRA BKN012
                      PROB30 TEMPO 1612/1621 4000 TSRA BKN015CB
                       BECMG 1618/1621 01010KT=
200905160800 TAF LMML 160800Z 1609/1618 VRB03KT 7000 NSC
                      TEMPO 1609/1618 9999 SCT015
                      PROB40 TEMPO 1609/1618 SHRA BKN012
                      PROB30 TEMPO 1609/1618 4000 TSRA BKN015CB=
200905160500 TAF LMML 160500Z 1606/1615 VRB04KT 8000 NSC
                      BECMG 1606/1609 25008KT 9999 SCT015 SCT100
                       TEMPO 1606/1615 7000 SHRA BKN015 BKN080
                       PROB30
                      TEMPO 1606/1615 4000 TSRA BKN015 BKN060CB=
200905160200 TAF LMML 160200Z 1603/1612 16005KT 8000 NSC
                      BECMG 1603/1606 24010KT 9999 FEW013 SCT100
                       TEMPO 1603/1612 7000 SHRA BKN010 BKN080
                       PROB30
                      TEMPO 1603/1612 3000 TSRA BKN010 BKN060CB=
200905152300 TAF LMML 152300Z 1600/1609 16005KT 8000 NSC
                      PROB30 TEMPO 1600/1603 5000 BR SCT004 SCT100
                       BECMG 1600/1603 9999 SCT008 BKN100
                      TEMPO 1600/1609 7000 SHRA
                      PROB30 TEMPO 1600/1609 4000 TSRA BKN008 BKN060CB
                       BECMG 1602/1605 25010KT=
200905152000 TAF LMML 152000Z 1521/1606 16007KT 8000 NSC
                      BECMG 1521/1524 9999 FEW008 SCT080
                      TEMPO 1600/1606 8000 SHRA SCT004 BKN070
                      PROB30 TEMPO 1600/1606 4000 TSRA SCT004 BKN060CB
                       BECMG 1601/1604 23010KT=
200905151715 TAF LMML 151715Z 1518/1603 14008KT 6000 DU NSC
                      PROB30 TEMPO 1600/1603 5000 SHRA SCT004 BKN080=
200905151700 TAF LMML 151700Z 1518/1603 14008KT 9999 DU NSC
                      PROB30 TEMPO 1600/1603 5000 SHRA SCT004 BKN080=
200905151400 TAF LMML 151400Z 1515/1524 12012KT 6000 DU NSC
                      PROB30 TEMPO 1515/1524 3000 SHRA SCT011 BKN080=
200905151100 TAF LMML 151100Z 1512/1521 10015KT CAVOK
                      TEMPO 1512/1521 8000 SHRA BKN080
                      PROB30 TEMPO 1512/1521 TSRA BKN060CB=
200905150805 TAF LMML 150805Z 1509/1518 08015KT CAVOK
                      TEMPO 1509/1515 09015G30KT
                      PROB30 TEMPO 1509/1518 6000 TSRA BKN040CB=
200905150800 TAF LMML 150800Z 1509/1518 08015KT CAVOK
                      TEMPO 1509/1515 09015G30KT
                      PROB30 TEMPO 1509/1518 8000 SHRA BKN040=
200905150500 TAF LMML 150500Z 1506/1515 11017KT CAVOK=
200905150200 TAF LMML 150200Z 1503/1512 10017KT CAVOK
                      PROB40 TEMPO 1503/1506 8000 FEW012=
200905142300 TAF LMML 142300Z 1500/1509 10015KT CAVOK
                      TEMPO 1500/1506 8000
                      PROB30 TEMPO 1500/1509 9999 FEW012=
200905142000 TAF LMML 142000Z 1421/1506 10015KT CAVOK
                      PROB40 TEMPO 1421/1506 8000 FEW012=
200905141700 TAF LMML 141700Z 1418/1503 10015KT CAVOK
                      PROB30 TEMPO 1418/1503 FEW012=
200905141400 TAF LMML 141400Z 1415/1424 12018KT CAVOK
                      PROB30 TEMPO 1415/1424 FEW012 SCT120=
200905141100 TAF LMML 141100Z 1412/1421 13018KT CAVOK
                      PROB30 TEMPO 1412/1421 FEW012 SCT120=
200905140800 TAF LMML 140800Z 1409/1418 12015KT CAVOK
                      PROB30 TEMPO 1409/1418 FEFW015 SCT120=
200905140500 TAF LMML 140500Z 1406/1415 11012KT CAVOK
                      TEMPO 1406/1415 9999 FEW015 SCT100=
200905140200 TAF LMML 140200Z 1403/1412 11008KT CAVOK
                      TEMPO 1403/1406 9999 FEW006
                      PROB30 TEMPO 1403/1406 7000 SCT005=
200905132300 TAF LMML 132300Z 1400/1409 10008KT CAVOK
                      TEMPO 1400/1406 9999 FEW006
                      PROB30 TEMPO 1400/1406 7000 BKN005=
200905132000 TAF LMML 132000Z 1321/1406 12008KT CAVOK
                      TEMPO 1321/1406 9999 FEW011
                      PROB30 TEMPO 1321/1406 5000 BR BKN005=
200905131700 TAF LMML 131700Z 1318/1403 12008KT CAVOK
                      PROB30 TEMPO 1400/1403 7000 FEW006=
200905131400 TAF LMML 131400Z 1315/1324 12010KT CAVOK=
200905131100 TAF LMML 131100Z 1312/1321 12008KT CAVOK=
200905130800 TAF LMML 130800Z 1309/1318 10007KT CAVOK=
200905130500 TAF LMML 130500Z 1306/1315 08005KT CAVOK=
200905130200 TAF LMML 130200Z 1303/1312 10005KT CAVOK
                      TEMPO 0303/0306 5000 BR FEW003
                      PROB30 TEMPO 0303/0306 0800 BCFG=
200905122300 TAF LMML 122300Z 1300/1309 14004KT CAVOK
                      TEMPO 1300/1306 5000 BR FEW003=
200905122000 TAF LMML 122000Z 1221/1306 12004KT CAVOK
                      TEMPO 1300/1306 5000 BR FEW003
                      PROB30 TEMPO 1302/1306 0800 BCFG=
200905121700 TAF LMML 121700Z 1218/1303 10005KT CAVOK
                      PROB30 TEMPO 1300/1303 4000 BR FEW001
                      PROB30 TEMPO 1301/1303 1000 BCFG=
200905121400 TAF LMML 121400Z 1215/1224 13005KT CAVOK
                      PROB30 TEMPO 1220/1224 9999 FEW012=
200905121100 TAF LMML 121100Z 1212/1221 14005KT CAVOK
                      PROB30 TEMPO 1212/1221 9999 FEW015=
200905120800 TAF LMML 120800Z 1209/1218 09005KT CAVOK
                      PROB40 TEMPO 1209/1218 9999 FEW015=
200905120500 TAF LMML 120500Z 1206/1215 VRB03KT 0900 BCFG SCT001
                      BECMG 1206/1209 CAVOK=
200905120200 TAF LMML 120200Z 1203/1212 VRB03KT 9000 FEW015
                      PROB30 TEMPO 1203/1205 5000 MIFG SCT005
                      BECMG 1206/1209 CAVOK=
200905112300 TAF LMML 112300Z 1200/1209 VRB03KT CAVOK
                      PROB40 TEMPO 1203/1206 6000 MIFG SCT005=
200905112000 TAF LMML 112000Z 1121/1206 VRB03KT CAVOK
                      PROB30 TEMPO 1202/1206 5000 MIFG SCT005=
200905111700 TAF LMML 111700Z 1118/1203 10006KT 9999 FEW015
                      PROB30 TEMPO 1121/1203 7000 BKN005=
200905111400 TAF LMML 111400Z 1115/1124 09005KT 9999 FEW015
                      PROB30 TEMPO 1120/1124 7000 BKN007=
200905111100 TAF LMML 111100Z 1112/1121 09008KT 9999 FEW023
                      BECMG 1117/1120 CAVOK=
200905110800 TAF LMML 110800Z 1109/1118 08006KT 9999 FEW013
                      BECMG 1109/1112 CAVOK=
200905110500 TAF LMML 110500Z 1106/1115 08005KT 8000 FEW011
                      BECMG 1106/1107 9999
                      BECMG 1112/1115 CAVOK=
200905110200 TAF LMML 110200Z 1103/1112 07004KT 9999 FEW011
                      TEMPO 1103/1106 5000 BR BKN005
                      PROB30 TEMPO 1103/1106 0100 FG BKN001=
200905102300 TAF LMML 102300Z 1100/1109 10004KT CAVOK
                      BECMG 1100/1102 9999 FEW011
                      TEMPO 1100/1106 5000 BR BKN005
                      PROB30 TEMPO 1100/1106 0100 FG BKN001=
200905102000 TAF LMML 102000Z 1021/1106 10004KT CAVOK
                      TEMPO 1021/1106 9000 FEW011
                      PROB30 TEMPO 1021/1106 5000 BR BKN005=
200905101700 TAF LMML 101700Z 1018/1103 VRB03KT CAVOK
                      PROB30 TEMPO 1021/1103 8000 SCT005=
200905101400 TAF LMML 101400Z 1015/1024 15005KT CAVOK
                      PROB30 TEMPO 1021/1024 8000 FEW008=
200905101100 TAF LMML 101100Z 1012/1021 15006KT CAVOK
                      PROB40 TEMPO 1012/1021 FEW035=
200905100800 TAF LMML 100800Z 1009/1018 15006KT CAVOK
                      PROB30 TEMPO 1009/1018 FEW012=
200905100500 TAF LMML 100500Z 1006/1015 VRB03KT CAVOK
                      PROB40 TEMPO 1006/1015 9999 FEW012=
200905100200 TAF LMML 100200Z 1003/1012 VRB03KT CAVOK
                      TEMPO 1003/1012 9999 FEW012
                      PROB40 TEMPO 1003/1007 5000 BR BKN005
                      PROB30 TEMPO 1003/1006 0100 FG BKN001=
200905092300 TAF LMML 092300Z 1000/1009 VRB03KT CAVOK
                      TEMPO 1000/1009 9999 FEW012
                      PROB40 TEMPO 1000/1007 5000 BR
                      PROB30 TEMPO 1000/1006 0100 FG BKN001=
200905092000 TAF LMML 092000Z 0921/1006 VRB03KT CAVOK
                      TEMPO 0921/1006 9999 FEW012
                      PROB40 TEMPO 1000/1006 5000 BR BKN005
                      PROB30 TEMPO 1000/1006 0100 FG BKN001=
200905091700 TAF LMML 091700Z 0918/1003 19004KT CAVOK
                      TEMPO 0918/1003 9000 FEW012
                      PROB30 TEMPO 0921/1003 5000 BR BKN005=
200905091400 TAF LMML 091400Z 0915/0924 20007KT 9999 FEW015
                      TEMPO 0918/0924 9000
                      PROB30 TEMPO 0921/0924 5000 BR BKN005=
200905091100 TAF LMML 091100Z 0912/0921 20008KT 9999 FEW015
                      PROB30 TEMPO 0918/0921 9000=
200905090800 TAF LMML 090800Z 0909/0918 22005KT 9999 FEW015
                      BECMG 0909/0912 CAVOK=
200905090500 TAF LMML 090500Z 0906/0915 20004KT 5000 BR SCT003
                      BECMG 0906/0908 CAVOK=
200905090200 TAF LMML 090200Z 0903/0912 23004KT CAVOK
                      PROB30 TEMPO 0903/0906 5000 BR SCT005=
200905082300 TAF LMML 082300Z 0900/0909 VRB03KT CAVOK
                      PROB30 TEMPO 0900/0906 5000 BR SCT005=
200905082000 TAF LMML 082000Z 0821/0906 VRB03KT CAVOK
                      PROB30 TEMPO 0901/0906 5000 BR SCT005=
200905081700 TAF LMML 081700Z 0818/0903 VRB03KT CAVOK
                      TEMPO 0818/0903 9999 FEW020
                      PROB30 TEMPO 0818/0903 6000 BKN005=
200905081400 TAF LMML 081400Z 0815/0824 VRB03KT 9999 FEW025
                      TEMPO 0815/0821 CAVOK
                      PROB30 TEMPO 0815/0824 8000 BKN006=
200905081100 TAF LMML 081100Z 0812/0821 VRB03KT 9999 FEW022
                      TEMPO 0812/0821 CAVOK
                      PROB30 TEMPO 0816/0821 8000 BKN006=
200905080800 TAF LMML 080800Z 0809/0818 30005KT CAVOK
                      TEMPO 0809/0812 8000 FEW006=
200905080500 TAF LMML 080500Z 0806/0815 26005KT CAVOK=
200905080200 TAF LMML 080200Z 0803/0812 VRB03KT CAVOK
                      PROB30 TEMPO 0803/0805 FEW005=
200905072300 TAF LMML 072300Z 0800/0809 VRB03KT CAVOK
                      PROB30 TEMPO 0800/0805 5000 BR FEW005=
200905072000 TAF LMML 072000Z 0721/0806 VRB03KT CAVOK
                      PROB30 TEMPO 0723/0806 5000 BR FEW004=
200905071700 TAF LMML 071700Z 0718/0803 27004KT CAVOK
                      PROB30 TEMPO 0721/0803 8000 SCT004=
200905071400 TAF LMML 071400Z 0715/0724 04005KT 9999 FEW025
                      BECMG 0715/0718 CAVOK
                      PROB30 TEMPO 0721/0724 9999 SCT004=
200905071100 LMML 071100Z 0709/0721 03004KT 9999 FEW020
                      BECMG 0715/0718 CAVOK=
200905070800 TAF LMML 070800Z 0709/0718 28004KT 9999 FEW020
                      BECMG 0715/0717 CAVOK=
200905070500 TAF LMML 070500Z 0706/0715 30004KT 9999 FEW020
                      PROB40 TEMPO 0706/0715 CAVOK=
200905070200 TAF LMML 070200Z 0703/0712 VRB03KT CAVOK
                      PROB40 TEMPO 0703/0712 9000 FEW015=
200905062300 TAF LMML 062300Z 0700/0709 VRB03KT CAVOK
                      PROB30 TEMPO 0700/0709 9000 FEW015=
200905062000 TAF LMML 062000Z 0621/0706 30004KT CAVOK
                      PROB30 TEMPO 0621/0706 9000 FEW015=
200905061700 TAF LMML 061700Z 0618/0703 VRB03KT 9999 FEW020
                      PROB30 TEMPO 0701/0703 8000 FEW012=
200905061400 TAF LMML 061400Z 0615/0621 30006KT 9999 FEW030=
200905061100 TAF LMML 061100Z 0612/0621 32008KT 9999 SCT030=
200905060800 TAF LMML 060800Z 0609/0618 32008KT 9999 SCT018=
200905060500 TAF LMML 060500Z 0606/0615 VRB03KT 9999 FEW012
                      PROB30 TEMPO 0606/0612 BKN014=
200905060200 TAF LMML 060200Z 0603/0612 30005KT 9999 FEW015
                      PROB40 TEMPO 0603/0612 9000 SHRA BKN015
                      PROB30 TEMPO 0603/0610 6000 TSRA BKN013CB=
200905052300 TAF LMML 052300Z 0600/0609 30007KT 9999 FEW014
                      PROB40 TEMPO 0600/0609 9000 SHRA BKN015
                      PROB30 TEMPO 0600/0607 6000 TSRA BKN013CB=
200905052000 TAF LMML 052000Z 0521/0606 30010KT 9999 SCT016
                      PROB40 TEMPO 0521/0606 9000 SHRA BKN015
                      PROB30 TEMPO 0523/0606 6000 TSRA BKN013CB=
200905051700 TAF LMML 051700Z 0518/0603 30010KT 9999 SCT020
                      PROB40 TEMPO 0521/0603 9000 SHRA BKN015
                      PROB30 TEMPO 0521/0603 6000 TSRA BKN013CB=
200905051400 TAF LMML 051400Z 0515/0524 30010KT 9999 SCT020
                      PROB40 TEMPO 0521/0524 9000 SHRA BKN015
                      PROB30 TEMPO 0521/0524 6000 TSRA BKN013CB=
200905051100 TAF LMML 051100Z 0512/0521 30012KT 9999 SCT020=
200905050800 TAF LMML 050800Z 0509/0518 30008KT 9999 SCT020=
200905050500 TAF LMML 050500Z 0506/0515 29008KT CAVOK
                      BECMG 0506/0509 9999 FEW020 SCT200=
200905050200 TAF LMML 050200Z 0503/0512 28005KT 9999 FEW011
                      TEMPO 0509/0512 30015KT=
200905042300 TAF LMML 042300Z 0500/0509 29006KT 9999 FEW011=
200905042000 TAF LMML 042000Z 0421/0506 29008KT 9999 FEW015=
200905041700 TAF LMML 041700Z 0418/0503 31015KT 9999 FEW018
                      TEMPO 0418/0503 CAVOK
                      BECMG 0423/0502 33005KT=
200905041400 TAF LMML 041400Z 0415/0424 30016KT 9999 FEW030
                      TEMPO 0415/0424 CAVOK
                      BECMG 0421/0424 35006KT=
200905041100 TAF LMML 041100Z 0412/0421 31016KT 9999 SCT024
                      PROB40 TEMPO 0412/0415 9000 SHRAGS SCT020TCU=
200905040800 TAF LMML 040800Z 0409/0418 31016KT 9999 FEW018=
200905040500 TAF LMML 040500Z 0406/0415 30015KT 9999 FEW025=
200905040200 TAF LMML 040200Z 0403/0412 30015KT 9999 FEW012
                      PROB40 TEMPO 0403/0406 8000 SCT008 BKN012=
200905032300 TAF LMML 032300Z 0400/0409 30010KT 9999 FEW013
                      PROB30 TEMPO 0403/0409 30015KT BKN012=
200905032000 TAF LMML 032000Z 0321/0406 VRB03KT 9999 FEW012
                      BECMG 0403/0406 30015KT
                      PROB30 TEMPO 0400/0406 BKN012=
200905031700 TAF LMML 031700Z 0318/0403 35005KT 9999 FEW025
                      BECMG 0300/0403 29010KT=
200905031400 TAF LMML 031400Z 0315/0324 35005KT 9999 FEW025
                      BECMG 0320/0323 29015KT=
200905031100 TAF LMML 031100Z 0312/0321 34006KT 9999 FEW025=
200905030800 TAF LMML 030800Z 0309/0318 36006KT 9999 FEW025=
200905030500 TAF LMML 030500Z 0306/0315 30004KT CAVOK
                      TEMPO 0306/0315 9999 FEW020=
200905030200 TAF LMML 030200Z 0303/0312 30004KT 9999 FEW020
                      TEMPO 0303/0307 CAVOK=
200905022300 TAF LMML 022300Z 0300/0309 33004KT CAVOK
                      TEMPO 0300/0309 9999 FEW020=
200905022000 TAF LMML 022000Z 0221/0306 33004KT 9999 FEW020=
200905021700 TAF LMML 021700Z 0218/0303 VRB03KT 9999 FEW020=
200905021400 TAF LMML 021400Z 0215/0224 04005KT CAVOK
                      PROB40 TEMPO 0215/0224 FEW030=
200905021100 TAF LMML 021100Z 0212/0221 07010KT 9999 FEW025=
200905020800 TAF LMML 020800Z 0209/0218 07008KT 9999 FEW020 SCT040=
200905020500 TAF LMML 020500Z 0206/0215 08007KT 9999 SCT015 SCT050=
200905020200 TAF LMML 020200Z 0203/0212 VRB03KT 9999 FEW013
                      TEMPO 0203/0206 8000
                      PROB30 TEMPO 0203/0206 5000 BR BKN005
                      BECMG 0203/0206 07007KT=
200905012300 TAF LMML 012300Z 0200/0209 30006KT CAVOK
                      BECMG 0200/0203 9999 FEW015
                      PROB30 TEMPO 0200/0206 8000
                      BECMG 0206/0209 07010KT=
200905012000 TAF LMML 012000Z 0121/0206 30007KT CAVOK
                      BECMG 0121/0124 9999 FEW015
                      PROB30 TEMPO 0121/0206 9000=
200905011700 TAF LMML 011700Z 0118/0203 30007KT 9999 FEW020
                      PROB30 TEMPO 0123/0203 7000=
200905011400 TAF LMML 011400Z 0115/0124 30010KT 9999 FEW020=
200905011100 TAF LMML 011100Z 0112/0121 30012KT 9999 FEW020=
200905010800 TAF LMML 010800Z 0109/0118 30012KT 9999 SCT018=
200905010500 TAF LMML 010500Z 0106/0115 29011KT 9999 SCT015 SCT200=
200905010200 TAF LMML 010200Z 0103/0112 29008KT 9999 FEW015=

###################################
#  large TAF from LMML
###################################
200905312300 TAF LMML NIL=
200905311700 TAF LMML NIL=
200905311100 TAF LMML NIL=
200905310500 TAF LMML NIL=
200905302300 TAF LMML NIL=
200905301700 TAF LMML NIL=
200905301100 TAF LMML NIL=
200905300500 TAF LMML NIL=
200905292300 TAF LMML NIL=
200905291700 TAF LMML NIL=
200905291100 TAF LMML NIL=
200905290500 TAF LMML NIL=
200905282300 TAF LMML NIL=
200905282000 TAF LMML 282000Z 2821/3006 33005KT CAVOK
                      TEMPO 2821/3006 9999 FEW015
                      PROB30 TEMPO 2821/3006 8000 BKN008=
200905281700 TAF LMML NIL=
200905281100 TAF LMML NIL=
200905280500 TAF LMML NIL=
200905272300 TAF LMML NIL=
200905271700 TAF LMML NIL=
200905271100 TAF LMML NIL=
200905270500 TAF LMML NIL=
200905262300 TAF LMML NIL=
200905261700 TAF LMML NIL=
200905261100 TAF LMML NIL=
200905260500 TAF LMML NIL=
200905252300 TAF LMML NIL=
200905251700 TAF LMML NIL=
200905251100 TAF LMML NIL=
200905250500 TAF LMML NIL=
200905242300 TAF LMML NIL=
200905241700 TAF LMML NIL=
200905241100 TAF LMML NIL=
200905240500 TAF LMML NIL=
200905232300 TAF LMML NIL=
200905231700 TAF LMML NIL=
200905231100 TAF LMML NIL=
200905230500 TAF LMML NIL=
200905222300 TAF LMML NIL=
200905221700 TAF LMML NIL=
200905221100 TAF LMML NIL=
200905220500 TAF LMML NIL=
200905212300 TAF LMML NIL=
200905211700 TAF LMML NIL=
200905211100 TAF LMML NIL=
200905210500 TAF LMML NIL=
200905202300 TAF LMML NIL=
200905201700 TAF LMML NIL=
200905201100 TAF LMML NIL=
200905200500 TAF LMML NIL=
200905192300 TAF LMML NIL=
200905191700 TAF LMML NIL=
200905191100 TAF LMML NIL=
200905190500 TAF LMML NIL=
200905182300 TAF LMML NIL=
200905181700 TAF LMML NIL=
200905181100 TAF LMML NIL=
200905180500 TAF LMML NIL=
200905172300 TAF LMML NIL=
200905171700 TAF LMML NIL=
200905171100 TAF LMML NIL=
200905170500 TAF LMML NIL=
200905162300 TAF LMML NIL=
200905161700 TAF LMML NIL=
200905161100 TAF LMML NIL=
200905160500 TAF LMML NIL=
200905152300 TAF LMML NIL=
200905151700 TAF LMML NIL=
200905151100 TAF LMML NIL=
200905150500 LMML NIL=
200905142300 LMML NIL=
200905141700 LMML NIL=
200905141100 LMML NIL=
200905140500 LMML NIL=
200905132300 LMML NIL=
200905131700 LMML NIL=
200905131100 LMML NIL=
200905130500 LMML NIL=
200905122300 LMML NIL=
200905121700 LMML NIL=
200905121100 LMML NIL=
200905120500 LMML NIL=
200905112300 LMML NIL=
200905111700 LMML NIL=
200905111100 LMML NIL=
200905110500 LMML NIL=
200905102300 LMML NIL=
200905101700 LMML NIL=
200905101100 LMML NIL=
200905100500 LMML NIL=
200905092300 LMML NIL=
200905091700 LMML NIL=
200905091100 LMML NIL=
200905090500 LMML NIL=
200905082300 LMML NIL=
200905081700 LMML NIL=
200905081100 LMML NIL=
200905080500 LMML NIL=
200905072300 LMML NIL=
200905071700 LMML NIL=
200905071100 LMML NIL=
200905070500 LMML NIL=
200905062300 LMML NIL=
200905061700 LMML NIL=
200905061100 LMML NIL=
200905060500 LMML NIL=
200905052300 LMML NIL=
200905051700 LMML NIL=
200905051100 LMML NIL=
200905050500 LMML NIL=
200905042300 LMML NIL=
200905041700 LMML NIL=
200905041100 LMML NIL=
200905040500 LMML NIL=
200905032300 LMML NIL=
200905031700 LMML NIL=
200905031100 LMML NIL=
200905030500 LMML NIL=
200905022300 LMML NIL=
200905021700 LMML NIL=
200905021100 LMML NIL=
200905020500 LMML NIL=
200905012300 LMML NIL=
200905011700 LMML NIL=
200905011100 LMML NIL=
200905010500 LMML NIL=
