##########################################################
# Query made at 12/28/2012 16:24:42 UTC
# Time interval: from 05/01/2012 00:00  to 05/31/2012 23:59  UTC
##########################################################

##########################################################
# LMML, Luqa (Malta)
# WMO index: 16597
# Latitude 35-51N. Longitude 014-29E. Altitude 91 m.
##########################################################

###################################
#  METAR/SPECI from LMML
###################################
201205312345 METAR LMML 312345Z 23004KT 160V270 CAVOK 19/17 Q1019 NOSIG=
201205312330 METAR LMML NIL=
201205312315 METAR LMML 312315Z 22004KT 170V250 CAVOK 19/16 Q1019 NOSIG=
201205312300 METAR LMML NIL=
201205312245 METAR LMML 312245Z 22004KT CAVOK 19/15 Q1019 NOSIG=
201205312230 METAR LMML NIL=
201205312215 METAR LMML 312215Z 23005KT CAVOK 18/15 Q1020 NOSIG=
201205312200 METAR LMML NIL=
201205312145 METAR LMML 312145Z VRB02KT CAVOK 19/14 Q1020 NOSIG=
201205312130 METAR LMML NIL=
201205312115 METAR LMML 312115Z VRB01KT CAVOK 19/15 Q1020 NOSIG=
201205312100 METAR LMML NIL=
201205312045 METAR LMML 312045Z VRB02KT CAVOK 20/14 Q1020 NOSIG=
201205312030 METAR LMML NIL=
201205312015 METAR LMML 312015Z 34004KT CAVOK 20/12 Q1020 NOSIG=
201205312000 METAR LMML NIL=
201205311945 METAR LMML 311945Z 34003KT CAVOK 20/11 Q1020 NOSIG=
201205311915 METAR LMML 311915Z VRB02KT CAVOK 21/13 Q1019 NOSIG=
201205311900 METAR LMML NIL=
201205311845 METAR LMML 311845Z VRB01KT CAVOK 21/11 Q1019 NOSIG=
201205311830 METAR LMML NIL=
201205311815 METAR LMML 311815Z VRB02KT CAVOK 22/14 Q1018 NOSIG=
201205311800 METAR LMML NIL=
201205311745 METAR LMML 311745Z 13006KT CAVOK 22/15 Q1018 NOSIG=
201205311730 METAR LMML NIL=
201205311715 METAR LMML 311715Z 12006KT CAVOK 23/16 Q1018 NOSIG=
201205311700 METAR LMML NIL=
201205311645 METAR LMML 311645Z 11005KT 060V160 CAVOK 24/16 Q1018 NOSIG=
201205311630 METAR LMML NIL=
201205311615 METAR LMML 311615Z 19005KT 150V250 9999 FEW025 SCT250 25/13
                        Q1019 NOSIG=
201205311600 METAR LMML NIL=
201205311545 METAR LMML 311545Z 13005KT 080V200 9999 FEW025 25/17 Q1019
                        NOSIG=
201205311530 METAR LMML NIL=
201205311515 METAR LMML 311515Z 08005KT 330V120 9999 FEW025 25/16 Q1019
                        NOSIG=
201205311500 METAR LMML NIL=
201205311445 METAR LMML 311445Z 07007KT 040V120 9999 FEW025 26/16 Q1019
                        NOSIG=
201205311430 METAR LMML NIL=
201205311415 METAR LMML 311415Z 13003KT 9999 FEW025 26/14 Q1019 NOSIG=
201205311400 METAR LMML NIL=
201205311345 METAR LMML 311345Z 13004KT 9999 FEW025 26/14 Q1019 NOSIG=
201205311330 METAR LMML NIL=
201205311315 METAR LMML 311315Z 14005KT 020V280 9999 FEW025 26/13 Q1020
                        NOSIG=
201205311300 METAR LMML NIL=
201205311245 METAR LMML 311245Z 20004KT 110V290 CAVOK 26/14 Q1020 NOSIG=
201205311230 METAR LMML NIL=
201205311215 METAR LMML 311215Z 31006G16KT 9999 FEW020 26/15 Q1020 NOSIG=
201205311200 METAR LMML NIL=
201205311145 METAR LMML 311145Z 20004KT 9999 FEW020 27/13 Q1020 NOSIG=
201205311130 METAR LMML NIL=
201205311115 METAR LMML 311115Z 21005KT 140V290 9999 FEW020 26/13 Q1020
                        NOSIG=
201205311100 METAR LMML NIL=
201205311045 METAR LMML 311045Z 24008KT 170V280 9999 FEW020 25/15 Q1021
                        NOSIG=
201205311030 METAR LMML NIL=
201205311015 METAR LMML 311015Z 23007KT 170V260 9999 FEW020 25/14 Q1021
                        NOSIG=
201205311000 METAR LMML NIL=
201205310945 METAR LMML 310945Z 22004KT 140V330 9999 FEW020 25/14 Q1021
                        NOSIG=
201205310930 METAR LMML NIL=
201205310915 METAR LMML 310915Z 23005KT 190V320 9999 FEW015 24/15 Q1021
                        NOSIG=
201205310900 METAR LMML NIL=
201205310845 METAR LMML 310845Z 23005KT 190V320 9999 FEW015 24/16 Q1021
                        NOSIG=
201205310830 METAR LMML NIL=
201205310815 METAR LMML 310815Z 23006KT 190V280 9999 FEW015 23/16 Q1020
                        NOSIG=
201205310800 METAR LMML NIL=
201205310745 METAR LMML 310745Z 22005KT 120V280 9999 FEW015 23/16 Q1020
                        NOSIG=
201205310730 METAR LMML NIL=
201205310715 METAR LMML 310715Z 20005KT 160V250 9999 FEW015 23/16 Q1020
                        NOSIG=
201205310700 METAR LMML NIL=
201205310645 METAR LMML 310645Z 21005KT 160V270 CAVOK 22/17 Q1020 NOSIG=
201205310630 METAR LMML NIL=
201205310615 METAR LMML 310615Z VRB02KT 8000 NSC 21/16 Q1020 BECMG 9999=
201205310600 METAR LMML NIL=
201205310545 METAR LMML 310545Z VRB01KT 8000 NSC 20/17 Q1020 BECMG 9999=
201205310530 METAR LMML NIL=
201205310515 METAR LMML 310515Z VRB01KT 5000 BR NSC 19/17 Q1020 BECMG
                        9000=
201205310500 METAR LMML NIL=
201205310445 METAR LMML 310445Z 27003KT 4000 BR NSC 17/17 Q1020 BECMG
                        7000=
201205310430 METAR LMML NIL=
201205310415 METAR LMML 310415Z 27003KT 6000 NSC 16/16 Q1020 NOSIG=
201205310400 METAR LMML NIL=
201205310345 METAR LMML 310345Z 29003KT 6000 NSC 16/16 Q1020 NOSIG=
201205310330 METAR LMML NIL=
201205310315 METAR LMML 310315Z 29003KT 7000 NSC 16/15 Q1019 NOSIG=
201205310300 METAR LMML NIL=
201205310245 METAR LMML 310245Z VRB02KT 9000 NSC 16/15 Q1019 NOSIG=
201205310230 METAR LMML NIL=
201205310215 METAR LMML 310215Z VRB02KT 9000 NSC 17/15 Q1019 NOSIG=
201205310200 METAR LMML NIL=
201205310145 METAR LMML 310145Z VRB02KT CAVOK 16/15 Q1019 NOSIG=
201205310130 METAR LMML NIL=
201205310115 METAR LMML 310115Z VRB01KT CAVOK 16/14 Q1019 NOSIG=
201205310100 METAR LMML NIL=
201205310045 METAR LMML 310045Z VRB02KT CAVOK 17/15 Q1019 NOSIG=
201205310030 METAR LMML NIL=
201205310015 METAR LMML 310015Z VRB02KT CAVOK 17/14 Q1019 NOSIG=
201205310000 METAR LMML NIL=
201205302345 METAR LMML 302345Z VRB02KT CAVOK 17/14 Q1019 NOSIG=
201205302330 METAR LMML NIL=
201205302315 METAR LMML 302315Z VRB02KT CAVOK 18/14 Q1019 NOSIG=
201205302300 METAR LMML NIL=
201205302245 METAR LMML 302245Z VRB02KT CAVOK 18/14 Q1020 NOSIG=
201205302230 METAR LMML NIL=
201205302215 METAR LMML 302215Z VRB01KT CAVOK 18/15 Q1020 NOSIG=
201205302200 METAR LMML NIL=
201205302145 METAR LMML 302145Z VRB01KT CAVOK 18/14 Q1020 NOSIG=
201205302130 METAR LMML NIL=
201205302115 METAR LMML 302115Z VRB02KT CAVOK 18/15 Q1020 NOSIG=
201205302045 METAR LMML 302045Z VRB02KT CAVOK 19/15 Q1019 NOSIG=
201205302030 METAR LMML NIL=
201205302015 METAR LMML 302015Z 33003KT CAVOK 19/15 Q1019 NOSIG=
201205301945 METAR LMML 301945Z 32004KT 9999 FEW020 19/14 Q1019 NOSIG=
201205301930 METAR LMML NIL=
201205301915 METAR LMML 301915Z 32004KT 9999 FEW020 19/13 Q1019 NOSIG=
201205301845 METAR LMML 301845Z 27004KT 210V320 9999 FEW020 20/13 Q1018
                        NOSIG=
201205301830 METAR LMML NIL=
201205301815 METAR LMML 301815Z 24003KT 9999 FEW020 20/15 Q1018 NOSIG=
201205301800 METAR LMML NIL=
201205301745 METAR LMML 301745Z 20004KT 150V250 CAVOK 21/15 Q1018 NOSIG=
201205301730 METAR LMML NIL=
201205301715 METAR LMML 301715Z 18004KT 130V230 9999 FEW030 22/15 Q1018
                        NOSIG=
201205301700 METAR LMML NIL=
201205301645 METAR LMML 301645Z VRB02KT 9999 FEW030 23/15 Q1018 NOSIG=
201205301630 METAR LMML NIL=
201205301615 METAR LMML 301615Z 20004KT 130V260 9999 FEW030 23/15 Q1018
                        NOSIG=
201205301600 METAR LMML NIL=
201205301545 METAR LMML 301545Z 18005KT 140V220 9999 FEW030 23/14 Q1018
                        NOSIG=
201205301530 METAR LMML NIL=
201205301515 METAR LMML 301515Z 18005KT 090V290 9999 FEW030 24/14 Q1018
                        NOSIG=
201205301500 METAR LMML NIL=
201205301445 METAR LMML 301445Z 05004KT 9999 FEW030 24/12 Q1018 NOSIG=
201205301430 METAR LMML NIL=
201205301415 METAR LMML 301415Z 13007KT 080V180 9999 FEW030 24/13 Q1018
                        NOSIG=
201205301400 METAR LMML NIL=
201205301345 METAR LMML 301345Z 18005KT CAVOK 25/14 Q1018=
201205301330 METAR LMML NIL=
201205301315 METAR LMML 301315Z 08006KT 030V140 9999 FEW027 25/13 Q1018
                        NOSIG=
201205301300 METAR LMML NIL=
201205301245 METAR LMML 301245Z 09005KT 050V180 9999 FEW027 25/14 Q1018
                        NOSIG=
201205301230 METAR LMML NIL=
201205301215 METAR LMML 301215Z 11006KT 030V150 9999 FEW027 24/15 Q1018
                        NOSIG=
201205301200 METAR LMML NIL=
201205301145 METAR LMML 301145Z 09007KT 030V130 9999 FEW026 24/15 Q1018
                        NOSIG=
201205301130 METAR LMML NIL=
201205301115 METAR LMML 301115Z 09006KT 040V150 9999 FEW027 24/15 Q1018
                        NOSIG=
201205301100 METAR LMML NIL=
201205301045 METAR LMML 301045Z 08006KT 010V150 9999 SCT024 24/15 Q1018
                        NOSIG=
201205301030 METAR LMML NIL=
201205301015 METAR LMML 301015Z 05007KT 010V090 9999 SCT022 24/15 Q1018
                        NOSIG=
201205301000 METAR LMML NIL=
201205300945 METAR LMML 300945Z 02008KT 350V050 9999 SCT021 23/17 Q1018
                        NOSIG=
201205300930 METAR LMML NIL=
201205300915 METAR LMML 300915Z 05005KT 280V190 9999 SCT019 24/16 Q1018
                        NOSIG=
201205300900 METAR LMML NIL=
201205300845 METAR LMML 300845Z 06006KT 010V110 9999 SCT021 23/16 Q1018
                        NOSIG=
201205300830 METAR LMML NIL=
201205300815 METAR LMML 300815Z 04005KT 310V110 9999 SCT019 24/16 Q1017
                        NOSIG=
201205300800 METAR LMML NIL=
201205300745 METAR LMML 300745Z 07005KT 030V120 9999 SCT017 23/16 Q1017
                        NOSIG=
201205300730 METAR LMML NIL=
201205300715 METAR LMML 300715Z 05003KT 9999 SCT017 23/16 Q1017 NOSIG=
201205300700 METAR LMML NIL=
201205300645 METAR LMML 300645Z 32003KT 9999 SCT013 21/17 Q1017 NOSIG=
201205300630 METAR LMML NIL=
201205300615 METAR LMML 300615Z VRB02KT 9000 SCT011 21/16 Q1017 BECMG
                        9999=
201205300600 METAR LMML NIL=
201205300545 METAR LMML 300545Z VRB02KT 6000 SCT007 19/17 Q1017 BECMG
                        9999=
201205300530 METAR LMML NIL=
201205300515 METAR LMML 300515Z VRB01KT 3000 BR SCT006 18/17 Q1016 BECMG
                        6000 NSW=
201205300500 METAR LMML NIL=
201205300445 METAR LMML 300445Z VRB02KT 3000 BR SCT006 18/17 Q1016 BECMG
                        6000 NSW=
201205300430 METAR LMML NIL=
201205300415 METAR LMML 300415Z VRB02KT 2000 MIFG BKN004 17/17 Q1016 TEMPO
                        1000 BCFG BKN001=
201205300400 METAR LMML NIL=
201205300345 METAR LMML 300345Z VRB01KT 2000 MIFG SCT005 17/17 Q1015 TEMPO
                        1000 BCFG BKN001=
201205300330 METAR LMML NIL=
201205300315 METAR LMML 300315Z 14003KT 4000 BR SCT004 17/17 Q1015 TEMPO
                        1000 BCFG BKN001=
201205300300 METAR LMML NIL=
201205300245 METAR LMML 300245Z VRB02KT 4000 BR SCT003 17/17 Q1015 TEMPO
                        1000 BCFG BKN001=
201205300230 METAR LMML NIL=
201205300215 METAR LMML 300215Z 09003KT 4000 BR BKN003 17/17 Q1015 TEMPO
                        1000 BCFG BKN001=
201205300200 METAR LMML NIL=
201205300145 METAR LMML 300145Z 11004KT 4000 BR SCT005 17/16 Q1015 TEMPO
                        2000 BKN005=
201205300130 METAR LMML NIL=
201205300115 METAR LMML 300115Z VRB02KT 6000 SCT007 18/17 Q1015 TEMPO
                        5000 BR BKN005=
201205300100 METAR LMML NIL=
201205300045 METAR LMML 300045Z 08004KT 6000 BKN007 18/17 Q1015 TEMPO
                        5000 BR BKN005=
201205300030 METAR LMML NIL=
201205300015 METAR LMML 300015Z 05004KT 010V080 6000 BKN007 19/17 Q1015
                        TEMPO 5000 BR BKN005=
201205300000 METAR LMML NIL=
201205292345 METAR LMML 292345Z 05003KT 6000 FEW005 BKN007 BKN250 19/17
                        Q1015 TEMPO 5000 BR BKN005=
201205292330 METAR LMML NIL=
201205292315 METAR LMML 292315Z 04003KT 6000 FEW005 BKN007 BKN250 19/17
                        Q1015 TEMPO 5000 BR BKN005=
201205292300 METAR LMML NIL=
201205292245 METAR LMML 292245Z 06003KT 6000 FEW005 BKN007 19/17 Q1015
                        TEMPO 5000 BR BKN005=
201205292230 METAR LMML NIL=
201205292215 METAR LMML 292215Z 02003KT 8000 SCT007 BKN250 19/17 Q1015
                        TEMPO BKN015=
201205292200 METAR LMML NIL=
201205292145 METAR LMML 292145Z 08003KT 8000 FEW012 19/16 Q1015 TEMPO
                        BKN015=
201205292130 METAR LMML NIL=
201205292115 METAR LMML 292115Z VRB02KT 8000 FEW015 19/17 Q1015 TEMPO
                        BKN015=
201205292100 METAR LMML NIL=
201205292045 METAR LMML 292045Z 04003KT 8000 FEW015 19/17 Q1015 TEMPO
                        BKN015=
201205292030 METAR LMML NIL=
201205292015 METAR LMML 292015Z 05004KT 020V090 8000 SCT015 19/17 Q1015
                        TEMPO BKN015=
201205292000 METAR LMML NIL=
201205291945 METAR LMML 291945Z 08005KT 030V100 9000 FEW010 BKN015 19/17
                        Q1014 TEMPO BKN010=
201205291930 METAR LMML NIL=
201205291915 METAR LMML 291915Z 08006KT 9000 FEW010 BKN015 20/17 Q1014
                        TEMPO BKN010=
201205291900 METAR LMML NIL=
201205291845 METAR LMML 291845Z 07005KT 8000 BKN007 BKN012 20/17 Q1013
                        NOSIG=
201205291830 METAR LMML NIL=
201205291815 METAR LMML 291815Z 08006KT 060V120 9999 BKN007 BKN011 20/18
                        Q1013 NOSIG=
201205291800 METAR LMML NIL=
201205291745 METAR LMML 291745Z 09004KT 060V130 9999 FEW007 BKN012 20/18
                        Q1013 TEMPO BKN007=
201205291730 METAR LMML NIL=
201205291715 METAR LMML 291715Z 10005KT 070V130 9999 FEW008 SCT012 20/18
                        Q1013 NOSIG=
201205291700 METAR LMML NIL=
201205291645 METAR LMML 291645Z 10006KT 060V130 9999 BKN014 21/18 Q1013
                        BECMG BKN010=
201205291630 METAR LMML NIL=
201205291615 METAR LMML 291615Z 10007KT 9999 BKN012 21/18 Q1012 NOSIG=
201205291600 METAR LMML NIL=
201205291545 METAR LMML 291545Z 10007KT 9999 BKN015 22/18 Q1012 NOSIG=
201205291530 METAR LMML NIL=
201205291515 METAR LMML 291515Z 07007KT 030V110 9999 FEW017 24/18 Q1012
                        NOSIG=
201205291500 METAR LMML NIL=
201205291445 METAR LMML 291445Z 09006KT 040V140 9999 SCT017 24/18 Q1012
                        NOSIG=
201205291430 METAR LMML NIL=
201205291415 METAR LMML 291415Z 07007KT 020V120 9999 SCT020 25/18 Q1012
                        NOSIG=
201205291400 METAR LMML NIL=
201205291345 METAR LMML 291345Z 07006KT 030V110 9999 SCT019 25/18 Q1013
                        NOSIG=
201205291330 METAR LMML NIL=
201205291315 METAR LMML 291315Z 05005KT 350V130 9999 SCT015 25/18 Q1013
                        NOSIG=
201205291300 METAR LMML NIL=
201205291245 METAR LMML 291245Z 04006KT 360V080 9999 SCT018 27/18 Q1013
                        NOSIG=
201205291230 METAR LMML NIL=
201205291215 METAR LMML 291215Z 01008KT 340V060 9999 SCT017 26/17 Q1013
                        NOSIG=
201205291200 METAR LMML NIL=
201205291145 METAR LMML 291145Z 06006KT 350V110 9999 SCT016 26/18 Q1013
                        NOSIG=
201205291130 METAR LMML NIL=
201205291115 METAR LMML 291115Z 05006KT 350V100 9999 SCT017 27/18 Q1013
                        NOSIG=
201205291100 METAR LMML NIL=
201205291045 METAR LMML 291045Z 06006KT 010V120 9999 SCT015 26/19 Q1013
                        NOSIG=
201205291030 METAR LMML NIL=
201205291015 METAR LMML 291015Z 04006KT 280V080 9999 SCT020 25/18 Q1013
                        NOSIG=
201205291000 METAR LMML NIL=
201205290945 METAR LMML 290945Z 06003KT 9999 SCT023 25/18 Q1013 NOSIG=
201205290930 METAR LMML NIL=
201205290915 METAR LMML 290915Z 03005KT 350V060 9999 SCT020 25/18 Q1013
                        NOSIG=
201205290900 METAR LMML NIL=
201205290845 METAR LMML 290845Z 36004KT 260V060 9999 FEW025 26/18 Q1013
                        NOSIG=
201205290830 METAR LMML NIL=
201205290815 METAR LMML 290815Z 26003KT 9999 SCT016 24/18 Q1013 NOSIG=
201205290800 METAR LMML NIL=
201205290745 METAR LMML 290745Z 26005KT 210V300 9999 SCT016 23/18 Q1013
                        NOSIG=
201205290730 METAR LMML NIL=
201205290715 METAR LMML 290715Z 26004KT 210V300 9999 SCT010 SCT017 23/18
                        Q1013 NOSIG=
201205290700 METAR LMML NIL=
201205290645 METAR LMML 290645Z 23005KT 170V260 9000 BKN009 22/18 Q1013
                        NOSIG=
201205290615 METAR LMML 290615Z 20004KT 150V250 9000 BKN008 21/19 Q1013
                        NOSIG=
201205290600 METAR LMML NIL=
201205290545 METAR LMML 290545Z 20004KT 150V240 8000 BKN006 20/19 Q1013
                        NOSIG=
201205290530 METAR LMML NIL=
201205290515 METAR LMML 290515Z 19004KT 130V250 8000 BKN006 20/19 Q1012
                        BECMG 9999 FEW010=
201205290500 METAR LMML NIL=
201205290445 METAR LMML 290445Z 18005KT 150V220 8000 SCT005 BKN120 20/19
                        Q1012 BECMG 9999 FEW010=
201205290430 METAR LMML NIL=
201205290415 METAR LMML 290415Z 18004KT 150V220 7000 FEW005 SCT120 19/19
                        Q1012 NOSIG=
201205290400 METAR LMML NIL=
201205290345 METAR LMML 290345Z 13004KT 7000 SCT005 SCT120 19/18 Q1012
                        NOSIG=
201205290330 METAR LMML NIL=
201205290315 METAR LMML 290315Z 17005KT 150V210 9999 FEW004 SCT250 19/18
                        Q1012 NOSIG=
201205290300 METAR LMML NIL=
201205290245 METAR LMML 290245Z 19008KT 130V250 9999 FEW004 BKN250 19/18
                        Q1011 NOSIG=
201205290230 METAR LMML NIL=
201205290215 METAR LMML 290215Z 14003KT 9999 FEW004 SCT250 19/18 Q1012
                        NOSIG=
201205290200 METAR LMML NIL=
201205290145 METAR LMML 290145Z 17004KT 140V220 9999 FEW008 SCT250 19/18
                        Q1012 NOSIG=
201205290130 METAR LMML NIL=
201205290115 METAR LMML 290115Z 20005KT 160V250 9999 FEW012 BKN250 19/19
                        Q1012 NOSIG=
201205290100 METAR LMML NIL=
201205290045 METAR LMML 290045Z 21006KT 160V260 CAVOK 19/18 Q1013 NOSIG=
201205290030 METAR LMML NIL=
201205290015 METAR LMML 290015Z 21004KT 170V250 9000 NSC 19/18 Q1013 NOSIG=
201205290000 METAR LMML NIL=
201205282345 METAR LMML 282345Z VRB01KT CAVOK 19/18 Q1013 NOSIG=
201205282330 METAR LMML NIL=
201205282315 METAR LMML 282315Z 20004KT 170V240 CAVOK 19/17 Q1013 NOSIG=
201205282300 METAR LMML NIL=
201205282245 METAR LMML 282245Z VRB02KT CAVOK 19/17 Q1014 NOSIG=
201205282230 METAR LMML NIL=
201205282215 METAR LMML 282215Z VRB02KT CAVOK 19/16 Q1014 NOSIG=
201205282200 METAR LMML NIL=
201205282145 METAR LMML 282145Z 18004KT 150V240 CAVOK 19/17 Q1014 NOSIG=
201205282130 METAR LMML NIL=
201205282115 METAR LMML 282115Z 19004KT 160V270 CAVOK 19/17 Q1014 NOSIG=
201205282100 METAR LMML NIL=
201205282045 METAR LMML 282045Z 19004KT 160V220 CAVOK 19/16 Q1014 NOSIG=
201205282030 METAR LMML NIL=
201205282015 METAR LMML 282015Z 21004KT 180V240 CAVOK 20/16 Q1014 NOSIG=
201205281945 METAR LMML 281945Z VRB02KT CAVOK 21/11 Q1014 NOSIG=
201205281930 METAR LMML NIL=
201205281915 METAR LMML 281915Z VRB01KT CAVOK 21/10 Q1013 NOSIG=
201205281900 METAR LMML NIL=
201205281845 METAR LMML 281845Z 27003KT CAVOK 21/10 Q1014 NOSIG=
201205281830 METAR LMML NIL=
201205281815 METAR LMML 281815Z 23003KT CAVOK 21/11 Q1013 NOSIG=
201205281800 METAR LMML NIL=
201205281745 METAR LMML 281745Z 25003KT CAVOK 22/12 Q1013 NOSIG=
201205281730 METAR LMML NIL=
201205281715 METAR LMML 281715Z 24005KT 210V270 CAVOK 23/12 Q1013 NOSIG=
201205281700 METAR LMML NIL=
201205281645 METAR LMML 281645Z 24004KT 210V280 CAVOK 25/09 Q1013 NOSIG=
201205281630 METAR LMML NIL=
201205281615 METAR LMML 281615Z 25005KT 210V280 CAVOK 25/08 Q1014 NOSIG=
201205281600 METAR LMML NIL=
201205281545 METAR LMML 281545Z 23005KT 200V270 CAVOK 24/13 Q1014 NOSIG=
201205281530 METAR LMML NIL=
201205281515 METAR LMML 281515Z 23007KT 180V270 CAVOK 24/14 Q1014 NOSIG=
201205281500 METAR LMML NIL=
201205281445 METAR LMML 281445Z 23009KT 200V260 9999 FEW030 23/16 Q1014
                        NOSIG=
201205281430 METAR LMML NIL=
201205281415 METAR LMML 281415Z 20009KT 150V240 9999 FEW030 23/16 Q1014
                        NOSIG=
201205281400 METAR LMML NIL=
201205281345 METAR LMML 281345Z 19008KT 140V250 9999 FEW030 24/16 Q1015
                        NOSIG=
201205281330 METAR LMML NIL=
201205281315 METAR LMML 281315Z 19006KT 140V260 9999 FEW030 24/16 Q1015
                        BECMG CAVOK=
201205281300 METAR LMML NIL=
201205281245 METAR LMML 281245Z 16007KT 130V230 9999 FEW030 25/15 Q1015
                        NOSIG=
201205281230 METAR LMML NIL=
201205281215 METAR LMML 281215Z 16005KT 090V210 CAVOK 25/14 Q1015 NOSIG=
201205281200 METAR LMML NIL=
201205281145 METAR LMML 281145Z 16006KT 120V240 9999 FEW030 24/14 Q1015
                        NOSIG=
201205281130 METAR LMML NIL=
201205281115 METAR LMML 281115Z 16005KT 080V290 9999 FEW030 25/14 Q1016
                        NOSIG=
201205281100 METAR LMML NIL=
201205281045 METAR LMML 281045Z 16005KT 050V230 9999 FEW030 25/14 Q1016
                        NOSIG=
201205281030 METAR LMML NIL=
201205281015 METAR LMML 281015Z 12006KT 060V170 9999 FEW030 24/14 Q1016
                        NOSIG=
201205281000 METAR LMML NIL=
201205280945 METAR LMML 280945Z 11005KT 070V160 9999 FEW030 24/15 Q1016
                        NOSIG=
201205280930 METAR LMML NIL=
201205280915 METAR LMML 280915Z 12005KT 070V200 9999 FEW030 24/16 Q1016
                        NOSIG=
201205280900 METAR LMML NIL=
201205280845 METAR LMML 280845Z 11005KT 080V150 9999 FEW020 23/16 Q1016
                        NOSIG=
201205280830 METAR LMML NIL=
201205280815 METAR LMML 280815Z 09003KT 9999 FEW020 23/17 Q1016 NOSIG=
201205280800 METAR LMML NIL=
201205280745 METAR LMML 280745Z VRB02KT 9999 FEW020 23/16 Q1016 NOSIG=
201205280730 METAR LMML NIL=
201205280715 METAR LMML 280715Z 03003KT 9999 FEW020 23/16 Q1016 NOSIG=
201205280700 METAR LMML NIL=
201205280645 METAR LMML 280645Z 07004KT 010V120 9999 FEW020 22/16 Q1016
                        NOSIG=
201205280630 METAR LMML NIL=
201205280615 METAR LMML 280615Z 04004KT 020V080 9999 FEW020 21/16 Q1016
                        NOSIG=
201205280600 METAR LMML NIL=
201205280545 METAR LMML 280545Z 04004KT 300V070 8000 NSC 20/16 Q1016 BECMG
                        CAVOK=
201205280530 METAR LMML NIL=
201205280515 METAR LMML 280515Z VRB02KT 8000 NSC 19/16 Q1016 BECMG CAVOK=
201205280500 METAR LMML NIL=
201205280445 METAR LMML 280445Z VRB02KT 6000 NSC 17/16 Q1015 TEMPO 9000
                        FEW010=
201205280430 METAR LMML NIL=
201205280415 METAR LMML 280415Z VRB02KT 6000 FEW009 16/16 Q1015 TEMPO
                        5000 BR FEW008=
201205280400 METAR LMML NIL=
201205280345 METAR LMML 280345Z VRB01KT 6000 FEW009 16/15 Q1015 TEMPO
                        5000 BR FEW008=
201205280330 METAR LMML NIL=
201205280315 METAR LMML 280315Z VRB02KT 7000 FEW009 16/15 Q1015 TEMPO
                        5000 BR FEW008=
201205280300 METAR LMML NIL=
201205280245 METAR LMML 280245Z VRB02KT 9000 NSC 16/16 Q1015 NOSIG=
201205280230 METAR LMML NIL=
201205280215 METAR LMML 280215Z 36004KT 9000 NSC 17/16 Q1015 NOSIG=
201205280200 METAR LMML NIL=
201205280145 METAR LMML 280145Z 02005KT 360V090 CAVOK 17/16 Q1015 NOSIG=
201205280130 METAR LMML NIL=
201205280115 METAR LMML 280115Z 36004KT CAVOK 17/16 Q1015 NOSIG=
201205280100 METAR LMML NIL=
201205280045 METAR LMML 280045Z 02006KT CAVOK 17/15 Q1015 NOSIG=
201205280030 METAR LMML NIL=
201205280015 METAR LMML 280015Z VRB02KT CAVOK 17/15 Q1015 NOSIG=
201205280000 METAR LMML NIL=
201205272345 METAR LMML 272345Z 35004KT CAVOK 18/15 Q1015 NOSIG=
201205272330 METAR LMML NIL=
201205272315 METAR LMML 272315Z 33005KT CAVOK 18/15 Q1015 NOSIG=
201205272300 METAR LMML NIL=
201205272245 METAR LMML 272245Z 33005KT CAVOK 18/15 Q1016 NOSIG=
201205272215 METAR LMML 272215Z 32004KT 290V350 CAVOK 18/15 Q1016 NOSIG=
201205272200 METAR LMML NIL=
201205272145 METAR LMML 272145Z 31005KT CAVOK 18/15 Q1016 NOSIG=
201205272130 METAR LMML NIL=
201205272115 METAR LMML 272115Z 31008KT CAVOK 19/15 Q1016 NOSIG=
201205272100 METAR LMML NIL=
201205272045 METAR LMML 272045Z 34005KT 270V030 CAVOK 19/14 Q1016 NOSIG=
201205272030 METAR LMML NIL=
201205272015 METAR LMML 272015Z 32006KT 260V020 CAVOK 19/14 Q1016 NOSIG=
201205272000 METAR LMML NIL=
201205271945 METAR LMML 271945Z 30007KT CAVOK 20/12 Q1015 NOSIG=
201205271930 METAR LMML NIL=
201205271915 METAR LMML 271915Z 30006KT 270V330 CAVOK 20/11 Q1015 NOSIG=
201205271900 METAR LMML NIL=
201205271845 METAR LMML 271845Z 28010KT CAVOK 20/10 Q1015 NOSIG=
201205271830 METAR LMML NIL=
201205271815 METAR LMML 271815Z 28013KT CAVOK 21/11 Q1015 NOSIG=
201205271800 METAR LMML NIL=
201205271745 METAR LMML 271745Z 29011KT 260V320 CAVOK 22/12 Q1015 NOSIG=
201205271730 METAR LMML NIL=
201205271715 METAR LMML 271715Z 29012KT 250V310 CAVOK 22/12 Q1015 NOSIG=
201205271700 METAR LMML NIL=
201205271645 METAR LMML 271645Z 28012KT 250V310 9999 FEW020 23/12 Q1015
                        NOSIG=
201205271630 METAR LMML NIL=
201205271615 METAR LMML 271615Z 29013KT 9999 FEW020 24/12 Q1015 NOSIG=
201205271600 METAR LMML NIL=
201205271545 METAR LMML 271545Z 28012KT 240V310 9999 FEW020 25/11 Q1015
                        NOSIG=
201205271530 METAR LMML NIL=
201205271515 METAR LMML 271515Z 29013KT 9999 FEW020 25/10 Q1015 NOSIG=
201205271500 METAR LMML NIL=
201205271445 METAR LMML 271445Z 30012KT 9999 FEW020 26/11 Q1015 NOSIG=
201205271430 METAR LMML NIL=
201205271415 METAR LMML 271415Z 30011KT 9999 FEW020 26/11 Q1015 NOSIG=
201205271345 METAR LMML 271345Z 30012KT 9999 FEW020 25/12 Q1015 NOSIG=
201205271330 METAR LMML NIL=
201205271315 METAR LMML 271315Z 29014KT 260V320 9999 FEW012 25/13 Q1015
                        NOSIG=
201205271300 METAR LMML NIL=
201205271245 METAR LMML 271245Z 30013KT 250V330 9999 FEW012 25/13 Q1016
                        NOSIG=
201205271230 METAR LMML NIL=
201205271215 METAR LMML 271215Z 29012KT 260V330 CAVOK 25/13 Q1016 NOSIG=
201205271200 METAR LMML NIL=
201205271145 METAR LMML 271145Z 29012KT 260V320 9999 FEW012 25/14 Q1016
                        NOSIG=
201205271130 METAR LMML NIL=
201205271115 METAR LMML 271115Z 29009KT 250V320 9999 FEW012 25/14 Q1016
                        NOSIG=
201205271100 METAR LMML NIL=
201205271045 METAR LMML 271045Z 29010KT 240V330 9999 FEW012 24/16 Q1017
                        NOSIG=
201205271030 METAR LMML NIL=
201205271015 METAR LMML 271015Z 28009KT 230V310 9999 FEW012 23/16 Q1017
                        NOSIG=
201205271000 METAR LMML NIL=
201205270945 METAR LMML 270945Z 25009KT 200V290 9999 FEW010 23/15 Q1017
                        NOSIG=
201205270930 METAR LMML NIL=
201205270915 METAR LMML 270915Z 23009KT 190V270 9999 FEW010 23/16 Q1016
                        NOSIG=
201205270900 METAR LMML NIL=
201205270845 METAR LMML 270845Z 24009KT 200V290 9999 FEW010 22/16 Q1017
                        NOSIG=
201205270830 METAR LMML NIL=
201205270815 METAR LMML 270815Z 23010KT 200V270 9999 FEW010 22/16 Q1016
                        NOSIG=
201205270800 METAR LMML NIL=
201205270745 METAR LMML 270745Z 23009KT 200V260 9999 FEW010 22/16 Q1016
                        NOSIG=
201205270730 METAR LMML NIL=
201205270715 METAR LMML 270715Z 27008KT 240V300 8000 FEW010 21/16 Q1016
                        BECMG 9999=
201205270700 METAR LMML NIL=
201205270645 METAR LMML 270645Z 25007KT 200V300 8000 SCT010 20/16 Q1016
                        BECMG 9999=
201205270630 METAR LMML NIL=
201205270615 METAR LMML 270615Z 24006KT 210V290 7000 SCT008 20/16 Q1016
                        BECMG 9999 FEW011=
201205270600 METAR LMML NIL=
201205270545 METAR LMML 270545Z 26004KT 210V300 6000 BKN008 19/16 Q1016
                        BECMG 9999 FEW011=
201205270530 METAR LMML NIL=
201205270515 METAR LMML 270515Z 29004KT 240V320 4500 BR SCT008 18/17 Q1016
                        BECMG 6000=
201205270500 METAR LMML NIL=
201205270445 METAR LMML 270445Z 29004KT 250V310 4000 SCT005 17/16 Q1016
                        BECMG 6000=
201205270430 METAR LMML NIL=
201205270415 METAR LMML 270415Z 26004KT 4000 SCT005 16/16 Q1015 TEMPO
                        3000 BR BKN003=
201205270400 METAR LMML NIL=
201205270345 METAR LMML 270345Z 28003KT 6000 SCT005 16/16 Q1015 TEMPO
                        5000 BR BKN005=
201205270330 METAR LMML NIL=
201205270315 METAR LMML 270315Z 29003KT 6000 SCT006 17/16 Q1015 TEMPO
                        5000 BR BKN005=
201205270300 METAR LMML NIL=
201205270245 METAR LMML 270245Z VRB01KT 6000 BKN006 16/16 Q1015 TEMPO
                        5000 BR BKN005=
201205270230 METAR LMML NIL=
201205270215 METAR LMML 270215Z VRB01KT 8000 BKN006 16/16 Q1015 TEMPO
                        BKN005=
201205270200 METAR LMML NIL=
201205270145 METAR LMML 270145Z VRB01KT 8000 SCT008 16/16 Q1015 TEMPO
                        BKN008=
201205270130 METAR LMML NIL=
201205270115 METAR LMML 270115Z VRB02KT 8000 SCT008 17/16 Q1015 TEMPO
                        BKN008=
201205270100 METAR LMML NIL=
201205270045 METAR LMML 270045Z 26003KT 9999 FEW008 17/16 Q1016 NOSIG=
201205270030 METAR LMML NIL=
201205270015 METAR LMML 270015Z 29004KT 9999 FEW008 17/16 Q1016 NOSIG=
201205270000 METAR LMML NIL=
201205262345 METAR LMML 262345Z 27003KT 9999 FEW008 17/16 Q1016 NOSIG=
201205262330 METAR LMML NIL=
201205262315 METAR LMML 262315Z 27003KT 9999 FEW008 17/16 Q1016 NOSIG=
201205262300 METAR LMML NIL=
201205262245 METAR LMML 262245Z VRB02KT 9999 FEW008 SCT250 17/16 Q1016
                        NOSIG=
201205262230 METAR LMML NIL=
201205262215 METAR LMML 262215Z VRB01KT 9999 FEW008 SCT250 17/16 Q1016
                        NOSIG=
201205262200 METAR LMML NIL=
201205262145 METAR LMML 262145Z 28003KT 9999 FEW008 SCT250 18/16 Q1016
                        NOSIG=
201205262130 METAR LMML NIL=
201205262115 METAR LMML 262115Z VRB02KT 9999 FEW008 SCT250 18/16 Q1017
                        NOSIG=
201205262100 METAR LMML NIL=
201205262045 METAR LMML 262045Z 29005KT 9999 FEW008 SCT250 18/16 Q1016
                        NOSIG=
201205262030 METAR LMML NIL=
201205262015 METAR LMML 262015Z 27005KT 230V310 9999 FEW008 SCT250 18/16
                        Q1016 NOSIG=
201205262000 METAR LMML NIL=
201205261945 METAR LMML 261945Z 30005KT 260V320 9999 FEW008 18/16 Q1016
                        NOSIG=
201205261930 METAR LMML NIL=
201205261915 METAR LMML 261915Z 31004KT CAVOK 19/15 Q1016 NOSIG=
201205261900 METAR LMML NIL=
201205261845 METAR LMML 261845Z 27004KT CAVOK 19/14 Q1016 NOSIG=
201205261815 METAR LMML 261815Z VRB02KT CAVOK 20/15 Q1015 NOSIG=
201205261745 METAR LMML 261745Z VRB02KT CAVOK 21/15 Q1015 NOSIG=
201205261730 METAR LMML NIL=
201205261715 METAR LMML 261715Z 25004KT 220V280 CAVOK 21/15 Q1015 NOSIG=
201205261700 METAR LMML NIL=
201205261645 METAR LMML 261645Z 26005KT 230V300 9999 FEW020 22/15 Q1015
                        NOSIG=
201205261630 METAR LMML NIL=
201205261615 METAR LMML 261615Z 24007KT 210V270 9999 FEW020 21/15 Q1015
                        NOSIG=
201205261600 METAR LMML NIL=
201205261545 METAR LMML 261545Z 25007KT 180V290 9999 FEW020 22/16 Q1015
                        NOSIG=
201205261530 METAR LMML NIL=
201205261515 METAR LMML 261515Z 23010KT 190V270 9999 FEW020 SCT250 21/16
                        Q1015 NOSIG=
201205261500 METAR LMML NIL=
201205261445 METAR LMML 261445Z 23009KT 180V270 9999 FEW020 SCT250 22/16
                        Q1015 NOSIG=
201205261430 METAR LMML NIL=
201205261415 METAR LMML 261415Z 22009KT 160V260 9999 FEW020 22/16 Q1015
                        NOSIG=
201205261400 METAR LMML NIL=
201205261345 METAR LMML 261345Z 22009KT 170V260 9999 FEW020 22/16 Q1016
                        NOSIG=
201205261330 METAR LMML NIL=
201205261315 METAR LMML 261315Z 22010KT 160V250 9999 FEW020 22/16 Q1016
                        NOSIG=
201205261300 METAR LMML NIL=
201205261245 METAR LMML 261245Z 22009KT 150V260 CAVOK 23/16 Q1016 NOSIG=
201205261230 METAR LMML NIL=
201205261215 METAR LMML 261215Z 22009KT 130V270 9999 FEW020 23/16 Q1016
                        NOSIG=
201205261200 METAR LMML NIL=
201205261145 METAR LMML 261145Z 20007KT 140V260 9999 FEW020 23/16 Q1016
                        NOSIG=
201205261130 METAR LMML NIL=
201205261115 METAR LMML 261115Z 20006KT 160V250 CAVOK 24/16 Q1016 NOSIG=
201205261100 METAR LMML NIL=
201205261045 METAR LMML 261045Z 22007KT 160V250 CAVOK 23/16 Q1016 NOSIG=
201205261030 METAR LMML NIL=
201205261015 METAR LMML 261015Z 21009KT 150V270 CAVOK 22/16 Q1016 NOSIG=
201205261000 METAR LMML NIL=
201205260945 METAR LMML 260945Z 21006KT 120V260 CAVOK 23/16 Q1016 NOSIG=
201205260930 METAR LMML NIL=
201205260915 METAR LMML 260915Z 18006KT 150V230 CAVOK 22/15 Q1016 NOSIG=
201205260900 METAR LMML NIL=
201205260845 METAR LMML 260845Z 18004KT 140V260 CAVOK 22/15 Q1016 NOSIG=
201205260830 METAR LMML NIL=
201205260815 METAR LMML 260815Z 17004KT 120V230 CAVOK 22/16 Q1016 NOSIG=
201205260800 METAR LMML NIL=
201205260745 METAR LMML 260745Z VRB01KT 9999 FEW015 22/15 Q1016 NOSIG=
201205260730 METAR LMML NIL=
201205260715 METAR LMML 260715Z 02003KT 9999 FEW015 22/15 Q1016 NOSIG=
201205260700 METAR LMML NIL=
201205260645 METAR LMML 260645Z 35003KT 9999 FEW012 20/15 Q1016 NOSIG=
201205260630 METAR LMML NIL=
201205260615 METAR LMML 260615Z 34004KT 310V010 9999 FEW011 19/15 Q1016
                        NOSIG=
201205260600 METAR LMML NIL=
201205260545 METAR LMML 260545Z 34003KT 8000 SCT012 19/15 Q1016 BECMG
                        9999=
201205260530 METAR LMML NIL=
201205260515 METAR LMML 260515Z VRB01KT 6000 SCT012 17/15 Q1016 BECMG
                        9999=
201205260500 METAR LMML NIL=
201205260445 METAR LMML 260445Z VRB01KT 6000 BKN010 16/15 Q1016 NOSIG=
201205260430 METAR LMML NIL=
201205260415 METAR LMML 260415Z VRB01KT 6000 BKN009 16/14 Q1015 NOSIG=
201205260400 METAR LMML NIL=
201205260345 METAR LMML 260345Z VRB02KT 6000 SCT009 16/14 Q1015 TEMPO
                        5000 BR BKN008=
201205260330 METAR LMML NIL=
201205260315 METAR LMML 260315Z VRB02KT 9000 NSC 16/15 Q1015 TEMPO 5000
                        BR SCT008=
201205260300 METAR LMML NIL=
201205260245 METAR LMML 260245Z VRB01KT 9000 FEW010 16/15 Q1015 TEMPO
                        5000 BR BKN008=
201205260230 METAR LMML NIL=
201205260215 METAR LMML 260215Z 25003KT 9000 FEW010 16/15 Q1015 TEMPO
                        5000 BR BKN008=
201205260200 METAR LMML NIL=
201205260145 METAR LMML 260145Z VRB02KT 9000 FEW010 16/15 Q1015 TEMPO
                        5000 BR BKN008=
201205260130 METAR LMML NIL=
201205260115 METAR LMML 260115Z 23004KT 170V280 7000 SCT010 16/15 Q1015
                        TEMPO 5000 BR=
201205260100 METAR LMML NIL=
201205260045 METAR LMML 260045Z 25003KT 7000 BKN010 17/15 Q1015 TEMPO
                        5000 BR=
201205260030 METAR LMML NIL=
201205260015 METAR LMML 260015Z 24004KT 210V290 7000 BKN010 17/15 Q1015
                        TEMPO 5000 BR=
201205260000 METAR LMML NIL=
201205252345 METAR LMML 252345Z 24004KT 180V270 7000 BKN008 17/15 Q1015
                        TEMPO 5000 BR=
201205252330 METAR LMML NIL=
201205252315 METAR LMML 252315Z 24005KT 200V280 7000 BKN008 17/15 Q1016
                        TEMPO 5000 BR=
201205252300 METAR LMML NIL=
201205252245 METAR LMML 252245Z 20004KT 130V250 7000 BKN008 17/15 Q1016
                        TEMPO 5000 BR=
201205252230 METAR LMML NIL=
201205252215 METAR LMML 252215Z VRB02KT 7000 BKN008 16/15 Q1016 NOSIG=
201205252200 METAR LMML NIL=
201205252145 METAR LMML 252145Z VRB02KT 8000 NSC 16/14 Q1016 TEMPO BKN006=
201205252130 METAR LMML NIL=
201205252115 METAR LMML 252115Z 28004KT 8000 FEW015 16/15 Q1015 TEMPO
                        BKN006=
201205252100 METAR LMML NIL=
201205252045 METAR LMML 252045Z 28003KT 8000 FEW015 17/15 Q1016 TEMPO
                        BKN006=
201205252030 METAR LMML NIL=
201205252015 METAR LMML 252015Z VRB02KT 8000 FEW015 17/15 Q1016 TEMPO
                        BKN006=
201205252000 METAR LMML NIL=
201205251945 METAR LMML 251945Z 28003KT 8000 FEW015 17/15 Q1015 TEMPO
                        BKN006=
201205251930 METAR LMML NIL=
201205251915 METAR LMML 251915Z 28006KT 8000 FEW015 17/15 Q1015 TEMPO
                        BKN006=
201205251900 METAR LMML NIL=
201205251845 METAR LMML 251845Z 28004KT 8000 FEW015 17/15 Q1015 NOSIG=
201205251830 METAR LMML NIL=
201205251815 METAR LMML 251815Z 29004KT 250V320 8000 FEW015 18/15 Q1015
                        NOSIG=
201205251800 METAR LMML NIL=
201205251745 METAR LMML 251745Z 28005KT 250V310 9999 FEW020 19/15 Q1014
                        NOSIG=
201205251730 METAR LMML NIL=
201205251715 METAR LMML 251715Z 31008KT 9999 FEW020 20/15 Q1014 NOSIG=
201205251700 METAR LMML NIL=
201205251645 METAR LMML 251645Z 28006KT 250V310 9999 FEW030 21/15 Q1014
                        NOSIG=
201205251630 METAR LMML NIL=
201205251615 METAR LMML 251615Z 28007KT 9999 FEW025 22/15 Q1014 NOSIG=
201205251600 METAR LMML NIL=
201205251545 METAR LMML 251545Z 26006KT 220V290 9999 FEW030 23/14 Q1014
                        NOSIG=
201205251530 METAR LMML NIL=
201205251515 METAR LMML 251515Z 26006KT 210V290 9999 FEW030 23/14 Q1014
                        NOSIG=
201205251500 METAR LMML NIL=
201205251445 METAR LMML 251445Z 27006KT 150V310 9999 FEW030 24/14 Q1014
                        NOSIG=
201205251430 METAR LMML NIL=
201205251415 METAR LMML 251415Z 27006KT 200V310 9999 FEW030 24/13 Q1014
                        NOSIG=
201205251400 METAR LMML NIL=
201205251345 METAR LMML 251345Z 29005KT 230V330 9999 FEW030 24/13 Q1014
                        NOSIG=
201205251330 METAR LMML NIL=
201205251315 METAR LMML 251315Z 26006KT 210V310 CAVOK 24/13 Q1014=
201205251245 METAR LMML 251245Z 27006KT 230V330 9999 FEW020 24/13 Q1015
                        NOSIG=
201205251230 METAR LMML NIL=
201205251215 METAR LMML 251215Z 29007KT 240V340 9999 FEW020 24/15 Q1015
                        TEMPO CAVOK=
201205251200 METAR LMML NIL=
201205251145 METAR LMML 251145Z 32008KT 270V360 9999 FEW020 24/15 Q1015
                        TEMPO CAVOK=
201205251130 METAR LMML NIL=
201205251115 METAR LMML 251115Z 31007KT 240V360 9999 FEW020 24/15 Q1015
                        TEMPO CAVOK=
201205251100 METAR LMML NIL=
201205251045 METAR LMML 251045Z 30009KT 260V340 9999 FEW020 23/14 Q1015
                        NOSIG=
201205251030 METAR LMML NIL=
201205251015 METAR LMML 251015Z 32009KT 280V350 9999 FEW020 23/14 Q1015
                        NOSIG=
201205251000 METAR LMML NIL=
201205250945 METAR LMML 250945Z 31010KT 270V350 9999 FEW020 23/14 Q1015
                        NOSIG=
201205250930 METAR LMML NIL=
201205250915 METAR LMML 250915Z 31008KT 270V350 9999 FEW015 23/15 Q1015
                        NOSIG=
201205250900 METAR LMML NIL=
201205250845 METAR LMML 250845Z 31008KT 280V350 9999 FEW012 22/15 Q1015
                        NOSIG=
201205250830 METAR LMML NIL=
201205250815 METAR LMML 250815Z 32009KT 290V350 9999 FEW012 21/15 Q1015
                        NOSIG=
201205250800 METAR LMML NIL=
201205250745 METAR LMML 250745Z 29011KT 260V330 9999 FEW012 21/15 Q1015
                        NOSIG=
201205250730 METAR LMML NIL=
201205250715 METAR LMML 250715Z 30008KT 9999 FEW012 20/15 Q1015 NOSIG=
201205250700 METAR LMML NIL=
201205250645 METAR LMML 250645Z 29008KT 9999 FEW012 20/15 Q1015 NOSIG=
201205250630 METAR LMML NIL=
201205250615 METAR LMML 250615Z 32006KT 290V350 9999 FEW012 20/15 Q1015
                        NOSIG=
201205250600 METAR LMML NIL=
201205250545 METAR LMML 250545Z 32005KT 9999 FEW012 19/15 Q1014 NOSIG=
201205250530 METAR LMML NIL=
201205250515 METAR LMML 250515Z 33004KT 300V020 CAVOK 18/15 Q1014 NOSIG=
201205250445 METAR LMML 250445Z 31003KT 9000 NSC 16/15 Q1014 BECMG 9999=
201205250430 METAR LMML NIL=
201205250415 METAR LMML 250415Z 32005KT 7000 NSC 16/15 Q1014 BECMG 9999=
201205250400 METAR LMML NIL=
201205250345 METAR LMML 250345Z 30004KT 7000 NSC 15/15 Q1014 TEMPO 5000
                        BR=
201205250330 METAR LMML NIL=
201205250315 METAR LMML 250315Z 32004KT 7000 FEW006 16/15 Q1014 TEMPO
                        5000 BR=
201205250300 METAR LMML NIL=
201205250245 METAR LMML 250245Z 33005KT 7000 FEW006 16/16 Q1014 TEMPO
                        5000 BR=
201205250230 METAR LMML NIL=
201205250215 METAR LMML 250215Z 32005KT 9000 FEW006 16/15 Q1014 NOSIG=
201205250200 METAR LMML NIL=
201205250145 METAR LMML 250145Z 32006KT 9999 FEW006 16/15 Q1014 NOSIG=
201205250130 METAR LMML NIL=
201205250115 METAR LMML 250115Z 32007KT CAVOK 17/15 Q1014 TEMPO 9999 FEW011=
201205250100 METAR LMML NIL=
201205250045 METAR LMML 250045Z 33005KT 290V350 CAVOK 17/15 Q1014 TEMPO
                        9999 FEW011=
201205250030 METAR LMML NIL=
201205250015 METAR LMML 250015Z 32007KT CAVOK 17/14 Q1014 TEMPO 9999 FEW011=
201205250000 METAR LMML NIL=
201205242345 METAR LMML 242345Z 32007KT CAVOK 17/14 Q1015 NOSIG=
201205242330 METAR LMML NIL=
201205242315 METAR LMML 242315Z 31007KT CAVOK 17/14 Q1015 NOSIG=
201205242300 METAR LMML NIL=
201205242245 METAR LMML 242245Z 31010KT CAVOK 18/14 Q1015 NOSIG=
201205242230 METAR LMML NIL=
201205242215 METAR LMML 242215Z 30011KT CAVOK 18/14 Q1015 NOSIG=
201205242200 METAR LMML NIL=
201205242145 METAR LMML 242145Z 30010KT CAVOK 18/13 Q1015 NOSIG=
201205242130 METAR LMML NIL=
201205242115 METAR LMML 242115Z 30008KT 270V340 CAVOK 17/14 Q1015 NOSIG=
201205242100 METAR LMML NIL=
201205242045 METAR LMML 242045Z 31009KT CAVOK 17/14 Q1015 NOSIG=
201205242030 METAR LMML NIL=
201205242015 METAR LMML 242015Z 29008KT 260V320 9999 FEW012 17/14 Q1015
                        NOSIG=
201205242000 METAR LMML NIL=
201205241945 METAR LMML 241945Z 28007KT 250V320 9999 FEW012 17/14 Q1015
                        NOSIG=
201205241930 METAR LMML NIL=
201205241915 METAR LMML 241915Z 30009KT 9999 FEW012 17/14 Q1015 NOSIG=
201205241900 METAR LMML NIL=
201205241845 METAR LMML 241845Z 30007KT 9999 FEW012 17/14 Q1015 NOSIG=
201205241830 METAR LMML NIL=
201205241815 METAR LMML 241815Z 30010KT 260V330 9999 FEW012 18/14 Q1015
                        NOSIG=
201205241800 METAR LMML NIL=
201205241745 METAR LMML 241745Z 29010KT 250V320 9999 FEW018 18/14 Q1015
                        NOSIG=
201205241715 METAR LMML 241715Z 29011KT 9999 FEW018 19/14 Q1015 NOSIG=
201205241700 METAR LMML NIL=
201205241645 METAR LMML 241645Z 28012KT 250V310 9999 FEW025 20/14 Q1015
                        NOSIG=
201205241630 METAR LMML NIL=
201205241615 METAR LMML 241615Z 28014KT 250V310 9999 FEW025 20/14 Q1015
                        NOSIG=
201205241600 METAR LMML NIL=
201205241545 METAR LMML 241545Z 28015KT 250V310 9999 FEW028 21/13 Q1015
                        NOSIG=
201205241530 METAR LMML NIL=
201205241515 METAR LMML 241515Z 29015KT 9999 FEW028 21/13 Q1015 NOSIG=
201205241500 METAR LMML NIL=
201205241445 METAR LMML 241445Z 28015KT 9999 FEW028 21/12 Q1015 NOSIG=
201205241430 METAR LMML NIL=
201205241415 METAR LMML 241415Z 28014KT 250V320 9999 FEW028 22/12 Q1015
                        NOSIG=
201205241400 METAR LMML NIL=
201205241345 METAR LMML 241345Z 28013KT 240V310 9999 FEW028 22/13 Q1016
                        NOSIG=
201205241330 METAR LMML NIL=
201205241315 METAR LMML 241315Z 28015KT 260V320 9999 FEW028 22/12 Q1016
                        NOSIG=
201205241300 METAR LMML NIL=
201205241245 METAR LMML 241245Z 30014KT 270V330 9999 FEW028 22/13 Q1016
                        NOSIG=
201205241230 METAR LMML NIL=
201205241215 METAR LMML 241215Z 30014KT 270V330 9999 FEW020 22/12 Q1016
                        NOSIG=
201205241200 METAR LMML NIL=
201205241145 METAR LMML 241145Z 28013KT CAVOK 22/13 Q1016 NOSIG=
201205241130 METAR LMML NIL=
201205241115 METAR LMML 241115Z 29013KT 9999 FEW020 22/12 Q1016 NOSIG=
201205241100 METAR LMML NIL=
201205241045 METAR LMML 241045Z 30012KT 260V330 9999 FEW020 22/12 Q1016
                        NOSIG=
201205241030 METAR LMML NIL=
201205241015 METAR LMML 241015Z 30012KT 270V340 9999 FEW020 22/13 Q1016
                        NOSIG=
201205241000 METAR LMML NIL=
201205240945 METAR LMML 240945Z 31016KT CAVOK 21/13 Q1016 NOSIG=
201205240930 METAR LMML NIL=
201205240915 METAR LMML 240915Z 30015KT 270V350 9999 FEW020 21/14 Q1016
                        NOSIG=
201205240900 METAR LMML NIL=
201205240845 METAR LMML 240845Z 30013KT 270V330 9999 FEW020 20/14 Q1016
                        NOSIG=
201205240830 METAR LMML NIL=
201205240815 METAR LMML 240815Z 30014KT 270V330 9999 FEW019 20/13 Q1016
                        NOSIG=
201205240800 METAR LMML NIL=
201205240745 METAR LMML 240745Z 31016KT 280V340 9999 FEW020 20/13 Q1016
                        NOSIG=
201205240730 METAR LMML NIL=
201205240715 METAR LMML 240715Z 31017KT 9999 FEW020 19/13 Q1016 NOSIG=
201205240700 METAR LMML NIL=
201205240645 METAR LMML 240645Z 29015KT 9999 FEW015 18/13 Q1016 NOSIG=
201205240630 METAR LMML NIL=
201205240615 METAR LMML 240615Z 29014KT 9999 FEW015 18/14 Q1016 NOSIG=
201205240600 METAR LMML NIL=
201205240545 METAR LMML 240545Z 30012KT 260V330 9999 FEW015 17/13 Q1016
                        NOSIG=
201205240530 METAR LMML NIL=
201205240515 METAR LMML 240515Z 29010KT 9999 FEW015 17/13 Q1015 NOSIG=
201205240500 METAR LMML NIL=
201205240445 METAR LMML 240445Z 30009KT 9999 FEW015 16/13 Q1015 NOSIG=
201205240430 METAR LMML NIL=
201205240415 METAR LMML 240415Z 30011KT 9999 FEW015 16/13 Q1015 NOSIG=
201205240400 METAR LMML NIL=
201205240345 METAR LMML 240345Z 29011KT 9999 FEW015 16/13 Q1015 NOSIG=
201205240330 METAR LMML NIL=
201205240315 METAR LMML 240315Z 30010KT 270V330 9999 FEW014 16/13 Q1015
                        NOSIG=
201205240300 METAR LMML NIL=
201205240245 METAR LMML 240245Z 30011KT 9999 FEW014 16/13 Q1015 NOSIG=
201205240230 METAR LMML NIL=
201205240215 METAR LMML 240215Z 29009KT 9999 FEW013 16/13 Q1015 NOSIG=
201205240200 METAR LMML NIL=
201205240145 METAR LMML 240145Z 29008KT 9999 FEW016 16/13 Q1015 NOSIG=
201205240130 METAR LMML NIL=
201205240115 METAR LMML 240115Z 30011KT 270V330 9999 FEW016 16/13 Q1015
                        NOSIG=
201205240100 METAR LMML NIL=
201205240045 METAR LMML 240045Z 30009KT 9999 FEW016 16/13 Q1016 NOSIG=
201205240030 METAR LMML NIL=
201205240015 METAR LMML 240015Z 30009KT 260V320 9999 FEW020 16/13 Q1016
                        NOSIG=
201205240000 METAR LMML NIL=
201205232345 METAR LMML 232345Z 28012KT 9999 FEW020 16/13 Q1016 NOSIG=
201205232330 METAR LMML NIL=
201205232315 METAR LMML 232315Z 28012KT 9999 FEW020 16/13 Q1016 NOSIG=
201205232300 METAR LMML NIL=
201205232245 METAR LMML 232245Z 29012KT 260V320 9999 FEW020 16/12 Q1016
                        NOSIG=
201205232230 METAR LMML NIL=
201205232215 METAR LMML 232215Z 28012KT 9999 FEW020 16/13 Q1016 NOSIG=
201205232200 METAR LMML NIL=
201205232145 METAR LMML 232145Z 29012KT 9999 FEW020 16/13 Q1016 NOSIG=
201205232130 METAR LMML NIL=
201205232115 METAR LMML 232115Z 28011KT 240V300 9999 FEW017 16/13 Q1017
                        NOSIG=
201205232100 METAR LMML NIL=
201205232045 METAR LMML 232045Z 27009KT 9999 SCT017 17/14 Q1017 NOSIG=
201205232030 METAR LMML NIL=
201205232015 METAR LMML 232015Z 27008KT 240V300 9999 FEW016 17/13 Q1017
                        NOSIG=
201205232000 METAR LMML NIL=
201205231945 METAR LMML 231945Z 28010KT 250V310 9999 FEW017 17/14 Q1017
                        NOSIG=
201205231930 METAR LMML NIL=
201205231915 METAR LMML 231915Z 27013KT 240V300 9999 FEW017 17/14 Q1016
                        NOSIG=
201205231900 METAR LMML NIL=
201205231845 METAR LMML 231845Z 27013KT 9999 FEW017 17/13 Q1016 NOSIG=
201205231830 METAR LMML NIL=
201205231815 METAR LMML 231815Z 27011KT 240V300 9999 FEW017 18/14 Q1016
                        NOSIG=
201205231800 METAR LMML NIL=
201205231745 METAR LMML 231745Z 28016KT 9999 FEW017 18/14 Q1016 TEMPO
                        8000 SHRA=
201205231730 METAR LMML NIL=
201205231715 METAR LMML 231715Z 28017KT 240V300 9999 FEW025TCU 19/13 Q1016
                        TEMPO 8000 SHRA=
201205231700 METAR LMML NIL=
201205231645 METAR LMML 231645Z 25010KT 220V300 9999 FEW030 SCT060 20/13
                        Q1016 NOSIG=
201205231630 METAR LMML NIL=
201205231615 METAR LMML 231615Z 24013KT 210V280 9999 FEW026 SCT060 20/13
                        Q1016 NOSIG=
201205231600 METAR LMML NIL=
201205231545 METAR LMML 231545Z 24012KT 200V280 9999 FEW026 20/13 Q1016
                        NOSIG=
201205231530 METAR LMML NIL=
201205231515 METAR LMML 231515Z 24012KT 210V290 9999 FEW026 21/13 Q1016
                        NOSIG=
201205231500 METAR LMML NIL=
201205231445 METAR LMML 231445Z 25013KT 210V290 9999 FEW026 21/13 Q1016
                        NOSIG=
201205231430 METAR LMML NIL=
201205231415 METAR LMML 231415Z 26012KT 230V300 9999 FEW026 21/12 Q1016
                        NOSIG=
201205231400 METAR LMML NIL=
201205231345 METAR LMML 231345Z 25014KT 220V290 9999 FEW026 21/12 Q1016
                        NOSIG=
201205231330 METAR LMML NIL=
201205231315 METAR LMML 231315Z 26014KT 220V300 9999 FEW026 22/12 Q1016
                        NOSIG=
201205231300 METAR LMML NIL=
201205231245 METAR LMML 231245Z 25012KT 210V290 CAVOK 22/12 Q1016 NOSIG=
201205231230 METAR LMML NIL=
201205231215 METAR LMML 231215Z 27012KT 220V300 9999 FEW024 22/12 Q1017
                        NOSIG=
201205231200 METAR LMML NIL=
201205231145 METAR LMML 231145Z 26014KT 230V290 9999 FEW026 21/13 Q1017
                        NOSIG=
201205231115 METAR LMML 231115Z 25011KT 200V290 9999 FEW026 22/13 Q1017
                        NOSIG=
201205231100 METAR LMML NIL=
201205231045 METAR LMML 231045Z 27011KT 230V320 9999 FEW024 22/12 Q1017
                        NOSIG=
201205231030 METAR LMML NIL=
201205231015 METAR LMML 231015Z 26011KT 220V300 9999 FEW024 22/12 Q1017
                        NOSIG=
201205231000 METAR LMML NIL=
201205230945 METAR LMML 230945Z 25012KT 220V290 9999 FEW024 22/12 Q1017
                        NOSIG=
201205230930 METAR LMML NIL=
201205230915 METAR LMML 230915Z 25011KT 210V280 9999 FEW024 21/11 Q1017
                        NOSIG=
201205230900 METAR LMML NIL=
201205230845 METAR LMML 230845Z 25010KT 210V300 9999 FEW024 21/12 Q1017
                        NOSIG=
201205230830 METAR LMML NIL=
201205230815 METAR LMML 230815Z 26009KT 220V300 9999 FEW026 21/12 Q1017
                        NOSIG=
201205230800 METAR LMML NIL=
201205230745 METAR LMML 230745Z 27009KT 220V310 9999 FEW024 20/13 Q1017
                        NOSIG=
201205230730 METAR LMML NIL=
201205230715 METAR LMML 230715Z 25008KT 180V290 9999 FEW025 20/12 Q1017
                        NOSIG=
201205230700 METAR LMML NIL=
201205230645 METAR LMML 230645Z 27007KT 240V300 9999 FEW025 20/12 Q1016
                        NOSIG=
201205230630 METAR LMML NIL=
201205230615 METAR LMML 230615Z 27007KT 230V310 9999 FEW025 19/12 Q1017
                        NOSIG=
201205230600 METAR LMML NIL=
201205230545 METAR LMML 230545Z 27005KT 230V310 CAVOK 19/13 Q1016 NOSIG=
201205230530 METAR LMML NIL=
201205230515 METAR LMML 230515Z 26003KT 9999 FEW020 18/14 Q1016 NOSIG=
201205230500 METAR LMML NIL=
201205230445 METAR LMML 230445Z 27003KT 9999 FEW015 17/14 Q1016 NOSIG=
201205230430 METAR LMML NIL=
201205230415 METAR LMML 230415Z 28006KT 9999 FEW015 16/13 Q1017 NOSIG=
201205230400 METAR LMML NIL=
201205230345 METAR LMML 230345Z 29004KT 9999 FEW015 16/14 Q1017 NOSIG=
201205230330 METAR LMML NIL=
201205230315 METAR LMML 230315Z 27004KT 240V300 9999 FEW015 16/14 Q1016
                        NOSIG=
201205230300 METAR LMML NIL=
201205230245 METAR LMML 230245Z 26004KT 230V290 9999 FEW015 16/15 Q1016
                        NOSIG=
201205230230 METAR LMML NIL=
201205230215 METAR LMML 230215Z 25004KT 9999 FEW015 16/15 Q1016 NOSIG=
201205230200 METAR LMML NIL=
201205230145 METAR LMML 230145Z VRB02KT 9999 FEW015 16/15 Q1017 NOSIG=
201205230130 METAR LMML NIL=
201205230115 METAR LMML 230115Z 27003KT CAVOK 16/15 Q1017 NOSIG=
201205230100 METAR LMML NIL=
201205230045 METAR LMML 230045Z 26004KT 230V290 CAVOK 16/15 Q1017 NOSIG=
201205230030 METAR LMML NIL=
201205230015 METAR LMML 230015Z 25003KT CAVOK 16/15 Q1017 NOSIG=
201205230000 METAR LMML NIL=
201205222345 METAR LMML 222345Z 25004KT 220V280 CAVOK 16/15 Q1017 NOSIG=
201205222330 METAR LMML NIL=
201205222315 METAR LMML 222315Z 27003KT CAVOK 16/14 Q1017 NOSIG=
201205222300 METAR LMML NIL=
201205222245 METAR LMML 222245Z 27005KT CAVOK 17/15 Q1017 NOSIG=
201205222230 METAR LMML NIL=
201205222215 METAR LMML 222215Z 26004KT 230V290 CAVOK 17/15 Q1017 NOSIG=
201205222200 METAR LMML NIL=
201205222145 METAR LMML 222145Z 28006KT CAVOK 17/15 Q1018 NOSIG=
201205222130 METAR LMML NIL=
201205222115 METAR LMML 222115Z 25004KT 220V290 CAVOK 17/15 Q1018 NOSIG=
201205222100 METAR LMML NIL=
201205222045 METAR LMML 222045Z 25005KT 210V280 CAVOK 17/15 Q1018 NOSIG=
201205222015 METAR LMML 222015Z 24005KT 210V270 CAVOK 17/15 Q1018 NOSIG=
201205222000 METAR LMML NIL=
201205221945 METAR LMML 221945Z 24005KT 200V270 CAVOK 18/15 Q1017 NOSIG=
201205221930 METAR LMML NIL=
201205221915 METAR LMML 221915Z 23009KT 200V260 CAVOK 18/14 Q1017 NOSIG=
201205221845 METAR LMML 221845Z 29009KT CAVOK 18/14 Q1017 NOSIG=
201205221830 METAR LMML NIL=
201205221815 METAR LMML 221815Z 24010KT 180V280 9999 FEW030 18/14 Q1017
                        NOSIG=
201205221800 METAR LMML NIL=
201205221745 METAR LMML 221745Z 24011KT 210V270 9999 FEW030 19/14 Q1017
                        NOSIG=
201205221730 METAR LMML NIL=
201205221715 METAR LMML 221715Z 23011KT 200V280 9999 FEW030 19/13 Q1016
                        NOSIG=
201205221700 METAR LMML NIL=
201205221645 METAR LMML 221645Z 24013KT 200V280 9999 FEW030 20/13 Q1016
                        NOSIG=
201205221630 METAR LMML NIL=
201205221615 METAR LMML 221615Z 24013KT 210V290 9999 FEW030 20/12 Q1016
                        NOSIG=
201205221600 METAR LMML NIL=
201205221545 METAR LMML 221545Z 25012KT 210V290 9999 FEW033 21/12 Q1016
                        NOSIG=
201205221530 METAR LMML NIL=
201205221515 METAR LMML 221515Z 25013KT 210V280 9999 FEW033 22/12 Q1017
                        NOSIG=
201205221500 METAR LMML NIL=
201205221445 METAR LMML 221445Z 25017KT 220V280 9999 FEW033 21/10 Q1016
                        NOSIG=
201205221430 METAR LMML NIL=
201205221415 METAR LMML 221415Z 25014KT 210V290 9999 FEW033 22/11 Q1017
                        NOSIG=
201205221400 METAR LMML NIL=
201205221345 METAR LMML 221345Z 26017KT 220V290 9999 FEW033 21/10 Q1017
                        TEMPO CAVOK=
201205221330 METAR LMML NIL=
201205221315 METAR LMML 221315Z 27017KT 240V300 9999 FEW033 21/10 Q1017
                        TEMPO CAVOK=
201205221300 METAR LMML NIL=
201205221245 METAR LMML 221245Z 25012KT 200V290 9999 FEW033 22/10 Q1017
                        TEMPO CAVOK=
201205221230 METAR LMML NIL=
201205221215 METAR LMML 221215Z 25014KT 210V300 CAVOK 22/09 Q1017 TEMPO
                        CAVOK=
201205221200 METAR LMML NIL=
201205221145 METAR LMML 221145Z 27014G24KT 230V300 9999 FEW033 21/09 Q1017
                        TEMPO CAVOK=
201205221130 METAR LMML NIL=
201205221115 METAR LMML 221115Z 26015G25KT 220V290 9999 FEW033 21/09 Q1017
                        TEMPO CAVOK=
201205221100 METAR LMML NIL=
201205221045 METAR LMML 221045Z 26015KT 240V300 9999 FEW033 21/10 Q1017
                        NOSIG=
201205221030 METAR LMML NIL=
201205221015 METAR LMML 221015Z 25016KT 220V290 9999 FEW039 21/11 Q1017
                        NOSIG=
201205221000 METAR LMML NIL=
201205220945 METAR LMML 220945Z 27018KT 210V300 9999 FEW037 21/09 Q1017
                        NOSIG=
201205220930 METAR LMML NIL=
201205220915 METAR LMML 220915Z 27017KT 240V310 9999 FEW036 21/10 Q1017
                        NOSIG=
201205220900 METAR LMML NIL=
201205220845 METAR LMML 220845Z 28015KT 240V300 9999 FEW035 21/10 Q1017
                        NOSIG=
201205220830 METAR LMML NIL=
201205220815 METAR LMML 220815Z 27014KT 240V310 9999 FEW034 20/10 Q1017
                        NOSIG=
201205220800 METAR LMML NIL=
201205220745 METAR LMML 220745Z 27014KT 240V300 9999 FEW031 19/10 Q1017
                        NOSIG=
201205220730 METAR LMML NIL=
201205220715 METAR LMML 220715Z 27015KT 240V300 9999 SCT031 18/11 Q1016
                        NOSIG=
201205220700 METAR LMML NIL=
201205220645 METAR LMML 220645Z 28014KT 230V310 9999 SCT029 19/11 Q1016
                        NOSIG=
201205220630 METAR LMML NIL=
201205220615 METAR LMML 220615Z 28015KT 230V300 9999 SCT030 18/10 Q1016
                        NOSIG=
201205220600 METAR LMML NIL=
201205220545 METAR LMML 220545Z 28015KT 250V310 9999 SCT033 18/10 Q1016
                        NOSIG=
201205220530 METAR LMML NIL=
201205220515 METAR LMML 220515Z 28011KT 250V310 9999 FEW035 17/10 Q1015
                        NOSIG=
201205220500 METAR LMML NIL=
201205220445 METAR LMML 220445Z 28010KT 9999 FEW027 16/10 Q1015 NOSIG=
201205220430 METAR LMML NIL=
201205220415 METAR LMML 220415Z 28012KT 250V310 9999 FEW027 16/10 Q1015
                        NOSIG=
201205220400 METAR LMML NIL=
201205220345 METAR LMML 220345Z 28009KT 250V310 9999 FEW020 16/10 Q1015
                        NOSIG=
201205220330 METAR LMML NIL=
201205220315 METAR LMML 220315Z 28010KT CAVOK 16/10 Q1015 NOSIG=
201205220300 METAR LMML NIL=
201205220245 METAR LMML 220245Z 29009KT 250V310 CAVOK 16/11 Q1015 NOSIG=
201205220230 METAR LMML NIL=
201205220215 METAR LMML 220215Z 29012KT CAVOK 16/10 Q1015 NOSIG=
201205220200 METAR LMML NIL=
201205220145 METAR LMML 220145Z 29011KT 260V320 CAVOK 16/11 Q1015 NOSIG=
201205220130 METAR LMML NIL=
201205220115 METAR LMML 220115Z 29012KT CAVOK 16/11 Q1015 NOSIG=
201205220100 METAR LMML NIL=
201205220045 METAR LMML 220045Z 29011KT CAVOK 16/12 Q1015 NOSIG=
201205220030 METAR LMML NIL=
201205220015 METAR LMML 220015Z 30012KT 260V320 CAVOK 16/11 Q1014 NOSIG=
201205220000 METAR LMML NIL=
201205212345 METAR LMML 212345Z 30013KT CAVOK 16/11 Q1014 NOSIG=
201205212330 METAR LMML NIL=
201205212315 METAR LMML 212315Z 31013KT CAVOK 16/11 Q1015 NOSIG=
201205212300 METAR LMML NIL=
201205212245 METAR LMML 212245Z 31015KT 280V340 CAVOK 17/10 Q1014 NOSIG=
201205212230 METAR LMML NIL=
201205212215 METAR LMML 212215Z 31014KT CAVOK 17/11 Q1014 NOSIG=
201205212200 METAR LMML NIL=
201205212145 METAR LMML 212145Z 31014KT CAVOK 17/11 Q1014 NOSIG=
201205212130 METAR LMML NIL=
201205212115 METAR LMML 212115Z 31013KT CAVOK 17/11 Q1013 NOSIG=
201205212100 METAR LMML NIL=
201205212045 METAR LMML 212045Z 31013KT CAVOK 17/09 Q1013 NOSIG=
201205212030 METAR LMML NIL=
201205212015 METAR LMML 212015Z 32013KT CAVOK 17/09 Q1013 NOSIG=
201205212000 METAR LMML NIL=
201205211945 METAR LMML 211945Z 32013KT CAVOK 17/11 Q1012 NOSIG=
201205211930 METAR LMML NIL=
201205211915 METAR LMML 211915Z 31011KT CAVOK 17/11 Q1012 NOSIG=
201205211900 METAR LMML NIL=
201205211845 METAR LMML 211845Z 31011KT CAVOK 17/11 Q1011 NOSIG=
201205211830 METAR LMML NIL=
201205211815 METAR LMML 211815Z 31013KT CAVOK 18/11 Q1011 NOSIG=
201205211800 METAR LMML NIL=
201205211745 METAR LMML 211745Z 32015KT CAVOK 19/11 Q1011 NOSIG=
201205211730 METAR LMML NIL=
201205211715 METAR LMML 211715Z 31013KT CAVOK 19/12 Q1011 NOSIG=
201205211700 METAR LMML NIL=
201205211645 METAR LMML 211645Z 31019KT CAVOK 20/11 Q1010 NOSIG=
201205211630 METAR LMML NIL=
201205211615 METAR LMML 211615Z 31022KT 280V340 CAVOK 20/12 Q1010 NOSIG=
201205211600 METAR LMML NIL=
201205211545 METAR LMML 211545Z 30021KT CAVOK 20/12 Q1010 NOSIG=
201205211530 METAR LMML NIL=
201205211515 METAR LMML 211515Z 31020KT CAVOK 21/12 Q1010 NOSIG=
201205211500 METAR LMML NIL=
201205211445 METAR LMML 211445Z 30021KT CAVOK 21/12 Q1010 NOSIG=
201205211430 METAR LMML NIL=
201205211415 METAR LMML 211415Z 30019KT CAVOK 22/12 Q1010 NOSIG=
201205211400 METAR LMML NIL=
201205211345 METAR LMML 211345Z 30021KT CAVOK 22/11 Q1010 NOSIG=
201205211330 METAR LMML NIL=
201205211315 METAR LMML 211315Z 30020KT CAVOK 22/12 Q1009 NOSIG=
201205211300 METAR LMML NIL=
201205211245 METAR LMML 211245Z 31021KT 280V340 9999 FEW025 BKN250 22/12
                        Q1009 NOSIG=
201205211230 METAR LMML NIL=
201205211215 METAR LMML 211215Z 30020KT 250V330 9999 FEW025 BKN250 22/13
                        Q1009 NOSIG=
201205211200 METAR LMML NIL=
201205211145 METAR LMML 211145Z 30019KT 260V330 9999 FEW025 BKN250 22/15
                        Q1009 NOSIG=
201205211130 METAR LMML NIL=
201205211115 METAR LMML 211115Z 30018KT 260V330 9999 FEW020 BKN250 23/14
                        Q1009 NOSIG=
201205211100 METAR LMML NIL=
201205211045 METAR LMML 211045Z 30017KT 270V330 CAVOK 23/14 Q1008 NOSIG=
201205211030 METAR LMML NIL=
201205211015 METAR LMML 211015Z 32017KT CAVOK 23/13 Q1008 NOSIG=
201205211000 METAR LMML NIL=
201205210945 METAR LMML 210945Z 32017KT 280V340 CAVOK 23/13 Q1008 NOSIG=
201205210930 METAR LMML NIL=
201205210915 METAR LMML 210915Z 33018KT CAVOK 23/12 Q1008 NOSIG=
201205210900 METAR LMML NIL=
201205210845 METAR LMML 210845Z 33018KT CAVOK 22/13 Q1007 NOSIG=
201205210830 METAR LMML NIL=
201205210815 METAR LMML 210815Z 32019KT 9999 FEW020 BKN250 21/13 Q1007
                        NOSIG=
201205210800 METAR LMML NIL=
201205210745 METAR LMML 210745Z 33016KT 9999 FEW020 BKN250 21/14 Q1007
                        NOSIG=
201205210715 METAR LMML 210715Z 34014KT 310V010 9999 FEW019 BKN150 20/14
                        Q1006 NOSIG=
201205210700 METAR LMML NIL=
201205210645 METAR LMML 210645Z 35016KT 320V020 9999 FEW019 BKN130 19/13
                        Q1006 NOSIG=
201205210630 METAR LMML NIL=
201205210615 METAR LMML 210615Z 35018KT 9999 SCT014 BKN130 18/14 Q1005
                        NOSIG=
201205210600 METAR LMML NIL=
201205210545 METAR LMML 210545Z 35015KT 9000 BKN013 BKN130 18/15 Q1006
                        NOSIG=
201205210530 METAR LMML NIL=
201205210515 METAR LMML 210515Z 01018KT 9000 FEW013 BKN130 18/15 Q1004
                        NOSIG=
201205210445 METAR LMML 210445Z 02015KT 350V050 9000 FEW013 BKN130 BKN250
                        18/15 Q1004 NOSIG=
201205210430 METAR LMML NIL=
201205210415 METAR LMML 210415Z 04015G26KT 360V080 9000 FEW015 BKN130
                        BKN250 18/15 Q1003 NOSIG=
201205210400 METAR LMML NIL=
201205210345 METAR LMML 210345Z 02012KT 350V070 9999 FEW020 BKN130 BKN250
                        18/15 Q1004 NOSIG=
201205210330 METAR LMML NIL=
201205210315 METAR LMML 210315Z 05013KT 010V080 9999 FEW020 BKN130 BKN250
                        18/15 Q1003 TEMPO 02017G27KT=
201205210300 METAR LMML NIL=
201205210245 METAR LMML 210245Z 07016G27KT 020V090 CAVOK 18/15 Q1002 NOSIG=
201205210230 METAR LMML NIL=
201205210215 METAR LMML 210215Z 04016KT 010V080 CAVOK 18/15 Q1003 TEMPO
                        02017G27KT=
201205210200 METAR LMML NIL=
201205210145 METAR LMML 210145Z 34015KT CAVOK 18/15 Q1006 TEMPO 02017G27KT=
201205210130 METAR LMML NIL=
201205210115 METAR LMML 210115Z 06016KT 030V100 CAVOK 18/15 Q1002 TEMPO
                        04017G27KT=
201205210100 METAR LMML NIL=
201205210045 METAR LMML 210045Z 05013G25KT 010V100 9999 FEW029 BKN130
                        BKN250 18/15 Q1003 NOSIG=
201205210030 METAR LMML NIL=
201205210015 METAR LMML 210015Z 04012KT 010V080 9999 FEW029 BKN130 18/15
                        Q1004 NOSIG=
201205210000 METAR LMML NIL=
201205202345 METAR LMML 202345Z 02012KT 330V070 CAVOK 18/16 Q1005 NOSIG=
201205202330 METAR LMML NIL=
201205202315 METAR LMML 202315Z 03009KT 350V070 CAVOK 18/16 Q1005 NOSIG=
201205202300 METAR LMML NIL=
201205202245 METAR LMML 202245Z 05010KT 020V080 CAVOK 19/16 Q1004 NOSIG=
201205202230 METAR LMML NIL=
201205202215 METAR LMML 202215Z 08012KT 050V110 CAVOK 19/16 Q1004 NOSIG=
201205202200 METAR LMML NIL=
201205202145 METAR LMML 202145Z 10016KT 070V130 CAVOK 19/16 Q1003 NOSIG=
201205202130 METAR LMML NIL=
201205202115 METAR LMML 202115Z 10014KT 060V130 CAVOK 19/16 Q1005 NOSIG=
201205202100 METAR LMML NIL=
201205202045 METAR LMML 202045Z 09012KT 060V130 CAVOK 19/16 Q1006 NOSIG=
201205202030 METAR LMML NIL=
201205202015 METAR LMML 202015Z 09012KT 060V130 CAVOK 19/16 Q1006 TEMPO
                        09015G25KT=
201205202000 METAR LMML NIL=
201205201945 METAR LMML 201945Z 09015KT 060V120 CAVOK 19/16 Q1005 TEMPO
                        09015G25KT=
201205201930 METAR LMML NIL=
201205201915 METAR LMML 201915Z 09013KT CAVOK 18/16 Q1006 TEMPO 09015G25KT=
201205201900 METAR LMML NIL=
201205201845 METAR LMML 201845Z 09014KT 060V120 CAVOK 18/15 Q1006 NOSIG=
201205201830 METAR LMML NIL=
201205201815 METAR LMML 201815Z 10014KT CAVOK 18/15 Q1006 NOSIG=
201205201800 METAR LMML NIL=
201205201745 METAR LMML 201745Z 10015KT CAVOK 18/15 Q1006 TEMPO 09018G28KT=
201205201730 METAR LMML NIL=
201205201715 METAR LMML 201715Z 09017KT 060V120 CAVOK 19/15 Q1006 TEMPO
                        09018G28KT=
201205201645 METAR LMML 201645Z 09017G30KT 060V120 CAVOK 19/15 Q1006 TEMPO
                        09018G28KT=
201205201630 METAR LMML NIL=
201205201615 METAR LMML 201615Z 09016KT 050V120 CAVOK 19/15 Q1007 NOSIG=
201205201600 METAR LMML NIL=
201205201545 METAR LMML 201545Z 09016KT CAVOK 19/15 Q1008 NOSIG=
201205201530 METAR LMML NIL=
201205201515 METAR LMML 201515Z 09017KT CAVOK 20/15 Q1008 NOSIG=
201205201500 METAR LMML NIL=
201205201445 METAR LMML 201445Z 09017KT CAVOK 20/15 Q1008 NOSIG=
201205201430 METAR LMML NIL=
201205201415 METAR LMML 201415Z 10015KT CAVOK 19/15 Q1009 NOSIG=
201205201400 METAR LMML NIL=
201205201345 METAR LMML 201345Z 09015G25KT CAVOK 20/15 Q1009 NOSIG=
201205201330 METAR LMML NIL=
201205201315 METAR LMML 201315Z 10013KT 070V130 CAVOK 20/15 Q1010 NOSIG=
201205201300 METAR LMML NIL=
201205201245 METAR LMML 201245Z 11014KT 070V140 CAVOK 21/15 Q1011 NOSIG=
201205201230 METAR LMML NIL=
201205201215 METAR LMML 201215Z 10014KT CAVOK 20/15 Q1011 NOSIG=
201205201200 METAR LMML NIL=
201205201145 METAR LMML 201145Z 10014KT 070V140 CAVOK 20/15 Q1011 NOSIG=
201205201130 METAR LMML NIL=
201205201115 METAR LMML 201115Z 10016KT 070V130 CAVOK 20/14 Q1010 NOSIG=
201205201100 METAR LMML NIL=
201205201045 METAR LMML 201045Z 10016KT CAVOK 20/14 Q1010 NOSIG=
201205201030 METAR LMML NIL=
201205201015 METAR LMML 201015Z 09015KT 060V120 CAVOK 19/15 Q1012 NOSIG=
201205201000 METAR LMML NIL=
201205200945 METAR LMML 200945Z 10011KT 060V120 CAVOK 20/15 Q1013 NOSIG=
201205200930 METAR LMML NIL=
201205200915 METAR LMML 200915Z 10011KT 070V140 CAVOK 20/15 Q1013 NOSIG=
201205200900 METAR LMML NIL=
201205200845 METAR LMML 200845Z 09014KT CAVOK 19/15 Q1012 NOSIG=
201205200830 METAR LMML NIL=
201205200815 METAR LMML 200815Z 08014KT CAVOK 20/15 Q1012 NOSIG=
201205200800 METAR LMML NIL=
201205200745 METAR LMML 200745Z 09014KT CAVOK 19/15 Q1012 NOSIG=
201205200715 METAR LMML 200715Z 10014KT CAVOK 19/15 Q1012 NOSIG=
201205200700 METAR LMML NIL=
201205200645 METAR LMML 200645Z 10013KT CAVOK 19/15 Q1012 NOSIG=
201205200630 METAR LMML NIL=
201205200615 METAR LMML 200615Z 10011KT CAVOK 18/15 Q1013 NOSIG=
201205200600 METAR LMML NIL=
201205200545 METAR LMML 200545Z 09012KT 060V120 CAVOK 18/15 Q1013 NOSIG=
201205200530 METAR LMML NIL=
201205200515 METAR LMML 200515Z 10010KT CAVOK 18/15 Q1013 NOSIG=
201205200500 METAR LMML NIL=
201205200445 METAR LMML 200445Z 10010KT 070V130 CAVOK 18/15 Q1013 NOSIG=
201205200430 METAR LMML NIL=
201205200415 METAR LMML 200415Z 10009KT CAVOK 17/15 Q1013 NOSIG=
201205200400 METAR LMML NIL=
201205200345 METAR LMML 200345Z 10009KT CAVOK 17/15 Q1013 NOSIG=
201205200330 METAR LMML NIL=
201205200315 METAR LMML 200315Z 10009KT 9999 FEW012 BKN250 17/16 Q1013
                        NOSIG=
201205200300 METAR LMML NIL=
201205200245 METAR LMML 200245Z 10008KT 9999 FEW012 BKN250 17/15 Q1013
                        NOSIG=
201205200230 METAR LMML NIL=
201205200215 METAR LMML 200215Z 11009KT CAVOK 18/15 Q1013 NOSIG=
201205200200 METAR LMML NIL=
201205200145 METAR LMML 200145Z 10008KT CAVOK 17/15 Q1013 NOSIG=
201205200130 METAR LMML NIL=
201205200115 METAR LMML 200115Z 10008KT CAVOK 17/15 Q1013 NOSIG=
201205200100 METAR LMML NIL=
201205200045 METAR LMML 200045Z 12012KT CAVOK 17/15 Q1014 NOSIG=
201205200030 METAR LMML NIL=
201205200015 METAR LMML 200015Z 11010KT CAVOK 17/15 Q1014 NOSIG=
201205200000 METAR LMML NIL=
201205192345 METAR LMML 192345Z 11010KT CAVOK 17/15 Q1014 NOSIG=
201205192330 METAR LMML NIL=
201205192315 METAR LMML 192315Z 12011KT CAVOK 17/15 Q1014 NOSIG=
201205192300 METAR LMML NIL=
201205192245 METAR LMML 192245Z 11011KT 9999 FEW012 BKN250 17/15 Q1014
                        NOSIG=
201205192215 METAR LMML 192215Z 11009KT 9999 FEW012 SCT120 BKN250 18/15
                        Q1014 NOSIG=
201205192200 METAR LMML NIL=
201205192145 METAR LMML 192145Z 11011KT 080V140 9999 FEW010 SCT120 BKN250
                        18/15 Q1015 NOSIG=
201205192130 METAR LMML NIL=
201205192115 METAR LMML 192115Z 12013KT 9999 FEW010 BKN250 17/15 Q1015
                        NOSIG=
201205192100 METAR LMML NIL=
201205192045 METAR LMML 192045Z 11011KT 9999 FEW012 BKN250 17/15 Q1015
                        NOSIG=
201205192030 METAR LMML NIL=
201205192015 METAR LMML 192015Z 12013KT 9999 FEW012 BKN250 17/15 Q1015
                        NOSIG=
201205192000 METAR LMML NIL=
201205191945 METAR LMML 191945Z 12013KT 9999 FEW012 BKN250 18/15 Q1015
                        NOSIG=
201205191930 METAR LMML NIL=
201205191915 METAR LMML 191915Z 11009KT 080V140 9999 FEW012 BKN250 18/15
                        Q1014 NOSIG=
201205191845 METAR LMML 191845Z 11009KT 9999 FEW011 BKN250 18/15 Q1014
                        NOSIG=
201205191830 METAR LMML NIL=
201205191815 METAR LMML 191815Z 12011KT 9999 FEW011 BKN250 18/15 Q1014
                        NOSIG=
201205191800 METAR LMML NIL=
201205191745 METAR LMML 191745Z 11010KT 9999 FEW013 BKN250 18/15 Q1014
                        NOSIG=
201205191730 METAR LMML NIL=
201205191715 METAR LMML 191715Z 13011KT CAVOK 18/14 Q1014 NOSIG=
201205191645 METAR LMML 191645Z 12010KT CAVOK 19/14 Q1014 NOSIG=
201205191615 METAR LMML 191615Z 12013KT CAVOK 19/14 Q1014 NOSIG=
201205191600 METAR LMML NIL=
201205191545 METAR LMML 191545Z 12015KT CAVOK 20/14 Q1014 NOSIG=
201205191530 METAR LMML NIL=
201205191515 METAR LMML 191515Z 13012KT 090V160 CAVOK 21/14 Q1014 NOSIG=
201205191445 METAR LMML 191445Z 13014KT 090V150 CAVOK 21/14 Q1014 NOSIG=
201205191430 METAR LMML NIL=
201205191415 METAR LMML 191415Z 13014KT 100V170 CAVOK 21/13 Q1014 NOSIG=
201205191400 METAR LMML NIL=
201205191345 METAR LMML 191345Z 13014KT 100V160 CAVOK 21/13 Q1014 NOSIG=
201205191330 METAR LMML NIL=
201205191315 METAR LMML 191315Z 14014KT 110V180 CAVOK 21/13 Q1015 NOSIG=
201205191300 METAR LMML NIL=
201205191245 METAR LMML 191245Z 14015KT 110V170 CAVOK 21/13 Q1015 NOSIG=
201205191230 METAR LMML NIL=
201205191215 METAR LMML 191215Z 14015KT 100V170 CAVOK 21/13 Q1016 NOSIG=
201205191200 METAR LMML NIL=
201205191145 METAR LMML 191145Z 14013KT 100V170 CAVOK 22/12 Q1016 NOSIG=
201205191130 METAR LMML NIL=
201205191115 METAR LMML 191115Z 14013KT 110V180 CAVOK 21/12 Q1016 NOSIG=
201205191100 METAR LMML NIL=
201205191045 METAR LMML 191045Z 15014KT 120V180 CAVOK 21/13 Q1016 NOSIG=
201205191030 METAR LMML NIL=
201205191015 METAR LMML 191015Z 14012KT 110V180 CAVOK 21/13 Q1016 NOSIG=
201205191000 METAR LMML NIL=
201205190945 METAR LMML 190945Z 13013KT 100V160 CAVOK 19/13 Q1016 NOSIG=
201205190915 METAR LMML 190915Z 13010KT 100V160 CAVOK 18/12 Q1016 NOSIG=
201205190900 METAR LMML NIL=
201205190845 METAR LMML 190845Z 13011KT CAVOK 18/13 Q1016 NOSIG=
201205190830 METAR LMML NIL=
201205190815 METAR LMML 190815Z 13011KT 110V180 CAVOK 18/12 Q1016 NOSIG=
201205190800 METAR LMML NIL=
201205190745 METAR LMML 190745Z 14009KT 110V170 CAVOK 18/13 Q1016 NOSIG=
201205190730 METAR LMML NIL=
201205190715 METAR LMML 190715Z 14009KT 110V170 CAVOK 18/13 Q1016 NOSIG=
201205190700 METAR LMML NIL=
201205190645 METAR LMML 190645Z 13010KT CAVOK 18/13 Q1015 NOSIG=
201205190630 METAR LMML NIL=
201205190615 METAR LMML 190615Z 15007KT 120V180 9999 FEW015 BKN110 BKN250
                        17/13 Q1016 TEMPO CAVOK=
201205190600 METAR LMML NIL=
201205190545 METAR LMML 190545Z VRB02KT 9999 FEW015 BKN120 BKN250 17/13
                        Q1017 TEMPO CAVOK=
201205190530 METAR LMML NIL=
201205190515 METAR LMML 190515Z 16003KT 9999 FEW015 BKN120 17/13 Q1017
                        NOSIG=
201205190500 METAR LMML NIL=
201205190445 METAR LMML 190445Z 13004KT CAVOK 16/13 Q1016 NOSIG=
201205190430 METAR LMML NIL=
201205190415 METAR LMML 190415Z 24003KT CAVOK 15/13 Q1017 NOSIG=
201205190400 METAR LMML NIL=
201205190345 METAR LMML 190345Z 12004KT CAVOK 15/12 Q1016 NOSIG=
201205190330 METAR LMML NIL=
201205190315 METAR LMML 190315Z 12004KT CAVOK 14/12 Q1015 NOSIG=
201205190300 METAR LMML NIL=
201205190245 METAR LMML 190245Z 13004KT CAVOK 14/11 Q1015 NOSIG=
201205190230 METAR LMML NIL=
201205190215 METAR LMML 190215Z VRB02KT CAVOK 15/12 Q1016 NOSIG=
201205190200 METAR LMML NIL=
201205190145 METAR LMML 190145Z VRB02KT CAVOK 15/11 Q1016 NOSIG=
201205190130 METAR LMML NIL=
201205190115 METAR LMML 190115Z 17004KT CAVOK 15/10 Q1016 NOSIG=
201205190100 METAR LMML NIL=
201205190045 METAR LMML 190045Z 16003KT CAVOK 15/10 Q1015 NOSIG=
201205190030 METAR LMML NIL=
201205190015 METAR LMML 190015Z VRB02KT CAVOK 14/10 Q1016 NOSIG=
201205190000 METAR LMML NIL=
201205182345 METAR LMML 182345Z VRB02KT CAVOK 15/10 Q1016 NOSIG=
201205182330 METAR LMML NIL=
201205182315 METAR LMML 182315Z VRB01KT CAVOK 15/10 Q1016 NOSIG=
201205182300 METAR LMML NIL=
201205182245 METAR LMML 182245Z 09003KT CAVOK 16/09 Q1016 NOSIG=
201205182230 METAR LMML NIL=
201205182215 METAR LMML 182215Z 12005KT CAVOK 15/09 Q1016 NOSIG=
201205182200 METAR LMML NIL=
201205182145 METAR LMML 182145Z 09005KT 040V120 CAVOK 16/09 Q1016 NOSIG=
201205182130 METAR LMML NIL=
201205182115 METAR LMML 182115Z 08004KT 060V120 CAVOK 16/08 Q1016 NOSIG=
201205182100 METAR LMML NIL=
201205182045 METAR LMML 182045Z 08004KT CAVOK 16/08 Q1016 NOSIG=
201205182030 METAR LMML NIL=
201205182015 METAR LMML 182015Z 07003KT CAVOK 17/08 Q1016 NOSIG=
201205182000 METAR LMML NIL=
201205181945 METAR LMML 181945Z 09003KT CAVOK 16/08 Q1016 NOSIG=
201205181930 METAR LMML NIL=
201205181915 METAR LMML 181915Z VRB01KT CAVOK 16/09 Q1016 NOSIG=
201205181900 METAR LMML NIL=
201205181845 METAR LMML 181845Z VRB02KT CAVOK 17/09 Q1016 NOSIG=
201205181830 METAR LMML NIL=
201205181815 METAR LMML 181815Z VRB01KT CAVOK 17/09 Q1016 NOSIG=
201205181800 METAR LMML NIL=
201205181745 METAR LMML 181745Z 21003KT CAVOK 17/10 Q1016 NOSIG=
201205181730 METAR LMML NIL=
201205181715 METAR LMML 181715Z 21004KT 150V270 CAVOK 18/10 Q1016 NOSIG=
201205181700 METAR LMML NIL=
201205181645 METAR LMML 181645Z 21004KT 140V250 CAVOK 19/09 Q1015 NOSIG=
201205181630 METAR LMML NIL=
201205181615 METAR LMML 181615Z 20007KT 160V260 CAVOK 19/08 Q1015 NOSIG=
201205181600 METAR LMML NIL=
201205181545 METAR LMML 181545Z 20005KT 140V300 CAVOK 20/08 Q1015 NOSIG=
201205181530 METAR LMML NIL=
201205181515 METAR LMML 181515Z 20006KT 130V280 CAVOK 20/07 Q1015 NOSIG=
201205181500 METAR LMML NIL=
201205181445 METAR LMML 181445Z 17006KT 130V230 CAVOK 21/07 Q1015 NOSIG=
201205181430 METAR LMML NIL=
201205181415 METAR LMML 181415Z 19007KT 120V250 CAVOK 21/05 Q1015 NOSIG=
201205181400 METAR LMML NIL=
201205181345 METAR LMML 181345Z 20008KT 160V250 CAVOK 21/05 Q1016 NOSIG=
201205181330 METAR LMML NIL=
201205181315 METAR LMML 181315Z 19007KT 140V260 CAVOK 21/05 Q1016 NOSIG=
201205181300 METAR LMML NIL=
201205181245 METAR LMML 181245Z 20009KT 150V240 CAVOK 21/07 Q1016 NOSIG=
201205181230 METAR LMML NIL=
201205181215 METAR LMML 181215Z 17007KT 100V240 CAVOK 22/06 Q1016 NOSIG=
201205181200 METAR LMML NIL=
201205181145 METAR LMML 181145Z 11005KT 040V260 CAVOK 22/03 Q1016 NOSIG=
201205181130 METAR LMML NIL=
201205181115 METAR LMML 181115Z 13006KT 090V180 CAVOK 22/05 Q1016 NOSIG=
201205181100 METAR LMML NIL=
201205181045 METAR LMML 181045Z 08007KT 040V120 CAVOK 22/03 Q1016 NOSIG=
201205181030 METAR LMML NIL=
201205181015 METAR LMML 181015Z 08007KT 360V130 CAVOK 22/03 Q1016 NOSIG=
201205181000 METAR LMML NIL=
201205180945 METAR LMML 180945Z 09005KT 350V180 CAVOK 21/04 Q1016 NOSIG=
201205180930 METAR LMML NIL=
201205180915 METAR LMML 180915Z 33004KT 270V030 CAVOK 21/06 Q1016 NOSIG=
201205180900 METAR LMML NIL=
201205180845 METAR LMML 180845Z 01005KT 300V070 CAVOK 21/07 Q1016 NOSIG=
201205180830 METAR LMML NIL=
201205180815 METAR LMML 180815Z 03006KT 360V070 CAVOK 21/06 Q1016 NOSIG=
201205180800 METAR LMML NIL=
201205180745 METAR LMML 180745Z 03007KT CAVOK 20/07 Q1016 NOSIG=
201205180730 METAR LMML NIL=
201205180715 METAR LMML 180715Z 02006KT 350V050 CAVOK 19/08 Q1016 NOSIG=
201205180700 METAR LMML NIL=
201205180645 METAR LMML 180645Z 34005KT 300V040 CAVOK 18/08 Q1016 NOSIG=
201205180630 METAR LMML NIL=
201205180615 METAR LMML 180615Z 34005KT 290V050 CAVOK 17/09 Q1016 NOSIG=
201205180600 METAR LMML NIL=
201205180545 METAR LMML 180545Z 29004KT 260V340 CAVOK 16/09 Q1016 NOSIG=
201205180530 METAR LMML NIL=
201205180515 METAR LMML 180515Z 30005KT CAVOK 14/09 Q1015 NOSIG=
201205180500 METAR LMML NIL=
201205180445 METAR LMML 180445Z 29004KT 240V310 9999 FEW020 SCT250 13/08
                        Q1015 NOSIG=
201205180430 METAR LMML NIL=
201205180415 METAR LMML 180415Z 28003KT 9999 FEW020 13/08 Q1016 NOSIG=
201205180400 METAR LMML NIL=
201205180345 METAR LMML 180345Z 29004KT 9999 FEW020 13/08 Q1016 NOSIG=
201205180330 METAR LMML NIL=
201205180315 METAR LMML 180315Z 28005KT 250V310 CAVOK 13/07 Q1015 NOSIG=
201205180300 METAR LMML NIL=
201205180245 METAR LMML 180245Z 29003KT CAVOK 13/07 Q1015 NOSIG=
201205180230 METAR LMML NIL=
201205180215 METAR LMML 180215Z 28004KT CAVOK 13/07 Q1015 NOSIG=
201205180200 METAR LMML NIL=
201205180145 METAR LMML 180145Z 28003KT CAVOK 13/07 Q1015 NOSIG=
201205180130 METAR LMML NIL=
201205180115 METAR LMML 180115Z 32004KT CAVOK 13/07 Q1015 NOSIG=
201205180100 METAR LMML NIL=
201205180045 METAR LMML 180045Z 32004KT CAVOK 13/07 Q1015 NOSIG=
201205180030 METAR LMML NIL=
201205180015 METAR LMML 180015Z 31004KT CAVOK 14/06 Q1016 NOSIG=
201205180000 METAR LMML NIL=
201205172345 METAR LMML 172345Z 35004KT CAVOK 15/07 Q1016 NOSIG=
201205172330 METAR LMML NIL=
201205172315 METAR LMML 172315Z 01006KT CAVOK 15/06 Q1016 NOSIG=
201205172300 METAR LMML NIL=
201205172245 METAR LMML 172245Z 02006KT 340V070 CAVOK 16/07 Q1016 NOSIG=
201205172230 METAR LMML NIL=
201205172215 METAR LMML 172215Z 01007KT CAVOK 16/07 Q1016 NOSIG=
201205172200 METAR LMML NIL=
201205172145 METAR LMML 172145Z 34009KT CAVOK 16/08 Q1016 NOSIG=
201205172130 METAR LMML NIL=
201205172115 METAR LMML 172115Z 34009KT CAVOK 16/08 Q1016 NOSIG=
201205172100 METAR LMML NIL=
201205172045 METAR LMML 172045Z 33009KT CAVOK 16/07 Q1016 NOSIG=
201205172030 METAR LMML NIL=
201205172015 METAR LMML 172015Z 31010KT CAVOK 16/09 Q1015 NOSIG=
201205172000 METAR LMML NIL=
201205171945 METAR LMML 171945Z 30008KT CAVOK 16/09 Q1015 NOSIG=
201205171930 METAR LMML NIL=
201205171915 METAR LMML 171915Z 31010KT CAVOK 16/10 Q1015 NOSIG=
201205171900 METAR LMML NIL=
201205171845 METAR LMML 171845Z 30011KT 280V340 CAVOK 17/09 Q1015 NOSIG=
201205171830 METAR LMML NIL=
201205171815 METAR LMML 171815Z 31011KT CAVOK 17/08 Q1015 NOSIG=
201205171800 METAR LMML NIL=
201205171745 METAR LMML 171745Z 31014KT 280V340 CAVOK 18/09 Q1015 NOSIG=
201205171730 METAR LMML NIL=
201205171715 METAR LMML 171715Z 30013KT 270V330 CAVOK 19/09 Q1014 NOSIG=
201205171700 METAR LMML NIL=
201205171645 METAR LMML 171645Z 31017KT 270V330 CAVOK 19/09 Q1014 NOSIG=
201205171630 METAR LMML NIL=
201205171615 METAR LMML 171615Z 31017KT CAVOK 20/09 Q1014 NOSIG=
201205171600 METAR LMML NIL=
201205171545 METAR LMML 171545Z 29016KT 260V330 9999 FEW040 20/10 Q1014
                        NOSIG=
201205171530 METAR LMML NIL=
201205171515 METAR LMML 171515Z 29019KT 9999 FEW045 20/11 Q1015 NOSIG=
201205171500 METAR LMML NIL=
201205171445 METAR LMML 171445Z 28020KT 250V310 9999 FEW045 20/10 Q1015
                        NOSIG=
201205171430 METAR LMML NIL=
201205171415 METAR LMML 171415Z 29018KT 260V320 9999 FEW045 21/10 Q1015
                        NOSIG=
201205171400 METAR LMML NIL=
201205171345 METAR LMML 171345Z 29017KT 260V330 9999 FEW045 21/09 Q1015
                        NOSIG=
201205171330 METAR LMML NIL=
201205171315 METAR LMML 171315Z 29022KT 260V320 CAVOK 21/08 Q1016 NOSIG=
201205171300 METAR LMML NIL=
201205171245 METAR LMML 171245Z 29020KT 250V320 9999 FEW045 21/09 Q1015
                        NOSIG=
201205171230 METAR LMML NIL=
201205171215 METAR LMML 171215Z 28019KT 9999 FEW045 21/09 Q1016 NOSIG=
201205171200 METAR LMML NIL=
201205171145 METAR LMML 171145Z 29019KT 9999 FEW045 21/06 Q1016 NOSIG=
201205171130 METAR LMML NIL=
201205171115 METAR LMML 171115Z 28020KT 9999 FEW045 21/08 Q1016 NOSIG=
201205171100 METAR LMML NIL=
201205171045 METAR LMML 171045Z 28020KT 9999 FEW045 21/07 Q1016 NOSIG=
201205171030 METAR LMML NIL=
201205171015 METAR LMML 171015Z 29016KT 260V340 9999 FEW045 22/07 Q1016
                        NOSIG=
201205171000 METAR LMML NIL=
201205170945 METAR LMML 170945Z 28021KT 9999 FEW042 20/08 Q1016 NOSIG=
201205170930 METAR LMML NIL=
201205170915 METAR LMML 170915Z 30017KT 9999 FEW042 21/09 Q1016 NOSIG=
201205170900 METAR LMML NIL=
201205170845 METAR LMML 170845Z 31017KT 290V350 9999 FEW039 20/08 Q1016
                        NOSIG=
201205170830 METAR LMML NIL=
201205170815 METAR LMML 170815Z 32015KT 290V360 9999 FEW035 20/09 Q1015
                        NOSIG=
201205170800 METAR LMML NIL=
201205170745 METAR LMML 170745Z 32016KT 290V350 9999 FEW020 20/09 Q1015
                        NOSIG=
201205170730 METAR LMML NIL=
201205170715 METAR LMML 170715Z 31016KT 280V340 9999 FEW022 19/09 Q1015
                        NOSIG=
201205170700 METAR LMML NIL=
201205170645 METAR LMML 170645Z 32014KT 290V350 9999 FEW020 19/09 Q1015
                        NOSIG=
201205170630 METAR LMML NIL=
201205170615 METAR LMML 170615Z 31014KT 9999 FEW022 18/10 Q1015 NOSIG=
201205170600 METAR LMML NIL=
201205170545 METAR LMML 170545Z 31013KT 9999 FEW022 17/09 Q1015 NOSIG=
201205170530 METAR LMML NIL=
201205170515 METAR LMML 170515Z 31011KT 9999 FEW022 16/09 Q1015 NOSIG=
201205170500 METAR LMML NIL=
201205170445 METAR LMML 170445Z 30010KT 9999 FEW022 15/09 Q1015 NOSIG=
201205170430 METAR LMML NIL=
201205170415 METAR LMML 170415Z 30011KT 9999 FEW022 15/09 Q1015 NOSIG=
201205170400 METAR LMML NIL=
201205170345 METAR LMML 170345Z 30011KT 9999 FEW022 15/10 Q1014 NOSIG=
201205170330 METAR LMML NIL=
201205170315 METAR LMML 170315Z 31010KT 9999 FEW022 15/10 Q1014 NOSIG=
201205170245 METAR LMML 170245Z 30012KT 270V330 9999 FEW022 15/11 Q1014
                        NOSIG=
201205170230 METAR LMML NIL=
201205170215 METAR LMML 170215Z 30014KT 260V320 9999 FEW022 16/11 Q1014
                        NOSIG=
201205170200 METAR LMML NIL=
201205170145 METAR LMML 170145Z 30016KT 9999 FEW025 16/11 Q1014 NOSIG=
201205170130 METAR LMML NIL=
201205170115 METAR LMML 170115Z 30013KT 260V320 9999 FEW027 15/10 Q1014
                        NOSIG=
201205170100 METAR LMML NIL=
201205170045 METAR LMML 170045Z 30018KT 9999 FEW025 15/10 Q1015 NOSIG=
201205170030 METAR LMML NIL=
201205170015 METAR LMML 170015Z 29013KT 260V320 9999 FEW025 15/10 Q1014
                        NOSIG=
201205170000 METAR LMML NIL=
201205162345 METAR LMML 162345Z 30014KT 270V330 9999 FEW025 15/11 Q1015
                        NOSIG=
201205162330 METAR LMML NIL=
201205162315 METAR LMML 162315Z 31014KT 9999 FEW025 16/10 Q1015 NOSIG=
201205162300 METAR LMML NIL=
201205162245 METAR LMML 162245Z 30013KT 9999 FEW024 16/10 Q1015 NOSIG=
201205162230 METAR LMML NIL=
201205162215 METAR LMML 162215Z 30015KT 270V330 9999 FEW020 16/10 Q1015
                        NOSIG=
201205162200 METAR LMML NIL=
201205162145 METAR LMML 162145Z 30018KT CAVOK 16/10 Q1015 NOSIG=
201205162115 METAR LMML 162115Z 30017KT CAVOK 16/10 Q1015 NOSIG=
201205162100 METAR LMML NIL=
201205162045 METAR LMML 162045Z 30015KT CAVOK 16/10 Q1015 NOSIG=
201205162030 METAR LMML NIL=
201205162015 METAR LMML 162015Z 30014KT CAVOK 17/11 Q1015 NOSIG=
201205162000 METAR LMML NIL=
201205161945 METAR LMML 161945Z 30015KT 250V330 9999 FEW029 17/11 Q1015
                        NOSIG=
201205161930 METAR LMML NIL=
201205161915 METAR LMML 161915Z 31016KT 9999 FEW029 17/11 Q1015 NOSIG=
201205161900 METAR LMML NIL=
201205161845 METAR LMML 161845Z 30016KT 270V330 9999 FEW029 17/10 Q1015
                        NOSIG=
201205161830 METAR LMML NIL=
201205161815 METAR LMML 161815Z 29016KT 260V330 9999 FEW025 17/11 Q1015
                        NOSIG=
201205161800 METAR LMML NIL=
201205161745 METAR LMML 161745Z 30016KT 270V330 9999 FEW025 18/11 Q1015
                        NOSIG=
201205161730 METAR LMML NIL=
201205161715 METAR LMML 161715Z 29020G31KT CAVOK 18/11 Q1014 NOSIG=
201205161700 METAR LMML NIL=
201205161645 METAR LMML 161645Z 29021G33KT 260V330 CAVOK 19/11 Q1014 NOSIG=
201205161630 METAR LMML NIL=
201205161615 METAR LMML 161615Z 30022G34KT CAVOK 20/10 Q1015 NOSIG=
201205161600 METAR LMML NIL=
201205161545 METAR LMML 161545Z 29021KT 260V320 CAVOK 21/10 Q1015 TEMPO
                        29024G34KT=
201205161530 METAR LMML NIL=
201205161515 METAR LMML 161515Z 29024KT CAVOK 21/10 Q1015 TEMPO 29024G34KT=
201205161500 METAR LMML NIL=
201205161445 METAR LMML 161445Z 29023KT 260V320 9999 FEW027 21/11 Q1015
                        NOSIG=
201205161430 METAR LMML NIL=
201205161415 METAR LMML 161415Z 29022KT 9999 FEW027 22/12 Q1015 NOSIG=
201205161400 METAR LMML NIL=
201205161345 METAR LMML 161345Z 29021KT 260V320 9999 FEW027 22/11 Q1016
                        NOSIG=
201205161330 METAR LMML NIL=
201205161315 METAR LMML 161315Z 29017KT 260V320 9999 FEW027 22/13 Q1016
                        NOSIG=
201205161300 METAR LMML NIL=
201205161245 METAR LMML 161245Z 28023KT 9999 FEW024 22/12 Q1016 NOSIG=
201205161230 METAR LMML NIL=
201205161215 METAR LMML 161215Z 28019KT 240V320 9999 FEW024 22/13 Q1016
                        NOSIG=
201205161200 METAR LMML NIL=
201205161145 METAR LMML 161145Z 28018KT 250V320 9999 FEW023 22/13 Q1016
                        NOSIG=
201205161130 METAR LMML NIL=
201205161115 METAR LMML 161115Z 29020KT 9999 FEW022 22/13 Q1016 NOSIG=
201205161100 METAR LMML NIL=
201205161045 METAR LMML 161045Z 28018KT 9999 FEW023 22/14 Q1016 NOSIG=
201205161030 METAR LMML NIL=
201205161015 METAR LMML 161015Z 27014KT 230V300 CAVOK 22/13 Q1016 NOSIG=
201205161000 METAR LMML NIL=
201205160945 METAR LMML 160945Z 29016KT 260V320 9999 FEW023 22/13 Q1016
                        NOSIG=
201205160930 METAR LMML NIL=
201205160915 METAR LMML 160915Z 28014KT 240V320 9999 FEW023 21/13 Q1016
                        NOSIG=
201205160900 METAR LMML NIL=
201205160845 METAR LMML 160845Z 30013KT 260V320 9999 FEW020 22/13 Q1016
                        NOSIG=
201205160830 METAR LMML NIL=
201205160815 METAR LMML 160815Z 30014KT 270V330 9999 FEW020 21/13 Q1016
                        NOSIG=
201205160800 METAR LMML NIL=
201205160745 METAR LMML 160745Z 29014KT 260V320 9999 FEW020 20/13 Q1016
                        NOSIG=
201205160730 METAR LMML NIL=
201205160715 METAR LMML 160715Z 28013KT 9999 FEW020 20/13 Q1016 NOSIG=
201205160700 METAR LMML NIL=
201205160645 METAR LMML 160645Z 28013KT 9999 FEW018 19/13 Q1016 NOSIG=
201205160630 METAR LMML NIL=
201205160615 METAR LMML 160615Z 29014KT 9999 FEW019 19/13 Q1016 NOSIG=
201205160600 METAR LMML NIL=
201205160545 METAR LMML 160545Z 30012KT 9999 FEW017 18/13 Q1016 NOSIG=
201205160530 METAR LMML NIL=
201205160515 METAR LMML 160515Z 30011KT 9999 FEW017 17/13 Q1015 NOSIG=
201205160500 METAR LMML NIL=
201205160445 METAR LMML 160445Z 29009KT 9999 SCT017 16/13 Q1015 NOSIG=
201205160430 METAR LMML NIL=
201205160415 METAR LMML 160415Z 28007KT 240V320 9999 SCT014 14/12 Q1015
                        NOSIG=
201205160400 METAR LMML NIL=
201205160345 METAR LMML 160345Z 27003KT CAVOK 14/11 Q1015 NOSIG=
201205160330 METAR LMML NIL=
201205160315 METAR LMML 160315Z 28005KT CAVOK 14/11 Q1015 NOSIG=
201205160300 METAR LMML NIL=
201205160245 METAR LMML 160245Z 29005KT 260V330 CAVOK 14/12 Q1015 NOSIG=
201205160230 METAR LMML NIL=
201205160215 METAR LMML 160215Z 29007KT CAVOK 15/11 Q1014 NOSIG=
201205160200 METAR LMML NIL=
201205160145 METAR LMML 160145Z 29004KT CAVOK 15/11 Q1014 NOSIG=
201205160130 METAR LMML NIL=
201205160115 METAR LMML 160115Z VRB02KT CAVOK 15/11 Q1014 NOSIG=
201205160100 METAR LMML NIL=
201205160045 METAR LMML 160045Z 29006KT CAVOK 15/12 Q1015 NOSIG=
201205160015 METAR LMML 160015Z 31005KT CAVOK 15/11 Q1015 NOSIG=
201205160000 METAR LMML NIL=
201205152345 METAR LMML 152345Z 31007KT CAVOK 15/11 Q1015 NOSIG=
201205152330 METAR LMML NIL=
201205152315 METAR LMML 152315Z 30007KT CAVOK 16/11 Q1015 NOSIG=
201205152300 METAR LMML NIL=
201205152245 METAR LMML 152245Z 30009KT CAVOK 16/11 Q1015 NOSIG=
201205152230 METAR LMML NIL=
201205152215 METAR LMML 152215Z 32008KT CAVOK 16/11 Q1015 NOSIG=
201205152200 METAR LMML NIL=
201205152145 METAR LMML 152145Z 31011KT CAVOK 16/11 Q1015 NOSIG=
201205152130 METAR LMML NIL=
201205152115 METAR LMML 152115Z 31014KT CAVOK 16/11 Q1015 NOSIG=
201205152100 METAR LMML NIL=
201205152045 METAR LMML 152045Z 31013KT CAVOK 17/11 Q1015 NOSIG=
201205152030 METAR LMML NIL=
201205152015 METAR LMML 152015Z 30012KT CAVOK 17/11 Q1015 NOSIG=
201205152000 METAR LMML NIL=
201205151945 METAR LMML 151945Z 30011KT CAVOK 17/11 Q1015 NOSIG=
201205151930 METAR LMML NIL=
201205151915 METAR LMML 151915Z 31010KT CAVOK 17/11 Q1014 NOSIG=
201205151900 METAR LMML NIL=
201205151845 METAR LMML 151845Z 30011KT CAVOK 17/11 Q1014 NOSIG=
201205151830 METAR LMML NIL=
201205151815 METAR LMML 151815Z 30014KT CAVOK 17/11 Q1014 NOSIG=
201205151800 METAR LMML NIL=
201205151745 METAR LMML 151745Z 29013KT CAVOK 18/12 Q1014 NOSIG=
201205151730 METAR LMML NIL=
201205151715 METAR LMML 151715Z 29013KT 260V320 CAVOK 19/11 Q1014 NOSIG=
201205151700 METAR LMML NIL=
201205151645 METAR LMML 151645Z 29014KT 260V320 9999 FEW030 19/11 Q1013
                        NOSIG=
201205151630 METAR LMML NIL=
201205151615 METAR LMML 151615Z 29014KT 250V320 9999 FEW030 20/12 Q1013
                        NOSIG=
201205151600 METAR LMML NIL=
201205151545 METAR LMML 151545Z 28016KT 250V310 9999 FEW030 20/12 Q1013
                        NOSIG=
201205151530 METAR LMML NIL=
201205151515 METAR LMML 151515Z 28018KT 240V300 9999 FEW028 20/11 Q1013
                        NOSIG=
201205151500 METAR LMML NIL=
201205151445 METAR LMML 151445Z 28016KT 9999 FEW030 21/11 Q1013 NOSIG=
201205151430 METAR LMML NIL=
201205151415 METAR LMML 151415Z 28016KT 260V320 9999 FEW030 21/12 Q1013
                        NOSIG=
201205151400 METAR LMML NIL=
201205151345 METAR LMML 151345Z 30017KT 9999 FEW030 21/10 Q1014 NOSIG=
201205151330 METAR LMML NIL=
201205151315 METAR LMML 151315Z 28014KT 250V320 9999 FEW030 SCT120 21/10
                        Q1014 NOSIG=
201205151300 METAR LMML NIL=
201205151245 METAR LMML 151245Z 30015KT 270V330 9999 FEW030 SCT120 20/11
                        Q1014 NOSIG=
201205151230 METAR LMML NIL=
201205151215 METAR LMML 151215Z 30016KT 9999 FEW030 SCT120 21/10 Q1014
                        NOSIG=
201205151200 METAR LMML NIL=
201205151145 METAR LMML 151145Z 29014KT 260V320 9999 FEW029 SCT120 22/11
                        Q1014 NOSIG=
201205151130 METAR LMML NIL=
201205151115 METAR LMML 151115Z 30014KT CAVOK 22/10 Q1014 NOSIG=
201205151100 METAR LMML NIL=
201205151045 METAR LMML 151045Z 29013KT 250V330 9999 FEW030 21/10 Q1014
                        NOSIG=
201205151030 METAR LMML NIL=
201205151015 METAR LMML 151015Z 28011KT 240V310 9999 FEW030 22/11 Q1014
                        NOSIG=
201205151000 METAR LMML NIL=
201205150945 METAR LMML 150945Z 29011KT 250V330 9999 FEW030 21/11 Q1014
                        NOSIG=
201205150930 METAR LMML NIL=
201205150915 METAR LMML 150915Z 29012KT 250V330 9999 FEW030 21/11 Q1014
                        NOSIG=
201205150900 METAR LMML NIL=
201205150845 METAR LMML 150845Z 33011KT 290V360 9999 FEW030 21/11 Q1014
                        NOSIG=
201205150830 METAR LMML NIL=
201205150815 METAR LMML 150815Z 34011KT 300V010 9999 FEW030 21/11 Q1014
                        NOSIG=
201205150800 METAR LMML NIL=
201205150745 METAR LMML 150745Z 32011KT 290V350 9999 FEW030 20/11 Q1014
                        NOSIG=
201205150730 METAR LMML NIL=
201205150715 METAR LMML 150715Z 31011KT 270V350 CAVOK 20/10 Q1014 NOSIG=
201205150700 METAR LMML NIL=
201205150645 METAR LMML 150645Z 33011KT CAVOK 19/11 Q1014 NOSIG=
201205150630 METAR LMML NIL=
201205150615 METAR LMML 150615Z 32011KT CAVOK 19/11 Q1014 NOSIG=
201205150600 METAR LMML NIL=
201205150545 METAR LMML 150545Z 32009KT 290V350 CAVOK 18/11 Q1013 NOSIG=
201205150530 METAR LMML NIL=
201205150515 METAR LMML 150515Z 32005KT CAVOK 17/11 Q1013 NOSIG=
201205150500 METAR LMML NIL=
201205150445 METAR LMML 150445Z 31006KT CAVOK 16/10 Q1013 NOSIG=
201205150430 METAR LMML NIL=
201205150415 METAR LMML 150415Z 30007KT CAVOK 15/10 Q1013 NOSIG=
201205150400 METAR LMML NIL=
201205150345 METAR LMML 150345Z 30006KT CAVOK 15/10 Q1013 NOSIG=
201205150315 METAR LMML 150315Z 31007KT CAVOK 15/09 Q1013 NOSIG=
201205150300 METAR LMML NIL=
201205150245 METAR LMML 150245Z 30007KT CAVOK 15/09 Q1013 NOSIG=
201205150230 METAR LMML NIL=
201205150215 METAR LMML 150215Z 29007KT 260V320 CAVOK 15/10 Q1013 NOSIG=
201205150200 METAR LMML NIL=
201205150145 METAR LMML 150145Z 27006KT 240V300 CAVOK 15/11 Q1013 NOSIG=
201205150130 METAR LMML NIL=
201205150115 METAR LMML 150115Z 24005KT 210V280 CAVOK 15/11 Q1013 NOSIG=
201205150100 METAR LMML NIL=
201205150045 METAR LMML 150045Z 26005KT 230V290 CAVOK 15/11 Q1013 NOSIG=
201205150030 METAR LMML NIL=
201205150015 METAR LMML 150015Z 29005KT CAVOK 16/11 Q1013 NOSIG=
201205150000 METAR LMML NIL=
201205142345 METAR LMML 142345Z 29005KT 260V320 CAVOK 16/10 Q1013 NOSIG=
201205142330 METAR LMML NIL=
201205142315 METAR LMML 142315Z 29005KT CAVOK 16/09 Q1013 NOSIG=
201205142300 METAR LMML NIL=
201205142245 METAR LMML 142245Z 30006KT CAVOK 16/09 Q1013 NOSIG=
201205142230 METAR LMML NIL=
201205142215 METAR LMML 142215Z 30006KT CAVOK 16/10 Q1013 NOSIG=
201205142200 METAR LMML NIL=
201205142145 METAR LMML 142145Z 30006KT CAVOK 16/10 Q1013 NOSIG=
201205142130 METAR LMML NIL=
201205142115 METAR LMML 142115Z 29005KT 250V330 CAVOK 17/10 Q1013 NOSIG=
201205142100 METAR LMML NIL=
201205142045 METAR LMML 142045Z 32009KT CAVOK 17/09 Q1013 NOSIG=
201205142030 METAR LMML NIL=
201205142015 METAR LMML 142015Z 32009KT CAVOK 17/10 Q1012 NOSIG=
201205142000 METAR LMML NIL=
201205141945 METAR LMML 141945Z 31009KT 280V340 CAVOK 18/09 Q1012 NOSIG=
201205141930 METAR LMML NIL=
201205141915 METAR LMML 141915Z 29006KT 250V330 CAVOK 18/10 Q1012 NOSIG=
201205141900 METAR LMML NIL=
201205141845 METAR LMML 141845Z 29008KT CAVOK 18/11 Q1012 NOSIG=
201205141830 METAR LMML NIL=
201205141815 METAR LMML 141815Z 30011KT CAVOK 19/11 Q1012 NOSIG=
201205141800 METAR LMML NIL=
201205141745 METAR LMML 141745Z 30009KT 250V330 CAVOK 19/11 Q1011 NOSIG=
201205141730 METAR LMML NIL=
201205141715 METAR LMML 141715Z 30011KT 260V330 CAVOK 19/10 Q1011 NOSIG=
201205141700 METAR LMML NIL=
201205141645 METAR LMML 141645Z 30014KT CAVOK 20/12 Q1011 NOSIG=
201205141630 METAR LMML NIL=
201205141615 METAR LMML 141615Z 30017KT CAVOK 21/12 Q1011 NOSIG=
201205141545 METAR LMML 141545Z 29016KT 260V330 CAVOK 21/12 Q1011 NOSIG=
201205141530 METAR LMML NIL=
201205141515 METAR LMML 141515Z 29017KT 9999 FEW030 21/12 Q1011 NOSIG=
201205141500 METAR LMML NIL=
201205141445 METAR LMML 141445Z 30020KT 9999 FEW030 22/12 Q1011 NOSIG=
201205141430 METAR LMML NIL=
201205141415 METAR LMML 141415Z 30018KT 260V320 9999 FEW030 22/13 Q1011
                        NOSIG=
201205141400 METAR LMML NIL=
201205141345 METAR LMML 141345Z 29018KT 260V320 9999 FEW030 22/14 Q1011
                        NOSIG=
201205141330 METAR LMML NIL=
201205141315 METAR LMML 141315Z 29021KT 240V310 9999 FEW030 22/14 Q1011
                        NOSIG=
201205141300 METAR LMML NIL=
201205141245 METAR LMML 141245Z 28019KT 9999 FEW030 22/13 Q1012 NOSIG=
201205141230 METAR LMML NIL=
201205141215 METAR LMML 141215Z 28018KT 240V320 CAVOK 22/13 Q1012 NOSIG=
201205141200 METAR LMML NIL=
201205141145 METAR LMML 141145Z 28019G29KT CAVOK 22/13 Q1012 NOSIG=
201205141130 METAR LMML NIL=
201205141115 METAR LMML 141115Z 29020KT 250V310 CAVOK 22/13 Q1011 NOSIG=
201205141100 METAR LMML NIL=
201205141045 METAR LMML 141045Z 28018KT 240V310 CAVOK 23/14 Q1011 NOSIG=
201205141030 METAR LMML NIL=
201205141015 METAR LMML 141015Z 28021KT CAVOK 23/11 Q1011 NOSIG=
201205141000 METAR LMML NIL=
201205140945 METAR LMML 140945Z 28017KT 240V310 CAVOK 22/14 Q1011 NOSIG=
201205140930 METAR LMML NIL=
201205140915 METAR LMML 140915Z 28012KT CAVOK 21/14 Q1011 TEMPO 8000 RA=
201205140900 METAR LMML NIL=
201205140845 METAR LMML 140845Z 29013KT 260V320 CAVOK 22/13 Q1012 TEMPO
                        8000 RA=
201205140830 METAR LMML NIL=
201205140815 METAR LMML 140815Z 28010KT CAVOK 21/13 Q1012 TEMPO 8000 RA=
201205140800 METAR LMML NIL=
201205140745 METAR LMML 140745Z 30008KT CAVOK 21/13 Q1012 NOSIG=
201205140730 METAR LMML NIL=
201205140715 METAR LMML 140715Z 30012KT CAVOK 20/14 Q1012 NOSIG=
201205140700 METAR LMML NIL=
201205140645 METAR LMML 140645Z 30015KT 9999 -SHRA NSC 19/14 Q1013 NOSIG=
201205140630 METAR LMML NIL=
201205140615 METAR LMML 140615Z 30019KT CAVOK 20/14 Q1012 NOSIG=
201205140600 METAR LMML NIL=
201205140545 METAR LMML 140545Z 29018KT 260V320 CAVOK 19/14 Q1011 NOSIG=
201205140530 METAR LMML NIL=
201205140515 METAR LMML 140515Z 29019KT CAVOK 19/14 Q1011 NOSIG=
201205140500 METAR LMML NIL=
201205140445 METAR LMML 140445Z 28017KT 250V310 CAVOK 19/15 Q1011 NOSIG=
201205140430 METAR LMML NIL=
201205140415 METAR LMML 140415Z 28014KT 250V310 CAVOK 18/14 Q1010 NOSIG=
201205140400 METAR LMML NIL=
201205140345 METAR LMML 140345Z 26006KT 200V310 CAVOK 18/15 Q1010 NOSIG=
201205140330 METAR LMML NIL=
201205140315 METAR LMML 140315Z 29010KT 260V330 CAVOK 18/15 Q1010 NOSIG=
201205140300 METAR LMML NIL=
201205140245 METAR LMML 140245Z 28014KT 260V320 9999 FEW012 18/15 Q1010
                        NOSIG=
201205140230 METAR LMML NIL=
201205140215 METAR LMML 140215Z 28014KT CAVOK 18/16 Q1010 NOSIG=
201205140200 METAR LMML NIL=
201205140145 METAR LMML 140145Z 28015KT CAVOK 18/15 Q1010 NOSIG=
201205140130 METAR LMML NIL=
201205140115 METAR LMML 140115Z 28013KT 250V310 CAVOK 18/15 Q1011 NOSIG=
201205140100 METAR LMML NIL=
201205140045 METAR LMML 140045Z 28013KT 250V320 CAVOK 19/16 Q1011 NOSIG=
201205140030 METAR LMML NIL=
201205140015 METAR LMML 140015Z 28016KT CAVOK 19/16 Q1011 NOSIG=
201205140000 METAR LMML NIL=
201205132345 METAR LMML 132345Z 29013KT CAVOK 19/16 Q1011 NOSIG=
201205132330 METAR LMML NIL=
201205132315 METAR LMML 132315Z 29013KT CAVOK 19/16 Q1012 NOSIG=
201205132300 METAR LMML NIL=
201205132245 METAR LMML 132245Z 29013KT 260V320 CAVOK 19/16 Q1012 NOSIG=
201205132230 METAR LMML NIL=
201205132200 METAR LMML NIL=
201205132145 METAR LMML 132145Z 29018KT CAVOK 19/16 Q1012 NOSIG=
201205132130 METAR LMML NIL=
201205132115 METAR LMML 132115Z 29014KT 9999 FEW013 19/16 Q1012 NOSIG=
201205132100 METAR LMML NIL=
201205132045 METAR LMML 132045Z 28011G22KT 250V320 9999 FEW013 19/16 Q1013
                        NOSIG=
201205132030 METAR LMML NIL=
201205132015 METAR LMML 132015Z 28014KT 250V310 9999 FEW013 19/16 Q1013
                        NOSIG=
201205132000 METAR LMML NIL=
201205131945 METAR LMML 131945Z 29019KT 260V320 9999 FEW012 SCT250 19/16
                        Q1013 NOSIG=
201205131930 METAR LMML NIL=
201205131915 METAR LMML 131915Z 29011KT 260V330 9999 SCT012 SCT250 19/16
                        Q1013 TEMPO BKN010=
201205131900 METAR LMML NIL=
201205131845 METAR LMML 131845Z 29013KT 250V310 9999 FEW016 SCT250 19/16
                        Q1013 NOSIG=
201205131830 METAR LMML NIL=
201205131815 METAR LMML 131815Z 28018KT 9999 FEW016 19/16 Q1012 NOSIG=
201205131800 METAR LMML NIL=
201205131745 METAR LMML 131745Z 28015KT 9999 FEW016 SCT250 19/17 Q1012
                        NOSIG=
201205131730 METAR LMML NIL=
201205131715 METAR LMML 131715Z 28017KT 250V310 9999 FEW016 20/17 Q1013
                        NOSIG=
201205131700 METAR LMML NIL=
201205131645 METAR LMML 131645Z 28014KT 9999 FEW016 21/16 Q1013 NOSIG=
201205131630 METAR LMML NIL=
201205131615 METAR LMML 131615Z 28013KT 250V310 9999 FEW020 22/16 Q1013
                        NOSIG=
201205131600 METAR LMML NIL=
201205131545 METAR LMML 131545Z 28014KT 9999 FEW020 23/16 Q1013 NOSIG=
201205131530 METAR LMML NIL=
201205131515 METAR LMML 131515Z 28011KT 250V310 9999 FEW020 24/16 Q1013
                        NOSIG=
201205131445 METAR LMML 131445Z 30015KT 250V320 9999 FEW020 24/15 Q1013
                        NOSIG=
201205131430 METAR LMML NIL=
201205131415 METAR LMML 131415Z 30014KT 9999 FEW020 24/15 Q1014 NOSIG=
201205131400 METAR LMML NIL=
201205131345 METAR LMML 131345Z 30016KT 9999 FEW020 24/15 Q1014 NOSIG=
201205131330 METAR LMML NIL=
201205131315 METAR LMML 131315Z 29015KT 9999 FEW020 24/15 Q1014 NOSIG=
201205131300 METAR LMML NIL=
201205131245 METAR LMML 131245Z 29015KT 260V320 CAVOK 25/15 Q1014 NOSIG=
201205131230 METAR LMML NIL=
201205131215 METAR LMML 131215Z 29014KT 250V320 9999 FEW020 25/15 Q1014
                        NOSIG=
201205131200 METAR LMML NIL=
201205131145 METAR LMML 131145Z 30013KT 260V330 9999 FEW020 26/13 Q1014
                        NOSIG=
201205131130 METAR LMML NIL=
201205131115 METAR LMML 131115Z 30013KT 9999 FEW020 26/14 Q1014 NOSIG=
201205131100 METAR LMML NIL=
201205131045 METAR LMML 131045Z 29011KT 260V320 9999 FEW020 26/15 Q1015
                        NOSIG=
201205131030 METAR LMML NIL=
201205131015 METAR LMML 131015Z 30012KT 270V330 9999 FEW020 26/14 Q1015
                        NOSIG=
201205130945 METAR LMML 130945Z 29010KT 260V330 CAVOK 25/15 Q1015 NOSIG=
201205130930 METAR LMML NIL=
201205130915 METAR LMML 130915Z 29011KT 250V320 CAVOK 25/15 Q1015 NOSIG=
201205130900 METAR LMML NIL=
201205130845 METAR LMML 130845Z 30011KT CAVOK 25/15 Q1015 NOSIG=
201205130830 METAR LMML NIL=
201205130815 METAR LMML 130815Z 30013KT CAVOK 26/13 Q1015 NOSIG=
201205130800 METAR LMML NIL=
201205130745 METAR LMML 130745Z 32014KT CAVOK 25/10 Q1015 NOSIG=
201205130730 METAR LMML NIL=
201205130715 METAR LMML 130715Z 32014KT CAVOK 25/11 Q1015 NOSIG=
201205130700 METAR LMML NIL=
201205130645 METAR LMML 130645Z 32011KT CAVOK 24/10 Q1015 NOSIG=
201205130630 METAR LMML NIL=
201205130615 METAR LMML 130615Z 32009KT 290V350 CAVOK 23/12 Q1015 NOSIG=
201205130600 METAR LMML NIL=
201205130545 METAR LMML 130545Z 31007KT 280V340 CAVOK 22/13 Q1015 NOSIG=
201205130530 METAR LMML NIL=
201205130515 METAR LMML 130515Z 31007KT CAVOK 21/10 Q1015 NOSIG=
201205130445 METAR LMML 130445Z 31008KT CAVOK 20/09 Q1015 NOSIG=
201205130430 METAR LMML NIL=
201205130415 METAR LMML 130415Z 31008KT CAVOK 19/10 Q1015 NOSIG=
201205130400 METAR LMML NIL=
201205130345 METAR LMML 130345Z 31007KT CAVOK 19/09 Q1015 NOSIG=
201205130330 METAR LMML NIL=
201205130315 METAR LMML 130315Z 31006KT CAVOK 18/09 Q1015 NOSIG=
201205130300 METAR LMML NIL=
201205130245 METAR LMML 130245Z 32005KT CAVOK 18/10 Q1015 NOSIG=
201205130215 METAR LMML 130215Z 33006KT CAVOK 19/11 Q1015 NOSIG=
201205130200 METAR LMML NIL=
201205130145 METAR LMML 130145Z 32006KT CAVOK 19/13 Q1015 NOSIG=
201205130130 METAR LMML NIL=
201205130115 METAR LMML 130115Z 31006KT CAVOK 19/14 Q1016 NOSIG=
201205130100 METAR LMML NIL=
201205130045 METAR LMML 130045Z 33008KT CAVOK 19/16 Q1016 NOSIG=
201205130030 METAR LMML NIL=
201205130015 METAR LMML 130015Z 32005KT CAVOK 19/16 Q1016 NOSIG=
201205122345 METAR LMML 122345Z 31003KT CAVOK 19/15 Q1016 NOSIG=
201205122330 METAR LMML NIL=
201205122315 METAR LMML 122315Z 28003KT CAVOK 19/15 Q1017 NOSIG=
201205122300 METAR LMML NIL=
201205122245 METAR LMML 122245Z 23003KT CAVOK 19/15 Q1017 NOSIG=
201205122230 METAR LMML NIL=
201205122215 METAR LMML 122215Z 23007KT CAVOK 19/16 Q1017 NOSIG=
201205122200 METAR LMML NIL=
201205122145 METAR LMML 122145Z 23007KT CAVOK 19/16 Q1017 NOSIG=
201205122130 METAR LMML NIL=
201205122115 METAR LMML 122115Z 22004KT 180V260 CAVOK 20/15 Q1018 NOSIG=
201205122100 METAR LMML NIL=
201205122045 METAR LMML 122045Z 26003KT CAVOK 20/14 Q1018 NOSIG=
201205122030 METAR LMML NIL=
201205122015 METAR LMML 122015Z 26003KT CAVOK 21/11 Q1018 NOSIG=
201205122000 METAR LMML NIL=
201205121945 METAR LMML 121945Z VRB02KT CAVOK 21/09 Q1018 NOSIG=
201205121930 METAR LMML NIL=
201205121915 METAR LMML 121915Z 29005KT 250V310 CAVOK 21/10 Q1018 NOSIG=
201205121900 METAR LMML NIL=
201205121845 METAR LMML 121845Z 28004KT 240V310 CAVOK 21/12 Q1018 NOSIG=
201205121830 METAR LMML NIL=
201205121815 METAR LMML 121815Z 30004KT 260V330 CAVOK 21/13 Q1018 NOSIG=
201205121800 METAR LMML NIL=
201205121745 METAR LMML 121745Z 31007KT CAVOK 22/13 Q1018 NOSIG=
201205121730 METAR LMML NIL=
201205121715 METAR LMML 121715Z 29009KT CAVOK 23/09 Q1018 NOSIG=
201205121700 METAR LMML NIL=
201205121645 METAR LMML 121645Z 30011KT CAVOK 24/11 Q1018 NOSIG=
201205121630 METAR LMML NIL=
201205121615 METAR LMML 121615Z 28009KT CAVOK 25/09 Q1018 NOSIG=
201205121600 METAR LMML NIL=
201205121545 METAR LMML 121545Z 29009KT 260V320 CAVOK 27/09 Q1018 NOSIG=
201205121530 METAR LMML NIL=
201205121515 METAR LMML 121515Z 31009KT 270V350 CAVOK 27/10 Q1018 NOSIG=
201205121500 METAR LMML NIL=
201205121445 METAR LMML 121445Z 06004KT 010V140 CAVOK 28/10 Q1019 NOSIG=
201205121430 METAR LMML NIL=
201205121415 METAR LMML 121415Z 02005KT 310V110 CAVOK 30/10 Q1019 NOSIG=
201205121400 METAR LMML NIL=
201205121345 METAR LMML 121345Z 05006KT 360V090 CAVOK 29/09 Q1019 NOSIG=
201205121330 METAR LMML NIL=
201205121315 METAR LMML 121315Z 03005KT 300V100 CAVOK 29/08 Q1019 NOSIG=
201205121300 METAR LMML NIL=
201205121245 METAR LMML 121245Z 36006KT 280V070 CAVOK 29/09 Q1020 NOSIG=
201205121230 METAR LMML NIL=
201205121215 METAR LMML 121215Z 36006KT 310V060 CAVOK 28/10 Q1020 NOSIG=
201205121200 METAR LMML NIL=
201205121145 METAR LMML 121145Z 01007KT CAVOK 28/09 Q1020 NOSIG=
201205121115 METAR LMML 121115Z 35008KT 320V030 CAVOK 27/09 Q1021 NOSIG=
201205121100 METAR LMML NIL=
201205121045 METAR LMML 121045Z 01009KT 340V050 CAVOK 28/10 Q1021 NOSIG=
201205121030 METAR LMML NIL=
201205121015 METAR LMML 121015Z 36008KT 320V040 CAVOK 27/10 Q1021 NOSIG=
201205121000 METAR LMML NIL=
201205120945 METAR LMML 120945Z 35008KT 260V030 CAVOK 27/09 Q1021 NOSIG=
201205120930 METAR LMML NIL=
201205120915 METAR LMML 120915Z 01008KT 340V040 CAVOK 27/09 Q1021 NOSIG=
201205120900 METAR LMML NIL=
201205120845 METAR LMML 120845Z 01008KT 340V050 CAVOK 27/09 Q1021 NOSIG=
201205120830 METAR LMML NIL=
201205120815 METAR LMML 120815Z 02007KT 340V050 CAVOK 26/10 Q1021 NOSIG=
201205120800 METAR LMML NIL=
201205120745 METAR LMML 120745Z 02005KT 340V060 CAVOK 26/10 Q1021 NOSIG=
201205120730 METAR LMML NIL=
201205120715 METAR LMML 120715Z 03005KT 350V060 CAVOK 25/11 Q1021 NOSIG=
201205120700 METAR LMML NIL=
201205120645 METAR LMML 120645Z 36003KT CAVOK 24/12 Q1021 NOSIG=
201205120630 METAR LMML NIL=
201205120615 METAR LMML 120615Z 32003KT CAVOK 22/13 Q1021 NOSIG=
201205120600 METAR LMML NIL=
201205120545 METAR LMML 120545Z VRB02KT CAVOK 21/13 Q1021 NOSIG=
201205120530 METAR LMML NIL=
201205120515 METAR LMML 120515Z VRB02KT CAVOK 19/14 Q1021 NOSIG=
201205120500 METAR LMML NIL=
201205120445 METAR LMML 120445Z 33003KT CAVOK 18/14 Q1021 NOSIG=
201205120430 METAR LMML NIL=
201205120415 METAR LMML 120415Z 33004KT CAVOK 17/13 Q1021 NOSIG=
201205120400 METAR LMML NIL=
201205120345 METAR LMML 120345Z 34004KT CAVOK 17/12 Q1021 NOSIG=
201205120330 METAR LMML NIL=
201205120315 METAR LMML 120315Z 34004KT CAVOK 17/13 Q1020 NOSIG=
201205120300 METAR LMML NIL=
201205120245 METAR LMML 120245Z 34004KT CAVOK 17/14 Q1021 NOSIG=
201205120230 METAR LMML NIL=
201205120215 METAR LMML 120215Z 32005KT CAVOK 17/14 Q1021 NOSIG=
201205120200 METAR LMML NIL=
201205120145 METAR LMML 120145Z 33004KT CAVOK 18/15 Q1021 NOSIG=
201205120130 METAR LMML NIL=
201205120115 METAR LMML 120115Z 33005KT CAVOK 18/15 Q1021 NOSIG=
201205120100 METAR LMML NIL=
201205120045 METAR LMML 120045Z 33004KT CAVOK 17/15 Q1021 NOSIG=
201205120030 METAR LMML NIL=
201205120015 METAR LMML 120015Z 33004KT CAVOK 17/15 Q1021 NOSIG=
201205120000 METAR LMML NIL=
201205112345 METAR LMML 112345Z 34005KT CAVOK 18/15 Q1021 NOSIG=
201205112330 METAR LMML NIL=
201205112315 METAR LMML 112315Z 33004KT CAVOK 18/15 Q1022 NOSIG=
201205112300 METAR LMML NIL=
201205112245 METAR LMML 112245Z 30004KT CAVOK 18/15 Q1022 NOSIG=
201205112215 METAR LMML 112215Z 32003KT CAVOK 18/15 Q1022 NOSIG=
201205112145 METAR LMML 112145Z 33005KT 310V010 CAVOK 19/15 Q1022 NOSIG=
201205112130 METAR LMML NIL=
201205112115 METAR LMML 112115Z 34005KT CAVOK 19/15 Q1022 NOSIG=
201205112100 METAR LMML NIL=
201205112045 METAR LMML 112045Z 33004KT 310V020 CAVOK 19/12 Q1022 NOSIG=
201205112015 METAR LMML 112015Z VRB02KT CAVOK 19/11 Q1022 NOSIG=
201205112000 METAR LMML NIL=
201205111945 METAR LMML 111945Z VRB02KT CAVOK 19/11 Q1022 NOSIG=
201205111930 METAR LMML NIL=
201205111915 METAR LMML 111915Z 29003KT CAVOK 20/11 Q1021 NOSIG=
201205111900 METAR LMML NIL=
201205111845 METAR LMML 111845Z 29003KT CAVOK 21/09 Q1021 NOSIG=
201205111830 METAR LMML NIL=
201205111815 METAR LMML 111815Z VRB02KT CAVOK 22/07 Q1021 NOSIG=
201205111800 METAR LMML NIL=
201205111745 METAR LMML 111745Z 01003KT CAVOK 23/07 Q1021 NOSIG=
201205111730 METAR LMML NIL=
201205111715 METAR LMML 111715Z 06004KT 020V170 CAVOK 24/06 Q1021 NOSIG=
201205111700 METAR LMML NIL=
201205111645 METAR LMML 111645Z 02004KT 340V100 CAVOK 25/06 Q1021 NOSIG=
201205111630 METAR LMML NIL=
201205111615 METAR LMML 111615Z 02004KT 320V080 CAVOK 26/08 Q1021 NOSIG=
201205111600 METAR LMML NIL=
201205111545 METAR LMML 111545Z 04004KT 360V110 CAVOK 26/08 Q1021 NOSIG=
201205111530 METAR LMML NIL=
201205111515 METAR LMML 111515Z 08006KT 030V120 CAVOK 26/07 Q1021 NOSIG=
201205111500 METAR LMML NIL=
201205111445 METAR LMML 111445Z 08006KT 050V120 CAVOK 26/08 Q1021 NOSIG=
201205111430 METAR LMML NIL=
201205111415 METAR LMML 111415Z 07008KT CAVOK 26/08 Q1021 NOSIG=
201205111400 METAR LMML NIL=
201205111345 METAR LMML 111345Z 08006KT 010V140 CAVOK 26/08 Q1022 NOSIG=
201205111330 METAR LMML NIL=
201205111315 METAR LMML 111315Z 10008KT 060V140 CAVOK 26/08 Q1022 NOSIG=
201205111300 METAR LMML NIL=
201205111245 METAR LMML 111245Z 09010KT 050V130 CAVOK 26/06 Q1022 NOSIG=
201205111230 METAR LMML NIL=
201205111215 METAR LMML 111215Z 08008KT 030V150 CAVOK 26/07 Q1022 NOSIG=
201205111200 METAR LMML NIL=
201205111145 METAR LMML 111145Z 06008KT 360V110 CAVOK 26/08 Q1022 NOSIG=
201205111130 METAR LMML NIL=
201205111115 METAR LMML 111115Z 06009KT 030V120 CAVOK 26/08 Q1022 NOSIG=
201205111100 METAR LMML NIL=
201205111045 METAR LMML 111045Z 06008KT 010V090 CAVOK 26/09 Q1022 NOSIG=
201205111030 METAR LMML NIL=
201205111015 METAR LMML 111015Z 04007KT 360V100 CAVOK 26/10 Q1022 NOSIG=
201205111000 METAR LMML NIL=
201205110945 METAR LMML 110945Z 04008KT 350V090 CAVOK 26/10 Q1022 NOSIG=
201205110930 METAR LMML NIL=
201205110915 METAR LMML 110915Z 04008KT 010V080 CAVOK 26/10 Q1022 NOSIG=
201205110900 METAR LMML NIL=
201205110845 METAR LMML 110845Z 02007KT 340V070 CAVOK 26/10 Q1022 NOSIG=
201205110830 METAR LMML NIL=
201205110815 METAR LMML 110815Z 03007KT 350V050 CAVOK 26/07 Q1022 NOSIG=
201205110745 METAR LMML 110745Z 36005KT 330V050 CAVOK 26/08 Q1022 NOSIG=
201205110730 METAR LMML NIL=
201205110715 METAR LMML 110715Z 35005KT 290V020 CAVOK 24/08 Q1022 NOSIG=
201205110645 METAR LMML 110645Z 34005KT 310V010 CAVOK 23/09 Q1022 NOSIG=
201205110630 METAR LMML NIL=
201205110615 METAR LMML 110615Z 33006KT 300V360 CAVOK 21/13 Q1022 NOSIG=
201205110600 METAR LMML NIL=
201205110545 METAR LMML 110545Z 33004KT CAVOK 20/16 Q1022 NOSIG=
201205110530 METAR LMML NIL=
201205110515 METAR LMML 110515Z 33004KT 9999 FEW012 19/16 Q1022 NOSIG=
201205110500 METAR LMML NIL=
201205110445 METAR LMML 110445Z 33005KT CAVOK 17/15 Q1021 NOSIG=
201205110430 METAR LMML NIL=
201205110415 METAR LMML 110415Z 32005KT CAVOK 16/14 Q1021 NOSIG=
201205110400 METAR LMML NIL=
201205110345 METAR LMML 110345Z 33005KT CAVOK 16/14 Q1021 NOSIG=
201205110330 METAR LMML NIL=
201205110315 METAR LMML 110315Z 31005KT CAVOK 16/13 Q1021 NOSIG=
201205110300 METAR LMML NIL=
201205110245 METAR LMML 110245Z 31005KT CAVOK 16/12 Q1021 NOSIG=
201205110230 METAR LMML NIL=
201205110215 METAR LMML 110215Z 32003KT CAVOK 16/11 Q1021 NOSIG=
201205110145 METAR LMML 110145Z 30004KT CAVOK 17/11 Q1021 NOSIG=
201205110115 METAR LMML 110115Z 31005KT CAVOK 17/12 Q1021 NOSIG=
201205110045 METAR LMML 110045Z 32004KT CAVOK 17/10 Q1021 NOSIG=
201205110030 METAR LMML NIL=
201205110015 METAR LMML 110015Z 33003KT CAVOK 17/10 Q1022 NOSIG=
201205102345 METAR LMML 102345Z 32003KT CAVOK 17/10 Q1022 NOSIG=
201205102330 METAR LMML NIL=
201205102315 METAR LMML 102315Z VRB02KT CAVOK 17/10 Q1022 NOSIG=
201205102245 METAR LMML 102245Z VRB02KT CAVOK 17/11 Q1022 NOSIG=
201205102230 METAR LMML NIL=
201205102215 METAR LMML 102215Z 28003KT CAVOK 18/11 Q1022 NOSIG=
201205102200 METAR LMML NIL=
201205102145 METAR LMML 102145Z 26003KT CAVOK 18/12 Q1022 NOSIG=
201205102130 METAR LMML NIL=
201205102115 METAR LMML 102115Z VRB02KT CAVOK 18/12 Q1022 NOSIG=
201205102100 METAR LMML NIL=
201205102045 METAR LMML 102045Z 24003KT CAVOK 18/12 Q1022 NOSIG=
201205102030 METAR LMML NIL=
201205102015 METAR LMML 102015Z VRB02KT CAVOK 19/12 Q1023 NOSIG=
201205102000 METAR LMML NIL=
201205101945 METAR LMML 101945Z VRB02KT CAVOK 19/11 Q1022 NOSIG=
201205101930 METAR LMML NIL=
201205101915 METAR LMML 101915Z VRB02KT CAVOK 19/10 Q1022 NOSIG=
201205101900 METAR LMML NIL=
201205101845 METAR LMML 101845Z VRB01KT CAVOK 20/09 Q1022 NOSIG=
201205101830 METAR LMML NIL=
201205101815 METAR LMML 101815Z 21003KT CAVOK 20/09 Q1022 NOSIG=
201205101800 METAR LMML NIL=
201205101745 METAR LMML 101745Z 16003KT CAVOK 21/11 Q1022 NOSIG=
201205101730 METAR LMML NIL=
201205101715 METAR LMML 101715Z 12004KT 100V160 CAVOK 22/12 Q1021 NOSIG=
201205101700 METAR LMML NIL=
201205101645 METAR LMML 101645Z VRB02KT CAVOK 24/12 Q1021 NOSIG=
201205101630 METAR LMML NIL=
201205101615 METAR LMML 101615Z 20003KT CAVOK 23/12 Q1021 NOSIG=
201205101600 METAR LMML NIL=
201205101545 METAR LMML 101545Z 25003KT CAVOK 24/12 Q1021 NOSIG=
201205101530 METAR LMML NIL=
201205101515 METAR LMML 101515Z 11004KT 030V160 CAVOK 24/11 Q1021 NOSIG=
201205101500 METAR LMML NIL=
201205101445 METAR LMML 101445Z 09006KT 060V140 CAVOK 25/09 Q1021 NOSIG=
201205101430 METAR LMML NIL=
201205101415 METAR LMML 101415Z 25003KT CAVOK 25/13 Q1021 NOSIG=
201205101400 METAR LMML NIL=
201205101345 METAR LMML 101345Z 11003KT CAVOK 25/10 Q1021 NOSIG=
201205101330 METAR LMML NIL=
201205101315 METAR LMML 101315Z 17005KT 110V240 CAVOK 25/14 Q1021 NOSIG=
201205101300 METAR LMML NIL=
201205101245 METAR LMML 101245Z 11004KT 010V180 CAVOK 25/09 Q1022 NOSIG=
201205101230 METAR LMML NIL=
201205101215 METAR LMML 101215Z 05006KT 360V120 CAVOK 26/09 Q1022 NOSIG=
201205101200 METAR LMML NIL=
201205101145 METAR LMML 101145Z 05006KT 350V100 CAVOK 26/09 Q1022 NOSIG=
201205101130 METAR LMML NIL=
201205101115 METAR LMML 101115Z 03006KT 350V140 CAVOK 26/09 Q1022 NOSIG=
201205101100 METAR LMML NIL=
201205101045 METAR LMML 101045Z 07008KT 030V110 CAVOK 26/09 Q1022 NOSIG=
201205101030 METAR LMML NIL=
201205101015 METAR LMML 101015Z 32005KT CAVOK 26/10 Q1022 NOSIG=
201205101000 METAR LMML NIL=
201205100945 METAR LMML 100945Z 04006KT 350V160 CAVOK 27/08 Q1022 NOSIG=
201205100930 METAR LMML NIL=
201205100915 METAR LMML 100915Z 03005KT 340V060 CAVOK 26/07 Q1022 NOSIG=
201205100900 METAR LMML NIL=
201205100845 METAR LMML 100845Z 03005KT 320V130 CAVOK 26/08 Q1022 NOSIG=
201205100830 METAR LMML NIL=
201205100815 METAR LMML 100815Z 36003KT CAVOK 25/10 Q1022 NOSIG=
201205100800 METAR LMML NIL=
201205100745 METAR LMML 100745Z 03004KT 340V080 CAVOK 23/12 Q1022 NOSIG=
201205100730 METAR LMML NIL=
201205100715 METAR LMML 100715Z 36003KT CAVOK 23/12 Q1022 NOSIG=
201205100700 METAR LMML NIL=
201205100645 METAR LMML 100645Z 34004KT 310V020 CAVOK 22/14 Q1021 NOSIG=
201205100630 METAR LMML NIL=
201205100615 METAR LMML 100615Z 31003KT CAVOK 20/14 Q1021 NOSIG=
201205100600 METAR LMML NIL=
201205100545 METAR LMML 100545Z 27003KT CAVOK 19/15 Q1021 NOSIG=
201205100530 METAR LMML NIL=
201205100515 METAR LMML 100515Z 32003KT CAVOK 18/14 Q1020 NOSIG=
201205100500 METAR LMML NIL=
201205100445 METAR LMML 100445Z 29004KT CAVOK 16/14 Q1020 NOSIG=
201205100430 METAR LMML NIL=
201205100415 METAR LMML 100415Z 28004KT CAVOK 15/12 Q1020 NOSIG=
201205100400 METAR LMML NIL=
201205100345 METAR LMML 100345Z VRB01KT CAVOK 14/12 Q1020 NOSIG=
201205100330 METAR LMML NIL=
201205100315 METAR LMML 100315Z VRB02KT CAVOK 15/12 Q1020 NOSIG=
201205100300 METAR LMML NIL=
201205100245 METAR LMML 100245Z VRB02KT CAVOK 15/10 Q1020 NOSIG=
201205100230 METAR LMML NIL=
201205100215 METAR LMML 100215Z VRB02KT CAVOK 15/09 Q1020 NOSIG=
201205100200 METAR LMML NIL=
201205100145 METAR LMML 100145Z VRB02KT CAVOK 16/09 Q1020 NOSIG=
201205100130 METAR LMML NIL=
201205100115 METAR LMML 100115Z 26003KT CAVOK 15/14 Q1020 NOSIG=
201205100100 METAR LMML NIL=
201205100045 METAR LMML 100045Z 26003KT CAVOK 16/15 Q1020 NOSIG=
201205100030 METAR LMML NIL=
201205100015 METAR LMML 100015Z 27003KT CAVOK 16/14 Q1020 NOSIG=
201205100000 METAR LMML NIL=
201205092345 METAR LMML 092345Z 28003KT CAVOK 16/14 Q1021 NOSIG=
201205092330 METAR LMML NIL=
201205092315 METAR LMML 092315Z VRB02KT CAVOK 16/14 Q1021 NOSIG=
201205092300 METAR LMML NIL=
201205092245 METAR LMML 092245Z 28003KT CAVOK 17/14 Q1021 NOSIG=
201205092230 METAR LMML NIL=
201205092215 METAR LMML 092215Z VRB02KT CAVOK 17/14 Q1021 NOSIG=
201205092200 METAR LMML NIL=
201205092145 METAR LMML 092145Z 28003KT CAVOK 17/14 Q1021 NOSIG=
201205092130 METAR LMML NIL=
201205092115 METAR LMML 092115Z 28003KT CAVOK 17/14 Q1021 NOSIG=
201205092100 METAR LMML NIL=
201205092045 METAR LMML 092045Z 30003KT CAVOK 18/14 Q1021 NOSIG=
201205092030 METAR LMML NIL=
201205092015 METAR LMML 092015Z 31003KT CAVOK 18/14 Q1021 NOSIG=
201205092000 METAR LMML NIL=
201205091945 METAR LMML 091945Z 29003KT CAVOK 18/15 Q1021 NOSIG=
201205091930 METAR LMML NIL=
201205091915 METAR LMML 091915Z 29003KT 9999 FEW028 18/14 Q1020 BECMG
                        CAVOK=
201205091900 METAR LMML NIL=
201205091845 METAR LMML 091845Z 27003KT 9999 FEW028 SCT250 19/14 Q1020
                        BECMG CAVOK=
201205091830 METAR LMML NIL=
201205091815 METAR LMML 091815Z 26003KT 9999 FEW028 SCT250 19/14 Q1020
                        NOSIG=
201205091800 METAR LMML NIL=
201205091745 METAR LMML 091745Z 25004KT 220V280 9999 FEW028 SCT250 20/14
                        Q1020 NOSIG=
201205091715 METAR LMML 091715Z 24005KT 9999 FEW028 SCT250 21/14 Q1020
                        NOSIG=
201205091700 METAR LMML NIL=
201205091645 METAR LMML 091645Z 26004KT 190V300 9999 FEW030 22/14 Q1019
                        NOSIG=
201205091630 METAR LMML NIL=
201205091615 METAR LMML 091615Z 23008KT 200V260 9999 FEW030 22/14 Q1019
                        NOSIG=
201205091600 METAR LMML NIL=
201205091545 METAR LMML 091545Z 24007KT 200V280 9999 FEW031 23/14 Q1019
                        NOSIG=
201205091530 METAR LMML NIL=
201205091515 METAR LMML 091515Z 23007KT 170V280 9999 FEW034 22/14 Q1019
                        NOSIG=
201205091445 METAR LMML 091445Z 23008KT 180V270 9999 FEW034 23/15 Q1019
                        NOSIG=
201205091415 METAR LMML 091415Z 21007KT 150V250 9999 FEW035 23/14 Q1019
                        NOSIG=
201205091400 METAR LMML NIL=
201205091345 METAR LMML 091345Z 21008KT 170V260 9999 BKN035 23/14 Q1019
                        NOSIG=
201205091330 METAR LMML NIL=
201205091315 METAR LMML 091315Z 20006KT 140V260 9999 FEW037 24/14 Q1020
                        NOSIG=
201205091300 METAR LMML NIL=
201205091245 METAR LMML 091245Z 19007KT 110V250 9999 FEW036 23/14 Q1020
                        NOSIG=
201205091230 METAR LMML NIL=
201205091215 METAR LMML 091215Z 21006KT 110V020 9999 FEW038 24/13 Q1020
                        NOSIG=
201205091200 METAR LMML NIL=
201205091145 METAR LMML 091145Z 21006KT 140V280 9999 FEW038 24/13 Q1020
                        NOSIG=
201205091130 METAR LMML NIL=
201205091115 METAR LMML 091115Z 21006KT 150V270 9999 FEW045 24/13 Q1020
                        NOSIG=
201205091045 METAR LMML 091045Z 20005KT 070V300 9999 FEW045 24/12 Q1020
                        NOSIG=
201205091030 METAR LMML NIL=
201205091015 METAR LMML 091015Z VRB02KT 9999 FEW040 25/12 Q1020 NOSIG=
201205091000 METAR LMML NIL=
201205090945 METAR LMML 090945Z 03005KT 310V080 9999 FEW040 25/12 Q1020
                        NOSIG=
201205090930 METAR LMML NIL=
201205090915 METAR LMML 090915Z 02006KT 330V060 9999 FEW040 25/14 Q1020
                        NOSIG=
201205090900 METAR LMML NIL=
201205090845 METAR LMML 090845Z 13004KT 9999 FEW040 24/14 Q1019 NOSIG=
201205090830 METAR LMML NIL=
201205090815 METAR LMML 090815Z 03004KT 310V090 9999 FEW040 24/14 Q1019
                        NOSIG=
201205090800 METAR LMML NIL=
201205090745 METAR LMML 090745Z 03003KT CAVOK 23/14 Q1019 NOSIG=
201205090730 METAR LMML NIL=
201205090715 METAR LMML 090715Z VRB02KT CAVOK 22/14 Q1019 NOSIG=
201205090700 METAR LMML NIL=
201205090645 METAR LMML 090645Z VRB02KT CAVOK 22/14 Q1019 NOSIG=
201205090630 METAR LMML NIL=
201205090615 METAR LMML 090615Z VRB02KT CAVOK 20/15 Q1019 NOSIG=
201205090600 METAR LMML NIL=
201205090545 METAR LMML 090545Z VRB02KT CAVOK 19/14 Q1019 NOSIG RMK SMOKE
                        TO N OF AIRFIELD=
201205090530 METAR LMML NIL=
201205090515 METAR LMML 090515Z 27003KT CAVOK 17/14 Q1019 NOSIG=
201205090500 METAR LMML NIL=
201205090445 METAR LMML 090445Z 27003KT CAVOK 16/13 Q1019 NOSIG=
201205090430 METAR LMML NIL=
201205090415 METAR LMML 090415Z VRB01KT 9000 NSC 14/13 Q1018 BECMG 9999=
201205090400 METAR LMML NIL=
201205090345 METAR LMML 090345Z VRB01KT 9000 NSC 15/13 Q1018 TEMPO 5000
                        FEW011=
201205090330 METAR LMML NIL=
201205090315 METAR LMML 090315Z VRB01KT 9000 NSC 15/13 Q1018 TEMPO 7000
                        NSC=
201205090300 METAR LMML NIL=
201205090245 METAR LMML 090245Z VRB01KT CAVOK 15/13 Q1018 TEMPO 7000 NSC=
201205090230 METAR LMML NIL=
201205090215 METAR LMML 090215Z VRB01KT CAVOK 15/12 Q1018 TEMPO 7000 NSC=
201205090200 METAR LMML NIL=
201205090145 METAR LMML 090145Z 00000KT CAVOK 15/13 Q1018 TEMPO 7000 NSC=
201205090130 METAR LMML NIL=
201205090115 METAR LMML 090115Z VRB02KT CAVOK 15/13 Q1018 TEMPO 7000 NSC=
201205090045 METAR LMML 090045Z VRB01KT CAVOK 15/13 Q1018 TEMPO 7000 NSC=
201205090015 METAR LMML 090015Z VRB01KT CAVOK 15/13 Q1018 TEMPO 7000 NSC=
201205082345 METAR LMML 082345Z VRB01KT CAVOK 16/13 Q1019 TEMPO 7000 NSC=
201205082330 METAR LMML NIL=
201205082315 METAR LMML 082315Z VRB02KT CAVOK 16/13 Q1019 NOSIG=
201205082245 METAR LMML 082245Z VRB01KT CAVOK 16/13 Q1019 NOSIG=
201205082230 METAR LMML NIL=
201205082215 METAR LMML 082215Z VRB01KT CAVOK 16/13 Q1019 NOSIG=
201205082200 METAR LMML NIL=
201205082145 METAR LMML 082145Z VRB02KT CAVOK 16/13 Q1019 NOSIG=
201205082130 METAR LMML NIL=
201205082115 METAR LMML 082115Z 00000KT CAVOK 17/13 Q1019 NOSIG=
201205082100 METAR LMML NIL=
201205082045 METAR LMML 082045Z VRB01KT CAVOK 17/14 Q1019 NOSIG=
201205082030 METAR LMML NIL=
201205082015 METAR LMML 082015Z VRB02KT CAVOK 17/13 Q1019 NOSIG=
201205082000 METAR LMML NIL=
201205081945 METAR LMML 081945Z VRB01KT 9999 FEW025 18/13 Q1019 NOSIG=
201205081930 METAR LMML NIL=
201205081915 METAR LMML 081915Z VRB02KT 9999 FEW025 17/14 Q1018 NOSIG=
201205081900 METAR LMML NIL=
201205081845 METAR LMML 081845Z VRB02KT 9999 FEW025 18/13 Q1018 NOSIG=
201205081830 METAR LMML NIL=
201205081815 METAR LMML 081815Z 09003KT 9999 FEW024 18/13 Q1018 NOSIG=
201205081800 METAR LMML NIL=
201205081745 METAR LMML 081745Z 08003KT 9999 FEW024 19/14 Q1018 NOSIG=
201205081730 METAR LMML NIL=
201205081715 METAR LMML 081715Z 10003KT 9999 FEW025 20/14 Q1018 NOSIG=
201205081700 METAR LMML NIL=
201205081645 METAR LMML 081645Z 22004KT 170V250 9999 FEW027 20/14 Q1018
                        NOSIG=
201205081630 METAR LMML NIL=
201205081615 METAR LMML 081615Z 09003KT 9999 SCT026 22/13 Q1018 NOSIG=
201205081600 METAR LMML NIL=
201205081545 METAR LMML 081545Z 18003KT 9999 SCT027 23/14 Q1018 NOSIG=
201205081530 METAR LMML NIL=
201205081515 METAR LMML 081515Z 24005KT 140V290 9999 SCT030 23/14 Q1018
                        NOSIG=
201205081500 METAR LMML NIL=
201205081445 METAR LMML 081445Z 20004KT 130V290 9999 SCT027 22/14 Q1018
                        NOSIG=
201205081430 METAR LMML NIL=
201205081415 METAR LMML 081415Z 19006KT 100V250 9999 SCT027 23/14 Q1018
                        NOSIG=
201205081400 METAR LMML NIL=
201205081345 METAR LMML 081345Z 20005KT 140V260 9999 SCT027 22/14 Q1018
                        NOSIG=
201205081315 METAR LMML 081315Z 10003KT 9999 FEW029 22/14 Q1018 NOSIG=
201205081245 METAR LMML 081245Z 02006KT 310V080 9999 FEW028 25/14 Q1018
                        NOSIG=
201205081215 METAR LMML 081215Z 07007KT 9999 FEW028 25/14 Q1018 NOSIG=
201205081200 METAR LMML NIL=
201205081145 METAR LMML 081145Z 02006KT 350V080 9999 FEW028 25/14 Q1018
                        NOSIG=
201205081130 METAR LMML NIL=
201205081115 METAR LMML 081115Z 03005KT 320V120 9999 SCT023 24/15 Q1018
                        NOSIG=
201205081100 METAR LMML NIL=
201205081045 METAR LMML 081045Z 03006KT 330V080 9999 SCT021 24/15 Q1018
                        NOSIG=
201205081030 METAR LMML NIL=
201205081015 METAR LMML 081015Z 02007KT 330V080 9999 BKN019 23/15 Q1019
                        NOSIG=
201205081000 METAR LMML NIL=
201205080945 METAR LMML 080945Z 01009KT 9999 BKN017 21/15 Q1019 NOSIG=
201205080930 METAR LMML NIL=
201205080915 METAR LMML 080915Z 36010KT 310V050 9999 BKN016 22/15 Q1019
                        NOSIG=
201205080900 METAR LMML NIL=
201205080845 METAR LMML 080845Z 02009KT 350V060 9999 FEW015 23/15 Q1018
                        NOSIG=
201205080830 METAR LMML NIL=
201205080815 METAR LMML 080815Z 03008KT 340V060 9999 FEW020 23/16 Q1018
                        NOSIG=
201205080745 METAR LMML 080745Z 20005KT 9999 FEW016 22/15 Q1018 BECMG
                        CAVOK=
201205080730 METAR LMML NIL=
201205080715 METAR LMML 080715Z 03006KT 350V050 9999 FEW016 22/15 Q1018
                        NOSIG=
201205080700 METAR LMML NIL=
201205080645 METAR LMML 080645Z 02006KT 350V070 9999 FEW015 21/15 Q1018
                        TEMPO CAVOK=
201205080630 METAR LMML NIL=
201205080615 METAR LMML 080615Z 05004KT 010V100 9999 FEW015 21/15 Q1018
                        TEMPO CAVOK=
201205080600 METAR LMML NIL=
201205080545 METAR LMML 080545Z 06005KT 020V080 9999 FEW015 20/15 Q1018
                        NOSIG=
201205080530 METAR LMML NIL=
201205080515 METAR LMML 080515Z 04004KT 010V070 9999 FEW012 19/15 Q1018
                        NOSIG=
201205080500 METAR LMML NIL=
201205080445 METAR LMML 080445Z 04004KT 020V080 9999 FEW012 18/15 Q1017
                        NOSIG=
201205080430 METAR LMML NIL=
201205080415 METAR LMML 080415Z 04004KT 9999 FEW012 17/15 Q1017 BECMG
                        CAVOK=
201205080400 METAR LMML NIL=
201205080345 METAR LMML 080345Z 04004KT 010V070 9000 FEW009 17/15 Q1017
                        BECMG 9999=
201205080330 METAR LMML NIL=
201205080315 METAR LMML 080315Z 04004KT 010V080 7000 FEW009 17/16 Q1017
                        TEMPO 5000 BR BKN005=
201205080300 METAR LMML NIL=
201205080245 METAR LMML 080245Z 02003KT 7000 SCT008 17/16 Q1017 TEMPO
                        5000 BR BKN005=
201205080230 METAR LMML NIL=
201205080215 METAR LMML 080215Z 03003KT 7000 FEW006 SCT120 17/17 Q1016
                        TEMPO 5000 BR BKN005=
201205080200 METAR LMML NIL=
201205080145 METAR LMML 080145Z 36004KT 9000 FEW006 16/15 Q1016 NOSIG=
201205080130 METAR LMML NIL=
201205080115 METAR LMML 080115Z 01003KT 9999 FEW020 16/15 Q1016 NOSIG=
201205080100 METAR LMML NIL=
201205080045 METAR LMML 080045Z VRB02KT 9999 FEW020 16/15 Q1017 NOSIG=
201205080030 METAR LMML NIL=
201205080015 METAR LMML 080015Z VRB01KT 9999 FEW020 16/15 Q1016 NOSIG=
201205080000 METAR LMML NIL=
201205072345 METAR LMML 072345Z VRB02KT CAVOK 16/15 Q1017 NOSIG=
201205072330 METAR LMML NIL=
201205072315 METAR LMML 072315Z VRB02KT CAVOK 17/15 Q1017 NOSIG=
201205072300 METAR LMML NIL=
201205072245 METAR LMML 072245Z 33006KT CAVOK 17/15 Q1017 NOSIG=
201205072230 METAR LMML NIL=
201205072215 METAR LMML 072215Z 33005KT CAVOK 17/15 Q1017 NOSIG=
201205072200 METAR LMML NIL=
201205072145 METAR LMML 072145Z 32006KT CAVOK 17/15 Q1017 NOSIG=
201205072130 METAR LMML NIL=
201205072115 METAR LMML 072115Z 30004KT CAVOK 18/15 Q1017 NOSIG=
201205072100 METAR LMML NIL=
201205072045 METAR LMML 072045Z VRB01KT CAVOK 19/15 Q1017 NOSIG=
201205072030 METAR LMML NIL=
201205072015 METAR LMML 072015Z VRB02KT CAVOK 18/15 Q1017 NOSIG=
201205072000 METAR LMML NIL=
201205071945 METAR LMML 071945Z 31004KT 240V020 CAVOK 19/16 Q1017 NOSIG=
201205071930 METAR LMML NIL=
201205071915 METAR LMML 071915Z 02004KT 330V070 9999 FEW029 SCT120 BKN250
                        19/16 Q1016 NOSIG=
201205071900 METAR LMML NIL=
201205071845 METAR LMML 071845Z 33006KT 300V040 9999 FEW029 SCT120 BKN250
                        19/15 Q1017 NOSIG=
201205071830 METAR LMML NIL=
201205071815 METAR LMML 071815Z 32005KT 9999 FEW029 SCT120 BKN250 19/16
                        Q1017 NOSIG=
201205071800 METAR LMML NIL=
201205071745 METAR LMML 071745Z 33005KT 300V010 9999 FEW025 SCT120 BKN250
                        19/15 Q1016 NOSIG=
201205071730 METAR LMML NIL=
201205071715 METAR LMML 071715Z 33010KT 9999 FEW019 SCT029 BKN250 20/15
                        Q1017 NOSIG=
201205071700 METAR LMML NIL=
201205071645 METAR LMML 071645Z 29008KT 250V330 9999 FEW016 BKN022 BKN250
                        21/15 Q1017 NOSIG=
201205071630 METAR LMML NIL=
201205071615 METAR LMML 071615Z 24006KT 200V300 9999 SCT021 BKN250 22/16
                        Q1016 N0SIG=
201205071600 METAR LMML NIL=
201205071545 METAR LMML 071545Z VRB02KT 9999 FEW009 BKN250 23/15 Q1016
                        NOSIG=
201205071530 METAR LMML NIL=
201205071515 METAR LMML 071515Z 10004KT 9999 FEW009 BKN250 22/16 Q1016
                        TEMPO BKN008=
201205071500 METAR LMML NIL=
201205071445 METAR LMML 071445Z 11006KT 9999 FEW009 BKN250 22/15 Q1016
                        NOSIG=
201205071430 METAR LMML NIL=
201205071415 METAR LMML 071415Z 11007KT 080V140 CAVOK 22/14 Q1016 NOSIG=
201205071400 METAR LMML NIL=
201205071345 METAR LMML 071345Z 12007KT 080V160 CAVOK 23/15 Q1016 NOSIG=
201205071330 METAR LMML NIL=
201205071315 METAR LMML 071315Z 12005KT 070V160 CAVOK 23/15 Q1017 NOSIG=
201205071300 METAR LMML NIL=
201205071245 METAR LMML 071245Z 12007KT CAVOK 23/14 Q1017 NOSIG=
201205071230 METAR LMML NIL=
201205071215 METAR LMML 071215Z 13007KT 090V150 CAVOK 23/14 Q1017 NOSIG=
201205071200 METAR LMML NIL=
201205071145 METAR LMML 071145Z 12006KT 080V160 CAVOK 24/14 Q1017 NOSIG=
201205071130 METAR LMML NIL=
201205071115 METAR LMML 071115Z 11007KT 070V150 CAVOK 24/14 Q1017 NOSIG=
201205071100 METAR LMML NIL=
201205071045 METAR LMML 071045Z 12007KT 090V150 CAVOK 25/15 Q1017 NOSIG=
201205071030 METAR LMML NIL=
201205071015 METAR LMML 071015Z 10007KT 060V140 CAVOK 24/15 Q1017 NOSIG=
201205071000 METAR LMML NIL=
201205070945 METAR LMML 070945Z 08006KT 050V120 CAVOK 25/14 Q1017 NOSIG=
201205070930 METAR LMML NIL=
201205070915 METAR LMML 070915Z 06004KT 010V100 CAVOK 25/15 Q1017 NOSIG=
201205070900 METAR LMML NIL=
201205070845 METAR LMML 070845Z 06006KT 020V140 CAVOK 24/16 Q1017 NOSIG=
201205070830 METAR LMML NIL=
201205070815 METAR LMML 070815Z 07006KT 020V100 CAVOK 23/16 Q1017 NOSIG=
201205070800 METAR LMML NIL=
201205070745 METAR LMML 070745Z 06005KT 310V120 CAVOK 22/15 Q1017 NOSIG=
201205070730 METAR LMML NIL=
201205070715 METAR LMML 070715Z 06004KT 010V100 CAVOK 23/15 Q1017 NOSIG=
201205070700 METAR LMML NIL=
201205070645 METAR LMML 070645Z 05004KT 010V100 CAVOK 23/15 Q1017 NOSIG=
201205070630 METAR LMML NIL=
201205070615 METAR LMML 070615Z 06004KT 020V100 CAVOK 21/15 Q1016 NOSIG=
201205070600 METAR LMML NIL=
201205070545 METAR LMML 070545Z 07003KT CAVOK 21/15 Q1017 NOSIG=
201205070530 METAR LMML NIL=
201205070515 METAR LMML 070515Z VRB02KT CAVOK 20/15 Q1016 NOSIG=
201205070500 METAR LMML NIL=
201205070445 METAR LMML 070445Z VRB02KT CAVOK 17/13 Q1016 NOSIG=
201205070430 METAR LMML NIL=
201205070415 METAR LMML 070415Z 30003KT CAVOK 17/13 Q1016 NOSIG=
201205070400 METAR LMML NIL=
201205070345 METAR LMML 070345Z 31004KT CAVOK 18/13 Q1016 NOSIG=
201205070330 METAR LMML NIL=
201205070315 METAR LMML 070315Z VRB01KT CAVOK 19/13 Q1015 NOSIG=
201205070300 METAR LMML NIL=
201205070245 METAR LMML 070245Z 03005KT 350V120 CAVOK 19/13 Q1015 NOSIG=
201205070230 METAR LMML NIL=
201205070215 METAR LMML 070215Z 16009KT CAVOK 19/14 Q1014 NOSIG=
201205070200 METAR LMML NIL=
201205070145 METAR LMML 070145Z 15009KT CAVOK 20/13 Q1014 NOSIG=
201205070130 METAR LMML NIL=
201205070115 METAR LMML 070115Z 15009KT 110V180 CAVOK 20/13 Q1014 NOSIG=
201205070100 METAR LMML NIL=
201205070045 METAR LMML 070045Z 14011KT CAVOK 20/13 Q1014 NOSIG=
201205070030 METAR LMML NIL=
201205070015 METAR LMML 070015Z 14011KT 110V170 CAVOK 20/13 Q1014 NOSIG=
201205070000 METAR LMML NIL=
201205062345 METAR LMML 062345Z 14012KT 120V180 CAVOK 19/14 Q1015 NOSIG=
201205062315 METAR LMML 062315Z 14012KT 110V170 CAVOK 19/14 Q1015 NOSIG=
201205062300 METAR LMML NIL=
201205062245 METAR LMML 062245Z 14012KT CAVOK 19/15 Q1015 NOSIG=
201205062230 METAR LMML NIL=
201205062215 METAR LMML 062215Z 14011KT CAVOK 19/15 Q1016 NOSIG=
201205062200 METAR LMML NIL=
201205062145 METAR LMML 062145Z 13010KT CAVOK 19/16 Q1016 NOSIG=
201205062130 METAR LMML NIL=
201205062115 METAR LMML 062115Z 14010KT CAVOK 19/16 Q1016 NOSIG=
201205062100 METAR LMML NIL=
201205062045 METAR LMML 062045Z 13009KT CAVOK 19/15 Q1016 NOSIG=
201205062030 METAR LMML NIL=
201205062015 METAR LMML 062015Z 13008KT CAVOK 18/15 Q1016 NOSIG=
201205062000 METAR LMML NIL=
201205061945 METAR LMML 061945Z 13008KT CAVOK 19/16 Q1016 NOSIG=
201205061930 METAR LMML NIL=
201205061915 METAR LMML 061915Z 12008KT CAVOK 19/16 Q1016 NOSIG=
201205061900 METAR LMML NIL=
201205061845 METAR LMML 061845Z 12009KT CAVOK 19/16 Q1016 NOSIG=
201205061830 METAR LMML NIL=
201205061815 METAR LMML 061815Z 12009KT CAVOK 19/16 Q1016 NOSIG=
201205061800 METAR LMML NIL=
201205061745 METAR LMML 061745Z 12010KT CAVOK 20/16 Q1016 NOSIG=
201205061730 METAR LMML NIL=
201205061715 METAR LMML 061715Z 12009KT CAVOK 21/16 Q1016 NOSIG=
201205061700 METAR LMML NIL=
201205061645 METAR LMML 061645Z 12009KT CAVOK 22/16 Q1016 NOSIG=
201205061630 METAR LMML NIL=
201205061615 METAR LMML 061615Z 12007KT 090V150 CAVOK 23/15 Q1016 NOSIG=
201205061600 METAR LMML NIL=
201205061545 METAR LMML 061545Z 13007KT 100V160 CAVOK 24/15 Q1016 NOSIG=
201205061530 METAR LMML NIL=
201205061515 METAR LMML 061515Z 15008KT 110V200 CAVOK 25/13 Q1016 NOSIG=
201205061500 METAR LMML NIL=
201205061445 METAR LMML 061445Z 16008KT 130V200 CAVOK 25/11 Q1016 NOSIG=
201205061430 METAR LMML NIL=
201205061415 METAR LMML 061415Z 18008KT 140V250 CAVOK 25/13 Q1016 NOSIG=
201205061400 METAR LMML NIL=
201205061345 METAR LMML 061345Z 20008KT 150V250 CAVOK 24/14 Q1017 NOSIG=
201205061330 METAR LMML NIL=
201205061315 METAR LMML 061315Z 19008KT 140V250 CAVOK 25/14 Q1017 NOSIG=
201205061300 METAR LMML NIL=
201205061245 METAR LMML 061245Z 19009KT 130V250 CAVOK 25/12 Q1017 NOSIG=
201205061230 METAR LMML NIL=
201205061215 METAR LMML 061215Z 17009KT 140V200 CAVOK 25/11 Q1017 NOSIG=
201205061200 METAR LMML NIL=
201205061145 METAR LMML 061145Z 18011KT 150V230 CAVOK 25/10 Q1017 NOSIG=
201205061130 METAR LMML NIL=
201205061115 METAR LMML 061115Z 16009KT 130V220 CAVOK 26/09 Q1017 NOSIG=
201205061100 METAR LMML NIL=
201205061045 METAR LMML 061045Z 15010KT CAVOK 26/08 Q1017 NOSIG=
201205061030 METAR LMML NIL=
201205061015 METAR LMML 061015Z 15009KT 120V220 CAVOK 26/09 Q1017 NOSIG=
201205061000 METAR LMML NIL=
201205060945 METAR LMML 060945Z 16009KT 130V200 CAVOK 25/10 Q1017 NOSIG=
201205060930 METAR LMML NIL=
201205060915 METAR LMML 060915Z 16008KT 120V240 CAVOK 25/09 Q1017 NOSIG=
201205060900 METAR LMML NIL=
201205060845 METAR LMML 060845Z 18008KT 130V230 CAVOK 25/09 Q1017 NOSIG=
201205060830 METAR LMML NIL=
201205060815 METAR LMML 060815Z 14007KT 110V170 CAVOK 25/12 Q1017 NOSIG=
201205060800 METAR LMML NIL=
201205060745 METAR LMML 060745Z 16005KT 130V220 CAVOK 24/10 Q1017 NOSIG=
201205060730 METAR LMML NIL=
201205060715 METAR LMML 060715Z 16005KT CAVOK 24/11 Q1017 NOSIG=
201205060700 METAR LMML NIL=
201205060645 METAR LMML 060645Z 16003KT CAVOK 23/12 Q1017 NOSIG=
201205060630 METAR LMML NIL=
201205060615 METAR LMML 060615Z 16003KT CAVOK 22/12 Q1017 NOSIG=
201205060600 METAR LMML NIL=
201205060545 METAR LMML 060545Z 16003KT CAVOK 21/13 Q1016 NOSIG=
201205060530 METAR LMML NIL=
201205060515 METAR LMML 060515Z VRB02KT CAVOK 18/14 Q1016 NOSIG=
201205060500 METAR LMML NIL=
201205060445 METAR LMML 060445Z 18003KT CAVOK 17/14 Q1016 NOSIG=
201205060430 METAR LMML NIL=
201205060415 METAR LMML 060415Z 16003KT CAVOK 16/14 Q1016 NOSIG=
201205060400 METAR LMML NIL=
201205060345 METAR LMML 060345Z 16005KT CAVOK 17/13 Q1016 NOSIG=
201205060330 METAR LMML NIL=
201205060315 METAR LMML 060315Z 16005KT CAVOK 17/11 Q1016 NOSIG=
201205060300 METAR LMML NIL=
201205060245 METAR LMML 060245Z VRB02KT CAVOK 15/12 Q1016 NOSIG=
201205060230 METAR LMML NIL=
201205060215 METAR LMML 060215Z VRB02KT CAVOK 16/11 Q1016 NOSIG=
201205060200 METAR LMML NIL=
201205060145 METAR LMML 060145Z VRB02KT CAVOK 16/10 Q1016 NOSIG=
201205060130 METAR LMML NIL=
201205060115 METAR LMML 060115Z VRB02KT CAVOK 16/10 Q1017 NOSIG=
201205060100 METAR LMML NIL=
201205060045 METAR LMML 060045Z 00000KT CAVOK 16/10 Q1016 NOSIG=
201205060030 METAR LMML NIL=
201205060015 METAR LMML 060015Z VRB02KT CAVOK 17/10 Q1017 NOSIG=
201205060000 METAR LMML NIL=
201205052345 METAR LMML 052345Z VRB02KT CAVOK 17/09 Q1017 NOSIG=
201205052330 METAR LMML NIL=
201205052315 METAR LMML 052315Z VRB02KT CAVOK 18/10 Q1017 NOSIG=
201205052300 METAR LMML NIL=
201205052245 METAR LMML 052245Z VRB02KT CAVOK 18/10 Q1017 NOSIG=
201205052215 METAR LMML 052215Z VRB02KT CAVOK 18/10 Q1017 NOSIG=
201205052200 METAR LMML NIL=
201205052145 METAR LMML 052145Z VRB02KT CAVOK 19/09 Q1017 NOSIG=
201205052130 METAR LMML NIL=
201205052115 METAR LMML 052115Z 21004KT CAVOK 20/09 Q1017 NOSIG=
201205052100 METAR LMML NIL=
201205052045 METAR LMML 052045Z 24004KT CAVOK 19/10 Q1017 NOSIG=
201205052030 METAR LMML NIL=
201205052015 METAR LMML 052015Z 22003KT CAVOK 19/11 Q1017 NOSIG=
201205052000 METAR LMML NIL=
201205051945 METAR LMML 051945Z VRB02KT CAVOK 19/11 Q1017 NOSIG=
201205051930 METAR LMML NIL=
201205051915 METAR LMML 051915Z VRB01KT CAVOK 20/11 Q1017 NOSIG=
201205051900 METAR LMML NIL=
201205051845 METAR LMML 051845Z 33004KT CAVOK 19/11 Q1017 NOSIG=
201205051830 METAR LMML NIL=
201205051815 METAR LMML 051815Z 30004KT CAVOK 20/10 Q1016 NOSIG=
201205051800 METAR LMML NIL=
201205051745 METAR LMML 051745Z 31006KT CAVOK 21/11 Q1016 NOSIG=
201205051730 METAR LMML NIL=
201205051715 METAR LMML 051715Z 31005KT CAVOK 23/11 Q1016 NOSIG=
201205051700 METAR LMML NIL=
201205051645 METAR LMML 051645Z 31007KT CAVOK 24/11 Q1016 NOSIG=
201205051630 METAR LMML NIL=
201205051615 METAR LMML 051615Z 30009KT CAVOK 26/09 Q1016 NOSIG=
201205051600 METAR LMML NIL=
201205051545 METAR LMML 051545Z 30008KT CAVOK 27/09 Q1016 NOSIG=
201205051530 METAR LMML NIL=
201205051515 METAR LMML 051515Z 29008KT CAVOK 27/08 Q1016 NOSIG=
201205051500 METAR LMML NIL=
201205051445 METAR LMML 051445Z 30005KT 250V350 CAVOK 27/10 Q1016 NOSIG=
201205051430 METAR LMML NIL=
201205051415 METAR LMML 051415Z 31004KT 240V010 CAVOK 28/09 Q1016 NOSIG=
201205051400 METAR LMML NIL=
201205051345 METAR LMML 051345Z 35006KT 310V060 CAVOK 27/11 Q1016 NOSIG=
201205051330 METAR LMML NIL=
201205051315 METAR LMML 051315Z 34007KT 320V030 CAVOK 27/10 Q1016 NOSIG=
201205051300 METAR LMML NIL=
201205051245 METAR LMML 051245Z 30006KT 240V040 CAVOK 27/09 Q1016 NOSIG
                        RMK WS RW31=
201205051230 METAR LMML NIL=
201205051215 METAR LMML 051215Z 33010KT 310V010 CAVOK 26/10 Q1017 NOSIG=
201205051200 METAR LMML NIL=
201205051145 METAR LMML 051145Z 32010KT CAVOK 26/12 Q1017 NOSIG=
201205051130 METAR LMML NIL=
201205051115 METAR LMML 051115Z 32008KT 290V010 CAVOK 27/11 Q1016 NOSIG=
201205051100 METAR LMML NIL=
201205051045 METAR LMML 051045Z 34009KT 300V020 CAVOK 27/10 Q1016 NOSIG=
201205051030 METAR LMML NIL=
201205051015 METAR LMML 051015Z 33010KT 290V360 CAVOK 26/12 Q1017 NOSIG=
201205050945 METAR LMML 050945Z 31009KT 280V350 CAVOK 26/14 Q1017 NOSIG=
201205050930 METAR LMML NIL=
201205050915 METAR LMML 050915Z 33007KT 270V030 CAVOK 27/13 Q1016 NOSIG=
201205050900 METAR LMML NIL=
201205050845 METAR LMML 050845Z 33008KT 300V010 CAVOK 26/13 Q1016 NOSIG=
201205050830 METAR LMML NIL=
201205050815 METAR LMML 050815Z 33008KT CAVOK 25/12 Q1016 NOSIG=
201205050800 METAR LMML NIL=
201205050745 METAR LMML 050745Z 34006KT 300V010 CAVOK 25/13 Q1016 NOSIG=
201205050730 METAR LMML NIL=
201205050715 METAR LMML 050715Z 33005KT 300V010 CAVOK 24/12 Q1016 NOSIG=
201205050700 METAR LMML NIL=
201205050645 METAR LMML 050645Z 32005KT 280V350 CAVOK 23/11 Q1015 NOSIG=
201205050630 METAR LMML NIL=
201205050615 METAR LMML 050615Z 30003KT CAVOK 21/11 Q1015 NOSIG=
201205050600 METAR LMML NIL=
201205050545 METAR LMML 050545Z 31003KT CAVOK 20/12 Q1015 NOSIG=
201205050515 METAR LMML 050515Z VRB02KT CAVOK 19/12 Q1015 NOSIG=
201205050500 METAR LMML NIL=
201205050445 METAR LMML 050445Z 29004KT CAVOK 18/12 Q1015 NOSIG=
201205050430 METAR LMML NIL=
201205050415 METAR LMML 050415Z 30003KT CAVOK 17/12 Q1014 NOSIG=
201205050345 METAR LMML 050345Z 30005KT CAVOK 17/12 Q1014 NOSIG=
201205050330 METAR LMML NIL=
201205050315 METAR LMML 050315Z 30004KT 270V330 CAVOK 17/12 Q1014 NOSIG=
201205050300 METAR LMML NIL=
201205050245 METAR LMML 050245Z 29006KT 260V320 CAVOK 17/12 Q1014 NOSIG=
201205050230 METAR LMML NIL=
201205050215 METAR LMML 050215Z 29006KT CAVOK 17/13 Q1014 NOSIG=
201205050200 METAR LMML NIL=
201205050145 METAR LMML 050145Z 28007KT CAVOK 17/13 Q1014 NOSIG=
201205050130 METAR LMML NIL=
201205050115 METAR LMML 050115Z 28007KT CAVOK 17/13 Q1014 NOSIG=
201205050100 METAR LMML NIL=
201205050045 METAR LMML 050045Z 29005KT CAVOK 18/09 Q1014 NOSIG=
201205050030 METAR LMML NIL=
201205050015 METAR LMML 050015Z 25004KT 230V300 CAVOK 17/09 Q1014 NOSIG=
201205050000 METAR LMML NIL=
201205042345 METAR LMML 042345Z 31003KT CAVOK 18/10 Q1014 NOSIG=
201205042330 METAR LMML NIL=
201205042315 METAR LMML 042315Z 30003KT CAVOK 18/11 Q1014 NOSIG=
201205042300 METAR LMML NIL=
201205042245 METAR LMML 042245Z 30004KT CAVOK 18/12 Q1014 NOSIG=
201205042230 METAR LMML NIL=
201205042215 METAR LMML 042215Z 32003KT CAVOK 18/12 Q1014 NOSIG=
201205042200 METAR LMML NIL=
201205042145 METAR LMML 042145Z 30004KT 270V330 CAVOK 18/12 Q1015 NOSIG=
201205042130 METAR LMML NIL=
201205042115 METAR LMML 042115Z 29005KT CAVOK 18/11 Q1015 NOSIG=
201205042100 METAR LMML NIL=
201205042045 METAR LMML 042045Z 31003KT CAVOK 18/11 Q1015 NOSIG=
201205042030 METAR LMML NIL=
201205042015 METAR LMML 042015Z 26003KT CAVOK 18/12 Q1014 NOSIG=
201205042000 METAR LMML NIL=
201205041945 METAR LMML 041945Z 31003KT CAVOK 18/12 Q1014 NOSIG=
201205041930 METAR LMML NIL=
201205041915 METAR LMML 041915Z 33004KT 290V030 CAVOK 19/10 Q1014 NOSIG=
201205041900 METAR LMML NIL=
201205041845 METAR LMML 041845Z 34003KT CAVOK 20/08 Q1013 NOSIG=
201205041830 METAR LMML NIL=
201205041815 METAR LMML 041815Z 26004KT 230V290 CAVOK 20/08 Q1013 NOSIG=
201205041800 METAR LMML NIL=
201205041745 METAR LMML 041745Z 29005KT CAVOK 21/07 Q1013 NOSIG=
201205041730 METAR LMML NIL=
201205041715 METAR LMML 041715Z 29005KT 260V320 CAVOK 23/07 Q1013 NOSIG=
201205041645 METAR LMML 041645Z 30008KT CAVOK 23/07 Q1012 NOSIG=
201205041630 METAR LMML NIL=
201205041615 METAR LMML 041615Z 30008KT CAVOK 24/07 Q1012 NOSIG=
201205041600 METAR LMML NIL=
201205041545 METAR LMML 041545Z 30009KT CAVOK 25/05 Q1013 NOSIG=
201205041530 METAR LMML NIL=
201205041515 METAR LMML 041515Z 29008KT CAVOK 26/06 Q1013 NOSIG=
201205041500 METAR LMML NIL=
201205041445 METAR LMML 041445Z 30008KT 270V350 CAVOK 26/07 Q1013 NOSIG=
201205041430 METAR LMML NIL=
201205041415 METAR LMML 041415Z 31008KT 270V020 CAVOK 27/08 Q1013 NOSIG=
201205041400 METAR LMML NIL=
201205041345 METAR LMML 041345Z 33006KT 280V040 9999 FEW030 27/08 Q1013
                        NOSIG=
201205041315 METAR LMML 041315Z 36005KT 300V060 9999 FEW030 27/13 Q1013
                        NOSIG=
201205041300 METAR LMML NIL=
201205041245 METAR LMML 041245Z 21008KT 150V250 9999 FEW030 25/11 Q1013
                        NOSIG=
201205041230 METAR LMML NIL=
201205041215 METAR LMML 041215Z 22008KT 160V270 9999 FEW030 24/15 Q1013
                        NOSIG=
201205041200 METAR LMML NIL=
201205041145 METAR LMML 041145Z 20008KT 160V250 9999 FEW030 24/16 Q1013
                        NOSIG=
201205041130 METAR LMML NIL=
201205041115 METAR LMML 041115Z 19006KT 130V240 9999 FEW034 24/15 Q1013
                        NOSIG=
201205041100 METAR LMML NIL=
201205041045 METAR LMML 041045Z 21006KT 150V330 9999 FEW018 24/16 Q1013
                        NOSIG=
201205041030 METAR LMML NIL=
201205041015 METAR LMML 041015Z VRB02KT 9999 FEW018 24/16 Q1013 NOSIG=
201205041000 METAR LMML NIL=
201205040945 METAR LMML 040945Z 04005KT 010V130 9999 FEW030 26/10 Q1013
                        NOSIG=
201205040930 METAR LMML NIL=
201205040915 METAR LMML 040915Z 05006KT 360V120 CAVOK 25/12 Q1013 NOSIG=
201205040900 METAR LMML NIL=
201205040845 METAR LMML 040845Z 24004KT 150V360 CAVOK 24/15 Q1013 NOSIG=
201205040830 METAR LMML NIL=
201205040815 METAR LMML 040815Z 33004KT 290V040 CAVOK 25/06 Q1013 NOSIG=
201205040800 METAR LMML NIL=
201205040745 METAR LMML 040745Z 34003KT CAVOK 24/09 Q1013 NOSIG=
201205040730 METAR LMML NIL=
201205040715 METAR LMML 040715Z VRB02KT CAVOK 23/12 Q1012 NOSIG=
201205040700 METAR LMML NIL=
201205040645 METAR LMML 040645Z 02004KT 330V070 CAVOK 22/14 Q1012 NOSIG=
201205040630 METAR LMML NIL=
201205040615 METAR LMML 040615Z VRB02KT CAVOK 21/15 Q1012 NOSIG=
201205040600 METAR LMML NIL=
201205040545 METAR LMML 040545Z 35003KT CAVOK 19/16 Q1012 NOSIG=
201205040530 METAR LMML NIL=
201205040515 METAR LMML 040515Z 34003KT CAVOK 18/16 Q1012 NOSIG=
201205040500 METAR LMML NIL=
201205040445 METAR LMML 040445Z 33004KT CAVOK 16/15 Q1012 NOSIG=
201205040430 METAR LMML NIL=
201205040415 METAR LMML 040415Z 34004KT CAVOK 15/15 Q1011 NOSIG=
201205040400 METAR LMML NIL=
201205040345 METAR LMML 040345Z 33004KT CAVOK 16/14 Q1011 NOSIG=
201205040315 METAR LMML 040315Z 31004KT CAVOK 16/14 Q1011 NOSIG=
201205040300 METAR LMML NIL=
201205040245 METAR LMML 040245Z 32004KT CAVOK 16/13 Q1011 NOSIG=
201205040230 METAR LMML NIL=
201205040215 METAR LMML 040215Z 33003KT CAVOK 16/12 Q1011 NOSIG=
201205040200 METAR LMML NIL=
201205040145 METAR LMML 040145Z 32003KT CAVOK 16/11 Q1011 NOSIG=
201205040130 METAR LMML NIL=
201205040115 METAR LMML 040115Z VRB02KT CAVOK 16/11 Q1011 NOSIG=
201205040100 METAR LMML NIL=
201205040045 METAR LMML 040045Z 34004KT CAVOK 16/11 Q1011 NOSIG=
201205040030 METAR LMML NIL=
201205040015 METAR LMML 040015Z VRB01KT CAVOK 16/10 Q1011 NOSIG=
201205040000 METAR LMML NIL=
201205032345 METAR LMML 032345Z 26003KT CAVOK 17/10 Q1011 NOSIG=
201205032330 METAR LMML NIL=
201205032315 METAR LMML 032315Z 27004KT 240V300 CAVOK 17/10 Q1012 NOSIG=
201205032300 METAR LMML NIL=
201205032245 METAR LMML 032245Z 28004KT CAVOK 17/09 Q1012 NOSIG=
201205032230 METAR LMML NIL=
201205032215 METAR LMML 032215Z 25003KT CAVOK 17/12 Q1012 NOSIG=
201205032200 METAR LMML NIL=
201205032145 METAR LMML 032145Z VRB02KT CAVOK 17/13 Q1012 NOSIG=
201205032130 METAR LMML NIL=
201205032115 METAR LMML 032115Z 21004KT CAVOK 18/13 Q1012 NOSIG=
201205032100 METAR LMML NIL=
201205032045 METAR LMML 032045Z 22003KT CAVOK 18/11 Q1012 NOSIG=
201205032030 METAR LMML NIL=
201205032015 METAR LMML 032015Z 21003KT CAVOK 18/14 Q1012 NOSIG=
201205032000 METAR LMML NIL=
201205031945 METAR LMML 031945Z VRB02KT CAVOK 18/14 Q1012 NOSIG=
201205031930 METAR LMML NIL=
201205031915 METAR LMML 031915Z 32004KT CAVOK 18/14 Q1012 NOSIG=
201205031900 METAR LMML NIL=
201205031845 METAR LMML 031845Z 33004KT 300V010 CAVOK 18/15 Q1012 NOSIG=
201205031830 METAR LMML NIL=
201205031815 METAR LMML 031815Z 36004KT 330V040 CAVOK 19/13 Q1012 NOSIG=
201205031800 METAR LMML NIL=
201205031745 METAR LMML 031745Z 35005KT 320V040 CAVOK 20/13 Q1012 NOSIG=
201205031730 METAR LMML NIL=
201205031715 METAR LMML 031715Z 02004KT 340V100 CAVOK 22/15 Q1011 NOSIG=
201205031700 METAR LMML NIL=
201205031645 METAR LMML 031645Z 35004KT 160V080 CAVOK 22/15 Q1011 NOSIG=
201205031630 METAR LMML NIL=
201205031615 METAR LMML 031615Z 20004KT 120V260 CAVOK 22/15 Q1011 NOSIG=
201205031600 METAR LMML NIL=
201205031545 METAR LMML 031545Z 21006KT 160V250 CAVOK 23/15 Q1011 NOSIG=
201205031530 METAR LMML NIL=
201205031515 METAR LMML 031515Z 14003KT CAVOK 23/14 Q1011 NOSIG=
201205031500 METAR LMML NIL=
201205031445 METAR LMML 031445Z 11004KT CAVOK 25/15 Q1011 NOSIG=
201205031430 METAR LMML NIL=
201205031415 METAR LMML 031415Z 04005KT 240V100 9999 FEW024 25/14 Q1012
                        NOSIG=
201205031400 METAR LMML NIL=
201205031345 METAR LMML 031345Z 01005KT 330V090 9999 FEW025 25/15 Q1012
                        NOSIG=
201205031315 METAR LMML 031315Z 03006KT 340V090 9999 FEW025 26/14 Q1012
                        NOSIG=
201205031300 METAR LMML NIL=
201205031245 METAR LMML 031245Z 01007KT 330V050 9999 FEW025 26/13 Q1012
                        NOSIG=
201205031230 METAR LMML NIL=
201205031215 METAR LMML 031215Z 05005KT CAVOK 26/13 Q1012 NOSIG=
201205031200 METAR LMML NIL=
201205031145 METAR LMML 031145Z 10003KT 9999 FEW025 26/13 Q1012 NOSIG=
201205031130 METAR LMML NIL=
201205031115 METAR LMML 031115Z 36003KT CAVOK 25/15 Q1012 NOSIG=
201205031100 METAR LMML NIL=
201205031045 METAR LMML 031045Z 08004KT 350V170 9999 FEW025 26/12 Q1013
                        NOSIG=
201205031030 METAR LMML NIL=
201205031015 METAR LMML 031015Z 36004KT 260V080 9999 FEW025 27/12 Q1013
                        NOSIG=
201205031000 METAR LMML NIL=
201205030945 METAR LMML 030945Z 04003KT 9999 FEW025 26/13 Q1013 NOSIG=
201205030930 METAR LMML NIL=
201205030915 METAR LMML 030915Z 06004KT 350V130 9999 FEW025 24/14 Q1013
                        NOSIG=
201205030900 METAR LMML NIL=
201205030845 METAR LMML 030845Z 35003KT CAVOK 25/15 Q1013 NOSIG=
201205030830 METAR LMML NIL=
201205030815 METAR LMML 030815Z 04003KT CAVOK 24/14 Q1013 NOSIG=
201205030800 METAR LMML NIL=
201205030745 METAR LMML 030745Z VRB02KT CAVOK 24/13 Q1013 NOSIG=
201205030730 METAR LMML NIL=
201205030715 METAR LMML 030715Z VRB02KT CAVOK 24/11 Q1013 NOSIG=
201205030700 METAR LMML NIL=
201205030645 METAR LMML 030645Z VRB02KT CAVOK 23/12 Q1013 NOSIG=
201205030630 METAR LMML NIL=
201205030615 METAR LMML 030615Z VRB02KT CAVOK 20/12 Q1013 NOSIG=
201205030545 METAR LMML 030545Z VRB01KT CAVOK 19/11 Q1012 NOSIG=
201205030530 METAR LMML NIL=
201205030515 METAR LMML 030515Z VRB01KT CAVOK 17/13 Q1012 NOSIG=
201205030445 METAR LMML 030445Z VRB01KT 9999 FEW012 15/12 Q1012 NOSIG=
201205030430 METAR LMML NIL=
201205030415 METAR LMML 030415Z VRB01KT CAVOK 14/12 Q1012 NOSIG=
201205030400 METAR LMML NIL=
201205030345 METAR LMML 030345Z VRB02KT CAVOK 14/12 Q1012 NOSIG=
201205030330 METAR LMML NIL=
201205030315 METAR LMML 030315Z VRB01KT CAVOK 14/11 Q1012 NOSIG=
201205030300 METAR LMML NIL=
201205030245 METAR LMML 030245Z VRB01KT CAVOK 15/12 Q1012 NOSIG=
201205030230 METAR LMML NIL=
201205030215 METAR LMML 030215Z 26003KT CAVOK 15/12 Q1012 NOSIG=
201205030200 METAR LMML NIL=
201205030145 METAR LMML 030145Z VRB01KT CAVOK 15/10 Q1012 NOSIG=
201205030130 METAR LMML NIL=
201205030115 METAR LMML 030115Z 29004KT 270V330 CAVOK 16/09 Q1012 NOSIG=
201205030045 METAR LMML 030045Z 27004KT CAVOK 16/08 Q1013 NOSIG=
201205030015 METAR LMML 030015Z 28003KT CAVOK 17/06 Q1013 NOSIG=
201205030000 METAR LMML NIL=
201205022345 METAR LMML 022345Z VRB02KT CAVOK 16/08 Q1013 NOSIG=
201205022315 METAR LMML 022315Z VRB01KT CAVOK 16/07 Q1014 NOSIG=
201205022300 METAR LMML NIL=
201205022245 METAR LMML 022245Z VRB02KT CAVOK 17/08 Q1014 NOSIG=
201205022230 METAR LMML NIL=
201205022215 METAR LMML 022215Z 29003KT CAVOK 18/07 Q1014 NOSIG=
201205022145 METAR LMML 022145Z 28003KT CAVOK 17/09 Q1014 NOSIG=
201205022130 METAR LMML NIL=
201205022115 METAR LMML 022115Z 31003KT CAVOK 17/10 Q1014 NOSIG=
201205022100 METAR LMML NIL=
201205022045 METAR LMML 022045Z VRB02KT CAVOK 18/11 Q1014 NOSIG=
201205022030 METAR LMML NIL=
201205022015 METAR LMML 022015Z 30003KT CAVOK 18/12 Q1014 NOSIG=
201205022000 METAR LMML NIL=
201205021945 METAR LMML 021945Z 32004KT 290V350 CAVOK 18/11 Q1014 NOSIG=
201205021930 METAR LMML NIL=
201205021915 METAR LMML 021915Z VRB01KT CAVOK 18/10 Q1014 NOSIG=
201205021900 METAR LMML NIL=
201205021845 METAR LMML 021845Z 27003KT CAVOK 19/09 Q1014 NOSIG=
201205021815 METAR LMML 021815Z 31004KT CAVOK 20/07 Q1014 NOSIG=
201205021800 METAR LMML NIL=
201205021745 METAR LMML 021745Z VRB02KT CAVOK 20/09 Q1014 NOSIG=
201205021730 METAR LMML NIL=
201205021715 METAR LMML 021715Z 25003KT CAVOK 22/09 Q1014 NOSIG=
201205021700 METAR LMML NIL=
201205021645 METAR LMML 021645Z VRB02KT CAVOK 24/09 Q1014 NOSIG=
201205021630 METAR LMML NIL=
201205021615 METAR LMML 021615Z 02004KT 340V070 CAVOK 25/09 Q1013 NOSIG=
201205021600 METAR LMML NIL=
201205021545 METAR LMML 021545Z 02004KT 340V060 CAVOK 25/07 Q1013 NOSIG=
201205021530 METAR LMML NIL=
201205021515 METAR LMML 021515Z 02004KT 330V090 CAVOK 26/08 Q1014 NOSIG=
201205021500 METAR LMML NIL=
201205021445 METAR LMML 021445Z 02004KT 330V080 CAVOK 26/09 Q1014 NOSIG=
201205021430 METAR LMML NIL=
201205021415 METAR LMML 021415Z 03005KT 360V080 CAVOK 26/08 Q1014 NOSIG=
201205021400 METAR LMML NIL=
201205021345 METAR LMML 021345Z 02005KT 320V090 CAVOK 26/08 Q1014 NOSIG=
201205021330 METAR LMML NIL=
201205021315 METAR LMML 021315Z 21004KT 150V270 CAVOK 26/04 Q1014 NOSIG=
201205021300 METAR LMML NIL=
201205021245 METAR LMML 021245Z 13006KT 090V170 CAVOK 26/04 Q1015 NOSIG=
201205021230 METAR LMML NIL=
201205021215 METAR LMML 021215Z 13005KT 080V180 CAVOK 26/03 Q1015 NOSIG=
201205021200 METAR LMML NIL=
201205021145 METAR LMML 021145Z 14006KT 080V190 CAVOK 26/03 Q1015 NOSIG=
201205021130 METAR LMML NIL=
201205021115 METAR LMML 021115Z 12005KT 080V170 CAVOK 26/04 Q1015 NOSIG=
201205021100 METAR LMML NIL=
201205021045 METAR LMML 021045Z 09004KT 030V130 CAVOK 26/03 Q1015 NOSIG=
201205021030 METAR LMML NIL=
201205021015 METAR LMML 021015Z 11005KT 080V150 CAVOK 25/04 Q1016 NOSIG=
201205021000 METAR LMML NIL=
201205020945 METAR LMML 020945Z 08006KT 020V130 CAVOK 25/03 Q1016 NOSIG=
201205020930 METAR LMML NIL=
201205020915 METAR LMML 020915Z 08006KT 050V140 CAVOK 24/05 Q1016 NOSIG=
201205020900 METAR LMML NIL=
201205020845 METAR LMML 020845Z 08005KT 040V120 CAVOK 24/08 Q1016 NOSIG=
201205020830 METAR LMML NIL=
201205020815 METAR LMML 020815Z 06005KT 360V110 CAVOK 24/08 Q1016 NOSIG=
201205020800 METAR LMML NIL=
201205020745 METAR LMML 020745Z 03004KT 340V070 CAVOK 23/11 Q1016 NOSIG=
201205020730 METAR LMML NIL=
201205020715 METAR LMML 020715Z 03004KT 360V080 CAVOK 22/14 Q1016 NOSIG=
201205020700 METAR LMML NIL=
201205020645 METAR LMML 020645Z 04004KT 010V080 CAVOK 21/15 Q1016 NOSIG=
201205020630 METAR LMML NIL=
201205020615 METAR LMML 020615Z 02003KT 8000 NSC 20/15 Q1016 BECMG CAVOK=
201205020600 METAR LMML NIL=
201205020545 METAR LMML 020545Z 34003KT 7000 NSC 18/16 Q1016 TEMPO 5000
                        BR=
201205020530 METAR LMML NIL=
201205020515 METAR LMML 020515Z 33004KT 7000 NSC 16/14 Q1016 TEMPO 5000
                        BR=
201205020500 METAR LMML NIL=
201205020445 METAR LMML 020445Z 32004KT 7000 NSC 15/14 Q1016 TEMPO 5000
                        BR=
201205020430 METAR LMML NIL=
201205020415 METAR LMML 020415Z VRB02KT 7000 NSC 15/14 Q1015 TEMPO 5000
                        BR=
201205020400 METAR LMML NIL=
201205020345 METAR LMML 020345Z VRB02KT 7000 NSC 15/14 Q1015 TEMPO 5000
                        BR=
201205020330 METAR LMML NIL=
201205020315 METAR LMML 020315Z 02003KT 7000 NSC 16/15 Q1015 TEMPO 5000
                        BR=
201205020300 METAR LMML NIL=
201205020245 METAR LMML 020245Z 01004KT 7000 NSC 15/14 Q1014 TEMPO 5000
                        BR=
201205020230 METAR LMML NIL=
201205020215 METAR LMML 020215Z 02004KT 7000 NSC 16/14 Q1015 TEMPO 5000
                        BR=
201205020200 METAR LMML NIL=
201205020145 METAR LMML 020145Z 04003KT 7000 NSC 16/14 Q1015 TEMPO 5000
                        BR=
201205020130 METAR LMML NIL=
201205020115 METAR LMML 020115Z VRB02KT 7000 NSC 16/14 Q1015 TEMPO 5000
                        BR=
201205020100 METAR LMML NIL=
201205020045 METAR LMML 020045Z VRB02KT 7000 NSC 16/14 Q1015 TEMPO 5000
                        BR=
201205020030 METAR LMML NIL=
201205020015 METAR LMML 020015Z 06003KT 7000 NSC 17/14 Q1015 TEMPO 5000
                        BR=
201205020000 METAR LMML NIL=
201205012345 METAR LMML 012345Z 07004KT 040V100 7000 NSC 16/15 Q1015 TEMPO
                        5000 BR=
201205012330 METAR LMML NIL=
201205012315 METAR LMML 012315Z 07004KT 7000 NSC 16/15 Q1015 TEMPO 5000
                        BR=
201205012300 METAR LMML NIL=
201205012245 METAR LMML 012245Z 06005KT 030V090 7000 NSC 17/15 Q1015 TEMPO
                        5000 BR=
201205012230 METAR LMML NIL=
201205012215 METAR LMML 012215Z 06005KT 030V090 9000 NSC 17/15 Q1015 NOSIG=
201205012200 METAR LMML NIL=
201205012145 METAR LMML 012145Z 06004KT 030V110 9000 NSC 17/15 Q1016 NOSIG=
201205012130 METAR LMML NIL=
201205012115 METAR LMML 012115Z 06005KT 020V090 CAVOK 17/15 Q1016 NOSIG=
201205012100 METAR LMML NIL=
201205012045 METAR LMML 012045Z 07004KT 030V090 CAVOK 17/15 Q1015 NOSIG=
201205012030 METAR LMML NIL=
201205012015 METAR LMML 012015Z 07006KT 040V100 CAVOK 17/15 Q1015 NOSIG=
201205012000 METAR LMML NIL=
201205011945 METAR LMML 011945Z 06005KT 020V100 CAVOK 18/15 Q1015 NOSIG=
201205011930 METAR LMML NIL=
201205011915 METAR LMML 011915Z 06006KT 020V090 CAVOK 18/14 Q1015 NOSIG=
201205011900 METAR LMML NIL=
201205011845 METAR LMML 011845Z 07006KT 040V110 CAVOK 18/15 Q1015 NOSIG=
201205011830 METAR LMML NIL=
201205011815 METAR LMML 011815Z 07007KT 040V110 CAVOK 18/15 Q1014 NOSIG=
201205011800 METAR LMML NIL=
201205011745 METAR LMML 011745Z 07007KT 040V100 CAVOK 18/14 Q1014 NOSIG=
201205011730 METAR LMML NIL=
201205011715 METAR LMML 011715Z 08008KT 050V120 CAVOK 19/14 Q1014 NOSIG=
201205011700 METAR LMML NIL=
201205011645 METAR LMML 011645Z 09007KT CAVOK 20/13 Q1014 NOSIG=
201205011630 METAR LMML NIL=
201205011615 METAR LMML 011615Z 10007KT 070V130 CAVOK 21/13 Q1014 NOSIG=
201205011600 METAR LMML NIL=
201205011545 METAR LMML 011545Z 10007KT 060V140 CAVOK 22/13 Q1014 NOSIG=
201205011530 METAR LMML NIL=
201205011515 METAR LMML 011515Z 09008KT 050V140 CAVOK 22/12 Q1014 NOSIG=
201205011500 METAR LMML NIL=
201205011445 METAR LMML 011445Z 09007KT 030V130 CAVOK 23/10 Q1015 NOSIG=
201205011430 METAR LMML NIL=
201205011415 METAR LMML 011415Z 09009KT 050V130 CAVOK 23/11 Q1015 NOSIG=
201205011400 METAR LMML NIL=
201205011345 METAR LMML 011345Z 09009KT 060V120 CAVOK 23/11 Q1015 NOSIG=
201205011330 METAR LMML NIL=
201205011315 METAR LMML 011315Z 10008KT 060V160 CAVOK 24/09 Q1015 NOSIG=
201205011300 METAR LMML NIL=
201205011245 METAR LMML 011245Z 11008KT 070V150 CAVOK 24/11 Q1015 NOSIG=
201205011230 METAR LMML NIL=
201205011215 METAR LMML 011215Z 11008KT 080V150 CAVOK 24/09 Q1015 NOSIG=
201205011200 METAR LMML NIL=
201205011145 METAR LMML 011145Z 12009KT 080V160 CAVOK 23/11 Q1015 NOSIG=
201205011130 METAR LMML NIL=
201205011115 METAR LMML 011115Z 11009KT 080V150 CAVOK 23/12 Q1015 NOSIG=
201205011100 METAR LMML NIL=
201205011045 METAR LMML 011045Z 11011KT 070V150 CAVOK 23/12 Q1015 NOSIG=
201205011030 METAR LMML NIL=
201205011015 METAR LMML 011015Z 11010KT CAVOK 23/12 Q1015 NOSIG=
201205011000 METAR LMML NIL=
201205010945 METAR LMML 010945Z 12012KT 080V150 CAVOK 22/11 Q1015 NOSIG=
201205010915 METAR LMML 010915Z 12011KT 090V150 CAVOK 22/12 Q1015 NOSIG=
201205010900 METAR LMML NIL=
201205010845 METAR LMML 010845Z 11010KT 080V150 CAVOK 22/13 Q1015 NOSIG=
201205010830 METAR LMML NIL=
201205010815 METAR LMML 010815Z 11009KT 080V150 CAVOK 22/14 Q1015 NOSIG=
201205010800 METAR LMML NIL=
201205010745 METAR LMML 010745Z 11010KT 080V140 CAVOK 21/13 Q1015 NOSIG=
201205010730 METAR LMML NIL=
201205010715 METAR LMML 010715Z 11011KT CAVOK 20/14 Q1014 NOSIG=
201205010700 METAR LMML NIL=
201205010645 METAR LMML 010645Z 11009KT 090V150 CAVOK 20/14 Q1014 NOSIG=
201205010615 METAR LMML 010615Z 11008KT 080V140 CAVOK 19/14 Q1014 NOSIG=
201205010600 METAR LMML NIL=
201205010545 METAR LMML 010545Z 10007KT CAVOK 18/15 Q1014 NOSIG=
201205010530 METAR LMML NIL=
201205010515 METAR LMML 010515Z 10005KT CAVOK 17/15 Q1014 TEMPO FEW005=
201205010500 METAR LMML NIL=
201205010445 METAR LMML 010445Z 10005KT CAVOK 16/15 Q1014 TEMPO FEW005=
201205010430 METAR LMML NIL=
201205010415 METAR LMML 010415Z 10005KT 9000 NSC 16/15 Q1014 TEMPO FEW005=
201205010400 METAR LMML NIL=
201205010345 METAR LMML 010345Z 10005KT 9000 NSC 16/15 Q1014 TEMPO SCT005=
201205010330 METAR LMML NIL=
201205010315 METAR LMML 010315Z 10006KT 9000 FEW004 16/15 Q1014 TEMPO
                        BKN004=
201205010300 METAR LMML NIL=
201205010245 METAR LMML 010245Z 08006KT 9000 FEW004 16/15 Q1014 TEMPO
                        BKN004=
201205010230 METAR LMML NIL=
201205010215 METAR LMML 010215Z 09005KT 9000 FEW004 16/14 Q1014 TEMPO
                        BKN004=
201205010200 METAR LMML NIL=
201205010145 METAR LMML 010145Z 11004KT 080V140 9000 FEW004 16/14 Q1014
                        TEMPO BKN004=
201205010130 METAR LMML NIL=
201205010115 METAR LMML 010115Z 10005KT 9000 FEW004 16/14 Q1014 TEMPO
                        BKN004=
201205010100 METAR LMML NIL=
201205010045 METAR LMML 010045Z 09005KT 9000 FEW004 16/15 Q1014 TEMPO
                        BKN004=
201205010030 METAR LMML NIL=
201205010015 METAR LMML 010015Z 09005KT 9000 FEW004 SCT120 16/15 Q1014
                        TEMPO BKN004=
201205010000 METAR LMML NIL=
