##########################################################
# Query made at 01/18/2013 16:58:16 UTC
# Time interval: from 05/01/2008 00:00  to 05/31/2008 23:59  UTC
##########################################################

##########################################################
# LMML, Luqa (Malta)
# WMO index: 16597
# Latitude 35-51N. Longitude 014-29E. Altitude 91 m.
##########################################################

###################################
#  METAR/SPECI from LMML
###################################
200805312345 METAR LMML 312345Z VRB03KT CAVOK 19/10 Q1017 NOSIG=
200805312330 METAR LMML NIL=
200805312315 METAR LMML 312315Z VRB02KT CAVOK 19/11 Q1017 NOSIG=
200805312300 METAR LMML NIL=
200805312245 METAR LMML 312245Z VRB02KT CAVOK 19/12 Q1017 NOSIG=
200805312230 METAR LMML NIL=
200805312215 METAR LMML 312215Z VRB03KT CAVOK 19/15 Q1018 NOSIG=
200805312200 METAR LMML NIL=
200805312145 METAR LMML 312145Z VRB01KT CAVOK 20/15 Q1018 NOSIG=
200805312130 METAR LMML NIL=
200805312115 METAR LMML 312115Z VRB02KT CAVOK 20/15 Q1018 NOSIG=
200805312100 METAR LMML NIL=
200805312045 METAR LMML 312045Z VRB02KT CAVOK 20/15 Q1018 NOSIG=
200805312030 METAR LMML NIL=
200805312015 METAR LMML 312015Z VRB02KT CAVOK 20/15 Q1018 NOSIG=
200805312000 METAR LMML NIL=
200805311945 METAR LMML 311945Z VRB03KT CAVOK 21/15 Q1017 NOSIG=
200805311930 METAR LMML NIL=
200805311915 METAR LMML 311915Z VRB03KT CAVOK 21/16 Q1017 NOSIG=
200805311845 METAR LMML 311845Z VRB03KT CAVOK 21/14 Q1017 NOSIG=
200805311830 METAR LMML NIL=
200805311815 METAR LMML 311815Z VRB03KT CAVOK 22/13 Q1017 NOSIG=
200805311800 METAR LMML NIL=
200805311745 METAR LMML 311745Z 03004KT 330V090 CAVOK 23/12 Q1017 NOSIG=
200805311730 METAR LMML NIL=
200805311715 METAR LMML 311715Z 07005KT 030V100 CAVOK 24/13 Q1017 NOSIG=
200805311700 METAR LMML NIL=
200805311645 METAR LMML 311645Z 09005KT 030V130 CAVOK 24/13 Q1016 NOSIG=
200805311630 METAR LMML NIL=
200805311615 METAR LMML 311615Z 11007KT CAVOK 24/13 Q1017 NOSIG=
200805311600 METAR LMML NIL=
200805311545 METAR LMML 311545Z 12008KT CAVOK 26/11 Q1016 NOSIG=
200805311530 METAR LMML NIL=
200805311515 METAR LMML 311515Z VRB03KT CAVOK 28/10 Q1016 NOSIG=
200805311500 METAR LMML NIL=
200805311445 METAR LMML 311445Z 32005KT 270V050 CAVOK 28/10 Q1017 NOSIG=
200805311430 METAR LMML NIL=
200805311415 METAR LMML 311415Z 34005KT 270V050 CAVOK 28/10 Q1017 NOSIG=
200805311400 METAR LMML NIL=
200805311345 METAR LMML 311345Z 35005KT 300V030 CAVOK 28/10 Q1017 NOSIG=
200805311330 METAR LMML NIL=
200805311315 METAR LMML 311315Z 34006KT 290V030 CAVOK 28/09 Q1017 NOSIG=
200805311300 METAR LMML NIL=
200805311245 METAR LMML 311245Z 34006KT 290V040 CAVOK 28/10 Q1017 NOSIG=
200805311230 METAR LMML NIL=
200805311215 METAR LMML 311215Z 36007KT 320V030 CAVOK 28/09 Q1017 NOSIG=
200805311200 METAR LMML NIL=
200805311145 METAR LMML 311145Z 36007KT 310V030 CAVOK 28/10 Q1017 NOSIG=
200805311130 METAR LMML NIL=
200805311115 METAR LMML 311115Z 34008KT 290V020 CAVOK 27/09 Q1018 NOSIG=
200805311100 METAR LMML NIL=
200805311045 METAR LMML 311045Z 34008KT 300V030 CAVOK 27/09 Q1018 NOSIG=
200805311030 METAR LMML NIL=
200805311015 METAR LMML 311015Z 35008KT 310V010 CAVOK 26/10 Q1018 NOSIG=
200805311000 METAR LMML NIL=
200805310945 METAR LMML 310945Z 35009KT 330V030 CAVOK 26/09 Q1018 NOSIG=
200805310930 METAR LMML NIL=
200805310915 METAR LMML 310915Z 34010KT 300V010 CAVOK 26/09 Q1018 NOSIG=
200805310900 METAR LMML NIL=
200805310845 METAR LMML 310845Z 35007KT 270V020 CAVOK 26/10 Q1018 NOSIG=
200805310830 METAR LMML NIL=
200805310815 METAR LMML 310815Z 34008KT 290V020 CAVOK 25/09 Q1018 NOSIG=
200805310800 METAR LMML NIL=
200805310745 METAR LMML 310745Z 32008KT 300V360 CAVOK 25/08 Q1018 NOSIG=
200805310730 METAR LMML NIL=
200805310715 METAR LMML 310715Z 34007KT CAVOK 24/08 Q1018 NOSIG=
200805310700 METAR LMML NIL=
200805310645 METAR LMML 310645Z 35004KT 290V040 CAVOK 24/08 Q1017 NOSIG=
200805310630 METAR LMML NIL=
200805310615 METAR LMML 310615Z 34004KT 310V020 CAVOK 22/10 Q1017 NOSIG=
200805310600 METAR LMML NIL=
200805310545 METAR LMML 310545Z VRB03KT CAVOK 21/10 Q1017 NOSIG=
200805310530 METAR LMML NIL=
200805310515 METAR LMML 310515Z VRB01KT CAVOK 20/11 Q1017 NOSIG=
200805310500 METAR LMML NIL=
200805310445 METAR LMML 310445Z VRB03KT CAVOK 19/11 Q1017 NOSIG=
200805310430 METAR LMML NIL=
200805310415 METAR LMML 310415Z VRB03KT CAVOK 19/11 Q1017 NOSIG=
200805310400 METAR LMML NIL=
200805310345 METAR LMML 310345Z VRB03KT CAVOK 19/11 Q1017 NOSIG=
200805310330 METAR LMML NIL=
200805310315 METAR LMML 310315Z VRB03KT CAVOK 18/12 Q1016 NOSIG=
200805310300 METAR LMML NIL=
200805310245 METAR LMML 310245Z VRB03KT CAVOK 19/11 Q1016 NOSIG=
200805310230 METAR LMML NIL=
200805310215 METAR LMML 310215Z VRB03KT CAVOK 18/11 Q1016 NOSIG=
200805310200 METAR LMML NIL=
200805310145 METAR LMML 310145Z VRB02KT CAVOK 18/11 Q1016 NOSIG=
200805310115 METAR LMML 310115Z VRB01KT CAVOK 19/11 Q1017 NOSIG=
200805310100 METAR LMML NIL=
200805310045 METAR LMML 310045Z VRB01KT CAVOK 19/11 Q1017 NOSIG=
200805310030 METAR LMML NIL=
200805310015 METAR LMML 310015Z VRB03KT CAVOK 19/14 Q1017 NOSIG=
200805310000 METAR LMML NIL=
200805302345 METAR LMML 302345Z VRB03KT CAVOK 19/12 Q1017 NOSIG=
200805302315 METAR LMML 302315Z VRB01KT CAVOK 19/14 Q1017 NOSIG=
200805302300 METAR LMML NIL=
200805302245 METAR LMML 302245Z VRB02KT CAVOK 19/12 Q1017 NOSIG=
200805302230 METAR LMML NIL=
200805302215 METAR LMML 302215Z VRB01KT CAVOK 19/12 Q1017 NOSIG=
200805302200 METAR LMML NIL=
200805302145 METAR LMML 302145Z VRB01KT CAVOK 19/12 Q1018 NOSIG=
200805302130 METAR LMML NIL=
200805302115 METAR LMML 302115Z VRB02KT CAVOK 19/12 Q1018 NOSIG=
200805302100 METAR LMML NIL=
200805302045 METAR LMML 302045Z VRB03KT CAVOK 20/11 Q1018 NOSIG=
200805302030 METAR LMML NIL=
200805302015 METAR LMML 302015Z VRB03KT CAVOK 20/11 Q1017 NOSIG=
200805302000 METAR LMML NIL=
200805301945 METAR LMML 301945Z 34005KT 310V050 CAVOK 21/11 Q1017 NOSIG=
200805301930 METAR LMML NIL=
200805301915 METAR LMML 301915Z VRB01KT CAVOK 20/17 Q1017 NOSIG=
200805301900 METAR LMML NIL=
200805301845 METAR LMML 301845Z 13004KT CAVOK 21/17 Q1017 NOSIG=
200805301830 METAR LMML NIL=
200805301815 METAR LMML 301815Z VRB03KT CAVOK 22/08 Q1016 NOSIG=
200805301800 METAR LMML NIL=
200805301745 METAR LMML 301745Z VRB02KT CAVOK 24/07 Q1016 NOSIG=
200805301730 METAR LMML NIL=
200805301715 METAR LMML 301715Z 28005KT 240V330 CAVOK 24/07 Q1016 NOSIG=
200805301700 METAR LMML NIL=
200805301645 METAR LMML 301645Z 29009KT 250V310 CAVOK 25/06 Q1016 NOSIG=
200805301630 METAR LMML NIL=
200805301615 METAR LMML 301615Z 29008KT 260V320 CAVOK 26/05 Q1016 NOSIG=
200805301600 METAR LMML NIL=
200805301545 METAR LMML 301545Z 30007KT 260V330 CAVOK 26/06 Q1016 NOSIG=
200805301530 METAR LMML NIL=
200805301515 METAR LMML 301515Z 31008KT 270V350 CAVOK 25/08 Q1016 NOSIG=
200805301500 METAR LMML NIL=
200805301445 METAR LMML 301445Z 31008KT 260V350 CAVOK 26/09 Q1016 NOSIG=
200805301430 METAR LMML NIL=
200805301415 METAR LMML 301415Z 31008KT 270V350 CAVOK 26/10 Q1016 NOSIG=
200805301400 METAR LMML NIL=
200805301345 METAR LMML 301345Z 32008KT 270V360 CAVOK 26/11 Q1016 NOSIG=
200805301330 METAR LMML NIL=
200805301315 METAR LMML 301315Z 31008KT 270V360 CAVOK 27/11 Q1016 NOSIG=
200805301300 METAR LMML NIL=
200805301245 METAR LMML 301245Z 35010KT CAVOK 27/09 Q1016 NOSIG=
200805301230 METAR LMML NIL=
200805301215 METAR LMML 301215Z 34010KT CAVOK 27/08 Q1016 NOSIG=
200805301200 METAR LMML NIL=
200805301145 METAR LMML 301145Z 34011KT 300V360 CAVOK 26/07 Q1016 NOSIG=
200805301130 METAR LMML NIL=
200805301115 METAR LMML 301115Z 33011KT 300V010 CAVOK 26/10 Q1016 NOSIG=
200805301100 METAR LMML NIL=
200805301045 METAR LMML 301045Z 35011KT CAVOK 26/10 Q1017 NOSIG=
200805301030 METAR LMML NIL=
200805301015 METAR LMML 301015Z 34010KT CAVOK 24/11 Q1017 NOSIG=
200805301000 METAR LMML NIL=
200805300945 METAR LMML 300945Z 34009KT 230V010 CAVOK 24/11 Q1017 NOSIG=
200805300930 METAR LMML NIL=
200805300915 METAR LMML 300915Z 34008KT 310V020 CAVOK 24/12 Q1017 NOSIG=
200805300900 METAR LMML NIL=
200805300845 METAR LMML 300845Z 35009KT 330V030 CAVOK 23/13 Q1017 NOSIG=
200805300830 METAR LMML NIL=
200805300815 METAR LMML 300815Z 34011KT CAVOK 23/13 Q1017 NOSIG=
200805300800 METAR LMML NIL=
200805300745 METAR LMML 300745Z 35010KT CAVOK 23/13 Q1016 NOSIG=
200805300730 METAR LMML NIL=
200805300715 METAR LMML 300715Z 33010KT 300V360 CAVOK 22/12 Q1016 NOSIG=
200805300700 METAR LMML NIL=
200805300645 METAR LMML 300645Z 34009KT CAVOK 22/13 Q1016 NOSIG=
200805300630 METAR LMML NIL=
200805300615 METAR LMML 300615Z 34010KT 310V010 CAVOK 21/13 Q1016 NOSIG=
200805300600 METAR LMML NIL=
200805300545 METAR LMML 300545Z 33008KT CAVOK 20/14 Q1016 NOSIG=
200805300530 METAR LMML NIL=
200805300515 METAR LMML 300515Z 32006KT 290V350 CAVOK 19/14 Q1016 NOSIG=
200805300445 METAR LMML 300445Z 33006KT 290V360 CAVOK 19/14 Q1015 NOSIG=
200805300430 METAR LMML NIL=
200805300415 METAR LMML 300415Z 32007KT CAVOK 18/14 Q1015 NOSIG=
200805300400 METAR LMML NIL=
200805300345 METAR LMML 300345Z 32006KT CAVOK 18/14 Q1015 NOSIG=
200805300315 METAR LMML 300315Z 32006KT 290V350 CAVOK 18/14 Q1015 NOSIG=
200805300245 METAR LMML 300245Z 31008KT CAVOK 18/15 Q1015 NOSIG=
200805300215 METAR LMML 300215Z 30007KT CAVOK 18/15 Q1015 NOSIG=
200805300200 METAR LMML NIL=
200805300145 METAR LMML 300145Z 31004KT 260V350 CAVOK 18/15 Q1015 NOSIG=
200805300115 METAR LMML 300115Z 30004KT 260V330 CAVOK 18/15 Q1015 NOSIG=
200805300100 METAR LMML NIL=
200805300045 METAR LMML 300045Z 29008KT CAVOK 18/15 Q1015 NOSIG=
200805300030 METAR LMML NIL=
200805300015 METAR LMML 300015Z 29009KT CAVOK 18/14 Q1015 NOSIG=
200805300000 METAR LMML NIL=
200805292345 METAR LMML 292345Z 29007KT CAVOK 18/13 Q1015 NOSIG=
200805292330 METAR LMML NIL=
200805292315 METAR LMML 292315Z 30008KT CAVOK 18/14 Q1015 NOSIG=
200805292245 METAR LMML 292245Z 31006KT CAVOK 18/14 Q1015 NOSIG=
200805292230 METAR LMML NIL=
200805292215 METAR LMML 292215Z 33007KT CAVOK 19/15 Q1015 NOSIG=
200805292200 METAR LMML NIL=
200805292145 METAR LMML 292145Z 33010KT CAVOK 19/14 Q1015 NOSIG=
200805292130 METAR LMML NIL=
200805292115 METAR LMML 292115Z 32010KT CAVOK 19/14 Q1015 NOSIG=
200805292100 METAR LMML NIL=
200805292045 METAR LMML 292045Z 34009KT CAVOK 19/14 Q1015 NOSIG=
200805292030 METAR LMML NIL=
200805292015 METAR LMML 292015Z 33006KT CAVOK 19/14 Q1015 NOSIG=
200805291945 METAR LMML 291945Z 32008KT CAVOK 19/14 Q1014 NOSIG=
200805291915 METAR LMML 291915Z 31010KT CAVOK 19/14 Q1014 NOSIG=
200805291845 METAR LMML 291845Z 32010KT CAVOK 20/14 Q1014 NOSIG=
200805291830 METAR LMML NIL=
200805291815 METAR LMML 291815Z 32009KT 290V350 CAVOK 20/14 Q1013 NOSIG=
200805291800 METAR LMML NIL=
200805291745 METAR LMML 291745Z 32012KT CAVOK 20/15 Q1013 NOSIG=
200805291730 LMML NIL=
200805291715 METAR LMML 291715Z 33011KT CAVOK 21/16 Q1013 NOSIG=
200805291700 METAR LMML NIL=
200805291645 METAR LMML 291645Z 33013KT CAVOK 22/16 Q1013 NOSIG=
200805291630 METAR LMML NIL=
200805291615 METAR LMML 291615Z 34012KT CAVOK 22/16 Q1012 NOSIG=
200805291600 METAR LMML NIL=
200805291545 METAR LMML 291545Z 34012KT 310V020 CAVOK 23/17 Q1013 NOSIG=
200805291530 METAR LMML NIL=
200805291515 METAR LMML 291515Z 34012KT CAVOK 23/18 Q1012 NOSIG=
200805291500 METAR LMML NIL=
200805291445 METAR LMML 291445Z 31012KT 280V340 CAVOK 25/18 Q1012 NOSIG=
200805291415 METAR LMML 291415Z 31012KT CAVOK 25/18 Q1012 NOSIG=
200805291400 METAR LMML NIL=
200805291345 METAR LMML 291345Z 30011KT 270V330 CAVOK 25/17 Q1012 NOSIG=
200805291330 METAR LMML NIL=
200805291315 METAR LMML 291315Z 30010KT 270V330 CAVOK 26/17 Q1012 NOSIG=
200805291300 METAR LMML NIL=
200805291245 METAR LMML 291245Z 31011KT 270V340 CAVOK 27/16 Q1011 NOSIG=
200805291230 METAR LMML NIL=
200805291215 METAR LMML 291215Z 31012KT CAVOK 28/16 Q1011 NOSIG=
200805291145 METAR LMML 291145Z 31010KT 280V340 CAVOK 28/16 Q1011 NOSIG=
200805291130 METAR LMML NIL=
200805291115 METAR LMML 291115Z 31011KT 280V350 CAVOK 27/16 Q1011 NOSIG=
200805291100 METAR LMML NIL=
200805291045 METAR LMML 291045Z 30010KT 270V330 CAVOK 27/16 Q1011 NOSIG=
200805291030 METAR LMML NIL=
200805291015 METAR LMML 291015Z 29009KT 250V320 CAVOK 27/16 Q1011 NOSIG=
200805291000 METAR LMML NIL=
200805290945 METAR LMML 290945Z 27005KT 100V350 CAVOK 25/16 Q1010 NOSIG=
200805290930 METAR LMML NIL=
200805290915 METAR LMML 290915Z 22007KT 170V300 CAVOK 24/18 Q1011 NOSIG=
200805290900 METAR LMML NIL=
200805290845 METAR LMML 290845Z 19011KT 160V220 CAVOK 23/18 Q1011 NOSIG=
200805290830 METAR LMML NIL=
200805290815 METAR LMML 290815Z 16009KT 130V210 CAVOK 24/18 Q1010 NOSIG=
200805290800 METAR LMML NIL=
200805290745 METAR LMML 290745Z 17010KT 140V200 CAVOK 23/17 Q1010 NOSIG=
200805290730 METAR LMML NIL=
200805290715 METAR LMML 290715Z 17012KT 130V200 CAVOK 23/17 Q1009 BECMG
                        8000 TSRA BKN050CB=
200805290700 METAR LMML NIL=
200805290645 METAR LMML 290645Z 17013KT 140V200 CAVOK 23/17 Q1010 NOSIG=
200805290630 METAR LMML NIL=
200805290615 METAR LMML 290615Z 16012KT 130V190 CAVOK 23/17 Q1010 NOSIG=
200805290545 METAR LMML 290545Z 16011KT 130V190 CAVOK 22/17 Q1010 NOSIG=
200805290530 METAR LMML NIL=
200805290515 METAR LMML 290515Z 15011KT 120V180 CAVOK 22/16 Q1009 NOSIG=
200805290500 METAR LMML NIL=
200805290445 METAR LMML 290445Z 15013KT 120V180 CAVOK 22/16 Q1009 NOSIG=
200805290430 METAR LMML NIL=
200805290415 METAR LMML 290415Z 14012KT 120V180 CAVOK 22/16 Q1009 NOSIG=
200805290400 METAR LMML NIL=
200805290345 METAR LMML 290345Z 14016KT 110V170 CAVOK 22/16 Q1009 NOSIG=
200805290330 METAR LMML NIL=
200805290315 METAR LMML 290315Z 14018KT CAVOK 22/15 Q1008 NOSIG=
200805290300 METAR LMML NIL=
200805290245 METAR LMML 290245Z 13018KT CAVOK 22/15 Q1008 NOSIG=
200805290230 METAR LMML NIL=
200805290215 METAR LMML 290215Z 14017KT CAVOK 23/14 Q1008 NOSIG=
200805290200 METAR LMML NIL=
200805290145 METAR LMML 290145Z 14016KT CAVOK 23/15 Q1008 NOSIG=
200805290130 METAR LMML NIL=
200805290115 METAR LMML 290115Z 15016KT CAVOK 23/14 Q1008 NOSIG=
200805290100 METAR LMML NIL=
200805290045 METAR LMML 290045Z 15015KT 120V180 CAVOK 23/13 Q1009 NOSIG=
200805290030 METAR LMML NIL=
200805290015 METAR LMML 290015Z 15017KT CAVOK 23/14 Q1009 NOSIG=
200805290000 METAR LMML NIL=
200805282345 METAR LMML 282345Z 15016KT CAVOK 24/13 Q1009 NOSIG=
200805282330 METAR LMML NIL=
200805282315 METAR LMML 282315Z 16014KT 130V190 CAVOK 24/14 Q1009 NOSIG=
200805282300 METAR LMML NIL=
200805282245 METAR LMML 282245Z 14015KT CAVOK 24/13 Q1009 NOSIG=
200805282230 METAR LMML NIL=
200805282215 METAR LMML 282215Z 14017KT CAVOK 25/12 Q1009 NOSIG=
200805282200 METAR LMML NIL=
200805282145 METAR LMML 282145Z 12013KT 070V150 CAVOK 25/11 Q1008 NOSIG=
200805282130 METAR LMML NIL=
200805282115 METAR LMML 282115Z 04006KT 330V110 CAVOK 24/14 Q1008 NOSIG=
200805282100 METAR LMML NIL=
200805282045 METAR LMML 282045Z 11018KT 080V140 CAVOK 24/15 Q1009 NOSIG=
200805282030 METAR LMML NIL=
200805282015 METAR LMML 282015Z 11013KT 080V190 9999 -RA FEW050 SCT120
                        BKN250 23/16 Q1011 NOSIG=
200805282000 METAR LMML NIL=
200805281945 METAR LMML 281945Z 13019KT CAVOK 22/17 Q1011 NOSIG=
200805281915 METAR LMML 281915Z 14011KT 110V190 CAVOK 22/17 Q1012 NOSIG=
200805281900 METAR LMML NIL=
200805281845 METAR LMML 281845Z 09014KT CAVOK 21/18 Q1009 NOSIG=
200805281830 METAR LMML NIL=
200805281815 METAR LMML 281815Z 10011KT 070V130 CAVOK 22/17 Q1011 NOSIG=
200805281800 METAR LMML NIL=
200805281745 METAR LMML 281745Z 10011KT CAVOK 22/18 Q1011 NOSIG=
200805281730 METAR LMML NIL=
200805281715 METAR LMML 281715Z 13010KT 090V200 CAVOK 22/18 Q1012 NOSIG=
200805281700 METAR LMML NIL=
200805281645 METAR LMML 281645Z 11015KT CAVOK 22/17 Q1010 NOSIG=
200805281630 METAR LMML NIL=
200805281615 METAR LMML 281615Z 11017KT CAVOK 23/17 Q1010 NOSIG=
200805281600 METAR LMML NIL=
200805281545 METAR LMML 281545Z 11016KT CAVOK 23/17 Q1010 NOSIG=
200805281530 METAR LMML NIL=
200805281515 METAR LMML 281515Z 11019KT CAVOK 24/16 Q1010 NOSIG=
200805281500 METAR LMML NIL=
200805281445 METAR LMML 281445Z 11018KT CAVOK 24/16 Q1010 NOSIG=
200805281430 METAR LMML NIL=
200805281415 METAR LMML 281415Z 11017KT 080V140 CAVOK 25/16 Q1011 NOSIG=
200805281400 LMML NIL=
200805281330 METAR LMML NIL=
200805281315 METAR LMML 281315Z 11018KT 080V140 CAVOK 25/17 Q1011 NOSIG=
200805281300 METAR LMML NIL=
200805281245 METAR LMML 281245Z 12018KT 080V140 CAVOK 25/17 Q1012 NOSIG=
200805281230 METAR LMML NIL=
200805281215 METAR LMML 281215Z 11018KT CAVOK 25/17 Q1012 NOSIG=
200805281200 METAR LMML NIL=
200805281145 METAR LMML 281145Z 11017KT 070V140 CAVOK 25/17 Q1012 NOSIG=
200805281115 METAR LMML 281115Z 11020KT CAVOK 25/17 Q1012 NOSIG=
200805281100 METAR LMML NIL=
200805281045 METAR LMML 281045Z 11020KT CAVOK 24/17 Q1013 NOSIG=
200805281030 METAR LMML NIL=
200805281015 METAR LMML 281015Z 11018KT CAVOK 24/17 Q1013 NOSIG=
200805281000 METAR LMML NIL=
200805280945 METAR LMML 280945Z 10017KT CAVOK 25/17 Q1013 NOSIG=
200805280930 METAR LMML NIL=
200805280915 METAR LMML 280915Z 10017KT 070V130 CAVOK 24/17 Q1013 NOSIG=
200805280900 METAR LMML NIL=
200805280845 METAR LMML 280845Z 10017KT CAVOK 24/16 Q1013 NOSIG=
200805280830 METAR LMML NIL=
200805280815 METAR LMML 280815Z 10015KT 070V130 CAVOK 24/17 Q1013 NOSIG=
200805280745 METAR LMML 280745Z 10016KT CAVOK 23/16 Q1013 NOSIG=
200805280730 METAR LMML NIL=
200805280715 METAR LMML 280715Z 10015KT 070V130 CAVOK 23/17 Q1013 NOSIG=
200805280700 METAR LMML NIL=
200805280645 METAR LMML 280645Z 10013KT 070V130 CAVOK 23/17 Q1014 NOSIG=
200805280630 METAR LMML NIL=
200805280615 METAR LMML 280615Z 10011KT CAVOK 21/17 Q1014 NOSIG=
200805280600 METAR LMML NIL=
200805280545 METAR LMML 280545Z 09011KT 060V120 CAVOK 21/18 Q1013 NOSIG=
200805280530 METAR LMML NIL=
200805280515 METAR LMML 280515Z 10012KT CAVOK 21/17 Q1013 NOSIG=
200805280500 METAR LMML NIL=
200805280445 METAR LMML 280445Z 10011KT CAVOK 21/17 Q1013 NOSIG=
200805280430 METAR LMML NIL=
200805280415 METAR LMML 280415Z 10009KT 060V130 CAVOK 20/17 Q1013 NOSIG=
200805280400 METAR LMML NIL=
200805280345 METAR LMML 280345Z 09011KT CAVOK 20/17 Q1013 NOSIG=
200805280330 METAR LMML NIL=
200805280315 METAR LMML 280315Z 09009KT CAVOK 20/17 Q1013 NOSIG=
200805280300 METAR LMML NIL=
200805280245 METAR LMML 280245Z 09009KT 060V120 CAVOK 20/17 Q1013 NOSIG=
200805280230 METAR LMML NIL=
200805280215 METAR LMML 280215Z 09010KT 070V130 CAVOK 20/17 Q1013 NOSIG=
200805280200 METAR LMML NIL=
200805280145 METAR LMML 280145Z 10010KT CAVOK 20/17 Q1013 NOSIG=
200805280130 METAR LMML NIL=
200805280115 METAR LMML 280115Z 10009KT 070V130 CAVOK 20/17 Q1013 NOSIG=
200805280100 METAR LMML NIL=
200805280045 METAR LMML 280045Z 10010KT CAVOK 21/16 Q1013 NOSIG=
200805280030 METAR LMML NIL=
200805280015 METAR LMML 280015Z 12011KT CAVOK 21/16 Q1014 NOSIG=
200805280000 METAR LMML NIL=
200805272345 METAR LMML 272345Z 11010KT CAVOK 21/16 Q1014 NOSIG=
200805272330 METAR LMML NIL=
200805272315 METAR LMML 272315Z 11011KT CAVOK 21/16 Q1014 NOSIG=
200805272300 METAR LMML NIL=
200805272245 METAR LMML 272245Z 11009KT CAVOK 21/16 Q1014 NOSIG=
200805272230 METAR LMML NIL=
200805272215 METAR LMML 272215Z 12012KT 030V170 CAVOK 21/16 Q1014 NOSIG=
200805272200 METAR LMML NIL=
200805272145 METAR LMML 272145Z 11013KT CAVOK 22/15 Q1013 NOSIG=
200805272130 METAR LMML NIL=
200805272115 METAR LMML 272115Z 11013KT 080V140 CAVOK 22/15 Q1013 NOSIG=
200805272100 METAR LMML NIL=
200805272045 METAR LMML 272045Z 11014KT CAVOK 21/15 Q1013 NOSIG=
200805272030 METAR LMML NIL=
200805272015 METAR LMML 272015Z 10014KT CAVOK 22/16 Q1012 NOSIG=
200805272000 METAR LMML NIL=
200805271945 METAR LMML 271945Z 11012KT CAVOK 21/16 Q1013 NOSIG=
200805271930 METAR LMML NIL=
200805271915 METAR LMML 271915Z 11014KT CAVOK 21/16 Q1012 NOSIG=
200805271900 METAR LMML NIL=
200805271845 METAR LMML 271845Z 12013KT CAVOK 21/16 Q1013 NOSIG=
200805271830 METAR LMML NIL=
200805271815 METAR LMML 271815Z 12017KT CAVOK 22/16 Q1012 NOSIG=
200805271800 METAR LMML NIL=
200805271745 METAR LMML 271745Z 12019KT CAVOK 22/16 Q1011 NOSIG=
200805271730 METAR LMML NIL=
200805271715 METAR LMML 271715Z 11018KT CAVOK 22/16 Q1011 NOSIG=
200805271700 METAR LMML NIL=
200805271645 METAR LMML 271645Z 11018KT CAVOK 22/16 Q1012 NOSIG=
200805271630 METAR LMML NIL=
200805271615 METAR LMML 271615Z 11018KT CAVOK 23/16 Q1012 NOSIG=
200805271600 METAR LMML NIL=
200805271545 METAR LMML 271545Z 11020KT CAVOK 23/16 Q1012 NOSIG=
200805271530 METAR LMML NIL=
200805271515 METAR LMML 271515Z 11020KT CAVOK 23/16 Q1012 NOSIG=
200805271500 METAR LMML NIL=
200805271445 METAR LMML 271445Z 12018KT CAVOK 24/16 Q1013 NOSIG=
200805271430 METAR LMML NIL=
200805271415 METAR LMML 271415Z 12017KT CAVOK 24/16 Q1013 NOSIG=
200805271400 METAR LMML NIL=
200805271345 METAR LMML 271345Z 12018G28KT CAVOK 25/16 Q1013 NOSIG=
200805271330 METAR LMML NIL=
200805271315 METAR LMML 271315Z 11019KT CAVOK 25/15 Q1013 NOSIG=
200805271300 METAR LMML NIL=
200805271245 METAR LMML 271245Z 10019KT CAVOK 25/15 Q1013 NOSIG=
200805271230 METAR LMML NIL=
200805271215 METAR LMML 271215Z 11018KT 080V140 CAVOK 25/15 Q1013 NOSIG=
200805271200 METAR LMML NIL=
200805271145 METAR LMML 271145Z 11016KT CAVOK 26/15 Q1013 NOSIG=
200805271130 METAR LMML NIL=
200805271115 METAR LMML 271115Z 12019KT CAVOK 25/15 Q1014 NOSIG=
200805271100 METAR LMML NIL=
200805271045 METAR LMML 271045Z 12017KT 090V150 CAVOK 25/15 Q1014 NOSIG=
200805271030 METAR LMML NIL=
200805271015 METAR LMML 271015Z 11016KT 090V150 CAVOK 25/15 Q1014 NOSIG=
200805271000 METAR LMML NIL=
200805270945 METAR LMML 270945Z 12018KT CAVOK 24/15 Q1014 NOSIG=
200805270930 METAR LMML NIL=
200805270915 METAR LMML 270915Z 12017KT 090V150 CAVOK 24/14 Q1014 NOSIG=
200805270900 METAR LMML NIL=
200805270845 METAR LMML 270845Z 11017KT CAVOK 24/15 Q1014 NOSIG=
200805270830 METAR LMML NIL=
200805270815 METAR LMML 270815Z 11018KT CAVOK 23/16 Q1013 NOSIG=
200805270800 METAR LMML NIL=
200805270745 METAR LMML 270745Z 11018KT CAVOK 23/16 Q1013 NOSIG=
200805270715 METAR LMML 270715Z 10018KT CAVOK 23/15 Q1013 NOSIG=
200805270700 METAR LMML NIL=
200805270645 METAR LMML 270645Z 11018KT 080V140 CAVOK 22/15 Q1014 NOSIG=
200805270615 METAR LMML 270615Z 10015KT 070V130 CAVOK 22/16 Q1013 NOSIG=
200805270600 METAR LMML NIL=
200805270545 METAR LMML 270545Z 10015KT 070V130 CAVOK 21/16 Q1013 NOSIG=
200805270530 METAR LMML NIL=
200805270515 METAR LMML 270515Z 10015KT CAVOK 20/16 Q1013 NOSIG=
200805270500 METAR LMML NIL=
200805270445 METAR LMML 270445Z 10015KT CAVOK 20/16 Q1013 NOSIG=
200805270430 METAR LMML NIL=
200805270415 METAR LMML 270415Z 11012KT CAVOK 20/16 Q1013 NOSIG=
200805270400 METAR LMML NIL=
200805270345 METAR LMML 270345Z 11010KT CAVOK 19/16 Q1013 NOSIG=
200805270315 METAR LMML 270315Z 11012KT CAVOK 19/16 Q1013 NOSIG=
200805270300 METAR LMML NIL=
200805270245 METAR LMML 270245Z 11012KT CAVOK 20/16 Q1013 NOSIG=
200805270230 METAR LMML NIL=
200805270215 METAR LMML 270215Z 11013KT CAVOK 20/15 Q1013 NOSIG=
200805270200 METAR LMML NIL=
200805270145 METAR LMML 270145Z 10013KT CAVOK 20/15 Q1013 NOSIG=
200805270130 METAR LMML NIL=
200805270115 METAR LMML 270115Z 10014KT 070V130 CAVOK 20/14 Q1013 NOSIG=
200805270045 METAR LMML 270045Z 09013KT CAVOK 20/14 Q1013 NOSIG=
200805270030 METAR LMML NIL=
200805270015 METAR LMML 270015Z 10012KT 070V130 CAVOK 20/15 Q1013 NOSIG=
200805270000 METAR LMML NIL=
200805262345 METAR LMML 262345Z 10012KT CAVOK 20/14 Q1013 NOSIG=
200805262330 METAR LMML NIL=
200805262315 METAR LMML 262315Z 10011KT 070V130 CAVOK 20/14 Q1014 NOSIG=
200805262300 METAR LMML NIL=
200805262245 METAR LMML 262245Z 10013KT CAVOK 20/15 Q1014 NOSIG=
200805262230 METAR LMML NIL=
200805262215 METAR LMML 262215Z 10012KT CAVOK 20/14 Q1014 NOSIG=
200805262200 METAR LMML NIL=
200805262145 METAR LMML 262145Z 11012KT CAVOK 20/14 Q1014 NOSIG=
200805262130 METAR LMML NIL=
200805262115 METAR LMML 262115Z 11013KT 080V140 CAVOK 20/15 Q1014 NOSIG=
200805262100 METAR LMML NIL=
200805262045 METAR LMML 262045Z 11012KT CAVOK 20/15 Q1014 NOSIG=
200805262030 METAR LMML NIL=
200805262015 METAR LMML 262015Z 11013KT CAVOK 20/14 Q1014 NOSIG=
200805262000 METAR LMML NIL=
200805261945 METAR LMML 261945Z 11012KT CAVOK 20/14 Q1014 NOSIG=
200805261930 METAR LMML NIL=
200805261915 METAR LMML 261915Z 11013KT CAVOK 21/14 Q1014 NOSIG=
200805261900 METAR LMML NIL=
200805261845 METAR LMML 261845Z 11014KT CAVOK 21/13 Q1014 NOSIG=
200805261830 METAR LMML NIL=
200805261815 METAR LMML 261815Z 11014KT CAVOK 21/13 Q1014 NOSIG=
200805261800 METAR LMML NIL=
200805261745 METAR LMML 261745Z 11013KT CAVOK 22/12 Q1014 NOSIG=
200805261730 METAR LMML NIL=
200805261715 METAR LMML 261715Z 12016KT CAVOK 22/12 Q1013 NOSIG=
200805261700 METAR LMML NIL=
200805261645 METAR LMML 261645Z 11016KT CAVOK 23/12 Q1013 NOSIG=
200805261615 METAR LMML 261615Z 11016KT CAVOK 23/13 Q1014 NOSIG=
200805261600 METAR LMML NIL=
200805261545 METAR LMML 261545Z 11017KT CAVOK 24/12 Q1014 NOSIG=
200805261530 METAR LMML NIL=
200805261515 METAR LMML 261515Z 12019KT CAVOK 24/12 Q1014 NOSIG=
200805261500 METAR LMML NIL=
200805261445 METAR LMML 261445Z 11019KT CAVOK 24/12 Q1014 NOSIG=
200805261430 METAR LMML NIL=
200805261415 METAR LMML 261415Z 11018KT CAVOK 24/13 Q1014 NOSIG=
200805261400 METAR LMML NIL=
200805261345 METAR LMML 261345Z 11019KT 090V150 CAVOK 24/12 Q1015 NOSIG=
200805261330 METAR LMML NIL=
200805261315 METAR LMML 261315Z 12019KT CAVOK 25/13 Q1015 NOSIG=
200805261300 METAR LMML NIL=
200805261245 METAR LMML 261245Z 12020KT CAVOK 25/12 Q1015 NOSIG=
200805261230 METAR LMML NIL=
200805261215 METAR LMML 261215Z 12018KT 100V160 CAVOK 25/12 Q1015 NOSIG=
200805261200 METAR LMML NIL=
200805261145 METAR LMML 261145Z 12019KT CAVOK 25/13 Q1016 NOSIG=
200805261130 METAR LMML NIL=
200805261115 METAR LMML 261115Z 12020KT CAVOK 25/12 Q1016 NOSIG=
200805261100 METAR LMML NIL=
200805261045 METAR LMML 261045Z 12019KT CAVOK 25/12 Q1016 NOSIG=
200805261015 METAR LMML 261015Z 12018KT 080V150 CAVOK 25/13 Q1016 NOSIG=
200805261000 METAR LMML NIL=
200805260945 METAR LMML 260945Z 12017KT 090V150 CAVOK 25/13 Q1016 NOSIG=
200805260915 METAR LMML 260915Z 11015KT CAVOK 25/12 Q1016 NOSIG=
200805260900 METAR LMML NIL=
200805260845 METAR LMML 260845Z 11015KT CAVOK 25/13 Q1016 NOSIG=
200805260830 LMML NIL=
200805260815 METAR LMML 260815Z 10013KT 070V140 CAVOK 24/13 Q1016 NOSIG=
200805260800 METAR LMML NIL=
200805260745 METAR LMML 260745Z 09012KT 060V120 CAVOK 24/13 Q1016 NOSIG=
200805260730 METAR LMML NIL=
200805260715 METAR LMML 260715Z 10012KT 060V130 CAVOK 24/13 Q1016 NOSIG=
200805260700 METAR LMML NIL=
200805260645 METAR LMML 260645Z 10013KT 060V130 CAVOK 23/13 Q1015 NOSIG=
200805260630 METAR LMML NIL=
200805260615 METAR LMML 260615Z 11013KT 080V140 CAVOK 22/14 Q1015 NOSIG=
200805260600 METAR LMML NIL=
200805260545 METAR LMML 260545Z 11011KT 080V140 CAVOK 21/15 Q1015 NOSIG=
200805260530 METAR LMML NIL=
200805260515 METAR LMML 260515Z 10010KT CAVOK 21/16 Q1015 NOSIG=
200805260500 METAR LMML NIL=
200805260445 METAR LMML 260445Z 10008KT 070V130 CAVOK 20/16 Q1015 NOSIG=
200805260430 METAR LMML NIL=
200805260415 METAR LMML 260415Z 10009KT CAVOK 19/16 Q1015 NOSIG=
200805260400 METAR LMML NIL=
200805260345 METAR LMML 260345Z 10009KT CAVOK 19/16 Q1015 NOSIG=
200805260330 METAR LMML NIL=
200805260315 METAR LMML 260315Z 11010KT CAVOK 19/16 Q1015 NOSIG=
200805260300 METAR LMML NIL=
200805260245 METAR LMML 260245Z 12010KT CAVOK 19/16 Q1015 NOSIG=
200805260230 LMML NIL=
200805260215 METAR LMML 260215Z 12010KT CAVOK 19/16 Q1015 NOSIG=
200805260200 METAR LMML NIL=
200805260145 METAR LMML 260145Z 12010KT CAVOK 19/16 Q1015 NOSIG=
200805260130 METAR LMML NIL=
200805260115 METAR LMML 260115Z 12011KT CAVOK 19/16 Q1015 NOSIG=
200805260100 METAR LMML NIL=
200805260045 METAR LMML 260045Z 12011KT CAVOK 19/16 Q1015 NOSIG=
200805260030 METAR LMML NIL=
200805260015 METAR LMML 260015Z 12011KT CAVOK 20/16 Q1015 NOSIG=
200805260000 METAR LMML NIL=
200805252345 METAR LMML 252345Z 12012KT CAVOK 20/16 Q1015 NOSIG=
200805252330 METAR LMML NIL=
200805252315 METAR LMML 252315Z 12012KT CAVOK 20/16 Q1015 NOSIG=
200805252300 LMML NIL=
200805252245 LMML 252245Z 12013KT CAVOK 20/15 Q1015 NOSIG=
200805252215 METAR LMML 252215Z 12013KT CAVOK 20/15 Q1015 NOSIG=
200805252200 METAR LMML NIL=
200805252145 METAR LMML 252145Z 12013KT CAVOK 20/15 Q1015 NOSIG=
200805252130 METAR LMML NIL=
200805252115 METAR LMML 252115Z 12013KT CAVOK 20/15 Q1015 NOSIG=
200805252100 METAR LMML NIL=
200805252045 METAR LMML 252045Z 12013KT CAVOK 20/15 Q1016 NOSIG=
200805252030 METAR LMML NIL=
200805252015 METAR LMML 252015Z 11012KT 090V150 CAVOK 20/15 Q1015 NOSIG=
200805252000 METAR LMML NIL=
200805251945 METAR LMML 251945Z 12013KT CAVOK 20/15 Q1015 NOSIG=
200805251930 METAR LMML NIL=
200805251915 METAR LMML 251915Z 12012KT CAVOK 20/15 Q1015 NOSIG=
200805251900 METAR LMML NIL=
200805251845 METAR LMML 251845Z 12013KT CAVOK 21/15 Q1015 NOSIG=
200805251830 METAR LMML NIL=
200805251815 METAR LMML 251815Z 12013KT CAVOK 21/15 Q1015 NOSIG=
200805251800 METAR LMML NIL=
200805251745 METAR LMML 251745Z 12013KT CAVOK 21/14 Q1015 NOSIG=
200805251730 METAR LMML NIL=
200805251715 METAR LMML 251715Z 12013KT CAVOK 22/15 Q1015 NOSIG=
200805251700 METAR LMML NIL=
200805251645 METAR LMML 251645Z 12013KT CAVOK 23/15 Q1015 NOSIG=
200805251630 METAR LMML NIL=
200805251615 METAR LMML 251615Z 11012KT CAVOK 23/15 Q1015 NOSIG=
200805251600 METAR LMML NIL=
200805251545 METAR LMML 251545Z 11013KT 080V140 CAVOK 23/16 Q1015 NOSIG=
200805251530 METAR LMML NIL=
200805251515 METAR LMML 251515Z 11014KT CAVOK 23/16 Q1015 NOSIG=
200805251500 METAR LMML NIL=
200805251445 METAR LMML 251445Z 11013KT 070V140 CAVOK 24/16 Q1016 NOSIG=
200805251430 METAR LMML NIL=
200805251415 METAR LMML 251415Z 12012KT 080V150 CAVOK 24/16 Q1016 NOSIG=
200805251400 METAR LMML NIL=
200805251345 METAR LMML 251345Z 11011KT 070V150 CAVOK 24/16 Q1016 NOSIG=
200805251330 METAR LMML NIL=
200805251315 METAR LMML 251315Z 12013KT 090V150 CAVOK 24/15 Q1016 NOSIG=
200805251300 METAR LMML NIL=
200805251245 METAR LMML 251245Z 12013KT 100V160 CAVOK 24/14 Q1016 NOSIG=
200805251215 METAR LMML 251215Z 12010KT 070V160 CAVOK 25/14 Q1016 NOSIG=
200805251200 METAR LMML NIL=
200805251145 METAR LMML 251145Z 12012KT 090V150 CAVOK 25/14 Q1016 NOSIG=
200805251115 METAR LMML 251115Z 12011KT 090V160 CAVOK 25/14 Q1016 NOSIG=
200805251045 METAR LMML 251045Z 10012KT 070V130 CAVOK 25/14 Q1016 NOSIG=
200805251030 METAR LMML NIL=
200805251015 METAR LMML 251015Z 11011KT 080V150 CAVOK 24/15 Q1016 NOSIG=
200805251000 METAR LMML NIL=
200805250945 METAR LMML 250945Z 12011KT 080V150 CAVOK 24/14 Q1016 NOSIG=
200805250930 METAR LMML NIL=
200805250915 METAR LMML 250915Z 13011KT 100V180 CAVOK 24/15 Q1016 NOSIG=
200805250900 METAR LMML NIL=
200805250845 METAR LMML 250845Z 15012KT 110V180 CAVOK 25/13 Q1016 NOSIG=
200805250830 METAR LMML NIL=
200805250815 METAR LMML 250815Z 15011KT 120V180 CAVOK 25/13 Q1016 NOSIG=
200805250800 METAR LMML NIL=
200805250745 METAR LMML 250745Z 15011KT 120V210 CAVOK 24/12 Q1016 NOSIG=
200805250730 METAR LMML NIL=
200805250715 METAR LMML 250715Z 15010KT 130V190 CAVOK 24/13 Q1016 NOSIG=
200805250700 METAR LMML NIL=
200805250645 METAR LMML 250645Z 16011KT CAVOK 23/13 Q1016 NOSIG=
200805250630 METAR LMML NIL=
200805250615 METAR LMML 250615Z 16010KT CAVOK 22/14 Q1016 NOSIG=
200805250600 METAR LMML NIL=
200805250545 METAR LMML 250545Z 16008KT 130V190 CAVOK 22/15 Q1015 NOSIG=
200805250530 METAR LMML NIL=
200805250515 METAR LMML 250515Z 16007KT CAVOK 21/15 Q1015 NOSIG=
200805250500 METAR LMML NIL=
200805250445 METAR LMML 250445Z 15007KT CAVOK 21/15 Q1015 NOSIG=
200805250430 METAR LMML NIL=
200805250415 METAR LMML 250415Z 14007KT CAVOK 20/15 Q1015 NOSIG=
200805250400 METAR LMML NIL=
200805250345 METAR LMML 250345Z 15007KT CAVOK 20/15 Q1014 NOSIG=
200805250330 METAR LMML NIL=
200805250315 METAR LMML 250315Z 15008KT CAVOK 20/15 Q1014 NOSIG=
200805250300 METAR LMML NIL=
200805250245 METAR LMML 250245Z 15007KT 120V180 CAVOK 20/15 Q1014 NOSIG=
200805250230 METAR LMML NIL=
200805250215 METAR LMML 250215Z 16008KT CAVOK 20/16 Q1014 NOSIG=
200805250200 METAR LMML NIL=
200805250145 METAR LMML 250145Z 15007KT CAVOK 20/16 Q1015 NOSIG=
200805250130 METAR LMML NIL=
200805250115 METAR LMML 250115Z 15008KT CAVOK 20/16 Q1015 NOSIG=
200805250100 METAR LMML NIL=
200805250045 METAR LMML 250045Z 15007KT 120V180 CAVOK 20/16 Q1015 NOSIG=
200805250030 METAR LMML NIL=
200805250015 METAR LMML 250015Z 14008KT 110V170 CAVOK 20/17 Q1015 NOSIG=
200805250000 METAR LMML NIL=
200805242345 METAR LMML 242345Z 15006KT 120V200 CAVOK 20/17 Q1015 NOSIG=
200805242330 METAR LMML NIL=
200805242315 METAR LMML 242315Z 15006KT CAVOK 19/17 Q1015 NOSIG=
200805242300 METAR LMML NIL=
200805242245 METAR LMML 242245Z 14008KT 120V180 CAVOK 20/18 Q1015 NOSIG=
200805242230 METAR LMML NIL=
200805242215 METAR LMML 242215Z 14009KT CAVOK 19/18 Q1016 NOSIG=
200805242200 METAR LMML NIL=
200805242145 METAR LMML 242145Z 14007KT CAVOK 19/18 Q1016 NOSIG=
200805242130 METAR LMML NIL=
200805242115 METAR LMML 242115Z 14008KT CAVOK 20/18 Q1016 NOSIG=
200805242100 METAR LMML NIL=
200805242045 METAR LMML 242045Z 14007KT 110V170 CAVOK 20/18 Q1016 NOSIG=
200805242030 METAR LMML NIL=
200805242015 METAR LMML 242015Z 14007KT CAVOK 20/18 Q1016 NOSIG=
200805241945 METAR LMML 241945Z 14008KT CAVOK 20/18 Q1016 NOSIG=
200805241930 METAR LMML NIL=
200805241915 METAR LMML 241915Z 14008KT CAVOK 20/17 Q1015 NOSIG=
200805241900 METAR LMML NIL=
200805241845 METAR LMML 241845Z 14008KT CAVOK 20/17 Q1015 NOSIG=
200805241830 METAR LMML NIL=
200805241815 METAR LMML 241815Z 14008KT CAVOK 20/17 Q1015 NOSIG=
200805241800 METAR LMML NIL=
200805241745 METAR LMML 241745Z 14008KT CAVOK 21/16 Q1015 NOSIG=
200805241730 METAR LMML NIL=
200805241715 METAR LMML 241715Z 14010KT CAVOK 21/16 Q1015 NOSIG=
200805241700 METAR LMML NIL=
200805241645 METAR LMML 241645Z 14011KT CAVOK 22/15 Q1015 NOSIG=
200805241630 METAR LMML NIL=
200805241615 METAR LMML 241615Z 14010KT 110V170 CAVOK 23/15 Q1015 NOSIG=
200805241600 METAR LMML NIL=
200805241545 METAR LMML 241545Z 14011KT 110V180 CAVOK 23/15 Q1015 NOSIG=
200805241530 METAR LMML NIL=
200805241515 METAR LMML 241515Z 15009KT 120V180 CAVOK 24/14 Q1015 NOSIG=
200805241500 METAR LMML NIL=
200805241445 METAR LMML 241445Z 15009KT 110V190 CAVOK 24/14 Q1015 NOSIG=
200805241430 METAR LMML NIL=
200805241415 METAR LMML 241415Z 14010KT 110V180 CAVOK 24/13 Q1015 NOSIG=
200805241400 METAR LMML NIL=
200805241345 METAR LMML 241345Z 16010KT 120V210 CAVOK 24/13 Q1015 NOSIG=
200805241330 METAR LMML NIL=
200805241315 METAR LMML 241315Z 15009KT 120V200 CAVOK 24/14 Q1015 NOSIG=
200805241300 METAR LMML NIL=
200805241245 METAR LMML 241245Z 16009KT 110V200 CAVOK 25/11 Q1015 NOSIG=
200805241230 METAR LMML NIL=
200805241215 METAR LMML 241215Z 17009KT 140V200 CAVOK 25/10 Q1015 NOSIG=
200805241200 METAR LMML NIL=
200805241145 METAR LMML 241145Z 14009KT 100V180 CAVOK 25/11 Q1015 NOSIG=
200805241130 METAR LMML NIL=
200805241115 METAR LMML 241115Z 16008KT 120V210 CAVOK 25/10 Q1015 NOSIG=
200805241100 METAR LMML NIL=
200805241045 METAR LMML 241045Z 16009KT 130V190 CAVOK 24/11 Q1015 NOSIG=
200805241015 METAR LMML 241015Z 16009KT 110V210 CAVOK 24/12 Q1016 NOSIG=
200805241000 METAR LMML NIL=
200805240945 METAR LMML 240945Z 16008KT 120V190 CAVOK 24/14 Q1016 NOSIG=
200805240930 METAR LMML NIL=
200805240915 METAR LMML 240915Z 14009KT 100V190 CAVOK 23/15 Q1016 NOSIG=
200805240900 METAR LMML NIL=
200805240845 METAR LMML 240845Z 15007KT 110V190 CAVOK 23/15 Q1015 NOSIG=
200805240830 METAR LMML NIL=
200805240815 METAR LMML 240815Z 16007KT 140V210 CAVOK 23/15 Q1015 NOSIG=
200805240745 METAR LMML 240745Z 17008KT 140V220 CAVOK 23/15 Q1015 NOSIG=
200805240730 METAR LMML NIL=
200805240715 METAR LMML 240715Z 15007KT 110V210 CAVOK 22/16 Q1015 NOSIG=
200805240700 METAR LMML NIL=
200805240645 METAR LMML 240645Z 14009KT 110V180 CAVOK 22/17 Q1015 NOSIG=
200805240630 METAR LMML NIL=
200805240615 METAR LMML 240615Z 14008KT 100V190 CAVOK 21/18 Q1015 NOSIG=
200805240600 METAR LMML NIL=
200805240545 METAR LMML 240545Z 14006KT 100V180 CAVOK 20/18 Q1015 NOSIG=
200805240530 METAR LMML NIL=
200805240515 METAR LMML 240515Z 13005KT CAVOK 19/19 Q1014 NOSIG=
200805240500 METAR LMML NIL=
200805240445 METAR LMML 240445Z 14005KT CAVOK 18/18 Q1014 NOSIG=
200805240430 METAR LMML NIL=
200805240415 METAR LMML 240415Z VRB03KT CAVOK 18/18 Q1014 NOSIG=
200805240400 METAR LMML NIL=
200805240345 METAR LMML 240345Z VRB02KT CAVOK 18/17 Q1014 NOSIG=
200805240330 METAR LMML NIL=
200805240315 METAR LMML 240315Z VRB03KT CAVOK 18/18 Q1014 NOSIG=
200805240245 METAR LMML 240245Z VRB03KT CAVOK 18/17 Q1014 NOSIG=
200805240230 METAR LMML NIL=
200805240215 METAR LMML 240215Z VRB03KT CAVOK 18/16 Q1014 NOSIG=
200805240200 METAR LMML NIL=
200805240145 METAR LMML 240145Z VRB03KT CAVOK 19/16 Q1014 NOSIG=
200805240115 METAR LMML 240115Z 17004KT CAVOK 19/16 Q1014 NOSIG=
200805240100 METAR LMML NIL=
200805240045 METAR LMML 240045Z 18004KT CAVOK 19/16 Q1015 NOSIG=
200805240030 METAR LMML NIL=
200805240015 METAR LMML 240015Z 18005KT CAVOK 19/16 Q1015 NOSIG=
200805232345 METAR LMML 232345Z 19005KT CAVOK 19/16 Q1015 NOSIG=
200805232330 METAR LMML NIL=
200805232315 METAR LMML 232315Z 19006KT CAVOK 19/16 Q1015 NOSIG=
200805232300 METAR LMML NIL=
200805232245 METAR LMML 232245Z 19006KT 160V250 CAVOK 19/16 Q1015 NOSIG=
200805232230 METAR LMML NIL=
200805232215 METAR LMML 232215Z VRB03KT CAVOK 19/16 Q1016 NOSIG=
200805232145 METAR LMML 232145Z VRB03KT CAVOK 19/16 Q1016 NOSIG=
200805232115 METAR LMML 232115Z 18004KT 130V230 CAVOK 19/17 Q1016 NOSIG=
200805232100 METAR LMML NIL=
200805232045 METAR LMML 232045Z 18005KT CAVOK 20/17 Q1015 NOSIG=
200805232030 METAR LMML NIL=
200805232015 METAR LMML 232015Z 18005KT 150V210 CAVOK 20/17 Q1015 NOSIG=
200805231945 METAR LMML 231945Z 18004KT 140V220 CAVOK 20/16 Q1015 NOSIG=
200805231930 METAR LMML NIL=
200805231915 METAR LMML 231915Z 18004KT 150V210 CAVOK 20/17 Q1015 NOSIG=
200805231900 METAR LMML NIL=
200805231845 METAR LMML 231845Z VRB03KT CAVOK 20/17 Q1015 NOSIG=
200805231830 METAR LMML NIL=
200805231815 METAR LMML 231815Z 17004KT 140V220 CAVOK 20/17 Q1015 NOSIG=
200805231745 METAR LMML 231745Z 17005KT CAVOK 20/16 Q1015 NOSIG=
200805231730 METAR LMML NIL=
200805231715 METAR LMML 231715Z 18006KT CAVOK 21/15 Q1015 NOSIG=
200805231700 METAR LMML NIL=
200805231645 METAR LMML 231645Z 18006KT 150V210 CAVOK 21/15 Q1015 NOSIG=
200805231615 METAR LMML 231615Z 18007KT CAVOK 22/14 Q1015 NOSIG=
200805231600 METAR LMML NIL=
200805231545 METAR LMML 231545Z 17007KT 150V210 CAVOK 22/15 Q1015 NOSIG=
200805231530 METAR LMML NIL=
200805231515 METAR LMML 231515Z 18006KT 150V220 CAVOK 22/14 Q1015 NOSIG=
200805231500 METAR LMML NIL=
200805231445 METAR LMML 231445Z 18006KT 140V220 CAVOK 23/12 Q1015 NOSIG=
200805231430 METAR LMML NIL=
200805231415 METAR LMML 231415Z 19005KT 150V240 CAVOK 24/13 Q1015 NOSIG=
200805231400 METAR LMML NIL=
200805231345 METAR LMML 231345Z 20007KT 160V250 CAVOK 23/11 Q1015 NOSIG=
200805231330 METAR LMML NIL=
200805231315 METAR LMML 231315Z 19005KT 140V240 CAVOK 24/10 Q1016 NOSIG=
200805231300 METAR LMML NIL=
200805231245 METAR LMML 231245Z 19006KT 160V250 CAVOK 24/11 Q1016 NOSIG=
200805231230 METAR LMML NIL=
200805231215 METAR LMML 231215Z 18007KT 140V230 CAVOK 25/09 Q1016 NOSIG=
200805231200 METAR LMML NIL=
200805231145 METAR LMML 231145Z 11006KT 070V170 CAVOK 25/13 Q1016 NOSIG=
200805231130 METAR LMML NIL=
200805231115 METAR LMML 231115Z 06005KT 360V130 CAVOK 26/12 Q1016 NOSIG=
200805231100 METAR LMML NIL=
200805231045 METAR LMML 231045Z 30005KT CAVOK 26/13 Q1016 NOSIG=
200805231030 LMML NIL=
200805231015 METAR LMML 231015Z 03004KT 340V140 CAVOK 26/14 Q1016 NOSIG=
200805231000 METAR LMML NIL=
200805230945 METAR LMML 230945Z 36004KT CAVOK 25/14 Q1016 NOSIG=
200805230930 METAR LMML NIL=
200805230915 METAR LMML 230915Z 03004KT 360V070 CAVOK 25/15 Q1016 NOSIG=
200805230900 METAR LMML NIL=
200805230845 METAR LMML 230845Z 03004KT 340V090 CAVOK 25/15 Q1016 NOSIG=
200805230830 METAR LMML NIL=
200805230815 METAR LMML 230815Z VRB03KT CAVOK 24/09 Q1016 NOSIG=
200805230800 METAR LMML NIL=
200805230745 METAR LMML 230745Z VRB02KT CAVOK 23/10 Q1016 NOSIG=
200805230730 METAR LMML NIL=
200805230715 METAR LMML 230715Z VRB02KT CAVOK 23/10 Q1016 NOSIG=
200805230700 METAR LMML NIL=
200805230645 METAR LMML 230645Z VRB03KT CAVOK 22/11 Q1016 NOSIG=
200805230630 METAR LMML NIL=
200805230615 METAR LMML 230615Z VRB02KT CAVOK 21/14 Q1016 NOSIG=
200805230600 METAR LMML NIL=
200805230545 METAR LMML 230545Z VRB01KT CAVOK 20/17 Q1016 NOSIG=
200805230530 METAR LMML NIL=
200805230515 METAR LMML 230515Z VRB01KT CAVOK 19/17 Q1015 NOSIG=
200805230500 METAR LMML NIL=
200805230445 METAR LMML 230445Z VRB02KT CAVOK 17/16 Q1015 NOSIG=
200805230430 METAR LMML NIL=
200805230415 METAR LMML 230415Z VRB01KT CAVOK 16/16 Q1015 NOSIG=
200805230400 METAR LMML NIL=
200805230345 METAR LMML 230345Z VRB02KT CAVOK 17/16 Q1015 NOSIG=
200805230330 METAR LMML NIL=
200805230315 METAR LMML 230315Z 12004KT CAVOK 17/16 Q1015 NOSIG=
200805230300 METAR LMML NIL=
200805230245 METAR LMML 230245Z VRB03KT CAVOK 17/15 Q1015 NOSIG=
200805230230 METAR LMML NIL=
200805230215 METAR LMML 230215Z VRB01KT CAVOK 17/14 Q1015 NOSIG=
200805230200 METAR LMML NIL=
200805230145 METAR LMML 230145Z VRB02KT CAVOK 18/16 Q1016 NOSIG=
200805230130 METAR LMML NIL=
200805230115 METAR LMML 230115Z 22004KT 200V260 CAVOK 19/16 Q1015 NOSIG=
200805230100 METAR LMML NIL=
200805230045 METAR LMML 230045Z 22005KT 190V250 CAVOK 19/16 Q1015 NOSIG=
200805230030 METAR LMML NIL=
200805230015 METAR LMML 230015Z 22005KT CAVOK 19/17 Q1015 NOSIG=
200805230000 METAR LMML NIL=
200805222345 METAR LMML 222345Z 21005KT 170V250 CAVOK 19/17 Q1016 NOSIG=
200805222330 METAR LMML NIL=
200805222315 METAR LMML 222315Z 21004KT 180V240 CAVOK 19/17 Q1016 NOSIG=
200805222300 METAR LMML NIL=
200805222245 METAR LMML 222245Z 21006KT 170V270 CAVOK 19/17 Q1016 NOSIG=
200805222230 METAR LMML NIL=
200805222215 METAR LMML 222215Z 21005KT 180V240 CAVOK 19/17 Q1016 NOSIG=
200805222200 METAR LMML NIL=
200805222145 METAR LMML 222145Z 21005KT 160V240 CAVOK 19/17 Q1016 NOSIG=
200805222130 METAR LMML NIL=
200805222115 METAR LMML 222115Z 20004KT 170V230 CAVOK 19/16 Q1016 NOSIG=
200805222100 METAR LMML NIL=
200805222045 METAR LMML 222045Z VRB03KT CAVOK 18/16 Q1016 NOSIG=
200805222030 METAR LMML NIL=
200805222015 METAR LMML 222015Z VRB03KT CAVOK 19/16 Q1016 NOSIG=
200805222000 METAR LMML NIL=
200805221945 METAR LMML 221945Z VRB03KT CAVOK 19/15 Q1016 NOSIG=
200805221915 METAR LMML 221915Z VRB03KT CAVOK 19/16 Q1016 NOSIG=
200805221900 METAR LMML NIL=
200805221845 METAR LMML 221845Z 14004KT CAVOK 20/16 Q1016 NOSIG=
200805221830 METAR LMML NIL=
200805221815 METAR LMML 221815Z 14005KT CAVOK 20/16 Q1016 NOSIG=
200805221800 METAR LMML NIL=
200805221745 METAR LMML 221745Z 14004KT CAVOK 21/15 Q1016 NOSIG=
200805221730 METAR LMML NIL=
200805221715 METAR LMML 221715Z 14004KT CAVOK 22/14 Q1016 NOSIG=
200805221700 METAR LMML NIL=
200805221645 METAR LMML 221645Z VRB03KT CAVOK 24/07 Q1016 NOSIG=
200805221630 METAR LMML NIL=
200805221615 METAR LMML 221615Z VRB03KT CAVOK 24/12 Q1016 NOSIG=
200805221600 METAR LMML NIL=
200805221545 METAR LMML 221545Z 04006KT 010V070 CAVOK 24/14 Q1016 NOSIG=
200805221530 METAR LMML NIL=
200805221515 METAR LMML 221515Z 04006KT 010V070 CAVOK 24/14 Q1016 NOSIG=
200805221500 METAR LMML NIL=
200805221445 LMML 221445Z 02006KT 340V070 CAVOK 25/13 Q1017 NOSIG=
200805221430 METAR LMML NIL=
200805221415 METAR LMML 221415Z 04007KT 360V080 9999 FEW041 25/13 Q1016
                        NOSIG=
200805221400 METAR LMML NIL=
200805221345 METAR LMML 221345Z 07006KT 020V120 9999 FEW041 25/15 Q1017
                        NOSIG=
200805221330 METAR LMML NIL=
200805221315 METAR LMML 221315Z 10007KT 010V180 9999 FEW041 24/14 Q1017
                        NOSIG=
200805221300 METAR LMML NIL=
200805221245 METAR LMML 221245Z 07005KT 340V140 9999 FEW034 24/15 Q1017
                        NOSIG=
200805221230 METAR LMML NIL=
200805221215 METAR LMML 221215Z 10006KT 040V150 9999 FEW034 24/13 Q1017
                        NOSIG=
200805221200 METAR LMML NIL=
200805221145 METAR LMML 221145Z 06006KT 300V160 9999 FEW034 25/13 Q1017
                        NOSIG=
200805221115 METAR LMML 221115Z VRB03KT 9999 FEW035 25/14 Q1017 NOSIG=
200805221100 METAR LMML NIL=
200805221045 METAR LMML 221045Z VRB03KT 9999 FEW032 24/14 Q1017 NOSIG=
200805221030 METAR LMML NIL=
200805221015 METAR LMML 221015Z 23005KT 180V300 9999 FEW034 24/10 Q1017
                        NOSIG=
200805221000 METAR LMML NIL=
200805220945 METAR LMML 220945Z 31004KT 190V030 9999 FEW025 24/09 Q1017
                        NOSIG=
200805220930 METAR LMML NIL=
200805220915 METAR LMML 220915Z 23004KT 090V300 9999 FEW025 23/11 Q1018
                        NOSIG=
200805220900 METAR LMML NIL=
200805220845 METAR LMML 220845Z 25006KT 210V310 9999 FEW020 22/14 Q1018
                        NOSIG=
200805220830 METAR LMML NIL=
200805220815 METAR LMML 220815Z 22005KT 180V300 9999 FEW020 22/13 Q1017
                        NOSIG=
200805220800 METAR LMML NIL=
200805220745 METAR LMML 220745Z 24005KT 190V290 9999 FEW020 21/15 Q1017
                        NOSIG=
200805220730 METAR LMML NIL=
200805220715 METAR LMML 220715Z 23005KT 180V300 9999 FEW020 21/15 Q1017
                        NOSIG=
200805220700 METAR LMML NIL=
200805220645 METAR LMML 220645Z 23006KT 190V280 9999 FEW020 21/15 Q1017
                        NOSIG=
200805220630 METAR LMML NIL=
200805220615 METAR LMML 220615Z 23006KT 200V280 9999 FEW020 20/14 Q1017
                        NOSIG=
200805220600 METAR LMML NIL=
200805220545 METAR LMML 220545Z 23005KT 200V280 9999 FEW020 19/16 Q1017
                        NOSIG=
200805220530 METAR LMML NIL=
200805220515 METAR LMML 220515Z 23005KT 200V280 9999 FEW020 18/17 Q1016
                        NOSIG=
200805220445 METAR LMML 220445Z 23005KT 200V270 9999 FEW020 18/16 Q1016
                        NOSIG=
200805220430 METAR LMML NIL=
200805220415 METAR LMML 220415Z 23005KT 200V270 CAVOK 17/16 Q1016 NOSIG=
200805220345 METAR LMML 220345Z 22004KT 9999 FEW020 17/15 Q1016 NOSIG=
200805220330 METAR LMML NIL=
200805220315 METAR LMML 220315Z 24005KT 9999 FEW020 16/15 Q1016 NOSIG=
200805220300 METAR LMML NIL=
200805220245 METAR LMML 220245Z VRB03KT CAVOK 16/14 Q1016 NOSIG=
200805220230 METAR LMML NIL=
200805220215 METAR LMML 220215Z 28004KT CAVOK 17/14 Q1016 NOSIG=
200805220200 METAR LMML NIL=
200805220145 METAR LMML 220145Z 27004KT CAVOK 17/12 Q1016 NOSIG=
200805220130 METAR LMML NIL=
200805220115 METAR LMML 220115Z 25004KT CAVOK 17/09 Q1016 NOSIG=
200805220100 METAR LMML NIL=
200805220045 METAR LMML 220045Z 25005KT CAVOK 17/11 Q1016 NOSIG=
200805220030 METAR LMML NIL=
200805220015 METAR LMML 220015Z 25006KT CAVOK 17/11 Q1016 NOSIG=
200805220000 METAR LMML NIL=
200805212345 METAR LMML 212345Z 25005KT CAVOK 17/12 Q1016 NOSIG=
200805212315 METAR LMML 212315Z VRB03KT CAVOK 17/14 Q1016 NOSIG=
200805212300 METAR LMML NIL=
200805212245 METAR LMML 212245Z VRB03KT CAVOK 17/14 Q1016 NOSIG=
200805212215 METAR LMML 212215Z VRB03KT CAVOK 17/14 Q1016 NOSIG=
200805212145 METAR LMML 212145Z VRB03KT CAVOK 17/13 Q1016 NOSIG=
200805212130 METAR LMML NIL=
200805212115 METAR LMML 212115Z 23004KT CAVOK 17/13 Q1016 NOSIG=
200805212045 METAR LMML 212045Z VRB03KT CAVOK 17/12 Q1016 NOSIG=
200805212030 METAR LMML NIL=
200805212015 METAR LMML 212015Z VRB01KT CAVOK 18/12 Q1016 NOSIG=
200805212000 METAR LMML NIL=
200805211945 METAR LMML 211945Z VRB01KT CAVOK 18/11 Q1016 NOSIG=
200805211930 METAR LMML NIL=
200805211915 METAR LMML 211915Z VRB02KT CAVOK 18/11 Q1016 NOSIG=
200805211900 METAR LMML NIL=
200805211845 METAR LMML 211845Z VRB03KT CAVOK 19/11 Q1015 NOSIG=
200805211830 METAR LMML NIL=
200805211815 METAR LMML 211815Z 32004KT CAVOK 19/11 Q1015 NOSIG=
200805211800 METAR LMML NIL=
200805211745 METAR LMML 211745Z 29005KT CAVOK 20/09 Q1015 NOSIG=
200805211730 METAR LMML NIL=
200805211715 METAR LMML 211715Z 31005KT 280V340 CAVOK 21/09 Q1015 NOSIG=
200805211700 METAR LMML NIL=
200805211645 METAR LMML 211645Z 31006KT 260V350 9999 FEW030 22/09 Q1015
                        NOSIG=
200805211630 METAR LMML NIL=
200805211615 METAR LMML 211615Z 31007KT 9999 FEW030 22/08 Q1015 NOSIG=
200805211600 METAR LMML NIL=
200805211545 METAR LMML 211545Z 30008KT 270V340 9999 FEW030 22/08 Q1015
                        NOSIG=
200805211530 METAR LMML NIL=
200805211515 METAR LMML 211515Z 30008KT 260V340 9999 FEW030 22/08 Q1015
                        NOSIG=
200805211500 METAR LMML NIL=
200805211445 METAR LMML 211445Z 31010KT 280V340 9999 FEW032 23/08 Q1015
                        NOSIG=
200805211430 METAR LMML NIL=
200805211415 METAR LMML 211415Z 27008KT 210V310 9999 FEW032 23/08 Q1015
                        NOSIG=
200805211400 METAR LMML NIL=
200805211345 METAR LMML 211345Z 30008KT 250V350 9999 FEW032 24/08 Q1015
                        NOSIG=
200805211330 METAR LMML NIL=
200805211315 METAR LMML 211315Z 29007KT 210V010 9999 FEW032 24/08 Q1015
                        NOSIG=
200805211300 METAR LMML NIL=
200805211245 METAR LMML 211245Z 31006KT 200V360 9999 FEW032 24/08 Q1015
                        NOSIG=
200805211230 METAR LMML NIL=
200805211215 METAR LMML 211215Z VRB03KT 9999 FEW030 23/14 Q1015 NOSIG=
200805211200 METAR LMML NIL=
200805211145 METAR LMML 211145Z 35007KT 160V080 9999 FEW030 23/14 Q1015
                        NOSIG=
200805211130 METAR LMML NIL=
200805211115 METAR LMML 211115Z VRB03KT 9999 FEW027 SCT090 22/14 Q1015
                        NOSIG=
200805211100 METAR LMML NIL=
200805211045 METAR LMML 211045Z 04004G14KT 330V160 9999 FEW036 SCT090
                        23/14 Q1015 NOSIG=
200805211030 METAR LMML NIL=
200805211015 METAR LMML 211015Z 01007KT 340V050 9999 FEW036 SCT090 22/14
                        Q1015 NOSIG=
200805211000 METAR LMML NIL=
200805210945 METAR LMML 210945Z 04005KT 350V080 CAVOK 23/12 Q1015 NOSIG=
200805210930 METAR LMML NIL=
200805210915 METAR LMML 210915Z 25004KT 200V330 CAVOK 22/11 Q1015 NOSIG=
200805210900 METAR LMML NIL=
200805210845 METAR LMML 210845Z VRB03KT CAVOK 21/10 Q1015 NOSIG=
200805210830 METAR LMML NIL=
200805210815 METAR LMML 210815Z VRB02KT CAVOK 22/12 Q1015 NOSIG=
200805210745 METAR LMML 210745Z 33004KT 300V010 CAVOK 20/12 Q1015 NOSIG=
200805210730 METAR LMML NIL=
200805210715 METAR LMML 210715Z 34006KT 300V020 CAVOK 21/12 Q1015 NOSIG=
200805210700 METAR LMML NIL=
200805210645 METAR LMML 210645Z 34007KT CAVOK 19/14 Q1015 NOSIG=
200805210630 METAR LMML NIL=
200805210615 METAR LMML 210615Z 34005KT CAVOK 19/15 Q1015 NOSIG=
200805210600 METAR LMML NIL=
200805210545 METAR LMML 210545Z 31005KT 280V340 9999 FEW025 BKN080 18/17
                        Q1015 NOSIG=
200805210530 METAR LMML NIL=
200805210515 METAR LMML 210515Z VRB02KT CAVOK 18/16 Q1015 NOSIG=
200805210500 METAR LMML NIL=
200805210445 METAR LMML 210445Z VRB02KT CAVOK 17/16 Q1015 NOSIG=
200805210430 METAR LMML NIL=
200805210415 METAR LMML 210415Z 32005KT CAVOK 16/15 Q1014 NOSIG=
200805210400 METAR LMML NIL=
200805210345 METAR LMML 210345Z VRB03KT CAVOK 16/14 Q1014 NOSIG=
200805210330 METAR LMML NIL=
200805210315 METAR LMML 210315Z VRB03KT CAVOK 16/14 Q1013 NOSIG=
200805210245 METAR LMML 210245Z VRB03KT CAVOK 16/15 Q1013 NOSIG=
200805210230 METAR LMML NIL=
200805210215 METAR LMML 210215Z VRB02KT CAVOK 16/16 Q1013 NOSIG=
200805210145 METAR LMML 210145Z VRB03KT CAVOK 16/16 Q1013 NOSIG=
200805210130 METAR LMML NIL=
200805210115 METAR LMML 210115Z VRB02KT CAVOK 16/16 Q1013 NOSIG=
200805210100 METAR LMML NIL=
200805210045 METAR LMML 210045Z VRB01KT CAVOK 16/16 Q1013 NOSIG=
200805210030 METAR LMML NIL=
200805210015 METAR LMML 210015Z VRB03KT CAVOK 17/16 Q1013 NOSIG=
200805210000 METAR LMML NIL=
200805202345 METAR LMML 202345Z VRB03KT CAVOK 17/16 Q1014 NOSIG=
200805202330 METAR LMML NIL=
200805202315 METAR LMML 202315Z VRB03KT CAVOK 17/16 Q1014 NOSIG=
200805202300 METAR LMML NIL=
200805202245 METAR LMML 202245Z 29004KT CAVOK 17/16 Q1014 NOSIG=
200805202230 METAR LMML NIL=
200805202215 METAR LMML 202215Z VRB02KT CAVOK 17/17 Q1014 BECMG 30010KT=
200805202145 METAR LMML 202145Z VRB02KT CAVOK 17/16 Q1014 BECMG 30010KT=
200805202130 METAR LMML NIL=
200805202115 METAR LMML 202115Z VRB02KT CAVOK 17/16 Q1014 BECMG 30010KT=
200805202100 METAR LMML NIL=
200805202045 METAR LMML 202045Z VRB02KT CAVOK 18/17 Q1014 NOSIG=
200805202030 METAR LMML NIL=
200805202015 METAR LMML 202015Z VRB03KT CAVOK 18/16 Q1013 NOSIG=
200805201945 METAR LMML 201945Z 13004KT 9999 FEW030 BKN250 18/16 Q1013
                        NOSIG=
200805201930 METAR LMML NIL=
200805201915 METAR LMML 201915Z VRB03KT 9999 FEW030 BKN250 18/16 Q1013
                        NOSIG=
200805201900 METAR LMML NIL=
200805201845 METAR LMML 201845Z 12004KT 090V190 9999 FEW030 BKN250 19/16
                        Q1013 NOSIG=
200805201830 METAR LMML NIL=
200805201815 METAR LMML 201815Z VRB03KT 9999 FEW030 BKN250 19/15 Q1012
                        NOSIG=
200805201800 METAR LMML NIL=
200805201745 METAR LMML 201745Z VRB03KT 9999 FEW030 BKN250 19/15 Q1012
                        NOSIG=
200805201730 METAR LMML NIL=
200805201715 METAR LMML 201715Z 12005KT 090V180 9999 FEW030 BKN250 20/15
                        Q1012 NOSIG=
200805201700 METAR LMML NIL=
200805201645 METAR LMML 201645Z 12007KT 090V150 9999 FEW031 BKN250 21/15
                        Q1012 NOSIG=
200805201615 METAR LMML 201615Z 16004KT 060V210 9999 FEW027 BKN250 21/14
                        Q1011 NOSIG=
200805201600 METAR LMML NIL=
200805201545 METAR LMML 201545Z 03005KT 340V060 9999 FEW030 SCT040 22/15
                        Q1012 NOSIG=
200805201530 METAR LMML NIL=
200805201515 METAR LMML 201515Z 05005KT 020V080 9999 SCT030 SCT045 21/15
                        Q1012 NOSIG=
200805201500 METAR LMML NIL=
200805201445 METAR LMML 201445Z 04006KT 010V090 9999 SCT029 SCT039 21/14
                        Q1012 NOSIG=
200805201430 METAR LMML NIL=
200805201415 METAR LMML 201415Z 03005KT 350V110 9999 FEW029 BKN041 21/14
                        Q1011 NOSIG=
200805201400 METAR LMML NIL=
200805201345 METAR LMML 201345Z 04007KT 350V090 9999 FEW030 BKN047 22/14
                        Q1011 NOSIG=
200805201330 METAR LMML NIL=
200805201315 METAR LMML 201315Z 02007KT 350V060 9999 SCT028 BKN039 21/15
                        Q1011 NOSIG=
200805201300 METAR LMML NIL=
200805201245 METAR LMML 201245Z 01006KT 320V080 9999 SCT028 BKN035 22/15
                        Q1011 NOSIG=
200805201230 METAR LMML NIL=
200805201215 METAR LMML 201215Z 01005KT 320V070 9999 FEW027 24/14 Q1011
                        NOSIG=
200805201200 METAR LMML NIL=
200805201145 METAR LMML 201145Z 02005KT 330V070 9999 FEW028 SCT250 23/15
                        Q1011 NOSIG=
200805201130 METAR LMML NIL=
200805201115 METAR LMML 201115Z 03004KT 280V150 9999 FEW027 BKN250 23/14
                        Q1011 NOSIG=
200805201100 METAR LMML NIL=
200805201045 METAR LMML 201045Z 04005KT 340V110 9999 FEW026 BKN250 23/15
                        Q1011 NOSIG=
200805201030 METAR LMML NIL=
200805201015 METAR LMML 201015Z 20005KT 130V300 9999 FEW020 BKN250 22/15
                        Q1011 NOSIG=
200805201000 METAR LMML NIL=
200805200945 METAR LMML 200945Z 21006KT 170V270 9999 FEW018 SCT250 22/15
                        Q1011 NOSIG=
200805200930 METAR LMML NIL=
200805200915 METAR LMML 200915Z 22006KT 180V270 9999 FEW018 21/15 Q1011
                        NOSIG=
200805200900 METAR LMML NIL=
200805200845 METAR LMML 200845Z 22005KT 130V280 9999 FEW018 21/15 Q1011
                        NOSIG=
200805200830 METAR LMML NIL=
200805200815 METAR LMML 200815Z 27005KT 200V340 9999 FEW018 21/15 Q1011
                        NOSIG=
200805200800 METAR LMML NIL=
200805200745 METAR LMML 200745Z 26004KT 180V350 9999 FEW016 21/14 Q1011
                        NOSIG=
200805200730 METAR LMML NIL=
200805200715 METAR LMML 200715Z 25005KT 200V310 9999 FEW020 20/14 Q1011
                        NOSIG=
200805200700 METAR LMML NIL=
200805200645 METAR LMML 200645Z 27006KT 220V310 9999 FEW020 20/14 Q1011
                        NOSIG=
200805200630 METAR LMML NIL=
200805200615 METAR LMML 200615Z 26006KT 220V320 9999 FEW020 19/15 Q1011
                        NOSIG=
200805200600 METAR LMML NIL=
200805200545 METAR LMML 200545Z 28004KT 250V310 9999 FEW020 19/15 Q1011
                        NOSIG=
200805200530 METAR LMML NIL=
200805200515 METAR LMML 200515Z VRB03KT 9999 FEW020 BKN060 18/15 Q1011
                        NOSIG=
200805200500 METAR LMML NIL=
200805200445 METAR LMML 200445Z 25004KT 210V290 9999 FEW012 BKN060 18/16
                        Q1011 NOSIG=
200805200430 METAR LMML NIL=
200805200415 METAR LMML 200415Z 24006KT 210V280 9999 FEW011 BKN060 18/17
                        Q1011 NOSIG=
200805200400 METAR LMML NIL=
200805200345 METAR LMML 200345Z 24004KT 210V280 9999 FEW013 BKN060 18/17
                        Q1010 NOSIG=
200805200330 METAR LMML NIL=
200805200315 METAR LMML 200315Z 24004KT 200V280 CAVOK 18/16 Q1010 NOSIG=
200805200300 METAR LMML NIL=
200805200245 METAR LMML 200245Z 26004KT 220V310 CAVOK 18/16 Q1010 NOSIG=
200805200230 METAR LMML NIL=
200805200215 METAR LMML 200215Z 29007KT 260V320 CAVOK 18/16 Q1009 NOSIG=
200805200200 METAR LMML NIL=
200805200145 METAR LMML 200145Z 28008KT 250V320 CAVOK 18/16 Q1009 NOSIG=
200805200130 METAR LMML NIL=
200805200115 METAR LMML 200115Z 26006KT 230V300 CAVOK 18/16 Q1009 NOSIG=
200805200100 METAR LMML NIL=
200805200045 METAR LMML 200045Z 25004KT 210V300 CAVOK 17/16 Q1009 NOSIG=
200805200030 METAR LMML NIL=
200805200015 METAR LMML 200015Z 30005KT CAVOK 17/15 Q1009 NOSIG=
200805200000 METAR LMML NIL=
200805192345 METAR LMML 192345Z 29006KT CAVOK 17/15 Q1008 NOSIG=
200805192330 METAR LMML NIL=
200805192315 METAR LMML 192315Z 28006KT 250V310 CAVOK 17/15 Q1009 NOSIG=
200805192300 METAR LMML NIL=
200805192245 METAR LMML 192245Z 28006KT CAVOK 17/15 Q1009 NOSIG=
200805192230 METAR LMML NIL=
200805192215 METAR LMML 192215Z 27008KT 250V310 CAVOK 17/15 Q1009 BECMG
                        9999 SCT020=
200805192200 METAR LMML NIL=
200805192145 METAR LMML 192145Z 26007KT 220V300 CAVOK 17/16 Q1008 NOSIG=
200805192115 METAR LMML 192115Z 26008KT CAVOK 17/16 Q1008 NOSIG=
200805192100 METAR LMML NIL=
200805192045 METAR LMML 192045Z 26005KT 230V290 CAVOK 17/16 Q1008 NOSIG=
200805192030 METAR LMML NIL=
200805192015 METAR LMML 192015Z 28007KT 240V310 CAVOK 18/16 Q1008 NOSIG=
200805191945 METAR LMML 191945Z 28007KT 250V310 CAVOK 18/16 Q1008 NOSIG=
200805191915 METAR LMML 191915Z 29009KT CAVOK 18/15 Q1007 NOSIG=
200805191900 METAR LMML NIL=
200805191845 METAR LMML 191845Z 29010KT CAVOK 18/15 Q1006 NOSIG=
200805191830 METAR LMML NIL=
200805191815 METAR LMML 191815Z 29012KT CAVOK 18/15 Q1006 NOSIG=
200805191800 METAR LMML NIL=
200805191745 METAR LMML 191745Z 30012KT 260V330 CAVOK 19/15 Q1005 NOSIG=
200805191730 METAR LMML NIL=
200805191715 METAR LMML 191715Z 30014KT 260V330 9999 FEW015 19/14 Q1005
                        NOSIG=
200805191700 METAR LMML NIL=
200805191645 METAR LMML 191645Z 30017KT 270V330 9999 FEW015 19/14 Q1005
                        NOSIG=
200805191630 METAR LMML NIL=
200805191615 METAR LMML 191615Z 30016KT 270V330 9999 FEW016 20/15 Q1004
                        NOSIG=
200805191600 METAR LMML NIL=
200805191545 METAR LMML 191545Z 29016KT 9000 SCT016 21/15 Q1004 TEMPO
                        BKN012=
200805191530 LMML NIL=
200805191515 LMML 191515Z 30018KT 9000 BKN013 21/16 Q1004 NOSIG=
200805191500 METAR LMML NIL=
200805191445 METAR LMML 191445Z 29019KT 260V320 7000 BKN013 20/17 Q1004
                        NOSIG RMK DUST HAZE=
200805191430 METAR LMML NIL=
200805191415 METAR LMML 191415Z 27017KT 230V320 6000 HZ BKN012 21/17 Q1004
                        NOSIG RMK DUST HAZE=
200805191400 METAR LMML NIL=
200805191345 METAR LMML 191345Z 27017KT 240V310 6000 HZ SCT012 21/17 Q1003
                        NOSIG RMK DUST HAZE=
200805191330 METAR LMML NIL=
200805191315 METAR LMML 191315Z 27019KT 230V310 6000 HZ SCT011 21/17 Q1003
                        NOSIG RMK DUST HAZE=
200805191300 METAR LMML NIL=
200805191245 METAR LMML 191245Z 26020KT 230V300 5000 HZ SCT011 21/17 Q1003
                        BECMG 7000=
200805191230 METAR LMML NIL=
200805191215 METAR LMML 191215Z 26019KT 230V300 5000 HZ FEW010 21/17 Q1002
                        BECMG 7000=
200805191145 METAR LMML 191145Z 26019KT 5000 HZ SCT008 21/18 Q1002 BECMG
                        6000=
200805191130 METAR LMML NIL=
200805191115 METAR LMML 191115Z 26019KT 220V300 4000 HZ BKN009 22/18 Q1002
                        BECMG 6000=
200805191045 METAR LMML 191045Z 25019KT 220V290 4000 HZ FEW012 23/18 Q1001
                        BECMG 6000=
200805191030 METAR LMML NIL=
200805191015 METAR LMML 191015Z 24014G24KT 200V280 4000 HZ FEW012 23/18
                        Q1001 BECMG 6000=
200805191000 METAR LMML NIL=
200805190945 METAR LMML 190945Z 23009KT 200V290 4000 HZ SKC 24/18 Q1000
                        BECMG 6000=
200805190915 METAR LMML 190915Z 22006KT 180V280 4000 HZ SKC 24/17 Q1000
                        BECMG 6000=
200805190900 METAR LMML NIL=
200805190845 METAR LMML 190845Z 20004KT 140V290 4000 HZ SKC 24/17 Q1000
                        BECMG 6000=
200805190830 METAR LMML NIL=
200805190815 METAR LMML 190815Z 09006KT 050V140 4000 HZ SKC 22/19 Q1000
                        BECMG 6000=
200805190800 METAR LMML NIL=
200805190745 METAR LMML 190745Z 08008KT 050V110 4000 HZ FEW007 22/19 Q0999
                        BECMG 6000=
200805190730 METAR LMML NIL=
200805190715 METAR LMML 190715Z 07007KT 040V100 4000 HZ FEW007 SCT250
                        21/19 Q1000 BECMG 6000=
200805190700 METAR LMML NIL=
200805190645 METAR LMML 190645Z 08008KT 050V110 4000 BR SCT006 BKN250
                        21/20 Q1000 BECMG 6000=
200805190630 METAR LMML NIL=
200805190615 LMML 190615Z 07009KT 040V100 4000 BR SCT005 BKN250 20/19
                        Q0999 BECMG 6000=
200805190600 METAR LMML NIL=
200805190545 METAR LMML 190545Z 08008KT 040V110 3000 BR BKN003 BKN250
                        19/19 Q0999 NOSIG=
200805190530 METAR LMML NIL=
200805190515 METAR LMML 190515Z 05007KT 020V100 3000 BR BKN003 BKN250
                        19/19 Q1000 NOSIG=
200805190500 METAR LMML NIL=
200805190445 METAR LMML 190445Z 07007KT 030V110 4000 BR BKN003 BKN250
                        18/18 Q1000 NOSIG=
200805190415 METAR LMML 190415Z 07007KT 030V110 4000 BR BKN003 18/18 Q1000
                        NOSIG=
200805190345 METAR LMML 190345Z 07008KT 040V100 4000 BR BKN003 BKN250
                        18/18 Q1000 NOSIG=
200805190330 METAR LMML NIL=
200805190315 METAR LMML 190315Z 08008KT 4000 BR BKN003 18/18 Q1000 NOSIG=
200805190300 METAR LMML NIL=
200805190245 METAR LMML 190245Z 07010KT 040V100 4000 BR BKN002 18/18 Q1000
                        NOSIG=
200805190230 METAR LMML NIL=
200805190215 METAR LMML 190215Z 08010KT 050V110 4000 BR BKN002 18/18 Q1001
                        NOSIG=
200805190200 METAR LMML NIL=
200805190145 METAR LMML 190145Z 07010KT 4000 BKN002 18/18 Q1002 NOSIG=
200805190130 METAR LMML NIL=
200805190115 METAR LMML 190115Z 07008KT 040V100 7000 BKN003 18/18 Q1002
                        NOSIG=
200805190100 METAR LMML NIL=
200805190045 METAR LMML 190045Z 07009KT 9999 SCT003 18/18 Q1002 BECMG
                        8000=
200805190030 METAR LMML NIL=
200805190015 METAR LMML 190015Z 07008KT 040V100 9999 SCT004 18/18 Q1003
                        BECMG 8000=
200805190000 METAR LMML NIL=
200805182345 METAR LMML 182345Z 06008KT 040V100 9999 FEW011 18/18 Q1003
                        BECMG 8000=
200805182330 METAR LMML NIL=
200805182315 METAR LMML 182315Z 06007KT 020V090 9999 FEW011 18/18 Q1004
                        BECMG 8000=
200805182300 METAR LMML NIL=
200805182245 METAR LMML 182245Z 07007KT 040V110 CAVOK 18/18 Q1005 BECMG
                        8000=
200805182230 METAR LMML NIL=
200805182215 METAR LMML 182215Z 04008KT 300V080 9999 FEW011 19/18 Q1005
                        BECMG 8000=
200805182200 METAR LMML NIL=
200805182145 METAR LMML 182145Z 06006KT 030V090 9999 FEW011 19/18 Q1005
                        BECMG 8000=
200805182130 METAR LMML NIL=
200805182115 METAR LMML 182115Z 07006KT 030V110 9999 FEW011 19/18 Q1005
                        BECMG 8000 FEW011=
200805182100 METAR LMML NIL=
200805182045 METAR LMML 182045Z 06007KT 030V100 9999 FEW011 19/18 Q1005
                        BECMG 8000=
200805182030 METAR LMML NIL=
200805182015 METAR LMML 182015Z 06008KT 020V100 CAVOK 19/18 Q1005 BECMG
                        8000=
200805182000 METAR LMML NIL=
200805181945 METAR LMML 181945Z 04007KT 360V070 9999 FEW015 19/18 Q1005
                        BECMG 8000=
200805181930 METAR LMML NIL=
200805181915 METAR LMML 181915Z 05007KT 020V080 9999 FEW015 19/18 Q1005
                        BECMG 8000=
200805181900 METAR LMML NIL=
200805181845 METAR LMML 181845Z 05008KT 020V080 9999 FEW015 19/18 Q1005
                        BECMG 8000=
200805181830 METAR LMML NIL=
200805181815 METAR LMML 181815Z 04008KT CAVOK 19/18 Q1005 BECMG 8000 FEW012=
200805181800 METAR LMML NIL=
200805181745 METAR LMML 181745Z 03006KT CAVOK 20/17 Q1004 NOSIG=
200805181730 METAR LMML NIL=
200805181715 METAR LMML 181715Z 05006KT 020V080 CAVOK 21/17 Q1005 NOSIG=
200805181700 METAR LMML NIL=
200805181645 METAR LMML 181645Z 05005KT 010V100 CAVOK 22/17 Q1005 NOSIG=
200805181630 METAR LMML NIL=
200805181615 METAR LMML 181615Z 04007KT 010V070 CAVOK 22/16 Q1005 NOSIG=
200805181600 METAR LMML NIL=
200805181545 METAR LMML 181545Z 06006KT 020V100 CAVOK 22/17 Q1005 NOSIG=
200805181530 METAR LMML NIL=
200805181515 METAR LMML 181515Z 05006KT 010V110 CAVOK 23/17 Q1005 NOSIG=
200805181500 METAR LMML NIL=
200805181445 METAR LMML 181445Z 04005KT 360V090 CAVOK 23/17 Q1006 NOSIG=
200805181430 METAR LMML NIL=
200805181415 METAR LMML 181415Z 05006KT 360V090 CAVOK 23/17 Q1006 NOSIG=
200805181400 METAR LMML NIL=
200805181345 METAR LMML 181345Z 05005KT 350V100 CAVOK 23/17 Q1006 NOSIG=
200805181315 METAR LMML 181315Z 05007KT 010V110 CAVOK 23/17 Q1006 NOSIG=
200805181300 METAR LMML NIL=
200805181245 METAR LMML 181245Z 04008KT 360V080 9999 FEW013 23/17 Q1006
                        NOSIG=
200805181230 METAR LMML NIL=
200805181215 METAR LMML 181215Z 04008KT 010V090 9999 FEW013 23/17 Q1006
                        NOSIG=
200805181200 METAR LMML NIL=
200805181145 METAR LMML 181145Z 03009KT 360V060 9999 FEW013 23/17 Q1006
                        NOSIG=
200805181115 METAR LMML 181115Z 04010KT 010V080 9999 FEW013 23/17 Q1007
                        NOSIG=
200805181045 METAR LMML 181045Z 03009KT 360V070 9999 SCT013 22/17 Q1007
                        NOSIG=
200805181030 METAR LMML NIL=
200805181015 METAR LMML 181015Z 03010KT 9000 SCT012 22/17 Q1007 NOSIG=
200805181000 METAR LMML NIL=
200805180945 METAR LMML 180945Z 04009KT 010V080 9000 SCT012 22/17 Q1007
                        NOSIG=
200805180930 METAR LMML NIL=
200805180915 METAR LMML 180915Z 03009KT 360V080 9000 SCT009 SCT011 22/18
                        Q1007 NOSIG=
200805180900 METAR LMML NIL=
200805180845 METAR LMML 180845Z 04010KT 360V080 9000 BKN009 21/17 Q1007
                        BECMG SCT009=
200805180830 METAR LMML NIL=
200805180815 METAR LMML 180815Z 04011KT 020V080 9000 SCT010 21/17 Q1007
                        BECMG 9999=
200805180800 METAR LMML NIL=
200805180745 METAR LMML 180745Z 05010KT 010V080 9000 FEW010 21/17 Q1007
                        BECMG 9999=
200805180730 METAR LMML NIL=
200805180715 METAR LMML 180715Z 05009KT 360V090 9000 FEW009 21/17 Q1007
                        BECMG 9999=
200805180700 METAR LMML NIL=
200805180645 METAR LMML 180645Z 06009KT 010V090 7000 FEW009 20/18 Q1007
                        BECMG 9999=
200805180630 METAR LMML NIL=
200805180615 METAR LMML 180615Z 05009KT 020V080 6000 FEW009 19/18 Q1007
                        BECMG 9999=
200805180600 METAR LMML NIL=
200805180545 METAR LMML 180545Z 06007KT 020V100 6000 FEW007 19/18 Q1007
                        TEMPO 9999 FEW010=
200805180530 METAR LMML NIL=
200805180515 METAR LMML 180515Z 06007KT 020V100 6000 FEW005 18/18 Q1007
                        TEMPO 9999 FEW010=
200805180500 METAR LMML NIL=
200805180445 METAR LMML 180445Z 06007KT 010V100 6000 FEW005 18/18 Q1006
                        TEMPO 9999 FEW010=
200805180430 METAR LMML NIL=
200805180415 METAR LMML 180415Z 06007KT 020V100 6000 FEW005 18/18 Q1006
                        TEMPO 5000 SCT007=
200805180400 METAR LMML NIL=
200805180345 METAR LMML 180345Z 07007KT 040V100 5000 BR FEW005 18/18 Q1006
                        TEMPO 5000 SCT007=
200805180330 METAR LMML NIL=
200805180315 METAR LMML 180315Z 06007KT 030V110 5000 BR FEW005 18/18 Q1007
                        TEMPO 5000 SCT007=
200805180300 METAR LMML NIL=
200805180245 METAR LMML 180245Z 05007KT 020V090 5000 BR BKN005 18/18 Q1007
                        TEMPO 5000 SCT007=
200805180230 METAR LMML NIL=
200805180215 METAR LMML 180215Z 07007KT 040V110 5000 BR SCT006 18/18 Q1007
                        TEMPO 5000 SCT007=
200805180200 METAR LMML NIL=
200805180145 METAR LMML 180145Z 07007KT 5000 BR SCT006 18/18 Q1007 TEMPO
                        5000 SCT007=
200805180130 METAR LMML NIL=
200805180115 METAR LMML 180115Z 07008KT 040V100 6000 FEW007 18/18 Q1007
                        TEMPO 5000 SCT007=
200805180100 METAR LMML NIL=
200805180045 METAR LMML 180045Z 07006KT 040V110 6000 FEW007 18/18 Q1007
                        TEMPO 5000 SCT007=
200805180030 METAR LMML NIL=
200805180015 METAR LMML 180015Z 07009KT 030V110 6000 FEW007 18/18 Q1007
                        TEMPO 5000 SCT007=
200805180000 METAR LMML NIL=
200805172345 METAR LMML 172345Z 09008KT 6000 FEW007 18/18 Q1008 TEMPO
                        5000 SCT007=
200805172330 METAR LMML NIL=
200805172315 METAR LMML 172315Z 07005KT 040V110 6000 FEW007 18/18 Q1008
                        TEMPO 5000 SCT007=
200805172300 METAR LMML NIL=
200805172245 METAR LMML 172245Z 07006KT 030V110 7000 SKC 18/18 Q1008 NOSIG=
200805172215 METAR LMML 172215Z 09009KT 7000 SKC 18/18 Q1008 NOSIG=
200805172145 METAR LMML 172145Z 09009KT 7000 SKC 18/18 Q1008 NOSIG=
200805172115 METAR LMML 172115Z 09009KT 060V120 8000 SKC 18/18 Q1008 NOSIG=
200805172100 METAR LMML NIL=
200805172045 METAR LMML 172045Z 10010KT 070V130 9000 SKC 18/18 Q1008 NOSIG=
200805172015 METAR LMML 172015Z 10011KT 9000 FEW250 18/18 Q1008 NOSIG=
200805172000 METAR LMML NIL=
200805171945 METAR LMML 171945Z 10010KT 9000 FEW010 18/18 Q1008 NOSIG=
200805171930 METAR LMML NIL=
200805171915 METAR LMML 171915Z 09010KT 060V130 9000 FEW010 SCT250 18/18
                        Q1008 NOSIG=
200805171900 METAR LMML NIL=
200805171845 METAR LMML 171845Z 09009KT 060V120 9000 SCT250 19/18 Q1008
                        NOSIG=
200805171830 METAR LMML NIL=
200805171815 METAR LMML 171815Z 10014KT 070V130 9000 FEW010 BKN250 19/17
                        Q1007 NOSIG=
200805171800 METAR LMML NIL=
200805171745 METAR LMML 171745Z 10013KT 060V130 9999 FEW010 BKN250 19/17
                        Q1007 NOSIG=
200805171730 METAR LMML NIL=
200805171715 METAR LMML 171715Z 11013KT CAVOK 19/17 Q1007 NOSIG=
200805171700 METAR LMML NIL=
200805171645 METAR LMML 171645Z 10014KT CAVOK 20/17 Q1007 NOSIG=
200805171615 METAR LMML 171615Z 11016KT CAVOK 20/17 Q1007 NOSIG=
200805171600 METAR LMML NIL=
200805171545 METAR LMML 171545Z 12018KT 070V150 CAVOK 21/16 Q1007 NOSIG=
200805171530 METAR LMML NIL=
200805171515 METAR LMML 171515Z 12020KT CAVOK 21/16 Q1007 NOSIG=
200805171500 METAR LMML NIL=
200805171445 METAR LMML 171445Z 12022KT CAVOK 22/16 Q1007 NOSIG=
200805171415 METAR LMML 171415Z 12021KT CAVOK 22/15 Q1008 NOSIG=
200805171400 METAR LMML NIL=
200805171345 METAR LMML 171345Z 12019KT CAVOK 22/15 Q1008 NOSIG=
200805171315 METAR LMML 171315Z 12019KT CAVOK 23/15 Q1008 NOSIG=
200805171245 METAR LMML 171245Z 13023KT CAVOK 23/13 Q1008 NOSIG=
200805171230 METAR LMML NIL=
200805171215 METAR LMML 171215Z 13022KT CAVOK 23/13 Q1009 NOSIG=
200805171200 METAR LMML NIL=
200805171145 METAR LMML 171145Z 13022KT CAVOK 24/14 Q1009 NOSIG=
200805171130 METAR LMML NIL=
200805171115 METAR LMML 171115Z 13024KT CAVOK 24/14 Q1009 NOSIG=
200805171100 METAR LMML NIL=
200805171045 METAR LMML 171045Z 12022KT CAVOK 23/15 Q1009 NOSIG=
200805171030 METAR LMML NIL=
200805171015 METAR LMML 171015Z 13021KT CAVOK 23/14 Q1010 NOSIG=
200805171000 METAR LMML NIL=
200805170945 METAR LMML 170945Z 12019KT CAVOK 23/15 Q1010 NOSIG=
200805170930 METAR LMML NIL=
200805170915 METAR LMML 170915Z 12019KT CAVOK 23/15 Q1010 NOSIG=
200805170900 METAR LMML NIL=
200805170845 METAR LMML 170845Z 12019KT CAVOK 21/17 Q1011 NOSIG=
200805170830 METAR LMML NIL=
200805170815 METAR LMML 170815Z 12021KT CAVOK 21/17 Q1011 NOSIG=
200805170800 METAR LMML NIL=
200805170745 METAR LMML 170745Z 11020KT 9999 FEW007 20/18 Q1011 NOSIG=
200805170730 METAR LMML NIL=
200805170715 METAR LMML 170715Z 12022KT 9999 FEW030 SCT120 19/18 Q1011
                        RETS NOSIG=
200805170645 METAR LMML 170645Z 11018KT 080V140 9999 FEW030 SCT120 19/19
                        Q1011 RETS NOSIG=
200805170630 METAR LMML NIL=
200805170615 METAR LMML 170615Z 10014KT 9999 -TS FEW007 BKN120CB BKN250
                        18/18 Q1012 TEMPO 8000 TSRA BKN005
                        BKN070CB=
200805170600 METAR LMML NIL=
200805170545 METAR LMML 170545Z 12013KT 9999 FEW007 BKN100 BKN250 18/18
                        Q1012 TEMPO 8000 TSRA BKN005 BKN070CB=
200805170530 METAR LMML NIL=
200805170515 METAR LMML 170515Z 13018KT 9999 -SHRA FEW025 BKN100 BKN250
                        18/18 Q1012 TEMPO 8000 TSRA BKN005
                        BKN070CB=
200805170500 METAR LMML NIL=
200805170445 METAR LMML 170445Z 12012KT 9999 FEW007 BKN110 BKN250 18/18
                        Q1013 TEMPO 8000 TSRA BKN005 BKN070CB=
200805170430 METAR LMML NIL=
200805170415 METAR LMML 170415Z 10006KT 070V130 9999 FEW007 BKN110 BKN250
                        18/18 Q1013 TEMPO 8000 TSRA BKN005
                        BKN070CB=
200805170400 METAR LMML NIL=
200805170345 METAR LMML 170345Z 08009KT 030V120 9999 FEW007 SCT120 BKN250
                        18/18 Q1012 TEMPO 8000 TSRA BKN005
                        BKN070CB=
200805170330 METAR LMML NIL=
200805170315 METAR LMML 170315Z 11010KT 080V150 9999 FEW005 SCT120 BKN250
                        18/18 Q1011 TEMPO 8000 TSRA BKN005
                        BKN070CB=
200805170300 METAR LMML NIL=
200805170245 METAR LMML 170245Z 11017KT 9999 FEW005 SCT120 BKN250 18/18
                        Q1011 TEMPO 8000 TSRA BKN005 BKN070CB=
200805170230 METAR LMML NIL=
200805170215 METAR LMML 170215Z 12010KT 9999 FEW005 SCT120 BKN250 18/18
                        Q1012 TEMPO 8000 TSRA BKN005 BKN070CB=
200805170200 METAR LMML NIL=
200805170145 METAR LMML 170145Z 09008KT CAVOK 18/18 Q1012 TEMPO 8000 TSRA
                        BKN005 BKN070CB=
200805170130 METAR LMML NIL=
200805170115 METAR LMML 170115Z 11011KT CAVOK 18/18 Q1012 TEMPO 8000 TSRA
                        BKN005 BKN070CB=
200805170100 METAR LMML NIL=
200805170045 METAR LMML 170045Z 14010KT 9999 FEW005 SCT120 BKN250 18/18
                        Q1014 TEMPO 8000 TSRA BKN005 BKN070CB=
200805170030 METAR LMML NIL=
200805170015 METAR LMML 170015Z 15011KT 9999 FEW004 SCT250 18/18 Q1015
                        TEMPO 8000 TSRA BKN005 BKN070CB=
200805170000 METAR LMML NIL=
200805162345 METAR LMML 162345Z 14010KT 9999 FEW004 SCT250 18/18 Q1014
                        TEMPO BKN005=
200805162330 METAR LMML NIL=
200805162315 METAR LMML 162315Z 12011KT 9999 FEW004 BKN250 18/18 Q1014
                        TEMPO BKN005=
200805162300 METAR LMML NIL=
200805162245 METAR LMML 162245Z 12011KT 9999 FEW004 SCT250 18/18 Q1014
                        TEMPO BKN005=
200805162230 METAR LMML NIL=
200805162215 METAR LMML 162215Z 12011KT 9999 FEW004 SCT250 18/18 Q1015
                        TEMPO BKN005=
200805162200 METAR LMML NIL=
200805162145 METAR LMML 162145Z 13011KT 9999 FEW004 SCT250 18/18 Q1015
                        TEMPO BKN005=
200805162130 METAR LMML NIL=
200805162115 METAR LMML 162115Z 13010KT 9999 BKN004 BKN250 18/18 Q1015
                        TEMPO BKN005=
200805162100 METAR LMML NIL=
200805162045 METAR LMML 162045Z 13010KT 9999 FEW004 BKN250 18/18 Q1015
                        NOSIG=
200805162030 METAR LMML NIL=
200805162015 METAR LMML 162015Z 13009KT 9999 SCT004 BKN250 18/18 Q1016
                        NOSIG=
200805162000 METAR LMML NIL=
200805161945 METAR LMML 161945Z 12010KT 9999 BKN004 BKN250 18/18 Q1015
                        NOSIG=
200805161930 METAR LMML NIL=
200805161915 METAR LMML 161915Z 12009KT 9999 BKN004 BKN250 18/18 Q1015
                        NOSIG=
200805161900 METAR LMML NIL=
200805161845 METAR LMML 161845Z 12011KT 9999 FEW004 BKN250 18/18 Q1015
                        NOSIG=
200805161830 METAR LMML NIL=
200805161815 METAR LMML 161815Z 12009KT 9999 FEW004 BKN250 19/18 Q1015
                        NOSIG=
200805161800 METAR LMML NIL=
200805161745 METAR LMML 161745Z 12010KT 9999 FEW004 BKN250 19/19 Q1015
                        NOSIG=
200805161730 METAR LMML NIL=
200805161715 METAR LMML 161715Z 12010KT 9999 FEW005 BKN250 20/18 Q1015
                        NOSIG=
200805161700 METAR LMML NIL=
200805161645 METAR LMML 161645Z 14009KT 9999 FEW009 SCT250 20/16 Q1015
                        NOSIG=
200805161630 METAR LMML NIL=
200805161615 METAR LMML 161615Z 14009KT 9999 FEW009 SCT250 21/16 Q1015
                        NOSIG=
200805161600 METAR LMML NIL=
200805161545 METAR LMML 161545Z 15008KT 120V180 9999 FEW009 21/16 Q1015
                        NOSIG=
200805161530 METAR LMML NIL=
200805161515 METAR LMML 161515Z 16009KT 130V190 9999 FEW009 21/17 Q1016
                        NOSIG=
200805161500 METAR LMML NIL=
200805161445 METAR LMML 161445Z 17007KT 130V220 9999 FEW009 22/16 Q1016
                        NOSIG=
200805161430 METAR LMML NIL=
200805161415 METAR LMML 161415Z 18008KT 140V210 9999 FEW009 22/16 Q1016
                        NOSIG=
200805161400 METAR LMML NIL=
200805161345 METAR LMML 161345Z 17009KT 140V260 9999 FEW010 22/17 Q1016
                        NOSIG=
200805161330 METAR LMML NIL=
200805161315 METAR LMML 161315Z 16010KT 130V230 9999 FEW012 22/16 Q1016
                        NOSIG=
200805161300 METAR LMML NIL=
200805161245 METAR LMML 161245Z 17011KT 9999 FEW012 21/17 Q1016 NOSIG=
200805161230 METAR LMML NIL=
200805161215 METAR LMML 161215Z 18009KT 140V230 CAVOK 22/16 Q1016 NOSIG=
200805161200 METAR LMML NIL=
200805161145 METAR LMML 161145Z 18011KT 140V220 CAVOK 23/15 Q1017 NOSIG=
200805161130 METAR LMML NIL=
200805161115 METAR LMML 161115Z 18010KT 130V210 9999 FEW012 SCT250 22/16
                        Q1017 NOSIG=
200805161100 METAR LMML NIL=
200805161045 METAR LMML 161045Z 17012KT 140V210 9999 FEW012 SCT250 22/15
                        Q1017 NOSIG=
200805161030 METAR LMML NIL=
200805161015 METAR LMML 161015Z 18009KT 130V220 9999 FEW012 SCT250 22/17
                        Q1017 NOSIG=
200805161000 METAR LMML NIL=
200805160945 METAR LMML 160945Z 18011KT 150V210 9999 FEW015 21/17 Q1017
                        NOSIG=
200805160930 METAR LMML NIL=
200805160915 METAR LMML 160915Z 17010KT 140V200 9999 FEW015 22/16 Q1017
                        NOSIG=
200805160900 METAR LMML NIL=
200805160845 METAR LMML 160845Z 18009KT 150V220 9999 FEW015 21/17 Q1017
                        NOSIG=
200805160830 METAR LMML NIL=
200805160815 METAR LMML 160815Z 18010KT 9999 FEW015 21/16 Q1017 NOSIG=
200805160800 METAR LMML NIL=
200805160745 METAR LMML 160745Z 17008KT 130V210 9999 FEW015 21/17 Q1017
                        NOSIG=
200805160730 METAR LMML NIL=
200805160715 METAR LMML 160715Z 17008KT 120V220 CAVOK 21/17 Q1017 NOSIG=
200805160700 METAR LMML NIL=
200805160645 METAR LMML 160645Z 17008KT 130V210 CAVOK 20/18 Q1016 NOSIG=
200805160630 METAR LMML NIL=
200805160615 METAR LMML 160615Z 16008KT CAVOK 19/18 Q1016 NOSIG=
200805160600 METAR LMML NIL=
200805160545 METAR LMML 160545Z 17005KT 140V210 CAVOK 19/19 Q1016 NOSIG=
200805160530 METAR LMML NIL=
200805160515 METAR LMML 160515Z 17004KT 140V210 CAVOK 18/18 Q1016 NOSIG=
200805160500 METAR LMML NIL=
200805160445 METAR LMML 160445Z 17005KT CAVOK 18/18 Q1016 NOSIG=
200805160430 METAR LMML NIL=
200805160415 METAR LMML 160415Z 16005KT 130V190 CAVOK 17/17 Q1016 NOSIG=
200805160400 METAR LMML NIL=
200805160345 METAR LMML 160345Z 16005KT CAVOK 17/17 Q1016 NOSIG=
200805160330 METAR LMML NIL=
200805160315 METAR LMML 160315Z VRB03KT CAVOK 17/17 Q1016 NOSIG=
200805160300 METAR LMML NIL=
200805160245 METAR LMML 160245Z 17004KT 140V200 CAVOK 18/17 Q1016 NOSIG=
200805160230 METAR LMML NIL=
200805160215 METAR LMML 160215Z 16004KT 130V190 CAVOK 18/17 Q1016 NOSIG=
200805160200 METAR LMML NIL=
200805160145 METAR LMML 160145Z 17005KT 140V200 CAVOK 18/17 Q1016 NOSIG=
200805160115 METAR LMML 160115Z 17004KT CAVOK 17/17 Q1016 NOSIG=
200805160100 METAR LMML NIL=
200805160045 METAR LMML 160045Z VRB03KT CAVOK 17/17 Q1016 NOSIG=
200805160030 METAR LMML NIL=
200805160015 METAR LMML 160015Z 17006KT CAVOK 18/17 Q1016 NOSIG=
200805160000 METAR LMML NIL=
200805152345 METAR LMML 152345Z 17005KT 150V210 CAVOK 18/14 Q1017 NOSIG=
200805152330 METAR LMML NIL=
200805152315 METAR LMML 152315Z 19005KT CAVOK 18/13 Q1017 NOSIG=
200805152245 METAR LMML 152245Z 18004KT CAVOK 18/13 Q1017 NOSIG=
200805152230 METAR LMML NIL=
200805152215 METAR LMML 152215Z VRB03KT CAVOK 17/17 Q1017 NOSIG=
200805152200 METAR LMML NIL=
200805152145 METAR LMML 152145Z 14004KT CAVOK 17/17 Q1017 NOSIG=
200805152130 METAR LMML NIL=
200805152115 METAR LMML 152115Z 17004KT CAVOK 18/17 Q1018 NOSIG=
200805152100 METAR LMML NIL=
200805152030 METAR LMML NIL=
200805152000 METAR LMML NIL=
200805151930 METAR LMML NIL=
200805151900 METAR LMML NIL=
200805151830 METAR LMML NIL=
200805151800 METAR LMML NIL=
200805151745 METAR LMML 151745Z 20005KT CAVOK 19/15 Q1017 NOSIG=
200805151730 METAR LMML NIL=
200805151715 METAR LMML 151715Z 20004KT 170V240 CAVOK 19/15 Q1017 NOSIG=
200805151700 METAR LMML NIL=
200805151645 METAR LMML 151645Z 20005KT 160V230 CAVOK 20/14 Q1017 NOSIG=
200805151630 METAR LMML NIL=
200805151615 METAR LMML 151615Z 22005KT 170V290 CAVOK 20/14 Q1017 NOSIG=
200805151600 METAR LMML NIL=
200805151545 METAR LMML 151545Z 22006KT 170V280 CAVOK 21/13 Q1017 NOSIG=
200805151515 METAR LMML 151515Z 22006KT 150V280 CAVOK 21/14 Q1017 NOSIG=
200805151500 METAR LMML NIL=
200805151445 LMML 151445Z 22008KT 170V270 9999 FEW025 21/14 Q1017 NOSIG=
200805151415 METAR LMML 151415Z 21007KT 150V270 9999 FEW030 21/15 Q1017
                        NOSIG=
200805151400 METAR LMML NIL=
200805151345 METAR LMML 151345Z 22008KT 170V260 9999 FEW030 21/15 Q1017
                        NOSIG=
200805151330 METAR LMML NIL=
200805151315 METAR LMML 151315Z 23010KT 190V270 9999 FEW031 21/14 Q1017
                        NOSIG=
200805151300 METAR LMML NIL=
200805151245 METAR LMML 151245Z 22009KT 180V270 9999 FEW031 21/14 Q1017
                        NOSIG=
200805151230 METAR LMML NIL=
200805151215 METAR LMML 151215Z 23008KT 170V290 9999 FEW031 22/14 Q1017
                        NOSIG=
200805151200 METAR LMML NIL=
200805151145 METAR LMML 151145Z 23008KT 170V290 9999 FEW031 22/15 Q1017
                        NOSIG=
200805151115 METAR LMML 151115Z 21010KT 170V250 9999 FEW027 21/14 Q1017
                        NOSIG=
200805151100 METAR LMML NIL=
200805151045 METAR LMML 151045Z 20008KT 140V250 9999 FEW031 21/14 Q1017
                        NOSIG=
200805151015 METAR LMML 151015Z 18008KT 150V230 9999 FEW026 20/15 Q1018
                        NOSIG=
200805151000 METAR LMML NIL=
200805150945 METAR LMML 150945Z 17006KT 070V230 9999 FEW023 21/15 Q1018
                        NOSIG=
200805150930 METAR LMML NIL=
200805150915 METAR LMML 150915Z 16005KT 020V230 9999 SCT022 21/16 Q1018
                        NOSIG=
200805150900 METAR LMML NIL=
200805150845 METAR LMML 150845Z 20004KT 140V270 9999 FEW022 21/15 Q1018
                        NOSIG=
200805150830 METAR LMML NIL=
200805150815 METAR LMML 150815Z 20004KT 150V260 9999 FEW021 21/16 Q1018
                        NOSIG=
200805150800 METAR LMML NIL=
200805150745 METAR LMML 150745Z 23004KT 180V290 9999 FEW019 20/15 Q1018
                        NOSIG=
200805150730 METAR LMML NIL=
200805150715 METAR LMML 150715Z VRB02KT 9999 FEW020 20/15 Q1018 NOSIG=
200805150700 METAR LMML NIL=
200805150645 LMML 150645Z VRB03KT 9999 FEW015 19/16 Q1017 NOSIG=
200805150630 METAR LMML NIL=
200805150615 METAR LMML 150615Z 35005KT 320V020 9999 FEW015 SCT250 18/16
                        Q1017 NOSIG=
200805150600 METAR LMML NIL=
200805150545 METAR LMML 150545Z 34006KT 310V010 9999 FEW012 SCT250 18/17
                        Q1017 NOSIG=
200805150530 METAR LMML NIL=
200805150515 METAR LMML 150515Z 32004KT 9999 FEW012 17/17 Q1017 NOSIG=
200805150500 METAR LMML NIL=
200805150445 LMML 150445Z 31004KT 9999 FEW012 16/16 Q1017 NOSIG=
200805150430 METAR LMML NIL=
200805150415 METAR LMML 150415Z VRB03KT 9999 FEW012 15/15 Q1017 NOSIG=
200805150400 METAR LMML NIL=
200805150345 LMML 150345Z VRB03KT 9999 FEW012 15/15 Q1016 TEMPO 7000=
200805150330 METAR LMML NIL=
200805150315 METAR LMML 150315Z VRB01KT 9999 FEW012 15/15 Q1016 TEMPO
                        7000=
200805150300 METAR LMML NIL=
200805150245 LMML 150245Z VRB01KT 9999 FEW012 15/15 Q1016 NOSIG=
200805150230 METAR LMML NIL=
200805150215 METAR LMML 150215Z VRB02KT CAVOK 16/15 Q1016 NOSIG=
200805150200 METAR LMML NIL=
200805150145 LMML 150145Z VRB03KT 9999 FEW012 16/15 Q1016 NOSIG=
200805150130 METAR LMML NIL=
200805150115 METAR LMML 150115Z VRB02KT 9999 FEW012 16/16 Q1016 NOSIG=
200805150100 LMML NIL=
200805150045 LMML 150045Z VRB02KT 9999 FEW012 16/16 Q1016 NOSIG=
200805150015 METAR LMML 150015Z 28005KT 9999 FEW012 16/16 Q1017 NOSIG=
200805150000 METAR LMML NIL=
200805142345 METAR LMML 142345Z 27004KT 230V310 9999 FEW012 16/16 Q1017
                        NOSIG=
200805142330 METAR LMML NIL=
200805142315 METAR LMML 142315Z 28004KT 240V330 9999 FEW012 16/15 Q1017
                        NOSIG=
200805142245 METAR LMML 142245Z 27005KT 240V300 9999 FEW012 16/16 Q1017
                        NOSIG=
200805142230 METAR LMML NIL=
200805142215 METAR LMML 142215Z 26007KT 220V280 9999 FEW012 16/16 Q1017
                        NOSIG=
200805142200 METAR LMML NIL=
200805142145 METAR LMML 142145Z 24005KT 200V280 9999 FEW012 16/16 Q1017
                        NOSIG=
200805142130 METAR LMML NIL=
200805142115 METAR LMML 142115Z VRB03KT CAVOK 16/15 Q1017 NOSIG=
200805142100 METAR LMML NIL=
200805142045 METAR LMML 142045Z 27006KT 240V310 9999 FEW012 17/16 Q1017
                        NOSIG=
200805142030 METAR LMML NIL=
200805142015 METAR LMML 142015Z 27007KT 240V330 9999 FEW012 17/16 Q1017
                        NOSIG=
200805142000 METAR LMML NIL=
200805141945 METAR LMML 141945Z 28006KT 250V330 9999 FEW012 17/16 Q1017
                        NOSIG=
200805141930 METAR LMML NIL=
200805141915 LMML 141915Z 27007KT 210V320 9999 FEW012 17/16 Q1017 NOSIG=
200805141900 METAR LMML NIL=
200805141845 METAR LMML 141845Z 27009KT 230V300 9999 FEW012 17/15 Q1016
                        NOSIG=
200805141830 METAR LMML NIL=
200805141815 METAR LMML 141815Z 28008KT 9999 FEW020 17/15 Q1016 NOSIG=
200805141800 METAR LMML NIL=
200805141745 METAR LMML 141745Z 28008KT 230V300 9999 FEW020 18/15 Q1016
                        NOSIG=
200805141730 METAR LMML NIL=
200805141715 METAR LMML 141715Z 29009KT 230V320 CAVOK 19/14 Q1015 NOSIG=
200805141700 METAR LMML NIL=
200805141645 METAR LMML 141645Z 29013KT 9999 FEW022 19/14 Q1015 NOSIG=
200805141630 METAR LMML NIL=
200805141615 METAR LMML 141615Z 30012KT 260V320 9999 FEW022 20/14 Q1015
                        NOSIG=
200805141600 METAR LMML NIL=
200805141545 METAR LMML 141545Z 30014KT 9999 FEW022 20/13 Q1015 NOSIG=
200805141530 METAR LMML NIL=
200805141515 METAR LMML 141515Z 30013KT 9999 SCT022 20/14 Q1015 NOSIG=
200805141500 METAR LMML NIL=
200805141445 METAR LMML 141445Z 30014KT 270V330 9999 SCT020 20/13 Q1015
                        NOSIG=
200805141415 METAR LMML 141415Z 31015KT 280V340 9999 SCT020 21/13 Q1015
                        NOSIG=
200805141400 METAR LMML NIL=
200805141345 METAR LMML 141345Z 29015KT 250V310 9999 SCT022 21/13 Q1016
                        NOSIG=
200805141330 METAR LMML NIL=
200805141315 METAR LMML 141315Z 28016KT 240V310 9999 SCT022 20/14 Q1016
                        NOSIG=
200805141300 METAR LMML NIL=
200805141245 METAR LMML 141245Z 30015KT 250V330 9999 SCT022 21/13 Q1016
                        NOSIG=
200805141230 METAR LMML NIL=
200805141215 METAR LMML 141215Z 28015KT 240V310 9999 SCT022 20/14 Q1016
                        NOSIG=
200805141200 METAR LMML NIL=
200805141145 METAR LMML 141145Z 30016KT 260V320 9999 FEW022 21/13 Q1016
                        NOSIG=
200805141130 METAR LMML NIL=
200805141115 METAR LMML 141115Z 29016KT 9999 SCT022 21/13 Q1016 NOSIG=
200805141100 METAR LMML NIL=
200805141045 METAR LMML 141045Z 29014KT 260V330 9999 SCT023 21/13 Q1016
                        NOSIG=
200805141030 METAR LMML NIL=
200805141015 METAR LMML 141015Z 29017KT 9999 SCT023 21/13 Q1016 NOSIG=
200805141000 METAR LMML NIL=
200805140945 METAR LMML 140945Z 29015KT 260V320 9999 SCT022 21/13 Q1016
                        NOSIG=
200805140930 METAR LMML NIL=
200805140915 METAR LMML 140915Z 29015KT 270V330 9999 SCT022 20/13 Q1016
                        NOSIG=
200805140900 METAR LMML NIL=
200805140845 METAR LMML 140845Z 29016KT 260V320 9999 SCT021 20/13 Q1016
                        NOSIG=
200805140830 METAR LMML NIL=
200805140815 METAR LMML 140815Z 29015KT 260V320 9999 SCT020 20/13 Q1016
                        NOSIG=
200805140800 METAR LMML NIL=
200805140745 METAR LMML 140745Z 28013KT 240V320 9999 SCT020 19/14 Q1016
                        NOSIG=
200805140730 METAR LMML NIL=
200805140715 METAR LMML 140715Z 29014KT 9999 SCT019 20/13 Q1016 NOSIG=
200805140645 METAR LMML 140645Z 30014KT 9999 SCT017 19/14 Q1015 NOSIG=
200805140630 METAR LMML NIL=
200805140615 METAR LMML 140615Z 29013KT 250V320 9999 SCT015 18/15 Q1015
                        TEMPO 8000 SHRA=
200805140600 METAR LMML NIL=
200805140545 METAR LMML 140545Z 28012KT 9999 SCT015 SCT080 18/16 Q1015
                        TEMPO 8000 SHRA=
200805140515 METAR LMML 140515Z 30011KT 270V330 9999 FEW015 SCT025 17/16
                        Q1015 NOSIG=
200805140500 METAR LMML NIL=
200805140445 METAR LMML 140445Z 30010KT 260V330 9999 FEW017 SCT050 17/15
                        Q1015 NOSIG=
200805140430 METAR LMML NIL=
200805140415 METAR LMML 140415Z 29008KT 9999 FEW017 SCT037 16/15 Q1014
                        NOSIG=
200805140400 METAR LMML NIL=
200805140345 METAR LMML 140345Z VRB03KT 9999 FEW018 16/15 Q1014 NOSIG=
200805140330 METAR LMML NIL=
200805140315 METAR LMML 140315Z 27004KT 240V300 9999 SCT018 16/15 Q1014
                        NOSIG=
200805140300 METAR LMML NIL=
200805140245 METAR LMML 140245Z 28004KT 250V310 9999 FEW023 16/15 Q1014
                        NOSIG=
200805140230 METAR LMML NIL=
200805140215 METAR LMML 140215Z 29005KT CAVOK 15/15 Q1014 NOSIG=
200805140200 METAR LMML NIL=
200805140145 METAR LMML 140145Z 29004KT CAVOK 15/15 Q1014 NOSIG=
200805140130 METAR LMML NIL=
200805140115 METAR LMML 140115Z 28006KT CAVOK 15/15 Q1014 NOSIG=
200805140100 METAR LMML NIL=
200805140045 METAR LMML 140045Z 27008KT CAVOK 16/15 Q1014 NOSIG=
200805140030 METAR LMML NIL=
200805140015 METAR LMML 140015Z 28006KT CAVOK 16/15 Q1014 NOSIG=
200805140000 METAR LMML NIL=
200805132345 METAR LMML 132345Z 28007KT CAVOK 16/15 Q1014 NOSIG=
200805132330 METAR LMML NIL=
200805132315 METAR LMML 132315Z 28004KT 9999 FEW012 16/15 Q1014 NOSIG=
200805132300 METAR LMML NIL=
200805132245 METAR LMML 132245Z 29004KT 9999 FEW012 16/15 Q1014 NOSIG=
200805132230 METAR LMML NIL=
200805132215 METAR LMML 132215Z 30004KT 9999 FEW012 16/16 Q1014 NOSIG=
200805132145 METAR LMML 132145Z 33005KT 9999 FEW012 16/16 Q1014 NOSIG=
200805132115 METAR LMML 132115Z 34007KT 9999 FEW012 17/16 Q1014 NOSIG=
200805132100 METAR LMML NIL=
200805132045 METAR LMML 132045Z 34006KT 310V010 9999 FEW012 17/16 Q1014
                        NOSIG=
200805132015 METAR LMML 132015Z 34008KT 9999 FEW012 17/16 Q1014 NOSIG=
200805132000 METAR LMML NIL=
200805131945 METAR LMML 131945Z 34010KT 9999 FEW011 17/16 Q1013 NOSIG=
200805131930 METAR LMML NIL=
200805131915 METAR LMML 131915Z 33009KT 9999 FEW012 17/16 Q1013 NOSIG=
200805131900 METAR LMML NIL=
200805131845 METAR LMML 131845Z 32010KT 9999 FEW012 17/16 Q1013 NOSIG=
200805131830 METAR LMML NIL=
200805131815 METAR LMML 131815Z 33011KT 9999 FEW012 17/16 Q1012 NOSIG=
200805131800 METAR LMML NIL=
200805131745 METAR LMML 131745Z 33012KT 9999 FEW015 18/16 Q1012 NOSIG=
200805131730 METAR LMML NIL=
200805131715 METAR LMML 131715Z 33012KT 9999 FEW015 18/16 Q1012 NOSIG=
200805131700 METAR LMML NIL=
200805131645 METAR LMML 131645Z 33011KT 9999 FEW017 19/15 Q1012 NOSIG=
200805131630 METAR LMML NIL=
200805131615 METAR LMML 131615Z 33014KT 9999 FEW020 20/15 Q1011 NOSIG=
200805131600 METAR LMML NIL=
200805131545 METAR LMML 131545Z 33013KT 300V010 9999 FEW022 20/14 Q1011
                        NOSIG=
200805131530 LMML NIL=
200805131515 METAR LMML 131515Z 33012KT 300V010 9999 FEW024 21/14 Q1011
                        NOSIG=
200805131500 METAR LMML NIL=
200805131445 METAR LMML 131445Z 34012KT 9999 FEW024 21/14 Q1011 NOSIG=
200805131430 METAR LMML NIL=
200805131415 METAR LMML 131415Z 34010KT 280V020 9999 SCT024 22/15 Q1010
                        NOSIG=
200805131400 METAR LMML NIL=
200805131345 METAR LMML 131345Z 33010KT 300V360 9999 SCT023 22/14 Q1010
                        NOSIG=
200805131330 METAR LMML NIL=
200805131315 METAR LMML 131315Z 33010KT 290V010 9999 SCT025 22/15 Q1010
                        NOSIG=
200805131300 METAR LMML NIL=
200805131245 METAR LMML 131245Z 35008KT 300V030 9999 FEW022 22/14 Q1010
                        NOSIG=
200805131230 METAR LMML NIL=
200805131215 METAR LMML 131215Z 35005KT 230V070 9999 SCT023 22/14 Q1010
                        NOSIG=
200805131200 METAR LMML NIL=
200805131145 METAR LMML 131145Z 01007KT 320V050 9999 BKN020 22/15 Q1010
                        NOSIG=
200805131130 METAR LMML NIL=
200805131115 METAR LMML 131115Z 36008KT 300V040 9999 BKN019 21/15 Q1011
                        NOSIG=
200805131100 LMML NIL=
200805131045 METAR LMML 131045Z 03008KT 340V070 9999 BKN017 21/16 Q1011
                        NOSIG=
200805131030 METAR LMML NIL=
200805131015 METAR LMML 131015Z 03006KT 290V070 9999 BKN016 21/15 Q1010
                        NOSIG=
200805131000 METAR LMML NIL=
200805130945 METAR LMML 130945Z 36005KT 310V040 9999 BKN017 21/16 Q1010
                        BECMG SCT015=
200805130930 METAR LMML NIL=
200805130915 METAR LMML 130915Z 03007KT 9999 BKN015 20/16 Q1010 BECMG
                        SCT015=
200805130900 METAR LMML NIL=
200805130845 METAR LMML 130845Z 04006KT 350V100 9000 BKN015 20/16 Q1010
                        BECMG SCT015=
200805130830 METAR LMML NIL=
200805130815 METAR LMML 130815Z 06007KT 010V100 9000 BKN015 20/16 Q1010
                        NOSIG=
200805130800 METAR LMML NIL=
200805130745 METAR LMML 130745Z 07008KT 020V110 9000 SCT013 BKN018 20/16
                        Q1010 NOSIG=
200805130730 METAR LMML NIL=
200805130715 METAR LMML 130715Z 08009KT 040V100 6000 SCT010 BKN120 19/16
                        Q1010 BECMG 9000=
200805130700 METAR LMML NIL=
200805130645 METAR LMML 130645Z 06009KT 020V100 6000 SCT010 BKN120 19/16
                        Q1010 BECMG 9000=
200805130630 METAR LMML NIL=
200805130615 METAR LMML 130615Z 08009KT 040V110 6000 SCT007 BKN120 18/17
                        Q1010 BECMG 9000=
200805130600 METAR LMML NIL=
200805130545 METAR LMML 130545Z 07008KT 040V100 6000 SCT007 SCT017 BKN120
                        18/17 Q1010 TEMPO 5000 BR BKN007=
200805130530 METAR LMML NIL=
200805130515 METAR LMML 130515Z 06006KT 030V100 6000 FEW007 SCT040 BKN120
                        17/17 Q1010 TEMPO 5000 BR BKN007=
200805130500 METAR LMML NIL=
200805130445 METAR LMML 130445Z 07007KT 040V100 7000 FEW007 SCT016 BKN120
                        17/17 Q1010 TEMPO 5000 BR BKN007=
200805130430 METAR LMML NIL=
200805130415 METAR LMML 130415Z 07005KT 7000 FEW007 BKN016 17/17 Q1010
                        TEMPO BKN007=
200805130400 METAR LMML NIL=
200805130345 METAR LMML 130345Z 08005KT 040V100 7000 FEW007 BKN016 17/17
                        Q1010 TEMPO BKN007=
200805130315 METAR LMML 130315Z 07005KT 030V100 8000 FEW008 SCT015 BKN032
                        17/17 Q1010 TEMPO BKN007=
200805130300 METAR LMML NIL=
200805130245 METAR LMML 130245Z 08006KT 050V110 8000 SCT008 SCT027 BKN033
                        17/17 Q1010 TEMPO BKN007=
200805130230 METAR LMML NIL=
200805130215 METAR LMML 130215Z 09007KT 060V120 8000 SCT008 BKN015 BKN027
                        17/17 Q1010 TEMPO BKN007=
200805130200 METAR LMML NIL=
200805130145 METAR LMML 130145Z 09006KT 050V130 8000 SCT008 BKN015 BKN024
                        17/17 Q1011 TEMPO BKN007=
200805130130 METAR LMML NIL=
200805130115 METAR LMML 130115Z 10007KT 8000 FEW008 BKN016 BKN025 17/17
                        Q1010 TEMPO BKN007=
200805130100 METAR LMML NIL=
200805130045 METAR LMML 130045Z 09007KT 8000 FEW008 SCT017 BKN026 17/17
                        Q1011 TEMPO BKN007=
200805130030 METAR LMML NIL=
200805130015 METAR LMML 130015Z 09006KT 050V120 8000 FEW009 BKN014 BKN027
                        17/17 Q1011 TEMPO BKN007=
200805130000 METAR LMML NIL=
200805122345 METAR LMML 122345Z 10007KT 070V130 8000 BKN011 BKN016 17/17
                        Q1012 TEMPO BKN007=
200805122330 METAR LMML NIL=
200805122315 METAR LMML 122315Z 11008KT 8000 BKN011 BKN016 17/17 Q1012
                        TEMPO BKN007=
200805122300 METAR LMML NIL=
200805122245 METAR LMML 122245Z 11009KT 080V140 8000 BKN010 BKN015 17/17
                        Q1012 TEMPO BKN007=
200805122230 METAR LMML NIL=
200805122215 METAR LMML 122215Z 10010KT 070V130 8000 BKN010 BKN017 17/17
                        Q1012 TEMPO BKN008=
200805122200 METAR LMML NIL=
200805122145 METAR LMML 122145Z 10011KT 070V130 8000 BKN010 SCT016 17/17
                        Q1012 TEMPO BKN008=
200805122130 METAR LMML NIL=
200805122115 METAR LMML 122115Z 10012KT 060V120 8000 BKN010 17/17 Q1012
                        TEMPO BKN008=
200805122100 METAR LMML NIL=
200805122045 METAR LMML 122045Z 09012KT 050V120 8000 BKN010 17/16 Q1012
                        TEMPO BKN008=
200805122030 METAR LMML NIL=
200805122015 METAR LMML 122015Z 09016KT 8000 BKN010 17/17 Q1011 TEMPO
                        BKN008=
200805122000 METAR LMML NIL=
200805121945 METAR LMML 121945Z 08015KT 050V110 8000 BKN010 BKN014 17/16
                        Q1010 TEMPO BKN008=
200805121930 METAR LMML NIL=
200805121915 METAR LMML 121915Z 08017KT 8000 BKN013 BKN015 17/16 Q1010
                        TEMPO BKN008=
200805121900 METAR LMML NIL=
200805121845 METAR LMML 121845Z 08015KT 050V110 8000 BKN014 BKN015 17/16
                        Q1011 TEMPO BKN008=
200805121830 METAR LMML NIL=
200805121815 METAR LMML 121815Z 09012KT 060V120 8000 BKN011 17/16 Q1011
                        TEMPO BKN008=
200805121800 METAR LMML NIL=
200805121745 METAR LMML 121745Z 08014KT 060V120 8000 BKN010 SCT018 18/16
                        Q1011 TEMPO BKN008=
200805121730 METAR LMML NIL=
200805121715 METAR LMML 121715Z 09015KT 050V120 9000 BKN010 BKN250 18/16
                        Q1011 TEMPO 8000 BKN010=
200805121700 METAR LMML NIL=
200805121645 METAR LMML 121645Z 09015KT 060V120 9000 BKN010 BKN020 18/16
                        Q1011 TEMPO 8000 BKN010=
200805121630 METAR LMML NIL=
200805121615 METAR LMML 121615Z 09016KT 060V120 9000 BKN009 BKN015 18/17
                        Q1011 TEMPO 8000 BKN010=
200805121600 METAR LMML NIL=
200805121545 METAR LMML 121545Z 08017KT 7000 BKN009 BKN023 18/16 Q1011
                        TEMPO 8000 SCT010=
200805121530 METAR LMML NIL=
200805121515 METAR LMML 121515Z 08016KT 050V110 7000 BKN009 BKN024 18/17
                        Q1011 TEMPO 8000 SCT010=
200805121500 METAR LMML NIL=
200805121445 METAR LMML 121445Z 09017KT 050V110 7000 BKN009 BKN026 19/17
                        Q1011 TEMPO 8000 SCT010=
200805121430 METAR LMML NIL=
200805121415 METAR LMML 121415Z 08017KT 050V110 7000 BKN009 BKN026 19/17
                        Q1012 TEMPO 8000 SCT010=
200805121400 METAR LMML NIL=
200805121345 METAR LMML 121345Z 08015KT 050V110 7000 BKN010 BKN026 19/17
                        Q1012 TEMPO 8000 SCT010=
200805121330 METAR LMML NIL=
200805121315 METAR LMML 121315Z 09015KT 060V130 8000 BKN010 BKN026 19/17
                        Q1012 TEMPO 8000 SCT010=
200805121300 METAR LMML NIL=
200805121245 METAR LMML 121245Z 09015KT 050V130 8000 BKN010 BKN027 19/16
                        Q1012 TEMPO 8000 SCT010=
200805121230 METAR LMML NIL=
200805121215 METAR LMML 121215Z 09015KT 8000 BKN009 BKN026 19/17 Q1012
                        TEMPO 8000 SCT010=
200805121200 METAR LMML NIL=
200805121145 METAR LMML 121145Z 10015KT 060V120 8000 BKN009 BKN028 19/17
                        Q1012 TEMPO 8000 RA SCT010=
200805121130 METAR LMML NIL=
200805121115 METAR LMML 121115Z 09016KT 060V120 8000 -RA BKN009 BKN028
                        19/17 Q1012 TEMPO 8000 RA SCT010=
200805121100 METAR LMML NIL=
200805121045 METAR LMML 121045Z 09017KT 060V120 8000 BKN009 BKN028 19/17
                        Q1012 TEMPO 8000 RA SCT010=
200805121030 METAR LMML NIL=
200805121015 METAR LMML 121015Z 09016KT 060V120 8000 BKN009 BKN029 20/17
                        Q1013 TEMPO 8000 RA SCT010=
200805121000 METAR LMML NIL=
200805120945 METAR LMML 120945Z 10015KT 070V130 9000 SCT010 BKN029 19/16
                        Q1013 TEMPO 8000 RA FEW010=
200805120915 METAR LMML 120915Z 10015KT 7000 SCT010 BKN027 BKN120 19/16
                        Q1013 TEMPO 8000 RA FEW010=
200805120900 METAR LMML NIL=
200805120845 METAR LMML 120845Z 08015KT 050V110 7000 -RA FEW012 BKN027
                        18/17 Q1013 TEMPO 8000 RA FEW010=
200805120830 METAR LMML NIL=
200805120815 METAR LMML 120815Z 09014KT 070V130 9000 FEW013 BKN027 SCT120
                        18/16 Q1013 TEMPO 8000 RA FEW010=
200805120745 METAR LMML 120745Z 08013KT 060V130 9000 FEW012 BKN027 BKN120
                        18/16 Q1013 TEMPO 8000 RA FEW010=
200805120730 METAR LMML NIL=
200805120715 METAR LMML 120715Z 08012KT 050V110 7000 FEW010 BKN027 BKN130
                        18/16 Q1013 TEMPO 8000 SCT012=
200805120700 METAR LMML NIL=
200805120645 METAR LMML 120645Z 09015KT 060V120 6000 -RA FEW010 BKN023
                        BKN130 18/17 Q1013 TEMPO 8000 SCT012=
200805120630 METAR LMML NIL=
200805120615 METAR LMML 120615Z 08009KT 060V120 7000 FEW009 BKN024 BKN130
                        17/17 Q1014 TEMPO 8000 SCT012=
200805120600 METAR LMML NIL=
200805120545 METAR LMML 120545Z 07009KT 040V100 6000 SCT009 BKN017 BKN130
                        17/17 Q1013 TEMPO 8000 SCT012=
200805120530 METAR LMML NIL=
200805120515 METAR LMML 120515Z 08007KT 050V110 6000 FEW009 BKN018 BKN130
                        17/17 Q1014 TEMPO 9999 SCT012=
200805120500 METAR LMML NIL=
200805120445 METAR LMML 120445Z 09012KT 7000 -RA FEW010 BKN027 17/17 Q1013
                        TEMPO 9999 SCT012=
200805120430 METAR LMML NIL=
200805120415 METAR LMML 120415Z 10004KT 040V160 9000 BKN013 BKN027 17/16
                        Q1014 TEMPO SCT012=
200805120400 LMML NIL=
200805120345 LMML 120345Z 09009KT 040V120 9000 BKN012 SCT130 17/16 Q1013
                        TEMPO SCT012=
200805120330 METAR LMML NIL=
200805120315 METAR LMML 120315Z 09009KT 050V130 9000 FEW013 BKN026 BKN130
                        17/16 Q1012 NOSIG=
200805120300 METAR LMML NIL=
200805120245 METAR LMML 120245Z 09011KT 050V120 9000 -RA BKN013 BKN130
                        17/16 Q1012 TEMPO SCT013=
200805120230 METAR LMML NIL=
200805120215 METAR LMML 120215Z 09011KT 050V110 9000 BKN011 SCT120 17/16
                        Q1013 NOSIG=
200805120200 METAR LMML NIL=
200805120145 METAR LMML 120145Z 08012KT 9000 BKN011 SCT250 17/16 Q1012
                        NOSIG=
200805120130 METAR LMML NIL=
200805120115 METAR LMML 120115Z 08012KT 050V110 9000 BKN010 BKN250 17/16
                        Q1012 NOSIG=
200805120100 METAR LMML NIL=
200805120045 METAR LMML 120045Z 08013KT 050V110 9000 BKN010 SCT120 BKN250
                        17/16 Q1013 NOSIG=
200805120030 METAR LMML NIL=
200805120015 METAR LMML 120015Z 09012KT 9000 BKN010 SCT120 BKN250 17/16
                        Q1013 NOSIG=
200805120000 METAR LMML NIL=
200805112345 METAR LMML 112345Z 09012KT 060V130 9000 BKN011 SCT120 BKN250
                        17/16 Q1013 NOSIG=
200805112330 METAR LMML NIL=
200805112315 METAR LMML 112315Z 09012KT 9000 BKN011 SCT120 BKN250 17/16
                        Q1013 NOSIG=
200805112300 METAR LMML NIL=
200805112245 METAR LMML 112245Z 08011KT 030V110 9000 BKN012 BKN250 17/16
                        Q1014 NOSIG=
200805112230 METAR LMML NIL=
200805112215 METAR LMML 112215Z 09012KT 060V120 9000 BKN013 BKN250 17/16
                        Q1014 NOSIG=
200805112200 METAR LMML NIL=
200805112145 METAR LMML 112145Z 08010KT 050V110 9000 BKN012 BKN250 17/16
                        Q1014 NOSIG=
200805112130 METAR LMML NIL=
200805112115 METAR LMML 112115Z 08012KT 050V110 9000 BKN012 BKN250 17/16
                        Q1014 NOSIG=
200805112100 METAR LMML NIL=
200805112045 METAR LMML 112045Z 08011KT 040V100 9000 BKN012 BKN250 17/16
                        Q1015 TEMPO 9000 BKN010=
200805112030 METAR LMML NIL=
200805112015 METAR LMML 112015Z 07010KT 040V110 9000 BKN012 SCT250 17/16
                        Q1015 TEMPO 9000 BKN010=
200805112000 METAR LMML NIL=
200805111945 METAR LMML 111945Z 07009KT 040V100 9000 BKN012 SCT250 17/16
                        Q1015 TEMPO BKN010=
200805111930 METAR LMML NIL=
200805111915 METAR LMML 111915Z 07011KT 040V100 9999 BKN012 BKN250 17/16
                        Q1015 TEMPO 9000 BKN010=
200805111900 METAR LMML NIL=
200805111845 METAR LMML 111845Z 07012KT 030V100 9999 BKN011 BKN250 17/16
                        Q1014 TEMPO BKN010=
200805111830 METAR LMML NIL=
200805111815 METAR LMML 111815Z 07013KT 040V100 9999 FEW011 BKN250 17/16
                        Q1013 NOSIG=
200805111800 METAR LMML NIL=
200805111745 METAR LMML 111745Z 07012KT 030V090 9999 FEW014 SCT120 BKN250
                        17/16 Q1013 NOSIG=
200805111715 METAR LMML 111715Z 06011KT 030V090 9999 FEW015 SCT120 BKN250
                        18/15 Q1014 NOSIG=
200805111700 METAR LMML NIL=
200805111645 METAR LMML 111645Z 07012KT 030V110 9999 FEW015 BKN026 BKN250
                        18/15 Q1014 NOSIG=
200805111630 METAR LMML NIL=
200805111615 METAR LMML 111615Z 07015KT 040V100 9999 FEW012 BKN022 BKN250
                        18/15 Q1014 NOSIG=
200805111600 METAR LMML NIL=
200805111545 METAR LMML 111545Z 08013KT 050V110 9999 FEW013 BKN019 OVC250
                        18/15 Q1014 NOSIG=
200805111530 METAR LMML NIL=
200805111515 METAR LMML 111515Z 07015KT 040V100 8000 BKN010 BKN250 18/16
                        Q1014 NOSIG=
200805111500 METAR LMML NIL=
200805111445 METAR LMML 111445Z 07013KT 030V100 8000 BKN011 SCT017 BKN250
                        19/16 Q1014 NOSIG=
200805111430 METAR LMML NIL=
200805111415 METAR LMML 111415Z 09016KT 060V120 9000 SCT013 BKN250 19/16
                        Q1013 NOSIG=
200805111400 METAR LMML NIL=
200805111345 METAR LMML 111345Z 08016KT 050V110 9000 SCT013 SCT045 BKN250
                        20/15 Q1013 NOSIG=
200805111330 METAR LMML NIL=
200805111315 METAR LMML 111315Z 08015KT 050V110 9000 FEW013 SCT250 20/16
                        Q1013 NOSIG=
200805111300 METAR LMML NIL=
200805111245 METAR LMML 111245Z 06016KT 030V100 9000 SCT013 SCT250 20/16
                        Q1013 NOSIG=
200805111230 METAR LMML NIL=
200805111215 METAR LMML 111215Z 07013KT 030V100 9000 SCT014 BKN046 20/16
                        Q1014 NOSIG=
200805111200 METAR LMML NIL=
200805111145 METAR LMML 111145Z 07012KT 040V120 9000 SCT013 BKN045 20/16
                        Q1014 NOSIG=
200805111130 METAR LMML NIL=
200805111115 METAR LMML 111115Z 07011KT 030V110 9000 BKN012 OVC250 20/17
                        Q1014 NOSIG=
200805111100 METAR LMML NIL=
200805111045 METAR LMML 111045Z 07011KT 040V100 9000 BKN010 OVC250 19/17
                        Q1014 NOSIG=
200805111030 METAR LMML NIL=
200805111015 METAR LMML 111015Z 07012KT 030V110 9000 BKN010 OVC250 19/17
                        Q1014 BECMG BKN012=
200805110945 METAR LMML 110945Z 05012KT 020V090 9000 BKN011 OVC250 19/17
                        Q1013 BECMG BKN012=
200805110930 METAR LMML NIL=
200805110915 METAR LMML 110915Z 05012KT 020V080 9000 BKN011 OVC250 18/17
                        Q1013 BECMG BKN012=
200805110900 METAR LMML NIL=
200805110845 METAR LMML 110845Z 05011KT 010V080 9000 BKN011 18/17 Q1013
                        BECMG BKN012=
200805110830 METAR LMML NIL=
200805110815 METAR LMML 110815Z 05011KT 010V090 9000 BKN011 BKN250 18/17
                        Q1013 BECMG BKN012=
200805110800 METAR LMML NIL=
200805110745 METAR LMML 110745Z 06013KT 020V100 8000 BKN009 BKN020 BKN250
                        18/17 Q1012 BECMG 9000=
200805110730 METAR LMML NIL=
200805110715 METAR LMML 110715Z 06012KT 020V090 8000 BKN008 OVC012 18/18
                        Q1012 BECMG 9000=
200805110700 METAR LMML NIL=
200805110645 METAR LMML 110645Z 05012KT 020V080 7000 BKN007 OVC015 17/17
                        Q1012 BECMG 8000 BKN007=
200805110630 METAR LMML NIL=
200805110615 METAR LMML 110615Z 05013KT 010V090 7000 BKN006 OVC012 17/17
                        Q1012 BECMG 8000 BKN007=
200805110600 METAR LMML NIL=
200805110545 METAR LMML 110545Z 05013KT 020V080 6000 BKN006 OVC012 17/17
                        Q1012 BECMG 8000 BKN007=
200805110530 METAR LMML NIL=
200805110515 METAR LMML 110515Z 04011KT 010V070 5000 BR BKN005 OVC012
                        17/17 Q1012 BECMG 6000 BKN007=
200805110500 METAR LMML NIL=
200805110445 METAR LMML 110445Z 04013KT 010V070 3000 BKN005 17/16 Q1011
                        BECMG 6000 BKN007=
200805110430 METAR LMML NIL=
200805110415 METAR LMML 110415Z 03013KT 360V060 3000 -RA OVC004 17/17
                        Q1011 BECMG 6000 BKN007=
200805110400 METAR LMML NIL=
200805110345 METAR LMML 110345Z 02009KT 360V060 3000 BKN005 17/17 Q1011
                        NOSIG=
200805110330 METAR LMML NIL=
200805110315 METAR LMML 110315Z 03012KT 360V060 3000 -RA OVC003 17/17
                        Q1011 NOSIG=
200805110300 METAR LMML NIL=
200805110245 METAR LMML 110245Z 03014KT 5000 BKN005 BKN012 17/17 Q1011
                        NOSIG=
200805110230 METAR LMML NIL=
200805110215 METAR LMML 110215Z 03012KT 5000 BKN006 BKN012 17/17 Q1011
                        NOSIG=
200805110200 METAR LMML NIL=
200805110145 METAR LMML 110145Z 03013G23KT 360V060 5000 BKN006 BKN012
                        17/17 Q1011 NOSIG=
200805110130 METAR LMML NIL=
200805110115 METAR LMML 110115Z 03013KT 360V060 5000 BKN006 17/17 Q1011
                        NOSIG=
200805110100 METAR LMML NIL=
200805110045 METAR LMML 110045Z 02012KT 5000 BKN005 SCT040 17/17 Q1010
                        NOSIG=
200805110030 METAR LMML NIL=
200805110015 METAR LMML 110015Z 02011KT 350V050 5000 BKN005 SCT011 17/17
                        Q1010 NOSIG=
200805110000 METAR LMML NIL=
200805102345 METAR LMML 102345Z 03012KT 360V060 5000 BKN005 17/17 Q1010
                        NOSIG=
200805102330 METAR LMML NIL=
200805102315 METAR LMML 102315Z 02011KT 5000 BKN005 17/17 Q1010 BECMG
                        7000 BKN008=
200805102300 METAR LMML NIL=
200805102245 METAR LMML 102245Z 02014G26KT 5000 BKN005 17/17 Q1010 BECMG
                        7000 BKN008=
200805102230 METAR LMML NIL=
200805102215 METAR LMML 102215Z 01014KT 5000 OVC005 17/17 Q1010 BECMG
                        7000 BKN008=
200805102200 METAR LMML NIL=
200805102145 METAR LMML 102145Z 03015G27KT 360V060 5000 BKN005 SCT039
                        16/16 Q1009 BECMG 7000 BKN008=
200805102130 METAR LMML NIL=
200805102115 METAR LMML 102115Z 04020G31KT 360V070 5000 BKN005 SCT038
                        16/16 Q1009 BECMG 7000 BKN008=
200805102100 METAR LMML NIL=
200805102045 METAR LMML 102045Z 02015G29KT 2000 OVC004 16/16 Q1009 BECMG
                        BKN006=
200805102030 METAR LMML NIL=
200805102015 METAR LMML 102015Z 01015G25KT 2000 OVC004 16/16 Q1009 TEMPO
                        6000 BKN006=
200805102000 METAR LMML NIL=
200805101945 METAR LMML 101945Z 02014G25KT 2000 -RA OVC003 17/17 Q1008
                        NOSIG=
200805101930 METAR LMML NIL=
200805101915 METAR LMML 101915Z 03021KT 010V070 2000 -RA BKN003 16/16
                        Q1007 NOSIG=
200805101900 METAR LMML NIL=
200805101845 METAR LMML 101845Z 01018G28KT 2000 -RA OVC003 16/16 Q1008
                        NOSIG=
200805101830 METAR LMML NIL=
200805101815 METAR LMML 101815Z 02015G29KT 350V050 2000 -RA OVC004 17/17
                        Q1007 NOSIG=
200805101800 METAR LMML NIL=
200805101745 METAR LMML 101745Z 02014G26KT 2000 -RA OVC004 17/17 Q1006
                        NOSIG=
200805101730 METAR LMML NIL=
200805101715 METAR LMML 101715Z 02010KT 350V110 4000 -RA OVC008 18/18
                        Q1005 NOSIG=
200805101700 METAR LMML NIL=
200805101645 METAR LMML 101645Z 04012KT 010V070 7000 -RA BKN009 18/17
                        Q1005 NOSIG=
200805101630 METAR LMML NIL=
200805101615 METAR LMML 101615Z 04014KT 010V080 7000 BKN010 18/17 Q1004
                        NOSIG=
200805101600 METAR LMML NIL=
200805101545 METAR LMML 101545Z 04015G25KT 360V080 7000 BKN010 18/17 Q1004
                        NOSIG=
200805101530 METAR LMML NIL=
200805101515 METAR LMML 101515Z 06016KT 010V090 7000 BKN010 19/16 Q1004
                        NOSIG=
200805101500 METAR LMML NIL=
200805101445 METAR LMML 101445Z 05013KT 360V080 7000 BKN011 19/17 Q1004
                        BECMG BKN009=
200805101430 METAR LMML NIL=
200805101415 METAR LMML 101415Z 06015KT 030V100 8000 BKN012 19/16 Q1004
                        BECMG BKN009=
200805101400 METAR LMML NIL=
200805101345 METAR LMML 101345Z 07015KT 040V120 9000 BKN011 19/16 Q1004
                        BECMG BKN009=
200805101330 METAR LMML NIL=
200805101315 METAR LMML 101315Z 08015KT 050V120 9000 BKN013 19/16 Q1005
                        NOSIG=
200805101300 METAR LMML NIL=
200805101245 METAR LMML 101245Z 09017KT 9000 BKN015 19/16 Q1004 NOSIG=
200805101230 METAR LMML NIL=
200805101215 METAR LMML 101215Z 09020KT 050V120 9000 BKN015 20/15 Q1004
                        NOSIG=
200805101200 METAR LMML NIL=
200805101200 LMML 101200Z 09021KT 9999 BKN015 20/16 Q1004 NOSIG=
200805101145 METAR LMML 101145Z 09020G30KT 040V120 9999 SCT016 21/15 Q1004
                        NOSIG=
200805101130 METAR LMML NIL=
200805101115 METAR LMML 101115Z 09021G31KT 050V120 9999 FEW017 21/15 Q1004
                        NOSIG=
200805101100 METAR LMML NIL=
200805101045 METAR LMML 101045Z 09023KT 060V120 9999 FEW026 21/15 Q1005
                        NOSIG=
200805101030 METAR LMML NIL=
200805101015 METAR LMML 101015Z 09023KT 060V120 9999 FEW026 20/15 Q1005
                        NOSIG=
200805101000 METAR LMML NIL=
200805100930 METAR LMML NIL=
200805100915 METAR LMML 100915Z 09023KT 050V120 9999 FEW020 20/15 Q1005
                        NOSIG=
200805100900 METAR LMML NIL=
200805100845 METAR LMML 100845Z 09021KT 050V120 9999 FEW020 20/14 Q1006
                        NOSIG=
200805100815 METAR LMML 100815Z 09022KT 060V120 9999 FEW020 19/14 Q1005
                        NOSIG=
200805100800 METAR LMML NIL=
200805100745 METAR LMML 100745Z 09022KT 060V120 CAVOK 19/14 Q1005 NOSIG=
200805100730 METAR LMML NIL=
200805100715 METAR LMML 100715Z 09023KT 060V130 CAVOK 19/14 Q1006 NOSIG=
200805100645 METAR LMML 100645Z 09022KT CAVOK 19/14 Q1006 NOSIG=
200805100630 METAR LMML NIL=
200805100615 METAR LMML 100615Z 09020KT CAVOK 18/14 Q1006 NOSIG=
200805100600 METAR LMML NIL=
200805100545 METAR LMML 100545Z 09021KT 060V120 CAVOK 18/14 Q1006 NOSIG=
200805100530 METAR LMML NIL=
200805100515 METAR LMML 100515Z 09019G30KT 060V130 CAVOK 18/14 Q1007 NOSIG=
200805100500 METAR LMML NIL=
200805100445 METAR LMML 100445Z 09019G29KT 050V120 CAVOK 17/14 Q1006 NOSIG=
200805100430 METAR LMML NIL=
200805100415 METAR LMML 100415Z 09023G33KT 050V110 CAVOK 17/14 Q1006 NOSIG=
200805100400 METAR LMML NIL=
200805100345 METAR LMML 100345Z 08020KT 9999 FEW015 SCT120 17/14 Q1006
                        NOSIG=
200805100315 METAR LMML 100315Z 09022G32KT 9999 FEW016 SCT120 17/14 Q1006
                        NOSIG=
200805100300 METAR LMML NIL=
200805100245 METAR LMML 100245Z 08020G33KT 9999 FEW016 SCT250 17/14 Q1007
                        NOSIG=
200805100230 METAR LMML NIL=
200805100215 METAR LMML 100215Z 09020G33KT 060V120 9999 FEW016 SCT250
                        17/14 Q1007 NOSIG=
200805100200 METAR LMML NIL=
200805100145 METAR LMML 100145Z 09020KT 060V120 9999 FEW016 SCT250 17/14
                        Q1007 NOSIG=
200805100130 METAR LMML NIL=
200805100115 METAR LMML 100115Z 09020G31KT 060V120 9999 FEW015 SCT250
                        17/15 Q1008 NOSIG=
200805100100 METAR LMML NIL=
200805100045 METAR LMML 100045Z 09019KT 060V120 9999 FEW014 SCT250 17/14
                        Q1008 NOSIG=
200805100030 METAR LMML NIL=
200805100015 METAR LMML 100015Z 09022KT 9999 FEW014 SCT250 17/15 Q1008
                        NOSIG=
200805100000 METAR LMML NIL=
200805092345 METAR LMML 092345Z 09018KT 060V120 9999 FEW014 SCT250 17/15
                        Q1009 NOSIG=
200805092330 METAR LMML NIL=
200805092315 METAR LMML 092315Z 09019KT 060V120 9999 FEW014 SCT250 17/15
                        Q1009 NOSIG=
200805092300 METAR LMML NIL=
200805092245 METAR LMML 092245Z 09019KT 070V130 9999 FEW014 SCT130 17/15
                        Q1009 NOSIG=
200805092230 METAR LMML NIL=
200805092215 METAR LMML 092215Z 09021KT 060V120 9999 FEW013 SCT130 17/15
                        Q1009 NOSIG=
200805092200 METAR LMML NIL=
200805092145 METAR LMML 092145Z 09019G29KT 9999 SCT013 SCT130 BKN250 17/15
                        Q1009 NOSIG=
200805092130 METAR LMML NIL=
200805092115 METAR LMML 092115Z 09019KT 9999 BKN012 SCT250 17/16 Q1010
                        NOSIG=
200805092100 METAR LMML NIL=
200805092045 METAR LMML 092045Z 10019KT 060V120 9999 BKN012 SCT018 17/16
                        Q1010 NOSIG=
200805092030 METAR LMML NIL=
200805092015 METAR LMML 092015Z 10018KT 9999 BKN013 SCT018 17/16 Q1010
                        NOSIG=
200805092000 METAR LMML NIL=
200805091945 METAR LMML 091945Z 10017KT 9999 BKN013 SCT018 17/15 Q1011
                        NOSIG=
200805091930 METAR LMML NIL=
200805091915 METAR LMML 091915Z 10016KT 9999 BKN012 BKN018 17/16 Q1011
                        NOSIG=
200805091900 METAR LMML NIL=
200805091845 METAR LMML 091845Z 10017KT 070V130 9999 BKN012 BKN020 17/16
                        Q1011 NOSIG=
200805091830 METAR LMML NIL=
200805091815 METAR LMML 091815Z 09016KT 060V120 9999 BKN013 SCT120 17/15
                        Q1011 NOSIG=
200805091800 METAR LMML NIL=
200805091745 METAR LMML 091745Z 10015KT 060V130 9999 BKN013 SCT120 18/15
                        Q1011 NOSIG=
200805091730 METAR LMML NIL=
200805091715 METAR LMML 091715Z 10015KT 060V120 9999 BKN014 SCT120 18/15
                        Q1011 NOSIG=
200805091700 METAR LMML NIL=
200805091645 METAR LMML 091645Z 10018KT 9999 BKN013 BKN250 18/15 Q1011
                        NOSIG=
200805091630 METAR LMML NIL=
200805091615 METAR LMML 091615Z 11019KT 9999 BKN014 BKN250 18/15 Q1011
                        NOSIG=
200805091600 METAR LMML NIL=
200805091545 METAR LMML 091545Z 10020KT 9999 BKN014 BKN250 19/15 Q1011
                        NOSIG=
200805091530 METAR LMML NIL=
200805091515 LMML 091515Z 11019KT 070V140 9999 BKN014 BKN250 19/15 Q1011
                        NOSIG=
200805091500 METAR LMML NIL=
200805091445 METAR LMML 091445Z 10020KT 070V130 9999 BKN013 SCT120 19/15
                        Q1011 NOSIG=
200805091430 METAR LMML NIL=
200805091415 METAR LMML 091415Z 10018KT 9999 BKN012 BKN250 19/15 Q1011
                        NOSIG=
200805091400 METAR LMML NIL=
200805091345 METAR LMML 091345Z 10019KT 060V130 9999 BKN013 BKN250 20/15
                        Q1011 NOSIG=
200805091330 METAR LMML NIL=
200805091315 METAR LMML 091315Z 10018KT 070V130 9999 SCT015 BKN250 20/15
                        Q1011 NOSIG=
200805091300 METAR LMML NIL=
200805091245 METAR LMML 091245Z 10019KT 050V130 9999 SCT017 BKN250 19/14
                        Q1012 NOSIG=
200805091230 METAR LMML NIL=
200805091215 METAR LMML 091215Z 11019KT 070V130 9999 SCT015 SCT120 BKN250
                        20/14 Q1012 NOSIG=
200805091200 METAR LMML NIL=
200805091145 METAR LMML 091145Z 11016KT 080V140 9999 SCT017 BKN120 19/15
                        Q1012 NOSIG=
200805091130 METAR LMML NIL=
200805091115 METAR LMML 091115Z 11018KT 9999 -RA FEW018 BKN120 18/15 Q1013
                        NOSIG=
200805091100 METAR LMML NIL=
200805091045 METAR LMML 091045Z 11014KT 9999 -RA SCT016 BKN120 18/16 Q1014
                        NOSIG=
200805091030 METAR LMML NIL=
200805091015 METAR LMML 091015Z 11016KT 9999 SCT016 BKN120 18/15 Q1013
                        NOSIG=
200805091000 METAR LMML NIL=
200805090945 METAR LMML 090945Z 11017KT 9999 SCT017 BKN120 18/15 Q1013
                        RETS NOSIG=
200805090930 METAR LMML NIL=
200805090915 METAR LMML 090915Z 12016KT 9999 SCT016 BKN100 18/16 Q1013
                        RETS NOSIG=
200805090900 METAR LMML NIL=
200805090845 METAR LMML 090845Z 10015KT 070V140 9999 -TSRA FEW017 BKN040CB
                        BKN120 17/15 Q1013 NOSIG=
200805090830 METAR LMML NIL=
200805090815 METAR LMML 090815Z 12020KT 9999 FEW019 BKN120 BKN250 18/14
                        Q1011 NOSIG=
200805090800 METAR LMML NIL=
200805090745 METAR LMML 090745Z 11015G27KT 070V140 9999 FEW018 BKN120
                        BKN250 18/13 Q1013 NOSIG=
200805090730 METAR LMML NIL=
200805090715 METAR LMML 090715Z 11018KT 9999 FEW020 BKN120 BKN250 18/13
                        Q1013 NOSIG=
200805090700 METAR LMML NIL=
200805090645 METAR LMML 090645Z 12016KT 090V150 9999 FEW015 BKN120 BKN250
                        19/13 Q1014 NOSIG=
200805090630 METAR LMML NIL=
200805090615 METAR LMML 090615Z 11016KT 070V150 CAVOK 18/12 Q1013 NOSIG=
200805090600 METAR LMML NIL=
200805090545 METAR LMML 090545Z 10015KT CAVOK 17/13 Q1013 NOSIG=
200805090530 METAR LMML NIL=
200805090515 METAR LMML 090515Z 11013KT CAVOK 17/12 Q1014 NOSIG=
200805090500 METAR LMML NIL=
200805090445 METAR LMML 090445Z 10012KT 9999 FEW017 SCT120 17/13 Q1014
                        NOSIG=
200805090430 METAR LMML NIL=
200805090415 METAR LMML 090415Z 11012KT 9999 FEW017 SCT120 BKN250 16/13
                        Q1014 NOSIG=
200805090400 METAR LMML NIL=
200805090345 METAR LMML 090345Z 12011KT 9999 FEW017 BKN250 16/14 Q1014
                        NOSIG=
200805090330 METAR LMML NIL=
200805090315 METAR LMML 090315Z 12009KT 9999 FEW017 BKN250 16/14 Q1014
                        NOSIG=
200805090300 METAR LMML NIL=
200805090245 METAR LMML 090245Z 11010KT 9999 FEW018 BKN250 16/13 Q1014
                        NOSIG=
200805090230 METAR LMML NIL=
200805090215 METAR LMML 090215Z 12010KT 9999 FEW018 BKN250 16/14 Q1015
                        NOSIG=
200805090200 METAR LMML NIL=
200805090145 METAR LMML 090145Z 11010KT 9999 FEW018 BKN250 16/14 Q1015
                        NOSIG=
200805090130 METAR LMML NIL=
200805090115 METAR LMML 090115Z 11009KT 9999 FEW018 BKN250 16/14 Q1015
                        NOSIG=
200805090045 METAR LMML 090045Z 12008KT 9999 FEW017 BKN250 16/14 Q1015
                        NOSIG=
200805090030 METAR LMML NIL=
200805090015 METAR LMML 090015Z 12010KT 9999 FEW016 BKN250 16/14 Q1015
                        NOSIG=
200805090000 METAR LMML NIL=
200805082345 METAR LMML 082345Z 11011KT 9999 FEW015 SCT120 BKN250 17/14
                        Q1015 NOSIG=
200805082330 METAR LMML NIL=
200805082315 METAR LMML 082315Z 10011KT 9999 FEW016 BKN120 BKN250 17/14
                        Q1015 NOSIG=
200805082245 METAR LMML 082245Z 11009KT 070V160 9999 FEW016 BKN120 BKN250
                        17/14 Q1016 NOSIG=
200805082230 METAR LMML NIL=
200805082215 METAR LMML 082215Z 11009KT 9999 FEW017 BKN120 BKN250 17/14
                        Q1016 NOSIG=
200805082200 METAR LMML NIL=
200805082145 METAR LMML 082145Z 11010KT 9999 FEW018 SCT120 BKN250 17/13
                        Q1016 NOSIG=
200805082115 METAR LMML 082115Z 11009KT 9999 FEW019 SCT120 BKN250 17/13
                        Q1016 NOSIG=
200805082045 METAR LMML 082045Z 12010KT 9999 FEW021 SCT120 BKN250 17/13
                        Q1016 NOSIG=
200805082015 METAR LMML 082015Z 12008KT 9999 FEW021 SCT120 BKN250 17/13
                        Q1016 NOSIG=
200805081945 METAR LMML 081945Z 11008KT 9999 FEW022 SCT120 BKN250 17/12
                        Q1016 NOSIG=
200805081930 METAR LMML NIL=
200805081915 METAR LMML 081915Z 12010KT 9999 FEW022 SCT120 BKN250 17/13
                        Q1016 NOSIG=
200805081900 METAR LMML NIL=
200805081845 METAR LMML 081845Z 11009KT CAVOK 17/12 Q1016 NOSIG=
200805081830 METAR LMML NIL=
200805081815 METAR LMML 081815Z 11010KT CAVOK 17/12 Q1016 NOSIG=
200805081800 METAR LMML NIL=
200805081745 METAR LMML 081745Z 10009KT 070V130 CAVOK 17/12 Q1016 NOSIG=
200805081730 METAR LMML NIL=
200805081715 METAR LMML 081715Z 09009KT 050V120 CAVOK 18/12 Q1016 NOSIG=
200805081700 METAR LMML NIL=
200805081645 METAR LMML 081645Z 10009KT 070V130 CAVOK 18/12 Q1016 NOSIG=
200805081630 METAR LMML NIL=
200805081615 METAR LMML 081615Z 09010KT 050V120 CAVOK 19/12 Q1016 NOSIG=
200805081600 METAR LMML NIL=
200805081545 METAR LMML 081545Z 08010KT 030V120 CAVOK 19/12 Q1016 NOSIG=
200805081530 METAR LMML NIL=
200805081515 METAR LMML 081515Z 09010KT 050V110 9999 FEW025 BKN250 19/11
                        Q1016 NOSIG=
200805081445 METAR LMML 081445Z 08011KT 9999 FEW026 BKN250 20/11 Q1016
                        NOSIG=
200805081430 METAR LMML NIL=
200805081415 METAR LMML 081415Z 07010KT 040V100 9999 FEW026 BKN250 20/11
                        Q1017 NOSIG=
200805081400 METAR LMML NIL=
200805081345 METAR LMML 081345Z 08010KT 040V110 9999 FEW026 BKN250 21/11
                        Q1017 NOSIG=
200805081330 METAR LMML NIL=
200805081315 METAR LMML 081315Z 09011KT 060V120 9999 FEW026 BKN250 20/12
                        Q1017 NOSIG=
200805081300 METAR LMML NIL=
200805081245 METAR LMML 081245Z 08010KT 9999 FEW026 BKN250 20/12 Q1017
                        NOSIG=
200805081230 METAR LMML NIL=
200805081215 METAR LMML 081215Z 09010KT 050V120 9999 FEW026 BKN250 20/12
                        Q1018 NOSIG=
200805081200 METAR LMML NIL=
200805081145 METAR LMML 081145Z 09009KT 9999 FEW028 SCT120 BKN250 20/12
                        Q1018 NOSIG=
200805081130 METAR LMML NIL=
200805081115 METAR LMML 081115Z 12010KT 9999 FEW026 SCT120 BKN250 19/12
                        Q1018 NOSIG=
200805081100 METAR LMML NIL=
200805081045 METAR LMML 081045Z 12009KT 100V160 9999 SCT026 SCT120 SCT250
                        19/12 Q1018 NOSIG=
200805081030 METAR LMML NIL=
200805081015 METAR LMML 081015Z 13010KT 9999 SCT024 BKN250 19/12 Q1018
                        NOSIG=
200805080945 METAR LMML 080945Z 12010KT 9999 SCT023 BKN250 19/13 Q1018
                        NOSIG=
200805080930 METAR LMML NIL=
200805080915 METAR LMML 080915Z 13009KT 090V160 9999 BKN025 BKN250 19/12
                        Q1019 NOSIG=
200805080900 METAR LMML NIL=
200805080845 METAR LMML 080845Z 12011KT 080V160 9999 SCT024 BKN250 20/13
                        Q1018 NOSIG=
200805080830 METAR LMML NIL=
200805080815 METAR LMML 080815Z 11011KT 080V140 9999 SCT024 BKN250 20/13
                        Q1018 NOSIG=
200805080745 METAR LMML 080745Z 10011KT 070V130 9999 SCT024 BKN250 19/13
                        Q1017 NOSIG=
200805080730 METAR LMML NIL=
200805080715 METAR LMML 080715Z 09011KT 050V120 9999 SCT021 BKN250 19/13
                        Q1017 NOSIG=
200805080645 METAR LMML 080645Z 11011KT 070V130 9999 SCT021 BKN250 19/13
                        Q1017 NOSIG=
200805080630 METAR LMML NIL=
200805080615 METAR LMML 080615Z 09010KT 060V120 9999 FEW018 BKN250 18/13
                        Q1017 NOSIG=
200805080600 METAR LMML NIL=
200805080545 METAR LMML 080545Z 10008KT 070V140 9999 FEW018 BKN250 18/13
                        Q1017 NOSIG=
200805080530 METAR LMML NIL=
200805080515 METAR LMML 080515Z 10008KT 070V130 9999 FEW018 BKN250 17/13
                        Q1017 NOSIG=
200805080500 METAR LMML NIL=
200805080445 METAR LMML 080445Z 10007KT 9999 FEW018 BKN250 17/14 Q1016
                        NOSIG=
200805080430 METAR LMML NIL=
200805080415 METAR LMML 080415Z 10007KT 060V120 9999 FEW018 BKN250 16/14
                        Q1016 NOSIG=
200805080400 METAR LMML NIL=
200805080345 METAR LMML 080345Z 10007KT 9999 FEW018 16/14 Q1016 NOSIG=
200805080330 METAR LMML NIL=
200805080315 METAR LMML 080315Z 09006KT 9999 SCT016 16/15 Q1016 NOSIG=
200805080300 METAR LMML NIL=
200805080245 METAR LMML 080245Z 10005KT 9999 SCT017 16/15 Q1016 NOSIG=
200805080230 METAR LMML NIL=
200805080215 METAR LMML 080215Z 09005KT 9999 FEW017 16/15 Q1016 NOSIG=
200805080200 METAR LMML NIL=
200805080145 METAR LMML 080145Z 11005KT 070V130 9999 SCT017 16/15 Q1016
                        NOSIG=
200805080130 METAR LMML NIL=
200805080115 METAR LMML 080115Z 10006KT 070V130 9999 SCT016 17/15 Q1016
                        NOSIG=
200805080100 METAR LMML NIL=
200805080045 METAR LMML 080045Z 09007KT 9999 SCT016 17/15 Q1016 NOSIG=
200805080030 METAR LMML NIL=
200805080015 METAR LMML 080015Z 09005KT 9999 SCT014 17/15 Q1016 NOSIG=
200805080000 METAR LMML NIL=
200805072345 METAR LMML 072345Z 09006KT 050V120 9999 SCT016 17/15 Q1016
                        NOSIG=
200805072330 METAR LMML NIL=
200805072315 METAR LMML 072315Z 08006KT 9999 SCT016 17/15 Q1017 NOSIG=
200805072300 METAR LMML NIL=
200805072245 METAR LMML 072245Z 07005KT 030V100 9999 SCT015 17/15 Q1017
                        NOSIG=
200805072230 METAR LMML NIL=
200805072215 METAR LMML 072215Z 08005KT 9999 SCT015 17/15 Q1017 NOSIG=
200805072200 METAR LMML NIL=
200805072145 METAR LMML 072145Z 08006KT 9999 SCT016 18/16 Q1017 NOSIG=
200805072115 METAR LMML 072115Z 07005KT 9999 FEW018 17/15 Q1016 NOSIG=
200805072100 METAR LMML NIL=
200805072045 METAR LMML 072045Z 08005KT 050V110 9999 FEW017 18/14 Q1016
                        NOSIG=
200805072030 METAR LMML NIL=
200805072015 METAR LMML 072015Z 06005KT 020V090 9999 FEW025 18/14 Q1016
                        NOSIG=
200805072000 METAR LMML NIL=
200805071945 METAR LMML 071945Z 07004KT 040V100 9999 FEW025 18/14 Q1016
                        NOSIG=
200805071930 METAR LMML NIL=
200805071915 METAR LMML 071915Z 08004KT 9999 FEW025 18/14 Q1016 NOSIG=
200805071900 METAR LMML NIL=
200805071845 METAR LMML 071845Z VRB03KT 9999 FEW030 SCT250 18/14 Q1016
                        NOSIG=
200805071830 METAR LMML NIL=
200805071815 METAR LMML 071815Z 12004KT 9999 FEW025 SCT250 18/14 Q1016
                        NOSIG=
200805071800 METAR LMML NIL=
200805071745 METAR LMML 071745Z 14004KT 120V180 9999 FEW028 SCT250 18/14
                        Q1015 NOSIG=
200805071730 METAR LMML NIL=
200805071715 METAR LMML 071715Z VRB03KT 9999 FEW030 SCT250 19/14 Q1015
                        NOSIG=
200805071700 METAR LMML NIL=
200805071645 METAR LMML 071645Z 21004KT 170V260 9999 FEW029 19/14 Q1015
                        NOSIG=
200805071630 METAR LMML NIL=
200805071615 METAR LMML 071615Z VRB03KT 9999 FEW025 BKN250 20/13 Q1015
                        NOSIG=
200805071600 METAR LMML NIL=
200805071545 METAR LMML 071545Z 20004KT 150V250 9999 FEW025 SCT250 20/14
                        Q1015 NOSIG=
200805071515 METAR LMML 071515Z 22005KT 180V290 9999 FEW025 SCT250 20/13
                        Q1015 NOSIG=
200805071445 METAR LMML 071445Z 20007KT 160V240 9999 FEW025 SCT250 20/13
                        Q1015 NOSIG=
200805071430 METAR LMML NIL=
200805071415 METAR LMML 071415Z 19008KT 160V250 9999 FEW030 SCT250 20/12
                        Q1015 NOSIG=
200805071400 METAR LMML NIL=
200805071345 METAR LMML 071345Z 20004KT 150V260 9999 FEW030 SCT250 22/11
                        Q1015 NOSIG=
200805071330 METAR LMML NIL=
200805071315 METAR LMML 071315Z 24004KT 180V300 9999 FEW030 SCT250 21/11
                        Q1015 NOSIG=
200805071300 METAR LMML NIL=
200805071230 METAR LMML NIL=
200805071215 METAR LMML 071215Z 22006KT 170V300 9999 SCT030 22/13 Q1016
                        NOSIG=
200805071200 METAR LMML NIL=
200805071145 METAR LMML 071145Z 19006KT 160V260 9999 SCT031 20/12 Q1016
                        NOSIG=
200805071130 METAR LMML NIL=
200805071115 METAR LMML 071115Z 20004KT 120V300 9999 SCT030 SCT250 20/14
                        Q1016 NOSIG=
200805071100 METAR LMML NIL=
200805071045 METAR LMML 071045Z 19005KT 160V260 9999 SCT030 19/15 Q1016
                        NOSIG=
200805071030 METAR LMML NIL=
200805071015 METAR LMML 071015Z 19005KT 090V270 9999 SCT025 20/15 Q1017
                        NOSIG=
200805071000 METAR LMML NIL=
200805070945 METAR LMML 070945Z 19006KT 170V240 9999 SCT025 19/15 Q1017
                        NOSIG=
200805070930 METAR LMML NIL=
200805070915 METAR LMML 070915Z 18006KT 130V230 9999 SCT025 20/14 Q1017
                        NOSIG=
200805070900 METAR LMML NIL=
200805070845 METAR LMML 070845Z 19005KT 120V240 9999 FEW024 20/14 Q1017
                        NOSIG=
200805070815 METAR LMML 070815Z VRB02KT 9999 FEW023 19/15 Q1017 NOSIG=
200805070745 METAR LMML 070745Z VRB03KT 9999 FEW018 19/15 Q1017 NOSIG=
200805070730 METAR LMML NIL=
200805070715 METAR LMML 070715Z VRB02KT 9999 FEW019 19/15 Q1016 NOSIG=
200805070700 METAR LMML NIL=
200805070645 METAR LMML 070645Z VRB01KT 9999 FEW015 19/16 Q1016 NOSIG=
200805070630 METAR LMML NIL=
200805070600 METAR LMML NIL=
200805070530 METAR LMML NIL=
200805070515 METAR LMML 070515Z VRB01KT 6000 FEW014 16/16 Q1016 BECMG
                        9999=
200805070500 METAR LMML NIL=
200805070445 METAR LMML 070445Z VRB02KT 9000 FEW120 15/15 Q1016 NOSIG=
200805070430 METAR LMML NIL=
200805070415 METAR LMML 070415Z VRB01KT 9000 FEW014 15/15 Q1015 NOSIG=
200805070400 METAR LMML NIL=
200805070345 METAR LMML 070345Z VRB01KT 9000 FEW014 15/15 Q1015 NOSIG=
200805070330 METAR LMML NIL=
200805070315 METAR LMML 070315Z VRB01KT 9999 FEW012 15/15 Q1015 NOSIG=
200805070300 METAR LMML NIL=
200805070245 METAR LMML 070245Z VRB01KT 9999 SCT020 15/15 Q1016 NOSIG=
200805070230 METAR LMML NIL=
200805070215 METAR LMML 070215Z VRB02KT 9999 SCT016 15/15 Q1016 NOSIG=
200805070200 METAR LMML NIL=
200805070145 METAR LMML 070145Z VRB03KT 9999 FEW012 16/16 Q1016 NOSIG=
200805070130 METAR LMML NIL=
200805070115 METAR LMML 070115Z VRB02KT 9999 FEW015 16/16 Q1016 NOSIG=
200805070100 METAR LMML NIL=
200805070045 METAR LMML 070045Z VRB01KT 9999 FEW040 SCT090 16/15 Q1016
                        NOSIG=
200805070030 METAR LMML NIL=
200805070015 METAR LMML 070015Z VRB01KT 9999 FEW040 SCT090 16/16 Q1016
                        NOSIG=
200805070000 METAR LMML NIL=
200805062345 METAR LMML 062345Z VRB01KT 9999 FEW040 SCT090 16/16 Q1016
                        NOSIG=
200805062330 METAR LMML NIL=
200805062315 METAR LMML 062315Z VRB02KT 9999 FEW040 BKN100 16/16 Q1016
                        NOSIG=
200805062245 METAR LMML 062245Z VRB01KT 9999 FEW040 BKN100 17/16 Q1017
                        NOSIG=
200805062230 METAR LMML NIL=
200805062215 METAR LMML 062215Z VRB01KT 9999 FEW040 SCT100 16/16 Q1017
                        NOSIG=
200805062200 METAR LMML NIL=
200805062145 METAR LMML 062145Z VRB01KT 9999 FEW040 SCT000 17/16 Q1017
                        NOSIG=
200805062130 METAR LMML NIL=
200805062115 METAR LMML 062115Z VRB01KT 9999 FEW040 SCT100 17/16 Q1017
                        NOSIG=
200805062100 METAR LMML NIL=
200805062045 METAR LMML 062045Z VRB02KT CAVOK 17/16 Q1016 NOSIG=
200805062030 METAR LMML NIL=
200805062015 METAR LMML 062015Z VRB03KT CAVOK 17/16 Q1017 NOSIG=
200805062000 METAR LMML NIL=
200805061945 METAR LMML 061945Z VRB03KT CAVOK 17/16 Q1017 NOSIG=
200805061930 METAR LMML NIL=
200805061915 METAR LMML 061915Z VRB03KT CAVOK 17/15 Q1017 NOSIG=
200805061900 METAR LMML NIL=
200805061845 METAR LMML 061845Z 00000KT CAVOK 18/15 Q1017 NOSIG=
200805061830 METAR LMML NIL=
200805061815 METAR LMML 061815Z VRB01KT CAVOK 18/15 Q1016 NOSIG=
200805061800 METAR LMML NIL=
200805061745 METAR LMML 061745Z VRB01KT 9999 FEW025 SCT250 18/15 Q1016
                        NOSIG=
200805061730 METAR LMML NIL=
200805061715 METAR LMML 061715Z VRB03KT 9999 FEW025 SCT250 19/15 Q1016
                        NOSIG=
200805061700 METAR LMML NIL=
200805061645 METAR LMML 061645Z VRB03KT 9999 FEW025 SCT250 20/14 Q1016
                        NOSIG=
200805061630 METAR LMML NIL=
200805061615 METAR LMML 061615Z 19004KT 160V230 9999 FEW025 20/13 Q1016
                        NOSIG=
200805061600 METAR LMML NIL=
200805061545 METAR LMML 061545Z VRB03KT 9999 FEW025 20/14 Q1017 NOSIG=
200805061515 METAR LMML 061515Z 17005KT 140V220 9999 FEW012 20/14 Q1016
                        NOSIG=
200805061500 METAR LMML NIL=
200805061445 METAR LMML 061445Z 20004KT 130V260 9999 FEW012 BKN250 21/14
                        Q1017 NOSIG=
200805061430 METAR LMML NIL=
200805061415 METAR LMML 061415Z 20005KT 150V300 9999 FEW012 BKN250 21/13
                        Q1017 NOSIG=
200805061400 METAR LMML NIL=
200805061345 METAR LMML 061345Z 20004KT 150V270 CAVOK 21/13 Q1017 NOSIG=
200805061330 METAR LMML NIL=
200805061315 METAR LMML 061315Z 22005KT CAVOK 21/13 Q1017 NOSIG=
200805061245 METAR LMML 061245Z 19005KT CAVOK 21/12 Q1018 NOSIG=
200805061230 METAR LMML NIL=
200805061215 METAR LMML 061215Z 18005KT CAVOK 20/12 Q1018 NOSIG=
200805061200 LMML NIL=
200805061145 METAR LMML 061145Z VRB03KT CAVOK 20/10 Q1018 NOSIG=
200805061130 METAR LMML NIL=
200805061115 METAR LMML 061115Z 19005KT 160V260 CAVOK 20/10 Q1018 NOSIG=
200805061045 METAR LMML 061045Z 19004KT 170V310 CAVOK 21/12 Q1018 NOSIG=
200805061030 METAR LMML NIL=
200805061015 LMML 061015Z 21005KT 150V260 9999 FEW015 BKN250 20/14 Q1018
                        NOSIG=
200805061000 METAR LMML NIL=
200805060945 METAR LMML 060945Z 21005KT 200V290 9999 FEW015 BKN250 20/15
                        Q1018 NOSIG=
200805060930 METAR LMML NIL=
200805060915 METAR LMML 060915Z 20006KT 170V290 9999 FEW014 BKN250 21/16
                        Q1018 NOSIG=
200805060900 LMML NIL=
200805060830 METAR LMML NIL=
200805060815 METAR LMML 060815Z 19005KT 9999 FEW013 BKN250 19/16 Q1018
                        NOSIG=
200805060800 METAR LMML NIL=
200805060745 METAR LMML 060745Z 18006KT 9999 FEW013 BKN250 19/16 Q1018
                        NOSIG=
200805060730 METAR LMML NIL=
200805060715 METAR LMML 060715Z 18005KT 9999 SCT013 BKN250 19/16 Q1018
                        NOSIG=
200805060700 METAR LMML NIL=
200805060645 METAR LMML 060645Z 17006KT 140V210 9999 SCT012 BKN250 18/16
                        Q1018 NOSIG=
200805060630 METAR LMML NIL=
200805060615 METAR LMML 060615Z 19005KT 150V230 9999 FEW009 BKN250 18/17
                        Q1018 NOSIG=
200805060600 METAR LMML NIL=
200805060545 METAR LMML 060545Z VRB03KT 9999 FEW015 BKN250 17/17 Q1018
                        NOSIG=
200805060530 LMML NIL=
200805060515 METAR LMML 060515Z VRB03KT CAVOK 17/16 Q1018 NOSIG=
200805060500 METAR LMML NIL=
200805060445 METAR LMML 060445Z VRB02KT CAVOK 16/16 Q1018 NOSIG=
200805060430 METAR LMML NIL=
200805060415 METAR LMML 060415Z VRB03KT CAVOK 15/15 Q1018 NOSIG=
200805060400 METAR LMML NIL=
200805060345 METAR LMML 060345Z VRB02KT CAVOK 14/14 Q1018 NOSIG=
200805060330 METAR LMML NIL=
200805060315 METAR LMML 060315Z VRB03KT CAVOK 14/14 Q1018 NOSIG=
200805060300 METAR LMML NIL=
200805060245 METAR LMML 060245Z 00000KT CAVOK 14/14 Q1018 NOSIG=
200805060230 METAR LMML NIL=
200805060215 METAR LMML 060215Z 00000KT CAVOK 15/13 Q1018 NOSIG=
200805060200 METAR LMML NIL=
200805060145 METAR LMML 060145Z VRB02KT CAVOK 15/14 Q1018 NOSIG=
200805060130 METAR LMML NIL=
200805060115 METAR LMML 060115Z VRB03KT CAVOK 15/14 Q1018 NOSIG=
200805060100 METAR LMML NIL=
200805060045 METAR LMML 060045Z VRB02KT CAVOK 15/14 Q1018 NOSIG=
200805060030 METAR LMML NIL=
200805060015 METAR LMML 060015Z VRB01KT CAVOK 15/14 Q1018 NOSIG=
200805052345 METAR LMML 052345Z VRB01KT CAVOK 15/14 Q1018 NOSIG=
200805052330 METAR LMML NIL=
200805052315 METAR LMML 052315Z 00000KT CAVOK 15/14 Q1019 NOSIG=
200805052300 METAR LMML NIL=
200805052245 METAR LMML 052245Z 00000KT CAVOK 16/14 Q1019 NOSIG=
200805052215 METAR LMML 052215Z VRB01KT CAVOK 15/13 Q1019 NOSIG=
200805052200 METAR LMML NIL=
200805052145 METAR LMML 052145Z 00000KT CAVOK 16/14 Q1019 NOSIG=
200805052130 METAR LMML NIL=
200805052115 METAR LMML 052115Z 00000KT CAVOK 16/13 Q1019 NOSIG=
200805052100 METAR LMML NIL=
200805052045 METAR LMML 052045Z VRB01KT CAVOK 17/14 Q1019 NOSIG=
200805052015 METAR LMML 052015Z VRB01KT CAVOK 18/14 Q1020 NOSIG=
200805052000 METAR LMML NIL=
200805051945 METAR LMML 051945Z VRB01KT CAVOK 17/14 Q1020 NOSIG=
200805051915 METAR LMML 051915Z VRB01KT CAVOK 18/13 Q1019 NOSIG=
200805051845 METAR LMML 051845Z VRB02KT CAVOK 18/13 Q1019 NOSIG=
200805051830 METAR LMML NIL=
200805051815 METAR LMML 051815Z VRB02KT CAVOK 18/13 Q1019 NOSIG=
200805051800 METAR LMML NIL=
200805051745 METAR LMML 051745Z 17004KT 140V200 CAVOK 19/12 Q1018 NOSIG=
200805051730 METAR LMML NIL=
200805051715 METAR LMML 051715Z 18004KT 140V220 CAVOK 20/10 Q1018 NOSIG=
200805051700 METAR LMML NIL=
200805051645 METAR LMML 051645Z 19005KT 170V240 CAVOK 20/08 Q1018 NOSIG=
200805051630 METAR LMML NIL=
200805051615 METAR LMML 051615Z 19005KT 160V240 CAVOK 20/09 Q1018 NOSIG=
200805051600 METAR LMML NIL=
200805051545 METAR LMML 051545Z 20006KT 170V240 CAVOK 21/07 Q1018 NOSIG=
200805051530 METAR LMML NIL=
200805051515 METAR LMML 051515Z 21006KT 170V250 CAVOK 21/07 Q1019 NOSIG=
200805051500 METAR LMML NIL=
200805051445 METAR LMML 051445Z 20006KT 150V250 CAVOK 22/06 Q1019 NOSIG=
200805051430 METAR LMML NIL=
200805051415 METAR LMML 051415Z 18006KT 140V210 CAVOK 22/06 Q1019 NOSIG=
200805051400 METAR LMML NIL=
200805051345 METAR LMML 051345Z 18006KT 140V270 CAVOK 22/06 Q1019 NOSIG=
200805051330 METAR LMML NIL=
200805051315 METAR LMML 051315Z 18006KT 130V240 CAVOK 22/06 Q1019 NOSIG=
200805051300 METAR LMML NIL=
200805051245 METAR LMML 051245Z 16006KT 110V200 CAVOK 22/06 Q1019 NOSIG=
200805051230 METAR LMML NIL=
200805051215 METAR LMML 051215Z 17007KT 130V220 CAVOK 22/05 Q1020 NOSIG=
200805051200 METAR LMML NIL=
200805051145 METAR LMML 051145Z 17008KT 120V210 CAVOK 22/04 Q1019 NOSIG=
200805051130 METAR LMML NIL=
200805051115 METAR LMML 051115Z 12008KT 070V160 CAVOK 22/06 Q1019 NOSIG=
200805051045 METAR LMML 051045Z 11007KT 060V150 9999 FEW030 23/05 Q1020
                        NOSIG=
200805051030 METAR LMML NIL=
200805051015 METAR LMML 051015Z 11006KT 060V170 CAVOK 22/06 Q1020 NOSIG=
200805051000 METAR LMML NIL=
200805050945 METAR LMML 050945Z 12005KT 070V160 CAVOK 22/06 Q1020 NOSIG=
200805050930 METAR LMML NIL=
200805050915 METAR LMML 050915Z 12005KT 070V180 CAVOK 22/08 Q1020 NOSIG=
200805050900 METAR LMML NIL=
200805050845 METAR LMML 050845Z 06004KT 360V120 CAVOK 22/07 Q1020 NOSIG=
200805050830 METAR LMML NIL=
200805050815 METAR LMML 050815Z 08004KT 030V150 CAVOK 22/06 Q1020 NOSIG=
200805050800 METAR LMML NIL=
200805050745 METAR LMML 050745Z 09004KT 040V150 CAVOK 21/08 Q1020 NOSIG=
200805050730 METAR LMML NIL=
200805050715 METAR LMML 050715Z VRB03KT CAVOK 21/08 Q1019 NOSIG=
200805050700 METAR LMML NIL=
200805050645 METAR LMML 050645Z VRB03KT CAVOK 20/07 Q1019 NOSIG=
200805050630 METAR LMML NIL=
200805050615 METAR LMML 050615Z VRB01KT CAVOK 20/09 Q1019 NOSIG=
200805050545 METAR LMML 050545Z 00000KT CAVOK 18/13 Q1019 NOSIG=
200805050530 METAR LMML NIL=
200805050515 METAR LMML 050515Z VRB01KT 9000 SKC 16/14 Q1019 NOSIG=
200805050500 METAR LMML NIL=
200805050445 METAR LMML 050445Z VRB01KT 9000 SKC 15/14 Q1018 NOSIG=
200805050430 METAR LMML NIL=
200805050415 METAR LMML 050415Z VRB02KT 9000 SKC 14/14 Q1018 TEMPO 8000=
200805050400 METAR LMML NIL=
200805050345 METAR LMML 050345Z VRB01KT CAVOK 14/14 Q1018 TEMPO 8000=
200805050330 METAR LMML NIL=
200805050315 METAR LMML 050315Z 00000KT CAVOK 15/14 Q1018 TEMPO 8000=
200805050300 METAR LMML NIL=
200805050245 METAR LMML 050245Z VRB01KT CAVOK 15/14 Q1018 TEMPO 8000=
200805050230 METAR LMML NIL=
200805050215 METAR LMML 050215Z VRB01KT CAVOK 15/15 Q1018 TEMPO 8000=
200805050200 METAR LMML NIL=
200805050145 METAR LMML 050145Z VRB01KT CAVOK 15/15 Q1018 TEMPO 8000=
200805050130 METAR LMML NIL=
200805050115 METAR LMML 050115Z 00000KT CAVOK 15/15 Q1018 TEMPO 8000=
200805050100 METAR LMML NIL=
200805050045 METAR LMML 050045Z 00000KT CAVOK 15/15 Q1018 TEMPO 8000=
200805050030 METAR LMML NIL=
200805050015 METAR LMML 050015Z VRB01KT CAVOK 15/15 Q1018 NOSIG=
200805050000 METAR LMML NIL=
200805042345 METAR LMML 042345Z VRB02KT CAVOK 16/15 Q1018 NOSIG=
200805042330 METAR LMML NIL=
200805042315 METAR LMML 042315Z VRB03KT CAVOK 17/15 Q1018 NOSIG=
200805042300 METAR LMML NIL=
200805042245 METAR LMML 042245Z VRB03KT CAVOK 16/15 Q1019 NOSIG=
200805042230 METAR LMML NIL=
200805042215 METAR LMML 042215Z VRB03KT CAVOK 17/15 Q1019 NOSIG=
200805042200 METAR LMML NIL=
200805042145 METAR LMML 042145Z VRB03KT CAVOK 17/15 Q1019 NOSIG=
200805042130 METAR LMML NIL=
200805042115 METAR LMML 042115Z VRB03KT CAVOK 17/15 Q1019 NOSIG=
200805042045 METAR LMML 042045Z VRB03KT CAVOK 17/16 Q1019 NOSIG=
200805042030 METAR LMML NIL=
200805042015 METAR LMML 042015Z VRB03KT CAVOK 17/14 Q1018 NOSIG=
200805042000 METAR LMML NIL=
200805041945 METAR LMML 041945Z 07004KT CAVOK 18/14 Q1018 NOSIG=
200805041930 METAR LMML NIL=
200805041915 METAR LMML 041915Z VRB03KT CAVOK 18/14 Q1018 NOSIG=
200805041900 METAR LMML NIL=
200805041845 METAR LMML 041845Z VRB01KT CAVOK 19/09 Q1017 NOSIG=
200805041830 METAR LMML NIL=
200805041815 METAR LMML 041815Z VRB01KT CAVOK 19/09 Q1017 NOSIG=
200805041800 METAR LMML NIL=
200805041745 METAR LMML 041745Z VRB02KT CAVOK 19/10 Q1017 NOSIG=
200805041730 METAR LMML NIL=
200805041715 METAR LMML 041715Z 24004KT 210V280 CAVOK 20/10 Q1017 NOSIG=
200805041645 METAR LMML 041645Z 23005KT 190V270 CAVOK 21/08 Q1016 NOSIG=
200805041630 METAR LMML NIL=
200805041615 METAR LMML 041615Z 23006KT 200V270 CAVOK 21/09 Q1016 NOSIG=
200805041600 METAR LMML NIL=
200805041545 METAR LMML 041545Z 21006KT 180V260 CAVOK 22/06 Q1016 NOSIG=
200805041530 METAR LMML NIL=
200805041515 METAR LMML 041515Z 21006KT 160V250 CAVOK 22/06 Q1016 NOSIG=
200805041500 METAR LMML NIL=
200805041445 METAR LMML 041445Z 22006KT 180V260 CAVOK 22/04 Q1017 NOSIG=
200805041430 METAR LMML NIL=
200805041415 METAR LMML 041415Z 21007KT 160V270 CAVOK 22/04 Q1017 NOSIG=
200805041400 METAR LMML NIL=
200805041345 METAR LMML 041345Z 21004KT 120V360 CAVOK 23/04 Q1017 NOSIG=
200805041330 METAR LMML NIL=
200805041315 METAR LMML 041315Z 20005KT 140V270 CAVOK 23/05 Q1017 NOSIG=
200805041300 METAR LMML NIL=
200805041245 METAR LMML 041245Z 21007KT 150V260 CAVOK 23/05 Q1017 NOSIG=
200805041230 METAR LMML NIL=
200805041215 METAR LMML 041215Z 20005KT 140V270 CAVOK 23/07 Q1018 NOSIG=
200805041200 METAR LMML NIL=
200805041145 METAR LMML 041145Z 20006KT 150V280 CAVOK 22/07 Q1018 NOSIG=
200805041115 METAR LMML 041115Z 18007KT 100V220 CAVOK 23/05 Q1018 NOSIG=
200805041100 METAR LMML NIL=
200805041045 METAR LMML 041045Z 19005KT 130V250 CAVOK 23/05 Q1018 NOSIG=
200805041030 METAR LMML NIL=
200805041015 METAR LMML 041015Z 16005KT 100V200 CAVOK 23/03 Q1018 NOSIG=
200805041000 METAR LMML NIL=
200805040945 METAR LMML 040945Z 16005KT 100V210 CAVOK 24/04 Q1018 NOSIG=
200805040930 METAR LMML NIL=
200805040915 METAR LMML 040915Z 13005KT 050V230 CAVOK 23/04 Q1018 NOSIG=
200805040845 METAR LMML 040845Z 14007KT 100V180 CAVOK 23/03 Q1018 NOSIG=
200805040830 METAR LMML NIL=
200805040815 METAR LMML 040815Z VRB03KT CAVOK 23/08 Q1018 NOSIG=
200805040800 METAR LMML NIL=
200805040745 METAR LMML 040745Z VRB03KT CAVOK 22/08 Q1018 NOSIG=
200805040715 METAR LMML 040715Z VRB03KT CAVOK 21/10 Q1018 NOSIG=
200805040700 METAR LMML NIL=
200805040645 LMML 040645Z VRB03KT CAVOK 19/15 Q1018 NOSIG=
200805040630 METAR LMML NIL=
200805040615 METAR LMML 040615Z VRB03KT 9000 SKC 18/17 Q1018 BECMG CAVOK=
200805040600 METAR LMML NIL=
200805040545 METAR LMML 040545Z VRB02KT 6000 SKC 17/17 Q1017 BECMG CAVOK=
200805040530 METAR LMML NIL=
200805040515 METAR LMML 040515Z VRB02KT 6000 SKC 16/16 Q1017 BECMG CAVOK=
200805040500 METAR LMML NIL=
200805040445 METAR LMML 040445Z VRB03KT 7000 SKC 15/15 Q1017 BECMG CAVOK=
200805040430 METAR LMML NIL=
200805040415 METAR LMML 040415Z VRB03KT 9000 SKC 15/15 Q1017 NOSIG=
200805040400 METAR LMML NIL=
200805040345 METAR LMML 040345Z VRB03KT 9000 SKC 15/15 Q1017 NOSIG=
200805040330 METAR LMML NIL=
200805040315 METAR LMML 040315Z 30004KT 9000 SKC 15/15 Q1017 NOSIG=
200805040300 METAR LMML NIL=
200805040245 METAR LMML 040245Z 31004KT CAVOK 15/15 Q1017 NOSIG=
200805040230 METAR LMML NIL=
200805040215 METAR LMML 040215Z VRB03KT CAVOK 15/15 Q1017 NOSIG=
200805040145 METAR LMML 040145Z 30004KT CAVOK 15/15 Q1017 NOSIG=
200805040130 METAR LMML NIL=
200805040115 METAR LMML 040115Z 31004KT CAVOK 15/15 Q1017 NOSIG=
200805040100 METAR LMML NIL=
200805040045 METAR LMML 040045Z 31004KT CAVOK 15/15 Q1017 NOSIG=
200805040030 METAR LMML NIL=
200805040015 METAR LMML 040015Z 31004KT CAVOK 15/15 Q1017 NOSIG=
200805040000 METAR LMML NIL=
200805032345 METAR LMML 032345Z 33004KT CAVOK 15/15 Q1018 NOSIG=
200805032330 METAR LMML NIL=
200805032315 METAR LMML 032315Z 32004KT 300V030 CAVOK 15/14 Q1018 NOSIG=
200805032300 METAR LMML NIL=
200805032245 METAR LMML 032245Z 30004KT 280V350 CAVOK 15/14 Q1018 NOSIG=
200805032230 METAR LMML NIL=
200805032215 METAR LMML 032215Z VRB03KT CAVOK 15/14 Q1018 NOSIG=
200805032200 METAR LMML NIL=
200805032145 METAR LMML 032145Z VRB03KT CAVOK 16/15 Q1018 NOSIG=
200805032115 METAR LMML 032115Z VRB02KT CAVOK 17/14 Q1018 NOSIG=
200805032100 METAR LMML NIL=
200805032045 METAR LMML 032045Z VRB02KT CAVOK 17/15 Q1018 NOSIG=
200805032030 METAR LMML NIL=
200805032015 METAR LMML 032015Z VRB03KT CAVOK 17/15 Q1018 NOSIG=
200805032000 METAR LMML NIL=
200805031945 METAR LMML 031945Z VRB03KT CAVOK 17/15 Q1018 NOSIG=
200805031930 METAR LMML NIL=
200805031915 METAR LMML 031915Z VRB03KT CAVOK 18/14 Q1018 NOSIG=
200805031900 METAR LMML NIL=
200805031845 METAR LMML 031845Z 06005KT 030V090 CAVOK 18/13 Q1017 NOSIG=
200805031830 METAR LMML NIL=
200805031815 METAR LMML 031815Z 07004KT 040V110 CAVOK 18/13 Q1017 NOSIG=
200805031800 METAR LMML NIL=
200805031745 METAR LMML 031745Z 06005KT 020V110 CAVOK 18/12 Q1017 NOSIG=
200805031730 METAR LMML NIL=
200805031715 METAR LMML 031715Z 07007KT 040V110 CAVOK 19/11 Q1017 NOSIG=
200805031700 METAR LMML NIL=
200805031645 METAR LMML 031645Z 07009KT 040V100 CAVOK 20/11 Q1017 NOSIG=
200805031630 METAR LMML NIL=
200805031615 METAR LMML 031615Z 08010KT CAVOK 20/10 Q1017 NOSIG=
200805031600 METAR LMML NIL=
200805031545 METAR LMML 031545Z 07010KT CAVOK 20/11 Q1017 NOSIG=
200805031530 METAR LMML NIL=
200805031515 METAR LMML 031515Z 07010KT 040V100 CAVOK 21/12 Q1017 NOSIG=
200805031500 METAR LMML NIL=
200805031445 METAR LMML 031445Z 06010KT 020V090 CAVOK 21/12 Q1017 NOSIG=
200805031430 METAR LMML NIL=
200805031415 METAR LMML 031415Z 05010KT 010V090 CAVOK 22/11 Q1017 NOSIG=
200805031400 METAR LMML NIL=
200805031345 METAR LMML 031345Z 05009KT 010V090 CAVOK 21/13 Q1017 NOSIG=
200805031330 METAR LMML NIL=
200805031315 METAR LMML 031315Z 04011KT 010V070 CAVOK 21/13 Q1017 NOSIG=
200805031300 METAR LMML NIL=
200805031245 METAR LMML 031245Z 06011KT 010V110 CAVOK 21/12 Q1017 NOSIG=
200805031230 METAR LMML NIL=
200805031215 METAR LMML 031215Z 05012KT 020V090 CAVOK 21/12 Q1017 NOSIG=
200805031200 METAR LMML NIL=
200805031145 METAR LMML 031145Z 05011KT 010V090 CAVOK 22/11 Q1018 NOSIG=
200805031130 METAR LMML NIL=
200805031115 METAR LMML 031115Z 05012KT 010V090 CAVOK 22/12 Q1017 NOSIG=
200805031100 METAR LMML NIL=
200805031045 METAR LMML 031045Z 06012KT 030V100 CAVOK 21/13 Q1018 NOSIG=
200805031030 METAR LMML NIL=
200805031015 METAR LMML 031015Z 05011KT 360V080 CAVOK 21/14 Q1018 NOSIG=
200805031000 METAR LMML NIL=
200805030945 METAR LMML 030945Z 04012KT 010V070 CAVOK 21/16 Q1018 NOSIG=
200805030915 METAR LMML 030915Z 04012KT 010V070 9000 FEW120 21/15 Q1018
                        NOSIG=
200805030900 METAR LMML NIL=
200805030845 METAR LMML 030845Z 03011KT 360V070 9000 FEW012 21/16 Q1018
                        NOSIG=
200805030830 METAR LMML NIL=
200805030815 METAR LMML 030815Z 04012KT 020V080 9000 SKC 20/16 Q1017 NOSIG=
200805030800 METAR LMML NIL=
200805030745 METAR LMML 030745Z 04012KT 020V080 9000 FEW020 20/16 Q1017
                        NOSIG=
200805030730 LMML NIL=
200805030715 METAR LMML 030715Z 05012KT 020V080 9000 FEW120 20/16 Q1017
                        NOSIG=
200805030700 METAR LMML NIL=
200805030645 METAR LMML 030645Z 05010KT 010V090 9000 FEW120 19/15 Q1017
                        NOSIG=
200805030630 METAR LMML NIL=
200805030615 METAR LMML 030615Z 03010KT 010V070 9000 FEW125 18/16 Q1017
                        NOSIG=
200805030600 METAR LMML NIL=
200805030545 METAR LMML 030545Z 04008KT 360V070 9000 SCT120 SCT250 18/16
                        Q1017 NOSIG=
200805030530 METAR LMML NIL=
200805030515 METAR LMML 030515Z 03009KT 9000 BKN120 SCT250 18/16 Q1017
                        NOSIG=
200805030500 METAR LMML NIL=
200805030445 METAR LMML 030445Z 04007KT 020V080 9000 SCT120 BKN250 17/15
                        Q1017 NOSIG=
200805030430 METAR LMML NIL=
200805030415 METAR LMML 030415Z 05008KT 020V090 9000 SCT120 BKN250 18/15
                        Q1016 NOSIG=
200805030400 METAR LMML NIL=
200805030345 METAR LMML 030345Z 05006KT 020V090 9999 FEW006 SCT120 BKN250
                        17/14 Q1016 NOSIG=
200805030315 METAR LMML 030315Z 04007KT 010V070 9999 FEW006 SCT120 BKN250
                        18/15 Q1016 NOSIG=
200805030300 METAR LMML NIL=
200805030245 METAR LMML 030245Z 03006KT 350V070 9999 FEW006 SCT120 BKN250
                        17/15 Q1016 NOSIG=
200805030230 METAR LMML NIL=
200805030215 METAR LMML 030215Z 04007KT 360V060 7000 FEW004 SCT120 BKN250
                        17/16 Q1016 NOSIG=
200805030200 METAR LMML NIL=
200805030145 METAR LMML 030145Z 01006KT 350V070 7000 FEW004 BKN120 BKN250
                        17/17 Q1016 TEMPO 5000 BR BKN004=
200805030130 METAR LMML NIL=
200805030115 METAR LMML 030115Z 01006KT 7000 FEW004 SCT120 BKN250 17/17
                        Q1016 TEMPO 5000 BR BKN004=
200805030100 METAR LMML NIL=
200805030045 METAR LMML 030045Z 01006KT 5000 BR BKN004 17/17 Q1017 NOSIG=
200805030015 METAR LMML 030015Z 01005KT 5000 BR BKN004 17/17 Q1017 NOSIG=
200805030000 METAR LMML NIL=
200805022345 METAR LMML 022345Z 01007KT 350V050 5000 BR BKN004 17/17 Q1017
                        NOSIG=
200805022330 METAR LMML NIL=
200805022315 METAR LMML 022315Z 03006KT 360V060 5000 BR BKN004 17/17 Q1017
                        NOSIG=
200805022245 METAR LMML 022245Z 03007KT 360V060 5000 BR BKN004 17/17 Q1017
                        NOSIG=
200805022230 METAR LMML NIL=
200805022215 METAR LMML 022215Z 03007KT 360V060 5000 BR BKN004 17/17 Q1017
                        NOSIG=
200805022200 METAR LMML NIL=
200805022145 METAR LMML 022145Z 03009KT 5000 BR BKN004 17/17 Q1017 NOSIG=
200805022130 METAR LMML NIL=
200805022115 METAR LMML 022115Z 04009KT 350V080 5000 BR BKN004 17/17 Q1017
                        NOSIG=
200805022100 METAR LMML NIL=
200805022045 METAR LMML 022045Z 04010KT 5000 BR BKN004 17/17 Q1017 NOSIG=
200805022030 METAR LMML NIL=
200805022015 METAR LMML 022015Z 05010KT 5000 BR BKN004 17/17 Q1017 NOSIG=
200805021945 METAR LMML 021945Z 05007KT 010V100 5000 BR BKN003 17/17 Q1017
                        NOSIG=
200805021930 METAR LMML NIL=
200805021915 METAR LMML 021915Z 04006KT 020V080 5000 BR BKN004 17/17 Q1017
                        BECMG 3000=
200805021900 METAR LMML NIL=
200805021845 METAR LMML 021845Z 03005KT 330V070 5000 BR BKN004 18/18 Q1016
                        BECMG 3000=
200805021830 METAR LMML NIL=
200805021815 METAR LMML 021815Z 03006KT 350V070 5000 BR FEW004 BKN120
                        18/18 Q1016 BECMG 3000 BKN003=
200805021800 METAR LMML NIL=
200805021745 METAR LMML 021745Z 04007KT 5000 BR SCT005 SCT120 BKN250 18/18
                        Q1016 BECMG BKN005=
200805021730 METAR LMML NIL=
200805021715 METAR LMML 021715Z 04007KT 010V090 5000 SCT005 BKN250 18/18
                        Q1016 BECMG BKN005=
200805021700 METAR LMML NIL=
200805021645 METAR LMML 021645Z 05007KT 010V090 7000 SCT006 SCT120 BKN250
                        19/17 Q1016 BECMG 5000 BR BKN006=
200805021632 LMML 021632Z 04007KT 010V070 7000 FEW006 SCT120 BKN250 19/18
                        Q1016 BECMG 5000 BR BKN006=
200805021615 METAR LMML 021615Z 04008KT 010V080 CAVOK 19/17 Q1016 TEMPO
                        9000=
200805021600 LMML NIL=
200805021545 METAR LMML 021545Z 05007KT 010V080 CAVOK 20/16 Q1016 TEMPO
                        9000=
200805021530 METAR LMML NIL=
200805021515 METAR LMML 021515Z 07007KT 030V110 CAVOK 21/15 Q1016 TEMPO
                        9000=
200805021500 METAR LMML NIL=
200805021445 METAR LMML 021445Z 06009KT 020V090 CAVOK 20/15 Q1016 TEMPO
                        9000=
200805021430 METAR LMML NIL=
200805021415 METAR LMML 021415Z 05009KT 020V080 9000 SCT120 BKN250 21/15
                        Q1016 NOSIG=
200805021400 METAR LMML NIL=
200805021345 METAR LMML 021345Z 06009KT 030V090 9000 SCT120 BKN250 20/15
                        Q1016 NOSIG=
200805021330 METAR LMML NIL=
200805021315 METAR LMML 021315Z 06008KT 360V090 9000 SCT120 BKN250 21/15
                        Q1017 NOSIG=
200805021300 METAR LMML NIL=
200805021245 METAR LMML 021245Z 03009KT 360V070 9000 SCT120 BKN250 20/15
                        Q1017 NOSIG=
200805021230 METAR LMML NIL=
200805021215 METAR LMML 021215Z 04010KT 360V090 9000 SCT120 BKN250 20/15
                        Q1017 NOSIG=
200805021200 METAR LMML NIL=
200805021145 METAR LMML 021145Z 06010KT 020V100 CAVOK 20/15 Q1017 NOSIG=
200805021130 METAR LMML NIL=
200805021115 METAR LMML 021115Z 05010KT 010V080 CAVOK 21/15 Q1017 NOSIG=
200805021100 METAR LMML NIL=
200805021045 METAR LMML 021045Z 03009KT 360V060 CAVOK 21/15 Q1017 NOSIG=
200805021030 METAR LMML NIL=
200805021015 METAR LMML 021015Z 03010KT 360V060 CAVOK 22/15 Q1017 NOSIG=
200805021000 METAR LMML NIL=
200805020945 METAR LMML 020945Z 02010KT CAVOK 21/15 Q1017 NOSIG=
200805020930 METAR LMML NIL=
200805020915 METAR LMML 020915Z 03010KT 010V070 CAVOK 21/15 Q1017 NOSIG=
200805020900 METAR LMML NIL=
200805020845 METAR LMML 020845Z 04012KT 360V070 9000 FEW010 BKN250 21/16
                        Q1017 NOSIG=
200805020830 METAR LMML NIL=
200805020815 METAR LMML 020815Z 03011KT 360V060 9000 FEW008 SCT250 21/16
                        Q1017 NOSIG=
200805020800 METAR LMML NIL=
200805020745 METAR LMML 020745Z 02006KT 350V050 9000 FEW008 SCT250 20/17
                        Q1017 NOSIG=
200805020730 METAR LMML NIL=
200805020715 LMML 020715Z 03007KT 360V060 9000 FEW008 SCT250 19/17 Q1017
                        NOSIG=
200805020700 METAR LMML NIL=
200805020645 METAR LMML 020645Z 03007KT 360V070 7000 FEW003 SCT250 19/17
                        Q1017 BECMG 9999=
200805020630 METAR LMML NIL=
200805020615 METAR LMML 020615Z 03005KT 360V070 5000 BR FEW003 SCT250
                        18/18 Q1017 NOSIG=
200805020600 METAR LMML NIL=
200805020545 METAR LMML 020545Z 02004KT 350V060 3000 BR FEW002 16/16 Q1017
                        BECMG 5000 BR=
200805020530 METAR LMML NIL=
200805020515 METAR LMML 020515Z 01004KT 2400 BR FEW001 16/16 Q1017 TEMPO
                        3000 BR SCT005=
200805020500 METAR LMML NIL=
200805020445 METAR LMML 020445Z VRB02KT 2400 BR FEW001 15/15 Q1017 TEMPO
                        3000 BR SCT005=
200805020430 METAR LMML NIL=
200805020415 METAR LMML 020415Z 01004KT 2000 BR SCT001 15/15 Q1016 TEMPO
                        3000 BR SCT001=
200805020345 METAR LMML 020345Z 36005KT 2000 BR BKN001 15/15 Q1016 TEMPO
                        0800 FG BKN001=
200805020330 METAR LMML NIL=
200805020315 METAR LMML 020315Z 36004KT 330V030 2000 BR BKN001 16/16 Q1016
                        TEMPO 0800 FG BKN001=
200805020300 METAR LMML NIL=
200805020245 METAR LMML 020245Z 34004KT 2000 BR BKN001 15/15 Q1016 TEMPO
                        0800 FG BKN001=
200805020230 METAR LMML NIL=
200805020215 METAR LMML 020215Z VRB03KT 0700 R14/P1500N FG BKN001 15/15
                        Q1015 TEMPO 0400 FG BKN001=
200805020200 METAR LMML NIL=
200805020145 METAR LMML 020145Z 10004KT 070V130 0700 R14/1034VP1500D FG
                        BKN001 16/16 Q1015 TEMPO 0800 FG
                        BKN001=
200805020130 METAR LMML NIL=
200805020115 METAR LMML 020115Z VRB03KT 4000 BR FEW001 16/16 Q1015 TEMPO
                        0800 FG SCT001=
200805020100 METAR LMML NIL=
200805020045 METAR LMML 020045Z 03004KT 2000 BR SCT001 16/16 Q1015 TEMPO
                        0800 FG SCT001=
200805020015 METAR LMML 020015Z 02004KT 350V050 2000 BR BKN001 16/16 Q1015
                        TEMPO 0800 FG BKN001=
200805020000 METAR LMML NIL=
200805012345 METAR LMML 012345Z 01004KT 2000 BR FEW001 BKN002 16/16 Q1016
                        TEMPO 0800 FG BKN002=
200805012315 METAR LMML 012315Z 01004KT 340V050 2000 BR FEW001 BKN002
                        16/16 Q1016 TEMPO 0800 FG SCT002=
200805012300 METAR LMML NIL=
200805012245 METAR LMML 012245Z 01005KT 2000 BR BKN001 16/16 Q1016 TEMPO
                        0800 FG BKN001=
200805012215 METAR LMML 012215Z 01005KT 350V050 2000 BR BKN001 16/16 Q1016
                        TEMPO 0800 FG BKN001=
200805012200 METAR LMML NIL=
200805012145 METAR LMML 012145Z 01006KT 0900 R14/P1500N FG BKN001 16/16
                        Q1016 TEMPO 0400 FG BKN001=
200805012115 METAR LMML 012115Z 02007KT 350V060 0900 R14/1391VP1500D FG
                        BKN001 16/16 Q1016 TEMPO 0400 FG
                        BKN001=
200805012100 METAR LMML NIL=
200805012045 LMML 012045Z 01006KT 350V050 0900 R14/1416VP1500U FG BKN001
                        16/16 Q1016 TEMPO 0400 FG BKN001=
200805012030 METAR LMML NIL=
200805012015 METAR LMML 012015Z 01008KT 0400 R14/0891VP1500U FG BKN001
                        17/17 Q1016 TEMPO 0400 FG BKN001=
200805011945 LMML 011945Z 36007KT 0500 R14/P1500D FG BKN001 17/17 Q1016
                        TEMPO 0400 FG BKN001=
200805011936 LMML 011936Z 36007KT 1000 R14/P1500N FG BKN001 17/17 Q1016
                        TEMPO 1000 FG BKN001=
200805011930 METAR LMML NIL=
200805011915 METAR LMML 011915Z 02005KT 1200 R14/P1500N BR BKN001 17/17
                        Q1015 TEMPO 1000 FG BKN001=
200805011904 LMML 011904Z 03006KT 2000 BR BKN001 17/17 Q1015 TEMPO 1000
                        FG BKN001=
200805011900 METAR LMML NIL=
200805011845 METAR LMML 011845Z 02005KT 2700 FG OVC002 17/17 Q1015 TEMPO
                        2000 BR BKN001=
200805011830 METAR LMML NIL=
200805011815 METAR LMML 011815Z 04006KT 010V070 3000 BR BKN002 BKN250
                        18/17 Q1015 TEMPO 2000 BR BKN001=
200805011800 METAR LMML NIL=
200805011745 METAR LMML 011745Z 04005KT 360V080 6000 SCT003 BKN250 18/18
                        Q1014 TEMPO 5000 BR SCT003=
200805011730 METAR LMML NIL=
200805011715 METAR LMML 011715Z 03005KT 360V070 6000 SCT004 SCT120 BKN250
                        18/18 Q1014 TEMPO 5000 BR SCT004=
200805011700 METAR LMML NIL=
200805011645 METAR LMML 011645Z 04007KT 010V070 6000 FEW005 SCT120 BKN250
                        19/18 Q1014 NOSIG=
200805011630 METAR LMML NIL=
200805011615 METAR LMML 011615Z 06006KT 010V080 7000 FEW012 SCT120 BKN250
                        19/17 Q1014 NOSIG=
200805011600 METAR LMML NIL=
200805011545 METAR LMML 011545Z 04007KT 350V080 7000 FEW012 SCT120 BKN250
                        21/17 Q1014 NOSIG=
200805011530 METAR LMML NIL=
200805011515 METAR LMML 011515Z 03006KT 360V070 7000 FEW012 SCT120 BKN250
                        21/17 Q1014 NOSIG=
200805011500 METAR LMML NIL=
200805011445 METAR LMML 011445Z 04007KT 010V070 7000 FEW012 BKN250 20/17
                        Q1014 NOSIG=
200805011430 METAR LMML NIL=
200805011415 METAR LMML 011415Z 05007KT 010V090 7000 FEW012 SCT120 BKN250
                        20/17 Q1014 NOSIG=
200805011345 METAR LMML 011345Z 04007KT 010V080 7000 FEW012 SCT120 BKN250
                        20/17 Q1014 NOSIG=
200805011330 METAR LMML NIL=
200805011315 METAR LMML 011315Z 03008KT 340V070 7000 FEW012 BKN250 20/17
                        Q1014 NOSIG=
200805011300 METAR LMML NIL=
200805011245 METAR LMML 011245Z 03008KT 010V070 7000 FEW012 SCT120 BKN250
                        20/18 Q1014 NOSIG=
200805011230 METAR LMML NIL=
200805011215 METAR LMML 011215Z 01006KT 320V050 7000 FEW012 SCT120 BKN250
                        21/18 Q1014 NOSIG=
200805011200 METAR LMML NIL=
200805011145 METAR LMML 011145Z 03006KT 360V060 7000 FEW012 SCT120 BKN250
                        22/18 Q1014 NOSIG=
200805011130 METAR LMML NIL=
200805011115 METAR LMML 011115Z 02006KT 340V060 7000 FEW010 SCT120 BKN250
                        23/18 Q1014 NOSIG=
200805011100 METAR LMML NIL=
200805011045 METAR LMML 011045Z 09006KT 050V130 7000 FEW010 SCT120 BKN250
                        22/17 Q1013 NOSIG=
200805011030 METAR LMML NIL=
200805011015 METAR LMML 011015Z 07006KT 030V110 7000 FEW008 BKN250 21/18
                        Q1013 NOSIG=
200805011000 METAR LMML NIL=
200805010945 METAR LMML 010945Z 08006KT 040V130 7000 FEW008 OVC250 21/18
                        Q1013 NOSIG=
200805010930 METAR LMML NIL=
200805010915 METAR LMML 010915Z 09008KT 050V120 7000 FEW005 OVC250 20/18
                        Q1013 BECMG CAVOK=
200805010900 METAR LMML NIL=
200805010845 METAR LMML 010845Z 09009KT 050V130 7000 FEW005 BKN250 20/18
                        Q1013 BECMG CAVOK=
200805010830 METAR LMML NIL=
200805010815 METAR LMML 010815Z 09011KT 6000 BR FEW005 BKN250 19/18 Q1013
                        BECMG CAVOK=
200805010800 METAR LMML NIL=
200805010745 METAR LMML 010745Z 10010KT 6000 FEW006 SCT120 BKN250 19/18
                        Q1013 NOSIG=
200805010730 METAR LMML NIL=
200805010715 LMML 010715Z 08008KT 350V130 4000 BR BKN004 18/18 Q1013 BECMG
                        6000 BKN006=
200805010700 METAR LMML NIL=
200805010645 METAR LMML 010645Z 08009KT 060V120 3000 BR BKN003 17/17 Q1012
                        BECMG 6000 BKN006=
200805010630 METAR LMML NIL=
200805010615 METAR LMML 010615Z 09009KT 060V130 3000 BR BKN003 BKN250
                        17/17 Q1012 NOSIG=
200805010600 METAR LMML NIL=
200805010545 METAR LMML 010545Z 07009KT 2500 BR BKN002 BKN250 17/17 Q1012
                        BECMG 3000=
200805010530 METAR LMML NIL=
200805010515 METAR LMML 010515Z 07008KT 1900 BR BKN002 BKN250 17/17 Q1012
                        TEMPO 1500=
200805010500 METAR LMML NIL=
200805010445 METAR LMML 010445Z 06008KT 020V100 1800 BR BKN001 BKN250
                        16/16 Q1012 TEMPO 1500=
200805010430 METAR LMML NIL=
200805010415 METAR LMML 010415Z 06007KT 030V090 1600 BR OVC001 16/16 Q1012
                        TEMPO 1500=
200805010400 METAR LMML NIL=
200805010345 METAR LMML 010345Z 06006KT 030V090 1600 BR BKN001 16/16 Q1012
                        TEMPO 1500=
200805010330 METAR LMML NIL=
200805010315 METAR LMML 010315Z 06006KT 020V090 1600 BR BKN001 17/17 Q1012
                        TEMPO 1500=
200805010300 METAR LMML NIL=
200805010245 METAR LMML 010245Z 07005KT 030V100 2000 BR BKN001 16/16 Q1012
                        TEMPO 1500=
200805010230 METAR LMML NIL=
200805010215 METAR LMML 010215Z 07006KT 040V100 0800 R14/P1500N FG BKN001
                        16/16 Q1012 TEMPO 0600 FG=
200805010200 METAR LMML NIL=
200805010145 METAR LMML 010145Z 05006KT 020V090 0800 R14/P1500N FG OVC001
                        17/17 Q1011 TEMPO 0600 FG=
200805010130 METAR LMML NIL=
200805010115 METAR LMML 010115Z 06006KT 020V090 0800 R14/P1500N FG BKN001
                        17/17 Q1011 TEMPO 1500 BKN001=
200805010100 LMML 010100Z 06005KT 030V090 0900 R14/P1500N FG BKN001 17/17
                        Q1011 TEMPO 0600 FG=
200805010100 METAR LMML NIL=
200805010045 METAR LMML 010045Z 07006KT 030V110 2000 BR BKN001 17/17 Q1011
                        TEMPO 1500 BKN001=
200805010030 METAR LMML NIL=
200805010015 METAR LMML 010015Z 07007KT 040V100 3000 BR BKN001 17/17 Q1011
                        TEMPO 1500 BKN001=
200805010000 METAR LMML NIL=

###################################
#  short TAF from LMML
###################################
200805312300 TAF LMML 312300Z 010009 09006KT CAVOK=
200805312000 TAF LMML 312000Z 312106 09005KT CAVOK=
200805311700 TAF LMML 311700Z 311803 VRB03KT CAVOK=
200805311400 TAF LMML 311400Z 311524 33006KT CAVOK=
200805311100 TAF LMML 311100Z 311221 33008KT CAVOK=
200805310800 TAF LMML 310800Z 310918 33008KT CAVOK=
200805310500 TAF LMML 310500Z 310615 VRB03KT CAVOK=
200805310200 TAF LMML 310200Z 310312 VRB03KT CAVOK
                      PROB30 TEMPO 0305 8000=
200805302300 TAF LMML 302300Z 310009 VRB03KT CAVOK
                      PROB30 TEMPO 0305 8000=
200805302000 TAF LMML 302000Z 302106 VRB03KT CAVOK
                      PROB30 TEMPO 0105 8000=
200805301700 TAF LMML 301700Z 301803 29005KT CAVOK
                      PROB30 TEMPO 0103 8000=
200805301400 TAF LMML 301400Z 301524 31008KT CAVOK=
200805301100 TAF LMML 301100Z 301221 33007KT CAVOK=
200805300800 TAF LMML 300800Z 300918 32010KT CAVOK=
200805300500 TAF LMML 300500Z 300615 31010KT CAVOK=
200805300200 TAF LMML 300200Z 300312 30007KT CAVOK
                      PROB30 TEMPO 0305 9000 NSC=
200805292300 TAF LMML 292300Z 300009 31009KT CAVOK=
200805292000 TAF LMML 292000Z 292106 31009KT CAVOK=
200805291700 TAF LMML 291700Z 291803 33015G25KT CAVOK
                      PROB30 TEMPO 1803 8000 SCT008=
200805291400 TAF LMML 291400Z 291524 31015KT CAVOK
                      BECMG 1619 01015G25KT FEW012
                      PROB30 TEMPO 1806 8000 BKN008=
200805291100 TAF LMML 291100Z 291221 31013KT 9999 FEW013
                      BECMG 1417 31015G25KT=
200805290800 TAF LMML 290800Z 290918 16015KT CAVOK
                      BECMG 0912 29015KT
                      PROB30 TEMPO 0912 SCT008 SCT013=
200805290500 TAF LMML 290500Z 290615 15012KT CAVOK
                      BECMG 0912 29015KT
                      PROB30 TEMPO 0912 SCT008 SCT012=
200805290200 TAF LMML 290200Z 290312 12015KT CAVOK
                      PROB30 TEMPO 0306 8000 TSRA SCT008 BKN013
                       BKN060
                      BECMG 1012 30015KT=
200805282300 TAF LMML 282300Z 290009 12015G25KT CAVOK=
200805282000 TAF LMML 282000Z 282106 10015G25KT CAVOK
                      PROB30 TEMPO 2106 8000 TSRA FEW012 BKN060CB=
200805281700 TAF LMML 281700Z 281803 10014KT 9999 FEW011 BKN100
                      PROB30 TEMPO 1803 8000 TSRA BKN070CB=
200805281400 TAF LMML 281400Z 281524 11018G28KT CAVOK
                      BECMG 1720 12014KT 9999 FEW011 SCT100
                      PROB30 TEMPO 1724 8000 TSRA BKN060CB=
200805281100 TAF LMML 281100Z 281221 10017G27KT CAVOK
                      BECMG 1720 12014KT=
200805280800 TAF LMML 280800Z 280918 10017KT CAVOK
                      BECMG 0911 10017G27KT=
200805280500 TAF LMML 280500Z 280615 10016KT CAVOK=
200805280200 TAF LMML 280200Z 280312 09015KT CAVOK=
200805272300 TAF LMML 272300Z 280009 09011KT CAVOK
                      PROB30 TEMPO 0006 8000 NSC=
200805272000 TAF LMML 272000Z 272106 09012KT CAVOK
                      PROB30 TEMPO 0006 8000 NSC=
200805271700 TAF LMML 271700Z 271803 10015KT CAVOK
                      PROB30 TEMPO 1803 8000 NSC=
200805271400 TAF LMML 271400Z 271524 10018KT CAVOK
                      PROB30 TEMPO 2024 8000 NSC=
200805271100 TAF LMML 271100Z 271221 10018G28KT CAVOK
                      PROB30 TEMPO 1221 8000 NSC=
200805270800 TAF LMML 270800Z 270918 10018G28KT CAVOK
                      PROB30 TEMPO 0918 9000=
200805270500 TAF LMML 270500Z 270615 10014KT CAVOK
                      BECMG 0609 10017G27KT=
200805270200 TAF LMML 270200Z 270312 10014KT CAVOK
                      PROB30 TEMPO 0306 9000 NSC
                      BECMG 0609 10017G27KT=
200805262300 TAF LMML 262300Z 270009 10013KT CAVOK
                      PROB30 TEMPO 0006 9000 NSC
                      BECMG 0609 10017G27KT=
200805262000 TAF LMML 262000Z 262106 10014KT CAVOK
                      PROB30 TEMPO 0006 9000 NSC=
200805261700 TAF LMML 261700Z 261803 10017KT CAVOK=
200805261400 TAF LMML 261400Z 261524 10015G25KT CAVOK=
200805261100 TAF LMML 261100Z 261221 10015G25KT CAVOK=
200805260800 TAF LMML 260800Z 260918 09015KT CAVOK
                      PROB30 TEMPO 1116 09015G25KT=
200805260500 TAF LMML 260500Z 260615 10015KT CAVOK=
200805260200 TAF LMML 260200Z 260312 11015KT CAVOK=
200805252300 TAF LMML 252300Z 260009 11015KT CAVOK
                      PROB 30
                      TEMPO 0305 8000 SCT008=
200805252000 TAF LMML 252000Z 252106 12013KT CAVOK
                      PROB30 TEMPO 0204 8000 BKN008=
200805251700 TAF LMML 251700Z 251803 10012KT CAVOK
                      PROB30 TEMPO 0003 8000 BKN007=
200805251400 TAF LMML 251400Z 251524 11012KT CAVOK
                      PROB30 TEMPO 2124 9000 SCT008=
200805251100 TAF LMML 251100Z 251221 10012KT CAVOK=
200805250800 TAF LMML 250800Z 250918 13012KT CAVOK=
200805250500 TAF LMML 250500Z 250615 13012KT CAVOK=
200805250200 TAF LMML 250200Z 250312 14012KT CAVOK=
200805242300 TAF LMML 242300Z 250009 12006KT CAVOK=
200805242000 TAF LMML 242000Z 242106 12006KT CAVOK=
200805241700 TAF LMML 241700Z 241803 14010KT CAVOK=
200805241400 TAF LMML 241400Z 241524 14012KT CAVOK=
200805241100 TAF LMML 241100Z 241221 13012KT CAVOK=
200805240800 TAF LMML 240800Z 240918 13012KT CAVOK=
200805240500 TAF LMML 240500Z 240615 13006KT CAVOK=
200805240200 TAF LMML 240200Z 240312 15005KT CAVOK
                      PROB30 TEMPO 0304 8000 FEW003=
200805232300 TAF LMML 232300Z 240009 15005KT CAVOK
                      PROB30 TEMPO 0004 7000 FEW003=
200805232000 TAF LMML 232000Z 232106 18004KT CAVOK
                      PROB30 TEMPO 2304 7000 FEW003=
200805231700 TAF LMML 231700Z 231803 16005KT CAVOK
                      PROB30 TEMPO 2103 8000 FEW008=
200805231400 TAF LMML 231400Z 231524 15005KT CAVOK
                      PROB30 TEMPO 2124 8000 FEW008=
200805231100 TAF LMML 231100Z 231221 VRB03KT CAVOK
                      PROB30 TEMPO 1821 9000 FEW008=
200805230800 TAF LMML 230800Z 230918 VRB03KT CAVOK=
200805230553 TAF LMML 230553Z 230615 VRB03KT 9999 FEW011 SCT080
                      BECMG 0710 CAVOK=
200805230500 LMML NIL=
200805230200 TAF LMML 230200Z 230312 VRB03KT CAVOK
                      BECMG 0306 9999 FEW011 SCT090
                      PROB30 TEMPO 0305 7000 BKN005=
200805222300 TAF LMML 222300Z 230009 23006KT CAVOK
                      TEMPO 0005 9000 FEW010
                      PROB30 TEMPO 0004 5000 BR BKN005
                      BECMG 0407 9999 FEW013 SCT080=
200805222000 TAF LMML 222000Z 222106 VRB03KT CAVOK
                      TEMPO 2106 9000 FEW011
                      PROB30 TEMPO 0005 5000 BR BKN005=
200805221700 TAF LMML 221700Z 221803 VRB03KT CAVOK
                      PROB30 TEMPO 0203 5000 BR=
200805221400 TAF LMML 221400Z 221524 18005KT 9999 FEW030=
200805221100 TAF LMML 221100Z 221221 26005KT 9999 FEW030=
200805220800 TAF LMML 220800Z 220918 24006KT 9999 FEW025=
200805220500 TAF LMML 220500Z 220615 27007KT CAVOK=
200805220200 TAF LMML 220200Z 220312 27005KT CAVOK=
200805212300 TAF LMML 212300Z 220009 VRB03KT CAVOK=
200805212000 TAF LMML 212000Z 212106 VRB03KT CAVOK=
200805211700 TAF LMML 211700Z 211803 28006KT 9999 FEW020
                      BECMG 1820 CAVOK=
200805211400 TAF LMML 211400Z 211524 28007KT 9999 FEW025
                      BECMG 2124 CAVOK=
200805211100 TAF LMML 211100Z 211221 28010KT 9999 FEW030
                      BECMG 1215 VRB06KT=
200805210800 TAF LMML 210800Z 210918 33010KT 9999 FEW025 SCT100
                      BECMG 1316 26005KT CAVOK=
200805210500 TAF LMML 210500Z 210615 30010KT CAVOK
                      PROB30 TEMPO 0615 FEW030=
200805210200 LMML 210200Z 210312 29006KT CAVOK
                      PROB30 TEMPO 0312 FEW030=
200805202300 TAF LMML 202300Z 210009 30006KT 9999 FEW030=
200805202000 TAF LMML 202000Z 202106 VRB03KT 9999 FEW030
                      BECMG 0306 30006KT=
200805201700 TAF LMML 201700Z 201803 23008KT 9999 FEW018 SCT030
                      BECMG 2124 31010KT=
200805201400 TAF LMML 201400Z 201524 21006KT 9999 FEW018 SCT035
                      BECMG 2124 31010KT
                      TEMPO 2124 BKN018=
200805201100 TAF LMML 201100Z 201221 20007KT 9999 FEW018=
200805200800 TAF LMML 200800Z 200918 20006KT 9999 FEW020=
200805200500 TAF LMML 200500Z 200615 27007KT 9999 FEW015
                      BECMG 0811 18005KT=
200805200200 TAF LMML 200200Z 200312 27010KT 9999 FEW020 SCT040
                      BECMG 0811 18005KT=
200805192300 TAF LMML 192300Z 200009 28008KT 9999 FEW020 SCT035=
200805192000 TAF LMML 192000Z 192106 29008KT CAVOK
                      PROB30 TEMPO 2106 SCT010=
200805191700 TAF LMML 191700Z 191803 29012KT 9999 FEW012
                      PROB30 TEMPO 2303 8000 BKN008=
200805191400 TAF LMML 191400Z 191524 28015G25KT 7000 SCT012
                      BECMG 1518 29012KT 9999
                      PROB30 TEMPO 1524 8000 BKN008=
200805191100 TAF LMML 191100Z 191221 28015KT 7000 FEW011
                      BECMG 1518 9999 SCT011=
200805190800 TAF LMML 190800Z 190918 09010KT 7000 HZ SCT011
                      BECMG 1013 28015KT 9999
                      PROB30 TEMPO 1013 BKN011
                      PROB30 TEMPO 1718 9000 BKN011=
200805190500 TAF LMML 190500Z 190615 12010KT 5000 BR BKN030
                      BECMG 0710 20015KT 8000 SCT013
                      BECMG 1215 28017G27KT 9999
                      TEMPO 1215 BKN011=
200805190200 TAF LMML 190200Z 190312 08012KT 2000 BR BKN002
                      PROB30 TEMPO 0800 FG
                      BECMG 0709 20015KT 8000 SCT013=
200805182300 TAF LMML 182300Z 190009 08013KT 8000 SCT011
                      TEMPO 0007 5000 BR BKN005
                      BECMG 0709 20015KT 9999=
200805182000 TAF LMML 182000Z 182106 06010KT 9999 SCT011
                      TEMPO 2106 5000 BR BKN005=
200805181700 TAF LMML 181700Z 181803 07012KT 9999 FEW013
                      PROB30 TEMPO 1803 6000 BKN009=
200805181400 TAF LMML 181400Z 181524 07010KT 9999 FEW013
                      PROB30 TEMPO 1824 6000 BKN009=
200805181100 TAF LMML 181100Z 181221 04010KT 9999 FEW013=
200805180800 TAF LMML 180800Z 180918 04010KT 9999 FEW012=
200805180500 TAF LMML 180500Z 180615 06012KT 9999 FEW015=
200805180200 TAF LMML 180200Z 180312 06012KT 9999 FEW012
                      TEMPO 0306 7000
                      PROB30 TEMPO 0306 5000 BKN008=
200805172300 TAF LMML 172300Z 180009 09012KT 9000 FEW010
                      TEMPO 0006 7000
                      PROB30 TEMPO 0006 5000 BKN008=
200805172000 TAF LMML 172000Z 172106 10015KT 9000 FEW010
                      TEMPO 2106 8000 SCT008
                      PROB30 TEMPO 2106 6000 BKN008=
200805171700 TAF LMML 171700Z 171803 12015G25KT 9999 FEW015
                      BECMG 1922 09010KT
                      PROB30 TEMPO 2203 8000 BKN008=
200805171400 TAF LMML 171400Z 171524 12025KT 9999 FEW015
                      BECMG 1922 09015G25KT
                      PROB30 TEMPO 2024 BKN008=
200805171100 TAF LMML 171100Z 171221 13025KT CAVOK
                      BECMG 1921 09015G25KT=
200805170800 TAF LMML 170800Z 170918 12025KT 9999 FEW020=
200805170500 TAF LMML 170500Z 170615 09015KT 9999 FEW008 BKN110
                      PROB30 TEMPO 0609 8000 TSRA BKN060CB
                      BECMG 0609 09015G25KT=
200805170200 TAF LMML 170200Z 170312 10015KT 9999 SCT007 BKN120
                      PROB30 TEMPO 0309 8000 TSRA BKN007 BKN060CB
                       BECMG 0309 10015G25KT=
200805162300 TAF LMML 162300Z 170009 11015KT 9999 SCT005 BKN120
                      TEMPO 0009 8000 RA BKN005
                      BECMG 0508 10015G25KT=
200805162000 TAF LMML 162000Z 162106 11013KT 9999 SCT005 SCT120 BKN250
                      PROB30 TEMPO 2106 8000 RA BKN005
                      BECMG 0306 10015G25KT=
200805161700 TAF LMML 161700Z 161803 13015KT 9999 FEW009
                      TEMPO 2103 13015G25KT SCT009=
200805161400 TAF LMML 161400Z 161524 14015KT 9999 FEW012
                      TEMPO 2024 14015G25KT SCT012=
200805161100 TAF LMML 161100Z 161221 14015KT CAVOK=
200805160800 TAF LMML 160800Z 160918 15010KT CAVOK=
200805160500 TAF LMML 160500Z 160615 16007KT CAVOK=
200805160200 TAF LMML 160200Z 160312 16007KT CAVOK
                      TEMPO 0306 9999 FEW011
                      PROB30 TEMPO 0306 5000 BR BKN003=
200805152300 TAF LMML 152300Z 160009 17005KT CAVOK
                      TEMPO 0006 9999 FEW011
                      PROB30 TEMPO 0005 5000 BR BKN003=
200805151700 TAF LMML 151700Z 151803 17005KT CAVOK
                      PROB30 TEMPO 0003 8000 SCT005=
200805151400 TAF LMML 151400Z 151524 19008KT 9999 FEW025
                      PROB30 TEMPO 2124 7000 BK007=
200805151200 TAF LMML 151200Z 151221 16008KT 9999 FEW020=
200805151100 LMML 151100Z 151221 16008KT 9999 FEW020=
200805150500 TAF LMML 150500Z 150615 VRB03KT 9999 FEW012
                      BECMG 0710 CAVOK=
200805150200 TAF LMML 150200Z 150312 27005KT 9999 FEW012
                      PROB30 TEMPO 0306 8000 BKN008=
200805142300 TAF LMML 142300Z 150009 28008KT 9999 FEW012
                      PROB30 TEMPO 0006 8000 BKN008=
200805142000 TAF LMML 142000Z 142106 28008KT 9999 FEW012
                      PROB30 TEMPO 2106 8000 BKN008=
200805141700 TAF LMML 141700Z 141803 29010KT 9999 FEW018
                      PROB30 TEMPO 2003 9000 BKN010=
200805141400 TAF LMML 141400Z 141524 29016KT 9999 SCT020
                      TEMPO 1524 BKN015
                      PROB30 TEMPO 1824 9000 BKN008
                      BECMG 2124 28006KT=
200805141100 TAF LMML 141100Z 141221 29015KT 9999 SCT020
                      TEMPO 1421 BKN015=
200805140800 TAF LMML 140800Z 140918 28015KT 9999 SCT020
                      TEMPO 0912 8000 SHRA BKN015
                      PROB30 TEMPO 1418 BKN013=
200805140500 TAF LMML 140500Z 140615 29015KT 9999 SCT015=
200805140200 TAF LMML 140200Z 140312 30015KT 9999 SCT015=
200805132300 TAF LMML 132300Z 140009 31015KT 9999 SCT012
                      PROB30 TEMPO 0006 9000 BKN012=
200805132000 TAF LMML 132000Z 132106 31015KT 9999 SCT012
                      PROB30 TEMPO 2106 8000 SHRA BKN010=
200805131700 TAF LMML 131700Z 131803 31012KT 9999 FEW020=
200805131400 TAF LMML 131400Z 131524 30012KT 9999 SCT020
                      PROB30 TEMPO 0308 9000 BKN015=
200805131100 TAF LMML 131100Z 131221 32010KT 9999 SCT017
                      PROB30 TEMPO 1215 BKN015=
200805130800 TAF LMML 130800Z 130918 06008KT 9999 SCT012
                      PROB30 TEMPO 0911 BKN015
                      BECMG 1114 33010KT=
200805130500 TAF LMML 130500Z 130615 08008KT 8000 SCT008 BKN012 BKN130
                      PROB30 TEMPO 0612 BKN008
                      BECMG 1518 30010KT 9999 SCT013=
200805130200 TAF LMML 130200Z 130312 09008KT 8000 SCT007 BKN012
                      TEMPO 0306 5000 RA BKN005
                      PROB30 TEMPO 0612 BKN007=
200805122300 TAF LMML 122300Z 130009 09010KT 9999 SCT007 BKN012
                      PROB30 TEMPO 0006 5000 RA BKN005=
200805122000 TAF LMML 122000Z 122106 09015KT 8000 SCT008 BKN012 SCT120
                      TEMPO 2106 5000 RA BKN005=
200805121700 TAF LMML 121700Z 121803 09015G25KT 9000 SCT010 SCT022
                      TEMPO 1803 7000 BKN009 BKN020=
200805121400 TAF LMML 121400Z 121524 09015G25KT 9999 SCT010 SCT027
                      TEMPO 1524 8000 BKN010=
200805121100 TAF LMML 121100Z 121221 09015G25KT 9999 SCT012 SCT025
                      TEMPO 1221 9000 BKN012
                      PROB30 TEMPO 1215 7000 RA BKN010=
200805120800 TAF LMML 120800Z 120918 09015G25KT 9999 FEW012 SCT025
                      TEMPO 0918 8000 SCT012
                      PROB30 0918 7000 RA BKN010=
200805120600 LMML 120600Z 120615 09015G25KT 9999 SCT013 SCT025
                      TEMPO 0612 BKN013=
200805120500 TAF LMML 120500Z 121221 09017G27KT 9999 SCT013
                      PROB40 TEMPO 1212 8000 BKN011=
200805120200 TAF LMML 120200Z 120312 07015G25KT 9000 BKN012
                      PROB30 TEMPO 0306 BKN009
                      TEMPO 0312 9999 SCT012=
200805112300 TAF LMML 112300Z 120009 07015KT 9000 BKN012
                      PROB30 TEMPO 0006 BKN009
                      PROB30 TEMPO 0009 9999 SCT012=
200805112000 TAF LMML 112000Z 112106 07015KT 9999 BKN011
                      TEMPO 2106 8000 BKN009
                      PROB30 TEMPO 2106 SCT011=
200805111700 TAF LMML 111700Z 111803 08010KT 9999 SCT013
                      PROB40 TEMPO 1803 5000 BR BKN005=
200805111400 TAF LMML 111400Z 111524 08010KT 9000 BKN015
                      PROB40 TEMPO 1524 5000 BKN008=
200805111100 TAF LMML 111100Z 111221 07013KT 9000 BKN012
                      PROB30 TEMPO 1621 5000 RA BKN005=
200805110800 TAF LMML 110800Z 110918 06015KT 9000 SCT008
                      PROB40 TEMPO 0918 BKN008=
200805110500 TAF LMML 110500Z 110615 02014KT 5000 BKN005
                      BECMG 0609 08011KT 9999 SCT015
                      TEMPO 0615 9000 -RA BKN013=
200805110200 TAF LMML 110200Z 110312 02014KT 5000 BKN005
                      BECMG 0306 9000 BKN008
                      BECMG 0710 08010KT 9999 SCT015=
200805102300 TAF LMML 102300Z 110009 02015G25KT 5000 BR BKN005
                      BECMG 0002 02015KT 9999 SCT011
                      TEMPO 0006 9000 BKN008
                      PROB30 TEMPO 0005 3000 BR BKN003
                      BECMG 0508 08010KT=
200805102000 TAF LMML 102000Z 102106 02021G35KT 2000 -RA OVC002 BKN011
                      BECMG 2124 9999 SCT011
                      PROB30 TEMPO 0006 5000 BR BKN006
                      BECMG 0003 03016KT=
200805101700 TAF LMML 101700Z 101803 05015KT 8000 BKN009=
200805101400 TAF LMML 101400Z 101524 05017G27KT 9000 BKN013
                      TEMPO 1524 BKN007=
200805101200 LMML 101200Z 101221 09020G32KT 9999 BKN015
                      TEMPO 1218 SCT015
                      BECMG 1518 05017G27KT
                      PROB30 TEMPO 1521 8000 BKN009=
200805101100 TAF LMML 101100Z 101221 09020G32KT 9999 FEW025
                      BECMG 1518 05017G27KT
                      BECMG 1518 BKN015
                      PROB30 TEMPO 1521 8000 BKN009=
200805100900 LMML 100900Z 100918 09023G35KT 9999 FEW020
                      TEMPO 0915 CAVOK
                      PROB30 TEMPO 1518 BKN010=
200805100800 TAF LMML 100800Z 100918 09023G35KT CAVOK
                      TEMPO 1218 FEW013=
200805100500 TAF LMML 100500Z 100615 08018G28KT 9999 SCT015
                      TEMPO 0612 08025G35KT=
200805100200 TAF LMML 100200Z 100312 09018G28KT 9999 SCT012
                      TEMPO 0312 09025G35KT
                      PROB30 TEMPO 0305 7000 RA BKN012=
200805092335 LMML 092335Z 100009 09018G28KT 9999 SCT012
                      TEMPO 2306 09025G35KT BKN012
                      PROB30 TEMPO 0006 9000 RA=
200805092300 TAF LMML 092300Z 100009 09018G28KT 9999 SCT012
                      TEMPO 2306 09025G35KT BKN012
                      PROB30 0006 9000 RA=
200805092015 LMML 092015Z 092106 10018G28KT 9999 SCT012
                      TEMPO 2306 10025G35KT
                      PROB30 TEMPO 0005 9000 RA BKN010=
200805092000 TAF LMML 092000Z 092106 10018G28KT 9999 SCT012
                      TEMPO 2306 10025G35KT
                      PROB30 0005 9000 RA BKN010=
200805091700 TAF LMML 091700Z 091803 11018KT 9999 SCT013
                      TEMPO 1803 BKN011
                      PROB30 TEMPO 1803 8000 BKN008
                      BECMG 1821 10020G30KT=
200805091400 TAF LMML 091400Z 091524 11020G30KT 9999 SCT015
                      TEMPO 1524 BKN012
                      PROB30 TEMPO 1724 9000 BKN010
                      BECMG 1821 08023G35KT=
200805091100 TAF LMML 091100Z 091221 11017KT 9999 SCT018 SCT120
                      TEMPO 1221 9000 SHRA BKN015
                      PROB30 TEMPO 1215 5000 TSRA BKN015 BKN060CB
                       BECMG 1417 10020G30KT=
200805090800 TAF LMML 090800Z 090918 10018KT 9999 SCT018 SCT100
                      TEMPO 0918 9000 SHRA BKN015
                      PROB30 TEMPO 0915 5000 TSRA BKN015 BKN060CB
                       BECMG 1114 10020G30KT=
200805090500 TAF LMML 090500Z 090615 12015KT 9999 FEW020 SCT120
                      BECMG 1215 10025KT=
200805090200 TAF LMML 090200Z 090312 12012KT 9999 FEW020 SCT100
                      PROB30 TEMPO 0312 BKN028 BKN100=
200805082300 TAF LMML 082300Z 090009 11010KT CAVOK
                      TEMPO 0009 FEW020=
200805082000 TAF LMML 082000Z 082106 10010KT CAVOK
                      PROB30 TEMPO 2106 FEW020=
200805081700 TAF LMML 081700Z 081803 10015KT 9999 SCT020=
200805081400 TAF LMML 081400Z 081524 11015KT 9999 SCT020=
200805081100 TAF LMML 081100Z 081221 11015KT 9999 SCT022=
200805080800 TAF LMML 080800Z 080918 10015KT 9999 FEW020=
200805080500 TAF LMML 080500Z 080615 09012KT 9999 FEW020=
200805080200 TAF LMML 080200Z 080312 09010KT 9999 SCT018
                      PROB30 TEMPO 0306 BKN015=
200805072300 TAF LMML 072300Z 080009 08006KT 9999 SCT016
                      PROB30 TEMPO 0009 8000 BKN013=
200805072000 TAF LMML 072000Z 072106 07006KT 9999 SCT020
                      PROB30 TEMPO 2106 BKN015=
200805071700 TAF LMML 071700Z 071803 VRB03KT 9999 SCT020
                      PROB30 TEMPO 2103 9000 BKN012
                      BECMG 0003 08010KT=
200805071610 LMML 071610Z 171524 20006KT 9999 SCT020
                      PROB30 TEMPO 2124 9000 BKN012=
200805071400 LMML 071400Z 171524 20006KT 9999 SCT020
                      PROB30 TEMPO 2124 9000 BKN012=
200805071100 TAF LMML 071100Z 071221 20005KT 9999 SCT018=
200805070800 TAF LMML 070800Z 070918 13005KT 9999 SCT018=
200805070500 TAF LMML 070500Z 070615 27005KT 9999 FEW025=
200805070200 TAF LMML 070200Z 070312 VRB03KT 9999 FEW015
                      TEMPO 0307 8000
                      PROB30 TEMPO 0306 5000 BR BKN010=
200805062300 TAF LMML 062300Z 070009 VRB03KT 9999 FEW015 SCT040
                      TEMPO 0006 8000
                      PROB30 TEMPO 0006 5000 BR BKN010=
200805062000 TAF LMML 062000Z 062106 VRB03KT 9999 FEW015
                      TEMPO 2206 8000
                      PROB30 TEMPO 0006 5000 BR BKN010=
200805061700 TAF LMML 061700Z 061803 VRB03KT 9999 FEW015
                      TEMPO 2203 8000
                      PROB30 TEMPO 0003 5000 BR BKN010=
200805061400 TAF LMML 061400Z 061524 18005KT CAVOK
                      PROB30 TEMPO 2024 8000 FEW015=
200805061100 TAF LMML 061100Z 061221 18005KT CAVOK
                      PROB30 TEMPO 1221 FEW012=
200805060800 TAF LMML 060800Z 060918 18005KT 9999 FEW015=
200805060500 TAF LMML 060500Z 060615 19005KT CAVOK
                      TEMPO 9999 FEW015 SCT080=
200805060200 TAF LMML 060200Z 060312 VRB03KT CAVOK
                      PROB30 TEMPO 0306 8000=
200805052300 TAF LMML 052300Z 060009 VRB03KT CAVOK
                      PROB30 TEMPO 0006 8000=
200805052000 TAF LMML 052000Z 052106 18004KT CAVOK
                      PROB30 TEMPO 0006 8000=
200805051700 TAF LMML 051700Z 051803 18005KT CAVOK=
200805051400 TAF LMML 051400Z 051524 17005KT CAVOK=
200805051100 TAF LMML 051100Z 051221 14008KT CAVOK=
200805050800 TAF LMML 050800Z 050918 09005KT CAVOK=
200805050500 TAF LMML 050500Z 050615 15006KT CAVOK=
200805050200 TAF LMML 050200Z 050312 VRB03KT CAVOK
                      PROB30 TEMPO 0306 5000 MIFG FEW005=
200805042300 TAF LMML 042300Z 050009 VRB02KT CAVOK
                      PROB30 TEMPO 0006 5000 MIFG FEW005=
200805042000 TAF LMML 042000Z 042106 VRB03KT CAVOK
                      PROB30 TEMPO 0006 5000 MIFG FEW005=
200805041700 TAF LMML 041700Z 041803 VRB03KT CAVOK
                      PROB30 TEMPO 0003 7000=
200805041400 TAF LMML 041400Z 041524 VRB03KT CAVOK=
200805041100 TAF LMML 041100Z 041221 VRB03KT CAVOK=
200805040800 TAF LMML 040800Z 040918 VRB03KT CAVOK=
200805040500 TAF LMML 040500Z 040615 VRB03KT CAVOK=
200805040200 TAF LMML 040200Z 040312 31004KT CAVOK
                      PROB30 TEMPO 0305 4000 BR SCT004=
200805032300 TAF LMML 032300Z 040009 VRB03KT CAVOK
                      TEMPO 0006 8000
                      PROB30 TEMPO 0205 4000 BR SCT004=
200805032000 TAF LMML 032000Z 032106 03004KT CAVOK
                      PROB30 TEMPO 0005 4000 BR SCT004=
200805031700 TAF LMML 031700Z 031803 07008KT 9999 FEW005
                      TEMPO 2103 6000 BKN004
                      PROB30 TEMPO 0003 3000 BR BKN003=
200805031400 TAF LMML 031400Z 031524 05010KT CAVOK
                      BECMG 1518 9999 SCT007
                      PROB30 TEMPO 1824 8000 BKN006=
200805031100 TAF LMML 031100Z 031221 04010KT CAVOK
                      BECMG 1518 8000 SCT007
                      PROB30 TEMPO 1821 BKN006=
200805030800 TAF LMML 030800Z 030918 04010KT 9000 SCT140
                      BECMG 0911 CAVOK
                      BECMG 1517 8000 SCT007=
200805030500 TAF LMML 030500Z 030615 06009KT 9000 FEW011
                      BECMG 0811 CAVOK=
200805030200 TAF LMML 030200Z 030312 02007KT 8000 SCT006
                      TEMPO 0306 4000 BR BKN005
                      PROB30 TEMPO 0305 0300 FG BKN001
                      BECMG 0406 08010KT
                      BECMG 0912 9999 FEW015=
200805022300 TAF LMML 022300Z 030009 03008KT 6000 BKN006
                      TEMPO 0006 3000 BR BKN004
                      PROB30 TEMPO 0004 0300 FG BKN001
                      BECMG 0609 9999 FEW015=
200805022000 TAF LMML 022000Z 022106 04007KT 6000 SCT006
                      TEMPO 2106 3000 BR BKN004
                      PROB30 TEMPO 2104 0300 FG BKN001=
200805021830 LMML 021830Z 021803 06010KT 6000 SCT005
                      TEMPO 1803 2000 BR BKN003
                      PROB30 TEMPO 2103 0800 FG BKN001=
200805021700 LMML NIL=
200805021400 TAF LMML 021400Z 021524 04010KT 8000 NSC
                      TEMPO 1624 4000 BR SCT005
                      PROB30 TEMPO 2124 0800 FG BKN001=
200805021100 TAF LMML 021100Z 021221 03010KT CAVOK
                      TEMPO 1621 8000 SCT008
                      PROB40 TEMPO 1821 4000 BR BKN005=
200805020800 TAF LMML 020800Z 020918 04010KT 9999 FEW015
                      PROB30 TEMPO 1618 7000=
200805020500 TAF LMML 020500Z 020615 05010KT 7000 SCT005
                      BECMG 0609 9999 FEW015=
200805020200 TAF LMML 020200Z 020312 05008KT 4000 BR SCT003
                      TEMPO 0306 1500 BCFG BKN002
                      PROB30 TEMPO 0306 0800 FG BKN001
                      BECMG 0609 9999 FEW015=
200805012300 TAF LMML 012300Z 020009 04008KT 4000 BR SCT003
                      TEMPO 0006 1500 BCFG BKN001
                      PROB30 TEMPO 0006 0800 FG
                      BECMG 0609 9999 FEW010=
200805012000 TAF LMML 012000Z 012106 03005KT 4000 BR SCT003
                      TEMPO 2106 1500 BCFG BKN001
                      PROB30 TEMPO 2106 0800 FG=
200805011700 TAF LMML 011700Z 011803 04006KT 8000 FEW011
                      TEMPO 1803 5000 BR BKN007
                      PROB30 TEMPO 2103 0800 FG BKN002=
200805011400 TAF LMML 011400Z 011524 04008KT 8000 SCT011
                      TEMPO 1524 BKN007
                      PROB30 TEMPO 1824 3000 BR BKN003=
200805011100 TAF LMML 011100Z 011221 07008KT 9000 NSC
                      BECMG 1417 SCT010
                      TEMPO 1521 BKN008
                      PROB30 TEMPO 1821 5000 BR BKN005=
200805010800 TAF LMML 010800Z 010918 08010KT 9000 SCT010
                      BECMG 0912 CAVOK
                      PROB30 TEMPO 1518 8000 BKN009=
200805010500 TAF LMML 010500Z 010615 08008KT 5000 BR SCT005
                      BECMG 1215 9000 FEW012=
200805010200 TAF LMML 010200Z 010312 08007KT 5000 BR SCT005
                      TEMPO 0306 0300 FG BKN001=

###################################
#  large TAF from LMML
###################################
200805312300 TAF LMML 312300Z 010606 09012KT CAVOK=
200805311700 TAF LMML 311700Z 010024 VRB03KT CAVOK
                      BECMG 0609 09010KT=
200805311100 TAF LMML 311100Z 311818 VRB02KT CAVOK
                      BECMG 0609 09010KT=
200805310500 TAF LMML 310500Z 311212 VRB03KT CAVOK=
200805302300 TAF LMML 302300Z 310606 VRB03KT CAVOK
                      PROB30 TEMPO 0205 8000 SCT008=
200805301700 TAF LMML 301700Z 310024 VRB03KT CAVOK
                      PROB30 TEMPO 0005 8000=
200805301100 TAF LMML 301100Z 301818 31005KT CAVOK
                      PROB30 TEMPO 0005 8000=
200805300500 TAF LMML 300500Z 301212 31010KT CAVOK
                      BECMG 2302 03005KT=
200805292300 TAF LMML 292300Z 300606 31010KT CAVOK
                      BECMG 0003 01004KT=
200805291700 TAF LMML 291700Z 300024 32015G25KT CAVOK
                      PROB30 TEMPO 0004 8000 SCT008
                      BECMG 0609 32012KT=
200805291100 TAF LMML 291100Z 291818 31015G25KT 9999 FEW012
                      PROB30 TEMPO 1806 8000 BKN008=
200805290500 TAF LMML 290500Z 291212 30015G25KT 9999 SCT012
                      PROB40 TEMPO 1806 8000 BKN005=
200805282300 TAF LMML 282300Z 290606 14010KT CAVOK
                      BECMG 1114 30018KT=
200805281700 TAF LMML 281700Z 290024 11013KT 9999 FEW011 BKN090
                      PROB30 TEMPO 0005 8000 TSRA BKN070CB
                      BECMG 0407 17010KT
                      BECMG 0811 29014KT
                      PROB30 TEMPO 1521 BKN011=
200805281100 TAF LMML 281100Z 281818 10015G25KT CAVOK
                      BECMG 1821 12013KT
                      BECMG 2124 9999 FEW012 SCT100
                      BECMG 0507 18010KT
                      BECMG 0912 29014KT
                      PROB30 TEMPO 1218 BKN011=
200805280500 TAF LMML 280500Z 281212 10017KT CAVOK
                      BECMG 0811 30008KT
                      PROB30 TEMPO 0812 BKN007=
200805272300 TAF LMML 272300Z 280606 10015KT CAVOK
                      PROB30 TEMPO 0006 8000 SHRA FEW009=
200805271700 TAF LMML 271700Z 280024 10012KT CAVOK
                      PROB30 TEMPO 0008 8000 NSC
                      BECMG 0912 10018KT=
200805271100 TAF LMML 271100Z 271818 10013KT CAVOK
                      PROB30 TEMPO 1810 8000 NSC
                      BECMG 0912 10018G28KT=
200805270500 TAF LMML 270500Z 271212 10017G27KT CAVOK
                      BECMG 1720 10013KT
                      PROB30 TEMPO 1806 9000 NSC
                      BECMG 0609 09015G25KT=
200805262300 TAF LMML 262300Z 270606 10014KT CAVOK
                      BECMG 0609 10017G27KT
                      BECMG 1720 10014KT
                      PROB30 TEMPO 2106 9000 NSC=
200805261700 TAF LMML 261700Z 270024 09017KT CAVOK
                      TEMPO 0610 10017G27KT
                      BECMG 1821 08010KT=
200805261100 TAF LMML 261100Z 261818 08015G25KT CAVOK=
200805260500 TAF LMML 260500Z 261212 11015KT CAVOK
                      BECMG 1417 11015G25KT
                      PROB30 TEMPO 0205 8000 BKN008=
200805252300 TAF LMML 252300Z 260606 11015KT CAVOK
                      BECMG 1417 11015G25KT
                      PROB30 TEMPO 0205 8000 BKN008=
200805251700 TAF LMML 251700Z 260024 10011KT CAVOK
                      PROB30 TEMPO 0005 8000 BKN007
                      BECMG 1518 09015G25KT
                      TEMPO 1824 9000 SCT008=
200805251100 TAF LMML 251100Z 251818 10012KT CAVOK
                      PROB30 TEMPO 2105 8000 BKN007=
200805250500 TAF LMML 250500Z 251212 10012KT CAVOK=
200805242300 TAF LMML 242300Z 250606 12010KT CAVOK=
200805241700 TAF LMML 241700Z 250024 12013KT CAVOK=
200805241100 TAF LMML 241100Z 241818 12012KT CAVOK=
200805240500 TAF LMML 240500Z 241212 13007KT CAVOK=
200805232300 TAF LMML 232300Z 240606 09006KT CAVOK
                      PROB30 TEMPO 0004 8000 FEW003=
200805231700 TAF LMML 231700Z 240024 15008KT CAVOK
                      PROB30 TEMPO 2106 8000 FEW008=
200805231100 TAF LMML 231100Z 231818 VRB03KT CAVOK
                      PROB40 TEMPO 1806 5000 MIFG SCT005=
200805230500 TAF LMML 230500Z 231212 14006KT CAVOK
                      TEMPO 1805 9000 FEW008
                      PROB30 TEMPO 0004 5000 BR SCT006=
200805222300 TAF LMML 222300Z 230606 25006KT 9999 FEW013 SCT080
                      BECMG 0912 CAVOK=
200805221700 TAF LMML 221700Z 230024 VRB03KT CAVOK
                      PROB30 TEMPO 0204 5000 BR
                      BECMG 0811 15006KT=
200805221100 TAF LMML 221100Z 221818 VRB03KT CAVOK
                      PROB30 TEMPO 0105 5000 BR=
200805220500 TAF LMML 220500Z 221212 29007KT CAVOK=
200805212300 TAF LMML 212300Z 220606 28008KT CAVOK=
200805211700 TAF LMML 211700Z 220024 26005KT CAVOK=
200805211331 LMML 211331Z 211818 26005KT 9999 FEW020
                      BECMG 2124 CAVOK
                      TEMPO 0005 9000 NSC
                      BECMG 0609 9999 FEW025=
200805211100 TAF LMML 211100Z 211818 26005KT CAVOK
                      TEMPO 0005 9000 NSC
                      BECMG 0609 9999 FEW025=
200805210500 TAF LMML 210500Z 211212 30010KT CAVOK=
200805202300 TAF LMML 202300Z 210606 31010KT 9999 FEW030=
200805201700 TAF LMML 201700Z 210024 31006KT 9999 FEW018 SCT030=
200805201100 TAF LMML 201100Z 201818 20005KT 9999 FEW018
                      BECMG 2100 31012KT=
200805200500 TAF LMML 200500Z 201212 18005KT 9999 FEW020
                      BECMG 0609 29010KT=
200805192300 TAF LMML 192300Z 200606 27010KT 9999 FEW020
                      BECMG 0811 18005KT=
200805191700 TAF LMML 191700Z 200024 29010KT 9999 FEW015
                      PROB30 TEMPO 0005 8000 BKN008=
200805191100 TAF LMML 191100Z 191818 29012KT 9999 SCT011
                      PROB30 TEMPO 2106 8000 BKN008=
200805190500 TAF LMML 190500Z 191212 28017G27KT 9999 SCT013
                      TEMPO 1208 BKN010
                      BECMG 1821 30010KT
                      PROB30 TEMPO 1806 8000 BKN008=
200805182300 TAF LMML 182300Z 190606 VRB03KT 8000 SCT011
                      TEMPO 0606 BKN011
                      BECMG 0710 20015KT 9999
                      BECMG 1013 27015KT=
200805181700 TAF LMML 181700Z 190024 07010KT 9999 SCT013
                      PROB30 TEMPO 0008 6000 BKN009
                      BECMG 1013 27016KT
                      PROB30 TEMPO 1013 BKN012=
200805181100 TAF LMML 181100Z 181818 08012KT 9999 SCT013
                      PROB30 TEMPO 1808 6000 BKN009
                      BECMG 1013 27016KT=
200805180500 TAF LMML 180500Z 181212 05019KT 9999 FEW015
                      TEMPO 2106 7000 SCT006
                      BECMG 0609 28015KT SCT015=
200805172300 TAF LMML 172300Z 180606 06012KT 9999 FEW012
                      BECMG 0003 09015KT
                      PROB30 TEMPO 0006 8000 BKN010=
200805171700 TAF LMML 171700Z 180024 06010KT 9999 FEW015
                      PROB30 TEMPO 0006 8000 BKN008
                      TEMPO 1824 7000 BKN007=
200805171100 TAF LMML 171100Z 171818 12020KT CAVOK
                      BECMG 1922 09015G25KT 9999 FEW010
                      PROB30 TEMPO 0006 8000 BKN008
                      BECMG 0306 06012KT=
200805170500 TAF LMML 170500Z 171212 09015G25KT 9999 SCT011 SCT130
                      BECMG 2124 07010KT
                      PROB30 TEMPO 2106 5000 BR BKN005=
200805162300 TAF LMML 162300Z 170606 10015KT 9999 SCT012 SCT120
                      PROB30 TEMPO 0609 8000 RA BKN005
                      BECMG 0508 10015G25KT
                      BECMG 1518 11010KT
                      PROB30 TEMPO 2106 6000 BKN005=
200805161700 TAF LMML 161700Z 170024 12015KT 9999 SCT015
                      TEMPO 0014 13015G25KT
                      PROB30 TEMPO 0306 9000 BKN009
                      PROB30 TEMPO 0614 BKN015=
200805161100 TAF LMML 161100Z 161818 12015KT CAVOK
                      TEMPO 2016 13015G25KT SCT015
                      PROB30 TEMPO 2106 9000 BKN009=
200805160500 TAF LMML 160500Z 161212 16008KT CAVOK
                      BECMG 1518 10011KT 9999 SCT012
                      TEMPO 1806 9000 BKN009
                      BECMG 0003 10015G25KT
                      PROB30 TEMPO 0309 5000 RA BKN005=
200805152300 TAF LMML 152300Z 160606 16007KT CAVOK
                      BECMG 1518 10013KT 9999 SCT014
                      TEMPO 1806 BKN011
                      BECMG 2124 10015G25KT
                      PROB30 TEMPO 0006 7000 RA BKN006=
200805151700 TAF LMML 151700Z 160024 15005KT 9999 SCT006 SCT200
                      PROB30 TEMPO 0305 6000 BKN005
                      BECMG 2124 11015KT=
200805151100 TAF LMML 151100Z 151818 14005KT 9999 FEW015
                      PROB30 TEMPO 2205 7000 BKN006=
200805150500 TAF LMML 150500Z 151212 15008KT CAVOK
                      PROB30 TEMPO 0105 8000=
200805150237 TAF LMML 150237Z 150606 27010KT 9999 FEW015
                      BECMG 1518 17010KT
                      PROB30 TEMPO 2206 8000 BKN008=
200805142300 LMML 150237Z 150606 27010KT 9999 FEW015
                      BECMG 1518 17010KT
                      PROB30 TEMPO 2206 8000 BKN008=
200805141700 TAF LMML 141700Z 150024 28006KT 9999 SCT013
                      PROB30 TEMPO 0006 9000 BKN010
                      BECMG 1114 CAVOK
                      BECMG 1518 17010KT=
200805141100 TAF LMML 141100Z 141818 28010KT 9999 SCT015
                      TEMPO 1806 BKN012
                      PROB30 TEMPO 0005 9000 BKN008
                      BECMG 1215 CAVOK=
200805140500 TAF LMML 140500Z 141212 29015KT 9999 SCT015=
200805132300 TAF LMML 132300Z 140606 29015KT 9999 SCT015=
200805131700 TAF LMML 131700Z 140024 31015KT 9999 SCT020
                      PROB30 TEMPO 0308 BKN015=
200805131100 TAF LMML 131100Z 131818 30015KT 9999 SCT018
                      PROB30 TEMPO 0012 9000 BKN015=
200805130500 TAF LMML 130500Z 131212 08008KT 8000 SCT007 BKN013
                      BECMG 1518 30010KT 9999 SCT013
                      PROB30 TEMPO 1806 8000 SHRA BKN010=
200805122300 TAF LMML 122300Z 130606 09008KT 7000 SCT007 BKN013 BKN130
                      PROB30 TEMPO 0612 RA BKN006
                      BECMG 1518 30010KT 9999 SCT015=
200805121700 TAF LMML 121700Z 130024 09015G25KT 9000 SCT010 SCT022
                      TEMPO 0024 7000 BKN009 BKN020
                      PROB30 TEMPO 0024 6000 RA
                      BECMG 1215 03010KT=
200805121100 TAF LMML 121100Z 121818 09015G25KT 9999 SCT010 SCT025
                      TEMPO 1818 7000 BKN010=
200805120500 TAF LMML 120500Z 121212 09017G27KT 9999 SCT013
                      PROB40 TEMPO 1212 8000 BKN011=
200805112300 LMML 112300Z 126006 07017G27KT 9999 SCT014
                      TEMPO 0612 BKN011
                      PROB30 TEMPO 1206 BKN012=
200805111700 TAF LMML 111700Z 120024 08010KT 5000 BR BKN005
                      PROB30 TEMPO 0008 3000 BR BKN003
                      PROB30 TEMPO 0312 5000 TSRA BKN003 BKN060CB
                       BECMG 1215 9000 SCT012=
200805111100 TAF LMML 111100Z 111818 09010KT 8000 SCT008
                      PROB40 TEMPO 1810 5000 RA BKN005 BKN080
                      BECMG 1316 09018KT=
200805110500 TAF LMML 110500Z 111212 07011KT 9999 SCT015
                      TEMPO 1224 9000 -RA BKN013
                      PROB30 TEMPO 1806 5000 BKN005=
200805102300 TAF LMML 102300Z 110606 07010KT 9999 SCT015
                      TEMPO 0606 BKN013
                      PROB30 TEMPO 2106 7000 RA BKN005=
200805101700 TAF LMML 101700Z 110024 05015KT 9999 SCT015
                      TEMPO 0007 BKN009
                      TEMPO 0718 BKN015=
200805101100 TAF LMML 101100Z 101818 05017G27KT 9999 SCT015
                      TEMPO 1818 BKN013
                      PROB30 TEMPO 1807 8000 BKN008
                      BECMG 1215 07013KT=
200805100500 TAF LMML 100500Z 101212 07018G28KT 9999 SCT015
                      PROB30 TEMPO 1806 BKN015
                      BECMG 2100 04015KT=
200805092300 TAF LMML 092300Z 100606 09018G28KT 9999 SCT015
                      TEMPO 0612 09025G35KT
                      BECMG 1821 05015KT=
200805091700 TAF LMML 091700Z 100024 10020G30KT 9999 SCT013
                      TEMPO 0006 BKN011
                      PROB30 TEMPO 0005 8000 BKN008
                      BECMG 0609 07025G35KT
                      TEMPO 1524 BKN012
                      BECMG 1821 03015KT=
200805091100 TAF LMML 091100Z 091818 11020G30KT 9999 SCT015
                      PROB30 TEMPO 2106 9000 BKN013
                      BECMG 1922 08023G35KT
                      BECMG 1518 05020G30KT=
200805090500 TAF LMML 090500Z 091212 12020G30KT 9999 FEW020 SCT120=
200805082300 TAF LMML 082300Z 090606 12015G25KT 9999 FEW025 SCT100
                      BECMG 2124 08025G35KT=
200805081700 TAF LMML 081700Z 090024 12015KT 9999 SCT020
                      BECMG 0609 12015G25KT
                      PROB30 TEMPO 0813 8000 RA BKN015
                      BECMG 1417 12025G35KT=
200805081100 TAF LMML 081100Z 081818 12015KT 9999 SCT020
                      BECMG 0609 12015G25KT
                      PROB30 TEMPO 0613 8000 RA BKN015
                      BECMG 1417 12025G35KT=
200805080500 TAF LMML 080500Z 081212 09012KT 9999 FEW020
                      BECMG 0609 12015G25KT=
200805072300 TAF LMML 072300Z 080606 09010KT 9999 SCT018
                      PROB30 TEMPO 1806 BKN015=
200805071700 TAF LMML 071700Z 080024 08010KT 9999 SCT025 BKN250
                      PROB30 TEMPO 0006 9000 BKN012=
200805071100 TAF LMML 071100Z 071818 VRB03KT 9999 SCT015
                      BECMG 0003 08010KT
                      PROB30 TEMPO 2106 8000 BKN012=
200805070500 TAF LMML 070500Z 071212 20005KT 9999 FEW025
                      BECMG 2124 09010KT=
200805062300 TAF LMML 062300Z 070606 27006KT 9999 FEW025
                      BECMG 2124 09010KT
                      PROB30 TEMPO 0006 8000 BKN010=
200805061700 TAF LMML 061700Z 070024 VRB03KT 9999 FEW020
                      TEMPO 0006 8000
                      PROB30 TEMPO 0006 5000 BR BKN010=
200805061100 TAF LMML 061100Z 061818 VRB03KT 9999 FEW012
                      TEMPO 2206 8000
                      PROB30 TEMPO 0007 5000 BR BKN010=
200805060500 TAF LMML 060500Z 061212 20005KT 9999 FEW015 SCT080
                      PROB30 TEMPO 0006 SCT006=
200805052300 TAF LMML 052300Z 060606 19005KT CAVOK
                      PROB40 TEMPO 1606 SCT015 SCT070=
200805051700 TAF LMML 051700Z 060024 18005KT CAVOK
                      PROB40 TEMPO 1424 SCT015 BKN080
                      PROB30 TEMPO 0306 8000=
200805051100 TAF LMML 051100Z 051818 18010KT CAVOK
                      TEMPO 1418 SCT015 BKN080
                      PROB30 TEMPO 0205 8000=
200805050500 TAF LMML 050500Z 051212 15006KT CAVOK
                      PROB30 TEMPO 0306 8000=
200805042300 TAF LMML 042300Z 050606 15006KT CAVOK
                      PROB30 TEMPO 0006 5000 BR SCT008=
200805041700 TAF LMML 041700Z 050024 VRB03KT CAVOK
                      PROB30 TEMPO 0006 7000 SCT005=
200805041100 TAF LMML 041100Z 041818 VRB03KT CAVOK
                      PROB30 TEMPO 0006 7000=
200805040500 TAF LMML 040500Z 041212 VRB03KT CAVOK
                      PROB30 TEMPO 0006 7000=
200805032300 TAF LMML 032300Z 040606 04005KT CAVOK
                      PROB30 TEMPO 2306 8000=
200805031700 TAF LMML 031700Z 040024 07006KT 8000 SCT004
                      PROB30 TEMPO 0005 3000 BR BKN003
                      BECMG 0609 CAVOK
                      TEMPO 2024 7000 SCT005=
200805031100 TAF LMML 031100Z 031818 03006KT 8000 SCT006
                      TEMPO 1806 6000 BKN005
                      PROB30 TEMPO 0205 3000 BR BKN003=
200805030500 TAF LMML 030500Z 031212 07008KT CAVOK
                      BECMG 1518 9999 FEW012
                      TEMPO 1806 8000 BKN006
                      PROB30 TEMPO 1806 3000 BR BKN003=
200805022300 LMML NIL=
200805021830 LMML 021830Z 030024 05010KT 4000 BR SCT004
                      TEMPO 0006 2000 BR BKN003
                      PROB30 TEMPO 0004 0800 FG BKN001
                      BECMG 0609 9999 FEW015=
200805021700 LMML 021700Z 021813 06010KT 6000 SCT005
                      TEMPO 1803 2000 BR BKN003
                      PROB30 TEMPO 2103 0800 FG BKN001=
200805021100 TAF LMML 021100Z 021818 03010KT 8000 SCT008
                      PROB40 TEMPO 1807 4000 BR BKN005
                      PROB30 TEMPO 2105 0800 FG BKN001=
200805020500 TAF LMML 020500Z 021212 06010KT CAVOK
                      TEMPO 2106 3000 BR BKN003
                      BECMG 0609 8000 SCT010=
200805012300 TAF LMML 012300Z 020606 06008KT 7000 SCT005
                      BECMG 0609 9999 FEW015
                      PROB40 TEMPO 0006 5000 BR SCT005=
200805011700 TAF LMML 011700Z 020024 04007KT 8000 SCT010
                      TEMPO 0007 4000 BR BKN006
                      PROB30 TEMPO 0006 0800 FG BKN001
                      BECMG 1013 CAVOK=
200805011100 TAF LMML 011100Z 011818 05006KT 8000 SCT008
                      TEMPO 1806 5000 BR BKN005
                      PROB30 TEMPO 2106 0800 FG BKN002
                      BECMG 0912 NSC=
200805010500 TAF LMML 010500Z 011212 10010KT CAVOK
                      TEMPO 2106 3000 BR BKN003
                      BECMG 0912 03010KT 8000 FEW012=
