##########################################################
# Query made at 01/18/2013 15:57:28 UTC
# Time interval: from 05/01/2010 00:00  to 05/31/2010 23:59  UTC
##########################################################

##########################################################
# LMML, Luqa (Malta)
# WMO index: 16597
# Latitude 35-51N. Longitude 014-29E. Altitude 91 m.
##########################################################

###################################
#  METAR/SPECI from LMML
###################################
201005312345 METAR LMML 312345Z 29023KT CAVOK 18/16 Q1009 NOSIG=
201005312330 METAR LMML NIL=
201005312315 METAR LMML 312315Z 30021G32KT 270V330 CAVOK 18/16 Q1009 NOSIG=
201005312300 METAR LMML NIL=
201005312245 METAR LMML 312245Z 30022KT CAVOK 19/16 Q1009 NOSIG=
201005312230 METAR LMML NIL=
201005312215 METAR LMML 312215Z 30023KT CAVOK 19/15 Q1009 NOSIG=
201005312200 METAR LMML NIL=
201005312145 METAR LMML 312145Z 30019KT 270V330 CAVOK 19/15 Q1009 NOSIG=
201005312130 METAR LMML NIL=
201005312115 METAR LMML 312115Z 30023KT CAVOK 19/15 Q1009 NOSIG=
201005312100 METAR LMML NIL=
201005312045 METAR LMML 312045Z 31027KT CAVOK 19/15 Q1009 NOSIG=
201005312030 METAR LMML NIL=
201005312015 METAR LMML 312015Z 31026KT CAVOK 20/15 Q1009 NOSIG=
201005312000 METAR LMML NIL=
201005311945 METAR LMML 311945Z 30026KT CAVOK 20/15 Q1009 NOSIG=
201005311930 METAR LMML NIL=
201005311915 METAR LMML 311915Z 31027G37KT CAVOK 20/14 Q1008 NOSIG=
201005311900 METAR LMML NIL=
201005311830 METAR LMML NIL=
201005311815 METAR LMML 311815Z 30025G35KT 9999 FEW015 19/16 Q1009 NOSIG=
201005311800 METAR LMML NIL=
201005311730 METAR LMML NIL=
201005311700 METAR LMML NIL=
201005311645 METAR LMML 311645Z 30027G38KT 270V330 9999 FEW015 SCT250
                        21/16 Q1008 NOSIG=
201005311630 METAR LMML NIL=
201005311615 METAR LMML 311615Z 30025G36KT 9999 FEW012 SCT250 21/16 Q1008
                        NOSIG=
201005311600 METAR LMML NIL=
201005311545 METAR LMML 311545Z 30024KT CAVOK 22/16 Q1009 NOSIG=
201005311530 METAR LMML NIL=
201005311515 METAR LMML 311515Z 30024KT CAVOK 22/16 Q1009 NOSIG=
201005311500 METAR LMML NIL=
201005311445 METAR LMML 311445Z 30025KT 9999 FEW012 BKN250 22/16 Q1009
                        NOSIG=
201005311430 METAR LMML NIL=
201005311415 METAR LMML 311415Z 30024KT 9999 FEW012 BKN250 22/16 Q1009
                        NOSIG=
201005311400 METAR LMML NIL=
201005311345 METAR LMML 311345Z 30020G30KT 270V340 9999 FEW012 BKN250
                        23/16 Q1009 NOSIG=
201005311330 METAR LMML NIL=
201005311315 METAR LMML 311315Z 31018KT 280V340 9999 FEW012 BKN250 24/16
                        Q1010 NOSIG=
201005311300 METAR LMML NIL=
201005311245 METAR LMML 311245Z 30020KT 280V350 9999 FEW012 BKN250 23/16
                        Q1010 NOSIG=
201005311230 METAR LMML NIL=
201005311215 METAR LMML 311215Z 31020G30KT 9999 FEW012 BKN250 24/16 Q1010
                        NOSIG=
201005311200 METAR LMML NIL=
201005311145 METAR LMML 311145Z 30022KT CAVOK 23/16 Q1010 NOSIG=
201005311130 METAR LMML NIL=
201005311115 METAR LMML 311115Z 31019KT CAVOK 24/15 Q1011 NOSIG=
201005311100 METAR LMML NIL=
201005311045 METAR LMML 311045Z 32018KT CAVOK 25/14 Q1011 NOSIG=
201005311030 METAR LMML NIL=
201005311015 METAR LMML 311015Z 32019KT CAVOK 24/14 Q1011 NOSIG=
201005311000 METAR LMML NIL=
201005310945 METAR LMML 310945Z 32017KT CAVOK 25/15 Q1011 NOSIG=
201005310930 METAR LMML NIL=
201005310915 METAR LMML 310915Z 32016KT CAVOK 24/14 Q1011 NOSIG=
201005310900 METAR LMML NIL=
201005310845 METAR LMML 310845Z 33014KT CAVOK 24/14 Q1011 NOSIG=
201005310830 METAR LMML NIL=
201005310815 METAR LMML 310815Z 33014KT CAVOK 23/16 Q1011 NOSIG=
201005310800 METAR LMML NIL=
201005310745 METAR LMML 310745Z 34009KT 310V010 9999 FEW015 22/16 Q1011
                        NOSIG=
201005310730 METAR LMML NIL=
201005310715 METAR LMML 310715Z 34010KT 9999 FEW012 22/16 Q1012 NOSIG=
201005310700 METAR LMML NIL=
201005310645 METAR LMML 310645Z 33008KT 300V360 9999 FEW012 21/16 Q1011
                        NOSIG=
201005310630 METAR LMML NIL=
201005310615 METAR LMML 310615Z 33010KT 9999 FEW012 20/16 Q1011 NOSIG=
201005310600 METAR LMML NIL=
201005310545 METAR LMML 310545Z 32009KT 290V350 9999 FEW020 19/16 Q1011
                        NOSIG=
201005310530 METAR LMML NIL=
201005310515 METAR LMML 310515Z 32008KT 290V350 9999 FEW020 19/16 Q1011
                        NOSIG=
201005310500 METAR LMML NIL=
201005310445 METAR LMML 310445Z 33004KT 300V360 CAVOK 18/16 Q1011 NOSIG=
201005310430 METAR LMML NIL=
201005310415 METAR LMML 310415Z 33006KT 300V360 CAVOK 18/15 Q1011 NOSIG=
201005310400 METAR LMML NIL=
201005310345 METAR LMML 310345Z 32008KT CAVOK 17/15 Q1011 NOSIG=
201005310330 METAR LMML NIL=
201005310315 METAR LMML 310315Z 33008KT 300V360 CAVOK 17/15 Q1011 NOSIG=
201005310300 METAR LMML NIL=
201005310245 METAR LMML 310245Z 33009KT CAVOK 18/16 Q1011 NOSIG=
201005310230 METAR LMML NIL=
201005310215 METAR LMML 310215Z 32010KT CAVOK 18/16 Q1011 NOSIG=
201005310200 METAR LMML NIL=
201005310145 METAR LMML 310145Z 32009KT CAVOK 18/16 Q1011 NOSIG=
201005310130 METAR LMML NIL=
201005310115 METAR LMML 310115Z 31010KT CAVOK 18/15 Q1011 NOSIG=
201005310100 METAR LMML NIL=
201005310045 METAR LMML 310045Z 32007KT CAVOK 18/15 Q1011 NOSIG=
201005310030 METAR LMML NIL=
201005310015 METAR LMML 310015Z 33007KT CAVOK 19/15 Q1011 NOSIG=
201005310000 METAR LMML NIL=
201005302345 METAR LMML 302345Z 32007KT CAVOK 18/13 Q1012 NOSIG=
201005302330 METAR LMML NIL=
201005302315 METAR LMML 302315Z 32008KT CAVOK 18/12 Q1012 NOSIG=
201005302300 METAR LMML NIL=
201005302245 METAR LMML 302245Z 32008KT CAVOK 18/13 Q1012 NOSIG=
201005302230 METAR LMML NIL=
201005302215 METAR LMML 302215Z 33005KT 300V360 CAVOK 18/14 Q1012 NOSIG=
201005302200 METAR LMML NIL=
201005302145 METAR LMML 302145Z 33005KT CAVOK 18/14 Q1012 NOSIG=
201005302130 METAR LMML NIL=
201005302115 METAR LMML 302115Z 32006KT CAVOK 18/14 Q1012 NOSIG=
201005302100 METAR LMML NIL=
201005302045 METAR LMML 302045Z 34007KT CAVOK 19/14 Q1012 NOSIG=
201005302030 METAR LMML NIL=
201005302015 METAR LMML 302015Z 35007KT CAVOK 19/14 Q1012 NOSIG=
201005302000 METAR LMML NIL=
201005301945 METAR LMML 301945Z 36007KT CAVOK 19/15 Q1012 NOSIG=
201005301930 METAR LMML NIL=
201005301915 METAR LMML 301915Z 04006KT 010V080 CAVOK 20/15 Q1012 NOSIG=
201005301900 METAR LMML NIL=
201005301845 METAR LMML 301845Z 04006KT 010V070 CAVOK 20/16 Q1012 NOSIG=
201005301830 METAR LMML NIL=
201005301815 METAR LMML 301815Z 04006KT 010V070 9999 FEW020 SCT250 21/16
                        Q1012 NOSIG=
201005301800 METAR LMML NIL=
201005301745 METAR LMML 301745Z 35009KT 320V020 9999 FEW020 SCT250 21/16
                        Q1012 NOSIG=
201005301730 METAR LMML NIL=
201005301715 METAR LMML 301715Z 36008KT CAVOK 22/16 Q1011 NOSIG=
201005301700 METAR LMML NIL=
201005301645 METAR LMML 301645Z 35009KT 320V030 CAVOK 22/16 Q1011 NOSIG=
201005301630 METAR LMML NIL=
201005301615 METAR LMML 301615Z 35010KT 320V030 CAVOK 22/16 Q1011 NOSIG=
201005301600 METAR LMML NIL=
201005301545 METAR LMML 301545Z 36011KT CAVOK 22/16 Q1011 NOSIG=
201005301530 METAR LMML NIL=
201005301515 METAR LMML 301515Z 01012KT 340V040 CAVOK 22/15 Q1010 NOSIG=
201005301500 METAR LMML NIL=
201005301445 METAR LMML 301445Z 02012KT 350V050 CAVOK 23/15 Q1010 NOSIG=
201005301430 METAR LMML NIL=
201005301415 METAR LMML 301415Z 01012G22KT 350V050 CAVOK 23/15 Q1010 NOSIG=
201005301400 METAR LMML NIL=
201005301345 METAR LMML 301345Z 04017G28KT 010V090 CAVOK 23/15 Q1010 NOSIG=
201005301330 METAR LMML NIL=
201005301315 METAR LMML 301315Z 06019KT 030V090 CAVOK 23/16 Q1010 NOSIG=
201005301245 METAR LMML 301245Z 06016G28KT 020V090 CAVOK 23/15 Q1010 NOSIG=
201005301230 METAR LMML NIL=
201005301215 METAR LMML 301215Z 06015KT 020V100 CAVOK 21/15 Q1010 NOSIG=
201005301200 METAR LMML NIL=
201005301145 METAR LMML 301145Z 06010KT 350V100 9000 FEW012 BKN120 21/15
                        Q1010 TEMPO TSRA BKN012 BKN070CB=
201005301115 METAR LMML 301115Z 06017G28KT 010V100 7000 -RA FEW012 BKN110
                        BKN150 20/14 Q1009 TEMPO TSRA BKN012
                        BKN070CB=
201005301045 METAR LMML 301045Z 05016KT 020V080 9000 FEW012 SCT110 OVC150
                        19/17 Q1011 TEMPO 5000 TSRA BKN012
                        BKN070CB=
201005301030 METAR LMML NIL=
201005301015 METAR LMML 301015Z 04016KT 010V080 7000 -RA FEW012 OVC090
                        19/16 Q1011 TEMPO 5000 TSRA BKN011
                        BKN070CB=
201005301000 METAR LMML NIL=
201005300945 METAR LMML 300945Z 05011KT 6000 RA FEW012 OVC090 19/17 Q1013
                        TEMPO 5000 TSRA BKN011 BKN070CB=
201005300930 METAR LMML NIL=
201005300915 METAR LMML 300915Z 04008KT 360V100 6000 RA FEW012 SCT090
                        OVC130 19/17 Q1014 TEMPO 5000 TSRA
                        BKN011 BKN070CB=
201005300900 METAR LMML NIL=
201005300845 METAR LMML 300845Z 04008KT 350V090 9999 -RA FEW012 SCT080
                        BKN130 19/17 Q1014 TEMPO 5000 TSRA
                        BKN011 BKN070CB=
201005300830 METAR LMML NIL=
201005300815 METAR LMML 300815Z 02006KT 350V050 7000 -RA FEW012 SCT100
                        BKN130 20/18 Q1013 TEMPO 5000 TSRA
                        BKN011 BKN070CB=
201005300800 METAR LMML NIL=
201005300745 METAR LMML 300745Z 01006KT 340V050 6000 -RA FEW012 BKN100
                        BKN130 20/17 Q1013 TEMPO 5000 TSRA
                        BKN011 BKN070CB=
201005300730 METAR LMML NIL=
201005300715 METAR LMML 300715Z 05014KT 020V100 8000 FEW012 SCT110 BKN130
                        20/17 Q1011 TEMPO TSRA BKN070CB=
201005300700 METAR LMML NIL=
201005300645 METAR LMML 300645Z 03010KT 360V070 8000 -RA FEW020 BKN110
                        BKN130 20/17 Q1011 TEMPO TSRA BKN070CB=
201005300630 METAR LMML NIL=
201005300615 METAR LMML 300615Z 02009KT 350V050 9000 NSC 20/17 Q1011 TEMPO
                        8000 TSRA BKN070CB=
201005300600 METAR LMML NIL=
201005300545 METAR LMML 300545Z 03011KT 010V080 9000 -RA FEW012 SCT110
                        OVC150 19/17 Q1011 TEMPO 8000 TSRA
                        BKN070CB=
201005300530 METAR LMML NIL=
201005300515 METAR LMML 300515Z 03010KT 360V070 9000 -RA FEW012 SCT100
                        BKN150 19/17 Q1012 TEMPO 8000 TSRA
                        BKN070CB=
201005300500 METAR LMML NIL=
201005300445 METAR LMML 300445Z 36008KT 330V030 9999 -RA FEW012 BKN120
                        20/17 Q1012 NOSIG=
201005300430 METAR LMML NIL=
201005300415 METAR LMML 300415Z 04009KT 360V080 CAVOK 20/16 Q1011 NOSIG=
201005300400 METAR LMML NIL=
201005300345 METAR LMML 300345Z 03010KT 350V060 9999 FEW012 BKN120 20/16
                        Q1011 NOSIG=
201005300330 METAR LMML NIL=
201005300315 METAR LMML 300315Z 03011KT 360V070 CAVOK 20/16 Q1010 NOSIG=
201005300300 METAR LMML NIL=
201005300245 METAR LMML 300245Z 03005KT 350V070 CAVOK 20/16 Q1011 NOSIG=
201005300230 METAR LMML NIL=
201005300215 METAR LMML 300215Z 04010KT 020V080 9999 -RA NSC 20/17 Q1011
                        NOSIG=
201005300145 METAR LMML 300145Z 33009KT 310V010 9999 -RA NSC 20/17 Q1012
                        NOSIG=
201005300115 METAR LMML 300115Z 07004KT 010V120 CAVOK 20/17 Q1013 NOSIG=
201005300100 METAR LMML NIL=
201005300045 METAR LMML 300045Z 03007KT CAVOK 20/17 Q1011 NOSIG=
201005300030 METAR LMML NIL=
201005300015 METAR LMML 300015Z 02006KT CAVOK 20/17 Q1011 NOSIG=
201005300000 METAR LMML NIL=
201005292345 METAR LMML 292345Z 02004KT 360V080 CAVOK 20/17 Q1012 NOSIG=
201005292330 METAR LMML NIL=
201005292315 METAR LMML 292315Z VRB03KT CAVOK 20/17 Q1012 NOSIG=
201005292245 METAR LMML 292245Z 36005KT 320V020 CAVOK 20/17 Q1013 NOSIG=
201005292230 METAR LMML NIL=
201005292215 METAR LMML 292215Z 01004KT 350V080 CAVOK 21/17 Q1013 NOSIG=
201005292145 METAR LMML 292145Z 32004KT 280V350 CAVOK 21/16 Q1013 NOSIG=
201005292130 METAR LMML NIL=
201005292115 METAR LMML 292115Z VRB02KT CAVOK 21/17 Q1013 NOSIG=
201005292100 METAR LMML NIL=
201005292045 METAR LMML 292045Z VRB02KT CAVOK 21/16 Q1012 NOSIG=
201005292030 METAR LMML NIL=
201005292015 METAR LMML 292015Z 36006KT 320V040 CAVOK 21/16 Q1011 NOSIG=
201005292000 METAR LMML NIL=
201005291945 METAR LMML 291945Z 01006KT 350V050 CAVOK 22/16 Q1011 NOSIG=
201005291915 METAR LMML 291915Z 03005KT CAVOK 23/16 Q1011 NOSIG=
201005291900 METAR LMML NIL=
201005291845 METAR LMML 291845Z VRB03KT CAVOK 23/15 Q1012 NOSIG=
201005291830 METAR LMML NIL=
201005291815 METAR LMML 291815Z VRB03KT CAVOK 23/16 Q1011 NOSIG=
201005291800 METAR LMML NIL=
201005291745 METAR LMML 291745Z VRB02KT CAVOK 23/15 Q1011 NOSIG=
201005291715 METAR LMML 291715Z 19007KT 120V250 CAVOK 23/15 Q1012 NOSIG=
201005291700 METAR LMML NIL=
201005291645 METAR LMML 291645Z 15007KT 120V180 CAVOK 23/15 Q1011 NOSIG=
201005291615 METAR LMML 291615Z 15010KT 120V180 CAVOK 23/16 Q1011 NOSIG=
201005291600 METAR LMML NIL=
201005291545 METAR LMML 291545Z 11004KT 090V160 9999 -SHRA NSC 23/17 Q1011
                        NOSIG=
201005291530 METAR LMML NIL=
201005291515 METAR LMML 291515Z 14004KT 100V180 CAVOK 24/16 Q1011 NOSIG=
201005291500 METAR LMML NIL=
201005291445 METAR LMML 291445Z 16008KT 130V190 9999 -SHRA NSC 24/16 Q1012
                        NOSIG=
201005291430 METAR LMML NIL=
201005291415 METAR LMML 291415Z 19008KT 150V230 CAVOK 25/15 Q1012 NOSIG=
201005291400 METAR LMML NIL=
201005291345 METAR LMML 291345Z 18010KT 150V220 CAVOK 24/16 Q1012 NOSIG=
201005291330 METAR LMML NIL=
201005291315 METAR LMML 291315Z 19010KT 150V230 CAVOK 24/16 Q1013 NOSIG=
201005291300 METAR LMML NIL=
201005291245 METAR LMML 291245Z 18012KT 140V230 CAVOK 23/16 Q1014 NOSIG=
201005291230 METAR LMML NIL=
201005291215 METAR LMML 291215Z 17012KT 130V210 CAVOK 24/16 Q1012 NOSIG=
201005291200 METAR LMML NIL=
201005291145 METAR LMML 291145Z 15015KT 120V180 CAVOK 25/16 Q1013 NOSIG=
201005291130 METAR LMML NIL=
201005291115 METAR LMML 291115Z 14015KT 110V170 CAVOK 25/15 Q1012 NOSIG=
201005291045 METAR LMML 291045Z 14016KT CAVOK 25/15 Q1013 NOSIG=
201005291030 METAR LMML NIL=
201005291015 METAR LMML 291015Z 15014KT 110V190 CAVOK 24/16 Q1013 NOSIG=
201005291000 METAR LMML NIL=
201005290945 METAR LMML 290945Z 14015KT CAVOK 24/16 Q1013 NOSIG=
201005290930 METAR LMML NIL=
201005290915 METAR LMML 290915Z 14017KT CAVOK 24/16 Q1013 NOSIG=
201005290900 METAR LMML NIL=
201005290845 METAR LMML 290845Z 14015KT CAVOK 24/16 Q1013 NOSIG=
201005290830 METAR LMML NIL=
201005290815 METAR LMML 290815Z 14015KT CAVOK 23/16 Q1013 NOSIG=
201005290800 METAR LMML NIL=
201005290745 METAR LMML 290745Z 13014KT CAVOK 23/17 Q1013 NOSIG=
201005290730 METAR LMML NIL=
201005290715 METAR LMML 290715Z 14011KT 110V170 CAVOK 21/16 Q1013 NOSIG=
201005290700 METAR LMML NIL=
201005290645 METAR LMML 290645Z 13013KT CAVOK 21/16 Q1013 NOSIG=
201005290615 METAR LMML 290615Z 13012KT CAVOK 21/16 Q1013 NOSIG=
201005290600 METAR LMML NIL=
201005290545 METAR LMML 290545Z 12007KT 090V160 CAVOK 22/16 Q1013 NOSIG=
201005290530 METAR LMML NIL=
201005290515 METAR LMML 290515Z 10004KT 050V130 CAVOK 21/16 Q1014 NOSIG=
201005290445 METAR LMML 290445Z VRB02KT CAVOK 21/15 Q1014 NOSIG=
201005290430 METAR LMML NIL=
201005290415 METAR LMML 290415Z 14005KT 110V190 CAVOK 21/15 Q1013 NOSIG=
201005290400 METAR LMML NIL=
201005290345 METAR LMML 290345Z 17007KT 120V200 CAVOK 21/14 Q1013 NOSIG=
201005290330 METAR LMML NIL=
201005290315 METAR LMML 290315Z 17006KT 140V210 CAVOK 22/14 Q1013 NOSIG=
201005290300 METAR LMML NIL=
201005290245 METAR LMML 290245Z 17006KT 140V210 CAVOK 22/14 Q1013 NOSIG=
201005290230 METAR LMML NIL=
201005290215 METAR LMML 290215Z 18009KT CAVOK 22/14 Q1013 NOSIG=
201005290200 METAR LMML NIL=
201005290145 METAR LMML 290145Z 17008KT 140V220 CAVOK 22/14 Q1013 NOSIG=
201005290130 METAR LMML NIL=
201005290115 METAR LMML 290115Z 18011KT 150V210 CAVOK 22/14 Q1013 NOSIG=
201005290045 METAR LMML 290045Z 15008KT 130V190 CAVOK 22/13 Q1013 NOSIG=
201005290030 METAR LMML NIL=
201005290015 METAR LMML 290015Z 15010KT 110V190 CAVOK 22/13 Q1013 NOSIG=
201005290000 METAR LMML NIL=
201005282345 METAR LMML 282345Z 16013KT CAVOK 22/14 Q1013 NOSIG=
201005282330 METAR LMML NIL=
201005282315 METAR LMML 282315Z 16011KT CAVOK 22/14 Q1014 NOSIG=
201005282300 METAR LMML NIL=
201005282245 METAR LMML 282245Z 14011KT 120V180 CAVOK 22/14 Q1013 NOSIG=
201005282230 METAR LMML NIL=
201005282215 METAR LMML 282215Z 15010KT CAVOK 22/15 Q1014 NOSIG=
201005282200 METAR LMML NIL=
201005282145 METAR LMML 282145Z 15009KT CAVOK 22/15 Q1014 NOSIG=
201005282130 METAR LMML NIL=
201005282115 METAR LMML 282115Z 15008KT 110V180 CAVOK 22/15 Q1014 NOSIG=
201005282100 METAR LMML NIL=
201005282045 METAR LMML 282045Z 15008KT 120V190 CAVOK 22/15 Q1014 NOSIG=
201005282030 METAR LMML NIL=
201005282015 METAR LMML 282015Z 15007KT 120V200 CAVOK 21/17 Q1014 NOSIG=
201005282000 METAR LMML NIL=
201005281945 METAR LMML 281945Z 15009KT CAVOK 21/17 Q1014 NOSIG=
201005281930 METAR LMML NIL=
201005281915 METAR LMML 281915Z 15010KT 120V180 CAVOK 21/17 Q1014 NOSIG=
201005281900 METAR LMML NIL=
201005281845 METAR LMML 281845Z 15009KT CAVOK 20/18 Q1014 NOSIG=
201005281830 METAR LMML NIL=
201005281815 METAR LMML 281815Z 14009KT CAVOK 21/18 Q1014 NOSIG=
201005281800 METAR LMML NIL=
201005281745 METAR LMML 281745Z 14008KT 120V180 CAVOK 21/18 Q1014 NOSIG=
201005281730 METAR LMML NIL=
201005281715 METAR LMML 281715Z 15008KT 110V180 CAVOK 21/17 Q1014 NOSIG=
201005281700 METAR LMML NIL=
201005281645 METAR LMML 281645Z 14010KT CAVOK 22/17 Q1014 NOSIG=
201005281630 METAR LMML NIL=
201005281615 METAR LMML 281615Z 15009KT 100V180 CAVOK 22/17 Q1014 NOSIG=
201005281600 METAR LMML NIL=
201005281545 METAR LMML 281545Z 14008KT 120V180 CAVOK 23/17 Q1014 NOSIG=
201005281530 METAR LMML NIL=
201005281515 METAR LMML 281515Z 15008KT 120V180 CAVOK 23/17 Q1014 NOSIG=
201005281500 METAR LMML NIL=
201005281445 METAR LMML 281445Z 15009KT 120V180 CAVOK 24/17 Q1014 NOSIG=
201005281430 METAR LMML NIL=
201005281415 METAR LMML 281415Z 16009KT 110V190 CAVOK 25/17 Q1014 NOSIG=
201005281400 METAR LMML NIL=
201005281345 METAR LMML 281345Z 16009KT 120V210 CAVOK 25/17 Q1014 NOSIG=
201005281315 METAR LMML 281315Z 16010KT 120V200 CAVOK 25/17 Q1015 NOSIG=
201005281245 METAR LMML 281245Z 15010KT 120V190 CAVOK 25/17 Q1015 NOSIG=
201005281230 METAR LMML NIL=
201005281215 METAR LMML 281215Z 14010KT 110V190 CAVOK 26/16 Q1015 NOSIG=
201005281200 METAR LMML NIL=
201005281145 METAR LMML 281145Z 15008KT 120V190 CAVOK 26/16 Q1015 NOSIG=
201005281130 METAR LMML NIL=
201005281115 METAR LMML 281115Z 17008KT 120V200 CAVOK 26/15 Q1015 NOSIG=
201005281100 METAR LMML NIL=
201005281045 METAR LMML 281045Z 16008KT CAVOK 25/16 Q1016 NOSIG=
201005281030 METAR LMML NIL=
201005281015 METAR LMML 281015Z 19008KT 140V230 CAVOK 25/16 Q1016 NOSIG=
201005281000 METAR LMML NIL=
201005280945 METAR LMML 280945Z 19008KT 140V220 CAVOK 25/15 Q1016 NOSIG=
201005280930 METAR LMML NIL=
201005280915 METAR LMML 280915Z 17006KT 150V210 CAVOK 25/15 Q1016 NOSIG=
201005280900 METAR LMML NIL=
201005280845 METAR LMML 280845Z 19006KT 150V240 CAVOK 25/15 Q1016 NOSIG=
201005280830 METAR LMML NIL=
201005280815 METAR LMML 280815Z 18006KT 140V230 CAVOK 24/14 Q1015 NOSIG=
201005280745 METAR LMML 280745Z 21007KT 150V260 CAVOK 23/14 Q1015 NOSIG=
201005280730 METAR LMML NIL=
201005280715 METAR LMML 280715Z 20009KT 150V250 CAVOK 23/13 Q1015 NOSIG=
201005280700 METAR LMML NIL=
201005280645 METAR LMML 280645Z 20006KT 160V250 CAVOK 22/15 Q1015 NOSIG=
201005280615 METAR LMML 280615Z 20011KT 160V240 CAVOK 22/15 Q1014 NOSIG=
201005280600 METAR LMML NIL=
201005280545 METAR LMML 280545Z 18006KT 130V230 CAVOK 21/15 Q1014 NOSIG=
201005280530 METAR LMML NIL=
201005280515 METAR LMML 280515Z 19008KT 150V220 CAVOK 21/15 Q1014 NOSIG=
201005280500 METAR LMML NIL=
201005280445 METAR LMML 280445Z 19008KT 160V230 CAVOK 20/16 Q1014 NOSIG=
201005280430 METAR LMML NIL=
201005280415 METAR LMML 280415Z 21008KT 170V240 CAVOK 20/16 Q1014 NOSIG=
201005280345 METAR LMML 280345Z 18009KT CAVOK 20/16 Q1013 NOSIG=
201005280330 METAR LMML NIL=
201005280315 METAR LMML 280315Z 18005KT 140V210 CAVOK 20/16 Q1013 NOSIG=
201005280300 METAR LMML NIL=
201005280245 METAR LMML 280245Z 17005KT 150V210 CAVOK 21/16 Q1013 NOSIG=
201005280230 METAR LMML NIL=
201005280215 METAR LMML 280215Z 18008KT CAVOK 21/16 Q1014 NOSIG=
201005280200 METAR LMML NIL=
201005280145 METAR LMML 280145Z 19005KT CAVOK 21/15 Q1014 NOSIG=
201005280130 METAR LMML NIL=
201005280115 METAR LMML 280115Z 19005KT CAVOK 21/15 Q1014 NOSIG=
201005280100 METAR LMML NIL=
201005280045 METAR LMML 280045Z 21006KT 180V250 CAVOK 21/14 Q1014 NOSIG=
201005280030 METAR LMML NIL=
201005280015 METAR LMML 280015Z 21004KT CAVOK 22/14 Q1015 NOSIG=
201005280000 METAR LMML NIL=
201005272345 METAR LMML 272345Z 22006KT 190V250 CAVOK 21/15 Q1015 NOSIG=
201005272330 METAR LMML NIL=
201005272315 METAR LMML 272315Z 21004KT 170V240 CAVOK 21/15 Q1015 NOSIG=
201005272300 METAR LMML NIL=
201005272245 METAR LMML 272245Z 20006KT 170V240 CAVOK 21/15 Q1015 NOSIG=
201005272230 METAR LMML NIL=
201005272215 METAR LMML 272215Z 21005KT 160V250 CAVOK 21/14 Q1015 NOSIG=
201005272200 METAR LMML NIL=
201005272145 METAR LMML 272145Z 21005KT 170V260 CAVOK 22/13 Q1016 NOSIG=
201005272115 METAR LMML 272115Z 22007KT 190V260 CAVOK 22/13 Q1016 NOSIG=
201005272100 METAR LMML NIL=
201005272045 METAR LMML 272045Z 22007KT 190V250 CAVOK 21/13 Q1016 NOSIG=
201005272030 METAR LMML NIL=
201005272015 METAR LMML 272015Z 21007KT 170V250 CAVOK 21/14 Q1016 NOSIG=
201005272000 METAR LMML NIL=
201005271945 METAR LMML 271945Z 20006KT 160V240 CAVOK 20/15 Q1016 NOSIG=
201005271930 METAR LMML NIL=
201005271915 METAR LMML 271915Z 20006KT 150V230 CAVOK 20/15 Q1015 NOSIG=
201005271900 METAR LMML NIL=
201005271845 METAR LMML 271845Z 20006KT 170V230 CAVOK 20/15 Q1015 NOSIG=
201005271830 METAR LMML NIL=
201005271815 METAR LMML 271815Z 20006KT 150V220 CAVOK 21/15 Q1015 NOSIG=
201005271800 METAR LMML NIL=
201005271745 METAR LMML 271745Z 20007KT 160V250 CAVOK 21/15 Q1015 NOSIG=
201005271730 METAR LMML NIL=
201005271715 METAR LMML 271715Z 20009KT 170V240 CAVOK 21/15 Q1014 NOSIG=
201005271700 METAR LMML NIL=
201005271645 METAR LMML 271645Z 20010KT 170V240 CAVOK 22/14 Q1014 NOSIG=
201005271630 METAR LMML NIL=
201005271615 METAR LMML 271615Z 20010KT 170V250 CAVOK 22/14 Q1014 NOSIG=
201005271545 METAR LMML 271545Z 21009KT 180V250 CAVOK 23/14 Q1015 NOSIG=
201005271530 METAR LMML NIL=
201005271515 METAR LMML 271515Z 20010KT 160V260 CAVOK 23/14 Q1014 NOSIG=
201005271500 METAR LMML NIL=
201005271445 METAR LMML 271445Z 20011KT 170V260 CAVOK 23/14 Q1015 NOSIG=
201005271430 METAR LMML NIL=
201005271415 METAR LMML 271415Z 20011KT 160V240 CAVOK 23/14 Q1015 NOSIG=
201005271400 METAR LMML NIL=
201005271345 METAR LMML 271345Z 20011KT 160V240 CAVOK 24/14 Q1015 NOSIG=
201005271330 METAR LMML NIL=
201005271315 METAR COR LMML 271315Z 19011KT 160V220 CAVOK 23/15 Q1015
                        NOSIG=
201005271300 METAR LMML NIL=
201005271245 METAR LMML 271245Z 19012KT 150V220 CAVOK 23/15 Q1015 NOSIG=
201005271230 METAR LMML NIL=
201005271215 METAR LMML 271215Z 20012KT 160V230 CAVOK 23/15 Q1015 NOSIG=
201005271200 METAR LMML NIL=
201005271145 METAR LMML 271145Z 19013KT 160V230 CAVOK 23/14 Q1015 NOSIG=
201005271130 METAR LMML NIL=
201005271115 METAR LMML 271115Z 20016KT 170V230 CAVOK 22/14 Q1016 NOSIG=
201005271100 METAR LMML NIL=
201005271045 METAR LMML 271045Z 19013KT 150V230 CAVOK 22/14 Q1015 NOSIG=
201005271030 METAR LMML NIL=
201005271015 METAR LMML 271015Z 19013KT 150V230 CAVOK 23/15 Q1015 NOSIG=
201005271000 METAR LMML NIL=
201005270945 METAR LMML 270945Z 20014KT 170V240 CAVOK 22/15 Q1015 NOSIG=
201005270915 METAR LMML 270915Z 20014KT 170V240 CAVOK 22/14 Q1015 NOSIG=
201005270900 METAR LMML NIL=
201005270845 METAR LMML 270845Z 20014KT 170V240 CAVOK 22/15 Q1016 NOSIG=
201005270830 METAR LMML NIL=
201005270815 METAR LMML 270815Z 19014KT 170V230 CAVOK 21/15 Q1016 NOSIG=
201005270800 METAR LMML NIL=
201005270745 METAR LMML 270745Z 19008KT 140V250 CAVOK 22/16 Q1016 NOSIG=
201005270730 METAR LMML NIL=
201005270715 METAR LMML 270715Z 20012KT 170V230 CAVOK 21/15 Q1016 NOSIG=
201005270700 METAR LMML NIL=
201005270645 METAR LMML 270645Z 21011KT 170V250 CAVOK 21/16 Q1016 NOSIG=
201005270630 METAR LMML NIL=
201005270615 METAR LMML 270615Z 20009KT 170V250 CAVOK 20/16 Q1016 NOSIG=
201005270600 METAR LMML NIL=
201005270545 METAR LMML 270545Z 20007KT 160V250 CAVOK 20/15 Q1015 NOSIG=
201005270530 METAR LMML NIL=
201005270515 METAR LMML 270515Z 20007KT 160V250 CAVOK 19/15 Q1015 NOSIG=
201005270500 METAR LMML NIL=
201005270445 METAR LMML 270445Z 21007KT 170V260 CAVOK 19/14 Q1015 NOSIG=
201005270430 METAR LMML NIL=
201005270415 METAR LMML 270415Z 21007KT 170V250 CAVOK 19/13 Q1015 NOSIG=
201005270400 METAR LMML NIL=
201005270345 METAR LMML 270345Z 21007KT 180V250 CAVOK 18/14 Q1015 NOSIG=
201005270330 METAR LMML NIL=
201005270315 METAR LMML 270315Z 21005KT 160V260 CAVOK 18/14 Q1015 NOSIG=
201005270300 METAR LMML NIL=
201005270245 METAR LMML 270245Z 21005KT 180V250 CAVOK 18/14 Q1015 NOSIG=
201005270230 METAR LMML NIL=
201005270215 METAR LMML 270215Z 22004KT 170V270 CAVOK 18/14 Q1015 NOSIG=
201005270200 METAR LMML NIL=
201005270145 METAR LMML 270145Z 22005KT 180V280 CAVOK 17/16 Q1015 NOSIG=
201005270130 METAR LMML NIL=
201005270115 METAR LMML 270115Z 20004KT 160V240 CAVOK 17/16 Q1015 NOSIG=
201005270100 METAR LMML NIL=
201005270045 METAR LMML 270045Z 19004KT 160V230 CAVOK 17/16 Q1015 NOSIG=
201005270030 METAR LMML NIL=
201005270015 METAR LMML 270015Z 20005KT CAVOK 17/16 Q1016 NOSIG=
201005270000 METAR LMML NIL=
201005262345 METAR LMML 262345Z 20005KT 180V240 CAVOK 17/16 Q1016 NOSIG=
201005262330 METAR LMML NIL=
201005262315 METAR LMML 262315Z 20005KT CAVOK 17/16 Q1016 NOSIG=
201005262300 METAR LMML NIL=
201005262245 METAR LMML 262245Z 20006KT 170V230 CAVOK 18/16 Q1016 NOSIG=
201005262230 METAR LMML NIL=
201005262215 METAR LMML 262215Z 20006KT 170V250 CAVOK 18/16 Q1017 NOSIG=
201005262200 METAR LMML NIL=
201005262145 METAR LMML 262145Z 21005KT 180V240 CAVOK 18/16 Q1017 NOSIG=
201005262130 METAR LMML NIL=
201005262115 METAR LMML 262115Z 21006KT 190V250 CAVOK 18/16 Q1017 NOSIG=
201005262100 METAR LMML NIL=
201005262045 METAR LMML 262045Z 21005KT 180V250 CAVOK 18/16 Q1017 NOSIG=
201005262030 METAR LMML NIL=
201005262015 METAR LMML 262015Z 22006KT CAVOK 18/16 Q1017 NOSIG=
201005262000 METAR LMML NIL=
201005261945 METAR LMML 261945Z 21004KT 170V280 CAVOK 18/16 Q1017 NOSIG=
201005261930 METAR LMML NIL=
201005261915 METAR LMML 261915Z 22006KT 200V270 CAVOK 19/16 Q1017 NOSIG=
201005261900 METAR LMML NIL=
201005261845 METAR LMML 261845Z 23008KT 200V260 CAVOK 19/15 Q1017 NOSIG=
201005261830 METAR LMML NIL=
201005261815 METAR LMML 261815Z 23006KT 200V270 CAVOK 19/15 Q1017 NOSIG=
201005261800 METAR LMML NIL=
201005261745 METAR LMML 261745Z 23006KT 200V260 CAVOK 20/13 Q1017 NOSIG=
201005261730 METAR LMML NIL=
201005261715 METAR LMML 261715Z 24007KT 190V300 CAVOK 21/13 Q1017 NOSIG=
201005261700 METAR LMML NIL=
201005261645 METAR LMML 261645Z 24006KT 200V290 CAVOK 22/11 Q1017 NOSIG=
201005261630 METAR LMML NIL=
201005261615 METAR LMML 261615Z 24006KT 200V290 CAVOK 22/11 Q1017 NOSIG=
201005261600 METAR LMML NIL=
201005261545 METAR LMML 261545Z 22007KT 180V250 CAVOK 23/11 Q1017 NOSIG=
201005261530 METAR LMML NIL=
201005261515 METAR LMML 261515Z 25005KT 200V290 CAVOK 24/09 Q1017 NOSIG=
201005261500 METAR LMML NIL=
201005261445 METAR LMML 261445Z 22007KT 190V270 CAVOK 25/08 Q1017 NOSIG=
201005261430 METAR LMML NIL=
201005261415 METAR LMML 261415Z 25008KT 200V300 CAVOK 26/06 Q1017 NOSIG=
201005261400 METAR LMML NIL=
201005261345 METAR LMML 261345Z 09004KT CAVOK 26/06 Q1017 NOSIG=
201005261315 METAR LMML 261315Z 21004KT 060V330 CAVOK 26/08 Q1017 NOSIG=
201005261300 METAR LMML NIL=
201005261245 METAR LMML 261245Z 18005KT 070V330 9999 FEW025 26/16 Q1018
                        NOSIG=
201005261230 METAR LMML NIL=
201005261215 METAR LMML 261215Z 29005KT 220V030 9999 FEW025 26/08 Q1017
                        NOSIG=
201005261145 METAR LMML 261145Z 29010KT 260V340 9999 FEW025 26/08 Q1018
                        NOSIG=
201005261130 METAR LMML NIL=
201005261115 METAR LMML 261115Z 32008KT 270V010 9999 FEW025 27/08 Q1017
                        NOSIG=
201005261100 METAR LMML NIL=
201005261045 METAR LMML 261045Z 31009KT 280V350 CAVOK 26/09 Q1018 NOSIG=
201005261030 METAR LMML NIL=
201005261015 METAR LMML 261015Z 31009KT 280V340 CAVOK 26/09 Q1018 NOSIG=
201005261000 METAR LMML NIL=
201005260945 METAR LMML 260945Z 31011KT 280V340 9999 FEW020 26/07 Q1018
                        NOSIG=
201005260930 METAR LMML NIL=
201005260915 METAR LMML 260915Z 31011KT 240V330 9999 FEW020 25/09 Q1018
                        NOSIG=
201005260900 METAR LMML NIL=
201005260845 METAR LMML 260845Z 31011KT 9999 FEW020 25/08 Q1018 NOSIG=
201005260830 METAR LMML NIL=
201005260815 METAR LMML 260815Z 30010KT 260V330 9999 FEW020 25/09 Q1018
                        NOSIG=
201005260800 METAR LMML NIL=
201005260745 METAR LMML 260745Z 29009KT 250V330 9999 FEW020 23/13 Q1018
                        NOSIG=
201005260730 METAR LMML NIL=
201005260715 METAR LMML 260715Z 28009KT 230V320 9999 FEW020 23/13 Q1018
                        NOSIG=
201005260700 METAR LMML NIL=
201005260645 METAR LMML 260645Z 27007KT 230V300 9999 FEW020 23/12 Q1018
                        NOSIG=
201005260630 METAR LMML NIL=
201005260615 METAR LMML 260615Z 28004KT 240V310 CAVOK 22/11 Q1018 NOSIG=
201005260600 METAR LMML NIL=
201005260545 METAR LMML 260545Z VRB03KT CAVOK 20/14 Q1017 NOSIG=
201005260530 METAR LMML NIL=
201005260515 METAR LMML 260515Z VRB02KT CAVOK 20/11 Q1017 NOSIG=
201005260500 METAR LMML NIL=
201005260445 METAR LMML 260445Z VRB02KT CAVOK 18/08 Q1017 NOSIG=
201005260430 METAR LMML NIL=
201005260415 METAR LMML 260415Z 24005KT CAVOK 18/08 Q1017 NOSIG=
201005260400 METAR LMML NIL=
201005260345 METAR LMML 260345Z 25005KT CAVOK 18/08 Q1017 NOSIG=
201005260330 METAR LMML NIL=
201005260315 METAR LMML 260315Z 26007KT CAVOK 18/08 Q1017 NOSIG=
201005260300 METAR LMML NIL=
201005260245 METAR LMML 260245Z 26004KT CAVOK 18/11 Q1017 NOSIG=
201005260215 METAR LMML 260215Z 26006KT 220V290 CAVOK 18/12 Q1017 NOSIG=
201005260200 METAR LMML NIL=
201005260145 METAR LMML 260145Z 25005KT 220V280 CAVOK 18/11 Q1017 NOSIG=
201005260130 METAR LMML NIL=
201005260115 METAR LMML 260115Z 26005KT 220V300 CAVOK 18/09 Q1017 NOSIG=
201005260100 METAR LMML NIL=
201005260045 METAR LMML 260045Z 26006KT CAVOK 18/13 Q1017 NOSIG=
201005260015 METAR LMML 260015Z 27005KT CAVOK 18/13 Q1018 NOSIG=
201005260000 METAR LMML NIL=
201005252345 METAR LMML 252345Z 26007KT CAVOK 18/09 Q1018 NOSIG=
201005252315 METAR LMML 252315Z 26005KT 220V290 CAVOK 18/09 Q1018 NOSIG=
201005252245 METAR LMML 252245Z VRB02KT CAVOK 17/11 Q1018 NOSIG=
201005252215 METAR LMML 252215Z VRB03KT CAVOK 17/11 Q1019 NOSIG=
201005252200 METAR LMML NIL=
201005252145 METAR LMML 252145Z VRB03KT CAVOK 18/11 Q1019 NOSIG=
201005252115 METAR LMML 252115Z VRB03KT CAVOK 18/12 Q1019 NOSIG=
201005252045 METAR LMML 252045Z VRB03KT CAVOK 18/12 Q1019 NOSIG=
201005252015 METAR LMML 252015Z VRB02KT CAVOK 18/12 Q1019 NOSIG=
201005251945 METAR LMML 251945Z VRB02KT CAVOK 19/12 Q1019 NOSIG=
201005251915 METAR LMML 251915Z VRB02KT CAVOK 19/12 Q1018 NOSIG=
201005251900 METAR LMML NIL=
201005251845 METAR LMML 251845Z VRB03KT CAVOK 19/12 Q1018 NOSIG=
201005251830 METAR LMML NIL=
201005251815 METAR LMML 251815Z VRB03KT CAVOK 19/12 Q1018 NOSIG=
201005251800 METAR LMML NIL=
201005251745 METAR LMML 251745Z 34005KT 310V010 CAVOK 20/12 Q1018 NOSIG=
201005251730 METAR LMML NIL=
201005251715 METAR LMML 251715Z 35006KT 9999 FEW020 21/12 Q1018 NOSIG=
201005251700 METAR LMML NIL=
201005251645 METAR LMML 251645Z 01005KT 330V060 9999 FEW020 22/11 Q1018
                        NOSIG=
201005251630 METAR LMML NIL=
201005251615 METAR LMML 251615Z 04004KT 350V090 9999 FEW020 23/13 Q1018
                        NOSIG=
201005251600 METAR LMML NIL=
201005251545 METAR LMML 251545Z 04006KT 340V080 9999 FEW020 23/13 Q1018
                        NOSIG=
201005251530 METAR LMML NIL=
201005251515 METAR LMML 251515Z 36004KT 320V060 9999 FEW020 23/13 Q1018
                        NOSIG=
201005251500 METAR LMML NIL=
201005251445 METAR LMML 251445Z 03005KT 330V080 9999 FEW020 23/14 Q1018
                        NOSIG=
201005251430 METAR LMML NIL=
201005251415 METAR LMML 251415Z 02004KT 310V110 9999 FEW020 23/13 Q1018
                        NOSIG=
201005251400 METAR LMML NIL=
201005251345 METAR LMML 251345Z 02005KT 340V080 9999 FEW020 23/14 Q1018
                        NOSIG=
201005251330 METAR LMML NIL=
201005251315 METAR LMML 251315Z 03007KT 300V080 9999 FEW020 23/14 Q1018
                        NOSIG=
201005251300 METAR LMML NIL=
201005251245 METAR LMML 251245Z 03008KT 350V130 9999 FEW020 23/13 Q1018
                        NOSIG=
201005251230 METAR LMML NIL=
201005251215 METAR LMML 251215Z 03007KT 340V080 9999 FEW020 23/14 Q1018
                        NOSIG=
201005251200 METAR LMML NIL=
201005251145 METAR LMML 251145Z 03008KT 350V070 9999 FEW020 23/14 Q1018
                        NOSIG=
201005251130 METAR LMML NIL=
201005251115 METAR LMML 251115Z 04008KT 360V090 CAVOK 23/13 Q1018 NOSIG=
201005251100 METAR LMML NIL=
201005251045 METAR LMML 251045Z 04009KT 350V090 CAVOK 23/13 Q1018 NOSIG=
201005251030 METAR LMML NIL=
201005251015 METAR LMML 251015Z 02008KT 330V080 CAVOK 23/13 Q1018 NOSIG=
201005251000 METAR LMML NIL=
201005250945 METAR LMML 250945Z 03007KT 350V090 CAVOK 22/12 Q1018 NOSIG=
201005250930 METAR LMML NIL=
201005250915 METAR LMML 250915Z 03005KT 330V080 CAVOK 23/13 Q1018 NOSIG=
201005250900 METAR LMML NIL=
201005250845 METAR LMML 250845Z 01005KT 330V060 9999 FEW020 BKN250 21/14
                        Q1018 NOSIG=
201005250830 METAR LMML NIL=
201005250815 METAR LMML 250815Z 01004KT 330V060 CAVOK 21/13 Q1018 NOSIG=
201005250800 METAR LMML NIL=
201005250745 METAR LMML 250745Z 36006KT 9999 FEW020 SCT250 20/14 Q1018
                        NOSIG=
201005250730 METAR LMML NIL=
201005250715 METAR LMML 250715Z 34004KT 310V020 CAVOK 19/15 Q1018 NOSIG=
201005250700 METAR LMML NIL=
201005250645 METAR LMML 250645Z 32004KT 290V350 9999 FEW020 BKN250 18/15
                        Q1017 NOSIG=
201005250630 METAR LMML NIL=
201005250615 METAR LMML 250615Z VRB03KT 9999 FEW020 BKN250 17/14 Q1017
                        NOSIG=
201005250600 METAR LMML NIL=
201005250545 METAR LMML 250545Z VRB03KT 9999 FEW020 BKN250 16/13 Q1017
                        NOSIG=
201005250530 METAR LMML NIL=
201005250515 METAR LMML 250515Z 35004KT 9999 FEW025 BKN250 15/13 Q1017
                        NOSIG=
201005250445 METAR LMML 250445Z 34004KT CAVOK 15/13 Q1016 NOSIG=
201005250430 METAR LMML NIL=
201005250415 METAR LMML 250415Z 33004KT CAVOK 15/12 Q1016 NOSIG=
201005250400 METAR LMML NIL=
201005250345 METAR LMML 250345Z 29004KT CAVOK 15/12 Q1016 NOSIG=
201005250330 METAR LMML NIL=
201005250315 METAR LMML 250315Z VRB03KT 9999 FEW020 BKN250 15/12 Q1016
                        NOSIG=
201005250300 METAR LMML NIL=
201005250245 METAR LMML 250245Z 34005KT 9999 FEW020 SCT120 15/13 Q1016
                        NOSIG=
201005250215 METAR LMML 250215Z 33005KT 9999 FEW020 SCT120 15/13 Q1016
                        NOSIG=
201005250200 METAR LMML NIL=
201005250145 METAR LMML 250145Z 33004KT 9999 FEW020 SCT120 15/12 Q1016
                        NOSIG=
201005250130 METAR LMML NIL=
201005250115 METAR LMML 250115Z 35004KT 9999 FEW020 SCT120 16/13 Q1016
                        NOSIG=
201005250100 METAR LMML NIL=
201005250045 METAR LMML 250045Z VRB02KT 9999 FEW020 BKN110 16/13 Q1017
                        NOSIG=
201005250030 METAR LMML NIL=
201005250015 METAR LMML 250015Z VRB02KT 9999 FEW020 BKN110 16/13 Q1017
                        NOSIG=
201005250000 METAR LMML NIL=
201005242345 METAR LMML 242345Z VRB02KT 9999 FEW020 BKN110 17/13 Q1017
                        NOSIG=
201005242330 METAR LMML NIL=
201005242315 METAR LMML 242315Z VRB02KT 9999 FEW020 BKN100 17/13 Q1017
                        NOSIG=
201005242300 METAR LMML NIL=
201005242245 METAR LMML 242245Z VRB02KT 9999 FEW020 BKN100 17/13 Q1017
                        NOSIG=
201005242230 METAR LMML NIL=
201005242215 METAR LMML 242215Z VRB02KT 9999 FEW020 BKN090 17/13 Q1017
                        NOSIG=
201005242200 METAR LMML NIL=
201005242145 METAR LMML 242145Z VRB03KT 9999 FEW020 BKN090 17/13 Q1017
                        NOSIG=
201005242130 METAR LMML NIL=
201005242115 METAR LMML 242115Z 04004KT 010V090 9999 FEW020 BKN090 17/13
                        Q1017 NOSIG=
201005242100 METAR LMML NIL=
201005242045 METAR LMML 242045Z 01005KT 9999 FEW016 BKN090 17/13 Q1017
                        NOSIG=
201005242030 METAR LMML NIL=
201005242015 METAR COR LMML 242015Z 01005KT 9999 FEW016 BKN070 17/13 Q1017
                        NOSIG=
201005242000 METAR LMML NIL=
201005241945 METAR LMML 241945Z 02004KT 340V070 9999 FEW016 BKN070 17/13
                        Q1017 NOSIG=
201005241930 METAR LMML NIL=
201005241915 METAR LMML 241915Z VRB03KT 9999 FEW027 BKN070 17/13 Q1017
                        NOSIG=
201005241900 METAR LMML NIL=
201005241845 METAR LMML 241845Z 09004KT 9999 FEW020 BKN070 17/13 Q1017
                        NOSIG=
201005241830 METAR LMML NIL=
201005241815 METAR LMML 241815Z 09004KT 050V110 9999 FEW020 BKN070 17/13
                        Q1016 NOSIG=
201005241800 METAR LMML NIL=
201005241745 METAR LMML 241745Z 08004KT 010V110 CAVOK 18/13 Q1016 NOSIG=
201005241730 METAR LMML NIL=
201005241715 METAR LMML 241715Z 06006KT 020V100 CAVOK 18/13 Q1016 NOSIG=
201005241700 METAR LMML NIL=
201005241645 METAR LMML 241645Z 03006KT 360V070 CAVOK 19/13 Q1016 NOSIG=
201005241630 METAR LMML NIL=
201005241615 METAR LMML 241615Z 04006KT 360V080 CAVOK 19/13 Q1016 NOSIG=
201005241600 METAR LMML NIL=
201005241545 METAR LMML 241545Z 04006KT 360V070 CAVOK 19/13 Q1016 NOSIG=
201005241530 METAR LMML NIL=
201005241515 METAR LMML 241515Z 08005KT 040V150 CAVOK 20/13 Q1015 NOSIG=
201005241500 METAR LMML NIL=
201005241445 METAR LMML 241445Z 06006KT 010V120 CAVOK 20/13 Q1015 NOSIG=
201005241430 METAR LMML NIL=
201005241415 METAR LMML 241415Z 06007KT 010V120 CAVOK 20/13 Q1015 NOSIG=
201005241400 METAR LMML NIL=
201005241345 METAR LMML 241345Z 05007KT 340V120 9999 FEW020 BKN250 21/13
                        Q1015 NOSIG=
201005241315 METAR LMML 241315Z 07007KT 010V100 9999 FEW020 BKN250 20/13
                        Q1016 NOSIG=
201005241300 METAR LMML NIL=
201005241245 METAR LMML 241245Z 06008KT 030V130 9999 FEW020 BKN250 20/13
                        Q1016 NOSIG=
201005241230 METAR LMML NIL=
201005241215 METAR LMML 241215Z 07008KT 020V120 9999 FEW019 SCT250 21/14
                        Q1016 NOSIG=
201005241200 METAR LMML NIL=
201005241145 METAR LMML 241145Z 06009KT 030V100 9999 FEW020 SCT250 21/14
                        Q1016 NOSIG=
201005241130 METAR LMML NIL=
201005241115 METAR LMML 241115Z 07008KT 020V120 9999 FEW017 SCT090 21/14
                        Q1017 NOSIG=
201005241100 METAR LMML NIL=
201005241045 METAR LMML 241045Z 08007KT 040V120 9999 FEW019 BKN090 20/14
                        Q1017 NOSIG=
201005241030 METAR LMML NIL=
201005241015 METAR LMML 241015Z 10007KT 060V130 9999 FEW019 BKN090 19/14
                        Q1017 NOSIG=
201005241000 METAR LMML NIL=
201005240945 METAR LMML 240945Z 11007KT 070V150 9999 FEW020 BKN090 19/14
                        Q1017 NOSIG=
201005240930 METAR LMML NIL=
201005240915 METAR LMML 240915Z 12007KT 070V160 CAVOK 19/14 Q1017 NOSIG=
201005240900 METAR LMML NIL=
201005240845 METAR LMML 240845Z 13007KT 100V160 CAVOK 18/14 Q1017 NOSIG=
201005240830 METAR LMML NIL=
201005240815 METAR LMML 240815Z 13008KT 100V160 CAVOK 17/13 Q1017 NOSIG=
201005240800 METAR LMML NIL=
201005240745 METAR LMML 240745Z 12009KT CAVOK 17/12 Q1017 NOSIG=
201005240730 METAR LMML NIL=
201005240715 METAR LMML 240715Z 11007KT 060V170 CAVOK 16/12 Q1016 NOSIG=
201005240700 METAR LMML NIL=
201005240645 METAR LMML 240645Z 09005KT 060V120 9999 FEW031 BKN080 15/13
                        Q1016 NOSIG=
201005240630 METAR LMML NIL=
201005240615 METAR LMML 240615Z 10005KT 050V120 9999 -RA FEW040 BKN080
                        15/13 Q1016 NOSIG=
201005240600 METAR LMML NIL=
201005240545 METAR LMML 240545Z 08004KT 030V120 9999 FEW025 BKN080 15/13
                        Q1016 NOSIG=
201005240530 METAR LMML NIL=
201005240515 METAR LMML 240515Z 08004KT 050V110 9999 -RA FEW025 BKN080
                        15/12 Q1016 TEMPO 8000=
201005240445 METAR LMML 240445Z VRB03KT 9999 FEW025 BKN070 OVC130 14/12
                        Q1016 TEMPO 8000=
201005240415 METAR LMML 240415Z VRB03KT 9000 -RA FEW019 BKN070 OVC130
                        14/12 Q1016 TEMPO 8000=
201005240400 METAR LMML NIL=
201005240345 METAR LMML 240345Z 13005KT 9999 -RA FEW026 BKN070 14/12 Q1016
                        TEMPO 8000=
201005240330 METAR LMML NIL=
201005240315 METAR LMML 240315Z 12004KT 9999 -RA SCT031 BKN070 15/12 Q1016
                        TEMPO 8000=
201005240300 METAR LMML NIL=
201005240245 METAR LMML 240245Z 14005KT 9999 -RA FEW010 SCT035 BKN070
                        15/14 Q1016 TEMPO 8000=
201005240215 METAR LMML 240215Z 16004KT 130V190 9999 -RA FEW010 SCT045
                        BKN080 16/14 Q1016 TEMPO 8000=
201005240200 METAR LMML NIL=
201005240145 METAR LMML 240145Z VRB02KT 9999 -RA FEW010 SCT038 BKN080
                        16/14 Q1016 TEMPO 8000=
201005240130 METAR LMML NIL=
201005240115 METAR LMML 240115Z VRB02KT 9999 -RA FEW010 SCT035 BKN080
                        16/14 Q1016 TEMPO 8000=
201005240100 METAR LMML NIL=
201005240045 METAR LMML 240045Z VRB02KT 9999 -RA FEW010 SCT034 BKN090
                        17/15 Q1016 TEMPO 8000=
201005240030 METAR LMML NIL=
201005240015 METAR LMML 240015Z VRB01KT 9999 -RA FEW010 SCT044 OVC090
                        17/15 Q1017 TEMPO 8000=
201005240000 METAR LMML NIL=
201005232345 METAR LMML 232345Z VRB02KT 9999 -RA FEW010 SCT038 OVC070
                        17/15 Q1017 TEMPO 8000=
201005232315 METAR LMML 232315Z 18004KT 130V200 9999 -RA FEW007 SCT035
                        OVC080 17/15 Q1017 TEMPO 8000=
201005232300 METAR LMML NIL=
201005232245 METAR LMML 232245Z VRB03KT 9999 -RA SCT035 OVC150 18/16 Q1017
                        TEMPO 8000=
201005232230 METAR LMML NIL=
201005232215 METAR LMML 232215Z VRB03KT 9999 -SHRA NSC 18/16 Q1017 TEMPO
                        8000=
201005232200 METAR LMML NIL=
201005232145 METAR LMML 232145Z 16005KT 9999 -SHRA NSC 18/15 Q1017 NOSIG=
201005232130 METAR LMML NIL=
201005232115 METAR LMML 232115Z 16004KT 140V200 CAVOK 18/15 Q1017 NOSIG=
201005232100 METAR LMML NIL=
201005232045 METAR LMML 232045Z 17004KT 130V210 CAVOK 18/15 Q1017 NOSIG=
201005232030 METAR LMML NIL=
201005232015 METAR LMML 232015Z 17004KT 140V200 CAVOK 18/15 Q1017 NOSIG=
201005232000 METAR LMML NIL=
201005231945 METAR LMML 231945Z 18004KT 140V220 CAVOK 18/15 Q1017 NOSIG=
201005231930 METAR LMML NIL=
201005231915 METAR LMML 231915Z 17004KT 140V210 CAVOK 18/15 Q1017 NOSIG=
201005231845 METAR LMML 231845Z 17004KT 130V220 CAVOK 18/14 Q1017 NOSIG=
201005231830 METAR LMML NIL=
201005231815 METAR LMML 231815Z 19004KT CAVOK 18/14 Q1017 NOSIG=
201005231800 METAR LMML NIL=
201005231745 METAR LMML 231745Z 20004KT 160V240 CAVOK 18/14 Q1017 NOSIG=
201005231730 METAR LMML NIL=
201005231715 METAR LMML 231715Z 21004KT 160V260 CAVOK 19/14 Q1017 NOSIG=
201005231700 METAR LMML NIL=
201005231645 METAR LMML 231645Z 22005KT 190V260 CAVOK 19/13 Q1017 NOSIG=
201005231630 METAR LMML NIL=
201005231615 METAR LMML 231615Z 20005KT 160V240 CAVOK 19/12 Q1017 NOSIG=
201005231600 METAR LMML NIL=
201005231545 METAR LMML 231545Z 21005KT 160V260 9999 FEW025 BKN250 20/12
                        Q1017 NOSIG=
201005231530 METAR LMML NIL=
201005231515 METAR LMML 231515Z 20004KT 160V260 9999 FEW025 BKN250 20/11
                        Q1017 NOSIG=
201005231500 METAR LMML NIL=
201005231445 METAR LMML 231445Z 20004KT 140V260 9999 FEW025 SCT120 BKN250
                        21/12 Q1017 NOSIG=
201005231430 METAR LMML NIL=
201005231415 METAR LMML 231415Z 02005KT 9999 FEW025 SCT120 BKN250 21/12
                        Q1017 NOSIG=
201005231400 METAR LMML NIL=
201005231345 METAR LMML 231345Z VRB03KT 9999 FEW025 BKN250 22/12 Q1017
                        NOSIG=
201005231330 METAR LMML NIL=
201005231315 METAR LMML 231315Z 20005KT 150V250 9999 FEW025 BKN250 22/11
                        Q1017 NOSIG=
201005231300 METAR LMML NIL=
201005231245 METAR LMML 231245Z 21006KT 170V260 9999 FEW028 BKN250 22/11
                        Q1017 NOSIG=
201005231230 METAR LMML NIL=
201005231215 METAR COR LMML 231215Z 22007KT 180V270 9999 FEW025 BKN250
                        22/12 Q1017 NOSIG=
201005231200 METAR LMML NIL=
201005231145 METAR LMML 231145Z 23007KT 160V290 9999 FEW025 BKN250 22/11
                        Q1017 NOSIG=
201005231130 METAR LMML NIL=
201005231115 METAR LMML 231115Z 23006KT 180V290 9999 FEW025 SCT250 22/10
                        Q1018 NOSIG=
201005231045 METAR LMML 231045Z 23006KT 180V290 9999 FEW025 SCT250 21/11
                        Q1018 NOSIG=
201005231030 METAR LMML NIL=
201005231015 METAR LMML 231015Z 24005KT 160V330 CAVOK 21/11 Q1018 NOSIG=
201005231000 METAR LMML NIL=
201005230945 METAR LMML 230945Z 22006KT 160V270 CAVOK 21/10 Q1018 NOSIG=
201005230930 METAR LMML NIL=
201005230915 METAR LMML 230915Z 23007KT 190V300 9999 FEW022 SCT250 21/12
                        Q1018 NOSIG=
201005230900 METAR LMML NIL=
201005230845 METAR LMML 230845Z 22007KT 170V260 9999 FEW020 BKN250 21/12
                        Q1018 TEMPO CAVOK=
201005230830 METAR LMML NIL=
201005230815 METAR LMML 230815Z 24006KT 200V290 9999 FEW020 BKN250 20/12
                        Q1018 TEMPO CAVOK=
201005230800 METAR LMML NIL=
201005230745 METAR LMML 230745Z 24005KT 190V310 9999 FEW017 BKN250 20/12
                        Q1018 NOSIG=
201005230730 METAR LMML NIL=
201005230715 METAR LMML 230715Z 24007KT 200V280 9999 FEW015 SCT250 19/14
                        Q1018 NOSIG=
201005230700 METAR LMML NIL=
201005230645 METAR LMML 230645Z 24007KT 200V280 9999 FEW012 BKN250 18/14
                        Q1018 NOSIG=
201005230630 METAR LMML NIL=
201005230615 METAR LMML 230615Z 24005KT 200V280 9999 FEW020 BKN250 18/13
                        Q1017 NOSIG=
201005230600 METAR LMML NIL=
201005230545 METAR LMML 230545Z 23004KT 200V280 9999 FEW020 BKN250 17/14
                        Q1017 NOSIG=
201005230530 METAR LMML NIL=
201005230515 METAR LMML 230515Z 23004KT 9999 FEW020 BKN250 16/13 Q1017
                        NOSIG=
201005230500 METAR LMML NIL=
201005230445 METAR LMML 230445Z VRB02KT CAVOK 15/12 Q1017 NOSIG=
201005230430 METAR LMML NIL=
201005230415 METAR LMML 230415Z VRB02KT CAVOK 15/12 Q1016 NOSIG=
201005230400 METAR LMML NIL=
201005230345 METAR LMML 230345Z 26004KT CAVOK 15/13 Q1016 NOSIG=
201005230330 METAR LMML NIL=
201005230315 METAR LMML 230315Z VRB03KT CAVOK 15/13 Q1016 NOSIG=
201005230300 METAR LMML NIL=
201005230245 METAR LMML 230245Z VRB02KT CAVOK 16/14 Q1016 NOSIG=
201005230230 METAR LMML NIL=
201005230215 METAR LMML 230215Z 25007KT 210V280 CAVOK 16/14 Q1016 NOSIG=
201005230200 METAR LMML NIL=
201005230145 METAR LMML 230145Z 24006KT 210V270 CAVOK 16/14 Q1016 NOSIG=
201005230115 METAR LMML 230115Z 24006KT CAVOK 15/14 Q1016 NOSIG=
201005230100 METAR LMML NIL=
201005230045 METAR LMML 230045Z 23004KT CAVOK 16/13 Q1017 NOSIG=
201005230030 METAR LMML NIL=
201005230015 METAR LMML 230015Z 22004KT CAVOK 15/13 Q1017 NOSIG=
201005230000 METAR LMML NIL=
201005222345 METAR LMML 222345Z VRB03KT CAVOK 15/13 Q1017 NOSIG=
201005222330 METAR LMML NIL=
201005222315 METAR LMML 222315Z VRB03KT CAVOK 16/13 Q1017 NOSIG=
201005222300 METAR LMML NIL=
201005222245 METAR LMML 222245Z 24004KT 210V290 CAVOK 16/13 Q1017 NOSIG=
201005222230 METAR LMML NIL=
201005222215 METAR LMML 222215Z 24004KT 210V280 CAVOK 16/13 Q1018 NOSIG=
201005222200 METAR LMML NIL=
201005222145 METAR LMML 222145Z 26006KT 230V290 CAVOK 16/14 Q1017 NOSIG=
201005222130 METAR LMML NIL=
201005222115 METAR LMML 222115Z 24005KT 200V290 CAVOK 16/13 Q1018 NOSIG=
201005222100 METAR LMML NIL=
201005222045 METAR LMML 222045Z 26005KT 210V280 CAVOK 16/13 Q1017 NOSIG=
201005222030 METAR LMML NIL=
201005222015 METAR LMML 222015Z 26004KT 230V290 CAVOK 16/13 Q1017 NOSIG=
201005222000 METAR LMML NIL=
201005221945 METAR LMML 221945Z 27004KT 230V300 CAVOK 17/13 Q1017 NOSIG=
201005221930 METAR LMML NIL=
201005221915 METAR LMML 221915Z 26004KT CAVOK 17/13 Q1017 NOSIG=
201005221900 METAR LMML NIL=
201005221845 METAR LMML 221845Z 28005KT 250V310 CAVOK 17/12 Q1017 NOSIG=
201005221830 METAR LMML NIL=
201005221815 METAR LMML 221815Z 28007KT 250V310 CAVOK 18/12 Q1017 NOSIG=
201005221800 METAR LMML NIL=
201005221745 METAR LMML 221745Z 28007KT 250V310 CAVOK 19/11 Q1017 NOSIG=
201005221730 METAR LMML NIL=
201005221715 METAR LMML 221715Z 29009KT 250V330 CAVOK 19/09 Q1017 NOSIG=
201005221700 METAR LMML NIL=
201005221645 METAR LMML 221645Z 30011KT 270V330 CAVOK 20/08 Q1017 NOSIG=
201005221630 METAR LMML NIL=
201005221615 METAR LMML 221615Z 29011KT CAVOK 20/08 Q1017 NOSIG=
201005221600 METAR LMML NIL=
201005221545 METAR LMML 221545Z 29011KT CAVOK 21/08 Q1017 NOSIG=
201005221530 METAR LMML NIL=
201005221515 METAR LMML 221515Z 29012KT 250V320 9999 FEW035 21/10 Q1017
                        NOSIG=
201005221500 METAR LMML NIL=
201005221445 METAR LMML 221445Z 29011KT 240V330 9999 FEW035 21/11 Q1017
                        NOSIG=
201005221430 METAR LMML NIL=
201005221415 METAR LMML 221415Z 28011KT 230V310 9999 FEW040 21/11 Q1017
                        NOSIG=
201005221400 METAR LMML NIL=
201005221345 METAR LMML 221345Z 28011KT 250V310 9999 FEW040 22/11 Q1017
                        NOSIG=
201005221330 METAR LMML NIL=
201005221315 METAR LMML 221315Z 30010KT 280V340 9999 FEW042 22/10 Q1017
                        NOSIG=
201005221300 METAR LMML NIL=
201005221245 METAR LMML 221245Z 30011KT 250V340 9999 FEW042 22/10 Q1017
                        NOSIG=
201005221230 METAR LMML NIL=
201005221215 METAR LMML 221215Z 29011KT 250V340 9999 FEW040 22/11 Q1017
                        NOSIG=
201005221200 METAR LMML NIL=
201005221145 METAR LMML 221145Z 30009KT 240V350 9999 FEW040 21/10 Q1017
                        NOSIG=
201005221130 METAR LMML NIL=
201005221115 METAR LMML 221115Z 29009KT 230V330 9999 FEW030 22/10 Q1017
                        NOSIG=
201005221100 METAR LMML NIL=
201005221045 METAR LMML 221045Z 29009KT 230V320 9999 FEW030 22/10 Q1017
                        NOSIG=
201005221030 METAR LMML NIL=
201005221015 METAR LMML 221015Z 32009KT 280V010 9999 FEW030 22/09 Q1017
                        NOSIG=
201005221000 METAR LMML NIL=
201005220945 METAR LMML 220945Z 33009KT 270V010 CAVOK 22/07 Q1018 NOSIG=
201005220930 METAR LMML NIL=
201005220915 METAR LMML 220915Z 32009KT 290V360 CAVOK 21/07 Q1018 NOSIG=
201005220900 METAR LMML NIL=
201005220845 METAR LMML 220845Z 34010KT CAVOK 21/08 Q1018 NOSIG=
201005220830 METAR LMML NIL=
201005220815 METAR LMML 220815Z 34011KT CAVOK 20/09 Q1018 NOSIG=
201005220800 METAR LMML NIL=
201005220745 METAR LMML 220745Z 34011KT 310V010 CAVOK 20/11 Q1018 NOSIG=
201005220730 METAR LMML NIL=
201005220715 METAR LMML 220715Z 32012KT CAVOK 19/08 Q1018 NOSIG=
201005220700 METAR LMML NIL=
201005220645 METAR LMML 220645Z 33011KT CAVOK 18/10 Q1017 NOSIG=
201005220630 METAR LMML NIL=
201005220615 METAR LMML 220615Z 33012KT CAVOK 18/10 Q1017 NOSIG=
201005220600 METAR LMML NIL=
201005220545 METAR LMML 220545Z 32011KT 9999 FEW020 17/12 Q1017 NOSIG=
201005220530 METAR LMML NIL=
201005220515 METAR LMML 220515Z 32009KT 9999 FEW020 16/12 Q1017 NOSIG=
201005220500 METAR LMML NIL=
201005220445 METAR LMML 220445Z 32008KT 9999 FEW020 14/11 Q1017 NOSIG=
201005220430 METAR LMML NIL=
201005220415 METAR LMML 220415Z 30007KT 9999 FEW025 13/10 Q1017 NOSIG=
201005220400 METAR LMML NIL=
201005220345 METAR LMML 220345Z 32006KT CAVOK 13/10 Q1017 NOSIG=
201005220330 METAR LMML NIL=
201005220315 METAR LMML 220315Z 32008KT CAVOK 14/10 Q1017 NOSIG=
201005220300 METAR LMML NIL=
201005220245 METAR LMML 220245Z 30007KT CAVOK 14/10 Q1017 NOSIG=
201005220230 METAR LMML NIL=
201005220215 METAR LMML 220215Z 29007KT CAVOK 14/10 Q1017 NOSIG=
201005220200 METAR LMML NIL=
201005220145 METAR LMML 220145Z 30007KT CAVOK 14/10 Q1017 NOSIG=
201005220130 METAR LMML NIL=
201005220115 METAR LMML 220115Z 31009KT CAVOK 14/10 Q1017 NOSIG=
201005220100 METAR LMML NIL=
201005220045 METAR LMML 220045Z 31008KT CAVOK 15/10 Q1017 NOSIG=
201005220030 METAR LMML NIL=
201005220015 METAR LMML 220015Z 32008KT CAVOK 15/10 Q1017 NOSIG=
201005220000 METAR LMML NIL=
201005212345 METAR LMML 212345Z 31011KT CAVOK 15/10 Q1017 NOSIG=
201005212330 METAR LMML NIL=
201005212315 METAR LMML 212315Z 31010KT 9999 FEW020 15/10 Q1017 NOSIG=
201005212300 METAR LMML NIL=
201005212245 METAR LMML 212245Z 30008KT 9999 FEW020 16/10 Q1017 NOSIG=
201005212230 METAR LMML NIL=
201005212215 METAR LMML 212215Z 32006KT 9999 FEW020 15/12 Q1017 NOSIG=
201005212145 METAR LMML 212145Z 32009KT 9999 FEW020 16/12 Q1017 NOSIG=
201005212130 METAR LMML NIL=
201005212115 METAR LMML 212115Z 29008KT 9999 FEW020 16/13 Q1017 NOSIG=
201005212100 METAR LMML NIL=
201005212045 METAR LMML 212045Z 29009KT 9999 FEW020 16/14 Q1017 NOSIG=
201005212030 METAR LMML NIL=
201005212015 METAR LMML 212015Z 29010KT 9999 FEW025 16/14 Q1017 NOSIG=
201005212000 METAR LMML NIL=
201005211945 METAR LMML 211945Z 29010KT 9999 FEW025 16/13 Q1017 NOSIG=
201005211930 METAR LMML NIL=
201005211915 METAR LMML 211915Z 30009KT 270V330 9999 FEW025 16/13 Q1017
                        NOSIG=
201005211900 METAR LMML NIL=
201005211845 METAR LMML 211845Z 29010KT 9999 FEW025 16/13 Q1016 NOSIG=
201005211830 METAR LMML NIL=
201005211815 METAR LMML 211815Z 29013KT 9999 FEW024 16/12 Q1016 NOSIG=
201005211800 METAR LMML NIL=
201005211745 METAR LMML 211745Z 29017KT 9999 FEW024 17/12 Q1016 NOSIG=
201005211730 METAR LMML NIL=
201005211715 METAR LMML 211715Z 28016KT 230V310 9999 FEW024 17/12 Q1016
                        NOSIG=
201005211645 METAR LMML 211645Z 29014KT 250V330 9999 FEW024 18/12 Q1016
                        NOSIG=
201005211630 METAR LMML NIL=
201005211615 METAR LMML 211615Z 28017KT 250V320 9999 FEW024 18/12 Q1016
                        NOSIG=
201005211600 METAR LMML NIL=
201005211545 METAR LMML 211545Z 29018KT 260V320 9999 FEW020 19/12 Q1016
                        NOSIG=
201005211530 METAR LMML NIL=
201005211515 METAR LMML 211515Z 28019KT 250V310 9999 FEW021 19/12 Q1016
                        NOSIG=
201005211500 METAR LMML NIL=
201005211445 METAR LMML 211445Z 29020KT 260V320 9999 SCT021 19/13 Q1016
                        NOSIG=
201005211430 METAR LMML NIL=
201005211415 METAR LMML 211415Z 29019KT 240V320 9999 SCT022 20/12 Q1016
                        NOSIG=
201005211400 METAR LMML NIL=
201005211345 METAR LMML 211345Z 29019KT 260V320 9999 SCT022 20/13 Q1016
                        NOSIG=
201005211330 METAR LMML NIL=
201005211315 METAR LMML 211315Z 29019KT 250V310 9999 SCT022 20/12 Q1016
                        NOSIG=
201005211300 METAR LMML NIL=
201005211245 METAR LMML 211245Z 28018KT 9999 SCT023 20/12 Q1016 NOSIG=
201005211230 METAR LMML NIL=
201005211215 METAR LMML 211215Z 28017KT 250V310 9999 SCT025 20/12 Q1017
                        NOSIG=
201005211200 METAR LMML NIL=
201005211145 METAR LMML 211145Z 29017KT 250V320 9999 SCT023 20/12 Q1017
                        NOSIG=
201005211130 METAR LMML NIL=
201005211115 METAR LMML 211115Z 28018KT 9999 SCT026 20/12 Q1017 NOSIG=
201005211100 METAR LMML NIL=
201005211045 METAR LMML 211045Z 28017KT 240V310 9999 SCT025 20/11 Q1017
                        NOSIG=
201005211030 METAR LMML NIL=
201005211015 METAR LMML 211015Z 29019KT 260V320 9999 SCT025 20/11 Q1017
                        NOSIG=
201005211000 METAR LMML NIL=
201005210945 METAR LMML 210945Z 29016KT 260V320 9999 SCT027 20/11 Q1017
                        NOSIG=
201005210930 METAR LMML NIL=
201005210915 METAR LMML 210915Z 29015KT 240V320 9999 FEW028 20/11 Q1017
                        NOSIG=
201005210900 METAR LMML NIL=
201005210845 METAR LMML 210845Z 28015KT 9999 FEW026 19/11 Q1017 NOSIG=
201005210830 METAR LMML NIL=
201005210815 METAR LMML 210815Z 31013KT 9999 FEW022 19/11 Q1017 NOSIG=
201005210800 METAR LMML NIL=
201005210745 METAR LMML 210745Z 30016KT 9999 FEW022 19/12 Q1017 NOSIG=
201005210730 METAR LMML NIL=
201005210715 METAR LMML 210715Z 31015KT 280V340 9999 FEW020 18/12 Q1017
                        NOSIG=
201005210700 METAR LMML NIL=
201005210645 METAR LMML 210645Z 30015KT 9999 FEW020 18/12 Q1017 NOSIG=
201005210630 METAR LMML NIL=
201005210615 METAR LMML 210615Z 31012KT 9999 FEW020 17/12 Q1017 NOSIG=
201005210600 METAR LMML NIL=
201005210545 METAR LMML 210545Z 31012KT 9999 FEW020 16/12 Q1017 NOSIG=
201005210530 METAR LMML NIL=
201005210515 METAR LMML 210515Z 31011KT 9999 FEW020 16/12 Q1016 NOSIG=
201005210500 METAR LMML NIL=
201005210445 METAR LMML 210445Z 30012KT 9999 FEW020 15/12 Q1016 NOSIG=
201005210430 METAR LMML NIL=
201005210415 METAR LMML 210415Z 31012KT 9999 FEW020 15/12 Q1016 NOSIG=
201005210400 METAR LMML NIL=
201005210345 METAR LMML 210345Z 31012KT 9999 FEW020 15/12 Q1016 NOSIG=
201005210330 METAR LMML NIL=
201005210315 METAR LMML 210315Z 31011KT 9999 FEW020 15/12 Q1016 NOSIG=
201005210300 METAR LMML NIL=
201005210245 METAR LMML 210245Z 30010KT CAVOK 15/12 Q1016 NOSIG=
201005210230 METAR LMML NIL=
201005210215 METAR LMML 210215Z 30010KT CAVOK 15/12 Q1016 NOSIG=
201005210200 METAR LMML NIL=
201005210145 METAR LMML 210145Z 31014KT CAVOK 15/12 Q1016 NOSIG=
201005210130 METAR LMML NIL=
201005210115 METAR LMML 210115Z 31013KT CAVOK 15/11 Q1016 NOSIG=
201005210100 METAR LMML NIL=
201005210045 METAR LMML 210045Z 31011KT CAVOK 15/12 Q1016 NOSIG=
201005210030 METAR LMML NIL=
201005210015 METAR LMML 210015Z 31014KT CAVOK 15/12 Q1016 NOSIG=
201005210000 METAR LMML NIL=
201005202345 METAR LMML 202345Z 31013G23KT 9999 FEW020 15/12 Q1016 NOSIG=
201005202330 METAR LMML NIL=
201005202315 METAR LMML 202315Z 32013KT CAVOK 15/12 Q1016 NOSIG=
201005202300 METAR LMML NIL=
201005202245 METAR LMML 202245Z 31011KT CAVOK 15/11 Q1016 NOSIG=
201005202230 METAR LMML NIL=
201005202215 METAR LMML 202215Z 31010KT CAVOK 15/11 Q1016 NOSIG=
201005202200 METAR LMML NIL=
201005202145 METAR LMML 202145Z 31011KT CAVOK 15/11 Q1016 TEMPO 9999 FEW020=
201005202130 METAR LMML NIL=
201005202115 METAR LMML 202115Z 31012KT CAVOK 16/12 Q1016 TEMPO 9999 FEW020=
201005202100 METAR LMML NIL=
201005202045 METAR LMML 202045Z 31013KT CAVOK 16/12 Q1016 TEMPO 9999 FEW020=
201005202015 METAR LMML 202015Z 30013KT 9999 FEW020 16/12 Q1015 TEMPO
                        CAVOK=
201005202000 METAR LMML NIL=
201005201945 METAR LMML 201945Z 31015KT CAVOK 16/12 Q1015 NOSIG=
201005201930 METAR LMML NIL=
201005201915 METAR LMML 201915Z 30015KT 9999 FEW018 16/12 Q1015 NOSIG=
201005201900 METAR LMML NIL=
201005201845 METAR LMML 201845Z 30016KT 260V320 9999 SCT018 16/12 Q1015
                        NOSIG=
201005201830 METAR LMML NIL=
201005201815 METAR LMML 201815Z 29017KT 9999 SCT019 16/13 Q1015 NOSIG=
201005201800 METAR LMML NIL=
201005201745 METAR LMML 201745Z 29017KT 240V320 9999 SCT021 16/12 Q1014
                        NOSIG=
201005201730 METAR LMML NIL=
201005201715 METAR LMML 201715Z 28016KT 9999 SCT020 16/12 Q1014 NOSIG=
201005201700 METAR LMML NIL=
201005201645 METAR LMML 201645Z 27016KT 230V300 9999 FEW020 16/12 Q1014
                        NOSIG=
201005201630 METAR LMML NIL=
201005201615 METAR LMML 201615Z 27019KT 240V310 9999 FEW023 17/12 Q1014
                        NOSIG=
201005201600 METAR LMML NIL=
201005201545 METAR LMML 201545Z 26018KT 230V320 9999 FEW027 17/11 Q1014
                        NOSIG=
201005201530 METAR LMML NIL=
201005201515 METAR LMML 201515Z 27018KT 230V310 9999 FEW024 18/10 Q1015
                        NOSIG=
201005201500 METAR LMML NIL=
201005201445 METAR LMML 201445Z 27014KT 240V310 9999 FEW024 17/11 Q1015
                        RETS NOSIG=
201005201430 METAR LMML NIL=
201005201415 METAR LMML 201415Z 29015KT 250V320 9999 FEW024TCU BKN070
                        16/12 Q1015 RETS BECMG FEW022=
201005201400 METAR LMML NIL=
201005201345 METAR LMML 201345Z 24013KT 190V270 9000 FEW018TCU SCT021
                        17/13 Q1015 BECMG 9999 FEW020=
201005201330 METAR LMML NIL=
201005201315 METAR LMML 201315Z 24009KT 210V280 9000 SCT020 SCT120 15/13
                        Q1015 BECMG 9999=
201005201300 METAR LMML NIL=
201005201245 METAR LMML 201245Z 24009KT 210V280 6000 -RA FEW024 BKN080
                        15/12 Q1016 NOSIG=
201005201230 METAR LMML NIL=
201005201215 METAR LMML 201215Z 26011KT 220V310 6000 -RA FEW024 OVC080
                        15/12 Q1017 NOSIG=
201005201200 METAR LMML NIL=
201005201145 METAR LMML 201145Z 28014KT 250V310 7000 -RA FEW024 BKN090
                        16/12 Q1017 NOSIG=
201005201130 METAR LMML NIL=
201005201115 METAR LMML 201115Z 26013KT 210V290 9999 FEW022 BKN090 17/12
                        Q1017 NOSIG=
201005201100 METAR LMML NIL=
201005201045 METAR LMML 201045Z 26012KT 220V300 9999 FEW023 BKN090 17/12
                        Q1017 NOSIG=
201005201015 METAR LMML 201015Z 27012KT 230V300 9999 FEW025 BKN090 17/11
                        Q1017 NOSIG=
201005201000 METAR LMML NIL=
201005200945 METAR LMML 200945Z 27011KT 230V300 9999 -RA FEW025 SCT090
                        17/11 Q1017 NOSIG=
201005200930 METAR LMML NIL=
201005200915 METAR LMML 200915Z 28011KT 230V300 9999 FEW024 BKN090 17/11
                        Q1017 NOSIG=
201005200900 METAR LMML NIL=
201005200845 METAR LMML 200845Z 28011KT 240V320 9999 FEW023 BKN090 17/12
                        Q1017 NOSIG=
201005200830 METAR LMML NIL=
201005200815 METAR LMML 200815Z 28012KT 230V310 9999 FEW022 BKN080 17/11
                        Q1017 NOSIG=
201005200800 METAR LMML NIL=
201005200745 METAR LMML 200745Z 28009KT 250V310 9999 FEW027 BKN080 16/12
                        Q1017 NOSIG=
201005200730 METAR LMML NIL=
201005200715 METAR LMML 200715Z 29009KT 260V320 9999 FEW027 BKN070 16/12
                        Q1017 NOSIG=
201005200700 METAR LMML NIL=
201005200645 METAR LMML 200645Z 27005KT 240V300 9999 FEW020 BKN070 16/12
                        Q1017 TEMPO 9000 RA=
201005200615 METAR LMML 200615Z 27004KT 230V310 9999 FEW025 BKN070 15/11
                        Q1017 TEMPO 9000 RA=
201005200600 METAR LMML NIL=
201005200545 METAR LMML 200545Z 28005KT 230V310 9999 FEW030 SCT060 BKN080
                        15/12 Q1017 NOSIG=
201005200530 METAR LMML NIL=
201005200515 METAR LMML 200515Z 28005KT 250V320 6000 FEW030 SCT060 BKN080
                        15/12 Q1017 NOSIG=
201005200445 METAR LMML 200445Z 29007KT 250V320 6000 -RA FEW031 SCT045
                        BKN090 15/12 Q1017 TEMPO 5000 SHRA
                        BKN015=
201005200430 METAR LMML NIL=
201005200415 METAR LMML 200415Z 26005KT 210V290 7000 -RA FEW030 SCT050
                        BKN120 15/13 Q1017 TEMPO 5000 SHRA
                        BKN015=
201005200400 METAR LMML NIL=
201005200345 METAR LMML 200345Z 30005KT 260V340 7000 -RA FEW027 SCT046
                        BKN120 15/13 Q1017 TEMPO 5000 SHRA
                        BKN015=
201005200330 METAR LMML NIL=
201005200315 METAR LMML 200315Z 30008KT 270V330 7000 -SHRA SCT027 BKN090
                        16/12 Q1017 TEMPO 5000 SHRA BKN015=
201005200300 METAR LMML NIL=
201005200245 METAR LMML 200245Z 27005KT 9999 -SHRA FEW034 BKN090 16/12
                        Q1017 TEMPO 8000 SHRA=
201005200230 METAR LMML NIL=
201005200215 METAR LMML 200215Z 26004KT 230V290 9999 FEW032 BKN100 15/12
                        Q1017 NOSIG=
201005200200 METAR LMML NIL=
201005200145 METAR LMML 200145Z VRB03KT 9999 FEW037 SCT120 16/12 Q1016
                        NOSIG=
201005200130 METAR LMML NIL=
201005200115 METAR LMML 200115Z 27004KT CAVOK 16/12 Q1017 NOSIG=
201005200100 METAR LMML NIL=
201005200045 METAR LMML 200045Z 25004KT CAVOK 16/12 Q1017 NOSIG=
201005200030 METAR LMML NIL=
201005200015 METAR LMML 200015Z VRB03KT CAVOK 16/13 Q1017 NOSIG=
201005200000 METAR LMML NIL=
201005192345 METAR LMML 192345Z 26005KT 220V300 CAVOK 16/13 Q1017 NOSIG=
201005192330 METAR LMML NIL=
201005192315 METAR LMML 192315Z 24006KT 210V280 9999 FEW000 16/13 Q1018
                        NOSIG=
201005192300 METAR LMML NIL=
201005192245 METAR LMML 192245Z 25006KT 220V280 CAVOK 16/13 Q1018 NOSIG=
201005192230 METAR LMML NIL=
201005192215 METAR LMML 192215Z 25008KT 200V280 CAVOK 16/12 Q1018 NOSIG=
201005192200 METAR LMML NIL=
201005192145 METAR LMML 192145Z 26009KT CAVOK 16/12 Q1018 NOSIG=
201005192130 METAR LMML NIL=
201005192115 METAR LMML 192115Z 26009KT 220V290 CAVOK 16/12 Q1018 NOSIG=
201005192045 METAR LMML 192045Z 25006KT 220V290 CAVOK 16/12 Q1018 NOSIG=
201005192030 METAR LMML NIL=
201005192015 METAR LMML 192015Z 26007KT 230V290 CAVOK 16/12 Q1018 NOSIG=
201005192000 METAR LMML NIL=
201005191945 METAR LMML 191945Z 25006KT 200V290 CAVOK 16/12 Q1018 NOSIG=
201005191930 METAR LMML NIL=
201005191915 METAR LMML 191915Z 25006KT 220V280 CAVOK 16/12 Q1017 NOSIG=
201005191845 METAR LMML 191845Z 25005KT 220V290 CAVOK 16/12 Q1017 NOSIG=
201005191830 METAR LMML NIL=
201005191815 METAR LMML 191815Z 27007KT 240V310 CAVOK 17/12 Q1017 NOSIG=
201005191800 METAR LMML NIL=
201005191745 METAR LMML 191745Z 28009KT CAVOK 17/12 Q1017 NOSIG=
201005191730 METAR LMML NIL=
201005191715 METAR LMML 191715Z 28013KT CAVOK 18/12 Q1017 NOSIG=
201005191700 METAR LMML NIL=
201005191645 METAR LMML 191645Z 28012KT 250V320 CAVOK 18/11 Q1017 NOSIG=
201005191630 METAR LMML NIL=
201005191615 METAR LMML 191615Z 28013KT 250V320 9999 FEW025 19/12 Q1017
                        NOSIG=
201005191600 METAR LMML NIL=
201005191545 METAR LMML 191545Z 28014KT 250V310 9999 FEW025 19/12 Q1017
                        NOSIG=
201005191530 METAR LMML NIL=
201005191515 METAR LMML 191515Z 28015KT 250V320 9999 SCT025 19/12 Q1017
                        NOSIG=
201005191500 METAR LMML NIL=
201005191445 METAR LMML 191445Z 27014KT 230V320 9999 SCT024 20/12 Q1018
                        NOSIG=
201005191430 METAR LMML NIL=
201005191415 METAR LMML 191415Z 28016KT 240V310 9999 SCT024 20/11 Q1018
                        NOSIG=
201005191400 METAR LMML NIL=
201005191345 METAR LMML 191345Z 28014KT 240V310 9999 BKN023 19/12 Q1018
                        NOSIG=
201005191330 METAR LMML NIL=
201005191315 METAR LMML 191315Z 28015KT 240V310 9999 BKN024 20/12 Q1018
                        NOSIG=
201005191300 METAR LMML NIL=
201005191245 METAR LMML 191245Z 28015KT 240V330 9999 BKN023 20/12 Q1018
                        NOSIG=
201005191230 METAR LMML NIL=
201005191215 METAR LMML 191215Z 29015KT 250V320 9999 BKN026 20/11 Q1018
                        NOSIG=
201005191200 METAR LMML NIL=
201005191145 METAR LMML 191145Z 27017KT 220V310 9999 SCT023 SCT040 19/12
                        Q1018 NOSIG=
201005191130 METAR LMML NIL=
201005191115 METAR LMML 191115Z 27016KT 230V310 9999 SCT023 19/12 Q1018
                        NOSIG=
201005191100 METAR LMML NIL=
201005191045 METAR LMML 191045Z 27017KT 220V310 9999 SCT028 20/11 Q1019
                        NOSIG=
201005191030 METAR LMML NIL=
201005191015 METAR LMML 191015Z 28016KT 240V310 9999 SCT029 20/11 Q1019
                        NOSIG=
201005191000 METAR LMML NIL=
201005190945 METAR LMML 190945Z 28018KT 230V310 9999 SCT027 19/10 Q1019
                        NOSIG=
201005190930 METAR LMML NIL=
201005190915 METAR LMML 190915Z 28016KT 230V310 9999 FEW025 SCT038 19/12
                        Q1019 NOSIG=
201005190900 METAR LMML NIL=
201005190845 METAR LMML 190845Z 28015KT 250V310 9999 SCT021 BKN040 18/12
                        Q1019 NOSIG=
201005190830 METAR LMML NIL=
201005190815 METAR LMML 190815Z 28012KT 230V330 9999 SCT023 BKN040 18/12
                        Q1019 NOSIG=
201005190800 METAR LMML NIL=
201005190745 METAR LMML 190745Z 29013KT 260V320 9999 SCT021 BKN040 19/12
                        Q1018 NOSIG=
201005190730 METAR LMML NIL=
201005190715 METAR LMML 190715Z 29010KT 260V320 9999 SCT019 BKN040 18/13
                        Q1018 NOSIG=
201005190700 METAR LMML NIL=
201005190645 METAR LMML 190645Z 30012KT 9999 SCT021 BKN044 17/12 Q1018
                        NOSIG=
201005190630 METAR LMML NIL=
201005190615 METAR LMML 190615Z 30010KT 9999 SCT020 BKN042 17/12 Q1018
                        NOSIG=
201005190600 METAR LMML NIL=
201005190545 METAR LMML 190545Z 30009KT 260V330 9999 FEW021 BKN040 17/12
                        Q1018 NOSIG=
201005190530 METAR LMML NIL=
201005190515 METAR LMML 190515Z 29007KT 260V320 9999 FEW025 BKN040 16/12
                        Q1018 NOSIG=
201005190500 METAR LMML NIL=
201005190445 METAR LMML 190445Z 29009KT 260V320 9999 FEW024 BKN040 16/11
                        Q1018 NOSIG=
201005190415 METAR LMML 190415Z 28007KT 9999 FEW021 BKN045 15/11 Q1018
                        NOSIG=
201005190400 METAR LMML NIL=
201005190345 METAR LMML 190345Z 27005KT 240V310 9999 FEW021 SCT045 15/11
                        Q1019 NOSIG=
201005190330 METAR LMML NIL=
201005190315 METAR LMML 190315Z 29007KT 250V320 9999 FEW021 SCT041 15/11
                        Q1018 NOSIG=
201005190300 METAR LMML NIL=
201005190245 METAR LMML 190245Z 29007KT 260V320 9999 FEW021 SCT040 15/11
                        Q1019 NOSIG=
201005190230 METAR LMML NIL=
201005190215 METAR LMML 190215Z 29009KT 260V320 9999 FEW021 15/11 Q1019
                        NOSIG=
201005190200 METAR LMML NIL=
201005190145 METAR LMML 190145Z 30008KT 280V340 9999 FEW021 15/11 Q1019
                        NOSIG=
201005190130 METAR LMML NIL=
201005190115 METAR LMML 190115Z 30009KT 9999 FEW023 15/11 Q1019 NOSIG=
201005190100 METAR LMML NIL=
201005190045 METAR LMML 190045Z 30008KT 270V330 9999 FEW021 15/11 Q1019
                        NOSIG=
201005190030 METAR LMML NIL=
201005190015 METAR LMML 190015Z 31007KT 9999 FEW020 15/11 Q1020 NOSIG=
201005190000 METAR LMML NIL=
201005182345 METAR LMML 182345Z 31007KT 9999 FEW020 15/11 Q1020 NOSIG=
201005182315 METAR LMML 182315Z 32011KT 9999 FEW020 15/11 Q1020 NOSIG=
201005182300 METAR LMML NIL=
201005182245 METAR LMML 182245Z 31013KT 9999 FEW020 15/11 Q1020 NOSIG=
201005182230 METAR LMML NIL=
201005182215 METAR LMML 182215Z 31010KT CAVOK 15/11 Q1021 NOSIG=
201005182200 METAR LMML NIL=
201005182145 METAR LMML 182145Z 31008KT 9999 FEW020 15/12 Q1021 NOSIG=
201005182130 METAR LMML NIL=
201005182115 METAR LMML 182115Z 32011KT CAVOK 16/12 Q1021 NOSIG=
201005182100 METAR LMML NIL=
201005182045 METAR LMML 182045Z 31013KT CAVOK 16/12 Q1021 NOSIG=
201005182030 METAR LMML NIL=
201005182015 METAR LMML 182015Z 30014KT 260V330 9999 FEW020 16/12 Q1021
                        NOSIG=
201005182000 METAR LMML NIL=
201005181945 METAR LMML 181945Z 30015KT 270V330 CAVOK 16/12 Q1021 NOSIG=
201005181930 METAR LMML NIL=
201005181915 METAR LMML 181915Z 30014KT 9999 FEW020 16/12 Q1021 NOSIG=
201005181900 METAR LMML NIL=
201005181845 METAR LMML 181845Z 29015KT 9999 FEW020 16/12 Q1020 NOSIG=
201005181830 METAR LMML NIL=
201005181815 METAR LMML 181815Z 29015KT 270V330 9999 FEW025 16/11 Q1020
                        NOSIG=
201005181800 METAR LMML NIL=
201005181745 METAR LMML 181745Z 29016KT 9999 FEW030 17/12 Q1020 NOSIG=
201005181730 METAR LMML NIL=
201005181715 METAR LMML 181715Z 29014KT 9999 FEW030 17/12 Q1020 NOSIG=
201005181700 METAR LMML NIL=
201005181645 METAR LMML 181645Z 29014KT 9999 FEW030 18/12 Q1020 NOSIG=
201005181630 METAR LMML NIL=
201005181615 METAR LMML 181615Z 29016KT 250V320 9999 FEW030 19/11 Q1020
                        NOSIG=
201005181600 METAR LMML NIL=
201005181545 METAR LMML 181545Z 29015KT 9999 FEW030 19/11 Q1020 NOSIG=
201005181530 METAR LMML NIL=
201005181515 METAR LMML 181515Z 29016KT 260V320 9999 FEW030 19/10 Q1020
                        NOSIG=
201005181500 METAR LMML NIL=
201005181445 METAR LMML 181445Z 29016KT 260V330 9999 FEW030 20/11 Q1021
                        NOSIG=
201005181430 METAR LMML NIL=
201005181415 METAR LMML 181415Z 28015KT 240V310 9999 FEW032 20/11 Q1020
                        NOSIG=
201005181400 METAR LMML NIL=
201005181345 METAR LMML 181345Z 30014KT 270V340 9999 FEW032 20/10 Q1021
                        NOSIG=
201005181330 METAR LMML NIL=
201005181315 METAR LMML 181315Z 29013KT 250V340 9999 FEW032 20/09 Q1021
                        NOSIG=
201005181300 METAR LMML NIL=
201005181245 METAR LMML 181245Z 30014KT 270V330 9999 FEW032 21/11 Q1021
                        NOSIG=
201005181230 METAR LMML NIL=
201005181215 METAR LMML 181215Z 29012KT 250V330 9999 FEW032 21/10 Q1021
                        NOSIG=
201005181200 METAR LMML NIL=
201005181145 METAR LMML 181145Z 29012KT 240V320 9999 FEW031 20/11 Q1021
                        NOSIG=
201005181130 METAR LMML NIL=
201005181115 METAR LMML 181115Z 28013KT 250V310 9999 SCT032 20/10 Q1021
                        NOSIG=
201005181100 METAR LMML NIL=
201005181045 METAR LMML 181045Z 29014KT 250V330 9999 SCT032 19/10 Q1021
                        NOSIG=
201005181030 METAR LMML NIL=
201005181015 METAR LMML 181015Z 29014KT 250V340 9999 SCT031 19/10 Q1021
                        NOSIG=
201005181000 METAR LMML NIL=
201005180945 METAR LMML 180945Z 29013KT 250V320 9999 SCT032 19/09 Q1021
                        NOSIG=
201005180930 METAR LMML NIL=
201005180915 METAR LMML 180915Z 29014KT 260V330 9999 SCT031 19/10 Q1021
                        NOSIG=
201005180900 METAR LMML NIL=
201005180845 METAR LMML 180845Z 31015KT 280V340 9999 SCT030 18/10 Q1021
                        NOSIG=
201005180830 METAR LMML NIL=
201005180815 METAR LMML 180815Z 31015KT 9999 SCT028 SCT045 18/10 Q1021
                        NOSIG=
201005180800 METAR LMML NIL=
201005180745 METAR LMML 180745Z 30014KT 9999 SCT030 18/09 Q1021 NOSIG=
201005180730 METAR LMML NIL=
201005180715 METAR LMML 180715Z 31012KT 290V350 9999 SCT028 17/09 Q1021
                        NOSIG=
201005180700 METAR LMML NIL=
201005180645 METAR LMML 180645Z 31014KT 9999 SCT028 BKN046 16/10 Q1021
                        NOSIG=
201005180630 METAR LMML NIL=
201005180615 METAR LMML 180615Z 30015KT 9999 SCT030 SCT050 17/09 Q1021
                        NOSIG=
201005180600 METAR LMML NIL=
201005180545 METAR LMML 180545Z 30014KT 270V330 9999 SCT030 17/09 Q1021
                        NOSIG=
201005180530 METAR LMML NIL=
201005180515 METAR LMML 180515Z 30014KT 9999 SCT029 16/08 Q1021 NOSIG=
201005180500 METAR LMML NIL=
201005180445 METAR LMML 180445Z 29014KT 9999 SCT029 16/09 Q1021 NOSIG=
201005180430 METAR LMML NIL=
201005180415 METAR LMML 180415Z 30013KT 9999 FEW027 SCT048 15/09 Q1020
                        NOSIG=
201005180345 METAR LMML 180345Z 30011KT 9999 FEW027 SCT048 15/09 Q1021
                        NOSIG=
201005180330 METAR LMML NIL=
201005180315 METAR LMML 180315Z 30013KT 9999 FEW030 BKN050 16/09 Q1021
                        NOSIG=
201005180300 METAR LMML NIL=
201005180245 METAR LMML 180245Z 31010KT 9999 FEW028 BKN040 15/10 Q1021
                        NOSIG=
201005180230 METAR LMML NIL=
201005180215 METAR LMML 180215Z 31014KT 9999 SCT027 15/09 Q1021 NOSIG=
201005180200 METAR LMML NIL=
201005180145 METAR LMML 180145Z 30014KT 9999 FEW042 15/09 Q1021 NOSIG=
201005180115 METAR LMML 180115Z 31011KT 9999 SCT042 15/09 Q1021 NOSIG=
201005180100 METAR LMML NIL=
201005180045 METAR LMML 180045Z 30013KT 9999 SCT026 16/10 Q1021 NOSIG=
201005180030 METAR LMML NIL=
201005180015 METAR LMML 180015Z 30015KT 9999 SCT027 16/10 Q1021 NOSIG=
201005180000 METAR LMML NIL=
201005172345 METAR LMML 172345Z 30013KT 9999 SCT030 16/10 Q1021 NOSIG=
201005172330 METAR LMML NIL=
201005172315 METAR LMML 172315Z 30013KT 270V330 9999 SCT027 16/10 Q1021
                        NOSIG=
201005172300 METAR LMML NIL=
201005172245 METAR LMML 172245Z 30012KT 9999 FEW027 16/11 Q1022 NOSIG=
201005172230 METAR LMML NIL=
201005172215 METAR LMML 172215Z 30013KT 250V320 9999 FEW031 16/10 Q1022
                        NOSIG=
201005172200 METAR LMML NIL=
201005172145 METAR LMML 172145Z 30015KT 9999 FEW028 16/10 Q1022 NOSIG=
201005172130 METAR LMML NIL=
201005172115 METAR LMML 172115Z 30017KT 9999 FEW028 16/10 Q1022 NOSIG=
201005172100 METAR LMML NIL=
201005172045 METAR LMML 172045Z 30014KT 9999 SCT028 16/10 Q1022 NOSIG=
201005172030 METAR LMML NIL=
201005172015 METAR LMML 172015Z 30016KT 9999 SCT030 16/09 Q1022 NOSIG=
201005172000 METAR LMML NIL=
201005171945 METAR LMML 171945Z 29015KT 260V320 9999 SCT030 16/09 Q1022
                        NOSIG=
201005171930 METAR LMML NIL=
201005171915 METAR LMML 171915Z 30016KT 260V330 9999 SCT033 17/09 Q1021
                        NOSIG=
201005171900 METAR LMML NIL=
201005171845 METAR LMML 171845Z 29014KT 260V330 9999 SCT029 17/09 Q1021
                        NOSIG=
201005171830 METAR LMML NIL=
201005171815 METAR LMML 171815Z 29017KT 250V320 9999 SCT031 17/10 Q1021
                        NOSIG=
201005171800 METAR LMML NIL=
201005171745 METAR LMML 171745Z 28018KT 260V320 9999 SCT032 17/10 Q1021
                        NOSIG=
201005171715 METAR LMML 171715Z 29017KT 260V320 9999 SCT035 17/09 Q1020
                        NOSIG=
201005171700 METAR LMML NIL=
201005171645 METAR LMML 171645Z 29017KT 260V330 9999 SCT035 18/09 Q1020
                        NOSIG=
201005171630 METAR LMML NIL=
201005171615 METAR LMML 171615Z 28016KT 250V310 9999 FEW018 19/09 Q1021
                        NOSIG=
201005171600 METAR LMML NIL=
201005171545 METAR LMML 171545Z 30019KT 270V330 9999 SCT033 19/09 Q1021
                        NOSIG=
201005171530 METAR LMML NIL=
201005171515 METAR LMML 171515Z 29019KT 250V320 9999 SCT035 19/09 Q1021
                        NOSIG=
201005171500 METAR LMML NIL=
201005171445 METAR LMML 171445Z 29016KT 240V320 9999 FEW035 19/09 Q1021
                        NOSIG=
201005171430 METAR LMML NIL=
201005171415 METAR LMML 171415Z 29019KT 230V320 9999 SCT032 19/10 Q1021
                        NOSIG=
201005171400 METAR LMML NIL=
201005171345 METAR LMML 171345Z 29017KT 240V330 9999 SCT031 20/10 Q1021
                        NOSIG=
201005171330 METAR LMML NIL=
201005171315 METAR LMML 171315Z 29020KT 250V320 9999 SCT033 19/10 Q1022
                        NOSIG=
201005171300 METAR LMML NIL=
201005171245 METAR LMML 171245Z 28019KT 230V310 9999 SCT033 19/10 Q1022
                        NOSIG=
201005171230 METAR LMML NIL=
201005171215 METAR LMML 171215Z 30019KT 260V330 9999 FEW033 20/10 Q1021
                        NOSIG=
201005171200 METAR LMML NIL=
201005171145 METAR LMML 171145Z 29020KT 260V320 9999 SCT032 20/10 Q1022
                        NOSIG=
201005171130 METAR LMML NIL=
201005171115 METAR LMML 171115Z 29020KT 260V320 9999 FEW000 19/08 Q1022
                        NOSIG=
201005171100 METAR LMML NIL=
201005171045 METAR LMML 171045Z 28016KT 230V320 9999 FEW034 20/09 Q1021
                        NOSIG=
201005171030 METAR LMML NIL=
201005171015 METAR LMML 171015Z 29017KT 260V320 9999 FEW032 19/09 Q1022
                        NOSIG=
201005171000 METAR LMML NIL=
201005170945 METAR LMML 170945Z 29018KT 260V330 9999 FEW033 19/10 Q1022
                        NOSIG=
201005170930 METAR LMML NIL=
201005170915 METAR LMML 170915Z 29020KT 260V320 9999 FEW037 19/09 Q1022
                        NOSIG=
201005170900 METAR LMML NIL=
201005170845 METAR LMML 170845Z 30020KT 9999 FEW036 19/08 Q1021 NOSIG=
201005170830 METAR LMML NIL=
201005170815 METAR LMML 170815Z 30020KT 9999 FEW036 19/08 Q1021 NOSIG=
201005170800 METAR LMML NIL=
201005170745 METAR LMML 170745Z 30018G29KT 260V320 9999 FEW033 19/09 Q1021
                        NOSIG=
201005170730 METAR LMML NIL=
201005170715 METAR LMML 170715Z 30019KT 9999 SCT035 18/09 Q1021 NOSIG=
201005170700 METAR LMML NIL=
201005170645 METAR LMML 170645Z 30018KT 9999 SCT035 18/08 Q1021 NOSIG=
201005170630 METAR LMML NIL=
201005170615 METAR LMML 170615Z 29016KT 250V320 9999 SCT035 17/08 Q1021
                        NOSIG=
201005170600 METAR LMML NIL=
201005170545 METAR LMML 170545Z 29013KT 260V320 9999 FEW035 17/08 Q1021
                        NOSIG=
201005170530 METAR LMML NIL=
201005170515 METAR LMML 170515Z 29012KT 270V340 9999 FEW030 16/08 Q1021
                        NOSIG=
201005170500 METAR LMML NIL=
201005170445 METAR LMML 170445Z 29010KT 260V320 9999 FEW030 16/08 Q1020
                        NOSIG=
201005170430 METAR LMML NIL=
201005170415 METAR LMML 170415Z 29011KT 9999 FEW030 15/08 Q1020 NOSIG=
201005170400 METAR LMML NIL=
201005170345 METAR LMML 170345Z 30012KT 260V320 9999 FEW030 15/08 Q1020
                        NOSIG=
201005170330 METAR LMML NIL=
201005170315 METAR LMML 170315Z 29011KT 260V330 CAVOK 15/08 Q1020 NOSIG=
201005170300 METAR LMML NIL=
201005170245 METAR LMML 170245Z 30011KT 9999 FEW031 15/08 Q1020 NOSIG=
201005170230 METAR LMML NIL=
201005170215 METAR LMML 170215Z 29011KT 9999 FEW031 16/09 Q1020 NOSIG=
201005170200 METAR LMML NIL=
201005170145 METAR LMML 170145Z 29010KT 250V320 9999 FEW031 15/09 Q1020
                        NOSIG=
201005170130 METAR LMML NIL=
201005170115 METAR LMML 170115Z 29012KT 250V320 9999 FEW032 16/09 Q1020
                        NOSIG=
201005170100 METAR LMML NIL=
201005170045 METAR LMML 170045Z 28011KT 9999 FEW032 15/09 Q1020 NOSIG=
201005170030 METAR LMML NIL=
201005170015 METAR LMML 170015Z 29009KT 9999 FEW032 16/09 Q1020 NOSIG=
201005170000 METAR LMML NIL=
201005162345 METAR LMML 162345Z 29010KT 9999 FEW033 16/09 Q1021 TEMPO
                        CAVOK=
201005162330 METAR LMML NIL=
201005162315 METAR LMML 162315Z 29010KT 9999 FEW036 16/09 Q1021 TEMPO
                        CAVOK=
201005162300 METAR LMML NIL=
201005162245 METAR LMML 162245Z 29008KT 250V320 9999 FEW036 16/08 Q1021
                        NOSIG=
201005162230 METAR LMML NIL=
201005162215 METAR LMML 162215Z 29010KT 260V320 CAVOK 16/08 Q1021 NOSIG=
201005162200 METAR LMML NIL=
201005162145 METAR LMML 162145Z 29010KT 260V320 CAVOK 16/08 Q1021 NOSIG=
201005162130 METAR LMML NIL=
201005162115 METAR LMML 162115Z 29009KT 260V320 CAVOK 16/08 Q1021 NOSIG=
201005162100 METAR LMML NIL=
201005162045 METAR LMML 162045Z 29007KT CAVOK 16/09 Q1021 NOSIG=
201005162030 METAR LMML NIL=
201005162015 METAR LMML 162015Z 30008KT 280V350 CAVOK 16/08 Q1021 NOSIG=
201005162000 METAR LMML NIL=
201005161945 METAR LMML 161945Z 30012KT CAVOK 17/08 Q1020 NOSIG=
201005161930 METAR LMML NIL=
201005161915 METAR LMML 161915Z 29011KT 250V320 CAVOK 17/08 Q1020 NOSIG=
201005161900 METAR LMML NIL=
201005161845 METAR LMML 161845Z 29011KT 260V320 CAVOK 17/08 Q1020 NOSIG=
201005161830 METAR LMML NIL=
201005161815 METAR LMML 161815Z 29011KT CAVOK 17/09 Q1020 NOSIG=
201005161800 METAR LMML NIL=
201005161745 METAR LMML 161745Z 30013KT 260V320 CAVOK 17/09 Q1019 NOSIG=
201005161715 METAR LMML 161715Z 30013KT 250V330 9999 FEW030 18/09 Q1019
                        NOSIG=
201005161700 METAR LMML NIL=
201005161645 METAR LMML 161645Z 30014KT 260V330 9999 FEW030 18/09 Q1019
                        NOSIG=
201005161630 METAR LMML NIL=
201005161615 METAR LMML 161615Z 30017KT 250V330 9999 FEW030 19/09 Q1019
                        NOSIG=
201005161600 METAR LMML NIL=
201005161545 METAR LMML 161545Z 30016KT 260V330 9999 FEW030 19/08 Q1019
                        NOSIG=
201005161530 METAR LMML NIL=
201005161515 METAR LMML 161515Z 31016KT 9999 FEW030 20/09 Q1019 NOSIG=
201005161500 METAR LMML NIL=
201005161445 METAR LMML 161445Z 30016KT 9999 FEW030 20/06 Q1019 NOSIG=
201005161430 METAR LMML NIL=
201005161415 METAR LMML 161415Z 29013KT 250V330 9999 FEW030 20/09 Q1019
                        NOSIG=
201005161345 METAR LMML 161345Z 29013KT 250V350 9999 FEW030 20/10 Q1019
                        NOSIG=
201005161330 METAR LMML NIL=
201005161315 METAR LMML 161315Z 30014KT 260V330 9999 FEW030 20/08 Q1019
                        NOSIG=
201005161300 METAR LMML NIL=
201005161245 METAR LMML 161245Z 29014KT 250V320 9999 FEW030 20/09 Q1019
                        NOSIG=
201005161230 METAR LMML NIL=
201005161215 METAR LMML 161215Z 30014KT 260V330 9999 FEW030 20/10 Q1019
                        NOSIG=
201005161200 METAR LMML NIL=
201005161145 METAR LMML 161145Z 29013KT 250V320 9999 FEW033 21/11 Q1019
                        NOSIG=
201005161130 METAR LMML NIL=
201005161115 METAR LMML 161115Z 30014KT 250V340 9999 FEW033 20/10 Q1019
                        NOSIG=
201005161100 METAR LMML NIL=
201005161045 METAR LMML 161045Z 28012KT 220V320 9999 FEW034 20/10 Q1019
                        NOSIG=
201005161030 METAR LMML NIL=
201005161015 METAR LMML 161015Z 29012KT 250V320 9999 FEW034 SCT050 19/09
                        Q1019 NOSIG=
201005161000 METAR LMML NIL=
201005160945 METAR LMML 160945Z 29014KT 250V320 9999 FEW033 SCT080 19/10
                        Q1019 NOSIG=
201005160930 METAR LMML NIL=
201005160915 METAR LMML 160915Z 29014KT 260V340 9999 FEW033 SCT080 20/10
                        Q1019 NOSIG=
201005160845 METAR LMML 160845Z 27012KT 240V310 9999 FEW044 SCT080 20/09
                        Q1018 NOSIG=
201005160830 METAR LMML NIL=
201005160815 METAR LMML 160815Z 29015KT 250V320 9999 SCT047 19/09 Q1018
                        NOSIG=
201005160800 METAR LMML NIL=
201005160745 METAR LMML 160745Z 28014KT 240V310 9999 SCT045 18/10 Q1018
                        NOSIG=
201005160730 METAR LMML NIL=
201005160715 METAR LMML 160715Z 28013KT 210V300 9999 BKN044 18/09 Q1018
                        NOSIG=
201005160700 METAR LMML NIL=
201005160645 METAR LMML 160645Z 27012KT 230V310 9999 SCT033 18/10 Q1018
                        NOSIG=
201005160630 METAR LMML NIL=
201005160615 METAR LMML 160615Z 29014KT 260V320 9999 FEW025 SCT100 18/09
                        Q1017 NOSIG=
201005160600 METAR LMML NIL=
201005160545 METAR LMML 160545Z 28011KT 250V320 9999 FEW025 BKN100 17/08
                        Q1017 NOSIG=
201005160515 METAR LMML 160515Z 27012KT 240V300 9999 FEW025 BKN100 17/09
                        Q1017 NOSIG=
201005160445 METAR LMML 160445Z 29010KT 250V320 9999 FEW025 16/11 Q1017
                        NOSIG=
201005160415 METAR LMML 160415Z 29015KT 250V320 9999 FEW039 16/11 Q1017
                        NOSIG=
201005160400 METAR LMML NIL=
201005160345 METAR LMML 160345Z 26008KT 220V290 9999 FEW025 16/10 Q1016
                        NOSIG=
201005160330 METAR LMML NIL=
201005160315 METAR LMML 160315Z 25007KT 220V280 9999 FEW025 16/10 Q1016
                        NOSIG=
201005160245 METAR LMML 160245Z 24007KT 200V280 9999 FEW025 16/11 Q1016
                        NOSIG=
201005160230 METAR LMML NIL=
201005160215 METAR LMML 160215Z 24006KT 210V280 9999 FEW025 16/10 Q1016
                        NOSIG=
201005160200 METAR LMML NIL=
201005160145 METAR LMML 160145Z 24007KT 190V280 9999 FEW025 16/11 Q1016
                        NOSIG=
201005160130 METAR LMML NIL=
201005160115 METAR LMML 160115Z 24008KT 200V280 9999 FEW025 16/11 Q1016
                        NOSIG=
201005160100 METAR LMML NIL=
201005160045 METAR LMML 160045Z 24007KT 200V290 9999 FEW025 16/10 Q1016
                        NOSIG=
201005160030 METAR LMML NIL=
201005160015 METAR LMML 160015Z 25006KT 210V280 CAVOK 16/10 Q1016 NOSIG=
201005160000 METAR LMML NIL=
201005152345 METAR LMML 152345Z 26007KT 230V290 CAVOK 16/11 Q1016 NOSIG=
201005152330 METAR LMML NIL=
201005152315 METAR LMML 152315Z 25006KT 210V280 CAVOK 16/11 Q1016 NOSIG=
201005152300 METAR LMML NIL=
201005152245 METAR LMML 152245Z 25005KT 210V280 CAVOK 15/10 Q1016 NOSIG=
201005152230 METAR LMML NIL=
201005152215 METAR LMML 152215Z 26005KT 220V290 CAVOK 15/09 Q1016 NOSIG=
201005152200 METAR LMML NIL=
201005152145 METAR LMML 152145Z 27005KT 240V300 CAVOK 15/09 Q1016 NOSIG=
201005152130 METAR LMML NIL=
201005152115 METAR LMML 152115Z 28007KT CAVOK 16/08 Q1016 NOSIG=
201005152100 METAR LMML NIL=
201005152045 METAR LMML 152045Z 30007KT 270V330 CAVOK 16/09 Q1016 NOSIG=
201005152030 METAR LMML NIL=
201005152015 METAR LMML 152015Z 30010KT 9999 FEW035 16/09 Q1016 NOSIG=
201005152000 METAR LMML NIL=
201005151945 METAR LMML 151945Z 30011KT 260V330 9999 FEW035 16/09 Q1016
                        NOSIG=
201005151930 METAR LMML NIL=
201005151915 METAR LMML 151915Z 30013KT 270V330 9999 FEW035 16/10 Q1016
                        NOSIG=
201005151900 METAR LMML NIL=
201005151845 METAR LMML 151845Z 29013KT 260V320 9999 FEW035 17/10 Q1015
                        NOSIG=
201005151830 METAR LMML NIL=
201005151815 METAR LMML 151815Z 30016KT 9999 FEW035 17/10 Q1015 NOSIG=
201005151800 METAR LMML NIL=
201005151745 METAR LMML 151745Z 30016KT 270V330 9999 FEW034 17/09 Q1014
                        NOSIG=
201005151730 METAR LMML NIL=
201005151715 METAR LMML 151715Z 29020KT 9999 FEW034 18/09 Q1014 NOSIG=
201005151700 METAR LMML NIL=
201005151645 METAR LMML 151645Z 28017KT 240V330 9999 SCT032 18/10 Q1014
                        NOSIG=
201005151630 METAR LMML NIL=
201005151615 METAR LMML 151615Z 29018KT 250V320 9999 SCT032 18/10 Q1013
                        NOSIG=
201005151600 METAR LMML NIL=
201005151545 METAR LMML 151545Z 29021KT 260V320 9999 SCT033 19/10 Q1013
                        NOSIG=
201005151530 METAR LMML NIL=
201005151515 METAR LMML 151515Z 29019KT 250V330 9999 SCT030 19/10 Q1013
                        NOSIG=
201005151500 METAR LMML NIL=
201005151445 METAR LMML 151445Z 28022KT 240V310 9999 SCT030 19/11 Q1013
                        NOSIG=
201005151430 METAR LMML NIL=
201005151415 METAR LMML 151415Z 29022KT 250V310 9999 SCT032 19/10 Q1013
                        NOSIG=
201005151400 METAR LMML NIL=
201005151345 METAR LMML 151345Z 28021KT 230V320 9999 SCT033 20/09 Q1012
                        NOSIG=
201005151330 METAR LMML NIL=
201005151315 METAR LMML 151315Z 27022KT 230V300 9999 SCT034 19/10 Q1012
                        NOSIG=
201005151300 METAR LMML NIL=
201005151245 METAR LMML 151245Z 27022G32KT 240V310 9999 SCT034 19/09 Q1012
                        NOSIG=
201005151230 METAR LMML NIL=
201005151215 METAR LMML 151215Z 27021KT 220V310 9999 SCT034 19/09 Q1011
                        NOSIG=
201005151200 METAR LMML NIL=
201005151145 METAR LMML 151145Z 27024KT 220V310 9999 SCT035 19/09 Q1011
                        NOSIG=
201005151130 METAR LMML NIL=
201005151115 METAR LMML 151115Z 27024KT 230V300 9999 SCT033 19/10 Q1011
                        NOSIG=
201005151100 METAR LMML NIL=
201005151045 METAR LMML 151045Z 27024KT 240V300 9999 SCT038 19/08 Q1011
                        NOSIG=
201005151030 METAR LMML NIL=
201005151015 METAR LMML 151015Z 27024KT 210V310 9999 SCT033 19/09 Q1010
                        NOSIG=
201005151000 METAR LMML NIL=
201005150945 METAR LMML 150945Z 27026G36KT 230V300 9999 SCT035 19/08 Q1010
                        NOSIG=
201005150930 METAR LMML NIL=
201005150915 METAR LMML 150915Z 28021KT 230V310 9999 SCT034 19/08 Q1010
                        NOSIG=
201005150900 METAR LMML NIL=
201005150845 METAR LMML 150845Z 28023G35KT 230V310 9999 SCT030 19/08 Q1010
                        NOSIG=
201005150830 METAR LMML NIL=
201005150815 METAR LMML 150815Z 27019G29KT 240V310 9999 SCT026 18/10 Q1009
                        NOSIG=
201005150800 METAR LMML NIL=
201005150745 METAR LMML 150745Z 27022KT 9999 SCT022 18/10 Q1008 NOSIG=
201005150730 METAR LMML NIL=
201005150715 METAR LMML 150715Z 28023KT 250V310 9999 SCT022 18/10 Q1008
                        NOSIG=
201005150700 METAR LMML NIL=
201005150645 METAR LMML 150645Z 28019G29KT 240V310 9999 BKN022 17/12 Q1008
                        NOSIG=
201005150630 METAR LMML NIL=
201005150615 METAR LMML 150615Z 28018G28KT 250V310 9999 BKN022 17/12 Q1007
                        NOSIG=
201005150600 METAR LMML NIL=
201005150545 METAR LMML 150545Z 28017KT 240V310 9999 SCT020 17/12 Q1007
                        NOSIG=
201005150530 METAR LMML NIL=
201005150515 METAR LMML 150515Z 28017KT 9999 SCT025 BKN250 16/12 Q1006
                        NOSIG=
201005150500 METAR LMML NIL=
201005150445 METAR LMML 150445Z 28017KT 9000 SCT016 BKN250 16/12 Q1006
                        TEMPO BKN009=
201005150430 METAR LMML NIL=
201005150415 METAR LMML 150415Z 28016KT 250V310 9000 SCT016 SCT120 BKN250
                        16/13 Q1006 TEMPO BKN009=
201005150400 METAR LMML NIL=
201005150345 METAR LMML 150345Z 28014KT 9000 FEW009 OVC250 16/14 Q1005
                        TEMPO BKN009=
201005150330 METAR LMML NIL=
201005150315 METAR LMML 150315Z 28012KT 250V310 9000 FEW009 SCT120 BKN250
                        16/15 Q1004 TEMPO BKN009=
201005150300 METAR LMML NIL=
201005150245 METAR LMML 150245Z 29013KT 9000 FEW009 SCT120 BKN250 17/15
                        Q1004 TEMPO BKN009=
201005150230 METAR LMML NIL=
201005150215 METAR LMML 150215Z 29012KT 9000 FEW013 SCT120 BKN250 17/15
                        Q1004 TEMPO BKN006=
201005150200 METAR LMML NIL=
201005150145 METAR LMML 150145Z 28019KT 250V310 9000 FEW013 SCT120 OVC250
                        17/15 Q1004 TEMPO BKN006=
201005150130 METAR LMML NIL=
201005150115 METAR LMML 150115Z 28015KT 9000 FEW023 SCT120 BKN250 18/16
                        Q1004 TEMPO BKN006=
201005150100 METAR LMML NIL=
201005150045 METAR LMML 150045Z 27013KT 240V300 9000 -SHRA FEW014 SCT120
                        OVC250 19/17 Q1005 TEMPO BKN006=
201005150030 METAR LMML NIL=
201005150015 METAR LMML 150015Z 28012KT 240V320 9000 -SHRA SCT009 BKN120
                        OVC250 19/17 Q1004 TEMPO BKN006=
201005150000 METAR LMML NIL=
201005142345 METAR LMML 142345Z 27011KT 230V310 7000 -SHRA BKN008 BKN120
                        OVC250 19/18 Q1002 TEMPO 5000 TSRA
                        BKN005 BKN060CB=
201005142330 METAR LMML NIL=
201005142315 METAR LMML 142315Z 26011KT 240V300 7000 NSC 20/18 Q1003 TEMPO
                        5000 TSRA BKN005 BKN060CB=
201005142300 METAR LMML NIL=
201005142245 METAR LMML 142245Z 22010KT 170V280 7000 NSC 24/17 Q1002 TEMPO
                        5000 TSRA BKN005 BKN060CB=
201005142230 METAR LMML NIL=
201005142215 METAR LMML 142215Z 21011KT 160V250 7000 NSC 25/17 Q1001 TEMPO
                        5000 TSRA BKN005 BKN060CB=
201005142200 METAR LMML NIL=
201005142145 METAR LMML 142145Z 18017KT 130V240 7000 -SHRA FEW046 BKN120
                        OVC250 26/17 Q1001 TEMPO 5000 TSRA
                        BKN005 BKN060CB=
201005142130 METAR LMML NIL=
201005142115 METAR LMML 142115Z 17017G27KT 140V200 7000 FEW036 SCT120
                        OVC250 25/16 Q1000 TEMPO 5000 TSRA
                        BKN005 BKN060CB=
201005142100 METAR LMML NIL=
201005142045 METAR LMML 142045Z 16015KT 130V200 7000 NSC 24/17 Q1000 TEMPO
                        5000 TSRA BKN005 BKN060CB=
201005142030 METAR LMML NIL=
201005142015 METAR LMML 142015Z 16014G26KT 6000 -SHRA FEW035 SCT120 OVC250
                        22/18 Q1001 TEMPO 5000 TSRA BKN005
                        BKN060CB=
201005142000 METAR LMML NIL=
201005141945 METAR LMML 141945Z 14014KT 7000 NSC 21/17 Q1001 TEMPO 5000
                        TSRA BKN005 BKN060CB=
201005141930 METAR LMML NIL=
201005141915 METAR LMML 141915Z 14016KT 7000 NSC 20/18 Q1001 TEMPO 5000
                        TSRA BKN005 BKN060CB=
201005141900 METAR LMML NIL=
201005141845 METAR LMML 141845Z 13007KT 080V160 7000 NSC 20/18 Q1002 TEMPO
                        5000 BKN005=
201005141830 METAR LMML NIL=
201005141815 METAR LMML 141815Z 09007KT 050V130 7000 FEW005 SCT120 OVC250
                        20/18 Q1001 TEMPO 5000 BKN005=
201005141800 METAR LMML NIL=
201005141745 METAR LMML 141745Z 10014KT 060V130 8000 FEW005 SCT120 OVC250
                        20/18 Q1002 TEMPO 5000 BKN005=
201005141730 METAR LMML NIL=
201005141715 METAR LMML 141715Z 11013KT 8000 NSC 20/18 Q1002 NOSIG=
201005141700 METAR LMML NIL=
201005141645 METAR LMML 141645Z 10012KT 8000 NSC 20/18 Q1003 NOSIG RMK
                        DUST HAZE=
201005141630 METAR LMML NIL=
201005141615 METAR LMML 141615Z 10011KT 040V130 8000 NSC 20/18 Q1004 NOSIG=
201005141545 METAR LMML 141545Z 10012KT 050V120 CAVOK 21/17 Q1004 NOSIG=
201005141530 METAR LMML NIL=
201005141515 METAR LMML 141515Z 07009KT 040V110 CAVOK 21/17 Q1005 NOSIG=
201005141500 METAR LMML NIL=
201005141445 METAR LMML 141445Z 10013KT CAVOK 21/17 Q1005 NOSIG=
201005141430 METAR LMML NIL=
201005141415 METAR LMML 141415Z 08011KT 050V110 CAVOK 21/17 Q1005 NOSIG=
201005141400 METAR LMML NIL=
201005141345 METAR LMML 141345Z 08011KT 9999 -SHRA FEW020 BKN120 BKN250
                        21/17 Q1006 NOSIG=
201005141330 METAR LMML NIL=
201005141315 METAR LMML 141315Z 10014KT 9999 FEW020 BKN120 BKN250 21/17
                        Q1005 NOSIG=
201005141300 METAR LMML NIL=
201005141245 METAR LMML 141245Z 08011KT 050V110 9999 FEW020 BKN120 BKN150
                        20/16 Q1007 NOSIG=
201005141230 METAR LMML NIL=
201005141215 METAR LMML 141215Z 08014KT 050V120 9999 FEW020 SCT120 OVC150
                        20/17 Q1006 NOSIG=
201005141145 METAR LMML 141145Z 08008KT 030V120 9999 FEW020 SCT120 20/16
                        Q1008 NOSIG=
201005141130 METAR LMML NIL=
201005141115 METAR LMML 141115Z 08013KT 050V110 9999 FEW012 BKN120 OVC150
                        20/16 Q1007 NOSIG=
201005141100 METAR LMML NIL=
201005141045 METAR LMML 141045Z 09014KT 9999 FEW012 SCT120 OVC150 20/16
                        Q1007 NOSIG=
201005141030 METAR LMML NIL=
201005141015 METAR LMML 141015Z 08009KT 040V130 9999 FEW012 SCT120 OVC150
                        20/16 Q1009 NOSIG=
201005141000 METAR LMML NIL=
201005140945 METAR LMML 140945Z 10013KT 060V130 CAVOK 21/15 Q1008 WS RWY05
                        NOSIG=
201005140930 METAR LMML NIL=
201005140915 METAR COR LMML 140915Z 10014KT 070V130 CAVOK 21/15 Q1009
                        WS RWY05 NOSIG=
201005140900 METAR LMML NIL=
201005140845 METAR LMML 140845Z 10012KT 060V130 CAVOK 20/15 Q1009 NOSIG=
201005140830 METAR LMML NIL=
201005140815 METAR LMML 140815Z 07009KT 040V100 CAVOK 20/15 Q1009 NOSIG=
201005140800 METAR LMML NIL=
201005140745 METAR LMML 140745Z 05007KT 020V080 CAVOK 20/16 Q1010 NOSIG=
201005140730 METAR LMML NIL=
201005140715 METAR LMML 140715Z 06006KT 9999 FEW008 SCT120 20/16 Q1010
                        NOSIG=
201005140700 METAR LMML NIL=
201005140645 METAR LMML 140645Z 07007KT 030V100 9000 FEW008 SCT120 BKN250
                        20/16 Q1009 NOSIG=
201005140630 METAR LMML NIL=
201005140615 METAR LMML 140615Z 05007KT 010V110 9000 FEW008 SCT120 BKN250
                        19/17 Q1009 NOSIG=
201005140600 METAR LMML NIL=
201005140545 METAR LMML 140545Z 05005KT 020V090 8000 FEW008 BKN250 19/17
                        Q1009 NOSIG=
201005140530 METAR LMML NIL=
201005140515 METAR LMML 140515Z 03005KT 8000 FEW007 BKN250 18/17 Q1009
                        NOSIG=
201005140500 METAR LMML NIL=
201005140445 METAR LMML 140445Z VRB03KT 5000 FEW007 SCT120 18/17 Q1009
                        NOSIG=
201005140430 METAR LMML NIL=
201005140415 METAR LMML 140415Z VRB03KT 5000 NSC 17/16 Q1009 NOSIG=
201005140400 METAR LMML NIL=
201005140345 METAR LMML 140345Z VRB02KT CAVOK 16/15 Q1009 NOSIG=
201005140330 METAR LMML NIL=
201005140315 METAR LMML 140315Z VRB03KT CAVOK 16/14 Q1009 NOSIG=
201005140300 METAR LMML NIL=
201005140245 METAR LMML 140245Z VRB03KT CAVOK 16/14 Q1009 NOSIG=
201005140230 METAR LMML NIL=
201005140215 METAR LMML 140215Z VRB03KT CAVOK 16/14 Q1009 NOSIG=
201005140200 METAR LMML NIL=
201005140145 METAR LMML 140145Z 00000KT 9999 FEW012 16/15 Q1010 NOSIG=
201005140130 METAR LMML NIL=
201005140115 METAR LMML 140115Z VRB01KT 9999 FEW012 16/14 Q1010 NOSIG=
201005140100 METAR LMML NIL=
201005140045 METAR LMML 140045Z VRB02KT CAVOK 16/14 Q1010 NOSIG=
201005140030 METAR LMML NIL=
201005140015 METAR LMML 140015Z VRB02KT CAVOK 18/16 Q1011 NOSIG=
201005140000 METAR LMML NIL=
201005132345 METAR LMML 132345Z VRB02KT CAVOK 17/14 Q1011 NOSIG=
201005132330 METAR LMML NIL=
201005132315 METAR LMML 132315Z VRB03KT CAVOK 17/14 Q1012 NOSIG=
201005132300 METAR LMML NIL=
201005132245 METAR LMML 132245Z 13004KT CAVOK 17/13 Q1012 NOSIG=
201005132230 METAR LMML NIL=
201005132215 METAR LMML 132215Z VRB03KT CAVOK 17/13 Q1012 NOSIG=
201005132200 METAR LMML NIL=
201005132145 METAR LMML 132145Z VRB02KT CAVOK 17/13 Q1012 NOSIG=
201005132130 METAR LMML NIL=
201005132115 METAR LMML 132115Z 32005KT CAVOK 18/14 Q1012 NOSIG=
201005132100 METAR LMML NIL=
201005132045 METAR LMML 132045Z 32005KT CAVOK 18/14 Q1012 NOSIG=
201005132030 METAR LMML NIL=
201005132015 METAR LMML 132015Z 32005KT CAVOK 18/14 Q1012 NOSIG=
201005132000 METAR LMML NIL=
201005131945 METAR LMML 131945Z 32006KT 300V360 CAVOK 18/14 Q1012 NOSIG=
201005131930 METAR LMML NIL=
201005131915 METAR LMML 131915Z 32006KT CAVOK 18/14 Q1011 NOSIG=
201005131900 METAR LMML NIL=
201005131845 METAR LMML 131845Z 31006KT 280V340 CAVOK 19/14 Q1011 NOSIG=
201005131830 METAR LMML NIL=
201005131815 METAR LMML 131815Z 33010KT CAVOK 19/13 Q1010 NOSIG=
201005131800 METAR LMML NIL=
201005131745 METAR LMML 131745Z 33010KT CAVOK 19/13 Q1010 NOSIG=
201005131730 METAR LMML NIL=
201005131715 METAR LMML 131715Z 34009KT 310V010 CAVOK 21/11 Q1010 NOSIG=
201005131700 METAR LMML NIL=
201005131645 METAR LMML 131645Z 34011KT CAVOK 22/07 Q1010 NOSIG=
201005131630 METAR LMML NIL=
201005131615 METAR LMML 131615Z 34011KT CAVOK 23/07 Q1011 NOSIG=
201005131600 METAR LMML NIL=
201005131545 METAR LMML 131545Z 34010KT CAVOK 24/08 Q1011 NOSIG=
201005131530 METAR LMML NIL=
201005131515 METAR LMML 131515Z 32011KT 290V350 CAVOK 24/13 Q1011 NOSIG=
201005131500 METAR LMML NIL=
201005131445 METAR LMML 131445Z 31012KT CAVOK 24/13 Q1012 NOSIG=
201005131430 METAR LMML NIL=
201005131415 METAR LMML 131415Z 31013KT CAVOK 24/12 Q1012 NOSIG=
201005131400 METAR LMML NIL=
201005131345 METAR LMML 131345Z 31013KT CAVOK 24/12 Q1013 NOSIG=
201005131330 METAR LMML NIL=
201005131315 METAR LMML 131315Z 30014KT CAVOK 25/12 Q1012 NOSIG=
201005131300 METAR LMML NIL=
201005131245 METAR LMML 131245Z 34013KT 300V360 CAVOK 25/09 Q1013 NOSIG=
201005131230 METAR LMML NIL=
201005131215 METAR LMML 131215Z 33013KT CAVOK 25/08 Q1013 NOSIG=
201005131145 METAR LMML 131145Z 34014KT CAVOK 25/09 Q1012 NOSIG=
201005131130 METAR LMML NIL=
201005131115 METAR LMML 131115Z 34017KT CAVOK 24/10 Q1012 NOSIG=
201005131045 METAR LMML 131045Z 34018KT CAVOK 24/09 Q1012 NOSIG=
201005131030 METAR LMML NIL=
201005131015 METAR LMML 131015Z 33014KT CAVOK 24/09 Q1012 NOSIG=
201005131000 METAR LMML NIL=
201005130945 METAR LMML 130945Z 33014KT CAVOK 24/10 Q1012 NOSIG=
201005130930 METAR LMML NIL=
201005130915 METAR LMML 130915Z 34012KT 300V010 CAVOK 24/10 Q1011 NOSIG=
201005130900 METAR LMML NIL=
201005130845 METAR LMML 130845Z 33012KT 310V010 CAVOK 24/11 Q1011 NOSIG=
201005130830 METAR LMML NIL=
201005130815 METAR LMML 130815Z 33010KT 300V360 CAVOK 24/11 Q1011 NOSIG=
201005130800 METAR LMML NIL=
201005130745 METAR LMML 130745Z 32011KT CAVOK 23/12 Q1011 NOSIG=
201005130715 METAR LMML 130715Z 33013KT CAVOK 22/13 Q1010 NOSIG=
201005130700 METAR LMML NIL=
201005130645 METAR LMML 130645Z 33011KT CAVOK 21/13 Q1010 NOSIG=
201005130630 METAR LMML NIL=
201005130615 METAR LMML 130615Z 32013KT CAVOK 20/14 Q1010 NOSIG=
201005130600 METAR LMML NIL=
201005130545 METAR LMML 130545Z 32009KT CAVOK 19/15 Q1010 NOSIG=
201005130530 METAR LMML NIL=
201005130515 METAR LMML 130515Z 31008KT CAVOK 18/16 Q1009 NOSIG=
201005130500 METAR LMML NIL=
201005130445 METAR LMML 130445Z 30008KT 9999 FEW010 18/16 Q1009 NOSIG=
201005130430 METAR LMML NIL=
201005130415 METAR LMML 130415Z 31011KT 9999 FEW010 17/16 Q1009 NOSIG=
201005130400 METAR LMML NIL=
201005130345 METAR LMML 130345Z 29011KT 9999 FEW007 17/16 Q1009 NOSIG=
201005130330 METAR LMML NIL=
201005130315 METAR LMML 130315Z 28007KT 240V310 7000 FEW007 17/16 Q1008
                        BECMG 9999=
201005130300 METAR LMML NIL=
201005130245 METAR LMML 130245Z 28005KT 260V320 7000 SCT004 17/16 Q1008
                        BECMG 9999 SCT010=
201005130230 METAR LMML NIL=
201005130215 METAR LMML 130215Z 33006KT 7000 SCT004 17/16 Q1008 BECMG
                        9999 SCT010=
201005130200 METAR LMML NIL=
201005130145 METAR LMML 130145Z 36006KT 7000 SCT006 18/16 Q1008 BECMG
                        9999 SCT010=
201005130130 METAR LMML NIL=
201005130115 METAR LMML 130115Z 36006KT 7000 SCT006 18/17 Q1007 BECMG
                        9999 SCT010=
201005130100 METAR LMML NIL=
201005130045 METAR LMML 130045Z 01005KT 350V050 7000 SCT005 18/16 Q1007
                        BECMG 9999 SCT010=
201005130030 METAR LMML NIL=
201005130015 METAR LMML 130015Z 01007KT 6000 SCT005 SCT250 18/17 Q1007
                        BECMG 9999 SCT010=
201005130000 METAR LMML NIL=
201005122345 METAR LMML 122345Z 36010KT 6000 BKN005 18/17 Q1007 BECMG
                        9999 SCT010=
201005122330 METAR LMML NIL=
201005122315 METAR LMML 122315Z 36007KT 6000 SCT006 BKN009 19/17 Q1007
                        BECMG 9999 SCT010=
201005122300 METAR LMML NIL=
201005122245 METAR LMML 122245Z 34006KT 310V030 6000 BKN009 19/17 Q1007
                        BECMG 9999 SCT010=
201005122230 METAR LMML NIL=
201005122215 METAR LMML 122215Z 35004KT 310V030 7000 BKN009 19/17 Q1007
                        BECMG 9999 SCT010=
201005122200 METAR LMML NIL=
201005122145 METAR LMML 122145Z VRB03KT 7000 BKN009 19/17 Q1007 NOSIG=
201005122130 METAR LMML NIL=
201005122115 METAR LMML 122115Z 36004KT 330V030 7000 BKN007 19/18 Q1007
                        NOSIG=
201005122100 METAR LMML NIL=
201005122045 METAR LMML 122045Z 02004KT 310V130 7000 BKN008 19/17 Q1007
                        NOSIG=
201005122030 METAR LMML NIL=
201005122015 METAR LMML 122015Z 01004KT 350V050 7000 BKN004 19/18 Q1007
                        NOSIG=
201005122000 METAR LMML NIL=
201005121945 METAR LMML 121945Z 01005KT 360V060 7000 BKN003 19/18 Q1006
                        NOSIG=
201005121930 METAR LMML NIL=
201005121915 METAR LMML 121915Z VRB03KT 7000 BKN003 19/18 Q1006 NOSIG=
201005121900 METAR LMML NIL=
201005121845 METAR LMML 121845Z 07007KT 030V100 7000 BKN003 19/18 Q1005
                        BECMG BKN003=
201005121830 METAR LMML NIL=
201005121815 METAR LMML 121815Z 07007KT 030V100 7000 BKN004 19/18 Q1005
                        NOSIG=
201005121800 METAR LMML NIL=
201005121745 METAR LMML 121745Z 07008KT 7000 BKN004 19/18 Q1005 NOSIG=
201005121730 METAR LMML NIL=
201005121715 METAR LMML 121715Z 06007KT 020V100 9000 BKN005 BKN250 20/18
                        Q1005 NOSIG=
201005121700 METAR LMML NIL=
201005121645 METAR LMML 121645Z 07009KT 030V090 9999 SCT005 BKN250 20/18
                        Q1005 TEMPO 9000 BKN004=
201005121630 METAR LMML NIL=
201005121615 METAR LMML 121615Z 07008KT 040V110 9999 FEW007 BKN250 21/17
                        Q1006 NOSIG=
201005121600 METAR LMML NIL=
201005121545 METAR LMML 121545Z 06006KT 020V100 9999 FEW008 BKN250 22/17
                        Q1006 NOSIG=
201005121530 METAR LMML NIL=
201005121515 METAR LMML 121515Z 08006KT 360V120 9999 FEW008 22/17 Q1007
                        NOSIG=
201005121500 METAR LMML NIL=
201005121445 METAR LMML 121445Z 10007KT 070V150 9999 FEW008 22/17 Q1007
                        NOSIG=
201005121430 METAR LMML NIL=
201005121415 METAR LMML 121415Z 11009KT 080V160 9999 FEW008 SCT250 22/17
                        Q1007 NOSIG=
201005121400 METAR LMML NIL=
201005121345 METAR LMML 121345Z 12011KT 080V160 9999 FEW008 SCT250 22/16
                        Q1007 NOSIG=
201005121330 METAR LMML NIL=
201005121315 METAR LMML 121315Z 11011KT 080V140 9999 FEW008 22/17 Q1008
                        NOSIG=
201005121300 METAR LMML NIL=
201005121245 METAR LMML 121245Z 11010KT 070V160 9999 FEW007 23/17 Q1008
                        NOSIG=
201005121230 METAR LMML NIL=
201005121215 METAR LMML 121215Z 08011KT 050V120 9999 FEW010 SCT250 23/16
                        Q1008 NOSIG=
201005121200 METAR LMML NIL=
201005121145 METAR LMML 121145Z 08013KT 050V110 9999 FEW010 22/16 Q1008
                        NOSIG=
201005121130 METAR LMML NIL=
201005121115 METAR LMML 121115Z 08013KT 040V110 9999 FEW009 23/16 Q1008
                        NOSIG=
201005121100 METAR LMML NIL=
201005121045 METAR LMML 121045Z 08012KT 030V120 9999 FEW009 23/16 Q1009
                        NOSIG=
201005121030 METAR LMML NIL=
201005121015 METAR LMML 121015Z 09013KT 070V130 9999 FEW009 22/16 Q1009
                        NOSIG=
201005121000 METAR LMML NIL=
201005120945 METAR LMML 120945Z 07011KT 030V110 9999 FEW010 23/16 Q1009
                        NOSIG=
201005120930 METAR LMML NIL=
201005120915 METAR LMML 120915Z 08012KT 040V120 9999 FEW010 22/16 Q1010
                        NOSIG=
201005120900 METAR LMML NIL=
201005120845 METAR LMML 120845Z 07010KT 010V110 9999 FEW012 22/16 Q1009
                        NOSIG=
201005120830 METAR LMML NIL=
201005120815 METAR LMML 120815Z 07010KT 040V100 9999 FEW012 21/16 Q1010
                        NOSIG=
201005120800 METAR LMML NIL=
201005120745 METAR LMML 120745Z 07008KT 350V120 9999 SCT010 21/16 Q1010
                        NOSIG=
201005120715 METAR LMML 120715Z 05009KT 020V080 9999 SCT010 20/16 Q1010
                        NOSIG=
201005120700 METAR LMML NIL=
201005120645 METAR LMML 120645Z 05006KT 010V090 9999 SCT010 20/16 Q1010
                        NOSIG=
201005120635 SPECI LMML 120635Z 04007KT 010V090 9999 SCT010 20/16 Q1010
                        NOSIG=
201005120630 METAR LMML NIL=
201005120615 METAR LMML 120615Z 04006KT 010V080 9999 BKN009 19/16 Q1010
                        BECMG SCT010=
201005120600 METAR LMML NIL=
201005120545 METAR LMML 120545Z 04008KT 010V080 9999 BKN009 SCT250 18/16
                        Q1010 BECMG SCT010=
201005120530 METAR LMML NIL=
201005120515 METAR LMML 120515Z 03005KT 360V080 9999 BKN009 SCT250 18/16
                        Q1009 BECMG SCT010=
201005120500 METAR LMML NIL=
201005120445 METAR LMML 120445Z 03005KT 360V060 9000 BKN008 SCT250 18/16
                        Q1009 BECMG SCT007=
201005120430 METAR LMML NIL=
201005120415 METAR LMML 120415Z 02005KT 9000 BKN007 18/16 Q1009 BECMG
                        SCT007=
201005120400 METAR LMML NIL=
201005120345 METAR LMML 120345Z 03006KT 9000 BKN007 18/16 Q1009 TEMPO
                        7000=
201005120315 METAR LMML 120315Z 04006KT 010V080 9000 BKN008 18/17 Q1009
                        TEMPO 7000=
201005120300 METAR LMML NIL=
201005120245 METAR LMML 120245Z 05004KT 010V090 9000 BKN008 18/17 Q1009
                        TEMPO 7000=
201005120215 METAR LMML 120215Z VRB03KT 9000 BKN007 18/17 Q1009 TEMPO
                        7000=
201005120145 METAR LMML 120145Z VRB03KT 9999 BKN006 18/17 Q1009 TEMPO
                        7000=
201005120130 METAR LMML NIL=
201005120115 METAR LMML 120115Z VRB03KT 9999 BKN005 18/17 Q1009 TEMPO
                        7000=
201005120100 METAR LMML NIL=
201005120045 METAR LMML 120045Z 11004KT 080V140 9999 BKN006 18/17 Q1009
                        TEMPO 9000 BKN005=
201005120030 METAR LMML NIL=
201005120015 METAR LMML 120015Z 12005KT 9999 BKN006 18/17 Q1009 TEMPO
                        9000 BKN005=
201005120000 METAR LMML NIL=
201005112345 METAR LMML 112345Z 12007KT 080V150 9999 BKN006 18/17 Q1009
                        TEMPO 9000 BKN005=
201005112330 METAR LMML NIL=
201005112315 METAR LMML 112315Z 10007KT 070V130 9999 BKN006 17/17 Q1009
                        TEMPO 9000 BKN005=
201005112245 METAR LMML 112245Z 09007KT 060V120 9999 SCT006 17/16 Q1009
                        TEMPO 9000 BKN006=
201005112230 METAR LMML NIL=
201005112215 METAR LMML 112215Z 09007KT 9999 FEW006 17/16 Q1009 NOSIG=
201005112200 METAR LMML NIL=
201005112145 METAR LMML 112145Z 09007KT 060V120 9999 FEW015 17/16 Q1009
                        NOSIG=
201005112130 METAR LMML NIL=
201005112115 METAR LMML 112115Z 09007KT 030V120 9999 FEW015 18/16 Q1009
                        NOSIG=
201005112100 METAR LMML NIL=
201005112045 METAR LMML 112045Z 10006KT 070V130 9999 FEW015 18/16 Q1009
                        NOSIG=
201005112015 METAR LMML 112015Z 09007KT 050V120 9999 FEW015 18/16 Q1009
                        NOSIG=
201005112000 METAR LMML NIL=
201005111945 METAR LMML 111945Z 09006KT 050V110 9999 FEW015 18/16 Q1009
                        NOSIG=
201005111930 METAR LMML NIL=
201005111915 METAR LMML 111915Z 09006KT 060V130 9999 FEW015 SCT250 18/16
                        Q1009 NOSIG=
201005111900 METAR LMML NIL=
201005111845 METAR LMML 111845Z 09006KT 9999 FEW015 SCT250 18/16 Q1009
                        NOSIG=
201005111830 METAR LMML NIL=
201005111815 METAR LMML 111815Z 11007KT 080V140 9999 FEW015 SCT250 18/16
                        Q1009 NOSIG=
201005111745 METAR LMML 111745Z 12008KT CAVOK 19/16 Q1008 NOSIG=
201005111730 METAR LMML NIL=
201005111715 METAR LMML 111715Z 12009KT CAVOK 19/16 Q1008 NOSIG=
201005111700 METAR LMML NIL=
201005111645 METAR LMML 111645Z 13011KT 100V160 CAVOK 20/16 Q1008 NOSIG=
201005111630 METAR LMML NIL=
201005111615 METAR LMML 111615Z 14012KT 120V180 CAVOK 20/16 Q1008 NOSIG=
201005111600 METAR LMML NIL=
201005111545 METAR LMML 111545Z 14011KT 110V170 CAVOK 21/16 Q1007 NOSIG=
201005111530 METAR LMML NIL=
201005111515 METAR LMML 111515Z 14012KT 110V180 CAVOK 21/16 Q1008 NOSIG=
201005111500 METAR LMML NIL=
201005111445 METAR LMML 111445Z 14012KT 100V180 CAVOK 22/16 Q1008 NOSIG=
201005111430 METAR LMML NIL=
201005111415 METAR LMML 111415Z 14012KT 100V170 CAVOK 22/16 Q1008 NOSIG=
201005111400 METAR LMML NIL=
201005111345 METAR LMML 111345Z 14013KT 090V180 CAVOK 22/15 Q1008 NOSIG=
201005111330 METAR LMML NIL=
201005111315 METAR LMML 111315Z 14016KT 110V170 CAVOK 22/15 Q1008 NOSIG=
201005111300 METAR LMML NIL=
201005111245 METAR LMML 111245Z 14018KT 110V170 CAVOK 22/15 Q1008 NOSIG=
201005111230 METAR LMML NIL=
201005111215 METAR LMML 111215Z 13019KT CAVOK 22/14 Q1008 NOSIG=
201005111200 METAR LMML NIL=
201005111145 METAR LMML 111145Z 13017KT 100V160 CAVOK 23/15 Q1008 NOSIG=
201005111130 METAR LMML NIL=
201005111115 METAR LMML 111115Z 13022KT 100V160 CAVOK 22/15 Q1008 NOSIG=
201005111100 METAR LMML NIL=
201005111045 METAR LMML 111045Z 13018KT CAVOK 22/15 Q1008 NOSIG=
201005111030 METAR LMML NIL=
201005111015 METAR LMML 111015Z 13016KT 100V170 CAVOK 23/15 Q1009 NOSIG=
201005111000 METAR LMML NIL=
201005110945 METAR LMML 110945Z 14016KT 110V170 CAVOK 23/14 Q1009 NOSIG=
201005110930 METAR LMML NIL=
201005110915 METAR LMML 110915Z 13018KT CAVOK 22/15 Q1009 NOSIG=
201005110900 METAR LMML NIL=
201005110845 METAR LMML 110845Z 13017KT 110V170 CAVOK 22/14 Q1009 NOSIG=
201005110830 METAR LMML NIL=
201005110815 METAR LMML 110815Z 13016KT 100V160 CAVOK 22/15 Q1009 NOSIG=
201005110800 METAR LMML NIL=
201005110745 METAR LMML 110745Z 13017KT CAVOK 21/15 Q1009 NOSIG=
201005110730 METAR LMML NIL=
201005110715 METAR LMML 110715Z 14015KT CAVOK 21/14 Q1009 NOSIG=
201005110700 METAR LMML NIL=
201005110645 METAR LMML 110645Z 14014KT 120V180 CAVOK 20/14 Q1009 NOSIG=
201005110630 METAR LMML NIL=
201005110615 METAR LMML 110615Z 14014KT CAVOK 19/14 Q1009 NOSIG=
201005110600 METAR LMML NIL=
201005110545 METAR LMML 110545Z 14013KT CAVOK 19/14 Q1009 NOSIG=
201005110530 METAR LMML NIL=
201005110515 METAR LMML 110515Z 14010KT 110V170 CAVOK 18/14 Q1009 NOSIG=
201005110500 METAR LMML NIL=
201005110445 METAR LMML 110445Z 14010KT CAVOK 18/14 Q1009 NOSIG=
201005110430 METAR LMML NIL=
201005110415 METAR LMML 110415Z 14009KT CAVOK 18/14 Q1009 NOSIG=
201005110400 METAR LMML NIL=
201005110345 METAR LMML 110345Z 14011KT CAVOK 18/14 Q1009 NOSIG=
201005110330 METAR LMML NIL=
201005110315 METAR LMML 110315Z 15011KT CAVOK 18/14 Q1009 NOSIG=
201005110300 METAR LMML NIL=
201005110245 METAR LMML 110245Z 14010KT 110V180 CAVOK 18/14 Q1009 NOSIG=
201005110230 METAR LMML NIL=
201005110215 METAR LMML 110215Z 14010KT CAVOK 18/14 Q1009 NOSIG=
201005110200 METAR LMML NIL=
201005110145 METAR LMML 110145Z 15009KT 120V180 CAVOK 18/14 Q1009 NOSIG=
201005110130 METAR LMML NIL=
201005110115 METAR LMML 110115Z 15010KT CAVOK 18/14 Q1009 NOSIG=
201005110100 METAR LMML NIL=
201005110045 METAR LMML 110045Z 15008KT 120V180 CAVOK 18/14 Q1010 NOSIG=
201005110030 METAR LMML NIL=
201005110015 METAR LMML 110015Z 14009KT CAVOK 18/14 Q1010 NOSIG=
201005110000 METAR LMML NIL=
201005102345 METAR LMML 102345Z 15009KT CAVOK 18/14 Q1010 NOSIG=
201005102330 METAR LMML NIL=
201005102315 METAR LMML 102315Z 14010KT CAVOK 18/15 Q1011 NOSIG=
201005102300 METAR LMML NIL=
201005102245 METAR LMML 102245Z 14010KT CAVOK 18/15 Q1011 NOSIG=
201005102230 METAR LMML NIL=
201005102215 METAR LMML 102215Z 14010KT CAVOK 18/15 Q1011 NOSIG=
201005102200 METAR LMML NIL=
201005102145 METAR LMML 102145Z 14008KT 120V180 CAVOK 18/15 Q1011 NOSIG=
201005102130 METAR LMML NIL=
201005102115 METAR LMML 102115Z 15007KT 110V190 CAVOK 18/15 Q1011 NOSIG=
201005102100 METAR LMML NIL=
201005102045 METAR LMML 102045Z 14008KT 120V180 CAVOK 18/15 Q1012 NOSIG=
201005102030 METAR LMML NIL=
201005102015 METAR LMML 102015Z 14007KT CAVOK 18/16 Q1012 NOSIG=
201005102000 METAR LMML NIL=
201005101945 METAR LMML 101945Z 14008KT CAVOK 18/16 Q1012 NOSIG=
201005101930 METAR LMML NIL=
201005101915 METAR LMML 101915Z 14007KT CAVOK 18/16 Q1012 NOSIG=
201005101900 METAR LMML NIL=
201005101845 METAR LMML 101845Z 13008KT CAVOK 18/16 Q1012 NOSIG=
201005101830 METAR LMML NIL=
201005101815 METAR LMML 101815Z 13007KT CAVOK 19/16 Q1012 NOSIG=
201005101800 METAR LMML NIL=
201005101745 METAR LMML 101745Z 13007KT CAVOK 19/15 Q1012 NOSIG=
201005101730 METAR LMML NIL=
201005101715 METAR LMML 101715Z 14007KT CAVOK 21/14 Q1012 NOSIG=
201005101700 METAR LMML NIL=
201005101645 METAR LMML 101645Z 14007KT CAVOK 22/11 Q1012 NOSIG=
201005101630 METAR LMML NIL=
201005101615 METAR LMML 101615Z 16007KT 140V210 CAVOK 22/10 Q1012 NOSIG=
201005101545 METAR LMML 101545Z 17007KT 130V210 CAVOK 23/11 Q1012 NOSIG=
201005101530 METAR LMML NIL=
201005101515 METAR LMML 101515Z 18008KT 130V220 CAVOK 22/12 Q1012 NOSIG=
201005101500 METAR LMML NIL=
201005101445 METAR LMML 101445Z 18009KT 150V210 CAVOK 22/12 Q1013 NOSIG=
201005101430 METAR LMML NIL=
201005101415 METAR LMML 101415Z 19009KT 130V220 CAVOK 23/12 Q1013 NOSIG=
201005101400 METAR LMML NIL=
201005101345 METAR LMML 101345Z 19009KT 150V230 CAVOK 22/12 Q1013 NOSIG=
201005101330 METAR LMML NIL=
201005101315 METAR LMML 101315Z 19009KT 150V260 CAVOK 22/15 Q1013 NOSIG=
201005101300 METAR LMML NIL=
201005101245 METAR LMML 101245Z 20011KT 160V240 CAVOK 22/12 Q1013 NOSIG=
201005101230 METAR LMML NIL=
201005101215 METAR LMML 101215Z 19011KT 160V230 CAVOK 22/15 Q1014 NOSIG=
201005101200 METAR LMML NIL=
201005101145 METAR LMML 101145Z 19010KT 160V230 CAVOK 22/13 Q1014 NOSIG=
201005101130 METAR LMML NIL=
201005101115 METAR LMML 101115Z 19010KT 150V260 CAVOK 22/15 Q1014 NOSIG=
201005101100 METAR LMML NIL=
201005101045 METAR LMML 101045Z 20010KT 160V230 CAVOK 22/14 Q1014 NOSIG=
201005101030 METAR LMML NIL=
201005101015 METAR LMML 101015Z 20010KT 150V250 CAVOK 22/16 Q1014 NOSIG=
201005101000 METAR LMML NIL=
201005100945 METAR LMML 100945Z 19010KT 160V240 9999 FEW020 SCT250 21/16
                        Q1014 NOSIG=
201005100930 METAR LMML NIL=
201005100915 METAR LMML 100915Z 18010KT 140V210 CAVOK 21/16 Q1014 NOSIG=
201005100900 METAR LMML NIL=
201005100845 METAR LMML 100845Z 18011KT 150V210 CAVOK 21/14 Q1014 NOSIG=
201005100830 METAR LMML NIL=
201005100815 METAR LMML 100815Z 18007KT 140V210 CAVOK 21/11 Q1014 NOSIG=
201005100800 METAR LMML NIL=
201005100745 METAR LMML 100745Z 18008KT 150V210 CAVOK 21/12 Q1014 NOSIG=
201005100730 METAR LMML NIL=
201005100715 METAR LMML 100715Z 17008KT CAVOK 21/10 Q1014 NOSIG=
201005100700 METAR LMML NIL=
201005100645 METAR LMML 100645Z 16006KT 120V200 CAVOK 21/09 Q1014 NOSIG=
201005100630 METAR LMML NIL=
201005100615 METAR LMML 100615Z 17007KT 140V200 CAVOK 19/12 Q1014 NOSIG=
201005100600 METAR LMML NIL=
201005100545 METAR LMML 100545Z 17006KT 140V200 CAVOK 18/14 Q1014 NOSIG=
201005100530 METAR LMML NIL=
201005100515 METAR LMML 100515Z 17006KT CAVOK 17/16 Q1014 NOSIG=
201005100500 METAR LMML NIL=
201005100445 METAR LMML 100445Z 17004KT CAVOK 16/15 Q1014 NOSIG=
201005100430 METAR LMML NIL=
201005100415 METAR LMML 100415Z VRB03KT CAVOK 15/14 Q1013 NOSIG=
201005100400 METAR LMML NIL=
201005100345 METAR LMML 100345Z 13004KT CAVOK 15/14 Q1013 NOSIG=
201005100330 METAR LMML NIL=
201005100315 METAR LMML 100315Z VRB03KT CAVOK 15/14 Q1013 NOSIG=
201005100300 METAR LMML NIL=
201005100245 METAR LMML 100245Z 16004KT CAVOK 16/14 Q1013 NOSIG=
201005100230 METAR LMML NIL=
201005100215 METAR LMML 100215Z VRB03KT CAVOK 16/14 Q1013 NOSIG=
201005100200 METAR LMML NIL=
201005100145 METAR LMML 100145Z 16004KT CAVOK 16/13 Q1013 NOSIG=
201005100130 METAR LMML NIL=
201005100115 METAR LMML 100115Z VRB02KT CAVOK 16/12 Q1013 NOSIG=
201005100100 METAR LMML NIL=
201005100045 METAR LMML 100045Z VRB02KT CAVOK 15/12 Q1013 NOSIG=
201005100030 METAR LMML NIL=
201005100015 METAR LMML 100015Z VRB03KT CAVOK 16/13 Q1013 NOSIG=
201005100000 METAR LMML NIL=
201005092345 METAR LMML 092345Z VRB03KT CAVOK 16/13 Q1014 NOSIG=
201005092330 METAR LMML NIL=
201005092315 METAR LMML 092315Z VRB02KT CAVOK 15/12 Q1014 NOSIG=
201005092300 METAR LMML NIL=
201005092245 METAR LMML 092245Z 20004KT CAVOK 16/14 Q1014 NOSIG=
201005092215 METAR LMML 092215Z VRB03KT CAVOK 15/13 Q1015 NOSIG=
201005092145 METAR LMML 092145Z VRB01KT CAVOK 16/13 Q1015 NOSIG=
201005092130 METAR LMML NIL=
201005092115 METAR LMML 092115Z VRB02KT CAVOK 16/13 Q1015 NOSIG=
201005092045 METAR LMML 092045Z VRB02KT CAVOK 17/13 Q1015 NOSIG=
201005092030 METAR LMML NIL=
201005092015 METAR LMML 092015Z VRB03KT CAVOK 17/13 Q1015 NOSIG=
201005092000 METAR LMML NIL=
201005091945 METAR LMML 091945Z VRB02KT CAVOK 17/13 Q1015 NOSIG=
201005091930 METAR LMML NIL=
201005091915 METAR LMML 091915Z VRB03KT CAVOK 17/13 Q1015 NOSIG=
201005091900 METAR LMML NIL=
201005091845 METAR LMML 091845Z 22004KT CAVOK 18/13 Q1015 NOSIG=
201005091830 METAR LMML NIL=
201005091815 METAR LMML 091815Z VRB02KT CAVOK 19/11 Q1015 NOSIG=
201005091800 METAR LMML NIL=
201005091745 METAR LMML 091745Z VRB02KT CAVOK 19/10 Q1015 NOSIG=
201005091730 METAR LMML NIL=
201005091715 METAR LMML 091715Z 26006KT 230V300 CAVOK 20/11 Q1014 NOSIG=
201005091645 METAR LMML 091645Z 30004KT 260V030 CAVOK 22/09 Q1014 NOSIG=
201005091630 METAR LMML NIL=
201005091615 METAR LMML 091615Z VRB03KT CAVOK 23/14 Q1014 NOSIG=
201005091600 METAR LMML NIL=
201005091545 METAR LMML 091545Z VRB03KT CAVOK 23/12 Q1014 NOSIG=
201005091530 METAR LMML NIL=
201005091515 METAR LMML 091515Z 31004KT CAVOK 23/13 Q1014 NOSIG=
201005091500 METAR LMML NIL=
201005091445 METAR LMML 091445Z 04004KT 340V090 CAVOK 23/14 Q1014 NOSIG=
201005091430 METAR LMML NIL=
201005091415 METAR LMML 091415Z 02005KT 330V070 CAVOK 23/14 Q1014 NOSIG=
201005091345 METAR LMML 091345Z 36005G15KT 210V080 9999 FEW033 BKN250
                        23/14 Q1015 NOSIG=
201005091330 METAR LMML NIL=
201005091315 METAR LMML 091315Z 02005KT 320V080 9999 FEW033 BKN250 24/13
                        Q1015 NOSIG=
201005091300 METAR LMML NIL=
201005091245 METAR LMML 091245Z 02006KT 340V080 9999 FEW033 SCT250 24/14
                        Q1015 NOSIG=
201005091230 METAR LMML NIL=
201005091215 METAR LMML 091215Z VRB03KT 9999 FEW033 SCT250 23/13 Q1015
                        NOSIG=
201005091200 METAR LMML NIL=
201005091145 METAR LMML 091145Z 11004KT 9999 FEW029 SCT250 23/12 Q1015
                        NOSIG=
201005091130 METAR LMML NIL=
201005091115 METAR LMML 091115Z 04006KT 360V110 9999 FEW029 SCT250 24/14
                        Q1015 NOSIG=
201005091100 METAR LMML NIL=
201005091045 METAR LMML 091045Z 05004KT 350V160 9999 FEW029 SCT250 24/14
                        Q1015 NOSIG=
201005091015 METAR LMML 091015Z VRB03KT 9999 FEW026 SCT250 23/14 Q1015
                        NOSIG=
201005091000 METAR LMML NIL=
201005090945 METAR LMML 090945Z VRB03KT 9999 FEW026 SCT250 22/14 Q1016
                        NOSIG=
201005090930 METAR LMML NIL=
201005090915 METAR LMML 090915Z 06005KT 010V120 9999 FEW026 22/14 Q1015
                        NOSIG=
201005090900 METAR LMML NIL=
201005090845 METAR LMML 090845Z 06005KT 360V130 9999 FEW026 SCT250 21/14
                        Q1015 NOSIG=
201005090830 METAR LMML NIL=
201005090815 METAR LMML 090815Z 03004KT 350V090 9999 FEW020 SCT250 22/13
                        Q1015 NOSIG=
201005090800 METAR LMML NIL=
201005090745 METAR LMML 090745Z 34004KT 250V050 9999 FEW020 BKN250 21/11
                        Q1015 NOSIG=
201005090730 METAR LMML NIL=
201005090715 METAR LMML 090715Z 35005KT 300V030 9999 FEW020 BKN250 21/11
                        Q1015 NOSIG=
201005090700 METAR LMML NIL=
201005090645 METAR LMML 090645Z 33004KT 290V350 9999 FEW020 SCT250 19/13
                        Q1015 NOSIG=
201005090630 METAR LMML NIL=
201005090615 METAR LMML 090615Z 33004KT 9999 FEW020 18/14 Q1015 NOSIG=
201005090600 METAR LMML NIL=
201005090545 METAR LMML 090545Z VRB02KT 9999 FEW020 SCT250 17/15 Q1015
                        NOSIG=
201005090530 METAR LMML NIL=
201005090515 METAR LMML 090515Z VRB03KT CAVOK 16/15 Q1014 NOSIG=
201005090500 METAR LMML NIL=
201005090445 METAR LMML 090445Z VRB02KT CAVOK 15/14 Q1014 NOSIG=
201005090430 METAR LMML NIL=
201005090415 METAR LMML 090415Z VRB01KT CAVOK 14/14 Q1014 NOSIG=
201005090400 METAR LMML NIL=
201005090345 METAR LMML 090345Z VRB03KT CAVOK 15/14 Q1014 TEMPO 9000 NSC=
201005090315 METAR LMML 090315Z VRB02KT CAVOK 15/14 Q1013 TEMPO 9000 NSC=
201005090245 METAR LMML 090245Z VRB03KT CAVOK 15/14 Q1013 TEMPO 9000 NSC=
201005090230 METAR LMML NIL=
201005090215 METAR LMML 090215Z VRB03KT CAVOK 15/14 Q1013 TEMPO 9000 NSC=
201005090200 METAR LMML NIL=
201005090145 METAR LMML 090145Z VRB01KT CAVOK 15/14 Q1013 TEMPO 9000 NSC=
201005090130 METAR LMML NIL=
201005090115 METAR LMML 090115Z 31004KT CAVOK 16/14 Q1013 NOSIG=
201005090100 METAR LMML NIL=
201005090045 METAR LMML 090045Z 33004KT CAVOK 16/15 Q1013 NOSIG=
201005090030 METAR LMML NIL=
201005090015 METAR LMML 090015Z 32005KT CAVOK 16/15 Q1013 NOSIG=
201005090000 METAR LMML NIL=
201005082345 METAR LMML 082345Z 33005KT CAVOK 17/15 Q1013 NOSIG=
201005082330 METAR LMML NIL=
201005082315 METAR LMML 082315Z 33007KT CAVOK 17/15 Q1013 NOSIG=
201005082300 METAR LMML NIL=
201005082245 METAR LMML 082245Z 32008KT CAVOK 17/14 Q1013 NOSIG=
201005082230 METAR LMML NIL=
201005082215 METAR LMML 082215Z 32009KT CAVOK 18/13 Q1013 NOSIG=
201005082200 METAR LMML NIL=
201005082145 METAR LMML 082145Z 32010KT CAVOK 18/13 Q1013 NOSIG=
201005082130 METAR LMML NIL=
201005082115 METAR LMML 082115Z 30010KT CAVOK 18/13 Q1013 NOSIG=
201005082100 METAR LMML NIL=
201005082045 METAR LMML 082045Z 29009KT 260V320 CAVOK 18/13 Q1013 NOSIG=
201005082030 METAR LMML NIL=
201005082015 METAR LMML 082015Z 28011KT CAVOK 18/13 Q1013 NOSIG=
201005082000 METAR LMML NIL=
201005081945 METAR LMML 081945Z 29007KT 200V340 CAVOK 18/13 Q1012 NOSIG=
201005081930 METAR LMML NIL=
201005081915 METAR LMML 081915Z 28004KT 230V340 CAVOK 18/13 Q1012 NOSIG=
201005081900 METAR LMML NIL=
201005081845 METAR LMML 081845Z 28005KT 240V310 CAVOK 18/12 Q1012 NOSIG=
201005081830 METAR LMML NIL=
201005081815 METAR LMML 081815Z 28005KT CAVOK 18/13 Q1012 NOSIG=
201005081800 METAR LMML NIL=
201005081745 METAR LMML 081745Z 32004KT CAVOK 18/13 Q1011 NOSIG=
201005081730 METAR LMML NIL=
201005081715 METAR LMML 081715Z 01004KT 330V030 CAVOK 19/13 Q1011 NOSIG=
201005081700 METAR LMML NIL=
201005081645 METAR LMML 081645Z 01006KT 280V050 CAVOK 20/12 Q1010 NOSIG=
201005081630 METAR LMML NIL=
201005081615 METAR LMML 081615Z 02007KT CAVOK 20/12 Q1010 NOSIG=
201005081600 METAR LMML NIL=
201005081545 METAR LMML 081545Z 01008KT 340V060 9999 FEW018 21/13 Q1010
                        NOSIG=
201005081530 METAR LMML NIL=
201005081515 METAR LMML 081515Z 02008KT 9999 FEW018 21/14 Q1010 NOSIG=
201005081500 METAR LMML NIL=
201005081445 METAR LMML 081445Z 02009KT 360V060 9999 FEW018 21/14 Q1010
                        NOSIG=
201005081430 METAR LMML NIL=
201005081415 METAR LMML 081415Z 03013KT 9999 FEW018 20/14 Q1009 NOSIG=
201005081400 METAR LMML NIL=
201005081345 METAR LMML 081345Z 04014KT 360V080 9999 FEW021 21/13 Q1009
                        NOSIG=
201005081330 METAR LMML NIL=
201005081315 METAR LMML 081315Z 03011KT 360V090 9999 FEW021 22/13 Q1009
                        NOSIG=
201005081300 METAR LMML NIL=
201005081245 METAR LMML 081245Z 03016KT 010V080 9999 FEW021 21/13 Q1009
                        NOSIG=
201005081215 METAR LMML 081215Z 04014KT 360V090 9999 SCT018 21/13 Q1008
                        NOSIG=
201005081200 METAR LMML NIL=
201005081145 METAR LMML 081145Z 04015KT 010V100 9999 SCT018 21/14 Q1008
                        NOSIG=
201005081130 METAR LMML NIL=
201005081115 METAR LMML 081115Z 04015KT 360V080 9999 SCT019 20/14 Q1008
                        NOSIG=
201005081100 METAR LMML NIL=
201005081045 METAR LMML 081045Z 04018KT 010V080 9999 FEW019 21/14 Q1008
                        NOSIG=
201005081030 METAR LMML NIL=
201005081015 METAR LMML 081015Z 05019KT 020V100 9999 SCT021 20/13 Q1008
                        NOSIG=
201005081000 METAR LMML NIL=
201005080945 METAR LMML 080945Z 06016KT 030V090 9999 SCT020 21/13 Q1008
                        NOSIG=
201005080930 METAR LMML NIL=
201005080915 METAR LMML 080915Z 05017KT 010V090 9999 SCT019 20/13 Q1008
                        NOSIG=
201005080900 METAR LMML NIL=
201005080845 METAR LMML 080845Z 05015KT 020V090 9999 SCT020 20/13 Q1007
                        NOSIG=
201005080830 METAR LMML NIL=
201005080815 METAR LMML 080815Z 05017KT 020V100 9999 BKN018 20/14 Q1007
                        NOSIG=
201005080800 METAR LMML NIL=
201005080745 METAR LMML 080745Z 06016KT 020V090 9999 BKN018 19/14 Q1007
                        NOSIG=
201005080730 METAR LMML NIL=
201005080715 METAR LMML 080715Z 06017KT 030V100 9999 BKN016 19/14 Q1007
                        BECMG SCT016=
201005080700 METAR LMML NIL=
201005080645 METAR LMML 080645Z 06017KT 030V090 9999 BKN015 18/14 Q1007
                        BECMG SCT016=
201005080630 METAR LMML NIL=
201005080615 METAR LMML 080615Z 06014KT 020V090 9999 BKN014 18/14 Q1006
                        BECMG SCT015=
201005080600 METAR LMML NIL=
201005080545 METAR LMML 080545Z 06013KT 020V090 9999 BKN012 18/15 Q1006
                        BECMG SCT015=
201005080530 METAR LMML NIL=
201005080515 METAR LMML 080515Z 05012KT 020V090 9999 BKN012 17/15 Q1006
                        BECMG SCT015=
201005080500 METAR LMML NIL=
201005080445 METAR LMML 080445Z 06012KT 020V100 9999 BKN011 17/15 Q1005
                        BECMG SCT015=
201005080430 METAR LMML NIL=
201005080415 METAR LMML 080415Z 05013KT 020V090 9999 BKN011 17/15 Q1005
                        BECMG SCT015=
201005080400 METAR LMML NIL=
201005080345 METAR LMML 080345Z 05013KT 020V080 9999 BKN010 17/15 Q1005
                        TEMPO SCT010=
201005080330 METAR LMML NIL=
201005080315 METAR LMML 080315Z 06014KT 020V100 9999 BKN008 17/15 Q1005
                        TEMPO SCT008=
201005080245 METAR LMML 080245Z 05013KT 020V090 9999 BKN008 SCT250 17/16
                        Q1004 NOSIG=
201005080215 METAR LMML 080215Z 05012KT 020V080 9999 FEW015 SCT120 17/15
                        Q1005 NOSIG=
201005080145 METAR LMML 080145Z 04012KT 9999 FEW015 BKN120 BKN250 17/14
                        Q1005 NOSIG=
201005080130 METAR LMML NIL=
201005080115 METAR LMML 080115Z 07013KT 040V110 CAVOK 17/14 Q1005 NOSIG=
201005080100 METAR LMML NIL=
201005080045 METAR LMML 080045Z 08014KT CAVOK 17/14 Q1004 NOSIG=
201005080030 METAR LMML NIL=
201005080015 METAR LMML 080015Z 08016KT 050V110 CAVOK 17/14 Q1005 NOSIG=
201005080000 METAR LMML NIL=
201005072345 METAR LMML 072345Z 07012KT 040V110 CAVOK 17/14 Q1006 NOSIG=
201005072315 METAR LMML 072315Z 08014KT CAVOK 17/14 Q1006 NOSIG=
201005072300 METAR LMML NIL=
201005072245 METAR LMML 072245Z 07011KT 030V100 CAVOK 18/14 Q1007 NOSIG=
201005072230 METAR LMML NIL=
201005072215 METAR LMML 072215Z 08012KT 040V110 CAVOK 17/14 Q1008 NOSIG=
201005072200 METAR LMML NIL=
201005072145 METAR LMML 072145Z 08014KT CAVOK 17/14 Q1007 NOSIG=
201005072115 METAR LMML 072115Z 08014KT 050V110 CAVOK 18/14 Q1008 NOSIG=
201005072100 METAR LMML NIL=
201005072045 METAR LMML 072045Z 08012KT 060V120 CAVOK 17/14 Q1008 NOSIG=
201005072030 METAR LMML NIL=
201005072015 METAR LMML 072015Z 07013KT 030V090 9999 FEW020 BKN120 18/14
                        Q1008 NOSIG=
201005072000 METAR LMML NIL=
201005071945 METAR LMML 071945Z 08013KT 030V110 9999 FEW020 SCT120 BKN250
                        18/14 Q1008 NOSIG=
201005071930 METAR LMML NIL=
201005071915 METAR LMML 071915Z 09014KT 060V120 9999 FEW020 SCT120 BKN250
                        17/14 Q1007 NOSIG=
201005071900 METAR LMML NIL=
201005071845 METAR LMML 071845Z 10016KT 060V130 9999 FEW020 SCT120 BKN250
                        18/14 Q1007 NOSIG=
201005071830 METAR LMML NIL=
201005071815 METAR LMML 071815Z 11014KT CAVOK 18/14 Q1008 NOSIG=
201005071800 METAR LMML NIL=
201005071745 METAR LMML 071745Z 11015KT CAVOK 18/13 Q1008 NOSIG=
201005071730 METAR LMML NIL=
201005071715 METAR LMML 071715Z 11012KT 080V140 CAVOK 18/13 Q1009 NOSIG=
201005071700 METAR LMML NIL=
201005071645 METAR LMML 071645Z 10010KT 070V140 CAVOK 19/13 Q1009 NOSIG=
201005071630 METAR LMML NIL=
201005071615 METAR LMML 071615Z 07013KT 030V100 CAVOK 19/13 Q1008 NOSIG=
201005071600 METAR LMML NIL=
201005071545 METAR LMML 071545Z 08013KT 9999 -SHRA NSC 19/13 Q1008 NOSIG=
201005071530 METAR LMML NIL=
201005071515 METAR LMML 071515Z 09012KT 060V120 CAVOK 19/13 Q1009 NOSIG=
201005071500 METAR LMML NIL=
201005071445 METAR LMML 071445Z 08009KT 040V110 CAVOK 20/12 Q1010 NOSIG=
201005071430 METAR LMML NIL=
201005071415 METAR LMML 071415Z 07011KT 030V120 CAVOK 22/10 Q1009 NOSIG=
201005071400 METAR LMML NIL=
201005071345 METAR LMML 071345Z 08012KT 050V110 CAVOK 21/10 Q1009 NOSIG=
201005071330 METAR LMML NIL=
201005071315 METAR LMML 071315Z 09010KT 050V130 CAVOK 22/09 Q1009 NOSIG=
201005071300 METAR LMML NIL=
201005071245 METAR LMML 071245Z 11011KT 070V140 CAVOK 22/08 Q1010 NOSIG=
201005071230 METAR LMML NIL=
201005071215 METAR LMML 071215Z 12010KT 090V160 CAVOK 22/08 Q1011 NOSIG=
201005071200 METAR LMML NIL=
201005071145 METAR LMML 071145Z 14009KT 100V180 CAVOK 22/08 Q1011 NOSIG=
201005071130 METAR LMML NIL=
201005071115 METAR LMML 071115Z 14008KT 080V220 CAVOK 22/08 Q1011 NOSIG=
201005071045 METAR LMML 071045Z 15008KT 120V200 CAVOK 22/09 Q1012 NOSIG=
201005071030 METAR LMML NIL=
201005071015 METAR LMML 071015Z 13007KT 060V170 CAVOK 22/09 Q1012 NOSIG=
201005071000 METAR LMML NIL=
201005070945 METAR LMML 070945Z 14007KT 090V250 CAVOK 22/08 Q1012 NOSIG=
201005070930 METAR LMML NIL=
201005070915 METAR LMML 070915Z 14006KT 070V190 CAVOK 21/09 Q1012 NOSIG=
201005070900 METAR LMML NIL=
201005070845 METAR LMML 070845Z 16005KT 090V200 CAVOK 20/11 Q1012 NOSIG=
201005070830 METAR LMML NIL=
201005070815 METAR LMML 070815Z 17005KT 120V230 CAVOK 20/11 Q1012 NOSIG=
201005070800 METAR LMML NIL=
201005070745 METAR LMML 070745Z 16007KT 130V210 CAVOK 19/11 Q1012 NOSIG=
201005070730 METAR LMML NIL=
201005070715 METAR LMML 070715Z 16006KT 130V210 CAVOK 19/12 Q1012 NOSIG=
201005070700 METAR LMML NIL=
201005070645 METAR LMML 070645Z 18006KT 140V210 CAVOK 18/12 Q1012 NOSIG=
201005070630 METAR LMML NIL=
201005070615 METAR LMML 070615Z 17005KT 140V210 CAVOK 18/12 Q1012 NOSIG=
201005070600 METAR LMML NIL=
201005070545 METAR LMML 070545Z VRB03KT CAVOK 18/13 Q1012 NOSIG=
201005070530 METAR LMML NIL=
201005070515 METAR LMML 070515Z VRB01KT CAVOK 16/12 Q1012 NOSIG=
201005070500 METAR LMML NIL=
201005070445 METAR LMML 070445Z VRB02KT CAVOK 14/11 Q1011 NOSIG=
201005070430 METAR LMML NIL=
201005070415 METAR LMML 070415Z 36004KT CAVOK 15/11 Q1011 NOSIG=
201005070400 METAR LMML NIL=
201005070345 METAR LMML 070345Z VRB03KT CAVOK 14/11 Q1011 NOSIG=
201005070330 METAR LMML NIL=
201005070315 METAR LMML 070315Z 36006KT CAVOK 14/10 Q1011 NOSIG=
201005070300 METAR LMML NIL=
201005070245 METAR LMML 070245Z VRB03KT CAVOK 14/10 Q1011 NOSIG=
201005070230 METAR LMML NIL=
201005070215 METAR LMML 070215Z 36004KT CAVOK 14/10 Q1011 NOSIG=
201005070200 METAR LMML NIL=
201005070145 METAR LMML 070145Z 36004KT 330V120 CAVOK 14/10 Q1011 NOSIG=
201005070130 METAR LMML NIL=
201005070115 METAR LMML 070115Z VRB03KT CAVOK 14/09 Q1012 NOSIG=
201005070100 METAR LMML NIL=
201005070045 METAR LMML 070045Z VRB03KT CAVOK 14/09 Q1012 NOSIG=
201005070030 METAR LMML NIL=
201005070015 METAR LMML 070015Z VRB03KT CAVOK 14/09 Q1012 NOSIG=
201005070000 METAR LMML NIL=
201005062345 METAR LMML 062345Z VRB03KT CAVOK 14/09 Q1012 NOSIG=
201005062330 METAR LMML NIL=
201005062315 METAR LMML 062315Z VRB03KT CAVOK 14/08 Q1012 NOSIG=
201005062300 METAR LMML NIL=
201005062245 METAR LMML 062245Z VRB03KT CAVOK 15/09 Q1012 NOSIG=
201005062230 METAR LMML NIL=
201005062215 METAR LMML 062215Z VRB02KT CAVOK 14/09 Q1012 NOSIG=
201005062200 METAR LMML NIL=
201005062145 METAR LMML 062145Z VRB02KT CAVOK 15/09 Q1012 NOSIG=
201005062130 METAR LMML NIL=
201005062115 METAR LMML 062115Z VRB03KT CAVOK 15/09 Q1012 NOSIG=
201005062100 METAR LMML NIL=
201005062045 METAR LMML 062045Z VRB03KT CAVOK 15/10 Q1012 NOSIG=
201005062030 METAR LMML NIL=
201005062015 METAR LMML 062015Z VRB03KT CAVOK 15/10 Q1012 NOSIG=
201005062000 METAR LMML NIL=
201005061945 METAR LMML 061945Z 30004KT CAVOK 16/10 Q1012 NOSIG=
201005061930 METAR LMML NIL=
201005061915 METAR LMML 061915Z 32005KT CAVOK 16/10 Q1012 NOSIG=
201005061900 METAR LMML NIL=
201005061845 METAR LMML 061845Z 33007KT CAVOK 16/09 Q1011 NOSIG=
201005061830 METAR LMML NIL=
201005061815 METAR LMML 061815Z 32006KT CAVOK 17/09 Q1011 NOSIG=
201005061800 METAR LMML NIL=
201005061745 METAR LMML 061745Z 31009KT CAVOK 17/09 Q1011 NOSIG=
201005061730 METAR LMML NIL=
201005061715 METAR LMML 061715Z 31011KT 270V330 CAVOK 18/09 Q1011 NOSIG=
201005061700 METAR LMML NIL=
201005061645 METAR LMML 061645Z 31012KT 280V340 CAVOK 19/09 Q1011 NOSIG=
201005061630 METAR LMML NIL=
201005061615 METAR LMML 061615Z 31015KT CAVOK 19/09 Q1010 NOSIG=
201005061600 METAR LMML NIL=
201005061545 METAR LMML 061545Z 29014KT 260V320 CAVOK 20/08 Q1011 NOSIG=
201005061530 METAR LMML NIL=
201005061515 METAR LMML 061515Z 30016KT CAVOK 20/07 Q1011 NOSIG=
201005061500 METAR LMML NIL=
201005061445 METAR LMML 061445Z 30016KT CAVOK 21/05 Q1011 NOSIG=
201005061430 METAR LMML NIL=
201005061415 METAR LMML 061415Z 30016KT CAVOK 21/06 Q1011 NOSIG=
201005061400 METAR LMML NIL=
201005061345 METAR LMML 061345Z 31016KT 270V340 CAVOK 21/07 Q1011 NOSIG=
201005061330 METAR LMML NIL=
201005061315 METAR LMML 061315Z 29013KT 260V320 CAVOK 21/07 Q1011 NOSIG=
201005061300 METAR LMML NIL=
201005061245 METAR LMML 061245Z 30012KT 260V330 9999 FEW030 22/07 Q1011
                        NOSIG=
201005061230 METAR LMML NIL=
201005061215 METAR LMML 061215Z 30011KT 270V340 9999 FEW030 22/08 Q1011
                        NOSIG=
201005061200 METAR LMML NIL=
201005061145 METAR LMML 061145Z 30011KT 260V340 9999 FEW030 21/07 Q1010
                        NOSIG=
201005061130 METAR LMML NIL=
201005061115 METAR LMML 061115Z 31010KT 260V350 9999 FEW030 22/08 Q1010
                        NOSIG=
201005061100 METAR LMML NIL=
201005061045 METAR LMML 061045Z 31009KT 260V340 9999 FEW030 22/09 Q1011
                        NOSIG=
201005061030 METAR LMML NIL=
201005061015 METAR LMML 061015Z 31009KT 260V350 9999 FEW030 22/09 Q1011
                        NOSIG=
201005061000 METAR LMML NIL=
201005060945 METAR LMML 060945Z 33012KT 280V010 9999 FEW030 21/11 Q1011
                        NOSIG=
201005060930 METAR LMML NIL=
201005060915 METAR LMML 060915Z 33008KT 290V010 9999 FEW025 21/11 Q1011
                        NOSIG=
201005060845 METAR LMML 060845Z 33009KT 300V010 CAVOK 20/10 Q1010 NOSIG=
201005060830 METAR LMML NIL=
201005060815 METAR LMML 060815Z 33011KT 300V360 CAVOK 20/09 Q1010 NOSIG=
201005060800 METAR LMML NIL=
201005060745 METAR LMML 060745Z 33009KT 300V360 CAVOK 19/10 Q1010 NOSIG=
201005060730 METAR LMML NIL=
201005060715 METAR LMML 060715Z 33010KT 290V360 CAVOK 19/10 Q1010 NOSIG=
201005060700 METAR LMML NIL=
201005060645 METAR LMML 060645Z 33012KT CAVOK 18/10 Q1010 NOSIG=
201005060615 METAR LMML 060615Z 33013KT 290V360 CAVOK 18/10 Q1010 NOSIG=
201005060600 METAR LMML NIL=
201005060545 METAR LMML 060545Z 33012KT CAVOK 17/09 Q1010 NOSIG=
201005060530 METAR LMML NIL=
201005060515 METAR LMML 060515Z 32009KT CAVOK 16/09 Q1010 NOSIG=
201005060500 METAR LMML NIL=
201005060445 METAR LMML 060445Z 31010KT CAVOK 15/09 Q1010 NOSIG=
201005060430 METAR LMML NIL=
201005060415 METAR LMML 060415Z 32008KT CAVOK 15/09 Q1009 NOSIG=
201005060400 METAR LMML NIL=
201005060345 METAR LMML 060345Z 32005KT 280V350 CAVOK 15/09 Q1009 NOSIG=
201005060330 METAR LMML NIL=
201005060315 METAR LMML 060315Z 33006KT 290V360 CAVOK 15/09 Q1009 NOSIG=
201005060245 METAR LMML 060245Z 32008KT CAVOK 15/09 Q1009 NOSIG=
201005060230 METAR LMML NIL=
201005060215 METAR LMML 060215Z 31008KT CAVOK 15/10 Q1009 NOSIG=
201005060200 METAR LMML NIL=
201005060145 METAR LMML 060145Z 31009KT CAVOK 15/10 Q1009 NOSIG=
201005060130 METAR LMML NIL=
201005060115 METAR LMML 060115Z 31008KT CAVOK 15/11 Q1009 NOSIG=
201005060100 METAR LMML NIL=
201005060045 METAR LMML 060045Z 31007KT CAVOK 15/12 Q1009 NOSIG=
201005060015 METAR LMML 060015Z 33005KT CAVOK 15/12 Q1009 NOSIG=
201005060000 METAR LMML NIL=
201005052345 METAR LMML 052345Z 31007KT CAVOK 16/13 Q1010 NOSIG=
201005052330 METAR LMML NIL=
201005052315 METAR LMML 052315Z 29008KT CAVOK 16/13 Q1010 NOSIG=
201005052300 METAR LMML NIL=
201005052245 METAR LMML 052245Z 29008KT CAVOK 16/12 Q1010 NOSIG=
201005052230 METAR LMML NIL=
201005052215 METAR LMML 052215Z 29006KT CAVOK 16/13 Q1010 NOSIG=
201005052200 METAR LMML NIL=
201005052145 METAR LMML 052145Z 30004KT 270V330 CAVOK 16/12 Q1010 NOSIG=
201005052115 METAR LMML 052115Z VRB03KT CAVOK 16/12 Q1010 NOSIG=
201005052100 METAR LMML NIL=
201005052045 METAR LMML 052045Z 31005KT CAVOK 16/12 Q1010 NOSIG=
201005052015 METAR LMML 052015Z 30004KT CAVOK 16/12 Q1010 NOSIG=
201005052000 METAR LMML NIL=
201005051945 METAR LMML 051945Z 31004KT CAVOK 17/12 Q1009 NOSIG=
201005051915 METAR LMML 051915Z 32007KT CAVOK 17/12 Q1009 NOSIG=
201005051845 METAR LMML 051845Z 33005KT 300V360 CAVOK 17/11 Q1008 NOSIG=
201005051815 METAR LMML 051815Z 33006KT 290V360 CAVOK 18/11 Q1008 NOSIG=
201005051745 METAR LMML 051745Z 32010KT 300V360 CAVOK 18/11 Q1008 NOSIG=
201005051730 METAR LMML NIL=
201005051715 METAR LMML 051715Z 30011KT CAVOK 19/13 Q1008 NOSIG=
201005051700 METAR LMML NIL=
201005051645 METAR LMML 051645Z 31012KT CAVOK 20/14 Q1007 NOSIG=
201005051630 METAR LMML NIL=
201005051615 METAR LMML 051615Z 30010KT 260V330 CAVOK 21/14 Q1007 NOSIG=
201005051600 METAR LMML NIL=
201005051545 METAR LMML 051545Z 30011KT CAVOK 22/14 Q1007 NOSIG=
201005051530 METAR LMML NIL=
201005051515 METAR LMML 051515Z 30010KT 260V340 CAVOK 22/14 Q1007 NOSIG=
201005051500 METAR LMML NIL=
201005051445 METAR LMML 051445Z 30010KT 250V010 9999 FEW030 23/15 Q1006
                        NOSIG=
201005051430 METAR LMML NIL=
201005051415 METAR LMML 051415Z 34008KT 310V020 CAVOK 23/15 Q1006 NOSIG=
201005051400 METAR LMML NIL=
201005051345 METAR LMML 051345Z 35010KT CAVOK 24/14 Q1006 NOSIG=
201005051330 METAR LMML NIL=
201005051315 METAR LMML 051315Z 35008KT 300V030 CAVOK 24/14 Q1006 NOSIG=
201005051300 METAR LMML NIL=
201005051245 METAR LMML 051245Z 34009KT 310V020 CAVOK 24/14 Q1006 NOSIG=
201005051230 METAR LMML NIL=
201005051215 METAR LMML 051215Z 35011KT 310V010 CAVOK 24/15 Q1006 NOSIG=
201005051200 METAR LMML NIL=
201005051145 METAR LMML 051145Z 36012KT 9999 FEW020 24/14 Q1006 NOSIG=
201005051130 METAR LMML NIL=
201005051115 METAR LMML 051115Z 35012KT CAVOK 23/14 Q1006 NOSIG=
201005051100 METAR LMML NIL=
201005051045 METAR LMML 051045Z 34009KT 310V010 CAVOK 23/15 Q1006 NOSIG=
201005051030 METAR LMML NIL=
201005051015 METAR LMML 051015Z 32012KT 290V350 CAVOK 23/15 Q1006 NOSIG=
201005051000 METAR LMML NIL=
201005050945 METAR LMML 050945Z 31012KT 270V360 9999 FEW012 22/16 Q1006
                        NOSIG=
201005050930 METAR LMML NIL=
201005050915 METAR LMML 050915Z 30018KT 270V330 9000 FEW012 21/16 Q1005
                        BECMG 9999 SCT015=
201005050900 METAR LMML NIL=
201005050845 METAR LMML 050845Z 29015KT 9000 FEW015 21/16 Q1005 BECMG
                        9999 SCT015=
201005050830 METAR LMML NIL=
201005050815 METAR LMML 050815Z 30016KT 8000 NSC 21/16 Q1005 BECMG 9999
                        SCT015 RMK DUST HAZE=
201005050800 METAR LMML NIL=
201005050745 METAR LMML 050745Z 30013KT 8000 NSC 22/16 Q1004 BECMG 9999
                        SCT015 RMK DUST HAZE=
201005050730 METAR LMML NIL=
201005050715 METAR LMML 050715Z 28015KT 8000 NSC 21/16 Q1004 NOSIG RMK
                        DUST HAZE=
201005050700 METAR LMML NIL=
201005050645 METAR LMML 050645Z 28015KT 8000 NSC 21/16 Q1003 NOSIG RMK
                        DUST HAZE=
201005050630 METAR LMML NIL=
201005050615 METAR LMML 050615Z 30010KT 8000 NSC 21/16 Q1003 NOSIG=
201005050600 METAR LMML NIL=
201005050545 METAR LMML 050545Z 30008KT 260V320 8000 NSC 20/16 Q1003 NOSIG
                        RMK DUST=
201005050530 METAR LMML NIL=
201005050515 METAR LMML 050515Z 28008KT 240V320 8000 NSC 20/16 Q1002 NOSIG
                        RMK DUST=
201005050500 METAR LMML NIL=
201005050445 METAR LMML 050445Z 27007KT 240V300 8000 NSC 19/17 Q1002 NOSIG=
201005050430 METAR LMML NIL=
201005050415 METAR LMML 050415Z 22010KT 180V280 8000 NSC 19/17 Q1002 TEMPO
                        5000 HZ=
201005050400 METAR LMML NIL=
201005050345 METAR LMML 050345Z 20007KT 160V250 CAVOK 20/17 Q1001 NOSIG=
201005050330 METAR LMML NIL=
201005050315 METAR LMML 050315Z 19010KT 150V220 CAVOK 21/16 Q1001 NOSIG=
201005050300 METAR LMML NIL=
201005050245 METAR LMML 050245Z 18012KT 150V210 CAVOK 21/16 Q1002 NOSIG=
201005050230 METAR LMML NIL=
201005050215 METAR LMML 050215Z 18011KT 150V210 CAVOK 21/15 Q1002 NOSIG=
201005050200 METAR LMML NIL=
201005050145 METAR LMML 050145Z 18009KT 150V210 CAVOK 21/15 Q1002 NOSIG=
201005050130 METAR LMML NIL=
201005050115 METAR LMML 050115Z 16010KT CAVOK 21/15 Q1002 NOSIG=
201005050100 METAR LMML NIL=
201005050045 METAR LMML 050045Z 20005KT 120V300 CAVOK 21/15 Q1002 NOSIG=
201005050030 METAR LMML NIL=
201005050015 METAR LMML 050015Z 14013KT CAVOK 22/14 Q1002 NOSIG=
201005050000 METAR LMML NIL=
201005042345 METAR LMML 042345Z 12011KT 080V140 CAVOK 21/14 Q1002 NOSIG=
201005042330 METAR LMML NIL=
201005042315 METAR LMML 042315Z 12009KT 090V150 CAVOK 21/15 Q1002 NOSIG=
201005042300 METAR LMML NIL=
201005042245 METAR LMML 042245Z 07008KT 030V100 CAVOK 19/15 Q1003 NOSIG=
201005042230 METAR LMML NIL=
201005042215 METAR LMML 042215Z 05011KT 020V090 CAVOK 19/16 Q1003 NOSIG=
201005042200 METAR LMML NIL=
201005042145 METAR LMML 042145Z 04011KT 010V080 CAVOK 20/15 Q1002 NOSIG=
201005042130 METAR LMML NIL=
201005042115 METAR LMML 042115Z 03010KT CAVOK 19/16 Q1003 NOSIG=
201005042100 METAR LMML NIL=
201005042045 METAR LMML 042045Z 03005KT 330V110 CAVOK 20/15 Q1004 NOSIG=
201005042030 METAR LMML NIL=
201005042015 METAR LMML 042015Z 10010KT 060V130 CAVOK 19/15 Q1003 NOSIG=
201005042000 METAR LMML NIL=
201005041945 METAR LMML 041945Z 09010KT 060V130 CAVOK 19/15 Q1003 NOSIG=
201005041930 METAR LMML NIL=
201005041915 METAR LMML 041915Z 09010KT CAVOK 19/16 Q1003 NOSIG=
201005041900 METAR LMML NIL=
201005041845 METAR LMML 041845Z 09010KT 060V120 CAVOK 19/15 Q1003 NOSIG=
201005041830 METAR LMML NIL=
201005041815 METAR LMML 041815Z 10010KT 070V130 CAVOK 19/15 Q1004 NOSIG=
201005041800 METAR LMML NIL=
201005041745 METAR LMML 041745Z 09011KT 060V130 CAVOK 20/15 Q1003 NOSIG=
201005041730 METAR LMML NIL=
201005041715 METAR LMML 041715Z 10010KT 070V130 CAVOK 20/15 Q1004 NOSIG=
201005041700 METAR LMML NIL=
201005041645 METAR LMML 041645Z 10014KT CAVOK 20/15 Q1004 NOSIG=
201005041630 METAR LMML NIL=
201005041615 METAR LMML 041615Z 11014KT CAVOK 21/15 Q1004 NOSIG=
201005041600 METAR LMML NIL=
201005041545 METAR LMML 041545Z 12013KT 090V150 CAVOK 22/15 Q1004 NOSIG=
201005041530 METAR LMML NIL=
201005041515 METAR LMML 041515Z 12013KT CAVOK 21/15 Q1005 NOSIG=
201005041500 METAR LMML NIL=
201005041445 METAR LMML 041445Z 14011KT 110V170 CAVOK 21/15 Q1006 NOSIG=
201005041430 METAR LMML NIL=
201005041415 METAR LMML 041415Z 12015KT 090V150 CAVOK 22/16 Q1005 NOSIG=
201005041400 METAR LMML NIL=
201005041345 METAR LMML 041345Z 12016KT CAVOK 23/15 Q1005 NOSIG=
201005041330 METAR LMML NIL=
201005041315 METAR LMML 041315Z 12019KT CAVOK 22/15 Q1005 NOSIG=
201005041300 METAR LMML NIL=
201005041245 METAR LMML 041245Z 12020KT 080V140 CAVOK 23/15 Q1005 NOSIG=
201005041230 METAR LMML NIL=
201005041215 METAR LMML 041215Z 11016KT CAVOK 24/15 Q1005 NOSIG=
201005041200 METAR LMML NIL=
201005041145 METAR LMML 041145Z 11013KT 060V140 CAVOK 23/15 Q1007 NOSIG=
201005041130 METAR LMML NIL=
201005041115 METAR LMML 041115Z 11012KT 080V140 CAVOK 23/15 Q1007 NOSIG=
201005041100 METAR LMML NIL=
201005041045 METAR LMML 041045Z 10012KT 060V140 CAVOK 23/15 Q1007 NOSIG=
201005041030 METAR LMML NIL=
201005041015 METAR LMML 041015Z 10013KT 040V130 CAVOK 23/15 Q1007 NOSIG=
201005041000 METAR LMML NIL=
201005040945 METAR LMML 040945Z 10010KT 060V150 CAVOK 23/15 Q1007 NOSIG=
201005040915 METAR LMML 040915Z 09011KT 050V140 CAVOK 23/15 Q1007 NOSIG=
201005040900 METAR LMML NIL=
201005040845 METAR LMML 040845Z 10011KT 070V130 CAVOK 22/15 Q1007 NOSIG=
201005040815 METAR LMML 040815Z 11013KT 080V140 CAVOK 22/15 Q1007 NOSIG=
201005040800 METAR LMML NIL=
201005040745 METAR LMML 040745Z 11015KT CAVOK 22/15 Q1006 NOSIG=
201005040730 METAR LMML NIL=
201005040715 METAR LMML 040715Z 11015KT CAVOK 21/14 Q1007 NOSIG=
201005040700 METAR LMML NIL=
201005040645 METAR LMML 040645Z 11014KT CAVOK 20/14 Q1007 NOSIG=
201005040630 METAR LMML NIL=
201005040615 METAR LMML 040615Z 10012KT 9000 NSC 19/15 Q1007 NOSIG=
201005040600 METAR LMML NIL=
201005040545 METAR LMML 040545Z 11013KT 9000 NSC 19/15 Q1007 NOSIG=
201005040530 METAR LMML NIL=
201005040515 METAR LMML 040515Z 11015KT 9000 NSC 19/15 Q1007 NOSIG=
201005040445 METAR LMML 040445Z 11014KT 9000 NSC 18/15 Q1007 NOSIG=
201005040415 METAR LMML 040415Z 11013KT 9000 NSC 18/15 Q1006 NOSIG=
201005040400 METAR LMML NIL=
201005040345 METAR LMML 040345Z 11011KT 9000 NSC 18/15 Q1006 NOSIG=
201005040330 METAR LMML NIL=
201005040315 METAR LMML 040315Z 11013KT 9000 NSC 18/15 Q1006 NOSIG=
201005040300 METAR LMML NIL=
201005040245 METAR LMML 040245Z 11013KT 9000 NSC 18/15 Q1006 NOSIG=
201005040230 METAR LMML NIL=
201005040215 METAR LMML 040215Z 11012KT 9000 NSC 18/15 Q1007 NOSIG=
201005040200 METAR LMML NIL=
201005040145 METAR LMML 040145Z 12011KT 9000 NSC 17/15 Q1007 NOSIG=
201005040130 METAR LMML NIL=
201005040115 METAR LMML 040115Z 13010KT CAVOK 17/15 Q1008 NOSIG=
201005040100 METAR LMML NIL=
201005040045 METAR LMML 040045Z 13009KT CAVOK 17/15 Q1008 NOSIG=
201005040030 METAR LMML NIL=
201005040015 METAR LMML 040015Z 13009KT CAVOK 18/15 Q1009 NOSIG=
201005040000 METAR LMML NIL=
201005032345 METAR LMML 032345Z 14011KT CAVOK 18/15 Q1009 NOSIG=
201005032330 METAR LMML NIL=
201005032315 METAR LMML 032315Z 14011KT CAVOK 18/15 Q1010 NOSIG=
201005032245 METAR LMML 032245Z 15008KT 120V190 CAVOK 18/15 Q1010 NOSIG=
201005032230 METAR LMML NIL=
201005032215 METAR LMML 032215Z 16008KT CAVOK 18/15 Q1010 NOSIG=
201005032200 METAR LMML NIL=
201005032145 METAR LMML 032145Z 16009KT 120V190 CAVOK 18/15 Q1010 NOSIG=
201005032130 METAR LMML NIL=
201005032115 METAR LMML 032115Z 13012KT CAVOK 18/15 Q1010 NOSIG=
201005032045 METAR LMML 032045Z 13011KT CAVOK 18/15 Q1010 NOSIG=
201005032030 METAR LMML NIL=
201005032015 METAR LMML 032015Z 12012KT CAVOK 19/15 Q1010 NOSIG=
201005032000 METAR LMML NIL=
201005031945 METAR LMML 031945Z 12013KT CAVOK 19/14 Q1010 NOSIG=
201005031930 METAR LMML NIL=
201005031915 METAR LMML 031915Z 11014KT CAVOK 19/14 Q1009 NOSIG=
201005031900 METAR LMML NIL=
201005031845 METAR LMML 031845Z 11014KT CAVOK 19/14 Q1009 NOSIG=
201005031830 METAR LMML NIL=
201005031815 METAR LMML 031815Z 11013KT CAVOK 19/14 Q1009 NOSIG=
201005031800 METAR LMML NIL=
201005031745 METAR LMML 031745Z 12013KT CAVOK 19/14 Q1009 NOSIG=
201005031730 METAR LMML NIL=
201005031715 METAR LMML 031715Z 12015KT CAVOK 19/14 Q1009 NOSIG=
201005031700 METAR LMML NIL=
201005031645 METAR LMML 031645Z 12017KT CAVOK 20/14 Q1009 NOSIG=
201005031630 METAR LMML NIL=
201005031615 METAR LMML 031615Z 12016KT CAVOK 20/14 Q1010 NOSIG=
201005031600 METAR LMML NIL=
201005031545 METAR LMML 031545Z 13015KT CAVOK 21/14 Q1010 NOSIG=
201005031530 METAR LMML NIL=
201005031515 METAR LMML 031515Z 12017KT CAVOK 21/14 Q1010 NOSIG=
201005031500 METAR LMML NIL=
201005031445 METAR LMML 031445Z 12016KT CAVOK 21/15 Q1010 NOSIG=
201005031430 METAR LMML NIL=
201005031415 METAR LMML 031415Z 12016KT CAVOK 22/15 Q1011 NOSIG=
201005031400 METAR LMML NIL=
201005031345 METAR LMML 031345Z 12016KT CAVOK 22/16 Q1011 NOSIG=
201005031330 METAR LMML NIL=
201005031325 SPECI LMML 031325Z 12015KT CAVOK 22/15 Q1011 NOSIG=
201005031245 METAR LMML 031245Z 11013KT 080V140 CAVOK 23/15 Q1011 NOSIG=
201005031230 METAR LMML NIL=
201005031215 METAR LMML 031215Z 12013KT 090V160 CAVOK 23/15 Q1011 NOSIG=
201005031200 METAR LMML NIL=
201005031145 METAR LMML 031145Z 12013KT CAVOK 23/15 Q1011 NOSIG=
201005031130 METAR LMML NIL=
201005031115 METAR LMML 031115Z 12013KT CAVOK 22/16 Q1012 NOSIG=
201005031045 METAR LMML 031045Z 12013KT 100V160 CAVOK 22/15 Q1012 NOSIG=
201005031030 METAR LMML NIL=
201005031015 METAR LMML 031015Z 12013KT CAVOK 22/15 Q1012 NOSIG=
201005031000 METAR LMML NIL=
201005030945 METAR LMML 030945Z 11011KT CAVOK 22/16 Q1012 NOSIG=
201005030930 METAR LMML NIL=
201005030915 METAR LMML 030915Z 12012KT 9999 FEW012 22/16 Q1012 NOSIG=
201005030900 METAR LMML NIL=
201005030845 METAR LMML 030845Z 11010KT 9999 FEW010 22/16 Q1012 NOSIG=
201005030830 METAR LMML NIL=
201005030815 METAR LMML 030815Z 11010KT 080V140 9999 FEW010 21/16 Q1012
                        NOSIG=
201005030800 METAR LMML NIL=
201005030745 METAR LMML 030745Z 12011KT 9999 FEW006 21/16 Q1012 NOSIG=
201005030730 METAR LMML NIL=
201005030715 METAR LMML 030715Z 11009KT 080V140 9999 FEW006 20/17 Q1012
                        NOSIG=
201005030645 METAR LMML 030645Z 10006KT 9999 FEW005 19/18 Q1012 NOSIG=
201005030630 METAR LMML NIL=
201005030615 METAR LMML 030615Z 09006KT 5000 BR FEW005 18/18 Q1012 BECMG
                        8000=
201005030600 METAR LMML NIL=
201005030545 METAR LMML 030545Z 10005KT 070V140 4000 BR SCT003 SCT130
                        18/18 Q1012 BECMG 6000=
201005030530 METAR LMML NIL=
201005030515 METAR LMML 030515Z 09005KT 060V140 3000 BR BKN003 17/17 Q1012
                        BECMG 5000 SCT005=
201005030500 METAR LMML NIL=
201005030445 METAR LMML 030445Z 11005KT 3000 BR SCT003 SCT250 17/16 Q1012
                        BECMG 5000=
201005030430 METAR LMML NIL=
201005030415 METAR LMML 030415Z 09004KT 3000 BR SCT003 BKN250 17/16 Q1012
                        BECMG 5000=
201005030400 METAR LMML NIL=
201005030345 METAR LMML 030345Z VRB01KT 2000 BR BKN002 17/17 Q1012 NOSIG=
201005030330 METAR LMML NIL=
201005030315 METAR LMML 030315Z VRB02KT 2000 BR BKN002 17/17 Q1012 NOSIG=
201005030300 METAR LMML NIL=
201005030245 METAR LMML 030245Z VRB03KT 2000 BR BKN001 17/17 Q1012 NOSIG=
201005030230 METAR LMML NIL=
201005030215 METAR LMML 030215Z 13005KT 3000 BR BKN002 17/16 Q1012 TEMPO
                        2000 BCFG BKN001=
201005030200 METAR LMML NIL=
201005030145 METAR LMML 030145Z 12004KT 3000 BR BKN002 16/16 Q1012 TEMPO
                        2000 BCFG BKN001=
201005030130 METAR LMML NIL=
201005030115 METAR LMML 030115Z 11004KT 3000 BR BKN002 16/16 Q1012 TEMPO
                        2000 BCFG BKN001=
201005030100 METAR LMML NIL=
201005030045 METAR LMML 030045Z VRB03KT 3000 BR BKN002 17/16 Q1012 TEMPO
                        2000 BCFG BKN001=
201005030030 METAR LMML NIL=
201005030015 METAR LMML 030015Z 12004KT 4000 BR BKN002 17/17 Q1012 TEMPO
                        2000 BCFG BKN001=
201005030000 METAR LMML NIL=
201005022345 METAR LMML 022345Z 12004KT 4000 BR BKN002 17/17 Q1013 TEMPO
                        2000 BCFG BKN001=
201005022330 METAR LMML NIL=
201005022315 METAR LMML 022315Z 11004KT 4000 BR BKN002 17/17 Q1013 TEMPO
                        2000 BCFG BKN001=
201005022300 METAR LMML NIL=
201005022245 METAR LMML 022245Z 11004KT 080V140 5000 BR BKN002 17/17 Q1013
                        TEMPO 2000 BCFG BKN001=
201005022230 METAR LMML NIL=
201005022215 METAR LMML 022215Z VRB03KT 5000 BR BKN003 SCT250 17/16 Q1013
                        NOSIG=
201005022200 METAR LMML NIL=
201005022145 METAR LMML 022145Z VRB01KT 6000 SCT003 17/16 Q1013 NOSIG=
201005022130 METAR LMML NIL=
201005022115 METAR LMML 022115Z VRB02KT 6000 SCT004 BKN250 17/16 Q1013
                        NOSIG=
201005022100 METAR LMML NIL=
201005022045 METAR LMML 022045Z 13004KT 6000 SCT003 BKN250 17/16 Q1013
                        NOSIG=
201005022030 METAR LMML NIL=
201005022015 METAR LMML 022015Z 14005KT 6000 SCT003 BKN250 17/17 Q1013
                        TEMPO 5000 BKN003=
201005022000 METAR LMML NIL=
201005021945 METAR LMML 021945Z 13006KT 7000 SCT004 BKN250 17/16 Q1013
                        TEMPO 5000 BKN003=
201005021930 METAR LMML NIL=
201005021915 METAR LMML 021915Z 14006KT 110V180 7000 SCT004 BKN250 18/17
                        Q1013 TEMPO 5000 BKN004=
201005021900 METAR LMML NIL=
201005021845 METAR LMML 021845Z 15005KT 120V190 9000 BKN005 BKN250 18/17
                        Q1013 TEMPO 5000 BKN004=
201005021830 METAR LMML NIL=
201005021815 METAR LMML 021815Z 15007KT 9000 BKN005 BKN250 18/17 Q1012
                        TEMPO 5000 BKN004=
201005021800 METAR LMML NIL=
201005021745 METAR LMML 021745Z 16008KT 9000 BKN005 BKN250 18/17 Q1012
                        TEMPO 5000 BKN004=
201005021730 METAR LMML NIL=
201005021715 METAR LMML 021715Z 15009KT 120V180 9000 BKN006 BKN250 18/17
                        Q1012 NOSIG=
201005021700 METAR LMML NIL=
201005021645 METAR LMML 021645Z 15009KT 9000 BKN007 BKN250 19/17 Q1012
                        NOSIG=
201005021630 METAR LMML NIL=
201005021615 METAR LMML 021615Z 16009KT 120V180 9000 BKN007 SCT250 19/17
                        Q1012 NOSIG=
201005021600 METAR LMML NIL=
201005021545 METAR LMML 021545Z 14010KT 110V180 9000 SCT007 BKN009 20/17
                        Q1012 NOSIG=
201005021530 METAR LMML NIL=
201005021515 METAR LMML 021515Z 14011KT 110V190 9999 SCT007 BKN009 20/17
                        Q1012 NOSIG=
201005021500 METAR LMML NIL=
201005021445 METAR LMML 021445Z 15010KT 110V180 9999 SCT007 BKN009 20/17
                        Q1012 NOSIG=
201005021430 METAR LMML NIL=
201005021415 METAR LMML 021415Z 15010KT 120V180 9999 FEW007 BKN010 20/17
                        Q1013 NOSIG=
201005021400 METAR LMML NIL=
201005021353 SPECI LMML 021353Z 15010KT 9999 SCT007 BKN010 20/17 Q1013
                        NOSIG=
201005021345 METAR LMML 021345Z 15010KT 9999 SCT007 BKN010 20/17 Q1013
                        NOSIG=
201005021330 METAR LMML NIL=
201005021315 METAR LMML 021315Z 15011KT 120V220 9999 FEW009 BKN012 21/16
                        Q1013 TEMPO BKN009=
201005021300 METAR LMML NIL=
201005021245 METAR LMML 021245Z 16010KT 130V200 9999 FEW011 BKN013 21/16
                        Q1014 NOSIG=
201005021215 METAR LMML 021215Z 15011KT 120V180 9999 FEW010 BKN013 21/16
                        Q1014 NOSIG=
201005021200 METAR LMML NIL=
201005021145 METAR LMML 021145Z 16010KT 120V200 9999 FEW010 BKN013 21/16
                        Q1014 NOSIG=
201005021130 METAR LMML NIL=
201005021115 METAR LMML 021115Z 16011KT 110V200 9999 FEW010 BKN014 21/16
                        Q1015 NOSIG=
201005021100 METAR LMML NIL=
201005021045 METAR LMML 021045Z 15010KT 100V190 9999 FEW009 BKN013 21/16
                        Q1015 NOSIG=
201005021030 METAR LMML NIL=
201005021015 METAR LMML 021015Z 16010KT 120V200 9999 FEW009 BKN013 20/16
                        Q1015 NOSIG=
201005021000 METAR LMML NIL=
201005020945 METAR LMML 020945Z 16010KT 120V190 9999 FEW009 BKN013 20/16
                        Q1015 NOSIG=
201005020930 METAR LMML NIL=
201005020915 METAR LMML 020915Z 16010KT 120V200 9999 SCT009 BKN012 20/16
                        Q1015 NOSIG=
201005020900 METAR LMML NIL=
201005020845 METAR LMML 020845Z 15010KT 120V190 9999 BKN011 20/16 Q1015
                        NOSIG=
201005020830 METAR LMML NIL=
201005020815 METAR LMML 020815Z 15010KT 130V190 9999 SCT010 20/16 Q1015
                        NOSIG=
201005020800 METAR LMML NIL=
201005020745 METAR LMML 020745Z 15009KT 120V180 9999 SCT009 20/16 Q1015
                        NOSIG=
201005020730 METAR LMML NIL=
201005020715 METAR LMML 020715Z 15009KT 110V180 9999 SCT008 SCT250 19/16
                        Q1015 NOSIG=
201005020700 METAR LMML NIL=
201005020645 METAR LMML 020645Z 15009KT 120V180 9999 SCT007 SCT250 19/16
                        Q1015 NOSIG=
201005020630 METAR LMML NIL=
201005020615 METAR LMML 020615Z 14008KT 100V180 9999 BKN007 SCT250 18/16
                        Q1015 NOSIG=
201005020600 METAR LMML NIL=
201005020545 METAR LMML 020545Z 14008KT 9999 BKN007 SCT250 17/16 Q1015
                        NOSIG=
201005020530 METAR LMML NIL=
201005020515 METAR LMML 020515Z 14007KT 9999 BKN007 SCT250 16/15 Q1015
                        NOSIG=
201005020445 METAR LMML 020445Z 14006KT 9999 SCT007 SCT250 16/15 Q1015
                        NOSIG=
201005020430 METAR LMML NIL=
201005020415 METAR LMML 020415Z 14006KT 110V180 9999 SCT008 SCT250 16/15
                        Q1015 NOSIG=
201005020400 METAR LMML NIL=
201005020345 METAR LMML 020345Z 15005KT 120V180 9999 FEW008 16/14 Q1015
                        NOSIG=
201005020330 METAR LMML NIL=
201005020315 METAR LMML 020315Z 15005KT 120V180 9999 FEW009 16/14 Q1015
                        NOSIG=
201005020300 METAR LMML NIL=
201005020245 METAR LMML 020245Z 16006KT 9999 FEW011 16/14 Q1015 NOSIG=
201005020230 METAR LMML NIL=
201005020215 METAR LMML 020215Z 16006KT 9999 SCT011 16/14 Q1015 NOSIG=
201005020200 METAR LMML NIL=
201005020145 METAR LMML 020145Z 17007KT 9999 SCT014 16/14 Q1015 NOSIG=
201005020130 METAR LMML NIL=
201005020115 METAR LMML 020115Z 18008KT 140V210 9999 SCT014 16/14 Q1015
                        NOSIG=
201005020100 METAR LMML NIL=
201005020045 METAR LMML 020045Z 17008KT 130V200 9999 FEW013 16/14 Q1015
                        NOSIG=
201005020030 METAR LMML NIL=
201005020015 METAR LMML 020015Z 17008KT 140V200 9999 FEW012 16/14 Q1016
                        NOSIG=
201005020000 METAR LMML NIL=
201005012345 METAR LMML 012345Z 16008KT 130V190 9999 FEW011 16/14 Q1016
                        NOSIG=
201005012330 METAR LMML NIL=
201005012315 METAR LMML 012315Z 15006KT 9999 FEW011 16/14 Q1016 NOSIG=
201005012245 METAR LMML 012245Z 14006KT 9999 FEW012 16/14 Q1016 NOSIG=
201005012230 METAR LMML NIL=
201005012215 METAR LMML 012215Z 15004KT 9999 FEW012 16/14 Q1016 NOSIG=
201005012145 METAR LMML 012145Z 15004KT 9999 FEW012 SCT250 16/14 Q1016
                        NOSIG=
201005012130 METAR LMML NIL=
201005012115 METAR LMML 012115Z 14004KT 9999 FEW012 SCT250 16/14 Q1016
                        NOSIG=
201005012100 METAR LMML NIL=
201005012045 METAR LMML 012045Z 14005KT 9999 FEW020 16/13 Q1016 NOSIG=
201005012015 METAR LMML 012015Z 14005KT 9999 FEW020 16/13 Q1016 NOSIG=
201005012000 METAR LMML NIL=
201005011945 METAR LMML 011945Z 14005KT 9999 FEW020 17/13 Q1016 NOSIG=
201005011930 METAR LMML NIL=
201005011915 METAR LMML 011915Z 16005KT 9999 FEW020 17/13 Q1016 NOSIG=
201005011900 METAR LMML NIL=
201005011845 METAR LMML 011845Z 16005KT 130V200 9999 FEW020 SCT250 17/13
                        Q1016 NOSIG=
201005011830 METAR LMML NIL=
201005011815 METAR LMML 011815Z 17005KT 140V220 9999 FEW020 SCT250 17/13
                        Q1016 NOSIG=
201005011800 METAR LMML NIL=
201005011745 METAR LMML 011745Z 18006KT 140V220 9999 FEW019 SCT250 18/13
                        Q1016 NOSIG=
201005011715 METAR LMML 011715Z 19005KT 140V240 9999 SCT019 18/14 Q1016
                        NOSIG=
201005011700 METAR LMML NIL=
201005011645 METAR LMML 011645Z 18007KT 150V220 9999 SCT018 19/13 Q1016
                        NOSIG=
201005011615 METAR LMML 011615Z 17008KT 130V210 9999 FEW018 19/14 Q1016
                        NOSIG=
201005011600 METAR LMML NIL=
201005011545 METAR LMML 011545Z 18008KT 160V220 9999 FEW018 19/14 Q1017
                        NOSIG=
201005011530 METAR LMML NIL=
201005011515 METAR LMML 011515Z 18008KT 140V230 9999 FEW018 20/14 Q1017
                        NOSIG=
201005011445 METAR LMML 011445Z 18009KT 140V230 9999 FEW018 20/13 Q1017
                        NOSIG=
201005011430 METAR LMML NIL=
201005011415 METAR LMML 011415Z 20008KT 140V240 9999 FEW018 20/13 Q1017
                        NOSIG=
201005011345 METAR LMML 011345Z 19008KT 150V260 9999 FEW021 20/14 Q1017
                        NOSIG=
201005011330 METAR LMML NIL=
201005011315 METAR LMML 011315Z 19009KT 150V230 9999 FEW021 20/13 Q1017
                        NOSIG=
201005011300 METAR LMML NIL=
201005011245 METAR LMML 011245Z 19008KT 130V250 9999 FEW021 20/13 Q1017
                        NOSIG=
201005011230 METAR LMML NIL=
201005011215 METAR LMML 011215Z 19008KT 160V230 9999 FEW021 20/13 Q1017
                        NOSIG=
201005011145 METAR LMML 011145Z 19007KT 150V240 9999 FEW021 20/13 Q1018
                        NOSIG=
201005011130 METAR LMML NIL=
201005011115 METAR LMML 011115Z 19007KT 150V260 9999 FEW021 20/13 Q1018
                        NOSIG=
201005011100 METAR LMML NIL=
201005011045 METAR LMML 011045Z 19007KT 140V240 9999 FEW021 20/14 Q1018
                        NOSIG=
201005011030 METAR LMML NIL=
201005011015 METAR LMML 011015Z 20006KT 160V270 9999 FEW021 20/13 Q1018
                        NOSIG=
201005011000 METAR LMML NIL=
201005010945 METAR LMML 010945Z 20005KT 140V240 9999 FEW021 20/12 Q1018
                        NOSIG=
201005010930 METAR LMML NIL=
201005010915 METAR LMML 010915Z 19006KT 130V230 9999 FEW021 19/12 Q1019
                        NOSIG=
201005010900 METAR LMML NIL=
201005010845 METAR LMML 010845Z 20005KT 140V280 9999 FEW021 19/13 Q1019
                        NOSIG=
201005010830 METAR LMML NIL=
201005010815 METAR LMML 010815Z 19005KT 140V270 9999 SCT019 19/13 Q1019
                        NOSIG=
201005010800 METAR LMML NIL=
201005010745 METAR LMML 010745Z 22006KT 150V290 9999 SCT019 19/13 Q1019
                        NOSIG=
201005010730 METAR LMML NIL=
201005010715 METAR LMML 010715Z 21004KT 130V260 9999 SCT018 19/13 Q1019
                        NOSIG=
201005010700 METAR LMML NIL=
201005010645 METAR LMML 010645Z 19004KT 140V250 9999 FEW015 18/13 Q1018
                        NOSIG=
201005010630 METAR LMML NIL=
201005010615 METAR LMML 010615Z 20004KT 140V260 9999 FEW015 17/13 Q1018
                        NOSIG=
201005010545 METAR LMML 010545Z VRB02KT 9999 FEW015 16/13 Q1018 NOSIG=
201005010530 METAR LMML NIL=
201005010515 METAR LMML 010515Z VRB02KT 9999 FEW017 15/13 Q1018 NOSIG=
201005010445 METAR LMML 010445Z VRB01KT CAVOK 13/12 Q1018 NOSIG=
201005010430 METAR LMML NIL=
201005010415 METAR LMML 010415Z VRB02KT CAVOK 14/12 Q1018 NOSIG=
201005010400 METAR LMML NIL=
201005010345 METAR LMML 010345Z VRB03KT CAVOK 13/11 Q1018 NOSIG=
201005010330 METAR LMML NIL=
201005010315 METAR LMML 010315Z VRB02KT CAVOK 13/11 Q1018 NOSIG=
201005010300 METAR LMML NIL=
201005010245 METAR LMML 010245Z VRB03KT CAVOK 14/12 Q1018 NOSIG=
201005010230 METAR LMML NIL=
201005010215 METAR LMML 010215Z VRB03KT CAVOK 13/11 Q1018 NOSIG=
201005010200 METAR LMML NIL=
201005010145 METAR LMML 010145Z VRB02KT CAVOK 13/11 Q1018 NOSIG=
201005010130 METAR LMML NIL=
201005010115 METAR LMML 010115Z VRB02KT CAVOK 13/11 Q1018 NOSIG=
201005010100 METAR LMML NIL=
201005010045 METAR LMML 010045Z VRB03KT CAVOK 14/12 Q1018 NOSIG=
201005010030 METAR LMML NIL=
201005010015 METAR LMML 010015Z VRB03KT CAVOK 15/12 Q1018 NOSIG=
201005010000 METAR LMML NIL=

###################################
#  short TAF from LMML
###################################
201005312300 TAF LMML 312300Z 0100/0109 30020G30KT CAVOK
                      BECMG 0103/0106 30020KT 9999 FEW020=
201005312000 TAF LMML 312000Z 3121/0106 30025G35KT CAVOK
                      BECMG 0103/0106 30015G25KT 9999 FEW020=
201005311700 TAF LMML 311700Z 3118/0103 29023KT 9999 FEW015
                      TEMPO 3118/0103 28025G35KT=
201005311400 TAF LMML 311400Z 3115/3124 30020KT 9999 FEW020
                      TEMPO 3115/3124 29023G34KT=
201005311100 TAF LMML 311100Z 3112/3121 34018KT CAVOK
                      BECMG 3112/3115 28020KT 9999 FEW020
                      PROB30 TEMPO 3112/3121 28022G32KT=
201005310800 TAF LMML 310800Z 3109/3118 35015KT 9999 FEW015
                      TEMPO 3109/3112 CAVOK
                      BECMG 3109/3112 29018KT
                      PROB30 TEMPO 3112/3118 30018G28KT=
201005310500 TAF LMML 310500Z 3106/3115 33015KT CAVOK
                      TEMPO 3106/3115 9999 FEW025=
201005310200 TAF LMML 310200Z 3103/3112 32015KT 9999 FEW025=
201005302300 TAF LMML 302300Z 3100/3109 33010KT CAVOK
                      PROB40 TEMPO 3100/3109 FEW025=
201005302000 TAF LMML 302000Z 3021/3106 34010KT 9999 FEW020=
201005301700 TAF LMML 301700Z 3018/3103 01013KT CAVOK
                      TEMPO 3018/3103 9999 FEW008 BKN130=
201005301400 TAF LMML 301400Z 3015/3024 06018G30KT 9999 FEW012 SCT120
                      BECMG 3018/3021 02015KT=
201005301100 TAF LMML 301100Z 3012/3021 05015G25KT 9999 FEW012 SCT100=
201005300800 TAF LMML 300800Z 3009/3018 02015KT 9999 SCT011 BKN100
                      TEMPO 3009/3015 6000 RA BKN010
                      PROB30 TEMPO 3009/3015 TSRA BKN070CB=
201005300500 TAF LMML 300500Z 3006/3015 07015KT CAVOK
                      TEMPO 3006/3015 9000 RA FEW010
                      PROB30 TEMPO 3006/3015 7000 TSRA FEW010 BKN080CB=
201005300200 TAF LMML 300200Z 3003/3012 06015KT CAVOK
                      TEMPO 3003/3012 9000 RA FEW010
                      PROB40 TEMPO 3003/3012 7000 TSRA FEW010 BKN080CB=
201005292300 TAF LMML 292300Z 3000/3009 06013KT CAVOK
                      TEMPO 3000/3009 9000 RA FEW010
                      PROB30 TEMPO 3000/3009 7000 TSRA FEW010 BKN070CB=
201005292000 TAF LMML 292000Z 2921/3006 06013KT CAVOK
                      TEMPO 3000/3006 9000 RA FEW010 POB30
                      TEMPO 3000/3006 7000 TSRA FEW010 BKN060CB=
201005291700 TAF LMML 291700Z 2918/3003 12012KT CAVOK
                      PROB30 TEMPO 2918/3003 9000 RA FEW010 BKN080=
201005291400 TAF LMML 291400Z 2915/2924 12012KT CAVOK
                      PROB30 TEMPO 2918/2924 9999 FEW010 BKN100=
201005291100 TAF LMML 291100Z 2912/2921 12015KT CAVOK
                      PROB30 TEMPO 2915/2921 9999 FEW010 BKN100=
201005290800 TAF LMML 290800Z 2909/2918 12013KT CAVOK
                      PROB30 TEMPO 2912/2918 9999 FEW010 BKN100=
201005290500 TAF LMML 290500Z 2906/2915 11009KT CAVOK
                      PROB30 TEMPO 2906/2915 8000 RA FEW010 BKN100=
201005290200 TAF LMML 290200Z 2903/2912 17012KT CAVOK
                      PROB30 TEMPO 2903/2912 8000 RA FEW010 SCT120
                       BECMG 2905/2908 10013KT=
201005282300 TAF LMML 282300Z 2900/2909 15012KT CAVOK
                      PROB30 TEMPO 2900/2906 9000 FEW010 SCT120
                       BECMG 2905/2908 09010KT=
201005282000 TAF LMML 282000Z 2821/2906 15012KT CAVOK
                      PROB30 TEMPO 2900/2906 9000 FEW010
                      BECMG 2903/2906 09008KT=
201005281700 TAF LMML 281700Z 2818/2903 15010KT CAVOK=
201005281400 TAF LMML 281400Z 2815/2824 15007KT CAVOK=
201005281100 TAF LMML 281100Z 2812/2821 16008KT CAVOK=
201005280800 TAF LMML 280800Z 2809/2818 18008KT CAVOK=
201005280500 TAF LMML 280500Z 2806/2815 18007KT CAVOK=
201005280200 TAF LMML 280200Z 2803/2812 17008KT CAVOK
                      PROB30 TEMPO 2803/2807 8000 SCT004 SCT070
                       BKN130=
201005272300 TAF LMML 272300Z 2800/2809 19008KT CAVOK
                      TEMPO 2800/2809 8000 SCT004 SCT050 BKN100=
201005272000 TAF LMML 272000Z 2721/2806 19005KT CAVOK
                      TEMPO 2721/2806 8000 SCT004 SCT050 BKN100=
201005271700 TAF LMML 271700Z 2718/2803 19013KT CAVOK
                      TEMPO 2718/2721 9999 FEW012 SCT050 SCT100
                       BECMG 2720/2723 25007KT 9999 FEW012 BKN100
                       BECMG 2800/2803 17006KT=
201005271400 TAF LMML 271400Z 2715/2724 19014KT CAVOK
                      PROB30 TEMPO 2718/2724 9999 FEW015 SCT120
                       BECMG 2721/2724 VRB04KT=
201005271100 TAF LMML 271100Z 2712/2721 19014KT CAVOK=
201005270800 TAF LMML 270800Z 2709/2718 19013KT CAVOK
                      PROB30 TEMPO 2709/2718 9999 FEW015=
201005270500 TAF LMML 270500Z 2706/2715 19010KT CAVOK=
201005270200 TAF LMML 270200Z 2703/2712 20008KT CAVOK=
201005262300 TAF LMML 262300Z 2700/2709 19005KT CAVOK=
201005262000 TAF LMML 262000Z 2621/2706 19004KT CAVOK=
201005261700 TAF LMML 261700Z 2618/2703 22005KT CAVOK=
201005261400 TAF LMML 261400Z 2615/2624 24005KT CAVOK=
201005261100 TAF LMML 261100Z 2612/2621 27006KT CAVOK=
201005260800 TAF LMML 260800Z 2609/2618 27008KT CAVOK
                      TEMPO 2609/2618 9999 FEW020=
201005260500 TAF LMML 260500Z 2606/2615 27007KT CAVOK
                      PROB30 TEMPO 2606/2615 9999 FEW030=
201005260200 TAF LMML 260200Z 2603/2612 27005KT CAVOK
                      PROB30 TEMPO 2603/2612 9999 FEW030=
201005252300 TAF LMML 252300Z 2600/2609 27005KT CAVOK
                      PROB30 TEMPO 2600/2609 9999 FEW030=
201005252000 TAF LMML 252000Z 2521/2606 27005KT CAVOK
                      PROB30 TEMPO 2600/2606 9999 FEW030=
201005251700 TAF LMML 251700Z 2518/2603 VRB04KT 9999 FEW020
                      TEMPO 2520/2603 CAVOK
                      PROB30 TEMPO 2600/2603 8000 NSC=
201005251400 TAF LMML 251400Z 2515/2524 VRB05KT CAVOK
                      TEMPO 2515/2524 9999 FEW020=
201005251100 TAF LMML 251100Z 2512/2521 VRB06KT CAVOK=
201005250800 TAF LMML 250800Z 2509/2518 VRB05KT CAVOK
                      PROB30 TEMPO 2509/2518 9999 FEW020=
201005250500 TAF LMML 250500Z 2506/2515 33007KT CAVOK
                      PROB30 TEMPO 2506/2515 9999 FEW025=
201005250200 TAF LMML 250200Z 2503/2512 33006KT 9999 FEW020 SCT120
                      PROB30 TEMPO 2503/2506 9999 FEW008=
201005242300 TAF LMML 242300Z 2500/2509 03004KT 9999 FEW020 BKN100
                      PROB30 TEMPO 2501/2506 7000 TSRA FEW008 SCT060CB=
201005242000 TAF LMML 242000Z 2421/2506 03004KT 9999 FEW025
                      PROB30 TEMPO 2501/2506 7000 TSRA FEW008 SCT050=
201005241700 TAF LMML 241700Z 2418/2503 06005KT 9999 FEW020
                      PROB30 TEMPO 2424/2503 9000 BKN007=
201005241400 TAF LMML 241400Z 2415/2424 06007KT 9999 FEW020
                      PROB30 TEMPO 2415/2424 CAVOK=
201005241100 TAF LMML 241100Z 2412/2421 08007KT 9999 FEW020
                      PROB30 TEMPO 2412/2421 CAVOK=
201005240800 TAF LMML 240800Z 2409/2418 08007KT 9999 FEW020
                      TEMPO 2409/2418 CAVOK=
201005240500 TAF LMML 240500Z 2406/2415 08008KT 9999 SCT012 SCT030 BKN070
                      TEMPO 2406/2415 7000 RA
                      PROB30 TEMPO 2410/2415 5000 TSRA BKN060CB=
201005240200 TAF LMML 240200Z 2403/2412 09005KT 9999 SCT005 BKN080 OVC200
                      TEMPO 2403/2412 6000 RA
                      PROB30 TEMPO 2406/2412 5000 TSRA BKN060CB=
201005232300 TAF LMML 232300Z 2400/2409 14005KT 9999 SCT030 BKN080 OVC200
                      TEMPO 2400/2409 7000 RA
                      PROB30 TEMPO 2400/2409 5000 TSRA BKN060CB=
201005232000 TAF LMML 232000Z 2321/2406 14005KT CAVOK
                      TEMPO 2321/2406 8000 RA SCT007 BKN090 OVC200
                       PROB30
                      TEMPO 2400/2406 5000 TSRA BKN060CB=
201005231700 TAF LMML 231700Z 2318/2403 20006KT CAVOK
                      BECMG 2318/2320 9999 SCT015 BKN100
                      TEMPO 2320/2403 8000 RA
                      PROB30 TEMPO 2321/2403 5000 TSRA BKN008 BKN060CB=
201005231400 TAF LMML 231400Z 2315/2324 22007KT 9999 FEW020 SCT100
                      TEMPO 2320/2324 8000 RA
                      PROB30 TEMPO 2321/2324 5000 TSRA BKN010 BKN060CB=
201005231100 TAF LMML 231100Z 2312/2321 22008KT CAVOK
                      TEMPO 2312/2316 9999 FEW020
                      BECMG 2316/2319 9999 FEW015 BKN090=
201005230800 TAF LMML 230800Z 2309/2318 24008KT 9999 FEW015
                      TEMPO 2309/2318 CAVOK=
201005230500 TAF LMML 230500Z 2306/2315 24006KT CAVOK
                      PROB30 TEMPO 2306/2315 9999 FEW030=
201005230200 TAF LMML 230200Z 2303/2312 26006KT CAVOK=
201005222300 TAF LMML 222300Z 2300/2309 26004KT CAVOK=
201005222000 TAF LMML 222000Z 2221/2306 VRB03KT CAVOK
                      PROB30 TEMPO 2302/2305 8000 NSC=
201005221700 TAF LMML 221700Z 2218/2303 28007KT CAVOK
                      PROB30 TEMPO 2300/2303 8000 NSC=
201005221400 TAF LMML 221400Z 2215/2224 28008KT 9999 FEW030
                      BECMG 2215/2218 CAVOK=
201005221100 TAF LMML 221100Z 2212/2221 28008KT 9999 SCT030
                      BECMG 2215/2217 CAVOK=
201005220800 TAF LMML 220800Z 2209/2218 30010KT 9999 FEW030=
201005220500 TAF LMML 220500Z 2206/2215 34010KT CAVOK
                      TEMPO 2206/2215 9999 FEW025
                      BECMG 2210/2213 28007KT=
201005220200 TAF LMML 220200Z 2203/2212 33010KT 9999 FEW020
                      TEMPO 2203/2212 CAVOK=
201005212300 TAF LMML 212300Z 2200/2209 33010KT 9999 FEW020
                      TEMPO 2200/2209 CAVOK=
201005212000 TAF LMML 212000Z 2121/2206 33011KT 9999 FEW020
                      TEMPO 2121/2206 CAVOK=
201005211700 TAF LMML 211700Z 2118/2203 31018KT 9999 FEW020
                      TEMPO 2118/2203 31008KT=
201005211625 TAF LMML 211625Z 2115/2124 29018KT 9999 SCT020
                      BECMG 2121/2124 31008KT=
201005211400 TAF LMML NIL=
201005211100 TAF LMML 211100Z 2112/2121 30015KT 9999 FEW030=
201005210800 TAF LMML 210800Z 2109/2118 30015KT 9999 FEW025=
201005210500 TAF LMML 210500Z 2106/2115 30014KT 9999 FEW025
                      PROB30 TEMPO 2106/2115 29017G27KT=
201005210200 TAF LMML 210200Z 2103/2112 31014KT CAVOK
                      TEMPO 2103/2106 9999 FEW020
                      BECMG 2106/2109 9999 FEW025
                      PROB30 TEMPO 2106/2112 30015G25KT=
201005202300 TAF LMML 202300Z 2100/2109 30013KT CAVOK
                      TEMPO 2100/2109 9999 FEW020=
201005202000 TAF LMML 202000Z 2021/2106 30016KT 9999 FEW020
                      PROB30 TEMPO 2021/2106 31017G27KT=
201005201700 TAF LMML 201700Z 2018/2103 31018KT 9999 FEW018
                      PROB30 TEMPO 2018/2103 31018G28KT BKN015=
201005201400 TAF LMML 201400Z 2015/2024 28016KT 9999 FEW020
                      PROB40 TEMPO 2015/2018 BKN015
                      BECMG 2016/2019 31018G28KT=
201005201100 TAF LMML 201100Z 2012/2021 28016KT 9999 SCT020
                      TEMPO 2012/2021 BKN015
                      TEMPO 2012/2018 9000 SHRA
                      BECMG 2015/2018 30018G28KT=
201005200800 TAF LMML 200800Z 2009/2018 28015KT 9999 SCT020
                      TEMPO 2009/2018 8000 SHRA BKN015
                      BECMG 2015/2018 29018G28KT=
201005200500 TAF LMML 200500Z 2006/2015 27010KT 9999 SCT020 BKN100
                      TEMPO 2006/2015 6000 SHRA BKN015
                      BECMG 2012/2015 28018G28KT=
201005200200 TAF LMML 200200Z 2003/2012 27008KT 9999 FEW015 BKN100
                      PROB30 TEMPO 2003/2012 8000 SHRA BKN015
                      BECMG 2009/2012 27018KT=
201005192305 TAF COR LMML 192305Z 2000/2009 27008KT CAVOK
                      TEMPO 2000/2009 8000 SHRA SCT015 BKN080
                      BECMG 2006/2009 27018KT 9999 SCT020=
201005192300 TAF LMML 192300Z 2000/2009 27008KT CAVOK
                      TEMPO 2000/2009 27008KT 8000 SHRA SCT015
                       BKN080
                      BECMG 2006/2009 27018KT 9999 SCT020=
201005192000 TAF LMML 192000Z 1921/2006 25007KT CAVOK
                      TEMPO 1921/2006 8000 RA SCT015 BKN080=
201005191700 TAF LMML 191700Z 1918/2003 28012KT 9999 FEW025
                      BECMG 1918/1921 CAVOK
                      BECMG 1921/1924 9999 SCT025 BKN100
                      PROB30 TEMPO 2000/2003 8000 SHRA=
201005191400 TAF LMML 191400Z 1915/1924 28014KT 9999 SCT025=
201005191100 TAF LMML 191100Z 1912/1921 28016KT 9999 SCT025
                      PROB30 TEMPO 1912/1915 28017G27KT=
201005190800 TAF LMML 190800Z 1909/1918 28014KT 9999 SCT020 BKN040=
201005190500 TAF LMML 190500Z 1906/1915 29013KT 9999 FEW025 BKN040=
201005190200 TAF LMML 190200Z 1903/1912 30012KT 9999 SCT022=
201005182300 TAF LMML 182300Z 1900/1909 30011KT 9999 FEW018
                      TEMPO 1903/1906 BKN012=
201005182000 TAF LMML 182000Z 1821/1906 29013KT 9999 FEW018
                      PROB30 TEMPO 1803/1906 BKN015=
201005181700 TAF LMML 181700Z 1818/1903 30015KT 9999 FEW012
                      PROB30 TEMPO 1818/1903 BKN010=
201005181400 TAF LMML 181400Z 1815/1824 30015KT 9999 FEW020
                      PROB30 TEMPO 1818/1824 BKN011=
201005181100 TAF LMML 181100Z 1812/1821 29015KT 9999 FEW020
                      PROB30 TEMPO 1817/1821 BKN011=
201005180800 TAF LMML 180800Z 1809/1818 30015KT 9999 FEW025=
201005180500 TAF LMML 180500Z 1806/1815 30015KT 9999 FEW030=
201005180200 TAF LMML 180200Z 1803/1812 30015KT 9999 FEW028=
201005172300 TAF LMML 172300Z 1800/1809 30015KT 9999 FEW028=
201005172000 TAF LMML 172000Z 1721/1806 29015KT 9999 FEW030=
201005171700 TAF LMML 171700Z 1718/1803 29015KT 9999 FEW030=
201005171400 TAF LMML 171400Z 1715/1724 30016KT 9999 FEW035=
201005171100 TAF LMML 171100Z 1712/1721 30018KT 9999 FEW035=
201005170800 TAF LMML 170800Z 1709/1718 30018KT 9999 FEW030=
201005170500 TAF LMML 170500Z 1706/1715 29015KT 9999 SCT030
                      TEMPO 1706/1715 28018G28KT=
201005170200 TAF LMML 170200Z 1703/1712 29013KT 9999 FEW030
                      TEMPO 1703/1706 CAVOK
                      BECMG 1705/1708 28017G27KT=
201005162300 TAF LMML 162300Z 1700/1709 29013KT CAVOK
                      TEMPO 1700/1709 9999 FEW025
                      BECMG 1704/1707 28015G25KT=
201005162000 TAF LMML 162000Z 1621/1706 28013KT CAVOK
                      TEMPO 1621/1706 9999 FEW025=
201005161700 TAF LMML 161700Z 1618/1703 29015KT 9999 FEW030=
201005161400 TAF LMML 161400Z 1615/1624 29015KT 9999 FEW030=
201005161100 TAF LMML 161100Z 1612/1621 29015KT 9999 FEW030=
201005160800 TAF LMML 160800Z 1609/1618 28015G25KT 9999 FEW030 SCT045=
201005160500 TAF LMML 160500Z 1606/1615 28015KT 9999 FEW025=
201005160200 TAF LMML 160200Z 1603/1612 27015KT CAVOK
                      TEMPO 1603/1612 9999 FEW025=
201005152300 TAF LMML 152300Z 1600/1609 27012KT CAVOK
                      TEMPO 1603/1609 9999 FEW025=
201005152000 TAF LMML 152000Z 1521/1606 28015KT 9999 FEW025
                      PROB30 TEMPO 1521/1606 CAVOK=
201005151700 TAF LMML 151700Z 1518/1603 28016KT 9999 FEW025=
201005151400 TAF LMML 151400Z 1515/1524 28022KT 9999 SCT030
                      PROB30 TEMPO 1515/1518 28022G32KT
                      BECMG 1519/1522 26012KT=
201005151100 TAF LMML 151100Z 1512/1521 28023KT 9999 SCT030
                      TEMPO 1512/1517 28025G35KT
                      BECMG 1518/1521 27013KT=
201005150800 TAF LMML 150800Z 1509/1518 28020KT 9999 SCT025
                      TEMPO 1509/1515 28025G35KT=
201005150500 TAF LMML 150500Z 1506/1515 28020KT 9999 SCT015
                      BECMG 1506/1515 28020G30KT=
201005150200 TAF LMML 150200Z 1503/1512 29020KT 9999 SCT020
                      PROB30 TEMPO 1506/1512 30020G30KT=
201005142300 TAF LMML 142300Z 1500/1509 24012KT 8000 SCT005 BKN100
                      PROB30 TEMPO 1500/1503 5000 TSRA BKN005 BK070CB
                       BECMG 1501/1504 28020KT 9999 SCT020
                      PROB30 TEMPO 1506/1509 28020G30KT=
201005142000 TAF LMML 142000Z 1421/1506 15010KT 8000 SCT004 BKN100
                      PROB30 TEMPO 1421/1503 5000 TSRA BKN004 BKN070CB
                       BECMG 1501/1504 28020KT 9999 SCT020=
201005141700 TAF LMML 141700Z 1418/1503 12010KT 8000 SCT006
                      TEMPO 1418/1503 RA BKN005
                      PROB30 TEMPO 1418/1503 TSRA BKN080CB
                      PROB40 TEMPO 1420/1503 3000 BR BKN002
                      BECMG 1420/1423 VRB05KT
                      BECMG 1500/1503 29020KT=
201005141400 TAF LMML 141400Z 1415/1424 14013KT 9999 FEW008
                      TEMPO 1415/1424 8000 RA BKN006
                      PROB30 TEMPO 1515/1524 TSRA BKN080CB
                      PROB40 TEMPO 1417/1424 BKN005
                      BECMG 1421/1424 26013KT=
201005141100 TAF LMML 141100Z 1412/1421 12013KT 9999 FEW010
                      PROB40 TEMPO 1412/1421 8000 RA BKN007
                      PROB30 TEMPO 1412/1421 TSRA BKN080CB
                      TEMPO 1416/1421 BKN005
                      BECMG 1418/1421 18011KT=
201005140800 TAF LMML 140800Z 1409/1418 10013KT 9999 FEW010
                      PROB40 TEMPO 1409/1418 9000 RA BKN006
                      PROB30 TEMPO 1409/1418 TSRA BKN080CB=
201005140500 TAF LMML 140500Z 1406/1415 07013KT 8000 FEW015 SCT100
                      BECMG 1406/1409 9999
                      TEMPO 1406/1415 9000 RA
                      PROB30 TEMPO 1406/1415 5000 TSRA SCT012 BKN060CB=
201005140200 TAF LMML 140200Z 1403/1412 16004KT 9999 FEW012
                      TEMPO 1403/1406 9000
                      PROB30 TEMPO 1403/1406 5000 BR BKN005
                      BECMG 1403/1406 07013KT=
201005132300 TAF LMML 132300Z 1400/1409 13006KT CAVOK
                      TEMPO 1400/1409 9999 FEW015
                      PROB30 TEMPO 1400/1406 9000 SCT008
                      BECMG 1402/1405 07013KT=
201005132000 TAF LMML 132000Z 1321/1406 33007KT CAVOK
                      TEMPO 1321/1406 9999 FEW015
                      PROB30 TEMPO 1400/1406 9000 SCT008
                      BECMG 1402/1405 07013KT=
201005131700 TAF LMML 131700Z 1318/1403 33007KT CAVOK
                      BECMG 1400/1403 09003KT
                      PROB30 TEMPO 1322/1403 9000 SCT005=
201005131400 TAF LMML 131400Z 1315/1324 33012KT CAVOK
                      BECMG 09008KT
                      PROB30 TEMPO 1320/1324 9000 FEW008=
201005131100 TAF LMML 131100Z 1312/1321 33014KT CAVOK
                      BECMG 1318/1321 09006
                      PROB30 TEMPO 1319/1321 FEW012=
201005130800 TAF LMML 130800Z 1309/1318 32014KT CAVOK=
201005130500 TAF LMML 130500Z 1306/1315 31013KT 9999 FEW015
                      PROB40 TEMPO 1308/1315 CAVOK=
201005130200 TAF LMML 130200Z 1303/1312 31010KT 9999 SCT010
                      PROB30 TEMPO 1303/1306 9000 BKN008=
201005122300 TAF LMML 122300Z 1300/1309 33008KT 9000 BKN009
                      TEMPO 1300/1303 9999 SCT010
                      BECMG 1300/1303 9999 FEW010=
201005122000 TAF LMML 122000Z 1221/1306 01005KT 7000 BKN005
                      TEMPO 1221/1306 5000 BKN003=
201005121700 TAF LMML 121700Z 1218/1303 07010KT 9999 SCT007
                      TEMPO 1218/1303 8000 BKN005
                      PROB40 TEMPO 1218/1303 3000 BR BKN002
                      BECMG 1221/1224 35007KT=
201005121400 TAF LMML 121400Z 1215/1224 09010KT 9999 SCT008
                      TEMPO 1215/1224 9000 BKN006
                      PROB40 TEMPO 1215/1224 5000 BR BKN005=
201005121100 TAF LMML 121100Z 1212/1221 08012KT 9999 FEW010
                      TEMPO 1215/1221 9000 BKN008
                      PROB30 TEMPO 1218/1221 5000 BR BKN005=
201005120800 TAF LMML 120800Z 1209/1218 06010KT 9999 SCT015
                      PROB30 TEMPO 1215/1218 9000 BKN010=
201005120500 TAF LMML 120500Z 1206/1215 04010KT 9999 SCT008 SCT250=
201005120200 TAF LMML 120200Z 1203/1212 08008KT 9999 SCT007 BKN250
                      TEMPO 1203/1212 8000 BKN006
                      PROB40 TEMPO 1203/1206 5000 BR BKN004=
201005112300 TAF LMML 112300Z 1200/1209 08007KT 9999 FEW006
                      TEMPO 1200/1209 8000 BKN006
                      PROB30 TEMPO 1200/1206 5000 BR BKN004=
201005112000 TAF LMML 112000Z 1121/1206 09007KT 9999 FEW011
                      TEMPO 1121/1206 8000 BKN008
                      PROB30 TEMPO 1123/1206 5000 BR BKN005=
201005111700 TAF LMML 111700Z 1118/1203 11007KT CAVOK
                      PROB30 TEMPO 1118/1203 9000 FEW010=
201005111400 TAF LMML 111400Z 1115/1124 12012KT CAVOK
                      PROB30 TEMPO 1115/1124 9000 FEW010=
201005111100 TAF LMML 111100Z 1112/1121 14015KT CAVOK
                      PROB30 TEMPO 1112/1121 9000
                      PROB30 TEMPO 1115/1121 9999 FEW010=
201005110800 TAF LMML 110800Z 1109/1118 14015KT CAVOK
                      PROB30 TEMPO 1111/1118 9000 FEW015=
201005110500 TAF LMML 110500Z 1106/1115 13013KT CAVOK
                      PROB30 TEMPO 1110/1115 FEW015=
201005110200 TAF LMML 110200Z 1103/1112 13013KT CAVOK=
201005102300 TAF LMML 102300Z 1100/1109 13008KT CAVOK=
201005102000 TAF LMML 102000Z 1021/1106 12005KT CAVOK
                      PROB30 TEMPO 1104/1106 8000 FEW005=
201005101700 TAF LMML 101700Z 1018/1103 10011KT CAVOK
                      PROB30 TEMPO 1021/1103 9999 FEW003
                      BECMG 1023/1102 16012KT=
201005101400 TAF LMML 101400Z 1015/1024 18011KT CAVOK
                      BECMG 1016/1019 12011KT
                      PROB30 TEMPO 1021/1024 9999 FEW008=
201005101100 TAF LMML 101100Z 1012/1021 18011KT CAVOK
                      BECMG 1016/1019 12011KT=
201005100800 TAF LMML 100800Z 1009/1018 18011KT CAVOK
                      BECMG 1015/1018 12011KT=
201005100500 TAF LMML 100500Z 1006/1015 16007KT CAVOK=
201005100200 TAF LMML 100200Z 1003/1012 16007KT CAVOK=
201005092300 TAF LMML 092300Z 1000/1009 16006KT CAVOK=
201005092000 TAF LMML 092000Z 0921/1006 16005KT CAVOK=
201005091700 TAF LMML 091700Z 0918/1003 VRB03KT CAVOK
                      TEMPO 1000/1003 8000 NSC=
201005091400 TAF LMML 091400Z 0915/0924 VRB05KT 9999 FEW030 SCT250=
201005091100 TAF LMML 091100Z 0912/0921 VRB05KT 9999 FEW025=
201005090800 TAF LMML 090800Z 0909/0918 34005KT CAVOK=
201005090500 TAF LMML 090500Z 0906/0915 31007KT CAVOK
                      TEMPO 0906/0915 9999 FEW020=
201005090200 TAF LMML 090200Z 0903/0912 29004KT CAVOK
                      TEMPO 0903/0906 8000 FEW008
                      PROB30 TEMPO 0903/0906 0800 BCFG BKN001
                      TEMPO 0906/0912 9999 FEW020=
201005082300 TAF LMML 082300Z 0900/0909 33008KT CAVOK
                      TEMPO 0900/0909 9999 FEW015
                      PROB30 TEMPO 0900/0906 9000 NSC=
201005082000 TAF LMML 082000Z 0821/0906 28004KT CAVOK
                      TEMPO 0821/0906 9999 FEW015
                      PROB30 TEMPO 0900/0906 9000 NSC=
201005081700 TAF LMML 081700Z 0818/0903 01010KT CAVOK=
201005081400 TAF LMML 081400Z 0815/0824 06012KT 9999 FEW020
                      TEMPO 0815/0824 CAVOK=
201005081100 TAF LMML 081100Z 0812/0821 06017KT 9999 SCT020=
201005080800 TAF LMML 080800Z 0809/0818 06017KT 9999 SCT018=
201005080500 TAF LMML 080500Z 0806/0815 07018KT 9999 SCT016
                      TEMPO 0806/0815 BKN014=
201005080200 TAF LMML 080200Z 0803/0812 07018KT 9999 FEW018
                      PROB40 TEMPO 0803/0809 9000 BKN012=
201005072300 TAF LMML 072300Z 0800/0809 07018KT 9999 FEW018
                      PROB40 TEMPO 0800/0809 9000 BKN012=
201005072000 TAF LMML 072000Z 0721/0806 07018KT 9999 FEW012
                      PROB40 TEMPO 0721/0806 8000 BKN006=
201005071700 TAF LMML 071700Z 0718/0803 08016KT CAVOK
                      BECMG 0721/0724 9999 FEW012
                      PROB30 TEMPO 0721/0803 8000 BKN007=
201005071400 TAF LMML 071400Z 0715/0724 10015KT CAVOK
                      BECMG 0721/0724 9999 FEW010
                      PROB30 TEMPO 0721/0724 BKN007=
201005071100 TAF LMML 071100Z 0712/0721 14006KT CAVOK
                      BECMG 0714/0717 11016KT=
201005070800 TAF LMML 070800Z 0709/0718 15006KT CAVOK
                      BECMG 0714/0717 12016KT=
201005070500 TAF LMML 070500Z 0706/0715 03005KT CAVOK
                      BECMG 0712/0715 12015KT=
201005070200 TAF LMML 070200Z 0703/0712 36004KT CAVOK
                      BECMG 0706/0709 12007KT=
201005062300 TAF LMML 062300Z 0700/0709 VRB03KT CAVOK
                      BECMG 0706/0709 12005KT=
201005062000 TAF LMML 062000Z 0621/0706 34005KT CAVOK
                      BECMG 0703/0706 10005KT
                      PROB30 TEMPO 0701/0706 8000 FEW012=
201005061700 TAF LMML 061700Z 0618/0703 30010KT CAVOK
                      PROB30 TEMPO 0701/0703 8000 NSC=
201005061400 TAF LMML 061400Z 0615/0624 28010KT CAVOK=
201005061100 TAF LMML 061100Z 0612/0621 29010KT 9999 FEW030
                      BECMG 0615/0618 CAVOK=
201005060800 TAF LMML 060800Z 0609/0618 33012KT CAVOK
                      TEMPO 0609/0618 9999 SCT030=
201005060500 TAF LMML 060500Z 0606/0615 31008KT CAVOK
                      TEMPO 0606/0615 9999 FEW030=
201005060200 TAF LMML 060200Z 0603/0612 30008KT CAVOK
                      TEMPO 0607/0612 9999 FEW025=
201005052300 TAF LMML 052300Z 0600/0609 30008KT CAVOK=
201005052000 TAF LMML 052000Z 0521/0606 30008KT CAVOK=
201005051700 TAF LMML 051700Z 0518/0603 30008KT CAVOK
                      PROB 40
                      TEMPO 0518/0603 FEW020=
201005051400 TAF LMML 051400Z 0515/0524 33010KT CAVOK=
201005051100 TAF LMML 051100Z 0512/0521 32013KT CAVOK
                      PROB40 TEMPO 0512/0521 FEW030=
201005050800 TAF LMML 050800Z 0509/0518 30015KT 9000 NSC
                      BECMG 0509/0512 9999 FEW015=
201005050500 TAF LMML 050500Z 0506/0515 32012KT 7000 SCT015
                      BECMG 0506/0509 9999=
201005050200 TAF LMML 050200Z 0503/0512 10010KT 9999 FEW011 BKN100
                      TEMPO 0503/0506 8000 RA BKN005
                      BECMG 0506/0509 32014KT=
201005042300 TAF LMML 042300Z 0500/0509 06010KT 9999 FEW011 BKN100
                      PROB30 TEMPO 0500/0506 8000 RA BKN005
                      BECMG 0506/0509 31012KT=
201005042005 TAF COR LMML 042005Z 0421/0506 09010KT CAVOK
                      PROB30 TEMPO 0421/0506 8000 RA SCT005 BKN100=
201005042000 TAF LMML 042000Z 0421/0506 09010KT CAVOK
                      PROB30 TEMPO 0421/0506 8000 FEW005=
201005041700 TAF LMML 041700Z 0418/0503 11015KT CAVOK
                      PROB30 TEMPO 0420/0503 8000=
201005041400 TAF LMML 041400Z 0415/0424 11015KT CAVOK
                      PROB30 TEMPO 0418/0424 8000=
201005041100 TAF LMML 041100Z 0412/0421 11016KT CAVOK
                      PROB30 TEMPO 0418/0421 8000=
201005040800 TAF LMML 040800Z 0409/0418 12016KT CAVOK=
201005040500 TAF LMML 040500Z 0406/0415 11017KT CAVOK
                      PROB40 TEMPO 0406/0409 9000 NSC
                      PROB30 TEMPO 0406/0415 9999 TSRA BKN080CB=
201005040200 TAF LMML 040200Z 0403/0412 14016KT CAVOK
                      TEMPO 0403/0412 9999 FEW015
                      TEMPO 0403/0412 9000 SCT006
                      PROB30 TEMPO 0403/0412 TSRA BKN080CB=
201005032300 TAF LMML 032300Z 0400/0409 12015KT CAVOK
                      PROB40 TEMPO 0400/0409 8000 SCT003
                      PROB30 TEMPO 0403/0409 TSRA BKN080CB=
201005032000 TAF LMML 032000Z 0321/0406 13013KT CAVOK
                      PROB40 TEMPO 0321/0406 8000 SCT003
                      PROB30 TEMPO 0321/0406 5000 BR BKN003=
201005031700 TAF LMML 031700Z 0318/0403 12015KT CAVOK
                      PROB30 TEMPO 0321/0403 8000 SCT004=
201005031400 TAF LMML 031400Z 0315/0324 11010KT 9999 FEW012
                      PROB30 TEMPO 0318/0324 7000 BKN007=
201005031100 TAF LMML 031100Z 0312/0321 10010KT 9999 FEW012
                      PROB30 TEMPO 0318/0321 8000 BKN008=
201005030800 TAF LMML 030800Z 0309/0318 12012KT 9999 SCT011
                      PROB30 TEMPO 0315/0318 8000 BKN008=
201005030500 TAF LMML 030500Z 0306/0315 13007KT 8000 SCT008 SCT100
                      TEMPO 0309/0315 9999 SCT012=
201005030200 TAF LMML 030200Z 0303/0312 12005KT 3000 BR BKN002
                      PROB30 TEMPO 0303/0305 0800 BCFG BKN001
                      BECMG 0306/0309 8000 SCT008=
201005022300 TAF LMML 022300Z 0300/0309 13005KT 5000 BR BKN003
                      PROB30 TEMPO 0301/0305 0800 BCFG BKN001
                      BECMG 0306/0309 8000 SCT008=
201005022000 TAF LMML NIL=
201005021700 TAF LMML 021700Z 0218/0303 15005KT 9000 SCT005
                      TEMPO 0218/0303 BKN005
                      PROB40 TEMPO 0218/0303 3000 BR BKN003
                      PROB30 TEMPO 0220/0303 1000 BCFG BKN001=
201005021400 TAF LMML 021400Z 0215/0224 15005KT 9999 FEW008 BKN012
                      TEMPO 0215/0224 9000 BKN008
                      PROB40 TEMPO 0218/0224 5000 BR BKN003
                      PROB30 TEMPO 0220/0224 1000 BCFG BKN001=
201005021100 TAF LMML 021100Z 0212/0221 14008KT 9999 FEW009
                      TEMPO 0212/0221 BKN013
                      PROB40 TEMPO 0216/0221 9000 BKN008
                      PROB30 TEMPO 0218/0221 5000 BR BKN003=
201005020800 TAF LMML 020800Z 0209/0218 15009KT 9999 FEW009
                      TEMPO 0209/0218 BKN008
                      PROB30 TEMPO 0215/0218 9000 BKN005=
201005020500 TAF LMML 020500Z 0206/0215 14007KT 9999 FEW018=
201005020200 TAF LMML 020200Z 0203/0212 14007KT 9999 FEW015=
201005012300 TAF LMML 012300Z 0200/0209 14007KT 9999 FEW015=
201005012000 TAF LMML 012000Z 0121/0206 14007KT 9999 FEW018=
201005011700 TAF LMML 011700Z 0118/0203 16005KT 9999 FEW015=
201005011400 TAF LMML 011400Z 0115/0124 18005KT 9999 FEW020
                      TEMPO 0115/0124 CAVOK=
201005011100 TAF LMML 011100Z 0112/0121 18006KT 9999 FEW020
                      TEMPO 0112/0121 CAVOK=
201005010800 TAF LMML 010800Z 0109/0118 18007KT 9999 FEW018
                      TEMPO 0110/0118 CAVOK=
201005010500 TAF LMML 010500Z 0106/0115 18005KT CAVOK
                      TEMPO 0106/0115 9999 FEW015=
201005010200 TAF LMML 010200Z 0103/0112 18005KT CAVOK
                      TEMPO 0103/0112 9999 FEW015=

###################################
#  large TAF from LMML
###################################
201005312300 TAF LMML NIL=
201005311700 TAF LMML NIL=
201005311100 TAF LMML NIL=
201005310500 TAF LMML NIL=
201005302300 TAF LMML NIL=
201005301700 TAF LMML NIL=
201005301100 TAF LMML NIL=
201005300500 TAF LMML NIL=
201005292300 TAF LMML NIL=
201005291700 TAF LMML NIL=
201005291100 TAF LMML NIL=
201005290500 TAF LMML NIL=
201005282300 TAF LMML NIL=
201005281700 TAF LMML NIL=
201005281100 TAF LMML NIL=
201005280500 TAF LMML NIL=
201005272300 TAF LMML NIL=
201005271700 TAF LMML NIL=
201005271100 TAF LMML NIL=
201005270500 TAF LMML NIL=
201005262300 TAF LMML NIL=
201005261700 TAF LMML NIL=
201005261100 TAF LMML NIL=
201005260500 TAF LMML NIL=
201005252300 TAF LMML NIL=
201005251700 TAF LMML NIL=
201005251100 TAF LMML NIL=
201005250500 TAF LMML NIL=
201005242300 TAF LMML NIL=
201005241700 TAF LMML NIL=
201005241100 TAF LMML NIL=
201005240500 TAF LMML NIL=
201005232300 TAF LMML NIL=
201005231700 TAF LMML NIL=
201005231100 TAF LMML NIL=
201005230500 TAF LMML NIL=
201005222300 TAF LMML NIL=
201005221700 TAF LMML NIL=
201005221100 TAF LMML NIL=
201005220500 TAF LMML NIL=
201005212300 TAF LMML NIL=
201005211700 TAF LMML NIL=
201005211625 TAF LMML 211625Z 2115/2224 29018KT 9999 SCT020
                      BECMG 2121/2124 31008KT=
201005211100 TAF LMML NIL=
201005210500 TAF LMML NIL=
201005202300 TAF LMML NIL=
201005201700 TAF LMML NIL=
201005201100 TAF LMML NIL=
201005200500 TAF LMML NIL=
201005192300 TAF LMML NIL=
201005191700 TAF LMML NIL=
201005191100 TAF LMML NIL=
201005190500 TAF LMML NIL=
201005182300 TAF LMML NIL=
201005181700 TAF LMML NIL=
201005181100 TAF LMML NIL=
201005180500 TAF LMML NIL=
201005172300 TAF LMML NIL=
201005171700 TAF LMML NIL=
201005171100 TAF LMML NIL=
201005170500 TAF LMML NIL=
201005162300 TAF LMML NIL=
201005161700 TAF LMML NIL=
201005161100 TAF LMML NIL=
201005160500 TAF LMML NIL=
201005152300 TAF LMML NIL=
201005151700 TAF LMML NIL=
201005151100 TAF LMML NIL=
201005150500 TAF LMML NIL=
201005142300 TAF LMML NIL=
201005141700 TAF LMML NIL=
201005141100 TAF LMML NIL=
201005140500 TAF LMML NIL=
201005132300 TAF LMML NIL=
201005131700 TAF LMML NIL=
201005131100 TAF LMML NIL=
201005130500 TAF LMML NIL=
201005122300 TAF LMML NIL=
201005121700 TAF LMML NIL=
201005121100 TAF LMML NIL=
201005120500 TAF LMML NIL=
201005112300 TAF LMML NIL=
201005111700 TAF LMML NIL=
201005111100 TAF LMML NIL=
201005110500 TAF LMML NIL=
201005102300 TAF LMML NIL=
201005101700 TAF LMML NIL=
201005101100 TAF LMML NIL=
201005100500 TAF LMML NIL=
201005092300 TAF LMML NIL=
201005091700 TAF LMML NIL=
201005091100 TAF LMML NIL=
201005090500 TAF LMML NIL=
201005082300 TAF LMML NIL=
201005081700 TAF LMML NIL=
201005081100 TAF LMML NIL=
201005080500 TAF LMML NIL=
201005072300 TAF LMML NIL=
201005071700 TAF LMML NIL=
201005071100 TAF LMML NIL=
201005070500 TAF LMML NIL=
201005062300 TAF LMML NIL=
201005061700 TAF LMML NIL=
201005061100 TAF LMML NIL=
201005060500 TAF LMML NIL=
201005052300 TAF LMML NIL=
201005051700 TAF LMML NIL=
201005051100 TAF LMML NIL=
201005050500 TAF LMML NIL=
201005042300 TAF LMML NIL=
201005041700 TAF LMML NIL=
201005041100 TAF LMML NIL=
201005040500 TAF LMML NIL=
201005032300 TAF LMML NIL=
201005031700 TAF LMML NIL=
201005031100 TAF LMML NIL=
201005030500 TAF LMML NIL=
201005022300 TAF LMML NIL=
201005021700 TAF LMML NIL=
201005021100 TAF LMML NIL=
201005020500 TAF LMML NIL=
201005012300 TAF LMML NIL=
201005011700 TAF LMML NIL=
201005011100 TAF LMML NIL=
201005010500 TAF LMML NIL=
