##########################################################
# Query made at 01/18/2013 15:41:48 UTC
# Time interval: from 11/01/2011 00:00  to 12/01/2011 23:59  UTC
##########################################################

##########################################################
# LMML, Luqa (Malta)
# WMO index: 16597
# Latitude 35-51N. Longitude 014-29E. Altitude 91 m.
##########################################################

###################################
#  METAR/SPECI from LMML
###################################
201112012345 METAR LMML 012345Z VRB01KT 9999 FEW015 13/12 Q1027 NOSIG=
201112012330 METAR LMML NIL=
201112012315 METAR LMML 012315Z VRB01KT 9999 FEW024 13/12 Q1027 NOSIG=
201112012300 METAR LMML NIL=
201112012245 METAR LMML 012245Z VRB01KT 9999 FEW024 13/11 Q1028 NOSIG=
201112012230 METAR LMML NIL=
201112012215 METAR LMML 012215Z VRB02KT 9999 FEW024 14/12 Q1028 NOSIG=
201112012200 METAR LMML NIL=
201112012145 METAR LMML 012145Z 00000KT 9999 FEW023 SCT037 14/13 Q1028
                        NOSIG=
201112012130 METAR LMML NIL=
201112012115 METAR LMML 012115Z VRB01KT 9999 FEW022 SCT034 14/12 Q1028
                        NOSIG=
201112012100 METAR LMML NIL=
201112012045 METAR LMML 012045Z VRB01KT 9999 FEW022 BKN035 14/13 Q1028
                        NOSIG=
201112012030 METAR LMML NIL=
201112012015 METAR LMML 012015Z VRB01KT 9999 FEW021 BKN034 14/13 Q1028
                        NOSIG=
201112012000 METAR LMML NIL=
201112011945 METAR LMML 011945Z VRB02KT 9999 FEW020 BKN036 14/13 Q1028
                        NOSIG=
201112011930 METAR LMML NIL=
201112011915 METAR LMML 011915Z VRB01KT 9999 FEW020 BKN039 14/12 Q1028
                        NOSIG=
201112011900 METAR LMML NIL=
201112011845 METAR LMML 011845Z VRB02KT 9999 FEW021 14/12 Q1028 NOSIG=
201112011830 METAR LMML NIL=
201112011815 METAR LMML 011815Z VRB02KT 9999 FEW021 SCT046 14/12 Q1028
                        NOSIG=
201112011800 METAR LMML NIL=
201112011745 METAR LMML 011745Z VRB02KT 9999 SCT025 14/12 Q1028 NOSIG=
201112011730 METAR LMML NIL=
201112011715 METAR LMML 011715Z VRB01KT 9999 SCT025 14/12 Q1027 NOSIG=
201112011700 METAR LMML NIL=
201112011645 METAR LMML 011645Z VRB01KT 9999 SCT025 15/12 Q1027 NOSIG=
201112011630 METAR LMML NIL=
201112011615 METAR LMML 011615Z VRB02KT 9999 FEW027 15/12 Q1027 NOSIG=
201112011600 METAR LMML NIL=
201112011545 METAR LMML 011545Z VRB01KT 9999 FEW028 16/12 Q1027 NOSIG=
201112011530 METAR LMML NIL=
201112011515 METAR LMML 011515Z 32003KT 9999 FEW025 SCT050 16/12 Q1027
                        NOSIG=
201112011500 METAR LMML NIL=
201112011445 METAR LMML 011445Z VRB02KT 9999 FEW025 17/12 Q1027 NOSIG=
201112011430 METAR LMML NIL=
201112011415 METAR LMML 011415Z VRB02KT 9999 SCT025 17/12 Q1027 NOSIG=
201112011400 METAR LMML NIL=
201112011345 METAR LMML 011345Z 01003KT 9999 SCT025 18/13 Q1027 NOSIG=
201112011330 METAR LMML NIL=
201112011315 METAR LMML 011315Z 35003KT 9999 SCT024 17/12 Q1027 NOSIG=
201112011300 METAR LMML NIL=
201112011245 METAR LMML 011245Z 02003KT 9999 SCT023 18/13 Q1027 NOSIG=
201112011230 METAR LMML NIL=
201112011215 METAR LMML 011215Z 01004KT 340V040 9999 SCT022 17/13 Q1027
                        NOSIG=
201112011200 METAR LMML NIL=
201112011145 METAR LMML 011145Z 02003KT 9999 SCT022 20/14 Q1028 NOSIG=
201112011115 METAR LMML 011115Z 01003KT 9999 SCT020 20/14 Q1028 NOSIG=
201112011045 METAR LMML 011045Z 02003KT 9999 SCT023 18/14 Q1028 NOSIG=
201112011030 METAR LMML NIL=
201112011015 METAR LMML 011015Z 35004KT 9999 SCT021 18/13 Q1029 NOSIG=
201112011000 METAR LMML NIL=
201112010945 METAR LMML 010945Z 01005KT 330V040 9999 SCT022 19/14 Q1029
                        NOSIG=
201112010930 METAR LMML NIL=
201112010915 METAR LMML 010915Z 03003KT 9999 SCT019 19/14 Q1029 NOSIG=
201112010900 METAR LMML NIL=
201112010845 METAR LMML 010845Z VRB02KT 9999 SCT017 19/14 Q1029 NOSIG=
201112010830 METAR LMML NIL=
201112010815 METAR LMML 010815Z VRB02KT 9999 FEW019 18/14 Q1029 NOSIG=
201112010800 METAR LMML NIL=
201112010745 METAR LMML 010745Z VRB02KT 9999 FEW019 16/14 Q1028 NOSIG=
201112010730 METAR LMML NIL=
201112010715 METAR LMML 010715Z VRB02KT 9999 FEW017 14/13 Q1028 NOSIG=
201112010700 METAR LMML NIL=
201112010645 METAR LMML 010645Z VRB02KT 9999 FEW016 SCT060 14/12 Q1028
                        NOSIG=
201112010630 METAR LMML NIL=
201112010615 METAR LMML 010615Z 35003KT 9999 FEW018 SCT060 13/12 Q1028
                        NOSIG=
201112010600 METAR LMML NIL=
201112010545 METAR LMML 010545Z VRB02KT 9999 FEW015 13/12 Q1028 NOSIG=
201112010530 METAR LMML NIL=
201112010515 METAR LMML 010515Z 35003KT 9999 FEW020 13/12 Q1027 NOSIG=
201112010500 METAR LMML NIL=
201112010445 METAR LMML 010445Z VRB02KT 9999 FEW020 SCT070 13/12 Q1027
                        NOSIG=
201112010430 METAR LMML NIL=
201112010415 METAR LMML 010415Z VRB01KT 9999 FEW020 SCT070 13/12 Q1027
                        NOSIG=
201112010400 METAR LMML NIL=
201112010345 METAR LMML 010345Z VRB01KT 9999 SCT020 13/12 Q1027 NOSIG=
201112010330 METAR LMML NIL=
201112010315 METAR LMML 010315Z 35003KT 9999 FEW020 SCT070 13/12 Q1027
                        TEMPO 5000 TSRA BKN015CB=
201112010300 METAR LMML NIL=
201112010245 METAR LMML 010245Z VRB02KT 9999 FEW020 SCT070 13/12 Q1027
                        TEMPO 5000 TSRA BKN015CB=
201112010230 METAR LMML NIL=
201112010215 METAR LMML 010215Z 35003KT 9999 FEW020 SCT090 13/12 Q1027
                        TEMPO 5000 TSRA BKN015CB=
201112010200 METAR LMML NIL=
201112010145 METAR LMML 010145Z VRB02KT 9999 FEW020 13/13 Q1027 TEMPO
                        5000 TSRA BKN015CB=
201112010130 METAR LMML NIL=
201112010115 METAR LMML 010115Z VRB02KT 9999 FEW019 13/12 Q1027 TEMPO
                        5000 TSRA BKN015CB=
201112010045 METAR LMML 010045Z VRB02KT 9999 FEW018 13/12 Q1027 NOSIG=
201112010030 METAR LMML NIL=
201112010015 METAR LMML 010015Z VRB01KT 9999 FEW018 BKN065 13/12 Q1027
                        NOSIG=
201112010000 METAR LMML NIL=
201111302345 METAR LMML 302345Z VRB02KT 9999 FEW019 SCT066 13/12 Q1027
                        NOSIG=
201111302330 METAR LMML NIL=
201111302315 METAR LMML 302315Z 00000KT 9999 FEW020 13/12 Q1027 NOSIG=
201111302300 METAR LMML NIL=
201111302245 METAR LMML 302245Z VRB01KT 9999 FEW017 13/12 Q1027 NOSIG=
201111302230 METAR LMML NIL=
201111302215 METAR LMML 302215Z VRB01KT 9999 FEW017 13/12 Q1027 NOSIG=
201111302200 METAR LMML NIL=
201111302145 METAR LMML 302145Z 06003KT 9999 FEW019 15/12 Q1027 NOSIG=
201111302130 METAR LMML NIL=
201111302115 METAR LMML 302115Z 06003KT 9999 FEW019 15/12 Q1027 NOSIG=
201111302100 METAR LMML NIL=
201111302045 METAR LMML 302045Z 07004KT 9999 FEW020 15/12 Q1027 NOSIG=
201111302030 METAR LMML NIL=
201111302015 METAR LMML 302015Z 05003KT 9999 FEW019 15/13 Q1027 NOSIG=
201111301945 METAR LMML 301945Z 06004KT 9999 SCT018 15/13 Q1027 NOSIG=
201111301930 METAR LMML NIL=
201111301915 METAR LMML 301915Z 06004KT 9999 SCT019 15/13 Q1027 NOSIG=
201111301900 METAR LMML NIL=
201111301845 METAR LMML 301845Z 07003KT 9999 BKN019 16/13 Q1027 NOSIG=
201111301830 METAR LMML NIL=
201111301815 METAR LMML 301815Z 05004KT 020V090 9999 SCT019 16/13 Q1027
                        NOSIG=
201111301800 METAR LMML NIL=
201111301745 METAR LMML 301745Z 06003KT 9999 SCT019 16/12 Q1026 NOSIG=
201111301730 METAR LMML NIL=
201111301715 METAR LMML 301715Z 05005KT 020V080 9999 FEW020 16/12 Q1026
                        NOSIG=
201111301700 METAR LMML NIL=
201111301645 METAR LMML 301645Z 07005KT 030V090 9999 FEW018 16/13 Q1026
                        NOSIG=
201111301630 METAR LMML NIL=
201111301615 METAR LMML 301615Z 06006KT 020V090 9999 FEW017 16/13 Q1025
                        NOSIG=
201111301600 METAR LMML NIL=
201111301545 METAR LMML 301545Z 06008KT 030V090 9999 SCT018 16/13 Q1025
                        NOSIG=
201111301530 METAR LMML NIL=
201111301515 METAR LMML 301515Z 07006KT 030V100 9999 FEW024 17/13 Q1025
                        NOSIG=
201111301445 METAR LMML 301445Z 07007KT 040V100 9999 SCT023 17/12 Q1025
                        NOSIG=
201111301430 METAR LMML NIL=
201111301415 METAR LMML 301415Z 08009KT 9999 SCT023 17/12 Q1024 NOSIG=
201111301400 METAR LMML NIL=
201111301345 METAR LMML 301345Z 06010KT 030V100 9999 SCT023 18/13 Q1024
                        NOSIG=
201111301330 METAR LMML NIL=
201111301315 METAR LMML 301315Z 06009KT 020V090 9999 FEW021 18/13 Q1024
                        NOSIG=
201111301300 METAR LMML NIL=
201111301245 METAR LMML 301245Z 06010KT 030V100 9999 FEW019 18/13 Q1024
                        NOSIG=
201111301230 METAR LMML NIL=
201111301215 METAR LMML 301215Z 05011KT 020V080 9999 FEW020 19/13 Q1024
                        NOSIG=
201111301200 METAR LMML NIL=
201111301145 METAR LMML 301145Z 07011KT 020V100 9999 FEW020 18/13 Q1024
                        NOSIG=
201111301130 METAR LMML NIL=
201111301115 METAR LMML 301115Z 06009KT 020V110 9999 FEW020 19/13 Q1024
                        NOSIG=
201111301100 METAR LMML NIL=
201111301045 METAR LMML 301045Z 09009KT 050V120 9999 FEW020 18/13 Q1024
                        NOSIG=
201111301030 METAR LMML NIL=
201111301015 METAR LMML 301015Z 09011KT 9999 FEW020 18/14 Q1024 NOSIG=
201111301000 METAR LMML NIL=
201111300945 METAR LMML 300945Z 08013KT 050V110 9999 FEW020 18/13 Q1024
                        NOSIG=
201111300930 METAR LMML NIL=
201111300915 METAR LMML 300915Z 10011KT 9999 FEW018 18/13 Q1024 NOSIG=
201111300900 METAR LMML NIL=
201111300845 METAR LMML 300845Z 07009KT 9999 FEW020 17/14 Q1024 NOSIG=
201111300830 METAR LMML NIL=
201111300815 METAR LMML 300815Z 07009KT 030V100 9999 FEW020 SCT120 16/13
                        Q1024 NOSIG=
201111300800 METAR LMML NIL=
201111300745 METAR LMML 300745Z 07009KT 040V100 9999 FEW020 SCT120 16/13
                        Q1023 NOSIG=
201111300730 METAR LMML NIL=
201111300715 METAR LMML 300715Z 07006KT 030V120 CAVOK 15/13 Q1023 NOSIG=
201111300700 METAR LMML NIL=
201111300645 METAR LMML 300645Z 08008KT 050V110 CAVOK 14/12 Q1023 NOSIG=
201111300615 METAR LMML 300615Z 07007KT 040V100 CAVOK 14/12 Q1022 NOSIG
                        RMK CB TOPS TO EAST=
201111300600 METAR LMML NIL=
201111300545 METAR LMML 300545Z 05007KT 020V090 CAVOK 13/12 Q1022 NOSIG=
201111300530 METAR LMML NIL=
201111300515 METAR LMML 300515Z 08007KT 9999 FEW015 BKN100 13/12 Q1022
                        NOSIG=
201111300500 METAR LMML NIL=
201111300445 METAR LMML 300445Z 08006KT 9999 FEW015 BKN100 13/12 Q1022
                        NOSIG=
201111300430 METAR LMML NIL=
201111300415 METAR LMML 300415Z 08007KT 9999 -RA FEW015 SCT038 BKN070
                        13/12 Q1022 NOSIG=
201111300400 METAR LMML NIL=
201111300345 METAR LMML 300345Z 06006KT 030V090 9999 FEW015 SCT040 12/12
                        Q1022 NOSIG=
201111300330 METAR LMML NIL=
201111300315 METAR LMML 300315Z 07007KT 040V100 7000 -RA FEW015 BKN040
                        BKN080 12/12 Q1022 NOSIG=
201111300300 METAR LMML NIL=
201111300245 METAR LMML 300245Z 07007KT 040V100 7000 -RA FEW015 BKN050
                        12/12 Q1022 TEMPO 5000 RA=
201111300230 METAR LMML NIL=
201111300215 METAR LMML 300215Z 08004KT 040V130 9999 -RA FEW015 BKN050
                        13/12 Q1022 NOSIG=
201111300200 METAR LMML NIL=
201111300145 METAR LMML 300145Z VRB02KT 9999 -RA SCT015 BKN050 12/12 Q1022
                        RESHRA NOSIG=
201111300130 METAR LMML NIL=
201111300115 METAR LMML 300115Z 21005KT 160V260 9000 SHRA FEW006 BKN012
                        BKN100 13/12 Q1022 TEMPO 5000 RA
                        BKN015=
201111300100 METAR LMML NIL=
201111300045 METAR LMML 300045Z 20008G18KT 160V240 9000 SHRA FEW009 BKN028
                        BKN033 13/11 Q1022 TEMPO 5000 RA
                        BKN015=
201111300030 METAR LMML NIL=
201111300015 METAR LMML 300015Z 10012KT 070V130 9999 SCT020 BKN100 16/13
                        Q1021 TEMPO 5000 RA BKN015=
201111300000 METAR LMML NIL=
201111292345 METAR LMML 292345Z 10013KT 9999 FEW019 BKN110 16/13 Q1021
                        TEMPO 7000 SHRA BKN015TCU=
201111292330 METAR LMML NIL=
201111292315 METAR LMML 292315Z 10013KT 070V130 9999 FEW020 BKN110 16/13
                        Q1021 TEMPO 7000 SHRA BKN015TCU RMK
                        LIGHTNING TO SOUTH=
201111292300 METAR LMML NIL=
201111292245 METAR LMML 292245Z 10014KT 9999 FEW022 SCT100 16/12 Q1021
                        TEMPO 7000 SHRA BKN015TCU RMK LIGHTNING
                        TO SOUTH=
201111292230 METAR LMML NIL=
201111292215 METAR LMML 292215Z 11013KT 9999 FEW021 FEW100 16/13 Q1021
                        TEMPO 7000 SHRA BKN015TCU RMK LIGHTNING
                        TO SOUTH=
201111292200 METAR LMML NIL=
201111292145 METAR LMML 292145Z 10015KT 9999 FEW021 16/12 Q1021 TEMPO
                        7000 SHRA BKN015TCU RMK LIGHTNING
                        TO SOUTH=
201111292130 METAR LMML NIL=
201111292115 METAR LMML 292115Z 10014KT 9999 FEW019 16/12 Q1021 TEMPO
                        7000 SHRA BKN015TCU=
201111292100 METAR LMML NIL=
201111292045 METAR LMML 292045Z 10014KT 9999 FEW019 SCT070 16/12 Q1020
                        TEMPO 7000 SHRA BKN015TCU RMK LIGHTNING
                        TO THE SOUTH=
201111292030 METAR LMML NIL=
201111292015 METAR LMML 292015Z 10014KT 060V130 9999 FEW019 16/13 Q1020
                        TEMPO 7000 SHRA BKN015TCU=
201111292000 METAR LMML NIL=
201111291945 METAR LMML 291945Z 09015KT 9999 FEW019 SCT090 16/13 Q1021
                        TEMPO 7000 SHRA BKN015TCU=
201111291930 METAR LMML NIL=
201111291915 METAR LMML 291915Z 09012KT 9999 SCT019 BKN090 16/13 Q1021
                        TEMPO 7000 SHRA BKN015TCU=
201111291900 METAR LMML NIL=
201111291845 METAR LMML 291845Z 10014KT 9999 SCT018 BKN090 16/13 Q1021
                        TEMPO 7000 SHRA BKN015TCU=
201111291830 METAR LMML NIL=
201111291815 METAR LMML 291815Z 10013KT 070V130 9999 SCT017 BKN080 16/13
                        Q1021 TEMPO 7000 SHRA BKN015TCU=
201111291800 METAR LMML NIL=
201111291745 METAR LMML 291745Z 10014KT 9999 SCT018 BKN070 16/14 Q1020
                        TEMPO 7000 SHRA BKN015TCU=
201111291730 METAR LMML NIL=
201111291715 METAR LMML 291715Z 10014KT 060V120 9999 BKN017 BKN070 16/14
                        Q1020 RESHRA TEMPO 7000 SHRA BKN015TCU=
201111291700 METAR LMML NIL=
201111291645 METAR LMML 291645Z 11018KT 9999 BKN017TCU BKN070 16/14 Q1020
                        RESHRA TEMPO 7000 SHRA BKN015TCU=
201111291630 METAR LMML NIL=
201111291615 METAR LMML 291615Z 11016KT 7000 SHRA BKN017 16/14 Q1020 TEMPO
                        5000 SHRA BKN015TCU=
201111291600 METAR LMML NIL=
201111291545 METAR LMML 291545Z 11011KT 080V140 9000 -SHRA BKN015TCU SCT070
                        16/14 Q1020 RESHRA TEMPO 7000 SHRA
                        BKN015TCU=
201111291530 METAR LMML NIL=
201111291515 METAR LMML 291515Z 11015KT 9999 BKN018TCU BKN070 17/14 Q1020
                        TEMPO 7000 SHRA BKN015TCU=
201111291500 METAR LMML NIL=
201111291445 METAR LMML 291445Z 11017KT 9999 BKN017TCU BKN070 17/14 Q1020
                        TEMPO 7000 SHRA BKN015TCU=
201111291430 METAR LMML NIL=
201111291415 METAR LMML 291415Z 11016KT 070V140 9999 FEW016CB BKN021TCU
                        BKN070 17/14 Q1019 TEMPO 5000 TSRA
                        BKN015CB=
201111291400 METAR LMML NIL=
201111291345 METAR LMML 291345Z 11018KT 9999 FEW016CB BKN019TCU BKN070
                        17/14 Q1019 TEMPO 5000 TSRA BKN015CB=
201111291330 METAR LMML NIL=
201111291315 METAR LMML 291315Z 12016KT 9999 FEW018CB BKN020TCU BKN070
                        18/15 Q1020 TEMPO 5000 TSRA BKN015CB=
201111291300 METAR LMML NIL=
201111291245 METAR LMML 291245Z 11014KT 9999 FEW016CB SCT021 BKN070 18/15
                        Q1020 TEMPO 5000 TSRA BKN015CB=
201111291230 METAR LMML NIL=
201111291215 METAR LMML 291215Z 11015KT 080V140 9999 FEW015CB BKN020TCU
                        17/15 Q1020 TEMPO 5000 TSRA BKN015CB=
201111291200 METAR LMML NIL=
201111291145 METAR LMML 291145Z 12016KT 9000 FEW015CB BKN020TCU 17/15
                        Q1020 RETSRA TEMPO 5000 TSRA BKN015CB=
201111291130 METAR LMML NIL=
201111291115 METAR LMML 291115Z 11018KT 7000 -TSRA SCT016CB BKN017TCU
                        16/14 Q1021 RETSRA TEMPO 5000 TSRA
                        BKN015CB=
201111291104 SPECI LMML 291104Z 11018KT 7000 -TSRA SCT015CB BKN018TCU
                        16/14 Q1020 TEMPO 5000 TSRA BKN015CB=
201111291100 METAR LMML NIL=
201111291045 METAR LMML 291045Z 11018G28KT 9999 -TSRA FEW019CB BKN020TCU
                        16/14 Q1021 RETS TEMPO 5000 TSRA
                        BKN015CB=
201111291015 METAR LMML 291015Z 11022KT 8000 -TS FEW018CB BKN019TCU 16/14
                        Q1021 RETS TEMPO 5000 TSRA BKN015CB=
201111291000 METAR LMML NIL=
201111290945 METAR LMML 290945Z 09020KT 070V130 8000 -TS FEW011 FEW017CB
                        BKN018TCU 16/14 Q1020 RETSRA TEMPO
                        5000 TSRA BKN015CB=
201111290930 METAR LMML NIL=
201111290915 METAR LMML 290915Z 10012G22KT 030V140 2000 TSRA BKN016CB
                        16/14 Q1021 TEMPO 5000 TSRA BKN015CB=
201111290906 SPECI LMML 290906Z 10018KT 070V130 2000 TSGR SCT015CB BKN017
                        BKN070 16/14 Q1021 RETSRA TEMPO 3000
                        TSGR BKN015CB=
201111290900 SPECI LMML 290900Z 09018KT 3000 -TSRA FEW015 BKN017 BKN070
                        16/14 Q1021 RETSRA TEMPO 5000 TSRA
                        BKN015CB=
201111290900 METAR LMML NIL=
201111290845 METAR LMML 290845Z 10019KT 9000 -TSRA FEW016CB BKN017 BKN070
                        16/14 Q1021 TEMPO 5000 TSRA BKN015CB=
201111290830 METAR LMML NIL=
201111290815 METAR COR LMML 290815Z 09018KT 8000 -TSRA FEW017CB BKN060
                        16/14 Q1021 RETSRA TEMPO 5000 TSRA
                        BKN015CB=
201111290800 METAR LMML NIL=
201111290745 METAR LMML 290745Z 10016KT 070V140 6000 -TSRA FEW010 SCT015CB
                        16/14 Q1021 TEMPO 5000 TSRA BKN015CB=
201111290731 SPECI LMML 290731Z 11015KT 080V140 6000 -TSRA SCT015CB SCT060
                        16/14 Q1021 TEMPO 5000 TSRA BKN015CB=
201111290730 METAR LMML NIL=
201111290715 METAR LMML 290715Z 10016KT 9999 -TSRA SCT015CB BKN060 17/14
                        Q1021 TEMPO 5000 TSRA BKN015CB=
201111290700 METAR LMML NIL=
201111290645 METAR LMML 290645Z 10016KT 9999 FEW015 BKN060 17/13 Q1021
                        TEMPO 5000 TSRA BKN015CB=
201111290630 METAR LMML NIL=
201111290615 METAR LMML 290615Z 10016KT 9999 FEW015 SCT060 16/13 Q1021
                        TEMPO 5000 TSRA BKN015CB RMK CB TOPS
                        TO SOUTH=
201111290600 METAR LMML NIL=
201111290545 METAR LMML 290545Z 10015KT 9999 SCT015 BKN050 16/13 Q1021
                        NOSIG=
201111290530 METAR LMML NIL=
201111290515 METAR LMML 290515Z 10014KT 070V130 9999 -RA SCT017 BKN120
                        16/13 Q1021 NOSIG=
201111290500 METAR LMML NIL=
201111290445 METAR LMML 290445Z 10013KT 9999 SCT016 BKN120 16/13 Q1021
                        NOSIG=
201111290430 METAR LMML NIL=
201111290415 METAR LMML 290415Z 10011KT 070V130 9999 SCT016 BKN120 16/13
                        Q1021 NOSIG=
201111290400 METAR LMML NIL=
201111290345 METAR COR LMML 290345Z 11010KT 9999 BKN018 BKN120 16/13 Q1022
                        NOSIG=
201111290330 METAR LMML NIL=
201111290315 METAR LMML 290315Z 11012KT 9999 BKN018 BKN120 16/13 Q1022
                        NOSIG=
201111290300 METAR LMML NIL=
201111290245 METAR LMML 290245Z 10011KT 9999 SCT017 BKN120 16/13 Q1021
                        NOSIG=
201111290230 METAR LMML NIL=
201111290215 METAR LMML 290215Z 10010KT 070V140 9999 SCT018 BKN120 16/13
                        Q1022 NOSIG=
201111290200 METAR LMML NIL=
201111290145 METAR LMML 290145Z 10013KT 9999 FEW017 SCT120 16/13 Q1022
                        NOSIG=
201111290130 METAR LMML NIL=
201111290115 METAR LMML 290115Z 11012KT 9999 FEW017 SCT120 16/13 Q1022
                        NOSIG=
201111290100 METAR LMML NIL=
201111290045 METAR LMML 290045Z 10012KT 070V130 9999 FEW017 SCT120 16/13
                        Q1022 NOSIG=
201111290015 METAR LMML 290015Z 11013KT 9999 FEW020 SCT000 16/13 Q1022
                        NOSIG=
201111290000 METAR LMML NIL=
201111282345 METAR LMML 282345Z 11013KT 9999 FEW018 SCT120 16/12 Q1022
                        NOSIG=
201111282330 METAR LMML NIL=
201111282315 METAR LMML 282315Z 11010KT 9999 FEW019 SCT120 16/12 Q1023
                        NOSIG=
201111282245 METAR LMML 282245Z 11010KT 080V140 9999 FEW020 SCT120 16/12
                        Q1023 NOSIG=
201111282215 METAR LMML 282215Z 11010KT 9999 FEW020 SCT120 16/12 Q1023
                        NOSIG=
201111282145 METAR LMML 282145Z 10009KT 9999 FEW025 SCT120 16/12 Q1023
                        NOSIG=
201111282115 METAR LMML 282115Z 11008KT 080V140 9999 FEW021 SCT000 16/12
                        Q1023 NOSIG=
201111282100 METAR LMML NIL=
201111282045 METAR LMML 282045Z 12009KT 9999 FEW022 SCT120 16/12 Q1023
                        NOSIG=
201111282030 METAR LMML NIL=
201111282015 METAR LMML 282015Z 10009KT 9999 FEW024 SCT120 BKN250 16/12
                        Q1023 NOSIG=
201111282000 METAR LMML NIL=
201111281945 METAR LMML 281945Z 11009KT 9999 FEW025 SCT110 16/11 Q1024
                        NOSIG=
201111281915 METAR LMML 281915Z 10008KT 9999 SCT025 SCT110 16/11 Q1024
                        NOSIG=
201111281900 METAR LMML NIL=
201111281845 METAR LMML 281845Z 10008KT 9999 FEW026 SCT110 BKN250 16/11
                        Q1024 NOSIG=
201111281830 METAR LMML NIL=
201111281815 METAR LMML 281815Z 12007KT 9999 FEW026 SCT120 BKN250 16/11
                        Q1024 NOSIG=
201111281745 METAR LMML 281745Z 11006KT 9999 FEW025 SCT120 BKN250 15/11
                        Q1024 NOSIG=
201111281730 METAR LMML NIL=
201111281715 METAR LMML 281715Z 10005KT 070V130 9999 FEW025 SCT120 BKN250
                        15/11 Q1024 NOSIG=
201111281645 METAR LMML 281645Z 10007KT 9999 FEW026 BKN250 16/11 Q1023
                        NOSIG=
201111281630 METAR LMML NIL=
201111281615 METAR LMML 281615Z 10008KT 9999 SCT026 BKN250 16/11 Q1023
                        NOSIG=
201111281600 METAR LMML NIL=
201111281545 METAR LMML 281545Z 11007KT 9999 FEW026 BKN250 16/11 Q1023
                        NOSIG=
201111281530 METAR LMML NIL=
201111281515 METAR LMML 281515Z 12007KT 080V150 9999 FEW028 BKN250 16/11
                        Q1024 NOSIG=
201111281500 METAR LMML NIL=
201111281445 METAR LMML 281445Z 12007KT 9999 FEW027 BKN250 16/11 Q1023
                        NOSIG=
201111281430 METAR LMML NIL=
201111281415 METAR LMML 281415Z 11009KT 9999 FEW027 BKN250 16/11 Q1023
                        NOSIG=
201111281400 METAR LMML NIL=
201111281345 METAR LMML 281345Z 13008KT 100V160 9999 FEW028 SCT250 17/11
                        Q1023 NOSIG=
201111281330 METAR LMML NIL=
201111281315 METAR LMML 281315Z 14008KT 110V180 9999 FEW029 17/10 Q1024
                        NOSIG=
201111281300 METAR LMML NIL=
201111281245 METAR LMML 281245Z 14009KT 9999 FEW028 17/11 Q1024 NOSIG=
201111281230 METAR LMML NIL=
201111281215 METAR LMML 281215Z 13010KT 100V170 9999 FEW027 18/11 Q1024
                        NOSIG=
201111281145 METAR LMML 281145Z 13010KT 080V170 9999 FEW028 18/11 Q1024
                        NOSIG=
201111281130 METAR LMML NIL=
201111281115 METAR LMML 281115Z 12010KT 100V160 9999 FEW028 SCT120 18/12
                        Q1025 NOSIG=
201111281045 METAR LMML 281045Z 14009KT 9999 FEW030 BKN120 17/10 Q1025
                        NOSIG=
201111281030 METAR LMML NIL=
201111281015 METAR LMML 281015Z 12010KT 9999 FEW028 BKN120 18/10 Q1025
                        NOSIG=
201111281000 METAR LMML NIL=
201111280945 METAR LMML 280945Z 13008KT 9999 FEW029 BKN120 17/11 Q1026
                        NOSIG=
201111280930 METAR LMML NIL=
201111280915 METAR LMML 280915Z 12010KT 090V150 9999 FEW029 BKN120 17/11
                        Q1026 NOSIG=
201111280900 METAR LMML NIL=
201111280845 METAR LMML 280845Z 12010KT 9999 FEW027 BKN120 16/11 Q1026
                        NOSIG=
201111280830 METAR LMML NIL=
201111280815 METAR LMML 280815Z 12008KT 9999 FEW027 BKN120 17/12 Q1026
                        NOSIG=
201111280800 METAR LMML NIL=
201111280745 METAR LMML 280745Z 11008KT 9999 FEW025 BKN120 16/11 Q1025
                        NOSIG=
201111280730 METAR LMML NIL=
201111280715 METAR LMML 280715Z 10006KT 070V130 9999 FEW025 SCT120 16/11
                        Q1025 NOSIG=
201111280700 METAR LMML NIL=
201111280645 METAR LMML 280645Z 11005KT 9999 FEW025 SCT120 14/10 Q1025
                        NOSIG=
201111280630 METAR LMML NIL=
201111280615 METAR LMML 280615Z 10006KT 9999 FEW025 BKN120 14/11 Q1025
                        NOSIG=
201111280600 METAR LMML NIL=
201111280545 METAR LMML 280545Z 10005KT 9999 FEW025 BKN120 13/10 Q1025
                        NOSIG=
201111280530 METAR LMML NIL=
201111280515 METAR LMML 280515Z 11006KT 9999 FEW025 BKN120 14/11 Q1025
                        NOSIG=
201111280445 METAR LMML 280445Z 11004KT 9999 FEW025 BKN120 13/10 Q1025
                        NOSIG=
201111280430 METAR LMML NIL=
201111280415 METAR LMML 280415Z 12004KT 9999 FEW025 SCT120 13/11 Q1025
                        NOSIG=
201111280400 METAR LMML NIL=
201111280345 METAR LMML 280345Z 11004KT 9999 FEW024 13/11 Q1025 NOSIG=
201111280330 METAR LMML NIL=
201111280315 METAR LMML 280315Z 11005KT 9999 FEW023 13/11 Q1025 NOSIG=
201111280300 METAR LMML NIL=
201111280245 METAR LMML 280245Z 12004KT 9999 FEW022 13/11 Q1025 NOSIG=
201111280230 METAR LMML NIL=
201111280215 METAR LMML 280215Z 13004KT 9999 FEW024 13/11 Q1025 NOSIG=
201111280200 METAR LMML NIL=
201111280145 METAR LMML 280145Z 14004KT 9999 FEW022 14/11 Q1026 NOSIG=
201111280130 METAR LMML NIL=
201111280115 METAR LMML 280115Z 12004KT 9999 FEW024 14/11 Q1026 NOSIG=
201111280100 METAR LMML NIL=
201111280045 METAR LMML 280045Z 11004KT 9999 FEW022 13/11 Q1026 NOSIG=
201111280030 METAR LMML NIL=
201111280015 METAR LMML 280015Z 13004KT 080V150 9999 SCT023 14/11 Q1026
                        NOSIG=
201111280000 METAR LMML NIL=
201111272345 METAR LMML 272345Z 13005KT 9999 FEW023 13/11 Q1026 NOSIG=
201111272330 METAR LMML NIL=
201111272315 METAR LMML 272315Z 14006KT 9999 FEW024 14/11 Q1026 NOSIG=
201111272300 METAR LMML NIL=
201111272245 METAR LMML 272245Z 13006KT 9999 FEW024 13/11 Q1026 NOSIG=
201111272230 METAR LMML NIL=
201111272215 METAR LMML 272215Z 14004KT 110V170 9999 SCT021 14/11 Q1026
                        NOSIG=
201111272200 METAR LMML NIL=
201111272145 METAR LMML 272145Z 13003KT 9999 FEW024 14/11 Q1026 NOSIG=
201111272130 METAR LMML NIL=
201111272115 METAR LMML 272115Z 12003KT 9999 SCT023 14/11 Q1026 NOSIG=
201111272100 METAR LMML NIL=
201111272045 METAR LMML 272045Z 12003KT 9999 FEW024 13/11 Q1026 NOSIG=
201111272030 METAR LMML NIL=
201111272015 METAR LMML 272015Z VRB02KT 9999 FEW023 13/11 Q1026 NOSIG=
201111272000 METAR LMML NIL=
201111271945 METAR LMML 271945Z VRB02KT 9999 FEW024 14/11 Q1026 NOSIG=
201111271930 METAR LMML NIL=
201111271915 METAR LMML 271915Z 13003KT 9999 FEW023 14/11 Q1027 NOSIG=
201111271900 METAR LMML NIL=
201111271845 METAR LMML 271845Z VRB02KT 9999 FEW022 14/11 Q1027 NOSIG=
201111271830 METAR LMML NIL=
201111271815 METAR LMML 271815Z 11003KT 9999 FEW022 15/11 Q1026 NOSIG=
201111271745 METAR LMML 271745Z 12003KT 9999 FEW022 15/11 Q1026 NOSIG=
201111271730 METAR LMML NIL=
201111271715 METAR COR LMML 271715Z VRB02KT 9999 FEW025 15/12 Q1026 NOSIG=
201111271645 METAR LMML 271645Z 09004KT 9999 SCT025 15/12 Q1026 NOSIG=
201111271630 METAR LMML NIL=
201111271615 METAR LMML 271615Z 07004KT 030V110 9999 SCT021 16/12 Q1026
                        NOSIG=
201111271545 METAR LMML 271545Z 09004KT 050V110 9999 SCT023 16/12 Q1026
                        NOSIG=
201111271530 METAR LMML NIL=
201111271515 METAR LMML 271515Z 08004KT 030V120 9999 SCT022 17/12 Q1026
                        NOSIG=
201111271500 METAR LMML NIL=
201111271445 METAR LMML 271445Z 08004KT 050V110 9999 SCT022 17/12 Q1026
                        NOSIG=
201111271430 METAR LMML NIL=
201111271415 METAR LMML 271415Z 09005KT 050V140 9999 SCT021 17/12 Q1026
                        NOSIG=
201111271345 METAR LMML 271345Z 08005KT 050V110 9999 SCT021 17/12 Q1026
                        NOSIG=
201111271330 METAR LMML NIL=
201111271315 METAR LMML 271315Z 09006KT 050V130 9999 SCT022 18/12 Q1026
                        NOSIG=
201111271300 METAR LMML NIL=
201111271245 METAR LMML 271245Z 08006KT 050V110 9999 SCT023 17/12 Q1027
                        NOSIG=
201111271230 METAR LMML NIL=
201111271215 METAR LMML 271215Z 09007KT 050V140 9999 SCT026 18/12 Q1027
                        NOSIG=
201111271200 METAR LMML NIL=
201111271145 METAR LMML 271145Z 06007KT 020V100 9999 SCT025 18/12 Q1027
                        NOSIG=
201111271130 METAR LMML NIL=
201111271115 METAR LMML 271115Z 06007KT 020V080 9999 SCT025 18/12 Q1027
                        NOSIG=
201111271100 METAR LMML NIL=
201111271045 METAR LMML 271045Z 06007KT 360V110 9999 SCT025 18/12 Q1028
                        NOSIG=
201111271030 METAR LMML NIL=
201111271015 METAR LMML 271015Z 07007KT 020V100 9999 FEW026 18/12 Q1028
                        NOSIG=
201111271000 METAR LMML NIL=
201111270945 METAR LMML 270945Z 09006KT 050V130 9999 SCT026 18/12 Q1028
                        NOSIG=
201111270930 METAR LMML NIL=
201111270915 METAR LMML 270915Z 06007KT 360V090 9999 SCT024 17/12 Q1028
                        NOSIG=
201111270845 METAR LMML 270845Z 07006KT 9999 FEW024 18/12 Q1028 NOSIG=
201111270830 METAR LMML NIL=
201111270815 METAR LMML 270815Z 07003KT 9999 FEW024 17/13 Q1028 NOSIG=
201111270800 METAR LMML NIL=
201111270745 METAR LMML 270745Z VRB01KT 9999 FEW024 16/13 Q1028 NOSIG=
201111270730 METAR LMML NIL=
201111270715 METAR LMML 270715Z VRB01KT 9999 FEW024 14/11 Q1028 NOSIG=
201111270700 METAR LMML NIL=
201111270645 METAR LMML 270645Z 06003KT 9999 SCT023 14/11 Q1028 NOSIG=
201111270630 METAR LMML NIL=
201111270615 METAR LMML 270615Z VRB02KT 9999 FEW025 13/10 Q1027 NOSIG=
201111270545 METAR LMML 270545Z 08003KT 9999 FEW025 13/10 Q1027 NOSIG=
201111270530 METAR LMML NIL=
201111270515 METAR LMML 270515Z 08004KT 9999 FEW025 13/10 Q1027 NOSIG=
201111270500 METAR LMML NIL=
201111270445 METAR LMML 270445Z 11003KT 9999 FEW024 14/11 Q1027 NOSIG=
201111270430 METAR LMML NIL=
201111270415 METAR LMML 270415Z 08003KT 9999 SCT024 14/11 Q1027 NOSIG=
201111270400 METAR LMML NIL=
201111270345 METAR LMML 270345Z 07003KT 9999 FEW023 13/10 Q1027 NOSIG=
201111270330 METAR LMML NIL=
201111270315 METAR LMML 270315Z 07004KT 9999 FEW024 14/10 Q1027 NOSIG=
201111270300 METAR LMML NIL=
201111270245 METAR LMML 270245Z 07005KT 9999 SCT024 14/11 Q1027 NOSIG=
201111270230 METAR LMML NIL=
201111270215 METAR LMML 270215Z 06005KT 020V110 9999 FEW025 14/11 Q1027
                        NOSIG=
201111270200 METAR LMML NIL=
201111270145 METAR LMML 270145Z 07004KT 9999 SCT024 14/11 Q1027 NOSIG=
201111270130 METAR LMML NIL=
201111270115 METAR LMML 270115Z 06005KT 9999 FEW024 14/11 Q1027 NOSIG=
201111270100 METAR LMML NIL=
201111270045 METAR LMML 270045Z 07005KT 9999 FEW025 14/11 Q1027 NOSIG=
201111270030 METAR LMML NIL=
201111270015 METAR LMML 270015Z 06005KT 010V100 9999 FEW025 14/11 Q1026
                        NOSIG=
201111270000 METAR LMML NIL=
201111262345 METAR LMML 262345Z 07004KT 9999 FEW025 14/11 Q1027 NOSIG=
201111262330 METAR LMML NIL=
201111262315 METAR LMML 262315Z 08004KT 9999 FEW025 14/11 Q1027 NOSIG=
201111262245 METAR LMML 262245Z 08004KT 050V110 9999 FEW022 14/11 Q1027
                        NOSIG=
201111262230 METAR LMML NIL=
201111262215 METAR LMML 262215Z 07004KT 9999 FEW022 15/11 Q1027 NOSIG=
201111262200 METAR LMML NIL=
201111262145 METAR LMML 262145Z 06004KT 9999 FEW023 14/11 Q1027 NOSIG=
201111262130 METAR LMML NIL=
201111262115 METAR LMML 262115Z 06004KT 030V090 9999 SCT023 15/11 Q1027
                        NOSIG=
201111262045 METAR LMML 262045Z 06004KT 030V090 9999 FEW023 15/11 Q1027
                        NOSIG=
201111262030 METAR LMML NIL=
201111262015 METAR LMML 262015Z 07004KT 9999 FEW024 15/11 Q1027 NOSIG=
201111262000 METAR LMML NIL=
201111261945 METAR LMML 261945Z 07004KT 040V100 9999 FEW023 15/11 Q1027
                        NOSIG=
201111261930 METAR LMML NIL=
201111261915 METAR LMML 261915Z 07004KT 040V100 9999 FEW023 15/11 Q1027
                        NOSIG=
201111261900 METAR LMML NIL=
201111261845 METAR LMML 261845Z 07005KT 040V100 9999 FEW020 15/11 Q1026
                        NOSIG=
201111261830 METAR LMML NIL=
201111261815 METAR LMML 261815Z 06005KT 020V110 9999 FEW021 SCT250 15/12
                        Q1026 NOSIG=
201111261800 METAR LMML NIL=
201111261745 METAR LMML 261745Z 08005KT 040V110 9999 FEW021 SCT250 15/12
                        Q1026 NOSIG=
201111261730 METAR LMML NIL=
201111261715 METAR LMML 261715Z 06004KT 030V090 9999 FEW021 SCT250 15/11
                        Q1025 NOSIG=
201111261700 METAR LMML NIL=
201111261645 METAR LMML 261645Z 06005KT CAVOK 15/11 Q1025 NOSIG=
201111261630 METAR LMML NIL=
201111261615 METAR LMML 261615Z 06005KT 020V090 9999 FEW021 BKN250 16/11
                        Q1025 NOSIG=
201111261600 METAR LMML NIL=
201111261545 METAR LMML 261545Z 05006KT 010V080 9999 FEW021 BKN250 16/12
                        Q1025 NOSIG=
201111261530 METAR LMML NIL=
201111261515 METAR LMML 261515Z 05008KT 340V080 9999 FEW020 BKN250 16/12
                        Q1025 NOSIG=
201111261500 METAR LMML NIL=
201111261445 METAR LMML 261445Z 04007KT 010V080 9999 FEW020 BKN250 17/12
                        Q1025 NOSIG=
201111261430 METAR LMML NIL=
201111261415 METAR LMML 261415Z 05008KT 010V080 9999 FEW020 BKN250 17/12
                        Q1025 NOSIG=
201111261400 METAR LMML NIL=
201111261345 METAR LMML 261345Z 05009KT 010V080 9999 FEW023 17/12 Q1024
                        NOSIG=
201111261330 METAR LMML NIL=
201111261315 METAR LMML 261315Z 04009KT 010V080 9999 FEW023 BKN250 17/12
                        Q1024 NOSIG=
201111261300 METAR LMML NIL=
201111261245 METAR LMML 261245Z 04008KT 350V090 9999 FEW024 BKN250 17/12
                        Q1025 NOSIG=
201111261230 METAR LMML NIL=
201111261215 METAR LMML 261215Z 04007KT 010V090 9999 FEW023 BKN250 18/12
                        Q1025 NOSIG=
201111261200 METAR LMML NIL=
201111261145 METAR LMML 261145Z 04007KT 010V080 9999 FEW023 BKN250 17/12
                        Q1025 NOSIG=
201111261130 METAR LMML NIL=
201111261115 METAR LMML 261115Z 06008KT 020V090 9999 FEW023 BKN250 17/12
                        Q1025 NOSIG=
201111261100 METAR LMML NIL=
201111261045 METAR LMML 261045Z 05008KT 020V080 9999 FEW022 BKN250 17/12
                        Q1026 NOSIG=
201111261030 METAR LMML NIL=
201111261015 METAR LMML 261015Z 05008KT 020V090 9999 FEW022 BKN250 17/12
                        Q1026 NOSIG=
201111261000 METAR LMML NIL=
201111260958 SPECI LMML 260958Z 06007KT 010V100 9999 FEW024 BKN250 17/12
                        Q1026 NOSIG=
201111260930 METAR LMML NIL=
201111260915 METAR LMML 260915Z 07005KT 040V110 9999 FEW021 BKN250 17/13
                        Q1026 NOSIG=
201111260900 METAR LMML NIL=
201111260845 METAR LMML 260845Z 07006KT 020V100 9999 FEW023 BKN250 17/12
                        Q1026 NOSIG=
201111260830 METAR LMML NIL=
201111260815 METAR LMML 260815Z 05007KT 020V080 9999 FEW023 SCT090 BKN250
                        17/12 Q1026 NOSIG=
201111260800 METAR LMML NIL=
201111260745 METAR LMML 260745Z 05006KT 020V090 9999 FEW021 SCT083 BKN250
                        17/12 Q1026 NOSIG=
201111260730 METAR LMML NIL=
201111260715 METAR LMML 260715Z 07004KT 9999 FEW022 BKN080 BKN250 16/12
                        Q1025 NOSIG=
201111260700 METAR LMML NIL=
201111260645 METAR LMML 260645Z 06006KT 020V090 9999 SCT020 BKN077 BKN250
                        16/12 Q1025 NOSIG=
201111260630 METAR LMML NIL=
201111260615 METAR LMML 260615Z 04006KT 9999 SCT020 BKN076 BKN250 16/12
                        Q1025 NOSIG=
201111260600 METAR LMML NIL=
201111260545 METAR LMML 260545Z 05006KT 010V080 9999 FEW020 BKN080 15/12
                        Q1025 NOSIG=
201111260530 METAR LMML NIL=
201111260515 METAR LMML 260515Z 04006KT 9999 FEW020 SCT080 15/12 Q1024
                        NOSIG=
201111260500 METAR LMML NIL=
201111260445 METAR LMML 260445Z 04006KT 9999 FEW021 SCT080 15/12 Q1024
                        NOSIG=
201111260430 METAR LMML NIL=
201111260415 METAR LMML 260415Z 05006KT 020V080 9999 FEW020 15/12 Q1024
                        NOSIG=
201111260400 METAR LMML NIL=
201111260345 METAR LMML 260345Z 04006KT 020V080 9999 FEW020 15/12 Q1024
                        NOSIG=
201111260330 METAR LMML NIL=
201111260315 METAR LMML 260315Z 05006KT 9999 FEW020 15/12 Q1024 NOSIG=
201111260300 METAR LMML NIL=
201111260245 METAR LMML 260245Z 05007KT 020V090 9999 FEW020 15/12 Q1024
                        NOSIG=
201111260230 METAR LMML NIL=
201111260215 METAR LMML 260215Z 06004KT 030V100 9999 FEW019 SCT090 15/12
                        Q1024 NOSIG=
201111260200 METAR LMML NIL=
201111260145 METAR LMML 260145Z 05006KT 020V080 9999 FEW022 15/12 Q1024
                        NOSIG=
201111260130 METAR LMML NIL=
201111260115 METAR LMML 260115Z 07006KT 030V100 9999 SCT022 SCT070 15/12
                        Q1024 NOSIG=
201111260100 METAR LMML NIL=
201111260045 METAR LMML 260045Z 08005KT 050V110 9999 SCT019 BKN080 16/13
                        Q1024 NOSIG=
201111260030 METAR LMML NIL=
201111260015 METAR LMML 260015Z 05007KT 020V090 9999 SCT020 SCT080 16/13
                        Q1024 NOSIG=
201111252345 METAR LMML 252345Z 05009KT 020V080 9999 SCT017 16/13 Q1024
                        NOSIG=
201111252330 METAR LMML NIL=
201111252315 METAR LMML 252315Z 05008KT 020V080 9999 SCT018 16/13 Q1024
                        NOSIG=
201111252300 METAR LMML NIL=
201111252245 METAR LMML 252245Z 05007KT 020V080 9999 SCT018 16/13 Q1024
                        NOSIG=
201111252230 METAR LMML NIL=
201111252215 METAR LMML 252215Z 05007KT 020V080 9999 SCT019 16/13 Q1024
                        NOSIG=
201111252200 METAR LMML NIL=
201111252145 METAR LMML 252145Z 05007KT 020V090 9999 FEW018 16/13 Q1024
                        NOSIG=
201111252130 METAR LMML NIL=
201111252115 METAR LMML 252115Z 06006KT 020V090 9999 FEW019 SCT080 16/13
                        Q1024 NOSIG=
201111252100 METAR LMML NIL=
201111252045 METAR LMML 252045Z 06006KT 020V090 9999 FEW017 16/13 Q1024
                        NOSIG=
201111252030 METAR LMML NIL=
201111252015 METAR LMML 252015Z 05005KT 020V090 9999 SCT016 16/14 Q1024
                        NOSIG=
201111252000 METAR LMML NIL=
201111251945 METAR LMML 251945Z 06006KT 020V100 9999 SCT015 16/14 Q1024
                        NOSIG=
201111251930 METAR LMML NIL=
201111251915 METAR LMML 251915Z 06006KT 030V090 9999 SCT016 16/14 Q1024
                        NOSIG=
201111251900 METAR LMML NIL=
201111251845 METAR LMML 251845Z 05006KT 020V090 9999 SCT016 16/14 Q1024
                        NOSIG=
201111251830 METAR LMML NIL=
201111251815 METAR LMML 251815Z 05006KT 020V080 9999 SCT015 16/14 Q1023
                        NOSIG=
201111251800 METAR LMML NIL=
201111251745 METAR LMML 251745Z 04006KT 010V080 9999 FEW016 BKN090 16/14
                        Q1024 NOSIG=
201111251730 METAR LMML NIL=
201111251715 METAR LMML 251715Z 05005KT 020V080 9999 SCT016 BKN080 16/14
                        Q1023 NOSIG=
201111251700 METAR LMML NIL=
201111251645 METAR LMML 251645Z 07003KT 9999 FEW017 BKN080 16/15 Q1023
                        TEMPO BKN015TCU=
201111251630 METAR LMML NIL=
201111251615 METAR LMML 251615Z 10003KT 9999 SCT018 SCT036 BKN070 15/15
                        Q1023 TEMPO BKN015TCU=
201111251600 METAR LMML NIL=
201111251545 METAR LMML 251545Z 09004KT 050V120 9999 SCT019 SCT042 BKN070
                        15/15 Q1023 RESHRA TEMPO BKN015TCU=
201111251530 METAR LMML NIL=
201111251515 METAR LMML 251515Z 09005KT 060V120 8000 -RA FEW004 SCT021TCU
                        BKN060 15/15 Q1023 TEMPO BKN015TCU=
201111251500 METAR LMML NIL=
201111251445 METAR LMML 251445Z 08007KT 050V110 7000 SHRA FEW010 SCT025TCU
                        BKN060 15/14 Q1023 TEMPO 8000 SHRA
                        BKN015TCU=
201111251430 METAR LMML NIL=
201111251415 METAR LMML 251415Z 07007KT 040V110 6000 -SHRA FEW007 SCT020TCU
                        BKN050 16/14 Q1023 TEMPO 8000 SHRA
                        BKN015TCU=
201111251400 METAR LMML NIL=
201111251345 METAR LMML 251345Z 08008KT 7000 FEW011 SCT025TCU 17/14 Q1023
                        TEMPO 8000 SHRA BKN015TCU=
201111251315 METAR LMML 251315Z 07007KT 030V100 9999 FEW011TCU SCT060
                        18/14 Q1023 TEMPO 8000 SHRA BKN015TCU=
201111251300 METAR LMML NIL=
201111251245 METAR LMML 251245Z 07007KT 040V100 9999 FEW018 FEW026 BKN098
                        18/14 Q1023 TEMPO 8000 SHRA BKN015TCU=
201111251230 METAR LMML NIL=
201111251215 METAR COR LMML 251215Z 07007KT 040V100 9999 SCT016TCU BKN100
                        17/14 Q1023 TEMPO 8000 SHRA BKN015TCU=
201111251200 METAR LMML NIL=
201111251145 METAR LMML 251145Z 06006KT 020V090 9999 SCT016TCU BKN060
                        17/14 Q1023 TEMPO 8000 SHRA BKN015TCU=
201111251130 METAR LMML NIL=
201111251115 METAR LMML 251115Z 04005KT 010V070 9999 SCT014TCU BKN100
                        18/14 Q1024 TEMPO 8000 SHRA BKN015TCU=
201111251100 METAR LMML NIL=
201111251045 METAR LMML 251045Z 08007KT 040V100 9999 -SHRA SCT014TCU BKN090
                        19/15 Q1024 TEMPO 8000 SHRA BKN015TCU=
201111251030 METAR LMML NIL=
201111251015 METAR LMML 251015Z 08005KT 030V110 9999 SCT014TCU BKN090
                        18/15 Q1024 TEMPO 8000 SHRA BKN015TCU=
201111251000 METAR LMML NIL=
201111250945 METAR LMML 250945Z 05005KT 020V090 9999 FEW016TCU BKN090
                        18/14 Q1024 TEMPO 8000 SHRA BKN015TCU=
201111250930 METAR LMML NIL=
201111250915 METAR LMML 250915Z 05006KT 020V080 9999 SCT015TCU BKN100
                        17/13 Q1024 TEMPO 8000 SHRA BKN015TCU=
201111250900 METAR LMML NIL=
201111250845 METAR LMML 250845Z 06006KT 9000 FEW016TCU SCT100 18/14 Q1024
                        TEMPO 8000 SHRA BKN015TCU RMK A/C
                        REP FC 8 MILES TO NE OF MALTA=
201111250830 METAR LMML NIL=
201111250815 METAR LMML 250815Z 03003KT 9999 FEW016TCU SCT100 20/14 Q1024
                        TEMPO 8000 SHRA BKN015TCU=
201111250800 METAR LMML NIL=
201111250745 METAR LMML 250745Z VRB02KT 9999 FEW025TCU SCT100 18/15 Q1023
                        TEMPO 8000 SHRA BKN015TCU=
201111250730 METAR LMML NIL=
201111250715 METAR LMML 250715Z VRB02KT 9999 FEW025TCU SCT100 17/16 Q1023
                        TEMPO 8000 SHRA BKN015TCU=
201111250700 METAR LMML NIL=
201111250645 METAR LMML 250645Z VRB02KT 9999 FEW020CB 15/15 Q1023 TEMPO
                        8000 TSRA BKN015CB=
201111250630 METAR LMML NIL=
201111250615 METAR LMML 250615Z 31003KT 9999 FEW020CB 14/14 Q1023 TEMPO
                        8000 TSRA BKN015CB RMK CB TO NORTH=
201111250600 METAR LMML NIL=
201111250545 METAR LMML 250545Z VRB02KT 9999 SCT025TCU 14/14 Q1023 NOSIG=
201111250530 METAR LMML NIL=
201111250515 METAR LMML 250515Z VRB02KT 9999 FEW025 SCT090 14/14 Q1022
                        NOSIG=
201111250500 METAR LMML NIL=
201111250445 METAR LMML 250445Z VRB01KT 9999 FEW025 SCT090 14/13 Q1022
                        NOSIG=
201111250430 METAR LMML NIL=
201111250415 METAR LMML 250415Z VRB02KT CAVOK 14/13 Q1022 NOSIG=
201111250400 METAR LMML NIL=
201111250345 METAR LMML 250345Z 28003KT CAVOK 15/13 Q1022 NOSIG=
201111250330 METAR LMML NIL=
201111250315 METAR LMML 250315Z 28003KT CAVOK 14/13 Q1022 NOSIG=
201111250300 METAR LMML NIL=
201111250245 METAR LMML 250245Z VRB02KT CAVOK 14/13 Q1022 NOSIG=
201111250230 METAR LMML NIL=
201111250215 METAR LMML 250215Z VRB02KT CAVOK 15/13 Q1022 NOSIG=
201111250145 METAR LMML 250145Z 26003KT CAVOK 15/14 Q1022 NOSIG=
201111250130 METAR LMML NIL=
201111250115 METAR LMML 250115Z 23004KT CAVOK 14/14 Q1022 NOSIG=
201111250100 METAR LMML NIL=
201111250045 METAR LMML 250045Z 23003KT CAVOK 14/13 Q1022 NOSIG=
201111250015 METAR LMML 250015Z 27003KT CAVOK 14/13 Q1022 NOSIG=
201111250000 METAR LMML NIL=
201111242345 METAR LMML 242345Z 23004KT CAVOK 14/12 Q1022 NOSIG=
201111242330 METAR LMML NIL=
201111242315 METAR LMML 242315Z 26003KT CAVOK 14/13 Q1022 NOSIG=
201111242300 METAR LMML NIL=
201111242245 METAR LMML 242245Z 26003KT CAVOK 14/13 Q1022 NOSIG=
201111242230 METAR LMML NIL=
201111242215 METAR LMML 242215Z VRB02KT CAVOK 14/13 Q1023 NOSIG=
201111242145 METAR LMML 242145Z VRB02KT CAVOK 14/13 Q1023 NOSIG=
201111242115 METAR LMML 242115Z VRB02KT CAVOK 14/13 Q1023 NOSIG=
201111242100 METAR LMML NIL=
201111242045 METAR LMML 242045Z 26003KT CAVOK 14/13 Q1023 NOSIG=
201111242030 METAR LMML NIL=
201111242015 METAR LMML 242015Z 26003KT 9999 FEW025 14/12 Q1023 NOSIG=
201111242000 METAR LMML NIL=
201111241945 METAR LMML 241945Z VRB02KT 9999 FEW025 14/12 Q1023 NOSIG=
201111241930 METAR LMML NIL=
201111241915 METAR LMML 241915Z VRB02KT 9999 FEW020 15/12 Q1022 NOSIG=
201111241900 METAR LMML NIL=
201111241845 METAR LMML 241845Z 27003KT CAVOK 15/13 Q1022 NOSIG=
201111241830 METAR LMML NIL=
201111241815 METAR LMML 241815Z 28004KT 9999 FEW020 15/13 Q1022 NOSIG=
201111241800 METAR LMML NIL=
201111241745 METAR LMML 241745Z VRB02KT 9999 FEW020 15/13 Q1022 NOSIG=
201111241730 METAR LMML NIL=
201111241715 METAR LMML 241715Z 27003KT 9999 FEW020 16/13 Q1022 NOSIG=
201111241700 METAR LMML NIL=
201111241645 METAR LMML 241645Z 27004KT 9999 FEW020 16/13 Q1022 NOSIG=
201111241630 METAR LMML NIL=
201111241615 METAR LMML 241615Z 29005KT 9999 FEW020 16/13 Q1021 NOSIG=
201111241600 METAR LMML NIL=
201111241545 METAR LMML 241545Z 29005KT 270V330 9999 FEW020 17/13 Q1021
                        NOSIG=
201111241530 METAR LMML NIL=
201111241515 METAR LMML 241515Z 29006KT 260V320 9999 FEW021 18/13 Q1021
                        NOSIG=
201111241500 METAR LMML NIL=
201111241445 METAR LMML 241445Z 28006KT 9999 FEW021 18/13 Q1021 NOSIG=
201111241430 METAR LMML NIL=
201111241415 METAR LMML 241415Z 26007KT 220V310 9999 FEW019TCU 19/13 Q1021
                        NOSIG=
201111241400 METAR LMML NIL=
201111241345 METAR LMML 241345Z 25006KT 200V300 9999 SCT017 20/15 Q1021
                        NOSIG=
201111241330 METAR LMML NIL=
201111241315 METAR LMML 241315Z 24008KT 200V290 9999 SCT020 19/15 Q1021
                        NOSIG=
201111241300 METAR LMML NIL=
201111241245 METAR LMML 241245Z 22007KT 190V270 9999 FEW021 20/15 Q1020
                        NOSIG=
201111241230 METAR LMML NIL=
201111241215 METAR LMML 241215Z 22009KT 190V270 9999 SCT021 19/14 Q1021
                        NOSIG=
201111241200 METAR LMML NIL=
201111241145 METAR LMML 241145Z 21007KT 150V260 9999 FEW021 20/14 Q1021
                        NOSIG=
201111241130 METAR LMML NIL=
201111241115 METAR LMML 241115Z 20006KT 160V250 9999 FEW021 20/14 Q1021
                        NOSIG=
201111241100 METAR LMML NIL=
201111241045 METAR LMML 241045Z 19006KT 140V310 9999 FEW020 20/14 Q1021
                        NOSIG RMK CB TOP TO NW=
201111241030 METAR LMML NIL=
201111241015 METAR LMML 241015Z 21006KT 150V250 9999 FEW020 20/13 Q1021
                        NOSIG RMK CB TOP TO NW=
201111241000 METAR LMML NIL=
201111240945 METAR LMML 240945Z 22007KT 160V270 9999 FEW020 19/14 Q1022
                        NOSIG RMK CB TOP TO NNW=
201111240930 METAR LMML NIL=
201111240915 METAR LMML 240915Z 20005KT 170V240 9999 FEW020 20/14 Q1022
                        NOSIG RMK CB TOP TO NNW=
201111240900 METAR LMML NIL=
201111240845 METAR LMML 240845Z 19005KT 140V230 9999 FEW021 19/14 Q1022
                        NOSIG RMK CB TOP TO NNW=
201111240830 METAR LMML NIL=
201111240815 METAR LMML 240815Z 20004KT 160V260 9999 FEW020 18/14 Q1022
                        NOSIG RMK CB TOP TO NNW=
201111240800 METAR LMML NIL=
201111240745 METAR LMML 240745Z 17003KT 9999 FEW020 19/15 Q1021 NOSIG=
201111240730 METAR LMML NIL=
201111240715 METAR LMML 240715Z VRB01KT 9999 FEW020 17/14 Q1021 NOSIG
                        RMK CB TOP TO NW=
201111240700 METAR LMML NIL=
201111240645 METAR LMML 240645Z 18003KT 9999 FEW020 16/14 Q1021 NOSIG=
201111240630 METAR LMML NIL=
201111240615 METAR LMML 240615Z 17004KT 9999 FEW020 14/14 Q1021 NOSIG=
201111240545 METAR LMML 240545Z VRB02KT 9999 FEW020 13/12 Q1020 NOSIG=
201111240530 METAR LMML NIL=
201111240515 METAR LMML 240515Z VRB02KT 9999 FEW020 13/13 Q1020 NOSIG=
201111240500 METAR LMML NIL=
201111240445 METAR LMML 240445Z 18003KT CAVOK 14/13 Q1020 NOSIG=
201111240430 METAR LMML NIL=
201111240415 METAR LMML 240415Z 22003KT CAVOK 14/13 Q1020 NOSIG=
201111240400 METAR LMML NIL=
201111240345 METAR LMML 240345Z 25004KT CAVOK 15/13 Q1020 NOSIG=
201111240330 METAR LMML NIL=
201111240315 METAR LMML 240315Z 23004KT CAVOK 14/13 Q1020 NOSIG=
201111240300 METAR LMML NIL=
201111240245 METAR LMML 240245Z 23004KT CAVOK 14/13 Q1020 NOSIG=
201111240230 METAR LMML NIL=
201111240215 METAR LMML 240215Z 22003KT CAVOK 14/13 Q1020 NOSIG=
201111240200 METAR LMML NIL=
201111240145 METAR LMML 240145Z 24003KT CAVOK 15/13 Q1020 NOSIG=
201111240130 METAR LMML NIL=
201111240115 METAR LMML 240115Z 24003KT CAVOK 15/13 Q1020 NOSIG=
201111240100 METAR LMML NIL=
201111240045 METAR LMML 240045Z 25004KT CAVOK 15/13 Q1020 NOSIG=
201111240030 METAR LMML NIL=
201111240015 METAR LMML 240015Z VRB02KT CAVOK 15/13 Q1020 NOSIG=
201111240000 METAR LMML NIL=
201111232345 METAR LMML 232345Z VRB02KT CAVOK 15/13 Q1019 NOSIG=
201111232330 METAR LMML NIL=
201111232315 METAR LMML 232315Z 24004KT 210V300 CAVOK 15/12 Q1020 NOSIG=
201111232300 METAR LMML NIL=
201111232245 METAR LMML 232245Z 23005KT CAVOK 16/13 Q1019 NOSIG=
201111232230 METAR LMML NIL=
201111232215 METAR LMML 232215Z 23004KT CAVOK 15/13 Q1019 NOSIG=
201111232200 METAR LMML NIL=
201111232145 METAR LMML 232145Z 23004KT CAVOK 15/13 Q1019 NOSIG=
201111232130 METAR LMML NIL=
201111232115 METAR LMML 232115Z 23003KT 9999 FEW017 16/14 Q1019 NOSIG=
201111232100 METAR LMML NIL=
201111232045 METAR LMML 232045Z 24003KT 9999 FEW018 16/14 Q1019 NOSIG=
201111232030 METAR LMML NIL=
201111232015 METAR LMML 232015Z 23003KT 9999 FEW018 16/14 Q1019 NOSIG=
201111232000 METAR LMML NIL=
201111231945 METAR LMML 231945Z 24003KT 9999 FEW016 16/14 Q1019 NOSIG=
201111231930 METAR LMML NIL=
201111231915 METAR LMML 231915Z 23004KT 9999 FEW018 16/14 Q1018 NOSIG=
201111231900 METAR LMML NIL=
201111231845 METAR LMML 231845Z 23004KT 9999 FEW019 16/14 Q1018 NOSIG=
201111231830 METAR LMML NIL=
201111231815 METAR LMML 231815Z 23004KT CAVOK 17/14 Q1018 NOSIG=
201111231800 METAR LMML NIL=
201111231745 METAR LMML 231745Z 23004KT CAVOK 17/14 Q1017 NOSIG=
201111231730 METAR LMML NIL=
201111231715 METAR LMML 231715Z 23005KT 200V260 9999 FEW020 17/14 Q1017
                        NOSIG=
201111231700 METAR LMML NIL=
201111231645 METAR LMML 231645Z 23005KT 200V260 9999 FEW020 18/14 Q1017
                        NOSIG=
201111231630 METAR LMML NIL=
201111231615 METAR LMML 231615Z 22005KT 190V270 9999 FEW020 18/14 Q1017
                        NOSIG RMK CB TOPS TO NORTH=
201111231600 METAR LMML NIL=
201111231545 METAR LMML 231545Z 22007KT 190V260 CAVOK 18/13 Q1016 NOSIG
                        RMK CB TOPS TO NORTH=
201111231530 METAR LMML NIL=
201111231515 METAR LMML 231515Z 22007KT 190V260 CAVOK 19/13 Q1016 NOSIG
                        RMK CB TOPS TO NORTH=
201111231500 METAR LMML NIL=
201111231445 METAR LMML 231445Z 22007KT 190V280 9999 FEW025 19/13 Q1016
                        NOSIG=
201111231415 METAR LMML 231415Z 23008KT 200V270 9999 FEW025 20/13 Q1016
                        NOSIG=
201111231345 METAR LMML 231345Z 22009KT 180V260 9999 FEW025 20/13 Q1016
                        NOSIG=
201111231330 METAR LMML NIL=
201111231315 METAR LMML 231315Z 22007KT 170V270 9999 FEW025 20/13 Q1016
                        NOSIG=
201111231245 METAR LMML 231245Z 21007KT 130V290 9999 FEW025 21/14 Q1016
                        NOSIG=
201111231230 METAR LMML NIL=
201111231215 METAR LMML 231215Z 21008KT 170V270 9999 FEW025 20/13 Q1016
                        NOSIG=
201111231200 METAR LMML NIL=
201111231145 METAR LMML 231145Z 20009KT 170V270 9999 FEW025 20/13 Q1016
                        NOSIG RMK CB TOP TO NORTH=
201111231130 METAR LMML NIL=
201111231115 METAR LMML 231115Z 20009KT 170V240 CAVOK 20/13 Q1016 NOSIG
                        RMK CB TOP TO NORTH=
201111231100 METAR LMML NIL=
201111231045 METAR LMML 231045Z 20009KT 160V240 CAVOK 20/12 Q1016 NOSIG
                        RMK CB TOP TO NORTH=
201111231030 METAR LMML NIL=
201111231015 METAR LMML 231015Z 20008KT 160V240 9999 FEW025 20/12 Q1016
                        NOSIG=
201111231000 METAR LMML NIL=
201111230945 METAR LMML 230945Z 20008KT 160V230 9999 FEW025 20/12 Q1016
                        NOSIG=
201111230930 METAR LMML NIL=
201111230915 METAR LMML 230915Z 20005KT 160V240 9999 FEW025 20/13 Q1017
                        NOSIG=
201111230845 METAR LMML 230845Z 20006KT 160V250 CAVOK 20/12 Q1016 NOSIG=
201111230830 METAR LMML NIL=
201111230815 METAR LMML 230815Z 20005KT 170V240 9999 FEW025 19/13 Q1016
                        NOSIG=
201111230800 METAR LMML NIL=
201111230745 METAR LMML 230745Z 19004KT 140V230 9999 FEW020 19/15 Q1016
                        NOSIG=
201111230730 METAR LMML NIL=
201111230715 METAR LMML 230715Z 16003KT 9999 FEW020 18/15 Q1016 NOSIG
                        RMK SMOKE TO NORTH=
201111230700 METAR LMML NIL=
201111230645 METAR LMML 230645Z 15005KT 9999 FEW020 17/14 Q1015 NOSIG=
201111230630 METAR LMML NIL=
201111230615 METAR LMML 230615Z 17004KT 140V200 9999 FEW020 16/14 Q1015
                        NOSIG RMK CB TOPS TO E AND NE=
201111230545 METAR LMML 230545Z 14005KT 9999 FEW024 15/13 Q1015 NOSIG=
201111230530 METAR LMML NIL=
201111230515 METAR LMML 230515Z 15007KT 9999 FEW024 16/14 Q1015 NOSIG=
201111230500 METAR LMML NIL=
201111230445 METAR LMML 230445Z 17006KT 130V220 9999 FEW024 17/14 Q1015
                        NOSIG=
201111230430 METAR LMML NIL=
201111230415 METAR LMML 230415Z 14003KT CAVOK 16/14 Q1015 NOSIG=
201111230345 METAR LMML 230345Z 12004KT 9999 FEW047 15/13 Q1014 NOSIG=
201111230330 METAR LMML NIL=
201111230315 METAR LMML 230315Z 15003KT 9999 SCT047 15/13 Q1015 NOSIG=
201111230300 METAR LMML NIL=
201111230245 METAR LMML 230245Z 16004KT CAVOK 17/14 Q1014 NOSIG=
201111230230 METAR LMML NIL=
201111230215 METAR LMML 230215Z 17004KT CAVOK 17/13 Q1015 NOSIG=
201111230200 METAR LMML NIL=
201111230145 METAR LMML 230145Z 18005KT CAVOK 17/12 Q1014 NOSIG=
201111230115 METAR LMML 230115Z 18006KT CAVOK 18/12 Q1014 NOSIG=
201111230100 METAR LMML NIL=
201111230045 METAR LMML 230045Z 19005KT 160V220 CAVOK 17/12 Q1015 NOSIG=
201111230030 METAR LMML NIL=
201111230015 METAR LMML 230015Z 19005KT 170V250 CAVOK 17/13 Q1014 NOSIG=
201111230000 METAR LMML NIL=
201111222345 METAR LMML 222345Z 20006KT 170V250 CAVOK 17/13 Q1014 NOSIG=
201111222330 METAR LMML NIL=
201111222315 METAR LMML 222315Z 20006KT 170V230 CAVOK 17/12 Q1015 NOSIG=
201111222300 METAR LMML NIL=
201111222245 METAR LMML 222245Z 20006KT 170V240 CAVOK 17/12 Q1015 NOSIG=
201111222230 METAR LMML NIL=
201111222215 METAR LMML 222215Z 21007KT 170V240 CAVOK 17/12 Q1015 NOSIG=
201111222200 METAR LMML NIL=
201111222145 METAR LMML 222145Z 21006KT 170V250 CAVOK 17/12 Q1015 NOSIG=
201111222130 METAR LMML NIL=
201111222115 METAR LMML 222115Z 21006KT 180V250 CAVOK 17/13 Q1015 NOSIG=
201111222100 METAR LMML NIL=
201111222045 METAR LMML 222045Z 21005KT 180V250 CAVOK 17/13 Q1014 NOSIG=
201111222030 METAR LMML NIL=
201111222015 METAR LMML 222015Z 21005KT 170V240 CAVOK 18/13 Q1014 NOSIG=
201111222000 METAR LMML NIL=
201111221945 METAR LMML 221945Z 21005KT 180V260 CAVOK 18/13 Q1014 NOSIG=
201111221930 METAR LMML NIL=
201111221915 METAR LMML 221915Z 21005KT 180V240 CAVOK 18/13 Q1014 NOSIG=
201111221900 METAR LMML NIL=
201111221845 METAR LMML 221845Z 21007KT 180V250 CAVOK 18/13 Q1013 NOSIG=
201111221830 METAR LMML NIL=
201111221815 METAR LMML 221815Z 21005KT 170V240 CAVOK 18/13 Q1013 NOSIG=
201111221800 METAR LMML NIL=
201111221745 METAR LMML 221745Z 21004KT 180V240 CAVOK 18/14 Q1013 NOSIG=
201111221730 METAR LMML NIL=
201111221715 METAR LMML 221715Z 19005KT 170V230 CAVOK 18/15 Q1013 NOSIG=
201111221700 METAR LMML NIL=
201111221645 METAR LMML 221645Z 19005KT 160V220 CAVOK 18/15 Q1012 NOSIG=
201111221630 METAR LMML NIL=
201111221615 METAR LMML 221615Z 18006KT 150V210 CAVOK 18/16 Q1012 NOSIG=
201111221545 METAR LMML 221545Z 18005KT 150V220 CAVOK 19/17 Q1012 NOSIG=
201111221530 METAR LMML NIL=
201111221515 METAR LMML 221515Z 19006KT 160V220 CAVOK 19/17 Q1012 NOSIG=
201111221500 METAR LMML NIL=
201111221445 METAR LMML 221445Z 19007KT 160V220 CAVOK 20/16 Q1012 NOSIG=
201111221430 METAR LMML NIL=
201111221415 METAR LMML 221415Z 18009KT 160V220 CAVOK 20/16 Q1011 NOSIG=
201111221400 METAR LMML NIL=
201111221345 METAR LMML 221345Z 18009KT 150V210 CAVOK 20/16 Q1011 NOSIG=
201111221330 METAR LMML NIL=
201111221315 METAR LMML 221315Z 18010KT 150V210 CAVOK 20/15 Q1011 NOSIG=
201111221300 METAR LMML NIL=
201111221245 METAR LMML 221245Z 18011KT 140V220 CAVOK 21/15 Q1011 NOSIG=
201111221230 METAR LMML NIL=
201111221215 METAR LMML 221215Z 18011KT 150V220 CAVOK 21/15 Q1011 NOSIG=
201111221200 METAR LMML NIL=
201111221145 METAR LMML 221145Z 18010KT 130V210 CAVOK 21/15 Q1012 NOSIG=
201111221130 METAR LMML NIL=
201111221115 METAR LMML 221115Z 17011KT 140V200 CAVOK 21/15 Q1012 NOSIG=
201111221100 METAR LMML NIL=
201111221045 METAR LMML 221045Z 17011KT 140V220 9999 FEW020 21/16 Q1012
                        NOSIG=
201111221030 METAR LMML NIL=
201111221015 METAR LMML 221015Z 17011KT 140V210 CAVOK 21/16 Q1012 NOSIG=
201111221000 METAR LMML NIL=
201111220945 METAR LMML 220945Z 17012KT 130V220 CAVOK 21/16 Q1013 NOSIG=
201111220930 METAR LMML NIL=
201111220915 METAR LMML 220915Z 16013KT CAVOK 20/16 Q1013 NOSIG=
201111220900 METAR LMML NIL=
201111220845 METAR LMML 220845Z 17014KT 140V200 CAVOK 20/16 Q1013 NOSIG=
201111220830 METAR LMML NIL=
201111220815 METAR LMML 220815Z 17014KT 140V220 CAVOK 20/16 Q1012 NOSIG=
201111220800 METAR LMML NIL=
201111220745 METAR LMML 220745Z 17015KT 130V200 CAVOK 20/15 Q1012 NOSIG=
201111220730 METAR LMML NIL=
201111220715 METAR LMML 220715Z 17013G23KT 140V210 CAVOK 19/15 Q1012 NOSIG=
201111220700 METAR LMML NIL=
201111220645 METAR LMML 220645Z 17014KT 140V220 CAVOK 19/15 Q1012 NOSIG=
201111220630 METAR LMML NIL=
201111220615 METAR LMML 220615Z 17016G26KT 130V210 CAVOK 19/14 Q1012 NOSIG=
201111220600 METAR LMML NIL=
201111220545 METAR LMML 220545Z 15018KT 130V190 CAVOK 19/14 Q1011 NOSIG=
201111220530 METAR LMML NIL=
201111220515 METAR LMML 220515Z 15021KT 110V180 CAVOK 19/14 Q1010 NOSIG=
201111220500 METAR LMML NIL=
201111220445 METAR LMML 220445Z 15021G35KT 120V180 CAVOK 19/14 Q1010 NOSIG=
201111220430 METAR LMML NIL=
201111220415 METAR LMML 220415Z 14023KT CAVOK 19/15 Q1010 NOSIG=
201111220400 METAR LMML NIL=
201111220345 METAR LMML 220345Z 14025KT CAVOK 19/15 Q1010 NOSIG=
201111220330 METAR LMML NIL=
201111220315 METAR LMML 220315Z 14024KT CAVOK 19/15 Q1011 NOSIG=
201111220300 METAR LMML NIL=
201111220245 METAR LMML 220245Z 14025G35KT CAVOK 19/15 Q1011 NOSIG=
201111220230 METAR LMML NIL=
201111220215 METAR LMML 220215Z 14021KT CAVOK 19/15 Q1012 TEMPO 8000 RA=
201111220200 METAR LMML NIL=
201111220145 METAR LMML 220145Z 14021KT 120V180 CAVOK 19/15 Q1013 TEMPO
                        8000 RA=
201111220130 METAR LMML NIL=
201111220115 METAR LMML 220115Z 14023KT CAVOK 19/15 Q1012 TEMPO 8000 RA=
201111220100 METAR LMML NIL=
201111220045 METAR LMML 220045Z 13020KT 9999 FEW045 SCT090 BKN120 19/15
                        Q1013 TEMPO 8000 RA=
201111220030 METAR LMML NIL=
201111220015 METAR LMML 220015Z 13018KT 9999 -SHRA SCT045 SCT090 BKN120
                        19/15 Q1014 TEMPO 8000 RA=
201111220000 METAR LMML NIL=
201111212345 METAR LMML 212345Z 14016KT 110V170 CAVOK 19/15 Q1015 TEMPO
                        8000 RA=
201111212330 METAR LMML NIL=
201111212315 METAR LMML 212315Z 12022G32KT CAVOK 19/15 Q1013 TEMPO 8000
                        RA=
201111212300 METAR LMML NIL=
201111212245 METAR LMML 212245Z 13022KT CAVOK 19/15 Q1014 TEMPO 8000 RA=
201111212230 METAR LMML NIL=
201111212215 METAR LMML 212215Z 13021KT 9999 FEW035 BKN110 19/15 Q1014
                        TEMPO 8000 RA=
201111212200 METAR LMML NIL=
201111212145 METAR LMML 212145Z 13019KT 9999 FEW035 BKN100 19/15 Q1015
                        TEMPO 8000 RA=
201111212130 METAR LMML NIL=
201111212115 METAR LMML 212115Z 12022KT 090V160 9999 FEW035 BKN130 19/15
                        Q1015 NOSIG=
201111212100 METAR LMML NIL=
201111212045 METAR LMML 212045Z 12017KT 9999 FEW014 BKN130 19/15 Q1016
                        NOSIG=
201111212030 METAR LMML NIL=
201111212015 METAR LMML 212015Z 13018KT 9999 FEW014 BKN100 19/15 Q1016
                        NOSIG=
201111212000 METAR LMML NIL=
201111211945 METAR LMML 211945Z 13020KT 9999 FEW014 BKN120 19/15 Q1016
                        NOSIG=
201111211930 METAR LMML NIL=
201111211915 METAR LMML 211915Z 12020KT 9999 FEW014 BKN120 19/15 Q1015
                        TEMPO BKN012=
201111211900 METAR LMML NIL=
201111211845 METAR LMML 211845Z 13017KT 9999 FEW014 BKN120 19/15 Q1016
                        TEMPO BKN012=
201111211830 METAR LMML NIL=
201111211815 METAR LMML 211815Z 13018KT 9999 FEW014 BKN120 19/15 Q1016
                        TEMPO BKN012=
201111211800 METAR LMML NIL=
201111211745 METAR LMML 211745Z 13018KT 9999 FEW014 SCT120 18/16 Q1015
                        TEMPO BKN012=
201111211730 METAR LMML NIL=
201111211715 METAR LMML 211715Z 13019KT 9999 FEW014 SCT120 18/16 Q1015
                        TEMPO BKN012=
201111211700 METAR LMML NIL=
201111211645 METAR LMML 211645Z 12018KT 9999 SCT013 SCT120 BKN250 19/16
                        Q1016 TEMPO BKN012=
201111211630 METAR LMML NIL=
201111211615 METAR LMML 211615Z 13019KT 9999 FEW013 SCT120 BKN250 19/16
                        Q1015 TEMPO BKN012=
201111211600 METAR LMML NIL=
201111211545 METAR LMML 211545Z 13018KT 9999 SCT013 BKN250 19/16 Q1016
                        TEMPO BKN012=
201111211530 METAR LMML NIL=
201111211515 METAR LMML 211515Z 12017KT 9999 SCT012 BKN250 19/17 Q1016
                        TEMPO BKN012=
201111211500 METAR LMML NIL=
201111211445 METAR LMML 211445Z 12018KT 9999 SCT012 BKN250 19/17 Q1016
                        TEMPO BKN012=
201111211430 METAR LMML NIL=
201111211415 METAR LMML 211415Z 13016KT 9999 SCT012 19/17 Q1016 TEMPO
                        BKN012=
201111211400 METAR LMML NIL=
201111211345 METAR LMML 211345Z 13016KT 9999 SCT013 BKN250 20/17 Q1016
                        TEMPO BKN013=
201111211330 METAR LMML NIL=
201111211315 METAR LMML 211315Z 13017KT 9999 SCT013 BKN250 20/17 Q1016
                        TEMPO BKN013=
201111211300 METAR LMML NIL=
201111211245 METAR LMML 211245Z 13017KT 9999 SCT014 BKN250 20/16 Q1017
                        NOSIG=
201111211230 METAR LMML NIL=
201111211215 METAR LMML 211215Z 13016KT 9999 BKN016 20/16 Q1017 NOSIG=
201111211200 METAR LMML NIL=
201111211145 METAR LMML 211145Z 13016KT 9999 BKN017 20/16 Q1018 NOSIG=
201111211130 METAR LMML NIL=
201111211115 METAR LMML 211115Z 13015KT 100V160 9999 BKN017 20/16 Q1018
                        NOSIG=
201111211045 METAR LMML 211045Z 13015KT 9999 BKN017 BKN250 19/16 Q1018
                        NOSIG=
201111211030 METAR LMML NIL=
201111211015 METAR LMML 211015Z 13016KT 9999 BKN017 BKN250 19/16 Q1018
                        NOSIG=
201111211000 METAR LMML NIL=
201111210945 METAR LMML 210945Z 13015KT 9999 BKN017 BKN250 20/16 Q1019
                        NOSIG=
201111210930 METAR LMML NIL=
201111210915 METAR LMML 210915Z 13014KT 9999 BKN018 BKN250 19/16 Q1019
                        NOSIG=
201111210900 METAR LMML NIL=
201111210845 METAR LMML 210845Z 13017KT 9999 BKN017 19/16 Q1019 NOSIG=
201111210830 METAR LMML NIL=
201111210815 METAR LMML 210815Z 13015KT 9999 BKN019 19/15 Q1019 NOSIG=
201111210745 METAR LMML 210745Z 13014KT 9999 BKN019 BKN250 19/15 Q1019
                        NOSIG=
201111210730 METAR LMML NIL=
201111210715 METAR LMML 210715Z 13016KT 9999 SCT020 BKN250 18/15 Q1018
                        NOSIG=
201111210700 METAR LMML NIL=
201111210645 METAR LMML 210645Z 13014KT 9999 SCT019 BKN250 18/15 Q1018
                        NOSIG=
201111210630 METAR LMML NIL=
201111210615 METAR LMML 210615Z 13013KT 9999 SCT019 BKN250 18/15 Q1018
                        NOSIG=
201111210545 METAR LMML 210545Z 13011KT 9999 BKN017 17/15 Q1018 NOSIG=
201111210515 METAR LMML 210515Z 13012KT 9999 SCT017 17/15 Q1018 NOSIG=
201111210500 METAR LMML NIL=
201111210445 METAR LMML 210445Z 13011KT 100V160 9999 SCT018 17/15 Q1018
                        NOSIG=
201111210430 METAR LMML NIL=
201111210415 METAR LMML 210415Z 13014KT 9999 SCT019 17/15 Q1018 NOSIG=
201111210400 METAR LMML NIL=
201111210345 METAR LMML 210345Z 13012KT 9999 BKN018 17/15 Q1018 NOSIG=
201111210330 METAR LMML NIL=
201111210315 METAR LMML 210315Z 13009KT 9999 SCT018 17/15 Q1018 NOSIG=
201111210300 METAR LMML NIL=
201111210245 METAR LMML 210245Z 13010KT 9999 SCT018 17/15 Q1019 NOSIG=
201111210230 METAR LMML NIL=
201111210215 METAR LMML 210215Z 14009KT 9999 SCT018 17/15 Q1019 NOSIG=
201111210200 METAR LMML NIL=
201111210145 METAR LMML 210145Z 14009KT 9999 FEW015 SCT020 17/15 Q1019
                        NOSIG=
201111210130 METAR LMML NIL=
201111210115 METAR LMML 210115Z 14009KT 9999 SCT016 SCT024 17/15 Q1019
                        NOSIG=
201111210100 METAR LMML NIL=
201111210045 METAR LMML 210045Z 14010KT 9999 FEW014 SCT020 17/15 Q1019
                        NOSIG=
201111210030 METAR LMML NIL=
201111210015 METAR LMML 210015Z 14009KT 9999 SCT014 17/15 Q1019 NOSIG=
201111202345 METAR LMML 202345Z 13006KT 9999 SCT015 16/15 Q1020 NOSIG=
201111202330 METAR LMML NIL=
201111202315 METAR LMML 202315Z 13006KT 9999 FEW017 16/14 Q1020 NOSIG=
201111202300 METAR LMML NIL=
201111202245 METAR LMML 202245Z 14006KT 9999 FEW015 17/14 Q1020 NOSIG=
201111202230 METAR LMML NIL=
201111202215 METAR LMML 202215Z 14006KT 9999 FEW014 16/14 Q1020 NOSIG=
201111202200 METAR LMML NIL=
201111202145 METAR LMML 202145Z 12007KT 9999 FEW019 16/14 Q1020 NOSIG=
201111202130 METAR LMML NIL=
201111202115 METAR LMML 202115Z 13006KT 9999 FEW018 16/14 Q1020 NOSIG=
201111202100 METAR LMML NIL=
201111202045 METAR LMML 202045Z 13006KT 9999 FEW017 16/14 Q1021 NOSIG=
201111202030 METAR LMML NIL=
201111202015 METAR LMML 202015Z 14006KT 9999 FEW015 17/15 Q1021 NOSIG=
201111202000 METAR LMML NIL=
201111201945 METAR LMML 201945Z 12005KT 9999 FEW017 16/14 Q1020 NOSIG=
201111201915 METAR LMML 201915Z 10006KT 9999 FEW017 16/14 Q1020 NOSIG=
201111201900 METAR LMML NIL=
201111201845 METAR LMML 201845Z 12004KT 9999 FEW017 16/14 Q1020 NOSIG=
201111201830 METAR LMML NIL=
201111201815 METAR LMML 201815Z 10004KT 9999 FEW020 16/14 Q1020 NOSIG=
201111201745 METAR LMML 201745Z 12003KT 9999 FEW016 16/14 Q1020 NOSIG=
201111201730 METAR LMML NIL=
201111201715 METAR LMML 201715Z 10003KT 9999 FEW017 16/14 Q1020 NOSIG=
201111201700 METAR LMML NIL=
201111201645 METAR LMML 201645Z 10004KT 9999 FEW017 16/14 Q1020 NOSIG=
201111201630 METAR LMML NIL=
201111201615 METAR LMML 201615Z 11004KT 9999 FEW017 17/14 Q1020 NOSIG=
201111201600 METAR LMML NIL=
201111201545 METAR LMML 201545Z 11006KT 9999 FEW018 18/14 Q1019 NOSIG=
201111201530 METAR LMML NIL=
201111201515 METAR LMML 201515Z 12006KT 9999 FEW018 18/15 Q1020 NOSIG=
201111201500 METAR LMML NIL=
201111201445 METAR LMML 201445Z 13004KT 090V150 9999 FEW022 19/14 Q1019
                        NOSIG=
201111201430 METAR LMML NIL=
201111201415 METAR LMML 201415Z 13005KT 100V180 9999 FEW021 20/14 Q1020
                        NOSIG=
201111201400 METAR LMML NIL=
201111201345 METAR LMML 201345Z 15004KT 120V190 9999 FEW019 SCT250 20/15
                        Q1019 NOSIG=
201111201330 METAR LMML NIL=
201111201315 METAR LMML 201315Z 17005KT 130V210 9999 FEW019 SCT250 20/15
                        Q1020 NOSIG=
201111201300 METAR LMML NIL=
201111201245 METAR LMML 201245Z 16005KT 120V200 9999 FEW017 SCT250 20/14
                        Q1020 NOSIG=
201111201230 METAR LMML NIL=
201111201215 METAR LMML 201215Z 17006KT 130V200 9999 SCT019 SCT250 19/15
                        Q1020 NOSIG=
201111201200 METAR LMML NIL=
201111201145 METAR LMML 201145Z 17006KT 140V200 9999 SCT017 SCT250 20/15
                        Q1020 NOSIG=
201111201130 METAR LMML NIL=
201111201115 METAR LMML 201115Z 16005KT 120V230 9999 FEW017 BKN250 19/15
                        Q1020 NOSIG=
201111201100 METAR LMML NIL=
201111201045 METAR LMML 201045Z 16005KT 130V240 9999 FEW018 BKN250 19/14
                        Q1021 NOSIG=
201111201030 METAR LMML NIL=
201111201015 METAR LMML 201015Z 16005KT 130V190 9999 FEW020 BKN250 19/14
                        Q1021 NOSIG=
201111201000 METAR LMML NIL=
201111200945 METAR LMML 200945Z 18006KT 150V220 9999 FEW021 BKN250 19/14
                        Q1021 NOSIG=
201111200930 METAR LMML NIL=
201111200915 METAR LMML 200915Z 18007KT 120V210 9999 FEW020 BKN250 19/14
                        Q1021 NOSIG=
201111200900 METAR LMML NIL=
201111200845 METAR LMML 200845Z 16005KT 120V190 9999 FEW020 SCT250 19/14
                        Q1021 NOSIG=
201111200830 METAR LMML NIL=
201111200815 METAR LMML 200815Z 14006KT 9999 FEW020 19/14 Q1021 NOSIG=
201111200800 METAR LMML NIL=
201111200745 METAR LMML 200745Z 13007KT 100V160 9999 FEW020 18/14 Q1021
                        NOSIG=
201111200730 METAR LMML NIL=
201111200715 METAR LMML 200715Z 14004KT 9999 FEW020 18/14 Q1021 NOSIG=
201111200700 METAR LMML NIL=
201111200645 METAR LMML 200645Z 14005KT 9999 FEW017 16/14 Q1021 NOSIG=
201111200615 METAR LMML 200615Z VRB02KT 9999 FEW012 16/15 Q1021 NOSIG=
201111200600 METAR LMML NIL=
201111200545 METAR LMML 200545Z 10006KT 050V130 9999 FEW009 SCT011 16/15
                        Q1021 TEMPO 8000 SHRA BKN012=
201111200530 METAR LMML NIL=
201111200515 METAR LMML 200515Z 10006KT 9999 -SHRA SCT012 15/13 Q1020
                        NOSIG=
201111200500 METAR LMML NIL=
201111200445 METAR LMML 200445Z 07008KT 030V110 9999 SCT011 SCT120 15/12
                        Q1021 TEMPO 8000 SHRA BKN015=
201111200430 METAR LMML NIL=
201111200415 METAR LMML 200415Z 08003KT 9999 SCT011 SCT120 15/13 Q1021
                        TEMPO 5000 TSRA BKN013CB=
201111200400 METAR LMML NIL=
201111200345 METAR LMML 200345Z 03003KT 9999 TS SCT011CB SCT080 15/13
                        Q1021 TEMPO 5000 TSRA BKN015CB=
201111200330 METAR LMML NIL=
201111200315 METAR LMML 200315Z 10007KT 9999 TS FEW015 SCT070 15/12 Q1021
                        NOSIG=
201111200300 METAR LMML NIL=
201111200245 METAR LMML 200245Z 11009KT 9999 TS FEW015CB 15/13 Q1021 NOSIG=
201111200215 METAR LMML 200215Z 12009KT 9999 TS FEW015CB 15/13 Q1020 TEMPO
                        NSW FEW015=
201111200200 METAR LMML NIL=
201111200145 METAR LMML 200145Z 13010KT 9999 TS SCT017CB 15/13 Q1021 TEMPO
                        NSW SCT020=
201111200130 METAR LMML NIL=
201111200115 METAR LMML 200115Z 13009KT 9999 TS BKN017CB 16/13 Q1021 BECMG
                        NSW SCT020=
201111200100 METAR LMML NIL=
201111200045 METAR LMML 200045Z 14010KT 9999 TS BKN017CB 15/13 Q1021 NOSIG=
201111200030 METAR LMML NIL=
201111200015 METAR LMML 200015Z 14009KT 120V180 9999 TS BKN017CB 16/14
                        Q1021 TEMPO 3000 TSRA BKN015CB=
201111200000 METAR LMML NIL=
201111192345 METAR LMML 192345Z 15010KT 120V180 9999 TS FEW011 SCT017CB
                        16/14 Q1021 TEMPO 3000 TSRA BKN015CB=
201111192330 METAR LMML NIL=
201111192315 METAR LMML 192315Z 17007KT 130V200 9999 TS FEW013CB SCT017
                        BKN058 16/14 Q1021 TEMPO 3000 TSRA
                        BKN013CB=
201111192300 METAR LMML NIL=
201111192245 METAR LMML 192245Z 16008KT 120V190 9999 TS BKN013 FEW016CB
                        BKN050 17/15 Q1021 TEMPO 3000 TSRA
                        BKN013CB=
201111192230 METAR LMML NIL=
201111192215 METAR LMML 192215Z 13009KT 100V160 9999 TS SCT014 BKN016CB
                        17/15 Q1021 TEMPO 3000 TSRA BKN014CB=
201111192200 METAR LMML NIL=
201111192145 METAR LMML 192145Z 14012KT 9000 SHRA BKN016 17/15 Q1021 TEMPO
                        BKN015 RMK LIGHTNING TO N=
201111192130 METAR LMML NIL=
201111192115 METAR LMML 192115Z 15007KT 120V190 9999 -SHRA SCT015 BKN060
                        BKN070 17/14 Q1021 TEMPO 8000 SHRA
                        BKN015=
201111192100 METAR LMML NIL=
201111192045 METAR LMML 192045Z 14007KT 110V170 9999 FEW014 SCT120 17/15
                        Q1021 NOSIG=
201111192030 METAR LMML NIL=
201111192015 METAR LMML 192015Z 14007KT 9999 FEW014 SCT070 17/15 Q1021
                        NOSIG=
201111192000 METAR LMML NIL=
201111191945 METAR LMML 191945Z 15006KT 120V190 9999 FEW014 SCT100 17/14
                        Q1021 NOSIG=
201111191930 METAR LMML NIL=
201111191915 METAR LMML 191915Z 15008KT 120V180 9999 FEW015 BKN049 BKN130
                        17/14 Q1021 NOSIG=
201111191900 METAR LMML NIL=
201111191845 METAR LMML 191845Z 14007KT 9999 FEW015 SCT050 BKN120 17/14
                        Q1021 NOSIG=
201111191830 METAR LMML NIL=
201111191815 METAR LMML 191815Z 14007KT 9999 FEW042 BKN090 BKN120 17/14
                        Q1021 NOSIG RMK LIGHTNING TO N=
201111191800 METAR LMML NIL=
201111191745 METAR LMML 191745Z 14009KT 110V170 9999 FEW015 BKN120 BKN250
                        17/14 Q1021 NOSIG=
201111191730 METAR LMML NIL=
201111191715 METAR LMML 191715Z 13009KT 9999 FEW020 BKN120 BKN250 17/13
                        Q1020 NOSIG=
201111191700 METAR LMML NIL=
201111191645 METAR LMML 191645Z 14008KT 9999 FEW020 BKN120 BKN250 17/14
                        Q1020 NOSIG=
201111191630 METAR LMML NIL=
201111191615 METAR LMML 191615Z 14006KT 9999 FEW020 BKN120 BKN250 17/13
                        Q1020 NOSIG=
201111191545 METAR LMML 191545Z 15006KT 9999 FEW020 BKN120 17/13 Q1020
                        NOSIG=
201111191530 METAR LMML NIL=
201111191515 METAR LMML 191515Z 15009KT 9999 FEW020 SCT040 BKN120 17/13
                        Q1020 NOSIG=
201111191500 METAR LMML NIL=
201111191445 METAR LMML 191445Z 16009KT 9999 SCT020 SCT045 BKN120 17/14
                        Q1020 NOSIG=
201111191430 METAR LMML NIL=
201111191415 METAR LMML 191415Z 15009KT 9999 BKN020 BKN120 18/14 Q1020
                        NOSIG=
201111191345 METAR LMML 191345Z 14009KT 110V170 9999 SCT019 BKN120 18/14
                        Q1020 NOSIG=
201111191315 METAR LMML 191315Z 14009KT 9999 FEW020 BKN100 19/14 Q1020
                        NOSIG=
201111191245 METAR LMML 191245Z 14009KT 110V170 9999 SCT022 BKN100 19/13
                        Q1021 NOSIG=
201111191230 METAR LMML NIL=
201111191215 METAR LMML 191215Z 15008KT 110V180 9999 FEW022 BKN100 19/14
                        Q1021 NOSIG=
201111191200 METAR LMML NIL=
201111191145 METAR LMML 191145Z 13009KT 9999 FEW023 BKN100 19/13 Q1021
                        NOSIG=
201111191130 METAR LMML NIL=
201111191115 METAR LMML 191115Z 16008KT 120V200 9999 FEW020 19/14 Q1021
                        NOSIG=
201111191100 METAR LMML NIL=
201111191045 METAR LMML 191045Z 14008KT 090V180 9999 SCT019 BKN080 19/14
                        Q1022 NOSIG=
201111191015 METAR LMML 191015Z 13008KT 100V170 9999 SCT018 BKN080 19/14
                        Q1022 NOSIG=
201111191000 METAR LMML NIL=
201111190945 METAR LMML 190945Z 12007KT 090V160 9999 SCT018 BKN080 19/15
                        Q1023 NOSIG=
201111190930 METAR LMML NIL=
201111190915 METAR LMML 190915Z 12008KT 090V150 9999 SCT017 BKN100 19/14
                        Q1023 NOSIG=
201111190900 METAR LMML NIL=
201111190845 METAR LMML 190845Z 11007KT 080V140 9999 FEW020 BKN080 18/14
                        Q1023 NOSIG=
201111190830 METAR LMML NIL=
201111190815 METAR LMML 190815Z 11006KT 9999 FEW019 BKN120 17/14 Q1023
                        NOSIG=
201111190800 METAR LMML NIL=
201111190745 METAR LMML 190745Z 10004KT 050V140 9999 FEW020 BKN120 17/13
                        Q1023 NOSIG=
201111190730 METAR LMML NIL=
201111190715 METAR LMML 190715Z VRB01KT 9999 FEW021 SCT080 16/13 Q1022
                        NOSIG=
201111190700 METAR LMML NIL=
201111190645 METAR LMML 190645Z VRB02KT 9999 FEW021 15/13 Q1022 NOSIG=
201111190630 METAR LMML NIL=
201111190615 METAR LMML 190615Z VRB02KT 9999 FEW022 12/11 Q1022 NOSIG=
201111190545 METAR LMML 190545Z 10003KT 9999 FEW024 12/11 Q1022 NOSIG=
201111190530 METAR LMML NIL=
201111190515 METAR LMML 190515Z 12003KT 9999 FEW025 13/12 Q1022 NOSIG=
201111190500 METAR LMML NIL=
201111190445 METAR LMML 190445Z 00000KT 9999 FEW024 12/11 Q1022 NOSIG=
201111190430 METAR LMML NIL=
201111190415 METAR LMML 190415Z 00000KT 9999 FEW022 12/11 Q1021 NOSIG=
201111190400 METAR LMML NIL=
201111190345 METAR LMML 190345Z VRB02KT 9999 FEW025 12/11 Q1021 NOSIG=
201111190330 METAR LMML NIL=
201111190315 METAR LMML 190315Z VRB02KT 9999 FEW023 13/10 Q1021 NOSIG=
201111190300 METAR LMML NIL=
201111190245 METAR LMML 190245Z 08004KT 9999 FEW023 13/11 Q1021 NOSIG=
201111190230 METAR LMML NIL=
201111190215 METAR LMML 190215Z 07003KT 9999 FEW023 13/11 Q1021 NOSIG=
201111190200 METAR LMML NIL=
201111190145 METAR LMML 190145Z 08004KT 9999 FEW023 14/11 Q1021 NOSIG=
201111190130 METAR LMML NIL=
201111190115 METAR LMML 190115Z 08004KT 9999 FEW022 13/11 Q1021 NOSIG=
201111190100 METAR LMML NIL=
201111190045 METAR LMML 190045Z 08003KT 9999 FEW023 13/11 Q1022 NOSIG=
201111190030 METAR LMML NIL=
201111190015 METAR LMML 190015Z 08003KT 9999 FEW023 14/10 Q1022 NOSIG=
201111190000 METAR LMML NIL=
201111182345 METAR LMML 182345Z 08003KT 9999 FEW023 14/11 Q1022 NOSIG=
201111182330 METAR LMML NIL=
201111182315 METAR LMML 182315Z 07004KT 9999 FEW023 14/11 Q1022 NOSIG=
201111182245 METAR LMML 182245Z 06004KT 9999 FEW023 14/11 Q1022 NOSIG=
201111182230 METAR LMML NIL=
201111182215 METAR LMML 182215Z 05004KT 020V080 9999 FEW026 14/11 Q1022
                        NOSIG=
201111182200 METAR LMML NIL=
201111182145 METAR LMML 182145Z 06005KT 9999 FEW025 14/11 Q1022 NOSIG=
201111182130 METAR LMML NIL=
201111182115 METAR LMML 182115Z 06005KT 030V090 9999 FEW025 15/11 Q1022
                        NOSIG=
201111182100 METAR LMML NIL=
201111182045 METAR LMML 182045Z 06005KT 030V100 9999 FEW025 15/11 Q1023
                        NOSIG=
201111182030 METAR LMML NIL=
201111182015 METAR LMML 182015Z 05005KT 020V090 9999 FEW023 15/11 Q1022
                        NOSIG=
201111182000 METAR LMML NIL=
201111181945 METAR LMML 181945Z 05005KT 020V090 9999 FEW029 15/10 Q1022
                        NOSIG=
201111181930 METAR LMML NIL=
201111181915 METAR LMML 181915Z 05007KT 020V080 9999 FEW028 15/10 Q1022
                        NOSIG=
201111181900 METAR LMML NIL=
201111181845 METAR LMML 181845Z 05007KT 020V090 9999 FEW026 15/10 Q1022
                        NOSIG=
201111181830 METAR LMML NIL=
201111181815 METAR LMML 181815Z 05007KT 020V080 9999 FEW027 15/11 Q1022
                        NOSIG=
201111181745 METAR LMML 181745Z 05007KT 020V080 9999 FEW028 15/11 Q1022
                        NOSIG=
201111181730 METAR LMML NIL=
201111181715 METAR LMML 181715Z 05008KT 020V080 9999 FEW030 15/10 Q1022
                        NOSIG=
201111181700 METAR LMML NIL=
201111181645 METAR LMML 181645Z 05008KT 020V080 9999 FEW031 15/10 Q1022
                        NOSIG=
201111181630 METAR LMML NIL=
201111181615 METAR LMML 181615Z 06008KT 360V100 9999 FEW031 16/10 Q1021
                        NOSIG=
201111181600 METAR LMML NIL=
201111181545 METAR LMML 181545Z 06008KT 020V100 9999 FEW031 16/10 Q1021
                        NOSIG=
201111181530 METAR LMML NIL=
201111181515 METAR LMML 181515Z 05009KT 020V080 9999 FEW031 17/10 Q1022
                        NOSIG=
201111181500 METAR LMML NIL=
201111181445 METAR LMML 181445Z 05010KT 020V080 9999 FEW031 17/10 Q1022
                        NOSIG=
201111181430 METAR LMML NIL=
201111181415 METAR LMML 181415Z 05010KT 010V090 9999 FEW031 17/10 Q1021
                        NOSIG=
201111181400 METAR LMML NIL=
201111181345 METAR LMML 181345Z 05012KT 020V090 9999 FEW030 18/10 Q1021
                        NOSIG=
201111181330 METAR LMML NIL=
201111181315 METAR LMML 181315Z 06011KT 020V100 9999 FEW030 18/10 Q1021
                        NOSIG=
201111181300 METAR LMML NIL=
201111181245 METAR LMML 181245Z 05013KT 020V080 9999 FEW030 18/09 Q1022
                        NOSIG=
201111181230 METAR LMML NIL=
201111181215 METAR LMML 181215Z 05012KT 010V090 9999 FEW030 18/10 Q1022
                        NOSIG=
201111181200 METAR LMML NIL=
201111181145 METAR LMML 181145Z 06011KT 030V110 9999 FEW030 18/10 Q1022
                        NOSIG=
201111181130 METAR LMML NIL=
201111181115 METAR LMML 181115Z 05014KT 020V090 9999 FEW030 18/09 Q1022
                        NOSIG=
201111181100 METAR LMML NIL=
201111181045 METAR LMML 181045Z 06014KT 020V080 9999 FEW030 18/10 Q1022
                        NOSIG=
201111181030 METAR LMML NIL=
201111181015 METAR LMML 181015Z 05012KT 020V090 9999 FEW030 SCT120 18/10
                        Q1022 NOSIG=
201111181000 METAR LMML NIL=
201111180945 METAR LMML 180945Z 06011KT 030V090 9999 FEW030 BKN110 18/10
                        Q1022 NOSIG=
201111180930 METAR LMML NIL=
201111180915 METAR LMML 180915Z 06011KT 030V100 9999 FEW031 BKN110 17/10
                        Q1022 NOSIG=
201111180900 METAR LMML NIL=
201111180845 METAR LMML 180845Z 06010KT 040V100 9999 FEW033 SCT100 17/11
                        Q1022 NOSIG=
201111180830 METAR LMML NIL=
201111180815 METAR LMML 180815Z 07010KT 040V100 9999 FEW031 BKN110 16/10
                        Q1022 NOSIG=
201111180800 METAR LMML NIL=
201111180745 METAR LMML 180745Z 07010KT 030V100 9999 FEW028 BKN090 BKN110
                        16/11 Q1022 NOSIG=
201111180730 METAR LMML NIL=
201111180715 METAR LMML 180715Z 07010KT 040V100 9999 FEW029 SCT090 BKN110
                        16/11 Q1022 NOSIG=
201111180700 METAR LMML NIL=
201111180645 METAR LMML 180645Z 07010KT 040V100 9999 FEW030 SCT090 BKN110
                        16/10 Q1021 NOSIG=
201111180630 METAR LMML NIL=
201111180615 METAR LMML 180615Z 06009KT 040V100 9999 FEW031 SCT050 BKN110
                        15/10 Q1021 NOSIG=
201111180600 METAR LMML NIL=
201111180545 METAR LMML 180545Z 06010KT 030V090 9999 FEW020 SCT032 BKN048
                        15/10 Q1021 NOSIG=
201111180530 METAR LMML NIL=
201111180515 METAR LMML 180515Z 06009KT 030V090 9999 FEW029 SCT045 BKN060
                        15/11 Q1021 NOSIG=
201111180500 METAR LMML NIL=
201111180445 METAR LMML 180445Z 06009KT 030V100 9000 -RA FEW015 SCT028
                        BKN046 15/11 Q1021 NOSIG=
201111180430 METAR LMML NIL=
201111180415 METAR LMML 180415Z 04009KT 010V070 6000 -RA FEW015 SCT028
                        OVC046 14/12 Q1021 NOSIG=
201111180345 METAR LMML 180345Z 08007KT 7000 -RA FEW007 BKN046 14/13 Q1020
                        NOSIG=
201111180330 METAR LMML NIL=
201111180315 METAR LMML 180315Z 08010KT 050V110 7000 -RA FEW007 OVC041
                        14/13 Q1020 NOSIG=
201111180300 METAR LMML NIL=
201111180245 METAR LMML 180245Z 07009KT 040V100 6000 -RA FEW010 BKN049
                        14/13 Q1020 NOSIG=
201111180230 METAR LMML NIL=
201111180215 METAR LMML 180215Z 07011KT 040V110 7000 -RA FEW009 SCT014
                        BKN047 14/13 Q1020 NOSIG=
201111180145 METAR LMML 180145Z 03008KT 360V070 8000 -SHRA FEW009 BKN017
                        BKN050 14/13 Q1020 RESHRA NOSIG=
201111180115 METAR LMML 180115Z 08005KT 040V100 9000 -SHRA FEW008 SCT017
                        BKN050 15/13 Q1020 NOSIG=
201111180100 METAR LMML NIL=
201111180045 METAR LMML 180045Z 05005KT 020V090 9999 SCT021 BKN070 14/13
                        Q1020 TEMPO SHRA=
201111180030 METAR LMML NIL=
201111180015 METAR LMML 180015Z 06009KT 020V080 6000 -SHRA FEW010 SCT022
                        BKN080 15/13 Q1020 NOSIG=
201111180000 METAR LMML NIL=
201111172345 METAR LMML 172345Z 07007KT 030V100 9999 SCT018 BKN080 15/13
                        Q1020 TEMPO SHRA=
201111172330 METAR LMML NIL=
201111172315 METAR LMML 172315Z 07005KT 9999 SCT019 BKN090 15/12 Q1020
                        TEMPO SHRA=
201111172300 METAR LMML NIL=
201111172245 METAR LMML 172245Z 07005KT 040V100 9999 FEW020 BKN080 15/12
                        Q1020 TEMPO SHRA=
201111172230 METAR LMML NIL=
201111172215 METAR LMML 172215Z 07006KT 9999 SCT022 BKN080 15/12 Q1020
                        TEMPO SHRA=
201111172200 METAR LMML NIL=
201111172145 METAR LMML 172145Z 09006KT 060V120 9999 BKN021 BKN080 15/12
                        Q1020 TEMPO SHRA=
201111172130 METAR LMML NIL=
201111172115 METAR LMML 172115Z 09007KT 070V130 9999 BKN019 BKN080 15/13
                        Q1020 TEMPO SHRA=
201111172100 METAR LMML NIL=
201111172045 METAR LMML 172045Z 09007KT 9999 SCT018 BKN080 15/12 Q1020
                        TEMPO SHRA=
201111172030 METAR LMML NIL=
201111172015 METAR LMML 172015Z 08004KT 9999 SCT019 BKN080 15/12 Q1020
                        NOSIG=
201111172000 METAR LMML NIL=
201111171945 METAR LMML 171945Z 07004KT 030V100 9999 SCT019 BKN080 15/13
                        Q1020 NOSIG=
201111171930 METAR LMML NIL=
201111171915 METAR LMML 171915Z 06004KT 030V090 9999 FEW020 SCT060 BKN080
                        15/13 Q1020 NOSIG=
201111171900 METAR LMML NIL=
201111171845 METAR LMML 171845Z 06005KT 030V100 9999 SCT016 BKN080 15/13
                        Q1019 NOSIG=
201111171830 METAR LMML NIL=
201111171815 METAR LMML 171815Z 06006KT 040V100 9999 FEW015 SCT080 15/13
                        Q1019 NOSIG=
201111171800 METAR LMML NIL=
201111171745 METAR LMML 171745Z 06006KT 030V100 9999 SCT014 BKN100 15/13
                        Q1019 NOSIG=
201111171730 METAR LMML NIL=
201111171715 METAR LMML 171715Z 06007KT 010V090 9999 SCT017 BKN080 15/12
                        Q1019 NOSIG=
201111171700 METAR LMML NIL=
201111171645 METAR LMML 171645Z 07005KT 040V100 9999 FEW020 BKN080 15/13
                        Q1019 NOSIG=
201111171630 METAR LMML NIL=
201111171615 METAR LMML 171615Z 07005KT 030V130 9999 SCT019 BKN100 15/13
                        Q1018 NOSIG=
201111171600 METAR LMML NIL=
201111171545 METAR LMML 171545Z 06004KT 030V100 9999 -RA SCT015 BKN080
                        15/14 Q1018 NOSIG=
201111171530 METAR LMML NIL=
201111171515 METAR LMML 171515Z 07005KT 040V100 9999 -RA SCT015 BKN080
                        16/14 Q1018 NOSIG=
201111171500 METAR LMML NIL=
201111171445 METAR LMML 171445Z 04004KT 010V080 9999 -RA FEW020 SCT034
                        BKN080 16/13 Q1018 NOSIG=
201111171430 METAR LMML NIL=
201111171415 METAR LMML 171415Z 06004KT 020V100 9999 -RA SCT019TCU SCT034
                        BKN080 16/13 Q1018 NOSIG=
201111171345 METAR LMML 171345Z 13004KT 9999 SCT016 SCT040 BKN100 16/13
                        Q1018 TEMPO 8000 RA=
201111171330 METAR LMML NIL=
201111171315 METAR LMML 171315Z 14004KT 9999 SCT016 SCT040 BKN120 16/12
                        Q1018 TEMPO 8000 RA=
201111171300 METAR LMML NIL=
201111171245 METAR LMML 171245Z 14006KT 110V170 9999 SCT018 SCT040 BKN100
                        16/13 Q1018 TEMPO 8000 RA=
201111171230 METAR LMML NIL=
201111171215 METAR LMML 171215Z 15006KT 110V190 9999 FEW018 SCT040 BKN100
                        17/13 Q1018 TEMPO 8000 RA=
201111171145 METAR LMML 171145Z 15007KT 110V190 9999 FEW020 SCT044 BKN100
                        17/13 Q1018 TEMPO 8000 RA=
201111171130 METAR LMML NIL=
201111171115 METAR LMML 171115Z 15008KT 120V190 9999 FEW016 SCT040 BKN100
                        17/13 Q1018 TEMPO 8000 RA=
201111171045 METAR LMML 171045Z 15007KT 120V180 9999 FEW014 SCT048 BKN100
                        16/13 Q1018 TEMPO 8000 RA=
201111171030 METAR LMML NIL=
201111171015 METAR LMML 171015Z 12007KT 9999 FEW015 SCT040 BKN100 16/14
                        Q1018 NOSIG=
201111170945 METAR LMML 170945Z 10008KT 9999 FEW012 BKN040 BKN100 16/13
                        Q1018 NOSIG=
201111170915 METAR LMML 170915Z 10008KT 9999 FEW013 BKN041 BKN100 16/13
                        Q1018 NOSIG=
201111170900 METAR LMML NIL=
201111170845 METAR LMML 170845Z 09005KT 9999 FEW018 BKN039 BKN100 16/13
                        Q1018 NOSIG=
201111170830 METAR LMML NIL=
201111170815 METAR LMML 170815Z 10005KT 9999 FEW015 BKN040 BKN100 16/13
                        Q1018 NOSIG=
201111170800 METAR LMML NIL=
201111170745 METAR LMML 170745Z 10005KT 9999 FEW015 BKN044 BKN150 15/13
                        Q1018 NOSIG=
201111170730 METAR LMML NIL=
201111170715 METAR LMML 170715Z 10006KT 9999 FEW015 SCT090 BKN150 15/12
                        Q1017 NOSIG=
201111170700 METAR LMML NIL=
201111170645 METAR LMML 170645Z 11005KT 9999 FEW015TCU SCT090 BKN150 14/12
                        Q1017 NOSIG=
201111170615 METAR LMML 170615Z 10006KT 9999 FEW015TCU BKN100 13/12 Q1017
                        NOSIG=
201111170545 METAR LMML 170545Z 09005KT 060V120 9999 FEW025 BKN080 13/12
                        Q1017 NOSIG=
201111170515 METAR LMML 170515Z 08004KT 040V110 9000 -RA FEW025 BKN045
                        BKN080 13/12 Q1017 BECMG 9999=
201111170445 METAR LMML 170445Z 09009KT 6000 TSRA FEW025CB OVC040 13/13
                        Q1016 BECMG RA SCT020=
201111170430 METAR LMML NIL=
201111170415 METAR LMML 170415Z 06005KT 010V100 4000 TSRA SCT015CB OVC040
                        13/13 Q1017 BECMG 7000 RA SCT020=
201111170345 METAR LMML 170345Z 10006KT 3000 TSRA SCT015CB BKN040 13/13
                        Q1017 BECMG 7000 RA SCT020=
201111170315 METAR LMML 170315Z 09008KT 4000 TSRA SCT012CB OVC050 13/13
                        Q1017 NOSIG=
201111170300 METAR LMML NIL=
201111170245 METAR LMML 170245Z 06006KT 020V090 4000 TSRA SCT011CB OVC050
                        14/13 Q1016 NOSIG=
201111170230 METAR LMML NIL=
201111170215 METAR LMML 170215Z 05006KT 360V100 4000 TSRA SCT009 BKN017CB
                        14/13 Q1017 NOSIG=
201111170145 METAR LMML 170145Z 32016KT 5000 TSRA FEW007 BKN017CB BKN070
                        14/12 Q1017 NOSIG=
201111170130 METAR LMML NIL=
201111170115 METAR LMML 170115Z VRB02KT 9999 TSRA SCT023CB SCT034 BKN070
                        15/14 Q1016 TEMPO 5000 BKN015CB=
201111170100 METAR LMML NIL=
201111170045 METAR LMML 170045Z 14003KT 9999 RA SCT022 BKN060 15/14 Q1016
                        TEMPO 5000 TSRA BKN015CB RMK LIGHTNING
                        TO NE=
201111170030 METAR LMML NIL=
201111170015 METAR LMML 170015Z 14005KT 9999 TSRA FEW021CB SCT026 BKN070
                        16/14 Q1016 TEMPO 5000 BKN015CB=
201111170004 SPECI LMML 170004Z 14005KT 050V210 9999 TSRA SCT025CB BKN050
                        16/14 Q1016 TEMPO 5000 BKN015CB=
201111170000 METAR LMML NIL=
201111162345 METAR LMML 162345Z 16006KT 9999 -RA SCT021 BKN050 16/14 Q1016
                        TEMPO 5000 TSRA BKN015CB=
201111162330 METAR LMML NIL=
201111162315 METAR LMML 162315Z 15007KT 110V190 9999 -RA SCT020 BKN060
                        16/13 Q1017 TEMPO 5000 TSRA BKN015CB=
201111162300 METAR LMML NIL=
201111162245 METAR LMML 162245Z 15006KT 120V190 9999 RA SCT021 BKN070
                        16/13 Q1017 TEMPO 5000 TSRA BKN015CB=
201111162230 METAR LMML NIL=
201111162215 METAR LMML 162215Z 15006KT 120V180 9999 RA SCT020 BKN070
                        16/13 Q1017 TEMPO 6000 SHRA BKN015TCU=
201111162200 METAR LMML NIL=
201111162145 METAR LMML 162145Z 14007KT 9999 -RA SCT021 BKN070 16/13 Q1017
                        TEMPO 6000 SHRA BKN015TCU=
201111162130 METAR LMML NIL=
201111162115 METAR LMML 162115Z 14007KT 9999 -SHRA SCT024 BKN070 16/13
                        Q1017 TEMPO 6000 SHRA BKN015TCU=
201111162100 METAR LMML NIL=
201111162045 METAR LMML 162045Z 14008KT 9999 -SHRA SCT019 BKN090 16/13
                        Q1017 TEMPO 6000 SHRA BKN015TCU=
201111162030 METAR LMML NIL=
201111162015 METAR LMML 162015Z 14007KT 9999 SCT019 BKN080 16/13 Q1017
                        TEMPO 6000 SHRA BKN015TCU=
201111162000 METAR LMML NIL=
201111161945 METAR LMML 161945Z 14007KT 9999 SCT020 BKN070 16/12 Q1017
                        TEMPO 6000 SHRA BKN015TCU=
201111161930 METAR LMML NIL=
201111161915 METAR LMML 161915Z 14007KT 9999 SCT020 BKN090 16/12 Q1017
                        TEMPO 6000 SHRA BKN015TCU=
201111161900 METAR LMML NIL=
201111161845 METAR LMML 161845Z 14008KT 110V170 9999 SCT021 BKN090 16/12
                        Q1016 TEMPO 6000 SHRA BKN015TCU=
201111161830 METAR LMML NIL=
201111161815 METAR LMML 161815Z 15007KT 120V180 9999 FEW021 BKN090 16/12
                        Q1016 TEMPO 6000 SHRA BKN015TCU=
201111161800 METAR LMML NIL=
201111161745 METAR LMML 161745Z 15006KT 9999 FEW022 SCT034 BKN100 15/12
                        Q1016 TEMPO 6000 SHRA BKN015TCU=
201111161730 METAR LMML NIL=
201111161715 METAR LMML 161715Z 14006KT 9999 FEW020 SCT070 BKN120 15/12
                        Q1016 NOSIG=
201111161700 METAR LMML NIL=
201111161645 METAR LMML 161645Z 14006KT 9999 FEW020 SCT070 BKN120 15/12
                        Q1016 NOSIG=
201111161630 METAR LMML NIL=
201111161615 METAR LMML 161615Z 14007KT 9999 FEW020 SCT070 BKN120 15/12
                        Q1016 NOSIG=
201111161600 METAR LMML NIL=
201111161545 METAR LMML 161545Z 15008KT 120V180 9999 SCT016 BKN080 15/12
                        Q1016 NOSIG=
201111161530 METAR LMML NIL=
201111161515 METAR LMML 161515Z 14007KT 9999 FEW021 BKN080 15/11 Q1016
                        NOSIG=
201111161500 METAR LMML NIL=
201111161445 METAR LMML 161445Z 14008KT 9999 FEW022 BKN070 16/11 Q1016
                        NOSIG=
201111161430 METAR LMML NIL=
201111161415 METAR LMML 161415Z 14009KT 9999 FEW020 BKN100 16/12 Q1016
                        NOSIG=
201111161345 METAR LMML 161345Z 15009KT 120V180 9999 -RA FEW015 SCT070
                        BKN110 16/12 Q1016 NOSIG=
201111161330 METAR LMML NIL=
201111161315 METAR LMML 161315Z 14009KT 100V180 9999 -RA FEW012 SCT070
                        BKN120 16/12 Q1016 NOSIG=
201111161300 METAR LMML NIL=
201111161245 METAR LMML 161245Z 14009KT 9999 FEW015 SCT070 BKN120 16/13
                        Q1016 NOSIG=
201111161230 METAR LMML NIL=
201111161215 METAR LMML 161215Z 14010KT 120V180 9999 FEW018 BKN120 16/12
                        Q1016 NOSIG=
201111161200 METAR LMML NIL=
201111161145 METAR LMML 161145Z 14010KT 110V180 9999 -RA FEW014 SCT040
                        BKN090 15/12 Q1016 NOSIG=
201111161130 METAR LMML NIL=
201111161115 METAR LMML 161115Z 13010KT 100V160 9999 FEW013 SCT040 BKN090
                        16/12 Q1016 NOSIG=
201111161045 METAR LMML 161045Z 11009KT 070V140 9999 -RA FEW013 BKN038
                        BKN130 15/13 Q1017 NOSIG=
201111161030 METAR LMML NIL=
201111161015 METAR LMML 161015Z 11009KT 9000 -RA FEW013 OVC040 14/12 Q1017
                        TEMPO 4000 RA=
201111161000 METAR LMML NIL=
201111160945 METAR LMML 160945Z 11009KT 9000 -RA FEW013 OVC033 14/12 Q1017
                        RERA TEMPO 4000 RA=
201111160930 METAR LMML NIL=
201111160915 METAR LMML 160915Z 12010KT 9000 -RA FEW013 OVC060 14/12 Q1017
                        RERA TEMPO 4000 RA=
201111160900 METAR LMML NIL=
201111160845 METAR LMML 160845Z 11008KT 8000 RA FEW015 OVC060 14/12 Q1017
                        TEMPO 4000 RA=
201111160830 METAR LMML NIL=
201111160815 METAR LMML 160815Z 14010KT 8000 -RA FEW012 OVC060 13/12 Q1018
                        TEMPO 4000 RA=
201111160800 METAR LMML NIL=
201111160745 METAR LMML 160745Z 13010KT 8000 -RA FEW011 OVC060 13/12 Q1017
                        TEMPO 4000 RA=
201111160730 METAR LMML NIL=
201111160715 METAR LMML 160715Z 12012KT 8000 -RA FEW012 OVC060 14/12 Q1017
                        TEMPO 4000 RA=
201111160700 METAR LMML NIL=
201111160645 METAR LMML 160645Z 11011KT 070V140 8000 -RA FEW012 OVC060
                        14/11 Q1017 TEMPO 4000 RA=
201111160630 METAR LMML NIL=
201111160615 METAR LMML 160615Z 11010KT 8000 -RA FEW012 OVC060 13/11 Q1016
                        TEMPO 4000 RA=
201111160600 METAR LMML NIL=
201111160545 METAR LMML 160545Z 11008KT 6000 -RA FEW012 OVC041 13/11 Q1016
                        TEMPO 4000 RA=
201111160530 METAR LMML NIL=
201111160515 METAR LMML 160515Z 11010KT 5000 RA FEW008 BKN043 13/12 Q1016
                        TEMPO 2000 TSRA BKN015CB=
201111160500 METAR LMML NIL=
201111160445 METAR LMML 160445Z 12011KT 5000 RA FEW008 OVC047 13/12 Q1016
                        TEMPO 2000 TSRA BKN015CB=
201111160430 METAR LMML NIL=
201111160415 METAR LMML 160415Z 13009KT 5000 RA FEW010 BKN036 BKN070 13/12
                        Q1016 TEMPO 2000 TSRA BKN015CB=
201111160400 METAR LMML NIL=
201111160345 METAR LMML 160345Z 13009KT 6000 -RA SCT010 SCT038 BKN080
                        13/13 Q1016 TEMPO BKN010=
201111160330 METAR LMML NIL=
201111160315 METAR LMML 160315Z 11009KT 6000 -RA SCT009 BKN049 13/13 Q1016
                        TEMPO BKN009=
201111160300 METAR LMML NIL=
201111160245 METAR LMML 160245Z 10009KT 4000 RA FEW006 SCT016 OVC041 14/14
                        Q1016 TEMPO BKN015=
201111160230 METAR LMML NIL=
201111160215 METAR LMML 160215Z 11009KT 4000 RA FEW014 OVC030 14/14 Q1016
                        NOSIG=
201111160200 METAR LMML NIL=
201111160145 METAR LMML 160145Z 14009KT 5000 RA SCT005 OVC031 14/14 Q1017
                        NOSIG=
201111160130 METAR LMML NIL=
201111160115 METAR LMML 160115Z 14008KT 5000 RA FEW007 OVC035 14/13 Q1017
                        NOSIG=
201111160100 METAR LMML NIL=
201111160045 METAR LMML 160045Z 13011KT 6000 RA FEW007 BKN015 OVC029 14/13
                        Q1017 NOSIG=
201111160030 METAR LMML NIL=
201111160015 METAR LMML 160015Z 13008KT 6000 RA SCT008 BKN018 OVC024 14/13
                        Q1017 TEMPO BKN015=
201111152345 METAR LMML 152345Z 14008KT 6000 RA FEW008 BKN018 BKN024 14/13
                        Q1017 NOSIG=
201111152315 METAR LMML 152315Z 14008KT 6000 RA FEW012 BKN024 14/13 Q1017
                        NOSIG=
201111152300 METAR LMML NIL=
201111152245 METAR LMML 152245Z 14008KT 6000 RA FEW011 BKN028 14/12 Q1017
                        NOSIG=
201111152230 METAR LMML NIL=
201111152215 METAR LMML 152215Z 12006KT 100V160 6000 RA BKN025 14/12 Q1018
                        NOSIG=
201111152200 METAR LMML NIL=
201111152145 METAR LMML 152145Z 12009KT 7000 RA FEW021 BKN028 14/12 Q1017
                        NOSIG=
201111152130 METAR LMML NIL=
201111152115 METAR COR LMML 152115Z 11009KT 8000 RA BKN030 15/11 Q1017
                        NOSIG=
201111152100 METAR LMML NIL=
201111152045 METAR LMML 152045Z 13008KT 9999 -RA BKN029 15/10 Q1017 TEMPO
                        8000 RA=
201111152015 METAR LMML 152015Z 14008KT 100V170 9999 BKN039 16/10 Q1017
                        TEMPO 8000 RA=
201111151945 METAR LMML 151945Z 13008KT 9999 -RA BKN033 16/10 Q1017 TEMPO
                        8000 RA=
201111151930 METAR LMML NIL=
201111151915 METAR LMML 151915Z 13010KT 9999 FEW021 SCT032 BKN047 16/09
                        Q1017 NOSIG=
201111151900 METAR LMML NIL=
201111151845 METAR LMML 151845Z 15009KT 120V180 9999 FEW021 BKN032 BKN050
                        16/09 Q1017 NOSIG=
201111151830 METAR LMML NIL=
201111151815 METAR LMML 151815Z 14007KT 9999 SCT024 BKN043 16/09 Q1017
                        NOSIG=
201111151800 METAR LMML NIL=
201111151745 METAR LMML 151745Z 14008KT 9999 FEW038 BKN050 15/09 Q1017
                        NOSIG=
201111151730 METAR LMML NIL=
201111151715 METAR LMML 151715Z 13008KT 9999 FEW036 BKN050 15/09 Q1017
                        NOSIG=
201111151645 METAR LMML 151645Z 13008KT 9999 SCT041 BKN070 15/09 Q1017
                        NOSIG=
201111151630 METAR LMML NIL=
201111151615 METAR LMML 151615Z 14007KT 9999 FEW034 BKN070 15/09 Q1017
                        NOSIG=
201111151600 METAR LMML NIL=
201111151545 METAR LMML 151545Z 14006KT 9999 SCT038 SCT070 15/09 Q1017
                        NOSIG=
201111151530 METAR LMML NIL=
201111151515 METAR LMML 151515Z 13008KT 9999 FEW036 SCT041 BKN250 16/09
                        Q1017 NOSIG=
201111151500 METAR LMML NIL=
201111151445 METAR LMML 151445Z 14007KT 9999 BKN037 SCT250 16/09 Q1017
                        NOSIG=
201111151430 METAR LMML NIL=
201111151415 METAR LMML 151415Z 13009KT 9999 BKN037 16/09 Q1017 NOSIG=
201111151400 METAR LMML NIL=
201111151345 METAR LMML 151345Z 14008KT 110V180 9999 BKN034 16/08 Q1017
                        NOSIG=
201111151330 METAR LMML NIL=
201111151315 METAR LMML 151315Z 14008KT 9999 BKN037 16/09 Q1017 NOSIG=
201111151245 METAR LMML 151245Z 15008KT 110V180 9999 BKN038 17/08 Q1017
                        NOSIG=
201111151230 METAR LMML NIL=
201111151215 METAR LMML 151215Z 15009KT 9999 BKN036 17/09 Q1017 NOSIG=
201111151200 METAR LMML NIL=
201111151145 METAR LMML 151145Z 13009KT 100V160 9999 SCT036 17/09 Q1017
                        NOSIG=
201111151115 METAR LMML 151115Z 12009KT 100V160 9999 BKN036 16/09 Q1018
                        NOSIG=
201111151100 METAR LMML NIL=
201111151045 METAR LMML 151045Z 14008KT 110V170 9999 FEW034 SCT050 17/09
                        Q1018 NOSIG=
201111151030 METAR LMML NIL=
201111151015 METAR LMML 151015Z 12008KT 090V160 9999 BKN036 17/09 Q1018
                        NOSIG=
201111150945 METAR LMML 150945Z 12008KT 9999 BKN036 16/09 Q1019 NOSIG=
201111150915 METAR LMML 150915Z 11007KT 9999 BKN035 16/09 Q1019 NOSIG=
201111150900 METAR LMML NIL=
201111150845 METAR LMML 150845Z 11007KT 070V140 9999 BKN035 16/09 Q1019
                        NOSIG=
201111150830 METAR LMML NIL=
201111150815 METAR LMML 150815Z 11007KT 9999 SCT035 SCT043 16/09 Q1019
                        NOSIG=
201111150745 METAR LMML 150745Z 11007KT 050V150 9999 FEW032 SCT070 15/09
                        Q1018 NOSIG=
201111150715 METAR LMML 150715Z 11006KT 080V140 9999 FEW035 SCT070 15/09
                        Q1018 NOSIG=
201111150700 METAR LMML NIL=
201111150645 METAR LMML 150645Z 11005KT 9999 FEW035 SCT070 14/09 Q1018
                        NOSIG=
201111150615 METAR LMML 150615Z 11005KT 9999 FEW037 BKN080 14/09 Q1018
                        NOSIG=
201111150600 METAR LMML NIL=
201111150545 METAR LMML 150545Z 10004KT 9999 SCT035 BKN070 13/08 Q1018
                        NOSIG=
201111150530 METAR LMML NIL=
201111150515 METAR LMML 150515Z 11003KT 9999 SCT036 BKN070 13/09 Q1018
                        NOSIG=
201111150445 METAR LMML 150445Z 08004KT 020V130 9999 FEW030 BKN070 14/09
                        Q1018 NOSIG=
201111150430 METAR LMML NIL=
201111150415 METAR LMML 150415Z 09004KT 9999 FEW030 BKN044 14/09 Q1018
                        NOSIG=
201111150400 METAR LMML NIL=
201111150345 METAR LMML 150345Z 06004KT 9999 BKN045 14/09 Q1018 NOSIG=
201111150330 METAR LMML NIL=
201111150315 METAR LMML 150315Z 09003KT 9999 FEW025 BKN070 14/09 Q1018
                        NOSIG=
201111150300 METAR LMML NIL=
201111150245 METAR LMML 150245Z 09003KT 9999 FEW025 BKN050 14/08 Q1018
                        NOSIG=
201111150230 METAR LMML NIL=
201111150215 METAR LMML 150215Z VRB02KT 9999 FEW032 BKN050 14/08 Q1018
                        NOSIG=
201111150200 METAR LMML NIL=
201111150145 METAR LMML 150145Z 08004KT 9999 SCT030 BKN060 14/09 Q1018
                        NOSIG=
201111150115 METAR LMML 150115Z 07004KT 9999 SCT030 BKN060 14/09 Q1019
                        NOSIG=
201111150100 METAR LMML NIL=
201111150045 METAR LMML 150045Z 07004KT 9999 SCT031 BKN060 14/10 Q1019
                        NOSIG=
201111150030 METAR LMML NIL=
201111150015 METAR LMML 150015Z 05004KT 010V100 9999 SCT030 BKN060 14/10
                        Q1019 NOSIG=
201111150000 METAR LMML NIL=
201111142345 METAR LMML 142345Z VRB01KT 9999 SCT035 BKN060 14/10 Q1019
                        NOSIG=
201111142330 METAR LMML NIL=
201111142315 METAR LMML 142315Z VRB02KT 9999 SCT036 BKN060 14/09 Q1019
                        NOSIG=
201111142300 METAR LMML NIL=
201111142245 METAR LMML 142245Z VRB02KT 9999 FEW039 BKN070 14/10 Q1020
                        NOSIG=
201111142230 METAR LMML NIL=
201111142215 METAR COR LMML 142215Z VRB02KT 9999 FEW040 BKN070 14/10 Q1020
                        NOSIG=
201111142200 METAR LMML NIL=
201111142145 METAR LMML 142145Z VRB02KT 9999 FEW039 BKN080 14/10 Q1020
                        TEMPO CAVOK=
201111142130 METAR LMML NIL=
201111142115 METAR LMML 142115Z VRB02KT 9999 FEW040 BKN080 14/09 Q1020
                        TEMPO CAVOK=
201111142100 METAR LMML NIL=
201111142045 METAR LMML 142045Z VRB02KT 9999 FEW040 BKN080 14/09 Q1020
                        TEMPO CAVOK=
201111142030 METAR LMML NIL=
201111142015 METAR LMML 142015Z 28003KT 9999 FEW040 BKN070 15/08 Q1020
                        NOSIG=
201111142000 METAR LMML NIL=
201111141945 METAR LMML 141945Z 30003KT 9999 FEW040 BKN080 15/08 Q1020
                        BECMG CAVOK=
201111141930 METAR LMML NIL=
201111141915 METAR LMML 141915Z VRB02KT 9999 FEW041 BKN080 15/08 Q1020
                        NOSIG=
201111141900 METAR LMML NIL=
201111141845 METAR LMML 141845Z 29004KT 9999 FEW041 BKN080 15/08 Q1020
                        NOSIG=
201111141830 METAR LMML NIL=
201111141815 METAR LMML 141815Z 29004KT 9999 FEW030 SCT060 BKN080 15/08
                        Q1020 NOSIG=
201111141800 METAR LMML NIL=
201111141745 METAR LMML 141745Z 30004KT 9999 FEW030 SCT050 BKN080 15/08
                        Q1020 NOSIG=
201111141730 METAR LMML NIL=
201111141715 METAR LMML 141715Z 29004KT 9999 FEW030 SCT050 BKN080 15/08
                        Q1020 NOSIG=
201111141645 METAR LMML 141645Z 30005KT 9999 FEW030 SCT045 BKN080 15/08
                        Q1020 NOSIG=
201111141630 METAR LMML NIL=
201111141615 METAR LMML 141615Z 30005KT 9999 FEW030 BKN046 15/08 Q1020
                        NOSIG=
201111141600 METAR LMML NIL=
201111141545 METAR LMML 141545Z 30005KT 9999 FEW030 BKN046 15/08 Q1020
                        NOSIG=
201111141530 METAR LMML NIL=
201111141515 METAR LMML 141515Z 30006KT 9999 FEW035 BKN070 15/07 Q1020
                        NOSIG=
201111141500 METAR LMML NIL=
201111141445 METAR LMML 141445Z 30006KT 9999 FEW049 BKN075 16/08 Q1020
                        NOSIG=
201111141430 METAR LMML NIL=
201111141415 METAR LMML 141415Z 32006KT 290V350 9999 SCT046 BKN075 15/08
                        Q1021 NOSIG=
201111141400 METAR LMML NIL=
201111141345 METAR LMML 141345Z 34007KT 9999 FEW039 BKN070 16/08 Q1021
                        NOSIG=
201111141330 METAR LMML NIL=
201111141315 METAR LMML 141315Z 34006KT 300V010 9999 FEW038 BKN070 16/08
                        Q1021 NOSIG=
201111141300 METAR LMML NIL=
201111141245 METAR LMML 141245Z 34007KT 300V010 9999 FEW038 BKN070 16/08
                        Q1021 NOSIG=
201111141230 METAR LMML NIL=
201111141215 METAR LMML 141215Z 01005KT 340V040 9999 FEW038 BKN070 19/09
                        Q1021 NOSIG=
201111141145 METAR LMML 141145Z 35007KT 310V040 9999 FEW037 BKN070 17/07
                        Q1022 NOSIG=
201111141130 METAR LMML NIL=
201111141115 METAR LMML 141115Z 01006KT 9999 BKN037 17/08 Q1022 NOSIG=
201111141100 METAR LMML NIL=
201111141045 METAR LMML 141045Z 03005KT 330V080 9999 SCT037 18/08 Q1022
                        NOSIG=
201111141030 METAR LMML NIL=
201111141015 METAR LMML 141015Z 03006KT 340V060 9999 SCT039 18/09 Q1023
                        NOSIG=
201111140945 METAR LMML 140945Z 05006KT 010V100 9999 BKN039 18/08 Q1023
                        NOSIG=
201111140930 METAR LMML NIL=
201111140915 METAR LMML 140915Z 04007KT 010V080 9999 SCT040 18/08 Q1023
                        NOSIG=
201111140900 METAR LMML NIL=
201111140845 METAR LMML 140845Z 06006KT 020V100 9999 SCT042 17/07 Q1023
                        NOSIG=
201111140830 METAR LMML NIL=
201111140815 METAR LMML 140815Z 05007KT 010V080 9999 FEW042 17/07 Q1023
                        NOSIG=
201111140800 METAR LMML NIL=
201111140745 METAR LMML 140745Z 05004KT 010V090 9999 FEW035 17/08 Q1023
                        NOSIG=
201111140730 METAR LMML NIL=
201111140715 METAR LMML 140715Z 06005KT 010V100 9999 FEW035 16/07 Q1023
                        NOSIG=
201111140700 METAR LMML NIL=
201111140645 METAR LMML 140645Z 04004KT 010V070 9999 FEW035 15/07 Q1023
                        NOSIG=
201111140630 METAR LMML NIL=
201111140615 METAR LMML 140615Z 06005KT 360V100 9999 FEW038 14/07 Q1023
                        NOSIG=
201111140600 METAR LMML NIL=
201111140545 METAR LMML 140545Z 06005KT 030V100 9999 FEW038 13/06 Q1023
                        NOSIG=
201111140530 METAR LMML NIL=
201111140515 METAR LMML 140515Z 05006KT 030V090 9999 FEW038 14/05 Q1023
                        NOSIG=
201111140500 METAR LMML NIL=
201111140445 METAR LMML 140445Z 05006KT 020V080 9999 FEW038 14/06 Q1023
                        NOSIG=
201111140430 METAR LMML NIL=
201111140415 METAR LMML 140415Z 05007KT 020V090 9999 FEW040 14/06 Q1023
                        NOSIG=
201111140400 METAR LMML NIL=
201111140345 METAR LMML 140345Z 05007KT 020V080 9999 FEW040 14/07 Q1023
                        NOSIG=
201111140330 METAR LMML NIL=
201111140315 METAR LMML 140315Z 05006KT 020V080 9999 FEW039 14/07 Q1023
                        NOSIG=
201111140300 METAR LMML NIL=
201111140245 METAR LMML 140245Z 06007KT 030V090 9999 FEW040 14/06 Q1023
                        NOSIG=
201111140230 METAR LMML NIL=
201111140215 METAR LMML 140215Z 05008KT 010V090 9999 FEW040 14/07 Q1023
                        NOSIG=
201111140200 METAR LMML NIL=
201111140145 METAR LMML 140145Z 05008KT 020V100 9999 FEW039 14/07 Q1023
                        NOSIG=
201111140130 METAR LMML NIL=
201111140115 METAR LMML 140115Z 05008KT 020V090 9999 FEW039 14/07 Q1023
                        NOSIG=
201111140100 METAR LMML NIL=
201111140045 METAR LMML 140045Z 05007KT 010V080 9999 SCT040 14/07 Q1023
                        NOSIG=
201111140030 METAR LMML NIL=
201111140015 METAR LMML 140015Z 05005KT 020V090 9999 SCT039 14/07 Q1024
                        NOSIG=
201111140000 METAR LMML NIL=
201111132345 METAR LMML 132345Z 06006KT 030V090 9999 FEW039 14/07 Q1024
                        NOSIG=
201111132330 METAR LMML NIL=
201111132315 METAR LMML 132315Z 05007KT 030V090 9999 FEW038 15/07 Q1024
                        NOSIG=
201111132300 METAR LMML NIL=
201111132245 METAR LMML 132245Z 05006KT 020V090 9999 FEW038 SCT050 15/08
                        Q1024 NOSIG=
201111132230 METAR LMML NIL=
201111132215 METAR LMML 132215Z 05006KT 020V120 9999 SCT038 SCT050 15/08
                        Q1025 NOSIG=
201111132200 METAR LMML NIL=
201111132145 METAR LMML 132145Z 05006KT 360V080 9999 SCT032 15/07 Q1025
                        NOSIG=
201111132130 METAR LMML NIL=
201111132115 METAR LMML 132115Z 07009KT 040V110 9999 SCT033 15/08 Q1025
                        NOSIG=
201111132100 METAR LMML NIL=
201111132045 METAR LMML 132045Z 06008KT 020V100 9999 SCT034 15/08 Q1025
                        NOSIG=
201111132030 METAR LMML NIL=
201111132015 METAR LMML 132015Z 06009KT 030V100 9999 SCT032 15/08 Q1025
                        NOSIG=
201111132000 METAR LMML NIL=
201111131945 METAR LMML 131945Z 05009KT 020V100 9999 BKN032 15/09 Q1025
                        NOSIG=
201111131930 METAR LMML NIL=
201111131915 METAR LMML 131915Z 05008KT 020V090 9999 BKN035 15/08 Q1025
                        NOSIG=
201111131900 METAR LMML NIL=
201111131845 METAR LMML 131845Z 06007KT 030V100 9999 SCT035 15/08 Q1025
                        NOSIG=
201111131830 METAR LMML NIL=
201111131815 METAR LMML 131815Z 06009KT 030V090 9999 FEW034 SCT050 15/08
                        Q1024 NOSIG=
201111131745 METAR LMML 131745Z 05007KT 020V100 9999 SCT030 BKN040 15/08
                        Q1024 NOSIG=
201111131730 METAR LMML NIL=
201111131715 METAR LMML 131715Z 06010KT 020V100 9999 SCT031 BKN050 15/08
                        Q1024 NOSIG=
201111131700 METAR LMML NIL=
201111131645 METAR LMML 131645Z 07010KT 030V100 9999 SCT030 BKN050 15/09
                        Q1024 NOSIG=
201111131630 METAR LMML NIL=
201111131615 METAR LMML 131615Z 06011KT 020V090 9999 SCT033 BKN043 15/09
                        Q1024 NOSIG=
201111131600 METAR LMML NIL=
201111131545 METAR LMML 131545Z 06012KT 030V090 9999 SCT032 BKN060 16/09
                        Q1024 NOSIG=
201111131530 METAR LMML NIL=
201111131515 METAR LMML 131515Z 07009KT 030V130 9999 SCT027 BKN042 16/10
                        Q1024 NOSIG=
201111131445 METAR LMML 131445Z 06011KT 020V090 9999 SCT023 BKN040 16/10
                        Q1024 NOSIG=
201111131430 METAR LMML NIL=
201111131415 METAR LMML 131415Z 06012KT 030V100 9999 SCT020 BKN040 16/11
                        Q1023 NOSIG=
201111131400 METAR LMML NIL=
201111131345 METAR LMML 131345Z 06011KT 020V090 9999 FEW020 17/10 Q1023
                        NOSIG=
201111131330 METAR LMML NIL=
201111131315 METAR LMML 131315Z 06011KT 020V100 9999 FEW020 SCT090 17/10
                        Q1023 NOSIG=
201111131300 METAR LMML NIL=
201111131245 METAR LMML 131245Z 06011KT 020V110 9999 FEW017 SCT090 16/10
                        Q1023 NOSIG=
201111131230 METAR LMML NIL=
201111131215 METAR LMML 131215Z 06013KT 020V100 9999 SCT017 SCT090 16/11
                        Q1024 NOSIG=
201111131200 METAR LMML NIL=
201111131145 METAR LMML 131145Z 05014KT 020V090 9999 -SHRA BKN018 BKN090
                        15/12 Q1024 NOSIG=
201111131130 METAR LMML NIL=
201111131115 METAR LMML 131115Z 04008KT 360V090 9999 BKN025 BKN090 17/11
                        Q1024 NOSIG=
201111131100 METAR LMML NIL=
201111131045 METAR LMML 131045Z 05010KT 360V080 9999 SCT022 BKN100 17/11
                        Q1024 NOSIG=
201111131030 METAR LMML NIL=
201111131015 METAR LMML 131015Z 06008KT 020V100 9999 SCT022 17/12 Q1025
                        NOSIG=
201111130945 METAR LMML 130945Z 06009KT 9999 SCT017 17/12 Q1025 NOSIG=
201111130930 METAR LMML NIL=
201111130915 METAR LMML 130915Z 05009KT 020V090 9999 BKN019 SCT100 17/12
                        Q1025 NOSIG=
201111130845 METAR LMML 130845Z 05007KT 010V090 9999 BKN023 SCT100 17/12
                        Q1025 NOSIG=
201111130830 METAR LMML NIL=
201111130815 METAR LMML 130815Z 05007KT 020V080 9999 SCT023 BKN100 17/11
                        Q1025 NOSIG=
201111130745 METAR LMML 130745Z 05006KT 010V090 9999 FEW021 SCT100 17/12
                        Q1025 NOSIG=
201111130730 METAR LMML NIL=
201111130715 METAR LMML 130715Z 05005KT 010V080 9999 FEW023 SCT100 16/11
                        Q1024 NOSIG=
201111130700 METAR LMML NIL=
201111130645 METAR LMML 130645Z 05005KT 020V080 9999 FEW025 OVC100 16/12
                        Q1024 NOSIG=
201111130615 METAR LMML 130615Z 05007KT 020V080 9999 SCT022 BKN100 16/12
                        Q1024 NOSIG=
201111130600 METAR LMML NIL=
201111130545 METAR LMML 130545Z 06004KT 030V090 9999 SCT019 SCT100 15/12
                        Q1024 NOSIG=
201111130530 METAR LMML NIL=
201111130515 METAR LMML 130515Z 05003KT 9999 FEW023 SCT100 15/12 Q1024
                        NOSIG=
201111130500 METAR LMML NIL=
201111130445 METAR LMML 130445Z 06003KT 9999 FEW023 15/11 Q1023 NOSIG=
201111130430 METAR LMML NIL=
201111130415 METAR LMML 130415Z 06003KT 9999 FEW024 15/11 Q1023 NOSIG=
201111130400 METAR LMML NIL=
201111130345 METAR LMML 130345Z 06004KT 020V090 9999 FEW027 15/11 Q1023
                        NOSIG=
201111130330 METAR LMML NIL=
201111130315 METAR LMML 130315Z 06004KT 020V100 9999 FEW032 15/11 Q1023
                        NOSIG=
201111130300 METAR LMML NIL=
201111130245 METAR LMML 130245Z 05005KT 9999 FEW032 15/11 Q1023 NOSIG=
201111130230 METAR LMML NIL=
201111130215 METAR LMML 130215Z 05005KT 360V080 9999 FEW032 15/12 Q1024
                        NOSIG=
201111130200 METAR LMML NIL=
201111130145 METAR LMML 130145Z 04005KT 010V070 9999 FEW030 16/10 Q1024
                        NOSIG=
201111130115 METAR LMML 130115Z 05003KT 9999 SCT030 16/11 Q1024 NOSIG=
201111130100 METAR LMML NIL=
201111130045 METAR LMML 130045Z 06007KT 030V100 9999 SCT026 16/11 Q1024
                        NOSIG=
201111130015 METAR LMML 130015Z 04006KT 010V080 9999 SCT027 16/11 Q1024
                        NOSIG=
201111130000 METAR LMML NIL=
201111122345 METAR LMML 122345Z 05006KT 010V080 9999 SCT029 SCT090 17/11
                        Q1024 NOSIG=
201111122315 METAR LMML 122315Z 06006KT 010V090 9999 SCT027 SCT100 17/11
                        Q1024 NOSIG=
201111122300 METAR LMML NIL=
201111122245 METAR LMML 122245Z 05007KT 020V080 9999 SCT024 SCT100 17/12
                        Q1024 NOSIG=
201111122230 METAR LMML NIL=
201111122215 METAR LMML 122215Z 06007KT 030V090 9999 SCT027 17/12 Q1024
                        NOSIG=
201111122145 METAR LMML 122145Z 05008KT 9999 SCT028 17/12 Q1024 NOSIG=
201111122115 METAR LMML 122115Z 05009KT 010V070 9999 SCT026 17/12 Q1024
                        NOSIG=
201111122100 METAR LMML NIL=
201111122045 METAR LMML 122045Z 05010KT 020V080 9999 SCT025 17/12 Q1024
                        NOSIG=
201111122015 METAR LMML 122015Z 04011KT 010V090 9999 SCT026 17/12 Q1024
                        NOSIG=
201111122000 METAR LMML NIL=
201111121945 METAR LMML 121945Z 05008KT 010V070 9999 SCT023 17/13 Q1024
                        NOSIG=
201111121915 METAR LMML 121915Z 05010KT 020V080 9999 SCT024 BKN080 17/12
                        Q1023 NOSIG=
201111121900 METAR LMML NIL=
201111121845 METAR LMML 121845Z 04009KT 010V080 9999 SCT027 BKN080 17/12
                        Q1023 NOSIG=
201111121830 METAR LMML NIL=
201111121815 METAR LMML 121815Z 04009KT 330V080 9999 SCT027 BKN080 17/11
                        Q1023 NOSIG=
201111121745 METAR LMML 121745Z 03010KT 360V070 9999 SCT023 BKN070 17/13
                        Q1023 TEMPO 8000 SHRA=
201111121715 METAR LMML 121715Z 04009KT 010V080 9999 FEW028 SCT080 17/12
                        Q1023 TEMPO 8000 SHRA=
201111121700 METAR LMML NIL=
201111121645 METAR LMML 121645Z 04011KT 010V070 9999 FEW023 SCT090 17/12
                        Q1023 NOSIG=
201111121630 METAR LMML NIL=
201111121615 METAR LMML 121615Z 04012KT 020V080 9999 SCT023 SCT080 17/13
                        Q1022 TEMPO 8000 SHRA BKN015=
201111121600 METAR LMML NIL=
201111121545 METAR LMML 121545Z 03012KT 360V060 9999 SCT020 SCT080 17/13
                        Q1022 TEMPO 8000 SHRA BKN015=
201111121530 METAR LMML NIL=
201111121515 METAR LMML 121515Z 04008KT 010V080 9999 SCT018 SCT090 17/14
                        Q1022 TEMPO 8000 SHRA BKN015=
201111121500 METAR LMML NIL=
201111121445 METAR LMML 121445Z 04009KT 010V070 9999 -SHRA BKN016 SCT050
                        17/14 Q1022 TEMPO 8000 SHRA BKN015=
201111121430 METAR LMML NIL=
201111121415 METAR LMML 121415Z 04011KT 360V070 9999 SCT019 SCT090 17/14
                        Q1022 TEMPO 8000 SHRA BKN015=
201111121400 METAR LMML NIL=
201111121345 METAR LMML 121345Z 04009KT 360V070 9999 FEW018 BKN090 16/14
                        Q1022 NOSIG=
201111121330 METAR LMML NIL=
201111121315 METAR LMML 121315Z 03012G27KT 350V080 9999 SCT021 SCT033
                        16/14 Q1022 TEMPO 8000 SHRA BKN015TCU=
201111121300 METAR LMML NIL=
201111121245 METAR LMML 121245Z 02011KT 360V070 9999 SCT020TCU SCT024
                        20/13 Q1021 TEMPO 8000 SHRA BKN015TCU=
201111121230 METAR LMML NIL=
201111121215 METAR LMML 121215Z 03013KT 360V070 9999 SCT022 SCT250 19/13
                        Q1021 TEMPO 8000 SHRA BKN020TCU=
201111121200 METAR LMML NIL=
201111121145 METAR LMML 121145Z 03015KT 360V070 9999 SCT021 SCT250 19/13
                        Q1021 TEMPO 8000 SHRA BKN020TCU=
201111121130 METAR LMML NIL=
201111121115 METAR LMML 121115Z 02012G23KT 350V060 9999 BKN022 20/14 Q1022
                        TEMPO 8000 SHRA BKN020TCU=
201111121100 METAR LMML NIL=
201111121045 METAR LMML 121045Z 36012KT 330V040 9999 BKN022 SCT080 19/14
                        Q1022 TEMPO 8000 SHRA=
201111121030 METAR LMML NIL=
201111121015 METAR LMML 121015Z 01012KT 9999 BKN022 19/14 Q1022 NOSIG=
201111120945 METAR LMML 120945Z 01012KT 340V040 9999 BKN024 19/13 Q1022
                        NOSIG=
201111120915 METAR LMML 120915Z 01012KT 9999 BKN025 19/13 Q1022 NOSIG=
201111120900 METAR LMML NIL=
201111120845 METAR LMML 120845Z 02010KT 9999 BKN026 18/13 Q1022 NOSIG=
201111120830 METAR LMML NIL=
201111120815 METAR LMML 120815Z 02009KT 9999 SCT027 18/13 Q1022 NOSIG=
201111120800 METAR LMML NIL=
201111120745 METAR LMML 120745Z 01009KT 9999 FEW027 18/13 Q1022 NOSIG=
201111120715 METAR LMML 120715Z 36009KT 9999 FEW028 18/13 Q1022 NOSIG=
201111120700 METAR LMML NIL=
201111120645 METAR LMML 120645Z 01007KT 9999 SCT029 17/12 Q1021 NOSIG=
201111120615 METAR LMML 120615Z 35006KT 9999 SCT028 16/12 Q1021 NOSIG=
201111120600 METAR LMML NIL=
201111120545 METAR LMML 120545Z 36007KT 9999 FEW026TCU 16/12 Q1021 NOSIG=
201111120530 METAR LMML NIL=
201111120515 METAR LMML 120515Z 01007KT 9999 FEW028 16/12 Q1021 NOSIG=
201111120500 METAR LMML NIL=
201111120445 METAR LMML 120445Z 01006KT 9999 FEW029 16/12 Q1021 NOSIG=
201111120430 METAR LMML NIL=
201111120415 METAR LMML 120415Z 02005KT 350V050 9999 FEW030 16/12 Q1021
                        NOSIG=
201111120400 METAR LMML NIL=
201111120345 METAR LMML 120345Z 35004KT 310V030 9999 FEW027 15/12 Q1020
                        NOSIG=
201111120330 METAR LMML NIL=
201111120315 METAR LMML 120315Z 33003KT 9999 FEW027 SCT043 15/13 Q1020
                        TEMPO 8000 SHRA BKN015=
201111120300 METAR LMML NIL=
201111120245 METAR LMML 120245Z 34003KT 9999 FEW025 SCT130 14/12 Q1021
                        TEMPO 8000 SHRA BKN015=
201111120215 METAR LMML 120215Z 32005KT 9999 FEW043 15/12 Q1020 TEMPO
                        8000 SHRA BKN015=
201111120200 METAR LMML NIL=
201111120145 METAR LMML 120145Z 30004KT 9999 FEW042 15/12 Q1021 TEMPO
                        8000 SHRA BKN015=
201111120130 METAR LMML NIL=
201111120115 METAR LMML 120115Z 32004KT CAVOK 15/13 Q1021 TEMPO 8000 SHRA
                        BKN015=
201111120100 METAR LMML NIL=
201111120045 METAR LMML 120045Z 33004KT CAVOK 15/13 Q1021 TEMPO 8000 SHRA
                        BKN015=
201111120030 METAR LMML NIL=
201111120015 METAR LMML 120015Z 34004KT CAVOK 15/13 Q1021 TEMPO 8000 SHRA
                        BKN015=
201111120000 METAR LMML NIL=
201111112345 METAR LMML 112345Z 32004KT CAVOK 15/14 Q1021 TEMPO 8000 SHRA
                        BKN015=
201111112330 METAR LMML NIL=
201111112315 METAR LMML 112315Z 32004KT 9999 FEW016 SCT090 15/14 Q1021
                        TEMPO 8000 SHRA BKN015=
201111112300 METAR LMML NIL=
201111112245 METAR LMML 112245Z 32003KT 9999 FEW015 SCT090 15/14 Q1021
                        TEMPO 8000 SHRA BKN015=
201111112230 METAR LMML NIL=
201111112215 METAR LMML 112215Z 32003KT 9999 FEW016 SCT090 15/14 Q1020
                        TEMPO 8000 SHRA BKN015=
201111112200 METAR LMML NIL=
201111112145 METAR LMML 112145Z 32003KT 9999 FEW016 SCT090 15/14 Q1020
                        TEMPO 6000 TSRA BKN015CB RMK LIGHTNING
                        TO SOUTH=
201111112130 METAR LMML NIL=
201111112115 METAR LMML 112115Z 31003KT 9999 FEW016 BKN090 16/15 Q1020
                        TEMPO 6000 TSRA BKN015CB=
201111112100 METAR LMML NIL=
201111112045 METAR LMML 112045Z 32003KT 9999 FEW030 BKN090 16/14 Q1020
                        TEMPO 6000 TSRA BKN015CB=
201111112030 METAR LMML NIL=
201111112015 METAR LMML 112015Z 36004KT 9999 FEW030 BKN080 16/15 Q1020
                        TEMPO 6000 TSRA BKN015CB=
201111112000 METAR LMML NIL=
201111111945 METAR LMML 111945Z 34005KT 9999 -RA SCT037 BKN050 16/15 Q1020
                        RETS TEMPO 6000 TSRA BKN015CB=
201111111930 METAR LMML NIL=
201111111915 METAR LMML 111915Z 01007KT 330V070 6000 TSRA BKN022CB 16/15
                        Q1020 TEMPO 6000 TSRA BKN015CB=
201111111900 METAR LMML NIL=
201111111845 METAR LMML 111845Z 32004KT 9999 TS BKN017CB SCT100 16/15
                        Q1020 TEMPO 6000 TSRA BKN015CB=
201111111838 SPECI LMML 111838Z 33003KT 9999 TS BKN017CB 16/15 Q1019 TEMPO
                        6000 TSRA BKN015CB=
201111111830 METAR LMML NIL=
201111111815 METAR LMML 111815Z 02004KT 9999 -SHRA BKN015 SCT100 17/14
                        Q1019 TEMPO 6000 TSRA BKN015CB=
201111111800 METAR LMML NIL=
201111111745 METAR LMML 111745Z 01006KT 340V040 9999 FEW020 17/13 Q1019
                        NOSIG=
201111111730 METAR LMML NIL=
201111111715 METAR LMML 111715Z 02004KT 340V080 9999 FEW022 18/13 Q1019
                        NOSIG=
201111111645 METAR LMML 111645Z 01004KT 9999 FEW024 17/13 Q1019 NOSIG=
201111111630 METAR LMML NIL=
201111111615 METAR LMML 111615Z 36005KT 9999 FEW025 SCT250 17/12 Q1019
                        NOSIG=
201111111545 METAR LMML 111545Z 01005KT 9999 FEW025 SCT250 18/13 Q1019
                        NOSIG=
201111111530 METAR LMML NIL=
201111111515 METAR LMML 111515Z 01005KT 9999 FEW024 SCT250 19/12 Q1018
                        NOSIG=
201111111500 METAR LMML NIL=
201111111445 METAR LMML 111445Z 01005KT 350V050 9999 FEW028 SCT250 20/13
                        Q1018 NOSIG=
201111111430 METAR LMML NIL=
201111111415 METAR LMML 111415Z 01005KT 340V050 9999 FEW029 BKN250 20/13
                        Q1018 NOSIG=
201111111400 METAR LMML NIL=
201111111345 METAR LMML 111345Z 01005KT 270V060 9999 FEW025 BKN250 20/12
                        Q1018 NOSIG=
201111111315 METAR LMML 111315Z 36006KT 330V040 9999 FEW027 BKN250 21/13
                        Q1017 NOSIG=
201111111300 METAR LMML NIL=
201111111245 METAR LMML 111245Z 01005KT 310V050 9999 FEW026 BKN250 21/14
                        Q1017 NOSIG=
201111111230 METAR LMML NIL=
201111111215 METAR LMML 111215Z 02006KT 340V070 9999 SCT026 BKN250 21/13
                        Q1018 NOSIG=
201111111145 METAR LMML 111145Z 02006KT 350V090 9999 SCT026 SCT250 20/13
                        Q1018 NOSIG=
201111111115 METAR LMML 111115Z 01004KT 340V050 9999 SCT026 SCT250 21/13
                        Q1018 NOSIG=
201111111045 METAR LMML 111045Z 02006KT 340V060 9999 SCT026 SCT250 21/13
                        Q1018 NOSIG=
201111111030 METAR LMML NIL=
201111111015 METAR LMML 111015Z 02005KT 340V060 9999 SCT028 SCT250 21/14
                        Q1018 NOSIG=
201111111000 METAR LMML NIL=
201111110945 METAR LMML 110945Z 35005KT 300V050 9999 SCT027 20/14 Q1018
                        NOSIG=
201111110930 METAR LMML NIL=
201111110915 METAR LMML 110915Z 01005KT 9999 SCT025 19/13 Q1018 NOSIG=
201111110900 METAR LMML NIL=
201111110845 METAR LMML 110845Z 34005KT 9999 SCT021 BKN250 17/13 Q1018
                        NOSIG=
201111110830 METAR LMML NIL=
201111110815 METAR LMML 110815Z 34005KT 9999 SCT023 BKN250 18/14 Q1018
                        NOSIG=
201111110800 METAR LMML NIL=
201111110745 METAR LMML 110745Z VRB02KT 9999 SCT025 BKN250 18/14 Q1017
                        NOSIG=
201111110730 METAR LMML NIL=
201111110715 METAR LMML 110715Z VRB02KT 9999 SCT024 BKN250 17/14 Q1017
                        NOSIG=
201111110700 METAR LMML NIL=
201111110645 METAR LMML 110645Z 34003KT 9999 FEW022 SCT250 16/14 Q1017
                        NOSIG=
201111110630 METAR LMML NIL=
201111110615 METAR LMML 110615Z 34003KT 9999 FEW020 15/13 Q1016 NOSIG=
201111110600 METAR LMML NIL=
201111110545 METAR LMML 110545Z 34004KT 9999 FEW019 SCT250 15/13 Q1016
                        NOSIG RMK CB TOP TO SW=
201111110530 METAR LMML NIL=
201111110515 METAR LMML 110515Z 34004KT 9999 FEW019 15/14 Q1016 NOSIG=
201111110500 METAR LMML NIL=
201111110445 METAR LMML 110445Z 33003KT 9999 BKN020 15/14 Q1016 NOSIG=
201111110430 METAR LMML NIL=
201111110415 METAR LMML 110415Z 34003KT 9999 BKN019 15/14 Q1015 NOSIG=
201111110400 METAR LMML NIL=
201111110345 METAR LMML 110345Z 35003KT 9999 FEW016 SCT026 15/14 Q1015
                        TEMPO BKN013=
201111110330 METAR LMML NIL=
201111110315 METAR LMML 110315Z 35004KT 320V020 9999 SCT017 SCT250 15/14
                        Q1015 TEMPO BKN013=
201111110300 METAR LMML NIL=
201111110245 METAR LMML 110245Z 35004KT 9999 FEW020 SCT250 15/14 Q1015
                        TEMPO BKN013=
201111110230 METAR LMML NIL=
201111110215 METAR LMML 110215Z VRB02KT 9999 SCT016 16/15 Q1015 TEMPO
                        BKN013=
201111110200 METAR LMML NIL=
201111110145 METAR LMML 110145Z 34003KT 9999 FEW017 15/13 Q1015 TEMPO
                        BKN013=
201111110130 METAR LMML NIL=
201111110115 METAR LMML 110115Z VRB02KT 9999 FEW016 16/14 Q1015 TEMPO
                        BKN013=
201111110100 METAR LMML NIL=
201111110045 METAR LMML 110045Z VRB02KT 9999 FEW015 16/14 Q1015 TEMPO
                        BKN013=
201111110030 METAR LMML NIL=
201111110015 METAR LMML 110015Z 04003KT 9999 FEW015 17/14 Q1015 TEMPO
                        BKN013=
201111110000 METAR LMML NIL=
201111102345 METAR LMML 102345Z 02004KT 9999 FEW018 17/14 Q1015 TEMPO
                        BKN013=
201111102330 METAR LMML NIL=
201111102315 METAR LMML 102315Z 02003KT 9999 SCT016 17/15 Q1015 TEMPO
                        BKN013=
201111102300 METAR LMML NIL=
201111102245 METAR LMML 102245Z 03005KT 360V070 9999 SCT016 17/15 Q1015
                        TEMPO BKN013=
201111102230 METAR LMML NIL=
201111102215 METAR LMML 102215Z 01004KT 9999 SCT014 17/15 Q1015 TEMPO
                        BKN013=
201111102200 METAR LMML NIL=
201111102145 METAR LMML 102145Z 02005KT 9999 SCT013 17/15 Q1015 TEMPO
                        BKN013=
201111102130 METAR LMML NIL=
201111102115 METAR LMML 102115Z 03006KT 360V060 9999 SCT013 17/15 Q1015
                        TEMPO BKN013=
201111102100 METAR LMML NIL=
201111102045 METAR LMML 102045Z 02005KT 9999 BKN012 18/16 Q1016 NOSIG=
201111102030 METAR LMML NIL=
201111102015 METAR LMML 102015Z 02003KT 9999 SCT015 17/15 Q1015 TEMPO
                        BKN012=
201111102000 METAR LMML NIL=
201111101945 METAR LMML 101945Z 02005KT 9999 SCT012 18/15 Q1015 NOSIG=
201111101930 METAR LMML NIL=
201111101915 METAR LMML 101915Z 01006KT 9999 FEW016 17/14 Q1015 NOSIG=
201111101900 METAR LMML NIL=
201111101845 METAR LMML 101845Z 01006KT 9999 SCT015 18/15 Q1015 TEMPO
                        BKN014=
201111101830 METAR LMML NIL=
201111101815 METAR LMML 101815Z 02008KT 9999 BKN016 18/15 Q1015 TEMPO
                        BKN014=
201111101800 METAR LMML NIL=
201111101745 METAR LMML 101745Z 01006KT 340V040 9999 SCT022 18/16 Q1014
                        TEMPO BKN014=
201111101730 METAR LMML NIL=
201111101715 METAR LMML 101715Z 01005KT 340V040 9999 SCT016 18/16 Q1014
                        TEMPO BKN014=
201111101700 METAR LMML NIL=
201111101645 METAR LMML 101645Z 01005KT 9999 -SHRA SCT014 18/16 Q1014
                        TEMPO BKN014=
201111101630 METAR LMML NIL=
201111101615 METAR LMML 101615Z 35007KT 9999 SCT020 18/15 Q1014 NOSIG=
201111101600 METAR LMML NIL=
201111101545 METAR LMML 101545Z 35008KT 9999 FEW019 19/14 Q1014 NOSIG=
201111101530 METAR LMML NIL=
201111101515 METAR LMML 101515Z 35009KT 9999 FEW019 19/15 Q1014 NOSIG=
201111101500 METAR LMML NIL=
201111101445 METAR LMML 101445Z 02005KT 350V050 9999 FEW019 20/15 Q1014
                        NOSIG=
201111101430 METAR LMML NIL=
201111101415 METAR LMML 101415Z 01006KT 9999 FEW018 20/15 Q1014 NOSIG=
201111101400 METAR LMML NIL=
201111101345 METAR LMML 101345Z 03007KT 360V060 9999 FEW022 21/15 Q1014
                        NOSIG=
201111101330 METAR LMML NIL=
201111101315 METAR LMML 101315Z 04007KT 010V080 9999 SCT018 21/16 Q1014
                        TEMPO BKN015=
201111101300 METAR LMML NIL=
201111101245 METAR LMML 101245Z 04006KT 340V080 9999 SCT016 22/15 Q1014
                        TEMPO BKN015=
201111101230 METAR LMML NIL=
201111101215 METAR LMML 101215Z 03008KT 010V070 9999 BKN015 21/16 Q1014
                        NOSIG=
201111101200 METAR LMML NIL=
201111101145 METAR LMML 101145Z 02007KT 360V070 9999 BKN015 22/16 Q1014
                        NOSIG=
201111101130 METAR LMML NIL=
201111101115 METAR LMML 101115Z 04009KT 010V080 9999 BKN018 BKN022 22/16
                        Q1014 TEMPO BKN015=
201111101100 METAR LMML NIL=
201111101045 METAR LMML 101045Z 02007KT 9999 BKN015 20/16 Q1015 NOSIG=
201111101030 METAR LMML NIL=
201111101015 METAR LMML 101015Z 02006KT 350V080 9999 BKN019 21/16 Q1015
                        NOSIG=
201111101000 METAR LMML NIL=
201111100945 METAR LMML 100945Z 05006KT 010V080 9999 BKN020 20/16 Q1015
                        NOSIG=
201111100930 METAR LMML NIL=
201111100915 METAR LMML 100915Z 04005KT 010V080 9999 BKN017 20/17 Q1015
                        NOSIG=
201111100900 METAR LMML NIL=
201111100845 METAR LMML 100845Z VRB02KT 9999 BKN018 19/17 Q1015 NOSIG=
201111100830 METAR LMML NIL=
201111100815 METAR LMML 100815Z VRB02KT 9999 BKN015 18/18 Q1015 NOSIG=
201111100800 METAR LMML NIL=
201111100745 METAR LMML 100745Z VRB02KT 9000 SCT014 BKN021 17/17 Q1015
                        BECMG 9999=
201111100730 METAR LMML NIL=
201111100715 METAR LMML 100715Z 32003KT 9000 FEW015 BKN020 17/17 Q1015
                        BECMG 9999=
201111100700 METAR LMML NIL=
201111100645 METAR LMML 100645Z VRB01KT 9000 BKN011 17/17 Q1015 BECMG
                        9999=
201111100630 METAR LMML NIL=
201111100615 METAR LMML 100615Z VRB01KT 7000 FEW012 BKN015 17/17 Q1014
                        NOSIG=
201111100600 METAR LMML NIL=
201111100545 METAR LMML 100545Z VRB02KT 6000 FEW011 BKN014 16/16 Q1014
                        NOSIG=
201111100530 METAR LMML NIL=
201111100515 METAR LMML 100515Z VRB02KT 6000 SCT010 BKN015 17/17 Q1014
                        TEMPO SHRA=
201111100500 METAR LMML NIL=
201111100445 METAR LMML 100445Z 32003KT 6000 -SHRA FEW009 BKN014 16/16
                        Q1014 TEMPO SHRA=
201111100430 METAR LMML NIL=
201111100415 METAR LMML 100415Z 32003KT 6000 FEW010 SCT013 16/16 Q1014
                        TEMPO SHRA=
201111100400 METAR LMML NIL=
201111100345 METAR LMML 100345Z VRB02KT 6000 FEW010 SCT016 16/16 Q1014
                        TEMPO SHRA=
201111100330 METAR LMML NIL=
201111100315 METAR LMML 100315Z 30003KT 3000 BR FEW005 BKN013 16/16 Q1014
                        TEMPO SHRA=
201111100300 METAR LMML NIL=
201111100245 METAR LMML 100245Z 28003KT 4000 BR FEW002 SCT012 16/16 Q1014
                        TEMPO SHRA=
201111100230 METAR LMML NIL=
201111100215 METAR LMML 100215Z 29003KT 4000 BR FEW002 BKN012 16/16 Q1014
                        TEMPO SHRA=
201111100200 METAR LMML NIL=
201111100145 METAR LMML 100145Z VRB02KT 3000 BR BKN002 SCT012 16/16 Q1015
                        TEMPO 3000 MIFG=
201111100136 SPECI LMML 100136Z 29003KT 2500 BR BKN002 16/16 Q1015 NOSIG=
201111100130 METAR LMML NIL=
201111100115 METAR LMML 100115Z VRB02KT 3500 BR FEW009 16/16 Q1015 TEMPO
                        3000 MIFG=
201111100100 METAR LMML NIL=
201111100045 METAR LMML 100045Z 00000KT 5000 BR FEW009 16/16 Q1015 TEMPO
                        3000 MIFG=
201111100030 METAR LMML NIL=
201111100015 METAR LMML 100015Z VRB02KT 8000 FEW009 16/16 Q1015 NOSIG=
201111100000 METAR LMML NIL=
201111092345 METAR LMML 092345Z VRB01KT 8000 FEW009 16/16 Q1015 NOSIG=
201111092330 METAR LMML NIL=
201111092315 METAR LMML 092315Z VRB01KT 9000 FEW009 16/16 Q1015 NOSIG=
201111092300 METAR LMML NIL=
201111092245 METAR LMML 092245Z VRB02KT 9999 FEW009 16/16 Q1016 NOSIG=
201111092230 METAR LMML NIL=
201111092215 METAR LMML 092215Z 00000KT 9999 FEW009 16/16 Q1016 NOSIG=
201111092200 METAR LMML NIL=
201111092145 METAR LMML 092145Z 00000KT 9999 FEW009 16/16 Q1016 NOSIG=
201111092130 METAR LMML NIL=
201111092115 METAR LMML 092115Z 00000KT 9999 FEW009 16/16 Q1016 NOSIG=
201111092100 METAR LMML NIL=
201111092045 METAR LMML 092045Z VRB02KT 9999 FEW009 16/16 Q1017 NOSIG=
201111092030 METAR LMML NIL=
201111092015 METAR LMML 092015Z VRB01KT 9999 FEW009 17/16 Q1016 NOSIG=
201111092000 METAR LMML NIL=
201111091945 METAR LMML 091945Z VRB02KT 9999 FEW009 17/16 Q1017 NOSIG=
201111091930 METAR LMML NIL=
201111091915 METAR LMML 091915Z VRB02KT 9999 FEW009 17/16 Q1017 NOSIG=
201111091900 METAR LMML NIL=
201111091845 METAR LMML 091845Z 27003KT 9999 FEW009 18/17 Q1016 NOSIG=
201111091830 METAR LMML NIL=
201111091815 METAR LMML 091815Z VRB02KT 9999 FEW009 18/17 Q1016 NOSIG=
201111091800 METAR LMML NIL=
201111091745 METAR LMML 091745Z VRB01KT 9999 FEW009 18/17 Q1016 NOSIG=
201111091730 METAR LMML NIL=
201111091715 METAR LMML 091715Z VRB01KT 9999 FEW007 19/17 Q1016 NOSIG=
201111091700 METAR LMML NIL=
201111091645 METAR LMML 091645Z VRB01KT 9999 FEW007 19/17 Q1016 NOSIG=
201111091630 METAR LMML NIL=
201111091615 METAR LMML 091615Z VRB02KT 9999 FEW012 19/17 Q1016 NOSIG=
201111091600 METAR LMML NIL=
201111091545 METAR LMML 091545Z 24005KT 200V270 9999 FEW012 20/17 Q1016
                        NOSIG=
201111091530 METAR LMML NIL=
201111091515 METAR LMML 091515Z 20004KT 170V240 9999 FEW012 21/18 Q1016
                        NOSIG=
201111091500 METAR LMML NIL=
201111091445 METAR LMML 091445Z 20005KT 160V230 9999 FEW012 21/18 Q1016
                        NOSIG=
201111091430 METAR LMML NIL=
201111091415 METAR LMML 091415Z 19007KT 160V220 9999 FEW014 22/17 Q1015
                        NOSIG=
201111091400 METAR LMML NIL=
201111091345 METAR LMML 091345Z 20006KT 160V250 9999 FEW030 22/17 Q1015
                        NOSIG=
201111091330 METAR LMML NIL=
201111091315 METAR LMML 091315Z 19007KT 130V250 9999 FEW030 23/16 Q1015
                        NOSIG=
201111091300 METAR LMML NIL=
201111091245 METAR LMML 091245Z 18008KT 9999 FEW030 23/16 Q1015 NOSIG=
201111091230 METAR LMML NIL=
201111091215 METAR LMML 091215Z 16008KT 130V190 9999 FEW030 BKN250 23/17
                        Q1016 NOSIG=
201111091200 METAR LMML NIL=
201111091145 METAR LMML 091145Z 18009KT 140V210 9999 FEW030 SCT250 23/16
                        Q1016 NOSIG=
201111091130 METAR LMML NIL=
201111091115 METAR LMML 091115Z 18007KT 150V210 9999 FEW030 SCT250 23/17
                        Q1016 NOSIG=
201111091100 METAR LMML NIL=
201111091030 METAR LMML NIL=
201111091015 METAR LMML 091015Z 16008KT 130V190 9999 FEW030 BKN250 22/17
                        Q1017 NOSIG=
201111091000 METAR LMML NIL=
201111090945 METAR LMML 090945Z 16009KT 130V190 9999 SCT031 SCT120 BKN250
                        21/18 Q1017 NOSIG=
201111090930 METAR LMML NIL=
201111090915 METAR LMML 090915Z 16010KT 9999 FEW030 SCT120 BKN250 21/18
                        Q1017 NOSIG=
201111090845 METAR LMML 090845Z 15008KT 120V190 9999 SCT030 SCT120 BKN250
                        21/18 Q1017 TEMPO 9000 RA BKN015=
201111090830 METAR LMML NIL=
201111090815 METAR LMML 090815Z 15008KT 120V180 9999 FEW030 SCT120 BKN250
                        21/18 Q1017 TEMPO 9000 RA BKN015=
201111090800 METAR LMML NIL=
201111090745 METAR LMML 090745Z 14007KT 9999 FEW020 BKN120 20/18 Q1017
                        TEMPO 9000 RA BKN015=
201111090730 METAR LMML NIL=
201111090715 METAR LMML 090715Z 16008KT 130V190 9000 SCT020 SCT120 20/18
                        Q1017 TEMPO RA BKN015=
201111090700 METAR LMML NIL=
201111090645 METAR LMML 090645Z 16009KT 120V220 9000 -RA FEW009 SCT022
                        BKN120 20/18 Q1017 TEMPO BKN009=
201111090630 METAR LMML NIL=
201111090615 METAR LMML 090615Z 16007KT 120V190 9000 -RA SCT009 SCT018
                        BKN080 20/19 Q1017 TEMPO BKN009=
201111090600 METAR LMML NIL=
201111090545 METAR LMML 090545Z 17005KT 140V200 9000 -RA BKN008 SCT012
                        BKN120 20/19 Q1017 TEMPO BKN009=
201111090530 METAR LMML NIL=
201111090515 METAR LMML 090515Z 15006KT 110V190 9000 -RA SCT009 BKN014
                        BKN120 20/19 Q1017 TEMPO BKN009=
201111090500 METAR LMML NIL=
201111090445 METAR LMML 090445Z 15004KT 110V180 9000 SCT008 BKN014 BKN120
                        20/19 Q1016 TEMPO BKN009=
201111090430 METAR LMML NIL=
201111090415 METAR LMML 090415Z 19003KT 9000 SCT009 BKN016 BKN120 20/19
                        Q1016 TEMPO BKN009 BKN015=
201111090400 METAR LMML NIL=
201111090345 METAR LMML 090345Z 18003KT 9000 SCT011 BKN120 BKN250 20/19
                        Q1016 NOSIG=
201111090330 METAR LMML NIL=
201111090315 METAR LMML 090315Z 17003KT 9999 FEW018 BKN250 20/19 Q1016
                        NOSIG=
201111090300 METAR LMML NIL=
201111090245 METAR LMML 090245Z 18007KT 9999 FEW015 BKN250 20/19 Q1016
                        NOSIG=
201111090230 METAR LMML NIL=
201111090215 METAR LMML 090215Z 16008KT 120V200 9999 FEW015 BKN250 20/18
                        Q1016 NOSIG=
201111090200 METAR LMML NIL=
201111090145 METAR LMML 090145Z 17008KT 140V220 9999 FEW015 SCT120 BKN250
                        20/18 Q1016 NOSIG=
201111090130 METAR LMML NIL=
201111090115 METAR LMML 090115Z 17008KT 130V200 9999 FEW014 SCT120 BKN250
                        20/18 Q1016 NOSIG=
201111090100 METAR LMML NIL=
201111090045 METAR LMML 090045Z 17008KT 140V200 9999 SCT020 SCT120 BKN250
                        20/18 Q1017 NOSIG=
201111090030 METAR LMML NIL=
201111090015 METAR LMML 090015Z 17008KT 130V200 9999 SCT021 SCT120 BKN250
                        20/18 Q1017 NOSIG=
201111090000 METAR LMML NIL=
201111082345 METAR LMML 082345Z 17007KT 9999 SCT021 SCT120 BKN250 20/19
                        Q1017 NOSIG=
201111082330 METAR LMML NIL=
201111082315 METAR LMML 082315Z 16007KT 9999 FEW017 SCT120 BKN250 20/19
                        Q1017 NOSIG=
201111082300 METAR LMML NIL=
201111082245 METAR LMML 082245Z 17007KT CAVOK 20/19 Q1017 NOSIG=
201111082230 METAR LMML NIL=
201111082215 METAR LMML 082215Z 16007KT 130V200 CAVOK 20/19 Q1017 NOSIG=
201111082200 METAR LMML NIL=
201111082145 METAR LMML 082145Z 16007KT CAVOK 20/19 Q1017 NOSIG=
201111082130 METAR LMML NIL=
201111082115 METAR LMML 082115Z 16008KT CAVOK 20/18 Q1017 NOSIG=
201111082100 METAR LMML NIL=
201111082045 METAR LMML 082045Z 16007KT CAVOK 20/18 Q1017 NOSIG=
201111082030 METAR LMML NIL=
201111082015 METAR LMML 082015Z 15007KT CAVOK 20/18 Q1017 NOSIG=
201111081945 METAR LMML 081945Z 15008KT CAVOK 20/18 Q1017 NOSIG=
201111081930 METAR LMML NIL=
201111081915 METAR LMML 081915Z 14007KT CAVOK 19/18 Q1017 NOSIG=
201111081900 METAR LMML NIL=
201111081845 METAR LMML 081845Z 14008KT CAVOK 19/18 Q1017 NOSIG=
201111081830 METAR LMML NIL=
201111081815 METAR LMML 081815Z 13007KT CAVOK 19/17 Q1017 NOSIG=
201111081800 METAR LMML NIL=
201111081745 METAR LMML 081745Z 13007KT CAVOK 19/17 Q1017 NOSIG=
201111081730 METAR LMML NIL=
201111081715 METAR LMML 081715Z 14007KT CAVOK 19/17 Q1017 NOSIG=
201111081700 METAR LMML NIL=
201111081645 METAR LMML 081645Z 13008KT CAVOK 20/17 Q1017 NOSIG=
201111081630 METAR LMML NIL=
201111081615 METAR LMML 081615Z 13009KT CAVOK 20/17 Q1017 NOSIG=
201111081600 METAR LMML NIL=
201111081545 METAR LMML 081545Z 13010KT CAVOK 20/17 Q1016 NOSIG=
201111081530 METAR LMML NIL=
201111081515 METAR LMML 081515Z 13011KT CAVOK 20/17 Q1017 NOSIG=
201111081500 METAR LMML NIL=
201111081445 METAR LMML 081445Z 13012KT 9999 FEW013 SCT250 21/17 Q1017
                        NOSIG=
201111081430 METAR LMML NIL=
201111081415 METAR LMML 081415Z 13012KT 9999 FEW013 SCT130 21/18 Q1017
                        NOSIG=
201111081400 METAR LMML NIL=
201111081345 METAR LMML 081345Z 13013KT 9999 FEW013 SCT130 21/18 Q1017
                        NOSIG=
201111081330 METAR LMML NIL=
201111081315 METAR LMML 081315Z 13014KT 9999 FEW013 SCT130 22/18 Q1017
                        NOSIG=
201111081300 METAR LMML NIL=
201111081245 METAR LMML 081245Z 13013KT 9999 FEW012 SCT130 21/18 Q1017
                        NOSIG=
201111081230 METAR LMML NIL=
201111081215 METAR LMML 081215Z 13012KT 9999 FEW012 BKN120 21/18 Q1018
                        NOSIG=
201111081200 METAR LMML NIL=
201111081145 METAR LMML 081145Z 13013KT 9999 FEW014 BKN120 21/18 Q1018
                        NOSIG=
201111081130 METAR LMML NIL=
201111081115 METAR LMML 081115Z 14014KT 110V180 9999 FEW014 BKN120 21/17
                        Q1018 NOSIG=
201111081100 METAR LMML NIL=
201111081045 METAR LMML 081045Z 12017KT 9999 FEW012 BKN120 21/18 Q1018
                        NOSIG=
201111081030 METAR LMML NIL=
201111081015 METAR LMML 081015Z 12015KT 9999 FEW012 BKN120 21/18 Q1019
                        NOSIG=
201111081000 METAR LMML NIL=
201111080945 METAR LMML 080945Z 12013KT 9999 FEW012 BKN120 21/18 Q1019
                        NOSIG=
201111080930 METAR LMML NIL=
201111080915 METAR LMML 080915Z 11012KT 9999 SCT012 BKN120 21/19 Q1020
                        NOSIG=
201111080900 METAR LMML NIL=
201111080845 METAR LMML 080845Z 11011KT 9999 SCT011 BKN120 21/18 Q1020
                        NOSIG=
201111080830 METAR LMML NIL=
201111080815 METAR LMML 080815Z 10011KT 9999 BKN012 SCT120 20/18 Q1020
                        NOSIG=
201111080800 METAR LMML NIL=
201111080745 METAR LMML 080745Z 11011KT 9999 BKN014 BKN120 20/18 Q1020
                        NOSIG=
201111080730 METAR LMML NIL=
201111080715 METAR LMML 080715Z 11010KT 9999 FEW011 BKN120 20/18 Q1020
                        NOSIG=
201111080700 METAR LMML NIL=
201111080645 METAR LMML 080645Z 11010KT 080V140 9999 FEW011 BKN120 19/18
                        Q1020 NOSIG=
201111080630 METAR LMML NIL=
201111080615 METAR LMML 080615Z 10008KT 9999 SCT010 BKN130 19/18 Q1020
                        NOSIG=
201111080600 METAR LMML NIL=
201111080545 METAR LMML 080545Z 11010KT 7000 SCT007 BKN130 19/18 Q1020
                        BECMG 9999=
201111080530 METAR LMML NIL=
201111080515 METAR LMML 080515Z 10008KT 7000 BKN007 SCT130 19/18 Q1020
                        BECMG 9999 BKN011=
201111080500 METAR LMML NIL=
201111080445 METAR LMML 080445Z 10008KT 7000 BKN007 19/18 Q1020 BECMG
                        9999 BKN011=
201111080430 METAR LMML NIL=
201111080415 METAR LMML 080415Z 09005KT 9000 BKN007 18/17 Q1020 NOSIG=
201111080400 METAR LMML NIL=
201111080345 METAR LMML 080345Z 10006KT 9999 BKN009 SCT120 18/16 Q1020
                        NOSIG=
201111080330 METAR LMML NIL=
201111080315 METAR LMML 080315Z 10004KT 060V130 CAVOK 17/15 Q1020 NOSIG=
201111080300 METAR LMML NIL=
201111080245 METAR LMML 080245Z 09004KT 060V120 CAVOK 17/14 Q1020 NOSIG=
201111080230 METAR LMML NIL=
201111080215 METAR LMML 080215Z 10004KT CAVOK 17/14 Q1020 NOSIG=
201111080200 METAR LMML NIL=
201111080145 METAR LMML 080145Z 10004KT CAVOK 16/14 Q1021 NOSIG=
201111080130 METAR LMML NIL=
201111080115 METAR LMML 080115Z 11005KT CAVOK 16/14 Q1021 NOSIG=
201111080100 METAR LMML NIL=
201111080045 METAR LMML 080045Z 12003KT CAVOK 17/14 Q1021 NOSIG=
201111080030 METAR LMML NIL=
201111080015 METAR LMML 080015Z 12004KT 090V150 CAVOK 17/14 Q1021 NOSIG=
201111080000 METAR LMML NIL=
201111072345 METAR LMML 072345Z 14007KT CAVOK 18/14 Q1021 NOSIG=
201111072330 METAR LMML NIL=
201111072315 METAR LMML 072315Z 14006KT CAVOK 18/14 Q1021 NOSIG=
201111072300 METAR LMML NIL=
201111072245 METAR LMML 072245Z 14007KT CAVOK 18/14 Q1021 NOSIG=
201111072230 METAR LMML NIL=
201111072215 METAR LMML 072215Z 15004KT CAVOK 18/14 Q1021 NOSIG=
201111072145 METAR LMML 072145Z 15005KT CAVOK 18/14 Q1021 NOSIG=
201111072130 METAR LMML NIL=
201111072115 METAR LMML 072115Z 16004KT CAVOK 18/14 Q1022 NOSIG=
201111072100 METAR LMML NIL=
201111072045 METAR LMML 072045Z 16004KT CAVOK 18/14 Q1021 NOSIG=
201111072030 METAR LMML NIL=
201111072015 METAR LMML 072015Z 17004KT CAVOK 18/13 Q1021 NOSIG=
201111072000 METAR LMML NIL=
201111071945 METAR LMML 071945Z 16003KT CAVOK 18/12 Q1021 NOSIG=
201111071930 METAR LMML NIL=
201111071915 METAR LMML 071915Z 16003KT CAVOK 18/12 Q1021 NOSIG=
201111071900 METAR LMML NIL=
201111071845 METAR LMML 071845Z 17003KT CAVOK 18/12 Q1021 NOSIG=
201111071830 METAR LMML NIL=
201111071815 METAR LMML 071815Z 17004KT CAVOK 18/12 Q1021 NOSIG=
201111071800 METAR LMML NIL=
201111071745 METAR LMML 071745Z 18003KT CAVOK 18/12 Q1021 NOSIG=
201111071730 METAR LMML NIL=
201111071715 METAR LMML 071715Z 18003KT CAVOK 18/11 Q1021 NOSIG=
201111071645 METAR LMML 071645Z 19003KT CAVOK 19/12 Q1021 NOSIG=
201111071630 METAR LMML NIL=
201111071615 METAR LMML 071615Z 20003KT CAVOK 19/13 Q1021 NOSIG=
201111071600 METAR LMML NIL=
201111071545 METAR LMML 071545Z 20003KT CAVOK 20/13 Q1021 NOSIG=
201111071530 METAR LMML NIL=
201111071515 METAR LMML 071515Z 19003KT CAVOK 20/12 Q1020 NOSIG=
201111071500 METAR LMML NIL=
201111071445 METAR LMML 071445Z 18006KT CAVOK 21/12 Q1020 NOSIG=
201111071430 METAR LMML NIL=
201111071415 METAR LMML 071415Z 18004KT 130V250 CAVOK 22/12 Q1020 NOSIG=
201111071400 METAR LMML NIL=
201111071345 METAR LMML 071345Z 20004KT 160V240 CAVOK 21/12 Q1020 NOSIG=
201111071330 METAR LMML NIL=
201111071315 METAR LMML 071315Z 20005KT 170V240 CAVOK 21/12 Q1020 NOSIG=
201111071300 METAR LMML NIL=
201111071245 METAR LMML 071245Z 18006KT 150V210 CAVOK 21/12 Q1020 NOSIG=
201111071230 METAR LMML NIL=
201111071215 METAR LMML 071215Z 19004KT 160V230 CAVOK 22/12 Q1020 NOSIG=
201111071145 METAR LMML 071145Z 18006KT 140V230 9999 FEW040 SCT100 21/11
                        Q1020 TEMPO CAVOK=
201111071130 METAR LMML NIL=
201111071115 METAR LMML 071115Z 19006KT 160V220 9999 FEW040 SCT100 22/12
                        Q1021 TEMPO CAVOK=
201111071100 METAR LMML NIL=
201111071045 METAR LMML 071045Z 21005KT 170V280 9999 FEW040 SCT250 22/11
                        Q1021 TEMPO CAVOK=
201111071030 METAR LMML NIL=
201111071015 METAR LMML 071015Z 19004KT 120V290 CAVOK 22/11 Q1021 NOSIG=
201111071000 METAR LMML NIL=
201111070945 METAR LMML 070945Z 21005KT 170V250 9999 FEW030 SCT250 21/10
                        Q1021 NOSIG=
201111070930 METAR LMML NIL=
201111070915 METAR LMML 070915Z 21005KT 180V250 CAVOK 21/10 Q1021 NOSIG=
201111070900 METAR LMML NIL=
201111070845 METAR LMML 070845Z 18004KT 140V230 CAVOK 21/10 Q1021 NOSIG=
201111070830 METAR LMML NIL=
201111070815 METAR LMML 070815Z 22003KT CAVOK 21/11 Q1021 NOSIG=
201111070800 METAR LMML NIL=
201111070745 METAR LMML 070745Z VRB01KT CAVOK 20/12 Q1021 NOSIG=
201111070730 METAR LMML NIL=
201111070715 METAR LMML 070715Z VRB02KT CAVOK 17/13 Q1021 NOSIG=
201111070700 METAR LMML NIL=
201111070645 METAR LMML 070645Z VRB01KT CAVOK 16/11 Q1020 NOSIG=
201111070630 METAR LMML NIL=
201111070615 METAR LMML 070615Z VRB02KT 9999 FEW040 SCT250 16/11 Q1020
                        NOSIG=
201111070600 METAR LMML NIL=
201111070545 METAR LMML 070545Z VRB02KT 9999 FEW046 SCT250 16/11 Q1020
                        NOSIG=
201111070530 METAR LMML NIL=
201111070515 METAR LMML 070515Z VRB02KT 9999 FEW048 BKN250 16/11 Q1019
                        NOSIG=
201111070500 METAR LMML NIL=
201111070445 METAR LMML 070445Z VRB02KT 9999 FEW048 BKN250 16/11 Q1019
                        NOSIG=
201111070430 METAR LMML NIL=
201111070415 METAR LMML 070415Z VRB01KT 9999 FEW045 SCT250 16/11 Q1019
                        NOSIG=
201111070400 METAR LMML NIL=
201111070345 METAR LMML 070345Z VRB02KT 9999 FEW045 BKN250 17/11 Q1019
                        NOSIG=
201111070330 METAR LMML NIL=
201111070315 METAR LMML 070315Z 19003KT 9999 FEW045 BKN250 17/11 Q1019
                        NOSIG=
201111070300 METAR LMML NIL=
201111070245 METAR LMML 070245Z 21004KT 9999 FEW045 BKN250 17/11 Q1019
                        NOSIG=
201111070230 METAR LMML NIL=
201111070215 METAR LMML 070215Z VRB02KT 9999 FEW045 BKN250 16/11 Q1019
                        NOSIG=
201111070200 METAR LMML NIL=
201111070145 METAR LMML 070145Z VRB01KT 9999 FEW045 BKN250 16/11 Q1019
                        NOSIG=
201111070130 METAR LMML NIL=
201111070115 METAR LMML 070115Z 22003KT 9999 FEW045 BKN250 17/11 Q1019
                        NOSIG=
201111070100 METAR LMML NIL=
201111070045 METAR LMML 070045Z 21003KT 9999 FEW045 BKN250 17/11 Q1019
                        NOSIG=
201111070030 METAR LMML NIL=
201111070015 METAR LMML 070015Z 21003KT 9999 FEW044 BKN250 17/10 Q1019
                        NOSIG=
201111070000 METAR LMML NIL=
201111062345 METAR LMML 062345Z 21004KT 180V240 9999 FEW045 SCT250 18/10
                        Q1019 NOSIG=
201111062330 METAR LMML NIL=
201111062315 METAR LMML 062315Z 23005KT 200V260 9999 FEW045 BKN250 18/10
                        Q1019 NOSIG=
201111062300 METAR LMML NIL=
201111062245 METAR LMML 062245Z 23005KT 200V260 9999 FEW045 BKN250 18/10
                        Q1019 NOSIG=
201111062230 METAR LMML NIL=
201111062215 METAR LMML 062215Z 22005KT 190V270 9999 FEW043 BKN250 18/10
                        Q1019 NOSIG=
201111062200 METAR LMML NIL=
201111062145 METAR LMML 062145Z 22007KT 9999 FEW043 BKN250 18/10 Q1019
                        NOSIG=
201111062130 METAR LMML NIL=
201111062115 METAR LMML 062115Z 22007KT 190V270 9999 FEW043 BKN250 18/09
                        Q1018 NOSIG=
201111062100 METAR LMML NIL=
201111062045 METAR LMML 062045Z 23007KT 200V270 9999 FEW044 BKN250 19/10
                        Q1018 NOSIG=
201111062030 METAR LMML NIL=
201111062015 METAR LMML 062015Z 23008KT 190V270 9999 FEW044 19/10 Q1018
                        NOSIG=
201111062000 METAR LMML NIL=
201111061945 METAR LMML 061945Z 23008KT 200V270 9999 FEW044 19/10 Q1018
                        NOSIG=
201111061930 METAR LMML NIL=
201111061915 METAR LMML 061915Z 22006KT 180V250 9999 FEW045 19/10 Q1017
                        NOSIG=
201111061900 METAR LMML NIL=
201111061845 METAR LMML 061845Z 22008KT 190V280 CAVOK 19/10 Q1017 NOSIG=
201111061830 METAR LMML NIL=
201111061815 METAR LMML 061815Z 21006KT 180V250 CAVOK 19/10 Q1017 NOSIG=
201111061800 METAR LMML NIL=
201111061745 METAR LMML 061745Z 21006KT 180V250 CAVOK 19/10 Q1017 NOSIG=
201111061730 METAR LMML NIL=
201111061715 METAR LMML 061715Z 22007KT 200V270 9999 FEW038 SCT250 19/11
                        Q1016 NOSIG=
201111061645 METAR LMML 061645Z 23006KT 190V280 9999 FEW038 BKN250 19/11
                        Q1016 NOSIG=
201111061630 METAR LMML NIL=
201111061615 METAR LMML 061615Z 23007KT 200V260 9999 FEW038 BKN250 19/11
                        Q1016 NOSIG=
201111061600 METAR LMML NIL=
201111061545 METAR LMML 061545Z 22008KT 190V260 9999 FEW043 BKN250 20/12
                        Q1015 NOSIG=
201111061530 METAR LMML NIL=
201111061515 METAR LMML 061515Z 23008KT 200V280 9999 FEW030 SCT250 20/11
                        Q1015 NOSIG=
201111061500 METAR LMML NIL=
201111061445 METAR LMML 061445Z 23010KT 200V270 9999 FEW030 SCT250 20/11
                        Q1015 NOSIG=
201111061430 METAR LMML NIL=
201111061415 METAR LMML 061415Z 23010KT 200V280 9999 FEW030 SCT250 21/12
                        Q1015 NOSIG=
201111061400 METAR LMML NIL=
201111061345 METAR LMML 061345Z 24011KT 210V280 CAVOK 21/11 Q1015=
201111061330 METAR LMML NIL=
201111061315 METAR LMML 061315Z 24012KT 200V280 9999 FEW030 21/10 Q1014
                        NOSIG=
201111061300 METAR LMML NIL=
201111061245 METAR LMML 061245Z 24014KT 200V290 9999 FEW030 21/10 Q1014
                        NOSIG=
201111061230 METAR LMML NIL=
201111061215 METAR LMML 061215Z 24013KT 200V280 9999 FEW030 21/10 Q1014
                        NOSIG=
201111061200 METAR LMML NIL=
201111061145 METAR LMML 061145Z 24015KT 200V290 9999 FEW030 21/10 Q1014
                        NOSIG=
201111061130 METAR LMML NIL=
201111061115 METAR LMML 061115Z 24014KT 170V290 9999 FEW030 21/10 Q1014
                        NOSIG=
201111061100 METAR LMML NIL=
201111061045 METAR LMML 061045Z 24016KT 200V280 9999 FEW030 21/11 Q1014
                        NOSIG=
201111061030 METAR LMML NIL=
201111061015 METAR LMML 061015Z 23013KT 190V280 9999 FEW030 21/11 Q1014
                        NOSIG=
201111061000 METAR LMML NIL=
201111060945 METAR LMML 060945Z 24011KT 200V290 9999 FEW030 21/12 Q1014
                        NOSIG=
201111060930 METAR LMML NIL=
201111060915 METAR LMML 060915Z 23013KT 190V280 CAVOK 21/12 Q1014 NOSIG=
201111060900 METAR LMML NIL=
201111060845 METAR LMML 060845Z 23013KT 200V280 CAVOK 20/12 Q1014 NOSIG=
201111060830 METAR LMML NIL=
201111060815 METAR LMML 060815Z 23012KT 200V270 CAVOK 20/12 Q1014 NOSIG=
201111060800 METAR LMML NIL=
201111060745 METAR LMML 060745Z 22011KT 190V270 CAVOK 20/12 Q1013 NOSIG=
201111060730 METAR LMML NIL=
201111060715 METAR LMML 060715Z 22011KT 200V280 CAVOK 20/12 Q1013 NOSIG=
201111060700 METAR LMML NIL=
201111060645 METAR LMML 060645Z 22010KT 200V260 CAVOK 19/12 Q1012 NOSIG=
201111060630 METAR LMML NIL=
201111060615 METAR LMML 060615Z 23008KT 210V270 CAVOK 19/12 Q1012 NOSIG=
201111060600 METAR LMML NIL=
201111060545 METAR LMML 060545Z 24009KT 200V280 CAVOK 18/12 Q1012 NOSIG=
201111060530 METAR LMML NIL=
201111060515 METAR LMML 060515Z 23009KT 190V270 CAVOK 19/13 Q1011 NOSIG=
201111060500 METAR LMML NIL=
201111060445 METAR LMML 060445Z 23009KT 200V270 CAVOK 19/13 Q1011 NOSIG=
201111060430 METAR LMML NIL=
201111060415 METAR LMML 060415Z 24007KT 200V280 9000 NSC 19/14 Q1011 NOSIG=
201111060400 METAR LMML NIL=
201111060345 METAR LMML 060345Z 28004KT 240V310 9000 NSC 18/14 Q1011 NOSIG=
201111060330 METAR LMML NIL=
201111060315 METAR LMML 060315Z 24005KT 200V280 9000 FEW011 20/15 Q1010
                        TEMPO BKN008=
201111060300 METAR LMML NIL=
201111060245 METAR LMML 060245Z 21007KT 180V250 9000 SCT011 20/18 Q1010
                        TEMPO BKN008=
201111060230 METAR LMML NIL=
201111060215 METAR LMML 060215Z 17008KT 130V200 9000 BKN016 21/19 Q1010
                        NOSIG=
201111060200 METAR LMML NIL=
201111060145 METAR LMML 060145Z 16008KT 130V190 9000 SCT022 SCT028 21/19
                        Q1011 NOSIG=
201111060130 METAR LMML NIL=
201111060115 METAR LMML 060115Z 17009KT 140V200 9000 SCT016 SCT041 21/19
                        Q1011 NOSIG=
201111060100 METAR LMML NIL=
201111060045 METAR LMML 060045Z 17009KT 140V200 9999 SCT016 20/18 Q1011
                        NOSIG=
201111060030 METAR LMML NIL=
201111060015 METAR LMML 060015Z 16011KT 140V200 9999 FEW016 20/18 Q1011
                        NOSIG=
201111060000 METAR LMML NIL=
201111052345 METAR LMML 052345Z 16013KT 120V190 9999 FEW012 SCT120 20/18
                        Q1011 NOSIG=
201111052330 METAR LMML NIL=
201111052315 METAR LMML 052315Z 15014KT 120V180 CAVOK 20/18 Q1011 NOSIG=
201111052300 METAR LMML NIL=
201111052245 METAR LMML 052245Z 14015KT 9000 NSC 20/18 Q1011 NOSIG=
201111052230 METAR LMML NIL=
201111052215 METAR LMML 052215Z 14016KT 9000 NSC 20/18 Q1011 NOSIG=
201111052200 METAR LMML NIL=
201111052145 METAR LMML 052145Z 14016KT 9000 NSC 20/18 Q1011 NOSIG=
201111052130 METAR LMML NIL=
201111052115 METAR LMML 052115Z 14017KT 9000 NSC 20/18 Q1011 NOSIG=
201111052100 METAR LMML NIL=
201111052045 METAR LMML 052045Z 14016KT 110V170 9000 FEW012 20/18 Q1011
                        NOSIG=
201111052030 METAR LMML NIL=
201111052015 METAR LMML 052015Z 13017KT 9000 FEW012 20/18 Q1011 BECMG
                        BKN015=
201111052000 METAR LMML NIL=
201111051945 METAR LMML 051945Z 13019KT 9000 FEW012 20/18 Q1011 BECMG
                        BKN015=
201111051930 METAR LMML NIL=
201111051915 METAR LMML 051915Z 13019KT 9000 BKN012 20/18 Q1011 BECMG
                        BKN015=
201111051900 METAR LMML NIL=
201111051845 METAR LMML 051845Z 13022KT 9000 BKN012 20/18 Q1011 BECMG
                        BKN015=
201111051830 METAR LMML NIL=
201111051815 METAR LMML 051815Z 13021KT 9000 BKN011 20/18 Q1011 BECMG
                        FEW010=
201111051800 METAR LMML NIL=
201111051745 METAR LMML 051745Z 13022G32KT 9000 BKN010 20/18 Q1011 NOSIG=
201111051730 METAR LMML NIL=
201111051715 METAR LMML 051715Z 13022KT 9000 BKN011 20/18 Q1011 BECMG
                        BKN010=
201111051700 METAR LMML NIL=
201111051645 METAR LMML 051645Z 13021KT 9000 BKN012 20/18 Q1011 NOSIG=
201111051630 METAR LMML NIL=
201111051615 METAR LMML 051615Z 14020KT 9000 FEW011 BKN014 20/18 Q1011
                        NOSIG=
201111051600 METAR LMML NIL=
201111051545 METAR LMML 051545Z 13020KT 100V160 9000 FEW011 BKN014 20/18
                        Q1011 NOSIG=
201111051530 METAR LMML NIL=
201111051515 METAR LMML 051515Z 13020KT 9000 BKN013 20/18 Q1011 BECMG
                        SCT012=
201111051500 METAR LMML NIL=
201111051445 METAR LMML 051445Z 13019KT 9000 BKN012 20/17 Q1012 NOSIG=
201111051430 METAR LMML NIL=
201111051415 METAR LMML 051415Z 14019KT 9000 BKN014 20/17 Q1012 NOSIG=
201111051400 METAR LMML NIL=
201111051345 METAR LMML 051345Z 14020KT 9000 BKN014 20/17 Q1012 NOSIG=
201111051330 METAR LMML NIL=
201111051315 METAR LMML 051315Z 13020KT 9000 BKN014 20/17 Q1012 NOSIG=
201111051300 METAR LMML NIL=
201111051245 METAR LMML 051245Z 14020KT 9000 BKN015 20/17 Q1012 NOSIG=
201111051230 METAR LMML NIL=
201111051215 METAR LMML 051215Z 13020KT 9000 BKN016 20/16 Q1013 BECMG
                        9999=
201111051200 METAR LMML NIL=
201111051145 METAR LMML 051145Z 13020KT 110V180 9000 SCT015 21/16 Q1013
                        BECMG 9999=
201111051130 METAR LMML NIL=
201111051115 METAR LMML 051115Z 13022KT 9000 SCT017 SCT060 21/16 Q1014
                        BECMG 9999=
201111051100 METAR LMML NIL=
201111051045 METAR LMML 051045Z 14021KT 9000 SCT018 BKN060 20/16 Q1014
                        NOSIG=
201111051030 METAR LMML NIL=
201111051015 METAR LMML 051015Z 14021KT 9999 FEW018 BKN060 20/16 Q1014
                        NOSIG=
201111051000 METAR LMML NIL=
201111050945 METAR LMML 050945Z 14019KT 9999 FEW016 BKN060 20/16 Q1015
                        NOSIG=
201111050930 METAR LMML NIL=
201111050915 METAR LMML 050915Z 14017KT 110V170 9999 SCT016 BKN060 20/16
                        Q1015 NOSIG=
201111050900 METAR LMML NIL=
201111050845 METAR LMML 050845Z 14015G25KT 120V180 9999 SCT016 BKN060
                        20/16 Q1015 NOSIG=
201111050830 METAR LMML NIL=
201111050815 METAR LMML 050815Z 14017KT 120V180 9999 BKN017 20/16 Q1015
                        NOSIG=
201111050800 METAR LMML NIL=
201111050745 METAR LMML 050745Z 14017KT 9999 BKN017 19/16 Q1015 NOSIG=
201111050715 METAR LMML 050715Z 14015KT 9999 BKN019 19/16 Q1015 NOSIG=
201111050700 METAR LMML NIL=
201111050645 METAR LMML 050645Z 14017KT 9999 BKN018 19/15 Q1015 NOSIG=
201111050630 METAR LMML NIL=
201111050615 METAR LMML 050615Z 14016KT 110V170 9999 BKN019 19/15 Q1015
                        NOSIG=
201111050600 METAR LMML NIL=
201111050545 METAR LMML 050545Z 14017KT 110V170 9999 BKN020 BKN050 19/15
                        Q1015 NOSIG=
201111050530 METAR LMML NIL=
201111050515 METAR LMML 050515Z 14016KT 9999 OVC020 19/15 Q1015 NOSIG=
201111050445 METAR LMML 050445Z 14016KT 100V170 9999 BKN022 19/15 Q1015
                        NOSIG=
201111050430 METAR LMML NIL=
201111050415 METAR LMML 050415Z 14015KT 9999 BKN023 19/15 Q1015 NOSIG=
201111050400 METAR LMML NIL=
201111050345 METAR LMML 050345Z 14014KT 110V170 9999 BKN022 19/14 Q1015
                        NOSIG=
201111050330 METAR LMML NIL=
201111050315 METAR LMML 050315Z 14015KT 110V170 9999 BKN022 19/14 Q1015
                        NOSIG=
201111050300 METAR LMML NIL=
201111050245 METAR LMML 050245Z 14015KT 110V170 9999 BKN023 18/14 Q1015
                        NOSIG=
201111050230 METAR LMML NIL=
201111050215 METAR LMML 050215Z 14015KT 9999 BKN022 19/14 Q1015 NOSIG=
201111050200 METAR LMML NIL=
201111050145 METAR LMML 050145Z 14016KT 110V170 9999 BKN022 19/14 Q1016
                        NOSIG=
201111050130 METAR LMML NIL=
201111050115 METAR LMML 050115Z 14013KT 110V170 9999 SCT021 18/14 Q1016
                        NOSIG=
201111050100 METAR LMML NIL=
201111050045 METAR LMML 050045Z 14013KT 9999 BKN024 18/14 Q1016 NOSIG=
201111050030 METAR LMML NIL=
201111050015 METAR LMML 050015Z 14014KT 9999 BKN024 19/14 Q1016 NOSIG=
201111042345 METAR LMML 042345Z 14013KT 110V170 9999 BKN025 19/14 Q1016
                        NOSIG=
201111042330 METAR LMML NIL=
201111042315 METAR LMML 042315Z 14014KT 9999 BKN024 19/14 Q1016 NOSIG=
201111042245 METAR LMML 042245Z 14014KT 9999 SCT024 SCT250 19/14 Q1017
                        NOSIG=
201111042215 METAR LMML 042215Z 14012KT 9999 SCT023 SCT250 18/14 Q1017
                        NOSIG=
201111042200 METAR LMML NIL=
201111042145 METAR LMML 042145Z 14014KT 9999 SCT024 18/14 Q1017 NOSIG=
201111042115 METAR LMML 042115Z 14012KT 9999 SCT023 18/14 Q1017 NOSIG=
201111042100 METAR LMML NIL=
201111042045 METAR LMML 042045Z 14014KT 9999 SCT025 19/14 Q1017 NOSIG=
201111042030 METAR LMML NIL=
201111042015 METAR LMML 042015Z 14012KT 9999 BKN025 BKN090 19/14 Q1017
                        NOSIG=
201111042000 METAR LMML NIL=
201111041945 METAR LMML 041945Z 14012KT 9999 BKN024 BKN090 19/14 Q1017
                        NOSIG=
201111041930 METAR LMML NIL=
201111041915 METAR LMML 041915Z 14013KT 110V170 9999 SCT023 BKN040 19/15
                        Q1017 NOSIG=
201111041900 METAR LMML NIL=
201111041845 METAR LMML 041845Z 14013KT 110V180 9999 SCT022 BKN050 19/15
                        Q1017 NOSIG=
201111041830 METAR LMML NIL=
201111041815 METAR LMML 041815Z 14014KT 9999 SCT023 BKN070 19/15 Q1017
                        NOSIG=
201111041800 METAR LMML NIL=
201111041745 METAR LMML 041745Z 14013KT 9999 SCT021 BKN070 19/14 Q1017
                        NOSIG=
201111041715 METAR LMML 041715Z 14013KT 110V170 9999 SCT021 BKN070 19/15
                        Q1017 NOSIG=
201111041700 METAR LMML NIL=
201111041645 METAR LMML 041645Z 14014KT 9999 SCT020 BKN070 19/14 Q1016
                        NOSIG=
201111041630 METAR LMML NIL=
201111041615 METAR LMML 041615Z 14012KT 9999 SCT021 BKN042 19/15 Q1017
                        NOSIG=
201111041600 METAR LMML NIL=
201111041545 METAR LMML 041545Z 14013KT 9999 SCT021 BKN031 19/14 Q1016
                        NOSIG=
201111041530 METAR LMML NIL=
201111041515 METAR LMML 041515Z 14012KT 110V170 9999 BKN021 BKN032 19/15
                        Q1016 NOSIG=
201111041500 METAR LMML NIL=
201111041445 METAR LMML 041445Z 14012KT 9999 BKN022 BKN032 19/15 Q1016
                        NOSIG=
201111041430 METAR LMML NIL=
201111041415 METAR LMML 041415Z 14013KT 110V180 9999 BKN023 BKN035 19/15
                        Q1016 NOSIG=
201111041400 METAR LMML NIL=
201111041345 METAR LMML 041345Z 14014KT 9999 BKN022 BKN120 20/15 Q1016
                        NOSIG=
201111041330 METAR LMML NIL=
201111041315 METAR LMML 041315Z 14013KT 9999 BKN022 BKN120 20/15 Q1016
                        NOSIG=
201111041300 METAR LMML NIL=
201111041245 METAR LMML 041245Z 14015KT 9999 BKN023 BKN120 20/15 Q1017
                        NOSIG=
201111041230 METAR LMML NIL=
201111041215 METAR LMML 041215Z 14015KT 9999 SCT024 SCT120 21/15 Q1017
                        NOSIG=
201111041200 METAR LMML NIL=
201111041145 METAR LMML 041145Z 14015KT 120V180 9999 BKN023 BKN120 20/15
                        Q1017 NOSIG=
201111041130 METAR LMML NIL=
201111041115 METAR LMML 041115Z 14013KT 120V180 9999 BKN023 BKN120 19/14
                        Q1017 NOSIG=
201111041100 METAR LMML NIL=
201111041045 METAR LMML 041045Z 14015KT 9999 SCT022 BKN028 20/15 Q1018
                        NOSIG=
201111041030 METAR LMML NIL=
201111041015 METAR LMML 041015Z 13015KT 110V170 9999 BKN022 BKN120 20/15
                        Q1018 NOSIG=
201111041000 METAR LMML NIL=
201111040945 METAR LMML 040945Z 13017KT 9999 BKN023 20/15 Q1018 NOSIG=
201111040930 METAR LMML NIL=
201111040915 METAR LMML 040915Z 13015KT 100V160 9999 BKN025 BKN120 20/15
                        Q1018 NOSIG=
201111040900 METAR LMML NIL=
201111040845 METAR LMML 040845Z 13013KT 9999 BKN024 BKN120 19/14 Q1018
                        NOSIG=
201111040830 METAR LMML NIL=
201111040815 METAR LMML 040815Z 13013KT 9999 BKN024 BKN120 19/14 Q1018
                        NOSIG=
201111040800 METAR LMML NIL=
201111040745 METAR LMML 040745Z 13012KT 9999 BKN023 BKN120 19/15 Q1018
                        NOSIG=
201111040730 METAR LMML NIL=
201111040715 METAR COR LMML 040715Z 13012KT 9999 SCT025 BKN250 19/14 Q1018
                        NOSIG=
201111040700 METAR LMML NIL=
201111040645 METAR LMML 040645Z 13012KT 100V160 9999 SCT024 BKN250 19/14
                        Q1018 NOSIG=
201111040630 METAR LMML NIL=
201111040615 METAR LMML 040615Z 13010KT 9999 SCT025 BKN250 18/14 Q1017
                        NOSIG=
201111040600 METAR LMML NIL=
201111040545 METAR LMML 040545Z 13011KT 9999 SCT023 BKN250 18/14 Q1017
                        NOSIG=
201111040530 METAR LMML NIL=
201111040515 METAR LMML 040515Z 13010KT 9999 FEW022 BKN250 17/14 Q1017
                        NOSIG=
201111040500 METAR LMML NIL=
201111040445 METAR LMML 040445Z 13011KT 9999 FEW022 SCT250 18/14 Q1017
                        NOSIG=
201111040430 METAR LMML NIL=
201111040415 METAR LMML 040415Z 12013KT 9999 SCT021 BKN250 18/14 Q1017
                        NOSIG=
201111040400 METAR LMML NIL=
201111040345 METAR LMML 040345Z 12011KT 9999 SCT022 BKN250 18/14 Q1016
                        NOSIG=
201111040330 METAR LMML NIL=
201111040315 METAR LMML 040315Z 13012KT 9999 SCT023 BKN250 18/14 Q1017
                        NOSIG=
201111040300 METAR LMML NIL=
201111040245 METAR LMML 040245Z 13011KT 9999 SCT024 BKN250 18/14 Q1016
                        NOSIG=
201111040230 METAR LMML NIL=
201111040215 METAR LMML 040215Z 12012KT 9999 SCT021 BKN250 18/13 Q1016
                        NOSIG=
201111040200 METAR LMML NIL=
201111040145 METAR LMML 040145Z 12011KT 9999 BKN021 18/14 Q1016 NOSIG=
201111040130 METAR LMML NIL=
201111040115 METAR LMML 040115Z 11012KT 9999 BKN020 18/15 Q1016 NOSIG=
201111040100 METAR LMML NIL=
201111040045 METAR LMML 040045Z 11011KT 9999 BKN021 18/14 Q1016 NOSIG=
201111040030 METAR LMML NIL=
201111040015 METAR LMML 040015Z 11012KT 9999 BKN020 18/14 Q1017 NOSIG=
201111040000 METAR LMML NIL=
201111032345 METAR LMML 032345Z 11011KT 9999 BKN020 18/15 Q1017 NOSIG=
201111032330 METAR LMML NIL=
201111032315 METAR LMML 032315Z 12014KT 080V140 9999 BKN019 18/15 Q1016
                        NOSIG=
201111032300 METAR LMML NIL=
201111032245 METAR LMML 032245Z 12012KT 9999 SCT020 18/14 Q1017 NOSIG=
201111032230 METAR LMML NIL=
201111032215 METAR LMML 032215Z 12012KT 9999 FEW022 18/14 Q1017 NOSIG=
201111032200 METAR LMML NIL=
201111032145 METAR LMML 032145Z 11011KT 9999 SCT021 18/14 Q1017 NOSIG=
201111032130 METAR LMML NIL=
201111032115 METAR LMML 032115Z 11010KT 9999 FEW022 18/14 Q1017 NOSIG=
201111032100 METAR LMML NIL=
201111032045 METAR LMML 032045Z 12009KT 9999 FEW022 18/14 Q1017 NOSIG=
201111032030 METAR LMML NIL=
201111032015 METAR LMML 032015Z 11009KT 9999 FEW022 18/14 Q1017 NOSIG=
201111032000 METAR LMML NIL=
201111031945 METAR LMML 031945Z 11012KT 9999 SCT019 18/14 Q1017 NOSIG=
201111031930 METAR LMML NIL=
201111031915 METAR LMML 031915Z 11010KT 9999 SCT019 18/14 Q1017 NOSIG=
201111031900 METAR LMML NIL=
201111031845 METAR LMML 031845Z 11011KT 9999 SCT019 18/15 Q1017 NOSIG=
201111031830 METAR LMML NIL=
201111031815 METAR LMML 031815Z 11012KT 9999 SCT020 18/14 Q1016 NOSIG=
201111031800 METAR LMML NIL=
201111031745 METAR LMML 031745Z 11012KT 9999 SCT020 18/14 Q1016 NOSIG=
201111031730 METAR LMML NIL=
201111031715 METAR LMML 031715Z 11011KT 080V140 9999 SCT020 18/15 Q1016
                        NOSIG=
201111031700 METAR LMML NIL=
201111031645 METAR LMML 031645Z 11011KT 080V140 9999 SCT019 18/14 Q1016
                        NOSIG=
201111031630 METAR LMML NIL=
201111031615 METAR LMML 031615Z 10010KT 9999 SCT019 18/15 Q1015 NOSIG=
201111031600 METAR LMML NIL=
201111031545 METAR LMML 031545Z 10012KT 9999 SCT019 19/15 Q1015 NOSIG=
201111031530 METAR LMML NIL=
201111031515 METAR LMML 031515Z 11013KT 9999 BKN019 19/15 Q1015 NOSIG=
201111031500 METAR LMML NIL=
201111031445 METAR LMML 031445Z 11014KT 9999 BKN020 SCT100 19/15 Q1015
                        NOSIG=
201111031430 METAR LMML NIL=
201111031415 METAR LMML 031415Z 10015KT 9999 BKN020 20/15 Q1015 NOSIG=
201111031400 METAR LMML NIL=
201111031345 METAR LMML 031345Z 10014KT 9999 BKN018 19/15 Q1015 NOSIG=
201111031330 METAR LMML NIL=
201111031315 METAR LMML 031315Z 11015KT 070V140 9999 BKN019 20/15 Q1015
                        NOSIG=
201111031300 METAR LMML NIL=
201111031245 METAR LMML 031245Z 10016KT 060V120 9999 BKN019 SCT250 21/16
                        Q1015 NOSIG=
201111031230 METAR LMML NIL=
201111031215 METAR LMML 031215Z 10015KT 070V130 9999 BKN019 SCT120 20/16
                        Q1015 NOSIG=
201111031200 METAR LMML NIL=
201111031145 METAR LMML 031145Z 10017KT 9999 SCT019 SCT120 BKN250 20/15
                        Q1015 NOSIG=
201111031130 METAR LMML NIL=
201111031115 METAR LMML 031115Z 10016KT 070V130 9999 BKN019 BKN120 20/16
                        Q1015 NOSIG=
201111031100 METAR LMML NIL=
201111031045 METAR LMML 031045Z 10017KT 070V130 9999 BKN019 BKN120 20/16
                        Q1015 NOSIG=
201111031030 METAR LMML NIL=
201111031015 METAR LMML 031015Z 11019KT 9999 BKN019 BKN120 20/16 Q1015
                        NOSIG=
201111031000 METAR LMML NIL=
201111030945 METAR LMML 030945Z 11017KT 060V130 9999 BKN019 BKN120 20/16
                        Q1016 NOSIG=
201111030930 METAR LMML NIL=
201111030915 METAR LMML 030915Z 11019KT 9999 BKN020 BKN120 20/16 Q1015
                        NOSIG=
201111030900 METAR LMML NIL=
201111030845 METAR LMML 030845Z 10016KT 9999 SCT019 BKN100 20/16 Q1015
                        NOSIG=
201111030830 METAR LMML NIL=
201111030815 METAR LMML 030815Z 11016KT 9999 SCT019 BKN100 19/16 Q1015
                        NOSIG=
201111030745 METAR LMML 030745Z 10014KT 9999 SCT020 BKN100 19/15 Q1015
                        NOSIG=
201111030730 METAR LMML NIL=
201111030715 METAR LMML 030715Z 10015KT 7000 -RA SCT015 BKN100 19/16 Q1015
                        NOSIG=
201111030700 METAR LMML NIL=
201111030645 METAR LMML 030645Z 11011KT 6000 RA FEW009 SCT014 BKN060 18/17
                        Q1014 NOSIG=
201111030630 METAR LMML NIL=
201111030615 METAR LMML 030615Z 11010KT 080V140 5000 RA FEW008 OVC050
                        18/17 Q1014 NOSIG=
201111030600 METAR LMML NIL=
201111030545 METAR LMML 030545Z 11015KT 5000 RA FEW006 SCT012 BKN050 17/17
                        Q1014 RESHRA NOSIG=
201111030530 METAR LMML NIL=
201111030515 METAR LMML 030515Z 10011KT 7000 SHRA FEW005 BKN012 BKN050
                        17/17 Q1014 TEMPO 5000=
201111030500 METAR LMML NIL=
201111030445 METAR LMML 030445Z 11013KT 9000 SHRA FEW008 BKN018 BKN050
                        17/16 Q1013 NOSIG=
201111030430 METAR LMML NIL=
201111030415 METAR LMML 030415Z 09011KT 060V130 9999 FEW010 SCT017 BKN120
                        18/17 Q1013 RESHRA TEMPO 8000 RA
                        BKN010=
201111030400 METAR LMML NIL=
201111030345 METAR LMML 030345Z 08011KT 9999 FEW010 SCT039 BKN110 17/15
                        Q1013 RESHRA TEMPO 8000 RA BKN010=
201111030330 METAR LMML NIL=
201111030315 METAR LMML 030315Z 09015G26KT 050V120 6000 +SHRA SCT009 BKN014
                        18/17 Q1013 TEMPO 5000 TSRA BKN008
                        BKN015CB=
201111030300 METAR LMML NIL=
201111030245 METAR LMML 030245Z 09012KT 9999 SCT011 BKN017 18/17 Q1013
                        TEMPO 5000 TSRA BKN008 BKN015CB=
201111030230 METAR LMML NIL=
201111030215 METAR LMML 030215Z 09012KT 9999 SCT011 BKN025 18/16 Q1013
                        TEMPO 5000 TSRA BKN008 BKN015CB=
201111030200 METAR LMML NIL=
201111030145 METAR LMML 030145Z 09012KT 050V120 9999 FEW008 SCT023 BKN031
                        18/16 Q1013 TEMPO 5000 TSRA BKN008
                        BKN015CB RMK LIGHTNING TO SE=
201111030130 METAR LMML NIL=
201111030115 METAR LMML 030115Z 08011KT 9999 -RA FEW008 SCT020 BKN090
                        18/17 Q1013 RERA TEMPO 5000 TSRA
                        BKN008 BKN015CB RMK LIGHTNING TO
                        SE=
201111030100 METAR LMML NIL=
201111030045 METAR LMML 030045Z 08010KT 050V110 9000 FEW009 SCT022TCU
                        BKN080 18/17 Q1013 RETSRA TEMPO 5000
                        TSRA BKN008 BKN015CB=
201111030030 METAR LMML NIL=
201111030015 METAR LMML 030015Z 10013KT 7000 RA FEW015CB SCT050 BKN090
                        17/15 Q1013 RETSRA TEMPO 5000 TSRA
                        BKN008 BKN015CB=
201111030000 METAR LMML NIL=
201111022345 METAR LMML 022345Z 09013KT 070V130 9000 TSRA FEW013CB SCT019
                        BKN090 17/13 Q1013 TEMPO 5000 TSRA
                        BKN008 BKN015CB=
201111022330 METAR LMML NIL=
201111022315 METAR LMML 022315Z 08008KT 060V120 9000 -RA FEW008 SCT040
                        BKN110 18/17 Q1013 TEMPO 5000 TSRA
                        BKN008 BKN015CB RMK LIGHTNING TO
                        EAST=
201111022300 METAR LMML NIL=
201111022245 METAR LMML 022245Z 08006KT 9000 -RA FEW008 SCT024 BKN110
                        18/16 Q1013 TEMPO 5000 TSRA BKN008
                        BKN015CB=
201111022215 METAR LMML 022215Z 10013KT 9000 -RA FEW013 SCT080 BKN110
                        18/15 Q1013 TEMPO 5000 TSRA BKN008
                        BKN015CB RMK LIGHTNING TO N=
201111022200 METAR LMML NIL=
201111022145 METAR LMML 022145Z 11011KT 9999 -RA FEW011 SCT021 BKN110
                        19/17 Q1013 TEMPO 5000 TSRA BKN008
                        BKN015CB=
201111022130 METAR LMML NIL=
201111022115 METAR LMML 022115Z 10009KT 070V140 9999 FEW010 SCT016 BKN110
                        19/18 Q1013 TEMPO 5000 TSRA BKN008
                        BKN015CB RMK LIGHTNING TO NW=
201111022100 METAR LMML NIL=
201111022045 METAR LMML 022045Z 11008KT 080V140 9999 -RA FEW009 SCT022
                        BKN110 19/17 Q1013 TEMPO 5000 TSRA
                        BKN008 BKN015CB RMK LIGHTNING TO
                        NORTH=
201111022030 METAR LMML NIL=
201111022015 METAR LMML 022015Z 08005KT 030V110 9999 FEW009 BKN110 18/16
                        Q1013 TEMPO 5000 TSRA BKN008 BKN015CB
                        RMK LIGHTNING TO NORTH=
201111022000 METAR LMML NIL=
201111021945 METAR LMML 021945Z 09005KT 040V130 9999 FEW012 BKN110 18/17
                        Q1013 TEMPO 5000 TSRA BKN008 BKN015CB
                        RMK LIGHTNING TO NORTH=
201111021930 METAR LMML NIL=
201111021915 METAR LMML 021915Z 03004KT 9999 -RA FEW014 BKN110 19/17 Q1013
                        TEMPO 5000 TSRA BKN008 BKN015CB=
201111021900 METAR LMML NIL=
201111021845 METAR LMML 021845Z 03007KT 350V060 9999 FEW010 BKN110 19/17
                        Q1013 TEMPO 9000 BKN008=
201111021830 METAR LMML NIL=
201111021815 METAR LMML 021815Z 03009KT 9999 SCT008 SCT019 BKN120 19/17
                        Q1013 TEMPO 9000 BKN008=
201111021800 METAR LMML NIL=
201111021745 METAR LMML 021745Z 02007KT 350V080 9999 SCT010 BKN120 19/17
                        Q1013 TEMPO 9000 BKN010 RMK LIGHTNING
                        TO NORTHEAST=
201111021730 METAR LMML NIL=
201111021715 METAR LMML 021715Z 03007KT 360V070 9999 FEW008 BKN100 19/17
                        Q1013 TEMPO 9000 BKN008=
201111021645 METAR LMML 021645Z 03009KT 360V060 9999 SCT008 BKN100 18/16
                        Q1013 TEMPO 9000 BKN008=
201111021630 METAR LMML NIL=
201111021615 METAR LMML 021615Z 03009KT 010V070 9999 FEW008 BKN100 19/16
                        Q1013 TEMPO 8000 SHRA=
201111021600 METAR LMML NIL=
201111021545 METAR LMML 021545Z 03011KT 010V070 9000 FEW008 BKN100 19/16
                        Q1012 NOSIG=
201111021530 METAR LMML NIL=
201111021515 METAR LMML 021515Z 03011KT 010V070 9000 BKN007 BKN100 19/17
                        Q1013 NOSIG=
201111021500 METAR LMML NIL=
201111021445 METAR LMML 021445Z 04010KT 9999 BKN012 BKN120 19/17 Q1013
                        TEMPO 8000 SHRA=
201111021430 METAR LMML NIL=
201111021415 METAR LMML 021415Z 04007KT 010V080 9999 BKN011 20/17 Q1013
                        TEMPO 8000 SHRA=
201111021400 METAR LMML NIL=
201111021345 METAR LMML 021345Z 04009KT 010V070 9999 SCT011 BKN120 20/17
                        Q1013 TEMPO 8000 SHRA BKN011=
201111021330 METAR LMML NIL=
201111021315 METAR LMML 021315Z 04007KT 350V100 9999 SCT013 BKN120 21/17
                        Q1013 TEMPO 8000 SHRA BKN013=
201111021300 METAR LMML NIL=
201111021245 METAR LMML 021245Z 06006KT 020V100 9999 SCT017 BKN120 BKN250
                        21/16 Q1013 NOSIG=
201111021230 METAR LMML NIL=
201111021215 METAR LMML 021215Z 08005KT 9999 FEW017 SCT120 BKN250 20/15
                        Q1013 NOSIG=
201111021200 METAR LMML NIL=
201111021145 METAR LMML 021145Z 07005KT 020V110 9999 FEW017 SCT120 BKN250
                        21/16 Q1013 NOSIG=
201111021130 METAR LMML NIL=
201111021115 METAR LMML 021115Z 05006KT 010V080 9999 FEW015 BKN120 BKN250
                        21/16 Q1013 NOSIG=
201111021100 METAR LMML NIL=
201111021045 METAR LMML 021045Z 04006KT 360V080 9999 SCT015 SCT120 BKN250
                        21/17 Q1013 NOSIG=
201111021030 METAR LMML NIL=
201111021015 METAR LMML 021015Z 02005KT 9999 SCT014 SCT120 BKN250 21/17
                        Q1014 NOSIG=
201111021000 METAR LMML NIL=
201111020945 METAR LMML 020945Z 04005KT 360V080 9999 SCT016 BKN250 21/16
                        Q1014 NOSIG=
201111020930 METAR LMML NIL=
201111020915 METAR LMML 020915Z 02004KT 340V050 9999 SCT016 BKN250 20/17
                        Q1014 TEMPO 8000 SHRA BKN015=
201111020900 METAR LMML NIL=
201111020845 METAR LMML 020845Z 02004KT 340V070 9999 SCT015 BKN250 21/17
                        Q1014 TEMPO 8000 SHRA BKN015=
201111020830 METAR LMML NIL=
201111020815 METAR LMML 020815Z 02004KT 350V050 9999 SCT012 BKN250 20/18
                        Q1014 TEMPO 8000 SHRA BKN012=
201111020800 METAR LMML NIL=
201111020745 METAR LMML 020745Z VRB02KT 6000 SCT012 BKN250 20/20 Q1014
                        NOSIG=
201111020730 METAR LMML NIL=
201111020715 METAR LMML 020715Z 04003KT 6000 FEW015TCU BKN250 19/19 Q1014
                        NOSIG=
201111020700 METAR LMML NIL=
201111020645 METAR LMML 020645Z VRB01KT 4500 R13/1400N BR FEW015TCU BKN250
                        18/18 Q1014 BECMG 6000=
201111020630 METAR LMML NIL=
201111020615 METAR LMML 020615Z VRB02KT 4500 R13/1400N BR FEW015 BKN250
                        17/17 Q1014 NOSIG=
201111020600 METAR LMML NIL=
201111020545 METAR LMML 020545Z 00000KT 4000 BR FEW015 BKN250 15/15 Q1014
                        TEMPO 5000=
201111020530 METAR LMML NIL=
201111020515 METAR LMML 020515Z VRB01KT 4000 R13/0789V1159D MIFG FEW010
                        SCT250 15/15 Q1013 TEMPO 3000=
201111020500 METAR LMML NIL=
201111020445 METAR LMML 020445Z VRB01KT 4000 R13/0844VP1500U MIFG FEW015
                        SCT080 15/15 Q1013 TEMPO 3000=
201111020430 METAR LMML NIL=
201111020415 METAR LMML 020415Z VRB01KT 4000 MIFG FEW015 16/16 Q1013 TEMPO
                        3000=
201111020400 METAR LMML NIL=
201111020345 METAR LMML 020345Z VRB01KT 4000 BR FEW015 16/16 Q1013 TEMPO
                        3000=
201111020330 METAR LMML NIL=
201111020315 METAR LMML 020315Z VRB01KT 7000 FEW015 16/16 Q1013 TEMPO
                        SHRA=
201111020300 METAR LMML NIL=
201111020245 METAR LMML 020245Z VRB01KT 7000 FEW015 15/15 Q1013 TEMPO
                        SHRA=
201111020230 METAR LMML NIL=
201111020215 METAR LMML 020215Z VRB02KT 9999 FEW015 16/16 Q1013 TEMPO
                        SHRA=
201111020200 METAR LMML NIL=
201111020145 METAR LMML 020145Z VRB01KT CAVOK 16/16 Q1013 TEMPO SHRA=
201111020130 METAR LMML NIL=
201111020115 METAR LMML 020115Z VRB01KT CAVOK 16/16 Q1014 TEMPO SHRA=
201111020100 METAR LMML NIL=
201111020045 METAR LMML 020045Z VRB01KT CAVOK 16/16 Q1014 TEMPO SHRA=
201111020030 METAR LMML NIL=
201111020015 METAR LMML 020015Z VRB01KT CAVOK 16/16 Q1014 TEMPO SHRA=
201111020000 METAR LMML NIL=
201111012345 METAR LMML 012345Z VRB01KT CAVOK 16/16 Q1014 TEMPO SHRA=
201111012330 METAR LMML NIL=
201111012315 METAR LMML 012315Z VRB02KT CAVOK 17/17 Q1014 TEMPO SHRA=
201111012300 METAR LMML NIL=
201111012245 METAR LMML 012245Z VRB01KT CAVOK 16/16 Q1014 TEMPO SHRA=
201111012230 METAR LMML NIL=
201111012215 METAR LMML 012215Z VRB02KT 9999 FEW008 SCT110 17/17 Q1014
                        TEMPO SHRA=
201111012200 METAR LMML NIL=
201111012145 METAR LMML 012145Z VRB02KT 9999 FEW008 SCT110 17/17 Q1014
                        TEMPO SHRA=
201111012130 METAR LMML NIL=
201111012115 METAR LMML 012115Z VRB02KT 9999 FEW008 BKN110 17/17 Q1014
                        TEMPO SHRA=
201111012100 METAR LMML NIL=
201111012045 METAR LMML 012045Z 29004KT 9999 FEW008 BKN110 17/17 Q1014
                        TEMPO SHRA=
201111012030 METAR LMML NIL=
201111012015 METAR LMML 012015Z VRB02KT 9999 FEW008 BKN110 18/17 Q1014
                        TEMPO SHRA=
201111012000 METAR LMML NIL=
201111011945 METAR LMML 011945Z 32003KT 9999 FEW008 BKN100 18/16 Q1014
                        TEMPO SHRA=
201111011930 METAR LMML NIL=
201111011915 METAR LMML 011915Z 36005KT 9999 FEW009 BKN110 18/17 Q1014
                        TEMPO SHRA=
201111011900 METAR LMML NIL=
201111011845 METAR LMML 011845Z 36005KT 330V030 9999 FEW009 BKN110 18/17
                        Q1014 TEMPO SHRA=
201111011830 METAR LMML NIL=
201111011815 METAR LMML 011815Z 33003KT 9999 FEW008 BKN110 18/17 Q1014
                        TEMPO SHRA=
201111011800 METAR LMML NIL=
201111011745 METAR LMML 011745Z 33003KT 9999 FEW015 BKN110 19/17 Q1013
                        NOSIG=
201111011730 METAR LMML NIL=
201111011715 METAR LMML 011715Z VRB01KT 9999 FEW015 BKN110 19/17 Q1013
                        NOSIG=
201111011700 METAR LMML NIL=
201111011645 METAR LMML 011645Z VRB02KT 9999 FEW015 BKN110 19/17 Q1013
                        TEMPO 8000 RA BKN015=
201111011630 METAR LMML NIL=
201111011615 METAR LMML 011615Z VRB02KT 9999 FEW015 BKN100 19/17 Q1013
                        TEMPO 8000 RA BKN015=
201111011545 METAR LMML 011545Z 08003KT 9999 FEW015 BKN110 20/17 Q1013
                        NOSIG=
201111011530 METAR LMML NIL=
201111011515 METAR LMML 011515Z 11004KT 070V170 9999 FEW013 BKN110 20/17
                        Q1013 NOSIG=
201111011500 METAR LMML NIL=
201111011445 METAR LMML 011445Z 09006KT 050V120 9999 FEW015 BKN110 20/17
                        Q1013 NOSIG=
201111011430 METAR LMML NIL=
201111011415 METAR LMML 011415Z 10009KT 9999 SCT013 BKN110 BKN250 20/17
                        Q1013 TEMPO BKN013=
201111011400 METAR LMML NIL=
201111011345 METAR LMML 011345Z 09008KT 060V120 9999 SCT014 SCT040 BKN110
                        20/17 Q1013 TEMPO BKN014=
201111011330 METAR LMML NIL=
201111011315 METAR LMML 011315Z 11008KT 060V150 9999 SCT019 BKN110 21/17
                        Q1013 TEMPO BKN015=
201111011300 METAR LMML NIL=
201111011245 METAR LMML 011245Z 08006KT 030V120 CAVOK 21/17 Q1013 TEMPO
                        BKN015=
201111011230 METAR LMML NIL=
201111011215 METAR LMML 011215Z 08008KT 9999 SCT020 BKN100 20/16 Q1013
                        TEMPO BKN015=
201111011200 METAR LMML NIL=
201111011145 METAR LMML 011145Z 11007KT 9999 BKN015 BKN110 21/17 Q1013
                        TEMPO BKN015=
201111011130 METAR LMML NIL=
201111011115 METAR LMML 011115Z 13007KT 100V160 9999 SCT013 BKN080 21/17
                        Q1013 NOSIG=
201111011100 METAR LMML NIL=
201111011045 METAR LMML 011045Z 13007KT 100V160 9999 FEW010 SCT017 BKN070
                        20/18 Q1013 NOSIG=
201111011030 METAR LMML NIL=
201111011015 METAR LMML 011015Z 11008KT 9999 FEW010 SCT013 BKN060 20/18
                        Q1013 TEMPO 5000 SHRA BKN008 BKN015TCU=
201111011000 METAR LMML NIL=
201111010945 METAR LMML 010945Z 12009KT 100V160 9999 FEW010 SCT013 BKN050
                        20/18 Q1014 RERA TEMPO 5000 SHRA
                        BKN008 BKN015=
201111010930 METAR LMML NIL=
201111010915 METAR LMML 010915Z 13009KT 9999 SCT010 SCT013 BKN050 20/18
                        Q1014 RERA TEMPO 5000 SHRA BKN008
                        BKN015=
201111010900 METAR LMML NIL=
201111010845 METAR LMML 010845Z 13011G21KT 070V180 3000 +RA BKN009 BKN045
                        18/17 Q1014 BECMG 5000=
201111010830 METAR LMML NIL=
201111010815 METAR LMML 010815Z 08015KT 050V110 8000 BKN010 BKN040 20/18
                        Q1013 TEMPO 5000 RA=
201111010800 METAR LMML NIL=
201111010745 METAR LMML 010745Z 08014KT 5000 -RA BKN009 BKN040 BKN080
                        19/18 Q1013 NOSIG=
201111010730 METAR LMML NIL=
201111010715 METAR LMML 010715Z 08015KT 050V110 7000 -RA BKN009 BKN040
                        BKN090 19/17 Q1013 NOSIG=
201111010700 METAR LMML NIL=
201111010645 METAR LMML 010645Z 07015KT 040V100 7000 -RA BKN008 BKN050
                        BKN090 19/17 Q1013 NOSIG=
201111010630 METAR LMML NIL=
201111010615 METAR LMML 010615Z 08014KT 040V110 9999 SCT009 BKN050 BKN100
                        19/17 Q1013 NOSIG=
201111010600 METAR LMML NIL=
201111010545 METAR LMML 010545Z 08014KT 9000 SCT010 BKN060 BKN100 19/17
                        Q1013 BECMG 9999=
201111010515 METAR LMML 010515Z 08013KT 9000 -RA BKN010 OVC050 19/17 Q1013
                        BECMG 9999 BKN012=
201111010500 METAR LMML NIL=
201111010445 METAR LMML 010445Z 08014KT 9999 -RA BKN010 BKN050 18/17 Q1013
                        BECMG BKN012=
201111010430 METAR LMML NIL=
201111010415 METAR LMML 010415Z 09015KT 060V120 9999 RA BKN014 BKN120
                        19/16 Q1013 NOSIG=
201111010400 METAR LMML NIL=
201111010345 METAR LMML 010345Z 09013KT 9999 -RA BKN014 BKN120 19/16 Q1013
                        NOSIG=
201111010330 METAR LMML NIL=
201111010315 METAR LMML 010315Z 09014KT 9999 -RA BKN014 BKN040 BKN120
                        18/16 Q1013 NOSIG=
201111010300 METAR LMML NIL=
201111010245 METAR LMML 010245Z 09015KT 6000 RA BKN013 BKN040 BKN120 18/16
                        Q1013 NOSIG=
201111010230 METAR LMML NIL=
201111010215 METAR LMML 010215Z 09014KT 5000 RA BKN012 BKN040 18/16 Q1013
                        NOSIG=
201111010200 METAR LMML NIL=
201111010145 METAR LMML 010145Z 09014KT 040V120 9999 BKN014 BKN100 19/16
                        Q1014 NOSIG=
201111010115 METAR LMML 010115Z 09014KT 060V120 9999 BKN014 BKN100 19/16
                        Q1014 NOSIG=
201111010100 METAR LMML NIL=
201111010045 METAR LMML 010045Z 10015KT 070V130 9999 BKN014 BKN100 19/16
                        Q1014 NOSIG=
201111010030 METAR LMML NIL=
201111010015 METAR LMML 010015Z 10016KT 060V120 9999 BKN014 BKN100 19/16
                        Q1014 NOSIG=
201111010000 METAR LMML NIL=

###################################
#  short TAF from LMML
###################################
201112012300 TAF LMML 012300Z 0200/0209 VRB03KT 9999 FEW020 SCT035
                      PROB30 TEMPO 0200/0206 9000=
201112012000 TAF LMML 012000Z 0121/0206 VRB03KT 9999 FEW020 SCT040
                      PROB30 TEMPO 0200/0206 9000=
201112011700 TAF LMML 011700Z 0118/0203 03005KT 9999 FEW020=
201112011400 TAF LMML 011400Z 0115/0124 03005KT 9999 FEW020=
201112011100 TAF LMML 011100Z 0109/0118 03005KT 9999 SCT025=
201112010800 TAF LMML 010800Z 0106/0115 03005KT 9999 SCT020=
201112010500 TAF LMML 010500Z 0106/0115 04005KT 9999 SCT015
                      PROB30 TEMPO 0106/0112 8000 SHRA BKN015=
201112010200 TAF LMML 010200Z 0103/0112 06005KT 9999 FEW015
                      TEMPO 0103/0109 7000 SHRA
                      PROB30 TEMPO 0103/0106 5000 TSRA BKN015CB=

###################################
#  large TAF from LMML
###################################
201112012300 TAF LMML NIL=
201112011700 TAF LMML NIL=
201112011100 TAF LMML NIL=
201112010500 TAF LMML NIL=
