##########################################################
# Query made at 12/28/2012 16:29:22 UTC
# Time interval: from 11/01/2012 00:00  to 12/01/2012 23:59  UTC
##########################################################

##########################################################
# LMML, Luqa (Malta)
# WMO index: 16597
# Latitude 35-51N. Longitude 014-29E. Altitude 91 m.
##########################################################

###################################
#  METAR/SPECI from LMML
###################################
201212012345 METAR LMML 012345Z AUTO 23005KT CAVOK 14/07 Q1011=
201212012330 METAR LMML NIL=
201212012315 METAR LMML 012315Z AUTO 20004KT CAVOK 15/06 Q1011=
201212012300 METAR LMML NIL=
201212012245 METAR LMML 012245Z AUTO 22003KT 180V240 CAVOK 15/06 Q1012=
201212012230 METAR LMML NIL=
201212012215 METAR LMML 012215Z AUTO 21004KT CAVOK 15/06 Q1012=
201212012200 METAR LMML NIL=
201212012145 METAR LMML 012145Z AUTO 22004KT 190V250 CAVOK 15/06 Q1012=
201212012130 METAR LMML NIL=
201212012115 METAR LMML 012115Z AUTO 21004KT CAVOK 14/06 Q1012=
201212012100 METAR LMML NIL=
201212012045 METAR LMML 012045Z AUTO 20006KT 9999NDV FEW048/// 15/06 Q1012=
201212012030 METAR LMML NIL=
201212012015 METAR LMML 012015Z AUTO 20004KT 170V230 9999NDV FEW048///
                        SCT054/// 14/08 Q1012=
201212012000 METAR LMML NIL=
201212011945 METAR LMML 011945Z 21004KT 9999 SCT044 14/07 Q1012 NOSIG=
201212011930 METAR LMML NIL=
201212011915 METAR LMML 011915Z VRB02KT 9999 SCT044 13/07 Q1012 NOSIG=
201212011900 METAR LMML NIL=
201212011845 METAR LMML 011845Z 27004KT 9999 BKN044 14/07 Q1012 NOSIG=
201212011830 METAR LMML NIL=
201212011815 METAR LMML 011815Z 26003KT 220V300 9999 SCT044 14/07 Q1011
                        NOSIG=
201212011800 METAR LMML NIL=
201212011745 METAR LMML 011745Z 25005KT 9999 FEW040 14/07 Q1011 NOSIG=
201212011730 METAR LMML NIL=
201212011715 METAR LMML 011715Z 25004KT 210V270 9999 FEW040 14/07 Q1011
                        NOSIG=
201212011700 METAR LMML NIL=
201212011645 METAR LMML 011645Z 25005KT 9999 FEW040 14/07 Q1011 NOSIG=
201212011630 METAR LMML NIL=
201212011615 METAR LMML 011615Z 25006KT 9999 FEW040 15/07 Q1011 NOSIG=
201212011600 METAR LMML NIL=
201212011545 METAR LMML 011545Z 26006KT 230V290 9999 FEW040 15/07 Q1011
                        NOSIG=
201212011530 METAR LMML NIL=
201212011515 METAR LMML 011515Z 26009KT 230V290 9999 FEW039 16/07 Q1011
                        NOSIG=
201212011500 METAR LMML NIL=
201212011445 METAR LMML 011445Z 26008KT 9999 FEW039 16/08 Q1011 NOSIG=
201212011430 METAR LMML NIL=
201212011415 METAR LMML 011415Z AUTO 25009KT 230V290 9999NDV FEW041///
                        SCT047/// OVC055/// 16/07 Q1010=
201212011400 METAR LMML NIL=
201212011345 METAR LMML 011345Z 25008KT 220V280 9999 SCT039 16/08 Q1010
                        NOSIG=
201212011330 METAR LMML NIL=
201212011315 METAR LMML 011315Z 25008KT 220V280 9999 SCT039 16/08 Q1010
                        NOSIG=
201212011300 METAR LMML NIL=
201212011245 METAR LMML 011245Z 22009KT 9999 SCT040 16/07 Q1010 NOSIG=
201212011230 METAR LMML NIL=
201212011215 METAR LMML 011215Z 22010G20KT 190V250 9999 FEW040 17/07 Q1010
                        NOSIG=
201212011200 METAR LMML NIL=
201212011145 METAR LMML 011145Z 22010KT 190V270 9999 FEW040 17/07 Q1010
                        NOSIG=
201212011130 METAR LMML NIL=
201212011115 METAR LMML 011115Z 23010KT 190V280 9999 FEW035 18/06 Q1011
                        NOSIG=
201212011100 METAR LMML NIL=
201212011045 METAR LMML 011045Z 22011KT 190V250 9999 FEW035 18/07 Q1011
                        NOSIG=
201212011030 METAR LMML NIL=
201212011015 METAR LMML 011015Z 22010KT 190V250 9999 FEW035 18/06 Q1011
                        NOSIG=
201212011000 METAR LMML NIL=
201212010945 METAR LMML 010945Z 24011KT 210V270 9999 FEW035 17/06 Q1011
                        NOSIG=
201212010930 METAR LMML NIL=
201212010915 METAR LMML 010915Z 23009KT 200V270 9999 FEW035 17/06 Q1011
                        NOSIG=
201212010900 METAR LMML NIL=
201212010845 METAR LMML 010845Z 23010KT 190V260 9999 FEW035 17/06 Q1011
                        NOSIG=
201212010830 METAR LMML NIL=
201212010815 METAR LMML 010815Z 24007KT 200V290 9999 FEW035 17/08 Q1011
                        NOSIG=
201212010800 METAR LMML NIL=
201212010745 METAR LMML 010745Z 25005KT 230V290 9999 BKN040 15/08 Q1010
                        NOSIG=
201212010730 METAR LMML NIL=
201212010715 METAR LMML 010715Z 26007KT 9999 BKN039 15/08 Q1010 NOSIG=
201212010700 METAR LMML NIL=
201212010645 METAR LMML 010645Z 25006KT 9999 BKN039 15/08 Q1010 NOSIG=
201212010630 METAR LMML NIL=
201212010615 METAR LMML 010615Z 24005KT 9999 BKN041 14/08 Q1010 NOSIG=
201212010600 METAR LMML NIL=
201212010545 METAR LMML 010545Z 26005KT 9999 FEW039 13/08 Q1010 NOSIG=
201212010530 METAR LMML NIL=
201212010515 METAR LMML 010515Z 29003KT 250V320 9999 SCT037 13/08 Q1009
                        NOSIG=
201212010500 METAR LMML NIL=
201212010445 METAR LMML 010445Z 28004KT 9999 FEW040 13/08 Q1009 NOSIG=
201212010430 METAR LMML NIL=
201212010415 METAR LMML 010415Z 28005KT 9999 FEW040 13/08 Q1009 NOSIG=
201212010400 METAR LMML NIL=
201212010345 METAR LMML 010345Z AUTO 28007KT 9999NDV FEW041/// 14/08 Q1009=
201212010330 METAR LMML NIL=
201212010315 METAR LMML 010315Z AUTO 26006KT CAVOK 14/07 Q1009=
201212010245 METAR LMML 010245Z AUTO 28007KT CAVOK 15/07 Q1009=
201212010215 METAR LMML 010215Z AUTO 25007KT 220V280 CAVOK 15/06 Q1008=
201212010145 METAR LMML 010145Z AUTO 25008KT 9999NDV SCT049/// 15/06 Q1009=
201212010115 METAR LMML 010115Z AUTO 24010KT CAVOK 15/05 Q1009=
201212010100 METAR LMML NIL=
201212010045 METAR LMML 010045Z AUTO 27004KT 220V310 9999NDV BKN044///
                        BKN049/// 13/08 Q1009=
201212010030 METAR LMML NIL=
201212010015 METAR LMML 010015Z AUTO 26006KT 230V300 CAVOK 14/08 Q1009=
201211302345 METAR LMML 302345Z AUTO 27005KT CAVOK 13/07 Q1009=
201211302330 METAR LMML NIL=
201211302315 METAR LMML 302315Z AUTO 29007KT 9999NDV FEW040/// 14/08 Q1009=
201211302245 METAR LMML 302245Z AUTO 26008KT 220V300 9999NDV SCT043///
                        BKN050/// 15/07 Q1009=
201211302230 METAR LMML NIL=
201211302215 METAR LMML 302215Z AUTO 25004KT 9999NDV SCT042/// SCT052///
                        14/07 Q1009=
201211302200 METAR LMML NIL=
201211302145 METAR LMML 302145Z AUTO 26004KT 9999NDV FEW043/// SCT087///
                        14/06 Q1009=
201211302130 METAR LMML NIL=
201211302115 METAR LMML 302115Z AUTO 27005KT 240V310 9999NDV FEW048///
                        SCT057/// 14/06 Q1009=
201211302100 METAR LMML NIL=
201211302045 METAR LMML 302045Z AUTO 27006KT CAVOK 14/06 Q1008=
201211302030 METAR LMML NIL=
201211302015 METAR LMML 302015Z AUTO 26005KT 9999NDV BKN049/// BKN054///
                        14/06 Q1008=
201211302000 METAR LMML NIL=
201211301945 METAR LMML 301945Z 26006KT CAVOK 14/05 Q1008 NOSIG=
201211301930 METAR LMML NIL=
201211301915 METAR LMML 301915Z 26005KT 9999 SCT049 14/05 Q1008 NOSIG=
201211301900 METAR LMML NIL=
201211301845 METAR LMML 301845Z 26005KT 9999 SCT037 14/06 Q1007 NOSIG=
201211301830 METAR LMML NIL=
201211301815 METAR LMML 301815Z 27006KT 240V300 9999 SCT043 15/06 Q1007
                        NOSIG=
201211301800 METAR LMML NIL=
201211301745 METAR LMML 301745Z 28007KT 250V320 9999 FEW048 14/06 Q1007
                        NOSIG=
201211301730 METAR LMML NIL=
201211301715 METAR LMML 301715Z 28007KT 9999 FEW047 14/06 Q1007 NOSIG=
201211301700 METAR LMML NIL=
201211301645 METAR LMML 301645Z 28008KT 9999 SCT048 14/06 Q1006 NOSIG=
201211301630 METAR LMML NIL=
201211301615 METAR LMML 301615Z 28009KT 250V310 9999 SCT048 15/05 Q1006
                        NOSIG=
201211301600 METAR LMML NIL=
201211301545 METAR LMML 301545Z 28010KT 9999 SCT045 15/05 Q1006 NOSIG=
201211301530 METAR LMML NIL=
201211301515 METAR LMML 301515Z 28010KT 9999 SCT049 15/06 Q1006 NOSIG=
201211301500 METAR LMML NIL=
201211301445 METAR LMML 301445Z 28012KT 9999 SCT049 16/06 Q1005 NOSIG=
201211301430 METAR LMML NIL=
201211301415 METAR LMML 301415Z 27013KT 240V310 9999 SCT047 16/06 Q1005
                        NOSIG=
201211301400 METAR LMML NIL=
201211301345 METAR LMML 301345Z 26014G25KT 230V300 9999 FEW040 16/06 Q1005
                        NOSIG=
201211301330 METAR LMML NIL=
201211301315 METAR LMML 301315Z 27015KT 230V290 9999 SCT040 16/07 Q1005
                        NOSIG=
201211301300 METAR LMML NIL=
201211301245 METAR LMML 301245Z AUTO 25016KT 220V280 9999NDV NCD 16/09
                        Q1005=
201211301230 METAR LMML NIL=
201211301215 METAR LMML 301215Z 25014KT 220V280 9999 FEW022 15/08 Q1005
                        TEMPO 8000 SHRA=
201211301200 METAR LMML NIL=
201211301145 METAR LMML 301145Z 24012KT 200V260 9999 -RA FEW022 13/08
                        Q1005 NOSIG=
201211301130 METAR LMML NIL=
201211301115 METAR LMML 301115Z 27017G27KT 240V300 9000 RA SCT017 BKN040
                        12/09 Q1006 TEMPO 2000 TSRA BKN030CB=
201211301100 METAR LMML NIL=
201211301045 METAR LMML 301045Z 24011KT 200V270 8000 -RA BKN019 SCT040
                        13/10 Q1006 RETS TEMPO 25018G28KT
                        5000 TSRA BKN030CB=
201211301030 METAR LMML NIL=
201211301015 METAR LMML 301015Z 24012KT 9000 -RA FEW019 SCT040 13/10 Q1006
                        RETS TEMPO 25018G28KT 5000 TSRA BKN030CB=
201211301000 METAR LMML NIL=
201211300945 METAR LMML 300945Z 26014KT 230V290 5000 -RA SCT026 BKN040
                        13/09 Q1007 TEMPO 25018G28KT 2000=
201211300915 METAR LMML 300915Z 23019G29KT 4000 RA SCT024 14/09 Q1006
                        TEMPO 25018G28KT 2000 TSRA BKN030CB=
201211300900 METAR LMML NIL=
201211300845 METAR LMML 300845Z 23015KT 170V250 9000 RA SCT032 16/06 Q1006
                        TEMPO 25018G28KT 5000 TSRA BKN030CB=
201211300830 METAR LMML NIL=
201211300815 METAR LMML 300815Z 23014KT 190V270 9999 BKN049 16/05 Q1005
                        NOSIG=
201211300800 METAR LMML NIL=
201211300745 METAR LMML 300745Z 22011KT 200V260 9999 SCT045 16/06 Q1005
                        NOSIG=
201211300730 METAR LMML NIL=
201211300715 METAR LMML 300715Z 22011KT 180V250 9999 SCT045 16/05 Q1005
                        NOSIG=
201211300700 METAR LMML NIL=
201211300645 METAR LMML 300645Z 23012KT 200V260 9999 SCT045 16/05 Q1005
                        NOSIG=
201211300630 METAR LMML NIL=
201211300615 METAR LMML 300615Z 23011KT 200V260 9999 SCT045 16/05 Q1005
                        NOSIG=
201211300600 METAR LMML NIL=
201211300545 METAR LMML 300545Z 23007KT 190V260 9999 SCT047 15/07 Q1005
                        NOSIG=
201211300530 METAR LMML NIL=
201211300515 METAR LMML 300515Z 25007KT 220V280 9999 SCT039 15/08 Q1005
                        NOSIG=
201211300500 METAR LMML NIL=
201211300445 METAR LMML 300445Z 25007KT 220V290 9999 SCT039 15/08 Q1005
                        NOSIG=
201211300430 METAR LMML NIL=
201211300415 METAR LMML 300415Z 24010KT 9999 SCT042 15/07 Q1004 NOSIG=
201211300400 METAR LMML NIL=
201211300345 METAR LMML 300345Z 25008KT 9999 SCT043 15/07 Q1005 NOSIG=
201211300330 METAR LMML NIL=
201211300315 METAR LMML 300315Z 25010KT 9999 FEW045 15/06 Q1005 NOSIG=
201211300300 METAR LMML NIL=
201211300245 METAR LMML 300245Z AUTO 25008KT 9999NDV FEW044/// 15/06 Q1005=
201211300230 METAR LMML NIL=
201211300215 METAR LMML 300215Z AUTO 25010KT 9999NDV FEW046/// 15/06 Q1005=
201211300200 METAR LMML NIL=
201211300145 METAR LMML 300145Z AUTO 26010KT 230V300 CAVOK 15/05 Q1005=
201211300130 METAR LMML NIL=
201211300115 METAR LMML 300115Z AUTO 26011KT 230V290 9999NDV FEW046///
                        15/06 Q1006=
201211300100 METAR LMML NIL=
201211300045 METAR LMML 300045Z AUTO 26012KT 230V290 CAVOK 15/05 Q1006=
201211300030 METAR LMML NIL=
201211300015 METAR LMML 300015Z AUTO 25012KT 230V290 CAVOK 15/05 Q1006=
201211300000 METAR LMML NIL=
201211292345 METAR LMML 292345Z AUTO 25014KT 9999NDV SCT045/// 16/05 Q1006=
201211292330 METAR LMML NIL=
201211292315 METAR LMML 292315Z AUTO 25011KT 220V290 CAVOK 16/05 Q1006=
201211292300 METAR LMML NIL=
201211292245 METAR LMML 292245Z AUTO 25010KT 220V280 9999NDV FEW047///
                        16/06 Q1006=
201211292230 METAR LMML NIL=
201211292215 METAR LMML 292215Z AUTO 24011KT 210V270 9999NDV SCT044///
                        SCT049/// BKN056/// 16/06 Q1006=
201211292200 METAR LMML NIL=
201211292145 METAR LMML 292145Z AUTO 25010KT 220V280 9999NDV FEW046///
                        16/06 Q1006=
201211292130 METAR LMML NIL=
201211292115 METAR LMML 292115Z AUTO 25011KT 9999NDV FEW048/// 16/06 Q1006=
201211292100 METAR LMML NIL=
201211292045 METAR LMML 292045Z 25010KT 9999 FEW043 15/07 Q1006 NOSIG=
201211292030 METAR LMML NIL=
201211292015 METAR LMML 292015Z 26012KT 230V290 9999 FEW042 16/06 Q1006
                        NOSIG=
201211292000 METAR LMML NIL=
201211291945 METAR LMML 291945Z 26011KT 230V290 9999 SCT042 15/06 Q1006
                        NOSIG=
201211291930 METAR LMML NIL=
201211291915 METAR LMML 291915Z 26010KT 230V290 9999 SCT043 16/07 Q1006
                        NOSIG=
201211291900 METAR LMML NIL=
201211291845 METAR LMML 291845Z 26011KT 230V290 9999 FEW041 15/06 Q1006
                        NOSIG=
201211291830 METAR LMML NIL=
201211291815 METAR LMML 291815Z 27011KT 9999 FEW043 15/06 Q1006 NOSIG=
201211291800 METAR LMML NIL=
201211291745 METAR LMML 291745Z 27011KT 9999 FEW045 16/06 Q1006 NOSIG=
201211291730 METAR LMML NIL=
201211291715 METAR LMML 291715Z 26012KT 230V290 9999 FEW043 15/05 Q1006
                        NOSIG=
201211291700 METAR LMML NIL=
201211291645 METAR LMML 291645Z 26013KT 9999 SCT038 15/07 Q1005 NOSIG=
201211291630 METAR LMML NIL=
201211291615 METAR LMML 291615Z 26012KT 220V280 9999 FEW040 15/07 Q1005
                        NOSIG=
201211291600 METAR LMML NIL=
201211291545 METAR LMML 291545Z 25015KT 9999 FEW043 16/06 Q1005 NOSIG=
201211291530 METAR LMML NIL=
201211291515 METAR LMML 291515Z 26013G23KT 230V300 9999 FEW042 16/07 Q1005
                        NOSIG=
201211291500 METAR LMML NIL=
201211291445 METAR LMML 291445Z 25015KT 9999 FEW044 17/06 Q1005 NOSIG=
201211291430 METAR LMML NIL=
201211291415 METAR LMML 291415Z 26017G27KT 240V300 9999 SCT043 17/06 Q1005
                        NOSIG=
201211291400 METAR LMML NIL=
201211291345 METAR LMML 291345Z 26016G27KT 230V290 9999 SCT041 17/07 Q1005
                        NOSIG=
201211291330 METAR LMML NIL=
201211291315 METAR LMML 291315Z 25017KT 230V290 9999 SCT039 17/08 Q1005
                        NOSIG=
201211291300 METAR LMML NIL=
201211291245 METAR LMML 291245Z AUTO 25018KT 9999NDV SCT039/// BKN044///
                        17/07 Q1005=
201211291230 METAR LMML NIL=
201211291215 METAR LMML 291215Z 25016G29KT 220V290 9999 SCT041 17/07 Q1005
                        NOSIG=
201211291200 METAR LMML NIL=
201211291145 METAR LMML 291145Z 25016KT 9999 SCT044 17/06 Q1005 NOSIG=
201211291130 METAR LMML NIL=
201211291115 METAR LMML 291115Z 25016G26KT 230V290 9999 SCT043 17/07 Q1006
                        NOSIG=
201211291100 METAR LMML NIL=
201211291045 METAR LMML 291045Z 26016KT 230V290 9999 SCT046 17/07 Q1006
                        NOSIG=
201211291030 METAR LMML NIL=
201211291015 METAR LMML 291015Z 26017KT 230V290 9999 SCT043 17/06 Q1006
                        NOSIG=
201211291000 METAR LMML NIL=
201211290945 METAR LMML 290945Z 25016G26KT 9999 SCT043 18/07 Q1006 NOSIG=
201211290930 METAR LMML NIL=
201211290915 METAR LMML 290915Z 25017G28KT 230V290 9999 SCT044 17/07 Q1006
                        NOSIG=
201211290900 METAR LMML NIL=
201211290845 METAR LMML 290845Z 25015G25KT 220V290 9999 SCT043 17/07 Q1006
                        NOSIG=
201211290830 METAR LMML NIL=
201211290815 METAR LMML 290815Z 25017KT 9999 FEW041 17/06 Q1006 NOSIG=
201211290800 METAR LMML NIL=
201211290745 METAR LMML 290745Z 25015G25KT 230V290 9999 FEW047 17/05 Q1006
                        NOSIG=
201211290730 METAR LMML NIL=
201211290715 METAR LMML 290715Z 25014KT 230V290 CAVOK 16/05 Q1005 NOSIG=
201211290700 METAR LMML NIL=
201211290645 METAR LMML 290645Z 25013KT 230V290 CAVOK 16/05 Q1005 NOSIG=
201211290630 METAR LMML NIL=
201211290615 METAR LMML 290615Z 25016KT 220V280 CAVOK 16/04 Q1005 NOSIG=
201211290600 METAR LMML NIL=
201211290545 METAR LMML 290545Z 26016G27KT CAVOK 16/05 Q1005 NOSIG=
201211290530 METAR LMML NIL=
201211290515 METAR LMML 290515Z 26017KT CAVOK 16/05 Q1005 NOSIG=
201211290500 METAR LMML NIL=
201211290445 METAR LMML 290445Z 26015KT CAVOK 16/05 Q1005 NOSIG=
201211290430 METAR LMML NIL=
201211290415 METAR LMML 290415Z 26016G27KT 230V290 9999 FEW046 16/05 Q1005
                        NOSIG=
201211290400 METAR LMML NIL=
201211290345 METAR LMML 290345Z 26015G27KT 9999 SCT046 16/05 Q1005 NOSIG=
201211290330 METAR LMML NIL=
201211290315 METAR LMML 290315Z AUTO 26016G26KT CAVOK 16/05 Q1005=
201211290300 METAR LMML NIL=
201211290245 METAR LMML 290245Z AUTO 27015G25KT 230V290 9999NDV SCT049///
                        16/05 Q1005=
201211290230 METAR LMML NIL=
201211290215 METAR LMML 290215Z AUTO 26014G24KT 9999NDV FEW046/// 16/05
                        Q1005=
201211290145 METAR LMML 290145Z AUTO 25016KT 220V280 9999NDV SCT048///
                        SCT056/// 16/05 Q1005=
201211290130 METAR LMML NIL=
201211290115 METAR LMML 290115Z AUTO 26017KT 9999NDV FEW048/// 16/05 Q1005=
201211290100 METAR LMML NIL=
201211290045 METAR LMML 290045Z AUTO 25017G27KT 230V290 9999NDV FEW043///
                        16/07 Q1005=
201211290030 METAR LMML NIL=
201211290015 METAR LMML 290015Z AUTO 26018G31KT 230V290 9000NDV FEW043///
                        17/07 Q1005=
201211290000 METAR LMML NIL=
201211282345 METAR LMML 282345Z AUTO 25017KT 9999NDV SCT044/// 17/08 Q1006=
201211282330 METAR LMML NIL=
201211282315 METAR LMML 282315Z AUTO 26016KT 8000NDV FEW044/// 17/08 Q1006=
201211282300 METAR LMML NIL=
201211282245 METAR LMML 282245Z AUTO 26016G26KT 230V290 6000NDV HZ FEW045///
                        17/07 Q1006=
201211282230 METAR LMML NIL=
201211282215 METAR LMML 282215Z AUTO 26017G27KT 7000NDV HZ FEW044/// 17/07
                        Q1006=
201211282200 METAR LMML NIL=
201211282145 METAR LMML 282145Z AUTO 25014G24KT 9999NDV SCT044/// SCT095///
                        17/09 Q1006=
201211282130 METAR LMML NIL=
201211282115 METAR LMML 282115Z AUTO 26016G28KT 220V290 9999NDV FEW040///
                        BKN096/// 17/09 Q1006=
201211282100 METAR LMML NIL=
201211282045 METAR LMML 282045Z AUTO 26014KT 230V290 9999NDV FEW039///
                        17/09 Q1006=
201211282030 METAR LMML NIL=
201211282015 METAR LMML 282015Z AUTO 25016KT CAVOK 17/09 Q1006=
201211282000 METAR LMML NIL=
201211281945 METAR LMML 281945Z 26016KT 9999 FEW027 18/10 Q1005 NOSIG=
201211281930 METAR LMML NIL=
201211281915 METAR LMML 281915Z 26016KT 9999 FEW027 18/11 Q1005 NOSIG=
201211281900 METAR LMML NIL=
201211281845 METAR LMML 281845Z 25015KT 220V280 9999 FEW027 18/12 Q1005
                        NOSIG=
201211281830 METAR LMML NIL=
201211281815 METAR LMML 281815Z 25016KT 230V290 9999 FEW020 18/11 Q1005
                        NOSIG=
201211281800 METAR LMML NIL=
201211281745 METAR LMML 281745Z 25016KT 9999 FEW020 18/12 Q1004 NOSIG=
201211281730 METAR LMML NIL=
201211281715 METAR LMML 281715Z 24016G28KT 9999 FEW025 19/13 Q1004 NOSIG=
201211281700 METAR LMML NIL=
201211281645 METAR LMML 281645Z 25017KT 220V280 9999 FEW020 19/13 Q1004
                        NOSIG=
201211281630 METAR LMML NIL=
201211281615 METAR LMML 281615Z 24017G27KT 200V260 9999 FEW015 19/12 Q1004
                        NOSIG=
201211281600 METAR LMML NIL=
201211281545 METAR LMML 281545Z 24016KT 9999 FEW015 20/12 Q1004 NOSIG=
201211281530 METAR LMML NIL=
201211281515 METAR LMML 281515Z 24012KT CAVOK 20/13 Q1004 NOSIG=
201211281500 METAR LMML NIL=
201211281445 METAR LMML 281445Z 24012KT CAVOK 20/13 Q1004 NOSIG=
201211281430 METAR LMML NIL=
201211281415 METAR LMML 281415Z 24016KT CAVOK 20/15 Q1004 NOSIG=
201211281400 METAR LMML NIL=
201211281345 METAR LMML 281345Z 25018G28KT CAVOK 20/15 Q1004 NOSIG=
201211281330 METAR LMML NIL=
201211281315 METAR LMML 281315Z 24016KT 220V280 CAVOK 21/15 Q1003 NOSIG=
201211281300 METAR LMML NIL=
201211281245 METAR LMML 281245Z AUTO 25016G28KT CAVOK 21/15 Q1003 NOSIG=
201211281230 METAR LMML NIL=
201211281215 METAR LMML 281215Z 24016KT CAVOK 22/16 Q1003 NOSIG=
201211281200 METAR LMML NIL=
201211281145 METAR LMML 281145Z 24017KT 9999 NSC 22/16 Q1003 NOSIG=
201211281115 METAR LMML 281115Z 23016G27KT 200V260 CAVOK 22/16 Q1004 NOSIG=
201211281100 METAR LMML NIL=
201211281045 METAR LMML 281045Z 22014KT 200V260 CAVOK 23/17 Q1004 NOSIG=
201211281030 METAR LMML NIL=
201211281015 METAR LMML 281015Z 22015G27KT 190V250 CAVOK 22/17 Q1004 NOSIG=
201211281000 METAR LMML NIL=
201211280945 METAR LMML 280945Z 20014G25KT 170V230 CAVOK 23/17 Q1004 NOSIG=
201211280930 METAR LMML NIL=
201211280915 METAR LMML 280915Z 20015G25KT 170V230 CAVOK 22/17 Q1004 NOSIG=
201211280900 METAR LMML NIL=
201211280845 METAR LMML 280845Z 20015KT CAVOK 22/17 Q1004 NOSIG=
201211280830 METAR LMML NIL=
201211280815 METAR LMML 280815Z 20016KT CAVOK 22/16 Q1004 NOSIG=
201211280800 METAR LMML NIL=
201211280745 METAR LMML 280745Z 19017G27KT 160V220 CAVOK 22/16 Q1004 NOSIG=
201211280730 METAR LMML NIL=
201211280715 METAR LMML 280715Z 20017KT 160V220 CAVOK 21/16 Q1004 NOSIG=
201211280700 METAR LMML NIL=
201211280645 METAR LMML 280645Z 19015KT CAVOK 21/16 Q1004 NOSIG=
201211280630 METAR LMML NIL=
201211280615 METAR LMML 280615Z 20015KT 170V230 CAVOK 21/16 Q1004 NOSIG=
201211280600 METAR LMML NIL=
201211280545 METAR LMML 280545Z 20017G27KT CAVOK 21/16 Q1004 NOSIG=
201211280515 METAR LMML 280515Z 20017KT CAVOK 21/16 Q1004 NOSIG=
201211280500 METAR LMML NIL=
201211280445 METAR LMML 280445Z 20017KT 170V230 CAVOK 21/16 Q1004 NOSIG=
201211280430 METAR LMML NIL=
201211280415 METAR LMML 280415Z 20018KT CAVOK 21/15 Q1004 NOSIG=
201211280400 METAR LMML NIL=
201211280345 METAR LMML 280345Z 19018KT CAVOK 22/16 Q1004 NOSIG=
201211280330 METAR LMML NIL=
201211280315 METAR LMML 280315Z 19019G32KT CAVOK 22/16 Q1004 NOSIG=
201211280300 METAR LMML NIL=
201211280245 METAR LMML 280245Z AUTO 18017G27KT CAVOK 22/16 Q1005=
201211280230 METAR LMML NIL=
201211280215 METAR LMML 280215Z AUTO 18019G31KT 150V210 CAVOK 22/16 Q1005=
201211280200 METAR LMML NIL=
201211280145 METAR LMML 280145Z AUTO 18021G33KT CAVOK 22/16 Q1006=
201211280130 METAR LMML NIL=
201211280115 METAR LMML 280115Z AUTO 17021G32KT CAVOK 21/16 Q1006=
201211280100 METAR LMML NIL=
201211280045 METAR LMML 280045Z AUTO 17020G31KT CAVOK 21/16 Q1007=
201211280030 METAR LMML NIL=
201211280015 METAR LMML 280015Z AUTO 17020G31KT CAVOK 21/16 Q1007=
201211272345 METAR LMML 272345Z AUTO 17019KT CAVOK 21/16 Q1008=
201211272330 METAR LMML NIL=
201211272315 METAR LMML 272315Z AUTO 17017KT CAVOK 21/16 Q1008=
201211272300 METAR LMML NIL=
201211272245 METAR LMML 272245Z AUTO 16015KT CAVOK 21/16 Q1009=
201211272230 METAR LMML NIL=
201211272215 METAR LMML 272215Z AUTO 16015G25KT CAVOK 21/16 Q1009=
201211272200 METAR LMML NIL=
201211272145 METAR LMML 272145Z AUTO 17016G27KT CAVOK 21/16 Q1010=
201211272130 METAR LMML NIL=
201211272115 METAR LMML 272115Z AUTO 16015KT CAVOK 21/16 Q1010=
201211272100 METAR LMML NIL=
201211272045 METAR LMML 272045Z AUTO 16015KT CAVOK 21/16 Q1011=
201211272015 METAR LMML 272015Z AUTO 17014KT CAVOK 21/16 Q1011=
201211272000 METAR LMML NIL=
201211271945 METAR LMML 271945Z 17014KT CAVOK 20/16 Q1011 NOSIG=
201211271930 METAR LMML NIL=
201211271915 METAR LMML 271915Z 17013KT CAVOK 20/16 Q1011 NOSIG=
201211271900 METAR LMML NIL=
201211271845 METAR LMML 271845Z 17015G25KT CAVOK 20/16 Q1011 NOSIG=
201211271830 METAR LMML NIL=
201211271815 METAR LMML 271815Z 17014KT CAVOK 20/16 Q1012 NOSIG=
201211271800 METAR LMML NIL=
201211271745 METAR LMML 271745Z 17013KT CAVOK 20/16 Q1012 NOSIG=
201211271730 METAR LMML NIL=
201211271715 METAR LMML 271715Z 17012KT CAVOK 20/16 Q1012 NOSIG=
201211271700 METAR LMML NIL=
201211271645 METAR LMML 271645Z 17012KT CAVOK 21/16 Q1012 NOSIG=
201211271630 METAR LMML NIL=
201211271615 METAR LMML 271615Z 17012KT CAVOK 21/16 Q1012 NOSIG=
201211271600 METAR LMML NIL=
201211271545 METAR LMML 271545Z 18011KT CAVOK 21/16 Q1012 NOSIG=
201211271530 METAR LMML NIL=
201211271515 METAR LMML 271515Z 18010KT CAVOK 21/16 Q1012 NOSIG=
201211271500 METAR LMML NIL=
201211271445 METAR LMML 271445Z 19009KT 160V220 CAVOK 21/16 Q1013 NOSIG=
201211271430 METAR LMML NIL=
201211271415 METAR LMML 271415Z 19011KT CAVOK 21/17 Q1013 NOSIG=
201211271400 METAR LMML NIL=
201211271345 METAR LMML 271345Z AUTO 19010KT 170V230 CAVOK 21/17 Q1013
                        NOSIG=
201211271330 METAR LMML NIL=
201211271315 METAR LMML 271315Z AUTO 20010KT 170V240 CAVOK 22/17 Q1013
                        NOSIG=
201211271300 METAR LMML NIL=
201211271245 METAR LMML 271245Z 20008KT 180V240 9999 FEW020 22/17 Q1013
                        NOSIG=
201211271230 METAR LMML NIL=
201211271215 METAR LMML 271215Z 20010KT 9999 FEW020 22/17 Q1014 NOSIG=
201211271200 METAR LMML NIL=
201211271145 METAR LMML 271145Z 20010KT 9999 FEW020 22/17 Q1014 NOSIG=
201211271115 METAR LMML 271115Z 19012KT 9999 FEW020 22/17 Q1014 NOSIG=
201211271100 METAR LMML NIL=
201211271045 METAR LMML 271045Z 20011KT 9999 FEW020 22/17 Q1015 NOSIG=
201211271030 METAR LMML NIL=
201211271015 METAR LMML 271015Z 20011KT 9999 FEW020 22/17 Q1015 NOSIG=
201211271000 METAR LMML NIL=
201211270945 METAR LMML 270945Z 20011KT 9999 FEW018 22/17 Q1016 NOSIG=
201211270930 METAR LMML NIL=
201211270915 METAR LMML 270915Z 19009KT 9999 FEW015 22/18 Q1016 NOSIG=
201211270900 METAR LMML NIL=
201211270845 METAR LMML 270845Z 20007KT 160V220 9999 FEW014 22/18 Q1016
                        NOSIG=
201211270830 METAR LMML NIL=
201211270815 METAR LMML 270815Z 19008KT 160V220 9999 FEW013 SCT016 21/18
                        Q1016 NOSIG=
201211270800 METAR LMML NIL=
201211270745 METAR LMML 270745Z 19007KT 9999 FEW014 SCT018 21/18 Q1016
                        NOSIG=
201211270730 METAR LMML NIL=
201211270715 METAR LMML 270715Z 19006KT 9999 BKN017 20/17 Q1016 NOSIG=
201211270700 METAR LMML NIL=
201211270645 METAR LMML 270645Z 19006KT 9999 BKN022 20/17 Q1016 NOSIG=
201211270630 METAR LMML NIL=
201211270615 METAR LMML 270615Z 19005KT 9999 SCT018 19/16 Q1016 NOSIG=
201211270600 METAR LMML NIL=
201211270545 METAR LMML 270545Z 20006KT 9999 SCT016 19/16 Q1016 NOSIG=
201211270530 METAR LMML NIL=
201211270515 METAR LMML 270515Z 19006KT 9999 SCT018 19/16 Q1016 NOSIG=
201211270500 METAR LMML NIL=
201211270445 METAR LMML 270445Z 19006KT 9999 FEW018 19/16 Q1016 NOSIG=
201211270430 METAR LMML NIL=
201211270415 METAR LMML 270415Z 19006KT 9999 SCT016 19/16 Q1016 NOSIG=
201211270400 METAR LMML NIL=
201211270345 METAR LMML 270345Z 18007KT 9999 SCT018 19/16 Q1016 NOSIG=
201211270330 METAR LMML NIL=
201211270315 METAR LMML 270315Z 17007KT 9999 SCT016 19/16 Q1016 NOSIG=
201211270245 METAR LMML 270245Z AUTO 17009KT 9999NDV FEW018/// 18/16 Q1016=
201211270230 METAR LMML NIL=
201211270215 METAR LMML 270215Z AUTO 17008KT 9999NDV FEW020/// SCT032///
                        18/16 Q1017=
201211270200 METAR LMML NIL=
201211270145 METAR LMML 270145Z AUTO 18007KT 9999NDV FEW015/// SCT017///
                        BKN066/// 18/16 Q1017=
201211270130 METAR LMML NIL=
201211270115 METAR LMML 270115Z AUTO 18007KT 9999NDV SCT015/// BKN018///
                        BKN021/// 18/16 Q1017=
201211270100 METAR LMML NIL=
201211270045 METAR LMML 270045Z AUTO 18006KT 9999NDV FEW016/// 17/15 Q1017=
201211270015 METAR LMML 270015Z AUTO 18007KT 9999NDV FEW016/// BKN067///
                        17/15 Q1018=
201211270000 METAR LMML NIL=
201211262345 METAR LMML 262345Z AUTO 17006KT CAVOK 16/14 Q1018=
201211262330 METAR LMML NIL=
201211262315 METAR LMML 262315Z AUTO 17005KT CAVOK 16/13 Q1018=
201211262300 METAR LMML NIL=
201211262245 METAR LMML 262245Z AUTO 17005KT CAVOK 16/13 Q1018=
201211262230 METAR LMML NIL=
201211262215 METAR LMML 262215Z AUTO 16004KT CAVOK 15/13 Q1018=
201211262200 METAR LMML NIL=
201211262145 METAR LMML 262145Z AUTO 17003KT CAVOK 15/12 Q1019=
201211262130 METAR LMML NIL=
201211262115 METAR LMML 262115Z AUTO 16003KT CAVOK 16/12 Q1019=
201211262100 METAR LMML NIL=
201211262045 METAR LMML 262045Z AUTO 16003KT CAVOK 15/12 Q1019=
201211262030 METAR LMML NIL=
201211262015 METAR LMML 262015Z AUTO 18004KT CAVOK 16/12 Q1019=
201211262000 METAR LMML NIL=
201211261945 METAR LMML 261945Z 17004KT CAVOK 16/12 Q1019 NOSIG=
201211261930 METAR LMML NIL=
201211261915 METAR LMML 261915Z 18005KT CAVOK 16/12 Q1019 NOSIG=
201211261900 METAR LMML NIL=
201211261845 METAR LMML 261845Z 18006KT CAVOK 17/12 Q1019 NOSIG=
201211261815 METAR LMML 261815Z 18004KT CAVOK 16/12 Q1019 NOSIG=
201211261800 METAR LMML NIL=
201211261745 METAR LMML 261745Z 17003KT CAVOK 17/12 Q1019 NOSIG=
201211261730 METAR LMML NIL=
201211261715 METAR LMML 261715Z 17003KT CAVOK 17/12 Q1019 NOSIG=
201211261645 METAR LMML 261645Z 15005KT CAVOK 17/12 Q1019 NOSIG=
201211261630 METAR LMML NIL=
201211261615 METAR LMML 261615Z 19004KT CAVOK 18/12 Q1019 NOSIG=
201211261600 METAR LMML NIL=
201211261545 METAR LMML 261545Z 18004KT CAVOK 19/12 Q1019 NOSIG=
201211261530 METAR LMML NIL=
201211261515 METAR LMML 261515Z 20004KT 9999 FEW025 19/12 Q1019 NOSIG=
201211261500 METAR LMML NIL=
201211261445 METAR LMML 261445Z 19004KT 160V230 9999 FEW025 20/13 Q1019
                        NOSIG=
201211261430 METAR LMML NIL=
201211261415 METAR LMML 261415Z 18004KT 110V240 9999 FEW025 20/13 Q1019
                        NOSIG=
201211261400 METAR LMML NIL=
201211261345 METAR LMML 261345Z 19005KT 170V240 9999 FEW025 20/13 Q1019
                        NOSIG=
201211261330 METAR LMML NIL=
201211261315 METAR LMML 261315Z 19004KT 140V230 9999 FEW028 20/14 Q1019
                        NOSIG=
201211261300 METAR LMML NIL=
201211261245 METAR LMML 261245Z 21006KT 9999 FEW025 20/13 Q1020 NOSIG=
201211261230 METAR LMML NIL=
201211261215 METAR LMML 261215Z 20005KT 160V250 9999 FEW035 21/13 Q1020
                        NOSIG=
201211261200 METAR LMML NIL=
201211261145 METAR LMML 261145Z 20003KT 160V250 9999 FEW038 21/13 Q1020
                        NOSIG=
201211261130 METAR LMML NIL=
201211261115 METAR LMML 261115Z VRB02KT 9999 FEW038 22/12 Q1020 NOSIG=
201211261100 METAR LMML NIL=
201211261045 METAR LMML 261045Z VRB02KT 9999 FEW038 21/12 Q1021 NOSIG=
201211261030 METAR LMML NIL=
201211261015 METAR LMML 261015Z 13003KT 080V170 9999 FEW030 21/12 Q1021
                        NOSIG=
201211261000 METAR LMML NIL=
201211260945 METAR LMML 260945Z VRB02KT 9999 FEW030 21/12 Q1022 NOSIG=
201211260930 METAR LMML NIL=
201211260915 METAR LMML 260915Z VRB01KT 9999 FEW030 21/12 Q1022 NOSIG=
201211260900 METAR LMML NIL=
201211260845 METAR LMML 260845Z VRB01KT 9999 FEW022 20/13 Q1022 NOSIG=
201211260830 METAR LMML NIL=
201211260815 METAR LMML 260815Z VRB01KT CAVOK 20/14 Q1022 NOSIG=
201211260800 METAR LMML NIL=
201211260745 METAR LMML 260745Z VRB01KT CAVOK 18/14 Q1022 NOSIG=
201211260730 METAR LMML NIL=
201211260715 METAR LMML 260715Z VRB01KT 9999 FEW022 17/14 Q1022 NOSIG=
201211260645 METAR LMML 260645Z 31003KT 9999 FEW020 14/13 Q1022 NOSIG=
201211260630 METAR LMML NIL=
201211260615 METAR LMML 260615Z 30002KT 9999 FEW020 14/12 Q1021 NOSIG=
201211260600 METAR LMML NIL=
201211260545 METAR LMML 260545Z 32003KT 9999 FEW023 14/12 Q1021 NOSIG=
201211260530 METAR LMML NIL=
201211260515 METAR LMML 260515Z 32003KT 9000 FEW023 14/12 Q1021 NOSIG=
201211260500 METAR LMML NIL=
201211260445 METAR LMML 260445Z 30003KT 9000 FEW023 14/12 Q1021 NOSIG=
201211260430 METAR LMML NIL=
201211260415 METAR LMML 260415Z 28003KT 9000 NSC 13/11 Q1021 NOSIG=
201211260400 METAR LMML NIL=
201211260345 METAR LMML 260345Z 29002KT CAVOK 13/11 Q1021 NOSIG=
201211260330 METAR LMML NIL=
201211260315 METAR LMML 260315Z 31003KT CAVOK 14/11 Q1021 NOSIG=
201211260300 METAR LMML NIL=
201211260245 METAR LMML 260245Z AUTO 34005KT CAVOK 14/11 Q1021=
201211260230 METAR LMML NIL=
201211260215 METAR LMML 260215Z AUTO 34005KT CAVOK 14/11 Q1021=
201211260200 METAR LMML NIL=
201211260145 METAR LMML 260145Z AUTO 32004KT CAVOK 14/11 Q1021=
201211260130 METAR LMML NIL=
201211260115 METAR LMML 260115Z AUTO 32003KT CAVOK 14/12 Q1021=
201211260100 METAR LMML NIL=
201211260045 METAR LMML 260045Z AUTO 34003KT CAVOK 13/12 Q1021=
201211260030 METAR LMML NIL=
201211260015 METAR LMML 260015Z AUTO 33003KT CAVOK 13/12 Q1021=
201211260000 METAR LMML NIL=
201211252345 METAR LMML 252345Z AUTO 33003KT CAVOK 14/12 Q1022=
201211252330 METAR LMML NIL=
201211252315 METAR LMML 252315Z AUTO 32002KT CAVOK 14/12 Q1022=
201211252300 METAR LMML NIL=
201211252245 METAR LMML 252245Z AUTO 32002KT CAVOK 14/12 Q1022=
201211252230 METAR LMML NIL=
201211252215 METAR LMML 252215Z AUTO 31002KT CAVOK 14/12 Q1022=
201211252200 METAR LMML NIL=
201211252145 METAR LMML 252145Z AUTO 28002KT CAVOK 14/12 Q1022=
201211252130 METAR LMML NIL=
201211252115 METAR LMML 252115Z AUTO 31002KT CAVOK 15/13 Q1022=
201211252100 METAR LMML NIL=
201211252045 METAR LMML 252045Z AUTO 32001KT CAVOK 14/13 Q1022=
201211252030 METAR LMML NIL=
201211252015 METAR LMML 252015Z AUTO 34002KT 9000NDV NCD 15/13 Q1022=
201211252000 METAR LMML NIL=
201211251945 METAR LMML 251945Z 31001KT 9999 FEW020 15/13 Q1022 NOSIG=
201211251930 METAR LMML NIL=
201211251915 METAR LMML 251915Z 32002KT 9999 FEW020 15/13 Q1022 NOSIG=
201211251900 METAR LMML NIL=
201211251845 METAR LMML 251845Z 32003KT 9999 FEW020 15/13 Q1022 NOSIG=
201211251830 METAR LMML NIL=
201211251815 METAR LMML 251815Z 29002KT 9999 FEW022 16/13 Q1022 NOSIG=
201211251800 METAR LMML NIL=
201211251745 METAR LMML 251745Z VRB01KT 9999 FEW022 16/13 Q1022 NOSIG=
201211251730 METAR LMML NIL=
201211251715 METAR LMML 251715Z 00000KT 9999 FEW022 17/13 Q1022 NOSIG=
201211251700 METAR LMML NIL=
201211251645 METAR LMML 251645Z VRB02KT 9999 FEW022 17/13 Q1022 NOSIG=
201211251630 METAR LMML NIL=
201211251615 METAR LMML 251615Z 10003KT 9999 FEW025 17/13 Q1021 NOSIG=
201211251600 METAR LMML NIL=
201211251545 METAR LMML 251545Z 10003KT 340V140 9999 FEW025 19/13 Q1021
                        NOSIG=
201211251515 METAR LMML 251515Z VRB02KT 9999 FEW030 19/12 Q1021 NOSIG=
201211251500 METAR LMML NIL=
201211251445 METAR LMML 251445Z 03002KT 9999 FEW030 19/12 Q1021 NOSIG=
201211251430 METAR LMML NIL=
201211251415 METAR LMML 251415Z 03004KT 350V060 9999 FEW030 20/12 Q1021
                        NOSIG=
201211251400 METAR LMML NIL=
201211251345 METAR LMML 251345Z 07003KT 360V160 9999 FEW030 20/12 Q1021
                        NOSIG=
201211251330 METAR LMML NIL=
201211251315 METAR LMML 251315Z AUTO 06003KT 010V090 CAVOK 21/12 Q1021
                        NOSIG=
201211251300 METAR LMML NIL=
201211251245 METAR LMML 251245Z 03006KT 350V090 9999 FEW033 20/12 Q1021
                        NOSIG=
201211251230 METAR LMML NIL=
201211251215 METAR LMML 251215Z AUTO 04005KT 330V080 CAVOK 20/12 Q1022
                        NOSIG=
201211251200 METAR LMML NIL=
201211251145 METAR LMML 251145Z 04006KT 020V080 9999 FEW030 20/12 Q1022
                        NOSIG=
201211251130 METAR LMML NIL=
201211251115 METAR LMML 251115Z 02005KT 9999 FEW030 20/12 Q1022 NOSIG=
201211251100 METAR LMML NIL=
201211251045 METAR LMML 251045Z 03005KT 310V060 9999 FEW030 20/12 Q1023
                        NOSIG=
201211251030 METAR LMML NIL=
201211251015 METAR LMML 251015Z 36006KT 320V030 9999 FEW030 20/11 Q1023
                        NOSIG=
201211251000 METAR LMML NIL=
201211250945 METAR LMML 250945Z 35004KT 330V030 9999 FEW025 20/11 Q1023
                        NOSIG=
201211250930 METAR LMML NIL=
201211250915 METAR LMML 250915Z 34004KT 320V030 9999 FEW022 20/13 Q1023
                        NOSIG=
201211250900 METAR LMML NIL=
201211250845 METAR LMML 250845Z 34004KT 310V010 9999 FEW022 19/14 Q1023
                        NOSIG=
201211250830 METAR LMML NIL=
201211250815 METAR LMML 250815Z AUTO 32003KT CAVOK 19/14 Q1023 NOSIG=
201211250800 METAR LMML NIL=
201211250745 METAR LMML 250745Z 30003KT 9999 FEW022 18/14 Q1023 NOSIG=
201211250730 METAR LMML NIL=
201211250715 METAR LMML 250715Z 31003KT 9999 FEW022 17/13 Q1023 NOSIG=
201211250700 METAR LMML NIL=
201211250645 METAR LMML 250645Z 31003KT 9999 FEW020 15/13 Q1023 NOSIG=
201211250630 METAR LMML NIL=
201211250615 METAR LMML 250615Z 31004KT 9999 FEW020 14/12 Q1023 NOSIG=
201211250600 METAR LMML NIL=
201211250545 METAR LMML 250545Z 32004KT 9999 FEW020 14/12 Q1023 NOSIG=
201211250530 METAR LMML NIL=
201211250515 METAR LMML 250515Z 32004KT 9000 FEW020 14/12 Q1023 NOSIG=
201211250500 METAR LMML NIL=
201211250445 METAR LMML 250445Z 32004KT 9000 FEW020 14/13 Q1022 NOSIG=
201211250430 METAR LMML NIL=
201211250415 METAR LMML 250415Z 31004KT 7000 FEW022 14/12 Q1022 NOSIG=
201211250400 METAR LMML NIL=
201211250345 METAR LMML 250345Z 32003KT 7000 FEW022 14/13 Q1022 NOSIG=
201211250330 METAR LMML NIL=
201211250315 METAR LMML 250315Z 30003KT 7000 SCT022 14/12 Q1022 NOSIG=
201211250300 METAR LMML NIL=
201211250245 METAR LMML 250245Z AUTO 31003KT 4100NDV HZ NCD 15/13 Q1022=
201211250230 METAR LMML NIL=
201211250215 METAR LMML 250215Z AUTO 31004KT 5000NDV HZ FEW022/// 15/14
                        Q1022=
201211250200 METAR LMML NIL=
201211250145 METAR LMML 250145Z AUTO 32004KT 7000NDV HZ FEW026/// 15/13
                        Q1023=
201211250130 METAR LMML NIL=
201211250115 METAR LMML 250115Z AUTO 32003KT 9000NDV HZ FEW025/// 14/13
                        Q1023=
201211250100 METAR LMML NIL=
201211250045 METAR LMML 250045Z AUTO 32004KT 8000NDV FEW025/// SCT034///
                        14/13 Q1023=
201211250030 METAR LMML NIL=
201211250015 METAR LMML 250015Z AUTO 31003KT 9999NDV SCT028/// 14/13 Q1023=
201211250000 METAR LMML NIL=
201211242345 METAR LMML 242345Z AUTO 31003KT CAVOK 15/13 Q1023=
201211242330 METAR LMML NIL=
201211242315 METAR LMML 242315Z AUTO 32004KT 8000NDV NCD 14/13 Q1023=
201211242300 METAR LMML NIL=
201211242245 METAR LMML 242245Z AUTO 31004KT CAVOK 15/13 Q1023=
201211242230 METAR LMML NIL=
201211242215 METAR LMML 242215Z AUTO 31003KT 7000NDV NCD 15/13 Q1023=
201211242200 METAR LMML NIL=
201211242145 METAR LMML 242145Z AUTO 31003KT 8000NDV NCD 15/13 Q1023=
201211242130 METAR LMML NIL=
201211242115 METAR LMML 242115Z 32003KT 9000 FEW020 15/13 Q1023 NOSIG=
201211242100 METAR LMML NIL=
201211242045 METAR LMML 242045Z 33004KT 9000 FEW020 16/13 Q1023 NOSIG=
201211242030 METAR LMML NIL=
201211242015 METAR LMML 242015Z 31004KT 9000 FEW020 16/14 Q1023 NOSIG=
201211242000 METAR LMML NIL=
201211241945 METAR LMML 241945Z 31004KT 9000 FEW020 16/14 Q1023 NOSIG=
201211241930 METAR LMML NIL=
201211241915 METAR LMML 241915Z 30003KT 9000 FEW020 15/13 Q1023 NOSIG=
201211241900 METAR LMML NIL=
201211241845 METAR LMML 241845Z 30003KT 9000 FEW020 15/14 Q1023 NOSIG=
201211241830 METAR LMML NIL=
201211241815 METAR LMML 241815Z 33002KT 9000 FEW020 16/14 Q1023 NOSIG=
201211241800 METAR LMML NIL=
201211241745 METAR LMML 241745Z 33002KT 9999 FEW020 16/14 Q1023 NOSIG=
201211241730 METAR LMML NIL=
201211241715 METAR LMML 241715Z 31002KT 9999 FEW020 17/14 Q1023 NOSIG=
201211241700 METAR LMML NIL=
201211241645 METAR LMML 241645Z 29001KT 9999 FEW020 17/14 Q1023 NOSIG=
201211241630 METAR LMML NIL=
201211241615 METAR LMML 241615Z 12003KT 9999 FEW021 18/14 Q1023 NOSIG=
201211241600 METAR LMML NIL=
201211241545 METAR LMML 241545Z 12002KT 9999 SCT021 18/14 Q1022 NOSIG=
201211241530 METAR LMML NIL=
201211241515 METAR LMML 241515Z 06003KT 9999 SCT021 19/14 Q1022 NOSIG=
201211241500 METAR LMML NIL=
201211241445 METAR LMML 241445Z VRB03KT 9999 SCT023 19/14 Q1022 NOSIG=
201211241430 METAR LMML NIL=
201211241415 METAR LMML 241415Z 02003KT 300V080 9999 SCT027 20/15 Q1022
                        NOSIG=
201211241400 METAR LMML NIL=
201211241345 METAR LMML 241345Z 05004KT 330V080 9999 SCT027 20/15 Q1022
                        NOSIG=
201211241330 METAR LMML NIL=
201211241315 METAR LMML 241315Z 04005KT 9999 SCT022 19/14 Q1022 NOSIG=
201211241300 METAR LMML NIL=
201211241245 METAR LMML 241245Z 04005KT 9999 SCT023 19/14 Q1022 NOSIG=
201211241230 METAR LMML NIL=
201211241215 METAR LMML 241215Z 05006KT 9999 SCT024 20/14 Q1022 NOSIG=
201211241200 METAR LMML NIL=
201211241145 METAR LMML 241145Z AUTO 04005KT 010V070 9999NDV BKN024///
                        OVC027/// 20/14 Q1023=
201211241130 METAR LMML NIL=
201211241115 METAR LMML 241115Z AUTO 36005KT 340V040 CAVOK 20/14 Q1023=
201211241100 METAR LMML NIL=
201211241045 METAR LMML 241045Z 04006KT 9999 SCT023 20/14 Q1023 NOSIG=
201211241030 METAR LMML NIL=
201211241015 METAR LMML 241015Z 01005KT 280V050 9999 SCT023 21/15 Q1023
                        NOSIG=
201211241000 METAR LMML NIL=
201211240945 METAR LMML 240945Z 35004KT 310V030 9999 FEW035 21/15 Q1023
                        NOSIG=
201211240930 METAR LMML NIL=
201211240915 METAR LMML 240915Z 35005KT 320V020 9999 FEW035 20/15 Q1024
                        NOSIG=
201211240900 METAR LMML NIL=
201211240845 METAR LMML 240845Z 34006KT 9999 FEW035 20/15 Q1023 NOSIG=
201211240830 METAR LMML NIL=
201211240815 METAR LMML 240815Z 32004KT 9999 FEW035 19/15 Q1023 NOSIG=
201211240800 METAR LMML NIL=
201211240745 METAR LMML 240745Z 30004KT 9999 FEW035 19/15 Q1023 NOSIG=
201211240730 METAR LMML NIL=
201211240715 METAR LMML 240715Z 31004KT 9999 FEW020 17/15 Q1023 NOSIG=
201211240700 METAR LMML NIL=
201211240645 METAR LMML 240645Z 31005KT 9999 FEW020 16/14 Q1023 NOSIG=
201211240630 METAR LMML NIL=
201211240615 METAR LMML 240615Z 31005KT 9999 FEW015 16/14 Q1022 NOSIG=
201211240600 METAR LMML NIL=
201211240545 METAR LMML 240545Z 31005KT 9999 FEW015 16/14 Q1022 NOSIG=
201211240530 METAR LMML NIL=
201211240515 METAR LMML 240515Z 30005KT 9000 FEW015 15/13 Q1022 NOSIG=
201211240445 METAR LMML 240445Z 31005KT 9000 FEW015 15/13 Q1022 NOSIG=
201211240430 METAR LMML NIL=
201211240415 METAR LMML 240415Z 31005KT 9999 FEW015 15/13 Q1022 NOSIG=
201211240400 METAR LMML NIL=
201211240345 METAR LMML 240345Z 30004KT 9999 FEW015 15/13 Q1022 NOSIG=
201211240330 METAR LMML NIL=
201211240315 METAR LMML 240315Z AUTO 31005KT CAVOK 15/13 Q1022=
201211240300 METAR LMML NIL=
201211240245 METAR LMML 240245Z AUTO 31005KT CAVOK 15/14 Q1022=
201211240230 METAR LMML NIL=
201211240215 METAR LMML 240215Z AUTO 31005KT 8000NDV NCD 15/14 Q1022=
201211240200 METAR LMML NIL=
201211240145 METAR LMML 240145Z AUTO 31005KT 6000NDV NCD 16/14 Q1022=
201211240130 METAR LMML NIL=
201211240115 METAR LMML 240115Z AUTO 31005KT 5000NDV HZ NCD 15/14 Q1022=
201211240100 METAR LMML NIL=
201211240045 METAR LMML 240045Z AUTO 32004KT 5000NDV HZ NCD 15/14 Q1022=
201211240030 METAR LMML NIL=
201211240015 METAR LMML 240015Z AUTO 32005KT 5000NDV HZ NCD 16/14 Q1022=
201211240000 METAR LMML NIL=
201211232345 METAR LMML 232345Z AUTO 32004KT 4400NDV HZ NCD 16/14 Q1023=
201211232330 METAR LMML NIL=
201211232315 METAR LMML 232315Z AUTO 32004KT 2600NDV HZ NCD 16/14 Q1023=
201211232300 METAR LMML NIL=
201211232245 METAR LMML 232245Z AUTO 32004KT 5000NDV HZ NCD 16/14 Q1023=
201211232230 METAR LMML NIL=
201211232215 METAR LMML 232215Z AUTO 32005KT 9000NDV NCD 16/14 Q1023=
201211232200 METAR LMML NIL=
201211232145 METAR LMML 232145Z AUTO 31003KT 7000NDV NCD 16/14 Q1023=
201211232130 METAR LMML NIL=
201211232115 METAR LMML 232115Z AUTO 31004KT 6000NDV FEW170/// 16/15 Q1023=
201211232100 METAR LMML NIL=
201211232045 METAR LMML 232045Z AUTO 31004KT 9999NDV HZ NCD 16/15 Q1023=
201211232030 METAR LMML NIL=
201211232015 METAR LMML 232015Z 31003KT 9999 FEW020 17/15 Q1023 NOSIG=
201211232000 METAR LMML NIL=
201211231945 METAR LMML 231945Z 33004KT 9999 FEW020 16/15 Q1023 NOSIG=
201211231930 METAR LMML NIL=
201211231915 METAR LMML 231915Z 32003KT 9999 FEW020 16/15 Q1023 NOSIG=
201211231900 METAR LMML NIL=
201211231845 METAR LMML 231845Z 33004KT 9999 FEW020 16/15 Q1023 NOSIG=
201211231830 METAR LMML NIL=
201211231815 METAR LMML 231815Z 32004KT 9999 FEW020 17/15 Q1023 NOSIG=
201211231745 METAR LMML 231745Z 31004KT 9999 FEW020 17/15 Q1022 NOSIG=
201211231730 METAR LMML NIL=
201211231715 METAR LMML 231715Z 32004KT 9999 SCT020 18/15 Q1022 NOSIG=
201211231700 METAR LMML NIL=
201211231645 METAR LMML 231645Z 30004KT 9999 SCT020 18/15 Q1022 NOSIG=
201211231630 METAR LMML NIL=
201211231615 METAR LMML 231615Z 31005KT 9999 SCT021TCU 19/15 Q1022 NOSIG=
201211231600 METAR LMML NIL=
201211231545 METAR LMML 231545Z 30006KT 9999 SCT020TCU 20/15 Q1022 NOSIG=
201211231530 METAR LMML NIL=
201211231515 METAR LMML 231515Z 24005KT 210V290 9999 SCT020TCU 20/15 Q1022
                        NOSIG=
201211231500 METAR LMML NIL=
201211231445 METAR LMML 231445Z 24005KT 9999 SCT023TCU 20/15 Q1022 NOSIG=
201211231415 METAR LMML 231415Z 23004KT 190V260 9999 SCT022TCU 20/15 Q1022
                        NOSIG=
201211231345 METAR LMML 231345Z AUTO 22004KT 170V250 9999NDV FEW042///
                        21/15 Q1022=
201211231330 METAR LMML NIL=
201211231315 METAR LMML 231315Z VRB02KT 9999 BKN021 20/15 Q1022 NOSIG=
201211231245 METAR LMML 231245Z 11003KT 060V150 9999 BKN020 20/15 Q1022
                        NOSIG=
201211231230 METAR LMML NIL=
201211231215 METAR LMML 231215Z 12005KT 100V160 9999 BKN020 20/15 Q1022
                        NOSIG=
201211231200 METAR LMML NIL=
201211231145 METAR LMML 231145Z 11004KT 080V160 9999 SCT020 20/15 Q1022
                        NOSIG=
201211231130 METAR LMML NIL=
201211231115 METAR LMML 231115Z VRB01KT 9999 SCT021 21/15 Q1023 NOSIG=
201211231100 METAR LMML NIL=
201211231045 METAR LMML 231045Z 00000KT 9999 SCT020 21/14 Q1023 NOSIG=
201211231030 METAR LMML NIL=
201211231015 METAR LMML 231015Z AUTO VRB01KT 9999NDV FEW023/// 21/15 Q1023=
201211231000 METAR LMML NIL=
201211230945 METAR LMML 230945Z VRB01KT 9999 SCT020 21/15 Q1023 NOSIG=
201211230930 METAR LMML NIL=
201211230915 METAR LMML 230915Z 11003KT 020V140 9999 FEW019 20/15 Q1023
                        NOSIG=
201211230900 METAR LMML NIL=
201211230845 METAR LMML 230845Z VRB01KT 9999 FEW020 20/16 Q1023 NOSIG=
201211230830 METAR LMML NIL=
201211230815 METAR LMML 230815Z VRB01KT 9999 FEW020 19/16 Q1023 NOSIG=
201211230800 METAR LMML NIL=
201211230745 METAR LMML 230745Z VRB02KT 9999 FEW020 18/16 Q1023 NOSIG=
201211230730 METAR LMML NIL=
201211230715 METAR LMML 230715Z 28003KT 9999 FEW020 17/15 Q1023 NOSIG=
201211230700 METAR LMML NIL=
201211230645 METAR LMML 230645Z VRB01KT 9999 FEW020 16/15 Q1022 NOSIG=
201211230615 METAR LMML 230615Z 34002KT 9999 FEW020 14/14 Q1022 NOSIG=
201211230600 METAR LMML NIL=
201211230545 METAR LMML 230545Z 31001KT 9999 FEW020 14/14 Q1022 NOSIG=
201211230530 METAR LMML NIL=
201211230515 METAR LMML 230515Z 00000KT 9999 FEW020 14/13 Q1022 NOSIG=
201211230445 METAR LMML 230445Z 29002KT 9999 FEW020 15/14 Q1022 NOSIG=
201211230415 METAR LMML 230415Z 32001KT 9999 FEW020 14/13 Q1022=
201211230400 METAR LMML NIL=
201211230345 METAR LMML 230345Z 32002KT 9999 FEW020 15/14 Q1022=
201211230315 METAR LMML 230315Z 32002KT 9999 FEW020 15/14 Q1022=
201211230300 METAR LMML NIL=
201211230245 METAR LMML 230245Z AUTO 31002KT 8000NDV NCD 14/13 Q1022=
201211230230 METAR LMML NIL=
201211230215 METAR LMML 230215Z AUTO 32002KT 9000NDV NCD 15/14 Q1022=
201211230200 METAR LMML NIL=
201211230145 METAR LMML 230145Z AUTO 31002KT 9000NDV NCD 15/14 Q1022=
201211230130 METAR LMML NIL=
201211230115 METAR LMML 230115Z AUTO 33002KT CAVOK 15/14 Q1022=
201211230100 METAR LMML NIL=
201211230045 METAR LMML 230045Z AUTO 33003KT 9999NDV FEW020/// 15/14 Q1022=
201211230030 METAR LMML NIL=
201211230015 METAR LMML 230015Z AUTO VRB02KT CAVOK 15/14 Q1022=
201211230000 METAR LMML NIL=
201211222345 METAR LMML 222345Z AUTO 34002KT 9000NDV NCD 15/13 Q1022=
201211222330 METAR LMML NIL=
201211222315 METAR LMML 222315Z AUTO 35001KT CAVOK 15/14 Q1022=
201211222245 METAR LMML 222245Z AUTO 34002KT CAVOK 16/14 Q1022=
201211222230 METAR LMML NIL=
201211222215 METAR LMML 222215Z AUTO 36002KT CAVOK 15/14 Q1022=
201211222200 METAR LMML NIL=
201211222145 METAR LMML 222145Z AUTO 34002KT 8000NDV NCD 16/14 Q1022=
201211222130 METAR LMML NIL=
201211222115 METAR LMML 222115Z AUTO 34002KT 7000NDV NCD 16/14 Q1022=
201211222100 METAR LMML NIL=
201211222045 METAR LMML 222045Z 33003KT 9999 FEW019 16/14 Q1022 NOSIG=
201211222030 METAR LMML NIL=
201211222015 METAR LMML 222015Z 32003KT 9999 FEW019 16/14 Q1022 NOSIG=
201211222000 METAR LMML NIL=
201211221945 METAR LMML 221945Z 32003KT 9999 SCT019 16/14 Q1022 NOSIG=
201211221915 METAR LMML 221915Z 32002KT 9999 FEW019 16/14 Q1022 NOSIG=
201211221900 METAR LMML NIL=
201211221845 METAR LMML 221845Z VRB02KT 9999 SCT019 17/14 Q1022 NOSIG=
201211221830 METAR LMML NIL=
201211221815 METAR LMML 221815Z 07003KT 9999 SCT019 17/14 Q1021 NOSIG=
201211221800 METAR LMML NIL=
201211221745 METAR LMML 221745Z 06003KT 9999 FEW021 17/14 Q1021 NOSIG=
201211221730 METAR LMML NIL=
201211221715 METAR LMML 221715Z 05002KT 9999 FEW020 17/14 Q1021 NOSIG=
201211221700 METAR LMML NIL=
201211221645 METAR LMML 221645Z 05002KT 9999 FEW025 18/14 Q1021 NOSIG=
201211221630 METAR LMML NIL=
201211221615 METAR LMML 221615Z 06003KT 040V100 9999 FEW025 18/14 Q1021
                        NOSIG=
201211221600 METAR LMML NIL=
201211221545 METAR LMML 221545Z 06004KT 9999 FEW025 19/14 Q1021 NOSIG=
201211221530 METAR LMML NIL=
201211221515 METAR LMML 221515Z 06005G15KT 9999 FEW023 19/14 Q1021 NOSIG=
201211221500 METAR LMML NIL=
201211221445 METAR LMML 221445Z 05006KT 9999 FEW023 20/14 Q1021 NOSIG=
201211221430 METAR LMML NIL=
201211221415 METAR LMML 221415Z 07007KT 040V100 9999 FEW025 20/14 Q1021
                        NOSIG=
201211221400 METAR LMML NIL=
201211221345 METAR LMML 221345Z 05006KT 9999 SCT025 20/14 Q1021 NOSIG=
201211221330 METAR LMML NIL=
201211221315 METAR LMML 221315Z 04004KT 320V070 9999 SCT025 20/14 Q1020
                        NOSIG=
201211221300 METAR LMML NIL=
201211221245 METAR LMML 221245Z AUTO 06007KT 9999NDV BKN025/// OVC029///
                        21/14 Q1021=
201211221230 METAR LMML NIL=
201211221215 METAR LMML 221215Z 06006KT 030V110 9999 SCT024 21/14 Q1021
                        NOSIG=
201211221200 METAR LMML NIL=
201211221145 METAR LMML 221145Z 06007KT 9999 SCT023 21/14 Q1021 NOSIG=
201211221130 METAR LMML NIL=
201211221115 METAR LMML 221115Z 04007KT 9999 SCT023 20/14 Q1021 NOSIG=
201211221100 METAR LMML NIL=
201211221045 METAR LMML 221045Z 06007KT 9999 SCT023 20/14 Q1021 NOSIG=
201211221030 METAR LMML NIL=
201211221015 METAR LMML 221015Z 07007KT 040V120 9999 SCT024 20/14 Q1021
                        NOSIG=
201211221000 METAR LMML NIL=
201211220945 METAR LMML 220945Z 05007KT 9999 SCT022 20/14 Q1021 NOSIG=
201211220930 METAR LMML NIL=
201211220915 METAR LMML 220915Z 06008KT 030V090 9999 SCT021 20/15 Q1021
                        NOSIG=
201211220900 METAR LMML NIL=
201211220845 METAR LMML 220845Z 06007KT 9999 BKN022 20/15 Q1021 NOSIG=
201211220830 METAR LMML NIL=
201211220815 METAR LMML 220815Z 02005KT 350V060 9999 SCT020 20/15 Q1021
                        NOSIG=
201211220800 METAR LMML NIL=
201211220745 METAR LMML 220745Z VRB03KT 9999 FEW019TCU SCT020 20/15 Q1021
                        NOSIG=
201211220730 METAR LMML NIL=
201211220715 METAR LMML 220715Z VRB04KT 9999 FEW020TCU SCT022 18/15 Q1021
                        NOSIG=
201211220700 METAR LMML NIL=
201211220645 METAR LMML 220645Z 02003KT 9999 SCT020 17/14 Q1020 NOSIG=
201211220630 METAR LMML NIL=
201211220615 METAR LMML 220615Z 32003KT 9999 SCT019 15/14 Q1020 NOSIG=
201211220600 METAR LMML NIL=
201211220545 METAR LMML 220545Z 35001KT 9999 SCT020 15/14 Q1020 NOSIG=
201211220530 METAR LMML NIL=
201211220515 METAR LMML 220515Z 31002KT 9999 SCT020 15/14 Q1019 NOSIG=
201211220500 METAR LMML NIL=
201211220445 METAR LMML 220445Z 31003KT 9999 -SHRA SCT020 15/14 Q1019
                        NOSIG=
201211220430 METAR LMML NIL=
201211220415 METAR LMML 220415Z VRB01KT 9999 FEW022 15/14 Q1019 NOSIG=
201211220400 METAR LMML NIL=
201211220345 METAR LMML 220345Z 03002KT 9999 SCT037 15/14 Q1019 NOSIG=
201211220330 METAR LMML NIL=
201211220315 METAR LMML 220315Z 05003KT 030V090 9999 FEW020 15/14 Q1018
                        NOSIG=
201211220300 METAR LMML NIL=
201211220245 METAR LMML 220245Z AUTO VRB02KT CAVOK 15/14 Q1018=
201211220230 METAR LMML NIL=
201211220215 METAR LMML 220215Z AUTO 01002KT CAVOK 16/14 Q1019=
201211220200 METAR LMML NIL=
201211220145 METAR LMML 220145Z AUTO VRB02KT CAVOK 16/14 Q1018=
201211220130 METAR LMML NIL=
201211220115 METAR LMML 220115Z AUTO 32002KT CAVOK 16/14 Q1018=
201211220100 METAR LMML NIL=
201211220045 METAR LMML 220045Z AUTO 34004KT 9999NDV SCT022/// BKN025///
                        16/14 Q1018=
201211220030 METAR LMML NIL=
201211220015 METAR LMML 220015Z AUTO 32005KT 9999NDV FEW020/// SCT037///
                        16/14 Q1018=
201211220000 METAR LMML NIL=
201211212345 METAR LMML 212345Z AUTO 31004KT CAVOK 17/14 Q1018=
201211212330 METAR LMML NIL=
201211212315 METAR LMML 212315Z AUTO 31007KT 9999NDV BKN023/// OVC027///
                        16/14 Q1018=
201211212300 METAR LMML NIL=
201211212245 METAR LMML 212245Z AUTO 34007KT CAVOK 16/14 Q1018=
201211212215 METAR LMML 212215Z AUTO 33008KT 9999NDV FEW024/// 16/14 Q1018=
201211212200 METAR LMML NIL=
201211212145 METAR LMML 212145Z AUTO 34009KT CAVOK 17/14 Q1018=
201211212130 METAR LMML NIL=
201211212115 METAR LMML 212115Z AUTO 32008KT CAVOK 17/15 Q1018=
201211212100 METAR LMML NIL=
201211212045 METAR LMML 212045Z AUTO 31008KT CAVOK 17/15 Q1018=
201211212030 METAR LMML NIL=
201211212015 METAR LMML 212015Z AUTO 30007KT 9999NDV FEW049/// 18/15 Q1018=
201211212000 METAR LMML NIL=
201211211945 METAR LMML 211945Z 30008KT 9999 SCT023 18/15 Q1017 NOSIG=
201211211930 METAR LMML NIL=
201211211915 METAR LMML 211915Z 31008KT 9999 FEW020 17/15 Q1017 NOSIG=
201211211900 METAR LMML NIL=
201211211845 METAR LMML 211845Z 32007KT 9999 FEW020 17/14 Q1017 NOSIG=
201211211830 METAR LMML NIL=
201211211815 METAR LMML 211815Z 32008KT 9999 FEW020 17/14 Q1017 NOSIG=
201211211800 METAR LMML NIL=
201211211745 METAR LMML 211745Z AUTO 32009KT CAVOK 17/15 Q1017 NOSIG=
201211211730 METAR LMML NIL=
201211211715 METAR LMML 211715Z 32009KT 9999 SCT020 17/15 Q1016 NOSIG=
201211211700 METAR LMML NIL=
201211211645 METAR LMML 211645Z AUTO 32008KT 9999NDV FEW028/// 17/15 Q1016
                        NOSIG=
201211211630 METAR LMML NIL=
201211211615 METAR LMML 211615Z 32008KT 9999 SCT021TCU 18/14 Q1016 TEMPO
                        7000 SHRA BKN015TCU=
201211211600 METAR LMML NIL=
201211211545 METAR LMML 211545Z 32009KT 9999 SCT021 18/14 Q1016 TEMPO
                        7000 SHRA BKN015TCU=
201211211530 METAR LMML NIL=
201211211515 METAR LMML 211515Z 31008KT 9999 SCT024TCU 18/14 Q1016 TEMPO
                        7000 SHRA BKN015TCU=
201211211500 METAR LMML NIL=
201211211445 METAR LMML 211445Z 31011KT 9999 BKN021TCU 19/15 Q1016 TEMPO
                        7000 SHRA BKN015TCU=
201211211430 METAR LMML NIL=
201211211415 METAR LMML 211415Z 31013KT 9999 SCT018TCU 19/16 Q1016 TEMPO
                        7000 SHRA BKN015TCU=
201211211400 METAR LMML NIL=
201211211345 METAR LMML 211345Z AUTO 32011KT CAVOK 18/15 Q1016=
201211211330 METAR LMML NIL=
201211211315 METAR LMML 211315Z 33012KT 9999 SHRA BKN018TCU 18/16 Q1016
                        TEMPO 8000 SHRA=
201211211300 METAR LMML NIL=
201211211245 METAR LMML 211245Z 32013G24KT 9999 BKN021TCU 19/15 Q1016
                        TEMPO 8000 SHRA BKN015TCU=
201211211230 METAR LMML NIL=
201211211215 METAR LMML 211215Z 31015KT 9999 BKN022TCU 20/14 Q1016 TEMPO
                        8000 SHRA BKN015TCU=
201211211200 METAR LMML NIL=
201211211145 METAR LMML 211145Z 31010KT 9999 BKN022 20/15 Q1016 TEMPO
                        8000 SHRA BKN015TCU=
201211211130 METAR LMML NIL=
201211211115 METAR LMML 211115Z 31012KT 9999 BKN023 21/15 Q1016 TEMPO
                        8000 SHRA BKN015TCU=
201211211100 METAR LMML NIL=
201211211045 METAR LMML 211045Z 31011KT 9999 SCT025 21/15 Q1016 TEMPO
                        8000 SHRA BKN015TCU=
201211211030 METAR LMML NIL=
201211211015 METAR LMML 211015Z 32005KT 290V350 9999 BKN022TCU 20/15 Q1016
                        TEMPO 8000 SHRA BKN015TCU=
201211211000 METAR LMML NIL=
201211210945 METAR LMML 210945Z 33007KT 290V040 9999 BKN020 19/15 Q1016
                        TEMPO 8000 SHRA BKN015TCU=
201211210930 METAR LMML NIL=
201211210915 METAR LMML 210915Z 30008KT 9999 SCT020TCU 18/15 Q1016 TEMPO
                        8000 SHRA BKN015TCU=
201211210900 METAR LMML NIL=
201211210845 METAR LMML 210845Z 29005KT 260V320 9999 SCT025 18/15 Q1016
                        TEMPO 8000 SHRA BKN015TCU=
201211210830 METAR LMML NIL=
201211210815 METAR LMML 210815Z 32007KT 9999 SCT022TCU 17/14 Q1016 TEMPO
                        8000 SHRA BKN015TCU=
201211210800 METAR LMML NIL=
201211210745 METAR LMML 210745Z 32009KT 280V340 9999 -SHRA SCT022TCU 18/15
                        Q1016 TEMPO 8000 SHRA BKN015TCU=
201211210730 METAR LMML NIL=
201211210715 METAR LMML 210715Z 31010KT 9999 SCT018TCU 18/15 Q1016 TEMPO
                        3000 TSRA BKN014CB=
201211210700 METAR LMML NIL=
201211210645 METAR LMML 210645Z 32008KT 9999 SCT025TCU 16/14 Q1015 TEMPO
                        3000 TSRA BKN014CB=
201211210630 METAR LMML NIL=
201211210615 METAR LMML 210615Z 31009KT 9999 SCT025TCU 16/14 Q1015 TEMPO
                        3000 TSRA BKN014CB RMK CB TO WEST
                        OF AIRFIELD=
201211210600 METAR LMML NIL=
201211210545 METAR LMML 210545Z 32008KT 9999 SCT019TCU 16/15 Q1015 TEMPO
                        3000 TSRA BKN014CB=
201211210530 METAR LMML NIL=
201211210515 METAR LMML 210515Z 32007KT 9999 SCT023TCU 16/14 Q1015 TEMPO
                        3000 TSRA BKN014CB RMK DISTANT LIGHTNING
                        TO W=
201211210500 METAR LMML NIL=
201211210445 METAR LMML 210445Z 33007KT 9999 FEW023 16/14 Q1015 TEMPO
                        3000 TSRA BKN014CB RMK DISTANT LIGHTNING
                        TO NW=
201211210430 METAR LMML NIL=
201211210415 METAR LMML 210415Z 31009KT 9999 SCT018 17/14 Q1014 TEMPO
                        3000 TSRA BKN014CB=
201211210400 METAR LMML NIL=
201211210345 METAR LMML 210345Z 31008KT 9999 FEW023 17/14 Q1014 TEMPO
                        3000 TSRA BKN014CB=
201211210330 METAR LMML NIL=
201211210315 METAR LMML 210315Z AUTO 30009KT CAVOK 16/14 Q1014=
201211210300 METAR LMML NIL=
201211210245 METAR LMML 210245Z AUTO 31009KT 9999NDV FEW022/// 16/14 Q1014=
201211210230 METAR LMML NIL=
201211210215 METAR LMML 210215Z AUTO 30009KT CAVOK 17/14 Q1014=
201211210200 METAR LMML NIL=
201211210145 METAR LMML 210145Z AUTO 28008KT CAVOK 16/14 Q1014=
201211210130 METAR LMML NIL=
201211210115 METAR LMML 210115Z AUTO 30008KT CAVOK 16/14 Q1014=
201211210100 METAR LMML NIL=
201211210045 METAR LMML 210045Z AUTO 32007KT 9999NDV FEW024/// SCT060///
                        16/14 Q1015=
201211210030 METAR LMML NIL=
201211210015 METAR LMML 210015Z AUTO 30009KT 9999NDV OVC021/// OVC073///
                        17/14 Q1014=
201211210000 METAR LMML NIL=
201211202345 METAR LMML 202345Z AUTO 30007KT 2600NDV FEW020/// BKN063///
                        17/14 Q1014=
201211202330 METAR LMML NIL=
201211202315 METAR LMML 202315Z AUTO 29007KT 1800NDV HZ NCD 17/13 Q1014=
201211202300 METAR LMML NIL=
201211202245 METAR LMML 202245Z AUTO 30009KT 8000NDV HZ NCD 17/13 Q1015=
201211202230 METAR LMML NIL=
201211202215 METAR LMML 202215Z AUTO 30007KT 9999NDV FEW022/// 17/14 Q1015=
201211202200 METAR LMML NIL=
201211202145 METAR LMML 202145Z AUTO 30010KT CAVOK 17/13 Q1014=
201211202130 METAR LMML NIL=
201211202115 METAR LMML 202115Z AUTO 30009KT CAVOK 17/14 Q1014=
201211202100 METAR LMML NIL=
201211202045 METAR LMML 202045Z 30011KT 9999 FEW020 17/14 Q1014 NOSIG=
201211202030 METAR LMML NIL=
201211202015 METAR LMML 202015Z 30009KT 9999 FEW019 17/14 Q1014 NOSIG=
201211202000 METAR LMML NIL=
201211201945 METAR LMML 201945Z 30009KT 9999 SCT019 17/14 Q1014 NOSIG=
201211201930 METAR LMML NIL=
201211201915 METAR LMML 201915Z 30009KT 9999 FEW021 17/14 Q1014 NOSIG=
201211201900 METAR LMML NIL=
201211201845 METAR LMML 201845Z 29008KT 9999 FEW020 17/14 Q1014 NOSIG=
201211201830 METAR LMML NIL=
201211201815 METAR LMML 201815Z 30008KT 9999 FEW020 17/14 Q1014 NOSIG=
201211201800 METAR LMML NIL=
201211201745 METAR LMML 201745Z 29007KT 9999 SCT020 17/15 Q1014 NOSIG=
201211201730 METAR LMML NIL=
201211201715 METAR LMML 201715Z 30011KT 260V330 6000 -SHRA BKN021 17/15
                        Q1013 BECMG 9999 NSW=
201211201700 METAR LMML NIL=
201211201645 METAR LMML 201645Z 29008KT 9999 FEW020 17/14 Q1013 TEMPO
                        8000 SHRA BKN015TCU=
201211201630 METAR LMML NIL=
201211201615 METAR LMML 201615Z 29009KT 9999 FEW020TCU 17/14 Q1013 TEMPO
                        8000 SHRA BKN015TCU=
201211201600 METAR LMML NIL=
201211201545 METAR LMML 201545Z 29008KT 9999 FEW020TCU 18/14 Q1013 TEMPO
                        8000 SHRA BKN015TCU=
201211201530 METAR LMML NIL=
201211201515 METAR LMML 201515Z 30010KT 9999 FEW020TCU 18/14 Q1013 TEMPO
                        8000 SHRA BKN015TCU=
201211201500 METAR LMML NIL=
201211201445 METAR LMML 201445Z 30012KT 9999 FEW020TCU 19/14 Q1013 TEMPO
                        8000 SHRA BKN015TCU=
201211201430 METAR LMML NIL=
201211201415 METAR LMML 201415Z AUTO 31013KT CAVOK 20/13 Q1013=
201211201400 METAR LMML NIL=
201211201345 METAR LMML 201345Z 30013KT 9999 SCT018TCU 19/15 Q1013 NOSIG=
201211201330 METAR LMML NIL=
201211201315 METAR LMML 201315Z 30010KT 9999 FEW019TCU 20/15 Q1013 NOSIG=
201211201300 METAR LMML NIL=
201211201245 METAR LMML 201245Z 30015KT 9999 SCT021TCU 20/14 Q1013 NOSIG=
201211201230 METAR LMML NIL=
201211201215 METAR LMML 201215Z 29012KT 260V320 9999 FEW020TCU 19/15 Q1013
                        NOSIG=
201211201200 METAR LMML NIL=
201211201145 METAR LMML 201145Z 28013KT 9999 SCT020TCU 19/14 Q1013 NOSIG=
201211201130 METAR LMML NIL=
201211201115 METAR LMML 201115Z 28012KT 9999 FEW020TCU 19/15 Q1013 TEMPO
                        8000 SHRA BKN020TCU=
201211201100 METAR LMML NIL=
201211201045 METAR LMML 201045Z 29011KT 260V320 9999 FEW020TCU 18/15 Q1013
                        TEMPO 8000 SHRA BKN020TCU=
201211201030 METAR LMML NIL=
201211201015 METAR LMML 201015Z 29012KT 9999 FEW020CB 18/14 Q1013 TEMPO
                        2000 TSRA BKN015CB=
201211201000 METAR LMML NIL=
201211200945 METAR LMML 200945Z 29011KT 9999 FEW019CB 18/15 Q1014 TEMPO
                        2000 TSRA BKN015CB=
201211200930 METAR LMML NIL=
201211200915 METAR LMML 200915Z 29012KT 9999 FEW020CB SCT025TCU 18/14
                        Q1014 TEMPO 2000 TSRA BKN015CB=
201211200900 METAR LMML NIL=
201211200845 METAR LMML 200845Z 30015KT 260V320 9999 BKN019TCU 19/14 Q1013
                        TEMPO 6000 SHRA BKN015TCU RMK CB
                        TO NORTHWEST=
201211200830 METAR LMML NIL=
201211200815 METAR LMML 200815Z 29009KT 9999 SCT024 20/15 Q1013 TEMPO
                        6000 SHRA BKN015TCU=
201211200800 METAR LMML NIL=
201211200745 METAR LMML 200745Z 30010KT 9999 FEW025 19/14 Q1013 TEMPO
                        6000 SHRA BKN015TCU=
201211200730 METAR LMML NIL=
201211200715 METAR LMML 200715Z 29006KT 9999 FEW025 19/15 Q1013 TEMPO
                        2000 TSRA BKN015CB=
201211200700 METAR LMML NIL=
201211200645 METAR LMML 200645Z 30007KT 9999 SCT022 18/14 Q1012 TEMPO
                        2000 TSRA BKN015CB RMK CB TOP TO
                        NORTHWEST=
201211200630 METAR LMML NIL=
201211200615 METAR LMML 200615Z 29007KT 9999 SCT025CB 16/13 Q1012 TEMPO
                        2000 TSRA BKN015CB=
201211200600 METAR LMML NIL=
201211200545 METAR LMML 200545Z 29006KT 9999 FEW025 16/13 Q1012 TEMPO
                        2000 TSRA BKN015CB RMK CB TOPS EAST
                        AND SOUTH=
201211200530 METAR LMML NIL=
201211200515 METAR LMML 200515Z 30007KT 9999 SCT024 16/13 Q1012 TEMPO
                        2000 TSRA BKN015CB RMK CB TOPS TO
                        NORTH=
201211200500 METAR LMML NIL=
201211200445 METAR LMML 200445Z 30008KT 9999 FEW024 16/13 Q1012 NOSIG=
201211200430 METAR LMML NIL=
201211200415 METAR LMML 200415Z 30008KT 9999 FEW025 16/12 Q1011 NOSIG=
201211200400 METAR LMML NIL=
201211200345 METAR LMML 200345Z 29008KT 9999 SCT020 17/13 Q1011 NOSIG=
201211200330 METAR LMML NIL=
201211200315 METAR LMML 200315Z 30008KT 9999 SCT020 17/13 Q1011 RETS NOSIG=
201211200300 METAR LMML NIL=
201211200245 METAR LMML 200245Z 29008KT 9999 SCT020 17/14 Q1011 RETS NOSIG
                        RMK LIGHTNING TO SE=
201211200230 METAR LMML NIL=
201211200215 METAR LMML 200215Z AUTO 29007KT CAVOK 17/14 Q1011=
201211200200 METAR LMML NIL=
201211200145 METAR LMML 200145Z AUTO 29007KT 9999NDV FEW035/// BKN059///
                        17/14 Q1011=
201211200130 METAR LMML NIL=
201211200115 METAR LMML 200115Z AUTO 29008KT CAVOK 17/14 Q1011=
201211200100 METAR LMML NIL=
201211200045 METAR LMML 200045Z AUTO 29006KT CAVOK 16/14 Q1011=
201211200030 METAR LMML NIL=
201211200015 METAR LMML 200015Z AUTO 29007KT 9999NDV FEW023/// 16/14 Q1011=
201211200000 METAR LMML NIL=
201211192345 METAR LMML 192345Z AUTO 28007KT CAVOK 16/14 Q1011=
201211192330 METAR LMML NIL=
201211192315 METAR LMML 192315Z AUTO 29007KT CAVOK 16/14 Q1011=
201211192300 METAR LMML NIL=
201211192245 METAR LMML 192245Z AUTO 28006KT CAVOK 17/14 Q1011=
201211192230 METAR LMML NIL=
201211192215 METAR LMML 192215Z AUTO 27005KT CAVOK 16/14 Q1011=
201211192145 METAR LMML 192145Z AUTO 28006KT CAVOK 16/14 Q1011=
201211192115 METAR LMML 192115Z AUTO 29006KT 9999NDV FEW022/// 16/13 Q1011=
201211192100 METAR LMML NIL=
201211192045 METAR LMML 192045Z 29006KT 9999 FEW020 16/13 Q1011 NOSIG=
201211192030 METAR LMML NIL=
201211192015 METAR LMML 192015Z 29007KT 9999 FEW020 16/13 Q1011 NOSIG=
201211192000 METAR LMML NIL=
201211191945 METAR LMML 191945Z 29006KT 9999 FEW020 16/13 Q1011 NOSIG=
201211191930 METAR LMML NIL=
201211191915 METAR LMML 191915Z 28007KT 9999 FEW020 16/13 Q1011 NOSIG=
201211191900 METAR LMML NIL=
201211191845 METAR LMML 191845Z 28004KT 9999 FEW020 16/13 Q1010 NOSIG=
201211191830 METAR LMML NIL=
201211191815 METAR LMML 191815Z 27006KT 9999 FEW020 17/13 Q1010 NOSIG=
201211191800 METAR LMML NIL=
201211191745 METAR LMML 191745Z 25006KT 9999 FEW020 16/13 Q1010 NOSIG=
201211191730 METAR LMML NIL=
201211191715 METAR LMML 191715Z 26005KT 220V300 9999 FEW020 16/13 Q1010
                        NOSIG=
201211191700 METAR LMML NIL=
201211191645 METAR LMML 191645Z AUTO 26006KT CAVOK 16/13 Q1010 NOSIG=
201211191630 METAR LMML NIL=
201211191615 METAR LMML 191615Z 23007KT 9999 FEW020CB 16/13 Q1009 RETS
                        NOSIG=
201211191600 METAR LMML NIL=
201211191545 METAR LMML 191545Z 22006KT 9000 -RA SCT020CB 15/13 Q1009
                        RETS NOSIG=
201211191530 METAR LMML NIL=
201211191515 METAR LMML 191515Z 29008KT 7000 -TSRA SCT020CB 16/12 Q1009
                        TEMPO 5000 TSRA BKN015CB=
201211191500 METAR LMML NIL=
201211191445 METAR LMML 191445Z 29013KT 250V320 7000 TSRA SCT020CB SCT035
                        16/14 Q1009 TEMPO 5000 TSRA BKN015CB=
201211191430 METAR LMML NIL=
201211191415 METAR LMML 191415Z 27007KT 240V300 9999 SCT020CB 19/15
                        Q1009 TEMPO 5000 TSRA BKN015CB=
201211191400 METAR LMML NIL=
201211191345 METAR LMML 191345Z 27005KT 240V320 9999 FEW020TCU 20/15 Q1009
                        TEMPO 5000 TSRA BKN015CB=
201211191330 METAR LMML NIL=
201211191315 METAR LMML 191315Z 25006KT 9999 FEW020TCU 19/14 Q1009 TEMPO
                        5000 TSRA BKN015CB=
201211191300 METAR LMML NIL=
201211191245 METAR LMML 191245Z 24006KT 220V280 9999 R31/1200VP2000N FEW020TCU
                        19/14 Q1009 TEMPO 5000 TSRA BKN015CB=
201211191230 METAR LMML NIL=
201211191215 METAR LMML 191215Z 24006KT 210V290 9999 FEW020TCU 19/14 Q1009
                        TEMPO 5000 TSRA BKN015CB=
201211191200 METAR LMML NIL=
201211191145 METAR LMML 191145Z 26007KT 9999 FEW020TCU 19/12 Q1009 TEMPO
                        5000 TSRA BKN015CB=
201211191130 METAR LMML NIL=
201211191115 METAR LMML 191115Z 24004KT 220V290 9999 FEW020TCU 19/14 Q1009
                        TEMPO 5000 TSRA BKN015CB=
201211191100 METAR LMML NIL=
201211191045 METAR LMML 191045Z 32004KT 290V360 9999 FEW018TCU 17/13 Q1010
                        TEMPO 5000 TSRA BKN015CB RMK CB TO
                        NORTHWEST=
201211191030 METAR LMML NIL=
201211191015 METAR LMML 191015Z 33012KT 9000 BKN018TCU 16/12 Q1011 TEMPO
                        5000 TSRA BKN015CB=
201211191000 METAR LMML NIL=
201211190945 METAR LMML 190945Z 28006KT 9999 FEW020TCU 19/15 Q1010 TEMPO
                        5000 TSRA BKN015CB=
201211190930 METAR LMML NIL=
201211190915 METAR LMML 190915Z 26004KT 9999 FEW020TCU 18/15 Q1010 TEMPO
                        5000 TSRA BKN015CB=
201211190900 METAR LMML NIL=
201211190845 METAR LMML 190845Z 23005KT 200V260 9999 FEW020TCU 18/14 Q1010
                        TEMPO 5000 TSRA BKN015CB=
201211190830 METAR LMML NIL=
201211190815 METAR LMML 190815Z 24004KT 9999 FEW020TCU 17/15 Q1010 TEMPO
                        5000 TSRA BKN015CB=
201211190800 METAR LMML NIL=
201211190745 METAR LMML 190745Z 22004KT 180V250 9999 FEW020TCU 16/15 Q1010
                        TEMPO 5000 TSRA BKN015CB=
201211190730 METAR LMML NIL=
201211190715 METAR LMML 190715Z 25003KT 9999 FEW020TCU 16/15 Q1009 TEMPO
                        5000 TSRA BKN015CB=
201211190700 METAR LMML NIL=
201211190645 METAR LMML 190645Z 27002KT 9999 FEW020 16/15 Q1009 TEMPO
                        5000 TSRA BKN015CB=
201211190630 METAR LMML NIL=
201211190615 METAR LMML 190615Z VRB02KT 9999 FEW015 15/14 Q1009 TEMPO
                        5000 TSRA BKN015CB=
201211190600 METAR LMML NIL=
201211190545 METAR LMML 190545Z VRB01KT 9999 FEW012 15/14 Q1009 NOSIG=
201211190515 METAR LMML 190515Z 15004KT 9999 FEW012 15/14 Q1009 NOSIG=
201211190500 METAR LMML NIL=
201211190445 METAR LMML 190445Z VRB02KT 9999 -RA FEW012 15/15 Q1009 NOSIG=
201211190430 METAR LMML NIL=
201211190415 METAR LMML 190415Z 04003KT 9999 FEW011 15/14 Q1009 RETS TEMPO
                        4000 TSRA BKN015CB=
201211190400 METAR LMML NIL=
201211190345 METAR LMML 190345Z VRB02KT 9999 FEW008 15/14 Q1009 RETS NOSIG=
201211190315 METAR LMML 190315Z 06006KT 340V070 6000 TSRA SCT030CB 14/13
                        Q1010 NOSIG=
201211190300 METAR LMML NIL=
201211190245 METAR LMML 190245Z 28011KT 210V320 2000 R13/0550VP2000D TSRA
                        FEW010 BKN030CB 16/15 Q1010 NOSIG=
201211190215 METAR LMML 190215Z AUTO 07005KT 040V100 9999NDV BKN026///
                        BKN030/// OVC044/// 16/16 Q1010=
201211190200 METAR LMML NIL=
201211190145 METAR LMML 190145Z AUTO 02004KT CAVOK 16/15 Q1010=
201211190130 METAR LMML NIL=
201211190115 METAR LMML 190115Z AUTO 35006KT 9999NDV FEW007/// OVC076///
                        16/15 Q1010=
201211190100 METAR LMML NIL=
201211190045 METAR LMML 190045Z AUTO 16003KT 130V200 9999NDV FEW033///
                        BKN055/// 16/15 Q1010=
201211190030 METAR LMML NIL=
201211190015 METAR LMML 190015Z 12005KT 9999 -RA FEW025 16/15 Q1010 TEMPO
                        4000 TSRA BKN015CB=
201211190000 METAR LMML NIL=
201211182345 METAR LMML 182345Z 15006KT 5000 RA SCT025 15/14 Q1011 TEMPO
                        4000 TSRA BKN015CB=
201211182330 METAR LMML NIL=
201211182315 METAR LMML 182315Z 12005KT 9999 -RA FEW025 15/14 Q1011 TEMPO
                        4000 TSRA BKN015CB=
201211182300 METAR LMML NIL=
201211182245 METAR LMML 182245Z 08003KT 9999 FEW025 15/14 Q1011 TEMPO
                        4000 TSRA BKN015CB=
201211182230 METAR LMML NIL=
201211182215 METAR LMML 182215Z 01003KT 320V110 9999 TS SCT028CB 15/14
                        Q1011 NOSIG=
201211182200 METAR LMML NIL=
201211182145 METAR LMML 182145Z 30013KT 270V340 5000 R13/0400VP2000D TSRA
                        BKN014CB 16/15 Q1012 BECMG 9999 NSW
                        SCT020=
201211182130 METAR LMML NIL=
201211182115 METAR LMML 182115Z VRB02KT 9999 BKN027 17/15 Q1011 TEMPO
                        5000 TSRA BKN015CB RMK LIGHTNING
                        TO SOUTH=
201211182100 METAR LMML NIL=
201211182045 METAR LMML 182045Z 07003KT 030V150 9999 FEW026CB BKN031 17/15
                        Q1012 TEMPO 5000 TSRA BKN015CB RMK
                        LIGHTNING TO SOUTHWEST=
201211182030 METAR LMML NIL=
201211182015 METAR LMML 182015Z 11009KT 080V140 9999 TS SCT032CB 17/15
                        Q1012 TEMPO 5000 TSRA BKN015CB=
201211182000 METAR LMML NIL=
201211181945 METAR LMML 181945Z 08005KT 9999 FEW028 BKN047 17/14 Q1012
                        NOSIG RMK LIGHTNING TO SOUTHEAST=
201211181930 METAR LMML NIL=
201211181915 METAR LMML 181915Z 03006KT 360V090 9999 BKN028 16/14 Q1013
                        NOSIG=
201211181900 METAR LMML NIL=
201211181845 METAR LMML 181845Z 03004KT 340V110 9999 FEW022 BKN030 16/15
                        Q1012 NOSIG RMK DISTANT LIGHTNING
                        TO NE=
201211181830 METAR LMML NIL=
201211181815 METAR LMML 181815Z 14004KT 9999 FEW025 BKN044 16/15 Q1012
                        NOSIG=
201211181800 METAR LMML NIL=
201211181745 METAR LMML 181745Z 09004KT 070V130 9999 -RA FEW020 SCT044
                        16/15 Q1012 TEMPO 2000 TSRA BKN015CB=
201211181730 METAR LMML NIL=
201211181715 METAR LMML 181715Z 27006KT 250V320 4000 R31/0900VP2000D +RA
                        FEW020 SCT046 17/15 Q1013 TEMPO 5000
                        TSRA BKN015CB=
201211181700 METAR LMML NIL=
201211181645 METAR LMML 181645Z 27005KT 5000 RA FEW020 BKN045 17/16 Q1012
                        TEMPO 5000 TSRA BKN015CB=
201211181630 METAR LMML NIL=
201211181615 METAR LMML 181615Z 29004KT 8000 -RA FEW025 SCT048 17/15 Q1012
                        TEMPO 5000 TSRA BKN015CB=
201211181600 METAR LMML NIL=
201211181545 METAR LMML 181545Z 29005KT 9999 -RA SCT018 17/15 Q1012 RETS
                        TEMPO 5000 TSRA BKN015CB=
201211181530 METAR LMML NIL=
201211181515 METAR LMML 181515Z 30004KT 220V330 9999 -RA FEW020TCU 18/16
                        Q1012 RETS TEMPO 5000 TSRA BKN015CB=
201211181500 METAR LMML NIL=
201211181445 METAR LMML 181445Z 20005KT 170V240 9000 -TSRA SCT020CB 20/15
                        Q1012 TEMPO 5000 TSRA BKN015CB=
201211181430 METAR LMML NIL=
201211181415 METAR LMML 181415Z 19005KT 9999 SCT030TCU 20/14 Q1012 TEMPO
                        5000 TSRA BKN015CB=
201211181400 METAR LMML NIL=
201211181345 METAR LMML 181345Z 19004KT 9999 FEW025 20/14 Q1012 TEMPO
                        7000 SHRA BKN020TCU=
201211181330 METAR LMML NIL=
201211181315 METAR LMML 181315Z 18003KT 140V230 9999 FEW025 21/14 Q1012
                        TEMPO 7000 SHRA BKN020TCU=
201211181245 METAR LMML 181245Z AUTO VRB02KT 9999NDV GR BKN093/// BKN120///
                        21/14 Q1012=
201211181230 METAR LMML NIL=
201211181215 METAR LMML 181215Z 30004KT 270V340 9999 FEW030 21/14 Q1012
                        TEMPO 7000 SHRA BKN020TCU=
201211181200 METAR LMML NIL=
201211181145 METAR LMML 181145Z 30006KT 260V320 9999 FEW034 21/15 Q1012
                        TEMPO 7000 SHRA BKN020TCU=
201211181130 METAR LMML NIL=
201211181115 METAR LMML 181115Z 28006KT 9999 SCT030 20/15 Q1013 TEMPO
                        7000 SHRA BKN020TCU=
201211181100 METAR LMML NIL=
201211181045 METAR LMML 181045Z 30008KT 9999 FEW025 SCT037 20/15 Q1013
                        TEMPO 7000 SHRA BKN020TCU=
201211181030 METAR LMML NIL=
201211181015 METAR LMML 181015Z 28010KT 250V310 9999 FEW025 FEW036 19/13
                        Q1014 TEMPO 7000 SHRA BKN020TCU=
201211181000 METAR LMML NIL=
201211180945 METAR LMML 180945Z 27009KT 230V300 9999 FEW025 19/14 Q1014
                        TEMPO 7000 SHRA BKN020TCU=
201211180930 METAR LMML NIL=
201211180915 METAR LMML 180915Z 25007KT 230V290 9999 FEW025 20/16 Q1013
                        TEMPO 7000 SHRA BKN020TCU=
201211180900 METAR LMML NIL=
201211180845 METAR LMML 180845Z 25009KT 230V290 9999 FEW025 20/16 Q1013
                        NOSIG=
201211180830 METAR LMML NIL=
201211180815 METAR LMML 180815Z 25005KT 9999 FEW025 20/15 Q1013 NOSIG=
201211180800 METAR LMML NIL=
201211180745 METAR LMML 180745Z 27003KT 230V300 9999 FEW025 19/15 Q1013
                        NOSIG=
201211180730 METAR LMML NIL=
201211180715 METAR LMML 180715Z 27006KT 240V300 9999 FEW028 18/16 Q1013
                        NOSIG=
201211180700 METAR LMML NIL=
201211180645 METAR LMML 180645Z 22006KT 9999 SCT026 19/15 Q1013 NOSIG=
201211180630 METAR LMML NIL=
201211180615 METAR LMML 180615Z 23005KT 9999 FEW026 18/15 Q1013 NOSIG=
201211180600 METAR LMML NIL=
201211180545 METAR LMML 180545Z 23004KT 9999 FEW023 18/15 Q1013 NOSIG=
201211180530 METAR LMML NIL=
201211180515 METAR LMML 180515Z 23005KT 9999 FEW024 17/15 Q1013 NOSIG=
201211180500 METAR LMML NIL=
201211180445 METAR LMML 180445Z VRB02KT CAVOK 17/14 Q1013 NOSIG=
201211180430 METAR LMML NIL=
201211180415 METAR LMML 180415Z 24004KT CAVOK 17/15 Q1013 NOSIG=
201211180400 METAR LMML NIL=
201211180345 METAR LMML 180345Z AUTO 23005KT CAVOK 17/14 Q1013=
201211180330 METAR LMML NIL=
201211180315 METAR LMML 180315Z AUTO 22004KT CAVOK 16/13 Q1013=
201211180300 METAR LMML NIL=
201211180245 METAR LMML 180245Z AUTO 22001KT CAVOK 16/13 Q1013=
201211180230 METAR LMML NIL=
201211180215 METAR LMML 180215Z AUTO VRB01KT CAVOK 16/12 Q1013=
201211180200 METAR LMML NIL=
201211180145 METAR LMML 180145Z AUTO VRB02KT CAVOK 16/12 Q1013=
201211180130 METAR LMML NIL=
201211180115 METAR LMML 180115Z AUTO 00000KT CAVOK 16/12 Q1013=
201211180100 METAR LMML NIL=
201211180045 METAR LMML 180045Z AUTO VRB02KT CAVOK 17/12 Q1013=
201211180030 METAR LMML NIL=
201211180015 METAR LMML 180015Z AUTO 26004KT CAVOK 17/12 Q1014=
201211180000 METAR LMML NIL=
201211172345 METAR LMML 172345Z AUTO 25005KT CAVOK 16/12 Q1014=
201211172330 METAR LMML NIL=
201211172315 METAR LMML 172315Z AUTO 26005KT CAVOK 16/12 Q1014=
201211172300 METAR LMML NIL=
201211172245 METAR LMML 172245Z AUTO 27005KT CAVOK 16/12 Q1014=
201211172230 METAR LMML NIL=
201211172215 METAR LMML 172215Z AUTO 26005KT CAVOK 16/12 Q1014=
201211172200 METAR LMML NIL=
201211172145 METAR LMML 172145Z AUTO 28004KT CAVOK 16/12 Q1015=
201211172130 METAR LMML NIL=
201211172115 METAR LMML 172115Z AUTO 28005KT CAVOK 16/12 Q1015=
201211172100 METAR LMML NIL=
201211172045 METAR LMML 172045Z AUTO 28005KT CAVOK 16/12 Q1014=
201211172030 METAR LMML NIL=
201211172015 METAR LMML 172015Z AUTO 28004KT CAVOK 16/12 Q1014=
201211172000 METAR LMML NIL=
201211171945 METAR LMML 171945Z 27004KT 9999 FEW025 16/12 Q1014 NOSIG=
201211171930 METAR LMML NIL=
201211171915 METAR LMML 171915Z 27004KT 9999 FEW025 16/12 Q1014 NOSIG=
201211171900 METAR LMML NIL=
201211171845 METAR LMML 171845Z 26004KT 9999 FEW025 16/12 Q1014 NOSIG=
201211171830 METAR LMML NIL=
201211171815 METAR LMML 171815Z 29004KT 260V320 9999 FEW025 16/12 Q1014
                        NOSIG=
201211171800 METAR LMML NIL=
201211171745 METAR LMML 171745Z 29004KT 260V320 9999 FEW025 16/12 Q1014
                        NOSIG=
201211171730 METAR LMML NIL=
201211171715 METAR LMML 171715Z 31004KT 270V330 9999 FEW022 16/12 Q1014
                        NOSIG=
201211171700 METAR LMML NIL=
201211171645 METAR LMML 171645Z 31004KT 9999 FEW022 17/12 Q1013 NOSIG=
201211171630 METAR LMML NIL=
201211171615 METAR LMML 171615Z 31006KT 9999 FEW022 17/12 Q1013 NOSIG=
201211171600 METAR LMML NIL=
201211171545 METAR LMML 171545Z 32006KT 9999 SCT025 18/12 Q1013 NOSIG=
201211171530 METAR LMML NIL=
201211171515 METAR LMML 171515Z 31009KT 9999 SCT026 19/12 Q1013 NOSIG=
201211171500 METAR LMML NIL=
201211171445 METAR LMML 171445Z 31009KT 9999 FEW026 19/13 Q1013 NOSIG=
201211171430 METAR LMML NIL=
201211171415 METAR LMML 171415Z 31009KT 9999 FEW030 20/13 Q1013 NOSIG=
201211171400 METAR LMML NIL=
201211171345 METAR LMML 171345Z 30009KT 9999 FEW037 20/13 Q1013 NOSIG=
201211171330 METAR LMML NIL=
201211171315 METAR LMML 171315Z 30009KT 260V320 9999 FEW032 20/12 Q1013
                        NOSIG=
201211171245 METAR LMML 171245Z AUTO 31008KT CAVOK 20/12 Q1014=
201211171230 METAR LMML NIL=
201211171215 METAR LMML 171215Z 31008KT 9999 SCT032 20/12 Q1014 NOSIG=
201211171200 METAR LMML NIL=
201211171145 METAR LMML 171145Z 31006KT 250V350 9999 FEW035 21/12 Q1014
                        NOSIG=
201211171130 METAR LMML NIL=
201211171115 METAR LMML 171115Z 31006KT 270V350 9999 FEW031 21/13 Q1014
                        NOSIG=
201211171100 METAR LMML NIL=
201211171045 METAR LMML 171045Z 31008KT 270V330 9999 FEW030 21/13 Q1014
                        NOSIG=
201211171030 METAR LMML NIL=
201211171015 METAR LMML 171015Z 35008KT 9999 FEW030 21/13 Q1015 NOSIG=
201211171000 METAR LMML NIL=
201211170945 METAR LMML 170945Z 33009KT 300V360 9999 FEW030 21/13 Q1015
                        NOSIG=
201211170930 METAR LMML NIL=
201211170915 METAR LMML 170915Z 32010KT 9999 FEW030 20/13 Q1015 NOSIG=
201211170900 METAR LMML NIL=
201211170845 METAR LMML 170845Z 33009KT 9999 SCT030 20/14 Q1015 NOSIG=
201211170830 METAR LMML NIL=
201211170815 METAR LMML 170815Z 33010KT 9999 SCT029 19/15 Q1015 NOSIG=
201211170800 METAR LMML NIL=
201211170745 METAR LMML 170745Z 32006KT 9999 SCT022 19/15 Q1014 NOSIG=
201211170730 METAR LMML NIL=
201211170715 METAR LMML 170715Z 31007KT 9999 SCT020 18/15 Q1014 NOSIG=
201211170700 METAR LMML NIL=
201211170645 METAR LMML 170645Z 31007KT 9999 SCT020 17/14 Q1014 NOSIG=
201211170630 METAR LMML NIL=
201211170615 METAR LMML 170615Z 31007KT 9999 SCT020 17/14 Q1014 NOSIG=
201211170600 METAR LMML NIL=
201211170545 METAR LMML 170545Z 31006KT 9999 FEW015 17/14 Q1014 NOSIG=
201211170530 METAR LMML NIL=
201211170515 METAR LMML 170515Z 29003KT 9999 FEW020 16/14 Q1013 NOSIG=
201211170500 METAR LMML NIL=
201211170445 METAR LMML 170445Z 33003KT CAVOK 15/13 Q1013 NOSIG=
201211170430 METAR LMML NIL=
201211170415 METAR LMML 170415Z 34002KT CAVOK 16/13 Q1013 NOSIG=
201211170400 METAR LMML NIL=
201211170345 METAR LMML 170345Z 31002KT CAVOK 16/13 Q1014 NOSIG=
201211170330 METAR LMML NIL=
201211170315 METAR LMML 170315Z AUTO 30003KT CAVOK 16/13 Q1014=
201211170300 METAR LMML NIL=
201211170245 METAR LMML 170245Z AUTO 30004KT CAVOK 16/13 Q1014=
201211170230 METAR LMML NIL=
201211170215 METAR LMML 170215Z AUTO 30005KT CAVOK 17/14 Q1014=
201211170145 METAR LMML 170145Z AUTO 29003KT CAVOK 17/14 Q1014=
201211170130 METAR LMML NIL=
201211170115 METAR LMML 170115Z AUTO 30005KT CAVOK 17/14 Q1014=
201211170100 METAR LMML NIL=
201211170045 METAR LMML 170045Z AUTO 30003KT CAVOK 17/14 Q1014=
201211170030 METAR LMML NIL=
201211170015 METAR LMML 170015Z AUTO 31004KT CAVOK 17/14 Q1014=
201211170000 METAR LMML NIL=
201211162345 METAR LMML 162345Z AUTO 26003KT CAVOK 17/14 Q1014=
201211162330 METAR LMML NIL=
201211162315 METAR LMML 162315Z AUTO 31003KT CAVOK 17/14 Q1014=
201211162300 METAR LMML NIL=
201211162245 METAR LMML 162245Z AUTO 27004KT CAVOK 17/14 Q1014=
201211162230 METAR LMML NIL=
201211162215 METAR LMML 162215Z AUTO 27004KT 9999NDV OVC048/// 17/14 Q1014=
201211162200 METAR LMML NIL=
201211162145 METAR LMML 162145Z AUTO VRB02KT 9999NDV FEW021/// OVC045///
                        17/14 Q1014=
201211162130 METAR LMML NIL=
201211162115 METAR LMML 162115Z AUTO 31002KT 9999NDV OVC038/// 17/14 Q1014=
201211162100 METAR LMML NIL=
201211162045 METAR LMML 162045Z AUTO 30002KT CAVOK 17/14 Q1014=
201211162030 METAR LMML NIL=
201211162015 METAR LMML 162015Z AUTO VRB02KT CAVOK 17/14 Q1014=
201211162000 METAR LMML NIL=
201211161945 METAR LMML 161945Z 31004KT 9999 SCT030 17/14 Q1014 NOSIG=
201211161930 METAR LMML NIL=
201211161915 METAR LMML 161915Z 31003KT 9999 SCT024 17/14 Q1014 NOSIG=
201211161900 METAR LMML NIL=
201211161845 METAR LMML 161845Z 32004KT 9999 BKN025 17/14 Q1014 NOSIG=
201211161815 METAR LMML 161815Z 32005KT 9999 BKN022 18/15 Q1014 NOSIG=
201211161800 METAR LMML NIL=
201211161745 METAR LMML 161745Z 33005KT 9999 SCT026 18/14 Q1014 NOSIG=
201211161730 METAR LMML NIL=
201211161715 METAR LMML 161715Z 35003KT 9999 SCT022 17/14 Q1014 NOSIG=
201211161700 METAR LMML NIL=
201211161645 METAR LMML 161645Z 02005KT 9999 FEW020 18/14 Q1013 NOSIG=
201211161630 METAR LMML NIL=
201211161615 METAR LMML 161615Z 03007KT 9999 FEW023 18/14 Q1013 NOSIG=
201211161600 METAR LMML NIL=
201211161545 METAR LMML 161545Z 03007KT 9999 FEW025 19/14 Q1013 NOSIG=
201211161530 METAR LMML NIL=
201211161515 METAR LMML 161515Z 02008KT 9999 SCT028 19/14 Q1013 NOSIG=
201211161500 METAR LMML NIL=
201211161445 METAR LMML 161445Z 03009KT 9999 SCT021 19/14 Q1013 NOSIG=
201211161430 METAR LMML NIL=
201211161415 METAR LMML 161415Z 03011KT 350V050 9999 SCT023 19/14 Q1013
                        NOSIG=
201211161400 METAR LMML NIL=
201211161345 METAR LMML 161345Z 03010KT 330V050 9999 FEW021 20/15 Q1013
                        NOSIG=
201211161330 METAR LMML NIL=
201211161315 METAR LMML 161315Z 03011KT 9999 SCT021 20/15 Q1013 NOSIG=
201211161300 METAR LMML NIL=
201211161245 METAR LMML 161245Z 04011KT 9999 SCT019 20/15 Q1013 NOSIG=
201211161215 METAR LMML 161215Z 03013KT 9999 SCT017 19/15 Q1013 NOSIG=
201211161200 METAR LMML NIL=
201211161145 METAR LMML 161145Z 03011KT 340V070 9999 SCT018 20/16 Q1013
                        NOSIG=
201211161130 METAR LMML NIL=
201211161115 METAR LMML 161115Z AUTO 04012KT 9999NDV FEW016/// SCT025///
                        BKN110/// 20/16 Q1013=
201211161100 METAR LMML NIL=
201211161045 METAR LMML 161045Z 04010KT 010V070 9999 SCT015 20/16 Q1013
                        NOSIG=
201211161030 METAR LMML NIL=
201211161015 METAR LMML 161015Z 04011KT 9999 FEW019 20/15 Q1014 NOSIG=
201211161000 METAR LMML NIL=
201211160945 METAR LMML 160945Z 06011KT 9999 FEW013 20/16 Q1014 NOSIG=
201211160930 METAR LMML NIL=
201211160915 METAR LMML 160915Z 05009KT 9999 FEW016 19/16 Q1014 NOSIG=
201211160900 METAR LMML NIL=
201211160845 METAR LMML 160845Z AUTO 06011KT CAVOK 19/15 Q1013 NOSIG=
201211160830 METAR LMML NIL=
201211160815 METAR LMML 160815Z 06013KT 9999 SCT017 19/15 Q1013 NOSIG=
201211160800 METAR LMML NIL=
201211160745 METAR LMML 160745Z 06010KT 9999 SCT016 19/15 Q1013 NOSIG=
201211160730 METAR LMML NIL=
201211160715 METAR LMML 160715Z 06012KT 9999 FEW017 19/14 Q1012 NOSIG=
201211160700 METAR LMML NIL=
201211160645 METAR LMML 160645Z 05012KT 9999 FEW015 18/15 Q1012 NOSIG=
201211160630 METAR LMML NIL=
201211160615 METAR LMML 160615Z 06013KT 9999 FEW016 18/15 Q1012 NOSIG=
201211160600 METAR LMML NIL=
201211160545 METAR LMML 160545Z 06013KT 9999 SCT015 BKN017 BKN020 18/15
                        Q1012 NOSIG=
201211160530 METAR LMML NIL=
201211160515 METAR LMML 160515Z 06012KT 9999 FEW015 18/15 Q1011 NOSIG=
201211160500 METAR LMML NIL=
201211160445 METAR LMML 160445Z 06012KT 9999 FEW015 18/15 Q1011 NOSIG=
201211160430 METAR LMML NIL=
201211160415 METAR LMML 160415Z 06013KT 9999 FEW015 18/15 Q1011 NOSIG=
201211160400 METAR LMML NIL=
201211160345 METAR LMML 160345Z 06010KT 9999 FEW013 18/16 Q1011 NOSIG=
201211160330 METAR LMML NIL=
201211160315 METAR LMML 160315Z 07010G21KT 9999 FEW013 18/16 Q1011 NOSIG=
201211160300 METAR LMML NIL=
201211160245 METAR LMML 160245Z AUTO 07014KT 9999NDV FEW012/// 18/16 Q1011=
201211160230 METAR LMML NIL=
201211160215 METAR LMML 160215Z AUTO 07012KT 9999NDV FEW012/// 18/16 Q1011=
201211160200 METAR LMML NIL=
201211160145 METAR LMML 160145Z AUTO 06012KT 9999NDV FEW014/// SCT024///
                        BKN028/// 18/16 Q1011=
201211160130 METAR LMML NIL=
201211160115 METAR LMML 160115Z AUTO 09005KT 9999NDV FEW019/// 17/15 Q1011=
201211160100 METAR LMML NIL=
201211160045 METAR LMML 160045Z AUTO 11003KT 9999NDV SCT022/// BKN025///
                        OVC028/// 17/15 Q1011=
201211160030 METAR LMML NIL=
201211160015 METAR LMML 160015Z AUTO VRB02KT 9999NDV FEW018/// SCT023///
                        16/15 Q1011=
201211160000 METAR LMML NIL=
201211152345 METAR LMML 152345Z AUTO 03003KT 9999NDV FEW015/// 17/14 Q1011=
201211152330 METAR LMML NIL=
201211152315 METAR LMML 152315Z AUTO 06004KT CAVOK 17/14 Q1011=
201211152300 METAR LMML NIL=
201211152245 METAR LMML 152245Z AUTO 02006KT CAVOK 17/15 Q1011=
201211152215 METAR LMML 152215Z AUTO 36007KT CAVOK 16/15 Q1011=
201211152200 METAR LMML NIL=
201211152145 METAR LMML 152145Z AUTO 35007KT CAVOK 16/15 Q1011=
201211152130 METAR LMML NIL=
201211152115 METAR LMML 152115Z AUTO 01004KT 9999NDV -DZ SCT079/// 16/14
                        Q1011=
201211152100 METAR LMML NIL=
201211152045 METAR LMML 152045Z 36007KT 9999 -RA SCT041 15/14 Q1011 RETS
                        TEMPO 5000 TSRA SCT012CB=
201211152030 METAR LMML NIL=
201211152015 METAR LMML 152015Z 04004KT 9000 -TSRA FEW013CB SCT043 15/14
                        Q1012 TEMPO 3000 TSRA BKN012CB=
201211152000 METAR LMML NIL=
201211151945 METAR LMML 151945Z 02006KT 4000 TSRA SCT013CB SCT046 15/14
                        Q1012 TEMPO 3000 TSRA BKN012CB=
201211151930 METAR LMML NIL=
201211151915 METAR LMML 151915Z 36008KT 9999 TS SCT015CB BKN046 15/14
                        Q1012 RERA TEMPO 3000 TSRA BKN012CB=
201211151900 METAR LMML NIL=
201211151845 METAR LMML 151845Z 01005KT 340V040 5000 -RA FEW010 BKN044
                        15/14 Q1012 RERA TEMPO 3000 TSRA
                        BKN012CB=
201211151815 METAR LMML 151815Z 35006KT 330V030 5000 -RA FEW009 SCT025
                        15/14 Q1012 RERA NOSIG=
201211151800 METAR LMML NIL=
201211151745 METAR LMML 151745Z VRB03KT 4000 RA SCT009 BKN035 15/14 Q1012
                        TEMPO 5000 TSRA BKN015CB=
201211151730 METAR LMML NIL=
201211151715 METAR LMML 151715Z 30005KT 260V330 7000 -RA SCT012 BKN030
                        16/14 Q1012 TEMPO 5000 TSRA BKN015CB=
201211151700 METAR LMML NIL=
201211151645 METAR LMML 151645Z 34006KT 300V020 9999 SCT015 BKN030 15/14
                        Q1012 TEMPO 5000 TSRA BKN015CB=
201211151630 METAR LMML NIL=
201211151615 METAR LMML 151615Z 36008KT 7000 -SHRA SCT025CB BKN041 15/14
                        Q1011 TEMPO 5000 TSRA BKN015CB=
201211151600 METAR LMML NIL=
201211151545 METAR LMML 151545Z 35007KT 7000 -RA FEW007 SCT023CB 15/14
                        Q1012 RETS TEMPO 5000 TSRA BKN015CB=
201211151530 METAR LMML NIL=
201211151515 METAR LMML 151515Z 33009KT 7000 -TSRA FEW007 BKN025CB 15/13
                        Q1012 TEMPO 5000 TSRA BKN015CB=
201211151500 METAR LMML NIL=
201211151445 METAR LMML 151445Z 31009KT 4500 R31/1000VP2000D TSRA FEW005
                        BKN025CB 15/13 Q1012 TEMPO 5000 TSRA
                        BKN015CB=
201211151430 METAR LMML NIL=
201211151415 METAR LMML 151415Z 28014KT 6000 -TSRA FEW007 SCT023CB 15/13
                        Q1012 TEMPO 5000 TSRA BKN015CB=
201211151400 METAR LMML NIL=
201211151345 METAR LMML 151345Z 18019G29KT 130V260 6000 FEW006 BKN022CB
                        19/15 Q1011 TEMPO 5000 TSRA BKN015CB=
201211151330 METAR LMML NIL=
201211151315 METAR LMML 151315Z 15011KT 110V180 7000 TSRA FEW011 BKN023CB
                        18/15 Q1010 TEMPO 5000 TSRA BKN015CB=
201211151300 METAR LMML NIL=
201211151245 METAR LMML 151245Z 19011KT 150V220 6000 TSRA FEW011 BKN023CB
                        18/15 Q1011 TEMPO 5000 TSRA BKN015CB=
201211151230 METAR LMML NIL=
201211151215 METAR LMML 151215Z 17013KT 4500 TSRA SCT019CB 19/15 Q1011
                        TEMPO 5000 TSRA BKN015CB=
201211151200 METAR LMML NIL=
201211151145 METAR LMML 151145Z 12019KT 9000 FEW011 SCT025CB 21/15
                        Q1011 TEMPO 5000 TSRA BKN015CB=
201211151130 METAR LMML NIL=
201211151115 METAR LMML 151115Z 12019KT 9999 SCT025 BKN045 21/15 Q1011
                        TEMPO 5000 TSRA BKN015CB=
201211151100 METAR LMML NIL=
201211151045 METAR LMML 151045Z 12020G32KT 9999 SCT025 BKN045 21/15 Q1012
                        TEMPO 5000 TSRA BKN015CB=
201211151030 METAR LMML NIL=
201211151015 METAR LMML 151015Z 12018KT 9999 -RA SCT025 BKN041 21/15 Q1012
                        TEMPO 5000 TSRA BKN015CB=
201211151000 METAR LMML NIL=
201211150945 METAR LMML 150945Z 12019KT 9999 SCT025 BKN045 21/14 Q1012
                        TEMPO 5000 TSRA BKN015CB=
201211150930 METAR LMML NIL=
201211150915 METAR LMML 150915Z 12021G31KT 9999 SCT020 BKN044 21/15 Q1012
                        TEMPO 5000 TSRA BKN015CB=
201211150900 METAR LMML NIL=
201211150845 METAR LMML 150845Z 12019KT 9999 SCT025 BKN042 21/15 Q1013
                        TEMPO 5000 TSRA BKN015CB=
201211150830 METAR LMML NIL=
201211150815 METAR LMML 150815Z 12018KT 9999 SCT025 21/14 Q1012 TEMPO
                        5000 TSRA BKN015CB=
201211150800 METAR LMML NIL=
201211150745 METAR LMML 150745Z 13021KT 9999 SCT025 21/14 Q1013 TEMPO
                        5000 TSRA BKN015CB=
201211150730 METAR LMML NIL=
201211150715 METAR LMML 150715Z 12017KT 9999 SCT026 21/15 Q1012 TEMPO
                        5000 TSRA BKN015CB=
201211150700 METAR LMML NIL=
201211150645 METAR LMML 150645Z 12016KT 9999 FEW025 20/14 Q1012 TEMPO
                        5000 TSRA BKN015CB=
201211150630 METAR LMML NIL=
201211150615 METAR LMML 150615Z 13016KT 9999 FEW025 20/14 Q1012 NOSIG=
201211150600 METAR LMML NIL=
201211150545 METAR LMML 150545Z 13018G28KT 9999 FEW027 20/14 Q1012 NOSIG=
201211150530 METAR LMML NIL=
201211150515 METAR LMML 150515Z 13017KT 9999 FEW027 20/14 Q1012 NOSIG=
201211150500 METAR LMML NIL=
201211150445 METAR LMML 150445Z 12016KT 9999 FEW027 20/14 Q1012 NOSIG=
201211150415 METAR LMML 150415Z 13017KT 9999 FEW027 20/14 Q1013 NOSIG=
201211150400 METAR LMML NIL=
201211150345 METAR LMML 150345Z 13016KT 9999 FEW027 20/14 Q1013 NOSIG=
201211150330 METAR LMML NIL=
201211150315 METAR LMML 150315Z 13017KT 9999 FEW027 20/15 Q1013 NOSIG=
201211150300 METAR LMML NIL=
201211150245 METAR LMML 150245Z AUTO 14016KT 9999NDV SCT029/// BKN034///
                        BKN040/// 20/15 Q1014=
201211150230 METAR LMML NIL=
201211150215 METAR LMML 150215Z AUTO 13011KT 9999NDV BKN030/// OVC035///
                        20/15 Q1014=
201211150200 METAR LMML NIL=
201211150145 METAR LMML 150145Z AUTO 13010KT 9999NDV FEW028/// BKN130///
                        19/15 Q1015=
201211150130 METAR LMML NIL=
201211150115 METAR LMML 150115Z AUTO 12011KT 9999NDV FEW049/// 19/14 Q1015=
201211150100 METAR LMML NIL=
201211150045 METAR LMML 150045Z AUTO 12010KT 9999NDV -DZ FEW038/// 19/15
                        Q1015=
201211150030 METAR LMML NIL=
201211150015 METAR LMML 150015Z AUTO 14012KT 9999NDV FEW035/// OVC047///
                        21/14 Q1015=
201211150000 METAR LMML NIL=
201211142345 METAR LMML 142345Z AUTO 12013KT 9999NDV FEW029/// SCT033///
                        BKN040/// 21/15 Q1016=
201211142330 METAR LMML NIL=
201211142315 METAR LMML 142315Z AUTO 12013KT 9999NDV FEW028/// BKN031///
                        BKN038/// 21/15 Q1016=
201211142300 METAR LMML NIL=
201211142245 METAR LMML 142245Z AUTO 13012KT 9999NDV SCT030/// SCT038///
                        21/14 Q1016=
201211142230 METAR LMML NIL=
201211142215 METAR LMML 142215Z AUTO 12012KT 9999NDV FEW033/// SCT040///
                        BKN120/// 20/14 Q1016=
201211142200 METAR LMML NIL=
201211142145 METAR LMML 142145Z AUTO 13013KT CAVOK 20/14 Q1016=
201211142130 METAR LMML NIL=
201211142115 METAR LMML 142115Z AUTO 13011KT 9999NDV SCT047/// SCT053///
                        BKN130/// 20/14 Q1016=
201211142100 METAR LMML NIL=
201211142045 METAR LMML 142045Z AUTO 13012KT 9999NDV SCT040/// BKN046///
                        BKN130/// 20/13 Q1016=
201211142030 METAR LMML NIL=
201211142015 METAR LMML 142015Z AUTO 13014KT 9999NDV FEW033/// SCT039///
                        OVC130/// 20/13 Q1016=
201211142000 METAR LMML NIL=
201211141945 METAR LMML 141945Z 13013KT 9999 SCT030 20/14 Q1016 NOSIG=
201211141930 METAR LMML NIL=
201211141915 METAR LMML 141915Z 13014KT 9999 SCT030 20/14 Q1016 NOSIG=
201211141900 METAR LMML NIL=
201211141845 METAR LMML 141845Z 13015KT 9999 FEW029 20/14 Q1016 NOSIG=
201211141830 METAR LMML NIL=
201211141815 METAR LMML 141815Z 12014KT 9999 FEW030 20/14 Q1016 NOSIG=
201211141800 METAR LMML NIL=
201211141745 METAR LMML 141745Z 12014G24KT 100V160 9999 FEW035 20/14 Q1015
                        NOSIG=
201211141730 METAR LMML NIL=
201211141715 METAR LMML 141715Z 12018KT 9999 -RA FEW035 20/14 Q1015 NOSIG=
201211141700 METAR LMML NIL=
201211141645 METAR LMML 141645Z 12019KT 9999 FEW030 21/14 Q1015 NOSIG=
201211141630 METAR LMML NIL=
201211141615 METAR LMML 141615Z 11018KT 080V140 9999 FEW025 21/14 Q1014
                        NOSIG=
201211141600 METAR LMML NIL=
201211141545 METAR LMML 141545Z 12018KT 9999 FEW025 21/14 Q1015 NOSIG=
201211141530 METAR LMML NIL=
201211141515 METAR LMML 141515Z 12017KT 9999 FEW025 20/15 Q1015 NOSIG=
201211141500 METAR LMML NIL=
201211141445 METAR LMML 141445Z 13019KT 9999 -RA FEW025 20/15 Q1016 NOSIG=
201211141430 METAR LMML NIL=
201211141415 METAR LMML 141415Z 12017KT 9999 -RA FEW025 21/15 Q1016 NOSIG=
201211141400 METAR LMML NIL=
201211141345 METAR LMML 141345Z 13016KT 9999 FEW025 21/15 Q1016 NOSIG=
201211141330 METAR LMML NIL=
201211141315 METAR LMML 141315Z 12015KT 9999 -RA FEW030 21/14 Q1016 NOSIG=
201211141300 METAR LMML NIL=
201211141245 METAR LMML 141245Z 13018KT 9999 FEW030 21/14 Q1016=
201211141230 METAR LMML NIL=
201211141215 METAR LMML 141215Z 13017KT 9999 FEW030 21/14 Q1017 NOSIG=
201211141200 METAR LMML NIL=
201211141145 METAR LMML 141145Z 14017KT 9999 SCT029 22/15 Q1017 NOSIG=
201211141130 METAR LMML NIL=
201211141115 METAR LMML 141115Z 13018KT 9999 FEW030 22/14 Q1017 NOSIG=
201211141100 METAR LMML NIL=
201211141045 METAR LMML 141045Z 13018KT 9999 SCT031 22/14 Q1018 NOSIG=
201211141030 METAR LMML NIL=
201211141015 METAR LMML 141015Z AUTO 13020KT 9999NDV FEW032/// 22/14 Q1018=
201211141000 METAR LMML NIL=
201211140945 METAR LMML 140945Z 13018KT 9999 FEW030 SCT045 22/14 Q1019
                        NOSIG=
201211140930 METAR LMML NIL=
201211140915 METAR LMML 140915Z 13018KT 9999 FEW030 BKN040 22/14 Q1019
                        NOSIG=
201211140900 METAR LMML NIL=
201211140845 METAR LMML 140845Z 13019KT 9999 FEW030 22/14 Q1018 NOSIG=
201211140830 METAR LMML NIL=
201211140815 METAR LMML 140815Z 13017KT 9999 FEW030 SCT049 21/14 Q1019
                        NOSIG=
201211140800 METAR LMML NIL=
201211140745 METAR LMML 140745Z 13017KT 9999 SCT030 21/14 Q1019 NOSIG=
201211140730 METAR LMML NIL=
201211140715 METAR LMML 140715Z 13016KT 9999 SCT029 21/14 Q1019 NOSIG=
201211140700 METAR LMML NIL=
201211140645 METAR LMML 140645Z 12014KT 9999 FEW025 20/14 Q1018 NOSIG=
201211140630 METAR LMML NIL=
201211140615 METAR LMML 140615Z 11017G30KT 9999 FEW015 20/14 Q1017 NOSIG=
201211140600 METAR LMML NIL=
201211140545 METAR LMML 140545Z 11019G30KT CAVOK 20/13 Q1016 NOSIG=
201211140530 METAR LMML NIL=
201211140515 METAR LMML 140515Z 10016KT 9999 FEW049 20/13 Q1017 NOSIG=
201211140500 METAR LMML NIL=
201211140445 METAR LMML 140445Z 11010KT 9999 FEW049 19/13 Q1019 NOSIG=
201211140430 METAR LMML NIL=
201211140415 METAR LMML 140415Z 11009KT 9999 FEW049 20/13 Q1019 NOSIG=
201211140400 METAR LMML NIL=
201211140345 METAR LMML 140345Z 11010KT 9999 BKN039 20/14 Q1019 NOSIG=
201211140330 METAR LMML NIL=
201211140315 METAR LMML 140315Z AUTO 11010KT 9999NDV SCT038/// 20/13 Q1019=
201211140300 METAR LMML NIL=
201211140245 METAR LMML 140245Z AUTO 11011KT 9999NDV FEW032/// SCT052///
                        20/13 Q1019=
201211140230 METAR LMML NIL=
201211140215 METAR LMML 140215Z AUTO 11011KT CAVOK 20/14 Q1019=
201211140200 METAR LMML NIL=
201211140145 METAR LMML 140145Z AUTO 11009KT 9999NDV FEW043/// BKN048///
                        OVC054/// 20/14 Q1019=
201211140130 METAR LMML NIL=
201211140115 METAR LMML 140115Z AUTO 11011KT 9999NDV OVC048/// 20/14 Q1019=
201211140100 METAR LMML NIL=
201211140045 METAR LMML 140045Z AUTO 11011KT 9999NDV OVC047/// 20/14 Q1019=
201211140030 METAR LMML NIL=
201211140015 METAR LMML 140015Z AUTO 11011KT 9999NDV OVC046/// 20/14 Q1019=
201211140000 METAR LMML NIL=
201211132345 METAR LMML 132345Z AUTO 11010KT 9999NDV OVC045/// 21/13 Q1019=
201211132330 METAR LMML NIL=
201211132315 METAR LMML 132315Z AUTO 11011KT 9999NDV OVC047/// 20/14 Q1019=
201211132300 METAR LMML NIL=
201211132245 METAR LMML 132245Z AUTO 11012KT 9999NDV BKN046/// 20/14 Q1019=
201211132230 METAR LMML NIL=
201211132215 METAR LMML 132215Z AUTO 11012KT 9999NDV BKN045/// 21/13 Q1019=
201211132200 METAR LMML NIL=
201211132145 METAR LMML 132145Z AUTO 11012KT 9999NDV OVC045/// 21/14 Q1019=
201211132130 METAR LMML NIL=
201211132115 METAR LMML 132115Z AUTO 11013KT 9999NDV OVC043/// 20/15 Q1020=
201211132100 METAR LMML NIL=
201211132045 METAR LMML 132045Z AUTO 11012KT 9999NDV FEW026/// 20/15 Q1020=
201211132030 METAR LMML NIL=
201211132015 METAR LMML 132015Z AUTO 12014KT 9999NDV FEW032/// OVC046///
                        21/14 Q1019=
201211132000 METAR LMML NIL=
201211131945 METAR LMML 131945Z 12013KT 9999 FEW026 BKN048 20/15 Q1020
                        NOSIG=
201211131930 METAR LMML NIL=
201211131915 METAR LMML 131915Z 12012KT 9999 SCT028 20/14 Q1019 NOSIG=
201211131900 METAR LMML NIL=
201211131845 METAR LMML 131845Z 12012KT 9999 SCT032 20/14 Q1019 NOSIG=
201211131830 METAR LMML NIL=
201211131815 METAR LMML 131815Z 12012KT 9999 SCT029 21/14 Q1019 NOSIG=
201211131800 METAR LMML NIL=
201211131745 METAR LMML 131745Z 13013KT 9999 SCT026 21/15 Q1019 NOSIG=
201211131730 METAR LMML NIL=
201211131715 METAR LMML 131715Z 12013KT 9999 BKN025 21/15 Q1019 NOSIG=
201211131700 METAR LMML NIL=
201211131645 METAR LMML 131645Z 13014KT 9999 BKN026 21/15 Q1019 NOSIG=
201211131630 METAR LMML NIL=
201211131615 METAR LMML 131615Z 13015KT 9999 SCT028 20/14 Q1019 NOSIG=
201211131600 METAR LMML NIL=
201211131545 METAR LMML 131545Z 13014KT 9999 FEW029 21/14 Q1019 NOSIG=
201211131530 METAR LMML NIL=
201211131515 METAR LMML 131515Z 13014KT 9999 FEW030 21/14 Q1019 NOSIG=
201211131500 METAR LMML NIL=
201211131445 METAR LMML 131445Z 13017KT 9999 FEW030 22/14 Q1019 NOSIG=
201211131430 METAR LMML NIL=
201211131415 METAR LMML 131415Z 13018KT 9999 FEW030 22/14 Q1019 NOSIG=
201211131345 METAR LMML 131345Z 13018KT 9999 FEW030 22/15 Q1019 NOSIG=
201211131330 METAR LMML NIL=
201211131315 METAR LMML 131315Z 13017KT 9999 SCT033 22/15 Q1019 NOSIG=
201211131245 METAR LMML 131245Z 13018KT 9999 SCT030 23/15 Q1019 NOSIG=
201211131230 METAR LMML NIL=
201211131215 METAR LMML 131215Z 13019KT 9999 SCT028 23/16 Q1019 NOSIG=
201211131200 METAR LMML NIL=
201211131145 METAR LMML 131145Z 13020KT 9999 SCT028 22/16 Q1020 NOSIG=
201211131130 METAR LMML NIL=
201211131115 METAR LMML 131115Z 13019KT 9999 BKN026 22/16 Q1020 NOSIG=
201211131100 METAR LMML NIL=
201211131045 METAR LMML 131045Z 13019KT 9999 SCT023 23/17 Q1020 NOSIG=
201211131030 METAR LMML NIL=
201211131015 METAR LMML 131015Z AUTO 14019KT 9999NDV FEW020/// 23/17 Q1021=
201211131000 METAR LMML NIL=
201211130945 METAR LMML 130945Z 13018KT 9999 SCT021 23/17 Q1021 NOSIG=
201211130930 METAR LMML NIL=
201211130915 METAR LMML 130915Z 14018KT 9999 SCT021 BKN044 22/17 Q1021
                        NOSIG=
201211130900 METAR LMML NIL=
201211130845 METAR LMML 130845Z 13018KT 9999 SCT020 BKN041 22/17 Q1021
                        NOSIG=
201211130830 METAR LMML NIL=
201211130815 METAR LMML 130815Z 13016KT 9999 SCT019 22/17 Q1021 NOSIG=
201211130800 METAR LMML NIL=
201211130745 METAR LMML 130745Z 13018KT 9999 SCT021 22/17 Q1021 NOSIG=
201211130730 METAR LMML NIL=
201211130715 METAR LMML 130715Z 13016KT 9999 SCT019 22/17 Q1021 NOSIG=
201211130700 METAR LMML NIL=
201211130645 METAR LMML 130645Z 13013KT 9999 SCT020 21/17 Q1021 NOSIG=
201211130615 METAR LMML 130615Z 13013KT 9999 FEW020 21/16 Q1020 NOSIG=
201211130545 METAR LMML 130545Z 13011KT 9999 FEW015 20/17 Q1020 NOSIG=
201211130530 METAR LMML NIL=
201211130515 METAR LMML 130515Z 13013KT 9999 FEW015 20/16 Q1020 NOSIG=
201211130500 METAR LMML NIL=
201211130445 METAR LMML 130445Z 13013KT 9999 FEW020 20/16 Q1020 NOSIG=
201211130430 METAR LMML NIL=
201211130415 METAR LMML 130415Z 13013KT CAVOK 20/16 Q1020 NOSIG=
201211130400 METAR LMML NIL=
201211130345 METAR LMML 130345Z 13013KT 9999 FEW018 20/17 Q1019 NOSIG=
201211130330 METAR LMML NIL=
201211130315 METAR LMML 130315Z AUTO 13013KT CAVOK 20/17 Q1019=
201211130300 METAR LMML NIL=
201211130245 METAR LMML 130245Z AUTO 13014KT CAVOK 20/17 Q1019=
201211130230 METAR LMML NIL=
201211130215 METAR LMML 130215Z AUTO 13014KT CAVOK 21/17 Q1019=
201211130200 METAR LMML NIL=
201211130145 METAR LMML 130145Z AUTO 13014KT 9999NDV FEW016/// 21/18 Q1020=
201211130130 METAR LMML NIL=
201211130115 METAR LMML 130115Z AUTO 13013KT 9999NDV SCT015/// 21/18 Q1020=
201211130100 METAR LMML NIL=
201211130045 METAR LMML 130045Z AUTO 13014KT 9999NDV FEW016/// SCT019///
                        BKN030/// 21/18 Q1020=
201211130030 METAR LMML NIL=
201211130015 METAR LMML 130015Z AUTO 14014KT 9999NDV SCT018/// BKN024///
                        BKN029/// 21/18 Q1020=
201211130000 METAR LMML NIL=
201211122345 METAR LMML 122345Z AUTO 13013KT 9999NDV SCT013/// BKN015///
                        BKN018/// 21/18 Q1020=
201211122330 METAR LMML NIL=
201211122315 METAR LMML 122315Z AUTO 14015KT 9999NDV FEW013/// BKN016///
                        BKN020/// 21/18 Q1019=
201211122300 METAR LMML NIL=
201211122245 METAR LMML 122245Z AUTO 14014KT 9999NDV SCT015/// SCT021///
                        21/18 Q1019=
201211122230 METAR LMML NIL=
201211122215 METAR LMML 122215Z AUTO 14017KT 9999NDV FEW014/// BKN017///
                        21/18 Q1020=
201211122200 METAR LMML NIL=
201211122145 METAR LMML 122145Z AUTO 14014KT 9999NDV SCT014/// BKN017///
                        OVC020/// 21/19 Q1020=
201211122115 METAR LMML 122115Z AUTO 14015KT 9999NDV BKN015/// BKN017///
                        BKN021/// 21/19 Q1020=
201211122100 METAR LMML NIL=
201211122045 METAR LMML 122045Z AUTO 14015KT 9999NDV BKN014/// BKN016///
                        BKN020/// 21/19 Q1020=
201211122030 METAR LMML NIL=
201211122015 METAR LMML 122015Z 14014KT 9999 BKN013 21/19 Q1020 NOSIG=
201211122000 METAR LMML NIL=
201211121945 METAR LMML 121945Z 14015KT 9999 BKN012 21/19 Q1020 NOSIG=
201211121930 METAR LMML NIL=
201211121915 METAR LMML 121915Z 13014KT 9999 BKN013 21/19 Q1020 NOSIG=
201211121900 METAR LMML NIL=
201211121845 METAR LMML 121845Z 13014KT 9999 BKN013 21/19 Q1020 NOSIG=
201211121830 METAR LMML NIL=
201211121815 METAR LMML 121815Z 14014KT 9999 BKN013 21/19 Q1020 NOSIG=
201211121800 METAR LMML NIL=
201211121745 METAR LMML 121745Z 14014KT 9999 BKN013 21/19 Q1020 NOSIG=
201211121730 METAR LMML NIL=
201211121715 METAR LMML 121715Z 14017KT 9999 BKN013 21/19 Q1020 NOSIG=
201211121700 METAR LMML NIL=
201211121645 METAR LMML 121645Z 14018KT 9999 BKN013 21/19 Q1019 NOSIG=
201211121630 METAR LMML NIL=
201211121615 METAR LMML 121615Z 14017KT 9999 BKN013 22/19 Q1019 NOSIG=
201211121600 METAR LMML NIL=
201211121545 METAR LMML 121545Z 14016KT 9999 BKN013 22/19 Q1019 NOSIG=
201211121530 METAR LMML NIL=
201211121515 METAR LMML 121515Z 14019KT 9999 BKN013 22/19 Q1019 NOSIG=
201211121500 METAR LMML NIL=
201211121445 METAR LMML 121445Z 14018KT 9999 BKN013 22/19 Q1019 NOSIG=
201211121430 METAR LMML NIL=
201211121415 METAR LMML 121415Z 13020KT 9999 BKN014 23/19 Q1019 NOSIG=
201211121345 METAR LMML 121345Z 14019KT 9999 SCT014 23/19 Q1019 NOSIG=
201211121330 METAR LMML NIL=
201211121315 METAR LMML 121315Z 13020KT 9999 SCT014 23/19 Q1019 NOSIG=
201211121300 METAR LMML NIL=
201211121245 METAR LMML 121245Z 14021KT 9999 SCT015 24/19 Q1019 NOSIG=
201211121230 METAR LMML NIL=
201211121215 METAR LMML 121215Z 14019KT 9999 SCT013 24/19 Q1019 NOSIG=
201211121200 METAR LMML NIL=
201211121145 METAR LMML 121145Z 14020KT 9999 SCT014 24/20 Q1019 NOSIG=
201211121130 METAR LMML NIL=
201211121115 METAR LMML 121115Z AUTO 14020KT 9999NDV SCT015/// 24/19 Q1019=
201211121045 METAR LMML 121045Z AUTO 14021KT CAVOK 24/19 Q1020=
201211121030 METAR LMML NIL=
201211121015 METAR LMML 121015Z AUTO 15017KT 9999NDV FEW016/// SCT019///
                        23/19 Q1020=
201211121000 METAR LMML NIL=
201211120945 METAR LMML 120945Z 14015KT 9999 BKN016 23/19 Q1020 NOSIG=
201211120930 METAR LMML NIL=
201211120915 METAR LMML 120915Z 15016KT 9999 BKN018 23/19 Q1020 NOSIG=
201211120900 METAR LMML NIL=
201211120845 METAR LMML 120845Z 15018KT 9999 BKN020 23/19 Q1020 NOSIG=
201211120815 METAR LMML 120815Z 15016KT 9999 SCT021 23/19 Q1019 NOSIG=
201211120745 METAR LMML 120745Z 15017KT 9999 SCT021 23/19 Q1019 NOSIG=
201211120730 METAR LMML NIL=
201211120715 METAR LMML 120715Z 16017KT 9999 SCT020 22/18 Q1019 NOSIG=
201211120700 METAR LMML NIL=
201211120645 METAR LMML 120645Z 16016KT 9999 SCT021 22/18 Q1019 NOSIG=
201211120630 METAR LMML NIL=
201211120615 METAR LMML 120615Z 16016KT 9999 SCT025 22/18 Q1018 NOSIG=
201211120600 METAR LMML NIL=
201211120545 METAR LMML 120545Z 16018KT 9999 SCT022 22/18 Q1018 NOSIG=
201211120530 METAR LMML NIL=
201211120515 METAR LMML 120515Z 16017G27KT 9999 FEW020 22/18 Q1018 NOSIG=
201211120500 METAR LMML NIL=
201211120445 METAR LMML 120445Z 16016KT 9999 FEW024 22/18 Q1018 NOSIG=
201211120430 METAR LMML NIL=
201211120415 METAR LMML 120415Z 16017KT 9999 SCT024 22/18 Q1018 NOSIG=
201211120400 METAR LMML NIL=
201211120345 METAR LMML 120345Z 16017KT 9999 SCT025 22/18 Q1018 NOSIG=
201211120330 METAR LMML NIL=
201211120315 METAR LMML 120315Z 17015KT 9999 SCT022 23/18 Q1018 NOSIG=
201211120245 METAR LMML 120245Z AUTO 17016KT 9999NDV FEW023/// SCT026///
                        BKN030/// 22/18 Q1018=
201211120230 METAR LMML NIL=
201211120215 METAR LMML 120215Z AUTO 16014KT 9999NDV FEW023/// 22/18 Q1018=
201211120200 METAR LMML NIL=
201211120145 METAR LMML 120145Z AUTO 16014KT 9999NDV FEW025/// SCT029///
                        23/18 Q1018=
201211120130 METAR LMML NIL=
201211120115 METAR LMML 120115Z AUTO 16016KT 9999NDV SCT023/// SCT028///
                        23/18 Q1018=
201211120100 METAR LMML NIL=
201211120045 METAR LMML 120045Z AUTO 16016KT 9999NDV FEW025/// 23/18 Q1018=
201211120030 METAR LMML NIL=
201211120015 METAR LMML 120015Z AUTO 16018G28KT 9999NDV SCT024/// SCT027///
                        23/18 Q1017=
201211120000 METAR LMML NIL=
201211112345 METAR LMML 112345Z AUTO 16017KT 9999NDV FEW024/// OVC200///
                        23/18 Q1017=
201211112330 METAR LMML NIL=
201211112315 METAR LMML 112315Z AUTO 16017KT 9999NDV FEW025/// 23/17 Q1017=
201211112300 METAR LMML NIL=
201211112245 METAR LMML 112245Z AUTO 16018KT CAVOK 22/18 Q1017=
201211112230 METAR LMML NIL=
201211112215 METAR LMML 112215Z AUTO 16019KT 9999NDV FEW023/// 22/18 Q1017=
201211112200 METAR LMML NIL=
201211112145 METAR LMML 112145Z AUTO 15017KT CAVOK 22/18 Q1017=
201211112130 METAR LMML NIL=
201211112115 METAR LMML 112115Z AUTO 16020KT CAVOK 22/18 Q1017=
201211112100 METAR LMML NIL=
201211112045 METAR LMML 112045Z AUTO 16019KT CAVOK 22/18 Q1017=
201211112030 METAR LMML NIL=
201211112015 METAR LMML 112015Z AUTO 16019KT CAVOK 22/17 Q1017=
201211112000 METAR LMML NIL=
201211111945 METAR LMML 111945Z 16019G29KT CAVOK 22/17 Q1017 NOSIG=
201211111930 METAR LMML NIL=
201211111915 METAR LMML 111915Z 16020KT CAVOK 22/17 Q1016 NOSIG=
201211111900 METAR LMML NIL=
201211111845 METAR LMML 111845Z 16019G30KT CAVOK 22/18 Q1016 NOSIG=
201211111830 METAR LMML NIL=
201211111815 METAR LMML 111815Z 16018KT CAVOK 22/18 Q1016 NOSIG=
201211111800 METAR LMML NIL=
201211111745 METAR LMML 111745Z 16020KT CAVOK 22/17 Q1016 NOSIG=
201211111730 METAR LMML NIL=
201211111715 METAR LMML 111715Z 16018KT CAVOK 22/18 Q1016 NOSIG=
201211111700 METAR LMML NIL=
201211111645 METAR LMML 111645Z 16021KT CAVOK 22/17 Q1016 NOSIG=
201211111630 METAR LMML NIL=
201211111615 METAR LMML 111615Z 16019KT CAVOK 22/17 Q1015 NOSIG=
201211111600 METAR LMML NIL=
201211111545 METAR LMML 111545Z 16017G27KT CAVOK 22/17 Q1015 NOSIG=
201211111530 METAR LMML NIL=
201211111515 METAR LMML 111515Z 16019KT 9999 FEW025 23/17 Q1015 NOSIG=
201211111500 METAR LMML NIL=
201211111445 METAR LMML 111445Z 17018G28KT 9999 FEW025 23/17 Q1015 NOSIG=
201211111430 METAR LMML NIL=
201211111415 METAR LMML 111415Z 17018KT 9999 FEW025 24/17 Q1015 NOSIG=
201211111400 METAR LMML NIL=
201211111345 METAR LMML 111345Z 17020KT 9999 FEW025 24/18 Q1015 NOSIG=
201211111330 METAR LMML NIL=
201211111315 METAR LMML 111315Z AUTO 17017KT CAVOK 24/17 Q1016=
201211111300 METAR LMML NIL=
201211111245 METAR LMML 111245Z 17018KT 9999 FEW025 24/18 Q1016 NOSIG=
201211111230 METAR LMML NIL=
201211111215 METAR LMML 111215Z 18017KT 9999 SCT025 24/18 Q1016 NOSIG=
201211111200 METAR LMML NIL=
201211111145 METAR LMML 111145Z 18018KT 9999 SCT024 24/18 Q1016 NOSIG=
201211111130 METAR LMML NIL=
201211111115 METAR LMML 111115Z 18016G26KT 9999 SCT021 24/18 Q1017 NOSIG=
201211111100 METAR LMML NIL=
201211111045 METAR LMML 111045Z 17019KT 9999 SCT023 24/18 Q1017 NOSIG=
201211111030 METAR LMML NIL=
201211111015 METAR LMML 111015Z 17015KT 9999 SCT023 24/18 Q1017 NOSIG=
201211111000 METAR LMML NIL=
201211110945 METAR LMML 110945Z 17016KT 9999 SCT024 24/18 Q1018 NOSIG=
201211110930 METAR LMML NIL=
201211110915 METAR LMML 110915Z 17015KT 9999 SCT025 24/18 Q1018 NOSIG=
201211110900 METAR LMML NIL=
201211110845 METAR LMML 110845Z 17017KT 9999 SCT024 23/18 Q1018 NOSIG=
201211110830 METAR LMML NIL=
201211110815 METAR LMML 110815Z 16017KT 9999 SCT023 23/17 Q1017 NOSIG=
201211110800 METAR LMML NIL=
201211110745 METAR LMML 110745Z 16016KT 9999 SCT022 23/17 Q1017 NOSIG=
201211110730 METAR LMML NIL=
201211110715 METAR LMML 110715Z 16014KT 9999 SCT021 22/17 Q1017 NOSIG=
201211110700 METAR LMML NIL=
201211110645 METAR LMML 110645Z 16015KT 9999 SCT022 22/17 Q1017 NOSIG=
201211110630 METAR LMML NIL=
201211110615 METAR LMML 110615Z 16014KT 9999 SCT020 21/17 Q1016 NOSIG=
201211110600 METAR LMML NIL=
201211110545 METAR LMML 110545Z 16014KT 9999 FEW020 21/17 Q1016 NOSIG=
201211110530 METAR LMML NIL=
201211110515 METAR LMML 110515Z 16014KT 9999 SCT020 21/17 Q1016 NOSIG=
201211110500 METAR LMML NIL=
201211110445 METAR LMML 110445Z 16014KT 9999 SCT019 21/17 Q1016 NOSIG=
201211110430 METAR LMML NIL=
201211110415 METAR LMML 110415Z 16013KT 9999 FEW018 21/17 Q1016=
201211110400 METAR LMML NIL=
201211110345 METAR LMML 110345Z AUTO 16014KT 9999NDV SCT020/// SCT024///
                        21/17 Q1016=
201211110330 METAR LMML NIL=
201211110315 METAR LMML 110315Z 16012KT 9999 FEW018 21/17 Q1016=
201211110300 METAR LMML NIL=
201211110245 METAR LMML 110245Z AUTO 16013KT 9999NDV FEW019/// 21/17 Q1016=
201211110230 METAR LMML NIL=
201211110215 METAR LMML 110215Z AUTO 16014KT CAVOK 21/17 Q1016=
201211110200 METAR LMML NIL=
201211110145 METAR LMML 110145Z AUTO 16014KT CAVOK 21/17 Q1016=
201211110130 METAR LMML NIL=
201211110115 METAR LMML 110115Z AUTO 17011KT CAVOK 21/17 Q1017=
201211110100 METAR LMML NIL=
201211110045 METAR LMML 110045Z AUTO 17011KT CAVOK 21/17 Q1017=
201211110030 METAR LMML NIL=
201211110015 METAR LMML 110015Z AUTO 16011KT CAVOK 21/16 Q1017=
201211110000 METAR LMML NIL=
201211102345 METAR LMML 102345Z AUTO 16013KT CAVOK 21/16 Q1017=
201211102330 METAR LMML NIL=
201211102315 METAR LMML 102315Z AUTO 16013KT CAVOK 21/16 Q1017=
201211102300 METAR LMML NIL=
201211102245 METAR LMML 102245Z AUTO 16013KT CAVOK 21/16 Q1017=
201211102230 METAR LMML NIL=
201211102215 METAR LMML 102215Z AUTO 16011KT CAVOK 21/16 Q1018=
201211102145 METAR LMML 102145Z AUTO 17011KT CAVOK 21/16 Q1018=
201211102130 METAR LMML NIL=
201211102115 METAR LMML 102115Z AUTO 17009KT CAVOK 21/16 Q1018=
201211102100 METAR LMML NIL=
201211102045 METAR LMML 102045Z 16010KT 9999 FEW023 21/16 Q1018 NOSIG=
201211102030 METAR LMML NIL=
201211102015 METAR LMML 102015Z 16010KT 9999 FEW023 21/16 Q1019 NOSIG=
201211102000 METAR LMML NIL=
201211101945 METAR LMML 101945Z AUTO 16009KT CAVOK 21/16 Q1019 NOSIG=
201211101930 METAR LMML NIL=
201211101915 METAR LMML 101915Z 15010KT 9999 FEW022 20/16 Q1018 NOSIG=
201211101900 METAR LMML NIL=
201211101845 METAR LMML 101845Z 16009KT 140V200 9999 FEW022 20/16 Q1018
                        NOSIG=
201211101830 METAR LMML NIL=
201211101815 METAR LMML 101815Z 16009KT 9999 SCT022 21/17 Q1018 NOSIG=
201211101745 METAR LMML 101745Z 17008KT 9999 SCT021 21/17 Q1019 NOSIG=
201211101715 METAR LMML 101715Z 18006KT 9999 BKN021 21/17 Q1019 NOSIG=
201211101700 METAR LMML NIL=
201211101645 METAR LMML 101645Z 17006KT 9999 BKN022 21/17 Q1018 NOSIG=
201211101630 METAR LMML NIL=
201211101615 METAR LMML 101615Z 13008KT 9999 SCT013 BKN022 21/19 Q1018
                        NOSIG=
201211101600 METAR LMML NIL=
201211101545 METAR LMML 101545Z 13009KT 9999 SCT009 BKN012 BKN025 21/19
                        Q1018 NOSIG=
201211101530 METAR LMML NIL=
201211101515 METAR LMML 101515Z 13009KT 9999 BKN010 21/19 Q1018 NOSIG=
201211101500 METAR LMML NIL=
201211101445 METAR LMML 101445Z 13010KT 9999 BKN010 21/18 Q1018 NOSIG=
201211101430 METAR LMML NIL=
201211101415 METAR LMML 101415Z 14011KT 9999 BKN011 21/18 Q1018 NOSIG=
201211101400 METAR LMML NIL=
201211101345 METAR LMML 101345Z 13010KT 9999 BKN012 22/18 Q1018 NOSIG=
201211101330 METAR LMML NIL=
201211101315 METAR LMML 101315Z 14010KT 9999 BKN012 22/18 Q1018 NOSIG=
201211101300 METAR LMML NIL=
201211101245 METAR LMML 101245Z AUTO 14009KT 100V170 9999NDV SCT013///
                        SCT016/// 22/18 Q1018=
201211101230 METAR LMML NIL=
201211101215 METAR LMML 101215Z 15009KT 9999 SCT015 23/18 Q1018 NOSIG=
201211101200 METAR LMML NIL=
201211101145 METAR LMML 101145Z 14008KT 100V170 9999 FEW019 FEW025 23/17
                        Q1019 NOSIG=
201211101130 METAR LMML NIL=
201211101115 METAR LMML 101115Z 14009KT 9999 FEW018 SCT028 23/17 Q1019
                        NOSIG=
201211101100 METAR LMML NIL=
201211101045 METAR LMML 101045Z 15006KT 110V190 9999 FEW021 SCT025 23/17
                        Q1019 NOSIG=
201211101030 METAR LMML NIL=
201211101015 METAR LMML 101015Z 14006KT 100V170 9999 FEW020 SCT028 22/17
                        Q1019 NOSIG=
201211101000 METAR LMML NIL=
201211100945 METAR LMML 100945Z 14006KT 9999 BKN024 21/16 Q1020 NOSIG=
201211100930 METAR LMML NIL=
201211100915 METAR LMML 100915Z 13004KT 080V170 9999 BKN022 22/16 Q1020
                        NOSIG=
201211100900 METAR LMML NIL=
201211100845 METAR LMML 100845Z 09004KT 050V150 9999 SCT022 21/16 Q1020
                        NOSIG=
201211100830 METAR LMML NIL=
201211100815 METAR LMML 100815Z VRB04KT 9999 FEW023 21/16 Q1019 NOSIG=
201211100800 METAR LMML NIL=
201211100745 METAR LMML 100745Z 09003KT 060V140 9999 FEW020 21/16 Q1019
                        NOSIG=
201211100730 METAR LMML NIL=
201211100715 METAR LMML 100715Z VRB01KT 9999 FEW020 19/16 Q1019 NOSIG=
201211100700 METAR LMML NIL=
201211100645 METAR LMML 100645Z 09002KT 9999 FEW020 16/14 Q1019 NOSIG=
201211100615 METAR LMML 100615Z 08002KT 9999 FEW020 16/14 Q1019 NOSIG=
201211100600 METAR LMML NIL=
201211100545 METAR LMML 100545Z 08002KT 9999 FEW020 15/14 Q1018 NOSIG=
201211100530 METAR LMML NIL=
201211100515 METAR LMML 100515Z 14002KT CAVOK 15/14 Q1018 NOSIG=
201211100500 METAR LMML NIL=
201211100445 METAR LMML 100445Z 14002KT CAVOK 14/13 Q1018 NOSIG=
201211100430 METAR LMML NIL=
201211100415 METAR LMML 100415Z VRB01KT CAVOK 15/13 Q1018 NOSIG=
201211100400 METAR LMML NIL=
201211100345 METAR LMML 100345Z 13001KT CAVOK 15/13 Q1018 NOSIG=
201211100315 METAR LMML 100315Z AUTO 15003KT CAVOK 15/13 Q1018=
201211100300 METAR LMML NIL=
201211100245 METAR LMML 100245Z AUTO 10002KT CAVOK 15/13 Q1018=
201211100230 METAR LMML NIL=
201211100215 METAR LMML 100215Z AUTO 06002KT CAVOK 15/13 Q1018=
201211100200 METAR LMML NIL=
201211100145 METAR LMML 100145Z AUTO VRB01KT CAVOK 15/13 Q1018=
201211100130 METAR LMML NIL=
201211100115 METAR LMML 100115Z AUTO VRB01KT CAVOK 15/13 Q1018=
201211100100 METAR LMML NIL=
201211100045 METAR LMML 100045Z AUTO VRB01KT CAVOK 15/13 Q1018=
201211100030 METAR LMML NIL=
201211100015 METAR LMML 100015Z AUTO VRB01KT CAVOK 15/13 Q1019=
201211100000 METAR LMML NIL=
201211092345 METAR LMML 092345Z AUTO 33002KT CAVOK 15/13 Q1019=
201211092330 METAR LMML NIL=
201211092315 METAR LMML 092315Z AUTO 32002KT CAVOK 15/13 Q1019=
201211092300 METAR LMML NIL=
201211092245 METAR LMML 092245Z AUTO 31002KT CAVOK 15/13 Q1019=
201211092230 METAR LMML NIL=
201211092215 METAR LMML 092215Z AUTO 30003KT CAVOK 16/13 Q1019=
201211092200 METAR LMML NIL=
201211092145 METAR LMML 092145Z AUTO 30004KT CAVOK 16/13 Q1019=
201211092130 METAR LMML NIL=
201211092115 METAR LMML 092115Z AUTO 31004KT CAVOK 15/13 Q1019=
201211092100 METAR LMML NIL=
201211092045 METAR LMML 092045Z AUTO 29003KT CAVOK 16/13 Q1019=
201211092030 METAR LMML NIL=
201211092015 METAR LMML 092015Z AUTO 29002KT CAVOK 16/13 Q1019=
201211092000 METAR LMML NIL=
201211091945 METAR LMML 091945Z 28003KT CAVOK 16/13 Q1019 NOSIG=
201211091930 METAR LMML NIL=
201211091915 METAR LMML 091915Z 30004KT CAVOK 16/12 Q1019 NOSIG=
201211091900 METAR LMML NIL=
201211091845 METAR LMML 091845Z 28004KT CAVOK 17/13 Q1019 NOSIG=
201211091830 METAR LMML NIL=
201211091815 METAR LMML 091815Z 31004KT CAVOK 17/13 Q1019 NOSIG=
201211091800 METAR LMML NIL=
201211091745 METAR LMML 091745Z 31003KT CAVOK 18/13 Q1019 NOSIG=
201211091730 METAR LMML NIL=
201211091715 METAR LMML 091715Z 28003KT CAVOK 18/14 Q1019 NOSIG=
201211091700 METAR LMML NIL=
201211091645 METAR LMML 091645Z 32004KT CAVOK 18/14 Q1019 NOSIG=
201211091630 METAR LMML NIL=
201211091615 METAR LMML 091615Z 33004KT 9999 FEW029 18/14 Q1019 NOSIG=
201211091600 METAR LMML NIL=
201211091545 METAR LMML 091545Z 30004KT 9999 FEW029 20/14 Q1019 NOSIG=
201211091530 METAR LMML NIL=
201211091515 METAR LMML 091515Z 28004KT 9999 FEW029 21/13 Q1019 NOSIG=
201211091500 METAR LMML NIL=
201211091445 METAR LMML 091445Z 29006KT 250V310 9999 FEW029 21/13 Q1019
                        NOSIG=
201211091430 METAR LMML NIL=
201211091415 METAR LMML 091415Z 27007KT 230V310 9999 FEW029 21/14 Q1019
                        NOSIG=
201211091400 METAR LMML NIL=
201211091345 METAR LMML 091345Z 26009KT 210V300 9999 FEW029 22/14 Q1019
                        NOSIG=
201211091330 METAR LMML NIL=
201211091315 METAR LMML 091315Z 27008KT 230V310 9999 SCT029 22/14 Q1019
                        NOSIG=
201211091300 METAR LMML NIL=
201211091245 METAR LMML 091245Z 28007KT 240V340 9999 FEW030 22/14 Q1019
                        NOSIG=
201211091230 METAR LMML NIL=
201211091215 METAR LMML 091215Z 25007KT 230V290 9999 FEW031 22/14 Q1019
                        NOSIG=
201211091200 METAR LMML NIL=
201211091145 METAR LMML 091145Z 24006KT 210V300 9999 SCT031 22/14 Q1020
                        NOSIG=
201211091130 METAR LMML NIL=
201211091115 METAR LMML 091115Z 25007KT 210V290 9999 SCT035 22/14 Q1020
                        NOSIG=
201211091100 METAR LMML NIL=
201211091045 METAR LMML 091045Z 25008KT 230V300 9999 SCT035 23/13 Q1020
                        NOSIG=
201211091015 METAR LMML 091015Z 21007KT 180V240 9999 SCT030 22/14 Q1020
                        NOSIG=
201211091000 METAR LMML NIL=
201211090945 METAR LMML 090945Z 19008KT 160V230 9999 SCT028 22/14 Q1021
                        NOSIG=
201211090930 METAR LMML NIL=
201211090915 METAR LMML 090915Z 22007KT 170V250 9999 SCT028 22/14 Q1021
                        NOSIG=
201211090845 METAR LMML 090845Z 21005KT 160V250 9999 SCT028 21/14 Q1021
                        NOSIG=
201211090830 METAR LMML NIL=
201211090815 METAR LMML 090815Z 21004KT 160V250 9999 SCT030 21/14 Q1021
                        NOSIG=
201211090800 METAR LMML NIL=
201211090745 METAR LMML 090745Z 20006KT 180V240 9999 SCT030 21/14 Q1021
                        NOSIG=
201211090715 METAR LMML 090715Z 21004KT 180V240 9999 FEW035 20/14 Q1021
                        NOSIG=
201211090645 METAR LMML 090645Z 21004KT 9999 FEW035 18/13 Q1021 NOSIG=
201211090630 METAR LMML NIL=
201211090615 METAR LMML 090615Z 21004KT 9999 FEW040 17/13 Q1020 NOSIG=
201211090545 METAR LMML 090545Z 21005KT 9999 FEW040 17/12 Q1020 NOSIG=
201211090530 METAR LMML NIL=
201211090515 METAR LMML 090515Z 22005KT 9999 SCT040 17/12 Q1020 NOSIG=
201211090500 METAR LMML NIL=
201211090445 METAR LMML 090445Z 23005KT 9999 FEW045 16/12 Q1020 NOSIG=
201211090430 METAR LMML NIL=
201211090415 METAR LMML 090415Z 20005KT 9999 SCT044 16/12 Q1020 NOSIG=
201211090400 METAR LMML NIL=
201211090345 METAR LMML 090345Z 20005KT 9999 SCT044 16/12 Q1020 NOSIG=
201211090330 METAR LMML NIL=
201211090315 METAR LMML 090315Z AUTO 21004KT CAVOK 16/12 Q1021=
201211090300 METAR LMML NIL=
201211090245 METAR LMML 090245Z AUTO 20004KT CAVOK 16/12 Q1021=
201211090230 METAR LMML NIL=
201211090215 METAR LMML 090215Z AUTO 19005KT 9999NDV FEW042/// 16/12 Q1021=
201211090200 METAR LMML NIL=
201211090145 METAR LMML 090145Z AUTO 18004KT CAVOK 16/11 Q1021=
201211090130 METAR LMML NIL=
201211090115 METAR LMML 090115Z AUTO 18004KT CAVOK 15/11 Q1021=
201211090100 METAR LMML NIL=
201211090045 METAR LMML 090045Z AUTO 18004KT 9999NDV FEW044/// 16/11 Q1022=
201211090030 METAR LMML NIL=
201211090015 METAR LMML 090015Z AUTO 17005KT CAVOK 15/11 Q1022=
201211090000 METAR LMML NIL=
201211082345 METAR LMML 082345Z AUTO 16005KT CAVOK 15/11 Q1022=
201211082330 METAR LMML NIL=
201211082315 METAR LMML 082315Z AUTO 16004KT CAVOK 16/11 Q1022=
201211082300 METAR LMML NIL=
201211082245 METAR LMML 082245Z AUTO 15003KT CAVOK 15/11 Q1023=
201211082230 METAR LMML NIL=
201211082215 METAR LMML 082215Z AUTO 16002KT CAVOK 15/11 Q1023=
201211082200 METAR LMML NIL=
201211082145 METAR LMML 082145Z AUTO 17002KT CAVOK 15/11 Q1023=
201211082130 METAR LMML NIL=
201211082115 METAR LMML 082115Z AUTO 16003KT CAVOK 15/11 Q1023=
201211082100 METAR LMML NIL=
201211082045 METAR LMML 082045Z AUTO 15002KT CAVOK 16/11 Q1023=
201211082030 METAR LMML NIL=
201211082015 METAR LMML 082015Z AUTO 13004KT CAVOK 16/11 Q1023=
201211081945 METAR LMML 081945Z 14004KT 9999 FEW035 16/11 Q1023 NOSIG=
201211081930 METAR LMML NIL=
201211081915 METAR LMML 081915Z 13004KT 9999 FEW035 16/11 Q1023 NOSIG=
201211081900 METAR LMML NIL=
201211081845 METAR LMML 081845Z 12003KT 9999 FEW035 16/11 Q1023 NOSIG=
201211081830 METAR LMML NIL=
201211081815 METAR LMML 081815Z 14004KT 9999 FEW035 17/11 Q1023 NOSIG=
201211081800 METAR LMML NIL=
201211081745 METAR LMML 081745Z 14003KT 080V160 9999 FEW035 17/11 Q1023
                        NOSIG=
201211081730 METAR LMML NIL=
201211081715 METAR LMML 081715Z 10003KT 9999 SCT036 17/11 Q1023 NOSIG=
201211081700 METAR LMML NIL=
201211081645 METAR LMML 081645Z 10004KT 9999 SCT036 18/11 Q1023 NOSIG=
201211081630 METAR LMML NIL=
201211081615 METAR LMML 081615Z 10004KT 070V130 9999 SCT037 18/11 Q1023
                        NOSIG=
201211081600 METAR LMML NIL=
201211081545 METAR LMML 081545Z 11005KT 090V150 9999 SCT035 18/11 Q1023
                        NOSIG=
201211081530 METAR LMML NIL=
201211081515 METAR LMML 081515Z 12004KT 9999 SCT035 18/12 Q1023 NOSIG=
201211081500 METAR LMML NIL=
201211081445 METAR LMML 081445Z 11007KT 080V140 9999 BKN035 19/11 Q1023
                        NOSIG=
201211081430 METAR LMML NIL=
201211081415 METAR LMML 081415Z 13007KT 090V150 9999 BKN035 19/12 Q1023
                        NOSIG=
201211081400 METAR LMML NIL=
201211081345 METAR LMML 081345Z 12007KT 090V160 9999 BKN035 20/12 Q1023
                        NOSIG=
201211081315 METAR LMML 081315Z AUTO 14007KT 090V180 9999NDV BKN034///
                        OVC039/// 21/12 Q1023=
201211081300 METAR LMML NIL=
201211081245 METAR LMML 081245Z 14005KT 040V170 9999 BKN034 20/12 Q1023
                        NOSIG=
201211081230 METAR LMML NIL=
201211081215 METAR LMML 081215Z 10006KT 070V150 9999 BKN034 20/12 Q1023
                        NOSIG=
201211081200 METAR LMML NIL=
201211081145 METAR LMML 081145Z 09007KT 050V120 9999 BKN034 20/12 Q1024
                        NOSIG=
201211081130 METAR LMML NIL=
201211081115 METAR LMML 081115Z 08007KT 050V120 9999 BKN033 20/12 Q1024
                        NOSIG=
201211081100 METAR LMML NIL=
201211081045 METAR LMML 081045Z 10008KT 9999 BKN032 20/12 Q1024 NOSIG=
201211081030 METAR LMML NIL=
201211081015 METAR LMML 081015Z AUTO 09005KT 040V130 9999NDV OVC038///
                        20/11 Q1024=
201211081000 METAR LMML NIL=
201211080945 METAR LMML 080945Z AUTO 09007KT 050V140 9999NDV BKN038///
                        21/10 Q1025=
201211080930 METAR LMML NIL=
201211080915 METAR LMML 080915Z 08007KT 040V140 9999 SCT036 21/11 Q1025
                        NOSIG=
201211080900 METAR LMML NIL=
201211080845 METAR LMML 080845Z 09008KT 9999 SCT040 20/10 Q1025 NOSIG=
201211080830 METAR LMML NIL=
201211080815 METAR LMML 080815Z 07006KT 9999 SCT041 20/10 Q1025 NOSIG=
201211080800 METAR LMML NIL=
201211080745 METAR LMML 080745Z VRB02KT 9999 SCT040 20/10 Q1025 NOSIG=
201211080730 METAR LMML NIL=
201211080715 METAR LMML 080715Z VRB01KT 9999 SCT039 18/10 Q1024=
201211080700 METAR LMML NIL=
201211080645 METAR LMML 080645Z 32002KT 9999 SCT041 16/10 Q1024=
201211080630 METAR LMML NIL=
201211080615 METAR LMML 080615Z 31004KT 9999 SCT041 14/09 Q1024=
201211080600 METAR LMML NIL=
201211080545 METAR LMML 080545Z 32004KT 9999 SCT040 14/08 Q1024=
201211080530 METAR LMML NIL=
201211080515 METAR LMML 080515Z 33004KT 9999 FEW035 15/08 Q1024=
201211080445 METAR LMML 080445Z 33004KT 9999 FEW035 15/08 Q1024=
201211080430 METAR LMML NIL=
201211080415 METAR LMML 080415Z 35003KT 9999 FEW045 15/08 Q1024=
201211080400 METAR LMML NIL=
201211080345 METAR LMML 080345Z 35003KT 320V020 9999 FEW045 15/08 Q1024=
201211080330 METAR LMML NIL=
201211080315 METAR LMML 080315Z 01003KT 9999 SCT045 15/08 Q1024=
201211080300 METAR LMML NIL=
201211080245 METAR LMML 080245Z AUTO 34003KT 310V020 9999NDV FEW046///
                        16/08 Q1024=
201211080230 METAR LMML NIL=
201211080215 METAR LMML 080215Z AUTO 32005KT 9999NDV FEW047/// 15/08 Q1024=
201211080200 METAR LMML NIL=
201211080145 METAR LMML 080145Z AUTO 31004KT 9999NDV FEW046/// 16/08 Q1024=
201211080130 METAR LMML NIL=
201211080115 METAR LMML 080115Z AUTO 35005KT 310V010 CAVOK 16/09 Q1024=
201211080100 METAR LMML NIL=
201211080045 METAR LMML 080045Z AUTO 36005KT 9999NDV FEW043/// 16/09 Q1024=
201211080030 METAR LMML NIL=
201211080015 METAR LMML 080015Z AUTO 02007KT CAVOK 17/09 Q1024=
201211080000 METAR LMML NIL=
201211072345 METAR LMML 072345Z AUTO 02008KT CAVOK 18/10 Q1024=
201211072330 METAR LMML NIL=
201211072315 METAR LMML 072315Z AUTO 02011KT CAVOK 18/09 Q1024=
201211072300 METAR LMML NIL=
201211072245 METAR LMML 072245Z AUTO 02012KT CAVOK 18/09 Q1024=
201211072230 METAR LMML NIL=
201211072215 METAR LMML 072215Z AUTO 02012KT CAVOK 19/08 Q1024=
201211072200 METAR LMML NIL=
201211072145 METAR LMML 072145Z AUTO 02011KT 9999NDV FEW030/// 19/09 Q1024=
201211072130 METAR LMML NIL=
201211072115 METAR LMML 072115Z AUTO 02014KT 9999NDV BKN028/// BKN032///
                        19/11 Q1024=
201211072100 METAR LMML NIL=
201211072045 METAR LMML 072045Z AUTO 05008KT 030V090 9999NDV BKN022///
                        BKN030/// BKN036/// 19/15 Q1024=
201211072030 METAR LMML NIL=
201211072015 METAR LMML 072015Z AUTO 02010KT 9999NDV FEW019/// SCT024///
                        20/14 Q1023=
201211072000 METAR LMML NIL=
201211071945 METAR LMML 071945Z 02012KT 9999 SCT028 20/14 Q1023 NOSIG=
201211071930 METAR LMML NIL=
201211071915 METAR LMML 071915Z 01013KT 9999 FEW020 20/13 Q1023 NOSIG=
201211071900 METAR LMML NIL=
201211071845 METAR LMML 071845Z 36011KT 9999 FEW020 20/13 Q1023 NOSIG=
201211071830 METAR LMML NIL=
201211071815 METAR LMML 071815Z 36012KT 9999 FEW020 20/14 Q1022 NOSIG=
201211071800 METAR LMML NIL=
201211071745 METAR LMML 071745Z 35014KT 9999 FEW021 20/15 Q1022 NOSIG=
201211071730 METAR LMML NIL=
201211071715 METAR LMML 071715Z 35013KT 9999 FEW020 20/14 Q1022 NOSIG=
201211071700 METAR LMML NIL=
201211071645 METAR LMML 071645Z 34016KT 9999 FEW016 20/14 Q1022 NOSIG=
201211071630 METAR LMML NIL=
201211071615 METAR LMML 071615Z 34015KT 9999 FEW016 20/15 Q1022 NOSIG=
201211071600 METAR LMML NIL=
201211071545 METAR LMML 071545Z AUTO 34016KT CAVOK 20/15 Q1022 NOSIG=
201211071530 METAR LMML NIL=
201211071515 METAR LMML 071515Z 33011KT 9999 FEW016 20/17 Q1021 NOSIG=
201211071500 METAR LMML NIL=
201211071445 METAR LMML 071445Z 33013KT 9999 FEW020 21/16 Q1021 NOSIG=
201211071430 METAR LMML NIL=
201211071415 METAR LMML 071415Z 32011KT 9999 FEW020 22/16 Q1021 NOSIG=
201211071400 METAR LMML NIL=
201211071345 METAR LMML 071345Z 32011KT 9999 FEW020 22/17 Q1021 NOSIG=
201211071330 METAR LMML NIL=
201211071315 METAR LMML 071315Z 32015KT 9999 SCT018 22/17 Q1021 NOSIG=
201211071300 METAR LMML NIL=
201211071245 METAR LMML 071245Z 32012KT 9999 SCT020 24/17 Q1021 NOSIG=
201211071230 METAR LMML NIL=
201211071215 METAR LMML 071215Z 35009KT 9999 FEW013 SCT035 22/18 Q1021
                        NOSIG=
201211071200 METAR LMML NIL=
201211071145 METAR LMML 071145Z 35010KT 9999 FEW017 BKN032 23/18 Q1021
                        NOSIG=
201211071130 METAR LMML NIL=
201211071115 METAR LMML 071115Z 36008KT 9999 FEW017 23/18 Q1021 NOSIG=
201211071100 METAR LMML NIL=
201211071045 METAR LMML 071045Z 01010KT 9999 FEW015 23/18 Q1022 NOSIG=
201211071030 METAR LMML NIL=
201211071015 METAR LMML 071015Z 01010KT 9999 FEW016 22/18 Q1022 NOSIG=
201211071000 METAR LMML NIL=
201211070945 METAR LMML 070945Z 01012KT 9999 BKN016 23/18 Q1022 NOSIG=
201211070930 METAR LMML NIL=
201211070915 METAR LMML 070915Z 01009KT 9999 SCT020 23/18 Q1022 NOSIG=
201211070900 METAR LMML NIL=
201211070845 METAR LMML 070845Z 01006KT 9999 FEW030 23/18 Q1022 NOSIG=
201211070830 METAR LMML NIL=
201211070815 METAR LMML 070815Z 35005KT 330V030 CAVOK 23/18 Q1021 NOSIG=
201211070800 METAR LMML NIL=
201211070745 METAR LMML 070745Z AUTO 36006KT 310V040 CAVOK 23/18 Q1021
                        NOSIG=
201211070730 METAR LMML NIL=
201211070715 METAR LMML 070715Z 34005KT CAVOK 22/19 Q1021 NOSIG=
201211070700 METAR LMML NIL=
201211070645 METAR LMML 070645Z 32003KT CAVOK 20/18 Q1021 NOSIG=
201211070630 METAR LMML NIL=
201211070615 METAR LMML 070615Z 32003KT 9999 FEW030 20/17 Q1020 NOSIG=
201211070600 METAR LMML NIL=
201211070545 METAR LMML 070545Z 34004KT 9999 FEW038 19/17 Q1020 NOSIG=
201211070530 METAR LMML NIL=
201211070515 METAR LMML 070515Z 31003KT 9999 FEW038 19/17 Q1020 NOSIG=
201211070445 METAR LMML 070445Z 25003KT 9999 FEW030 19/17 Q1020 NOSIG=
201211070430 METAR LMML NIL=
201211070415 METAR LMML 070415Z 32004KT 9999 FEW030 19/17 Q1020 NOSIG=
201211070400 METAR LMML NIL=
201211070345 METAR LMML 070345Z 28004KT 250V310 9999 FEW030 19/17 Q1019
                        NOSIG=
201211070330 METAR LMML NIL=
201211070315 METAR LMML 070315Z 32003KT 280V350 9999 FEW030 19/17 Q1019
                        NOSIG=
201211070300 METAR LMML NIL=
201211070245 METAR LMML 070245Z AUTO VRB01KT CAVOK 19/17 Q1019=
201211070230 METAR LMML NIL=
201211070215 METAR LMML 070215Z AUTO 31004KT CAVOK 19/17 Q1019=
201211070200 METAR LMML NIL=
201211070145 METAR LMML 070145Z AUTO VRB02KT CAVOK 20/17 Q1019=
201211070115 METAR LMML 070115Z AUTO 35003KT 300V070 9999NDV FEW034///
                        SCT066/// BKN098/// 20/16 Q1020=
201211070100 METAR LMML NIL=
201211070045 METAR LMML 070045Z AUTO 32004KT CAVOK 19/16 Q1020=
201211070030 METAR LMML NIL=
201211070015 METAR LMML 070015Z AUTO VRB01KT CAVOK 19/16 Q1020=
201211070000 METAR LMML NIL=
201211062330 METAR LMML NIL=
201211062315 METAR LMML 062315Z AUTO 24004KT CAVOK 20/14 Q1020=
201211062300 METAR LMML NIL=
201211062245 METAR LMML 062245Z AUTO 24003KT CAVOK 20/14 Q1020=
201211062230 METAR LMML NIL=
201211062215 METAR LMML 062215Z AUTO 22003KT CAVOK 20/14 Q1020=
201211062200 METAR LMML NIL=
201211062145 METAR LMML 062145Z AUTO 27005KT CAVOK 20/14 Q1020=
201211062130 METAR LMML NIL=
201211062115 METAR LMML 062115Z AUTO 26004KT CAVOK 19/15 Q1020=
201211062100 METAR LMML NIL=
201211062045 METAR LMML 062045Z AUTO 31003KT CAVOK 20/15 Q1020=
201211062015 METAR LMML 062015Z AUTO 32002KT CAVOK 20/15 Q1020=
201211062000 METAR LMML NIL=
201211061945 METAR LMML 061945Z VRB01KT CAVOK 20/16 Q1020 NOSIG=
201211061930 METAR LMML NIL=
201211061915 METAR LMML 061915Z 30003KT CAVOK 20/15 Q1020 NOSIG=
201211061900 METAR LMML NIL=
201211061845 METAR LMML 061845Z AUTO 30004KT CAVOK 20/16 Q1020 NOSIG=
201211061830 METAR LMML NIL=
201211061815 METAR LMML 061815Z 33005KT CAVOK 20/16 Q1020 NOSIG=
201211061800 METAR LMML NIL=
201211061745 METAR LMML 061745Z 34005KT CAVOK 20/16 Q1020 NOSIG=
201211061730 METAR LMML NIL=
201211061715 METAR LMML 061715Z 34007KT CAVOK 20/16 Q1020 NOSIG=
201211061700 METAR LMML NIL=
201211061645 METAR LMML 061645Z 34006KT CAVOK 20/16 Q1019 NOSIG=
201211061630 METAR LMML NIL=
201211061615 METAR LMML 061615Z 31004KT CAVOK 21/16 Q1019 NOSIG=
201211061600 METAR LMML NIL=
201211061545 METAR LMML 061545Z AUTO 32006KT CAVOK 22/16 Q1019 NOSIG=
201211061530 METAR LMML NIL=
201211061515 METAR LMML 061515Z 32006KT CAVOK 23/16 Q1018 NOSIG=
201211061500 METAR LMML NIL=
201211061445 METAR LMML 061445Z 34007KT CAVOK 24/15 Q1018 NOSIG=
201211061430 METAR LMML NIL=
201211061415 METAR LMML 061415Z 34005KT 310V010 CAVOK 25/16 Q1018 NOSIG=
201211061400 METAR LMML NIL=
201211061345 METAR LMML 061345Z 35006KT CAVOK 25/15 Q1018 NOSIG=
201211061330 METAR LMML NIL=
201211061315 METAR LMML 061315Z AUTO 02004KT 340V070 CAVOK 26/15 Q1018=
201211061300 METAR LMML NIL=
201211061245 METAR LMML 061245Z 34005KT 300V010 CAVOK 25/15 Q1018 NOSIG=
201211061230 METAR LMML NIL=
201211061215 METAR LMML 061215Z 29005KT 250V350 CAVOK 25/16 Q1018 NOSIG=
201211061200 METAR LMML NIL=
201211061145 METAR LMML 061145Z VRB04KT CAVOK 25/16 Q1018 NOSIG=
201211061130 METAR LMML NIL=
201211061115 METAR LMML 061115Z 33008KT CAVOK 25/16 Q1019 NOSIG=
201211061100 METAR LMML NIL=
201211061045 METAR LMML 061045Z 33007KT 300V050 CAVOK 25/16 Q1019 NOSIG=
201211061030 METAR LMML NIL=
201211061015 METAR LMML 061015Z 34006KT 300V010 CAVOK 25/16 Q1019 NOSIG=
201211061000 METAR LMML NIL=
201211060945 METAR LMML 060945Z 36006KT 330V040 CAVOK 24/16 Q1019 NOSIG=
201211060930 METAR LMML NIL=
201211060915 METAR LMML 060915Z 33007KT 290V350 CAVOK 24/16 Q1019 NOSIG=
201211060900 METAR LMML NIL=
201211060845 METAR LMML 060845Z 32009KT CAVOK 24/16 Q1019 NOSIG=
201211060830 METAR LMML NIL=
201211060815 METAR LMML 060815Z 32009KT CAVOK 23/16 Q1019 NOSIG=
201211060800 METAR LMML NIL=
201211060745 METAR LMML 060745Z 32009KT CAVOK 23/16 Q1018 NOSIG=
201211060730 METAR LMML NIL=
201211060715 METAR LMML 060715Z 33009KT CAVOK 22/17 Q1018 NOSIG=
201211060700 METAR LMML NIL=
201211060645 METAR LMML 060645Z 33009KT CAVOK 21/16 Q1018 NOSIG=
201211060630 METAR LMML NIL=
201211060615 METAR LMML 060615Z 32010KT CAVOK 20/16 Q1017 NOSIG=
201211060600 METAR LMML NIL=
201211060545 METAR LMML 060545Z 32009KT CAVOK 20/16 Q1017 NOSIG=
201211060530 METAR LMML NIL=
201211060515 METAR LMML 060515Z 32009KT CAVOK 20/16 Q1017 NOSIG=
201211060500 METAR LMML NIL=
201211060445 METAR LMML 060445Z 33009KT CAVOK 20/16 Q1017 NOSIG=
201211060430 METAR LMML NIL=
201211060415 METAR LMML 060415Z 33009KT CAVOK 20/16 Q1016 NOSIG=
201211060400 METAR LMML NIL=
201211060345 METAR LMML 060345Z 33009KT CAVOK 20/17 Q1017 NOSIG=
201211060330 METAR LMML NIL=
201211060315 METAR LMML 060315Z 34011KT CAVOK 20/18 Q1017 NOSIG=
201211060300 METAR LMML NIL=
201211060245 METAR LMML 060245Z AUTO 33011KT CAVOK 20/18 Q1017=
201211060230 METAR LMML NIL=
201211060215 METAR LMML 060215Z AUTO 33011KT CAVOK 20/18 Q1016=
201211060200 METAR LMML NIL=
201211060145 METAR LMML 060145Z AUTO 33010KT CAVOK 20/18 Q1016=
201211060130 METAR LMML NIL=
201211060115 METAR LMML 060115Z AUTO 33012KT CAVOK 21/18 Q1017=
201211060100 METAR LMML NIL=
201211060045 METAR LMML 060045Z AUTO 34010KT CAVOK 21/17 Q1017=
201211060030 METAR LMML NIL=
201211060015 METAR LMML 060015Z AUTO 34008KT CAVOK 21/18 Q1017=
201211060000 METAR LMML NIL=
201211052345 METAR LMML 052345Z AUTO 32008KT CAVOK 22/18 Q1017=
201211052330 METAR LMML NIL=
201211052315 METAR LMML 052315Z AUTO 31008KT CAVOK 22/17 Q1017=
201211052300 METAR LMML NIL=
201211052245 METAR LMML 052245Z AUTO 33007KT CAVOK 21/17 Q1017=
201211052230 METAR LMML NIL=
201211052215 METAR LMML 052215Z AUTO 34007KT CAVOK 22/17 Q1017=
201211052200 METAR LMML NIL=
201211052145 METAR LMML 052145Z AUTO 35009KT CAVOK 22/18 Q1017=
201211052130 METAR LMML NIL=
201211052115 METAR LMML 052115Z AUTO 35008KT CAVOK 22/18 Q1017=
201211052100 METAR LMML NIL=
201211052045 METAR LMML 052045Z AUTO 36008KT CAVOK 23/18 Q1017=
201211052030 METAR LMML NIL=
201211052015 METAR LMML 052015Z AUTO 35008KT CAVOK 22/17 Q1016=
201211052000 METAR LMML NIL=
201211051945 METAR LMML 051945Z 34005KT CAVOK 22/18 Q1016 NOSIG=
201211051930 METAR LMML NIL=
201211051915 METAR LMML 051915Z 34005KT CAVOK 22/18 Q1016 NOSIG=
201211051900 METAR LMML NIL=
201211051845 METAR LMML 051845Z 34006KT CAVOK 22/18 Q1016 NOSIG=
201211051830 METAR LMML NIL=
201211051815 METAR LMML 051815Z 32010KT CAVOK 22/17 Q1016 NOSIG=
201211051800 METAR LMML NIL=
201211051745 METAR LMML 051745Z VRB02KT CAVOK 22/19 Q1016 NOSIG=
201211051730 METAR LMML NIL=
201211051715 METAR LMML 051715Z 31007KT CAVOK 22/19 Q1015 NOSIG=
201211051700 METAR LMML NIL=
201211051645 METAR LMML 051645Z 27004KT 230V300 CAVOK 23/20 Q1015 NOSIG=
201211051630 METAR LMML NIL=
201211051615 METAR LMML 051615Z 30007KT 250V340 CAVOK 23/20 Q1015 NOSIG=
201211051600 METAR LMML NIL=
201211051545 METAR LMML 051545Z 27009KT 240V300 CAVOK 24/20 Q1014 NOSIG=
201211051530 METAR LMML NIL=
201211051515 METAR LMML 051515Z 28008KT 250V310 CAVOK 25/20 Q1014 NOSIG=
201211051500 METAR LMML NIL=
201211051445 METAR LMML 051445Z 25011KT CAVOK 25/21 Q1014 NOSIG=
201211051430 METAR LMML NIL=
201211051415 METAR LMML 051415Z AUTO 25010KT 220V280 CAVOK 25/21 Q1014
                        NOSIG=
201211051400 METAR LMML NIL=
201211051345 METAR LMML 051345Z 24011KT 210V280 CAVOK 26/22 Q1014 NOSIG=
201211051330 METAR LMML NIL=
201211051315 METAR LMML 051315Z 22006KT 180V280 9999 FEW013 26/22 Q1013
                        NOSIG=
201211051300 METAR LMML NIL=
201211051245 METAR LMML 051245Z 22011KT 190V260 9999 FEW012 25/22 Q1014
                        NOSIG=
201211051230 METAR LMML NIL=
201211051215 METAR LMML 051215Z 22011KT 190V250 9999 FEW013 25/22 Q1014
                        NOSIG=
201211051200 METAR LMML NIL=
201211051145 METAR LMML 051145Z 21013KT 9999 FEW012 25/22 Q1014 NOSIG=
201211051130 METAR LMML NIL=
201211051115 METAR LMML 051115Z 21011KT 180V250 9999 FEW012 25/22 Q1014
                        NOSIG=
201211051100 METAR LMML NIL=
201211051045 METAR LMML 051045Z 21012KT 9999 FEW011 25/22 Q1015 NOSIG=
201211051030 METAR LMML NIL=
201211051015 METAR LMML 051015Z 21010KT 9999 FEW011 25/22 Q1015 NOSIG=
201211051000 METAR LMML NIL=
201211050945 METAR LMML 050945Z AUTO 21010KT 170V250 CAVOK 25/22 Q1016
                        NOSIG=
201211050930 METAR LMML NIL=
201211050915 METAR LMML 050915Z 21012KT 170V230 9999 FEW011 25/22 Q1016
                        NOSIG=
201211050900 METAR LMML NIL=
201211050845 METAR LMML 050845Z 21009KT 180V240 9999 FEW011 25/22 Q1016
                        NOSIG=
201211050830 METAR LMML NIL=
201211050815 METAR LMML 050815Z 21008KT 170V250 9999 FEW012 24/22 Q1016
                        NOSIG=
201211050800 METAR LMML NIL=
201211050745 METAR LMML 050745Z 21008KT 180V240 9999 FEW012 24/22 Q1016
                        NOSIG=
201211050730 METAR LMML NIL=
201211050715 METAR LMML 050715Z 21008KT 9999 FEW012 24/22 Q1016 NOSIG=
201211050700 METAR LMML NIL=
201211050645 METAR LMML 050645Z 21008KT CAVOK 23/21 Q1015 NOSIG=
201211050630 METAR LMML NIL=
201211050615 METAR LMML 050615Z 20007KT CAVOK 22/21 Q1015 NOSIG=
201211050600 METAR LMML NIL=
201211050545 METAR LMML 050545Z 20007KT CAVOK 22/21 Q1015 NOSIG=
201211050530 METAR LMML NIL=
201211050515 METAR LMML 050515Z 21006KT 9999 FEW013 22/21 Q1015 NOSIG=
201211050500 METAR LMML NIL=
201211050445 METAR LMML 050445Z 22006KT 9999 FEW013 22/21 Q1015 NOSIG=
201211050430 METAR LMML NIL=
201211050415 METAR LMML 050415Z 22008KT 9999 FEW013 22/21 Q1015 NOSIG=
201211050400 METAR LMML NIL=
201211050345 METAR LMML 050345Z 22008KT 180V240 9999 FEW013 22/20 Q1015
                        NOSIG=
201211050330 METAR LMML NIL=
201211050315 METAR LMML 050315Z 21008KT 9999 FEW013 22/20 Q1015 NOSIG=
201211050300 METAR LMML NIL=
201211050245 METAR LMML 050245Z AUTO 21008KT 190V250 CAVOK 22/20 Q1015=
201211050230 METAR LMML NIL=
201211050215 METAR LMML 050215Z AUTO 22007KT CAVOK 22/20 Q1015=
201211050200 METAR LMML NIL=
201211050145 METAR LMML 050145Z AUTO 20007KT CAVOK 22/20 Q1015=
201211050130 METAR LMML NIL=
201211050115 METAR LMML 050115Z AUTO 21006KT CAVOK 22/20 Q1016=
201211050100 METAR LMML NIL=
201211050045 METAR LMML 050045Z AUTO 21007KT CAVOK 22/20 Q1016=
201211050030 METAR LMML NIL=
201211050015 METAR LMML 050015Z AUTO 20009KT CAVOK 22/20 Q1016=
201211050000 METAR LMML NIL=
201211042345 METAR LMML 042345Z AUTO 20007KT 9999NDV FEW011/// 22/20 Q1016=
201211042330 METAR LMML NIL=
201211042315 METAR LMML 042315Z AUTO 19007KT 9999NDV FEW011/// 22/20 Q1016=
201211042300 METAR LMML NIL=
201211042245 METAR LMML 042245Z AUTO 20008KT 9999NDV FEW012/// 22/20 Q1017=
201211042230 METAR LMML NIL=
201211042215 METAR LMML 042215Z AUTO 20009KT 9999NDV FEW012/// 22/20 Q1017=
201211042200 METAR LMML NIL=
201211042145 METAR LMML 042145Z AUTO 19006KT CAVOK 22/19 Q1017=
201211042130 METAR LMML NIL=
201211042115 METAR LMML 042115Z AUTO 20009KT CAVOK 22/19 Q1017=
201211042100 METAR LMML NIL=
201211042045 METAR LMML 042045Z AUTO 20009KT 9999NDV SCT012/// SCT016///
                        22/19 Q1017=
201211042030 METAR LMML NIL=
201211042015 METAR LMML 042015Z AUTO 20008KT 170V230 9999NDV FEW014///
                        22/19 Q1017=
201211042000 METAR LMML NIL=
201211041945 METAR LMML 041945Z 21009KT 9999 FEW014 22/19 Q1017 NOSIG=
201211041930 METAR LMML NIL=
201211041915 METAR LMML 041915Z 20007KT 9999 FEW014 22/19 Q1017 NOSIG=
201211041900 METAR LMML NIL=
201211041845 METAR LMML 041845Z 20005KT 160V220 9999 FEW014 22/19 Q1017
                        NOSIG=
201211041830 METAR LMML NIL=
201211041815 METAR LMML 041815Z 20005KT 9999 FEW017 22/19 Q1017 NOSIG=
201211041800 METAR LMML NIL=
201211041745 METAR LMML 041745Z 20006KT 9999 FEW014 22/19 Q1017 NOSIG=
201211041730 METAR LMML NIL=
201211041715 METAR LMML 041715Z 21006KT 9999 FEW014 22/19 Q1017 NOSIG=
201211041700 METAR LMML NIL=
201211041645 METAR LMML 041645Z 20004KT 160V230 9999 FEW016 22/19 Q1017
                        NOSIG=
201211041630 METAR LMML NIL=
201211041615 METAR LMML 041615Z 21007KT 9999 FEW016 22/19 Q1017 NOSIG=
201211041600 METAR LMML NIL=
201211041545 METAR LMML 041545Z 21007KT 190V250 9999 FEW016 23/19 Q1017
                        NOSIG=
201211041530 METAR LMML NIL=
201211041515 METAR LMML 041515Z 21007KT 180V240 9999 FEW017 23/19 Q1017
                        NOSIG=
201211041500 METAR LMML NIL=
201211041445 METAR LMML 041445Z 21009KT 9999 FEW017 23/19 Q1017 NOSIG=
201211041430 METAR LMML NIL=
201211041415 METAR LMML 041415Z 22008KT 190V250 9999 FEW017 24/19 Q1017
                        NOSIG=
201211041400 METAR LMML NIL=
201211041345 METAR LMML 041345Z 23009KT 200V260 9999 FEW018 24/19 Q1017
                        NOSIG=
201211041330 METAR LMML NIL=
201211041315 METAR LMML 041315Z 22011KT 190V250 9999 FEW020 24/19 Q1017
                        NOSIG=
201211041300 METAR LMML NIL=
201211041245 METAR LMML 041245Z 22009KT 180V250 9999 FEW020 24/19 Q1017
                        NOSIG=
201211041230 METAR LMML NIL=
201211041215 METAR LMML 041215Z 22009KT 180V270 9999 FEW020 24/19 Q1018
                        NOSIG=
201211041200 METAR LMML NIL=
201211041145 METAR LMML 041145Z 21010KT 180V240 9999 FEW021 24/19 Q1018
                        NOSIG=
201211041130 METAR LMML NIL=
201211041115 METAR LMML 041115Z AUTO 22008KT 180V250 9999NDV SCT022///
                        SCT037/// BKN054/// 25/19 Q1019=
201211041100 METAR LMML NIL=
201211041045 METAR LMML 041045Z AUTO 21009KT 9999NDV BKN022/// BKN027///
                        BKN036/// 24/18 Q1019=
201211041030 METAR LMML NIL=
201211041015 METAR LMML 041015Z 22009KT 190V250 9999 SCT022 24/18 Q1019
                        NOSIG=
201211041000 METAR LMML NIL=
201211040945 METAR LMML 040945Z AUTO 21009KT 9999NDV FEW023/// 24/18 Q1020=
201211040930 METAR LMML NIL=
201211040915 METAR LMML 040915Z 22009KT 180V260 9999 BKN022 24/18 Q1019
                        NOSIG=
201211040900 METAR LMML NIL=
201211040845 METAR LMML 040845Z 22009KT 190V250 9999 SCT021 24/18 Q1019
                        NOSIG=
201211040830 METAR LMML NIL=
201211040815 METAR LMML 040815Z 21009KT 9999 FEW020 23/18 Q1019 NOSIG=
201211040800 METAR LMML NIL=
201211040745 METAR LMML 040745Z 21008KT 170V230 9999 FEW020 23/18 Q1019
                        NOSIG=
201211040730 METAR LMML NIL=
201211040715 METAR LMML 040715Z 21007KT 9999 FEW021 22/17 Q1019 NOSIG=
201211040700 METAR LMML NIL=
201211040645 METAR LMML 040645Z 20006KT 9999 FEW015 21/17 Q1018 NOSIG=
201211040630 METAR LMML NIL=
201211040615 METAR LMML 040615Z 20005KT 170V230 9999 FEW015 20/16 Q1018
                        NOSIG=
201211040600 METAR LMML NIL=
201211040545 METAR LMML 040545Z 20006KT 9999 FEW015 19/16 Q1019 NOSIG=
201211040530 METAR LMML NIL=
201211040515 METAR LMML 040515Z 22006KT CAVOK 18/16 Q1019 NOSIG=
201211040500 METAR LMML NIL=
201211040445 METAR LMML 040445Z 20005KT CAVOK 18/15 Q1018 NOSIG=
201211040430 METAR LMML NIL=
201211040415 METAR LMML 040415Z 22006KT CAVOK 18/15 Q1018 NOSIG=
201211040400 METAR LMML NIL=
201211040345 METAR LMML 040345Z 19003KT 160V240 CAVOK 17/14 Q1018 NOSIG=
201211040330 METAR LMML NIL=
201211040315 METAR LMML 040315Z 17003KT CAVOK 18/14 Q1018 NOSIG=
201211040300 METAR LMML NIL=
201211040245 METAR LMML 040245Z AUTO 21005KT CAVOK 18/14 Q1018=
201211040230 METAR LMML NIL=
201211040215 METAR LMML 040215Z AUTO 20004KT CAVOK 17/14 Q1018=
201211040200 METAR LMML NIL=
201211040145 METAR LMML 040145Z AUTO 19004KT CAVOK 17/14 Q1018=
201211040130 METAR LMML NIL=
201211040115 METAR LMML 040115Z AUTO 19005KT CAVOK 16/14 Q1018=
201211040100 METAR LMML NIL=
201211040045 METAR LMML 040045Z AUTO 19003KT CAVOK 16/14 Q1018=
201211040030 METAR LMML NIL=
201211040015 METAR LMML 040015Z AUTO 17004KT CAVOK 16/14 Q1019=
201211040000 METAR LMML NIL=
201211032345 METAR LMML 032345Z AUTO 17003KT CAVOK 16/14 Q1019=
201211032330 METAR LMML NIL=
201211032315 METAR LMML 032315Z AUTO 17002KT CAVOK 17/14 Q1019=
201211032300 METAR LMML NIL=
201211032245 METAR LMML 032245Z AUTO VRB01KT CAVOK 17/14 Q1019=
201211032230 METAR LMML NIL=
201211032215 METAR LMML 032215Z AUTO VRB01KT CAVOK 17/15 Q1019=
201211032200 METAR LMML NIL=
201211032145 METAR LMML 032145Z AUTO 26001KT CAVOK 17/15 Q1019=
201211032130 METAR LMML NIL=
201211032115 METAR LMML 032115Z AUTO 36001KT CAVOK 17/14 Q1019=
201211032100 METAR LMML NIL=
201211032045 METAR LMML 032045Z VRB01KT CAVOK 18/15 Q1019 NOSIG=
201211032030 METAR LMML NIL=
201211032015 METAR LMML 032015Z VRB01KT CAVOK 18/15 Q1019 NOSIG=
201211032000 METAR LMML NIL=
201211031945 METAR LMML 031945Z AUTO VRB01KT CAVOK 18/15 Q1019 NOSIG=
201211031930 METAR LMML NIL=
201211031915 METAR LMML 031915Z 18001KT CAVOK 18/15 Q1019 NOSIG=
201211031900 METAR LMML NIL=
201211031845 METAR LMML 031845Z VRB01KT CAVOK 18/15 Q1019 NOSIG=
201211031830 METAR LMML NIL=
201211031815 METAR LMML 031815Z AUTO 29003KT CAVOK 18/15 Q1019 NOSIG=
201211031800 METAR LMML NIL=
201211031745 METAR LMML 031745Z 28002KT CAVOK 19/15 Q1019 NOSIG=
201211031730 METAR LMML NIL=
201211031715 METAR LMML 031715Z VRB01KT CAVOK 19/15 Q1019 NOSIG=
201211031700 METAR LMML NIL=
201211031645 METAR LMML 031645Z VRB01KT CAVOK 19/14 Q1019 NOSIG=
201211031630 METAR LMML NIL=
201211031615 METAR LMML 031615Z 36005KT CAVOK 20/15 Q1018 NOSIG=
201211031600 METAR LMML NIL=
201211031545 METAR LMML 031545Z 34005KT CAVOK 20/15 Q1018 NOSIG=
201211031530 METAR LMML NIL=
201211031515 METAR LMML 031515Z AUTO 01004KT 330V050 CAVOK 21/15 Q1018=
201211031500 METAR LMML NIL=
201211031445 METAR LMML 031445Z 36005KT 310V030 CAVOK 21/15 Q1018 NOSIG=
201211031430 METAR LMML NIL=
201211031415 METAR LMML 031415Z 36006KT 9999 FEW030 22/15 Q1018 NOSIG=
201211031400 METAR LMML NIL=
201211031345 METAR LMML 031345Z 34007KT 310V010 9999 FEW030 22/15 Q1018
                        NOSIG=
201211031330 METAR LMML NIL=
201211031315 METAR LMML 031315Z 01008KT 310V030 9999 FEW030 22/15 Q1018
                        NOSIG=
201211031300 METAR LMML NIL=
201211031245 METAR LMML 031245Z 35007KT 310V020 9999 FEW030 22/15 Q1019
                        NOSIG=
201211031230 METAR LMML NIL=
201211031215 METAR LMML 031215Z 01007KT 340V040 9999 FEW030 23/15 Q1019
                        NOSIG=
201211031200 METAR LMML NIL=
201211031145 METAR LMML 031145Z 01006KT 340V050 9999 FEW029 22/15 Q1019
                        NOSIG=
201211031130 METAR LMML NIL=
201211031115 METAR LMML 031115Z 34006KT 310V030 9999 FEW030 23/15 Q1019
                        NOSIG=
201211031100 METAR LMML NIL=
201211031045 METAR LMML 031045Z 35005KT 290V050 9999 FEW030 22/15 Q1020
                        NOSIG=
201211031030 METAR LMML NIL=
201211031015 METAR LMML 031015Z 35007KT 320V030 9999 FEW030 22/15 Q1020
                        NOSIG=
201211031000 METAR LMML NIL=
201211030945 METAR LMML 030945Z 36007KT 9999 FEW030 22/15 Q1020 NOSIG=
201211030930 METAR LMML NIL=
201211030915 METAR LMML 030915Z 35008KT 310V010 9999 FEW024 22/14 Q1020
                        NOSIG=
201211030900 METAR LMML NIL=
201211030845 METAR LMML 030845Z 35008KT 9999 FEW025 21/14 Q1020 NOSIG=
201211030830 METAR LMML NIL=
201211030815 METAR LMML 030815Z 34009KT 9999 FEW025 21/14 Q1020 NOSIG=
201211030800 METAR LMML NIL=
201211030745 METAR LMML 030745Z 33008KT 9999 FEW025 20/15 Q1020 NOSIG=
201211030730 METAR LMML NIL=
201211030715 METAR LMML 030715Z 33006KT 9999 FEW020 20/14 Q1019 NOSIG=
201211030700 METAR LMML NIL=
201211030645 METAR LMML 030645Z 31007KT 9999 FEW020 18/14 Q1019 NOSIG=
201211030630 METAR LMML NIL=
201211030615 METAR LMML 030615Z 30007KT 9999 FEW020 17/13 Q1019 NOSIG=
201211030600 METAR LMML NIL=
201211030545 METAR LMML 030545Z 31005KT 9999 FEW020 16/13 Q1018 NOSIG=
201211030530 METAR LMML NIL=
201211030515 METAR LMML 030515Z 31007KT 9999 FEW020 16/13 Q1018 NOSIG=
201211030500 METAR LMML NIL=
201211030445 METAR LMML 030445Z 30006KT CAVOK 17/13 Q1018 NOSIG=
201211030430 METAR LMML NIL=
201211030415 METAR LMML 030415Z 31007KT CAVOK 17/13 Q1018 NOSIG=
201211030400 METAR LMML NIL=
201211030345 METAR LMML 030345Z 30006KT CAVOK 16/13 Q1018 NOSIG=
201211030330 METAR LMML NIL=
201211030315 METAR LMML 030315Z 32005KT CAVOK 16/13 Q1018 NOSIG=
201211030300 METAR LMML NIL=
201211030245 METAR LMML 030245Z AUTO 31005KT CAVOK 17/13 Q1018=
201211030230 METAR LMML NIL=
201211030215 METAR LMML 030215Z AUTO 32006KT CAVOK 17/13 Q1018=
201211030200 METAR LMML NIL=
201211030145 METAR LMML 030145Z AUTO 32007KT CAVOK 17/14 Q1018=
201211030130 METAR LMML NIL=
201211030115 METAR LMML 030115Z AUTO 33006KT CAVOK 17/14 Q1018=
201211030100 METAR LMML NIL=
201211030045 METAR LMML 030045Z AUTO 33007KT CAVOK 17/14 Q1018=
201211030030 METAR LMML NIL=
201211030015 METAR LMML 030015Z AUTO 32007KT CAVOK 17/14 Q1018=
201211030000 METAR LMML NIL=
201211022345 METAR LMML 022345Z AUTO 32007KT CAVOK 17/13 Q1018=
201211022330 METAR LMML NIL=
201211022315 METAR LMML 022315Z AUTO 32007KT CAVOK 17/13 Q1018=
201211022300 METAR LMML NIL=
201211022245 METAR LMML 022245Z AUTO 32006KT CAVOK 17/13 Q1018=
201211022230 METAR LMML NIL=
201211022215 METAR LMML 022215Z AUTO 32007KT CAVOK 17/13 Q1018=
201211022200 METAR LMML NIL=
201211022145 METAR LMML 022145Z AUTO 32008KT CAVOK 18/14 Q1018=
201211022130 METAR LMML NIL=
201211022115 METAR LMML 022115Z AUTO 32007KT CAVOK 18/14 Q1018=
201211022100 METAR LMML NIL=
201211022045 METAR LMML 022045Z 31007KT 9999 FEW025 18/14 Q1018 NOSIG=
201211022030 METAR LMML NIL=
201211022015 METAR LMML 022015Z 31007KT 9999 FEW025 18/14 Q1017 NOSIG=
201211022000 METAR LMML NIL=
201211021945 METAR LMML 021945Z 32007KT 9999 FEW025 19/14 Q1017 NOSIG=
201211021930 METAR LMML NIL=
201211021915 METAR LMML 021915Z 32007KT 9999 FEW025 18/14 Q1017 NOSIG=
201211021900 METAR LMML NIL=
201211021845 METAR LMML 021845Z AUTO 32006KT CAVOK 18/15 Q1017 NOSIG=
201211021830 METAR LMML NIL=
201211021815 METAR LMML 021815Z 33007KT 9999 FEW030 19/15 Q1017 NOSIG=
201211021800 METAR LMML NIL=
201211021745 METAR LMML 021745Z 34008KT 9999 FEW030 19/15 Q1017 NOSIG=
201211021730 METAR LMML NIL=
201211021715 METAR LMML 021715Z 34008KT 9999 FEW032 FEW038 20/15 Q1017
                        NOSIG=
201211021700 METAR LMML NIL=
201211021645 METAR LMML 021645Z 33009KT 9999 FEW027 SCT032 20/15 Q1016
                        NOSIG=
201211021630 METAR LMML NIL=
201211021615 METAR LMML 021615Z 32010KT 9999 FEW027 FEW045 20/15 Q1016
                        NOSIG=
201211021600 METAR LMML NIL=
201211021545 METAR LMML 021545Z 31011KT 9999 FEW028 FEW045 21/15 Q1016
                        NOSIG=
201211021515 METAR LMML 021515Z 32011KT 9999 FEW028 FEW045 22/15 Q1016
                        NOSIG=
201211021500 METAR LMML NIL=
201211021445 METAR LMML 021445Z 32009KT 9999 FEW028 SCT045 22/15 Q1015
                        NOSIG=
201211021430 METAR LMML NIL=
201211021415 METAR LMML 021415Z 32013KT 9999 FEW028 22/15 Q1015 NOSIG=
201211021400 METAR LMML NIL=
201211021345 METAR LMML 021345Z 31012KT 280V340 9999 FEW028 23/16 Q1015
                        NOSIG=
201211021330 METAR LMML NIL=
201211021315 METAR LMML 021315Z 32012KT 9999 FEW028 23/16 Q1015 NOSIG=
201211021300 METAR LMML NIL=
201211021245 METAR LMML 021245Z 32011KT 9999 FEW028 24/16 Q1014 NOSIG=
201211021230 METAR LMML NIL=
201211021215 METAR LMML 021215Z AUTO 33012KT 9999NDV FEW025/// SCT031///
                        23/16 Q1014=
201211021200 METAR LMML NIL=
201211021145 METAR LMML 021145Z AUTO 31011KT 9999NDV SCT024/// SCT028///
                        BKN035/// 23/16 Q1015=
201211021130 METAR LMML NIL=
201211021115 METAR LMML 021115Z 31009KT 9999 FEW030 FEW040 23/16 Q1015
                        NOSIG=
201211021100 METAR LMML NIL=
201211021045 METAR LMML 021045Z 32011KT 9999 FEW030 SCT039 22/16 Q1015
                        NOSIG=
201211021030 METAR LMML NIL=
201211021015 METAR LMML 021015Z 33009KT 9999 FEW025 SCT047 23/16 Q1015
                        NOSIG=
201211021000 METAR LMML NIL=
201211020945 METAR LMML 020945Z 33011KT 9999 FEW025 SCT039 22/16 Q1015
                        NOSIG=
201211020930 METAR LMML NIL=
201211020915 METAR LMML 020915Z 32014KT 9999 FEW025 SCT044 23/17 Q1015
                        NOSIG=
201211020900 METAR LMML NIL=
201211020845 METAR LMML 020845Z 29008KT 250V310 9999 FEW025 22/16 Q1014
                        NOSIG=
201211020830 METAR LMML NIL=
201211020815 METAR LMML 020815Z 29005KT 250V310 9999 FEW025 22/16 Q1014
                        NOSIG=
201211020800 METAR LMML NIL=
201211020745 METAR LMML 020745Z 28005KT 250V310 9999 FEW025 22/16 Q1014
                        NOSIG=
201211020730 METAR LMML NIL=
201211020715 METAR LMML 020715Z 26003KT 230V310 9999 FEW025 21/17 Q1013
                        NOSIG=
201211020700 METAR LMML NIL=
201211020645 METAR LMML 020645Z 27004KT 9999 FEW025 20/16 Q1013 NOSIG=
201211020630 METAR LMML NIL=
201211020615 METAR LMML 020615Z 28004KT 9999 FEW025 18/15 Q1013 NOSIG=
201211020600 METAR LMML NIL=
201211020545 METAR LMML 020545Z 27005KT 9999 FEW025 17/15 Q1012 NOSIG=
201211020530 METAR LMML NIL=
201211020515 METAR LMML 020515Z 27004KT CAVOK 17/15 Q1012 NOSIG=
201211020445 METAR LMML 020445Z 28004KT CAVOK 16/14 Q1012 NOSIG=
201211020430 METAR LMML NIL=
201211020415 METAR LMML 020415Z 28003KT CAVOK 16/14 Q1012 NOSIG=
201211020400 METAR LMML NIL=
201211020345 METAR LMML 020345Z 29004KT CAVOK 17/14 Q1012 NOSIG=
201211020330 METAR LMML NIL=
201211020315 METAR LMML 020315Z 30003KT CAVOK 17/14 Q1012 NOSIG=
201211020300 METAR LMML NIL=
201211020245 METAR LMML 020245Z AUTO 26004KT CAVOK 17/14 Q1012=
201211020230 METAR LMML NIL=
201211020215 METAR LMML 020215Z AUTO 29004KT CAVOK 18/14 Q1011=
201211020200 METAR LMML NIL=
201211020145 METAR LMML 020145Z AUTO 29005KT CAVOK 17/14 Q1011=
201211020130 METAR LMML NIL=
201211020115 METAR LMML 020115Z AUTO 28004KT CAVOK 17/14 Q1011=
201211020100 METAR LMML NIL=
201211020045 METAR LMML 020045Z AUTO 28004KT CAVOK 17/14 Q1011=
201211020030 METAR LMML NIL=
201211020015 METAR LMML 020015Z AUTO 29005KT CAVOK 17/14 Q1011=
201211020000 METAR LMML NIL=
201211012345 METAR LMML 012345Z AUTO 29004KT CAVOK 17/14 Q1011=
201211012330 METAR LMML NIL=
201211012315 METAR LMML 012315Z AUTO 28005KT CAVOK 17/14 Q1011=
201211012245 METAR LMML 012245Z AUTO 28005KT CAVOK 18/14 Q1011=
201211012230 METAR LMML NIL=
201211012215 METAR LMML 012215Z AUTO 28005KT CAVOK 18/14 Q1011=
201211012200 METAR LMML NIL=
201211012145 METAR LMML 012145Z AUTO 27005KT CAVOK 18/14 Q1011=
201211012130 METAR LMML NIL=
201211012115 METAR LMML 012115Z 27005KT CAVOK 17/14 Q1011 NOSIG=
201211012100 METAR LMML NIL=
201211012045 METAR LMML 012045Z 28005KT CAVOK 17/14 Q1011 NOSIG=
201211012030 METAR LMML NIL=
201211012015 METAR LMML 012015Z 29005KT CAVOK 18/14 Q1010 NOSIG=
201211012000 METAR LMML NIL=
201211011945 METAR LMML 011945Z 28005KT CAVOK 17/14 Q1010 NOSIG=
201211011930 METAR LMML NIL=
201211011915 METAR LMML 011915Z 28004KT CAVOK 18/15 Q1010 NOSIG=
201211011900 METAR LMML NIL=
201211011845 METAR LMML 011845Z 28005KT CAVOK 18/15 Q1010 NOSIG=
201211011830 METAR LMML NIL=
201211011815 METAR LMML 011815Z 28003KT 260V320 9999 FEW020 18/15 Q1009
                        NOSIG=
201211011800 METAR LMML NIL=
201211011745 METAR LMML 011745Z 32004KT 9999 FEW020 18/15 Q1009 NOSIG=
201211011730 METAR LMML NIL=
201211011715 METAR LMML 011715Z 31005KT 9999 FEW020 19/15 Q1009 NOSIG=
201211011700 METAR LMML NIL=
201211011645 METAR LMML 011645Z 31005KT 9999 FEW025 20/15 Q1008 NOSIG=
201211011630 METAR LMML NIL=
201211011615 METAR LMML 011615Z 32005KT 9999 FEW025 20/14 Q1008 NOSIG=
201211011600 METAR LMML NIL=
201211011545 METAR LMML 011545Z 32006KT 9999 FEW027 21/14 Q1008 NOSIG=
201211011530 METAR LMML NIL=
201211011515 METAR LMML 011515Z 31008KT 9999 FEW027 21/15 Q1008 NOSIG=
201211011500 METAR LMML NIL=
201211011445 METAR LMML 011445Z 31009KT 9999 SCT029 22/15 Q1007 NOSIG=
201211011430 METAR LMML NIL=
201211011415 METAR LMML 011415Z 31010KT 280V340 9999 SCT031 22/15 Q1007
                        NOSIG=
201211011400 METAR LMML NIL=
201211011345 METAR LMML 011345Z 31010KT 9999 SCT034 22/14 Q1007 NOSIG=
201211011330 METAR LMML NIL=
201211011315 METAR LMML 011315Z 33012KT 9999 SCT031 22/15 Q1007 NOSIG=
201211011245 METAR LMML 011245Z AUTO 32011KT 9999NDV BKN031/// 23/15 Q1007=
201211011215 METAR LMML 011215Z 31011KT 280V340 9999 SCT032 23/15 Q1007
                        NOSIG=
201211011200 METAR LMML NIL=
201211011145 METAR LMML 011145Z 32012KT 9999 FEW035 23/14 Q1007 NOSIG=
201211011130 METAR LMML NIL=
201211011115 METAR LMML 011115Z 32012KT 9999 FEW025 24/14 Q1007 NOSIG=
201211011100 METAR LMML NIL=
201211011045 METAR LMML 011045Z 31012KT 280V340 9999 FEW025 23/15 Q1006
                        NOSIG=
201211011030 METAR LMML NIL=
201211011015 METAR LMML 011015Z 31011KT 9999 FEW025 23/15 Q1006 NOSIG=
201211011000 METAR LMML NIL=
201211010945 METAR LMML 010945Z 33014KT 9999 FEW025 22/14 Q1007 NOSIG=
201211010930 METAR LMML NIL=
201211010915 METAR LMML 010915Z 33011KT 9999 FEW025 23/15 Q1006 NOSIG=
201211010900 METAR LMML NIL=
201211010845 METAR LMML 010845Z 34010KT 9999 FEW025 22/15 Q1006 NOSIG=
201211010830 METAR LMML NIL=
201211010815 METAR LMML 010815Z 34011KT 9999 FEW020 21/15 Q1006 NOSIG=
201211010800 METAR LMML NIL=
201211010745 METAR LMML 010745Z AUTO 34010KT CAVOK 20/15 Q1006 NOSIG=
201211010730 METAR LMML NIL=
201211010715 METAR LMML 010715Z AUTO 33010KT CAVOK 20/15 Q1005 NOSIG=
201211010645 METAR LMML 010645Z 33009KT 9999 FEW020 20/16 Q1005 NOSIG=
201211010630 METAR LMML NIL=
201211010615 METAR LMML 010615Z 33008KT 9999 FEW020 19/15 Q1004 NOSIG=
201211010600 METAR LMML NIL=
201211010545 METAR LMML 010545Z 34011KT 9999 FEW020 20/15 Q1003 NOSIG=
201211010530 METAR LMML NIL=
201211010515 METAR LMML 010515Z 34012KT 9999 FEW020 20/16 Q1003 NOSIG=
201211010500 METAR LMML NIL=
201211010445 METAR LMML 010445Z 34014KT 320V020 9999 FEW020 20/16 Q1003
                        NOSIG=
201211010430 METAR LMML NIL=
201211010415 METAR LMML 010415Z 35013KT 9999 FEW021 20/17 Q1003 NOSIG=
201211010400 METAR LMML NIL=
201211010345 METAR LMML 010345Z AUTO 35014KT 9999NDV NCD 20/17 Q1002=
201211010330 METAR LMML NIL=
201211010315 METAR LMML 010315Z AUTO 35013KT CAVOK 21/17 Q1002=
201211010300 METAR LMML NIL=
201211010245 METAR LMML 010245Z AUTO 35012KT CAVOK 21/18 Q1002=
201211010230 METAR LMML NIL=
201211010215 METAR LMML 010215Z AUTO 35011KT CAVOK 21/19 Q1001=
201211010200 METAR LMML NIL=
201211010145 METAR LMML 010145Z AUTO 27011KT 240V300 8000NDV FEW026///
                        SCT035/// 24/20 Q1001=
201211010130 METAR LMML NIL=
201211010115 METAR LMML 010115Z AUTO 24012KT 210V270 9000NDV FEW110///
                        24/21 Q1001=
201211010100 METAR LMML NIL=
201211010045 METAR LMML 010045Z AUTO 22011KT 9000NDV BKN085/// 24/21 Q1001=
201211010030 METAR LMML NIL=
201211010015 METAR LMML 010015Z AUTO 21012KT CAVOK 24/21 Q1001=
201211010000 METAR LMML NIL=
