##########################################################
# Query made at 01/18/2013 16:01:47 UTC
# Time interval: from 11/01/2010 00:00  to 12/01/2010 23:59  UTC
##########################################################

##########################################################
# LMML, Luqa (Malta)
# WMO index: 16597
# Latitude 35-51N. Longitude 014-29E. Altitude 91 m.
##########################################################

###################################
#  METAR/SPECI from LMML
###################################
201012012345 METAR LMML 012345Z 34003KT CAVOK 15/12 Q1012 NOSIG=
201012012330 METAR LMML NIL=
201012012315 METAR LMML 012315Z 33004KT CAVOK 15/13 Q1012 NOSIG=
201012012300 METAR LMML NIL=
201012012245 METAR LMML 012245Z 34005KT CAVOK 16/13 Q1012 NOSIG=
201012012230 METAR LMML NIL=
201012012215 METAR LMML 012215Z 34006KT 320V020 CAVOK 16/12 Q1011 NOSIG=
201012012200 METAR LMML NIL=
201012012145 METAR LMML 012145Z 33006KT CAVOK 16/13 Q1012 NOSIG=
201012012130 METAR LMML NIL=
201012012115 METAR LMML 012115Z 35005KT CAVOK 16/13 Q1011 NOSIG=
201012012100 METAR LMML NIL=
201012012045 METAR LMML 012045Z 34007KT CAVOK 17/13 Q1011 NOSIG=
201012012030 METAR LMML NIL=
201012012015 METAR LMML 012015Z 34008KT CAVOK 17/15 Q1011 NOSIG=
201012012000 METAR LMML NIL=
201012011945 METAR LMML 011945Z 34007KT CAVOK 17/15 Q1011 NOSIG=
201012011930 METAR LMML NIL=
201012011915 METAR LMML 011915Z 34004KT 250V020 CAVOK 17/15 Q1011 NOSIG=
201012011900 METAR LMML NIL=
201012011845 METAR LMML 011845Z 35009KT 310V020 CAVOK 18/15 Q1010 NOSIG=
201012011830 METAR LMML NIL=
201012011815 METAR LMML 011815Z 28005KT 240V310 CAVOK 19/15 Q1010 NOSIG=
201012011800 METAR LMML NIL=
201012011745 METAR LMML 011745Z 25009KT 220V290 CAVOK 20/14 Q1009 NOSIG=
201012011730 METAR LMML NIL=
201012011715 METAR LMML 011715Z 24010G20KT 200V280 CAVOK 21/13 Q1009 NOSIG=
201012011700 METAR LMML NIL=
201012011645 METAR LMML 011645Z 22008KT 200V270 CAVOK 21/13 Q1009 NOSIG=
201012011630 METAR LMML NIL=
201012011615 METAR LMML 011615Z 23008KT 190V270 9000 -SHRA NSC 21/14 Q1009
                        NOSIG=
201012011545 METAR LMML 011545Z 23007KT 190V270 9000 NSC 21/15 Q1008 NOSIG=
201012011530 METAR LMML NIL=
201012011515 METAR LMML 011515Z 23006KT 180V300 7000 NSC 21/14 Q1008 NOSIG=
201012011500 METAR LMML NIL=
201012011445 METAR LMML 011445Z 21006KT 160V260 7000 NSC 21/14 Q1007 NOSIG=
201012011430 METAR LMML NIL=
201012011415 METAR LMML 011415Z 24008KT 200V290 7000 NSC 21/14 Q1008 NOSIG=
201012011400 METAR LMML NIL=
201012011345 METAR LMML 011345Z 24008KT 200V280 7000 -RA NSC 21/14 Q1008
                        NOSIG=
201012011330 METAR LMML NIL=
201012011315 METAR LMML 011315Z 24008KT 190V290 8000 NSC 21/14 Q1008 NOSIG=
201012011300 METAR LMML NIL=
201012011245 METAR LMML 011245Z 23008KT 190V290 8000 NSC 22/15 Q1008 NOSIG=
201012011230 METAR LMML NIL=
201012011215 METAR LMML 011215Z 22009KT 180V260 9000 NSC 22/14 Q1008 NOSIG=
201012011200 METAR LMML NIL=
201012011145 METAR LMML 011145Z 21010KT 170V260 9000 NSC 21/15 Q1008 NOSIG=
201012011130 METAR LMML NIL=
201012011115 METAR LMML 011115Z 20007KT 170V250 9000 NSC 21/16 Q1008 NOSIG=
201012011100 METAR LMML NIL=
201012011045 METAR LMML 011045Z 21007KT 160V250 9000 NSC 21/16 Q1008 NOSIG=
201012011030 METAR LMML NIL=
201012011015 METAR LMML 011015Z 22008KT 180V270 CAVOK 21/15 Q1008 NOSIG=
201012011000 METAR LMML NIL=
201012010945 METAR LMML 010945Z 23011KT 200V270 9999 -SHRA NSC 21/15 Q1009
                        NOSIG=
201012010915 METAR LMML 010915Z 24012KT 200V270 CAVOK 22/15 Q1009 NOSIG=
201012010845 METAR LMML 010845Z 24011KT 200V290 CAVOK 22/14 Q1009 NOSIG=
201012010815 METAR LMML 010815Z 24013KT 200V270 CAVOK 22/14 Q1009 NOSIG=
201012010800 METAR LMML NIL=
201012010745 METAR LMML 010745Z 24013KT 190V280 CAVOK 22/14 Q1008 NOSIG=
201012010730 METAR LMML NIL=
201012010715 METAR LMML 010715Z 24011KT 190V270 CAVOK 22/15 Q1008 NOSIG=
201012010700 METAR LMML NIL=
201012010645 METAR LMML 010645Z 21011KT 180V260 CAVOK 21/16 Q1007 NOSIG=
201012010630 METAR LMML NIL=
201012010615 METAR LMML 010615Z 21010KT 160V250 CAVOK 21/15 Q1007 NOSIG=
201012010600 METAR LMML NIL=
201012010545 METAR LMML 010545Z 22008KT 180V260 CAVOK 21/15 Q1007 NOSIG=
201012010530 METAR LMML NIL=
201012010515 METAR LMML 010515Z 21010KT 160V270 CAVOK 21/15 Q1007 NOSIG=
201012010500 METAR LMML NIL=
201012010445 METAR LMML 010445Z 23012KT 200V260 CAVOK 22/15 Q1007 NOSIG=
201012010430 METAR LMML NIL=
201012010415 METAR LMML 010415Z 23011KT 200V280 CAVOK 21/15 Q1007 NOSIG=
201012010400 METAR LMML NIL=
201012010345 METAR LMML 010345Z 22012KT 170V260 CAVOK 21/15 Q1007 NOSIG=
201012010330 METAR LMML NIL=
201012010315 METAR LMML 010315Z 22011KT 180V250 CAVOK 21/15 Q1007 NOSIG=
201012010300 METAR LMML NIL=
201012010245 METAR LMML 010245Z 22013KT 180V250 CAVOK 22/14 Q1007 NOSIG=
201012010230 METAR LMML NIL=
201012010215 METAR LMML 010215Z 22011KT 180V270 CAVOK 22/14 Q1007 NOSIG=
201012010200 METAR LMML NIL=
201012010145 METAR LMML 010145Z 22014KT 180V260 CAVOK 22/14 Q1007 NOSIG=
201012010130 METAR LMML NIL=
201012010115 METAR LMML 010115Z 22011KT 190V260 CAVOK 21/14 Q1008 NOSIG=
201012010100 METAR LMML NIL=
201012010045 METAR LMML 010045Z 21010KT 170V240 CAVOK 21/15 Q1008 NOSIG=
201012010030 METAR LMML NIL=
201012010015 METAR LMML 010015Z 21011G21KT 180V270 CAVOK 21/15 Q1008 NOSIG=
201012010000 METAR LMML NIL=
201011302345 METAR LMML 302345Z 21011KT 170V260 CAVOK 21/15 Q1008 NOSIG=
201011302330 METAR LMML NIL=
201011302315 METAR LMML 302315Z 21008KT 160V260 CAVOK 21/15 Q1008 NOSIG=
201011302300 METAR LMML NIL=
201011302245 METAR LMML 302245Z 21011KT 160V270 CAVOK 21/15 Q1008 NOSIG=
201011302230 METAR LMML NIL=
201011302215 METAR LMML 302215Z 21009KT 170V240 CAVOK 21/16 Q1008 NOSIG=
201011302200 METAR LMML NIL=
201011302145 METAR LMML 302145Z 20009KT 170V230 CAVOK 20/16 Q1008 NOSIG=
201011302130 METAR LMML NIL=
201011302115 METAR LMML 302115Z 20010KT 160V230 CAVOK 20/16 Q1009 NOSIG=
201011302100 METAR LMML NIL=
201011302045 METAR LMML 302045Z 19008KT 160V240 CAVOK 20/16 Q1009 NOSIG=
201011302030 METAR LMML NIL=
201011302015 METAR LMML 302015Z 19006KT 160V240 CAVOK 20/16 Q1009 NOSIG=
201011302000 METAR LMML NIL=
201011301945 METAR LMML 301945Z 18006KT 160V220 CAVOK 20/16 Q1009 NOSIG=
201011301930 METAR LMML NIL=
201011301915 METAR LMML 301915Z 19007KT 170V230 CAVOK 20/15 Q1009 NOSIG=
201011301900 METAR LMML NIL=
201011301845 METAR LMML 301845Z 20007KT 170V230 CAVOK 20/15 Q1008 NOSIG=
201011301830 METAR LMML NIL=
201011301815 METAR LMML 301815Z 20008KT 170V240 CAVOK 20/14 Q1008 NOSIG=
201011301800 METAR LMML NIL=
201011301745 METAR LMML 301745Z 21011KT 180V240 CAVOK 20/14 Q1008 NOSIG=
201011301730 METAR LMML NIL=
201011301715 METAR LMML 301715Z 21010KT 180V240 CAVOK 19/14 Q1008 NOSIG=
201011301700 METAR LMML NIL=
201011301645 METAR LMML 301645Z 21009KT 180V250 CAVOK 19/15 Q1008 NOSIG=
201011301630 METAR LMML NIL=
201011301615 METAR LMML 301615Z 21008KT 180V240 CAVOK 19/15 Q1008 NOSIG=
201011301600 METAR LMML NIL=
201011301545 METAR LMML 301545Z 21009KT 180V250 CAVOK 19/14 Q1008 NOSIG=
201011301530 METAR LMML NIL=
201011301515 METAR LMML 301515Z 21009KT 180V260 CAVOK 20/14 Q1008 NOSIG=
201011301500 METAR LMML NIL=
201011301445 METAR LMML 301445Z 22010KT 180V260 CAVOK 20/14 Q1008 NOSIG=
201011301430 METAR LMML NIL=
201011301415 METAR LMML 301415Z 22011KT 180V250 CAVOK 21/15 Q1008 NOSIG=
201011301400 METAR LMML NIL=
201011301345 METAR LMML 301345Z 21011KT 170V260 CAVOK 21/15 Q1008 NOSIG=
201011301330 METAR LMML NIL=
201011301315 METAR LMML 301315Z 20011KT 160V260 CAVOK 22/15 Q1008 NOSIG=
201011301245 METAR LMML 301245Z 20013KT 170V240 CAVOK 21/15 Q1008 NOSIG=
201011301230 METAR LMML NIL=
201011301215 METAR LMML 301215Z 20014KT 170V240 CAVOK 22/16 Q1008 NOSIG=
201011301200 METAR LMML NIL=
201011301145 METAR LMML 301145Z 20013KT 170V240 CAVOK 21/16 Q1009 NOSIG=
201011301130 METAR LMML NIL=
201011301115 METAR LMML 301115Z 20014KT 170V230 CAVOK 22/15 Q1009 NOSIG=
201011301100 METAR LMML NIL=
201011301045 METAR LMML 301045Z 20012KT 160V250 CAVOK 22/15 Q1010 NOSIG=
201011301030 METAR LMML NIL=
201011301015 METAR LMML 301015Z 20011KT 170V250 CAVOK 22/16 Q1010 NOSIG=
201011301000 METAR LMML NIL=
201011300945 METAR LMML 300945Z 20012KT 160V230 CAVOK 22/15 Q1010 NOSIG=
201011300930 METAR LMML NIL=
201011300915 METAR LMML 300915Z 20011KT 160V250 CAVOK 21/16 Q1011 NOSIG=
201011300845 METAR LMML 300845Z 20012KT 160V240 CAVOK 21/16 Q1011 NOSIG=
201011300830 METAR LMML NIL=
201011300815 METAR LMML 300815Z 20010KT 170V250 CAVOK 21/15 Q1010 NOSIG=
201011300800 METAR LMML NIL=
201011300745 METAR LMML 300745Z 20010KT 160V250 CAVOK 20/16 Q1011 NOSIG=
201011300730 METAR LMML NIL=
201011300715 METAR LMML 300715Z 20009KT 160V240 CAVOK 20/16 Q1010 NOSIG=
201011300700 METAR LMML NIL=
201011300645 METAR LMML 300645Z 21009KT 170V250 CAVOK 20/16 Q1010 NOSIG=
201011300630 METAR LMML NIL=
201011300615 METAR LMML 300615Z 20009KT 160V260 CAVOK 20/16 Q1010 NOSIG=
201011300600 METAR LMML NIL=
201011300545 METAR LMML 300545Z 20008KT 170V240 CAVOK 19/16 Q1010 NOSIG=
201011300530 METAR LMML NIL=
201011300515 METAR LMML 300515Z 20009KT 160V250 CAVOK 19/16 Q1010 NOSIG=
201011300500 METAR LMML NIL=
201011300445 METAR LMML 300445Z 20007KT 160V230 CAVOK 19/16 Q1010 NOSIG=
201011300430 METAR LMML NIL=
201011300415 METAR LMML 300415Z 20007KT 160V240 CAVOK 19/16 Q1010 NOSIG=
201011300345 METAR LMML 300345Z 20007KT 170V240 CAVOK 19/16 Q1010 NOSIG=
201011300330 METAR LMML NIL=
201011300315 METAR LMML 300315Z 20010KT 160V250 9000 NSC 20/16 Q1010 NOSIG=
201011300300 METAR LMML NIL=
201011300245 METAR LMML 300245Z 19011KT 160V220 9000 NSC 20/16 Q1010 NOSIG=
201011300230 METAR LMML NIL=
201011300215 METAR LMML 300215Z 18012KT 150V210 9000 NSC 20/16 Q1011 NOSIG=
201011300200 METAR LMML NIL=
201011300145 METAR LMML 300145Z 18014KT CAVOK 20/16 Q1011 NOSIG=
201011300130 METAR LMML NIL=
201011300115 METAR LMML 300115Z 18012KT 140V210 CAVOK 20/15 Q1011 NOSIG=
201011300045 METAR LMML 300045Z 17011KT 130V200 CAVOK 19/15 Q1011 NOSIG=
201011300015 METAR LMML 300015Z 17014KT 140V200 CAVOK 19/15 Q1011 NOSIG=
201011292345 METAR LMML 292345Z 17013KT 140V200 CAVOK 19/15 Q1011 NOSIG=
201011292315 METAR LMML 292315Z 17012KT 140V210 CAVOK 19/15 Q1011 NOSIG=
201011292300 METAR LMML NIL=
201011292245 METAR LMML 292245Z 16013KT CAVOK 18/17 Q1011 NOSIG=
201011292230 METAR LMML NIL=
201011292215 METAR LMML 292215Z 16013KT 120V190 CAVOK 18/17 Q1011 NOSIG=
201011292200 METAR LMML NIL=
201011292145 METAR LMML 292145Z 16010KT 130V190 CAVOK 18/16 Q1012 NOSIG=
201011292130 METAR LMML NIL=
201011292115 METAR LMML 292115Z 15011KT 120V180 CAVOK 18/16 Q1013 NOSIG=
201011292045 METAR LMML 292045Z 15010KT CAVOK 18/15 Q1013 NOSIG=
201011292030 METAR LMML NIL=
201011292015 METAR LMML 292015Z 16010KT CAVOK 17/15 Q1013 NOSIG=
201011292000 METAR LMML NIL=
201011291945 METAR LMML 291945Z 16009KT CAVOK 17/15 Q1013 NOSIG=
201011291930 METAR LMML NIL=
201011291915 METAR LMML 291915Z 16008KT CAVOK 17/14 Q1013 NOSIG=
201011291900 METAR LMML NIL=
201011291845 METAR LMML 291845Z 17008KT CAVOK 17/14 Q1014 NOSIG=
201011291830 METAR LMML NIL=
201011291815 METAR LMML 291815Z 18008KT 150V210 CAVOK 17/13 Q1014 NOSIG=
201011291800 METAR LMML NIL=
201011291745 METAR LMML 291745Z 18008KT 140V210 CAVOK 17/12 Q1014 NOSIG=
201011291730 METAR LMML NIL=
201011291715 METAR LMML 291715Z 17004KT 140V210 CAVOK 16/11 Q1014 NOSIG=
201011291700 METAR LMML NIL=
201011291645 METAR LMML 291645Z 17006KT 140V210 CAVOK 16/11 Q1013 NOSIG=
201011291630 METAR LMML NIL=
201011291615 METAR LMML 291615Z 18005KT 160V220 CAVOK 17/10 Q1014 NOSIG=
201011291600 METAR LMML NIL=
201011291545 METAR LMML 291545Z 19005KT 160V220 CAVOK 17/10 Q1014 NOSIG=
201011291530 METAR LMML NIL=
201011291515 METAR LMML 291515Z 20005KT 160V230 CAVOK 18/11 Q1014 NOSIG=
201011291500 METAR LMML NIL=
201011291445 METAR LMML 291445Z 20006KT 170V240 CAVOK 18/10 Q1014 NOSIG=
201011291430 METAR LMML NIL=
201011291415 METAR LMML 291415Z 22004KT 170V280 CAVOK 19/11 Q1014 NOSIG=
201011291400 METAR LMML NIL=
201011291345 METAR LMML 291345Z 22004KT 190V250 CAVOK 19/09 Q1013 NOSIG=
201011291330 METAR LMML NIL=
201011291315 METAR LMML 291315Z 28004KT 210V330 CAVOK 19/09 Q1014 NOSIG=
201011291300 METAR LMML NIL=
201011291245 METAR LMML 291245Z 26004KT 210V320 CAVOK 19/10 Q1014 NOSIG=
201011291230 METAR LMML NIL=
201011291215 METAR LMML 291215Z 24006KT 200V280 9999 FEW028 BKN250 19/10
                        Q1014 NOSIG=
201011291200 METAR LMML NIL=
201011291145 METAR LMML 291145Z 24007KT 200V280 9999 FEW028 BKN250 19/10
                        Q1014 NOSIG=
201011291130 METAR LMML NIL=
201011291115 METAR LMML 291115Z 23008KT 200V280 9999 FEW028 BKN250 19/11
                        Q1014 NOSIG=
201011291100 METAR LMML NIL=
201011291045 METAR LMML 291045Z 23007KT 200V280 9999 FEW028 BKN250 19/11
                        Q1015 NOSIG=
201011291030 METAR LMML NIL=
201011291015 METAR LMML 291015Z 24007KT 200V280 9999 FEW028 BKN250 19/11
                        Q1015 NOSIG=
201011291000 METAR LMML NIL=
201011290945 METAR LMML 290945Z 26007KT 220V300 9999 FEW028 BKN250 19/11
                        Q1015 NOSIG=
201011290930 METAR LMML NIL=
201011290915 METAR LMML 290915Z 27006KT 230V300 9999 FEW028 BKN250 18/11
                        Q1015 NOSIG=
201011290900 METAR LMML NIL=
201011290845 METAR LMML 290845Z 27005KT 230V290 9999 FEW028 BKN250 18/11
                        Q1015 NOSIG=
201011290830 METAR LMML NIL=
201011290815 METAR LMML 290815Z 27004KT 200V300 9999 FEW028 BKN250 18/12
                        Q1015 NOSIG=
201011290800 METAR LMML NIL=
201011290745 METAR LMML 290745Z 27005KT 240V310 9999 FEW028 BKN250 16/12
                        Q1015 NOSIG RMK SMOKE TO NORTH=
201011290730 METAR LMML NIL=
201011290715 METAR LMML 290715Z VRB02KT 9999 FEW028 BKN250 15/12 Q1014
                        NOSIG RMK SMOKE TO NORTH=
201011290700 METAR LMML NIL=
201011290645 METAR LMML 290645Z 25003KT 9999 FEW028 BKN250 14/12 Q1013
                        NOSIG RMK SMOKE TO NORTH=
201011290630 METAR LMML NIL=
201011290615 METAR LMML 290615Z 27003KT 9999 FEW026 BKN250 14/12 Q1013=
201011290600 METAR LMML NIL=
201011290545 METAR LMML 290545Z 29003KT 9999 SCT028 SCT250 15/12 Q1013=
201011290530 METAR LMML NIL=
201011290515 METAR LMML 290515Z 29003KT 9999 SCT022 15/12 Q1012=
201011290500 METAR LMML NIL=
201011290445 METAR LMML 290445Z 30004KT 9999 FEW030 15/12 Q1012=
201011290430 METAR LMML NIL=
201011290415 METAR LMML 290415Z 30006KT 9999 FEW023 15/12 Q1012=
201011290400 METAR LMML NIL=
201011290345 METAR LMML 290345Z 30005KT 9999 FEW024 15/12 Q1012=
201011290330 METAR LMML NIL=
201011290315 METAR LMML 290315Z 31008KT 9999 FEW027 15/12 Q1012=
201011290300 METAR LMML NIL=
201011290245 METAR LMML 290245Z 31010KT 9999 FEW023 15/12 Q1012=
201011290230 METAR LMML NIL=
201011290215 METAR LMML 290215Z 31010KT 9999 FEW025 15/12 Q1012=
201011290200 METAR LMML NIL=
201011290145 METAR LMML 290145Z 30008KT 9999 FEW025 15/12 Q1011=
201011290130 METAR LMML NIL=
201011290115 METAR LMML 290115Z 30008KT 9999 FEW020 16/12 Q1011=
201011290100 METAR LMML NIL=
201011290045 METAR LMML 290045Z 30008KT 9999 FEW020 16/12 Q1010=
201011290030 METAR LMML NIL=
201011290015 METAR LMML 290015Z 29005KT 9999 FEW020 16/13 Q1010=
201011290000 METAR LMML NIL=
201011282345 METAR LMML 282345Z 30008KT 9999 FEW020 16/13 Q1010=
201011282330 METAR LMML NIL=
201011282315 METAR LMML 282315Z 31009KT 9999 FEW020 16/13 Q1010=
201011282300 METAR LMML NIL=
201011282245 METAR LMML 282245Z 31010KT 9999 FEW020 16/14 Q1010=
201011282230 METAR LMML NIL=
201011282215 METAR LMML 282215Z 30009KT CAVOK 17/14 Q1010=
201011282200 METAR LMML NIL=
201011282145 METAR LMML 282145Z 30009KT 270V330 CAVOK 17/14 Q1009=
201011282130 METAR LMML NIL=
201011282115 METAR LMML 282115Z 30010KT CAVOK 18/14 Q1009=
201011282045 METAR LMML 282045Z 27019G30KT 220V300 5000 FEW036 19/14 Q1008=
201011282030 METAR LMML NIL=
201011282015 METAR LMML 282015Z 24012KT 200V280 5000 NSC 20/14 Q1007=
201011282000 METAR LMML NIL=
201011281945 METAR LMML 281945Z 23013KT 210V280 5000 NSC 20/14 Q1007 NOSIG=
201011281930 METAR LMML NIL=
201011281915 METAR LMML 281915Z 23014KT 200V280 5000 NSC 20/14 Q1007 NOSIG=
201011281900 METAR LMML NIL=
201011281845 METAR LMML 281845Z 23014KT 200V270 CAVOK 20/15 Q1006 TEMPO
                        5000 DU=
201011281830 METAR LMML NIL=
201011281815 METAR LMML 281815Z 22013KT 200V260 CAVOK 20/15 Q1006 NOSIG=
201011281800 METAR LMML NIL=
201011281745 METAR LMML 281745Z 21011KT 180V260 CAVOK 21/14 Q1006 NOSIG=
201011281730 METAR LMML NIL=
201011281715 METAR LMML 281715Z 21011KT 180V260 CAVOK 21/15 Q1005 NOSIG=
201011281700 METAR LMML NIL=
201011281645 METAR LMML 281645Z 21012KT 170V270 CAVOK 21/15 Q1005 NOSIG=
201011281630 METAR LMML NIL=
201011281615 METAR LMML 281615Z 21010KT 150V240 CAVOK 20/14 Q1004 NOSIG=
201011281600 METAR LMML NIL=
201011281545 METAR LMML 281545Z 21011KT 180V260 CAVOK 21/14 Q1004 NOSIG=
201011281515 METAR LMML 281515Z 21012KT 180V260 CAVOK 21/14 Q1004 NOSIG=
201011281500 METAR LMML NIL=
201011281445 METAR LMML 281445Z 21013KT 170V260 CAVOK 21/14 Q1004 NOSIG=
201011281430 METAR LMML NIL=
201011281415 METAR LMML 281415Z 22014KT 190V260 CAVOK 21/15 Q1004 NOSIG=
201011281400 METAR LMML NIL=
201011281345 METAR LMML 281345Z 22014KT 180V280 CAVOK 22/14 Q1003 NOSIG=
201011281330 METAR LMML NIL=
201011281315 METAR LMML 281315Z 22016KT 200V260 CAVOK 22/14 Q1003 NOSIG=
201011281300 METAR LMML NIL=
201011281245 METAR LMML 281245Z 22014KT 170V260 CAVOK 22/14 Q1003 NOSIG=
201011281230 METAR LMML NIL=
201011281215 METAR LMML 281215Z 21013KT 170V260 CAVOK 22/15 Q1002 NOSIG=
201011281200 METAR LMML NIL=
201011281145 METAR LMML 281145Z 22014KT 190V260 CAVOK 22/14 Q1002 NOSIG=
201011281115 METAR LMML 281115Z 22015KT 150V260 CAVOK 22/14 Q1003 NOSIG=
201011281100 METAR LMML NIL=
201011281045 METAR LMML 281045Z 22014KT 180V260 CAVOK 22/14 Q1003 NOSIG=
201011281030 METAR LMML NIL=
201011281015 METAR LMML 281015Z 22014KT 190V260 CAVOK 23/14 Q1003 NOSIG=
201011281000 METAR LMML NIL=
201011280945 METAR LMML 280945Z 22014KT 190V270 CAVOK 22/14 Q1003 NOSIG=
201011280930 METAR LMML NIL=
201011280915 METAR LMML 280915Z 21012KT 180V260 CAVOK 22/14 Q1003 NOSIG=
201011280900 METAR LMML NIL=
201011280845 METAR LMML 280845Z 20010KT 160V240 CAVOK 22/15 Q1003 NOSIG=
201011280830 METAR LMML NIL=
201011280815 METAR LMML 280815Z 19013KT 160V240 CAVOK 22/13 Q1003 NOSIG=
201011280800 METAR LMML NIL=
201011280745 METAR LMML 280745Z 19012KT 150V240 CAVOK 22/15 Q1003 NOSIG=
201011280730 METAR LMML NIL=
201011280715 METAR LMML 280715Z 18014KT 150V230 CAVOK 22/15 Q1003 NOSIG=
201011280700 METAR LMML NIL=
201011280645 METAR LMML 280645Z 17010KT 140V210 CAVOK 21/14 Q1003 TEMPO
                        8000 FEW005=
201011280630 METAR LMML NIL=
201011280615 METAR LMML 280615Z 17008KT 150V210 CAVOK 21/15 Q1003 TEMPO
                        8000 FEW005=
201011280600 METAR LMML NIL=
201011280545 METAR LMML 280545Z 18006KT 150V210 CAVOK 20/15 Q1003 TEMPO
                        8000 FEW005=
201011280530 METAR LMML NIL=
201011280515 METAR LMML 280515Z 18008KT CAVOK 20/16 Q1004 TEMPO 8000 FEW005=
201011280500 METAR LMML NIL=
201011280445 METAR LMML 280445Z 18013G23KT 150V210 CAVOK 22/13 Q1003 TEMPO
                        8000 FEW005=
201011280430 METAR LMML NIL=
201011280415 METAR LMML 280415Z 17007KT 140V210 CAVOK 20/15 Q1003 TEMPO
                        8000 FEW005=
201011280400 METAR LMML NIL=
201011280345 METAR LMML 280345Z 17007KT 140V200 CAVOK 20/15 Q1004 TEMPO
                        5000 BR BKN004=
201011280330 METAR LMML NIL=
201011280315 METAR LMML 280315Z 18004KT CAVOK 19/15 Q1004 TEMPO 5000 BR
                        BKN004=
201011280300 METAR LMML NIL=
201011280245 METAR LMML 280245Z 16004KT 9999 FEW008 SCT250 18/16 Q1004
                        TEMPO 5000 BR BKN004=
201011280230 METAR LMML NIL=
201011280215 METAR LMML 280215Z 16005KT 120V200 9000 FEW005 19/16 Q1005
                        TEMPO 5000 BR BKN004=
201011280200 METAR LMML NIL=
201011280145 METAR LMML 280145Z 16004KT 120V210 2500 FEW001 17/17 Q1005
                        TEMPO 0800 BCFG BKN001=
201011280131 SPECI LMML 280131Z 15004KT 120V210 2500 BR FEW001 SCT250
                        17/17 Q1005 TEMPO 0800 BCFG BKN001=
201011280130 METAR LMML NIL=
201011280115 METAR LMML 280115Z 15004KT 120V180 0900 R13/1401VP1500D BCFG
                        SCT001 SCT250 18/18 Q1005 TEMPO 0800
                        BCFG BKN001=
201011280100 METAR LMML NIL=
201011280045 METAR LMML 280045Z 14007KT 120V180 4500 BR SCT002 SCT250
                        18/18 Q1006 TEMPO 3000 BR BKN002=
201011280030 METAR LMML NIL=
201011280015 METAR LMML 280015Z 14008KT 110V170 4500 BR BKN002 18/18 Q1006
                        TEMPO 3000 BR BKN002=
201011280000 METAR LMML NIL=
201011272345 METAR LMML 272345Z 15008KT 6000 BKN004 18/18 Q1006 TEMPO
                        5000 BKN003=
201011272330 METAR LMML NIL=
201011272315 METAR LMML 272315Z 14007KT 7000 SCT004 18/17 Q1007 TEMPO
                        5000 BKN003=
201011272300 METAR LMML NIL=
201011272245 METAR LMML 272245Z 14007KT 110V170 7000 SCT005 17/17 Q1007
                        TEMPO 5000 BKN003=
201011272230 METAR LMML NIL=
201011272215 METAR LMML 272215Z 14007KT 7000 BKN005 17/17 Q1007 TEMPO
                        5000 BKN003=
201011272200 METAR LMML NIL=
201011272145 METAR LMML 272145Z 14008KT 9999 BKN005 17/17 Q1007 TEMPO
                        BKN005=
201011272130 METAR LMML NIL=
201011272115 METAR LMML 272115Z 12006KT 9999 BKN006 16/16 Q1007 TEMPO
                        BKN005=
201011272100 METAR LMML NIL=
201011272045 METAR LMML 272045Z 13006KT 9999 BKN006 16/16 Q1008 TEMPO
                        BKN005=
201011272030 METAR LMML NIL=
201011272015 METAR LMML 272015Z 13005KT 9999 BKN007 16/16 Q1008 TEMPO
                        BKN005=
201011272000 METAR LMML NIL=
201011271945 METAR LMML 271945Z 13006KT 9999 BKN007 16/16 Q1008 TEMPO
                        BKN005=
201011271930 METAR LMML NIL=
201011271915 METAR LMML 271915Z 12005KT 9999 BKN007 16/16 Q1008 TEMPO
                        BKN005=
201011271900 METAR LMML NIL=
201011271845 METAR LMML 271845Z 11004KT 9999 SCT006 16/16 Q1008 TEMPO
                        BKN005=
201011271830 METAR LMML NIL=
201011271815 METAR LMML 271815Z 14005KT 110V180 9999 FEW007 17/16 Q1008
                        NOSIG=
201011271800 METAR LMML NIL=
201011271745 METAR LMML 271745Z 14007KT 9999 BKN007 16/16 Q1008 TEMPO
                        BKN005=
201011271730 METAR LMML NIL=
201011271715 METAR LMML 271715Z 13007KT 9999 BKN007 17/16 Q1008 TEMPO
                        BKN005=
201011271700 METAR LMML NIL=
201011271645 METAR LMML 271645Z 14006KT 9999 BKN008 17/16 Q1008 NOSIG=
201011271630 METAR LMML NIL=
201011271615 METAR LMML 271615Z 14007KT 9999 BKN008 17/15 Q1007 NOSIG=
201011271600 METAR LMML NIL=
201011271545 METAR LMML 271545Z 13006KT 9999 BKN009 17/15 Q1007 NOSIG=
201011271530 METAR LMML NIL=
201011271515 METAR LMML 271515Z 12007KT 9999 SCT010 17/15 Q1007 TEMPO
                        BKN010=
201011271500 METAR LMML NIL=
201011271445 METAR LMML 271445Z 13008KT 9999 SCT010 18/15 Q1007 TEMPO
                        BKN010=
201011271430 METAR LMML NIL=
201011271415 METAR LMML 271415Z 13009KT 100V170 9999 SCT012 18/15 Q1007
                        TEMPO 9000 BKN010=
201011271400 METAR LMML NIL=
201011271345 METAR LMML 271345Z 12009KT 090V150 9999 SCT013 18/15 Q1008
                        NOSIG=
201011271330 METAR LMML NIL=
201011271315 METAR LMML 271315Z 11008KT 080V140 9999 FEW013 19/15 Q1008
                        NOSIG=
201011271300 METAR LMML NIL=
201011271245 METAR LMML 271245Z 12008KT 080V150 9999 FEW013 19/15 Q1008
                        NOSIG=
201011271230 METAR LMML NIL=
201011271215 METAR LMML 271215Z 13008KT 100V160 9999 FEW013 19/14 Q1008
                        NOSIG=
201011271200 METAR LMML NIL=
201011271145 METAR LMML 271145Z 11008KT 070V140 9999 FEW013 19/15 Q1008
                        NOSIG=
201011271130 METAR LMML NIL=
201011271115 METAR LMML 271115Z 10008KT 060V150 9999 FEW014 19/14 Q1009
                        NOSIG=
201011271100 METAR LMML NIL=
201011271045 METAR LMML 271045Z 09008KT 050V130 9999 FEW014 19/14 Q1009
                        NOSIG=
201011271030 METAR LMML NIL=
201011271015 METAR LMML 271015Z 09010KT 9999 FEW014 18/14 Q1009 NOSIG=
201011271000 METAR LMML NIL=
201011270945 METAR LMML 270945Z 08009KT 050V120 9999 FEW014 19/15 Q1009
                        NOSIG=
201011270930 METAR LMML NIL=
201011270915 METAR LMML 270915Z 09008KT 040V110 9999 FEW030 19/13 Q1009
                        NOSIG=
201011270900 METAR LMML NIL=
201011270845 METAR LMML 270845Z 04006KT 360V080 CAVOK 19/11 Q1009 NOSIG=
201011270830 METAR LMML NIL=
201011270815 METAR LMML 270815Z 04006KT CAVOK 19/10 Q1009 NOSIG=
201011270745 METAR LMML 270745Z 02004KT 340V050 CAVOK 18/10 Q1008 NOSIG=
201011270715 METAR LMML 270715Z 33005KT CAVOK 15/10 Q1008 NOSIG=
201011270700 METAR LMML NIL=
201011270645 METAR LMML 270645Z 33005KT CAVOK 14/10 Q1008 NOSIG=
201011270630 METAR LMML NIL=
201011270615 METAR LMML 270615Z 34006KT CAVOK 13/09 Q1008 NOSIG=
201011270600 METAR LMML NIL=
201011270545 METAR LMML 270545Z 34008KT CAVOK 14/08 Q1008 NOSIG=
201011270530 METAR LMML NIL=
201011270515 METAR LMML 270515Z 34007KT CAVOK 13/08 Q1008 NOSIG=
201011270445 METAR LMML 270445Z 35007KT CAVOK 14/07 Q1008 NOSIG=
201011270430 METAR LMML NIL=
201011270415 METAR LMML 270415Z 35008KT CAVOK 14/07 Q1008 NOSIG=
201011270400 METAR LMML NIL=
201011270345 METAR LMML 270345Z 34007KT 320V020 CAVOK 14/06 Q1008 NOSIG=
201011270330 METAR LMML NIL=
201011270315 METAR LMML 270315Z 35008KT CAVOK 14/07 Q1008 NOSIG=
201011270300 METAR LMML NIL=
201011270245 METAR LMML 270245Z 34009KT CAVOK 15/08 Q1008 NOSIG=
201011270230 METAR LMML NIL=
201011270215 METAR LMML 270215Z 34010KT CAVOK 15/09 Q1008 NOSIG=
201011270200 METAR LMML NIL=
201011270145 METAR LMML 270145Z 34009KT CAVOK 15/08 Q1008 NOSIG=
201011270130 METAR LMML NIL=
201011270115 METAR LMML 270115Z 34008KT CAVOK 15/10 Q1008 NOSIG=
201011270045 METAR LMML 270045Z 33007KT CAVOK 15/11 Q1008 NOSIG=
201011270030 METAR LMML NIL=
201011270015 METAR LMML 270015Z 34008KT CAVOK 15/12 Q1008 NOSIG=
201011270000 METAR LMML NIL=
201011262345 METAR LMML 262345Z 34005KT CAVOK 14/12 Q1008 NOSIG=
201011262330 METAR LMML NIL=
201011262315 METAR LMML 262315Z 34004KT 9999 FEW020 SCT120 BKN250 15/12
                        Q1008 NOSIG=
201011262300 METAR LMML NIL=
201011262245 METAR LMML 262245Z 35005KT 9999 FEW020 SCT120 BKN250 15/12
                        Q1009 NOSIG=
201011262230 METAR LMML NIL=
201011262215 METAR LMML 262215Z 35005KT 9999 FEW020 BKN250 15/12 Q1008
                        NOSIG=
201011262200 METAR LMML NIL=
201011262145 METAR LMML 262145Z 36006KT 9999 FEW018 BKN250 16/13 Q1008
                        NOSIG=
201011262130 METAR LMML NIL=
201011262115 METAR LMML 262115Z 34004KT 9999 FEW017 BKN250 15/13 Q1008
                        NOSIG=
201011262100 METAR LMML NIL=
201011262045 METAR LMML 262045Z 34005KT 9999 FEW016 BKN250 16/13 Q1008
                        NOSIG=
201011262030 METAR LMML NIL=
201011262015 METAR LMML 262015Z 34004KT 9999 FEW016 BKN250 15/14 Q1008
                        NOSIG=
201011262000 METAR LMML NIL=
201011261945 METAR LMML 261945Z 34005KT 9999 FEW030 BKN250 16/13 Q1008
                        NOSIG=
201011261930 METAR LMML NIL=
201011261915 METAR LMML 261915Z 33004KT 280V040 9999 FEW030 BKN250 16/13
                        Q1008 NOSIG=
201011261900 METAR LMML NIL=
201011261845 METAR LMML 261845Z 31004KT 9999 FEW030 BKN250 16/13 Q1008
                        NOSIG=
201011261830 METAR LMML NIL=
201011261815 METAR LMML 261815Z 31006KT CAVOK 16/13 Q1007 NOSIG=
201011261800 METAR LMML NIL=
201011261745 METAR LMML 261745Z 30004KT CAVOK 16/13 Q1007 NOSIG=
201011261730 METAR LMML NIL=
201011261715 METAR LMML 261715Z 30005KT CAVOK 16/13 Q1007 NOSIG=
201011261700 METAR LMML NIL=
201011261645 METAR LMML 261645Z 30005KT CAVOK 17/13 Q1007 NOSIG=
201011261630 METAR LMML NIL=
201011261615 METAR LMML 261615Z 29006KT CAVOK 18/14 Q1007 NOSIG=
201011261545 METAR LMML 261545Z 26009KT 230V290 CAVOK 19/14 Q1007 NOSIG=
201011261515 METAR LMML 261515Z 26011KT 230V300 9999 FEW025 BKN250 19/14
                        Q1006 NOSIG=
201011261500 METAR LMML NIL=
201011261445 METAR LMML 261445Z 25011KT 210V280 9999 FEW025 BKN250 20/14
                        Q1006 NOSIG=
201011261430 METAR LMML NIL=
201011261415 METAR LMML 261415Z 24011KT 200V280 9999 FEW025 BKN250 20/14
                        Q1006 NOSIG=
201011261400 METAR LMML NIL=
201011261345 METAR LMML 261345Z 24013KT 200V290 CAVOK 21/14 Q1006 NOSIG=
201011261330 METAR LMML NIL=
201011261315 METAR LMML 261315Z 23011KT 200V280 CAVOK 21/15 Q1006 NOSIG=
201011261300 METAR LMML NIL=
201011261245 METAR LMML 261245Z 23014KT 190V280 CAVOK 21/14 Q1006 NOSIG=
201011261230 METAR LMML NIL=
201011261215 METAR LMML 261215Z 24011KT 190V290 CAVOK 22/14 Q1006 NOSIG=
201011261145 METAR LMML 261145Z 22012KT 190V270 CAVOK 22/14 Q1006 NOSIG=
201011261130 METAR LMML NIL=
201011261115 METAR LMML 261115Z 22014KT 200V260 CAVOK 21/15 Q1007 NOSIG=
201011261100 METAR LMML NIL=
201011261045 METAR LMML 261045Z 22012KT 200V260 CAVOK 22/15 Q1007 NOSIG=
201011261030 METAR LMML NIL=
201011261015 METAR LMML 261015Z 22014KT 200V270 CAVOK 22/14 Q1008 NOSIG=
201011261000 METAR LMML NIL=
201011260945 METAR LMML 260945Z 22013KT 200V260 CAVOK 21/14 Q1008 NOSIG=
201011260930 METAR LMML NIL=
201011260915 METAR LMML 260915Z 22012KT 190V260 CAVOK 21/15 Q1008 NOSIG=
201011260900 METAR LMML NIL=
201011260845 METAR LMML 260845Z 21009KT 180V260 CAVOK 20/15 Q1008 NOSIG=
201011260830 METAR LMML NIL=
201011260815 METAR LMML 260815Z 22009KT 180V260 CAVOK 20/15 Q1008 NOSIG=
201011260800 METAR LMML NIL=
201011260745 METAR LMML 260745Z 21009KT 160V240 9999 -RA FEW029 SCT050
                        BKN090 19/14 Q1008 NOSIG=
201011260730 METAR LMML NIL=
201011260715 METAR LMML 260715Z 22010KT 190V250 9999 -RA FEW030 SCT090
                        BKN120 19/14 Q1008 NOSIG=
201011260700 METAR LMML NIL=
201011260645 METAR LMML 260645Z 22009KT 180V260 9999 FEW030 SCT080 BKN120
                        19/14 Q1008 NOSIG=
201011260630 METAR LMML NIL=
201011260615 METAR LMML 260615Z 22010KT 200V270 CAVOK 19/14 Q1008 NOSIG=
201011260600 METAR LMML NIL=
201011260545 METAR LMML 260545Z 22011KT 190V270 CAVOK 19/14 Q1008 NOSIG=
201011260530 METAR LMML NIL=
201011260515 METAR LMML 260515Z 22012KT 190V270 CAVOK 19/15 Q1008 NOSIG=
201011260500 METAR LMML NIL=
201011260445 METAR LMML 260445Z 22011KT 190V260 CAVOK 19/14 Q1008 NOSIG=
201011260415 METAR LMML 260415Z 22011KT 190V260 CAVOK 19/14 Q1008 NOSIG=
201011260400 METAR LMML NIL=
201011260345 METAR LMML 260345Z 21010KT 170V270 CAVOK 18/14 Q1008 NOSIG=
201011260315 METAR LMML 260315Z 20010KT 170V240 CAVOK 18/14 Q1008 NOSIG=
201011260245 METAR LMML 260245Z 20010KT 170V250 CAVOK 18/14 Q1009 NOSIG=
201011260230 METAR LMML NIL=
201011260215 METAR LMML 260215Z 20010KT 160V250 CAVOK 18/13 Q1009 NOSIG=
201011260145 METAR LMML 260145Z 20008KT 170V250 CAVOK 17/13 Q1009 NOSIG=
201011260130 METAR LMML NIL=
201011260115 METAR LMML 260115Z 20007KT 160V240 9999 -RA NSC 17/13 Q1009
                        NOSIG=
201011260100 METAR LMML NIL=
201011260045 METAR LMML 260045Z 20007KT 160V230 CAVOK 17/13 Q1010 NOSIG=
201011260015 METAR LMML 260015Z 20007KT 150V250 CAVOK 17/12 Q1010 NOSIG=
201011252345 METAR LMML 252345Z 20006KT 160V240 CAVOK 16/12 Q1010 NOSIG=
201011252315 METAR LMML 252315Z 20005KT 170V240 9999 FEW024 BKN100 16/12
                        Q1011 NOSIG=
201011252245 METAR LMML 252245Z 20004KT 170V240 9999 FEW024 SCT090 15/12
                        Q1011 NOSIG=
201011252215 METAR LMML 252215Z 21003KT 9999 FEW024 SCT120 14/12 Q1011
                        NOSIG=
201011252145 METAR LMML 252145Z VRB02KT 9999 FEW024 SCT120 14/13 Q1011
                        NOSIG=
201011252130 METAR LMML NIL=
201011252115 METAR LMML 252115Z VRB02KT 9999 FEW024 13/12 Q1011 NOSIG=
201011252100 METAR LMML NIL=
201011252045 METAR LMML 252045Z VRB02KT 9999 SCT024 SCT080 13/13 Q1011
                        NOSIG=
201011252030 METAR LMML NIL=
201011252015 METAR LMML 252015Z VRB01KT 9999 FEW024 SCT080 13/12 Q1012
                        NOSIG=
201011252000 METAR LMML NIL=
201011251945 METAR LMML 251945Z VRB01KT 9999 FEW019 13/12 Q1012 NOSIG=
201011251930 METAR LMML NIL=
201011251915 METAR LMML 251915Z VRB02KT 9999 FEW020 14/13 Q1012 NOSIG=
201011251900 METAR LMML NIL=
201011251845 METAR LMML 251845Z 00000KT 9999 FEW026 SCT080 14/13 Q1012
                        NOSIG=
201011251830 METAR LMML NIL=
201011251815 METAR LMML 251815Z VRB02KT 9999 FEW026 SCT090 14/13 Q1012
                        NOSIG=
201011251800 METAR LMML NIL=
201011251745 METAR LMML 251745Z VRB01KT 9999 FEW026 SCT090 14/13 Q1012
                        NOSIG=
201011251730 METAR LMML NIL=
201011251715 METAR LMML 251715Z VRB01KT 9999 FEW028 SCT090 14/13 Q1012
                        NOSIG=
201011251700 METAR LMML NIL=
201011251645 METAR LMML 251645Z VRB02KT 9999 SCT029 15/13 Q1012 NOSIG=
201011251630 METAR LMML NIL=
201011251615 METAR LMML 251615Z VRB01KT 9999 BKN027 16/13 Q1011 NOSIG=
201011251545 METAR LMML 251545Z 31003KT 9999 BKN028 16/13 Q1011 NOSIG=
201011251530 METAR LMML NIL=
201011251515 METAR LMML 251515Z 29004KT 9999 BKN027 17/13 Q1011 NOSIG=
201011251445 METAR LMML 251445Z 27007KT 230V310 9999 FEW029 SCT120 18/12
                        Q1011 NOSIG=
201011251430 METAR LMML NIL=
201011251415 METAR LMML 251415Z 28007KT 250V310 9999 FEW029 18/12 Q1011
                        NOSIG=
201011251400 METAR LMML NIL=
201011251345 METAR LMML 251345Z 27009KT 210V300 9999 SCT028 SCT250 18/12
                        Q1011 NOSIG=
201011251330 METAR LMML NIL=
201011251315 METAR LMML 251315Z 27010KT 240V320 9999 SCT028 BKN250 18/12
                        Q1011 NOSIG=
201011251300 METAR LMML NIL=
201011251245 METAR LMML 251245Z 27010KT 220V310 9999 SCT029 BKN250 18/12
                        Q1012 NOSIG=
201011251230 METAR LMML NIL=
201011251215 METAR LMML 251215Z 27010KT 240V310 9999 SCT028 SCT070 18/12
                        Q1012 NOSIG=
201011251200 METAR LMML NIL=
201011251145 METAR LMML 251145Z 22009KT 190V260 9999 BKN025TCU 16/11 Q1012
                        RESHRA TEMPO 8000 SHRA=
201011251130 METAR LMML NIL=
201011251115 METAR LMML 251115Z 24006KT 200V290 9999 BKN023TCU 16/13 Q1012
                        RESHRA TEMPO 8000 SHRA=
201011251100 METAR LMML NIL=
201011251045 METAR LMML 251045Z 26006KT 220V300 9000 +SHRA BKN029TCU SCT070
                        15/12 Q1013 BECMG 9999=
201011251030 METAR LMML NIL=
201011251015 METAR LMML 251015Z 22011KT 200V260 9999 SCT033 SCT070 18/11
                        Q1013 TEMPO 8000 SHRA=
201011250945 METAR LMML 250945Z 22011KT 190V260 9999 -SHRA SCT033 SCT070
                        18/11 Q1013 TEMPO 8000 SHRA=
201011250915 METAR LMML 250915Z 22011KT 190V290 9999 SCT034 BKN070 18/11
                        Q1013 TEMPO 8000 SHRA=
201011250900 METAR LMML NIL=
201011250845 METAR LMML 250845Z 22011KT 190V270 9999 SCT033 SCT070 18/11
                        Q1013 TEMPO 8000 SHRA=
201011250830 METAR LMML NIL=
201011250815 METAR LMML 250815Z 23008KT 200V280 9999 SCT034 BKN070 17/10
                        Q1013 NOSIG=
201011250800 METAR LMML NIL=
201011250745 METAR LMML 250745Z 23008KT 190V280 9999 SCT035 BKN070 17/09
                        Q1013 NOSIG=
201011250730 METAR LMML NIL=
201011250715 METAR LMML 250715Z 23007KT 200V290 9999 FEW030 BKN090 16/09
                        Q1013 NOSIG=
201011250700 METAR LMML NIL=
201011250645 METAR LMML 250645Z 25005KT 200V290 9999 FEW030 SCT250 15/10
                        Q1013 NOSIG=
201011250630 METAR LMML NIL=
201011250615 METAR LMML 250615Z 25005KT 230V290 9999 FEW029 14/10 Q1013
                        NOSIG=
201011250600 METAR LMML NIL=
201011250545 METAR LMML 250545Z 26006KT 230V290 9999 FEW030 SCT250 14/10
                        Q1013 NOSIG=
201011250530 METAR LMML NIL=
201011250515 METAR LMML 250515Z 25005KT 220V280 9999 FEW030 14/09 Q1012
                        NOSIG=
201011250500 METAR LMML NIL=
201011250445 METAR LMML 250445Z 26006KT 220V290 9999 FEW035 14/09 Q1012
                        NOSIG=
201011250430 METAR LMML NIL=
201011250415 METAR LMML 250415Z 27006KT 9999 FEW037 14/08 Q1012 NOSIG=
201011250400 METAR LMML NIL=
201011250345 METAR LMML 250345Z 27007KT 9999 FEW035 SCT110 14/08 Q1012
                        NOSIG=
201011250330 METAR LMML NIL=
201011250315 METAR LMML 250315Z 26007KT 220V290 9999 FEW035 SCT050 14/08
                        Q1012 NOSIG=
201011250300 METAR LMML NIL=
201011250245 METAR LMML 250245Z 27007KT 230V290 9999 FEW035 SCT050 15/08
                        Q1012 NOSIG=
201011250230 METAR LMML NIL=
201011250215 METAR LMML 250215Z 26007KT 230V290 9999 FEW036 SCT050 15/08
                        Q1013 NOSIG=
201011250200 METAR LMML NIL=
201011250145 METAR LMML 250145Z 27006KT 240V300 9999 SCT038 14/08 Q1013
                        NOSIG=
201011250130 METAR LMML NIL=
201011250115 METAR LMML 250115Z 26005KT 9999 FEW040 13/07 Q1013 NOSIG=
201011250100 METAR LMML NIL=
201011250045 METAR LMML 250045Z 27005KT 9999 FEW040 13/07 Q1013 NOSIG=
201011250030 METAR LMML NIL=
201011250015 METAR LMML 250015Z 27006KT 240V300 9999 FEW040 13/07 Q1013
                        NOSIG=
201011250000 METAR LMML NIL=
201011242345 METAR LMML 242345Z 27004KT 250V310 CAVOK 13/08 Q1013 NOSIG=
201011242330 METAR LMML NIL=
201011242315 METAR LMML 242315Z 27006KT 240V300 9999 FEW039 13/08 Q1013
                        NOSIG=
201011242300 METAR LMML NIL=
201011242245 METAR LMML 242245Z 28007KT 9999 FEW033 14/08 Q1013 NOSIG=
201011242230 METAR LMML NIL=
201011242215 METAR LMML 242215Z 28007KT 9999 FEW033 13/08 Q1013 NOSIG=
201011242200 METAR LMML NIL=
201011242145 METAR LMML 242145Z 27005KT 240V300 9999 FEW033 13/08 Q1013
                        NOSIG=
201011242130 METAR LMML NIL=
201011242115 METAR LMML 242115Z 28006KT 250V310 9999 FEW035 14/08 Q1013
                        NOSIG=
201011242100 METAR LMML NIL=
201011242045 METAR LMML 242045Z 28007KT 9999 FEW033 14/09 Q1013 NOSIG=
201011242030 METAR LMML NIL=
201011242015 METAR LMML 242015Z 28007KT 250V310 9999 FEW030 14/09 Q1013
                        NOSIG=
201011242000 METAR LMML NIL=
201011241945 METAR LMML 241945Z 29009KT 250V320 9999 FEW030 SCT060 15/09
                        Q1013 NOSIG=
201011241930 METAR LMML NIL=
201011241915 METAR LMML 241915Z 26007KT 9999 FEW035 SCT060 14/08 Q1012
                        NOSIG=
201011241845 METAR LMML 241845Z 29008KT 9999 FEW040 14/07 Q1012 NOSIG=
201011241830 METAR LMML NIL=
201011241815 METAR LMML 241815Z 29008KT 9999 FEW048 14/08 Q1012 NOSIG=
201011241800 METAR LMML NIL=
201011241745 METAR LMML 241745Z 28010KT 9999 SCT032 15/08 Q1012 NOSIG=
201011241730 METAR LMML NIL=
201011241715 METAR LMML 241715Z 28009KT 9999 SCT040 15/08 Q1011 NOSIG=
201011241700 METAR LMML NIL=
201011241645 METAR LMML 241645Z 29010KT 9999 SCT035 15/08 Q1011 NOSIG=
201011241630 METAR LMML NIL=
201011241615 METAR LMML 241615Z 28011KT 9999 FEW035 15/09 Q1011 NOSIG=
201011241600 METAR LMML NIL=
201011241545 METAR LMML 241545Z 28011KT 9999 SCT032 15/09 Q1011 NOSIG=
201011241530 METAR LMML NIL=
201011241515 METAR LMML 241515Z 28013KT 9999 SCT033 16/09 Q1011 NOSIG=
201011241445 METAR LMML 241445Z 28012KT 9999 SCT034 16/09 Q1010 NOSIG=
201011241415 METAR LMML 241415Z 26012KT 220V310 9999 SCT037 16/09 Q1010
                        NOSIG=
201011241400 METAR LMML NIL=
201011241345 METAR LMML 241345Z 25012KT 210V290 9999 SCT037 17/07 Q1010
                        NOSIG=
201011241330 METAR LMML NIL=
201011241315 METAR LMML 241315Z 26012KT 210V290 9999 FEW037 18/06 Q1010
                        NOSIG=
201011241300 METAR LMML NIL=
201011241245 METAR LMML 241245Z 27014KT 230V300 9999 FEW037 18/07 Q1010
                        NOSIG=
201011241230 METAR LMML NIL=
201011241215 METAR LMML 241215Z 28012KT 9999 SCT037 17/07 Q1010 NOSIG=
201011241200 METAR LMML NIL=
201011241145 METAR LMML 241145Z 28012KT 9999 SCT036 16/08 Q1010 NOSIG=
201011241130 METAR LMML NIL=
201011241115 METAR LMML 241115Z 26011KT 210V300 9999 SCT037 17/07 Q1011
                        NOSIG=
201011241100 METAR LMML NIL=
201011241045 METAR LMML 241045Z 25011KT 210V290 9999 SCT037 18/08 Q1011
                        NOSIG=
201011241030 METAR LMML NIL=
201011241015 METAR LMML 241015Z 27011KT 220V300 9999 SCT037 18/09 Q1011
                        NOSIG=
201011241000 METAR LMML NIL=
201011240945 METAR LMML 240945Z 27011KT 220V300 9999 SCT036 18/08 Q1011
                        NOSIG=
201011240930 METAR LMML NIL=
201011240915 METAR LMML 240915Z 28012KT 230V300 9999 SCT039 18/09 Q1011
                        NOSIG=
201011240900 METAR LMML NIL=
201011240845 METAR LMML 240845Z 27011KT 230V290 9999 SCT035 18/09 Q1011
                        NOSIG=
201011240830 METAR LMML NIL=
201011240815 METAR LMML 240815Z 27008KT 9999 FEW038 17/09 Q1011 NOSIG=
201011240800 METAR LMML NIL=
201011240745 METAR LMML 240745Z 28006KT 250V320 9999 SCT033 17/09 Q1011
                        NOSIG=
201011240730 METAR LMML NIL=
201011240715 METAR LMML 240715Z 28008KT 9999 SCT034 15/10 Q1011 NOSIG=
201011240700 METAR LMML NIL=
201011240645 METAR LMML 240645Z 29009KT 9999 SCT032 15/10 Q1010 NOSIG=
201011240630 METAR LMML NIL=
201011240615 METAR LMML 240615Z 27005KT 240V300 9999 SCT030 14/09 Q1010
                        NOSIG=
201011240600 METAR LMML NIL=
201011240545 METAR LMML 240545Z 28009KT 9999 SCT037 14/09 Q1010 NOSIG=
201011240530 METAR LMML NIL=
201011240515 METAR LMML 240515Z 27008KT 240V310 9999 SCT038 15/09 Q1010
                        TEMPO 9000 -SHRA=
201011240500 METAR LMML NIL=
201011240445 METAR LMML 240445Z 24008KT 190V280 9999 FEW041 BKN090 16/08
                        Q1010 TEMPO 9000 -SHRA=
201011240430 METAR LMML NIL=
201011240415 METAR LMML 240415Z 24007KT 200V290 9999 FEW041 BKN120 15/08
                        Q1010 NOSIG=
201011240400 METAR LMML NIL=
201011240345 METAR LMML 240345Z 25006KT 180V280 9999 FEW041 BKN120 15/07
                        Q1010 NOSIG=
201011240330 METAR LMML NIL=
201011240315 METAR LMML 240315Z 25006KT 200V300 9999 FEW039 BKN120 15/08
                        Q1010 NOSIG=
201011240300 METAR LMML NIL=
201011240245 METAR LMML 240245Z 26008KT 230V290 9999 FEW040 BKN120 16/07
                        Q1010 NOSIG=
201011240230 METAR LMML NIL=
201011240215 METAR LMML 240215Z 27007KT 230V300 9999 FEW041 BKN120 15/07
                        Q1010 NOSIG=
201011240200 METAR LMML NIL=
201011240145 METAR LMML 240145Z 28006KT 9999 FEW041 BKN120 15/07 Q1010
                        NOSIG=
201011240130 METAR LMML NIL=
201011240115 METAR LMML 240115Z 28007KT 250V340 9999 FEW040 BKN120 15/07
                        Q1010 NOSIG=
201011240045 METAR LMML 240045Z 29008KT 260V320 9999 FEW042 BKN120 15/08
                        Q1010 NOSIG=
201011240030 METAR LMML NIL=
201011240015 METAR LMML 240015Z 28010KT 250V310 9999 FEW040 BKN120 15/07
                        Q1010 NOSIG=
201011240000 METAR LMML NIL=
201011232345 METAR LMML 232345Z 28009KT 9999 FEW040 BKN120 15/07 Q1010
                        NOSIG=
201011232330 METAR LMML NIL=
201011232315 METAR LMML 232315Z 28007KT 9999 FEW038 BKN120 14/08 Q1011
                        NOSIG=
201011232300 METAR LMML NIL=
201011232245 METAR LMML 232245Z 28009KT 240V300 9999 FEW038 BKN120 15/09
                        Q1011 NOSIG=
201011232230 METAR LMML NIL=
201011232215 METAR LMML 232215Z 27007KT 230V300 9999 FEW039 BKN120 15/08
                        Q1011 NOSIG=
201011232200 METAR LMML NIL=
201011232145 METAR LMML 232145Z 28008KT 240V310 9999 FEW040 BKN120 15/07
                        Q1011 NOSIG=
201011232130 METAR LMML NIL=
201011232115 METAR LMML 232115Z 28008KT 9999 FEW040 BKN120 15/07 Q1011
                        NOSIG=
201011232100 METAR LMML NIL=
201011232045 METAR LMML 232045Z 29010KT 9999 FEW041 SCT130 15/07 Q1011
                        NOSIG=
201011232030 METAR LMML NIL=
201011232015 METAR LMML 232015Z 29006KT 9999 FEW034 SCT250 14/08 Q1010
                        NOSIG=
201011232000 METAR LMML NIL=
201011231945 METAR LMML 231945Z 31013KT 9999 FEW034 14/09 Q1011 NOSIG=
201011231930 METAR LMML NIL=
201011231915 METAR LMML 231915Z 28013KT 9999 FEW038 15/07 Q1010 NOSIG=
201011231900 METAR LMML NIL=
201011231845 METAR LMML 231845Z 28014KT 9999 SCT039 15/07 Q1010 NOSIG=
201011231830 METAR LMML NIL=
201011231815 METAR LMML 231815Z 27013KT 250V320 9999 SCT040 15/07 Q1010
                        NOSIG=
201011231745 METAR LMML 231745Z 27012KT 240V310 9999 SCT038 15/07 Q1010
                        NOSIG=
201011231730 METAR LMML NIL=
201011231715 METAR LMML 231715Z 28012KT 240V310 9999 SCT036 15/07 Q1010
                        NOSIG=
201011231700 METAR LMML NIL=
201011231645 METAR LMML 231645Z 28013KT 9999 SCT036 15/07 Q1009 NOSIG=
201011231630 METAR LMML NIL=
201011231615 METAR LMML 231615Z 28011KT 220V310 9999 SCT036 15/07 Q1009
                        NOSIG=
201011231600 METAR LMML NIL=
201011231545 METAR LMML 231545Z 28015KT 240V310 9999 SCT035 15/08 Q1009
                        NOSIG=
201011231515 METAR LMML 231515Z 28014KT 250V310 9999 SCT035 15/07 Q1009
                        NOSIG=
201011231500 METAR LMML NIL=
201011231445 METAR LMML 231445Z 27015KT 230V310 9999 SCT036 16/08 Q1009
                        NOSIG=
201011231430 METAR LMML NIL=
201011231415 METAR LMML 231415Z 28015KT 240V310 9999 SCT035 SCT250 16/08
                        Q1009 NOSIG=
201011231400 METAR LMML NIL=
201011231345 METAR LMML 231345Z 28016KT 240V310 9999 SCT035 SCT250 17/07
                        Q1009 NOSIG=
201011231330 METAR LMML NIL=
201011231315 METAR LMML 231315Z 27016KT 230V310 9999 SCT036 16/08 Q1008
                        NOSIG=
201011231300 METAR LMML NIL=
201011231245 METAR LMML 231245Z 28017KT 240V310 9999 SCT033 17/09 Q1008
                        NOSIG=
201011231230 METAR LMML NIL=
201011231215 METAR LMML 231215Z 28017G27KT 230V310 9999 SCT033 17/09 Q1008
                        NOSIG=
201011231145 METAR LMML 231145Z 27018KT 230V300 9999 SCT035 17/07 Q1008
                        NOSIG=
201011231130 METAR LMML NIL=
201011231115 METAR LMML 231115Z 27016KT 230V300 9999 SCT039 17/08 Q1009
                        NOSIG=
201011231045 METAR LMML 231045Z 28018KT 250V310 9999 SCT037 17/07 Q1009
                        NOSIG=
201011231030 METAR LMML NIL=
201011231015 METAR LMML 231015Z 28017KT 240V300 9999 SCT037 18/09 Q1009
                        NOSIG=
201011231000 METAR LMML NIL=
201011230945 METAR LMML 230945Z 28018KT 240V310 9999 SCT037 17/08 Q1009
                        NOSIG=
201011230930 METAR LMML NIL=
201011230915 METAR LMML 230915Z 28015KT 240V310 9999 SCT035 17/08 Q1009
                        NOSIG=
201011230900 METAR LMML NIL=
201011230845 METAR LMML 230845Z 27014KT 240V310 9999 SCT035 17/08 Q1009
                        NOSIG=
201011230830 METAR LMML NIL=
201011230815 METAR LMML 230815Z 28013KT 240V320 9999 SCT035 17/08 Q1008
                        NOSIG=
201011230800 METAR LMML NIL=
201011230745 METAR LMML 230745Z 28014KT 220V320 9999 SCT035 16/08 Q1008
                        NOSIG=
201011230730 METAR LMML NIL=
201011230715 METAR LMML 230715Z 28017KT 250V320 9999 SCT033 16/08 Q1008
                        NOSIG=
201011230700 METAR LMML NIL=
201011230645 METAR LMML 230645Z 28017KT 250V310 9999 SCT035 15/08 Q1008
                        NOSIG=
201011230630 METAR LMML NIL=
201011230615 METAR LMML 230615Z 28014KT 250V310 9999 SCT035 15/07 Q1008
                        NOSIG=
201011230600 METAR LMML NIL=
201011230545 METAR LMML 230545Z 27017G27KT 240V300 9999 SCT034 15/06 Q1007
                        NOSIG=
201011230530 METAR LMML NIL=
201011230515 METAR LMML 230515Z 27015KT 230V310 9999 SCT036 15/08 Q1007
                        NOSIG=
201011230500 METAR LMML NIL=
201011230445 METAR LMML 230445Z 27014KT 240V300 9999 FEW039 15/07 Q1007
                        TEMPO SHRA BKN018=
201011230430 METAR LMML NIL=
201011230415 METAR LMML 230415Z 28017KT 250V310 9999 FEW037 15/08 Q1007
                        TEMPO SHRA BKN018=
201011230400 METAR LMML NIL=
201011230345 METAR LMML 230345Z 27016KT 230V310 9999 FEW035 15/08 Q1006
                        TEMPO SHRA BKN018=
201011230330 METAR LMML NIL=
201011230315 METAR LMML 230315Z 27015KT 230V310 9999 FEW036 15/09 Q1006
                        TEMPO SHRA BKN018=
201011230300 METAR LMML NIL=
201011230245 METAR LMML 230245Z 26014KT 220V300 9999 FEW036 14/08 Q1006
                        TEMPO SHRA BKN018=
201011230230 METAR LMML NIL=
201011230215 METAR LMML 230215Z 28013KT 240V310 9999 FEW035 16/09 Q1006
                        TEMPO SHRA BKN018=
201011230200 METAR LMML NIL=
201011230145 METAR LMML 230145Z 28013KT 260V320 9999 FEW044 15/08 Q1006
                        TEMPO SHRA BKN018=
201011230130 METAR LMML NIL=
201011230115 METAR LMML 230115Z 27013KT 230V310 9999 SCT044 16/08 Q1006
                        NOSIG=
201011230100 METAR LMML NIL=
201011230045 METAR LMML 230045Z 25017G28KT 200V290 9999 SCT044 17/03 Q1006
                        NOSIG=
201011230030 METAR LMML NIL=
201011230015 METAR LMML 230015Z 24015KT 190V280 9999 SCT044 17/07 Q1006
                        NOSIG=
201011230000 METAR LMML NIL=
201011222345 METAR LMML 222345Z 24013G24KT 210V280 9999 SCT043 17/08 Q1006
                        NOSIG=
201011222330 METAR LMML NIL=
201011222315 METAR LMML 222315Z 25011KT 200V290 9999 SCT044 17/08 Q1006
                        NOSIG=
201011222300 METAR LMML NIL=
201011222245 METAR LMML 222245Z 25015KT 210V280 9999 FEW046 17/05 Q1006
                        NOSIG=
201011222230 METAR LMML NIL=
201011222215 METAR LMML 222215Z 25012KT 190V290 9999 SCT044 17/07 Q1006
                        NOSIG=
201011222200 METAR LMML NIL=
201011222145 METAR LMML 222145Z 25010KT 210V290 9999 SCT042 16/07 Q1006
                        NOSIG=
201011222130 METAR LMML NIL=
201011222115 METAR LMML 222115Z 25011KT 200V280 9999 FEW039 16/08 Q1006
                        NOSIG=
201011222100 METAR LMML NIL=
201011222045 METAR LMML 222045Z 24012KT 200V280 9999 FEW034 16/09 Q1006
                        NOSIG=
201011222030 METAR LMML NIL=
201011222015 METAR LMML 222015Z 24011KT 210V280 9999 FEW028 16/10 Q1006
                        NOSIG=
201011222000 METAR LMML NIL=
201011221945 METAR LMML 221945Z 26011KT 200V290 9999 FEW028 16/10 Q1006
                        NOSIG=
201011221930 METAR LMML NIL=
201011221915 METAR LMML 221915Z 27013G23KT 220V310 9999 SCT026 16/11 Q1006
                        NOSIG=
201011221900 METAR LMML NIL=
201011221845 METAR LMML 221845Z 24016KT 210V290 9999 FEW034 16/08 Q1006
                        NOSIG=
201011221830 METAR LMML NIL=
201011221815 METAR LMML 221815Z 23015KT 200V290 9999 FEW037 16/08 Q1005
                        TEMPO 8000 SHRA=
201011221800 METAR LMML NIL=
201011221745 METAR LMML 221745Z 23015KT 200V270 9999 FEW020 BKN250 17/08
                        Q1005 TEMPO 8000 SHRA=
201011221730 METAR LMML NIL=
201011221715 METAR LMML 221715Z 23013KT 190V260 9999 FEW020 BKN250 17/09
                        Q1005 TEMPO 8000 SHRA=
201011221700 METAR LMML NIL=
201011221645 METAR LMML 221645Z 23011KT 190V270 9999 SCT020 BKN250 17/10
                        Q1005 TEMPO 8000 SHRA=
201011221630 METAR LMML NIL=
201011221615 METAR LMML 221615Z 20005KT 170V240 9999 SCT020 BKN250 17/14
                        Q1005 NOSIG=
201011221600 METAR LMML NIL=
201011221545 METAR LMML 221545Z 20004KT 160V270 9999 FEW022 BKN250 17/13
                        Q1005 NOSIG=
201011221530 METAR LMML NIL=
201011221515 METAR LMML 221515Z 24005KT 180V300 9999 FEW022 BKN250 17/13
                        Q1005 NOSIG=
201011221500 METAR LMML NIL=
201011221445 METAR LMML 221445Z 24008KT 200V280 9999 SCT022 BKN250 18/13
                        Q1005 NOSIG=
201011221430 METAR LMML NIL=
201011221415 METAR LMML 221415Z 25009KT 200V290 9999 SCT022 BKN250 18/13
                        Q1005 NOSIG=
201011221400 METAR LMML NIL=
201011221345 METAR LMML 221345Z 25009KT 200V280 9999 FEW025 BKN250 19/13
                        Q1005 NOSIG=
201011221330 METAR LMML NIL=
201011221315 METAR LMML 221315Z 25009KT 210V290 9999 FEW025 BKN250 19/13
                        Q1005 NOSIG=
201011221300 METAR LMML NIL=
201011221245 METAR LMML 221245Z 27009KT 230V300 9999 FEW020 BKN250 19/13
                        Q1005 NOSIG=
201011221230 METAR LMML NIL=
201011221215 METAR LMML 221215Z 28009KT 240V310 9999 FEW020 BKN250 19/13
                        Q1005 NOSIG=
201011221200 METAR LMML NIL=
201011221145 METAR LMML 221145Z 28009KT 240V310 9999 FEW020 20/14 Q1005
                        NOSIG=
201011221130 METAR LMML NIL=
201011221115 METAR LMML 221115Z 28011KT 230V320 9999 FEW020 19/13 Q1006
                        NOSIG=
201011221100 METAR LMML NIL=
201011221045 METAR LMML 221045Z 28011KT 250V310 9999 FEW020 19/13 Q1006
                        NOSIG=
201011221030 METAR LMML NIL=
201011221015 METAR LMML 221015Z 29010KT 240V320 9999 FEW020 19/14 Q1006
                        NOSIG=
201011221000 METAR LMML NIL=
201011220945 METAR LMML 220945Z 29009KT 260V320 9999 FEW020 20/14 Q1006
                        NOSIG=
201011220930 METAR LMML NIL=
201011220915 METAR LMML 220915Z 28011KT 260V320 9999 FEW020 19/14 Q1006
                        NOSIG=
201011220900 METAR LMML NIL=
201011220845 METAR LMML 220845Z 28009KT 240V300 9999 FEW020 19/14 Q1006
                        NOSIG=
201011220830 METAR LMML NIL=
201011220815 METAR LMML 220815Z 28010KT 250V310 9999 FEW015 19/15 Q1006
                        NOSIG=
201011220800 METAR LMML NIL=
201011220745 METAR LMML 220745Z 27010KT 240V310 9999 FEW015 19/15 Q1006
                        NOSIG=
201011220730 METAR LMML NIL=
201011220715 METAR LMML 220715Z 26009KT 220V280 9999 FEW015 19/15 Q1006
                        NOSIG=
201011220700 METAR LMML NIL=
201011220645 METAR LMML 220645Z 24007KT 210V280 9999 FEW012 18/14 Q1005
                        NOSIG=
201011220630 METAR LMML NIL=
201011220615 METAR LMML 220615Z 27004KT 230V290 9999 FEW012 SCT250 17/15
                        Q1005 NOSIG=
201011220545 METAR LMML 220545Z 32004KT 9999 FEW012 SCT120 17/16 Q1005
                        NOSIG=
201011220530 METAR LMML NIL=
201011220515 METAR LMML 220515Z 28008KT 230V320 9999 FEW015 SCT120 18/16
                        Q1004 NOSIG=
201011220500 METAR LMML NIL=
201011220445 METAR LMML 220445Z 25006KT 220V290 9999 FEW012 BKN120 19/17
                        Q1004 NOSIG=
201011220415 METAR LMML 220415Z 25011KT 200V290 9999 FEW011 BKN120 19/18
                        Q1005 NOSIG=
201011220400 METAR LMML NIL=
201011220345 METAR LMML 220345Z 18007KT 150V210 9999 FEW015 BKN120 20/18
                        Q1004 NOSIG=
201011220330 METAR LMML NIL=
201011220315 METAR LMML 220315Z 16008KT 9999 FEW015 BKN120 20/18 Q1004
                        NOSIG=
201011220300 METAR LMML NIL=
201011220245 METAR LMML 220245Z 16007KT 9999 FEW015 BKN120 20/18 Q1004
                        NOSIG=
201011220230 METAR LMML NIL=
201011220215 METAR LMML 220215Z 17005KT 140V200 9999 FEW015 BKN120 19/18
                        Q1005 NOSIG=
201011220200 METAR LMML NIL=
201011220145 METAR LMML 220145Z 19004KT 170V240 9999 FEW015 BKN120 20/18
                        Q1006 NOSIG=
201011220130 METAR LMML NIL=
201011220115 METAR LMML 220115Z 19004KT 150V250 9999 FEW015 BKN120 20/18
                        Q1006 NOSIG=
201011220100 METAR LMML NIL=
201011220045 METAR LMML 220045Z 16007KT CAVOK 19/18 Q1007 NOSIG=
201011220030 METAR LMML NIL=
201011220015 METAR LMML 220015Z 16006KT CAVOK 19/18 Q1007 NOSIG=
201011212345 METAR LMML 212345Z 17006KT CAVOK 19/18 Q1008 NOSIG=
201011212330 METAR LMML NIL=
201011212315 METAR LMML 212315Z 17005KT 140V200 9999 FEW012 SCT120 BKN250
                        19/18 Q1008 NOSIG=
201011212300 METAR LMML NIL=
201011212245 METAR LMML 212245Z 18006KT CAVOK 19/18 Q1008 NOSIG=
201011212230 METAR LMML NIL=
201011212215 METAR LMML 212215Z 17007KT CAVOK 19/18 Q1009 NOSIG=
201011212200 METAR LMML NIL=
201011212145 METAR LMML 212145Z 16007KT 140V200 CAVOK 19/18 Q1009 NOSIG=
201011212130 METAR LMML NIL=
201011212115 METAR LMML 212115Z 17007KT 140V200 CAVOK 19/18 Q1009 NOSIG=
201011212100 METAR LMML NIL=
201011212045 METAR LMML 212045Z 17008KT CAVOK 19/18 Q1009 NOSIG=
201011212030 METAR LMML NIL=
201011212015 METAR LMML 212015Z 17007KT 140V200 CAVOK 19/18 Q1009 NOSIG=
201011212000 METAR LMML NIL=
201011211945 METAR LMML 211945Z 17009KT CAVOK 19/18 Q1009 NOSIG=
201011211930 METAR LMML NIL=
201011211915 METAR LMML 211915Z 16010KT CAVOK 19/18 Q1009 NOSIG=
201011211900 METAR LMML NIL=
201011211845 METAR LMML 211845Z 16008KT CAVOK 19/18 Q1009 NOSIG=
201011211830 METAR LMML NIL=
201011211815 METAR LMML 211815Z 16007KT CAVOK 19/18 Q1010 NOSIG=
201011211800 METAR LMML NIL=
201011211745 METAR LMML 211745Z 16006KT CAVOK 19/18 Q1010 NOSIG=
201011211730 METAR LMML NIL=
201011211715 METAR LMML 211715Z 16006KT CAVOK 19/18 Q1010 NOSIG=
201011211700 METAR LMML NIL=
201011211645 METAR LMML 211645Z 16007KT CAVOK 20/18 Q1010 NOSIG=
201011211630 METAR LMML NIL=
201011211615 METAR LMML 211615Z 16007KT CAVOK 20/18 Q1010 NOSIG=
201011211600 METAR LMML NIL=
201011211545 METAR LMML 211545Z 17007KT 140V200 CAVOK 20/18 Q1010 NOSIG=
201011211530 METAR LMML NIL=
201011211515 METAR LMML 211515Z 17007KT 140V200 CAVOK 20/18 Q1010 NOSIG=
201011211500 METAR LMML NIL=
201011211445 METAR LMML 211445Z 17008KT 130V210 CAVOK 21/17 Q1010 NOSIG=
201011211430 METAR LMML NIL=
201011211415 METAR LMML 211415Z 17008KT 130V200 CAVOK 22/17 Q1011 NOSIG=
201011211400 METAR LMML NIL=
201011211345 METAR LMML 211345Z 18009KT 150V210 CAVOK 22/17 Q1011 NOSIG=
201011211330 METAR LMML NIL=
201011211315 METAR LMML 211315Z 19009KT 140V230 CAVOK 22/17 Q1011 NOSIG=
201011211300 METAR LMML NIL=
201011211245 METAR LMML 211245Z 19008KT 160V240 CAVOK 22/17 Q1011 NOSIG=
201011211230 METAR LMML NIL=
201011211215 METAR LMML 211215Z 18010KT 150V210 9999 FEW010 BKN250 22/17
                        Q1012 NOSIG=
201011211200 METAR LMML NIL=
201011211145 METAR LMML 211145Z 17007KT 130V220 9999 FEW010 BKN250 22/18
                        Q1012 NOSIG=
201011211115 METAR LMML 211115Z 17008KT 120V220 9999 FEW010 BKN250 22/18
                        Q1012 NOSIG=
201011211100 METAR LMML NIL=
201011211045 METAR LMML 211045Z 16009KT 130V210 9999 FEW010 BKN250 22/19
                        Q1013 NOSIG=
201011211030 METAR LMML NIL=
201011211015 METAR LMML 211015Z 16008KT 140V200 9999 FEW013 BKN250 21/18
                        Q1013 NOSIG=
201011211000 METAR LMML NIL=
201011210945 METAR LMML 210945Z 16009KT 9999 FEW025 SCT250 21/17 Q1014
                        NOSIG=
201011210930 METAR LMML NIL=
201011210915 METAR LMML 210915Z 17007KT 120V210 9999 FEW025 21/17 Q1014
                        NOSIG=
201011210900 METAR LMML NIL=
201011210845 METAR LMML 210845Z 17008KT 140V200 CAVOK 21/16 Q1014 NOSIG=
201011210830 METAR LMML NIL=
201011210815 METAR LMML 210815Z 17006KT 130V200 CAVOK 20/16 Q1014 NOSIG=
201011210800 METAR LMML NIL=
201011210745 METAR LMML 210745Z 17007KT 130V200 CAVOK 20/14 Q1014 NOSIG=
201011210730 METAR LMML NIL=
201011210715 METAR LMML 210715Z 18006KT 150V210 CAVOK 19/13 Q1014 NOSIG=
201011210700 METAR LMML NIL=
201011210645 METAR LMML 210645Z 18006KT 150V210 CAVOK 18/13 Q1014 NOSIG=
201011210630 METAR LMML NIL=
201011210615 METAR LMML 210615Z 18006KT 150V210 CAVOK 17/12 Q1014 NOSIG=
201011210600 METAR LMML NIL=
201011210545 METAR LMML 210545Z 19006KT 160V220 CAVOK 16/12 Q1014 NOSIG=
201011210530 METAR LMML NIL=
201011210515 METAR LMML 210515Z 19006KT 160V220 CAVOK 17/11 Q1014 NOSIG=
201011210500 METAR LMML NIL=
201011210445 METAR LMML 210445Z 19005KT CAVOK 16/11 Q1014 NOSIG=
201011210430 METAR LMML NIL=
201011210415 METAR LMML 210415Z 17003KT CAVOK 15/11 Q1014 NOSIG=
201011210345 METAR LMML 210345Z VRB02KT CAVOK 15/10 Q1014 NOSIG=
201011210330 METAR LMML NIL=
201011210315 METAR LMML 210315Z 19003KT CAVOK 16/10 Q1014 NOSIG=
201011210300 METAR LMML NIL=
201011210245 METAR LMML 210245Z 20003KT CAVOK 16/11 Q1015 NOSIG=
201011210230 METAR LMML NIL=
201011210215 METAR LMML 210215Z 19003KT CAVOK 16/11 Q1015 NOSIG=
201011210200 METAR LMML NIL=
201011210145 METAR LMML 210145Z 20003KT CAVOK 16/11 Q1015 NOSIG=
201011210130 METAR LMML NIL=
201011210115 METAR LMML 210115Z 21003KT CAVOK 16/11 Q1015 NOSIG=
201011210100 METAR LMML NIL=
201011210045 METAR LMML 210045Z 21003KT CAVOK 16/11 Q1016 NOSIG=
201011210030 METAR LMML NIL=
201011210015 METAR LMML 210015Z 20004KT CAVOK 16/11 Q1016 NOSIG=
201011210000 METAR LMML NIL=
201011202345 METAR LMML 202345Z 20004KT 170V230 CAVOK 17/12 Q1016 NOSIG=
201011202330 METAR LMML NIL=
201011202315 METAR LMML 202315Z 20003KT CAVOK 16/12 Q1016 NOSIG=
201011202300 METAR LMML NIL=
201011202245 METAR LMML 202245Z 19003KT CAVOK 16/12 Q1016 NOSIG=
201011202230 METAR LMML NIL=
201011202215 METAR LMML 202215Z 20003KT CAVOK 15/12 Q1017 NOSIG=
201011202200 METAR LMML NIL=
201011202145 METAR LMML 202145Z VRB01KT CAVOK 15/11 Q1017 NOSIG=
201011202130 METAR LMML NIL=
201011202115 METAR LMML 202115Z 22003KT CAVOK 15/12 Q1017 NOSIG=
201011202100 METAR LMML NIL=
201011202045 METAR LMML 202045Z VRB02KT 9999 FEW025 15/12 Q1017 NOSIG=
201011202030 METAR LMML NIL=
201011202015 METAR LMML 202015Z VRB02KT 9999 FEW025 15/12 Q1017 NOSIG=
201011202000 METAR LMML NIL=
201011201945 METAR LMML 201945Z 20003KT 9999 FEW025 16/11 Q1017 NOSIG=
201011201930 METAR LMML NIL=
201011201915 METAR LMML 201915Z VRB01KT 9999 FEW025 16/11 Q1017 NOSIG=
201011201900 METAR LMML NIL=
201011201845 METAR LMML 201845Z VRB01KT 9999 FEW025 15/10 Q1017 NOSIG=
201011201830 METAR LMML NIL=
201011201815 METAR LMML 201815Z VRB01KT 9999 FEW025 16/09 Q1017 NOSIG=
201011201800 METAR LMML NIL=
201011201745 METAR LMML 201745Z VRB01KT 9999 FEW023 16/11 Q1017 NOSIG=
201011201730 METAR LMML NIL=
201011201715 METAR LMML 201715Z VRB02KT 9999 FEW023 17/11 Q1017 NOSIG=
201011201700 METAR LMML NIL=
201011201645 METAR LMML 201645Z 22003KT 9999 FEW023 17/12 Q1017 NOSIG=
201011201630 METAR LMML NIL=
201011201615 METAR LMML 201615Z 23003KT 9999 FEW023 18/13 Q1017 NOSIG=
201011201600 METAR LMML NIL=
201011201545 METAR LMML 201545Z 22005KT 190V270 9999 FEW023 18/14 Q1017
                        NOSIG=
201011201530 METAR LMML NIL=
201011201515 METAR LMML 201515Z 22005KT 190V260 9999 FEW023 SCT250 19/15
                        Q1017 NOSIG=
201011201500 METAR LMML NIL=
201011201445 METAR LMML 201445Z 22006KT 190V280 9999 FEW024 SCT250 20/15
                        Q1017 NOSIG=
201011201430 METAR LMML NIL=
201011201415 METAR LMML 201415Z 23007KT 190V260 9999 FEW024 SCT250 20/14
                        Q1018 NOSIG=
201011201400 METAR LMML NIL=
201011201345 METAR LMML 201345Z 23006KT 190V300 9999 FEW024 SCT250 21/14
                        Q1018 NOSIG=
201011201330 METAR LMML NIL=
201011201315 METAR LMML 201315Z 24006KT 190V300 9999 FEW023 21/14 Q1018
                        NOSIG=
201011201300 METAR LMML NIL=
201011201245 METAR LMML 201245Z 23007KT 180V270 9999 FEW023 SCT250 21/14
                        Q1018 NOSIG=
201011201230 METAR LMML NIL=
201011201215 METAR LMML 201215Z 22007KT 170V250 9999 FEW025 SCT250 21/14
                        Q1018 NOSIG=
201011201200 METAR LMML NIL=
201011201145 METAR LMML 201145Z 23007KT 170V280 9999 FEW024 21/14 Q1019
                        NOSIG=
201011201115 METAR LMML 201115Z 23007KT 190V290 9999 SCT024 21/14 Q1019
                        NOSIG=
201011201100 METAR LMML NIL=
201011201045 METAR LMML 201045Z 24006KT 170V310 9999 SCT024 21/14 Q1019
                        NOSIG=
201011201030 METAR LMML NIL=
201011201015 METAR LMML 201015Z 23006KT 190V270 9999 FEW033 21/14 Q1020
                        NOSIG=
201011201000 METAR LMML NIL=
201011200945 METAR LMML 200945Z 24004KT 200V280 9999 FEW033 21/13 Q1020
                        NOSIG=
201011200930 METAR LMML NIL=
201011200915 METAR LMML 200915Z 23005KT 180V280 9999 FEW033 21/13 Q1020
                        NOSIG=
201011200900 METAR LMML NIL=
201011200845 METAR LMML 200845Z 22005KT 180V270 9999 FEW031 20/13 Q1020
                        NOSIG=
201011200830 METAR LMML NIL=
201011200815 METAR LMML 200815Z 21006KT 150V260 9999 FEW032 19/13 Q1020
                        NOSIG=
201011200800 METAR LMML NIL=
201011200745 METAR LMML 200745Z 20004KT 160V270 9999 SCT035 19/13 Q1020
                        NOSIG=
201011200730 METAR LMML NIL=
201011200715 METAR LMML 200715Z 20004KT 150V250 9999 FEW033 19/13 Q1020
                        NOSIG=
201011200700 METAR LMML NIL=
201011200645 METAR LMML 200645Z 19003KT 9999 FEW033 17/12 Q1020 NOSIG=
201011200630 METAR LMML NIL=
201011200615 METAR LMML 200615Z 19004KT 160V220 9999 FEW034 16/11 Q1020
                        NOSIG=
201011200600 METAR LMML NIL=
201011200545 METAR LMML 200545Z 20004KT 9999 FEW035 16/10 Q1020 NOSIG=
201011200530 METAR LMML NIL=
201011200515 METAR LMML 200515Z 20004KT 9999 FEW037 16/10 Q1020 NOSIG=
201011200500 METAR LMML NIL=
201011200445 METAR LMML 200445Z 20004KT 170V230 9999 FEW030 16/09 Q1020
                        NOSIG=
201011200430 METAR LMML NIL=
201011200415 METAR LMML 200415Z 19003KT 9999 FEW030 BKN250 16/10 Q1020
                        NOSIG=
201011200400 METAR LMML NIL=
201011200345 METAR LMML 200345Z 20004KT 9999 FEW030 BKN250 16/10 Q1020
                        NOSIG=
201011200330 METAR LMML NIL=
201011200315 METAR LMML 200315Z 20003KT 9999 FEW030 BKN250 16/10 Q1020
                        NOSIG=
201011200300 METAR LMML NIL=
201011200245 METAR LMML 200245Z 19003KT 9999 FEW030 BKN250 16/11 Q1020
                        NOSIG=
201011200230 METAR LMML NIL=
201011200215 METAR LMML 200215Z 18003KT 9999 FEW030 BKN250 16/11 Q1020
                        NOSIG=
201011200200 METAR LMML NIL=
201011200145 METAR LMML 200145Z 18003KT 9999 FEW030 BKN250 16/11 Q1021
                        NOSIG=
201011200130 METAR LMML NIL=
201011200115 METAR LMML 200115Z 16005KT 9999 FEW030 BKN250 16/12 Q1020
                        NOSIG=
201011200045 METAR LMML 200045Z 17004KT 9999 FEW030 SCT250 16/12 Q1021
                        NOSIG=
201011200030 METAR LMML NIL=
201011200015 METAR LMML 200015Z 17004KT 9999 FEW032 SCT250 14/12 Q1021
                        NOSIG=
201011200000 METAR LMML NIL=
201011192345 METAR LMML 192345Z VRB02KT 9999 FEW032 SCT250 14/12 Q1021
                        NOSIG=
201011192330 METAR LMML NIL=
201011192315 METAR LMML 192315Z 14003KT 9999 FEW032 SCT250 14/12 Q1021
                        NOSIG=
201011192300 METAR LMML NIL=
201011192245 METAR LMML 192245Z VRB02KT 9999 FEW035 SCT250 14/11 Q1022
                        NOSIG=
201011192230 METAR LMML NIL=
201011192215 METAR LMML 192215Z 00000KT 9999 FEW035 SCT250 14/12 Q1022
                        NOSIG=
201011192200 METAR LMML NIL=
201011192145 METAR LMML 192145Z 00000KT 9999 FEW035 14/12 Q1022 NOSIG=
201011192130 METAR LMML NIL=
201011192115 METAR LMML 192115Z VRB01KT 9999 FEW033 13/11 Q1022 NOSIG=
201011192045 METAR LMML 192045Z 00000KT 9999 FEW033 14/12 Q1022 NOSIG=
201011192030 METAR LMML NIL=
201011192015 METAR LMML 192015Z 00000KT 9999 FEW033 15/12 Q1022 NOSIG=
201011192000 METAR LMML NIL=
201011191945 METAR LMML 191945Z 00000KT 9999 FEW033 15/12 Q1022 NOSIG=
201011191930 METAR LMML NIL=
201011191915 METAR LMML 191915Z 00000KT 9999 FEW033 15/12 Q1022 NOSIG=
201011191900 METAR LMML NIL=
201011191845 METAR LMML 191845Z VRB02KT 9999 FEW033 15/12 Q1023 NOSIG=
201011191830 METAR LMML NIL=
201011191815 METAR LMML 191815Z VRB01KT 9999 SCT035 16/11 Q1022 NOSIG=
201011191800 METAR LMML NIL=
201011191745 METAR LMML 191745Z VRB01KT 9999 FEW025 16/11 Q1022 NOSIG=
201011191730 METAR LMML NIL=
201011191715 METAR LMML 191715Z 09003KT 9999 FEW034 16/11 Q1021 NOSIG=
201011191700 METAR LMML NIL=
201011191645 METAR LMML 191645Z VRB01KT 9999 FEW034 17/12 Q1021 NOSIG=
201011191630 METAR LMML NIL=
201011191615 METAR LMML 191615Z 08003KT 9999 FEW034 18/11 Q1021 NOSIG=
201011191600 METAR LMML NIL=
201011191545 METAR LMML 191545Z 05003KT 9999 FEW033 19/12 Q1021 NOSIG=
201011191530 METAR LMML NIL=
201011191515 METAR LMML 191515Z 03004KT 010V080 9999 FEW036 20/12 Q1021
                        NOSIG=
201011191500 METAR LMML NIL=
201011191445 METAR LMML 191445Z VRB01KT 9999 FEW035 20/12 Q1021 NOSIG=
201011191415 METAR LMML 191415Z VRB02KT 9999 FEW040 20/12 Q1020 NOSIG=
201011191400 METAR LMML NIL=
201011191345 METAR LMML 191345Z 21003KT 9999 FEW038 20/12 Q1020 NOSIG=
201011191330 METAR LMML NIL=
201011191315 METAR LMML 191315Z 23003KT 9999 FEW038 20/13 Q1021 NOSIG=
201011191300 METAR LMML NIL=
201011191245 METAR LMML 191245Z 22005KT 150V270 9999 FEW037 SCT250 20/12
                        Q1021 NOSIG=
201011191230 METAR LMML NIL=
201011191215 METAR LMML 191215Z 21005KT 150V270 9999 FEW036 SCT250 20/12
                        Q1021 NOSIG=
201011191200 METAR LMML NIL=
201011191145 METAR LMML 191145Z 22004KT 150V260 9999 FEW036 SCT250 20/12
                        Q1021 NOSIG=
201011191130 METAR LMML NIL=
201011191115 METAR LMML 191115Z 26005KT 220V340 9999 FEW036 SCT250 20/12
                        Q1022 NOSIG=
201011191100 METAR LMML NIL=
201011191045 METAR LMML 191045Z 24003KT 9999 FEW036 SCT250 20/12 Q1022
                        NOSIG=
201011191030 METAR LMML NIL=
201011191015 METAR LMML 191015Z 21003KT 9999 FEW030 SCT250 20/11 Q1022
                        NOSIG=
201011191000 METAR LMML NIL=
201011190945 METAR LMML 190945Z VRB01KT 9999 FEW030 SCT250 20/12 Q1022
                        NOSIG=
201011190930 METAR LMML NIL=
201011190915 METAR LMML 190915Z 00000KT 9999 FEW030 SCT100 18/12 Q1022
                        NOSIG RMK SMOKE TO NORTH=
201011190900 METAR LMML NIL=
201011190845 METAR LMML 190845Z 00000KT 9999 FEW030 SCT100 BKN250 18/13
                        Q1022 NOSIG=
201011190830 METAR LMML NIL=
201011190815 METAR LMML 190815Z VRB01KT CAVOK 17/14 Q1022 NOSIG=
201011190800 METAR LMML NIL=
201011190745 METAR LMML 190745Z VRB02KT CAVOK 16/15 Q1022 NOSIG=
201011190730 METAR LMML NIL=
201011190715 METAR LMML 190715Z 00000KT CAVOK 15/13 Q1021 NOSIG=
201011190700 METAR LMML NIL=
201011190645 METAR LMML 190645Z VRB02KT CAVOK 13/10 Q1021 NOSIG=
201011190630 METAR LMML NIL=
201011190615 METAR LMML 190615Z VRB01KT CAVOK 13/10 Q1020 NOSIG=
201011190600 METAR LMML NIL=
201011190545 METAR LMML 190545Z VRB02KT CAVOK 14/10 Q1020 NOSIG=
201011190530 METAR LMML NIL=
201011190515 METAR LMML 190515Z 25003KT CAVOK 14/10 Q1020 NOSIG=
201011190500 METAR LMML NIL=
201011190445 METAR LMML 190445Z 26003KT 9999 FEW025 BKN090 14/10 Q1020
                        NOSIG=
201011190430 METAR LMML NIL=
201011190415 METAR LMML 190415Z VRB02KT 9999 FEW025 BKN090 15/10 Q1019
                        NOSIG=
201011190400 METAR LMML NIL=
201011190345 METAR LMML 190345Z VRB02KT 9999 FEW025 BKN090 14/10 Q1019
                        NOSIG=
201011190330 METAR LMML NIL=
201011190315 METAR LMML 190315Z 24003KT 9999 FEW025 BKN090 15/10 Q1019
                        NOSIG=
201011190300 METAR LMML NIL=
201011190245 METAR LMML 190245Z 25004KT 9999 FEW025 BKN090 15/10 Q1019
                        NOSIG=
201011190230 METAR LMML NIL=
201011190215 METAR LMML 190215Z 25003KT 9999 FEW025 BKN090 14/10 Q1019
                        NOSIG=
201011190200 METAR LMML NIL=
201011190145 METAR LMML 190145Z VRB02KT 9999 FEW025 BKN100 14/10 Q1019
                        NOSIG=
201011190130 METAR LMML NIL=
201011190115 METAR LMML 190115Z VRB02KT 9999 FEW025 BKN100 BKN250 14/10
                        Q1019 NOSIG=
201011190100 METAR LMML NIL=
201011190045 METAR LMML 190045Z VRB02KT 9999 FEW025 SCT100 BKN250 13/09
                        Q1019 NOSIG=
201011190030 METAR LMML NIL=
201011190015 METAR LMML 190015Z VRB02KT 9999 FEW025 BKN250 14/09 Q1019
                        NOSIG=
201011190000 METAR LMML NIL=
201011182345 METAR LMML 182345Z VRB02KT 9999 FEW025 BKN250 14/09 Q1019
                        NOSIG=
201011182330 METAR LMML NIL=
201011182315 METAR LMML 182315Z 23003KT 9999 FEW025 SCT250 15/10 Q1019
                        NOSIG=
201011182300 METAR LMML NIL=
201011182245 METAR LMML 182245Z VRB02KT 9999 FEW025 SCT250 15/09 Q1019
                        NOSIG=
201011182230 METAR LMML NIL=
201011182215 METAR LMML 182215Z 22004KT 9999 FEW025 SCT110 BKN250 15/09
                        Q1019 NOSIG=
201011182200 METAR LMML NIL=
201011182145 METAR LMML 182145Z 21003KT 9999 FEW025 BKN250 15/09 Q1019
                        NOSIG=
201011182130 METAR LMML NIL=
201011182115 METAR LMML 182115Z 21003KT 9999 FEW030 BKN250 16/09 Q1019
                        NOSIG=
201011182100 METAR LMML NIL=
201011182045 METAR LMML 182045Z 21003KT 9999 FEW030 BKN250 16/09 Q1019
                        NOSIG=
201011182030 METAR LMML NIL=
201011182015 METAR LMML 182015Z 22003KT 9999 FEW030 BKN250 15/09 Q1019
                        NOSIG=
201011182000 METAR LMML NIL=
201011181945 METAR LMML 181945Z 22003KT 9999 FEW030 SCT250 16/09 Q1018
                        NOSIG=
201011181930 METAR LMML NIL=
201011181915 METAR LMML 181915Z 23003KT 9999 FEW030 SCT250 16/09 Q1018
                        NOSIG=
201011181900 METAR LMML NIL=
201011181845 METAR LMML 181845Z 22003KT 9999 FEW030 SCT120 BKN250 16/09
                        Q1018 NOSIG=
201011181830 METAR LMML NIL=
201011181815 METAR LMML 181815Z 23003KT 9999 FEW030 SCT120 BKN250 16/09
                        Q1017 NOSIG=
201011181745 METAR LMML 181745Z 23003KT 9999 FEW035 SCT120 BKN250 17/09
                        Q1017 NOSIG=
201011181730 METAR LMML NIL=
201011181715 METAR LMML 181715Z 23004KT 180V260 9999 FEW035 SCT120 BKN250
                        16/09 Q1017 NOSIG=
201011181700 METAR LMML NIL=
201011181645 METAR LMML 181645Z 23004KT 200V270 9999 FEW035 SCT120 BKN250
                        17/09 Q1016 NOSIG=
201011181630 METAR LMML NIL=
201011181615 METAR LMML 181615Z 23005KT 200V270 9999 FEW035 SCT120 BKN250
                        17/09 Q1016 NOSIG=
201011181600 METAR LMML NIL=
201011181545 METAR LMML 181545Z 23005KT 190V270 9999 FEW035 SCT250 17/10
                        Q1016 NOSIG=
201011181530 METAR LMML NIL=
201011181515 METAR LMML 181515Z 23008KT 190V280 9999 FEW035 SCT250 18/10
                        Q1016 NOSIG=
201011181500 METAR LMML NIL=
201011181445 METAR LMML 181445Z 23009KT 200V270 9999 FEW035 SCT250 19/10
                        Q1015 NOSIG=
201011181430 METAR LMML NIL=
201011181415 METAR LMML 181415Z 22009KT 200V280 9999 FEW035 SCT250 19/10
                        Q1015 NOSIG=
201011181400 METAR LMML NIL=
201011181345 METAR LMML 181345Z 23010KT 190V260 9999 FEW035 BKN250 19/10
                        Q1015 NOSIG=
201011181330 METAR LMML NIL=
201011181315 METAR LMML 181315Z 23010KT 200V270 9999 FEW035 BKN250 19/10
                        Q1015 NOSIG=
201011181300 METAR LMML NIL=
201011181245 METAR LMML 181245Z 23009KT 200V270 9999 FEW035 BKN250 19/10
                        Q1015 NOSIG=
201011181230 METAR LMML NIL=
201011181215 METAR LMML 181215Z 22010KT 190V270 9999 FEW035 SCT120 BKN250
                        20/10 Q1015 NOSIG=
201011181145 METAR LMML 181145Z 23010KT 200V270 9999 FEW037 BKN250 19/11
                        Q1015 NOSIG=
201011181115 METAR LMML 181115Z 22010KT 190V260 9999 FEW037 BKN250 19/11
                        Q1015 NOSIG=
201011181100 METAR LMML NIL=
201011181045 METAR LMML 181045Z 23009KT 200V270 9999 FEW034 BKN250 19/12
                        Q1016 NOSIG=
201011181030 METAR LMML NIL=
201011181015 METAR LMML 181015Z 23007KT 200V310 9999 FEW034 SCT060 BKN120
                        19/13 Q1016 NOSIG=
201011181000 METAR LMML NIL=
201011180945 METAR LMML 180945Z 25006KT 200V280 9999 FEW025 SCT034 BKN120
                        19/13 Q1016 NOSIG=
201011180930 METAR LMML NIL=
201011180915 METAR LMML 180915Z 24003KT 9999 FEW013 BKN034 BKN120 18/13
                        Q1016 NOSIG=
201011180900 METAR LMML NIL=
201011180845 METAR LMML 180845Z 23003KT 9000 -RA FEW013 BKN035 BKN120
                        18/13 Q1016 NOSIG=
201011180830 METAR LMML NIL=
201011180815 METAR LMML 180815Z 27003KT 9999 SCT036 BKN120 18/13 Q1015
                        NOSIG=
201011180745 METAR LMML 180745Z VRB02KT 9999 SCT036 BKN120 18/13 Q1015
                        NOSIG=
201011180730 METAR LMML NIL=
201011180715 METAR LMML 180715Z 26004KT 240V300 9999 FEW033 BKN120 17/13
                        Q1015 NOSIG=
201011180700 METAR LMML NIL=
201011180645 METAR LMML 180645Z 26005KT 230V290 9999 -SHRA FEW033 BKN120
                        17/13 Q1015 NOSIG=
201011180630 METAR LMML NIL=
201011180615 METAR LMML 180615Z 25007KT 210V280 9999 FEW025 BKN120 17/13
                        Q1014 NOSIG=
201011180600 METAR LMML NIL=
201011180545 METAR LMML 180545Z 25007KT 190V290 9999 SCT028 BKN120 16/14
                        Q1014 NOSIG=
201011180530 METAR LMML NIL=
201011180515 METAR LMML 180515Z 28011KT 9999 SHRA SCT030 BKN060 18/13
                        Q1014 TEMPO 8000 SHRA=
201011180500 METAR LMML NIL=
201011180445 METAR LMML 180445Z 20008KT 170V240 9999 SCT032 BKN090 18/12
                        Q1013 TEMPO 8000 SHRA=
201011180430 METAR LMML NIL=
201011180415 METAR LMML 180415Z 22005KT 170V280 9999 SCT034 SCT050 BKN120
                        17/12 Q1013 TEMPO 8000 SHRA=
201011180345 METAR LMML 180345Z VRB02KT 9999 FEW035 BKN120 17/11 Q1013
                        TEMPO 8000 SHRA=
201011180315 METAR LMML 180315Z 22003KT 9999 FEW036 BKN120 17/11 Q1013
                        NOSIG=
201011180300 METAR LMML NIL=
201011180245 METAR LMML 180245Z 22004KT 9999 FEW036 BKN120 17/10 Q1014
                        NOSIG=
201011180230 METAR LMML NIL=
201011180215 METAR LMML 180215Z 23006KT 200V270 9999 FEW036 BKN120 17/10
                        Q1014 NOSIG=
201011180200 METAR LMML NIL=
201011180145 METAR LMML 180145Z 23004KT 190V270 9999 FEW035 16/10 Q1014
                        NOSIG=
201011180130 METAR LMML NIL=
201011180115 METAR LMML 180115Z 25006KT 200V280 9999 FEW037 16/10 Q1014
                        NOSIG=
201011180100 METAR LMML NIL=
201011180045 METAR LMML 180045Z 24005KT 210V290 9999 FEW035 16/10 Q1014
                        NOSIG=
201011180015 METAR LMML 180015Z 24005KT 210V280 9999 FEW035 16/10 Q1014
                        NOSIG=
201011180000 METAR LMML NIL=
201011172345 METAR LMML 172345Z 24006KT 200V280 9999 FEW035 16/10 Q1014
                        NOSIG=
201011172315 METAR LMML 172315Z 24006KT 200V280 9999 FEW035 16/09 Q1014
                        NOSIG=
201011172300 METAR LMML NIL=
201011172245 METAR LMML 172245Z 25007KT 220V280 9999 SCT035 16/09 Q1014
                        NOSIG=
201011172215 METAR LMML 172215Z 24007KT 200V280 9999 SCT035 16/10 Q1014
                        NOSIG=
201011172200 METAR LMML NIL=
201011172145 METAR LMML 172145Z 24006KT 210V270 9999 SCT037 16/10 Q1014
                        NOSIG=
201011172115 METAR LMML 172115Z 24008KT 200V280 9999 SCT036 17/10 Q1014
                        NOSIG=
201011172045 METAR LMML 172045Z 24007KT 200V280 9999 SCT037 16/09 Q1014
                        NOSIG=
201011172030 METAR LMML NIL=
201011172015 METAR LMML 172015Z 24009KT 200V290 9999 SCT037 17/09 Q1014
                        NOSIG=
201011172000 METAR LMML NIL=
201011171945 METAR LMML 171945Z 24007KT 210V290 9999 SCT036 16/10 Q1014
                        NOSIG=
201011171915 METAR LMML 171915Z 24010KT 200V280 9999 SCT035 17/09 Q1014
                        NOSIG=
201011171900 METAR LMML NIL=
201011171845 METAR LMML 171845Z 25010KT 200V280 9999 SCT034 17/09 Q1014
                        NOSIG=
201011171830 METAR LMML NIL=
201011171815 METAR LMML 171815Z 25011KT 210V290 9999 BKN042 17/09 Q1014
                        NOSIG=
201011171800 METAR LMML NIL=
201011171745 METAR LMML 171745Z 24011KT 200V280 9999 BKN038 17/09 Q1014
                        NOSIG=
201011171730 METAR LMML NIL=
201011171715 METAR LMML 171715Z 24013KT 210V300 9999 BKN039 17/09 Q1013
                        NOSIG=
201011171700 METAR LMML NIL=
201011171645 METAR LMML 171645Z 24010KT 200V280 9999 BKN036 17/09 Q1013
                        NOSIG=
201011171630 METAR LMML NIL=
201011171615 METAR LMML 171615Z 26014KT 210V290 9999 BKN043 17/08 Q1013
                        NOSIG=
201011171600 METAR LMML NIL=
201011171545 METAR LMML 171545Z 25010KT 220V310 9999 BKN042 17/08 Q1013
                        NOSIG=
201011171530 METAR LMML NIL=
201011171515 METAR LMML 171515Z 26011KT 210V300 9999 SCT044 17/07 Q1013
                        NOSIG=
201011171500 METAR LMML NIL=
201011171445 METAR LMML 171445Z 25013KT 220V300 9999 SCT047 17/07 Q1013
                        NOSIG=
201011171430 METAR LMML NIL=
201011171415 METAR LMML 171415Z 26009KT 210V300 9999 BKN048 17/07 Q1013
                        NOSIG=
201011171400 METAR LMML NIL=
201011171345 METAR LMML 171345Z 27015KT 210V310 9999 FEW048 18/06 Q1013
                        NOSIG=
201011171330 METAR LMML NIL=
201011171315 METAR LMML 171315Z 25012KT 200V290 9999 SCT047 18/08 Q1013
                        NOSIG=
201011171300 METAR LMML NIL=
201011171245 METAR LMML 171245Z 26014KT 210V300 9999 SCT046 18/08 Q1013
                        NOSIG=
201011171230 METAR LMML NIL=
201011171215 METAR LMML 171215Z 26014KT 220V300 9999 SCT045 18/08 Q1013
                        NOSIG=
201011171200 METAR LMML NIL=
201011171145 METAR LMML 171145Z 25015KT 210V300 9999 SCT043 18/07 Q1013
                        NOSIG=
201011171130 METAR LMML NIL=
201011171115 METAR LMML 171115Z 27012KT 240V310 9999 SCT042 17/08 Q1014
                        NOSIG=
201011171100 METAR LMML NIL=
201011171045 METAR LMML 171045Z 25012KT 200V310 9999 SCT043 18/08 Q1014
                        NOSIG=
201011171030 METAR LMML NIL=
201011171015 METAR LMML 171015Z 25012KT 210V310 9999 SCT040 18/08 Q1014
                        NOSIG=
201011171000 METAR LMML NIL=
201011170945 METAR LMML 170945Z 26012KT 220V290 9999 SCT041 17/08 Q1015
                        NOSIG=
201011170930 METAR LMML NIL=
201011170915 METAR LMML 170915Z 25011KT 200V290 9999 SCT040 17/08 Q1015
                        NOSIG=
201011170900 METAR LMML NIL=
201011170845 METAR LMML 170845Z 27010KT 230V310 9999 SCT040 17/08 Q1015
                        NOSIG=
201011170830 METAR LMML NIL=
201011170815 METAR LMML 170815Z 26009KT 230V300 9999 FEW041 17/08 Q1015
                        NOSIG=
201011170800 METAR LMML NIL=
201011170745 METAR LMML 170745Z 27009KT 240V310 9999 FEW040 16/08 Q1015
                        NOSIG=
201011170730 METAR LMML NIL=
201011170715 METAR LMML 170715Z 27007KT 240V300 9999 SCT039 16/08 Q1015
                        NOSIG=
201011170700 METAR LMML NIL=
201011170645 METAR LMML 170645Z 27006KT 240V300 9999 SCT042 15/08 Q1015
                        NOSIG=
201011170630 METAR LMML NIL=
201011170615 METAR LMML 170615Z 28007KT 250V310 9999 SCT040 14/08 Q1015
                        NOSIG=
201011170600 METAR LMML NIL=
201011170545 METAR LMML 170545Z 28007KT 9999 FEW039 14/08 Q1014 NOSIG=
201011170515 METAR LMML 170515Z 27006KT 230V290 9999 FEW039 13/08 Q1014
                        NOSIG=
201011170500 METAR LMML NIL=
201011170445 METAR LMML 170445Z 27007KT 240V300 9999 FEW039 14/08 Q1014
                        NOSIG=
201011170430 METAR LMML NIL=
201011170415 METAR LMML 170415Z 28008KT 9999 FEW039 14/08 Q1014 NOSIG=
201011170400 METAR LMML NIL=
201011170345 METAR LMML 170345Z 27007KT 240V300 9999 FEW039 15/08 Q1014
                        NOSIG=
201011170330 METAR LMML NIL=
201011170315 METAR LMML 170315Z 28008KT 240V300 9999 FEW041 14/08 Q1014
                        NOSIG=
201011170300 METAR LMML NIL=
201011170245 METAR LMML 170245Z 28008KT 9999 FEW042 14/08 Q1014 NOSIG=
201011170230 METAR LMML NIL=
201011170215 METAR LMML 170215Z 28008KT 240V320 9999 FEW039 15/08 Q1014
                        NOSIG=
201011170200 METAR LMML NIL=
201011170145 METAR LMML 170145Z 29008KT 9999 FEW030 SCT070 15/09 Q1015
                        NOSIG=
201011170130 METAR LMML NIL=
201011170115 METAR LMML 170115Z 28007KT 9999 FEW030 SCT070 15/09 Q1015
                        NOSIG=
201011170100 METAR LMML NIL=
201011170045 METAR LMML 170045Z 29008KT 9999 FEW030 15/08 Q1015 NOSIG=
201011170030 METAR LMML NIL=
201011170015 METAR LMML 170015Z 29007KT 260V320 9999 FEW030 14/08 Q1015
                        NOSIG=
201011170000 METAR LMML NIL=
201011162345 METAR LMML 162345Z 28007KT 9999 FEW030 14/08 Q1015 NOSIG=
201011162330 METAR LMML NIL=
201011162315 METAR LMML 162315Z 28006KT 9999 FEW030 SCT110 14/09 Q1016
                        NOSIG=
201011162300 METAR LMML NIL=
201011162245 METAR LMML 162245Z 29006KT 9999 FEW030 SCT110 14/09 Q1016
                        NOSIG=
201011162230 METAR LMML NIL=
201011162215 METAR LMML 162215Z 29005KT 9999 FEW030 SCT110 14/09 Q1016
                        NOSIG=
201011162200 METAR LMML NIL=
201011162145 METAR LMML 162145Z 31008KT 9999 FEW030 SCT110 14/09 Q1016
                        NOSIG=
201011162130 METAR LMML NIL=
201011162115 METAR LMML 162115Z 31008KT 9999 FEW030 BKN110 14/09 Q1016
                        NOSIG=
201011162100 METAR LMML NIL=
201011162045 METAR LMML 162045Z 30007KT 9999 FEW030 BKN110 15/09 Q1016
                        NOSIG=
201011162030 METAR LMML NIL=
201011162015 METAR LMML 162015Z 32010KT 9999 FEW030 BKN100 15/10 Q1016
                        NOSIG=
201011162000 METAR LMML NIL=
201011161945 METAR LMML 161945Z 31008KT 9999 FEW030 BKN100 15/10 Q1016
                        NOSIG=
201011161930 METAR LMML NIL=
201011161915 METAR LMML 161915Z 31009KT 9999 FEW030 SCT100 15/10 Q1016
                        NOSIG=
201011161900 METAR LMML NIL=
201011161845 METAR LMML 161845Z 31011KT 9999 FEW030 SCT100 15/08 Q1016
                        NOSIG=
201011161830 METAR LMML NIL=
201011161815 METAR LMML 161815Z 32008KT 9999 FEW030 BKN100 15/08 Q1016
                        NOSIG=
201011161800 METAR LMML NIL=
201011161745 METAR LMML 161745Z 31009KT 9999 FEW030 BKN090 15/08 Q1016
                        NOSIG=
201011161730 METAR LMML NIL=
201011161715 METAR LMML 161715Z 31009KT 9999 FEW030 BKN080 16/08 Q1015
                        NOSIG=
201011161700 METAR LMML NIL=
201011161645 METAR LMML 161645Z 32008KT 9999 FEW030 BKN090 16/09 Q1015
                        NOSIG=
201011161630 METAR LMML NIL=
201011161615 METAR LMML 161615Z 32010KT 9999 FEW030 SCT090 16/09 Q1015
                        NOSIG=
201011161600 METAR LMML NIL=
201011161545 METAR LMML 161545Z 32013KT 9999 FEW030 SCT090 16/09 Q1015
                        NOSIG=
201011161530 METAR LMML NIL=
201011161515 METAR LMML 161515Z 32014KT 280V350 9999 FEW030 SCT090 17/10
                        Q1015 NOSIG=
201011161500 METAR LMML NIL=
201011161445 METAR LMML 161445Z 32017KT 9999 FEW025 17/09 Q1015 NOSIG=
201011161430 METAR LMML NIL=
201011161415 METAR LMML 161415Z 32017KT 9999 FEW025 17/11 Q1015 NOSIG=
201011161400 METAR LMML NIL=
201011161345 METAR LMML 161345Z 33017KT 300V360 9999 FEW029 18/12 Q1015
                        NOSIG=
201011161330 METAR LMML NIL=
201011161315 METAR LMML 161315Z 33018KT 9999 FEW028 SCT250 19/12 Q1015
                        NOSIG=
201011161245 METAR LMML 161245Z 33014KT 290V350 9999 FEW025 SCT250 19/12
                        Q1015 NOSIG=
201011161230 METAR LMML NIL=
201011161215 METAR LMML 161215Z 33014KT 9999 FEW025 BKN250 19/12 Q1015
                        NOSIG=
201011161200 METAR LMML NIL=
201011161145 METAR LMML 161145Z 33012KT 9999 FEW025 BKN250 19/14 Q1015
                        NOSIG=
201011161130 METAR LMML NIL=
201011161115 METAR LMML 161115Z 33011KT 9999 FEW025 BKN250 18/14 Q1016
                        NOSIG=
201011161100 METAR LMML NIL=
201011161045 METAR LMML 161045Z 33012KT 310V010 9999 FEW023 BKN250 19/14
                        Q1016 NOSIG=
201011161030 METAR LMML NIL=
201011161015 METAR LMML 161015Z 32013KT 9999 SCT020 BKN250 18/15 Q1016
                        NOSIG=
201011161000 METAR LMML NIL=
201011160945 METAR LMML 160945Z 33009KT 9999 SCT025 SCT120 BKN250 20/16
                        Q1016 NOSIG=
201011160930 METAR LMML NIL=
201011160915 METAR LMML 160915Z 31007KT 270V340 9999 SCT020 BKN250 20/15
                        Q1016 NOSIG=
201011160900 METAR LMML NIL=
201011160845 METAR LMML 160845Z 29006KT 9999 SCT019 BKN250 19/16 Q1016
                        NOSIG=
201011160830 METAR LMML NIL=
201011160815 METAR LMML 160815Z 30007KT 9999 SCT018 BKN250 20/16 Q1016
                        NOSIG=
201011160745 METAR LMML 160745Z 30004KT 270V330 9999 FEW025 BKN250 19/16
                        Q1016 NOSIG=
201011160730 METAR LMML NIL=
201011160715 METAR LMML 160715Z 29003KT 9999 FU FEW025 BKN250 18/16 Q1016
                        NOSIG=
201011160700 METAR LMML NIL=
201011160645 METAR LMML 160645Z 27003KT 9999 FC FEW025 BKN250 17/15 Q1016
                        NOSIG=
201011160630 METAR LMML NIL=
201011160615 METAR LMML 160615Z 28003KT 9999 FEW022 BKN250 17/15 Q1016
                        NOSIG=
201011160600 METAR LMML NIL=
201011160545 METAR LMML 160545Z VRB02KT 9999 SCT022 17/15 Q1015 NOSIG=
201011160530 METAR LMML NIL=
201011160515 METAR LMML 160515Z 28003KT 9999 SCT022 17/15 Q1015 NOSIG=
201011160445 METAR LMML 160445Z 20003KT 9999 SCT022 18/15 Q1015 NOSIG=
201011160430 METAR LMML NIL=
201011160415 METAR LMML 160415Z 21003KT 9999 SCT022 18/15 Q1015 NOSIG=
201011160400 METAR LMML NIL=
201011160345 METAR LMML 160345Z 21003KT 9999 SCT022 18/15 Q1015 NOSIG=
201011160330 METAR LMML NIL=
201011160315 METAR LMML 160315Z 21004KT 9999 SCT022 18/15 Q1016 NOSIG=
201011160300 METAR LMML NIL=
201011160245 METAR LMML 160245Z 21003KT 9999 SCT022 18/15 Q1016 NOSIG=
201011160230 METAR LMML NIL=
201011160215 METAR LMML 160215Z 20004KT 170V230 9999 FEW023 18/15 Q1016
                        NOSIG=
201011160200 METAR LMML NIL=
201011160145 METAR LMML 160145Z 20004KT 170V240 9999 FEW023 18/15 Q1016
                        NOSIG=
201011160130 METAR LMML NIL=
201011160115 METAR LMML 160115Z 20004KT 170V240 9999 FEW025 18/15 Q1016
                        NOSIG=
201011160100 METAR LMML NIL=
201011160045 METAR LMML 160045Z 20004KT 170V240 9999 FEW023 18/15 Q1016
                        NOSIG=
201011160030 METAR LMML NIL=
201011160015 METAR LMML 160015Z 21004KT 170V240 9999 FEW022 18/15 Q1016
                        NOSIG=
201011160000 METAR LMML NIL=
201011152345 METAR LMML 152345Z 21004KT 180V250 9999 FEW023 18/15 Q1016
                        NOSIG=
201011152330 METAR LMML NIL=
201011152315 METAR LMML 152315Z 20004KT 160V230 9999 SCT021 18/15 Q1017
                        NOSIG=
201011152300 METAR LMML NIL=
201011152245 METAR LMML 152245Z 20003KT 9999 SCT022 18/15 Q1017 NOSIG=
201011152230 METAR LMML NIL=
201011152215 METAR LMML 152215Z VRB02KT 9999 SCT020 18/16 Q1017 NOSIG=
201011152145 METAR LMML 152145Z 19003KT 9999 BKN022 18/16 Q1017 NOSIG=
201011152130 METAR LMML NIL=
201011152115 METAR LMML 152115Z 19003KT 9999 BKN022 18/16 Q1017 NOSIG=
201011152100 METAR LMML NIL=
201011152045 METAR LMML 152045Z 17003KT 9999 SCT019 18/16 Q1017 NOSIG=
201011152030 METAR LMML NIL=
201011152015 METAR LMML 152015Z 16003KT 9999 BKN019 18/16 Q1017 NOSIG=
201011152000 METAR LMML NIL=
201011151945 METAR LMML 151945Z 19003KT 9999 BKN017 19/16 Q1017 NOSIG=
201011151930 METAR LMML NIL=
201011151915 METAR LMML 151915Z 17005KT 120V220 9999 BKN017 19/16 Q1017
                        NOSIG=
201011151900 METAR LMML NIL=
201011151845 METAR LMML 151845Z 15005KT 120V180 9999 BKN021 19/16 Q1017
                        NOSIG=
201011151830 METAR LMML NIL=
201011151815 METAR LMML 151815Z 14006KT 9999 FEW020 SCT033 19/16 Q1016
                        NOSIG=
201011151800 METAR LMML NIL=
201011151745 METAR LMML 151745Z 15004KT 120V190 9999 FEW022 18/15 Q1016
                        NOSIG=
201011151730 METAR LMML NIL=
201011151715 METAR LMML 151715Z 15004KT 9999 FEW022 19/15 Q1016 NOSIG=
201011151700 METAR LMML NIL=
201011151645 METAR LMML 151645Z 16005KT 9999 FEW022 19/15 Q1016 NOSIG=
201011151630 METAR LMML NIL=
201011151615 METAR LMML 151615Z 17003KT 9999 FEW022 19/15 Q1016 NOSIG=
201011151600 METAR LMML NIL=
201011151545 METAR LMML 151545Z 15005KT 9999 FEW021 19/15 Q1016 NOSIG=
201011151530 METAR LMML NIL=
201011151515 METAR LMML 151515Z 18005KT 140V210 9999 FEW022 19/15 Q1016
                        NOSIG=
201011151500 METAR LMML NIL=
201011151445 METAR LMML 151445Z 18006KT 150V210 9999 SCT021 20/15 Q1016
                        NOSIG=
201011151430 METAR LMML NIL=
201011151415 METAR LMML 151415Z 18006KT 150V220 9999 SCT021 20/16 Q1016
                        NOSIG=
201011151400 METAR LMML NIL=
201011151345 METAR LMML 151345Z 17007KT 140V220 9999 FEW021 20/16 Q1016
                        NOSIG=
201011151330 METAR LMML NIL=
201011151315 METAR LMML 151315Z 17006KT 140V210 9999 SCT021 21/16 Q1016
                        NOSIG=
201011151300 METAR LMML NIL=
201011151245 METAR LMML 151245Z 17006KT 140V230 9999 SCT021 21/16 Q1017
                        NOSIG=
201011151230 METAR LMML NIL=
201011151215 METAR LMML 151215Z 19005KT 100V260 9999 FEW020 21/16 Q1017
                        NOSIG=
201011151200 METAR LMML NIL=
201011151145 METAR LMML 151145Z 18005KT 130V240 9999 FEW020 21/16 Q1017
                        NOSIG=
201011151130 METAR LMML NIL=
201011151115 METAR LMML 151115Z 18005KT 140V220 9999 FEW018 20/16 Q1018
                        NOSIG=
201011151100 METAR LMML NIL=
201011151045 METAR LMML 151045Z 19006KT 150V240 9999 FEW018 20/16 Q1018
                        NOSIG=
201011151030 METAR LMML NIL=
201011151015 METAR LMML 151015Z 18005KT 120V260 9999 FEW018 20/16 Q1018
                        NOSIG=
201011151000 METAR LMML NIL=
201011150945 METAR LMML 150945Z 20005KT 160V250 9999 SCT019 20/15 Q1018
                        NOSIG=
201011150930 METAR LMML NIL=
201011150915 METAR LMML 150915Z 19005KT 160V240 9999 SCT018 20/15 Q1018
                        NOSIG=
201011150900 METAR LMML NIL=
201011150845 METAR LMML 150845Z 17004KT 130V220 9999 FEW018 20/16 Q1019
                        NOSIG=
201011150830 METAR LMML NIL=
201011150815 METAR LMML 150815Z 16005KT 9999 FEW015 19/16 Q1018 NOSIG=
201011150800 METAR LMML NIL=
201011150745 METAR LMML 150745Z 13003KT 9999 FEW015 18/18 Q1018 NOSIG=
201011150730 METAR LMML NIL=
201011150715 METAR LMML 150715Z VRB01KT 9999 FEW015 17/17 Q1018 NOSIG=
201011150700 METAR LMML NIL=
201011150645 METAR LMML 150645Z VRB01KT 9999 FEW015 14/14 Q1018 NOSIG=
201011150630 METAR LMML NIL=
201011150615 METAR LMML 150615Z 11003KT 9999 FEW015 14/14 Q1018 NOSIG=
201011150600 METAR LMML NIL=
201011150545 METAR LMML 150545Z VRB01KT 9999 FEW015 13/13 Q1017 NOSIG=
201011150530 METAR LMML NIL=
201011150515 METAR LMML 150515Z VRB01KT 9999 FEW015 13/13 Q1017 NOSIG=
201011150500 METAR LMML NIL=
201011150445 METAR LMML 150445Z VRB01KT 9999 FEW015 13/13 Q1017 NOSIG=
201011150430 METAR LMML NIL=
201011150415 METAR LMML 150415Z VRB02KT 9999 FEW015 13/13 Q1017 NOSIG=
201011150400 METAR LMML NIL=
201011150345 METAR LMML 150345Z 00000KT 9999 FEW015 13/13 Q1017 NOSIG=
201011150330 METAR LMML NIL=
201011150315 METAR LMML 150315Z 00000KT 9999 FEW015 14/13 Q1017 NOSIG=
201011150300 METAR LMML NIL=
201011150245 METAR LMML 150245Z 00000KT 9999 FEW015 14/13 Q1017 NOSIG=
201011150230 METAR LMML NIL=
201011150215 METAR LMML 150215Z VRB01KT 9999 FEW015 14/13 Q1018 NOSIG=
201011150200 METAR LMML NIL=
201011150145 METAR LMML 150145Z VRB01KT 9999 FEW015 14/13 Q1018 NOSIG=
201011150130 METAR LMML NIL=
201011150115 METAR LMML 150115Z 00000KT 9999 FEW015 13/13 Q1017 NOSIG=
201011150100 METAR LMML NIL=
201011150045 METAR LMML 150045Z VRB01KT 9999 FEW015 13/13 Q1017 NOSIG=
201011150030 METAR LMML NIL=
201011150015 METAR LMML 150015Z 00000KT 9999 FEW015 14/13 Q1017 NOSIG=
201011150000 METAR LMML NIL=
201011142345 METAR LMML 142345Z 00000KT 9999 FEW018 14/14 Q1017 NOSIG=
201011142330 METAR LMML NIL=
201011142315 METAR LMML 142315Z VRB01KT 9999 FEW020 14/13 Q1018 NOSIG=
201011142300 METAR LMML NIL=
201011142245 METAR LMML 142245Z VRB01KT 9999 FEW020 14/13 Q1018 NOSIG=
201011142230 METAR LMML NIL=
201011142215 METAR LMML 142215Z VRB01KT 9999 FEW020 14/13 Q1018 NOSIG=
201011142200 METAR LMML NIL=
201011142145 METAR LMML 142145Z VRB01KT 9999 FEW020 14/13 Q1018 NOSIG=
201011142130 METAR LMML NIL=
201011142115 METAR LMML 142115Z VRB01KT CAVOK 14/13 Q1017 NOSIG=
201011142100 METAR LMML NIL=
201011142045 METAR LMML 142045Z VRB01KT CAVOK 14/13 Q1017 NOSIG=
201011142030 METAR LMML NIL=
201011142015 METAR LMML 142015Z VRB01KT 9999 FEW020 14/13 Q1017 NOSIG=
201011142000 METAR LMML NIL=
201011141945 METAR LMML 141945Z VRB01KT 9999 FEW020 15/14 Q1017 NOSIG=
201011141930 METAR LMML NIL=
201011141915 METAR LMML 141915Z VRB01KT 9999 FEW020 15/13 Q1017 NOSIG=
201011141900 METAR LMML NIL=
201011141845 METAR LMML 141845Z 00000KT 9999 FEW020 15/13 Q1017 NOSIG=
201011141830 METAR LMML NIL=
201011141815 METAR LMML 141815Z VRB01KT 9999 FEW020 15/13 Q1017 NOSIG=
201011141800 METAR LMML NIL=
201011141745 METAR LMML 141745Z VRB01KT 9999 FEW020 16/13 Q1017 NOSIG=
201011141715 METAR LMML 141715Z VRB01KT 9999 FEW021 16/13 Q1017 NOSIG=
201011141645 METAR LMML 141645Z 07003KT 9999 FEW021 17/14 Q1016 NOSIG=
201011141630 METAR LMML NIL=
201011141615 METAR LMML 141615Z 08003KT 9999 FEW021 17/14 Q1016 NOSIG=
201011141600 METAR LMML NIL=
201011141545 METAR LMML 141545Z 09003KT 9999 FEW021 18/14 Q1016 NOSIG=
201011141530 METAR LMML NIL=
201011141515 METAR LMML 141515Z 08004KT 9999 FEW021 19/14 Q1016 NOSIG=
201011141500 METAR LMML NIL=
201011141445 METAR LMML 141445Z 07004KT 040V100 9999 FEW025 18/14 Q1016
                        NOSIG=
201011141430 METAR LMML NIL=
201011141415 METAR LMML 141415Z 09003KT 9999 FEW025 18/14 Q1016 NOSIG=
201011141400 METAR LMML NIL=
201011141345 METAR LMML 141345Z 08004KT 050V110 9999 FEW025 SCT039 19/14
                        Q1016 NOSIG=
201011141330 METAR LMML NIL=
201011141315 METAR LMML 141315Z 10003KT 9999 FEW025 SCT039 20/14 Q1016
                        NOSIG=
201011141300 METAR LMML NIL=
201011141245 METAR LMML 141245Z 10003KT 9999 FEW025 SCT039 20/14 Q1016
                        NOSIG=
201011141230 METAR LMML NIL=
201011141215 METAR LMML 141215Z 14004KT 080V170 9999 FEW025 SCT039 19/14
                        Q1016 NOSIG=
201011141200 METAR LMML NIL=
201011141145 METAR LMML 141145Z 08004KT 040V120 9999 FEW028 SCT039 20/14
                        Q1016 NOSIG=
201011141130 METAR LMML NIL=
201011141115 METAR LMML 141115Z 11004KT 010V160 9999 FEW028 20/14 Q1016
                        NOSIG=
201011141100 METAR LMML NIL=
201011141045 METAR LMML 141045Z 10004KT 070V130 9999 FEW025 20/14 Q1016
                        NOSIG=
201011141030 METAR LMML NIL=
201011141015 METAR LMML 141015Z 11004KT 060V150 9999 FEW026 20/14 Q1016
                        NOSIG=
201011140945 METAR LMML 140945Z 10004KT 9999 FEW023 19/15 Q1017 NOSIG=
201011140915 METAR LMML 140915Z 08003KT 9999 SCT023 19/14 Q1017 NOSIG=
201011140900 METAR LMML NIL=
201011140845 METAR LMML 140845Z 08004KT 350V130 9999 SCT020 19/15 Q1017
                        NOSIG=
201011140830 METAR LMML NIL=
201011140815 METAR LMML 140815Z 08003KT 9999 SCT020 19/15 Q1017 NOSIG=
201011140800 METAR LMML NIL=
201011140745 METAR LMML 140745Z VRB01KT 9999 FEW020 19/15 Q1017 NOSIG=
201011140730 METAR LMML NIL=
201011140715 METAR LMML 140715Z VRB01KT 9999 FEW020 18/16 Q1017 NOSIG=
201011140700 METAR LMML NIL=
201011140645 METAR LMML 140645Z VRB02KT 9999 FEW020 16/15 Q1017 NOSIG=
201011140630 METAR LMML NIL=
201011140615 METAR LMML 140615Z VRB01KT 9999 FEW020 SCT050 15/14 Q1017
                        NOSIG=
201011140600 METAR LMML NIL=
201011140545 METAR LMML 140545Z 00000KT 9999 FEW020 BKN050 15/14 Q1016
                        NOSIG=
201011140530 METAR LMML NIL=
201011140515 METAR LMML 140515Z VRB01KT 9999 FEW020 BKN050 15/14 Q1016
                        NOSIG=
201011140445 METAR LMML 140445Z VRB02KT 9999 FEW020 SCT050 15/14 Q1016
                        NOSIG=
201011140430 METAR LMML NIL=
201011140415 METAR LMML 140415Z VRB02KT 9999 FEW020 SCT050 15/14 Q1016
                        NOSIG=
201011140400 METAR LMML NIL=
201011140345 METAR LMML 140345Z VRB02KT 9999 FEW020 SCT050 15/14 Q1015
                        NOSIG=
201011140330 METAR LMML NIL=
201011140315 METAR LMML 140315Z VRB01KT 9999 FEW020 BKN050 15/14 Q1015
                        NOSIG=
201011140300 METAR LMML NIL=
201011140245 METAR LMML 140245Z VRB02KT CAVOK 15/14 Q1015 NOSIG=
201011140230 METAR LMML NIL=
201011140215 METAR LMML 140215Z VRB02KT CAVOK 14/14 Q1015 NOSIG=
201011140200 METAR LMML NIL=
201011140145 METAR LMML 140145Z VRB02KT CAVOK 14/13 Q1015 NOSIG=
201011140130 METAR LMML NIL=
201011140115 METAR LMML 140115Z VRB02KT 9999 FEW045 14/13 Q1015 NOSIG=
201011140100 METAR LMML NIL=
201011140045 METAR LMML 140045Z VRB02KT 9999 FEW045 14/13 Q1015 NOSIG=
201011140030 METAR LMML NIL=
201011140015 METAR LMML 140015Z 29004KT 9999 FEW045 15/14 Q1015 NOSIG=
201011132345 METAR LMML 132345Z VRB02KT 9999 FEW045 14/13 Q1015 NOSIG=
201011132330 METAR LMML NIL=
201011132315 METAR LMML 132315Z VRB02KT 9999 FEW045 15/13 Q1016 NOSIG=
201011132300 METAR LMML NIL=
201011132245 METAR LMML 132245Z VRB01KT 9999 FEW045 15/13 Q1016 NOSIG=
201011132230 METAR LMML NIL=
201011132215 METAR LMML 132215Z VRB01KT 9999 FEW045 15/13 Q1015 NOSIG=
201011132200 METAR LMML NIL=
201011132145 METAR LMML 132145Z 30003KT 9999 FEW045 15/13 Q1015 NOSIG=
201011132130 METAR LMML NIL=
201011132115 METAR LMML 132115Z 33003KT 9999 FEW045 15/14 Q1015 NOSIG=
201011132045 METAR LMML 132045Z 32003KT 9999 FEW049 16/14 Q1015 NOSIG=
201011132030 METAR LMML NIL=
201011132015 METAR LMML 132015Z 31005KT 9999 FEW049 16/14 Q1015 NOSIG=
201011132000 METAR LMML NIL=
201011131945 METAR LMML 131945Z 32003KT 9999 FEW048 16/14 Q1015 NOSIG=
201011131915 METAR LMML 131915Z 30003KT 9999 FEW049 17/14 Q1015 NOSIG=
201011131900 METAR LMML NIL=
201011131845 METAR LMML 131845Z 35003KT 9999 FEW025 SCT048 18/14 Q1015
                        NOSIG=
201011131830 METAR LMML NIL=
201011131815 METAR LMML 131815Z VRB02KT 9999 FEW022 BKN046 18/14 Q1015
                        NOSIG=
201011131800 METAR LMML NIL=
201011131745 METAR LMML 131745Z 33003KT 9999 FEW022 BKN044 18/14 Q1015
                        NOSIG=
201011131715 METAR LMML 131715Z 33003KT 9999 FEW022 BKN045 18/14 Q1015
                        NOSIG=
201011131700 METAR LMML NIL=
201011131645 METAR LMML 131645Z 34003KT 9999 FEW022 BKN045 18/14 Q1015
                        NOSIG=
201011131630 METAR LMML NIL=
201011131615 METAR LMML 131615Z 32004KT 9999 FEW022 BKN044 18/14 Q1014
                        NOSIG=
201011131600 METAR LMML NIL=
201011131545 METAR LMML 131545Z 33004KT 9999 FEW022 BKN045 18/14 Q1014
                        NOSIG=
201011131530 METAR LMML NIL=
201011131515 METAR LMML 131515Z 34005KT 9999 SCT022 BKN044 18/14 Q1014
                        NOSIG=
201011131500 METAR LMML NIL=
201011131445 METAR LMML 131445Z 34005KT 9999 SCT024 BKN048 18/14 Q1014
                        NOSIG=
201011131430 METAR LMML NIL=
201011131415 METAR LMML 131415Z 32005KT 9999 SCT023 BKN048 19/14 Q1014
                        NOSIG=
201011131400 METAR LMML NIL=
201011131345 METAR LMML 131345Z 32006KT 290V350 9999 FEW023 BKN046 19/14
                        Q1014 NOSIG=
201011131330 METAR LMML NIL=
201011131315 METAR LMML 131315Z 31007KT 9999 SCT023 BKN045 19/14 Q1014
                        NOSIG=
201011131300 METAR LMML NIL=
201011131245 METAR LMML 131245Z 31008KT 9999 FEW022 BKN045 19/14 Q1014
                        NOSIG=
201011131230 METAR LMML NIL=
201011131215 METAR LMML 131215Z 32007KT 290V360 9999 FEW022 BKN045 19/15
                        Q1014 NOSIG=
201011131200 METAR LMML NIL=
201011131145 METAR LMML 131145Z 32005KT 300V360 9999 SCT021 BKN040 18/14
                        Q1014 NOSIG=
201011131130 METAR LMML NIL=
201011131115 METAR LMML 131115Z 33008KT 9999 SCT020 BKN040 18/14 Q1014
                        NOSIG=
201011131100 METAR LMML NIL=
201011131045 METAR LMML 131045Z 33007KT 9999 SCT020 BKN040 18/14 Q1015
                        NOSIG=
201011131030 METAR LMML NIL=
201011131015 METAR LMML 131015Z 32008KT 9999 SCT021 BKN040 18/14 Q1015
                        NOSIG=
201011131000 METAR LMML NIL=
201011130945 METAR LMML 130945Z 32008KT 9999 SCT021 BKN040 18/14 Q1015
                        NOSIG=
201011130930 METAR LMML NIL=
201011130915 METAR LMML 130915Z 32008KT 9999 SCT021 BKN043 18/15 Q1015
                        NOSIG=
201011130900 METAR LMML NIL=
201011130845 METAR LMML 130845Z 34006KT 300V010 9999 FEW025 BKN045 19/14
                        Q1015 NOSIG=
201011130830 METAR LMML NIL=
201011130815 METAR LMML 130815Z 34004KT 310V050 9999 FEW029 BKN048 18/13
                        Q1015 NOSIG=
201011130800 METAR LMML NIL=
201011130745 METAR LMML 130745Z 35005KT 9999 FEW025 BKN050 18/13 Q1015
                        NOSIG=
201011130730 METAR LMML NIL=
201011130715 METAR LMML 130715Z 35005KT CAVOK 17/12 Q1015 NOSIG=
201011130700 METAR LMML NIL=
201011130645 METAR LMML 130645Z 35006KT CAVOK 17/12 Q1015 NOSIG=
201011130615 METAR LMML 130615Z 36005KT 9999 FEW020 BKN049 17/12 Q1014
                        NOSIG=
201011130600 METAR LMML NIL=
201011130545 METAR LMML 130545Z 35007KT 9999 FEW020 BKN049 16/11 Q1015
                        NOSIG=
201011130530 METAR LMML NIL=
201011130515 METAR LMML 130515Z 34005KT 9999 SCT045 15/11 Q1014 NOSIG=
201011130500 METAR LMML NIL=
201011130445 METAR LMML 130445Z 35007KT 9999 FEW040 16/11 Q1014 NOSIG=
201011130430 METAR LMML NIL=
201011130415 METAR LMML 130415Z 34007KT 9999 FEW040 16/11 Q1014 NOSIG=
201011130400 METAR LMML NIL=
201011130345 METAR LMML 130345Z 35008KT 320V020 CAVOK 16/10 Q1014 BECMG
                        9999 SCT030=
201011130330 METAR LMML NIL=
201011130315 METAR LMML 130315Z 33010KT CAVOK 16/10 Q1014 BECMG 9999 SCT030=
201011130300 METAR LMML NIL=
201011130245 METAR LMML 130245Z 33008KT CAVOK 14/10 Q1014 NOSIG=
201011130230 METAR LMML NIL=
201011130215 METAR LMML 130215Z 32006KT CAVOK 14/10 Q1014 NOSIG=
201011130200 METAR LMML NIL=
201011130145 METAR LMML 130145Z 30006KT 9999 FEW034 14/10 Q1014 NOSIG=
201011130130 METAR LMML NIL=
201011130115 METAR LMML 130115Z 31006KT 9999 FEW034 14/10 Q1014 NOSIG=
201011130100 METAR LMML NIL=
201011130045 METAR LMML 130045Z 32004KT 9999 FEW036 15/10 Q1015 NOSIG=
201011130030 METAR LMML NIL=
201011130015 METAR LMML 130015Z 33006KT 9999 FEW036 15/10 Q1015 NOSIG=
201011130000 METAR LMML NIL=
201011122345 METAR LMML 122345Z 30004KT 260V340 9999 SCT037 15/10 Q1015
                        NOSIG=
201011122330 METAR LMML NIL=
201011122315 METAR LMML 122315Z 26004KT 230V310 9999 SCT039 14/10 Q1015
                        NOSIG=
201011122300 METAR LMML NIL=
201011122245 METAR LMML 122245Z 32004KT 280V350 9999 FEW032 15/09 Q1015
                        NOSIG=
201011122230 METAR LMML NIL=
201011122215 METAR LMML 122215Z 33007KT 300V360 9999 FEW032 15/10 Q1015
                        NOSIG=
201011122200 METAR LMML NIL=
201011122145 METAR LMML 122145Z 34008KT 9999 SCT032 16/10 Q1015 NOSIG=
201011122130 METAR LMML NIL=
201011122115 METAR LMML 122115Z 33007KT 9999 SCT034 16/10 Q1016 NOSIG=
201011122100 METAR LMML NIL=
201011122045 METAR LMML 122045Z 32009KT 290V350 9999 FEW034 16/10 Q1016
                        NOSIG=
201011122030 METAR LMML NIL=
201011122015 METAR LMML 122015Z 32008KT 9999 FEW034 16/10 Q1016 NOSIG=
201011122000 METAR LMML NIL=
201011121945 METAR LMML 121945Z 31007KT 9999 FEW035 15/10 Q1016 NOSIG=
201011121930 METAR LMML NIL=
201011121915 METAR LMML 121915Z 30007KT 270V350 9999 FEW020 15/09 Q1016
                        NOSIG=
201011121900 METAR LMML NIL=
201011121845 METAR LMML 121845Z 30008KT CAVOK 15/09 Q1016 NOSIG=
201011121830 METAR LMML NIL=
201011121815 METAR LMML 121815Z 31008KT CAVOK 15/08 Q1016 NOSIG=
201011121800 METAR LMML NIL=
201011121745 METAR LMML 121745Z 30009KT 9999 FEW025 15/08 Q1016 NOSIG=
201011121730 METAR LMML NIL=
201011121715 METAR LMML 121715Z 30010KT 9999 FEW025 15/09 Q1016 NOSIG=
201011121700 METAR LMML NIL=
201011121645 METAR LMML 121645Z 30011KT 9999 FEW025 16/10 Q1016 NOSIG=
201011121630 METAR LMML NIL=
201011121615 METAR LMML 121615Z 30011KT 9999 FEW025 16/10 Q1016 NOSIG=
201011121600 METAR LMML NIL=
201011121545 METAR LMML 121545Z 31013KT 9999 FEW032 16/10 Q1015 NOSIG=
201011121515 METAR LMML 121515Z 31011KT 9999 FEW032 17/11 Q1015 NOSIG=
201011121500 METAR LMML NIL=
201011121445 METAR LMML 121445Z 31012KT 9999 FEW032 18/11 Q1015 NOSIG=
201011121430 METAR LMML NIL=
201011121415 METAR LMML 121415Z 30014KT 270V330 9999 SCT031 18/11 Q1015
                        NOSIG=
201011121400 METAR LMML NIL=
201011121345 METAR LMML 121345Z 33012KT 9999 SCT033 18/11 Q1015 NOSIG=
201011121330 METAR LMML NIL=
201011121315 METAR LMML 121315Z 31013KT 280V350 9999 SCT032 18/11 Q1015
                        NOSIG=
201011121300 METAR LMML NIL=
201011121245 METAR LMML 121245Z 33012KT 9999 SCT031 18/11 Q1015 NOSIG=
201011121230 METAR LMML NIL=
201011121215 METAR LMML 121215Z 32015KT 9999 SCT032 18/11 Q1015 NOSIG=
201011121200 METAR LMML NIL=
201011121145 METAR LMML 121145Z 33011KT 300V360 9999 SCT031 18/11 Q1016
                        NOSIG=
201011121130 METAR LMML NIL=
201011121115 METAR LMML 121115Z 32014KT 290V350 9999 SCT032 18/11 Q1016
                        NOSIG=
201011121100 METAR LMML NIL=
201011121045 METAR LMML 121045Z 32014KT 9999 SCT032 18/11 Q1016 NOSIG=
201011121030 METAR LMML NIL=
201011121015 METAR LMML 121015Z 32016KT 290V350 9999 SCT033 18/11 Q1016
                        NOSIG=
201011121000 METAR LMML NIL=
201011120945 METAR LMML 120945Z 32014KT 9999 SCT033 18/11 Q1017 NOSIG=
201011120930 METAR LMML NIL=
201011120915 METAR LMML 120915Z 32016KT 9999 SCT031 17/10 Q1017 NOSIG=
201011120900 METAR LMML NIL=
201011120845 METAR LMML 120845Z 32016KT 290V350 9999 FEW037 17/11 Q1017
                        NOSIG=
201011120830 METAR LMML NIL=
201011120815 METAR LMML 120815Z 32014KT 9999 SCT031 17/10 Q1017 NOSIG=
201011120800 METAR LMML NIL=
201011120745 METAR LMML 120745Z 32014KT 9999 SCT038 16/11 Q1017 NOSIG=
201011120730 METAR LMML NIL=
201011120715 METAR LMML 120715Z 31014KT 9999 SCT033 16/11 Q1016 NOSIG=
201011120700 METAR LMML NIL=
201011120645 METAR LMML 120645Z 31014KT 9999 FEW029 16/11 Q1016 NOSIG=
201011120630 METAR LMML NIL=
201011120615 METAR LMML 120615Z 31015KT 9999 FEW031 16/11 Q1016 TEMPO
                        8000 SHRA SCT020TCU=
201011120600 METAR LMML NIL=
201011120545 METAR LMML 120545Z 32016KT 9999 FEW029 16/11 Q1016 TEMPO
                        8000 SHRA SCT020TCU=
201011120530 METAR LMML NIL=
201011120515 METAR LMML 120515Z 31015KT 9999 -SHRA SCT029 16/11 Q1015
                        TEMPO 8000 SHRA SCT020TCU=
201011120500 METAR LMML NIL=
201011120445 METAR LMML 120445Z 31014KT 9999 SCT032 16/10 Q1015 TEMPO
                        8000 SHRA SCT020TCU=
201011120430 METAR LMML NIL=
201011120415 METAR LMML 120415Z 31012KT 9999 SCT033 16/10 Q1015 TEMPO
                        8000 SHRA SCT020TCU=
201011120400 METAR LMML NIL=
201011120345 METAR LMML 120345Z 32010KT 9999 FEW032 15/11 Q1015 TEMPO
                        8000 SHRA SCT020TCU=
201011120330 METAR LMML NIL=
201011120315 METAR LMML 120315Z 31010KT 9999 FEW030 15/10 Q1015 TEMPO
                        8000 SHRA SCT020TCU=
201011120300 METAR LMML NIL=
201011120245 METAR LMML 120245Z 31010KT 9999 FEW038 15/11 Q1015 TEMPO
                        8000 SHRA SCT020TCU=
201011120230 METAR LMML NIL=
201011120215 METAR LMML 120215Z 31011KT 9999 FEW030 15/11 Q1015 TEMPO
                        8000 SHRA SCT020TCU=
201011120200 METAR LMML NIL=
201011120145 METAR LMML 120145Z 30011KT 9999 FEW030 15/10 Q1015 TEMPO
                        8000 SHRA SCT020TCU=
201011120130 METAR LMML NIL=
201011120115 METAR LMML 120115Z 31011KT 9999 FEW030 15/11 Q1015 TEMPO
                        8000 SHRA SCT020TCU=
201011120100 METAR LMML NIL=
201011120045 METAR LMML 120045Z 31012KT 9999 FEW030 15/11 Q1015 TEMPO
                        8000 SHRA SCT020TCU=
201011120030 METAR LMML NIL=
201011120015 METAR LMML 120015Z 31010KT 9999 FEW030 15/11 Q1015 TEMPO
                        8000 SHRA SCT020TCU=
201011120000 METAR LMML NIL=
201011112345 METAR LMML 112345Z 31011KT 9999 FEW030 15/11 Q1015 TEMPO
                        8000 SHRA SCT020TCU=
201011112330 METAR LMML NIL=
201011112315 METAR LMML 112315Z 31009KT 9999 FEW030 15/11 Q1015 TEMPO
                        8000 SHRA SCT020TCU=
201011112300 METAR LMML NIL=
201011112245 METAR LMML 112245Z 31008KT 9999 FEW030 15/11 Q1015 TEMPO
                        8000 SHRA SCT020TCU=
201011112215 METAR LMML 112215Z 31011KT 9999 FEW030 15/11 Q1016 TEMPO
                        8000 SHRA SCT020TCU=
201011112200 METAR LMML NIL=
201011112145 METAR LMML 112145Z 31010KT 9999 FEW029 16/11 Q1016 TEMPO
                        8000 SHRA SCT020TCU=
201011112130 METAR LMML NIL=
201011112115 METAR LMML 112115Z 30010KT 9999 FEW030 16/11 Q1016 TEMPO
                        8000 SHRA SCT020TCU=
201011112100 METAR LMML NIL=
201011112045 METAR LMML 112045Z 31010KT 9999 FEW030 16/11 Q1016 TEMPO
                        8000 SHRA SCT020TCU=
201011112030 METAR LMML NIL=
201011112015 METAR LMML 112015Z 30010KT 270V330 9999 SCT029 16/11 Q1016
                        TEMPO 8000 SHRA SCT020TCU=
201011112000 METAR LMML NIL=
201011111945 METAR LMML 111945Z 30009KT 9999 FEW031 16/10 Q1016 TEMPO
                        8000 SHRA SCT020TCU=
201011111930 METAR LMML NIL=
201011111915 METAR LMML 111915Z 30008KT 270V330 9999 FEW031 SCT110 16/11
                        Q1016 NOSIG=
201011111900 METAR LMML NIL=
201011111845 METAR LMML 111845Z 31009KT 9999 FEW027 SCT110 16/11 Q1015
                        NOSIG=
201011111830 METAR LMML NIL=
201011111815 METAR LMML 111815Z 31010KT 9999 FEW025 SCT110 16/11 Q1015
                        NOSIG=
201011111800 METAR LMML NIL=
201011111745 METAR LMML 111745Z 31008KT 9999 FEW025 SCT100 16/11 Q1015
                        NOSIG=
201011111730 METAR LMML NIL=
201011111715 METAR LMML 111715Z 31009KT 9999 FEW025 BKN100 16/11 Q1015
                        NOSIG=
201011111700 METAR LMML NIL=
201011111645 METAR LMML 111645Z 31010KT 9999 FEW025 BKN120 17/12 Q1015
                        NOSIG=
201011111630 METAR LMML NIL=
201011111615 METAR LMML 111615Z 31010KT 9999 FEW025 SCT120 17/11 Q1015
                        NOSIG=
201011111600 METAR LMML NIL=
201011111545 METAR LMML 111545Z 31011KT 9999 FEW026 SCT120 18/11 Q1014
                        NOSIG=
201011111530 METAR LMML NIL=
201011111515 METAR LMML 111515Z 31012KT 9999 FEW026 18/11 Q1014 NOSIG=
201011111500 METAR LMML NIL=
201011111445 METAR LMML 111445Z 32013KT 9999 FEW026 19/10 Q1014 NOSIG=
201011111430 METAR LMML NIL=
201011111415 METAR LMML 111415Z 30012KT 9999 FEW026 19/12 Q1014 NOSIG=
201011111400 METAR LMML NIL=
201011111345 METAR LMML 111345Z 32012KT 290V360 9999 FEW030 19/13 Q1014
                        NOSIG=
201011111330 METAR LMML NIL=
201011111315 METAR LMML 111315Z 33012KT 9999 FEW030 SCT100 19/13 Q1014
                        NOSIG=
201011111300 METAR LMML NIL=
201011111245 METAR LMML 111245Z 32013KT 9999 FEW030 FEW100 20/13 Q1014
                        NOSIG=
201011111230 METAR LMML NIL=
201011111215 METAR LMML 111215Z 31014KT 280V340 9999 FEW030 BKN100 19/13
                        Q1014 NOSIG=
201011111200 METAR LMML NIL=
201011111145 METAR LMML 111145Z 31014KT 9999 FEW030 BKN100 20/13 Q1014
                        NOSIG=
201011111130 METAR LMML NIL=
201011111115 METAR LMML 111115Z 30012KT 9999 FEW030 SCT090 20/12 Q1014
                        NOSIG=
201011111100 METAR LMML NIL=
201011111045 METAR LMML 111045Z 30011KT 9999 FEW030 BKN100 21/13 Q1014
                        NOSIG=
201011111030 METAR LMML NIL=
201011111015 METAR LMML 111015Z 31009KT 270V330 CAVOK 21/14 Q1014 NOSIG=
201011111000 METAR LMML NIL=
201011110945 METAR LMML 110945Z 31008KT 270V330 CAVOK 21/13 Q1014 NOSIG=
201011110930 METAR LMML NIL=
201011110915 METAR LMML 110915Z 28007KT 250V320 CAVOK 21/14 Q1014 NOSIG=
201011110900 METAR LMML NIL=
201011110845 METAR LMML 110845Z 29004KT CAVOK 20/14 Q1014 NOSIG=
201011110830 METAR LMML NIL=
201011110815 METAR LMML 110815Z 30004KT 250V330 CAVOK 20/15 Q1014 NOSIG=
201011110800 METAR LMML NIL=
201011110745 METAR LMML 110745Z 31004KT 280V340 CAVOK 19/15 Q1014 NOSIG=
201011110730 METAR LMML NIL=
201011110715 METAR LMML 110715Z 30004KT 260V320 CAVOK 18/15 Q1014 NOSIG=
201011110700 METAR LMML NIL=
201011110645 METAR LMML 110645Z 30004KT CAVOK 17/15 Q1013 NOSIG=
201011110630 METAR LMML NIL=
201011110615 METAR LMML 110615Z 29006KT CAVOK 17/15 Q1013 NOSIG=
201011110600 METAR LMML NIL=
201011110545 METAR LMML 110545Z 29008KT 9000 FEW020 17/14 Q1013 NOSIG=
201011110530 METAR LMML NIL=
201011110515 METAR LMML 110515Z 28007KT 250V310 9000 FEW020 16/14 Q1012
                        NOSIG=
201011110500 METAR LMML NIL=
201011110445 METAR LMML 110445Z 27006KT 240V300 9000 NSC 17/15 Q1012 NOSIG=
201011110430 METAR LMML NIL=
201011110415 METAR LMML 110415Z 27004KT 9000 NSC 17/15 Q1012 NOSIG=
201011110400 METAR LMML NIL=
201011110345 METAR LMML 110345Z 28004KT 9000 NSC 17/15 Q1012 NOSIG=
201011110330 METAR LMML NIL=
201011110315 METAR LMML 110315Z 31006KT 9000 NSC 17/15 Q1012 NOSIG=
201011110300 METAR LMML NIL=
201011110245 METAR LMML 110245Z 31005KT 9000 NSC 18/14 Q1012 NOSIG=
201011110230 METAR LMML NIL=
201011110215 METAR LMML 110215Z 26006KT 220V290 9000 NSC 19/14 Q1012 NOSIG=
201011110200 METAR LMML NIL=
201011110145 METAR LMML 110145Z 25008KT 200V280 9000 NSC 20/12 Q1012 NOSIG=
201011110130 METAR LMML NIL=
201011110115 METAR LMML 110115Z 24008KT 210V280 9000 NSC 20/13 Q1012 NOSIG=
201011110100 METAR LMML NIL=
201011110045 METAR LMML 110045Z 23008KT 200V270 9000 NSC 21/14 Q1012 NOSIG=
201011110030 METAR LMML NIL=
201011110015 METAR LMML 110015Z 22007KT 190V250 9000 NSC 21/15 Q1012 NOSIG=
201011110000 METAR LMML NIL=
201011102345 METAR LMML 102345Z 22008KT 200V280 9000 NSC 21/14 Q1012 NOSIG=
201011102330 METAR LMML NIL=
201011102315 METAR LMML 102315Z 22005KT 190V270 9000 NSC 20/17 Q1012 NOSIG=
201011102300 METAR LMML NIL=
201011102245 METAR LMML 102245Z 19003KT CAVOK 20/17 Q1012 NOSIG=
201011102230 METAR LMML NIL=
201011102215 METAR LMML 102215Z 18004KT CAVOK 20/17 Q1012 NOSIG=
201011102200 METAR LMML NIL=
201011102145 METAR LMML 102145Z 18004KT CAVOK 19/16 Q1012 NOSIG=
201011102130 METAR LMML NIL=
201011102115 METAR LMML 102115Z 19003KT CAVOK 19/16 Q1012 NOSIG=
201011102100 METAR LMML NIL=
201011102045 METAR LMML 102045Z 20005KT CAVOK 20/15 Q1011 NOSIG=
201011102030 METAR LMML NIL=
201011102015 METAR LMML 102015Z 21006KT 190V250 CAVOK 20/15 Q1011 NOSIG=
201011102000 METAR LMML NIL=
201011101945 METAR LMML 101945Z 21007KT 180V250 CAVOK 20/15 Q1011 NOSIG=
201011101930 METAR LMML NIL=
201011101915 METAR LMML 101915Z 22007KT CAVOK 20/16 Q1011 NOSIG=
201011101900 METAR LMML NIL=
201011101845 METAR LMML 101845Z 22008KT 180V240 CAVOK 20/15 Q1011 NOSIG=
201011101830 METAR LMML NIL=
201011101815 METAR LMML 101815Z 22009KT 190V250 CAVOK 20/16 Q1011 NOSIG=
201011101800 METAR LMML NIL=
201011101745 METAR LMML 101745Z 22011KT 7000 NSC 20/15 Q1010 NOSIG=
201011101730 METAR LMML NIL=
201011101715 METAR LMML 101715Z 22010KT 8000 NSC 20/15 Q1010 NOSIG=
201011101700 METAR LMML NIL=
201011101645 METAR LMML 101645Z 22011KT 8000 NSC 21/15 Q1010 NOSIG=
201011101630 METAR LMML NIL=
201011101615 METAR LMML 101615Z 22010KT 200V280 8000 NSC 21/15 Q1010 NOSIG=
201011101600 METAR LMML NIL=
201011101545 METAR LMML 101545Z 22009KT 190V270 CAVOK 21/15 Q1009 BECMG
                        9000 NSC=
201011101530 METAR LMML NIL=
201011101515 METAR LMML 101515Z 22011KT 200V260 CAVOK 21/15 Q1009 NOSIG=
201011101500 METAR LMML NIL=
201011101445 METAR LMML 101445Z 22009KT 190V280 CAVOK 22/15 Q1009 NOSIG=
201011101430 METAR LMML NIL=
201011101415 METAR LMML 101415Z 22012KT 190V280 CAVOK 22/15 Q1009 NOSIG=
201011101400 METAR LMML NIL=
201011101345 METAR LMML 101345Z 22012KT 180V270 CAVOK 22/15 Q1009 NOSIG=
201011101330 METAR LMML NIL=
201011101315 METAR LMML 101315Z 22012KT 200V270 CAVOK 23/15 Q1008 NOSIG=
201011101300 METAR LMML NIL=
201011101245 METAR LMML 101245Z 22012KT 180V260 CAVOK 23/16 Q1008 NOSIG=
201011101230 METAR LMML NIL=
201011101215 METAR LMML 101215Z 22013KT CAVOK 23/16 Q1008 NOSIG=
201011101200 METAR LMML NIL=
201011101145 METAR LMML 101145Z 22010KT 170V270 9000 NSC 23/16 Q1008 BECMG
                        CAVOK=
201011101130 METAR LMML NIL=
201011101115 METAR LMML 101115Z 20009KT 160V250 9000 NSC 23/17 Q1008 BECMG
                        CAVOK=
201011101100 METAR LMML NIL=
201011101045 METAR LMML 101045Z 21011KT 170V250 7000 NSC 23/16 Q1009 BECMG
                        CAVOK=
201011101030 METAR LMML NIL=
201011101015 METAR LMML 101015Z 22010KT 190V270 6000 NSC 23/17 Q1009 NOSIG=
201011101000 METAR LMML NIL=
201011100945 METAR LMML 100945Z 21010KT 180V250 6000 NSC 23/17 Q1009 NOSIG
                        RMK DUST=
201011100930 METAR LMML NIL=
201011100915 METAR LMML 100915Z 21011KT 170V260 4500 HZ NSC 23/17 Q1009
                        BECMG 7000=
201011100845 METAR LMML 100845Z 21009KT 170V260 4500 HZ NSC 23/16 Q1008
                        BECMG 7000=
201011100830 METAR LMML NIL=
201011100815 METAR LMML 100815Z 22009KT 180V260 3500 HZ NSC 23/15 Q1008
                        BECMG 7000=
201011100800 METAR LMML NIL=
201011100745 METAR LMML 100745Z 22010KT 190V260 3500 HZ NSC 22/15 Q1007
                        BECMG 7000=
201011100730 METAR LMML NIL=
201011100715 METAR LMML 100715Z 22009KT 190V270 3500 HZ NSC 22/15 Q1007
                        BECMG 7000=
201011100700 METAR LMML NIL=
201011100645 METAR LMML 100645Z 22010KT 200V270 3000 HZ NSC 21/15 Q1007
                        BECMG 7000=
201011100630 METAR LMML NIL=
201011100615 METAR LMML 100615Z 22010KT 190V270 3000 HZ NSC 21/15 Q1006
                        BECMG 7000=
201011100600 METAR LMML NIL=
201011100545 METAR LMML 100545Z 22009KT 170V270 3000 HZ NSC 21/15 Q1006
                        BECMG 7000=
201011100530 METAR LMML NIL=
201011100515 METAR LMML 100515Z 22010KT 190V270 4000 HZ NSC 21/15 Q1005
                        BECMG 7000=
201011100500 METAR LMML NIL=
201011100445 METAR LMML 100445Z 21008KT 160V250 4000 DU NSC 21/16 Q1005
                        BECMG 7000=
201011100430 METAR LMML NIL=
201011100415 METAR LMML 100415Z 21009KT 170V280 CAVOK 21/16 Q1005 NOSIG=
201011100400 METAR LMML NIL=
201011100345 METAR LMML 100345Z 21008KT 170V250 CAVOK 20/15 Q1005 NOSIG=
201011100330 METAR LMML NIL=
201011100315 METAR LMML 100315Z 21008KT 180V270 CAVOK 21/15 Q1004 NOSIG=
201011100300 METAR LMML NIL=
201011100245 METAR LMML 100245Z 22011KT 190V260 CAVOK 21/15 Q1004 NOSIG=
201011100230 METAR LMML NIL=
201011100215 METAR LMML 100215Z 23010KT 200V270 CAVOK 21/14 Q1004 NOSIG=
201011100200 METAR LMML NIL=
201011100145 METAR LMML 100145Z 23011KT 200V270 CAVOK 21/14 Q1004 NOSIG=
201011100130 METAR LMML NIL=
201011100115 METAR LMML 100115Z 22010KT 190V250 CAVOK 20/14 Q1004 NOSIG=
201011100045 METAR LMML 100045Z 20008KT 170V250 CAVOK 20/15 Q1004 NOSIG=
201011100015 METAR LMML 100015Z 21009KT 170V250 CAVOK 20/15 Q1004 NOSIG=
201011092345 METAR LMML 092345Z 21007KT 160V250 CAVOK 20/14 Q1004 NOSIG=
201011092330 METAR LMML NIL=
201011092315 METAR LMML 092315Z 21010KT 180V260 CAVOK 20/14 Q1004 NOSIG=
201011092300 METAR LMML NIL=
201011092245 METAR LMML 092245Z 21008KT 160V250 CAVOK 20/14 Q1004 NOSIG=
201011092230 METAR LMML NIL=
201011092215 METAR LMML 092215Z 22010KT 180V250 CAVOK 20/14 Q1004 NOSIG=
201011092145 METAR LMML 092145Z 22009KT 180V270 CAVOK 20/13 Q1003 NOSIG=
201011092115 METAR LMML 092115Z 22011KT 180V260 CAVOK 20/13 Q1003 NOSIG=
201011092100 METAR LMML NIL=
201011092045 METAR LMML 092045Z 22010KT 180V260 CAVOK 20/13 Q1003 NOSIG=
201011092030 METAR LMML NIL=
201011092015 METAR LMML 092015Z 23011KT 200V270 CAVOK 20/13 Q1003 NOSIG=
201011092000 METAR LMML NIL=
201011091945 METAR LMML 091945Z 23010KT 200V280 9999 FEW030 20/13 Q1003
                        NOSIG=
201011091930 METAR LMML NIL=
201011091915 METAR LMML 091915Z 23010KT 190V280 9999 FEW030 20/13 Q1003
                        NOSIG=
201011091900 METAR LMML NIL=
201011091845 METAR LMML 091845Z 24014KT 200V280 9999 FEW030 20/12 Q1003
                        NOSIG=
201011091830 METAR LMML NIL=
201011091815 METAR LMML 091815Z 23012KT 200V280 9999 FEW030 19/12 Q1002
                        NOSIG=
201011091800 METAR LMML NIL=
201011091745 METAR LMML 091745Z 23014KT 180V280 9999 FEW034 19/12 Q1002
                        NOSIG=
201011091730 METAR LMML NIL=
201011091715 METAR LMML 091715Z 24012KT 200V290 9999 FEW034 19/12 Q1002
                        NOSIG=
201011091700 METAR LMML NIL=
201011091645 METAR LMML 091645Z 24015KT 200V280 9999 FEW034 19/12 Q1001
                        NOSIG=
201011091630 METAR LMML NIL=
201011091615 METAR LMML 091615Z 23014KT 170V280 9999 FEW034 19/12 Q1001
                        NOSIG=
201011091600 METAR LMML NIL=
201011091545 METAR LMML 091545Z 24016KT 200V280 9999 FEW034 20/13 Q1000
                        NOSIG=
201011091530 METAR LMML NIL=
201011091515 METAR LMML 091515Z 23016KT 190V270 9999 FEW036 20/12 Q1000
                        NOSIG=
201011091500 METAR LMML NIL=
201011091445 METAR LMML 091445Z 23018KT 200V280 9999 FEW037 20/12 Q1000
                        NOSIG=
201011091430 METAR LMML NIL=
201011091415 METAR LMML 091415Z 23015KT 200V280 9000 FEW039 21/12 Q0999
                        NOSIG=
201011091400 METAR LMML NIL=
201011091345 METAR LMML 091345Z 23017KT 200V280 9000 FEW039 21/12 Q0999
                        NOSIG=
201011091330 METAR LMML NIL=
201011091315 METAR LMML 091315Z 23018G33KT 190V270 9000 FEW039 22/12 Q0999
                        NOSIG=
201011091300 METAR LMML NIL=
201011091245 METAR LMML 091245Z 23019G30KT 190V280 9000 FEW020 22/12 Q0999
                        NOSIG=
201011091230 METAR LMML NIL=
201011091215 METAR LMML 091215Z 23020KT 200V270 8000 FEW020 22/12 Q0999
                        NOSIG=
201011091200 METAR LMML NIL=
201011091145 METAR LMML 091145Z 23015KT 190V280 8000 NSC 22/14 Q0999 NOSIG=
201011091130 METAR LMML NIL=
201011091115 METAR LMML 091115Z 23019KT 200V270 8000 NSC 22/13 Q0999 NOSIG=
201011091100 METAR LMML NIL=
201011091045 METAR LMML 091045Z 23019G29KT 200V280 9000 NSC 22/13 Q0999
                        NOSIG=
201011091030 METAR LMML NIL=
201011091015 METAR LMML 091015Z 23016G27KT 200V280 9000 NSC 22/14 Q1000
                        NOSIG=
201011091000 METAR LMML NIL=
201011090945 METAR LMML 090945Z 22018G28KT 190V270 9000 NSC 22/14 Q1000
                        NOSIG=
201011090915 METAR LMML 090915Z 23016KT 200V270 9000 NSC 22/14 Q1000 NOSIG=
201011090900 METAR LMML NIL=
201011090845 METAR LMML 090845Z 23015KT 200V270 CAVOK 22/14 Q0999 NOSIG=
201011090830 METAR LMML NIL=
201011090815 METAR LMML 090815Z 23015KT 200V280 CAVOK 22/14 Q0999 NOSIG=
201011090800 METAR LMML NIL=
201011090745 METAR LMML 090745Z 23015G25KT 200V280 CAVOK 22/14 Q0999 NOSIG=
201011090730 METAR LMML NIL=
201011090715 METAR LMML 090715Z 23018KT 200V270 CAVOK 21/13 Q0999 NOSIG=
201011090700 METAR LMML NIL=
201011090645 METAR LMML 090645Z 23019KT 190V270 CAVOK 21/13 Q0999 NOSIG=
201011090630 METAR LMML NIL=
201011090615 METAR LMML 090615Z 23020KT 200V260 CAVOK 21/13 Q0999 NOSIG=
201011090545 METAR LMML 090545Z 23019KT 200V260 CAVOK 21/13 Q0998 NOSIG=
201011090530 METAR LMML NIL=
201011090515 METAR LMML 090515Z 22020G33KT 190V270 CAVOK 21/13 Q0998 NOSIG=
201011090500 METAR LMML NIL=
201011090445 METAR LMML 090445Z 23018KT 200V270 CAVOK 21/13 Q0998 NOSIG=
201011090430 METAR LMML NIL=
201011090415 METAR LMML 090415Z 22018G28KT 200V260 CAVOK 21/14 Q0998 NOSIG=
201011090400 METAR LMML NIL=
201011090345 METAR LMML 090345Z 23020G30KT 190V270 CAVOK 22/13 Q0998 NOSIG=
201011090330 METAR LMML NIL=
201011090315 METAR LMML 090315Z 22018G28KT 190V270 CAVOK 21/14 Q0999 NOSIG=
201011090300 METAR LMML NIL=
201011090245 METAR LMML 090245Z 22018KT 190V260 CAVOK 21/14 Q0999 NOSIG=
201011090230 METAR LMML NIL=
201011090215 METAR LMML 090215Z 22017KT 190V270 CAVOK 21/14 Q0999 NOSIG=
201011090200 METAR LMML NIL=
201011090145 METAR LMML 090145Z 22017G29KT 190V280 CAVOK 21/14 Q0999 NOSIG=
201011090130 METAR LMML NIL=
201011090115 METAR LMML 090115Z 22019G30KT 180V260 CAVOK 21/14 Q1000 NOSIG=
201011090100 METAR LMML NIL=
201011090045 METAR LMML 090045Z 22020KT 190V260 CAVOK 22/14 Q1000 NOSIG=
201011090030 METAR LMML NIL=
201011090015 METAR LMML 090015Z 23019G29KT 190V260 CAVOK 22/14 Q1000 NOSIG=
201011090000 METAR LMML NIL=
201011082345 METAR LMML 082345Z 22020KT 200V260 9999 FEW030 22/14 Q1001
                        NOSIG=
201011082330 METAR LMML NIL=
201011082315 METAR LMML 082315Z 22015KT 170V260 9999 FEW030 21/15 Q1001
                        NOSIG=
201011082300 METAR LMML NIL=
201011082245 METAR LMML 082245Z 22013KT 190V270 9999 FEW030 21/16 Q1001
                        NOSIG=
201011082230 METAR LMML NIL=
201011082215 METAR LMML 082215Z 22015KT 180V270 9999 FEW030 21/15 Q1002
                        NOSIG=
201011082200 METAR LMML NIL=
201011082145 METAR LMML 082145Z 21014KT 180V260 9999 FEW030 21/15 Q1002
                        NOSIG=
201011082130 METAR LMML NIL=
201011082115 METAR LMML 082115Z 22015G26KT 170V270 CAVOK 21/15 Q1002 NOSIG=
201011082100 METAR LMML NIL=
201011082045 METAR LMML 082045Z 22013KT 180V260 9999 FEW032 21/14 Q1002
                        NOSIG=
201011082030 METAR LMML NIL=
201011082015 METAR LMML 082015Z 22013KT 180V270 9999 SCT032 20/15 Q1003
                        NOSIG=
201011082000 METAR LMML NIL=
201011081945 METAR LMML 081945Z 22012KT 190V280 9999 SCT032 20/15 Q1003
                        NOSIG=
201011081930 METAR LMML NIL=
201011081915 METAR LMML 081915Z 23017G27KT 180V270 9999 SCT031 20/14 Q1003
                        NOSIG=
201011081900 METAR LMML NIL=
201011081845 METAR LMML 081845Z 22016KT 190V270 9999 SCT030 20/14 Q1003
                        NOSIG=
201011081830 METAR LMML NIL=
201011081815 METAR LMML 081815Z 23016KT 200V260 9999 SCT028 20/15 Q1003
                        NOSIG=
201011081800 METAR LMML NIL=
201011081745 METAR LMML 081745Z 22016G26KT 190V260 9999 FEW025 20/14 Q1003
                        NOSIG=
201011081730 METAR LMML NIL=
201011081715 METAR LMML 081715Z 23015G25KT 190V260 9999 FEW025 20/14 Q1003
                        NOSIG=
201011081700 METAR LMML NIL=
201011081645 METAR LMML 081645Z 22016KT 190V270 9999 FEW025 20/14 Q1002
                        NOSIG=
201011081630 METAR LMML NIL=
201011081615 METAR LMML 081615Z 22014KT 190V260 9999 FEW025 20/14 Q1002
                        NOSIG=
201011081600 METAR LMML NIL=
201011081545 METAR LMML 081545Z 22016KT 190V270 9999 FEW026 20/15 Q1002
                        NOSIG=
201011081530 METAR LMML NIL=
201011081515 METAR LMML 081515Z 22018KT 190V270 9999 FEW026 21/14 Q1002
                        NOSIG=
201011081500 METAR LMML NIL=
201011081445 METAR LMML 081445Z 23017KT 180V270 9999 FEW026 SCT250 21/14
                        Q1002 NOSIG=
201011081430 METAR LMML NIL=
201011081415 METAR LMML 081415Z 23017G27KT 200V270 9999 FEW026 SCT250
                        21/15 Q1002 NOSIG=
201011081345 METAR LMML 081345Z 23017KT 200V260 9999 FEW026 SCT250 21/15
                        Q1003 NOSIG=
201011081315 METAR LMML 081315Z 23015KT 190V280 9999 FEW026 BKN250 21/15
                        Q1003 NOSIG=
201011081300 METAR LMML NIL=
201011081245 METAR LMML 081245Z 23017KT 190V260 9999 FEW026 BKN250 21/15
                        Q1003 NOSIG=
201011081230 METAR LMML NIL=
201011081215 METAR LMML 081215Z 23015KT 200V270 9999 FEW026 BKN250 21/15
                        Q1004 NOSIG=
201011081200 METAR LMML NIL=
201011081145 METAR LMML 081145Z 23016KT 200V270 9999 FEW026 BKN250 20/15
                        Q1004 NOSIG=
201011081130 METAR LMML NIL=
201011081115 METAR LMML 081115Z 23017KT 190V270 9999 SCT026 BKN250 21/15
                        Q1005 NOSIG=
201011081045 METAR LMML 081045Z 23015KT 200V280 9999 SCT026 BKN250 21/15
                        Q1005 NOSIG=
201011081030 METAR LMML NIL=
201011081015 METAR LMML 081015Z 23016KT 200V280 9999 SCT027 BKN250 21/15
                        Q1005 NOSIG=
201011081000 METAR LMML NIL=
201011080945 METAR LMML 080945Z 23013KT 200V270 9999 SCT025 BKN250 20/15
                        Q1006 NOSIG=
201011080930 METAR LMML NIL=
201011080915 METAR LMML 080915Z 23013KT 200V280 9999 FEW027 BKN250 20/15
                        Q1005 NOSIG=
201011080900 METAR LMML NIL=
201011080845 METAR LMML 080845Z 23013KT 200V270 9999 SCT028 BKN250 20/14
                        Q1006 NOSIG=
201011080830 METAR LMML NIL=
201011080815 METAR LMML 080815Z 23013KT 200V280 9999 SCT028 BKN250 20/14
                        Q1006 NOSIG=
201011080745 METAR LMML 080745Z 23014KT 200V270 9999 SCT027 BKN250 20/14
                        Q1006 NOSIG=
201011080715 METAR LMML 080715Z 24011KT 200V280 9999 SCT025 BKN250 19/15
                        Q1006 NOSIG=
201011080700 METAR LMML NIL=
201011080645 METAR LMML 080645Z 24011KT 200V270 9999 SCT025 BKN250 19/14
                        Q1006 NOSIG=
201011080630 METAR LMML NIL=
201011080615 METAR LMML 080615Z 24011KT 200V280 9999 SCT027 SCT250 19/14
                        Q1006 NOSIG=
201011080600 METAR LMML NIL=
201011080545 METAR LMML 080545Z 23014KT 200V280 9999 FEW027 19/14 Q1006
                        NOSIG=
201011080530 METAR LMML NIL=
201011080515 METAR LMML 080515Z 24014KT 190V280 9999 FEW028 19/14 Q1005
                        NOSIG=
201011080500 METAR LMML NIL=
201011080445 METAR LMML 080445Z 24013KT 190V280 9999 FEW029 19/14 Q1005
                        NOSIG=
201011080430 METAR LMML NIL=
201011080415 METAR LMML 080415Z 24014KT 200V280 9999 FEW029 19/14 Q1005
                        NOSIG=
201011080400 METAR LMML NIL=
201011080345 METAR LMML 080345Z 24012KT 200V280 9999 FEW028 18/13 Q1005
                        NOSIG=
201011080330 METAR LMML NIL=
201011080315 METAR LMML 080315Z 24012KT 200V280 9999 SCT028 19/13 Q1006
                        NOSIG=
201011080300 METAR LMML NIL=
201011080245 METAR LMML 080245Z 24012KT 210V280 9999 SCT028 19/14 Q1006
                        NOSIG=
201011080230 METAR LMML NIL=
201011080215 METAR LMML 080215Z 23014KT 190V280 9999 FEW027 19/13 Q1006
                        NOSIG=
201011080200 METAR LMML NIL=
201011080145 METAR LMML 080145Z 24012KT 190V300 9999 SCT029 19/13 Q1006
                        NOSIG=
201011080130 METAR LMML NIL=
201011080115 METAR LMML 080115Z 24015KT 200V290 9999 -RA FEW032 FEW048
                        19/13 Q1006 NOSIG=
201011080100 METAR LMML NIL=
201011080045 METAR LMML 080045Z 24012KT 190V290 9999 -RA SCT029 SCT080
                        19/14 Q1006 NOSIG=
201011080030 METAR LMML NIL=
201011080015 METAR LMML 080015Z 23014KT 190V280 9999 SCT029 SCT090 19/13
                        Q1006 NOSIG=
201011080000 METAR LMML NIL=
201011072345 METAR LMML 072345Z 23014KT 200V270 9999 SCT029 SCT120 19/14
                        Q1006 NOSIG=
201011072330 METAR LMML NIL=
201011072315 METAR LMML 072315Z 23014KT 190V270 9999 SCT029 SCT120 19/14
                        Q1006 NOSIG=
201011072300 METAR LMML NIL=
201011072245 METAR LMML 072245Z 23014KT 180V270 9999 SCT030 SCT120 19/14
                        Q1007 NOSIG=
201011072230 METAR LMML NIL=
201011072215 METAR LMML 072215Z 23014KT 180V290 9999 SCT030 SCT120 19/14
                        Q1007 NOSIG=
201011072200 METAR LMML NIL=
201011072145 METAR LMML 072145Z 22013KT 200V270 9999 SCT025 SCT120 19/14
                        Q1007 NOSIG=
201011072130 METAR LMML NIL=
201011072115 METAR LMML 072115Z 22012KT 180V260 9999 SCT023 BKN090 19/16
                        Q1007 NOSIG=
201011072100 METAR LMML NIL=
201011072045 METAR LMML 072045Z 22011KT 190V270 9999 FEW026 BKN090 19/15
                        Q1007 NOSIG=
201011072030 METAR LMML NIL=
201011072015 METAR LMML 072015Z 23013KT 200V270 9999 FEW020 BKN080 18/13
                        Q1007 TEMPO 8000 SHRA BKN015TCU=
201011072000 METAR LMML NIL=
201011071945 METAR LMML 071945Z 23011KT 200V260 9999 FEW020 SCT100 18/14
                        Q1007 TEMPO 3000 TSRA BKN015CB RMK
                        LIGHTNING TO NE=
201011071930 METAR LMML NIL=
201011071915 METAR LMML 071915Z 22011KT 190V280 6000 -TSRA BKN019CB SCT070
                        18/15 Q1008 TEMPO 3000 TSRA BKN015CB=
201011071900 METAR LMML NIL=
201011071845 METAR LMML 071845Z 22006KT 200V260 9999 SHRA BKN028TCU SCT090
                        19/17 Q1009 TEMPO 8000 SHRA BKN015=
201011071830 METAR LMML NIL=
201011071815 METAR LMML 071815Z 24006KT 200V290 9999 -RA BKN027 SCT090
                        19/17 Q1007 TEMPO SHRA BKN015=
201011071800 METAR LMML NIL=
201011071745 METAR LMML 071745Z 24006KT 210V290 9000 SCT013 BKN100 19/18
                        Q1007 TEMPO SHRA BKN015=
201011071730 METAR LMML NIL=
201011071715 METAR LMML 071715Z 24010KT 200V290 9000 SCT015 BKN100 20/18
                        Q1007 RETS TEMPO SHRA BKN015=
201011071700 METAR LMML NIL=
201011071645 METAR LMML 071645Z 20006KT 150V240 9000 FEW015 FEW040CB BKN110
                        20/17 Q1007 RETS TEMPO 7000 SHRA
                        BKN015=
201011071630 METAR LMML NIL=
201011071615 METAR LMML 071615Z 19011KT 160V230 6000 TSRA FEW015 SCT040CB
                        BKN150 21/19 Q1008 TEMPO 5000=
201011071600 METAR LMML NIL=
201011071545 METAR LMML 071545Z 18008KT 150V210 6000 -RA FEW012 BKN100
                        OVC150 21/19 Q1008 TEMPO 5000 TSRA
                        BKN070CB=
201011071530 METAR LMML NIL=
201011071515 METAR LMML 071515Z 19010KT 160V220 8000 -RA SCT014 BKN110
                        OVC150 21/19 Q1008 NOSIG=
201011071500 METAR LMML NIL=
201011071445 METAR LMML 071445Z 14010KT 9999 FEW008 BKN120 OVC150 21/19
                        Q1006 NOSIG=
201011071430 METAR LMML NIL=
201011071415 METAR LMML 071415Z 13009KT 110V170 9999 FEW012 BKN120 OVC150
                        21/19 Q1006 NOSIG=
201011071400 METAR LMML NIL=
201011071345 METAR LMML 071345Z 13014KT 9999 FEW008 SCT110 OVC150 21/19
                        Q1006 NOSIG=
201011071330 METAR LMML NIL=
201011071315 METAR LMML 071315Z 13013KT 9999 FEW008 SCT110 OVC150 21/19
                        Q1007 NOSIG=
201011071300 METAR LMML NIL=
201011071245 METAR LMML 071245Z 13011KT 9999 FEW008 SCT110 OVC150 21/20
                        Q1007 TEMPO 9000 RA=
201011071230 METAR LMML NIL=
201011071215 METAR LMML 071215Z 13009KT 100V160 9999 FEW008 SCT110 OVC150
                        21/20 Q1008 TEMPO 9000 RA=
201011071200 METAR LMML NIL=
201011071145 METAR LMML 071145Z 15010KT 120V190 9999 SCT007 SCT080 BKN150
                        21/20 Q1010 TEMPO 9000 RA=
201011071115 METAR LMML 071115Z 14008KT 110V180 9999 -RA SCT011 SCT080
                        BKN150 21/20 Q1010 TEMPO 9000 BKN012=
201011071100 METAR LMML NIL=
201011071045 METAR LMML 071045Z 16010KT 130V190 9999 -RA SCT012 SCT080
                        OVC150 21/19 Q1011 TEMPO 9000 BKN012=
201011071030 METAR LMML NIL=
201011071015 METAR LMML 071015Z 15010KT 9999 SCT013 SCT080 OVC150 21/18
                        Q1012 NOSIG=
201011071000 METAR LMML NIL=
201011070945 METAR LMML 070945Z 14011KT 9999 FEW013 BKN120 BKN250 21/18
                        Q1011 NOSIG=
201011070930 METAR LMML NIL=
201011070915 METAR LMML 070915Z 14013KT 110V170 9999 FEW013 SCT041 BKN120
                        21/18 Q1012 NOSIG=
201011070900 METAR LMML NIL=
201011070845 METAR LMML 070845Z 14012KT 110V170 9999 FEW013 BKN040 21/18
                        Q1012 NOSIG=
201011070830 METAR LMML NIL=
201011070815 METAR LMML 070815Z 14011KT 9999 FEW015 BKN038 20/18 Q1012
                        NOSIG=
201011070800 METAR LMML NIL=
201011070745 METAR LMML 070745Z 14009KT 9999 SCT016 BKN031 20/17 Q1012
                        NOSIG=
201011070730 METAR LMML NIL=
201011070715 METAR LMML 070715Z 13008KT 9999 SCT016 BKN025 20/17 Q1012
                        NOSIG=
201011070700 METAR LMML NIL=
201011070645 METAR LMML 070645Z 14007KT 9999 FEW016 19/17 Q1013 NOSIG=
201011070630 METAR LMML NIL=
201011070615 METAR LMML 070615Z 14006KT 9999 SCT020 SCT250 19/16 Q1013
                        NOSIG=
201011070600 METAR LMML NIL=
201011070545 METAR LMML 070545Z 14007KT 9999 SCT019 SCT250 18/16 Q1013
                        NOSIG=
201011070530 METAR LMML NIL=
201011070515 METAR LMML 070515Z 15006KT 120V180 9999 BKN020 18/16 Q1013
                        NOSIG=
201011070500 METAR LMML NIL=
201011070445 METAR LMML 070445Z 14005KT 9999 SCT020 17/15 Q1013 NOSIG=
201011070430 METAR LMML NIL=
201011070415 METAR LMML 070415Z 14005KT 9999 SCT020 17/16 Q1013 NOSIG=
201011070400 METAR LMML NIL=
201011070345 METAR LMML 070345Z 13004KT 9999 FEW020 16/15 Q1013 NOSIG=
201011070330 METAR LMML NIL=
201011070315 METAR LMML 070315Z 12004KT 9999 SCT019 SCT032 17/16 Q1013
                        NOSIG=
201011070300 METAR LMML NIL=
201011070245 METAR LMML 070245Z 13005KT 9999 FEW020 SCT030 17/16 Q1014
                        NOSIG=
201011070230 METAR LMML NIL=
201011070215 METAR LMML 070215Z VRB02KT 9999 FEW018 16/15 Q1014 NOSIG=
201011070200 METAR LMML NIL=
201011070145 METAR LMML 070145Z VRB01KT 9999 FEW019 16/15 Q1014 NOSIG=
201011070130 METAR LMML NIL=
201011070115 METAR LMML 070115Z VRB01KT 9999 FEW019 BKN034 16/15 Q1015
                        NOSIG=
201011070100 METAR LMML NIL=
201011070045 METAR LMML 070045Z 00000KT 9999 FEW021 BKN032 16/15 Q1015
                        NOSIG=
201011070030 METAR LMML NIL=
201011070015 METAR LMML 070015Z VRB01KT 9999 FEW021 BKN033 16/15 Q1015
                        NOSIG=
201011070000 METAR LMML NIL=
201011062345 METAR LMML 062345Z 08003KT 9999 BKN034 16/15 Q1015 NOSIG=
201011062330 METAR LMML NIL=
201011062315 METAR LMML 062315Z VRB01KT 9999 FEW019 BKN035 17/15 Q1016
                        NOSIG=
201011062300 METAR LMML NIL=
201011062245 METAR LMML 062245Z VRB02KT 9999 FEW019 BKN032 BKN250 17/15
                        Q1016 NOSIG=
201011062230 METAR LMML NIL=
201011062215 METAR LMML 062215Z 12003KT 9999 FEW024 SCT031 BKN250 17/15
                        Q1017 NOSIG=
201011062200 METAR LMML NIL=
201011062145 METAR LMML 062145Z VRB02KT 9999 FEW022 SCT032 BKN250 17/15
                        Q1017 NOSIG=
201011062130 METAR LMML NIL=
201011062115 METAR LMML 062115Z VRB02KT 9999 FEW032 BKN250 17/15 Q1017
                        NOSIG=
201011062100 METAR LMML NIL=
201011062045 METAR LMML 062045Z 11003KT 9999 SCT032 SCT250 17/15 Q1017
                        NOSIG=
201011062030 METAR LMML NIL=
201011062015 METAR LMML 062015Z 12003KT 9999 SCT020 SCT250 17/15 Q1017
                        NOSIG=
201011062000 METAR LMML NIL=
201011061945 METAR LMML 061945Z 13005KT 9999 SCT020 SCT250 18/15 Q1017
                        NOSIG=
201011061930 METAR LMML NIL=
201011061915 METAR LMML 061915Z 14005KT 9999 SCT018 SCT250 18/15 Q1018
                        NOSIG=
201011061900 METAR LMML NIL=
201011061845 METAR LMML 061845Z 11006KT 080V140 9999 SCT018 SCT250 18/15
                        Q1018 NOSIG=
201011061830 METAR LMML NIL=
201011061815 METAR LMML 061815Z 11005KT 9999 SCT018 BKN250 18/15 Q1018
                        NOSIG=
201011061800 METAR LMML NIL=
201011061745 METAR LMML 061745Z 11005KT 9999 SCT018 BKN250 18/15 Q1018
                        NOSIG=
201011061730 METAR LMML NIL=
201011061715 METAR LMML 061715Z 11006KT 9999 SCT018 BKN250 18/15 Q1018
                        NOSIG=
201011061700 METAR LMML NIL=
201011061645 METAR LMML 061645Z 12007KT 9999 SCT018 BKN250 18/15 Q1018
                        NOSIG=
201011061630 METAR LMML NIL=
201011061615 METAR LMML 061615Z 10006KT 9999 SCT019 BKN250 18/15 Q1018
                        NOSIG=
201011061600 METAR LMML NIL=
201011061545 METAR LMML 061545Z 11007KT 9999 SCT020 BKN250 19/15 Q1018
                        NOSIG=
201011061530 METAR LMML NIL=
201011061515 METAR LMML 061515Z 12008KT 080V140 9999 FEW019 BKN250 19/15
                        Q1018 NOSIG=
201011061500 METAR LMML NIL=
201011061445 METAR LMML 061445Z 11008KT 080V140 9999 SCT020 BKN250 19/15
                        Q1018 NOSIG=
201011061430 METAR LMML NIL=
201011061415 METAR LMML 061415Z 09009KT 050V130 9999 SCT020 BKN250 20/15
                        Q1018 NOSIG=
201011061400 METAR LMML NIL=
201011061345 METAR LMML 061345Z 08010KT 050V130 9999 FEW020 BKN250 20/16
                        Q1018 NOSIG=
201011061330 METAR LMML NIL=
201011061315 METAR LMML 061315Z 07010KT 040V120 9999 FEW023 BKN250 20/15
                        Q1018 NOSIG=
201011061300 METAR LMML NIL=
201011061245 METAR LMML 061245Z 07011KT 040V110 9999 FEW023 SCT250 21/15
                        Q1019 NOSIG=
201011061230 METAR LMML NIL=
201011061215 METAR LMML 061215Z 08007KT 040V120 9999 FEW026 SCT250 21/15
                        Q1020 NOSIG=
201011061145 METAR LMML 061145Z 07005KT 020V120 9999 FEW024 SCT250 22/15
                        Q1020 NOSIG=
201011061130 METAR LMML NIL=
201011061115 METAR LMML 061115Z 04006KT 010V090 9999 FEW024 SCT250 22/14
                        Q1021 NOSIG=
201011061100 METAR LMML NIL=
201011061045 METAR LMML 061045Z 04006KT 360V080 9999 FEW026 SCT250 22/15
                        Q1021 NOSIG=
201011061030 METAR LMML NIL=
201011061015 METAR LMML 061015Z 06005KT 360V110 9999 SCT027 SCT250 22/15
                        Q1022 NOSIG=
201011061000 METAR LMML NIL=
201011060945 METAR LMML 060945Z 07004KT 030V110 9999 FEW025 SCT250 21/14
                        Q1023 NOSIG=
201011060930 METAR LMML NIL=
201011060915 METAR LMML 060915Z 09003KT 9999 FEW022 SCT250 21/15 Q1023
                        NOSIG=
201011060900 METAR LMML NIL=
201011060845 METAR LMML 060845Z 06004KT 020V090 9999 FEW022 SCT250 21/15
                        Q1023 NOSIG=
201011060830 METAR LMML NIL=
201011060815 METAR LMML 060815Z 10004KT 040V140 9999 FEW020 BKN250 20/15
                        Q1023 NOSIG=
201011060800 METAR LMML NIL=
201011060745 METAR LMML 060745Z 07005KT 020V100 9999 FEW020 BKN250 19/15
                        Q1022 NOSIG=
201011060730 METAR LMML NIL=
201011060715 METAR LMML 060715Z 05004KT 360V110 9999 FEW020 BKN250 18/14
                        Q1022 NOSIG=
201011060700 METAR LMML NIL=
201011060645 METAR LMML 060645Z 05003KT 9999 FEW020 BKN250 17/14 Q1022
                        NOSIG=
201011060615 METAR LMML 060615Z 09003KT 9999 FEW020 BKN250 17/14 Q1022
                        NOSIG=
201011060600 METAR LMML NIL=
201011060545 METAR LMML 060545Z 08004KT 9999 FEW020 BKN250 17/14 Q1022
                        NOSIG=
201011060530 METAR LMML NIL=
201011060515 METAR LMML 060515Z 07004KT 9999 FEW020 BKN250 17/14 Q1022
                        NOSIG=
201011060500 METAR LMML NIL=
201011060445 METAR LMML 060445Z 07003KT 9999 FEW020 17/14 Q1022 NOSIG=
201011060430 METAR LMML NIL=
201011060415 METAR LMML 060415Z 09003KT 9999 FEW034 BKN250 17/14 Q1022
                        NOSIG=
201011060400 METAR LMML NIL=
201011060345 METAR LMML 060345Z 07003KT 9999 SCT020 BKN250 18/15 Q1022
                        NOSIG=
201011060330 METAR LMML NIL=
201011060315 METAR LMML 060315Z 07003KT 9999 BKN018 BKN250 18/15 Q1022
                        NOSIG=
201011060300 METAR LMML NIL=
201011060245 METAR LMML 060245Z 04003KT 9999 SCT020 SCT250 17/15 Q1022
                        NOSIG=
201011060230 METAR LMML NIL=
201011060215 METAR LMML 060215Z VRB02KT 9999 FEW019 17/15 Q1023 NOSIG=
201011060200 METAR LMML NIL=
201011060145 METAR LMML 060145Z 10003KT 9999 FEW019 SCT250 17/15 Q1023
                        NOSIG=
201011060130 METAR LMML NIL=
201011060115 METAR LMML 060115Z 08004KT 040V110 9999 FEW019 SCT250 18/15
                        Q1023 NOSIG=
201011060100 METAR LMML NIL=
201011060045 METAR LMML 060045Z 09005KT 060V120 9999 SCT018 SCT250 18/15
                        Q1023 NOSIG=
201011060030 METAR LMML NIL=
201011060015 METAR LMML 060015Z 08005KT 9999 SCT018 SCT250 18/15 Q1023
                        NOSIG=
201011060000 METAR LMML NIL=
201011052345 METAR LMML 052345Z 09007KT 060V120 9999 SCT018 SCT250 18/15
                        Q1023 NOSIG=
201011052330 METAR LMML NIL=
201011052315 METAR LMML 052315Z 08006KT 9999 SCT017 SCT250 18/16 Q1023
                        NOSIG=
201011052300 METAR LMML NIL=
201011052245 METAR LMML 052245Z 07007KT 9999 FEW016 SCT250 18/16 Q1024
                        NOSIG=
201011052230 METAR LMML NIL=
201011052215 METAR LMML 052215Z 07007KT 040V150 9999 FEW015 SCT250 18/16
                        Q1024 NOSIG=
201011052145 METAR LMML 052145Z 07007KT 040V100 9999 FEW017 SCT250 18/16
                        Q1024 NOSIG=
201011052130 METAR LMML NIL=
201011052115 METAR LMML 052115Z 07006KT 030V110 9999 FEW015 SCT250 18/16
                        Q1024 NOSIG=
201011052100 METAR LMML NIL=
201011052045 METAR LMML 052045Z 08005KT 9999 FEW019 SCT250 18/15 Q1025
                        NOSIG=
201011052030 METAR LMML NIL=
201011052015 METAR LMML 052015Z 07005KT 040V110 9999 FEW019 SCT250 19/16
                        Q1025 NOSIG=
201011052000 METAR LMML NIL=
201011051945 METAR LMML 051945Z 08005KT 9999 SCT019 SCT250 19/15 Q1025
                        NOSIG=
201011051930 METAR LMML NIL=
201011051915 METAR LMML 051915Z 09005KT 060V120 9999 SCT022 SCT250 19/15
                        Q1025 NOSIG=
201011051900 METAR LMML NIL=
201011051845 METAR LMML 051845Z 09005KT 060V120 9999 FEW023 BKN250 18/15
                        Q1025 NOSIG=
201011051830 METAR LMML NIL=
201011051815 METAR LMML 051815Z 09006KT 050V130 9999 FEW025 BKN250 19/15
                        Q1025 NOSIG=
201011051800 METAR LMML NIL=
201011051745 METAR LMML 051745Z 09007KT 9999 SCT025 BKN250 19/15 Q1025
                        NOSIG=
201011051715 METAR LMML 051715Z 10007KT 080V140 9999 SCT025 SCT250 19/15
                        Q1025 NOSIG=
201011051700 METAR LMML NIL=
201011051645 METAR LMML 051645Z 10007KT 070V130 9999 BKN026 BKN250 19/15
                        Q1025 NOSIG=
201011051630 METAR LMML NIL=
201011051615 METAR LMML 051615Z 09007KT 060V120 9999 BKN028 BKN250 19/14
                        Q1024 NOSIG=
201011051600 METAR LMML NIL=
201011051545 METAR LMML 051545Z 10008KT 9999 BKN028 BKN250 20/14 Q1025
                        NOSIG=
201011051530 METAR LMML NIL=
201011051515 METAR LMML 051515Z 10007KT 070V140 9999 FEW028 BKN037 BKN250
                        20/15 Q1025 NOSIG=
201011051500 METAR LMML NIL=
201011051445 METAR LMML 051445Z 10009KT 9999 FEW025 BKN250 20/15 Q1025
                        NOSIG=
201011051430 METAR LMML NIL=
201011051415 METAR LMML 051415Z 11010KT 070V130 9999 FEW025 BKN250 20/15
                        Q1025 NOSIG=
201011051400 METAR LMML NIL=
201011051345 METAR LMML 051345Z 10010KT 060V130 9999 FEW025 BKN250 21/14
                        Q1025 NOSIG=
201011051330 METAR LMML NIL=
201011051315 METAR LMML 051315Z 10010KT 080V140 9999 FEW025 BKN250 21/14
                        Q1025 NOSIG=
201011051300 METAR LMML NIL=
201011051245 METAR LMML 051245Z 11011KT 9999 FEW026 BKN250 21/15 Q1026
                        NOSIG=
201011051230 METAR LMML NIL=
201011051215 METAR LMML 051215Z 11011KT 070V140 9999 FEW026 BKN250 21/15
                        Q1026 NOSIG=
201011051200 METAR LMML NIL=
201011051145 METAR LMML 051145Z 11012KT 070V130 9999 FEW024 SCT250 21/16
                        Q1026 NOSIG=
201011051130 METAR LMML NIL=
201011051115 METAR LMML 051115Z 11012KT 080V140 9999 FEW023 SCT250 22/16
                        Q1026 NOSIG=
201011051100 METAR LMML NIL=
201011051045 METAR LMML 051045Z 11013KT 070V140 9999 FEW021 SCT250 21/16
                        Q1026 NOSIG=
201011051030 METAR LMML NIL=
201011051015 METAR LMML 051015Z 10013KT 070V130 9999 FEW017 SCT250 21/17
                        Q1026 NOSIG=
201011051000 METAR LMML NIL=
201011050945 METAR LMML 050945Z 10014KT 070V130 9999 FEW017 SCT250 21/17
                        Q1026 NOSIG=
201011050930 METAR LMML NIL=
201011050915 METAR LMML 050915Z 10013KT 070V140 9999 SCT016 BKN250 21/17
                        Q1026 NOSIG=
201011050900 METAR LMML NIL=
201011050845 METAR LMML 050845Z 08009KT 050V110 9999 SCT016 BKN250 21/18
                        Q1026 NOSIG=
201011050830 METAR LMML NIL=
201011050815 METAR LMML 050815Z 10012KT 9999 BKN016 BKN250 21/18 Q1026
                        NOSIG=
201011050800 METAR LMML NIL=
201011050745 METAR LMML 050745Z 09010KT 9999 SCT015 BKN250 21/18 Q1026
                        NOSIG=
201011050730 METAR LMML NIL=
201011050715 METAR LMML 050715Z 09010KT 060V120 9999 SCT014 BKN250 20/18
                        Q1026 NOSIG=
201011050700 METAR LMML NIL=
201011050645 METAR LMML 050645Z 09011KT 9999 FEW013 BKN250 20/18 Q1026
                        NOSIG=
201011050630 METAR LMML NIL=
201011050615 METAR LMML 050615Z 09012KT 9999 SCT013 SCT120 BKN250 20/18
                        Q1025 NOSIG=
201011050600 METAR LMML NIL=
201011050545 METAR LMML 050545Z 09010KT 9999 SCT010 BKN015 19/18 Q1025
                        NOSIG=
201011050530 METAR LMML NIL=
201011050515 METAR LMML 050515Z 09008KT 9999 SCT007 BKN012 20/19 Q1025
                        NOSIG=
201011050500 METAR LMML NIL=
201011050445 METAR LMML 050445Z 09007KT 060V120 9999 SCT009 BKN014 20/19
                        Q1025 NOSIG=
201011050430 METAR LMML NIL=
201011050415 METAR LMML 050415Z 09007KT 9999 SCT008 BKN015 20/19 Q1025
                        NOSIG=
201011050400 METAR LMML NIL=
201011050345 METAR LMML 050345Z 08008KT 050V110 9999 BKN007 20/19 Q1024
                        NOSIG=
201011050315 METAR LMML 050315Z 07009KT 9999 BKN007 BKN015 19/19 Q1024
                        NOSIG=
201011050300 METAR LMML NIL=
201011050245 METAR LMML 050245Z 07008KT 040V100 9999 BKN006 SCT012 19/19
                        Q1024 NOSIG=
201011050230 METAR LMML NIL=
201011050215 METAR LMML 050215Z 07007KT 040V100 9999 BKN008 SCT017 19/18
                        Q1024 NOSIG=
201011050200 METAR LMML NIL=
201011050145 METAR LMML 050145Z 07007KT 040V100 9999 SCT008 BKN120 19/18
                        Q1024 NOSIG=
201011050130 METAR LMML NIL=
201011050115 METAR LMML 050115Z 07003KT 9999 SCT010 BKN120 19/17 Q1025
                        NOSIG=
201011050100 METAR LMML NIL=
201011050045 METAR LMML 050045Z 07005KT 030V100 9999 FEW013 BKN120 19/17
                        Q1025 NOSIG=
201011050030 METAR LMML NIL=
201011050015 METAR LMML 050015Z 06005KT 030V090 9999 FEW014 BKN110 19/17
                        Q1025 NOSIG=
201011050000 METAR LMML NIL=
201011042345 METAR LMML 042345Z 05004KT 020V090 9999 FEW018 BKN110 19/16
                        Q1025 NOSIG=
201011042330 METAR LMML NIL=
201011042315 METAR LMML 042315Z 06005KT 030V090 CAVOK 19/15 Q1025 NOSIG=
201011042300 METAR LMML NIL=
201011042245 METAR LMML 042245Z 05005KT 9999 FEW018 BKN120 19/14 Q1025
                        NOSIG=
201011042230 METAR LMML NIL=
201011042215 METAR LMML 042215Z 07005KT 030V090 9999 FEW018 BKN120 18/14
                        Q1026 NOSIG=
201011042200 METAR LMML NIL=
201011042145 METAR LMML 042145Z 07005KT 9999 FEW018 BKN120 18/14 Q1026
                        NOSIG=
201011042130 METAR LMML NIL=
201011042115 METAR LMML 042115Z 05004KT 020V080 9999 FEW017 BKN120 18/15
                        Q1026 NOSIG=
201011042100 METAR LMML NIL=
201011042045 METAR LMML 042045Z 11003KT 9999 FEW017 BKN100 18/15 Q1026
                        NOSIG=
201011042030 METAR LMML NIL=
201011042015 METAR LMML 042015Z 03004KT 360V060 9999 -RA FEW017 BKN080
                        19/16 Q1025 NOSIG=
201011042000 METAR LMML NIL=
201011041945 METAR LMML 041945Z 09006KT 060V120 9999 FEW017 BKN090 19/16
                        Q1026 NOSIG=
201011041930 METAR LMML NIL=
201011041915 METAR LMML 041915Z 07005KT 030V120 9999 FEW019 BKN100 19/16
                        Q1025 NOSIG=
201011041900 METAR LMML NIL=
201011041845 METAR LMML 041845Z 09005KT 9999 FEW025 19/16 Q1025 NOSIG=
201011041830 METAR LMML NIL=
201011041815 METAR LMML 041815Z 08004KT 9999 FEW025 19/16 Q1025 NOSIG=
201011041800 METAR LMML NIL=
201011041745 METAR LMML 041745Z 08004KT 9999 FEW025 19/15 Q1024 NOSIG=
201011041730 METAR LMML NIL=
201011041715 METAR LMML 041715Z 09005KT 9999 FEW025 19/15 Q1024 NOSIG=
201011041700 METAR LMML NIL=
201011041645 METAR LMML 041645Z 09006KT 9999 FEW025 19/15 Q1024 NOSIG=
201011041630 METAR LMML NIL=
201011041615 METAR LMML 041615Z 10005KT 9999 FEW025 19/15 Q1024 NOSIG=
201011041600 METAR LMML NIL=
201011041545 METAR LMML 041545Z 10005KT 9999 FEW023 20/16 Q1023 NOSIG=
201011041530 METAR LMML NIL=
201011041515 METAR LMML 041515Z 10007KT 070V130 9999 FEW023 20/16 Q1023
                        NOSIG=
201011041500 METAR LMML NIL=
201011041445 METAR LMML 041445Z 12007KT 9999 FEW023 21/15 Q1023 NOSIG=
201011041430 METAR LMML NIL=
201011041415 METAR LMML 041415Z 12008KT 9999 SCT023 20/15 Q1023 NOSIG=
201011041400 METAR LMML NIL=
201011041345 METAR LMML 041345Z 10007KT 080V150 9999 SCT024 20/16 Q1023
                        NOSIG=
201011041330 METAR LMML NIL=
201011041315 METAR LMML 041315Z 12008KT 080V160 9999 SCT023 21/16 Q1023
                        NOSIG=
201011041300 METAR LMML NIL=
201011041245 METAR LMML 041245Z 12008KT 090V150 9999 SCT024 21/15 Q1023
                        NOSIG=
201011041230 METAR LMML NIL=
201011041215 METAR LMML 041215Z 11009KT 080V150 9999 SCT023 20/16 Q1023
                        NOSIG=
201011041200 METAR LMML NIL=
201011041145 METAR LMML 041145Z 12009KT 080V150 9999 SCT024 21/16 Q1023
                        NOSIG=
201011041130 METAR LMML NIL=
201011041115 METAR LMML 041115Z 11007KT 070V150 9999 SCT023 21/16 Q1023
                        NOSIG=
201011041100 METAR LMML NIL=
201011041045 METAR LMML 041045Z 12008KT 090V150 9999 SCT023 21/16 Q1023
                        NOSIG=
201011041030 METAR LMML NIL=
201011041015 METAR LMML 041015Z 11008KT 080V170 9999 SCT025 21/16 Q1023
                        NOSIG=
201011041000 METAR LMML NIL=
201011040945 METAR LMML 040945Z 11008KT 070V150 9999 SCT024 SCT250 21/16
                        Q1023 NOSIG=
201011040930 METAR LMML NIL=
201011040915 METAR LMML 040915Z 11008KT 080V140 9999 SCT025 20/16 Q1023
                        NOSIG=
201011040845 METAR LMML 040845Z 13007KT 100V160 9999 SCT027 20/15 Q1023
                        NOSIG=
201011040830 METAR LMML NIL=
201011040815 METAR LMML 040815Z 12005KT 060V190 9999 SCT028 21/15 Q1022
                        NOSIG=
201011040800 METAR LMML NIL=
201011040745 METAR LMML 040745Z VRB01KT 9999 SCT030TCU 20/17 Q1022 NOSIG=
201011040715 METAR LMML 040715Z VRB01KT 9999 SCT032 18/16 Q1022 NOSIG=
201011040700 METAR LMML NIL=
201011040645 METAR LMML 040645Z VRB01KT 9999 SCT032 16/15 Q1021 NOSIG=
201011040630 METAR LMML NIL=
201011040615 METAR LMML 040615Z VRB01KT 9999 SCT031 15/14 Q1021 NOSIG=
201011040600 METAR LMML NIL=
201011040545 METAR LMML 040545Z VRB01KT 9999 FEW026 14/13 Q1021 NOSIG=
201011040530 METAR LMML NIL=
201011040515 METAR LMML 040515Z VRB02KT 9999 FEW027 15/13 Q1020 NOSIG=
201011040500 METAR LMML NIL=
201011040445 METAR LMML 040445Z VRB01KT 9999 FEW027 14/13 Q1020 NOSIG=
201011040430 METAR LMML NIL=
201011040415 METAR LMML 040415Z VRB02KT 9999 FEW027 14/13 Q1019 NOSIG=
201011040400 METAR LMML NIL=
201011040345 METAR LMML 040345Z VRB02KT 9999 FEW027 15/13 Q1019 NOSIG=
201011040330 METAR LMML NIL=
201011040315 METAR LMML 040315Z VRB01KT 9999 SCT028 15/13 Q1019 NOSIG=
201011040300 METAR LMML NIL=
201011040245 METAR LMML 040245Z VRB01KT 9999 FEW026 16/13 Q1019 NOSIG=
201011040230 METAR LMML NIL=
201011040215 METAR LMML 040215Z 22003KT 9999 FEW046 15/13 Q1018 NOSIG=
201011040200 METAR LMML NIL=
201011040145 METAR LMML 040145Z VRB01KT 9999 SCT026 15/13 Q1018 NOSIG=
201011040130 METAR LMML NIL=
201011040115 METAR LMML 040115Z VRB01KT 9999 SCT027 15/13 Q1018 NOSIG=
201011040100 METAR LMML NIL=
201011040045 METAR LMML 040045Z 00000KT 9999 FEW027 15/13 Q1018 NOSIG=
201011040030 METAR LMML NIL=
201011040015 METAR LMML 040015Z 17003KT 9999 FEW027 16/13 Q1018 NOSIG=
201011040000 METAR LMML NIL=
201011032345 METAR LMML 032345Z 17003KT 9999 FEW028 16/13 Q1018 NOSIG=
201011032330 METAR LMML NIL=
201011032315 METAR LMML 032315Z VRB02KT 9999 FEW028 16/13 Q1018 NOSIG=
201011032300 METAR LMML NIL=
201011032245 METAR LMML 032245Z VRB01KT 9999 FEW027 16/13 Q1018 NOSIG=
201011032230 METAR LMML NIL=
201011032215 METAR LMML 032215Z 20003KT 9999 FEW030 17/13 Q1018 NOSIG=
201011032200 METAR LMML NIL=
201011032145 METAR LMML 032145Z 19004KT 9999 FEW030 17/13 Q1018 NOSIG=
201011032130 METAR LMML NIL=
201011032115 METAR LMML 032115Z 18003KT 9999 FEW030 17/13 Q1018 NOSIG=
201011032100 METAR LMML NIL=
201011032045 METAR LMML 032045Z VRB02KT 9999 FEW029 17/13 Q1018 NOSIG=
201011032030 METAR LMML NIL=
201011032015 METAR LMML 032015Z VRB02KT 9999 FEW029 17/13 Q1017 NOSIG=
201011031945 METAR LMML 031945Z 21003KT 9999 FEW029 17/13 Q1017 NOSIG=
201011031930 METAR LMML NIL=
201011031915 METAR LMML 031915Z 22003KT 9999 FEW029 17/13 Q1017 NOSIG=
201011031900 METAR LMML NIL=
201011031845 METAR LMML 031845Z 21003KT 9999 FEW029 17/13 Q1017 NOSIG=
201011031830 METAR LMML NIL=
201011031815 METAR LMML 031815Z VRB02KT 9999 FEW030 17/13 Q1016 NOSIG=
201011031800 METAR LMML NIL=
201011031745 METAR LMML 031745Z VRB02KT 9999 FEW030 18/13 Q1016 NOSIG=
201011031715 METAR LMML 031715Z VRB02KT 9999 FEW030 18/13 Q1016 NOSIG=
201011031700 METAR LMML NIL=
201011031645 METAR LMML 031645Z 23003KT 9999 FEW029 18/13 Q1015 NOSIG=
201011031615 METAR LMML 031615Z 24004KT 210V270 9999 FEW025 18/13 Q1015
                        NOSIG=
201011031600 METAR LMML NIL=
201011031545 METAR LMML 031545Z 23005KT 190V290 9999 FEW027 19/14 Q1015
                        NOSIG=
201011031530 METAR LMML NIL=
201011031515 METAR LMML 031515Z 23006KT 200V280 9999 FEW027 20/14 Q1014
                        NOSIG RMK CB TOP TO NORTHEAST=
201011031500 METAR LMML NIL=
201011031445 METAR LMML 031445Z 23005KT 180V290 9999 SCT027 20/14 Q1014
                        NOSIG RMK CB TOP TO NORTH=
201011031430 METAR LMML NIL=
201011031415 METAR LMML 031415Z 24006KT 200V280 9999 FEW027 20/14 Q1014
                        NOSIG=
201011031400 METAR LMML NIL=
201011031345 METAR LMML 031345Z 22006KT 170V270 9999 FEW030 21/14 Q1014
                        NOSIG=
201011031330 METAR LMML NIL=
201011031315 METAR LMML 031315Z 21007KT 170V250 9999 FEW030 21/14 Q1014
                        NOSIG=
201011031300 METAR LMML NIL=
201011031245 METAR LMML 031245Z 22009KT 190V270 9999 FEW030 21/14 Q1014
                        NOSIG RMK CB TOP TO NORTHEAST=
201011031230 METAR LMML NIL=
201011031215 METAR LMML 031215Z 23008KT 200V280 9999 FEW025TCU 21/14 Q1014
                        NOSIG=
201011031200 METAR LMML NIL=
201011031145 METAR LMML 031145Z 23010KT 190V280 9999 FEW028 21/14 Q1014
                        NOSIG=
201011031130 METAR LMML NIL=
201011031115 METAR LMML 031115Z 22009KT 180V260 9999 SCT029 21/14 Q1014
                        NOSIG=
201011031100 METAR LMML NIL=
201011031045 METAR LMML 031045Z 22007KT 190V270 9999 SCT030 21/15 Q1014
                        NOSIG=
201011031030 METAR LMML NIL=
201011031015 METAR LMML 031015Z 20007KT 160V270 9999 SCT035 22/14 Q1015
                        NOSIG=
201011031000 METAR LMML NIL=
201011030945 METAR LMML 030945Z 21007KT 160V250 9999 FEW035 22/13 Q1014
                        NOSIG=
201011030930 METAR LMML NIL=
201011030915 METAR LMML 030915Z 21008KT 160V260 9999 FEW035 21/13 Q1014
                        NOSIG=
201011030845 METAR LMML 030845Z 20008KT 150V240 9999 FEW041 21/12 Q1014
                        NOSIG=
201011030830 METAR LMML NIL=
201011030815 METAR LMML 030815Z 22007KT 170V270 9999 SCT041 21/13 Q1014
                        NOSIG=
201011030800 METAR LMML NIL=
201011030745 METAR LMML 030745Z 20006KT 160V240 9999 SCT041 20/13 Q1014
                        NOSIG=
201011030730 METAR LMML NIL=
201011030715 METAR LMML 030715Z 19003KT 9999 SCT040 19/14 Q1014 NOSIG=
201011030700 METAR LMML NIL=
201011030645 METAR LMML 030645Z 17003KT 9999 FEW020TCU SCT030 18/15 Q1014
                        NOSIG=
201011030630 METAR LMML NIL=
201011030615 METAR LMML 030615Z VRB02KT 9999 FEW020TCU SCT250 17/14 Q1013
                        NOSIG=
201011030600 METAR LMML NIL=
201011030545 METAR LMML 030545Z 19003KT 9999 FEW020CB 17/14 Q1013 NOSIG=
201011030530 METAR LMML NIL=
201011030515 METAR LMML 030515Z 19003KT 9999 FEW020CB 17/13 Q1013 NOSIG=
201011030500 METAR LMML NIL=
201011030445 METAR LMML 030445Z 16004KT 9999 FEW017CB BKN050 17/12 Q1013
                        NOSIG=
201011030430 METAR LMML NIL=
201011030415 METAR LMML 030415Z 15004KT 100V180 9999 -TSRA SCT017CB SCT060
                        BKN080 17/14 Q1012 TEMPO 5000 SHRA
                        FEW008 BKN018TCU=
201011030402 SPECI LMML 030402Z 17004KT 140V210 9999 TSRA SCT016CB SCT060
                        BKN080 17/15 Q1012 TEMPO 5000 SHRA
                        FEW008 BKN018TCU=
201011030400 METAR LMML NIL=
201011030345 METAR LMML 030345Z 18005KT 9999 -RA FEW022TCU SCT060 BKN080
                        17/14 Q1012 TEMPO 5000 SHRA FEW008
                        BKN018TCU RMK LIGHTNING TO W=
201011030330 METAR LMML NIL=
201011030315 METAR LMML 030315Z 16003KT 9999 -RA NSC 17/14 Q1012 TEMPO
                        5000 SHRA FEW008 BKN018TCU=
201011030300 METAR LMML NIL=
201011030245 METAR LMML 030245Z 15003KT CAVOK 16/13 Q1012 TEMPO 5000 SHRA
                        FEW008 BKN018TCU=
201011030230 METAR LMML NIL=
201011030215 METAR LMML 030215Z 15003KT CAVOK 17/14 Q1012 TEMPO 5000 SHRA
                        FEW008 BKN018TCU=
201011030200 METAR LMML NIL=
201011030145 METAR LMML 030145Z 16004KT CAVOK 16/14 Q1012 TEMPO 5000 SHRA
                        FEW008 BKN018TCU=
201011030130 METAR LMML NIL=
201011030115 METAR LMML 030115Z 16003KT CAVOK 16/14 Q1012 NOSIG=
201011030100 METAR LMML NIL=
201011030045 METAR LMML 030045Z VRB02KT CAVOK 16/14 Q1012 NOSIG=
201011030030 METAR LMML NIL=
201011030015 METAR LMML 030015Z 15003KT CAVOK 16/14 Q1012 NOSIG=
201011030000 METAR LMML NIL=
201011022345 METAR LMML 022345Z VRB02KT CAVOK 16/14 Q1013 NOSIG=
201011022330 METAR LMML NIL=
201011022315 METAR LMML 022315Z VRB02KT CAVOK 17/14 Q1013 NOSIG=
201011022300 METAR LMML NIL=
201011022245 METAR LMML 022245Z 16003KT CAVOK 17/15 Q1013 NOSIG=
201011022230 METAR LMML NIL=
201011022215 METAR LMML 022215Z VRB01KT CAVOK 15/13 Q1013 NOSIG=
201011022200 METAR LMML NIL=
201011022145 METAR LMML 022145Z VRB02KT CAVOK 15/14 Q1013 NOSIG=
201011022130 METAR LMML NIL=
201011022115 METAR LMML 022115Z VRB02KT CAVOK 15/13 Q1013 NOSIG=
201011022100 METAR LMML NIL=
201011022045 METAR LMML 022045Z VRB02KT CAVOK 16/14 Q1013 NOSIG=
201011022030 METAR LMML NIL=
201011022015 METAR LMML 022015Z VRB02KT CAVOK 16/14 Q1013 NOSIG=
201011022000 METAR LMML NIL=
201011021945 METAR LMML 021945Z VRB01KT CAVOK 16/14 Q1013 NOSIG=
201011021930 METAR LMML NIL=
201011021915 METAR LMML 021915Z VRB02KT CAVOK 16/14 Q1013 NOSIG=
201011021900 METAR LMML NIL=
201011021845 METAR LMML 021845Z 21003KT CAVOK 16/14 Q1012 NOSIG=
201011021830 METAR LMML NIL=
201011021815 METAR LMML 021815Z VRB01KT CAVOK 17/13 Q1012 NOSIG=
201011021800 METAR LMML NIL=
201011021745 METAR LMML 021745Z VRB02KT CAVOK 17/13 Q1012 NOSIG=
201011021730 METAR LMML NIL=
201011021715 METAR LMML 021715Z 31004KT 290V350 9999 FEW030 17/13 Q1011
                        NOSIG=
201011021700 METAR LMML NIL=
201011021645 METAR LMML 021645Z 31008KT 9999 FEW030 17/14 Q1011 NOSIG=
201011021630 METAR LMML NIL=
201011021615 METAR LMML 021615Z 31007KT 9999 FEW030 18/14 Q1010 NOSIG=
201011021600 METAR LMML NIL=
201011021545 METAR LMML 021545Z 30007KT 9999 FEW030 19/14 Q1010 NOSIG=
201011021530 METAR LMML NIL=
201011021515 METAR LMML 021515Z 30008KT 9999 FEW030 SCT250 20/13 Q1010
                        NOSIG=
201011021500 METAR LMML NIL=
201011021445 METAR LMML 021445Z 30009KT 9999 FEW030 SCT250 20/14 Q1010
                        NOSIG=
201011021430 METAR LMML NIL=
201011021415 METAR LMML 021415Z 29009KT 250V310 9999 FEW030 BKN250 20/13
                        Q1010 NOSIG=
201011021400 METAR LMML NIL=
201011021345 METAR LMML 021345Z 28010KT 260V330 9999 FEW030 SCT250 21/12
                        Q1010 NOSIG=
201011021330 METAR LMML NIL=
201011021315 METAR LMML 021315Z 29009KT 260V320 9999 FEW030 21/13 Q1010
                        NOSIG=
201011021300 METAR LMML NIL=
201011021245 METAR LMML 021245Z 29012KT 250V320 9999 FEW030 21/14 Q1009
                        NOSIG=
201011021230 METAR LMML NIL=
201011021215 METAR LMML 021215Z 30010KT CAVOK 22/14 Q1009 NOSIG=
201011021200 METAR LMML NIL=
201011021145 METAR LMML 021145Z 29010KT 260V320 9999 FEW030 22/14 Q1009
                        NOSIG=
201011021130 METAR LMML NIL=
201011021115 METAR LMML 021115Z 30011KT 270V330 9999 FEW030 22/14 Q1009
                        NOSIG=
201011021045 METAR LMML 021045Z 29011KT 250V310 9999 FEW030 22/14 Q1009
                        NOSIG=
201011021030 METAR LMML NIL=
201011021015 METAR LMML 021015Z 31013KT 9999 FEW030 22/14 Q1009 NOSIG=
201011021000 METAR LMML NIL=
201011020945 METAR LMML 020945Z 31014KT CAVOK 21/14 Q1009 NOSIG=
201011020930 METAR LMML NIL=
201011020915 METAR LMML 020915Z 31012KT CAVOK 21/15 Q1009 NOSIG=
201011020900 METAR LMML NIL=
201011020845 METAR LMML 020845Z 30011KT CAVOK 21/16 Q1009 NOSIG=
201011020830 METAR LMML NIL=
201011020815 METAR LMML 020815Z 30010KT 9999 FEW013 20/16 Q1009 NOSIG=
201011020800 METAR LMML NIL=
201011020745 METAR LMML 020745Z 30008KT 270V330 9999 FEW013 19/17 Q1009
                        NOSIG=
201011020730 METAR LMML NIL=
201011020715 METAR LMML 020715Z 29010KT 250V320 9999 FEW013 SCT120 20/18
                        Q1008 NOSIG=
201011020700 METAR LMML NIL=
201011020645 METAR LMML 020645Z 26006KT 7000 FEW015 SCT120 20/19 Q1008
                        BECMG 9999=
201011020630 METAR LMML NIL=
201011020615 METAR LMML 020615Z 25004KT 220V280 7000 FEW015 SCT120 19/19
                        Q1007 NOSIG=
201011020600 METAR LMML NIL=
201011020545 METAR LMML 020545Z 26006KT 230V300 6000 FEW007 SCT130 19/19
                        Q1007 NOSIG=
201011020530 METAR LMML NIL=
201011020515 METAR LMML 020515Z 21004KT 6000 FEW015 BKN130 19/18 Q1006
                        NOSIG=
201011020500 METAR LMML NIL=
201011020445 METAR LMML 020445Z VRB02KT 7000 FEW020 SCT130 19/18 Q1006
                        NOSIG=
201011020430 METAR LMML NIL=
201011020415 METAR LMML 020415Z VRB01KT 7000 FEW020 BKN130 19/18 Q1006
                        NOSIG=
201011020400 METAR LMML NIL=
201011020345 METAR LMML 020345Z VRB02KT 7000 SCT020 19/18 Q1007 NOSIG=
201011020330 METAR LMML NIL=
201011020315 METAR LMML 020315Z VRB02KT 7000 FEW018 19/18 Q1006 NOSIG=
201011020300 METAR LMML NIL=
201011020245 METAR LMML 020245Z VRB02KT 7000 FEW018 20/18 Q1007 NOSIG=
201011020230 METAR LMML NIL=
201011020215 METAR LMML 020215Z 03004KT 9999 FEW021 BKN038 20/19 Q1007
                        NOSIG=
201011020200 METAR LMML NIL=
201011020145 METAR LMML 020145Z VRB02KT 9999 FEW028 19/18 Q1008 NOSIG=
201011020130 METAR LMML NIL=
201011020115 METAR LMML 020115Z VRB02KT 9999 FEW025 19/17 Q1008 NOSIG=
201011020100 METAR LMML NIL=
201011020045 METAR LMML 020045Z VRB01KT 9999 FEW025 19/17 Q1008 NOSIG=
201011020015 METAR LMML 020015Z 05003KT 9999 FEW025 19/17 Q1009 NOSIG=
201011020000 METAR LMML NIL=
201011012345 METAR LMML 012345Z VRB02KT 9999 FEW025 19/18 Q1009 NOSIG=
201011012330 METAR LMML NIL=
201011012315 METAR LMML 012315Z VRB01KT 9999 SCT025 20/18 Q1010 NOSIG=
201011012300 METAR LMML NIL=
201011012245 METAR LMML 012245Z VRB02KT 9000 BKN024 21/18 Q1010 NOSIG=
201011012215 METAR LMML 012215Z 25003KT 9000 BKN020 21/19 Q1010 NOSIG=
201011012145 METAR LMML 012145Z 22006KT 190V260 9000 BKN020 21/19 Q1010
                        NOSIG=
201011012115 METAR LMML 012115Z 20006KT 170V230 9000 FEW020 21/19 Q1010
                        NOSIG=
201011012100 METAR LMML NIL=
201011012045 METAR LMML 012045Z 17007KT 140V210 9000 FEW020 21/18 Q1009
                        NOSIG=
201011012015 METAR LMML 012015Z 17008KT 140V200 9000 FEW020 21/18 Q1009
                        NOSIG=
201011012000 METAR LMML NIL=
201011011945 METAR LMML 011945Z 17007KT 140V210 9000 FEW020 21/18 Q1009
                        NOSIG=
201011011930 METAR LMML NIL=
201011011915 METAR LMML 011915Z 16009KT 9000 FEW020 SCT120 21/17 Q1009
                        NOSIG=
201011011845 METAR LMML 011845Z 16009KT 9000 FEW020 SCT120 21/17 Q1009
                        NOSIG=
201011011830 METAR LMML NIL=
201011011815 METAR LMML 011815Z 17009KT 140V200 9999 FEW020 SCT120 21/16
                        Q1009 NOSIG=
201011011800 METAR LMML NIL=
201011011745 METAR LMML 011745Z 17010KT 9999 FEW020 SCT080 21/16 Q1009
                        NOSIG=
201011011715 METAR LMML 011715Z 17010KT 140V200 9999 FEW020 21/16 Q1009
                        NOSIG=
201011011700 METAR LMML NIL=
201011011645 METAR LMML 011645Z 18011KT 150V210 CAVOK 22/16 Q1009 NOSIG=
201011011630 METAR LMML NIL=
201011011615 METAR LMML 011615Z 18010KT 150V210 CAVOK 22/16 Q1009 NOSIG=
201011011600 METAR LMML NIL=
201011011545 METAR LMML 011545Z 17012KT 140V210 CAVOK 22/16 Q1008 NOSIG=
201011011530 METAR LMML NIL=
201011011515 METAR LMML 011515Z 17011KT 140V200 CAVOK 22/17 Q1008 NOSIG=
201011011500 METAR LMML NIL=
201011011445 METAR LMML 011445Z 17011KT 130V220 CAVOK 23/16 Q1008 NOSIG=
201011011430 METAR LMML NIL=
201011011415 METAR LMML 011415Z 17013KT 140V210 9999 FEW023 23/17 Q1008
                        NOSIG=
201011011400 METAR LMML NIL=
201011011345 METAR LMML 011345Z 17011KT 120V220 9999 FEW023 23/17 Q1008
                        NOSIG=
201011011330 METAR LMML NIL=
201011011315 METAR LMML 011315Z 17015KT 140V210 9999 FEW024 23/18 Q1008
                        NOSIG=
201011011300 METAR LMML NIL=
201011011245 METAR LMML 011245Z 17016KT 140V220 9999 SCT027 23/18 Q1009
                        NOSIG=
201011011230 METAR LMML NIL=
201011011215 METAR LMML 011215Z 16018KT 130V190 9999 FEW027 23/19 Q1009
                        NOSIG=
201011011145 METAR LMML 011145Z 16017KT 140V200 9999 FEW020 24/19 Q1009
                        NOSIG=
201011011130 METAR LMML NIL=
201011011115 METAR LMML 011115Z 16019KT 9999 FEW020 23/18 Q1009 NOSIG=
201011011100 METAR LMML NIL=
201011011045 METAR LMML 011045Z 16017KT 120V200 CAVOK 24/19 Q1010 NOSIG=
201011011030 METAR LMML NIL=
201011011015 METAR LMML 011015Z 16018KT 120V190 CAVOK 24/18 Q1010 NOSIG=
201011011000 METAR LMML NIL=
201011010945 METAR LMML 010945Z 16017KT CAVOK 23/19 Q1010 NOSIG=
201011010930 METAR LMML NIL=
201011010915 METAR LMML 010915Z 15018KT 120V180 CAVOK 23/18 Q1010 NOSIG=
201011010900 METAR LMML NIL=
201011010845 METAR LMML 010845Z 15019G30KT 120V180 CAVOK 23/19 Q1010 NOSIG=
201011010830 METAR LMML NIL=
201011010815 METAR LMML 010815Z 15018KT 120V180 9999 FEW017 23/19 Q1010
                        NOSIG=
201011010800 METAR LMML NIL=
201011010745 METAR LMML 010745Z 15019KT 120V180 9999 FEW017 22/19 Q1011
                        NOSIG=
201011010730 METAR LMML NIL=
201011010715 METAR LMML 010715Z 14019KT 110V170 9999 SCT018 22/19 Q1011
                        NOSIG=
201011010700 METAR LMML NIL=
201011010645 METAR LMML 010645Z 14017KT 120V180 9999 FEW017 22/18 Q1011
                        NOSIG=
201011010630 METAR LMML NIL=
201011010615 METAR LMML 010615Z 14016KT 9999 FEW019 21/18 Q1011 NOSIG=
201011010600 METAR LMML NIL=
201011010545 METAR LMML 010545Z 14014KT 110V170 9999 FEW019 21/18 Q1011
                        NOSIG=
201011010530 METAR LMML NIL=
201011010515 METAR LMML 010515Z 15015KT 9999 FEW020 21/18 Q1011 NOSIG=
201011010500 METAR LMML NIL=
201011010445 METAR LMML 010445Z 15015KT 120V180 9999 FEW020 21/17 Q1011
                        NOSIG=
201011010430 METAR LMML NIL=
201011010415 METAR LMML 010415Z 15015KT 110V170 9999 FEW020 21/17 Q1012
                        NOSIG=
201011010400 METAR LMML NIL=
201011010345 METAR LMML 010345Z 15014KT 120V180 9999 FEW020 21/17 Q1012
                        NOSIG=
201011010330 METAR LMML NIL=
201011010315 METAR LMML 010315Z 15015KT 120V180 9999 FEW020 21/17 Q1012
                        NOSIG=
201011010300 METAR LMML NIL=
201011010245 METAR LMML 010245Z 15015KT 9999 FEW015 21/17 Q1012 NOSIG=
201011010230 METAR LMML NIL=
201011010215 METAR LMML 010215Z 15015KT 120V180 CAVOK 21/17 Q1012 NOSIG=
201011010200 METAR LMML NIL=
201011010145 METAR LMML 010145Z 15014KT 110V170 CAVOK 21/17 Q1013 NOSIG=
201011010130 METAR LMML NIL=
201011010115 METAR LMML 010115Z 15016KT CAVOK 21/16 Q1013 NOSIG=
201011010100 METAR LMML NIL=
201011010045 METAR LMML 010045Z 15016KT 120V190 CAVOK 21/16 Q1013 NOSIG=
201011010030 METAR LMML NIL=
201011010015 METAR LMML 010015Z 15015KT 120V180 CAVOK 21/16 Q1014 NOSIG=
201011010000 METAR LMML NIL=

###################################
#  short TAF from LMML
###################################
201012012300 TAF LMML 012300Z 0200/0209 34006KT CAVOK
                      PROB30 TEMPO 0200/0207 9999 FEW008=
201012012000 TAF LMML 012000Z 0121/0206 35005KT CAVOK
                      PROB30 TEMPO 0121/0206 9999 FEW008=
201012011700 TAF LMML 011700Z 0118/0203 24010KT CAVOK
                      TEMPO 0118/0124 8000 NSC
                      BECMG 0118/0121 33005KT
                      PROB40 TEMPO 0118/0203 9999 FEW015=
201012011400 TAF LMML 011400Z 0115/0124 24010KT CAVOK
                      TEMPO 0115/0124 8000 NSC
                      BECMG 0119/0122 33005KT
                      PROB40 TEMPO 9999 FEW012=
201012011100 TAF LMML 011100Z 0112/0121 24015KT CAVOK
                      PROB30 TEMPO 0112/0121 9000 NSC
                      BECMG 0119/0121 33005KT
                      PROB40 TEMPO 0119/0121 9999 FEW012=
201012010800 TAF LMML 010800Z 0109/0118 24015KT CAVOK=
201012010500 TAF LMML 010500Z 0106/0115 22018KT CAVOK=
201012010200 TAF LMML 010200Z 0103/0112 20015KT CAVOK
                      PROB30 TEMPO 0103/0106 8000 FEW012 BKN100=
201011302300 TAF LMML 302300Z 0100/0109 19015KT CAVOK
                      PROB30 TEMPO 0103/0106 8000 FEW012 BKN100=
201011302000 TAF LMML 302000Z 3021/0106 20010KT CAVOK
                      PROB30 TEMPO 3021/0106 8000 FEW010=
201011301700 TAF LMML 301700Z 3018/0103 20014KT CAVOK
                      PROB30 TEMPO 3018/0103 8000 NSC=
201011301400 TAF LMML 301400Z 3015/3024 19015KT CAVOK
                      PROB30 TEMPO 3015/3024 8000 NSC=
201011301100 TAF LMML 301100Z 3012/3021 20015KT CAVOK
                      PROB30 TEMPO 3012/3021 8000 NSC=
201011300800 TAF LMML 300800Z 3009/3018 21016KT CAVOK
                      PROB30 TEMPO 3009/3018 8000 NSC=
201011300500 TAF LMML 300500Z 3006/3012 20015KT CAVOK=
201011300200 TAF LMML NIL=
201011292300 TAF LMML 292300Z 3000/3009 18015KT CAVOK
                      PROB30 TEMPO 3000/3006 9999 FEW020=
201011292000 TAF LMML 292000Z 2921/3006 18015KT CAVOK
                      PROB40 TEMPO 2921/3006 9999 FEW020=
201011291700 TAF LMML 291700Z 2918/3003 18010KT CAVOK
                      TEMPO 2918/3003 9999 FEW025=
201011291400 TAF LMML 291400Z 2915/2924 18010KT 9999 FEW025
                      TEMPO 2915/2924 CAVOK=
201011291100 TAF LMML 291100Z 2912/2921 18010KT 9999 FEW025=
201011290800 TAF LMML 290800Z 2909/2918 24005KT 9999 FEW025
                      BECMG 2913/2916 17012KT=
201011290500 TAF LMML 290500Z 2906/2915 VRB06KT 9999 FEW023
                      PROB30 TEMPO 2908/2915 CAVOK=
201011290200 TAF LMML 290200Z 2903/2912 28008KT 9999 FEW020
                      PROB30 TEMPO 2903/2906 BKN015=
201011282300 TAF LMML 282300Z 2900/2909 28010KT 9999 FEW020
                      PROB30 TEMPO 2900/2906 BKN015=
201011282000 TAF COR LMML 282000Z 2821/2906 28015KT 5000 DU FEW018
                      BECMG 2902/2905 9999 NSW=
201011281700 TAF LMML 281700Z 2818/2903 23015KT CAVOK
                      BECMG 2818/2821 30015KT 9999 FEW018=
201011281400 TAF LMML 281400Z 2815/2824 23015KT CAVOK
                      BECMG 2818/2821 30018KT 9999 FEW018=
201011281100 TAF LMML 281100Z 2812/2821 23016KT CAVOK
                      PROB30 TEMPO 2812/2819 23016G26KT
                      BECMG 2818/2821 30018KT=
201011280800 TAF LMML 280800Z 2809/2818 23016KT CAVOK
                      PROB30 TEMPO 2809/2818 9999 FEW020=
201011280500 TAF LMML 280500Z 2806/2815 20015KT CAVOK=
201011280200 TAF LMML 280200Z 2803/2812 16008KT 3000 BR SCT005
                      TEMPO 2803/2806 0800 BCFG BKN001
                      BECMG 2808/2811 22018KT CAVOK=
201011272300 TAF LMML 272300Z 2800/2809 14008KT 9999 BKN005
                      PROB40 TEMPO 2800/2806 20012KT BKN003
                      BECMG 2806/2809 CAVOK=
201011272000 TAF LMML 272000Z 2721/2806 14006KT 9999 SCT006
                      TEMPO 2721/2806 20012KT 5000 BKN005=
201011271700 TAF LMML 271700Z 2718/2803 14008KT 9999 SCT010
                      TEMPO 2718/2803 9000 BKN008
                      PROB30 TEMPO 2718/2724 5000 BR BKN005
                      BECMG 2723/2802 20013KT
                      TEMPO 2800/2803 CAVOK=
201011271400 TAF LMML 271400Z 2715/2724 14010KT 9999 SCT012
                      PROB30 TEMPO 2716/2724 9000 BKN008=
201011271100 TAF LMML 271100Z 2712/2721 11009KT 9999 FEW015
                      BECMG 2715/2718 17011KT
                      PROB30 TEMPO 2717/2721 9000 BKN010=
201011270800 TAF LMML 270800Z 2709/2718 04008KT CAVOK
                      BECMG 2709/2712 10010KT 9999 FEW020
                      BECMG 2714/2717 16010KT=
201011270500 TAF LMML 270500Z 2706/2715 02008KT CAVOK
                      PROB30 TEMPO 2706/2715 FEW025
                      TEMPO 2712/2715 14007KT=
201011270200 TAF LMML 270200Z 2703/2712 34008KT CAVOK
                      PROB30 TEMPO 2703/2712 9999 FEW025=
201011262300 TAF LMML 262300Z 2700/2709 35004KT 9999 FEW018
                      PROB40 TEMPO 2703/2709 CAVOK=
201011262000 TAF LMML 262000Z 2621/2706 VRB03KT CAVOK
                      PROB30 TEMPO 2621/2706 FEW015=
201011261700 TAF LMML 261700Z 2618/2703 32008KT 9999 FEW015 BKN200=
201011261400 TAF LMML 261400Z 2615/2624 24014KT CAVOK
                      BECMG 2615/2618 30010KT=
201011261100 TAF LMML 261100Z 2612/2621 23010KT 9999 FEW025 SCT120
                      BECMG 2615/2618 30010KT=
201011260800 TAF LMML 260800Z 2609/2618 22014KT 9999 SCT025 BKN060
                      BECMG 2612/2618 30012KT=
201011260500 TAF LMML 260500Z 2606/2615 24017KT CAVOK=
201011260200 TAF LMML 260200Z 2603/2612 24017KT CAVOK=
201011252300 TAF LMML 252300Z 2600/2609 22006KT 9999 FEW015
                      PROB30 TEMPO 2600/2603 BKN015
                      BECMG 2602/2605 23016KT
                      TEMPO 2603/2609 CAVOK=
201011252000 TAF LMML 252000Z 2521/2606 VRB05KT 9999 FEW015
                      PROB40 TEMPO 2521/2606 BKN015
                      PROB30 TEMPO 2521/2606 8000
                      BECMG 2602/2605 22015KT=
201011251700 TAF LMML 251700Z 2518/2603 31005KT 9999 SCT025
                      PROB30 TEMPO 2518/2603 8000 SHRA BKN015
                      BECMG 2518/2521 20006KT
                      BECMG 2600/2603 19016KT=
201011251400 TAF COR LMML 251400Z 2515/2524 28012KT 9999 SCT025 SCT070
                      PROB30 TEMPO 2515/2524 8000 SHRA BKN015 BKN060
                       BECMG 2518/2521 22007KT=
201011251100 TAF LMML 251100Z 2512/2521 25013KT 9999 SCT030 SCT080
                      TEMPO 2512/2521 8000 SHRA BKN015 BKN070
                      PROB30 TEMPO 2512/2516 3000 TSRA BKN015CB
                       BKN060=
201011250800 TAF LMML 250800Z 2509/2518 24012KT 9999 SCT030 SCT090
                      TEMPO 2509/2518 8000 SHRA BKN015 BKN080
                      PROB30 TEMPO 2509/2515 3000 TSRA BKN015CB
                       BKN060
                      BECMG 2512/2515 30010KT=
201011250500 TAF LMML 250500Z 2506/2515 27012KT 9999 SCT035
                      PROB40 TEMPO 2506/2515 9000 SHRA BKN030TCU=
201011250200 TAF LMML 250200Z 2503/2512 27010KT 9999 SCT030
                      PROB30 TEMPO 2503/2512 9000 SHRA BKN030TCU=
201011242300 TAF LMML 242300Z 2500/2509 27010KT 9999 SCT030
                      PROB30 TEMPO 2500/2509 9000 SHRA BKN030TCU=
201011242000 TAF LMML 242000Z 2421/2506 28010KT 9999 SCT030
                      PROB30 TEMPO 2421/2506 9000 SHRA BKN030TCU=
201011241700 TAF LMML 241700Z 2418/2503 28008KT 9999 SCT030 SCT070
                      PROB30 TEMPO 2420/2503 8000 SHRA=
201011241400 TAF LMML 241400Z 2415/2424 27015KT 9999 SCT035 BKN070=
201011241100 TAF LMML 241100Z 2412/2421 27015KT 9999 SCT030 SCT070
                      PROB30 TEMPO 2412/2415 28015G25KT=
201011240800 TAF LMML 240800Z 2409/2418 28015KT 9999 SCT030 SCT070
                      PROB30 TEMPO 2409/2415 28015G25KT 8000 SHRA=
201011240500 TAF LMML 240500Z 2406/2415 26014KT 9999 SCT035
                      PROB30 TEMPO 2406/2415 8000 SHRA=
201011240200 TAF LMML 240200Z 2403/2412 28010KT 9999 SCT040 SCT120
                      PROB30 TEMPO 2403/2412 8000 SHRA=
201011232300 TAF LMML 232300Z 2400/2409 27010KT 9999 SCT035 SCT120
                      PROB30 TEMPO 2400/2409 8000 SHRA=
201011232000 TAF LMML 232000Z 2321/2406 28014KT 9999 SCT030
                      PROB30 TEMPO 2321/2406 8000 SHRA BKN015=
201011231700 TAF LMML 231700Z 2318/2403 27015KT 9999 SCT035
                      PROB30 TEMPO 2318/2403 9000 SHRA BKN030TCU=
201011231400 TAF LMML 231400Z 2315/2324 27016KT 9999 SCT035
                      PROB40 TEMPO 2315/2318 27017G27KT
                      PROB30 TEMPO 2315/2324 9000 SHRA BKN030TCU=
201011231100 TAF COR LMML 231100Z 2312/2321 27020KT 9999 FEW030
                      PROB40 TEMPO 2312/2318 27018G28KT
                      PROB30 TEMPO 2315/2321 9000 SHRA BKN015TCU=
201011230800 TAF LMML 230800Z 2309/2318 28022KT 9999 SCT035
                      TEMPO 2309/2318 28018G28KT
                      PROB30 TEMPO 2309/2318 9000 SHRA BKN015TCU=
201011230500 TAF LMML 230500Z 2306/2315 29015KT 9999 SCT035
                      PROB40 TEMPO 2306/2315 29018G28KT 8000 SHRA
                       BKN018TCU=
201011230200 TAF LMML 230200Z 2303/2312 28015KT 9999 SCT035
                      TEMPO 2303/2312 8000 SHRA BKN018
                      PROB40 TEMPO 2303/2312 29018G28KT 5000 TSRA
                       BKN015CB=
201011222300 TAF LMML 222300Z 2300/2309 27015KT 9999 SCT030
                      TEMPO 2300/2309 8000 SHRA BKN018
                      PROB40 TEMPO 2303/2309 29018G28KT=
201011222000 TAF LMML 222000Z 2221/2306 27015KT 9999 SCT030
                      TEMPO 2303/2306 8000 SHRA BKN015
                      PROB40 TEMPO 2301/2303 29017G27KT=
201011221700 TAF COR LMML 221700Z 2218/2303 24015KT 9999 SCT020
                      TEMPO 2218/2303 8000 SHRA BKN015
                      BECMG 2300/2303 28015G25KT=
201011221400 TAF LMML 221400Z 2215/2224 27010KT 9999 FEW025
                      TEMPO 2217/2220 24020KT=
201011221100 TAF LMML 221100Z 2212/2221 28010KT 9999 FEW018
                      TEMPO 2217/2220 24020KT=
201011220800 TAF LMML 220800Z 2209/2218 27010KT 9999 FEW015
                      BECMG 2215/2218 24020KT=
201011220500 TAF LMML 220500Z 2206/2215 26013KT 9999 SCT015
                      PROB30 TEMPO 2206/2209 9000 BKN010=
201011220200 TAF LMML 220200Z 2203/2212 20008KT 9999 FEW015 BKN120
                      PROB30 TEMPO 2203/2206 9000 BKN010 BKN100
                       BECMG 2203/2206 26013KT=
201011212300 COR LMML 212300Z 2200/2209 16010KT CAVOK
                      PROB40 TEMPO 2200/2209 9000 FEW007
                      BECMG 2201/2204 26012KT=
201011212000 TAF LMML 212000Z 2121/2206 16010KT CAVOK
                      PROB40 TEMPO 2121/2206 9000 FEW007
                      BECMG 2200/2203 26012KT=
201011211700 TAF LMML 211700Z 2118/2203 16006KT CAVOK
                      TEMPO 2118/2203 9000 BKN006
                      BECMG 2200/2203 27008KT=
201011211400 TAF LMML 211400Z 2115/2124 18010KT CAVOK=
201011211100 TAF LMML 211100Z 2112/2121 16013KT 9999 FEW012
                      TEMPO 2116/2121 CAVOK=
201011210800 TAF LMML 210800Z 2109/2118 18013KT CAVOK
                      PROB30 TEMP 212/2118 9999 FEW012=
201011210500 TAF LMML 210500Z 2106/2115 18010KT CAVOK=
201011210200 TAF LMML 210200Z 2103/2112 18010KT CAVOK
                      PROB30 TEMPO 2103/2112 9999 FEW015=
201011202300 TAF LMML 202300Z 2100/2109 18008KT CAVOK
                      PROB30 TEMPO 2103/2109 9999 FEW015=
201011202000 TAF LMML 202000Z 2021/2106 20006KT CAVOK
                      TEMPO 2021/2106 9999 FEW015=
201011201700 TAF LMML 201700Z 2018/2103 20005KT 9999 FEW015
                      TEMPO 2018/2103 CAVOK
                      PROB30 TEMPO 2100/2103 9000 NSC=
201011201400 TAF LMML 201400Z 2015/2024 22007KT 9999 FEW020
                      TEMPO 2015/2024 CAVOK=
201011201100 TAF LMML 201100Z 2012/2021 23008KT 9999 FEW030
                      TEMPO 2015/2021 CAVOK=
201011200800 TAF LMML 200800Z 2009/2018 22008KT 9999 SCT030=
201011200500 TAF LMML 200500Z 2006/2015 20008KT 9999 SCT030=
201011200200 TAF LMML 200200Z 2003/2012 17006KT 9999 FEW030 BKN250
                      TEMPO 2003/2006 7000=
201011192300 TAF LMML 192300Z 2000/2009 17005KT 9999 FEW030 SCT250
                      TEMPO 2000/2006 6000=
201011192000 TAF LMML 192000Z 1921/2006 17004KT 9999 FEW030
                      TEMPO 1922/2006 6000=
201011191700 TAF LMML 191700Z 1918/2003 VRB03KT 9999 FEW025
                      TEMPO 1918/2003 CAVOK=
201011191400 TAF LMML 191400Z 1915/1924 VRB03KT 9999 FEW025
                      PROB40 TEMPO 1915/1924 CAVOK=
201011191100 TAF LMML 191100Z 1912/1921 VRB03KT 9999 FEW025
                      TEMPO 1912/1921 CAVOK=
201011190800 TAF LMML 190800Z 1909/1918 VRB04KT CAVOK
                      TEMPO 1909/1918 9999 FEW025=
201011190500 TAF LMML 190500Z 1906/1915 30005KT 9999 FEW030=
201011190200 TAF LMML 190200Z 1903/1912 23005KT 9999 FEW025=
201011182300 TAF LMML 182300Z 1900/1909 VRB03KT 9999 FEW030
                      PROB30 TEMPO 1904/1907 8000 MIFG=
201011182000 TAF LMML 182000Z 1821/1906 VRB03KT 9999 FEW030=
201011181700 TAF LMML 181700Z 1818/1903 23005KT 9999 SCT030 BKN120
                      PROB 30
                      TEMPO 1900/1903 8000 RA=
201011181400 TAF LMML 181400Z 1815/1824 23010KT 9999 FEW030 BKN200=
201011181100 TAF LMML 181100Z 1812/1821 23012KT 9999 SCT028 SCT150=
201011180800 TAF LMML 180800Z 1809/1818 24010KT 9999 SCT025 BKN150=
201011180500 TAF LMML 180500Z 1806/1815 22010KT 9999 SCT030 SCT100
                      PROB30 TEMPO 1806/1809 8000 SHRA=
201011180200 TAF LMML 180200Z 1803/1812 24010KT 9999 SCT035 SCT100=
201011172300 TAF LMML 172300Z 1800/1809 24009KT 9999 SCT035=
201011172000 TAF LMML 172000Z 1721/1806 24009KT 9999 FEW030=
201011171700 TAF LMML 171700Z 1718/1803 23010KT 9999 SCT040=
201011171400 TAF LMML 171400Z 1715/1724 25015KT 9999 SCT040=
201011171100 TAF LMML 171100Z 1712/1721 26015KT 9999 SCT040=
201011170800 TAF LMML 170800Z 1709/1718 27015KT 9999 FEW040=
201011170500 TAF LMML 170500Z 1706/1715 27015KT 9999 FEW038=
201011170200 TAF LMML 170200Z 1703/1712 27015KT 9999 FEW030=
201011162300 TAF LMML 162300Z 1700/1709 28014KT 9999 FEW030=
201011162000 TAF LMML 162000Z 1621/1706 28014KT 9999 SCT025
                      PROB30 TEMPO 1621/1706 9000 TSRA BKN020CB=
201011161700 TAF LMML 161700Z 1618/1703 30015KT 9999 SCT020 SCT045
                      PROB30 TEMPO 1621/1703 9000 SHRA=
201011161400 TAF LMML 161400Z 1615/1624 31015KT 9999 SCT020=
201011161100 TAF LMML 161100Z 1612/1621 31015KT 9999 SCT020
                      PROB30 TEMPO 1612/1621 8000 SHRA=
201011160800 TAF LMML 160800Z 1609/1618 30015KT 9999 SCT020
                      PROB30 TEMPO 1609/1618 8000 SHRA=
201011160500 TAF LMML 160500Z 1606/1615 23005KT 9999 SCT020
                      BECMG 1609/1612 31015KT
                      TEMPO 1609/1615 8000 SHRA BKN015=
201011160200 TAF LMML 160200Z 1603/1612 23005KT 9999 SCT015
                      BECMG 1606/1609 32012KT
                      TEMPO 1603/1612 8000 SHRA BKN015=
201011152300 TAF LMML 152300Z 1600/1609 23005KT 9999 SCT015
                      BECMG 1606/1609 31012KT
                      PROB30 TEMPO 1603/1609 8000 SHRA BKN015=
201011152000 TAF LMML 152000Z 1521/1606 22005KT 9999 SCT015
                      TEMPO 1521/1606 BKN012 BKN200=
201011151700 TAF LMML 151700Z 1518/1603 19005KT 9999 SCT020=
201011151400 TAF LMML 151400Z 1512/1524 19008KT 9999 SCT020=
201011151100 TAF LMML 151100Z 1512/1521 18008KT 9999 SCT020=
201011150800 TAF LMML 150800Z 1509/1518 16006KT 9999 FEW020=
201011150500 TAF LMML 150500Z 1506/1515 16005KT 9999 FEW020=
201011150200 TAF LMML 150200Z 1503/1512 VRB03KT 9999 FEW018
                      PROB30 TEMPO 1503/1506 8000 MIFG FEW015 SCT030=
201011142300 TAF LMML 142300Z 1500/1509 VRB03KT 9999 FEW020
                      PROB30 TEMPO 1503/1506 8000 MIFG FEW015 SCT035=
201011142000 TAF LMML 142000Z 1421/1506 VRB03KT 9999 FEW020
                      PROB30 TEMPO 1501/1506 6000 MIFG FEW015 SCT030=
201011141700 TAF LMML 141700Z 1418/1503 VRB03KT 9999 FEW020 SCT030=
201011141400 TAF LMML 141400Z 1415/1424 12005KT 9999 FEW020 SCT035=
201011141100 TAF LMML 141100Z 1412/1421 13005KT 9999 SCT020 SCT035=
201011140800 TAF LMML 140800Z 1409/1418 VRB04KT 9999 SCT020=
201011140500 TAF LMML 140500Z 1406/1415 VRB03KT 9999 FEW020 SCT050=
201011140200 TAF LMML 140200Z 1403/1412 VRB03KT 9999 FEW045
                      TEMPO 1403/1406 CAVOK=
201011132300 TAF LMML 132300Z 1400/1409 VRB03KT 9999 FEW045
                      TEMPO 1400/1406 CAVOK=
201011132000 TAF LMML 132000Z 1321/1406 01004KT 9999 FEW045
                      TEMPO 1321/1406 CAVOK=
201011131700 TAF LMML 131700Z 1318/1403 VRB03KT 9999 FEW020 SCT040=
201011131400 TAF LMML 131400Z 1315/1324 32005KT 9999 FEW020 SCT045=
201011131100 TAF LMML 131100Z 1312/1321 33008KT 9999 FEW020 BKN040=
201011130800 TAF LMML 130800Z 1309/1318 VRB05KT 9999 FEW025 SCT050=
201011130500 TAF LMML 130500Z 1306/1315 35008KT 9999 FEW020 SCT050=
201011130200 TAF LMML 130200Z 1303/1312 34008KT 9999 FEW015 SCT030
                      PROB30 TEMPO 1306/1312 BKN015 BKN040=
201011122300 TAF LMML 122300Z 1300/1309 33008KT 9999 SCT025
                      PROB30 TEMPO 1306/1309 8000 RA BKN015=
201011122000 TAF LMML 122000Z 1221/1306 32010KT 9999 SCT025
                      TEMPO 1221/1224 CAVOK
                      PROB30 TEMPO 1302/1306 BKN015=
201011121700 TAF LMML 121700Z 1218/1303 30012KT 9999 SCT030=
201011121400 TAF LMML 121400Z 1215/1224 32015KT 9999 SCT030=
201011121100 TAF LMML 121100Z 1212/1221 32015KT 9999 SCT030=
201011120800 TAF LMML 120800Z 1209/1218 32016KT 9999 SCT030=
201011120500 TAF LMML 120500Z 1206/1215 32015KT 9999 SCT030
                      TEMPO 1206/1209 32015G25KT 8000 SHRA=
201011120200 TAF LMML 120200Z 1203/1212 32016KT 9999 SCT030
                      TEMPO 1203/1208 8000 SHRA
                      PROB30 TEMPO 1203/1208 5000 TSRA BKN015CB
                       TEMPO 1203/1208 32016G28KT=
201011112300 TAF LMML 112300Z 1200/1209 31016KT 9999 FEW030
                      TEMPO 1200/1208 8000 SHRA
                      PROB30 TEMPO 1200/1208 5000 TSRA BKN015CB
                       TEMPO 1203/1208 32016G28KT=
201011112000 TAF LMML 112000Z 1121/1206 30010KT 9999 SCT030
                      TEMPO 1121/1206 7000 SHRA
                      PROB30 TEMPO 1121/1206 5000 TSRA BKN015CB
                       BECMG 1203/1206 32020KT=
201011111700 TAF COR LMML 111700Z 1118/1203 32016KT 9999 FEW020
                      TEMPO 1118/1203 7000 SHRA BKN015TCU
                      PROB30 TEMPO 1118/1203 TSRA BKN015CB=
201011111400 TAF LMML 111400Z 1115/1124 32016KT 9999 FEW025
                      PROB30 TEMPO 1115/1124 7000 TSRA BKN020CB
                       PROB30
                      TEMPO 1121/1124 BKN009=
201011111100 TAF LMML 111100Z 1112/1121 30016KT 9999 FEW020
                      TEMPO 1112/1116 CAVOK=
201011110800 TAF LMML 110800Z 1109/1118 32015KT 9999 SCT025
                      PROB40 TEMPO 1109/1112 CAVOK=
201011110500 TAF LMML 110500Z 1106/1115 27005KT 9000 NSC
                      BECMG 1106/1109 31015KT 9999 FEW020 SCT035=
201011110200 TAF LMML 110200Z 1103/1112 27005KT 9000 NSC
                      BECMG 1104/1107 31015KT 9999 FEW012 SCT035=
201011102300 TAF LMML 102300Z 1100/1109 VRB03KT CAVOK
                      PROB40 TEMPO 1100/1107 5000 DU FEW012=
201011102000 TAF LMML 102000Z 1021/1106 23008KT CAVOK
                      PROB40 TEMPO 1021/1106 5000 DU SCT012=
201011101700 TAF LMML 101700Z 1018/1103 24008KT 9000 NSC
                      TEMPO 1018/1103 5000 DU FEW012
                      PROB30 TEMPO 1021/1103 2000 DU FEW010=
201011101400 TAF LMML 101400Z 1015/1024 24014KT CAVOK
                      TEMPO 1015/1024 9999 FEW020
                      PROB30 TEMPO 1016/1024 9000 NSC=
201011101100 TAF LMML 101100Z 1012/1021 23014KT CAVOK
                      TEMPO 1012/1016 25015G25KT 9999 FEW020
                      PROB30 TEMPO 1016/1021 9000 FEW015=
201011100800 TAF COR LMML 100800Z 1009/1018 23015KT 5000 HZ NSC
                      BECMG 1009/1012 CAVOK
                      TEMPO 1009/1018 9999 FEW020
                      PROB30 TEMPO 1012/1018 24017G27KT 9000 FEW020=
201011100500 TAF COR LMML 100500Z 1006/1015 23015KT 6000 NSC
                      TEMPO 1006/1008 3000 DU
                      TEMPO 1008/1015 CAVOK=
201011100200 TAF LMML 100200Z 1003/1012 23015KT CAVOK
                      TEMPO 1006/1012 9999 FEW025=
201011092300 TAF LMML 092300Z 1000/1009 23012KT 1000
                      TEMPO 1006/1009 9999 FEW025=
201011092000 TAF LMML 092000Z 0921/1006 23010KT CAVOK=
201011091700 TAF LMML 091700Z 0918/1003 23015KT 9999 FEW030
                      PROB30 TEMPO 0918/1003 CAVOK=
201011091400 TAF LMML 091400Z 0915/0924 23018G28KT 9000 FEW030
                      PROB30 TEMPO 0916/0924 CAVOK=
201011091100 TAF LMML 091100Z 0912/0921 24018G28KT 9000 NSC
                      TEMPO 9000 0912/0921 CAVOK=
201011090800 TAF LMML 090800Z 0909/0918 25018G28KT CAVOK=
201011090500 TAF LMML 090500Z 0906/0915 25018G28KT CAVOK=
201011090200 TAF LMML 090200Z 0903/0912 24020KT CAVOK
                      TEMPO 0903/0909 24020G30KT
                      PROB30 TEMPO 0903/0912 9999 FEW030=
201011082300 TAF LMML 082300Z 0900/0909 24020G30KT 9999 FEW030
                      TEMPO 0900/0909 CAVOK=
201011082000 TAF LMML 082000Z 0821/0906 24020G30KT 9999 SCT020
                      PROB30 TEMPO 0821/0906 CAVOK=
201011081700 TAF LMML 081700Z 0818/0903 23020G30KT 9999 SCT025=
201011081400 TAF LMML 081400Z 0815/0824 24018KT 9999 SCT025
                      TEMPO 0815/0824 24020G30KT=
201011081100 TAF LMML 081100Z 0812/0821 24018KT 9999 SCT025
                      TEMPO 0812/0821 24020G30KT=
201011080800 TAF LMML 080800Z 0809/0818 24018KT 9999 SCT025
                      TEMPO 0812/0818 2420G30KT=
201011080500 TAF LMML 080500Z 0806/0815 24017KT 9999 SCT025
                      TEMPO 0806/0815 25020G30KT
                      PROB30 TEMPO 0806/0809 8000 SHRA BKN015=
201011080200 TAF LMML 080200Z 0803/0812 24017KT 9999 SCT025
                      TEMPO 0803/0812 25020G30KT
                      PROB30 TEMPO 0803/0809 8000 SHRA BKN015=
201011072300 TAF LMML 072300Z 0800/0809 24018KT 9999 SCT025
                      PROB30 TEMPO 0800/0809 25020G30KT 8000 SHRA
                       BKN015=
201011072000 TAF LMML 072000Z 0721/0806 22015KT 9999 SCT020 SCT080
                      TEMPO 0721/0806 24018G28KT 8000 SHRA BKN015
                       BKN070
                      PROB30 TEMPO 0721/0724 3000 TSRA BKN010 BKN015CB
                       BKN060
                      BECMG 0721/0724 25020KT=
201011071700 TAF LMML 071700Z 0718/0803 24018KT 9999 SCT015
                      TEMPO 0718/0803 7000 SHRA BKN012
                      PROB30 TEMPO 0718/0803 5000 TSRA BKN030CB=
201011071541 TAF COR LMML 071541Z 0715/0724 18015KT 9999 FEW008
                      TEMPO 0715/0724 7000 SHRA BKN012
                      PROB30 TEMPO 0715/0721 5000 TSRA BKN070CB
                       BECMG 0719/0722 24018KT=
201011071538 TAF LMML 071538Z 0715/0724 18015KT 9999 FEW008
                      TEMPO 0715/0724 7000 SHRA BKN012
                      PROB30 TEMPO 0715/0721 5000 TSRA BKN070CB
                       BECMG 0719/0722 24018KT=
201011071400 TAF LMML 071400Z 0715/0724 18015KT 9999 FEW008
                      TEMPO 0715/0724 7000 SHRA BKN012
                      PROB30 TEMPO 0715/0724 BKN007
                      BECMG 0719/0722 24018KT=
201011071100 TAF LMML 071100Z 0712/0721 18014KT 9999 BKN013
                      TEMPO 0712/0721 8000 RA
                      PROB30 TEMPO 0712/0721 5000 TSRA BKN080CB
                       PROB30
                      TEMPO 0716/0721 BKN007
                      BECMG 0718/0721 24016KT=
201011070800 TAF LMML 070800Z 0709/0718 17012KT 9999 SCT015
                      TEMPO 0709/0718 8000 RA BKN015
                      PROB30 TEMPO 0712/0718 5000 TSRA BKN080CB=
201011070500 TAF LMML 070500Z 0706/0715 15010KT 9999 SCT020 BKN040
                      TEMPO 0709/0715 8000 RA BKN015 BKN100
                      PROB30 TEMPO 0712/0715 5000 TSRA BKN030CB=
201011070200 TAF LMML 070200Z 0703/0712 16005KT 9999 SCT015 BKN030
                      BECMG 0708/0711 16015KT=
201011062300 TAF COR LMML 062300Z 0700/0709 14005KT 9999 SCT015 BKN030
                      BECMG 0706/0709 13015KT=
201011062000 TAF LMML 062000Z 0621/0706 14005KT 9999 SCT015 SCT250
                      PROB30 TEMPO 0621/0706 8000 BKN011=
201011061700 TAF LMML 061700Z 0618/0703 14008KT 9999 SCT015
                      PROB30 TEMPO 0618/0703 9000 BKN012=
201011061400 TAF LMML 061400Z 0615/0624 10011KT 9999 SCT025=
201011061100 TAF LMML 061100Z 0612/0621 08008KT 9999 SCT025=
201011060800 TAF LMML 060800Z 0609/0618 08008KT 9999 SCT020=
201011060500 TAF LMML 060500Z 0606/0615 10006KT 9999 SCT018
                      PROB30 TEMPO 0606/0609 BKN015=
201011060200 TAF LMML 060200Z 0603/0612 09008KT 9999 SCT015
                      PROB40 TEMPO 0603/0609 9000 BKN015
                      PROB30 TEMPO 0603/0607 5000 BR BKN008=
201011052300 TAF LMML 052300Z 0600/0609 08008KT 9999 SCT015
                      PROB40 TEMPO 0600/0609 9000 BKN015
                      PROB30 TEMPO 0600/0607 5000 BR BKN008=
201011052000 TAF LMML 052000Z 0521/0606 08008KT 9999 SCT018
                      PROB40 TEMPO 0600/0606 9000 BKN015
                      PROB30 TEMPO 0600/0606 5000 BR BKN008=
201011051700 TAF LMML 051700Z 0518/0603 08005KT 9999 SCT020=
201011051400 TAF LMML 051400Z 0515/0524 10010KT 9999 FEW020=
201011051100 TAF LMML 051100Z 0512/0521 12013KT 9999 FEW018=
201011050800 TAF LMML 050800Z 0509/0518 09014KT 9999 SCT015=
201011050500 TAF LMML 050500Z 0506/0515 09014KT 9999 SCT008 BKN015
                      BECMG 0506/0509 SCT018=
201011050200 TAF LMML 050200Z 0503/0512 09013KT 9999 BKN008
                      TEMPO 0503/0507 SCT008
                      PROB30 TEMPO 0503/0509 8000 TSRA BKN060CB
                       BECMG 0505/0508 SCT018=
201011042300 TAF LMML 042300Z 0500/0509 09012KT 9999 FEW018
                      PROB40 TEMPO 0500/0509 8000 SHRA BKN012
                      PROB30 TEMPO 0500/0509 TSRA BKN060CB=
201011042000 TAF LMML 042000Z 0421/0506 09010KT 9999 SCT018
                      PROB40 TEMPO 0421/0506 8000 RA BKN012
                      PROB30 TEMPO 0421/0506 TSRA BKN080CB=
201011041700 TAF LMML 041700Z 0418/0503 10015KT 9999 SCT020
                      PROB30 TEMPO 0421/0503 7000 TSRA BKN050CB=
201011041400 TAF LMML 041400Z 0415/0424 10010KT 9999 SCT025
                      PROB30 TEMPO 0421/0424 7000 TSRA BKN050CB=
201011041100 TAF LMML 041100Z 0412/0421 10010KT 9999 SCT020=
201011040800 TAF LMML 040800Z 0409/0418 12007KT 9999 SCT020=
201011040500 TAF LMML 040500Z 0406/0415 VRB03KT 9999 SCT025
                      BECMG 0406/0409 15007KT
                      PROB30 TEMPO 0406/0409 8000 SHRA BKN015
                      BECMG 0412/0415 09010KT=
201011040200 TAF LMML 040200Z 0403/0412 15005KT 9999 SCT025
                      PROB30 TEMPO 0403/0409 8000 SHRA BKN015=
201011032300 TAF LMML 032300Z 0400/0409 17005KT 9999 FEW025
                      PROB30 TEMPO 0400/0409 8000 SHRA BKN015=
201011032000 TAF LMML 032000Z 0321/0406 19006KT 9999 FEW025
                      PROB30 TEMPO 0321/0406 8000 SHRA BKN015=
201011031700 TAF LMML 031700Z 0318/0403 VRB03KT 9999 SCT020=
201011031400 TAF LMML 031400Z 0315/0324 20006KT 9999 SCT020
                      PROB30 TEMPO 0315/0324 8000 SHRA BKN018TCU=
201011031100 TAF LMML 031100Z 0312/0321 22006KT 9999 SCT025
                      TEMPO 0312/0321 7000 SHRA BKN020TCU=
201011030800 TAF LMML 030800Z 0309/0318 22008KT 9999 FEW025 SCT040
                      PROB40 TEMPO 0309/0318 7000 SHRA BKN020TCU=
201011030500 TAF LMML 030500Z 0306/0315 18008KT 9999 FEW015 SCT035
                      TEMPO 0306/0315 7000 SHRA BKN015TCU
                      PROB30 TEMPO 0306/0315 5000 TSRA FEW008 HLLB
                       NIL=
201011030200 TAF LMML 030200Z 0303/0312 VRB03KT 9999 FEW025 SCT080
                      TEMPO 0303/03012 5000 SHRA BKN018TCU
                      PROB30 TEMPO 0303/0312 3000 TSRA FEW008 BKN015CB=
201011022300 TAF AMD LMML 022300Z 0300/0309 VRB03KT 9999 FEW025 TEMP0 0300/0309
                       5000 SHRA BKN018TCU
                      PROB40 TEMPO 0300/0309 3000 TSRA FEW008 BKN015CB=
201011022000 TAF LMML 022000Z 0221/0306 VRB03KT 9999 FEW025
                      TEMPO 0221/0306 5000 SHRA BKN018TCU
                      PROB40 TEMPO 0224/0306 3000 TSRA FEW008 BKN015CB=
201011021700 TAF LMML 021700Z 0218/0303 28008KT 9999 FEW020
                      PROB40 TEMPO 0218/0303 8000 SHRA BKN015
                      PROB30 TEMPO 0218/0303 3000 TSRA BKN015CB=
201011021400 TAF LMML 021400Z 0215/0224 28010KT 9999 SCT025
                      PROB40 TEMPO 0215/0224 8000 SHRA BKN015
                      PROB30 TEMPO 0216/0224 3000 TSRA BKN015CB
                       BECMG 0221/0224 21006KT=
201011021100 TAF LMML 021100Z 0212/0221 30012KT 9999 FEW025
                      PROB40 TEMPO 0217/0221 8000 SHRA BKN015
                      PROB30 TEMPO 0218/0221 3000 TSRA BKN015CB
                       BECMG 0218/0221 24008KT=
201011020800 TAF LMML 020800Z 0209/0218 30011KT 9999 FEW015=
201011020500 TAF LMML 020500Z 0206/0215 26008KT 9999 FEW025=
201011020200 TAF LMML 020200Z 0203/0212 26008KT 9999 FEW025
                      PROB40 TEMPO 0203/0206 6000=
201011012300 TAF LMML 012300Z 0200/0209 24005KT 9999 FEW020
                      PROB40 TEMPO 0200/0203 CAVOK
                      PROB30 TEMPO 0200/0206 6000=
201011012000 TAF LMML 012000Z 0121/0206 20006KT 9999 FEW020
                      PROB40 TEMPO 0121/0206 CAVOK=
201011011700 TAF LMML 011700Z 0118/0203 20008KT CAVOK
                      TEMPO 0118/0203 9999 SCT020
                      PROB30 TEMPO 0120/0203 5000 TSRA BKN018CB=
201011011400 TAF LMML 011400Z 0115/0124 28015KT 9999 SCT025
                      BECMG 0118/0121 24005KT
                      PROB30 TEMPO 0120/0124 5000 TSRA BKN018CB=
201011011100 TAF LMML 011100Z 0112/0121 15020G30KT CAVOK
                      TEMPO 0112/0121 9999 FEW020
                      BECMG 0115/0118 21010KT=
201011010800 TAF LMML 010800Z 0109/0118 15020G30KT 9999 SCT018
                      BECMG 0115/0118 21010KT=
201011010500 TAF LMML 010500Z 0106/0115 15019KT 9999 FEW020
                      PROB30 TEMPO 0106/0115 16022G32KT CAVOK=
201011010200 TAF LMML 010200Z 0103/0112 16018KT CAVOK
                      TEMPO 0103/0112 15020G30KT
                      BECMG 0103/0106 9999 FEW020
                      PROB30 TEMPO 0103/0106 9000 BKN010=

###################################
#  large TAF from LMML
###################################
201012012300 TAF LMML NIL=
201012011700 TAF LMML NIL=
201012011100 TAF LMML NIL=
201012010500 TAF LMML NIL=
201011302300 TAF LMML NIL=
201011301700 TAF LMML NIL=
201011301100 TAF LMML NIL=
201011300500 TAF LMML NIL=
201011292300 TAF LMML NIL=
201011291700 TAF LMML NIL=
201011291100 TAF LMML NIL=
201011290500 TAF LMML NIL=
201011282300 TAF LMML NIL=
201011281700 TAF LMML NIL=
201011281100 TAF LMML NIL=
201011280500 TAF LMML NIL=
201011272300 TAF LMML NIL=
201011271700 TAF LMML NIL=
201011271100 TAF LMML NIL=
201011270500 TAF LMML NIL=
201011262300 TAF LMML NIL=
201011261700 TAF LMML NIL=
201011261100 TAF LMML NIL=
201011260500 TAF LMML NIL=
201011252300 TAF LMML NIL=
201011251700 TAF LMML NIL=
201011251100 TAF LMML NIL=
201011250500 TAF LMML NIL=
201011242300 TAF LMML NIL=
201011241700 TAF LMML NIL=
201011241100 TAF LMML NIL=
201011240500 TAF LMML NIL=
201011232300 TAF LMML NIL=
201011231700 TAF LMML NIL=
201011231100 TAF LMML NIL=
201011230500 TAF LMML NIL=
201011222300 TAF LMML NIL=
201011221700 TAF LMML NIL=
201011221100 TAF LMML NIL=
201011220500 TAF LMML NIL=
201011212300 TAF LMML NIL=
201011211700 TAF LMML NIL=
201011211100 TAF LMML NIL=
201011210500 TAF LMML NIL=
201011202300 TAF LMML NIL=
201011201700 TAF LMML NIL=
201011201100 TAF LMML NIL=
201011200500 TAF LMML NIL=
201011192300 TAF LMML NIL=
201011191700 TAF LMML NIL=
201011191100 TAF LMML NIL=
201011190500 TAF LMML NIL=
201011182300 TAF LMML NIL=
201011181700 TAF LMML NIL=
201011181100 TAF LMML NIL=
201011180500 TAF LMML NIL=
201011172300 TAF LMML NIL=
201011171700 TAF LMML NIL=
201011171100 TAF LMML NIL=
201011170500 TAF LMML NIL=
201011162300 TAF LMML NIL=
201011161700 TAF LMML NIL=
201011161100 TAF LMML NIL=
201011160500 TAF LMML NIL=
201011151700 TAF LMML NIL=
201011151400 TAF LMML 151400Z 1512/1524 19008KT 9999 SCT020=
201011151100 TAF LMML NIL=
201011150500 TAF LMML NIL=
201011142300 TAF LMML NIL=
201011141700 TAF LMML NIL=
201011141100 TAF LMML NIL=
201011140500 TAF LMML NIL=
201011132300 TAF LMML NIL=
201011131700 TAF LMML NIL=
201011131100 TAF LMML NIL=
201011130500 TAF LMML NIL=
201011122300 TAF LMML NIL=
201011121700 TAF LMML NIL=
201011121100 TAF LMML NIL=
201011120500 TAF LMML NIL=
201011112300 TAF LMML NIL=
201011111700 TAF LMML NIL=
201011111100 TAF LMML NIL=
201011110500 TAF LMML NIL=
201011102300 TAF LMML NIL=
201011101700 TAF LMML NIL=
201011101100 TAF LMML NIL=
201011100500 TAF LMML NIL=
201011092300 TAF LMML NIL=
201011091700 TAF LMML NIL=
201011091100 TAF LMML NIL=
201011090500 TAF LMML NIL=
201011082300 TAF LMML NIL=
201011081700 TAF LMML NIL=
201011081100 TAF LMML NIL=
201011080500 TAF LMML NIL=
201011072300 TAF LMML NIL=
201011071700 TAF LMML NIL=
201011071100 TAF LMML NIL=
201011070500 TAF LMML NIL=
201011062300 TAF LMML NIL=
201011061700 TAF LMML NIL=
201011061100 TAF LMML NIL=
201011060500 TAF LMML NIL=
201011052300 TAF LMML NIL=
201011051700 TAF LMML NIL=
201011051100 TAF LMML NIL=
201011050500 TAF LMML NIL=
201011042300 TAF LMML NIL=
201011041700 TAF LMML NIL=
201011041100 TAF LMML NIL=
201011040500 TAF LMML NIL=
201011032300 TAF LMML NIL=
201011031700 TAF LMML NIL=
201011031100 TAF LMML NIL=
201011030500 TAF LMML NIL=
201011022300 TAF LMML NIL=
201011021700 TAF LMML NIL=
201011021100 TAF LMML NIL=
201011020500 TAF LMML NIL=
201011012300 TAF LMML NIL=
201011011700 TAF LMML NIL=
201011011100 TAF LMML NIL=
201011010500 TAF LMML NIL=
