##########################################################
# Query made at 01/18/2013 16:13:39 UTC
# Time interval: from 11/01/2009 00:00  to 12/01/2009 23:59  UTC
##########################################################

##########################################################
# LMML, Luqa (Malta)
# WMO index: 16597
# Latitude 35-51N. Longitude 014-29E. Altitude 91 m.
##########################################################

###################################
#  METAR/SPECI from LMML
###################################
200912012345 METAR LMML 012345Z 33013KT 9999 -TSRA FEW016CB BKN031 12/10
                        Q1010 TEMPO 5000 TSRA BKN015CB=
200912012330 METAR LMML NIL=
200912012315 METAR LMML 012315Z 28012KT 250V310 9999 -TSRA FEW016CB BKN036
                        12/10 Q1010 TEMPO 5000 TSRA BKN015CB=
200912012245 METAR LMML 012245Z 25014KT 210V290 9999 -TSRA FEW016CB BKN020
                        12/12 Q1010 TEMPO 5000 TSRA BKN015CB=
200912012230 METAR LMML NIL=
200912012215 METAR LMML 012215Z 26013KT 230V290 9999 -RA FEW025 BKN100
                        12/10 Q1010 TEMPO 5000 TSRA BKN015CB
                        RMK LIGHTNING TO NW=
200912012200 METAR LMML NIL=
200912012145 METAR LMML 012145Z 26017KT 220V300 9999 -SHRA FEW025 BKN100
                        12/09 Q1010 TEMPO 5000 TSRA BKN015CB
                        RMK LIGHTNING TO SE=
200912012130 METAR LMML NIL=
200912012115 METAR LMML 012115Z 27019KT 240V310 9999 -SHRA FEW036TCU BKN100
                        14/09 Q1010 TEMPO 5000 TSRA BKN015CB
                        RMK LIGHTNING TO W=
200912012100 METAR LMML NIL=
200912012045 METAR LMML 012045Z 27012KT 240V320 9999 SCT030TCU SCT080
                        14/08 Q1010 TEMPO 5000 TSRA BKN015CB
                        RMK LIGHTNING TO EASTNORTHEAST=
200912012030 METAR LMML NIL=
200912012015 METAR LMML 012015Z 28010KT 240V310 9999 SCT030TCU 14/09 Q1010
                        TEMPO 5000 TSRA BKN015CB RMK LIGHTNING
                        TO NORTHEAST=
200912012000 METAR LMML NIL=
200912011945 METAR LMML 011945Z 28011KT 250V310 9999 SCT030TCU 14/09 Q1010
                        TEMPO 5000 TSRA BKN015CB RMK LIGHTNING
                        TO NORTHEAST=
200912011930 METAR LMML NIL=
200912011915 METAR COR LMML 011915Z 27010KT 230V300 9999 SCT030TCU 14/07
                        Q1010 TEMPO 5000 TSRA BKN015CB RMK
                        LIGHTNING TO NORTH=
200912011900 METAR LMML NIL=
200912011845 METAR LMML 011845Z 26011KT 210V280 9000 -SHRA SCT025CB 14/08
                        Q1010 TEMPO 5000 TSRA BKN015CB=
200912011830 METAR LMML NIL=
200912011815 METAR LMML 011815Z 27008KT 220V300 9999 SCT035 15/05 Q1010
                        TEMPO 5000 TSRA BKN015CB=
200912011800 METAR LMML NIL=
200912011745 METAR LMML 011745Z 27011KT 240V310 9999 FEW030 SCT250 15/04
                        Q1010 TEMPO 8000 SHRA BKN015=
200912011730 METAR LMML NIL=
200912011715 METAR LMML 011715Z 28008KT 240V310 9999 FEW030 SCT250 15/06
                        Q1010 TEMPO 8000 SHRA BKN015=
200912011700 METAR LMML NIL=
200912011645 METAR LMML 011645Z 28007KT 250V310 9999 FEW035 SCT250 15/05
                        Q1010 TEMPO 8000 SHRA BKN015=
200912011630 METAR LMML NIL=
200912011615 METAR LMML 011615Z 28009KT 9999 SCT035 SCT250 15/05 Q1010
                        TEMPO 8000 SHRA BKN015=
200912011600 METAR LMML NIL=
200912011545 METAR COR LMML 011545Z 28011KT 9999 SCT030 SCT250 15/06 Q1010
                        TEMPO 8000 SHRA BKN015 RMK CB TOP
                        TO SE=
200912011530 METAR LMML NIL=
200912011515 METAR LMML 011515Z 29011KT 260V320 9999 FEW025CB SCT031 16/07
                        Q1009 TEMPO 5000 TSRA BKN015CB=
200912011500 METAR LMML NIL=
200912011445 METAR LMML 011445Z 30012KT 260V330 9999 -SHRA FEW028CB SCT037
                        16/08 Q1010 TEMPO 5000 TSRA BKN015CB=
200912011430 METAR LMML NIL=
200912011415 METAR LMML 011415Z 29011KT 250V320 9999 FEW036 SCT250 16/08
                        Q1010 TEMPO 8000 SHRA BKN015TCU=
200912011400 METAR LMML NIL=
200912011345 METAR LMML 011345Z 27009KT 220V320 9999 SCT039 17/07 Q1010
                        NOSIG=
200912011330 METAR LMML NIL=
200912011315 METAR LMML 011315Z 27008KT 220V310 9999 SCT039 17/08 Q1010
                        NOSIG=
200912011300 METAR LMML NIL=
200912011245 METAR LMML 011245Z 28009KT 220V320 9999 SCT038 17/08 Q1010
                        NOSIG=
200912011230 METAR LMML NIL=
200912011215 METAR LMML 011215Z 28009KT 230V300 9999 FEW036 SCT120 17/08
                        Q1010 NOSIG=
200912011200 METAR LMML NIL=
200912011145 METAR LMML 011145Z 28010KT 240V320 9999 FEW035 BKN120 17/08
                        Q1010 NOSIG=
200912011130 METAR LMML NIL=
200912011115 METAR LMML 011115Z 27008KT 220V300 9999 FEW025 SCT044 BKN120
                        17/08 Q1010 NOSIG=
200912011100 METAR LMML NIL=
200912011045 METAR LMML 011045Z 27011KT 240V310 9999 FEW025 SCT039 BKN120
                        17/08 Q1011 NOSIG=
200912011030 METAR LMML NIL=
200912011015 METAR LMML 011015Z 26010KT 190V300 9999 FEW025 BKN120 17/08
                        Q1011 NOSIG=
200912011000 METAR LMML NIL=
200912010945 METAR LMML 010945Z 26009KT 220V300 9999 FEW018 SCT090 BKN120
                        16/09 Q1011 NOSIG=
200912010930 METAR LMML NIL=
200912010915 METAR LMML 010915Z 27009KT 230V300 9999 FEW018 SCT090 BKN110
                        16/09 Q1011 NOSIG=
200912010900 METAR LMML NIL=
200912010845 METAR LMML 010845Z 26005KT 220V290 9999 FEW018 BKN100 16/10
                        Q1011 NOSIG=
200912010830 METAR LMML NIL=
200912010815 METAR LMML 010815Z 28007KT 240V320 9999 FEW018 BKN120 16/10
                        Q1011 NOSIG=
200912010800 METAR LMML NIL=
200912010745 METAR LMML 010745Z 29006KT 250V320 9999 FEW018 BKN120 16/11
                        Q1010 NOSIG=
200912010730 METAR LMML NIL=
200912010715 METAR LMML 010715Z 29006KT 9999 FEW018 BKN120 16/11 Q1010
                        NOSIG=
200912010700 METAR LMML NIL=
200912010645 METAR LMML 010645Z 29007KT 9999 FEW015 BKN120 16/12 Q1010
                        NOSIG=
200912010630 METAR LMML NIL=
200912010615 METAR LMML 010615Z 30009KT 9999 FEW014 BKN120 16/12 Q1010
                        NOSIG=
200912010600 METAR LMML NIL=
200912010545 METAR LMML 010545Z 31010KT 9999 FEW014 BKN110 16/13 Q1009
                        NOSIG=
200912010530 METAR LMML NIL=
200912010515 METAR LMML 010515Z 31009KT 9999 FEW014 SCT120 BKN250 15/14
                        Q1009 NOSIG=
200912010500 METAR LMML NIL=
200912010445 METAR LMML 010445Z 31008KT 9999 FEW014 SCT120 16/15 Q1009
                        NOSIG=
200912010430 METAR LMML NIL=
200912010415 METAR LMML 010415Z 31007KT CAVOK 16/15 Q1008 NOSIG=
200912010400 METAR LMML NIL=
200912010345 METAR LMML 010345Z 28009KT CAVOK 17/15 Q1008 NOSIG=
200912010330 METAR LMML NIL=
200912010315 METAR LMML 010315Z 25007KT 210V290 CAVOK 18/11 Q1008 NOSIG=
200912010300 METAR LMML NIL=
200912010245 METAR LMML 010245Z 23010KT 200V290 CAVOK 19/12 Q1008 NOSIG=
200912010230 METAR LMML NIL=
200912010215 METAR LMML 010215Z 22008KT 190V250 CAVOK 19/13 Q1008 NOSIG=
200912010200 METAR LMML NIL=
200912010145 METAR LMML 010145Z 22008KT 180V270 9999 SCT000 19/13 Q1008
                        NOSIG=
200912010130 METAR LMML NIL=
200912010115 METAR LMML 010115Z 22008KT 190V260 CAVOK 19/15 Q1008 NOSIG=
200912010100 METAR LMML NIL=
200912010045 METAR LMML 010045Z 21007KT 170V250 CAVOK 19/18 Q1008 NOSIG=
200912010015 METAR LMML 010015Z 20008KT 150V230 CAVOK 19/18 Q1008 NOSIG=
200911302345 METAR LMML 302345Z 19007KT 150V240 CAVOK 19/18 Q1009 NOSIG=
200911302315 METAR LMML 302315Z 19009KT 150V230 CAVOK 19/17 Q1009 NOSIG=
200911302245 METAR LMML 302245Z 18010KT 150V210 CAVOK 19/17 Q1009 NOSIG=
200911302230 METAR LMML NIL=
200911302215 METAR LMML 302215Z 18010KT 140V210 CAVOK 19/16 Q1010 NOSIG=
200911302200 METAR LMML NIL=
200911302145 METAR LMML 302145Z 18009KT 140V210 CAVOK 19/16 Q1010 NOSIG=
200911302115 METAR LMML 302115Z 17009KT 140V220 CAVOK 19/15 Q1010 NOSIG=
200911302045 METAR LMML 302045Z 18008KT 150V220 CAVOK 19/15 Q1010 NOSIG=
200911302030 METAR LMML NIL=
200911302015 METAR LMML 302015Z 18010KT 150V210 CAVOK 19/15 Q1010 NOSIG=
200911302000 METAR LMML NIL=
200911301945 METAR LMML 301945Z 18009KT CAVOK 19/15 Q1010 NOSIG=
200911301930 METAR LMML NIL=
200911301915 METAR LMML 301915Z 18009KT 160V220 CAVOK 19/15 Q1011 NOSIG=
200911301900 METAR LMML NIL=
200911301845 METAR LMML 301845Z 18010KT 150V220 CAVOK 19/15 Q1011 NOSIG=
200911301830 METAR LMML NIL=
200911301815 METAR LMML 301815Z 19009KT 150V230 CAVOK 19/14 Q1011 NOSIG=
200911301800 METAR LMML NIL=
200911301745 METAR LMML 301745Z 19009KT 160V230 CAVOK 19/14 Q1011 NOSIG=
200911301715 METAR LMML 301715Z 19011KT 160V240 CAVOK 19/15 Q1010 NOSIG=
200911301645 METAR LMML 301645Z 19010KT 160V220 CAVOK 19/15 Q1010 NOSIG=
200911301630 METAR LMML NIL=
200911301615 METAR LMML 301615Z 19012KT 160V230 CAVOK 19/15 Q1010 NOSIG=
200911301600 METAR LMML NIL=
200911301545 METAR LMML 301545Z 19013KT 160V220 CAVOK 19/14 Q1010 NOSIG=
200911301530 METAR LMML NIL=
200911301515 METAR LMML 301515Z 19012KT 160V230 CAVOK 20/14 Q1010 NOSIG=
200911301500 METAR LMML NIL=
200911301445 METAR LMML 301445Z 19011KT 160V230 CAVOK 20/14 Q1010 NOSIG=
200911301430 METAR LMML NIL=
200911301415 METAR LMML 301415Z 20010KT 160V240 CAVOK 20/14 Q1010 NOSIG=
200911301400 METAR LMML NIL=
200911301345 METAR LMML 301345Z 19011KT 150V220 CAVOK 20/14 Q1011 NOSIG=
200911301330 METAR LMML NIL=
200911301315 METAR LMML 301315Z 20013KT 170V240 CAVOK 20/14 Q1011 NOSIG=
200911301300 METAR LMML NIL=
200911301245 METAR LMML 301245Z 20013KT 160V250 CAVOK 21/14 Q1011 NOSIG=
200911301230 METAR LMML NIL=
200911301215 METAR LMML 301215Z 20013KT 150V230 CAVOK 21/13 Q1011 NOSIG=
200911301145 METAR LMML 301145Z 20013KT 160V240 CAVOK 21/13 Q1012 NOSIG=
200911301130 METAR LMML NIL=
200911301115 METAR LMML 301115Z 20015KT 160V230 CAVOK 21/13 Q1012 NOSIG=
200911301100 METAR LMML NIL=
200911301045 METAR LMML 301045Z 19015KT 160V230 CAVOK 20/14 Q1012 NOSIG=
200911301030 METAR LMML NIL=
200911301015 METAR LMML 301015Z 20014KT 150V250 CAVOK 21/13 Q1013 NOSIG=
200911301000 METAR LMML NIL=
200911300945 METAR LMML 300945Z 20014KT 170V230 CAVOK 21/13 Q1014 NOSIG=
200911300930 METAR LMML NIL=
200911300915 METAR LMML 300915Z 19014KT 160V240 CAVOK 21/13 Q1014 NOSIG=
200911300900 METAR LMML NIL=
200911300845 METAR LMML 300845Z 19013KT 160V230 CAVOK 21/13 Q1014 NOSIG=
200911300830 METAR LMML NIL=
200911300815 METAR LMML 300815Z 19012KT 160V230 CAVOK 20/13 Q1014 NOSIG=
200911300800 METAR LMML NIL=
200911300745 METAR LMML 300745Z 18013KT 150V230 CAVOK 20/14 Q1014 NOSIG=
200911300730 METAR LMML NIL=
200911300715 METAR LMML 300715Z 18013KT CAVOK 20/13 Q1013 NOSIG=
200911300700 METAR LMML NIL=
200911300645 METAR LMML 300645Z 18011KT 150V210 CAVOK 19/14 Q1013 NOSIG=
200911300630 METAR LMML NIL=
200911300615 METAR LMML 300615Z 18013KT 130V220 CAVOK 19/14 Q1013 NOSIG=
200911300600 METAR LMML NIL=
200911300545 METAR LMML 300545Z 18012KT 150V220 CAVOK 19/14 Q1013 NOSIG=
200911300530 METAR LMML NIL=
200911300515 METAR LMML 300515Z 18013KT 150V220 CAVOK 19/14 Q1014 NOSIG=
200911300500 METAR LMML NIL=
200911300445 METAR LMML 300445Z 18012KT 160V220 CAVOK 19/14 Q1014 NOSIG=
200911300430 METAR LMML NIL=
200911300415 METAR LMML 300415Z 18015KT CAVOK 19/15 Q1014 NOSIG=
200911300345 METAR LMML 300345Z 18012KT 150V220 CAVOK 19/15 Q1014 NOSIG=
200911300330 METAR LMML NIL=
200911300315 METAR LMML 300315Z 18012KT 150V220 CAVOK 19/15 Q1014 NOSIG=
200911300300 METAR LMML NIL=
200911300245 METAR LMML 300245Z 18012KT 150V210 CAVOK 19/15 Q1015 NOSIG=
200911300230 METAR LMML NIL=
200911300215 METAR LMML 300215Z 18012KT 140V210 CAVOK 19/15 Q1015 NOSIG=
200911300200 METAR LMML NIL=
200911300145 METAR LMML 300145Z 17009KT 140V210 CAVOK 19/16 Q1015 NOSIG=
200911300130 METAR LMML NIL=
200911300115 METAR LMML 300115Z 17008KT 140V200 CAVOK 19/16 Q1016 NOSIG=
200911300100 METAR LMML NIL=
200911300045 METAR LMML 300045Z 17008KT 130V200 CAVOK 19/16 Q1016 NOSIG=
200911300030 METAR LMML NIL=
200911300015 METAR LMML 300015Z 17007KT 140V200 CAVOK 18/16 Q1016 NOSIG=
200911300000 METAR LMML NIL=
200911292345 METAR LMML 292345Z 17007KT 140V200 CAVOK 18/17 Q1017 NOSIG=
200911292330 METAR LMML NIL=
200911292315 METAR LMML 292315Z 17006KT 140V200 CAVOK 18/17 Q1017 NOSIG=
200911292300 METAR LMML NIL=
200911292245 METAR LMML 292245Z 17007KT 140V200 CAVOK 18/17 Q1017 NOSIG=
200911292230 METAR LMML NIL=
200911292215 METAR LMML 292215Z 18007KT 140V200 CAVOK 19/16 Q1018 NOSIG=
200911292145 METAR LMML 292145Z 18007KT 140V210 CAVOK 19/16 Q1018 NOSIG=
200911292130 METAR LMML NIL=
200911292115 METAR LMML 292115Z 18005KT 150V210 CAVOK 18/17 Q1018 NOSIG=
200911292100 METAR LMML NIL=
200911292045 METAR LMML 292045Z 18005KT 150V210 CAVOK 18/16 Q1018 NOSIG=
200911292030 METAR LMML NIL=
200911292015 METAR LMML 292015Z 18006KT CAVOK 18/17 Q1018 NOSIG=
200911292000 METAR LMML NIL=
200911291945 METAR LMML 291945Z 19006KT 160V220 CAVOK 19/17 Q1019 NOSIG=
200911291930 METAR LMML NIL=
200911291915 METAR LMML 291915Z 19005KT 160V240 CAVOK 19/17 Q1019 NOSIG=
200911291900 METAR LMML NIL=
200911291845 METAR LMML 291845Z 19005KT 160V230 CAVOK 18/18 Q1019 NOSIG=
200911291830 METAR LMML NIL=
200911291815 METAR LMML 291815Z 18006KT 160V220 CAVOK 19/18 Q1019 NOSIG=
200911291800 METAR LMML NIL=
200911291745 METAR LMML 291745Z 18006KT CAVOK 19/18 Q1019 NOSIG=
200911291730 METAR LMML NIL=
200911291715 METAR LMML 291715Z 17004KT 140V200 CAVOK 18/18 Q1019 NOSIG=
200911291700 METAR LMML NIL=
200911291645 METAR LMML 291645Z 17004KT CAVOK 18/17 Q1019 NOSIG=
200911291630 METAR LMML NIL=
200911291615 METAR LMML 291615Z 18005KT 150V210 CAVOK 19/17 Q1019 NOSIG=
200911291545 METAR LMML 291545Z 18005KT 160V220 CAVOK 19/16 Q1019 NOSIG=
200911291515 METAR LMML 291515Z 18004KT 150V220 CAVOK 19/16 Q1019 NOSIG=
200911291500 METAR LMML NIL=
200911291445 METAR LMML 291445Z 20005KT 160V240 CAVOK 19/16 Q1019 NOSIG=
200911291430 METAR LMML NIL=
200911291415 METAR LMML 291415Z 21007KT 160V240 CAVOK 20/16 Q1020 NOSIG=
200911291400 METAR LMML NIL=
200911291345 METAR LMML 291345Z 21007KT 170V260 CAVOK 20/15 Q1020 NOSIG=
200911291330 METAR LMML NIL=
200911291315 METAR LMML 291315Z 20006KT 160V260 CAVOK 20/15 Q1020 NOSIG=
200911291300 METAR LMML NIL=
200911291245 METAR LMML 291245Z 20005KT 160V270 CAVOK 21/15 Q1020 NOSIG=
200911291230 METAR LMML NIL=
200911291215 METAR LMML 291215Z 21008KT 180V250 CAVOK 20/16 Q1020 NOSIG=
200911291200 METAR LMML NIL=
200911291145 METAR LMML 291145Z 21007KT 160V260 CAVOK 20/16 Q1020 NOSIG=
200911291115 METAR LMML 291115Z 21008KT 160V250 CAVOK 20/17 Q1021 NOSIG=
200911291100 METAR LMML NIL=
200911291045 METAR LMML 291045Z 21007KT 160V270 9999 FEW020 BKN250 21/17
                        Q1021 NOSIG=
200911291030 METAR LMML NIL=
200911291015 METAR LMML 291015Z 22009KT 180V270 9999 FEW020 BKN250 20/18
                        Q1022 NOSIG=
200911291000 METAR LMML NIL=
200911290945 METAR LMML 290945Z 20007KT 160V250 9999 FEW015 BKN250 20/17
                        Q1022 NOSIG=
200911290930 METAR LMML NIL=
200911290915 METAR LMML 290915Z 19007KT 160V240 9999 FEW015 BKN250 20/16
                        Q1022 NOSIG=
200911290900 METAR LMML NIL=
200911290845 METAR LMML 290845Z 19006KT 160V220 9000 FEW015 BKN250 19/17
                        Q1022 NOSIG=
200911290830 METAR LMML NIL=
200911290815 METAR LMML 290815Z 16004KT 120V190 7000 FEW014 BKN250 19/19
                        Q1022 BECMG 9999=
200911290800 METAR LMML NIL=
200911290745 METAR LMML 290745Z VRB03KT 6000 FEW014 BKN250 18/18 Q1022
                        BECMG 9999=
200911290730 METAR LMML NIL=
200911290715 METAR LMML 290715Z VRB03KT 6000 FEW014 BKN250 16/16 Q1022
                        BECMG 9999=
200911290645 METAR LMML 290645Z VRB03KT 6000 FEW013 BKN250 15/15 Q1022
                        BECMG 9999=
200911290630 METAR LMML NIL=
200911290615 METAR LMML 290615Z VRB03KT 4500 BCMIFG FEW015 BKN250 14/14
                        Q1022 BECMG 7000=
200911290600 METAR LMML NIL=
200911290545 METAR LMML 290545Z VRB01KT 4000 MIFG FEW015 SCT250 13/13
                        Q1022 BECMG 7000=
200911290531 SPECI LMML 290531Z VRB01KT 4000 MIFG NSC 13/13 Q1022 BECMG
                        7000=
200911290530 METAR LMML NIL=
200911290515 METAR LMML 290515Z VRB01KT 7000 R13/0742VP1500U MIFG NSC
                        13/13 Q1021 NOSIG=
200911290500 METAR LMML NIL=
200911290445 METAR LMML 290445Z VRB01KT 9000 NSC 14/14 Q1021 TEMPO 7000=
200911290430 METAR LMML NIL=
200911290415 METAR LMML 290415Z VRB01KT CAVOK 13/13 Q1021 TEMPO 7000=
200911290345 METAR LMML 290345Z 00000KT CAVOK 14/14 Q1021 NOSIG=
200911290315 METAR LMML 290315Z 00000KT CAVOK 14/14 Q1021 NOSIG=
200911290300 METAR LMML NIL=
200911290245 METAR LMML 290245Z 00000KT CAVOK 13/13 Q1021 NOSIG=
200911290230 METAR LMML NIL=
200911290215 METAR LMML 290215Z VRB01KT CAVOK 13/13 Q1021 NOSIG=
200911290200 METAR LMML NIL=
200911290145 METAR LMML 290145Z VRB01KT CAVOK 14/14 Q1021 NOSIG=
200911290130 METAR LMML NIL=
200911290115 METAR LMML 290115Z VRB01KT CAVOK 14/14 Q1022 NOSIG=
200911290100 METAR LMML NIL=
200911290045 METAR LMML 290045Z VRB02KT CAVOK 14/14 Q1022 NOSIG=
200911290030 METAR LMML NIL=
200911290015 METAR LMML 290015Z VRB02KT CAVOK 15/15 Q1022 NOSIG=
200911282345 METAR LMML 282345Z VRB03KT CAVOK 15/15 Q1022 NOSIG=
200911282330 METAR LMML NIL=
200911282315 METAR LMML 282315Z 26004KT CAVOK 15/15 Q1022 NOSIG=
200911282300 METAR LMML NIL=
200911282245 METAR LMML 282245Z 27004KT CAVOK 15/15 Q1022 NOSIG=
200911282230 METAR LMML NIL=
200911282215 METAR LMML 282215Z 25004KT CAVOK 15/15 Q1022 NOSIG=
200911282200 METAR LMML NIL=
200911282145 METAR LMML 282145Z VRB03KT CAVOK 15/15 Q1022 NOSIG=
200911282130 METAR LMML NIL=
200911282115 METAR LMML 282115Z 26004KT CAVOK 16/16 Q1022 NOSIG=
200911282100 METAR LMML NIL=
200911282045 METAR LMML 282045Z VRB03KT CAVOK 16/15 Q1022 NOSIG=
200911282030 METAR LMML NIL=
200911282015 METAR LMML 282015Z 24004KT CAVOK 16/15 Q1022 NOSIG=
200911282000 METAR LMML NIL=
200911281945 METAR LMML 281945Z 25004KT CAVOK 16/15 Q1022 NOSIG=
200911281930 METAR LMML NIL=
200911281915 METAR LMML 281915Z 25004KT CAVOK 16/15 Q1022 NOSIG=
200911281900 METAR LMML NIL=
200911281845 METAR LMML 281845Z VRB03KT CAVOK 17/15 Q1022 NOSIG=
200911281830 METAR LMML NIL=
200911281815 METAR LMML 281815Z VRB03KT CAVOK 17/15 Q1022 NOSIG=
200911281800 METAR LMML NIL=
200911281745 METAR LMML 281745Z VRB03KT CAVOK 17/15 Q1022 NOSIG=
200911281715 METAR LMML 281715Z 26005KT CAVOK 17/14 Q1021 NOSIG=
200911281700 METAR LMML NIL=
200911281645 METAR LMML 281645Z 27006KT CAVOK 17/14 Q1021 NOSIG=
200911281630 METAR LMML NIL=
200911281615 METAR LMML 281615Z 28004KT CAVOK 18/14 Q1021 NOSIG=
200911281600 METAR LMML NIL=
200911281545 METAR LMML 281545Z 26004KT 210V300 CAVOK 18/14 Q1021 NOSIG=
200911281515 METAR LMML 281515Z 26007KT 220V290 CAVOK 19/13 Q1021 NOSIG=
200911281500 METAR LMML NIL=
200911281445 METAR LMML 281445Z 24007KT 210V280 CAVOK 20/13 Q1021 NOSIG=
200911281430 METAR LMML NIL=
200911281415 METAR LMML 281415Z 26008KT 200V300 9999 FEW025 20/13 Q1021
                        NOSIG=
200911281400 METAR LMML NIL=
200911281345 METAR LMML 281345Z 25010KT 200V280 9999 FEW025 20/14 Q1021
                        NOSIG=
200911281330 METAR LMML NIL=
200911281315 METAR LMML 281315Z 25009KT 210V290 9999 FEW025 20/14 Q1021
                        NOSIG=
200911281300 METAR LMML NIL=
200911281245 METAR LMML 281245Z 24009KT 210V280 9999 FEW025 SCT250 20/14
                        Q1021 NOSIG=
200911281215 METAR LMML 281215Z 25010KT 200V290 9999 FEW025 SCT250 21/14
                        Q1021 BECMG 29015KT=
200911281200 METAR LMML NIL=
200911281145 METAR LMML 281145Z 24011KT 200V280 CAVOK 20/14 Q1021 BECMG
                        29015KT=
200911281130 METAR LMML NIL=
200911281115 METAR LMML 281115Z 24008KT 190V290 CAVOK 21/14 Q1021 BECMG
                        29015KT=
200911281100 METAR LMML NIL=
200911281030 METAR LMML NIL=
200911281015 METAR LMML 281015Z 23011KT 200V270 CAVOK 20/14 Q1022 NOSIG=
200911281000 METAR LMML NIL=
200911280945 METAR LMML 280945Z 23011KT 200V270 CAVOK 20/14 Q1022 BECMG
                        28015KT=
200911280930 METAR LMML NIL=
200911280915 METAR LMML 280915Z 23009KT 170V270 CAVOK 20/15 Q1022 NOSIG=
200911280900 METAR LMML NIL=
200911280845 METAR LMML 280845Z 22009KT 190V270 CAVOK 20/15 Q1022 NOSIG=
200911280830 METAR LMML NIL=
200911280815 METAR LMML 280815Z 22011KT 200V270 CAVOK 20/15 Q1022 NOSIG=
200911280800 METAR LMML NIL=
200911280745 METAR LMML 280745Z 22009KT 200V270 CAVOK 19/14 Q1022 NOSIG=
200911280730 METAR LMML NIL=
200911280715 METAR LMML 280715Z 22008KT 190V270 CAVOK 19/14 Q1021 NOSIG=
200911280645 METAR LMML 280645Z 22008KT 180V260 CAVOK 18/14 Q1021 NOSIG=
200911280630 METAR LMML NIL=
200911280615 METAR LMML 280615Z 22008KT 190V260 CAVOK 18/15 Q1021 NOSIG=
200911280600 METAR LMML NIL=
200911280545 METAR LMML 280545Z 23009KT CAVOK 18/14 Q1021 NOSIG=
200911280530 METAR LMML NIL=
200911280515 METAR LMML 280515Z 23008KT 200V260 CAVOK 18/14 Q1020 NOSIG=
200911280500 METAR LMML NIL=
200911280445 METAR LMML 280445Z 23008KT 200V260 CAVOK 18/14 Q1020 NOSIG=
200911280430 METAR LMML NIL=
200911280415 METAR LMML 280415Z 23008KT 200V270 CAVOK 18/14 Q1020 NOSIG=
200911280400 METAR LMML NIL=
200911280345 METAR LMML 280345Z 23009KT 200V270 CAVOK 18/14 Q1020 NOSIG=
200911280330 METAR LMML NIL=
200911280315 METAR LMML 280315Z 22006KT 190V260 CAVOK 17/14 Q1020 NOSIG=
200911280300 METAR LMML NIL=
200911280245 METAR LMML 280245Z 22006KT 190V270 CAVOK 17/14 Q1020 NOSIG=
200911280230 METAR LMML NIL=
200911280215 METAR LMML 280215Z 22007KT 190V270 CAVOK 17/14 Q1020 NOSIG=
200911280200 METAR LMML NIL=
200911280145 METAR LMML 280145Z 22006KT 190V250 CAVOK 17/14 Q1021 NOSIG=
200911280130 METAR LMML NIL=
200911280115 METAR LMML 280115Z 23007KT 200V260 CAVOK 17/14 Q1021 NOSIG=
200911280100 METAR LMML NIL=
200911280045 METAR LMML 280045Z 22005KT 190V280 CAVOK 17/13 Q1021 NOSIG=
200911280030 METAR LMML NIL=
200911280015 METAR LMML 280015Z 23004KT 200V280 CAVOK 17/13 Q1021 NOSIG=
200911280000 METAR LMML NIL=
200911272345 METAR LMML 272345Z 23005KT 180V290 9999 FEW022 17/13 Q1021
                        NOSIG=
200911272330 METAR LMML NIL=
200911272315 METAR LMML 272315Z 23004KT 180V280 9999 FEW022 17/13 Q1021
                        NOSIG=
200911272300 METAR LMML NIL=
200911272245 METAR LMML 272245Z 23005KT 200V280 9999 FEW023 17/13 Q1021
                        NOSIG=
200911272230 METAR LMML NIL=
200911272215 METAR LMML 272215Z 22004KT 180V270 9999 FEW024 17/13 Q1021
                        NOSIG=
200911272200 METAR LMML NIL=
200911272145 METAR LMML 272145Z 22005KT 190V260 CAVOK 17/13 Q1021 NOSIG=
200911272115 METAR LMML 272115Z 22004KT 190V270 CAVOK 17/13 Q1021 NOSIG=
200911272100 METAR LMML NIL=
200911272045 METAR LMML 272045Z 22004KT 200V280 CAVOK 17/13 Q1021 NOSIG=
200911272030 METAR LMML NIL=
200911272015 METAR LMML 272015Z 23006KT 200V260 CAVOK 17/13 Q1021 NOSIG=
200911272000 METAR LMML NIL=
200911271945 METAR LMML 271945Z VRB03KT CAVOK 17/12 Q1021 NOSIG=
200911271930 METAR LMML NIL=
200911271915 METAR LMML 271915Z 22004KT 190V280 CAVOK 17/13 Q1021 NOSIG=
200911271900 METAR LMML NIL=
200911271845 METAR LMML 271845Z 22004KT 190V260 CAVOK 17/13 Q1021 NOSIG=
200911271830 METAR LMML NIL=
200911271815 METAR LMML 271815Z 22004KT 180V260 9999 FEW025 17/13 Q1021
                        NOSIG=
200911271800 METAR LMML NIL=
200911271745 METAR LMML 271745Z 21004KT 180V250 9999 FEW025 17/13 Q1021
                        NOSIG=
200911271730 METAR LMML NIL=
200911271715 METAR LMML 271715Z VRB03KT CAVOK 17/12 Q1021 NOSIG=
200911271700 METAR LMML NIL=
200911271645 METAR LMML 271645Z 22004KT 180V250 9999 FEW027 18/12 Q1021
                        NOSIG=
200911271630 METAR LMML NIL=
200911271615 METAR LMML 271615Z VRB03KT 9999 FEW027 18/13 Q1021 NOSIG=
200911271600 METAR LMML NIL=
200911271545 METAR LMML 271545Z 21005KT 160V280 9999 FEW028 18/13 Q1020
                        NOSIG=
200911271530 METAR LMML NIL=
200911271515 METAR LMML 271515Z 22006KT 180V270 9999 FEW025 19/13 Q1020
                        NOSIG=
200911271500 METAR LMML NIL=
200911271445 METAR LMML 271445Z 22006KT 170V260 9999 FEW027 SCT120 20/12
                        Q1020 NOSIG=
200911271415 METAR LMML 271415Z 20006KT 160V270 9999 FEW027 SCT120 20/13
                        Q1020 NOSIG=
200911271400 METAR LMML NIL=
200911271345 METAR LMML 271345Z 22005KT 170V280 9999 FEW025 20/13 Q1020
                        NOSIG=
200911271330 METAR LMML NIL=
200911271315 METAR LMML 271315Z 23007KT 200V280 9999 FEW025 SCT250 20/13
                        Q1020 NOSIG=
200911271300 METAR LMML NIL=
200911271245 METAR LMML 271245Z 23007KT 180V280 9999 FEW026 SCT250 20/13
                        Q1021 NOSIG=
200911271230 METAR LMML NIL=
200911271215 METAR LMML 271215Z 23007KT 190V290 9999 FEW027 SCT250 20/13
                        Q1021 NOSIG=
200911271200 METAR LMML NIL=
200911271145 METAR LMML 271145Z 23007KT 170V270 9999 FEW027 20/13 Q1021
                        NOSIG=
200911271130 METAR LMML NIL=
200911271115 METAR LMML 271115Z 23007KT 180V280 9999 FEW027 20/12 Q1022
                        NOSIG=
200911271045 METAR LMML 271045Z 23007KT 190V280 9999 FEW027 20/12 Q1022
                        NOSIG=
200911271015 METAR LMML 271015Z 22008KT 190V260 9999 FEW027 20/12 Q1022
                        NOSIG=
200911271000 METAR LMML NIL=
200911270945 METAR LMML 270945Z 24007KT 200V290 9999 FEW026 19/13 Q1022
                        NOSIG=
200911270915 METAR LMML 270915Z 23006KT 190V290 9999 FEW023 19/13 Q1022
                        NOSIG=
200911270900 METAR LMML NIL=
200911270845 METAR LMML 270845Z 24006KT 190V290 9999 FEW025 19/13 Q1022
                        NOSIG=
200911270815 METAR LMML 270815Z 24005KT 200V280 9999 FEW023 19/13 Q1022
                        NOSIG=
200911270800 METAR LMML NIL=
200911270745 METAR LMML 270745Z 24004KT 210V270 9999 FEW025 18/14 Q1022
                        NOSIG=
200911270730 METAR LMML NIL=
200911270715 METAR LMML 270715Z VRB03KT 9999 FEW025 17/14 Q1022 NOSIG=
200911270700 METAR LMML NIL=
200911270645 METAR LMML 270645Z VRB03KT 9999 FEW025 16/13 Q1022 NOSIG=
200911270630 METAR LMML NIL=
200911270615 METAR LMML 270615Z 24004KT 9999 FEW022 15/13 Q1021 NOSIG=
200911270600 METAR LMML NIL=
200911270545 METAR LMML 270545Z VRB03KT 9999 FEW021 15/13 Q1021 NOSIG=
200911270530 METAR LMML NIL=
200911270515 METAR LMML 270515Z VRB03KT 9999 FEW023 15/13 Q1021 NOSIG=
200911270500 METAR LMML NIL=
200911270445 METAR LMML 270445Z VRB03KT 9999 FEW026 15/13 Q1021 NOSIG=
200911270430 METAR LMML NIL=
200911270415 METAR LMML 270415Z VRB03KT 9999 FEW026 15/13 Q1021 NOSIG=
200911270400 METAR LMML NIL=
200911270345 METAR LMML 270345Z VRB03KT 9999 FEW026 15/12 Q1021 NOSIG=
200911270330 METAR LMML NIL=
200911270315 METAR LMML 270315Z 23004KT 9999 FEW026 15/12 Q1021 NOSIG=
200911270300 METAR LMML NIL=
200911270245 METAR LMML 270245Z 23005KT 9999 FEW026 15/13 Q1022 NOSIG=
200911270230 METAR LMML NIL=
200911270215 METAR LMML 270215Z 24004KT 9999 FEW026 15/13 Q1022 NOSIG=
200911270200 METAR LMML NIL=
200911270145 METAR LMML 270145Z VRB03KT 9999 FEW029 15/13 Q1022 NOSIG=
200911270130 METAR LMML NIL=
200911270115 METAR LMML 270115Z VRB03KT 9999 FEW025 15/12 Q1022 NOSIG=
200911270100 METAR LMML NIL=
200911270045 METAR LMML 270045Z VRB03KT 9999 FEW025 15/13 Q1022 NOSIG=
200911270030 METAR LMML NIL=
200911270015 METAR LMML 270015Z VRB03KT 9999 FEW023 15/12 Q1023 NOSIG=
200911262345 METAR LMML 262345Z VRB03KT 9999 FEW025 15/12 Q1023 NOSIG=
200911262315 METAR LMML 262315Z 23004KT 9999 FEW025 15/12 Q1023 NOSIG=
200911262300 METAR LMML NIL=
200911262245 METAR LMML 262245Z 23004KT 9999 FEW025 15/12 Q1023 NOSIG=
200911262215 METAR LMML 262215Z VRB03KT 9999 FEW025 15/12 Q1023 NOSIG=
200911262145 METAR LMML 262145Z VRB03KT 9999 FEW025 14/13 Q1023 NOSIG=
200911262130 METAR LMML NIL=
200911262115 METAR LMML 262115Z VRB03KT 9999 FEW025 14/13 Q1023 NOSIG=
200911262045 METAR LMML 262045Z VRB03KT 9999 FEW025 14/12 Q1023 NOSIG=
200911262030 METAR LMML NIL=
200911262015 METAR LMML 262015Z VRB01KT 9999 FEW030 14/13 Q1023 NOSIG=
200911262000 METAR LMML NIL=
200911261945 METAR LMML 261945Z VRB02KT 9999 FEW030 14/12 Q1023 NOSIG=
200911261930 METAR LMML NIL=
200911261915 METAR LMML 261915Z VRB02KT CAVOK 14/12 Q1023 NOSIG=
200911261900 METAR LMML NIL=
200911261845 METAR LMML 261845Z VRB02KT 9999 FEW030 15/12 Q1023 NOSIG=
200911261830 METAR LMML NIL=
200911261815 METAR LMML 261815Z VRB02KT 9999 FEW030 15/11 Q1023 NOSIG=
200911261800 METAR LMML NIL=
200911261745 METAR LMML 261745Z VRB03KT 9999 FEW029 15/11 Q1023 NOSIG=
200911261730 METAR LMML NIL=
200911261715 METAR LMML 261715Z VRB03KT 9999 FEW029 16/11 Q1023 NOSIG=
200911261700 METAR LMML NIL=
200911261645 METAR LMML 261645Z VRB03KT 9999 FEW029 16/11 Q1023 NOSIG=
200911261630 METAR LMML NIL=
200911261615 METAR LMML 261615Z VRB03KT 9999 FEW029 16/11 Q1023 NOSIG=
200911261600 METAR LMML NIL=
200911261545 METAR LMML 261545Z VRB03KT 9999 FEW029 17/11 Q1023 NOSIG=
200911261530 METAR LMML NIL=
200911261515 METAR LMML 261515Z 25005KT 200V290 9999 FEW029 18/11 Q1023
                        NOSIG=
200911261445 METAR LMML 261445Z 26006KT 210V290 9999 SCT029 18/11 Q1023
                        NOSIG=
200911261430 METAR LMML NIL=
200911261415 METAR LMML 261415Z 26005KT 210V300 9999 SCT027 19/12 Q1023
                        NOSIG=
200911261400 METAR LMML NIL=
200911261345 METAR LMML 261345Z 25006KT 220V280 9999 SCT030 18/12 Q1023
                        NOSIG=
200911261330 METAR LMML NIL=
200911261315 METAR LMML 261315Z 24005KT 200V300 9999 SCT029 19/12 Q1023
                        NOSIG=
200911261300 METAR LMML NIL=
200911261245 METAR LMML 261245Z 22005KT 190V280 9999 SCT029 19/12 Q1023
                        NOSIG=
200911261230 METAR LMML NIL=
200911261215 METAR LMML 261215Z 23007KT 200V260 9999 SCT030 19/11 Q1023
                        NOSIG=
200911261200 METAR LMML NIL=
200911261145 METAR LMML 261145Z 27005KT 220V310 9999 FEW029 20/11 Q1024
                        NOSIG=
200911261130 METAR LMML NIL=
200911261115 METAR LMML 261115Z 26006KT 220V310 9999 SCT027 20/12 Q1024
                        NOSIG=
200911261100 METAR LMML NIL=
200911261045 METAR LMML 261045Z 23006KT 180V290 9999 SCT026 20/12 Q1024
                        NOSIG=
200911261030 METAR LMML NIL=
200911261015 METAR LMML 261015Z 22006KT 190V270 9999 SCT029 19/12 Q1024
                        NOSIG=
200911260945 METAR LMML 260945Z 23006KT 160V290 9999 FEW029 19/12 Q1025
                        NOSIG=
200911260930 METAR LMML NIL=
200911260915 METAR LMML 260915Z 23004KT 170V300 9999 FEW027 19/12 Q1025
                        NOSIG=
200911260900 METAR LMML NIL=
200911260845 METAR LMML 260845Z 22004KT 170V270 9999 FEW027 19/13 Q1024
                        NOSIG=
200911260830 METAR LMML NIL=
200911260815 METAR LMML 260815Z VRB03KT 9999 FEW020 18/13 Q1024 NOSIG=
200911260800 METAR LMML NIL=
200911260745 METAR LMML 260745Z VRB01KT 9999 FEW020 18/14 Q1024 NOSIG=
200911260730 METAR LMML NIL=
200911260715 METAR LMML 260715Z VRB01KT 9999 FEW020 16/14 Q1024 NOSIG=
200911260700 METAR LMML NIL=
200911260645 METAR LMML 260645Z VRB01KT 9999 FEW020 14/13 Q1024 NOSIG=
200911260630 METAR LMML NIL=
200911260615 METAR LMML 260615Z VRB01KT 9999 FEW020 12/12 Q1024 NOSIG=
200911260600 METAR LMML NIL=
200911260545 METAR LMML 260545Z VRB01KT 9999 FEW020 13/13 Q1023 NOSIG=
200911260530 METAR LMML NIL=
200911260515 METAR LMML 260515Z VRB02KT 9999 FEW020 12/12 Q1023 NOSIG=
200911260500 METAR LMML NIL=
200911260445 METAR LMML 260445Z VRB02KT CAVOK 12/12 Q1023 NOSIG=
200911260430 METAR LMML NIL=
200911260415 METAR LMML 260415Z VRB03KT CAVOK 12/12 Q1023 NOSIG=
200911260400 METAR LMML NIL=
200911260345 METAR LMML 260345Z VRB02KT CAVOK 12/12 Q1023 NOSIG=
200911260330 METAR LMML NIL=
200911260315 METAR LMML 260315Z VRB03KT CAVOK 13/13 Q1023 NOSIG=
200911260300 METAR LMML NIL=
200911260245 METAR LMML 260245Z VRB02KT CAVOK 12/12 Q1023 NOSIG=
200911260230 METAR LMML NIL=
200911260215 METAR LMML 260215Z VRB02KT CAVOK 13/12 Q1023 NOSIG=
200911260200 METAR LMML NIL=
200911260145 METAR LMML 260145Z VRB02KT CAVOK 13/13 Q1023 NOSIG=
200911260130 METAR LMML NIL=
200911260115 METAR LMML 260115Z VRB01KT CAVOK 13/12 Q1023 NOSIG=
200911260100 METAR LMML NIL=
200911260045 METAR LMML 260045Z VRB02KT CAVOK 13/12 Q1023 NOSIG=
200911260030 METAR LMML NIL=
200911260015 METAR LMML 260015Z VRB02KT CAVOK 13/12 Q1023 NOSIG=
200911260000 METAR LMML NIL=
200911252345 METAR LMML 252345Z VRB03KT CAVOK 13/12 Q1023 NOSIG=
200911252330 METAR LMML NIL=
200911252315 METAR LMML 252315Z VRB03KT CAVOK 13/12 Q1023 NOSIG=
200911252300 METAR LMML NIL=
200911252245 METAR LMML 252245Z VRB03KT CAVOK 13/12 Q1024 NOSIG=
200911252230 METAR LMML NIL=
200911252215 METAR LMML 252215Z VRB03KT CAVOK 14/12 Q1024 NOSIG=
200911252200 METAR LMML NIL=
200911252145 METAR LMML 252145Z VRB02KT CAVOK 14/12 Q1023 NOSIG=
200911252130 METAR LMML NIL=
200911252115 METAR LMML 252115Z VRB03KT CAVOK 14/12 Q1023 NOSIG=
200911252100 METAR LMML NIL=
200911252045 METAR LMML 252045Z VRB03KT CAVOK 14/12 Q1024 NOSIG=
200911252030 METAR LMML NIL=
200911252015 METAR LMML 252015Z VRB02KT 9999 FEW025 14/12 Q1023 NOSIG=
200911252000 METAR LMML NIL=
200911251945 METAR LMML 251945Z VRB03KT 9999 FEW025 14/11 Q1023 NOSIG=
200911251930 METAR LMML NIL=
200911251915 METAR LMML 251915Z 27004KT 9999 FEW025 15/12 Q1023 NOSIG=
200911251900 METAR LMML NIL=
200911251845 METAR LMML 251845Z VRB03KT 9999 FEW025 14/12 Q1023 NOSIG=
200911251830 METAR LMML NIL=
200911251815 METAR LMML 251815Z VRB02KT 9999 FEW025 15/12 Q1023 NOSIG=
200911251800 METAR LMML NIL=
200911251745 METAR LMML 251745Z VRB02KT 9999 FEW025 15/12 Q1023 NOSIG=
200911251730 METAR LMML NIL=
200911251715 METAR LMML 251715Z VRB03KT 9999 FEW025 15/12 Q1023 NOSIG=
200911251700 METAR LMML NIL=
200911251645 METAR LMML 251645Z VRB02KT 9999 FEW028 15/12 Q1023 NOSIG=
200911251615 METAR LMML 251615Z VRB03KT 9999 FEW028 16/12 Q1023 NOSIG=
200911251600 METAR LMML NIL=
200911251545 METAR LMML 251545Z VRB03KT 9999 FEW025 17/12 Q1022 NOSIG=
200911251530 METAR LMML NIL=
200911251515 METAR LMML 251515Z VRB03KT 9999 FEW025 18/12 Q1023 NOSIG=
200911251445 METAR LMML 251445Z 35004KT 330V030 9999 FEW024 19/13 Q1022
                        NOSIG=
200911251430 METAR LMML NIL=
200911251415 METAR LMML 251415Z 36004KT 320V050 9999 SCT025 18/13 Q1022
                        NOSIG=
200911251400 METAR LMML NIL=
200911251345 METAR LMML 251345Z 36005KT 340V040 9999 SCT026 19/12 Q1022
                        NOSIG=
200911251330 METAR LMML NIL=
200911251315 METAR LMML 251315Z 01004KT 300V070 9999 SCT029 19/13 Q1022
                        NOSIG=
200911251300 METAR LMML NIL=
200911251245 METAR LMML 251245Z VRB02KT 9999 SCT030 19/12 Q1022 NOSIG=
200911251215 METAR LMML 251215Z VRB03KT 9999 SCT029 19/12 Q1022 NOSIG=
200911251145 METAR LMML 251145Z VRB02KT 9999 FEW030 19/12 Q1022 NOSIG=
200911251130 METAR LMML NIL=
200911251115 METAR LMML 251115Z VRB02KT 9999 SCT038 19/12 Q1022 NOSIG=
200911251100 METAR LMML NIL=
200911251045 METAR LMML 251045Z VRB03KT 9999 FEW025 20/12 Q1022 NOSIG=
200911251030 METAR LMML NIL=
200911251015 METAR LMML 251015Z VRB03KT 9999 FEW029 21/11 Q1023 NOSIG=
200911251000 METAR LMML NIL=
200911250945 METAR LMML 250945Z 35004KT 320V030 9999 FEW025 20/12 Q1023
                        NOSIG=
200911250930 METAR LMML NIL=
200911250915 METAR LMML 250915Z 36005KT 320V040 9999 FEW025 19/12 Q1023
                        NOSIG=
200911250845 METAR LMML 250845Z 34005KT 9999 FEW020 19/12 Q1023 NOSIG=
200911250830 METAR LMML NIL=
200911250815 METAR LMML 250815Z 34006KT 310V010 9999 FEW020 18/12 Q1023
                        NOSIG=
200911250800 METAR LMML NIL=
200911250745 METAR LMML 250745Z 33004KT 9999 FEW020 17/12 Q1022 NOSIG=
200911250730 METAR LMML NIL=
200911250715 METAR LMML 250715Z 32004KT 9999 FEW020 16/12 Q1022 NOSIG=
200911250700 METAR LMML NIL=
200911250645 METAR LMML 250645Z 31005KT 9999 FEW020 15/11 Q1022 NOSIG=
200911250630 METAR LMML NIL=
200911250615 METAR LMML 250615Z 30004KT 260V320 9999 FEW020 14/11 Q1022
                        NOSIG=
200911250600 METAR LMML NIL=
200911250545 METAR LMML 250545Z 31004KT 9999 FEW020 14/10 Q1021 NOSIG=
200911250530 METAR LMML NIL=
200911250515 METAR LMML 250515Z 33005KT 9999 FEW020 14/10 Q1021 NOSIG=
200911250500 METAR LMML NIL=
200911250445 METAR LMML 250445Z 32007KT 9999 FEW020 14/10 Q1021 NOSIG=
200911250430 METAR LMML NIL=
200911250415 METAR LMML 250415Z 32008KT 9999 FEW020 14/10 Q1021 NOSIG=
200911250400 METAR LMML NIL=
200911250345 METAR LMML 250345Z 30007KT 9999 FEW020 14/10 Q1021 NOSIG=
200911250330 METAR LMML NIL=
200911250315 METAR LMML 250315Z 28006KT 240V300 9999 FEW020 15/11 Q1021
                        NOSIG=
200911250300 METAR LMML NIL=
200911250245 METAR LMML 250245Z 29005KT 9999 FEW020 15/11 Q1021 NOSIG=
200911250230 METAR LMML NIL=
200911250215 METAR LMML 250215Z 30005KT 9999 FEW020 14/10 Q1021 NOSIG=
200911250200 METAR LMML NIL=
200911250145 METAR LMML 250145Z 30007KT 9999 FEW020 15/11 Q1021 NOSIG=
200911250130 METAR LMML NIL=
200911250115 METAR LMML 250115Z 30006KT 9999 FEW020 14/11 Q1021 NOSIG=
200911250045 METAR LMML 250045Z 32006KT 9999 FEW020 14/11 Q1021 NOSIG=
200911250030 METAR LMML NIL=
200911250015 METAR LMML 250015Z 30006KT 9999 FEW020 15/12 Q1021 NOSIG=
200911250000 METAR LMML NIL=
200911242345 METAR LMML 242345Z 29006KT 9999 FEW020 15/12 Q1021 NOSIG=
200911242330 METAR LMML NIL=
200911242315 METAR LMML 242315Z 29006KT 9999 FEW025 15/12 Q1021 NOSIG=
200911242300 METAR LMML NIL=
200911242245 METAR LMML 242245Z 30005KT 9999 FEW026 16/12 Q1022 NOSIG=
200911242230 METAR LMML NIL=
200911242215 METAR LMML 242215Z 31008KT 9999 FEW026 16/13 Q1022 NOSIG=
200911242200 METAR LMML NIL=
200911242145 METAR LMML 242145Z 30008KT 9999 SCT026 16/13 Q1022 NOSIG=
200911242130 METAR LMML NIL=
200911242115 METAR LMML 242115Z 30010KT 9999 SCT021 16/13 Q1022 NOSIG=
200911242100 METAR LMML NIL=
200911242045 METAR LMML 242045Z 30008KT 9999 SCT024 16/12 Q1022 NOSIG=
200911242030 METAR LMML NIL=
200911242015 METAR LMML 242015Z 31009KT 9999 FEW028 16/12 Q1022 NOSIG=
200911242000 METAR LMML NIL=
200911241945 METAR LMML 241945Z 31008KT 9999 FEW027 16/11 Q1022 NOSIG=
200911241930 METAR LMML NIL=
200911241915 METAR LMML 241915Z 31011KT 9999 FEW020 16/11 Q1022 NOSIG=
200911241900 METAR LMML NIL=
200911241845 METAR LMML 241845Z 31012KT 9999 FEW020 16/11 Q1022 NOSIG=
200911241830 METAR LMML NIL=
200911241815 METAR LMML 241815Z 31012KT 9999 FEW025 16/11 Q1022 NOSIG=
200911241800 METAR LMML NIL=
200911241745 METAR LMML 241745Z 31011KT 9999 FEW000 16/12 Q1022 NOSIG=
200911241730 METAR LMML NIL=
200911241715 METAR LMML 241715Z 31014KT 9999 FEW025 17/12 Q1022 NOSIG=
200911241700 METAR LMML NIL=
200911241645 METAR LMML 241645Z 30013KT 9999 FEW025 17/12 Q1021 NOSIG=
200911241630 METAR LMML NIL=
200911241615 METAR LMML 241615Z 31013KT 9999 FEW025 17/12 Q1021 NOSIG=
200911241545 METAR LMML 241545Z 31016KT 290V350 9999 FEW024 17/12 Q1021
                        NOSIG=
200911241530 METAR LMML NIL=
200911241515 METAR LMML 241515Z 31015KT 9999 FEW024 17/12 Q1021 NOSIG=
200911241500 METAR LMML NIL=
200911241445 METAR LMML 241445Z 31016G26KT 260V340 9999 SCT026 18/12 Q1021
                        NOSIG=
200911241430 METAR LMML NIL=
200911241415 METAR COR LMML 241415Z 32017KT 9999 SCT028 18/12 Q1021 NOSIG=
200911241400 METAR LMML NIL=
200911241345 METAR LMML 241345Z 31019KT 9999 SCT028 18/12 Q1021 NOSIG=
200911241330 METAR LMML NIL=
200911241315 METAR LMML 241315Z 32015KT 290V350 9999 SCT027 18/12 Q1021
                        NOSIG=
200911241300 METAR LMML NIL=
200911241245 METAR LMML 241245Z 32018KT 9999 SCT028 19/12 Q1021 NOSIG=
200911241230 METAR LMML NIL=
200911241215 METAR LMML 241215Z 31016KT 280V340 9999 SCT031 19/11 Q1021
                        NOSIG=
200911241200 METAR LMML NIL=
200911241145 METAR LMML 241145Z 31017KT 260V330 9999 FEW034 19/11 Q1022
                        NOSIG=
200911241130 METAR LMML NIL=
200911241115 METAR LMML 241115Z 31017KT 9999 FEW029 19/11 Q1022 NOSIG=
200911241100 METAR LMML NIL=
200911241045 METAR LMML 241045Z 31017KT 9999 FEW036 19/11 Q1023 NOSIG=
200911241030 METAR LMML NIL=
200911241015 METAR LMML 241015Z 32017KT 9999 FEW024 19/10 Q1023 NOSIG=
200911241000 METAR LMML NIL=
200911240945 METAR LMML 240945Z 32014KT 9999 SCT026 18/12 Q1023 NOSIG=
200911240930 METAR LMML NIL=
200911240915 METAR LMML 240915Z 32017KT 9999 SCT031 19/12 Q1023 NOSIG=
200911240845 METAR LMML 240845Z 32015KT 9999 FEW033 19/11 Q1023 NOSIG=
200911240830 METAR LMML NIL=
200911240815 METAR LMML 240815Z 32012KT 270V350 9999 FEW020 18/10 Q1023
                        NOSIG=
200911240800 METAR LMML NIL=
200911240745 METAR LMML 240745Z 33010KT 290V350 9999 FEW020 18/10 Q1023
                        NOSIG=
200911240730 METAR LMML NIL=
200911240715 METAR LMML 240715Z 32010KT 9999 FEW020 17/10 Q1023 NOSIG=
200911240700 METAR LMML NIL=
200911240645 METAR LMML 240645Z 32009KT 9999 FEW020 16/11 Q1022 NOSIG=
200911240630 METAR LMML NIL=
200911240615 METAR LMML 240615Z 33011KT 9999 FEW020 16/10 Q1022 NOSIG=
200911240600 METAR LMML NIL=
200911240545 METAR LMML 240545Z 32011KT 9999 FEW020 15/11 Q1022 NOSIG=
200911240515 METAR LMML 240515Z 31009KT 9999 FEW020 15/12 Q1022 NOSIG=
200911240500 METAR LMML NIL=
200911240445 METAR LMML 240445Z 30008KT 9999 FEW020 15/13 Q1021 NOSIG=
200911240430 METAR LMML NIL=
200911240415 METAR LMML 240415Z 30009KT 9999 FEW020 16/12 Q1021 NOSIG=
200911240400 METAR LMML NIL=
200911240345 METAR LMML 240345Z 31010KT 9999 FEW020 16/13 Q1021 NOSIG=
200911240330 METAR LMML NIL=
200911240315 METAR LMML 240315Z 32011KT 9999 FEW020 16/14 Q1021 NOSIG=
200911240300 METAR LMML NIL=
200911240245 METAR LMML 240245Z 32009KT 9999 FEW020 16/13 Q1021 NOSIG=
200911240230 METAR LMML NIL=
200911240215 METAR LMML 240215Z 31011KT 9999 FEW022 16/13 Q1021 NOSIG=
200911240200 METAR LMML NIL=
200911240145 METAR LMML 240145Z 32011KT 9999 FEW017 16/13 Q1021 NOSIG=
200911240130 METAR LMML NIL=
200911240115 METAR LMML 240115Z 31011KT 9999 FEW019 17/13 Q1022 NOSIG=
200911240100 METAR LMML NIL=
200911240045 METAR LMML 240045Z 31012KT 9999 FEW019 17/13 Q1022 NOSIG=
200911240030 METAR LMML NIL=
200911240015 METAR LMML 240015Z 31017KT 9999 FEW017 17/13 Q1022 NOSIG=
200911240000 METAR LMML NIL=
200911232345 METAR LMML 232345Z 31015KT 9999 FEW016 17/14 Q1022 NOSIG=
200911232330 METAR LMML NIL=
200911232315 METAR LMML 232315Z 31014KT 9999 FEW014 17/14 Q1022 NOSIG=
200911232300 METAR LMML NIL=
200911232245 METAR LMML 232245Z 30015KT 9999 FEW014 17/14 Q1022 NOSIG=
200911232230 METAR LMML NIL=
200911232215 METAR LMML 232215Z 30012KT 9999 FEW015 17/14 Q1022 NOSIG=
200911232200 METAR LMML NIL=
200911232145 METAR LMML 232145Z 30015KT 270V330 9999 FEW013 17/14 Q1022
                        NOSIG=
200911232130 METAR LMML NIL=
200911232115 METAR LMML 232115Z 31012KT 9999 FEW013 17/15 Q1022 NOSIG=
200911232100 METAR LMML NIL=
200911232045 METAR LMML 232045Z 31013KT 9999 FEW018 17/15 Q1022 NOSIG=
200911232030 METAR LMML NIL=
200911232015 METAR LMML 232015Z 31011KT 9999 FEW018 17/15 Q1023 NOSIG=
200911232000 METAR LMML NIL=
200911231945 METAR LMML 231945Z 30013KT 9999 FEW018 SCT250 17/14 Q1022
                        NOSIG=
200911231930 METAR LMML NIL=
200911231915 METAR LMML 231915Z 30014KT 9999 FEW018 SCT250 17/15 Q1022
                        NOSIG=
200911231900 METAR LMML NIL=
200911231845 METAR LMML 231845Z 30016KT 9999 FEW018 SCT250 17/15 Q1022
                        NOSIG=
200911231830 METAR LMML NIL=
200911231815 METAR LMML 231815Z 30015KT 9000 NSC 17/15 Q1022 NOSIG=
200911231800 METAR LMML NIL=
200911231745 METAR LMML 231745Z 31014KT 9000 FEW018 SCT250 17/15 Q1022
                        NOSIG=
200911231730 METAR LMML NIL=
200911231715 METAR LMML 231715Z 30014KT 9000 FEW018 BKN250 18/15 Q1022
                        NOSIG=
200911231700 METAR LMML NIL=
200911231645 METAR LMML 231645Z 31014KT 9000 FEW018 BKN250 18/15 Q1022
                        NOSIG=
200911231630 METAR LMML NIL=
200911231615 METAR LMML 231615Z 31013KT 9999 FEW018 BKN250 18/15 Q1022
                        NOSIG=
200911231600 METAR LMML NIL=
200911231545 METAR LMML 231545Z 31010KT 9999 FEW020 BKN250 18/15 Q1022
                        NOSIG=
200911231530 METAR LMML NIL=
200911231515 METAR LMML 231515Z 32009KT 9999 FEW020 BKN250 18/15 Q1022
                        NOSIG=
200911231500 METAR LMML NIL=
200911231445 METAR LMML 231445Z 31012KT 280V340 9999 FEW020 BKN250 18/14
                        Q1022 NOSIG=
200911231430 METAR LMML NIL=
200911231415 METAR LMML 231415Z 32012KT 9999 FEW016 BKN250 18/14 Q1022
                        NOSIG=
200911231400 METAR LMML NIL=
200911231345 METAR LMML 231345Z 31013KT 280V340 9999 FEW016 BKN250 19/15
                        Q1022 NOSIG=
200911231330 METAR LMML NIL=
200911231315 METAR LMML 231315Z 31012KT 9999 FEW016 BKN250 19/14 Q1022
                        NOSIG=
200911231300 METAR LMML NIL=
200911231245 METAR LMML 231245Z 30010KT 9999 FEW016 BKN250 19/14 Q1022
                        NOSIG=
200911231230 METAR LMML NIL=
200911231215 METAR LMML 231215Z 31012KT 9999 FEW016 BKN250 19/14 Q1022
                        NOSIG=
200911231200 METAR LMML NIL=
200911231145 METAR LMML 231145Z 29010KT 250V320 9999 FEW017 BKN250 19/14
                        Q1023 NOSIG=
200911231130 METAR LMML NIL=
200911231115 METAR LMML 231115Z 30011KT 9999 FEW018 BKN250 19/14 Q1023
                        NOSIG=
200911231045 METAR LMML 231045Z 32009KT 9999 FEW018 19/14 Q1023 NOSIG=
200911231030 METAR LMML NIL=
200911231015 METAR LMML 231015Z 31010KT 9999 SCT017 19/14 Q1023 NOSIG=
200911231000 METAR LMML NIL=
200911230945 METAR LMML 230945Z 30010KT 270V330 9999 SCT017 18/13 Q1024
                        NOSIG=
200911230930 METAR LMML NIL=
200911230915 METAR LMML 230915Z 29008KT 270V330 9999 FEW016 18/14 Q1024
                        NOSIG=
200911230900 METAR LMML NIL=
200911230845 METAR LMML 230845Z 28008KT 250V320 9000 FEW014 18/14 Q1024
                        BECMG 9999=
200911230830 METAR LMML NIL=
200911230815 METAR LMML 230815Z 31006KT 270V340 9000 FEW014 17/14 Q1024
                        BECMG 9999=
200911230800 METAR LMML NIL=
200911230745 METAR LMML 230745Z VRB02KT 7000 FEW014 17/14 Q1023 BECMG
                        9999=
200911230730 METAR LMML NIL=
200911230715 METAR LMML 230715Z VRB03KT 7000 FEW014 16/14 Q1023 BECMG
                        9999=
200911230700 METAR LMML NIL=
200911230645 METAR LMML 230645Z 27005KT 7000 SCT013 15/14 Q1023 BECMG
                        9999=
200911230615 METAR LMML 230615Z 26004KT 230V290 7000 BKN014 14/14 Q1023
                        BECMG 9999=
200911230600 METAR LMML NIL=
200911230545 METAR LMML 230545Z 27004KT 8000 SCT014 14/13 Q1023 BECMG
                        9999=
200911230530 METAR LMML NIL=
200911230515 METAR LMML 230515Z 27004KT 240V310 9999 SCT015 14/13 Q1023
                        NOSIG=
200911230500 METAR LMML NIL=
200911230445 METAR LMML 230445Z 28005KT 9999 SCT017 14/13 Q1023 NOSIG=
200911230415 METAR LMML 230415Z 27005KT 9999 BKN018 14/13 Q1023 NOSIG=
200911230400 METAR LMML NIL=
200911230345 METAR LMML 230345Z 27005KT 240V300 9999 SCT020 14/13 Q1023
                        NOSIG=
200911230330 METAR LMML NIL=
200911230315 METAR LMML 230315Z 27005KT 230V290 9999 SCT019 14/13 Q1023
                        NOSIG=
200911230300 METAR LMML NIL=
200911230245 METAR LMML 230245Z 27004KT 9999 BKN020 14/13 Q1023 NOSIG=
200911230230 METAR LMML NIL=
200911230215 METAR LMML 230215Z 27004KT 230V290 9000 BKN020 14/14 Q1023
                        NOSIG=
200911230200 METAR LMML NIL=
200911230145 METAR LMML 230145Z 27004KT 9000 FEW020 13/13 Q1023 NOSIG=
200911230130 METAR LMML NIL=
200911230115 METAR LMML 230115Z VRB03KT 9000 FEW021 13/13 Q1023 NOSIG=
200911230100 METAR LMML NIL=
200911230045 METAR LMML 230045Z 27004KT 9999 FEW020 13/12 Q1024 NOSIG=
200911230030 METAR LMML NIL=
200911230015 METAR LMML 230015Z 28004KT 9999 FEW015 13/12 Q1024 NOSIG=
200911230000 METAR LMML NIL=
200911222345 METAR LMML 222345Z 27004KT CAVOK 13/11 Q1024 NOSIG=
200911222330 METAR LMML NIL=
200911222315 METAR LMML 222315Z 27004KT CAVOK 13/11 Q1024 NOSIG=
200911222300 METAR LMML NIL=
200911222245 METAR LMML 222245Z 27004KT CAVOK 13/11 Q1024 NOSIG=
200911222230 METAR LMML NIL=
200911222215 METAR LMML 222215Z VRB03KT CAVOK 12/11 Q1024 NOSIG=
200911222200 METAR LMML NIL=
200911222145 METAR LMML 222145Z VRB03KT CAVOK 12/10 Q1025 NOSIG=
200911222130 METAR LMML NIL=
200911222115 METAR LMML 222115Z VRB03KT CAVOK 12/10 Q1025 NOSIG=
200911222045 METAR LMML 222045Z VRB02KT CAVOK 12/10 Q1025 NOSIG=
200911222030 METAR LMML NIL=
200911222015 METAR LMML 222015Z VRB02KT CAVOK 13/11 Q1025 NOSIG=
200911222000 METAR LMML NIL=
200911221945 METAR LMML 221945Z VRB02KT CAVOK 13/11 Q1025 NOSIG=
200911221930 METAR LMML NIL=
200911221915 METAR LMML 221915Z VRB02KT CAVOK 13/10 Q1025 NOSIG=
200911221900 METAR LMML NIL=
200911221845 METAR LMML 221845Z VRB01KT CAVOK 13/10 Q1025 NOSIG=
200911221830 METAR LMML NIL=
200911221815 METAR LMML 221815Z 00000KT CAVOK 13/10 Q1025 NOSIG=
200911221800 METAR LMML NIL=
200911221745 METAR LMML 221745Z 00000KT CAVOK 14/10 Q1025 NOSIG=
200911221715 METAR LMML 221715Z VRB01KT 9999 FEW026 14/10 Q1025 NOSIG=
200911221700 METAR LMML NIL=
200911221645 METAR LMML 221645Z VRB01KT 9999 FEW026 15/10 Q1025 NOSIG=
200911221630 METAR LMML NIL=
200911221615 METAR LMML 221615Z VRB02KT 9999 FEW026 15/10 Q1024 NOSIG=
200911221600 METAR LMML NIL=
200911221545 METAR LMML 221545Z VRB02KT 9999 FEW026 16/10 Q1024 NOSIG=
200911221530 METAR LMML NIL=
200911221515 METAR LMML 221515Z VRB03KT 9999 FEW026 17/11 Q1024 NOSIG=
200911221500 METAR LMML NIL=
200911221445 METAR COR LMML 221445Z 04004KT 9999 FEW026 18/11 Q1024 NOSIG=
200911221430 METAR LMML NIL=
200911221415 METAR LMML 221415Z 01004KT 340V040 9999 FEW026 19/10 Q1024
                        NOSIG=
200911221400 METAR LMML NIL=
200911221345 METAR LMML 221345Z 01004KT 340V040 9999 FEW026 19/11 Q1024
                        NOSIG=
200911221330 METAR LMML NIL=
200911221315 METAR LMML 221315Z 01004KT 330V040 9999 FEW026 19/11 Q1025
                        NOSIG=
200911221300 METAR LMML NIL=
200911221245 METAR LMML 221245Z 35005KT 290V030 9999 FEW026 19/12 Q1025
                        NOSIG=
200911221230 METAR LMML NIL=
200911221215 METAR LMML 221215Z 02004KT 330V060 9999 FEW029 20/11 Q1025
                        NOSIG=
200911221200 METAR LMML NIL=
200911221145 METAR LMML 221145Z 02004KT 320V080 9999 FEW031 20/11 Q1025
                        NOSIG=
200911221130 METAR LMML NIL=
200911221115 METAR LMML 221115Z 36006KT 9999 FEW034 SCT035 19/10 Q1026
                        NOSIG=
200911221100 METAR LMML NIL=
200911221045 METAR LMML 221045Z 05004KT 010V100 9999 BKN035 19/11 Q1026
                        NOSIG=
200911221030 METAR LMML NIL=
200911221015 METAR LMML 221015Z 04004KT 010V070 9999 FEW033 SCT037 19/12
                        Q1026 NOSIG=
200911220945 METAR LMML 220945Z VRB03KT 9000 BKN036 19/12 Q1027 NOSIG=
200911220930 METAR LMML NIL=
200911220915 METAR LMML 220915Z 04005KT 020V080 9000 FEW019 BKN037 19/13
                        Q1027 NOSIG=
200911220900 METAR LMML NIL=
200911220845 METAR LMML 220845Z VRB03KT 9000 FEW016 BKN038 18/14 Q1027
                        NOSIG=
200911220830 METAR LMML NIL=
200911220815 METAR LMML 220815Z VRB02KT 9999 FEW016 18/15 Q1027 NOSIG=
200911220800 METAR LMML NIL=
200911220745 METAR LMML 220745Z VRB02KT 9000 FEW016 16/14 Q1027 NOSIG=
200911220730 METAR LMML NIL=
200911220715 METAR LMML 220715Z 26005KT 9999 BKN018 15/13 Q1027 NOSIG=
200911220700 METAR LMML NIL=
200911220645 METAR LMML 220645Z 26004KT 230V290 9000 BKN018 14/13 Q1027
                        NOSIG=
200911220630 METAR LMML NIL=
200911220615 METAR LMML 220615Z 26004KT 9000 BKN018 14/13 Q1027 NOSIG=
200911220600 METAR LMML NIL=
200911220545 METAR LMML 220545Z 25004KT 9000 SCT020 14/13 Q1027 NOSIG=
200911220530 METAR LMML NIL=
200911220515 METAR LMML 220515Z 24004KT 9999 SCT019 13/12 Q1027 NOSIG=
200911220500 METAR LMML NIL=
200911220445 METAR LMML 220445Z VRB03KT 9999 SCT019 13/12 Q1027 NOSIG=
200911220430 METAR LMML NIL=
200911220415 METAR LMML 220415Z VRB03KT 9999 FEW021 13/11 Q1027 NOSIG=
200911220400 METAR LMML NIL=
200911220345 METAR LMML 220345Z 25004KT 9999 FEW020 12/11 Q1027 NOSIG=
200911220330 METAR LMML NIL=
200911220315 METAR LMML 220315Z VRB03KT CAVOK 12/11 Q1027 NOSIG=
200911220300 METAR LMML NIL=
200911220245 METAR LMML 220245Z VRB03KT CAVOK 12/11 Q1027 NOSIG=
200911220230 METAR LMML NIL=
200911220215 METAR LMML 220215Z VRB03KT CAVOK 13/11 Q1027 NOSIG=
200911220200 METAR LMML NIL=
200911220145 METAR LMML 220145Z VRB03KT 9999 SCT023 13/11 Q1027 NOSIG=
200911220130 METAR LMML NIL=
200911220115 METAR LMML 220115Z VRB03KT 9999 SCT023 13/11 Q1028 NOSIG=
200911220100 METAR LMML NIL=
200911220045 METAR LMML 220045Z VRB03KT 9999 SCT023 13/11 Q1028 NOSIG=
200911220030 METAR LMML NIL=
200911220015 METAR LMML 220015Z VRB03KT 9999 BKN023 14/11 Q1028 NOSIG=
200911220000 METAR LMML NIL=
200911212345 METAR LMML 212345Z VRB03KT 9999 BKN023 14/11 Q1028 NOSIG=
200911212315 METAR LMML 212315Z VRB03KT 9999 BKN022 14/11 Q1028 NOSIG=
200911212245 METAR LMML 212245Z VRB02KT 9999 BKN021 14/12 Q1029 NOSIG=
200911212215 METAR LMML 212215Z VRB01KT 9999 BKN023 14/12 Q1029 NOSIG=
200911212200 METAR LMML NIL=
200911212145 METAR LMML 212145Z VRB01KT 9999 BKN023 14/12 Q1029 NOSIG=
200911212115 METAR LMML 212115Z VRB01KT 9999 BKN023 15/11 Q1029 NOSIG=
200911212100 METAR LMML NIL=
200911212045 METAR LMML 212045Z VRB01KT 9999 BKN022 15/12 Q1029 NOSIG=
200911212030 METAR LMML NIL=
200911212015 METAR LMML 212015Z VRB02KT 9999 BKN023 14/12 Q1029 NOSIG=
200911212000 METAR LMML NIL=
200911211945 METAR LMML 211945Z VRB01KT 9999 BKN023 15/12 Q1029 NOSIG=
200911211930 METAR LMML NIL=
200911211915 METAR LMML 211915Z VRB02KT 9999 BKN023 15/12 Q1029 NOSIG=
200911211900 METAR LMML NIL=
200911211845 METAR LMML 211845Z VRB02KT 9999 BKN023 15/12 Q1029 NOSIG=
200911211830 METAR LMML NIL=
200911211815 METAR LMML 211815Z VRB03KT 9999 BKN023 15/12 Q1029 NOSIG=
200911211800 METAR LMML NIL=
200911211745 METAR LMML 211745Z VRB02KT 9999 BKN020 15/12 Q1029 NOSIG=
200911211730 METAR LMML NIL=
200911211715 METAR LMML 211715Z VRB03KT 9999 BKN020 16/12 Q1029 NOSIG=
200911211700 METAR LMML NIL=
200911211645 METAR LMML 211645Z 03004KT 360V080 9999 BKN019 16/12 Q1029
                        NOSIG=
200911211630 METAR LMML NIL=
200911211615 METAR LMML 211615Z 03004KT 9999 BKN019 16/12 Q1029 NOSIG=
200911211600 METAR LMML NIL=
200911211545 METAR LMML 211545Z VRB03KT 9999 BKN020 16/12 Q1029 NOSIG=
200911211530 METAR LMML NIL=
200911211515 METAR LMML 211515Z 03004KT 010V080 9999 BKN022 17/12 Q1029
                        NOSIG=
200911211500 METAR LMML NIL=
200911211445 METAR LMML 211445Z VRB03KT 9999 BKN022 17/13 Q1029 NOSIG=
200911211430 METAR LMML NIL=
200911211415 METAR LMML 211415Z 04004KT 9999 BKN021 BKN250 17/13 Q1029
                        NOSIG=
200911211400 METAR LMML NIL=
200911211345 METAR LMML 211345Z VRB03KT 9999 BKN022 BKN250 19/13 Q1029
                        NOSIG=
200911211330 METAR LMML NIL=
200911211315 METAR LMML 211315Z 02004KT 330V070 9999 BKN020 BKN250 20/13
                        Q1029 NOSIG=
200911211300 METAR LMML NIL=
200911211245 METAR LMML 211245Z 03004KT 300V080 9999 BKN021 BKN250 19/13
                        Q1029 NOSIG=
200911211215 METAR LMML 211215Z 03005KT 320V050 9999 BKN021 BKN250 19/13
                        Q1030 NOSIG=
200911211200 METAR LMML NIL=
200911211145 METAR LMML 211145Z 08004KT 030V130 9999 BKN019 BKN250 18/13
                        Q1030 NOSIG=
200911211130 METAR LMML NIL=
200911211115 METAR LMML 211115Z 09005KT 040V120 9999 BKN019 BKN250 18/13
                        Q1030 NOSIG=
200911211045 METAR LMML 211045Z 05005KT 010V090 9999 BKN019 BKN250 18/14
                        Q1030 NOSIG=
200911211030 METAR LMML NIL=
200911211015 METAR LMML 211015Z 07005KT 010V120 9999 BKN019 BKN250 18/13
                        Q1031 NOSIG=
200911211000 METAR LMML NIL=
200911210945 METAR LMML 210945Z 07004KT 030V130 9999 BKN019 18/13 Q1031
                        NOSIG=
200911210930 METAR LMML NIL=
200911210915 METAR LMML 210915Z 07004KT 040V100 9999 BKN019 17/13 Q1031
                        NOSIG=
200911210900 METAR LMML NIL=
200911210845 METAR LMML 210845Z 07004KT 020V140 9999 BKN019 17/13 Q1031
                        NOSIG=
200911210830 METAR LMML NIL=
200911210815 METAR LMML 210815Z 07004KT 040V110 9999 BKN018 17/13 Q1031
                        NOSIG=
200911210745 METAR LMML 210745Z VRB03KT 9999 OVC018 16/13 Q1031 NOSIG=
200911210730 METAR LMML NIL=
200911210715 METAR LMML 210715Z VRB03KT 9999 OVC018 16/13 Q1031 NOSIG=
200911210645 METAR LMML 210645Z VRB02KT 9999 OVC017 16/13 Q1031 NOSIG=
200911210615 METAR LMML 210615Z 08004KT 040V110 9999 OVC017 16/13 Q1031
                        NOSIG=
200911210600 METAR LMML NIL=
200911210545 METAR LMML 210545Z VRB02KT 9999 BKN017 BKN250 16/13 Q1031
                        NOSIG=
200911210515 METAR LMML 210515Z VRB03KT 9999 BKN016 BKN250 16/13 Q1030
                        NOSIG=
200911210500 METAR LMML NIL=
200911210445 METAR LMML 210445Z VRB03KT 9999 BKN015 BKN250 15/13 Q1030
                        NOSIG=
200911210430 METAR LMML NIL=
200911210415 METAR LMML 210415Z VRB03KT 9999 BKN015 BKN250 15/13 Q1030
                        NOSIG=
200911210400 METAR LMML NIL=
200911210345 METAR LMML 210345Z 07004KT 9999 BKN015 BKN250 15/13 Q1030
                        NOSIG=
200911210330 METAR LMML NIL=
200911210315 METAR LMML 210315Z 04004KT 010V080 9999 BKN015 BKN250 15/13
                        Q1030 NOSIG=
200911210300 METAR LMML NIL=
200911210245 METAR LMML 210245Z 07005KT 030V100 9999 BKN015 BKN250 15/13
                        Q1030 NOSIG=
200911210230 METAR LMML NIL=
200911210215 METAR LMML 210215Z 05005KT 020V080 9999 BKN015 BKN250 15/13
                        Q1030 NOSIG=
200911210200 METAR LMML NIL=
200911210145 METAR LMML 210145Z 06005KT 020V090 9999 BKN016 BKN250 16/13
                        Q1030 NOSIG=
200911210130 METAR LMML NIL=
200911210115 METAR LMML 210115Z 06006KT 020V100 9999 BKN016 BKN250 16/13
                        Q1030 NOSIG=
200911210100 METAR LMML NIL=
200911210045 METAR LMML 210045Z 08005KT 050V110 9999 BKN017 BKN250 16/13
                        Q1030 NOSIG=
200911210030 METAR LMML NIL=
200911210015 METAR LMML 210015Z 07005KT 9999 BKN017 BKN250 16/13 Q1031
                        NOSIG=
200911210000 METAR LMML NIL=
200911202345 METAR LMML 202345Z 07004KT 030V100 9999 BKN016 BKN250 16/13
                        Q1031 NOSIG=
200911202315 METAR LMML 202315Z 06004KT 020V090 9000 BKN017 SCT250 16/13
                        Q1031 NOSIG=
200911202300 METAR LMML NIL=
200911202245 METAR LMML 202245Z 07004KT 040V100 9000 BKN015 BKN250 16/13
                        Q1031 NOSIG=
200911202230 METAR LMML NIL=
200911202215 METAR LMML 202215Z VRB03KT 9999 BKN015 BKN250 16/14 Q1031
                        NOSIG=
200911202200 METAR LMML NIL=
200911202145 METAR LMML 202145Z VRB03KT 9999 BKN015 BKN250 16/13 Q1031
                        NOSIG=
200911202130 METAR LMML NIL=
200911202115 METAR LMML 202115Z 09005KT 050V120 9999 BKN015 BKN250 16/14
                        Q1031 NOSIG=
200911202100 METAR LMML NIL=
200911202045 METAR LMML 202045Z 07005KT 340V100 9999 BKN015 BKN250 16/14
                        Q1031 NOSIG=
200911202030 METAR LMML NIL=
200911202015 METAR LMML 202015Z 07004KT 030V100 9999 BKN015 BKN250 16/14
                        Q1031 NOSIG=
200911202000 METAR LMML NIL=
200911201945 METAR LMML 201945Z 08006KT 050V120 9999 BKN015 BKN250 16/13
                        Q1031 NOSIG=
200911201930 METAR LMML NIL=
200911201915 METAR LMML 201915Z 08005KT 040V110 9999 BKN015 BKN250 16/14
                        Q1031 NOSIG=
200911201900 METAR LMML NIL=
200911201845 METAR LMML 201845Z 08005KT 9999 BKN015 BKN250 16/14 Q1031
                        NOSIG=
200911201830 METAR LMML NIL=
200911201815 METAR LMML 201815Z 08006KT 050V110 9999 BKN015 BKN250 16/14
                        Q1031 NOSIG=
200911201800 METAR LMML NIL=
200911201745 METAR LMML 201745Z 08004KT 9999 BKN015 BKN250 16/14 Q1031
                        NOSIG=
200911201730 METAR LMML NIL=
200911201715 METAR LMML 201715Z 08005KT 9000 BKN015 BKN250 16/14 Q1030
                        NOSIG=
200911201700 METAR LMML NIL=
200911201645 METAR LMML 201645Z 08006KT 050V110 9000 BKN015 BKN250 16/14
                        Q1030 NOSIG=
200911201630 METAR LMML NIL=
200911201615 METAR LMML 201615Z 09006KT 040V110 9000 BKN014 BKN250 16/14
                        Q1030 NOSIG=
200911201600 METAR LMML NIL=
200911201545 METAR LMML 201545Z 08006KT 050V110 9000 BKN014 BKN250 16/14
                        Q1030 NOSIG=
200911201530 METAR LMML NIL=
200911201515 METAR LMML 201515Z 10005KT 070V130 9999 BKN014 BKN250 17/14
                        Q1030 TEMPO SCT014=
200911201500 METAR LMML NIL=
200911201445 METAR LMML 201445Z 08008KT 040V110 9999 BKN014 BKN250 17/14
                        Q1029 TEMPO SCT014=
200911201430 METAR LMML NIL=
200911201415 METAR LMML 201415Z 08008KT 9999 BKN014 BKN250 17/14 Q1029
                        TEMPO SCT014=
200911201400 METAR LMML NIL=
200911201345 METAR LMML 201345Z 09006KT 070V130 9999 BKN014 BKN250 17/14
                        Q1029 NOSIG=
200911201330 METAR LMML NIL=
200911201315 METAR LMML 201315Z 10008KT 060V130 9999 BKN014 BKN250 17/14
                        Q1029 NOSIG=
200911201300 METAR LMML NIL=
200911201245 METAR LMML 201245Z 09008KT 050V120 9999 BKN014 17/14 Q1029
                        NOSIG=
200911201230 METAR LMML NIL=
200911201215 METAR LMML 201215Z 08008KT 040V130 9000 BKN014 17/14 Q1029
                        NOSIG=
200911201200 METAR LMML NIL=
200911201145 METAR LMML 201145Z 10009KT 060V140 9999 BKN014 BKN250 17/14
                        Q1030 NOSIG=
200911201115 METAR LMML 201115Z 10009KT 9999 BKN014 SCT000 17/14 Q1030
                        NOSIG=
200911201100 METAR LMML NIL=
200911201045 METAR LMML 201045Z 09010KT 060V130 9999 BKN014 18/14 Q1030
                        NOSIG=
200911201030 METAR LMML NIL=
200911201015 METAR LMML 201015Z 09009KT 050V120 9999 BKN013 17/15 Q1030
                        NOSIG=
200911201000 METAR LMML NIL=
200911200945 METAR LMML 200945Z 08009KT 040V120 9999 BKN012 17/15 Q1030
                        NOSIG=
200911200930 METAR LMML NIL=
200911200915 METAR LMML 200915Z 09009KT 050V120 9999 BKN012 17/15 Q1031
                        NOSIG=
200911200900 METAR LMML NIL=
200911200845 METAR LMML 200845Z 08010KT 7000 BKN011 17/15 Q1030 NOSIG=
200911200830 METAR LMML NIL=
200911200815 METAR LMML 200815Z 09008KT 7000 BKN011 17/16 Q1030 NOSIG=
200911200800 METAR LMML NIL=
200911200745 METAR LMML 200745Z 08007KT 050V110 7000 BKN011 17/16 Q1030
                        NOSIG=
200911200730 METAR LMML NIL=
200911200715 METAR LMML 200715Z 09007KT 060V120 6000 BKN010 16/16 Q1030
                        BECMG BKN012=
200911200700 METAR LMML NIL=
200911200645 METAR LMML 200645Z 08007KT 040V120 6000 BKN009 16/16 Q1030
                        BECMG BKN012=
200911200630 METAR LMML NIL=
200911200615 METAR LMML 200615Z 08006KT 6000 BKN009 16/16 Q1029 TEMPO
                        4000 BR BKN003=
200911200600 METAR LMML NIL=
200911200545 METAR LMML 200545Z 07006KT 040V100 6000 BKN009 16/16 Q1029
                        TEMPO 4000 BR BKN003=
200911200530 METAR LMML NIL=
200911200515 METAR LMML 200515Z 08005KT 030V110 7000 BKN009 16/16 Q1028
                        TEMPO 4000 BR BKN003=
200911200500 METAR LMML NIL=
200911200445 METAR LMML 200445Z 07006KT 040V100 7000 BKN010 16/16 Q1028
                        TEMPO 4000 BR BKN003=
200911200430 METAR LMML NIL=
200911200415 METAR LMML 200415Z 07005KT 030V100 7000 BKN009 16/16 Q1028
                        TEMPO 4000 BR BKN003=
200911200400 METAR LMML NIL=
200911200345 METAR LMML 200345Z 08006KT 040V110 7000 BKN009 16/16 Q1028
                        TEMPO 4000 BR BKN003=
200911200330 METAR LMML NIL=
200911200315 METAR LMML 200315Z 07005KT 7000 BKN008 16/16 Q1028 TEMPO
                        4000 BR BKN003=
200911200300 METAR LMML NIL=
200911200245 METAR LMML 200245Z 07005KT 6000 BKN008 15/15 Q1028 TEMPO
                        4000 BR BKN003=
200911200230 METAR LMML NIL=
200911200215 METAR LMML 200215Z 07005KT 050V120 6000 BKN007 15/15 Q1028
                        TEMPO 4000 BR BKN003=
200911200200 METAR LMML NIL=
200911200145 METAR LMML 200145Z 07004KT 040V100 6000 BKN007 15/15 Q1028
                        TEMPO 4000 BR BKN003=
200911200130 METAR LMML NIL=
200911200115 METAR LMML 200115Z 07005KT 6000 BKN007 15/15 Q1028 TEMPO
                        4000 BR BKN003=
200911200100 METAR LMML NIL=
200911200045 METAR LMML 200045Z 06004KT 6000 BKN006 15/15 Q1028 TEMPO
                        4000 BR BKN003=
200911200015 METAR LMML 200015Z VRB03KT 6000 BKN006 15/15 Q1028 TEMPO
                        4000 BR BKN003=
200911200000 METAR LMML NIL=
200911192345 METAR LMML 192345Z 06004KT 030V090 6000 SCT005 15/15 Q1028
                        TEMPO 4000 BR BKN003=
200911192330 METAR LMML NIL=
200911192315 METAR LMML 192315Z 07005KT 040V110 6000 BKN004 15/15 Q1028
                        TEMPO 4000 BR BKN003=
200911192300 METAR LMML NIL=
200911192245 METAR LMML 192245Z VRB03KT 9000 FEW005 14/14 Q1028 TEMPO
                        5000 BR=
200911192230 METAR LMML NIL=
200911192215 METAR LMML 192215Z VRB01KT 9000 NSC 14/14 Q1028 TEMPO 5000
                        BR=
200911192145 METAR LMML 192145Z 03004KT 9000 NSC 14/14 Q1028 TEMPO 5000
                        BR=
200911192130 METAR LMML NIL=
200911192115 METAR LMML 192115Z VRB02KT 9000 NSC 14/14 Q1028 TEMPO 5000
                        BR=
200911192100 METAR LMML NIL=
200911192045 METAR LMML 192045Z VRB02KT 9000 NSC 14/14 Q1028 TEMPO 7000=
200911192030 METAR LMML NIL=
200911192015 METAR LMML 192015Z VRB01KT CAVOK 14/14 Q1028 NOSIG=
200911192000 METAR LMML NIL=
200911191945 METAR LMML 191945Z VRB01KT CAVOK 14/13 Q1028 NOSIG=
200911191930 METAR LMML NIL=
200911191915 METAR LMML 191915Z VRB01KT CAVOK 14/13 Q1027 NOSIG=
200911191900 METAR LMML NIL=
200911191845 METAR LMML 191845Z VRB02KT CAVOK 15/13 Q1027 NOSIG=
200911191815 METAR LMML 191815Z VRB01KT CAVOK 14/12 Q1027 NOSIG=
200911191800 METAR LMML NIL=
200911191745 METAR LMML 191745Z VRB01KT CAVOK 15/13 Q1027 NOSIG=
200911191730 METAR LMML NIL=
200911191715 METAR LMML 191715Z VRB02KT CAVOK 16/13 Q1027 NOSIG=
200911191700 METAR LMML NIL=
200911191645 METAR LMML 191645Z VRB01KT CAVOK 16/13 Q1026 NOSIG=
200911191630 METAR LMML NIL=
200911191615 METAR LMML 191615Z VRB01KT 9999 FEW007 SCT250 17/13 Q1026
                        NOSIG=
200911191600 METAR LMML NIL=
200911191545 METAR LMML 191545Z VRB02KT 9999 FEW007 BKN250 18/13 Q1026
                        NOSIG=
200911191530 METAR LMML NIL=
200911191515 METAR LMML 191515Z VRB03KT 9999 FEW007 BKN250 18/13 Q1026
                        NOSIG=
200911191500 METAR LMML NIL=
200911191445 METAR LMML 191445Z 14004KT 9999 FEW007 BKN250 19/11 Q1026
                        NOSIG=
200911191430 METAR LMML NIL=
200911191415 METAR LMML 191415Z 13004KT 9999 FEW007 BKN250 20/10 Q1026
                        NOSIG=
200911191400 METAR LMML NIL=
200911191345 METAR LMML 191345Z 13004KT 100V160 9999 FEW007 BKN250 21/08
                        Q1026 NOSIG=
200911191330 METAR LMML NIL=
200911191315 METAR LMML 191315Z 12004KT 090V150 9999 FEW007 BKN250 21/10
                        Q1026 NOSIG=
200911191300 METAR LMML NIL=
200911191245 METAR LMML 191245Z 12004KT 100V160 9999 FEW007 BKN120 21/10
                        Q1026 NOSIG=
200911191230 METAR LMML NIL=
200911191215 METAR LMML 191215Z 13004KT 110V170 9999 FEW010 BKN250 21/09
                        Q1026 NOSIG=
200911191200 METAR LMML NIL=
200911191145 METAR LMML 191145Z VRB03KT 9999 FEW010 BKN250 21/09 Q1026
                        NOSIG=
200911191130 METAR LMML NIL=
200911191115 METAR LMML 191115Z 13004KT 100V160 9999 FEW010 BKN250 21/11
                        Q1026 NOSIG=
200911191100 METAR LMML NIL=
200911191045 METAR LMML 191045Z 11004KT 080V160 9999 FEW010 BKN250 21/13
                        Q1027 NOSIG=
200911191030 METAR LMML NIL=
200911191015 METAR LMML 191015Z VRB03KT 9000 FEW010 BKN250 20/11 Q1027
                        NOSIG=
200911191000 METAR LMML NIL=
200911190945 METAR LMML 190945Z VRB03KT 7000 FEW010 BKN250 19/13 Q1027
                        NOSIG=
200911190930 METAR LMML NIL=
200911190915 METAR LMML 190915Z VRB01KT 7000 FEW010 BKN250 19/17 Q1027
                        NOSIG=
200911190845 METAR LMML 190845Z VRB02KT 6000 FEW010 BKN250 17/17 Q1027
                        NOSIG=
200911190830 METAR LMML NIL=
200911190815 METAR LMML 190815Z VRB01KT 6000 FEW010 BKN250 16/16 Q1027
                        NOSIG=
200911190800 METAR LMML NIL=
200911190745 METAR LMML 190745Z VRB01KT 7000 FEW010 BKN250 14/14 Q1027
                        NOSIG=
200911190730 METAR LMML NIL=
200911190715 METAR LMML 190715Z VRB01KT 7000 FEW006 BKN250 14/14 Q1026
                        NOSIG=
200911190700 METAR LMML NIL=
200911190645 METAR LMML 190645Z VRB01KT 7000 FEW006 BKN250 12/12 Q1026
                        NOSIG=
200911190615 METAR LMML 190615Z 00000KT 7000 FEW006 BKN250 11/11 Q1026
                        NOSIG=
200911190545 METAR LMML 190545Z VRB01KT 7000 FEW006 BKN250 11/11 Q1026
                        NOSIG=
200911190530 METAR LMML NIL=
200911190515 METAR LMML 190515Z VRB02KT 9999 FEW005 SCT250 11/11 Q1026
                        NOSIG=
200911190500 METAR LMML NIL=
200911190445 METAR LMML 190445Z VRB02KT 0900 R13/P1500N FG FEW001 11/11
                        Q1025 BECMG 3000 BR=
200911190430 METAR LMML NIL=
200911190415 METAR LMML 190415Z VRB01KT 0100 R13/0400N FG SCT001 11/11
                        Q1025 BECMG 3000 BR=
200911190400 METAR LMML NIL=
200911190345 METAR LMML 190345Z VRB01KT 0100 R13/0184V0336N FG SCT001
                        11/11 Q1025 NOSIG=
200911190330 METAR LMML NIL=
200911190315 METAR LMML 190315Z VRB02KT 0050 R13/0342V0483N FG SCT001
                        11/11 Q1025 NOSIG=
200911190300 METAR LMML NIL=
200911190245 METAR LMML 190245Z VRB01KT 0050 R13/0217V0333N FG OVC001
                        11/11 Q1025 NOSIG=
200911190230 METAR LMML NIL=
200911190215 METAR LMML 190215Z VRB02KT 0050 R13/M0050V0261N FG BKN001
                        11/11 Q1025 NOSIG=
200911190200 METAR LMML NIL=
200911190145 METAR LMML 190145Z VRB01KT 0050 R13/0217V0474N FG SCT001
                        11/11 Q1025 NOSIG=
200911190130 METAR LMML NIL=
200911190115 METAR LMML 190115Z VRB01KT 0050 R13/0225N FG FEW001 11/11
                        Q1025 NOSIG=
200911190100 METAR LMML NIL=
200911190045 METAR LMML 190045Z VRB01KT 0050 R13/0500N FG SCT001 11/11
                        Q1025 NOSIG=
200911190015 METAR LMML 190015Z VRB01KT 0050 R13/0227V0414N FG SCT001
                        12/12 Q1025 NOSIG=
200911190000 METAR LMML NIL=
200911182345 METAR LMML 182345Z VRB02KT 0100 R13/M0050V0388D FG SCT001
                        12/12 Q1025 NOSIG=
200911182330 METAR LMML NIL=
200911182315 METAR LMML 182315Z VRB02KT 0100 R13/0600N FG SCT001 13/13
                        Q1025 NOSIG=
200911182245 METAR LMML 182245Z VRB01KT 0100 R13/0500N FG SCT001 13/13
                        Q1025 NOSIG=
200911182215 METAR LMML 182215Z VRB01KT 0050 R13/0300N FG SCT001 13/13
                        Q1025 NOSIG=
200911182145 METAR LMML 182145Z VRB01KT 0050 R13/0379VP1500U FG SCT001
                        13/13 Q1026 NOSIG=
200911182133 SPECI LMML 182133Z VRB01KT 0200 R13/0218V0379N FG SCT001
                        13/13 Q1026 NOSIG=
200911182130 METAR LMML NIL=
200911182115 METAR LMML 182115Z VRB02KT 6000 MIFG FEW006 14/14 Q1026 NOSIG=
200911182045 METAR LMML 182045Z VRB01KT 7000 FEW006 14/14 Q1025 NOSIG=
200911182030 METAR LMML NIL=
200911182015 METAR LMML 182015Z VRB02KT 7000 FEW006 14/14 Q1025 NOSIG=
200911182000 METAR LMML NIL=
200911181945 METAR LMML 181945Z VRB02KT 9999 FEW006 14/14 Q1025 NOSIG=
200911181930 METAR LMML NIL=
200911181915 METAR LMML 181915Z VRB01KT 9999 FEW006 14/14 Q1025 NOSIG=
200911181900 METAR LMML NIL=
200911181845 METAR LMML 181845Z 00000KT CAVOK 15/15 Q1025 NOSIG=
200911181830 METAR LMML NIL=
200911181815 METAR LMML 181815Z VRB01KT CAVOK 15/15 Q1025 NOSIG=
200911181800 METAR LMML NIL=
200911181745 METAR LMML 181745Z VRB01KT CAVOK 16/15 Q1025 NOSIG=
200911181730 METAR LMML NIL=
200911181715 METAR LMML 181715Z VRB01KT CAVOK 16/15 Q1025 NOSIG=
200911181700 METAR LMML NIL=
200911181645 METAR LMML 181645Z VRB01KT CAVOK 16/15 Q1025 NOSIG=
200911181630 METAR LMML NIL=
200911181615 METAR LMML 181615Z VRB01KT CAVOK 18/15 Q1025 NOSIG=
200911181600 METAR LMML NIL=
200911181545 METAR LMML 181545Z VRB02KT CAVOK 19/15 Q1024 NOSIG=
200911181530 METAR LMML NIL=
200911181515 METAR LMML 181515Z VRB01KT 9999 FEW020 20/15 Q1024 NOSIG=
200911181500 METAR LMML NIL=
200911181445 METAR LMML 181445Z VRB02KT CAVOK 21/15 Q1024 NOSIG=
200911181415 METAR LMML 181415Z 03004KT 010V080 CAVOK 21/16 Q1024 NOSIG=
200911181400 METAR LMML NIL=
200911181345 METAR LMML 181345Z 03004KT 010V070 CAVOK 22/16 Q1024 NOSIG=
200911181330 METAR LMML NIL=
200911181315 METAR LMML 181315Z VRB02KT CAVOK 22/14 Q1024 NOSIG=
200911181300 METAR LMML NIL=
200911181245 METAR LMML 181245Z VRB03KT CAVOK 22/12 Q1024 NOSIG=
200911181230 METAR LMML NIL=
200911181215 METAR LMML 181215Z 24004KT 200V290 CAVOK 21/13 Q1025 NOSIG=
200911181200 METAR LMML NIL=
200911181145 METAR LMML 181145Z 23004KT 200V270 CAVOK 21/14 Q1025 NOSIG=
200911181130 METAR LMML NIL=
200911181115 METAR LMML 181115Z 23004KT 190V270 CAVOK 21/13 Q1025 NOSIG=
200911181045 METAR LMML 181045Z VRB03KT CAVOK 21/13 Q1025 NOSIG=
200911181030 METAR LMML NIL=
200911181015 METAR LMML 181015Z VRB03KT CAVOK 21/14 Q1025 NOSIG=
200911181000 METAR LMML NIL=
200911180945 METAR LMML 180945Z VRB03KT CAVOK 21/14 Q1025 NOSIG=
200911180930 METAR LMML NIL=
200911180915 METAR LMML 180915Z 23004KT 180V270 CAVOK 20/14 Q1025 NOSIG=
200911180900 METAR LMML NIL=
200911180845 METAR LMML 180845Z VRB01KT CAVOK 20/15 Q1026 NOSIG RMK SMOKE
                        TO NORTH=
200911180830 METAR LMML NIL=
200911180815 METAR LMML 180815Z 00000KT CAVOK 18/16 Q1025 NOSIG=
200911180800 METAR LMML NIL=
200911180745 METAR LMML 180745Z 00000KT CAVOK 18/17 Q1025 NOSIG RMK SMOKE
                        TO NORTH=
200911180730 METAR LMML NIL=
200911180715 METAR LMML 180715Z VRB01KT CAVOK 16/16 Q1025 NOSIG RMK SMOKE
                        TO NORTH=
200911180700 METAR LMML NIL=
200911180645 METAR LMML 180645Z VRB01KT CAVOK 14/14 Q1025 NOSIG RMK SMOKE
                        TO NORTH=
200911180630 METAR LMML NIL=
200911180615 METAR LMML 180615Z VRB01KT CAVOK 12/12 Q1025 NOSIG=
200911180600 METAR LMML NIL=
200911180545 METAR LMML 180545Z VRB01KT 9999 MIFG NSC 12/12 Q1024 TEMPO
                        8000=
200911180530 METAR LMML NIL=
200911180515 METAR LMML 180515Z VRB03KT 9999 MIFG NSC 13/13 Q1024 TEMPO
                        8000=
200911180500 METAR LMML NIL=
200911180445 METAR LMML 180445Z VRB03KT CAVOK 12/12 Q1024 TEMPO 8000 MIFG
                        NSC=
200911180430 METAR LMML NIL=
200911180415 METAR LMML 180415Z VRB02KT 9999 MIFG NSC 12/12 Q1024 TEMPO
                        8000=
200911180400 METAR LMML NIL=
200911180345 METAR LMML 180345Z VRB03KT CAVOK 12/12 Q1024 TEMPO 8000 MIFG
                        NSC=
200911180330 METAR LMML NIL=
200911180315 METAR LMML 180315Z VRB03KT 9999 MIFG NSC 13/13 Q1024 TEMPO
                        8000=
200911180300 METAR LMML NIL=
200911180245 METAR LMML 180245Z VRB02KT 9999 MIFG NSC 12/12 Q1024 TEMPO
                        8000=
200911180230 METAR LMML NIL=
200911180215 METAR LMML 180215Z VRB02KT 9999 MIFG NSC 13/13 Q1024 TEMPO
                        8000=
200911180200 METAR LMML NIL=
200911180145 METAR LMML 180145Z VRB02KT CAVOK 13/13 Q1024 TEMPO 8000 MIFG
                        NSC=
200911180130 METAR LMML NIL=
200911180115 METAR LMML 180115Z VRB01KT CAVOK 13/13 Q1024 NOSIG=
200911180100 METAR LMML NIL=
200911180045 METAR LMML 180045Z VRB01KT CAVOK 14/14 Q1024 NOSIG=
200911180030 METAR LMML NIL=
200911180015 METAR LMML 180015Z VRB02KT CAVOK 14/14 Q1024 NOSIG=
200911180000 METAR LMML NIL=
200911172345 METAR LMML 172345Z VRB01KT CAVOK 14/14 Q1024 NOSIG=
200911172330 METAR LMML NIL=
200911172315 METAR LMML 172315Z VRB03KT CAVOK 15/15 Q1024 NOSIG=
200911172300 METAR LMML NIL=
200911172245 METAR LMML 172245Z VRB01KT CAVOK 15/15 Q1024 NOSIG=
200911172230 METAR LMML NIL=
200911172215 METAR LMML 172215Z VRB02KT CAVOK 15/15 Q1024 NOSIG=
200911172200 METAR LMML NIL=
200911172145 METAR LMML 172145Z VRB02KT CAVOK 15/15 Q1024 NOSIG=
200911172130 METAR LMML NIL=
200911172115 METAR LMML 172115Z VRB03KT CAVOK 16/16 Q1024 NOSIG=
200911172100 METAR LMML NIL=
200911172045 METAR LMML 172045Z VRB03KT CAVOK 16/16 Q1025 NOSIG=
200911172030 METAR LMML NIL=
200911172015 METAR LMML 172015Z 23004KT CAVOK 16/15 Q1024 NOSIG=
200911172000 METAR LMML NIL=
200911171945 METAR LMML 171945Z 23004KT 200V260 CAVOK 16/15 Q1024 NOSIG=
200911171930 METAR LMML NIL=
200911171915 METAR LMML 171915Z 22005KT CAVOK 17/15 Q1024 NOSIG=
200911171900 METAR LMML NIL=
200911171845 METAR LMML 171845Z 22004KT CAVOK 17/15 Q1024 NOSIG=
200911171830 METAR LMML NIL=
200911171815 METAR LMML 171815Z 22005KT CAVOK 17/15 Q1024 NOSIG=
200911171800 METAR LMML NIL=
200911171745 METAR LMML 171745Z 11004KT CAVOK 17/15 Q1024 NOSIG=
200911171715 METAR LMML 171715Z 23006KT 200V270 CAVOK 17/15 Q1023 NOSIG=
200911171700 METAR LMML NIL=
200911171645 METAR LMML 171645Z 23004KT 190V280 CAVOK 17/15 Q1023 NOSIG=
200911171630 METAR LMML NIL=
200911171615 METAR LMML 171615Z VRB03KT CAVOK 18/15 Q1023 NOSIG=
200911171600 METAR LMML NIL=
200911171545 METAR LMML 171545Z VRB03KT CAVOK 19/15 Q1023 NOSIG=
200911171530 METAR LMML NIL=
200911171515 METAR LMML 171515Z 24006KT 200V280 CAVOK 19/15 Q1023 NOSIG=
200911171500 METAR LMML NIL=
200911171445 METAR LMML 171445Z 23008KT 200V270 CAVOK 20/15 Q1023 NOSIG=
200911171430 METAR LMML NIL=
200911171415 METAR LMML 171415Z 23008KT 200V280 CAVOK 20/15 Q1023 NOSIG=
200911171400 METAR LMML NIL=
200911171345 METAR LMML 171345Z 24008KT 200V270 CAVOK 21/14 Q1023 NOSIG=
200911171330 METAR LMML NIL=
200911171315 METAR LMML 171315Z 24007KT 200V290 CAVOK 21/15 Q1023 NOSIG=
200911171300 METAR LMML NIL=
200911171245 METAR LMML 171245Z 23006KT 200V270 CAVOK 21/14 Q1023 NOSIG=
200911171230 METAR LMML NIL=
200911171215 METAR LMML 171215Z 24005KT 200V290 CAVOK 22/14 Q1023 NOSIG=
200911171145 METAR LMML 171145Z 24006KT 200V270 CAVOK 21/15 Q1024 NOSIG=
200911171130 METAR LMML NIL=
200911171115 METAR LMML 171115Z 23006KT 200V270 CAVOK 21/16 Q1024 NOSIG=
200911171100 METAR LMML NIL=
200911171045 METAR LMML 171045Z 23007KT 200V260 CAVOK 21/16 Q1024 NOSIG=
200911171030 METAR LMML NIL=
200911171015 METAR LMML 171015Z 24007KT 210V270 CAVOK 21/17 Q1024 NOSIG=
200911171000 METAR LMML NIL=
200911170945 METAR LMML 170945Z 23005KT 190V260 CAVOK 21/16 Q1024 NOSIG=
200911170915 METAR LMML 170915Z VRB03KT CAVOK 22/16 Q1024 NOSIG=
200911170900 METAR LMML NIL=
200911170845 METAR LMML 170845Z 23004KT 200V270 CAVOK 21/17 Q1024 NOSIG=
200911170830 METAR LMML NIL=
200911170815 METAR LMML 170815Z VRB02KT CAVOK 21/16 Q1024 NOSIG=
200911170800 METAR LMML NIL=
200911170745 METAR LMML 170745Z VRB01KT CAVOK 20/16 Q1024 NOSIG=
200911170730 METAR LMML NIL=
200911170715 METAR LMML 170715Z VRB01KT CAVOK 18/16 Q1024 NOSIG=
200911170700 METAR LMML NIL=
200911170645 METAR LMML 170645Z VRB03KT CAVOK 17/16 Q1023 NOSIG=
200911170630 METAR LMML NIL=
200911170615 METAR LMML 170615Z VRB03KT CAVOK 17/15 Q1023 NOSIG=
200911170600 METAR LMML NIL=
200911170545 METAR LMML 170545Z VRB03KT CAVOK 16/13 Q1023 NOSIG=
200911170530 METAR LMML NIL=
200911170515 METAR LMML 170515Z VRB03KT CAVOK 15/12 Q1023 NOSIG=
200911170500 METAR LMML NIL=
200911170445 METAR LMML 170445Z 24004KT CAVOK 16/12 Q1023 NOSIG=
200911170430 METAR LMML NIL=
200911170415 METAR LMML 170415Z 26006KT CAVOK 17/13 Q1023 NOSIG=
200911170400 METAR LMML NIL=
200911170345 METAR LMML 170345Z 26004KT 230V300 9000 FEW007 16/12 Q1023
                        NOSIG=
200911170330 METAR LMML NIL=
200911170315 METAR LMML 170315Z VRB03KT 9000 FEW007 16/15 Q1022 NOSIG=
200911170300 METAR LMML NIL=
200911170245 METAR LMML 170245Z 24004KT 9000 FEW007 17/17 Q1022 NOSIG=
200911170230 METAR LMML NIL=
200911170215 METAR LMML 170215Z 22005KT 200V260 CAVOK 17/17 Q1022 NOSIG=
200911170200 METAR LMML NIL=
200911170145 METAR LMML 170145Z 24006KT 210V270 CAVOK 17/17 Q1022 NOSIG=
200911170130 METAR LMML NIL=
200911170115 METAR LMML 170115Z 23005KT 200V270 CAVOK 17/16 Q1022 NOSIG=
200911170100 METAR LMML NIL=
200911170045 METAR LMML 170045Z VRB03KT CAVOK 16/15 Q1023 NOSIG=
200911170030 METAR LMML NIL=
200911170015 METAR LMML 170015Z 23005KT 180V270 CAVOK 17/17 Q1023 NOSIG=
200911170000 METAR LMML NIL=
200911162345 METAR LMML 162345Z 22006KT 200V270 CAVOK 18/17 Q1023 NOSIG=
200911162330 METAR LMML NIL=
200911162315 METAR LMML 162315Z 24006KT CAVOK 17/14 Q1023 NOSIG=
200911162245 METAR LMML 162245Z 23005KT CAVOK 17/17 Q1023 NOSIG=
200911162230 METAR LMML NIL=
200911162215 METAR LMML 162215Z 23006KT 200V260 CAVOK 17/17 Q1023 NOSIG=
200911162200 METAR LMML NIL=
200911162145 METAR LMML 162145Z 23006KT 200V260 CAVOK 17/16 Q1023 NOSIG=
200911162130 METAR LMML NIL=
200911162115 METAR LMML 162115Z 23006KT 200V270 CAVOK 18/16 Q1023 NOSIG=
200911162100 METAR LMML NIL=
200911162045 METAR LMML 162045Z 24008KT CAVOK 17/16 Q1023 NOSIG=
200911162030 METAR LMML NIL=
200911162015 METAR LMML 162015Z 23006KT 200V270 CAVOK 17/15 Q1023 NOSIG=
200911162000 METAR LMML NIL=
200911161945 METAR LMML 161945Z VRB03KT CAVOK 17/13 Q1023 NOSIG=
200911161930 METAR LMML NIL=
200911161915 METAR LMML 161915Z VRB03KT CAVOK 17/13 Q1023 NOSIG=
200911161900 METAR LMML NIL=
200911161845 METAR LMML 161845Z VRB03KT CAVOK 17/14 Q1023 NOSIG=
200911161830 METAR LMML NIL=
200911161815 METAR LMML 161815Z 24005KT CAVOK 17/15 Q1022 NOSIG=
200911161800 METAR LMML NIL=
200911161745 METAR LMML 161745Z 24006KT CAVOK 18/15 Q1022 NOSIG=
200911161730 METAR LMML NIL=
200911161715 METAR LMML 161715Z 24004KT CAVOK 18/13 Q1022 NOSIG=
200911161645 METAR LMML 161645Z VRB03KT CAVOK 18/15 Q1022 NOSIG=
200911161630 METAR LMML NIL=
200911161615 METAR LMML 161615Z 24006KT 200V280 CAVOK 18/15 Q1022 NOSIG=
200911161600 METAR LMML NIL=
200911161545 METAR LMML 161545Z 25005KT CAVOK 19/14 Q1022 NOSIG=
200911161530 METAR LMML NIL=
200911161515 METAR LMML 161515Z 25006KT 220V280 9999 FEW015 BKN250 20/15
                        Q1022 NOSIG=
200911161500 METAR LMML NIL=
200911161445 METAR LMML 161445Z 24006KT 200V290 9999 FEW015 BKN250 20/16
                        Q1022 NOSIG=
200911161430 METAR LMML NIL=
200911161415 METAR LMML 161415Z 24004KT 200V280 9999 FEW015 BKN250 21/16
                        Q1022 NOSIG=
200911161400 METAR LMML NIL=
200911161345 METAR LMML 161345Z 24005KT 210V280 9999 FEW015 BKN250 21/16
                        Q1022 NOSIG=
200911161330 METAR LMML NIL=
200911161315 METAR LMML 161315Z 24006KT 200V280 9999 FEW015 BKN250 21/16
                        Q1022 NOSIG=
200911161300 METAR LMML NIL=
200911161245 METAR LMML 161245Z 24006KT 160V280 CAVOK 22/16 Q1022 NOSIG=
200911161230 METAR LMML NIL=
200911161215 METAR LMML 161215Z 26006KT 220V310 CAVOK 22/15 Q1022 NOSIG=
200911161200 METAR LMML NIL=
200911161145 METAR LMML 161145Z 26007KT 230V290 CAVOK 22/15 Q1023 NOSIG=
200911161130 METAR LMML NIL=
200911161115 METAR LMML 161115Z 26007KT 230V300 9999 FEW015 SCT250 21/15
                        Q1023 NOSIG=
200911161100 METAR LMML NIL=
200911161045 METAR LMML 161045Z 26007KT 220V290 9999 FEW015 SCT250 21/16
                        Q1023 NOSIG=
200911161030 METAR LMML NIL=
200911161015 METAR LMML 161015Z 24006KT 200V290 9999 FEW015 SCT250 21/17
                        Q1024 NOSIG=
200911161000 METAR LMML NIL=
200911160945 METAR LMML 160945Z 26007KT 230V290 9999 FEW015 SCT250 21/16
                        Q1024 NOSIG=
200911160930 METAR LMML NIL=
200911160915 METAR LMML 160915Z 26006KT 210V310 CAVOK 20/16 Q1024 NOSIG=
200911160900 METAR LMML NIL=
200911160845 METAR LMML 160845Z 26006KT 230V300 CAVOK 20/16 Q1024 NOSIG=
200911160830 METAR LMML NIL=
200911160815 METAR LMML 160815Z 26004KT 170V310 CAVOK 20/15 Q1023 NOSIG=
200911160745 METAR LMML 160745Z 26006KT 230V300 CAVOK 19/15 Q1023 NOSIG=
200911160730 METAR LMML NIL=
200911160715 METAR LMML 160715Z 26006KT CAVOK 19/15 Q1023 NOSIG=
200911160700 METAR LMML NIL=
200911160645 METAR LMML 160645Z 25007KT 220V280 CAVOK 18/15 Q1022 NOSIG=
200911160615 METAR LMML 160615Z 23006KT 200V280 CAVOK 17/14 Q1022 NOSIG=
200911160600 METAR LMML NIL=
200911160545 METAR LMML 160545Z 27005KT 240V310 CAVOK 17/14 Q1022 NOSIG=
200911160530 METAR LMML NIL=
200911160515 METAR LMML 160515Z 24006KT 220V280 CAVOK 16/14 Q1022 NOSIG=
200911160500 METAR LMML NIL=
200911160445 METAR LMML 160445Z 24006KT 220V280 CAVOK 16/14 Q1022 NOSIG=
200911160430 METAR LMML NIL=
200911160415 METAR LMML 160415Z 23005KT 210V270 CAVOK 16/13 Q1022 NOSIG=
200911160400 METAR LMML NIL=
200911160345 METAR LMML 160345Z 24004KT 210V280 CAVOK 16/13 Q1022 NOSIG=
200911160330 METAR LMML NIL=
200911160315 METAR LMML 160315Z 25004KT CAVOK 16/13 Q1022 NOSIG=
200911160300 METAR LMML NIL=
200911160245 METAR LMML 160245Z 25005KT CAVOK 16/13 Q1022 NOSIG=
200911160230 METAR LMML NIL=
200911160215 METAR LMML 160215Z 25004KT 210V310 CAVOK 17/14 Q1022 NOSIG=
200911160200 METAR LMML NIL=
200911160145 METAR LMML 160145Z 24004KT 190V310 CAVOK 17/14 Q1022 NOSIG=
200911160130 METAR LMML NIL=
200911160115 METAR LMML 160115Z 23004KT 200V280 CAVOK 16/14 Q1022 NOSIG=
200911160100 METAR LMML NIL=
200911160045 METAR LMML 160045Z 24004KT 210V280 CAVOK 16/14 Q1022 NOSIG=
200911160030 METAR LMML NIL=
200911160015 METAR LMML 160015Z VRB02KT CAVOK 16/14 Q1022 NOSIG=
200911160000 METAR LMML NIL=
200911152345 METAR LMML 152345Z 24004KT 220V280 CAVOK 16/14 Q1022 NOSIG=
200911152330 METAR LMML NIL=
200911152315 METAR LMML 152315Z 23005KT CAVOK 15/14 Q1023 NOSIG=
200911152300 METAR LMML NIL=
200911152245 METAR LMML 152245Z VRB02KT CAVOK 16/14 Q1023 NOSIG=
200911152230 METAR LMML NIL=
200911152215 METAR LMML 152215Z 26004KT CAVOK 16/15 Q1023 NOSIG=
200911152200 METAR LMML NIL=
200911152145 METAR LMML 152145Z VRB03KT CAVOK 16/15 Q1023 NOSIG=
200911152130 METAR LMML NIL=
200911152115 METAR LMML 152115Z VRB03KT CAVOK 16/15 Q1023 NOSIG=
200911152100 METAR LMML NIL=
200911152045 METAR LMML 152045Z VRB03KT CAVOK 16/15 Q1023 NOSIG=
200911152030 METAR LMML NIL=
200911152015 METAR LMML 152015Z 23004KT CAVOK 16/15 Q1023 NOSIG=
200911152000 METAR LMML NIL=
200911151945 METAR LMML 151945Z 22004KT 200V260 CAVOK 17/15 Q1023 NOSIG=
200911151930 METAR LMML NIL=
200911151915 METAR LMML 151915Z 23005KT 200V270 CAVOK 17/15 Q1023 NOSIG=
200911151900 METAR LMML NIL=
200911151845 METAR LMML 151845Z 22004KT 190V270 CAVOK 17/15 Q1023 NOSIG=
200911151830 METAR LMML NIL=
200911151815 METAR LMML 151815Z 22004KT CAVOK 17/15 Q1023 NOSIG=
200911151800 METAR LMML NIL=
200911151745 METAR LMML 151745Z 23004KT 200V270 9999 FEW014 BKN250 17/15
                        Q1023 NOSIG=
200911151730 METAR LMML NIL=
200911151715 METAR LMML 151715Z 23004KT 190V270 9999 FEW014 BKN250 17/15
                        Q1023 NOSIG=
200911151700 METAR LMML NIL=
200911151645 METAR LMML 151645Z 23005KT 200V270 9999 FEW014 BKN250 17/15
                        Q1023 NOSIG=
200911151630 METAR LMML NIL=
200911151615 METAR LMML 151615Z 23005KT 200V260 9999 FEW014 BKN250 18/15
                        Q1023 NOSIG=
200911151600 METAR LMML NIL=
200911151545 METAR LMML 151545Z 24006KT 200V280 9999 FEW014 BKN250 18/15
                        Q1023 NOSIG=
200911151530 METAR LMML NIL=
200911151515 METAR LMML 151515Z 24007KT 200V290 9999 FEW014 BKN250 18/15
                        Q1023 NOSIG=
200911151500 METAR LMML NIL=
200911151445 METAR LMML 151445Z 24007KT 200V290 9999 FEW014 BKN250 19/16
                        Q1023 NOSIG=
200911151430 METAR LMML NIL=
200911151415 METAR LMML 151415Z 24008KT 200V270 9999 FEW015 BKN250 19/15
                        Q1023 NOSIG=
200911151400 METAR LMML NIL=
200911151345 METAR LMML 151345Z 24007KT 200V280 9999 FEW015 BKN250 20/16
                        Q1023 NOSIG=
200911151330 METAR LMML NIL=
200911151315 METAR LMML 151315Z 24009KT 200V290 9999 FEW017 BKN250 20/15
                        Q1023 NOSIG=
200911151300 METAR LMML NIL=
200911151245 METAR LMML 151245Z 24008KT 160V300 9999 FEW019 BKN250 20/15
                        Q1023 NOSIG=
200911151215 METAR LMML 151215Z 24009KT 200V290 9999 FEW019 BKN250 20/15
                        Q1024 NOSIG=
200911151145 METAR LMML 151145Z 24009KT 200V280 9999 FEW018 BKN250 20/15
                        Q1024 NOSIG=
200911151130 METAR LMML NIL=
200911151115 METAR LMML 151115Z 24009KT 210V290 9999 FEW018 BKN250 20/15
                        Q1024 NOSIG=
200911151100 METAR LMML NIL=
200911151045 METAR LMML 151045Z 23008KT 200V280 9999 FEW018 BKN250 20/15
                        Q1024 NOSIG=
200911151030 METAR LMML NIL=
200911151015 METAR LMML 151015Z 23010KT 200V260 9999 FEW016 BKN250 20/15
                        Q1025 NOSIG=
200911151000 METAR LMML NIL=
200911150945 METAR LMML 150945Z 23008KT 200V280 9999 FEW016 BKN250 20/15
                        Q1025 NOSIG=
200911150930 METAR LMML NIL=
200911150915 METAR LMML 150915Z 23009KT 200V290 9999 FEW020 BKN250 19/15
                        Q1025 NOSIG=
200911150900 METAR LMML NIL=
200911150845 METAR LMML 150845Z 23010KT 200V270 9999 FEW020 BKN250 19/15
                        Q1025 NOSIG=
200911150830 METAR LMML NIL=
200911150815 METAR LMML 150815Z 22009KT 200V260 9999 FEW020 BKN250 19/15
                        Q1025 NOSIG=
200911150800 METAR LMML NIL=
200911150745 METAR LMML 150745Z 23007KT 200V270 9999 FEW020 BKN250 19/14
                        Q1025 NOSIG=
200911150730 METAR LMML NIL=
200911150715 METAR LMML 150715Z 23006KT 190V270 9999 FEW020 BKN250 18/14
                        Q1025 NOSIG=
200911150700 METAR LMML NIL=
200911150645 METAR LMML 150645Z 23005KT 180V260 9999 FEW020 BKN250 17/14
                        Q1024 NOSIG=
200911150630 METAR LMML NIL=
200911150615 METAR LMML 150615Z 22005KT 190V250 9999 FEW020 BKN250 17/14
                        Q1024 NOSIG=
200911150600 METAR LMML NIL=
200911150545 METAR LMML 150545Z 22004KT 9999 FEW019 BKN250 16/14 Q1024
                        NOSIG=
200911150530 METAR LMML NIL=
200911150515 METAR LMML 150515Z 22005KT 190V260 9999 FEW019 BKN250 16/14
                        Q1024 NOSIG=
200911150445 METAR LMML 150445Z 22004KT 190V260 9999 FEW019 SCT250 16/13
                        Q1024 NOSIG=
200911150430 METAR LMML NIL=
200911150415 METAR LMML 150415Z 22004KT 190V270 9999 FEW019 16/13 Q1024
                        NOSIG=
200911150400 METAR LMML NIL=
200911150345 METAR LMML 150345Z 22004KT 190V250 9999 FEW020 16/13 Q1024
                        NOSIG=
200911150330 METAR LMML NIL=
200911150315 METAR LMML 150315Z 21004KT 170V240 9999 FEW020 SCT250 16/13
                        Q1024 NOSIG=
200911150300 METAR LMML NIL=
200911150245 METAR LMML 150245Z 22004KT 190V270 9999 FEW022 16/14 Q1024
                        NOSIG=
200911150230 METAR LMML NIL=
200911150215 METAR LMML 150215Z 21004KT 170V240 9999 FEW020 16/14 Q1024
                        NOSIG=
200911150200 METAR LMML NIL=
200911150145 METAR LMML 150145Z 22005KT 9999 FEW020 16/14 Q1024 NOSIG=
200911150130 METAR LMML NIL=
200911150115 METAR LMML 150115Z 21004KT 180V250 9999 FEW020 16/14 Q1024
                        NOSIG=
200911150100 METAR LMML NIL=
200911150045 METAR LMML 150045Z 21004KT 9999 FEW020 16/14 Q1025 NOSIG=
200911150030 METAR LMML NIL=
200911150015 METAR LMML 150015Z 21004KT 180V240 9999 FEW020 16/14 Q1025
                        NOSIG=
200911142345 METAR LMML 142345Z 21004KT 9999 FEW020 16/14 Q1025 NOSIG=
200911142315 METAR LMML 142315Z VRB03KT 9999 FEW020 SCT250 16/14 Q1025
                        NOSIG=
200911142245 METAR LMML 142245Z VRB03KT 9999 FEW020 SCT250 16/14 Q1025
                        NOSIG=
200911142230 METAR LMML NIL=
200911142215 METAR LMML 142215Z VRB03KT 9999 FEW023 SCT250 16/14 Q1025
                        NOSIG=
200911142200 METAR LMML NIL=
200911142145 METAR LMML 142145Z VRB03KT 9999 FEW023 SCT250 16/14 Q1025
                        NOSIG=
200911142130 METAR LMML NIL=
200911142115 METAR LMML 142115Z VRB03KT 9999 FEW020 FEW250 16/14 Q1025
                        NOSIG=
200911142100 METAR LMML NIL=
200911142045 METAR LMML 142045Z VRB03KT 9999 FEW020 SCT250 16/14 Q1025
                        NOSIG=
200911142030 METAR LMML NIL=
200911142015 METAR LMML 142015Z VRB03KT CAVOK 16/13 Q1025 NOSIG=
200911142000 METAR LMML NIL=
200911141945 METAR LMML 141945Z VRB03KT CAVOK 16/13 Q1025 NOSIG=
200911141930 METAR LMML NIL=
200911141915 METAR LMML 141915Z VRB03KT CAVOK 16/13 Q1025 NOSIG=
200911141900 METAR LMML NIL=
200911141845 METAR LMML 141845Z VRB03KT 9999 FEW020 BKN250 16/13 Q1025
                        NOSIG=
200911141830 METAR LMML NIL=
200911141815 METAR LMML 141815Z VRB03KT 9999 FEW020 BKN250 16/13 Q1025
                        NOSIG=
200911141800 METAR LMML NIL=
200911141745 METAR LMML 141745Z VRB03KT 9999 FEW020 BKN250 16/13 Q1025
                        NOSIG=
200911141715 METAR LMML 141715Z VRB03KT 9999 FEW020 BKN250 16/13 Q1025
                        NOSIG=
200911141645 METAR LMML 141645Z VRB03KT 9999 FEW020 BKN250 17/13 Q1025
                        NOSIG=
200911141630 METAR LMML NIL=
200911141615 METAR LMML 141615Z VRB03KT CAVOK 17/13 Q1025 NOSIG=
200911141600 METAR LMML NIL=
200911141545 METAR LMML 141545Z VRB03KT 9999 FEW020 17/13 Q1025 NOSIG=
200911141530 METAR LMML NIL=
200911141515 METAR LMML 141515Z 19004KT 150V220 9999 FEW020 18/13 Q1025
                        NOSIG=
200911141500 METAR LMML NIL=
200911141445 METAR LMML 141445Z 20004KT 160V240 9999 FEW020 19/13 Q1025
                        NOSIG=
200911141430 METAR LMML NIL=
200911141415 METAR LMML 141415Z 19004KT 150V250 9999 FEW020 19/13 Q1025
                        NOSIG=
200911141400 METAR LMML NIL=
200911141345 METAR LMML 141345Z 19005KT 150V240 9999 FEW020 19/13 Q1025
                        NOSIG=
200911141330 METAR LMML NIL=
200911141315 METAR LMML 141315Z 18005KT 140V230 9999 FEW019 19/13 Q1025
                        NOSIG=
200911141300 METAR LMML NIL=
200911141245 METAR LMML 141245Z 19006KT 140V220 9999 FEW019 SCT250 19/14
                        Q1025 NOSIG=
200911141215 METAR LMML 141215Z 19005KT 160V260 9999 FEW020 SCT250 19/14
                        Q1025 NOSIG=
200911141145 METAR LMML 141145Z 19005KT 120V250 9999 FEW022 BKN250 19/13
                        Q1026 NOSIG=
200911141130 METAR LMML NIL=
200911141115 METAR LMML 141115Z 20005KT 160V260 9999 FEW022 BKN250 19/13
                        Q1026 NOSIG=
200911141045 METAR LMML 141045Z 20004KT 140V270 9999 FEW021 SCT250 19/14
                        Q1026 NOSIG=
200911141030 METAR LMML NIL=
200911141015 METAR LMML 141015Z 19004KT 160V240 9999 FEW019 BKN250 19/14
                        Q1026 NOSIG=
200911141000 METAR LMML NIL=
200911140945 METAR LMML 140945Z 20004KT 150V250 9999 FEW024 BKN250 19/13
                        Q1027 NOSIG=
200911140930 METAR LMML NIL=
200911140915 METAR LMML 140915Z VRB03KT 9999 FEW020 BKN250 19/14 Q1026
                        NOSIG=
200911140900 METAR LMML NIL=
200911140845 METAR LMML 140845Z VRB03KT CAVOK 18/14 Q1026 NOSIG=
200911140830 METAR LMML NIL=
200911140815 METAR LMML 140815Z 19004KT 150V260 9999 FEW020 BKN250 18/14
                        Q1026 NOSIG=
200911140800 METAR LMML NIL=
200911140745 METAR LMML 140745Z VRB03KT 9999 FEW020 SCT250 18/15 Q1026
                        NOSIG=
200911140730 METAR LMML NIL=
200911140715 METAR LMML 140715Z VRB03KT 9999 FEW020 17/15 Q1026 NOSIG=
200911140645 METAR LMML 140645Z VRB02KT 9999 FEW030 SCT060 15/14 Q1026
                        NOSIG=
200911140630 METAR LMML NIL=
200911140615 METAR LMML 140615Z VRB03KT 9999 FEW030 BKN060 14/13 Q1025
                        NOSIG=
200911140600 METAR LMML NIL=
200911140545 METAR LMML 140545Z VRB03KT 9999 FEW030 12/12 Q1025 NOSIG=
200911140530 METAR LMML NIL=
200911140515 METAR LMML 140515Z VRB03KT 9999 FEW030 SCT060 14/14 Q1025
                        NOSIG=
200911140500 METAR LMML NIL=
200911140445 METAR LMML 140445Z VRB01KT 9999 FEW030 SCT060 13/13 Q1025
                        NOSIG=
200911140430 METAR LMML NIL=
200911140415 METAR LMML 140415Z VRB01KT 9999 FEW030 SCT060 13/13 Q1025
                        NOSIG=
200911140400 METAR LMML NIL=
200911140345 METAR LMML 140345Z VRB02KT 9999 FEW030 13/13 Q1025 NOSIG=
200911140330 METAR LMML NIL=
200911140315 METAR LMML 140315Z VRB03KT 9999 FEW030 14/13 Q1024 NOSIG=
200911140300 METAR LMML NIL=
200911140245 METAR LMML 140245Z VRB03KT 9999 FEW030 15/13 Q1024 NOSIG=
200911140230 METAR LMML NIL=
200911140215 METAR LMML 140215Z 16004KT 9999 FEW030 SCT070 15/14 Q1024
                        NOSIG=
200911140200 METAR LMML NIL=
200911140145 METAR LMML 140145Z VRB03KT 9999 FEW030 BKN070 14/14 Q1025
                        NOSIG=
200911140130 METAR LMML NIL=
200911140115 METAR LMML 140115Z 16004KT 9999 FEW030 SCT070 15/15 Q1025
                        NOSIG=
200911140100 METAR LMML NIL=
200911140045 METAR LMML 140045Z VRB03KT 9999 FEW030 SCT070 13/13 Q1025
                        NOSIG=
200911140030 METAR LMML NIL=
200911140015 METAR LMML 140015Z VRB02KT CAVOK 13/13 Q1025 NOSIG=
200911140000 METAR LMML NIL=
200911132345 METAR LMML 132345Z VRB03KT CAVOK 14/14 Q1025 NOSIG=
200911132330 METAR LMML NIL=
200911132315 METAR LMML 132315Z VRB02KT CAVOK 13/13 Q1025 NOSIG=
200911132300 METAR LMML NIL=
200911132245 METAR LMML 132245Z VRB02KT CAVOK 13/13 Q1025 NOSIG=
200911132230 METAR LMML NIL=
200911132215 METAR LMML 132215Z VRB03KT 9999 FEW025 14/13 Q1025 NOSIG=
200911132200 METAR LMML NIL=
200911132145 METAR LMML 132145Z VRB02KT 9999 FEW025 14/13 Q1025 NOSIG=
200911132130 METAR LMML NIL=
200911132115 METAR LMML 132115Z VRB03KT 9999 FEW025 15/13 Q1025 NOSIG=
200911132100 METAR LMML NIL=
200911132045 METAR LMML 132045Z VRB03KT 9999 FEW025 14/13 Q1025 NOSIG=
200911132030 METAR LMML NIL=
200911132015 METAR LMML 132015Z VRB03KT 9999 FEW025 15/14 Q1025 NOSIG=
200911132000 METAR LMML NIL=
200911131945 METAR LMML 131945Z VRB03KT 9999 FEW025 15/13 Q1025 NOSIG=
200911131930 METAR LMML NIL=
200911131915 METAR LMML 131915Z VRB03KT 9999 FEW025 15/13 Q1025 NOSIG=
200911131900 METAR LMML NIL=
200911131845 METAR LMML 131845Z VRB03KT 9999 FEW025 15/13 Q1024 NOSIG=
200911131830 METAR LMML NIL=
200911131815 METAR LMML 131815Z VRB02KT 9999 FEW025 15/13 Q1024 NOSIG=
200911131800 METAR LMML NIL=
200911131745 METAR LMML 131745Z VRB02KT 9999 FEW025 15/13 Q1024 NOSIG=
200911131730 METAR LMML NIL=
200911131715 METAR LMML 131715Z VRB02KT 9999 FEW025 SCT070 16/13 Q1024
                        NOSIG=
200911131700 METAR LMML NIL=
200911131645 METAR LMML 131645Z VRB02KT 9999 FEW025 SCT075 16/13 Q1024
                        NOSIG=
200911131630 METAR LMML NIL=
200911131615 METAR LMML 131615Z VRB02KT 9999 FEW024 BKN076 17/13 Q1023
                        NOSIG=
200911131600 METAR LMML NIL=
200911131545 METAR LMML 131545Z VRB02KT 9999 FEW022 BKN080 17/13 Q1023
                        NOSIG=
200911131530 METAR LMML NIL=
200911131515 METAR LMML 131515Z VRB03KT 9999 FEW023 BKN080 18/13 Q1023
                        NOSIG=
200911131500 METAR LMML NIL=
200911131445 METAR LMML 131445Z VRB03KT 9999 FEW025 BKN070 18/13 Q1023
                        NOSIG=
200911131430 METAR LMML NIL=
200911131415 METAR LMML 131415Z 24004KT 200V290 9999 FEW026 BKN070 18/13
                        Q1023 NOSIG=
200911131400 METAR LMML NIL=
200911131345 METAR LMML 131345Z 23005KT 160V280 9999 FEW026 BKN080 19/13
                        Q1023 NOSIG=
200911131330 METAR LMML NIL=
200911131315 METAR LMML 131315Z 23006KT 190V270 9999 FEW027 BKN080 20/14
                        Q1023 NOSIG=
200911131300 METAR LMML NIL=
200911131245 METAR LMML 131245Z 22005KT 170V290 9999 FEW037 BKN078 20/14
                        Q1023 NOSIG=
200911131230 METAR LMML NIL=
200911131215 METAR LMML 131215Z 21004KT 160V260 9999 FEW040 BKN080 19/13
                        Q1023 NOSIG=
200911131200 METAR LMML NIL=
200911131145 METAR LMML 131145Z 20005KT 120V260 9999 FEW040 BKN080 19/13
                        Q1023 NOSIG=
200911131130 METAR LMML NIL=
200911131115 METAR LMML 131115Z 20004KT 160V270 9999 FEW040 BKN080 19/13
                        Q1023 NOSIG=
200911131100 METAR LMML NIL=
200911131045 METAR LMML 131045Z VRB03KT CAVOK 19/13 Q1023 NOSIG=
200911131030 METAR LMML NIL=
200911131015 METAR LMML 131015Z VRB02KT 9999 FEW040 BKN080 19/12 Q1023
                        NOSIG=
200911131000 METAR LMML NIL=
200911130945 METAR LMML 130945Z VRB02KT 9999 FEW040 BKN080 18/12 Q1024
                        NOSIG=
200911130930 METAR LMML NIL=
200911130915 METAR LMML 130915Z VRB02KT 9999 FEW020 BKN080 18/12 Q1023
                        NOSIG=
200911130900 METAR LMML NIL=
200911130845 METAR LMML 130845Z VRB02KT 9999 FEW020 BKN080 17/12 Q1023
                        NOSIG=
200911130830 METAR LMML NIL=
200911130815 METAR LMML 130815Z VRB02KT 9999 FEW020 BKN080 16/12 Q1023
                        NOSIG RMK SMOKE LAYER IN THE N TO
                        NE SECTOR=
200911130800 METAR LMML NIL=
200911130745 METAR LMML 130745Z VRB02KT 9999 FEW020 BKN080 15/12 Q1023
                        NOSIG RMK SMOKE LAYER IN THE N TO
                        NE SECTOR=
200911130730 METAR LMML NIL=
200911130715 METAR LMML 130715Z VRB01KT 9999 FEW020 BKN080 14/11 Q1023
                        NOSIG=
200911130645 METAR LMML 130645Z VRB01KT 9999 FEW020 BKN080 13/11 Q1022
                        NOSIG=
200911130630 METAR LMML NIL=
200911130615 METAR LMML 130615Z VRB01KT 9999 FEW020 BKN080 13/11 Q1022
                        NOSIG=
200911130600 METAR LMML NIL=
200911130545 METAR LMML 130545Z VRB02KT 9999 FEW020 BKN080 12/10 Q1022
                        NOSIG=
200911130530 METAR LMML NIL=
200911130515 METAR LMML 130515Z VRB02KT 9999 FEW020 SCT080 11/09 Q1022
                        NOSIG=
200911130500 METAR LMML NIL=
200911130445 METAR LMML 130445Z VRB02KT CAVOK 11/09 Q1021 NOSIG=
200911130430 METAR LMML NIL=
200911130415 METAR LMML 130415Z VRB03KT CAVOK 11/09 Q1021 NOSIG=
200911130400 METAR LMML NIL=
200911130345 METAR LMML 130345Z VRB02KT CAVOK 11/09 Q1021 NOSIG=
200911130330 METAR LMML NIL=
200911130315 METAR LMML 130315Z VRB02KT CAVOK 11/08 Q1021 NOSIG=
200911130300 METAR LMML NIL=
200911130245 METAR LMML 130245Z 26004KT CAVOK 11/09 Q1021 NOSIG=
200911130230 METAR LMML NIL=
200911130215 METAR LMML 130215Z VRB02KT CAVOK 11/08 Q1021 NOSIG=
200911130200 METAR LMML NIL=
200911130145 METAR LMML 130145Z VRB03KT CAVOK 12/08 Q1021 NOSIG=
200911130130 METAR LMML NIL=
200911130115 METAR LMML 130115Z 30004KT CAVOK 13/08 Q1021 NOSIG=
200911130100 METAR LMML NIL=
200911130045 METAR LMML 130045Z 30004KT CAVOK 13/08 Q1021 NOSIG=
200911130030 METAR LMML NIL=
200911130015 METAR LMML 130015Z VRB03KT CAVOK 12/09 Q1021 NOSIG=
200911122345 METAR LMML 122345Z VRB03KT CAVOK 12/08 Q1020 NOSIG=
200911122330 METAR LMML NIL=
200911122315 METAR LMML 122315Z VRB03KT CAVOK 12/08 Q1020 NOSIG=
200911122300 METAR LMML NIL=
200911122245 METAR LMML 122245Z VRB03KT CAVOK 12/08 Q1020 NOSIG=
200911122230 METAR LMML NIL=
200911122215 METAR LMML 122215Z VRB03KT CAVOK 12/08 Q1020 NOSIG=
200911122200 METAR LMML NIL=
200911122145 METAR LMML 122145Z VRB03KT CAVOK 12/09 Q1020 NOSIG=
200911122130 METAR LMML NIL=
200911122115 METAR LMML 122115Z 29004KT CAVOK 13/09 Q1020 NOSIG=
200911122100 METAR LMML NIL=
200911122045 METAR LMML 122045Z VRB03KT CAVOK 13/09 Q1020 NOSIG=
200911122030 METAR LMML NIL=
200911122015 METAR LMML 122015Z 29004KT 270V340 CAVOK 13/09 Q1020 NOSIG=
200911122000 METAR LMML NIL=
200911121945 METAR LMML 121945Z VRB03KT CAVOK 12/09 Q1020 NOSIG=
200911121930 METAR LMML NIL=
200911121915 METAR LMML 121915Z VRB03KT 9999 FEW025 12/09 Q1019 NOSIG=
200911121900 METAR LMML NIL=
200911121845 METAR LMML 121845Z VRB02KT 9999 FEW025 13/09 Q1019 NOSIG=
200911121830 METAR LMML NIL=
200911121815 METAR LMML 121815Z VRB02KT 9999 FEW025 13/09 Q1019 NOSIG=
200911121800 METAR LMML NIL=
200911121745 METAR LMML 121745Z VRB03KT 9999 FEW025 13/09 Q1019 NOSIG=
200911121730 METAR LMML NIL=
200911121715 METAR LMML 121715Z VRB03KT 9999 FEW025 13/09 Q1018 NOSIG=
200911121700 METAR LMML NIL=
200911121645 METAR LMML 121645Z VRB03KT 9999 FEW030 14/09 Q1018 NOSIG=
200911121630 METAR LMML NIL=
200911121615 METAR LMML 121615Z 29005KT 9999 FEW034 15/09 Q1018 NOSIG=
200911121600 METAR LMML NIL=
200911121545 METAR LMML 121545Z 29006KT 260V320 9999 FEW034 15/09 Q1017
                        NOSIG=
200911121530 METAR LMML NIL=
200911121515 METAR LMML 121515Z 29006KT 260V320 9999 FEW033 16/09 Q1017
                        NOSIG=
200911121500 METAR LMML NIL=
200911121445 METAR LMML 121445Z 29008KT 9999 FEW034 16/09 Q1017 NOSIG=
200911121430 METAR LMML NIL=
200911121415 METAR LMML 121415Z 29008KT 250V320 9999 FEW036 17/09 Q1017
                        NOSIG=
200911121400 METAR LMML NIL=
200911121345 METAR LMML 121345Z 28008KT 230V320 9999 FEW036 17/08 Q1017
                        NOSIG=
200911121330 METAR LMML NIL=
200911121315 METAR LMML 121315Z 30008KT 260V330 9999 FEW036 17/08 Q1017
                        NOSIG=
200911121245 METAR LMML 121245Z 31010KT 260V330 9999 FEW036 17/09 Q1017
                        NOSIG=
200911121230 METAR LMML NIL=
200911121215 METAR LMML 121215Z 31008KT 9999 FEW036 18/09 Q1017 NOSIG=
200911121200 METAR LMML NIL=
200911121145 METAR LMML 121145Z 31008KT 270V350 9999 FEW032 18/09 Q1017
                        NOSIG=
200911121130 METAR LMML NIL=
200911121115 METAR LMML 121115Z 31008KT 9999 SCT028 18/10 Q1017 NOSIG=
200911121100 METAR LMML NIL=
200911121045 METAR LMML 121045Z 34007KT 320V020 9999 SCT027 17/11 Q1017
                        NOSIG=
200911121030 METAR LMML NIL=
200911121015 METAR LMML 121015Z 34008KT 300V020 9999 FEW028 18/11 Q1017
                        NOSIG=
200911121000 METAR LMML NIL=
200911120945 METAR LMML 120945Z 34009KT 9999 SCT027 16/11 Q1017 NOSIG=
200911120930 METAR LMML NIL=
200911120915 METAR LMML 120915Z 33009KT 280V010 9999 SCT026 18/12 Q1017
                        NOSIG=
200911120900 METAR LMML NIL=
200911120845 METAR LMML 120845Z 33006KT 290V360 9999 FEW035 17/09 Q1016
                        NOSIG=
200911120830 METAR LMML NIL=
200911120822 SPECI LMML 120822Z 32006KT 9999 FEW035 17/10 Q1016 NOSIG=
200911120800 METAR LMML NIL=
200911120745 METAR LMML 120745Z 32005KT 9999 FEW035 16/09 Q1016 NOSIG=
200911120730 METAR LMML NIL=
200911120715 METAR LMML 120715Z 30006KT 9999 FEW035 15/09 Q1016 NOSIG=
200911120700 METAR LMML NIL=
200911120645 METAR LMML 120645Z 30007KT 9999 FEW035 14/09 Q1015 NOSIG=
200911120630 METAR LMML NIL=
200911120615 METAR LMML 120615Z 28006KT 9999 FEW035 13/09 Q1015 NOSIG=
200911120600 METAR LMML NIL=
200911120545 METAR LMML 120545Z 31008KT 9999 FEW033 12/08 Q1015 NOSIG=
200911120530 METAR LMML NIL=
200911120515 METAR LMML 120515Z 30007KT 9999 FEW033 13/09 Q1014 NOSIG=
200911120500 METAR LMML NIL=
200911120445 METAR LMML 120445Z 30006KT 9999 FEW033 13/08 Q1014 NOSIG=
200911120430 METAR LMML NIL=
200911120415 METAR LMML 120415Z 30008KT 9999 FEW033 13/09 Q1014 NOSIG=
200911120400 METAR LMML NIL=
200911120345 METAR LMML 120345Z 29006KT 9999 FEW033 13/09 Q1014 NOSIG=
200911120330 METAR LMML NIL=
200911120315 METAR LMML 120315Z 30006KT 9999 FEW033 13/09 Q1013 NOSIG=
200911120300 METAR LMML NIL=
200911120245 METAR LMML 120245Z 31007KT 9999 FEW035 13/09 Q1013 NOSIG=
200911120230 METAR LMML NIL=
200911120215 METAR LMML 120215Z 30008KT 9999 FEW035 13/09 Q1013 NOSIG=
200911120200 METAR LMML NIL=
200911120145 METAR LMML 120145Z 29006KT 260V320 9999 FEW035 14/09 Q1013
                        NOSIG=
200911120130 METAR LMML NIL=
200911120115 METAR LMML 120115Z 29006KT 9999 FEW039 13/08 Q1013 NOSIG=
200911120100 METAR LMML NIL=
200911120045 METAR LMML 120045Z 31006KT 9999 FEW038 13/08 Q1013 NOSIG=
200911120030 METAR LMML NIL=
200911120015 METAR LMML 120015Z 30007KT 9999 FEW038 14/08 Q1013 NOSIG=
200911120000 METAR LMML NIL=
200911112345 METAR LMML 112345Z 31009KT 9999 FEW026 14/08 Q1013 NOSIG=
200911112330 METAR LMML NIL=
200911112315 METAR LMML 112315Z 31011KT 9999 FEW026 SCT060 BKN070 15/08
                        Q1013 NOSIG=
200911112300 METAR LMML NIL=
200911112245 METAR LMML 112245Z 30007KT 9999 FEW026 BKN080 14/09 Q1013
                        NOSIG=
200911112230 METAR LMML NIL=
200911112215 METAR LMML 112215Z 29007KT 260V320 9999 FEW026 BKN090 14/09
                        Q1013 NOSIG=
200911112200 METAR LMML NIL=
200911112145 METAR LMML 112145Z 30007KT 9999 FEW026 SCT090 14/09 Q1013
                        NOSIG=
200911112130 METAR LMML NIL=
200911112115 METAR LMML 112115Z 29007KT 260V320 9999 FEW026 14/09 Q1013
                        NOSIG=
200911112100 METAR LMML NIL=
200911112045 METAR LMML 112045Z 29008KT 9999 FEW030 14/09 Q1012 NOSIG=
200911112030 METAR LMML NIL=
200911112015 METAR LMML 112015Z 30009KT 9999 FEW030 SCT090 15/09 Q1012
                        NOSIG=
200911112000 METAR LMML NIL=
200911111945 METAR LMML 111945Z 29011KT 260V320 9999 FEW030 BKN080 15/10
                        Q1012 NOSIG=
200911111930 METAR LMML NIL=
200911111915 METAR LMML 111915Z 28011KT 240V310 9999 -RA FEW026 BKN080
                        15/11 Q1012 NOSIG=
200911111900 METAR LMML NIL=
200911111845 METAR LMML 111845Z 28009KT 240V320 9999 FEW026 BKN080 15/11
                        Q1011 NOSIG=
200911111830 METAR LMML NIL=
200911111815 METAR LMML 111815Z 28009KT 230V320 9999 -RA FEW025 BKN070
                        15/10 Q1011 NOSIG=
200911111800 METAR LMML NIL=
200911111745 METAR LMML 111745Z 28008KT 240V310 9999 FEW030 SCT120 15/10
                        Q1011 NOSIG=
200911111730 METAR LMML NIL=
200911111715 METAR LMML 111715Z 29007KT 9999 FEW030 SCT060 15/11 Q1011
                        NOSIG=
200911111700 METAR LMML NIL=
200911111645 METAR LMML 111645Z 29012KT 260V320 9999 -RA SCT032 BKN060
                        15/11 Q1011 NOSIG=
200911111630 METAR LMML NIL=
200911111615 METAR LMML 111615Z 28010KT 250V320 9999 -SHRA SCT031 SCT060
                        15/10 Q1011 NOSIG=
200911111600 METAR LMML NIL=
200911111545 METAR LMML 111545Z 28013KT 260V320 9999 SCT035 SCT070 15/10
                        Q1010 NOSIG=
200911111530 METAR LMML NIL=
200911111515 METAR COR LMML 111515Z 28014KT 9999 SCT025 SCT080 16/10 Q1010
                        NOSIG=
200911111500 METAR LMML NIL=
200911111445 METAR COR LMML 111445Z 28012KT 240V300 9999 SCT025 SCT080
                        16/10 Q1010 NOSIG=
200911111430 METAR LMML NIL=
200911111415 METAR COR LMML 111415Z 27011KT 240V300 9999 SCT025 SCT250
                        16/10 Q1010 NOSIG=
200911111400 METAR LMML NIL=
200911111345 METAR LMML 111345Z 24011KT 9999 SCT020 SCT080 15/12 Q1010
                        NOSIG=
200911111330 METAR COR LMML 111330Z 25014KT 9999 SCT018 BKN080 16/11 Q1010
                        TEMPO 7000 SHRA SCT015TCU=
200911111300 METAR LMML NIL=
200911111245 METAR COR LMML 111245Z 26007KT 230V290 9999 -SHRA SCT018
                        BKN080 15/12 Q1010 TEMPO 7000 SHRA
                        SCT015TCU=
200911111230 METAR LMML NIL=
200911111215 METAR COR LMML 111215Z 25009KT 9999 -SHRA SCT018 SCT080 SCT250
                        15/11 Q1010 TEMPO 7000 SHRA SCT015TCU=
200911111200 METAR LMML NIL=
200911111145 METAR COR LMML 111145Z 28014KT 9999 SCT018TCU SCT080 BKN250
                        15/11 Q1010 TEMPO 7000 SHRA SCT015TCU=
200911111130 METAR LMML NIL=
200911111115 METAR COR LMML 111115Z 28014KT 7000 SCT018TCU SCT080 BKN250
                        16/08 Q1010 TEMPO 5000 SHRA BKN015TCU=
200911111100 METAR LMML NIL=
200911111045 METAR COR LMML 111045Z 28016KT 9999 FEW020 SCT080 BKN250
                        16/10 Q1010 NOSIG=
200911111015 METAR LMML 111015Z AUTO 29016KT 260V320 //// R13/P1500N //
                        FEW025/// FEW030/// FEW036/// 16/10
                        Q1011=
200911111000 METAR LMML NIL=
200911110945 METAR COR LMML 110945Z 28016KT 9999 SCT020TCU SCT250 17/09
                        Q1011 TEMPO 5000 SHRA SCT015TCU=
200911110930 METAR LMML NIL=
200911110915 METAR COR LMML 110915Z 30009KT 7000 BKN020TCU 15/09 Q1011
                        TEMPO 5000 SHRA SCT015TCU=
200911110900 METAR LMML NIL=
200911110845 METAR COR LMML 110845Z 29020G31KT 6000 BKN020TCU 16/08 Q1011
                        TEMPO 5000 SHRA SCT015TCU=
200911110830 METAR LMML NIL=
200911110815 METAR COR LMML 110815Z 28016KT 9999 FEW020 16/10 Q1010 TEMPO
                        8000 SHRA SCT015TCU=
200911110800 METAR LMML NIL=
200911110745 METAR COR LMML 110745Z 29018KT 9999 SCT020TCU 16/09 Q1010
                        TEMPO 8000 SHRA SCT015TCU=
200911110730 METAR LMML NIL=
200911110715 METAR COR LMML 110715Z 28016KT 9999 SCT020TCU 15/09 Q1010
                        TEMPO 8000 SHRA SCT015TCU=
200911110700 METAR LMML NIL=
200911110645 METAR COR LMML 110645Z 28015KT 9999 SCT020TCU 15/09 Q1009
                        TEMPO 8000 SHRA SCT015TCU=
200911110630 METAR LMML NIL=
200911110615 METAR LMML 110615Z AUTO 28017KT //// R13/P1500N // FEW031///
                        FEW069/// 14/09 Q1009=
200911110600 METAR LMML NIL=
200911110545 METAR LMML 110545Z AUTO 28017KT //// R13/P1500N // FEW032///
                        FEW043/// 13/09 Q1009=
200911110530 METAR LMML NIL=
200911110515 METAR LMML 110515Z AUTO 28017KT 240V310 //// R13/P1500N //
                        FEW044/// FEW068/// FEW076/// 14/09
                        Q1009=
200911110500 METAR LMML NIL=
200911110445 METAR LMML 110445Z AUTO 28013KT 250V310 //// R13/P1500N //
                        FEW040/// FEW059/// SCT074/// 14/09
                        Q1008=
200911110430 METAR LMML NIL=
200911110415 METAR LMML 110415Z AUTO 28018KT //// R13/P1500N // FEW023///
                        FEW052/// SCT071/// 14/09 Q1008=
200911110400 METAR LMML NIL=
200911110345 METAR LMML 110345Z AUTO 27014KT 230V300 //// R13/P1500N //
                        FEW027/// SCT039/// BKN052/// 14/10
                        Q1008=
200911110330 METAR LMML NIL=
200911110315 METAR LMML 110315Z AUTO 27018G29KT 240V310 //// R13/P1500N
                        // FEW030/// FEW044/// FEW077///
                        13/09 Q1009=
200911110300 METAR LMML NIL=
200911110245 METAR LMML 110245Z AUTO 28022G36KT //// R13/P1500N // FEW033///
                        FEW042/// SCT075/// 13/09 Q1009=
200911110230 METAR LMML NIL=
200911110215 METAR LMML 110215Z AUTO 28020KT 240V300 //// R13/P1500N //
                        SCT056/// BKN078/// 14/08 Q1009=
200911110200 METAR LMML NIL=
200911110145 METAR LMML 110145Z AUTO 29021G31KT 260V320 //// R13/P1500N
                        // FEW035/// FEW042/// SCT050///
                        14/10 Q1009=
200911110130 METAR LMML NIL=
200911110115 METAR LMML 110115Z 28018KT 9999 SCT020 14/08 Q1009 TEMPO
                        SHRA BKN018TCU=
200911110100 METAR LMML NIL=
200911110045 METAR LMML 110045Z 29018KT 9999 SCT020 14/08 Q1009 TEMPO
                        SHRA BKN018TCU=
200911110015 METAR LMML 110015Z AUTO 28020KT //// R13/P1500N // FEW032///
                        FEW038/// FEW056/// 15/08 Q1009=
200911110000 METAR LMML NIL=
200911102345 METAR LMML 102345Z 28022KT 9999 SCT020 14/09 Q1009 TEMPO
                        SHRA BKN018TCU=
200911102315 METAR LMML 102315Z 28019KT 9999 SCT020 14/09 Q1009 TEMPO
                        SHRA BKN018TCU=
200911102300 METAR LMML NIL=
200911102245 METAR LMML 102245Z AUTO 29019KT 250V310 //// R13/P1500N //
                        FEW026/// 14/09 Q1009=
200911102230 METAR LMML NIL=
200911102215 METAR LMML 102215Z AUTO 30019KT //// R13/P1500N // FEW026///
                        14/09 Q1009=
200911102200 METAR LMML NIL=
200911102145 METAR LMML 102145Z AUTO 29018G32KT //// R13/P1500N // FEW041///
                        14/10 Q1008=
200911102130 METAR LMML NIL=
200911102115 METAR LMML 102115Z AUTO 29020KT //// R13/P1500N // FEW027///
                        14/10 Q1009=
200911102045 METAR LMML 102045Z AUTO 28015KT 250V310 //// R13/P1500N //
                        SCT026/// BKN033/// 14/10 Q1009=
200911102030 METAR LMML NIL=
200911102015 METAR LMML 102015Z AUTO 28018KT 250V310 //// R13/P1500N //
                        FEW027/// FEW031/// FEW040/// 15/10
                        Q1008=
200911102000 METAR LMML NIL=
200911101945 METAR LMML 101945Z AUTO 28017KT 250V310 //// R13/P1500N //
                        FEW067/// 14/09 Q1008=
200911101930 METAR LMML NIL=
200911101915 METAR LMML 101915Z AUTO 28017KT //// R13/P1500N // FEW030///
                        14/09 Q1008=
200911101900 METAR LMML NIL=
200911101845 METAR LMML 101845Z AUTO 28012KT 250V320 //// R13/P1500N //
                        FEW031/// 14/09 Q1008=
200911101830 METAR LMML NIL=
200911101815 METAR LMML 101815Z AUTO 28013KT 250V310 //// R13/P1500N //
                        FEW031/// 14/09 Q1008=
200911101800 METAR LMML NIL=
200911101745 METAR LMML 101745Z AUTO 28013KT 250V310 //// R13/P1500N //
                        NCD 13/09 Q1008=
200911101730 METAR LMML NIL=
200911101715 METAR COR LMML 101715Z 29020KT 9999 BKN020TCU SCT250 13/09
                        Q1008 NOSIG=
200911101700 METAR LMML NIL=
200911101645 METAR LMML 101645Z 28021G32KT 9999 -SHRA FEW020CB SCT025
                        14/09 Q1008 NOSIG=
200911101630 METAR LMML 101615 28017KT 9999 FEW020CB SCT025 14/10 Q1007
                        NOSIG=
200911101615 METAR LMML 101615Z 28017KT 9999 FEW020CB SCT025 14/10 Q1007
                        NOSIG=
200911101600 METAR LMML 101615 28017KT 9999 FEW020CB SCT025 14/10 Q1007
                        NOSIG=
200911101545 METAR LMML 101545Z 28015KT 9999 SCT020CB SCT025 14/09 Q1006
                        NOSIG=
200911101530 METAR LMML NIL=
200911101515 METAR LMML 101515Z 28017KT 9999 SCT020CB SCT025 14/10 Q1006
                        TEMPO 7000 SHRA=
200911101500 METAR LMML NIL=
200911101445 METAR LMML 101445Z 28018KT 9999 SHRA SCT020CB SCT025 14/09
                        Q1006 TEMPO 7000 SHRA=
200911101430 METAR LMML NIL=
200911101415 METAR LMML 101415Z 27016KT 9999 FEW020CB SCT025TCU 14/09
                        Q1006 NOSIG=
200911101400 METAR LMML NIL=
200911101345 METAR LMML 101345Z 27017G29KT 9000 SHRA SCT020CB BKN025TCU
                        13/10 Q1006 TEMPO 5000 TSRA=
200911101330 METAR LMML NIL=
200911101315 METAR LMML 101315Z 27019KT 9999 SHRA BKN020TCU SCT250 14/09
                        Q1006 TEMPO 7000 SHRA=
200911101300 METAR LMML NIL=
200911101245 METAR LMML 101245Z 27018KT 9999 SCT020TCU SCT250 15/09 Q1006
                        NOSIG=
200911101230 METAR LMML NIL=
200911101215 METAR LMML 101215Z 27015KT 9999 SCT025TCU BKN250 15/09 Q1006
                        NOSIG=
200911101200 METAR LMML NIL=
200911101145 METAR LMML 101145Z 28019KT 9999 SCT025TCU SCT250 16/08 Q1006
                        NOSIG=
200911101130 METAR LMML NIL=
200911101100 METAR LMML NIL=
200911101045 METAR LMML 101045Z 27016KT 9999 SCT028TCU 16/09 Q1006 TEMPO
                        8000 SHRA RMK CB TOPS TO ESE=
200911101030 METAR LMML NIL=
200911101015 METAR LMML 101015Z 27019KT 9999 BKN028TCU SCT2500O 15/11
                        Q1006 TEMPO 8000 SHRA=
200911101000 METAR LMML NIL=
200911100945 METAR LMML 100945Z 27012KT 200V290 9999 BKN028TCU SCT250
                        15/11 Q1006 TEMPO 8000 SHRA=
200911100930 METAR LMML NIL=
200911100900 METAR LMML NIL=
200911100830 METAR LMML NIL=
200911100745 METAR LMML 100745Z 26011KT 220V300 9999 FEW030CB 15/09 Q1006
                        NOSIG=
200911100715 METAR LMML 100715Z 26011KT 220V300 9999 SCT035 15/08 Q1006
                        NOSIG=
200911100700 METAR LMML NIL=
200911100645 METAR LMML 100645Z 27005KT 240V310 9999 SCT040 13/08 Q1006
                        NOSIG=
200911100630 METAR LMML NIL=
200911100615 METAR LMML 100615Z 27010KT 9999 SCT040 13/08 Q1005 NOSIG=
200911100600 METAR LMML NIL=
200911100545 METAR LMML 100545Z 23005KT 200V260 9999 FEW030CB SCT040 12/09
                        Q1005 NOSIG=
200911100530 METAR LMML NIL=
200911100515 METAR LMML 100515Z 24005KT 200V280 9999 FEW030CB SCT045 BKN090
                        13/09 Q1005 NOSIG=
200911100500 METAR LMML NIL=
200911100430 METAR LMML NIL=
200911100415 METAR LMML 100415Z 28006KT 9999 -SHRA SCT045 BKN060 12/08
                        Q1005 NOSIG=
200911100400 METAR LMML NIL=
200911100345 METAR LMML 100345Z 26009KT 220V290 9999 SHRA SCT035 BKN050
                        12/09 Q1005 NOSIG=
200911100330 METAR LMML NIL=
200911100315 METAR LMML 100315Z 28006KT 250V310 9999 SCT037 SCT070 BKN250
                        14/08 Q1005 NOSIG=
200911100300 METAR LMML NIL=
200911100245 METAR LMML 100245Z 29007KT 250V310 9999 SCT035 13/08 Q1005
                        NOSIG=
200911100230 METAR LMML NIL=
200911100215 METAR LMML 100215Z 28005KT 240V310 9999 SCT037 13/08 Q1005
                        NOSIG=
200911100200 METAR LMML NIL=
200911100145 METAR LMML 100145Z 28005KT 240V310 9999 SCT037 13/08 Q1005
                        NOSIG=
200911100130 METAR LMML NIL=
200911100100 METAR LMML NIL=
200911100045 METAR LMML 100045Z 27007KT 250V320 9999 SCT034 13/08 Q1005
                        NOSIG=
200911100030 METAR LMML NIL=
200911100015 METAR LMML 100015Z 27007KT 9999 SCT034 14/08 Q1006 NOSIG=
200911100000 METAR LMML NIL=
200911092345 METAR LMML 092345Z 28008KT 9999 FEW035 13/08 Q1006 NOSIG=
200911092330 METAR LMML NIL=
200911092315 METAR LMML 092315Z 28007KT 240V310 9999 FEW040 13/09 Q1006
                        TEMPO 8000 SHRA=
200911092300 METAR LMML NIL=
200911092245 METAR LMML 092245Z 26007KT 220V290 9999 FEW040 SCT070 13/08
                        Q1006 TEMPO 8000 SHRA=
200911092230 METAR LMML NIL=
200911092215 METAR LMML 092215Z 28011KT 240V300 9999 FEW040 SCT070 13/07
                        Q1006 TEMPO 6000 SHRA BKN020TCU=
200911092200 METAR LMML NIL=
200911092145 METAR LMML 092145Z 27011KT 230V300 9999 SCT040 SCT070 14/07
                        Q1005 TEMPO 6000 SHRA BKN020TCU=
200911092130 METAR LMML NIL=
200911092115 METAR LMML 092115Z 26006KT 230V320 9999 SCT040 SCT080 13/08
                        Q1005 TEMPO 6000 SHRA BKN020TCU=
200911092100 METAR LMML NIL=
200911092045 METAR LMML 092045Z 23005KT 190V260 9999 SCT040 BKN090 12/09
                        Q1005 RETSRA TEMPO 6000 SHRA BKN020TCU=
200911092030 METAR LMML NIL=
200911092015 METAR LMML 092015Z 21007KT 150V290 9000 TSRA BKN038CB 12/09
                        Q1005 NOSIG=
200911092000 METAR LMML NIL=
200911091945 METAR LMML 091945Z 28011KT 230V310 9000 TSRA BKN035CB 12/09
                        Q1005 NOSIG=
200911091930 METAR LMML NIL=
200911091915 METAR LMML 091915Z 25015G28KT 190V310 9000 -SHRA SCT040 BKN070
                        15/09 Q1005 TEMPO 5000 TSRA BKN015CB
                        RMK LIGHTNING TO ALL DIRECTIONS=
200911091900 METAR LMML NIL=
200911091845 METAR LMML 091845Z 23010KT 180V290 9999 SCT031 SCT070 15/10
                        Q1004 TEMPO 5000 TSRA BKN015CB RMK
                        LIGHTNING IN ALL DIRECTIONS=
200911091830 METAR LMML NIL=
200911091815 METAR LMML 091815Z 22009KT 180V280 9999 -SHRA SCT038 SCT080
                        16/09 Q1004 TEMPO 5000 TSRA BKN015CB
                        RMK LIGHTNING IN ALL DIRECTIONS=
200911091800 METAR LMML NIL=
200911091745 METAR LMML 091745Z 23012KT 200V290 9999 SCT044 SCT100 16/07
                        Q1004 TEMPO 7000 SHRA BKN015TCU=
200911091730 METAR LMML NIL=
200911091715 METAR LMML 091715Z 24012KT 200V280 9999 SCT044 SCT100 16/08
                        Q1004 NOSIG=
200911091700 METAR LMML NIL=
200911091645 METAR LMML 091645Z 24015KT 200V280 9999 SCT040TCU SCT100
                        16/08 Q1004 RETS NOSIG=
200911091630 METAR LMML NIL=
200911091615 METAR LMML 091615Z 22012KT 170V270 9000 TS FEW020 SCT035
                        15/09 Q1004 TEMPO 5000 TSRA BKN015CB=
200911091600 METAR LMML NIL=
200911091545 METAR LMML 091545Z 24015KT 210V280 9999 SCT041 SCT070 17/08
                        Q1004 TEMPO 5000 TSRA BKN015CB=
200911091530 METAR LMML NIL=
200911091515 METAR LMML 091515Z 24015KT 190V280 9999 FEW040 17/08 Q1004
                        NOSIG=
200911091500 METAR LMML NIL=
200911091445 METAR LMML 091445Z 24015KT 190V290 9999 FEW030 17/09 Q1004
                        NOSIG=
200911091430 METAR LMML NIL=
200911091415 METAR LMML 091415Z 24012KT 200V270 9999 SCT030 18/09 Q1004
                        NOSIG=
200911091400 METAR LMML NIL=
200911091345 METAR LMML 091345Z 24014KT 200V280 9999 SCT030 18/09 Q1003
                        NOSIG=
200911091330 METAR LMML NIL=
200911091315 METAR LMML 091315Z 26007KT 220V310 9999 SCT029 17/11 Q1003
                        NOSIG=
200911091300 METAR LMML NIL=
200911091245 METAR LMML 091245Z 25011KT 210V280 9999 SCT030TCU BKN090
                        17/10 Q1003 NOSIG=
200911091230 METAR LMML NIL=
200911091215 METAR LMML 091215Z 26010KT 210V300 9999 FEW030 17/11 Q1004
                        NOSIG RMK CB TO NORTH=
200911091200 METAR LMML NIL=
200911091145 METAR LMML 091145Z 24011KT 200V280 9999 FEW030 BKN080 15/11
                        Q1004 TEMPO 5000 TSRA BKN015CB=
200911091130 METAR LMML NIL=
200911091115 METAR LMML 091115Z 22008KT 140V260 9999 SCT030 BKN090 15/09
                        Q1004 TEMPO 5000 TSRA BKN015CB=
200911091100 METAR LMML NIL=
200911091045 METAR LMML 091045Z 16005KT 100V200 9999 FEW030 SCT090 17/12
                        Q1005 TEMPO 5000 TSRA BKN015CB=
200911091030 METAR LMML NIL=
200911091015 METAR LMML 091015Z 17006KT 130V200 9999 FEW035 18/12 Q1005
                        NOSIG=
200911091000 METAR LMML NIL=
200911090945 METAR LMML 090945Z 17004KT 120V210 9999 FEW035 17/11 Q1005
                        NOSIG=
200911090930 METAR LMML NIL=
200911090915 METAR LMML 090915Z 15005KT 110V200 9999 FEW037 17/12 Q1006
                        NOSIG=
200911090900 METAR LMML NIL=
200911090845 METAR LMML 090845Z 13004KT 100V180 9999 FEW030 17/11 Q1006
                        NOSIG=
200911090830 METAR LMML NIL=
200911090815 METAR LMML 090815Z 12004KT 090V150 9999 FEW030 16/11 Q1006
                        NOSIG=
200911090800 METAR LMML NIL=
200911090745 METAR LMML 090745Z 12004KT 9999 FEW030 SCT090 15/11 Q1006
                        NOSIG=
200911090730 METAR LMML NIL=
200911090715 METAR LMML 090715Z VRB02KT 9999 FEW035 SCT090 15/12 Q1006
                        NOSIG=
200911090700 METAR LMML NIL=
200911090645 METAR LMML 090645Z VRB03KT 9999 FEW034 14/12 Q1005 NOSIG=
200911090630 METAR LMML NIL=
200911090615 METAR LMML 090615Z VRB03KT 9999 FEW035 12/11 Q1005 NOSIG=
200911090600 METAR LMML NIL=
200911090545 METAR LMML 090545Z VRB03KT 9999 FEW046 SCT080 12/11 Q1005
                        NOSIG=
200911090530 METAR LMML NIL=
200911090515 METAR LMML 090515Z VRB02KT 9999 TSRA FEW018CB SCT070 12/12
                        Q1005 TEMPO SHRA BKN018TCU=
200911090500 METAR LMML NIL=
200911090445 METAR LMML 090445Z 34004KT 9999 -RA FEW015CB BKN100 12/12
                        Q1004 TEMPO SHRA BKN018TCU=
200911090430 METAR LMML NIL=
200911090415 METAR LMML 090415Z 01005KT 9999 FEW015 SCT100 12/11 Q1005
                        TEMPO SHRA BKN018TCU=
200911090400 METAR LMML NIL=
200911090345 METAR LMML 090345Z 33009KT 290V010 6000 -RA FEW015 SCT049
                        BKN100 12/11 Q1005 TEMPO 5000 TSRA
                        FEW008 BKN015CB=
200911090330 METAR LMML NIL=
200911090315 METAR LMML 090315Z 27009G23KT 220V340 2000 -TSRA FEW010 BKN018CB
                        13/11 Q1006 TEMPO 5000 TSRA FEW008
                        BKN015CB=
200911090307 SPECI LMML 090307Z 27011G23KT 240V340 2000 TSRA FEW011 BKN018CB
                        13/11 Q1006 TEMPO 5000 TSRA FEW008
                        BKN015CB=
200911090300 METAR LMML NIL=
200911090245 METAR LMML 090245Z VRB01KT 7000 TSRA BKN020CB 13/11 Q1005
                        TEMPO 5000 TSRA FEW008 BKN015CB=
200911090232 SPECI LMML 090232Z VRB02KT 9999 TSRA SCT015CB BKN080 14/11
                        Q1005 TEMPO 5000 TSRA FEW008 BKN015CB=
200911090230 METAR LMML NIL=
200911090215 METAR LMML 090215Z VRB03KT 9999 FEW034 BKN120 13/10 Q1005
                        TEMPO 5000 TSRA FEW008 BKN015CB RMK
                        LIGHTNING TO SW=
200911090200 METAR LMML NIL=
200911090145 METAR LMML 090145Z VRB02KT 9999 FEW034 BKN100 13/10 Q1005
                        NOSIG=
200911090130 METAR LMML NIL=
200911090115 METAR LMML 090115Z VRB02KT 9999 FEW034 BKN100 13/10 Q1006
                        NOSIG=
200911090100 METAR LMML NIL=
200911090045 METAR LMML 090045Z VRB01KT 9999 FEW030 SCT110 13/09 Q1006
                        NOSIG=
200911090030 METAR LMML NIL=
200911090015 METAR LMML 090015Z VRB02KT 9999 FEW030 13/09 Q1007 NOSIG=
200911090000 METAR LMML NIL=
200911082345 METAR LMML 082345Z VRB03KT 9999 FEW030 SCT080 14/09 Q1007
                        NOSIG=
200911082330 METAR LMML NIL=
200911082315 METAR LMML 082315Z 25004KT 9999 FEW030 BKN110 15/09 Q1007
                        NOSIG=
200911082300 METAR LMML NIL=
200911082245 METAR LMML 082245Z 22004KT 190V250 9999 FEW030 BKN120 15/09
                        Q1007 NOSIG=
200911082230 METAR LMML NIL=
200911082215 METAR LMML 082215Z VRB03KT 9999 FEW030 BKN120 15/09 Q1007
                        NOSIG=
200911082200 METAR LMML NIL=
200911082145 METAR LMML 082145Z VRB03KT 9999 FEW035 BKN120 16/09 Q1007
                        NOSIG=
200911082130 METAR LMML NIL=
200911082115 METAR LMML 082115Z 22004KT 180V240 9999 FEW035 BKN120 16/09
                        Q1007 NOSIG=
200911082100 METAR LMML NIL=
200911082045 METAR LMML 082045Z VRB03KT 9999 FEW035 BKN090 16/10 Q1007
                        NOSIG=
200911082030 METAR LMML NIL=
200911082015 METAR LMML 082015Z VRB03KT 9999 FEW035 BKN090 15/09 Q1007
                        NOSIG=
200911082000 METAR LMML NIL=
200911081945 METAR LMML 081945Z 25004KT 9999 FEW035 BKN090 15/09 Q1008
                        NOSIG=
200911081930 METAR LMML NIL=
200911081915 METAR LMML 081915Z VRB03KT 9999 FEW035 BKN090 15/10 Q1007
                        NOSIG=
200911081900 METAR LMML NIL=
200911081845 METAR LMML 081845Z VRB03KT 9999 FEW035 BKN090 15/10 Q1008
                        NOSIG=
200911081830 METAR LMML NIL=
200911081815 METAR LMML 081815Z 26004KT 220V300 9999 -RA FEW030 BKN090
                        16/10 Q1008 NOSIG=
200911081800 METAR LMML NIL=
200911081745 METAR LMML 081745Z 28006KT 9999 FEW030 BKN080 16/10 Q1008
                        NOSIG=
200911081730 METAR LMML NIL=
200911081715 METAR LMML 081715Z 28005KT 9999 FEW030 BKN080 16/10 Q1007
                        NOSIG=
200911081700 METAR LMML NIL=
200911081645 METAR LMML 081645Z 28006KT 9999 FEW030 BKN080 16/10 Q1007
                        NOSIG=
200911081630 METAR LMML NIL=
200911081615 METAR LMML 081615Z 28006KT 9999 FEW031 BKN080 16/10 Q1007
                        NOSIG=
200911081600 METAR LMML NIL=
200911081545 METAR LMML 081545Z 29007KT 250V320 9999 FEW031 SCT080 BKN120
                        16/10 Q1007 NOSIG=
200911081530 METAR LMML NIL=
200911081515 METAR LMML 081515Z 29008KT 260V320 9999 FEW031 SCT080 BKN120
                        17/10 Q1006 NOSIG=
200911081500 METAR LMML NIL=
200911081445 METAR LMML 081445Z 29010KT 260V330 9999 FEW033 BKN100 17/09
                        Q1006 NOSIG=
200911081430 METAR LMML NIL=
200911081415 METAR LMML 081415Z 29009KT 260V330 9999 FEW033 BKN110 18/10
                        Q1006 NOSIG=
200911081400 METAR LMML NIL=
200911081345 METAR LMML 081345Z 28011KT 240V320 9999 FEW033 SCT250 18/10
                        Q1006 NOSIG=
200911081330 METAR LMML NIL=
200911081315 METAR LMML 081315Z 29012KT 240V320 9999 FEW033 SCT250 19/10
                        Q1006 NOSIG=
200911081300 METAR LMML NIL=
200911081245 METAR LMML 081245Z 29015KT 260V320 9999 FEW033 SCT050 19/11
                        Q1006 NOSIG=
200911081230 METAR LMML NIL=
200911081215 METAR LMML 081215Z 28014KT 250V310 9999 FEW033 SCT050 BKN110
                        19/12 Q1006 NOSIG=
200911081200 METAR LMML NIL=
200911081145 METAR LMML 081145Z 28016KT 250V320 9999 FEW032 SCT050 SCT090
                        19/10 Q1007 NOSIG=
200911081130 METAR LMML NIL=
200911081115 METAR LMML 081115Z 29016KT 250V320 9999 SCT032 SCT100 20/11
                        Q1007 NOSIG=
200911081100 METAR LMML NIL=
200911081045 METAR LMML 081045Z 26015KT 230V300 9999 FEW030 SCT100 20/12
                        Q1007 NOSIG=
200911081030 METAR LMML NIL=
200911081015 METAR LMML 081015Z 26015KT 200V290 9999 FEW031 SCT060 20/12
                        Q1007 NOSIG=
200911081000 METAR LMML NIL=
200911080945 METAR LMML 080945Z 25014KT 190V280 9999 FEW030 SCT060 19/11
                        Q1007 NOSIG=
200911080930 METAR LMML NIL=
200911080915 METAR LMML 080915Z 25013KT 200V290 9999 FEW033 19/12 Q1007
                        NOSIG=
200911080900 METAR LMML NIL=
200911080845 METAR LMML 080845Z 24016KT 200V280 9999 FEW033 19/11 Q1007
                        NOSIG=
200911080830 METAR LMML NIL=
200911080815 METAR LMML 080815Z 24015KT 200V290 9999 FEW033 19/11 Q1007
                        NOSIG=
200911080800 METAR LMML NIL=
200911080745 METAR LMML 080745Z 25016KT 210V280 9999 FEW036 SCT070 18/11
                        Q1007 NOSIG=
200911080730 METAR LMML NIL=
200911080715 METAR LMML 080715Z 24016KT 210V290 9999 FEW037 BKN070 18/12
                        Q1007 NOSIG=
200911080700 METAR LMML NIL=
200911080645 METAR LMML 080645Z 23012KT 200V290 9999 FEW036 SCT100 18/11
                        Q1007 NOSIG=
200911080630 METAR LMML NIL=
200911080615 METAR LMML 080615Z 23013KT 190V280 9999 FEW036 SCT100 18/10
                        Q1007 NOSIG=
200911080600 METAR LMML NIL=
200911080545 METAR LMML 080545Z 23014KT 200V270 9999 FEW036 SCT110 17/10
                        Q1007 NOSIG=
200911080530 METAR LMML NIL=
200911080515 METAR LMML 080515Z 23012KT 200V280 9999 SCT036 17/09 Q1007
                        NOSIG=
200911080500 METAR LMML NIL=
200911080445 METAR LMML 080445Z 24013KT 200V280 9999 FEW036 17/10 Q1007
                        NOSIG=
200911080430 METAR LMML NIL=
200911080415 METAR LMML 080415Z 24013KT 200V280 9999 FEW041 17/10 Q1007
                        NOSIG=
200911080400 METAR LMML NIL=
200911080345 METAR LMML 080345Z 24012KT 200V290 9999 FEW041 16/09 Q1007
                        NOSIG=
200911080330 METAR LMML NIL=
200911080315 METAR LMML 080315Z 25011KT 210V290 9999 FEW042 16/08 Q1008
                        NOSIG=
200911080300 METAR LMML NIL=
200911080245 METAR LMML 080245Z 25013KT 210V280 9999 FEW038 16/09 Q1008
                        NOSIG=
200911080230 METAR LMML NIL=
200911080215 METAR LMML 080215Z 26011KT 220V290 CAVOK 15/10 Q1008 NOSIG=
200911080200 METAR LMML NIL=
200911080145 METAR LMML 080145Z 26008KT 220V300 9999 FEW033 15/09 Q1009
                        NOSIG=
200911080130 METAR LMML NIL=
200911080115 METAR LMML 080115Z 27007KT 240V300 9999 FEW030 14/08 Q1009
                        NOSIG=
200911080100 METAR LMML NIL=
200911080045 METAR LMML 080045Z 27006KT CAVOK 13/08 Q1009 NOSIG=
200911080030 METAR LMML NIL=
200911080015 METAR LMML 080015Z 27007KT CAVOK 13/07 Q1009 NOSIG=
200911080000 METAR LMML NIL=
200911072345 METAR LMML 072345Z 29008KT 250V310 CAVOK 14/07 Q1009 NOSIG=
200911072330 METAR LMML NIL=
200911072315 METAR LMML 072315Z 28009KT 9999 FEW032 14/07 Q1010 NOSIG=
200911072300 METAR LMML NIL=
200911072245 METAR LMML 072245Z 28010KT 9999 FEW032 14/07 Q1010 NOSIG=
200911072230 METAR LMML NIL=
200911072215 METAR LMML 072215Z 28010KT 9999 FEW032 14/08 Q1010 NOSIG=
200911072200 METAR LMML NIL=
200911072145 METAR LMML 072145Z 29008KT 250V320 9999 FEW032 15/08 Q1010
                        NOSIG=
200911072130 METAR LMML NIL=
200911072115 METAR LMML 072115Z 30006KT 270V330 9999 FEW032 14/09 Q1010
                        NOSIG=
200911072100 METAR LMML NIL=
200911072045 METAR LMML 072045Z 30008KT 270V330 9999 FEW032 15/09 Q1010
                        NOSIG=
200911072030 METAR LMML NIL=
200911072015 METAR LMML 072015Z 30009KT 270V330 9999 FEW031 15/09 Q1010
                        NOSIG=
200911072000 METAR LMML NIL=
200911071945 METAR LMML 071945Z 30009KT 9999 FEW031 15/09 Q1010 NOSIG=
200911071930 METAR LMML NIL=
200911071915 METAR LMML 071915Z 30009KT 9999 FEW031 15/09 Q1010 NOSIG=
200911071900 METAR LMML NIL=
200911071845 METAR LMML 071845Z 31013KT 9999 FEW031 15/10 Q1010 TEMPO
                        8000 SHRA=
200911071830 METAR LMML NIL=
200911071815 METAR LMML 071815Z 31015KT 9999 FEW031 15/10 Q1010 TEMPO
                        SHRA=
200911071800 METAR LMML NIL=
200911071745 METAR LMML 071745Z 31015KT 9999 FEW030 15/10 Q1010 TEMPO
                        SHRA=
200911071730 METAR LMML NIL=
200911071715 METAR LMML 071715Z 31014KT 9999 FEW030 15/10 Q1009 NOSIG=
200911071700 METAR LMML NIL=
200911071645 METAR LMML 071645Z 31013KT 9999 FEW030 15/10 Q1009 NOSIG=
200911071630 METAR LMML NIL=
200911071615 METAR LMML 071615Z 31015KT 9999 FEW030 16/10 Q1008 NOSIG=
200911071600 METAR LMML NIL=
200911071545 METAR LMML 071545Z 31016KT 9999 FEW030 16/10 Q1008 NOSIG=
200911071530 METAR LMML NIL=
200911071515 METAR LMML 071515Z 31016KT 280V340 9999 FEW030 16/10 Q1008
                        NOSIG=
200911071500 METAR LMML NIL=
200911071445 METAR LMML 071445Z 31016KT 9999 FEW030 17/10 Q1008 NOSIG=
200911071430 METAR LMML NIL=
200911071415 METAR LMML 071415Z 32014KT 280V340 9999 FEW030 17/09 Q1008
                        NOSIG=
200911071400 METAR LMML NIL=
200911071345 METAR LMML 071345Z 32016KT 9999 FEW030 17/09 Q1008 NOSIG=
200911071330 METAR LMML NIL=
200911071315 METAR LMML 071315Z 32015KT 9999 FEW031 17/10 Q1008 NOSIG=
200911071300 METAR LMML NIL=
200911071245 METAR LMML 071245Z 31015KT 290V350 9999 SCT026 SCT100 17/10
                        Q1008 NOSIG=
200911071230 METAR LMML NIL=
200911071215 METAR LMML 071215Z 30013KT 280V340 9999 SCT024 SCT100 17/11
                        Q1008 NOSIG=
200911071200 METAR LMML NIL=
200911071145 METAR LMML 071145Z 30009KT 260V330 9999 FEW024 BKN100 16/12
                        Q1008 NOSIG=
200911071130 METAR LMML NIL=
200911071115 METAR LMML 071115Z 28008KT 240V300 CAVOK 16/11 Q1008 TEMPO
                        SHRA=
200911071100 METAR LMML NIL=
200911071045 METAR LMML 071045Z 28007KT 9999 FEW020 BKN070 15/11 Q1009
                        TEMPO SHRA=
200911071030 METAR LMML NIL=
200911071015 METAR LMML 071015Z 27005KT 220V300 9999 FEW020 BKN060 14/11
                        Q1009 TEMPO SHRA=
200911071000 METAR LMML NIL=
200911070945 METAR LMML 070945Z 27005KT 220V300 9999 FEW020 BKN060 14/11
                        Q1009 TEMPO SHRA=
200911070915 METAR LMML 070915Z 27004KT 240V300 9999 FEW030 BKN060 14/12
                        Q1010 TEMPO SHRA=
200911070900 METAR LMML NIL=
200911070845 METAR LMML 070845Z VRB03KT 9999 SCT030 BKN060 14/12 Q1010
                        TEMPO SHRA=
200911070830 METAR LMML NIL=
200911070815 METAR LMML 070815Z VRB01KT 9999 SCT031 BKN080 14/12 Q1010
                        TEMPO SHRA=
200911070800 METAR LMML NIL=
200911070745 METAR LMML 070745Z VRB01KT 9999 -RA FEW020 SCT035 BKN060
                        14/12 Q1010 TEMPO SHRA=
200911070730 METAR LMML NIL=
200911070715 METAR LMML 070715Z VRB02KT 9999 -RA FEW020 SCT035 OVC060
                        13/12 Q1010 TEMPO SHRA=
200911070700 METAR LMML NIL=
200911070645 METAR LMML 070645Z VRB03KT 9999 -RA FEW020 SCT035 OVC050
                        13/12 Q1010 TEMPO SHRA=
200911070630 METAR LMML NIL=
200911070615 METAR LMML 070615Z VRB02KT 9999 -RA FEW020 SCT035 OVC060
                        13/12 Q1010 NOSIG=
200911070600 METAR LMML NIL=
200911070545 METAR LMML 070545Z VRB01KT 9000 -RA FEW020 SCT034 OVC060
                        12/12 Q1009 NOSIG=
200911070530 METAR LMML NIL=
200911070515 METAR LMML 070515Z VRB02KT 9000 -RA FEW020 SCT036 OVC060
                        12/11 Q1009 NOSIG=
200911070500 METAR LMML NIL=
200911070445 METAR LMML 070445Z VRB01KT 9000 -RA FEW020 SCT040 OVC060
                        12/11 Q1009 NOSIG=
200911070430 METAR LMML NIL=
200911070415 METAR LMML 070415Z 00000KT 9000 RA FEW020 SCT040 OVC060 12/11
                        Q1010 NOSIG=
200911070400 METAR LMML NIL=
200911070345 METAR LMML 070345Z VRB02KT 9000 RA FEW019 SCT033 OVC050 12/11
                        Q1010 NOSIG=
200911070330 METAR LMML NIL=
200911070315 METAR LMML 070315Z 30007KT 270V330 9999 RA FEW020 SCT040
                        BKN060 14/12 Q1009 NOSIG=
200911070300 METAR LMML NIL=
200911070245 METAR LMML 070245Z 32004KT 9999 RA FEW025 SCT040 BKN060 14/12
                        Q1009 NOSIG=
200911070230 METAR LMML NIL=
200911070215 METAR LMML 070215Z VRB03KT 9999 -RA FEW028 SCT033 BKN060
                        15/12 Q1009 NOSIG=
200911070200 METAR LMML NIL=
200911070145 METAR LMML 070145Z 34004KT 9999 RA FEW036 SCT068 15/12 Q1009
                        NOSIG=
200911070130 METAR LMML NIL=
200911070115 METAR LMML 070115Z 33004KT 9999 -RA FEW020 SCT034 BKN070
                        15/11 Q1009 NOSIG=
200911070100 METAR LMML NIL=
200911070045 METAR LMML 070045Z 32004KT 9999 -RA FEW025 BKN080 15/10 Q1010
                        NOSIG=
200911070030 METAR LMML NIL=
200911070015 METAR LMML 070015Z 32007KT 9999 FEW025 SCT080 BKN110 15/10
                        Q1010 NOSIG=
200911070000 METAR LMML NIL=
200911062345 METAR LMML 062345Z 31005KT 9999 FEW027 SCT080 BKN250 15/10
                        Q1010 NOSIG=
200911062330 METAR LMML NIL=
200911062315 METAR LMML 062315Z VRB03KT 9999 FEW027 SCT080 BKN250 15/11
                        Q1010 NOSIG=
200911062245 METAR LMML 062245Z VRB02KT CAVOK 15/11 Q1010 NOSIG=
200911062230 METAR LMML NIL=
200911062215 METAR LMML 062215Z 31006KT 9999 FEW027 SCT120 BKN250 15/11
                        Q1010 NOSIG=
200911062200 METAR LMML NIL=
200911062145 METAR LMML 062145Z VRB03KT 9999 FEW027 SCT120 BKN250 16/11
                        Q1010 NOSIG=
200911062130 METAR LMML NIL=
200911062115 METAR LMML 062115Z VRB03KT CAVOK 15/11 Q1010 NOSIG=
200911062100 METAR LMML NIL=
200911062045 METAR LMML 062045Z 30004KT CAVOK 15/11 Q1009 NOSIG=
200911062030 METAR LMML NIL=
200911062015 METAR LMML 062015Z 31004KT 9999 FEW015 SCT120 BKN250 15/11
                        Q1009 NOSIG=
200911062000 METAR LMML NIL=
200911061945 METAR LMML 061945Z 31007KT 9999 FEW015 SCT120 BKN250 16/11
                        Q1009 NOSIG=
200911061930 METAR LMML NIL=
200911061915 METAR LMML 061915Z 33005KT 9999 FEW015 SCT120 BKN250 16/11
                        Q1009 NOSIG=
200911061900 METAR LMML NIL=
200911061845 METAR LMML 061845Z 32007KT 9999 FEW020 SCT120 BKN250 16/10
                        Q1009 NOSIG=
200911061830 METAR LMML NIL=
200911061815 METAR LMML 061815Z 31007KT 9999 FEW020 SCT120 BKN250 16/10
                        Q1008 NOSIG=
200911061800 METAR LMML NIL=
200911061745 METAR LMML 061745Z 31006KT 9999 FEW020 SCT120 BKN200 16/11
                        Q1008 NOSIG=
200911061715 METAR LMML 061715Z 32009KT 9999 FEW020 SCT120 BKN200 16/11
                        Q1008 NOSIG=
200911061700 METAR LMML NIL=
200911061645 METAR LMML 061645Z 32008KT 9999 FEW020 BKN200 16/11 Q1008
                        NOSIG=
200911061630 METAR LMML NIL=
200911061615 METAR LMML 061615Z 31008KT 9999 FEW023 BKN200 17/12 Q1007
                        NOSIG=
200911061600 METAR LMML NIL=
200911061545 METAR LMML 061545Z 31009KT 9999 FEW023 BKN250 17/11 Q1007
                        NOSIG=
200911061530 METAR LMML NIL=
200911061515 METAR LMML 061515Z 31009KT 9999 FEW023 BKN200 17/12 Q1007
                        NOSIG=
200911061500 METAR LMML NIL=
200911061445 METAR LMML 061445Z 30012KT 9999 FEW023 BKN250 17/12 Q1007
                        NOSIG=
200911061430 METAR LMML NIL=
200911061415 METAR LMML 061415Z 31015KT 9999 FEW023 BKN250 18/12 Q1007
                        NOSIG=
200911061345 METAR LMML 061345Z 30014KT 280V340 9999 FEW020 BKN250 19/12
                        Q1006 NOSIG=
200911061330 METAR LMML NIL=
200911061315 METAR LMML 061315Z 30012KT 270V330 9999 FEW020 BKN250 20/12
                        Q1006 NOSIG=
200911061300 METAR LMML NIL=
200911061245 METAR LMML 061245Z 32013KT 9999 FEW020 SCT120 BKN250 20/12
                        Q1006 NOSIG=
200911061230 METAR LMML NIL=
200911061215 METAR LMML 061215Z 30015KT 260V330 9999 FEW020 BKN250 20/12
                        Q1006 NOSIG=
200911061200 METAR LMML NIL=
200911061145 METAR LMML 061145Z 30012KT 9999 FEW020 BKN250 21/11 Q1006
                        NOSIG=
200911061115 METAR LMML 061115Z 30014KT 9999 FEW020 BKN250 21/11 Q1006
                        NOSIG=
200911061100 METAR LMML NIL=
200911061045 METAR LMML 061045Z 28007KT 230V310 9999 FEW020 SCT120 21/13
                        Q1006 NOSIG=
200911061030 METAR LMML NIL=
200911061015 METAR LMML 061015Z 28007KT 240V320 9999 FEW020 SCT120 20/15
                        Q1006 NOSIG=
200911061000 METAR LMML NIL=
200911060945 METAR LMML 060945Z 34006KT 9999 FEW015 BKN120 20/15 Q1006
                        NOSIG=
200911060930 METAR LMML NIL=
200911060915 METAR LMML 060915Z 33008KT 9999 FEW015 BKN120 19/15 Q1006
                        NOSIG=
200911060900 METAR LMML NIL=
200911060856 SPECI LMML 060856Z 33007KT 9999 FEW012 BKN120 19/15 Q1005
                        NOSIG=
200911060845 LMML COR 060845Z 33007KT 9999 FEW012 BKN120 19/15 Q1005 NOSIG=
200911060830 METAR LMML NIL=
200911060815 METAR LMML 060815Z 33010KT 9000 FEW012 BKN120 18/16 Q1006
                        NOSIG=
200911060800 METAR LMML NIL=
200911060745 METAR LMML 060745Z 34007KT 9000 FEW012 BKN120 18/15 Q1005
                        BECMG 9999=
200911060730 METAR LMML NIL=
200911060715 METAR LMML 060715Z 34009KT 7000 SCT009 BKN120 17/15 Q1005
                        BECMG 9999=
200911060700 METAR LMML NIL=
200911060645 METAR LMML 060645Z 33011KT 7000 BKN009 SCT120 17/16 Q1005
                        BECMG 9999 BKN010=
200911060630 METAR LMML NIL=
200911060615 METAR LMML 060615Z 32011KT 6000 BKN006 17/17 Q1005 BECMG
                        9999 BKN010=
200911060600 METAR LMML NIL=
200911060545 METAR LMML 060545Z 33011KT 5000 BKN004 BKN025 18/18 Q1005
                        BECMG 9999 BKN010=
200911060530 METAR LMML NIL=
200911060515 METAR LMML 060515Z 35005KT 9999 FEW007 BKN025 19/19 Q1004
                        NOSIG=
200911060500 METAR LMML NIL=
200911060445 METAR LMML 060445Z VRB02KT 9999 SCT025 SCT120 18/18 Q1004
                        NOSIG=
200911060430 METAR LMML NIL=
200911060415 METAR LMML 060415Z 32004KT 9999 FEW027 SCT120 18/18 Q1005
                        NOSIG=
200911060345 METAR LMML 060345Z VRB02KT 9999 FEW004 SCT120 18/17 Q1004
                        NOSIG=
200911060330 METAR LMML NIL=
200911060315 METAR LMML 060315Z 23004KT 200V280 9999 FEW004 BKN100 19/19
                        Q1005 NOSIG=
200911060300 METAR LMML NIL=
200911060245 METAR LMML 060245Z 25006KT 200V300 9999 SCT002 BKN100 19/19
                        Q1005 NOSIG=
200911060230 METAR LMML NIL=
200911060215 METAR LMML 060215Z 17005KT 140V210 9999 SCT002 BKN120 19/19
                        Q1005 NOSIG=
200911060200 METAR LMML NIL=
200911060145 METAR LMML 060145Z 17008KT 140V210 9999 SCT002 BKN120 20/20
                        Q1005 NOSIG=
200911060130 METAR LMML NIL=
200911060115 METAR LMML 060115Z 17009KT 140V200 9999 BKN002 SCT120 20/20
                        Q1006 NOSIG=
200911060100 METAR LMML NIL=
200911060045 METAR LMML 060045Z 17008KT 130V210 9999 BKN002 SCT120 20/20
                        Q1006 NOSIG=
200911060030 METAR LMML NIL=
200911060015 METAR LMML 060015Z 16008KT 9999 BKN002 SCT120 20/20 Q1006
                        NOSIG=
200911060000 METAR LMML NIL=
200911052345 METAR LMML 052345Z 17008KT 140V200 9999 BKN003 SCT120 20/20
                        Q1007 NOSIG=
200911052330 METAR LMML NIL=
200911052315 METAR LMML 052315Z 17007KT 150V210 9999 SCT004 SCT120 19/19
                        Q1007 NOSIG=
200911052300 METAR LMML NIL=
200911052245 METAR LMML 052245Z 17007KT 150V210 9999 SCT004 SCT120 19/19
                        Q1007 NOSIG=
200911052230 METAR LMML NIL=
200911052215 METAR LMML 052215Z 17004KT 140V210 9999 SCT004 SCT120 19/19
                        Q1007 NOSIG=
200911052200 METAR LMML NIL=
200911052145 METAR LMML 052145Z VRB02KT 3000 BR BKN007 SCT120 18/18 Q1008
                        NOSIG=
200911052130 METAR LMML NIL=
200911052115 METAR LMML 052115Z VRB03KT 3000 BR BKN008 18/18 Q1008 NOSIG=
200911052100 METAR LMML NIL=
200911052045 METAR LMML 052045Z VRB03KT 3000 BR BKN001 18/18 Q1009 NOSIG=
200911052030 METAR LMML NIL=
200911052015 METAR LMML 052015Z 13004KT 5000 BKN002 19/19 Q1008 TEMPO
                        3000 BR=
200911052000 METAR LMML NIL=
200911051945 METAR LMML 051945Z VRB02KT 5000 BKN002 19/19 Q1009 NOSIG=
200911051930 METAR LMML NIL=
200911051915 METAR LMML 051915Z 00000KT 9000 BKN004 18/18 Q1009 NOSIG=
200911051900 METAR LMML NIL=
200911051845 METAR LMML 051845Z 00000KT 9000 BKN003 19/18 Q1009 NOSIG=
200911051830 METAR LMML NIL=
200911051815 METAR LMML 051815Z VRB01KT 9999 FEW012 SCT120 19/18 Q1009
                        NOSIG=
200911051800 METAR LMML NIL=
200911051745 METAR LMML 051745Z VRB02KT 9999 FEW012 SCT120 19/18 Q1009
                        NOSIG=
200911051730 METAR LMML NIL=
200911051715 METAR LMML 051715Z VRB02KT 9999 FEW012 19/18 Q1009 NOSIG=
200911051700 METAR LMML NIL=
200911051645 METAR LMML 051645Z VRB02KT 9999 FEW012 20/18 Q1009 NOSIG=
200911051630 METAR LMML NIL=
200911051615 METAR LMML 051615Z VRB02KT 9999 FEW012 20/18 Q1008 NOSIG=
200911051600 METAR LMML NIL=
200911051545 METAR LMML 051545Z VRB03KT 9999 FEW012 21/17 Q1008 NOSIG=
200911051530 METAR LMML NIL=
200911051515 METAR LMML 051515Z 21004KT 170V260 9999 FEW012 22/17 Q1008
                        NOSIG=
200911051500 METAR LMML NIL=
200911051445 METAR LMML 051445Z VRB03KT 9999 FEW012 23/17 Q1008 NOSIG=
200911051430 METAR LMML NIL=
200911051415 METAR LMML 051415Z 18004KT 150V220 9999 FEW012 23/17 Q1008
                        NOSIG=
200911051400 METAR LMML NIL=
200911051345 METAR LMML 051345Z VRB03KT 9999 FEW012 24/17 Q1008 NOSIG=
200911051330 METAR LMML NIL=
200911051315 METAR LMML 051315Z VRB02KT 9999 FEW012 24/17 Q1008 NOSIG=
200911051300 METAR LMML NIL=
200911051245 METAR LMML 051245Z VRB03KT 9999 FEW012 SCT250 24/18 Q1008
                        NOSIG=
200911051230 METAR LMML NIL=
200911051215 METAR LMML 051215Z 23004KT 190V260 9999 FEW015 SCT014 23/18
                        Q1009 NOSIG=
200911051200 METAR LMML NIL=
200911051145 METAR LMML 051145Z 26005KT 210V320 9999 FEW015 SCT140 24/18
                        Q1009 NOSIG=
200911051130 METAR LMML NIL=
200911051115 METAR LMML 051115Z 23005KT 200V280 9999 FEW008 SCT140 23/18
                        Q1009 NOSIG=
200911051100 METAR LMML NIL=
200911051045 METAR LMML 051045Z 23006KT 180V280 9999 FEW007 23/18 Q1009
                        BECMG 9999=
200911051030 METAR LMML NIL=
200911051015 METAR LMML 051015Z 22007KT 180V260 9000 FEW010 SCT120 23/19
                        Q1009 BECMG 9999=
200911051000 METAR LMML NIL=
200911050945 METAR LMML 050945Z 22004KT 170V270 9000 FEW009 BKN120 22/19
                        Q1010 BECMG 9999=
200911050930 METAR LMML NIL=
200911050915 METAR LMML 050915Z 21004KT 160V260 9000 FEW009 BKN120 21/19
                        Q1010 BECMG 9999=
200911050900 METAR LMML NIL=
200911050845 METAR LMML 050845Z 20004KT 150V280 9000 FEW008 SCT120 BKN250
                        21/19 Q1010 BECMG 9999=
200911050830 METAR LMML NIL=
200911050815 METAR LMML 050815Z 19004KT 160V240 7000 FEW012 SCT120 BKN250
                        21/19 Q1010 BECMG 9999=
200911050745 METAR LMML 050745Z 20004KT 160V240 7000 FEW012 SCT120 BKN250
                        20/19 Q1010 BECMG 9999=
200911050730 METAR LMML NIL=
200911050715 METAR LMML 050715Z VRB03KT 7000 FEW018 SCT120 BKN250 20/19
                        Q1009 BECMG 9999=
200911050700 METAR LMML NIL=
200911050645 METAR LMML 050645Z 20004KT 160V240 7000 FEW018 SCT120 BKN250
                        20/19 Q1009 BECMG 9999=
200911050615 METAR LMML 050615Z 19005KT 160V220 7000 FEW018 BKN250 20/19
                        Q1009 BECMG 9999=
200911050600 METAR LMML NIL=
200911050545 METAR LMML 050545Z VRB03KT 9999 FEW018 SCT120 BKN250 19/19
                        Q1009 NOSIG=
200911050530 METAR LMML NIL=
200911050515 METAR LMML 050515Z 20005KT 170V250 9999 FEW018 BKN250 19/19
                        Q1009 NOSIG=
200911050500 METAR LMML NIL=
200911050445 METAR LMML 050445Z 20004KT 170V230 CAVOK 19/18 Q1009 NOSIG=
200911050430 METAR LMML NIL=
200911050415 METAR LMML 050415Z 20005KT 160V250 CAVOK 19/18 Q1009 NOSIG=
200911050400 METAR LMML NIL=
200911050345 METAR LMML 050345Z 20005KT 160V240 CAVOK 19/18 Q1009 NOSIG=
200911050330 METAR LMML NIL=
200911050315 METAR LMML 050315Z 19005KT 150V230 CAVOK 19/18 Q1009 NOSIG=
200911050300 METAR LMML NIL=
200911050245 METAR LMML 050245Z 19005KT 150V220 CAVOK 19/17 Q1009 NOSIG=
200911050230 METAR LMML NIL=
200911050215 METAR LMML 050215Z 19005KT 160V230 CAVOK 18/17 Q1009 NOSIG=
200911050200 METAR LMML NIL=
200911050145 METAR LMML 050145Z 19004KT 160V220 CAVOK 18/16 Q1009 NOSIG=
200911050130 METAR LMML NIL=
200911050115 METAR LMML 050115Z VRB03KT CAVOK 18/16 Q1009 NOSIG=
200911050100 METAR LMML NIL=
200911050045 METAR LMML 050045Z 18004KT 150V220 CAVOK 18/16 Q1009 NOSIG=
200911050030 METAR LMML NIL=
200911050015 METAR LMML 050015Z VRB02KT CAVOK 18/15 Q1009 NOSIG=
200911050000 METAR LMML NIL=
200911042345 METAR LMML 042345Z VRB03KT CAVOK 18/15 Q1009 NOSIG=
200911042330 METAR LMML NIL=
200911042315 METAR LMML 042315Z VRB03KT CAVOK 18/15 Q1009 NOSIG=
200911042300 METAR LMML NIL=
200911042245 METAR LMML 042245Z 20004KT 160V250 CAVOK 18/15 Q1009 NOSIG=
200911042215 METAR LMML 042215Z 21005KT 180V260 CAVOK 18/15 Q1009 NOSIG=
200911042200 METAR LMML NIL=
200911042145 METAR LMML 042145Z 21004KT 160V260 CAVOK 18/15 Q1009 NOSIG=
200911042130 METAR LMML NIL=
200911042115 METAR LMML 042115Z 21006KT 150V250 CAVOK 18/15 Q1009 NOSIG=
200911042100 METAR LMML NIL=
200911042045 METAR LMML 042045Z 21006KT 180V270 CAVOK 18/15 Q1009 NOSIG=
200911042030 METAR LMML NIL=
200911042015 METAR LMML 042015Z 21006KT 170V290 CAVOK 18/14 Q1009 NOSIG=
200911042000 METAR LMML NIL=
200911041945 METAR LMML 041945Z 21005KT 180V250 CAVOK 18/14 Q1009 NOSIG=
200911041915 METAR LMML 041915Z 21006KT 180V260 CAVOK 18/14 Q1009 NOSIG=
200911041900 METAR LMML NIL=
200911041845 METAR LMML 041845Z 22006KT 180V260 CAVOK 18/14 Q1009 NOSIG=
200911041830 METAR LMML NIL=
200911041815 METAR LMML 041815Z 21005KT 180V270 9999 FEW023 18/14 Q1009
                        NOSIG=
200911041800 METAR LMML NIL=
200911041745 METAR LMML 041745Z 22006KT 200V260 9999 FEW023 18/13 Q1009
                        NOSIG=
200911041730 METAR LMML NIL=
200911041715 METAR LMML 041715Z 22005KT 180V260 9999 FEW023 18/14 Q1009
                        NOSIG=
200911041700 METAR LMML NIL=
200911041645 METAR LMML 041645Z 22007KT 190V260 9999 FEW025 18/14 Q1009
                        NOSIG=
200911041630 METAR LMML NIL=
200911041615 METAR LMML 041615Z 23007KT 200V280 9999 FEW025 19/13 Q1009
                        NOSIG=
200911041600 METAR LMML NIL=
200911041545 METAR LMML 041545Z 23007KT 200V270 9999 FEW025 19/14 Q1009
                        NOSIG=
200911041530 METAR LMML NIL=
200911041515 METAR LMML 041515Z 24009KT 190V280 9999 FEW023 20/14 Q1009
                        NOSIG=
200911041500 METAR LMML NIL=
200911041445 METAR LMML 041445Z 24008KT 180V280 9999 FEW025 20/14 Q1009
                        NOSIG=
200911041430 METAR LMML NIL=
200911041415 METAR LMML 041415Z 24009KT 200V280 9999 FEW023 20/14 Q1009
                        NOSIG=
200911041400 METAR LMML NIL=
200911041345 METAR LMML 041345Z 24009KT 200V290 9999 FEW023 21/14 Q1009
                        NOSIG=
200911041330 METAR LMML NIL=
200911041300 METAR LMML NIL=
200911041245 METAR LMML 041245Z 26009KT 220V320 9999 FEW025 21/13 Q1009
                        NOSIG=
200911041230 METAR LMML NIL=
200911041215 METAR LMML 041215Z 27010KT 230V300 9999 FEW025 21/12 Q1009
                        NOSIG=
200911041200 METAR LMML NIL=
200911041145 METAR LMML 041145Z 29011KT 260V330 9999 FEW025 21/12 Q1009
                        NOSIG=
200911041115 METAR LMML 041115Z 30011KT 250V330 9999 FEW025 21/12 Q1009
                        NOSIG=
200911041100 METAR LMML NIL=
200911041045 METAR LMML 041045Z 29012KT 250V330 9999 FEW025 21/12 Q1009
                        NOSIG=
200911041030 METAR LMML NIL=
200911041015 METAR LMML 041015Z 29013KT 9999 FEW025 21/12 Q1010 NOSIG=
200911041000 METAR LMML NIL=
200911040945 METAR LMML 040945Z 28013KT 240V310 9999 FEW025 20/12 Q1009
                        NOSIG=
200911040930 METAR LMML NIL=
200911040915 METAR LMML 040915Z 29013KT 260V320 9999 FEW025 20/12 Q1009
                        NOSIG=
200911040845 METAR LMML 040845Z 29014KT 9999 FEW025 20/13 Q1009 NOSIG=
200911040830 METAR LMML NIL=
200911040815 METAR LMML 040815Z 29013KT 260V320 9999 SCT024 19/13 Q1010
                        NOSIG=
200911040800 METAR LMML NIL=
200911040745 METAR LMML 040745Z 29013KT 9999 SCT023 19/13 Q1009 NOSIG=
200911040730 METAR LMML NIL=
200911040715 METAR LMML 040715Z 29011KT 260V320 9999 SCT023 19/13 Q1009
                        NOSIG=
200911040700 METAR LMML NIL=
200911040645 METAR LMML 040645Z 29013KT 9999 SCT032 18/13 Q1009 NOSIG=
200911040630 METAR LMML NIL=
200911040615 METAR LMML 040615Z 29013KT 260V320 9999 SCT021 18/13 Q1008
                        NOSIG=
200911040600 METAR LMML NIL=
200911040545 METAR LMML 040545Z 30013KT 9999 SCT022 17/13 Q1008 NOSIG=
200911040530 METAR LMML NIL=
200911040515 METAR LMML 040515Z 30016KT 9999 SCT024 17/13 Q1008 NOSIG=
200911040500 METAR LMML NIL=
200911040445 METAR LMML 040445Z 30013KT 9999 SCT023 17/13 Q1008 NOSIG=
200911040430 METAR LMML NIL=
200911040415 METAR LMML 040415Z 29018KT 260V320 9999 SCT022 18/13 Q1007
                        NOSIG=
200911040400 METAR LMML NIL=
200911040345 METAR LMML 040345Z 29015KT 260V320 9999 SCT023 18/13 Q1007
                        NOSIG=
200911040330 METAR LMML NIL=
200911040315 METAR COR LMML 040315Z 29018KT 9999 SCT024 18/13 Q1007 NOSIG=
200911040300 METAR LMML NIL=
200911040245 METAR LMML 040245Z 30019KT 270V330 9999 SCT023 18/13 Q1007
                        NOSIG=
200911040230 METAR LMML NIL=
200911040215 METAR LMML 040215Z 30018G28KT 260V330 9999 SCT024 18/13 Q1006
                        NOSIG=
200911040145 METAR LMML 040145Z 29019KT 250V320 9999 SCT025 18/13 Q1007
                        NOSIG=
200911040130 METAR LMML NIL=
200911040115 METAR LMML 040115Z 29020KT 250V310 9999 SCT025 18/13 Q1007
                        NOSIG=
200911040100 METAR LMML NIL=
200911040045 METAR LMML 040045Z 29019KT 260V320 9999 SCT025 18/13 Q1007
                        NOSIG=
200911040030 METAR LMML NIL=
200911040015 METAR LMML 040015Z 29019G29KT 260V320 9999 FEW025 SCT035
                        18/13 Q1007 NOSIG=
200911040000 METAR LMML NIL=
200911032345 METAR LMML 032345Z 29023G34KT 9999 FEW024 SCT039 18/13 Q1006
                        NOSIG=
200911032330 METAR LMML NIL=
200911032315 METAR LMML 032315Z 29023KT 250V330 9999 SCT025 SCT040 19/13
                        Q1006 NOSIG=
200911032300 METAR LMML NIL=
200911032245 METAR LMML 032245Z 29023G33KT 9999 SCT025 SCT041 18/13 Q1007
                        NOSIG=
200911032215 METAR LMML 032215Z 29025G35KT 260V320 9999 FEW026 SCT042
                        18/13 Q1006 NOSIG=
200911032200 METAR LMML NIL=
200911032145 METAR LMML 032145Z 29025G35KT 270V330 9999 FEW026 SCT045
                        18/13 Q1006 TEMPO SHRA=
200911032130 METAR LMML NIL=
200911032115 METAR LMML 032115Z 29022KT 9999 SCT025 18/13 Q1006 TEMPO
                        SHRA=
200911032100 METAR LMML NIL=
200911032045 METAR LMML 032045Z 29024KT 9999 BKN025 18/14 Q1006 TEMPO
                        SHRA=
200911032030 METAR LMML NIL=
200911032015 METAR LMML 032015Z 28024KT 9999 BKN026 18/13 Q1006 TEMPO
                        SHRA=
200911032000 METAR LMML NIL=
200911031945 METAR LMML 031945Z 29026G36KT 9999 -SHRA SCT026 19/13 Q1006
                        TEMPO SHRA=
200911031930 METAR LMML NIL=
200911031915 METAR LMML 031915Z 28023KT 9999 SCT028 19/13 Q1006 NOSIG=
200911031845 METAR LMML 031845Z 28018KT 250V320 9999 SCT026 18/13 Q1006
                        NOSIG=
200911031830 METAR LMML NIL=
200911031815 METAR LMML 031815Z 28017KT 240V300 9999 SCT029 18/13 Q1006
                        NOSIG=
200911031800 METAR LMML NIL=
200911031745 METAR LMML 031745Z 27017KT 220V300 9999 SCT026 18/12 Q1005
                        NOSIG=
200911031730 METAR LMML NIL=
200911031715 METAR LMML 031715Z 27018KT 220V300 9999 SCT028 18/12 Q1006
                        NOSIG=
200911031700 METAR LMML NIL=
200911031645 METAR LMML 031645Z 26016KT 9999 FEW028 18/12 Q1006 NOSIG=
200911031630 METAR LMML NIL=
200911031615 METAR LMML 031615Z 27013KT 230V300 9999 FEW028 18/12 Q1006
                        NOSIG=
200911031600 METAR LMML NIL=
200911031545 METAR LMML 031545Z 28016KT 240V310 9999 FEW028 SCT250 18/12
                        Q1006 NOSIG=
200911031530 METAR LMML NIL=
200911031515 METAR LMML 031515Z 28016KT 240V310 9999 SCT026 SCT250 18/12
                        Q1006 NOSIG=
200911031500 METAR LMML NIL=
200911031445 METAR LMML 031445Z 28017KT 250V310 9999 SCT024 BKN250 17/13
                        Q1006 NOSIG=
200911031430 METAR LMML NIL=
200911031415 METAR LMML 031415Z 29016KT 260V320 9999 FEW030 BKN250 19/11
                        Q1006 NOSIG=
200911031400 METAR LMML NIL=
200911031345 METAR LMML 031345Z 29020KT 260V320 9999 FEW030 BKN250 19/11
                        Q1006 NOSIG=
200911031330 METAR LMML NIL=
200911031315 METAR LMML 031315Z 29021KT 260V320 9999 SCT032 BKN250 18/10
                        Q1006 NOSIG=
200911031300 METAR LMML NIL=
200911031245 METAR LMML 031245Z 30018KT 260V330 9999 SCT033 BKN250 19/11
                        Q1006 NOSIG=
200911031230 METAR LMML NIL=
200911031215 METAR LMML 031215Z 29020KT 260V330 9999 SCT035 BKN250 19/10
                        Q1006 NOSIG=
200911031200 METAR LMML NIL=
200911031145 METAR LMML 031145Z 29020KT 240V320 9999 SCT036 BKN250 20/10
                        Q1006 NOSIG=
200911031130 METAR LMML NIL=
200911031115 METAR LMML 031115Z 29022KT 260V320 9999 FEW036 BKN250 19/10
                        Q1006 NOSIG=
200911031100 METAR LMML NIL=
200911031045 METAR LMML 031045Z 29020G30KT 260V330 9999 FEW038 BKN250
                        19/10 Q1007 NOSIG=
200911031030 METAR LMML NIL=
200911031015 METAR LMML 031015Z 30024G34KT 9999 SCT036 BKN250 19/10 Q1007
                        NOSIG=
200911031000 METAR LMML NIL=
200911030945 METAR LMML 030945Z 29020KT 250V330 9999 SCT042 BKN250 19/09
                        Q1007 NOSIG=
200911030930 METAR LMML NIL=
200911030915 METAR LMML 030915Z 30023G33KT 260V320 9999 SCT042 BKN250
                        19/09 Q1007 NOSIG=
200911030900 METAR LMML NIL=
200911030845 METAR LMML 030845Z 29018KT 260V320 9999 FEW020 SCT090 BKN250
                        18/10 Q1007 NOSIG=
200911030830 METAR LMML NIL=
200911030815 METAR LMML 030815Z 29019KT 250V330 9999 FEW020 BKN090 18/09
                        Q1007 NOSIG=
200911030800 METAR LMML NIL=
200911030745 METAR LMML 030745Z 29018KT 260V320 9999 -RA FEW020 BKN090
                        18/11 Q1006 NOSIG=
200911030715 METAR LMML 030715Z 29019G29KT 9999 FEW020 BKN090 18/11 Q1006
                        NOSIG=
200911030645 METAR LMML 030645Z 29019KT 9999 FEW015 BKN090 18/12 Q1006
                        NOSIG=
200911030630 METAR LMML NIL=
200911030615 METAR LMML 030615Z 29016G28KT 260V320 9999 -RA FEW015 BKN070
                        18/11 Q1006 NOSIG=
200911030600 METAR LMML NIL=
200911030545 METAR LMML 030545Z 29019KT 260V320 9999 -SHRA SCT015 BKN070
                        18/16 Q1006 NOSIG=
200911030530 METAR LMML NIL=
200911030515 METAR LMML 030515Z 29020KT 260V320 9999 FEW031 BKN060 19/15
                        Q1006 NOSIG=
200911030500 METAR LMML NIL=
200911030445 METAR LMML 030445Z 28015KT 250V310 9000 -RA SCT025 BKN060
                        19/16 Q1006 NOSIG=
200911030430 METAR LMML NIL=
200911030415 METAR LMML 030415Z 26012KT 200V290 9000 -SHRA SCT028 BKN060
                        19/16 Q1006 NOSIG=
200911030400 METAR LMML NIL=
200911030345 METAR LMML 030345Z 25015KT 220V280 9000 -SHRA BKN031 BKN060
                        19/15 Q1006 NOSIG=
200911030330 METAR LMML NIL=
200911030315 METAR LMML 030315Z 25016KT 210V290 9999 -SHRA BKN031 BKN070
                        20/15 Q1006 NOSIG=
200911030300 METAR LMML NIL=
200911030245 METAR LMML 030245Z 23012KT 190V280 9999 FEW025 BKN080 20/16
                        Q1006 NOSIG=
200911030230 METAR LMML NIL=
200911030215 METAR LMML 030215Z 23014KT 200V280 9999 FEW025 BKN090 20/15
                        Q1007 NOSIG=
200911030200 METAR LMML NIL=
200911030145 METAR LMML 030145Z 23012KT 200V280 9999 FEW025 BKN080 20/15
                        Q1007 NOSIG=
200911030130 METAR LMML NIL=
200911030115 METAR LMML 030115Z 23012KT 190V280 9999 FEW025 BKN080 20/15
                        Q1008 NOSIG=
200911030100 METAR LMML NIL=
200911030045 METAR LMML 030045Z 23012KT 190V280 9999 FEW025 SCT080 20/15
                        Q1008 NOSIG=
200911030015 METAR LMML 030015Z 23012KT 190V270 9999 FEW025 SCT100 20/15
                        Q1008 NOSIG=
200911022345 METAR LMML 022345Z 22012KT 190V260 9999 FEW025 20/15 Q1009
                        NOSIG=
200911022330 METAR LMML NIL=
200911022315 METAR LMML 022315Z 22011KT 200V260 9999 FEW025 20/15 Q1009
                        NOSIG=
200911022300 METAR LMML NIL=
200911022245 METAR LMML 022245Z 22011KT 200V270 9999 FEW025 20/14 Q1009
                        NOSIG=
200911022215 METAR LMML 022215Z 22012KT 180V260 9999 FEW025 19/14 Q1010
                        NOSIG=
200911022145 METAR LMML 022145Z 22012KT 190V250 9999 FEW025 19/14 Q1010
                        NOSIG=
200911022130 METAR LMML NIL=
200911022115 METAR LMML 022115Z 22012KT 190V260 9999 FEW025 19/14 Q1011
                        NOSIG=
200911022100 METAR LMML NIL=
200911022045 METAR LMML 022045Z 22011KT 180V260 9999 FEW028 19/14 Q1011
                        NOSIG=
200911022015 METAR LMML 022015Z 22011KT 180V270 9999 FEW028 19/14 Q1011
                        NOSIG=
200911022000 METAR LMML NIL=
200911021945 METAR LMML 021945Z 22010KT 190V270 9999 SCT027 19/14 Q1012
                        NOSIG=
200911021930 METAR LMML NIL=
200911021915 METAR LMML 021915Z 22010KT 180V260 9999 SCT026 19/14 Q1012
                        NOSIG=
200911021900 METAR LMML NIL=
200911021845 METAR LMML 021845Z 22011KT 190V260 9999 SCT026 19/13 Q1012
                        NOSIG=
200911021830 METAR LMML NIL=
200911021815 METAR LMML 021815Z 21008KT 180V250 9999 SCT019 SCT050 18/14
                        Q1012 NOSIG=
200911021745 METAR LMML 021745Z 20006KT 160V230 9999 SCT022 SCT048 18/14
                        Q1012 NOSIG=
200911021730 METAR LMML NIL=
200911021715 METAR LMML 021715Z 20005KT 160V260 9999 SCT024 SCT034 17/13
                        Q1012 NOSIG=
200911021700 METAR LMML NIL=
200911021645 METAR LMML 021645Z 21005KT 170V280 9999 BKN024 17/13 Q1013
                        NOSIG=
200911021630 METAR LMML NIL=
200911021615 METAR LMML 021615Z 21005KT 170V260 9999 BKN026 17/12 Q1013
                        NOSIG=
200911021600 METAR LMML NIL=
200911021545 METAR LMML 021545Z 21005KT 160V280 9999 SCT026 SCT050 17/12
                        Q1013 NOSIG=
200911021530 METAR LMML NIL=
200911021515 METAR LMML 021515Z 22007KT 190V260 9999 FEW027 SCT050 17/12
                        Q1013 NOSIG=
200911021445 METAR LMML 021445Z 22005KT 190V260 9999 FEW033 SCT050 17/11
                        Q1013 NOSIG=
200911021430 METAR LMML NIL=
200911021415 METAR LMML 021415Z 24006KT 200V280 9999 FEW033 SCT080 18/11
                        Q1014 NOSIG=
200911021400 METAR LMML NIL=
200911021345 METAR LMML 021345Z 25006KT 180V290 9999 FEW032 18/10 Q1014
                        NOSIG=
200911021332 SPECI LMML 021332Z 25006KT 220V310 9999 FEW040 18/10 Q1014
                        NOSIG=
200911021330 LMML 021315 25006KT 220V310 999 FEW040 18/10 Q1014 NOSIG=
200911021315 METAR LMML 021315Z 25006KT 220V310 9999 FEW040 18/10 Q1014
                        NOSIG=
200911021300 METAR LMML 021315Z 25006KT 220V310 9999 FEW040 18/10 Q1014
                        NOSIG=
200911021245 METAR LMML 021245Z 23008KT 200V280 9999 FEW040 18/10 Q1014
                        NOSIG=
200911021230 METAR LMML NIL=
200911021215 METAR LMML 021215Z 25007KT 200V300 9999 FEW038 19/09 Q1015
                        NOSIG=
200911021200 METAR LMML NIL=
200911021145 METAR LMML 021145Z 26007KT 210V300 9999 FEW038 18/08 Q1015
                        NOSIG=
200911021115 METAR LMML 021115Z 25006KT 200V310 9999 FEW038 19/09 Q1016
                        NOSIG=
200911021100 METAR LMML NIL=
200911021045 METAR LMML 021045Z 26007KT 200V350 9999 FEW038 18/09 Q1016
                        NOSIG=
200911021030 METAR LMML NIL=
200911021015 METAR LMML 021015Z 27007KT 220V320 9999 FEW038 18/09 Q1017
                        NOSIG=
200911021000 METAR LMML NIL=
200911020945 METAR LMML 020945Z 26008KT 230V300 9999 FEW038 18/08 Q1017
                        NOSIG=
200911020930 METAR LMML NIL=
200911020915 METAR LMML 020915Z 27005KT 210V330 9999 FEW038 18/08 Q1017
                        NOSIG=
200911020900 METAR LMML NIL=
200911020845 METAR LMML 020845Z 28007KT 230V310 9999 FEW038 18/08 Q1017
                        NOSIG=
200911020830 METAR LMML NIL=
200911020815 METAR LMML 020815Z 25005KT 210V300 9999 FEW037 18/09 Q1017
                        NOSIG=
200911020745 METAR LMML 020745Z VRB02KT 9999 SCT036 17/10 Q1017 NOSIG=
200911020730 METAR LMML NIL=
200911020715 METAR LMML 020715Z VRB01KT 9999 FEW034 16/10 Q1017 NOSIG=
200911020700 METAR LMML NIL=
200911020645 METAR LMML 020645Z VRB01KT 9999 SCT035 15/10 Q1017 NOSIG=
200911020630 METAR LMML NIL=
200911020615 METAR LMML 020615Z VRB02KT 9999 SCT036 13/09 Q1017 NOSIG=
200911020600 METAR LMML NIL=
200911020545 METAR LMML 020545Z VRB02KT 9999 FEW039 11/09 Q1017 NOSIG=
200911020530 METAR LMML NIL=
200911020515 METAR LMML 020515Z VRB01KT 9999 FEW033 12/09 Q1017 NOSIG=
200911020500 METAR LMML NIL=
200911020445 METAR LMML 020445Z VRB02KT 9999 FEW033 11/08 Q1017 NOSIG=
200911020430 METAR LMML NIL=
200911020415 METAR LMML 020415Z VRB03KT 9999 FEW033 12/08 Q1017 NOSIG=
200911020400 METAR LMML NIL=
200911020345 METAR LMML 020345Z VRB02KT 9999 FEW033 12/08 Q1017 NOSIG=
200911020330 METAR LMML NIL=
200911020315 METAR LMML 020315Z VRB01KT 9999 FEW033 13/09 Q1018 NOSIG=
200911020300 METAR LMML NIL=
200911020245 METAR LMML 020245Z VRB01KT 9999 FEW034 14/09 Q1018 NOSIG=
200911020230 METAR LMML NIL=
200911020215 METAR LMML 020215Z VRB01KT 9999 BKN034 14/09 Q1018 NOSIG=
200911020200 METAR LMML NIL=
200911020145 METAR LMML 020145Z VRB01KT 9999 BKN033 14/09 Q1019 NOSIG=
200911020130 METAR LMML NIL=
200911020115 METAR LMML 020115Z VRB02KT 9999 SCT036 14/09 Q1019 NOSIG=
200911020100 METAR LMML NIL=
200911020045 METAR LMML 020045Z VRB03KT 9999 SCT036 13/08 Q1019 NOSIG=
200911020015 METAR LMML 020015Z VRB02KT 9999 FEW036 13/09 Q1019 NOSIG=
200911020000 METAR LMML NIL=
200911012345 METAR LMML 012345Z VRB02KT 9999 SCT037 12/08 Q1019 NOSIG=
200911012330 METAR LMML NIL=
200911012315 METAR LMML 012315Z VRB01KT 9999 SCT037 12/09 Q1019 NOSIG=
200911012245 METAR LMML 012245Z VRB01KT 9999 SCT039 12/08 Q1019 NOSIG=
200911012230 METAR LMML NIL=
200911012215 METAR LMML 012215Z VRB01KT 9999 FEW044 12/08 Q1020 NOSIG=
200911012200 METAR LMML NIL=
200911012145 METAR LMML 012145Z VRB02KT 9999 FEW044 12/08 Q1020 NOSIG=
200911012130 METAR LMML NIL=
200911012115 METAR LMML 012115Z VRB01KT 9999 FEW047 12/09 Q1020 NOSIG=
200911012100 METAR LMML NIL=
200911012045 METAR LMML 012045Z VRB01KT 9999 SCT047 13/07 Q1020 NOSIG=
200911012030 METAR LMML NIL=
200911012015 METAR LMML 012015Z VRB02KT CAVOK 14/08 Q1020 NOSIG=
200911012000 METAR LMML NIL=
200911011945 METAR LMML 011945Z VRB02KT 9999 SCT047 13/08 Q1020 NOSIG=
200911011930 METAR LMML NIL=
200911011915 METAR LMML 011915Z VRB03KT 9999 SCT047 14/08 Q1020 NOSIG=
200911011900 METAR LMML NIL=
200911011845 METAR LMML 011845Z VRB02KT 9999 SCT046 14/07 Q1020 NOSIG=
200911011830 METAR LMML NIL=
200911011815 METAR LMML 011815Z VRB01KT 9999 SCT044 14/07 Q1019 NOSIG=
200911011745 METAR LMML 011745Z VRB02KT 9999 SCT046 15/07 Q1019 NOSIG=
200911011715 METAR LMML 011715Z VRB02KT 9999 FEW046 15/07 Q1020 NOSIG=
200911011645 METAR LMML 011645Z VRB03KT 9999 SCT046 16/07 Q1019 NOSIG=
200911011630 METAR LMML NIL=
200911011615 METAR LMML 011615Z 10005KT 9999 SCT043 15/07 Q1019 NOSIG=
200911011600 METAR LMML NIL=
200911011545 METAR LMML 011545Z VRB03KT 9999 SCT043 16/07 Q1019 NOSIG=
200911011515 METAR LMML 011515Z VRB03KT 9999 SCT044 16/08 Q1019 NOSIG=
200911011500 METAR LMML NIL=
200911011445 METAR LMML 011445Z VRB03KT 9999 SCT045 17/08 Q1019 NOSIG=
200911011430 METAR LMML NIL=
200911011415 METAR LMML 011415Z 08004KT 020V130 9999 BKN045 17/08 Q1019
                        NOSIG=
200911011345 METAR LMML 011345Z 10005KT 040V140 9999 BKN042 17/08 Q1019
                        NOSIG=
200911011330 METAR LMML NIL=
200911011315 METAR LMML 011315Z 09004KT 040V130 9999 BKN042 17/08 Q1019
                        NOSIG=
200911011300 METAR LMML NIL=
200911011245 METAR LMML 011245Z 05004KT 310V120 9999 SCT048 18/08 Q1019
                        NOSIG=
200911011215 METAR LMML 011215Z 03005KT 350V060 9999 SCT049 18/08 Q1019
                        NOSIG=
200911011200 METAR LMML NIL=
200911011145 METAR LMML 011145Z 02004KT 280V160 9999 SCT045 19/08 Q1020
                        NOSIG=
200911011130 METAR LMML NIL=
200911011115 METAR LMML 011115Z 04005KT 340V100 9999 SCT044 19/08 Q1020
                        NOSIG=
200911011100 METAR LMML NIL=
200911011045 METAR LMML 011045Z 23004KT 9999 SCT043 19/09 Q1020 NOSIG=
200911011030 METAR LMML NIL=
200911011015 METAR LMML 011015Z 03005KT 340V110 9999 SCT044 20/08 Q1020
                        NOSIG=
200911010945 METAR LMML 010945Z 06006KT 030V120 9999 SCT043 19/08 Q1020
                        NOSIG=
200911010930 METAR LMML NIL=
200911010915 METAR LMML 010915Z 03005KT 340V090 9999 SCT045 18/08 Q1021
                        NOSIG=
200911010900 METAR LMML NIL=
200911010845 METAR LMML 010845Z 04005KT 350V090 9999 SCT046 18/08 Q1020
                        NOSIG=
200911010830 METAR LMML NIL=
200911010815 METAR LMML 010815Z 04005KT 350V080 9999 SCT043 18/07 Q1020
                        NOSIG=
200911010800 METAR LMML NIL=
200911010745 METAR LMML 010745Z VRB03KT 9999 SCT044 18/09 Q1020 NOSIG=
200911010730 METAR LMML NIL=
200911010715 METAR LMML 010715Z VRB03KT 9999 SCT044 17/10 Q1020 NOSIG=
200911010645 METAR LMML 010645Z VRB02KT 9999 SCT048 15/10 Q1020 NOSIG=
200911010630 METAR LMML NIL=
200911010615 METAR LMML 010615Z VRB02KT 9999 FEW040 12/09 Q1019 NOSIG=
200911010545 METAR LMML 010545Z 00000KT 9999 FEW039 13/09 Q1019 NOSIG=
200911010530 METAR LMML NIL=
200911010515 METAR LMML 010515Z 00000KT 9999 FEW038 13/10 Q1019 NOSIG=
200911010500 METAR LMML NIL=
200911010445 METAR LMML 010445Z VRB01KT 9999 FEW036 13/10 Q1019 NOSIG=
200911010415 METAR LMML 010415Z VRB02KT 9999 FEW036 13/09 Q1019 NOSIG=
200911010400 METAR LMML NIL=
200911010345 METAR LMML 010345Z VRB01KT 9999 FEW035 13/09 Q1019 NOSIG=
200911010330 METAR LMML NIL=
200911010315 METAR LMML 010315Z VRB01KT 9999 FEW035 13/10 Q1019 NOSIG=
200911010300 METAR LMML NIL=
200911010245 METAR LMML 010245Z VRB02KT 9999 SCT037 13/10 Q1019 NOSIG=
200911010230 METAR LMML NIL=
200911010215 METAR LMML 010215Z VRB01KT 9999 FEW034 13/10 Q1019 NOSIG=
200911010200 METAR LMML NIL=
200911010145 METAR LMML 010145Z VRB01KT 9999 FEW035 13/10 Q1019 NOSIG=
200911010130 METAR LMML NIL=
200911010115 METAR LMML 010115Z VRB01KT 9999 FEW035 13/10 Q1019 NOSIG=
200911010045 METAR LMML 010045Z VRB01KT 9999 FEW025 13/10 Q1019 NOSIG=
200911010030 METAR LMML NIL=
200911010015 METAR LMML 010015Z VRB01KT 9999 FEW025 13/10 Q1019 NOSIG=

###################################
#  short TAF from LMML
###################################
200912012300 TAF LMML 012300Z 0200/0209 30015KT 9999 SCT020
                      PROB40 TEMPO 0200/0209 8000 SHRA BKN015=
200912012000 TAF LMML 012000Z 0121/0206 28010KT 9999 SCT020
                      TEMPO 0121/0206 8000 SHRA BKN015
                      PROB40 TEMPO 0121/0203 5000 TSRA BKN015CB=
200912011700 TAF LMML 011700Z 0118/0203 28012KT 9999 SCT020
                      TEMPO 0118/0203 8000 SHRA BKN015
                      PROB30 TEMPO 0118/0203 5000 TSGR BKN015CB=
200912011400 TAF LMML 011400Z 0115/0124 27014KT 9999 SCT020
                      TEMPO 0115/0124 8000 SHRA BKN015TCU
                      PROB30 TEMPO 0118/0124 5000 TSRA BKN015CB=
200912011100 TAF LMML 011100Z 0112/0121 25010KT 9999 SCT020
                      TEMPO 0112/0121 8000 SHRA BKN015 TCU
                      PROB30 TEMPO 0118/0121 5000 TSRA BKN015CB
                       BECMG 0118/0121 26020KT=
200912010800 TAF LMML 010800Z 0109/0118 27012KT 9999 SCT018 SCT120
                      TEMPO 0112/0118 8000 SHRA BKN015TCU
                      PROB30 TEMPO 0115/0118 5000 TSRA BKN015CB=
200912010500 TAF LMML 010500Z 0106/0115 27013KT 9999 FEW025
                      PROB40 TEMPO 0106/0115 8000 SHRA=
200912010200 TAF LMML 010200Z 0103/0112 27013KT 9999 SCT020
                      TEMPO 0107/0112 8000 SHRA
                      PROB30 TEMPO 0109/0112 5000 TSRA BKN015CB=
200911302300 TAF LMML 302300Z 0100/0109 19010KT CAVOK
                      BECMG 0101/0104 26010KT 9999 FEW020=
200911302000 TAF LMML 302000Z 3021/0106 20010KT CAVOK
                      PROB30 TEMPO 3021/0106 8000 NSC
                      BECMG 0101/0104 27010KT=
200911301700 TAF LMML 301700Z 3018/0103 20014KT CAVOK
                      TEMPO 3018/0103 8000 NSC
                      BECMG 3023/0102 26012KT=
200911301400 TAF LMML 301400Z 3015/3024 21014KT CAVOK
                      TEMPO 3015/3024 9000 NSC=
200911301100 TAF LMML 301100Z 3012/3021 20015KT CAVOK
                      PROB30 TEMPO 3012/3021 9000 NSC=
200911300800 TAF LMML 300800Z 3009/3018 19016KT CAVOK
                      PROB40 TEMPO 3009/3018 9000 NSC=
200911300500 TAF LMML 300500Z 3006/3015 18015KT CAVOK
                      PROB30 TEMPO 3006/3015 9000 FEW015=
200911300200 TAF LMML 300200Z 3003/3012 17013KT CAVOK
                      PROB30 TEMPO 3003/3012 9000 FEW012=
200911292300 TAF LMML 292300Z 3000/3009 17012KT CAVOK
                      TEMPO 3000/3009 9000 NSC
                      PROB30 TEMPO 3000/3006 7000 SCT008=
200911292000 TAF LMML 292000Z 2921/3006 19008KT CAVOK
                      TEMPO 2921/3006 9000 FEW008
                      PROB30 TEMPO 3000/3006 5000 BR BKN005=
200911291700 TAF LMML 291700Z 2918/3003 19008KT CAVOK
                      PROB30 TEMPO 3000/3003 7000=
200911291400 TAF LMML 291400Z 2915/2924 19010KT CAVOK=
200911291100 TAF LMML 291100Z 2912/2921 19010KT 9999 FEW018
                      TEMPO 2912/2921 CAVOK=
200911290800 TAF LMML 290800Z 2909/2918 17008KT 9999 FEW015
                      TEMPO 2909/2918 CAVOK=
200911290500 TAF LMML 290500Z 2906/2915 14006KT CAVOK
                      TEMPO 2909/2915 9999 FEW018 SCT250=
200911290200 TAF LMML 290200Z 2903/2912 18004KT CAVOK
                      TEMPO 2903/2906 5000 BR NSC
                      BECMG 2907/2909 9999 FEW015=
200911290128 TAF LMML 290128Z 2900/2909 24004KT CAVOK
                      TEMPO 2900/2906 5000 BR
                      PROB30 TEMPO 2903/2906 1500 MIFG NSC=
200911282300 LMML 290128Z 2900/2909 24004KT CAVOK
                      TEMPO 2900/2906 5000 BR
                      PROB30 TEMPO 2903/2906 1500 MIFG NSC=
200911282000 TAF LMML 282000Z 2821/2906 VRB03KT CAVOK=
200911281700 TAF LMML 281700Z 2818/2903 26005KT CAVOK
                      PROB30 TEMPO 2818/2903 9999 FEW025=
200911281400 TAF LMML 281400Z 2815/2824 29010KT CAVOK
                      TEMPO 2818/2824 9999 FEW025=
200911281100 TAF LMML 281100Z 2812/2821 29013KT CAVOK
                      PROB30 TEMPO 2812/2821 FEW040=
200911280800 TAF LMML 280800Z 2809/2818 22010KT CAVOK
                      BECMG 2812/2815 28013KT 9999 FEW030=
200911280500 TAF LMML 280500Z 2806/2815 26010KT CAVOK=
200911280200 TAF LMML 280200Z 2803/2812 24010KT CAVOK
                      TEMPO 2803/2806 9999 FEW020=
200911272300 TAF LMML 272300Z 2800/2809 23008KT CAVOK
                      TEMPO 2800/2805 9999 FEW020=
200911272225 TAF LMML 272225Z 2721/2806 23007KT CAVOK
                      PROB40 TEMPO 2721/2803 9999 FEW020=
200911272000 TAF LMML 272000Z 2718/2806 23007KT CAVOK
                      PROB40 TEMPO 2718/2803 9999 FEW020=
200911271700 TAF LMML 271700Z 2718/2803 23005KT 9999 FEW025
                      TEMPO 2718/2803 CAVOK=
200911271400 TAF LMML 271400Z 2715/2724 22007KT 9999 FEW025
                      TEMPO 2718/2724 CAVOK=
200911271100 TAF LMML 271100Z 2712/2721 23008KT 9999 SCT025=
200911270800 TAF LMML 270800Z 2709/2718 24008KT 9999 FEW025=
200911270500 TAF LMML 270500Z 2706/2715 24008KT 9999 FEW023=
200911270200 TAF LMML 270200Z 2703/2712 25008KT 9999 FEW020=
200911262300 TAF LMML 262300Z 2700/2709 25005KT 9999 FEW020=
200911262000 TAF LMML 262000Z 2621/2706 25004KT 9999 SCT020=
200911261700 TAF LMML 261700Z 2618/2703 25005KT 9999 SCT025
                      PROB30 TEMPO 2700/2703 9000=
200911261400 TAF LMML 261400Z 2615/2624 26005KT 9999 SCT030=
200911261100 TAF LMML 261100Z 2612/2621 26005KT 9999 SCT027=
200911260800 TAF LMML 260800Z 2609/2618 26005KT 9999 SCT025=
200911260500 TAF LMML 260500Z 2606/2615 26005KT CAVOK
                      BECMG 2606/2609 9999 SCT025=
200911260200 TAF LMML 260200Z 2603/2612 26004KT CAVOK
                      TEMPO 2603/2606 9999 FEW015
                      PROB30 TEMPO 2603/2606 9000 NSC
                      BECMG 2606/2609 9999 SCT025=
200911252300 TAF LMML 252300Z 2600/2609 27004KT CAVOK
                      TEMPO 2600/2606 9999 FEW020
                      BECMG 2606/2609 9999 SCT025=
200911252000 TAF LMML 252000Z 2521/2606 28004KT 9999 FEW020
                      TEMPO 2521/2606 CAVOK=
200911251700 TAF LMML 251700Z 2518/2603 VRB03KT 9999 FEW025
                      TEMPO 2518/2603 CAVOK=
200911251400 TAF LMML 251400Z 2515/2524 VRB03KT 9999 FEW250=
200911251100 TAF LMML 251100Z 2512/2521 VRB03KT 9999 FEW025=
200911250800 TAF LMML 250800Z 2509/2518 32006KT 9999 FEW025=
200911250500 TAF LMML 250500Z 2506/2515 31006KT 9999 FEW025=
200911250200 TAF LMML 250200Z 2503/2512 31006KT 9999 FEW025=
200911242300 TAF LMML 242300Z 2500/2509 32007KT 9999 SCT020=
200911242000 TAF LMML 242000Z 2421/2506 32010KT 9999 FEW018=
200911241700 TAF LMML 241700Z 2418/2503 31014KT 9999 FEW020
                      PROB30 TEMPO 2418/2421 30015G25KT=
200911241400 TAF LMML 241400Z 2415/2424 31018KT 9999 SCT025
                      PROB30 TEMPO 2415/2418 30018G28KT=
200911241100 TAF LMML 241100Z 2412/2421 31018KT 9999 SCT025
                      PROB30 TEMPO 2412/2418 30018G28KT=
200911240800 TAF LMML 240800Z 2409/2418 32016KT 9999 SCT020
                      PROB30 TEMPO 2409/2418 31018G28KT=
200911240500 TAF LMML 240500Z 2406/2415 32016KT 9999 SCT016
                      PROB30 TEMPO 2406/2415 32016G26KT=
200911240200 TAF LMML 240200Z 2403/2412 33016KT 9999 FEW017
                      PROB40 TEMPO 2403/2412 CAVOK
                      PROB30 TEMPO 2403/2406 9000 BKN013=
200911232300 TAF LMML 232300Z 2400/2409 32014KT 9999 FEW015
                      PROB40 TEMPO 2400/2409 CAVOK
                      PROB30 TEMPO 2400/2406 9000 BKN013=
200911232000 TAF LMML 232000Z 2321/2406 31014KT 9999 FEW016
                      PROB40 TEMPO 2321/2406 CAVOK
                      PROB30 TEMPO 2323/2404 9000 BKN014=
200911231700 TAF LMML 231700Z 2318/2403 31012KT 9999 SCT015
                      TEMPO 2318/2403 BKN014=
200911231400 TAF LMML 231400Z 2315/2324 31014KT 9999 SCT015
                      TEMPO 2318/2324 BKN015=
200911231100 TAF LMML 231100Z 2312/2321 31015KT 9999 SCT015
                      PROB30 TEMPO 2312/2316 31015G25KT=
200911230800 TAF LMML 230800Z 2309/2318 31008KT 9999 SCT015
                      BECMG 2314/2317 32015G25KT=
200911230500 TAF LMML 230500Z 2306/2315 30010KT 9999 FEW020
                      PROB30 TEMPO 2309/2315 CAVOK=
200911230200 TAF LMML 230200Z 2303/2312 30007KT 9999 FEW015
                      TEMPO 2303/2309 CAVOK
                      PROB30 TEMPO 2303/2306 9000 BKN012=
200911222300 TAF LMML 222300Z 2300/2309 30007KT 9999 FEW015
                      TEMPO 2300/2309 CAVOK
                      PROB30 TEMPO 2300/2306 9000 BKN012=
200911222000 TAF LMML 222000Z 2221/2306 VRB03KT 9999 FEW015
                      TEMPO 2221/2306 CAVOK=
200911221700 TAF LMML 221700Z 2218/2303 VRB03KT 9999 FEW020=
200911221400 TAF LMML 221400Z 2215/2224 VRB05KT 9999 FEW025=
200911221100 TAF LMML 221100Z 2212/2221 VRB06KT 9999 SCT025=
200911220800 TAF LMML 220800Z 2209/2218 28008KT 9999 SCT025=
200911220500 TAF LMML 220500Z 2206/2215 26004KT 9999 SCT020=
200911220200 TAF LMML 220200Z 2203/2212 VRB04KT 9999 SCT020
                      PROB30 TEMPO 2203/2206 8000 BKN015=
200911212300 TAF LMML 212300Z 2200/2209 VRB03KT 9999 BKN020
                      PROB30 TEMPO 2200/2206 9000 BKN015=
200911212000 TAF LMML 212000Z 2121/2206 VRB03KT 9999 BKN020
                      PROB30 TEMPO 2121/2206 9000 BKN015=
200911211700 TAF LMML 211700Z 2118/2203 VRB03KT 9999 BKN018=
200911211400 TAF LMML 211400Z 2115/2124 04004KT 9999 BKN020=
200911211100 TAF LMML 211100Z 2112/2121 06006KT 9999 BKN018=
200911210805 TAF COR LMML 210805Z 2109/2118 06005KT 9999 BKN018=
200911210500 TAF LMML 210500Z 2106/2115 06005KT 9999 BKN015 BKN250=
200911210200 TAF LMML 210200Z 2103/2112 07005KT 9999 BKN015 BKN250
                      PROB30 TEMPO 2103/2106 5000 BR=
200911202300 TAF LMML 202300Z 2100/2109 07004KT 9999 BKN012 BKN250
                      PROB30 TEMPO 2100/2106 5000 BR=
200911202000 TAF LMML 202000Z 2021/2106 07005KT 9999 BKN012 BKN250
                      PROB30 TEMPO 2100/2106 5000 BR BKN005 SCT012
                       BKN250=
200911201700 TAF LMML 201700Z 2018/2103 08006KT 9000 BKN014
                      TEMPO 2018/2103 BKN010
                      PROB30 TEMPO 2021/2103 5000 BR BKN005=
200911201400 TAF LMML 201400Z 2015/2024 08008KT 9999 BKN014
                      BECMG 2015/2018 9000
                      TEMPO 2015/2024 BKN010
                      PROB30 TEMPO 2018/2024 5000 BR BKN005=
200911201100 TAF LMML 201100Z 2012/2021 08009KT 9999 BKN014
                      TEMPO 2012/2016 SCT015
                      PROB30 TEMPO 2016/2021 9000 BKN010=
200911200800 TAF LMML 200800Z 2009/2018 08008KT 9000 BKN013
                      TEMPO 2009/2018 9999 SCT015=
200911200500 TAF LMML 200500Z 2006/2015 07007KT 8000 BKN009 BKN250
                      BECMG 2006/2009 9000 BKN015
                      TEMPO 2009/2015 9999 SCT015 BKN250=
200911200200 TAF LMML 200200Z 2003/2012 07005KT 8000 SCT004
                      TEMPO 2003/2007 3000 BR BKN003
                      BECMG 2007/2009 9999 SCT012 BKN250=
200911192300 TAF LMML 192300Z 2000/2009 06004KT 9000 FEW004 SCT250
                      TEMPO 2000/2007 3000 BR BKN003 SCT250=
200911192000 TAF LMML 192000Z 1921/2006 05004KT CAVOK
                      BECMG 1923/2002 7000 FEW007
                      PROB30 TEMPO 2002/2006 4000 BR BKN004=
200911191700 TAF LMML 191700Z 1918/2003 VRB03KT 9999 FEW008
                      PROB30 TEMPO 1921/2003 5000 BR SCT003=
200911191400 TAF LMML 191400Z 1915/1924 10008KT 9999 FEW008
                      PROB30 TEMPO 1918/1924 5000 BR SCT005=
200911191100 TAF LMML 191100Z 1912/1921 09008KT 9000 FEW010
                      PROB30 TEMPO 1918/1921 5000 BR SCT008=
200911190800 TAF LMML 190800Z 1909/1918 VRB03KT 7000 FEW005
                      BECMG 1910/1913 08010KT 9000 NSC=
200911190500 TAF LMML 190500Z 1906/1915 09005KT 5000 BR SCT002
                      TEMPO 1906/1908 0100 FG BKN001
                      BECMG 1907/1910 9999 FEW005=
200911190200 TAF LMML 190200Z 1903/1912 VRB03KT 0100 FG BKN001
                      PROB30 TEMPO 1903/1907 5000 BR SCT002
                      BECMG 1906/1909 9999 FEW005=
200911182300 TAF LMML 182300Z 1900/1909 VRB03KT 0100 FG BKN001
                      PROB30 TEMPO 1900/1907 5000 BR SCT002
                      BECMG 1906/1908 9000 SCT003=
200911182000 TAF LMML 182000Z 1821/1906 06004KT 9999 SCT005
                      PROB40 TEMPO 1821/1906 5000 BR BKN005
                      PROB30 TEMPO 1821/1906 0500 BCFG BKN002=
200911181700 TAF LMML 181700Z 1818/1903 VRB03KT CAVOK
                      PROB30 TEMPO 1900/1903 8000 NSC=
200911181400 TAF LMML 181400Z 1815/1824 VRB04KT CAVOK=
200911181100 TAF LMML 181100Z 1812/1821 VRB03KT CAVOK=
200911180800 TAF LMML 180800Z 1809/1818 VRB03KT CAVOK=
200911180500 TAF LMML 180500Z 1806/1815 27004KT CAVOK
                      TEMPO 1806/1807 8000 MIFG NSC
                      PROB30 TEMPO 1806/1808 9000 SCT009=
200911180200 TAF LMML 180200Z 1803/1812 VRB03KT CAVOK
                      TEMPO 1803/1806 8000 MIFG NSC
                      PROB30 TEMPO 1803/1806 0300 BCFG BKN002
                      BECMG 1806/1809 9999 SCT011
                      BECMG 1809/1812 CAVOK=
200911172300 TAF LMML 172300Z 1800/1809 25004KT CAVOK
                      TEMPO 1800/1806 8000 FEW006
                      PROB30 TEMPO 1800/1806 5000 BR BKN005
                      BECMG 1806/1809 9999 FEW015=
200911172000 TAF LMML 172000Z 1721/1806 23005KT CAVOK
                      TEMPO 1721/1806 9000 NSC
                      PROB30 TEMPO 1800/1806 5000 BR FEW006=
200911171700 TAF LMML 171700Z 1718/1803 VRB03KT CAVOK PRB30
                      TEMPO 1801/1803 7000=
200911171400 TAF LMML 171400Z 1715/1724 25005KT CAVOK=
200911171100 TAF LMML 171100Z 1712/1721 22005KT CAVOK=
200911170800 TAF LMML 170800Z 1709/1718 27005KT CAVOK=
200911170500 TAF LMML 170500Z 1706/1715 24008KT CAVOK=
200911170200 TAF LMML 170200Z 1703/1712 23006KT CAVOK
                      PROB30 TEMPO 1704/1706 9000 NSC=
200911162300 TAF LMML 162300Z 1700/1709 23005KT CAVOK
                      PROB30 TEMPO 1703/1706 9000 NSC=
200911162000 TAF LMML 162000Z 1621/1706 23004KT CAVOK
                      PROB30 TEMPO 1703/1706 9000 NSC=
200911161700 TAF LMML 161700Z 1618/1703 26005KT CAVOK
                      PROB30 TEMPO 1700/1703 9000 NSC=
200911161400 TAF LMML 161400Z 1615/1624 24007KT 9999 FEW015
                      BECMG 1615/1618 CAVOK=
200911161100 TAF LMML 161100Z 1612/1621 25008KT 9999 FEW015
                      BECMG 1614/1617 CAVOK=
200911160800 TAF LMML 160800Z 1609/1618 25008KT CAVOK
                      PROB30 TEMPO 1609/1618 9999 FEW020=
200911160500 TAF LMML 160500Z 1606/1615 24008KT 9999 FEW012
                      BECMG 1607/1610 CAVOK=
200911160200 TAF LMML 160200Z 1603/1612 23004KT CAVOK
                      PROB30 TEMPO 1603/1606 5000 BR FEW004=
200911152300 TAF LMML 152300Z 1600/1609 VRB03KT 9999 FEW011 SCT250
                      PROB30 TEMPO 1602/1606 5000 BR BKN004=
200911152000 TAF LMML 152000Z 1521/1606 23004KT 9999 FEW011 SCT250
                      PROB30 TEMPO 1602/1606 5000 BR BKN004=
200911151700 TAF LMML 151700Z 1518/1603 25005KT 9999 FEW012
                      TEMPO 1518/1603 8000 BKN008
                      PROB40 TEMPO 1520/1603 4000 BR BKN004
                      PROB30 TEMPO 1522/1603 1000 MIFG BKN001=
200911151400 TAF LMML 151400Z 1515/1524 25007KT 9999 FEW015
                      PROB40 TEMPO 1518/1524 BKN011
                      PROB30 TEMPO 1521/1524 3000 BR BKN003=
200911151100 TAF LMML 151100Z 1512/1521 23010KT 9999 FEW015
                      PROB30 TEMPO 1512/1521 BKN013=
200911150800 TAF LMML 150800Z 1509/1518 23008KT 9999 FEW020=
200911150500 TAF LMML 150500Z 1506/1515 21005KT 9999 FEW020=
200911150200 TAF LMML 150200Z 1503/1512 21007KT 9999 FEW020
                      TEMPO 1503/1506 CAVOK
                      PROB30 TEMPO 1500/1506 8000=
200911142300 TAF LMML 142300Z 1500/1509 21005KT 9999 FEW020
                      TEMPO 1500/1506 CAVOK
                      PROB30 TEMPO 1500/1506 8000=
200911142000 TAF LMML 142000Z 1421/1506 VRB03KT CAVOK
                      PROB30 TEMPO 1421/1506 8000 FEW020=
200911141700 TAF LMML 141700Z 1418/1503 VRB03KT 9999 FEW015 SCT030 BKN250
                      PROB30 TEMPO 1501/1503 6000=
200911141400 TAF LMML 141400Z 1415/1424 18005KT 9999 FEW020 BKN250=
200911141100 TAF LMML 141100Z 1412/1421 18005KT 9999 FEW020 BKN250=
200911140800 TAF LMML 140800Z 1409/1418 16005KT 9999 FEW020 BKN250=
200911140500 TAF LMML 140500Z 1406/1415 VRB04KT 9999 FEW030=
200911140200 TAF LMML 140200Z 1403/1412 VRB04KT 9999 FEW025
                      PROB30 TEMPO 1403/1406 5000 BR=
200911132300 TAF LMML 132300Z 1400/1409 VRB03KT 9999 FEW020
                      PROB40 TEMPO 1400/1406 BKN012
                      PROB30 TEMPO 1400/1406 5000 BR=
200911132000 TAF LMML 132000Z 1321/1406 VRB03KT 9999 FEW020=
200911131700 TAF LMML 131700Z 1318/1403 VRB03KT 9999 FEW020=
200911131400 TAF LMML 131400Z 1315/1324 VRB04KT 9999 FEW020=
200911131100 TAF LMML 131100Z 1312/1321 VRB04KT 9999 FEW020=
200911130800 TAF LMML 130800Z 1309/1318 VRB04KT 9999 FEW020=
200911130500 TAF LMML 130500Z 1306/1315 28004KT 9999 SCT027 SCT050=
200911130200 TAF LMML 130200Z 1303/1312 29004KT 9999 FEW030
                      TEMPO 1303/1306 7000=
200911122300 TAF LMML 122300Z 1300/1309 VRB03KT 9999 FEW030
                      PROB30 TEMPO 1302/1306 5000 BR=
200911122000 TAF LMML 122000Z 1221/1306 27004KT 9999 FEW025
                      PROB30 TEMPO 1302/1306 5000 BR=
200911121700 TAF LMML 121700Z 1218/1303 VRB03KT 9999 FEW022=
200911121400 TAF LMML 121400Z 1215/1224 30008KT 9999 FEW025
                      PROB30 TEMPO 1221/1224 BKN015=
200911121100 TAF LMML 121100Z 1212/1221 32008KT 9999 FEW027=
200911120800 TAF LMML 120800Z 1209/1218 31008KT 9999 FEW035=
200911120500 TAF LMML 120500Z 1206/1215 30008KT 9999 FEW030=
200911120200 TAF LMML 120200Z 1203/1212 30008KT 9999 FEW030 SCT060=
200911112300 TAF LMML 112300Z 1200/1209 29008KT 9999 FEW030=
200911112000 TAF LMML 112000Z 1121/1206 29008KT 9999 FEW025 SCT080=
200911111700 TAF LMML 111700Z 1118/1203 28010KT 9999 SCT025 SCT050
                      TEMPO 1121/1203 8000 RA=
200911111406 TAF LMML 1115/1124 28010G20KT 9999 SCT020
                      TEMPO 1115/1118 7000 SHRA BKN015TCU
                      BECMG 1115/1118 27010KT
                      TEMPO 1118/1124 8000 RA BKN030=
200911111405 TAF LMML 11140Z 1115/1124 28010G20KT 9999 SCT020
                      TEMPO 1115/1118 7000 SHRA BKN015TCU
                      BECMG 1115/1118 27010KT
                      TEMPO 1118/1124 8000 RA BKN030=
200911111403 TAF LMML 11140Z 1115/1124 28010G20KT 9999 SCT020
                      TEMPO 1115/1118 7000 SHRA BKN015TCU
                      BECMG 1115/1118 27010KT
                      TEMPO 1118/1124 8000 RA BKN030=
200911111400 TAF LMML 11140Z 1115/1124 28010G20KT 9999 SCT020
                      TEMPO 1115/1118 7000 SHRA BKN015TCU
                      BECMG 1115/1118 27010KT
                      TEMPO 1118/1124 8000 RA BKN030=
200911111100 TAF COR LMML 111100Z 1112/1121 28015G25KT 9999 SCT020
                      TEMPO 1112/1118 7000 SHRA BKN015TCU
                      BECMG 1115/1118 27012KT=
200911110800 TAF COR LMML 110800Z 1109/1118 28015G25KT 9999 SCT020 SCT120
                      TEMPO 1109/1115 7000 SHARA BKN015TCU
                      BECMG 1113/1116 27015KT=
200911110500 TAF LMML 110500Z 1106/1115 28015G25KT 9999 SCT025
                      TEMPO 1106/1115 SHRA BKN015TCU=
200911110200 TAF LMML 110200Z 1103/1112 28018G28KT 9999 SCT020
                      TEMPO 1103/1112 SHRA BKN018
                      PROB30 TEMPO 1103/1108 TSRA BKN015CB=
200911102300 TAF LMML 102300Z 1100/1109 28018G28KT 9999 SCT020
                      TEMPO 1100/1109 SHRA BKN018TCU
                      PROB30 TEMPO 1100/1108 5000 TSRA BKN015CB=
200911102000 TAF LMML 102000Z 1021/1106 28018G28KT 9999 SCT020
                      TEMPO 1021/1106 SHRA BKN018TCU
                      PROB30 TEMPO 1021/1106 5000 TSRA BKN015CB=
200911101700 TAF LMML 101700Z 1018/1103 27018G28KT 9999 SCT025
                      TEMPO 1018/1103 8000 SHRA BKN020TCU
                      PROB40 TEMPO 1018/1100 5000 TSGR BKN015CB=
200911101400 TAF LMML 101400Z 1015/1024 25018G28KT 9999 SCT025
                      TEMPO 1015/1024 8000 SHRA BKN020TCU
                      PROB40 TEMPO 1015/1024 5000 TSGR BKN015CB=
200911101100 TAF LMML 101100Z 1012/1021 25017G27KT 9999 SCT025
                      TEMPO 1012/1021 8000 SHRA BKN020TCU
                      PROB40 TEMPO 1012/1021 5000 TSGR BKN015CB=
200911100800 TAF LMML 100800Z 1009/1018 25017G27KT 9999 SCT030
                      TEMPO 1009/1018 8000 SHRA BKN020TCU
                      PROB40 TEMPO 1009/1018 TSGR 5000 BKN015CB=
200911100500 TAF LMML 100500Z 1006/1015 27015KT 9999 SCT025
                      TEMPO 1006/1015 8000 SHRA BKN015TCU
                      PROB30 TEMPO 1006/1015 5000 TSRA BKN015CB
                       BECMG 1008/1011 27025KT=
200911100200 TAF LMML 100200Z 1003/1012 27010KT 9999 FEW032
                      PROB40 TEMPO 1003/1012 8000 SHRA SCT020TCU
                       PROB30
                      TEMPO 1003/1012 5000 TSRA BKN015CB
                      BECMG 1008/1011 27020KT=
200911092309 TAF LMML 092309Z 1000/1009 27014KT 9999 FEW032
                      TEMPO 1000/1009 8000 SHRA SCT020TCU
                      PROB30 TEMPO 1000/1009 5000 TSRA BKN015CB=
200911092300 TAF LMML 092300Z 1000/1009 27014KT 9999 FEW032
                      TEMPO 1000/1009 8000 SHRA SCT020TCU
                      PROB30 TEMPO 1000/1009 5000 TSRA BKN015TCU=
200911092000 TAF LMML 092000Z 0921/1006 27015KT 9999 SCT030
                      TEMPO 1921/1006 8000 SHRA SCT020TCU
                      PROB40 TEMPO 0921/1006 5000 TSRA BKN015CB=
200911091700 TAF LMML 091700Z 0918/1003 24016KT 9999 SCT030
                      TEMPO 0918/1003 8000 SHRA BKN015TCU
                      PROB40 TEMPO 0918/1003 5000 TSRA BKN015CB=
200911091400 TAF LMML 091400Z 0915/0924 21015KT 9999 SCT030
                      TEMPO 0915/0924 8000 SHRA BKN015TCU
                      PROB40 TEMPO 0915/0924 5000 TSRA BKN015CB=
200911091100 TAF LMML NIL=
200911090800 TAF LMML 090800Z 0909/0918 21015KT 9999 SCT030
                      TEMPO 0909/0918 8000 SHRA BKN015TCU=
200911090500 TAF LMML 090500Z 0906/0915 20018KT 9999 SCT030
                      TEMPO 0906/0915 5000 SHRA BKN018TCU
                      PROB30 TEMPO 0906/0915 5000 TSRA FEW008 BKN015CB=
200911082300 TAF LMML 082300Z 0900/0909 22005KT 9999 FEW030 SCT090
                      TEMPO 0900/0909 SHRA
                      PROB30 TEMPO 0903/0909 5000 TSRA BKN015CB
                       BECMG 0906/0909 22018KT=
200911082000 TAF LMML 082000Z 0821/0906 23004KT 9999 FEW030 SCT090
                      TEMPO 0821/0906 SHRA
                      PROB30 TEMPO 0902/0906 TSRA BKN015CB
                      BECMG 0903/0906 20015KT=
200911081700 TAF LMML 081700Z 0818/0903 24006KT 9999 FEW025
                      PROB30 TEMPO 0818/0903 8000 SHRA SCT020TCU=
200911081400 TAF LMML 081400Z 0815/0824 27014KT 9999 FEW030
                      PROB30 TEMPO 0815/0824 8000 SHRA SCT025TCU
                       BECMG 0819/0822 25004KT=
200911081100 TAF LMML 081100Z 0812/0821 28015KT 9999 FEW030
                      PROB30 TEMPO 0812/0821 8000 SHRA
                      BECMG 0818/0821 25005KT=
200911080800 TAF LMML 080800Z 0809/0818 26017G27KT 9999 FEW030
                      BECMG 0811/0814 28015KT
                      PROB30 TEMPO 0812/0818 9000 SHRA=
200911080500 TAF LMML 080500Z 0806/0815 23017G27KT 9999 FEW025 SCT050
                      BECMG 0810/0813 26015KT=
200911080200 TAF LMML 080200Z 0803/0812 24015KT 9999 FEW025 BKN060
                      TEMPO 0806/0810 24018G28KT=
200911072300 TAF LMML 072300Z 0800/0809 27010KT 9999 FEW025
                      BECMG 0803/0806 23015G25KT=
200911072000 TAF LMML 072000Z 0721/0806 29008KT 9999 FEW025
                      BECMG 0803/0806 23015G25KT=
200911071700 TAF LMML 071700Z 0718/0803 30012KT 9999 FEW025
                      BECMG 0721/0800 24018KT
                      PROB30 TEMPO 0721/0803 SHRA=
200911071400 TAF LMML 071400Z 0715/0724 30015KT 9999 FEW025
                      PROB30 TEMPO 0717/0724 SHRA SCT018 BKN030=
200911071100 TAF LMML 071100Z 0712/0721 30012KT 9999 SCT025 SCT060 PRROB40
                      TEMPO 0712/0715 SHRA=
200911070800 TAF LMML 070800Z 0709/0718 30012KT 9999 SCT035
                      TEMPO 0709/0714 SHRA=
200911070500 TAF LMML 070500Z 0706/0715 30012KT 9999 SCT020 SCT040
                      TEMPO 0706/0715 8000 RA
                      PROB30 TEMPO 0706/0709 5000 TSRA BKN015CB=
200911070200 TAF LMML 070200Z 0703/0712 30008KT 9999 SCT020
                      TEMPO 0703/0712 8000 RA
                      PROB30 TEMPO 0703/0709 5000 TSRA BKN015CB=
200911062300 TAF LMML 062300Z 0700/0709 30008KT 9999 SCT020
                      TEMPO 0700/0709 8000 RA
                      PROB30 TEMPO 0703/0709 5000 TSRA BKN015CB=
200911062000 TAF LMML 062000Z 0621/0706 30008KT 9999 SCT020
                      TEMPO 0700/0706 8000 RA BKN015
                      PROB30 TEMPO 0703/0706 5000 TSRA BKN015CB=
200911061700 TAF LMML 061700Z 0618/0703 30008KT 9999 FEW015 BKN120 BKN190
                      TEMPO 0700/0703 8000 RA BKN015 BKN100 OVC180=
200911061400 TAF LMML 061400Z 0615/0624 28011KT 9999 FEW020 SCT150
                      TEMPO 0621/0624 7000 RA BKN015 BKN100 OVC200=
200911061100 TAF LMML 061100Z 0612/0621 30010KT 9999 SCT015 BKN120=
200911060800 TAF LMML 060800Z 0609/0618 33011KT 9999 SCT012 BKN150
                      TEMPO 0609/0618 BKN012=
200911060550 TAF COR LMML 060550Z 0606/0615 30008KT 5000 BKN004 BKN025
                      BECMG 0606/0609 9000 BKN010 BKN030
                      BECMG 0609/0615 9999 BKN020=
200911060500 TAF LMML 060500Z 0606/0615 30008KT 9999 BKN022
                      PROB40 TEMPO 0606/0612 BKN014=
200911060200 TAF LMML 060200Z 0603/0612 18009KT 9999 BKN002
                      TEMPO 0603/0607 8000 SCT005
                      BECMG 0606/0609 29012KT 9999 BKN010=
200911052300 TAF LMML 052300Z 0600/0609 VRB05KT 9999 SCT004
                      TEMPO 0600/0606 4000 BR BKN002
                      BECMG 0605/0608 30012KT 9999 BKN011=
200911052000 TAF LMML 052000Z 0521/0606 VRB03KT 8000 BKN003
                      TEMPO 0521/0606 4000 BR
                      PROB30 TEMPO 0521/0606 1000 MIFG BKN001
                      BECMG 0603/0606 18010KT=
200911051700 TAF LMML 051700Z 0518/0603 16005KT 9999 FEW015
                      PROB40 TEMPO 0518/0603 8000 BKN008
                      PROB30 TEMPO 0521/0603 5000 BR BKN005=
200911051400 TAF LMML 051400Z 0515/0524 20005KT 9999 FEW015
                      PROB40 TEMPO 0518/0524 8000 BKN008=
200911051100 TAF LMML 051100Z 0512/0521 20005KT 9999 FEW015
                      PROB30 TEMPO 0518/0521 8000 BKN008=
200911050800 TAF LMML 050800Z 0509/0518 20005KT 9999 FEW015=
200911050500 TAF LMML 050500Z 0506/0515 18008KT 9999 FEW015 BKN200=
200911050200 TAF LMML 050200Z 0503/0512 19005KT CAVOK
                      PROB30 TEMPO 0503/0506 7000 SCT004
                      BECMG 0506/0508 9999 FEW015=
200911042300 TAF LMML 042300Z 0500/0509 20007KT CAVOK
                      TEMPO 0500/0506 7000 SCT004=
200911042000 TAF LMML 042000Z 0421/0506 21007KT CAVOK
                      PROB30 TEMPO 0500/0506 5000 SCT003=
200911041700 TAF LMML 041700Z 0418/0503 23006KT 9999 FEW015
                      TEMPO 0418/0503 CAVOK
                      PROB40 TEMPO 0421/0503 8000 NSC
                      PROB30 TEMPO 0423/0503 1500 BR BKN003=
200911041400 TAF LMML 041400Z 0415/0424 23009KT 9999 FEW018
                      PROB30 TEMPO 0421/0424 8000 NSC=
200911041100 TAF LMML 041100Z 0412/0421 26011KT 9999 FEW018
                      PROB30 TEMPO 0418/0421 BKN011=
200911040800 TAF LMML 040800Z 0409/0418 27012KT 9999 SCT020
                      PROB40 TEMPO 0415/0418 BKN013=
200911040500 TAF LMML 040500Z 0406/0415 29015KT 9999 FEW022
                      BECMG 0412/0415 23012KT=
200911040200 TAF LMML 040200Z 0403/0412 30025G35KT 9999 FEW025 SCT040
                      BECMG 0409/0412 27015KT=
200911032300 TAF LMML 032300Z 0400/0409 30025KT 9999 FEW025 SCT040
                      PROB30 TEMPO 0400/0406 SHRA=
200911032000 TAF LMML 032000Z 0321/0406 30025KT 9999 SCT025
                      PROB30 TEMPO 0321/0406 SHRA=
200911031400 TAF LMML 031400Z 0315/0324 29020G30KT 9999 SCT030 BKN200=
200911031100 TAF LMML 031100Z 0312/0321 29020G30KT 9999 SCT030 BKN200=
200911030800 TAF LMML 030800Z 0309/0318 29018G28KT 9999 SCT015 SCT100
                      TEMPO 0309/0312 9000 RA BKN015 BKN080=
200911030500 TAF LMML 030500Z 0306/0315 29018G28KT 9999 SCT020
                      TEMPO 0306/0315 7000 SHRA BKN015=
200911030200 TAF LMML 030200Z 0303/0312 22015KT 9999 SCT020
                      TEMPO 0303/0312 7000 SHRA BKN015
                      BECMG 0303/0306 30018G28KT=
200911022300 TAF LMML 022300Z 0300/0309 22015KT 9999 SCT020
                      TEMPO 0302/0309 7000 SHRA BKN015
                      BECMG 0303/0306 30018KT=
200911022000 TAF LMML 022000Z 0221/0306 22015KT 9999 SCT020
                      TEMPO 0302/0306 7000 SHRA
                      BECMG 0303/0306 30018KT=
200911021700 TAF LMML 021700Z 0218/0303 22018KT 9999 SCT020 SCT045
                      PROB30 TEMPO 0222/0303 SHRA=
200911021400 TAF LMML 021400Z 0215/0224 24008KT 9999 FEW035
                      BECMG 0218/0224 22018KT=
200911021100 TAF LMML 021100Z 0212/0221 24008KT 9999 FEW035
                      BECMG 0218/021 22018KT=
200911020800 TAF LMML 020800Z 0209/0218 24010KT 9999 FEW030=
200911020500 TAF LMML 020500Z 0206/0215 27006KT 9999 SCT028=
200911020200 TAF LMML 020200Z 0203/0212 27006KT 9999 SCT035
                      TEMPO 0203/0212 CAVOK=
200911012300 TAF LMML 012300Z 0200/0209 VRB04KT 9999 SCT035
                      PROB40 TEMPO 0200/0209 CAVOK=
200911012000 TAF LMML 012000Z 0121/0206 VRB03KT 9999 SCT042=
200911011700 TAF LMML 011700Z 0118/0203 VRB03KT 9999 FEW040=
200911011400 TAF LMML 011400Z 0115/0124 08004KT 9999 FEW040=
200911011100 TAF LMML 011100Z 0112/0121 04005KT 9999 SCT040=
200911010800 TAF LMML 010800Z 0109/0118 04005KT 9999 FEW035=
200911010500 TAF LMML 010500Z 0106/0115 03005KT 9999 SCT030=
200911010200 TAF LMML 010200Z 0103/0112 36004KT 9999 SCT030=

###################################
#  large TAF from LMML
###################################
200912012300 TAF LMML NIL=
200912011700 TAF LMML NIL=
200912010500 TAF LMML NIL=
200911302300 TAF LMML NIL=
200911301700 TAF LMML NIL=
200911301100 TAF LMML NIL=
200911300500 TAF LMML NIL=
200911292300 TAF LMML NIL=
200911291700 TAF LMML NIL=
200911291100 TAF LMML NIL=
200911290500 TAF LMML NIL=
200911282300 TAF LMML NIL=
200911281700 TAF LMML NIL=
200911281100 TAF LMML NIL=
200911280500 TAF LMML NIL=
200911272300 TAF LMML NIL=
200911272000 TAF LMML 272000Z 2718/2806 23007KT CAVOK
                      PROB40 TEMPO 2718/2803 9999 FEW020=
200911271700 TAF LMML NIL=
200911271100 TAF LMML NIL=
200911270500 TAF LMML NIL=
200911262300 TAF LMML NIL=
200911261700 TAF LMML NIL=
200911261100 TAF LMML NIL=
200911260500 TAF LMML NIL=
200911252300 TAF LMML NIL=
200911251700 TAF LMML NIL=
200911251100 TAF LMML NIL=
200911250500 TAF LMML NIL=
200911242300 TAF LMML NIL=
200911241700 TAF LMML NIL=
200911241100 TAF LMML NIL=
200911240500 TAF LMML NIL=
200911232300 TAF LMML NIL=
200911231700 TAF LMML NIL=
200911231100 TAF LMML NIL=
200911230500 TAF LMML NIL=
200911222300 TAF LMML NIL=
200911221700 TAF LMML NIL=
200911221100 TAF LMML NIL=
200911220500 TAF LMML NIL=
200911212300 TAF LMML NIL=
200911211700 TAF LMML NIL=
200911211100 TAF LMML NIL=
200911210500 TAF LMML NIL=
200911202300 TAF LMML NIL=
200911201700 TAF LMML NIL=
200911201100 TAF LMML NIL=
200911200500 TAF LMML NIL=
200911192300 TAF LMML NIL=
200911191700 TAF LMML NIL=
200911191100 TAF LMML NIL=
200911190500 TAF LMML NIL=
200911182300 TAF LMML NIL=
200911181700 TAF LMML NIL=
200911181100 TAF LMML NIL=
200911180500 TAF LMML NIL=
200911172300 TAF LMML NIL=
200911171700 TAF LMML NIL=
200911171100 TAF LMML NIL=
200911170500 TAF LMML NIL=
200911162300 TAF LMML NIL=
200911161700 TAF LMML NIL=
200911161100 TAF LMML NIL=
200911160500 TAF LMML NIL=
200911152300 TAF LMML NIL=
200911151700 TAF LMML NIL=
200911151100 TAF LMML NIL=
200911150500 TAF LMML NIL=
200911142300 TAF LMML NIL=
200911141700 TAF LMML NIL=
200911141100 TAF LMML NIL=
200911140500 TAF LMML NIL=
200911132300 TAF LMML NIL=
200911131700 TAF LMML NIL=
200911131100 TAF LMML NIL=
200911130500 TAF LMML NIL=
200911122300 TAF LMML NIL=
200911121700 TAF LMML NIL=
200911121100 TAF LMML NIL=
200911120500 TAF LMML NIL=
200911112300 TAF LMML NIL=
200911111700 TAF LMML NIL=
200911111100 TAF LMML NIL=
200911110500 TAF LMML NIL=
200911102300 TAF LMML NIL=
200911101700 TAF LMML NIL=
200911101100 TAF LMML NIL=
200911100500 TAF LMML NIL=
200911092300 TAF LMML NIL=
200911091700 TAF LMML NIL=
200911091100 TAF LMML NIL=
200911090500 TAF LMML NIL=
200911082300 TAF LMML NIL=
200911081700 TAF LMML NIL=
200911081100 TAF LMML NIL=
200911080500 TAF LMML NIL=
200911072300 TAF LMML NIL=
200911071700 TAF LMML NIL=
200911071100 TAF LMML NIL=
200911070500 TAF LMML NIL=
200911062300 TAF LMML NIL=
200911061700 TAF LMML NIL=
200911061100 TAF LMML NIL=
200911060500 TAF LMML NIL=
200911052300 TAF LMML NIL=
200911051700 TAF LMML NIL=
200911051100 TAF LMML NIL=
200911050500 TAF LMML NIL=
200911042300 TAF LMML NIL=
200911041700 TAF LMML NIL=
200911041100 TAF LMML NIL=
200911040500 TAF LMML NIL=
200911032300 TAF LMML NIL=
200911031100 TAF LMML NIL=
200911030500 TAF LMML NIL=
200911022300 TAF LMML NIL=
200911021700 TAF LMML NIL=
200911021100 TAF LMML NIL=
200911020500 TAF LMML NIL=
200911012300 TAF LMML NIL=
200911011700 TAF LMML NIL=
200911011100 TAF LMML NIL=
200911010500 TAF LMML NIL=
