##########################################################
# Query made at 01/18/2013 16:12:58 UTC
# Time interval: from 10/01/2009 00:00  to 10/31/2009 23:59  UTC
##########################################################

##########################################################
# LMML, Luqa (Malta)
# WMO index: 16597
# Latitude 35-51N. Longitude 014-29E. Altitude 91 m.
##########################################################

###################################
#  METAR/SPECI from LMML
###################################
200910312345 METAR LMML 312345Z VRB02KT 9999 FEW025 13/10 Q1019 NOSIG=
200910312330 METAR LMML NIL=
200910312315 METAR LMML 312315Z VRB03KT 9999 FEW032 15/09 Q1019 NOSIG=
200910312300 METAR LMML NIL=
200910312245 METAR LMML 312245Z VRB03KT 9999 SCT029 15/10 Q1019 NOSIG=
200910312230 METAR LMML NIL=
200910312215 METAR LMML 312215Z VRB03KT 9999 SCT030 15/10 Q1019 NOSIG=
200910312145 METAR LMML 312145Z VRB02KT 9999 FEW029 15/10 Q1019 NOSIG=
200910312115 METAR LMML 312115Z 05005KT 360V100 9999 SCT029 16/10 Q1019
                        NOSIG=
200910312100 METAR LMML NIL=
200910312045 METAR LMML 312045Z 04005KT 010V080 9999 SCT028 16/11 Q1020
                        NOSIG=
200910312015 METAR LMML 312015Z 07004KT 030V090 9999 FEW028 SCT250 16/11
                        Q1019 NOSIG=
200910312000 METAR LMML NIL=
200910311945 METAR LMML 311945Z VRB03KT 9999 FEW025 16/12 Q1019 NOSIG=
200910311930 METAR LMML NIL=
200910311915 METAR LMML 311915Z VRB03KT 9999 FEW024 16/12 Q1019 NOSIG=
200910311900 METAR LMML NIL=
200910311845 METAR LMML 311845Z 07005KT 040V100 9999 FEW020 SCT042 16/13
                        Q1019 NOSIG=
200910311830 METAR LMML NIL=
200910311815 METAR LMML 311815Z 07005KT 040V100 9999 FEW020 SCT036 16/13
                        Q1019 NOSIG=
200910311800 METAR LMML NIL=
200910311745 METAR LMML 311745Z 05005KT 020V080 9999 SCT020 16/13 Q1019
                        NOSIG=
200910311730 METAR LMML NIL=
200910311715 METAR LMML 311715Z 34008KT 320V040 9999 SCT020 17/12 Q1018
                        NOSIG=
200910311700 METAR LMML NIL=
200910311645 METAR LMML 311645Z VRB03KT 9999 SCT018 17/14 Q1018 NOSIG=
200910311630 METAR LMML NIL=
200910311615 METAR LMML 311615Z VRB03KT 9999 SCT018 17/14 Q1018 NOSIG=
200910311600 METAR LMML NIL=
200910311545 METAR LMML 311545Z 07004KT 010V110 9999 SCT017 18/14 Q1018
                        NOSIG RMK SMOKE TO NORTH=
200910311530 METAR LMML NIL=
200910311515 METAR LMML 311515Z 36006KT 330V030 9999 SCT020 19/14 Q1018
                        NOSIG=
200910311500 METAR LMML NIL=
200910311445 METAR LMML 311445Z 02004KT 340V040 9999 FEW022 20/13 Q1018
                        NOSIG=
200910311430 METAR LMML NIL=
200910311415 METAR LMML 311415Z 01006KT 9999 SCT022 20/14 Q1018 NOSIG=
200910311400 METAR LMML NIL=
200910311345 METAR LMML 311345Z 36008KT 9999 SCT025 20/13 Q1018 NOSIG=
200910311330 METAR LMML NIL=
200910311315 METAR LMML 311315Z 36005KT 9999 BKN023 20/14 Q1018 NOSIG=
200910311300 METAR LMML NIL=
200910311245 METAR LMML 311245Z 36004KT 330V040 9999 BKN024 20/14 Q1018
                        NOSIG=
200910311215 METAR LMML 311215Z 04005KT 350V090 9999 BKN026 19/13 Q1018
                        NOSIG=
200910311200 METAR LMML NIL=
200910311145 METAR LMML 311145Z 07004KT 350V150 9999 BKN024 20/13 Q1019
                        NOSIG=
200910311115 METAR LMML 311115Z 07005KT 020V110 9999 BKN029 19/13 Q1019
                        NOSIG=
200910311100 METAR LMML NIL=
200910311045 METAR LMML 311045Z 29004KT 250V330 9999 BKN029 19/13 Q1019
                        NOSIG=
200910311030 METAR LMML NIL=
200910311015 METAR LMML 311015Z 23004KT 9999 SCT032 21/13 Q1020 NOSIG=
200910311000 METAR LMML NIL=
200910310945 METAR LMML 310945Z 26004KT 200V300 9999 SCT030 SCT070 19/12
                        Q1020 NOSIG=
200910310930 METAR LMML NIL=
200910310915 METAR LMML 310915Z VRB03KT 9999 SCT030 19/13 Q1020 NOSIG=
200910310900 METAR LMML NIL=
200910310845 METAR LMML 310845Z VRB03KT 9999 SCT026 21/14 Q1020 NOSIG=
200910310830 METAR LMML NIL=
200910310815 METAR LMML 310815Z VRB01KT 9999 FEW025 20/13 Q1020 NOSIG=
200910310800 METAR LMML NIL=
200910310745 METAR LMML 310745Z VRB01KT 9999 FEW025 19/14 Q1020 NOSIG=
200910310730 METAR LMML NIL=
200910310715 METAR LMML 310715Z 00000KT 9999 FEW025 17/14 Q1020 NOSIG=
200910310700 METAR LMML NIL=
200910310645 METAR LMML 310645Z VRB02KT 9999 FEW025 16/13 Q1019 NOSIG=
200910310630 METAR LMML NIL=
200910310615 METAR LMML 310615Z VRB02KT 9999 FEW025 14/12 Q1019 NOSIG=
200910310600 METAR LMML NIL=
200910310545 METAR LMML 310545Z VRB01KT 9999 FEW025 14/12 Q1019 NOSIG=
200910310530 METAR LMML NIL=
200910310515 METAR LMML 310515Z VRB02KT 9999 FEW025 14/12 Q1019 NOSIG=
200910310445 METAR LMML 310445Z VRB02KT 9999 FEW025 SCT080 14/12 Q1019
                        NOSIG=
200910310430 METAR LMML NIL=
200910310415 METAR LMML 310415Z VRB02KT CAVOK 14/12 Q1019 NOSIG=
200910310345 METAR LMML 310345Z VRB02KT CAVOK 14/12 Q1018 NOSIG=
200910310315 METAR LMML 310315Z VRB01KT CAVOK 15/12 Q1018 NOSIG=
200910310300 METAR LMML NIL=
200910310245 METAR LMML 310245Z VRB02KT CAVOK 15/12 Q1018 NOSIG=
200910310230 METAR LMML NIL=
200910310215 METAR LMML 310215Z VRB01KT CAVOK 14/12 Q1018 NOSIG=
200910310200 METAR LMML NIL=
200910310145 METAR LMML 310145Z VRB03KT CAVOK 15/12 Q1018 NOSIG=
200910310130 METAR LMML NIL=
200910310115 METAR LMML 310115Z VRB03KT CAVOK 14/12 Q1018 NOSIG=
200910310100 METAR LMML NIL=
200910310045 METAR LMML 310045Z VRB03KT CAVOK 14/12 Q1019 NOSIG=
200910310030 METAR LMML NIL=
200910310015 METAR LMML 310015Z VRB03KT CAVOK 14/12 Q1019 NOSIG=
200910310000 METAR LMML NIL=
200910302345 METAR LMML 302345Z VRB02KT CAVOK 14/12 Q1019 NOSIG=
200910302330 METAR LMML NIL=
200910302315 METAR LMML 302315Z VRB02KT CAVOK 14/12 Q1019 NOSIG=
200910302300 METAR LMML NIL=
200910302245 METAR LMML 302245Z VRB01KT 9999 FEW025 14/12 Q1019 NOSIG=
200910302230 METAR LMML NIL=
200910302215 METAR LMML 302215Z VRB01KT 9999 FEW025 14/12 Q1019 NOSIG=
200910302200 METAR LMML NIL=
200910302145 METAR LMML 302145Z VRB02KT 9999 FEW025 15/12 Q1019 NOSIG=
200910302115 METAR LMML 302115Z VRB03KT 9999 FEW025 16/12 Q1019 NOSIG=
200910302100 METAR LMML NIL=
200910302045 METAR LMML 302045Z VRB03KT 9999 FEW025 16/13 Q1019 NOSIG=
200910302030 METAR LMML NIL=
200910302015 METAR LMML 302015Z VRB02KT 9999 FEW020 15/12 Q1019 NOSIG=
200910302000 METAR LMML NIL=
200910301945 METAR LMML 301945Z VRB02KT 9999 FEW020 16/12 Q1018 NOSIG=
200910301930 METAR LMML NIL=
200910301915 METAR LMML 301915Z VRB03KT 9999 FEW020 16/13 Q1018 NOSIG=
200910301900 METAR LMML NIL=
200910301845 METAR LMML 301845Z VRB02KT CAVOK 16/13 Q1018 NOSIG=
200910301830 METAR LMML NIL=
200910301815 METAR LMML 301815Z VRB02KT CAVOK 16/13 Q1018 NOSIG=
200910301800 METAR LMML NIL=
200910301745 METAR LMML 301745Z VRB03KT 9999 FEW020 17/13 Q1018 NOSIG=
200910301730 METAR LMML NIL=
200910301715 METAR LMML 301715Z VRB03KT 9999 FEW023 17/13 Q1018 NOSIG=
200910301700 METAR LMML NIL=
200910301645 METAR LMML 301645Z 04004KT 010V070 9999 FEW023 18/13 Q1017
                        NOSIG=
200910301630 METAR LMML NIL=
200910301615 METAR LMML 301615Z 04004KT 010V070 9999 FEW023 18/13 Q1017
                        NOSIG=
200910301600 METAR LMML NIL=
200910301545 METAR LMML 301545Z 05004KT 020V080 9999 FEW023 18/13 Q1017
                        NOSIG=
200910301530 METAR LMML NIL=
200910301515 METAR LMML 301515Z 03004KT 9999 SCT023 19/13 Q1017 NOSIG=
200910301445 METAR LMML 301445Z 02004KT 360V070 9999 SCT024 19/13 Q1016
                        NOSIG=
200910301430 METAR LMML NIL=
200910301415 METAR LMML 301415Z 36004KT 330V060 9999 SCT029 20/13 Q1016
                        NOSIG=
200910301400 METAR LMML NIL=
200910301345 METAR LMML 301345Z 34005KT 300V040 9999 FEW036 20/12 Q1017
                        NOSIG=
200910301330 METAR LMML NIL=
200910301315 METAR LMML 301315Z 36007KT 320V030 9999 FEW032 21/12 Q1017
                        NOSIG=
200910301300 METAR LMML NIL=
200910301245 METAR LMML 301245Z 35004KT 300V030 9999 FEW031 21/12 Q1017
                        NOSIG=
200910301230 METAR LMML NIL=
200910301215 METAR LMML 301215Z 36006KT 330V040 9999 FEW031 22/12 Q1017
                        NOSIG=
200910301200 METAR LMML NIL=
200910301145 METAR LMML 301145Z 35006KT 310V020 9999 FEW033 21/11 Q1017
                        NOSIG=
200910301130 METAR LMML NIL=
200910301115 METAR LMML 301115Z 33006KT 290V020 9999 FEW030 21/09 Q1017
                        NOSIG=
200910301045 METAR LMML 301045Z 36005KT 320V040 9999 FEW030 21/11 Q1017
                        NOSIG=
200910301030 METAR LMML NIL=
200910301015 METAR LMML 301015Z 32007KT 290V350 9999 FEW031 20/12 Q1017
                        NOSIG=
200910300945 METAR LMML 300945Z 33007KT 300V030 9999 FEW029 20/12 Q1017
                        NOSIG=
200910300930 METAR LMML NIL=
200910300915 METAR LMML 300915Z 34008KT 9999 FEW027 20/12 Q1018 NOSIG=
200910300900 METAR LMML NIL=
200910300845 METAR LMML 300845Z 34009KT 9999 FEW026 19/12 Q1018 NOSIG=
200910300830 METAR LMML NIL=
200910300800 METAR LMML NIL=
200910300745 METAR LMML 300745Z 32008KT 9999 FEW020 18/13 Q1017 NOSIG=
200910300715 METAR LMML 300715Z 32007KT 9999 FEW020 18/13 Q1017 NOSIG=
200910300700 METAR LMML NIL=
200910300645 METAR LMML 300645Z 31008KT 9999 FEW020 16/13 Q1017 NOSIG=
200910300630 METAR LMML NIL=
200910300615 METAR LMML 300615Z 30008KT 270V050 9999 FEW020 16/13 Q1017
                        NOSIG=
200910300600 METAR LMML NIL=
200910300545 METAR LMML 300545Z 30006KT 9999 FEW020 14/12 Q1017 NOSIG=
200910300530 METAR LMML NIL=
200910300515 METAR LMML 300515Z 30006KT 9999 FEW020 14/12 Q1016 NOSIG=
200910300445 METAR LMML 300445Z 29005KT 9999 FEW020 15/12 Q1016 NOSIG=
200910300430 METAR LMML NIL=
200910300415 METAR LMML 300415Z 30006KT 9999 FEW020 15/12 Q1016 NOSIG=
200910300345 METAR LMML 300345Z 30008KT 9999 FEW020 15/13 Q1016 NOSIG=
200910300315 METAR LMML 300315Z 30007KT 9999 FEW020 15/13 Q1016 NOSIG=
200910300300 METAR LMML NIL=
200910300245 METAR LMML 300245Z 29007KT 9999 FEW020 16/13 Q1016 NOSIG=
200910300230 METAR LMML NIL=
200910300215 METAR LMML 300215Z 30008KT 9999 FEW020 16/13 Q1016 NOSIG=
200910300200 METAR LMML NIL=
200910300145 METAR LMML 300145Z 30007KT 9999 FEW020 16/13 Q1016 NOSIG=
200910300130 METAR LMML NIL=
200910300115 METAR LMML 300115Z 30007KT 9999 FEW020 16/13 Q1016 NOSIG=
200910300100 METAR LMML NIL=
200910300045 METAR LMML 300045Z 29007KT 9999 FEW020 16/13 Q1016 NOSIG=
200910300030 METAR LMML NIL=
200910300015 METAR LMML 300015Z 30007KT 9999 FEW020 16/13 Q1016 NOSIG=
200910300000 METAR LMML NIL=
200910292345 METAR LMML 292345Z 30005KT 9999 FEW020 16/13 Q1016 NOSIG=
200910292330 METAR LMML NIL=
200910292315 METAR LMML 292315Z 30005KT 9999 FEW020 16/13 Q1017 NOSIG=
200910292245 METAR LMML 292245Z 31006KT 9999 FEW020 16/14 Q1017 NOSIG=
200910292215 METAR LMML 292215Z 30006KT 9999 FEW020 16/14 Q1017 NOSIG=
200910292145 METAR LMML 292145Z 30007KT 9999 FEW020 16/14 Q1017 NOSIG=
200910292115 METAR LMML 292115Z 30007KT 9999 FEW020 16/14 Q1017 NOSIG=
200910292100 METAR LMML NIL=
200910292045 METAR LMML 292045Z 30007KT 9999 FEW020 16/14 Q1017 NOSIG=
200910292015 METAR LMML 292015Z 31008KT 9999 FEW025 16/14 Q1017 NOSIG=
200910292000 METAR LMML NIL=
200910291945 METAR LMML 291945Z 30006KT 9999 FEW025 16/14 Q1017 NOSIG=
200910291930 METAR LMML NIL=
200910291915 METAR LMML 291915Z 30007KT 9999 FEW025 16/13 Q1017 NOSIG=
200910291900 METAR LMML NIL=
200910291845 METAR LMML 291845Z 30007KT 9999 FEW025 16/13 Q1017 NOSIG=
200910291830 METAR LMML NIL=
200910291815 METAR LMML 291815Z 30007KT 9999 FEW025 16/13 Q1017 NOSIG=
200910291800 METAR LMML NIL=
200910291745 METAR LMML 291745Z 32008KT 9999 FEW025 16/12 Q1017 NOSIG=
200910291730 METAR LMML NIL=
200910291715 METAR LMML 291715Z 31007KT 290V360 9999 FEW025 16/13 Q1017
                        NOSIG=
200910291700 METAR LMML NIL=
200910291645 METAR LMML 291645Z 30004KT 9999 FEW025 17/13 Q1016 NOSIG=
200910291630 METAR LMML NIL=
200910291615 METAR LMML 291615Z 30006KT 9999 FEW024 17/13 Q1016 NOSIG=
200910291600 METAR LMML NIL=
200910291545 METAR LMML 291545Z 30009KT 9999 FEW024 18/13 Q1016 NOSIG=
200910291530 METAR LMML NIL=
200910291515 METAR LMML 291515Z 30010KT 270V330 9999 FEW024 19/13 Q1016
                        NOSIG=
200910291500 METAR LMML NIL=
200910291445 METAR LMML 291445Z 29010KT 9999 FEW024 19/13 Q1016 NOSIG=
200910291430 METAR LMML NIL=
200910291415 METAR LMML 291415Z 30010KT 9999 FEW024 20/13 Q1016 NOSIG=
200910291400 METAR LMML NIL=
200910291345 METAR LMML 291345Z 30011KT 240V330 9999 FEW024 20/13 Q1016
                        NOSIG=
200910291315 METAR LMML 291315Z 29011KT 9999 FEW024 20/13 Q1016 NOSIG=
200910291245 METAR LMML 291245Z 31010KT 280V340 9999 FEW024 20/13 Q1016
                        NOSIG=
200910291215 METAR LMML 291215Z 29010KT 250V330 9999 FEW024 20/13 Q1017
                        NOSIG=
200910291200 METAR LMML NIL=
200910291145 METAR LMML 291145Z 31010KT 280V340 9999 FEW024 21/14 Q1017
                        NOSIG=
200910291130 METAR LMML NIL=
200910291115 METAR LMML 291115Z 29009KT 250V330 9999 FEW024 21/14 Q1017
                        NOSIG=
200910291100 METAR LMML NIL=
200910291045 METAR LMML 291045Z 31009KT 280V340 9999 FEW024 21/14 Q1017
                        NOSIG=
200910291030 METAR LMML NIL=
200910291015 METAR LMML 291015Z 29008KT 250V330 9999 SCT024 20/14 Q1017
                        NOSIG=
200910291000 METAR LMML NIL=
200910290945 METAR LMML 290945Z 29008KT 260V330 9999 SCT021 20/15 Q1018
                        NOSIG=
200910290930 METAR LMML NIL=
200910290915 METAR LMML 290915Z 30007KT 9999 SCT020 20/15 Q1018 NOSIG=
200910290900 METAR LMML NIL=
200910290845 METAR LMML 290845Z 31008KT 9999 SCT017 20/16 Q1018 NOSIG=
200910290830 METAR LMML NIL=
200910290815 METAR LMML 290815Z 32007KT 9999 SCT015 19/16 Q1018 NOSIG=
200910290800 METAR LMML NIL=
200910290745 METAR LMML 290745Z 32008KT 9999 FEW020 19/16 Q1018 NOSIG=
200910290715 METAR LMML 290715Z 31005KT 260V330 9999 FEW015 18/16 Q1017
                        NOSIG=
200910290700 METAR LMML NIL=
200910290645 METAR LMML 290645Z 29004KT 260V330 9000 FEW015 18/17 Q1017
                        NOSIG=
200910290630 METAR LMML NIL=
200910290615 METAR LMML 290615Z 29004KT 9000 FEW015 17/17 Q1017 NOSIG=
200910290600 METAR LMML NIL=
200910290545 METAR LMML 290545Z VRB03KT 9000 FEW015 16/16 Q1017 NOSIG=
200910290530 METAR LMML NIL=
200910290515 METAR LMML 290515Z VRB02KT 9000 FEW015 15/15 Q1017 NOSIG=
200910290500 METAR LMML NIL=
200910290445 METAR LMML 290445Z VRB03KT 9000 FEW015 16/16 Q1017 NOSIG=
200910290430 METAR LMML NIL=
200910290415 METAR LMML 290415Z 25004KT 9000 NSC 16/16 Q1017 NOSIG=
200910290400 METAR LMML NIL=
200910290345 METAR LMML 290345Z VRB03KT 9000 NSC 16/16 Q1017 NOSIG=
200910290315 METAR LMML 290315Z 24004KT 9000 NSC 16/15 Q1017 NOSIG=
200910290300 METAR LMML NIL=
200910290245 METAR LMML 290245Z VRB03KT 9000 NSC 15/14 Q1017 NOSIG=
200910290230 METAR LMML NIL=
200910290215 METAR LMML 290215Z VRB03KT 9000 NSC 15/15 Q1017 NOSIG=
200910290200 METAR LMML NIL=
200910290145 METAR LMML 290145Z 26004KT 9000 NSC 15/15 Q1017 NOSIG=
200910290130 METAR LMML NIL=
200910290115 METAR LMML 290115Z VRB03KT 9000 NSC 15/15 Q1017 NOSIG=
200910290045 METAR LMML 290045Z 26004KT 9000 NSC 15/15 Q1017 NOSIG=
200910290030 METAR LMML NIL=
200910290015 METAR LMML 290015Z VRB03KT 9000 NSC 15/15 Q1017 NOSIG=
200910290000 METAR LMML NIL=
200910282345 METAR LMML 282345Z VRB02KT 9000 NSC 15/14 Q1017 NOSIG=
200910282330 METAR LMML NIL=
200910282315 METAR LMML 282315Z VRB03KT 9000 NSC 15/15 Q1018 NOSIG=
200910282300 METAR LMML NIL=
200910282245 METAR LMML 282245Z VRB02KT 9000 NSC 15/15 Q1018 NOSIG=
200910282230 METAR LMML NIL=
200910282215 METAR LMML 282215Z VRB02KT 9000 NSC 16/15 Q1018 NOSIG=
200910282200 METAR LMML NIL=
200910282145 METAR LMML 282145Z VRB02KT 9000 NSC 16/15 Q1018 NOSIG=
200910282130 METAR LMML NIL=
200910282115 METAR LMML 282115Z VRB03KT 9000 NSC 16/15 Q1018 NOSIG=
200910282100 METAR LMML NIL=
200910282045 METAR LMML 282045Z VRB03KT 9000 NSC 17/15 Q1018 NOSIG=
200910282030 METAR LMML NIL=
200910282015 METAR LMML 282015Z VRB03KT 9000 NSC 16/15 Q1018 NOSIG=
200910282000 METAR LMML NIL=
200910281945 METAR LMML 281945Z VRB03KT 9000 FEW013 17/15 Q1018 NOSIG=
200910281930 METAR LMML NIL=
200910281915 METAR LMML 281915Z VRB03KT 9000 FEW013 17/15 Q1018 NOSIG=
200910281900 METAR LMML NIL=
200910281845 METAR LMML 281845Z VRB03KT 9999 SCT016 17/15 Q1018 NOSIG=
200910281830 METAR LMML NIL=
200910281815 METAR LMML 281815Z VRB03KT 9999 BKN016 18/15 Q1018 NOSIG=
200910281800 METAR LMML NIL=
200910281745 METAR LMML 281745Z VRB02KT 9999 BKN016 18/15 Q1017 NOSIG=
200910281730 METAR LMML NIL=
200910281715 METAR LMML 281715Z VRB02KT 9999 SCT016 19/15 Q1018 NOSIG=
200910281700 METAR LMML NIL=
200910281645 METAR LMML 281645Z VRB02KT 9999 SCT018 19/15 Q1017 NOSIG=
200910281630 METAR LMML NIL=
200910281615 METAR LMML 281615Z VRB02KT 9999 BKN019 19/15 Q1017 NOSIG=
200910281600 METAR LMML NIL=
200910281545 METAR LMML 281545Z VRB02KT 9999 SCT024 19/15 Q1017 NOSIG=
200910281530 METAR LMML NIL=
200910281515 METAR LMML 281515Z VRB03KT 9999 BKN018 SCT250 20/16 Q1017
                        NOSIG=
200910281500 METAR LMML NIL=
200910281445 METAR LMML 281445Z VRB02KT 9999 BKN017 20/15 Q1017 NOSIG=
200910281430 METAR LMML NIL=
200910281415 METAR LMML 281415Z VRB02KT 9999 BKN019 20/16 Q1017 NOSIG=
200910281400 METAR LMML NIL=
200910281345 METAR LMML 281345Z VRB03KT 9999 BKN022 20/15 Q1017 NOSIG=
200910281330 METAR LMML NIL=
200910281315 METAR LMML 281315Z VRB03KT 9999 BKN017 SCT120 20/15 Q1017
                        NOSIG=
200910281300 METAR LMML NIL=
200910281245 METAR LMML 281245Z 23004KT 180V290 9999 BKN025 20/14 Q1017
                        NOSIG=
200910281230 METAR LMML NIL=
200910281215 METAR LMML 281215Z VRB03KT 9999 BKN023 20/16 Q1017 NOSIG=
200910281200 METAR LMML NIL=
200910281145 METAR LMML 281145Z 19004KT 160V250 9999 BKN021 20/15 Q1017
                        NOSIG=
200910281130 METAR LMML NIL=
200910281115 METAR LMML 281115Z VRB02KT 9999 BKN021 20/15 Q1018 NOSIG=
200910281100 METAR LMML NIL=
200910281045 METAR LMML 281045Z VRB02KT 9999 FEW026 21/15 Q1018 NOSIG=
200910281015 METAR LMML 281015Z VRB03KT 9999 FEW028 22/15 Q1018 NOSIG=
200910281000 METAR LMML NIL=
200910280945 METAR LMML 280945Z VRB02KT 9999 FEW026 21/14 Q1018 NOSIG=
200910280915 METAR LMML 280915Z VRB02KT 9999 FEW025 21/15 Q1018 NOSIG=
200910280900 METAR LMML NIL=
200910280845 METAR LMML 280845Z VRB03KT 9999 FEW020 22/15 Q1018 NOSIG=
200910280830 METAR LMML NIL=
200910280815 METAR LMML 280815Z VRB03KT 9999 FEW020 21/16 Q1018 NOSIG=
200910280800 METAR LMML NIL=
200910280730 METAR LMML NIL=
200910280715 METAR LMML 280715Z VRB02KT 9000 FEW020 19/16 Q1017 BECMG
                        9999=
200910280700 METAR LMML NIL=
200910280645 METAR LMML 280645Z VRB01KT 9000 FEW020 17/17 Q1017 BECMG
                        9999=
200910280630 METAR LMML NIL=
200910280615 METAR LMML 280615Z VRB01KT 9000 FEW020 15/15 Q1017 BECMG
                        9999=
200910280600 METAR LMML NIL=
200910280545 METAR LMML 280545Z VRB01KT 9000 FEW018 15/15 Q1017 NOSIG=
200910280530 METAR LMML NIL=
200910280515 METAR LMML 280515Z VRB01KT 9000 FEW015 15/15 Q1017 NOSIG=
200910280500 METAR LMML NIL=
200910280445 METAR LMML 280445Z VRB01KT 9000 FEW015 15/15 Q1016 NOSIG=
200910280430 METAR LMML NIL=
200910280415 METAR LMML 280415Z VRB02KT 9000 NSC 15/15 Q1016 NOSIG=
200910280400 METAR LMML NIL=
200910280345 METAR LMML 280345Z VRB03KT 9000 NSC 16/16 Q1016 NOSIG=
200910280330 METAR LMML NIL=
200910280315 METAR LMML 280315Z VRB02KT 9000 NSC 16/16 Q1016 NOSIG=
200910280300 METAR LMML NIL=
200910280245 METAR LMML 280245Z VRB03KT CAVOK 16/16 Q1016 NOSIG=
200910280230 METAR LMML NIL=
200910280215 METAR LMML 280215Z VRB03KT CAVOK 16/16 Q1016 NOSIG=
200910280200 METAR LMML NIL=
200910280145 METAR LMML 280145Z VRB03KT CAVOK 16/16 Q1016 NOSIG=
200910280130 METAR LMML NIL=
200910280115 METAR LMML 280115Z VRB02KT CAVOK 15/15 Q1016 NOSIG=
200910280100 METAR LMML NIL=
200910280045 METAR LMML 280045Z VRB01KT CAVOK 15/14 Q1016 NOSIG=
200910280030 METAR LMML NIL=
200910280015 METAR LMML 280015Z VRB03KT CAVOK 16/15 Q1016 NOSIG=
200910280000 METAR LMML NIL=
200910272345 METAR LMML 272345Z VRB02KT CAVOK 16/14 Q1016 NOSIG=
200910272330 METAR LMML NIL=
200910272315 METAR LMML 272315Z VRB03KT CAVOK 16/14 Q1016 NOSIG=
200910272300 METAR LMML NIL=
200910272245 METAR LMML 272245Z VRB03KT CAVOK 16/14 Q1016 NOSIG=
200910272230 METAR LMML NIL=
200910272215 METAR LMML 272215Z VRB03KT CAVOK 16/14 Q1017 NOSIG=
200910272200 METAR LMML NIL=
200910272145 METAR LMML 272145Z 28004KT CAVOK 17/14 Q1017 NOSIG=
200910272115 METAR LMML 272115Z 29004KT CAVOK 17/14 Q1017 NOSIG=
200910272100 METAR LMML NIL=
200910272045 METAR LMML 272045Z VRB02KT CAVOK 17/14 Q1017 NOSIG=
200910272030 METAR LMML NIL=
200910272015 METAR LMML 272015Z 32004KT 9999 FEW018 SCT250 17/14 Q1017
                        NOSIG=
200910272000 METAR LMML NIL=
200910271945 METAR LMML 271945Z VRB03KT 9999 FEW014 17/15 Q1017 NOSIG=
200910271930 METAR LMML NIL=
200910271915 METAR LMML 271915Z VRB03KT 9999 FEW014 17/15 Q1017 NOSIG=
200910271900 METAR LMML NIL=
200910271845 METAR LMML 271845Z 30004KT 240V360 9999 FEW018 SCT250 17/15
                        Q1016 NOSIG=
200910271830 METAR LMML NIL=
200910271815 METAR LMML 271815Z 31004KT 9999 FEW018 SCT250 18/15 Q1016
                        NOSIG=
200910271800 METAR LMML NIL=
200910271745 METAR LMML 271745Z VRB02KT 9999 FEW025 SCT110 18/15 Q1016
                        NOSIG=
200910271730 METAR LMML NIL=
200910271715 METAR LMML 271715Z VRB02KT 9999 FEW025 SCT110 SCT250 18/15
                        Q1016 NOSIG=
200910271700 METAR LMML NIL=
200910271645 METAR LMML 271645Z VRB02KT 9999 FEW025 BKN110 19/15 Q1016
                        NOSIG=
200910271615 METAR LMML 271615Z VRB01KT 9999 FEW025 SCT110 19/15 Q1015
                        NOSIG=
200910271600 METAR LMML NIL=
200910271545 METAR LMML 271545Z VRB03KT 9999 FEW025 SCT110 20/15 Q1015
                        NOSIG=
200910271530 METAR LMML NIL=
200910271515 METAR LMML 271515Z 06004KT 020V080 9999 FEW025 SCT110 20/14
                        Q1015 NOSIG=
200910271500 METAR LMML NIL=
200910271445 METAR LMML 271445Z VRB02KT 9999 FEW022 SCT100 21/15 Q1015
                        NOSIG=
200910271430 METAR LMML NIL=
200910271415 METAR LMML 271415Z VRB01KT 9999 FEW025 20/15 Q1015 NOSIG=
200910271400 METAR LMML NIL=
200910271345 METAR LMML 271345Z VRB03KT 9999 FEW031 19/15 Q1015 NOSIG=
200910271330 METAR LMML NIL=
200910271315 METAR LMML 271315Z 22004KT 200V270 9999 FEW025TCU 19/16 Q1015
                        NOSIG=
200910271300 METAR LMML NIL=
200910271245 METAR LMML 271245Z 20004KT 170V280 9999 SCT025TCU SCT070
                        20/16 Q1015 NOSIG=
200910271215 METAR LMML 271215Z 23004KT 200V270 9999 SCT025 21/16 Q1015
                        NOSIG=
200910271200 METAR LMML NIL=
200910271145 METAR LMML 271145Z VRB03KT 9999 SCT029TCU 21/14 Q1015 NOSIG=
200910271130 METAR LMML NIL=
200910271115 METAR LMML 271115Z VRB03KT 9999 BKN029 23/15 Q1015 NOSIG=
200910271100 METAR LMML NIL=
200910271045 METAR LMML 271045Z 20004KT 160V250 9999 SCT026 22/14 Q1015
                        NOSIG=
200910271030 METAR LMML NIL=
200910271015 METAR LMML 271015Z 18004KT 140V260 9999 SCT028 22/15 Q1015
                        NOSIG=
200910270945 METAR LMML 270945Z VRB01KT 9999 FEW031 23/14 Q1015 NOSIG=
200910270930 METAR LMML NIL=
200910270915 METAR LMML 270915Z VRB01KT 9999 FEW025 22/14 Q1015 NOSIG=
200910270845 METAR LMML 270845Z VRB01KT 9999 FEW025 22/14 Q1015 NOSIG=
200910270815 METAR LMML 270815Z VRB02KT CAVOK 22/14 Q1016 NOSIG=
200910270745 METAR LMML 270745Z VRB01KT CAVOK 20/15 Q1016 NOSIG=
200910270730 METAR LMML NIL=
200910270715 METAR LMML 270715Z VRB01KT CAVOK 19/16 Q1015 NOSIG RMK TCU
                        TOPS TO WEST=
200910270700 METAR LMML NIL=
200910270658 SPECI LMML 270658Z VRB03KT CAVOK 18/16 Q1015 NOSIG=
200910270630 METAR LMML NIL=
200910270615 METAR LMML 270615Z VRB03KT CAVOK 16/15 Q1015 NOSIG RMK TCU
                        TOPS TO WEST=
200910270600 METAR LMML NIL=
200910270545 METAR LMML 270545Z VRB03KT CAVOK 15/14 Q1014 NOSIG RMK TCU
                        TO SOUTHWEST=
200910270530 METAR LMML NIL=
200910270515 METAR LMML 270515Z VRB01KT CAVOK 15/14 Q1014 NOSIG=
200910270500 METAR LMML NIL=
200910270445 METAR LMML 270445Z VRB01KT CAVOK 15/14 Q1014 NOSIG=
200910270430 METAR LMML NIL=
200910270415 METAR LMML 270415Z 00000KT CAVOK 16/15 Q1014 NOSIG=
200910270400 METAR LMML NIL=
200910270345 METAR LMML 270345Z VRB01KT CAVOK 16/14 Q1014 NOSIG=
200910270330 METAR LMML NIL=
200910270315 METAR LMML 270315Z VRB03KT CAVOK 16/15 Q1014 NOSIG=
200910270300 METAR LMML NIL=
200910270245 METAR LMML 270245Z VRB01KT CAVOK 17/15 Q1014 NOSIG=
200910270230 METAR LMML NIL=
200910270215 METAR LMML 270215Z VRB02KT CAVOK 17/15 Q1014 NOSIG=
200910270200 METAR LMML NIL=
200910270145 METAR LMML 270145Z VRB03KT CAVOK 16/15 Q1014 NOSIG=
200910270130 METAR LMML NIL=
200910270100 METAR LMML NIL=
200910270045 METAR LMML 270045Z VRB03KT CAVOK 17/15 Q1014 NOSIG=
200910270030 METAR LMML NIL=
200910270015 METAR LMML 270015Z 32004KT CAVOK 17/15 Q1014 NOSIG=
200910270000 METAR LMML NIL=
200910262345 METAR LMML 262345Z 29004KT CAVOK 17/15 Q1014 NOSIG=
200910262330 METAR LMML NIL=
200910262315 METAR LMML 262315Z 30005KT CAVOK 17/15 Q1014 NOSIG=
200910262300 METAR LMML NIL=
200910262245 METAR LMML 262245Z VRB03KT CAVOK 17/15 Q1014 NOSIG=
200910262230 METAR LMML NIL=
200910262215 METAR LMML 262215Z 31004KT 9999 FEW016 BKN110 17/15 Q1014
                        NOSIG=
200910262200 METAR LMML NIL=
200910262145 METAR LMML 262145Z VRB03KT 9999 FEW016 BKN100 18/16 Q1014
                        NOSIG=
200910262115 METAR LMML 262115Z VRB03KT 9999 FEW016 BKN100 17/15 Q1014
                        NOSIG=
200910262045 METAR LMML 262045Z 31005KT 9999 FEW015 17/15 Q1014 NOSIG=
200910262030 METAR LMML NIL=
200910262015 METAR LMML 262015Z VRB02KT 9999 FEW015 SCT100 17/15 Q1014
                        NOSIG=
200910262000 METAR LMML NIL=
200910261945 METAR LMML 261945Z VRB03KT 9999 FEW015 SCT100 18/15 Q1014
                        NOSIG=
200910261930 METAR LMML NIL=
200910261915 METAR LMML 261915Z 01004KT 9999 FEW015 SCT100 18/15 Q1014
                        NOSIG=
200910261900 METAR LMML NIL=
200910261845 METAR LMML 261845Z 02007KT 350V050 9999 FEW015 SCT100 18/15
                        Q1014 NOSIG=
200910261815 METAR LMML 261815Z 01006KT 9999 FEW015 SCT080 18/15 Q1014
                        NOSIG=
200910261800 METAR LMML NIL=
200910261745 METAR LMML 261745Z 01007KT 9999 FEW020 18/15 Q1014 NOSIG=
200910261715 METAR LMML 261715Z 36007KT 9999 FEW020 SCT070 18/15 Q1013
                        NOSIG=
200910261700 METAR LMML NIL=
200910261645 METAR LMML 261645Z 01006KT 9999 FEW018 SCT070 18/15 Q1013
                        NOSIG=
200910261630 METAR LMML NIL=
200910261615 METAR LMML 261615Z 01007KT 9999 FEW018 SCT070 19/15 Q1013
                        NOSIG=
200910261600 METAR LMML NIL=
200910261545 METAR LMML 261545Z 03007KT 9999 FEW016 SCT070 20/15 Q1013
                        NOSIG=
200910261530 METAR LMML NIL=
200910261515 METAR LMML 261515Z 03009KT 360V060 9999 FEW016 20/15 Q1012
                        NOSIG=
200910261500 METAR LMML NIL=
200910261430 METAR LMML NIL=
200910261415 METAR LMML 261415Z 01011KT 9999 SCT016 SCT070 21/16 Q1012
                        NOSIG=
200910261400 METAR LMML NIL=
200910261345 METAR LMML 261345Z 01010KT 340V040 9999 SCT017 BKN070 21/16
                        Q1012 NOSIG=
200910261330 METAR LMML NIL=
200910261315 METAR LMML 261315Z 01009KT 340V040 9999 SCT017 21/15 Q1012
                        NOSIG=
200910261300 METAR LMML NIL=
200910261245 METAR LMML 261245Z 01010KT 340V040 9999 SCT018 SCT090 21/16
                        Q1012 NOSIG=
200910261230 METAR LMML NIL=
200910261215 METAR LMML 261215Z 01013KT 9999 SCT018 SCT080 20/15 Q1012
                        NOSIG=
200910261200 METAR LMML NIL=
200910261145 METAR LMML 261145Z 01010KT 350V050 9999 FEW019 22/16 Q1012
                        NOSIG=
200910261115 METAR LMML 261115Z 01011G22KT 330V050 9999 FEW021 22/15 Q1012
                        NOSIG=
200910261045 METAR LMML 261045Z 03011KT 360V070 9999 SCT021 22/15 Q1012
                        NOSIG=
200910261030 METAR LMML NIL=
200910261015 METAR LMML 261015Z 01011KT 340V040 9999 BKN020 21/15 Q1013
                        NOSIG=
200910261000 METAR LMML NIL=
200910260945 METAR LMML 260945Z 36012KT 330V030 9999 SCT022 BKN090 20/15
                        Q1013 NOSIG=
200910260930 METAR LMML NIL=
200910260915 METAR LMML 260915Z 36011KT 9999 SCT023 21/15 Q1013 NOSIG=
200910260900 METAR LMML NIL=
200910260845 METAR LMML 260845Z 01011KT 340V050 9999 FEW025 21/14 Q1012
                        NOSIG=
200910260830 METAR LMML NIL=
200910260815 METAR LMML 260815Z 36012KT 9999 FEW025 SCT040 20/14 Q1012
                        NOSIG=
200910260800 METAR LMML NIL=
200910260745 METAR LMML 260745Z 01012KT 340V040 9999 FEW025 20/14 Q1012
                        NOSIG=
200910260730 METAR LMML NIL=
200910260715 METAR LMML 260715Z 01008KT 330V040 9999 FEW029 SCT036 19/14
                        Q1012 NOSIG=
200910260700 METAR LMML NIL=
200910260645 METAR LMML 260645Z 35010KT 320V020 9999 FEW025 SCT034 19/13
                        Q1012 NOSIG=
200910260630 METAR LMML NIL=
200910260615 METAR LMML 260615Z 36008KT 330V030 9999 FEW035 18/13 Q1011
                        NOSIG=
200910260600 METAR LMML NIL=
200910260545 METAR LMML 260545Z 35009KT 9999 FEW029 18/13 Q1011 NOSIG=
200910260515 METAR LMML 260515Z 34007KT 9999 FEW029 17/14 Q1011 NOSIG=
200910260500 METAR LMML NIL=
200910260445 METAR LMML 260445Z 35008KT 320V020 9999 FEW029 17/14 Q1011
                        NOSIG=
200910260430 METAR LMML NIL=
200910260415 METAR LMML 260415Z 35007KT 9999 FEW029 18/14 Q1011 NOSIG=
200910260345 METAR LMML 260345Z 01008KT 350V050 9999 FEW029 18/13 Q1011
                        NOSIG=
200910260330 METAR LMML NIL=
200910260315 METAR LMML 260315Z 36008KT 9999 FEW030 18/13 Q1010 NOSIG=
200910260300 METAR LMML NIL=
200910260245 METAR LMML 260245Z 35006KT 9999 FEW030 18/14 Q1010 NOSIG=
200910260230 METAR LMML NIL=
200910260215 METAR LMML 260215Z 36009KT 9999 FEW030 18/14 Q1010 NOSIG=
200910260200 METAR LMML NIL=
200910260145 METAR LMML 260145Z 36008KT 9999 FEW030 18/14 Q1010 NOSIG=
200910260130 METAR LMML NIL=
200910260115 METAR LMML 260115Z 01008KT 9999 FEW030 18/14 Q1010 NOSIG=
200910260100 METAR LMML NIL=
200910260045 METAR LMML 260045Z 01009KT 9999 FEW040 18/15 Q1010 NOSIG=
200910260015 METAR LMML 260015Z 01008KT 9999 FEW041 18/15 Q1011 NOSIG=
200910260000 METAR LMML NIL=
200910252345 METAR LMML 252345Z 01010KT 9999 FEW014 18/15 Q1011 NOSIG=
200910252330 METAR LMML NIL=
200910252315 METAR LMML 252315Z 01009G19KT 9999 FEW014 18/16 Q1010 NOSIG=
200910252245 METAR LMML 252245Z 01010KT 340V040 9999 FEW014 18/16 Q1011
                        NOSIG=
200910252230 METAR LMML NIL=
200910252215 METAR LMML 252215Z 01010KT 340V040 9999 SCT015 18/15 Q1010
                        NOSIG=
200910252145 METAR LMML 252145Z 01009KT 350V050 9999 FEW016 18/15 Q1011
                        NOSIG=
200910252115 METAR LMML 252115Z 02009KT 9999 FEW015 18/14 Q1011 NOSIG=
200910252100 METAR LMML NIL=
200910252045 METAR LMML 252045Z 02009KT 350V060 9999 FEW015 18/14 Q1011
                        NOSIG=
200910252015 METAR LMML 252015Z 02007KT 360V060 9999 FEW015 18/15 Q1010
                        NOSIG=
200910252000 METAR LMML NIL=
200910251945 METAR LMML 251945Z 02008KT 350V060 9999 FEW015 18/15 Q1010
                        NOSIG=
200910251930 METAR LMML NIL=
200910251915 METAR LMML 251915Z 02009G24KT 340V060 9999 FEW015 18/13 Q1010
                        NOSIG=
200910251900 METAR LMML NIL=
200910251845 METAR LMML 251845Z 02010KT 350V050 9999 FEW013 18/16 Q1009
                        TEMPO 8000 SHRA=
200910251830 METAR LMML NIL=
200910251815 METAR LMML 251815Z 02010G20KT 350V060 9999 FEW013 19/16 Q1009
                        TEMPO 8000 SHRA=
200910251800 METAR LMML NIL=
200910251745 METAR LMML 251745Z 02009G19KT 340V050 9999 FEW013 18/16 Q1009
                        TEMPO SHRA=
200910251730 METAR LMML NIL=
200910251715 METAR LMML 251715Z 01010KT 9999 FEW016 18/15 Q1009 TEMPO
                        SHRA=
200910251700 METAR LMML NIL=
200910251645 METAR LMML 251645Z 01011KT 330V040 9999 FEW016 19/16 Q1009
                        NOSIG=
200910251630 METAR LMML NIL=
200910251615 METAR LMML 251615Z 01011KT 9999 FEW017 19/16 Q1008 NOSIG=
200910251600 METAR LMML NIL=
200910251545 METAR LMML 251545Z 02013KT 9999 FEW017 20/15 Q1008 NOSIG=
200910251530 METAR LMML NIL=
200910251515 METAR LMML 251515Z 02014KT 9999 FEW017 20/15 Q1007 NOSIG=
200910251500 METAR LMML NIL=
200910251445 METAR LMML 251445Z 02012KT 9999 FEW017 20/15 Q1007 NOSIG
                        RMK CB TOPS TO NE=
200910251430 METAR LMML NIL=
200910251415 METAR LMML 251415Z 02012KT 350V060 9999 FEW016 21/16 Q1007
                        NOSIG=
200910251400 METAR LMML NIL=
200910251345 METAR LMML 251345Z 01013KT 9999 FEW017 21/16 Q1007 NOSIG=
200910251330 METAR LMML NIL=
200910251315 METAR LMML 251315Z 02012KT 350V050 9999 FEW015 21/15 Q1007
                        NOSIG=
200910251300 METAR LMML NIL=
200910251245 METAR LMML 251245Z 01012G24KT 330V040 9999 SCT015 21/16 Q1007
                        NOSIG=
200910251230 METAR LMML NIL=
200910251215 METAR LMML 251215Z 01014G24KT 350V050 9999 SCT015 21/16 Q1007
                        NOSIG=
200910251200 SPECI LMML 251200Z 02013KT 9999 SCT015 21/16 Q1006 NOSIG=
200910251200 METAR LMML NIL=
200910251115 METAR LMML 251115Z 02012KT 9999 SCT015 20/16 Q1007 NOSIG=
200910251045 METAR LMML 251045Z 36014KT 330V030 9999 SCT016 20/15 Q1007
                        NOSIG=
200910251030 METAR LMML NIL=
200910251015 METAR LMML 251015Z 02013KT 350V050 9999 SCT016 20/15 Q1007
                        NOSIG=
200910251000 METAR LMML NIL=
200910250945 METAR LMML 250945Z 01012G23KT 9999 SCT015 20/15 Q1007 NOSIG=
200910250930 METAR LMML NIL=
200910250915 METAR LMML 250915Z 02010KT 340V060 9999 SCT013 21/16 Q1007
                        NOSIG=
200910250900 METAR LMML NIL=
200910250845 METAR LMML 250845Z 01010KT 340V050 9999 SCT013 20/16 Q1007
                        NOSIG=
200910250830 METAR LMML NIL=
200910250800 METAR LMML NIL=
200910250745 METAR LMML 250745Z 01012KT 9999 FEW022 SCT120 19/15 Q1006
                        NOSIG=
200910250730 METAR LMML NIL=
200910250715 METAR LMML 250715Z 36010KT 330V030 9999 FEW022 19/14 Q1006
                        NOSIG=
200910250700 METAR LMML NIL=
200910250645 METAR LMML 250645Z 36008KT 9999 FEW020 SCT120 18/13 Q1006
                        NOSIG=
200910250630 METAR LMML NIL=
200910250615 METAR LMML 250615Z 35007KT 9999 FEW020 17/13 Q1005 NOSIG=
200910250600 METAR LMML NIL=
200910250545 METAR LMML 250545Z 36008KT 9999 FEW020 17/14 Q1005 NOSIG=
200910250530 METAR LMML NIL=
200910250515 METAR LMML 250515Z 34008KT 9999 FEW016 17/14 Q1005 NOSIG=
200910250445 METAR LMML 250445Z 34009KT 9999 FEW016 17/14 Q1004 NOSIG=
200910250415 METAR LMML 250415Z 34010KT 9999 FEW016 17/14 Q1004 NOSIG=
200910250400 METAR LMML NIL=
200910250345 METAR LMML 250345Z 34012KT 9999 FEW016 17/15 Q1005 NOSIG=
200910250330 METAR LMML NIL=
200910250315 METAR LMML 250315Z 33010KT 9999 FEW016 17/15 Q1004 NOSIG=
200910250300 METAR LMML NIL=
200910250245 METAR LMML 250245Z 34011KT 310V010 9999 SCT015 17/14 Q1004
                        NOSIG=
200910250230 METAR LMML NIL=
200910250215 METAR LMML 250215Z 33011KT 9999 FEW015 17/14 Q1004 NOSIG=
200910250200 METAR LMML NIL=
200910250145 METAR LMML 250145Z 32011KT 9999 SCT020 17/15 Q1004 NOSIG=
200910250130 METAR LMML NIL=
200910250115 METAR LMML 250115Z 31012KT 9999 FEW017 SCT100 17/15 Q1004
                        NOSIG=
200910250100 METAR LMML NIL=
200910250045 METAR LMML 250045Z 32012KT 9999 FEW014 SCT100 17/14 Q1004
                        NOSIG=
200910250030 METAR LMML NIL=
200910250015 METAR LMML 250015Z 32012KT 9999 SCT014 17/15 Q1005 NOSIG=
200910250000 METAR LMML NIL=
200910242345 METAR LMML 242345Z 32014KT 9999 SCT013 17/15 Q1004 NOSIG=
200910242330 METAR LMML NIL=
200910242315 METAR LMML 242315Z 32017KT 9999 SCT016 18/15 Q1005 NOSIG=
200910242300 METAR LMML NIL=
200910242245 METAR LMML 242245Z 32016KT 9999 SCT016 18/15 Q1005 NOSIG=
200910242230 METAR LMML NIL=
200910242215 METAR LMML 242215Z 32015KT 9999 SCT017 18/15 Q1005 NOSIG=
200910242200 METAR LMML NIL=
200910242145 METAR LMML 242145Z 32015KT 9999 SCT017 17/15 Q1005 NOSIG=
200910242130 METAR LMML NIL=
200910242115 METAR LMML 242115Z 31016KT 9999 SCT017 17/15 Q1005 NOSIG=
200910242100 METAR LMML NIL=
200910242045 METAR LMML 242045Z 31014KT 9999 SCT017 17/15 Q1005 NOSIG=
200910242030 METAR LMML NIL=
200910242015 METAR COR LMML 242015Z 32016KT 9999 SCT019 18/14 Q1005 NOSIG=
200910242000 METAR LMML NIL=
200910241945 METAR LMML 241945Z 31013KT 9999 SCT017 17/14 Q1005 NOSIG=
200910241930 METAR LMML NIL=
200910241915 METAR LMML 241915Z 30017KT 270V340 9999 -SHRA SCT019 17/14
                        Q1005 NOSIG=
200910241900 METAR LMML NIL=
200910241845 METAR LMML 241845Z 30019KT 270V330 9999 SCT017 SCT120 17/14
                        Q1005 NOSIG=
200910241830 METAR LMML NIL=
200910241815 METAR LMML 241815Z 30018KT 260V330 9999 SCT018 BKN120 17/14
                        Q1005 NOSIG=
200910241800 METAR LMML NIL=
200910241745 METAR LMML 241745Z 30019G29KT 9999 SCT022 SCT060 17/14 Q1006
                        NOSIG=
200910241730 METAR LMML NIL=
200910241715 METAR LMML 241715Z 29017KT 9999 -SHRA SCT025 18/13 Q1006
                        NOSIG=
200910241700 METAR LMML NIL=
200910241645 METAR LMML 241645Z 29017KT 260V320 9999 FEW025 SCT060 BKN110
                        18/13 Q1006 NOSIG=
200910241630 METAR LMML NIL=
200910241615 METAR LMML 241615Z 29017KT 9999 FEW025 BKN090 18/13 Q1006
                        NOSIG=
200910241600 METAR LMML NIL=
200910241545 METAR LMML 241545Z 29017G27KT 230V320 9999 SCT023 SCT130
                        18/13 Q1006 NOSIG=
200910241530 METAR LMML NIL=
200910241515 METAR LMML 241515Z 29019KT 250V320 9999 SCT024 SCT060 18/13
                        Q1006 NOSIG=
200910241500 METAR LMML NIL=
200910241445 METAR LMML 241445Z 29018KT 250V320 9999 SCT025 SCT080 19/13
                        Q1006 NOSIG=
200910241430 METAR LMML NIL=
200910241415 METAR LMML 241415Z 29018KT 9999 SCT026 19/13 Q1006 NOSIG=
200910241400 METAR LMML NIL=
200910241345 METAR LMML 241345Z 29018KT 260V330 9999 SCT027 20/13 Q1006
                        NOSIG=
200910241330 METAR LMML NIL=
200910241315 METAR LMML 241315Z 29021KT 9999 SCT027 20/13 Q1006 NOSIG=
200910241300 METAR LMML NIL=
200910241245 METAR LMML 241245Z 28024KT 9999 SCT027 20/13 Q1006 NOSIG=
200910241230 METAR LMML NIL=
200910241215 METAR LMML 241215Z 29023KT 250V310 9999 FEW028 20/13 Q1006
                        NOSIG=
200910241200 METAR LMML NIL=
200910241145 METAR LMML 241145Z 29021G31KT 260V320 9999 FEW029 20/12 Q1006
                        NOSIG=
200910241130 METAR LMML NIL=
200910241115 METAR LMML 241115Z 29022KT 9999 FEW030 20/13 Q1007 NOSIG=
200910241100 METAR LMML NIL=
200910241045 METAR LMML 241045Z 29023KT 250V320 9999 FEW029 20/12 Q1007
                        NOSIG=
200910241030 METAR LMML NIL=
200910241015 METAR LMML 241015Z 29023KT 9999 FEW029 20/13 Q1007 NOSIG=
200910241000 METAR LMML NIL=
200910240945 METAR LMML 240945Z 29023KT 260V320 9999 FEW032 20/12 Q1008
                        NOSIG=
200910240930 METAR LMML NIL=
200910240915 METAR LMML 240915Z 28023KT 250V310 9999 FEW032 20/12 Q1008
                        NOSIG=
200910240900 METAR LMML NIL=
200910240845 METAR LMML 240845Z 29024KT 250V310 9999 FEW033 19/11 Q1008
                        NOSIG=
200910240830 METAR LMML NIL=
200910240815 METAR LMML 240815Z 29020KT 250V320 9999 FEW033 19/11 Q1008
                        NOSIG=
200910240800 METAR LMML NIL=
200910240745 METAR LMML 240745Z 29017KT 260V320 9999 FEW033 19/11 Q1008
                        NOSIG=
200910240730 METAR LMML NIL=
200910240715 METAR LMML 240715Z 29020KT 9999 FEW034 19/11 Q1007 NOSIG=
200910240700 METAR LMML NIL=
200910240645 METAR LMML 240645Z 29019KT 9999 FEW035 18/10 Q1007 NOSIG=
200910240630 METAR LMML NIL=
200910240615 METAR LMML 240615Z 30014KT 9999 FEW035 18/11 Q1007 NOSIG=
200910240600 METAR LMML NIL=
200910240545 METAR LMML 240545Z 29018KT 250V320 9999 FEW030 17/11 Q1007
                        NOSIG=
200910240530 METAR LMML NIL=
200910240515 METAR LMML 240515Z 29019KT 260V320 9999 FEW032 17/11 Q1007
                        NOSIG=
200910240500 METAR LMML NIL=
200910240445 METAR LMML 240445Z 29019G29KT 250V320 9999 FEW031 17/11 Q1007
                        NOSIG=
200910240430 METAR LMML NIL=
200910240415 METAR LMML 240415Z 30020KT 260V360 9999 FEW034 17/10 Q1007
                        NOSIG=
200910240400 METAR LMML NIL=
200910240345 METAR LMML 240345Z 29019KT 260V320 9999 FEW034 17/10 Q1008
                        NOSIG=
200910240330 METAR LMML NIL=
200910240315 METAR LMML 240315Z 29018KT 260V320 9999 FEW034 17/10 Q1007
                        NOSIG=
200910240300 METAR LMML NIL=
200910240245 METAR LMML 240245Z 30020G32KT 270V330 9999 FEW038 17/10 Q1007
                        NOSIG=
200910240230 METAR LMML NIL=
200910240215 METAR LMML 240215Z 29023G35KT 260V330 9999 SCT032 18/10 Q1008
                        NOSIG=
200910240200 METAR LMML NIL=
200910240145 METAR LMML 240145Z 29022KT 260V320 9999 SCT032 18/11 Q1008
                        NOSIG=
200910240130 METAR LMML NIL=
200910240115 METAR LMML 240115Z 29021G35KT 250V320 9999 FEW034 SCT049
                        18/11 Q1008 NOSIG=
200910240100 METAR LMML NIL=
200910240045 METAR LMML 240045Z 29021G34KT 250V330 9999 BKN035 18/10 Q1008
                        NOSIG=
200910240030 METAR LMML NIL=
200910240015 METAR LMML 240015Z 29022G32KT 260V320 9999 BKN036 18/10 Q1008
                        NOSIG=
200910240000 METAR LMML NIL=
200910232345 METAR LMML 232345Z 29020KT 260V320 9999 BKN036 18/11 Q1009
                        NOSIG=
200910232330 METAR LMML NIL=
200910232315 METAR LMML 232315Z 28020G31KT 250V320 9999 BKN039 18/10 Q1009
                        NOSIG=
200910232300 METAR LMML NIL=
200910232245 METAR LMML 232245Z 29022KT 250V320 9999 SCT039 18/10 Q1009
                        NOSIG=
200910232230 METAR LMML NIL=
200910232215 METAR LMML 232215Z 29022KT 250V310 9999 SCT036 18/10 Q1009
                        NOSIG=
200910232200 METAR LMML NIL=
200910232145 METAR LMML 232145Z 28022KT 250V310 9999 SCT036 18/11 Q1009
                        NOSIG=
200910232130 METAR LMML NIL=
200910232115 METAR LMML 232115Z 28020G30KT 250V320 9999 SCT037 18/11 Q1009
                        NOSIG=
200910232100 METAR LMML NIL=
200910232045 METAR LMML 232045Z 28020KT 240V300 9999 SCT038 19/11 Q1010
                        NOSIG=
200910232030 METAR LMML NIL=
200910232015 METAR LMML 232015Z 28024G36KT 9999 SCT038 19/10 Q1009 NOSIG=
200910232000 METAR LMML NIL=
200910231945 METAR LMML 231945Z 28028KT 9999 SCT037 19/11 Q1009 NOSIG=
200910231930 METAR LMML NIL=
200910231915 METAR LMML 231915Z 28024G34KT 250V310 9999 SCT036 19/12 Q1009
                        NOSIG=
200910231900 METAR LMML NIL=
200910231845 METAR LMML 231845Z 28023G34KT 250V310 9999 FEW033 19/12 Q1009
                        NOSIG=
200910231830 METAR LMML NIL=
200910231815 METAR LMML 231815Z 27021KT 240V300 9000 -SHRA BKN029 18/14
                        Q1009 NOSIG=
200910231800 METAR LMML NIL=
200910231745 METAR LMML 231745Z 28017KT 240V310 9999 SCT034 19/13 Q1009
                        NOSIG=
200910231730 METAR LMML NIL=
200910231715 METAR LMML 231715Z 28026G39KT 240V300 9999 BKN038 19/12 Q1009
                        NOSIG=
200910231700 METAR LMML NIL=
200910231645 METAR LMML 231645Z 28017KT 240V310 9999 BKN036 19/14 Q1009
                        NOSIG=
200910231630 METAR LMML NIL=
200910231615 METAR LMML 231615Z 27022KT 230V300 5000 -SHRA BKN038 21/12
                        Q1009 NOSIG=
200910231600 METAR LMML NIL=
200910231545 METAR LMML 231545Z 27025G38KT 240V300 9999 BKN036 21/11 Q1008
                        NOSIG=
200910231530 METAR LMML NIL=
200910231515 METAR LMML 231515Z 27022KT 240V300 9999 SCT036 21/12 Q1008
                        NOSIG=
200910231500 METAR LMML NIL=
200910231445 METAR LMML 231445Z 26023KT 230V310 9999 SCT041 21/12 Q1008
                        NOSIG=
200910231430 METAR LMML NIL=
200910231415 METAR LMML 231415Z 26020KT 220V300 9999 SCT042 21/12 Q1008
                        NOSIG=
200910231400 METAR LMML NIL=
200910231345 METAR LMML 231345Z 27022KT 240V300 9999 FEW042 22/11 Q1008
                        NOSIG=
200910231330 METAR LMML NIL=
200910231315 METAR LMML 231315Z 27019KT 230V300 9999 SCT038 21/12 Q1009
                        NOSIG=
200910231300 METAR LMML NIL=
200910231245 METAR LMML 231245Z 27021KT 230V310 9999 BKN035 22/12 Q1009
                        NOSIG=
200910231230 METAR LMML NIL=
200910231215 METAR LMML 231215Z 27021KT 230V310 9999 SCT036 22/12 Q1009
                        NOSIG=
200910231200 METAR LMML NIL=
200910231145 METAR LMML 231145Z 27018KT 230V310 9999 FEW034 22/13 Q1009
                        NOSIG=
200910231130 METAR LMML NIL=
200910231115 METAR LMML 231115Z 27018KT 220V300 9999 FEW036 22/13 Q1009
                        NOSIG=
200910231100 METAR LMML NIL=
200910231045 METAR LMML 231045Z 27016KT 230V320 9999 FEW036 22/13 Q1009
                        NOSIG=
200910231030 METAR LMML NIL=
200910231015 METAR LMML 231015Z 27019KT 230V300 9999 SCT036 22/12 Q1010
                        NOSIG=
200910231000 METAR LMML NIL=
200910230945 METAR LMML 230945Z 27018KT 230V300 9999 SCT030 22/13 Q1010
                        NOSIG=
200910230930 METAR LMML NIL=
200910230915 METAR LMML 230915Z 28015KT 230V310 9999 FEW030 SCT100 22/13
                        Q1010 NOSIG=
200910230900 METAR LMML NIL=
200910230845 METAR LMML 230845Z 25009KT 220V290 9999 FEW025 SCT100 21/14
                        Q1010 NOSIG=
200910230830 METAR LMML NIL=
200910230815 METAR LMML 230815Z 25007KT 200V290 9999 FEW025 BKN100 20/13
                        Q1010 NOSIG=
200910230800 METAR LMML NIL=
200910230745 METAR LMML 230745Z 28008KT 240V300 9999 FEW025 BKN080 18/12
                        Q1009 NOSIG=
200910230730 METAR LMML NIL=
200910230715 METAR LMML 230715Z 29013KT 9999 FEW025 BKN080 19/12 Q1009
                        TEMPO 8000 TSRA BKN050CB=
200910230700 METAR LMML NIL=
200910230645 METAR LMML 230645Z 30014KT 9999 FEW025 BKN100 20/13 Q1009
                        TEMPO 8000 TSRA BKN050CB=
200910230630 METAR LMML NIL=
200910230615 METAR LMML 230615Z 31009KT 9999 FEW025 BKN120 19/14 Q1008
                        TEMPO 8000 TSRA BKN050CB=
200910230600 METAR LMML NIL=
200910230545 METAR LMML 230545Z 31009KT 9000 NSC 19/14 Q1008 NOSIG=
200910230530 METAR LMML NIL=
200910230515 METAR LMML 230515Z 32010KT 9000 NSC 19/14 Q1008 NOSIG=
200910230500 METAR LMML NIL=
200910230445 METAR LMML 230445Z 32010KT 9000 NSC 19/14 Q1008 NOSIG=
200910230430 METAR LMML NIL=
200910230415 METAR LMML 230415Z 32012KT 9000 NSC 19/14 Q1007 NOSIG=
200910230400 METAR LMML NIL=
200910230345 METAR LMML 230345Z 32017KT 9000 NSC 20/14 Q1008 NOSIG=
200910230330 METAR LMML NIL=
200910230315 METAR LMML 230315Z 30016G26KT 9000 NSC 21/16 Q1007 NOSIG=
200910230300 METAR LMML NIL=
200910230245 METAR LMML 230245Z 25013KT 200V280 9000 NSC 24/18 Q1007 BECMG
                        29015KT=
200910230230 METAR LMML NIL=
200910230215 METAR LMML 230215Z 21009KT 160V260 9000 NSC 23/19 Q1006 BECMG
                        29015KT=
200910230200 METAR LMML NIL=
200910230145 METAR LMML 230145Z 20009KT 170V240 9000 NSC 23/20 Q1006 BECMG
                        29015KT=
200910230130 METAR LMML NIL=
200910230115 METAR LMML 230115Z 19010KT 160V230 9000 NSC 23/20 Q1006 NOSIG=
200910230100 METAR LMML NIL=
200910230045 METAR LMML 230045Z 19009KT 150V240 9000 NSC 23/20 Q1007 NOSIG=
200910230015 METAR LMML 230015Z 19009KT 160V220 9000 NSC 23/20 Q1007 NOSIG=
200910230000 METAR LMML NIL=
200910222345 METAR LMML 222345Z 17010KT 140V210 9000 NSC 23/20 Q1007 NOSIG=
200910222330 METAR LMML NIL=
200910222315 METAR LMML 222315Z 17009KT 140V220 9000 NSC 23/20 Q1007 NOSIG=
200910222300 METAR LMML NIL=
200910222245 METAR LMML 222245Z 18011KT 140V220 9000 NSC 23/20 Q1007 NOSIG=
200910222230 METAR LMML NIL=
200910222215 METAR LMML 222215Z 18010KT 140V210 9000 NSC 23/20 Q1008 TEMPO
                        SHRA=
200910222200 METAR LMML NIL=
200910222145 METAR LMML 222145Z 18010KT 140V210 9000 NSC 23/20 Q1008 TEMPO
                        SHRA=
200910222130 METAR LMML NIL=
200910222115 METAR LMML 222115Z 18007KT 130V210 9000 NSC 23/20 Q1008 TEMPO
                        SHRA=
200910222100 METAR LMML NIL=
200910222045 METAR LMML 222045Z 16009KT 130V210 9000 NSC 23/20 Q1008 TEMPO
                        SHRA=
200910222030 METAR LMML NIL=
200910222015 METAR LMML 222015Z 17009KT 140V200 9000 NSC 23/20 Q1009 TEMPO
                        SHRA=
200910222000 METAR LMML NIL=
200910221945 METAR LMML 221945Z 17010KT 140V200 9000 -RA NSC 23/20 Q1009
                        TEMPO SHRA=
200910221930 METAR LMML NIL=
200910221915 METAR LMML 221915Z 17010KT 140V200 9000 NSC 23/20 Q1009 NOSIG=
200910221900 METAR LMML NIL=
200910221845 METAR LMML 221845Z 17011KT 9000 NSC 22/20 Q1009 NOSIG=
200910221830 METAR LMML NIL=
200910221815 METAR LMML 221815Z 17011KT 140V210 9000 NSC 22/20 Q1009 TEMPO
                        SHRA=
200910221800 METAR LMML NIL=
200910221745 METAR LMML 221745Z 17011KT 140V200 9000 NSC 22/20 Q1009 TEMPO
                        SHRA=
200910221730 METAR LMML NIL=
200910221715 METAR LMML 221715Z 18013KT 150V220 9000 NSC 22/20 Q1009 NOSIG=
200910221700 METAR LMML NIL=
200910221645 METAR LMML 221645Z 18012KT 150V210 9000 NSC 22/20 Q1009 NOSIG=
200910221630 METAR LMML NIL=
200910221615 METAR LMML 221615Z 18012KT 150V220 9000 NSC 22/20 Q1009 NOSIG=
200910221600 METAR LMML NIL=
200910221545 METAR LMML 221545Z 18011KT 9000 NSC 23/20 Q1009 NOSIG=
200910221530 METAR LMML NIL=
200910221515 METAR LMML 221515Z 17011KT 130V210 9000 NSC 23/20 Q1009 NOSIG=
200910221500 METAR LMML NIL=
200910221445 METAR LMML 221445Z 17010KT 140V200 9000 NSC 23/20 Q1010 NOSIG=
200910221430 METAR LMML NIL=
200910221415 METAR LMML 221415Z 18011KT 150V210 9000 NSC 24/20 Q1010 NOSIG=
200910221400 METAR LMML NIL=
200910221345 METAR LMML 221345Z 17011KT 9000 NSC 25/20 Q1010 NOSIG=
200910221330 METAR LMML NIL=
200910221315 METAR LMML 221315Z 18011KT 140V220 9000 NSC 24/20 Q1010 NOSIG=
200910221300 METAR LMML NIL=
200910221245 METAR LMML 221245Z 17012KT 140V210 9000 NSC 24/20 Q1011 NOSIG=
200910221230 METAR LMML NIL=
200910221215 METAR LMML 221215Z 16010KT 130V210 9000 NSC 25/18 Q1011 NOSIG=
200910221200 METAR LMML NIL=
200910221145 METAR LMML 221145Z 19005KT 160V250 9000 NSC 26/17 Q1011 NOSIG=
200910221130 METAR LMML NIL=
200910221115 METAR COR LMML 221115Z 17009KT 9000 NSC 25/19 Q1012 TEMPO
                        5000 SHRA=
200910221100 METAR LMML NIL=
200910221045 METAR LMML 221045Z 17013KT 140V210 9000 NSC 24/20 Q1012 TEMPO
                        5000 SHRA=
200910221030 METAR LMML NIL=
200910221015 METAR LMML 221015Z 16011KT 140V200 9000 NSC 24/20 Q1012 NOSIG=
200910221000 METAR LMML NIL=
200910220945 METAR LMML 220945Z 17008KT 130V220 9000 NSC 24/20 Q1012 NOSIG=
200910220930 METAR LMML NIL=
200910220915 METAR LMML 220915Z 17010KT 140V200 9000 FEW060TCU BKN120
                        BKN250 24/20 Q1012 TEMPO 5000 SHRA=
200910220900 METAR LMML NIL=
200910220845 METAR LMML 220845Z 18010KT 150V220 9000 NSC 24/19 Q1013 TEMPO
                        6000 TSRA BKN015CB=
200910220830 METAR LMML NIL=
200910220815 METAR LMML 220815Z 18010KT 150V220 9000 NSC 24/20 Q1013 TEMPO
                        6000 TSRA BKN015CB=
200910220800 METAR LMML NIL=
200910220745 METAR LMML 220745Z 18011KT 150V220 9000 NSC 23/20 Q1013 TEMPO
                        6000 TSRA BKN015CB=
200910220730 METAR LMML NIL=
200910220715 METAR LMML 220715Z 19011KT 150V220 9000 NSC 23/19 Q1013 NOSIG=
200910220700 METAR LMML NIL=
200910220645 METAR LMML 220645Z 18010KT 160V220 9000 NSC 23/19 Q1013 NOSIG=
200910220630 METAR LMML NIL=
200910220615 METAR LMML 220615Z 19009KT 160V220 9000 FEW040 BKN120 23/19
                        Q1012 NOSIG=
200910220600 METAR LMML NIL=
200910220545 METAR LMML 220545Z 20009KT 160V240 9000 FEW040 BKN120 23/19
                        Q1013 NOSIG=
200910220530 METAR LMML NIL=
200910220515 METAR LMML 220515Z 20010KT 150V250 9999 FEW040 SCT090 BKN120
                        23/19 Q1012 NOSIG=
200910220500 METAR LMML NIL=
200910220445 METAR LMML 220445Z 17012KT 140V210 CAVOK 23/19 Q1011 NOSIG=
200910220430 METAR LMML NIL=
200910220415 METAR LMML 220415Z 17014KT 140V210 CAVOK 23/19 Q1011 NOSIG=
200910220345 METAR LMML 220345Z 18012KT 140V210 CAVOK 23/18 Q1012 NOSIG=
200910220330 METAR LMML NIL=
200910220315 METAR LMML 220315Z 17011KT 150V210 CAVOK 23/18 Q1012 NOSIG=
200910220245 METAR LMML 220245Z 16010KT 130V220 CAVOK 23/18 Q1012 NOSIG=
200910220230 METAR LMML NIL=
200910220215 METAR LMML 220215Z 16013KT CAVOK 23/18 Q1012 NOSIG=
200910220200 METAR LMML NIL=
200910220145 METAR LMML 220145Z 16010KT CAVOK 23/19 Q1013 NOSIG=
200910220130 METAR LMML NIL=
200910220115 METAR LMML 220115Z 16011KT CAVOK 23/19 Q1013 NOSIG=
200910220045 METAR LMML 220045Z 15011KT 9999 FEW040 BKN120 23/18 Q1013
                        NOSIG=
200910220030 METAR LMML NIL=
200910220015 METAR LMML 220015Z 16010KT 9999 FEW040 BKN120 23/18 Q1014
                        NOSIG=
200910220000 METAR LMML NIL=
200910212345 METAR LMML 212345Z 17015KT 140V200 9999 FEW042 BKN120 24/17
                        Q1014 NOSIG=
200910212330 METAR LMML NIL=
200910212315 METAR LMML 212315Z 16019KT 9999 FEW044 BKN090 24/17 Q1013
                        NOSIG=
200910212300 METAR LMML NIL=
200910212245 METAR LMML 212245Z 17015KT 140V200 9999 FEW036 BKN100 23/18
                        Q1014 NOSIG=
200910212230 METAR LMML NIL=
200910212215 METAR LMML 212215Z 19016G27KT 160V240 9999 -RA NSC 23/19
                        Q1015 NOSIG=
200910212200 METAR LMML NIL=
200910212145 METAR LMML 212145Z 18010KT 130V220 CAVOK 23/19 Q1015 NOSIG=
200910212130 METAR LMML NIL=
200910212115 METAR LMML 212115Z 19008KT CAVOK 22/19 Q1015 NOSIG=
200910212100 METAR LMML NIL=
200910212045 METAR LMML 212045Z 16009KT 120V190 CAVOK 22/19 Q1015 NOSIG=
200910212030 METAR LMML NIL=
200910212015 METAR LMML 212015Z 16012KT CAVOK 22/19 Q1015 NOSIG=
200910212000 METAR LMML NIL=
200910211945 METAR LMML 211945Z 17011KT 140V200 CAVOK 23/19 Q1015 NOSIG=
200910211915 METAR LMML 211915Z 18010KT 140V220 CAVOK 23/19 Q1015 NOSIG=
200910211900 METAR LMML NIL=
200910211845 METAR LMML 211845Z 17012KT 140V200 CAVOK 23/19 Q1014 NOSIG=
200910211830 METAR LMML NIL=
200910211815 METAR LMML 211815Z 17011KT 150V210 CAVOK 23/19 Q1014 NOSIG=
200910211800 METAR LMML NIL=
200910211745 METAR LMML 211745Z 18012KT CAVOK 23/18 Q1015 NOSIG=
200910211730 METAR LMML NIL=
200910211715 METAR LMML 211715Z 18012KT 150V220 CAVOK 23/18 Q1014 NOSIG=
200910211700 METAR LMML NIL=
200910211645 METAR LMML 211645Z 18012KT 150V220 CAVOK 23/19 Q1014 NOSIG=
200910211630 METAR LMML NIL=
200910211615 METAR LMML 211615Z 18014KT 160V220 CAVOK 23/18 Q1014 NOSIG=
200910211600 METAR LMML NIL=
200910211545 METAR LMML 211545Z 18014KT 160V220 CAVOK 23/18 Q1014 NOSIG=
200910211530 METAR LMML NIL=
200910211515 METAR LMML 211515Z 18014KT 160V220 CAVOK 23/18 Q1014 NOSIG=
200910211500 METAR LMML NIL=
200910211445 METAR LMML 211445Z 18012KT 150V210 CAVOK 24/18 Q1014 NOSIG=
200910211430 METAR LMML NIL=
200910211415 METAR LMML 211415Z 18013KT 140V220 CAVOK 24/18 Q1014 NOSIG=
200910211400 METAR LMML NIL=
200910211345 METAR LMML 211345Z 18013KT 150V210 CAVOK 24/18 Q1014 NOSIG=
200910211330 METAR LMML NIL=
200910211315 METAR LMML 211315Z 18013KT 150V220 CAVOK 24/18 Q1014 NOSIG=
200910211300 METAR LMML NIL=
200910211245 METAR LMML 211245Z 18015KT 140V210 CAVOK 25/18 Q1014 NOSIG=
200910211230 METAR LMML NIL=
200910211215 METAR LMML 211215Z 19013KT 160V230 CAVOK 25/18 Q1014 NOSIG=
200910211200 METAR LMML NIL=
200910211145 METAR LMML 211145Z 18011KT 140V220 CAVOK 25/18 Q1014 NOSIG=
200910211130 METAR LMML NIL=
200910211115 METAR LMML 211115Z 18013KT 140V220 CAVOK 25/18 Q1015 NOSIG=
200910211100 METAR LMML NIL=
200910211045 METAR LMML 211045Z 18014KT 150V220 9999 FEW020 25/18 Q1015
                        NOSIG=
200910211030 METAR LMML NIL=
200910211015 METAR LMML 211015Z 17014KT 130V210 9999 FEW020 25/18 Q1015
                        NOSIG=
200910211000 METAR LMML NIL=
200910210945 METAR LMML 210945Z 18013KT 140V210 9999 FEW016 25/18 Q1015
                        NOSIG=
200910210930 METAR LMML NIL=
200910210900 METAR LMML NIL=
200910210845 METAR LMML 210845Z 17010KT 130V210 CAVOK 25/18 Q1015 NOSIG
                        RMK CB TOP TO EAST=
200910210815 METAR LMML 210815Z 15008KT 110V190 CAVOK 24/19 Q1016 NOSIG=
200910210800 METAR LMML NIL=
200910210745 METAR LMML 210745Z 16009KT 130V190 CAVOK 24/19 Q1015 NOSIG=
200910210730 METAR LMML NIL=
200910210715 METAR LMML 210715Z 15007KT 120V180 CAVOK 23/19 Q1015 NOSIG=
200910210700 METAR LMML NIL=
200910210645 METAR LMML 210645Z 14007KT CAVOK 23/19 Q1015 NOSIG=
200910210630 METAR LMML NIL=
200910210615 METAR LMML 210615Z 14007KT CAVOK 22/19 Q1015 NOSIG=
200910210600 METAR LMML NIL=
200910210545 METAR LMML 210545Z 15006KT CAVOK 21/19 Q1015 NOSIG=
200910210530 METAR LMML NIL=
200910210515 METAR LMML 210515Z 15006KT 110V180 CAVOK 21/19 Q1015 NOSIG=
200910210500 METAR LMML NIL=
200910210445 METAR LMML 210445Z 14007KT 9999 FEW017 20/20 Q1015 NOSIG=
200910210430 METAR LMML NIL=
200910210415 METAR LMML 210415Z 14007KT 9999 FEW017 20/20 Q1015 NOSIG=
200910210400 METAR LMML NIL=
200910210345 METAR LMML 210345Z 13008KT 9999 FEW017 20/20 Q1015 NOSIG=
200910210330 METAR LMML NIL=
200910210315 METAR LMML 210315Z 12008KT 9999 FEW017 20/20 Q1015 NOSIG=
200910210300 METAR LMML NIL=
200910210245 METAR LMML 210245Z 12008KT 9999 FEW017 20/19 Q1015 NOSIG=
200910210230 METAR LMML NIL=
200910210215 METAR LMML 210215Z 11008KT 9999 FEW017 20/19 Q1015 TEMPO
                        BKN015=
200910210200 METAR LMML NIL=
200910210145 METAR LMML 210145Z 10009KT 9999 FEW007 BKN017 20/19 Q1015
                        TEMPO BKNO15=
200910210130 METAR LMML NIL=
200910210115 METAR LMML 210115Z 11009KT 9999 FEW008 BKN018 20/19 Q1015
                        NOSIG=
200910210100 METAR LMML NIL=
200910210045 METAR LMML 210045Z 11011KT 9999 FEW008 BKN012 20/19 Q1015
                        NOSIG=
200910210030 METAR LMML NIL=
200910210015 METAR LMML 210015Z 10010KT 9999 BKN012 20/18 Q1015 NOSIG=
200910210000 METAR LMML NIL=
200910202345 METAR LMML 202345Z 11011KT 9999 BKN013 20/18 Q1016 NOSIG=
200910202330 METAR LMML NIL=
200910202315 METAR LMML 202315Z 11012KT 9999 BKN015 20/17 Q1016 NOSIG=
200910202300 METAR LMML NIL=
200910202245 METAR LMML 202245Z 12014KT 9999 BKN016 20/17 Q1016 NOSIG=
200910202230 METAR LMML NIL=
200910202215 METAR LMML 202215Z 12013KT 9999 SCT016 19/17 Q1016 NOSIG=
200910202200 METAR LMML NIL=
200910202145 METAR LMML 202145Z 12015KT 9999 SCT020 19/16 Q1016 NOSIG=
200910202130 METAR LMML NIL=
200910202115 METAR LMML 202115Z 12011KT 9999 SCT021 19/16 Q1016 NOSIG=
200910202100 METAR LMML NIL=
200910202045 METAR LMML 202045Z 11012KT 9999 SCT024 19/16 Q1017 NOSIG=
200910202030 METAR LMML NIL=
200910202015 METAR LMML 202015Z 11012KT 9999 SCT029 19/15 Q1016 NOSIG=
200910202000 METAR LMML NIL=
200910201945 METAR LMML 201945Z 11012KT 9999 SCT032 19/15 Q1017 NOSIG=
200910201930 METAR LMML NIL=
200910201915 METAR LMML 201915Z 11012KT 9999 SCT031 19/15 Q1017 NOSIG=
200910201900 METAR LMML NIL=
200910201845 METAR LMML 201845Z 11010KT 9999 SCT034 19/15 Q1016 NOSIG=
200910201830 METAR LMML NIL=
200910201815 METAR LMML 201815Z 10008KT 070V130 9999 SCT034 19/15 Q1017
                        NOSIG=
200910201800 METAR LMML NIL=
200910201745 METAR LMML 201745Z 10008KT 9999 SCT035 18/14 Q1016 NOSIG=
200910201730 METAR LMML NIL=
200910201715 METAR LMML 201715Z 10008KT 9999 SCT038 18/14 Q1016 NOSIG=
200910201700 METAR LMML NIL=
200910201645 METAR LMML 201645Z 10007KT 9999 FEW038 18/13 Q1016 NOSIG=
200910201630 METAR LMML NIL=
200910201615 METAR LMML 201615Z 10007KT 060V120 9999 FEW039 18/13 Q1016
                        NOSIG=
200910201600 METAR LMML NIL=
200910201545 METAR LMML 201545Z 10008KT 070V130 9999 SCT043 19/13 Q1016
                        NOSIG=
200910201515 METAR LMML 201515Z 11008KT 9999 FEW043 SCT250 19/13 Q1016
                        NOSIG=
200910201500 METAR LMML NIL=
200910201445 METAR LMML 201445Z 11009KT 9999 FEW047 SCT250 20/13 Q1016
                        NOSIG=
200910201430 METAR LMML NIL=
200910201415 METAR LMML 201415Z 10009KT 070V140 CAVOK 19/13 Q1016 NOSIG=
200910201400 METAR LMML NIL=
200910201345 METAR LMML 201345Z 10008KT 080V140 CAVOK 20/13 Q1016 NOSIG=
200910201330 METAR LMML NIL=
200910201315 METAR LMML 201315Z 11008KT 080V150 CAVOK 20/13 Q1017 NOSIG=
200910201300 METAR LMML NIL=
200910201245 METAR LMML 201245Z 14008KT 080V180 CAVOK 21/12 Q1017 NOSIG=
200910201230 METAR LMML NIL=
200910201215 METAR LMML 201215Z 14007KT 110V190 CAVOK 21/12 Q1017 NOSIG=
200910201200 METAR LMML NIL=
200910201145 METAR LMML 201145Z 15007KT 100V200 9999 FEW030 SCT090 20/12
                        Q1017 NOSIG=
200910201130 METAR LMML NIL=
200910201115 METAR LMML 201115Z 16006KT 120V230 9999 FEW030 BKN090 20/11
                        Q1018 NOSIG=
200910201100 METAR LMML NIL=
200910201045 METAR LMML 201045Z 13006KT 100V190 9999 FEW030 BKN090 19/11
                        Q1018 NOSIG=
200910201030 METAR LMML NIL=
200910201015 METAR LMML 201015Z 14006KT 110V180 9999 FEW030 BKN070 19/11
                        Q1019 NOSIG=
200910200945 METAR LMML 200945Z 14005KT 090V190 9999 FEW030 BKN070 19/10
                        Q1019 NOSIG=
200910200930 METAR LMML NIL=
200910200915 METAR LMML 200915Z 14005KT 110V180 9999 FEW034 BKN070 19/11
                        Q1018 NOSIG=
200910200900 METAR LMML NIL=
200910200845 METAR LMML 200845Z 09004KT 020V140 CAVOK 19/11 Q1018 NOSIG=
200910200830 METAR LMML NIL=
200910200815 METAR LMML 200815Z VRB03KT CAVOK 19/11 Q1018 NOSIG=
200910200800 METAR LMML NIL=
200910200745 METAR LMML 200745Z 08004KT 350V190 CAVOK 18/11 Q1018 NOSIG=
200910200730 METAR LMML NIL=
200910200715 METAR LMML 200715Z VRB02KT CAVOK 18/11 Q1018 NOSIG=
200910200700 METAR LMML NIL=
200910200645 METAR LMML 200645Z VRB01KT CAVOK 16/11 Q1017 NOSIG=
200910200630 METAR LMML NIL=
200910200615 METAR LMML 200615Z VRB01KT 9999 FEW025 SCT090 13/10 Q1017
                        NOSIG=
200910200600 METAR LMML NIL=
200910200545 METAR LMML 200545Z VRB02KT 9999 FEW025 SCT100 13/09 Q1017
                        NOSIG=
200910200530 METAR LMML NIL=
200910200515 METAR LMML 200515Z VRB02KT 9999 FEW025 SCT080 13/09 Q1016
                        NOSIG=
200910200500 METAR LMML NIL=
200910200445 METAR LMML 200445Z VRB01KT 9999 FEW025 SCT080 13/09 Q1016
                        NOSIG=
200910200430 METAR LMML NIL=
200910200415 METAR LMML 200415Z VRB02KT 9999 FEW025 BKN080 13/09 Q1017
                        NOSIG=
200910200400 METAR LMML NIL=
200910200345 METAR LMML 200345Z VRB01KT 9999 FEW025 BKN090 12/09 Q1016
                        NOSIG=
200910200330 METAR LMML NIL=
200910200315 METAR LMML 200315Z VRB01KT 9999 FEW025 SCT100 12/09 Q1016
                        NOSIG=
200910200300 METAR LMML NIL=
200910200245 METAR LMML 200245Z VRB02KT 9999 FEW025 12/09 Q1016 NOSIG=
200910200230 METAR LMML NIL=
200910200215 METAR LMML 200215Z VRB02KT 9999 FEW025 12/09 Q1016 NOSIG=
200910200200 METAR LMML NIL=
200910200145 METAR LMML 200145Z VRB02KT 9999 FEW025 12/08 Q1016 NOSIG=
200910200130 METAR LMML NIL=
200910200115 METAR LMML 200115Z VRB03KT 9999 FEW025 13/08 Q1016 NOSIG=
200910200100 METAR LMML NIL=
200910200045 METAR LMML 200045Z VRB02KT 9999 FEW025 13/08 Q1016 NOSIG=
200910200030 METAR LMML NIL=
200910200015 METAR LMML 200015Z VRB03KT 9999 FEW025 13/08 Q1016 NOSIG=
200910200000 METAR LMML NIL=
200910192345 METAR LMML 192345Z VRB03KT 9999 FEW025 13/08 Q1017 NOSIG=
200910192330 METAR LMML NIL=
200910192315 METAR LMML 192315Z VRB03KT CAVOK 13/09 Q1016 NOSIG=
200910192300 METAR LMML NIL=
200910192245 METAR LMML 192245Z 29004KT CAVOK 14/08 Q1016 NOSIG=
200910192230 METAR LMML NIL=
200910192215 METAR LMML 192215Z VRB03KT CAVOK 13/09 Q1016 NOSIG=
200910192200 METAR LMML NIL=
200910192145 METAR LMML 192145Z VRB03KT CAVOK 14/09 Q1016 NOSIG=
200910192130 METAR LMML NIL=
200910192115 METAR LMML 192115Z VRB03KT CAVOK 14/09 Q1016 NOSIG=
200910192100 METAR LMML NIL=
200910192045 METAR LMML 192045Z 28004KT CAVOK 14/09 Q1016 NOSIG=
200910192030 METAR LMML NIL=
200910192015 METAR LMML 192015Z VRB03KT 9999 FEW035 14/09 Q1016 NOSIG=
200910192000 METAR LMML NIL=
200910191945 METAR LMML 191945Z VRB03KT 9999 FEW035 14/09 Q1016 NOSIG=
200910191930 METAR LMML NIL=
200910191915 METAR LMML 191915Z VRB03KT 9999 FEW035 15/09 Q1016 NOSIG=
200910191900 METAR LMML NIL=
200910191845 METAR LMML 191845Z VRB03KT 9999 FEW035 15/09 Q1016 NOSIG=
200910191830 METAR LMML NIL=
200910191815 METAR LMML 191815Z 31004KT 9999 FEW035 15/10 Q1015 NOSIG=
200910191800 METAR LMML NIL=
200910191745 METAR LMML 191745Z 31005KT 9999 FEW035 15/09 Q1015 NOSIG=
200910191730 METAR LMML NIL=
200910191715 METAR LMML 191715Z 30004KT 9999 FEW035 16/09 Q1015 NOSIG=
200910191700 METAR LMML NIL=
200910191645 METAR LMML 191645Z 28005KT 9999 FEW038 16/08 Q1015 NOSIG=
200910191630 METAR LMML NIL=
200910191615 METAR LMML 191615Z 28007KT 260V320 9999 FEW037 17/09 Q1015
                        NOSIG=
200910191600 METAR LMML NIL=
200910191545 METAR LMML 191545Z 28008KT 9999 FEW038 17/09 Q1014 NOSIG=
200910191530 METAR LMML NIL=
200910191515 METAR LMML 191515Z 29008KT 240V320 9999 FEW038 17/09 Q1014
                        NOSIG=
200910191500 METAR LMML NIL=
200910191445 METAR LMML 191445Z 29008KT 260V320 9999 FEW039 18/09 Q1014
                        NOSIG=
200910191430 METAR LMML NIL=
200910191415 METAR LMML 191415Z 29009KT 250V320 9999 FEW041 19/09 Q1014
                        NOSIG=
200910191400 METAR LMML NIL=
200910191345 METAR LMML 191345Z 30010KT 280V340 9999 FEW000 19/09 Q1014
                        NOSIG=
200910191330 METAR LMML NIL=
200910191315 METAR LMML 191315Z 30010KT 260V330 9999 FEW043 19/09 Q1014
                        NOSIG=
200910191300 METAR LMML NIL=
200910191245 METAR LMML 191245Z 31010KT 280V340 9999 SCT045 19/09 Q1014
                        NOSIG=
200910191230 METAR LMML NIL=
200910191215 METAR LMML 191215Z 29010KT 250V320 9999 FEW041 19/09 Q1014
                        NOSIG=
200910191200 METAR LMML NIL=
200910191145 METAR LMML 191145Z 29007KT 240V320 9999 FEW042 19/08 Q1014
                        NOSIG=
200910191130 METAR LMML NIL=
200910191115 METAR LMML 191115Z 29008KT 230V340 9999 FEW042 20/09 Q1014
                        NOSIG=
200910191100 METAR LMML NIL=
200910191045 METAR LMML 191045Z 29008KT 230V320 9999 FEW047 SCT080 19/08
                        Q1014 NOSIG=
200910191030 METAR LMML NIL=
200910191015 METAR LMML 191015Z 29008KT 250V320 9999 FEW047 BKN080 18/08
                        Q1014 NOSIG=
200910191000 METAR LMML NIL=
200910190945 METAR LMML 190945Z 28008KT 220V320 9999 FEW047 BKN080 19/08
                        Q1014 NOSIG=
200910190930 METAR LMML NIL=
200910190900 METAR LMML NIL=
200910190845 METAR LMML 190845Z 29008KT 250V340 9999 FEW041 19/08 Q1014
                        NOSIG=
200910190830 METAR LMML NIL=
200910190815 METAR LMML 190815Z 31010KT 9999 FEW041 18/08 Q1014 NOSIG=
200910190800 METAR LMML NIL=
200910190745 METAR LMML 190745Z 32009KT 9999 FEW039 18/09 Q1013 NOSIG=
200910190730 METAR LMML NIL=
200910190715 METAR LMML 190715Z 31008KT 280V350 9999 FEW035 18/09 Q1013
                        NOSIG=
200910190700 METAR LMML NIL=
200910190645 METAR LMML 190645Z 30005KT 9999 FEW035 17/09 Q1013 NOSIG=
200910190630 METAR LMML NIL=
200910190615 METAR LMML 190615Z 27004KT 240V300 9999 FEW030 16/08 Q1013
                        NOSIG=
200910190600 METAR LMML NIL=
200910190545 METAR LMML 190545Z 30006KT 9999 FEW030 14/08 Q1012 NOSIG=
200910190530 METAR LMML NIL=
200910190515 METAR LMML 190515Z 30006KT 9999 FEW030 14/09 Q1012 NOSIG=
200910190500 METAR LMML NIL=
200910190445 METAR LMML 190445Z 31006KT 9999 FEW031 14/09 Q1012 NOSIG=
200910190430 METAR LMML NIL=
200910190415 METAR LMML 190415Z 29008KT 9999 FEW033 15/08 Q1012 NOSIG=
200910190400 METAR LMML NIL=
200910190345 METAR LMML 190345Z 29008KT 9999 FEW035 15/08 Q1012 NOSIG=
200910190330 METAR LMML NIL=
200910190315 METAR LMML 190315Z 29007KT 270V330 9999 FEW035 16/09 Q1012
                        NOSIG=
200910190300 METAR LMML NIL=
200910190245 METAR LMML 190245Z 29008KT 9999 FEW035 16/09 Q1012 NOSIG=
200910190230 METAR LMML NIL=
200910190215 METAR LMML 190215Z 28009KT 9999 FEW034 16/09 Q1012 NOSIG=
200910190200 METAR LMML NIL=
200910190145 METAR LMML 190145Z 29009KT 9999 FEW034 16/09 Q1012 NOSIG=
200910190130 METAR LMML NIL=
200910190115 METAR LMML 190115Z 28008KT 240V320 9999 FEW031 16/09 Q1012
                        NOSIG=
200910190100 METAR LMML NIL=
200910190045 METAR LMML 190045Z 29010KT 9999 FEW031 16/09 Q1012 NOSIG=
200910190030 METAR LMML NIL=
200910190015 METAR LMML 190015Z 28011KT 260V320 9999 FEW031 16/09 Q1012
                        NOSIG=
200910190000 METAR LMML NIL=
200910182345 METAR LMML 182345Z 28012KT 240V310 9999 FEW031 16/09 Q1011
                        NOSIG=
200910182330 METAR LMML NIL=
200910182315 METAR LMML 182315Z 27011KT 230V300 9999 FEW041 16/07 Q1011
                        NOSIG=
200910182300 METAR LMML NIL=
200910182245 METAR LMML 182245Z 28012KT 9999 FEW037 16/08 Q1012 NOSIG=
200910182230 METAR LMML NIL=
200910182215 METAR LMML 182215Z 28014KT 240V310 9999 SCT037 17/10 Q1012
                        NOSIG=
200910182200 METAR LMML NIL=
200910182145 METAR LMML 182145Z 28014KT 250V310 9999 SCT037 17/10 Q1011
                        NOSIG=
200910182130 METAR LMML NIL=
200910182115 METAR LMML 182115Z 28014KT 9999 SCT038 SCT120 17/10 Q1011
                        NOSIG=
200910182100 METAR LMML NIL=
200910182045 METAR LMML 182045Z 28012KT 240V310 9999 SCT039 SCT120 17/10
                        Q1011 TEMPO 5000 SHRA=
200910182030 METAR LMML NIL=
200910182015 METAR LMML 182015Z 30008KT 260V330 9999 FEW037 SCT042 16/11
                        Q1011 TEMPO 5000 SHRA=
200910182000 METAR LMML NIL=
200910181945 METAR LMML 181945Z 27013KT 240V310 9999 FEW037 17/09 Q1011
                        TEMPO 5000 SHRA=
200910181930 METAR LMML NIL=
200910181915 METAR LMML 181915Z 27012KT 9999 SCT037 16/11 Q1011 TEMPO
                        5000 SHRA=
200910181900 METAR LMML NIL=
200910181845 METAR LMML 181845Z 29017G27KT 250V320 9999 BKN038 17/10 Q1011
                        TEMPO 5000 SHRA=
200910181830 METAR LMML NIL=
200910181815 METAR LMML 181815Z 27008KT 240V310 9999 SCT038 18/10 Q1010
                        TEMPO 5000 SHRA=
200910181800 METAR LMML NIL=
200910181745 METAR LMML 181745Z 27009KT 240V310 9999 SCT045 18/09 Q1010
                        TEMPO 5000 SHRA=
200910181730 METAR LMML NIL=
200910181715 METAR LMML 181715Z 26008KT 220V300 9999 SCT043 18/09 Q1010
                        NOSIG=
200910181645 METAR LMML 181645Z 27010KT 230V300 9999 FEW040 18/09 Q1010
                        NOSIG=
200910181630 METAR LMML NIL=
200910181615 METAR LMML 181615Z 29013KT 9999 FEW040 18/08 Q1010 NOSIG=
200910181600 METAR LMML NIL=
200910181545 METAR LMML 181545Z 28016KT 250V310 9999 FEW040 18/08 Q1010
                        NOSIG=
200910181530 METAR LMML NIL=
200910181515 METAR LMML 181515Z 28015KT 240V310 9999 SCT043 18/09 Q1010
                        NOSIG=
200910181500 METAR LMML NIL=
200910181445 METAR LMML 181445Z 29017KT 250V330 9999 SCT042 19/08 Q1010
                        NOSIG=
200910181430 METAR LMML NIL=
200910181415 METAR LMML 181415Z 28016KT 250V310 9999 SCT042 20/09 Q1010
                        NOSIG=
200910181400 METAR LMML NIL=
200910181345 METAR LMML 181345Z 28015KT 240V310 9999 SCT038 19/11 Q1010
                        NOSIG=
200910181315 METAR LMML 181315Z 27015KT 230V300 9999 SCT041 20/10 Q1010
                        NOSIG=
200910181300 METAR LMML NIL=
200910181245 METAR LMML 181245Z 27015KT 240V310 9999 SCT037 20/09 Q1010
                        NOSIG=
200910181230 METAR LMML NIL=
200910181215 METAR LMML 181215Z 28015KT 230V320 9999 SCT035 20/11 Q1010
                        NOSIG=
200910181200 METAR LMML NIL=
200910181145 METAR LMML 181145Z 28018KT 240V320 9999 SCT035 20/11 Q1010
                        NOSIG=
200910181130 METAR LMML NIL=
200910181115 METAR LMML 181115Z 29017KT 240V300 9999 SCT035 20/11 Q1011
                        NOSIG=
200910181100 METAR LMML NIL=
200910181045 METAR LMML 181045Z 28015KT 250V310 9999 FEW033 20/11 Q1011
                        NOSIG=
200910181030 METAR LMML NIL=
200910181015 METAR LMML 181015Z 29015KT 260V320 9999 FEW029 18/11 Q1011
                        NOSIG=
200910181000 METAR LMML NIL=
200910180945 METAR LMML 180945Z 28014KT 230V300 9999 FEW027 SCT080 19/12
                        Q1011 NOSIG=
200910180915 METAR LMML 180915Z 30014KT 9999 FEW027 SCT050 18/12 Q1011
                        NOSIG=
200910180900 METAR LMML NIL=
200910180845 METAR LMML 180845Z 30015KT 9999 SCT031 SCT050 18/12 Q1011
                        NOSIG=
200910180830 METAR LMML NIL=
200910180815 METAR LMML 180815Z 28014KT 9999 SCT030 20/12 Q1011 NOSIG=
200910180800 METAR LMML NIL=
200910180745 METAR LMML 180745Z 28013KT 240V320 9999 FEW030 SCT080 19/10
                        Q1010 NOSIG=
200910180730 METAR LMML NIL=
200910180715 METAR LMML 180715Z 28015KT 240V310 9999 FEW029 SCT090 18/12
                        Q1010 NOSIG=
200910180700 METAR LMML NIL=
200910180645 METAR LMML 180645Z 28012KT 240V310 9999 SCT031 SCT090 18/12
                        Q1010 NOSIG=
200910180630 METAR LMML NIL=
200910180615 METAR LMML 180615Z 28010KT 9999 SCT035 SCT090 18/10 Q1010
                        NOSIG=
200910180600 METAR LMML NIL=
200910180545 METAR LMML 180545Z 28010KT 250V310 9999 SCT035 BKN090 17/11
                        Q1010 NOSIG=
200910180530 METAR LMML NIL=
200910180515 METAR LMML 180515Z 28014KT 250V310 9999 SCT031 BKN090 17/11
                        Q1009 NOSIG=
200910180445 METAR LMML 180445Z 28012KT 250V310 9999 SCT033 SCT090 17/11
                        Q1009 NOSIG=
200910180430 METAR LMML NIL=
200910180415 METAR LMML 180415Z 28015KT 230V320 9999 FEW034 SCT090 18/11
                        Q1009 NOSIG=
200910180400 METAR LMML NIL=
200910180345 METAR LMML 180345Z 28014KT 240V310 9999 SCT035 SCT090 17/11
                        Q1009 NOSIG=
200910180330 METAR LMML NIL=
200910180315 METAR LMML 180315Z 28016KT 250V320 9999 FEW033 BKN090 17/11
                        Q1009 TEMPO 8000 SHRA=
200910180300 METAR LMML NIL=
200910180245 METAR LMML 180245Z 28010KT 240V320 9999 FEW032 BKN080 17/12
                        Q1009 TEMPO 8000 SHRA=
200910180230 METAR LMML NIL=
200910180215 METAR LMML 180215Z 28017KT 240V310 9999 SCT035 BKN080 17/11
                        Q1009 TEMPO 8000 SHRA=
200910180200 METAR LMML NIL=
200910180145 METAR LMML 180145Z 28020KT 250V310 9999 SCT036 BKN080 17/12
                        Q1010 TEMPO 8000 SHRA=
200910180130 METAR LMML NIL=
200910180115 METAR LMML 180115Z 27018KT 240V310 9999 SCT037 SCT090 18/11
                        Q1010 TEMPO 8000 SHRA=
200910180100 METAR LMML NIL=
200910180045 METAR LMML 180045Z 28015KT 250V310 9999 SCT036 SCT090 18/11
                        Q1010 TEMPO 8000 SHRA=
200910180030 METAR LMML NIL=
200910180015 METAR LMML 180015Z 27016KT 230V300 9999 SCT039 SCT090 18/10
                        Q1010 TEMPO 8000 SHRA=
200910180000 METAR LMML NIL=
200910172345 METAR LMML 172345Z 28017KT 240V310 9999 FEW041 18/10 Q1010
                        TEMPO 8000 SHRA=
200910172315 METAR LMML 172315Z 28019KT 240V310 9999 FEW046 18/09 Q1010
                        TEMPO 8000 SHRA=
200910172300 METAR LMML NIL=
200910172245 METAR LMML 172245Z 27015KT 230V300 9999 SCT045 18/09 Q1010
                        TEMPO 8000 SHRA=
200910172230 METAR LMML NIL=
200910172215 METAR LMML 172215Z 27017KT 240V310 9999 SCT047 SCT080 18/09
                        Q1010 TEMPO 8000 SHRA=
200910172200 METAR LMML NIL=
200910172145 METAR LMML 172145Z 27015KT 240V300 9999 SCT035 SCT080 18/10
                        Q1010 TEMPO 8000 SHRA=
200910172130 METAR LMML NIL=
200910172115 METAR LMML 172115Z 27015G25KT 240V300 9999 SCT030 SCT080
                        18/11 Q1011 NOSIG=
200910172100 METAR LMML NIL=
200910172045 METAR LMML 172045Z 26018KT 230V300 9999 SCT037 SCT080 18/11
                        Q1011 TEMPO SHRA=
200910172030 METAR LMML NIL=
200910172015 METAR LMML 172015Z 29016KT 260V320 9999 SCT029 SCT080 15/12
                        Q1011 TEMPO SHRA=
200910172000 METAR LMML NIL=
200910171945 METAR LMML 171945Z 26005KT 210V300 9999 SCT035 SCT090 16/11
                        Q1011 TEMPO SHRA=
200910171930 METAR LMML NIL=
200910171915 METAR LMML 171915Z 27014G25KT 230V300 9999 -SHRA BKN035 SCT060
                        15/11 Q1011 NOSIG=
200910171900 METAR LMML NIL=
200910171845 METAR LMML 171845Z 28014KT 240V300 9999 SCT035 BKN090 18/11
                        Q1011 TEMPO SHRA=
200910171830 METAR LMML NIL=
200910171815 METAR LMML 171815Z 27010KT 9999 SCT035 BKN080 17/11 Q1011
                        TEMPO SHRA=
200910171800 METAR LMML NIL=
200910171745 METAR LMML 171745Z 24005KT 200V280 9999 SCT034 BKN090 16/13
                        Q1011 TEMPO SHRA=
200910171730 METAR LMML NIL=
200910171715 METAR LMML 171715Z 28015KT 240V310 9999 SCT024 BKN080 17/12
                        Q1011 TEMPO SHRA=
200910171700 METAR LMML NIL=
200910171645 METAR LMML 171645Z 24011KT 200V280 9999 FEW033 BKN080 18/11
                        Q1011 TEMPO SHRA=
200910171630 METAR LMML NIL=
200910171615 METAR LMML 171615Z 25012KT 210V280 9999 SCT036 SCT080 19/11
                        Q1011 TEMPO SHRA=
200910171600 METAR LMML NIL=
200910171545 METAR LMML 171545Z 25011KT 200V290 9999 FEW038 19/10 Q1011
                        TEMPO SHRA=
200910171530 METAR LMML NIL=
200910171515 METAR LMML 171515Z 25010KT 210V290 9999 FEW036 19/11 Q1011
                        TEMPO SHRA=
200910171500 METAR LMML NIL=
200910171445 METAR LMML 171445Z 27008KT 230V310 9999 FEW037 19/10 Q1011
                        NOSIG=
200910171430 METAR LMML NIL=
200910171415 METAR LMML 171415Z 26010KT 220V300 9999 FEW040 19/10 Q1012
                        NOSIG=
200910171400 METAR LMML NIL=
200910171345 METAR LMML 171345Z 26010KT 210V310 9999 FEW037 19/10 Q1012
                        NOSIG=
200910171330 METAR LMML NIL=
200910171315 METAR LMML 171315Z 25009KT 200V310 9999 FEW030 20/10 Q1012
                        NOSIG=
200910171300 METAR LMML NIL=
200910171245 METAR LMML 171245Z 23007KT 190V270 9999 FEW030 20/10 Q1012
                        NOSIG=
200910171230 METAR LMML NIL=
200910171215 METAR LMML 171215Z 25007KT 180V280 9999 FEW030 20/08 Q1013
                        NOSIG=
200910171200 METAR LMML NIL=
200910171145 METAR LMML 171145Z 28008KT 250V310 9999 FEW030 19/10 Q1013
                        NOSIG=
200910171130 METAR LMML NIL=
200910171115 METAR LMML 171115Z 30006KT 220V350 9999 FEW030 19/10 Q1013
                        NOSIG=
200910171100 METAR LMML NIL=
200910171045 METAR LMML 171045Z 29008KT 230V320 9999 FEW030 SCT080 19/09
                        Q1014 NOSIG=
200910171030 METAR LMML NIL=
200910171015 METAR LMML 171015Z 29004KT 210V350 9999 FEW027 SCT080 19/10
                        Q1014 NOSIG=
200910171000 METAR LMML NIL=
200910170945 METAR LMML 170945Z 26004KT 210V320 9999 FEW027 SCT070 17/12
                        Q1014 NOSIG=
200910170930 METAR LMML NIL=
200910170915 METAR LMML 170915Z 34007KT 300V020 9999 FEW030 18/10 Q1015
                        TEMPO SHRA=
200910170900 METAR LMML NIL=
200910170845 METAR LMML 170845Z 32005KT 290V350 9999 FEW030 19/09 Q1015
                        TEMPO SHRA=
200910170830 METAR LMML NIL=
200910170815 METAR LMML 170815Z 31005KT 280V340 9999 FEW030 18/09 Q1015
                        TEMPO 8000 SHRA=
200910170800 METAR LMML NIL=
200910170745 METAR LMML 170745Z 32004KT 280V360 9999 -SHRA FEW030 17/10
                        Q1015 TEMPO 8000 SHRA=
200910170730 METAR LMML NIL=
200910170715 METAR COR LMML 170715Z 31005KT 9999 FEW030 SCT080 16/11 Q1014
                        TEMPO 8000 SHRA=
200910170700 METAR LMML NIL=
200910170645 METAR LMML 170645Z 29004KT 250V310 9999 FEW030 SCT100 17/10
                        Q1014 TEMPO 8000 SHRA=
200910170630 METAR LMML NIL=
200910170615 METAR LMML 170615Z 29006KT 260V320 9999 FEW030 16/09 Q1014
                        TEMPO 8000 SHRA=
200910170545 METAR LMML 170545Z 28004KT 250V320 9999 FEW040 15/09 Q1014
                        NOSIG=
200910170530 METAR LMML NIL=
200910170515 METAR LMML 170515Z 30006KT 9999 FEW040 14/10 Q1014 NOSIG=
200910170500 METAR LMML NIL=
200910170445 METAR LMML 170445Z 30006KT 9999 FEW040 SCT070 14/10 Q1013
                        NOSIG=
200910170430 METAR LMML NIL=
200910170415 METAR LMML 170415Z 30006KT 9999 FEW040 BKN080 15/11 Q1013
                        TEMPO 8000 SHRA=
200910170400 METAR LMML NIL=
200910170345 METAR LMML 170345Z 29004KT 260V320 9999 FEW040 BKN080 15/12
                        Q1013 TEMPO 8000 SHRA=
200910170330 METAR LMML NIL=
200910170315 METAR LMML 170315Z 31004KT 9999 FEW040 BKN100 14/12 Q1013
                        TEMPO 8000 SHRA=
200910170300 METAR LMML NIL=
200910170245 METAR LMML 170245Z VRB03KT 9999 FEW040 SCT110 14/12 Q1013
                        TEMPO 8000 SHRA=
200910170230 METAR LMML NIL=
200910170215 METAR LMML 170215Z VRB03KT 9999 FEW040 SCT110 13/12 Q1013
                        TEMPO 8000 SHRA=
200910170200 METAR LMML NIL=
200910170145 METAR LMML 170145Z VRB03KT 9999 FEW040 14/13 Q1014 NOSIG=
200910170130 METAR LMML NIL=
200910170115 METAR LMML 170115Z VRB02KT 9999 FEW040 13/12 Q1014 NOSIG=
200910170100 METAR LMML NIL=
200910170045 METAR LMML 170045Z VRB03KT CAVOK 13/13 Q1014 NOSIG=
200910170030 METAR LMML NIL=
200910170015 METAR LMML 170015Z VRB01KT CAVOK 13/13 Q1014 NOSIG=
200910170000 METAR LMML NIL=
200910162345 METAR LMML 162345Z VRB03KT CAVOK 14/13 Q1014 NOSIG=
200910162330 METAR LMML NIL=
200910162315 METAR LMML 162315Z VRB02KT CAVOK 13/12 Q1014 NOSIG=
200910162300 METAR LMML NIL=
200910162245 METAR LMML 162245Z VRB02KT CAVOK 14/12 Q1014 NOSIG=
200910162230 METAR LMML NIL=
200910162215 METAR LMML 162215Z VRB02KT CAVOK 14/12 Q1014 NOSIG=
200910162200 METAR LMML NIL=
200910162145 METAR LMML 162145Z 32005KT CAVOK 14/12 Q1014 NOSIG=
200910162130 METAR LMML NIL=
200910162115 METAR LMML 162115Z 34005KT 290V020 CAVOK 14/12 Q1014 TEMPO
                        8000 SHRA=
200910162100 METAR LMML NIL=
200910162045 METAR LMML 162045Z 01008KT 9999 SCT014 15/13 Q1014 TEMPO
                        8000 SHRA=
200910162030 METAR LMML NIL=
200910162015 METAR LMML 162015Z 29007KT 260V320 9999 -SHRA SCT030 16/13
                        Q1014 TEMPO 8000 SHRA=
200910162000 METAR LMML NIL=
200910161945 METAR LMML 161945Z 29006KT 9999 FEW020 17/11 Q1014 TEMPO
                        9000 -SHRA=
200910161930 METAR LMML NIL=
200910161915 METAR LMML 161915Z 29006KT 9999 SCT025 17/11 Q1014 TEMPO
                        9000 -SHRA=
200910161900 METAR LMML NIL=
200910161845 METAR LMML 161845Z 30007KT 9999 FEW025 17/11 Q1014 TEMPO
                        9000 -SHRA=
200910161830 METAR LMML NIL=
200910161815 METAR LMML 161815Z 31008KT 9999 FEW025 17/11 Q1014 TEMPO
                        9000 -SHRA=
200910161745 METAR LMML 161745Z 30007KT 9999 FEW025 17/12 Q1014 NOSIG=
200910161730 METAR LMML NIL=
200910161715 METAR LMML 161715Z 30007KT 9999 FEW025 17/11 Q1014 NOSIG=
200910161700 METAR LMML NIL=
200910161645 METAR LMML 161645Z 29008KT 9999 FEW025 18/11 Q1014 NOSIG=
200910161630 METAR LMML NIL=
200910161615 METAR LMML 161615Z 30011KT 260V320 9999 FEW025 18/11 Q1013
                        NOSIG=
200910161600 METAR LMML NIL=
200910161545 METAR LMML 161545Z 29012KT 260V330 9999 FEW025 19/10 Q1013
                        NOSIG=
200910161530 METAR LMML NIL=
200910161515 METAR LMML 161515Z 29012KT 260V320 9999 FEW025 SCT120 20/09
                        Q1013 NOSIG=
200910161500 METAR LMML NIL=
200910161445 METAR LMML 161445Z 30014KT 9999 FEW025 BKN120 19/11 Q1013
                        NOSIG=
200910161430 METAR LMML NIL=
200910161415 METAR LMML 161415Z 30014KT 9999 FEW025 BKN120 20/11 Q1013
                        NOSIG=
200910161400 METAR LMML NIL=
200910161345 METAR LMML 161345Z 29014KT 250V320 9999 FEW025 BKN090 19/11
                        Q1013 NOSIG=
200910161330 METAR LMML NIL=
200910161315 METAR LMML 161315Z 28014KT 250V320 9999 FEW025 BKN090 20/12
                        Q1013 NOSIG=
200910161300 METAR LMML NIL=
200910161245 METAR LMML 161245Z 28014KT 240V310 9999 FEW025 BKN100 19/11
                        Q1013 NOSIG=
200910161215 METAR LMML 161215Z 29015KT 260V320 9999 -RA FEW025 BKN090
                        19/11 Q1013 NOSIG=
200910161200 METAR LMML NIL=
200910161145 METAR LMML 161145Z 28016KT 9999 FEW031 BKN110 19/11 Q1013
                        TEMPO -RA=
200910161130 METAR LMML NIL=
200910161115 METAR LMML 161115Z 26016KT 230V300 9999 SCT031 BKN120 19/12
                        Q1013 TEMPO -RA=
200910161100 METAR LMML NIL=
200910161045 METAR LMML 161045Z 26016KT 220V300 9999 FEW035 SCT120 20/11
                        Q1013 TEMPO -RA=
200910161030 METAR LMML NIL=
200910161015 METAR LMML 161015Z 27015KT 240V310 9999 FEW033 SCT120 20/12
                        Q1013 NOSIG=
200910161000 METAR LMML NIL=
200910160945 METAR LMML 160945Z 27014KT 230V300 9999 FEW035 20/12 Q1013
                        NOSIG=
200910160930 METAR LMML NIL=
200910160915 METAR LMML 160915Z 28014KT 220V300 9999 SCT036 20/12 Q1013
                        NOSIG=
200910160900 METAR LMML NIL=
200910160845 METAR LMML 160845Z 28014KT 230V300 9999 FEW037 20/11 Q1013
                        NOSIG=
200910160830 METAR LMML NIL=
200910160815 METAR LMML 160815Z 28013KT 230V310 9999 FEW038 SCT090 19/11
                        Q1013 NOSIG=
200910160800 METAR LMML NIL=
200910160745 METAR LMML 160745Z 28011KT 250V310 9999 FEW040 SCT120 19/12
                        Q1013 NOSIG=
200910160730 METAR LMML NIL=
200910160715 METAR LMML 160715Z 28011KT 250V310 9999 FEW040 19/12 Q1012
                        NOSIG=
200910160700 METAR LMML NIL=
200910160645 METAR LMML 160645Z 29010KT 240V320 9999 FEW040 19/12 Q1012
                        NOSIG=
200910160630 METAR LMML NIL=
200910160615 METAR LMML 160615Z 28008KT 240V320 9999 SCT040 18/11 Q1012
                        NOSIG=
200910160545 METAR LMML 160545Z 28009KT 250V310 9999 SCT036 18/12 Q1012
                        NOSIG=
200910160530 METAR LMML NIL=
200910160515 METAR LMML 160515Z 27008KT 240V300 9999 SCT038 17/12 Q1011
                        NOSIG=
200910160500 METAR LMML NIL=
200910160445 METAR LMML 160445Z 28007KT 250V310 9999 FEW036 17/12 Q1011
                        NOSIG=
200910160430 METAR LMML NIL=
200910160415 METAR LMML 160415Z 28005KT 240V300 9999 FEW037 17/12 Q1011
                        NOSIG=
200910160400 METAR LMML NIL=
200910160345 METAR LMML 160345Z 29007KT 9999 FEW030 17/12 Q1011 NOSIG=
200910160330 METAR LMML NIL=
200910160315 METAR LMML 160315Z 29007KT 260V320 9999 FEW030 17/13 Q1011
                        NOSIG=
200910160300 METAR LMML NIL=
200910160245 METAR LMML 160245Z 27007KT 230V300 9999 SCT041 17/13 Q1011
                        NOSIG=
200910160230 METAR LMML NIL=
200910160215 METAR LMML 160215Z 27007KT 230V310 9999 -SHRA SCT039 17/13
                        Q1011 NOSIG=
200910160200 METAR LMML NIL=
200910160145 METAR LMML 160145Z VRB03KT 9999 FEW030 16/11 Q1011 NOSIG
                        RMK LIGHTNING TO NORTH=
200910160130 METAR LMML NIL=
200910160115 METAR LMML 160115Z 27004KT 9999 FEW030 16/11 Q1011 NOSIG=
200910160100 METAR LMML NIL=
200910160045 METAR LMML 160045Z 27004KT 240V300 9999 FEW030 16/12 Q1011
                        NOSIG=
200910160030 METAR LMML NIL=
200910160015 METAR LMML 160015Z VRB03KT 9999 FEW030 16/13 Q1011 NOSIG=
200910160000 METAR LMML NIL=
200910152345 METAR LMML 152345Z VRB02KT 9999 FEW030 16/13 Q1011 NOSIG=
200910152330 METAR LMML NIL=
200910152315 METAR LMML 152315Z VRB03KT 9999 FEW034 17/13 Q1011 NOSIG=
200910152245 METAR LMML 152245Z VRB03KT 9999 FEW030 17/13 Q1011 NOSIG=
200910152230 METAR LMML NIL=
200910152215 METAR LMML 152215Z 30004KT 9999 FEW030 17/13 Q1011 NOSIG=
200910152200 METAR LMML NIL=
200910152145 METAR LMML 152145Z 30005KT 9999 FEW030 17/13 Q1011 NOSIG=
200910152130 METAR LMML NIL=
200910152115 METAR LMML 152115Z 31005KT 9999 FEW030 17/13 Q1011 NOSIG=
200910152100 METAR LMML NIL=
200910152045 METAR LMML 152045Z 30008KT 9999 FEW033 18/13 Q1011 NOSIG=
200910152030 METAR LMML NIL=
200910152015 METAR LMML 152015Z 30008KT 9999 FEW033 18/12 Q1011 NOSIG=
200910152000 METAR LMML NIL=
200910151945 METAR LMML 151945Z 30008KT 270V330 9999 FEW033 18/13 Q1011
                        NOSIG=
200910151930 METAR LMML NIL=
200910151915 METAR LMML 151915Z 30010KT 9999 FEW033 19/14 Q1010 NOSIG=
200910151845 METAR LMML 151845Z 28011KT 9999 SCT033 19/13 Q1010 NOSIG=
200910151830 METAR LMML NIL=
200910151815 METAR LMML 151815Z 27009KT 240V310 9999 BKN029 20/13 Q1010
                        NOSIG=
200910151800 METAR LMML NIL=
200910151745 METAR LMML 151745Z 26010KT 220V290 9999 BKN033 20/13 Q1009
                        NOSIG=
200910151730 METAR LMML NIL=
200910151715 METAR LMML 151715Z 26011KT 220V290 9999 BKN034 20/13 Q1009
                        NOSIG=
200910151700 METAR LMML NIL=
200910151645 METAR LMML 151645Z 25012KT 210V290 9999 -SHRA BKN035 20/13
                        Q1009 NOSIG=
200910151630 METAR LMML NIL=
200910151615 METAR LMML 151615Z 26010KT 210V290 9999 -SHRA BKN037 SCT250
                        20/12 Q1009 NOSIG=
200910151600 METAR LMML NIL=
200910151545 METAR LMML 151545Z 26012KT 200V310 9999 SCT041 SCT120 20/11
                        Q1009 NOSIG=
200910151530 METAR LMML NIL=
200910151500 METAR LMML NIL=
200910151445 METAR LMML 151445Z 26011KT 230V310 9999 FEW039 BKN120 20/11
                        Q1009 NOSIG=
200910151430 METAR LMML NIL=
200910151415 METAR LMML 151415Z 25011KT 220V290 9999 FEW036 BKN120 21/12
                        Q1009 NOSIG=
200910151400 METAR LMML NIL=
200910151345 METAR LMML 151345Z 25013KT 180V280 9999 FEW038 BKN120 21/12
                        Q1009 NOSIG=
200910151330 METAR LMML NIL=
200910151315 METAR LMML 151315Z 24012KT 210V290 9999 FEW038 BKN120 21/13
                        Q1009 NOSIG=
200910151300 METAR LMML NIL=
200910151245 METAR LMML 151245Z 25012KT 210V310 9999 FEW042 BKN120 22/12
                        Q1009 NOSIG=
200910151230 METAR LMML NIL=
200910151215 METAR LMML 151215Z 24011KT 200V290 9999 SCT041 SCT120 21/12
                        Q1009 NOSIG=
200910151200 METAR LMML NIL=
200910151145 METAR LMML 151145Z 24011KT 190V290 9999 FEW030 BKN040 21/12
                        Q1009 NOSIG=
200910151130 METAR LMML NIL=
200910151115 METAR LMML 151115Z 23013KT 200V280 9999 SCT039 SCT250 22/12
                        Q1010 NOSIG=
200910151045 METAR LMML 151045Z 24012KT 200V290 9999 SCT039 22/14 Q1010
                        NOSIG=
200910151030 METAR LMML NIL=
200910151015 METAR LMML 151015Z 25012KT 210V290 9999 SCT038 22/13 Q1010
                        NOSIG=
200910151000 METAR LMML NIL=
200910150945 METAR LMML 150945Z 26013KT 210V290 9999 SCT039 22/13 Q1010
                        NOSIG=
200910150930 METAR LMML NIL=
200910150915 METAR LMML 150915Z 25013KT 200V290 9999 SCT040 22/13 Q1010
                        NOSIG=
200910150900 METAR LMML NIL=
200910150845 METAR LMML 150845Z 24012KT 180V290 9999 SCT043 22/12 Q1010
                        NOSIG=
200910150830 METAR LMML NIL=
200910150815 METAR LMML 150815Z 24012KT 210V280 9999 SCT036 SCT060 21/13
                        Q1010 NOSIG=
200910150800 METAR LMML NIL=
200910150745 METAR LMML 150745Z 24007KT 200V290 9999 SCT037 SCT060 21/14
                        Q1010 NOSIG=
200910150730 METAR LMML NIL=
200910150715 METAR LMML 150715Z 26009G19KT 220V300 9999 SCT036 SCT120
                        19/14 Q1010 NOSIG=
200910150700 METAR LMML NIL=
200910150645 METAR LMML 150645Z 24009KT 200V280 9999 SCT038 SCT120 20/12
                        Q1010 NOSIG=
200910150630 METAR LMML NIL=
200910150615 METAR LMML 150615Z 25008KT 190V280 9999 SCT038 SCT120 19/12
                        Q1010 NOSIG=
200910150600 METAR LMML NIL=
200910150545 METAR LMML 150545Z 25007KT 210V280 9999 SCT030 SCT120 BKN250
                        19/13 Q1010 TEMPO 8000 SHRA BKN015=
200910150530 METAR LMML NIL=
200910150515 METAR LMML 150515Z 22006KT 170V280 9999 BKN024 SCT080 19/15
                        Q1010 TEMPO 8000 SHRA BKN015=
200910150500 METAR LMML NIL=
200910150445 METAR LMML 150445Z 18006KT 140V230 9999 SCT020 SCT250 18/15
                        Q1009 NOSIG RMK DISTANT LIGHTNING
                        TO NORTH=
200910150430 METAR LMML NIL=
200910150415 METAR LMML 150415Z 14009KT 9999 FEW017 SCT070 18/15 Q1009
                        NOSIG=
200910150400 METAR LMML NIL=
200910150345 METAR LMML 150345Z 14008KT 9999 FEW020 SCT120 18/15 Q1010
                        NOSIG=
200910150330 METAR LMML NIL=
200910150315 METAR LMML 150315Z 14006KT 9999 FEW016 SCT120 17/15 Q1010
                        NOSIG=
200910150300 METAR LMML NIL=
200910150245 METAR LMML 150245Z 14006KT 9999 FEW017 SCT090 17/15 Q1010
                        NOSIG RMK LIGHTNING TO NNW=
200910150230 METAR LMML NIL=
200910150215 METAR LMML 150215Z 15004KT 110V190 9999 FEW017 SCT080 17/15
                        Q1010 TEMPO 8000 SHRA BKN015=
200910150200 METAR LMML NIL=
200910150145 METAR LMML 150145Z 14004KT 9999 FEW034 SCT090 17/15 Q1010
                        TEMPO 8000 SHRA BKN015=
200910150130 METAR LMML NIL=
200910150115 METAR LMML 150115Z 10006KT 9999 FEW034 BKN070 17/15 Q1011
                        TEMPO 8000 SHRA BKN015=
200910150100 METAR LMML NIL=
200910150045 METAR LMML 150045Z VRB03KT 9999 FEW034 BKN080 18/15 Q1011
                        TEMPO 8000 SHRA BKN015=
200910150030 METAR LMML NIL=
200910150015 METAR LMML 150015Z VRB03KT 9999 FEW034 BKN090 18/15 Q1011
                        TEMPO 8000 SHRA BKN015=
200910150000 METAR LMML NIL=
200910142345 METAR LMML 142345Z VRB02KT 9999 FEW034 BKN090 17/15 Q1011
                        TEMPO 8000 SHRA BKN015=
200910142330 METAR LMML NIL=
200910142315 METAR LMML 142315Z VRB03KT 9999 SCT034 BKN100 18/15 Q1012
                        TEMPO 8000 SHRA BKN015=
200910142300 METAR LMML NIL=
200910142245 METAR LMML 142245Z 06006KT 020V110 9999 FEW021 BKN110 17/15
                        Q1012 TEMPO 8000 SHRA BKN015=
200910142230 METAR LMML NIL=
200910142215 METAR LMML 142215Z 03004KT 010V070 9999 FEW019 BKN120 17/15
                        Q1012 TEMPO 8000 SHRA BKN015=
200910142200 METAR LMML NIL=
200910142145 METAR LMML 142145Z 08004KT 010V130 9999 FEW028 SCT120 17/15
                        Q1012 TEMPO 8000 SHRA BKN015=
200910142130 METAR LMML NIL=
200910142115 METAR LMML 142115Z 12004KT 9999 FEW026 17/15 Q1012 TEMPO
                        8000 SHRA BKN015=
200910142100 METAR LMML NIL=
200910142045 METAR LMML 142045Z VRB03KT 9999 FEW026 SCT080 17/15 Q1012
                        TEMPO 8000 SHRA BKN015=
200910142030 METAR LMML NIL=
200910142015 METAR LMML 142015Z 09005KT 9999 FEW029 SCT090 17/15 Q1012
                        TEMPO 8000 SHRA BKN015=
200910142000 METAR LMML NIL=
200910141945 METAR LMML 141945Z 08004KT 030V150 9999 FEW024 BKN100 18/15
                        Q1012 TEMPO 8000 SHRA BKN015=
200910141930 METAR LMML NIL=
200910141915 METAR LMML 141915Z 05005KT 020V090 9999 FEW024 BKN100 18/15
                        Q1012 TEMPO 8000 SHRA BKN015=
200910141900 METAR LMML NIL=
200910141845 METAR LMML 141845Z 02005KT 340V050 9999 FEW024 BKN090 18/15
                        Q1012 TEMPO 8000 SHRA BKN015=
200910141830 METAR LMML NIL=
200910141815 METAR LMML 141815Z VRB03KT 9999 FEW026 SCT100 17/15 Q1012
                        NOSIG=
200910141800 METAR LMML NIL=
200910141745 METAR LMML 141745Z VRB01KT 9999 FEW024 SCT100 17/15 Q1012
                        NOSIG=
200910141730 METAR LMML NIL=
200910141715 METAR LMML 141715Z VRB02KT 9999 FEW024 SCT090 17/14 Q1012
                        NOSIG=
200910141700 METAR LMML NIL=
200910141645 METAR LMML 141645Z VRB01KT 9999 FEW024 SCT060 17/15 Q1012
                        RESHRA NOSIG=
200910141630 METAR LMML NIL=
200910141615 METAR LMML 141615Z VRB01KT 9999 FEW024 BKN060 17/14 Q1011
                        RESHRA NOSIG=
200910141600 METAR LMML NIL=
200910141545 METAR LMML 141545Z 28007KT 240V320 6000 -SHRA SCT024 BKN050
                        17/14 Q1012 BECMG 9999=
200910141530 METAR LMML NIL=
200910141515 METAR LMML 141515Z VRB03KT 9999 -RA SCT035 BKN050 19/14 Q1011
                        NOSIG=
200910141500 METAR LMML NIL=
200910141445 METAR LMML 141445Z 32004KT 280V360 9999 FEW023 BKN050 19/14
                        Q1011 NOSIG=
200910141430 METAR LMML NIL=
200910141415 METAR LMML 141415Z 32008KT 280V360 9999 FEW025 BKN045 20/14
                        Q1012 NOSIG=
200910141400 METAR LMML NIL=
200910141345 METAR LMML 141345Z 32007KT 290V350 9999 FEW030 SCT050 20/14
                        Q1012 NOSIG=
200910141330 METAR LMML NIL=
200910141315 METAR LMML 141315Z 32006KT 270V360 9999 FEW032 BKN120 21/15
                        Q1012 NOSIG=
200910141300 METAR LMML NIL=
200910141245 METAR LMML 141245Z 33010KT 300V360 9999 FEW036 SCT100 20/16
                        Q1012 NOSIG=
200910141230 METAR LMML NIL=
200910141215 METAR LMML 141215Z 31014KT 270V330 9999 SCT030 SCT250 21/15
                        Q1012 NOSIG=
200910141200 METAR LMML NIL=
200910141145 METAR LMML 141145Z 26015KT 230V300 9999 FEW034 22/12 Q1012
                        NOSIG=
200910141130 METAR LMML NIL=
200910141115 METAR COR LMML 141115Z 27015KT 240V310 9999 FC BKN028TCU
                        SCT100 22/15 Q1012 NOSIG RMK FUNNEL
                        CLOUD TO EAST=
200910141045 METAR LMML 141045Z 22011KT 190V270 9999 SCT034 22/15 Q1012
                        NOSIG=
200910141030 METAR LMML NIL=
200910141015 METAR LMML 141015Z 21010KT 160V260 9999 FEW039 SCT050 22/14
                        Q1013 NOSIG=
200910141000 METAR LMML NIL=
200910140945 METAR LMML 140945Z 21008KT 160V270 9999 FEW035 SCT050 21/14
                        Q1013 NOSIG RMK CB TOP TO SW=
200910140930 METAR LMML NIL=
200910140915 METAR LMML 140915Z 22006KT 180V270 9999 SCT025TCU SCT050
                        21/12 Q1013 NOSIG=
200910140900 METAR LMML NIL=
200910140845 METAR LMML 140845Z 21004KT 170V260 9999 FEW025 SCT050 21/12
                        Q1013 NOSIG=
200910140830 METAR LMML NIL=
200910140815 METAR LMML 140815Z VRB02KT 9999 FEW025 SCT050 21/14 Q1014
                        NOSIG=
200910140800 METAR LMML NIL=
200910140745 METAR LMML 140745Z VRB01KT 9999 FEW025 SCT100 20/15 Q1014
                        NOSIG=
200910140730 METAR LMML NIL=
200910140715 METAR LMML 140715Z VRB01KT 9999 FEW025 BKN100 18/14 Q1014
                        NOSIG=
200910140700 METAR LMML NIL=
200910140645 METAR LMML 140645Z VRB03KT 9999 FEW027 BKN080 16/14 Q1014
                        NOSIG=
200910140630 METAR LMML NIL=
200910140615 METAR LMML 140615Z 34005KT 310V020 9999 -SHRA FEW025 BKN050
                        16/13 Q1014 TEMPO 9000 RA=
200910140600 METAR LMML NIL=
200910140545 METAR LMML 140545Z 18008KT 110V220 8000 -SHRA SCT024 SCT047
                        BKN070 18/12 Q1014 TEMPO 9000 RA=
200910140530 METAR LMML NIL=
200910140515 METAR LMML 140515Z 05004KT 9999 -RA NSC 18/12 Q1013 TEMPO
                        9000 RA=
200910140500 METAR LMML NIL=
200910140445 METAR LMML 140445Z VRB01KT 9999 FEW046 BKN090 17/12 Q1013
                        NOSIG=
200910140430 METAR LMML NIL=
200910140415 METAR LMML 140415Z VRB02KT 9999 FEW046 BKN080 17/12 Q1014
                        NOSIG=
200910140400 METAR LMML NIL=
200910140345 METAR LMML 140345Z VRB02KT 9999 FEW046 BKN080 18/12 Q1014
                        NOSIG=
200910140330 METAR LMML NIL=
200910140315 METAR LMML 140315Z VRB02KT 9999 FEW043 BKN080 17/12 Q1014
                        NOSIG=
200910140300 METAR LMML NIL=
200910140245 METAR LMML 140245Z VRB02KT 9999 FEW030 BKN080 17/12 Q1014
                        NOSIG=
200910140230 METAR LMML NIL=
200910140215 METAR LMML 140215Z VRB02KT 9999 FEW025 BKN090 17/12 Q1014
                        NOSIG=
200910140200 METAR LMML NIL=
200910140145 METAR LMML 140145Z VRB02KT 9999 FEW025 BKN090 17/12 Q1014
                        NOSIG=
200910140130 METAR LMML NIL=
200910140115 METAR LMML 140115Z 00000KT 9999 FEW025 BKN090 17/11 Q1014
                        NOSIG=
200910140100 METAR LMML NIL=
200910140045 METAR LMML 140045Z VRB01KT 9999 FEW025 BKN100 17/12 Q1015
                        NOSIG=
200910140030 METAR LMML NIL=
200910140015 METAR LMML 140015Z VRB01KT 9999 FEW025 BKN100 17/11 Q1015
                        NOSIG=
200910140000 METAR LMML NIL=
200910132345 METAR LMML 132345Z VRB01KT 9999 FEW025 BKN110 18/11 Q1015
                        NOSIG=
200910132330 METAR LMML NIL=
200910132315 METAR LMML 132315Z 29004KT 260V320 9999 FEW025 BKN110 18/11
                        Q1015 NOSIG=
200910132245 METAR LMML 132245Z 29004KT 9999 FEW025 BKN110 18/11 Q1015
                        NOSIG=
200910132230 METAR LMML NIL=
200910132215 METAR LMML 132215Z VRB03KT 9999 FEW025 BKN110 17/10 Q1015
                        NOSIG=
200910132145 METAR LMML 132145Z VRB02KT 9999 FEW025 SCT110 17/10 Q1016
                        NOSIG=
200910132115 METAR LMML 132115Z 29004KT 9999 FEW025 BKN110 18/10 Q1016
                        NOSIG=
200910132100 METAR LMML NIL=
200910132045 METAR LMML 132045Z 30004KT 9999 FEW025 BKN110 18/10 Q1016
                        NOSIG=
200910132030 METAR LMML NIL=
200910132015 METAR LMML 132015Z 30005KT 9999 FEW025 17/10 Q1016 NOSIG=
200910132000 METAR LMML NIL=
200910131945 METAR LMML 131945Z 30004KT 270V330 9999 FEW025 17/09 Q1015
                        NOSIG=
200910131930 METAR LMML NIL=
200910131915 METAR LMML 131915Z 29004KT 250V330 9999 FEW025 17/09 Q1015
                        NOSIG=
200910131900 METAR LMML NIL=
200910131845 METAR LMML 131845Z 30005KT 9999 FEW025 18/09 Q1015 NOSIG=
200910131830 METAR LMML NIL=
200910131815 METAR LMML 131815Z 32008KT 9999 FEW030 18/09 Q1015 NOSIG=
200910131800 METAR LMML NIL=
200910131745 METAR LMML 131745Z 31007KT 9999 FEW030 18/08 Q1015 NOSIG=
200910131730 METAR LMML NIL=
200910131715 METAR LMML 131715Z 30007KT 9999 FEW030 19/08 Q1015 NOSIG=
200910131700 METAR LMML NIL=
200910131645 METAR LMML 131645Z 32009KT 9999 FEW030 19/08 Q1014 NOSIG=
200910131630 METAR LMML NIL=
200910131615 METAR LMML 131615Z 32010KT CAVOK 20/07 Q1014 NOSIG=
200910131600 METAR LMML NIL=
200910131545 METAR LMML 131545Z 32011KT CAVOK 21/08 Q1014 NOSIG=
200910131530 METAR LMML NIL=
200910131515 METAR LMML 131515Z 32012KT 9999 FEW030 21/07 Q1014 NOSIG=
200910131500 METAR LMML NIL=
200910131445 METAR LMML 131445Z 32013KT 9999 FEW030 22/06 Q1014 NOSIG=
200910131430 METAR LMML NIL=
200910131415 METAR LMML 131415Z 32012KT 9999 FEW030 22/04 Q1014 NOSIG=
200910131400 METAR LMML NIL=
200910131345 METAR LMML 131345Z 33014KT 9999 FEW030 22/06 Q1014 NOSIG=
200910131330 METAR LMML NIL=
200910131315 METAR LMML 131315Z 33015KT 9999 FEW030 22/07 Q1014 NOSIG=
200910131300 METAR LMML NIL=
200910131245 METAR LMML 131245Z 33016KT 9999 FEW030 22/08 Q1014 NOSIG=
200910131230 METAR LMML NIL=
200910131215 METAR LMML 131215Z 32013KT CAVOK 22/08 Q1014 NOSIG=
200910131200 METAR LMML NIL=
200910131145 METAR LMML 131145Z 33014KT 290V350 9999 FEW030 22/08 Q1014
                        NOSIG=
200910131130 METAR LMML NIL=
200910131115 METAR LMML 131115Z 32015KT 280V350 9999 FEW030 22/09 Q1014
                        NOSIG=
200910131100 METAR LMML NIL=
200910131045 METAR LMML 131045Z 31016KT 280V340 9999 FEW030 22/07 Q1014
                        NOSIG=
200910131030 METAR LMML NIL=
200910131015 METAR LMML 131015Z 32019KT 9999 FEW030 22/08 Q1014 NOSIG=
200910131000 METAR LMML NIL=
200910130945 METAR LMML 130945Z 32018G30KT 290V350 9999 FEW030 22/08 Q1014
                        NOSIG=
200910130930 METAR LMML NIL=
200910130915 METAR LMML 130915Z 32018KT 9999 FEW030 21/09 Q1014 NOSIG=
200910130900 METAR LMML NIL=
200910130845 METAR LMML 130845Z 33017KT 300V360 9999 FEW030 21/08 Q1014
                        NOSIG=
200910130830 METAR LMML NIL=
200910130815 METAR LMML 130815Z 32017KT 9999 FEW030 21/09 Q1014 NOSIG=
200910130800 METAR LMML NIL=
200910130745 METAR LMML 130745Z 32016KT 290V350 CAVOK 20/09 Q1013 NOSIG=
200910130730 METAR LMML NIL=
200910130715 METAR LMML 130715Z 33016KT 9999 FEW030 20/08 Q1013 NOSIG=
200910130700 METAR LMML NIL=
200910130645 METAR LMML 130645Z 31016KT 290V350 9999 FEW030 19/08 Q1013
                        NOSIG=
200910130630 METAR LMML NIL=
200910130615 METAR LMML 130615Z 32015KT 290V350 9999 FEW030 19/08 Q1012
                        NOSIG=
200910130600 METAR LMML NIL=
200910130545 METAR LMML 130545Z 31013KT 9999 FEW032 18/10 Q1012 NOSIG=
200910130530 METAR LMML NIL=
200910130515 METAR LMML 130515Z 31012KT 9999 FEW032 18/10 Q1011 NOSIG=
200910130500 METAR LMML NIL=
200910130445 METAR LMML 130445Z 31014KT 9999 FEW032 18/10 Q1011 NOSIG=
200910130430 METAR LMML NIL=
200910130415 METAR LMML 130415Z 31012KT 9999 FEW032 19/11 Q1010 NOSIG=
200910130400 METAR LMML NIL=
200910130345 METAR LMML 130345Z 31014KT 9999 FEW032 19/14 Q1010 NOSIG=
200910130330 METAR LMML NIL=
200910130315 METAR LMML 130315Z 30015KT 9999 FEW032 SCT060 20/15 Q1010
                        NOSIG=
200910130300 METAR LMML NIL=
200910130245 METAR LMML 130245Z 29014KT 9999 FEW035 SCT060 20/14 Q1009
                        NOSIG=
200910130230 METAR LMML NIL=
200910130215 METAR LMML 130215Z 29018KT 250V310 9999 FEW030 SCT060 21/14
                        Q1009 NOSIG=
200910130200 METAR LMML NIL=
200910130145 METAR LMML 130145Z 29015G25KT 9999 FEW030 SCT060 20/14 Q1009
                        NOSIG=
200910130130 METAR LMML NIL=
200910130115 METAR LMML 130115Z 29019KT 260V320 9999 FEW025 SCT090 20/15
                        Q1010 NOSIG=
200910130100 METAR LMML NIL=
200910130045 METAR LMML 130045Z 28010KT 9999 SCT020 BKN100 19/17 Q1010
                        TEMPO 8000 SHRA=
200910130030 METAR LMML NIL=
200910130015 METAR LMML 130015Z 28022KT 240V320 9999 -SHRA SCT029 BKN100
                        20/16 Q1010 TEMPO 8000 SHRA=
200910130000 METAR LMML NIL=
200910122345 METAR LMML 122345Z 29020KT 9999 SCT030 BKN100 20/13 Q1010
                        TEMPO 8000 SHRA=
200910122330 METAR LMML NIL=
200910122315 METAR LMML 122315Z 28018G31KT 240V320 9999 SCT026 SCT100
                        21/16 Q1010 TEMPO 8000 SHRA=
200910122300 METAR LMML NIL=
200910122245 METAR LMML 122245Z 27014KT 230V300 9999 -SHRA BKN024 22/17
                        Q1010 TEMPO 8000 SHRA=
200910122230 METAR LMML NIL=
200910122215 METAR LMML 122215Z 26012KT 220V290 9999 SCT025 21/18 Q1010
                        TEMPO 8000 SHRA=
200910122200 METAR LMML NIL=
200910122145 METAR LMML 122145Z 27011KT 240V310 9999 BKN022 21/18 Q1011
                        RESH TEMPO 8000 SHRA=
200910122130 METAR LMML NIL=
200910122115 METAR LMML 122115Z 27013KT 240V300 9999 BKN023 21/17 Q1011
                        RESH TEMPO 8000 SHRA=
200910122100 METAR LMML NIL=
200910122045 METAR LMML 122045Z 29013KT 250V330 9999 SHRA BKN021 20/17
                        Q1011 TEMPO 8000 SHRA=
200910122030 METAR LMML NIL=
200910122015 METAR LMML 122015Z 27015KT 240V300 9999 FEW032 SCT060 22/16
                        Q1011 TEMPO 8000 SHRA=
200910122000 METAR LMML NIL=
200910121945 METAR LMML 121945Z 27014KT 230V300 9999 FEW032 SCT060 22/16
                        Q1011 TEMPO 8000 SHRA=
200910121930 METAR LMML NIL=
200910121915 METAR LMML 121915Z 27013KT 230V310 9999 FEW032 22/16 Q1011
                        TEMPO 8000 SHRA=
200910121900 METAR LMML NIL=
200910121845 METAR LMML 121845Z 27012KT 220V300 9999 FEW033 21/16 Q1011
                        NOSIG=
200910121830 METAR LMML NIL=
200910121815 METAR LMML 121815Z 26012KT 230V300 9999 FEW025 21/16 Q1011
                        NOSIG=
200910121800 METAR LMML NIL=
200910121745 METAR LMML 121745Z 26012KT 220V290 9999 FEW027 21/16 Q1011
                        NOSIG=
200910121715 METAR LMML 121715Z 27009KT 240V310 9999 FEW032 21/15 Q1011
                        NOSIG=
200910121700 METAR LMML NIL=
200910121645 METAR LMML 121645Z 28011KT 240V310 9999 FEW030 21/15 Q1011
                        NOSIG=
200910121630 METAR LMML NIL=
200910121615 METAR LMML 121615Z 28012KT 250V310 9999 FEW031 21/15 Q1011
                        NOSIG=
200910121600 METAR LMML NIL=
200910121545 METAR LMML 121545Z 26014KT 230V290 9999 SCT030 22/15 Q1011
                        NOSIG=
200910121515 METAR LMML 121515Z 27015KT 230V300 9999 SCT025 22/16 Q1011
                        NOSIG=
200910121500 METAR LMML NIL=
200910121445 METAR LMML 121445Z 26015KT 220V280 9999 SCT025 22/16 Q1011
                        NOSIG=
200910121430 METAR LMML NIL=
200910121415 METAR LMML 121415Z 26015KT 220V310 9999 SCT024 23/17 Q1011
                        NOSIG=
200910121400 METAR LMML NIL=
200910121345 METAR LMML 121345Z 27014KT 230V310 9999 SCT023 23/17 Q1011
                        NOSIG=
200910121330 METAR LMML NIL=
200910121315 METAR LMML 121315Z 26015KT 230V290 9999 SCT024 23/17 Q1011
                        NOSIG=
200910121300 METAR LMML NIL=
200910121245 METAR LMML 121245Z 27015KT 240V300 9999 SCT026 23/17 Q1011
                        NOSIG=
200910121230 METAR LMML NIL=
200910121215 METAR LMML 121215Z 27014KT 240V300 9999 SCT026 23/17 Q1012
                        NOSIG=
200910121200 METAR LMML NIL=
200910121145 METAR LMML 121145Z 27014KT 240V310 9999 SCT025 24/16 Q1012
                        NOSIG=
200910121130 METAR LMML NIL=
200910121115 METAR LMML 121115Z 25012KT 220V300 9999 SCT024 23/17 Q1012
                        NOSIG=
200910121100 METAR LMML NIL=
200910121045 METAR LMML 121045Z 25014KT 210V290 9999 SCT021 23/18 Q1013
                        NOSIG=
200910121030 METAR LMML NIL=
200910121015 METAR LMML 121015Z 25013KT 190V290 9999 SCT024 23/17 Q1013
                        NOSIG RMK CB TO NORTH=
200910121000 METAR LMML NIL=
200910120945 METAR LMML 120945Z 26012KT 190V300 9999 SCT023 23/17 Q1013
                        TEMPO 8000 SHRA RMK CB TO NW=
200910120930 METAR LMML NIL=
200910120915 METAR LMML 120915Z 24011KT 210V290 9999 SCT025TCU 23/17 Q1013
                        TEMPO 8000 SHRA SCT025TCU=
200910120900 METAR LMML NIL=
200910120845 METAR LMML 120845Z 24009KT 200V280 9999 BKN025 22/17 Q1013
                        TEMPO 8000 SHRA SCT025TCU=
200910120830 METAR LMML NIL=
200910120815 METAR LMML 120815Z 24008KT 200V290 9999 SCT029 23/17 Q1013
                        NOSIG=
200910120800 METAR LMML NIL=
200910120745 METAR LMML 120745Z 24004KT 200V290 9999 SCT024 22/18 Q1013
                        NOSIG=
200910120730 METAR LMML NIL=
200910120715 METAR LMML 120715Z 22004KT 190V250 9999 SCT025 20/17 Q1013
                        BECMG FEW020=
200910120700 METAR LMML NIL=
200910120645 METAR LMML 120645Z VRB03KT 9999 SCT030TCU 20/17 Q1013 BECMG
                        FEW020=
200910120630 METAR LMML NIL=
200910120615 METAR LMML 120615Z 25009KT 190V300 9999 SHRA FEW005 SCT020CB
                        19/17 Q1013 TEMPO 8000 SHRA=
200910120604 SPECI LMML 120604Z 26007KT 230V310 3000 SHRA SCT032CB 20/17
                        Q1013 TEMPO TSRA BKN015CB=
200910120600 METAR LMML NIL=
200910120545 METAR LMML 120545Z 26004KT 230V290 9999 FEW023CB FEW028TCU
                        20/16 Q1013 TEMPO 8000 SHRA RMK CB
                        TO WEST=
200910120530 METAR LMML NIL=
200910120515 METAR LMML 120515Z 26005KT 9999 FEW023CB FEW028TCU 20/16
                        Q1013 TEMPO 9000 SHRA RMK CB TO WEST=
200910120500 METAR LMML NIL=
200910120445 METAR LMML 120445Z 24004KT 9999 SCT024 19/16 Q1013 NOSIG
                        RMK LIGHTNING TO SE=
200910120430 METAR LMML NIL=
200910120415 METAR LMML 120415Z VRB03KT 9999 FEW023 SCT110 19/16 Q1013
                        TEMPO 5000 TSRA BKN015CB=
200910120400 METAR LMML NIL=
200910120345 METAR LMML 120345Z 25004KT 220V280 9999 FEW023 SCT110 19/16
                        Q1013 TEMPO 5000 TSRA BKN015CB=
200910120330 METAR LMML NIL=
200910120315 METAR LMML 120315Z 27004KT 9999 FEW023 BKN110 19/16 Q1013
                        TEMPO 5000 TSRA BKN015CB=
200910120300 METAR LMML NIL=
200910120245 METAR LMML 120245Z 26004KT 9999 FEW023 SCT090 20/17 Q1013
                        TEMPO 5000 TSRA BKN015CB RMK LIGHTNING
                        TO SOUTH=
200910120230 METAR LMML NIL=
200910120215 METAR LMML 120215Z 26005KT 230V290 9999 FEW023 SCT090 19/16
                        Q1013 TEMPO 5000 TSRA BKN015CB=
200910120200 METAR LMML NIL=
200910120145 METAR LMML 120145Z 27004KT 240V300 9999 FEW020 SCT090 20/16
                        Q1013 TEMPO 5000 TSRA BKN015CB=
200910120130 METAR LMML NIL=
200910120115 METAR LMML 120115Z VRB03KT 9999 FEW020 SCT090 20/17 Q1013
                        TEMPO 5000 TSRA BKN015CB RMK LIGHTNING
                        TO SW=
200910120100 METAR LMML NIL=
200910120045 METAR LMML 120045Z VRB03KT 9999 FEW022 BKN090 BKN250 20/17
                        Q1014 TEMPO 5000 TSRA BKN015CB=
200910120030 METAR LMML NIL=
200910120015 METAR LMML 120015Z VRB02KT 9999 FEW022 BKN090 BKN250 20/17
                        Q1014 TEMPO 5000 TSRA BKN015CB=
200910120000 METAR LMML NIL=
200910112345 METAR LMML 112345Z VRB03KT 9999 FEW024 BKN090 BKN250 20/17
                        Q1014 TEMPO 5000 TSRA BKN015CB=
200910112330 METAR LMML NIL=
200910112315 METAR LMML 112315Z VRB03KT 9999 FEW024 BKN090 BKN250 19/17
                        Q1014 TEMPO 5000 TSRA BKN015CB=
200910112300 METAR LMML NIL=
200910112245 METAR LMML 112245Z 27005KT 240V300 9999 FEW024 SCT090 BKN250
                        20/16 Q1014 TEMPO 5000 TSRA BKN015CB=
200910112230 METAR LMML NIL=
200910112215 METAR LMML 112215Z VRB03KT 9999 SCT018 BKN100 BKN250 20/17
                        Q1015 TEMPO 5000 TSRA BKN015CB RMK
                        LIGHTNING TO NE=
200910112200 METAR LMML NIL=
200910112145 METAR LMML 112145Z VRB03KT 9999 FEW020 SCT120 BKN250 20/17
                        Q1015 TEMPO 5000 TSRA BKN015CB RMK
                        LIGHNTING TO N=
200910112130 METAR LMML NIL=
200910112115 METAR LMML 112115Z VRB02KT 9999 FEW020 BKN100 BKN250 20/18
                        Q1015 TEMPO 5000 TSRA BKN015CB RMK
                        LIGHTNING TO N=
200910112100 METAR LMML NIL=
200910112045 METAR LMML 112045Z VRB03KT 9999 FEW020 BKN100 BKN250 20/18
                        Q1015 NOSIG RMK LIGHTNING TO N=
200910112030 METAR LMML NIL=
200910112015 METAR LMML 112015Z VRB03KT 9999 FEW020 SCT090 20/18 Q1015
                        NOSIG=
200910112000 METAR LMML NIL=
200910111945 METAR LMML 111945Z VRB03KT 9999 FEW020 SCT120 19/17 Q1015
                        NOSIG=
200910111930 METAR LMML NIL=
200910111915 METAR LMML 111915Z VRB01KT 9999 FEW020 SCT120 20/17 Q1015
                        NOSIG=
200910111900 METAR LMML NIL=
200910111845 METAR LMML 111845Z VRB01KT 9999 FEW020 SCT120 20/17 Q1015
                        NOSIG=
200910111830 METAR LMML NIL=
200910111815 METAR LMML 111815Z VRB02KT 9999 FEW020 BKN120 21/17 Q1014
                        NOSIG=
200910111800 METAR LMML NIL=
200910111745 METAR LMML 111745Z VRB03KT 9999 FEW020 SCT120 BKN250 20/17
                        Q1014 NOSIG=
200910111730 METAR LMML NIL=
200910111715 METAR LMML 111715Z VRB02KT 9999 FEW020 SCT120 BKN250 21/17
                        Q1014 NOSIG=
200910111700 METAR LMML NIL=
200910111645 METAR LMML 111645Z VRB01KT 9999 FEW020 SCT120 BKN250 21/17
                        Q1014 NOSIG=
200910111630 METAR LMML NIL=
200910111615 METAR LMML 111615Z 31004KT 9999 FEW020 BKN250 21/18 Q1014
                        NOSIG=
200910111600 METAR LMML NIL=
200910111545 METAR LMML 111545Z 31006KT 270V330 9999 FEW020 SCT110 BKN250
                        22/18 Q1014 TEMPO 8000 SHRA BKN015=
200910111530 METAR LMML NIL=
200910111515 METAR LMML 111515Z 29008KT 9999 FEW020 SCT110 22/18 Q1014
                        RETS TEMPO 8000 SHRA BKN015=
200910111500 METAR LMML NIL=
200910111445 METAR LMML 111445Z 31007KT 9999 -RA FEW020CB BKN120 22/18
                        Q1014 RETS TEMPO 3000 TSRA BKN015CB=
200910111430 METAR LMML NIL=
200910111415 METAR LMML 111415Z 28007KT 250V310 9999 TS SCT020CB BKN200
                        23/16 Q1014 TEMPO 3000 TSRA BKN015CB=
200910111403 SPECI LMML 111403Z 28007KT 260V320 9999 TS FEW020CB BKN200
                        23/16 Q1014 TEMPO 3000 TSRA BKN015CB=
200910111400 METAR LMML NIL=
200910111345 METAR LMML 111345Z 29006KT 240V330 9999 FEW026 BKN250 24/17
                        Q1014 TEMPO 8000 SHRA BKN015 RMK
                        CB TOP TO WEST=
200910111330 METAR LMML NIL=
200910111315 METAR LMML 111315Z 28007KT 240V310 9999 SCT025TCU BKN250
                        25/18 Q1014 TEMPO 8000 SHRA BKN015=
200910111300 METAR LMML NIL=
200910111245 METAR LMML 111245Z 05004KT 9999 SCT024TCU BKN250 25/17 Q1014
                        TEMPO 8000 SHRA BKN015=
200910111230 METAR LMML NIL=
200910111215 METAR LMML 111215Z VRB03KT 9999 SCT025 BKN250 24/18 Q1014
                        TEMPO 8000 SHRA BKN015=
200910111200 METAR LMML NIL=
200910111145 METAR LMML 111145Z 04005KT 260V080 9999 -SHRA BKN018 SCT250
                        24/18 Q1014 TEMPO 8000 SHRA BKN015
                        RMK CB TOP TO WEST=
200910111130 METAR LMML NIL=
200910111115 METAR LMML 111115Z VRB02KT 9999 BKN024 SCT250 24/19 Q1014
                        NOSIG=
200910111100 METAR LMML NIL=
200910111045 METAR LMML 111045Z VRB03KT 9999 SCT022 SCT250 26/20 Q1014
                        NOSIG=
200910111030 METAR LMML NIL=
200910111015 METAR LMML 111015Z 08006KT 040V120 9999 SCT022 BKN250 24/19
                        Q1015 TEMPO 8000 SHRA BKN015=
200910111000 METAR LMML NIL=
200910110945 METAR LMML 110945Z VRB03KT 9999 SCT020 SCT250 25/19 Q1015
                        TEMPO 8000 SHRA BKN015=
200910110930 METAR LMML NIL=
200910110915 METAR LMML 110915Z VRB03KT 9999 BKN023 SCT250 24/18 Q1014
                        NOSIG=
200910110900 METAR LMML NIL=
200910110845 METAR LMML 110845Z VRB01KT 9999 FEW022 25/19 Q1015 NOSIG=
200910110830 METAR LMML NIL=
200910110815 METAR LMML 110815Z 32004KT 290V350 9999 FEW019TCU SCT250
                        22/19 Q1015 TEMPO 8000 SHRA BKN015=
200910110800 METAR LMML NIL=
200910110745 METAR LMML 110745Z 35004KT 290V030 9999 SCT020TCU SCT250
                        22/20 Q1015 TEMPO 8000 SHRA BKN015=
200910110730 METAR LMML NIL=
200910110715 METAR LMML 110715Z VRB02KT 9999 SCT020 23/20 Q1014 NOSIG=
200910110700 METAR LMML NIL=
200910110645 METAR LMML 110645Z VRB03KT 9999 FEW020 SCT250 20/20 Q1014
                        NOSIG=
200910110630 METAR LMML NIL=
200910110615 METAR LMML 110615Z 00000KT 9999 FEW017 SCT250 20/20 Q1014
                        NOSIG=
200910110600 METAR LMML NIL=
200910110545 METAR LMML 110545Z VRB01KT 9999 FEW017 20/20 Q1014 TEMPO
                        8000 SHRA BKN015=
200910110530 METAR LMML NIL=
200910110515 METAR LMML 110515Z VRB02KT 9999 BKN017 20/19 Q1014 TEMPO
                        8000 SHRA BKN015=
200910110500 METAR LMML NIL=
200910110445 METAR LMML 110445Z VRB01KT 9999 -SHRA BKN016 20/19 Q1014
                        TEMPO 5000 SHRA BKN015=
200910110430 METAR LMML NIL=
200910110415 METAR LMML 110415Z VRB02KT 9999 -SHRA BKN016 21/19 Q1014
                        TEMPO 5000 SHRA BKN015=
200910110400 METAR LMML NIL=
200910110345 METAR LMML 110345Z VRB02KT 9999 BKN017 21/19 Q1014 TEMPO
                        5000 SHRA BKN015=
200910110330 METAR LMML NIL=
200910110315 METAR LMML 110315Z VRB03KT 9999 BKN018 21/19 Q1014 TEMPO
                        SHRA 5000 BKN015=
200910110300 METAR LMML NIL=
200910110245 METAR LMML 110245Z VRB03KT 9999 BKN020 21/18 Q1014 TEMPO
                        SHRA 5000 BKN015=
200910110230 METAR LMML NIL=
200910110215 METAR LMML 110215Z 23004KT 200V260 9999 BKN019 21/18 Q1014
                        NOSIG=
200910110200 METAR LMML NIL=
200910110145 METAR LMML 110145Z 23004KT 200V270 9999 SCT019 21/18 Q1014
                        NOSIG=
200910110130 METAR LMML NIL=
200910110115 METAR LMML 110115Z 23005KT 9999 SCT033 21/18 Q1014 NOSIG=
200910110100 METAR LMML NIL=
200910110045 METAR LMML 110045Z VRB03KT 9999 FEW031 20/17 Q1014 NOSIG=
200910110030 METAR LMML NIL=
200910110015 METAR LMML 110015Z 23004KT 9999 FEW020 20/17 Q1014 NOSIG=
200910110000 METAR LMML NIL=
200910102345 METAR LMML 102345Z VRB03KT 9999 FEW020 20/17 Q1015 NOSIG=
200910102330 METAR LMML NIL=
200910102315 METAR LMML 102315Z VRB03KT 9999 FEW020 20/17 Q1015 NOSIG=
200910102300 METAR LMML NIL=
200910102245 METAR LMML 102245Z VRB03KT 9999 FEW020 20/17 Q1015 NOSIG=
200910102230 METAR LMML NIL=
200910102215 METAR LMML 102215Z VRB03KT 9999 FEW020 20/18 Q1015 NOSIG=
200910102200 METAR LMML NIL=
200910102145 METAR LMML 102145Z VRB03KT 9999 FEW020 20/17 Q1015 NOSIG=
200910102130 METAR LMML NIL=
200910102115 METAR LMML 102115Z VRB03KT 9999 FEW020 20/18 Q1015 NOSIG=
200910102100 METAR LMML NIL=
200910102045 METAR LMML 102045Z VRB03KT 9999 FEW020 20/18 Q1016 NOSIG=
200910102030 METAR LMML NIL=
200910102015 METAR LMML 102015Z VRB02KT 9999 FEW020 20/18 Q1016 NOSIG=
200910102000 METAR LMML NIL=
200910101945 METAR LMML 101945Z VRB03KT 9999 FEW020 20/18 Q1016 NOSIG=
200910101930 METAR LMML NIL=
200910101915 METAR LMML 101915Z VRB03KT 9999 FEW020 21/18 Q1016 NOSIG=
200910101900 METAR LMML NIL=
200910101845 METAR LMML 101845Z 27004KT 9999 FEW021 21/18 Q1016 NOSIG=
200910101830 METAR LMML NIL=
200910101815 METAR LMML 101815Z 27004KT 230V300 9999 FEW021 22/18 Q1016
                        NOSIG=
200910101800 METAR LMML NIL=
200910101745 METAR LMML 101745Z VRB03KT 9999 FEW029 21/17 Q1016 NOSIG=
200910101730 METAR LMML NIL=
200910101715 METAR LMML 101715Z 25004KT 210V280 9999 FEW025 22/17 Q1016
                        NOSIG=
200910101700 METAR LMML NIL=
200910101645 METAR LMML 101645Z 27004KT 9999 FEW025 22/17 Q1015 NOSIG=
200910101630 METAR LMML NIL=
200910101615 METAR LMML 101615Z 28007KT 9999 FEW025 23/17 Q1015 NOSIG=
200910101600 METAR LMML NIL=
200910101545 METAR LMML 101545Z 28007KT 9999 FEW024 23/17 Q1015 NOSIG=
200910101530 METAR LMML NIL=
200910101515 METAR LMML 101515Z 27006KT 230V310 9999 SCT026 24/17 Q1015
                        NOSIG=
200910101500 METAR LMML NIL=
200910101445 METAR LMML 101445Z 25007KT 220V300 9999 SCT026 24/17 Q1015
                        NOSIG=
200910101430 METAR LMML NIL=
200910101415 METAR LMML 101415Z 26007KT 220V300 9999 SCT027 24/17 Q1015
                        NOSIG=
200910101400 METAR LMML NIL=
200910101345 METAR LMML 101345Z 24007KT 190V280 9999 SCT027 24/17 Q1015
                        NOSIG=
200910101330 METAR LMML NIL=
200910101315 METAR LMML 101315Z 24007KT 190V310 9999 SCT030 25/18 Q1015
                        NOSIG=
200910101300 METAR LMML NIL=
200910101245 METAR LMML 101245Z 25007KT 200V290 9999 SCT025 25/18 Q1016
                        NOSIG=
200910101230 METAR LMML NIL=
200910101215 METAR LMML 101215Z 25005KT 210V290 9999 SCT025 24/18 Q1016
                        NOSIG=
200910101200 METAR LMML NIL=
200910101145 METAR LMML 101145Z 27006KT 210V320 9999 BKN027 25/18 Q1016
                        NOSIG=
200910101130 METAR LMML NIL=
200910101115 METAR LMML 101115Z 25006KT 200V300 9999 SCT027 25/17 Q1016
                        NOSIG=
200910101100 METAR LMML NIL=
200910101045 METAR LMML 101045Z 25007KT 200V330 9999 SCT029 25/17 Q1017
                        NOSIG=
200910101030 METAR LMML NIL=
200910101015 METAR LMML 101015Z 25007KT 200V290 9999 SCT029 25/17 Q1017
                        NOSIG=
200910101000 METAR LMML NIL=
200910100945 METAR LMML 100945Z 28005KT 250V310 9999 SCT027 23/17 Q1017
                        NOSIG=
200910100930 METAR LMML NIL=
200910100915 METAR LMML 100915Z 29006KT 260V320 9999 SCT024 23/17 Q1017
                        NOSIG=
200910100900 METAR LMML NIL=
200910100845 METAR LMML 100845Z VRB02KT 9999 SCT019 24/18 Q1017 NOSIG=
200910100830 METAR LMML NIL=
200910100815 METAR LMML 100815Z VRB03KT 9999 BKN020 23/18 Q1017 NOSIG=
200910100800 METAR LMML NIL=
200910100745 METAR LMML 100745Z VRB03KT 9999 SCT023 23/18 Q1017 NOSIG=
200910100730 METAR LMML NIL=
200910100715 METAR LMML 100715Z VRB02KT 9999 SCT019 23/18 Q1017 NOSIG=
200910100700 METAR LMML NIL=
200910100645 METAR LMML 100645Z VRB02KT 9999 FEW021 22/18 Q1017 NOSIG=
200910100630 METAR LMML NIL=
200910100615 METAR LMML 100615Z VRB02KT 9999 FEW023 20/18 Q1017 NOSIG=
200910100600 METAR LMML NIL=
200910100545 METAR LMML 100545Z VRB01KT 9999 FEW024 18/17 Q1017 NOSIG=
200910100530 METAR LMML NIL=
200910100515 METAR LMML 100515Z VRB03KT 9999 FEW024 18/17 Q1017 NOSIG=
200910100500 METAR LMML NIL=
200910100445 METAR LMML 100445Z VRB03KT 9999 FEW021 18/17 Q1017 NOSIG=
200910100430 METAR LMML NIL=
200910100415 METAR LMML 100415Z VRB03KT 9999 FEW021 18/17 Q1017 NOSIG=
200910100400 METAR LMML NIL=
200910100345 METAR LMML 100345Z 27004KT 240V300 9999 FEW021 19/17 Q1017
                        NOSIG=
200910100330 METAR LMML NIL=
200910100315 METAR LMML 100315Z 27004KT 240V300 9999 FEW022 18/17 Q1017
                        NOSIG=
200910100300 METAR LMML NIL=
200910100245 METAR LMML 100245Z VRB03KT 9999 FEW022 18/17 Q1017 NOSIG=
200910100230 METAR LMML NIL=
200910100215 METAR LMML 100215Z VRB03KT 9999 FEW025 18/18 Q1017 NOSIG=
200910100200 METAR LMML NIL=
200910100145 METAR LMML 100145Z VRB03KT 9999 FEW025 18/18 Q1017 NOSIG=
200910100130 METAR LMML NIL=
200910100115 METAR LMML 100115Z VRB02KT 9999 FEW025 18/18 Q1017 NOSIG=
200910100100 METAR LMML NIL=
200910100045 METAR LMML 100045Z VRB02KT 9999 FEW025 18/17 Q1017 NOSIG=
200910100030 METAR LMML NIL=
200910100015 METAR LMML 100015Z VRB03KT 9999 FEW025 18/17 Q1017 NOSIG=
200910100000 METAR LMML NIL=
200910092345 METAR LMML 092345Z VRB03KT 9999 FEW025 19/17 Q1018 NOSIG=
200910092315 METAR LMML 092315Z VRB03KT 9999 FEW025 19/17 Q1018 NOSIG=
200910092300 METAR LMML NIL=
200910092245 METAR LMML 092245Z VRB03KT 9999 FEW025 18/17 Q1018 NOSIG=
200910092230 METAR LMML NIL=
200910092215 METAR LMML 092215Z VRB02KT 9999 FEW025 19/17 Q1018 NOSIG=
200910092200 METAR LMML NIL=
200910092145 METAR LMML 092145Z VRB01KT 9999 FEW025 19/17 Q1018 NOSIG=
200910092130 METAR LMML NIL=
200910092115 METAR LMML 092115Z VRB02KT 9999 FEW025 19/17 Q1018 NOSIG=
200910092100 METAR LMML NIL=
200910092045 METAR LMML 092045Z VRB02KT 9999 FEW025 19/17 Q1018 NOSIG=
200910092030 METAR LMML NIL=
200910092015 METAR LMML 092015Z VRB03KT 9999 FEW025 19/17 Q1018 NOSIG=
200910092000 METAR LMML NIL=
200910091945 METAR LMML 091945Z VRB03KT 9999 FEW025 20/17 Q1018 NOSIG=
200910091930 METAR LMML NIL=
200910091915 METAR LMML 091915Z VRB03KT 9999 FEW025 20/17 Q1018 NOSIG=
200910091900 METAR LMML NIL=
200910091845 METAR LMML 091845Z VRB03KT 9999 FEW025 21/17 Q1018 NOSIG=
200910091815 METAR LMML 091815Z 29004KT 9999 FEW025 21/17 Q1018 NOSIG=
200910091745 METAR LMML 091745Z VRB03KT 9999 FEW025 21/17 Q1017 NOSIG=
200910091715 METAR LMML 091715Z 29004KT 9999 FEW025 22/17 Q1017 NOSIG=
200910091700 METAR LMML NIL=
200910091645 METAR LMML 091645Z 30004KT 9999 FEW025 22/17 Q1017 NOSIG=
200910091630 METAR LMML NIL=
200910091615 METAR LMML 091615Z 31004KT 9999 FEW027 23/17 Q1017 NOSIG=
200910091600 METAR LMML NIL=
200910091545 METAR LMML 091545Z 31005KT 270V340 9999 FEW026 24/16 Q1017
                        NOSIG=
200910091530 METAR LMML NIL=
200910091515 METAR LMML 091515Z 29004KT 220V340 9999 FEW028 24/16 Q1017
                        NOSIG=
200910091500 METAR LMML NIL=
200910091445 METAR LMML 091445Z 28005KT 250V320 9999 FEW031 25/17 Q1017
                        NOSIG=
200910091430 METAR LMML NIL=
200910091415 METAR LMML 091415Z 29005KT 230V330 9999 FEW029 25/17 Q1017
                        NOSIG=
200910091400 METAR LMML NIL=
200910091345 METAR LMML 091345Z VRB01KT 9999 FEW028 26/17 Q1018 NOSIG=
200910091330 METAR LMML NIL=
200910091315 METAR LMML 091315Z VRB03KT 9999 FEW023 24/18 Q1018 NOSIG=
200910091300 METAR LMML NIL=
200910091245 METAR LMML 091245Z 03004KT 340V100 9999 FEW024 24/18 Q1018
                        NOSIG=
200910091230 METAR LMML NIL=
200910091215 METAR LMML 091215Z 05004KT 320V110 9999 FEW024 24/18 Q1018
                        NOSIG=
200910091200 METAR LMML NIL=
200910091145 METAR LMML 091145Z 05004KT 340V100 9999 FEW028 25/19 Q1018
                        NOSIG=
200910091115 METAR LMML 091115Z 01007KT 340V040 9999 SCT025 25/18 Q1018
                        NOSIG=
200910091045 METAR LMML 091045Z 18004KT 080V300 9999 FEW029 25/18 Q1018
                        NOSIG=
200910091030 METAR LMML NIL=
200910091015 METAR LMML 091015Z 21005KT 180V260 9999 FEW024 25/18 Q1019
                        NOSIG=
200910091000 METAR LMML NIL=
200910090945 METAR LMML 090945Z VRB02KT 9999 SCT027 25/18 Q1019 NOSIG=
200910090930 METAR LMML NIL=
200910090915 METAR LMML 090915Z VRB01KT 9999 SCT024 25/17 Q1019 NOSIG=
200910090900 METAR LMML NIL=
200910090845 METAR LMML 090845Z VRB01KT 9999 SCT022 24/17 Q1019 NOSIG=
200910090830 METAR LMML NIL=
200910090815 METAR LMML 090815Z VRB02KT 9999 SCT019 24/18 Q1019 NOSIG=
200910090800 METAR LMML NIL=
200910090745 METAR LMML 090745Z 31004KT 280V340 9999 FEW020 23/18 Q1019
                        NOSIG=
200910090730 METAR LMML NIL=
200910090715 METAR LMML 090715Z VRB03KT 9999 FEW020 22/18 Q1019 NOSIG=
200910090700 METAR LMML NIL=
200910090645 METAR LMML 090645Z VRB03KT 9999 FEW020 21/19 Q1018 NOSIG=
200910090630 METAR LMML NIL=
200910090615 METAR LMML 090615Z VRB03KT 9999 FEW015 20/19 Q1018 NOSIG=
200910090600 METAR LMML NIL=
200910090545 METAR LMML 090545Z VRB03KT 9999 FEW015 18/18 Q1018 NOSIG=
200910090530 METAR LMML NIL=
200910090515 METAR LMML 090515Z VRB03KT 9999 FEW015 18/18 Q1018 NOSIG=
200910090500 METAR LMML NIL=
200910090445 METAR LMML 090445Z VRB03KT 9999 FEW015 18/18 Q1018 TEMPO
                        9000=
200910090430 METAR LMML NIL=
200910090415 METAR LMML 090415Z VRB03KT 9999 FEW015 18/18 Q1018 TEMPO
                        9000=
200910090400 METAR LMML NIL=
200910090345 METAR LMML 090345Z VRB03KT 9999 FEW015 18/18 Q1018 TEMPO
                        9000=
200910090330 METAR LMML NIL=
200910090315 METAR LMML 090315Z VRB03KT 9999 FEW015 18/18 Q1018 TEMPO
                        9000=
200910090300 METAR LMML NIL=
200910090245 METAR LMML 090245Z VRB03KT 9999 FEW015 18/18 Q1017 TEMPO
                        9000=
200910090230 METAR LMML NIL=
200910090215 METAR LMML 090215Z VRB02KT 9999 FEW015 17/17 Q1017 NOSIG=
200910090200 METAR LMML NIL=
200910090145 METAR LMML 090145Z VRB02KT 9999 FEW015 18/18 Q1017 NOSIG=
200910090130 METAR LMML NIL=
200910090115 METAR LMML 090115Z VRB02KT 9999 FEW015 18/18 Q1018 NOSIG=
200910090100 METAR LMML NIL=
200910090045 METAR LMML 090045Z VRB02KT CAVOK 18/18 Q1018 NOSIG=
200910090030 METAR LMML NIL=
200910090015 METAR LMML 090015Z VRB02KT CAVOK 18/18 Q1018 NOSIG=
200910090000 METAR LMML NIL=
200910082345 METAR LMML 082345Z VRB02KT CAVOK 18/17 Q1018 NOSIG=
200910082330 METAR LMML NIL=
200910082315 METAR LMML 082315Z VRB02KT CAVOK 18/18 Q1018 NOSIG=
200910082300 METAR LMML NIL=
200910082245 METAR LMML 082245Z VRB02KT CAVOK 18/17 Q1018 NOSIG=
200910082230 METAR LMML NIL=
200910082215 METAR LMML 082215Z VRB01KT CAVOK 18/17 Q1018 NOSIG=
200910082145 METAR LMML 082145Z VRB02KT 9999 FEW020 19/17 Q1018 NOSIG=
200910082130 METAR LMML NIL=
200910082115 METAR LMML 082115Z VRB02KT 9999 FEW020 19/17 Q1018 NOSIG=
200910082100 METAR LMML NIL=
200910082045 METAR LMML 082045Z VRB01KT 9999 FEW020 19/17 Q1018 NOSIG=
200910082030 METAR LMML NIL=
200910082015 METAR LMML 082015Z VRB02KT 9999 FEW021 19/17 Q1018 NOSIG=
200910082000 METAR LMML NIL=
200910081945 METAR LMML 081945Z VRB02KT 9999 FEW021 19/17 Q1018 NOSIG=
200910081930 METAR LMML NIL=
200910081915 METAR LMML 081915Z VRB02KT 9999 FEW021 19/17 Q1018 NOSIG=
200910081900 METAR LMML NIL=
200910081845 METAR LMML 081845Z VRB02KT 9999 FEW021 20/17 Q1018 NOSIG=
200910081830 METAR LMML NIL=
200910081815 METAR LMML 081815Z VRB02KT 9999 FEW021 20/17 Q1018 NOSIG=
200910081745 METAR LMML 081745Z VRB03KT 9999 FEW021 21/17 Q1018 NOSIG=
200910081730 METAR LMML NIL=
200910081715 METAR LMML 081715Z 30004KT 9999 FEW025 21/17 Q1018 NOSIG=
200910081700 METAR LMML NIL=
200910081645 METAR LMML 081645Z 30004KT 9999 FEW025 22/17 Q1018 NOSIG=
200910081630 METAR LMML NIL=
200910081615 METAR LMML 081615Z VRB03KT 9999 FEW026 23/17 Q1018 NOSIG=
200910081600 METAR LMML NIL=
200910081545 METAR LMML 081545Z VRB03KT 9999 FEW026 23/19 Q1018 NOSIG=
200910081530 METAR LMML NIL=
200910081515 METAR LMML 081515Z 10004KT 060V150 9999 SCT020 23/18 Q1018
                        NOSIG=
200910081445 METAR LMML 081445Z 06004KT 340V180 9999 FEW020 23/18 Q1018
                        NOSIG=
200910081430 METAR LMML NIL=
200910081415 METAR LMML 081415Z 08005KT 040V120 9999 SCT029 24/19 Q1018
                        NOSIG=
200910081400 METAR LMML NIL=
200910081345 METAR LMML 081345Z 28004KT 9999 SCT022 24/18 Q1018 NOSIG=
200910081330 METAR LMML NIL=
200910081315 METAR LMML 081315Z 03005KT 190V080 9999 SCT023 24/18 Q1018
                        NOSIG=
200910081300 METAR LMML NIL=
200910081245 METAR LMML 081245Z 05005KT 010V100 9999 SCT022 25/19 Q1018
                        NOSIG=
200910081230 METAR LMML NIL=
200910081215 METAR LMML 081215Z 06005KT 350V110 9999 BKN021 24/18 Q1019
                        NOSIG=
200910081200 METAR LMML NIL=
200910081145 METAR LMML 081145Z VRB03KT 9999 BKN025 24/19 Q1019 NOSIG=
200910081130 METAR LMML NIL=
200910081115 METAR LMML 081115Z VRB03KT 9999 BKN023 25/19 Q1019 NOSIG=
200910081100 METAR LMML NIL=
200910081045 METAR LMML 081045Z 03004KT 310V120 9999 BKN022 26/19 Q1020
                        NOSIG=
200910081030 METAR LMML NIL=
200910081015 METAR LMML 081015Z 02004KT 340V060 9999 SCT025 24/18 Q1020
                        NOSIG=
200910081000 METAR LMML NIL=
200910080945 METAR LMML 080945Z VRB02KT 9999 FEW026 24/17 Q1020 NOSIG=
200910080930 METAR LMML NIL=
200910080915 METAR LMML 080915Z VRB02KT 9999 FEW026 25/17 Q1020 NOSIG=
200910080900 METAR LMML NIL=
200910080845 METAR LMML 080845Z VRB02KT 9999 FEW020 24/17 Q1020 NOSIG=
200910080830 METAR LMML NIL=
200910080815 METAR LMML 080815Z VRB03KT 9999 FEW020 23/18 Q1020 NOSIG=
200910080745 METAR LMML 080745Z VRB03KT 9999 FEW020 23/18 Q1020 NOSIG=
200910080730 METAR LMML NIL=
200910080715 METAR LMML 080715Z VRB03KT 9999 FEW015 22/18 Q1020 NOSIG=
200910080700 METAR LMML NIL=
200910080645 METAR LMML 080645Z VRB02KT 9999 FEW015 21/18 Q1020 NOSIG=
200910080630 METAR LMML NIL=
200910080615 METAR LMML 080615Z VRB03KT 9999 FEW015 20/18 Q1020 NOSIG=
200910080600 METAR LMML NIL=
200910080545 METAR LMML 080545Z VRB03KT 9999 FEW015 18/18 Q1020 NOSIG=
200910080530 METAR LMML NIL=
200910080515 METAR LMML 080515Z VRB02KT 9000 FEW015 18/17 Q1019 NOSIG=
200910080500 METAR LMML NIL=
200910080445 METAR LMML 080445Z VRB03KT 9999 FEW020 18/17 Q1019 NOSIG=
200910080430 METAR LMML NIL=
200910080415 METAR LMML 080415Z VRB03KT CAVOK 18/17 Q1019 NOSIG=
200910080400 METAR LMML NIL=
200910080345 METAR LMML 080345Z VRB03KT CAVOK 18/17 Q1019 NOSIG=
200910080330 METAR LMML NIL=
200910080315 METAR LMML 080315Z VRB03KT CAVOK 18/17 Q1019 NOSIG=
200910080300 METAR LMML NIL=
200910080245 METAR LMML 080245Z VRB03KT CAVOK 18/17 Q1019 NOSIG=
200910080230 METAR LMML NIL=
200910080215 METAR LMML 080215Z 29004KT CAVOK 19/17 Q1019 NOSIG=
200910080200 METAR LMML NIL=
200910080145 METAR LMML 080145Z 29004KT CAVOK 19/17 Q1019 NOSIG=
200910080130 METAR LMML NIL=
200910080115 METAR LMML 080115Z VRB03KT CAVOK 18/17 Q1019 NOSIG=
200910080100 METAR LMML NIL=
200910080045 METAR LMML 080045Z 30004KT CAVOK 19/17 Q1020 NOSIG=
200910080030 METAR LMML NIL=
200910080015 METAR LMML 080015Z VRB03KT CAVOK 19/17 Q1020 NOSIG=
200910080000 METAR LMML NIL=
200910072345 METAR LMML 072345Z 29004KT CAVOK 19/17 Q1020 NOSIG=
200910072330 METAR LMML NIL=
200910072315 METAR LMML 072315Z VRB03KT CAVOK 18/17 Q1021 NOSIG=
200910072300 METAR LMML NIL=
200910072245 METAR LMML 072245Z VRB03KT CAVOK 19/16 Q1021 NOSIG=
200910072230 METAR LMML NIL=
200910072215 METAR LMML 072215Z VRB03KT CAVOK 19/16 Q1021 NOSIG=
200910072200 METAR LMML NIL=
200910072145 METAR LMML 072145Z VRB03KT CAVOK 19/16 Q1021 NOSIG=
200910072130 METAR LMML NIL=
200910072115 METAR LMML 072115Z VRB03KT CAVOK 19/15 Q1021 NOSIG=
200910072100 METAR LMML NIL=
200910072045 METAR LMML 072045Z VRB02KT CAVOK 18/15 Q1021 NOSIG=
200910072030 METAR LMML NIL=
200910072015 METAR LMML 072015Z VRB02KT CAVOK 18/15 Q1021 NOSIG=
200910072000 METAR LMML NIL=
200910071945 METAR LMML 071945Z VRB02KT CAVOK 19/15 Q1021 NOSIG=
200910071930 METAR LMML NIL=
200910071915 METAR LMML 071915Z VRB02KT CAVOK 19/15 Q1021 NOSIG=
200910071900 METAR LMML NIL=
200910071845 METAR LMML 071845Z VRB02KT CAVOK 19/15 Q1021 NOSIG=
200910071815 METAR LMML 071815Z VRB03KT CAVOK 20/15 Q1021 NOSIG=
200910071800 METAR LMML NIL=
200910071745 METAR LMML 071745Z VRB02KT CAVOK 21/15 Q1021 NOSIG=
200910071730 METAR LMML NIL=
200910071715 METAR LMML 071715Z VRB03KT 9999 FEW025 21/15 Q1021 NOSIG=
200910071700 METAR LMML NIL=
200910071645 METAR LMML 071645Z VRB03KT 9999 FEW025 21/15 Q1021 NOSIG=
200910071630 METAR LMML NIL=
200910071615 METAR LMML 071615Z 35004KT 9999 FEW025 23/14 Q1021 NOSIG=
200910071600 METAR LMML NIL=
200910071545 METAR LMML 071545Z 36004KT 9999 FEW027 24/15 Q1021 NOSIG=
200910071530 METAR LMML NIL=
200910071515 METAR LMML 071515Z 36004KT 320V050 9999 FEW027 24/17 Q1021
                        NOSIG=
200910071500 METAR LMML NIL=
200910071445 METAR LMML 071445Z VRB03KT 9999 FEW026 23/17 Q1021 NOSIG=
200910071430 METAR LMML NIL=
200910071415 METAR LMML 071415Z 04004KT 360V090 9999 FEW025 24/17 Q1021
                        NOSIG=
200910071400 METAR LMML NIL=
200910071345 METAR LMML 071345Z 05005KT 020V080 9999 FEW026 24/18 Q1021
                        NOSIG=
200910071330 METAR LMML NIL=
200910071315 METAR LMML 071315Z 05005KT 030V090 9999 SCT025 23/18 Q1021
                        NOSIG=
200910071300 METAR LMML NIL=
200910071245 METAR LMML 071245Z 05005KT 350V130 9999 SCT024 24/18 Q1021
                        NOSIG=
200910071230 METAR LMML NIL=
200910071215 METAR LMML 071215Z 07005KT 020V100 9999 SCT028 25/17 Q1022
                        NOSIG=
200910071200 METAR LMML NIL=
200910071145 METAR LMML 071145Z 03005KT 010V090 9999 SCT028 25/18 Q1022
                        NOSIG=
200910071130 METAR LMML NIL=
200910071115 METAR LMML 071115Z VRB03KT 9999 SCT029 26/18 Q1022 NOSIG=
200910071100 METAR LMML NIL=
200910071045 METAR LMML 071045Z VRB02KT 9999 FEW030 26/17 Q1023 NOSIG=
200910071030 METAR LMML NIL=
200910071015 METAR LMML 071015Z 35004KT 310V040 9999 FEW029 25/16 Q1023
                        NOSIG=
200910071000 METAR LMML NIL=
200910070945 METAR LMML 070945Z VRB03KT 9999 FEW028 24/16 Q1023 NOSIG=
200910070930 METAR LMML NIL=
200910070915 METAR LMML 070915Z 34004KT 300V020 9999 FEW024 25/17 Q1023
                        NOSIG=
200910070900 METAR LMML NIL=
200910070845 METAR LMML 070845Z VRB03KT 9999 FEW025 24/17 Q1023 NOSIG=
200910070830 METAR LMML NIL=
200910070815 METAR LMML 070815Z 33004KT 280V010 9999 FEW020 23/17 Q1023
                        NOSIG=
200910070800 METAR LMML NIL=
200910070745 METAR LMML 070745Z 33005KT 300V360 9999 FEW020 23/17 Q1023
                        NOSIG=
200910070730 METAR LMML NIL=
200910070715 METAR LMML 070715Z VRB03KT 9999 FEW020 22/17 Q1023 NOSIG=
200910070700 METAR LMML NIL=
200910070645 METAR LMML 070645Z VRB02KT 9999 FEW015 21/17 Q1023 NOSIG=
200910070630 METAR LMML NIL=
200910070615 METAR LMML 070615Z VRB03KT 9999 FEW015 20/17 Q1022 NOSIG=
200910070600 METAR LMML NIL=
200910070545 METAR LMML 070545Z VRB03KT 9999 FEW015 18/16 Q1022 NOSIG=
200910070530 METAR LMML NIL=
200910070515 METAR LMML 070515Z VRB03KT 9999 FEW015 18/16 Q1022 NOSIG=
200910070500 METAR LMML NIL=
200910070445 METAR LMML 070445Z VRB03KT 9999 FEW018 18/17 Q1022 NOSIG=
200910070430 METAR LMML NIL=
200910070415 METAR LMML 070415Z VRB03KT 9999 FEW018 18/16 Q1022 NOSIG=
200910070400 METAR LMML NIL=
200910070345 METAR LMML 070345Z VRB03KT CAVOK 18/17 Q1022 NOSIG=
200910070330 METAR LMML NIL=
200910070315 METAR LMML 070315Z VRB03KT CAVOK 17/17 Q1022 NOSIG=
200910070300 METAR LMML NIL=
200910070245 METAR LMML 070245Z VRB03KT CAVOK 18/16 Q1022 NOSIG=
200910070230 METAR LMML NIL=
200910070215 METAR LMML 070215Z VRB03KT CAVOK 18/17 Q1022 NOSIG=
200910070200 METAR LMML NIL=
200910070145 METAR LMML 070145Z VRB03KT 9999 FEW018 18/16 Q1022 NOSIG=
200910070130 METAR LMML NIL=
200910070115 METAR LMML 070115Z VRB03KT CAVOK 18/17 Q1022 NOSIG=
200910070100 METAR LMML NIL=
200910070045 METAR LMML 070045Z VRB03KT CAVOK 18/17 Q1023 NOSIG=
200910070030 METAR LMML NIL=
200910070015 METAR LMML 070015Z 27004KT CAVOK 18/17 Q1023 NOSIG=
200910070000 METAR LMML NIL=
200910062345 METAR LMML 062345Z VRB03KT CAVOK 18/17 Q1023 NOSIG=
200910062315 METAR LMML 062315Z VRB03KT CAVOK 18/17 Q1023 NOSIG=
200910062245 METAR LMML 062245Z VRB02KT CAVOK 18/16 Q1023 NOSIG=
200910062230 METAR LMML NIL=
200910062215 METAR LMML 062215Z VRB03KT CAVOK 18/17 Q1023 NOSIG=
200910062200 METAR LMML NIL=
200910062145 METAR LMML 062145Z VRB02KT CAVOK 18/17 Q1023 NOSIG=
200910062115 METAR LMML 062115Z VRB02KT CAVOK 18/16 Q1023 NOSIG=
200910062100 METAR LMML NIL=
200910062045 METAR LMML 062045Z VRB02KT CAVOK 18/16 Q1023 NOSIG=
200910062030 METAR LMML NIL=
200910062015 METAR LMML 062015Z VRB01KT CAVOK 18/16 Q1023 NOSIG=
200910061945 METAR LMML 061945Z VRB01KT CAVOK 19/17 Q1023 NOSIG=
200910061930 METAR LMML NIL=
200910061915 METAR LMML 061915Z 00000KT CAVOK 19/17 Q1023 NOSIG=
200910061900 METAR LMML NIL=
200910061845 METAR LMML 061845Z VRB01KT 9999 FEW021 20/17 Q1023 NOSIG=
200910061830 METAR LMML NIL=
200910061815 METAR LMML 061815Z VRB01KT 9999 FEW021 20/17 Q1023 NOSIG=
200910061800 METAR LMML NIL=
200910061745 METAR LMML 061745Z 00000KT 9999 FEW021 20/17 Q1023 NOSIG=
200910061715 METAR LMML 061715Z VRB01KT 9999 FEW021 21/17 Q1023 NOSIG=
200910061700 METAR LMML NIL=
200910061645 METAR LMML 061645Z VRB02KT 9999 FEW021 22/17 Q1023 NOSIG=
200910061630 METAR LMML NIL=
200910061615 METAR LMML 061615Z VRB03KT 9999 FEW021 22/17 Q1022 NOSIG=
200910061600 METAR LMML NIL=
200910061545 METAR LMML 061545Z VRB03KT 9999 FEW022 22/17 Q1022 NOSIG=
200910061530 METAR LMML NIL=
200910061515 METAR LMML 061515Z 04005KT 010V070 9999 SCT022 23/17 Q1022
                        NOSIG=
200910061500 METAR LMML NIL=
200910061445 METAR LMML 061445Z VRB02KT 9999 SCT023 24/18 Q1022 NOSIG=
200910061430 METAR LMML NIL=
200910061415 METAR LMML 061415Z VRB03KT 9999 SCT024 23/17 Q1023 NOSIG=
200910061400 METAR LMML NIL=
200910061345 METAR LMML 061345Z VRB03KT 9999 SCT025 23/17 Q1023 NOSIG=
200910061330 METAR LMML NIL=
200910061315 METAR LMML 061315Z VRB03KT 9999 SCT025 23/17 Q1023 NOSIG=
200910061300 METAR LMML NIL=
200910061245 METAR LMML 061245Z 18005KT 110V240 9999 SCT026 24/17 Q1023
                        NOSIG=
200910061230 METAR LMML NIL=
200910061215 METAR LMML 061215Z 20004KT 140V290 9999 SCT026 24/17 Q1023
                        NOSIG=
200910061200 METAR LMML NIL=
200910061145 METAR LMML 061145Z 17004KT 100V340 9999 SCT028 24/17 Q1023
                        NOSIG=
200910061130 METAR LMML NIL=
200910061115 METAR LMML 061115Z VRB02KT 9999 FEW027 25/17 Q1023 NOSIG=
200910061100 METAR LMML NIL=
200910061045 METAR LMML 061045Z 04004KT 340V120 9999 FEW027 25/17 Q1024
                        NOSIG=
200910061030 METAR LMML NIL=
200910061015 METAR LMML 061015Z 01004KT 9999 FEW028 25/16 Q1024 NOSIG=
200910061000 METAR LMML NIL=
200910060945 METAR LMML 060945Z VRB03KT 9999 SCT027 24/17 Q1024 NOSIG=
200910060930 METAR LMML NIL=
200910060915 METAR LMML 060915Z VRB03KT 9999 FEW024 22/16 Q1024 NOSIG=
200910060900 METAR LMML NIL=
200910060845 METAR LMML 060845Z 33004KT 300V020 9999 FEW023 23/17 Q1024
                        NOSIG=
200910060830 METAR LMML NIL=
200910060815 METAR LMML 060815Z VRB03KT 9999 FEW025 23/17 Q1024 NOSIG=
200910060800 METAR LMML NIL=
200910060745 METAR LMML 060745Z 32005KT 260V360 9999 FEW025 22/17 Q1024
                        NOSIG=
200910060730 METAR LMML NIL=
200910060715 METAR LMML 060715Z VRB03KT 9999 FEW025 22/17 Q1023 NOSIG=
200910060700 METAR LMML NIL=
200910060645 METAR LMML 060645Z VRB02KT 9999 FEW025 21/16 Q1023 NOSIG=
200910060630 METAR LMML NIL=
200910060615 METAR LMML 060615Z VRB03KT 9999 FEW025 19/16 Q1023 NOSIG=
200910060600 METAR LMML NIL=
200910060545 METAR LMML 060545Z 29004KT 9999 FEW025 18/15 Q1023 NOSIG=
200910060530 METAR LMML NIL=
200910060515 METAR LMML 060515Z VRB03KT 9999 FEW025 17/15 Q1023 NOSIG=
200910060500 METAR LMML NIL=
200910060445 METAR LMML 060445Z VRB03KT 9999 FEW025 17/16 Q1023 NOSIG=
200910060430 METAR LMML NIL=
200910060415 METAR LMML 060415Z VRB03KT 9999 FEW025 17/15 Q1023 NOSIG=
200910060400 METAR LMML NIL=
200910060345 METAR LMML 060345Z VRB03KT 9999 FEW025 17/16 Q1022 NOSIG=
200910060330 METAR LMML NIL=
200910060315 METAR LMML 060315Z VRB02KT 9999 FEW025 17/16 Q1022 NOSIG=
200910060300 METAR LMML NIL=
200910060245 METAR LMML 060245Z VRB02KT 9999 FEW025 17/16 Q1022 NOSIG=
200910060230 METAR LMML NIL=
200910060215 METAR LMML 060215Z VRB03KT 9999 FEW025 17/16 Q1023 NOSIG=
200910060200 METAR LMML NIL=
200910060145 METAR LMML 060145Z VRB03KT 9999 FEW025 18/16 Q1023 NOSIG=
200910060130 METAR LMML NIL=
200910060115 METAR LMML 060115Z VRB03KT 9999 FEW025 18/16 Q1023 NOSIG=
200910060100 METAR LMML NIL=
200910060045 METAR LMML 060045Z VRB03KT 9999 FEW025 18/16 Q1023 NOSIG=
200910060030 METAR LMML NIL=
200910060015 METAR LMML 060015Z VRB03KT 9999 FEW025 18/16 Q1023 NOSIG=
200910060000 METAR LMML NIL=
200910052345 METAR LMML 052345Z VRB03KT 9999 FEW025 18/16 Q1023 NOSIG=
200910052330 METAR LMML NIL=
200910052315 METAR LMML 052315Z VRB03KT 9999 FEW025 18/16 Q1023 NOSIG=
200910052300 METAR LMML NIL=
200910052245 METAR LMML 052245Z VRB03KT 9999 FEW025 18/16 Q1023 NOSIG=
200910052230 METAR LMML NIL=
200910052215 METAR LMML 052215Z VRB03KT 9999 FEW025 18/16 Q1023 NOSIG=
200910052200 METAR LMML NIL=
200910052145 METAR LMML 052145Z VRB02KT 9999 FEW025 18/16 Q1023 NOSIG=
200910052130 METAR LMML NIL=
200910052115 METAR LMML 052115Z VRB03KT 9999 FEW025 19/16 Q1023 NOSIG=
200910052100 METAR LMML NIL=
200910052045 METAR LMML 052045Z VRB03KT 9999 FEW025 19/16 Q1023 NOSIG=
200910052015 METAR LMML 052015Z VRB03KT 9999 FEW029 19/16 Q1023 NOSIG=
200910052000 METAR LMML NIL=
200910051945 METAR LMML 051945Z VRB02KT 9999 FEW029 19/16 Q1023 NOSIG=
200910051930 METAR LMML NIL=
200910051915 METAR LMML 051915Z VRB02KT 9999 FEW029 19/16 Q1023 NOSIG=
200910051900 METAR LMML NIL=
200910051845 METAR LMML 051845Z VRB03KT 9999 FEW029 20/16 Q1022 NOSIG=
200910051830 METAR LMML NIL=
200910051815 METAR LMML 051815Z VRB03KT 9999 FEW025 20/16 Q1022 NOSIG=
200910051800 METAR LMML NIL=
200910051745 METAR LMML 051745Z 28004KT 9999 FEW028 SCT120 20/16 Q1022
                        NOSIG=
200910051715 METAR LMML 051715Z 29005KT 9999 FEW028 SCT120 21/16 Q1022
                        NOSIG=
200910051700 METAR LMML NIL=
200910051645 METAR LMML 051645Z 29004KT 9999 FEW027 SCT120 21/16 Q1022
                        NOSIG=
200910051630 METAR LMML NIL=
200910051615 METAR LMML 051615Z 29004KT 250V320 9999 FEW027 SCT120 22/16
                        Q1021 NOSIG=
200910051600 METAR LMML NIL=
200910051545 METAR LMML 051545Z 30005KT 260V330 9999 FEW026 SCT120 23/16
                        Q1021 NOSIG=
200910051530 METAR LMML NIL=
200910051515 METAR LMML 051515Z 33006KT 290V010 9999 FEW033 SCT120 BKN250
                        23/17 Q1021 NOSIG=
200910051500 METAR LMML NIL=
200910051445 METAR LMML 051445Z 27004KT 220V360 9999 FEW033 BKN250 23/15
                        Q1021 NOSIG=
200910051415 METAR LMML 051415Z 29005KT 250V320 9999 FEW033 SCT120 BKN250
                        23/16 Q1021 NOSIG=
200910051400 METAR LMML NIL=
200910051345 METAR LMML 051345Z 31007KT 9999 FEW033 BKN250 23/15 Q1021
                        NOSIG=
200910051330 METAR LMML NIL=
200910051315 METAR LMML 051315Z 30006KT 240V330 9999 FEW033 BKN250 25/15
                        Q1021 NOSIG=
200910051300 METAR LMML NIL=
200910051245 METAR LMML 051245Z 28007KT 240V330 9999 FEW036 BKN250 25/15
                        Q1022 NOSIG=
200910051230 METAR LMML NIL=
200910051215 METAR LMML 051215Z 28007KT 250V310 9999 FEW034 BKN250 23/15
                        Q1022 NOSIG=
200910051200 METAR LMML NIL=
200910051145 METAR LMML 051145Z 33005KT 280V020 9999 SCT037 BKN250 24/15
                        Q1022 NOSIG=
200910051130 METAR LMML NIL=
200910051115 METAR LMML 051115Z 36005KT 330V030 9999 SCT035 BKN250 24/16
                        Q1022 NOSIG=
200910051100 METAR LMML NIL=
200910051045 METAR LMML 051045Z VRB02KT 9999 FEW020 BKN250 26/15 Q1022
                        NOSIG=
200910051030 METAR LMML NIL=
200910051015 METAR LMML 051015Z 01004KT 320V050 9999 FEW020 BKN250 25/15
                        Q1022 NOSIG=
200910051000 METAR LMML NIL=
200910050945 METAR LMML 050945Z 01005KT 320V040 9999 FEW020 BKN250 25/15
                        Q1022 NOSIG=
200910050930 METAR LMML NIL=
200910050915 METAR LMML 050915Z 32006KT 280V020 9999 FEW020 SCT250 24/16
                        Q1022 NOSIG=
200910050900 METAR LMML NIL=
200910050845 METAR LMML 050845Z 33007KT 300V360 9999 FEW020 SCT250 23/17
                        Q1022 NOSIG=
200910050830 METAR LMML NIL=
200910050815 METAR LMML 050815Z 33006KT 9999 FEW019 SCT250 22/17 Q1022
                        NOSIG=
200910050800 METAR LMML NIL=
200910050745 METAR LMML 050745Z 31008KT 9999 FEW015 SCT250 22/18 Q1022
                        NOSIG=
200910050730 METAR LMML NIL=
200910050715 METAR LMML 050715Z 31007KT 9999 FEW020 SCT250 22/18 Q1022
                        NOSIG=
200910050700 METAR LMML NIL=
200910050645 METAR LMML 050645Z VRB02KT 9999 FEW020 21/18 Q1021 NOSIG
                        RMK CB TOP TO SW=
200910050615 METAR LMML 050615Z VRB03KT 9999 FEW020 20/17 Q1021 NOSIG=
200910050600 METAR LMML NIL=
200910050545 METAR LMML 050545Z VRB03KT 9999 FEW020 18/16 Q1020 NOSIG=
200910050515 METAR LMML 050515Z VRB03KT 9999 FEW020 18/16 Q1020 NOSIG=
200910050500 METAR LMML NIL=
200910050445 METAR LMML 050445Z 29004KT 260V320 9999 FEW030 19/16 Q1020
                        NOSIG=
200910050430 METAR LMML NIL=
200910050415 METAR LMML 050415Z 29004KT 9999 FEW030 18/17 Q1020 NOSIG=
200910050400 METAR LMML NIL=
200910050345 METAR LMML 050345Z VRB02KT 9999 FEW030 18/16 Q1019 NOSIG=
200910050330 METAR LMML NIL=
200910050315 METAR LMML 050315Z 29006KT 9999 FEW030 19/17 Q1019 NOSIG=
200910050300 METAR LMML NIL=
200910050245 METAR LMML 050245Z 29006KT 9999 FEW030 19/17 Q1019 NOSIG=
200910050230 METAR LMML NIL=
200910050215 METAR LMML 050215Z 29005KT 240V310 9999 FEW030 19/17 Q1019
                        NOSIG=
200910050200 METAR LMML NIL=
200910050145 METAR LMML 050145Z 27004KT 250V310 9999 FEW030 19/17 Q1019
                        NOSIG=
200910050130 METAR LMML NIL=
200910050115 METAR LMML 050115Z 26004KT 9999 FEW030 18/17 Q1019 NOSIG=
200910050100 METAR LMML NIL=
200910050045 METAR LMML 050045Z VRB01KT 9999 FEW030 18/16 Q1019 NOSIG=
200910050030 METAR LMML NIL=
200910050015 METAR LMML 050015Z VRB03KT 9999 FEW030 18/16 Q1020 NOSIG=
200910050000 METAR LMML NIL=
200910042345 METAR LMML 042345Z VRB03KT 9999 FEW030 18/16 Q1020 NOSIG=
200910042330 METAR LMML NIL=
200910042315 METAR LMML 042315Z 30005KT 9999 FEW030 19/16 Q1019 NOSIG=
200910042300 METAR LMML NIL=
200910042245 METAR LMML 042245Z 31005KT 9999 FEW030 19/15 Q1020 NOSIG=
200910042230 METAR LMML NIL=
200910042215 METAR LMML 042215Z VRB03KT 9999 FEW030 19/15 Q1020 NOSIG=
200910042200 METAR LMML NIL=
200910042145 METAR LMML 042145Z 28004KT 240V320 9999 FEW030 19/15 Q1019
                        NOSIG=
200910042130 METAR LMML NIL=
200910042115 METAR LMML 042115Z 30004KT 9999 FEW030 19/16 Q1019 NOSIG=
200910042100 METAR LMML NIL=
200910042045 METAR LMML 042045Z 32005KT 9999 FEW030 19/16 Q1019 NOSIG=
200910042030 METAR LMML NIL=
200910042015 METAR LMML 042015Z VRB02KT 9999 FEW030 19/16 Q1019 NOSIG=
200910042000 METAR LMML NIL=
200910041945 METAR LMML 041945Z VRB01KT 9999 FEW030 19/16 Q1019 NOSIG=
200910041930 METAR LMML NIL=
200910041915 METAR LMML 041915Z VRB02KT 9999 FEW030 19/15 Q1019 NOSIG=
200910041900 METAR LMML NIL=
200910041845 METAR LMML 041845Z VRB03KT 9999 FEW030 20/15 Q1018 NOSIG=
200910041830 METAR LMML NIL=
200910041815 METAR LMML 041815Z 31004KT 9999 FEW030 20/15 Q1018 NOSIG=
200910041800 METAR LMML NIL=
200910041745 METAR LMML 041745Z 31006KT 9999 FEW030 20/15 Q1018 NOSIG=
200910041730 METAR LMML NIL=
200910041715 METAR LMML 041715Z 29007KT 9999 FEW030 21/15 Q1017 NOSIG=
200910041700 METAR LMML NIL=
200910041645 METAR LMML 041645Z 29010KT 9999 FEW030 21/15 Q1017 NOSIG=
200910041630 METAR LMML NIL=
200910041615 METAR LMML 041615Z 30011KT 9999 FEW030 22/15 Q1018 NOSIG
                        RMK CB TOP TO NORTHEAST=
200910041600 METAR LMML NIL=
200910041545 METAR LMML 041545Z 29011KT 9999 FEW030 23/14 Q1017 NOSIG
                        RMK CB TOP TO NORTH=
200910041530 METAR LMML NIL=
200910041515 METAR LMML 041515Z 29011KT 250V310 9999 FEW031 23/15 Q1017
                        NOSIG=
200910041500 METAR LMML NIL=
200910041445 METAR LMML 041445Z 30014KT 270V330 9999 FEW030 23/15 Q1017
                        NOSIG=
200910041430 METAR LMML NIL=
200910041415 METAR LMML 041415Z 29013KT 260V330 9999 FEW030 24/14 Q1017
                        NOSIG=
200910041345 METAR LMML 041345Z 30013KT 270V330 9999 FEW030 24/14 Q1017
                        NOSIG=
200910041330 METAR LMML NIL=
200910041315 METAR LMML 041315Z 28011KT 230V330 9999 FEW030 24/14 Q1017
                        NOSIG=
200910041300 METAR LMML NIL=
200910041245 METAR LMML 041245Z 29010KT 230V320 9999 FEW025TCU 24/13 Q1017
                        NOSIG=
200910041230 METAR LMML NIL=
200910041215 METAR LMML 041215Z 30010KT 260V330 9999 FEW034 25/15 Q1017
                        NOSIG=
200910041200 METAR LMML NIL=
200910041145 METAR LMML 041145Z 30012KT 9999 SCT030 24/15 Q1018 NOSIG=
200910041130 METAR LMML NIL=
200910041115 METAR LMML 041115Z 28012KT 240V330 9999 SCT033 25/15 Q1018
                        NOSIG=
200910041045 METAR LMML 041045Z 30013KT 9999 SCT029 24/16 Q1018 NOSIG=
200910041015 METAR LMML 041015Z 28011KT 9999 SCT028 24/17 Q1018 NOSIG
                        RMK CB TOP TO EAST=
200910041000 METAR LMML NIL=
200910040945 METAR LMML 040945Z 29009KT 250V330 9999 SCT030 24/16 Q1018
                        NOSIG RMK CB TOP TO EAST=
200910040930 METAR LMML NIL=
200910040915 METAR LMML 040915Z 31009KT 260V340 9999 SCT027 SCT250 24/16
                        Q1018 NOSIG=
200910040900 METAR LMML NIL=
200910040845 METAR LMML 040845Z 31011KT 270V340 9999 FEW028 24/17 Q1018
                        NOSIG=
200910040830 METAR LMML NIL=
200910040815 METAR LMML 040815Z 30012KT 9999 FEW025 24/16 Q1018 NOSIG=
200910040800 METAR LMML NIL=
200910040745 METAR LMML 040745Z 31011KT 280V340 9999 FEW026 23/17 Q1018
                        NOSIG=
200910040730 METAR LMML NIL=
200910040715 METAR LMML 040715Z 32009KT 280V340 9999 FEW020 22/17 Q1017
                        NOSIG=
200910040700 METAR LMML NIL=
200910040645 METAR LMML 040645Z 32008KT 9999 FEW020 22/18 Q1017 NOSIG=
200910040630 METAR LMML NIL=
200910040615 METAR LMML 040615Z 31007KT 9999 FEW020 21/17 Q1017 NOSIG=
200910040600 METAR LMML NIL=
200910040545 METAR LMML 040545Z 30008KT 9999 FEW020 20/17 Q1017 NOSIG=
200910040530 METAR LMML NIL=
200910040515 METAR LMML 040515Z 31008KT 9999 FEW020 19/17 Q1016 NOSIG=
200910040500 METAR LMML NIL=
200910040445 METAR LMML 040445Z 31007KT 9999 FEW021 19/17 Q1016 NOSIG=
200910040430 METAR LMML NIL=
200910040415 METAR LMML 040415Z 30007KT 9999 FEW021 20/17 Q1016 NOSIG=
200910040400 METAR LMML NIL=
200910040345 METAR LMML 040345Z 30006KT 9999 FEW021 20/17 Q1016 NOSIG=
200910040330 METAR LMML NIL=
200910040315 METAR LMML 040315Z 30007KT 9999 FEW021 20/17 Q1016 NOSIG=
200910040300 METAR LMML NIL=
200910040245 METAR LMML 040245Z 29005KT 9999 FEW022 20/17 Q1016 NOSIG=
200910040230 METAR LMML NIL=
200910040215 METAR LMML 040215Z 30004KT 9999 FEW024 20/17 Q1016 NOSIG=
200910040200 METAR LMML NIL=
200910040145 METAR LMML 040145Z 30004KT 9999 FEW024 20/17 Q1016 NOSIG=
200910040130 METAR LMML NIL=
200910040115 METAR LMML 040115Z 29005KT 9999 FEW020 20/17 Q1016 NOSIG=
200910040100 METAR LMML NIL=
200910040030 METAR LMML NIL=
200910040015 METAR LMML 040015Z 29007KT 260V320 9999 FEW020 20/17 Q1016
                        NOSIG=
200910040000 METAR LMML NIL=
200910032345 METAR LMML 032345Z 29006KT 9999 FEW020 20/17 Q1016 NOSIG=
200910032330 METAR LMML NIL=
200910032315 METAR LMML 032315Z 31005KT 9999 FEW020 20/17 Q1016 NOSIG=
200910032300 METAR LMML NIL=
200910032245 METAR LMML 032245Z 30005KT 9999 FEW020 20/17 Q1016 NOSIG=
200910032230 METAR LMML NIL=
200910032215 METAR LMML 032215Z 30006KT 9999 FEW020 20/17 Q1016 NOSIG=
200910032200 METAR LMML NIL=
200910032145 METAR LMML 032145Z 30006KT 9999 FEW020 20/17 Q1016 NOSIG=
200910032130 METAR LMML NIL=
200910032115 METAR LMML 032115Z 31009KT 9999 FEW020 20/17 Q1016 NOSIG=
200910032100 METAR LMML NIL=
200910032045 METAR LMML 032045Z 31008KT 9999 FEW020 21/17 Q1016 NOSIG=
200910032030 METAR LMML NIL=
200910032015 METAR LMML 032015Z 30008KT 270V330 9999 FEW020 21/17 Q1016
                        NOSIG=
200910032000 METAR LMML NIL=
200910031945 METAR LMML 031945Z 29009KT 9999 FEW024 21/17 Q1016 NOSIG=
200910031930 METAR LMML NIL=
200910031915 METAR LMML 031915Z 30008KT CAVOK 21/17 Q1016 NOSIG=
200910031900 METAR LMML NIL=
200910031845 METAR LMML 031845Z 30008KT 260V320 9999 FEW024 21/17 Q1015
                        NOSIG=
200910031830 METAR LMML NIL=
200910031815 METAR LMML 031815Z 31008KT 9999 FEW024 21/16 Q1015 NOSIG=
200910031800 METAR LMML NIL=
200910031745 METAR LMML 031745Z 30010KT 9999 FEW024 21/16 Q1015 NOSIG=
200910031730 METAR LMML NIL=
200910031715 METAR LMML 031715Z 29010KT 9999 FEW024 22/16 Q1014 NOSIG=
200910031700 METAR LMML NIL=
200910031645 METAR LMML 031645Z 29010KT 9999 FEW030 22/16 Q1014 NOSIG=
200910031630 METAR LMML NIL=
200910031615 METAR LMML 031615Z 28013KT 250V310 9999 FEW030 22/16 Q1014
                        NOSIG=
200910031600 METAR LMML NIL=
200910031545 METAR LMML 031545Z 29013KT 260V320 9999 SCT030 23/16 Q1014
                        NOSIG=
200910031530 METAR LMML NIL=
200910031515 METAR LMML 031515Z 29014KT 260V320 9999 SCT031 23/15 Q1014
                        NOSIG=
200910031500 METAR LMML NIL=
200910031445 METAR LMML 031445Z 30015KT 9999 FEW033 24/16 Q1014 NOSIG=
200910031430 METAR LMML NIL=
200910031415 METAR LMML 031415Z 29015KT 9999 SCT031 23/15 Q1014 NOSIG=
200910031400 METAR LMML NIL=
200910031345 METAR LMML 031345Z 29015KT 250V320 9999 SCT031 24/15 Q1014
                        NOSIG=
200910031330 METAR LMML NIL=
200910031315 METAR LMML 031315Z 29014KT 260V320 9999 FEW034 24/15 Q1014
                        NOSIG=
200910031300 METAR LMML NIL=
200910031245 METAR LMML 031245Z 29015KT 250V330 9999 FEW034 24/15 Q1014
                        NOSIG=
200910031230 METAR LMML NIL=
200910031215 METAR LMML 031215Z 29016KT 260V320 9999 FEW035 24/15 Q1014
                        NOSIG=
200910031200 METAR LMML NIL=
200910031145 METAR LMML 031145Z 28015KT 250V310 9999 SCT034 24/15 Q1014
                        NOSIG=
200910031130 METAR LMML NIL=
200910031115 METAR LMML 031115Z 28014KT 250V310 9999 SCT032 24/16 Q1014
                        NOSIG=
200910031100 METAR LMML NIL=
200910031045 METAR LMML 031045Z 29011KT 240V320 9999 SCT033 24/16 Q1014
                        NOSIG=
200910031030 METAR LMML NIL=
200910031015 METAR LMML 031015Z 30012KT 250V330 9999 SCT032 23/16 Q1015
                        NOSIG=
200910031000 METAR LMML NIL=
200910030945 METAR LMML 030945Z 31013KT 9999 SCT033 24/15 Q1015 NOSIG=
200910030930 METAR LMML NIL=
200910030915 METAR LMML 030915Z 30014KT 9999 SCT030 23/16 Q1015 NOSIG=
200910030900 METAR LMML NIL=
200910030845 METAR LMML 030845Z 30013KT 260V330 9999 SCT028 24/16 Q1014
                        NOSIG=
200910030830 METAR LMML NIL=
200910030815 METAR LMML 030815Z 30015KT 260V330 9999 SCT028 23/16 Q1014
                        NOSIG=
200910030800 METAR LMML NIL=
200910030745 METAR LMML 030745Z 30013KT 250V320 9999 SCT026 23/17 Q1014
                        NOSIG=
200910030730 METAR LMML NIL=
200910030715 METAR LMML 030715Z 30013KT 9999 SCT025 23/17 Q1013 NOSIG=
200910030700 METAR LMML NIL=
200910030645 METAR LMML 030645Z 30009KT 270V330 9999 SCT025 22/17 Q1013
                        NOSIG=
200910030630 METAR LMML NIL=
200910030615 METAR LMML 030615Z 30009KT 9999 SCT025 22/17 Q1013 NOSIG=
200910030600 METAR LMML NIL=
200910030545 METAR LMML 030545Z 30009KT 260V320 9999 BKN020 21/17 Q1012
                        TEMPO 8000 SHRA BKN015=
200910030530 METAR LMML NIL=
200910030515 METAR LMML 030515Z 30009KT 250V320 9999 -SHRA BKN019 21/18
                        Q1012 TEMPO 8000 SHRA BKN015=
200910030500 METAR LMML NIL=
200910030445 METAR LMML 030445Z 30010KT 270V330 9999 FEW022 21/18 Q1012
                        NOSIG=
200910030430 METAR LMML NIL=
200910030415 METAR LMML 030415Z 30009KT 9999 FEW019 21/17 Q1012 NOSIG=
200910030400 METAR LMML NIL=
200910030345 METAR LMML 030345Z 31014KT 9999 FEW019 21/18 Q1012 NOSIG=
200910030330 METAR LMML NIL=
200910030315 METAR LMML 030315Z 30012KT 9999 SCT019 21/18 Q1012 NOSIG=
200910030245 METAR LMML 030245Z 30011KT 270V330 9999 SCT019 21/18 Q1011
                        NOSIG=
200910030230 METAR LMML NIL=
200910030215 METAR LMML 030215Z 30012KT 9999 SCT019 21/18 Q1011 NOSIG=
200910030200 METAR LMML NIL=
200910030145 METAR LMML 030145Z 29011KT 250V330 9999 FEW020 21/17 Q1011
                        NOSIG=
200910030130 METAR LMML NIL=
200910030115 METAR LMML 030115Z 30010KT 260V330 9999 FEW020 21/17 Q1011
                        NOSIG=
200910030100 METAR LMML NIL=
200910030045 METAR LMML 030045Z 30012KT 270V330 9999 FEW025 21/17 Q1012
                        NOSIG=
200910030030 METAR LMML NIL=
200910030015 METAR LMML 030015Z 29013KT 260V320 9999 FEW025 21/17 Q1012
                        NOSIG=
200910030000 METAR LMML NIL=
200910022345 METAR LMML 022345Z 29013KT 260V320 9999 FEW023 21/17 Q1012
                        NOSIG=
200910022330 METAR LMML NIL=
200910022315 METAR LMML 022315Z 29012KT 9999 FEW024 21/18 Q1012 NOSIG=
200910022300 METAR LMML NIL=
200910022245 METAR LMML 022245Z 29012KT 9999 FEW020 21/17 Q1012 NOSIG=
200910022230 METAR LMML NIL=
200910022215 METAR LMML 022215Z 30014KT 270V330 9999 FEW020 21/17 Q1012
                        NOSIG=
200910022200 METAR LMML NIL=
200910022145 METAR LMML 022145Z 29014KT 260V320 9999 FEW022 21/18 Q1011
                        NOSIG=
200910022115 METAR LMML 022115Z 29013KT 9999 FEW020 21/18 Q1011 NOSIG=
200910022100 METAR LMML NIL=
200910022045 METAR LMML 022045Z 28015KT 9999 FEW023 21/18 Q1011 NOSIG=
200910022030 METAR LMML NIL=
200910022015 METAR LMML 022015Z 28011KT 250V310 9999 -SHRA BKN026 21/18
                        Q1011 TEMPO SHRA=
200910022000 METAR LMML NIL=
200910021945 METAR LMML 021945Z 28011KT 250V310 9999 FEW023 21/18 Q1011
                        TEMPO SHRA=
200910021930 METAR LMML NIL=
200910021915 METAR LMML 021915Z 28011KT 9999 FEW023 SCT110 21/17 Q1011
                        TEMPO SHRA=
200910021900 METAR LMML NIL=
200910021845 METAR LMML 021845Z 28010KT 9999 FEW022 SCT110 21/18 Q1011
                        TEMPO SHRA=
200910021830 METAR LMML NIL=
200910021815 METAR LMML 021815Z 28013KT 9999 FEW022 SCT110 21/18 Q1010
                        TEMPO 5000 TSRA BKN015CB=
200910021800 METAR LMML NIL=
200910021745 METAR LMML 021745Z 27012KT 240V300 9000 -SHRA BKN022 SCT110
                        21/17 Q1010 TEMPO 5000 TSRA BKN015CB=
200910021730 METAR LMML NIL=
200910021715 METAR LMML 021715Z 27012KT 240V320 9999 SCT020 SCT110 22/18
                        Q1010 TEMPO 5000 TSRA BKN015CB=
200910021700 METAR LMML NIL=
200910021645 METAR LMML 021645Z 27013KT 240V300 9999 SCT025TCU SCT080
                        22/17 Q1010 TEMPO 5000 TSRA BKN015CB=
200910021630 METAR LMML NIL=
200910021615 METAR LMML 021615Z 28013KT 250V310 9999 FEW023TCU SCT080
                        22/17 Q1010 TEMPO 5000 TSRA BKN015CB=
200910021600 METAR LMML NIL=
200910021545 METAR LMML 021545Z 28015KT 240V310 9999 SCT023TCU 22/17 Q1009
                        TEMPO 5000 TSRA BKN015CB=
200910021530 METAR LMML NIL=
200910021515 METAR LMML 021515Z 28015KT 240V310 9999 -SHRA SCT022 22/19
                        Q1009 TEMPO 5000 TSRA BKN015CB=
200910021500 METAR LMML NIL=
200910021445 METAR LMML 021445Z 27013KT 220V310 9999 BKN022 24/18 Q1009
                        TEMPO 8000 SHRA=
200910021430 METAR LMML NIL=
200910021415 METAR LMML 021415Z 27013KT 230V310 9999 FEW023TCU 24/17 Q1009
                        TEMPO 8000 SHRA=
200910021400 METAR LMML NIL=
200910021345 METAR LMML 021345Z 27017KT 240V310 9999 BKN024TCU 24/18 Q1009
                        TEMPO 8000 SHRA SCT015TCU=
200910021330 METAR LMML NIL=
200910021315 METAR LMML 021315Z 28017KT 240V300 9999 SCT023TCU 24/18 Q1009
                        TEMPO 8000 SHRA SCT015TCU=
200910021300 METAR LMML NIL=
200910021245 METAR LMML 021245Z 27017KT 230V300 9999 BKN024 24/18 Q1009
                        TEMPO 8000 SHRA SCT015TCU=
200910021230 METAR LMML NIL=
200910021215 METAR LMML 021215Z 27017KT 240V310 9999 FEW024 24/18 Q1010
                        TEMPO 8000 SHRA SCT015TCU=
200910021200 METAR LMML NIL=
200910021145 METAR LMML 021145Z 26018KT 9999 BKN024 24/18 Q1010 TEMPO
                        8000 SHRA SCT015TCU=
200910021130 METAR LMML NIL=
200910021115 METAR LMML 021115Z 26015KT 220V300 9999 SCT024 24/18 Q1010
                        TEMPO 8000 SHRA SCT015TCU=
200910021100 METAR LMML NIL=
200910021045 METAR LMML 021045Z 26014KT 220V300 9999 SCT025 25/18 Q1010
                        TEMPO 8000 TSRA BKN015CB=
200910021030 METAR LMML NIL=
200910021015 METAR LMML 021015Z 27014KT 220V310 9999 FEW025 24/18 Q1011
                        NOSIG=
200910021000 METAR LMML NIL=
200910020945 METAR LMML 020945Z 29015KT 9999 FEW025 24/18 Q1011 NOSIG=
200910020930 METAR LMML NIL=
200910020915 METAR LMML 020915Z 29013KT 250V310 9999 SCT024 24/17 Q1011
                        NOSIG=
200910020900 METAR LMML NIL=
200910020845 METAR LMML 020845Z 28011KT 230V300 9999 SCT024 24/18 Q1011
                        NOSIG=
200910020830 METAR LMML NIL=
200910020815 METAR LMML 020815Z 28012KT 9999 FEW021 23/18 Q1011 NOSIG=
200910020800 METAR LMML NIL=
200910020745 METAR LMML 020745Z 28010KT 9999 FEW021 23/18 Q1011 NOSIG=
200910020730 METAR LMML NIL=
200910020715 METAR LMML 020715Z 30004KT 250V330 9999 FEW025 22/18 Q1010
                        NOSIG=
200910020700 METAR LMML NIL=
200910020645 METAR LMML 020645Z 30004KT 270V340 9999 FEW025 22/18 Q1010
                        NOSIG RMK CB TOP TO NORTH=
200910020630 METAR LMML NIL=
200910020615 METAR LMML 020615Z 29005KT 250V320 9999 FEW025 21/18 Q1010
                        NOSIG=
200910020545 METAR LMML 020545Z 30004KT 9999 FEW025 19/18 Q1010 NOSIG=
200910020530 METAR LMML NIL=
200910020515 METAR LMML 020515Z 31006KT 9999 FEW025 19/18 Q1010 NOSIG=
200910020500 METAR LMML NIL=
200910020430 METAR LMML NIL=
200910020415 METAR LMML 020415Z 30004KT 9999 FEW049 SCT070 19/19 Q1010
                        NOSIG=
200910020400 METAR LMML NIL=
200910020345 METAR LMML 020345Z 31006KT 9999 SCT049 SCT074 19/19 Q1009
                        NOSIG=
200910020330 METAR LMML NIL=
200910020315 METAR LMML 020315Z 31005KT 9999 BKN049 19/19 Q1009 NOSIG=
200910020300 METAR LMML NIL=
200910020245 METAR LMML 020245Z 32004KT 9999 BKN047 19/18 Q1009 NOSIG=
200910020230 METAR LMML NIL=
200910020215 METAR LMML 020215Z 00000KT 9999 BKN042 19/19 Q1009 NOSIG
                        RMK LIGHTNING TO EAST=
200910020200 METAR LMML NIL=
200910020145 METAR LMML 020145Z 02004KT 340V080 9999 FEW009 BKN039 19/18
                        Q1009 RETS NOSIG RMK LIGHTNING TO
                        E=
200910020130 METAR LMML NIL=
200910020115 METAR LMML 020115Z VRB02KT 9999 FEW020CB BKN040 19/18 Q1009
                        RETS NOSIG RMK LIGHTNING TO NE AND
                        E=
200910020100 METAR LMML NIL=
200910020045 METAR LMML 020045Z 36007KT 340V050 9999 TSRA FEW009 SCT015CB
                        BKN090 19/18 Q1010 NOSIG=
200910020015 METAR LMML 020015Z 34005KT 240V020 9999 FEW009 SCT015CB BKN090
                        20/19 Q1010 NOSIG RMK LIGHTNING IN
                        THE EASTERN AND WESTERN SECTOR=
200910012345 METAR LMML 012345Z 09005KT 040V120 9999 FEW007 SCT015CB BKN090
                        20/19 Q1010 NOSIG RMK LIGHTNING TO
                        E=
200910012330 METAR LMML NIL=
200910012315 METAR LMML 012315Z 06010KT 030V100 9999 FEW007 SCT015CB BKN080
                        19/19 Q1011 NOSIG RMK LIGHTNING TO
                        E=
200910012300 METAR LMML NIL=
200910012245 METAR LMML 012245Z 05007KT 010V090 9999 TSRA SCT007 SCT015CB
                        BKN120 19/19 Q1012 BECMG SCT015=
200910012215 METAR LMML 012215Z 02010KT 9999 SCT006 SCT038 BKN100 19/19
                        Q1011 NOSIG RMK LIGHTNING TO SW=
200910012145 METAR LMML 012145Z 36013KT 9999 TSRA BKN006 SCT015CB BKN120
                        19/18 Q1014 BECMG SCT015=
200910012115 METAR LMML 012115Z 34016KT 9999 TSRA BKN004 SCT015CB BKN120
                        18/18 Q1014 BECMG SCT015=
200910012045 METAR LMML 012045Z 02006KT 280V170 9999 TSRA SCT007 SCT015CB
                        BKN120 19/18 Q1014 NOSIG=
200910012030 METAR LMML NIL=
200910012015 METAR LMML 012015Z 33016G32KT 310V010 9999 TSRA BKN012CB
                        BKN120 20/18 Q1014 BECMG SCT015=
200910012007 SPECI LMML 012007Z 34016G32KT 310V010 9999 TSRA SCT012CB
                        BKN011 23/19 Q1015 TEMPO 5000=
200910012000 METAR LMML NIL=
200910011945 METAR LMML 011945Z 15012KT 120V180 9999 FEW014 SCT120 24/22
                        Q1011 RETS NOSIG=
200910011930 METAR LMML NIL=
200910011915 METAR LMML 011915Z 17015KT 120V230 9999 TSRA SCT014CB BKN120
                        24/22 Q1012 TEMPO 5000=
200910011900 METAR LMML NIL=
200910011845 METAR LMML 011845Z 15016KT 110V170 9999 FEW014 BKN120 24/22
                        Q1011 TEMPO 5000 TSRA BKN015CB RMK
                        LIGHTNING TO SW=
200910011830 METAR LMML NIL=
200910011815 METAR LMML 011815Z 14016KT 9999 SCT014 SCT120 24/21 Q1011
                        NOSIG=
200910011800 METAR LMML NIL=
200910011745 METAR LMML 011745Z 15012KT 120V180 9999 SCT014 SCT120 24/21
                        Q1012 NOSIG=
200910011730 METAR LMML NIL=
200910011715 METAR LMML 011715Z 15013KT 120V180 9999 FEW015 SCT120 24/21
                        Q1012 TEMPO SHRA=
200910011700 METAR LMML NIL=
200910011645 METAR LMML 011645Z 15011KT 120V180 9999 FEW015 SCT120 24/21
                        Q1012 TEMPO SHRA=
200910011630 METAR LMML NIL=
200910011615 METAR LMML 011615Z 15011KT 120V180 9999 -SHRA SCT015 BKN120
                        25/21 Q1013 TEMPO SHRA=
200910011600 METAR LMML NIL=
200910011545 METAR LMML 011545Z 14013KT 120V180 9999 SCT015 BKN120 25/21
                        Q1013 TEMPO SHRA=
200910011530 METAR LMML NIL=
200910011515 METAR LMML 011515Z 14012KT 110V170 9999 SCT015 SCT120 25/21
                        Q1013 TEMPO SHRA=
200910011500 METAR LMML NIL=
200910011445 METAR LMML 011445Z 14015KT 120V180 9999 FEW016 SCT120 25/21
                        Q1013 TEMPO SHRA=
200910011430 METAR LMML NIL=
200910011415 METAR LMML 011415Z 16012KT 130V190 9999 -SHRA FEW017 BKN120
                        25/20 Q1014 TEMPO SHRA=
200910011400 METAR LMML NIL=
200910011345 METAR LMML 011345Z 16012KT 130V190 9999 FEW018 SCT120 25/20
                        Q1014 TEMPO SHRA=
200910011330 METAR LMML NIL=
200910011315 METAR LMML 011315Z 16013KT 9999 FEW018 SCT130 26/21 Q1014
                        TEMPO SHRA=
200910011300 METAR LMML NIL=
200910011245 METAR LMML 011245Z 16010KT 9999 SCT019 BKN130 26/21 Q1015
                        TEMPO SHRA=
200910011230 METAR LMML NIL=
200910011215 METAR LMML 011215Z 17007KT 140V210 9999 SCT018 BKN130 25/20
                        Q1016 TEMPO SHRA=
200910011200 METAR LMML NIL=
200910011145 METAR LMML 011145Z 18009KT 140V230 9999 SCT019 BKN130 26/20
                        Q1016 TEMPO SHRA=
200910011130 METAR LMML NIL=
200910011115 METAR LMML 011115Z 16013KT 130V190 9999 SCT018 BKN130 25/20
                        Q1016 TEMPO SHRA=
200910011100 METAR LMML NIL=
200910011045 METAR LMML 011045Z 16014KT 130V190 9999 SCT018 25/20 Q1016
                        NOSIG=
200910011030 METAR LMML NIL=
200910011015 METAR LMML 011015Z 16013KT 9999 SCT018 SCT250 26/20 Q1016
                        NOSIG=
200910011000 METAR LMML NIL=
200910010945 METAR LMML 010945Z 16012KT 120V190 9999 SCT018 BKN250 26/20
                        Q1016 NOSIG=
200910010930 METAR LMML NIL=
200910010915 METAR LMML 010915Z 16010KT 130V200 9999 SCT017 26/20 Q1017
                        NOSIG=
200910010900 METAR LMML NIL=
200910010845 METAR LMML 010845Z 16009KT 120V210 9999 FEW035 26/20 Q1017
                        NOSIG=
200910010830 METAR LMML NIL=
200910010815 METAR LMML 010815Z 16009KT 130V210 9999 FEW020 26/20 Q1017
                        NOSIG=
200910010800 METAR LMML NIL=
200910010745 METAR LMML 010745Z 17008KT 140V200 9999 FEW020 25/20 Q1017
                        NOSIG=
200910010730 METAR LMML NIL=
200910010715 METAR LMML 010715Z 16007KT 120V220 9999 FEW017 25/20 Q1017
                        TEMPO SHRA=
200910010700 METAR LMML NIL=
200910010645 METAR LMML 010645Z 17005KT 150V210 9999 FEW017 24/20 Q1017
                        TEMPO SHRA=
200910010630 METAR LMML NIL=
200910010615 METAR LMML 010615Z 18006KT 140V210 9999 FEW017 24/20 Q1017
                        TEMPO SHRA=
200910010600 METAR LMML NIL=
200910010545 METAR LMML 010545Z VRB03KT 9999 SCT019 23/20 Q1017 TEMPO
                        SHRA=
200910010530 METAR LMML NIL=
200910010515 METAR LMML 010515Z 17004KT 150V210 9999 FEW016 23/20 Q1017
                        NOSIG=
200910010500 METAR LMML NIL=
200910010445 METAR LMML 010445Z 16004KT 9999 FEW018 23/20 Q1017 NOSIG=
200910010430 METAR LMML NIL=
200910010415 METAR LMML 010415Z 16004KT 130V210 9999 FEW016 SCT040 23/20
                        Q1017 NOSIG=
200910010400 METAR LMML NIL=
200910010345 METAR LMML 010345Z VRB03KT 9999 FEW016 BKN030 22/20 Q1017
                        NOSIG=
200910010315 METAR LMML 010315Z VRB03KT 9999 SCT016 22/20 Q1017 TEMPO
                        BKN012=
200910010300 METAR LMML NIL=
200910010245 METAR LMML 010245Z VRB03KT 9999 SCT014 22/21 Q1017 TEMPO
                        BKN010=
200910010230 METAR LMML NIL=
200910010215 METAR LMML 010215Z 13004KT 9999 SCT013 22/21 Q1017 TEMPO
                        BKN010=
200910010200 METAR LMML NIL=
200910010145 METAR LMML 010145Z 14005KT 9999 FEW013 SCT030 22/21 Q1017
                        NOSIG=
200910010130 METAR LMML NIL=
200910010115 METAR LMML 010115Z VRB03KT 9999 FEW012 BKN030 23/21 Q1017
                        TEMPO BKN010=
200910010100 METAR LMML NIL=
200910010045 METAR LMML 010045Z 14004KT 9999 SCT012 BKN250 22/21 Q1017
                        TEMPO BKN010=
200910010030 METAR LMML NIL=
200910010015 METAR LMML 010015Z 13004KT 9999 SCT011 BKN250 22/21 Q1017
                        TEMPO BKN010=
200910010000 METAR LMML NIL=

###################################
#  short TAF from LMML
###################################
200910312300 TAF LMML 312300Z 0100/0109 02005KT 9999 SCT020
                      PROB30 TEMPO 0100/0104 9000 BKN015=
200910312000 TAF LMML 312000Z 3121/0106 04004KT 9999 SCT020 SCT040
                      PROB30 TEMPO 3121/0106 8000 RA BKN015 BKN040=
200910311700 TAF LMML 311700Z 3118/0103 VRB05KT 9999 SCT020
                      PROB30 TEMPO 3118/0103 9000 SHRA=
200910311400 TAF LMML 311400Z 3115/3124 36010KT 9999 FEW030
                      PROB30 TEMPO 3115/3124 9000 SHRA
                      BECMG 3118/3121 06010KT=
200910311100 TAF LMML 311100Z 3112/3121 VRB05KT 9999 FEW035
                      PROB40 TEMPO 3112/3121 CAVOK
                      PROB30 TEMPO 3112/3121 9000 SHRA=
200910310800 TAF LMML 310800Z 3109/3118 VRB04KT 9999 FEW035
                      TEMPO 3109/3118 CAVOK=
200910310500 TAF LMML 310500Z 3106/3115 33007KT 9999 SCT025
                      PROB30 TEMPO 3106/3115 SHRA=
200910310200 TAF LMML 310200Z 3103/3112 33005KT 9999 FEW020
                      PROB30 TEMPO 3103/3112 8000 SHRA BKN018=
200910302300 TAF LMML 302300Z 3100/3109 VRB03KT 9999 FEW025
                      PROB30 TEMPO 3103/3109 8000 SHRA BKN018=
200910302000 TAF LMML 302000Z 3021/3106 VRB03KT CAVOK
                      PROB40 TEMPO 3021/3106 9000 SCT015=
200910301700 TAF LMML 301700Z 3018/3103 04005KT 9999 SCT020=
200910301400 TAF LMML 301400Z 3015/3024 03006KT 9999 SCT020=
200910301100 TAF LMML 301100Z 3012/3021 35007KT 9999 SCT020=
200910300800 TAF LMML 300800Z 3009/3018 33008KT 9999 FEW020=
200910300500 TAF LMML 300500Z 3006/3015 32008KT 9999 FEW025=
200910300200 TAF LMML 300200Z 3003/3012 30008KT 9999 FEW025
                      PROB30 3003/3006 9000=
200910292300 TAF LMML 292300Z 3000/3009 30006KT 9999 FEW025
                      PROB30 TEMPO 3000/3006 9000=
200910292000 TAF LMML 292000Z 2921/3006 30006KT 9999 FEW025=
200910291700 TAF LMML 291700Z 2918/3003 30005KT 9999 FEW020=
200910291400 TAF LMML 291400Z 2915/2924 30008KT 9999 FEW020=
200910291100 TAF LMML 291100Z 2912/2921 30010KT 9999 SCT025=
200910290800 TAF LMML 290800Z 2909/2918 31010KT 9999 FEW025=
200910290500 TAF LMML 290500Z 2906/2915 30008KT 9000 NSC
                      BECMG 2906/2909 CAVOK
                      PROB40 TEMPO 2906/2915 9999 FEW015=
200910290200 TAF LMML 290200Z 2903/2912 VRB05KT 9000 NSC
                      TEMPO 2903/2912 FEW015
                      PROB30 TEMPO 2903/2906 5000 BR BKN010
                      BECMG 2905/2908 9999=
200910282300 TAF LMML 282300Z 2900/2909 VRB03KT 9000 NSC
                      TEMPO 2900/2909 FEW012
                      PROB30 TEMPO 2900/2906 5000 BR BKN010
                      BECMG 2905/2908 9999=
200910282000 TAF LMML 282000Z 2821/2906 VRB03KT 9000 FEW014
                      PROB30 TEMPO 2821/2906 BKN011=
200910281700 TAF LMML 281700Z 2818/2903 33005KT 9999 FEW018
                      PROB30 TEMPO 2901/2903 8000=
200910281400 TAF LMML 281400Z 2815/2824 33005KT 9999 FEW018=
200910281100 TAF LMML 281100Z 2812/2821 01005KT 9999 FEW025=
200910280800 TAF LMML 280800Z 2809/2818 01007KT 9999 FEW025
                      PROB40 TEMPO 2809/2818 CAVOK=
200910280500 TAF LMML 280500Z 2806/2815 35005KT 9999 FEW020
                      TEMPO 2806/2807 8000=
200910280200 TAF LMML 280200Z 2803/2812 35004KT 9999 FEW018=
200910272300 TAF LMML 272300Z 2800/2809 33004KT 9999 FEW018=
200910272000 TAF LMML 272000Z 2721/2806 30005KT 9999 SCT018 SCT100
                      PROB30 TEMPO 2721/2806 8000 RA BKN015 BKN080=
200910271700 TAF LMML 271700Z 2718/2803 VRB03KT 9999 FEW020 SCT080
                      PROB30 TEMPO 2718/2803 8000 SHRA SCT018TCU=
200910271400 TAF LMML 271400Z 2715/2724 VRB04KT 9999 FEW030
                      PROB40 TEMPO 2715/2724 CAVOK
                      PROB30 TEMPO 2715/2724 8000 SHRA SCT025TCU=
200910271100 TAF LMML 271100Z 2712/2721 VRB05KT 9999 SCT025=
200910270800 TAF LMML 270800Z 2709/2718 VRB03KT CAVOK
                      TEMPO 2709/2718 9999 FEW025=
200910270500 TAF LMML 270500Z 2706/2715 34007KT 9999 FEW025=
200910270200 TAF LMML 270200Z 2703/2712 34005KT 9999 SCT018=
200910262300 TAF LMML 262300Z 2700/2709 VRB03KT 9999 FEW015 SCT100=
200910262000 TAF LMML 262000Z 2621/2706 VRB03KT 9999 FEW015 SCT100=
200910261700 TAF LMML 261700Z 2618/2703 01005KT 9999 SCT018 BKN060
                      PROB30 TEMPO 2618/2703 8000 SHRA BKN015=
200910261400 TAF LMML 261400Z 2615/2624 02010KT 9999 SCT020
                      PROB30 TEMPO 2618/2624 8000 SHRA BKN015=
200910261100 TAF LMML 261100Z 2612/2621 02012KT 9999 SCT020
                      TEMPO 2612/2621 8000 SHRA BKN015 BKN050=
200910260800 TAF LMML 260800Z 2609/2618 02012KT 9999 FEW025
                      PROB3O TEMPO 2609/2615 8000 SHRA=
200910260500 TAF LMML 260500Z 2606/2615 02012KT 9999 FEW025
                      PROB40 TEMPO 2606/2615 7000 SHRA=
200910260200 TAF LMML 260200Z 2603/2612 02012KT 9999 SCT015
                      TEMPO 2603/2612 02015G25KT 7000 SHRA BKN013=
200910252300 TAF LMML 252300Z 2600/2609 01013KT 9999 SCT015
                      PROB30 TEMPO 2600/2606 9000 BKN010
                      PROB40 TEMPO 2600/2609 02015G25KT 8000 SHRA
                       BKN012TCU=
200910252000 TAF LMML 252000Z 2521/2606 02013KT 9999 FEW015
                      PROB30 TEMPO 2521/2606 9000 BKN010
                      PROB40 TEMPO 2521/2606 03015G25KT 8000 SHRA
                       BKN012=
200910251700 TAF LMML 251700Z 2518/2603 01010KT 9999 SCT015
                      PROB30 TEMPO 2518/2603 SHRA=
200910251400 TAF LMML 251400Z 2515/2524 03012KT 9999 SCT015
                      PROB30 TEMPO 2515/2524 SHRA=
200910251100 TAF LMML 251100Z 2512/2521 03012KT 9999 SCT018
                      PROB30 TEMPO 2515/2521 SHRA=
200910250800 TAF LMML 250800Z 2509/2518 01012KT 9999 SCT020
                      PROB30 TEMPO 2512/2518 8000 SHRA BKN015=
200910250500 TAF LMML 250500Z 2506/2515 36015KT 9999 SCT018
                      PROB30 TEMPO 2506/2515 8000 SHRA BKN015TCU=
200910250200 TAF LMML 250200Z 2503/2512 36015KT 9999 SCT016
                      PROB40 TEMPO 2503/2512 BKN014
                      PROB30 TEMPO 2503/2512 8000 SHRA BKN012TCU=
200910242300 TAF LMML 242300Z 2500/2509 35015KT 9999 SCT016
                      PROB40 TEMPO 2500/2509 BKN014
                      PROB30 TEMPO 2500/2509 8000 SHRA BKN012TCU=
200910242000 TAF LMML 242000Z 2421/2506 35013KT 9999 SCT018
                      TEMPO 2421/2506 7000 SHRA BKN015TCU=
200910241700 TAF LMML 241700Z 2418/2503 29017KT 9999 SCT020 BKN090
                      TEMPO 2418/2503 8000 SHRA BKN015TCU BKN070
                       BECMG 2421/2424 35014KT=
200910241400 TAF LMML 241400Z 2415/2424 29020G30KT 9999 SCT025 SCT090
                      PROB30 TEMPO 2415/2424 8000 SHRA BKN020TCU
                       BKN070
                      BECMG 2415/2418 29020KT
                      BECMG 2421/2424 35015KT=
200910241100 TAF LMML 241100Z 2412/2421 29023G34KT 9999 SCT030
                      TEMPO 2412/2421 8000 SHRA BKN020TCU
                      PROB30 TEMPO 1215/1221 3000 TSRA BKN020CB
                       BECMG 2415/2418 30020KT=
200910240800 TAF LMML 240800Z 2409/2418 29020KT 9999 SCT030
                      TEMPO 2409/2415 29023G35KT
                      PROB30 TEMPO 2409/2418 8000 SHRA BKN020TCU=
200910240500 TAF LMML 240500Z 2406/2415 30022G32KT 9999 SCT030
                      TEMPO 2406/2415 7000 SHRA BKN020TCU=
200910240200 TAF LMML 240200Z 2403/2412 29023G34KT 9999 SCT030
                      TEMPO 2403/2412 7000 SHRA BKN020TCU=
200910232300 TAF LMML 232300Z 2400/2409 28023G34KT 9999 SCT025
                      TEMPO 2400/2409 7000 SHRA BKN020TCU=
200910232000 TAF LMML 232000Z 2321/2406 29023G34KT 9999 SCT025
                      TEMPO 2321/2406 7000 SHRA BKN020TCU=
200910231700 TAF LMML 231700Z 2318/2403 29024G34KT 9999 SCT035
                      TEMPO 2318/2403 5000 SHRA BKN025TCU
                      PROB30 TEMPO 2400/2403 3000 TSRA BKN020CB=
200910231400 TAF LMML 231400Z 2315/2324 27024G34KT 9999 SCT035
                      PROB40 TEMPO 2315/2324 7000 SHRA BKN025TCU=
200910231101 TAF COR LMML 231101Z 2312/2321 27022KT 9999 FEW035
                      BECMG 2314/2317 27022G32KT
                      PROB40 TEMPO 2315/2321 8000 SHRA SCT030TCU=
200910231100 TAF LMML 231100Z 2312/2321 27022KT 9999 FEW035
                      BECMG 2314/2317 27022G32KT
                      PROB40 TEMPO 2315/2321 8000 SHRA SCT030TCU
                       PROB30
                      TEMPO 2315/2321 5000 TSRA BKN035=
200910230800 TAF LMML 230800Z 2309/2318 28020KT 9999 FEW025
                      TEMPO 2312/2318 8000 SHRA
                      BECMG 2314/2317 28020G30KT
                      PROB40 TEMPO 2315/2318 5000 TSRA BKN035CB=
200910230500 TAF LMML 230500Z 2306/2315 29020G30KT 9999 SCT025
                      PROB40 TEMPO 2308/2315 8000 SHRA BKN015
                      PROB30 TEMPO 2312/2315 5000 TSRA BKN015CB=
200910230200 TAF LMML 230200Z 2303/2312 30018KT 9999 SCT018
                      PROB30 TEMPO 2303/2312 6000 SHRA BKN015=
200910222300 TAF LMML 222300Z 2300/2309 30018KT 9999 FEW012
                      PROB40 TEMPO 2300/2309 6000 SHRA BKN015
                      PROB30 TEMPO 2300/2306 BKN005=
200910222000 TAF LMML 222000Z 2221/2306 18010KT 9000 NSC
                      BECMG 2300/2303 29018KT
                      PROB40 TEMPO 2222/2306 5000 SHRA BKN005 BKN015=
200910221700 TAF COR LMML 221700Z 2218/2303 18014KT 9000 FEW012 SCT120
                      TEMPO 2218/2303 5000 SHRA
                      PROB30 TEMPO 2221/2303 3000 TSRA BKN006 BKN050CB
                       BECMG 2300/2303 25016KT=
200910221400 TAF LMML 221400Z 2215/2224 17014KT 9000 FEW015 SCT120
                      PROB30 TEMPO 2221/2224 5000 TSRA BKN040CB=
200910221100 TAF LMML NIL=
200910220800 TAF LMML 220800Z 2209/2218 18014KT 9000 FEW015 BKN100
                      TEMPO 2209/2218 7000 RA
                      PROB30 TEMPO 2209/2218 TSRA BKN015CB=
200910220500 TAF LMML 220500Z 2206/2215 17017KT CAVOK
                      TEMPO 2206/2215 8000 RA FEW010
                      PROB30 TEMPO 2206/2215 6000 TSRA BKN015CB=
200910220200 TAF LMML 220200Z 2203/2212 17017KT CAVOK
                      TEMPO 2203/2212 8000 RA FEW010
                      PROB30 TEMPO 2203/2212 6000 TSRA BKN050CB=
200910212300 TAF LMML 212300Z 2200/2209 17017KT CAVOK
                      PROB40 TEMPO 2200/2209 8000 RA FEW010
                      PROB30 TEMPO 2200/2209 6000 TSRA BKN015CB=
200910212000 TAF LMML 212000Z 2121/2206 16012KT CAVOK
                      PROB0 TEMPO 2121/2206 8000 RA FEW010=
200910211700 TAF LMML 211700Z 2118/2203 15012KT CAVOK
                      PROB30 TEMPO 2021/2203 8000 SCT008 BKN012=
200910211400 TAF LMML 211400Z 2115/2124 17012KT CAVOK
                      TEMPO 2115/2124 FEW015=
200910211100 TAF LMML 211100Z 2112/2121 15014KT CAVOK
                      TEMPO 2112/2121 FEW015=
200910210800 TAF LMML 210800Z 2109/2118 13012KT CAVOK
                      PROB30 TEMPO 2109/2118 FEW015=
200910210500 TAF LMML 210500Z 2106/2115 14014KT 9999 FEW018
                      PROB40 TEMPO 2106/2115 CAVOK
                      PROB30 TEMPO 2106/2109 BKN015=
200910210200 TAF LMML 210200Z 2103/2112 14012KT 9999 SCT013
                      TEMPO 2103/2109 BKN015
                      PROB30 TEMPO 2103/2106 9000 BKN005=
200910202300 TAF LMML 202300Z 2100/2109 13015KT 9999 SCT016
                      TEMPO 2100/2109 BKN015
                      PROB30 TEMPO 2100/2107 9000 BKN009=
200910202000 TAF LMML 202000Z 2021/2106 11010KT 9999 SCT025
                      PROB30 TEMPO 2021/2106 BKN015=
200910201700 TAF LMML 201700Z 2018/2103 11008KT 9999 FEW030
                      TEMPO 2018/2103 CAVOK=
200910201400 TAF LMML 201400Z 2015/2024 11008KT CAVOK
                      PROB30 TEMPO 2015/2018 9999 FEW030=
200910201100 TAF LMML 201100Z 2012/2021 11006KT 9999 FEW030
                      TEMPO 2012/2021 CAVOK=
200910200800 TAF LMML 200800Z 2009/2018 VRB03KT CAVOK
                      PROB30 TEMPO 2009/2015 FEW030=
200910200500 TAF LMML 200500Z 2006/2015 30005KT 9999 SCT030 SCT100=
200910200200 TAF LMML 200200Z 2003/2012 30004KT 9999 FEW030=
200910192300 TAF LMML 192300Z 2000/2009 28004KT 9999 FEW030=
200910192000 TAF LMML 192000Z 1921/2006 28004KT 9999 SCT030 SCT060
                      PROB30 TEMPO 2000/2006 8000 RA=
200910191700 TAF LMML 191700Z 1918/2003 31005KT 9999 FEW030=
200910191400 TAF LMML 191400Z 1915/1924 30008KT 9999 FEW035
                      PROB30 TEMPO 1918/1924 9000 SHRA=
200910191100 TAF LMML 191100Z 1912/1921 30010KT 9999 SCT038
                      PROB30 TEMPO 1912/1921 8000 SHRA=
200910190800 TAF LMML 190800Z 1909/1918 30012KT 9999 SCT038
                      PROB30 TEMPO 1909/1915 8000 SHRA=
200910190500 TAF LMML 190500Z 1906/1915 30012KT 9999 SCT030
                      PROB30 TEMPO 1906/1915 5000 SHRA=
200910190200 TAF LMML 190200Z 1903/1912 28010KT 9999 SCT030
                      PROB30 TEMPO 1906/1912 5000 SHRA=
200910182300 TAF LMML 182300Z 1900/1909 27010KT 9999 FEW030
                      PROB30 TEMPO 1900/1909 5000 SHRA=
200910182000 TAF LMML 182000Z 1821/1906 27010KT 9999 SCT030
                      PROB 30
                      TEMPO 1821/1906 5000 SHRA=
200910181700 TAF LMML 181700Z 1818/1903 28011KT 9999 SCT030 BKN080
                      TEMPO 1820/1903 8000 RA=
200910181400 TAF LMML 181400Z 1815/1824 28015KT 9999 SCT035
                      TEMPO 1820/1824 8000 SHRA=
200910181100 TAF LMML 181100Z 1812/1821 28015KT 9999 SCT030
                      TEMPO 1812/1818 28015G25KT
                      PROB30 TEMPO 1818/1821 9000 SHRA=
200910180800 TAF LMML 180800Z 1809/1818 29015KT 9999 SCT025
                      BECMG 1811/1814 28018G28KT=
200910180500 TAF LMML 180500Z 1806/1815 28018G28KT 9999 SCT030
                      TEMPO 1806/1815 9000 SHRA BKN025TCU=
200910180200 TAF LMML 180200Z 1803/1812 27018KT 9999 SCT035
                      PROB40 TEMPO 1803/1812 27018G28KT 8000 SHRA
                       BKN025TCU=
200910172300 TAF LMML 172300Z 1800/1809 27018KT 9999 SCT035
                      TEMPO 1800/1809 27018G28KT
                      PROB40 TEMPO 1800/1809 8000 SHRA BKN025TCU=
200910172000 TAF LMML 172000Z 1721/1806 27018KT 9999 FEW035
                      TEMPO 1721/1806 27018G28KT
                      PROB40 TEMPO 1721/1806 8000 SHRA BKN015TCU=
200910171700 TAF LMML 171700Z 1718/1803 26018KT 9999 FEW030
                      PROB40 TEMPO 1718/1803 8000 SHRA=
200910171400 TAF LMML 171400Z 1715/1724 25015KT 9999 FEW030
                      PROB30 TEMPO 1716/1724 8000 SHRA=
200910171100 TAF LMML 171100Z 1712/1721 27015KT 9999 FEW030
                      PROB30 TEMPO 1716/1721 8000 SHRA=
200910170800 TAF LMML 170800Z 1709/1718 28012KT 9999 FEW030
                      PROB30 TEMPO 1709/1718 8000 SHRA=
200910170500 TAF LMML 170500Z 1706/1715 29010KT 9999 SCT025
                      PROB30 TEMPO 1706/1715 8000 SHRA=
200910170200 TAF LMML 170200Z 1703/1712 29005KT 9999 FEW035
                      TEMPO 1703/1709 8000 SHRA
                      PROB30 TEMPO 1703/1706 5000 BR NSC=
200910162300 TAF LMML 162300Z 1700/1709 30007KT 9999 FEW025
                      TEMPO 1700/1709 8000 SHRA BKN015
                      PROB30 TEMPO 1700/1703 3000 TSRA BKN015CB=
200910162000 TAF LMML 162000Z 1621/1706 30008KT 9999 SCT025
                      TEMPO 1621/1706 8000 SHRA BKN015
                      PROB30 TEMPO 1621/1703 3000 TSRA BKN015CB=
200910161700 TAF LMML 161700Z 1618/1703 31010KT 9999 FEW025
                      PROB40 TEMPO 1618/1703 8000 SHRA BKN025TCU=
200910161400 TAF LMML 161400Z 1615/1624 31012KT 9999 SCT025
                      TEMPO 1615/1624 8000 SHRA SCT018TCU
                      PROB30 TEMPO 1615/1624 5000 TSRA BKN015CB=
200910161100 TAF LMML 161100Z 1612/1621 28016KT 9999 SCT030
                      TEMPO 1612/1621 8000 SHRA SCT018TCU
                      PROB30 TEMPO 1615/1621 5000 TSRA BKN015CB=
200910160800 TAF LMML 160800Z 1609/1618 27015KT 9999 SCT030
                      TEMPO 1609/1618 8000 SHRA SCT018TCU
                      PROB30 TEMPO 1615/1618 5000 TSRA BKN015CB=
200910160500 TAF LMML 160500Z 1606/1615 27015KT 9999 SCT030
                      PROB30 TEMPO 1606/1615 7000 SHRA=
200910160200 TAF LMML 160200Z 1603/1612 27010KT 9999 SCT030=
200910152300 TAF LMML 152300Z 1600/1609 27010KT 9999 SCT030=
200910152000 TAF LMML 152000Z 1521/1606 27010KT 9999 SCT030
                      PROB30 TEMPO 1521/1606 8000 SHRA=
200910151700 TAF LMML 151700Z 1518/1603 26011KT 9999 SCT030
                      PROB30 TEMPO 1518/1603 8000 SHRA=
200910151400 TAF LMML 151400Z 1515/1524 26014KT 9999 SCT030 SCT120
                      TEMPO 1515/1521 8000 SHRA
                      PROB30 TEMPO 1516/1520 3000 TSRA BKN020CB
                       BKN080=
200910151100 TAF LMML 151100Z 1512/1521 26014KT 9999 SCT030
                      PROB30 TEMPO 1512/1521 8000 SHRA=
200910150800 TAF LMML 150800Z 1509/1518 26012KT 9999 SCT025
                      TEMPO 1509/1518 8000 SHRA BKN015
                      PROB30 TEMPO 1509/1515 3000 TSRA BKN015CB=
200910150500 TAF LMML 150500Z 1506/1515 27012KT 9999 SCT020
                      PROB40 TEMPO 1506/1515 7000 SHRA BKN015
                      PROB30 TEMPO 1509/1515 5000 TSRA BKN015CB=
200910150200 TAF LMML 150200Z 1503/1512 27008KT 9999 FEW020
                      PROB40 TEMPO 1503/1512 7000 SHRA BKN015
                      PROB30 TEMPO 1503/1509 5000 TSRA BKN015CB=
200910142300 TAF LMML 142300Z 1500/1509 VRB03KT 9999 SCT020
                      TEMPO 1500/1509 7000 SHRA BKN015=
200910142000 TAF LMML 142000Z 1421/1506 VRB03KT 9999 SCT020
                      TEMPO 1421/1506 6000 SHRA BKN015=
200910141700 TAF LMML 141700Z 1418/1503 28010KT 9999 SCT025
                      TEMPO 1418/1503 6000 SHRA
                      PROB30 TEMPO 1421/1503 4000 TSGR=
200910141400 TAF LMML 141400Z 1415/1424 27012KT 9999 SCT025
                      PROB40 TEMPO 1415/1424 8000 SHRA
                      PROB30 TEMPO 1421/1424 5000 TSRA BKN015CB=
200910141100 TAF LMML 141100Z 1412/1421 24014KT 9999 SCT025
                      PROB40 TEMPO 1412/1421 8000 SHRA=
200910140800 TAF LMML 140800Z 1409/1418 21010KT 9999 SCT025
                      PROB40 TEMPO 1409/1418 8000 SHRA=
200910140500 TAF LMML 140500Z 1406/1415 VRB05KT 9999 SCT025 BKN060
                      TEMPO 1406/1415 8000 RA BKN015
                      PROB30 TEMPO 1408/1415 5000 TSRA BKN015CB
                       BECMG 1409/1412 25012KT=
200910140200 TAF LMML 140200Z 1403/1412 VRB05KT 9999 FEW025
                      TEMPO 1403/1412 8000 SHRA
                      PROB30 TEMPO 1408/1412 5000 TSRA BKN015CB
                       BECMG 1409/1412 27012KT=
200910132300 TAF COR LMML 132300Z 1400/1409 VRB05KT 9999 FEW025
                      PROB40 TEMPO 1403/1409 8000 SHRA=
200910132000 TAF LMML 132000Z 1321/1406 30005KT 9999 FEW025
                      PROB30 TEMPO 1403/1406 9000 SHRA=
200910131700 TAF LMML 131700Z 1318/1403 33010KT 9999 FEW030=
200910131400 TAF LMML 131400Z 1315/1324 33010KT 9999 FEW030=
200910131100 TAF LMML 131100Z 1312/1321 33015KT 9999 FEW030
                      TEMPO 1312/1315 33015G25KT=
200910130800 TAF LMML 130800Z 1309/1318 33010KT 9999 FEW030=
200910130500 TAF LMML 130500Z 1306/1315 29016KT 9999 FEW030
                      TEMPO 1306/1312 31018G28KT
                      BECMG 1306/1309 CAVOK
                      BECMG 1311/1313 35014KT=
200910130200 TAF LMML 130200Z 1303/1312 29018KT 9999 SCT025
                      TEMPO 1303/1306 30020G30KT 8000 SHRA
                      BECMG 1306/1309 35015G25KT CAVOK
                      BECMG 1309/1312 34014KT=
200910122300 TAF LMML 122300Z 1300/1309 27016KT 9999 SCT020
                      TEMPO 1300/1305 8000 SHRA BKN015TCU
                      PROB30 TEMPO 1300/1303 3000 TSRA BKN015CB
                       BECMG 1300/1303 29018G28KT
                      BECMG 1306/1309 33015KT CAVOK=
200910122000 TAF LMML 122000Z 1221/1306 27014KT 9999 SCT025
                      TEMPO 1221/1305 8000 SHRA BKN020TCU
                      PROB30 TEMPO 1221/1303 3000 TSRA BKN015CB
                       BECMG 1221/1224 29018G28KT=
200910121700 TAF LMML 121700Z 1218/1303 28018KT 9999 FEW020
                      TEMPO 1220/1303 28020G30KT
                      TEMPO 1221/1303 8000 SHRA SCT020TCU
                      PROB30 TEMPO 1221/1303 4000 TSRA BKN015CB=
200910121400 TAF LMML 121400Z 1215/1224 27018KT 9999 SCT020
                      TEMPO 1218/1224 27020G30KT
                      PROB30 TEMPO 1221/1224 4000 TSRA BKN015CB=
200910121100 TAF LMML 121100Z 1212/1221 27016KT 9999 FEW023
                      TEMPO 1218/1221 27017G27KT=
200910120800 TAF LMML 120800Z 1209/1218 26007KT 9999 SCT025
                      PROB40 TEMPO 1209/1215 7000 SHRA BKN015TCU
                       BECMG 1212/1215 27017KT=
200910120500 TAF LMML 120500Z 1206/1215 24006KT 9999 SCT020
                      TEMPO 1209/1213 8000 SHRA BKN015
                      BECMG 1212/1215 27016KT=
200910120200 TAF LMML 120200Z 1203/1212 27008KT 9999 SCT018 BKN120
                      TEMPO 1203/1209 7000 SHRA BKN015
                      PROB30 TEMPO 1203/1209 4000 TSRA BKN015CB=
200910112300 TAF LMML 112300Z 1200/1209 26006KT 9999 SCT018 BKN100
                      TEMPO 1200/1209 7000 SHRA BKN015
                      PROB30 TEMPO 1200/1209 4000 TSRA BKN012CB=
200910112000 TAF LMML 112000Z 1121/1206 24005KT 9999 FEW020 SCT120
                      TEMPO 1121/1206 8000 SHRA BKN015
                      PROB30 TEMPO 1121/1206 4000 TSRA BKN012CB=
200910111700 TAF LMML 111700Z 1118/1203 28006KT 9999 FEW020
                      TEMPO 1118/1203 8000 SHRA BKN015
                      PROB30 TEMPO 1118/1203 3000 TSRA BKN015CB=
200910111400 TAF LMML 111400Z 1115/1124 28007KT 9999 SCT020
                      TEMPO 1115/1124 8000 SHRA BKN015TCU
                      PROB30 TEMPO 1115/1124 3000 TSRA BKN015CB=
200910111100 TAF LMML 111100Z 1112/1121 VRB06KT 9999 SCT020 SCT100
                      TEMPO 1112/1121 8000 SHRA BKN015
                      PROB30 TEMPO 1112/1121 3000 TSRA BKN015CB
                       S / ICA9D / 9IE / OD / C W I 9 Z // G/ /OO
                       1C /G/ U I 1 RP/ / /// 3 K/DI / I PU H U/QI
                       C / O // /11 9/1 9999Y CHECK TEXT NEW ENDING
                       ADDED LIIIYFYC=
200910110800 TAF LMML 110800Z 1109/1118 30007KT 9999 SCT020
                      TEMPO 1109/1118 8000 SHRA BKN015
                      PROB30 TEMPO 1109/1118 3000 TSRA BKN015CB=
200910110500 TAF LMML 110500Z 1106/1115 27005KT 9999 SCT018
                      TEMPO 1106/1115 6000 SHRA BKN015
                      PROB40 TEMPO 1106/1115 5000 TSRA FEW008 BKN015CB=
200910110200 TAF LMML 110200Z 1103/1112 25005KT 9999 SCT025
                      PROB40 TEMPO 1103/1112 8000 SHRA FEW008 BKN015
                       PROB30
                      TEMPO 1109/1112 5000 TSRA SCT008 BKN015CB=
200910102300 TAF LMML 102300Z 1100/1109 26004KT 9999 FEW018
                      PROB30 TEMPO 1102/1109 8000 SHRA FEW008 BKN015=
200910102000 TAF LMML 102000Z 1021/1106 VRB03KT 9999 FEW020
                      PROB30 TEMPO 1102/1106 8000 SHRA FEW008 BKN015=
200910101700 TAF LMML 101700Z 1018/1103 26004KT 9999 FEW018
                      PROB30 TEMPO 1021/1103 8000 BKN015=
200910101400 TAF LMML 101400Z 1015/1024 26006KT 9999 SCT020=
200910101100 TAF LMML 101100Z 1012/1021 28007KT 9999 SCT020=
200910100800 TAF LMML 100800Z 1009/1018 30008KT 9999 SCT020=
200910100500 TAF LMML 100500Z 1006/1015 27005KT 9999 SCT020=
200910100200 TAF LMML 100200Z 1003/1012 27004KT 9999 FEW015
                      PROB40 TEMPO 1003/1006 8000 BKN010
                      PROB30 TEMPO 1003/1006 5000 BR BKN008=
200910092300 TAF LMML 092300Z 1000/1009 VRB03KT 9999 FEW015
                      PROB40 TEMPO 1000/1006 8000 BKN010
                      PROB30 TEMPO 1000/1006 5000 BR BKN008=
200910092000 TAF LMML 092000Z 0921/1006 VRB03KT 9999 FEW015
                      PROB40 TEMPO 0921/1006 8000 BKN010
                      PROB30 TEMPO 1001/1005 5000 BR BKN008=
200910091700 TAF LMML 091700Z 0918/1003 VRB03KT 9999 FEW020=
200910091400 TAF LMML 091400Z 0915/0924 VRB03KT 9999 FEW020=
200910091100 TAF LMML 091100Z 0912/0921 30006KT 9999 FEW025=
200910090800 TAF LMML 090800Z 0909/0918 29006KT 9999 FEW020=
200910090500 TAF LMML 090500Z 0906/0915 29006KT 9999 FEW015=
200910090200 TAF LMML 090200Z 0903/0912 28004KT CAVOK
                      TEMPO 0903/0906 9999 FEW012
                      PROB30 TEMPO 0903/0906 5000 BR SCT008
                      BECMG 0906/0909 9999 FEW015=
200910082300 TAF LMML 082300Z 0900/0909 28004KT CAVOK
                      TEMPO 0900/0906 9000 FEW012
                      PROB30 TEMPO 0901/0905 5000 BR SCT008
                      BECMG 0906/0909 9999 FEW015=
200910082000 TAF LMML 082000Z 0821/0906 28004KT 9999 FEW015
                      BECMG 0821/0824 CAVOK
                      PROB30 TEMPO 0900/0906 9000 FEW010=
200910081700 TAF LMML 081700Z 0818/0903 VRB03KT CAVOK
                      TEMPO 0818/0903 9999 FEW015=
200910081400 TAF LMML 081400Z 0815/0824 VRB05KT 9999 SCT020=
200910081100 TAF LMML 081100Z 0812/0821 VRB05KT 9999 FEW022=
200910080800 TAF LMML 080800Z 0809/0818 VRB04KT 9999 FEW018
                      PROB40 TEMPO 0809/0818 CAVOK=
200910080500 TAF LMML 080500Z 0806/0815 29006KT 9999 FEW020=
200910080200 TAF LMML 080200Z 0803/0812 29005KT CAVOK
                      PROB30 TEMPO 0803/0806 9000 FEW013
                      BECMG 0806/0809 9999 FEW020=
200910072300 TAF LMML 072300Z 0800/0809 30005KT CAVOK
                      TEMPO 0800/0809 9999 FEW015=
200910072000 TAF LMML 072000Z 0721/0806 29004KT CAVOK
                      TEMPO 0721/0806 9999 FEW015=
200910071700 TAF LMML 071700Z 0718/0803 31004KT 9999 FEW025=
200910071400 TAF LMML 071400Z 0715/0724 31005KT 9999 FEW025=
200910071100 TAF LMML 071100Z 0712/0721 33005KT 9999 FEW028=
200910070800 TAF LMML 070800Z 0709/0718 31007KT 9999 FEW025=
200910070500 TAF LMML 070500Z 0706/0715 32007KT 9999 FEW025=
200910070200 TAF LMML 070200Z 0703/0712 27005KT CAVOK
                      BECMG 0704/0707 9999 FEW025=
200910062300 TAF LMML 062300Z 0700/0709 VRB04KT CAVOK
                      TEMPO 0703/0709 9999 FEW020=
200910062000 TAF LMML 062000Z 0621/0706 VRB03KT 9999 FEW018=
200910061700 TAF LMML 061700Z 0618/0703 VRB04KT 9999 FEW015
                      TEMPO 0618/0703 CAVOK=
200910061400 TAF LMML 061400Z 0615/0624 VRB06KT 9999 SCT025=
200910061100 TAF LMML 061100Z 0612/0621 34006KT 9999 FEW025
                      BECMG 0618/0621 CAVOK=
200910060800 TAF LMML 060800Z 0609/0618 31007KT 9999 FEW025=
200910060500 TAF LMML 060500Z 0606/0615 VRB04KT 9999 FEW025
                      PROB40 TEMPO 0606/0615 CAVOK=
200910060200 TAF LMML 060200Z 0603/0612 VRB03KT 9999 FEW025
                      TEMPO 0603/0612 CAVOK=
200910052300 TAF LMML 052300Z 0600/0609 VRB03KT 9999 FEW025
                      TEMPO 0600/0609 CAVOK=
200910052000 TAF LMML 052000Z 0521/0606 VRB03KT 9999 FEW025
                      TEMPO 0521/0606 CAVOK=
200910051700 TAF LMML 051700Z 0518/0603 VRB03KT 9999 FEW020=
200910051445 TAF LMML 051445Z 0515/0524 31005KT 9999 FEW030=
200910051400 TAF LMML 051400Z 0515/1524 31005KT 9999 FEW030=
200910051100 TAF LMML 051100Z 0512/0521 32007KT 9999 FEW020=
200910050800 TAF LMML 050800Z 0509/0518 32008KT 9999 FEW018=
200910050500 TAF LMML 050500Z 0506/0515 30008KT 9999 FEW025=
200910050200 TAF LMML 050200Z 0503/0512 29007KT 9999 FEW020
                      PROB30 TEMPO 0503/0506 9000 NSC=
200910042300 TAF LMML 042300Z 0500/0509 29006KT 9999 FEW020
                      TEMPO 0500/0506 CAVOK=
200910042000 TAF LMML 042000Z 0421/0506 30006KT 9999 FEW025=
200910041700 TAF LMML 041700Z 0418/0503 30010KT 9999 FEW025=
200910041400 TAF LMML 041400Z 0415/0424 30010KT 9999 SCT028=
200910041100 TAF LMML 041100Z 0412/0421 30010KT 9999 SCT028
                      PROB30 TEMPO 0412/0415 7000 SHRA BKN020TCU=
200910040800 TAF LMML 040800Z 0409/0418 30010KT 9999 SCT028
                      PROB30 TEMPO 0409/0415 7000 SHRA BKN020TCU=
200910040500 TAF LMML 040500Z 0406/0415 30010KT 9999 SCT020
                      TEMPO 0408/0413 8000 SHRA BKN015=
200910040200 TAF LMML 040200Z 0403/0412 29008KT 9999 SCT020
                      TEMPO 0403/0412 8000 SHRA BKN015
                      PROB30 TEMPO 0403/0412 5000 TSRA BKN015CB=
200910032300 TAF LMML 032300Z 0400/0409 29008KT 9999 FEW020
                      TEMPO 0400/0409 8000 SHRA BKN015
                      PROB30 TEMPO 0403/0409 5000 TSRA BKN015CB=
200910032000 TAF LMML 032000Z 0321/0406 29010KT 9999 FEW020
                      TEMPO 0400/0406 8000 SHRA BKN015
                      PROB30 TEMPO 0403/0406 5000 TSRA BKN015CB=
200910031700 TAF LMML 031700Z 0318/0403 28013KT 9999 SCT020
                      PROB30 TEMPO 0400/0403 8000 SHRA BKN015=
200910031400 TAF LMML 031400Z 0315/0324 29015KT 9999 SCT030
                      PROB30 TEMPO 0315/0318 29015G25KT=
200910031100 TAF LMML 031100Z 0312/0321 29015KT 9999 SCT030
                      PROB30 TEMPO 0312/0315 29015G25KT=
200910030800 TAF LMML 030800Z 0309/0318 30015KT 9999 SCT025
                      PROB30 TEMPO 0309/0315 29015G25KT=
200910030500 TAF LMML 030500Z 0306/0315 30015G25KT 9999 FEW030=
200910030200 TAF LMML 030200Z 0303/0312 30013KT 9999 FEW020=
200910022300 TAF LMML 022300Z 0300/0309 29013KT 9999 FEW020
                      PROB30 TEMPO 0300/0306 8000 SHRA BKN018=
200910022000 TAF LMML 022000Z 0221/0306 28010KT 9999 SCT020
                      TEMPO 0221/0301 8000 SHRA BKN015TCU
                      PROB30 TEMPO 0221/0224 5000 TSRA BKN015CB=
200910021700 TAF LMML 021700Z 0218/0303 27013KT 9999 SCT020
                      TEMPO 0218/0303 8000 SHRA BKN015TCU
                      PROB30 TEMPO 0218/0303 5000 TSRA BKN015CB=
200910021400 TAF LMML 021400Z 0215/0224 27017KT 9999 FEW020
                      TEMPO 0215/0224 27017G24KT 9000 SHRA SCT020TCU
                       PROB40
                      TEMPO 0215/0224 5000 TSRA BKN015CB=
200910021100 TAF LMML 021100Z 0212/0221 28016KT 9999 FEW022
                      TEMPO 0212/0221 28016G26KT 6000 TSRA BKN015CB=
200910020800 TAF LMML 020800Z 0209/0218 28016KT 9999 FEW020
                      TEMPO 0209/0218 28016G26KT 6000 TSRA BKN015CB=
200910020500 TAF LMML 020500Z 0206/0215 28016KT 9999 FEW025=
200910020200 TAF LMML 020200Z 0203/0212 30015KT 9999 SCT015
                      TEMPO 0203/0206 8000 SHRA BKN015
                      PROB40 TEMPO 0203/0206 5000 TSRA BKN005 BKN015CB=
200910012300 TAF LMML 012300Z 0200/0209 30015KT 9999 FEW007 SCT015
                      TEMPO 0200/0206 8000 SHRA BKN013
                      PROB40 TEMPO 0200/0206 5000 TSRA BKN005 BKN013CB=
200910012000 TAF LMML 012000Z 0121/0206 15017KT 9999 SCT013
                      TEMPO 0121/0206 8000 SHRA BKN013
                      PROB40 TEMPO 0121/0204 5000 TSRA BKN013CB
                       BECMG 0123/0202 28015KT=
200910011700 TAF LMML 011700Z 0118/0203 15012KT 9999 SCT015 SCT020
                      TEMPO 0118/0203 8000 SHRA BKN015
                      PROB40 TEMPO 0118/0203 5000 TSRA FEW008 BKN015CB=
200910011400 TAF LMML 011400Z 0115/0124 15013KT 9999 FEW018 SCT030
                      TEMPO 0115/0124 8000 BKN015
                      PROB40 TEMPO 0115/0124 5000 TSRA FEW008 BKN015CB=
200910011100 TAF LMML 011100Z 0112/0121 15013KT 9999 FEW018 SCT030
                      TEMPO 0112/0121 8000 SHRA BKN018
                      PROB40 TEMPO 0112/0121 5000 TSRA FEW008 BKN015CB=
200910010800 TAF LMML 010800Z 0109/0118 15010KT 9999 FEW020 SCT035
                      PROB40 TEMPO 0111/0118 8000 SHRA BKN018
                      PROB30 TEMPO 0112/0118 5000 TSRA FEW008 BKN015CB=
200910010500 TAF LMML 010500Z 0106/0115 16007KT 9999 FEW015 SCT035
                      PROB40 TEMPO 0106/0115 8000 RA BKN015 BKN030=
200910010200 TAF LMML 010200Z 0103/0112 16007KT 9999 FEW013 SCT025
                      PROB40 TEMPO 0103/0106 9000 BKN010 BKN025
                       PROB30
                      TEMPO 0106/0112 8000 SHRA BKN015=

###################################
#  large TAF from LMML
###################################
200910312300 TAF LMML NIL=
200910311700 TAF LMML NIL=
200910311100 TAF LMML NIL=
200910310500 TAF LMML NIL=
200910302300 TAF LMML NIL=
200910301700 TAF LMML NIL=
200910301100 TAF LMML NIL=
200910300500 TAF LMML NIL=
200910292300 TAF LMML NIL=
200910291700 TAF LMML NIL=
200910291100 TAF LMML NIL=
200910290500 TAF LMML NIL=
200910282300 TAF LMML NIL=
200910281700 TAF LMML NIL=
200910281100 TAF LMML NIL=
200910280500 TAF LMML NIL=
200910272300 TAF LMML NIL=
200910271700 TAF LMML NIL=
200910271100 TAF LMML NIL=
200910270500 TAF LMML NIL=
200910262300 TAF LMML NIL=
200910261700 TAF LMML NIL=
200910261100 TAF LMML NIL=
200910260500 TAF LMML NIL=
200910252300 TAF LMML NIL=
200910251700 TAF LMML NIL=
200910251100 TAF LMML NIL=
200910250500 TAF LMML NIL=
200910242300 TAF LMML NIL=
200910241700 TAF LMML NIL=
200910241100 TAF LMML NIL=
200910240500 TAF LMML NIL=
200910232300 TAF LMML NIL=
200910231700 TAF LMML NIL=
200910231100 TAF LMML NIL=
200910230500 TAF LMML NIL=
200910222300 TAF LMML NIL=
200910221700 TAF LMML NIL=
200910221100 TAF LMML NIL=
200910220500 TAF LMML NIL=
200910212300 TAF LMML NIL=
200910211700 TAF LMML NIL=
200910211100 TAF LMML NIL=
200910210500 TAF LMML NIL=
200910202300 TAF LMML NIL=
200910201700 TAF LMML NIL=
200910201100 TAF LMML NIL=
200910200500 TAF LMML NIL=
200910192300 TAF LMML NIL=
200910191700 TAF LMML NIL=
200910191100 TAF LMML NIL=
200910190500 TAF LMML NIL=
200910182300 TAF LMML NIL=
200910181700 TAF LMML NIL=
200910181100 TAF LMML NIL=
200910180500 TAF LMML NIL=
200910172300 TAF LMML NIL=
200910171700 TAF LMML NIL=
200910171100 TAF LMML NIL=
200910170500 TAF LMML NIL=
200910162300 TAF LMML NIL=
200910161700 TAF LMML NIL=
200910161100 TAF LMML NIL=
200910160500 TAF LMML NIL=
200910152300 TAF LMML NIL=
200910151700 TAF LMML NIL=
200910151100 TAF LMML NIL=
200910150500 TAF LMML NIL=
200910142300 TAF LMML NIL=
200910141700 TAF LMML NIL=
200910141100 TAF LMML NIL=
200910140500 TAF LMML NIL=
200910132300 TAF LMML NIL=
200910131700 TAF LMML NIL=
200910131100 TAF LMML NIL=
200910130500 TAF LMML NIL=
200910122300 TAF LMML NIL=
200910121700 TAF LMML NIL=
200910121100 TAF LMML NIL=
200910120500 TAF LMML NIL=
200910112300 TAF LMML NIL=
200910111700 TAF LMML NIL=
200910111100 TAF LMML NIL=
200910110500 TAF LMML NIL=
200910102300 TAF LMML NIL=
200910101700 TAF LMML NIL=
200910101100 TAF LMML NIL=
200910100500 TAF LMML NIL=
200910092300 TAF LMML NIL=
200910091700 TAF LMML NIL=
200910091100 TAF LMML NIL=
200910090500 TAF LMML NIL=
200910082300 TAF LMML NIL=
200910081700 TAF LMML NIL=
200910081100 TAF LMML NIL=
200910080500 TAF LMML NIL=
200910072300 TAF LMML NIL=
200910071700 TAF LMML NIL=
200910071100 TAF LMML NIL=
200910070500 TAF LMML NIL=
200910062300 TAF LMML NIL=
200910061700 TAF LMML NIL=
200910061100 TAF LMML NIL=
200910060500 TAF LMML NIL=
200910052300 TAF LMML NIL=
200910051700 TAF LMML NIL=
200910051100 TAF LMML NIL=
200910050500 TAF LMML NIL=
200910042300 TAF LMML NIL=
200910041700 TAF LMML NIL=
200910041100 TAF LMML NIL=
200910040500 TAF LMML NIL=
200910032300 TAF LMML NIL=
200910031700 TAF LMML NIL=
200910031100 TAF LMML NIL=
200910030500 TAF LMML NIL=
200910022300 TAF LMML NIL=
200910021700 TAF LMML NIL=
200910021100 TAF LMML NIL=
200910020500 TAF LMML NIL=
200910012300 TAF LMML NIL=
200910011700 TAF LMML NIL=
200910011100 TAF LMML NIL=
200910010500 TAF LMML NIL=
