##########################################################
# Query made at 12/28/2012 16:29:08 UTC
# Time interval: from 10/01/2012 00:00  to 10/31/2012 23:59  UTC
##########################################################

##########################################################
# LMML, Luqa (Malta)
# WMO index: 16597
# Latitude 35-51N. Longitude 014-29E. Altitude 91 m.
##########################################################

###################################
#  METAR/SPECI from LMML
###################################
201210312345 METAR LMML 312345Z AUTO 21009KT CAVOK 24/21 Q1001=
201210312330 METAR LMML NIL=
201210312315 METAR LMML 312315Z AUTO 21010KT 180V240 CAVOK 24/21 Q1001=
201210312300 METAR LMML NIL=
201210312245 METAR LMML 312245Z AUTO 20009KT 170V240 CAVOK 24/21 Q1001=
201210312230 METAR LMML NIL=
201210312215 METAR LMML 312215Z AUTO 18010KT CAVOK 23/21 Q1001=
201210312200 METAR LMML NIL=
201210312145 METAR LMML 312145Z AUTO 18012KT CAVOK 23/21 Q1001=
201210312130 METAR LMML NIL=
201210312115 METAR LMML 312115Z AUTO 17014KT CAVOK 23/21 Q1001=
201210312100 METAR LMML NIL=
201210312045 METAR LMML 312045Z AUTO 17015KT CAVOK 23/21 Q1002=
201210312030 METAR LMML NIL=
201210312015 METAR LMML 312015Z 17015KT CAVOK 23/21 Q1002 NOSIG=
201210312000 METAR LMML NIL=
201210311945 METAR LMML 311945Z 17015KT CAVOK 23/21 Q1002 NOSIG=
201210311930 METAR LMML NIL=
201210311915 METAR LMML 311915Z 16013KT CAVOK 22/21 Q1003 NOSIG=
201210311900 METAR LMML NIL=
201210311845 METAR LMML 311845Z 16013KT 9999 FEW035 22/21 Q1003 NOSIG=
201210311830 METAR LMML NIL=
201210311815 METAR LMML 311815Z 17009KT 8000 -RA SCT030 22/21 Q1004 NOSIG=
201210311800 METAR LMML NIL=
201210311745 METAR LMML 311745Z 16009KT 9000 FEW016 22/21 Q1003 RERA NOSIG=
201210311730 METAR LMML NIL=
201210311715 METAR LMML 311715Z 19005KT 5000 RA SCT040 22/20 Q1004 NOSIG=
201210311700 METAR LMML NIL=
201210311645 METAR LMML 311645Z 19006KT 160V220 7000 -RA FEW033 22/20
                        Q1004 TEMPO 5000=
201210311630 METAR LMML NIL=
201210311615 METAR LMML 311615Z 19008KT 160V220 6000 -RA FEW019 SCT040
                        23/20 Q1004 TEMPO 5000=
201210311600 METAR LMML NIL=
201210311545 METAR LMML 311545Z 19010KT 9000 -RA SCT035 23/20 Q1003 TEMPO
                        7000=
201210311530 METAR LMML NIL=
201210311515 METAR LMML 311515Z 19010KT 9999 -RA FEW018 23/20 Q1003 NOSIG=
201210311500 METAR LMML NIL=
201210311445 METAR LMML 311445Z 19013KT 9999 FEW012 23/19 Q1003 NOSIG=
201210311430 METAR LMML NIL=
201210311415 METAR LMML 311415Z 20012KT 9999 SCT017 23/20 Q1003 NOSIG=
201210311400 METAR LMML NIL=
201210311345 METAR LMML 311345Z 19013KT 9999 SCT017 23/20 Q1003 NOSIG=
201210311330 METAR LMML NIL=
201210311315 METAR LMML 311315Z 19012KT 160V220 9999 BKN015 23/20 Q1003
                        NOSIG=
201210311300 METAR LMML NIL=
201210311245 METAR LMML 311245Z AUTO 20013KT 9999NDV SCT014/// BKN018///
                        BKN020/// 23/20 Q1004=
201210311230 METAR LMML NIL=
201210311215 METAR LMML 311215Z 20014KT 9999 BKN016 24/20 Q1004 NOSIG=
201210311200 METAR LMML NIL=
201210311145 METAR LMML 311145Z 20015KT 9999 SCT017 24/20 Q1005 NOSIG=
201210311130 METAR LMML NIL=
201210311115 METAR LMML 311115Z 20013KT 9999 BKN017 24/20 Q1005 NOSIG=
201210311100 METAR LMML NIL=
201210311045 METAR LMML 311045Z 20014KT 9999 BKN018 24/20 Q1006 NOSIG=
201210311030 METAR LMML NIL=
201210311015 METAR LMML 311015Z 19010KT 150V230 9999 BKN018 22/19 Q1006
                        NOSIG=
201210311000 METAR LMML NIL=
201210310945 METAR LMML 310945Z 15011KT 9999 BKN017 22/19 Q1007 NOSIG=
201210310930 METAR LMML NIL=
201210310915 METAR LMML 310915Z 15012KT 9999 SCT021 21/18 Q1007 NOSIG=
201210310900 METAR LMML NIL=
201210310845 METAR LMML 310845Z 16012KT 9999 FEW008 SCT018 20/18 Q1007
                        NOSIG=
201210310830 METAR LMML NIL=
201210310815 METAR LMML 310815Z 16010KT 9999 SCT020 FEW040 20/18 Q1007
                        NOSIG=
201210310800 METAR LMML NIL=
201210310745 METAR LMML 310745Z 17014KT 9999 -RA SCT008 FEW015 SCT040
                        20/17 Q1008 TEMPO 4000 TSRA BKN020CB=
201210310730 METAR LMML NIL=
201210310715 METAR LMML 310715Z 17012KT 9999 SCT015 20/17 Q1007 RERA TEMPO
                        4000 TSRA BKN020CB=
201210310700 METAR LMML NIL=
201210310645 METAR LMML 310645Z 17013KT 9999 -RA FEW012 SCT040 20/18 Q1007
                        RERA TEMPO 4000 TSRA BKN020CB=
201210310630 METAR LMML NIL=
201210310615 METAR LMML 310615Z 17015G25KT 9999 RA SCT009 BKN014 20/18
                        Q1007 TEMPO 4000 TSRA BKN020CB=
201210310600 METAR LMML NIL=
201210310545 METAR LMML 310545Z 18013KT 9999 SCT012 20/17 Q1007 TEMPO
                        4000 TSRA BKN020CB=
201210310530 METAR LMML NIL=
201210310515 METAR LMML 310515Z 17015KT 9999 FEW015 20/17 Q1007 TEMPO
                        4000 TSRA BKN020CB=
201210310500 METAR LMML NIL=
201210310445 METAR LMML 310445Z 16013KT 9999 SCT013 20/18 Q1007 TEMPO
                        4000 TSRA BKN020CB=
201210310430 METAR LMML NIL=
201210310415 METAR LMML 310415Z 17013KT 7000 -SHRA BKN023 21/16 Q1008
                        TEMPO 4000 TSRA BKN020CB=
201210310400 METAR LMML NIL=
201210310345 METAR LMML 310345Z 16010KT 9999 SCT023 19/16 Q1008 NOSIG=
201210310330 METAR LMML NIL=
201210310315 METAR LMML 310315Z 16011KT 9999 SCT027 20/15 Q1008 NOSIG=
201210310300 METAR LMML NIL=
201210310245 METAR LMML 310245Z AUTO 16012KT 9999NDV -DZ FEW028/// SCT044///
                        20/15 Q1008=
201210310230 METAR LMML NIL=
201210310215 METAR LMML 310215Z AUTO 16013KT 9999NDV HZ FEW031/// OVC100///
                        21/14 Q1008=
201210310145 METAR LMML 310145Z AUTO 17012KT 9999NDV HZ FEW029/// BKN100///
                        20/14 Q1009=
201210310130 METAR LMML NIL=
201210310115 METAR LMML 310115Z AUTO 17014KT CAVOK 20/13 Q1009=
201210310100 METAR LMML NIL=
201210310045 METAR LMML 310045Z AUTO 17013KT 2000NDV R13/1000VP2000N FEW033///
                        OVC120/// 20/13 Q1009=
201210310030 METAR LMML NIL=
201210310015 METAR LMML 310015Z AUTO 17012KT 2400NDV HZ SCT032/// BKN036///
                        OVC045/// 20/13 Q1010=
201210310000 METAR LMML NIL=
201210302345 METAR LMML 302345Z AUTO 17013KT 2100NDV HZ FEW032/// SCT046///
                        BKN053/// 20/13 Q1010=
201210302330 METAR LMML NIL=
201210302315 METAR LMML 302315Z AUTO 17010KT 2300NDV R13/0900VP2000U HZ
                        FEW033/// BKN040/// BKN048/// 20/13
                        Q1011=
201210302300 METAR LMML NIL=
201210302245 METAR LMML 302245Z AUTO 17011KT 3000NDV HZ SCT034/// BKN041///
                        BKN170/// 20/12 Q1011=
201210302230 METAR LMML NIL=
201210302215 METAR LMML 302215Z AUTO 17010KT 9000NDV HZ SCT035/// BKN043///
                        19/12 Q1011=
201210302200 METAR LMML NIL=
201210302145 METAR LMML 302145Z AUTO 17010KT 9999NDV FEW037/// 19/11 Q1011=
201210302130 METAR LMML NIL=
201210302115 METAR LMML 302115Z AUTO 17009KT 9999NDV SCT040/// 19/10 Q1012=
201210302100 METAR LMML NIL=
201210302045 METAR LMML 302045Z AUTO 17009KT CAVOK 18/10 Q1012=
201210302030 METAR LMML NIL=
201210302015 METAR LMML 302015Z AUTO 15008KT CAVOK 17/10 Q1012=
201210302000 METAR LMML NIL=
201210301945 METAR LMML 301945Z 16008KT CAVOK 17/09 Q1012 NOSIG=
201210301930 METAR LMML NIL=
201210301915 METAR LMML 301915Z 15007KT CAVOK 16/09 Q1012 NOSIG=
201210301900 METAR LMML NIL=
201210301845 METAR LMML 301845Z 15006KT CAVOK 17/09 Q1012 NOSIG=
201210301830 METAR LMML NIL=
201210301815 METAR LMML 301815Z 14005KT CAVOK 17/09 Q1012 NOSIG=
201210301800 METAR LMML NIL=
201210301745 METAR LMML 301745Z 14003KT CAVOK 18/09 Q1012=
201210301730 METAR LMML NIL=
201210301715 METAR LMML 301715Z 13004KT CAVOK 17/09 Q1012=
201210301700 METAR LMML NIL=
201210301645 METAR LMML 301645Z 14003KT CAVOK 18/09 Q1012=
201210301630 METAR LMML NIL=
201210301615 METAR LMML 301615Z VRB02KT 9999 FEW045 19/08 Q1012=
201210301600 METAR LMML NIL=
201210301545 METAR LMML 301545Z VRB02KT 9999 FEW045 19/09 Q1012=
201210301530 METAR LMML NIL=
201210301515 METAR LMML 301515Z 27003KT 230V300 9999 FEW045 19/09 Q1013=
201210301500 METAR LMML NIL=
201210301445 METAR LMML 301445Z 28003KT 240V320 9999 FEW045 19/09 Q1013=
201210301430 METAR LMML NIL=
201210301415 METAR LMML 301415Z AUTO 26006KT 230V300 CAVOK 20/08 Q1013=
201210301400 METAR LMML NIL=
201210301345 METAR LMML 301345Z 28007KT 250V310 9999 FEW045 20/08 Q1013
                        NOSIG=
201210301330 METAR LMML NIL=
201210301315 METAR LMML 301315Z 29008KT 250V320 9999 FEW045 21/07 Q1013
                        NOSIG=
201210301300 METAR LMML NIL=
201210301245 METAR LMML 301245Z 28005KT 240V330 9999 FEW045 21/07 Q1013
                        NOSIG=
201210301230 METAR LMML NIL=
201210301215 METAR LMML 301215Z 29009KT 9999 FEW045 21/08 Q1013 NOSIG=
201210301200 METAR LMML NIL=
201210301145 METAR LMML 301145Z 29006KT 230V320 9999 FEW045 21/09 Q1014
                        NOSIG=
201210301130 METAR LMML NIL=
201210301115 METAR LMML 301115Z 28007KT 250V310 9999 SCT045 20/09 Q1014
                        NOSIG=
201210301100 METAR LMML NIL=
201210301045 METAR LMML 301045Z 29007KT 240V320 9999 SCT045 20/09 Q1014
                        NOSIG=
201210301030 METAR LMML NIL=
201210301015 METAR LMML 301015Z AUTO 31008KT 260V330 9999NDV SCT047///
                        20/09 Q1014 NOSIG=
201210300945 METAR LMML 300945Z 28007KT 250V310 9999 SCT048 20/09 Q1015
                        NOSIG=
201210300930 METAR LMML NIL=
201210300915 METAR LMML 300915Z 30006KT 260V330 9999 BKN035 20/11 Q1015
                        NOSIG=
201210300900 METAR LMML NIL=
201210300845 METAR LMML 300845Z AUTO 30005KT 280V340 CAVOK 19/11 Q1015
                        NOSIG=
201210300830 METAR LMML NIL=
201210300815 METAR LMML 300815Z 35005KT 9999 BKN041 19/11 Q1015 NOSIG=
201210300800 METAR LMML NIL=
201210300745 METAR LMML 300745Z 30007KT 9999 FEW025 SCT045 19/10 Q1015
                        NOSIG=
201210300730 METAR LMML NIL=
201210300715 METAR LMML 300715Z 31005KT 280V350 9999 FEW025 BKN045 19/11
                        Q1014 NOSIG=
201210300700 METAR LMML NIL=
201210300645 METAR LMML 300645Z 30005KT 9999 FEW025 BKN044 18/11 Q1014
                        NOSIG=
201210300630 METAR LMML NIL=
201210300615 METAR LMML 300615Z 30006KT 9999 FEW025 BKN044 17/11 Q1014
                        NOSIG=
201210300600 METAR LMML NIL=
201210300545 METAR LMML 300545Z 29005KT 9999 FEW028 BKN041 17/11 Q1014
                        NOSIG=
201210300530 METAR LMML NIL=
201210300515 METAR LMML 300515Z 29003KT 9999 SCT041 16/12 Q1013 NOSIG=
201210300500 METAR LMML NIL=
201210300445 METAR LMML 300445Z 31003KT 9999 FEW033 BKN043 17/12 Q1013
                        NOSIG=
201210300430 METAR LMML NIL=
201210300415 METAR LMML 300415Z 32003KT 9999 -RA FEW035 BKN049 16/12 Q1014
                        NOSIG=
201210300400 METAR LMML NIL=
201210300345 METAR LMML 300345Z AUTO 33004KT 9999NDV BKN032/// OVC036///
                        16/12 Q1014=
201210300330 METAR LMML NIL=
201210300315 METAR LMML 300315Z AUTO 31004KT 9999NDV SCT036/// SCT046///
                        16/12 Q1014=
201210300300 METAR LMML NIL=
201210300245 METAR LMML 300245Z AUTO VRB02KT 9999NDV FEW019/// BKN040///
                        BKN048/// 16/12 Q1014=
201210300230 METAR LMML NIL=
201210300215 METAR LMML 300215Z AUTO 33004KT 300V360 9999NDV FEW038///
                        SCT046/// BKN059/// 16/12 Q1014=
201210300200 METAR LMML NIL=
201210300145 METAR LMML 300145Z AUTO 31006KT 9999NDV FEW043/// BKN050///
                        17/11 Q1014=
201210300130 METAR LMML NIL=
201210300115 METAR LMML 300115Z AUTO 32007KT CAVOK 17/11 Q1014=
201210300100 METAR LMML NIL=
201210300045 METAR LMML 300045Z AUTO 31006KT 280V340 9999NDV FEW033///
                        BKN056/// 16/11 Q1014=
201210300030 METAR LMML NIL=
201210300015 METAR LMML 300015Z AUTO 32010KT 9999NDV -DZ FEW033/// OVC037///
                        17/10 Q1015=
201210300000 METAR LMML NIL=
201210292345 METAR LMML 292345Z AUTO 31005KT 9999NDV BKN038/// OVC044///
                        17/09 Q1015=
201210292330 METAR LMML NIL=
201210292315 METAR LMML 292315Z AUTO 33007KT 9999NDV BKN044/// BKN049///
                        BKN067/// 17/08 Q1015=
201210292300 METAR LMML NIL=
201210292245 METAR LMML 292245Z AUTO 32008KT 9999NDV BKN047/// BKN056///
                        18/08 Q1015=
201210292230 METAR LMML NIL=
201210292215 METAR LMML 292215Z AUTO 34012KT 9999NDV FEW025/// BKN044///
                        OVC060/// 17/09 Q1015=
201210292200 METAR LMML NIL=
201210292145 METAR LMML 292145Z AUTO 33010KT 9999NDV BKN041/// BKN047///
                        BKN057/// 17/09 Q1015=
201210292130 METAR LMML NIL=
201210292115 METAR LMML 292115Z AUTO 32015KT 9999NDV FEW041/// BKN065///
                        18/09 Q1015=
201210292100 METAR LMML NIL=
201210292045 METAR LMML 292045Z 31012KT 9999 FEW038 BKN049 18/09 Q1015
                        NOSIG=
201210292030 METAR LMML NIL=
201210292015 METAR LMML 292015Z 31014KT 9999 FEW039 BKN049 17/09 Q1015
                        NOSIG=
201210292000 METAR LMML NIL=
201210291945 METAR LMML 291945Z 31013KT 9999 BKN043 18/08 Q1014 NOSIG=
201210291930 METAR LMML NIL=
201210291915 METAR LMML 291915Z 32013KT 9999 BKN049 18/07 Q1014 NOSIG=
201210291900 METAR LMML NIL=
201210291845 METAR LMML 291845Z 31015KT 9999 SCT048 18/06 Q1014 NOSIG=
201210291830 METAR LMML NIL=
201210291815 METAR LMML 291815Z 31016KT 9999 SCT048 18/05 Q1014 NOSIG=
201210291745 METAR LMML 291745Z 32017KT 9999 SCT042 18/07 Q1013 NOSIG=
201210291715 METAR LMML 291715Z 31016KT 9999 FEW035 17/10 Q1013 NOSIG=
201210291700 METAR LMML NIL=
201210291645 METAR LMML 291645Z 31016KT 9999 BKN030 18/09 Q1013 NOSIG=
201210291630 METAR LMML NIL=
201210291615 METAR LMML 291615Z 30015KT 9999 SCT037 18/09 Q1013 NOSIG=
201210291600 METAR LMML NIL=
201210291545 METAR LMML 291545Z 31016KT 9999 SCT035 18/09 Q1013 NOSIG=
201210291530 METAR LMML NIL=
201210291515 METAR LMML 291515Z 31017KT 9999 SCT035 18/09 Q1013 NOSIG=
201210291500 METAR LMML NIL=
201210291445 METAR LMML 291445Z 30013KT 9999 BKN039 18/09 Q1012 NOSIG=
201210291430 METAR LMML NIL=
201210291415 METAR LMML 291415Z 30017KT 9999 FEW040 19/08 Q1013 NOSIG=
201210291400 METAR LMML NIL=
201210291345 METAR LMML 291345Z 29019KT 9999 SCT040 19/08 Q1012 NOSIG=
201210291330 METAR LMML NIL=
201210291315 METAR LMML 291315Z 29016G26KT 250V310 9999 SCT039 20/09 Q1012
                        NOSIG=
201210291300 METAR LMML NIL=
201210291245 METAR LMML 291245Z 30016KT 260V320 9999 SCT042 20/08 Q1012
                        NOSIG=
201210291230 METAR LMML NIL=
201210291215 METAR LMML 291215Z 29015KT 9999 SCT040 19/09 Q1012 NOSIG=
201210291200 METAR LMML NIL=
201210291145 METAR LMML 291145Z 31016KT 9999 SCT038 21/09 Q1013 NOSIG=
201210291130 METAR LMML NIL=
201210291115 METAR LMML 291115Z 31015KT 9999 SCT040 20/09 Q1013 NOSIG=
201210291100 METAR LMML NIL=
201210291045 METAR LMML 291045Z 30014KT 9999 SCT045 20/07 Q1013 NOSIG=
201210291030 METAR LMML NIL=
201210291015 METAR LMML 291015Z 30014KT 9999 SCT040 20/08 Q1013 NOSIG=
201210291000 METAR LMML NIL=
201210290945 METAR LMML 290945Z 30015KT 9999 SCT038 19/09 Q1013 NOSIG=
201210290930 METAR LMML NIL=
201210290915 METAR LMML 290915Z 31013KT 9999 SCT038 19/10 Q1013 NOSIG=
201210290900 METAR LMML NIL=
201210290845 METAR LMML 290845Z 30015KT 9999 SCT040 19/09 Q1013 NOSIG=
201210290830 METAR LMML NIL=
201210290815 METAR LMML 290815Z 31015KT 9999 SCT030 19/08 Q1013 NOSIG=
201210290800 METAR LMML NIL=
201210290745 METAR LMML 290745Z 32012KT 9999 FEW025 SCT040 19/10 Q1012
                        NOSIG=
201210290730 METAR LMML NIL=
201210290715 METAR LMML 290715Z 32013KT 280V340 9999 FEW025 FEW040 19/10
                        Q1012 NOSIG=
201210290700 METAR LMML NIL=
201210290645 METAR LMML 290645Z 33009KT 9999 FEW030 SCT040 17/12 Q1012
                        NOSIG=
201210290630 METAR LMML NIL=
201210290615 METAR LMML 290615Z 34009KT 9999 -RA FEW014 SCT030 17/12 Q1012
                        NOSIG=
201210290600 METAR LMML NIL=
201210290545 METAR LMML 290545Z 32011KT 290V350 9999 SCT030 BKN045 16/11
                        Q1011 NOSIG=
201210290530 METAR LMML NIL=
201210290515 METAR LMML 290515Z 33011KT 9999 FEW025 BKN040 16/12 Q1011
                        NOSIG=
201210290500 METAR LMML NIL=
201210290445 METAR LMML 290445Z 32010KT 9999 FEW022 BKN039 17/11 Q1011
                        NOSIG=
201210290430 METAR LMML NIL=
201210290415 METAR LMML 290415Z 30007KT 9999 FEW024 16/12 Q1011 NOSIG=
201210290400 METAR LMML NIL=
201210290345 METAR LMML 290345Z 33008KT 9999 FEW026 BKN040 17/12 Q1011
                        NOSIG=
201210290315 METAR LMML 290315Z 33007KT 9999 FEW024 BKN035 16/13 Q1011
                        NOSIG=
201210290300 METAR LMML NIL=
201210290245 METAR LMML 290245Z AUTO 33010KT CAVOK 16/13 Q1011=
201210290230 METAR LMML NIL=
201210290215 METAR LMML 290215Z AUTO 33010KT 9999NDV DZ SCT018/// BKN020///
                        OVC024/// 17/12 Q1011=
201210290200 METAR LMML NIL=
201210290145 METAR LMML 290145Z AUTO 31009KT CAVOK 17/11 Q1011=
201210290130 METAR LMML NIL=
201210290115 METAR LMML 290115Z AUTO 32011KT 9999NDV FEW025/// BKN032///
                        OVC055/// 17/12 Q1011=
201210290100 METAR LMML NIL=
201210290045 METAR LMML 290045Z AUTO 32009KT CAVOK 17/11 Q1011=
201210290030 METAR LMML NIL=
201210290015 METAR LMML 290015Z AUTO 33012KT 9999NDV SCT045/// BKN051///
                        17/11 Q1011=
201210290000 METAR LMML NIL=
201210282345 METAR LMML 282345Z AUTO 33013KT CAVOK 17/10 Q1011=
201210282330 METAR LMML NIL=
201210282315 METAR LMML 282315Z AUTO 33017KT 9999NDV FEW025/// BKN039///
                        OVC044/// 18/11 Q1011=
201210282300 METAR LMML NIL=
201210282245 METAR LMML 282245Z AUTO 34014KT 9999NDV SCT035/// SCT039///
                        BKN055/// 18/11 Q1011=
201210282230 METAR LMML NIL=
201210282215 METAR LMML 282215Z AUTO 34012KT 9999NDV FEW034/// SCT047///
                        OVC054/// 18/12 Q1010=
201210282200 METAR LMML NIL=
201210282145 METAR LMML 282145Z 34011KT 9999NDV BKN047/// 18/11 Q1010=
201210282130 METAR LMML NIL=
201210282115 METAR LMML 282115Z AUTO 34011KT CAVOK 18/12 Q1010=
201210282100 METAR LMML NIL=
201210282045 METAR LMML 282045Z AUTO 34013KT CAVOK 18/11 Q1010=
201210282030 METAR LMML NIL=
201210282015 METAR LMML 282015Z 34013KT 9999 FEW025 18/12 Q1009 NOSIG=
201210282000 METAR LMML NIL=
201210281945 METAR LMML 281945Z 34012KT 9999 FEW025 18/12 Q1008 NOSIG=
201210281930 METAR LMML NIL=
201210281915 METAR LMML 281915Z 34013KT 9999 FEW025 18/12 Q1008 NOSIG=
201210281900 METAR LMML NIL=
201210281845 METAR LMML 281845Z 34012KT 9999 FEW025 18/13 Q1008 NOSIG=
201210281830 METAR LMML NIL=
201210281815 METAR LMML 281815Z 34015KT 9999 FEW025 18/13 Q1008 NOSIG=
201210281800 METAR LMML NIL=
201210281745 METAR LMML 281745Z 34013KT 9999 FEW025 19/13 Q1007 NOSIG=
201210281715 METAR LMML 281715Z 34016KT 9999 FEW025 19/14 Q1007 NOSIG=
201210281700 METAR LMML NIL=
201210281645 METAR LMML 281645Z 33016KT 9999 SCT032 19/15 Q1006 NOSIG=
201210281615 METAR LMML 281615Z 34016KT 9999 SCT025 20/15 Q1006 NOSIG=
201210281600 METAR LMML NIL=
201210281545 METAR LMML 281545Z 34016KT 9999 SCT020 21/16 Q1005 NOSIG=
201210281515 METAR LMML 281515Z 33011KT 9999 FEW020 21/17 Q1005 NOSIG=
201210281500 METAR LMML NIL=
201210281445 METAR LMML 281445Z 34014KT 9999 -RA FEW020 21/17 Q1005 NOSIG=
201210281430 METAR LMML NIL=
201210281415 METAR LMML 281415Z 33014KT 9999 FEW030 22/17 Q1005 NOSIG=
201210281400 METAR LMML NIL=
201210281345 METAR LMML 281345Z 32013KT 9999 FEW030 23/17 Q1004 NOSIG=
201210281315 METAR LMML 281315Z 32012KT 9999 FEW030 24/16 Q1004 NOSIG=
201210281245 METAR LMML 281245Z AUTO 31014KT CAVOK 24/16 Q1004 NOSIG=
201210281215 METAR LMML 281215Z 31015KT CAVOK 25/16 Q1004 NOSIG=
201210281145 METAR LMML 281145Z 30012KT 9999 FEW030 24/15 Q1004 NOSIG=
201210281130 METAR LMML NIL=
201210281115 METAR LMML 281115Z 30015KT CAVOK 25/16 Q1004 NOSIG=
201210281045 METAR LMML 281045Z 30013KT CAVOK 26/17 Q1004 NOSIG=
201210281030 METAR LMML NIL=
201210281015 METAR LMML 281015Z 29013KT CAVOK 25/16 Q1004 NOSIG=
201210280945 METAR LMML 280945Z 28011KT 250V310 CAVOK 25/17 Q1004 NOSIG=
201210280930 METAR LMML NIL=
201210280915 METAR LMML 280915Z 27010KT CAVOK 25/18 Q1004 NOSIG=
201210280845 METAR LMML 280845Z 26009KT CAVOK 24/19 Q1004 NOSIG=
201210280830 METAR LMML NIL=
201210280815 METAR LMML 280815Z 27009KT CAVOK 24/19 Q1004 NOSIG=
201210280745 METAR LMML 280745Z 26009KT CAVOK 24/19 Q1003 NOSIG=
201210280730 METAR LMML NIL=
201210280715 METAR LMML 280715Z 26009KT CAVOK 24/20 Q1003 NOSIG=
201210280645 METAR LMML 280645Z 25009KT CAVOK 23/19 Q1003 NOSIG=
201210280615 METAR LMML 280615Z 25009KT CAVOK 23/19 Q1002 NOSIG=
201210280600 METAR LMML NIL=
201210280545 METAR LMML 280545Z 25010KT 210V270 CAVOK 24/19 Q1002 NOSIG=
201210280530 METAR LMML NIL=
201210280515 METAR LMML 280515Z 24009KT CAVOK 24/19 Q1002 NOSIG=
201210280500 METAR LMML NIL=
201210280445 METAR LMML 280445Z 24008KT CAVOK 23/19 Q1001 NOSIG=
201210280430 METAR LMML NIL=
201210280415 METAR LMML 280415Z 23007KT CAVOK 23/19 Q1001 NOSIG=
201210280345 METAR LMML 280345Z AUTO 24007KT CAVOK 23/20 Q1001=
201210280315 METAR LMML 280315Z AUTO 19006KT CAVOK 21/19 Q1001=
201210280245 METAR LMML 280245Z VRB02KT 7000 NSC 20/19 Q1001=
201210280215 METAR LMML 280215Z 11003KT 080V150 7000 NSC 20/19 Q1001=
201210280145 METAR LMML 280145Z 16008KT 7000 NSC 21/19 Q1002=
201210280130 METAR LMML NIL=
201210280115 METAR LMML 280115Z AUTO 15005KT 6000NDV BKN140/// 20/18 Q1002=
201210280100 METAR LMML NIL=
201210280045 METAR LMML 280045Z 14004KT 7000 NSC 20/18 Q1002 NOSIG=
201210280030 METAR LMML NIL=
201210280015 METAR LMML 280015Z VRB02KT 6000 NSC 20/18 Q1002=
201210280000 METAR LMML NIL=
201210272330 METAR LMML NIL=
201210272315 METAR LMML 272315Z AUTO 01003KT 350V050 6000NDV FEW180///
                        20/18 Q1002=
201210272300 METAR LMML NIL=
201210272245 METAR LMML 272245Z AUTO 11002KT CAVOK 21/18 Q1002=
201210272230 METAR LMML NIL=
201210272215 METAR LMML 272215Z AUTO VRB01KT CAVOK 21/18 Q1003=
201210272200 METAR LMML NIL=
201210272145 METAR LMML 272145Z AUTO VRB02KT CAVOK 21/18 Q1003=
201210272130 METAR LMML NIL=
201210272115 METAR LMML 272115Z AUTO 23002KT CAVOK 21/18 Q1003=
201210272100 METAR LMML NIL=
201210272045 METAR LMML 272045Z 24002KT CAVOK 21/18 Q1002 NOSIG=
201210272030 METAR LMML NIL=
201210272015 METAR LMML 272015Z 32002KT CAVOK 21/18 Q1002 NOSIG=
201210272000 METAR LMML NIL=
201210271945 METAR LMML 271945Z VRB02KT CAVOK 21/17 Q1002 NOSIG=
201210271930 METAR LMML NIL=
201210271915 METAR LMML 271915Z 32004KT CAVOK 21/17 Q1002 NOSIG=
201210271900 METAR LMML NIL=
201210271845 METAR LMML 271845Z 32005KT 9000 NSC 22/17 Q1002 NOSIG=
201210271830 METAR LMML NIL=
201210271815 METAR LMML 271815Z 30008KT 9000 NSC 22/17 Q1002 NOSIG=
201210271800 METAR LMML NIL=
201210271745 METAR LMML 271745Z 28008KT 9000 NSC 23/16 Q1002 NOSIG=
201210271730 METAR LMML NIL=
201210271715 METAR LMML 271715Z 28011KT 9000 NSC 24/16 Q1001 NOSIG=
201210271700 METAR LMML NIL=
201210271645 METAR LMML 271645Z 26010KT 240V300 8000 NSC 24/19 Q1001 NOSIG=
201210271630 METAR LMML NIL=
201210271615 METAR LMML 271615Z 25012KT 220V280 7000 HZ NSC 25/19 Q1001
                        NOSIG=
201210271600 METAR LMML NIL=
201210271545 METAR LMML 271545Z 24014KT 7000 HZ NSC 25/18 Q1001 NOSIG=
201210271530 METAR LMML NIL=
201210271515 METAR LMML 271515Z 24012KT 7000 HZ NSC 26/19 Q1001 NOSIG=
201210271500 METAR LMML NIL=
201210271445 METAR LMML 271445Z 24013KT 210V280 9000 NSC 26/19 Q1001 NOSIG=
201210271430 METAR LMML NIL=
201210271415 METAR LMML 271415Z 23014G24KT 200V260 CAVOK 26/18 Q1001 NOSIG=
201210271400 METAR LMML NIL=
201210271345 METAR LMML 271345Z 23013KT 200V260 CAVOK 26/19 Q1001 NOSIG=
201210271330 METAR LMML NIL=
201210271315 METAR LMML 271315Z 22012G22KT 190V250 CAVOK 26/19 Q1001 NOSIG=
201210271300 METAR LMML NIL=
201210271245 METAR LMML 271245Z 22015KT 190V250 CAVOK 27/19 Q1001 NOSIG=
201210271230 METAR LMML NIL=
201210271215 METAR LMML 271215Z 21016G26KT 180V240 CAVOK 27/18 Q1002 NOSIG=
201210271200 METAR LMML NIL=
201210271145 METAR LMML 271145Z 20017G27KT CAVOK 26/19 Q1002 NOSIG=
201210271130 METAR LMML NIL=
201210271115 METAR LMML 271115Z 20017KT 170V230 CAVOK 26/19 Q1002 NOSIG=
201210271100 METAR LMML NIL=
201210271045 METAR LMML 271045Z 20019G30KT CAVOK 27/19 Q1003 NOSIG=
201210271030 METAR LMML NIL=
201210271015 METAR LMML 271015Z 20018G31KT CAVOK 26/19 Q1003 NOSIG=
201210271000 METAR LMML NIL=
201210270945 METAR LMML 270945Z 18015KT CAVOK 25/19 Q1003 NOSIG=
201210270930 METAR LMML NIL=
201210270915 METAR LMML 270915Z 19019KT 9999 -RA SCT017 25/21 Q1004 NOSIG=
201210270900 METAR LMML NIL=
201210270845 METAR LMML 270845Z 19016KT 160V220 CAVOK 26/20 Q1004 NOSIG=
201210270830 METAR LMML NIL=
201210270815 METAR LMML 270815Z 19015KT 160V220 CAVOK 25/20 Q1004 NOSIG=
201210270800 METAR LMML NIL=
201210270745 METAR LMML 270745Z 18010KT 150V210 CAVOK 25/19 Q1005 NOSIG=
201210270730 METAR LMML NIL=
201210270715 METAR LMML 270715Z 20004KT 130V240 CAVOK 25/19 Q1005 NOSIG=
201210270700 METAR LMML NIL=
201210270645 METAR LMML 270645Z 19009KT 160V230 CAVOK 25/18 Q1005 NOSIG=
201210270630 METAR LMML NIL=
201210270615 METAR LMML 270615Z 20013KT 9999 FEW048 25/16 Q1004 NOSIG=
201210270600 METAR LMML NIL=
201210270545 METAR LMML 270545Z 21010KT 170V250 9999 FEW048 25/17 Q1005
                        NOSIG=
201210270530 METAR LMML NIL=
201210270515 METAR LMML 270515Z 20011KT CAVOK 25/19 Q1005 NOSIG=
201210270500 METAR LMML NIL=
201210270445 METAR LMML 270445Z 21013KT 9999 FEW020 25/19 Q1005 NOSIG=
201210270415 METAR LMML 270415Z AUTO 22012KT CAVOK 25/15 Q1005 NOSIG=
201210270400 METAR LMML NIL=
201210270345 METAR LMML 270345Z AUTO 23012KT 190V250 CAVOK 25/17 Q1005
                        NOSIG=
201210270330 METAR LMML NIL=
201210270315 METAR LMML 270315Z 22009KT CAVOK 24/21 Q1006 NOSIG=
201210270300 METAR LMML NIL=
201210270245 METAR LMML 270245Z AUTO 22007KT 190V260 CAVOK 24/20 Q1006=
201210270230 METAR LMML NIL=
201210270215 METAR LMML 270215Z AUTO 22006KT CAVOK 24/20 Q1006=
201210270200 METAR LMML NIL=
201210270145 METAR LMML 270145Z AUTO 21009KT CAVOK 24/20 Q1006=
201210270130 METAR LMML NIL=
201210270115 METAR LMML 270115Z AUTO 21010KT CAVOK 24/20 Q1006=
201210270100 METAR LMML NIL=
201210270045 METAR LMML 270045Z AUTO 21010KT CAVOK 24/20 Q1007=
201210270030 METAR LMML NIL=
201210270015 METAR LMML 270015Z AUTO 21010KT CAVOK 24/20 Q1007=
201210270000 METAR LMML NIL=
201210262345 METAR LMML 262345Z AUTO 21010KT 170V230 CAVOK 24/20 Q1007=
201210262330 METAR LMML NIL=
201210262315 METAR LMML 262315Z AUTO 20011KT CAVOK 24/20 Q1007=
201210262300 METAR LMML NIL=
201210262245 METAR LMML 262245Z AUTO 20014KT CAVOK 24/20 Q1007=
201210262230 METAR LMML NIL=
201210262215 METAR LMML 262215Z AUTO 20011KT CAVOK 23/20 Q1008=
201210262200 METAR LMML NIL=
201210262145 METAR LMML 262145Z AUTO 20012KT 9999NDV FEW009/// SCT120///
                        23/20 Q1008=
201210262130 METAR LMML NIL=
201210262115 METAR LMML 262115Z AUTO 20014KT CAVOK 23/19 Q1009=
201210262100 METAR LMML NIL=
201210262045 METAR LMML 262045Z AUTO 20014KT CAVOK 23/19 Q1009=
201210262030 METAR LMML NIL=
201210262015 METAR LMML 262015Z 20011KT 9999 SCT023 23/19 Q1009 NOSIG=
201210262000 METAR LMML NIL=
201210261945 METAR LMML 261945Z 20014KT 9999 SCT021 23/19 Q1009 NOSIG=
201210261930 METAR LMML NIL=
201210261915 METAR LMML 261915Z 20012KT 170V240 9999 SCT023 23/18 Q1009
                        NOSIG=
201210261900 METAR LMML NIL=
201210261845 METAR LMML 261845Z 18009KT 160V220 9999 SCT022 23/18 Q1009
                        NOSIG=
201210261830 METAR LMML NIL=
201210261815 METAR LMML 261815Z 18007KT 9999 FEW024 22/18 Q1010 NOSIG=
201210261800 METAR LMML NIL=
201210261745 METAR LMML 261745Z 19006KT 9999 FEW023 22/18 Q1010 NOSIG=
201210261715 METAR LMML 261715Z 20006KT 9999 FEW024 22/18 Q1010 NOSIG=
201210261645 METAR LMML 261645Z 20007KT 9999 FEW023 22/18 Q1010 NOSIG=
201210261630 METAR LMML NIL=
201210261615 METAR LMML 261615Z 20008KT 9999 FEW023 22/18 Q1009 NOSIG=
201210261545 METAR LMML 261545Z 20009KT 160V220 9999 FEW023 23/17 Q1009
                        NOSIG=
201210261530 METAR LMML NIL=
201210261515 METAR LMML 261515Z 20007KT 170V230 9999 FEW025 23/17 Q1010
                        NOSIG=
201210261500 METAR LMML NIL=
201210261445 METAR LMML 261445Z 21009KT 9999 FEW025 24/17 Q1010 NOSIG=
201210261430 METAR LMML NIL=
201210261415 METAR LMML 261415Z 21007KT 180V240 9999 FEW024 24/17 Q1010
                        NOSIG=
201210261400 METAR LMML NIL=
201210261345 METAR LMML 261345Z 22007KT 180V250 9999 FEW025 23/17 Q1010
                        NOSIG=
201210261315 METAR LMML 261315Z AUTO 21008KT 180V240 9999NDV SCT026///
                        BKN110/// 23/17 Q1011=
201210261245 METAR LMML 261245Z 22009KT 180V250 9999 FEW026 24/16 Q1011
                        NOSIG=
201210261215 METAR LMML 261215Z 21009KT 170V230 9999 FEW026 24/16 Q1011
                        NOSIG=
201210261200 METAR LMML NIL=
201210261145 METAR LMML 261145Z 22009KT 180V260 9999 FEW026 24/16 Q1011
                        NOSIG=
201210261130 METAR LMML NIL=
201210261115 METAR LMML 261115Z 21008KT 180V240 9999 FEW026 24/16 Q1012
                        NOSIG=
201210261100 METAR LMML NIL=
201210261045 METAR LMML 261045Z 21008KT 170V250 9999 FEW026 24/16 Q1012
                        NOSIG=
201210261030 METAR LMML NIL=
201210261015 METAR LMML 261015Z 19008KT 160V220 9999 SCT026 23/16 Q1013
                        NOSIG=
201210261000 METAR LMML NIL=
201210260945 METAR LMML 260945Z 19008KT 160V220 9999 SCT026 23/16 Q1013
                        NOSIG=
201210260930 METAR LMML NIL=
201210260915 METAR LMML 260915Z 20007KT 160V230 9999 SCT025 23/16 Q1013
                        NOSIG=
201210260900 METAR LMML NIL=
201210260845 METAR LMML 260845Z 20005KT 150V230 9999 SCT026 23/16 Q1013
                        NOSIG=
201210260830 METAR LMML NIL=
201210260815 METAR LMML 260815Z 19005KT 160V220 9999 SCT026 23/16 Q1013
                        NOSIG=
201210260800 METAR LMML NIL=
201210260745 METAR LMML 260745Z 17003KT 150V220 9999 FEW025 23/16 Q1013
                        NOSIG=
201210260730 METAR LMML NIL=
201210260715 METAR LMML 260715Z VRB01KT 9999 FEW025 22/17 Q1013 NOSIG=
201210260700 METAR LMML NIL=
201210260645 METAR LMML 260645Z VRB01KT 9999 FEW020 19/17 Q1012 NOSIG=
201210260630 METAR LMML NIL=
201210260615 METAR LMML 260615Z 14003KT 9999 FEW020 19/16 Q1012 NOSIG=
201210260600 METAR LMML NIL=
201210260545 METAR LMML 260545Z 13003KT 9999 FEW020 17/15 Q1012 NOSIG=
201210260530 METAR LMML NIL=
201210260515 METAR LMML 260515Z 11002KT 9999 FEW020 16/15 Q1012 NOSIG=
201210260500 METAR LMML NIL=
201210260445 METAR LMML 260445Z 00000KT 9999 FEW025 17/15 Q1012 NOSIG=
201210260430 METAR LMML NIL=
201210260415 METAR LMML 260415Z VRB01KT CAVOK 16/15 Q1012 NOSIG=
201210260400 METAR LMML NIL=
201210260345 METAR LMML 260345Z VRB01KT CAVOK 16/14 Q1012 NOSIG=
201210260315 METAR LMML 260315Z VRB01KT CAVOK 16/15 Q1012 NOSIG=
201210260245 METAR LMML 260245Z AUTO 26001KT 3200NDV NCD 17/15 Q1012=
201210260215 METAR LMML 260215Z AUTO VRB01KT 2000NDV NCD 16/14 Q1012=
201210260145 METAR LMML 260145Z AUTO 20002KT 1400NDV R13/1900N R31/P2000N
                        NCD 17/15 Q1012=
201210260130 METAR LMML NIL=
201210260115 METAR LMML 260115Z AUTO 20002KT 6000NDV NCD 17/15 Q1012=
201210260100 METAR LMML NIL=
201210260045 METAR LMML 260045Z AUTO 00000KT 1300NDV R13/1400VP2000D R31/P2000N
                        FG NCD 17/15 Q1013=
201210260030 METAR LMML NIL=
201210260015 METAR LMML 260015Z AUTO VRB01KT 2100NDV NCD 17/15 Q1013=
201210260000 METAR LMML NIL=
201210252345 METAR LMML 252345Z AUTO VRB01KT 3000NDV FG NCD 17/15 Q1013=
201210252330 METAR LMML NIL=
201210252315 METAR LMML 252315Z AUTO 25001KT CAVOK 17/15 Q1013=
201210252245 METAR LMML 252245Z AUTO 27002KT CAVOK 17/15 Q1013=
201210252215 METAR LMML 252215Z AUTO 27004KT CAVOK 17/15 Q1013=
201210252200 METAR LMML NIL=
201210252145 METAR LMML 252145Z AUTO 28002KT CAVOK 17/15 Q1013=
201210252115 METAR LMML 252115Z AUTO 29003KT CAVOK 18/15 Q1013=
201210252100 METAR LMML NIL=
201210252045 METAR LMML 252045Z AUTO 29004KT CAVOK 18/16 Q1014=
201210252030 METAR LMML NIL=
201210252015 METAR LMML 252015Z 29003KT 9999 FEW020 18/16 Q1013 NOSIG=
201210252000 METAR LMML NIL=
201210251945 METAR LMML 251945Z 30004KT 9999 FEW020 18/16 Q1013 NOSIG=
201210251915 METAR LMML 251915Z 30002KT 9999 FEW025 18/16 Q1013 NOSIG=
201210251900 METAR LMML NIL=
201210251845 METAR LMML 251845Z VRB02KT 9999 FEW025 19/16 Q1013 NOSIG=
201210251830 METAR LMML NIL=
201210251815 METAR LMML 251815Z 05003KT 9999 FEW025 19/16 Q1013 NOSIG=
201210251800 METAR LMML NIL=
201210251745 METAR LMML 251745Z 05004KT 9999 FEW025 20/16 Q1013 NOSIG=
201210251730 METAR LMML NIL=
201210251715 METAR LMML 251715Z 01005KT 9999 FEW025 19/16 Q1012 NOSIG=
201210251700 METAR LMML NIL=
201210251645 METAR LMML 251645Z 01004KT 350V070 9999 FEW025 20/16 Q1012
                        NOSIG=
201210251630 METAR LMML NIL=
201210251615 METAR LMML 251615Z 02006KT 9999 FEW025 20/16 Q1012 NOSIG=
201210251600 METAR LMML NIL=
201210251545 METAR LMML 251545Z 35007KT 320V020 9999 FEW029 21/15 Q1012
                        NOSIG=
201210251515 METAR LMML 251515Z 35007KT 9999 FEW029 22/15 Q1012 NOSIG=
201210251500 METAR LMML NIL=
201210251445 METAR LMML 251445Z 34005KT 310V030 9999 FEW029 22/15 Q1012
                        NOSIG=
201210251430 METAR LMML NIL=
201210251415 METAR LMML 251415Z 01004KT 300V050 9999 FEW029 23/15 Q1012
                        NOSIG=
201210251400 METAR LMML NIL=
201210251345 METAR LMML 251345Z 04006KT 350V060 9999 FEW027TCU 22/15 Q1011
                        NOSIG=
201210251330 METAR LMML NIL=
201210251315 METAR LMML 251315Z VRB02KT 9999 FEW024TCU 22/15 Q1011 NOSIG=
201210251300 METAR LMML NIL=
201210251245 METAR LMML 251245Z VRB05KT 9999 SCT024TCU 22/16 Q1012 NOSIG=
201210251230 METAR LMML NIL=
201210251215 METAR LMML 251215Z VRB01KT 9999 SCT024 22/16 Q1012 TEMPO
                        9000 SHRA=
201210251200 METAR LMML NIL=
201210251145 METAR LMML 251145Z VRB02KT 9999 SCT025TCU 21/16 Q1012 TEMPO
                        9000 SHRA=
201210251130 METAR LMML NIL=
201210251115 METAR LMML 251115Z 15005KT 9999 FEW010 BKN029TCU 20/17 Q1013
                        TEMPO 9000 SHRA=
201210251100 METAR LMML NIL=
201210251045 METAR LMML 251045Z 15003KT 100V220 9999 BKN022TCU 20/16 Q1013
                        NOSIG=
201210251030 METAR LMML NIL=
201210251015 METAR LMML 251015Z 17006KT 070V210 9000 -SHRA FEW010 BKN021TCU
                        20/16 Q1013 BECMG 9999 NSW=
201210251000 METAR LMML NIL=
201210250945 METAR LMML 250945Z 06007KT 040V100 9999 SCT032 21/16 Q1013
                        NOSIG=
201210250930 METAR LMML NIL=
201210250915 METAR LMML 250915Z VRB02KT 9999 FC SCT024 22/15 Q1013 NOSIG=
201210250900 METAR LMML NIL=
201210250845 METAR LMML 250845Z 12004KT 080V160 9999 FEW020TCU 22/16 Q1013
                        NOSIG=
201210250815 METAR LMML 250815Z VRB02KT 9999 FEW020 22/16 Q1013 NOSIG=
201210250745 METAR LMML 250745Z AUTO 08005KT 050V120 CAVOK 21/16 Q1013
                        NOSIG=
201210250730 METAR LMML NIL=
201210250715 METAR LMML 250715Z VRB03KT 9999 FEW018 20/17 Q1012 NOSIG=
201210250700 METAR LMML NIL=
201210250645 METAR LMML 250645Z 04003KT 9999 FEW018 20/17 Q1012 NOSIG=
201210250630 METAR LMML NIL=
201210250615 METAR LMML 250615Z 05006KT 9999 FEW018 18/16 Q1012 NOSIG=
201210250600 METAR LMML NIL=
201210250545 METAR LMML 250545Z 06005KT 9999 FEW018 17/15 Q1012 NOSIG=
201210250530 METAR LMML NIL=
201210250515 METAR LMML 250515Z 07007KT 9999 FEW018 17/15 Q1012 RETS NOSIG=
201210250500 METAR LMML NIL=
201210250445 METAR LMML 250445Z 07008KT 7000 FEW010 17/17 Q1012 RETS TEMPO
                        3000 TSRA BKN015CB=
201210250430 METAR LMML NIL=
201210250415 METAR LMML 250415Z 06008KT 010V090 7000 -TSRA FEW009 SCT040CB
                        17/16 Q1012 TEMPO 3000 TSRA BKN015CB=
201210250400 METAR LMML NIL=
201210250345 METAR LMML 250345Z 01006KT 6000 -RA SCT048 16/16 Q1013 RETS
                        TEMPO 3000 TSRA BKN015CB RMK LIGHTNING
                        TO EASTERN SECTOR=
201210250330 METAR LMML NIL=
201210250315 METAR LMML 250315Z 33007KT 6000 TSRA BKN036CB 16/16 Q1014
                        TEMPO 3000 TSRA BKN015CB=
201210250300 METAR LMML NIL=
201210250245 METAR LMML 250245Z 35006KT 4000 TSRA BKN011CB 16/16 Q1014
                        NOSIG=
201210250230 METAR LMML NIL=
201210250215 METAR LMML 250215Z 33016KT 4000 TSRA BKN011CB 16/15 Q1013
                        REGR NOSIG=
201210250200 METAR LMML NIL=
201210250145 METAR LMML 250145Z 02013G24KT 330V080 2000 R31/0650VP2000D
                        TSGR BKN010CB 16/15 Q1014 NOSIG=
201210250130 METAR LMML NIL=
201210250115 METAR LMML 250115Z 02011KT 260V060 7000 TSRA BKN015CB 19/18
                        Q1012 NOSIG=
201210250100 METAR LMML NIL=
201210250045 METAR LMML 250045Z 10006KT 9000 TS SCT020CB 20/18 Q1013 TEMPO
                        3000 TSRA BKN015CB=
201210250030 METAR LMML NIL=
201210250015 METAR LMML 250015Z 11006KT 9000 TS BKN021CB 20/18 Q1013 TEMPO
                        3000 TSRA BKN015CB=
201210250000 METAR LMML NIL=
201210242345 METAR LMML 242345Z 13008KT 9000 TS BKN020CB 20/18 Q1013 TEMPO
                        3000 TSRA BKN015CB=
201210242330 METAR LMML NIL=
201210242315 METAR LMML 242315Z 13010KT 090V160 9000 -TSRA FEW009 SCT020CB
                        21/17 Q1013 TEMPO 3000 TSRA BKN015CB=
201210242300 METAR LMML NIL=
201210242245 METAR LMML 242245Z 13010KT 9999 TS FEW023CB 20/18 Q1013 TEMPO
                        3000 TSRA BKN015CB=
201210242230 METAR LMML NIL=
201210242215 METAR LMML 242215Z 13007KT 9000 R31/0300VP2000U -TSRA BKN025CB
                        20/17 Q1014 TEMPO 3000 TSRA BKN015CB=
201210242200 METAR LMML NIL=
201210242145 METAR LMML 242145Z 13007KT 9999 TS FEW015CB 21/17 Q1014 TEMPO
                        3000 TSRA BKN015CB=
201210242130 METAR LMML NIL=
201210242115 METAR LMML 242115Z 12006KT 9999 TS FEW015CB 20/17 Q1014 TEMPO
                        3000 TSRA BKN015CB=
201210242100 METAR LMML NIL=
201210242045 METAR LMML 242045Z AUTO 12006KT CAVOK 20/17 Q1014=
201210242030 METAR LMML NIL=
201210242015 METAR LMML 242015Z AUTO 12006KT 9999NDV FEW025/// BKN029///
                        BKN033/// 20/17 Q1014=
201210242000 METAR LMML NIL=
201210241945 METAR LMML 241945Z 12005KT 100V210 9999 SCT023 20/17 Q1014
                        NOSIG=
201210241930 METAR LMML NIL=
201210241915 METAR LMML 241915Z 11005KT 9999 FEW015 20/17 Q1014 NOSIG=
201210241900 METAR LMML NIL=
201210241845 METAR LMML 241845Z 11004KT 9999 FEW015 20/17 Q1014 NOSIG=
201210241830 METAR LMML NIL=
201210241815 METAR LMML 241815Z 10005KT 9999 FEW015 20/17 Q1014 NOSIG=
201210241800 METAR LMML NIL=
201210241745 METAR LMML 241745Z 12003KT 9999 FEW015 20/17 Q1014 NOSIG=
201210241730 METAR LMML NIL=
201210241715 METAR LMML 241715Z 08003KT 9999 FEW015 21/17 Q1014 NOSIG=
201210241700 METAR LMML NIL=
201210241645 METAR LMML 241645Z 09003KT 9999 FEW025 21/17 Q1014 NOSIG=
201210241630 METAR LMML NIL=
201210241615 METAR LMML 241615Z 14005KT 9999 FEW027 21/17 Q1014 NOSIG=
201210241600 METAR LMML NIL=
201210241545 METAR LMML 241545Z 17006KT 9999 FEW025 22/16 Q1014 NOSIG=
201210241530 METAR LMML NIL=
201210241515 METAR LMML 241515Z 16006KT 9999 FEW025 22/16 Q1014 NOSIG=
201210241500 METAR LMML NIL=
201210241445 METAR LMML 241445Z 14006KT 9999 FEW024 22/16 Q1014 NOSIG=
201210241430 METAR LMML NIL=
201210241415 METAR LMML 241415Z 15008KT 9999 FEW028 23/16 Q1014 NOSIG=
201210241400 METAR LMML NIL=
201210241345 METAR LMML 241345Z 14008KT 9999 FEW025 22/17 Q1014 NOSIG=
201210241330 METAR LMML NIL=
201210241315 METAR LMML 241315Z 16008KT 9999 -RA FEW025 21/18 Q1015 NOSIG=
201210241245 METAR LMML 241245Z 15009KT 9000 RA FEW034 21/17 Q1015 TEMPO
                        5000 TSRA BKN015CB=
201210241215 METAR LMML 241215Z 15005KT 120V180 9999 FEW025 22/16 Q1015
                        TEMPO 5000 TSRA BKN015CB=
201210241145 METAR LMML 241145Z 15005KT 100V180 9999 FEW027 22/16 Q1016
                        TEMPO 5000 TSRA BKN015CB=
201210241130 METAR LMML NIL=
201210241115 METAR LMML 241115Z 09004KT 9999 FEW025 23/16 Q1016 TEMPO
                        5000 TSRA BKN015CB=
201210241100 METAR LMML NIL=
201210241045 METAR LMML 241045Z 10005KT 9999 -RA FEW025 23/16 Q1016 TEMPO
                        5000 TSRA BKN015CB=
201210241030 METAR LMML NIL=
201210241015 METAR LMML 241015Z 11006KT 080V140 9999 FEW024 23/16 Q1016
                        TEMPO 5000 TSRA BKN015CB=
201210241000 METAR LMML NIL=
201210240945 METAR LMML 240945Z 12007KT 080V150 9999 FEW028 23/16 Q1016
                        TEMPO 5000 TSRA BKN015CB=
201210240930 METAR LMML NIL=
201210240915 METAR LMML 240915Z 14008KT 9999 FEW027 23/16 Q1016 TEMPO
                        5000 TSRA BKN015CB=
201210240900 METAR LMML NIL=
201210240845 METAR LMML 240845Z 14009KT 100V180 9999 FEW026 24/16 Q1016
                        TEMPO 5000 TSRA BKN015CB=
201210240830 METAR LMML NIL=
201210240815 METAR LMML 240815Z 14011KT 9999 FEW023 SCT029 23/17 Q1016
                        TEMPO 5000 TSRA BKN015CB=
201210240800 METAR LMML NIL=
201210240745 METAR LMML 240745Z 12010KT 9999 FEW024 23/16 Q1016 TEMPO
                        5000 TSRA BKN015CB=
201210240730 METAR LMML NIL=
201210240715 METAR LMML 240715Z 13007KT 9999 FEW021 22/16 Q1016 TEMPO
                        5000 TSRA BKN015CB=
201210240700 METAR LMML NIL=
201210240645 METAR LMML 240645Z 14007KT 9999 FEW021 21/16 Q1015 TEMPO
                        5000 TSRA BKN015CB=
201210240630 METAR LMML NIL=
201210240615 METAR LMML 240615Z 12006KT 9999 FEW021 21/17 Q1015 TEMPO
                        5000 TSRA BKN015CB RMK CB TO WEST=
201210240600 METAR LMML NIL=
201210240545 METAR LMML 240545Z 12007KT 9999 FEW020 21/17 Q1015 TEMPO
                        5000 TSRA BKN015CB RMK CB'S TO W
                        AND SW=
201210240530 METAR LMML NIL=
201210240515 METAR LMML 240515Z 12005KT 9999 FEW021 20/17 Q1015 TEMPO
                        5000 TSRA BKN015CB RMK CB TO SOUTH=
201210240500 METAR LMML NIL=
201210240445 METAR LMML 240445Z 12005KT 9999 FEW021 19/17 Q1015 TEMPO
                        5000 TSRA BKN015CB=
201210240430 METAR LMML NIL=
201210240415 METAR LMML 240415Z 11006KT 9999 FEW020 20/17 Q1015 TEMPO
                        5000 TSRA BKN015CB=
201210240400 METAR LMML NIL=
201210240345 METAR LMML 240345Z 12004KT 9999 FEW025 20/17 Q1015 TEMPO
                        5000 TSRA BKN015CB RMK DISTANT LIGHTNING
                        TO THE SOUTH=
201210240330 METAR LMML NIL=
201210240315 METAR LMML 240315Z 10005KT 9999 FEW025 20/17 Q1015 NOSIG=
201210240300 METAR LMML NIL=
201210240245 METAR LMML 240245Z AUTO 11005KT CAVOK 20/17 Q1015=
201210240230 METAR LMML NIL=
201210240215 METAR LMML 240215Z AUTO 12003KT CAVOK 20/17 Q1015=
201210240200 METAR LMML NIL=
201210240145 METAR LMML 240145Z AUTO 11005KT CAVOK 20/17 Q1015=
201210240130 METAR LMML NIL=
201210240115 METAR LMML 240115Z AUTO 10003KT CAVOK 20/17 Q1016=
201210240100 METAR LMML NIL=
201210240045 METAR LMML 240045Z AUTO 10004KT CAVOK 20/18 Q1016=
201210240030 METAR LMML NIL=
201210240015 METAR LMML 240015Z AUTO 09004KT CAVOK 20/18 Q1016=
201210240000 METAR LMML NIL=
201210232345 METAR LMML 232345Z AUTO 09005KT CAVOK 21/18 Q1016=
201210232330 METAR LMML NIL=
201210232315 METAR LMML 232315Z AUTO 09004KT CAVOK 20/18 Q1016=
201210232300 METAR LMML NIL=
201210232245 METAR LMML 232245Z AUTO 09003KT 9000NDV BKN120/// 20/18 Q1016=
201210232230 METAR LMML NIL=
201210232215 METAR LMML 232215Z AUTO 08004KT 9000NDV FEW140/// 20/18 Q1017=
201210232200 METAR LMML NIL=
201210232145 METAR LMML 232145Z AUTO 10003KT 8000NDV NCD 20/18 Q1017=
201210232130 METAR LMML NIL=
201210232115 METAR LMML 232115Z AUTO 10004KT 9000NDV FEW016/// 21/18 Q1017=
201210232100 METAR LMML NIL=
201210232045 METAR LMML 232045Z AUTO 09004KT CAVOK 21/18 Q1017=
201210232030 METAR LMML NIL=
201210232015 METAR LMML 232015Z AUTO 06004KT CAVOK 21/19 Q1017=
201210232000 METAR LMML NIL=
201210231945 METAR LMML 231945Z VRB02KT 9999 FEW025 20/18 Q1017 NOSIG=
201210231930 METAR LMML NIL=
201210231915 METAR LMML 231915Z 14003KT 9999 FEW030 21/18 Q1016 NOSIG=
201210231900 METAR LMML NIL=
201210231845 METAR LMML 231845Z 18005KT 150V210 9999 FEW030 21/19 Q1016
                        NOSIG=
201210231830 METAR LMML NIL=
201210231815 METAR LMML 231815Z 13005KT 9999 FEW030 21/18 Q1016 NOSIG=
201210231800 METAR LMML NIL=
201210231745 METAR LMML 231745Z 10004KT 9999 FEW030 21/18 Q1017 NOSIG=
201210231730 METAR LMML NIL=
201210231715 METAR LMML 231715Z 13004KT 9999 FEW030 21/18 Q1016 NOSIG=
201210231700 METAR LMML NIL=
201210231645 METAR LMML 231645Z 11004KT 9999 FEW030 21/18 Q1016 NOSIG=
201210231630 METAR LMML NIL=
201210231615 METAR LMML 231615Z 16004KT 130V190 9999 SCT030 22/18 Q1016
                        NOSIG=
201210231600 METAR LMML NIL=
201210231545 METAR LMML 231545Z 17005KT 140V200 9999 SCT022 23/19 Q1016
                        NOSIG=
201210231530 METAR LMML NIL=
201210231515 METAR LMML 231515Z 14006KT 9999 SCT017 23/19 Q1016 NOSIG=
201210231500 METAR LMML NIL=
201210231445 METAR LMML 231445Z 19004KT 130V220 9999 BKN017 23/18 Q1016
                        TEMPO 8000 SHRA BKN015=
201210231430 METAR LMML NIL=
201210231415 METAR LMML 231415Z 16005KT 9999 BKN017 24/19 Q1016 TEMPO
                        8000 SHRA BKN015=
201210231400 METAR LMML NIL=
201210231345 METAR LMML 231345Z 18004KT 130V210 9999 BKN026 24/19 Q1016
                        RETS TEMPO 3000 TSRA BKN015CB=
201210231330 METAR LMML NIL=
201210231315 METAR LMML 231315Z 19004KT 170V230 9999 SCT018CB SCT020
                        23/19 Q1016 TEMPO 3000 TSRA BKN015CB=
201210231300 METAR LMML NIL=
201210231245 METAR LMML 231245Z VRB02KT 9999 SCT019 23/19 Q1016 TEMPO
                        3000 TSRA BKN015CB=
201210231230 METAR LMML NIL=
201210231215 METAR LMML 231215Z 17003KT 140V200 9999 SCT025 24/18 Q1016
                        RETS TEMPO 3000 TSRA BKN015CB=
201210231200 METAR LMML NIL=
201210231145 METAR LMML 231145Z 11005KT 9999 -TSRA SCT018CB SCT024 23/19
                        Q1017 TEMPO 3000 TSRA BKN015CB=
201210231130 METAR LMML NIL=
201210231115 METAR LMML 231115Z 12007KT 100V160 9999 -RA SCT019 23/19
                        Q1017 TEMPO BKN015=
201210231100 METAR LMML NIL=
201210231045 METAR LMML 231045Z 17004KT 130V210 9999 SCT017 23/19 Q1017
                        TEMPO BKN015=
201210231030 METAR LMML NIL=
201210231015 METAR LMML 231015Z 18005KT 150V220 9999 SCT018 24/19 Q1017
                        TEMPO BKN015=
201210231000 METAR LMML NIL=
201210230945 METAR LMML 230945Z 05005KT 030V100 9999 SCT019 25/19 Q1017
                        TEMPO BKN015=
201210230930 METAR LMML NIL=
201210230915 METAR LMML 230915Z 09004KT 060V120 9999 SCT017 24/20 Q1017
                        NOSIG=
201210230900 METAR LMML NIL=
201210230845 METAR LMML 230845Z VRB02KT 9999 SCT020 24/19 Q1017 NOSIG=
201210230830 METAR LMML NIL=
201210230815 METAR LMML 230815Z VRB01KT 9999 SCT020TCU 24/19 Q1017 NOSIG=
201210230800 METAR LMML NIL=
201210230745 METAR LMML 230745Z VRB01KT 9999 SCT020TCU 23/20 Q1017 NOSIG=
201210230730 METAR LMML NIL=
201210230715 METAR LMML 230715Z 27003KT 9999 4000N HZ SCT020TCU 21/20
                        Q1017 NOSIG RMK SMOKE TO N=
201210230700 METAR LMML NIL=
201210230645 METAR LMML 230645Z 28004KT 9999 FEW020TCU 20/19 Q1017 NOSIG
                        RMK SMOKE TO N=
201210230630 METAR LMML NIL=
201210230615 METAR LMML 230615Z 30003KT 9999 FEW020TCU 20/19 Q1016 NOSIG=
201210230600 METAR LMML NIL=
201210230545 METAR LMML 230545Z VRB01KT 8000 FEW020 20/19 Q1016 BECMG
                        9999=
201210230530 METAR LMML NIL=
201210230515 METAR LMML 230515Z 30003KT 8000 FEW020 19/18 Q1016 NOSIG=
201210230500 METAR LMML NIL=
201210230445 METAR LMML 230445Z 32004KT 9999 FEW020 19/18 Q1016 NOSIG=
201210230430 METAR LMML NIL=
201210230415 METAR LMML 230415Z 32003KT 9999 FEW020 19/18 Q1016 NOSIG=
201210230400 METAR LMML NIL=
201210230345 METAR LMML 230345Z 29003KT 9999 FEW020 20/18 Q1016 RETS NOSIG=
201210230330 METAR LMML NIL=
201210230315 METAR LMML 230315Z 29003KT 9999 FEW015 20/18 Q1016 RETS NOSIG=
201210230300 METAR LMML NIL=
201210230245 METAR LMML 230245Z VRB01KT 9999 TS FEW014CB SCT017 20/18
                        Q1016 NOSIG=
201210230230 METAR LMML NIL=
201210230215 METAR LMML 230215Z 26004KT 9999 TS FEW020CB 20/18 Q1016 NOSIG=
201210230200 METAR LMML NIL=
201210230145 METAR LMML 230145Z 31005KT 9999 FEW020 20/18 Q1016 NOSIG
                        RMK LIGHTNING TO SE=
201210230130 METAR LMML NIL=
201210230115 METAR LMML 230115Z 32004KT 9999 FEW020 20/18 Q1016 NOSIG
                        RMK LIGHTNING TO SSE=
201210230100 METAR LMML NIL=
201210230045 METAR LMML 230045Z 32002KT 9999 FEW020 20/18 Q1017 NOSIG
                        RMK LIGHTNING TO SE=
201210230030 METAR LMML NIL=
201210230015 METAR LMML 230015Z 30003KT 9999 FEW020 20/18 Q1017 NOSIG
                        RMK LIGHTNING TO SE=
201210230000 METAR LMML NIL=
201210222345 METAR LMML 222345Z AUTO 31004KT CAVOK 20/17 Q1017=
201210222330 METAR LMML NIL=
201210222315 METAR LMML 222315Z AUTO 27003KT CAVOK 20/17 Q1017=
201210222300 METAR LMML NIL=
201210222245 METAR LMML 222245Z AUTO VRB02KT CAVOK 20/17 Q1017=
201210222215 METAR LMML 222215Z AUTO 28003KT CAVOK 20/17 Q1017=
201210222200 METAR LMML NIL=
201210222145 METAR LMML 222145Z AUTO 30003KT 9000NDV FEW130/// 20/17 Q1017=
201210222115 METAR LMML 222115Z AUTO 32003KT CAVOK 20/17 Q1017=
201210222100 METAR LMML NIL=
201210222045 METAR LMML 222045Z AUTO 33003KT CAVOK 20/17 Q1017=
201210222030 METAR LMML NIL=
201210222015 METAR LMML 222015Z AUTO 33002KT CAVOK 21/17 Q1017=
201210221945 METAR LMML 221945Z 30003KT 9999 FEW020 21/17 Q1017 NOSIG=
201210221930 METAR LMML NIL=
201210221915 METAR LMML 221915Z 30003KT 9999 FEW020 21/17 Q1017 NOSIG=
201210221900 METAR LMML NIL=
201210221845 METAR LMML 221845Z 29003KT 9999 FEW020 21/17 Q1017 NOSIG=
201210221830 METAR LMML NIL=
201210221815 METAR LMML 221815Z 29004KT 9999 FEW020 21/17 Q1017 NOSIG=
201210221800 METAR LMML NIL=
201210221745 METAR LMML 221745Z 30004KT 9999 FEW020 21/17 Q1017 NOSIG=
201210221730 METAR LMML NIL=
201210221715 METAR LMML 221715Z 31004KT 9999 FEW020 22/17 Q1017=
201210221700 METAR LMML NIL=
201210221645 METAR LMML 221645Z 28003KT 240V310 9999 FEW020 22/18 Q1017=
201210221630 METAR LMML NIL=
201210221615 METAR LMML 221615Z 28004KT 230V300 9999 FEW020 23/18 Q1017=
201210221600 METAR LMML NIL=
201210221545 METAR LMML 221545Z 26003KT 230V310 9999 FEW020 23/18 Q1017=
201210221530 METAR LMML NIL=
201210221515 METAR LMML 221515Z 26005KT 9999 FEW020 23/18 Q1017=
201210221500 METAR LMML NIL=
201210221445 METAR LMML 221445Z 21005KT 170V250 9999 FEW020 23/18 Q1016=
201210221415 METAR LMML 221415Z 22005KT 180V290 9999 FEW021 23/18 Q1016=
201210221400 METAR LMML NIL=
201210221345 METAR LMML 221345Z 18005KT 150V230 9999 FEW020 23/17 Q1016=
201210221330 METAR LMML NIL=
201210221315 METAR LMML 221315Z 15014KT 9999 FEW020 23/18 Q1015=
201210221300 METAR LMML NIL=
201210221245 METAR LMML 221245Z AUTO 19006KT 160V230 CAVOK 23/17 Q1016=
201210221230 METAR LMML NIL=
201210221215 METAR LMML 221215Z 19005KT 160V260 9999 FEW020 24/17 Q1016
                        NOSIG=
201210221200 METAR LMML NIL=
201210221145 METAR LMML 221145Z 20006KT 160V230 9999 FEW020 23/16 Q1017
                        NOSIG=
201210221130 METAR LMML NIL=
201210221115 METAR LMML 221115Z 18007KT 150V210 CAVOK 24/15 Q1017 NOSIG=
201210221100 METAR LMML NIL=
201210221045 METAR LMML 221045Z 18006KT 130V230 CAVOK 24/15 Q1017 NOSIG=
201210221030 METAR LMML NIL=
201210221015 METAR LMML 221015Z 20006KT 160V240 CAVOK 25/16 Q1018 NOSIG=
201210221000 METAR LMML NIL=
201210220945 METAR LMML 220945Z 18005KT 130V230 CAVOK 25/17 Q1018 NOSIG=
201210220930 METAR LMML NIL=
201210220915 METAR LMML 220915Z 14006KT 090V160 CAVOK 24/17 Q1018 NOSIG=
201210220900 METAR LMML NIL=
201210220845 METAR LMML 220845Z VRB02KT CAVOK 25/14 Q1018 NOSIG=
201210220830 METAR LMML NIL=
201210220815 METAR LMML 220815Z VRB01KT CAVOK 24/16 Q1018 NOSIG=
201210220800 METAR LMML NIL=
201210220745 METAR LMML 220745Z VRB02KT CAVOK 23/17 Q1018 NOSIG=
201210220730 METAR LMML NIL=
201210220715 METAR LMML 220715Z VRB01KT 9999 FEW020 23/17 Q1018 NOSIG=
201210220700 METAR LMML NIL=
201210220645 METAR LMML 220645Z 00000KT 9999 FEW020 21/18 Q1018 NOSIG=
201210220630 METAR LMML NIL=
201210220615 METAR LMML 220615Z VRB01KT 9999 FEW015 19/17 Q1018 NOSIG=
201210220600 METAR LMML NIL=
201210220545 METAR LMML 220545Z VRB01KT 9000 FEW015 18/17 Q1018 NOSIG=
201210220530 METAR LMML NIL=
201210220515 METAR LMML 220515Z 32004KT 9000 NSC 18/17 Q1018 NOSIG=
201210220500 METAR LMML NIL=
201210220445 METAR LMML 220445Z 29004KT 9000 NSC 18/16 Q1018 NOSIG=
201210220430 METAR LMML NIL=
201210220415 METAR LMML 220415Z 31004KT CAVOK 18/16 Q1018 NOSIG=
201210220400 METAR LMML NIL=
201210220345 METAR LMML 220345Z 33003KT CAVOK 17/16 Q1018 NOSIG=
201210220330 METAR LMML NIL=
201210220315 METAR LMML 220315Z 33002KT CAVOK 17/16 Q1017 NOSIG=
201210220300 METAR LMML NIL=
201210220245 METAR LMML 220245Z AUTO 09003KT 8000NDV NCD 17/16 Q1017=
201210220230 METAR LMML NIL=
201210220215 METAR LMML 220215Z AUTO VRB01KT CAVOK 18/16 Q1017=
201210220200 METAR LMML NIL=
201210220145 METAR LMML 220145Z AUTO 31003KT CAVOK 18/16 Q1017=
201210220130 METAR LMML NIL=
201210220115 METAR LMML 220115Z AUTO 30002KT CAVOK 18/16 Q1017=
201210220100 METAR LMML NIL=
201210220045 METAR LMML 220045Z AUTO VRB01KT CAVOK 18/16 Q1017=
201210220030 METAR LMML NIL=
201210220015 METAR LMML 220015Z AUTO VRB01KT CAVOK 18/16 Q1017=
201210220000 METAR LMML NIL=
201210212345 METAR LMML 212345Z AUTO 12001KT CAVOK 18/17 Q1017=
201210212330 METAR LMML NIL=
201210212315 METAR LMML 212315Z AUTO 14002KT CAVOK 19/17 Q1017=
201210212300 METAR LMML NIL=
201210212245 METAR LMML 212245Z AUTO 13005KT CAVOK 18/17 Q1017=
201210212230 METAR LMML NIL=
201210212215 METAR LMML 212215Z AUTO 13004KT CAVOK 19/17 Q1017=
201210212200 METAR LMML NIL=
201210212145 METAR LMML 212145Z AUTO VRB02KT CAVOK 19/17 Q1017=
201210212130 METAR LMML NIL=
201210212115 METAR LMML 212115Z AUTO 13003KT CAVOK 20/17 Q1018=
201210212100 METAR LMML NIL=
201210212045 METAR LMML 212045Z AUTO VRB02KT CAVOK 19/17 Q1018=
201210212030 METAR LMML NIL=
201210212015 METAR LMML 212015Z AUTO 00000KT CAVOK 19/17 Q1018=
201210212000 METAR LMML NIL=
201210211945 METAR LMML 211945Z VRB01KT CAVOK 20/17 Q1018 NOSIG=
201210211930 METAR LMML NIL=
201210211915 METAR LMML 211915Z VRB02KT CAVOK 20/17 Q1018 NOSIG=
201210211900 METAR LMML NIL=
201210211845 METAR LMML 211845Z AUTO 10003KT 070V130 CAVOK 20/17 Q1018
                        NOSIG=
201210211830 METAR LMML NIL=
201210211815 METAR LMML 211815Z 09003KT CAVOK 21/17 Q1017 NOSIG=
201210211800 METAR LMML NIL=
201210211745 METAR LMML 211745Z VRB02KT CAVOK 21/17 Q1017 NOSIG=
201210211730 METAR LMML NIL=
201210211715 METAR LMML 211715Z 12004KT CAVOK 21/17 Q1017 NOSIG=
201210211700 METAR LMML NIL=
201210211645 METAR LMML 211645Z 12004KT CAVOK 21/17 Q1017 NOSIG=
201210211630 METAR LMML NIL=
201210211615 METAR LMML 211615Z 14005KT CAVOK 21/17 Q1017 NOSIG=
201210211600 METAR LMML NIL=
201210211545 METAR LMML 211545Z 14006KT CAVOK 23/17 Q1017 NOSIG=
201210211530 METAR LMML NIL=
201210211515 METAR LMML 211515Z 15006KT 9999 FEW024 23/17 Q1017 NOSIG=
201210211500 METAR LMML NIL=
201210211445 METAR LMML 211445Z 15006KT 9999 FEW024 24/17 Q1017 NOSIG=
201210211430 METAR LMML NIL=
201210211415 METAR LMML 211415Z 14005KT 100V170 9999 FEW024 24/17 Q1017
                        NOSIG=
201210211400 METAR LMML NIL=
201210211345 METAR LMML 211345Z 12006KT 090V150 9999 FEW024 24/17 Q1017
                        NOSIG=
201210211330 METAR LMML NIL=
201210211315 METAR LMML 211315Z 13007KT 100V190 9999 FEW025 24/17 Q1017
                        NOSIG=
201210211300 METAR LMML NIL=
201210211245 METAR LMML 211245Z AUTO 13008KT 100V170 CAVOK 24/17 Q1017=
201210211230 METAR LMML NIL=
201210211215 METAR LMML 211215Z 13009KT 100V160 9999 FEW025 24/17 Q1017
                        NOSIG=
201210211200 METAR LMML NIL=
201210211145 METAR LMML 211145Z 13009KT 100V160 9999 FEW025 24/17 Q1017
                        NOSIG=
201210211130 METAR LMML NIL=
201210211115 METAR LMML 211115Z 14010KT 9999 FEW025 24/17 Q1018 NOSIG=
201210211100 METAR LMML NIL=
201210211045 METAR LMML 211045Z 14010KT 110V170 9999 FEW025 24/17 Q1018
                        NOSIG=
201210211030 METAR LMML NIL=
201210211015 METAR LMML 211015Z 13009KT 100V170 9999 FEW020 24/17 Q1018
                        NOSIG=
201210211000 METAR LMML NIL=
201210210945 METAR LMML 210945Z 13010KT 090V150 CAVOK 24/17 Q1018 NOSIG=
201210210930 METAR LMML NIL=
201210210915 METAR LMML 210915Z 11009KT CAVOK 24/17 Q1018 NOSIG=
201210210900 METAR LMML NIL=
201210210845 METAR LMML 210845Z 12009KT 080V140 CAVOK 24/17 Q1018 NOSIG=
201210210830 METAR LMML NIL=
201210210815 METAR LMML 210815Z 12009KT 090V150 9999 FEW015 23/18 Q1018
                        NOSIG=
201210210800 METAR LMML NIL=
201210210745 METAR LMML 210745Z 12009KT 9999 FEW015 23/18 Q1018 NOSIG=
201210210730 METAR LMML NIL=
201210210715 METAR LMML 210715Z 11008KT 9999 FEW015 22/18 Q1018 NOSIG=
201210210700 METAR LMML NIL=
201210210645 METAR LMML 210645Z 10005KT 9999 FEW015 22/18 Q1018 NOSIG=
201210210630 METAR LMML NIL=
201210210615 METAR LMML 210615Z 11006KT 9999 FEW015 21/18 Q1017 NOSIG=
201210210600 METAR LMML NIL=
201210210545 METAR LMML 210545Z 11006KT 9999 FEW015 20/18 Q1017 NOSIG=
201210210530 METAR LMML NIL=
201210210515 METAR LMML 210515Z 12005KT 9999 FEW013 19/18 Q1017 NOSIG=
201210210500 METAR LMML NIL=
201210210445 METAR LMML 210445Z 11007KT 9999 FEW013 19/18 Q1017 NOSIG=
201210210430 METAR LMML NIL=
201210210415 METAR LMML 210415Z 10003KT 9999 FEW013 19/18 Q1017 NOSIG=
201210210400 METAR LMML NIL=
201210210345 METAR LMML 210345Z 10004KT 9999 FEW013 20/18 Q1017 NOSIG=
201210210330 METAR LMML NIL=
201210210315 METAR LMML 210315Z 11005KT 9999 FEW013 20/18 Q1017 NOSIG=
201210210300 METAR LMML NIL=
201210210245 METAR LMML 210245Z AUTO 11005KT CAVOK 20/18 Q1017=
201210210230 METAR LMML NIL=
201210210215 METAR LMML 210215Z AUTO 12007KT CAVOK 20/18 Q1017=
201210210200 METAR LMML NIL=
201210210145 METAR LMML 210145Z AUTO 11006KT CAVOK 20/18 Q1017=
201210210130 METAR LMML NIL=
201210210115 METAR LMML 210115Z AUTO 10006KT CAVOK 20/19 Q1017=
201210210100 METAR LMML NIL=
201210210045 METAR LMML 210045Z AUTO 09006KT 9999NDV FEW000/// 21/19 Q1017=
201210210030 METAR LMML NIL=
201210210015 METAR LMML 210015Z AUTO 09007KT CAVOK 21/19 Q1018=
201210210000 METAR LMML NIL=
201210202345 METAR LMML 202345Z AUTO 10006KT CAVOK 21/19 Q1018=
201210202330 METAR LMML NIL=
201210202315 METAR LMML 202315Z AUTO 09006KT 9999NDV FEW012/// 20/19 Q1018=
201210202300 METAR LMML NIL=
201210202245 METAR LMML 202245Z AUTO 09005KT 9999NDV SCT012/// 21/19 Q1018=
201210202230 METAR LMML NIL=
201210202215 METAR LMML 202215Z AUTO 09005KT 9999NDV FEW012/// 21/19 Q1018=
201210202200 METAR LMML NIL=
201210202145 METAR LMML 202145Z AUTO 10005KT 9999NDV SCT012/// 21/19 Q1018=
201210202130 METAR LMML NIL=
201210202115 METAR LMML 202115Z AUTO 09005KT CAVOK 21/19 Q1019=
201210202100 METAR LMML NIL=
201210202045 METAR LMML 202045Z AUTO 10004KT 9999NDV FEW011/// 21/19 Q1019=
201210202030 METAR LMML NIL=
201210202015 METAR LMML 202015Z AUTO 10004KT CAVOK 21/19 Q1019=
201210202000 METAR LMML NIL=
201210201945 METAR LMML 201945Z 11005KT 9999 FEW012 21/19 Q1019 NOSIG=
201210201930 METAR LMML NIL=
201210201915 METAR LMML 201915Z 11006KT 9999 FEW012 21/19 Q1019 NOSIG=
201210201900 METAR LMML NIL=
201210201845 METAR LMML 201845Z 11005KT 9999 FEW012 21/19 Q1019 NOSIG=
201210201830 METAR LMML NIL=
201210201815 METAR LMML 201815Z 11006KT 9999 FEW012 22/19 Q1019 NOSIG=
201210201800 METAR LMML NIL=
201210201745 METAR LMML 201745Z 11005KT 090V150 9999 FEW013 22/19 Q1019
                        NOSIG=
201210201730 METAR LMML NIL=
201210201715 METAR LMML 201715Z 11007KT 9999 FEW013 22/19 Q1018 NOSIG=
201210201700 METAR LMML NIL=
201210201645 METAR LMML 201645Z 12007KT 9999 FEW013 22/19 Q1018 BECMG
                        BKN012=
201210201630 METAR LMML NIL=
201210201615 METAR LMML 201615Z 12010KT 9999 FEW014 23/19 Q1018 BECMG
                        BKN012=
201210201600 METAR LMML NIL=
201210201545 METAR LMML 201545Z 12010KT 9999 SCT014 23/20 Q1018 BECMG
                        BKN012=
201210201530 METAR LMML NIL=
201210201515 METAR LMML 201515Z 11010KT 9999 SCT014 23/20 Q1018 BECMG
                        BKN012=
201210201500 METAR LMML NIL=
201210201445 METAR LMML 201445Z 12010KT 9999 SCT014 24/20 Q1018 NOSIG=
201210201430 METAR LMML NIL=
201210201415 METAR LMML 201415Z 12011KT 9999 SCT015 24/19 Q1018 NOSIG=
201210201400 METAR LMML NIL=
201210201345 METAR LMML 201345Z AUTO 12013KT 9999NDV SCT014/// BKN016///
                        25/19 Q1018 NOSIG=
201210201330 METAR LMML NIL=
201210201315 METAR LMML 201315Z 12012KT 9999 FEW016 25/20 Q1018 NOSIG=
201210201300 METAR LMML NIL=
201210201245 METAR LMML 201245Z 09011KT 9999 FEW018 25/19 Q1019 NOSIG=
201210201215 METAR LMML 201215Z AUTO 10011KT 070V130 9999NDV VV019 25/19
                        Q1019 NOSIG=
201210201200 METAR LMML NIL=
201210201145 METAR LMML 201145Z 10014KT 9999 FEW017 25/19 Q1019 NOSIG=
201210201130 METAR LMML NIL=
201210201115 METAR LMML 201115Z 09014KT 9999 FEW017 25/19 Q1019 NOSIG=
201210201100 METAR LMML NIL=
201210201045 METAR LMML 201045Z 10012KT 9999 FEW016 25/19 Q1020 NOSIG=
201210201030 METAR LMML NIL=
201210201015 METAR LMML 201015Z 11013KT 9999 FEW016 25/19 Q1020 NOSIG=
201210200945 METAR LMML 200945Z 10013KT 9999 SCT016 24/19 Q1020 NOSIG=
201210200930 METAR LMML NIL=
201210200915 METAR LMML 200915Z 10013KT 9999 SCT015 24/19 Q1020 NOSIG=
201210200900 METAR LMML NIL=
201210200845 METAR LMML 200845Z 10011KT 9999 BKN014 24/20 Q1020 NOSIG=
201210200815 METAR LMML 200815Z 09010KT 9999 BKN014 24/20 Q1020 NOSIG=
201210200745 METAR LMML 200745Z 11012KT 9999 BKN013 23/20 Q1020 NOSIG=
201210200730 METAR LMML NIL=
201210200715 METAR LMML 200715Z 10011KT 9999 BKN013 23/20 Q1020 NOSIG=
201210200700 METAR LMML NIL=
201210200645 METAR LMML 200645Z 10008KT 9999 BKN012 23/20 Q1020 NOSIG=
201210200630 METAR LMML NIL=
201210200615 METAR LMML 200615Z 09009KT 9999 BKN013 22/20 Q1020 NOSIG=
201210200600 METAR LMML NIL=
201210200545 METAR LMML 200545Z 09008KT 9999 BKN012 22/20 Q1019 NOSIG=
201210200530 METAR LMML NIL=
201210200515 METAR LMML 200515Z 10009KT 9999 BKN012 22/20 Q1019 NOSIG=
201210200500 METAR LMML NIL=
201210200445 METAR LMML 200445Z 10009KT 9999 BKN011 22/20 Q1019 NOSIG=
201210200415 METAR LMML 200415Z 10008KT 9999 BKN011 22/20 Q1019 NOSIG=
201210200400 METAR LMML NIL=
201210200345 METAR LMML 200345Z 10009KT 9999 BKN011 22/20 Q1019=
201210200330 METAR LMML NIL=
201210200315 METAR LMML 200315Z 10009KT 9999 BKN011 22/20 Q1019=
201210200300 METAR LMML NIL=
201210200245 METAR LMML 200245Z AUTO 10007KT 9999NDV FEW010/// BKN012///
                        22/20 Q1019=
201210200230 METAR LMML NIL=
201210200215 METAR LMML 200215Z AUTO 10008KT 9999NDV FEW010/// BKN012///
                        22/20 Q1019=
201210200200 METAR LMML NIL=
201210200145 METAR LMML 200145Z AUTO 11009KT 9999NDV BKN010/// BKN012///
                        22/20 Q1019=
201210200130 METAR LMML NIL=
201210200115 METAR LMML 200115Z AUTO 10009KT 9999NDV BKN011/// BKN013///
                        22/20 Q1019=
201210200100 METAR LMML NIL=
201210200045 METAR LMML 200045Z AUTO 11010KT 9999NDV BKN011/// BKN013///
                        22/20 Q1019=
201210200030 METAR LMML NIL=
201210200015 METAR LMML 200015Z AUTO 10011KT 9999NDV BKN011/// BKN013///
                        23/20 Q1019=
201210200000 METAR LMML NIL=
201210192345 METAR LMML 192345Z AUTO 11011KT 9999NDV SCT011/// BKN014///
                        23/20 Q1019=
201210192330 METAR LMML NIL=
201210192315 METAR LMML 192315Z AUTO 11011KT 9999NDV SCT011/// BKN014///
                        23/20 Q1019=
201210192300 METAR LMML NIL=
201210192245 METAR LMML 192245Z AUTO 11011KT 9999NDV SCT011/// BKN013///
                        BKN016/// 23/21 Q1019=
201210192230 METAR LMML NIL=
201210192215 METAR LMML 192215Z AUTO 10010KT 9999NDV BKN010/// BKN013///
                        23/21 Q1019=
201210192200 METAR LMML NIL=
201210192145 METAR LMML 192145Z AUTO 11012KT 9999NDV SCT010/// BKN013///
                        23/21 Q1019=
201210192130 METAR LMML NIL=
201210192115 METAR LMML 192115Z AUTO 10009KT 9999NDV SCT010/// BKN013///
                        BKN016/// 23/21 Q1019=
201210192100 METAR LMML NIL=
201210192045 METAR LMML 192045Z AUTO 11010KT 9999NDV SCT011/// SCT016///
                        23/21 Q1020=
201210192030 METAR LMML NIL=
201210192015 METAR LMML 192015Z 10010KT 9999 BKN011 23/21 Q1020 NOSIG=
201210192000 METAR LMML NIL=
201210191945 METAR LMML 191945Z 11010KT 9999 BKN011 23/21 Q1020 NOSIG=
201210191930 METAR LMML NIL=
201210191915 METAR LMML 191915Z 11010KT 9999 BKN011 23/21 Q1019 NOSIG=
201210191900 METAR LMML NIL=
201210191845 METAR LMML 191845Z 10010KT 9999 BKN011 23/21 Q1019 NOSIG=
201210191830 METAR LMML NIL=
201210191815 METAR LMML 191815Z 11011KT 080V140 9999 BKN011 23/21 Q1019
                        NOSIG=
201210191800 METAR LMML NIL=
201210191745 METAR LMML 191745Z 11011KT 9999 SCT010 SCT013 23/21 Q1019
                        NOSIG=
201210191730 METAR LMML NIL=
201210191715 METAR LMML 191715Z 10010KT 9999 BKN010 23/21 Q1019 NOSIG=
201210191700 METAR LMML NIL=
201210191645 METAR LMML 191645Z 10012KT 9999 BKN010 23/21 Q1019 NOSIG=
201210191630 METAR LMML NIL=
201210191615 METAR LMML 191615Z 10011KT 9999 BKN010 24/21 Q1019 NOSIG=
201210191600 METAR LMML NIL=
201210191545 METAR LMML 191545Z 11011KT 9999 BKN010 24/21 Q1019 NOSIG=
201210191530 METAR LMML NIL=
201210191515 METAR LMML 191515Z 11011KT 9999 BKN010 24/21 Q1019 NOSIG=
201210191500 METAR LMML NIL=
201210191445 METAR LMML 191445Z 11013KT 9999 BKN011 24/21 Q1019 TEMPO
                        BKN010=
201210191430 METAR LMML NIL=
201210191415 METAR LMML 191415Z 11014KT 9999 BKN011 25/21 Q1019 TEMPO
                        BKN010=
201210191400 METAR LMML NIL=
201210191345 METAR LMML 191345Z 11015KT 9999 BKN012 25/21 Q1019 TEMPO
                        BKN010=
201210191330 METAR LMML NIL=
201210191315 METAR LMML 191315Z 11015KT 9999 BKN011 25/21 Q1019 TEMPO
                        BKN010=
201210191300 METAR LMML NIL=
201210191245 METAR LMML 191245Z 11015KT 9999 BKN012 26/21 Q1019 NOSIG=
201210191230 METAR LMML NIL=
201210191215 METAR LMML 191215Z 11017KT 9999 BKN012 26/21 Q1019 NOSIG=
201210191200 METAR LMML NIL=
201210191145 METAR LMML 191145Z 10015KT 9999 BKN012 25/21 Q1019 NOSIG=
201210191130 METAR LMML NIL=
201210191115 METAR LMML 191115Z AUTO 11015KT 9999NDV BKN012/// OVC014///
                        26/21 Q1020=
201210191100 METAR LMML NIL=
201210191045 METAR LMML 191045Z AUTO 10016KT 9999NDV SCT013/// SCT016///
                        25/21 Q1020=
201210191030 METAR LMML NIL=
201210191015 METAR LMML 191015Z 10014KT 9999 BKN013 26/21 Q1020 NOSIG=
201210191000 METAR LMML NIL=
201210190945 METAR LMML 190945Z 11016KT 9999 SCT013 26/21 Q1020 NOSIG=
201210190930 METAR LMML NIL=
201210190915 METAR LMML 190915Z 10016KT 9999 SCT012 25/21 Q1020 NOSIG=
201210190900 METAR LMML NIL=
201210190845 METAR LMML 190845Z 11015KT 9999 SCT012 25/21 Q1020 NOSIG=
201210190830 METAR LMML NIL=
201210190815 METAR LMML 190815Z 10015KT 9999 SCT011 25/21 Q1020 NOSIG=
201210190800 METAR LMML NIL=
201210190745 METAR LMML 190745Z 10014KT 9999 SCT011 24/21 Q1020 TEMPO
                        BKN010=
201210190730 METAR LMML NIL=
201210190715 METAR LMML 190715Z 10013KT 9999 SCT009 24/22 Q1020 TEMPO
                        BKN009=
201210190700 METAR LMML NIL=
201210190645 METAR LMML 190645Z 11011KT 9999 SCT010 24/21 Q1020 TEMPO
                        BKN010=
201210190630 METAR LMML NIL=
201210190615 METAR LMML 190615Z 11009KT 9999 FEW010 23/21 Q1019 TEMPO
                        BKN010=
201210190600 METAR LMML NIL=
201210190545 METAR LMML 190545Z 11009KT 9999 SCT010 23/21 Q1019 TEMPO
                        BKN010=
201210190530 METAR LMML NIL=
201210190515 METAR LMML 190515Z 11010KT 9999 SCT010 23/21 Q1019 TEMPO
                        BKN010=
201210190500 METAR LMML NIL=
201210190445 METAR LMML 190445Z 11011KT 9999 BKN010 23/21 Q1019 NOSIG=
201210190430 METAR LMML NIL=
201210190415 METAR LMML 190415Z 11010KT 9999 BKN009 23/21 Q1019 NOSIG=
201210190400 METAR LMML NIL=
201210190345 METAR LMML 190345Z 11009KT 9999 BKN009 23/21 Q1019 NOSIG=
201210190330 METAR LMML NIL=
201210190315 METAR LMML 190315Z 12011KT 9999 BKN008 23/21 Q1019 NOSIG=
201210190300 METAR LMML NIL=
201210190245 METAR LMML 190245Z AUTO 11011KT 9999NDV SCT009/// BKN011///
                        BKN016/// 23/21 Q1019=
201210190230 METAR LMML NIL=
201210190215 METAR LMML 190215Z AUTO 11009KT 9999NDV FEW008/// BKN010///
                        OVC014/// 23/22 Q1019=
201210190200 METAR LMML NIL=
201210190145 METAR LMML 190145Z AUTO 11010KT 9999NDV SCT008/// SCT009///
                        BKN011/// 23/22 Q1019=
201210190130 METAR LMML NIL=
201210190115 METAR LMML 190115Z AUTO 11009KT 9999NDV SCT008/// BKN011///
                        BKN013/// 23/22 Q1019=
201210190100 METAR LMML NIL=
201210190045 METAR LMML 190045Z AUTO 11011KT 9999NDV FEW008/// SCT009///
                        BKN011/// 23/22 Q1019=
201210190030 METAR LMML NIL=
201210190015 METAR LMML 190015Z AUTO 11011KT 9000NDV SCT007/// BKN009///
                        BKN010/// 23/22 Q1019=
201210190000 METAR LMML NIL=
201210182345 METAR LMML 182345Z AUTO 11010KT 070V140 8000NDV SCT007///
                        BKN008/// OVC010/// 24/22 Q1019=
201210182330 METAR LMML NIL=
201210182315 METAR LMML 182315Z AUTO 10011KT 7000NDV SCT006/// BKN008///
                        OVC010/// 23/22 Q1019=
201210182300 METAR LMML NIL=
201210182245 METAR LMML 182245Z AUTO 10011KT 8000NDV SCT006/// BKN007///
                        BKN010/// 23/22 Q1019=
201210182230 METAR LMML NIL=
201210182215 METAR LMML 182215Z AUTO 10010KT 9000NDV SCT006/// BKN007///
                        BKN010/// 23/22 Q1019=
201210182200 METAR LMML NIL=
201210182145 METAR LMML 182145Z AUTO 11010KT 8000NDV BKN006/// OVC008///
                        23/22 Q1019=
201210182130 METAR LMML NIL=
201210182115 METAR LMML 182115Z AUTO 11009KT 8000NDV SCT005/// BKN007///
                        OVC008/// 23/22 Q1019=
201210182100 METAR LMML NIL=
201210182045 METAR LMML 182045Z AUTO 11010KT 9000NDV BKN005/// BKN006///
                        OVC008/// 24/22 Q1019=
201210182030 METAR LMML NIL=
201210182015 METAR LMML 182015Z AUTO 10010KT 9000NDV HZ BKN005/// BKN006///
                        OVC008/// 24/22 Q1019=
201210182000 METAR LMML NIL=
201210181945 METAR LMML 181945Z 10010KT 9000 BKN005 24/23 Q1019 NOSIG=
201210181930 METAR LMML NIL=
201210181915 METAR LMML 181915Z 10010KT 9000 BKN005 24/23 Q1019 NOSIG=
201210181900 METAR LMML NIL=
201210181845 METAR LMML 181845Z 11010KT 9000 BKN005 24/23 Q1018 NOSIG=
201210181830 METAR LMML NIL=
201210181815 METAR LMML 181815Z 10010KT 9999 BKN005 24/23 Q1018 NOSIG=
201210181800 METAR LMML NIL=
201210181745 METAR LMML 181745Z 10011KT 9000 BKN005 24/23 Q1018 NOSIG=
201210181730 METAR LMML NIL=
201210181715 METAR LMML 181715Z 10010KT 9000 SCT005 BKN007 24/23 Q1018
                        NOSIG=
201210181700 METAR LMML NIL=
201210181645 METAR LMML 181645Z 10009KT 9000 SCT005 BKN007 24/23 Q1018
                        NOSIG=
201210181615 METAR LMML 181615Z 10010KT 9000 BKN006 24/23 Q1018 NOSIG=
201210181600 METAR LMML NIL=
201210181545 METAR LMML 181545Z 10012KT 9999 BKN006 24/23 Q1018 NOSIG=
201210181530 METAR LMML NIL=
201210181515 METAR LMML 181515Z 10010KT 9999 BKN007 24/23 Q1018 NOSIG=
201210181500 METAR LMML NIL=
201210181445 METAR LMML 181445Z 10011KT 9999 BKN007 25/22 Q1018 NOSIG=
201210181430 METAR LMML NIL=
201210181415 METAR LMML 181415Z 11012KT 9999 BKN008 SCT012 25/22 Q1018
                        NOSIG=
201210181400 METAR LMML NIL=
201210181345 METAR LMML 181345Z 10012KT 9999 BKN009 SCT013 25/22 Q1018
                        NOSIG=
201210181330 METAR LMML NIL=
201210181315 METAR LMML 181315Z 11012KT 080V140 9999 BKN009 SCT013 25/22
                        Q1018 NOSIG=
201210181300 METAR LMML NIL=
201210181245 METAR LMML 181245Z 09014KT 9999 BKN010 SCT012 25/22 Q1018
                        NOSIG=
201210181230 METAR LMML NIL=
201210181215 METAR LMML 181215Z 11014KT 9999 BKN009 BKN013 25/22 Q1018
                        NOSIG=
201210181200 METAR LMML NIL=
201210181145 METAR LMML 181145Z 10012KT 9999 SCT009 BKN013 25/22 Q1019
                        NOSIG=
201210181130 METAR LMML NIL=
201210181115 METAR LMML 181115Z 11013KT 9999 BKN010 25/22 Q1019 NOSIG=
201210181100 METAR LMML NIL=
201210181045 METAR LMML 181045Z 09013KT 9999 BKN010 25/22 Q1019 NOSIG=
201210181030 METAR LMML NIL=
201210181015 METAR LMML 181015Z 09014KT 9999 BKN010 26/22 Q1019 NOSIG=
201210180945 METAR LMML 180945Z 09014KT 9999 BKN009 26/22 Q1019 NOSIG=
201210180930 METAR LMML NIL=
201210180915 METAR LMML 180915Z 09014KT 9999 BKN009 25/22 Q1020 NOSIG=
201210180900 METAR LMML NIL=
201210180845 METAR LMML 180845Z 10015KT 9999 BKN009 25/22 Q1020 NOSIG=
201210180830 METAR LMML NIL=
201210180815 METAR LMML 180815Z 09015KT 9999 BKN009 24/21 Q1020 NOSIG=
201210180800 METAR LMML NIL=
201210180745 METAR LMML 180745Z 08014KT 050V110 9999 BKN009 24/21 Q1020
                        NOSIG=
201210180730 METAR LMML NIL=
201210180715 METAR LMML 180715Z 08012KT 040V100 9999 BKN009 24/21 Q1020
                        NOSIG=
201210180700 METAR LMML NIL=
201210180645 METAR LMML 180645Z 08014KT 9999 BKN009 23/21 Q1019 NOSIG=
201210180630 METAR LMML NIL=
201210180615 METAR LMML 180615Z 07013KT 9999 BKN009 23/21 Q1019 NOSIG=
201210180600 METAR LMML NIL=
201210180545 METAR LMML 180545Z 08013KT 050V110 9999 BKN009 23/21 Q1019
                        NOSIG=
201210180530 METAR LMML NIL=
201210180515 METAR LMML 180515Z 08014KT 9999 BKN009 23/21 Q1019 NOSIG=
201210180500 METAR LMML NIL=
201210180445 METAR LMML 180445Z 08011G22KT 050V110 9999 BKN010 23/20 Q1019
                        NOSIG=
201210180430 METAR LMML NIL=
201210180415 METAR LMML 180415Z 08013KT 9999 BKN010 23/20 Q1019 NOSIG=
201210180400 METAR LMML NIL=
201210180345 METAR LMML 180345Z 07014KT 9999 BKN010 23/20 Q1019 NOSIG=
201210180330 METAR LMML NIL=
201210180315 METAR LMML 180315Z 07011KT 9999 BKN010 23/21 Q1019 NOSIG=
201210180300 METAR LMML NIL=
201210180245 METAR LMML 180245Z AUTO 07014KT 9999NDV BKN010/// OVC012///
                        23/21 Q1019=
201210180230 METAR LMML NIL=
201210180215 METAR LMML 180215Z AUTO 07012KT 9999NDV BKN009/// OVC011///
                        23/21 Q1019=
201210180200 METAR LMML NIL=
201210180145 METAR LMML 180145Z AUTO 07010KT 9999NDV OVC009/// 23/21 Q1019=
201210180130 METAR LMML NIL=
201210180115 METAR LMML 180115Z AUTO 07011KT 9999NDV FEW008/// BKN010///
                        BKN013/// 23/21 Q1019=
201210180100 METAR LMML NIL=
201210180045 METAR LMML 180045Z AUTO 07011KT 9999NDV BKN008/// OVC010///
                        23/21 Q1020=
201210180030 METAR LMML NIL=
201210180015 METAR LMML 180015Z AUTO 07011KT 9999NDV BKN008/// OVC010///
                        23/21 Q1020=
201210180000 METAR LMML NIL=
201210172345 METAR LMML 172345Z AUTO 08011KT 9999NDV BKN008/// OVC009///
                        23/21 Q1020=
201210172330 METAR LMML NIL=
201210172315 METAR LMML 172315Z AUTO 08009KT 9999NDV BKN008/// OVC009///
                        23/21 Q1020=
201210172300 METAR LMML NIL=
201210172245 METAR LMML 172245Z AUTO 07009KT 9999NDV BKN008/// OVC010///
                        23/21 Q1020=
201210172230 METAR LMML NIL=
201210172215 METAR LMML 172215Z AUTO 08009KT 9999NDV BKN008/// OVC009///
                        23/21 Q1020=
201210172145 METAR LMML 172145Z AUTO 08010KT 9999NDV BKN009/// OVC010///
                        23/21 Q1020=
201210172130 METAR LMML NIL=
201210172115 METAR LMML 172115Z AUTO 08010KT 9999NDV SCT009/// BKN010///
                        OVC013/// 23/21 Q1020=
201210172100 METAR LMML NIL=
201210172045 METAR LMML 172045Z AUTO 08011KT 9999NDV SCT009/// BKN010///
                        BKN012/// 23/21 Q1020=
201210172015 METAR LMML 172015Z AUTO 07012KT 9999NDV FEW009/// BKN010///
                        BKN013/// 23/21 Q1020=
201210172000 METAR LMML NIL=
201210171945 METAR LMML 171945Z 08009KT 9999 BKN010 23/21 Q1020 NOSIG=
201210171915 METAR LMML 171915Z 08010KT 9999 BKN010 23/21 Q1020 NOSIG=
201210171900 METAR LMML NIL=
201210171845 METAR LMML 171845Z 07011KT 9999 BKN010 23/21 Q1020 NOSIG=
201210171830 METAR LMML NIL=
201210171815 METAR LMML 171815Z 07010KT 040V100 9999 SCT011 BKN021 23/21
                        Q1020 TEMPO BKN010=
201210171800 METAR LMML NIL=
201210171745 METAR LMML 171745Z 07010KT 9999 SCT011 BKN019 23/21 Q1020
                        TEMPO BKN010=
201210171730 METAR LMML NIL=
201210171715 METAR LMML 171715Z 07011KT 9999 SCT011 SCT018 23/21 Q1020
                        TEMPO BKN010=
201210171645 METAR LMML 171645Z 07011KT 9999 SCT011 SCT019 23/21 Q1019
                        NOSIG=
201210171630 METAR LMML NIL=
201210171615 METAR LMML 171615Z 07013KT 9999 BKN012 23/20 Q1019 NOSIG=
201210171600 METAR LMML NIL=
201210171545 METAR LMML 171545Z 08011KT 9999 BKN012 24/20 Q1019 NOSIG=
201210171530 METAR LMML NIL=
201210171515 METAR LMML 171515Z 08013KT 9999 BKN012 24/20 Q1019 NOSIG=
201210171500 METAR LMML NIL=
201210171445 METAR LMML 171445Z 08013KT 9999 BKN012 24/21 Q1019 NOSIG=
201210171430 METAR LMML NIL=
201210171415 METAR LMML 171415Z 07013KT 050V110 9999 BKN011 BKN020 24/21
                        Q1019 NOSIG=
201210171400 METAR LMML NIL=
201210171345 METAR LMML 171345Z 08014KT 9999 BKN011 24/21 Q1019 NOSIG=
201210171330 METAR LMML NIL=
201210171315 METAR LMML 171315Z 07013KT 9999 BKN010 24/21 Q1020 NOSIG=
201210171300 METAR LMML NIL=
201210171245 METAR LMML 171245Z AUTO 07011KT 040V100 9999NDV SCT009///
                        BKN011/// OVC015/// 24/22 Q1020=
201210171230 METAR LMML NIL=
201210171215 METAR LMML 171215Z 06011KT 030V090 9999 BKN010 BKN014 25/21
                        Q1020 NOSIG=
201210171200 METAR LMML NIL=
201210171145 METAR LMML 171145Z 06012KT 9999 BKN009 SCT015 25/22 Q1020
                        NOSIG=
201210171130 METAR LMML NIL=
201210171115 METAR LMML 171115Z 05013KT 9999 SCT009 BKN017 25/21 Q1020
                        NOSIG=
201210171100 METAR LMML NIL=
201210171045 METAR LMML 171045Z 06013KT 030V090 9999 SCT011 BKN021 25/21
                        Q1021 NOSIG=
201210171030 METAR LMML NIL=
201210171015 METAR LMML 171015Z 06013KT 9999 SCT011 BKN017 24/21 Q1021
                        NOSIG=
201210171000 METAR LMML NIL=
201210170945 METAR LMML 170945Z 04013KT 9999 SCT011 BKN014 24/21 Q1021
                        NOSIG=
201210170930 METAR LMML NIL=
201210170915 METAR LMML 170915Z 06011KT 9999 SCT013 25/21 Q1021 NOSIG=
201210170900 METAR LMML NIL=
201210170845 METAR LMML 170845Z 06012KT 9999 FEW013 SCT020 24/20 Q1021
                        NOSIG=
201210170830 METAR LMML NIL=
201210170815 METAR LMML 170815Z 07010KT 9999 SCT014 BKN020 24/20 Q1021
                        NOSIG=
201210170800 METAR LMML NIL=
201210170745 METAR LMML 170745Z AUTO 08013KT 9999NDV SCT013/// BKN019///
                        OVC022/// 23/20 Q1020 NOSIG=
201210170730 METAR LMML NIL=
201210170715 METAR LMML 170715Z 07011KT 9999 FEW015 23/19 Q1020 NOSIG=
201210170700 METAR LMML NIL=
201210170645 METAR LMML 170645Z 06009KT 030V090 9999 FEW014 23/19 Q1020
                        NOSIG=
201210170630 METAR LMML NIL=
201210170615 METAR LMML 170615Z 06010KT 9999 FEW014 22/19 Q1020 NOSIG=
201210170600 METAR LMML NIL=
201210170545 METAR LMML 170545Z 05011KT 9999 FEW013 22/19 Q1019 NOSIG=
201210170530 METAR LMML NIL=
201210170515 METAR LMML 170515Z 06011KT 9999 SCT013 22/19 Q1019 TEMPO
                        BKN015=
201210170500 METAR LMML NIL=
201210170445 METAR LMML 170445Z 05012KT 9999 FEW012 22/19 Q1019 TEMPO
                        BKN015=
201210170430 METAR LMML NIL=
201210170415 METAR LMML 170415Z 05012KT 9999 SCT011 22/20 Q1019 TEMPO
                        BKN015=
201210170400 METAR LMML NIL=
201210170345 METAR LMML 170345Z 05011KT 9999 SCT013 22/19 Q1019 TEMPO
                        BKN015=
201210170330 METAR LMML NIL=
201210170315 METAR LMML 170315Z 05009KT 9999 FEW012 21/19 Q1019 NOSIG=
201210170300 METAR LMML NIL=
201210170245 METAR LMML 170245Z AUTO 05008KT 9999NDV FEW013/// 21/19 Q1018=
201210170230 METAR LMML NIL=
201210170215 METAR LMML 170215Z AUTO 06008KT 030V090 9999NDV FEW014///
                        21/19 Q1019=
201210170200 METAR LMML NIL=
201210170145 METAR LMML 170145Z AUTO 05009KT 9999NDV FEW015/// 21/19 Q1018=
201210170130 METAR LMML NIL=
201210170115 METAR LMML 170115Z AUTO 06008KT 9999NDV FEW019/// 21/19 Q1018=
201210170100 METAR LMML NIL=
201210170045 METAR LMML 170045Z AUTO 06006KT 9999NDV FEW018/// 22/19 Q1019=
201210170030 METAR LMML NIL=
201210170015 METAR LMML 170015Z AUTO 07006KT 9999NDV FEW017/// 22/19 Q1019=
201210170000 METAR LMML NIL=
201210162345 METAR LMML 162345Z AUTO 06005KT 9999NDV SCT016/// SCT020///
                        21/18 Q1019=
201210162330 METAR LMML NIL=
201210162315 METAR LMML 162315Z AUTO 01003KT CAVOK 20/17 Q1019=
201210162300 METAR LMML NIL=
201210162245 METAR LMML 162245Z AUTO 34005KT CAVOK 20/17 Q1019=
201210162230 METAR LMML NIL=
201210162215 METAR LMML 162215Z AUTO 33005KT CAVOK 20/17 Q1019=
201210162200 METAR LMML NIL=
201210162145 METAR LMML 162145Z AUTO 33005KT CAVOK 20/17 Q1019=
201210162130 METAR LMML NIL=
201210162115 METAR LMML 162115Z AUTO 32004KT CAVOK 20/17 Q1019=
201210162100 METAR LMML NIL=
201210162045 METAR LMML 162045Z AUTO 33004KT CAVOK 21/17 Q1019=
201210162030 METAR LMML NIL=
201210162015 METAR LMML 162015Z AUTO 34006KT CAVOK 20/17 Q1019=
201210162000 METAR LMML NIL=
201210161945 METAR LMML 161945Z 36007KT 320V030 CAVOK 21/17 Q1019 NOSIG=
201210161930 METAR LMML NIL=
201210161915 METAR LMML 161915Z 34005KT CAVOK 21/17 Q1018 NOSIG=
201210161900 METAR LMML NIL=
201210161845 METAR LMML 161845Z 34005KT CAVOK 21/17 Q1018 NOSIG=
201210161830 METAR LMML NIL=
201210161815 METAR LMML 161815Z AUTO 33007KT CAVOK 21/16 Q1018 NOSIG=
201210161800 METAR LMML NIL=
201210161745 METAR LMML 161745Z 34006KT 9999 FEW037 21/16 Q1018 NOSIG=
201210161730 METAR LMML NIL=
201210161715 METAR LMML 161715Z 34006KT 9999 FEW037 22/16 Q1017 NOSIG=
201210161700 METAR LMML NIL=
201210161645 METAR LMML 161645Z 35009KT 9999 FEW035 22/17 Q1017 NOSIG=
201210161630 METAR LMML NIL=
201210161615 METAR LMML 161615Z 34010KT 9999 FEW036 23/18 Q1017 NOSIG=
201210161600 METAR LMML NIL=
201210161545 METAR LMML 161545Z 35012KT CAVOK 23/18 Q1016 NOSIG=
201210161530 METAR LMML NIL=
201210161515 METAR LMML 161515Z 35010KT 9999 FEW022 23/18 Q1016 NOSIG=
201210161500 METAR LMML NIL=
201210161445 METAR LMML 161445Z 36011KT 9999 FEW020 23/18 Q1016 NOSIG=
201210161415 METAR LMML 161415Z AUTO 01011KT CAVOK 24/18 Q1016=
201210161400 METAR LMML NIL=
201210161345 METAR LMML 161345Z AUTO 02014KT 9999NDV FEW000/// 25/18 Q1016=
201210161330 METAR LMML NIL=
201210161315 METAR LMML 161315Z 36012KT 9999 FEW020 25/18 Q1016 NOSIG=
201210161300 METAR LMML NIL=
201210161245 METAR LMML 161245Z 36011KT 340V040 9999 FEW019 25/18 Q1015
                        NOSIG=
201210161230 METAR LMML NIL=
201210161215 METAR LMML 161215Z 36012KT 340V040 9999 FEW025 25/18 Q1015
                        NOSIG=
201210161200 METAR LMML NIL=
201210161145 METAR LMML 161145Z 35012KT 9999 FEW025 25/16 Q1016 NOSIG=
201210161130 METAR LMML NIL=
201210161115 METAR LMML 161115Z 36012KT 9999 FEW025 25/17 Q1016 NOSIG=
201210161100 METAR LMML NIL=
201210161045 METAR LMML 161045Z 01012KT 9999 FEW025 25/18 Q1016 NOSIG=
201210161030 METAR LMML NIL=
201210161015 METAR LMML 161015Z 01013KT 9999 FEW023 25/19 Q1015 NOSIG=
201210161000 METAR LMML NIL=
201210160945 METAR LMML 160945Z 36012KT 9999 FEW025 25/19 Q1015 NOSIG=
201210160930 METAR LMML NIL=
201210160915 METAR LMML 160915Z 35011KT 9999 FEW025 25/19 Q1015 NOSIG=
201210160900 METAR LMML NIL=
201210160845 METAR LMML 160845Z 35010KT CAVOK 25/20 Q1015 NOSIG=
201210160830 METAR LMML NIL=
201210160815 METAR LMML 160815Z 35008KT 320V030 CAVOK 25/19 Q1014 NOSIG=
201210160800 METAR LMML NIL=
201210160745 METAR LMML 160745Z 35005KT CAVOK 25/19 Q1014 NOSIG=
201210160730 METAR LMML NIL=
201210160715 METAR LMML 160715Z 21006KT 180V240 9999 FEW030 24/17 Q1013
                        NOSIG=
201210160700 METAR LMML NIL=
201210160645 METAR LMML 160645Z 22006KT 190V250 9999 FEW035 24/17 Q1012
                        NOSIG=
201210160615 METAR LMML 160615Z 21006KT 9999 FEW034 23/16 Q1012 NOSIG=
201210160600 METAR LMML NIL=
201210160545 METAR LMML 160545Z 16008KT 9999 FEW035 22/17 Q1012 NOSIG=
201210160530 METAR LMML NIL=
201210160515 METAR LMML 160515Z 17006KT 9999 -RA FEW035 21/17 Q1012 NOSIG=
201210160500 METAR LMML NIL=
201210160445 METAR LMML 160445Z 23004KT 190V280 9999 -RA SCT039 22/17
                        Q1012 NOSIG=
201210160430 METAR LMML NIL=
201210160415 METAR LMML 160415Z VRB03KT 9000 -RA SCT034 22/17 Q1012 NOSIG=
201210160400 METAR LMML NIL=
201210160345 METAR LMML 160345Z VRB03KT 9000 -RA SCT033 22/19 Q1012 NOSIG=
201210160330 METAR LMML NIL=
201210160315 METAR LMML 160315Z VRB02KT 8000 -RA FEW034 23/18 Q1011 NOSIG=
201210160300 METAR LMML NIL=
201210160245 METAR LMML 160245Z AUTO 01009KT CAVOK 23/19 Q1011=
201210160230 METAR LMML NIL=
201210160215 METAR LMML 160215Z AUTO 33008KT CAVOK 22/20 Q1011=
201210160200 METAR LMML NIL=
201210160145 METAR LMML 160145Z AUTO 33007KT CAVOK 23/20 Q1011=
201210160130 METAR LMML NIL=
201210160115 METAR LMML 160115Z AUTO 31015KT 9999NDV -RA SCT110/// 25/21
                        Q1011=
201210160100 METAR LMML NIL=
201210160045 METAR LMML 160045Z AUTO 24007KT 160V280 CAVOK 26/20 Q1011=
201210160030 METAR LMML NIL=
201210160015 METAR LMML 160015Z AUTO 25006KT CAVOK 26/20 Q1010=
201210160000 METAR LMML NIL=
201210152345 METAR LMML 152345Z AUTO 27006KT 240V310 CAVOK 26/20 Q1010=
201210152315 METAR LMML 152315Z AUTO 20009KT CAVOK 26/22 Q1010=
201210152300 METAR LMML NIL=
201210152245 METAR LMML 152245Z AUTO 23006KT 190V280 CAVOK 25/23 Q1010=
201210152230 METAR LMML NIL=
201210152215 METAR LMML 152215Z AUTO 17006KT 120V210 9999NDV FEW008///
                        SCT010/// BKN013/// 25/24 Q1010=
201210152200 METAR LMML NIL=
201210152145 METAR LMML 152145Z AUTO 19008KT 160V220 9000NDV SCT007///
                        BKN008/// BKN009/// 25/24 Q1011=
201210152130 METAR LMML NIL=
201210152115 METAR LMML 152115Z AUTO 17013KT 8000NDV HZ SCT004/// BKN007///
                        OVC009/// 25/24 Q1010=
201210152100 METAR LMML NIL=
201210152045 METAR LMML 152045Z AUTO 16014KT 8000NDV HZ BKN004/// OVC006///
                        24/23 Q1009=
201210152030 METAR LMML NIL=
201210152015 METAR LMML 152015Z AUTO 13014KT 8000NDV HZ BKN005/// OVC006///
                        24/23 Q1009=
201210152000 METAR LMML NIL=
201210151945 METAR LMML 151945Z 11011KT 9000 BKN004 24/23 Q1009 NOSIG=
201210151930 METAR LMML NIL=
201210151915 METAR LMML 151915Z 12016KT 9999 BKN004 24/23 Q1009 NOSIG=
201210151900 METAR LMML NIL=
201210151845 METAR LMML 151845Z 10010KT 070V130 9999 BKN005 24/23 Q1009
                        NOSIG=
201210151830 METAR LMML NIL=
201210151815 METAR LMML 151815Z 10009KT 9999 FEW007 FEW018 24/23 Q1010
                        NOSIG=
201210151800 METAR LMML NIL=
201210151745 METAR LMML 151745Z 13008KT 9999 FEW010 FEW018 24/23 Q1011
                        RETS NOSIG RMK DISTANT LIGHTNING
                        TO THE NORTHERN SECTOR=
201210151730 METAR LMML NIL=
201210151715 METAR LMML 151715Z 14003KT 090V200 9999 TS SCT010 BKN015CB
                        25/23 Q1011 BECMG NSW BKN010=
201210151700 METAR LMML NIL=
201210151645 METAR LMML 151645Z 14008KT 090V180 9999 TS BKN010 BKN022CB
                        24/22 Q1010 TEMPO 5000 TSRA BKN005
                        BKN050CB=
201210151630 METAR LMML NIL=
201210151615 METAR LMML 151615Z 01010KT 9999 SCT009 FEW020 24/23 Q1009
                        TEMPO 5000 TSRA BKN005 BKN050CB=
201210151600 METAR LMML NIL=
201210151545 METAR LMML 151545Z 13018KT 9999 FEW009 FEW020 24/23 Q1009
                        TEMPO 5000 TSRA BKN005 BKN050CB=
201210151530 METAR LMML NIL=
201210151515 METAR LMML 151515Z 14019KT 9999 SCT006 FEW020 24/23 Q1009
                        TEMPO 5000 TSRA BKN005 BKN050CB=
201210151500 METAR LMML NIL=
201210151445 METAR LMML 151445Z 14015KT 9999 SCT006 25/23 Q1009 TEMPO
                        5000 TSRA BKN005 BKN050CB=
201210151415 METAR LMML 151415Z 13016KT 9999 -RA SCT005 25/23 Q1009 NOSIG=
201210151400 METAR LMML NIL=
201210151345 METAR LMML 151345Z 13015KT 9999 -RA SCT008 25/23 Q1009 NOSIG=
201210151330 METAR LMML NIL=
201210151315 METAR LMML 151315Z 14015KT 9999 SCT009 25/23 Q1010 NOSIG=
201210151300 METAR LMML NIL=
201210151245 METAR LMML 151245Z 14011KT 9999 SCT012 26/23 Q1010 NOSIG=
201210151230 METAR LMML NIL=
201210151215 METAR LMML 151215Z 15006KT 110V190 9999 -RA BKN011 25/22
                        Q1010 TEMPO SHRA BKN012=
201210151200 METAR LMML NIL=
201210151145 METAR LMML 151145Z 17008KT 9999 FEW011 26/22 Q1010 TEMPO
                        SHRA BKN012=
201210151130 METAR LMML NIL=
201210151115 METAR LMML 151115Z AUTO 18007KT 160V220 CAVOK 26/22 Q1011=
201210151100 METAR LMML NIL=
201210151045 METAR LMML 151045Z 18009KT 150V220 9999 FEW011 26/22 Q1011
                        NOSIG=
201210151030 METAR LMML NIL=
201210151015 METAR LMML 151015Z 18012KT 9999 FEW011 27/22 Q1011 NOSIG=
201210151000 METAR LMML NIL=
201210150945 METAR LMML 150945Z 17013KT 140V200 9999 SCT011 27/22 Q1011
                        NOSIG=
201210150930 METAR LMML NIL=
201210150915 METAR LMML 150915Z 16014KT 9999 SCT011 26/22 Q1011 NOSIG=
201210150900 METAR LMML NIL=
201210150845 METAR LMML 150845Z 16012KT 9999 FEW014 26/22 Q1011 NOSIG=
201210150830 METAR LMML NIL=
201210150815 METAR LMML 150815Z 17010KT 9999 FEW013 25/22 Q1011 NOSIG=
201210150800 METAR LMML NIL=
201210150745 METAR LMML 150745Z 17009KT 9999 FEW013 25/22 Q1011 NOSIG=
201210150730 METAR LMML NIL=
201210150715 METAR LMML 150715Z 19007KT 160V220 9999 FEW020 25/21 Q1011
                        NOSIG=
201210150700 METAR LMML NIL=
201210150645 METAR LMML 150645Z 18003KT 120V210 9999 FEW020 24/21 Q1011
                        NOSIG=
201210150615 METAR LMML 150615Z 19003KT 9999 FEW020 22/20 Q1011 NOSIG=
201210150600 METAR LMML NIL=
201210150545 METAR LMML 150545Z 20004KT CAVOK 20/19 Q1011 NOSIG=
201210150530 METAR LMML NIL=
201210150515 METAR LMML 150515Z 25002KT CAVOK 20/19 Q1011 NOSIG=
201210150445 METAR LMML 150445Z 16003KT 9999 FEW020 20/19 Q1011 NOSIG=
201210150430 METAR LMML NIL=
201210150415 METAR LMML 150415Z 17004KT 9999 FEW020 21/18 Q1011 NOSIG=
201210150400 METAR LMML NIL=
201210150345 METAR LMML 150345Z 18005KT CAVOK 21/19 Q1011 NOSIG=
201210150330 METAR LMML NIL=
201210150315 METAR LMML 150315Z 18006KT CAVOK 20/19 Q1011 NOSIG=
201210150300 METAR LMML NIL=
201210150245 METAR LMML 150245Z AUTO 17004KT 8000NDV HZ NCD 19/18 Q1010=
201210150230 METAR LMML NIL=
201210150215 METAR LMML 150215Z AUTO 14002KT 5000NDV NCD 19/18 Q1010=
201210150200 METAR LMML NIL=
201210150145 METAR LMML 150145Z AUTO VRB02KT 5000NDV NCD 19/18 Q1011=
201210150130 METAR LMML NIL=
201210150115 METAR LMML 150115Z AUTO VRB02KT 6000NDV NCD 20/18 Q1011=
201210150100 METAR LMML NIL=
201210150045 METAR LMML 150045Z AUTO 15003KT CAVOK 20/18 Q1011=
201210150030 METAR LMML NIL=
201210150015 METAR LMML 150015Z AUTO 14002KT CAVOK 19/17 Q1011=
201210150000 METAR LMML NIL=
201210142345 METAR LMML 142345Z AUTO 17003KT CAVOK 19/18 Q1011=
201210142330 METAR LMML NIL=
201210142315 METAR LMML 142315Z AUTO VRB01KT CAVOK 19/17 Q1012=
201210142300 METAR LMML NIL=
201210142245 METAR LMML 142245Z AUTO 16001KT CAVOK 19/18 Q1012=
201210142230 METAR LMML NIL=
201210142215 METAR LMML 142215Z AUTO VRB01KT CAVOK 19/17 Q1012=
201210142200 METAR LMML NIL=
201210142145 METAR LMML 142145Z AUTO 16001KT CAVOK 19/18 Q1012=
201210142130 METAR LMML NIL=
201210142115 METAR LMML 142115Z AUTO VRB01KT CAVOK 20/18 Q1012=
201210142100 METAR LMML NIL=
201210142045 METAR LMML 142045Z AUTO VRB02KT CAVOK 20/18 Q1012=
201210142030 METAR LMML NIL=
201210142015 METAR LMML 142015Z AUTO 00000KT CAVOK 20/18 Q1012=
201210142000 METAR LMML NIL=
201210141945 METAR LMML 141945Z VRB01KT CAVOK 21/18 Q1012 NOSIG=
201210141930 METAR LMML NIL=
201210141915 METAR LMML 141915Z 32004KT CAVOK 21/18 Q1012 NOSIG=
201210141900 METAR LMML NIL=
201210141845 METAR LMML 141845Z 31004KT CAVOK 21/18 Q1012 NOSIG=
201210141830 METAR LMML NIL=
201210141815 METAR LMML 141815Z 31005KT CAVOK 22/18 Q1012 NOSIG=
201210141800 METAR LMML NIL=
201210141745 METAR LMML 141745Z 32003KT CAVOK 22/18 Q1012 NOSIG=
201210141730 METAR LMML NIL=
201210141715 METAR LMML 141715Z 33006KT CAVOK 22/18 Q1012 NOSIG=
201210141700 METAR LMML NIL=
201210141645 METAR LMML 141645Z 33004KT CAVOK 22/18 Q1011 NOSIG=
201210141630 METAR LMML NIL=
201210141615 METAR LMML 141615Z 33005KT CAVOK 24/16 Q1011 NOSIG=
201210141600 METAR LMML NIL=
201210141545 METAR LMML 141545Z 34004KT CAVOK 25/16 Q1011 NOSIG=
201210141530 METAR LMML NIL=
201210141515 METAR LMML 141515Z 32005KT CAVOK 25/15 Q1011 NOSIG=
201210141500 METAR LMML NIL=
201210141445 METAR LMML 141445Z 30006KT CAVOK 26/17 Q1011 NOSIG=
201210141430 METAR LMML NIL=
201210141415 METAR LMML 141415Z 31006KT 270V350 CAVOK 25/17 Q1011 NOSIG=
201210141400 METAR LMML NIL=
201210141345 METAR LMML 141345Z 01007KT 320V050 CAVOK 25/17 Q1011 NOSIG=
201210141330 METAR LMML NIL=
201210141315 METAR LMML 141315Z 34010KT CAVOK 26/16 Q1012 NOSIG=
201210141300 METAR LMML NIL=
201210141245 METAR LMML 141245Z AUTO 36008KT 320V030 CAVOK 26/16 Q1011
                        NOSIG=
201210141230 METAR LMML NIL=
201210141215 METAR LMML 141215Z 03008KT 340V060 CAVOK 26/17 Q1011 NOSIG=
201210141200 METAR LMML NIL=
201210141145 METAR LMML 141145Z 02008KT 340V060 CAVOK 26/17 Q1011 NOSIG=
201210141130 METAR LMML NIL=
201210141115 METAR LMML 141115Z 01008KT 330V040 CAVOK 26/17 Q1012 NOSIG=
201210141100 METAR LMML NIL=
201210141045 METAR LMML 141045Z 03008KT CAVOK 25/17 Q1012 NOSIG=
201210141030 METAR LMML NIL=
201210141015 METAR LMML 141015Z 03008KT CAVOK 25/17 Q1012 NOSIG=
201210141000 METAR LMML NIL=
201210140945 METAR LMML 140945Z 02009KT 350V050 CAVOK 25/17 Q1012 NOSIG=
201210140930 METAR LMML NIL=
201210140915 METAR LMML 140915Z 01010G20KT CAVOK 25/17 Q1012 NOSIG=
201210140900 METAR LMML NIL=
201210140845 METAR LMML 140845Z 36009KT CAVOK 25/17 Q1012 NOSIG=
201210140830 METAR LMML NIL=
201210140815 METAR LMML 140815Z AUTO 01007KT 330V030 CAVOK 24/18 Q1012=
201210140800 METAR LMML NIL=
201210140745 METAR LMML 140745Z 36009KT 9999 FEW020 24/19 Q1012 NOSIG=
201210140730 METAR LMML NIL=
201210140715 METAR LMML 140715Z 01008KT 9999 FEW020 23/20 Q1012 NOSIG=
201210140700 METAR LMML NIL=
201210140645 METAR LMML 140645Z 01008KT 9999 FEW015 23/20 Q1012 NOSIG=
201210140630 METAR LMML NIL=
201210140615 METAR LMML 140615Z 01007KT 9999 FEW012 22/20 Q1012 NOSIG=
201210140600 METAR LMML NIL=
201210140545 METAR LMML 140545Z 02008KT 9999 SCT011 21/20 Q1011 NOSIG=
201210140530 METAR LMML NIL=
201210140515 METAR LMML 140515Z 02009KT 9999 SCT011 21/20 Q1011 NOSIG=
201210140445 METAR LMML 140445Z 02006KT 9999 SCT011 21/20 Q1011 NOSIG=
201210140430 METAR LMML NIL=
201210140415 METAR LMML 140415Z 03006KT 9999 SCT010 21/20 Q1011 TEMPO
                        BKN010=
201210140400 METAR LMML NIL=
201210140345 METAR LMML 140345Z 02006KT 9999 SCT010 21/19 Q1011 NOSIG=
201210140330 METAR LMML NIL=
201210140315 METAR LMML 140315Z 36005KT 9999 FEW033 20/19 Q1011 NOSIG=
201210140245 METAR LMML 140245Z AUTO 03005KT CAVOK 21/19 Q1011=
201210140230 METAR LMML NIL=
201210140215 METAR LMML 140215Z AUTO 01003KT CAVOK 21/19 Q1011=
201210140200 METAR LMML NIL=
201210140145 METAR LMML 140145Z AUTO 01004KT CAVOK 21/20 Q1011=
201210140130 METAR LMML NIL=
201210140115 METAR LMML 140115Z AUTO 35006KT CAVOK 21/20 Q1012=
201210140100 METAR LMML NIL=
201210140045 METAR LMML 140045Z AUTO 35007KT 9999NDV BKN013/// 21/20 Q1012=
201210140030 METAR LMML NIL=
201210140015 METAR LMML 140015Z 34006KT 9999 FEW025CB SCT040 20/19 Q1012
                        NOSIG RMK DISTANT LIGHTNING TO NE=
201210140000 METAR LMML NIL=
201210132345 METAR LMML 132345Z AUTO 01004KT CAVOK 21/20 Q1012=
201210132330 METAR LMML NIL=
201210132315 METAR LMML 132315Z AUTO VRB02KT CAVOK 22/20 Q1012=
201210132300 METAR LMML NIL=
201210132245 METAR LMML 132245Z AUTO 13005KT CAVOK 21/20 Q1012=
201210132230 METAR LMML NIL=
201210132215 METAR LMML 132215Z AUTO 15004KT CAVOK 22/20 Q1013=
201210132200 METAR LMML NIL=
201210132145 METAR LMML 132145Z AUTO VRB02KT 9999NDV SCT049/// BKN054///
                        21/20 Q1013=
201210132130 METAR LMML NIL=
201210132115 METAR LMML 132115Z AUTO 34004KT 300V360 9999NDV OVC031///
                        21/20 Q1013=
201210132100 METAR LMML NIL=
201210132045 METAR LMML 132045Z AUTO 34003KT 9999NDV BKN032/// BKN038///
                        21/19 Q1013=
201210132030 METAR LMML NIL=
201210132015 METAR LMML 132015Z AUTO 35003KT 330V050 9999NDV OVC036///
                        21/19 Q1013=
201210132000 METAR LMML NIL=
201210131945 METAR LMML 131945Z 07002KT 9999 FEW044 20/19 Q1013 NOSIG=
201210131930 METAR LMML NIL=
201210131915 METAR LMML 131915Z 03003KT 9999 FEW025 21/18 Q1013 NOSIG=
201210131900 METAR LMML NIL=
201210131845 METAR LMML 131845Z 05003KT 360V150 9999 FEW025 21/18 Q1012
                        NOSIG=
201210131830 METAR LMML NIL=
201210131815 METAR LMML 131815Z VRB02KT 9999 FEW025 20/18 Q1012 NOSIG=
201210131800 METAR LMML NIL=
201210131745 METAR LMML 131745Z 34002KT 9999 FEW025 20/18 Q1012 NOSIG=
201210131715 METAR LMML 131715Z 36003KT 340V040 9999 FEW025 20/18 Q1011
                        NOSIG=
201210131700 METAR LMML NIL=
201210131645 METAR LMML 131645Z 34004KT 320V020 9999 FEW025 20/18 Q1011
                        NOSIG=
201210131630 METAR LMML NIL=
201210131615 METAR LMML 131615Z 14005KT 9999 FEW025 20/18 Q1011 RETSRA
                        NOSIG=
201210131600 METAR LMML NIL=
201210131545 METAR LMML 131545Z 14009KT 9999 FEW025 19/18 Q1011 RETSRA
                        NOSIG=
201210131530 METAR LMML NIL=
201210131515 METAR LMML 131515Z 08005KT 030V120 9999 -TSRA FEW015CB 19/17
                        Q1012 NOSIG=
201210131500 METAR LMML NIL=
201210131445 METAR LMML 131445Z 32015G28KT 300V360 3000 +RA SCT013CB
                        19/17 Q1014 NOSIG=
201210131430 METAR LMML NIL=
201210131415 METAR LMML 131415Z 32026G38KT 3000 +RA FEW006 BKN018CB
                        BKN040 19/17 Q1015 TEMPO 2000 TSRA
                        BKN006 BKN015CB=
201210131400 METAR LMML NIL=
201210131345 METAR LMML 131345Z 31010G31KT 220V360 6000 -TSRA SCT014CB
                        SCT018 25/22 Q1014 TEMPO 2000 TSRA
                        BKN014CB=
201210131330 METAR LMML NIL=
201210131315 METAR LMML 131315Z 17008KT 140V200 9999 BKN014 26/22 Q1012
                        TEMPO 5000 TSRA BKN040CB=
201210131300 METAR LMML NIL=
201210131245 METAR LMML 131245Z AUTO 16010KT 9999NDV GR FEW013/// SCT016///
                        BKN020/// 26/22 Q1012=
201210131230 METAR LMML NIL=
201210131215 METAR LMML 131215Z 15013KT 9999 BKN014 26/22 Q1012 TEMPO
                        9000 RA=
201210131200 METAR LMML NIL=
201210131145 METAR LMML 131145Z 17011KT 140V200 9999 BKN015 27/22 Q1013
                        TEMPO 9000 RA=
201210131130 METAR LMML NIL=
201210131115 METAR LMML 131115Z 16015KT 9999 BKN015 27/21 Q1013 TEMPO
                        9000 RA=
201210131100 METAR LMML NIL=
201210131045 METAR LMML 131045Z 16016KT 130V190 9999 BKN014 27/21 Q1012
                        TEMPO BKN012=
201210131030 METAR LMML NIL=
201210131015 METAR LMML 131015Z 16015KT 130V190 9999 SCT014 27/21 Q1013
                        TEMPO BKN015=
201210131000 METAR LMML NIL=
201210130945 METAR LMML 130945Z 15012KT 9999 SCT016 27/22 Q1014 TEMPO
                        BKN015=
201210130930 METAR LMML NIL=
201210130915 METAR LMML 130915Z 13009KT 100V170 9999 FEW017 27/21 Q1014
                        NOSIG=
201210130900 METAR LMML NIL=
201210130845 METAR LMML 130845Z 08005KT 050V120 9999 FEW016 25/20 Q1015
                        TEMPO BKN015=
201210130830 METAR LMML NIL=
201210130815 METAR LMML 130815Z 05007KT 020V090 9999 FEW018 24/20 Q1015
                        TEMPO BKN015=
201210130800 METAR LMML NIL=
201210130745 METAR LMML 130745Z 35009KT 9999 SCT016 23/20 Q1016 TEMPO
                        9000 RA BKN015=
201210130730 METAR LMML NIL=
201210130715 METAR LMML 130715Z 33004KT 280V350 9999 BKN016TCU 25/21 Q1015
                        TEMPO BKN015=
201210130700 METAR LMML NIL=
201210130645 METAR LMML 130645Z 21003KT 160V240 9999 FEW015 FEW018TCU
                        25/21 Q1015 TEMPO BKN015=
201210130630 METAR LMML NIL=
201210130615 METAR LMML 130615Z 20004KT 170V230 9999 SCT016 25/22 Q1014
                        TEMPO BKN015=
201210130600 METAR LMML NIL=
201210130545 METAR LMML 130545Z VRB01KT 9999 SCT014 24/21 Q1014 NOSIG=
201210130530 METAR LMML NIL=
201210130515 METAR LMML 130515Z 03004KT 9999 BKN015 23/21 Q1014 NOSIG=
201210130500 METAR LMML NIL=
201210130445 METAR LMML 130445Z VRB03KT 9999 SCT013 24/21 Q1014 TEMPO
                        BKN013=
201210130430 METAR LMML NIL=
201210130415 METAR LMML 130415Z 20009KT 170V230 9999 FEW014 24/21 Q1014
                        NOSIG=
201210130400 METAR LMML NIL=
201210130345 METAR LMML 130345Z 18006KT 9999 FEW014 24/21 Q1014 NOSIG=
201210130330 METAR LMML NIL=
201210130315 METAR LMML 130315Z 19008KT 9999 FEW013 24/21 Q1014 NOSIG=
201210130300 METAR LMML NIL=
201210130245 METAR LMML 130245Z AUTO 19008KT 2200NDV FEW014/// BKN170///
                        24/21 Q1014=
201210130230 METAR LMML NIL=
201210130215 METAR LMML 130215Z AUTO 19005KT 1600NDV NCD 24/21 Q1014=
201210130200 METAR LMML NIL=
201210130145 METAR LMML 130145Z AUTO 19005KT 1500NDV FEW016/// 24/21 Q1014=
201210130130 METAR LMML NIL=
201210130115 METAR LMML 130115Z AUTO 21004KT 1400NDV R13/P2000N R31/P2000N
                        FEW014/// SCT019/// BKN022/// 24/21
                        Q1014=
201210130100 METAR LMML NIL=
201210130045 METAR LMML 130045Z AUTO 19005KT 2300NDV SCT013/// SCT015///
                        BKN160/// 24/21 Q1015=
201210130030 METAR LMML NIL=
201210130015 METAR LMML 130015Z AUTO 19005KT 9999NDV FEW014/// 24/21 Q1015=
201210130000 METAR LMML NIL=
201210122345 METAR LMML 122345Z AUTO 19005KT 160V220 9999NDV FEW015///
                        24/22 Q1015=
201210122330 METAR LMML NIL=
201210122315 METAR LMML 122315Z AUTO 20006KT CAVOK 24/21 Q1015=
201210122300 METAR LMML NIL=
201210122245 METAR LMML 122245Z AUTO 20006KT 9999NDV FEW014/// 24/21 Q1015=
201210122230 METAR LMML NIL=
201210122215 METAR LMML 122215Z AUTO 20004KT 160V230 CAVOK 24/22 Q1015=
201210122200 METAR LMML NIL=
201210122145 METAR LMML 122145Z AUTO 19007KT CAVOK 24/22 Q1015=
201210122130 METAR LMML NIL=
201210122115 METAR LMML 122115Z AUTO 18007KT CAVOK 24/22 Q1015=
201210122100 METAR LMML NIL=
201210122045 METAR LMML 122045Z AUTO 19006KT CAVOK 24/22 Q1015=
201210122030 METAR LMML NIL=
201210122015 METAR LMML 122015Z AUTO 18007KT 9999NDV FEW015/// 24/22 Q1015=
201210122000 METAR LMML NIL=
201210121945 METAR LMML 121945Z 16007KT 9999 FEW008 FEW011 24/22 Q1015
                        TEMPO 9000 BKN007=
201210121930 METAR LMML NIL=
201210121915 METAR LMML 121915Z 15007KT 9999 FEW008 23/22 Q1015 TEMPO
                        9000 BKN007=
201210121900 METAR LMML NIL=
201210121845 METAR LMML 121845Z 11005KT 9999 SCT008 24/22 Q1015 TEMPO
                        9000 BKN008=
201210121830 METAR LMML NIL=
201210121815 METAR LMML 121815Z 10005KT 9999 SCT008 24/22 Q1015 TEMPO
                        9000 BKN008=
201210121800 METAR LMML NIL=
201210121745 METAR LMML 121745Z 08005KT 9999 FEW009 SCT014 24/22 Q1015
                        TEMPO 9000 BKN009=
201210121730 METAR LMML NIL=
201210121715 METAR LMML 121715Z 08004KT 9999 FEW015 25/22 Q1015 NOSIG=
201210121700 METAR LMML NIL=
201210121645 METAR LMML 121645Z 11007KT 080V140 9999 FEW013 25/22 Q1014
                        NOSIG=
201210121630 METAR LMML NIL=
201210121615 METAR LMML 121615Z 08006KT 050V120 9999 FEW012 25/22 Q1015
                        NOSIG=
201210121600 METAR LMML NIL=
201210121545 METAR LMML 121545Z 04008KT 9999 FEW020 25/21 Q1015 NOSIG=
201210121530 METAR LMML NIL=
201210121515 METAR LMML 121515Z 01003KT 270V060 9999 FEW023 26/21 Q1015
                        NOSIG=
201210121500 METAR LMML NIL=
201210121445 METAR LMML 121445Z 24004KT 180V270 9999 FEW020 27/21 Q1014
                        NOSIG=
201210121430 METAR LMML NIL=
201210121415 METAR LMML 121415Z 22004KT 170V280 9999 FEW020 27/21 Q1014
                        NOSIG=
201210121400 METAR LMML NIL=
201210121345 METAR LMML 121345Z 25008KT 9999 FEW020 28/21 Q1014 NOSIG=
201210121330 METAR LMML NIL=
201210121315 METAR LMML 121315Z 26008KT 230V310 9999 FEW019 28/21 Q1014
                        NOSIG=
201210121300 METAR LMML NIL=
201210121245 METAR LMML 121245Z AUTO 24010KT 220V290 9999NDV R31/M0050VP2000N
                        FEW019/// 28/21 Q1014=
201210121230 METAR LMML NIL=
201210121215 METAR LMML 121215Z 24010KT 210V270 9999 SCT018 28/21 Q1015
                        NOSIG=
201210121200 METAR LMML NIL=
201210121145 METAR LMML 121145Z AUTO 24011KT 190V260 9999NDV FEW020///
                        27/21 Q1015 NOSIG=
201210121130 METAR LMML NIL=
201210121115 METAR LMML 121115Z 22010KT 180V260 9999 SCT018 27/22 Q1015
                        NOSIG=
201210121100 METAR LMML NIL=
201210121045 METAR LMML 121045Z 22010KT 190V250 9999 SCT018 27/21 Q1015
                        NOSIG=
201210121030 METAR LMML NIL=
201210121015 METAR LMML 121015Z 22010KT 180V240 9999 FEW019 27/21 Q1015
                        NOSIG=
201210120945 METAR LMML 120945Z 21010KT 180V250 9999 FEW020 27/21 Q1015
                        NOSIG=
201210120930 METAR LMML NIL=
201210120915 METAR LMML 120915Z 22009KT 190V250 9999 FEW019 27/21 Q1015
                        NOSIG=
201210120900 METAR LMML NIL=
201210120845 METAR LMML 120845Z 23009KT 190V250 9999 SCT017 27/21 Q1015
                        NOSIG=
201210120830 METAR LMML NIL=
201210120815 METAR LMML 120815Z 21008KT 170V250 9999 SCT017 26/21 Q1015
                        NOSIG=
201210120800 METAR LMML NIL=
201210120745 METAR LMML 120745Z 21010KT 9999 SCT016 26/21 Q1015 NOSIG=
201210120730 METAR LMML NIL=
201210120715 METAR LMML 120715Z 20007KT 160V220 9999 FEW016 25/21 Q1014
                        NOSIG=
201210120700 METAR LMML NIL=
201210120645 METAR LMML 120645Z 20009KT 9999 FEW015 25/21 Q1014 NOSIG=
201210120630 METAR LMML NIL=
201210120615 METAR LMML 120615Z 20007KT 9999 FEW016 24/21 Q1014 NOSIG=
201210120600 METAR LMML NIL=
201210120545 METAR LMML 120545Z 19005KT 9999 FEW015 23/20 Q1014 NOSIG=
201210120530 METAR LMML NIL=
201210120515 METAR LMML 120515Z 21004KT 9999 SCT014 22/21 Q1014 NOSIG=
201210120500 METAR LMML NIL=
201210120445 METAR LMML 120445Z 19004KT 9999 SCT015 22/21 Q1013 NOSIG=
201210120430 METAR LMML NIL=
201210120415 METAR LMML 120415Z 19005KT 9999 FEW015 22/21 Q1013 NOSIG=
201210120400 METAR LMML NIL=
201210120345 METAR LMML 120345Z 19004KT 9999 FEW015 21/20 Q1013 NOSIG=
201210120330 METAR LMML NIL=
201210120315 METAR LMML 120315Z 19003KT 9999 FEW015 21/20 Q1013 NOSIG=
201210120300 METAR LMML NIL=
201210120245 METAR LMML 120245Z AUTO VRB01KT 7000NDV HZ NCD 22/21 Q1013=
201210120230 METAR LMML NIL=
201210120215 METAR LMML 120215Z AUTO 02001KT 7000NDV HZ FEW140/// 22/21
                        Q1014=
201210120200 METAR LMML NIL=
201210120145 METAR LMML 120145Z AUTO VRB01KT 8000NDV HZ FEW013/// 22/21
                        Q1014=
201210120130 METAR LMML NIL=
201210120115 METAR LMML 120115Z AUTO 01003KT 320V030 9000NDV HZ FEW015///
                        22/21 Q1014=
201210120100 METAR LMML NIL=
201210120045 METAR LMML 120045Z AUTO 20003KT CAVOK 23/21 Q1014=
201210120030 METAR LMML NIL=
201210120015 METAR LMML 120015Z AUTO 21004KT 190V250 CAVOK 23/21 Q1014=
201210120000 METAR LMML NIL=
201210112345 METAR LMML 112345Z AUTO 22005KT CAVOK 23/21 Q1014=
201210112330 METAR LMML NIL=
201210112315 METAR LMML 112315Z AUTO 16004KT 130V190 CAVOK 22/21 Q1013=
201210112300 METAR LMML NIL=
201210112245 METAR LMML 112245Z AUTO 11009KT 9999NDV RA FEW033/// SCT045///
                        22/21 Q1013=
201210112230 METAR LMML NIL=
201210112215 METAR LMML 112215Z AUTO 14004KT CAVOK 21/20 Q1013=
201210112200 METAR LMML NIL=
201210112145 METAR LMML 112145Z AUTO 24002KT CAVOK 22/20 Q1014=
201210112130 METAR LMML NIL=
201210112115 METAR LMML 112115Z AUTO 29005KT CAVOK 23/20 Q1014=
201210112100 METAR LMML NIL=
201210112045 METAR LMML 112045Z AUTO 30005KT 7000NDV HZ NCD 23/20 Q1014=
201210112030 METAR LMML NIL=
201210112015 METAR LMML 112015Z AUTO 30005KT 9999NDV HZ NCD 23/20 Q1014=
201210112000 METAR LMML NIL=
201210111945 METAR LMML 111945Z 26004KT CAVOK 22/20 Q1014 NOSIG=
201210111930 METAR LMML NIL=
201210111915 METAR LMML 111915Z 28005KT CAVOK 23/20 Q1014 NOSIG=
201210111900 METAR LMML NIL=
201210111845 METAR LMML 111845Z 25003KT CAVOK 22/20 Q1014 NOSIG=
201210111830 METAR LMML NIL=
201210111815 METAR LMML 111815Z 28003KT 250V310 9999 FEW025 23/20 Q1013
                        NOSIG=
201210111800 METAR LMML NIL=
201210111745 METAR LMML 111745Z VRB02KT 9999 FEW025 23/20 Q1013 NOSIG=
201210111730 METAR LMML NIL=
201210111715 METAR LMML 111715Z 30005KT 9999 FEW025 23/20 Q1013 NOSIG=
201210111700 METAR LMML NIL=
201210111645 METAR LMML 111645Z 32007KT 9999 FEW025 24/19 Q1013 NOSIG=
201210111630 METAR LMML NIL=
201210111615 METAR LMML 111615Z 32009KT 9999 FEW025 24/19 Q1013 NOSIG=
201210111600 METAR LMML NIL=
201210111545 METAR LMML 111545Z 32009KT 9999 FEW025 25/19 Q1013 NOSIG=
201210111530 METAR LMML NIL=
201210111515 METAR LMML 111515Z 33009KT 280V350 9999 FEW025 26/19 Q1013
                        NOSIG=
201210111500 METAR LMML NIL=
201210111445 METAR LMML 111445Z 33009KT 9999 FEW025 26/19 Q1013 NOSIG=
201210111430 METAR LMML NIL=
201210111415 METAR LMML 111415Z AUTO 31008KT CAVOK 25/18 Q1013 NOSIG=
201210111400 METAR LMML NIL=
201210111345 METAR LMML 111345Z 32009KT 9999 FEW027 26/18 Q1013 NOSIG=
201210111330 METAR LMML NIL=
201210111315 METAR LMML 111315Z 30007KT 9999 FEW027 26/18 Q1012 NOSIG=
201210111300 METAR LMML NIL=
201210111245 METAR LMML 111245Z 30009KT 9999 FEW024 26/19 Q1012 NOSIG=
201210111230 METAR LMML NIL=
201210111215 METAR LMML 111215Z 32009KT 290V350 9999 SCT025 26/19 Q1013
                        NOSIG=
201210111200 METAR LMML NIL=
201210111145 METAR LMML 111145Z 30010KT 9999 SCT025 26/19 Q1013 NOSIG=
201210111130 METAR LMML NIL=
201210111115 METAR LMML 111115Z 30009KT 9999 SCT024 26/18 Q1013 NOSIG=
201210111100 METAR LMML NIL=
201210111045 METAR LMML 111045Z 30009KT 9999 SCT024 25/18 Q1013 NOSIG=
201210111030 METAR LMML NIL=
201210111015 METAR LMML 111015Z 31009KT 270V330 9999 SCT023 25/19 Q1013
                        NOSIG=
201210111000 METAR LMML NIL=
201210110945 METAR LMML 110945Z 32010KT 290V350 9999 FEW025 25/19 Q1013
                        NOSIG=
201210110930 METAR LMML NIL=
201210110915 METAR LMML 110915Z 32009KT 290V350 9999 SCT024 26/18 Q1013
                        NOSIG=
201210110900 METAR LMML NIL=
201210110845 METAR LMML 110845Z 31009KT 9999 SCT024 26/18 Q1013 NOSIG=
201210110830 METAR LMML NIL=
201210110815 METAR LMML 110815Z 31009KT 9999 SCT022 25/19 Q1013 NOSIG=
201210110800 METAR LMML NIL=
201210110745 METAR LMML 110745Z 32009KT 9999 FEW019 25/19 Q1013 NOSIG=
201210110715 METAR LMML 110715Z 33008KT 9999 FEW020 24/20 Q1013 NOSIG=
201210110700 METAR LMML NIL=
201210110645 METAR LMML 110645Z 31005KT 9999 FEW020 23/20 Q1012 NOSIG=
201210110630 METAR LMML NIL=
201210110615 METAR LMML 110615Z 31005KT 9999 FEW020 22/19 Q1012 NOSIG=
201210110545 METAR LMML 110545Z 32008KT 9999 FEW020 22/19 Q1012 NOSIG=
201210110530 METAR LMML NIL=
201210110515 METAR LMML 110515Z 31006KT 9999 FEW020 21/19 Q1012 NOSIG=
201210110500 METAR LMML NIL=
201210110445 METAR LMML 110445Z 33004KT 9999 FEW020 21/19 Q1012 NOSIG=
201210110430 METAR LMML NIL=
201210110415 METAR LMML 110415Z 34006KT 9999 FEW020 20/19 Q1012 NOSIG=
201210110400 METAR LMML NIL=
201210110345 METAR LMML 110345Z 33007KT 9999 FEW020 20/19 Q1012 NOSIG=
201210110330 METAR LMML NIL=
201210110315 METAR LMML 110315Z 33005KT 9999 FEW020 20/18 Q1011 NOSIG=
201210110300 METAR LMML NIL=
201210110245 METAR LMML 110245Z AUTO 32007KT CAVOK 21/19 Q1012=
201210110230 METAR LMML NIL=
201210110215 METAR LMML 110215Z AUTO 32009KT CAVOK 21/19 Q1012=
201210110200 METAR LMML NIL=
201210110145 METAR LMML 110145Z AUTO 32008KT CAVOK 21/19 Q1012=
201210110130 METAR LMML NIL=
201210110115 METAR LMML 110115Z AUTO 32007KT CAVOK 21/19 Q1012=
201210110100 METAR LMML NIL=
201210110045 METAR LMML 110045Z AUTO 32009KT CAVOK 21/19 Q1012=
201210110030 METAR LMML NIL=
201210110015 METAR LMML 110015Z AUTO 33009KT CAVOK 21/19 Q1012=
201210110000 METAR LMML NIL=
201210102345 METAR LMML 102345Z AUTO 33009KT CAVOK 21/19 Q1012=
201210102330 METAR LMML NIL=
201210102315 METAR LMML 102315Z AUTO 33009KT CAVOK 21/19 Q1012=
201210102245 METAR LMML 102245Z AUTO 33009KT CAVOK 22/19 Q1012=
201210102230 METAR LMML NIL=
201210102215 METAR LMML 102215Z AUTO 33011KT CAVOK 22/19 Q1013=
201210102200 METAR LMML NIL=
201210102145 METAR LMML 102145Z AUTO 33013KT CAVOK 22/19 Q1012=
201210102130 METAR LMML NIL=
201210102115 METAR LMML 102115Z AUTO 33011KT CAVOK 22/19 Q1012=
201210102100 METAR LMML NIL=
201210102045 METAR LMML 102045Z AUTO 33014KT CAVOK 22/19 Q1012=
201210102030 METAR LMML NIL=
201210102015 METAR LMML 102015Z AUTO 32011KT CAVOK 22/20 Q1012=
201210102000 METAR LMML NIL=
201210101945 METAR LMML 101945Z 33013KT 9999 FEW020 23/19 Q1012 NOSIG=
201210101930 METAR LMML NIL=
201210101915 METAR LMML 101915Z 33012KT 9999 FEW020 23/19 Q1012 NOSIG=
201210101900 METAR LMML NIL=
201210101845 METAR LMML 101845Z 32012KT 9999 FEW020 23/19 Q1012 NOSIG=
201210101830 METAR LMML NIL=
201210101815 METAR LMML 101815Z 32012KT 9999 FEW020 23/19 Q1011 NOSIG=
201210101800 METAR LMML NIL=
201210101745 METAR LMML 101745Z 32013KT 9999 FEW020 23/19 Q1011 NOSIG=
201210101730 METAR LMML NIL=
201210101715 METAR LMML 101715Z 31015KT 9999 FEW020 23/19 Q1011 NOSIG=
201210101700 METAR LMML NIL=
201210101645 METAR LMML 101645Z 31013KT 9999 FEW020 24/19 Q1011 NOSIG=
201210101630 METAR LMML NIL=
201210101615 METAR LMML 101615Z 30014KT 9999 FEW020 24/19 Q1011 NOSIG=
201210101600 METAR LMML NIL=
201210101545 METAR LMML 101545Z 31014KT 9999 FEW020 25/19 Q1011 NOSIG=
201210101530 METAR LMML NIL=
201210101515 METAR LMML 101515Z 31015KT 9999 FEW025 25/19 Q1011 NOSIG=
201210101500 METAR LMML NIL=
201210101445 METAR LMML 101445Z 30018KT 9999 FEW025 26/19 Q1011 NOSIG=
201210101430 METAR LMML NIL=
201210101415 METAR LMML 101415Z 31017KT 9999 FEW025 26/18 Q1011 NOSIG=
201210101400 METAR LMML NIL=
201210101345 METAR LMML 101345Z 30019KT 9999 FEW025 26/19 Q1011 NOSIG=
201210101330 METAR LMML NIL=
201210101315 METAR LMML 101315Z 30016KT 280V340 9999 FEW025 27/20 Q1011
                        NOSIG=
201210101300 METAR LMML NIL=
201210101245 METAR LMML 101245Z AUTO 32016KT 9999NDV FEW019/// 27/20 Q1012=
201210101230 METAR LMML NIL=
201210101215 METAR LMML 101215Z 30016KT 9999 R31/1100VP2000N FEW022 27/19
                        Q1012 NOSIG=
201210101200 METAR LMML NIL=
201210101145 METAR LMML 101145Z 32016KT 280V340 9999 FEW023 27/20 Q1012
                        NOSIG=
201210101130 METAR LMML NIL=
201210101115 METAR LMML 101115Z 33017KT 9999 SCT021 27/19 Q1013 NOSIG=
201210101100 METAR LMML NIL=
201210101045 METAR LMML 101045Z 30016KT 9999 SCT022 27/19 Q1013 NOSIG=
201210101030 METAR LMML NIL=
201210101015 METAR LMML 101015Z 31016KT 9999 SCT021 27/19 Q1013 NOSIG=
201210101000 METAR LMML NIL=
201210100945 METAR LMML 100945Z 31016KT 280V340 9999 FEW020 27/19 Q1013
                        NOSIG=
201210100930 METAR LMML NIL=
201210100915 METAR LMML 100915Z 30015KT 9999 SCT020 26/19 Q1013 NOSIG=
201210100900 METAR LMML NIL=
201210100845 METAR LMML 100845Z 32013KT 9999 SCT019 26/20 Q1013 NOSIG=
201210100830 METAR LMML NIL=
201210100815 METAR LMML 100815Z 32014KT 9999 SCT019 26/20 Q1013 NOSIG=
201210100800 METAR LMML NIL=
201210100745 METAR LMML 100745Z 32014KT 9999 SCT020 25/20 Q1012 NOSIG=
201210100730 METAR LMML NIL=
201210100715 METAR LMML 100715Z 32015KT 9999 SCT018 25/20 Q1012 NOSIG=
201210100700 METAR LMML NIL=
201210100645 METAR LMML 100645Z 32010KT 9999 SCT017 24/20 Q1012 NOSIG=
201210100630 METAR LMML NIL=
201210100615 METAR LMML 100615Z 32013KT 9999 SCT021 24/20 Q1012 NOSIG=
201210100600 METAR LMML NIL=
201210100545 METAR LMML 100545Z 32011KT 9999 SCT021 23/20 Q1012 NOSIG=
201210100530 METAR LMML NIL=
201210100515 METAR LMML 100515Z 32012KT 9000 SCT021 23/20 Q1011 NOSIG=
201210100500 METAR LMML NIL=
201210100445 METAR LMML 100445Z 32011KT 9999 SCT022 23/20 Q1012 NOSIG=
201210100430 METAR LMML NIL=
201210100415 METAR LMML 100415Z 33011KT 9999 SCT025 23/20 Q1012 NOSIG=
201210100400 METAR LMML NIL=
201210100345 METAR LMML 100345Z 33014KT 9999 SCT022 23/19 Q1012 NOSIG=
201210100315 METAR LMML 100315Z 31014KT 9999 SCT018 23/20 Q1012 NOSIG=
201210100300 METAR LMML NIL=
201210100245 METAR LMML 100245Z AUTO 31013KT 9999NDV BKN024/// 23/19 Q1012=
201210100230 METAR LMML NIL=
201210100215 METAR LMML 100215Z AUTO 31012KT 9999NDV SCT022/// 23/19 Q1012=
201210100200 METAR LMML NIL=
201210100145 METAR LMML 100145Z AUTO 31015KT 9999NDV FEW019/// 23/19 Q1012=
201210100130 METAR LMML NIL=
201210100115 METAR LMML 100115Z AUTO 32012KT 9999NDV FEW015/// 23/20 Q1012=
201210100100 METAR LMML NIL=
201210100045 METAR LMML 100045Z AUTO 31012KT CAVOK 23/20 Q1012=
201210100030 METAR LMML NIL=
201210100015 METAR LMML 100015Z AUTO 30013KT CAVOK 23/20 Q1012=
201210100000 METAR LMML NIL=
201210092345 METAR LMML 092345Z AUTO 30011KT CAVOK 23/20 Q1012=
201210092330 METAR LMML NIL=
201210092315 METAR LMML 092315Z AUTO 31012KT CAVOK 22/20 Q1012=
201210092245 METAR LMML 092245Z AUTO 28007KT CAVOK 22/20 Q1013=
201210092230 METAR LMML NIL=
201210092215 METAR LMML 092215Z AUTO 29006KT 250V310 CAVOK 22/20 Q1013=
201210092200 METAR LMML NIL=
201210092145 METAR LMML 092145Z AUTO 26003KT 230V290 CAVOK 22/19 Q1013=
201210092130 METAR LMML NIL=
201210092115 METAR LMML 092115Z AUTO 30003KT 260V330 CAVOK 22/19 Q1013=
201210092100 METAR LMML NIL=
201210092045 METAR LMML 092045Z AUTO 30005KT CAVOK 22/19 Q1013=
201210092030 METAR LMML NIL=
201210092015 METAR LMML 092015Z AUTO 32004KT CAVOK 22/19 Q1014=
201210092000 METAR LMML NIL=
201210091945 METAR LMML 091945Z 32007KT 9999 FEW020 22/19 Q1014 NOSIG=
201210091930 METAR LMML NIL=
201210091915 METAR LMML 091915Z 32005KT CAVOK 22/19 Q1014 NOSIG=
201210091845 METAR LMML 091845Z 32004KT 9999 FEW020 22/19 Q1014 NOSIG=
201210091830 METAR LMML NIL=
201210091815 METAR LMML 091815Z 31006KT 9999 FEW017 23/19 Q1014 NOSIG=
201210091800 METAR LMML NIL=
201210091745 METAR LMML 091745Z 31007KT 9999 FEW017 23/19 Q1014 NOSIG=
201210091730 METAR LMML NIL=
201210091715 METAR LMML 091715Z 31008KT 9999 FEW017 23/20 Q1013 NOSIG=
201210091645 METAR LMML 091645Z 32008KT 9999 SCT017 24/20 Q1013 NOSIG=
201210091630 METAR LMML NIL=
201210091615 METAR LMML 091615Z 35007KT 9999 SCT020 24/20 Q1013 NOSIG=
201210091600 METAR LMML NIL=
201210091545 METAR LMML 091545Z 35008KT 320V030 9999 FEW023 25/20 Q1013
                        NOSIG=
201210091530 METAR LMML NIL=
201210091515 METAR LMML 091515Z 36009KT 330V040 9999 FEW025 26/19 Q1013
                        NOSIG=
201210091445 METAR LMML 091445Z AUTO 35009KT CAVOK 26/19 Q1013 NOSIG=
201210091415 METAR LMML 091415Z 01009KT 330V040 9999 SCT025 27/18 Q1013
                        NOSIG=
201210091400 METAR LMML NIL=
201210091345 METAR LMML 091345Z 01008KT 320V030 9999 SCT025 27/18 Q1013
                        NOSIG=
201210091315 METAR LMML 091315Z 01009KT 9999 SCT025 27/19 Q1013 NOSIG=
201210091300 METAR LMML NIL=
201210091245 METAR LMML 091245Z 01009KT 330V040 9999 SCT025 27/19 Q1013
                        NOSIG=
201210091230 METAR LMML NIL=
201210091215 METAR LMML 091215Z 04007KT 360V080 9999 SCT026 27/19 Q1013
                        NOSIG=
201210091200 METAR LMML NIL=
201210091145 METAR LMML 091145Z 07006KT 020V100 9999 SCT025 27/20 Q1013
                        NOSIG=
201210091130 METAR LMML NIL=
201210091115 METAR LMML 091115Z 05007KT 010V100 9999 SCT025 27/20 Q1014
                        NOSIG=
201210091100 METAR LMML NIL=
201210091045 METAR LMML 091045Z 04006KT 010V070 9999 SCT025 27/20 Q1014
                        NOSIG=
201210091030 METAR LMML NIL=
201210091015 METAR LMML 091015Z 02008KT 9999 SCT025 27/20 Q1014 NOSIG=
201210091000 METAR LMML NIL=
201210090945 METAR LMML 090945Z 05006KT 350V080 9999 SCT021 27/21 Q1014
                        NOSIG=
201210090930 METAR LMML NIL=
201210090915 METAR LMML 090915Z 03006KT 350V070 9999 SCT022 26/21 Q1014
                        NOSIG=
201210090900 METAR LMML NIL=
201210090845 METAR LMML 090845Z 35007KT 320V020 9999 SCT020 27/21 Q1014
                        NOSIG=
201210090830 METAR LMML NIL=
201210090815 METAR LMML 090815Z 30007KT 260V320 9999 SCT018 26/21 Q1014
                        NOSIG=
201210090800 METAR LMML NIL=
201210090745 METAR LMML 090745Z 31009KT 9999 SCT020 25/20 Q1014 NOSIG=
201210090730 METAR LMML NIL=
201210090715 METAR LMML 090715Z 31008KT 9999 FEW018 25/20 Q1014 NOSIG=
201210090700 METAR LMML NIL=
201210090645 METAR LMML 090645Z 30005KT 250V320 9999 FEW016 24/21 Q1014
                        NOSIG=
201210090630 METAR LMML NIL=
201210090615 METAR LMML 090615Z 28004KT 240V320 9999 FEW015 23/21 Q1014
                        NOSIG=
201210090600 METAR LMML NIL=
201210090545 METAR LMML 090545Z 30006KT 9999 FEW016 22/20 Q1013 NOSIG=
201210090530 METAR LMML NIL=
201210090515 METAR LMML 090515Z 30006KT 9999 FEW015 22/20 Q1013 NOSIG=
201210090500 METAR LMML NIL=
201210090445 METAR LMML 090445Z 31005KT 9999 FEW015 22/20 Q1014 NOSIG=
201210090430 METAR LMML NIL=
201210090415 METAR LMML 090415Z 30006KT 9999 FEW015 22/20 Q1013 NOSIG=
201210090400 METAR LMML NIL=
201210090345 METAR LMML 090345Z 29006KT 9999 FEW015 22/20 Q1013 NOSIG=
201210090330 METAR LMML NIL=
201210090315 METAR LMML 090315Z 30006KT 9999 FEW015 22/20 Q1013 NOSIG=
201210090300 METAR LMML NIL=
201210090245 METAR LMML 090245Z AUTO 29004KT CAVOK 22/20 Q1013=
201210090230 METAR LMML NIL=
201210090215 METAR LMML 090215Z AUTO 31005KT 9999NDV SCT043/// 22/20 Q1014=
201210090200 METAR LMML NIL=
201210090145 METAR LMML 090145Z AUTO 32006KT 9999NDV FEW013/// 22/20 Q1014=
201210090130 METAR LMML NIL=
201210090115 METAR LMML 090115Z AUTO 31006KT CAVOK 22/21 Q1014=
201210090100 METAR LMML NIL=
201210090045 METAR LMML 090045Z AUTO 31005KT 9999NDV FEW013/// 23/21 Q1014=
201210090030 METAR LMML NIL=
201210090015 METAR LMML 090015Z AUTO 32006KT 9999NDV FEW013/// 22/21 Q1014=
201210090000 METAR LMML NIL=
201210082345 METAR LMML 082345Z AUTO 32007KT CAVOK 22/21 Q1014=
201210082330 METAR LMML NIL=
201210082315 METAR LMML 082315Z AUTO 31005KT CAVOK 23/21 Q1014=
201210082300 METAR LMML NIL=
201210082245 METAR LMML 082245Z AUTO 31005KT 9999NDV SCT012/// 23/21 Q1015=
201210082230 METAR LMML NIL=
201210082215 METAR LMML 082215Z AUTO 29005KT CAVOK 22/20 Q1015=
201210082200 METAR LMML NIL=
201210082145 METAR LMML 082145Z AUTO 30004KT CAVOK 22/20 Q1015=
201210082130 METAR LMML NIL=
201210082115 METAR LMML 082115Z AUTO 32004KT CAVOK 22/20 Q1015=
201210082100 METAR LMML NIL=
201210082045 METAR LMML 082045Z AUTO 32005KT CAVOK 22/20 Q1015=
201210082030 METAR LMML NIL=
201210082015 METAR LMML 082015Z AUTO 32006KT CAVOK 22/20 Q1015=
201210082000 METAR LMML NIL=
201210081945 METAR LMML 081945Z 33006KT 9999 FEW017 22/19 Q1015 NOSIG=
201210081930 METAR LMML NIL=
201210081915 METAR LMML 081915Z 32007KT 9999 FEW017 22/19 Q1015 NOSIG=
201210081900 METAR LMML NIL=
201210081845 METAR LMML 081845Z 33009KT 9999 FEW017 23/19 Q1015 NOSIG=
201210081830 METAR LMML NIL=
201210081815 METAR LMML 081815Z 33010KT 9999 FEW017 23/19 Q1015 NOSIG=
201210081800 METAR LMML NIL=
201210081745 METAR LMML 081745Z 34012KT 9999 FEW017 23/19 Q1015 NOSIG=
201210081730 METAR LMML NIL=
201210081715 METAR LMML 081715Z 33012KT 9999 FEW017 23/20 Q1015 NOSIG=
201210081700 METAR LMML NIL=
201210081645 METAR LMML 081645Z 33012KT 9999 SCT020 23/19 Q1014 NOSIG=
201210081630 METAR LMML NIL=
201210081615 METAR LMML 081615Z 32013KT 9999 FEW024 24/19 Q1014 NOSIG=
201210081600 METAR LMML NIL=
201210081545 METAR LMML 081545Z 31016KT 9999 FEW023 25/19 Q1014 NOSIG=
201210081515 METAR LMML 081515Z 31018KT 9999 FEW024 25/19 Q1014 NOSIG=
201210081500 METAR LMML NIL=
201210081445 METAR LMML 081445Z 31017KT 9999 FEW024 26/19 Q1014 NOSIG=
201210081430 METAR LMML NIL=
201210081415 METAR LMML 081415Z 32018KT 9999 SCT022 26/18 Q1014 NOSIG=
201210081345 METAR LMML 081345Z 32019KT 9999 SCT022 26/19 Q1014 NOSIG=
201210081330 METAR LMML NIL=
201210081315 METAR LMML 081315Z 32017KT 9999 SCT024 27/19 Q1014 NOSIG=
201210081300 METAR LMML NIL=
201210081245 METAR LMML 081245Z 32015KT 9999 SCT027 27/19 Q1014 NOSIG=
201210081215 METAR LMML 081215Z 31014KT 9999 SCT027 27/19 Q1015 NOSIG=
201210081200 METAR LMML NIL=
201210081145 METAR LMML 081145Z 30015KT 9999 SCT025 27/19 Q1015 NOSIG=
201210081115 METAR LMML 081115Z 31015KT 9999 SCT024 27/19 Q1015 NOSIG=
201210081100 METAR LMML NIL=
201210081045 METAR LMML 081045Z 31015KT 9999 SCT024 27/19 Q1015 NOSIG=
201210081030 METAR LMML NIL=
201210081015 METAR LMML 081015Z 32015KT 9999 SCT022 26/19 Q1016 NOSIG=
201210080945 METAR LMML 080945Z 32015KT 9999 SCT022 27/19 Q1016 NOSIG=
201210080930 METAR LMML NIL=
201210080915 METAR LMML 080915Z 32014KT 290V350 9999 SCT021 27/20 Q1016
                        NOSIG=
201210080900 METAR LMML NIL=
201210080845 METAR LMML 080845Z 32015KT 9999 SCT020 26/20 Q1016 NOSIG=
201210080830 METAR LMML NIL=
201210080815 METAR LMML 080815Z 32014KT 9999 SCT021 25/19 Q1016 NOSIG=
201210080800 METAR LMML NIL=
201210080745 METAR LMML 080745Z 33015KT 9999 SCT020 25/20 Q1016 NOSIG=
201210080730 METAR LMML NIL=
201210080715 METAR LMML 080715Z 33014KT 9999 SCT021 25/20 Q1016 NOSIG=
201210080700 METAR LMML NIL=
201210080645 METAR LMML 080645Z 33013KT 9999 SCT018 24/20 Q1015 NOSIG=
201210080615 METAR LMML 080615Z 32011KT 9999 FEW019 23/20 Q1015 NOSIG=
201210080600 METAR LMML NIL=
201210080545 METAR LMML 080545Z 33011KT 9999 SCT018 23/20 Q1015 NOSIG=
201210080530 METAR LMML NIL=
201210080515 METAR LMML 080515Z 32015KT 9999 SCT020 23/19 Q1015 NOSIG=
201210080500 METAR LMML NIL=
201210080445 METAR LMML 080445Z 32017KT 9999 FEW019 23/19 Q1015 NOSIG=
201210080430 METAR LMML NIL=
201210080415 METAR LMML 080415Z 33013KT 9999 FEW019 23/19 Q1015 NOSIG=
201210080400 METAR LMML NIL=
201210080345 METAR LMML 080345Z 32015KT 9999 SCT020 23/19 Q1015 NOSIG=
201210080330 METAR LMML NIL=
201210080315 METAR LMML 080315Z 32012KT 9999 SCT014 23/20 Q1015 NOSIG=
201210080300 METAR LMML NIL=
201210080245 METAR LMML 080245Z AUTO 31010KT CAVOK 23/20 Q1015=
201210080230 METAR LMML NIL=
201210080215 METAR LMML 080215Z AUTO 30009KT 9999NDV FEW017/// 23/20 Q1015=
201210080200 METAR LMML NIL=
201210080145 METAR LMML 080145Z AUTO 30010KT 9999NDV FEW018/// 23/20 Q1016=
201210080130 METAR LMML NIL=
201210080115 METAR LMML 080115Z AUTO 30012KT 9999NDV SCT017/// SCT020///
                        23/20 Q1016=
201210080100 METAR LMML NIL=
201210080045 METAR LMML 080045Z AUTO 32011KT CAVOK 23/21 Q1016=
201210080030 METAR LMML NIL=
201210080015 METAR LMML 080015Z AUTO 30010KT 9999NDV SCT013/// SCT016///
                        24/21 Q1017=
201210072345 METAR LMML 072345Z AUTO 30010KT 250V320 9999NDV FEW014///
                        24/21 Q1017=
201210072330 METAR LMML NIL=
201210072315 METAR LMML 072315Z AUTO 28008KT 250V310 4200NDV R13/1100VP2000N
                        -DZ NCD 24/21 Q1017=
201210072300 METAR LMML NIL=
201210072245 METAR LMML 072245Z AUTO 28009KT 2900NDV -DZ NCD 24/21 Q1017=
201210072230 METAR LMML NIL=
201210072215 METAR LMML 072215Z AUTO 28008KT 3000NDV -DZ NCD 24/21 Q1017=
201210072200 METAR LMML NIL=
201210072145 METAR LMML 072145Z AUTO 29009KT 6000NDV -DZ FEW014/// 24/21
                        Q1017=
201210072130 METAR LMML NIL=
201210072115 METAR LMML 072115Z AUTO 29008KT 8000NDV HZ FEW014/// 24/21
                        Q1017=
201210072100 METAR LMML NIL=
201210072045 METAR LMML 072045Z AUTO 29006KT 250V320 6000NDV HZ SCT017///
                        24/21 Q1017=
201210072030 METAR LMML NIL=
201210072015 METAR LMML 072015Z AUTO 28006KT 3500NDV R13/1100VP2000N HZ
                        FEW015/// 24/21 Q1017=
201210072000 METAR LMML NIL=
201210071945 METAR LMML 071945Z 29007KT 9999 FEW018 24/21 Q1018 NOSIG=
201210071930 METAR LMML NIL=
201210071915 METAR LMML 071915Z 29007KT 9999 FEW018 24/21 Q1018 NOSIG=
201210071900 METAR LMML NIL=
201210071845 METAR LMML 071845Z 30007KT 9999 FEW016 24/21 Q1018 NOSIG=
201210071830 METAR LMML NIL=
201210071815 METAR LMML 071815Z 30008KT 9999 FEW016 24/21 Q1018 NOSIG=
201210071800 METAR LMML NIL=
201210071745 METAR LMML 071745Z 31010KT 9999 FEW016 24/20 Q1018 NOSIG=
201210071730 METAR LMML NIL=
201210071715 METAR LMML 071715Z 29007KT 260V320 9999 FEW016 24/21 Q1017
                        NOSIG=
201210071700 METAR LMML NIL=
201210071645 METAR LMML 071645Z 30009KT 9999 FEW018 24/20 Q1018 NOSIG=
201210071630 METAR LMML NIL=
201210071615 METAR LMML 071615Z 30011KT 9999 FEW018 25/20 Q1018 NOSIG=
201210071600 METAR LMML NIL=
201210071545 METAR LMML 071545Z 30011KT 9999 SCT018 25/20 Q1018 NOSIG=
201210071530 METAR LMML NIL=
201210071515 METAR LMML 071515Z 29010KT 260V320 9999 SCT021 26/20 Q1018
                        NOSIG=
201210071500 METAR LMML NIL=
201210071445 METAR LMML 071445Z 30011KT 9999 SCT021 26/20 Q1018 NOSIG=
201210071430 METAR LMML NIL=
201210071415 METAR LMML 071415Z 28012KT 250V320 9999 FEW022 26/19 Q1018
                        NOSIG=
201210071400 METAR LMML NIL=
201210071345 METAR LMML 071345Z 27011KT 230V300 9999 FEW023 26/19 Q1018
                        NOSIG=
201210071330 METAR LMML NIL=
201210071315 METAR LMML 071315Z 27012KT 9999 FEW023 26/19 Q1018 NOSIG=
201210071300 METAR LMML NIL=
201210071245 METAR LMML 071245Z AUTO 27011KT 230V300 CAVOK 27/19 Q1018=
201210071230 METAR LMML NIL=
201210071215 METAR LMML 071215Z AUTO 28010KT 230V320 CAVOK 27/18 Q1019=
201210071200 METAR LMML NIL=
201210071145 METAR LMML 071145Z 25011KT 230V290 9999 FEW030 27/18 Q1019
                        NOSIG=
201210071130 METAR LMML NIL=
201210071115 METAR LMML 071115Z 25009KT 230V290 9999 FEW030 27/18 Q1019
                        NOSIG=
201210071100 METAR LMML NIL=
201210071045 METAR LMML 071045Z 25009KT 220V290 9999 FEW029 27/19 Q1020
                        NOSIG=
201210071030 METAR LMML NIL=
201210071015 METAR LMML 071015Z 28008KT 240V310 9999 FEW029 27/18 Q1020
                        NOSIG=
201210071000 METAR LMML NIL=
201210070945 METAR LMML 070945Z 31009KT 9999 FEW029 27/18 Q1020 NOSIG=
201210070930 METAR LMML NIL=
201210070915 METAR LMML 070915Z 31007KT 270V330 9999 FEW028 26/18 Q1020
                        NOSIG=
201210070900 METAR LMML NIL=
201210070845 METAR LMML 070845Z 31007KT 9999 FEW030 26/18 Q1020 NOSIG=
201210070830 METAR LMML NIL=
201210070815 METAR LMML 070815Z 28009KT 9999 FEW030 26/18 Q1020 NOSIG=
201210070800 METAR LMML NIL=
201210070745 METAR LMML 070745Z AUTO 30010KT 260V330 CAVOK 26/18 Q1020
                        NOSIG=
201210070730 METAR LMML NIL=
201210070715 METAR LMML 070715Z 30007KT 9999 FEW025 25/19 Q1020 NOSIG=
201210070700 METAR LMML NIL=
201210070645 METAR LMML 070645Z 28004KT 9999 FEW025 24/19 Q1020 NOSIG=
201210070630 METAR LMML NIL=
201210070615 METAR LMML 070615Z 29006KT 9999 FEW025 22/19 Q1020 NOSIG=
201210070600 METAR LMML NIL=
201210070545 METAR LMML 070545Z 29006KT 9999 FEW025 21/18 Q1020 NOSIG=
201210070530 METAR LMML NIL=
201210070515 METAR LMML 070515Z 29005KT 9999 FEW025 20/18 Q1020 NOSIG=
201210070500 METAR LMML NIL=
201210070445 METAR LMML 070445Z 30005KT 9000 SCT023 20/19 Q1019 NOSIG=
201210070430 METAR LMML NIL=
201210070415 METAR LMML 070415Z 29004KT 9999 FEW022 20/18 Q1019 NOSIG=
201210070400 METAR LMML NIL=
201210070345 METAR LMML 070345Z 29003KT CAVOK 19/18 Q1019 NOSIG=
201210070330 METAR LMML NIL=
201210070315 METAR LMML 070315Z 28004KT CAVOK 20/18 Q1019 NOSIG=
201210070300 METAR LMML NIL=
201210070245 METAR LMML 070245Z AUTO 29004KT CAVOK 20/18 Q1019=
201210070230 METAR LMML NIL=
201210070215 METAR LMML 070215Z AUTO 31003KT CAVOK 20/18 Q1020=
201210070200 METAR LMML NIL=
201210070145 METAR LMML 070145Z AUTO 30003KT CAVOK 20/19 Q1020=
201210070130 METAR LMML NIL=
201210070115 METAR LMML 070115Z AUTO 29003KT CAVOK 20/19 Q1020=
201210070100 METAR LMML NIL=
201210070045 METAR LMML 070045Z AUTO 33002KT 8000NDV NCD 20/19 Q1020=
201210070030 METAR LMML NIL=
201210070015 METAR LMML 070015Z AUTO 32004KT 6000NDV NCD 21/19 Q1020=
201210070000 METAR LMML NIL=
201210062345 METAR LMML 062345Z AUTO 32002KT 5000NDV HZ BKN020/// 21/19
                        Q1021=
201210062330 METAR LMML NIL=
201210062315 METAR LMML 062315Z AUTO 32003KT 280V340 8000NDV HZ BKN020///
                        BKN024/// OVC028/// 20/18 Q1021=
201210062300 METAR LMML NIL=
201210062245 METAR LMML 062245Z AUTO VRB01KT 9000NDV SCT023/// 20/19 Q1021=
201210062230 METAR LMML NIL=
201210062215 METAR LMML 062215Z AUTO 16003KT 9000NDV NCD 21/19 Q1021=
201210062200 METAR LMML NIL=
201210062145 METAR LMML 062145Z AUTO 15003KT 9999NDV HZ NCD 21/19 Q1021=
201210062130 METAR LMML NIL=
201210062115 METAR LMML 062115Z AUTO 15003KT CAVOK 21/19 Q1021=
201210062100 METAR LMML NIL=
201210062045 METAR LMML 062045Z AUTO 16003KT CAVOK 22/19 Q1021=
201210062030 METAR LMML NIL=
201210062015 METAR LMML 062015Z 15003KT 9999 FEW020 22/19 Q1021 NOSIG=
201210062000 METAR LMML NIL=
201210061945 METAR LMML 061945Z 16003KT 9999 FEW020 22/19 Q1021 NOSIG=
201210061930 METAR LMML NIL=
201210061915 METAR LMML 061915Z 16004KT 9999 FEW020 22/19 Q1021 NOSIG=
201210061900 METAR LMML NIL=
201210061845 METAR LMML 061845Z 16003KT 9999 FEW020 22/19 Q1021 NOSIG=
201210061830 METAR LMML NIL=
201210061815 METAR LMML 061815Z 14005KT 9999 FEW020 22/19 Q1021 NOSIG=
201210061800 METAR LMML NIL=
201210061745 METAR LMML 061745Z 14005KT 9999 FEW020 22/19 Q1021 NOSIG=
201210061730 METAR LMML NIL=
201210061715 METAR LMML 061715Z 15005KT 9999 BKN020 22/19 Q1020 NOSIG=
201210061700 METAR LMML NIL=
201210061645 METAR LMML 061645Z 15005KT 9999 SCT018 23/19 Q1020 NOSIG=
201210061630 METAR LMML NIL=
201210061615 METAR LMML 061615Z 16004KT 110V220 9999 SCT020 24/19 Q1020
                        NOSIG=
201210061600 METAR LMML NIL=
201210061545 METAR LMML 061545Z 15003KT 110V200 9999 SCT020 24/19 Q1020
                        NOSIG=
201210061530 METAR LMML NIL=
201210061515 METAR LMML 061515Z 17004KT 060V220 9999 SCT021 25/19 Q1020
                        NOSIG=
201210061500 METAR LMML NIL=
201210061445 METAR LMML 061445Z 12006KT 090V160 9999 SCT021 25/19 Q1020
                        NOSIG=
201210061430 METAR LMML NIL=
201210061415 METAR LMML 061415Z 14005KT 090V220 9999 SCT022 25/19 Q1020
                        NOSIG=
201210061400 METAR LMML NIL=
201210061345 METAR LMML 061345Z VRB05KT 9999 SCT023 24/19 Q1021 NOSIG=
201210061330 METAR LMML NIL=
201210061315 METAR LMML 061315Z VRB03KT 9999 BKN022 24/19 Q1021 NOSIG=
201210061300 METAR LMML NIL=
201210061245 METAR LMML 061245Z AUTO VRB03KT 9999NDV OVC022/// 25/19 Q1021=
201210061230 METAR LMML NIL=
201210061215 METAR LMML 061215Z 14006KT 9999 BKN023 25/19 Q1021 NOSIG=
201210061200 METAR LMML NIL=
201210061145 METAR LMML 061145Z 15006KT 120V190 9999 SCT023 26/19 Q1021
                        NOSIG=
201210061130 METAR LMML NIL=
201210061115 METAR LMML 061115Z 14005KT 030V190 9999 SCT023 26/19 Q1021
                        NOSIG=
201210061045 METAR LMML 061045Z 11006KT 070V150 9999 SCT020 24/19 Q1022
                        NOSIG=
201210061030 METAR LMML NIL=
201210061015 METAR LMML 061015Z 12007KT 090V170 9999 SCT019 25/19 Q1022
                        NOSIG=
201210061000 METAR LMML NIL=
201210060945 METAR LMML 060945Z 11007KT 9999 SCT022 25/19 Q1022 NOSIG=
201210060930 METAR LMML NIL=
201210060915 METAR LMML 060915Z 08004KT 350V130 9999 SCT019 25/19 Q1022
                        NOSIG=
201210060900 METAR LMML NIL=
201210060845 METAR LMML 060845Z VRB02KT 9999 SCT019 25/19 Q1022 NOSIG=
201210060830 METAR LMML NIL=
201210060815 METAR LMML 060815Z 08003KT 040V150 9999 FEW018 24/19 Q1022
                        NOSIG=
201210060800 METAR LMML NIL=
201210060745 METAR LMML 060745Z 07003KT 360V150 9999 FEW017 24/20 Q1021
                        NOSIG=
201210060730 METAR LMML NIL=
201210060715 METAR LMML 060715Z 09004KT 070V130 9999 FEW014 24/20 Q1021
                        NOSIG=
201210060700 METAR LMML NIL=
201210060645 METAR LMML 060645Z VRB02KT 7000 FEW018 23/20 Q1021 BECMG
                        9999=
201210060630 METAR LMML NIL=
201210060615 METAR LMML 060615Z VRB01KT 7000 FEW018 21/20 Q1021 BECMG
                        9999=
201210060600 METAR LMML NIL=
201210060545 METAR LMML 060545Z 15002KT 7000 MIFG FEW018 19/19 Q1021 BECMG
                        9999=
201210060530 METAR LMML NIL=
201210060515 METAR LMML 060515Z 14002KT 3000 MIFG FEW018 19/19 Q1021 BECMG
                        7000=
201210060500 METAR LMML NIL=
201210060445 METAR LMML 060445Z VRB01KT 4000 MIFG FEW015 19/19 Q1020 BECMG
                        7000=
201210060430 METAR LMML NIL=
201210060415 METAR LMML 060415Z VRB01KT 4000 R31/1000V1700D BR FEW015
                        19/19 Q1020 BECMG 7000=
201210060400 METAR LMML NIL=
201210060345 METAR LMML 060345Z 00000KT 4000 BR FEW015 19/19 Q1020 BECMG
                        7000=
201210060330 METAR LMML NIL=
201210060315 METAR LMML 060315Z VRB01KT 4000 BR FEW015 20/19 Q1020 NOSIG=
201210060300 METAR LMML NIL=
201210060245 METAR LMML 060245Z 00000KT 4500 BR FEW016 19/19 Q1020=
201210060230 METAR LMML NIL=
201210060215 METAR LMML 060215Z AUTO 16002KT 3000NDV HZ NCD 20/19 Q1020=
201210060200 METAR LMML NIL=
201210060145 METAR LMML 060145Z AUTO 10001KT 1400NDV R13/P2000N R31/P2000N
                        HZ NCD 20/19 Q1020=
201210060130 METAR LMML NIL=
201210060115 METAR LMML 060115Z AUTO VRB01KT 2100NDV HZ NCD 20/19 Q1020=
201210060100 METAR LMML NIL=
201210060045 METAR LMML 060045Z AUTO 00000KT 2600NDV HZ FEW021/// 20/19
                        Q1020=
201210060030 METAR LMML NIL=
201210060015 METAR LMML 060015Z AUTO VRB01KT 3000NDV HZ NCD 20/19 Q1021=
201210060000 METAR LMML NIL=
201210052345 METAR LMML 052345Z AUTO 00000KT 3800NDV HZ BKN022/// 20/19
                        Q1021=
201210052330 METAR LMML NIL=
201210052315 METAR LMML 052315Z AUTO VRB01KT 5000NDV HZ NCD 20/19 Q1021=
201210052245 METAR LMML 052245Z AUTO 11002KT 4700NDV HZ NCD 20/19 Q1021=
201210052230 METAR LMML NIL=
201210052215 METAR LMML 052215Z AUTO 14002KT 6000NDV HZ NCD 21/19 Q1021=
201210052145 METAR LMML 052145Z AUTO VRB02KT 7000NDV NCD 21/19 Q1021=
201210052130 METAR LMML NIL=
201210052115 METAR LMML 052115Z AUTO 10003KT 8000NDV SCT025/// 21/19 Q1021=
201210052100 METAR LMML NIL=
201210052045 METAR LMML 052045Z AUTO 09003KT 7000NDV FEW025/// 22/19 Q1021=
201210052015 METAR LMML 052015Z AUTO 09003KT 7000NDV NCD 22/20 Q1020=
201210051945 METAR LMML 051945Z 09003KT 9999 FEW015 22/20 Q1020 NOSIG=
201210051930 METAR LMML NIL=
201210051915 METAR LMML 051915Z 09003KT 9999 FEW015 22/20 Q1020 NOSIG=
201210051845 METAR LMML 051845Z 09004KT 9999 FEW020 22/20 Q1020 NOSIG=
201210051830 METAR LMML NIL=
201210051815 METAR LMML 051815Z 09004KT 9999 FEW015 22/20 Q1020 NOSIG=
201210051800 METAR LMML NIL=
201210051745 METAR LMML 051745Z 10004KT 9999 FEW020 22/20 Q1020 NOSIG=
201210051730 METAR LMML NIL=
201210051715 METAR LMML 051715Z 09004KT 9999 FEW022 23/20 Q1020 NOSIG=
201210051700 METAR LMML NIL=
201210051645 METAR LMML 051645Z 11004KT 080V150 9999 FEW021 23/20 Q1020
                        NOSIG=
201210051630 METAR LMML NIL=
201210051615 METAR LMML 051615Z 06004KT 9999 FEW025 24/20 Q1020 NOSIG=
201210051600 METAR LMML NIL=
201210051545 METAR LMML 051545Z 05006KT 9999 FEW029 25/20 Q1019 NOSIG=
201210051530 METAR LMML NIL=
201210051515 METAR LMML 051515Z VRB03KT 9999 SCT022 25/20 Q1019 NOSIG=
201210051500 METAR LMML NIL=
201210051445 METAR LMML 051445Z 06006KT 030V090 9999 SCT025 25/20 Q1019
                        NOSIG=
201210051430 METAR LMML NIL=
201210051415 METAR LMML 051415Z 04007KT 9999 BKN026 25/20 Q1020 NOSIG=
201210051400 METAR LMML NIL=
201210051345 METAR LMML 051345Z AUTO 06007KT 030V090 CAVOK 25/20 Q1020=
201210051330 METAR LMML NIL=
201210051315 METAR LMML 051315Z AUTO 20004KT 160V260 9999NDV BKN025///
                        OVC028/// 26/20 Q1020=
201210051300 METAR LMML NIL=
201210051245 METAR LMML 051245Z 14004KT 060V180 9999 BKN018 25/20 Q1020
                        NOSIG=
201210051230 METAR LMML NIL=
201210051215 METAR LMML 051215Z 09003KT 060V130 9999 BKN016 25/20 Q1020
                        NOSIG=
201210051200 METAR LMML NIL=
201210051145 METAR LMML 051145Z AUTO 09005KT 060V130 9999NDV SCT017///
                        SCT019/// BKN022/// 25/20 Q1020 NOSIG=
201210051130 METAR LMML NIL=
201210051115 METAR LMML 051115Z 19004KT 130V280 9999 BKN021 25/20 Q1020
                        NOSIG=
201210051100 METAR LMML NIL=
201210051045 METAR LMML 051045Z VRB02KT 9999 BKN021 25/20 Q1020 NOSIG=
201210051030 METAR LMML NIL=
201210051015 METAR LMML 051015Z 04006KT 350V070 9999 BKN020 25/20 Q1020
                        NOSIG=
201210051000 METAR LMML NIL=
201210050945 METAR LMML 050945Z 08003KT 360V140 9999 BKN021 25/20 Q1020
                        NOSIG=
201210050930 METAR LMML NIL=
201210050915 METAR LMML 050915Z 05005KT 340V080 9999 SCT020 26/20 Q1020
                        NOSIG=
201210050900 METAR LMML NIL=
201210050845 METAR LMML 050845Z 04005KT 350V070 9999 SCT020 26/20 Q1020
                        NOSIG=
201210050830 METAR LMML NIL=
201210050815 METAR LMML 050815Z 08004KT 060V120 9999 SCT017 25/20 Q1020
                        NOSIG=
201210050800 METAR LMML NIL=
201210050745 METAR LMML 050745Z VRB01KT 9999 SCT017 25/20 Q1020 NOSIG=
201210050730 METAR LMML NIL=
201210050715 METAR LMML 050715Z 06003KT 020V110 9999 FEW027 25/20 Q1020
                        NOSIG=
201210050700 METAR LMML NIL=
201210050645 METAR LMML 050645Z VRB02KT 9999 FEW027 24/20 Q1019 NOSIG=
201210050630 METAR LMML NIL=
201210050615 METAR LMML 050615Z 28001KT 9999 FEW027 23/19 Q1019 NOSIG=
201210050600 METAR LMML NIL=
201210050545 METAR LMML 050545Z 29003KT 9999 FEW027 20/18 Q1019 NOSIG=
201210050530 METAR LMML NIL=
201210050515 METAR LMML 050515Z VRB02KT 9999 SCT026 20/18 Q1019 NOSIG=
201210050500 METAR LMML NIL=
201210050445 METAR LMML 050445Z 30002KT 9999 FEW024 20/18 Q1019 NOSIG=
201210050430 METAR LMML NIL=
201210050415 METAR LMML 050415Z 31004KT 9999 FEW024 20/18 Q1019 NOSIG=
201210050400 METAR LMML NIL=
201210050345 METAR LMML 050345Z 29005KT 9999 FEW024 20/18 Q1019 NOSIG=
201210050330 METAR LMML NIL=
201210050315 METAR LMML 050315Z 30004KT 270V010 9999 FEW024 21/18 Q1018
                        NOSIG=
201210050245 METAR LMML 050245Z AUTO 28005KT CAVOK 21/18 Q1018=
201210050230 METAR LMML NIL=
201210050215 METAR LMML 050215Z AUTO 28005KT CAVOK 21/18 Q1018=
201210050200 METAR LMML NIL=
201210050145 METAR LMML 050145Z AUTO 27004KT CAVOK 21/18 Q1018=
201210050130 METAR LMML NIL=
201210050115 METAR LMML 050115Z AUTO 28004KT CAVOK 20/18 Q1018=
201210050100 METAR LMML NIL=
201210050045 METAR LMML 050045Z AUTO 29004KT CAVOK 20/18 Q1019=
201210050030 METAR LMML NIL=
201210050015 METAR LMML 050015Z AUTO 30004KT CAVOK 21/18 Q1019=
201210050000 METAR LMML NIL=
201210042345 METAR LMML 042345Z AUTO 29004KT CAVOK 21/18 Q1019=
201210042330 METAR LMML NIL=
201210042315 METAR LMML 042315Z AUTO 29003KT CAVOK 21/18 Q1019=
201210042300 METAR LMML NIL=
201210042245 METAR LMML 042245Z AUTO 29002KT CAVOK 21/19 Q1019=
201210042230 METAR LMML NIL=
201210042215 METAR LMML 042215Z AUTO 28003KT CAVOK 21/19 Q1019=
201210042200 METAR LMML NIL=
201210042145 METAR LMML 042145Z AUTO 28003KT CAVOK 21/19 Q1019=
201210042130 METAR LMML NIL=
201210042115 METAR LMML 042115Z AUTO 29002KT CAVOK 21/18 Q1019=
201210042100 METAR LMML NIL=
201210042045 METAR LMML 042045Z AUTO 28003KT CAVOK 21/19 Q1019=
201210042030 METAR LMML NIL=
201210042015 METAR LMML 042015Z AUTO 28002KT CAVOK 21/19 Q1019=
201210042000 METAR LMML NIL=
201210041945 METAR LMML 041945Z 29003KT 9999 FEW027 22/19 Q1019 NOSIG=
201210041930 METAR LMML NIL=
201210041915 METAR LMML 041915Z 28003KT 9999 FEW020 22/19 Q1019 NOSIG=
201210041900 METAR LMML NIL=
201210041845 METAR LMML 041845Z 29003KT 9999 FEW020 22/19 Q1019 NOSIG=
201210041830 METAR LMML NIL=
201210041815 METAR LMML 041815Z 30004KT 9999 FEW020 22/19 Q1019 NOSIG=
201210041800 METAR LMML NIL=
201210041745 METAR LMML 041745Z AUTO 31003KT CAVOK 22/19 Q1018 NOSIG=
201210041730 METAR LMML NIL=
201210041715 METAR LMML 041715Z 29005KT 9999 FEW020 23/19 Q1019 NOSIG=
201210041700 METAR LMML NIL=
201210041645 METAR LMML 041645Z 30005KT 260V330 9999 SCT021 24/19 Q1018
                        NOSIG=
201210041630 METAR LMML NIL=
201210041615 METAR LMML 041615Z 31009KT 9999 SCT026 24/19 Q1018 NOSIG=
201210041600 METAR LMML NIL=
201210041545 METAR LMML 041545Z 31008KT 270V330 9999 SCT024 25/19 Q1018
                        NOSIG=
201210041530 METAR LMML NIL=
201210041515 METAR LMML 041515Z 31009KT 9999 SCT025 25/18 Q1018 NOSIG=
201210041500 METAR LMML NIL=
201210041445 METAR LMML 041445Z 33010KT 9999 SCT030 25/18 Q1018 NOSIG=
201210041430 METAR LMML NIL=
201210041415 METAR LMML 041415Z 33012KT 9999 SCT030 26/17 Q1018 NOSIG=
201210041400 METAR LMML NIL=
201210041345 METAR LMML 041345Z 30010KT 280V340 9999 SCT030 27/17 Q1019
                        NOSIG=
201210041330 METAR LMML NIL=
201210041315 METAR LMML 041315Z 31009KT 9999 SCT034 26/17 Q1019 NOSIG=
201210041300 METAR LMML NIL=
201210041245 METAR LMML 041245Z 32008KT 270V010 9999 FEW034 27/17 Q1019
                        NOSIG=
201210041230 METAR LMML NIL=
201210041215 METAR LMML 041215Z AUTO 33010KT 300V360 CAVOK 27/17 Q1019
                        NOSIG=
201210041200 METAR LMML NIL=
201210041145 METAR LMML 041145Z 31009KT 250V340 9999 FEW036 27/17 Q1019
                        NOSIG=
201210041130 METAR LMML NIL=
201210041115 METAR LMML 041115Z 01009KT 320V050 9999 FEW036 27/16 Q1020
                        NOSIG=
201210041100 METAR LMML NIL=
201210041045 METAR LMML 041045Z 36008KT 330V030 9999 FEW036 27/16 Q1020
                        NOSIG=
201210041030 METAR LMML NIL=
201210041015 METAR LMML 041015Z 35008KT 300V030 9999 FEW040 27/16 Q1020
                        NOSIG=
201210040945 METAR LMML 040945Z 35009KT 9999 FEW040 26/16 Q1020 NOSIG=
201210040930 METAR LMML NIL=
201210040915 METAR LMML 040915Z 01008KT 330V030 9999 FEW040 26/16 Q1020
                        NOSIG=
201210040900 METAR LMML NIL=
201210040845 METAR LMML 040845Z 35009KT 9999 FEW025 25/15 Q1020 NOSIG=
201210040830 METAR LMML NIL=
201210040815 METAR LMML 040815Z 01010KT 9999 FEW025 25/16 Q1020 NOSIG=
201210040745 METAR LMML 040745Z 36008KT 330V030 9999 FEW025 25/16 Q1020
                        NOSIG=
201210040730 METAR LMML NIL=
201210040715 METAR LMML 040715Z 33007KT 9999 FEW025 24/16 Q1020 NOSIG=
201210040700 METAR LMML NIL=
201210040645 METAR LMML 040645Z 32005KT 9999 FEW020 23/17 Q1020 NOSIG=
201210040615 METAR LMML 040615Z 31004KT 9999 FEW020 22/17 Q1019 NOSIG=
201210040600 METAR LMML NIL=
201210040545 METAR LMML 040545Z 31004KT 9999 FEW020 21/16 Q1019 NOSIG=
201210040530 METAR LMML NIL=
201210040515 METAR LMML 040515Z 30005KT 9999 FEW020 20/16 Q1019 NOSIG=
201210040500 METAR LMML NIL=
201210040445 METAR LMML 040445Z 34006KT 310V020 9999 FEW020 20/17 Q1019
                        NOSIG=
201210040430 METAR LMML NIL=
201210040415 METAR LMML 040415Z 32005KT 9999 FEW020 20/17 Q1019 NOSIG=
201210040400 METAR LMML NIL=
201210040345 METAR LMML 040345Z 33005KT CAVOK 20/17 Q1019 BECMG 9999 FEW015=
201210040330 METAR LMML NIL=
201210040315 METAR LMML 040315Z 33006KT CAVOK 20/17 Q1019 NOSIG=
201210040300 METAR LMML NIL=
201210040245 METAR LMML 040245Z AUTO 32007KT CAVOK 21/17 Q1019=
201210040230 METAR LMML NIL=
201210040215 METAR LMML 040215Z AUTO 32006KT CAVOK 20/17 Q1019=
201210040200 METAR LMML NIL=
201210040145 METAR LMML 040145Z AUTO 33006KT CAVOK 20/17 Q1019=
201210040130 METAR LMML NIL=
201210040115 METAR LMML 040115Z AUTO 32005KT CAVOK 20/17 Q1020=
201210040100 METAR LMML NIL=
201210040045 METAR LMML 040045Z AUTO 33005KT CAVOK 21/17 Q1020=
201210040030 METAR LMML NIL=
201210040015 METAR LMML 040015Z AUTO 31005KT CAVOK 21/17 Q1020=
201210040000 METAR LMML NIL=
201210032345 METAR LMML 032345Z AUTO 31005KT CAVOK 21/17 Q1020=
201210032330 METAR LMML NIL=
201210032315 METAR LMML 032315Z AUTO 32006KT CAVOK 21/17 Q1020=
201210032300 METAR LMML NIL=
201210032245 METAR LMML 032245Z AUTO 33006KT CAVOK 21/17 Q1020=
201210032230 METAR LMML NIL=
201210032215 METAR LMML 032215Z AUTO 33007KT CAVOK 21/18 Q1020=
201210032200 METAR LMML NIL=
201210032145 METAR LMML 032145Z AUTO 32006KT CAVOK 21/18 Q1021=
201210032130 METAR LMML NIL=
201210032115 METAR LMML 032115Z AUTO 32004KT CAVOK 21/17 Q1021=
201210032100 METAR LMML NIL=
201210032045 METAR LMML 032045Z AUTO 32006KT CAVOK 22/17 Q1021=
201210032030 METAR LMML NIL=
201210032015 METAR LMML 032015Z 32006KT CAVOK 22/17 Q1021 NOSIG=
201210032000 METAR LMML NIL=
201210031945 METAR LMML 031945Z 32005KT CAVOK 22/17 Q1021 NOSIG=
201210031930 METAR LMML NIL=
201210031915 METAR LMML 031915Z 31007KT CAVOK 22/17 Q1021 NOSIG=
201210031900 METAR LMML NIL=
201210031845 METAR LMML 031845Z 30007KT CAVOK 22/17 Q1020 NOSIG=
201210031830 METAR LMML NIL=
201210031815 METAR LMML 031815Z 30008KT CAVOK 23/17 Q1020 NOSIG=
201210031800 METAR LMML NIL=
201210031745 METAR LMML 031745Z 29008KT CAVOK 23/17 Q1020 NOSIG=
201210031730 METAR LMML NIL=
201210031715 METAR LMML 031715Z 30008KT CAVOK 23/17 Q1020 NOSIG=
201210031700 METAR LMML NIL=
201210031645 METAR LMML 031645Z 30011KT CAVOK 23/16 Q1020 NOSIG=
201210031630 METAR LMML NIL=
201210031615 METAR LMML 031615Z 31012KT CAVOK 24/17 Q1020 NOSIG=
201210031600 METAR LMML NIL=
201210031545 METAR LMML 031545Z 31012KT 9999 FEW030 24/17 Q1020 NOSIG=
201210031530 METAR LMML NIL=
201210031515 METAR LMML 031515Z 31013KT 9999 FEW030 25/16 Q1020 NOSIG=
201210031500 METAR LMML NIL=
201210031445 METAR LMML 031445Z 30014KT 9999 FEW030 25/17 Q1020 NOSIG=
201210031430 METAR LMML NIL=
201210031415 METAR LMML 031415Z 31015KT 9999 FEW030 26/15 Q1020 NOSIG=
201210031400 METAR LMML NIL=
201210031345 METAR LMML 031345Z 31013KT 280V340 9999 FEW030 26/16 Q1020
                        NOSIG=
201210031330 METAR LMML NIL=
201210031315 METAR LMML 031315Z 32012KT 9999 FEW030 26/16 Q1020 NOSIG=
201210031300 METAR LMML NIL=
201210031245 METAR LMML 031245Z 31013KT 9999 FEW030 27/17 Q1020 NOSIG=
201210031230 METAR LMML NIL=
201210031215 METAR LMML 031215Z 31012KT 280V350 9999 FEW035 26/16 Q1021
                        NOSIG=
201210031145 METAR LMML 031145Z 31012KT 280V340 9999 FEW035 27/16 Q1021
                        NOSIG=
201210031130 METAR LMML NIL=
201210031115 METAR LMML 031115Z AUTO 31012KT 280V010 9999NDV FEW031///
                        SCT035/// 27/16 Q1021=
201210031100 METAR LMML NIL=
201210031045 METAR LMML 031045Z AUTO 35010G20KT 320V040 CAVOK 27/17 Q1021=
201210031030 METAR LMML NIL=
201210031015 METAR LMML 031015Z 01012KT 9999 FEW030 26/16 Q1021 NOSIG=
201210031000 METAR LMML NIL=
201210030945 METAR LMML 030945Z 36012KT 9999 FEW025 26/16 Q1022 NOSIG=
201210030930 METAR LMML NIL=
201210030915 METAR LMML 030915Z 35012KT 9999 FEW025 26/17 Q1022 NOSIG=
201210030900 METAR LMML NIL=
201210030845 METAR LMML 030845Z 36012KT 320V020 9999 FEW025 25/17 Q1022
                        NOSIG=
201210030830 METAR LMML NIL=
201210030815 METAR LMML 030815Z 36014KT 9999 FEW025 25/17 Q1022 NOSIG=
201210030800 METAR LMML NIL=
201210030745 METAR LMML 030745Z 34014KT 9999 FEW020 25/17 Q1021 NOSIG=
201210030730 METAR LMML NIL=
201210030715 METAR LMML 030715Z 35012KT 9999 FEW020 24/17 Q1021 NOSIG=
201210030700 METAR LMML NIL=
201210030645 METAR LMML 030645Z 34011KT 9999 FEW020 23/17 Q1021 NOSIG=
201210030630 METAR LMML NIL=
201210030615 METAR LMML 030615Z 33008KT 9999 FEW020 22/17 Q1021 NOSIG=
201210030600 METAR LMML NIL=
201210030545 METAR LMML 030545Z 32008KT 9999 FEW020 21/17 Q1020 NOSIG=
201210030530 METAR LMML NIL=
201210030515 METAR LMML 030515Z 32007KT 9999 FEW020 21/17 Q1020 NOSIG=
201210030500 METAR LMML NIL=
201210030445 METAR LMML 030445Z 33009KT 9999 FEW020 20/17 Q1020 NOSIG=
201210030430 METAR LMML NIL=
201210030415 METAR LMML 030415Z 32008KT CAVOK 21/17 Q1020 NOSIG=
201210030400 METAR LMML NIL=
201210030345 METAR LMML 030345Z 32008KT CAVOK 21/16 Q1020 NOSIG=
201210030330 METAR LMML NIL=
201210030315 METAR LMML 030315Z 33008KT CAVOK 20/16 Q1020 NOSIG=
201210030300 METAR LMML NIL=
201210030245 METAR LMML 030245Z AUTO 32009KT CAVOK 21/16 Q1020=
201210030230 METAR LMML NIL=
201210030215 METAR LMML 030215Z AUTO 32008KT CAVOK 22/16 Q1020=
201210030200 METAR LMML NIL=
201210030145 METAR LMML 030145Z AUTO 31008KT CAVOK 21/16 Q1020=
201210030130 METAR LMML NIL=
201210030115 METAR LMML 030115Z AUTO 31007KT CAVOK 21/17 Q1020=
201210030100 METAR LMML NIL=
201210030045 METAR LMML 030045Z AUTO 31008KT CAVOK 21/17 Q1020=
201210030030 METAR LMML NIL=
201210030015 METAR LMML 030015Z AUTO 31007KT CAVOK 21/18 Q1020=
201210030000 METAR LMML NIL=
201210022345 METAR LMML 022345Z AUTO 32006KT CAVOK 21/18 Q1020=
201210022330 METAR LMML NIL=
201210022315 METAR LMML 022315Z AUTO 32006KT CAVOK 21/18 Q1020=
201210022300 METAR LMML NIL=
201210022245 METAR LMML 022245Z AUTO 32008KT CAVOK 21/17 Q1020=
201210022230 METAR LMML NIL=
201210022215 METAR LMML 022215Z AUTO 32007KT CAVOK 20/17 Q1021=
201210022200 METAR LMML NIL=
201210022145 METAR LMML 022145Z AUTO 31007KT CAVOK 21/17 Q1021=
201210022130 METAR LMML NIL=
201210022115 METAR LMML 022115Z AUTO 32009KT CAVOK 21/17 Q1021=
201210022100 METAR LMML NIL=
201210022045 METAR LMML 022045Z AUTO 32010KT CAVOK 22/17 Q1021=
201210022030 METAR LMML NIL=
201210022015 METAR LMML 022015Z AUTO 33011KT CAVOK 22/17 Q1021=
201210022000 METAR LMML NIL=
201210021945 METAR LMML 021945Z 32009KT CAVOK 22/18 Q1021 NOSIG=
201210021930 METAR LMML NIL=
201210021915 METAR LMML 021915Z 33010KT CAVOK 22/17 Q1021 NOSIG=
201210021900 METAR LMML NIL=
201210021845 METAR LMML 021845Z 33010KT CAVOK 22/17 Q1020 NOSIG=
201210021830 METAR LMML NIL=
201210021815 METAR LMML 021815Z 33009KT CAVOK 22/17 Q1020 NOSIG=
201210021800 METAR LMML NIL=
201210021745 METAR LMML 021745Z 33009KT CAVOK 23/17 Q1020 NOSIG=
201210021730 METAR LMML NIL=
201210021715 METAR LMML 021715Z 31007KT 280V340 CAVOK 23/18 Q1020 NOSIG=
201210021700 METAR LMML NIL=
201210021645 METAR LMML 021645Z 32010KT CAVOK 24/18 Q1021 NOSIG=
201210021630 METAR LMML NIL=
201210021615 METAR LMML 021615Z 31010KT CAVOK 24/18 Q1020 NOSIG=
201210021600 METAR LMML NIL=
201210021545 METAR LMML 021545Z 31012KT CAVOK 25/17 Q1020 NOSIG=
201210021530 METAR LMML NIL=
201210021515 METAR LMML 021515Z 32013KT CAVOK 26/17 Q1020 NOSIG=
201210021500 METAR LMML NIL=
201210021445 METAR LMML 021445Z 31012KT 280V340 CAVOK 26/17 Q1020 NOSIG=
201210021430 METAR LMML NIL=
201210021415 METAR LMML 021415Z 32012KT CAVOK 27/16 Q1020 NOSIG=
201210021400 METAR LMML NIL=
201210021345 METAR LMML 021345Z 32012KT 300V360 CAVOK 27/16 Q1019 NOSIG=
201210021330 METAR LMML NIL=
201210021315 METAR LMML 021315Z 33013KT CAVOK 27/16 Q1019 NOSIG=
201210021300 METAR LMML NIL=
201210021245 METAR LMML 021245Z AUTO 33013KT 300V360 CAVOK 28/17 Q1020=
201210021230 METAR LMML NIL=
201210021215 METAR LMML 021215Z 34014KT 310V010 CAVOK 27/17 Q1020 NOSIG=
201210021200 METAR LMML NIL=
201210021145 METAR LMML 021145Z 35015KT CAVOK 28/17 Q1020 NOSIG=
201210021130 METAR LMML NIL=
201210021115 METAR LMML 021115Z 34015KT CAVOK 28/18 Q1020 NOSIG=
201210021100 METAR LMML NIL=
201210021045 METAR LMML 021045Z 34013KT 320V020 CAVOK 28/19 Q1020 NOSIG=
201210021030 METAR LMML NIL=
201210021015 METAR LMML 021015Z 33015KT 9999 FEW025 27/20 Q1020 NOSIG=
201210021000 METAR LMML NIL=
201210020945 METAR LMML 020945Z 33014KT 9999 FEW025 27/20 Q1020 NOSIG=
201210020930 METAR LMML NIL=
201210020915 METAR LMML 020915Z 34014KT 9999 FEW020 27/19 Q1021 NOSIG=
201210020900 METAR LMML NIL=
201210020845 METAR LMML 020845Z 33013KT 9999 FEW020 27/20 Q1021 NOSIG=
201210020830 METAR LMML NIL=
201210020815 METAR LMML 020815Z AUTO 33013KT CAVOK 26/20 Q1021=
201210020800 METAR LMML NIL=
201210020745 METAR LMML 020745Z 32013KT 9999 FEW020 25/20 Q1020 NOSIG=
201210020730 METAR LMML NIL=
201210020715 METAR LMML 020715Z 34013KT 9999 FEW020 25/20 Q1020 NOSIG=
201210020700 METAR LMML NIL=
201210020645 METAR LMML 020645Z 34011KT 9999 FEW020 24/20 Q1020 NOSIG=
201210020630 METAR LMML NIL=
201210020615 METAR LMML 020615Z 34010KT 9999 FEW020 23/20 Q1019 NOSIG=
201210020600 METAR LMML NIL=
201210020545 METAR LMML 020545Z 34009KT 9999 FEW020 22/20 Q1019 NOSIG=
201210020530 METAR LMML NIL=
201210020515 METAR LMML 020515Z 35010KT 9999 FEW020 22/20 Q1019 NOSIG=
201210020500 METAR LMML NIL=
201210020445 METAR LMML 020445Z 35008KT 9999 FEW020 22/19 Q1018 NOSIG=
201210020430 METAR LMML NIL=
201210020415 METAR LMML 020415Z 35008KT CAVOK 22/19 Q1018 NOSIG=
201210020400 METAR LMML NIL=
201210020345 METAR LMML 020345Z 35008KT CAVOK 22/18 Q1018 NOSIG=
201210020330 METAR LMML NIL=
201210020315 METAR LMML 020315Z 35006KT CAVOK 22/18 Q1018 NOSIG=
201210020300 METAR LMML NIL=
201210020245 METAR LMML 020245Z AUTO 34007KT CAVOK 22/18 Q1018=
201210020230 METAR LMML NIL=
201210020215 METAR LMML 020215Z AUTO 34007KT CAVOK 23/17 Q1018=
201210020200 METAR LMML NIL=
201210020145 METAR LMML 020145Z AUTO 36008KT CAVOK 22/17 Q1018=
201210020130 METAR LMML NIL=
201210020115 METAR LMML 020115Z AUTO 34003KT 290V010 CAVOK 23/17 Q1019=
201210020100 METAR LMML NIL=
201210020045 METAR LMML 020045Z AUTO 35007KT CAVOK 22/18 Q1018=
201210020015 METAR LMML 020015Z AUTO 34006KT 250V010 CAVOK 23/18 Q1019=
201210012345 METAR LMML 012345Z AUTO 34013KT CAVOK 24/18 Q1018=
201210012315 METAR LMML 012315Z AUTO 34014KT CAVOK 23/18 Q1019=
201210012300 METAR LMML NIL=
201210012245 METAR LMML 012245Z AUTO 34016KT CAVOK 23/19 Q1019=
201210012230 METAR LMML NIL=
201210012215 METAR LMML 012215Z AUTO 34012KT CAVOK 23/20 Q1019=
201210012200 METAR LMML NIL=
201210012145 METAR LMML 012145Z AUTO 32012KT CAVOK 24/21 Q1019=
201210012130 METAR LMML NIL=
201210012115 METAR LMML 012115Z AUTO 32014KT CAVOK 24/22 Q1020=
201210012100 METAR LMML NIL=
201210012045 METAR LMML 012045Z AUTO 31011KT 9999NDV SCT013/// BKN120///
                        24/22 Q1020=
201210012030 METAR LMML NIL=
201210012015 METAR LMML 012015Z AUTO 33009KT 9999NDV BKN012/// BKN014///
                        24/22 Q1019=
201210011945 METAR LMML 011945Z 31009KT 9999 FEW011 24/22 Q1019 NOSIG=
201210011930 METAR LMML NIL=
201210011915 METAR LMML 011915Z 32009KT 9999 FEW012 SCT016 25/23 Q1018
                        NOSIG=
201210011900 METAR LMML NIL=
201210011845 METAR LMML 011845Z 30007KT 260V320 9999 FEW010 BKN017 25/23
                        Q1018 NOSIG=
201210011830 METAR LMML NIL=
201210011815 METAR LMML 011815Z 30008KT 9999 BKN017 25/23 Q1018 NOSIG=
201210011800 METAR LMML NIL=
201210011745 METAR LMML 011745Z 30009KT 9999 BKN009 25/24 Q1017 NOSIG=
201210011730 METAR LMML NIL=
201210011715 METAR LMML 011715Z 23009KT 9999 FEW009 26/24 Q1017 BECMG
                        BKN007=
201210011700 METAR LMML NIL=
201210011645 METAR LMML 011645Z 22007KT 180V260 9999 FEW015 26/24 Q1017
                        NOSIG=
201210011630 METAR LMML NIL=
201210011615 METAR LMML 011615Z 20005KT 150V250 9999 FEW020 26/24 Q1017
                        NOSIG=
201210011600 METAR LMML NIL=
201210011545 METAR LMML 011545Z 19006KT 150V270 9999 -SHRA FEW030 27/24
                        Q1016 NOSIG=
201210011530 METAR LMML NIL=
201210011515 METAR LMML 011515Z 21013KT CAVOK 27/24 Q1016 TEMPO 9000 TSRA
                        BKN040CB=
201210011500 METAR LMML NIL=
201210011445 METAR LMML 011445Z 20016KT 180V240 9999 -SHRA NSC 27/24 Q1016
                        TEMPO 9000 TSRA BKN040CB=
201210011430 METAR LMML NIL=
201210011415 METAR LMML 011415Z 19011KT CAVOK 27/24 Q1016 TEMPO 9000 TSRA
                        BKN040CB=
201210011400 METAR LMML NIL=
201210011345 METAR LMML 011345Z 17015KT CAVOK 28/23 Q1016 TEMPO 9000 TSRA
                        BKN040CB=
201210011330 METAR LMML NIL=
201210011315 METAR LMML 011315Z 19015KT 150V220 CAVOK 29/23 Q1016 TEMPO
                        9000 TSRA BKN040CB=
201210011300 METAR LMML NIL=
201210011245 METAR LMML 011245Z 19014G25KT CAVOK 29/22 Q1016 TEMPO 9000
                        TSRA BKN040CB=
201210011230 METAR LMML NIL=
201210011215 METAR LMML 011215Z 19013KT 160V220 CAVOK 29/21 Q1016 NOSIG=
201210011200 METAR LMML NIL=
201210011145 METAR LMML 011145Z 17014KT CAVOK 29/21 Q1016 NOSIG=
201210011130 METAR LMML NIL=
201210011115 METAR LMML 011115Z 20013KT CAVOK 29/22 Q1017 TEMPO 15015G25KT
                        9000 TSRA SCT040CB=
201210011100 METAR LMML NIL=
201210011045 METAR LMML 011045Z 17017G27KT 150V210 CAVOK 30/22 Q1016 TEMPO
                        15015G25KT 9000 TSRA SCT040CB=
201210011030 METAR LMML NIL=
201210011015 METAR LMML 011015Z 17019G30KT CAVOK 29/22 Q1016 NOSIG=
201210011000 METAR LMML NIL=
201210010945 METAR LMML 010945Z 15017KT CAVOK 28/22 Q1016 NOSIG=
201210010930 METAR LMML NIL=
201210010915 METAR LMML 010915Z 16015KT 9999 -SHRA FEW040 28/22 Q1017
                        NOSIG=
201210010900 METAR LMML NIL=
201210010845 METAR LMML 010845Z 14018KT 9999 FEW040 28/23 Q1016 TEMPO
                        15015G25KT 9000 TSRA SCT040CB=
201210010830 METAR LMML NIL=
201210010815 METAR LMML 010815Z 15018KT 9999 FEW040 27/22 Q1016 TEMPO
                        15015G25KT 9000 TSRA SCT040CB=
201210010800 METAR LMML NIL=
201210010745 METAR LMML 010745Z 16018KT 9999 FEW040 27/22 Q1017 RETS TEMPO
                        15015G25KT 9000 TSRA SCT040CB=
201210010730 METAR LMML NIL=
201210010715 METAR LMML 010715Z 15017KT 9999 SCT040CB 26/22 Q1016 RETS
                        TEMPO 15015G25KT 9000 TSRA SCT040CB=
201210010700 METAR LMML NIL=
201210010645 METAR LMML 010645Z 14014KT 9999 TS FEW020 SCT040CB 26/23
                        Q1017 NOSIG=
201210010630 METAR LMML NIL=
201210010615 METAR LMML 010615Z 20009KT 170V230 9000 TS FEW035 SCT060CB
                        26/23 Q1017 NOSIG=
201210010600 METAR LMML NIL=
201210010545 METAR LMML 010545Z 17010KT 9999 FEW035 26/23 Q1016 NOSIG=
201210010530 METAR LMML NIL=
201210010515 METAR LMML 010515Z 18009KT 9999 FEW035 26/23 Q1017 NOSIG=
201210010500 METAR LMML NIL=
201210010445 METAR LMML 010445Z 18010KT 9999 FEW035 26/23 Q1016 NOSIG=
201210010430 METAR LMML NIL=
201210010415 METAR LMML 010415Z 16013KT CAVOK 25/23 Q1015 NOSIG=
201210010400 METAR LMML NIL=
201210010345 METAR LMML 010345Z 16011KT CAVOK 25/23 Q1015 NOSIG=
201210010330 METAR LMML NIL=
201210010315 METAR LMML 010315Z 16012KT CAVOK 25/23 Q1015 NOSIG=
201210010300 METAR LMML NIL=
201210010245 METAR LMML 010245Z AUTO 15010KT 9000NDV NCD 23/22 Q1016=
201210010230 METAR LMML NIL=
201210010215 METAR LMML 010215Z AUTO VRB02KT CAVOK 25/22 Q1016=
201210010200 METAR LMML NIL=
201210010145 METAR LMML 010145Z AUTO 15010KT CAVOK 25/22 Q1016=
201210010130 METAR LMML NIL=
201210010115 METAR LMML 010115Z AUTO 15011KT CAVOK 26/22 Q1016=
201210010100 METAR LMML NIL=
201210010045 METAR LMML 010045Z AUTO 16010KT CAVOK 26/21 Q1016=
201210010030 METAR LMML NIL=
201210010015 METAR LMML 010015Z AUTO 15011KT CAVOK 25/22 Q1016=
201210010000 METAR LMML NIL=
