##########################################################
# Query made at 01/18/2013 15:40:47 UTC
# Time interval: from 10/01/2011 00:00  to 10/31/2011 23:59  UTC
##########################################################

##########################################################
# LMML, Luqa (Malta)
# WMO index: 16597
# Latitude 35-51N. Longitude 014-29E. Altitude 91 m.
##########################################################

###################################
#  METAR/SPECI from LMML
###################################
201110312345 METAR LMML 312345Z 09016KT 060V120 9999 BKN015 BKN100 19/16
                        Q1014 NOSIG=
201110312330 METAR LMML NIL=
201110312315 METAR LMML 312315Z 10015KT 070V130 9999 BKN015 BKN100 19/16
                        Q1014 NOSIG=
201110312245 METAR LMML 312245Z 09014KT 060V130 9999 BKN017 BKN100 19/16
                        Q1014 RERA TEMPO BKN015=
201110312230 METAR LMML NIL=
201110312215 METAR LMML 312215Z 09017KT 9999 RA BKN017 BKN100 19/16 Q1014
                        TEMPO BKN015=
201110312145 METAR LMML 312145Z 09015KT 060V120 9999 BKN017 SCT100 19/16
                        Q1014 NOSIG=
201110312130 METAR LMML NIL=
201110312115 METAR LMML 312115Z 09015KT 060V120 9999 BKN017 BKN037 19/16
                        Q1014 NOSIG=
201110312100 METAR LMML NIL=
201110312045 METAR LMML 312045Z 09015KT 050V110 9999 FEW017 BKN037 BKN120
                        19/16 Q1014 TEMPO 8000 RA BKN015=
201110312015 METAR LMML 312015Z 09016KT 050V110 9999 SCT019 BKN038 BKN120
                        19/15 Q1014 TEMPO 8000 RA BKN015=
201110312000 METAR LMML NIL=
201110311945 METAR LMML 311945Z 08015KT 050V110 9999 SCT019 BKN040 19/15
                        Q1014 TEMPO 8000 RA BKN015=
201110311930 METAR LMML NIL=
201110311915 METAR LMML 311915Z 09016KT 060V120 9999 SCT020 BKN090 19/15
                        Q1014 TEMPO 8000 RA BKN015=
201110311900 METAR LMML NIL=
201110311845 METAR LMML 311845Z 09017KT 060V120 9999 SCT018 BKN050 19/15
                        Q1014 TEMPO 8000 RA BKN015=
201110311830 METAR LMML NIL=
201110311815 METAR LMML 311815Z 09017KT 060V120 9999 SCT019 BKN050 19/15
                        Q1014 TEMPO 5000 TSRA BKN015CB=
201110311800 METAR LMML NIL=
201110311745 METAR LMML 311745Z 09017KT 060V120 9999 SCT016 BKN040 18/15
                        Q1014 TEMPO 5000 TSRA BKN015CB=
201110311715 METAR LMML 311715Z 09016KT 9000 -SHRA SCT017 BKN043 18/15
                        Q1014 RESHRA TEMPO 5000 TSRA BKN015CB=
201110311700 METAR LMML NIL=
201110311645 METAR LMML 311645Z 09014KT 060V120 9999 -SHRA SCT016 BKN050
                        18/16 Q1014 RESHRA TEMPO 5000 TSRA
                        BKN015CB=
201110311630 METAR LMML NIL=
201110311615 METAR LMML 311615Z 09013KT 060V120 5000 SHRA SCT015 OVC050
                        18/15 Q1014 TEMPO 5000 TSRA BKN015CB=
201110311600 METAR LMML NIL=
201110311545 METAR LMML 311545Z 09013KT 9999 SCT014 OVC050 18/16 Q1014
                        TEMPO 5000 TSRA BKN015CB=
201110311530 METAR LMML NIL=
201110311515 METAR LMML 311515Z 10013KT 9999 SCT014 BKN050 OVC100 18/16
                        Q1014 TEMPO 5000 TSRA BKN015CB=
201110311500 METAR LMML NIL=
201110311445 METAR LMML 311445Z 10014KT 070V130 6000 -RA BKN015 BKN050
                        BKN100 19/16 Q1014 TEMPO 5000 TSRA
                        BKN015CB=
201110311430 METAR LMML NIL=
201110311415 METAR LMML 311415Z 09014KT 060V120 9000 BKN014 BKN050 BKN100
                        19/16 Q1014 TEMPO 5000 TSRA BKN015CB=
201110311400 METAR LMML NIL=
201110311345 METAR LMML 311345Z 11015KT 080V140 9999 BKN016 BKN050 BKN100
                        19/16 Q1014 TEMPO 8000 RA BKN015=
201110311330 METAR LMML NIL=
201110311315 METAR LMML 311315Z 10015KT 9999 BKN016 OVC050 19/16 Q1014
                        TEMPO 8000 RA BKN015=
201110311245 METAR LMML 311245Z 11014KT 9999 BKN014 BKN050 19/16 Q1014
                        TEMPO 8000 RA=
201110311230 METAR LMML NIL=
201110311215 METAR LMML 311215Z 11014KT 9999 BKN015 BKN048 BKN100 19/16
                        Q1014 TEMPO 8000 RA=
201110311200 METAR LMML NIL=
201110311145 METAR LMML 311145Z 11015KT 9999 BKN014 SCT050 OVC100 19/16
                        Q1015 TEMPO 8000 RA=
201110311130 METAR LMML NIL=
201110311115 METAR LMML 311115Z 11015KT 9999 SCT015 SCT060 OVC100 19/16
                        Q1015 TEMPO 8000 RA BKN015=
201110311100 METAR LMML NIL=
201110311045 METAR LMML 311045Z 11016G26KT 9999 BKN015 OVC060 19/16 Q1015
                        TEMPO 8000 RA=
201110311030 METAR LMML NIL=
201110311015 METAR LMML 311015Z 11018KT 9999 BKN015 BKN060 19/16 Q1015
                        TEMPO 5000 TSRA BKN015CB=
201110310945 METAR LMML 310945Z 11018KT 070V140 9999 SCT016 BKN060 19/16
                        Q1015 TEMPO 5000 TSRA BKN015CB=
201110310930 METAR LMML NIL=
201110310915 METAR LMML 310915Z 11019KT 9999 BKN016 BKN060 19/16 Q1016
                        TEMPO 5000 TSRA BKN015CB=
201110310900 METAR LMML NIL=
201110310845 METAR LMML 310845Z 11019KT 9999 BKN016 BKN060 18/16 Q1016
                        TEMPO 5000 TSRA BKN015CB=
201110310830 METAR LMML NIL=
201110310815 METAR LMML 310815Z 11019KT 9999 BKN017 BKN060 18/15 Q1016
                        TEMPO 5000 TSRA BKN015CB=
201110310745 METAR LMML 310745Z 11017KT 9999 BKN015 BKN060 18/15 Q1016
                        TEMPO 5000 TSRA BKN015CB=
201110310730 METAR LMML NIL=
201110310715 METAR LMML 310715Z 11019KT 9999 BKN014 BKN045 18/15 Q1016
                        TEMPO 5000 TSRA BKN015CB=
201110310700 METAR LMML NIL=
201110310645 METAR LMML 310645Z 11018KT 9999 BKN011 SCT030 BKN045 18/16
                        Q1016 TEMPO 5000 TSRA BKN015CB=
201110310630 METAR LMML NIL=
201110310615 METAR LMML 310615Z 11017KT 9999 BKN011 SCT018 BKN050 18/16
                        Q1015 TEMPO 5000 TSRA BKN015CB=
201110310600 METAR LMML NIL=
201110310545 METAR LMML 310545Z 10014KT 7000 -RA FEW009 BKN011 BKN050
                        17/16 Q1015 NOSIG=
201110310530 METAR LMML NIL=
201110310515 METAR LMML 310515Z 11016KT 7000 -RA BKN011 BKN040 17/16 Q1015
                        NOSIG=
201110310500 METAR LMML NIL=
201110310445 METAR LMML 310445Z 11015KT 9999 -RA FEW013 SCT040 BKN070
                        17/15 Q1015 NOSIG=
201110310430 METAR LMML NIL=
201110310415 METAR LMML 310415Z 11015KT 9999 -RA FEW018 SCT030 BKN070
                        17/15 Q1015 NOSIG=
201110310400 METAR LMML NIL=
201110310345 METAR LMML 310345Z 12010KT 090V150 9999 -RA FEW015 SCT036
                        BKN080 17/15 Q1016 NOSIG=
201110310330 METAR LMML NIL=
201110310315 METAR LMML 310315Z 12013KT 9999 -RA FEW015 SCT040 BKN090
                        17/15 Q1015 RETS NOSIG=
201110310300 METAR LMML NIL=
201110310245 METAR LMML 310245Z 12015KT 8000 -RA FEW020 BKN100 17/15 Q1015
                        RETS TEMPO 9999 NSW=
201110310230 METAR LMML NIL=
201110310215 METAR LMML 310215Z 12010KT 8000 -RA FEW023 BKN130 17/15 Q1016
                        TEMPO 9999 NSW=
201110310200 METAR LMML NIL=
201110310145 METAR LMML 310145Z 14012KT 120V180 8000 TSRA FEW022CB SCT024
                        BKN080 18/15 Q1016 TEMPO 3000 TSRA
                        BKN015CB=
201110310137 SPECI LMML 310137Z 15013KT 120V190 9999 TSRA FEW022CB SCT025
                        BKN081 18/14 Q1017 TEMPO 3000 TSRA
                        BKN015CB=
201110310130 METAR LMML NIL=
201110310115 METAR LMML 310115Z 13018KT 9999 BKN026 BKN070 19/13 Q1016
                        TEMPO 8000 SHRA=
201110310100 METAR LMML NIL=
201110310045 METAR LMML 310045Z 13018KT 9999 SCT025 SCT070 BKN120 19/14
                        Q1016 TEMPO 8000 SHRA=
201110310030 METAR LMML NIL=
201110310015 METAR LMML 310015Z 13016KT 9999 SCT025 BKN120 19/13 Q1016
                        NOSIG=
201110310000 METAR LMML NIL=
201110302345 METAR LMML 302345Z 13018KT 9999 SCT026 SCT100 19/14 Q1015
                        NOSIG RMK LIGHTNING TO SW=
201110302330 METAR LMML NIL=
201110302315 METAR LMML 302315Z 13018KT 9999 SCT025 SCT070 BKN120 19/14
                        Q1016 NOSIG=
201110302300 METAR LMML NIL=
201110302245 METAR LMML 302245Z 13018KT 9999 SCT024 BKN080 19/14 Q1016
                        NOSIG=
201110302230 METAR LMML NIL=
201110302215 METAR LMML 302215Z 13017KT 9999 BKN025 BKN070 19/14 Q1016
                        NOSIG=
201110302200 METAR LMML NIL=
201110302145 METAR LMML 302145Z 13017KT 9999 BKN024 BKN120 19/14 Q1017
                        NOSIG=
201110302130 METAR LMML NIL=
201110302115 METAR LMML 302115Z 13015KT 9999 SCT025 BKN120 19/14 Q1017
                        NOSIG=
201110302100 METAR LMML NIL=
201110302045 METAR LMML 302045Z 13017KT 9999 SCT022 BKN120 19/14 Q1017
                        NOSIG=
201110302030 METAR LMML NIL=
201110302015 METAR LMML 302015Z 13015KT 9999 SCT025 BKN080 19/14 Q1017
                        NOSIG=
201110302000 METAR LMML NIL=
201110301945 METAR LMML 301945Z 14013KT 9999 SCT025 BKN080 19/14 Q1017
                        NOSIG=
201110301930 METAR LMML NIL=
201110301915 METAR LMML 301915Z 14015KT 110V170 9999 SCT022 BKN120 19/14
                        Q1017 NOSIG=
201110301900 METAR LMML NIL=
201110301845 METAR LMML 301845Z 14015KT 110V170 9999 SCT023 BKN120 19/15
                        Q1017 NOSIG=
201110301830 METAR LMML NIL=
201110301815 METAR LMML 301815Z 13016KT 9999 SCT024 BKN130 19/15 Q1016
                        NOSIG=
201110301800 METAR LMML NIL=
201110301745 METAR LMML 301745Z 13015KT 9999 SCT022 BKN120 19/15 Q1016
                        NOSIG=
201110301730 METAR LMML NIL=
201110301715 METAR LMML 301715Z 13015KT 9999 SCT019 BKN120 19/14 Q1016
                        RERA NOSIG=
201110301700 METAR LMML NIL=
201110301645 METAR LMML 301645Z 13014KT 100V160 9999 RA FEW015CB SCT022
                        BKN100 19/16 Q1016 NOSIG=
201110301630 METAR LMML NIL=
201110301615 METAR LMML 301615Z 15012KT 120V180 9000 TSRA SCT017CB SCT031
                        BKN100 18/15 Q1016 BECMG 9999 SCT023=
201110301600 METAR LMML NIL=
201110301545 METAR LMML 301545Z 13015KT 9999 -RA SCT023 BKN100 19/15 Q1016
                        TEMPO 6000 TSRA=
201110301530 METAR LMML NIL=
201110301515 METAR LMML 301515Z 14015KT 9999 SCT023 BKN120 20/15 Q1016
                        NOSIG=
201110301500 METAR LMML NIL=
201110301445 METAR LMML 301445Z 14016KT 9999 BKN023 BKN120 20/15 Q1016
                        NOSIG=
201110301430 METAR LMML NIL=
201110301415 METAR LMML 301415Z 13015KT 9999 SCT023 BKN037 20/15 Q1016
                        NOSIG=
201110301400 METAR LMML NIL=
201110301345 METAR LMML 301345Z 13015KT 9999 FEW022 BKN039 BKN120 20/15
                        Q1016 NOSIG=
201110301330 METAR LMML NIL=
201110301315 METAR LMML 301315Z 13014KT 9999 FEW023 SCT037 BKN120 21/15
                        Q1016 NOSIG=
201110301300 METAR LMML NIL=
201110301245 METAR LMML 301245Z 13016KT 9999 FEW026 BKN044 BKN120 21/15
                        Q1016 NOSIG=
201110301230 METAR LMML NIL=
201110301215 METAR LMML 301215Z 12015KT 9999 SCT020 BKN120 21/16 Q1017
                        NOSIG=
201110301200 METAR LMML NIL=
201110301145 METAR LMML 301145Z 11017KT 9999 FEW023 BKN045 BKN250 21/16
                        Q1017 NOSIG=
201110301130 METAR LMML NIL=
201110301115 METAR LMML 301115Z 12017KT 090V150 9999 FEW022 BKN040 BKN250
                        21/15 Q1017 NOSIG=
201110301100 METAR LMML NIL=
201110301045 METAR LMML 301045Z 12017KT 9999 SCT022 SCT120 BKN250 21/15
                        Q1017 NOSIG=
201110301030 METAR LMML NIL=
201110301015 METAR LMML 301015Z 12020KT 9999 SCT024 BKN120 20/15 Q1017
                        NOSIG=
201110301000 METAR LMML NIL=
201110300945 METAR LMML 300945Z 13020KT 9999 SCT024 BKN120 21/15 Q1018
                        NOSIG=
201110300930 METAR LMML NIL=
201110300915 METAR LMML 300915Z 13017KT 110V170 9999 BKN024 BKN120 22/15
                        Q1018 NOSIG=
201110300900 METAR LMML NIL=
201110300845 METAR LMML 300845Z 13016KT 9999 BKN023 SCT250 21/15 Q1018
                        NOSIG=
201110300830 METAR LMML NIL=
201110300815 METAR LMML 300815Z 11015KT 9999 BKN018 SCT120 19/16 Q1018
                        NOSIG=
201110300800 METAR LMML NIL=
201110300745 METAR LMML 300745Z 11017KT 9999 BKN016 SCT120 19/16 Q1018
                        NOSIG=
201110300715 METAR LMML 300715Z 10016KT 9999 BKN017 SCT120 19/15 Q1017
                        NOSIG=
201110300700 METAR LMML NIL=
201110300645 METAR LMML 300645Z 10015KT 070V130 9999 -RA BKN019 SCT250
                        19/15 Q1017 NOSIG=
201110300630 METAR LMML NIL=
201110300615 METAR LMML 300615Z 10016KT 9999 SCT019 SCT038 BKN250 19/15
                        Q1017 NOSIG=
201110300600 METAR LMML NIL=
201110300545 METAR LMML 300545Z 10015KT 9999 SCT021 BKN040 BKN250 19/15
                        Q1017 NOSIG=
201110300530 METAR LMML NIL=
201110300515 METAR LMML 300515Z 10012KT 9999 FEW021 SCT027 BKN250 18/14
                        Q1017 NOSIG=
201110300445 METAR LMML 300445Z 10011KT 9999 FEW021 SCT042 BKN250 18/14
                        Q1017 NOSIG=
201110300430 METAR LMML NIL=
201110300415 METAR LMML 300415Z 10011KT 070V130 9999 SCT020 BKN250 18/14
                        Q1018 NOSIG=
201110300400 METAR LMML NIL=
201110300345 METAR LMML 300345Z 10010KT 9999 SCT021 BKN250 18/14 Q1018
                        NOSIG=
201110300330 METAR LMML NIL=
201110300315 METAR LMML 300315Z 10010KT 9999 FEW020 SCT041 BKN250 18/14
                        Q1018 NOSIG=
201110300300 METAR LMML NIL=
201110300245 METAR LMML 300245Z 10012KT 9999 FEW022 BKN250 18/13 Q1018
                        NOSIG=
201110300230 METAR LMML NIL=
201110300215 METAR LMML 300215Z 10010KT 9999 FEW023 BKN250 18/13 Q1018
                        NOSIG=
201110300200 METAR LMML NIL=
201110300145 METAR LMML 300145Z 10013KT 070V130 9999 FEW025 BKN250 18/13
                        Q1018 NOSIG=
201110300130 METAR LMML NIL=
201110300115 METAR LMML 300115Z 10011KT 080V140 9999 FEW025 18/13 Q1018
                        NOSIG=
201110300100 METAR LMML NIL=
201110300045 METAR LMML 300045Z 11012KT 9999 FEW025 SCT250 18/13 Q1019
                        NOSIG=
201110300030 METAR LMML NIL=
201110300015 METAR LMML 300015Z 11012KT 9999 FEW025 SCT250 18/13 Q1019
                        NOSIG=
201110300000 METAR LMML NIL=
201110292345 METAR LMML 292345Z 11014KT 070V130 9999 FEW025 SCT250 18/12
                        Q1019 NOSIG=
201110292330 METAR LMML NIL=
201110292315 METAR LMML 292315Z 11014KT 9999 FEW025 SCT250 18/12 Q1019
                        NOSIG=
201110292300 METAR LMML NIL=
201110292245 METAR LMML 292245Z 11011KT 9999 FEW025 SCT250 18/12 Q1020
                        NOSIG=
201110292230 METAR LMML NIL=
201110292215 METAR LMML 292215Z 11012KT 9999 FEW025 SCT250 18/12 Q1020
                        NOSIG=
201110292200 METAR LMML NIL=
201110292145 METAR LMML 292145Z 10011KT 9999 FEW025 SCT250 18/12 Q1020
                        NOSIG=
201110292130 METAR LMML NIL=
201110292115 METAR LMML 292115Z 10011KT 070V130 9999 FEW025 SCT120 BKN250
                        18/12 Q1021 NOSIG=
201110292100 METAR LMML NIL=
201110292045 METAR LMML 292045Z 10011KT 9999 FEW028 SCT120 BKN250 18/12
                        Q1021 NOSIG=
201110292030 METAR LMML NIL=
201110292015 METAR LMML 292015Z 09010KT 060V120 9999 FEW026 SCT120 BKN250
                        18/12 Q1021 NOSIG=
201110292000 METAR LMML NIL=
201110291945 METAR LMML 291945Z 09010KT 9999 FEW026 BKN250 18/12 Q1021
                        NOSIG=
201110291930 METAR LMML NIL=
201110291915 METAR LMML 291915Z 09010KT 9999 FEW025 BKN250 18/12 Q1021
                        NOSIG=
201110291900 METAR LMML NIL=
201110291845 METAR LMML 291845Z 09010KT 030V120 9999 FEW025 BKN250 18/12
                        Q1021 NOSIG=
201110291830 METAR LMML NIL=
201110291815 METAR LMML 291815Z 09009KT 060V130 9999 FEW025 BKN250 18/12
                        Q1021 NOSIG=
201110291800 METAR LMML NIL=
201110291745 METAR LMML 291745Z 09010KT 060V120 9999 FEW025 BKN250 18/12
                        Q1021 NOSIG=
201110291730 METAR LMML NIL=
201110291715 METAR LMML 291715Z 09009KT 9999 FEW029 BKN250 18/12 Q1021
                        NOSIG=
201110291700 METAR LMML NIL=
201110291645 METAR LMML 291645Z 09009KT 060V120 9999 FEW029 BKN250 18/12
                        Q1021 NOSIG=
201110291630 METAR LMML NIL=
201110291615 METAR LMML 291615Z 09008KT 9999 BKN029 BKN250 19/12 Q1021
                        NOSIG=
201110291545 METAR LMML 291545Z 09010KT 060V120 9999 BKN027 19/13 Q1021
                        NOSIG=
201110291530 METAR LMML NIL=
201110291515 METAR LMML 291515Z 10011KT 070V130 9999 BKN026 19/13 Q1021
                        NOSIG=
201110291500 METAR LMML NIL=
201110291445 METAR LMML 291445Z 09011KT 9999 BKN027 19/13 Q1021 NOSIG=
201110291430 METAR LMML NIL=
201110291415 METAR LMML 291415Z 09010KT 050V130 9999 BKN028 20/13 Q1021
                        NOSIG=
201110291400 METAR LMML NIL=
201110291345 METAR LMML 291345Z 10012KT 070V140 9999 BKN030 20/13 Q1021
                        NOSIG=
201110291330 METAR LMML NIL=
201110291315 METAR LMML 291315Z 09012KT 060V120 9999 BKN030 20/13 Q1021
                        NOSIG=
201110291300 METAR LMML NIL=
201110291245 METAR LMML 291245Z 08013KT 040V120 9999 BKN028 20/13 Q1021
                        NOSIG=
201110291230 METAR LMML NIL=
201110291215 METAR LMML 291215Z 08013KT 050V120 9999 BKN029 20/13 Q1021
                        NOSIG=
201110291200 METAR LMML NIL=
201110291145 METAR LMML 291145Z 08013KT 050V120 9999 BKN027 20/14 Q1022
                        NOSIG=
201110291130 METAR LMML NIL=
201110291115 METAR LMML 291115Z 09013KT 9999 BKN024 20/14 Q1022 NOSIG=
201110291100 METAR LMML NIL=
201110291045 METAR LMML 291045Z 10015KT 9999 SCT026 21/14 Q1022 NOSIG=
201110291030 METAR LMML NIL=
201110291015 METAR LMML 291015Z 09013KT 060V120 9999 FEW024 SCT250 21/14
                        Q1022 NOSIG=
201110291000 METAR LMML NIL=
201110290945 METAR LMML 290945Z 10013KT 9999 FEW024 BKN250 20/14 Q1023
                        NOSIG=
201110290930 METAR LMML NIL=
201110290915 METAR LMML 290915Z 09012KT 060V120 9999 BKN023 SCT250 20/14
                        Q1023 NOSIG=
201110290900 METAR LMML NIL=
201110290845 METAR LMML 290845Z 09011KT 9999 BKN020 SCT250 20/15 Q1023
                        NOSIG=
201110290830 METAR LMML NIL=
201110290815 METAR LMML 290815Z 09010KT 060V120 9999 BKN023 SCT250 20/15
                        Q1023 NOSIG=
201110290800 METAR LMML NIL=
201110290745 METAR LMML 290745Z 08013KT 9999 SCT023 SCT250 19/14 Q1023
                        NOSIG=
201110290730 METAR LMML NIL=
201110290715 METAR LMML 290715Z 08012KT 050V110 9999 SCT023 SCT250 19/14
                        Q1022 NOSIG=
201110290700 METAR LMML NIL=
201110290645 METAR LMML 290645Z 08009KT 9999 BKN021 SCT250 19/15 Q1022
                        NOSIG=
201110290630 METAR LMML NIL=
201110290615 METAR LMML 290615Z 08007KT 050V110 9999 BKN019 SCT250 18/15
                        Q1022 NOSIG=
201110290600 METAR LMML NIL=
201110290545 METAR LMML 290545Z 07006KT 9999 BKN018 BKN250 18/15 Q1022
                        NOSIG=
201110290530 METAR LMML NIL=
201110290515 METAR LMML 290515Z 08005KT 9999 SCT018 BKN250 18/15 Q1022
                        NOSIG=
201110290500 METAR LMML NIL=
201110290445 METAR LMML 290445Z 09005KT 9999 FEW015 18/15 Q1022 NOSIG=
201110290430 METAR LMML NIL=
201110290415 METAR LMML 290415Z 09004KT 9999 FEW016 18/15 Q1022 NOSIG=
201110290400 METAR LMML NIL=
201110290345 METAR LMML 290345Z 09004KT 9999 SCT016 18/15 Q1022 NOSIG=
201110290330 METAR LMML NIL=
201110290315 METAR LMML 290315Z 09006KT 9999 FEW017 18/15 Q1022 TEMPO
                        8000 RA=
201110290300 METAR LMML NIL=
201110290245 METAR LMML 290245Z 09005KT 9999 FEW016 SCT070 18/15 Q1022
                        TEMPO 8000 RA=
201110290230 METAR LMML NIL=
201110290215 METAR LMML 290215Z 09004KT 9999 FEW020 SCT050 18/15 Q1022
                        TEMPO 8000 RA=
201110290200 METAR LMML NIL=
201110290145 METAR LMML 290145Z 09004KT 9999 FEW020 18/15 Q1022 TEMPO
                        8000 RA=
201110290130 METAR LMML NIL=
201110290115 METAR LMML 290115Z 09004KT 9999 FEW018 17/15 Q1022 TEMPO
                        8000 RA=
201110290100 METAR LMML NIL=
201110290045 METAR LMML 290045Z 10004KT 9999 FEW018 17/15 Q1023 TEMPO
                        8000 RA=
201110290030 METAR LMML NIL=
201110290015 METAR LMML 290015Z 10005KT 060V130 9999 FEW018 18/15 Q1023
                        TEMPO 8000 RA=
201110290000 METAR LMML NIL=
201110282345 METAR LMML 282345Z 10005KT 9999 FEW018 17/15 Q1023 TEMPO
                        8000 RA=
201110282330 METAR LMML NIL=
201110282315 METAR LMML 282315Z 11006KT 9999 FEW019 18/15 Q1023 NOSIG=
201110282300 METAR LMML NIL=
201110282245 METAR LMML 282245Z 11007KT 9999 FEW019 18/15 Q1023 NOSIG=
201110282230 METAR LMML NIL=
201110282215 METAR COR LMML 282215Z 11006KT 9999 FEW021 18/15 Q1023 NOSIG=
201110282200 METAR LMML NIL=
201110282145 METAR LMML 282145Z 11006KT 9999 FEW022 18/15 Q1023 NOSIG=
201110282130 METAR LMML NIL=
201110282115 METAR LMML 282115Z 12006KT 9999 FEW022 18/15 Q1023 NOSIG=
201110282100 METAR LMML NIL=
201110282045 METAR LMML 282045Z 12006KT 9999 FEW022 18/15 Q1023 NOSIG=
201110282030 METAR LMML NIL=
201110282015 METAR LMML 282015Z 13005KT 9999 FEW023 18/15 Q1023 NOSIG=
201110282000 METAR LMML NIL=
201110281945 METAR LMML 281945Z 14006KT 9999 FEW023 19/15 Q1023 NOSIG=
201110281930 METAR LMML NIL=
201110281915 METAR LMML 281915Z 13006KT 9999 FEW022 18/15 Q1023 NOSIG=
201110281900 METAR LMML NIL=
201110281845 METAR LMML 281845Z 12006KT 9999 FEW021 18/15 Q1023 NOSIG=
201110281830 METAR LMML NIL=
201110281815 METAR LMML 281815Z 12007KT 9999 FEW020 18/15 Q1023 NOSIG=
201110281800 METAR LMML NIL=
201110281745 METAR LMML 281745Z 12008KT 9999 FEW020 19/16 Q1023 NOSIG=
201110281730 METAR LMML NIL=
201110281715 METAR LMML 281715Z 12008KT 9999 FEW020 19/16 Q1023 NOSIG=
201110281700 METAR LMML NIL=
201110281645 METAR LMML 281645Z 12009KT 9999 FEW020 19/16 Q1022 NOSIG=
201110281630 METAR LMML NIL=
201110281615 METAR LMML 281615Z 13008KT 9999 FEW020 BKN050 20/16 Q1022
                        NOSIG=
201110281600 METAR LMML NIL=
201110281545 METAR LMML 281545Z 13008KT 9999 FEW021 BKN050 20/16 Q1022
                        NOSIG=
201110281530 METAR LMML NIL=
201110281515 METAR LMML 281515Z 13009KT 9999 FEW021 BKN050 20/16 Q1022
                        NOSIG=
201110281500 METAR LMML NIL=
201110281445 METAR LMML 281445Z 13011KT 9999 FEW019 BKN050 21/16 Q1022
                        NOSIG=
201110281430 METAR LMML NIL=
201110281415 METAR LMML 281415Z 13011KT 9999 SCT025 SCT050 21/16 Q1022
                        NOSIG=
201110281400 METAR LMML NIL=
201110281345 METAR LMML 281345Z 13010KT 110V180 9999 SCT017 SCT090 22/17
                        Q1022 NOSIG=
201110281330 METAR LMML NIL=
201110281315 METAR LMML 281315Z 14010KT 110V180 9999 SCT017 BKN090 22/17
                        Q1022 NOSIG=
201110281300 METAR LMML NIL=
201110281245 METAR LMML 281245Z 16009KT 9999 SCT017 SCT031 21/18 Q1022
                        NOSIG=
201110281230 METAR LMML NIL=
201110281215 METAR LMML 281215Z 14009KT 9999 SCT016 SCT045 BKN070 20/17
                        Q1022 NOSIG=
201110281205 SPECI LMML 281205Z 14008KT 120V180 9999 SCT017 BKN050 20/18
                        Q1022 NOSIG=
201110281200 METAR LMML NIL=
201110281145 METAR LMML 281145Z 14010KT 5000 FEW010 SCT017 BKN050 20/18
                        Q1022 BECMG 9999=
201110281130 METAR LMML NIL=
201110281115 METAR LMML 281115Z 13009KT 9000 -RA SCT015 BKN041 19/18 Q1022
                        BECMG 9999 NSW=
201110281100 METAR LMML NIL=
201110281045 METAR LMML 281045Z 15011KT 9000 -RA SCT016 BKN041 20/17 Q1022
                        BECMG 9999 NSW=
201110281030 METAR LMML NIL=
201110281015 METAR LMML 281015Z 15009KT 120V190 9999 SCT014 BKN029 21/18
                        Q1023 NOSIG=
201110281000 METAR LMML NIL=
201110280945 METAR LMML 280945Z 12011KT 9999 FEW011 BKN016 21/18 Q1022
                        TEMPO 9000 SHRA BKN015=
201110280915 METAR LMML 280915Z 14011KT 110V170 9999 BKN016 22/17 Q1022
                        TEMPO 9000 SHRA BKN015=
201110280901 SPECI LMML 280901Z 14010KT 110V170 9999 FEW016 22/17 Q1022
                        NOSIG=
201110280900 METAR LMML NIL=
201110280845 METAR LMML 280845Z 14009KT 090V180 9999 FEW016 22/17 Q1022
                        NOSIG=
201110280830 METAR LMML NIL=
201110280827 METAR LMML 280827Z 13012KT 9999 FEW014 21/17 Q1022 NOSIG=
201110280826 SPECI LMML 280826Z 13012KT 9999 FEW014 21/17 Q1022 NOSIG=
201110280800 METAR LMML NIL=
201110280745 METAR LMML 280745Z 14010KT 100V170 9999 FEW014 21/17 Q1022
                        TEMPO BKN013=
201110280730 METAR LMML NIL=
201110280715 METAR LMML 280715Z 14009KT 9999 SCT014 20/17 Q1022 BECMG
                        BKN013=
201110280700 METAR LMML NIL=
201110280645 METAR LMML 280645Z 13008KT 9999 SCT014 20/17 Q1022 NOSIG=
201110280615 METAR LMML 280615Z 14008KT 9999 SCT013 19/17 Q1021 NOSIG=
201110280600 METAR LMML NIL=
201110280545 METAR LMML 280545Z 13007KT 9999 SCT014 19/18 Q1021 NOSIG=
201110280530 METAR LMML NIL=
201110280515 METAR LMML 280515Z 13006KT 9999 FEW012 18/17 Q1021 NOSIG=
201110280500 METAR LMML NIL=
201110280445 METAR LMML 280445Z 13008KT 9999 FEW015 18/17 Q1020 NOSIG=
201110280430 METAR LMML NIL=
201110280415 METAR LMML 280415Z 14007KT 9999 SCT012 19/18 Q1020 TEMPO
                        7000 BKN014=
201110280400 METAR LMML NIL=
201110280345 METAR LMML 280345Z 13005KT 9999 SCT013 18/18 Q1020 TEMPO
                        7000 BKN014=
201110280330 METAR LMML NIL=
201110280315 METAR LMML 280315Z 14003KT 9999 SCT014 18/18 Q1020 TEMPO
                        7000 BKN014=
201110280300 METAR LMML NIL=
201110280245 METAR LMML 280245Z VRB02KT 9999 SCT011 18/18 Q1020 TEMPO
                        7000 BKN014=
201110280230 METAR LMML NIL=
201110280215 METAR LMML 280215Z 14004KT 9999 BKN014 17/17 Q1020 NOSIG=
201110280200 METAR LMML NIL=
201110280145 METAR LMML 280145Z 14004KT 110V170 9999 FEW015 17/17 Q1020
                        NOSIG=
201110280130 METAR LMML NIL=
201110280115 METAR LMML 280115Z 15003KT 9999 FEW013 17/17 Q1020 NOSIG=
201110280100 METAR LMML NIL=
201110280045 METAR LMML 280045Z 18003KT 9999 FEW012 17/17 Q1020 NOSIG=
201110280030 METAR LMML NIL=
201110280015 METAR LMML 280015Z VRB01KT 9999 FEW012 16/16 Q1020 NOSIG=
201110280000 METAR LMML NIL=
201110272345 METAR LMML 272345Z VRB01KT 9999 FEW025 17/16 Q1020 NOSIG=
201110272330 METAR LMML NIL=
201110272315 METAR LMML 272315Z VRB02KT 9999 FEW025 17/16 Q1019 NOSIG=
201110272300 METAR LMML NIL=
201110272245 METAR LMML 272245Z 08004KT 9999 FEW025 17/16 Q1019 NOSIG=
201110272230 METAR LMML NIL=
201110272215 METAR LMML 272215Z VRB01KT 9999 FEW025 16/16 Q1019 NOSIG=
201110272200 METAR LMML NIL=
201110272145 METAR LMML 272145Z VRB01KT 9999 FEW025 17/16 Q1019 NOSIG=
201110272130 METAR LMML NIL=
201110272115 METAR LMML 272115Z VRB01KT 9999 FEW025 17/16 Q1019 NOSIG=
201110272045 METAR LMML 272045Z VRB01KT 9999 FEW025 17/15 Q1019 NOSIG=
201110272030 METAR LMML NIL=
201110272015 METAR LMML 272015Z VRB01KT 9999 FEW025 17/15 Q1019 NOSIG=
201110272000 METAR LMML NIL=
201110271945 METAR LMML 271945Z VRB01KT 9999 FEW025 17/15 Q1019 NOSIG=
201110271915 METAR LMML 271915Z VRB01KT 9999 FEW025 17/15 Q1019 NOSIG=
201110271900 METAR LMML NIL=
201110271845 METAR LMML 271845Z VRB01KT 9999 FEW025 SCT250 18/15 Q1019
                        NOSIG=
201110271830 METAR LMML NIL=
201110271815 METAR LMML 271815Z 00000KT 9999 FEW025 SCT250 18/15 Q1019
                        NOSIG=
201110271745 METAR LMML 271745Z VRB01KT 9999 FEW025 BKN250 19/16 Q1018
                        NOSIG=
201110271715 METAR LMML 271715Z VRB02KT 9999 FEW025 BKN250 19/15 Q1018
                        NOSIG=
201110271700 METAR LMML NIL=
201110271645 METAR LMML 271645Z 05004KT 020V080 9999 FEW025 BKN250 19/16
                        Q1018 NOSIG=
201110271615 METAR LMML 271615Z 07005KT 9999 FEW025 BKN250 20/16 Q1018
                        NOSIG=
201110271600 METAR LMML NIL=
201110271545 METAR LMML 271545Z 04007KT 360V070 9999 SCT020 BKN250 21/16
                        Q1018 NOSIG=
201110271530 METAR LMML NIL=
201110271515 METAR LMML 271515Z 23003KT 9999 SCT019 BKN250 21/16 Q1018
                        NOSIG=
201110271500 METAR LMML NIL=
201110271445 METAR LMML 271445Z VRB01KT 9999 SCT018 SCT250 22/16 Q1017
                        NOSIG=
201110271430 METAR LMML NIL=
201110271415 METAR LMML 271415Z 03003KT 9999 SCT019 SCT250 21/16 Q1017
                        NOSIG=
201110271400 METAR LMML NIL=
201110271345 METAR LMML 271345Z VRB01KT 9999 SCT021 SCT250 21/16 Q1017
                        NOSIG=
201110271330 METAR LMML NIL=
201110271315 METAR LMML 271315Z 36003KT 9999 FEW019 SCT250 22/16 Q1017
                        NOSIG=
201110271300 METAR LMML NIL=
201110271245 METAR LMML 271245Z 05003KT 9999 SCT020 SCT250 23/16 Q1017
                        NOSIG=
201110271230 METAR LMML NIL=
201110271215 METAR LMML 271215Z 07006KT 020V120 9999 SCT018 22/16 Q1017
                        NOSIG=
201110271145 METAR LMML 271145Z 05006KT 020V090 9999 SCT022 21/16 Q1018
                        NOSIG=
201110271130 METAR LMML NIL=
201110271115 METAR LMML 271115Z 04004KT 360V090 9999 BKN021 22/17 Q1018
                        NOSIG=
201110271045 METAR LMML 271045Z 02003KT 9999 SCT020 22/16 Q1018 NOSIG=
201110271030 METAR LMML NIL=
201110271015 METAR LMML 271015Z 02004KT 350V060 9999 SCT020 22/16 Q1018
                        NOSIG=
201110271000 METAR LMML NIL=
201110270945 METAR LMML 270945Z 02003KT 9999 SCT025 24/16 Q1018 NOSIG=
201110270930 METAR LMML NIL=
201110270915 METAR LMML 270915Z 31003KT 9999 SCT020 22/15 Q1018 NOSIG=
201110270900 METAR LMML NIL=
201110270845 METAR LMML 270845Z 30003KT 9999 FEW020 22/16 Q1018 NOSIG=
201110270830 METAR LMML NIL=
201110270815 METAR LMML 270815Z 32003KT 9999 FEW015 21/16 Q1018 NOSIG=
201110270800 METAR LMML NIL=
201110270745 METAR LMML 270745Z 33003KT 9999 FEW014 20/16 Q1018 NOSIG=
201110270730 METAR LMML NIL=
201110270715 METAR LMML 270715Z 30003KT 9999 FEW014 20/18 Q1018 NOSIG=
201110270700 METAR LMML NIL=
201110270645 METAR LMML 270645Z 32003KT 9999 SCT013TCU 19/18 Q1018 NOSIG
                        RMK TCU TOP TO SOUTH AND SMOKE TO
                        NORTH=
201110270630 METAR LMML NIL=
201110270615 METAR LMML 270615Z 28003KT 9999 SCT012 18/17 Q1017 NOSIG
                        RMK SMOKE TO NORTH=
201110270600 METAR LMML NIL=
201110270545 METAR LMML 270545Z 31003KT 9999 SCT013 17/16 Q1017 NOSIG=
201110270530 METAR LMML NIL=
201110270515 METAR LMML 270515Z 29004KT 9999 FEW015 17/17 Q1017 NOSIG=
201110270500 METAR LMML NIL=
201110270445 METAR LMML 270445Z 33003KT 9999 FEW015 17/16 Q1017 TEMPO
                        9000 FEW015=
201110270430 METAR LMML NIL=
201110270415 METAR LMML 270415Z 30005KT 270V330 CAVOK 17/16 Q1017 TEMPO
                        9000 FEW015=
201110270400 METAR LMML NIL=
201110270345 METAR LMML 270345Z 29006KT CAVOK 17/17 Q1017 TEMPO 9000 FEW015=
201110270330 METAR LMML NIL=
201110270315 METAR LMML 270315Z 29005KT CAVOK 17/17 Q1016 BECMG 9000=
201110270300 METAR LMML NIL=
201110270245 METAR LMML 270245Z VRB02KT 9999 FEW015 17/16 Q1016 BECMG
                        9000=
201110270230 METAR LMML NIL=
201110270215 METAR LMML 270215Z 31003KT 9999 FEW015 17/16 Q1017 BECMG
                        9000=
201110270200 METAR LMML NIL=
201110270145 METAR LMML 270145Z 31003KT 9999 FEW015 17/17 Q1017 BECMG
                        9000=
201110270130 METAR LMML NIL=
201110270115 METAR LMML 270115Z VRB02KT 9999 FEW015 18/16 Q1017 BECMG
                        9000=
201110270100 METAR LMML NIL=
201110270045 METAR LMML 270045Z 29004KT 9999 FEW015 18/16 Q1017 BECMG
                        9000 RMK DISTANT LIGHTNING TO ESE=
201110270030 METAR LMML NIL=
201110270015 METAR LMML 270015Z 29004KT 9999 FEW046 18/17 Q1017 BECMG
                        9000 RMK DISTANT LIGHTNING TO ESE=
201110270000 METAR LMML NIL=
201110262345 METAR LMML 262345Z 31004KT 9999 FEW046 18/17 Q1017 BECMG
                        9000 RMK DISTANT LIGHTNING TO ESE=
201110262330 METAR LMML NIL=
201110262315 METAR LMML 262315Z 29004KT 9999 SCT040 18/17 Q1017 BECMG
                        9000=
201110262300 METAR LMML NIL=
201110262245 METAR LMML 262245Z 29004KT 9999 FEW039 18/17 Q1017 BECMG
                        9000=
201110262230 METAR LMML NIL=
201110262215 METAR LMML 262215Z 29004KT 9999 FEW012 18/17 Q1017 BECMG
                        9000 RMK DISTANT LIGHTNING TO E=
201110262200 METAR LMML NIL=
201110262145 METAR LMML 262145Z VRB01KT 9999 FEW013 18/17 Q1017 BECMG
                        9000=
201110262130 METAR LMML NIL=
201110262115 METAR LMML 262115Z 36004KT 9999 FEW013 18/17 Q1017 NOSIG=
201110262100 METAR LMML NIL=
201110262045 METAR LMML 262045Z VRB02KT 9999 FEW013 SCT050 18/17 Q1017
                        NOSIG=
201110262030 METAR LMML NIL=
201110262015 METAR LMML 262015Z VRB02KT 9999 SCT010 18/17 Q1017 NOSIG=
201110262000 METAR LMML NIL=
201110261945 METAR LMML 261945Z VRB02KT 9999 SCT013 18/17 Q1017 NOSIG=
201110261930 METAR LMML NIL=
201110261915 METAR LMML 261915Z VRB01KT 9999 FEW025 18/17 Q1017 NOSIG=
201110261900 METAR LMML NIL=
201110261845 METAR LMML 261845Z 00000KT 9999 FEW025 SCT250 19/17 Q1016
                        NOSIG=
201110261830 METAR LMML NIL=
201110261815 METAR LMML 261815Z VRB02KT 9999 FEW025 SCT120 19/17 Q1017
                        NOSIG RMK DISTANT LIGHTNING TO NNE=
201110261800 METAR LMML NIL=
201110261745 METAR LMML 261745Z 29003KT 9999 FEW025 SCT120 19/17 Q1016
                        NOSIG RMK DISTANT LIGHTNING TO NNE=
201110261730 METAR LMML NIL=
201110261715 METAR LMML 261715Z VRB02KT 9999 FEW025 SCT120 19/17 Q1016
                        NOSIG=
201110261700 METAR LMML NIL=
201110261645 METAR LMML 261645Z 29003KT 9999 FEW025 SCT120 19/17 Q1016
                        NOSIG=
201110261615 METAR LMML 261615Z 24004KT 200V280 9999 FEW025 SCT120 20/17
                        Q1016 NOSIG=
201110261600 METAR LMML NIL=
201110261545 METAR LMML 261545Z 25005KT 220V290 9999 SCT028 BKN120 20/17
                        Q1016 NOSIG=
201110261530 METAR LMML NIL=
201110261515 METAR LMML 261515Z 24007KT 200V270 9999 SCT024 BKN120 20/17
                        Q1016 NOSIG=
201110261445 METAR LMML 261445Z 19003KT 9999 FEW018 BKN120 21/15 Q1015
                        NOSIG=
201110261430 METAR LMML NIL=
201110261415 METAR LMML 261415Z VRB02KT 9999 FEW018 BKN120 21/16 Q1015
                        NOSIG=
201110261400 METAR LMML NIL=
201110261345 METAR LMML 261345Z 27006KT 220V300 9999 FEW018 BKN120 21/16
                        Q1016 NOSIG=
201110261315 METAR LMML 261315Z 27007KT 230V300 9999 FEW018 BKN120 22/15
                        Q1016 NOSIG=
201110261300 METAR LMML NIL=
201110261245 METAR LMML 261245Z 23007KT 190V280 9999 FEW018 SCT120 22/17
                        Q1016 NOSIG=
201110261230 METAR LMML NIL=
201110261215 METAR LMML 261215Z 22006KT 180V260 9999 FEW016 SCT120 22/17
                        Q1016 NOSIG=
201110261200 METAR LMML NIL=
201110261145 METAR LMML 261145Z 21006KT 170V260 9999 SCT015 BKN250 22/16
                        Q1016 NOSIG=
201110261130 METAR LMML NIL=
201110261115 METAR LMML 261115Z 23006KT 180V260 9999 SCT014 BKN250 22/16
                        Q1017 NOSIG=
201110261045 METAR LMML 261045Z 22006KT 180V280 9999 SCT013 BKN250 22/17
                        Q1017 NOSIG=
201110261030 METAR LMML NIL=
201110261015 METAR LMML 261015Z 21005KT 160V280 9999 FEW012 BKN250 22/17
                        Q1017 NOSIG=
201110260945 METAR LMML 260945Z 21004KT 170V240 9999 FEW013 BKN250 21/17
                        Q1017 NOSIG=
201110260930 METAR LMML NIL=
201110260915 METAR LMML 260915Z 18005KT 130V220 9999 SCT013 BKN250 22/17
                        Q1017 NOSIG=
201110260900 METAR LMML NIL=
201110260845 METAR LMML 260845Z 18005KT 120V260 9999 SCT012 SCT120 BKN250
                        21/17 Q1017 NOSIG=
201110260830 METAR LMML NIL=
201110260815 METAR LMML 260815Z 18004KT 140V230 9999 SCT012 BKN120 21/17
                        Q1016 NOSIG=
201110260800 METAR LMML NIL=
201110260745 METAR LMML 260745Z 13004KT 100V160 9999 FEW009 SCT014 BKN120
                        21/18 Q1016 NOSIG=
201110260730 METAR LMML NIL=
201110260715 METAR LMML 260715Z VRB02KT 9999 FEW010 SCT120 BKN250 19/18
                        Q1016 NOSIG=
201110260700 METAR LMML NIL=
201110260645 METAR LMML 260645Z VRB02KT 9999 FEW027 BKN250 19/18 Q1016
                        NOSIG=
201110260630 METAR LMML NIL=
201110260615 METAR LMML 260615Z VRB01KT 9999 SCT012 SCT120 BKN250 18/17
                        Q1016 NOSIG=
201110260600 METAR LMML NIL=
201110260545 METAR LMML 260545Z VRB02KT 9999 SCT013 BKN120 18/17 Q1015
                        NOSIG=
201110260515 METAR LMML 260515Z VRB02KT 9999 FEW012 BKN130 BKN250 18/17
                        Q1016 NOSIG=
201110260500 METAR LMML NIL=
201110260445 METAR LMML 260445Z VRB02KT 9999 FEW012 BKN130 BKN250 18/16
                        Q1015 NOSIG=
201110260430 METAR LMML NIL=
201110260415 METAR LMML 260415Z VRB01KT 9999 FEW011 BKN090 18/16 Q1015
                        NOSIG=
201110260400 METAR LMML NIL=
201110260345 METAR LMML 260345Z 11003KT 9999 FEW015 BKN130 18/16 Q1015
                        NOSIG=
201110260330 METAR LMML NIL=
201110260315 METAR LMML 260315Z 09003KT 9000 FEW014 BKN130 18/16 Q1015
                        NOSIG=
201110260300 METAR LMML NIL=
201110260245 METAR LMML 260245Z 12004KT 9000 FEW014 BKN130 18/16 Q1015
                        NOSIG=
201110260230 METAR LMML NIL=
201110260215 METAR LMML 260215Z 12003KT 9000 FEW014 18/16 Q1015 NOSIG=
201110260200 METAR LMML NIL=
201110260145 METAR LMML 260145Z 13004KT 9000 FEW016 18/16 Q1016 NOSIG=
201110260130 METAR LMML NIL=
201110260115 METAR LMML 260115Z 14004KT 9000 FEW015 18/16 Q1016 NOSIG=
201110260100 METAR LMML NIL=
201110260045 METAR LMML 260045Z 14005KT 9000 FEW015 SCT050 18/16 Q1016
                        NOSIG=
201110260030 METAR LMML NIL=
201110260015 METAR LMML 260015Z 14005KT 9000 FEW015 BKN050 19/16 Q1016
                        NOSIG=
201110252345 METAR LMML 252345Z 13005KT 9000 FEW015 BKN048 19/16 Q1016
                        NOSIG=
201110252330 METAR LMML NIL=
201110252315 METAR LMML 252315Z 12006KT 9000 FEW015 SCT045 19/17 Q1016
                        NOSIG=
201110252300 METAR LMML NIL=
201110252245 METAR LMML 252245Z 12007KT 080V140 9000 FEW015 SCT250 19/16
                        Q1016 NOSIG=
201110252230 METAR LMML NIL=
201110252215 METAR LMML 252215Z 14006KT 9000 FEW013 SCT250 19/17 Q1016
                        NOSIG=
201110252200 METAR LMML NIL=
201110252145 METAR LMML 252145Z 13007KT 9999 FEW014 SCT250 19/16 Q1016
                        NOSIG=
201110252130 METAR LMML NIL=
201110252115 METAR LMML 252115Z 13007KT 9999 SCT014 19/17 Q1016 NOSIG=
201110252100 METAR LMML NIL=
201110252045 METAR LMML 252045Z 11008KT 9999 FEW013 SCT250 19/17 Q1016
                        NOSIG=
201110252030 METAR LMML NIL=
201110252015 METAR LMML 252015Z 10006KT 060V120 9999 SCT014 SCT250 19/17
                        Q1016 NOSIG=
201110252000 METAR LMML NIL=
201110251945 METAR LMML 251945Z 10005KT 9999 FEW014 BKN250 19/17 Q1016
                        NOSIG=
201110251930 METAR LMML NIL=
201110251915 METAR LMML 251915Z 09005KT 9999 FEW014 BKN250 19/17 Q1015
                        NOSIG=
201110251900 METAR LMML NIL=
201110251845 METAR LMML 251845Z 09005KT 9999 FEW014 SCT250 19/16 Q1015
                        NOSIG=
201110251830 METAR LMML NIL=
201110251815 METAR LMML 251815Z 09004KT 9999 FEW015 SCT250 20/17 Q1015
                        NOSIG=
201110251800 METAR LMML NIL=
201110251745 METAR LMML 251745Z 09004KT 9999 SCT014 SCT250 20/16 Q1015
                        NOSIG=
201110251730 METAR LMML NIL=
201110251715 METAR LMML 251715Z 09004KT 060V130 9999 FEW017 BKN250 19/16
                        Q1015 NOSIG=
201110251700 METAR LMML NIL=
201110251645 METAR LMML 251645Z 09006KT 060V120 9999 FEW017 BKN250 20/16
                        Q1014 NOSIG=
201110251630 METAR LMML NIL=
201110251615 METAR LMML 251615Z 09006KT 060V120 9999 SCT016 BKN250 20/16
                        Q1014 NOSIG=
201110251600 METAR LMML NIL=
201110251545 METAR LMML 251545Z 09007KT 060V120 9999 SCT016 BKN250 20/16
                        Q1014 NOSIG=
201110251530 METAR LMML NIL=
201110251515 METAR LMML 251515Z 10007KT 070V130 9999 SCT017 SCT250 21/16
                        Q1013 NOSIG=
201110251500 METAR LMML NIL=
201110251445 METAR LMML 251445Z 09007KT 060V120 9999 SCT019 21/16 Q1013
                        NOSIG=
201110251430 METAR LMML NIL=
201110251415 METAR LMML 251415Z 10008KT 070V140 9999 SCT020 21/16 Q1013
                        NOSIG=
201110251400 METAR LMML NIL=
201110251345 METAR LMML 251345Z 08006KT 040V130 9999 SCT022 21/16 Q1013
                        NOSIG=
201110251330 METAR LMML NIL=
201110251315 METAR LMML 251315Z 09007KT 050V140 9999 SCT023 21/16 Q1013
                        NOSIG=
201110251300 METAR LMML NIL=
201110251245 METAR LMML 251245Z 09007KT 050V120 9999 FEW021 21/15 Q1013
                        NOSIG=
201110251230 METAR LMML NIL=
201110251215 METAR LMML 251215Z 07007KT 030V120 9999 FEW023 23/16 Q1013
                        NOSIG=
201110251200 METAR LMML NIL=
201110251145 METAR LMML 251145Z 11006KT 070V140 9999 FEW022 23/16 Q1013
                        NOSIG=
201110251130 METAR LMML NIL=
201110251115 METAR LMML 251115Z 13006KT 080V170 9999 FEW017 22/15 Q1013
                        NOSIG=
201110251100 METAR LMML NIL=
201110251045 METAR LMML 251045Z 13006KT 080V160 9999 SCT017 22/16 Q1014
                        NOSIG=
201110251030 METAR LMML NIL=
201110251015 METAR LMML 251015Z 14006KT 100V190 9999 FEW015 SCT018 22/16
                        Q1014 NOSIG=
201110251000 METAR LMML NIL=
201110250945 METAR LMML 250945Z 12007KT 070V150 9999 FEW014 BKN018 22/16
                        Q1014 NOSIG=
201110250930 METAR LMML NIL=
201110250915 METAR LMML 250915Z 12006KT 080V160 9999 SCT018 22/17 Q1014
                        NOSIG=
201110250900 METAR LMML NIL=
201110250845 METAR LMML 250845Z 10006KT 040V150 9999 SCT016 21/17 Q1013
                        NOSIG=
201110250830 METAR LMML NIL=
201110250815 METAR LMML 250815Z 09006KT 9999 SCT016 21/17 Q1013 NOSIG=
201110250800 METAR LMML NIL=
201110250745 METAR LMML 250745Z 08005KT 040V120 9999 SCT014 20/17 Q1013
                        NOSIG=
201110250730 METAR LMML NIL=
201110250715 METAR LMML 250715Z 07003KT 9999 FEW013 19/17 Q1013 NOSIG=
201110250700 METAR LMML NIL=
201110250645 METAR LMML 250645Z 05003KT 9999 FEW015 19/17 Q1012 NOSIG=
201110250630 METAR LMML NIL=
201110250615 METAR LMML 250615Z 10003KT CAVOK 18/17 Q1012 NOSIG=
201110250600 METAR LMML NIL=
201110250545 METAR LMML 250545Z 09003KT 9999 FEW012 SCT070 18/17 Q1012
                        NOSIG=
201110250530 METAR LMML NIL=
201110250515 METAR LMML 250515Z 09004KT 9999 FEW015 SCT070 17/17 Q1012
                        NOSIG=
201110250500 METAR LMML NIL=
201110250445 METAR LMML 250445Z 03004KT 010V070 8000 SCT013 SCT070 18/17
                        Q1012 TEMPO 7000 SHRA=
201110250430 METAR LMML NIL=
201110250415 METAR LMML 250415Z VRB02KT 8000 -SHRA BKN014 SCT080 17/16
                        Q1012 TEMPO 7000 SHRA=
201110250400 METAR LMML NIL=
201110250345 METAR LMML 250345Z 08003KT 9999 FEW019 SCT080 17/16 Q1012
                        TEMPO 7000 SHRA=
201110250330 METAR LMML NIL=
201110250315 METAR LMML 250315Z VRB02KT 9999 -RA FEW016 SCT080 17/15 Q1011
                        TEMPO 7000 SHRA=
201110250300 METAR LMML NIL=
201110250245 METAR LMML 250245Z VRB02KT 9999 FEW020 17/15 Q1012 TEMPO
                        7000 SHRA=
201110250230 METAR LMML NIL=
201110250215 METAR LMML 250215Z VRB02KT 9999 FEW030 SCT120 18/16 Q1011
                        TEMPO 7000 SHRA=
201110250200 METAR LMML NIL=
201110250145 METAR LMML 250145Z 11003KT 9999 FEW035 SCT120 18/16 Q1012
                        NOSIG=
201110250130 METAR LMML NIL=
201110250115 METAR LMML 250115Z 11005KT 9999 FEW027 SCT250 18/16 Q1012
                        NOSIG=
201110250100 METAR LMML NIL=
201110250045 METAR LMML 250045Z 12006KT 9999 FEW014 SCT120 BKN250 18/16
                        Q1012 NOSIG=
201110250030 METAR LMML NIL=
201110250015 METAR LMML 250015Z 11007KT 9999 FEW010 SCT015 BKN120 18/17
                        Q1012 NOSIG=
201110250000 METAR LMML NIL=
201110242345 METAR LMML 242345Z 11005KT 080V150 9999 SCT009 SCT012 BKN120
                        18/17 Q1012 NOSIG=
201110242315 METAR LMML 242315Z 06003KT 9999 SCT009 SCT015 BKN110 18/17
                        Q1012 NOSIG=
201110242245 METAR LMML 242245Z 09004KT 060V120 9999 SCT009 BKN100 BKN250
                        18/16 Q1012 NOSIG=
201110242230 METAR LMML NIL=
201110242215 METAR LMML 242215Z 10004KT 9999 FEW010 BKN100 BKN250 18/15
                        Q1012 TEMPO 5000 RA BKN008=
201110242200 METAR LMML NIL=
201110242145 METAR LMML 242145Z 11008KT 9999 FEW009 BKN100 BKN250 18/16
                        Q1013 TEMPO 5000 RA BKN008=
201110242130 METAR LMML NIL=
201110242115 METAR LMML 242115Z 12008KT 9999 SCT009 BKN100 18/16 Q1013
                        TEMPO 5000 RA BKN008=
201110242100 METAR LMML NIL=
201110242045 METAR LMML 242045Z 10008KT 9999 -RA BKN014 SCT050 BKN100
                        18/16 Q1013 NOSIG=
201110242030 METAR LMML NIL=
201110242015 METAR LMML 242015Z 11006KT 8000 -RA FEW012 SCT050 BKN080
                        18/16 Q1013 NOSIG=
201110242000 METAR LMML NIL=
201110241945 METAR LMML 241945Z 12006KT 9999 -RA FEW013 SCT030 BKN050
                        18/16 Q1013 TEMPO 5000 TSRA BKN013CB=
201110241930 METAR LMML NIL=
201110241915 METAR LMML 241915Z 12004KT 9999 -RA FEW019 SCT039 BKN120
                        18/16 Q1013 TEMPO 5000 TSRA BKN013CB=
201110241900 METAR LMML NIL=
201110241845 METAR LMML 241845Z 14003KT 9999 FEW019 BKN045 BKN120 18/16
                        Q1013 TEMPO 5000 TSRA BKN013CB=
201110241830 METAR LMML NIL=
201110241815 METAR LMML 241815Z 14008KT 100V190 9999 SCT016 BKN046 BKN250
                        19/16 Q1013 TEMPO 5000 TSRA BKN013CB=
201110241745 METAR LMML 241745Z 09008KT 060V120 9999 SCT018 SCT045 BKN250
                        20/16 Q1013 TEMPO 5000 TSRA BKN013CB=
201110241730 METAR LMML NIL=
201110241715 METAR LMML 241715Z 10009KT 9999 SCT016 BKN050 BKN250 20/16
                        Q1013 TEMPO 5000 TSRA BKN013CB=
201110241700 METAR LMML NIL=
201110241645 METAR LMML 241645Z 09009KT 9999 SCT015 BKN250 20/16 Q1012
                        TEMPO 5000 TSRA BKN013CB=
201110241630 METAR LMML NIL=
201110241615 METAR LMML 241615Z 09009KT 060V120 9999 BKN015 BKN250 20/16
                        Q1012 TEMPO 5000 TSRA BKN013CB=
201110241600 METAR LMML NIL=
201110241545 METAR LMML 241545Z 09008KT 060V120 9999 BKN015 BKN250 20/16
                        Q1012 TEMPO 8000 SHRA BKN015TCU=
201110241530 METAR LMML NIL=
201110241515 METAR LMML 241515Z 09009KT 060V120 9999 BKN015 BKN250 20/16
                        Q1012 NOSIG=
201110241500 METAR LMML NIL=
201110241445 METAR LMML 241445Z 09009KT 040V120 9999 SCT015 BKN250 20/16
                        Q1012 TEMPO BKN015=
201110241430 METAR LMML NIL=
201110241415 METAR LMML 241415Z 11012KT 080V140 9999 SCT016 BKN250 20/16
                        Q1012 NOSIG=
201110241345 METAR LMML 241345Z 11012KT 080V140 9999 SCT017 BKN250 21/16
                        Q1012 NOSIG=
201110241330 METAR LMML NIL=
201110241315 METAR LMML 241315Z 11010KT 080V140 9999 FEW016 SCT020 BKN032
                        21/16 Q1013 NOSIG=
201110241300 METAR LMML NIL=
201110241245 METAR LMML 241245Z 11010KT 080V140 9999 SCT017 BKN250 21/16
                        Q1013 NOSIG=
201110241230 METAR LMML NIL=
201110241215 METAR LMML 241215Z 11011KT 090V150 9999 SCT019 BKN250 21/16
                        Q1013 NOSIG=
201110241145 METAR LMML 241145Z 11011KT 080V140 9999 SCT016 BKN250 21/16
                        Q1013 NOSIG=
201110241130 METAR LMML NIL=
201110241115 METAR LMML 241115Z 12011KT 090V150 9999 SCT018 BKN250 21/16
                        Q1014 NOSIG=
201110241100 METAR LMML NIL=
201110241045 METAR LMML 241045Z 10011KT 080V140 9999 BKN016 BKN250 21/16
                        Q1014 NOSIG=
201110241015 METAR LMML 241015Z 08011KT 050V130 9999 BKN018 BKN250 21/16
                        Q1014 NOSIG=
201110241000 METAR LMML NIL=
201110240945 METAR LMML 240945Z 09011KT 060V120 9999 SCT017 BKN250 21/16
                        Q1015 NOSIG=
201110240930 METAR LMML NIL=
201110240915 METAR LMML 240915Z 10010KT 070V130 9999 BKN017 BKN250 20/16
                        Q1015 NOSIG=
201110240900 METAR LMML NIL=
201110240845 METAR LMML 240845Z 08008KT 040V120 9999 SCT017 BKN250 20/16
                        Q1015 NOSIG=
201110240830 METAR LMML NIL=
201110240815 METAR LMML 240815Z 08009KT 030V110 9999 BKN018 20/16 Q1015
                        NOSIG=
201110240800 METAR LMML NIL=
201110240745 METAR LMML 240745Z 06009KT 030V090 9999 SCT017 BKN250 20/16
                        Q1015 NOSIG=
201110240730 METAR LMML NIL=
201110240715 METAR LMML 240715Z 06008KT 030V090 9999 SCT018 BKN250 20/16
                        Q1015 NOSIG=
201110240645 METAR LMML 240645Z 07006KT 010V200 9999 SCT018 BKN250 19/16
                        Q1014 NOSIG=
201110240630 METAR LMML NIL=
201110240615 METAR LMML 240615Z 06005KT 9999 SCT017 BKN250 18/16 Q1014
                        NOSIG=
201110240600 METAR LMML NIL=
201110240545 METAR LMML 240545Z 07004KT 9999 SCT016 BKN250 18/15 Q1014
                        NOSIG=
201110240530 METAR LMML NIL=
201110240515 METAR LMML 240515Z 06004KT 040V100 9999 SCT017 SCT250 17/15
                        Q1014 NOSIG=
201110240500 METAR LMML NIL=
201110240445 METAR LMML 240445Z 08003KT 9999 SCT016 17/15 Q1014 NOSIG=
201110240415 METAR LMML 240415Z 07004KT 9999 SCT016 17/15 Q1014 NOSIG=
201110240400 METAR LMML NIL=
201110240345 METAR LMML 240345Z 08004KT 9999 SCT016 17/15 Q1014 NOSIG=
201110240330 METAR LMML NIL=
201110240315 METAR LMML 240315Z 07003KT 9999 SCT016 17/15 Q1014 NOSIG=
201110240300 METAR LMML NIL=
201110240245 METAR LMML 240245Z 07003KT 9999 SCT015 17/15 Q1014 NOSIG=
201110240230 METAR LMML NIL=
201110240215 METAR LMML 240215Z 07003KT 9999 FEW016 17/15 Q1014 NOSIG=
201110240200 METAR LMML NIL=
201110240145 METAR LMML 240145Z 07004KT 9999 FEW016 17/15 Q1014 NOSIG=
201110240130 METAR LMML NIL=
201110240115 METAR LMML 240115Z 07003KT 9999 FEW016 17/15 Q1014 NOSIG=
201110240100 METAR LMML NIL=
201110240045 METAR LMML 240045Z 08003KT 9999 FEW014 17/15 Q1015 NOSIG=
201110240030 METAR LMML NIL=
201110240015 METAR LMML 240015Z 08003KT 9999 FEW015 17/15 Q1015 NOSIG=
201110240000 METAR LMML NIL=
201110232345 METAR LMML 232345Z 07003KT 9999 FEW015 18/16 Q1015 NOSIG=
201110232330 METAR LMML NIL=
201110232315 METAR LMML 232315Z 06003KT 9999 FEW013 18/16 Q1015 NOSIG=
201110232300 METAR LMML NIL=
201110232245 METAR LMML 232245Z 06003KT 9999 FEW014 18/16 Q1015 NOSIG=
201110232230 METAR LMML NIL=
201110232215 METAR LMML 232215Z 07003KT 9999 FEW015 18/16 Q1015 NOSIG=
201110232200 METAR LMML NIL=
201110232145 METAR LMML 232145Z 07004KT 9999 FEW015 18/16 Q1016 NOSIG=
201110232130 METAR LMML NIL=
201110232115 METAR LMML 232115Z 04005KT 010V100 9999 FEW013 19/16 Q1016
                        NOSIG=
201110232100 METAR LMML NIL=
201110232045 METAR LMML 232045Z 05005KT 020V080 9999 FEW015 18/15 Q1016
                        NOSIG=
201110232030 METAR LMML NIL=
201110232015 METAR LMML 232015Z 05006KT 010V080 9999 SCT017 18/15 Q1016
                        NOSIG=
201110231945 METAR LMML 231945Z 05006KT 010V100 9999 SCT015 19/16 Q1016
                        NOSIG=
201110231930 METAR LMML NIL=
201110231915 METAR LMML 231915Z 04005KT 010V080 9999 SCT015 19/16 Q1016
                        NOSIG=
201110231900 METAR LMML NIL=
201110231845 METAR LMML 231845Z 05004KT 010V090 9999 SCT015 19/16 Q1016
                        NOSIG=
201110231830 METAR LMML NIL=
201110231815 METAR LMML 231815Z 06004KT 030V090 9999 SCT016 18/16 Q1015
                        NOSIG=
201110231800 METAR LMML NIL=
201110231745 METAR LMML 231745Z 07004KT 020V100 9999 FEW016 18/15 Q1015
                        NOSIG=
201110231730 METAR LMML NIL=
201110231715 METAR LMML 231715Z 05005KT 020V100 9999 FEW015 19/15 Q1015
                        NOSIG=
201110231645 METAR LMML 231645Z 05005KT 020V090 9999 FEW015 19/15 Q1015
                        NOSIG=
201110231630 METAR LMML NIL=
201110231615 METAR LMML 231615Z 04006KT 010V080 9999 FEW015 19/15 Q1015
                        NOSIG RMK DISTANT CB TOP TO NNE=
201110231600 METAR LMML NIL=
201110231545 METAR LMML 231545Z 04006KT 010V070 9999 SCT016 20/15 Q1015
                        NOSIG=
201110231530 METAR LMML NIL=
201110231515 METAR LMML 231515Z 04008KT 010V080 9999 SCT019 20/15 Q1015
                        NOSIG=
201110231500 METAR LMML NIL=
201110231445 METAR LMML 231445Z 03007KT 010V070 9999 BKN017 21/15 Q1015
                        NOSIG=
201110231430 METAR LMML NIL=
201110231415 METAR LMML 231415Z 02007KT 350V060 9999 BKN019 20/15 Q1015
                        NOSIG=
201110231400 METAR LMML NIL=
201110231345 METAR LMML 231345Z 04008KT 010V080 9999 BKN018 21/15 Q1015
                        NOSIG=
201110231330 METAR LMML NIL=
201110231315 METAR LMML 231315Z 03008KT 360V070 9999 BKN018 21/15 Q1015
                        NOSIG=
201110231300 METAR LMML NIL=
201110231245 METAR LMML 231245Z 03007KT 350V080 9999 BKN016 21/15 Q1015
                        NOSIG=
201110231230 METAR LMML NIL=
201110231215 METAR LMML 231215Z 03007KT 350V080 9999 BKN017 21/15 Q1016
                        NOSIG=
201110231200 METAR LMML NIL=
201110231145 METAR LMML 231145Z 04008KT 360V080 9999 BKN017 21/16 Q1016
                        NOSIG=
201110231130 METAR LMML NIL=
201110231115 METAR LMML 231115Z 04006KT 010V090 9999 BKN016 21/16 Q1016
                        NOSIG=
201110231100 METAR LMML NIL=
201110231045 METAR LMML 231045Z 05006KT 360V100 9999 BKN015 21/16 Q1016
                        NOSIG=
201110231030 METAR LMML NIL=
201110231015 METAR LMML 231015Z 04009KT 350V090 9999 BKN015 21/16 Q1016
                        NOSIG=
201110231000 METAR LMML NIL=
201110230945 METAR LMML 230945Z 06008KT 010V110 9999 BKN015 20/16 Q1017
                        NOSIG=
201110230930 METAR LMML NIL=
201110230915 METAR LMML 230915Z 07008KT 040V110 9999 BKN015 21/16 Q1017
                        NOSIG=
201110230900 METAR LMML NIL=
201110230845 METAR LMML 230845Z 04007KT 340V210 9999 BKN015 19/16 Q1017
                        NOSIG=
201110230830 METAR LMML NIL=
201110230815 METAR LMML 230815Z 03008KT 010V070 9999 BKN014 20/16 Q1017
                        NOSIG=
201110230800 METAR LMML NIL=
201110230745 METAR LMML 230745Z 05007KT 360V090 9999 BKN013 20/17 Q1017
                        NOSIG=
201110230730 METAR LMML NIL=
201110230715 METAR LMML 230715Z 05005KT 020V090 9999 SCT015 SCT045 19/16
                        Q1017 NOSIG=
201110230700 METAR LMML NIL=
201110230645 METAR LMML 230645Z 07005KT 9999 FEW022 SCT050 18/16 Q1017
                        NOSIG=
201110230630 METAR LMML NIL=
201110230615 METAR LMML 230615Z 07005KT 030V100 9999 FEW015 SCT040 18/15
                        Q1016 NOSIG=
201110230600 METAR LMML NIL=
201110230545 METAR LMML 230545Z 07005KT 040V100 9999 FEW012 SCT029 18/16
                        Q1016 NOSIG RMK CB TOPS TO SOUTH=
201110230530 METAR LMML NIL=
201110230515 METAR LMML 230515Z 05005KT 020V100 9999 FEW012 BKN080 18/16
                        Q1016 NOSIG=
201110230500 METAR LMML NIL=
201110230445 METAR LMML 230445Z 06005KT 020V090 9999 FEW013 BKN025 18/16
                        Q1016 NOSIG=
201110230430 METAR LMML NIL=
201110230415 METAR LMML 230415Z 08006KT 9999 FEW010 SCT025 BKN080 17/16
                        Q1016 TEMPO 9000 -RA=
201110230400 METAR LMML NIL=
201110230345 METAR LMML 230345Z 07006KT 040V100 9999 FEW010 BKN031 BKN080
                        17/16 Q1016 TEMPO 9000 -RA=
201110230330 METAR LMML NIL=
201110230315 METAR LMML 230315Z 08006KT 9999 FEW009 SCT023 BKN080 17/16
                        Q1016 TEMPO 9000 -RA=
201110230300 METAR LMML NIL=
201110230245 METAR LMML 230245Z 08006KT 9999 FEW023 SCT050 BKN080 17/16
                        Q1016 TEMPO 9000 -RA=
201110230230 METAR LMML NIL=
201110230215 METAR LMML 230215Z 09008KT 060V120 9999 BKN040 BKN120 17/15
                        Q1016 NOSIG=
201110230200 METAR LMML NIL=
201110230145 METAR LMML 230145Z 11008KT 9999 FEW012 SCT050 BKN120 17/15
                        Q1016 NOSIG=
201110230130 METAR LMML NIL=
201110230115 METAR LMML 230115Z 10008KT 9999 FEW012 SCT060 BKN120 18/15
                        Q1017 TEMPO 3000 TSRA BKN015CB=
201110230100 METAR LMML NIL=
201110230045 METAR LMML 230045Z 10006KT 9999 FEW013 BKN060 BKN080 17/15
                        Q1017 TEMPO 3000 TSRA BKN015CB=
201110230030 METAR LMML NIL=
201110230015 METAR LMML 230015Z 09007KT 9999 -RA FEW036 BKN050 BKN080
                        17/15 Q1017 TEMPO 3000 TSRA BKN015CB=
201110230000 METAR LMML NIL=
201110222345 METAR LMML 222345Z 09006KT 9999 -RA FEW015 BKN060 17/15 Q1018
                        TEMPO 8000 RA BKN012=
201110222330 METAR LMML NIL=
201110222315 METAR LMML 222315Z 10008KT 080V150 9999 FEW036 BKN060 17/15
                        Q1018 RERA TEMPO 8000 RA=
201110222300 METAR LMML NIL=
201110222245 METAR LMML 222245Z 10007KT 8000 RA FEW035 BKN060 17/15 Q1018
                        TEMPO BKN012=
201110222230 METAR LMML NIL=
201110222215 METAR LMML 222215Z 10008KT 8000 RA FEW012 SCT039 BKN060 17/15
                        Q1019 TEMPO BKN012=
201110222200 METAR LMML NIL=
201110222145 METAR LMML 222145Z 11010KT 8000 RA FEW011 SCT037 BKN050 17/15
                        Q1019 TEMPO BKN012=
201110222130 METAR LMML NIL=
201110222115 METAR LMML 222115Z 11012KT 9999 -RA FEW011 SCT034 BKN050
                        17/15 Q1019 TEMPO 8000=
201110222100 METAR LMML NIL=
201110222045 METAR LMML 222045Z 13009KT 100V160 9999 -RA FEW015 BKN050
                        18/15 Q1019 TEMPO 8000=
201110222030 METAR LMML NIL=
201110222015 METAR LMML 222015Z 13012KT 9999 -RA SCT031 BKN070 18/15 Q1019
                        TEMPO 8000 RA=
201110222000 METAR LMML NIL=
201110221945 METAR LMML 221945Z 11011KT 9999 FEW024 BKN070 18/15 Q1019
                        TEMPO 8000 RA=
201110221930 METAR LMML NIL=
201110221915 METAR LMML 221915Z 12010KT 9999 FEW033 BKN070 18/15 Q1019
                        NOSIG=
201110221900 METAR LMML NIL=
201110221845 METAR LMML 221845Z 11007KT 9999 FEW023 BKN090 18/15 Q1019
                        NOSIG=
201110221830 METAR LMML NIL=
201110221815 METAR LMML 221815Z 09006KT 9999 FEW023 BKN090 18/15 Q1019
                        NOSIG=
201110221800 METAR LMML NIL=
201110221745 METAR LMML 221745Z 08007KT 9999 FEW023 BKN090 18/15 Q1019
                        NOSIG=
201110221730 METAR LMML NIL=
201110221715 METAR LMML 221715Z 06006KT 030V090 9999 FEW014 BKN090 18/16
                        Q1019 NOSIG=
201110221700 METAR LMML NIL=
201110221645 METAR LMML 221645Z 05008KT 020V080 9999 -RA FEW014 BKN090
                        18/15 Q1019 NOSIG=
201110221630 METAR LMML NIL=
201110221615 METAR LMML 221615Z 04008KT 010V070 9999 FEW014 BKN100 18/15
                        Q1019 NOSIG=
201110221600 METAR LMML NIL=
201110221545 METAR LMML 221545Z 04006KT 360V070 9999 -RA SCT015 BKN100
                        18/15 Q1019 NOSIG=
201110221530 METAR LMML NIL=
201110221515 METAR LMML 221515Z 03008KT 350V060 9999 -RA SCT013 BKN110
                        18/16 Q1019 NOSIG=
201110221500 METAR LMML NIL=
201110221445 METAR LMML 221445Z 01006KT 9999 FEW013 SCT080 BKN120 18/16
                        Q1019 NOSIG=
201110221430 METAR LMML NIL=
201110221415 METAR LMML 221415Z 01008KT 9999 FEW012 BKN120 18/16 Q1019
                        NOSIG=
201110221400 METAR LMML NIL=
201110221345 METAR LMML 221345Z 36009KT 9999 FEW012 SCT060 BKN090 18/16
                        Q1019 NOSIG=
201110221330 METAR LMML NIL=
201110221315 METAR LMML 221315Z 35007KT 9999 FEW009 SCT060 BKN120 18/16
                        Q1019 NOSIG=
201110221245 METAR LMML 221245Z 34009KT 9000 -RA FEW007 SCT064 18/17 Q1019
                        NOSIG=
201110221230 METAR LMML NIL=
201110221215 METAR LMML 221215Z 31005KT 280V340 9000 -RA FEW020 OVC080
                        18/16 Q1020 NOSIG=
201110221200 METAR LMML NIL=
201110221145 METAR LMML 221145Z 24006KT 200V290 9000 -RA FEW038 OVC090
                        18/16 Q1020 NOSIG=
201110221130 METAR LMML NIL=
201110221115 METAR LMML 221115Z 22009KT 190V260 9000 -RA FEW012 OVC090
                        18/16 Q1020 NOSIG=
201110221100 METAR LMML NIL=
201110221045 METAR LMML 221045Z 21010KT 150V270 7000 RA FEW011 OVC080
                        18/16 Q1020 TEMPO TSRA BKN015CB=
201110221030 METAR LMML NIL=
201110221015 METAR LMML 221015Z 20007KT 170V240 5000 RA FEW018 OVC060
                        18/17 Q1020 TEMPO TSRA BKN015CB=
201110221000 METAR LMML NIL=
201110220945 METAR LMML 220945Z 20009KT 170V230 6000 RA FEW018 BKN090
                        17/15 Q1021 TEMPO 5000 TSRA BKN015CB=
201110220930 METAR LMML NIL=
201110220915 METAR LMML 220915Z 19007KT 160V230 9999 -RA SCT017 BKN100
                        BKN250 19/16 Q1021 TEMPO 7000 TSRA
                        BKN015CB=
201110220900 METAR LMML NIL=
201110220845 METAR LMML 220845Z 16007KT 130V210 9999 SCT027 BKN100 BKN250
                        20/16 Q1020 TEMPO 8000 BKN012=
201110220830 METAR LMML NIL=
201110220815 METAR LMML 220815Z 15007KT 9999 SCT029 BKN100 BKN250 20/17
                        Q1020 TEMPO 8000 BKN012=
201110220800 METAR LMML NIL=
201110220745 METAR LMML 220745Z 14006KT 9999 FEW023 BKN090 BKN250 20/17
                        Q1020 TEMPO 8000 BKN012=
201110220730 METAR LMML NIL=
201110220715 METAR LMML 220715Z VRB02KT 9999 FEW012 BKN120 BKN250 19/19
                        Q1020 TEMPO 8000 BKN012=
201110220700 METAR LMML NIL=
201110220645 METAR LMML 220645Z 13005KT 080V140 9999 FEW012 BKN120 BKN250
                        18/18 Q1020 TEMPO 8000 BKN012=
201110220630 METAR LMML NIL=
201110220615 METAR LMML 220615Z VRB02KT 9999 FEW011 BKN120 BKN250 17/17
                        Q1020 NOSIG=
201110220600 METAR LMML NIL=
201110220545 METAR LMML 220545Z VRB02KT 9999 FEW011 SCT120 BKN250 17/17
                        Q1019 NOSIG=
201110220530 METAR LMML NIL=
201110220515 METAR LMML 220515Z VRB02KT 9999 FEW012 BKN250 16/16 Q1019
                        NOSIG=
201110220500 METAR LMML NIL=
201110220445 METAR LMML 220445Z VRB01KT 9999 FEW011 BKN250 16/16 Q1019
                        NOSIG=
201110220430 METAR LMML NIL=
201110220415 METAR LMML 220415Z VRB02KT 9999 FEW011 BKN250 16/16 Q1019
                        TEMPO 7000=
201110220400 METAR LMML NIL=
201110220345 METAR LMML 220345Z VRB01KT 9999 FEW011 BKN250 16/16 Q1019
                        TEMPO 7000=
201110220330 METAR LMML NIL=
201110220315 METAR LMML 220315Z VRB01KT 9999 FEW012 BKN250 16/16 Q1019
                        TEMPO 7000=
201110220300 METAR LMML NIL=
201110220245 METAR LMML 220245Z VRB01KT 9999 FEW012 BKN250 16/16 Q1019
                        TEMPO 7000=
201110220230 METAR LMML NIL=
201110220215 METAR LMML 220215Z VRB01KT 9999 FEW012 BKN250 16/16 Q1019
                        TEMPO 7000=
201110220200 METAR LMML NIL=
201110220145 METAR LMML 220145Z VRB01KT 9999 FEW012 BKN250 16/16 Q1019
                        TEMPO 7000=
201110220130 METAR LMML NIL=
201110220115 METAR LMML 220115Z VRB01KT 9999 FEW013 SCT250 16/15 Q1020
                        TEMPO 7000=
201110220045 METAR LMML 220045Z VRB01KT 9999 FEW015 16/15 Q1020 TEMPO
                        7000=
201110220030 METAR LMML NIL=
201110220015 METAR LMML 220015Z VRB01KT CAVOK 16/15 Q1020 TEMPO 7000=
201110220000 METAR LMML NIL=
201110212345 METAR LMML 212345Z VRB01KT CAVOK 16/15 Q1020 NOSIG=
201110212330 METAR LMML NIL=
201110212315 METAR LMML 212315Z VRB01KT CAVOK 16/15 Q1020 NOSIG=
201110212300 METAR LMML NIL=
201110212245 METAR LMML 212245Z VRB01KT CAVOK 16/15 Q1020 NOSIG=
201110212230 METAR LMML NIL=
201110212215 METAR LMML 212215Z VRB01KT CAVOK 16/14 Q1020 NOSIG=
201110212200 METAR LMML NIL=
201110212145 METAR LMML 212145Z VRB01KT CAVOK 16/14 Q1021 NOSIG=
201110212130 METAR LMML NIL=
201110212115 METAR LMML 212115Z VRB01KT CAVOK 17/14 Q1021 NOSIG=
201110212100 METAR LMML NIL=
201110212045 METAR LMML 212045Z VRB01KT CAVOK 17/15 Q1021 NOSIG=
201110212030 METAR LMML NIL=
201110212015 METAR LMML 212015Z VRB01KT CAVOK 17/15 Q1020 NOSIG=
201110212000 METAR LMML NIL=
201110211945 METAR LMML 211945Z VRB02KT CAVOK 18/15 Q1020 NOSIG=
201110211930 METAR LMML NIL=
201110211915 METAR LMML 211915Z 07003KT CAVOK 18/15 Q1020 NOSIG=
201110211900 METAR LMML NIL=
201110211845 METAR LMML 211845Z 08003KT 9999 FEW025 19/15 Q1020 NOSIG=
201110211830 METAR LMML NIL=
201110211815 METAR LMML 211815Z VRB02KT 9999 FEW025 19/15 Q1020 NOSIG=
201110211800 METAR LMML NIL=
201110211745 METAR LMML 211745Z VRB02KT 9999 FEW025 19/15 Q1020 NOSIG=
201110211715 METAR LMML 211715Z 10004KT 070V170 9999 FEW025 19/15 Q1019
                        NOSIG=
201110211700 METAR LMML NIL=
201110211645 METAR LMML 211645Z 08004KT 050V110 9999 FEW025 20/15 Q1019
                        NOSIG=
201110211630 METAR LMML NIL=
201110211615 METAR LMML 211615Z 09003KT 9999 FEW026 20/15 Q1019 NOSIG=
201110211600 METAR LMML NIL=
201110211545 METAR LMML 211545Z 08004KT 9999 FEW026 21/15 Q1019 NOSIG=
201110211530 METAR LMML NIL=
201110211515 METAR LMML 211515Z 11003KT 9999 FEW026 22/15 Q1019 NOSIG=
201110211500 METAR LMML NIL=
201110211445 METAR LMML 211445Z VRB02KT 9999 SCT027 23/15 Q1019 NOSIG=
201110211430 METAR LMML NIL=
201110211415 METAR LMML 211415Z 21005KT 9999 SCT028 22/14 Q1019 NOSIG=
201110211400 METAR LMML NIL=
201110211345 METAR LMML 211345Z 02004KT 360V070 9999 SCT031 22/14 Q1019
                        NOSIG=
201110211330 METAR LMML NIL=
201110211315 METAR LMML 211315Z 02005KT 340V060 9999 FEW030 23/14 Q1019
                        NOSIG=
201110211300 METAR LMML NIL=
201110211245 METAR LMML 211245Z 04005KT 010V090 9999 FEW032 22/14 Q1019
                        NOSIG=
201110211230 METAR LMML NIL=
201110211215 METAR LMML 211215Z 03003KT 9999 FEW032 23/14 Q1019 NOSIG=
201110211200 METAR LMML NIL=
201110211145 METAR LMML 211145Z 31005KT 270V350 9999 FEW034 22/14 Q1020
                        NOSIG=
201110211130 METAR LMML NIL=
201110211115 METAR LMML 211115Z 28003KT 9999 SCT038 24/13 Q1020 NOSIG=
201110211100 METAR LMML NIL=
201110211045 METAR LMML 211045Z 19004KT 120V260 9999 FEW030 23/13 Q1020
                        NOSIG=
201110211030 METAR LMML NIL=
201110211015 METAR LMML 211015Z 24004KT 170V290 9999 FEW020 23/13 Q1021
                        NOSIG=
201110211000 METAR LMML NIL=
201110210945 METAR LMML 210945Z 21004KT 160V270 9999 FEW020 23/13 Q1021
                        NOSIG=
201110210930 METAR LMML NIL=
201110210915 METAR LMML 210915Z 19004KT 130V230 9999 FEW020 22/13 Q1021
                        NOSIG=
201110210900 METAR LMML NIL=
201110210845 METAR LMML 210845Z 20004KT 130V250 9999 FEW020 22/12 Q1021
                        NOSIG=
201110210830 METAR LMML NIL=
201110210815 METAR LMML 210815Z 16004KT 130V190 9999 FEW020TCU 22/13 Q1021
                        BECMG FEW020=
201110210800 METAR LMML NIL=
201110210745 METAR LMML 210745Z 19004KT 130V230 9999 FEW020TCU 21/14 Q1020
                        BECMG FEW020=
201110210730 METAR LMML NIL=
201110210715 METAR LMML 210715Z 19004KT 160V230 9999 FEW023 21/14 Q1021
                        NOSIG RMK CB TOP TO NW=
201110210700 METAR LMML NIL=
201110210645 METAR LMML 210645Z VRB02KT 9999 FEW023 20/15 Q1020 NOSIG
                        RMK CB TOP TO NW=
201110210630 METAR LMML NIL=
201110210615 METAR LMML 210615Z 18003KT 9999 FEW023 19/14 Q1020 NOSIG=
201110210600 METAR LMML NIL=
201110210545 METAR LMML 210545Z 18004KT 9999 FEW023 18/14 Q1020 NOSIG=
201110210530 METAR LMML NIL=
201110210515 METAR LMML 210515Z 18003KT 9999 FEW023 18/15 Q1020 NOSIG=
201110210500 METAR LMML NIL=
201110210445 METAR LMML 210445Z 18003KT 9999 FEW025 17/15 Q1020 NOSIG=
201110210430 METAR LMML NIL=
201110210415 METAR LMML 210415Z 17003KT 9999 FEW025 18/15 Q1019 TEMPO
                        SCT025=
201110210400 METAR LMML NIL=
201110210345 METAR LMML 210345Z 18003KT 9999 FEW025 18/14 Q1019 TEMPO
                        SCT025=
201110210330 METAR LMML NIL=
201110210315 METAR LMML 210315Z 18003KT CAVOK 18/14 Q1019 TEMPO SCT025=
201110210300 METAR LMML NIL=
201110210245 METAR LMML 210245Z 18005KT CAVOK 19/14 Q1019 TEMPO SCT025=
201110210230 METAR LMML NIL=
201110210215 METAR LMML 210215Z 18004KT CAVOK 19/15 Q1019 TEMPO SCT025=
201110210200 METAR LMML NIL=
201110210145 METAR LMML 210145Z 18003KT CAVOK 19/14 Q1019 TEMPO SCT025=
201110210130 METAR LMML NIL=
201110210115 METAR LMML 210115Z 17004KT 140V200 CAVOK 19/14 Q1020 TEMPO
                        SCT025=
201110210100 METAR LMML NIL=
201110210045 METAR LMML 210045Z 17003KT CAVOK 18/14 Q1020 TEMPO SCT025=
201110210015 METAR LMML 210015Z 17003KT CAVOK 19/14 Q1020 TEMPO SCT025=
201110202345 METAR LMML 202345Z 17004KT CAVOK 19/14 Q1020 TEMPO SCT025=
201110202330 METAR LMML NIL=
201110202315 METAR LMML 202315Z 18005KT CAVOK 19/14 Q1020 TEMPO SCT025=
201110202300 METAR LMML NIL=
201110202245 METAR LMML 202245Z 18004KT CAVOK 19/14 Q1020 TEMPO SCT025=
201110202230 METAR LMML NIL=
201110202215 METAR LMML 202215Z 17003KT CAVOK 19/14 Q1020 NOSIG=
201110202200 METAR LMML NIL=
201110202145 METAR LMML 202145Z 17003KT 9999 FEW025 19/14 Q1021 NOSIG=
201110202130 METAR LMML NIL=
201110202115 METAR LMML 202115Z 18003KT 9999 FEW025 19/14 Q1021 NOSIG=
201110202100 METAR LMML NIL=
201110202045 METAR LMML 202045Z 18003KT 9999 FEW025 19/14 Q1020 NOSIG=
201110202030 METAR LMML NIL=
201110202015 METAR LMML 202015Z 18003KT 9999 FEW025 19/14 Q1020 NOSIG=
201110202000 METAR LMML NIL=
201110201945 METAR LMML 201945Z 17004KT 9999 FEW025 19/15 Q1020 NOSIG=
201110201930 METAR LMML NIL=
201110201915 METAR LMML 201915Z 18003KT 9999 FEW025 19/15 Q1020 NOSIG=
201110201900 METAR LMML NIL=
201110201845 METAR LMML 201845Z 18004KT 9999 FEW025 19/15 Q1020 NOSIG=
201110201830 METAR LMML NIL=
201110201815 METAR LMML 201815Z 19003KT 9999 FEW025 19/15 Q1020 NOSIG=
201110201800 METAR LMML NIL=
201110201745 METAR LMML 201745Z 20004KT 160V240 9999 FEW025 20/15 Q1020
                        NOSIG=
201110201730 METAR LMML NIL=
201110201715 METAR LMML 201715Z 20003KT 9999 FEW025 20/16 Q1020 NOSIG=
201110201700 METAR LMML NIL=
201110201645 METAR LMML 201645Z 20004KT 160V260 9999 FEW023 20/16 Q1020
                        NOSIG=
201110201615 METAR LMML 201615Z 20005KT 140V250 9999 FEW023 21/16 Q1020
                        NOSIG=
201110201600 METAR LMML NIL=
201110201545 METAR LMML 201545Z 19005KT 150V250 9999 FEW023 21/16 Q1019
                        NOSIG=
201110201530 METAR LMML NIL=
201110201515 METAR LMML 201515Z 20006KT 170V240 9999 FEW023 22/15 Q1019
                        NOSIG=
201110201500 METAR LMML NIL=
201110201445 METAR LMML 201445Z 19007KT 150V230 9999 FEW023 22/15 Q1020
                        NOSIG=
201110201430 METAR LMML NIL=
201110201415 METAR LMML 201415Z 20006KT 150V280 9999 FEW025 23/16 Q1020
                        NOSIG=
201110201345 METAR LMML 201345Z 19007KT 160V240 9999 FEW028 23/15 Q1020
                        NOSIG=
201110201330 METAR LMML NIL=
201110201315 METAR LMML 201315Z 20007KT 160V230 9999 FEW028 23/15 Q1020
                        NOSIG=
201110201300 METAR LMML NIL=
201110201245 METAR LMML 201245Z 19007KT 150V260 9999 FEW028 23/15 Q1020
                        NOSIG=
201110201230 METAR LMML NIL=
201110201215 METAR LMML 201215Z 20007KT 160V260 9999 FEW028 23/14 Q1021
                        NOSIG=
201110201200 METAR LMML NIL=
201110201145 METAR LMML 201145Z 19008KT 150V250 9999 FEW034 23/15 Q1021
                        NOSIG=
201110201130 METAR LMML NIL=
201110201115 METAR LMML 201115Z 20008KT 160V250 9999 FEW034 23/15 Q1022
                        NOSIG=
201110201100 METAR LMML NIL=
201110201045 METAR LMML 201045Z 20008KT 160V260 9999 FEW034 23/14 Q1022
                        NOSIG=
201110201030 METAR LMML NIL=
201110201015 METAR LMML 201015Z 20008KT 170V260 9999 FEW034 22/15 Q1022
                        NOSIG=
201110201000 METAR LMML NIL=
201110200945 METAR LMML 200945Z 19008KT 150V240 9999 FEW034 22/15 Q1022
                        NOSIG=
201110200930 METAR LMML NIL=
201110200915 METAR LMML 200915Z 18009KT 080V230 9999 FEW034 22/14 Q1022
                        NOSIG=
201110200845 METAR LMML 200845Z 19009KT 140V220 9999 FEW034 22/14 Q1022
                        NOSIG=
201110200830 METAR LMML NIL=
201110200815 METAR LMML 200815Z 19008KT 160V240 9999 FEW034 22/14 Q1022
                        NOSIG=
201110200800 METAR LMML NIL=
201110200745 METAR LMML 200745Z 19009KT 170V230 9999 FEW034 21/13 Q1022
                        NOSIG=
201110200730 METAR LMML NIL=
201110200715 METAR LMML 200715Z 18009KT 150V220 9999 FEW033 21/13 Q1022
                        NOSIG=
201110200645 METAR LMML 200645Z 19008KT 160V240 9999 FEW034 20/12 Q1022
                        NOSIG=
201110200615 METAR LMML 200615Z 18007KT 160V220 9999 FEW034 20/13 Q1022
                        NOSIG=
201110200600 METAR LMML NIL=
201110200545 METAR LMML 200545Z 18007KT 160V220 9999 FEW032 20/13 Q1021
                        NOSIG=
201110200530 METAR LMML NIL=
201110200515 METAR LMML 200515Z 18007KT 9999 FEW029 19/13 Q1021 NOSIG=
201110200500 METAR LMML NIL=
201110200445 METAR LMML 200445Z 18007KT 150V220 9999 FEW030 19/13 Q1021
                        NOSIG=
201110200430 METAR LMML NIL=
201110200415 METAR LMML 200415Z 19007KT 9999 FEW027 19/13 Q1021 NOSIG=
201110200400 METAR LMML NIL=
201110200345 METAR LMML 200345Z 19006KT 160V230 9999 FEW027 19/13 Q1021
                        NOSIG=
201110200330 METAR LMML NIL=
201110200315 METAR LMML 200315Z 19006KT 160V230 9999 FEW027 19/13 Q1021
                        NOSIG=
201110200300 METAR LMML NIL=
201110200245 METAR LMML 200245Z 19005KT 160V220 9999 FEW027 19/13 Q1021
                        NOSIG=
201110200230 METAR LMML NIL=
201110200215 METAR LMML 200215Z 19005KT 160V220 9999 FEW027 19/13 Q1021
                        NOSIG=
201110200200 METAR LMML NIL=
201110200145 METAR LMML 200145Z 19006KT 160V230 9999 SCT027 19/14 Q1022
                        NOSIG=
201110200130 METAR LMML NIL=
201110200115 METAR LMML 200115Z 20005KT 150V260 9999 FEW028 19/14 Q1022
                        NOSIG=
201110200100 METAR LMML NIL=
201110200045 METAR LMML 200045Z 19004KT 160V230 9999 FEW025 19/14 Q1022
                        NOSIG=
201110200030 METAR LMML NIL=
201110200015 METAR LMML 200015Z 20004KT 170V250 9999 FEW030 19/14 Q1022
                        NOSIG=
201110200000 METAR LMML NIL=
201110192345 METAR LMML 192345Z 21005KT 160V260 9999 FEW030 19/14 Q1023
                        NOSIG=
201110192330 METAR LMML NIL=
201110192315 METAR LMML 192315Z 19004KT 150V250 9999 FEW028 19/14 Q1023
                        NOSIG=
201110192245 METAR LMML 192245Z 17004KT 140V200 9999 FEW034 19/15 Q1023
                        NOSIG=
201110192215 METAR LMML 192215Z 18004KT 140V210 9999 FEW036 SCT080 19/15
                        Q1023 NOSIG=
201110192145 METAR LMML 192145Z 16003KT 9999 FEW036 SCT080 19/15 Q1024
                        NOSIG=
201110192115 METAR LMML 192115Z 16003KT 9999 FEW036 SCT080 19/15 Q1024
                        NOSIG=
201110192100 METAR LMML NIL=
201110192045 METAR LMML 192045Z 18004KT 150V210 9999 FEW036 SCT080 19/15
                        Q1024 NOSIG=
201110192015 METAR LMML 192015Z 17004KT 9999 FEW036 SCT070 19/15 Q1024
                        NOSIG=
201110192000 METAR LMML NIL=
201110191945 METAR LMML 191945Z 18005KT 150V210 9999 FEW036 BKN068 19/15
                        Q1024 NOSIG=
201110191930 METAR LMML NIL=
201110191915 METAR LMML 191915Z 18004KT 160V230 9999 FEW030 SCT060 19/15
                        Q1024 NOSIG=
201110191900 METAR LMML NIL=
201110191845 METAR LMML 191845Z 18006KT 150V220 9999 FEW030 SCT060 19/15
                        Q1024 NOSIG=
201110191830 METAR LMML NIL=
201110191815 METAR LMML 191815Z 18004KT 150V220 9999 FEW029 19/14 Q1024
                        NOSIG=
201110191745 METAR LMML 191745Z 18005KT 160V220 9999 FEW029 19/15 Q1024
                        NOSIG=
201110191715 METAR LMML 191715Z 19006KT 150V240 9999 SCT029 20/15 Q1024
                        NOSIG=
201110191645 METAR LMML 191645Z 18005KT 150V210 9999 FEW025 20/14 Q1024
                        NOSIG=
201110191630 METAR LMML NIL=
201110191615 METAR LMML 191615Z 18005KT 160V220 9999 FEW025 20/14 Q1024
                        NOSIG=
201110191545 METAR LMML 191545Z 19005KT 140V230 9999 FEW028 20/13 Q1024
                        NOSIG=
201110191530 METAR LMML NIL=
201110191515 METAR LMML 191515Z 19007KT 160V230 9999 FEW028 21/13 Q1024
                        NOSIG=
201110191445 METAR LMML 191445Z 19006KT 140V230 9999 FEW028 21/13 Q1024
                        NOSIG=
201110191415 METAR LMML 191415Z 20006KT 150V260 9999 FEW035 21/12 Q1024
                        NOSIG=
201110191400 METAR LMML NIL=
201110191345 METAR LMML 191345Z 20007KT 160V250 9999 FEW035 21/12 Q1024
                        NOSIG=
201110191330 METAR LMML NIL=
201110191315 METAR LMML 191315Z 19007KT 150V230 9999 FEW035 22/11 Q1025
                        NOSIG=
201110191300 METAR LMML NIL=
201110191245 METAR LMML 191245Z 19006KT 140V260 9999 FEW035 22/11 Q1025
                        NOSIG=
201110191215 METAR LMML 191215Z 19008KT 140V260 9999 FEW035 22/11 Q1025
                        NOSIG=
201110191200 METAR LMML NIL=
201110191145 METAR LMML 191145Z 20008KT 160V260 9999 FEW035 21/10 Q1026
                        NOSIG=
201110191115 METAR LMML 191115Z 19008KT 160V230 9999 FEW035 21/11 Q1026
                        NOSIG=
201110191100 METAR LMML NIL=
201110191045 METAR LMML 191045Z 19008KT 150V240 9999 FEW036 21/10 Q1026
                        NOSIG=
201110191030 METAR LMML NIL=
201110191015 METAR LMML 191015Z 18008KT 130V220 CAVOK 21/10 Q1026 NOSIG=
201110191000 METAR LMML NIL=
201110190945 METAR LMML 190945Z 19007KT 150V240 9999 FEW036 21/10 Q1027
                        NOSIG=
201110190930 METAR LMML NIL=
201110190915 METAR LMML 190915Z 17007KT 100V230 9999 FEW040 21/10 Q1027
                        NOSIG=
201110190900 METAR LMML NIL=
201110190845 METAR LMML 190845Z 18006KT 120V220 9999 FEW040 20/10 Q1027
                        NOSIG=
201110190830 METAR LMML NIL=
201110190815 METAR LMML 190815Z 18006KT 140V220 9999 FEW040 20/10 Q1027
                        NOSIG=
201110190800 METAR LMML NIL=
201110190745 METAR LMML 190745Z 17006KT 140V200 9999 FEW040 20/09 Q1027
                        NOSIG=
201110190730 METAR LMML NIL=
201110190715 METAR LMML 190715Z 16004KT 9999 FEW039 19/10 Q1027 NOSIG
                        RMK SMOKE TO NORTH=
201110190700 METAR LMML NIL=
201110190645 METAR LMML 190645Z 17003KT 9999 FEW038 19/10 Q1027 NOSIG
                        RMK SMOKE TO NORTH=
201110190630 METAR LMML NIL=
201110190615 METAR LMML 190615Z 17004KT 9999 FEW041 17/10 Q1026 NOSIG=
201110190600 METAR LMML NIL=
201110190545 METAR LMML 190545Z 17004KT 9999 FEW041 16/09 Q1026 NOSIG=
201110190530 METAR LMML NIL=
201110190515 METAR LMML 190515Z 17004KT 9999 FEW041 16/09 Q1026 NOSIG=
201110190500 METAR LMML NIL=
201110190445 METAR LMML 190445Z 17004KT 9999 FEW040 16/09 Q1026 NOSIG=
201110190430 METAR LMML NIL=
201110190415 METAR LMML 190415Z 17004KT 9999 FEW040 16/09 Q1026 NOSIG=
201110190400 METAR LMML NIL=
201110190345 METAR LMML 190345Z 17004KT 9999 FEW040 16/09 Q1026 NOSIG=
201110190330 METAR LMML NIL=
201110190315 METAR LMML 190315Z 17004KT 9999 FEW039 17/10 Q1026 NOSIG=
201110190300 METAR LMML NIL=
201110190245 METAR LMML 190245Z 20004KT 9999 FEW040 16/09 Q1026 NOSIG=
201110190230 METAR LMML NIL=
201110190215 METAR LMML 190215Z 20004KT 9999 FEW038 16/10 Q1026 NOSIG=
201110190200 METAR LMML NIL=
201110190145 METAR LMML 190145Z 19003KT 9999 FEW038 16/09 Q1026 NOSIG=
201110190130 METAR LMML NIL=
201110190115 METAR LMML 190115Z 18004KT 9999 FEW020 16/09 Q1026 NOSIG=
201110190100 METAR LMML NIL=
201110190045 METAR LMML 190045Z 19003KT 9999 FEW020 16/09 Q1026 NOSIG=
201110190030 METAR LMML NIL=
201110190015 METAR LMML 190015Z 18003KT CAVOK 16/09 Q1026 NOSIG=
201110182345 METAR LMML 182345Z 19003KT CAVOK 16/09 Q1026 NOSIG=
201110182330 METAR LMML NIL=
201110182315 METAR LMML 182315Z 18003KT CAVOK 16/09 Q1026 NOSIG=
201110182300 METAR LMML NIL=
201110182245 METAR LMML 182245Z 18004KT CAVOK 16/09 Q1026 NOSIG=
201110182230 METAR LMML NIL=
201110182215 METAR LMML 182215Z 18004KT CAVOK 16/09 Q1026 NOSIG=
201110182200 METAR LMML NIL=
201110182145 METAR LMML 182145Z 18003KT CAVOK 16/09 Q1026 NOSIG=
201110182130 METAR LMML NIL=
201110182115 METAR LMML 182115Z 18004KT CAVOK 16/09 Q1026 NOSIG=
201110182100 METAR LMML NIL=
201110182045 METAR LMML 182045Z 19003KT CAVOK 16/09 Q1026 NOSIG=
201110182030 METAR LMML NIL=
201110182015 METAR LMML 182015Z 19003KT CAVOK 16/09 Q1026 NOSIG=
201110182000 METAR LMML NIL=
201110181945 METAR LMML 181945Z VRB02KT CAVOK 16/09 Q1026 NOSIG=
201110181930 METAR LMML NIL=
201110181915 METAR LMML 181915Z VRB02KT CAVOK 17/09 Q1026 NOSIG=
201110181900 METAR LMML NIL=
201110181845 METAR LMML 181845Z 20003KT CAVOK 17/09 Q1026 NOSIG=
201110181830 METAR LMML NIL=
201110181815 METAR LMML 181815Z 19003KT CAVOK 17/09 Q1026 NOSIG=
201110181800 METAR LMML NIL=
201110181745 METAR LMML 181745Z 20003KT CAVOK 17/09 Q1025 NOSIG=
201110181730 METAR LMML NIL=
201110181715 METAR LMML 181715Z 21003KT CAVOK 17/09 Q1025 NOSIG=
201110181700 METAR LMML NIL=
201110181645 METAR LMML 181645Z 20003KT CAVOK 18/09 Q1025 NOSIG=
201110181630 METAR LMML NIL=
201110181615 METAR LMML 181615Z 19004KT 170V260 CAVOK 18/08 Q1025 NOSIG=
201110181600 METAR LMML NIL=
201110181545 METAR LMML 181545Z 21004KT 160V260 CAVOK 19/09 Q1025 NOSIG=
201110181530 METAR LMML NIL=
201110181515 METAR LMML 181515Z 20005KT 160V240 9999 SCT044 20/09 Q1025
                        NOSIG=
201110181500 METAR LMML NIL=
201110181445 METAR LMML 181445Z 20005KT 160V270 9999 SCT044 20/09 Q1025
                        NOSIG=
201110181430 METAR LMML NIL=
201110181415 METAR LMML 181415Z 22005KT 170V290 9999 SCT045 20/09 Q1025
                        NOSIG=
201110181400 METAR LMML NIL=
201110181345 METAR LMML 181345Z 21005KT 180V250 9999 SCT045 20/09 Q1025
                        NOSIG=
201110181330 METAR LMML NIL=
201110181315 METAR LMML 181315Z 20005KT 120V260 9999 FEW030 21/09 Q1024
                        NOSIG=
201110181245 METAR LMML 181245Z 21006KT 170V270 9999 FEW030 20/09 Q1024
                        NOSIG=
201110181230 METAR LMML NIL=
201110181215 METAR LMML 181215Z 20005KT 150V270 9999 FEW020 20/09 Q1024
                        NOSIG=
201110181200 METAR LMML NIL=
201110181145 METAR LMML 181145Z 20006KT 150V260 9999 FEW040 20/09 Q1024
                        NOSIG=
201110181130 METAR LMML NIL=
201110181115 METAR LMML 181115Z 20005KT 140V250 9999 FEW040 20/08 Q1025
                        NOSIG=
201110181100 METAR LMML NIL=
201110181045 METAR LMML 181045Z 21005KT 160V250 9999 FEW040 SCT060 20/09
                        Q1025 NOSIG=
201110181030 METAR LMML NIL=
201110181015 METAR LMML 181015Z 20005KT 160V270 9999 FEW040 SCT060 20/09
                        Q1025 NOSIG=
201110181000 METAR LMML NIL=
201110180945 METAR LMML 180945Z 20005KT 170V240 9999 FEW030 SCT060 19/09
                        Q1025 NOSIG=
201110180930 METAR LMML NIL=
201110180915 METAR LMML 180915Z 19004KT 150V240 9999 FEW030 SCT060 20/09
                        Q1025 NOSIG=
201110180900 METAR LMML NIL=
201110180845 METAR LMML 180845Z 19003KT 9999 FEW030 SCT060 19/08 Q1025
                        NOSIG=
201110180830 METAR LMML NIL=
201110180815 METAR LMML 180815Z 19004KT 150V240 CAVOK 19/09 Q1025 TEMPO
                        9999 FEW030=
201110180800 METAR LMML NIL=
201110180745 METAR LMML 180745Z VRB02KT 9999 FEW030 19/09 Q1025 NOSIG=
201110180730 METAR LMML NIL=
201110180715 METAR LMML 180715Z VRB01KT 9999 FEW020 18/09 Q1025 NOSIG=
201110180645 METAR LMML 180645Z VRB01KT 9999 FEW020 16/09 Q1024 NOSIG=
201110180630 METAR LMML NIL=
201110180615 METAR LMML 180615Z VRB01KT 9999 FEW020 13/09 Q1024 NOSIG=
201110180600 METAR LMML NIL=
201110180545 METAR LMML 180545Z VRB01KT CAVOK 13/08 Q1024 NOSIG=
201110180515 METAR LMML 180515Z VRB02KT CAVOK 13/08 Q1023 NOSIG=
201110180500 METAR LMML NIL=
201110180445 METAR LMML 180445Z VRB01KT CAVOK 12/09 Q1023 NOSIG=
201110180430 METAR LMML NIL=
201110180415 METAR LMML 180415Z VRB01KT CAVOK 13/08 Q1023 NOSIG=
201110180400 METAR LMML NIL=
201110180345 METAR LMML 180345Z VRB02KT CAVOK 13/08 Q1023 NOSIG=
201110180330 METAR LMML NIL=
201110180315 METAR LMML 180315Z VRB02KT CAVOK 13/08 Q1023 NOSIG=
201110180300 METAR LMML NIL=
201110180245 METAR LMML 180245Z 25003KT CAVOK 13/08 Q1023 NOSIG=
201110180230 METAR LMML NIL=
201110180215 METAR LMML 180215Z 26003KT CAVOK 13/08 Q1022 NOSIG=
201110180200 METAR LMML NIL=
201110180145 METAR LMML 180145Z 26004KT 9999 FEW045 13/08 Q1022 NOSIG=
201110180130 METAR LMML NIL=
201110180115 METAR LMML 180115Z VRB01KT 9999 FEW045 13/08 Q1022 NOSIG=
201110180100 METAR LMML NIL=
201110180045 METAR LMML 180045Z VRB01KT 9999 FEW045 13/09 Q1023 NOSIG=
201110180030 METAR LMML NIL=
201110180015 METAR LMML 180015Z VRB01KT 9999 FEW045 13/09 Q1023 NOSIG=
201110172345 METAR LMML 172345Z 23003KT 9999 FEW045 13/09 Q1023 NOSIG=
201110172330 METAR LMML NIL=
201110172315 METAR LMML 172315Z VRB01KT 9999 FEW045 13/09 Q1023 NOSIG=
201110172300 METAR LMML NIL=
201110172245 METAR LMML 172245Z VRB01KT 9999 FEW042 13/09 Q1023 NOSIG=
201110172230 METAR LMML NIL=
201110172215 METAR LMML 172215Z VRB01KT 9999 FEW042 14/09 Q1022 NOSIG=
201110172200 METAR LMML NIL=
201110172145 METAR LMML 172145Z VRB01KT 9999 SCT042 14/09 Q1022 NOSIG=
201110172130 METAR LMML NIL=
201110172115 METAR LMML 172115Z VRB01KT 9999 BKN042 15/09 Q1023 NOSIG=
201110172045 METAR LMML 172045Z VRB01KT 9999 BKN046 15/09 Q1022 NOSIG=
201110172030 METAR LMML NIL=
201110172015 METAR LMML 172015Z VRB02KT 9999 BKN044 15/08 Q1022 NOSIG=
201110172000 METAR LMML NIL=
201110171945 METAR LMML 171945Z 07003KT 9999 SCT044 15/08 Q1022 NOSIG=
201110171930 METAR LMML NIL=
201110171915 METAR LMML 171915Z VRB01KT 9999 FEW045 14/09 Q1022 NOSIG=
201110171900 METAR LMML NIL=
201110171845 METAR LMML 171845Z VRB02KT 9999 FEW045 15/07 Q1022 NOSIG=
201110171830 METAR LMML NIL=
201110171815 METAR LMML 171815Z VRB02KT CAVOK 15/07 Q1022 NOSIG=
201110171800 METAR LMML NIL=
201110171745 METAR LMML 171745Z VRB01KT CAVOK 15/07 Q1022 NOSIG=
201110171730 METAR LMML NIL=
201110171715 METAR LMML 171715Z 07003KT CAVOK 15/07 Q1021 NOSIG=
201110171700 METAR LMML NIL=
201110171645 METAR LMML 171645Z 08005KT CAVOK 16/06 Q1021 NOSIG=
201110171630 METAR LMML NIL=
201110171615 METAR LMML 171615Z 07006KT 030V110 CAVOK 16/07 Q1021 NOSIG=
201110171545 METAR LMML 171545Z 07008KT 030V100 9999 FEW040 17/06 Q1021
                        NOSIG=
201110171530 METAR LMML NIL=
201110171515 METAR LMML 171515Z 06011KT 030V100 9999 FEW030 18/06 Q1020
                        NOSIG=
201110171500 METAR LMML NIL=
201110171445 METAR LMML 171445Z 06011KT 020V110 9999 FEW030 18/06 Q1020
                        NOSIG=
201110171430 METAR LMML NIL=
201110171415 METAR LMML 171415Z 04011KT 010V090 9999 FEW030 19/05 Q1020
                        NOSIG=
201110171400 METAR LMML NIL=
201110171345 METAR LMML 171345Z 04011KT 360V070 9999 FEW030 19/05 Q1020
                        NOSIG=
201110171330 METAR LMML NIL=
201110171315 METAR LMML 171315Z 04013KT 010V070 9999 FEW030 19/06 Q1020
                        NOSIG=
201110171300 METAR LMML NIL=
201110171245 METAR LMML 171245Z 03011KT 010V090 9999 FEW040 19/06 Q1020
                        NOSIG=
201110171230 METAR LMML NIL=
201110171215 METAR LMML 171215Z 04012KT 360V090 9999 FEW040 19/06 Q1020
                        NOSIG=
201110171200 METAR LMML NIL=
201110171145 METAR LMML 171145Z 05013KT 010V090 9999 FEW040 19/07 Q1020
                        NOSIG=
201110171115 METAR LMML 171115Z 05013KT 010V090 9999 FEW040 19/07 Q1020
                        NOSIG=
201110171045 METAR LMML 171045Z 04013KT 350V090 9999 FEW040 19/07 Q1021
                        NOSIG=
201110171030 METAR LMML NIL=
201110171015 METAR LMML 171015Z 05015KT 350V090 9999 FEW040 19/07 Q1021
                        NOSIG=
201110171000 METAR LMML NIL=
201110170945 METAR LMML 170945Z 04013KT 010V080 9999 FEW040 BKN050 18/07
                        Q1021 NOSIG=
201110170930 METAR LMML NIL=
201110170915 METAR LMML 170915Z 04013KT 010V100 9999 FEW037 BKN050 18/08
                        Q1020 NOSIG=
201110170900 METAR LMML NIL=
201110170845 METAR LMML 170845Z 05013KT 010V080 9999 SCT038 BKN050 18/09
                        Q1020 NOSIG=
201110170830 METAR LMML NIL=
201110170800 METAR LMML NIL=
201110170745 METAR LMML 170745Z 04011KT 360V070 9999 SCT035 BKN070 BKN070
                        18/09 Q1020 NOSIG=
201110170730 METAR LMML NIL=
201110170715 METAR LMML 170715Z 04011KT 010V070 9999 SCT036 BKN070 17/09
                        Q1019 NOSIG=
201110170700 METAR LMML NIL=
201110170645 METAR LMML 170645Z 04012KT 360V080 9999 SCT035 SCT060 17/09
                        Q1019 NOSIG=
201110170630 METAR LMML NIL=
201110170615 METAR LMML 170615Z 04010KT 360V080 9999 SCT036 SCT060 17/09
                        Q1018 NOSIG=
201110170600 METAR LMML NIL=
201110170545 METAR LMML 170545Z 04009KT 010V080 9999 SCT036 SCT060 17/09
                        Q1018 NOSIG=
201110170530 METAR LMML NIL=
201110170515 METAR LMML 170515Z 04009KT 360V070 9999 SCT038 BKN050 16/09
                        Q1018 NOSIG=
201110170500 METAR LMML NIL=
201110170445 METAR LMML 170445Z 04008KT 010V070 9999 FEW033 BKN050 16/09
                        Q1018 NOSIG=
201110170430 METAR LMML NIL=
201110170415 METAR LMML 170415Z 04010KT 360V080 9999 SCT033 BKN060 17/09
                        Q1018 NOSIG=
201110170400 METAR LMML NIL=
201110170345 METAR LMML 170345Z 05010KT 010V080 9999 BKN033 BKN050 17/10
                        Q1018 NOSIG=
201110170330 METAR LMML NIL=
201110170315 METAR LMML 170315Z 04008KT 340V080 9999 BKN033 SCT050 17/10
                        Q1017 NOSIG=
201110170300 METAR LMML NIL=
201110170245 METAR LMML 170245Z 05011KT 020V090 9999 FEW033 SCT041 17/10
                        Q1017 NOSIG=
201110170230 METAR LMML NIL=
201110170215 METAR LMML 170215Z 05010KT 020V090 9999 FEW034 SCT050 BKN070
                        16/10 Q1017 NOSIG=
201110170200 METAR LMML NIL=
201110170145 METAR LMML 170145Z 06011KT 020V100 9999 SCT033 BKN050 17/10
                        Q1017 NOSIG=
201110170130 METAR LMML NIL=
201110170115 METAR LMML 170115Z 05011KT 020V080 9999 SCT033 BKN050 17/10
                        Q1017 TEMPO 8000 SHRA BKN015=
201110170100 METAR LMML NIL=
201110170045 METAR LMML 170045Z 06010KT 030V100 9999 SCT033 SCT046 17/10
                        Q1017 TEMPO 8000 SHRA BKN015=
201110170030 METAR LMML NIL=
201110170015 METAR LMML 170015Z 05012KT 020V090 9999 BKN033 17/10 Q1017
                        TEMPO 8000 SHRA BKN015=
201110170000 METAR LMML NIL=
201110162345 METAR LMML 162345Z 06011KT 030V100 9999 SCT033 SCT050 17/11
                        Q1017 NOSIG=
201110162330 METAR LMML NIL=
201110162315 METAR LMML 162315Z 06011KT 030V100 9999 FEW033 SCT050 17/11
                        Q1017 NOSIG=
201110162300 METAR LMML NIL=
201110162245 METAR LMML 162245Z 05012KT 020V090 9999 SCT031 SCT060 17/11
                        Q1017 TEMPO 8000 SHRA BKN018=
201110162230 METAR LMML NIL=
201110162215 METAR LMML 162215Z 06009KT 030V100 9999 FEW032 SCT048 BKN060
                        17/11 Q1017 TEMPO 8000 SHRA BKN018=
201110162200 METAR LMML NIL=
201110162145 METAR LMML 162145Z 06011KT 030V090 9999 FEW030 SCT060 17/11
                        Q1017 TEMPO 8000 SHRA BKN018=
201110162130 METAR LMML NIL=
201110162115 METAR LMML 162115Z 06014KT 020V090 9999 FEW033 SCT060 17/11
                        Q1017 TEMPO 8000 SHRA BKN018=
201110162100 METAR LMML NIL=
201110162045 METAR LMML 162045Z 06012KT 030V090 9999 SCT033 SCT060 BKN100
                        18/11 Q1017 TEMPO 8000 SHRA BKN018=
201110162030 METAR LMML NIL=
201110162015 METAR LMML 162015Z 06012KT 020V080 9999 FEW034 SCT060 BKN100
                        18/11 Q1017 TEMPO 8000 SHRA BKN018=
201110162000 METAR LMML NIL=
201110161945 METAR LMML 161945Z 06012KT 020V110 9999 SCT033 SCT070 BKN100
                        17/11 Q1017 TEMPO 8000 SHRA BKN018=
201110161930 METAR LMML NIL=
201110161915 METAR LMML 161915Z 06013KT 030V090 9999 SCT031 BKN100 18/11
                        Q1017 TEMPO 8000 SHRA BKN018=
201110161900 METAR LMML NIL=
201110161845 METAR LMML 161845Z 06011KT 030V100 9999 SCT031 BKN100 17/11
                        Q1017 TEMPO 8000 SHRA BKN018=
201110161830 METAR LMML NIL=
201110161815 METAR LMML 161815Z 06013KT 020V100 9999 FEW033 BKN100 18/11
                        Q1017 TEMPO 8000 SHRA BKN018=
201110161800 METAR LMML NIL=
201110161745 METAR LMML 161745Z 06014KT 020V100 9999 SCT032 OVC100 18/11
                        Q1016 NOSIG=
201110161730 METAR LMML NIL=
201110161715 METAR LMML 161715Z 07013KT 030V110 9999 SCT032 BKN100 18/11
                        Q1016 NOSIG=
201110161700 METAR LMML NIL=
201110161645 METAR LMML 161645Z 06013KT 030V090 9999 SCT033 BKN100 18/11
                        Q1016 NOSIG=
201110161630 METAR LMML NIL=
201110161615 METAR LMML 161615Z 06012KT 360V100 9999 SCT033 BKN080 18/11
                        Q1015 NOSIG=
201110161600 METAR LMML NIL=
201110161545 METAR LMML 161545Z 06014KT 020V090 9999 BKN028 BKN090 18/12
                        Q1015 NOSIG=
201110161530 METAR LMML NIL=
201110161515 METAR LMML 161515Z 06011KT 040V100 9999 SCT029 BKN090 18/12
                        Q1015 NOSIG=
201110161445 METAR LMML 161445Z 06012G22KT 020V100 9999 SCT030 OVC080
                        18/12 Q1015 NOSIG=
201110161430 METAR LMML NIL=
201110161415 METAR LMML 161415Z 06014KT 9999 SCT030 OVC080 18/12 Q1015
                        NOSIG=
201110161400 METAR LMML NIL=
201110161345 METAR LMML 161345Z 06012KT 030V100 9999 SCT029 OVC080 18/12
                        Q1015 NOSIG=
201110161330 METAR LMML NIL=
201110161315 METAR LMML 161315Z 08017KT 9000 -SHRA BKN028 OVC080 17/13
                        Q1015 TEMPO 5000 TSRA BKN015CB=
201110161300 METAR LMML NIL=
201110161245 METAR LMML 161245Z 06016KT 030V090 9999 SCT026 OVC080 18/13
                        Q1015 TEMPO 5000 TSRA BKN015CB=
201110161230 METAR LMML NIL=
201110161215 METAR LMML 161215Z 06016KT 030V090 9999 SCT027 OVC080 18/13
                        Q1015 TEMPO 5000 TSRA BKN015CB=
201110161200 METAR LMML NIL=
201110161145 METAR LMML 161145Z 07015KT 040V100 9999 BKN027 BKN080 18/13
                        Q1015 TEMPO 5000 TSRA BKN015CB=
201110161130 METAR LMML NIL=
201110161115 METAR LMML 161115Z 06015G27KT 020V090 9999 -RA BKN025 BKN080
                        18/13 Q1016 TEMPO 5000 TSRA BKN015CB=
201110161100 METAR LMML NIL=
201110161045 METAR LMML 161045Z 07016KT 030V100 8000 -RA SCT022 BKN080
                        17/13 Q1016 TEMPO 5000 TSRA BKN015CB=
201110161030 METAR LMML NIL=
201110161015 METAR LMML 161015Z 07015KT 040V100 8000 -RA SCT024 BKN080
                        17/14 Q1016 TEMPO 5000 TSRA BKN015CB=
201110160945 METAR LMML 160945Z 07016KT 040V120 8000 -RA FEW023 BKN090
                        17/14 Q1015 RETS TEMPO 5000 TSRA
                        BKN015CB=
201110160930 METAR LMML NIL=
201110160915 METAR LMML 160915Z 07019G30KT 030V100 6000 -RA FEW010 BKN080
                        17/14 Q1014 RETS TEMPO 5000 TSRA
                        BKN015CB=
201110160900 METAR LMML NIL=
201110160845 METAR LMML 160845Z 06020KT 6000 TSRA FEW010 BKN024CB 17/14
                        Q1015 TEMPO 5000 TSRA BKN015CB=
201110160830 METAR LMML NIL=
201110160815 METAR LMML 160815Z 06015KT 040V100 6000 TSRA FEW010 BKN023CB
                        17/14 Q1015 TEMPO 5000 TSRA BKN015CB=
201110160800 METAR LMML NIL=
201110160745 METAR LMML 160745Z 06011KT 030V110 6000 TSRA FEW010 BKN020CB
                        17/14 Q1016 TEMPO 5000 TSRA BKN015CB=
201110160730 METAR LMML 160730Z 06015KT 6000 TSRA FEW010 BKN017CB 17/14
                        Q1015 TEMPO 5000 TSRA BKN015CB=
201110160715 METAR LMML 160715Z 06015KT 6000 TSRA FEW010 BKN017CB 17/14
                        Q1015 TEMPO 5000 TSRA BKN015CB=
201110160700 METAR LMML NIL=
201110160645 METAR LMML 160645Z 06010KT 020V090 6000 TSRA SCT010 BKN020CB
                        17/15 Q1015 TEMPO 5000 TSRA BKN015CB=
201110160630 METAR LMML NIL=
201110160615 METAR LMML 160615Z 06014KT 020V090 6000 TSRA SCT010 BKN022CB
                        17/14 Q1015 TEMPO 5000 TSRA BKN015CB=
201110160600 METAR LMML NIL=
201110160545 METAR LMML 160545Z 05012KT 020V090 6000 TSRA BKN019CB 17/14
                        Q1015 NOSIG=
201110160530 METAR LMML NIL=
201110160515 METAR LMML 160515Z 06011KT 030V090 6000 TSRA BKN021CB 17/14
                        Q1015 NOSIG=
201110160445 METAR LMML 160445Z 05013KT 020V090 7000 TSRA BKN021CB 17/14
                        Q1014 NOSIG=
201110160430 METAR LMML NIL=
201110160415 METAR LMML 160415Z 05012G24KT 020V090 6000 TSRA BKN020CB
                        17/14 Q1014 NOSIG=
201110160400 METAR LMML NIL=
201110160345 METAR LMML 160345Z 05015G25KT 010V090 6000 TSRA BKN021CB
                        17/14 Q1014 TEMPO 5000=
201110160333 SPECI LMML 160333Z 05013G25KT 020V090 6000 TSRA SCT021CB
                        BKN037 17/14 Q1014 TEMPO 5000 BKN015CB=
201110160330 METAR LMML NIL=
201110160315 METAR LMML 160315Z 05015KT 020V080 9999 RA SCT020 BKN040
                        17/14 Q1014 TEMPO 5000 TSRA BKN015CB
                        RMK LIGHTNING TO WEST=
201110160300 METAR LMML NIL=
201110160245 METAR LMML 160245Z 07014KT 040V100 9999 RA SCT023 BKN050
                        17/14 Q1014 TEMPO 5000 TSRA BKN015CB=
201110160230 METAR LMML NIL=
201110160215 METAR LMML 160215Z 07013KT 040V100 9999 SHRA SCT025 BKN080
                        18/14 Q1014 NOSIG=
201110160200 METAR LMML NIL=
201110160145 METAR LMML 160145Z 07013KT 040V110 9999 SCT022 BKN090 18/14
                        Q1014 NOSIG=
201110160130 METAR LMML NIL=
201110160115 METAR LMML 160115Z 08012KT 9999 SCT021 BKN090 18/14 Q1015
                        NOSIG=
201110160100 METAR LMML NIL=
201110160045 METAR LMML 160045Z 07012KT 9999 SCT020 SCT090 18/14 Q1015
                        NOSIG=
201110160030 METAR LMML NIL=
201110160015 METAR LMML 160015Z 08013KT 050V110 9999 SCT019 SCT090 17/14
                        Q1015 NOSIG=
201110160000 METAR LMML NIL=
201110152345 METAR LMML 152345Z 08009KT 050V110 9999 SCT021 BKN120 17/14
                        Q1015 NOSIG=
201110152315 METAR LMML 152315Z 10007KT 060V170 9999 FEW019 SCT026 BKN090
                        17/14 Q1016 NOSIG RMK LIGHTNING TO
                        SE=
201110152245 METAR LMML 152245Z 09008KT 9999 FEW012 SCT023 BKN090 17/14
                        Q1016 NOSIG RMK LIGHTNING TO SE=
201110152230 METAR LMML NIL=
201110152215 METAR LMML 152215Z 07009KT 020V100 9999 FEW014 BKN020 17/15
                        Q1016 NOSIG=
201110152145 METAR LMML 152145Z 05008KT 010V090 9999 FEW007 SCT035 BKN055
                        16/14 Q1016 RESHRA/ NOSIG=
201110152115 METAR LMML 152115Z 04008KT 360V090 9999 SHRA FEW005 BKN015
                        16/15 Q1016 NOSIG=
201110152045 METAR LMML 152045Z 14006KT 070V180 9999 FEW011 BKN020 18/15
                        Q1016 NOSIG=
201110152030 METAR LMML NIL=
201110152015 METAR LMML 152015Z 11007KT 060V160 9999 -SHRA SCT008 BKN015
                        18/16 Q1016 TEMPO 5000 TSRA BKN015CB=
201110152000 METAR LMML NIL=
201110151945 METAR LMML 151945Z 08006KT 020V170 9999 SCT007 BKN015TCU
                        17/16 Q1016 TEMPO 5000 TSRA BKN015CB=
201110151930 METAR LMML NIL=
201110151915 METAR LMML 151915Z 04005KT 340V100 9999 BKN013TCU 17/15 Q1015
                        TEMPO 5000 TSRA BKN015CB=
201110151900 METAR LMML NIL=
201110151845 METAR LMML 151845Z 33007KT 270V040 9999 -SHRA BKN018TCU 19/15
                        Q1015 TEMPO 5000 TSRA BKN015CB=
201110151830 METAR LMML NIL=
201110151815 METAR LMML 151815Z 14013KT 120V190 9999 BKN018TCU 19/15 Q1014
                        TEMPO 5000 TSRA BKN015CB RMK LIGHTNING
                        TO NE=
201110151800 METAR LMML NIL=
201110151745 METAR LMML 151745Z 10012KT 9999 BKN020 19/15 Q1014 TEMPO
                        5000 TSRA BKN015CB RMK LIGHTNING
                        TO NW=
201110151730 METAR LMML NIL=
201110151715 METAR LMML 151715Z 10011KT 080V140 9999 BKN019 19/15 Q1014
                        TEMPO 5000 TSRA BKN015CB=
201110151700 METAR LMML NIL=
201110151645 METAR LMML 151645Z 09008KT 060V120 9999 BKN021TCU 20/15 Q1014
                        TEMPO 5000 SHRA BKN015TCU=
201110151630 METAR LMML NIL=
201110151615 METAR LMML 151615Z 08008KT 040V120 9999 -SHRA BKN019TCU 19/14
                        Q1014 TEMPO 8000 SHRA BKN015=
201110151545 METAR LMML 151545Z 07011KT 030V100 9999 -SHRA BKN018TCU 20/15
                        Q1014 TEMPO 8000 SHRA BKN015=
201110151515 METAR LMML 151515Z 05010KT 010V100 9999 BKN020TCU 20/15 Q1014
                        TEMPO 8000 SHRA BKN015=
201110151500 METAR LMML NIL=
201110151445 METAR LMML 151445Z 06010KT 020V100 9999 BKN019TCU 20/15 Q1014
                        TEMPO 8000 SHRA BKN015=
201110151430 METAR LMML NIL=
201110151415 METAR LMML 151415Z 05009KT 020V090 9999 BKN019 20/15 Q1014
                        TEMPO 8000 SHRA BKN015=
201110151400 METAR LMML NIL=
201110151345 METAR LMML 151345Z 05011KT 010V080 9999 BKN022 21/15 Q1014
                        TEMPO 8000 SHRA BKN015=
201110151315 METAR LMML 151315Z 03007KT 360V070 9999 BKN020 21/15 Q1014
                        TEMPO 8000 SHRA BKN015=
201110151245 METAR LMML 151245Z 03009KT 360V070 9999 BKN021 BKN027 21/15
                        Q1014 NOSIG=
201110151215 METAR LMML 151215Z 03008KT 9999 BKN019 21/15 Q1014 NOSIG=
201110151200 METAR LMML NIL=
201110151145 METAR LMML 151145Z 01010KT 340V060 9999 BKN019 22/15 Q1014
                        BECMG 06010KT=
201110151130 METAR LMML NIL=
201110151115 METAR LMML 151115Z 36009KT 9999 BKN028 23/14 Q1014 BECMG
                        06010KT=
201110151100 METAR LMML NIL=
201110151045 METAR LMML 151045Z 36010KT 9999 BKN028 22/14 Q1015 NOSIG=
201110151030 METAR LMML NIL=
201110151015 METAR LMML 151015Z 32009KT 290V360 9999 SCT027 22/14 Q1015
                        NOSIG=
201110151000 METAR LMML NIL=
201110150945 METAR LMML 150945Z 30009KT 280V340 9999 SCT027 23/14 Q1014
                        NOSIG=
201110150930 METAR LMML NIL=
201110150915 METAR LMML 150915Z 30010KT 270V330 9999 SCT025 22/14 Q1014
                        NOSIG=
201110150900 METAR LMML NIL=
201110150845 METAR LMML 150845Z 29011KT 9999 SCT023 21/14 Q1014 NOSIG=
201110150830 METAR LMML NIL=
201110150815 METAR LMML 150815Z 28012KT 230V300 9999 SCT023 21/15 Q1014
                        NOSIG=
201110150800 METAR LMML NIL=
201110150745 METAR LMML 150745Z 28013KT 250V320 9999 SCT021 21/14 Q1014
                        NOSIG=
201110150730 METAR LMML NIL=
201110150715 METAR LMML 150715Z 29013KT 230V320 9999 SCT021 21/14 Q1014
                        NOSIG=
201110150700 METAR LMML NIL=
201110150645 METAR LMML 150645Z 28013KT 250V310 9999 SCT020 20/15 Q1013
                        NOSIG=
201110150630 METAR LMML NIL=
201110150615 METAR LMML 150615Z 28011KT 240V310 9999 FEW022 20/14 Q1013
                        NOSIG=
201110150600 METAR LMML NIL=
201110150545 METAR LMML 150545Z 28010KT 250V320 9999 FEW022 19/14 Q1013
                        NOSIG=
201110150515 METAR COR LMML 150515Z 28011KT 250V310 9999 FEW021 19/14
                        Q1013 NOSIG=
201110150500 METAR LMML NIL=
201110150445 METAR LMML 150445Z 28012KT 9999 FEW021 19/14 Q1012 NOSIG=
201110150430 METAR LMML NIL=
201110150415 METAR LMML 150415Z 27011KT 240V300 9999 FEW021 19/15 Q1013
                        NOSIG=
201110150400 METAR LMML NIL=
201110150345 METAR LMML 150345Z 27012KT 9999 FEW021 19/14 Q1012 NOSIG=
201110150330 METAR LMML NIL=
201110150315 METAR LMML 150315Z 26012KT 230V300 9999 FEW025 19/15 Q1013
                        NOSIG=
201110150300 METAR LMML NIL=
201110150245 METAR LMML 150245Z 26012KT 230V310 9999 FEW017 19/14 Q1013
                        NOSIG=
201110150230 METAR LMML NIL=
201110150215 METAR LMML 150215Z 26013KT 220V300 9999 FEW017 20/15 Q1013
                        NOSIG RMK DISTANT LIGHTNING TO ENE=
201110150200 METAR LMML NIL=
201110150145 METAR LMML 150145Z 26013KT 230V290 9999 SCT016 20/16 Q1013
                        NOSIG RMK DISTANT LIGHTNING TO ENE=
201110150130 METAR LMML NIL=
201110150115 METAR LMML 150115Z 26014KT 220V290 9999 SCT018 20/16 Q1013
                        NOSIG=
201110150100 METAR LMML NIL=
201110150045 METAR LMML 150045Z 26015KT 220V290 9999 SCT017 20/16 Q1013
                        NOSIG RMK DISTANT LIGHTNING TO ENE=
201110150030 METAR LMML NIL=
201110150015 METAR LMML 150015Z 26013KT 220V290 9999 SCT019 20/16 Q1013
                        NOSIG RMK DISTANT LIGHTNING TO ENE=
201110150000 METAR LMML NIL=
201110142345 METAR LMML 142345Z 25012KT 210V290 9999 SCT023 21/16 Q1013
                        NOSIG RMK DISTANT LIGHTNING TO ENE=
201110142330 METAR LMML NIL=
201110142315 METAR LMML 142315Z 25010KT 220V300 9999 SCT025 21/16 Q1014
                        NOSIG RMK DISTANT LIGHTNING TO NE=
201110142245 METAR LMML 142245Z 24010KT 200V270 9999 SCT024 21/16 Q1014
                        NOSIG RMK DISTANT LIGHTNING TO NE=
201110142230 METAR LMML NIL=
201110142215 METAR LMML 142215Z 24008KT 200V280 9999 SCT022 20/16 Q1014
                        TEMPO 8000 SHRA BKN015TCU RMK DISTANT
                        LIGHTNING TO NE=
201110142200 METAR LMML NIL=
201110142145 METAR LMML 142145Z 23008KT 200V270 9999 FEW022 20/16 Q1014
                        NOSIG RMK LIGHTNING TO NE AND NNE=
201110142130 METAR LMML NIL=
201110142115 METAR LMML 142115Z 23007KT 200V280 9999 FEW026 20/16 Q1014
                        NOSIG RMK LIGHTNING TO N=
201110142100 METAR LMML NIL=
201110142045 METAR LMML 142045Z 23006KT 200V260 9999 FEW020 20/16 Q1014
                        NOSIG=
201110142030 METAR LMML NIL=
201110142015 METAR LMML 142015Z 23005KT 200V270 9999 FEW021 20/16 Q1014
                        NOSIG=
201110142000 METAR LMML NIL=
201110141945 METAR LMML 141945Z 24006KT 210V270 9999 FEW020 20/16 Q1014
                        NOSIG=
201110141930 METAR LMML NIL=
201110141915 METAR LMML 141915Z 24006KT 200V270 9999 FEW023 20/16 Q1014
                        NOSIG=
201110141900 METAR LMML NIL=
201110141845 METAR LMML 141845Z 24004KT 200V270 9999 FEW021 20/15 Q1014
                        NOSIG=
201110141830 METAR LMML NIL=
201110141815 METAR LMML 141815Z 25006KT 210V280 9999 FEW022 20/15 Q1014
                        NOSIG=
201110141800 METAR LMML NIL=
201110141745 METAR LMML 141745Z 25007KT 210V280 9999 FEW023 20/15 Q1014
                        NOSIG=
201110141730 METAR LMML NIL=
201110141715 METAR LMML 141715Z 25008KT 210V280 9999 FEW022 20/15 Q1013
                        NOSIG=
201110141645 METAR LMML 141645Z 25008KT 210V290 9999 FEW023 21/16 Q1013
                        NOSIG=
201110141630 METAR LMML NIL=
201110141615 METAR LMML 141615Z 25011KT 220V290 9999 SCT023 21/15 Q1013
                        NOSIG=
201110141600 METAR LMML NIL=
201110141545 METAR LMML 141545Z 26010KT 220V300 9999 SCT024 21/16 Q1013
                        NOSIG=
201110141530 METAR LMML NIL=
201110141515 METAR LMML 141515Z 26011KT 220V290 9999 SCT023 22/16 Q1013
                        NOSIG=
201110141500 METAR LMML NIL=
201110141445 METAR LMML 141445Z 27012KT 230V300 9999 BKN020 22/16 Q1013
                        NOSIG=
201110141415 METAR LMML 141415Z 26011KT 220V300 9999 BKN022 23/16 Q1013
                        NOSIG=
201110141400 METAR LMML NIL=
201110141345 METAR LMML 141345Z 24011KT 190V280 9999 BKN020 24/16 Q1013
                        NOSIG=
201110141330 METAR LMML NIL=
201110141315 METAR LMML 141315Z 22010KT 200V270 9999 BKN020 22/16 Q1013
                        NOSIG=
201110141300 METAR LMML NIL=
201110141245 METAR LMML 141245Z 23009KT 170V280 9999 SCT022 23/16 Q1013
                        NOSIG=
201110141230 METAR LMML NIL=
201110141215 METAR LMML 141215Z 24008KT 180V280 9999 SCT023 23/16 Q1014
                        NOSIG=
201110141200 METAR LMML NIL=
201110141145 METAR LMML 141145Z 23010KT 180V270 9999 FEW025 24/16 Q1014
                        NOSIG=
201110141130 METAR LMML NIL=
201110141115 METAR LMML 141115Z 25009KT 200V300 9999 FEW025 24/15 Q1014
                        NOSIG=
201110141100 METAR LMML NIL=
201110141045 METAR LMML 141045Z 26008KT 210V310 9999 FEW025 24/14 Q1014
                        NOSIG=
201110141030 METAR LMML NIL=
201110141015 METAR LMML 141015Z 27007KT 230V300 9999 SCT025 24/15 Q1014
                        NOSIG=
201110141000 METAR LMML NIL=
201110140945 METAR LMML 140945Z 26006KT 210V300 9999 SCT023 24/17 Q1015
                        NOSIG=
201110140930 METAR LMML NIL=
201110140915 METAR LMML 140915Z 29006KT 220V330 9999 SCT024 25/17 Q1015
                        NOSIG=
201110140900 METAR LMML NIL=
201110140845 METAR LMML 140845Z 29007KT 250V320 9999 SCT021 24/17 Q1015
                        NOSIG=
201110140830 METAR LMML NIL=
201110140815 METAR LMML 140815Z 30007KT 230V360 9999 SCT017 23/17 Q1015
                        NOSIG=
201110140800 METAR LMML NIL=
201110140745 METAR LMML 140745Z 32005KT 280V010 9999 FEW009 SCT013 22/18
                        Q1015 BECMG BKN016=
201110140715 METAR LMML 140715Z 33007KT 9999 BKN012 21/18 Q1015 BECMG
                        BKN016=
201110140700 METAR LMML NIL=
201110140645 METAR LMML 140645Z 23005KT 190V290 9999 BKN012 22/19 Q1014
                        BECMG BKN016=
201110140615 METAR LMML 140615Z 22006KT 200V270 9999 BKN012 21/19 Q1014
                        BECMG BKN016=
201110140600 METAR LMML NIL=
201110140545 METAR LMML 140545Z 22007KT 190V270 9999 BKN012 21/19 Q1014
                        BECMG BKN016=
201110140530 METAR LMML NIL=
201110140515 METAR LMML 140515Z 23006KT 190V270 9999 BKN014 21/19 Q1014
                        NOSIG=
201110140500 METAR LMML NIL=
201110140445 METAR LMML 140445Z 23006KT 190V270 9999 BKN014 21/19 Q1014
                        NOSIG=
201110140430 METAR LMML NIL=
201110140415 METAR LMML 140415Z 23005KT 190V270 9999 BKN012 21/19 Q1014
                        NOSIG=
201110140400 METAR LMML NIL=
201110140345 METAR LMML 140345Z 23005KT 200V270 9999 BKN011 21/19 Q1014
                        NOSIG=
201110140330 METAR LMML NIL=
201110140315 METAR LMML 140315Z 22007KT 200V260 9999 BKN010 21/19 Q1014
                        NOSIG=
201110140300 METAR LMML NIL=
201110140245 METAR LMML 140245Z 22007KT 190V260 9999 SCT010 21/19 Q1014
                        TEMPO BKN010=
201110140230 METAR LMML NIL=
201110140215 METAR LMML 140215Z 21007KT 9999 FEW011 20/19 Q1014 TEMPO
                        BKN010=
201110140200 METAR LMML NIL=
201110140145 METAR LMML 140145Z 22007KT 190V250 9999 FEW012 20/18 Q1015
                        TEMPO BKN010=
201110140130 METAR LMML NIL=
201110140115 METAR LMML 140115Z 22007KT 190V250 CAVOK 20/18 Q1015 TEMPO
                        BKN010=
201110140100 METAR LMML NIL=
201110140045 METAR LMML 140045Z 23008KT 200V270 CAVOK 20/18 Q1015 TEMPO
                        BKN010=
201110140030 METAR LMML NIL=
201110140015 METAR LMML 140015Z 23008KT 200V260 9999 FEW010 20/18 Q1015
                        TEMPO BKN010=
201110140000 METAR LMML NIL=
201110132345 METAR LMML 132345Z 22009KT 9999 FEW010 20/18 Q1016 TEMPO
                        BKN010=
201110132330 METAR LMML NIL=
201110132315 METAR LMML 132315Z 22009KT 200V260 9999 FEW010 20/18 Q1016
                        TEMPO BKN0010=
201110132300 METAR LMML NIL=
201110132245 METAR LMML 132245Z 23008KT 200V260 9999 FEW010 20/18 Q1016
                        TEMPO BKN015=
201110132230 METAR LMML NIL=
201110132215 METAR LMML 132215Z 23007KT 200V260 9999 FEW010 20/18 Q1016
                        NOSIG=
201110132200 METAR LMML NIL=
201110132145 METAR LMML 132145Z 23007KT 210V270 9999 FEW011 20/18 Q1016
                        NOSIG=
201110132130 METAR LMML NIL=
201110132115 METAR LMML 132115Z 24007KT 200V270 9999 FEW013 20/18 Q1016
                        NOSIG=
201110132100 METAR LMML NIL=
201110132045 METAR LMML 132045Z 24006KT 210V270 9999 FEW013 20/18 Q1017
                        NOSIG=
201110132030 METAR LMML NIL=
201110132015 METAR LMML 132015Z 25006KT 210V290 9999 FEW013 20/18 Q1017
                        NOSIG=
201110132000 METAR LMML NIL=
201110131945 METAR LMML 131945Z 25008KT 220V280 9999 FEW015 21/18 Q1017
                        NOSIG=
201110131930 METAR LMML NIL=
201110131915 METAR LMML 131915Z 25007KT 210V280 9999 FEW014 21/18 Q1017
                        NOSIG=
201110131900 METAR LMML NIL=
201110131845 METAR LMML 131845Z 24008KT 210V280 9999 FEW013 21/18 Q1017
                        NOSIG=
201110131830 METAR LMML NIL=
201110131815 METAR LMML 131815Z 24008KT 200V280 9999 FEW015 21/18 Q1017
                        NOSIG=
201110131800 METAR LMML NIL=
201110131745 METAR LMML 131745Z 26008KT 9999 FEW013 21/18 Q1017 NOSIG=
201110131730 METAR LMML NIL=
201110131715 METAR LMML 131715Z 25008KT 200V290 9999 FEW013 21/18 Q1017
                        NOSIG=
201110131700 METAR LMML NIL=
201110131645 METAR LMML 131645Z 26009KT 220V290 9999 FEW015 21/18 Q1017
                        NOSIG=
201110131630 METAR LMML NIL=
201110131615 METAR LMML 131615Z 25008KT 210V290 9999 FEW015 21/18 Q1017
                        NOSIG=
201110131600 METAR LMML NIL=
201110131545 METAR LMML 131545Z 26009KT 220V290 9999 FEW016 22/18 Q1017
                        NOSIG=
201110131530 METAR LMML NIL=
201110131515 METAR LMML 131515Z 27010KT 230V300 9999 FEW017 23/17 Q1017
                        NOSIG=
201110131500 METAR LMML NIL=
201110131445 METAR LMML 131445Z 26012KT 210V290 9999 FEW016 23/17 Q1017
                        NOSIG=
201110131430 METAR LMML NIL=
201110131415 METAR LMML 131415Z 26011KT 220V320 9999 FEW017 23/17 Q1017
                        NOSIG=
201110131400 METAR LMML NIL=
201110131345 METAR LMML 131345Z 27010KT 230V300 9999 FEW018 23/17 Q1017
                        NOSIG=
201110131330 METAR LMML NIL=
201110131315 METAR LMML 131315Z 27010KT 210V310 9999 FEW018 24/17 Q1017
                        NOSIG=
201110131300 METAR LMML NIL=
201110131245 METAR LMML 131245Z 26010KT 220V300 CAVOK 24/17 Q1017 NOSIG=
201110131230 METAR LMML NIL=
201110131215 METAR LMML 131215Z 28011KT 230V310 9999 FEW021 24/17 Q1018
                        NOSIG=
201110131145 METAR LMML 131145Z 28010KT 230V320 9999 FEW022 24/17 Q1018
                        NOSIG=
201110131130 METAR LMML NIL=
201110131115 METAR LMML 131115Z 28011KT 230V330 9999 FEW022 25/17 Q1018
                        NOSIG=
201110131100 METAR LMML NIL=
201110131045 METAR LMML 131045Z 27011KT 240V320 9999 FEW020 24/17 Q1018
                        NOSIG=
201110131030 METAR LMML NIL=
201110131015 METAR LMML 131015Z 29011KT 240V330 9999 FEW020 24/16 Q1018
                        NOSIG=
201110131000 METAR LMML NIL=
201110130945 METAR LMML 130945Z 30012KT 260V330 9999 FEW020 24/16 Q1019
                        NOSIG=
201110130930 METAR LMML NIL=
201110130915 METAR LMML 130915Z 30011KT 270V330 9999 FEW018 23/17 Q1019
                        NOSIG=
201110130900 METAR LMML NIL=
201110130845 METAR LMML 130845Z 30011KT 260V330 9999 SCT019 23/17 Q1019
                        NOSIG=
201110130830 METAR LMML NIL=
201110130815 METAR LMML 130815Z 30009KT 270V330 9999 SCT018 23/17 Q1019
                        NOSIG=
201110130800 METAR LMML NIL=
201110130745 METAR LMML 130745Z 31011KT 9999 FEW016 22/17 Q1019 NOSIG=
201110130730 METAR LMML NIL=
201110130715 METAR LMML 130715Z 31010KT 9999 FEW014 21/17 Q1018 NOSIG=
201110130700 METAR LMML NIL=
201110130645 METAR LMML 130645Z 31008KT 9999 FEW014 20/17 Q1018 NOSIG=
201110130630 METAR LMML NIL=
201110130615 METAR LMML 130615Z 30005KT 9999 FEW014 19/18 Q1018 NOSIG=
201110130600 METAR LMML NIL=
201110130545 METAR LMML 130545Z 28003KT 9000 BKN014 19/19 Q1018 BECMG
                        9999 SCT015=
201110130530 METAR LMML NIL=
201110130515 METAR LMML 130515Z 29003KT 9000 BKN013 18/18 Q1018 NOSIG=
201110130500 METAR LMML NIL=
201110130445 METAR LMML 130445Z VRB02KT 9000 BKN011 17/17 Q1018 TEMPO
                        5000 BKN005=
201110130430 METAR LMML NIL=
201110130415 METAR LMML 130415Z 25003KT 9000 FEW007 17/17 Q1018 TEMPO
                        5000 BKN005=
201110130400 METAR LMML NIL=
201110130345 METAR LMML 130345Z 26003KT 9000 FEW007 17/17 Q1018 TEMPO
                        5000 BKN005=
201110130330 METAR LMML NIL=
201110130315 METAR LMML 130315Z 26003KT 9000 FEW007 18/18 Q1018 TEMPO
                        5000 BKN005=
201110130300 METAR LMML NIL=
201110130245 METAR LMML 130245Z VRB02KT 9000 FEW007 17/17 Q1018 TEMPO
                        5000 BKN005=
201110130230 METAR LMML NIL=
201110130215 METAR LMML 130215Z VRB01KT 9000 FEW007 18/18 Q1018 TEMPO
                        5000 BKN005=
201110130200 METAR LMML NIL=
201110130145 METAR LMML 130145Z VRB01KT 9000 BKN007 18/17 Q1018 TEMPO
                        5000 BKN005=
201110130130 METAR LMML NIL=
201110130115 METAR LMML 130115Z VRB02KT 9999 BKN007 18/18 Q1018 TEMPO
                        5000 BKN005=
201110130100 METAR LMML NIL=
201110130045 METAR LMML 130045Z VRB01KT 9999 BKN007 19/18 Q1019 NOSIG=
201110130030 METAR LMML NIL=
201110130015 METAR LMML 130015Z VRB01KT 9999 FEW012 19/17 Q1019 NOSIG=
201110130000 METAR LMML NIL=
201110122345 METAR LMML 122345Z 28003KT CAVOK 19/17 Q1019 NOSIG=
201110122330 METAR LMML NIL=
201110122315 METAR LMML 122315Z 26003KT 9999 FEW012 19/17 Q1019 NOSIG=
201110122300 METAR LMML NIL=
201110122245 METAR LMML 122245Z 24003KT CAVOK 19/17 Q1019 NOSIG=
201110122230 METAR LMML NIL=
201110122215 METAR LMML 122215Z 29004KT 250V320 9999 FEW012 19/18 Q1019
                        NOSIG=
201110122200 METAR LMML NIL=
201110122145 METAR LMML 122145Z 30005KT 9999 FEW012 19/18 Q1019 NOSIG=
201110122130 METAR LMML NIL=
201110122115 METAR LMML 122115Z 29005KT 9999 FEW012 19/18 Q1019 NOSIG=
201110122100 METAR LMML NIL=
201110122045 METAR LMML 122045Z VRB02KT CAVOK 19/17 Q1020 NOSIG=
201110122030 METAR LMML NIL=
201110122015 METAR LMML 122015Z VRB02KT CAVOK 19/17 Q1020 NOSIG=
201110122000 METAR LMML NIL=
201110121945 METAR LMML 121945Z 27004KT CAVOK 19/17 Q1020 NOSIG=
201110121930 METAR LMML NIL=
201110121915 METAR LMML 121915Z 29004KT CAVOK 19/17 Q1020 NOSIG=
201110121900 METAR LMML NIL=
201110121845 METAR LMML 121845Z 30005KT CAVOK 19/17 Q1020 NOSIG=
201110121830 METAR LMML NIL=
201110121815 METAR LMML 121815Z 31005KT CAVOK 20/17 Q1020 NOSIG=
201110121800 METAR LMML NIL=
201110121745 METAR LMML 121745Z 31006KT CAVOK 20/17 Q1020 NOSIG=
201110121730 METAR LMML NIL=
201110121715 METAR LMML 121715Z 31006KT 9999 FEW025 20/16 Q1019 NOSIG=
201110121700 METAR LMML NIL=
201110121645 METAR LMML 121645Z 30005KT 9999 FEW025 21/16 Q1019 NOSIG=
201110121630 METAR LMML NIL=
201110121615 METAR LMML 121615Z 28006KT CAVOK 22/15 Q1019 NOSIG=
201110121600 METAR LMML NIL=
201110121545 METAR LMML 121545Z 27006KT 240V310 CAVOK 23/15 Q1019 NOSIG=
201110121530 METAR LMML NIL=
201110121515 METAR LMML 121515Z 28006KT 250V310 CAVOK 24/14 Q1019 NOSIG=
201110121500 METAR LMML NIL=
201110121445 METAR LMML 121445Z 26005KT 210V310 CAVOK 24/13 Q1019 NOSIG=
201110121430 METAR LMML NIL=
201110121415 METAR LMML 121415Z 28006KT 220V310 9999 FEW035 24/14 Q1019
                        NOSIG=
201110121400 METAR LMML NIL=
201110121345 METAR LMML 121345Z 27007KT 220V310 9999 FEW035 25/14 Q1019
                        NOSIG=
201110121330 METAR LMML NIL=
201110121315 METAR LMML 121315Z 27007KT 220V300 9999 FEW035 25/14 Q1019
                        NOSIG=
201110121245 METAR LMML 121245Z 33006KT 300V360 9999 SCT035 24/15 Q1019
                        NOSIG=
201110121215 METAR LMML 121215Z VRB02KT 9999 SCT032 24/15 Q1019 NOSIG=
201110121145 METAR LMML 121145Z 34003KT 9999 FEW029 24/15 Q1019 NOSIG=
201110121130 METAR LMML NIL=
201110121115 METAR LMML 121115Z 34004KT 280V020 9999 FEW034 25/14 Q1019
                        NOSIG=
201110121045 METAR LMML 121045Z VRB02KT 9999 FEW043 25/12 Q1020 NOSIG=
201110121030 METAR LMML NIL=
201110121015 METAR LMML 121015Z 34004KT 280V020 9999 FEW035 25/13 Q1020
                        NOSIG=
201110121000 METAR LMML NIL=
201110120945 METAR LMML 120945Z 35004KT 310V080 9999 FEW035 25/13 Q1020
                        TEMPO CAVOK=
201110120930 METAR LMML NIL=
201110120915 METAR LMML 120915Z 32003KT 9999 FEW030 24/13 Q1020 TEMPO
                        CAVOK=
201110120900 METAR LMML NIL=
201110120845 METAR LMML 120845Z 34004KT 300V040 CAVOK 24/14 Q1020 NOSIG=
201110120830 METAR LMML NIL=
201110120815 METAR LMML 120815Z 31005KT 270V340 CAVOK 23/14 Q1020 NOSIG=
201110120800 METAR LMML NIL=
201110120745 METAR LMML 120745Z 33005KT 300V010 CAVOK 22/15 Q1020 NOSIG=
201110120730 METAR LMML NIL=
201110120715 METAR LMML 120715Z 31003KT CAVOK 22/15 Q1019 NOSIG=
201110120700 METAR LMML NIL=
201110120645 METAR LMML 120645Z 28003KT CAVOK 20/14 Q1019 NOSIG=
201110120630 METAR LMML NIL=
201110120615 METAR LMML 120615Z 28004KT 250V310 CAVOK 19/14 Q1019 NOSIG=
201110120545 METAR LMML 120545Z 29004KT CAVOK 18/13 Q1018 NOSIG=
201110120515 METAR LMML 120515Z 30004KT CAVOK 16/13 Q1018 NOSIG=
201110120445 METAR LMML 120445Z 30004KT CAVOK 17/13 Q1018 NOSIG=
201110120430 METAR LMML NIL=
201110120415 METAR LMML 120415Z 29004KT CAVOK 17/12 Q1018 NOSIG=
201110120400 METAR LMML NIL=
201110120345 METAR LMML 120345Z 29005KT CAVOK 17/13 Q1018 NOSIG=
201110120330 METAR LMML NIL=
201110120315 METAR LMML 120315Z 30003KT CAVOK 16/12 Q1018 NOSIG=
201110120300 METAR LMML NIL=
201110120245 METAR LMML 120245Z 29004KT CAVOK 16/13 Q1017 NOSIG=
201110120230 METAR LMML NIL=
201110120215 METAR LMML 120215Z VRB02KT CAVOK 16/13 Q1017 NOSIG=
201110120200 METAR LMML NIL=
201110120145 METAR LMML 120145Z VRB01KT CAVOK 16/13 Q1017 NOSIG=
201110120115 METAR LMML 120115Z 27003KT CAVOK 16/13 Q1018 NOSIG=
201110120100 METAR LMML NIL=
201110120045 METAR LMML 120045Z VRB01KT CAVOK 17/13 Q1018 NOSIG=
201110120030 METAR LMML NIL=
201110120015 METAR LMML 120015Z VRB01KT CAVOK 17/13 Q1018 NOSIG=
201110120000 METAR LMML NIL=
201110112345 METAR LMML 112345Z VRB01KT CAVOK 17/13 Q1018 NOSIG=
201110112330 METAR LMML NIL=
201110112315 METAR LMML 112315Z VRB01KT CAVOK 18/13 Q1018 NOSIG=
201110112245 METAR LMML 112245Z 09005KT CAVOK 19/13 Q1018 NOSIG=
201110112215 METAR LMML 112215Z 10005KT CAVOK 19/14 Q1018 NOSIG=
201110112145 METAR LMML 112145Z 08006KT CAVOK 19/14 Q1018 NOSIG=
201110112115 METAR LMML 112115Z 08006KT 9999 FEW025 19/15 Q1018 NOSIG=
201110112100 METAR LMML NIL=
201110112045 METAR LMML 112045Z 03004KT 330V150 9999 FEW025 20/16 Q1017
                        NOSIG=
201110112015 METAR LMML 112015Z 32006KT 280V340 9999 FEW025 19/16 Q1017
                        NOSIG=
201110111945 METAR LMML 111945Z 31009KT 9999 FEW025 20/17 Q1017 NOSIG=
201110111930 METAR LMML NIL=
201110111915 METAR LMML 111915Z 31011KT 9999 FEW025 20/17 Q1017 NOSIG=
201110111845 METAR LMML 111845Z 31010KT 9999 FEW025 20/17 Q1017 NOSIG=
201110111830 METAR LMML NIL=
201110111815 METAR LMML 111815Z 30005KT 9999 FEW025 20/16 Q1017 NOSIG=
201110111745 METAR LMML 111745Z 31006KT 9999 FEW025 20/16 Q1017 NOSIG=
201110111730 METAR LMML NIL=
201110111715 METAR LMML 111715Z 31007KT 9999 FEW025 21/16 Q1017 NOSIG=
201110111700 METAR LMML NIL=
201110111645 METAR LMML 111645Z 31009KT 9999 FEW025 21/16 Q1017 NOSIG=
201110111630 METAR LMML NIL=
201110111615 METAR LMML 111615Z 28010KT 9999 FEW025 22/16 Q1016 NOSIG=
201110111600 METAR LMML NIL=
201110111545 METAR LMML 111545Z 29010KT 9999 FEW030 22/15 Q1017 NOSIG=
201110111530 METAR LMML NIL=
201110111515 METAR LMML 111515Z 29009KT 260V330 9999 FEW030 23/14 Q1017
                        NOSIG=
201110111500 METAR LMML NIL=
201110111445 METAR LMML 111445Z 32008KT 280V360 9999 FEW035 23/14 Q1017
                        NOSIG=
201110111430 METAR LMML NIL=
201110111415 METAR LMML 111415Z 33009KT 300V360 9999 FEW040 22/12 Q1017
                        NOSIG=
201110111400 METAR LMML NIL=
201110111345 METAR LMML 111345Z 32009KT 280V020 9999 FEW040 23/12 Q1017
                        NOSIG=
201110111330 METAR LMML NIL=
201110111315 METAR LMML 111315Z 32010KT 9999 FEW041 24/11 Q1017 NOSIG=
201110111300 METAR LMML NIL=
201110111245 METAR LMML 111245Z 32009KT 290V360 9999 SCT040 23/10 Q1017
                        NOSIG=
201110111230 METAR LMML NIL=
201110111215 METAR LMML 111215Z 36009KT 320V030 9999 SCT038 24/11 Q1017
                        NOSIG=
201110111200 METAR LMML NIL=
201110111145 METAR LMML 111145Z 34011KT 300V020 9999 SCT038 22/12 Q1017
                        NOSIG=
201110111130 METAR LMML NIL=
201110111115 METAR LMML 111115Z 33011KT 290V020 9999 SCT040 22/11 Q1018
                        NOSIG=
201110111100 METAR LMML NIL=
201110111045 METAR LMML 111045Z 34009KT 300V020 9999 SCT039 22/11 Q1018
                        NOSIG=
201110111030 METAR LMML NIL=
201110111015 METAR LMML 111015Z 35011KT 310V010 9999 FEW042 23/11 Q1018
                        NOSIG=
201110111000 METAR LMML NIL=
201110110945 METAR LMML 110945Z 32012KT 300V360 9999 FEW041 22/11 Q1018
                        NOSIG=
201110110930 METAR LMML NIL=
201110110915 METAR LMML 110915Z 33011KT 320V020 9999 FEW042 23/11 Q1018
                        NOSIG=
201110110900 METAR LMML NIL=
201110110845 METAR LMML 110845Z 34014KT 9999 FEW042 22/09 Q1018 NOSIG=
201110110830 METAR LMML NIL=
201110110815 METAR LMML 110815Z 34013KT 310V020 9999 FEW039 22/10 Q1017
                        NOSIG=
201110110800 METAR LMML NIL=
201110110745 METAR LMML 110745Z 33013KT 9999 FEW039 22/11 Q1017 NOSIG=
201110110730 METAR LMML NIL=
201110110715 METAR LMML 110715Z 33011KT 300V360 9999 FEW039 21/11 Q1017
                        NOSIG=
201110110645 METAR LMML 110645Z 32011KT 290V350 9999 FEW039 19/10 Q1017
                        NOSIG=
201110110630 METAR LMML NIL=
201110110615 METAR LMML 110615Z 32009KT 290V350 9999 FEW040 19/10 Q1017
                        NOSIG=
201110110600 METAR LMML NIL=
201110110545 METAR LMML 110545Z 32008KT 9999 FEW041 19/10 Q1016 NOSIG=
201110110515 METAR LMML 110515Z 31008KT 9999 FEW039 SCT060 18/10 Q1016
                        NOSIG=
201110110445 METAR LMML 110445Z 33008KT 9999 FEW020 SCT070 18/09 Q1016
                        NOSIG=
201110110430 METAR LMML NIL=
201110110415 METAR LMML 110415Z 34011KT 9999 FEW020 SCT070 18/08 Q1016
                        NOSIG=
201110110400 METAR LMML NIL=
201110110345 METAR LMML 110345Z 32008KT 290V360 CAVOK 17/08 Q1016 NOSIG=
201110110330 METAR LMML NIL=
201110110315 METAR LMML 110315Z 33013KT 9999 FEW048 SCT250 18/07 Q1016
                        NOSIG=
201110110300 METAR LMML NIL=
201110110245 METAR LMML 110245Z 34013KT 9999 FEW048 18/07 Q1017 NOSIG=
201110110230 METAR LMML NIL=
201110110215 METAR LMML 110215Z 34012KT 9999 FEW048 18/08 Q1016 NOSIG=
201110110145 METAR LMML 110145Z 34014KT 9999 FEW043 18/07 Q1017 NOSIG=
201110110130 METAR LMML NIL=
201110110115 METAR LMML 110115Z 34015KT 310V020 9999 FEW046 18/07 Q1017
                        NOSIG=
201110110100 METAR LMML NIL=
201110110045 METAR LMML 110045Z 33013KT 300V010 9999 FEW043 18/08 Q1017
                        NOSIG=
201110110030 METAR LMML NIL=
201110110015 METAR LMML 110015Z 34014KT 9999 FEW046 17/07 Q1017 NOSIG=
201110110000 METAR LMML NIL=
201110102345 METAR LMML 102345Z 33013KT 9999 FEW043 17/07 Q1017 NOSIG=
201110102330 METAR LMML NIL=
201110102315 METAR LMML 102315Z 33016KT 9999 FEW045 17/07 Q1018 NOSIG=
201110102300 METAR LMML NIL=
201110102245 METAR LMML 102245Z 32013KT 9999 FEW046 17/07 Q1018 NOSIG=
201110102230 METAR LMML NIL=
201110102215 METAR LMML 102215Z 33011KT 9999 SCT049 17/06 Q1018 NOSIG=
201110102200 METAR LMML NIL=
201110102145 METAR LMML 102145Z 33014KT 9999 SCT047 17/06 Q1018 NOSIG=
201110102115 METAR LMML 102115Z 33013KT 9999 SCT047 18/07 Q1018 NOSIG=
201110102100 METAR LMML NIL=
201110102045 METAR LMML 102045Z 32010KT 290V350 9999 SCT046 17/07 Q1018
                        NOSIG=
201110102030 METAR LMML NIL=
201110102015 METAR LMML 102015Z 30008KT 9999 SCT046 17/07 Q1018 NOSIG=
201110102000 METAR LMML NIL=
201110101945 METAR LMML 101945Z 28003KT CAVOK 17/06 Q1018 NOSIG=
201110101930 METAR LMML NIL=
201110101915 METAR LMML 101915Z 30009KT CAVOK 17/06 Q1018 NOSIG=
201110101845 METAR LMML 101845Z 30011KT 9999 FEW030 17/06 Q1018 NOSIG=
201110101830 METAR LMML NIL=
201110101815 METAR LMML 101815Z 31013KT 9999 FEW030 17/06 Q1017 NOSIG=
201110101800 METAR LMML NIL=
201110101745 METAR LMML 101745Z 31014KT 9999 FEW030 18/05 Q1017 NOSIG=
201110101730 METAR LMML NIL=
201110101715 METAR LMML 101715Z 31014KT 9999 FEW030 18/06 Q1017 NOSIG=
201110101700 METAR LMML NIL=
201110101645 METAR LMML 101645Z 32011KT 9999 FEW030 18/05 Q1017 NOSIG=
201110101630 METAR LMML NIL=
201110101615 METAR LMML 101615Z 32015KT 9999 FEW030 19/05 Q1017 NOSIG=
201110101600 METAR LMML NIL=
201110101545 METAR LMML 101545Z 33015KT 290V350 9999 FEW049 19/05 Q1016
                        NOSIG=
201110101530 METAR LMML NIL=
201110101515 METAR LMML 101515Z 32017KT 9999 FEW049 19/06 Q1016 NOSIG=
201110101500 METAR LMML NIL=
201110101445 METAR LMML 101445Z 33017KT 310V010 9999 FEW049 20/06 Q1016
                        NOSIG=
201110101430 METAR LMML NIL=
201110101415 METAR LMML 101415Z 33019KT 9999 FEW048 20/06 Q1016 NOSIG=
201110101400 METAR LMML NIL=
201110101345 METAR LMML 101345Z 33019KT 310V010 9999 FEW049 20/06 Q1016
                        NOSIG=
201110101315 METAR LMML 101315Z 32020KT 9999 SCT048 20/06 Q1016 NOSIG=
201110101300 METAR LMML NIL=
201110101245 METAR LMML 101245Z 32023KT 290V350 9999 SCT048 21/06 Q1016
                        NOSIG=
201110101230 METAR LMML NIL=
201110101215 METAR LMML 101215Z 34022KT 9999 SCT047 20/06 Q1016 NOSIG=
201110101200 METAR LMML NIL=
201110101145 METAR LMML 101145Z 33023KT 9999 SCT047 20/06 Q1017 NOSIG=
201110101130 METAR LMML NIL=
201110101115 METAR LMML 101115Z 33021KT 300V360 9999 SCT049 20/06 Q1017
                        NOSIG=
201110101100 METAR LMML NIL=
201110101045 METAR LMML 101045Z 33021G33KT 9999 SCT049 19/05 Q1016 NOSIG=
201110101030 METAR LMML NIL=
201110101015 METAR LMML 101015Z 33022KT 300V360 9999 SCT049 20/05 Q1016
                        NOSIG=
201110101000 METAR LMML NIL=
201110100945 METAR LMML 100945Z 33022KT 310V010 9999 SCT048 19/05 Q1016
                        NOSIG=
201110100930 METAR LMML NIL=
201110100915 METAR LMML 100915Z 33021KT 9999 FEW047 19/05 Q1016 NOSIG=
201110100900 METAR LMML NIL=
201110100845 METAR LMML 100845Z 33023KT 290V360 9999 FEW044 18/05 Q1016
                        NOSIG=
201110100830 METAR LMML NIL=
201110100815 METAR LMML 100815Z 33022KT 9999 FEW040 18/06 Q1015 NOSIG=
201110100800 METAR LMML NIL=
201110100745 METAR LMML 100745Z 33020G30KT 9999 FEW040 SCT120 18/05 Q1015
                        NOSIG=
201110100730 METAR LMML NIL=
201110100715 METAR LMML 100715Z 33018G29KT 9999 FEW040 SCT120 17/06 Q1015
                        NOSIG=
201110100700 METAR LMML NIL=
201110100645 METAR LMML 100645Z 33019G31KT 9999 SCT044 SCT090 16/05 Q1014
                        NOSIG=
201110100630 METAR LMML NIL=
201110100615 METAR LMML 100615Z 33019KT 9999 FEW040 16/05 Q1014 NOSIG=
201110100600 METAR LMML NIL=
201110100545 METAR LMML 100545Z 33019KT 9999 SCT044 16/06 Q1013 TEMPO
                        8000 SHRA BKN020TCU=
201110100530 METAR LMML NIL=
201110100515 METAR LMML 100515Z 32018G28KT 9999 SCT046 16/06 Q1013 TEMPO
                        8000 SHRA BKN020TCU=
201110100500 METAR LMML NIL=
201110100445 METAR LMML 100445Z 33017KT 300V360 9999 FEW046 BKN120 16/05
                        Q1013 TEMPO 8000 SHRA BKN020TCU=
201110100430 METAR LMML NIL=
201110100415 METAR LMML 100415Z 32016G26KT 9999 FEW035 SCT120 15/06 Q1012
                        TEMPO 8000 SHRA BKN020TCU=
201110100400 METAR LMML NIL=
201110100345 METAR LMML 100345Z 31019KT 280V340 9999 FEW035 SCT250 15/06
                        Q1012 TEMPO 8000 SHRA BKN020TCU=
201110100330 METAR LMML NIL=
201110100315 METAR LMML 100315Z 32017KT 9999 FEW035 BKN250 15/06 Q1012
                        TEMPO 8000 SHRA BKN020TCU=
201110100300 METAR LMML NIL=
201110100245 METAR LMML 100245Z 32023G36KT 9999 FEW035 BKN250 15/04 Q1012
                        TEMPO 8000 SHRA BKN020TCU=
201110100230 METAR LMML NIL=
201110100215 METAR LMML 100215Z 32025G35KT 9999 FEW035 15/05 Q1012 TEMPO
                        8000 SHRA BKN020TCU=
201110100200 METAR LMML NIL=
201110100145 METAR LMML 100145Z 32020G30KT 280V340 9999 FEW035 15/06 Q1012
                        TEMPO 8000 SHRA BKN020TCU=
201110100130 METAR LMML NIL=
201110100115 METAR LMML 100115Z 31017KT 9999 FEW035 15/06 Q1012 TEMPO
                        8000 SHRA BKN020TCU=
201110100100 METAR LMML NIL=
201110100045 METAR LMML 100045Z 31020KT 9999 FEW035 15/07 Q1012 TEMPO
                        8000 SHRA BKN020TCU=
201110100030 METAR LMML NIL=
201110100015 METAR LMML 100015Z 32018KT 9999 FEW035 SCT250 15/08 Q1012
                        TEMPO 5000 TSGR BKN018CB=
201110100000 METAR LMML NIL=
201110092345 METAR LMML 092345Z 33019KT 9999 FEW035 SCT100 17/04 Q1013
                        TEMPO 8000 SHRA BKN020TCU=
201110092330 METAR LMML NIL=
201110092315 METAR LMML 092315Z 33019KT 9999 SCT038 SCT120 16/05 Q1013
                        TEMPO 8000 SHRA BKN020TCU=
201110092300 METAR LMML NIL=
201110092245 METAR LMML 092245Z 33018G29KT 300V010 9999 SCT038 16/06 Q1013
                        TEMPO 8000 SHRA BKN020TCU=
201110092230 METAR LMML NIL=
201110092215 METAR LMML 092215Z 32014KT 9999 FEW030 SCT250 15/07 Q1013
                        TEMPO 8000 SHRA BKN020TCU=
201110092200 METAR LMML NIL=
201110092145 METAR LMML 092145Z 33016KT 9999 FEW030 15/06 Q1013 TEMPO
                        3000 TSGR BKN020CB=
201110092130 METAR LMML NIL=
201110092115 METAR LMML 092115Z 33019KT 9999 SCT030 15/06 Q1013 TEMPO
                        3000 TSGR BKN020CB=
201110092100 METAR LMML NIL=
201110092045 METAR LMML 092045Z 33022G36KT 9999 SCT030 16/06 Q1013 TEMPO
                        3000 TSGR BKN020CB=
201110092030 METAR LMML NIL=
201110092015 METAR LMML 092015Z 31017KT 9999 FEW030 15/06 Q1012 TEMPO
                        3000 TSGR BKN020CB=
201110091945 METAR LMML 091945Z 33024G35KT 300V360 9999 FEW041 15/06 Q1012
                        TEMPO 3000 TSGR BKN020CB=
201110091930 METAR LMML NIL=
201110091915 METAR LMML 091915Z 31015KT 9999 FEW025 SCT120 15/06 Q1011
                        TEMPO 3000 TSGR BKN020CB=
201110091845 METAR LMML 091845Z 32022G32KT 9999 FEW025 SCT120 16/03 Q1012
                        TEMPO 3000 TSGR BKN020CB=
201110091830 METAR LMML NIL=
201110091815 METAR LMML 091815Z 31012KT 9999 FEW030 SCT110 15/07 Q1011
                        TEMPO 3000 TSRA BKN020CB=
201110091800 METAR LMML NIL=
201110091745 METAR LMML 091745Z 30012KT 9999 FEW030 SCT110 15/06 Q1011
                        RETS TEMPO 3000 TSRA BKN020CB=
201110091730 METAR LMML NIL=
201110091715 METAR LMML 091715Z 32012KT 9999 FEW020CB SCT110 15/07 Q1010
                        RETS TEMPO 3000 TSRA BKN020CB=
201110091700 METAR LMML NIL=
201110091645 METAR LMML 091645Z 34024G34KT 9999 FEW020CB SCT038 14/08
                        Q1011 TEMPO 3000 TSRA BKN020CB=
201110091630 METAR LMML NIL=
201110091615 METAR LMML 091615Z 31027G42KT 9999 TSRA SCT020CB BKN120 16/06
                        Q1011 TEMPO 3000 TSRA BKN020CB=
201110091600 METAR LMML NIL=
201110091545 METAR LMML 091545Z 31020G30KT 9999 SCT045 SCT120 18/06 Q1009
                        NOSIG=
201110091530 METAR LMML NIL=
201110091515 METAR LMML 091515Z 31019KT 280V340 9999 SCT045 SCT120 18/07
                        Q1009 NOSIG=
201110091500 METAR LMML NIL=
201110091445 METAR LMML 091445Z 32017KT 9999 SCT040 BKN120 18/08 Q1009
                        NOSIG=
201110091430 METAR LMML NIL=
201110091415 METAR LMML 091415Z 31021KT 9999 FEW040 BKN120 18/07 Q1009
                        TEMPO 8000 SHRA=
201110091400 METAR LMML NIL=
201110091345 METAR LMML 091345Z 33018KT 9999 FEW030 BKN250 19/09 Q1009
                        TEMPO 8000 SHRA=
201110091330 METAR LMML NIL=
201110091315 METAR LMML 091315Z 31021KT 270V330 9999 FEW045 BKN130 19/06
                        Q1008 TEMPO 8000 SHRA=
201110091300 METAR LMML NIL=
201110091245 METAR LMML 091245Z 30024G36KT 250V330 9999 FEW030 20/06 Q1008
                        TEMPO 8000 SHRA=
201110091230 METAR LMML NIL=
201110091215 METAR LMML 091215Z 28019G29KT 240V310 9999 FEW030 BKN120
                        19/07 Q1008 NOSIG=
201110091200 METAR LMML NIL=
201110091145 METAR LMML 091145Z 28015KT 250V310 9999 -SHRA FEW030 BKN120
                        19/08 Q1009 NOSIG=
201110091130 METAR LMML NIL=
201110091115 METAR LMML 091115Z 29014KT 260V320 9999 FEW030 BKN120 19/08
                        Q1009 NOSIG=
201110091100 METAR LMML NIL=
201110091045 METAR LMML 091045Z 31014KT 9999 SCT035 BKN120 18/08 Q1009
                        NOSIG=
201110091030 METAR LMML NIL=
201110091015 METAR LMML 091015Z 31017KT 9999 SCT035 BKN120 19/08 Q1010
                        NOSIG=
201110091000 METAR LMML NIL=
201110090945 METAR LMML 090945Z 31017KT 290V350 9999 SCT037 BKN120 19/09
                        Q1009 NOSIG=
201110090930 METAR LMML NIL=
201110090915 METAR LMML 090915Z 31015KT 9999 SCT035 BKN120 19/10 Q1009
                        NOSIG=
201110090900 METAR LMML NIL=
201110090845 METAR LMML 090845Z 31016KT 280V340 9999 SCT036 BKN120 19/10
                        Q1009 NOSIG=
201110090830 METAR LMML NIL=
201110090815 METAR LMML 090815Z 30016KT 270V330 9999 SCT040 20/09 Q1009
                        NOSIG=
201110090745 METAR LMML 090745Z 31020KT 9999 SCT044 19/10 Q1009 NOSIG=
201110090730 METAR LMML NIL=
201110090715 METAR LMML 090715Z 30017KT 9999 SCT040 19/10 Q1008 NOSIG=
201110090700 METAR LMML NIL=
201110090645 METAR LMML 090645Z 30017KT 9999 SCT043 18/11 Q1008 NOSIG=
201110090630 METAR LMML NIL=
201110090615 METAR LMML 090615Z 28013KT 9999 SCT037 18/10 Q1008 NOSIG=
201110090545 METAR LMML 090545Z 28010KT 230V310 9999 SCT030 17/12 Q1008
                        NOSIG=
201110090530 METAR LMML NIL=
201110090515 METAR LMML 090515Z 28010KT 250V310 9999 FEW037 BKN090 16/13
                        Q1008 NOSIG=
201110090500 METAR LMML NIL=
201110090445 METAR LMML 090445Z 30015KT 9999 -RA FEW027 SCT050 BKN110
                        15/12 Q1008 RERA TEMPO 5000 RA FEW008
                        BKN015 BKN040=
201110090430 METAR LMML NIL=
201110090415 METAR LMML 090415Z 27013KT 240V320 9999 -RA SCT029 SCT090
                        BKN110 18/13 Q1008 TEMPO 5000 RA
                        FEW008 BKN015 BKN040=
201110090400 METAR LMML NIL=
201110090345 METAR LMML 090345Z 27014KT 230V310 9999 -RA SCT030 BKN100
                        18/12 Q1008 TEMPO 5000 RA FEW008
                        BKN015 BKN040=
201110090330 METAR LMML NIL=
201110090315 METAR LMML 090315Z 27013G23KT 230V300 9999 SCT029 SCT120
                        18/10 Q1008 TEMPO 5000 RA FEW008
                        BKN015 BKN040=
201110090300 METAR LMML NIL=
201110090245 METAR LMML 090245Z 27005KT 220V300 9999 -RA FEW020 SCT040
                        BKN090 17/12 Q1008 TEMPO 5000 RA
                        FEW008 BKN015 BKN040=
201110090230 METAR LMML NIL=
201110090215 METAR LMML 090215Z 29015KT 260V330 9999 -RA FEW020 SCT040
                        BKN070 17/12 Q1009 TEMPO 5000 RA
                        FEW008 BKN015 BKN040=
201110090200 METAR LMML NIL=
201110090145 METAR LMML 090145Z 27008KT 230V310 9999 FEW025 SCT050 19/09
                        Q1009 TEMPO 5000 SHRA FEW008 BKN015=
201110090130 METAR LMML NIL=
201110090115 METAR LMML 090115Z 28010KT 9999 FEW025 SCT050 19/08 Q1009
                        TEMPO 5000 SHRA FEW008 BKN015=
201110090100 METAR LMML NIL=
201110090045 METAR LMML 090045Z 29009KT 9999 FEW025 SCT080 18/07 Q1009
                        NOSIG=
201110090030 METAR LMML NIL=
201110090015 METAR LMML 090015Z 30011KT 9999 FEW025 19/06 Q1010 NOSIG=
201110090000 METAR LMML NIL=
201110082345 METAR LMML 082345Z 31013KT 290V350 9999 FEW020 19/07 Q1010
                        NOSIG=
201110082330 METAR LMML NIL=
201110082315 METAR LMML 082315Z 30012KT 9999 FEW020 18/07 Q1010 NOSIG=
201110082300 METAR LMML NIL=
201110082245 METAR LMML 082245Z 30012KT 9999 FEW020 18/07 Q1010 NOSIG=
201110082230 METAR LMML NIL=
201110082215 METAR LMML 082215Z 30010KT 9999 FEW020 19/07 Q1011 NOSIG=
201110082200 METAR LMML NIL=
201110082145 METAR LMML 082145Z 30009KT 9999 FEW020 19/08 Q1011 NOSIG=
201110082130 METAR LMML NIL=
201110082115 METAR LMML 082115Z 30010KT 9999 FEW020 19/09 Q1011 NOSIG=
201110082100 METAR LMML NIL=
201110082045 METAR LMML 082045Z 30010KT 9999 FEW020 SCT250 19/09 Q1010
                        NOSIG=
201110082030 METAR LMML NIL=
201110082015 METAR LMML 082015Z 31013KT 9999 FEW020 SCT250 20/09 Q1010
                        NOSIG=
201110082000 METAR LMML NIL=
201110081945 METAR LMML 081945Z 30014KT 9999 FEW025 SCT110 20/11 Q1010
                        NOSIG=
201110081930 METAR LMML NIL=
201110081915 METAR LMML 081915Z 31013KT 9999 FEW025 SCT110 20/12 Q1010
                        NOSIG=
201110081900 METAR LMML NIL=
201110081845 METAR LMML 081845Z 30011KT 270V350 9999 FEW020 SCT110 20/11
                        Q1010 NOSIG=
201110081830 METAR LMML NIL=
201110081815 METAR LMML 081815Z 29015KT 260V320 9999 FEW020 SCT110 20/10
                        Q1010 NOSIG=
201110081800 METAR LMML NIL=
201110081745 METAR LMML 081745Z 29012KT 250V310 9999 FEW020 SCT110 20/11
                        Q1010 NOSIG=
201110081730 METAR LMML NIL=
201110081715 METAR LMML 081715Z 29015KT 9999 FEW025 SCT110 20/11 Q1009
                        NOSIG=
201110081645 METAR LMML 081645Z 29011KT 9999 FEW025 SCT110 20/11 Q1009
                        NOSIG=
201110081615 METAR LMML 081615Z 29014KT 260V330 9999 FEW020 BKN120 21/10
                        Q1009 NOSIG=
201110081600 METAR LMML NIL=
201110081545 METAR LMML 081545Z 29014KT 260V320 9999 FEW025 BKN120 21/11
                        Q1009 NOSIG=
201110081530 METAR LMML NIL=
201110081515 METAR LMML 081515Z 30017KT 270V330 9999 FEW025 BKN120 21/10
                        Q1009 NOSIG=
201110081500 METAR LMML NIL=
201110081445 METAR LMML 081445Z 31018KT 9999 FEW040 SCT250 22/12 Q1009
                        TEMPO 6000 SHRA BKN015TCU=
201110081430 METAR LMML NIL=
201110081415 METAR LMML 081415Z 30019KT 9999 SCT034 SCT120 22/12 Q1009
                        TEMPO 6000 SHRA BKN015TCU=
201110081400 METAR LMML NIL=
201110081345 METAR LMML 081345Z 31020KT 9999 SCT034 SCT250 23/12 Q1009
                        TEMPO 6000 SHRA BKN015TCU=
201110081330 METAR LMML NIL=
201110081315 METAR LMML 081315Z 32014KT 280V340 9999 SCT035 SCT120 BKN250
                        22/14 Q1009 TEMPO 6000 SHRA BKN015TCU=
201110081245 METAR LMML 081245Z 30015KT 270V330 9999 BKN036TCU SCT120
                        22/13 Q1010 TEMPO 6000 SHRA BKN015TCU=
201110081230 METAR LMML NIL=
201110081215 METAR LMML 081215Z 30017KT 9999 SCT035 BKN120 23/13 Q1010
                        TEMPO 6000 SHRA BKN015TCU=
201110081200 METAR LMML NIL=
201110081145 METAR LMML 081145Z 30014KT 260V330 9999 SCT036 BKN049 23/12
                        Q1010 TEMPO 6000 SHRA BKN015TCU=
201110081130 METAR LMML NIL=
201110081115 METAR LMML 081115Z 30015KT 250V330 9999 SCT032 SCT041 23/14
                        Q1011 NOSIG=
201110081100 METAR LMML NIL=
201110081045 METAR LMML 081045Z 29011KT 240V330 9999 FEW032 SCT250 24/13
                        Q1011 NOSIG=
201110081015 METAR LMML 081015Z 29012KT 300V010 9999 FEW032 SCT250 24/15
                        Q1011 NOSIG=
201110081000 METAR LMML NIL=
201110080945 METAR LMML 080945Z 28012KT 9999 FEW020 SCT250 23/14 Q1011=
201110080935 SPECI LMML 080935Z 30012KT 9999 FEW031 BKN250 23/14 Q1011
                        NOSIG=
201110080930 METAR LMML NIL=
201110080900 METAR LMML NIL=
201110080845 METAR LMML 080845Z 30013KT 270V330 9999 FEW020 SCT120 22/15
                        Q1011 TEMPO 7000 SHRA BKN015TCU=
201110080830 METAR LMML NIL=
201110080815 METAR LMML 080815Z 31014KT 9999 FEW020 BKN120 21/15 Q1011
                        TEMPO 7000 SHRA BKN015TCU=
201110080800 METAR LMML NIL=
201110080745 METAR LMML 080745Z 31012KT 9999 FEW020 BKN110 21/15 Q1011
                        TEMPO 7000 SHRA BKN015TCU=
201110080730 METAR LMML NIL=
201110080715 METAR LMML 080715Z 31011KT 9999 FEW020 BKN110 20/16 Q1011
                        TEMPO 4000 SHRA BKN015TCU=
201110080700 METAR LMML NIL=
201110080645 METAR LMML 080645Z 31016KT 9000 -SHRA SCT018TCU SCT250 19/16
                        Q1011 TEMPO 4000 SHRA BKN015TCU=
201110080630 METAR LMML NIL=
201110080615 METAR LMML 080615Z 29013KT 260V320 9999 SCT023TCU 22/15 Q1011
                        TEMPO 6000 SHRA BKN015TCU=
201110080600 METAR LMML NIL=
201110080545 METAR LMML 080545Z 27010KT 250V310 9999 SCT023 BKN250 22/17
                        Q1011 NOSIG=
201110080530 METAR LMML NIL=
201110080515 METAR LMML 080515Z 27011KT 240V300 9999 FEW020TCU BKN250
                        21/17 Q1011 NOSIG=
201110080500 METAR LMML NIL=
201110080445 METAR LMML 080445Z 27010KT 240V300 9999 FEW020 SCT250 21/16
                        Q1011 NOSIG=
201110080430 METAR LMML NIL=
201110080415 METAR LMML 080415Z 26010KT 220V300 9999 FEW020 SCT250 21/16
                        Q1011 NOSIG=
201110080400 METAR LMML NIL=
201110080345 METAR LMML 080345Z 24008KT 210V290 9999 FEW020 SCT250 21/17
                        Q1011 NOSIG=
201110080330 METAR LMML NIL=
201110080315 METAR LMML 080315Z 24008KT 190V270 9999 FEW020 21/17 Q1011
                        NOSIG=
201110080300 METAR LMML NIL=
201110080245 METAR LMML 080245Z 24007KT 210V280 9999 FEW020 21/16 Q1011
                        NOSIG=
201110080230 METAR LMML NIL=
201110080215 METAR LMML 080215Z 24007KT 200V280 9999 FEW020 21/16 Q1011
                        NOSIG=
201110080200 METAR LMML NIL=
201110080145 METAR LMML 080145Z 25007KT 220V280 9999 FEW020 21/16 Q1011
                        NOSIG=
201110080130 METAR LMML NIL=
201110080115 METAR LMML 080115Z 24008KT 200V270 9999 FEW020 21/16 Q1012
                        NOSIG=
201110080100 METAR LMML NIL=
201110080045 METAR LMML 080045Z 23007KT 200V280 9999 FEW020 21/16 Q1012
                        NOSIG=
201110080030 METAR LMML NIL=
201110080015 METAR LMML 080015Z 23007KT 200V260 CAVOK 21/16 Q1013 NOSIG=
201110080000 METAR LMML NIL=
201110072345 METAR LMML 072345Z 22008KT CAVOK 21/16 Q1013 NOSIG=
201110072330 METAR LMML NIL=
201110072315 METAR LMML 072315Z 22006KT 190V270 CAVOK 21/16 Q1013 NOSIG=
201110072300 METAR LMML NIL=
201110072245 METAR LMML 072245Z 22006KT 190V250 CAVOK 21/15 Q1014 NOSIG=
201110072230 METAR LMML NIL=
201110072215 METAR LMML 072215Z 22006KT CAVOK 21/16 Q1014 NOSIG=
201110072200 METAR LMML NIL=
201110072145 METAR LMML 072145Z 23006KT 200V270 CAVOK 21/16 Q1014 NOSIG=
201110072130 METAR LMML NIL=
201110072115 METAR LMML 072115Z 23006KT CAVOK 21/16 Q1014 NOSIG=
201110072100 METAR LMML NIL=
201110072045 METAR LMML 072045Z 22006KT 200V270 CAVOK 21/16 Q1014 NOSIG=
201110072030 METAR LMML NIL=
201110072015 METAR LMML 072015Z 23006KT 200V270 CAVOK 21/16 Q1014 NOSIG=
201110072000 METAR LMML NIL=
201110071945 METAR LMML 071945Z 23005KT 210V270 CAVOK 21/15 Q1014 NOSIG=
201110071930 METAR LMML NIL=
201110071915 METAR LMML 071915Z 23005KT 180V260 CAVOK 21/15 Q1014 NOSIG=
201110071900 METAR LMML NIL=
201110071845 METAR LMML 071845Z 23006KT CAVOK 21/15 Q1014 NOSIG=
201110071830 METAR LMML NIL=
201110071815 METAR LMML 071815Z 22005KT 200V260 CAVOK 21/15 Q1014 NOSIG=
201110071800 METAR LMML NIL=
201110071745 METAR LMML 071745Z 24005KT CAVOK 21/15 Q1014 NOSIG=
201110071730 METAR LMML NIL=
201110071715 METAR LMML 071715Z 24005KT 210V270 9999 FEW025 21/16 Q1014
                        NOSIG=
201110071700 METAR LMML NIL=
201110071645 METAR LMML 071645Z 25006KT 210V300 9999 FEW025 21/16 Q1014
                        NOSIG=
201110071630 METAR LMML NIL=
201110071615 METAR LMML 071615Z 26008KT 210V290 9999 FEW025 22/16 Q1014
                        NOSIG=
201110071600 METAR LMML NIL=
201110071545 METAR LMML 071545Z 24007KT 200V280 9999 FEW025 23/16 Q1014
                        NOSIG=
201110071530 METAR LMML NIL=
201110071515 METAR LMML 071515Z 25007KT 180V290 9999 FEW025 23/16 Q1014
                        NOSIG=
201110071500 METAR LMML NIL=
201110071445 METAR LMML 071445Z 23008KT 200V280 9999 FEW025 24/15 Q1015
                        NOSIG=
201110071430 METAR LMML NIL=
201110071415 METAR LMML 071415Z 25008KT 200V290 9999 FEW028 24/15 Q1015
                        NOSIG=
201110071400 METAR LMML NIL=
201110071345 METAR LMML 071345Z 24007KT 180V290 9999 FEW028 24/15 Q1015
                        NOSIG=
201110071330 METAR LMML NIL=
201110071315 METAR LMML 071315Z 23008KT 190V290 9999 FEW028 24/15 Q1015
                        NOSIG=
201110071300 METAR LMML NIL=
201110071245 METAR LMML 071245Z 23008KT 200V280 9999 FEW028TCU 25/15 Q1016
                        NOSIG=
201110071230 METAR LMML NIL=
201110071215 METAR LMML 071215Z 27007KT 230V300 9999 FEW028TCU 25/15 Q1016
                        NOSIG=
201110071200 METAR LMML NIL=
201110071145 METAR LMML 071145Z 24008KT 200V310 9999 FEW029 25/15 Q1017
                        NOSIG=
201110071130 METAR LMML NIL=
201110071115 METAR LMML 071115Z 24007KT 200V310 9999 FEW026 24/15 Q1017
                        NOSIG=
201110071100 METAR LMML NIL=
201110071045 METAR LMML 071045Z 23008KT 160V280 9999 FEW027 25/15 Q1017
                        NOSIG=
201110071030 METAR LMML NIL=
201110071015 METAR LMML 071015Z 27007KT 230V300 9999 FEW027 24/15 Q1018
                        NOSIG=
201110071000 METAR LMML NIL=
201110070945 METAR LMML 070945Z 23007KT 200V280 9999 FEW029 24/15 Q1018
                        NOSIG=
201110070930 METAR LMML NIL=
201110070915 METAR LMML 070915Z 23007KT 200V270 9999 FEW023 24/15 Q1018
                        NOSIG=
201110070900 METAR LMML NIL=
201110070845 METAR LMML 070845Z 24007KT 200V320 9999 FEW020TCU SCT023
                        24/16 Q1018 NOSIG=
201110070830 METAR LMML NIL=
201110070815 METAR LMML 070815Z 25007KT 200V310 9999 SCT024 23/16 Q1018
                        NOSIG RMK CB TOPS TO NE=
201110070800 METAR LMML NIL=
201110070745 METAR LMML 070745Z 23005KT 190V290 9999 FEW030 23/16 Q1018
                        NOSIG RMK CB TOPS TO NE=
201110070730 METAR LMML NIL=
201110070715 METAR LMML 070715Z 23005KT 190V270 9999 FEW030 22/16 Q1018
                        NOSIG RMK CB TOPS TO NE=
201110070700 METAR LMML NIL=
201110070645 METAR LMML 070645Z VRB01KT 9999 FEW030 20/16 Q1018 NOSIG
                        RMK CB TOP TO NE=
201110070630 METAR LMML NIL=
201110070615 METAR LMML 070615Z VRB01KT 9999 FEW030TCU 18/17 Q1017 NOSIG=
201110070600 METAR LMML NIL=
201110070545 METAR LMML 070545Z VRB02KT 9999 FEW037 SCT250 17/16 Q1017
                        NOSIG=
201110070530 METAR LMML NIL=
201110070515 METAR LMML 070515Z VRB01KT 9999 FEW037TCU SCT250 17/16 Q1017
                        BECMG FEW037=
201110070500 METAR LMML NIL=
201110070445 METAR LMML 070445Z VRB02KT 9999 FEW037TCU 18/15 Q1017 NOSIG=
201110070430 METAR LMML NIL=
201110070415 METAR LMML 070415Z 29004KT 260V320 9999 FEW037 18/16 Q1017
                        NOSIG=
201110070345 METAR LMML 070345Z 27003KT 9999 FEW037 18/15 Q1017 NOSIG=
201110070330 METAR LMML NIL=
201110070315 METAR LMML 070315Z 27003KT 9999 FEW037 SCT100 18/16 Q1017
                        NOSIG=
201110070300 METAR LMML NIL=
201110070245 METAR LMML 070245Z 26005KT 210V300 9999 RA FEW037 BKN100
                        19/17 Q1018 TEMPO 8000 SHRA BKN015TCU
                        RMK LIGHTNING TO NW=
201110070230 METAR LMML NIL=
201110070215 METAR LMML 070215Z VRB02KT 9999 -RA FEW020 BKN110 18/15 Q1018
                        TEMPO 8000 SHRA BKN015TCU=
201110070200 METAR LMML NIL=
201110070145 METAR LMML 070145Z VRB02KT 9999 FEW020 BKN110 18/15 Q1018
                        TEMPO 8000 SHRA BKN015TCU=
201110070130 METAR LMML NIL=
201110070115 METAR LMML 070115Z 30003KT 9999 FEW020 18/15 Q1018 TEMPO
                        8000 SHRA BKN015TCU=
201110070100 METAR LMML NIL=
201110070045 METAR LMML 070045Z VRB02KT 9999 FEW020 18/15 Q1018 TEMPO
                        8000 SHRA BKN015TCU RMK DISTANT LIGHTNING
                        TO SW=
201110070015 METAR LMML 070015Z VRB02KT 9999 FEW024 18/15 Q1019 TEMPO
                        8000 SHRA BKN015TCU=
201110070000 METAR LMML NIL=
201110062345 METAR LMML 062345Z VRB02KT 9999 FEW024 18/16 Q1019 TEMPO
                        8000 SHRA BKN015TCU=
201110062330 METAR LMML NIL=
201110062315 METAR LMML 062315Z VRB02KT 9999 FEW024 18/16 Q1019 TEMPO
                        8000 SHRA BKN015TCU RMK SMOKE OVER
                        AIRFIELD=
201110062300 METAR LMML NIL=
201110062245 METAR LMML 062245Z VRB01KT 9999 FEW024 18/16 Q1019 NOSIG=
201110062230 METAR LMML NIL=
201110062215 METAR LMML 062215Z VRB01KT 9999 FEW024 18/16 Q1019 NOSIG
                        RMK SMOKE OVER AIRFIELD=
201110062200 METAR LMML NIL=
201110062145 METAR LMML 062145Z VRB01KT 9999 FEW024 19/16 Q1019 NOSIG
                        RMK SMOKE OVER AIRFIELD=
201110062130 METAR LMML NIL=
201110062115 METAR LMML 062115Z 00000KT 9999 FEW024 19/16 Q1020 NOSIG=
201110062100 METAR LMML NIL=
201110062045 METAR LMML 062045Z VRB01KT 9999 FEW024 19/16 Q1020 NOSIG=
201110062030 METAR LMML NIL=
201110062015 METAR LMML 062015Z VRB01KT 9999 FEW024 19/16 Q1019 NOSIG=
201110062000 METAR LMML NIL=
201110061945 METAR LMML 061945Z VRB01KT 9999 FEW024 19/16 Q1020 NOSIG=
201110061930 METAR LMML NIL=
201110061915 METAR LMML 061915Z 00000KT 9999 FEW024 20/16 Q1020 NOSIG=
201110061900 METAR LMML NIL=
201110061845 METAR LMML 061845Z VRB01KT 9999 FEW024 20/16 Q1020 NOSIG=
201110061830 METAR LMML NIL=
201110061815 METAR LMML 061815Z VRB01KT 9999 FEW024 SCT100 21/16 Q1019
                        NOSIG=
201110061800 METAR LMML NIL=
201110061745 METAR LMML 061745Z VRB01KT 9999 FEW024 SCT100 21/16 Q1019
                        NOSIG=
201110061730 METAR LMML NIL=
201110061715 METAR LMML 061715Z VRB01KT 9999 FEW024 SCT100 21/16 Q1019
                        NOSIG=
201110061700 METAR LMML NIL=
201110061645 METAR LMML 061645Z 19003KT 9999 FEW024 SCT250 22/16 Q1019
                        NOSIG=
201110061630 METAR LMML NIL=
201110061615 METAR LMML 061615Z 22003KT 9999 FEW024 SCT250 22/17 Q1019
                        NOSIG=
201110061600 METAR LMML NIL=
201110061545 METAR LMML 061545Z VRB02KT 9999 FEW022 BKN250 22/15 Q1019
                        NOSIG=
201110061530 METAR LMML NIL=
201110061515 METAR LMML 061515Z 33003KT 9999 FEW023TCU BKN250 22/14 Q1019
                        NOSIG=
201110061500 METAR LMML NIL=
201110061445 METAR LMML 061445Z 35004KT 300V130 9999 SCT027TCU SCT250
                        22/14 Q1019 TEMPO 8000 SHRA BKN020TCU=
201110061430 METAR LMML NIL=
201110061415 METAR LMML 061415Z 18005KT 070V230 9000 SCT028TCU BKN250
                        23/15 Q1019 BECMG 9999=
201110061400 METAR LMML NIL=
201110061345 METAR LMML 061345Z 17005KT 130V210 9999 SCT028 BKN250 23/15
                        Q1019 TEMPO 8000 SHRA BKN020TCU=
201110061315 METAR LMML 061315Z 16005KT 120V220 9999 SCT028 BKN250 25/15
                        Q1019 NOSIG=
201110061245 METAR LMML 061245Z VRB02KT 9999 FEW029TCU BKN250 23/15 Q1020
                        NOSIG=
201110061230 METAR LMML NIL=
201110061215 METAR LMML 061215Z 27003KT 9999 SCT029TCU BKN250 23/14 Q1020
                        TEMPO 8000 SHRA BKN020TCU=
201110061200 METAR LMML NIL=
201110061145 METAR LMML 061145Z 30004KT 9999 SCT029TCU SCT250 24/13 Q1020
                        TEMPO 8000 SHRA BKN020TCU=
201110061130 METAR LMML NIL=
201110061115 METAR LMML 061115Z 14007KT 090V220 9999 FEW027TCU SCT250
                        25/15 Q1020 TEMPO 8000 SHRA BKN020TCU=
201110061100 METAR LMML NIL=
201110061045 METAR LMML 061045Z 14006KT 060V210 9999 FEW027TCU SCT250
                        24/16 Q1021 TEMPO 8000 SHRA BKN020TCU=
201110061030 METAR LMML NIL=
201110061015 METAR LMML 061015Z 16006KT 100V220 9999 SCT029 SCT033 BKN040
                        25/16 Q1021=
201110060945 METAR LMML 060945Z 16006KT 120V220 9999 SCT026 24/15 Q1021
                        NOSIG=
201110060930 METAR LMML NIL=
201110060915 METAR LMML 060915Z 13005KT 100V180 9999 SCT027 24/16 Q1021
                        NOSIG=
201110060900 METAR LMML NIL=
201110060845 METAR LMML 060845Z 15004KT 070V220 9999 SCT024 24/16 Q1021
                        NOSIG=
201110060830 METAR LMML NIL=
201110060815 METAR LMML 060815Z 09004KT 030V140 9999 FEW023 24/16 Q1021
                        NOSIG=
201110060800 METAR LMML NIL=
201110060745 METAR LMML 060745Z 15004KT 100V190 9999 FEW022 23/16 Q1021
                        NOSIG=
201110060730 METAR LMML NIL=
201110060715 METAR LMML 060715Z VRB02KT 9999 FEW025 23/16 Q1021 NOSIG=
201110060700 METAR LMML NIL=
201110060645 METAR LMML 060645Z VRB01KT 8000 FEW020 21/16 Q1021 BECMG
                        9999 RMK SMOKE TO NORTH=
201110060615 METAR LMML 060615Z VRB01KT 8000 FEW018 20/16 Q1021 BECMG
                        9999 RMK SMOKE TO NORTH=
201110060600 METAR LMML NIL=
201110060545 METAR LMML 060545Z VRB01KT 8000 FEW018 18/15 Q1020 BECMG
                        9999=
201110060530 METAR LMML NIL=
201110060515 METAR LMML 060515Z VRB01KT 9000 FEW018 17/15 Q1020 NOSIG
                        RMK CB TOP TO E AND S=
201110060500 METAR LMML NIL=
201110060445 METAR LMML 060445Z 00000KT 9000 FEW018 17/15 Q1020 NOSIG
                        RMK CB TOP TO NE=
201110060430 METAR LMML NIL=
201110060415 METAR LMML 060415Z 00000KT 9000 FEW018 17/15 Q1020 NOSIG=
201110060400 METAR LMML NIL=
201110060345 METAR LMML 060345Z 00000KT CAVOK 17/15 Q1020 NOSIG=
201110060330 METAR LMML NIL=
201110060315 METAR LMML 060315Z VRB01KT CAVOK 17/15 Q1020 NOSIG=
201110060300 METAR LMML NIL=
201110060245 METAR LMML 060245Z VRB01KT CAVOK 17/15 Q1020 NOSIG=
201110060230 METAR LMML NIL=
201110060215 METAR LMML 060215Z VRB02KT CAVOK 17/15 Q1020 NOSIG=
201110060200 METAR LMML NIL=
201110060145 METAR LMML 060145Z VRB01KT CAVOK 18/15 Q1020 NOSIG=
201110060130 METAR LMML NIL=
201110060115 METAR LMML 060115Z VRB02KT CAVOK 18/15 Q1020 NOSIG=
201110060100 METAR LMML NIL=
201110060045 METAR LMML 060045Z VRB01KT CAVOK 18/15 Q1020 NOSIG=
201110060030 METAR LMML NIL=
201110060015 METAR LMML 060015Z VRB02KT CAVOK 18/15 Q1021 NOSIG=
201110052345 METAR LMML 052345Z 28003KT CAVOK 18/15 Q1021 NOSIG=
201110052330 METAR LMML NIL=
201110052315 METAR LMML 052315Z VRB02KT CAVOK 18/15 Q1021 NOSIG=
201110052300 METAR LMML NIL=
201110052245 METAR LMML 052245Z VRB02KT CAVOK 18/15 Q1021 NOSIG=
201110052230 METAR LMML NIL=
201110052215 METAR LMML 052215Z 30003KT CAVOK 19/15 Q1021 NOSIG=
201110052200 METAR LMML NIL=
201110052145 METAR LMML 052145Z VRB02KT CAVOK 19/15 Q1021 NOSIG=
201110052130 METAR LMML NIL=
201110052115 METAR LMML 052115Z VRB02KT CAVOK 19/15 Q1021 NOSIG=
201110052100 METAR LMML NIL=
201110052045 METAR LMML 052045Z VRB02KT CAVOK 19/15 Q1021 NOSIG=
201110052030 METAR LMML NIL=
201110052015 METAR LMML 052015Z 30003KT CAVOK 19/15 Q1021 NOSIG=
201110052000 METAR LMML NIL=
201110051945 METAR LMML 051945Z 28003KT CAVOK 19/15 Q1021 NOSIG=
201110051930 METAR LMML NIL=
201110051915 METAR LMML 051915Z 28003KT CAVOK 20/15 Q1021 NOSIG=
201110051900 METAR LMML NIL=
201110051845 METAR LMML 051845Z 26003KT CAVOK 20/14 Q1021 NOSIG=
201110051830 METAR LMML NIL=
201110051815 METAR LMML 051815Z VRB02KT CAVOK 20/15 Q1021 NOSIG=
201110051800 METAR LMML NIL=
201110051745 METAR LMML 051745Z VRB02KT 9999 FEW030 21/15 Q1020 NOSIG=
201110051730 METAR LMML NIL=
201110051715 METAR LMML 051715Z VRB02KT 9999 FEW030 21/15 Q1020 NOSIG=
201110051700 METAR LMML NIL=
201110051645 METAR LMML 051645Z 26003KT 9999 FEW030 22/15 Q1020 NOSIG=
201110051630 METAR LMML NIL=
201110051615 METAR LMML 051615Z 28003KT 9999 FEW030 22/14 Q1020 NOSIG=
201110051600 METAR LMML NIL=
201110051545 METAR LMML 051545Z 29004KT 240V320 9999 FEW030 23/14 Q1020
                        NOSIG=
201110051530 METAR LMML NIL=
201110051515 METAR LMML 051515Z VRB02KT 9999 FEW030 23/14 Q1020 NOSIG=
201110051500 METAR LMML NIL=
201110051445 METAR LMML 051445Z VRB02KT 9999 SCT030 23/14 Q1020 NOSIG=
201110051430 METAR LMML NIL=
201110051415 METAR LMML 051415Z 28004KT 220V330 9999 BKN025 22/13 Q1020
                        TEMPO 8000 SHRA BKN020TCU=
201110051400 METAR LMML NIL=
201110051345 METAR LMML 051345Z 25005KT 200V300 9999 BKN024 22/15 Q1020
                        NOSIG=
201110051330 METAR LMML NIL=
201110051315 METAR LMML 051315Z 13004KT 060V210 9999 SCT036 24/14 Q1020
                        NOSIG=
201110051300 METAR LMML NIL=
201110051245 METAR LMML 051245Z 13006KT 080V180 9999 SCT034 25/15 Q1020
                        NOSIG=
201110051215 METAR LMML 051215Z 35006KT 9999 SCT035 25/15 Q1020 NOSIG=
201110051200 METAR LMML NIL=
201110051145 METAR LMML 051145Z 23005KT 9999 SCT037 25/14 Q1020 NOSIG=
201110051115 METAR LMML 051115Z 13005KT 070V190 9999 SCT033 25/14 Q1021
                        NOSIG=
201110051100 METAR LMML NIL=
201110051045 METAR LMML 051045Z 10005KT 030V140 9999 SCT030 24/15 Q1021
                        NOSIG=
201110051030 METAR LMML NIL=
201110051015 METAR LMML 051015Z 09006KT 040V130 9999 SCT034 24/14 Q1021
                        NOSIG=
201110051000 METAR LMML NIL=
201110050945 METAR LMML 050945Z 09006KT 020V190 9999 FEW030 24/14 Q1021
                        NOSIG=
201110050930 METAR LMML NIL=
201110050915 METAR LMML 050915Z 06004KT 330V150 9999 FEW020 25/14 Q1021
                        NOSIG=
201110050845 METAR LMML 050845Z 07005KT 020V140 9999 FEW020 25/14 Q1021
                        NOSIG=
201110050815 METAR LMML 050815Z 12004KT 9999 FEW020 24/15 Q1021 NOSIG=
201110050800 METAR LMML NIL=
201110050745 METAR LMML 050745Z 02004KT 340V050 CAVOK 24/15 Q1021 NOSIG=
201110050730 METAR LMML NIL=
201110050715 METAR LMML 050715Z 02003KT CAVOK 23/15 Q1021 NOSIG=
201110050700 METAR LMML NIL=
201110050645 METAR LMML 050645Z VRB02KT CAVOK 22/15 Q1021 NOSIG=
201110050630 METAR LMML NIL=
201110050615 METAR LMML 050615Z VRB02KT 9999 FEW020 20/16 Q1020 NOSIG=
201110050600 METAR LMML NIL=
201110050545 METAR LMML 050545Z VRB02KT 9999 FEW020 18/15 Q1020 NOSIG=
201110050530 METAR LMML NIL=
201110050515 METAR LMML 050515Z VRB02KT 9999 FEW020 17/15 Q1020 NOSIG=
201110050500 METAR LMML NIL=
201110050445 METAR LMML 050445Z 30003KT 9999 FEW018 18/15 Q1020 NOSIG=
201110050430 METAR LMML NIL=
201110050415 METAR LMML 050415Z 31003KT 9999 FEW018 18/15 Q1020 NOSIG=
201110050400 METAR LMML NIL=
201110050345 METAR LMML 050345Z 29003KT 9999 FEW018 17/15 Q1020 NOSIG=
201110050330 METAR LMML NIL=
201110050315 METAR LMML 050315Z 30003KT 9999 FEW018 18/15 Q1019 NOSIG=
201110050300 METAR LMML NIL=
201110050245 METAR LMML 050245Z 30004KT 9999 FEW018 18/15 Q1019 NOSIG=
201110050230 METAR LMML NIL=
201110050215 METAR LMML 050215Z 30003KT 9999 FEW018 18/15 Q1020 NOSIG=
201110050200 METAR LMML NIL=
201110050145 METAR LMML 050145Z VRB02KT 9999 FEW018 17/15 Q1020 NOSIG=
201110050130 METAR LMML NIL=
201110050115 METAR LMML 050115Z 30003KT 9999 FEW018 17/14 Q1020 NOSIG=
201110050100 METAR LMML NIL=
201110050045 METAR LMML 050045Z VRB02KT 9999 FEW018 17/14 Q1020 NOSIG=
201110050030 METAR LMML NIL=
201110050015 METAR LMML 050015Z VRB01KT 9999 FEW018 17/14 Q1020 NOSIG=
201110050000 METAR LMML NIL=
201110042345 METAR LMML 042345Z VRB01KT 9999 FEW018 18/14 Q1021 NOSIG=
201110042330 METAR LMML NIL=
201110042315 METAR LMML 042315Z VRB02KT 9999 FEW018 18/14 Q1021 NOSIG=
201110042300 METAR LMML NIL=
201110042245 METAR LMML 042245Z VRB01KT 9999 FEW018 18/14 Q1021 NOSIG=
201110042230 METAR LMML NIL=
201110042215 METAR LMML 042215Z VRB01KT 9999 FEW020 18/14 Q1021 NOSIG=
201110042200 METAR LMML NIL=
201110042145 METAR LMML 042145Z VRB01KT 9999 FEW020 18/14 Q1021 NOSIG=
201110042130 METAR LMML NIL=
201110042115 METAR LMML 042115Z VRB01KT 9999 FEW020 19/14 Q1021 NOSIG=
201110042100 METAR LMML NIL=
201110042045 METAR LMML 042045Z VRB01KT 9999 FEW020 19/14 Q1021 NOSIG=
201110042030 METAR LMML NIL=
201110042015 METAR LMML 042015Z VRB02KT 9999 FEW020 19/14 Q1021 NOSIG=
201110042000 METAR LMML NIL=
201110041945 METAR LMML 041945Z VRB01KT 9999 FEW025 20/14 Q1021 NOSIG=
201110041930 METAR LMML NIL=
201110041915 METAR LMML 041915Z VRB02KT 9999 FEW025 21/13 Q1021 NOSIG=
201110041900 METAR LMML NIL=
201110041845 METAR LMML 041845Z VRB02KT 9999 FEW025 SCT250 20/13 Q1021
                        NOSIG=
201110041830 METAR LMML NIL=
201110041815 METAR LMML 041815Z 07003KT 9999 FEW025 21/13 Q1021 TEMPO
                        5000 SHRA BKN018TCU=
201110041800 METAR LMML NIL=
201110041745 METAR LMML 041745Z 05003KT 9999 FEW025 21/14 Q1021 NOSIG=
201110041730 METAR LMML NIL=
201110041715 METAR LMML 041715Z 03004KT 9999 FEW025 21/15 Q1020 NOSIG=
201110041700 METAR LMML NIL=
201110041645 METAR LMML 041645Z 04004KT 010V080 9999 FEW025 SCT250 22/15
                        Q1020 NOSIG RMK CB TOPS TO S AND
                        SW=
201110041630 METAR LMML NIL=
201110041615 METAR LMML 041615Z 05004KT 260V110 9999 FEW025 SCT250 23/15
                        Q1020 NOSIG RMK CB TOPS TO S AND
                        SW=
201110041545 METAR LMML 041545Z 02004KT 350V060 9999 FEW025 SCT100 24/15
                        Q1020 NOSIG=
201110041530 METAR LMML NIL=
201110041515 METAR LMML 041515Z 03006KT 350V120 9999 FEW000 24/16 Q1020
                        NOSIG=
201110041500 METAR LMML NIL=
201110041445 METAR LMML 041445Z 04005KT 010V090 9999 FEW025 24/16 Q1020
                        NOSIG=
201110041430 METAR LMML NIL=
201110041415 METAR LMML 041415Z 04006KT 360V070 9999 FEW025 24/16 Q1020
                        NOSIG=
201110041400 METAR LMML NIL=
201110041345 METAR LMML 041345Z 03007KT 260V090 9999 FEW025 SCT250 25/16
                        Q1020 NOSIG=
201110041330 METAR LMML NIL=
201110041315 METAR LMML 041315Z 02006KT 350V070 9999 FEW025 BKN100 25/15
                        Q1021 TEMPO 8000 SHRA BKN015TCU=
201110041300 METAR LMML NIL=
201110041245 METAR LMML 041245Z 03007KT 350V070 9999 FEW025 BKN100 25/14
                        Q1021 TEMPO 8000 SHRA BKN015TCU=
201110041230 METAR LMML NIL=
201110041215 METAR LMML 041215Z 03007KT 350V080 9999 FEW025 25/13 Q1021
                        TEMPO 8000 SHRA BKN015TCU=
201110041200 METAR LMML NIL=
201110041145 METAR LMML 041145Z 03006KT 350V100 CAVOK 25/12 Q1021 TEMPO
                        8000 SHRA BKN015TCU=
201110041130 METAR LMML NIL=
201110041115 METAR LMML 041115Z 03005KT 350V070 CAVOK 25/13 Q1021 TEMPO
                        8000 SHRA BKN015TCU=
201110041100 METAR LMML NIL=
201110041045 METAR LMML 041045Z 35004KT 290V050 9999 FEW025 SCT110 24/15
                        Q1022 TEMPO 8000 SHRA BKN015TCU=
201110041030 METAR LMML NIL=
201110041015 METAR LMML 041015Z 33003KT 9999 FEW025 SCT080 BKN100 22/13
                        Q1022 TEMPO 8000 SHRA BKN015TCU=
201110041000 METAR LMML NIL=
201110040945 METAR LMML 040945Z VRB02KT 9999 FEW025 BKN090 20/14 Q1022
                        TEMPO 8000 SHRA BKN015TCU=
201110040930 METAR LMML NIL=
201110040915 METAR LMML 040915Z 31003KT 9999 FEW025 BKN090 20/16 Q1022
                        TEMPO 5000 TSRA BKN015CB=
201110040900 METAR LMML NIL=
201110040845 METAR LMML 040845Z 32003KT 6000 -RA FEW025 BKN090 19/16 Q1022
                        RETS TEMPO 5000 TSRA BKN015CB=
201110040830 METAR LMML NIL=
201110040815 METAR LMML 040815Z VRB02KT 6000 -RA SCT025TCU BKN900 18/15
                        Q1023 RETS TEMPO 5000 TSRA BKN015CB=
201110040800 METAR LMML NIL=
201110040745 METAR LMML 040745Z 08012KT 040V110 6000 -TSRA BKN025CB 18/15
                        Q1023 TEMPO 5000 TSRA BKN015CB=
201110040730 METAR LMML NIL=
201110040715 METAR LMML 040715Z 06004G15KT 020V090 9999 TS SCT017CB SCT028
                        BKN250 22/15 Q1022 TEMPO 5000 TSRA
                        BKN015CB=
201110040705 SPECI LMML 040705Z 06003KT 9999 TS SCT025CB SCT250 22/15
                        Q1022 TEMPO 5000 TSRA BKN015CB=
201110040700 METAR LMML NIL=
201110040645 METAR LMML 040645Z VRB02KT 9999 FEW028TCU 22/15 Q1022 TEMPO
                        5000 TSRA BKN015CB=
201110040630 METAR LMML NIL=
201110040615 METAR LMML 040615Z VRB02KT 9999 FEW028TCU 20/15 Q1021 TEMPO
                        5000 TSRA BKN015CB=
201110040600 METAR LMML NIL=
201110040545 METAR LMML 040545Z VRB01KT 9999 FEW028TCU 19/15 Q1021 NOSIG=
201110040530 METAR LMML NIL=
201110040515 METAR LMML 040515Z 00000KT 9999 FEW028TCU 19/15 Q1021 NOSIG=
201110040445 METAR LMML 040445Z VRB02KT 9999 FEW028 19/14 Q1021 NOSIG
                        RMK CB TOPS TO E - SE=
201110040430 METAR LMML NIL=
201110040415 METAR LMML 040415Z 08003KT 9999 FEW028 20/15 Q1021 NOSIG=
201110040400 METAR LMML NIL=
201110040345 METAR LMML 040345Z 06003KT 9999 FEW028 20/15 Q1021 NOSIG=
201110040330 METAR LMML NIL=
201110040315 METAR LMML 040315Z 06003KT 9999 FEW028 21/15 Q1021 NOSIG=
201110040300 METAR LMML NIL=
201110040245 METAR LMML 040245Z 06003KT 9999 FEW029 21/16 Q1020 LIGHTNING
                        TO E AND S=
201110040230 METAR LMML NIL=
201110040215 METAR LMML 040215Z 03003KT 9999 FEW029 21/16 Q1021 NOSIG
                        RMK LIGHTNING TO S=
201110040200 METAR LMML NIL=
201110040145 METAR LMML 040145Z 04004KT 010V070 9999 FEW020 21/16 Q1021
                        NOSIG RMK LIGHTNING TO S=
201110040130 METAR LMML NIL=
201110040115 METAR LMML 040115Z 04004KT 010V070 9999 FEW020 21/16 Q1021
                        NOSIG RMK LIGHTNING TO S=
201110040100 METAR LMML NIL=
201110040045 METAR LMML 040045Z 04004KT 360V080 9999 FEW020 21/16 Q1021
                        NOSIG RMK LIGHTNING TO S=
201110040030 METAR LMML NIL=
201110040015 METAR LMML 040015Z 03005KT 360V060 9999 SCT020 22/18 Q1021
                        NOSIG=
201110040000 METAR LMML NIL=
201110032345 METAR LMML 032345Z 03008KT 360V060 9999 SCT020 22/18 Q1021
                        NOSIG=
201110032330 METAR LMML NIL=
201110032315 METAR LMML 032315Z 02007KT 340V070 9999 SCT020 22/17 Q1021
                        NOSIG=
201110032245 METAR LMML 032245Z 02005KT 9999 FEW022 22/17 Q1021 NOSIG=
201110032230 METAR LMML NIL=
201110032215 METAR LMML 032215Z 02005KT 9999 FEW030 22/16 Q1021 NOSIG=
201110032145 METAR LMML 032145Z 01007KT 9999 FEW030 22/16 Q1021 NOSIG=
201110032115 METAR LMML 032115Z 01005KT 340V050 9999 FEW025 22/15 Q1022
                        NOSIG=
201110032100 METAR LMML NIL=
201110032045 METAR LMML 032045Z 03005KT 9999 FEW030 22/15 Q1022 NOSIG
                        RMK LIGHTNING TO S=
201110032030 METAR LMML NIL=
201110032015 METAR LMML 032015Z 04005KT 360V080 9999 FEW030 SCT120 22/15
                        Q1022 NOSIG=
201110032000 METAR LMML NIL=
201110031945 METAR LMML 031945Z 02004KT 9999 FEW033 22/15 Q1022 NOSIG=
201110031915 METAR LMML 031915Z 02005KT 360V080 9999 FEW025 22/15 Q1022
                        NOSIG=
201110031845 METAR LMML 031845Z 03007KT 360V060 9999 FEW025TCU 22/16 Q1021
                        NOSIG=
201110031830 METAR LMML NIL=
201110031815 METAR LMML 031815Z 03006KT 9999 SCT025TCU 23/17 Q1021 NOSIG=
201110031800 METAR LMML NIL=
201110031745 METAR LMML 031745Z 03006KT 360V060 9999 SCT026TCU 23/17 Q1021
                        NOSIG=
201110031730 METAR LMML NIL=
201110031715 METAR LMML 031715Z 03005KT 350V080 9999 TS FEW025CB 23/16
                        Q1021 TEMPO 3000 TSRA BKN015CB=
201110031645 METAR LMML 031645Z 02005KT 350V050 9999 TS FEW026CB 23/16
                        Q1020 TEMPO 3000 TSRA BKN015CB=
201110031630 METAR LMML NIL=
201110031615 METAR LMML 031615Z 02005KT 330V060 9999 TS FEW026CB 23/17
                        Q1020 TEMPO 3000 TSRA BKN015CB=
201110031545 METAR LMML 031545Z 03007KT 360V070 9999 FEW027 24/16 Q1020
                        NOSIG=
201110031530 METAR LMML NIL=
201110031515 METAR LMML 031515Z 04007KT 360V070 9999 FEW025 24/17 Q1020
                        TEMPO SHRA BKN015=
201110031445 METAR LMML 031445Z 03007KT 340V060 9999 FEW029TCU 25/16 Q1020
                        TEMPO SHRA BKN015=
201110031430 METAR LMML NIL=
201110031415 METAR LMML 031415Z 02006KT 350V050 9999 FEW025TCU 26/15 Q1020
                        NOSIG=
201110031400 METAR LMML NIL=
201110031345 METAR LMML 031345Z 02007KT 360V070 9999 FEW020TCU 26/15 Q1020
                        NOSIG=
201110031330 METAR LMML NIL=
201110031315 METAR LMML 031315Z 02007KT 340V070 9999 FEW020TCU 27/14 Q1020
                        TEMPO 5000 SHRA BKN015TCU RMK CB
                        TOP TO W=
201110031245 METAR LMML 031245Z 05007KT 350V100 9999 FEW020TCU 26/14 Q1020
                        TEMPO 5000 SHRA BKN015TCU RMK CB
                        TOPS TO N AND NW=
201110031230 METAR LMML NIL=
201110031215 METAR LMML 031215Z 03008KT 360V100 9999 FEW020CB 27/14 Q1020
                        TEMPO 5000 SHRA BKN015TCU RMK CB
                        TOPS TO NW AND W=
201110031145 METAR LMML 031145Z 08008KT 020V120 9999 FEW025TCU 26/15 Q1020
                        TEMPO 5000 SHRA BKN015TCU RMK CB
                        TO NORTHWEST=
201110031130 METAR LMML NIL=
201110031115 METAR LMML 031115Z 07008KT 020V100 9999 SCT025TCU 26/15 Q1021
                        TEMPO 5000 SHRA BKN015TCU=
201110031045 METAR LMML 031045Z 09008KT 040V120 9999 SCT023TCU 24/16 Q1021
                        TEMPO 5000 SHRA BKN015TCU RMK CB
                        TO NORTH=
201110031030 METAR LMML NIL=
201110031015 METAR LMML 031015Z 04010KT 010V080 9999 SCT025 26/17 Q1021
                        NOSIG=
201110031000 METAR LMML NIL=
201110030945 METAR LMML 030945Z 05010KT 350V090 9999 SCT026 25/17 Q1021
                        NOSIG=
201110030930 METAR LMML NIL=
201110030915 METAR LMML 030915Z 03010KT 360V060 9999 FEW025 25/17 Q1021
                        NOSIG=
201110030900 METAR LMML NIL=
201110030845 METAR LMML 030845Z 04010KT 360V080 9999 FEW025 26/17 Q1021
                        NOSIG=
201110030830 METAR LMML NIL=
201110030815 METAR LMML 030815Z 04008KT 360V090 9999 FEW025 25/16 Q1021
                        NOSIG=
201110030800 METAR LMML NIL=
201110030745 METAR LMML 030745Z 06010KT 020V090 9999 FEW025 25/16 Q1020
                        NOSIG=
201110030730 METAR LMML NIL=
201110030715 METAR LMML 030715Z 04008KT 360V080 9999 FEW025 24/16 Q1020
                        NOSIG=
201110030645 METAR LMML 030645Z 05006KT 020V090 9999 FEW025 24/16 Q1020
                        NOSIG=
201110030630 METAR LMML NIL=
201110030615 METAR LMML 030615Z 04005KT 020V080 9999 FEW025 23/17 Q1020
                        NOSIG=
201110030600 METAR LMML NIL=
201110030545 METAR LMML 030545Z 04004KT 9999 FEW025 21/17 Q1020 NOSIG
                        RMK CB TOP TO SE=
201110030530 METAR LMML NIL=
201110030515 METAR LMML 030515Z 04005KT 9999 FEW025 21/17 Q1020 NOSIG=
201110030445 METAR LMML 030445Z 02003KT 9999 FEW025 20/17 Q1020 NOSIG=
201110030430 METAR LMML NIL=
201110030415 METAR LMML 030415Z 01003KT 9999 FEW025 20/17 Q1020 NOSIG=
201110030345 METAR LMML 030345Z 36004KT 9999 FEW030 19/17 Q1019 NOSIG=
201110030330 METAR LMML NIL=
201110030315 METAR LMML 030315Z 33003KT 9999 FEW030 19/16 Q1019 NOSIG=
201110030245 METAR LMML 030245Z 32004KT CAVOK 19/16 Q1019 NOSIG=
201110030230 METAR LMML NIL=
201110030215 METAR LMML 030215Z 32003KT CAVOK 19/16 Q1019 NOSIG=
201110030145 METAR LMML 030145Z 33003KT CAVOK 19/15 Q1019 NOSIG=
201110030130 METAR LMML NIL=
201110030115 METAR LMML 030115Z 31004KT CAVOK 19/15 Q1019 NOSIG=
201110030100 METAR LMML NIL=
201110030045 METAR LMML 030045Z 31004KT CAVOK 19/15 Q1019 NOSIG=
201110030030 METAR LMML NIL=
201110030015 METAR LMML 030015Z 30003KT CAVOK 20/15 Q1020 NOSIG=
201110030000 METAR LMML NIL=
201110022345 METAR LMML 022345Z VRB02KT CAVOK 19/15 Q1020 NOSIG=
201110022330 METAR LMML NIL=
201110022315 METAR LMML 022315Z VRB02KT CAVOK 19/15 Q1020 NOSIG=
201110022245 METAR LMML 022245Z VRB01KT CAVOK 19/15 Q1020 NOSIG=
201110022230 METAR LMML NIL=
201110022215 METAR LMML 022215Z 32003KT CAVOK 20/15 Q1020 NOSIG=
201110022145 METAR LMML 022145Z VRB02KT CAVOK 20/15 Q1020 NOSIG=
201110022130 METAR LMML NIL=
201110022115 METAR LMML 022115Z VRB01KT CAVOK 20/15 Q1020 NOSIG=
201110022045 METAR LMML 022045Z VRB02KT CAVOK 21/15 Q1020 NOSIG=
201110022015 METAR LMML 022015Z 03003KT CAVOK 21/15 Q1020 NOSIG=
201110021945 METAR LMML 021945Z 04003KT CAVOK 22/15 Q1020 NOSIG=
201110021915 METAR LMML 021915Z 04004KT CAVOK 22/15 Q1020 NOSIG=
201110021845 METAR LMML 021845Z 04004KT 340V110 CAVOK 22/16 Q1020 NOSIG=
201110021815 METAR LMML 021815Z 05004KT 010V080 9999 FEW025 22/16 Q1019
                        NOSIG=
201110021745 METAR LMML 021745Z 03003KT 9999 FEW025 22/16 Q1019 NOSIG=
201110021715 METAR LMML 021715Z 04005KT 9999 FEW025 23/16 Q1019 NOSIG=
201110021645 METAR LMML 021645Z 04005KT 360V080 9999 FEW025 23/16 Q1019
                        NOSIG=
201110021630 METAR LMML NIL=
201110021615 METAR LMML 021615Z 02005KT 340V070 9999 FEW025 23/16 Q1019
                        NOSIG=
201110021545 METAR LMML 021545Z 04006KT 360V100 9999 FEW025 24/15 Q1019
                        NOSIG=
201110021530 METAR LMML NIL=
201110021515 METAR LMML 021515Z 03006KT 340V070 9999 FEW025 SCT250 26/15
                        Q1019 NOSIG=
201110021500 METAR LMML NIL=
201110021445 METAR LMML 021445Z 03008KT 350V050 9999 FEW025 26/14 Q1019
                        NOSIG=
201110021430 METAR LMML NIL=
201110021415 METAR LMML 021415Z 01007KT 350V050 9999 FEW025 26/16 Q1019
                        NOSIG=
201110021400 METAR LMML NIL=
201110021345 METAR LMML 021345Z 02007KT 340V040 9999 FEW025 26/17 Q1019
                        NOSIG RMK CB TOP TO NE=
201110021330 METAR LMML NIL=
201110021315 METAR LMML 021315Z 02007KT 350V060 9999 FEW025 26/17 Q1019
                        NOSIG RMK CB TOP TO NE=
201110021245 METAR LMML 021245Z 03008KT 350V080 9999 FEW025 26/17 Q1019
                        NOSIG RMK CB TOP TO NORTH=
201110021230 METAR LMML NIL=
201110021215 METAR LMML 021215Z 04008KT 360V070 9999 FEW028 26/17 Q1019
                        NOSIG=
201110021145 METAR LMML 021145Z 03008KT 360V070 9999 FEW028 26/16 Q1020
                        NOSIG=
201110021130 METAR LMML NIL=
201110021115 METAR LMML 021115Z 02007KT 330V080 9999 FEW028 26/15 Q1020
                        NOSIG=
201110021045 METAR LMML 021045Z 03008KT 340V090 9999 FEW028 26/16 Q1021
                        NOSIG=
201110021030 METAR LMML NIL=
201110021015 METAR LMML 021015Z 03005KT 340V090 9999 FEW028 26/16 Q1021
                        NOSIG=
201110021000 METAR LMML NIL=
201110020945 METAR LMML 020945Z 02007KT 350V090 9999 FEW028 26/15 Q1021
                        NOSIG=
201110020930 METAR LMML NIL=
201110020915 METAR LMML 020915Z 04006KT 360V080 9999 FEW027 26/15 Q1021
                        NOSIG=
201110020900 METAR LMML NIL=
201110020845 METAR LMML 020845Z 01006KT 330V060 9999 FEW027 25/16 Q1021
                        NOSIG=
201110020830 METAR LMML NIL=
201110020815 METAR LMML 020815Z 01006KT 330V070 9999 FEW026 25/16 Q1021
                        NOSIG=
201110020800 METAR LMML NIL=
201110020745 METAR LMML 020745Z 01005KT 330V060 9999 FEW024 25/16 Q1021
                        NOSIG=
201110020730 METAR LMML NIL=
201110020715 METAR LMML 020715Z 36006KT 340V040 9999 FEW024 24/17 Q1021
                        NOSIG=
201110020700 METAR LMML NIL=
201110020645 METAR LMML 020645Z 32003KT 9999 FEW020 22/18 Q1021 NOSIG=
201110020630 METAR LMML NIL=
201110020615 METAR LMML 020615Z 31003KT 9999 FEW020 21/18 Q1020 NOSIG=
201110020600 METAR LMML NIL=
201110020545 METAR LMML 020545Z 30003KT 9999 FEW018 19/17 Q1020 NOSIG=
201110020515 METAR LMML 020515Z 31003KT 9999 FEW018 19/17 Q1020 NOSIG=
201110020445 METAR LMML 020445Z 31004KT 9999 FEW020 19/16 Q1020 NOSIG=
201110020430 METAR LMML NIL=
201110020415 METAR LMML 020415Z 31004KT 9999 FEW020 19/16 Q1020 NOSIG=
201110020400 METAR LMML NIL=
201110020345 METAR LMML 020345Z 31003KT CAVOK 19/16 Q1020 NOSIG=
201110020330 METAR LMML NIL=
201110020315 METAR LMML 020315Z 30003KT CAVOK 19/16 Q1020 NOSIG=
201110020300 METAR LMML NIL=
201110020245 METAR LMML 020245Z 31003KT CAVOK 19/16 Q1020 NOSIG=
201110020230 METAR LMML NIL=
201110020215 METAR LMML 020215Z 32003KT CAVOK 19/16 Q1020 NOSIG=
201110020200 METAR LMML NIL=
201110020145 METAR LMML 020145Z 32004KT CAVOK 19/16 Q1020 NOSIG=
201110020130 METAR LMML NIL=
201110020115 METAR LMML 020115Z 33004KT 300V020 CAVOK 19/16 Q1020 NOSIG=
201110020100 METAR LMML NIL=
201110020045 METAR LMML 020045Z 32003KT CAVOK 19/16 Q1021 NOSIG=
201110020030 METAR LMML NIL=
201110020015 METAR LMML 020015Z VRB01KT CAVOK 19/16 Q1021 NOSIG=
201110012345 METAR LMML 012345Z VRB02KT CAVOK 20/16 Q1021 NOSIG=
201110012330 METAR LMML NIL=
201110012315 METAR LMML 012315Z 34003KT CAVOK 20/16 Q1021 NOSIG=
201110012245 METAR LMML 012245Z 34003KT CAVOK 20/16 Q1022 NOSIG=
201110012230 METAR LMML NIL=
201110012215 METAR LMML 012215Z VRB02KT CAVOK 20/16 Q1022 NOSIG=
201110012200 METAR LMML NIL=
201110012145 METAR LMML 012145Z VRB02KT CAVOK 20/16 Q1022 NOSIG=
201110012130 METAR LMML NIL=
201110012115 METAR LMML 012115Z VRB02KT CAVOK 21/16 Q1022 NOSIG=
201110012045 METAR LMML 012045Z 04003KT CAVOK 22/16 Q1022 NOSIG=
201110012030 METAR LMML NIL=
201110012015 METAR LMML 012015Z VRB02KT CAVOK 21/16 Q1022 NOSIG=
201110012000 METAR LMML NIL=
201110011945 METAR LMML 011945Z 04003KT CAVOK 22/16 Q1022 NOSIG=
201110011930 METAR LMML NIL=
201110011915 METAR LMML 011915Z 04004KT 020V080 CAVOK 22/16 Q1021 NOSIG=
201110011900 METAR LMML NIL=
201110011845 METAR LMML 011845Z 05004KT 270V090 9999 FEW025 22/16 Q1021
                        NOSIG=
201110011830 METAR LMML NIL=
201110011815 METAR LMML 011815Z 07003KT 9999 FEW025 22/16 Q1021 NOSIG=
201110011745 METAR LMML 011745Z 07003KT 9999 FEW025 22/17 Q1021 NOSIG=
201110011730 METAR LMML NIL=
201110011715 METAR LMML 011715Z 06005KT 030V090 9999 FEW025 23/17 Q1021
                        NOSIG=
201110011645 METAR LMML 011645Z 06006KT 020V100 9999 FEW024 23/17 Q1021
                        NOSIG=
201110011630 METAR LMML NIL=
201110011615 METAR LMML 011615Z 06005KT 360V110 9999 FEW025 24/16 Q1021
                        NOSIG=
201110011545 METAR LMML 011545Z 05007KT 010V080 9999 FEW027 25/16 Q1021
                        NOSIG=
201110011515 METAR LMML 011515Z 06006KT 010V100 9999 FEW029 25/16 Q1021
                        NOSIG=
201110011445 METAR LMML 011445Z 06007KT 020V090 9999 FEW028 25/16 Q1021
                        NOSIG=
201110011430 METAR LMML NIL=
201110011415 METAR LMML 011415Z 05006KT 350V090 9999 FEW030 25/14 Q1021
                        NOSIG=
201110011400 METAR LMML NIL=
201110011345 METAR LMML 011345Z 05007KT 360V090 9999 FEW026 25/16 Q1021
                        NOSIG=
201110011330 METAR LMML NIL=
201110011315 METAR LMML 011315Z 05008KT 360V090 9999 FEW027 25/17 Q1021
                        NOSIG=
201110011300 METAR LMML NIL=
201110011245 METAR LMML 011245Z 04009KT 310V070 9999 FEW029 26/16 Q1021
                        NOSIG=
201110011230 METAR LMML NIL=
201110011215 METAR LMML 011215Z 04008KT 360V090 9999 FEW028 27/16 Q1021
                        NOSIG=
201110011200 METAR LMML NIL=
201110011145 METAR LMML 011145Z 05010KT 360V090 9999 FEW029 26/15 Q1022
                        NOSIG=
201110011130 METAR LMML NIL=
201110011115 METAR LMML 011115Z 04009KT 010V070 9999 FEW032 27/17 Q1022
                        NOSIG=
201110011100 METAR LMML NIL=
201110011045 METAR LMML 011045Z 03010KT 360V060 9999 FEW025 27/15 Q1022
                        NOSIG=
201110011030 METAR LMML NIL=
201110011015 METAR LMML 011015Z 05011KT 010V090 9999 FEW025 26/16 Q1022
                        NOSIG=
201110011000 METAR LMML NIL=
201110010945 METAR LMML 010945Z 04013KT 010V080 9999 FEW025 26/17 Q1022
                        NOSIG=
201110010930 METAR LMML NIL=
201110010915 METAR LMML 010915Z 03010KT 360V080 9999 SCT026 25/18 Q1022
                        NOSIG=
201110010900 METAR LMML NIL=
201110010845 METAR LMML 010845Z 02008KT 350V050 9999 FEW024 25/18 Q1023
                        NOSIG=
201110010830 METAR LMML NIL=
201110010815 METAR LMML 010815Z 03008KT 350V070 9999 FEW025 26/18 Q1023
                        NOSIG=
201110010800 METAR LMML NIL=
201110010745 METAR LMML 010745Z 02008KT 350V050 9999 FEW020 25/18 Q1022
                        NOSIG=
201110010730 METAR LMML NIL=
201110010715 METAR LMML 010715Z 02007KT 360V060 9999 FEW020 24/17 Q1022
                        NOSIG=
201110010700 METAR LMML NIL=
201110010645 METAR LMML 010645Z 03006KT 300V070 9999 FEW025 24/17 Q1022
                        NOSIG=
201110010630 METAR LMML NIL=
201110010615 METAR LMML 010615Z 03005KT CAVOK 23/16 Q1022 NOSIG=
201110010600 METAR LMML NIL=
201110010545 METAR LMML 010545Z 03005KT 010V070 9999 FEW025 22/16 Q1022
                        NOSIG=
201110010530 METAR LMML NIL=
201110010515 METAR LMML 010515Z 03006KT 360V060 9999 FEW025 21/16 Q1022
                        NOSIG=
201110010445 METAR LMML 010445Z 03006KT 9999 FEW025 21/16 Q1021 NOSIG=
201110010430 METAR LMML NIL=
201110010415 METAR LMML 010415Z 02005KT CAVOK 20/16 Q1021 NOSIG=
201110010400 METAR LMML NIL=
201110010345 METAR LMML 010345Z 01004KT CAVOK 20/16 Q1021 NOSIG=
201110010330 METAR LMML NIL=
201110010315 METAR LMML 010315Z 01004KT 350V090 CAVOK 21/16 Q1021 NOSIG=
201110010245 METAR LMML 010245Z 01004KT CAVOK 21/16 Q1021 NOSIG=
201110010230 METAR LMML NIL=
201110010215 METAR LMML 010215Z 01004KT CAVOK 20/15 Q1022 NOSIG=
201110010200 METAR LMML NIL=
201110010145 METAR LMML 010145Z 01004KT CAVOK 21/15 Q1022 NOSIG=
201110010130 METAR LMML NIL=
201110010115 METAR LMML 010115Z 02005KT 360V060 CAVOK 21/16 Q1022 NOSIG=
201110010100 METAR LMML NIL=
201110010045 METAR LMML 010045Z 02004KT 9999 FEW025 21/16 Q1022 NOSIG=
201110010030 METAR LMML NIL=
201110010015 METAR LMML 010015Z 01004KT 9999 FEW025 21/16 Q1022 NOSIG=
201110010000 METAR LMML NIL=

###################################
#  short TAF from LMML
###################################
201110312300 TAF LMML 312300Z 0100/0109 09015KT 9999 BKN016 BKN040
                      TEMPO 0100/0107 8000 RA BKN013=
201110312000 TAF LMML 312000Z 3121/0106 09017KT 9999 BKN018 BKN050
                      PROB40 TEMPO 3121/0106 6000 RA BKN008 BKN015=
201110311700 TAF LMML 311700Z 3118/0103 09015KT 9999 BKN015 BKN080
                      TEMPO 3118/0103 7000 RA BKN008=
201110311400 TAF LMML 311400Z 3115/3124 10016KT 9999 BKN015 BKN080
                      TEMPO 3115/3124 7000 RA
                      PROB30 TEMPO 3115/3120 5000 TSRA BKN015CB=
201110311100 TAF LMML 311100Z 3112/3121 11018KT 9999 BKN015 BKN060
                      TEMPO 3112/3121 7000 RA
                      PROB30 TEMPO 3112/3118 4000 TSRA BKN015CB=
201110310800 TAF LMML 310800Z 3109/3118 10018KT 9999 SCT015 BKN080
                      TEMPO 3109/3118 7000 RA BKN010
                      PROB30 TEMPO 3109/3118 4000 TSRA BKN015CB=
201110310500 TAF LMML 310500Z 3106/3115 12018KT 9999 SCT020 BKN080
                      TEMPO 3106/3115 8000 RA BKN015 BKN070
                      PROB30 TEMPO 3106/3115 10022G32KT 3000 TSRA
                       SCT008 BKN015CB BKN060=
201110310200 TAF LMML 310200Z 3103/3112 13018KT 9999 SCT025 BKN080
                      TEMPO 3103/3112 8000 SHRA BKN015 BKN070
                      PROB30 TEMPO 3103/3112 11020G30KT 3000 TSRA
                       BKN010 BKN015CB BKN060=
201110302300 TAF LMML 302300Z 3100/3109 12018KT 9999 SCT020 BKN100
                      TEMPO 3100/3109 8000 RA BKN015 BKN080
                      PROB30 TEMPO 3100/3109 10020G30KT 3000 TSRA
                       BKN010 BKN015CB BKN060=
201110302000 TAF LMML 302000Z 3021/3106 12018KT 9999 SCT020 BKN120
                      TEMPO 3021/3106 8000 RA BKN015 BKN100
                      PROB30 TEMPO 3021/3106 10020G30KT 3000 TSRA
                       BKN010 BKN015CB BKN080=
201110301700 TAF LMML 301700Z 3018/3103 13020KT 9999 SCT018 SCT040
                      TEMPO 3018/3103 8000 SHRA BKN015
                      PROB40 TEMPO 3018/3103 4000 TSRA BKN010 BKN015CB=
201110301400 TAF LMML 301400Z 3015/3024 13020KT 9999 SCT020 SCT040
                      TEMPO 3015/3024 8000 RA BKN015
                      PROB30 TEMPO 3015/3024 5000 TSRA BKN015CB=
201110301100 TAF LMML 301100Z 3012/3021 13020KT 9999 SCT022
                      TEMPO 3012/3021 8000 RA BKN015
                      PROB30 TEMPO 3012/3021 5000 TSRA BKN010 BKN015CB=
201110300800 TAF LMML 300800Z 3009/3018 12016KT 9999 BKN018
                      TEMPO 3009/3018 8000 RA BKN015
                      PROB30 TEMPO 3012/3018 5000 TSRA BKN010 BKN015CB=
201110300500 TAF LMML 300500Z 3006/3015 11015KT 9999 SCT025 BKN120
                      TEMPO 3006/3015 8000 RA BKN015=
201110300200 TAF LMML 300200Z 3003/3012 11013KT 9999 SCT025 SCT120
                      PROB30 TEMPO 3003/3012 8000 BKN015=
201110292300 TAF LMML 292300Z 3000/3009 11013KT 9999 SCT020 SCT120
                      PROB30 TEMPO 3000/3009 8000 BKN015=
201110292000 TAF LMML 292000Z 2921/3006 08014KT 9999 SCT020 SCT100 BKN250
                      PROB30 TEMPO 2921/3006 7000 TSRA BKN015 BKN060CB=
201110291700 TAF LMML 291700Z 2918/3003 10013KT 9999 SCT025
                      PROB40 TEMPO 2918/3003 BKN015
                      PROB30 TEMPO 2921/3003 9000 BKN010=
201110291400 TAF LMML 291400Z 2915/2924 10015KT 9999 SCT025
                      PROB40 TEMPO 2918/2924 BKN015
                      PROB30 TEMPO 2921/2924 8000 SHRA SCT008 BKN015
                       BKN100=
201110291100 TAF LMML 291100Z 2912/2921 10015KT 9999 SCT025
                      PROB30 TEMPO 2918/2921 BKN015=
201110290800 TAF LMML 290800Z 2909/2918 09013KT 9999 SCT020=
201110290500 TAF LMML 290500Z 2906/2915 13005KT 9999 FEW018 SCT025
                      BECMG 2909/2912 10015KT=
201110290200 TAF LMML 290200Z 2903/2912 13005KT 9999 FEW018 SCT025
                      PROB30 TEMPO 2903/2906 8000 RA BKN015=
201110282300 TAF LMML 282300Z 2900/2909 13005KT 9999 FEW018 SCT025
                      PROB30 TEMPO 2900/2907 8000 RA BKN015=
201110282000 TAF LMML 282000Z 2821/2906 13005KT 9999 FEW018 SCT025
                      PROB30 TEMPO 2821/2906 8000 RA BKN015=
201110281700 TAF LMML 281700Z 2818/2903 13008KT 9999 FEW018 BKN045
                      PROB30 TEMPO 2818/2903 8000 RA BKN015=
201110281400 TAF LMML 281400Z 2815/2824 13010KT 9999 SCT016 SCT050
                      PROB30 TEMPO 2815/2824 8000 RA BKN015=
201110281100 TAF LMML 281100Z 2812/2821 14010KT 9999 SCT018 SCT050
                      PROB30 TEMPO 2812/2821 BKN015=
201110280800 TAF LMML 280800Z 2809/2818 16012KT 9999 FEW020 SCT040
                      PROB30 TEMPO 2809/2812 BKN015=
201110280500 TAF LMML 280500Z 2806/2815 15010KT 9999 SCT020 SCT050=
201110280200 TAF LMML 280200Z 2803/2812 14007KT 9999 FEW015
                      TEMPO 2803/2806 8000 BKN015=
201110272300 TAF LMML 272300Z 2800/2809 14007KT 9999 FEW015
                      PROB30 TEMPO 2800/2806 8000 BKN015=
201110272000 TAF LMML 272000Z 2721/2806 14007KT 9999 FEW015=
201110271700 TAF LMML 271700Z 2718/2803 VRB03KT 9999 FEW015 SCT020=
201110271400 TAF LMML 271400Z 2715/2724 VRB03KT 9999 FEW018 SCT022=
201110271100 TAF LMML 271100Z 2712/2721 33005KT 9999 FEW018 SCT025=
201110270800 TAF LMML 270800Z 2709/2718 34005KT 9999 FEW018 SCT023=
201110270500 TAF LMML 270500Z 2706/2715 36008KT 9999 FEW018
                      PROB30 TEMPO 2706/2709 CAVOK=
201110270200 TAF LMML 270200Z 2703/2712 VRB06KT 9999 FEW015
                      TEMPO 2703/2706 8000
                      PROB40 TEMPO 2703/2708 BKN015
                      PROB30 TEMPO 2703/2706 5000 BR=
201110262300 TAF LMML 262300Z 2700/2709 35006KT 9999 FEW015
                      TEMPO 2700/2706 8000
                      PROB40 TEMPO 2700/2708 BKN012
                      PROB30 TEMPO 2700/2706 5000 BR=
201110262000 TAF LMML 262000Z 2621/2706 VRB03KT 9999 FEW015
                      PROB40 TEMPO 2621/2706 9000 BKN015=
201110261700 TAF LMML 261700Z 2618/2703 33008KT 9999 FEW020
                      PROB30 TEMPO 2618/2703 8000 SHRA=
201110261400 TAF LMML 261400Z 2615/2624 30010KT 9999 SCT015
                      PROB40 TEMPO 2615/2624 8000 SHRA BKN015
                      PROB30 TEMPO 2615/2618 5000 TSRA BKN015CB=
201110261100 TAF LMML 261100Z 2612/2621 24005KT 9999 SCT015
                      BECMG 2618/2621 30010KT
                      PROB30 TEMPO 8000 SHRA BKN015=
201110260800 TAF LMML 260800Z 2609/2618 VRB05KT 9999 SCT015
                      PROB30 TEMPO 2609/2618 8000 SHRA BKN015=
201110260500 TAF LMML 260500Z 2606/2615 17005KT 9999 SCT013 BKN080
                      TEMPO 2606/2615 8000 SHRA BKN012=
201110260200 TAF LMML 260200Z 2603/2612 14006KT 9999 SCT013
                      PROB30 TEMPO 2603/2607 BKN012=
201110252300 TAF LMML 252300Z 2600/2609 13007KT 9999 SCT013 BKN250
                      PROB30 TEMPO 2600/2609 BKN012=
201110252000 TAF LMML 252000Z 2521/2606 10008KT 9999 SCT015 BKN250
                      PROB30 TEMPO 2521/2606 BKN013=
201110251700 TAF LMML 251700Z 2518/2603 13005KT 9999 SCT015
                      TEMPO 2518/2603 BKN015
                      PROB30 TEMPO 2521/2603 8000=
201110251400 TAF LMML 251400Z 2515/2524 13005KT 9999 SCT018
                      PROB30 TEMPO 2521/2524 9000 BKN015=
201110251100 TAF LMML 251100Z 2512/2521 12006KT 9999 SCT018=
201110250800 TAF LMML 250800Z 2509/2518 09006KT 9999 SCT018=
201110250500 TAF LMML 250500Z 2506/2515 08007KT 9999 FEW018
                      PROB30 TEMPO 2506/2508 8000 SHRA SCT015TCU=
201110250200 TAF LMML 250200Z 2503/2512 08005KT 9999 FEW015 SCT100
                      TEMPO 2503/2507 7000 SHRA FEW008 BKN015TCU=
201110242300 TAF LMML 242300Z 2500/2509 07005KT 9999 SCT015 BKN090
                      TEMPO 2500/2509 7000 RA FEW008 BKN015
                      PROB30 TEMPO 2500/2506 TSRA SCT008 BKN013CB=
201110242000 TAF LMML 242000Z 2421/2506 08005KT 9999 SCT015 BKN050
                      TEMPO 2421/2506 7000 RA SCT008 BKN015
                      PROB40 TEMPO 2421/2506 5000 TSRA SCT005 BKN012CB=
201110241700 TAF LMML 241700Z 2418/2503 10010KT 9999 SCT015 BKN090
                      TEMPO 2418/2503 7000 RA BKN015
                      PROB40 TEMPO 2418/2503 5000 TSRA BKN012CB=
201110241400 TAF LMML 241400Z 2415/2424 12010KT 9999 SCT015 BKN200
                      TEMPO 2418/2424 7000 RA BKN015=
201110241100 TAF LMML 241100Z 2412/2421 11010KT 9999 SCT015 BKN200
                      PROB30 TEMPO 2415/2421 8000 RA BKN015=
201110240800 TAF LMML 240800Z 2409/2418 09008KT 9999 SCT016 BKN200
                      PROB30 TEMPO 2415/2418 8000 RA BKN015=
201110240500 TAF LMML 240500Z 2406/2415 09008KT 9999 SCT018=
201110240200 TAF LMML 240200Z 2403/2412 08008KT 9999 SCT015
                      PROB30 TEMPO 2400/2406 BKN013=
201110232300 TAF LMML 232300Z 2400/2409 08008KT 9999 SCT015
                      PROB30 TEMPO 2400/2406 BKN013=
201110232000 TAF LMML 232000Z 2321/2406 08008KT 9999 SCT015
                      PROB30 TEMPO 2321/2406 BKN013=
201110231700 TAF LMML 231700Z 2318/2403 08005KT 9999 FEW016
                      TEMPO 2318/2403 BKN015=
201110231400 TAF LMML 231400Z 2315/2324 07006KT 9999 FEW016 BKN018
                      TEMPO 2318/2324 BKN012=
201110231100 TAF LMML 231100Z 2312/2321 07008KT 9999 SCT015 BKN018=
201110231015 TAF COR LMML 231015Z 2309/2318 03008KT 9999 SCT015 BKN023=
201110230800 TAF LMML 230800Z 2306/2318 03008KT 9999 SCT015 BKN023=
201110230500 TAF LMML 230500Z 2306/2315 07008KT 9999 SCT015
                      TEMPO 2306/2310 8000 SHRA BKN015TCU
                      PROB30 TEMPO 2306/2308 3000 TSRA BKN010 BKN015CB=
201110230200 TAF LMML 230200Z 2303/2312 10010KT 9999 FEW012 SCT060 SCT120
                      TEMPO 2303/2309 8000 RA SCT010 BKN050 BKN100
                       PROB30
                      TEMPO 2303/2306 3000 TSRA BKN010 BKN015CB
                       BKN080
                      BECMG 2309/2312 02008KT=
201110222300 TAF LMML 222300Z 2300/2309 08008KT 9999 FEW012 SCT050
                      TEMPO 2300/2309 6000 RA BKN015
                      PROB30 TEMPO 2300/2306 4000 TSRA BKN009 BKN015CB=
201110222000 TAF LMML 222000Z 2221/2306 VRB08KT 9999 FEW015 SCT060
                      TEMPO 2221/2306 7000 RA BKN015
                      PROB30 TEMPO 2221/2306 4000 TSRA BKN015CB=
201110221700 TAF LMML 221700Z 2218/2303 15007KT 9999 FEW015 SCT060
                      PROB40 TEMPO 2218/2303 7000 RA BKN015
                      PROB30 TEMPO 2218/2303 4000 TSRA BKN015CB=
201110221400 TAF LMML 221400Z 2215/2224 15007KT 9999 FEW015 SCT060
                      PROB40 TEMPO 2215/2224 7000 RA BKN015
                      PROB30 TEMPO 2215/2224 4000 TSRA BKN015CB=
201110221100 TAF LMML 221100Z 2212/2221 16008KT 9999 FEW020 BKN070
                      TEMPO 2212/2221 7000 RA
                      PROB30 TEMPO 2212/2221 4000 TSRA BKN015CB=
201110220800 TAF LMML 220800Z 2209/2218 17008KT 9999 SCT012 BKN100
                      TEMPO 2209/2218 7000 SHRA
                      PROB30 TEMPO 2209/2218 4000 TSRA BKN010 BKN015=
201110220500 TAF LMML 220500Z 2206/2215 10005KT 9999 SCT012 BKN100 OVC250
                      TEMPO 2206/2215 8000 RA BKN010
                      PROB30 TEMPO 2206/2215 5000 TSRA BKN015CB=
201110220200 TAF LMML 220200Z 2203/2212 12005KT 9999 FEW011 BKN100
                      TEMPO 2203/2212 7000 BR BKN011
                      PROB30 TEMPO 2206/2212 5000 TSRA BKN015CB=
201110212300 TAF LMML 212300Z 2200/2209 VRB03KT 9999 FEW011 SCT250
                      PROB30 TEMPO 2200/2209 7000 RA BKN010 BKN100=
201110212000 TAF LMML 212000Z 2121/2206 VRB03KT 9999 SCT015
                      PROB30 TEMPO 2203/2206 7000 SHRA BKN012 BKN200=
201110211700 TAF LMML 211700Z 2118/2203 VRB03KT 9999 SCT020=
201110211400 TAF LMML 211400Z 2115/2124 VRB05KT 9999 SCT025
                      PROB30 TEMPO 2118/2124 BKN015=
201110211100 TAF LMML 211100Z 2112/2121 VRB05KT 9999 FEW020
                      PROB30 TEMPO 2116/2121 BKN015=
201110210800 TAF LMML 210800Z 2109/2118 VRB05KT 9999 FEW020
                      PROB30 TEMPO 2115/2118 BKN015=
201110210500 TAF LMML 210500Z 2106/2115 18006KT 9999 SCT018
                      PROB30 TEMPO 2112/2115 BKN012=
201110210200 TAF LMML 210200Z 2103/2112 18006KT 9999 FEW025 SCT100=
201110202300 TAF LMML 202300Z 2100/2109 VRB03KT 9999 FEW025=
201110202000 TAF LMML 202000Z 2021/2106 VRB03KT 9999 FEW025=
201110201700 TAF LMML 201700Z 2018/2103 19006KT 9999 FEW020=
201110201400 TAF LMML 201400Z 2015/2024 19008KT 9999 SCT025=
201110201100 TAF LMML 201100Z 2012/2021 20008KT 9999 FEW030=
201110200800 TAF LMML 200800Z 2009/2018 21008KT 9999 FEW030=
201110200500 TAF LMML 200500Z 2006/2015 19008KT 9999 FEW028 SCT050=
201110200200 TAF LMML 200200Z 2003/2012 19008KT 9999 SCT028 SCT070
                      PROB30 TEMPO 2003/2009 9000 SHRA=
201110192300 TAF LMML 192300Z 2000/2009 19008KT 9999 FEW025 SCT070
                      PROB30 TEMPO 2000/2009 9000 SHRA=
201110192000 TAF LMML 192000Z 1921/2006 19008KT 9999 FEW030
                      PROB30 TEMPO 1921/2006 9000 SHRA=
201110191700 TAF LMML 191700Z 1918/2003 VRB03KT 9999 FEW025
                      PROB30 TEMPO 1921/2003 9000 SHRA BKN015TC=
201110191400 TAF LMML 191400Z 1915/1924 18010KT 9999 FEW035
                      PROB30 TEMPO 1917/1924 BKN015=
201110191100 TAF LMML 191100Z 1912/1921 18010KT 9999 FEW040=
201110190800 TAF LMML 190800Z 1909/1918 18010KT 9999 FEW040=
201110190500 TAF LMML 190500Z 1906/1915 18010KT 9999 FEW040
                      TEMPO 1906/1915 CAVOK=
201110190200 TAF LMML 190200Z 1903/1912 18010KT 9999 FEW040
                      TEMPO 1903/1912 CAVOK=
201110182300 TAF LMML 182300Z 1900/1909 18008KT CAVOK
                      TEMPO 1900/1909 9999 FEW040=
201110182000 TAF LMML 182000Z 1821/1906 19005KT CAVOK
                      TEMPO 1821/1906 9999 FEW040=
201110181700 TAF LMML 181700Z 1818/1903 19005KT CAVOK
                      TEMPO 1818/1903 9999 FEW030=
201110181400 TAF LMML 181400Z 1815/1824 20007KT 9999 FEW035
                      TEMPO 1815/1824 CAVOK=
201110181100 TAF LMML 181100Z 1812/1821 21007KT 9999 FEW035 SCT060=
201110180800 TAF LMML 180800Z 1809/1818 20006KT 9999 FEW030 SCT060=
201110180500 TAF LMML 180500Z 1806/1815 27004KT 9999 FEW035=
201110180200 TAF LMML 180200Z 1803/1812 12004KT 9999 FEW035
                      PROB30 TEMPO 1803/1805 6000=
201110172300 TAF LMML 172300Z 1800/1809 VRB03KT 9999 FEW035
                      PROB30 TEMPO 1802/1805 6000=
201110172000 TAF LMML 172000Z 1721/1806 VRB03KT 9999 SCT035
                      PROB30 TEMPO 1803/1806 6000=
201110171700 TAF LMML 171700Z 1718/1803 08005KT 9999 FEW040
                      TEMPO 1718/1803 CAVOK=
201110171400 TAF LMML 171400Z 1715/1724 08008KT 9999 FEW040
                      PROB30 TEMPO 1715/1724 CAVOK=
201110171100 TAF LMML 171100Z 1712/1721 08010KT 9999 FEW045=
201110170800 TAF LMML 170800Z 1709/1718 08014KT 9999 SCT035=
201110170500 TAF LMML 170500Z 1706/1715 06012KT 9999 SCT030=
201110170200 TAF LMML 170200Z 1703/1712 06015KT 9999 SCT030=
201110162300 TAF LMML 162300Z 1700/1709 06014KT 9999 FEW030 SCT040
                      PROB30 TEMPO 1700/1705 8000 SHRA BKN015=
201110162000 TAF LMML 162000Z 1621/1706 06014KT 9999 FEW030 SCT040
                      PROB40 TEMPO 1621/1623 8000 SHRA BKN015TCU=
201110161700 TAF LMML 161700Z 1618/1703 05012KT 9999 SCT025 BKN050
                      TEMPO 1618/1624 8000 SHRA
                      PROB30 TEMPO 1618/1621 05015G25KT 5000 TSRA
                       BKN015CB=
201110161400 TAF LMML 161400Z 1615/1624 06015KT 9999 SCT025 BKN080
                      TEMPO 1615/1624 8000 SHRA BKN015
                      PROB30 TEMPO 1615/1618 06015G25KT 5000 TSRA
                       BKN015CB=
201110161100 TAF LMML 161100Z 1612/1621 06015KT 9999 SCT020 BKN080
                      TEMPO 1612/1621 8000 SHRA BKN015
                      TEMPO 1612/1618 06015G25KT 5000 TSRA BKN013CB=
201110160800 TAF LMML 160800Z 1609/1618 06015KT 9999 SCT015
                      TEMPO 1609/1618 8000 SHRA SCT008 BKN015
                      TEMPO 1609/1615 06015G25KT 5000 TSRA BKN012CB=
201110160500 TAF LMML 160500Z 1606/1615 08016KT 9999 SCT015 SCT045
                      TEMPO 1606/1615 7000 SHRA BKN015
                      PROB40 TEMPO 1606/1612 08016G26KT 3000 TSRA
                       BKN008 BKN015CB=
201110160200 TAF LMML 160200Z 1603/1612 08013KT 9999 SCT015
                      TEMPO 0603/0612 8000 SHRA BKN015
                      PROB40 TEMPO 0603/0612 3000 TSRA BKN008 BKN015CB=
201110152300 TAF LMML 152300Z 1600/1609 08012KT 9999 SCT015
                      TEMPO 1600/1609 8000 SHRA BKN015
                      PROB40 TEMPO 1600/1609 3000 TSRA BKN008 BKN012CB=
201110152000 TAF LMML 152000Z 1521/1606 08010KT 9999 SCT015
                      TEMPO 1521/1606 BKN015
                      PROB40 TEMPO 1521/1606 3000 TSRA BKN008 BKN015CB=
201110151700 TAF LMML 151700Z 1518/1603 07008KT 9999 SCT018
                      TEMPO 1518/1603 5000 SHRA FEW008 BKN015TCU
                       PROB40
                      TEMPO 1518/1603 3000 TSRA SCT005 BKN015CB=
201110151400 TAF LMML 151400Z 1515/1524 06010KT 9999 SCT018
                      PROB40 TEMPO 1515/1524 5000 SHRA FEW008 BKN018TCU
                       PROB30
                      TEMPO 1518/1524 3000 TSRA SCT008 BKN015CB=
201110151100 TAF LMML 151100Z 1512/1521 03010KT 9999 SCT027
                      PROB40 TEMPO 1512/1521 5000 SHRA FEW008 BKN015TCU
                       PROB30
                      TEMPO 1518/1521 3000 TSRA SCT008 BKN015CB=
201110150800 TAF LMML 150800Z 1509/1518 30012KT 9999 SCT020
                      BECMG 1512/1515 06010KT
                      PROB40 TEMPO 1515/1518 5000 SHRA FEW008 BKN015TCU=
201110150500 TAF LMML 150500Z 1506/1515 28015KT 9999 FEW020
                      BECMG 1512/1515 06010KT
                      PROB40 TEMPO 1512/1515 6000 SHRA BKN018TCU=
201110150200 TAF LMML 150200Z 1503/1512 28018KT 9999 SCT030
                      PROB30 TEMPO 1503/1512 28015G25KT 8000 SHRA
                       BKN020TCU=
201110142300 TAF LMML 142300Z 1500/1509 27015KT 9999 SCT025
                      PROB40 TEMPO 1500/1509 26015G25KT 8000 SHRA
                       BKN020TCU=
201110142000 TAF LMML 142000Z 1421/1506 26010KT 9999 SCT018
                      PROB40 TEMPO 1421/1506 BKN015
                      PROB30 TEMPO 1421/1506 26015G25KT 8000 SHRA
                       SCT008 BKN015TCU=
201110141700 TAF LMML 141700Z 1418/1503 26010KT 9999 SCT018
                      PROB40 TEMPO 1418/1503 BKN015=
201110141400 TAF LMML 141400Z 1415/1424 25010KT 9999 SCT020
                      PROB40 TEMPO 1417/1424 BKN015=
201110141100 TAF LMML 141100Z 1412/1421 25012KT 9999 SCT024=
201110140800 TAF LMML 140800Z 1409/1418 26012KT 9999 SCT017=
201110140500 TAF LMML 140500Z 1406/1415 23010KT 9999 SCT015
                      TEMPO 1406/1415 BKN015=
201110140200 TAF LMML 140200Z 1403/1412 23010KT 9999 SCT015
                      PROB30 TEMPO 1403/1406 8000 BKN008=
201110132300 TAF LMML 132300Z 1400/1409 23008KT 9999 SCT012 SCT030
                      PROB30 TEMPO 1400/1406 8000 SCT007 BKN011=
201110132000 TAF LMML 132000Z 1321/1406 24006KT 9999 SCT012
                      PROB30 TEMPO 1321/1406 8000 SCT006 BKN011=
201110131700 TAF LMML 131700Z 1318/1403 26006KT 9999 FEW011
                      PROB30 TEMPO 1318/1321 CAVOK
                      PROB40 TEMPO 1320/1403 8000 BKN008=
201110131400 TAF LMML 131400Z 1315/1324 26008KT 9999 FEW012
                      PROB30 TEMPO 1318/1324 BKN010=
201110131100 TAF LMML 131100Z 1312/1321 27010KT 9999 FEW015
                      PROB30 TEMPO 1318/1321 BKN010=
201110130800 TAF LMML 130800Z 1309/1318 28010KT 9999 FEW016=
201110130500 TAF LMML 130500Z 1306/1315 29006KT 9000 FEW009
                      BECMG 1306/1309 9999 FEW015=
201110130200 TAF LMML 130200Z 1303/1312 VRB03KT 9999 SCT007
                      PROB40 TEMPO 1303/1306 8000 BKN005
                      TEMPO 1306/1312 30008KT 9999 FEW018=
201110122300 TAF LMML 122300Z 1300/1309 VRB03KT 9999 FEW015
                      PROB30 TEMPO 1300/1306 8000 BKN008=
201110122000 TAF LMML 122000Z 1221/1306 29005KT CAVOK
                      TEMPO 1221/1306 9999 SCT015
                      PROB30 TEMPO 1300/1306 8000 BKN008=
201110121700 TAF LMML 121700Z 1218/1303 28005KT CAVOK
                      PROB30 TEMPO 1218/1303 9999 FEW015=
201110121400 TAF LMML 121400Z 1215/1224 28007KT 9999 FEW030
                      TEMPO 1215/1224 CAVOK=
201110121100 TAF LMML 121100Z 1212/1221 VRB06KT 9999 FEW035
                      TEMPO 1212/1221 CAVOK=
201110120800 TAF LMML 120800Z 1209/1218 31007KT CAVOK
                      TEMPO 1209/1218 9999 FEW025=
201110120500 TAF LMML 120500Z 1206/1215 34005KT 9999 FEW025=
201110120200 TAF LMML 120200Z 1203/1212 34005KT 9999 FEW025
                      PROB40 TEMPO 1203/1206 CAVOK=
201110112300 TAF LMML 112300Z 1200/1209 01005KT 9999 FEW025
                      PROB40 TEMPO 1200/1206 CAVOK=
201110112000 TAF LMML 112000Z 1121/1206 30007KT 9999 FEW025
                      TEMPO 1121/1206 CAVOK=
201110111700 TAF LMML 111700Z 1118/1203 30006KT 9999 FEW030
                      TEMPO 1121/1203 04003KT=
201110111400 TAF LMML 111400Z 1115/1124 35008KT 9999 FEW035=
201110111100 TAF LMML 111100Z 1112/1121 35010KT 9999 FEW040
                      PROB30 TEMPO 1112/1121 CAVOK=
201110110800 TAF LMML 110800Z 1109/1118 35013KT 9999 FEW040
                      PROB30 TEMPO 1109/1118 CAVOK=
201110110500 TAF LMML 110500Z 1106/1115 35012KT CAVOK
                      TEMPO 1106/1115 9999 SCT045=
201110110200 TAF LMML 110200Z 1103/1112 35012KT CAVOK
                      TEMPO 1103/1112 9999 FEW048=
201110102300 TAF LMML 102300Z 1100/1109 35014KT 9999 FEW048
                      TEMPO 1100/1109 CAVOK=
201110102000 TAF LMML 102000Z 1021/1106 34015KT CAVOK
                      TEMPO 1021/1106 9999 FEW035=
201110101700 TAF LMML 101700Z 1018/1103 32015KT 9999 FEW025=
201110101400 TAF LMML 101400Z 1015/1024 33022KT 9999 SCT045
                      TEMPO 1015/1018 32022G32KT=
201110101100 TAF LMML 101100Z 1012/1021 33022KT 9999 SCT040
                      TEMPO 1012/1018 32022G32KT=
201110100800 TAF LMML 100800Z 1009/1018 33022KT 9999 SCT035
                      TEMPO 1009/1015 32023G33KT
                      PROB30 TEMPO 1009/1012 8000 SHRA BKN020TCU=
201110100500 TAF LMML 100500Z 1006/1015 33020G30KT 9999 SCT030 BKN200
                      TEMPO 1006/1010 8000 SHRA BKN020TCU=
201110100200 TAF LMML 100200Z 1003/1012 33020G30KT 9999 SCT025
                      TEMPO 1003/1012 8000 SHRA BKN020TCU
                      PROB30 TEMPO 1003/1009 3000 TSGR BKN018CB=
201110092300 TAF LMML 092300Z 1000/1009 32020G30KT 9999 SCT025
                      TEMPO 1000/1009 7000 SHRA BKN020TCU
                      PROB30 TEMPO 1000/1009 4000 TSGR BKN018CB=
201110092000 TAF LMML 092000Z 0921/1006 31022G35KT 9999 SCT025 BKN120
                      TEMPO 0921/1006 8000 SHRA BKN020TCU
                      PROB30 TEMPO 0921/1006 3000 TSGR BKN015CB=
201110091700 TAF LMML 091700Z 0918/1003 31022KT 9999 SCT030 SCT120
                      TEMPO 0918/1003 32027G37KT 8000 SHRA BKN020TCU
                       BKN100
                      PROB30 TEMPO 0918/1003 3000 TSRA BKN015CB
                       BKN080=
201110091400 TAF LMML 091400Z 0915/0924 31020KT 9999 SCT030 SCT120
                      TEMPO 0915/0924 31025G35KT
                      PROB40 TEMPO 0915/0924 8000 SHRA BKN020TCU
                       BKN100
                      PROB30 TEMPO 0915/0918 3000 TSRA BKN015CB
                       BKN080=
201110091100 TAF LMML 091100Z 0912/0921 31018KT 9999 SCT030 BKN120
                      TEMPO 0912/0921 32023G34KT
                      PROB40 TEMPO 0912/0918 8000 RA BKN015 BKN100
                       PROB30
                      TEMPO 0912/0915 3000 TSRA BKN015CB BKN080=
201110090800 TAF LMML 090800Z 0909/0918 30020KT 9999 SCT035
                      TEMPO 0909/0918 29020G30KT 8000 SHRA BKN020TCU
                       BKN100
                      PROB30 TEMPO 0909/0918 31025G35KT 3000 TSRA
                       BKN015CB BKN080=
201110090500 TAF LMML 090500Z 0906/0915 33020G30KT 9999 FEW025 SCT040
                      TEMPO 0906/0915 8000 RA FEW008 BKN018
                      PROB40 TEMPO 0906/0915 3000 SHRA SCT008 BKN018TCU=
201110090200 TAF LMML 090200Z 0903/0912 30015G25KT 9999 FEW020 SCT050
                      TEMPO 0903/0912 8000 RA BKN018 BKN050
                      PROB40 TEMPO 0903/0912 5000 SHRA SCT005 BKN015TCU=
201110082300 TAF LMML 082300Z 0900/0909 30015G25KT 9999 FEW025
                      TEMPO 0900/0909 8000 SHRA BKN018
                      PROB40 TEMPO 0901/0909 5000 SHRA FEW005 BKN015TCU
                       PROB30
                      TEMPO 0901/0909 3000 TSRA SCT005 BKN015CB=
201110082000 TAF LMML 082000Z 0821/0906 30015G25KT 9999 FEW025
                      TEMPO 0821/0906 8000 SHRA BKN018
                      PROB40 TEMPO 0901/0906 5000 SHRA FEW005 BKN015TCU
                       PROB30
                      TEMPO 0901/0906 3000 TSRA SCT005 BKN015CB=
201110081700 TAF LMML 081700Z 0818/0903 30014KT 9999 SCT025 BKN250
                      TEMPO 0818/0903 8000 SHRA
                      PROB30 TEMPO 0900/0903 5000 TSRA BKN015CB=
201110081400 TAF LMML 081400Z 0815/0824 30015KT 9999 SCT025 BKN150
                      TEMPO 0815/0821 30015G25KT 7000 SHRA
                      PROB30 TEMPO 0815/0821 5000 TSRA BKN015CB=
201110081100 TAF LMML 081100Z 0812/0821 30015KT 9999 SCT025 BKN150
                      PROB30 TEMPO 0812/0821 7000 SHRA BKN015=
201110080800 TAF LMML 080800Z 0809/0818 30015KT 9999 SCT020 BKN120
                      TEMPO 0809/0818 7000 SHRA BKN015
                      PROB30 TEMPO 0809/0815 5000 TSRA BKN015CB=
201110080500 TAF LMML 080500Z 0806/0815 28014KT 9999 SCT020 SCT100
                      TEMPO 0806/0815 8000 SHRA BKN015TCU BKN100
                       PROB30
                      TEMPO 0806/0812 28015G25KT 3000 TSRA BKN015CB
                       BKN080=
201110080200 TAF LMML 080200Z 0803/0812 27012KT 9999 SCT020
                      TEMPO 0803/0812 8000 SHRA BKN015TCU
                      PROB30 TEMPO 0803/0812 28015G25KT 3000 TSRA
                       SCT010 BKN015CB=
201110072300 TAF LMML 072300Z 0800/0809 27012KT 9999 SCT020
                      TEMPO 0800/0809 8000 SHRA BKN015TCU
                      PROB30 TEMPO 0800/0809 28015G25KT 3000 TSRA
                       SCT010 BKN015CB=
201110072000 TAF LMML 072000Z 0721/0806 25010KT CAVOK
                      BECMG 0721/0724 9999 SCT020
                      PROB40 TEMPO 0800/0806 8000 SHRA BKN015TCU
                       PROB30
                      TEMPO 0803/0806 28015G25KT 3000 TSRA SCT010
                       BKN015CB=
201110071700 TAF LMML 071700Z 0718/0803 27006KT 9999 FEW018TCU=
201110071400 TAF LMML 071400Z 0715/0724 27008KT 9999 FEW025TCU=
201110071100 TAF LMML 071100Z 0712/0721 27010KT 9999 FEW025TCU=
201110070800 TAF LMML 070800Z 0709/0718 24010KT 9999 FEW030=
201110070500 TAF LMML 070500Z 0706/0715 27008KT 9999 FEW025
                      PROB30 TEMPO 0709/0715 CAVOK=
201110070200 TAF LMML 070200Z 0703/0712 VRB05KT 9999 SCT020
                      TEMPO 0703/0712 8000 SHRA BKN015TCU
                      PROB40 TEMPO 0703/0712 3000 TSRA BKN010 BKN015CB=
201110062300 TAF LMML 062300Z 0700/0709 VRB05KT 9999 SCT018
                      TEMPO 0700/0709 8000 SHRA BKN015TCU
                      PROB40 TEMPO 0700/0709 3000 TSRA BKN010 BKN015CB=
201110062000 TAF LMML 062000Z 0621/0706 VRB03KT 9999 FEW020
                      PROB40 TEMPO 0621/0706 8000 SHRA BKN015TCU
                       PROB30
                      TEMPO 0621/0706 3000 TSRA BKN015CB=
201110061700 TAF LMML 061700Z 0618/0703 21006KT 9999 FEW020
                      PROB40 TEMPO 0618/0703 8000 SHRA BKN015TCU
                       PROB30
                      TEMPO 0618/0703 3000 TSRA SCT010 BKN015CB=
201110061400 TAF LMML 061400Z 0615/0624 16007KT 9999 SCT025
                      PROB40 TEMPO 0615/0624 8000 SHRA BKN020TCU
                       PROB30
                      TEMPO 0615/0624 3000 TSRA SCT010 BKN015CB=
201110061100 TAF LMML 061100Z 0612/0621 16008KT 9999 SCT025
                      TEMPO 0612/0621 8000 SHRA BKN020TCU
                      PROB30 TEMPO 0612/0621 3000 TSRA SCT010 BKN015CB=
201110060800 TAF LMML 060800Z 0609/0618 14007KT 9999 FEW020
                      PROB40 TEMPO 0609/0618 8000 SHRA BKN015TCU
                       PROB30
                      TEMPO 0609/0618 3000 TSRA BKN015CB=
201110060500 TAF LMML 060500Z 0606/0615 VRB04KT 9999 FEW020
                      PROB30 TEMPO 0606/0615 8000 SHRA BKN015=
201110060200 TAF LMML 060200Z 0603/0612 VRB03KT 9999 FEW020
                      PROB30 TEMPO 0603/0612 8000 SHRA=
201110052300 TAF LMML 052300Z 0600/0609 VRB03KT 9999 FEW020
                      PROB30 TEMPO 0600/0606 8000 SHRA BKN015=
201110052000 TAF LMML 052000Z 0521/0606 03004KT 9999 FEW025
                      PROB30 TEMPO 0521/0606 8000 SHRA BKN015=
201110051700 TAF LMML 051700Z 0518/0603 VRB03KT 9999 SCT018
                      PROB30 TEMPO 0518/0603 5000 TSRA BKN015CB=
201110051400 TAF LMML 051400Z 0515/0524 06005KT 9999 SCT018
                      PROB40 TEMPO 0515/0524 8000 BKN015TCU
                      PROB30 TEMPO 0515/0524 5000 TSRA BKN015CB=
201110051100 TAF LMML 051100Z 0512/0521 07005KT 9999 SCT020
                      PROB40 TEMPO 0512/0521 8000 BKN015TCU
                      PROB30 TEMPO 0512/0518 5000 TSRA BKN015CB=
201110050800 TAF LMML 050800Z 0509/0518 07007KT 9999 FEW018
                      TEMPO 0509/0518 5000 SHRA BKN010 BKN015TCU
                       PROB30
                      TEMPO 0509/0518 3000 TSRA BKN015CB=
201110050500 TAF LMML 050500Z 0506/0515 04006KT 9999 FEW018
                      PROB40 TEMPO 0506/0515 5000 SHRA FEW008 BKN015TCU
                       PROB30
                      TEMPO 0506/0515 3000 SCT008 BKN015CB=
201110050200 TAF LMML NIL=
201110042300 TAF LMML 042300Z 0500/0509 03005KT 9999 FEW020
                      TEMPO 0500/0506 5000 SHRA FEW008 BKN015TCU
                       PROB30
                      TEMPO 0500/0506 3000 SCT005 BKN015CB=
201110042000 TAF LMML 042000Z 0421/0506 VRB03KT 9999 FEW025
                      TEMPO 0421/0506 5000 SHRA FEW008 BKN018TCU
                       PROB30
                      TEMPO 0421/0506 3000 TSRA SCT005 BKN015CB=
201110041700 TAF LMML 041700Z 0418/0503 VRB03KT 9999 FEW025 SCT080
                      TEMPO 0418/0503 05015KT 8000 SHRA BKN015=
201110041400 TAF LMML 041400Z 0415/0424 03005KT 9999 SCT025 SCT080
                      TEMPO 0415/0418 8000 SHRA BKN020=
201110041100 TAF LMML 041100Z 0412/0421 03005KT 9999 SCT025 SCT080
                      TEMPO 0412/0421 8000 SHRA BKN020TCU
                      PROB30 TEMPO 0412/0418 06010G20KT 5000 TSRA
                       BKN015CB=
201110040800 TAF LMML 040800Z 0409/0418 05010KT 9999 SHRA SCT018 BKN090
                      TEMPO 0409/0418 08015G25KT 5000 TSRA BKN015CB=
201110040500 TAF LMML 040500Z 0406/0415 07008KT 9999 FEW025
                      PROB30 TEMPO 0406/0409 5000 TSRA BKN015CB=
201110040200 TAF COR LMML 040200Z 0403/0412 05007KT 9999 FEW025
                      PROB30 TEMPO 0403/0409 5000 TSRA BKN015CB=
201110032300 TAF LMML 032300Z 0400/0409 05007KT 9999 FEW025
                      PROB30 TEMPO 0400/0409 5000 TSRA BKN015CB=
201110032000 TAF LMML 032000Z 0321/0406 05007KT 9999 FEW025
                      PROB30 TEMPO 0321/0406 5000 TSRA BKN015CB=
201110031700 TAF LMML 031700Z 0318/0403 03005KT 9999 FEW020
                      PROB40 TEMPO 0318/0403 5000 SHRA BKN015TCU
                       PROB30
                      TEMPO 0318/0403 3000 TSRA BKN015CB=
201110031400 TAF LMML 031400Z 0315/0324 04010KT 9999 SCT025
                      TEMPO 0315/0324 5000 SHRA BKN015TCU
                      PROB30 TEMPO 0315/0324 3000 TSRA BKN015CB=
201110031100 TAF LMML 031100Z 0312/0321 04010KT 9999 SCT025
                      TEMPO 0312/031700 5000 SHRA BKN015TCU
                      PROB30 TEMPO 0312/0318 3000 TSRA FEW008 BKN015CB=
201110030800 TAF LMML 030800Z 0309/0318 04010KT 9999 FEW025
                      PROB40 TEMPO 0309/0318 5000 SHRA BKN015TCU
                       PROB30
                      TEMPO 0312/0318 3000 TSRA BKN015CB=
201110030500 TAF LMML 030500Z 0306/0315 04010KT 9999 FEW025
                      TEMPO 0306/0315 8000 SHRA BKN015TCU
                      PROB30 TEMPO 0306/0315 3000 TSRA BKN015CB=
201110030200 TAF LMML 030200Z 0303/0312 33005KT CAVOK
                      BECMG 0303/0306 03010KT 9999 SCT020
                      TEMPO 0306/0312 8000 SHRA BKN015TCU
                      PROB30 TEMPO 0306/0312 3000 TSRA BKN015CB=
201110022300 TAF LMML 022300Z 0300/0309 34005KT CAVOK
                      TEMPO 0300/0309 9999 FEW020=
201110022000 TAF LMML 022000Z 0221/0306 03005KT CAVOK
                      PROB30 TEMPO 0221/0306 9999 FEW020=
201110021700 TAF LMML 021700Z 0218/0303 03007KT 9999 FEW025=
201110021400 TAF LMML 021400Z 0215/0224 03007KT 9999 FEW028=
201110021100 TAF LMML 021100Z 0212/0221 03007KT 9999 FEW028=
201110020800 TAF LMML 020800Z 0209/0218 03005KT 9999 FEW025=
201110020500 TAF LMML 020500Z 0206/0215 34005KT 9999 FEW025=
201110020200 TAF LMML 020200Z 0203/0212 36005KT 9999 FEW025=
201110012300 TAF LMML 012300Z 0200/0209 35004KT 9999 FEW025=
201110012000 TAF LMML 012000Z 0121/0206 03004KT 9999 FEW025=
201110011700 TAF LMML 011700Z 0118/0203 05007KT 9999 FEW020=
201110011400 TAF LMML 011400Z 0115/0124 04010KT 9999 FEW025=
201110011100 TAF LMML 011100Z 0112/0121 04010KT 9999 SCT025=
201110010800 TAF LMML 010800Z 0109/0118 04010KT 9999 FEW020=
201110010500 TAF LMML 010500Z 0106/0115 05008KT 9999 FEW025
                      PROB30 TEMPO 0106/0115 CAVOK=
201110010200 TAF LMML 010200Z 0103/0112 03008KT 9999 FEW025
                      TEMPO 0103/0112 CAVOK=

###################################
#  large TAF from LMML
###################################
201110312300 TAF LMML NIL=
201110311700 TAF LMML NIL=
201110311100 TAF LMML NIL=
201110310500 TAF LMML NIL=
201110302300 TAF LMML NIL=
201110301700 TAF LMML NIL=
201110301100 TAF LMML NIL=
201110300500 TAF LMML NIL=
201110292300 TAF LMML NIL=
201110291700 TAF LMML NIL=
201110291100 TAF LMML NIL=
201110290500 TAF LMML NIL=
201110282300 TAF LMML NIL=
201110281700 TAF LMML NIL=
201110281100 TAF LMML NIL=
201110280500 TAF LMML NIL=
201110272300 TAF LMML NIL=
201110271700 TAF LMML NIL=
201110271100 TAF LMML NIL=
201110270500 TAF LMML NIL=
201110262300 TAF LMML NIL=
201110261700 TAF LMML NIL=
201110261100 TAF LMML NIL=
201110260500 TAF LMML NIL=
201110252300 TAF LMML NIL=
201110251700 TAF LMML NIL=
201110251100 TAF LMML NIL=
201110250500 TAF LMML NIL=
201110242300 TAF LMML NIL=
201110241700 TAF LMML NIL=
201110241100 TAF LMML NIL=
201110240500 TAF LMML NIL=
201110232300 TAF LMML NIL=
201110231700 TAF LMML NIL=
201110231100 TAF LMML NIL=
201110230800 TAF LMML 230800Z 2306/2318 03008KT 9999 SCT015 BKN023=
201110230500 TAF LMML NIL=
201110222300 TAF LMML NIL=
201110221700 TAF LMML NIL=
201110221100 TAF LMML NIL=
201110220500 TAF LMML NIL=
201110212300 TAF LMML NIL=
201110211700 TAF LMML NIL=
201110211100 TAF LMML NIL=
201110210500 TAF LMML NIL=
201110202300 TAF LMML NIL=
201110201700 TAF LMML NIL=
201110201100 TAF LMML NIL=
201110200500 TAF LMML NIL=
201110192300 TAF LMML NIL=
201110191700 TAF LMML NIL=
201110191100 TAF LMML NIL=
201110190500 TAF LMML NIL=
201110182300 TAF LMML NIL=
201110181700 TAF LMML NIL=
201110181100 TAF LMML NIL=
201110180500 TAF LMML NIL=
201110172300 TAF LMML NIL=
201110171700 TAF LMML NIL=
201110171100 TAF LMML NIL=
201110170500 TAF LMML NIL=
201110162300 TAF LMML NIL=
201110161700 TAF LMML NIL=
201110161100 TAF LMML NIL=
201110160500 TAF LMML NIL=
201110152300 TAF LMML NIL=
201110151700 TAF LMML NIL=
201110151100 TAF LMML NIL=
201110150500 TAF LMML NIL=
201110142300 TAF LMML NIL=
201110141700 TAF LMML NIL=
201110141100 TAF LMML NIL=
201110140500 TAF LMML NIL=
201110132300 TAF LMML NIL=
201110131700 TAF LMML NIL=
201110131100 TAF LMML NIL=
201110130500 TAF LMML NIL=
201110122300 TAF LMML NIL=
201110121700 TAF LMML NIL=
201110121100 TAF LMML NIL=
201110120500 TAF LMML NIL=
201110112300 TAF LMML NIL=
201110111700 TAF LMML NIL=
201110111100 TAF LMML NIL=
201110110500 TAF LMML NIL=
201110102300 TAF LMML NIL=
201110101700 TAF LMML NIL=
201110101100 TAF LMML NIL=
201110100500 TAF LMML NIL=
201110092300 TAF LMML NIL=
201110091700 TAF LMML NIL=
201110091100 TAF LMML NIL=
201110090500 TAF LMML NIL=
201110082300 TAF LMML NIL=
201110081700 TAF LMML NIL=
201110081100 TAF LMML NIL=
201110080500 TAF LMML NIL=
201110072300 TAF LMML NIL=
201110071700 TAF LMML NIL=
201110071100 TAF LMML NIL=
201110070500 TAF LMML NIL=
201110062300 TAF LMML NIL=
201110061700 TAF LMML NIL=
201110061100 TAF LMML NIL=
201110060500 TAF LMML NIL=
201110052300 TAF LMML NIL=
201110051700 TAF LMML NIL=
201110051100 TAF LMML NIL=
201110050500 TAF LMML NIL=
201110042300 TAF LMML NIL=
201110041700 TAF LMML NIL=
201110041100 TAF LMML NIL=
201110040500 TAF LMML NIL=
201110031700 TAF LMML NIL=
201110031100 TAF LMML NIL=
201110022300 TAF LMML NIL=
201110021100 TAF LMML NIL=
201110020500 TAF LMML NIL=
201110012300 TAF LMML NIL=
201110011700 TAF LMML NIL=
201110011100 TAF LMML NIL=
201110010500 TAF LMML NIL=
