##########################################################
# Query made at 01/18/2013 17:03:00 UTC
# Time interval: from 10/01/2008 00:00  to 10/31/2008 23:59  UTC
##########################################################

##########################################################
# LMML, Luqa (Malta)
# WMO index: 16597
# Latitude 35-51N. Longitude 014-29E. Altitude 91 m.
##########################################################

###################################
#  METAR/SPECI from LMML
###################################
200810312345 METAR LMML 312345Z 26012KT 200V290 7000 BKN250 23/17 Q1013
                        NOSIG=
200810312315 METAR LMML 312315Z 26013KT 220V290 9999 FEW026 BKN250 23/18
                        Q1013 NOSIG=
200810312245 METAR LMML 312245Z 22011KT 170V270 9999 FEW028 BKN250 25/19
                        Q1013 NOSIG=
200810312230 METAR LMML NIL=
200810312215 METAR LMML 312215Z 19014KT 160V220 CAVOK 25/19 Q1012 NOSIG=
200810312200 METAR LMML NIL=
200810312145 METAR LMML 312145Z 17014KT 140V210 CAVOK 25/18 Q1012 NOSIG=
200810312130 METAR LMML NIL=
200810312115 METAR LMML 312115Z 16013KT 130V190 CAVOK 25/19 Q1012 NOSIG=
200810312100 METAR LMML NIL=
200810312045 METAR LMML 312045Z 16014KT 130V200 CAVOK 25/18 Q1012 NOSIG=
200810312030 LMML NIL=
200810312000 METAR LMML NIL=
200810311945 METAR LMML 311945Z 16015KT 140V200 CAVOK 25/19 Q1011 NOSIG=
200810311930 METAR LMML NIL=
200810311915 METAR LMML 311915Z 16013KT 130V190 9000 SCT120 SCT250 25/18
                        Q1011 NOSIG=
200810311900 METAR LMML NIL=
200810311845 METAR LMML 311845Z 16013KT 100V190 9000 BKN120 25/18 Q1011
                        NOSIG=
200810311830 METAR LMML NIL=
200810311815 METAR LMML 311815Z 15011KT 120V190 9000 SCT120 BKN250 24/18
                        Q1011 NOSIG=
200810311800 METAR LMML NIL=
200810311745 METAR LMML 311745Z 14012KT 110V170 9000 FEW150 BKN250 24/18
                        Q1011 WS RWY13 NOSIG=
200810311730 METAR LMML NIL=
200810311715 METAR LMML 311715Z 15009KT 9000 FEW150 SCT250 23/19 Q1011
                        NOSIG=
200810311700 METAR LMML NIL=
200810311645 METAR LMML 311645Z 14011KT 9000 FEW150 SCT250 23/20 Q1012
                        NOSIG=
200810311630 METAR LMML NIL=
200810311615 METAR LMML 311615Z 14009KT 9000 FEW150 SCT250 23/21 Q1012
                        NOSIG=
200810311600 METAR LMML NIL=
200810311545 METAR LMML 311545Z 12011KT 9000 SCT150 SCT250 23/22 Q1012
                        NOSIG=
200810311530 METAR LMML NIL=
200810311515 METAR LMML 311515Z 12009KT 9000 SCT150 BKN250 24/22 Q1012
                        NOSIG=
200810311500 METAR LMML NIL=
200810311445 METAR LMML 311445Z 12011KT 9000 FEW007 SCT150 BKN250 24/23
                        Q1012 NOSIG=
200810311430 METAR LMML NIL=
200810311415 METAR LMML 311415Z 12012KT 9000 FEW008 BKN250 23/22 Q1012
                        NOSIG=
200810311400 METAR LMML NIL=
200810311345 METAR LMML 311345Z 12015KT 9000 FEW007 BKN250 24/22 Q1012
                        NOSIG=
200810311330 METAR LMML NIL=
200810311315 METAR LMML 311315Z 12015KT CAVOK 24/21 Q1013 NOSIG=
200810311300 METAR LMML NIL=
200810311245 METAR LMML 311245Z 11016KT CAVOK 24/21 Q1013 NOSIG=
200810311230 METAR LMML NIL=
200810311215 METAR LMML 311215Z 11013KT CAVOK 24/21 Q1013 NOSIG=
200810311200 METAR LMML NIL=
200810311145 METAR LMML 311145Z 11011KT CAVOK 24/20 Q1014 NOSIG=
200810311130 METAR LMML NIL=
200810311115 METAR LMML 311115Z 10013KT 9000 SCT120 BKN250 24/20 Q1014
                        NOSIG=
200810311100 METAR LMML NIL=
200810311045 METAR LMML 311045Z 10011KT 070V130 9000 SCT120 BKN250 24/21
                        Q1014 NOSIG=
200810311030 METAR LMML NIL=
200810311015 METAR LMML 311015Z 10011KT 070V140 9999 FEW007 BKN250 24/21
                        Q1015 NOSIG=
200810311000 METAR LMML NIL=
200810310945 METAR LMML 310945Z 09011KT 070V130 9999 FEW007 BKN250 24/21
                        Q1015 NOSIG=
200810310930 METAR LMML NIL=
200810310915 METAR LMML 310915Z 10007KT 070V130 9999 SCT006 24/22 Q1015
                        NOSIG=
200810310900 METAR LMML NIL=
200810310845 METAR LMML 310845Z 09008KT 040V120 9999 FEW006 BKN250 23/22
                        Q1015 NOSIG=
200810310830 METAR LMML NIL=
200810310815 METAR LMML 310815Z 12007KT 090V170 9999 FEW015 SCT120 BKN250
                        23/22 Q1015 NOSIG=
200810310800 METAR LMML NIL=
200810310745 METAR LMML 310745Z 09004KT CAVOK 22/21 Q1015 NOSIG=
200810310730 METAR LMML NIL=
200810310715 METAR LMML 310715Z 09004KT 060V120 7000 FEW120 BKN250 20/20
                        Q1015 BECMG 9999=
200810310700 METAR LMML NIL=
200810310645 METAR LMML 310645Z VRB01KT 7000 FEW120 BKN250 19/19 Q1015
                        BECMG 9999=
200810310630 METAR LMML NIL=
200810310615 METAR LMML 310615Z VRB01KT 6000 BR FEW020 BKN250 19/18 Q1015
                        BECMG 9999=
200810310600 METAR LMML NIL=
200810310545 METAR LMML 310545Z VRB01KT 3000 MIFG FEW020 SCT120 BKN250
                        19/19 Q1014 BECMG 5000=
200810310530 METAR LMML NIL=
200810310515 METAR LMML 310515Z VRB01KT 4000 MIFG FEW028 SCT250 19/19
                        Q1014 NOSIG=
200810310500 METAR LMML NIL=
200810310445 METAR LMML 310445Z 11004KT 9000 MIFG FEW028 SCT250 19/19
                        Q1014 TEMPO 7000=
200810310430 METAR LMML NIL=
200810310415 METAR LMML 310415Z 13005KT 9000 MIFG FEW028 SCT250 19/19
                        Q1014 NOSIG=
200810310400 LMML NIL=
200810310345 LMML 310345Z VRB03KT 9999 FEW028 SCT250 19/19 Q1014 NOSIG=
200810310330 METAR LMML NIL=
200810310315 METAR LMML 310315Z VRB03KT 9999 FEW028 19/19 Q1014 NOSIG=
200810310300 METAR LMML NIL=
200810310245 METAR LMML 310245Z 12005KT 9999 FEW028 19/19 Q1015 NOSIG=
200810310230 METAR LMML NIL=
200810310215 METAR LMML 310215Z 12004KT 9999 FEW028 19/18 Q1015 NOSIG=
200810310200 METAR LMML NIL=
200810310145 METAR LMML 310145Z 11004KT 9999 FEW028 18/18 Q1015 NOSIG=
200810310130 METAR LMML NIL=
200810310115 METAR LMML 310115Z 11004KT 9999 FEW028 18/17 Q1015 NOSIG=
200810310100 METAR LMML NIL=
200810310045 METAR LMML 310045Z 11004KT 9999 FEW028 18/17 Q1015 NOSIG=
200810310030 METAR LMML NIL=
200810310015 METAR LMML 310015Z VRB03KT 9999 FEW028 18/17 Q1015 NOSIG=
200810310000 METAR LMML NIL=
200810302345 METAR LMML 302345Z 09004KT 060V130 9999 FEW028 18/17 Q1015
                        NOSIG=
200810302330 METAR LMML NIL=
200810302315 METAR LMML 302315Z VRB03KT 9999 FEW028 19/17 Q1015 NOSIG=
200810302300 METAR LMML NIL=
200810302245 METAR LMML 302245Z VRB03KT 9999 FEW028 18/17 Q1015 NOSIG=
200810302230 METAR LMML NIL=
200810302215 METAR LMML 302215Z VRB01KT 9999 FEW030 18/17 Q1016 NOSIG=
200810302200 METAR LMML NIL=
200810302145 METAR LMML 302145Z VRB02KT 9999 FEW030 18/17 Q1015 NOSIG=
200810302130 METAR LMML NIL=
200810302115 METAR LMML 302115Z VRB02KT CAVOK 18/17 Q1015 NOSIG=
200810302100 METAR LMML NIL=
200810302045 METAR LMML 302045Z VRB03KT CAVOK 19/17 Q1015 NOSIG=
200810302030 METAR LMML NIL=
200810302015 METAR LMML 302015Z VRB03KT CAVOK 19/17 Q1015 NOSIG=
200810302000 METAR LMML NIL=
200810301945 METAR LMML 301945Z VRB03KT CAVOK 19/17 Q1015 NOSIG=
200810301930 METAR LMML NIL=
200810301915 METAR LMML 301915Z VRB03KT CAVOK 19/17 Q1014 NOSIG=
200810301900 METAR LMML NIL=
200810301845 METAR LMML 301845Z 34004KT 9999 FEW020 19/17 Q1014 NOSIG=
200810301830 METAR LMML NIL=
200810301815 METAR LMML 301815Z VRB02KT CAVOK 19/17 Q1015 NOSIG=
200810301800 METAR LMML NIL=
200810301745 METAR LMML 301745Z VRB03KT CAVOK 19/17 Q1014 NOSIG=
200810301730 METAR LMML NIL=
200810301715 METAR LMML 301715Z 30004KT CAVOK 20/18 Q1014 NOSIG=
200810301700 METAR LMML NIL=
200810301645 METAR LMML 301645Z VRB02KT CAVOK 20/18 Q1014 NOSIG=
200810301630 METAR LMML NIL=
200810301615 METAR LMML 301615Z 30004KT CAVOK 21/18 Q1013 NOSIG=
200810301600 METAR LMML NIL=
200810301530 METAR LMML NIL=
200810301515 METAR LMML 301515Z VRB03KT CAVOK 22/18 Q1013 NOSIG=
200810301500 METAR LMML NIL=
200810301445 METAR LMML 301445Z 18004KT 160V220 CAVOK 23/18 Q1013 NOSIG=
200810301430 METAR LMML NIL=
200810301415 METAR LMML 301415Z VRB03KT CAVOK 23/18 Q1013 NOSIG=
200810301400 METAR LMML NIL=
200810301345 METAR LMML 301345Z VRB02KT CAVOK 23/18 Q1012 NOSIG=
200810301330 METAR LMML NIL=
200810301315 METAR LMML 301315Z 30004KT 260V330 CAVOK 22/18 Q1013 NOSIG=
200810301300 METAR LMML NIL=
200810301245 METAR LMML 301245Z 30005KT 260V320 CAVOK 23/18 Q1013 NOSIG=
200810301230 METAR LMML NIL=
200810301215 METAR LMML 301215Z VRB02KT CAVOK 23/18 Q1013 NOSIG=
200810301200 METAR LMML NIL=
200810301145 METAR LMML 301145Z VRB02KT CAVOK 23/18 Q1013 NOSIG=
200810301130 METAR LMML NIL=
200810301115 METAR LMML 301115Z 33005KT 300V360 CAVOK 22/18 Q1013 NOSIG=
200810301100 METAR LMML NIL=
200810301045 METAR LMML 301045Z 32004KT 280V340 CAVOK 21/18 Q1012 NOSIG=
200810301030 METAR LMML NIL=
200810301015 METAR LMML 301015Z 32007KT CAVOK 21/18 Q1012 NOSIG=
200810301000 METAR LMML NIL=
200810300945 METAR LMML 300945Z 33005KT 300V010 CAVOK 21/18 Q1013 NOSIG=
200810300930 METAR LMML NIL=
200810300915 METAR LMML 300915Z 32010KT CAVOK 21/18 Q1013 NOSIG=
200810300900 METAR LMML NIL=
200810300845 METAR LMML 300845Z 31009KT 9999 FEW012 OVC130 21/19 Q1012
                        NOSIG=
200810300830 METAR LMML NIL=
200810300815 METAR LMML 300815Z 30007KT 250V340 9999 FEW012 OVC130 22/20
                        Q1013 TEMPO 8000 RA BKN011=
200810300800 METAR LMML NIL=
200810300745 METAR LMML 300745Z 31005KT 6000 BKN110 23/22 Q1011 BECMG
                        CAVOK=
200810300730 METAR LMML NIL=
200810300715 METAR LMML 300715Z VRB02KT 7000 BKN120 23/21 Q1010 BECMG
                        CAVOK=
200810300700 METAR LMML NIL=
200810300645 METAR LMML 300645Z VRB03KT 9000 FEW120 SCT250 23/21 Q1010
                        BECMG CAVOK=
200810300630 METAR LMML NIL=
200810300615 METAR LMML 300615Z 23004KT 200V260 9000 FEW120 SCT250 23/20
                        Q1010 BECMG CAVOK=
200810300600 METAR LMML NIL=
200810300545 METAR LMML 300545Z 23007KT 200V280 CAVOK 23/20 Q1010 NOSIG=
200810300530 METAR LMML NIL=
200810300515 METAR LMML 300515Z 22005KT 190V270 CAVOK 23/20 Q1010 NOSIG=
200810300500 METAR LMML NIL=
200810300445 METAR LMML 300445Z 22007KT CAVOK 24/20 Q1010 NOSIG=
200810300430 METAR LMML NIL=
200810300415 METAR LMML 300415Z 22007KT 170V250 CAVOK 24/20 Q1010 NOSIG=
200810300400 METAR LMML NIL=
200810300345 METAR LMML 300345Z 22006KT 180V270 CAVOK 24/19 Q1010 NOSIG=
200810300330 METAR LMML NIL=
200810300315 METAR LMML 300315Z 23006KT 200V260 CAVOK 24/19 Q1010 NOSIG=
200810300300 METAR LMML NIL=
200810300245 METAR LMML 300245Z 21005KT 170V250 CAVOK 24/19 Q1010 NOSIG=
200810300230 METAR LMML NIL=
200810300215 METAR LMML 300215Z 20006KT 160V240 CAVOK 25/19 Q1010 NOSIG=
200810300200 METAR LMML NIL=
200810300145 METAR LMML 300145Z 20007KT 160V250 CAVOK 24/20 Q1010 NOSIG=
200810300130 METAR LMML NIL=
200810300115 METAR LMML 300115Z 20006KT 160V250 CAVOK 24/20 Q1011 NOSIG=
200810300100 METAR LMML NIL=
200810300045 METAR LMML 300045Z 20008KT 170V230 CAVOK 24/20 Q1011 NOSIG=
200810300030 METAR LMML NIL=
200810300015 METAR LMML 300015Z 20006KT 170V240 CAVOK 24/19 Q1011 NOSIG=
200810300000 METAR LMML NIL=
200810292345 METAR LMML 292345Z 21005KT 180V270 9000 FEW120 SCT250 24/19
                        Q1011 NOSIG=
200810292330 METAR LMML NIL=
200810292315 METAR LMML 292315Z 19006KT 170V230 9000 FEW120 SCT250 23/19
                        Q1011 NOSIG=
200810292300 METAR LMML NIL=
200810292245 METAR LMML 292245Z 19006KT 9000 FEW110 SCT250 23/20 Q1012
                        NOSIG=
200810292230 METAR LMML NIL=
200810292215 METAR LMML 292215Z 18005KT 9000 FEW110 SCT250 22/20 Q1012
                        NOSIG=
200810292200 METAR LMML NIL=
200810292145 METAR LMML 292145Z 18005KT 9000 FEW110 SCT250 23/21 Q1012
                        NOSIG=
200810292130 METAR LMML NIL=
200810292115 METAR LMML 292115Z 17005KT 140V210 9000 FEW110 SCT250 23/21
                        Q1012 NOSIG=
200810292100 METAR LMML NIL=
200810292045 METAR LMML 292045Z 17006KT 130V200 9000 FEW120 BKN250 23/21
                        Q1012 NOSIG=
200810292030 METAR LMML NIL=
200810292015 METAR LMML 292015Z 17006KT 130V200 9000 FEW006 SCT250 22/21
                        Q1012 NOSIG=
200810291945 LMML 291945Z 18005KT 9000 FEW006 SCT250 22/21 Q1012 NOSIG=
200810291930 METAR LMML NIL=
200810291915 METAR LMML 291915Z 18006KT 9000 FEW006 SCT250 22/21 Q1012
                        NOSIG=
200810291900 METAR LMML NIL=
200810291845 METAR LMML 291845Z 18006KT 9000 FEW006 SCT250 23/21 Q1012
                        NOSIG=
200810291830 METAR LMML NIL=
200810291815 METAR LMML 291815Z 18006KT 9000 FEW006 SCT250 23/22 Q1012
                        NOSIG=
200810291800 METAR LMML NIL=
200810291745 METAR LMML 291745Z 17006KT 150V210 9000 FEW006 SCT250 23/22
                        Q1012 BECMG 9000=
200810291730 METAR LMML NIL=
200810291715 METAR LMML 291715Z 18006KT 150V220 8000 FEW006 SCT250 23/22
                        Q1012 BECMG 9000=
200810291700 METAR LMML NIL=
200810291645 METAR LMML 291645Z 18007KT 150V210 7000 FEW006 SCT250 23/22
                        Q1012 BECMG 9000=
200810291630 METAR LMML NIL=
200810291615 METAR LMML 291615Z 18007KT 150V210 7000 FEW006 SCT250 23/22
                        Q1012 BECMG 9000=
200810291600 METAR LMML NIL=
200810291545 METAR LMML 291545Z 18008KT 150V220 7000 FEW006 SCT250 23/22
                        Q1012 NOSIG=
200810291530 METAR LMML NIL=
200810291515 METAR LMML 291515Z 18008KT 150V220 9999 FEW006 SCT250 24/22
                        Q1012 NOSIG=
200810291500 METAR LMML NIL=
200810291445 METAR LMML 291445Z 17008KT 140V210 9999 SCT006 24/22 Q1012
                        NOSIG=
200810291430 METAR LMML NIL=
200810291415 METAR LMML 291415Z 16010KT 130V200 9999 SCT006 24/22 Q1011
                        NOSIG=
200810291400 METAR LMML NIL=
200810291345 METAR LMML 291345Z 14011KT 9999 SCT006 24/22 Q1011 NOSIG=
200810291330 METAR LMML NIL=
200810291315 METAR LMML 291315Z 12011KT 9999 FEW007 25/22 Q1011 NOSIG=
200810291245 METAR LMML 291245Z 13010KT 9999 SCT007 SCT120 25/23 Q1011
                        NOSIG=
200810291230 METAR LMML NIL=
200810291215 METAR LMML 291215Z 13011KT 090V150 9999 SCT008 BKN120 24/22
                        Q1011 NOSIG=
200810291200 METAR LMML NIL=
200810291145 METAR LMML 291145Z 12010KT 090V150 9999 SCT007 BKN140 24/22
                        Q1012 NOSIG=
200810291130 METAR LMML NIL=
200810291115 METAR LMML 291115Z 12008KT 090V150 9999 SCT005 BKN140 24/22
                        Q1012 NOSIG=
200810291100 METAR LMML NIL=
200810291045 METAR LMML 291045Z 12009KT 090V150 9999 SCT004 BKN140 24/22
                        Q1012 NOSIG=
200810291030 METAR LMML NIL=
200810291015 METAR LMML 291015Z 09004KT 040V120 9999 -RA FEW020 SCT120
                        BKN250 25/21 Q1013 NOSIG=
200810291000 METAR LMML NIL=
200810290945 METAR LMML 290945Z VRB02KT CAVOK 25/21 Q1014 NOSIG=
200810290930 METAR LMML NIL=
200810290915 METAR LMML 290915Z 04004KT CAVOK 26/21 Q1013 NOSIG=
200810290900 METAR LMML NIL=
200810290845 METAR LMML 290845Z VRB01KT CAVOK 24/19 Q1014 NOSIG=
200810290830 METAR LMML NIL=
200810290815 METAR LMML 290815Z VRB01KT CAVOK 24/20 Q1013 NOSIG=
200810290800 METAR LMML NIL=
200810290745 METAR LMML 290745Z VRB02KT CAVOK 24/22 Q1013 NOSIG=
200810290730 METAR LMML NIL=
200810290715 METAR LMML 290715Z VRB01KT 9000 SCT120 SCT250 23/22 Q1013
                        NOSIG=
200810290700 METAR LMML NIL=
200810290645 METAR LMML 290645Z VRB03KT 8000 SCT120 SCT250 22/22 Q1013
                        NOSIG=
200810290630 METAR LMML NIL=
200810290615 METAR LMML 290615Z 21004KT 8000 SCT120 BKN250 22/21 Q1012
                        NOSIG=
200810290600 METAR LMML NIL=
200810290545 METAR LMML 290545Z VRB03KT 8000 BKN120 SCT250 21/21 Q1012
                        NOSIG=
200810290530 METAR LMML NIL=
200810290515 METAR LMML 290515Z VRB03KT 7000 BKN120 22/21 Q1012 NOSIG=
200810290500 METAR LMML NIL=
200810290445 METAR LMML 290445Z 20004KT 170V230 7000 BKN120 22/22 Q1012
                        NOSIG=
200810290430 METAR LMML NIL=
200810290415 METAR LMML 290415Z 18004KT 7000 SCT120 22/21 Q1011 NOSIG=
200810290400 METAR LMML NIL=
200810290345 METAR LMML 290345Z 17005KT 140V200 7000 SCT120 22/21 Q1011
                        NOSIG=
200810290330 METAR LMML NIL=
200810290315 METAR LMML 290315Z 18004KT 7000 SCT120 22/21 Q1012 NOSIG=
200810290300 METAR LMML NIL=
200810290245 METAR LMML 290245Z 18004KT 7000 FEW120 SCT250 22/21 Q1012
                        NOSIG=
200810290230 METAR LMML NIL=
200810290215 METAR LMML 290215Z VRB03KT 7000 FEW120 SCT250 21/20 Q1012
                        NOSIG=
200810290200 METAR LMML NIL=
200810290145 METAR LMML 290145Z 15007KT 7000 FEW120 SCT250 21/20 Q1012
                        NOSIG=
200810290130 METAR LMML NIL=
200810290115 METAR LMML 290115Z 17004KT 7000 FEW120 BKN250 21/20 Q1012
                        NOSIG=
200810290045 METAR LMML 290045Z 22004KT 7000 FEW120 BKN250 21/20 Q1013
                        NOSIG=
200810290030 METAR LMML NIL=
200810290015 METAR LMML 290015Z VRB02KT 7000 SCT120 BKN250 20/20 Q1013
                        NOSIG=
200810290000 METAR LMML NIL=
200810282345 METAR LMML 282345Z 17004KT 7000 BKN250 21/20 Q1013 NOSIG=
200810282330 METAR LMML NIL=
200810282315 METAR LMML 282315Z 18004KT 7000 SCT250 21/20 Q1013 NOSIG=
200810282300 METAR LMML NIL=
200810282245 METAR LMML 282245Z VRB03KT 9000 FEW120 SCT250 20/19 Q1013
                        NOSIG=
200810282230 METAR LMML NIL=
200810282215 METAR LMML 282215Z VRB03KT 9000 SCT120 SCT250 20/19 Q1013
                        NOSIG=
200810282200 METAR LMML NIL=
200810282145 METAR LMML 282145Z 00000KT 9000 SCT120 19/19 Q1013 NOSIG=
200810282130 METAR LMML NIL=
200810282115 METAR LMML 282115Z VRB02KT CAVOK 19/18 Q1013 NOSIG=
200810282100 METAR LMML NIL=
200810282045 METAR LMML 282045Z VRB02KT CAVOK 20/19 Q1013 NOSIG=
200810282030 METAR LMML NIL=
200810282015 METAR LMML 282015Z 00000KT CAVOK 20/19 Q1013 NOSIG=
200810282000 METAR LMML NIL=
200810281945 METAR LMML 281945Z VRB02KT 9000 FEW120 21/19 Q1013 NOSIG=
200810281930 METAR LMML NIL=
200810281915 METAR LMML 281915Z VRB03KT 9000 FEW120 21/20 Q1013 NOSIG=
200810281900 METAR LMML NIL=
200810281845 METAR LMML 281845Z VRB03KT 9000 FEW250 21/20 Q1012 NOSIG=
200810281830 METAR LMML NIL=
200810281815 METAR LMML 281815Z 26004KT 220V280 9000 FEW250 21/20 Q1013
                        NOSIG=
200810281800 METAR LMML NIL=
200810281745 METAR LMML 281745Z VRB02KT CAVOK 22/21 Q1012 NOSIG=
200810281730 METAR LMML NIL=
200810281715 METAR LMML 281715Z VRB02KT CAVOK 22/21 Q1012 NOSIG=
200810281700 METAR LMML NIL=
200810281645 METAR LMML 281645Z 23004KT CAVOK 22/21 Q1012 NOSIG=
200810281630 METAR LMML NIL=
200810281615 METAR LMML 281615Z VRB03KT CAVOK 23/20 Q1012 NOSIG=
200810281545 METAR LMML 281545Z VRB03KT CAVOK 23/21 Q1011 NOSIG=
200810281530 METAR LMML NIL=
200810281515 METAR LMML 281515Z 20004KT 160V240 9999 FEW016 SCT250 24/21
                        Q1011 NOSIG=
200810281500 METAR LMML NIL=
200810281445 METAR LMML 281445Z VRB03KT 9999 FEW016 SCT250 24/21 Q1011
                        NOSIG=
200810281430 METAR LMML NIL=
200810281415 METAR LMML 281415Z 20006KT 170V230 9999 FEW015 SCT250 25/21
                        Q1011 NOSIG=
200810281400 METAR LMML NIL=
200810281345 METAR LMML 281345Z 18006KT 060V220 9999 FEW012 SCT250 25/21
                        Q1011 NOSIG=
200810281315 METAR LMML 281315Z 17011KT 140V220 9999 FEW012 SCT250 25/22
                        Q1011 NOSIG=
200810281300 METAR LMML NIL=
200810281245 METAR LMML 281245Z 17015KT 140V200 9999 SCT011 SCT250 24/22
                        Q1011 NOSIG=
200810281230 METAR LMML NIL=
200810281215 METAR LMML 281215Z 16015KT 130V190 9999 FEW013 SCT250 25/22
                        Q1011 NOSIG=
200810281200 METAR LMML NIL=
200810281145 METAR LMML 281145Z 16014KT 130V210 9999 BKN014 24/22 Q1012
                        NOSIG=
200810281130 METAR LMML NIL=
200810281115 METAR LMML 281115Z 16016KT 130V190 9999 BKN014 25/21 Q1012
                        NOSIG=
200810281100 METAR LMML NIL=
200810281045 METAR LMML 281045Z 15015KT 120V180 9999 SCT017 24/21 Q1013
                        TEMPO BKN015=
200810281030 METAR LMML NIL=
200810281015 METAR LMML 281015Z 15016KT 120V180 9999 FEW012 SCT250 24/21
                        Q1013 NOSIG=
200810281000 METAR LMML NIL=
200810280945 METAR LMML 280945Z 14016KT 120V180 9999 FEW020 SCT250 24/21
                        Q1013 NOSIG=
200810280930 METAR LMML NIL=
200810280915 METAR LMML 280915Z 14017KT 110V170 9999 FEW015 SCT120 24/20
                        Q1013 NOSIG=
200810280900 METAR LMML NIL=
200810280845 METAR LMML 280845Z 13017KT 100V160 9999 FEW015 SCT120 24/19
                        Q1013 NOSIG=
200810280830 METAR LMML NIL=
200810280815 METAR LMML 280815Z 13015KT 9999 FEW015 SCT120 23/20 Q1014
                        NOSIG=
200810280800 METAR LMML NIL=
200810280745 METAR LMML 280745Z 13013KT 9999 FEW012 SCT120 22/19 Q1014
                        NOSIG=
200810280730 METAR LMML NIL=
200810280715 METAR LMML 280715Z 13013KT 9999 FEW012 BKN120 22/19 Q1014
                        NOSIG=
200810280700 METAR LMML NIL=
200810280645 METAR LMML 280645Z 13013KT 9999 FEW012 BKN120 21/19 Q1014
                        NOSIG=
200810280630 METAR LMML NIL=
200810280615 METAR LMML 280615Z 12011KT 9999 FEW012 BKN120 21/19 Q1014
                        NOSIG=
200810280600 METAR LMML NIL=
200810280545 METAR LMML 280545Z 13011KT 9999 FEW012 BKN120 21/19 Q1014
                        NOSIG=
200810280530 METAR LMML NIL=
200810280515 METAR LMML 280515Z 12008KT 9999 FEW013 BKN120 20/19 Q1014
                        NOSIG=
200810280500 METAR LMML NIL=
200810280445 METAR LMML 280445Z 11007KT 9999 FEW016 SCT120 19/19 Q1014
                        NOSIG=
200810280430 METAR LMML NIL=
200810280415 METAR LMML 280415Z 10006KT 9999 FEW016 19/18 Q1014 NOSIG=
200810280400 METAR LMML NIL=
200810280345 METAR LMML 280345Z 11005KT 9999 FEW016 18/18 Q1015 NOSIG=
200810280330 METAR LMML NIL=
200810280315 METAR LMML 280315Z 09004KT 050V110 9999 FEW017 18/18 Q1015
                        NOSIG=
200810280300 METAR LMML NIL=
200810280245 METAR LMML 280245Z VRB03KT 9999 FEW016 SCT120 18/18 Q1015
                        NOSIG=
200810280230 METAR LMML NIL=
200810280215 METAR LMML 280215Z VRB02KT 9999 FEW015 SCT120 18/17 Q1016
                        NOSIG=
200810280200 METAR LMML NIL=
200810280145 METAR LMML 280145Z VRB02KT CAVOK 18/18 Q1016 NOSIG=
200810280115 METAR LMML 280115Z 00000KT CAVOK 18/18 Q1016 NOSIG=
200810280100 METAR LMML NIL=
200810280045 METAR LMML 280045Z VRB02KT 9999 FEW016 SCT120 19/18 Q1016
                        NOSIG=
200810280030 METAR LMML NIL=
200810280015 METAR LMML 280015Z VRB03KT CAVOK 20/18 Q1016 NOSIG=
200810280000 METAR LMML NIL=
200810272345 METAR LMML 272345Z VRB02KT 9999 FEW016 BKN120 20/18 Q1016
                        NOSIG=
200810272330 METAR LMML NIL=
200810272315 METAR LMML 272315Z VRB03KT 9999 FEW016 BKN120 20/18 Q1016
                        NOSIG=
200810272245 METAR LMML 272245Z 17004KT 9999 FEW015 BKN120 20/18 Q1016
                        NOSIG=
200810272230 METAR LMML NIL=
200810272215 METAR LMML 272215Z 16004KT 110V190 9999 -SHRA FEW016 BKN120
                        20/18 Q1016 NOSIG=
200810272200 METAR LMML NIL=
200810272145 METAR LMML 272145Z 16004KT 130V230 9999 -SHRA FEW017 SCT090
                        SCT110 20/18 Q1017 NOSIG=
200810272130 METAR LMML NIL=
200810272115 METAR LMML 272115Z 17004KT 9999 FEW016 SCT090 20/18 Q1016
                        NOSIG=
200810272100 METAR LMML NIL=
200810272045 METAR LMML 272045Z 15005KT 9999 FEW017 SCT120 20/18 Q1016
                        NOSIG=
200810272030 METAR LMML NIL=
200810272015 METAR LMML 272015Z 17004KT 9999 FEW017 20/18 Q1017 NOSIG=
200810272000 METAR LMML NIL=
200810271945 METAR LMML 271945Z 17004KT 9999 FEW017 20/17 Q1017 NOSIG=
200810271915 METAR LMML 271915Z 17004KT 9999 FEW017 20/17 Q1017 NOSIG=
200810271900 METAR LMML NIL=
200810271845 METAR LMML 271845Z 18004KT 110V210 9999 FEW040 20/17 Q1017
                        NOSIG=
200810271830 METAR LMML NIL=
200810271815 METAR LMML 271815Z 17004KT CAVOK 19/17 Q1017 NOSIG=
200810271800 METAR LMML NIL=
200810271745 METAR LMML 271745Z 17004KT 9999 FEW020 19/17 Q1017 NOSIG=
200810271730 METAR LMML NIL=
200810271715 METAR LMML 271715Z VRB02KT 9999 FEW020 20/17 Q1017 NOSIG=
200810271700 METAR LMML NIL=
200810271645 METAR LMML 271645Z VRB02KT 9999 FEW020 SCT250 20/17 Q1017
                        NOSIG=
200810271630 METAR LMML NIL=
200810271615 METAR LMML 271615Z VRB02KT 9999 FEW020 SCT250 21/17 Q1017
                        NOSIG=
200810271600 METAR LMML NIL=
200810271545 METAR LMML 271545Z VRB02KT 9999 FEW020 BKN250 21/17 Q1017
                        NOSIG=
200810271530 METAR LMML NIL=
200810271515 METAR LMML 271515Z 18004KT 140V220 9999 FEW020 BKN250 22/17
                        Q1017 NOSIG=
200810271500 METAR LMML NIL=
200810271445 METAR LMML 271445Z VRB03KT 9999 FEW020 BKN250 22/17 Q1017
                        NOSIG=
200810271430 METAR LMML NIL=
200810271415 METAR LMML 271415Z VRB03KT 9999 FEW020 BKN250 21/18 Q1017
                        NOSIG=
200810271400 METAR LMML NIL=
200810271345 METAR LMML 271345Z 18004KT 160V220 9999 FEW020 BKN250 22/17
                        Q1017 NOSIG=
200810271330 METAR LMML NIL=
200810271315 METAR LMML 271315Z VRB03KT 9999 FEW020 BKN250 22/17 Q1017
                        NOSIG=
200810271300 METAR LMML NIL=
200810271245 METAR LMML 271245Z VRB02KT 9999 FEW020 BKN250 22/17 Q1018
                        NOSIG=
200810271230 METAR LMML NIL=
200810271215 METAR LMML 271215Z VRB02KT 9999 FEW020 SCT130 BKN250 22/17
                        Q1018 NOSIG=
200810271200 METAR LMML NIL=
200810271145 METAR LMML 271145Z VRB02KT 9999 SCT020 BKN250 22/17 Q1018
                        NOSIG=
200810271130 METAR LMML NIL=
200810271115 METAR LMML 271115Z 21004KT 170V280 9999 SCT018 BKN250 22/17
                        Q1019 NOSIG=
200810271100 LMML NIL=
200810271045 METAR LMML 271045Z VRB02KT 9999 SCT018 BKN250 22/18 Q1019
                        NOSIG=
200810271015 METAR LMML 271015Z VRB02KT 9999 SCT019 BKN250 22/18 Q1020
                        NOSIG=
200810271000 METAR LMML NIL=
200810270945 METAR LMML 270945Z VRB02KT 9999 SCT019 BKN250 22/18 Q1020
                        NOSIG=
200810270930 METAR LMML NIL=
200810270915 METAR LMML 270915Z VRB03KT 9999 SCT018 BKN250 22/18 Q1020
                        NOSIG=
200810270900 METAR LMML NIL=
200810270845 METAR LMML 270845Z VRB03KT 9999 SCT017 BKN250 22/18 Q1020
                        NOSIG=
200810270830 METAR LMML NIL=
200810270815 METAR LMML 270815Z VRB02KT 9999 FEW017 BKN250 21/18 Q1020
                        NOSIG=
200810270800 METAR LMML NIL=
200810270745 METAR LMML 270745Z VRB01KT 9999 FEW018 BKN250 21/18 Q1020
                        NOSIG=
200810270730 METAR LMML NIL=
200810270715 METAR LMML 270715Z VRB01KT 9999 FEW016 BKN250 19/18 Q1020
                        NOSIG=
200810270700 METAR LMML NIL=
200810270645 METAR LMML 270645Z VRB01KT 9999 FEW016 BKN250 18/17 Q1019
                        NOSIG=
200810270630 METAR LMML NIL=
200810270615 METAR LMML 270615Z VRB01KT 9999 FEW020 BKN250 16/16 Q1019
                        NOSIG=
200810270600 METAR LMML NIL=
200810270545 METAR LMML 270545Z VRB01KT 9999 FEW015 SCT250 16/16 Q1019
                        NOSIG=
200810270530 METAR LMML NIL=
200810270515 METAR LMML 270515Z VRB01KT 9999 FEW015 SCT250 16/16 Q1019
                        NOSIG=
200810270500 METAR LMML NIL=
200810270445 METAR LMML 270445Z 00000KT 9999 FEW015 16/16 Q1019 NOSIG=
200810270430 METAR LMML NIL=
200810270415 METAR LMML 270415Z VRB01KT 9999 FEW020 16/16 Q1019 NOSIG=
200810270400 METAR LMML NIL=
200810270345 METAR LMML 270345Z VRB02KT 9999 FEW020 16/16 Q1019 NOSIG=
200810270330 METAR LMML NIL=
200810270315 METAR LMML 270315Z VRB02KT 9999 FEW020 16/16 Q1020 NOSIG=
200810270300 METAR LMML NIL=
200810270245 METAR LMML 270245Z VRB02KT 9999 FEW020 16/16 Q1020 NOSIG=
200810270230 METAR LMML NIL=
200810270215 METAR LMML 270215Z VRB02KT 9999 FEW020 16/16 Q1020 NOSIG=
200810270200 METAR LMML NIL=
200810270145 METAR LMML 270145Z VRB02KT 9999 FEW020 17/16 Q1020 NOSIG=
200810270130 METAR LMML NIL=
200810270115 METAR LMML 270115Z VRB02KT 9999 FEW020 16/16 Q1020 NOSIG=
200810270100 METAR LMML NIL=
200810270045 METAR LMML 270045Z VRB01KT 9999 FEW018 16/16 Q1020 NOSIG=
200810270015 METAR LMML 270015Z VRB02KT 9999 FEW016 16/16 Q1020 NOSIG=
200810262345 METAR LMML 262345Z VRB02KT 9999 FEW020 16/16 Q1021 NOSIG=
200810262315 METAR LMML 262315Z VRB02KT 9999 FEW020 16/16 Q1021 NOSIG=
200810262300 METAR LMML NIL=
200810262245 METAR LMML 262245Z VRB01KT 9999 FEW020 16/16 Q1021 NOSIG=
200810262230 METAR LMML NIL=
200810262215 METAR LMML 262215Z VRB01KT 9999 FEW021 16/16 Q1021 NOSIG=
200810262200 METAR LMML NIL=
200810262145 METAR LMML 262145Z VRB02KT 9999 FEW021 16/16 Q1021 NOSIG=
200810262130 METAR LMML NIL=
200810262115 METAR LMML 262115Z VRB01KT 9999 FEW021 16/16 Q1021 NOSIG=
200810262045 METAR LMML 262045Z VRB01KT 9999 FEW021 17/16 Q1022 NOSIG=
200810262015 METAR LMML 262015Z VRB01KT 9999 FEW021 17/16 Q1022 NOSIG=
200810261945 METAR LMML 261945Z VRB03KT 9999 FEW021 17/17 Q1022 NOSIG=
200810261930 METAR LMML NIL=
200810261915 METAR LMML 261915Z VRB02KT 9999 FEW030 18/17 Q1022 NOSIG=
200810261900 METAR LMML NIL=
200810261845 METAR LMML 261845Z VRB02KT 9999 FEW036 18/17 Q1022 NOSIG=
200810261830 METAR LMML NIL=
200810261815 METAR LMML 261815Z VRB01KT 9999 SCT036 SCT050 18/17 Q1021
                        TEMPO 8000 SHRA BKN015=
200810261800 METAR LMML NIL=
200810261745 METAR LMML 261745Z VRB02KT 9999 SCT020 SCT042 BKN000 18/18
                        Q1022 NOSIG=
200810261730 METAR LMML NIL=
200810261715 METAR LMML 261715Z VRB01KT 9999 FEW021 SCT039 18/17 Q1022
                        NOSIG=
200810261700 METAR LMML NIL=
200810261645 METAR LMML 261645Z VRB02KT 9999 SCT040 SCT250 19/17 Q1021
                        NOSIG=
200810261630 METAR LMML NIL=
200810261615 METAR LMML 261615Z VRB01KT 9999 FEW020 SCT250 18/17 Q1021
                        NOSIG=
200810261600 METAR LMML NIL=
200810261545 METAR LMML 261545Z VRB02KT 9999 FEW020 SCT130 BKN250 19/18
                        Q1021 NOSIG=
200810261530 METAR LMML NIL=
200810261515 METAR LMML 261515Z VRB02KT 9999 FEW020 SCT130 BKN250 19/17
                        Q1021 NOSIG=
200810261500 METAR LMML NIL=
200810261445 METAR LMML 261445Z 16004KT 110V190 9999 FEW009 FEW020TCU
                        BKN130 18/17 Q1021 RETS NOSIG RMK
                        DISTANT LIGHTNING TO SE=
200810261430 METAR LMML NIL=
200810261415 METAR LMML 261415Z 15004KT 120V180 9999 -RA FEW012 SCT020CB
                        BKN130 18/17 Q1021 RETS NOSIG=
200810261400 METAR LMML NIL=
200810261345 METAR LMML 261345Z 13007KT 6000 TSRA OVC015CB 17/16 Q1021
                        TEMPO 3000 TSRA BKN015CB=
200810261330 METAR LMML NIL=
200810261315 METAR LMML 261315Z 24005KT 200V290 4000 TSRA OVC015CB 17/15
                        Q1022 TEMPO 3000 TSRA BKN015CB=
200810261300 METAR LMML NIL=
200810261245 METAR LMML 261245Z 22005KT 190V270 5000 RA FEW018 SCT080
                        OVC100 19/17 Q1023 TEMPO 5000 TSRA
                        BKN015CB=
200810261230 METAR LMML NIL=
200810261215 METAR LMML 261215Z 16005KT 130V190 8000 -RA FEW018 SCT100
                        BKN140 19/16 Q1022 TEMPO 5000 TSRA
                        BKN015CB=
200810261145 METAR LMML 261145Z 19005KT 160V230 8000 -SHRA FEW022CB SCT039
                        OVC100 20/17 Q1023 TEMPO 5000 TSRA
                        BKN015CB=
200810261130 METAR LMML NIL=
200810261115 METAR LMML 261115Z 15005KT 110V190 9999 SCT021CB BKN100 22/17
                        Q1023 TEMPO 5000 TSRA BKN015CB=
200810261100 METAR LMML NIL=
200810261045 METAR LMML 261045Z 14005KT 120V180 9999 FEW022TCU BKN100
                        22/17 Q1024 TEMPO 5000 SHRA BKN015=
200810261030 METAR LMML NIL=
200810261015 METAR LMML 261015Z 14007KT 120V190 9999 SCT022 BKN120 22/17
                        Q1024 TEMPO 5000 SHRA BKN015=
200810261000 METAR LMML NIL=
200810260945 METAR LMML 260945Z 14008KT 100V160 9999 SCT020 BKN110 22/18
                        Q1024 TEMPO 5000 SHRA BKN015=
200810260915 METAR LMML 260915Z 14008KT 110V170 9999 SCT020 SCT120 23/18
                        Q1024 NOSIG=
200810260900 METAR LMML NIL=
200810260845 METAR LMML 260845Z 14009KT 9999 SCT022 BKN120 22/17 Q1024
                        NOSIG=
200810260830 METAR LMML NIL=
200810260815 METAR LMML 260815Z 12009KT 9999 FEW021 SCT120 22/18 Q1024
                        NOSIG=
200810260800 METAR LMML NIL=
200810260745 METAR LMML 260745Z 11006KT 080V140 9999 FEW021 22/17 Q1024
                        NOSIG=
200810260730 METAR LMML NIL=
200810260715 METAR LMML 260715Z 11007KT 9999 FEW021 21/17 Q1023 NOSIG
                        RMK CB TOPS TO SSW=
200810260700 METAR LMML NIL=
200810260645 METAR LMML 260645Z 11004KT 080V150 9999 FEW021 20/17 Q1024
                        NOSIG RMK CB TOPS TO SSW=
200810260630 METAR LMML NIL=
200810260615 METAR LMML 260615Z VRB02KT 9999 FEW021TCU 18/16 Q1024 NOSIG=
200810260545 METAR LMML 260545Z VRB01KT 9999 FEW020 17/16 Q1023 NOSIG
                        RMK CB TOP TO SSE=
200810260530 METAR LMML NIL=
200810260515 METAR LMML 260515Z VRB01KT 9999 FEW020 17/16 Q1023 NOSIG=
200810260445 METAR LMML 260445Z VRB01KT 9999 FEW020 17/16 Q1023 NOSIG=
200810260430 METAR LMML NIL=
200810260415 METAR LMML 260415Z VRB02KT 9999 FEW020 18/16 Q1023 NOSIG=
200810260400 METAR LMML NIL=
200810260345 METAR LMML 260345Z 09005KT 060V120 CAVOK 19/16 Q1023 NOSIG=
200810260330 METAR LMML NIL=
200810260315 METAR LMML 260315Z VRB03KT 9999 FEW020 18/16 Q1023 NOSIG=
200810260245 METAR LMML 260245Z VRB02KT 9999 FEW020 SCT120 18/17 Q1023
                        NOSIG=
200810260215 METAR LMML 260215Z VRB03KT 9999 FEW020 SCT120 19/17 Q1023
                        NOSIG=
200810260145 METAR LMML 260145Z VRB03KT 9999 FEW020 20/17 Q1024 NOSIG=
200810260130 METAR LMML NIL=
200810260115 METAR LMML 260115Z 08004KT 9999 FEW021 20/17 Q1023 NOSIG=
200810260045 METAR LMML 260045Z 08004KT 050V110 9999 FEW023 19/17 Q1024
                        NOSIG=
200810260030 METAR LMML NIL=
200810260015 METAR LMML 260015Z VRB03KT 9999 FEW022 18/16 Q1024 NOSIG=
200810260000 METAR LMML NIL=
200810252345 METAR LMML 252345Z 09004KT 9999 FEW022 18/16 Q1024 NOSIG=
200810252330 METAR LMML NIL=
200810252315 METAR LMML 252315Z VRB02KT 9999 FEW021 19/16 Q1024 NOSIG=
200810252300 METAR LMML NIL=
200810252245 METAR LMML 252245Z VRB03KT 9999 FEW021 19/16 Q1024 NOSIG=
200810252230 METAR LMML NIL=
200810252215 METAR LMML 252215Z VRB03KT 9999 FEW020 19/17 Q1025 NOSIG=
200810252200 METAR LMML NIL=
200810252145 METAR LMML 252145Z VRB03KT 9999 FEW021 19/17 Q1025 NOSIG=
200810252130 METAR LMML NIL=
200810252115 METAR LMML 252115Z 07004KT 030V100 9999 FEW021 20/17 Q1025
                        NOSIG=
200810252100 METAR LMML NIL=
200810252045 METAR LMML 252045Z VRB03KT 9999 FEW021 20/17 Q1025 NOSIG=
200810252030 METAR LMML NIL=
200810252015 METAR LMML 252015Z 08004KT 030V100 9999 FEW020 20/17 Q1025
                        NOSIG=
200810252000 METAR LMML NIL=
200810251945 METAR LMML 251945Z 10004KT 9999 FEW020 21/17 Q1025 NOSIG=
200810251930 METAR LMML NIL=
200810251915 METAR LMML 251915Z VRB03KT 9999 FEW020 20/17 Q1024 NOSIG=
200810251900 METAR LMML NIL=
200810251845 METAR LMML 251845Z 07004KT 9999 FEW020 20/17 Q1024 NOSIG=
200810251830 METAR LMML NIL=
200810251815 METAR LMML 251815Z 10004KT 060V130 9999 FEW020 20/17 Q1024
                        NOSIG=
200810251800 METAR LMML NIL=
200810251745 METAR LMML 251745Z VRB03KT 9999 FEW020 21/17 Q1024 NOSIG=
200810251730 METAR LMML NIL=
200810251715 METAR LMML 251715Z VRB03KT 9999 FEW020 21/17 Q1024 NOSIG=
200810251700 METAR LMML NIL=
200810251645 METAR LMML 251645Z VRB03KT 9999 FEW020 SCT120 21/17 Q1024
                        NOSIG=
200810251630 METAR LMML NIL=
200810251615 METAR LMML 251615Z 10004KT 070V140 9999 FEW020 SCT140 21/17
                        Q1023 NOSIG=
200810251600 METAR LMML NIL=
200810251545 METAR LMML 251545Z 12005KT 9999 FEW020 SCT250 21/17 Q1023
                        NOSIG=
200810251530 METAR LMML NIL=
200810251515 METAR LMML 251515Z 11006KT 060V150 9999 FEW020 SCT140 BKN250
                        22/17 Q1023 NOSIG=
200810251500 METAR LMML NIL=
200810251445 METAR LMML 251445Z 09005KT 040V140 9999 FEW020 SCT140 22/17
                        Q1023 NOSIG=
200810251430 METAR LMML NIL=
200810251415 METAR LMML 251415Z 08004KT 030V140 9999 FEW020 BKN250 23/17
                        Q1023 NOSIG=
200810251400 METAR LMML NIL=
200810251345 METAR LMML 251345Z 08005KT 020V110 9999 FEW020 BKN250 23/17
                        Q1023 NOSIG=
200810251330 METAR LMML NIL=
200810251315 METAR LMML 251315Z 12006KT 080V160 9999 FEW022 BKN025 23/17
                        Q1023 NOSIG=
200810251300 METAR LMML NIL=
200810251245 METAR LMML 251245Z 12005KT 080V160 9999 FEW022 BKN250 23/17
                        Q1023 NOSIG=
200810251230 METAR LMML NIL=
200810251215 METAR LMML 251215Z 11005KT 050V160 9999 FEW023 SCT250 23/18
                        Q1023 NOSIG=
200810251200 METAR LMML NIL=
200810251145 METAR LMML 251145Z 14006KT 100V170 9999 FEW023 SCT250 23/18
                        Q1023 NOSIG=
200810251130 METAR LMML NIL=
200810251115 METAR LMML 251115Z 13006KT 060V160 9999 FEW023 SCT250 23/18
                        Q1023 NOSIG=
200810251100 METAR LMML NIL=
200810251045 METAR LMML 251045Z 11007KT 080V140 9999 FEW022 SCT120 22/18
                        Q1024 NOSIG=
200810251030 METAR LMML NIL=
200810251015 METAR LMML 251015Z 13006KT 100V160 9999 SCT023 SCT120 22/18
                        Q1024 NOSIG=
200810250945 METAR LMML 250945Z 13008KT 090V150 9999 SCT022 SCT120 23/18
                        Q1024 NOSIG=
200810250930 METAR LMML NIL=
200810250915 METAR LMML 250915Z 10006KT 060V140 9999 SCT022 SCT120 22/18
                        Q1024 NOSIG=
200810250900 METAR LMML NIL=
200810250845 METAR LMML 250845Z 10007KT 060V130 9999 SCT020 BKN120 22/18
                        Q1024 NOSIG=
200810250830 METAR LMML NIL=
200810250815 METAR LMML 250815Z 11006KT 9999 SCT020 BKN120 22/18 Q1024
                        NOSIG=
200810250800 METAR LMML NIL=
200810250745 METAR LMML 250745Z 10006KT 030V160 9999 FEW020 BKN120 22/18
                        Q1023 NOSIG=
200810250730 LMML NIL=
200810250715 METAR LMML 250715Z VRB03KT 9999 FEW020 BKN120 21/18 Q1023
                        NOSIG=
200810250700 METAR LMML NIL=
200810250645 METAR LMML 250645Z VRB03KT 9999 FEW019 BKN120 20/18 Q1023
                        NOSIG=
200810250630 METAR LMML NIL=
200810250615 METAR LMML 250615Z VRB02KT 9999 FEW021 BKN120 19/17 Q1023
                        NOSIG=
200810250600 METAR LMML NIL=
200810250545 METAR LMML 250545Z VRB03KT 9999 FEW019 SCT120 19/17 Q1022
                        NOSIG=
200810250530 METAR LMML NIL=
200810250515 METAR LMML 250515Z 09004KT 050V110 9999 FEW018 SCT120 18/17
                        Q1022 NOSIG=
200810250500 METAR LMML NIL=
200810250445 METAR LMML 250445Z VRB03KT 9999 FEW019 18/17 Q1022 NOSIG=
200810250430 METAR LMML NIL=
200810250415 METAR LMML 250415Z VRB01KT 9999 SCT021 17/16 Q1022 NOSIG=
200810250400 METAR LMML NIL=
200810250345 METAR LMML 250345Z 00000KT 9999 SCT020 17/16 Q1022 NOSIG=
200810250330 METAR LMML NIL=
200810250315 METAR LMML 250315Z VRB02KT 9999 SCT023 17/16 Q1022 NOSIG=
200810250300 METAR LMML NIL=
200810250245 METAR LMML 250245Z VRB03KT 9999 FEW020 18/17 Q1021 NOSIG=
200810250230 METAR LMML NIL=
200810250215 METAR LMML 250215Z VRB02KT CAVOK 17/16 Q1022 NOSIG=
200810250200 METAR LMML NIL=
200810250145 METAR LMML 250145Z 00000KT CAVOK 17/16 Q1022 NOSIG=
200810250130 METAR LMML NIL=
200810250115 METAR LMML 250115Z VRB01KT 9999 FEW020 17/16 Q1022 NOSIG=
200810250100 METAR LMML NIL=
200810250045 METAR LMML 250045Z VRB01KT 9999 FEW020 18/17 Q1023 NOSIG=
200810250030 METAR LMML NIL=
200810250015 METAR LMML 250015Z VRB01KT 9999 FEW020 18/17 Q1023 NOSIG=
200810250000 METAR LMML NIL=
200810242345 METAR LMML 242345Z VRB01KT CAVOK 18/17 Q1023 NOSIG=
200810242330 METAR LMML NIL=
200810242315 METAR LMML 242315Z VRB01KT 9999 FEW020 18/17 Q1023 NOSIG=
200810242300 METAR LMML NIL=
200810242245 METAR LMML 242245Z 00000KT 9999 FEW020 18/17 Q1023 NOSIG=
200810242230 METAR LMML NIL=
200810242215 METAR LMML 242215Z VRB01KT 9999 FEW020 18/17 Q1023 NOSIG=
200810242200 METAR LMML NIL=
200810242145 METAR LMML 242145Z VRB02KT 9999 FEW020 19/18 Q1023 NOSIG=
200810242130 METAR LMML NIL=
200810242115 METAR LMML 242115Z VRB02KT 9999 FEW022 20/18 Q1023 NOSIG=
200810242100 METAR LMML NIL=
200810242045 METAR LMML 242045Z VRB03KT 9999 FEW022 20/18 Q1023 NOSIG=
200810242030 METAR LMML NIL=
200810242015 METAR LMML 242015Z VRB02KT 9999 FEW020 20/18 Q1023 NOSIG=
200810242000 METAR LMML NIL=
200810241945 METAR LMML 241945Z VRB03KT 9999 FEW019 21/17 Q1023 NOSIG=
200810241930 METAR LMML NIL=
200810241915 METAR LMML 241915Z 13004KT 9999 FEW020 20/18 Q1023 NOSIG=
200810241900 METAR LMML NIL=
200810241845 METAR LMML 241845Z 11005KT 9999 FEW018 20/18 Q1022 NOSIG=
200810241830 METAR LMML NIL=
200810241815 METAR LMML 241815Z 11005KT 070V140 9999 FEW021 21/18 Q1022
                        NOSIG=
200810241800 METAR LMML NIL=
200810241745 METAR LMML 241745Z 10005KT 9999 FEW021 21/18 Q1022 NOSIG=
200810241730 METAR LMML NIL=
200810241715 METAR LMML 241715Z 10005KT 9999 FEW021 21/18 Q1022 NOSIG=
200810241700 METAR LMML NIL=
200810241645 METAR LMML 241645Z 12004KT CAVOK 21/18 Q1022 NOSIG=
200810241630 METAR LMML NIL=
200810241615 METAR LMML 241615Z 12006KT 9999 FEW021 21/18 Q1021 NOSIG=
200810241600 METAR LMML NIL=
200810241545 METAR LMML 241545Z 10008KT 9999 SCT022 22/18 Q1021 NOSIG=
200810241530 METAR LMML NIL=
200810241515 METAR LMML 241515Z 12008KT 080V140 9999 SCT023 22/18 Q1020
                        NOSIG=
200810241500 METAR LMML NIL=
200810241445 METAR LMML 241445Z 11009KT 070V140 9999 SCT024 23/18 Q1020
                        NOSIG=
200810241430 METAR LMML NIL=
200810241415 METAR LMML 241415Z 12009KT 080V140 9999 SCT024 23/18 Q1020
                        NOSIG=
200810241400 METAR LMML NIL=
200810241345 METAR LMML 241345Z 11009KT 080V140 9999 SCT024 23/18 Q1020
                        NOSIG=
200810241330 METAR LMML NIL=
200810241315 METAR LMML 241315Z 11010KT 080V140 9999 SCT024 23/18 Q1020
                        NOSIG=
200810241300 METAR LMML NIL=
200810241245 METAR LMML 241245Z 10009KT 030V140 9999 SCT024 23/18 Q1020
                        NOSIG=
200810241230 METAR LMML NIL=
200810241215 METAR LMML 241215Z 09008KT 050V120 9999 SCT023 24/18 Q1021
                        NOSIG=
200810241200 METAR LMML NIL=
200810241145 METAR LMML 241145Z 11008KT 040V150 9999 SCT023 24/19 Q1021
                        NOSIG=
200810241130 METAR LMML NIL=
200810241115 METAR LMML 241115Z 13008KT 090V160 9999 BKN024 24/18 Q1021
                        NOSIG=
200810241100 METAR LMML NIL=
200810241045 METAR LMML 241045Z 12009KT 080V150 9999 SCT024 24/19 Q1021
                        NOSIG=
200810241030 METAR LMML NIL=
200810241015 METAR LMML 241015Z 13009KT 090V160 9999 SCT024 24/18 Q1021
                        NOSIG=
200810241000 METAR LMML NIL=
200810240945 METAR LMML 240945Z 12010KT 090V160 9999 SCT024 24/18 Q1021
                        NOSIG=
200810240930 METAR LMML NIL=
200810240915 METAR LMML 240915Z 11008KT 070V140 9999 SCT025 23/19 Q1021
                        NOSIG=
200810240900 METAR LMML NIL=
200810240845 METAR LMML 240845Z 11008KT 090V150 9999 SCT024 23/19 Q1021
                        NOSIG=
200810240830 METAR LMML NIL=
200810240815 METAR LMML 240815Z 11008KT 080V140 9999 SCT023 23/18 Q1021
                        NOSIG=
200810240800 METAR LMML NIL=
200810240745 METAR LMML 240745Z 12007KT 080V160 9999 FEW022 SCT110 22/18
                        Q1021 NOSIG=
200810240730 METAR LMML NIL=
200810240715 METAR LMML 240715Z 11007KT 9999 FEW022 SCT110 22/18 Q1021
                        NOSIG=
200810240700 METAR LMML NIL=
200810240645 METAR LMML 240645Z 10005KT 070V170 9999 FEW024 SCT100 22/18
                        Q1020 NOSIG=
200810240630 METAR LMML NIL=
200810240615 METAR LMML 240615Z 09005KT 050V110 9999 FEW025 SCT110 21/18
                        Q1020 NOSIG=
200810240600 METAR LMML NIL=
200810240545 METAR LMML 240545Z 10004KT 9999 SCT020 SCT100 20/18 Q1020
                        NOSIG=
200810240530 METAR LMML NIL=
200810240515 METAR LMML 240515Z VRB03KT 9999 SCT020 BKN100 20/18 Q1020
                        TEMPO 8000 SHRA BKN015=
200810240500 METAR LMML NIL=
200810240445 METAR LMML 240445Z VRB03KT 9999 -RA SCT019 BKN100 20/19 Q1020
                        TEMPO 5000 SHRA BKN015=
200810240430 METAR LMML NIL=
200810240415 METAR LMML 240415Z 13004KT 7000 -RA FEW019 BKN100 20/19 Q1020
                        TEMPO 5000 SHRA BKN015=
200810240400 METAR LMML NIL=
200810240345 METAR LMML 240345Z 14005KT 100V190 6000 -SHRA SCT021 BKN090
                        20/19 Q1020 TEMPO 5000 SHRA BKN015=
200810240315 METAR LMML 240315Z 10004KT 9999 FEW021 SCT060 BKN090 21/18
                        Q1020 TEMPO 5000 SHRA BKN015=
200810240300 METAR LMML NIL=
200810240245 METAR LMML 240245Z 09004KT 050V130 9999 -RA FEW021 SCT060
                        BKN100 21/18 Q1019 TEMPO 5000 SHRA
                        BKN015=
200810240230 METAR LMML NIL=
200810240215 METAR LMML 240215Z 10006KT 9999 FEW021 BKN100 21/18 Q1019
                        TEMPO 5000 TSRA BKN015CB=
200810240200 METAR LMML NIL=
200810240145 METAR LMML 240145Z 10006KT 9999 FEW019 BKN110 21/18 Q1019
                        TEMPO 5000 TSRA BKN015CB=
200810240130 METAR LMML NIL=
200810240115 METAR LMML 240115Z 10006KT 9999 FEW018 BKN100 21/18 Q1019
                        TEMPO 5000 TSRA BKN015CB=
200810240100 METAR LMML NIL=
200810240045 METAR LMML 240045Z 12008KT 9999 FEW018 BKN090 21/19 Q1019
                        TEMPO 5000 TSRA BKN015CB=
200810240030 METAR LMML NIL=
200810240015 METAR LMML 240015Z 13008KT 9999 FEW019 BKN100 21/18 Q1020
                        TEMPO 5000 TSRA BKN015CB=
200810240000 METAR LMML NIL=
200810232345 METAR LMML 232345Z 12008KT 9999 FEW019 BKN100 21/19 Q1020
                        TEMPO 5000 TSRA BKN015CB=
200810232330 METAR LMML NIL=
200810232315 METAR LMML 232315Z 12007KT 9999 SCT018 BKN100 21/18 Q1020
                        TEMPO 5000 TSRA BKN015CB=
200810232300 METAR LMML NIL=
200810232245 METAR LMML 232245Z 12007KT 9999 FEW018 BKN120 21/18 Q1020
                        TEMPO 5000 TSRA BKN015CB=
200810232215 METAR LMML 232215Z 12008KT 9999 FEW019 BKN090 22/18 Q1020
                        TEMPO 5000 TSRA BKN015CB=
200810232200 METAR LMML NIL=
200810232145 METAR LMML 232145Z 11008KT 9999 SCT019 BKN100 22/18 Q1020
                        TEMPO 5000 TSRA BKN015CB=
200810232115 METAR LMML 232115Z 12008KT 9999 SCT018 BKN100 22/18 Q1020
                        TEMPO 5000 TSRA BKN015CB=
200810232100 METAR LMML NIL=
200810232045 METAR LMML 232045Z 11007KT 9999 FEW018 BKN110 22/18 Q1019
                        TEMPO 5000 SHRA BKN015 RMK LIGHTNING
                        TO S=
200810232015 METAR LMML 232015Z 12009KT 9999 FEW018 BKN110 22/19 Q1020
                        TEMPO 5000 TSRA BKN015CB RMK LIGHTNING
                        TO S=
200810232000 METAR LMML NIL=
200810231945 METAR LMML 231945Z 11009KT 9999 FEW018 BKN110 22/19 Q1019
                        TEMPO 5000 SHRA BKN015=
200810231930 METAR LMML NIL=
200810231915 METAR LMML 231915Z 11008KT 9999 FEW018 BKN110 21/19 Q1019
                        TEMPO 5000 SHRA BKN015=
200810231900 METAR LMML NIL=
200810231845 METAR LMML 231845Z 11009KT 9999 FEW017 SCT080 BKN110 22/19
                        Q1019 TEMPO 5000 SHRA BKN015=
200810231830 METAR LMML NIL=
200810231815 METAR LMML 231815Z 11008KT 9999 FEW016 SCT080 BKN110 22/19
                        Q1019 TEMPO 5000 SHRA BKN015=
200810231745 METAR LMML 231745Z 11009KT 9999 FEW016 SCT080 22/19 Q1019
                        TEMPO 5000 SHRA BKN015=
200810231715 METAR LMML 231715Z 11010KT 9999 SCT016 SCT110 22/19 Q1018
                        NOSIG=
200810231645 METAR LMML 231645Z 11010KT 9999 BKN016 BKN110 22/19 Q1018
                        NOSIG=
200810231630 METAR LMML NIL=
200810231615 METAR LMML 231615Z 12011KT 9999 BKN016 SCT110 22/19 Q1017
                        NOSIG=
200810231545 METAR LMML 231545Z 12010KT 9999 SCT016 BKN110 22/19 Q1017
                        NOSIG=
200810231530 METAR LMML NIL=
200810231515 METAR LMML 231515Z 11010KT 9999 BKN016 BKN110 22/19 Q1017
                        NOSIG=
200810231445 METAR LMML 231445Z 12010KT 9999 BKN018 SCT090 22/19 Q1017
                        NOSIG=
200810231430 METAR LMML NIL=
200810231415 METAR LMML 231415Z 11010KT 080V140 9999 SCT017 SCT090 23/19
                        Q1017 NOSIG=
200810231400 METAR LMML NIL=
200810231345 METAR LMML 231345Z 12011KT 9999 SCT018 SCT100 23/20 Q1017
                        NOSIG=
200810231315 METAR LMML 231315Z 11010KT 9999 FEW017 BKN120 23/20 Q1017
                        NOSIG=
200810231245 METAR LMML 231245Z 12011KT 9999 FEW017 SCT090 23/20 Q1017
                        NOSIG=
200810231230 METAR LMML NIL=
200810231215 METAR LMML 231215Z 12011KT 9999 FEW019 BKN110 23/20 Q1017
                        NOSIG=
200810231200 METAR LMML NIL=
200810231145 METAR LMML 231145Z 11009KT 070V150 9999 SCT021 BKN120 24/20
                        Q1018 NOSIG=
200810231130 METAR LMML NIL=
200810231115 METAR LMML 231115Z 12006KT 090V150 9999 -RA SCT020 BKN120
                        23/19 Q1018 NOSIG=
200810231100 METAR LMML NIL=
200810231045 METAR LMML 231045Z 12005KT 9999 FEW022 SCT120 BKN140 23/19
                        Q1018 NOSIG=
200810231030 METAR LMML NIL=
200810231015 METAR LMML 231015Z 17004KT 140V200 9999 -RA FEW022 SCT100
                        BKN140 23/19 Q1019 NOSIG=
200810231000 METAR LMML NIL=
200810230945 METAR LMML 230945Z VRB03KT 9999 -RA FEW022 SCT110 BKN140
                        22/19 Q1019 NOSIG=
200810230930 METAR LMML NIL=
200810230915 METAR LMML 230915Z VRB03KT 9999 -RA FEW023 BKN100 BKN250
                        22/20 Q1019 NOSIG=
200810230900 METAR LMML NIL=
200810230845 METAR LMML 230845Z VRB02KT 9999 -RA FEW022 BKN100 BKN250
                        21/19 Q1019 NOSIG=
200810230830 METAR LMML NIL=
200810230815 METAR LMML 230815Z 12005KT 7000 -RA FEW020TCU BKN100 BKN250
                        21/19 Q1018 NOSIG=
200810230800 METAR LMML NIL=
200810230745 METAR LMML 230745Z VRB03KT 7000 -RA FEW020TCU BKN100 BKN250
                        22/19 Q1018 BECMG 6000 TSRA BKN015CB=
200810230730 METAR LMML NIL=
200810230715 LMML 230715Z 15004KT 110V180 9000 FEW018TCU BKN100 BKN250
                        22/19 Q1018 BECMG 6000 TSRA BKN015CB=
200810230700 METAR LMML NIL=
200810230645 METAR LMML 230645Z 14005KT 9999 FEW018TCU SCT110 BKN250 22/19
                        Q1018 BECMG 6000 TSRA BKN015CB=
200810230630 METAR LMML NIL=
200810230615 METAR LMML 230615Z 14005KT 9999 SCT018CB BKN250 21/19 Q1017
                        BECMG 6000 TSRA BKN015CB=
200810230600 METAR LMML NIL=
200810230545 METAR LMML 230545Z 14005KT 9999 FEW015 FEW020TCU BKN250 21/18
                        Q1017 BECMG 6000 TSRA BKN015CB=
200810230530 METAR LMML NIL=
200810230515 METAR LMML 230515Z 15006KT 9999 FEW022 BKN250 21/18 Q1016
                        BECMG 6000 TSRA BKN015CB=
200810230500 METAR LMML NIL=
200810230445 METAR LMML 230445Z 15006KT 9999 SCT025 21/18 Q1017 BECMG
                        6000 TSRA BKN015CB=
200810230430 METAR LMML NIL=
200810230415 METAR LMML 230415Z 14006KT 9999 FEW039 21/18 Q1016 TEMPO
                        TS=
200810230400 METAR LMML NIL=
200810230345 METAR LMML 230345Z 15004KT 9999 FEW039 20/18 Q1016 NOSIG=
200810230330 METAR LMML NIL=
200810230315 METAR LMML 230315Z VRB02KT 9999 SCT020 19/18 Q1016 NOSIG=
200810230300 METAR LMML NIL=
200810230245 METAR LMML 230245Z VRB01KT 9999 SCT019 SCT120 19/18 Q1016
                        NOSIG=
200810230230 METAR LMML NIL=
200810230215 METAR LMML 230215Z VRB02KT 9999 SCT019 SCT120 20/18 Q1016
                        NOSIG=
200810230200 METAR LMML NIL=
200810230145 METAR LMML 230145Z 15004KT 120V180 9999 SCT019 20/18 Q1016
                        NOSIG=
200810230130 METAR LMML NIL=
200810230115 METAR LMML 230115Z 14005KT 9999 SCT019 20/18 Q1016 NOSIG=
200810230100 METAR LMML NIL=
200810230045 METAR LMML 230045Z VRB03KT 9999 SCT017 SCT120 20/18 Q1016
                        NOSIG=
200810230030 METAR LMML NIL=
200810230015 METAR LMML 230015Z 14004KT 9999 FEW016 SCT120 20/18 Q1016
                        NOSIG=
200810230000 METAR LMML NIL=
200810222345 METAR LMML 222345Z 15005KT 9999 FEW015 SCT120 21/18 Q1016
                        NOSIG=
200810222315 METAR LMML 222315Z 16005KT 130V190 9999 FEW015 SCT120 21/18
                        Q1016 NOSIG=
200810222245 METAR LMML 222245Z 14006KT 9999 FEW015 BKN120 21/18 Q1016
                        NOSIG=
200810222215 METAR LMML 222215Z 15008KT 120V180 9999 FEW015 BKN120 21/18
                        Q1016 NOSIG=
200810222145 METAR LMML 222145Z 14008KT 9999 FEW015 BKN120 21/18 Q1016
                        NOSIG=
200810222130 METAR LMML NIL=
200810222115 METAR LMML 222115Z 14010KT 110V170 9999 FEW015 BKN120 20/18
                        Q1017 NOSIG=
200810222045 METAR LMML 222045Z 14010KT 9999 FEW015 BKN100 20/18 Q1017
                        NOSIG=
200810222015 METAR LMML 222015Z 14010KT 9999 FEW012 BKN100 20/18 Q1017
                        NOSIG=
200810222000 METAR LMML NIL=
200810221945 METAR LMML 221945Z 11010KT 9999 RA SCT012 BKN100 20/17 Q1017
                        NOSIG=
200810221930 METAR LMML NIL=
200810221915 METAR LMML 221915Z 12013KT 9000 TSRA SCT012 SCT020CB BKN060
                        20/18 Q1017 BECMG RA=
200810221900 METAR LMML NIL=
200810221845 METAR LMML 221845Z 11014KT 6000 TSRA BKN011 SCT020CB BKN046
                        20/18 Q1017 BECMG 8000=
200810221830 METAR LMML NIL=
200810221815 METAR LMML 221815Z 11006KT 080V140 6000 TSRA SCT013 SCT020CB
                        BKN045 20/19 Q1018 BECMG 8000=
200810221800 METAR LMML NIL=
200810221745 METAR LMML 221745Z 09006KT 060V130 6000 TSRA SCT020CB BKN045
                        20/19 Q1018 NOSIG=
200810221730 METAR LMML NIL=
200810221715 METAR LMML 221715Z 05006KT 020V090 6000 TSRA FEW018CB BKN050
                        21/19 Q1018 NOSIG=
200810221700 METAR LMML NIL=
200810221645 METAR LMML 221645Z 07006KT 040V120 8000 -TSRA FEW018CB BKN100
                        BKN250 21/19 Q1018 TEMPO 8000 TSRA
                        SCT015CB=
200810221630 METAR LMML NIL=
200810221615 METAR LMML 221615Z 03005KT 8000 -TSRA SCT020CB BKN120 OVC250
                        21/19 Q1018 TEMPO 8000 TSRA SCT015CB=
200810221600 METAR LMML NIL=
200810221545 METAR LMML 221545Z 07004KT 040V110 9999 -SHRA FEW020 SCT120
                        OVC250 22/19 Q1018 TEMPO 8000 TSRA
                        SCT015CB=
200810221530 METAR LMML NIL=
200810221515 METAR LMML 221515Z 10004KT 070V150 9999 FEW020 BKN120 OVC250
                        22/18 Q1018 NOSIG=
200810221500 METAR LMML NIL=
200810221445 METAR LMML 221445Z 13007KT 9999 FEW020 BKN120 22/18 Q1017
                        NOSIG=
200810221430 METAR LMML NIL=
200810221415 METAR LMML 221415Z 14006KT 110V170 9999 SCT021 BKN120 22/18
                        Q1017 NOSIG=
200810221345 METAR LMML 221345Z 14008KT 110V180 9999 SCT020 SCT120 BKN250
                        22/18 Q1017 NOSIG=
200810221330 METAR LMML NIL=
200810221315 METAR LMML 221315Z 13011KT 9999 SCT020 BKN250 22/18 Q1016
                        NOSIG=
200810221245 METAR LMML 221245Z 12012KT 9999 BKN020 23/18 Q1016 NOSIG=
200810221230 METAR LMML NIL=
200810221215 METAR LMML 221215Z 13012KT 9999 BKN020 22/18 Q1016 NOSIG=
200810221200 METAR LMML NIL=
200810221145 METAR LMML 221145Z 12014KT 9999 BKN018 23/18 Q1016 NOSIG=
200810221130 METAR LMML NIL=
200810221115 METAR LMML 221115Z 13015KT 100V160 9999 SCT019 23/18 Q1016
                        NOSIG=
200810221100 METAR LMML NIL=
200810221045 METAR LMML 221045Z 12014KT 9999 SCT019 23/18 Q1017 NOSIG=
200810221030 METAR LMML NIL=
200810221015 METAR LMML 221015Z 12013KT 9999 SCT019 22/18 Q1017 NOSIG=
200810220945 METAR LMML 220945Z 12012KT 9999 SCT019 23/18 Q1018 NOSIG=
200810220915 METAR LMML 220915Z 12011KT 080V150 9999 SCT020 SCT250 22/18
                        Q1018 NOSIG=
200810220900 METAR LMML NIL=
200810220845 METAR LMML 220845Z 11011KT 070V150 9999 FEW021 BKN250 22/18
                        Q1018 NOSIG=
200810220830 METAR LMML NIL=
200810220815 METAR LMML 220815Z 12010KT 9999 FEW019 BKN250 22/18 Q1018
                        NOSIG=
200810220800 METAR LMML NIL=
200810220745 METAR LMML 220745Z 11009KT 060V130 9999 FEW021 BKN250 21/17
                        Q1018 NOSIG=
200810220730 METAR LMML NIL=
200810220715 METAR LMML 220715Z 10008KT 9999 FEW019 BKN250 21/17 Q1017
                        NOSIG=
200810220700 METAR LMML NIL=
200810220645 METAR LMML 220645Z 10008KT 050V130 9999 FEW019 SCT250 20/17
                        Q1017 NOSIG=
200810220630 METAR LMML NIL=
200810220615 METAR LMML 220615Z 10006KT 9999 FEW018 SCT250 20/17 Q1017
                        NOSIG=
200810220600 METAR LMML NIL=
200810220545 METAR LMML 220545Z 09006KT 9999 FEW017 SCT250 19/17 Q1017
                        NOSIG=
200810220530 METAR LMML NIL=
200810220515 METAR LMML 220515Z 09005KT 9000 FEW016 SCT250 19/17 Q1017
                        NOSIG=
200810220500 METAR LMML NIL=
200810220445 METAR LMML 220445Z 10005KT 9999 FEW025 19/17 Q1017 NOSIG=
200810220430 METAR LMML NIL=
200810220415 METAR LMML 220415Z VRB03KT 9999 SCT018 19/17 Q1017 NOSIG=
200810220400 METAR LMML NIL=
200810220345 METAR LMML 220345Z 08004KT 040V110 9999 SCT018 19/17 Q1017
                        NOSIG=
200810220330 METAR LMML NIL=
200810220315 METAR LMML 220315Z 08004KT 9999 SCT018 19/17 Q1017 NOSIG=
200810220300 METAR LMML NIL=
200810220245 LMML 220245Z 07004KT 9999 SCT018 19/17 Q1017 NOSIG=
200810220230 METAR LMML NIL=
200810220215 METAR LMML 220215Z VRB01KT 9999 SCT018 18/17 Q1017 NOSIG=
200810220200 METAR LMML NIL=
200810220145 METAR LMML 220145Z VRB03KT 9999 SCT017 19/17 Q1017 NOSIG=
200810220130 METAR LMML NIL=
200810220115 METAR LMML 220115Z 09005KT 9999 SCT018 19/17 Q1017 NOSIG=
200810220100 METAR LMML NIL=
200810220045 METAR LMML 220045Z 09005KT 9999 FEW016 19/17 Q1017 NOSIG=
200810220030 METAR LMML NIL=
200810220015 METAR LMML 220015Z 07004KT 9999 FEW018 19/17 Q1018 NOSIG=
200810220000 METAR LMML NIL=
200810212345 METAR LMML 212345Z 08004KT 030V130 9999 FEW018 20/17 Q1018
                        NOSIG=
200810212330 METAR LMML NIL=
200810212315 METAR LMML 212315Z 08004KT 030V100 9999 FEW018 20/17 Q1018
                        NOSIG=
200810212300 METAR LMML NIL=
200810212245 METAR LMML 212245Z 10005KT 070V130 9999 FEW019 19/17 Q1018
                        NOSIG=
200810212230 METAR LMML NIL=
200810212215 METAR LMML 212215Z VRB03KT 9999 FEW020 20/17 Q1018 NOSIG=
200810212145 METAR LMML 212145Z 10004KT 9999 FEW020 19/17 Q1018 NOSIG=
200810212130 METAR LMML NIL=
200810212115 METAR LMML 212115Z 10004KT 9999 FEW020 19/17 Q1019 NOSIG=
200810212100 METAR LMML NIL=
200810212045 METAR LMML 212045Z 09004KT 9999 FEW020 20/17 Q1019 NOSIG=
200810212030 METAR LMML NIL=
200810212015 METAR LMML 212015Z 09004KT 070V130 9999 FEW019 20/16 Q1019
                        NOSIG=
200810212000 METAR LMML NIL=
200810211945 METAR LMML 211945Z 10005KT 9999 FEW019 20/17 Q1018 NOSIG=
200810211930 METAR LMML NIL=
200810211915 METAR LMML 211915Z 09005KT 9999 FEW019 20/17 Q1018 NOSIG=
200810211900 METAR LMML NIL=
200810211845 METAR LMML 211845Z 10006KT 070V130 9999 FEW019 20/17 Q1018
                        NOSIG=
200810211830 METAR LMML NIL=
200810211815 METAR LMML 211815Z 09007KT 050V120 9999 FEW019 20/17 Q1018
                        NOSIG=
200810211800 METAR LMML NIL=
200810211745 METAR LMML 211745Z 09006KT 9999 FEW018 20/17 Q1018 NOSIG=
200810211730 METAR LMML NIL=
200810211715 METAR LMML 211715Z 08006KT 9999 FEW018 SCT250 21/17 Q1018
                        NOSIG=
200810211700 METAR LMML NIL=
200810211645 METAR LMML 211645Z 09006KT 9999 FEW018 SCT250 21/17 Q1018
                        NOSIG=
200810211630 METAR LMML NIL=
200810211615 METAR LMML 211615Z 10006KT 9999 FEW018 SCT250 21/17 Q1018
                        NOSIG=
200810211600 METAR LMML NIL=
200810211545 METAR LMML 211545Z 10006KT 070V130 9999 FEW018 SCT250 21/18
                        Q1018 NOSIG=
200810211530 METAR LMML NIL=
200810211515 METAR LMML 211515Z 09008KT 9999 SCT021 22/17 Q1018 NOSIG=
200810211500 METAR LMML NIL=
200810211445 METAR LMML 211445Z 10007KT 060V140 9999 SCT022 22/17 Q1018
                        NOSIG=
200810211415 METAR LMML 211415Z 10009KT 060V130 9999 SCT021 22/17 Q1018
                        NOSIG=
200810211400 METAR LMML NIL=
200810211345 METAR LMML 211345Z 09009KT 050V120 9999 BKN021 22/17 Q1018
                        NOSIG=
200810211315 METAR LMML 211315Z 09008KT 060V140 9999 BKN021 22/18 Q1018
                        NOSIG=
200810211300 METAR LMML NIL=
200810211245 METAR LMML 211245Z 10009KT 060V130 9999 BKN021 22/18 Q1018
                        NOSIG=
200810211230 METAR LMML NIL=
200810211215 METAR LMML 211215Z 11010KT 080V140 9999 BKN021 23/18 Q1018
                        NOSIG=
200810211200 METAR LMML NIL=
200810211145 METAR LMML 211145Z 12010KT 070V150 9999 BKN021 23/18 Q1018
                        NOSIG=
200810211130 METAR LMML NIL=
200810211115 METAR LMML 211115Z 10010KT 080V140 9999 BKN020 23/18 Q1019
                        NOSIG=
200810211100 METAR LMML NIL=
200810211045 METAR LMML 211045Z 11010KT 070V150 9999 BKN021 23/18 Q1019
                        NOSIG=
200810211030 METAR LMML NIL=
200810211015 METAR LMML 211015Z 11010KT 080V150 9999 BKN020 23/18 Q1020
                        NOSIG=
200810211000 METAR LMML NIL=
200810210945 METAR LMML 210945Z 12010KT 090V160 9999 BKN020 23/18 Q1020
                        NOSIG=
200810210930 METAR LMML NIL=
200810210915 METAR LMML 210915Z 11010KT 070V140 9999 SCT019 22/18 Q1020
                        NOSIG=
200810210900 METAR LMML NIL=
200810210845 METAR LMML 210845Z 10009KT 070V140 9999 SCT019 22/18 Q1020
                        NOSIG=
200810210830 METAR LMML NIL=
200810210815 METAR LMML 210815Z 10009KT 070V130 9999 SCT021 22/18 Q1020
                        NOSIG=
200810210800 METAR LMML NIL=
200810210745 METAR LMML 210745Z 10008KT 060V130 9999 SCT020 21/17 Q1020
                        NOSIG=
200810210715 METAR LMML 210715Z 10007KT 070V130 9999 FEW019 21/17 Q1020
                        NOSIG=
200810210700 METAR LMML NIL=
200810210645 METAR LMML 210645Z 10006KT 070V130 9999 FEW019 21/17 Q1020
                        NOSIG=
200810210630 METAR LMML NIL=
200810210615 METAR LMML 210615Z 09005KT 9999 FEW019 20/17 Q1020 NOSIG=
200810210600 METAR LMML NIL=
200810210545 METAR LMML 210545Z 09005KT 060V120 9999 FEW018 19/17 Q1020
                        NOSIG=
200810210530 METAR LMML NIL=
200810210515 METAR LMML 210515Z 10004KT 9999 FEW021 19/17 Q1020 NOSIG=
200810210500 METAR LMML NIL=
200810210445 METAR LMML 210445Z 08004KT 050V110 9999 FEW017 20/17 Q1020
                        TEMPO BKN013=
200810210430 METAR LMML NIL=
200810210415 METAR LMML 210415Z 08004KT 050V110 9999 FEW018 20/17 Q1020
                        TEMPO BKN013=
200810210400 METAR LMML NIL=
200810210345 METAR LMML 210345Z 08004KT 9999 FEW017 20/17 Q1020 TEMPO
                        BKN013=
200810210330 METAR LMML NIL=
200810210315 METAR LMML 210315Z 07004KT 9999 FEW016 19/17 Q1020 TEMPO
                        BKN013=
200810210300 METAR LMML NIL=
200810210245 METAR LMML 210245Z VRB03KT 9999 FEW017 SCT250 19/17 Q1020
                        TEMPO BKN013=
200810210230 METAR LMML NIL=
200810210215 METAR LMML 210215Z VRB03KT 9999 SCT016 SCT250 19/17 Q1020
                        TEMPO BKN013=
200810210200 METAR LMML NIL=
200810210145 METAR LMML 210145Z 09004KT 9999 SCT016 20/17 Q1020 TEMPO
                        BKN013=
200810210130 METAR LMML NIL=
200810210115 METAR LMML 210115Z 09005KT 9999 SCT016 20/18 Q1020 TEMPO
                        BKN013=
200810210045 METAR LMML 210045Z 09004KT 9999 SCT016 SCT250 20/18 Q1021
                        TEMPO BKN013=
200810210030 METAR LMML NIL=
200810210015 METAR LMML 210015Z 09004KT 9999 FEW016 SCT250 20/18 Q1021
                        TEMPO BKN013=
200810210000 METAR LMML NIL=
200810202345 METAR LMML 202345Z 10004KT 9999 SCT016 SCT250 20/18 Q1021
                        NOSIG=
200810202330 METAR LMML NIL=
200810202315 METAR LMML 202315Z 10006KT 9999 SCT016 SCT250 20/18 Q1021
                        NOSIG=
200810202300 METAR LMML NIL=
200810202245 METAR LMML 202245Z 10004KT 9999 SCT015 SCT250 20/18 Q1021
                        NOSIG=
200810202230 METAR LMML NIL=
200810202215 METAR LMML 202215Z 10005KT 060V130 9999 FEW016 SCT250 20/18
                        Q1021 NOSIG=
200810202200 METAR LMML NIL=
200810202145 METAR LMML 202145Z 10005KT 050V120 9999 SCT016 SCT250 20/18
                        Q1022 NOSIG=
200810202115 METAR LMML 202115Z 10004KT 9999 FEW016 SCT250 20/18 Q1022
                        NOSIG=
200810202100 METAR LMML NIL=
200810202045 METAR LMML 202045Z 11006KT 9999 FEW017 BKN250 20/17 Q1022
                        NOSIG=
200810202030 METAR LMML NIL=
200810202015 METAR LMML 202015Z 11005KT 9999 FEW017 SCT250 20/18 Q1022
                        NOSIG=
200810202000 METAR LMML NIL=
200810201945 METAR LMML 201945Z 10004KT 070V130 9999 FEW017 SCT250 20/17
                        Q1022 NOSIG=
200810201930 METAR LMML NIL=
200810201915 METAR LMML 201915Z 09005KT 060V120 9999 FEW017 SCT250 20/17
                        Q1022 NOSIG=
200810201900 METAR LMML NIL=
200810201845 METAR LMML 201845Z 10005KT 9999 SCT017 BKN250 20/17 Q1022
                        NOSIG=
200810201830 METAR LMML NIL=
200810201815 METAR LMML 201815Z 10005KT 9999 SCT017 BKN250 20/18 Q1022
                        NOSIG=
200810201800 METAR LMML NIL=
200810201745 METAR LMML 201745Z 09005KT 060V120 9999 FEW017 BKN250 21/18
                        Q1022 NOSIG=
200810201730 METAR LMML NIL=
200810201715 METAR LMML 201715Z 09006KT 9999 FEW018 BKN250 21/17 Q1022
                        NOSIG=
200810201700 METAR LMML NIL=
200810201645 METAR LMML 201645Z 09007KT 9999 FEW018 BKN250 21/17 Q1022
                        NOSIG=
200810201630 METAR LMML NIL=
200810201615 METAR LMML 201615Z 09006KT 060V120 9999 SCT018 BKN250 21/18
                        Q1022 NOSIG=
200810201600 METAR LMML NIL=
200810201545 METAR LMML 201545Z 09007KT 9999 SCT017 BKN250 21/18 Q1022
                        NOSIG=
200810201515 METAR LMML 201515Z 10007KT 070V130 9999 SCT018 SCT100 22/18
                        Q1022 NOSIG=
200810201500 METAR LMML NIL=
200810201445 METAR LMML 201445Z 09008KT 9999 SCT020 SCT250 22/18 Q1022
                        NOSIG=
200810201430 METAR LMML NIL=
200810201415 METAR LMML 201415Z 08008KT 9999 SCT020 22/18 Q1022 NOSIG=
200810201400 METAR LMML NIL=
200810201345 METAR LMML 201345Z 09009KT 9999 FEW021 22/18 Q1022 NOSIG=
200810201330 METAR LMML NIL=
200810201315 METAR LMML 201315Z 09008KT 050V130 9999 SCT020 23/18 Q1022
                        NOSIG=
200810201300 METAR LMML NIL=
200810201245 METAR LMML 201245Z 10008KT 060V130 9999 SCT020 23/19 Q1023
                        NOSIG=
200810201230 METAR LMML NIL=
200810201215 METAR LMML 201215Z 10008KT 060V130 9999 SCT020 23/18 Q1023
                        NOSIG=
200810201200 METAR LMML NIL=
200810201145 METAR LMML 201145Z 10007KT 050V120 9999 SCT021 23/18 Q1023
                        NOSIG=
200810201130 METAR LMML NIL=
200810201115 METAR LMML 201115Z 10008KT 070V130 9999 SCT021 23/18 Q1023
                        NOSIG=
200810201100 METAR LMML NIL=
200810201045 METAR LMML 201045Z 13008KT 090V170 9999 SCT021 23/18 Q1024
                        NOSIG=
200810201030 METAR LMML NIL=
200810201015 METAR LMML 201015Z 11008KT 080V150 9999 SCT021 23/18 Q1024
                        NOSIG=
200810201000 METAR LMML NIL=
200810200945 METAR LMML 200945Z 11007KT 070V140 9999 SCT021 23/18 Q1024
                        NOSIG=
200810200930 METAR LMML NIL=
200810200915 LMML 200915Z 10008KT 060V170 9999 SCT020 22/18 Q1024 NOSIG=
200810200900 METAR LMML NIL=
200810200845 METAR LMML 200845Z 09008KT 9999 SCT020 22/18 Q1024 NOSIG=
200810200830 METAR LMML NIL=
200810200815 METAR LMML 200815Z 08009KT 050V110 9999 SCT018 22/18 Q1024
                        NOSIG=
200810200800 METAR LMML NIL=
200810200745 METAR LMML 200745Z 09006KT 060V120 9999 SCT018 21/18 Q1024
                        NOSIG=
200810200730 METAR LMML NIL=
200810200715 METAR LMML 200715Z 08005KT 9999 FEW018 22/18 Q1024 NOSIG=
200810200700 METAR LMML NIL=
200810200645 METAR LMML 200645Z 08005KT 9000 FEW021 21/18 Q1024 BECMG
                        9999=
200810200630 METAR LMML NIL=
200810200615 METAR LMML 200615Z VRB03KT 9000 SCT016 20/18 Q1024 BECMG
                        9999=
200810200600 METAR LMML NIL=
200810200545 METAR LMML 200545Z VRB03KT 9000 BKN016 20/17 Q1023 BECMG
                        9999=
200810200530 METAR LMML NIL=
200810200515 METAR LMML 200515Z 08004KT 9000 SCT016 20/17 Q1023 BECMG
                        9999=
200810200500 METAR LMML NIL=
200810200445 METAR LMML 200445Z 07005KT 9000 FEW017 20/17 Q1023 NOSIG=
200810200430 METAR LMML NIL=
200810200415 METAR LMML 200415Z 07005KT 9000 FEW017 20/17 Q1023 NOSIG=
200810200400 METAR LMML NIL=
200810200345 METAR LMML 200345Z 07005KT 9000 FEW017 20/17 Q1023 NOSIG=
200810200330 METAR LMML NIL=
200810200315 METAR LMML 200315Z 07004KT 9000 SCT017 20/17 Q1023 NOSIG=
200810200300 METAR LMML NIL=
200810200245 METAR LMML 200245Z 07004KT 9000 FEW018 20/17 Q1023 NOSIG=
200810200230 METAR LMML NIL=
200810200215 METAR LMML 200215Z 08004KT 9000 FEW016 20/18 Q1023 NOSIG=
200810200145 METAR LMML 200145Z 07004KT 9000 FEW015 20/18 Q1023 NOSIG=
200810200130 METAR LMML NIL=
200810200115 METAR LMML 200115Z 07005KT 9000 FEW016 20/18 Q1023 NOSIG=
200810200100 METAR LMML NIL=
200810200045 METAR LMML 200045Z 07004KT 9000 FEW015 20/18 Q1023 NOSIG=
200810200015 METAR LMML 200015Z 07004KT 9000 FEW015 20/18 Q1023 NOSIG=
200810200000 METAR LMML NIL=
200810192345 METAR LMML 192345Z 09004KT 9999 FEW014 21/18 Q1023 NOSIG=
200810192330 METAR LMML NIL=
200810192315 METAR LMML 192315Z VRB03KT 9999 FEW015 21/18 Q1023 NOSIG=
200810192300 METAR LMML NIL=
200810192245 METAR LMML 192245Z 08004KT 9999 FEW015 21/18 Q1023 NOSIG=
200810192215 METAR LMML 192215Z 08004KT 9999 FEW015 20/18 Q1023 NOSIG=
200810192200 METAR LMML NIL=
200810192145 METAR LMML 192145Z 08004KT 9999 FEW016 21/18 Q1023 NOSIG=
200810192130 METAR LMML NIL=
200810192115 METAR LMML 192115Z VRB03KT 9999 FEW014 20/18 Q1024 NOSIG=
200810192100 METAR LMML NIL=
200810192045 METAR LMML 192045Z VRB03KT 9999 FEW015 21/18 Q1024 NOSIG=
200810192030 METAR LMML NIL=
200810192015 METAR LMML 192015Z 09004KT 050V150 9999 FEW015 21/18 Q1024
                        NOSIG=
200810191945 METAR LMML 191945Z 10004KT 9999 FEW017 20/18 Q1024 NOSIG=
200810191930 METAR LMML NIL=
200810191915 METAR LMML 191915Z VRB03KT 9999 FEW018 20/18 Q1023 NOSIG=
200810191900 METAR LMML NIL=
200810191845 METAR LMML 191845Z VRB03KT 9999 FEW016 20/18 Q1023 NOSIG=
200810191815 METAR LMML 191815Z VRB03KT 9999 FEW020 21/18 Q1023 NOSIG=
200810191800 METAR LMML NIL=
200810191745 METAR LMML 191745Z VRB03KT 9999 FEW020 21/18 Q1023 NOSIG=
200810191730 METAR LMML NIL=
200810191715 METAR LMML 191715Z 11004KT 9999 FEW020 21/18 Q1022 NOSIG=
200810191700 METAR LMML NIL=
200810191645 METAR LMML 191645Z 14004KT 9999 FEW020 21/19 Q1022 NOSIG=
200810191630 METAR LMML NIL=
200810191615 METAR LMML 191615Z 14005KT 9999 SCT019 22/19 Q1022 NOSIG=
200810191600 METAR LMML NIL=
200810191545 METAR LMML 191545Z 14006KT 9999 SCT017 22/19 Q1022 NOSIG=
200810191530 METAR LMML NIL=
200810191515 METAR LMML 191515Z 14006KT 110V170 9999 BKN018 23/19 Q1022
                        NOSIG=
200810191500 METAR LMML NIL=
200810191445 METAR LMML 191445Z 15006KT 100V190 9999 SCT018 23/19 Q1022
                        NOSIG=
200810191430 METAR LMML NIL=
200810191415 METAR LMML 191415Z 18005KT 140V230 9999 SCT019 24/19 Q1022
                        BECMG SCT020=
200810191400 METAR LMML NIL=
200810191345 METAR LMML 191345Z 13004KT 010V210 9999 SCT018 24/20 Q1022
                        BECMG SCT020=
200810191330 METAR LMML NIL=
200810191315 METAR LMML 191315Z 06007KT 040V110 9999 -SHRA BKN019 24/20
                        Q1022 TEMPO 8000 SHRA=
200810191300 METAR LMML NIL=
200810191245 METAR LMML 191245Z VRB03KT 9999 FEW016TCU SCT023 25/20 Q1022
                        TEMPO 8000 SHRA=
200810191230 METAR LMML NIL=
200810191215 METAR LMML 191215Z 19005KT 140V260 9999 SCT023 24/19 Q1022
                        TEMPO 8000 SHRA=
200810191200 METAR LMML NIL=
200810191145 METAR LMML 191145Z 15005KT 100V280 9999 BKN020 24/18 Q1022
                        TEMPO 8000 SHRA=
200810191130 METAR LMML NIL=
200810191115 METAR LMML 191115Z 14006KT 100V160 9999 BKN025 23/20 Q1022
                        TEMPO 8000 SHRA=
200810191100 METAR LMML NIL=
200810191045 METAR LMML 191045Z 18004KT 140V250 9000 BKN025 23/19 Q1023
                        RESH TEMPO 8000 SHRA=
200810191030 METAR LMML NIL=
200810191015 METAR LMML 191015Z 17004KT 130V210 7000 BKN017 22/18 Q1023
                        RESH TEMPO 6000 SHRA BKN015=
200810191000 METAR LMML NIL=
200810190945 METAR LMML 190945Z 13006KT 080V150 7000 SHRA BKN017 22/20
                        Q1023 TEMPO 6000 SHRA BKN015=
200810190930 METAR LMML NIL=
200810190915 METAR LMML 190915Z 10005KT 9999 BKN022 22/19 Q1023 NOSIG=
200810190900 METAR LMML NIL=
200810190845 METAR LMML 190845Z VRB03KT 9999 FEW015TCU SCT020 22/19 Q1023
                        NOSIG=
200810190830 METAR LMML NIL=
200810190815 METAR LMML 190815Z VRB03KT 9999 FEW016TCU SCT023 23/19 Q1022
                        NOSIG=
200810190800 METAR LMML NIL=
200810190745 METAR LMML 190745Z VRB03KT 9999 FEW015TCU 23/19 Q1022 BECMG
                        9999=
200810190730 METAR LMML NIL=
200810190715 METAR LMML 190715Z VRB02KT 8000 FEW016TCU 22/19 Q1022 BECMG
                        9999=
200810190700 METAR LMML NIL=
200810190645 METAR LMML 190645Z VRB01KT 7000 FEW020TCU 20/19 Q1022 BECMG
                        9999 RMK MIST=
200810190630 METAR LMML NIL=
200810190615 METAR LMML 190615Z VRB02KT 7000 FEW020TCU 19/18 Q1021 BECMG
                        9999 RMK MIST=
200810190600 METAR LMML NIL=
200810190545 METAR LMML 190545Z VRB01KT 6000 FEW023 18/17 Q1021 BECMG
                        9999 RMK MIST=
200810190530 METAR LMML NIL=
200810190515 METAR LMML 190515Z VRB01KT 6000 FEW023 18/17 Q1021 BECMG
                        9999 RMK MIST=
200810190500 METAR LMML NIL=
200810190445 METAR LMML 190445Z VRB01KT 9000 FEW035 17/17 Q1021 NOSIG=
200810190430 METAR LMML NIL=
200810190415 METAR LMML 190415Z VRB01KT 9999 FEW035 18/17 Q1020 NOSIG=
200810190400 METAR LMML NIL=
200810190345 METAR LMML 190345Z VRB01KT 9999 FEW037 18/17 Q1020 NOSIG=
200810190330 METAR LMML NIL=
200810190315 METAR LMML 190315Z VRB01KT 9999 FEW037 18/17 Q1020 NOSIG=
200810190300 METAR LMML NIL=
200810190245 METAR LMML 190245Z VRB01KT 9999 FEW037 18/17 Q1020 NOSIG=
200810190230 METAR LMML NIL=
200810190215 METAR LMML 190215Z VRB01KT 9999 FEW037 18/17 Q1020 NOSIG=
200810190200 METAR LMML NIL=
200810190145 METAR LMML 190145Z VRB01KT 9999 FEW037 18/17 Q1020 NOSIG=
200810190130 METAR LMML NIL=
200810190115 METAR LMML 190115Z VRB02KT 9999 FEW037 18/17 Q1020 NOSIG=
200810190100 METAR LMML NIL=
200810190045 METAR LMML 190045Z VRB02KT 9999 FEW037 18/17 Q1020 NOSIG=
200810190030 METAR LMML NIL=
200810190015 METAR LMML 190015Z VRB02KT 9999 FEW024 18/17 Q1021 NOSIG=
200810190000 METAR LMML NIL=
200810182345 METAR LMML 182345Z VRB01KT 9999 FEW024 18/17 Q1020 NOSIG=
200810182330 METAR LMML NIL=
200810182315 METAR LMML 182315Z 00000KT 9999 FEW024 18/17 Q1020 NOSIG=
200810182300 METAR LMML NIL=
200810182245 METAR LMML 182245Z VRB01KT 9999 FEW040 19/17 Q1020 NOSIG=
200810182230 METAR LMML NIL=
200810182215 METAR LMML 182215Z VRB02KT 9999 FEW040 19/17 Q1020 NOSIG=
200810182200 METAR LMML NIL=
200810182145 METAR LMML 182145Z VRB01KT 9999 FEW020 19/17 Q1021 NOSIG=
200810182130 METAR LMML NIL=
200810182115 METAR LMML 182115Z VRB01KT 9999 FEW020 19/17 Q1020 NOSIG=
200810182045 METAR LMML 182045Z VRB02KT 9999 FEW020 19/17 Q1020 NOSIG=
200810182030 METAR LMML NIL=
200810182015 METAR LMML 182015Z VRB02KT 9999 FEW020 20/18 Q1020 NOSIG=
200810182000 METAR LMML NIL=
200810181945 METAR LMML 181945Z VRB02KT 9999 FEW020 20/18 Q1020 NOSIG=
200810181930 METAR LMML NIL=
200810181915 METAR LMML 181915Z VRB02KT 9999 FEW020 20/18 Q1020 NOSIG=
200810181900 METAR LMML NIL=
200810181845 METAR LMML 181845Z VRB02KT 9999 FEW020 20/18 Q1019 NOSIG=
200810181830 METAR LMML NIL=
200810181815 METAR LMML 181815Z VRB02KT 9999 FEW020 20/18 Q1019 NOSIG=
200810181800 METAR LMML NIL=
200810181745 METAR LMML 181745Z VRB01KT 9999 FEW020 21/17 Q1019 NOSIG=
200810181730 METAR LMML NIL=
200810181715 METAR LMML 181715Z 00000KT 9999 FEW020TCU 21/18 Q1019 NOSIG=
200810181700 METAR LMML NIL=
200810181645 METAR LMML 181645Z VRB01KT 9999 FEW021TCU 22/18 Q1018 NOSIG=
200810181630 METAR LMML NIL=
200810181615 METAR LMML 181615Z VRB02KT 9999 FEW021TCU 22/17 Q1018 NOSIG=
200810181600 METAR LMML NIL=
200810181545 METAR LMML 181545Z VRB03KT 9999 FEW021 23/18 Q1018 NOSIG=
200810181530 METAR LMML NIL=
200810181515 METAR LMML 181515Z 23005KT 200V270 9999 FEW021 SCT250 23/18
                        Q1018 NOSIG=
200810181500 METAR LMML NIL=
200810181445 METAR LMML 181445Z 22005KT 180V270 9999 FEW021 SCT250 24/17
                        Q1017 NOSIG=
200810181430 METAR LMML NIL=
200810181415 METAR LMML 181415Z 24005KT 190V290 9999 FEW021 24/18 Q1017
                        NOSIG=
200810181400 METAR LMML NIL=
200810181345 METAR LMML 181345Z 22005KT 150V270 9999 FEW021 SCT250 24/18
                        Q1017 NOSIG=
200810181330 METAR LMML NIL=
200810181315 METAR LMML 181315Z 24004KT 170V290 9999 FEW021 24/16 Q1017
                        NOSIG=
200810181300 METAR LMML NIL=
200810181245 METAR LMML 181245Z 24005KT 210V290 9999 FEW021 25/16 Q1017
                        NOSIG=
200810181230 METAR LMML NIL=
200810181215 METAR LMML 181215Z VRB03KT 9999 FEW021 25/17 Q1017 NOSIG=
200810181200 METAR LMML NIL=
200810181145 METAR LMML 181145Z VRB03KT 9999 SCT021 25/19 Q1018 NOSIG=
200810181130 METAR LMML NIL=
200810181115 METAR LMML 181115Z 23005KT 180V300 9999 SCT024 25/17 Q1018
                        NOSIG=
200810181045 METAR LMML 181045Z 20005KT 130V270 9999 FEW024 25/17 Q1018
                        NOSIG=
200810181030 METAR LMML NIL=
200810181015 METAR LMML 181015Z VRB02KT 9999 FEW025 24/19 Q1018 NOSIG=
200810181000 METAR LMML NIL=
200810180945 METAR LMML 180945Z VRB01KT 9999 FEW025 24/18 Q1018 NOSIG=
200810180930 METAR LMML NIL=
200810180915 METAR LMML 180915Z VRB01KT 9999 FEW021 24/18 Q1018 NOSIG=
200810180900 METAR LMML NIL=
200810180845 METAR LMML 180845Z VRB03KT 9999 SCT019 23/18 Q1018 NOSIG=
200810180830 METAR LMML NIL=
200810180815 METAR LMML 180815Z VRB02KT 9999 FEW017 23/19 Q1018 NOSIG=
200810180800 METAR LMML NIL=
200810180745 METAR LMML 180745Z VRB02KT 9999 FEW025 22/18 Q1018 NOSIG=
200810180730 METAR LMML NIL=
200810180715 METAR LMML 180715Z VRB02KT 9999 FEW025 21/18 Q1017 NOSIG=
200810180700 METAR LMML NIL=
200810180645 METAR LMML 180645Z VRB02KT 9999 FEW025 20/18 Q1017 NOSIG=
200810180630 METAR LMML NIL=
200810180615 METAR LMML 180615Z VRB02KT 9999 FEW025 19/17 Q1017 NOSIG=
200810180600 METAR LMML NIL=
200810180545 METAR LMML 180545Z VRB03KT 9999 FEW025 18/16 Q1016 NOSIG=
200810180530 METAR LMML NIL=
200810180515 METAR LMML 180515Z VRB03KT 9999 FEW025 18/16 Q1016 NOSIG=
200810180500 METAR LMML NIL=
200810180445 METAR LMML 180445Z 26004KT 9999 FEW025 18/16 Q1016 NOSIG=
200810180430 METAR LMML NIL=
200810180415 METAR LMML 180415Z VRB03KT CAVOK 19/16 Q1016 NOSIG=
200810180400 METAR LMML NIL=
200810180345 METAR LMML 180345Z 24004KT CAVOK 18/16 Q1016 NOSIG=
200810180330 METAR LMML NIL=
200810180315 METAR LMML 180315Z 27004KT 240V300 CAVOK 19/17 Q1016 NOSIG=
200810180300 METAR LMML NIL=
200810180245 METAR LMML 180245Z 27005KT CAVOK 19/17 Q1016 NOSIG=
200810180230 METAR LMML NIL=
200810180215 METAR LMML 180215Z 26004KT CAVOK 19/17 Q1016 NOSIG=
200810180200 METAR LMML NIL=
200810180145 METAR LMML 180145Z 27005KT 220V290 CAVOK 20/17 Q1016 NOSIG=
200810180130 METAR LMML NIL=
200810180115 METAR LMML 180115Z VRB03KT CAVOK 19/17 Q1016 NOSIG=
200810180100 METAR LMML NIL=
200810180045 METAR LMML 180045Z VRB02KT CAVOK 19/17 Q1016 NOSIG=
200810180030 METAR LMML NIL=
200810180015 METAR LMML 180015Z VRB01KT CAVOK 19/16 Q1016 NOSIG=
200810180000 METAR LMML NIL=
200810172345 METAR LMML 172345Z VRB03KT CAVOK 18/15 Q1016 NOSIG=
200810172330 METAR LMML NIL=
200810172315 METAR LMML 172315Z VRB03KT 9999 FEW020 BKN120 19/16 Q1016
                        NOSIG=
200810172245 METAR LMML 172245Z VRB03KT 9999 FEW020 SCT120 18/15 Q1016
                        NOSIG=
200810172230 METAR LMML NIL=
200810172215 METAR LMML 172215Z VRB02KT 9999 FEW020 SCT100 18/16 Q1017
                        NOSIG=
200810172200 METAR LMML NIL=
200810172145 METAR LMML 172145Z VRB01KT 9999 FEW020 BKN100 18/16 Q1017
                        NOSIG=
200810172130 METAR LMML NIL=
200810172115 METAR LMML 172115Z VRB03KT 9999 FEW020 18/16 Q1017 NOSIG=
200810172100 METAR LMML NIL=
200810172045 METAR LMML 172045Z VRB02KT 9999 FEW020 SCT120 18/16 Q1017
                        NOSIG=
200810172030 METAR LMML NIL=
200810172015 METAR LMML 172015Z VRB02KT 9999 FEW020 SCT120 18/17 Q1017
                        NOSIG=
200810172000 METAR LMML NIL=
200810171945 METAR LMML 171945Z VRB03KT 9999 FEW020 BKN120 19/17 Q1017
                        NOSIG=
200810171930 LMML NIL=
200810171915 METAR LMML 171915Z 25004KT 9999 FEW020 BKN120 19/16 Q1016
                        TEMPO 9000 -RA=
200810171900 METAR LMML NIL=
200810171845 METAR LMML 171845Z 28004KT 9999 FEW020 BKN100 19/16 Q1016
                        TEMPO 9000 -RA=
200810171830 METAR LMML NIL=
200810171815 METAR LMML 171815Z 25004KT 8000 -RA FEW020 BKN080 19/16 Q1016
                        RETS NOSIG=
200810171800 METAR LMML NIL=
200810171745 METAR LMML 171745Z 24007KT 210V280 8000 -RA FEW038CB BKN080
                        18/15 Q1017 RETS TEMPO 5000 TSRA
                        BKN015CB=
200810171730 METAR LMML NIL=
200810171715 METAR LMML 171715Z 24005KT 200V270 8000 -TSRA SCT037CB BKN080
                        18/15 Q1017 TEMPO 5000 TSRA BKN015CB=
200810171700 METAR LMML NIL=
200810171645 METAR LMML 171645Z 23008KT 200V270 8000 TSRA SCT039 BKN080
                        18/16 Q1016 TEMPO 5000 TSRA BKN015CB=
200810171630 METAR LMML NIL=
200810171615 METAR LMML 171615Z 25010KT 210V290 8000 TSRA BKN034CB BKN100
                        19/16 Q1016 TEMPO 5000 TSRA BKN015CB=
200810171600 METAR LMML NIL=
200810171545 METAR LMML 171545Z 27005KT 220V290 8000 TSRA BKN037CB 20/17
                        Q1015 TEMPO 5000 TSRA BKN015CB=
200810171530 METAR LMML NIL=
200810171515 METAR LMML 171515Z 29004KT 250V340 9999 -TSRA BKN029CB SCT120
                        20/17 Q1015 TEMPO 5000 TSRA BKN015CB=
200810171500 METAR LMML NIL=
200810171445 METAR LMML 171445Z 30009KT 260V330 9999 TS SCT019CB SCT100
                        22/16 Q1015 TEMPO 5000 TSRA BKN015CB=
200810171430 METAR LMML NIL=
200810171415 METAR LMML 171415Z 24008KT 210V280 9999 FEW020 SCT110 23/19
                        Q1015 TEMPO 5000 TSRA BKN015CB=
200810171400 METAR LMML NIL=
200810171345 METAR LMML 171345Z 22008KT 190V250 9999 FEW019 SCT110 23/19
                        Q1015 TEMPO 5000 TSRA BKN015CB=
200810171330 METAR LMML NIL=
200810171315 METAR LMML 171315Z 23009KT 190V270 9999 FEW021 SCT120 23/19
                        Q1015 TEMPO 5000 TSRA BKN015CB=
200810171300 METAR LMML NIL=
200810171245 METAR LMML 171245Z 24007KT 200V290 9999 FEW043 BKN120 24/18
                        Q1015 TEMPO 5000 TSRA BKN015CB=
200810171230 METAR LMML NIL=
200810171215 METAR LMML 171215Z 23007KT 200V280 9999 FEW025 BKN120 23/18
                        Q1015 NOSIG=
200810171200 METAR LMML NIL=
200810171145 METAR LMML 171145Z 22007KT 190V260 9999 FEW025 BKN120 23/18
                        Q1015 NOSIG=
200810171130 METAR LMML NIL=
200810171115 METAR LMML 171115Z 22006KT 170V260 9999 FEW020 BKN120 23/18
                        Q1016 NOSIG=
200810171100 METAR LMML NIL=
200810171045 METAR LMML 171045Z 22007KT 190V250 CAVOK 23/18 Q1016 NOSIG=
200810171030 METAR LMML NIL=
200810171015 METAR LMML 171015Z 22007KT 200V270 CAVOK 23/18 Q1016 NOSIG=
200810171000 METAR LMML NIL=
200810170945 METAR LMML 170945Z 22006KT 150V280 9999 FEW030 BKN120 23/18
                        Q1017 NOSIG=
200810170930 METAR LMML NIL=
200810170915 METAR LMML 170915Z 23005KT 180V280 9999 FEW025 SCT120 BKN250
                        23/18 Q1016 NOSIG=
200810170900 METAR LMML NIL=
200810170845 METAR LMML 170845Z 22007KT 190V270 9999 FEW025 SCT120 BKN250
                        22/18 Q1017 NOSIG=
200810170830 METAR LMML NIL=
200810170815 METAR LMML 170815Z 22007KT 180V270 9999 FEW025 SCT120 BKN250
                        23/18 Q1017 NOSIG=
200810170800 METAR LMML NIL=
200810170745 METAR LMML 170745Z 24005KT 200V290 9999 FEW021 SCT120 BKN250
                        22/18 Q1017 NOSIG=
200810170715 METAR LMML 170715Z 24004KT 200V270 9999 FEW021 BKN120 BKN250
                        22/18 Q1017 NOSIG=
200810170700 METAR LMML NIL=
200810170645 METAR LMML 170645Z 23004KT 200V260 9999 FEW021 BKN120 BKN250
                        21/18 Q1017 NOSIG=
200810170630 METAR LMML NIL=
200810170615 METAR LMML 170615Z VRB03KT 9999 FEW025 BKN120 BKN250 19/17
                        Q1016 NOSIG=
200810170600 METAR LMML NIL=
200810170545 METAR LMML 170545Z VRB03KT 9999 FEW025 BKN120 BKN250 19/17
                        Q1016 NOSIG=
200810170530 METAR LMML NIL=
200810170515 METAR LMML 170515Z VRB02KT 9999 FEW025 SCT120 BKN250 18/17
                        Q1016 NOSIG=
200810170500 METAR LMML NIL=
200810170445 METAR LMML 170445Z VRB02KT 9999 FEW035 SCT120 BKN250 17/17
                        Q1016 NOSIG=
200810170415 METAR LMML 170415Z VRB01KT CAVOK 17/17 Q1016 NOSIG=
200810170400 METAR LMML NIL=
200810170345 METAR LMML 170345Z VRB01KT CAVOK 18/17 Q1016 NOSIG=
200810170330 METAR LMML NIL=
200810170315 METAR LMML 170315Z VRB01KT CAVOK 18/17 Q1017 NOSIG=
200810170300 METAR LMML NIL=
200810170245 METAR LMML 170245Z VRB02KT CAVOK 18/17 Q1017 NOSIG=
200810170230 METAR LMML NIL=
200810170215 METAR LMML 170215Z VRB02KT CAVOK 18/17 Q1017 NOSIG=
200810170200 METAR LMML NIL=
200810170145 METAR LMML 170145Z VRB02KT CAVOK 18/16 Q1017 NOSIG=
200810170130 METAR LMML NIL=
200810170115 METAR LMML 170115Z VRB02KT CAVOK 18/16 Q1017 NOSIG=
200810170100 METAR LMML NIL=
200810170045 METAR LMML 170045Z VRB03KT CAVOK 18/17 Q1018 NOSIG=
200810170030 METAR LMML NIL=
200810170015 METAR LMML 170015Z VRB03KT CAVOK 18/17 Q1018 NOSIG=
200810170000 METAR LMML NIL=
200810162345 METAR LMML 162345Z VRB03KT CAVOK 19/17 Q1018 NOSIG=
200810162330 METAR LMML NIL=
200810162315 METAR LMML 162315Z VRB02KT CAVOK 19/17 Q1018 NOSIG=
200810162300 METAR LMML NIL=
200810162245 METAR LMML 162245Z VRB02KT CAVOK 19/17 Q1019 NOSIG=
200810162230 METAR LMML NIL=
200810162215 METAR LMML 162215Z VRB02KT CAVOK 19/17 Q1019 NOSIG=
200810162200 METAR LMML NIL=
200810162145 METAR LMML 162145Z VRB03KT CAVOK 19/17 Q1019 NOSIG=
200810162130 METAR LMML NIL=
200810162115 METAR LMML 162115Z VRB03KT 9999 FEW025 SCT250 20/17 Q1019
                        NOSIG=
200810162100 METAR LMML NIL=
200810162045 METAR LMML 162045Z VRB03KT 9999 FEW025 SCT250 20/17 Q1019
                        NOSIG=
200810162015 METAR LMML 162015Z VRB03KT 9999 FEW025 SCT250 20/17 Q1020
                        NOSIG=
200810162000 METAR LMML NIL=
200810161945 METAR LMML 161945Z VRB02KT 9999 FEW025 BKN250 20/17 Q1019
                        NOSIG=
200810161930 METAR LMML NIL=
200810161915 METAR LMML 161915Z VRB02KT 9999 FEW025 BKN250 20/17 Q1019
                        NOSIG=
200810161900 METAR LMML NIL=
200810161845 METAR LMML 161845Z VRB02KT 9999 FEW025 BKN250 20/17 Q1019
                        NOSIG=
200810161830 METAR LMML NIL=
200810161815 METAR LMML 161815Z VRB03KT 9999 FEW025 BKN250 20/17 Q1019
                        NOSIG=
200810161800 METAR LMML NIL=
200810161745 METAR LMML 161745Z VRB02KT 9999 FEW025 BKN250 21/17 Q1019
                        NOSIG=
200810161730 METAR LMML NIL=
200810161715 METAR LMML 161715Z VRB01KT 9999 FEW025 BKN250 22/17 Q1019
                        NOSIG=
200810161700 METAR LMML NIL=
200810161645 METAR LMML 161645Z VRB02KT 9999 FEW025 BKN250 22/17 Q1019
                        NOSIG=
200810161630 METAR LMML NIL=
200810161615 METAR LMML 161615Z VRB03KT 9999 FEW025 BKN250 22/16 Q1019
                        NOSIG=
200810161600 METAR LMML NIL=
200810161545 METAR LMML 161545Z 24004KT 210V270 9999 FEW025 23/16 Q1019
                        NOSIG=
200810161530 METAR LMML NIL=
200810161515 METAR LMML 161515Z 24004KT 190V290 9999 FEW025 23/17 Q1020
                        NOSIG=
200810161500 METAR LMML NIL=
200810161445 METAR LMML 161445Z 23005KT 200V290 9999 FEW025 SCT250 24/17
                        Q1020 NOSIG=
200810161430 METAR LMML NIL=
200810161415 METAR LMML 161415Z 22005KT 170V290 9999 FEW024 24/17 Q1020
                        NOSIG=
200810161400 METAR LMML NIL=
200810161345 METAR LMML 161345Z 21005KT 170V260 9999 FEW024 24/18 Q1020
                        NOSIG=
200810161330 METAR LMML NIL=
200810161315 METAR LMML 161315Z 20005KT 170V260 9999 FEW024 24/18 Q1020
                        NOSIG=
200810161300 METAR LMML NIL=
200810161245 METAR LMML 161245Z 19005KT 130V250 9999 FEW024 24/18 Q1020
                        NOSIG=
200810161230 METAR LMML NIL=
200810161215 METAR LMML 161215Z 20005KT 160V270 9999 SCT028 24/18 Q1021
                        NOSIG=
200810161200 METAR LMML NIL=
200810161145 METAR LMML 161145Z 20006KT 160V270 9999 SCT028 25/18 Q1021
                        NOSIG=
200810161130 METAR LMML NIL=
200810161115 METAR LMML 161115Z 20005KT 150V290 9999 SCT028 25/18 Q1022
                        NOSIG=
200810161100 METAR LMML NIL=
200810161045 METAR LMML 161045Z 20005KT 140V280 9999 SCT028 25/18 Q1022
                        NOSIG=
200810161030 METAR LMML NIL=
200810161015 METAR LMML 161015Z 21006KT 170V260 9999 FEW025 25/17 Q1022
                        NOSIG=
200810161000 METAR LMML NIL=
200810160945 METAR LMML 160945Z 22004KT 140V280 9999 FEW025 24/17 Q1022
                        NOSIG=
200810160930 METAR LMML NIL=
200810160915 METAR LMML 160915Z 18004KT 130V260 9999 FEW025 SCT120 24/17
                        Q1023 NOSIG=
200810160900 METAR LMML NIL=
200810160845 METAR LMML 160845Z VRB02KT 9999 FEW026 SCT120 24/17 Q1023
                        NOSIG=
200810160830 METAR LMML NIL=
200810160815 METAR LMML 160815Z VRB01KT 9999 FEW020 SCT120 24/17 Q1023
                        NOSIG=
200810160800 METAR LMML NIL=
200810160745 METAR LMML 160745Z VRB01KT 9999 FEW020 SCT120 23/17 Q1022
                        NOSIG=
200810160730 METAR LMML NIL=
200810160715 METAR LMML 160715Z 00000KT 9999 FEW020 SCT120 20/16 Q1022
                        NOSIG=
200810160700 METAR LMML NIL=
200810160645 METAR LMML 160645Z VRB01KT 9999 FEW020 SCT120 20/17 Q1022
                        NOSIG=
200810160630 METAR LMML NIL=
200810160615 METAR LMML 160615Z VRB02KT 9999 FEW020 SCT120 19/16 Q1022
                        NOSIG=
200810160600 METAR LMML NIL=
200810160545 METAR LMML 160545Z VRB02KT 9999 FEW020 SCT120 17/15 Q1022
                        NOSIG=
200810160530 METAR LMML NIL=
200810160515 METAR LMML 160515Z VRB02KT 9999 FEW020 17/15 Q1021 NOSIG=
200810160500 METAR LMML NIL=
200810160445 METAR LMML 160445Z VRB02KT 9999 FEW020 17/15 Q1021 NOSIG=
200810160430 METAR LMML NIL=
200810160415 METAR LMML 160415Z VRB03KT 9999 FEW020 SCT120 17/15 Q1022
                        NOSIG=
200810160400 METAR LMML NIL=
200810160345 METAR LMML 160345Z VRB02KT 9999 FEW020 SCT120 17/15 Q1021
                        NOSIG=
200810160315 METAR LMML 160315Z VRB02KT 9999 FEW020 SCT120 17/15 Q1022
                        NOSIG=
200810160245 METAR LMML 160245Z VRB02KT 9999 FEW020 SCT120 17/16 Q1021
                        NOSIG=
200810160230 METAR LMML NIL=
200810160215 METAR LMML 160215Z VRB02KT 9999 FEW015 BKN120 17/16 Q1022
                        NOSIG=
200810160200 METAR LMML NIL=
200810160145 METAR LMML 160145Z VRB01KT 9999 FEW015 BKN120 17/15 Q1022
                        NOSIG=
200810160130 METAR LMML NIL=
200810160115 METAR LMML 160115Z VRB02KT 9999 FEW015 SCT120 17/16 Q1022
                        NOSIG=
200810160100 METAR LMML NIL=
200810160045 METAR LMML 160045Z VRB02KT 9999 FEW015 17/16 Q1022 NOSIG=
200810160030 METAR LMML NIL=
200810160015 METAR LMML 160015Z VRB01KT CAVOK 17/16 Q1022 NOSIG=
200810152345 METAR LMML 152345Z VRB02KT CAVOK 18/16 Q1022 NOSIG=
200810152330 METAR LMML NIL=
200810152315 METAR LMML 152315Z VRB03KT CAVOK 18/16 Q1022 NOSIG=
200810152300 METAR LMML NIL=
200810152245 METAR LMML 152245Z VRB03KT CAVOK 18/16 Q1022 NOSIG=
200810152230 METAR LMML NIL=
200810152215 METAR LMML 152215Z VRB03KT 9999 FEW020 SCT250 18/16 Q1023
                        NOSIG=
200810152200 METAR LMML NIL=
200810152145 METAR LMML 152145Z VRB02KT 9999 FEW020 BKN250 19/16 Q1023
                        NOSIG=
200810152130 METAR LMML NIL=
200810152115 METAR LMML 152115Z VRB02KT 9999 FEW020 BKN250 19/17 Q1023
                        NOSIG=
200810152100 METAR LMML NIL=
200810152045 METAR LMML 152045Z VRB03KT 9999 FEW020 BKN250 20/16 Q1023
                        NOSIG=
200810152030 METAR LMML NIL=
200810152015 METAR LMML 152015Z VRB03KT 9999 FEW020 BKN250 20/17 Q1023
                        NOSIG=
200810152000 METAR LMML NIL=
200810151945 METAR LMML 151945Z VRB02KT 9999 FEW020 BKN250 20/17 Q1023
                        NOSIG=
200810151930 METAR LMML NIL=
200810151915 METAR LMML 151915Z VRB02KT 9999 FEW026 BKN250 20/17 Q1022
                        NOSIG=
200810151900 METAR LMML NIL=
200810151845 METAR LMML 151845Z VRB02KT 9999 FEW026 BKN250 20/17 Q1022
                        NOSIG=
200810151830 METAR LMML NIL=
200810151815 METAR LMML 151815Z VRB02KT 9999 FEW026 BKN250 21/17 Q1022
                        NOSIG=
200810151800 METAR LMML NIL=
200810151745 METAR LMML 151745Z 28004KT 240V300 9999 SCT026 BKN250 21/16
                        Q1022 NOSIG=
200810151730 METAR LMML NIL=
200810151715 METAR LMML 151715Z VRB02KT 9999 FEW030 BKN250 21/16 Q1022
                        NOSIG=
200810151700 METAR LMML NIL=
200810151645 METAR LMML 151645Z 26004KT 230V290 9999 SCT030 BKN250 22/16
                        Q1022 NOSIG=
200810151630 METAR LMML NIL=
200810151615 LMML 151615Z 27005KT 230V300 9999 SCT030 BKN250 22/16 Q1022
                        NOSIG=
200810151600 METAR LMML NIL=
200810151545 METAR LMML 151545Z 26005KT 230V300 CAVOK 23/16 Q1021 NOSIG=
200810151530 METAR LMML NIL=
200810151515 METAR LMML 151515Z 23006KT 200V280 9999 SCT032 BKN250 23/16
                        Q1021 NOSIG=
200810151500 METAR LMML NIL=
200810151445 METAR LMML 151445Z 24007KT 210V300 9999 FEW031 SCT250 23/16
                        Q1021 NOSIG=
200810151430 METAR LMML NIL=
200810151415 METAR LMML 151415Z 24006KT 190V340 9999 FEW033 24/15 Q1021
                        NOSIG=
200810151400 METAR LMML NIL=
200810151345 METAR LMML 151345Z 26006KT 200V310 9999 FEW035 24/16 Q1021
                        NOSIG=
200810151330 METAR LMML NIL=
200810151315 METAR LMML 151315Z 25007KT 190V290 9999 FEW039 24/15 Q1021
                        NOSIG=
200810151300 METAR LMML NIL=
200810151245 METAR LMML 151245Z 26007KT 200V310 9999 FEW039 24/14 Q1021
                        NOSIG=
200810151230 METAR LMML NIL=
200810151215 METAR LMML 151215Z 24009KT 200V300 9999 FEW035 24/15 Q1021
                        NOSIG=
200810151200 METAR LMML NIL=
200810151145 METAR LMML 151145Z 22007KT 170V270 9999 SCT035 24/15 Q1022
                        NOSIG=
200810151130 METAR LMML NIL=
200810151115 METAR LMML 151115Z 22008KT 180V270 9999 SCT034 24/16 Q1022
                        NOSIG=
200810151100 METAR LMML NIL=
200810151045 METAR LMML 151045Z 22007KT 160V290 9999 SCT034 24/16 Q1022
                        NOSIG=
200810151030 METAR LMML NIL=
200810151015 METAR LMML 151015Z 23006KT 170V290 9999 FEW035 24/15 Q1022
                        NOSIG=
200810151000 METAR LMML NIL=
200810150945 METAR LMML 150945Z 25006KT 190V320 9999 FEW033 24/16 Q1022
                        NOSIG=
200810150930 METAR LMML NIL=
200810150915 METAR LMML 150915Z 24005KT 190V290 9999 FEW033 24/16 Q1022
                        NOSIG=
200810150900 METAR LMML NIL=
200810150845 METAR LMML 150845Z 24006KT 190V300 9999 FEW033 24/15 Q1022
                        NOSIG=
200810150830 METAR LMML NIL=
200810150815 METAR LMML 150815Z 25005KT 210V280 9999 FEW032 23/15 Q1022
                        NOSIG=
200810150800 METAR LMML NIL=
200810150745 METAR LMML 150745Z VRB03KT 9999 FEW032 23/16 Q1022 NOSIG=
200810150730 METAR LMML NIL=
200810150715 METAR LMML 150715Z VRB02KT 9999 FEW034 22/16 Q1022 NOSIG=
200810150700 METAR LMML NIL=
200810150645 METAR LMML 150645Z VRB02KT 9999 FEW034 20/16 Q1021 NOSIG=
200810150630 METAR LMML NIL=
200810150615 METAR LMML 150615Z VRB03KT 9999 FEW035 19/15 Q1021 NOSIG=
200810150600 METAR LMML NIL=
200810150545 METAR LMML 150545Z 26004KT 9999 FEW035 19/14 Q1021 NOSIG=
200810150530 METAR LMML NIL=
200810150515 METAR LMML 150515Z 26004KT 9999 FEW035 18/14 Q1020 NOSIG=
200810150500 METAR LMML NIL=
200810150445 METAR LMML 150445Z VRB03KT 9999 FEW039 18/15 Q1020 NOSIG=
200810150430 METAR LMML NIL=
200810150415 METAR LMML 150415Z VRB03KT 9999 FEW039 18/14 Q1020 NOSIG=
200810150400 METAR LMML NIL=
200810150345 METAR LMML 150345Z 26004KT 9999 FEW039 18/14 Q1020 NOSIG=
200810150330 METAR LMML NIL=
200810150315 METAR LMML 150315Z VRB03KT 9999 FEW039 18/15 Q1020 NOSIG=
200810150300 METAR LMML NIL=
200810150245 METAR LMML 150245Z 28004KT 9999 FEW040 19/14 Q1021 NOSIG=
200810150230 METAR LMML NIL=
200810150215 METAR LMML 150215Z VRB03KT 9999 FEW033 18/15 Q1020 NOSIG=
200810150200 METAR LMML NIL=
200810150145 METAR LMML 150145Z VRB02KT 9999 FEW034 19/15 Q1021 NOSIG=
200810150130 METAR LMML NIL=
200810150115 METAR LMML 150115Z VRB03KT 9999 FEW032 19/14 Q1021 NOSIG=
200810150100 METAR LMML NIL=
200810150045 METAR LMML 150045Z VRB03KT 9999 FEW034 19/14 Q1021 NOSIG=
200810150030 METAR LMML NIL=
200810150015 METAR LMML 150015Z VRB03KT 9999 FEW030 18/14 Q1021 NOSIG=
200810150000 METAR LMML NIL=
200810142345 METAR LMML 142345Z VRB03KT 9999 FEW030 18/14 Q1021 NOSIG=
200810142330 METAR LMML NIL=
200810142315 METAR LMML 142315Z VRB02KT 9999 FEW030 18/14 Q1021 NOSIG=
200810142300 METAR LMML NIL=
200810142245 METAR LMML 142245Z VRB03KT 9999 FEW032 18/14 Q1021 NOSIG=
200810142230 METAR LMML NIL=
200810142215 METAR LMML 142215Z VRB03KT 9999 FEW032 18/15 Q1021 NOSIG=
200810142200 METAR LMML NIL=
200810142145 METAR LMML 142145Z VRB01KT 9999 FEW030 18/15 Q1021 NOSIG=
200810142130 METAR LMML NIL=
200810142115 METAR LMML 142115Z VRB03KT 9999 FEW028 18/15 Q1021 NOSIG=
200810142100 METAR LMML NIL=
200810142045 METAR LMML 142045Z VRB02KT CAVOK 18/15 Q1021 NOSIG=
200810142030 METAR LMML NIL=
200810142015 METAR LMML 142015Z VRB02KT CAVOK 18/15 Q1021 NOSIG=
200810142000 METAR LMML NIL=
200810141945 METAR LMML 141945Z VRB02KT CAVOK 19/15 Q1020 NOSIG=
200810141930 METAR LMML NIL=
200810141915 METAR LMML 141915Z VRB02KT 9999 FEW030 19/14 Q1020 NOSIG=
200810141900 METAR LMML NIL=
200810141845 METAR LMML 141845Z VRB02KT 9999 FEW030 19/14 Q1020 NOSIG=
200810141830 METAR LMML NIL=
200810141815 METAR LMML 141815Z VRB02KT 9999 FEW030 SCT250 19/14 Q1020
                        NOSIG=
200810141800 METAR LMML NIL=
200810141745 METAR LMML 141745Z VRB03KT 9999 FEW030 SCT250 20/14 Q1020
                        NOSIG=
200810141730 METAR LMML NIL=
200810141715 METAR LMML 141715Z VRB02KT 9999 FEW030 SCT250 20/14 Q1019
                        NOSIG=
200810141700 METAR LMML NIL=
200810141645 METAR LMML 141645Z VRB03KT 9999 FEW030 SCT250 21/15 Q1019
                        NOSIG=
200810141630 METAR LMML NIL=
200810141615 METAR LMML 141615Z 26004KT 220V280 9999 FEW030 SCT250 21/14
                        Q1019 NOSIG=
200810141600 METAR LMML NIL=
200810141545 METAR LMML 141545Z 25004KT 200V300 9999 FEW040 SCT250 22/14
                        Q1019 NOSIG=
200810141530 METAR LMML NIL=
200810141515 METAR LMML 141515Z 25006KT 220V290 9999 FEW040 SCT250 23/13
                        Q1019 NOSIG=
200810141500 METAR LMML NIL=
200810141445 METAR LMML 141445Z 24005KT 200V310 9999 FEW040 SCT250 23/13
                        Q1019 NOSIG=
200810141430 METAR LMML NIL=
200810141415 METAR LMML 141415Z 24006KT 200V300 9999 FEW043 23/12 Q1019
                        NOSIG=
200810141400 METAR LMML NIL=
200810141345 METAR LMML 141345Z 23007KT 190V280 9999 FEW040 24/14 Q1019
                        NOSIG=
200810141330 METAR LMML NIL=
200810141315 METAR LMML 141315Z 23005KT 190V320 9999 FEW039 24/13 Q1019
                        NOSIG=
200810141300 METAR LMML NIL=
200810141245 METAR LMML 141245Z VRB03KT 9999 FEW035 23/14 Q1019 NOSIG=
200810141230 METAR LMML NIL=
200810141215 METAR LMML 141215Z 26005KT 220V290 9999 SCT037 SCT046 22/14
                        Q1020 NOSIG=
200810141200 METAR LMML NIL=
200810141145 METAR LMML 141145Z VRB03KT 9999 SCT035 SCT050 22/15 Q1020
                        NOSIG=
200810141130 METAR LMML NIL=
200810141115 METAR LMML 141115Z 20004KT 160V260 9999 SCT034 SCT250 23/14
                        Q1020 NOSIG=
200810141100 METAR LMML NIL=
200810141045 METAR LMML 141045Z 20004KT 140V270 9999 SCT034 BKN250 24/15
                        Q1020 NOSIG=
200810141030 METAR LMML NIL=
200810141015 METAR LMML 141015Z 22004KT 140V310 9999 FEW033 24/15 Q1020
                        NOSIG=
200810141000 METAR LMML NIL=
200810140945 METAR LMML 140945Z VRB03KT 9999 FEW033 BKN250 24/15 Q1021
                        NOSIG=
200810140930 METAR LMML NIL=
200810140915 METAR LMML 140915Z 00000KT 9999 FEW025 BKN250 24/13 Q1021
                        NOSIG=
200810140900 METAR LMML NIL=
200810140845 METAR LMML 140845Z VRB01KT 9999 FEW025 BKN250 23/15 Q1021
                        NOSIG=
200810140830 LMML NIL=
200810140815 METAR LMML 140815Z VRB01KT 9999 FEW025MSCT250 22/15 Q1021
                        NOSIG=
200810140800 METAR LMML NIL=
200810140745 METAR LMML 140745Z VRB01KT 9999 FEW020 SCT250 22/16 Q1021
                        NOSIG=
200810140730 METAR LMML NIL=
200810140715 METAR LMML 140715Z VRB02KT 9000 FEW020 BKN250 21/16 Q1021
                        NOSIG=
200810140700 METAR LMML NIL=
200810140645 METAR LMML 140645Z VRB02KT 9000 FEW020 SCT250 20/16 Q1020
                        NOSIG=
200810140630 METAR LMML NIL=
200810140615 METAR LMML 140615Z VRB03KT 9000 FEW020 SCT250 18/16 Q1020
                        NOSIG=
200810140600 METAR LMML NIL=
200810140545 METAR LMML 140545Z VRB02KT 9999 FEW020 SCT250 17/15 Q1020
                        NOSIG=
200810140530 METAR LMML NIL=
200810140515 METAR LMML 140515Z VRB02KT 9999 FEW020 16/14 Q1020 NOSIG=
200810140500 METAR LMML NIL=
200810140445 METAR LMML 140445Z VRB02KT 9999 FEW025 16/14 Q1020 NOSIG=
200810140430 METAR LMML NIL=
200810140415 METAR LMML 140415Z VRB02KT CAVOK 16/14 Q1020 NOSIG=
200810140400 METAR LMML NIL=
200810140345 METAR LMML 140345Z VRB03KT CAVOK 17/14 Q1020 NOSIG=
200810140330 METAR LMML NIL=
200810140315 METAR LMML 140315Z VRB03KT CAVOK 17/14 Q1020 NOSIG=
200810140300 METAR LMML NIL=
200810140245 METAR LMML 140245Z 29004KT CAVOK 17/13 Q1020 NOSIG=
200810140230 METAR LMML NIL=
200810140215 METAR LMML 140215Z 29004KT CAVOK 18/13 Q1020 NOSIG=
200810140200 METAR LMML NIL=
200810140145 METAR LMML 140145Z 29004KT CAVOK 18/13 Q1020 NOSIG=
200810140130 METAR LMML NIL=
200810140115 METAR LMML 140115Z VRB03KT CAVOK 17/13 Q1020 NOSIG=
200810140100 METAR LMML NIL=
200810140045 METAR LMML 140045Z VRB03KT CAVOK 17/13 Q1021 NOSIG=
200810140030 METAR LMML NIL=
200810140015 METAR LMML 140015Z VRB02KT CAVOK 16/13 Q1021 NOSIG=
200810140000 METAR LMML NIL=
200810132345 METAR LMML 132345Z VRB02KT CAVOK 16/13 Q1021 NOSIG=
200810132330 METAR LMML NIL=
200810132315 METAR LMML 132315Z VRB01KT CAVOK 17/14 Q1021 NOSIG=
200810132300 METAR LMML NIL=
200810132245 METAR LMML 132245Z VRB02KT CAVOK 17/13 Q1021 NOSIG=
200810132230 METAR LMML NIL=
200810132215 METAR LMML 132215Z VRB02KT CAVOK 17/13 Q1021 NOSIG=
200810132200 METAR LMML NIL=
200810132145 METAR LMML 132145Z VRB02KT CAVOK 17/13 Q1021 NOSIG=
200810132130 METAR LMML NIL=
200810132115 METAR LMML 132115Z VRB02KT CAVOK 17/13 Q1021 NOSIG=
200810132100 METAR LMML NIL=
200810132045 METAR LMML 132045Z VRB03KT CAVOK 18/13 Q1022 NOSIG=
200810132030 METAR LMML NIL=
200810132015 METAR LMML 132015Z VRB03KT CAVOK 18/13 Q1022 NOSIG=
200810132000 METAR LMML NIL=
200810131945 METAR LMML 131945Z VRB02KT CAVOK 18/13 Q1021 NOSIG=
200810131930 METAR LMML NIL=
200810131915 METAR LMML 131915Z VRB02KT CAVOK 18/13 Q1021 NOSIG=
200810131900 METAR LMML NIL=
200810131845 METAR LMML 131845Z VRB02KT CAVOK 19/14 Q1021 NOSIG=
200810131830 METAR LMML NIL=
200810131815 METAR LMML 131815Z VRB02KT CAVOK 19/13 Q1021 NOSIG=
200810131800 METAR LMML NIL=
200810131745 METAR LMML 131745Z VRB02KT CAVOK 20/13 Q1021 NOSIG=
200810131730 METAR LMML NIL=
200810131715 METAR LMML 131715Z VRB03KT CAVOK 20/13 Q1021 NOSIG=
200810131700 METAR LMML NIL=
200810131645 METAR LMML 131645Z VRB03KT 9999 FEW030 20/13 Q1021 NOSIG=
200810131630 METAR LMML NIL=
200810131615 METAR LMML 131615Z VRB03KT CAVOK 22/13 Q1021 NOSIG=
200810131600 METAR LMML NIL=
200810131545 METAR LMML 131545Z 04004KT 360V070 CAVOK 22/14 Q1020 NOSIG=
200810131515 METAR LMML 131515Z 04005KT 010V070 CAVOK 23/12 Q1021 NOSIG=
200810131500 METAR LMML NIL=
200810131445 METAR LMML 131445Z 03005KT 320V060 CAVOK 23/14 Q1021 NOSIG=
200810131430 METAR LMML NIL=
200810131415 METAR LMML 131415Z 02004KT 340V070 9999 FEW035 24/13 Q1021
                        NOSIG=
200810131400 METAR LMML NIL=
200810131345 METAR LMML 131345Z 03006KT 350V070 9999 FEW035 24/13 Q1021
                        NOSIG=
200810131315 METAR LMML 131315Z 04006KT 010V070 9999 FEW035 24/14 Q1021
                        NOSIG=
200810131300 METAR LMML NIL=
200810131245 METAR LMML 131245Z 04006KT 350V100 9999 FEW035 24/14 Q1021
                        NOSIG=
200810131230 METAR LMML NIL=
200810131215 METAR LMML 131215Z 05007KT 010V090 9999 FEW035 24/15 Q1021
                        NOSIG=
200810131200 METAR LMML NIL=
200810131145 METAR LMML 131145Z 02006KT 350V060 9999 FEW036 24/14 Q1021
                        NOSIG=
200810131130 METAR LMML NIL=
200810131115 METAR LMML 131115Z 05007KT 010V100 9999 FEW036 24/14 Q1022
                        NOSIG=
200810131045 METAR LMML 131045Z 04008KT 360V090 9999 FEW038 24/13 Q1022
                        NOSIG=
200810131030 METAR LMML NIL=
200810131015 METAR LMML 131015Z 02007KT 330V070 9999 FEW042 24/13 Q1022
                        NOSIG=
200810131000 METAR LMML NIL=
200810130945 METAR LMML 130945Z 04007KT 360V080 9999 FEW030 24/13 Q1022
                        NOSIG=
200810130930 METAR LMML NIL=
200810130915 METAR LMML 130915Z 03007KT 010V070 9999 FEW030 24/13 Q1022
                        NOSIG=
200810130900 METAR LMML NIL=
200810130845 METAR LMML 130845Z 03007KT 010V100 9999 FEW035 23/12 Q1022
                        NOSIG=
200810130815 METAR LMML 130815Z 02006KT 350V050 CAVOK 23/13 Q1023 NOSIG=
200810130800 METAR LMML NIL=
200810130745 METAR LMML 130745Z 01005KT 320V080 CAVOK 22/15 Q1022 NOSIG=
200810130730 METAR LMML NIL=
200810130715 METAR LMML 130715Z VRB01KT CAVOK 21/15 Q1022 NOSIG=
200810130700 METAR LMML NIL=
200810130645 METAR LMML 130645Z VRB02KT CAVOK 20/15 Q1022 NOSIG=
200810130630 METAR LMML NIL=
200810130615 METAR LMML 130615Z VRB01KT 9999 FEW020 18/15 Q1022 NOSIG=
200810130600 METAR LMML NIL=
200810130545 METAR LMML 130545Z VRB01KT 9999 FEW020 17/14 Q1022 NOSIG=
200810130530 METAR LMML NIL=
200810130515 METAR LMML 130515Z VRB01KT 9999 FEW020 17/14 Q1022 NOSIG=
200810130445 METAR LMML 130445Z VRB02KT 9999 FEW020 16/14 Q1022 NOSIG=
200810130430 METAR LMML NIL=
200810130415 METAR LMML 130415Z VRB02KT 9999 FEW020 17/14 Q1022 NOSIG=
200810130400 METAR LMML NIL=
200810130345 METAR LMML 130345Z VRB02KT CAVOK 17/14 Q1022 NOSIG=
200810130330 METAR LMML NIL=
200810130315 METAR LMML 130315Z VRB01KT CAVOK 17/14 Q1022 NOSIG=
200810130300 METAR LMML NIL=
200810130245 METAR LMML 130245Z VRB02KT CAVOK 17/15 Q1022 NOSIG=
200810130215 METAR LMML 130215Z VRB03KT CAVOK 17/15 Q1022 NOSIG=
200810130200 METAR LMML NIL=
200810130145 METAR LMML 130145Z VRB03KT CAVOK 17/15 Q1023 NOSIG=
200810130130 METAR LMML NIL=
200810130115 METAR LMML 130115Z VRB03KT CAVOK 17/15 Q1023 NOSIG=
200810130100 METAR LMML NIL=
200810130045 METAR LMML 130045Z 31005KT CAVOK 17/15 Q1023 NOSIG=
200810130030 METAR LMML NIL=
200810130015 METAR LMML 130015Z 30005KT CAVOK 18/15 Q1024 NOSIG=
200810122345 METAR LMML 122345Z 31004KT CAVOK 18/15 Q1024 NOSIG=
200810122330 METAR LMML NIL=
200810122315 METAR LMML 122315Z VRB03KT CAVOK 18/15 Q1024 NOSIG=
200810122300 METAR LMML NIL=
200810122245 METAR LMML 122245Z VRB03KT CAVOK 19/15 Q1024 NOSIG=
200810122230 METAR LMML NIL=
200810122215 METAR LMML 122215Z VRB02KT CAVOK 18/14 Q1024 NOSIG=
200810122200 METAR LMML NIL=
200810122145 METAR LMML 122145Z VRB02KT 9999 FEW030 SCT070 19/15 Q1025
                        NOSIG=
200810122130 METAR LMML NIL=
200810122115 METAR LMML 122115Z VRB03KT 9999 FEW030 BKN070 20/15 Q1025
                        NOSIG=
200810122100 METAR LMML NIL=
200810122045 METAR LMML 122045Z VRB03KT 9999 FEW030 BKN060 20/15 Q1025
                        NOSIG=
200810122030 METAR LMML NIL=
200810122015 METAR LMML 122015Z 29004KT 260V320 9999 FEW030 BKN060 20/15
                        Q1025 NOSIG=
200810122000 METAR LMML NIL=
200810121945 METAR LMML 121945Z 29005KT CAVOK 20/14 Q1025 NOSIG=
200810121930 METAR LMML NIL=
200810121915 METAR LMML 121915Z 29004KT CAVOK 20/14 Q1025 NOSIG=
200810121845 METAR LMML 121845Z 29004KT 260V320 9999 FEW030 SCT060 20/14
                        Q1025 NOSIG=
200810121830 METAR LMML NIL=
200810121815 METAR LMML 121815Z 32005KT 300V360 9999 FEW030 SCT060 20/14
                        Q1026 NOSIG=
200810121800 METAR LMML NIL=
200810121745 METAR LMML 121745Z 31004KT 280V350 9999 FEW030 20/13 Q1026
                        NOSIG=
200810121730 METAR LMML NIL=
200810121715 METAR LMML 121715Z 33004KT 9999 FEW030 20/13 Q1025 NOSIG=
200810121700 METAR LMML NIL=
200810121645 METAR LMML 121645Z 36005KT 9999 FEW030 21/13 Q1025 NOSIG=
200810121630 METAR LMML NIL=
200810121615 METAR LMML 121615Z 01005KT 9999 FEW030 21/13 Q1025 NOSIG=
200810121600 METAR LMML NIL=
200810121545 METAR LMML 121545Z 01004KT 330V040 9999 FEW030 22/13 Q1025
                        NOSIG=
200810121530 METAR LMML NIL=
200810121515 METAR LMML 121515Z 01005KT 9999 FEW030 23/13 Q1025 NOSIG=
200810121500 METAR LMML NIL=
200810121445 METAR LMML 121445Z 02006KT 9999 FEW030 23/13 Q1025 NOSIG=
200810121430 METAR LMML NIL=
200810121415 METAR LMML 121415Z 01005KT 330V060 9999 FEW030 23/14 Q1026
                        NOSIG=
200810121400 METAR LMML NIL=
200810121345 METAR LMML 121345Z 01007KT 340V060 9999 FEW030 23/14 Q1026
                        NOSIG=
200810121330 METAR LMML NIL=
200810121315 METAR LMML 121315Z 03006KT 340V080 9999 FEW030 24/13 Q1026
                        NOSIG=
200810121300 METAR LMML NIL=
200810121245 METAR LMML 121245Z 03005KT 350V080 9999 FEW030 24/14 Q1026
                        NOSIG=
200810121230 METAR LMML NIL=
200810121215 METAR LMML 121215Z 02007KT 340V050 9999 FEW030 24/13 Q1026
                        NOSIG=
200810121200 METAR LMML NIL=
200810121145 METAR LMML 121145Z 01007KT 310V060 9999 FEW026 24/14 Q1027
                        NOSIG=
200810121130 METAR LMML NIL=
200810121115 METAR LMML 121115Z 02008KT 300V070 9999 FEW026 24/14 Q1027
                        NOSIG=
200810121100 METAR LMML NIL=
200810121045 METAR LMML 121045Z 03006KT 330V090 9999 FEW026 24/15 Q1028
                        NOSIG=
200810121030 METAR LMML NIL=
200810121015 METAR LMML 121015Z 04008KT 340V080 9999 FEW026 24/14 Q1028
                        NOSIG=
200810121000 METAR LMML NIL=
200810120945 METAR LMML 120945Z 03008KT 360V070 9999 FEW026 23/14 Q1028
                        NOSIG=
200810120930 METAR LMML NIL=
200810120915 METAR LMML 120915Z 04007KT 360V090 9999 FEW026 23/14 Q1028
                        NOSIG=
200810120900 METAR LMML NIL=
200810120845 METAR LMML 120845Z 02007KT 9999 FEW026 23/15 Q1028 NOSIG=
200810120830 METAR LMML NIL=
200810120815 METAR LMML 120815Z 04006KT 010V070 9999 FEW026 22/16 Q1028
                        NOSIG=
200810120800 METAR LMML NIL=
200810120745 METAR LMML 120745Z 03007KT 350V070 9999 SCT024 22/16 Q1028
                        NOSIG=
200810120730 METAR LMML NIL=
200810120715 METAR LMML 120715Z 03007KT 360V110 9999 SCT024 22/16 Q1028
                        NOSIG=
200810120700 METAR LMML NIL=
200810120645 METAR LMML 120645Z 03007KT 360V070 9999 FEW024 21/16 Q1028
                        NOSIG=
200810120630 METAR LMML NIL=
200810120615 METAR LMML 120615Z 04005KT 010V070 9999 FEW024 20/15 Q1028
                        NOSIG=
200810120600 METAR LMML NIL=
200810120545 METAR LMML 120545Z VRB03KT 9999 FEW025 19/15 Q1028 NOSIG=
200810120530 METAR LMML NIL=
200810120515 METAR LMML 120515Z VRB03KT 9999 FEW025 19/15 Q1028 NOSIG=
200810120500 METAR LMML NIL=
200810120445 METAR LMML 120445Z 03006KT 360V060 9999 FEW024 19/15 Q1028
                        NOSIG=
200810120430 METAR LMML NIL=
200810120415 METAR LMML 120415Z 03004KT 360V070 9999 SCT024 19/15 Q1028
                        NOSIG=
200810120400 METAR LMML NIL=
200810120345 METAR LMML 120345Z 03004KT 9999 SCT024 19/15 Q1028 NOSIG=
200810120330 METAR LMML NIL=
200810120315 METAR LMML 120315Z 03004KT 9999 SCT025 19/15 Q1028 NOSIG=
200810120300 METAR LMML NIL=
200810120245 METAR LMML 120245Z 03005KT 9999 SCT025 19/15 Q1028 NOSIG=
200810120215 METAR LMML 120215Z 03004KT 360V060 9999 FEW023 20/16 Q1028
                        NOSIG=
200810120200 METAR LMML NIL=
200810120145 METAR LMML 120145Z 04005KT 9999 FEW026 20/15 Q1028 NOSIG=
200810120130 METAR LMML NIL=
200810120115 METAR LMML 120115Z 04005KT 360V100 9999 FEW028 20/15 Q1028
                        NOSIG=
200810120100 METAR LMML NIL=
200810120045 METAR LMML 120045Z 04004KT 010V070 9999 FEW026 20/15 Q1029
                        NOSIG=
200810120030 METAR LMML NIL=
200810120015 METAR LMML 120015Z 04004KT 9999 FEW027 19/15 Q1029 NOSIG=
200810120000 METAR LMML NIL=
200810112345 METAR LMML 112345Z VRB03KT 9999 FEW026 19/15 Q1029 NOSIG=
200810112330 METAR LMML NIL=
200810112315 METAR LMML 112315Z VRB03KT 9999 FEW025 18/15 Q1029 NOSIG=
200810112245 METAR LMML 112245Z VRB03KT 9999 FEW024 18/15 Q1029 NOSIG=
200810112230 METAR LMML NIL=
200810112215 METAR LMML 112215Z 05004KT 010V090 9999 FEW025 18/15 Q1029
                        NOSIG=
200810112200 METAR LMML NIL=
200810112145 METAR LMML 112145Z VRB02KT 9999 FEW022 19/16 Q1030 NOSIG=
200810112130 METAR LMML NIL=
200810112115 METAR LMML 112115Z VRB03KT 9999 FEW023 20/16 Q1030 NOSIG=
200810112100 METAR LMML NIL=
200810112045 METAR LMML 112045Z VRB03KT 9999 FEW020 19/16 Q1030 NOSIG=
200810112030 METAR LMML NIL=
200810112015 METAR LMML 112015Z VRB03KT 9999 FEW020 20/16 Q1030 NOSIG=
200810112000 METAR LMML NIL=
200810111945 METAR LMML 111945Z VRB03KT 9999 FEW020 20/16 Q1029 NOSIG=
200810111930 METAR LMML NIL=
200810111915 METAR LMML 111915Z VRB03KT 9999 FEW020 20/15 Q1029 NOSIG=
200810111900 METAR LMML NIL=
200810111845 METAR LMML 111845Z VRB03KT 9999 FEW023 20/16 Q1029 NOSIG=
200810111830 METAR LMML NIL=
200810111815 METAR LMML 111815Z 08004KT 050V120 9999 FEW023 20/16 Q1029
                        NOSIG=
200810111800 METAR LMML NIL=
200810111745 METAR LMML 111745Z VRB03KT 9999 FEW024 20/15 Q1029 NOSIG=
200810111730 METAR LMML NIL=
200810111715 METAR LMML 111715Z 07004KT 9999 FEW020 20/15 Q1029 NOSIG=
200810111700 METAR LMML NIL=
200810111645 METAR LMML 111645Z 08005KT 050V110 9999 FEW025 20/15 Q1029
                        NOSIG=
200810111630 METAR LMML NIL=
200810111615 METAR LMML 111615Z 09005KT 060V120 9999 FEW025 21/16 Q1029
                        NOSIG=
200810111600 METAR LMML NIL=
200810111545 METAR LMML 111545Z 10005KT 9999 FEW025 SCT150 21/15 Q1029
                        NOSIG=
200810111530 METAR LMML NIL=
200810111515 METAR LMML 111515Z 10008KT 070V160 9999 FEW023 SCT150 21/16
                        Q1028 NOSIG=
200810111500 METAR LMML NIL=
200810111445 METAR LMML 111445Z 09006KT 9999 FEW024 SCT150 21/16 Q1028
                        NOSIG=
200810111430 METAR LMML NIL=
200810111415 METAR LMML 111415Z 09007KT 9999 FEW027 SCT150 21/16 Q1028
                        NOSIG=
200810111400 METAR LMML NIL=
200810111345 METAR LMML 111345Z 08008KT 040V110 9999 FEW026 SCT150 22/16
                        Q1029 NOSIG=
200810111330 METAR LMML NIL=
200810111315 METAR LMML 111315Z 07009KT 040V100 9999 FEW027 BKN150 22/16
                        Q1029 NOSIG=
200810111300 METAR LMML NIL=
200810111245 METAR LMML 111245Z 08009KT 040V120 9999 FEW026 BKN150 22/16
                        Q1029 NOSIG=
200810111230 METAR LMML NIL=
200810111215 METAR LMML 111215Z 09008KT 060V120 9999 FEW026 BKN120 22/15
                        Q1029 NOSIG=
200810111200 METAR LMML NIL=
200810111145 METAR LMML 111145Z 08009G20KT 050V110 9999 SCT024 BKN150
                        22/16 Q1029 NOSIG=
200810111130 METAR LMML NIL=
200810111115 METAR LMML 111115Z 08010KT 030V100 9999 SCT023 BKN150 22/16
                        Q1030 NOSIG=
200810111100 METAR LMML NIL=
200810111045 METAR LMML 111045Z 09008KT 060V130 9999 SCT023 BKN150 22/16
                        Q1030 NOSIG=
200810111030 METAR LMML NIL=
200810111015 METAR LMML 111015Z 09008KT 050V130 9999 SCT024 BKN150 22/16
                        Q1030 NOSIG=
200810111000 METAR LMML NIL=
200810110945 METAR LMML 110945Z 09009KT 060V120 9999 FEW024 BKN150 23/16
                        Q1030 NOSIG=
200810110930 METAR LMML NIL=
200810110915 METAR LMML 110915Z 08009KT 030V120 9999 FEW022 BKN150 23/17
                        Q1030 NOSIG=
200810110900 METAR LMML NIL=
200810110845 METAR LMML 110845Z 09008KT 050V110 9999 FEW022 SCT150 22/17
                        Q1030 NOSIG=
200810110830 METAR LMML NIL=
200810110815 METAR LMML 110815Z 07010KT 040V100 9999 FEW022 SCT130 22/17
                        Q1030 NOSIG=
200810110800 METAR LMML NIL=
200810110745 METAR LMML 110745Z 06010KT 030V090 9999 FEW021 SCT130 22/17
                        Q1030 NOSIG=
200810110730 METAR LMML NIL=
200810110715 METAR LMML 110715Z 06008KT 9999 FEW021 SCT130 22/17 Q1029
                        NOSIG=
200810110700 METAR LMML NIL=
200810110645 METAR LMML 110645Z 07006KT 040V100 9999 FEW021 SCT130 21/17
                        Q1029 NOSIG=
200810110630 METAR LMML NIL=
200810110615 METAR LMML 110615Z 07006KT 040V110 9999 FEW021 BKN130 21/17
                        Q1029 NOSIG=
200810110600 METAR LMML NIL=
200810110545 METAR LMML 110545Z 07006KT 040V100 9999 FEW021 BKN130 20/16
                        Q1028 NOSIG=
200810110530 METAR LMML NIL=
200810110515 METAR LMML 110515Z 07006KT 040V100 9999 FEW021 SCT120 BKN250
                        20/16 Q1028 NOSIG=
200810110500 METAR LMML NIL=
200810110445 METAR LMML 110445Z 08005KT 9999 FEW020 SCT140 BKN250 20/17
                        Q1028 NOSIG=
200810110430 METAR LMML NIL=
200810110415 METAR LMML 110415Z 09004KT 9999 FEW020 20/17 Q1028 NOSIG=
200810110400 METAR LMML NIL=
200810110345 METAR LMML 110345Z 08005KT 9999 FEW022 20/17 Q1028 NOSIG=
200810110330 METAR LMML NIL=
200810110315 METAR LMML 110315Z 09005KT 9999 FEW022 20/17 Q1028 NOSIG=
200810110300 METAR LMML NIL=
200810110245 METAR LMML 110245Z 08004KT 050V110 9999 FEW019 20/17 Q1028
                        NOSIG=
200810110230 METAR LMML NIL=
200810110215 METAR LMML 110215Z 08004KT 050V110 9999 FEW019 SCT250 20/17
                        Q1028 NOSIG=
200810110200 METAR LMML NIL=
200810110145 METAR LMML 110145Z 09005KT 9999 FEW018 SCT250 20/17 Q1028
                        NOSIG=
200810110130 METAR LMML NIL=
200810110115 METAR LMML 110115Z 09005KT 9999 FEW018 SCT250 20/17 Q1028
                        NOSIG=
200810110100 METAR LMML NIL=
200810110045 METAR LMML 110045Z 09006KT 9999 FEW018 20/17 Q1028 NOSIG=
200810110030 METAR LMML NIL=
200810110015 METAR LMML 110015Z 10006KT 9999 FEW018 20/17 Q1028 NOSIG=
200810110000 METAR LMML NIL=
200810102345 METAR LMML 102345Z 10005KT 9999 FEW019 20/17 Q1028 NOSIG=
200810102315 METAR LMML 102315Z 09006KT 060V120 9999 SCT018 21/18 Q1028
                        NOSIG=
200810102300 METAR LMML NIL=
200810102245 METAR LMML 102245Z 10006KT 060V120 9999 SCT017 SCT250 21/17
                        Q1029 NOSIG=
200810102230 METAR LMML NIL=
200810102215 METAR LMML 102215Z 10007KT 070V130 9999 SCT018 SCT250 21/18
                        Q1029 NOSIG=
200810102200 METAR LMML NIL=
200810102145 METAR LMML 102145Z 09008KT 070V130 9999 SCT018 SCT250 21/18
                        Q1029 NOSIG=
200810102115 METAR LMML 102115Z 09009KT 060V120 9999 SCT017 21/18 Q1028
                        NOSIG=
200810102100 METAR LMML NIL=
200810102045 METAR LMML 102045Z 09008KT 060V170 9999 SCT018 SCT250 21/18
                        Q1028 NOSIG=
200810102030 METAR LMML NIL=
200810102015 METAR LMML 102015Z 10008KT 9999 SCT017 SCT250 21/18 Q1028
                        NOSIG=
200810102000 METAR LMML NIL=
200810101945 METAR LMML 101945Z 09008KT 060V120 9999 SCT017 SCT250 21/18
                        Q1028 NOSIG=
200810101915 METAR LMML 101915Z 09010KT 060V120 9999 SCT019 SCT250 21/18
                        Q1028 NOSIG=
200810101900 METAR LMML NIL=
200810101845 METAR LMML 101845Z 08009KT 9999 FEW019 21/18 Q1027 NOSIG=
200810101815 METAR LMML 101815Z 09008KT 9999 FEW020 SCT250 21/17 Q1027
                        NOSIG=
200810101800 METAR LMML NIL=
200810101745 METAR LMML 101745Z 09008KT 060V120 9999 FEW020 SCT250 21/17
                        Q1027 NOSIG=
200810101730 METAR LMML NIL=
200810101715 METAR LMML 101715Z 09009KT 060V120 9999 FEW021 SCT250 21/17
                        Q1027 NOSIG=
200810101700 METAR LMML NIL=
200810101645 METAR LMML 101645Z 09009KT 060V120 9999 FEW022 SCT250 22/17
                        Q1027 NOSIG=
200810101630 METAR LMML NIL=
200810101615 METAR LMML 101615Z 09008KT 9999 FEW023 SCT250 22/17 Q1027
                        NOSIG=
200810101600 METAR LMML NIL=
200810101545 METAR LMML 101545Z 08009KT 9999 FEW023 22/17 Q1027 NOSIG=
200810101530 METAR LMML NIL=
200810101515 METAR LMML 101515Z 08010KT 050V120 9999 FEW023 SCT250 23/17
                        Q1027 NOSIG=
200810101500 METAR LMML NIL=
200810101445 METAR LMML 101445Z 07012KT 9999 FEW026 SCT250 23/17 Q1027
                        NOSIG=
200810101430 METAR LMML NIL=
200810101415 METAR LMML 101415Z 08011KT 040V110 9999 FEW026 SCT250 24/17
                        Q1026 NOSIG=
200810101400 METAR LMML NIL=
200810101345 METAR LMML 101345Z 08011KT 050V110 9999 FEW025 SCT250 23/17
                        Q1026 NOSIG=
200810101330 METAR LMML NIL=
200810101315 METAR LMML 101315Z 10012KT 050V130 9999 FEW026 23/17 Q1026
                        NOSIG=
200810101300 METAR LMML NIL=
200810101245 METAR LMML 101245Z 08012KT 050V110 9999 FEW026 24/17 Q1026
                        NOSIG=
200810101230 METAR LMML NIL=
200810101215 METAR LMML 101215Z 10012KT 050V130 9999 SCT023 23/17 Q1027
                        NOSIG=
200810101200 METAR LMML NIL=
200810101145 METAR LMML 101145Z 08011KT 050V120 9999 SCT022 24/18 Q1027
                        NOSIG=
200810101130 METAR LMML NIL=
200810101115 METAR LMML 101115Z 09009KT 050V140 9999 SCT024 24/17 Q1027
                        NOSIG=
200810101100 METAR LMML NIL=
200810101045 METAR LMML 101045Z 08011KT 9999 SCT024 23/17 Q1027 NOSIG=
200810101030 METAR LMML NIL=
200810101015 METAR LMML 101015Z 08011KT 050V110 9999 SCT025 24/17 Q1027
                        NOSIG=
200810101000 METAR LMML NIL=
200810100945 METAR LMML 100945Z 10010KT 060V140 9999 SCT027 23/17 Q1028
                        NOSIG=
200810100930 METAR LMML NIL=
200810100915 METAR LMML 100915Z 09011KT 060V120 9999 SCT024 23/17 Q1027
                        NOSIG=
200810100900 METAR LMML NIL=
200810100845 METAR LMML 100845Z 08013KT 050V120 9999 BKN023 23/17 Q1027
                        TEMPO SHRA=
200810100830 METAR LMML NIL=
200810100815 METAR LMML 100815Z 09011KT 060V120 9999 SCT022 23/18 Q1027
                        TEMPO SHRA=
200810100800 METAR LMML NIL=
200810100745 METAR LMML 100745Z 09011KT 060V130 9999 -SHRA BKN023 22/17
                        Q1027 TEMPO SHRA=
200810100730 METAR LMML NIL=
200810100715 METAR LMML 100715Z 08008KT 9999 BKN024 22/16 Q1027 NOSIG=
200810100700 METAR LMML NIL=
200810100645 METAR LMML 100645Z 08009KT 040V120 9999 SCT024 22/16 Q1027
                        NOSIG=
200810100630 METAR LMML NIL=
200810100615 METAR LMML 100615Z 08005KT 050V120 9999 BKN025 20/16 Q1026
                        NOSIG=
200810100600 METAR LMML NIL=
200810100545 METAR LMML 100545Z 08007KT 9999 SCT021 20/15 Q1026 NOSIG=
200810100530 METAR LMML NIL=
200810100515 METAR LMML 100515Z 07010KT 030V110 9999 SCT021 20/15 Q1026
                        NOSIG=
200810100500 METAR LMML NIL=
200810100445 METAR LMML 100445Z 06009KT 030V090 9999 SCT025 20/16 Q1025
                        NOSIG=
200810100430 METAR LMML NIL=
200810100415 METAR LMML 100415Z 06009KT 020V110 9999 SCT026 20/16 Q1025
                        NOSIG=
200810100400 METAR LMML NIL=
200810100345 METAR LMML 100345Z 06009KT 020V090 9999 SCT027 20/15 Q1025
                        NOSIG=
200810100330 METAR LMML NIL=
200810100315 METAR LMML 100315Z 05009KT 030V090 9999 FEW030 20/15 Q1025
                        NOSIG=
200810100245 METAR LMML 100245Z 06008KT 030V090 9999 FEW030 20/14 Q1025
                        NOSIG=
200810100230 METAR LMML NIL=
200810100215 METAR LMML 100215Z 06007KT 9999 FEW030 20/15 Q1025 NOSIG=
200810100200 METAR LMML NIL=
200810100145 METAR LMML 100145Z 08009KT 9999 FEW030 20/14 Q1025 NOSIG=
200810100130 METAR LMML NIL=
200810100115 METAR LMML 100115Z 08007KT 050V110 9999 FEW031 20/15 Q1025
                        NOSIG=
200810100100 METAR LMML NIL=
200810100045 METAR LMML 100045Z 07008KT 040V100 9999 FEW031 20/15 Q1025
                        NOSIG=
200810100030 METAR LMML NIL=
200810100015 METAR LMML 100015Z 08009KT 9999 FEW024 20/15 Q1025 NOSIG=
200810100000 METAR LMML NIL=
200810092345 METAR LMML 092345Z 08008KT 050V110 9999 FEW025 20/16 Q1025
                        NOSIG=
200810092330 METAR LMML NIL=
200810092315 METAR LMML 092315Z 08008KT 050V120 9999 FEW026 20/16 Q1025
                        NOSIG=
200810092300 METAR LMML NIL=
200810092245 METAR LMML 092245Z 08008KT 050V110 9999 FEW025 21/16 Q1025
                        NOSIG=
200810092230 METAR LMML NIL=
200810092215 METAR LMML 092215Z 09010KT 9999 FEW025 21/16 Q1025 NOSIG=
200810092200 METAR LMML NIL=
200810092145 METAR LMML 092145Z 09009KT 050V130 9999 FEW025 21/16 Q1025
                        NOSIG=
200810092130 METAR LMML NIL=
200810092115 METAR LMML 092115Z 09010KT 060V120 9999 FEW025 21/16 Q1025
                        NOSIG=
200810092100 METAR LMML NIL=
200810092045 METAR LMML 092045Z 09010KT 050V110 9999 FEW024 21/16 Q1024
                        NOSIG=
200810092030 METAR LMML NIL=
200810092015 METAR LMML 092015Z 09009KT 9999 SCT025 21/16 Q1024 NOSIG=
200810092000 METAR LMML NIL=
200810091945 METAR LMML 091945Z 08009KT 9999 FEW025 21/16 Q1024 NOSIG=
200810091930 METAR LMML NIL=
200810091915 METAR LMML 091915Z 08009KT 050V110 9999 FEW027 21/16 Q1024
                        NOSIG=
200810091900 METAR LMML NIL=
200810091845 METAR LMML 091845Z 08010KT 050V110 9999 FEW027 21/15 Q1024
                        NOSIG=
200810091830 METAR LMML NIL=
200810091815 METAR LMML 091815Z 08010KT 050V120 9999 FEW026 21/15 Q1023
                        NOSIG=
200810091800 METAR LMML NIL=
200810091745 METAR LMML 091745Z 08010KT 9999 FEW026 21/15 Q1023 NOSIG=
200810091730 METAR LMML NIL=
200810091715 METAR LMML 091715Z 08009KT 050V110 9999 FEW026 21/16 Q1023
                        NOSIG=
200810091700 METAR LMML NIL=
200810091645 METAR LMML 091645Z 08008KT 060V120 9999 FEW030 21/15 Q1023
                        NOSIG=
200810091630 METAR LMML NIL=
200810091615 METAR LMML 091615Z 08011KT 9999 FEW030 21/15 Q1022 NOSIG=
200810091600 METAR LMML NIL=
200810091545 METAR LMML 091545Z 09010KT 050V130 9999 FEW030 22/15 Q1022
                        NOSIG=
200810091530 METAR LMML NIL=
200810091515 METAR LMML 091515Z 09011KT 060V140 9999 FEW030 SCT120 22/15
                        Q1022 NOSIG=
200810091500 METAR LMML NIL=
200810091445 METAR LMML 091445Z 10012KT 050V120 9999 FEW030 SCT130 22/15
                        Q1022 NOSIG=
200810091430 METAR LMML NIL=
200810091415 METAR LMML 091415Z 10012KT 060V140 9999 FEW030 SCT130 23/16
                        Q1021 NOSIG=
200810091400 METAR LMML NIL=
200810091345 METAR LMML 091345Z 10012KT 060V120 9999 FEW030 23/16 Q1021
                        NOSIG=
200810091330 METAR LMML NIL=
200810091315 METAR LMML 091315Z 08013KT 050V120 9999 FEW030 SCT250 23/16
                        Q1021 NOSIG=
200810091300 METAR LMML NIL=
200810091245 METAR LMML 091245Z 09013KT 040V120 9999 FEW024 SCT250 22/15
                        Q1021 NOSIG=
200810091230 METAR LMML NIL=
200810091215 METAR LMML 091215Z 08013KT 050V120 9999 FEW024 SCT250 23/16
                        Q1021 NOSIG=
200810091200 METAR LMML NIL=
200810091145 METAR LMML 091145Z 09013KT 050V120 9999 FEW025 23/17 Q1021
                        NOSIG=
200810091130 METAR LMML NIL=
200810091115 METAR LMML 091115Z 10013KT 070V130 9999 FEW025 23/17 Q1022
                        NOSIG=
200810091100 METAR LMML NIL=
200810091045 METAR LMML 091045Z 10012KT 060V130 9999 FEW026 23/17 Q1022
                        NOSIG=
200810091030 METAR LMML NIL=
200810091015 METAR LMML 091015Z 10011KT 070V160 9999 SCT026 23/17 Q1022
                        NOSIG=
200810091000 METAR LMML NIL=
200810090945 METAR LMML 090945Z 10011KT 060V140 9999 SCT025 23/17 Q1022
                        NOSIG=
200810090930 METAR LMML NIL=
200810090915 METAR LMML 090915Z 11011KT 050V130 9999 SCT025 23/17 Q1021
                        NOSIG=
200810090900 METAR LMML NIL=
200810090845 METAR LMML 090845Z 11011KT 070V160 9999 SCT024 23/17 Q1021
                        NOSIG=
200810090830 METAR LMML NIL=
200810090815 METAR LMML 090815Z 10011KT 9999 SCT023 22/17 Q1021 NOSIG=
200810090800 METAR LMML NIL=
200810090745 METAR LMML 090745Z 11011KT 9999 SCT020 22/17 Q1021 NOSIG=
200810090730 METAR LMML NIL=
200810090715 METAR LMML 090715Z 10010KT 060V130 9999 SCT021 22/17 Q1020
                        NOSIG=
200810090700 METAR LMML NIL=
200810090645 METAR LMML 090645Z 10008KT 050V130 9999 SCT019 22/17 Q1020
                        NOSIG=
200810090630 METAR LMML NIL=
200810090615 METAR LMML 090615Z 10007KT 9999 SCT019 21/18 Q1020 NOSIG=
200810090600 METAR LMML NIL=
200810090545 METAR LMML 090545Z 10007KT 070V130 9999 FEW019 20/18 Q1019
                        NOSIG=
200810090515 METAR LMML 090515Z 11007KT 9999 SCT018 20/17 Q1019 NOSIG=
200810090500 METAR LMML NIL=
200810090445 METAR LMML 090445Z 10006KT 9999 FEW017 20/18 Q1019 NOSIG
                        RMK CB TOPS TO NNW S=
200810090430 METAR LMML NIL=
200810090415 METAR LMML 090415Z 10007KT 9999 FEW018 20/18 Q1019 NOSIG=
200810090400 METAR LMML NIL=
200810090345 METAR LMML 090345Z 11006KT 9999 FEW019 SCT037 BKN120 20/18
                        Q1019 NOSIG=
200810090330 METAR LMML NIL=
200810090315 METAR LMML 090315Z 10005KT 9999 FEW019 BKN120 20/17 Q1019
                        NOSIG=
200810090300 METAR LMML NIL=
200810090245 METAR LMML 090245Z VRB03KT 9999 FEW015 BKN120 20/17 Q1018
                        NOSIG=
200810090230 METAR LMML NIL=
200810090215 METAR LMML 090215Z 11005KT 9999 FEW015 BKN120 20/18 Q1018
                        NOSIG=
200810090200 METAR LMML NIL=
200810090145 METAR LMML 090145Z VRB03KT 9999 FEW015 BKN120 20/18 Q1018
                        NOSIG=
200810090130 METAR LMML NIL=
200810090115 METAR LMML 090115Z 12006KT 9999 FEW015 BKN120 20/18 Q1018
                        NOSIG=
200810090045 METAR LMML 090045Z 11005KT 9999 FEW016 BKN120 20/18 Q1018
                        NOSIG=
200810090030 METAR LMML NIL=
200810090015 METAR LMML 090015Z 09004KT 060V130 9999 FEW020 BKN120 20/17
                        Q1018 NOSIG=
200810090000 METAR LMML NIL=
200810082345 METAR LMML 082345Z VRB03KT 9999 FEW020 BKN120 20/17 Q1018
                        NOSIG=
200810082315 METAR LMML 082315Z 10004KT 9999 FEW020 SCT120 BKN250 19/17
                        Q1018 NOSIG=
200810082300 METAR LMML NIL=
200810082245 METAR LMML 082245Z 10004KT 040V140 9999 FEW020 SCT120 BKN250
                        19/17 Q1018 NOSIG=
200810082230 METAR LMML NIL=
200810082215 METAR LMML 082215Z 13004KT 9999 FEW017 SCT120 BKN250 19/18
                        Q1018 NOSIG=
200810082200 METAR LMML NIL=
200810082145 METAR LMML 082145Z 14006KT 9999 FEW017 SCT120 BKN250 20/18
                        Q1018 NOSIG=
200810082130 METAR LMML NIL=
200810082115 METAR LMML 082115Z 14007KT 9999 SCT014 SCT120 BKN250 20/18
                        Q1019 NOSIG=
200810082045 METAR LMML 082045Z 14007KT 9999 FEW016 SCT120 BKN250 20/18
                        Q1019 NOSIG=
200810082030 METAR LMML NIL=
200810082015 METAR LMML 082015Z 13004KT 9999 SCT016 BKN120 20/18 Q1019
                        NOSIG=
200810082000 METAR LMML NIL=
200810081945 METAR LMML 081945Z VRB03KT 9999 FEW016 BKN110 20/18 Q1018
                        NOSIG=
200810081915 METAR LMML 081915Z 11004KT 9999 FEW020 BKN100 20/18 Q1018
                        NOSIG=
200810081900 METAR LMML NIL=
200810081845 METAR LMML 081845Z VRB03KT 9999 FEW020 BKN120 20/17 Q1018
                        NOSIG=
200810081830 METAR LMML NIL=
200810081815 METAR LMML 081815Z VRB03KT 9999 FEW020 BKN130 20/17 Q1018
                        NOSIG=
200810081800 METAR LMML NIL=
200810081745 METAR LMML 081745Z VRB03KT 9999 FEW020 BKN130 20/17 Q1018
                        NOSIG=
200810081730 METAR LMML NIL=
200810081715 METAR LMML 081715Z 13005KT 9999 FEW020 BKN120 BKN250 20/17
                        Q1017 NOSIG=
200810081700 METAR LMML NIL=
200810081645 METAR LMML 081645Z VRB03KT 9999 FEW018 BKN140 BKN250 21/17
                        Q1017 NOSIG=
200810081630 METAR LMML NIL=
200810081615 METAR LMML 081615Z VRB03KT 9999 FEW018 BKN140 BKN250 21/17
                        Q1017 NOSIG=
200810081600 METAR LMML NIL=
200810081545 METAR LMML 081545Z VRB02KT 9999 FEW018 BKN140 BKN250 21/17
                        Q1017 NOSIG=
200810081530 METAR LMML NIL=
200810081515 METAR LMML 081515Z VRB03KT 9999 FEW018 BKN140 BKN250 22/17
                        Q1017 NOSIG=
200810081500 METAR LMML NIL=
200810081445 METAR LMML 081445Z 18004KT 9999 FEW018 BKN120 BKN250 21/18
                        Q1017 NOSIG=
200810081430 METAR LMML NIL=
200810081415 METAR LMML 081415Z 16006KT 130V190 9999 FEW018 BKN120 BKN250
                        22/18 Q1017 NOSIG=
200810081400 METAR LMML NIL=
200810081345 METAR LMML 081345Z 16005KT 110V190 9999 FEW010 BKN120 BKN250
                        22/18 Q1018 NOSIG=
200810081330 METAR LMML NIL=
200810081315 METAR LMML 081315Z 17005KT 130V200 CAVOK 22/18 Q1018 NOSIG=
200810081300 METAR LMML NIL=
200810081245 METAR LMML 081245Z 16005KT 130V200 9999 FEW018 BKN120 BKN250
                        22/17 Q1018 NOSIG=
200810081230 METAR LMML NIL=
200810081215 METAR LMML 081215Z 16004KT 120V190 9999 FEW018 BKN120 BKN250
                        22/17 Q1018 NOSIG=
200810081200 METAR LMML NIL=
200810081145 METAR LMML 081145Z 14006KT 9999 FEW010 SCT120 BKN250 22/18
                        Q1018 NOSIG=
200810081130 METAR LMML NIL=
200810081115 METAR LMML 081115Z 13007KT 9999 FEW018 SCT120 BKN250 22/19
                        Q1019 NOSIG=
200810081100 LMML NIL=
200810081045 LMML 081045Z 14008KT 9999 FEW017 BKN250 22/18 Q1019 NOSIG=
200810081030 METAR LMML NIL=
200810081015 METAR LMML 081015Z 13008KT 090V170 9999 SCT018 BKN250 22/18
                        Q1019 NOSIG=
200810081000 METAR LMML NIL=
200810080945 METAR LMML 080945Z 13009KT 090V160 9999 SCT020 BKN250 23/18
                        Q1019 NOSIG=
200810080930 METAR LMML NIL=
200810080915 METAR LMML 080915Z 12010KT 090V150 9999 SCT021 BKN250 23/18
                        Q1019 NOSIG=
200810080900 METAR LMML NIL=
200810080845 METAR LMML 080845Z 11008KT 080V140 9999 FEW020 23/18 Q1019
                        NOSIG=
200810080830 METAR LMML NIL=
200810080815 METAR LMML 080815Z 10006KT 070V140 9999 FEW019 BKN250 23/18
                        Q1019 NOSIG=
200810080800 METAR LMML NIL=
200810080745 METAR LMML 080745Z 11005KT 9999 FEW020 BKN250 22/18 Q1019
                        NOSIG=
200810080730 METAR LMML NIL=
200810080715 METAR LMML 080715Z 11004KT 9999 FEW020TCU BKN250 21/19 Q1019
                        NOSIG=
200810080700 METAR LMML NIL=
200810080645 METAR LMML 080645Z VRB01KT 9999 FEW020 BKN250 21/18 Q1018
                        NOSIG=
200810080630 METAR LMML NIL=
200810080615 METAR LMML 080615Z VRB02KT 9999 FEW020 BKN250 18/17 Q1018
                        NOSIG=
200810080600 METAR LMML NIL=
200810080545 METAR LMML 080545Z VRB03KT 9999 FEW010 BKN250 18/17 Q1018
                        NOSIG=
200810080530 METAR LMML NIL=
200810080515 METAR LMML 080515Z VRB02KT 9999 FEW010 BKN250 17/16 Q1018
                        NOSIG=
200810080500 METAR LMML NIL=
200810080445 METAR LMML 080445Z VRB02KT 9999 FEW020 BKN250 17/16 Q1018
                        NOSIG=
200810080430 METAR LMML NIL=
200810080415 METAR LMML 080415Z VRB01KT 9999 FEW020 SCT250 17/16 Q1018
                        NOSIG=
200810080400 METAR LMML NIL=
200810080345 METAR LMML 080345Z 00000KT 9999 FEW020 SCT250 17/16 Q1018
                        NOSIG=
200810080330 METAR LMML NIL=
200810080315 METAR LMML 080315Z VRB02KT 9999 FEW020 SCT250 17/16 Q1018
                        NOSIG=
200810080300 METAR LMML NIL=
200810080245 METAR LMML 080245Z VRB01KT 9999 FEW020 17/16 Q1018 NOSIG=
200810080230 METAR LMML NIL=
200810080215 METAR LMML 080215Z VRB01KT 9999 FEW020 17/16 Q1018 NOSIG=
200810080200 METAR LMML NIL=
200810080145 METAR LMML 080145Z VRB02KT 9999 FEW020 17/17 Q1018 NOSIG=
200810080130 METAR LMML NIL=
200810080115 METAR LMML 080115Z VRB03KT 9999 FEW020 17/17 Q1018 NOSIG=
200810080100 METAR LMML NIL=
200810080045 METAR LMML 080045Z VRB02KT 9999 FEW020 17/17 Q1018 NOSIG=
200810080030 METAR LMML NIL=
200810080015 METAR LMML 080015Z VRB01KT 9999 FEW020 17/17 Q1019 NOSIG=
200810080000 METAR LMML NIL=
200810072345 METAR LMML 072345Z VRB01KT 9999 FEW020 17/16 Q1019 NOSIG=
200810072330 METAR LMML NIL=
200810072315 METAR LMML 072315Z VRB01KT 9999 FEW020 17/17 Q1019 NOSIG=
200810072245 METAR LMML 072245Z 00000KT 9999 FEW020 17/17 Q1019 NOSIG=
200810072230 METAR LMML NIL=
200810072215 METAR LMML 072215Z 00000KT 9999 FEW020 17/17 Q1019 NOSIG=
200810072200 METAR LMML NIL=
200810072145 METAR LMML 072145Z VRB01KT 9999 FEW020 18/17 Q1019 NOSIG=
200810072130 METAR LMML NIL=
200810072115 METAR LMML 072115Z VRB01KT 9999 FEW020 18/17 Q1019 NOSIG=
200810072100 METAR LMML NIL=
200810072045 METAR LMML 072045Z VRB01KT 9999 FEW020 18/17 Q1019 NOSIG=
200810072015 METAR LMML 072015Z VRB02KT 9999 FEW020 19/17 Q1019 NOSIG=
200810072000 METAR LMML NIL=
200810071945 METAR LMML 071945Z VRB02KT 9999 FEW020 18/17 Q1019 NOSIG=
200810071930 METAR LMML NIL=
200810071915 METAR LMML 071915Z VRB01KT 9999 FEW020 19/17 Q1019 NOSIG=
200810071900 METAR LMML NIL=
200810071845 METAR LMML 071845Z VRB02KT 9999 FEW020 SCT130 19/16 Q1019
                        NOSIG=
200810071830 METAR LMML NIL=
200810071815 METAR LMML 071815Z VRB02KT 9999 FEW020 SCT250 19/16 Q1019
                        NOSIG=
200810071800 METAR LMML NIL=
200810071745 METAR LMML 071745Z VRB03KT 9999 FEW020TCU SCT250 20/17 Q1019
                        NOSIG=
200810071730 METAR LMML NIL=
200810071715 METAR LMML 071715Z VRB02KT 9999 FEW020TCU SCT250 20/17 Q1019
                        NOSIG=
200810071700 METAR LMML NIL=
200810071645 METAR LMML 071645Z VRB03KT 9999 FEW020TCU SCT250 20/17 Q1019
                        NOSIG=
200810071630 METAR LMML NIL=
200810071615 METAR LMML 071615Z VRB03KT 9999 FEW020TCU 21/17 Q1019 NOSIG=
200810071600 METAR LMML NIL=
200810071545 METAR LMML 071545Z VRB02KT 9999 FEW015CB FEW020TCU SCT250
                        21/17 Q1019 NOSIG=
200810071530 METAR LMML NIL=
200810071515 METAR LMML 071515Z VRB02KT 9999 FEW015CB SCT020TCU 22/17
                        Q1019 NOSIG=
200810071500 METAR LMML NIL=
200810071445 METAR LMML 071445Z 12004KT 080V160 9999 FEW020TCU SCT080
                        21/17 Q1019 TEMPO 8000 SHRA BKN016=
200810071430 METAR LMML NIL=
200810071415 METAR LMML 071415Z 14004KT 100V170 9999 FEW023TCU SCT080
                        20/16 Q1020 RETS TEMPO 8000 SHRA
                        BKN016=
200810071400 METAR LMML NIL=
200810071345 METAR LMML 071345Z 10006KT 060V130 9999 -TSRA FEW010 SCT020CB
                        BKN070 19/17 Q1020 TEMPO 5000 TSRA
                        BKN016=
200810071332 METAR LMML 071332Z 09005KT 9999 -TSRA SCT020CB BKN080 19/17
                        Q1020 TEMPO 5000 TSRA BKN016=
200810071330 METAR LMML NIL=
200810071315 METAR LMML 071315Z 14008KT 9000 -RA FEW020TCU BKN080 19/18
                        Q1020 TEMPO 5000 TSRA BKN016=
200810071300 METAR LMML NIL=
200810071245 METAR LMML 071245Z VRB03KT 7000 RA FEW009 SCT020 BKN060 19/18
                        Q1020 TEMPO TSRA BKN015CB=
200810071230 METAR LMML NIL=
200810071215 METAR LMML 071215Z VRB03KT 6000 SHRA FEW008 SCT020TCU BKN050
                        19/18 Q1020 TEMPO 5000 TSRA BKN015CB=
200810071145 METAR LMML 071145Z 02006KT 330V050 6000 -SHRA BKN016CB SCT250
                        20/17 Q1021 TEMPO 8000 SHRA BKN015TCU=
200810071130 METAR LMML NIL=
200810071115 METAR LMML 071115Z 14007KT 360V230 9999 FEW016TCU SCT080
                        24/18 Q1021 TEMPO 8000 SHRA BKN015TCU=
200810071100 METAR LMML NIL=
200810071045 METAR LMML 071045Z 16010KT 120V200 9999 FEW016TCU SCT100
                        24/18 Q1020 TEMPO 8000 SHRA BKN015TCU=
200810071030 METAR LMML NIL=
200810071015 METAR LMML 071015Z 16011KT 130V210 9999 FEW017TCU SCT100
                        23/19 Q1021 TEMPO 8000 SHRA BKN015TCU
                        RMK CB TOP TO SOUTH=
200810071000 METAR LMML NIL=
200810070945 METAR LMML 070945Z 16010KT 120V210 9999 FEW015 23/18 Q1021
                        TEMPO 8000 SHRA=
200810070930 METAR LMML NIL=
200810070915 METAR LMML 070915Z 15009KT 120V180 9999 FEW013 23/19 Q1021
                        TEMPO 8000 SHRA=
200810070900 METAR LMML NIL=
200810070845 METAR LMML 070845Z 14009KT 110V170 9999 FEW020TCU SCT100
                        22/18 Q1021 TEMPO 8000 SHRA RMK CB
                        TOP TO NORTH=
200810070830 METAR LMML NIL=
200810070815 METAR LMML 070815Z 14009KT 9999 FEW020 SCT100 22/18 Q1021
                        TEMPO 8000 SHRA RMK CB TOP TO NORTH=
200810070800 METAR LMML NIL=
200810070745 METAR LMML 070745Z 13008KT 100V160 9999 FEW015TCU SCT070
                        21/19 Q1021 TEMPO 8000 SHRA RMK CB
                        TOP TO E=
200810070730 METAR LMML NIL=
200810070715 METAR LMML 070715Z 13005KT 9999 FEW015TCU SCT070 20/19 Q1021
                        TEMPO 8000 SHRA RMK CB TOP TO E=
200810070700 METAR LMML NIL=
200810070645 METAR LMML 070645Z 15007KT 120V180 9999 -SHRA FEW013TCU SCT020
                        20/18 Q1021 TEMPO 8000 SHRA=
200810070630 METAR LMML NIL=
200810070615 METAR LMML 070615Z 14007KT 120V200 9999 SCT014TCU SCT070
                        20/18 Q1021 TEMPO 8000 SHRA RMK CB
                        TOP TO N=
200810070600 METAR LMML NIL=
200810070545 METAR LMML 070545Z 12006KT 9999 FEW025 SCT070 20/18 Q1021
                        TEMPO 8000 SHRA=
200810070530 METAR LMML NIL=
200810070515 METAR LMML 070515Z 12005KT 080V150 9999 FEW025 SCT070 19/18
                        Q1021 NOSIG=
200810070500 METAR LMML NIL=
200810070445 METAR LMML 070445Z 11006KT 050V150 9999 FEW027 19/18 Q1021
                        NOSIG=
200810070430 METAR LMML NIL=
200810070415 METAR LMML 070415Z 12005KT 9999 FEW027 19/18 Q1021 NOSIG=
200810070400 METAR LMML NIL=
200810070345 METAR LMML 070345Z 11004KT 9999 FEW028 19/17 Q1021 NOSIG=
200810070330 METAR LMML NIL=
200810070315 METAR LMML 070315Z VRB03KT 9999 FEW027 18/16 Q1021 NOSIG=
200810070300 METAR LMML NIL=
200810070245 METAR LMML 070245Z VRB01KT 9999 FEW027 18/16 Q1021 NOSIG=
200810070230 METAR LMML NIL=
200810070215 METAR LMML 070215Z VRB01KT 9999 SCT027 18/16 Q1021 NOSIG=
200810070200 METAR LMML NIL=
200810070145 METAR LMML 070145Z VRB01KT 9999 FEW031 18/15 Q1021 NOSIG=
200810070130 METAR LMML NIL=
200810070115 METAR LMML 070115Z VRB01KT 9999 FEW038 18/15 Q1021 NOSIG=
200810070100 METAR LMML NIL=
200810070045 METAR LMML 070045Z VRB01KT 9999 FEW040 18/15 Q1021 NOSIG=
200810070030 METAR LMML NIL=
200810070015 METAR LMML 070015Z VRB01KT 9999 FEW040 18/15 Q1022 NOSIG=
200810070000 METAR LMML NIL=
200810062345 METAR LMML 062345Z VRB02KT 9999 FEW040 19/15 Q1022 NOSIG=
200810062330 METAR LMML NIL=
200810062315 METAR LMML 062315Z VRB01KT 9999 FEW040 19/15 Q1022 NOSIG=
200810062245 METAR LMML 062245Z VRB03KT 9999 FEW040 SCT070 19/15 Q1022
                        NOSIG=
200810062215 METAR LMML 062215Z VRB01KT 9999 FEW040 SCT070 20/15 Q1022
                        NOSIG=
200810062200 METAR LMML NIL=
200810062145 METAR LMML 062145Z VRB02KT 9999 FEW040 BKN060 21/15 Q1022
                        NOSIG=
200810062130 METAR LMML NIL=
200810062115 METAR LMML 062115Z 16005KT 120V200 9999 FEW040 BKN060 21/15
                        Q1022 NOSIG=
200810062100 METAR LMML NIL=
200810062045 METAR LMML 062045Z VRB02KT 9999 FEW035 SCT042 BKN060 21/15
                        Q1023 NOSIG=
200810062030 METAR LMML NIL=
200810062015 METAR LMML 062015Z 21004KT 170V240 9999 -RA FEW033 SCT060
                        BKN071 21/16 Q1023 NOSIG=
200810062000 METAR LMML NIL=
200810061945 METAR LMML 061945Z 20004KT 170V240 CAVOK 21/16 Q1022 NOSIG=
200810061930 METAR LMML NIL=
200810061900 METAR LMML NIL=
200810061845 METAR LMML 061845Z VRB03KT CAVOK 21/15 Q1022 NOSIG=
200810061830 METAR LMML NIL=
200810061815 METAR LMML 061815Z VRB03KT CAVOK 21/15 Q1022 NOSIG=
200810061800 METAR LMML NIL=
200810061745 METAR LMML 061745Z VRB03KT CAVOK 20/15 Q1022 NOSIG=
200810061730 METAR LMML NIL=
200810061715 METAR LMML 061715Z VRB03KT CAVOK 20/15 Q1022 NOSIG=
200810061645 METAR LMML 061645Z VRB03KT CAVOK 21/15 Q1022 NOSIG=
200810061630 METAR LMML NIL=
200810061615 METAR LMML 061615Z 16004KT CAVOK 21/15 Q1022 NOSIG=
200810061545 METAR LMML 061545Z VRB03KT 9999 FEW048 SCT070 21/15 Q1022
                        NOSIG=
200810061530 METAR LMML NIL=
200810061515 METAR LMML 061515Z VRB03KT 9999 FEW044 SCT120 21/15 Q1022
                        NOSIG=
200810061500 METAR LMML NIL=
200810061445 METAR LMML 061445Z 16004KT 110V200 9999 FEW037 SCT120 21/15
                        Q1022 NOSIG=
200810061430 METAR LMML NIL=
200810061415 METAR LMML 061415Z 19004KT 160V230 9999 FEW037 SCT250 22/14
                        Q1022 NOSIG=
200810061400 METAR LMML NIL=
200810061345 METAR LMML 061345Z VRB02KT 9999 FEW037 SCT250 22/14 Q1022
                        NOSIG=
200810061330 METAR LMML NIL=
200810061315 METAR LMML 061315Z 15005KT 060V240 9999 FEW036 23/15 Q1023
                        NOSIG=
200810061300 METAR LMML NIL=
200810061245 METAR LMML 061245Z 13004KT 070V210 9999 FEW034 SCT036 22/15
                        Q1023 NOSIG=
200810061230 METAR LMML NIL=
200810061215 METAR LMML 061215Z 09004KT 020V150 9999 BKN036 22/14 Q1023
                        NOSIG=
200810061200 METAR LMML NIL=
200810061145 METAR LMML 061145Z VRB03KT 9999 SCT034 22/13 Q1023 NOSIG=
200810061130 METAR LMML NIL=
200810061115 METAR LMML 061115Z VRB03KT 9999 SCT035 22/14 Q1023 NOSIG=
200810061100 METAR LMML NIL=
200810061045 METAR LMML 061045Z VRB03KT 9999 FEW036 23/14 Q1024 NOSIG=
200810061030 METAR LMML NIL=
200810061015 METAR LMML 061015Z VRB03KT 9999 FEW037 SCT060 23/14 Q1024
                        NOSIG=
200810061000 METAR LMML NIL=
200810060945 METAR LMML 060945Z 33005KT 270V040 9999 FEW037 SCT060 23/14
                        Q1024 NOSIG=
200810060930 METAR LMML NIL=
200810060915 METAR LMML 060915Z VRB03KT 9999 FEW036 SCT060 23/14 Q1024
                        NOSIG=
200810060900 METAR LMML NIL=
200810060845 METAR LMML 060845Z VRB03KT 9999 FEW040 SCT130 22/13 Q1024
                        NOSIG=
200810060830 METAR LMML NIL=
200810060815 METAR LMML 060815Z 36004KT 330V030 9999 FEW035 SCT130 22/14
                        Q1024 NOSIG=
200810060800 METAR LMML NIL=
200810060745 METAR LMML 060745Z 34004KT 280V030 9999 FEW035 21/13 Q1024
                        NOSIG=
200810060730 METAR LMML NIL=
200810060715 METAR LMML 060715Z VRB03KT 9999 FEW035 20/13 Q1023 NOSIG=
200810060700 METAR LMML NIL=
200810060645 METAR LMML 060645Z VRB02KT 9999 FEW035 19/14 Q1023 NOSIG=
200810060630 METAR LMML NIL=
200810060615 METAR LMML 060615Z VRB02KT 9999 FEW035 18/14 Q1023 NOSIG=
200810060600 METAR LMML NIL=
200810060545 METAR LMML 060545Z VRB03KT 9999 FEW035 16/13 Q1023 NOSIG
                        RMK SMOKE TO NORTH=
200810060530 METAR LMML NIL=
200810060515 METAR LMML 060515Z VRB02KT 9999 FEW035 15/12 Q1022 NOSIG=
200810060500 METAR LMML NIL=
200810060445 METAR LMML 060445Z VRB02KT 9999 FEW035 15/13 Q1022 NOSIG=
200810060430 METAR LMML NIL=
200810060415 METAR LMML 060415Z VRB02KT CAVOK 15/13 Q1022 NOSIG=
200810060400 METAR LMML NIL=
200810060345 METAR LMML 060345Z VRB02KT CAVOK 15/13 Q1022 NOSIG=
200810060330 METAR LMML NIL=
200810060315 METAR LMML 060315Z VRB02KT CAVOK 15/13 Q1022 NOSIG=
200810060300 METAR LMML NIL=
200810060245 METAR LMML 060245Z VRB02KT CAVOK 15/13 Q1022 NOSIG=
200810060230 METAR LMML NIL=
200810060215 METAR LMML 060215Z VRB02KT CAVOK 16/13 Q1022 NOSIG=
200810060200 METAR LMML NIL=
200810060145 METAR LMML 060145Z VRB03KT 9999 FEW038 16/13 Q1022 NOSIG=
200810060130 METAR LMML NIL=
200810060115 METAR LMML 060115Z VRB02KT 9999 FEW038 16/13 Q1022 NOSIG=
200810060100 METAR LMML NIL=
200810060045 METAR LMML 060045Z 30004KT 9999 FEW038 17/13 Q1022 NOSIG=
200810060030 METAR LMML NIL=
200810060015 METAR LMML 060015Z 30004KT 9999 FEW038 17/13 Q1022 NOSIG=
200810060000 METAR LMML NIL=
200810052345 METAR LMML 052345Z VRB03KT 9999 FEW038 16/12 Q1022 NOSIG=
200810052330 METAR LMML NIL=
200810052315 METAR LMML 052315Z VRB01KT 9999 FEW038 16/12 Q1022 NOSIG=
200810052300 METAR LMML NIL=
200810052245 METAR LMML 052245Z VRB03KT 9999 FEW038 16/12 Q1023 NOSIG=
200810052230 METAR LMML NIL=
200810052215 METAR LMML 052215Z VRB01KT 9999 FEW037 17/12 Q1023 NOSIG=
200810052200 METAR LMML NIL=
200810052145 METAR LMML 052145Z VRB02KT 9999 FEW042 16/12 Q1023 NOSIG=
200810052130 METAR LMML NIL=
200810052115 METAR LMML 052115Z VRB02KT 9999 FEW038 17/12 Q1023 NOSIG=
200810052100 METAR LMML NIL=
200810052045 METAR LMML 052045Z VRB03KT 9999 FEW038 17/12 Q1023 NOSIG=
200810052030 METAR LMML NIL=
200810052015 METAR LMML 052015Z VRB03KT 9999 FEW038 17/12 Q1023 NOSIG=
200810052000 METAR LMML NIL=
200810051945 METAR LMML 051945Z VRB03KT 9999 FEW038 18/12 Q1023 NOSIG=
200810051930 METAR LMML NIL=
200810051915 METAR LMML 051915Z VRB01KT CAVOK 18/12 Q1023 NOSIG=
200810051900 METAR LMML NIL=
200810051845 METAR LMML 051845Z VRB03KT CAVOK 18/12 Q1023 NOSIG=
200810051830 METAR LMML NIL=
200810051815 METAR LMML 051815Z 28004KT CAVOK 18/12 Q1022 NOSIG=
200810051800 METAR LMML NIL=
200810051745 METAR LMML 051745Z VRB03KT 9999 FEW044 18/11 Q1022 NOSIG=
200810051730 METAR LMML NIL=
200810051715 METAR LMML 051715Z 28005KT 250V310 9999 FEW044 19/11 Q1022
                        NOSIG=
200810051700 METAR LMML NIL=
200810051645 METAR LMML 051645Z 28006KT 240V310 9999 FEW046 19/11 Q1022
                        NOSIG=
200810051630 METAR LMML NIL=
200810051615 METAR LMML 051615Z 27007KT 240V310 9999 FEW045 20/10 Q1022
                        NOSIG=
200810051600 METAR LMML NIL=
200810051545 METAR LMML 051545Z 27008KT 230V310 9999 FEW045 20/10 Q1022
                        NOSIG=
200810051530 METAR LMML NIL=
200810051515 METAR LMML 051515Z 27008KT 230V320 9999 FEW045 21/09 Q1022
                        NOSIG=
200810051500 METAR LMML NIL=
200810051445 METAR LMML 051445Z 27007KT 210V310 9999 FEW045 21/09 Q1022
                        NOSIG=
200810051430 METAR LMML NIL=
200810051415 METAR LMML 051415Z 26007KT 220V320 9999 FEW045 22/09 Q1022
                        NOSIG=
200810051400 METAR LMML NIL=
200810051345 METAR LMML 051345Z 28008KT 230V310 9999 FEW045 22/09 Q1022
                        NOSIG=
200810051330 METAR LMML NIL=
200810051315 METAR LMML 051315Z 27008KT 230V300 9999 FEW046 22/08 Q1022
                        NOSIG=
200810051245 METAR LMML 051245Z 26009KT 210V300 9999 FEW044 22/10 Q1023
                        NOSIG=
200810051230 METAR LMML NIL=
200810051215 METAR LMML 051215Z 28008KT 240V310 9999 FEW044 22/11 Q1023
                        NOSIG=
200810051200 METAR LMML NIL=
200810051145 METAR LMML 051145Z 30007KT 240V330 9999 FEW044 22/11 Q1023
                        NOSIG=
200810051130 METAR LMML NIL=
200810051115 METAR LMML 051115Z 29007KT 250V320 9999 FEW042 22/12 Q1023
                        NOSIG=
200810051100 METAR LMML NIL=
200810051045 METAR LMML 051045Z 29007KT 240V340 9999 FEW042 22/11 Q1023
                        NOSIG=
200810051015 METAR LMML 051015Z 31009KT 280V350 9999 FEW040 21/11 Q1023
                        NOSIG=
200810050945 METAR LMML 050945Z 33008KT 290V360 9999 FEW039 21/12 Q1023
                        NOSIG=
200810050930 METAR LMML NIL=
200810050915 METAR LMML 050915Z 33009KT 9999 FEW035 21/12 Q1023 NOSIG=
200810050900 METAR LMML NIL=
200810050845 METAR LMML 050845Z 32010KT 290V350 9999 FEW030 21/11 Q1023
                        NOSIG=
200810050830 METAR LMML NIL=
200810050815 METAR LMML 050815Z 32010KT 290V350 9999 FEW030 21/11 Q1022
                        NOSIG=
200810050800 METAR LMML NIL=
200810050745 METAR LMML 050745Z 34013KT 310V010 9999 FEW030 20/10 Q1022
                        NOSIG=
200810050730 METAR LMML NIL=
200810050715 METAR LMML 050715Z 34010KT 310V010 9999 FEW030 20/09 Q1022
                        NOSIG=
200810050700 METAR LMML NIL=
200810050645 METAR LMML 050645Z 34009KT CAVOK 19/09 Q1021 NOSIG=
200810050630 METAR LMML NIL=
200810050615 METAR LMML 050615Z 33006KT CAVOK 18/09 Q1021 NOSIG=
200810050600 METAR LMML NIL=
200810050545 METAR LMML 050545Z 31008KT CAVOK 17/10 Q1021 NOSIG=
200810050530 METAR LMML NIL=
200810050515 METAR LMML 050515Z 29006KT 260V320 CAVOK 17/09 Q1021 NOSIG=
200810050500 METAR LMML NIL=
200810050445 METAR LMML 050445Z 28006KT CAVOK 17/09 Q1021 NOSIG=
200810050430 METAR LMML NIL=
200810050415 METAR LMML 050415Z 29006KT CAVOK 17/09 Q1021 NOSIG=
200810050400 METAR LMML NIL=
200810050345 METAR LMML 050345Z 30007KT 9999 FEW045 17/08 Q1021 NOSIG=
200810050330 METAR LMML NIL=
200810050315 METAR LMML 050315Z 29006KT 9999 FEW045 17/09 Q1021 NOSIG=
200810050300 METAR LMML NIL=
200810050245 METAR LMML 050245Z 29006KT 250V320 9999 FEW045 17/08 Q1021
                        NOSIG=
200810050230 METAR LMML NIL=
200810050215 METAR LMML 050215Z 29006KT 260V320 9999 FEW045 17/08 Q1021
                        NOSIG=
200810050200 METAR LMML NIL=
200810050145 METAR LMML 050145Z 29006KT 9999 FEW045 17/08 Q1021 NOSIG=
200810050130 METAR LMML NIL=
200810050115 METAR LMML 050115Z 31008KT 9999 FEW045 17/08 Q1021 NOSIG=
200810050100 METAR LMML NIL=
200810050045 METAR LMML 050045Z 29006KT 9999 FEW048 17/08 Q1021 NOSIG=
200810050030 METAR LMML NIL=
200810050015 METAR LMML 050015Z 30010KT 9999 FEW048 18/08 Q1021 NOSIG=
200810050000 METAR LMML NIL=
200810042345 METAR LMML 042345Z 30009KT 9999 FEW048 18/07 Q1021 NOSIG=
200810042330 METAR LMML NIL=
200810042315 METAR LMML 042315Z 31012KT 9999 FEW048 18/08 Q1021 NOSIG=
200810042300 METAR LMML NIL=
200810042245 METAR LMML 042245Z 31012KT 9999 FEW047 18/09 Q1021 NOSIG=
200810042230 METAR LMML NIL=
200810042215 METAR LMML 042215Z 30012KT CAVOK 18/08 Q1021 NOSIG=
200810042200 METAR LMML NIL=
200810042145 METAR LMML 042145Z 31015KT CAVOK 18/08 Q1021 NOSIG=
200810042130 METAR LMML NIL=
200810042115 METAR LMML 042115Z 31018KT CAVOK 18/07 Q1021 NOSIG=
200810042100 METAR LMML NIL=
200810042045 METAR LMML 042045Z 31015KT CAVOK 18/09 Q1020 NOSIG=
200810042030 METAR LMML NIL=
200810042015 METAR LMML 042015Z 31020KT 280V340 CAVOK 19/08 Q1020 NOSIG=
200810042000 METAR LMML NIL=
200810041945 METAR LMML 041945Z 31013KT 9999 FEW040 19/09 Q1020 NOSIG=
200810041930 METAR LMML NIL=
200810041915 METAR LMML 041915Z 31014KT 9999 FEW040 19/11 Q1020 NOSIG=
200810041900 METAR LMML NIL=
200810041845 METAR LMML 041845Z 31014KT 9999 FEW041 19/10 Q1019 NOSIG=
200810041830 METAR LMML NIL=
200810041815 METAR LMML 041815Z 31016KT 9999 FEW040 19/11 Q1019 NOSIG=
200810041800 METAR LMML NIL=
200810041745 METAR LMML 041745Z 31015KT 9999 FEW040 19/11 Q1019 NOSIG=
200810041730 METAR LMML NIL=
200810041715 METAR LMML 041715Z 31016KT 9999 FEW030 SCT100 19/11 Q1018
                        NOSIG=
200810041700 METAR LMML NIL=
200810041645 METAR LMML 041645Z 31013KT 290V350 9999 FEW030 19/11 Q1018
                        NOSIG=
200810041630 METAR LMML NIL=
200810041615 METAR LMML 041615Z 32018KT 290V350 9999 FEW030 20/11 Q1018
                        NOSIG=
200810041600 METAR LMML NIL=
200810041545 METAR LMML 041545Z 32019G30KT 9999 FEW030 SCT250 21/11 Q1017
                        NOSIG=
200810041530 METAR LMML NIL=
200810041515 METAR LMML 041515Z 32021KT 9999 FEW030 SCT250 21/11 Q1017
                        NOSIG=
200810041500 METAR LMML NIL=
200810041445 METAR LMML 041445Z 31018KT 280V340 9999 FEW030 SCT250 22/10
                        Q1017 NOSIG=
200810041430 METAR LMML NIL=
200810041415 METAR LMML 041415Z 31018KT 280V340 CAVOK 22/10 Q1017 NOSIG=
200810041400 METAR LMML NIL=
200810041345 METAR LMML 041345Z 31021KT 9999 FEW025 SCT250 22/13 Q1017
                        NOSIG=
200810041330 METAR LMML NIL=
200810041315 METAR LMML 041315Z 31021KT 9999 FEW024 BKN250 23/13 Q1017
                        NOSIG=
200810041300 METAR LMML NIL=
200810041245 METAR LMML 041245Z 31019KT 9999 FEW024 BKN250 23/15 Q1016
                        NOSIG=
200810041230 METAR LMML NIL=
200810041215 METAR LMML 041215Z 31019KT 9999 SCT025 BKN250 22/16 Q1016
                        NOSIG=
200810041200 METAR LMML NIL=
200810041145 METAR LMML 041145Z 32016KT 9999 SCT025 BKN250 23/17 Q1016
                        NOSIG=
200810041130 METAR LMML NIL=
200810041115 METAR LMML 041115Z 32017KT 9999 SCT028 BKN250 23/17 Q1017
                        NOSIG=
200810041045 METAR LMML 041045Z 32018KT 9999 FEW025 BKN250 23/15 Q1016
                        NOSIG=
200810041030 METAR LMML NIL=
200810041015 METAR LMML 041015Z 32012KT 290V360 9999 FEW025 BKN250 24/15
                        Q1016 NOSIG=
200810041000 METAR LMML NIL=
200810040945 METAR LMML 040945Z 33012KT 9999 FEW025 SCT110 BKN250 23/18
                        Q1016 NOSIG=
200810040930 METAR LMML NIL=
200810040915 METAR LMML 040915Z 33012KT 9999 FEW030 SCT110 SCT250 22/17
                        Q1015 NOSIG=
200810040900 METAR LMML NIL=
200810040845 METAR LMML 040845Z 34007KT 270V050 9999 SCT030 BKN110 BKN250
                        22/17 Q1015 NOSIG=
200810040815 METAR LMML 040815Z VRB03KT 9999 SCT021 SCT100 BKN250 22/18
                        Q1015 RETS NOSIG=
200810040800 METAR LMML NIL=
200810040745 METAR LMML 040745Z 35007KT 320V020 9999 BKN021 21/18 Q1014
                        RETS TEMPO 8000 SHRA BKN015=
200810040730 METAR LMML NIL=
200810040715 METAR LMML 040715Z 21015G31KT 160V270 9999 -TSRA SCT015CB
                        BKN030 20/17 Q1014 TEMPO 3000 TSRA
                        BKN015CB=
200810040704 LMML 040704Z 19010G25KT 150V270 1000 R14/P1500N TSGR OVC018CB
                        24/20 Q1013 TEMPO 3000 TSRA BKN015CB=
200810040700 METAR LMML NIL=
200810040645 METAR LMML 040645Z 21006KT 170V250 9999 SCT032 BKN250 24/20
                        Q1013 TEMPO 3000 TSRA BKN015CB RMK
                        TCU TO NORTH=
200810040630 METAR LMML NIL=
200810040615 METAR LMML 040615Z 21006KT 180V250 9999 FEW030 SCT100 BKN250
                        24/19 Q1013 TEMPO 8000 SHRA RMK TCU
                        TO NORTH=
200810040600 METAR LMML NIL=
200810040545 METAR LMML 040545Z 21006KT 170V260 9999 FEW030 SCT100 BKN250
                        23/19 Q1013 TEMPO 8000 SHRA=
200810040515 METAR LMML 040515Z 21006KT 170V270 9999 FEW030 SCT110 24/18
                        Q1013 TEMPO 8000 SHRA=
200810040445 METAR LMML 040445Z 19005KT 170V230 9999 FEW032 23/17 Q1013
                        TEMPO 8000 SHRA=
200810040430 METAR LMML NIL=
200810040415 METAR LMML 040415Z 20006KT 180V240 9999 FEW032 23/16 Q1013
                        TEMPO 8000 SHRA=
200810040400 METAR LMML NIL=
200810040345 METAR LMML 040345Z 19005KT 160V230 9999 FEW032 22/17 Q1013
                        TEMPO 8000 SHRA=
200810040315 METAR LMML 040315Z 21005KT 180V250 9999 FEW032 22/17 Q1013
                        TEMPO 8000 SHRA=
200810040300 METAR LMML NIL=
200810040245 METAR LMML 040245Z 21009KT 190V260 9999 FEW032 SCT120 22/17
                        Q1013 TEMPO 8000 SHRA=
200810040230 METAR LMML NIL=
200810040215 METAR LMML 040215Z 22008KT 180V260 9999 FEW032 23/18 Q1014
                        TEMPO 5000 TSRA BKN040CB=
200810040200 METAR LMML NIL=
200810040145 METAR LMML 040145Z 21004KT 9999 FEW025 23/20 Q1014 TEMPO
                        5000 TSRA BKN040CB=
200810040130 METAR LMML NIL=
200810040115 METAR LMML 040115Z 22005KT 190V260 CAVOK 23/20 Q1014 TEMPO
                        5000 TSRA BKN040CB=
200810040100 METAR LMML NIL=
200810040045 METAR LMML 040045Z 23004KT 200V270 CAVOK 23/20 Q1014 TEMPO
                        5000 TSRA BKN040CB=
200810040030 METAR LMML NIL=
200810040015 METAR LMML 040015Z 24004KT 210V270 CAVOK 23/20 Q1014 TEMPO
                        5000 TSRA BKN040CB=
200810040000 METAR LMML NIL=
200810032345 METAR LMML 032345Z 23004KT 190V270 CAVOK 22/19 Q1014 TEMPO
                        5000 TSRA BKN040CB=
200810032330 METAR LMML NIL=
200810032315 METAR LMML 032315Z VRB03KT CAVOK 22/19 Q1014 TEMPO 5000 TSRA
                        BKN040CB=
200810032300 METAR LMML NIL=
200810032245 METAR LMML 032245Z 22004KT 190V260 CAVOK 23/19 Q1014 TEMPO
                        8000 RA RMK LIGHTNING TO W AND NW=
200810032230 METAR LMML NIL=
200810032215 METAR LMML 032215Z 22005KT 180V250 CAVOK 23/18 Q1015 TEMPO
                        8000 RA RMK LIGHTNING TO W=
200810032200 METAR LMML NIL=
200810032145 METAR LMML 032145Z 23005KT 200V270 CAVOK 22/18 Q1015 TEMPO
                        8000 RA=
200810032130 METAR LMML NIL=
200810032115 METAR LMML 032115Z 23004KT 200V270 CAVOK 22/18 Q1015 TEMPO
                        8000 RA=
200810032100 METAR LMML NIL=
200810032045 METAR LMML 032045Z 23006KT 200V270 CAVOK 23/18 Q1015 NOSIG=
200810032030 METAR LMML NIL=
200810032015 METAR LMML 032015Z 23006KT 200V260 CAVOK 23/18 Q1015 NOSIG=
200810032000 METAR LMML NIL=
200810031945 METAR LMML 031945Z 23006KT 190V260 9999 FEW025 23/18 Q1015
                        NOSIG=
200810031930 METAR LMML NIL=
200810031915 METAR LMML 031915Z 22004KT 200V270 9999 FEW025 23/18 Q1015
                        NOSIG=
200810031900 METAR LMML NIL=
200810031845 METAR LMML 031845Z 22005KT 200V260 9999 FEW025 23/17 Q1014
                        NOSIG=
200810031830 METAR LMML NIL=
200810031815 METAR LMML 031815Z 23006KT 200V270 9999 FEW025 23/16 Q1014
                        NOSIG=
200810031800 METAR LMML NIL=
200810031745 METAR LMML 031745Z 23005KT 210V270 9999 FEW025 23/17 Q1014
                        NOSIG=
200810031730 METAR LMML NIL=
200810031715 METAR LMML 031715Z 23005KT 200V280 9999 FEW025 23/17 Q1014
                        NOSIG=
200810031700 METAR LMML NIL=
200810031645 METAR LMML 031645Z 18005KT 140V240 9999 SCT026 23/19 Q1014
                        NOSIG=
200810031630 METAR LMML NIL=
200810031615 METAR LMML 031615Z 17005KT 140V220 9999 SCT029 23/18 Q1014
                        NOSIG=
200810031600 METAR LMML NIL=
200810031545 METAR LMML 031545Z 19005KT 160V230 9999 FEW033 24/18 Q1014
                        NOSIG=
200810031530 METAR LMML NIL=
200810031515 METAR LMML 031515Z 20005KT 160V250 9999 FEW027 25/18 Q1014
                        NOSIG=
200810031500 METAR LMML NIL=
200810031445 METAR LMML 031445Z 20005KT 150V260 9999 FEW027 25/18 Q1014
                        NOSIG=
200810031415 METAR LMML 031415Z 23005KT 190V280 9999 FEW028 25/18 Q1014
                        NOSIG=
200810031400 METAR LMML NIL=
200810031345 METAR LMML 031345Z 24005KT 190V310 9999 FEW030 25/18 Q1015
                        NOSIG=
200810031330 METAR LMML NIL=
200810031315 METAR LMML 031315Z 22007KT 180V270 9999 FEW029 25/17 Q1015
                        NOSIG=
200810031300 METAR LMML NIL=
200810031245 METAR LMML 031245Z 24008KT 200V300 9999 FEW032 25/17 Q1015
                        NOSIG=
200810031230 METAR LMML NIL=
200810031215 METAR LMML 031215Z 24008KT 200V310 9999 FEW028 25/17 Q1015
                        NOSIG=
200810031200 METAR LMML NIL=
200810031145 METAR LMML 031145Z 23009KT 190V290 9999 FEW030 25/17 Q1015
                        NOSIG=
200810031130 METAR LMML NIL=
200810031115 METAR LMML 031115Z 25008KT 190V290 9999 FEW031 25/17 Q1016
                        NOSIG=
200810031100 METAR LMML NIL=
200810031045 METAR LMML 031045Z 28010KT 240V300 9999 FEW033 24/17 Q1016
                        NOSIG=
200810031030 METAR LMML NIL=
200810031015 METAR LMML 031015Z 25009KT 210V290 9999 FEW033 24/16 Q1016
                        NOSIG=
200810031000 METAR LMML NIL=
200810030945 METAR LMML 030945Z 26008KT 200V330 9999 FEW033 24/16 Q1016
                        NOSIG=
200810030930 METAR LMML NIL=
200810030915 METAR LMML 030915Z 27008KT 220V320 9999 FEW033 24/16 Q1016
                        NOSIG=
200810030900 METAR LMML NIL=
200810030845 METAR LMML 030845Z 29008KT 260V330 9999 FEW030 24/16 Q1015
                        NOSIG=
200810030830 METAR LMML NIL=
200810030815 METAR LMML 030815Z 29009KT 9999 FEW030 24/16 Q1015 NOSIG=
200810030800 METAR LMML NIL=
200810030745 METAR LMML 030745Z 28008KT 240V320 9999 FEW025 23/16 Q1015
                        NOSIG=
200810030730 METAR LMML NIL=
200810030715 METAR LMML 030715Z 30008KT 260V330 9999 FEW025 22/16 Q1015
                        NOSIG=
200810030700 METAR LMML NIL=
200810030645 METAR LMML 030645Z 30005KT 270V330 9999 FEW025 22/16 Q1015
                        NOSIG=
200810030630 METAR LMML NIL=
200810030615 METAR LMML 030615Z 29005KT 9999 FEW025 21/16 Q1015 NOSIG=
200810030600 METAR LMML NIL=
200810030545 METAR LMML 030545Z 27004KT 240V300 9999 FEW025 20/16 Q1014
                        NOSIG=
200810030530 METAR LMML NIL=
200810030515 METAR LMML 030515Z 28004KT 240V310 9999 FEW026 19/16 Q1014
                        NOSIG=
200810030500 METAR LMML NIL=
200810030445 METAR LMML 030445Z 29006KT 260V320 9999 FEW026 19/16 Q1014
                        NOSIG=
200810030430 METAR LMML NIL=
200810030415 METAR LMML 030415Z 30005KT 9999 FEW026 19/16 Q1014 NOSIG=
200810030400 METAR LMML NIL=
200810030345 METAR LMML 030345Z 29004KT 250V320 9999 FEW026 19/16 Q1014
                        NOSIG=
200810030330 METAR LMML NIL=
200810030315 METAR LMML 030315Z 29004KT 9999 FEW026 19/16 Q1014 NOSIG=
200810030300 METAR LMML NIL=
200810030245 METAR LMML 030245Z 28007KT 250V310 9999 FEW020 20/16 Q1014
                        NOSIG=
200810030230 METAR LMML NIL=
200810030215 METAR LMML 030215Z 28007KT 240V300 9999 FEW020 20/16 Q1014
                        NOSIG=
200810030200 METAR LMML NIL=
200810030145 METAR LMML 030145Z 28007KT 9999 FEW020 20/16 Q1014 NOSIG=
200810030130 METAR LMML NIL=
200810030115 METAR LMML 030115Z 28007KT 9999 FEW025 20/16 Q1014 NOSIG=
200810030100 METAR LMML NIL=
200810030045 METAR LMML 030045Z 29008KT 250V310 9999 FEW020 20/16 Q1015
                        NOSIG=
200810030030 METAR LMML NIL=
200810030015 METAR LMML 030015Z 29010KT 9999 FEW020 20/16 Q1015 NOSIG=
200810030000 METAR LMML NIL=
200810022345 METAR LMML 022345Z 29009KT 9999 FEW020 20/16 Q1015 NOSIG=
200810022315 METAR LMML 022315Z 29008KT 250V310 9999 FEW020 20/16 Q1015
                        NOSIG=
200810022245 METAR LMML 022245Z 29008KT 9999 FEW020 20/16 Q1015 NOSIG=
200810022215 METAR LMML 022215Z 29008KT 9999 FEW020 21/17 Q1015 NOSIG=
200810022200 METAR LMML NIL=
200810022145 METAR LMML 022145Z 29006KT 9999 FEW023 21/17 Q1015 NOSIG=
200810022130 METAR LMML NIL=
200810022115 METAR LMML 022115Z 28008KT 250V320 9999 FEW023 21/17 Q1015
                        NOSIG=
200810022100 METAR LMML NIL=
200810022045 METAR LMML 022045Z 28005KT 9999 FEW030 21/17 Q1015 NOSIG=
200810022030 METAR LMML NIL=
200810022015 METAR LMML 022015Z 29007KT 9999 FEW031 21/17 Q1015 NOSIG=
200810021945 METAR LMML 021945Z 29007KT 9999 FEW031 21/17 Q1015 NOSIG=
200810021930 METAR LMML NIL=
200810021915 METAR LMML 021915Z 29007KT 250V310 9999 FEW031 21/17 Q1015
                        NOSIG=
200810021845 METAR LMML 021845Z 28006KT 9999 FEW031 21/18 Q1015 NOSIG=
200810021830 METAR LMML NIL=
200810021815 METAR LMML 021815Z 28007KT 250V320 9999 FEW020 21/17 Q1014
                        NOSIG=
200810021800 METAR LMML NIL=
200810021745 METAR LMML 021745Z 29009KT 9999 FEW020 21/17 Q1014 NOSIG=
200810021730 METAR LMML NIL=
200810021715 METAR LMML 021715Z 29010KT 250V310 9999 FEW020 21/17 Q1014
                        NOSIG=
200810021700 METAR LMML NIL=
200810021645 METAR LMML 021645Z 29010KT 260V320 9999 FEW020 22/18 Q1014
                        NOSIG=
200810021630 METAR LMML NIL=
200810021615 METAR LMML 021615Z 29011KT 260V320 9999 FEW016 22/18 Q1013
                        NOSIG=
200810021600 METAR LMML NIL=
200810021545 METAR LMML 021545Z 30010KT 260V330 9999 FEW016 23/19 Q1013
                        NOSIG=
200810021530 METAR LMML NIL=
200810021515 METAR LMML 021515Z 29011KT 250V320 9999 FEW016 23/20 Q1013
                        NOSIG=
200810021500 METAR LMML NIL=
200810021445 METAR LMML 021445Z 29009KT 250V330 9999 SCT022 24/19 Q1013
                        NOSIG=
200810021430 METAR LMML NIL=
200810021415 METAR LMML 021415Z 27007KT 200V300 9999 SCT022 25/19 Q1013
                        NOSIG=
200810021400 METAR LMML NIL=
200810021345 METAR LMML 021345Z 28008KT 250V310 9999 FEW031 25/19 Q1013
                        TEMPO 8000 SHRA=
200810021330 METAR LMML NIL=
200810021315 METAR LMML 021315Z 24007KT 200V300 9999 FEW031 26/18 Q1013
                        NOSIG=
200810021300 METAR LMML NIL=
200810021245 METAR LMML 021245Z 29004KT 210V350 9999 FEW031 26/18 Q1013
                        NOSIG=
200810021230 METAR LMML NIL=
200810021215 METAR LMML 021215Z VRB03KT 9999 FEW031 25/19 Q1013 NOSIG=
200810021200 METAR LMML NIL=
200810021145 METAR LMML 021145Z 32005KT 270V010 9999 FEW031 23/19 Q1013
                        NOSIG=
200810021130 METAR LMML NIL=
200810021115 METAR LMML 021115Z 32012KT 290V360 3000 -SHRA FEW020CB BKN026TCU
                        25/20 Q1014 TEMPO 5000 TSRA BKN015CB=
200810021103 METAR LMML 021103Z 05004KT 290V130 3000 BKN019CB 26/21 Q1013
                        TEMPO 5000 TSRA BKN015CB=
200810021100 METAR LMML NIL=
200810021045 METAR LMML 021045Z VRB03KT 9999 SCT020CB 27/21 Q1013 TEMPO
                        5000 TSRA BKN015CB=
200810021030 METAR LMML NIL=
200810021015 METAR LMML 021015Z 24006KT 190V290 9999 FEW028 27/19 Q1014
                        TEMPO 5000 TSRA BKN015CB=
200810021000 METAR LMML NIL=
200810020945 METAR LMML 020945Z 25005KT 200V300 9999 FEW028 26/19 Q1013
                        TEMPO 5000 TSRA BKN015CB=
200810020930 METAR LMML NIL=
200810020915 METAR LMML 020915Z 24006KT 200V290 9999 FEW020TCU 26/19 Q1014
                        TEMPO 5000 TSRA BKN015CB=
200810020900 METAR LMML NIL=
200810020845 METAR LMML 020845Z 26004KT 210V300 9999 FEW020CB 25/19 Q1014
                        TEMPO 5000 TSRA BKN015CB=
200810020815 METAR LMML 020815Z VRB03KT 9999 FEW020TCU 24/19 Q1014 TEMPO
                        5000 TSRA BKN015CB=
200810020800 METAR LMML NIL=
200810020745 METAR LMML 020745Z VRB01KT 9999 FEW020TCU 23/19 Q1013 TEMPO
                        5000 TSRA BKN015CB=
200810020730 METAR LMML NIL=
200810020715 METAR LMML 020715Z 30005KT 9999 SCT025 22/19 Q1013 TEMPO
                        5000 TSRA BKN015CB=
200810020700 METAR LMML NIL=
200810020645 METAR LMML 020645Z VRB02KT 9999 FEW020TCU SCT034 21/19 Q1013
                        TEMPO 5000 TSRA BKN015CB=
200810020630 METAR LMML NIL=
200810020615 METAR LMML 020615Z VRB03KT 9999 FEW015TCU SCT037 21/19 Q1013
                        RETS TEMPO 5000 TSRA BKN015CB=
200810020600 METAR LMML NIL=
200810020545 METAR LMML 020545Z 01005KT 9999 FEW012CB 20/19 Q1012 NOSIG=
200810020530 METAR LMML NIL=
200810020515 METAR LMML 020515Z 36006KT 9999 FEW009 FEW014 20/19 Q1013
                        NOSIG=
200810020500 METAR LMML NIL=
200810020445 METAR LMML 020445Z 31004KT 230V360 8000 TS SCT006 SCT018CB
                        22/21 Q1012 NOSIG RMK VERY FREQUENT
                        LIGHTNING TO E AND S=
200810020430 METAR LMML NIL=
200810020415 METAR LMML 020415Z 22004KT 180V270 6000 TSRA BKN003 BKN020CB
                        22/21 Q1012 TEMPO 5000 TSRA BKN002
                        BKN018CB RMK VERY FREQUENT LIGHTNING
                        OVERHEAD=
200810020345 METAR LMML 020345Z VRB03KT 6000 TS BKN002 SCT018CB 22/22
                        Q1012 TEMPO 4000 TSRA BKN002 BKN018CB=
200810020334 METAR LMML 020334Z VRB03KT 6000 TS BKN002 SCT018CB 22/22
                        Q1012 TEMPO 4000 TSRA BKN002 BKN018CB=
200810020315 METAR LMML 020315Z VRB03KT 6000 BKN002 22/21 Q1012 TEMPO
                        4000 TSRA BKN002 BKN018CB RMK FREQUENT
                        LIGHTNING TO NNW=
200810020300 METAR LMML NIL=
200810020245 METAR LMML 020245Z VRB02KT 6000 BKN002 21/21 Q1013 TEMPO
                        4000 TSRA BKN002 BKN018CB=
200810020230 METAR LMML NIL=
200810020215 METAR LMML 020215Z 09004KT 9000 BKN005 22/21 Q1013 TEMPO
                        5000 BKN003=
200810020200 METAR LMML NIL=
200810020145 METAR LMML 020145Z VRB03KT 9999 BKN005 BKN080 21/21 Q1013
                        NOSIG RMK LIGHTNING TO N=
200810020130 METAR LMML NIL=
200810020115 METAR LMML 020115Z 10004KT 9999 FEW008 BKN090 21/21 Q1013
                        NOSIG RMK LIGHTNING TO NNW=
200810020100 METAR LMML NIL=
200810020045 METAR LMML 020045Z VRB01KT 9999 SCT008 BKN090 21/20 Q1014
                        NOSIG=
200810020030 METAR LMML NIL=
200810020015 METAR LMML 020015Z VRB03KT 9999 SCT008 BKN090 21/21 Q1014
                        NOSIG=
200810020000 METAR LMML NIL=
200810012345 METAR LMML 012345Z VRB02KT 9999 SCT008 BKN090 21/20 Q1014
                        NOSIG=
200810012330 METAR LMML NIL=
200810012315 METAR LMML 012315Z 00000KT 9999 SCT008 SCT120 21/20 Q1014
                        NOSIG=
200810012300 METAR LMML NIL=
200810012245 METAR LMML 012245Z 00000KT 9999 SCT008 SCT120 21/20 Q1014
                        NOSIG=
200810012230 METAR LMML NIL=
200810012215 METAR LMML 012215Z VRB01KT 9999 SCT008 SCT120 21/20 Q1015
                        NOSIG=
200810012200 METAR LMML NIL=
200810012145 METAR LMML 012145Z VRB01KT 9999 SCT008 SCT120 21/21 Q1014
                        NOSIG=
200810012130 METAR LMML NIL=
200810012115 METAR LMML 012115Z VRB02KT 9999 SCT007 SCT120 21/21 Q1014
                        NOSIG=
200810012100 METAR LMML NIL=
200810012045 METAR LMML 012045Z VRB01KT 9999 FEW007 SCT120 21/20 Q1015
                        NOSIG=
200810012030 METAR LMML NIL=
200810012015 METAR LMML 012015Z VRB01KT 9999 FEW007 SCT120 BKN250 21/21
                        Q1015 NOSIG=
200810012000 METAR LMML NIL=
200810011945 METAR LMML 011945Z VRB01KT 9999 FEW007 SCT120 SCT250 22/21
                        Q1015 NOSIG=
200810011930 METAR LMML NIL=
200810011915 METAR LMML 011915Z VRB02KT CAVOK 22/21 Q1014 NOSIG=
200810011900 METAR LMML NIL=
200810011845 METAR LMML 011845Z VRB03KT 9999 FEW008 SCT120 21/21 Q1014
                        NOSIG=
200810011830 METAR LMML NIL=
200810011815 METAR LMML 011815Z VRB03KT 9999 FEW008 SCT120 22/20 Q1014
                        NOSIG=
200810011800 METAR LMML NIL=
200810011745 METAR LMML 011745Z VRB03KT 9999 FEW008 SCT110 22/20 Q1014
                        NOSIG=
200810011730 METAR LMML NIL=
200810011715 METAR LMML 011715Z 12005KT 9999 FEW008 SCT110 22/21 Q1014
                        NOSIG=
200810011700 METAR LMML NIL=
200810011645 METAR LMML 011645Z 12006KT 9999 FEW007 BKN110 22/21 Q1014
                        NOSIG=
200810011630 METAR LMML NIL=
200810011615 METAR LMML 011615Z 13005KT 9999 FEW012 BKN110 23/21 Q1014
                        NOSIG=
200810011600 METAR LMML NIL=
200810011545 METAR LMML 011545Z VRB03KT 9999 FEW012 BKN120 23/20 Q1014
                        NOSIG=
200810011530 METAR LMML NIL=
200810011515 METAR LMML 011515Z 10004KT 060V200 9999 FEW012 SCT120 BKN250
                        24/20 Q1014 NOSIG=
200810011500 METAR LMML NIL=
200810011445 METAR LMML 011445Z 09004KT 030V130 9999 SCT012 SCT120 BKN250
                        23/20 Q1014 NOSIG=
200810011430 METAR LMML NIL=
200810011415 METAR LMML 011415Z 08005KT 340V130 9999 SCT012 BKN130 23/21
                        Q1014 TEMPO BKN011=
200810011400 METAR LMML NIL=
200810011345 METAR LMML 011345Z 06005KT 030V090 9999 SCT011 BKN130 24/20
                        Q1014 NOSIG=
200810011330 METAR LMML NIL=
200810011315 METAR LMML 011315Z 07005KT 020V100 9999 SCT012 BKN120 24/21
                        Q1014 NOSIG=
200810011300 METAR LMML NIL=
200810011245 METAR LMML 011245Z 05005KT 020V090 9999 SCT012 BKN018 BKN100
                        24/21 Q1014 NOSIG=
200810011230 METAR LMML NIL=
200810011215 METAR LMML 011215Z 05006KT 020V080 9999 -RA BKN012 BKN100
                        24/21 Q1014 NOSIG=
200810011200 METAR LMML NIL=
200810011145 METAR LMML 011145Z 06005KT 360V140 9999 SCT013 SCT023 24/21
                        Q1014 NOSIG=
200810011130 METAR LMML NIL=
200810011115 METAR LMML 011115Z 04005KT 360V090 9999 SCT015 SCT036 25/21
                        Q1014 NOSIG=
200810011100 METAR LMML NIL=
200810011045 METAR LMML 011045Z 05005KT 340V100 9999 SCT017 SCT250 26/21
                        Q1014 NOSIG=
200810011030 METAR LMML NIL=
200810011015 METAR LMML 011015Z VRB03KT 9999 FEW017 BKN250 25/20 Q1015
                        NOSIG=
200810011000 METAR LMML NIL=
200810010945 METAR LMML 010945Z VRB03KT 9999 FEW016 BKN250 25/20 Q1015
                        NOSIG=
200810010930 METAR LMML NIL=
200810010915 METAR LMML 010915Z VRB03KT 9999 FEW011 BKN250 25/20 Q1015
                        NOSIG=
200810010900 METAR LMML NIL=
200810010845 METAR LMML 010845Z VRB03KT 9999 SCT010 BKN250 24/21 Q1015
                        NOSIG=
200810010830 METAR LMML NIL=
200810010815 METAR LMML 010815Z VRB03KT 9999 SCT009 BKN120 23/20 Q1014
                        NOSIG=
200810010800 METAR LMML NIL=
200810010745 METAR LMML 010745Z VRB03KT 9999 SCT008 BKN120 23/20 Q1014
                        NOSIG=
200810010730 METAR LMML NIL=
200810010715 METAR LMML 010715Z VRB03KT 9999 FEW007 BKN120 22/21 Q1014
                        NOSIG=
200810010700 METAR LMML NIL=
200810010645 METAR LMML 010645Z VRB02KT 9999 FEW007 BKN120 BKN250 22/20
                        Q1014 NOSIG=
200810010630 METAR LMML NIL=
200810010615 METAR LMML 010615Z VRB03KT 9999 FEW008 SCT120 BKN250 20/19
                        Q1013 NOSIG=
200810010600 METAR LMML NIL=
200810010545 METAR LMML 010545Z VRB02KT 9999 FEW008 SCT120 BKN250 20/19
                        Q1013 NOSIG=
200810010530 METAR LMML NIL=
200810010515 METAR LMML 010515Z VRB03KT 9999 FEW008 SCT120 BKN250 20/19
                        Q1013 NOSIG=
200810010500 METAR LMML NIL=
200810010445 METAR LMML 010445Z VRB03KT 9999 FEW015 SCT120 BKN250 19/18
                        Q1012 NOSIG=
200810010430 METAR LMML NIL=
200810010415 METAR LMML 010415Z VRB03KT 9999 FEW015 SCT120 19/19 Q1012
                        NOSIG=
200810010400 METAR LMML NIL=
200810010345 METAR LMML 010345Z VRB03KT 7000 FEW008 BKN120 19/19 Q1012
                        BECMG 9999=
200810010330 METAR LMML NIL=
200810010315 METAR LMML 010315Z 09004KT 040V130 6000 FEW008 BKN120 19/19
                        Q1012 TEMPO BKN006 BKN014=
200810010300 METAR LMML NIL=
200810010245 METAR LMML 010245Z 13004KT 6000 FEW006 BKN090 19/19 Q1013
                        TEMPO BKN003 BKN015=
200810010230 METAR LMML NIL=
200810010215 METAR LMML 010215Z VRB02KT 6000 BKN003 FEW018CB BKN046 19/19
                        Q1013 RETSRA TEMPO BKN003 BKN015=
200810010200 METAR LMML NIL=
200810010145 METAR LMML 010145Z VRB02KT 6000 -TSRA SCT002 SCT018CB OVC046
                        19/19 Q1013 TEMPO 5000 TSRA BKN003
                        BKN015CB=
200810010130 METAR LMML NIL=
200810010115 METAR LMML 010115Z 31005KT 210V340 6000 -TSRA FEW005 BKN020CB
                        19/19 Q1013 TEMPO 5000 TSRA BKN005
                        BKN015CB=
200810010100 METAR LMML NIL=
200810010045 METAR LMML 010045Z 01004KT 300V040 2000 TSRA SCT005 BKN016CB
                        19/19 Q1013 TEMPO TSRA BKN005 BKN015CB=
200810010030 METAR LMML NIL=
200810010015 METAR LMML 010015Z 32018KT 260V360 3000 +TSRA SCT005 BKN017CB
                        18/18 Q1014 TEMPO 1500 +TSRA BKN005
                        BKN012CB=
200810010000 METAR LMML NIL=

###################################
#  short TAF from LMML
###################################
200810312300 TAF LMML 312300Z 010009 24010KT CAVOK=
200810312000 TAF LMML 312000Z 312106 16013KT 9000 NSC
                      BECMG 0003 22010KT CAVOK=
200810311700 TAF LMML 311700Z 311803 16016G26KT CAVOK
                      TEMPO 1803 9000 NSC
                      BECMG 0003 25015KT=
200810311400 TAF LMML 311400Z 311524 14016G26KT CAVOK
                      TEMPO 1524 8000 RA
                      PROB30 TEMPO 1524 9999 FEW012=
200810311100 TAF LMML 311100Z 311221 12015G25KT CAVOK
                      TEMPO 1221 8000 RA
                      PROB30 TEMPO 1221 9999 FEW012=
200810310800 TAF LMML 310800Z 310918 10008KT CAVOK
                      TEMPO 0918 9999 FEW012
                      PROB40 TEMPO 0911 8000 NSC
                      TEMPO 0918 8000 RA
                      BECMG 1215 12015G25KT=
200810310500 TAF LMML 310500Z 310615 13010KT 9999 FEW012 SCT140 OVC200
                      PROB30 TEMPO 1215 8000 RA
                      BECMG 1215 12015G25KT=
200810310200 TAF LMML 310200Z 310312 12006KT 9999 FEW011 SCT020
                      PROB30 TEMPO 0306 7000=
200810302300 TAF LMML 302300Z 310009 12004KT CAVOK
                      PROB30 TEMPO 0006 7000 SCT005=
200810302000 TAF LMML 302000Z 302106 VRB03KT CAVOK
                      PROB30 TEMPO 2106 8000 SCT005=
200810301700 TAF LMML 301700Z 301803 26005KT CAVOK
                      PROB30 TEMPO 2103 9000 SCT011=
200810301400 TAF LMML 301400Z 301524 29007KT 9999 FEW015 SCT120
                      BECMG 1517 CAVOK
                      PROB30 TEMPO 1824 9000 SCT011=
200810301100 TAF LMML 301100Z 301221 29008KT 9999 FEW015 SCT120=
200810300800 TAF LMML 300800Z 300918 28008KT 9000 FEW015 BKN120
                      BECMG 0911 9999
                      TEMPO 0915 7000 RA BKN012
                      PROB30 TEMPO 0913 4000 TSRA BKN012 BKN080CB=
200810300500 TAF LMML 300500Z 300615 27005KT CAVOK
                      PROB30 TEMPO 1015 8000 RA SCT015=
200810300200 TAF LMML 300200Z 300312 27007KT CAVOK
                      PROB30 TEMPO 0312 8000 FEW008=
200810292300 TAF LMML 292300Z 300009 19010KT CAVOK
                      TEMPO 0006 9000
                      BECMG 0407 28009KT=
200810292000 TAF LMML 292000Z 292106 18006KT CAVOK
                      TEMPO 2106 8000 FEW006=
200810291700 TAF LMML 291700Z 291803 18008KT CAVOK
                      TEMPO 1803 8000 FEW007=
200810291400 LMML 291400Z 291524 16008KT 9999 FEW007
                      TEMPO 1524 8000
                      PROB30 TEMPO 1524 BKN006=
200810291100 TAF LMML 291100Z 291221 14008KT CAVOK
                      TEMPO 1221 FEW007=
200810290800 TAF LMML 290800Z 290918 15005KT CAVOK=
200810290500 TAF LMML 290500Z 290615 20008KT 9999 FEW013 BKN120=
200810290200 TAF LMML 290200Z 290312 19006KT 9999 FEW012 SCT120
                      PROB30 TEMPO 0308 8000 RA BKN005 BKN120=
200810282300 TAF LMML 282300Z 290009 18006KT 9999 FEW012 BKN120
                      PROB30 TEMPO 0006 8000 RA BKN005=
200810282000 TAF LMML 282000Z 282106 20005KT 9999 FEW012 BKN120
                      TEMPO 2106 8000 RA
                      PROB30 TEMPO 0006 5000 BR BKN005=
200810281700 TAF LMML 281700Z 281803 20005KT 9999 FEW012
                      TEMPO 1803 9000 BKN010
                      PROB30 TEMPO 0003 5000 BR BKN005=
200810281400 TAF LMML 281400Z 281524 17014KT 9999 SCT013
                      TEMPO 1524 9000 BKN010
                      PROB30 TEMPO 1824 5000 BR BKN005=
200810281100 TAF LMML 281100Z 281221 15016KT 9999 SCT013
                      PROB30 TEMPO 1221 9000 BKN010=
200810280800 TAF LMML 280800Z 280918 14015KT 9999 FEW015 SCT120=
200810280500 TAF LMML 280500Z 280615 15015KT 9999 FEW015 SCT120=
200810280200 TAF LMML 280200Z 280312 15005KT 9999 FEW015
                      BECMG 0609 15015KT=
200810272300 TAF LMML 272300Z 280009 15005KT 9999 FEW015 SCT120
                      BECMG 0609 15015KT=
200810272000 TAF LMML 272000Z 272106 15006KT 9999 FEW018 SCT100
                      PROB30 TEMPO 0006 8000 RA SCT012 BKN090=
200810271700 TAF LMML 271700Z 271803 15005KT 9999 FEW018=
200810271400 TAF LMML 271400Z 271524 17004KT 9999 SCT020=
200810271100 TAF LMML 271100Z 271221 15004KT 9999 SCT018=
200810270800 TAF LMML 270800Z 270918 VRB03KT 9999 FEW020=
200810270500 TAF LMML 270500Z 270615 04004KT 9999 FEW020=
200810270200 TAF LMML 270200Z 270312 VRB02KT 9999 FEW020
                      PROB30 TEMPO 0306 9000=
200810262300 TAF LMML 262300Z 270009 VRB03KT 9999 FEW020
                      PROB30 TEMPO 0306 9000=
200810262000 TAF LMML 262000Z 262106 VRB03KT 9999 FEW020=
200810261700 TAF LMML 261700Z 261803 VRB03KT 9999 FEW020
                      PROB30 TEMPO 1803 8000 SHRA BKN015=
200810261400 TAF LMML 261400Z 261524 14005KT 9999 FEW020 SCT100
                      TEMPO 1524 8000 SHRA BKN018
                      PROB30 TEMPO 1518 5000 TSRA BKN015CB=
200810261100 TAF LMML 261100Z 261221 14010KT 9999 FEW020 SCT100
                      TEMPO 1221 5000 SHRA BKN015
                      PROB40 TEMPO 1221 3000 TSRA BKN015CB=
200810260800 TAF LMML 260800Z 260918 14010KT 9999 FEW020 SCT100
                      PROB30 TEMPO 0918 8000 SHRA BKN018=
200810260500 TAF LMML 260500Z 260615 10006KT 9999 SCT020
                      TEMPO 0615 8000 SHRA BKN015
                      PROB30 TEMPO 0615 5000 TSRA BKN015CB=
200810260200 TAF LMML 260200Z 260312 10006KT 9999 SCT020
                      TEMPO 0312 8000 SHRA BKN015
                      PROB30 TEMPO 0612 5000 TSRA BKN015CB=
200810252300 TAF LMML 252300Z 260009 09005KT 9999 SCT020
                      TEMPO 0009 8000 SHRA BKN015
                      PROB30 TEMPO 0609 5000 TSRA BKN015CB=
200810252000 TAF LMML 252000Z 252106 09005KT 9999 SCT020
                      TEMPO 2106 8000 SHRA BKN015
                      PROB30 TEMPO 0006 5000 TSRA BKN015CB=
200810251700 TAF LMML 251700Z 251803 11006KT 9999 SCT020
                      TEMPO 2103 8000 SHRA
                      PROB30 TEMPO 0003 5000 TSRA BKN015CB=
200810251400 TAF LMML 251400Z 251524 11006KT 9999 SCT020
                      TEMPO 1824 8000 SHRA
                      PROB30 TEMPO 1824 5000 TSRA BKN15CB=
200810251100 TAF LMML 251100Z 251221 11005KT 9999 SCT020
                      TEMPO 1621 8000 SHRA
                      PROB30 TEMPO 1821 5000 TSRA BKN015CB=
200810250800 TAF LMML 250800Z 250918 09005KT 9999 FEW020
                      PROB30 TEMPO 1518 9000 SHRA=
200810250500 TAF LMML 250500Z 250615 09005KT 9999 SCT020=
200810250200 LMML 250200Z 250312 VRB03KT 9999 FEW020
                      PROB30 TEMPO 0306 9000 BKN012
                      PROB30 TEMPO 0612 8000 SHRA BKN015=
200810242300 TAF LMML 242300Z 250009 VRB03KT 9999 FEW020
                      PROB30 TEMPO 0006 9000 BKN012=
200810242000 TAF LMML 242000Z 242106 11004KT 9999 FEW020
                      PROB30 TEMPO 2106 9000 BKN012=
200810241700 TAF LMML 241700Z 241803 11006KT 9999 SCT020
                      PROB30 TEMPO 2103 9000 BKN013=
200810241400 TAF LMML 241400Z 241524 11008KT 9999 SCT025
                      PROB30 TEMPO 2124 9000 BKN013=
200810241100 TAF LMML 241100Z 241221 11008KT 9999 SCT025=
200810240800 TAF LMML 240800Z 240918 11008KT 9999 SCT020=
200810240500 TAF LMML 240500Z 240615 13008KT 9999 SCT020
                      TEMPO 0615 8000 SHRA BKN015=
200810240200 TAF LMML 240200Z 240312 13008KT 9999 FEW018
                      TEMPO 0312 8000 8000 SHRA BKN015
                      PROB30 TEMPO 0308 5000 TSRA BKN015CB=
200810232300 TAF LMML 232300Z 240009 13008KT 9999 FEW018
                      TEMPO 0009 5000 SHRA BKN015
                      PROB30 TEMPO 0009 5000 TSRA BKN015=
200810232000 TAF LMML 232000Z 232106 14006KT 9999 FEW018
                      TEMPO 2106 5000 SHRA BKN015
                      PROB30 TEMPO 2106 5000 TSRA BKN015CB=
200810231700 TAF LMML 231700Z 231803 12008KT 9999 SCT018 BKN080
                      TEMPO 1803 7000 SHRA BKN012TCU=
200810231400 TAF LMML 231400Z 231524 13006KT 9999 FEW020 BKN100
                      PROB30 TEMPO 1524 7000 SHRA BKN015TCU=
200810231100 TAF LMML 231100Z 231221 14005KT 9999 SCT020 SCT100
                      TEMPO 1221 7000 SHRA BKN015TCU=
200810230800 TAF LMML 230800Z 230918 15006KT 9999 SCT020
                      TEMPO 0918 8000 RA BKN015
                      PROB30 TEMPO 0912 5000 TSRA BKN015CB=
200810230500 TAF LMML 230500Z 230615 16007KT 9999 SCT020
                      TEMPO 0615 7000 SHRA BKN015TCU
                      PROB40 TEMPO 0612 5000 TSRA BKN015CB=
200810230200 TAF LMML 230200Z 230312 16008KT 9999 SCT020
                      TEMPO 0312 8000 SHRA BKN015
                      PROB30 TEMPO 0312 5000 TSRA BKN015CB=
200810222300 TAF LMML 222300Z 230009 15008KT 9999 FEW017
                      TEMPO 0009 8000 RA BKN012
                      PROB30 TEMPO 0309 5000 TSRA BKN015CB=
200810222000 TAF LMML 222000Z 222106 13008KT 9999 SCT015 SCT050
                      TEMPO 2106 8000 RA BKN012
                      PROB40 TEMPO 2106 5000 TSRA BKN015CB=
200810221700 TAF LMML 221700Z 221803 04006KT 9999 SCT018 BKN100
                      TEMPO 1803 8000 SHRA BKN015
                      PROB40 TEMPO 1803 5000 TSRA BKN015CB=
200810221400 TAF LMML 221400Z 221524 13012KT 9999 SCT018 BKN120
                      TEMPO 1524 8000 SHRA BKN008
                      PROB40 TEMPO 1524 5000 TSRA BKN010CB=
200810221100 TAF LMML 221100Z 221221 12012KT 9999 SCT018 BKN150
                      TEMPO 1221 8000 SHRA BKN015
                      PROB40 TEMPO 1421 5000 TSRA BKN010CB=
200810220800 TAF LMML 220800Z 220918 11009KT 9999 SCT020 BKN200
                      TEMPO 1218 8000 SHRA BKN015
                      PROB30 TEMPO 1418 5000 TSRA BKN010CB=
200810220500 TAF LMML 220500Z 220615 10006KT 9999 SCT015
                      TEMPO 0615 8000 SHRA BKN015
                      PROB30 TEMPO 0915 5000 TSRA BKN015CB=
200810220200 TAF LMML 220200Z 220312 10006KT 9999 SCT015
                      PROB30 TEMPO 0306 9000 BKN013
                      TEMPO 0912 8000 RA BKN015=
200810212300 TAF LMML 212300Z 220009 10005KT 9999 FEW015
                      PROB30 TEMPO 0006 9000 BKN015=
200810212000 TAF LMML 212000Z 212106 10006KT 9999 FEW015
                      PROB30 TEMPO 0006 9000 BKN013=
200810211700 TAF LMML 211700Z 211803 10008KT 9999 FEW020=
200810211400 TAF LMML 211400Z 211524 10008KT 9999 SCT020=
200810211100 TAF LMML 211100Z 211221 10008KT 9999 FEW020=
200810210800 TAF LMML 210800Z 210918 10008KT 9999 FEW020=
200810210500 TAF LMML 210500Z 210615 09008KT 9999 SCT020 SCT200=
200810210200 TAF LMML 210200Z 210312 10007KT 9999 SCT015 BKN200
                      PROB30 TEMPO 0305 8000 BKN011=
200810202300 TAF LMML 202300Z 210009 10005KT 9999 SCT015 BKN200
                      PROB30 TEMPO 0005 8000 BKN011=
200810202000 TAF LMML 202000Z 202106 10005KT 9999 FEW015 BKN200
                      PROB30 TEMPO 2106 8000 BKN012=
200810201700 TAF LMML 201700Z 201803 10007KT 9999 SCT015 SCT120
                      PROB30 TEMPO 1803 9000 BKN013=
200810201400 TAF LMML 201400Z 201524 10008KT 9999 SCT018
                      PROB30 TEMPO 1824 9000 BKN013=
200810201100 TAF LMML 201100Z 201221 11008KT 9999 SCT020=
200810200800 TAF LMML 200800Z 200918 08008KT 9999 SCT018=
200810200500 TAF LMML 200500Z 200615 08006KT 9999 FEW020=
200810200200 TAF LMML 200200Z 200312 VRB03KT 9999 FEW018
                      PROB30 TEMPO 0306 5000 BR SCT005=
200810192300 TAF LMML 192300Z 200009 VRB03KT CAVOK
                      PROB30 TEMPO 0406 5000 BR CT008=
200810192000 TAF LMML 192000Z 192106 VRB03KT 9999 FEW018
                      PROB30 TEMPO 0306 5000 BR SCT005=
200810191700 TAF LMML 191700Z 191803 11004KT 9999 FEW020
                      PROB30 TEMPO 2303 BKN015=
200810191400 TAF LMML 191400Z 191524 11004KT 9999 SCT020
                      PROB30 TEMPO 1518 8000 SHRA BKN015=
200810191100 TAF LMML 191100Z 191221 06004KT 9999 FEW020
                      PROB30 TEMPO 1216 8000 SHRA BKN015=
200810190800 TAF LMML 190800Z 190918 06005KT 9999 FEW020
                      PROB30 TEMPO 0915 8000 SHRA BKN015=
200810190500 TAF LMML 190500Z 190615 VRB02KT 9999 FEW020=
200810190200 TAF LMML 190200Z 190312 VRB02KT 9999 FEW020=
200810182300 TAF LMML 182300Z 190009 VRB02KT 9999 FEW020=
200810182000 TAF LMML 182000Z 182106 VRB02KT 9999 FEW020
                      PROB30 TEMPO 2106 7000 SHRA=
200810181700 TAF LMML 181700Z 181803 VRB03KT 9999 FEW020=
200810181400 TAF LMML 181400Z 181524 26005KT 9999 FEW025=
200810181100 TAF LMML 181100Z 181221 28005KT 9999 FEW025=
200810180800 TAF LMML 180800Z 180918 28005KT 9999 FEW025
                      PROB30 TEMPO 0912 8000 SHRA BKN018=
200810180500 TAF LMML 180500Z 180615 27006KT 9999 FEW020
                      TEMPO 0615 8000 SHRA BKN015
                      PROB30 TEMPO 0615 5000 TSRA BKN015CB=
200810180200 TAF LMML 180200Z 180312 27005KT 9999 FEW015 SCT120
                      TEMPO 0312 8000 SHRA BKN015
                      PROB30 TEMPO 0312 5000 TSRA BKN015CB=
200810172300 TAF LMML 172300Z 180009 26005KT 9999 FEW015
                      TEMPO 0009 8000 SHRA BKN013
                      PROB30 TEMPO 0009 5000 TSRA BKN013CB=
200810172000 TAF LMML 172000Z 172106 26005KT 9999 FEW020 SCT100
                      TEMPO 2106 8000 SHRA
                      PROB30 TEMPO 2106 3000 TSRA BKN015CB=
200810171700 TAF LMML 171700Z 171803 25008KT 9999 SCT020 SCT060
                      TEMPO 1803 8000 SHRA
                      PROB30 TEMPO 1803 5000 TSRA BKN015CB=
200810171400 TAF LMML 171400Z 171524 23008KT 9999 SCT020 SCT100
                      TEMPO 1524 8000 SHRA BKN015
                      PROB30 TEMPO 1524 5000 TSRA BKN012CB=
200810171100 TAF LMML 171100Z 171221 27006KT 9999 SCT020 BKN120
                      TEMPO 1221 8000 SHRA
                      PROB30 TEMPO 1221 5000 TSRA BKN015CB=
200810170800 TAF LMML 170800Z 170918 23008KT 9999 SCT020 BKN100
                      TEMPO 0918 8000 RA
                      PROB30 TEMPO 1218 5000 TSRA BKN015CB=
200810170500 TAF LMML 170500Z 170615 VRB03KT 9999 FEW025 BKN110
                      TEMPO 0615 CAVOK
                      TEMPO 0615 8000 SHRA=
200810170200 TAF LMML 170200Z 170312 25004KT 9999 FEW025 BKN080
                      TEMPO 0312 CAVOK
                      PROB40 TEMPO 0312 8000 SHRA=
200810162300 TAF LMML 162300Z 170009 VRB03KT 9999 FEW020
                      TEMPO 0009 CAVOK
                      PROB30 TEMPO 0609 8000 SHRA=
200810162000 TAF LMML 162000Z 162106 VRB03KT 9999 FEW020=
200810161700 TAF LMML 161700Z 161803 23005KT 9999 FEW020=
200810161400 TAF LMML 161400Z 161524 22007KT 9999 FEW025=
200810161100 TAF LMML 161100Z 161221 23006KT 9999 FEW025=
200810160800 TAF LMML 160800Z 160918 27005KT 9999 FEW020=
200810160500 TAF LMML 160500Z 160615 27006KT 9999 FEW025=
200810160200 TAF LMML 160200Z 160312 27005KT 9999 FEW025=
200810152300 TAF LMML 152300Z 160009 VRB03KT 9999 FEW020=
200810152000 TAF LMML 152000Z 152106 VRB03KT 9999 FEW025=
200810151700 TAF LMML 151700Z 151803 26004KT 9999 FEW025=
200810151400 TAF LMML 151400Z 151524 25005KT 9999 FEW030=
200810151100 TAF LMML 151100Z 151221 25004KT 9999 FEW030
                      TEMPO 1221 CAVOK=
200810150800 TAF LMML 150800Z 150918 26004KT 9999 FEW027
                      TEMPO 0918 CAVOK=
200810150500 TAF LMML 150500Z 150615 26006KT 9999 FEW025=
200810150200 TAF LMML 150200Z 150312 25004KT 9999 FEW025=
200810142300 TAF LMML 142300Z 150009 25004KT 9999 FEW025=
200810142000 TAF LMML 142000Z 142106 25004KT 9999 FEW020=
200810141700 TAF LMML 141700Z 141803 25004KT 9999 FEW017 SCT200=
200810141400 TAF LMML 141400Z 141524 VRB03KT 9999 FEW030
                      BECMG 1821 CAVOK=
200810141100 TAF LMML 141100Z 141221 VRB03KT CAVOK
                      TEMPO 1218 FEW030=
200810140800 TAF LMML 140800Z 140918 VRB03KT CAVOK
                      TEMPO 0918 FEW025=
200810140500 TAF LMML 140500Z 140615 29006KT CAVOK
                      BECMG 0609 9999 FEW020=
200810140200 TAF LMML 140200Z 140312 30006KT CAVOK
                      BECMG 0306 9999 FEW025=
200810132300 TAF LMML 132300Z 140009 29004KT CAVOK
                      TEMPO 0006 9999 FEW020
                      BECMG 0609 9999 FEW025=
200810132000 TAF LMML 132000Z 132106 33004KT CAVOK
                      TEMPO 2106 9999 FEW020=
200810131700 TAF LMML 131700Z 131803 VRB03KT CAVOK
                      PROB30 TEMPO 2103 9999 FEW015 SCT200=
200810131400 TAF LMML 131400Z 131524 03005KT 9999 FEW020
                      BECMG 1518 CAVOK
                      TEMPO 2124 9999 FEW015=
200810131100 TAF LMML 131100Z 131221 04007KT 9999 FEW025
                      BECMG 1518 CAVOK=
200810130800 TAF LMML 130800Z 130918 03005KT 9999 SCT020=
200810130500 TAF LMML 130500Z 130615 01004KT CAVOK
                      TEMPO 0615 9999 FEW022=
200810130200 TAF LMML 130200Z 130312 33004KT CAVOK
                      TEMPO 0312 9999 FEW022=
200810122300 TAF LMML 122300Z 130009 30004KT CAVOK
                      TEMPO 0009 9999 FEW024=
200810122000 TAF LMML 122000Z 122106 30005KT CAVOK
                      TEMPO 2106 9999 FEW024=
200810121700 TAF LMML 121700Z 121803 35006KT 9999 FEW025=
200810121400 TAF LMML 121400Z 121524 02008KT 9999 FEW025=
200810121100 TAF LMML 121100Z 121221 03009KT 9999 FEW025=
200810120800 TAF LMML 120800Z 120918 04009KT 9999 SCT025=
200810120500 TAF LMML 120500Z 120615 04008KT 9999 FEW030=
200810120200 TAF LMML 120200Z 120312 06006KT 9999 FEW025=
200810112300 TAF LMML 112300Z 120009 06004KT 9999 FEW020=
200810112000 TAF LMML 112000Z 112106 VRB03KT 9999 FEW023=
200810111700 TAF LMML 111700Z 111803 06007KT 9999 FEW020=
200810111400 TAF LMML 111400Z 111524 07010KT 9999 FEW022=
200810111100 TAF LMML 111100Z 111221 07010KT 9999 SCT022=
200810110800 TAF LMML 110800Z 110918 07011KT 9999 FEW020=
200810110500 TAF LMML 110500Z 110615 08010KT 9999 SCT020=
200810110200 TAF LMML 110200Z 110312 08010KT 9999 FEW020
                      PROB30 TEMPO 1312 8000 SHRA=
200810102300 TAF LMML 102300Z 110009 07010KT 9999 SCT020
                      PROB30 TEMPO 0309 8000 SHRA BKN015=
200810102000 TAF LMML 102000Z 102106 09008KT 9999 SCT020
                      PROB30 TEMPO 0306 8000 SHRA BKN015=
200810101700 TAF LMML 101700Z 101803 08005KT 9999 SCT018
                      PROB30 TEMPO 2103 8000 SHRA BKN015=
200810101400 TAF LMML 101400Z 101524 09010KT 9999 FEW025=
200810101100 TAF LMML 101100Z 101221 08010KT 9999 SCT025
                      PROB30 TEMPO 1221 8000 SHRA BKN025=
200810100800 TAF LMML 100800Z 100918 08013KT 9999 FEW025=
200810100500 TAF LMML 100500Z 100615 07012KT 9999 SCT025=
200810100200 TAF LMML 100200Z 100312 08011KT 9999 SCT025=
200810092300 TAF LMML 092300Z 100009 08011KT 9999 SCT020=
200810092000 TAF LMML 092000Z 092106 08012KT 9999 SCT020=
200810091700 TAF LMML 091700Z 091803 09010KT 9999 FEW020=
200810091400 TAF LMML 091400Z 091524 09014KT 9999 SCT025=
200810091100 TAF LMML 091100Z 091221 11012KT 9999 SCT025
                      PROB30 TEMPO 1215 6000 SHRA BKN015=
200810090800 TAF LMML 090800Z 090918 09012KT 9999 SCT020
                      PROB30 TEMPO 0915 6000 SHRA BKN015=
200810090500 TAF LMML 090500Z 090615 09012KT 9999 FEW018 SCT120
                      PROB40 TEMPO 0615 8000 SHRA BKN010
                      PROB30 TEMPO 0612 5000 TSRA BKN012CB=
200810090200 TAF LMML 090200Z 090312 10006KT 9999 FEW018 SCT120
                      PROB40 TEMPO 0312 7000 SHRA BKN010
                      PROB30 TEMPO 0312 5000 TSRA BKN015CB=
200810082300 TAF LMML 082300Z 090009 12005KT 9999 FEW016 SCT120
                      PROB40 TEMPO 0009 8000 RA
                      PROB30 TEMPO 0009 5000 TSRA BKN008 BKN015CB=
200810082000 TAF LMML 082000Z 082106 12005KT 9999 FEW018 BKN100
                      TEMPO 2106 8000 RA
                      PROB30 TEMPO 2106 5000 TSRA BKN008 BKN015CB=
200810081700 TAF LMML 081700Z 081803 13004KT 9999 FEW018 BKN120
                      TEMPO 1803 8000 RA SCT012 BKN080
                      PROB30 TEMPO 2003 5000 TSRA FEW008 BKN015CB=
200810081400 TAF LMML 081400Z 081524 13005KT 9999 FEW018 BKN120
                      TEMPO 1524 8000 RA BKN015 BKN100
                      PROB40 TEMPO 1824 5000 TSRA FEW008 BKN015CB=
200810081100 TAF LMML 081100Z 081221 12010KT 9999 SCT018
                      TEMPO 1221 8000 SHRA BKN015
                      PROB40 TEMPO 1421 5000 TSRA FEW008 BKN015CB=
200810080800 TAF LMML 080800Z 080918 15008KT 9999 FEW018
                      PROB40 TEMPO 0918 8000 BKN015
                      PROB30 TEMPO 1018 5000 TSRA FEW008 BKN015CB=
200810080500 TAF LMML 080500Z 080615 10006KT 9999 SCT015 SCT100
                      TEMPO 0615 7000 SHRA BKN015
                      PROB30 TEMPO 0615 3000 TSRA BKN013CB=
200810080200 TAF LMML 080200Z 080312 10005KT 9999 FEW015 SCT100
                      TEMPO 0312 8000 SHRA BKN013
                      PROB30 TEMPO 0312 3000 TSRA BKN013CB=
200810072300 TAF LMML 072300Z 080009 12004KT 9999 FEW015
                      PROB30 TEMPO 0005 5000 BR BKN005
                      TEMPO 0309 8000 SHRA BKN012
                      PROB30 TEMPO 0609 3000 TSRA BKN012CB=
200810072000 TAF LMML 072000Z 072106 14006KT 9999 FEW020 SCT130
                      TEMPO 2106 8000 RA BKN015
                      PROB30 TEMPO 0006 3000 TSRA BKN015CB=
200810071700 TAF LMML 071700Z 071803 15006KT 9999 SCT015=
200810071400 TAF LMML 071400Z 071524 10008KT 9999 SCT015
                      TEMPO 1518 8000 SHRA BKN015
                      PROB30 TEMPO 1518 5000 TSRA BKN015CB=
200810071100 TAF LMML 071100Z 071221 15012KT 9999 SCT020
                      TEMPO 1216 8000 SHRA BKN015
                      PROB30 TEMPO 1215 5000 TSRA BKN015CB=
200810070800 TAF LMML 070800Z 070918 13008KT 9999 SCT020
                      PROB30 TEMPO 0915 8000 SHRA BKN015=
200810070500 TAF LMML 070500Z 070615 13005KT 9999 FEW020
                      PROB30 TEMPO 0615 8000 SHRA=
200810070200 TAF LMML 070200Z 070312 15005KT 9999 FEW020=
200810062300 TAF LMML 062300Z 070009 15004KT 9999 FEW020=
200810062000 LMML 062000Z 062106 15004KT 9999 FEW020=
200810061700 TAF LMML 061700Z 061803 VRB03KT 9999 SCT030=
200810061400 TAF LMML 061400Z 061524 15005KT 9999 SCT035=
200810061100 TAF LMML 061100Z 061221 33006KT 9999 FEW035=
200810060800 TAF LMML 060800Z 060918 30006KT 9999 FEW035=
200810060500 TAF LMML 060500Z 060615 29006KT 9999 FEW030=
200810060200 TAF LMML 060200Z 060312 28005KT 9999 FEW035=
200810052300 TAF LMML 052300Z 060009 30004KT 9999 FEW035=
200810052000 TAF LMML 052000Z 052106 29004KT 9999 FEW030=
200810051700 TAF LMML 051700Z 051803 29006KT 9999 FEW030=
200810051400 LMML NIL=
200810051100 TAF LMML 051100Z 051221 31006KT 9999 FEW035=
200810050800 TAF LMML 050800Z 050918 31010KT 9999 FEW035=
200810050500 TAF LMML 050500Z 050615 30010KT 9999 FEW030=
200810050200 TAF LMML 050200Z 050312 30010KT 9999 FEW030=
200810042300 TAF LMML 042300Z 050009 30012KT 9999 FEW030=
200810042000 TAF LMML 042000Z 042106 31012KT 9999 FEW030=
200810041700 TAF LMML 041700Z 041803 31015G25KT 9999 FEW025
                      BECMG 2124 30012KT=
200810041400 TAF LMML 041400Z 041524 31018G28KT 9999 FEW025
                      BECMG 2124 30014KT=
200810041100 TAF LMML 041100Z 041221 31017G27KT 9999 SCT025
                      PROB30 TEMPO 1215 8000 SHRA BKN015=
200810040800 TAF LMML 040800Z 040918 31009KT 9999 SCT020 SCT100
                      TEMPO 0915 8000 SHRA BKN015
                      PROB30 TEMPO 0912 3000 TSGR BKN015CB
                      BECMG 0912 30017G27KT=
200810040500 TAF LMML 040500Z 040615 23008KT 9999 FEW025 SCT100
                      TEMPO 0612 8000 SHRA BKN015
                      PROB40 TEMPO 0612 5000 TSRA BKN015CB
                      BECMG 0912 30015G25KT=
200810040200 TAF LMML 040200Z 040312 23005KT 9999 FEW012 SCT100
                      TEMPO 0312 8000 SHRA SCT012 BKN080
                      TEMPO 0312 5000 TSRA SCT01E BKN015CB
                      BECMG 0912 31015G25KT=
200810032300 TAF LMML 032300Z 040009 22004KT 9999 FEW020 SCT100
                      TEMPO 0009 8000 SHRA SCT012 BKN080
                      TEMPO 0009 5000 TSRA SCT012 BKN015CB=
200810032000 TAF LMML 032000Z 032106 21004KT 9999 FEW020
                      PROB30 TEMPO 0006 5000 RA SCT012 BKN080
                      PROB30 TEMPO 0306 5000 TSRA SCT012 BKN050CB=
200810031700 TAF LMML 031700Z 031803 21007KT 9999 SCT020
                      PROB30 TEMPO 0003 8000 SHRA BKN015=
200810031400 TAF LMML 031400Z 031524 23008KT 9999 FEW025=
200810031100 TAF LMML 031100Z 031221 25010KT 9999 FEW030=
200810030800 TAF LMML 030800Z 030918 30010KT 9999 FEW025
                      BECMG 1215 24007KT=
200810030500 TAF LMML 030500Z 030615 29010KT 9999 FEW020
                      BECMG 1114 24008KT=
200810030200 TAF LMML 030200Z 030312 29010KT 9999 FEW020
                      BECMG 1012 24008KT=
200810022300 TAF LMML 022300Z 030009 29007KT 9999 FEW020=
200810022000 LMML 022000Z 022106 29007KT 9999 FEW020=
200810021700 TAF LMML 021700Z 021803 29006KT 9999 FEW018=
200810021400 TAF LMML 021400Z 021524 30006KT 9999 FEW030
                      PROB30 TEMPO 1824 8000 SHRA BKN018=
200810021100 TAF LMML 021100Z 021221 30010KT 9999 FEW020
                      PROB30 TEMPO 1221 8000 SHRA BKN015
                      PROB30 TEMPO 1221 5000 TSRA BKN015CB=
200810020800 TAF LMML 020800Z 020918 30012KT 9999 FEW018
                      PROB40 TEMPO 0918 5000 SHRA BKN015
                      PROB30 TEMPO 0913 5000 TSRA FEW008 BKN015CB=
200810020500 TAF LMML 020500Z 020615 26009KT 9999 FEW015
                      PROB30 TEMPO 0609 5000 TSRA BKN004 BKN020CB
                       BECMG 1114 32012KT=
200810020200 TAF LMML 020200Z 020312 30006KT 9999 FEW012
                      TEMPO 0306 BKN008
                      PROB30 TEMPO 0306 8000 SHRA=
200810012300 TAF LMML 012300Z 020009 29005KT 9999 FEW012
                      TEMPO 0006 BKN009
                      PROB30 TEMPO 0006 8000 SHRA=
200810012000 TAF LMML 012000Z 012106 VRB03KT 9999 FEW012
                      PROB40 TEMPO 2106 8000 SHRA BKN009=
200810011700 TAF LMML 011700Z 011803 12005KT 9999 FEW012
                      PROB40 TEMPO 2103 8000 SHRA BKN010=
200810011400 TAF LMML 011400Z 011524 03005KT 9999 SCT015
                      PROB40 TEMPO 1524 BKN011
                      PROB40 TEMPO 1824 8000 SHRA=
200810011200 LMML 011200Z 011221 03005KT 9999 SCT015
                      TEMPO 1221 BKN012
                      PROB30 TEMPO 1821 8000 SHRA=
200810011100 TAF LMML 011100Z 011221 03005KT 9999 FEW018
                      PROB30 TEMPO 1821 8000 SHRA=
200810010800 TAF LMML 010800Z 010918 03004KT 9999 FEW012=
200810010500 TAF LMML 010500Z 010615 10006KT 9999 FEW015 SCT120
                      TEMPO 0615 8000 SHRA BKN015
                      PROB30 TEMPO 0615 5000 TSRA BKN015CB
                      BECMG 0912 25010KT=
200810010200 TAF LMML 010200Z 010312 10007KT 9999 SCT015 SCT050 BKN090
                      TEMPO 0312 8000 SHRA BKN009 BKN015
                      PROB30 TEMPO 0312 3000 TSRA BKN006 BKN013CB=

###################################
#  large TAF from LMML
###################################
200810312300 TAF LMML 312300Z 010606 24013KT CAVOK
                      PROB30 TEMPO 1506 SCT05
                      BECMG 0306 15005KT=
200810311700 LMML 311700Z 010024 25015KT CAVOK
                      TEMPO 0008 9000 NSC
                      TEMPO 0024 9999 SCT012
                      BECMG 1821 19005KT=
200810311100 TAF LMML 311100Z 311818 15015KT CAVOK
                      TEMPO 1800 18015G25KT
                      PROB40 TEMPO 1823 8000 RA
                      PROB30 TEMPO 0408 6000 SCT006
                      BECMG 0710 25010KT=
200810310500 TAF LMML 310500Z 311212 13015G25KT 9999 FEW012 BKN120
                      TEMPO 1218 8000 RA
                      BECMG 2124 22012G22KT
                      BECMG 0306 24012KT=
200810302300 TAF LMML 302300Z 310606 12010KT CAVOK
                      PROB30 TEMPO 1221 8000 RA SCT012 BKN120 OVC200
                       BECMG 1417 12015G25KT
                      BECMG 2124 18012G22KT
                      BECMG 0306 22010KT=
200810301700 TAF LMML 301700Z 310024 04005KT CAVOK
                      PROB30 TEMPO 0006 9000 SCT011
                      BECMG 0407 10010KT 9999 FEW015 SCT100
                      TEMPO 0918 8000 RA BKN013
                      BECMG 1417 16018KT
                      BECMG 2124 22015KT=
200810301100 TAF LMML 301100Z 301818 28006KT 9999 FEW015 SCT100
                      PROB30 TEMPO 2106 9000 BKN011
                      TEMPO 0618 7000 RA BKN013
                      BECMG 0609 10013KT
                      BECMG 1316 17018KT=
200810300500 TAF LMML 300500Z 301212 27005KT CAVOK
                      PROB40 TEMPO 1212 9999 FEW018
                      PROB30 TEMPO 1218 8000 RA BKN015=
200810292300 TAF LMML 292300Z 300606 27005KT CAVOK
                      PROB30 TEMPO 1018 8000 RA SCT015=
200810291700 TAF LMML 291700Z 300024 20012KT CAVOK
                      PROB40 TEMPO 0008 8000 FEW007
                      BECMG 0407 28008KT=
200810291100 TAF LMML 291100Z 291818 17013KT CAVOK
                      BECMG 0104 27005KT
                      PROB40 TEMPO 2208 8000 FEW007=
200810290500 TAF LMML 290500Z 291212 18010KT 9999 FEW015 SCT120
                      TEMPO 2204 17012G22KT
                      PROB30 TEMPO 0812 8000 RA=
200810282300 TAF LMML 282300Z 290606 18010KT 9999 FEW012 SCT120=
200810281700 TAF LMML 281700Z 290024 17005KT 9999 SCT012 SCT100
                      TEMPO 0006 9000 BKN010
                      PROB30 TEMPO 0006 5000 BR BKN005
                      BECMG 1720 CAVOK=
200810281100 TAF LMML 281100Z 281818 18007KT 9999 SCT012 SCT100
                      TEMPO 1806 9000 BKN010
                      PROB30 TEMPO 0009 8000 RA BKN008=
200810280500 TAF LMML 280500Z 281212 15015KT 9999 FEW015 SCT120
                      BECMG 1821 18005KT=
200810272300 TAF LMML 272300Z 280606 15015KT 9999 FEW015 SCT120
                      BECMG 1518 15005KT=
200810271700 TAF LMML 271700Z 280024 15004KT 9999 FEW018
                      BECMG 0306 13013KT
                      TEMPO 1224 CAVOK
                      BECMG 1518 VRB03KT
                      PROB30 TEMPO 1624 8000 RA=
200810271100 TAF LMML 271100Z 271818 17004KT 9999 SCT018
                      TEMPO 0616 15015KT
                      TEMPO 0618 CAVOK=
200810270500 TAF LMML 270500Z 271212 15008KT 9999 SCT020=
200810262300 TAF LMML 262300Z 270606 14006KT 9999 SCT020=
200810261700 TAF LMML 261700Z 270024 VRB03KT 9999 FEW020
                      PROB30 TEMPO 0003 8000 SHRA BKN015=
200810261100 TAF LMML 261100Z 261818 14005KT 9999 FEW020 SCT100
                      TEMPO 1808 5000 SHRA BKN015
                      PROB30 TEMPO 1806 3000 TSRA BKN015CB=
200810260500 TAF LMML 260500Z 261212 11008KT 9999 SCT020 SCT100
                      TEMPO 1206 8000 SHRA BKN015
                      PROB30 TEMPO 1203 5000 TSRA BKN015CB=
200810252300 TAF LMML 252300Z 260606 10007KT 9999 SCT020 SCT100
                      TEMPO 0606 8000 SHRA BKN015
                      PROB30 TEMPO 0624 5000 TSRA BKN015CB=
200810251700 TAF LMML 251700Z 260024 12007KT 9999 SCT020
                      TEMPO 0018 8000 SHRA
                      PROB30 TEMPO 0015 5000 TSRA BKN015CB=
200810251100 TAF LMML 251100Z 251818 11006KT 9999 SCT020
                      TEMPO 1818 8000 SHRA
                      PROB40 TEMPO 1818 5000 TSRA BKN015CB=
200810250500 TAF LMML 250500Z 251212 11005KT 9999 SCT020
                      TEMPO 2112 7000 SHRA BKN015 BKN060
                      PROB30 TEMPO 0012 5000 TSRA BKN015CB=
200810242300 LMML NIL=
200810241700 TAF LMML 241700Z 250024 10005KT 9999 SCT015
                      PROB30 TEMPO 2106 9000 BKN013
                      TEMPO 0918 8000 SHRA BKN015=
200810241100 TAF LMML 241100Z 241818 10006KT 9999 SCT020
                      PROB30 TEMPO 2106 9000 BKN013
                      TEMPO 1218 8000 SHRA BKN015=
200810240500 TAF LMML 240500Z 241212 13010KT 9999 FEW020
                      PROB40 TEMPO 1215 8000 SHRA BKN015=
200810232300 TAF LMML 232300Z 240606 13010KT 9999 FEW020
                      TEMPO 0615 8000 SHRA BKN015=
200810231700 TAF LMML 231700Z 240024 15006KT 9999 SCT020 SCT100
                      TEMPO 0012 7000 SHRA BKN012TCU OVC060=
200810231100 TAF LMML 231100Z 231818 15005KT 9999 FEW020 SCT080
                      TEMPO 1812 7000 SHRA BKN015TCU=
200810230500 TAF LMML 230500Z 231212 16005KT 9999 SCT020
                      TEMPO 1209 7000 SHRA BKN015TCU=
200810222300 TAF LMML 222300Z 230606 16008KT 9000 SCT020
                      TEMPO 0606 8000 SHRA BKN015
                      PROB30 TEMPO 0612 5000 TSRA BKN015CB=
200810221700 TAF LMML 221700Z 230024 15008KT 9999 SCT020 BKN090
                      TEMPO 0012 8000 SHRA
                      PROB40 TEMPO 0008 5000 TSRA BKN015CB=
200810221100 TAF LMML 221100Z 221818 15004KT 9999 SCT018 BKN100
                      TEMPO 1812 8000 SHRA BKN015
                      PROB30 TEMPO 1809 5000 TSRA BKN010CB=
200810220500 TAF LMML 220500Z 221212 15008KT 9999 SCT015 SCT090
                      TEMPO 1212 8000 SHRA BKN015
                      PROB30 TEMPO 1212 5000 TSRA BKN015CB=
200810212300 TAF LMML 212300Z 220606 10008KT 9999 SCT015 SCT100
                      TEMPO 0906 8000 SHRA BKN015
                      PROB30 TEMPO 0906 5000 TSRA BKN015CB=
200810211700 TAF LMML 211700Z 220024 10008KT 9999 SCT020
                      PROB30 TEMPO 0306 BKN015
                      TEMPO 1524 8000 RA BKN015
                      PROB30 TEMPO 2024 5000 TSRA BKN015CB=
200810211100 TAF LMML 211100Z 211818 10008KT 9999 FEW020
                      PROB30 TEMPO 1218 8000 RA BKN015=
200810210500 TAF LMML 210500Z 211212 10008KT 9999 SCT020 SCT200
                      PROB30 TEMPO 2106 8000 BKN012
                      PROB30 TEMPO 0612 8000 RA BKN015=
200810202300 TAF LMML 202300Z 210606 10008KT 9999 SCT020 BKN200
                      PROB 30
                      TEMPO 0006 9000 RA BKN012=
200810201700 TAF LMML 201700Z 210024 10005KT 9999 SCT015 BKN100
                      PROB30 TEMPO 0006 8000 BKN011=
200810201100 TAF LMML 201100Z 201818 10007KT 9999 SCT015
                      PROB30 TEMPO 2106 8000 BKN010=
200810200500 TAF LMML 200500Z 201212 10006KT 9999 FEW025 SCT080=
200810192300 TAF LMML 192300Z 200606 10005KT 9999 FEW015=
200810191700 TAF LMML 191700Z 200024 09004KT 9999 FEW025
                      PROB30 TEMPO 0008 6000 BKN015=
200810191100 TAF LMML 191100Z 191818 09004KT 9999 SCT020=
200810190500 TAF LMML 190500Z 191212 VRB02KT 9999 FEW020=
200810182300 TAF LMML 182300Z 190606 04004KT 9999 FEW020=
200810181700 TAF LMML 181700Z 190024 VRB03KT 9999 FEW020=
200810181100 TAF LMML 181100Z 181818 VRB03KT 9999 FEW020=
200810180500 TAF LMML 180500Z 181212 28007KT 9999 SCT020
                      TEMPO 1206 8000 SHRA BKN015
                      PROB30 TEMPO 1218 5000 TSRA BKN015CB=
200810172300 TAF LMML 172300Z 180606 28007KT 9999 SCT015
                      TEMPO 0606 8000 SHRA BKN015
                      PROB30 TEMPO 0615 5000 TSRA BKN015CB=
200810171700 LMML 171700Z 170024 27005KT 9999 SCT020
                      TEMPO 0024 8000 SHRA
                      PROB30 TEMPO 0015 5000 TSRA BKN015CB=
200810171100 TAF LMML 171100Z 171818 26005KT 9999 FEW020 SCT120
                      TEMPO 1815 8000 SHRA
                      PROB30 TEMPO 1812 5000 TSRA BKN015CB=
200810170500 TAF LMML 170500Z 171212 VRB03KT 9999 FEW025 BKN120
                      TEMPO 1212 8000 SHRA BKN009 OVC080
                      PROB40 TEMPO 1512 5000 TSRA BKN012CB=
200810162300 TAF LMML 162300Z 170606 25005KT 9999 FEW025 BKN110
                      TEMPO 0615 CAVOK
                      TEMPO 0606 8000 SHRA
                      PROB30 TEMPO 1506 5000 TSRA BKN015CB=
200810161700 TAF LMML 161700Z 170024 23005KT 9999 FEW020 SCT130
                      TEMPO 0324 8000 SHRA BKN015
                      PROB30 TEMPO 1224 5000 TSRA BKN015CB=
200810161100 TAF LMML 161100Z 161818 24006KT 9999 FEW025
                      TEMPO 0318 8000 SHRA BKN015
                      PROB30 TEMPO 0618 5000 TSRA BKN015CB=
200810160500 TAF LMML 160500Z 161212 27008KT 9999 FEW025
                      TEMPO 0012 8000 SHRA BKN018 BKN080
                      PROB30 TEMPO 0312 5000 TSRA BKN015CB=
200810152300 TAF LMML 152300Z 160606 27005KT 9999 FEW025=
200810151700 TAF LMML 151700Z 160024 26004KT 9999 FEW030=
200810151100 TAF LMML 151100Z 151818 27004KT 9999 FEW030
                      TEMPO 1818 CAVOK=
200810150500 TAF LMML 150500Z 151212 27006KT 9999 FEW025=
200810142300 TAF LMML 142300Z 150606 26006KT 9999 FEW025=
200810141700 TAF LMML 141700Z 150024 25004KT 9999 FEW017 BKN250
                      PROB30 TEMPO 0315 8000=
200810141100 TAF LMML 141100Z 141818 VRB03KT CAVOK
                      TEMPO 0618 FEW025=
200810140500 TAF LMML 140500Z 141212 26007KT 9999 FEW025=
200810132300 TAF LMML 132300Z 140606 31006KT CAVOK
                      BECMG 0609 9999 FEW025
                      PROB30 TEMPO 0006 BKN015=
200810131700 TAF LMML 131700Z 140024 04005KT CAVOK
                      BECMG 0609 9999 SCT020 BKN200=
200810131100 TAF LMML 131100Z 131818 03004KT CAVOK
                      PROB30 TEMPO 1806 9999 FEW015
                      BECMG 0811 9999 FEW020=
200810130500 TAF LMML 130500Z 131212 VRB03KT CAVOK
                      TEMPO 1212 9999 FEW022=
200810122300 TAF LMML 122300Z 130606 05005KT CAVOK
                      TEMPO 0606 9999 FEW030=
200810121700 TAF LMML 121700Z 130024 34005KT 9999 SCT020=
200810121100 TAF LMML 121100Z 121818 04007KT 9999 FEW020=
200810120500 TAF LMML 120500Z 121212 04010KT 9999 FEW030=
200810112300 TAF LMML 112300Z 120606 06004KT 9999 FEW030=
200810111700 TAF LMML 111700Z 120024 03006KT 9999 FEW022=
200810111100 TAF LMML 111100Z 111818 05010KT 9999 SCT018=
200810110500 TAF LMML 110500Z 111212 06010KT 9999 SCT020=
200810102300 TAF LMML 102300Z 110606 07010KT 9999 SCT020 SCT200
                      PROB30 TEMPO 0612 8000 SHRA=
200810101700 TAF LMML 101700Z 110024 08006KT 9999 SCT020
                      PROB30 TEMPO 0006 8000 SHRA BKN015=
200810101100 TAF LMML 101100Z 101818 08005KT 9999 SCT025 SCT100
                      PROB30 TEMPO 1808 8000 SHRA BKN020=
200810100500 TAF LMML 100500Z 101212 08013KT 9999 SCT025=
200810092300 TAF LMML 092300Z 100606 08013KT 9999 SCT020=
200810091700 TAF LMML 091700Z 100024 07010KT 9999 SCT020 SCT140 BKN200=
200810091100 TAF LMML 091100Z 091818 09010KT 9999 SCT020
                      PROB30 TEMPO 0006 BKN015=
200810090500 TAF LMML 090500Z 091212 08014KT 9999 FEW018 SCT120
                      PROB30 TEMPO 1218 8000 SHRA BKN010=
200810082300 TAF LMML 082300Z 090606 10010KT 9999 FEW018 SCT120
                      PROB40 TEMPO 0618 7000 SHRA BKN010
                      PROB30 TEMPO 0612 5000 TSRA BKN015CB=
200810081700 TAF LMML 081700Z 090024 14005KT 9999 FEW015 BKN120
                      TEMPO 0018 5000 SHRA FEW008 BKN070
                      PROB40 TEMPO 0015 5000 TSRA SCT008 BKN015CB=
200810081100 TAF LMML 081100Z 081818 08008KT 9999 SCT018
                      TEMPO 1815 8000 SHRA BKN015
                      PROB40 TEMPO 1812 5000 TSRA FEW008 BKN015CB=
200810080500 TAF LMML 080500Z 081212 11010KT 9999 SCT015 BKN100
                      TEMPO 1212 7000 SHRA BKN015
                      PROB30 TEMPO 1212 3000 TSRA BKN013CB
                      BECMG 0306 10015G25KT=
200810072300 TAF LMML 072300Z 080606 11008KT 9999 SCT015 SCT130
                      TEMPO 0606 8000 RA BKN013
                      PROB30 TEMPO 0615 3000 TSRA BKN014CB
                      TEMPO 2106 5000 TSRA BKN030CB=
200810071700 TAF LMML 071700Z 080024 11008KT 9999 SCT015 BKN120
                      TEMPO 0324 8000 RA
                      PROB30 TEMPO 0609 5000 TSRA BKN015CB=
200810071100 TAF LMML 071100Z 071818 15008KT 9999 SCT015 SCT100
                      TEMPO 0018 8000 RA BKN015=
200810070500 TAF LMML 070500Z 071212 13007KT 9999 FEW020
                      PROB30 TEMPO 1212 8000 SHRA BKN015=
200810062300 TAF LMML 062300Z 070606 15005KT 9999 FEW020=
200810061700 TAF LMML 061700Z 070024 VRB03KT 9999 FEW020=
200810061100 TAF LMML 061100Z 061818 33005KT 9999 FEW035=
200810052300 TAF LMML 052300Z 060606 30006KT 9999 FEW035=
200810051700 TAF LMML 051700Z 060024 29006KT 9999 FEW030=
200810051100 TAF LMML 051100Z 051818 30005KT 9999 FEW030=
200810050500 TAF LMML 050500Z 051212 30010KT 9999 FEW030=
200810042300 TAF LMML 042300Z 050606 30010KT 9999 FEW030=
200810041700 TAF LMML 041700Z 050024 30012KT 9999 FEW025=
200810041100 TAF LMML 041100Z 041818 31018G30KT 9999 FEW025
                      BECMG 2124 30013KT=
200810040500 TAF LMML 040500Z 041212 31018G28KT 9999 FEW025=
200810032300 TAF LMML 032300Z 040606 24006KT 9999 FEW012 SCT100
                      TEMPO 0612 8000 SHRA SCT012 BKN080
                      TEMPO 0612 5000 TSRA SCT012 BKN015CB=
200810031700 TAF LMML 031700Z 040024 20007KT 9999 FEW020 SCT070
                      TEMPO 0015 8000 SHRA BKN015
                      BECMG 0407 26013KT
                      PROB30 TEMPO 0615 5000 TSRA BKN015CB
                      BECMG 0912 29017G27KT
                      BECMG 2124 28013KT=
200810031100 TAF LMML 031100Z 031818 22008KT 9999 FEW020 SCT100
                      TEMPO 0315 8000 SHRA BKN015
                      BECMG 0508 28013KT
                      PROB30 TEMPO 0612 5000 TSRA BKN015CB
                      BECMG 0912 29017G27KT=
200810030500 TAF LMML 030500Z 031212 24008KT 9999 FEW025
                      TEMPO 0012 8000 SHRA BKN015
                      PROB30 TEMPO 0312 5000 TSRA BKN015CB
                      BECMG 0609 30018G28KT=
200810022300 TAF LMML 022300Z 030606 29010KT 9999 FEW020
                      BECMG 1013 24008KT
                      TEMPO 0006 9000 SHRA BKN015
                      PROB30 TEMPO 0306 5000 TSRA BKN015CB=
200810021700 TAF LMML 021700Z 030024 29005KT 9999 FEW018
                      PROB30 TEMPO 1824 8000 SHRA BKN015=
200810021100 TAF LMML 021100Z 021818 30005KT 9999 FEW020
                      PROB30 TEMPO 1818 8000 SHRA BKN018=
200810020500 TAF LMML 020500Z 021212 32012KT 9999 FEW020
                      TEMPO 1212 CAVOK
                      BECMG 0609 26005KT=
200810012300 TAF LMML 012300Z 020606 31010KT 9999 FEW015=
200810011700 TAF LMML 011700Z 020024 29010KT 9999 FEW012
                      PROB40 TEMPO 0006 8000 SHRA BKN010
                      PROB30 TEMPO 0107 BKN012=
200810011100 TAF LMML 011100Z 011818 29010KT 9999 SCT015
                      PROB40 TEMPO 1806 8000 SHRA BKN015=
200810010500 TAF LMML 010500Z 011212 25008KT 9999 SCT015
                      TEMPO 1215 8000 SHRA BKN015
                      PROB30 TEMPO 1215 5000 TSRA BKN015CB
                      BECMG 0306 31013KT
                      BECMG 0609 29015G25KT=
