##########################################################
# Query made at 01/18/2013 16:01:14 UTC
# Time interval: from 10/01/2010 00:00  to 10/31/2010 23:59  UTC
##########################################################

##########################################################
# LMML, Luqa (Malta)
# WMO index: 16597
# Latitude 35-51N. Longitude 014-29E. Altitude 91 m.
##########################################################

###################################
#  METAR/SPECI from LMML
###################################
201010312345 METAR LMML 312345Z 15015KT 120V180 CAVOK 21/16 Q1014 NOSIG=
201010312330 METAR LMML NIL=
201010312315 METAR LMML 312315Z 15016KT 120V180 CAVOK 21/16 Q1014 NOSIG=
201010312300 METAR LMML NIL=
201010312245 METAR LMML 312245Z 15016KT 120V180 CAVOK 21/16 Q1014 NOSIG=
201010312230 METAR LMML NIL=
201010312215 METAR LMML 312215Z 15016KT 120V180 CAVOK 21/16 Q1014 NOSIG=
201010312200 METAR LMML NIL=
201010312145 METAR LMML 312145Z 15014KT 120V190 CAVOK 21/17 Q1014 NOSIG=
201010312130 METAR LMML NIL=
201010312115 METAR LMML 312115Z 15014KT CAVOK 21/17 Q1015 NOSIG=
201010312100 METAR LMML NIL=
201010312045 METAR LMML 312045Z 15014KT CAVOK 21/16 Q1015 NOSIG=
201010312030 METAR LMML NIL=
201010312015 METAR LMML 312015Z 15013KT 120V180 CAVOK 21/16 Q1015 NOSIG=
201010312000 METAR LMML NIL=
201010311945 METAR LMML 311945Z 15013KT 120V180 CAVOK 21/16 Q1015 NOSIG=
201010311930 METAR LMML NIL=
201010311915 METAR LMML 311915Z 16012KT 130V190 CAVOK 21/16 Q1015 NOSIG=
201010311900 METAR LMML NIL=
201010311845 METAR LMML 311845Z 16011KT CAVOK 21/17 Q1015 NOSIG=
201010311830 METAR LMML NIL=
201010311815 METAR LMML 311815Z 16012KT CAVOK 21/17 Q1015 NOSIG=
201010311800 METAR LMML NIL=
201010311745 METAR LMML 311745Z 17012KT CAVOK 21/17 Q1015 NOSIG=
201010311730 METAR LMML NIL=
201010311715 METAR LMML 311715Z 17011KT 130V200 CAVOK 21/17 Q1015 NOSIG=
201010311700 METAR LMML NIL=
201010311645 METAR LMML 311645Z 17009KT CAVOK 21/17 Q1016 NOSIG=
201010311630 METAR LMML NIL=
201010311615 METAR LMML 311615Z 18009KT 150V220 CAVOK 21/17 Q1016 NOSIG=
201010311600 METAR LMML NIL=
201010311545 METAR LMML 311545Z 17009KT 130V220 9999 FEW022 SCT120 BKN250
                        21/16 Q1015 NOSIG=
201010311530 METAR LMML NIL=
201010311515 METAR LMML 311515Z 17011KT 130V210 9999 FEW022 SCT120 BKN250
                        21/17 Q1015 NOSIG=
201010311500 METAR LMML NIL=
201010311445 METAR LMML 311445Z 17010KT 120V200 9999 FEW022 BKN250 22/17
                        Q1016 NOSIG=
201010311430 METAR LMML NIL=
201010311415 METAR LMML 311415Z 16012KT 140V200 9999 FEW023 BKN250 22/17
                        Q1016 NOSIG=
201010311400 METAR LMML NIL=
201010311345 METAR LMML 311345Z 17012KT 120V210 9999 FEW024 BKN250 22/17
                        Q1016 NOSIG=
201010311330 METAR LMML NIL=
201010311315 METAR LMML 311315Z 17011KT 140V210 9999 FEW024 BKN250 22/17
                        Q1016 NOSIG=
201010311300 METAR LMML NIL=
201010311245 METAR LMML 311245Z 17011KT 140V220 9999 FEW024 BKN250 22/17
                        Q1016 NOSIG=
201010311230 METAR LMML NIL=
201010311215 METAR LMML 311215Z 17012KT 140V210 9999 FEW024 BKN250 22/17
                        Q1016 NOSIG=
201010311200 METAR LMML NIL=
201010311145 METAR LMML 311145Z 17011KT 140V210 9999 FEW026 BKN250 23/17
                        Q1017 NOSIG=
201010311130 METAR LMML NIL=
201010311115 METAR LMML 311115Z 17011KT 130V200 9999 FEW026 BKN250 22/17
                        Q1017 NOSIG=
201010311100 METAR LMML NIL=
201010311045 METAR LMML 311045Z 16012KT 130V200 9999 FEW024 BKN250 22/18
                        Q1018 NOSIG=
201010311030 METAR LMML NIL=
201010311015 METAR LMML 311015Z 16012KT 120V200 9999 FEW023 BKN250 22/17
                        Q1018 NOSIG=
201010311000 METAR LMML NIL=
201010310945 METAR LMML 310945Z 16011KT 9999 FEW025 BKN250 22/17 Q1018
                        NOSIG=
201010310930 METAR LMML NIL=
201010310915 METAR LMML 310915Z 16011KT 130V190 9999 FEW028 BKN250 22/17
                        Q1018 NOSIG=
201010310900 METAR LMML NIL=
201010310845 METAR LMML 310845Z 17008KT 130V220 9999 FEW027 BKN250 22/16
                        Q1019 NOSIG=
201010310815 METAR LMML 310815Z 16011KT 130V190 9999 SCT028 BKN250 22/16
                        Q1019 NOSIG=
201010310800 METAR LMML NIL=
201010310745 METAR LMML 310745Z 15008KT 120V190 9999 FEW029 BKN250 22/17
                        Q1019 NOSIG=
201010310730 METAR LMML NIL=
201010310715 METAR LMML 310715Z 15007KT 110V180 9999 FEW031 BKN250 20/16
                        Q1019 NOSIG=
201010310700 METAR LMML NIL=
201010310645 METAR LMML 310645Z 15007KT 9999 FEW031 SCT130 BKN250 20/15
                        Q1018 NOSIG=
201010310615 METAR LMML 310615Z 16006KT 9999 FEW029 BKN130 20/15 Q1019
                        NOSIG=
201010310545 METAR LMML 310545Z 16006KT 9999 FEW029 SCT130 19/14 Q1018
                        NOSIG=
201010310530 METAR LMML NIL=
201010310515 METAR LMML 310515Z 16006KT 9999 FEW030 BKN130 19/14 Q1018
                        NOSIG=
201010310500 METAR LMML NIL=
201010310445 METAR LMML 310445Z 17005KT 140V220 9999 SCT031 19/14 Q1019
                        NOSIG=
201010310430 METAR LMML NIL=
201010310415 METAR LMML 310415Z 18006KT 140V200 9999 SCT031 19/14 Q1018
                        NOSIG=
201010310400 METAR LMML NIL=
201010310345 METAR LMML 310345Z 17006KT 140V210 9999 SCT031 19/14 Q1018
                        NOSIG=
201010310315 METAR LMML 310315Z 17007KT 140V200 9999 SCT030 19/14 Q1018
                        NOSIG=
201010310300 METAR LMML NIL=
201010310245 METAR LMML 310245Z 17006KT 140V210 9999 SCT029 19/14 Q1018
                        NOSIG=
201010310230 METAR LMML NIL=
201010310215 METAR LMML 310215Z 16008KT 130V190 9999 SCT028 19/15 Q1018
                        NOSIG=
201010310200 METAR LMML NIL=
201010310145 METAR LMML 310145Z 15008KT 9999 SCT029 19/15 Q1019 NOSIG=
201010310130 METAR LMML NIL=
201010310115 METAR LMML 310115Z 16007KT 130V190 9999 FEW027 19/15 Q1019
                        NOSIG=
201010310100 METAR LMML NIL=
201010310045 METAR LMML 310045Z 16007KT 9999 FEW028 19/14 Q1019 NOSIG=
201010310030 METAR LMML NIL=
201010310015 METAR LMML 310015Z 15008KT 9999 FEW027 19/15 Q1019 NOSIG=
201010310000 METAR LMML NIL=
201010302345 METAR LMML 302345Z 17006KT 9999 SCT027 19/15 Q1019 NOSIG=
201010302330 METAR LMML NIL=
201010302315 METAR LMML 302315Z 17006KT 140V200 9999 BKN027 19/15 Q1020
                        NOSIG=
201010302300 METAR LMML NIL=
201010302245 METAR LMML 302245Z 14008KT 9999 BKN026 19/15 Q1019 NOSIG=
201010302230 METAR LMML NIL=
201010302215 METAR LMML 302215Z 14008KT 9999 BKN027 18/14 Q1020 NOSIG=
201010302145 METAR LMML 302145Z 14007KT 9999 BKN030 18/14 Q1020 NOSIG=
201010302130 METAR LMML NIL=
201010302115 METAR LMML 302115Z 13005KT 9999 BKN031 17/14 Q1020 NOSIG=
201010302045 METAR LMML 302045Z 14005KT 9999 FEW029 17/14 Q1020 NOSIG=
201010302030 METAR LMML NIL=
201010302015 METAR LMML 302015Z 14005KT 9999 FEW031 17/14 Q1020 NOSIG=
201010302000 METAR LMML NIL=
201010301945 METAR LMML 301945Z 15003KT 9999 FEW031 18/14 Q1020 NOSIG=
201010301930 METAR LMML NIL=
201010301915 METAR LMML 301915Z 16004KT 9999 FEW030 18/14 Q1020 NOSIG=
201010301900 METAR LMML NIL=
201010301845 METAR LMML 301845Z 15004KT 9999 FEW031 18/14 Q1020 NOSIG=
201010301830 METAR LMML NIL=
201010301815 METAR LMML 301815Z 16004KT 9999 SCT031 19/14 Q1020 NOSIG=
201010301800 METAR LMML NIL=
201010301745 METAR LMML 301745Z 16004KT 9999 SCT030 SCT250 19/14 Q1019
                        NOSIG=
201010301730 METAR LMML NIL=
201010301715 METAR LMML 301715Z 17003KT 9999 SCT029 SCT250 19/14 Q1019
                        NOSIG=
201010301700 METAR LMML NIL=
201010301645 METAR LMML 301645Z 16005KT 9999 FEW032 BKN250 19/14 Q1019
                        NOSIG=
201010301630 METAR LMML NIL=
201010301615 METAR LMML 301615Z 16003KT 9999 FEW032 BKN250 19/14 Q1019
                        NOSIG=
201010301600 METAR LMML NIL=
201010301545 METAR LMML 301545Z 17004KT 130V220 9999 FEW033 BKN250 20/14
                        Q1019 NOSIG=
201010301530 METAR LMML NIL=
201010301515 METAR LMML 301515Z 18004KT 140V240 9999 SCT030 BKN250 20/13
                        Q1019 NOSIG=
201010301500 METAR LMML NIL=
201010301445 METAR LMML 301445Z 20004KT 160V260 9999 SCT030 21/14 Q1019
                        NOSIG=
201010301430 METAR LMML NIL=
201010301415 METAR LMML 301415Z 18004KT 140V270 9999 SCT033 21/14 Q1019
                        NOSIG=
201010301400 METAR LMML NIL=
201010301345 METAR LMML 301345Z 16004KT 130V280 9999 SCT032 21/14 Q1019
                        NOSIG=
201010301330 METAR LMML NIL=
201010301315 METAR LMML 301315Z 20004KT 170V250 9999 SCT032 21/14 Q1019
                        NOSIG=
201010301300 METAR LMML NIL=
201010301245 METAR LMML 301245Z 21005KT 160V270 9999 SCT032 21/14 Q1019
                        NOSIG=
201010301215 METAR LMML 301215Z 23004KT 150V320 9999 FEW030 21/14 Q1019
                        NOSIG=
201010301200 METAR LMML NIL=
201010301145 METAR LMML 301145Z 20004KT 150V270 9999 FEW030 21/14 Q1019
                        NOSIG=
201010301130 METAR LMML NIL=
201010301115 METAR LMML 301115Z 19005KT 160V240 9999 FEW029 21/14 Q1020
                        NOSIG=
201010301100 METAR LMML NIL=
201010301045 METAR LMML 301045Z 20005KT 160V260 9999 FEW027 21/14 Q1020
                        NOSIG=
201010301030 METAR LMML NIL=
201010301015 METAR COR LMML 301015Z 21004KT 160V250 9999 FEW027 20/14
                        Q1020 NOSIG=
201010301000 METAR LMML NIL=
201010300945 METAR LMML 300945Z 19004KT 160V230 9999 FEW027 20/14 Q1020
                        NOSIG=
201010300930 METAR LMML NIL=
201010300915 METAR LMML 300915Z VRB02KT 9999 FEW025 21/14 Q1020 NOSIG=
201010300900 METAR LMML NIL=
201010300845 METAR LMML 300845Z VRB01KT 9999 FEW020 20/13 Q1020 NOSIG=
201010300830 METAR LMML NIL=
201010300815 METAR LMML 300815Z VRB01KT 9999 FEW020 20/14 Q1020 NOSIG=
201010300800 METAR LMML NIL=
201010300745 METAR LMML 300745Z VRB01KT 9999 FEW020 18/13 Q1020 NOSIG=
201010300730 METAR LMML NIL=
201010300715 METAR LMML 300715Z 00000KT 9999 FEW020 17/14 Q1020 NOSIG=
201010300700 METAR LMML NIL=
201010300645 METAR LMML 300645Z VRB01KT 9999 FEW020 15/14 Q1020 NOSIG=
201010300630 METAR LMML NIL=
201010300615 METAR LMML 300615Z VRB01KT 9999 FEW020 13/12 Q1019 NOSIG=
201010300600 METAR LMML NIL=
201010300545 METAR LMML 300545Z 00000KT 9999 FEW020 12/11 Q1019 NOSIG=
201010300530 METAR LMML NIL=
201010300515 METAR LMML 300515Z VRB01KT 9999 FEW020 13/12 Q1019 NOSIG=
201010300445 METAR LMML 300445Z VRB02KT 9999 FEW020 13/12 Q1019 NOSIG=
201010300430 METAR LMML NIL=
201010300415 METAR LMML 300415Z VRB01KT CAVOK 13/12 Q1019 NOSIG=
201010300400 METAR LMML NIL=
201010300345 METAR LMML 300345Z VRB02KT CAVOK 13/12 Q1019 NOSIG=
201010300330 METAR LMML NIL=
201010300315 METAR LMML 300315Z VRB02KT CAVOK 13/12 Q1019 NOSIG=
201010300300 METAR LMML NIL=
201010300245 METAR LMML 300245Z VRB02KT CAVOK 13/12 Q1019 NOSIG=
201010300230 METAR LMML NIL=
201010300215 METAR LMML 300215Z VRB01KT CAVOK 13/12 Q1019 NOSIG=
201010300200 METAR LMML NIL=
201010300145 METAR LMML 300145Z VRB02KT CAVOK 13/12 Q1019 NOSIG=
201010300130 METAR LMML NIL=
201010300115 METAR LMML 300115Z VRB02KT CAVOK 14/12 Q1019 NOSIG=
201010300100 METAR LMML NIL=
201010300045 METAR LMML 300045Z VRB02KT CAVOK 14/12 Q1019 NOSIG=
201010300030 METAR LMML NIL=
201010300015 METAR LMML 300015Z 29003KT CAVOK 14/12 Q1020 NOSIG=
201010300000 METAR LMML NIL=
201010292345 METAR LMML 292345Z VRB02KT CAVOK 14/12 Q1020 NOSIG=
201010292330 METAR LMML NIL=
201010292315 METAR LMML 292315Z VRB02KT CAVOK 14/12 Q1020 NOSIG=
201010292300 METAR LMML NIL=
201010292245 METAR LMML 292245Z VRB01KT 9999 FEW025 14/12 Q1020 NOSIG=
201010292230 METAR LMML NIL=
201010292215 METAR LMML 292215Z VRB02KT 9999 FEW025 14/12 Q1020 NOSIG=
201010292200 METAR LMML NIL=
201010292145 METAR LMML 292145Z VRB02KT 9999 FEW025 14/12 Q1020 NOSIG=
201010292130 METAR LMML NIL=
201010292115 METAR LMML 292115Z VRB02KT 9999 FEW025 15/12 Q1020 NOSIG=
201010292100 METAR LMML NIL=
201010292045 METAR LMML 292045Z 28003KT 9999 FEW027 15/12 Q1020 NOSIG=
201010292030 METAR LMML NIL=
201010292015 METAR LMML 292015Z VRB02KT 9999 FEW027 15/12 Q1020 NOSIG=
201010292000 METAR LMML NIL=
201010291945 METAR LMML 291945Z VRB02KT 9999 FEW027 15/13 Q1020 NOSIG=
201010291930 METAR LMML NIL=
201010291915 METAR LMML 291915Z VRB02KT 9999 FEW027 16/13 Q1020 NOSIG=
201010291900 METAR LMML NIL=
201010291845 METAR LMML 291845Z VRB02KT 9999 FEW027 SCT250 16/13 Q1020
                        NOSIG=
201010291830 METAR LMML NIL=
201010291815 METAR LMML 291815Z VRB02KT 9999 FEW027 SCT250 16/13 Q1020
                        NOSIG=
201010291800 METAR LMML NIL=
201010291745 METAR LMML 291745Z VRB02KT 9999 FEW027 SCT034 17/13 Q1020
                        NOSIG=
201010291730 METAR LMML NIL=
201010291715 METAR LMML 291715Z VRB02KT 9999 SCT027 SCT250 17/13 Q1020
                        NOSIG=
201010291700 METAR LMML NIL=
201010291645 METAR LMML 291645Z 29003KT 9999 SCT028 BKN250 17/13 Q1019
                        NOSIG=
201010291630 METAR LMML NIL=
201010291615 METAR LMML 291615Z 25003KT 9999 SCT028 BKN250 18/13 Q1019
                        NOSIG=
201010291600 METAR LMML NIL=
201010291545 METAR LMML 291545Z 24003KT 9999 SCT028 BKN250 18/13 Q1019
                        NOSIG=
201010291530 METAR LMML NIL=
201010291515 METAR LMML 291515Z 24003KT 9999 SCT028 BKN250 19/13 Q1019
                        NOSIG=
201010291500 METAR LMML NIL=
201010291445 METAR LMML 291445Z VRB02KT 9999 SCT028 BKN250 19/13 Q1019
                        NOSIG=
201010291430 METAR LMML NIL=
201010291415 METAR LMML 291415Z VRB01KT 9999 SCT028 SCT250 21/14 Q1019
                        NOSIG=
201010291400 METAR LMML NIL=
201010291345 METAR LMML 291345Z VRB02KT 9999 SCT029 SCT250 21/14 Q1019
                        NOSIG=
201010291330 METAR LMML NIL=
201010291315 METAR LMML 291315Z VRB02KT 9999 SCT030 SCT250 21/14 Q1019
                        NOSIG=
201010291300 METAR LMML NIL=
201010291245 METAR LMML 291245Z 36004KT 310V050 9999 SCT030 SCT250 21/14
                        Q1020 NOSIG=
201010291230 METAR LMML NIL=
201010291215 METAR LMML 291215Z 13005KT 050V200 9999 SCT031 20/14 Q1020
                        NOSIG=
201010291200 METAR LMML NIL=
201010291145 METAR LMML 291145Z VRB02KT 9999 FEW020 SCT033 20/13 Q1020
                        NOSIG=
201010291130 METAR LMML NIL=
201010291115 METAR LMML 291115Z VRB01KT 9999 FEW020 BKN033 19/12 Q1020
                        NOSIG=
201010291045 METAR LMML 291045Z 04004KT 340V100 9999 FEW020 SCT033 19/13
                        Q1020 NOSIG=
201010291030 METAR LMML NIL=
201010291015 METAR LMML 291015Z VRB01KT 9999 FEW020 SCT033 21/13 Q1020
                        NOSIG=
201010291000 METAR LMML NIL=
201010290945 METAR LMML 290945Z VRB01KT 9999 SCT031 20/13 Q1021 NOSIG=
201010290930 METAR LMML NIL=
201010290915 METAR LMML 290915Z VRB02KT 9999 FEW025 20/13 Q1021 NOSIG=
201010290900 METAR LMML NIL=
201010290845 METAR LMML 290845Z VRB02KT 9999 FEW025 19/12 Q1021 NOSIG=
201010290830 METAR LMML NIL=
201010290815 METAR LMML 290815Z VRB02KT 9999 FEW025 BKN250 18/12 Q1020
                        NOSIG=
201010290800 METAR LMML NIL=
201010290745 METAR LMML 290745Z 30005KT 9999 FEW025 SCT035 BKN250 18/12
                        Q1020 NOSIG=
201010290730 METAR LMML NIL=
201010290715 METAR LMML 290715Z 30003KT 9999 FEW025 SCT037 BKN250 16/12
                        Q1020 NOSIG=
201010290700 METAR LMML NIL=
201010290645 METAR LMML 290645Z 29003KT 9999 FEW025 BKN250 16/11 Q1020
                        NOSIG=
201010290630 METAR LMML NIL=
201010290615 METAR LMML 290615Z 29004KT 260V320 9999 FEW020 SCT047 BKN250
                        15/11 Q1020 NOSIG=
201010290600 METAR LMML NIL=
201010290545 METAR LMML 290545Z 29003KT 9999 BKN040 SCT250 14/11 Q1019
                        NOSIG=
201010290530 METAR LMML NIL=
201010290515 METAR LMML 290515Z 29004KT 9999 BKN040 BKN250 14/11 Q1019
                        NOSIG=
201010290500 METAR LMML NIL=
201010290445 METAR LMML 290445Z 30004KT 9999 BKN040 15/11 Q1019 NOSIG=
201010290430 METAR LMML NIL=
201010290415 METAR LMML 290415Z 29006KT 9999 BKN040 14/11 Q1019 NOSIG=
201010290400 METAR LMML NIL=
201010290345 METAR LMML 290345Z 29006KT 9999 FEW041 14/10 Q1019 NOSIG=
201010290330 METAR LMML NIL=
201010290315 METAR LMML 290315Z 29004KT CAVOK 14/10 Q1019 NOSIG=
201010290245 METAR LMML 290245Z 28004KT 240V310 CAVOK 13/10 Q1019 NOSIG=
201010290230 METAR LMML NIL=
201010290215 METAR LMML 290215Z 29005KT 250V320 CAVOK 14/10 Q1019 NOSIG=
201010290200 METAR LMML NIL=
201010290145 METAR LMML 290145Z 28005KT CAVOK 14/10 Q1019 NOSIG=
201010290130 METAR LMML NIL=
201010290115 METAR LMML 290115Z 30004KT CAVOK 14/10 Q1019 NOSIG=
201010290100 METAR LMML NIL=
201010290045 METAR LMML 290045Z 29005KT 9999 FEW030 15/10 Q1020 NOSIG=
201010290030 METAR LMML NIL=
201010290015 METAR LMML 290015Z 30006KT 9999 FEW030 14/10 Q1020 NOSIG=
201010290000 METAR LMML NIL=
201010282345 METAR LMML 282345Z 28007KT 250V310 9999 FEW030 15/10 Q1020
                        NOSIG=
201010282330 METAR LMML NIL=
201010282315 METAR LMML 282315Z 28005KT 9999 FEW030 15/11 Q1020 NOSIG=
201010282300 METAR LMML NIL=
201010282245 METAR LMML 282245Z 28006KT 250V320 9999 FEW030 15/10 Q1020
                        NOSIG=
201010282215 METAR LMML 282215Z 28006KT 250V310 9999 FEW030 15/10 Q1020
                        NOSIG=
201010282145 METAR LMML 282145Z 29006KT 9999 FEW030 15/10 Q1020 NOSIG=
201010282115 METAR LMML 282115Z 29007KT 9999 FEW030 15/10 Q1020 NOSIG=
201010282100 METAR LMML NIL=
201010282045 METAR LMML 282045Z 30007KT 9999 FEW030 15/10 Q1020 NOSIG=
201010282030 METAR LMML NIL=
201010282015 METAR LMML 282015Z 31008KT 9999 FEW030 15/11 Q1020 NOSIG=
201010282000 METAR LMML NIL=
201010281945 METAR LMML 281945Z 30010KT 9999 FEW030 16/10 Q1020 NOSIG=
201010281930 METAR LMML NIL=
201010281915 METAR LMML 281915Z 30009KT 9999 FEW030 16/10 Q1020 NOSIG=
201010281900 METAR LMML NIL=
201010281845 METAR LMML 281845Z 30007KT 9999 FEW030 16/10 Q1020 NOSIG=
201010281830 METAR LMML NIL=
201010281815 METAR LMML 281815Z 30009KT 9999 FEW035 16/10 Q1020 NOSIG=
201010281745 METAR LMML 281745Z 30009KT 9999 FEW035 16/10 Q1020 NOSIG=
201010281730 METAR LMML NIL=
201010281715 METAR LMML 281715Z 31012KT 9999 FEW040 16/10 Q1019 NOSIG=
201010281700 METAR LMML NIL=
201010281645 METAR LMML 281645Z 31012KT 9999 FEW039 16/10 Q1019 NOSIG=
201010281630 METAR LMML NIL=
201010281615 METAR LMML 281615Z 31013KT 9999 FEW039 17/11 Q1019 NOSIG=
201010281600 METAR LMML NIL=
201010281545 METAR LMML 281545Z 31012KT 9999 FEW039 17/11 Q1019 NOSIG=
201010281530 METAR LMML NIL=
201010281515 METAR LMML 281515Z 32017KT 9999 FEW037 17/10 Q1019 NOSIG=
201010281500 METAR LMML NIL=
201010281445 METAR LMML 281445Z 32018G28KT 9999 FEW035 18/10 Q1019 NOSIG=
201010281430 METAR LMML NIL=
201010281415 METAR LMML 281415Z 30019KT 270V330 9999 FEW035 18/11 Q1019
                        NOSIG=
201010281400 METAR LMML NIL=
201010281345 METAR LMML 281345Z 31018KT 9999 SCT035 18/11 Q1019 NOSIG=
201010281330 METAR LMML NIL=
201010281315 METAR LMML 281315Z 31019KT 9999 SCT036 18/11 Q1019 NOSIG=
201010281300 METAR LMML NIL=
201010281245 METAR LMML 281245Z 31018KT 280V340 9999 SCT038 19/11 Q1019
                        NOSIG=
201010281230 METAR LMML NIL=
201010281215 METAR LMML 281215Z 31017KT 9999 FEW040 19/10 Q1019 NOSIG=
201010281145 METAR LMML 281145Z 31022KT 9999 FEW040 19/09 Q1019 NOSIG=
201010281130 METAR LMML NIL=
201010281115 METAR LMML 281115Z 31018KT 280V340 9999 FEW040 19/09 Q1020
                        NOSIG=
201010281100 METAR LMML NIL=
201010281045 METAR LMML 281045Z 30019KT 9999 FEW038 19/10 Q1020 NOSIG=
201010281030 METAR LMML NIL=
201010281015 METAR LMML 281015Z 32017KT 9999 FEW038 18/10 Q1020 NOSIG=
201010281000 METAR LMML NIL=
201010280945 METAR LMML 280945Z 32015KT 290V350 9999 FEW040 19/11 Q1020
                        NOSIG=
201010280930 METAR LMML NIL=
201010280915 METAR LMML 280915Z 33015G25KT 9999 FEW035 19/10 Q1020 NOSIG=
201010280900 METAR LMML NIL=
201010280845 METAR LMML 280845Z 32016KT 9999 FEW039 18/11 Q1020 NOSIG=
201010280830 METAR LMML NIL=
201010280815 METAR LMML 280815Z 32015KT 9999 SCT040 18/10 Q1020 NOSIG=
201010280800 METAR LMML NIL=
201010280745 METAR LMML 280745Z 31014KT 9999 SCT041 17/10 Q1020 NOSIG=
201010280730 METAR LMML NIL=
201010280715 METAR LMML 280715Z 32011KT 9999 FEW036 17/11 Q1019 NOSIG=
201010280700 METAR LMML NIL=
201010280645 METAR LMML 280645Z 31012KT 9999 SCT036 16/11 Q1019 NOSIG=
201010280630 METAR LMML NIL=
201010280615 METAR LMML 280615Z 30012KT 9999 SCT039 16/11 Q1018 NOSIG=
201010280600 METAR LMML NIL=
201010280545 METAR LMML 280545Z 31012KT 9999 SCT039 16/11 Q1018 NOSIG=
201010280530 METAR LMML NIL=
201010280515 METAR LMML 280515Z 32012KT 9999 BKN039 16/12 Q1018 NOSIG=
201010280500 METAR LMML NIL=
201010280445 METAR LMML 280445Z 31012KT 9999 FEW032 16/12 Q1018 NOSIG=
201010280430 METAR LMML NIL=
201010280415 METAR LMML 280415Z 30010KT 9999 FEW028 16/11 Q1018 NOSIG=
201010280345 METAR LMML 280345Z 31013KT 9999 FEW028 16/11 Q1018 NOSIG=
201010280330 METAR LMML NIL=
201010280315 METAR LMML 280315Z 31012KT 9999 FEW028 SCT060 16/11 Q1018
                        NOSIG=
201010280300 METAR LMML NIL=
201010280245 METAR LMML 280245Z 31012KT 9999 FEW028 SCT060 16/12 Q1018
                        NOSIG=
201010280230 METAR LMML NIL=
201010280215 METAR LMML 280215Z 31012KT 9999 FEW030 SCT070 16/11 Q1017
                        NOSIG=
201010280200 METAR LMML NIL=
201010280145 METAR LMML 280145Z 31012KT 9999 FEW030 SCT070 16/11 Q1018
                        NOSIG=
201010280130 METAR LMML NIL=
201010280115 METAR LMML 280115Z 31013KT 9999 FEW030 SCT070 16/11 Q1018
                        NOSIG=
201010280100 METAR LMML NIL=
201010280045 METAR LMML 280045Z 31013KT 9999 FEW030 SCT070 16/11 Q1018
                        NOSIG=
201010280030 METAR LMML NIL=
201010280015 METAR LMML 280015Z 31012KT 9999 FEW028 SCT070 16/12 Q1018
                        NOSIG=
201010280000 METAR LMML NIL=
201010272345 METAR LMML 272345Z 30012KT 9999 FEW030 16/12 Q1018 NOSIG=
201010272330 METAR LMML NIL=
201010272315 METAR LMML 272315Z 31013KT 9999 FEW030 16/12 Q1018 NOSIG=
201010272300 METAR LMML NIL=
201010272245 METAR LMML 272245Z 30009KT 9999 FEW030 16/12 Q1018 NOSIG=
201010272230 METAR LMML NIL=
201010272215 METAR LMML 272215Z 30011KT 9999 FEW030 16/12 Q1018 NOSIG=
201010272200 METAR LMML NIL=
201010272145 METAR LMML 272145Z 31012KT 9999 SCT030 16/12 Q1017 NOSIG=
201010272130 METAR LMML NIL=
201010272115 METAR LMML 272115Z 31013KT 9999 SCT030 16/11 Q1018 NOSIG=
201010272100 METAR LMML NIL=
201010272045 METAR LMML 272045Z 31015KT 9999 SCT030 16/11 Q1018 NOSIG=
201010272030 METAR LMML NIL=
201010272015 METAR LMML 272015Z 31016KT 9999 FEW030 16/12 Q1017 NOSIG=
201010272000 METAR LMML NIL=
201010271945 METAR LMML 271945Z 31016KT 9999 FEW031 16/12 Q1017 NOSIG=
201010271930 METAR LMML NIL=
201010271915 METAR LMML 271915Z 31018G28KT 9999 FEW032 16/12 Q1017 NOSIG=
201010271900 METAR LMML NIL=
201010271845 METAR LMML 271845Z 31016KT 9999 FEW030 16/12 Q1016 NOSIG=
201010271830 METAR LMML NIL=
201010271815 METAR LMML 271815Z 31016KT 9999 FEW030 16/12 Q1016 NOSIG=
201010271800 METAR LMML NIL=
201010271745 METAR LMML 271745Z 31016KT 9999 SCT031 16/11 Q1016 NOSIG=
201010271730 METAR LMML NIL=
201010271715 METAR LMML 271715Z 31014KT 9999 SCT028 16/11 Q1016 NOSIG=
201010271700 METAR LMML NIL=
201010271645 METAR LMML 271645Z 31015KT 9999 SCT028 16/11 Q1015 NOSIG
                        RMK CB TOPS TO W AND NE=
201010271630 METAR LMML NIL=
201010271615 METAR LMML 271615Z 30014KT 9999 FEW025CB SCT030 17/12 Q1015
                        NOSIG RMK CB TO NE=
201010271600 METAR LMML NIL=
201010271545 METAR LMML 271545Z 31013KT 9999 FEW025 SCT030 17/11 Q1015
                        NOSIG=
201010271530 METAR LMML NIL=
201010271515 METAR LMML 271515Z 30011KT 9999 SCT032 17/12 Q1015 NOSIG
                        RMK CB TOPS TO W AND SW=
201010271500 METAR LMML NIL=
201010271445 METAR LMML 271445Z 31011KT 280V340 9999 SCT035 18/11 Q1015
                        NOSIG=
201010271430 METAR LMML NIL=
201010271415 METAR LMML 271415Z 32016KT 9999 SCT036 18/11 Q1015 NOSIG=
201010271400 METAR LMML NIL=
201010271345 METAR LMML 271345Z 30013KT 9999 SCT035 18/11 Q1014 NOSIG=
201010271330 METAR LMML NIL=
201010271315 METAR LMML 271315Z 30015KT 270V330 9999 BKN035 19/11 Q1015
                        NOSIG=
201010271300 METAR LMML NIL=
201010271245 METAR LMML 271245Z 31010KT 280V340 9999 BKN034 18/12 Q1014
                        NOSIG=
201010271230 METAR LMML NIL=
201010271215 METAR LMML 271215Z 33010KT 9999 SCT040 18/11 Q1015 NOSIG=
201010271200 METAR LMML NIL=
201010271145 METAR LMML 271145Z 31004KT 250V350 9999 FEW039 SCT060 18/13
                        Q1015 NOSIG=
201010271130 METAR LMML NIL=
201010271115 METAR LMML 271115Z 28005KT 230V320 9999 SHRA SCT033 SCT050
                        15/12 Q1015 NOSIG=
201010271100 METAR LMML NIL=
201010271045 METAR LMML 271045Z 29009KT 260V320 9999 -SHRA BKN027 15/12
                        Q1015 NOSIG=
201010271039 SPECI LMML 271039Z 29009KT 9999 SHRA BKN033TCU 15/12 Q1015
                        NOSIG=
201010271030 METAR LMML NIL=
201010271015 METAR LMML 271015Z 32003KT 7000 BKN040TCU SCT250 17/12 Q1015
                        NOSIG=
201010271000 METAR LMML NIL=
201010270945 METAR LMML 270945Z 33009KT 310V030 9999 BKN036 SCT250 18/12
                        Q1015 TEMPO 8000 SHRA SCT030TCU=
201010270930 METAR LMML NIL=
201010270915 METAR LMML 270915Z 28007KT 9999 SCT035 18/10 Q1015 TEMPO
                        8000 SHRA SCT030TCU=
201010270900 METAR LMML NIL=
201010270845 METAR LMML 270845Z 31007KT 9999 SCT038 17/11 Q1015 NOSIG=
201010270830 METAR LMML NIL=
201010270815 METAR LMML 270815Z 28005KT 240V320 9999 SCT040 18/11 Q1015
                        NOSIG=
201010270800 METAR LMML NIL=
201010270745 METAR LMML 270745Z 29007KT 9999 SCT040 17/11 Q1015 NOSIG=
201010270730 METAR LMML NIL=
201010270715 METAR LMML 270715Z 29007KT 260V320 9999 SCT040 15/10 Q1014
                        NOSIG=
201010270700 METAR LMML NIL=
201010270645 METAR LMML 270645Z VRB02KT 9999 FEW025CB BKN050TCU 15/10
                        Q1014 NOSIG=
201010270630 METAR LMML NIL=
201010270615 METAR LMML 270615Z 22009KT 180V250 2000 +SHRA FEW025CB BKN040TCU
                        15/11 Q1014 NOSIG=
201010270602 SPECI LMML 270602Z 24005KT 210V290 6000 TS FEW025CB SCT039
                        15/11 Q1014 BECMG 9999=
201010270600 METAR LMML NIL=
201010270545 METAR LMML 270545Z 28006KT 240V310 9999 TS FEW025CB SCT039
                        15/10 Q1014 TEMPO 7000=
201010270535 SPECI LMML 270535Z 29005KT 260V320 9999 TS FEW020CB SCT029TCU
                        15/10 Q1014 TEMPO 7000 SHRA BKN020TCU=
201010270530 METAR LMML NIL=
201010270515 METAR LMML 270515Z 28005KT 9999 SCT039TCU 15/10 Q1014 TEMPO
                        7000 SHRA BKN020TCU=
201010270500 METAR LMML NIL=
201010270445 METAR LMML 270445Z 29007KT 9999 SCT037 15/11 Q1014 TEMPO
                        7000 SHRA BKN020TCU=
201010270430 METAR LMML NIL=
201010270415 METAR LMML 270415Z 27005KT 240V300 9999 SCT037 15/11 Q1014
                        TEMPO 7000 SHRA BKN020TCU RMK LIGHTNING
                        TO NE=
201010270400 METAR LMML NIL=
201010270345 METAR LMML 270345Z 28006KT 9999 SCT035 15/10 Q1014 TEMPO
                        7000 SHRA BKN020TCU=
201010270330 METAR LMML NIL=
201010270315 METAR LMML 270315Z 28007KT 9999 SCT035 15/11 Q1014 TEMPO
                        7000 SHRA BKN020TCU=
201010270300 METAR LMML NIL=
201010270245 METAR LMML 270245Z 28007KT 250V320 9999 FEW035 15/11 Q1014
                        TEMPO 7000 SHRA BKN020TCU=
201010270230 METAR LMML NIL=
201010270215 METAR LMML 270215Z 29008KT 260V320 9999 SCT039 SCT070 15/11
                        Q1014 TEMPO 7000 SHRA BKN020TCU=
201010270200 METAR LMML NIL=
201010270145 METAR LMML 270145Z 28004KT 9999 -SHRA SCT039 SCT070 BKN110
                        14/12 Q1014 TEMPO 7000 SHRA BKN020TCU=
201010270130 METAR LMML NIL=
201010270115 METAR LMML 270115Z 28009KT 250V320 9999 -SHRA SCT037 SCT050
                        16/11 Q1015 TEMPO 7000 SHRA BKN020TCU=
201010270100 METAR LMML NIL=
201010270045 METAR LMML 270045Z 29009KT 260V320 9999 SCT035 16/11 Q1015
                        TEMPO 7000 SHRA BKN020TCU=
201010270030 METAR LMML NIL=
201010270015 METAR LMML 270015Z 27004KT 240V310 9999 BKN039 15/11 Q1015
                        TEMPO 7000 SHRA BKN020TCU=
201010270000 METAR LMML NIL=
201010262345 METAR LMML 262345Z 29009KT 250V320 9999 BKN040 16/11 Q1015
                        TEMPO 7000 SHRA BKN020TCU=
201010262330 METAR LMML NIL=
201010262315 METAR LMML 262315Z 26003KT 9999 SCT040 15/10 Q1015 TEMPO
                        7000 SHRA BKN020TCU=
201010262245 METAR LMML 262245Z 26004KT 230V290 9999 FEW040 15/10 Q1015
                        NOSIG=
201010262230 METAR LMML NIL=
201010262215 METAR LMML 262215Z 26004KT 230V290 9999 FEW040 15/09 Q1015
                        NOSIG=
201010262200 METAR LMML NIL=
201010262145 METAR LMML 262145Z 26004KT 230V290 9999 FEW040 15/09 Q1015
                        NOSIG=
201010262130 METAR LMML NIL=
201010262115 METAR LMML 262115Z 26006KT 9999 FEW040 15/09 Q1015 NOSIG=
201010262100 METAR LMML NIL=
201010262045 METAR LMML 262045Z 28005KT 9999 FEW040 15/10 Q1015 NOSIG=
201010262030 METAR LMML NIL=
201010262015 METAR LMML 262015Z 28006KT 240V310 9999 FEW028 15/10 Q1015
                        NOSIG=
201010262000 METAR LMML NIL=
201010261945 METAR LMML 261945Z 27006KT 240V300 9999 FEW028 16/11 Q1015
                        NOSIG=
201010261930 METAR LMML NIL=
201010261915 METAR LMML 261915Z 28007KT 9999 FEW028 16/11 Q1015 NOSIG=
201010261900 METAR LMML NIL=
201010261845 METAR LMML 261845Z 29008KT 9999 FEW028 16/12 Q1015 NOSIG=
201010261830 METAR LMML NIL=
201010261815 METAR LMML 261815Z 27004KT 9999 FEW027 16/13 Q1015 NOSIG=
201010261800 METAR LMML NIL=
201010261745 METAR LMML 261745Z 28004KT 9999 FEW033 16/13 Q1015 NOSIG=
201010261730 METAR LMML NIL=
201010261715 METAR LMML 261715Z 29006KT 9999 FEW020 17/13 Q1015 NOSIG=
201010261700 METAR LMML NIL=
201010261645 METAR LMML 261645Z 29007KT 9999 SCT020 17/13 Q1014 NOSIG=
201010261630 METAR LMML NIL=
201010261615 METAR LMML 261615Z 29007KT 260V320 9999 SCT020 17/13 Q1014
                        NOSIG=
201010261545 METAR LMML 261545Z 30008KT 260V320 9999 BKN020 18/14 Q1014
                        NOSIG=
201010261530 METAR LMML NIL=
201010261515 METAR LMML 261515Z 30009KT 270V330 9999 BKN020 18/14 Q1014
                        NOSIG=
201010261500 METAR LMML NIL=
201010261445 METAR LMML 261445Z 30009KT 260V320 9999 BKN020 18/15 Q1013
                        NOSIG=
201010261430 METAR LMML NIL=
201010261415 METAR LMML 261415Z 30008KT 9999 SCT018 19/15 Q1013 NOSIG=
201010261400 METAR LMML NIL=
201010261345 METAR LMML 261345Z 30009KT 9999 SCT022 19/15 Q1013 NOSIG=
201010261330 METAR LMML NIL=
201010261315 METAR LMML 261315Z 30008KT 260V330 9999 SCT021 20/15 Q1013
                        NOSIG=
201010261300 METAR LMML NIL=
201010261245 METAR LMML 261245Z 31009KT 9999 BKN019 20/15 Q1013 NOSIG=
201010261230 METAR LMML NIL=
201010261215 METAR LMML 261215Z 30009KT 9999 BKN019 19/15 Q1013 NOSIG=
201010261200 METAR LMML NIL=
201010261145 METAR LMML 261145Z 30010KT 270V340 9999 SCT020 20/15 Q1013
                        NOSIG=
201010261130 METAR LMML NIL=
201010261115 METAR LMML 261115Z 30011KT 270V340 9999 SCT017 20/16 Q1013
                        NOSIG=
201010261100 METAR LMML NIL=
201010261045 METAR LMML 261045Z 31012KT 9999 SCT018 SCT120 20/16 Q1013
                        NOSIG=
201010261030 METAR LMML NIL=
201010261015 METAR LMML 261015Z 31011KT 9999 FEW017 SCT100 20/17 Q1013
                        NOSIG=
201010261000 METAR LMML NIL=
201010260945 METAR LMML 260945Z 30012KT 9999 FEW016 SCT090 20/17 Q1013
                        NOSIG=
201010260930 METAR LMML NIL=
201010260915 METAR LMML 260915Z 29012KT 260V320 9999 FEW017 SCT100 21/17
                        Q1013 NOSIG=
201010260845 METAR LMML 260845Z 26011KT 220V310 9999 FEW030 SCT100 21/16
                        Q1012 NOSIG=
201010260830 METAR LMML NIL=
201010260815 METAR LMML 260815Z 25009KT 210V290 9999 FEW030 SCT100 21/15
                        Q1012 NOSIG=
201010260800 METAR LMML NIL=
201010260745 METAR LMML 260745Z 25006KT 200V290 9999 FEW030 BKN100 20/16
                        Q1012 NOSIG=
201010260730 METAR LMML NIL=
201010260715 METAR LMML 260715Z 24008KT 210V300 9999 FEW030 BKN110 19/17
                        Q1012 NOSIG=
201010260700 METAR LMML NIL=
201010260645 METAR LMML 260645Z 23008KT 190V280 9999 FEW030 BKN120 19/17
                        Q1011 NOSIG=
201010260630 METAR LMML NIL=
201010260615 METAR LMML 260615Z 22006KT 190V270 9999 FEW030 BKN080 17/16
                        Q1011 RETS TEMPO 8000 SHRA=
201010260600 METAR LMML NIL=
201010260545 METAR LMML 260545Z 21006KT 180V260 9999 FEW030 BKN080 16/15
                        Q1011 RETS TEMPO 8000 SHRA BKN015TCU=
201010260530 METAR LMML NIL=
201010260515 METAR LMML 260515Z VRB01KT 9999 -TSRA FEW016CB BKN080 16/15
                        Q1011 TEMPO 3000 TSRA BKN015CB=
201010260500 METAR LMML NIL=
201010260445 METAR LMML 260445Z 32010G20KT 260V350 4000 TSRA BKN014CB
                        18/16 Q1012 NOSIG=
201010260430 METAR LMML NIL=
201010260415 METAR LMML 260415Z 26006KT 230V300 9999 FEW019 SCT043 BKN080
                        19/17 Q1011 TEMPO 5000 TSRA BKN015CB=
201010260400 METAR LMML NIL=
201010260345 METAR LMML 260345Z 23006KT 200V270 9999 FEW019 SCT050 BKN080
                        19/16 Q1011 TEMPO 5000 TSRA BKN015CB
                        RMK DISTANT LIGHTNING TO NNE=
201010260330 METAR LMML NIL=
201010260315 METAR LMML 260315Z 21008KT 180V270 9999 FEW019 BKN080 20/17
                        Q1010 TEMPO 8000=
201010260300 METAR LMML NIL=
201010260245 METAR LMML 260245Z 19008KT 9999 SCT023 SCT048 BKN090 20/17
                        Q1010 TEMPO 8000=
201010260230 METAR LMML NIL=
201010260215 METAR LMML 260215Z 20006KT 150V240 9999 -RA SCT025 SCT041
                        BKN090 20/16 Q1011 TEMPO 8000=
201010260200 METAR LMML NIL=
201010260145 METAR LMML 260145Z 19007KT 160V240 9999 -RA FEW029 SCT041
                        BKN250 20/15 Q1010 TEMPO 8000 SHRA=
201010260130 METAR LMML NIL=
201010260115 METAR LMML 260115Z 21006KT 170V260 9999 FEW024 BKN250 19/15
                        Q1011 TEMPO 8000 SHRA RMK LIGHTNING
                        TO NW=
201010260100 METAR LMML NIL=
201010260045 METAR LMML 260045Z 19003KT 9999 FEW024 BKN250 18/15 Q1011
                        NOSIG RMK LIGHTNING TO N=
201010260030 METAR LMML NIL=
201010260015 METAR LMML 260015Z VRB02KT 9999 FEW024 BKN250 17/14 Q1011
                        NOSIG=
201010260000 METAR LMML NIL=
201010252345 METAR LMML 252345Z 22003KT 9999 FEW024 SCT250 17/14 Q1012
                        NOSIG=
201010252330 METAR LMML NIL=
201010252315 METAR LMML 252315Z 24004KT 9999 FEW024 17/14 Q1012 NOSIG=
201010252300 METAR LMML NIL=
201010252245 METAR LMML 252245Z 25004KT 9999 FEW024 18/14 Q1012 NOSIG=
201010252215 METAR LMML 252215Z 24006KT CAVOK 18/14 Q1012 NOSIG=
201010252200 METAR LMML NIL=
201010252145 METAR LMML 252145Z 24005KT 210V270 CAVOK 18/14 Q1012 NOSIG=
201010252130 METAR LMML NIL=
201010252115 METAR LMML 252115Z 24006KT 9999 FEW024 18/14 Q1012 NOSIG=
201010252100 METAR LMML NIL=
201010252045 METAR LMML 252045Z 25006KT 220V280 9999 FEW024 18/14 Q1012
                        NOSIG=
201010252030 METAR LMML NIL=
201010252015 METAR LMML 252015Z 25006KT 220V280 9999 FEW024 18/14 Q1011
                        NOSIG=
201010252000 METAR LMML NIL=
201010251945 METAR LMML 251945Z 26007KT 230V290 9999 FEW024 18/14 Q1011
                        NOSIG=
201010251930 METAR LMML NIL=
201010251915 METAR LMML 251915Z 25005KT 220V280 9999 FEW024 18/15 Q1011
                        NOSIG=
201010251900 METAR LMML NIL=
201010251845 METAR LMML 251845Z 26005KT 230V290 9999 FEW024 18/15 Q1011
                        NOSIG=
201010251830 METAR LMML NIL=
201010251815 METAR LMML 251815Z 26006KT 230V290 9999 FEW024 18/15 Q1011
                        NOSIG=
201010251800 METAR LMML NIL=
201010251745 METAR LMML 251745Z 27005KT 240V300 9999 FEW024 18/15 Q1010
                        NOSIG=
201010251730 METAR LMML NIL=
201010251715 METAR LMML 251715Z 27005KT 240V300 9999 FEW024 18/15 Q1010
                        NOSIG=
201010251700 METAR LMML NIL=
201010251645 METAR LMML 251645Z 29007KT 260V320 9999 FEW024 19/15 Q1010
                        NOSIG=
201010251630 METAR LMML NIL=
201010251615 METAR LMML 251615Z 30007KT 9999 FEW024 19/16 Q1009 NOSIG=
201010251600 METAR LMML NIL=
201010251545 METAR LMML 251545Z 30009KT 9999 FEW024 19/16 Q1009 NOSIG=
201010251530 METAR LMML NIL=
201010251515 METAR LMML 251515Z 30009KT 9999 FEW020 20/16 Q1009 NOSIG=
201010251500 METAR LMML NIL=
201010251445 METAR LMML 251445Z 29012KT 9999 FEW021 20/15 Q1009 NOSIG=
201010251430 METAR LMML NIL=
201010251415 METAR LMML 251415Z 28012KT 9999 SCT021 21/16 Q1009 NOSIG=
201010251400 METAR LMML NIL=
201010251345 METAR LMML 251345Z 30012KT 9999 SCT024 21/16 Q1008 NOSIG=
201010251330 METAR LMML NIL=
201010251315 METAR LMML 251315Z 29013KT 260V320 9999 SCT024 21/16 Q1008
                        NOSIG=
201010251300 METAR LMML NIL=
201010251245 METAR LMML 251245Z 30013KT 270V330 9999 FEW022 21/16 Q1008
                        NOSIG=
201010251230 METAR LMML NIL=
201010251215 METAR LMML 251215Z 30015KT 260V330 9999 SCT022 21/16 Q1008
                        NOSIG=
201010251145 METAR LMML 251145Z 31014KT 280V340 9999 SCT022 21/16 Q1008
                        NOSIG=
201010251130 METAR LMML NIL=
201010251115 METAR LMML 251115Z 32014KT 280V340 9999 BKN019 21/17 Q1008
                        NOSIG=
201010251100 METAR LMML NIL=
201010251045 METAR LMML 251045Z 31015KT 9999 BKN017 20/17 Q1008 NOSIG=
201010251030 METAR LMML NIL=
201010251015 METAR LMML 251015Z 31011KT 280V340 9999 SCT014 SCT080 21/18
                        Q1008 NOSIG=
201010250945 METAR LMML 250945Z 30009KT 9999 SCT017 BKN070 20/17 Q1008
                        NOSIG=
201010250930 METAR LMML NIL=
201010250915 METAR LMML 250915Z 31010KT 9999 FEW016 SCT070 21/18 Q1008
                        NOSIG=
201010250900 METAR LMML NIL=
201010250845 METAR LMML 250845Z 31010KT 9999 SCT015 20/17 Q1008 NOSIG=
201010250830 METAR LMML NIL=
201010250815 METAR LMML 250815Z 32005KT 290V350 9999 FEW016 19/18 Q1007
                        NOSIG=
201010250800 METAR LMML NIL=
201010250745 METAR LMML 250745Z 36003KT 9999 FEW020 19/18 Q1007 NOSIG=
201010250730 METAR LMML NIL=
201010250715 METAR LMML 250715Z 31004KT 9999 FEW020 18/17 Q1007 NOSIG=
201010250700 METAR LMML NIL=
201010250645 METAR LMML 250645Z VRB02KT 9999 FEW006 17/17 Q1007 RETS NOSIG=
201010250630 METAR LMML NIL=
201010250615 METAR LMML 250615Z VRB02KT 9999 FEW006 FEW020CB 16/16 Q1006
                        RETS NOSIG=
201010250600 METAR LMML NIL=
201010250545 METAR LMML 250545Z 30005KT 250V340 9000 FEW005 SCT020CB 16/16
                        Q1006 RETS NOSIG RMK LIGHTNING TO
                        EAST=
201010250530 METAR LMML NIL=
201010250515 METAR COR LMML 250515Z 05004KT 350V100 9000 TS SCT007 BKN020CB
                        16/16 Q1005 BECMG 9999 SCT025=
201010250500 METAR LMML NIL=
201010250445 METAR COR LMML 250445Z 17006KT 120V220 9000 TSRA BKN004 BKN012CB
                        16/16 Q1007 NOSIG=
201010250430 METAR LMML NIL=
201010250415 METAR LMML 250415Z 32013KT 1500 TSRA BKN005 BKN012 18/18
                        Q1008 BECMG 30018KT=
201010250402 SPECI LMML 250402Z 06006KT 360V120 3000 TSRA BKN005 BKN015CB
                        18/18 Q1007 TEMPO 3000 TSRA BKN008
                        BKN015CB=
201010250400 METAR LMML NIL=
201010250345 METAR LMML 250345Z 04010KT 010V080 5000 TSRA BKN005 BKN015CB
                        18/18 Q1006 TEMPO 3000 TSRA BKN008
                        BKN015CB=
201010250339 SPECI LMML 250339Z 04010KT 010V080 5000 TSRA BKN005 BKN015CB
                        18/18 Q1006 TEMPO 3000 TSRA BKN008
                        BKN015CB=
201010250330 METAR LMML NIL=
201010250315 METAR LMML 250315Z 05009KT 020V080 9999 TSRA BKN006 SCT015CB
                        18/18 Q1007 TEMPO 3000 TSRA BKN008
                        BKN015CB=
201010250300 METAR LMML NIL=
201010250245 METAR LMML 250245Z 04010KT 010V070 9999 BKN005 SCT012 BKN050
                        18/18 Q1008 TEMPO 3000 TSRA BKN008
                        BKN015CB=
201010250230 METAR LMML NIL=
201010250215 METAR LMML 250215Z 03007KT 340V060 9000 RA SCT005 BKN013
                        BKN050 18/17 Q1009 TEMPO 3000 TSRA
                        FEW008 BKN015CB=
201010250145 METAR LMML 250145Z 04007KT 020V080 5000 RA SCT009 SCT016
                        BKN050 17/17 Q1009 TEMPO 3000 TSRA
                        FEW008 BKN015CB RMK DISTANT LIGHTNING
                        TO SOUTH=
201010250130 METAR LMML NIL=
201010250115 METAR LMML 250115Z 04007KT 010V070 9999 RA FEW015CB BKN020
                        BKN050 17/17 Q1009 TEMPO 5000 TSRA
                        FEW008 BKN015CB RMK LIGHTING TO SOUTH=
201010250100 METAR LMML NIL=
201010250045 METAR LMML 250045Z 36006KT 320V050 9999 TSRA SCT015CB OVC050
                        17/17 Q1010 TEMPO 5000 TSRA FEW008
                        BKN015CB=
201010250030 METAR LMML NIL=
201010250015 METAR LMML 250015Z 06003KT 9999 TSRA SCT015CB OVC050 17/17
                        Q1011 NOSIG=
201010250000 METAR LMML NIL=
201010242345 METAR LMML 242345Z 35005KT 310V080 9999 TSRA FEW007 SCT015CB
                        OVC050 17/17 Q1011 BECMG SCT020=
201010242330 METAR LMML NIL=
201010242315 METAR LMML 242315Z 06005KT 020V100 9999 TSRA FEW006 SCT015CB
                        OVC050 17/17 Q1011 BECMG SCT020=
201010242300 METAR LMML NIL=
201010242245 METAR LMML 242245Z 03005KT 360V080 2000 TSRA FEW002 SCT015CB
                        OVC050 17/16 Q1012 BECMG 8000 SHRA
                        SCT020=
201010242230 METAR LMML NIL=
201010242215 METAR LMML 242215Z 32012KT 230V360 2000 TSRA SCT015CB OVC050
                        17/16 Q1012 BECMG 8000 SHRA SCT020=
201010242145 METAR LMML 242145Z 34011KT 6000 TSRA SCT015CB OVC050 18/17
                        Q1011 NOSIG=
201010242130 METAR LMML NIL=
201010242115 METAR LMML 242115Z 20003KT 9999 RA SCT019 BKN050 19/17 Q1012
                        TEMPO 6000 SHRA=
201010242100 METAR LMML NIL=
201010242045 METAR LMML 242045Z 16013KT 120V210 9999 RA SCT017 BKN090
                        19/17 Q1012 TEMPO 6000 SHRA=
201010242030 METAR LMML NIL=
201010242015 METAR LMML 242015Z 16009KT 130V190 9999 -RA SCT023 BKN090
                        21/18 Q1012 TEMPO 6000 SHRA=
201010242000 METAR LMML NIL=
201010241945 METAR LMML 241945Z 15009KT 120V190 9999 -RA SCT016 BKN090
                        21/18 Q1012 TEMPO 6000 SHRA=
201010241930 METAR LMML NIL=
201010241915 METAR LMML 241915Z 13009KT 9999 SCT017 BKN100 21/18 Q1011
                        TEMPO 6000 SHRA=
201010241900 METAR LMML NIL=
201010241845 METAR LMML 241845Z 14010KT 9999 FEW027 BKN120 21/18 Q1012
                        NOSIG=
201010241830 METAR LMML NIL=
201010241815 METAR LMML 241815Z 14009KT 9999 -RA FEW027 OVC130 21/18 Q1012
                        NOSIG=
201010241800 METAR LMML NIL=
201010241745 METAR LMML 241745Z 14007KT 9999 FEW024 OVC130 21/18 Q1013
                        TEMPO 8000 RA=
201010241730 METAR LMML NIL=
201010241715 METAR LMML 241715Z 13006KT 9999 FEW024 OVC130 21/18 Q1013
                        TEMPO 8000 RA=
201010241700 METAR LMML NIL=
201010241645 METAR LMML 241645Z 14006KT 9999 SCT025 OVC130 21/18 Q1013
                        NOSIG=
201010241630 METAR LMML NIL=
201010241615 METAR LMML 241615Z 13004KT 9999 SCT023 OVC130 21/18 Q1013
                        NOSIG=
201010241600 METAR LMML NIL=
201010241545 METAR LMML 241545Z 14005KT 9999 SCT023 OVC130 21/18 Q1013
                        NOSIG=
201010241530 METAR LMML NIL=
201010241515 METAR LMML 241515Z 14007KT 8000 SCT024 OVC150 21/18 Q1013
                        TEMPO SHRA=
201010241500 METAR LMML NIL=
201010241445 METAR LMML 241445Z 14006KT 8000 -SHRA SCT023 SCT090 BKN150
                        21/18 Q1014 NOSIG=
201010241430 METAR LMML NIL=
201010241415 METAR LMML 241415Z 13007KT 9999 SCT023 SCT090 BKN250 22/17
                        Q1014 TEMPO 8000 RA=
201010241400 METAR LMML NIL=
201010241345 METAR LMML 241345Z 15005KT 110V180 9999 SCT024 SCT090 22/17
                        Q1014 TEMPO 8000 RA=
201010241330 METAR LMML NIL=
201010241315 METAR LMML 241315Z 17007KT 9999 SCT025 BKN090 22/17 Q1014
                        TEMPO 8000 RA=
201010241300 METAR LMML NIL=
201010241245 METAR LMML 241245Z 16007KT 130V190 9999 SCT024 BKN059 22/17
                        Q1015 TEMPO 8000 RA=
201010241230 METAR LMML NIL=
201010241215 METAR LMML 241215Z 16007KT 120V220 9999 BKN023 BKN090 22/17
                        Q1015 TEMPO 8000 RA=
201010241200 METAR LMML NIL=
201010241145 METAR LMML 241145Z 14009KT 110V190 9999 SCT024 BKN080 23/18
                        Q1015 NOSIG=
201010241130 METAR LMML NIL=
201010241115 METAR LMML 241115Z 15010KT 120V180 9999 FEW024 BKN100 BKN250
                        23/17 Q1015 NOSIG=
201010241045 METAR LMML 241045Z 15010KT 120V190 9999 FEW024 SCT100 BKN250
                        23/18 Q1016 NOSIG=
201010241030 METAR LMML NIL=
201010241015 METAR LMML 241015Z 15011KT 9999 FEW024 SCT120 BKN250 23/17
                        Q1016 NOSIG=
201010241000 METAR LMML NIL=
201010240945 METAR LMML 240945Z 16009KT 110V190 9999 FEW024 SCT060 BKN250
                        22/17 Q1016 NOSIG=
201010240930 METAR LMML NIL=
201010240915 METAR LMML 240915Z 14010KT 120V190 9999 FEW024 SCT120 22/17
                        Q1016 NOSIG=
201010240845 METAR LMML 240845Z 15010KT 120V180 9999 FEW024 BKN250 22/17
                        Q1016 NOSIG=
201010240830 METAR LMML NIL=
201010240815 METAR LMML 240815Z 15009KT 130V190 9999 FEW024 BKN250 22/17
                        Q1016 NOSIG=
201010240800 METAR LMML NIL=
201010240745 METAR LMML 240745Z 15009KT 120V180 9999 FEW024 SCT120 BKN250
                        22/17 Q1016 NOSIG=
201010240730 METAR LMML NIL=
201010240715 METAR LMML 240715Z 15008KT 120V180 9999 FEW024 SCT120 BKN250
                        21/17 Q1016 NOSIG=
201010240700 METAR LMML NIL=
201010240645 METAR LMML 240645Z 14008KT 9999 FEW024 SCT120 21/17 Q1016
                        NOSIG=
201010240615 METAR LMML 240615Z 14008KT 9999 FEW023 SCT120 20/17 Q1016
                        NOSIG=
201010240545 METAR LMML 240545Z 14008KT 120V180 9999 FEW022 SCT250 20/16
                        Q1016 NOSIG=
201010240530 METAR LMML NIL=
201010240515 METAR LMML 240515Z 15006KT 9999 FEW022 BKN250 20/16 Q1016
                        NOSIG=
201010240500 METAR LMML NIL=
201010240445 METAR LMML 240445Z 15008KT 9999 FEW024 BKN250 20/16 Q1016
                        NOSIG=
201010240430 METAR LMML NIL=
201010240415 METAR LMML 240415Z 15007KT 9999 FEW025 SCT080 BKN250 20/16
                        Q1016 NOSIG=
201010240400 METAR LMML NIL=
201010240345 METAR LMML 240345Z 16006KT 9999 FEW026 SCT080 BKN250 20/16
                        Q1016 NOSIG=
201010240330 METAR LMML NIL=
201010240315 METAR LMML 240315Z 15007KT 9999 FEW024 SCT080 BKN250 20/16
                        Q1016 NOSIG=
201010240300 METAR LMML NIL=
201010240245 METAR LMML 240245Z 16006KT 9999 FEW024 BKN250 20/16 Q1016
                        NOSIG=
201010240230 METAR LMML NIL=
201010240215 METAR LMML 240215Z 16007KT 9999 FEW023 20/16 Q1016 NOSIG=
201010240200 METAR LMML NIL=
201010240145 METAR LMML 240145Z 16007KT 9999 FEW024 SCT120 20/16 Q1017
                        NOSIG=
201010240130 METAR LMML NIL=
201010240115 METAR LMML 240115Z 14008KT 9999 FEW030 SCT120 20/16 Q1017
                        NOSIG=
201010240100 METAR LMML NIL=
201010240045 METAR LMML 240045Z 15007KT 9999 FEW030 SCT120 20/16 Q1017
                        NOSIG=
201010240030 METAR LMML NIL=
201010240015 METAR LMML 240015Z 16007KT 120V180 9999 SCT028 BKN090 19/17
                        Q1017 NOSIG=
201010240000 METAR LMML NIL=
201010232345 METAR LMML 232345Z VRB02KT 9999 SCT026 BKN120 19/17 Q1018
                        NOSIG=
201010232330 METAR LMML NIL=
201010232315 METAR LMML 232315Z 12003KT 9999 SCT033 BKN120 18/17 Q1018
                        NOSIG=
201010232300 METAR LMML NIL=
201010232245 METAR LMML 232245Z 10006KT 080V140 9999 SCT031 BKN120 18/16
                        Q1018 NOSIG=
201010232230 METAR LMML NIL=
201010232215 METAR LMML 232215Z 13005KT 9999 SCT029 BKN120 17/15 Q1018
                        RETS NOSIG RMK LIGHTNING TO ESE=
201010232200 METAR LMML NIL=
201010232145 METAR LMML 232145Z 12005KT 090V160 9999 SCT030 BKN120 17/15
                        Q1018 RETS TEMPO 5000 TSRA BKN015CB
                        RMK LIGHTNING TO ESE=
201010232130 METAR LMML NIL=
201010232115 METAR LMML 232115Z 10007KT 9999 TSRA FEW010 SCT020CB BKN120
                        18/17 Q1019 TEMPO 3000 TSRA BKN013CB=
201010232100 METAR LMML NIL=
201010232045 METAR LMML 232045Z 13008KT 5000 TSRA FEW005 BKN018CB 18/17
                        Q1019 TEMPO 3000 TSRA BKN013CB=
201010232030 METAR LMML NIL=
201010232015 METAR LMML 232015Z 08010KT 060V120 9999 TS FEW005 SCT014CB
                        BKN080 18/17 Q1019 TEMPO 3000 TSRA
                        BKN013CB=
201010232000 METAR LMML NIL=
201010231945 METAR LMML 231945Z 05003KT 9999 TS FEW005 SCT014CB BKN046
                        18/18 Q1019 TEMPO 3000 TSRA BKN013CB=
201010231930 METAR LMML NIL=
201010231915 METAR LMML 231915Z 04005KT 360V070 9999 FEW010 BKN014 BKN050
                        18/18 Q1019 RETSRA TEMPO 8000 RA=
201010231900 METAR LMML NIL=
201010231845 METAR LMML 231845Z 07005KT 040V130 9999 FEW010 SCT017CB BKN025
                        19/18 Q1019 RETSRA TEMPO 5000 TSRA
                        BKN015CB RMK LIGHTNING TO E=
201010231830 METAR LMML NIL=
201010231815 METAR LMML 231815Z 08003KT 9999 TSRA FEW010 BKN020CB 19/18
                        Q1019 TEMPO 5000 TSRA BKN015CB=
201010231800 METAR LMML NIL=
201010231745 METAR LMML 231745Z 18004KT 140V220 5000 TSRA FEW011 BKN017CB
                        19/18 Q1018 TEMPO 5000 TSRA BKN015CB=
201010231730 METAR LMML NIL=
201010231715 METAR LMML 231715Z 15007KT 090V270 9999 FEW010 BKN017 20/18
                        Q1018 TEMPO 8000 SHRA BKN015TCU=
201010231700 METAR LMML NIL=
201010231645 METAR LMML 231645Z 12007KT 9000 -SHRA FEW012 BKN025 20/18
                        Q1018 TEMPO SHRA FEW008 BKN015TCU=
201010231630 METAR LMML NIL=
201010231630 SPECI LMML 231630Z 11008KT 6000 -SHRA FEW011 BKN024 20/18
                        Q1018 TEMPO SHRA FEW008 BKN015TCU=
201010231615 METAR LMML 231615Z 12008KT 6000 -SHRA FEW010 BKN020 20/17
                        Q1018 TEMPO SHRA FEW008 BKN015TCU=
201010231600 METAR LMML NIL=
201010231545 METAR LMML 231545Z 14008KT 9999 SCT020 SCT050 BKN250 21/17
                        Q1018 TEMPO SHRA=
201010231530 METAR LMML NIL=
201010231515 METAR LMML 231515Z 13008KT 110V170 9999 SCT021 SCT044 BKN250
                        21/17 Q1018 NOSIG=
201010231500 METAR LMML NIL=
201010231445 METAR LMML 231445Z 13008KT 9999 SCT021 SCT050 BKN250 21/17
                        Q1018 NOSIG=
201010231430 METAR LMML NIL=
201010231415 METAR LMML 231415Z 14008KT 9999 SCT021 SCT060 BKN250 21/17
                        Q1018 NOSIG=
201010231400 METAR LMML NIL=
201010231345 METAR LMML 231345Z 16006KT 120V210 9999 SCT022 SCT060 21/16
                        Q1019 NOSIG=
201010231330 METAR LMML NIL=
201010231315 METAR LMML 231315Z 14008KT 100V180 9999 SCT022 SCT060 22/17
                        Q1019 NOSIG=
201010231300 METAR LMML NIL=
201010231245 METAR LMML 231245Z 14007KT 100V180 9999 SCT023 SCT060 22/17
                        Q1019 NOSIG=
201010231230 METAR LMML NIL=
201010231215 METAR LMML 231215Z 14006KT 090V190 9999 FEW027 SCT060 21/16
                        Q1019 NOSIG=
201010231200 METAR LMML NIL=
201010231145 METAR LMML 231145Z 15006KT 120V200 9999 FEW030 SCT060 21/14
                        Q1020 NOSIG=
201010231130 METAR LMML NIL=
201010231115 METAR LMML 231115Z 14007KT 100V200 9999 FEW030 SCT250 22/14
                        Q1020 NOSIG=
201010231100 METAR LMML NIL=
201010231045 METAR LMML 231045Z 14006KT 100V200 9999 FEW030 22/14 Q1020
                        NOSIG=
201010231030 METAR LMML NIL=
201010231015 METAR LMML 231015Z 14007KT 110V170 9999 FEW031 22/14 Q1021
                        NOSIG=
201010231000 METAR LMML NIL=
201010230945 METAR LMML 230945Z 14005KT 090V210 9999 FEW031 22/14 Q1021
                        NOSIG=
201010230930 METAR LMML NIL=
201010230915 METAR LMML 230915Z 09005KT 050V130 9999 FEW027 21/15 Q1021
                        NOSIG=
201010230900 METAR LMML NIL=
201010230845 METAR LMML 230845Z 11005KT 050V170 9999 FEW027 21/16 Q1021
                        NOSIG=
201010230830 METAR LMML NIL=
201010230815 METAR LMML 230815Z 11006KT 070V140 9999 FEW024 SCT040 21/16
                        Q1021 NOSIG=
201010230800 METAR LMML NIL=
201010230745 METAR LMML 230745Z 07003KT 9999 FEW025 SCT040 20/15 Q1021
                        NOSIG=
201010230730 METAR LMML NIL=
201010230715 METAR LMML 230715Z VRB01KT 9999 FEW025 SCT040 19/15 Q1021
                        NOSIG=
201010230645 METAR LMML 230645Z VRB01KT 9999 FEW030 18/15 Q1021 NOSIG=
201010230615 METAR LMML 230615Z VRB01KT 9999 FEW030 16/14 Q1021 NOSIG=
201010230600 METAR LMML NIL=
201010230545 METAR LMML 230545Z VRB02KT 9999 SCT036 15/13 Q1021 NOSIG=
201010230530 METAR LMML NIL=
201010230515 METAR LMML 230515Z VRB01KT 9999 SCT036 15/12 Q1021 NOSIG=
201010230500 METAR LMML NIL=
201010230445 METAR LMML 230445Z VRB02KT 9999 BKN032 14/12 Q1021 NOSIG=
201010230430 METAR LMML NIL=
201010230415 METAR LMML 230415Z 30003KT 9999 SCT031 14/12 Q1021 NOSIG=
201010230400 METAR LMML NIL=
201010230345 METAR LMML 230345Z VRB02KT 9999 FEW034 SCT080 14/12 Q1021
                        NOSIG=
201010230330 METAR LMML NIL=
201010230315 METAR LMML 230315Z VRB02KT 9999 FEW034 14/12 Q1020 NOSIG=
201010230300 METAR LMML NIL=
201010230245 METAR LMML 230245Z VRB02KT 9999 FEW030 14/12 Q1020 NOSIG=
201010230230 METAR LMML NIL=
201010230215 METAR LMML 230215Z 32003KT 9999 FEW028 14/12 Q1021 NOSIG=
201010230200 METAR LMML NIL=
201010230145 METAR LMML 230145Z VRB02KT 9999 FEW028 14/12 Q1021 NOSIG=
201010230130 METAR LMML NIL=
201010230115 METAR LMML 230115Z 31003KT 9999 FEW028 14/12 Q1021 NOSIG=
201010230100 METAR LMML NIL=
201010230045 METAR LMML 230045Z VRB02KT 9999 FEW020 14/12 Q1021 NOSIG=
201010230030 METAR LMML NIL=
201010230015 METAR LMML 230015Z VRB01KT CAVOK 14/13 Q1022 NOSIG=
201010230000 METAR LMML NIL=
201010222345 METAR LMML 222345Z VRB01KT CAVOK 14/13 Q1022 NOSIG=
201010222330 METAR LMML NIL=
201010222315 METAR LMML 222315Z VRB01KT 9999 FEW020 14/13 Q1022 NOSIG=
201010222300 METAR LMML NIL=
201010222245 METAR LMML 222245Z VRB01KT 9999 FEW020 15/13 Q1022 NOSIG=
201010222230 METAR LMML NIL=
201010222215 METAR LMML 222215Z VRB01KT 9999 FEW020 15/13 Q1022 NOSIG=
201010222200 METAR LMML NIL=
201010222145 METAR LMML 222145Z VRB01KT CAVOK 15/13 Q1022 NOSIG=
201010222130 METAR LMML NIL=
201010222115 METAR LMML 222115Z 00000KT 9999 FEW025 15/14 Q1023 NOSIG=
201010222100 METAR LMML NIL=
201010222045 METAR LMML 222045Z VRB01KT 9999 FEW025 16/14 Q1023 NOSIG=
201010222030 METAR LMML NIL=
201010222015 METAR LMML 222015Z VRB01KT 9999 FEW025 16/14 Q1023 NOSIG=
201010222000 METAR LMML NIL=
201010221945 METAR LMML 221945Z VRB01KT 9999 FEW027 16/14 Q1022 NOSIG=
201010221930 METAR LMML NIL=
201010221915 METAR LMML 221915Z VRB02KT 9999 FEW025 17/14 Q1022 NOSIG=
201010221900 METAR LMML NIL=
201010221845 METAR LMML 221845Z 30003KT 9999 FEW025 17/14 Q1022 NOSIG=
201010221830 METAR LMML NIL=
201010221815 METAR LMML 221815Z 29003KT 9999 FEW025 17/14 Q1022 NOSIG=
201010221800 METAR LMML NIL=
201010221745 METAR LMML 221745Z 34003KT 9999 FEW025 18/14 Q1022 NOSIG=
201010221730 METAR LMML NIL=
201010221715 METAR LMML 221715Z 35004KT 9999 FEW025 18/14 Q1022 NOSIG=
201010221700 METAR LMML NIL=
201010221645 METAR LMML 221645Z 34005KT 9999 FEW026 18/14 Q1022 NOSIG=
201010221630 METAR LMML NIL=
201010221615 METAR LMML 221615Z 35006KT 9999 FEW024 19/14 Q1022 NOSIG=
201010221600 METAR LMML NIL=
201010221545 METAR LMML 221545Z 34007KT 9999 FEW026 19/14 Q1022 NOSIG=
201010221530 METAR LMML NIL=
201010221515 METAR LMML 221515Z 34007KT 9999 FEW026 19/14 Q1022 NOSIG=
201010221500 METAR LMML NIL=
201010221445 METAR LMML 221445Z 35007KT 9999 SCT027 20/14 Q1022 NOSIG=
201010221415 METAR LMML 221415Z 35007KT 9999 SCT028 20/15 Q1022 NOSIG=
201010221400 METAR LMML NIL=
201010221345 METAR LMML 221345Z 34006KT 320V020 9999 SCT028 20/15 Q1022
                        NOSIG=
201010221330 METAR LMML NIL=
201010221315 METAR LMML 221315Z 35005KT 9999 SCT028 20/15 Q1022 NOSIG=
201010221300 METAR LMML NIL=
201010221245 METAR LMML 221245Z 36004KT 280V030 9999 SCT029 20/14 Q1022
                        NOSIG=
201010221230 METAR LMML NIL=
201010221215 METAR LMML 221215Z 36005KT 310V040 9999 SCT030 22/16 Q1022
                        NOSIG=
201010221200 METAR LMML NIL=
201010221145 METAR LMML 221145Z 31005KT 270V020 9999 SCT032 21/14 Q1023
                        NOSIG=
201010221130 METAR LMML NIL=
201010221115 METAR LMML 221115Z 33004KT 300V020 9999 SCT032 20/13 Q1023
                        NOSIG=
201010221045 METAR LMML 221045Z 36004KT 320V050 9999 SCT032 21/14 Q1023
                        NOSIG=
201010221030 METAR LMML NIL=
201010221015 METAR LMML 221015Z VRB02KT 9999 SCT033 21/13 Q1024 NOSIG=
201010221000 METAR LMML NIL=
201010220945 METAR LMML 220945Z VRB02KT 9999 SCT031 22/14 Q1024 NOSIG=
201010220930 METAR LMML NIL=
201010220915 METAR LMML 220915Z 33003KT 9999 FEW030 21/15 Q1024 NOSIG=
201010220900 METAR LMML NIL=
201010220845 METAR LMML 220845Z 31003KT 9999 FEW025 20/14 Q1023 NOSIG=
201010220830 METAR LMML NIL=
201010220815 METAR LMML 220815Z 31003KT 9999 FEW025 20/14 Q1023 NOSIG=
201010220800 METAR LMML NIL=
201010220745 METAR LMML 220745Z 30003KT 9999 FEW025 20/14 Q1023 NOSIG=
201010220730 METAR LMML NIL=
201010220715 METAR LMML 220715Z 27003KT 9999 FEW025 19/14 Q1023 NOSIG=
201010220700 METAR LMML NIL=
201010220645 METAR LMML 220645Z 27003KT 9999 FEW030 17/13 Q1023 NOSIG=
201010220630 METAR LMML NIL=
201010220615 METAR LMML 220615Z 28004KT 9999 FEW030 16/13 Q1022 NOSIG=
201010220600 METAR LMML NIL=
201010220545 METAR LMML 220545Z 27005KT 9999 FEW030 15/12 Q1022 NOSIG=
201010220530 METAR LMML NIL=
201010220515 METAR LMML 220515Z 28004KT 9999 FEW030 15/12 Q1022 NOSIG=
201010220500 METAR LMML NIL=
201010220445 METAR LMML 220445Z 27004KT 9999 FEW030 15/12 Q1022 NOSIG=
201010220430 METAR LMML NIL=
201010220415 METAR LMML 220415Z 27004KT 240V300 9999 FEW030 15/12 Q1022
                        NOSIG=
201010220400 METAR LMML NIL=
201010220345 METAR LMML 220345Z 27005KT 9999 FEW030 15/12 Q1022 NOSIG=
201010220330 METAR LMML NIL=
201010220315 METAR LMML 220315Z 27005KT 9999 FEW030 15/12 Q1022 NOSIG=
201010220300 METAR LMML NIL=
201010220245 METAR LMML 220245Z 27005KT 9999 FEW030 15/12 Q1022 NOSIG=
201010220230 METAR LMML NIL=
201010220215 METAR LMML 220215Z 27005KT 9999 FEW030 15/12 Q1022 NOSIG=
201010220200 METAR LMML NIL=
201010220145 METAR LMML 220145Z 28004KT 9999 FEW030 15/12 Q1022 NOSIG=
201010220130 METAR LMML NIL=
201010220115 METAR LMML 220115Z 28005KT 9999 FEW030 15/12 Q1022 NOSIG=
201010220100 METAR LMML NIL=
201010220045 METAR LMML 220045Z 29004KT 9999 FEW030 SCT250 16/12 Q1022
                        NOSIG=
201010220015 METAR LMML 220015Z 27005KT 240V300 9999 FEW030 SCT250 16/12
                        Q1022 NOSIG=
201010220000 METAR LMML NIL=
201010212345 METAR LMML 212345Z 28005KT 9999 FEW030 SCT250 16/12 Q1022
                        NOSIG=
201010212330 METAR LMML NIL=
201010212315 METAR LMML 212315Z 27004KT 230V310 CAVOK 15/12 Q1022 NOSIG=
201010212300 METAR LMML NIL=
201010212245 METAR LMML 212245Z 32004KT CAVOK 15/12 Q1022 NOSIG=
201010212215 METAR LMML 212215Z 29005KT CAVOK 16/12 Q1023 NOSIG=
201010212200 METAR LMML NIL=
201010212145 METAR LMML 212145Z 29005KT CAVOK 16/12 Q1023 NOSIG=
201010212130 METAR LMML NIL=
201010212115 METAR LMML 212115Z 28005KT CAVOK 16/12 Q1023 NOSIG=
201010212100 METAR LMML NIL=
201010212045 METAR LMML 212045Z 27003KT CAVOK 16/12 Q1023 NOSIG=
201010212030 METAR LMML NIL=
201010212015 METAR LMML 212015Z 28004KT 240V310 CAVOK 17/12 Q1023 NOSIG=
201010212000 METAR LMML NIL=
201010211945 METAR LMML 211945Z 28004KT 220V310 CAVOK 17/12 Q1022 NOSIG=
201010211930 METAR LMML NIL=
201010211915 METAR LMML 211915Z 30005KT 9999 FEW030 BKN250 17/12 Q1022
                        NOSIG=
201010211900 METAR LMML NIL=
201010211845 METAR LMML 211845Z 31006KT 9999 FEW030 SCT120 BKN250 17/12
                        Q1022 NOSIG=
201010211830 METAR LMML NIL=
201010211815 METAR LMML 211815Z 31007KT 9999 FEW030 SCT120 BKN250 17/12
                        Q1022 NOSIG=
201010211800 METAR LMML NIL=
201010211745 METAR LMML 211745Z 31005KT 9999 FEW030 BKN250 17/12 Q1022
                        NOSIG=
201010211730 METAR LMML NIL=
201010211715 METAR LMML 211715Z 30007KT 9999 FEW030 BKN250 18/13 Q1022
                        NOSIG=
201010211700 METAR LMML NIL=
201010211645 METAR LMML 211645Z 28005KT 250V320 9999 FEW030 BKN250 18/13
                        Q1021 NOSIG=
201010211630 METAR LMML NIL=
201010211615 METAR LMML 211615Z 32007KT 9999 FEW030 BKN250 18/12 Q1021
                        NOSIG=
201010211600 METAR LMML NIL=
201010211545 METAR LMML 211545Z 31008KT 9999 FEW030 BKN250 18/12 Q1021
                        NOSIG=
201010211530 METAR LMML NIL=
201010211515 METAR LMML 211515Z 31013KT 9999 FEW030 BKN250 19/12 Q1021
                        NOSIG=
201010211500 METAR LMML NIL=
201010211445 METAR LMML 211445Z 31012KT 9999 FEW030 BKN250 20/12 Q1021
                        NOSIG=
201010211430 METAR LMML NIL=
201010211415 METAR LMML 211415Z 31014KT 9999 FEW030 BKN250 20/12 Q1021
                        NOSIG=
201010211400 METAR LMML NIL=
201010211345 METAR LMML 211345Z 30014KT 9999 FEW030 BKN250 20/12 Q1021
                        NOSIG=
201010211330 METAR LMML NIL=
201010211315 METAR LMML 211315Z 29013KT 260V320 9999 FEW030 BKN250 20/12
                        Q1021 NOSIG=
201010211300 METAR LMML NIL=
201010211245 METAR LMML 211245Z 31013KT 280V340 9999 FEW030 BKN250 21/12
                        Q1021 NOSIG=
201010211230 METAR LMML NIL=
201010211215 METAR LMML 211215Z 32014KT 290V350 9999 FEW030 BKN250 21/12
                        Q1021 NOSIG=
201010211200 METAR LMML NIL=
201010211145 METAR LMML 211145Z 32014KT 9999 FEW030 BKN250 20/12 Q1021
                        NOSIG=
201010211130 METAR LMML NIL=
201010211115 METAR LMML 211115Z 31016KT 9999 FEW030 BKN250 21/12 Q1021
                        NOSIG=
201010211100 METAR LMML NIL=
201010211045 METAR LMML 211045Z 30015KT 9999 FEW032 BKN250 21/13 Q1021
                        NOSIG=
201010211030 METAR LMML NIL=
201010211015 METAR LMML 211015Z 29013KT 240V320 9999 FEW032 BKN250 20/13
                        Q1021 NOSIG=
201010211000 METAR LMML NIL=
201010210945 METAR LMML 210945Z 30011KT 9999 FEW030 SCT250 21/14 Q1021
                        NOSIG=
201010210930 METAR LMML NIL=
201010210915 METAR LMML 210915Z 30012KT 9999 FEW029 SCT250 21/14 Q1021
                        NOSIG=
201010210900 METAR LMML NIL=
201010210845 METAR LMML 210845Z 28011KT 250V310 9999 FEW035 SCT250 21/13
                        Q1021 NOSIG=
201010210830 METAR LMML NIL=
201010210815 METAR LMML 210815Z 29009KT 240V320 9999 FEW039 SCT250 20/13
                        Q1021 NOSIG=
201010210800 METAR LMML NIL=
201010210745 METAR LMML 210745Z 28009KT 250V310 9999 FEW040 SCT250 20/13
                        Q1020 NOSIG=
201010210730 METAR LMML NIL=
201010210715 METAR LMML 210715Z 28009KT 9999 FEW040 SCT250 19/13 Q1020
                        NOSIG=
201010210700 METAR LMML NIL=
201010210645 METAR LMML 210645Z 28007KT 240V320 9999 FEW040 SCT250 19/13
                        Q1020 NOSIG=
201010210630 METAR LMML NIL=
201010210615 METAR LMML 210615Z 29008KT 9999 FEW042 SCT250 18/13 Q1019
                        NOSIG=
201010210600 METAR LMML NIL=
201010210545 METAR LMML 210545Z 28006KT 240V300 9999 SCT035 SCT250 18/13
                        Q1019 NOSIG=
201010210530 METAR LMML NIL=
201010210515 METAR LMML 210515Z 29007KT 9999 SCT035 SCT250 17/13 Q1019
                        NOSIG=
201010210500 METAR LMML NIL=
201010210445 METAR LMML 210445Z 29007KT 9999 SCT035 17/13 Q1019 NOSIG=
201010210430 METAR LMML NIL=
201010210415 METAR LMML 210415Z 28007KT 250V310 9999 FEW035 17/13 Q1018
                        NOSIG=
201010210400 METAR LMML NIL=
201010210345 METAR LMML 210345Z 29007KT 9999 FEW035 17/13 Q1018 NOSIG=
201010210330 METAR LMML NIL=
201010210315 METAR LMML 210315Z 29008KT 9999 FEW035 18/13 Q1018 NOSIG=
201010210300 METAR LMML NIL=
201010210245 METAR LMML 210245Z 28007KT 250V310 9999 FEW037 17/13 Q1018
                        NOSIG=
201010210230 METAR LMML NIL=
201010210215 METAR LMML 210215Z 29007KT 9999 FEW032 SCT250 18/13 Q1018
                        NOSIG=
201010210200 METAR LMML NIL=
201010210145 METAR LMML 210145Z 29007KT 9999 FEW030 18/13 Q1018 NOSIG=
201010210130 METAR LMML NIL=
201010210115 METAR LMML 210115Z 29006KT 9999 SCT033 17/13 Q1018 NOSIG=
201010210100 METAR LMML NIL=
201010210045 METAR LMML 210045Z 29006KT 9999 FEW034 17/12 Q1018 NOSIG=
201010210030 METAR LMML NIL=
201010210015 METAR LMML 210015Z 29006KT 9999 FEW034 17/13 Q1018 NOSIG=
201010210000 METAR LMML NIL=
201010202345 METAR LMML 202345Z 30006KT 9999 FEW034 18/13 Q1018 NOSIG=
201010202315 METAR LMML 202315Z 29009KT 9999 FEW035 SCT250 18/13 Q1018
                        NOSIG=
201010202245 METAR LMML 202245Z 29009KT 260V320 9999 FEW034 BKN250 18/12
                        Q1018 NOSIG=
201010202215 METAR LMML 202215Z 29011KT 270V330 9999 FEW034 BKN250 18/12
                        Q1018 NOSIG=
201010202200 METAR LMML NIL=
201010202145 METAR LMML 202145Z 30011KT 9999 FEW034 BKN250 18/13 Q1018
                        NOSIG=
201010202130 METAR LMML NIL=
201010202115 METAR LMML 202115Z 30011KT 9999 FEW034 BKN250 18/13 Q1018
                        NOSIG=
201010202100 METAR LMML NIL=
201010202045 METAR LMML 202045Z 30011KT 9999 SCT036 19/13 Q1017 NOSIG=
201010202015 METAR LMML 202015Z 30010KT 270V340 9999 FEW034 SCT050 19/13
                        Q1017 NOSIG=
201010202000 METAR LMML NIL=
201010201945 METAR LMML 201945Z 29011KT 9999 FEW031 BKN050 19/13 Q1017
                        NOSIG=
201010201930 METAR LMML NIL=
201010201915 METAR LMML 201915Z 29009KT 260V320 9999 FEW028 BKN050 19/14
                        Q1017 NOSIG=
201010201900 METAR LMML NIL=
201010201845 METAR LMML 201845Z 28010KT 240V320 9999 FEW031 BKN050 19/14
                        Q1016 NOSIG=
201010201830 METAR LMML NIL=
201010201815 METAR LMML 201815Z 28012KT 230V330 9999 FEW031 BKN060 19/13
                        Q1016 NOSIG=
201010201800 METAR LMML NIL=
201010201745 METAR LMML 201745Z 28013KT 240V310 9999 FEW029 BKN049 19/14
                        Q1016 NOSIG=
201010201715 METAR LMML 201715Z 27013KT 250V320 9999 FEW028 BKN049 19/14
                        Q1016 NOSIG=
201010201700 METAR LMML NIL=
201010201645 METAR LMML 201645Z 28013KT 230V300 9999 FEW029 BKN050 19/14
                        Q1015 NOSIG=
201010201630 METAR LMML NIL=
201010201615 METAR LMML 201615Z 28012KT 240V310 9999 FEW029 SCT050 19/14
                        Q1015 NOSIG=
201010201600 METAR LMML NIL=
201010201545 METAR LMML 201545Z 28012KT 250V310 9999 FEW029 BKN050 19/14
                        Q1015 NOSIG=
201010201530 METAR LMML NIL=
201010201515 METAR LMML 201515Z 29014KT 260V320 9999 FEW029 BKN050 20/14
                        Q1015 NOSIG=
201010201500 METAR LMML NIL=
201010201445 METAR LMML 201445Z 29016KT 9999 FEW029 BKN050 20/14 Q1015
                        NOSIG=
201010201430 METAR LMML NIL=
201010201415 METAR LMML 201415Z 28013KT 240V310 9999 FEW028 BKN050 20/14
                        Q1015 NOSIG=
201010201400 METAR LMML NIL=
201010201345 METAR LMML 201345Z 28016KT 240V320 9999 SCT029 BKN060 20/14
                        Q1014 NOSIG=
201010201330 METAR LMML NIL=
201010201315 METAR LMML 201315Z 28019KT 9999 SCT029 BKN060 20/14 Q1014
                        NOSIG=
201010201300 METAR LMML NIL=
201010201245 METAR LMML 201245Z 28017KT 230V320 9999 FEW031 BKN060 21/13
                        Q1014 NOSIG=
201010201230 METAR LMML NIL=
201010201215 METAR LMML 201215Z 28018KT 240V300 9999 FEW032 BKN060 20/14
                        Q1014 NOSIG=
201010201200 METAR LMML NIL=
201010201145 METAR LMML 201145Z 28017KT 250V320 9999 SCT030 BKN060 20/14
                        Q1014 NOSIG=
201010201130 METAR LMML NIL=
201010201115 METAR LMML 201115Z 27013KT 230V320 9999 SCT029 BKN060 20/14
                        Q1014 NOSIG=
201010201100 METAR LMML NIL=
201010201045 METAR LMML 201045Z 27013KT 220V310 9999 SCT029 BKN060 20/14
                        Q1014 NOSIG=
201010201030 METAR LMML NIL=
201010201015 METAR LMML 201015Z 27017KT 250V310 9999 FEW030 BKN060 20/14
                        Q1014 NOSIG=
201010201000 METAR LMML NIL=
201010200945 METAR LMML 200945Z 27013KT 230V310 9999 FEW030 BKN060 20/14
                        Q1014 NOSIG=
201010200930 METAR LMML NIL=
201010200915 METAR LMML 200915Z 28014KT 250V310 9999 SCT030 BKN060 20/13
                        Q1014 NOSIG=
201010200845 METAR LMML 200845Z 28014KT 240V310 9999 FEW029 SCT060 20/14
                        Q1014 NOSIG=
201010200830 METAR LMML NIL=
201010200800 METAR LMML NIL=
201010200745 METAR LMML 200745Z 28011KT 240V300 9999 FEW033 BKN060 20/14
                        Q1014 NOSIG=
201010200730 METAR LMML NIL=
201010200715 METAR LMML 200715Z 28010KT 250V320 9999 FEW030 BKN060 19/13
                        Q1013 NOSIG=
201010200700 METAR LMML NIL=
201010200645 METAR LMML 200645Z 29011KT 9999 FEW034 BKN060 19/12 Q1013
                        NOSIG=
201010200630 METAR LMML NIL=
201010200615 METAR LMML 200615Z 28009KT 250V310 9999 SCT033 BKN050 18/13
                        Q1012 NOSIG=
201010200600 METAR LMML NIL=
201010200545 METAR COR LMML 200545Z 30011KT 9999 FEW029 BKN060 18/13 Q1012
                        NOSIG=
201010200530 METAR LMML NIL=
201010200500 METAR LMML NIL=
201010200445 METAR LMML 200445Z 28014KT 9999 FEW035 SCT050 18/12 Q1012
                        NOSIG=
201010200430 METAR LMML NIL=
201010200415 METAR LMML 200415Z 29010KT 9999 FEW037 SCT050 18/11 Q1011
                        NOSIG=
201010200400 METAR LMML NIL=
201010200345 METAR LMML 200345Z 29012KT 270V330 9999 FEW036 SCT060 18/12
                        Q1011 NOSIG=
201010200330 METAR LMML NIL=
201010200315 METAR LMML 200315Z 29015KT 9999 FEW031 SCT050 18/12 Q1011
                        NOSIG=
201010200300 METAR LMML NIL=
201010200245 METAR LMML 200245Z 29013KT 9999 FEW029 18/13 Q1011 NOSIG=
201010200230 METAR LMML NIL=
201010200215 METAR LMML 200215Z 29014KT 250V320 9999 FEW034 18/11 Q1011
                        NOSIG=
201010200200 METAR LMML NIL=
201010200145 METAR LMML 200145Z 30014KT 9999 FEW034 18/12 Q1011 NOSIG=
201010200130 METAR LMML NIL=
201010200115 METAR LMML 200115Z 29012KT 260V320 9999 FEW031 18/12 Q1011
                        NOSIG=
201010200100 METAR LMML NIL=
201010200045 METAR LMML 200045Z 29013KT 260V320 9999 SCT033 BKN120 18/12
                        Q1011 NOSIG=
201010200030 METAR LMML NIL=
201010200015 METAR LMML 200015Z 29016KT 9999 SCT032 BKN070 18/13 Q1011
                        NOSIG=
201010200000 METAR LMML NIL=
201010192345 METAR LMML 192345Z 29018KT 9999 FEW035 BKN070 18/13 Q1011
                        NOSIG=
201010192330 METAR LMML NIL=
201010192315 METAR LMML 192315Z 29021KT 9999 SCT033 BKN070 19/13 Q1010
                        NOSIG=
201010192300 METAR LMML NIL=
201010192245 METAR LMML 192245Z 29018KT 9999 FEW030 BKN070 19/13 Q1010
                        NOSIG=
201010192230 METAR LMML NIL=
201010192215 METAR LMML 192215Z 29015KT 260V320 9999 SCT033 BKN080 18/13
                        Q1010 NOSIG=
201010192200 METAR LMML NIL=
201010192145 METAR LMML 192145Z 30018KT 260V330 9999 -SHRA SCT029 BKN080
                        18/14 Q1010 NOSIG=
201010192130 METAR LMML NIL=
201010192115 METAR LMML 192115Z 29019KT 9999 FEW028 BKN070 18/14 Q1010
                        NOSIG=
201010192100 METAR LMML NIL=
201010192045 METAR LMML 192045Z 30019G30KT 9999 FEW031 BKN090 18/13 Q1009
                        NOSIG=
201010192030 METAR LMML NIL=
201010192015 METAR LMML 192015Z 30020KT 260V330 9999 FEW028 BKN090 18/13
                        Q1009 NOSIG=
201010192000 METAR LMML NIL=
201010191945 METAR LMML 191945Z 29019KT 270V330 9999 FEW032 BKN090 19/13
                        Q1008 NOSIG=
201010191930 METAR LMML NIL=
201010191915 METAR LMML 191915Z 29021KT 260V320 9999 FEW031 BKN090 19/13
                        Q1008 NOSIG=
201010191900 METAR LMML NIL=
201010191845 METAR LMML 191845Z 30016G26KT 9999 FEW029 BKN090 18/13 Q1008
                        NOSIG=
201010191830 METAR LMML NIL=
201010191815 METAR LMML 191815Z 30019KT 9999 SCT029 BKN080 18/14 Q1008
                        TEMPO 8000 SHRA BKN015=
201010191745 METAR LMML 191745Z 32013KT 290V010 9999 SCT017 BKN080 16/15
                        Q1007 TEMPO 8000 SHRA BKN015=
201010191730 METAR LMML NIL=
201010191715 METAR LMML 191715Z 28014KT 260V320 9999 -SHRA SCT024 BKN080
                        17/15 Q1007 TEMPO 8000 SHRA=
201010191700 METAR LMML NIL=
201010191645 METAR LMML 191645Z 29019KT 9999 -SHRA BKN023 BKN120 17/14
                        Q1006 TEMPO 8000 SHRA=
201010191630 METAR LMML NIL=
201010191626 SPECI LMML 191626Z 29017KT 9999 FEW020TCU BKN120 BKN250 17/15
                        Q1006 TEMPO 8000 SHRA=
201010191600 METAR LMML NIL=
201010191545 METAR LMML 191545Z 28016KT 250V320 9999 SCT028TCU BKN120
                        17/14 Q1006 RESHRA NOSIG=
201010191530 METAR LMML NIL=
201010191515 METAR LMML 191515Z 28019KT 240V310 9999 -SHRA SCT015 BKN120
                        17/14 Q1005 NOSIG=
201010191501 SPECI LMML 191501Z 27017KT 240V300 3000 SHRA SCT015 BKN070
                        17/15 Q1005 NOSIG=
201010191500 METAR LMML NIL=
201010191445 METAR LMML 191445Z 28019KT 250V310 9999 -SHRA SCT022 BKN070
                        17/14 Q1005 TEMPO 6000 BKN025TCU=
201010191430 METAR LMML NIL=
201010191415 METAR LMML 191415Z 28021KT 250V310 9999 SCT025 SCT050 BKN250
                        17/13 Q1005 TEMPO 6000 BKN025TCU=
201010191345 METAR LMML 191345Z 28019KT 240V310 9999 SCT024TCU BKN250
                        18/14 Q1005 NOSIG=
201010191330 METAR LMML NIL=
201010191315 METAR LMML 191315Z 27011KT 220V300 9000 BKN027TCU SCT250
                        17/14 Q1005 NOSIG=
201010191300 METAR LMML NIL=
201010191245 METAR LMML 191245Z 26015KT 230V290 9999 BKN027TCU SCT250
                        16/12 Q1005 NOSIG=
201010191230 METAR LMML NIL=
201010191215 METAR LMML 191215Z 29013KT 240V320 6000 RA BKN026TCU BKN250
                        18/13 Q1005 TEMPO 4000 TSRA=
201010191200 METAR LMML NIL=
201010191145 METAR LMML 191145Z 28022KT 9999 FEW020CB SCT029 BKN250 18/11
                        Q1005 TEMPO 6000 TSRA=
201010191130 METAR LMML NIL=
201010191115 METAR LMML 191115Z 28017KT 250V310 9999 FEW020CB FEW025TCU
                        19/13 Q1006 TEMPO 6000 TSRA=
201010191100 METAR LMML NIL=
201010191045 METAR LMML 191045Z 28017KT 250V310 9999 FEW026TCU SCT250
                        19/12 Q1006 NOSIG=
201010191030 METAR LMML NIL=
201010191015 METAR LMML 191015Z 29016KT 250V340 9999 SCT025CB 19/12 Q1006
                        TEMPO 8000 TSRA=
201010191000 METAR LMML NIL=
201010190945 METAR LMML 190945Z 28017KT 250V310 9999 BKN020CB 17/13 Q1006
                        TEMPO 8000 TSRA=
201010190930 METAR LMML NIL=
201010190915 METAR LMML 190915Z 27013KT 230V300 9999 FEW025CB SCT032TCU
                        18/13 Q1006 TEMPO 5000 TSRA BKN020CB=
201010190845 METAR LMML 190845Z 27015KT 220V300 9999 FEW025CB SCT030 19/12
                        Q1005 TEMPO 5000 TSRA BKN020CB=
201010190830 METAR LMML NIL=
201010190815 METAR LMML 190815Z 27017G27KT 200V310 9999 SCT036 19/12 Q1005
                        TEMPO 8000 SHRA BKN030TCU=
201010190800 METAR LMML NIL=
201010190745 METAR LMML 190745Z 27017KT 230V300 9999 SCT035 18/11 Q1005
                        TEMPO 8000 SHRA BKN030TCU=
201010190730 METAR LMML NIL=
201010190715 METAR LMML 190715Z 27018KT 220V310 9999 SCT035 18/10 Q1005
                        TEMPO 8000 SHRA BKN030TCU=
201010190700 METAR LMML NIL=
201010190645 METAR LMML 190645Z 27018KT 9999 SCT036 18/11 Q1005 TEMPO
                        8000 SHRA BKN030TCU=
201010190630 METAR LMML NIL=
201010190615 METAR LMML 190615Z 27017KT 220V310 9999 BKN032 17/11 Q1004
                        TEMPO 8000 SHRA BKN020TCU=
201010190600 METAR LMML NIL=
201010190545 METAR LMML 190545Z 26016G29KT 210V300 9999 BKN035TCU 17/11
                        Q1004 TEMPO 8000 SHRA=
201010190530 METAR LMML NIL=
201010190515 METAR LMML 190515Z 26018G28KT 220V290 9999 BKN035 18/11 Q1004
                        TEMPO 8000 SHRA=
201010190500 METAR LMML NIL=
201010190445 METAR LMML 190445Z 26018KT 210V290 9999 SCT035 17/10 Q1004
                        TEMPO 8000 SHRA=
201010190430 METAR LMML NIL=
201010190415 METAR LMML 190415Z 26017KT 220V290 9999 SCT035 17/10 Q1004
                        TEMPO 8000 SHRA=
201010190400 METAR LMML NIL=
201010190345 METAR LMML 190345Z 26017G28KT 220V310 9999 SCT035 17/11 Q1004
                        TEMPO 8000 SHRA=
201010190330 METAR LMML NIL=
201010190315 METAR LMML 190315Z 27020KT 220V310 9999 SCT036 17/09 Q1004
                        TEMPO 8000 SHRA=
201010190300 METAR LMML NIL=
201010190245 METAR LMML 190245Z 27018KT 220V310 9999 SCT035 17/10 Q1004
                        TEMPO 8000 SHRA=
201010190230 METAR LMML NIL=
201010190215 METAR LMML 190215Z 27021G31KT 230V310 9999 SCT036 17/10 Q1004
                        TEMPO 8000 SHRA=
201010190145 METAR LMML 190145Z 27021G36KT 230V310 9999 SCT037 17/10 Q1004
                        TEMPO 8000 SHRA=
201010190115 METAR LMML 190115Z 27020G32KT 220V300 9999 SCT037 FEW043
                        17/10 Q1005 TEMPO 8000 SHRA=
201010190100 METAR LMML NIL=
201010190045 METAR LMML 190045Z 27023G33KT 240V300 9999 SCT037 18/10 Q1005
                        TEMPO 8000 SHRA=
201010190030 METAR LMML NIL=
201010190015 METAR LMML 190015Z 27023G33KT 230V300 9999 SCT039 18/09 Q1005
                        TEMPO 8000 SHRA=
201010182345 METAR LMML 182345Z 27022KT 230V310 9999 SCT036 18/11 Q1005
                        TEMPO 8000 SHRA=
201010182330 METAR LMML NIL=
201010182315 METAR LMML 182315Z 27019G29KT 250V310 9999 SCT040 18/10 Q1005
                        TEMPO 8000 SHRA=
201010182300 METAR LMML NIL=
201010182245 METAR LMML 182245Z 27020KT 240V300 9999 SCT040 18/09 Q1005
                        TEMPO 8000 SHRA=
201010182230 METAR LMML NIL=
201010182215 METAR LMML 182215Z 27021G32KT 240V300 9999 SCT040 17/09 Q1005
                        TEMPO 8000 SHRA=
201010182200 METAR LMML NIL=
201010182145 METAR LMML 182145Z 27017KT 220V310 9999 BKN039 18/10 Q1005
                        TEMPO 8000 SHRA=
201010182130 METAR LMML NIL=
201010182115 METAR LMML 182115Z 28016KT 250V310 9999 BKN038 17/10 Q1006
                        TEMPO 8000 SHRA=
201010182100 METAR LMML NIL=
201010182045 METAR LMML 182045Z 28018KT 250V310 9999 SCT043 17/10 Q1006
                        TEMPO 8000 SHRA=
201010182030 METAR LMML NIL=
201010182015 METAR LMML 182015Z 28019KT 240V310 9999 SCT044 18/09 Q1006
                        NOSIG=
201010182000 METAR LMML NIL=
201010181945 METAR LMML 181945Z 29017KT 260V320 9999 SCT045 18/09 Q1006
                        NOSIG=
201010181930 METAR LMML NIL=
201010181915 METAR LMML 181915Z 29021KT 250V310 9999 SCT048 18/08 Q1006
                        NOSIG=
201010181900 METAR LMML NIL=
201010181845 METAR LMML 181845Z 28020KT 250V310 9999 SCT043 18/08 Q1005
                        NOSIG=
201010181830 METAR LMML NIL=
201010181815 METAR LMML 181815Z 28019G29KT 250V310 9999 SCT043 18/10 Q1005
                        NOSIG=
201010181803 SPECI LMML 181803Z 28022KT 250V310 9999 SCT042 18/10 Q1006
                        NIL=
201010181800 METAR LMML NIL=
201010181745 METAR LMML 181745Z 29020G33KT 260V320 9999 SCT040 18/11 Q1005
                        NOSIG=
201010181730 METAR LMML NIL=
201010181715 METAR LMML 181715Z 29021KT 260V320 9999 SCT045 18/09 Q1005
                        NOSIG=
201010181700 METAR LMML NIL=
201010181645 METAR LMML 181645Z 29021KT 260V320 9999 SCT040 18/10 Q1004
                        NOSIG=
201010181630 METAR LMML NIL=
201010181615 METAR LMML 181615Z 30018G29KT 9999 SCT028 18/11 Q1004 NOSIG=
201010181600 METAR LMML NIL=
201010181545 METAR LMML 181545Z 30023G35KT 9999 SCT028 18/13 Q1004 TEMPO
                        8000 SHRA=
201010181530 METAR LMML NIL=
201010181515 METAR LMML 181515Z 30020G32KT 9999 BKN029 18/14 Q1003 TEMPO
                        8000 SHRA=
201010181500 METAR LMML NIL=
201010181445 METAR LMML 181445Z 31021KT 9999 SCT020 18/14 Q1003 TEMPO
                        8000 SHRA BKN015=
201010181430 METAR LMML NIL=
201010181415 METAR LMML 181415Z 31024KT 9999 SCT020 18/14 Q1003 TEMPO
                        8000 SHRA BKN015TCU=
201010181400 METAR LMML NIL=
201010181345 METAR LMML 181345Z 31018KT 280V340 9000 SCT020 17/15 Q1002
                        TEMPO BKN015TCU=
201010181330 METAR LMML NIL=
201010181315 METAR LMML 181315Z 30020KT 270V330 9000 -SHRA SCT017 SCT080
                        17/15 Q1003 TEMPO BKN015TCU=
201010181300 METAR LMML NIL=
201010181245 METAR LMML 181245Z 28017KT 250V320 9999 SCT013TCU SCT080
                        BKN250 17/15 Q1003 RESHRA TEMPO 8000
                        SHRA BKN012TCU=
201010181230 METAR LMML NIL=
201010181215 METAR LMML 181215Z 27011KT 240V300 9999 SCT017TCU BKN080
                        16/15 Q1003 RESHRA TEMPO 8000 SHRA
                        BKN015TCU=
201010181207 SPECI LMML 181207Z 27012KT 240V320 5000 SHRA SCT014 BKN070
                        16/15 Q1003 TEMPO 8000 SHRA BKN015=
201010181200 METAR LMML NIL=
201010181145 METAR LMML 181145Z 29017G27KT 260V320 6000 -SHRA SCT020 BKN080
                        18/14 Q1003 TEMPO 5000 SHRA BKN015=
201010181130 METAR LMML NIL=
201010181115 METAR LMML 181115Z 29017KT 260V320 9999 FEW020 BKN080 19/13
                        Q1002 TEMPO 8000 SHRA=
201010181100 METAR LMML NIL=
201010181045 METAR LMML 181045Z 30016G27KT 270V330 9999 FEW020 SCT250
                        19/13 Q1002 NOSIG=
201010181030 METAR LMML NIL=
201010181015 METAR LMML 181015Z 31017G27KT 9999 FEW015TCU SCT070 18/15
                        Q1003 TEMPO 8000 SHRA BKN015TCU=
201010181000 METAR LMML NIL=
201010180945 METAR LMML 180945Z 29015KT 260V320 5000 -SHRA BKN019TCU BKN070
                        18/15 Q1003 TEMPO 3000 BKN015TCU=
201010180930 METAR LMML NIL=
201010180915 METAR LMML 180915Z 29010KT 250V320 9999 FEW013 SCT020 BKN250
                        18/15 Q1003 TEMPO 8000 SHRA BKN015=
201010180900 METAR LMML NIL=
201010180845 METAR LMML 180845Z 29011KT 9999 FEW011 SCT023TCU SCT050 18/16
                        Q1003 NOSIG=
201010180830 METAR LMML NIL=
201010180815 METAR LMML 180815Z 27007KT 220V300 9000 -RA FEW011 SCT020
                        BKN050 17/16 Q1003 RETS TEMPO 5000
                        RA BKN015=
201010180800 METAR LMML NIL=
201010180745 METAR LMML 180745Z 29009KT 260V320 6000 -RA FEW011 SCT015CB
                        BKN050 17/15 Q1003 RETS TEMPO 3000
                        TSRA BKN015CB=
201010180730 METAR LMML NIL=
201010180715 METAR LMML 180715Z 24012KT 200V290 6000 TSRA FEW010 SCT015CB
                        BKN050 16/15 Q1004 TEMPO 3000 TSRA
                        BKN015CB=
201010180700 METAR LMML NIL=
201010180645 METAR LMML 180645Z 22019KT 190V250 6000 TSRA FEW010 SCT015CB
                        OVC050 16/15 Q1003 TEMPO 3000 TSRA
                        BKN015CB=
201010180615 METAR LMML 180615Z 16009KT 120V180 9999 -TSRA SCT015CB BKN020
                        18/16 Q1002 TEMPO 3000 TSRA BKN015CB=
201010180600 METAR LMML NIL=
201010180545 METAR LMML 180545Z 14010KT 080V170 9999 TS SCT015CB BKN020
                        BKN250 19/17 Q1002 TEMPO 3000 TSRA
                        BKN015CB=
201010180538 SPECI COR LMML 180538Z 13009KT 080V170 9999 TS SCT015CB BKN020
                        BKN250 20/17 Q1002 TEMPO 3000 TSRA
                        BKN015CB=
201010180530 METAR LMML NIL=
201010180515 METAR LMML 180515Z 08004KT 050V110 9999 SCT017 SCT120 BKN250
                        20/17 Q1003 TEMPO 8000 SHRA BKN015
                        RMK LIGHTNING TO N S=
201010180500 METAR LMML NIL=
201010180445 METAR LMML 180445Z VRB02KT 9999 SCT018 BKN120 BKN250 19/17
                        Q1003 TEMPO SHRA RMK LIGHTNING NNE/
                        E SE=
201010180430 METAR LMML NIL=
201010180415 METAR LMML 180415Z VRB02KT 9999 FEW017 BKN100 19/16 Q1004
                        NOSIG RMK LIGHTNING TO SE=
201010180400 METAR LMML NIL=
201010180345 METAR LMML 180345Z 07003KT 9999 FEW018 BKN070 BKN250 19/16
                        Q1004 NOSIG=
201010180330 METAR LMML NIL=
201010180315 METAR LMML 180315Z VRB02KT 9999 FEW023 SCT070 BKN250 19/16
                        Q1004 NOSIG=
201010180300 METAR LMML NIL=
201010180245 METAR LMML 180245Z 06004KT 9999 FEW020 SCT070 BKN250 20/16
                        Q1004 NOSIG=
201010180230 METAR LMML NIL=
201010180215 METAR LMML 180215Z 06003KT 9999 FEW022 SCT070 20/16 Q1004
                        NOSIG=
201010180200 METAR LMML NIL=
201010180145 METAR LMML 180145Z 06003KT 9999 FEW022 SCT070 20/16 Q1005
                        NOSIG=
201010180130 METAR LMML NIL=
201010180115 METAR LMML 180115Z 07004KT 040V100 9999 FEW023 SCT070 20/16
                        Q1005 NOSIG=
201010180100 METAR LMML NIL=
201010180045 METAR LMML 180045Z 07005KT 040V100 9999 FEW021 SCT070 20/16
                        Q1005 NOSIG=
201010180030 METAR LMML NIL=
201010180015 METAR LMML 180015Z 05005KT 020V080 9999 FEW021 SCT070 20/16
                        Q1006 NOSIG=
201010180000 METAR LMML NIL=
201010172345 METAR LMML 172345Z 04005KT 360V070 9999 FEW023 20/16 Q1006
                        NOSIG=
201010172330 METAR LMML NIL=
201010172315 METAR LMML 172315Z 02004KT 9999 FEW024 19/16 Q1006 NOSIG=
201010172300 METAR LMML NIL=
201010172245 METAR LMML 172245Z 01003KT 9999 FEW022 SCT070 20/17 Q1007
                        NOSIG=
201010172230 METAR LMML NIL=
201010172215 METAR LMML 172215Z 04005KT 9999 FEW021 SCT090 20/17 Q1007
                        NOSIG=
201010172200 METAR LMML NIL=
201010172145 METAR LMML 172145Z 03004KT 360V060 9999 FEW021 SCT070 20/17
                        Q1008 NOSIG=
201010172130 METAR LMML NIL=
201010172115 METAR LMML 172115Z 01003KT 9999 FEW025 SCT070 19/17 Q1008
                        NOSIG=
201010172100 METAR LMML NIL=
201010172045 METAR LMML 172045Z 36005KT 9999 FEW025 SCT070 BKN120 20/17
                        Q1008 NOSIG=
201010172030 METAR LMML NIL=
201010172015 METAR LMML 172015Z 01004KT 9999 FEW025 SCT070 20/17 Q1008
                        NOSIG=
201010172000 METAR LMML NIL=
201010171945 METAR LMML 171945Z 36005KT 9999 FEW025 SCT070 20/16 Q1009
                        NOSIG=
201010171930 METAR LMML NIL=
201010171915 METAR LMML 171915Z 34004KT 9999 FEW025 SCT120 20/16 Q1009
                        NOSIG=
201010171900 METAR LMML NIL=
201010171845 METAR LMML 171845Z 36004KT 9999 FEW025 SCT120 20/16 Q1008
                        NOSIG=
201010171830 METAR LMML NIL=
201010171815 METAR LMML 171815Z 02003KT 9999 FEW025 SCT090 20/16 Q1008
                        NOSIG=
201010171800 METAR LMML NIL=
201010171745 METAR LMML 171745Z 03003KT 9999 FEW025 SCT090 20/16 Q1008
                        NOSIG=
201010171730 METAR LMML NIL=
201010171715 METAR LMML 171715Z 01003KT 9999 FEW025 SCT090 20/16 Q1008
                        NOSIG=
201010171700 METAR LMML NIL=
201010171645 METAR LMML 171645Z 01004KT 9999 FEW025 BKN100 20/16 Q1008
                        NOSIG=
201010171630 METAR LMML NIL=
201010171615 METAR LMML 171615Z 01004KT 9999 FEW025 BKN100 21/16 Q1008
                        NOSIG=
201010171600 METAR LMML NIL=
201010171545 METAR LMML 171545Z 01006KT 9999 FEW025 BKN100 BKN250 21/16
                        Q1008 NOSIG=
201010171530 METAR LMML NIL=
201010171515 METAR LMML 171515Z 01005KT 9999 FEW025 BKN100 BKN250 21/16
                        Q1008 NOSIG=
201010171500 METAR LMML NIL=
201010171445 METAR LMML 171445Z 01006KT 340V040 9999 FEW025 BKN100 BKN250
                        22/16 Q1008 NOSIG=
201010171430 METAR LMML NIL=
201010171415 METAR LMML 171415Z 04006KT 9999 FEW025 BKN120 BKN250 22/16
                        Q1008 NOSIG=
201010171400 METAR LMML NIL=
201010171345 METAR LMML 171345Z 05006KT 010V090 9999 FEW025 BKN100 BKN250
                        23/17 Q1008 NOSIG=
201010171330 METAR LMML NIL=
201010171315 METAR LMML 171315Z 03005KT 360V090 9999 FEW025 SCT080 BKN120
                        23/17 Q1008 NOSIG=
201010171300 METAR LMML NIL=
201010171245 METAR LMML 171245Z 03005KT 360V060 9999 FEW025 SCT080 BKN250
                        22/16 Q1008 NOSIG=
201010171230 METAR LMML NIL=
201010171215 METAR LMML 171215Z 05007KT 020V080 9999 FEW025 SCT120 BKN250
                        23/16 Q1008 NOSIG=
201010171200 METAR LMML NIL=
201010171145 METAR LMML 171145Z 05006KT 350V100 9999 FEW030 SCT080 BKN250
                        22/17 Q1008 NOSIG RMK CB TOP TO NORTH=
201010171130 METAR LMML NIL=
201010171115 METAR LMML 171115Z 05007KT 010V090 9999 FEW025 SCT090 BKN250
                        23/17 Q1009 NOSIG=
201010171100 METAR LMML NIL=
201010171045 METAR LMML 171045Z 03006KT 010V070 9999 FEW025 SCT080 BKN250
                        22/16 Q1009 NOSIG=
201010171030 METAR LMML NIL=
201010171015 METAR LMML 171015Z 03007KT 9999 FEW025 SCT080 BKN250 22/16
                        Q1009 NOSIG=
201010171000 METAR LMML NIL=
201010170945 METAR LMML 170945Z 02006KT 360V070 9999 FEW025 BKN250 22/16
                        Q1009 NOSIG=
201010170930 METAR LMML NIL=
201010170915 METAR LMML 170915Z 05007KT 360V090 9999 FEW025 SCT250 23/17
                        Q1009 NOSIG=
201010170900 METAR LMML NIL=
201010170845 METAR LMML 170845Z 04006KT 010V080 9999 FEW020 SCT250 23/16
                        Q1009 NOSIG=
201010170830 METAR LMML NIL=
201010170815 METAR LMML 170815Z 04007KT 010V070 9999 FEW020 SCT250 23/17
                        Q1009 NOSIG=
201010170800 METAR LMML NIL=
201010170745 METAR LMML 170745Z 03005KT 360V070 9999 FEW020 SCT250 22/16
                        Q1009 NOSIG=
201010170730 METAR LMML NIL=
201010170715 METAR LMML 170715Z 06004KT 020V090 9999 FEW020 BKN250 22/17
                        Q1009 NOSIG=
201010170700 METAR LMML NIL=
201010170645 METAR LMML 170645Z 01003KT 9999 FEW020 20/17 Q1009 NOSIG=
201010170630 METAR LMML NIL=
201010170615 METAR LMML 170615Z 07004KT 040V100 9999 FEW020 19/17 Q1009
                        NOSIG RMK CB TOPS TO SE=
201010170600 METAR LMML NIL=
201010170545 METAR LMML 170545Z 06003KT 9999 FEW020 18/17 Q1008 NOSIG
                        RMK CB TOPS TO SE=
201010170530 METAR LMML NIL=
201010170515 METAR LMML 170515Z 04003KT 9999 FEW020 SCT120 18/16 Q1008
                        NOSIG RMK CB TOPS TO SE=
201010170500 METAR LMML NIL=
201010170445 METAR LMML 170445Z 08005KT 050V120 9999 FEW030 BKN120 18/17
                        Q1008 TEMPO 8000 RA=
201010170430 METAR LMML NIL=
201010170415 METAR LMML 170415Z 36003KT 9999 FEW038 BKN100 18/16 Q1009
                        TEMPO 8000 RA=
201010170400 METAR LMML NIL=
201010170345 METAR LMML 170345Z VRB01KT 9999 FEW030 BKN100 17/16 Q1010
                        TEMPO 8000 RA=
201010170330 METAR LMML NIL=
201010170315 METAR LMML 170315Z VRB02KT 9999 -RA FEW030 BKN100 17/16 Q1009
                        NOSIG=
201010170245 METAR LMML 170245Z VRB01KT 9999 FEW035 SCT100 17/16 Q1009
                        NOSIG=
201010170230 METAR LMML NIL=
201010170215 METAR LMML 170215Z VRB01KT 9999 FEW035 BKN120 17/16 Q1009
                        TEMPO 5000 TSRA BKN015CB RMK DISTANT
                        LIGHTNING TO E=
201010170200 METAR LMML NIL=
201010170145 METAR LMML 170145Z 04003KT 9999 FEW035 BKN100 18/16 Q1009
                        TEMPO 5000 TSRA BKN015CB=
201010170130 METAR LMML NIL=
201010170115 METAR LMML 170115Z 04003KT 9999 SCT035 BKN100 17/15 Q1010
                        TEMPO 5000 TSRA BKN015CB RMK LIGHTNING
                        TO E=
201010170100 METAR LMML NIL=
201010170045 METAR LMML 170045Z 02008KT 350V080 9999 FEW007 BKN120 17/16
                        Q1010 TEMPO 5000 TSRA BKN015CB RMK
                        LIGHTNING TO S=
201010170030 METAR LMML NIL=
201010170015 METAR LMML 170015Z 03010KT 360V070 9999 FEW015CB BKN120 17/15
                        Q1010 RETS NOSIG RMK LIGHTNING TO
                        S=
201010170000 METAR LMML NIL=
201010162345 METAR LMML 162345Z 10005KT 050V140 9999 TSRA BKN015 BKN120
                        18/15 Q1010 NOSIG=
201010162315 METAR LMML 162315Z 20006KT 150V240 9999 TSRA BKN015 BKN100
                        20/19 Q1010 NOSIG=
201010162245 METAR LMML 162245Z VRB02KT 9999 TS SCT015CB BKN100 19/19
                        Q1009 NOSIG=
201010162215 METAR LMML 162215Z 13003KT 9999 FEW020 BKN100 20/19 Q1010
                        TEMPO 5000 TSRA BKN015CB RMK LIGHTNING
                        TO NW=
201010162145 METAR LMML 162145Z 12003KT 9999 FEW020 SCT110 19/18 Q1010
                        TEMPO 5000 TSRA BKN015CB=
201010162130 METAR LMML NIL=
201010162115 METAR LMML 162115Z VRB02KT 9999 FEW020 19/18 Q1010 NOSIG=
201010162100 METAR LMML NIL=
201010162045 METAR LMML 162045Z VRB01KT 9999 FEW020 19/18 Q1010 NOSIG=
201010162015 METAR LMML 162015Z VRB01KT 9999 FEW020 19/18 Q1011 NOSIG=
201010161945 METAR LMML 161945Z 00000KT 9999 FEW020 19/18 Q1011 NOSIG=
201010161930 METAR LMML NIL=
201010161915 METAR LMML 161915Z 00000KT 9999 FEW018 19/18 Q1010 NOSIG=
201010161845 METAR LMML 161845Z VRB01KT 9999 FEW018 19/18 Q1010 NOSIG=
201010161815 METAR LMML 161815Z VRB01KT 9999 FEW020 BKN100 20/18 Q1010
                        NOSIG=
201010161800 METAR LMML NIL=
201010161745 METAR LMML 161745Z VRB02KT 9999 FEW020 BKN100 21/18 Q1010
                        NOSIG=
201010161730 METAR LMML NIL=
201010161715 METAR LMML 161715Z VRB02KT 9999 FEW020 BKN100 21/18 Q1010
                        NOSIG=
201010161700 METAR LMML NIL=
201010161645 METAR LMML 161645Z 15003KT 9999 FEW020 BKN110 21/17 Q1009
                        NOSIG=
201010161630 METAR LMML NIL=
201010161615 METAR LMML 161615Z VRB02KT 9999 FEW020 BKN110 21/17 Q1009
                        NOSIG=
201010161600 METAR LMML NIL=
201010161545 METAR LMML 161545Z 17003KT 9999 FEW020 BKN110 21/17 Q1009
                        NOSIG=
201010161530 METAR LMML NIL=
201010161515 METAR LMML 161515Z 13005KT 9999 -SHRA FEW023 SCT090 BKN120
                        21/18 Q1009 NOSIG=
201010161500 METAR LMML NIL=
201010161445 METAR LMML 161445Z 17005KT 120V220 9999 FEW023 SCT086 BKN120
                        21/17 Q1009 NOSIG=
201010161430 METAR LMML NIL=
201010161415 METAR LMML 161415Z 16003KT 9999 FEW020 BKN100 BKN120 21/16
                        Q1009 NOSIG=
201010161400 METAR LMML NIL=
201010161345 METAR LMML 161345Z 18005KT 160V220 9999 FEW020 SCT100 BKN120
                        21/15 Q1009 NOSIG=
201010161330 METAR LMML NIL=
201010161315 METAR LMML 161315Z 12003KT 9999 FEW020 BKN100 BKN120 21/16
                        Q1010 NOSIG=
201010161300 METAR LMML NIL=
201010161245 METAR LMML 161245Z 16005KT 110V200 9999 -RA FEW020 SCT100
                        BKN120 21/15 Q1010 NOSIG=
201010161230 METAR LMML NIL=
201010161215 METAR LMML 161215Z 15006KT 110V180 9999 FEW020 SCT100 BKN120
                        21/17 Q1010 NOSIG=
201010161200 METAR LMML NIL=
201010161145 METAR LMML 161145Z 16006KT 140V210 9999 FEW020 SCT080 BKN120
                        22/16 Q1011 NOSIG=
201010161130 METAR LMML NIL=
201010161115 METAR LMML 161115Z 17006KT 150V220 9999 FEW020 BKN090 20/16
                        Q1011 NOSIG=
201010161100 METAR LMML NIL=
201010161045 METAR LMML 161045Z 19004KT 140V230 9999 FEW020 SCT080 21/15
                        Q1011 RERA NOSIG=
201010161030 METAR LMML NIL=
201010161015 METAR LMML 161015Z 21003KT 9999 FEW020 SCT080 19/16 Q1011
                        RETS NOSIG=
201010161000 METAR LMML NIL=
201010160945 METAR LMML 160945Z 21003KT 7000 RA FEW020 SCT026CB BKN080
                        17/15 Q1012 RETS BECMG 9999 FEW025=
201010160930 METAR LMML NIL=
201010160915 METAR LMML 160915Z 27016G28KT 230V310 3000 TSRA OVC023CB
                        17/15 Q1013 NOSIG=
201010160900 METAR LMML NIL=
201010160845 METAR LMML 160845Z 34003KT 7000 -TSRA BKN023CB 18/16 Q1012
                        NOSIG=
201010160830 METAR LMML NIL=
201010160815 METAR LMML 160815Z 28003KT 9999 -TSRA BKN022CB 19/16 Q1012
                        NOSIG=
201010160800 METAR LMML NIL=
201010160745 METAR COR LMML 160745Z 25003KT 9999 -TSRA BKN020CB 21/17
                        Q1012 NOSIG=
201010160730 METAR LMML NIL=
201010160715 METAR LMML 160715Z 22006KT 9999 -TSRA FEW020CB SCT070 BKN090
                        20/17 Q1011 NOSIG=
201010160700 METAR LMML NIL=
201010160645 METAR LMML 160645Z 24003KT 9999 FEW025 SCT100 BKN250 20/16
                        Q1011 TEMPO 5000 TSRA BKN015CB=
201010160630 METAR LMML NIL=
201010160615 METAR LMML 160615Z VRB02KT 9999 FEW030 BKN250 20/16 Q1010
                        TEMPO 5000 TSRA BKN015CB=
201010160600 METAR LMML NIL=
201010160545 METAR LMML 160545Z 26004KT 9999 FEW030 BKN250 19/16 Q1010
                        NOSIG=
201010160530 METAR LMML NIL=
201010160515 METAR LMML 160515Z 26004KT 220V280 9999 FEW030 BKN250 19/15
                        Q1010 NOSIG=
201010160500 METAR LMML NIL=
201010160445 METAR LMML 160445Z 26004KT 9999 FEW030 18/15 Q1010 NOSIG=
201010160430 METAR LMML NIL=
201010160415 METAR LMML 160415Z 26004KT 9999 FEW030 18/15 Q1010 NOSIG=
201010160400 METAR LMML NIL=
201010160345 METAR LMML 160345Z 28004KT 240V300 9999 FEW030 19/15 Q1010
                        NOSIG=
201010160330 METAR LMML NIL=
201010160315 METAR LMML 160315Z 25004KT 9999 FEW030 19/15 Q1010 NOSIG=
201010160300 METAR LMML NIL=
201010160245 METAR LMML 160245Z 26005KT 9999 FEW030 19/15 Q1010 NOSIG=
201010160230 METAR LMML NIL=
201010160215 METAR LMML 160215Z 26004KT 9999 FEW030 19/15 Q1010 NOSIG=
201010160145 METAR LMML 160145Z 26004KT 9999 FEW030 19/16 Q1010 NOSIG=
201010160130 METAR LMML NIL=
201010160115 METAR LMML 160115Z 28003KT 9999 FEW030 19/16 Q1010 NOSIG=
201010160100 METAR LMML NIL=
201010160045 METAR LMML 160045Z 27004KT 9999 FEW030 19/16 Q1010 NOSIG
                        RMK LIGHTNING TO NORTH=
201010160030 METAR LMML NIL=
201010160015 METAR LMML 160015Z 25003KT 9999 FEW030 19/16 Q1011 NOSIG
                        RMK LIGHTNING TO NORTH=
201010160000 METAR LMML NIL=
201010152345 METAR LMML 152345Z 26004KT 230V290 9999 FEW029 19/16 Q1011
                        NOSIG RMK LIGHTNING TO NORTH=
201010152330 METAR LMML NIL=
201010152315 METAR LMML 152315Z 26005KT 230V290 9999 FEW029 19/16 Q1011
                        NOSIG=
201010152300 METAR LMML NIL=
201010152245 METAR LMML 152245Z 26005KT 230V290 9999 FEW029 19/16 Q1011
                        NOSIG=
201010152230 METAR LMML NIL=
201010152215 METAR LMML 152215Z 27004KT 230V300 9999 FEW029 19/16 Q1011
                        NOSIG=
201010152200 METAR LMML NIL=
201010152145 METAR LMML 152145Z 27003KT 9999 FEW029 19/15 Q1011 NOSIG=
201010152130 METAR LMML NIL=
201010152115 METAR LMML 152115Z 28003KT 9999 FEW029 19/15 Q1011 NOSIG=
201010152100 METAR LMML NIL=
201010152045 METAR LMML 152045Z VRB02KT 9999 FEW030 19/15 Q1011 NOSIG=
201010152030 METAR LMML NIL=
201010152015 METAR LMML 152015Z 27004KT 230V290 9999 FEW030 20/15 Q1011
                        NOSIG=
201010152000 METAR LMML NIL=
201010151945 METAR LMML 151945Z 27005KT 9999 FEW030 SCT120 20/15 Q1011
                        NOSIG=
201010151930 METAR LMML NIL=
201010151915 METAR LMML 151915Z 26004KT 230V290 9999 FEW025 SCT120 20/15
                        Q1010 NOSIG=
201010151900 METAR LMML NIL=
201010151845 METAR LMML 151845Z 29004KT 9999 FEW025 SCT120 20/15 Q1010
                        NOSIG=
201010151830 METAR LMML NIL=
201010151815 METAR LMML 151815Z 30005KT 9999 FEW025 SCT120 20/16 Q1010
                        NOSIG=
201010151800 METAR LMML NIL=
201010151745 METAR LMML 151745Z 28005KT 260V320 9999 SCT025TCU SCT120
                        21/16 Q1010 TEMPO 8000 SHRA BKN015TCU=
201010151730 METAR LMML NIL=
201010151715 METAR LMML 151715Z 28005KT 9999 SCT025TCU SCT120 21/16 Q1010
                        TEMPO 3000 TSRA BKN015CB RMK LIGHTNING
                        TO NORTH=
201010151700 METAR LMML NIL=
201010151645 METAR LMML 151645Z 28007KT 240V310 9999 FEW027 BKN120 21/16
                        Q1010 NOSIG=
201010151630 METAR LMML NIL=
201010151615 METAR LMML 151615Z 27006KT 9999 FEW027 BKN120 22/16 Q1009
                        NOSIG=
201010151600 METAR LMML NIL=
201010151545 METAR LMML 151545Z 28007KT 240V310 9999 FEW026 BKN120 22/16
                        Q1009 NOSIG=
201010151515 METAR LMML 151515Z 28008KT 9999 FEW027 BKN120 22/17 Q1009
                        NOSIG=
201010151500 METAR LMML NIL=
201010151445 METAR LMML 151445Z 28008KT 250V310 9999 FEW030 BKN120 22/16
                        Q1009 NOSIG=
201010151430 METAR LMML NIL=
201010151415 METAR LMML 151415Z 28008KT 9999 FEW030 SCT120 22/16 Q1009
                        NOSIG=
201010151409 SPECI LMML 151409Z 28008KT 240V310 9999 FEW030 SCT120 22/16
                        Q1009 NOSIG=
201010151345 METAR LMML 151345Z 27008KT 230V320 9999 FEW029 SCT120 23/16
                        Q1009 NOSIG=
201010151315 METAR LMML 151315Z 30008KT 270V330 9999 FEW030 SCT120 23/16
                        Q1010 NOSIG=
201010151300 METAR LMML NIL=
201010151245 METAR LMML 151245Z 29008KT 260V320 9999 FEW025 SCT120 23/15
                        Q1010 NOSIG=
201010151230 METAR LMML NIL=
201010151215 METAR LMML 151215Z 29009KT 260V320 9999 FEW030 SCT250 23/15
                        Q1010 NOSIG=
201010151145 METAR LMML 151145Z 29009KT 250V320 9999 FEW030 SCT250 24/15
                        Q1010 NOSIG=
201010151130 METAR LMML NIL=
201010151115 METAR LMML 151115Z 29009KT 260V330 9999 FEW030 24/16 Q1010
                        NOSIG=
201010151045 METAR LMML 151045Z 30010KT 9999 FEW030 23/15 Q1010 NOSIG=
201010151030 METAR LMML NIL=
201010151015 METAR LMML 151015Z 30009KT 270V330 9999 FEW025 24/17 Q1010
                        NOSIG=
201010151000 METAR LMML NIL=
201010150945 METAR LMML 150945Z 30011KT 9999 FEW025 23/17 Q1010 NOSIG=
201010150930 METAR LMML NIL=
201010150915 METAR LMML 150915Z 31011KT 9999 FEW025 23/17 Q1010 NOSIG=
201010150845 METAR LMML 150845Z 29011KT 250V320 9999 FEW026 23/17 Q1010
                        NOSIG=
201010150830 METAR LMML NIL=
201010150815 METAR LMML 150815Z 29009KT 250V320 9999 FEW026 22/17 Q1010
                        NOSIG=
201010150800 METAR LMML NIL=
201010150745 METAR LMML 150745Z 29009KT 9999 FEW026 22/17 Q1010 NOSIG=
201010150730 METAR LMML NIL=
201010150715 METAR LMML 150715Z 29008KT 260V320 9999 FEW026 22/17 Q1010
                        NOSIG=
201010150700 METAR LMML NIL=
201010150645 METAR LMML 150645Z 29008KT 260V320 9999 FEW025 21/16 Q1010
                        NOSIG=
201010150630 METAR LMML NIL=
201010150615 METAR LMML 150615Z 29006KT 9999 FEW025 20/16 Q1009 NOSIG=
201010150600 METAR LMML NIL=
201010150545 METAR LMML 150545Z 28006KT 9999 FEW025 20/16 Q1009 NOSIG=
201010150530 METAR LMML NIL=
201010150515 METAR LMML 150515Z 29008KT 9999 FEW025 20/16 Q1009 NOSIG=
201010150445 METAR LMML 150445Z 29007KT 9999 FEW025 20/16 Q1009 NOSIG=
201010150430 METAR LMML NIL=
201010150415 METAR LMML 150415Z 29006KT 9999 FEW025 20/16 Q1009 NOSIG=
201010150400 METAR LMML NIL=
201010150345 METAR LMML 150345Z 29007KT 9999 FEW025 20/16 Q1009 NOSIG=
201010150330 METAR LMML NIL=
201010150315 METAR LMML 150315Z 29007KT 9999 FEW025 20/16 Q1009 NOSIG=
201010150300 METAR LMML NIL=
201010150245 METAR LMML 150245Z 29008KT 260V320 9999 FEW025 20/16 Q1009
                        NOSIG=
201010150230 METAR LMML NIL=
201010150215 METAR LMML 150215Z 29008KT 9999 FEW025 20/16 Q1009 NOSIG=
201010150200 METAR LMML NIL=
201010150145 METAR LMML 150145Z 29008KT 9999 FEW025 20/16 Q1009 NOSIG=
201010150130 METAR LMML NIL=
201010150115 METAR LMML 150115Z 29009KT 9999 FEW025 20/16 Q1009 NOSIG=
201010150100 METAR LMML NIL=
201010150045 METAR LMML 150045Z 28008KT 260V320 9999 FEW025 20/16 Q1009
                        NOSIG=
201010150015 METAR LMML 150015Z 29007KT 9999 FEW020 20/16 Q1009 NOSIG=
201010150000 METAR LMML NIL=
201010142345 METAR LMML 142345Z 29008KT 9999 FEW020 20/16 Q1010 NOSIG=
201010142330 METAR LMML NIL=
201010142315 METAR LMML 142315Z 29010KT CAVOK 20/16 Q1010 NOSIG=
201010142245 METAR LMML 142245Z 29011KT CAVOK 20/16 Q1010 NOSIG=
201010142230 METAR LMML NIL=
201010142215 METAR LMML 142215Z 29011KT 9999 FEW020 20/16 Q1010 NOSIG=
201010142200 METAR LMML NIL=
201010142145 METAR LMML 142145Z 29009KT 9999 FEW020 20/16 Q1010 NOSIG=
201010142130 METAR LMML NIL=
201010142115 METAR LMML 142115Z 29010KT 9999 FEW020 21/16 Q1010 NOSIG=
201010142045 METAR LMML 142045Z 30012KT 270V330 CAVOK 21/16 Q1010 NOSIG=
201010142030 METAR LMML NIL=
201010142015 METAR LMML 142015Z 30012KT CAVOK 21/16 Q1010 NOSIG=
201010141945 METAR LMML 141945Z 29012KT CAVOK 21/16 Q1010 NOSIG=
201010141930 METAR LMML NIL=
201010141915 METAR LMML 141915Z 30012KT CAVOK 21/15 Q1009 NOSIG=
201010141900 METAR LMML NIL=
201010141845 METAR LMML 141845Z 30012KT CAVOK 21/16 Q1009 NOSIG=
201010141830 METAR LMML NIL=
201010141815 METAR LMML 141815Z 30012KT CAVOK 21/16 Q1009 NOSIG=
201010141745 METAR LMML 141745Z 30010KT CAVOK 21/17 Q1009 NOSIG=
201010141730 METAR LMML NIL=
201010141715 METAR LMML 141715Z 30010KT 9999 FEW020 21/17 Q1008 NOSIG=
201010141645 METAR LMML 141645Z 31011KT 9999 FEW020 21/16 Q1008 NOSIG=
201010141630 METAR LMML NIL=
201010141615 METAR LMML 141615Z 31011KT 9999 FEW020 22/16 Q1008 NOSIG=
201010141545 METAR LMML 141545Z 31014KT 280V340 9999 FEW020 22/16 Q1008
                        NOSIG=
201010141530 METAR LMML NIL=
201010141515 METAR LMML 141515Z 32012KT 9999 FEW020 23/15 Q1007 NOSIG=
201010141500 METAR LMML NIL=
201010141445 METAR LMML 141445Z 33014KT 9999 FEW020 23/17 Q1007 NOSIG=
201010141430 METAR LMML NIL=
201010141415 METAR LMML 141415Z 33011KT 9999 FEW021TCU 23/18 Q1007 NOSIG=
201010141400 METAR LMML NIL=
201010141345 METAR LMML 141345Z 33012KT 9999 FEW020 23/18 Q1007 NOSIG=
201010141330 METAR LMML NIL=
201010141315 METAR LMML 141315Z 34010KT 310V010 9999 SCT015 SCT080 23/19
                        Q1006 TEMPO 8000 SHRA BKN015TCU=
201010141300 METAR LMML NIL=
201010141245 METAR LMML 141245Z 34011KT 9999 SCT015TCU 23/20 Q1006 TEMPO
                        8000 SHRA BKN015TCU=
201010141230 METAR LMML NIL=
201010141215 METAR LMML 141215Z 33009KT 300V360 9999 SCT019 25/20 Q1006
                        NOSIG=
201010141200 METAR LMML NIL=
201010141145 METAR LMML 141145Z 29009KT 240V330 9999 FEW030 26/18 Q1006
                        NOSIG=
201010141130 METAR LMML NIL=
201010141115 METAR LMML 141115Z 28009KT 220V310 9999 FEW020 26/16 Q1006
                        NOSIG=
201010141100 METAR LMML NIL=
201010141045 METAR LMML 141045Z 26008KT 210V300 9999 FEW020 26/17 Q1007
                        NOSIG=
201010141030 METAR LMML NIL=
201010141015 METAR LMML 141015Z 26011KT 210V310 9999 FEW020 26/18 Q1007
                        NOSIG=
201010141000 METAR LMML NIL=
201010140945 METAR LMML 140945Z 25011KT 210V290 9999 FEW020 25/18 Q1007
                        NOSIG=
201010140930 METAR LMML NIL=
201010140915 METAR LMML 140915Z 25011KT 200V280 9999 FEW020 25/17 Q1007
                        NOSIG=
201010140900 METAR LMML NIL=
201010140845 METAR LMML 140845Z 24009KT 210V290 9999 FEW020 24/18 Q1007
                        NOSIG=
201010140830 METAR LMML NIL=
201010140815 METAR LMML 140815Z 24011KT 200V280 9999 FEW020 SCT120 24/18
                        Q1006 NOSIG=
201010140800 METAR LMML NIL=
201010140745 METAR LMML 140745Z 24009KT 190V300 9999 FEW020 SCT120 24/19
                        Q1006 NOSIG=
201010140730 METAR LMML NIL=
201010140715 METAR LMML 140715Z 25008KT 190V280 9999 FEW020 24/19 Q1006
                        NOSIG=
201010140700 METAR LMML NIL=
201010140645 METAR LMML 140645Z 23006KT 200V270 9999 FEW015 24/18 Q1006
                        NOSIG=
201010140630 METAR LMML NIL=
201010140615 METAR LMML 140615Z 23006KT 200V280 9999 FEW015 23/17 Q1005
                        NOSIG=
201010140600 METAR LMML NIL=
201010140545 METAR LMML 140545Z 24005KT 210V270 9999 FEW015 22/17 Q1005
                        NOSIG=
201010140530 METAR LMML NIL=
201010140515 METAR COR LMML 140515Z 24005KT 9999 FEW015 22/17 Q1005 NOSIG=
201010140500 METAR LMML NIL=
201010140445 METAR LMML 140445Z 23006KT 200V270 9999 FEW015 22/17 Q1005
                        NOSIG=
201010140415 METAR LMML 140415Z 24005KT CAVOK 22/18 Q1005 NOSIG=
201010140400 METAR LMML NIL=
201010140345 METAR LMML 140345Z 24006KT 200V280 CAVOK 22/17 Q1005 NOSIG=
201010140330 METAR LMML NIL=
201010140315 METAR LMML 140315Z 24007KT 200V270 CAVOK 22/18 Q1005 NOSIG=
201010140300 METAR LMML NIL=
201010140245 METAR LMML 140245Z 23004KT 190V270 9999 FEW015 22/20 Q1005
                        NOSIG=
201010140230 METAR LMML NIL=
201010140215 METAR LMML 140215Z 21004KT 9999 FEW015 22/21 Q1005 NOSIG=
201010140200 METAR LMML NIL=
201010140145 METAR LMML 140145Z 21005KT 180V240 9999 FEW015 21/21 Q1006
                        NOSIG=
201010140130 METAR LMML NIL=
201010140115 METAR LMML 140115Z 21003KT CAVOK 21/20 Q1006 NOSIG=
201010140100 METAR LMML NIL=
201010140045 METAR LMML 140045Z 21003KT CAVOK 21/21 Q1006 NOSIG=
201010140030 METAR LMML NIL=
201010140015 METAR LMML 140015Z 22003KT CAVOK 21/20 Q1006 NOSIG=
201010140000 METAR LMML NIL=
201010132345 METAR LMML 132345Z 22003KT CAVOK 21/20 Q1006 NOSIG=
201010132330 METAR LMML NIL=
201010132315 METAR LMML 132315Z VRB02KT 9999 FEW014 21/20 Q1007 NOSIG=
201010132300 METAR LMML NIL=
201010132245 METAR LMML 132245Z VRB02KT 9999 FEW014 21/20 Q1007 NOSIG=
201010132230 METAR LMML NIL=
201010132215 METAR LMML 132215Z 26003KT 9999 FEW014 21/20 Q1007 NOSIG=
201010132200 METAR LMML NIL=
201010132145 METAR LMML 132145Z 27003KT 9999 FEW014 22/20 Q1007 NOSIG=
201010132130 METAR LMML NIL=
201010132115 METAR LMML 132115Z 26003KT CAVOK 22/20 Q1008 NOSIG=
201010132100 METAR LMML NIL=
201010132045 METAR LMML 132045Z 28005KT CAVOK 22/20 Q1007 NOSIG=
201010132030 METAR LMML NIL=
201010132015 METAR LMML 132015Z 29005KT 9999 FEW014 22/20 Q1008 NOSIG=
201010132000 METAR LMML NIL=
201010131945 METAR LMML 131945Z 27005KT 240V310 9999 FEW014 22/21 Q1007
                        NOSIG=
201010131930 METAR LMML NIL=
201010131915 METAR LMML 131915Z 25004KT 220V280 9999 FEW014 23/21 Q1007
                        NOSIG=
201010131900 METAR LMML NIL=
201010131845 METAR LMML 131845Z 24005KT 200V280 9999 FEW014 23/21 Q1007
                        NOSIG=
201010131830 METAR LMML NIL=
201010131815 METAR LMML 131815Z 25004KT 220V280 9999 FEW014 23/21 Q1007
                        NOSIG=
201010131800 METAR LMML NIL=
201010131745 METAR LMML 131745Z 24004KT 200V270 CAVOK 23/21 Q1006 NOSIG=
201010131730 METAR LMML NIL=
201010131715 METAR LMML 131715Z 25004KT 210V290 CAVOK 23/21 Q1006 NOSIG=
201010131700 METAR LMML NIL=
201010131645 METAR LMML 131645Z 24006KT 200V270 9999 FEW015 23/21 Q1006
                        NOSIG=
201010131630 METAR LMML NIL=
201010131615 METAR LMML 131615Z 24006KT 210V290 9999 FEW020 SCT080 23/20
                        Q1006 NOSIG=
201010131600 METAR LMML NIL=
201010131545 METAR LMML 131545Z 24007KT 210V280 9999 FEW020 BKN250 24/20
                        Q1006 NOSIG=
201010131530 METAR LMML NIL=
201010131515 METAR LMML 131515Z 23008KT 200V280 CAVOK 24/20 Q1006 NOSIG=
201010131500 METAR LMML NIL=
201010131445 METAR LMML 131445Z 23008KT 200V270 CAVOK 24/20 Q1006 NOSIG=
201010131430 METAR LMML NIL=
201010131415 METAR LMML 131415Z 23007KT 160V310 CAVOK 24/20 Q1006 NOSIG=
201010131400 METAR LMML NIL=
201010131345 METAR LMML 131345Z 22006KT 200V270 CAVOK 25/20 Q1006 NOSIG=
201010131330 METAR LMML NIL=
201010131315 METAR LMML 131315Z 22007KT 200V270 CAVOK 25/20 Q1006 NOSIG=
201010131300 METAR LMML NIL=
201010131245 METAR LMML 131245Z 21007KT 180V250 CAVOK 24/20 Q1006 NOSIG=
201010131230 METAR LMML NIL=
201010131215 METAR LMML 131215Z 21006KT 170V270 CAVOK 25/20 Q1006 NOSIG=
201010131200 METAR LMML NIL=
201010131145 METAR LMML 131145Z 20009KT 160V240 CAVOK 24/19 Q1006 NOSIG=
201010131130 METAR LMML NIL=
201010131115 METAR LMML 131115Z 19009KT 160V240 CAVOK 25/20 Q1007 NOSIG=
201010131100 METAR LMML NIL=
201010131045 METAR LMML 131045Z 18006KT 160V220 CAVOK 25/20 Q1007 NOSIG=
201010131030 METAR LMML NIL=
201010131015 METAR LMML 131015Z 19006KT 160V220 CAVOK 24/19 Q1007 NOSIG=
201010131000 METAR LMML NIL=
201010130945 METAR LMML 130945Z 19007KT 170V230 CAVOK 24/18 Q1006 NOSIG=
201010130930 METAR LMML NIL=
201010130915 METAR LMML 130915Z 17009KT 140V220 CAVOK 24/19 Q1007 NOSIG=
201010130900 METAR LMML NIL=
201010130845 METAR LMML 130845Z 20008KT 140V250 9000 -RA FEW038 BKN090
                        BKN130 23/18 Q1008 NOSIG=
201010130830 METAR LMML NIL=
201010130815 METAR LMML 130815Z 19006KT 160V240 9000 -RA FEW035 BKN100
                        BKN130 23/18 Q1008 TEMPO 5000 TSRA
                        BKN050CB=
201010130800 METAR LMML NIL=
201010130745 METAR LMML 130745Z 19007KT 9000 NSC 23/19 Q1007 TEMPO RA=
201010130730 METAR LMML NIL=
201010130715 METAR LMML 130715Z 19006KT 9000 NSC 23/19 Q1006 TEMPO RA=
201010130645 METAR LMML 130645Z 21005KT 180V250 9000 NSC 22/18 Q1006 TEMPO
                        RA=
201010130630 METAR LMML NIL=
201010130615 METAR LMML 130615Z 24006KT 200V310 9000 FEW035 SCT080 BKN110
                        22/17 Q1006 TEMPO RA=
201010130600 METAR LMML NIL=
201010130545 METAR LMML 130545Z 24008KT 210V280 9000 SCT038 SCT090 OVC120
                        22/17 Q1006 NOSIG=
201010130530 METAR LMML NIL=
201010130515 METAR LMML 130515Z 26012KT 230V300 9000 FEW038 SCT090 OVC130
                        22/17 Q1006 NOSIG=
201010130500 METAR LMML NIL=
201010130445 METAR LMML 130445Z 23015KT 190V270 9000 RA FEW037 BKN120
                        23/19 Q1007 NOSIG=
201010130430 METAR LMML NIL=
201010130415 METAR LMML 130415Z 20007KT 160V230 9000 FEW035 SCT110 BKN250
                        24/20 Q1006 NOSIG=
201010130400 METAR LMML NIL=
201010130345 METAR LMML 130345Z 21006KT 180V250 6000 FEW035 SCT100 BKN250
                        24/19 Q1006 NOSIG=
201010130315 METAR LMML 130315Z 19006KT 6000 FEW038 SCT110 BKN250 24/21
                        Q1006 NOSIG=
201010130300 METAR LMML NIL=
201010130245 METAR LMML 130245Z 18003KT 6000 RA FEW036 BKN110 24/22 Q1005
                        NOSIG=
201010130230 METAR LMML NIL=
201010130215 METAR LMML 130215Z 18006KT 6000 FEW004 SCT120 BKN250 23/23
                        Q1006 NOSIG=
201010130200 METAR LMML NIL=
201010130145 METAR LMML 130145Z 18006KT 6000 FEW004 BKN250 23/23 Q1006
                        NOSIG=
201010130130 METAR LMML NIL=
201010130115 METAR LMML 130115Z 16005KT 5000 FEW004 BKN250 23/23 Q1007
                        NOSIG=
201010130045 METAR LMML 130045Z 17006KT 140V210 5000 BKN004 23/23 Q1007
                        NOSIG=
201010130030 METAR LMML NIL=
201010130015 METAR LMML 130015Z 10005KT 070V130 5000 BKN004 23/23 Q1006
                        NOSIG=
201010130000 METAR LMML NIL=
201010122345 METAR LMML 122345Z 14005KT 5000 BKN004 SCT010 23/23 Q1007
                        NOSIG=
201010122315 METAR LMML 122315Z 11006KT 080V140 5000 BKN004 SCT010 23/23
                        Q1006 NOSIG=
201010122300 METAR LMML NIL=
201010122245 METAR LMML 122245Z 11007KT 5000 BKN004 23/23 Q1007 NOSIG=
201010122215 METAR LMML 122215Z 09008KT 5000 BKN004 23/23 Q1007 NOSIG=
201010122200 METAR LMML NIL=
201010122145 METAR LMML 122145Z 09008KT 060V120 5000 BKN004 23/23 Q1007
                        NOSIG=
201010122130 METAR LMML NIL=
201010122115 METAR LMML 122115Z 06006KT 030V120 5000 BKN004 23/23 Q1007
                        NOSIG=
201010122100 METAR LMML NIL=
201010122045 METAR LMML 122045Z 07007KT 030V100 5000 BKN003 23/23 Q1007
                        NOSIG=
201010122030 METAR LMML NIL=
201010122015 METAR LMML 122015Z 07006KT 030V090 5000 BKN004 23/23 Q1007
                        NOSIG=
201010122000 METAR LMML NIL=
201010121945 METAR LMML 121945Z 07006KT 020V100 5000 BKN004 23/23 Q1007
                        NOSIG=
201010121915 METAR LMML 121915Z 09007KT 5000 BKN005 23/22 Q1007 NOSIG=
201010121900 METAR LMML NIL=
201010121845 METAR LMML 121845Z 09009KT 6000 BKN004 23/23 Q1006 NOSIG=
201010121830 METAR LMML NIL=
201010121815 METAR LMML 121815Z 07008KT 040V100 6000 BKN004 23/23 Q1006
                        NOSIG=
201010121800 METAR LMML NIL=
201010121745 METAR LMML 121745Z 09007KT 050V130 6000 BKN004 23/23 Q1006
                        NOSIG=
201010121730 METAR LMML NIL=
201010121715 METAR LMML 121715Z 08008KT 6000 BKN004 23/23 Q1006 BECMG
                        5000 BR BKN003=
201010121700 METAR LMML NIL=
201010121645 METAR LMML 121645Z 07009KT 040V100 6000 BKN004 SCT130 23/23
                        Q1006 BECMG 5000 BR BKN003=
201010121630 METAR LMML NIL=
201010121615 METAR LMML 121615Z 07009KT 040V110 6000 BKN004 BKN130 24/22
                        Q1005 NOSIG=
201010121545 METAR LMML 121545Z 07010KT 040V110 7000 BKN004 OVC130 24/23
                        Q1005 NOSIG=
201010121530 METAR LMML NIL=
201010121515 METAR LMML 121515Z 07010KT 030V100 7000 BKN005 BKN130 24/23
                        Q1005 NOSIG=
201010121500 METAR LMML NIL=
201010121445 METAR LMML 121445Z 08010KT 040V100 7000 BKN006 BKN130 24/23
                        Q1005 NOSIG=
201010121430 METAR LMML NIL=
201010121415 METAR LMML 121415Z 08009KT 050V110 7000 BKN005 OVC130 24/23
                        Q1005 NOSIG=
201010121400 METAR LMML NIL=
201010121345 METAR LMML 121345Z 08010KT 050V110 7000 BKN005 BKN130 24/23
                        Q1006 NOSIG=
201010121330 METAR LMML NIL=
201010121315 METAR LMML 121315Z 08011KT 050V110 7000 BKN006 BKN130 24/23
                        Q1005 NOSIG=
201010121245 METAR LMML 121245Z 07011KT 030V110 7000 BKN006 BKN130 24/23
                        Q1006 NOSIG=
201010121230 METAR LMML NIL=
201010121215 METAR LMML 121215Z 06013KT 040V100 7000 BKN006 BKN130 25/23
                        Q1005 NOSIG=
201010121200 METAR LMML NIL=
201010121145 METAR LMML 121145Z 07011KT 030V110 7000 BKN006 BKN130 25/23
                        Q1005 NOSIG=
201010121130 METAR LMML NIL=
201010121115 METAR LMML 121115Z 07012KT 030V100 8000 BKN006 BKN130 25/23
                        Q1005 NOSIG=
201010121045 METAR LMML 121045Z 06011KT 030V090 8000 BKN007 BKN130 25/23
                        Q1005 NOSIG=
201010121030 METAR LMML NIL=
201010121015 METAR LMML 121015Z 06011KT 010V090 8000 BKN006 BKN130 25/23
                        Q1006 NOSIG=
201010121000 METAR LMML NIL=
201010120945 METAR LMML 120945Z 07012KT 040V100 8000 BKN006 BKN130 24/23
                        Q1006 NOSIG=
201010120930 METAR LMML NIL=
201010120915 METAR LMML 120915Z 09011KT 050V120 8000 BKN006 BKN130 24/23
                        Q1006 NOSIG=
201010120900 METAR LMML NIL=
201010120845 METAR LMML 120845Z 08011KT 040V120 9999 BKN007 BKN130 24/22
                        Q1006 NOSIG=
201010120815 METAR LMML 120815Z 08009KT 050V110 9999 BKN008 BKN130 24/22
                        Q1006 NOSIG=
201010120800 METAR LMML NIL=
201010120745 METAR LMML 120745Z 08011KT 040V120 9999 BKN008 OVC130 24/22
                        Q1006 NOSIG=
201010120730 METAR LMML NIL=
201010120715 METAR LMML 120715Z 08010KT 050V120 9999 BKN009 OVC130 23/22
                        Q1006 NOSIG=
201010120700 METAR LMML NIL=
201010120645 METAR LMML 120645Z 06008KT 030V090 9999 BKN010 OVC130 23/22
                        Q1006 NOSIG=
201010120630 METAR LMML NIL=
201010120615 METAR LMML 120615Z 05007KT 020V090 9999 FEW008 SCT120 OVC130
                        23/22 Q1006 NOSIG=
201010120600 METAR LMML NIL=
201010120545 METAR LMML 120545Z 06009KT 9000 FEW011 SCT100 BKN120 23/21
                        Q1005 NOSIG=
201010120530 METAR LMML NIL=
201010120515 METAR LMML 120515Z 09004KT 360V150 9000 FEW011 SCT020 BKN120
                        23/21 Q1006 NOSIG=
201010120500 METAR LMML NIL=
201010120445 METAR LMML 120445Z 05007KT 020V100 9999 FEW020 SCT120 BKN150
                        23/21 Q1005 NOSIG=
201010120430 METAR LMML NIL=
201010120415 METAR LMML 120415Z 05004KT 350V090 CAVOK 23/21 Q1005 NOSIG=
201010120400 METAR LMML NIL=
201010120345 METAR LMML 120345Z 04007KT CAVOK 23/21 Q1005 NOSIG=
201010120330 METAR LMML NIL=
201010120315 METAR LMML 120315Z 04007KT CAVOK 23/21 Q1005 NOSIG=
201010120300 METAR LMML NIL=
201010120245 METAR LMML 120245Z 04006KT 010V070 CAVOK 23/21 Q1005 NOSIG=
201010120230 METAR LMML NIL=
201010120215 METAR LMML 120215Z 06006KT 020V090 CAVOK 23/22 Q1005 NOSIG=
201010120200 METAR LMML NIL=
201010120145 METAR LMML 120145Z 08006KT CAVOK 23/22 Q1005 NOSIG=
201010120130 METAR LMML NIL=
201010120115 METAR LMML 120115Z 06006KT 030V090 CAVOK 23/23 Q1005 NOSIG=
201010120100 METAR LMML NIL=
201010120045 METAR LMML 120045Z 06004KT 020V140 CAVOK 23/23 Q1006 NOSIG=
201010120030 METAR LMML NIL=
201010120015 METAR LMML 120015Z 06005KT 030V100 CAVOK 23/23 Q1006 NOSIG=
201010120000 METAR LMML NIL=
201010112345 METAR LMML 112345Z 09004KT CAVOK 23/23 Q1006 NOSIG=
201010112330 METAR LMML NIL=
201010112315 METAR LMML 112315Z 03003KT CAVOK 22/22 Q1006 NOSIG=
201010112300 METAR LMML NIL=
201010112245 METAR LMML 112245Z VRB02KT CAVOK 23/22 Q1007 NOSIG=
201010112230 METAR LMML NIL=
201010112215 METAR LMML 112215Z VRB02KT CAVOK 23/22 Q1007 NOSIG=
201010112145 METAR LMML 112145Z 12003KT CAVOK 22/22 Q1007 NOSIG=
201010112130 METAR LMML NIL=
201010112115 METAR LMML 112115Z VRB02KT CAVOK 22/22 Q1007 NOSIG=
201010112100 METAR LMML NIL=
201010112045 METAR LMML 112045Z VRB01KT CAVOK 22/21 Q1007 NOSIG=
201010112030 METAR LMML NIL=
201010112015 METAR LMML 112015Z 13003KT CAVOK 23/21 Q1006 NOSIG=
201010112000 METAR LMML NIL=
201010111945 METAR LMML 111945Z 09004KT 050V130 CAVOK 23/21 Q1006 NOSIG=
201010111930 METAR LMML NIL=
201010111915 METAR LMML 111915Z VRB01KT CAVOK 23/21 Q1006 NOSIG=
201010111900 METAR LMML NIL=
201010111845 METAR LMML 111845Z VRB01KT CAVOK 23/21 Q1005 NOSIG=
201010111830 METAR LMML NIL=
201010111815 METAR LMML 111815Z VRB01KT CAVOK 23/21 Q1005 NOSIG=
201010111800 METAR LMML NIL=
201010111745 METAR LMML 111745Z VRB01KT CAVOK 24/21 Q1005 NOSIG=
201010111730 METAR LMML NIL=
201010111715 METAR LMML 111715Z VRB02KT CAVOK 24/21 Q1005 NOSIG=
201010111700 METAR LMML NIL=
201010111645 METAR LMML 111645Z VRB02KT CAVOK 24/21 Q1005 NOSIG=
201010111630 METAR LMML NIL=
201010111615 METAR LMML 111615Z 19003KT CAVOK 24/21 Q1005 NOSIG=
201010111600 METAR LMML NIL=
201010111545 METAR LMML 111545Z 19004KT CAVOK 25/20 Q1005 NOSIG=
201010111530 METAR LMML NIL=
201010111515 METAR LMML 111515Z 24003KT CAVOK 25/21 Q1005 NOSIG=
201010111500 METAR LMML NIL=
201010111445 METAR LMML 111445Z VRB02KT CAVOK 25/21 Q1005 NOSIG=
201010111430 METAR LMML NIL=
201010111415 METAR LMML 111415Z 20005KT 170V240 CAVOK 25/21 Q1005 NOSIG=
201010111400 METAR LMML NIL=
201010111345 METAR LMML 111345Z 23006KT 200V280 CAVOK 25/20 Q1005 NOSIG=
201010111330 METAR LMML NIL=
201010111329 SPECI LMML 111329Z 23006KT 200V290 CAVOK 25/20 Q1005 NOSIG=
201010111300 METAR LMML NIL=
201010111245 METAR LMML 111245Z 22006KT 170V260 CAVOK 25/21 Q1005 NOSIG=
201010111230 METAR LMML NIL=
201010111215 METAR LMML 111215Z 21005KT 180V260 CAVOK 25/22 Q1005 NOSIG=
201010111200 METAR LMML NIL=
201010111145 METAR LMML 111145Z 20005KT 160V240 CAVOK 25/22 Q1005 NOSIG=
201010111130 METAR LMML NIL=
201010111115 METAR LMML 111115Z 20005KT 170V240 9999 -RA NSC 25/21 Q1005
                        NOSIG=
201010111100 METAR LMML NIL=
201010111045 METAR LMML 111045Z 20005KT 160V260 CAVOK 25/22 Q1005 NOSIG=
201010111030 METAR LMML NIL=
201010111015 METAR LMML 111015Z 18004KT 150V230 9999 FEW020 BKN200 25/22
                        Q1005 NOSIG=
201010111000 METAR LMML NIL=
201010110945 METAR LMML 110945Z 17003KT CAVOK 24/22 Q1005 NOSIG=
201010110930 METAR LMML NIL=
201010110915 METAR LMML 110915Z VRB02KT CAVOK 24/22 Q1005 NOSIG=
201010110900 METAR LMML NIL=
201010110845 METAR LMML 110845Z 12004KT 090V150 CAVOK 23/21 Q1005 NOSIG=
201010110830 METAR LMML NIL=
201010110815 METAR LMML 110815Z 10005KT CAVOK 22/21 Q1005 NOSIG=
201010110800 METAR LMML NIL=
201010110745 METAR LMML 110745Z 10006KT 9999 RA FEW040 BKN100 21/20 Q1004
                        NOSIG=
201010110730 METAR LMML NIL=
201010110715 METAR LMML 110715Z 10007KT 070V220 9999 RA FEW044 BKN100
                        21/19 Q1004 NOSIG=
201010110700 METAR LMML NIL=
201010110645 METAR LMML 110645Z 08007KT 050V110 9999 FEW030 BKN110 20/19
                        Q1004 NOSIG=
201010110630 METAR LMML NIL=
201010110615 METAR LMML 110615Z 08006KT 040V200 9999 FEW032 BKN100 20/19
                        Q1004 NOSIG=
201010110600 METAR LMML NIL=
201010110545 METAR LMML 110545Z 08008KT 050V110 9999 FEW007 BKN110 20/19
                        Q1004 NOSIG=
201010110530 METAR LMML NIL=
201010110515 METAR LMML 110515Z 08006KT 040V110 9999 FEW007 BKN110 20/19
                        Q1004 TEMPO 8000 RA BKN005 BKN080=
201010110500 METAR LMML NIL=
201010110445 METAR LMML 110445Z 04007KT 010V070 5000 FEW006 SCT090 BKN120
                        19/19 Q1004 TEMPO 8000 RA BKN005
                        BKN080=
201010110430 METAR LMML NIL=
201010110415 METAR LMML 110415Z 01006KT 5000 SCT004 BKN110 19/18 Q1004
                        TEMPO 3000 TSRA BKN005 BKN012CB=
201010110400 METAR LMML NIL=
201010110345 METAR LMML 110345Z 36007KT 330V030 4000 -TSRA BKN005 BKN012CB
                        19/18 Q1005 TEMPO 3000 TSRA BKN005
                        BKN012CB=
201010110330 METAR LMML NIL=
201010110315 METAR LMML 110315Z 01007KT 350V050 6000 -TSRA SCT007 BKN012CB
                        20/18 Q1005 TEMPO 3000 TSRA BKN005
                        BKN012CB=
201010110300 METAR LMML NIL=
201010110245 METAR LMML 110245Z 02008G18KT 350V090 9999 SCT008 BKN070
                        22/19 Q1005 TEMPO 6000 TSRA BKN005
                        BKN020CB=
201010110230 METAR LMML NIL=
201010110215 METAR LMML 110215Z 19005KT 150V240 9999 FEW019 SCT041 BKN100
                        24/22 Q1004 TEMPO 6000 TSRA BKN005
                        BKN020CB RMK LIGHTNING TO N NW=
201010110200 METAR LMML NIL=
201010110145 METAR LMML 110145Z 18005KT 140V210 9999 SCT021 SCT050 BKN090
                        24/21 Q1004 TEMPO 6000 TSRA BKN005
                        BKN020CB=
201010110130 METAR LMML NIL=
201010110115 METAR LMML 110115Z 18005KT 150V210 9999 FEW024 BKN050 24/21
                        Q1005 TEMPO 6000 TSRA BKN005 BKN020CB=
201010110100 METAR LMML NIL=
201010110045 METAR LMML 110045Z 18005KT 9999 -RA BKN014 BKN080 24/21 Q1005
                        TEMPO 6000 TSRA BKN005 BKN020CB=
201010110030 METAR LMML NIL=
201010110015 METAR LMML 110015Z 16005KT 110V190 9999 BKN014 BKN080 24/21
                        Q1005 TEMPO 6000 TSRA BKN005 BKN020CB=
201010110000 METAR LMML NIL=
201010102345 METAR LMML 102345Z 19004KT 150V230 9999 BKN014 BKN080 24/21
                        Q1006 TEMPO 6000 TSRA BKN005 BKN020CB=
201010102330 METAR LMML NIL=
201010102315 METAR LMML 102315Z 15009KT 120V180 9999 -RA BKN014 BKN100
                        24/21 Q1005 TEMPO 6000 TSRA BKN005
                        BKN020CB=
201010102300 METAR LMML NIL=
201010102245 METAR LMML 102245Z 15006KT 110V190 9999 BKN014 BKN100 24/21
                        Q1006 TEMPO 6000 TSRA BKN005 BKN020CB=
201010102230 METAR LMML NIL=
201010102215 METAR LMML 102215Z 15008KT 110V200 9999 BKN014 BKN090 24/21
                        Q1005 TEMPO 6000 TSRA BKN005 BKN020CB=
201010102200 METAR LMML NIL=
201010102145 METAR LMML 102145Z 15012KT 110V180 9999 BKN014 BKN090 24/21
                        Q1005 TEMPO 6000 TSRA BKN005 BKN020CB=
201010102130 METAR LMML NIL=
201010102115 METAR LMML 102115Z 15013KT 9999 BKN013 BKN090 24/21 Q1006
                        TEMPO 6000 TSRA BKN005 BKN020CB=
201010102100 METAR LMML NIL=
201010102045 METAR LMML 102045Z 15014KT 9999 BKN013 BKN090 24/21 Q1005
                        TEMPO 6000 TSRA BKN005 BKN020CB=
201010102030 METAR LMML NIL=
201010102015 METAR LMML 102015Z 15014KT 120V180 9999 BKN012 BKN090 24/21
                        Q1006 TEMPO 6000 TSRA BKN005 BKN020CB=
201010102000 METAR LMML NIL=
201010101945 METAR LMML 101945Z 15015KT 9999 BKN013 BKN090 24/21 Q1006
                        TEMPO 6000 TSRA BKN005 BKN020CB=
201010101930 METAR LMML NIL=
201010101915 METAR LMML 101915Z 16014KT 130V190 9999 BKN014 SCT130 BKN250
                        24/21 Q1006 TEMPO 6000 TSRA BKN005
                        BKN020CB=
201010101845 METAR LMML 101845Z 15015KT 9999 BKN015 SCT250 24/21 Q1006
                        NOSIG=
201010101830 METAR LMML NIL=
201010101815 METAR LMML 101815Z 16014KT 9999 BKN015 SCT090 24/21 Q1006
                        NOSIG=
201010101800 METAR LMML NIL=
201010101745 METAR LMML 101745Z 15014KT 120V180 9999 BKN015 SCT090 BKN250
                        24/21 Q1006 NOSIG=
201010101730 METAR LMML NIL=
201010101715 METAR LMML 101715Z 15014KT 9999 BKN015 SCT090 BKN250 24/21
                        Q1006 NOSIG=
201010101645 METAR LMML 101645Z 15012KT 120V180 9999 BKN015 SCT090 BKN250
                        23/21 Q1006 NOSIG=
201010101630 METAR LMML NIL=
201010101615 METAR LMML 101615Z 15013KT 120V180 9999 BKN015 SCT090 BKN250
                        23/20 Q1006 NOSIG=
201010101600 METAR LMML NIL=
201010101545 METAR LMML 101545Z 14014KT 120V180 9999 BKN015 BKN250 23/20
                        Q1006 NOSIG=
201010101530 METAR LMML NIL=
201010101515 METAR LMML 101515Z 14013KT 9999 BKN016 BKN250 23/20 Q1006
                        TEMPO BKN015=
201010101500 METAR LMML NIL=
201010101445 METAR LMML 101445Z 14013KT 110V170 9999 BKN017 BKN250 24/20
                        Q1007 TEMPO BKN015=
201010101430 METAR LMML NIL=
201010101415 METAR LMML 101415Z 14011KT 100V180 9999 BKN019 BKN250 24/20
                        Q1007 NOSIG=
201010101400 METAR LMML NIL=
201010101345 METAR LMML 101345Z 13014KT 9999 BKN017 BKN250 24/21 Q1007
                        TEMPO BKN015=
201010101330 METAR LMML NIL=
201010101315 METAR LMML 101315Z 13015KT 100V160 9999 BKN018 BKN250 23/20
                        Q1008 NOSIG=
201010101300 METAR LMML NIL=
201010101245 METAR LMML 101245Z 13016KT 9999 BKN016 BKN250 24/20 Q1008
                        NOSIG=
201010101230 METAR LMML NIL=
201010101215 METAR LMML 101215Z 13016KT 9999 BKN012 BKN250 23/20 Q1008
                        NOSIG=
201010101200 METAR LMML NIL=
201010101145 METAR LMML 101145Z 12016KT 9999 SCT013 BKN250 23/20 Q1009
                        TEMPO BKN013=
201010101130 METAR LMML NIL=
201010101115 METAR LMML 101115Z 12016KT 9999 SCT015 BKN250 24/20 Q1009
                        NOSIG=
201010101100 METAR LMML NIL=
201010101045 METAR LMML 101045Z 12017KT 9999 SCT014 BKN250 23/20 Q1009
                        TEMPO BKN014=
201010101030 METAR LMML NIL=
201010101015 METAR LMML 101015Z 12014KT 9999 BKN015 BKN250 23/20 Q1009
                        NOSIG=
201010101000 METAR LMML NIL=
201010100945 METAR LMML 100945Z 12015KT 9999 SCT016 SCT250 23/20 Q1009
                        TEMPO BKN015=
201010100930 METAR LMML NIL=
201010100915 METAR LMML 100915Z 13015KT 9999 FEW017 BKN250 23/19 Q1010
                        NOSIG=
201010100900 METAR LMML NIL=
201010100845 METAR LMML 100845Z 14012KT 110V170 9999 FEW016 23/19 Q1010
                        NOSIG=
201010100830 METAR LMML NIL=
201010100815 METAR LMML 100815Z 14014KT 110V170 9999 FEW017 SCT100 23/19
                        Q1010 NOSIG=
201010100800 METAR LMML NIL=
201010100745 METAR LMML 100745Z 14014KT 110V170 9999 FEW018 SCT070 22/18
                        Q1010 NOSIG=
201010100730 METAR LMML NIL=
201010100715 METAR LMML 100715Z 13012KT 9999 FEW016 SCT060 22/19 Q1010
                        NOSIG=
201010100700 METAR LMML NIL=
201010100645 METAR LMML 100645Z 12010KT 9999 SCT015 BKN050 21/19 Q1010
                        NOSIG=
201010100630 METAR LMML NIL=
201010100615 METAR LMML 100615Z 13010KT 9999 -SHRA SCT019 BKN050 21/18
                        Q1010 TEMPO 8000 SHRA BKN015=
201010100600 METAR LMML NIL=
201010100545 METAR LMML 100545Z 11007KT 9999 SCT016 BKN050 21/18 Q1010
                        TEMPO 8000 SHRA BKN015=
201010100530 METAR LMML NIL=
201010100515 METAR LMML 100515Z 12008KT 9999 SCT018 BKN090 21/18 Q1010
                        TEMPO 8000 SHRA BKN015=
201010100445 METAR LMML 100445Z 12008KT 9999 FEW017 BKN090 20/18 Q1010
                        TEMPO 9000 RA=
201010100430 METAR LMML NIL=
201010100415 METAR LMML 100415Z 12007KT 9999 FEW016 BKN091 20/18 Q1010
                        TEMPO 9000 RA=
201010100400 METAR LMML NIL=
201010100345 METAR LMML 100345Z 12006KT 9999 FEW015 BKN090 20/18 Q1010
                        NOSIG=
201010100330 METAR LMML NIL=
201010100315 METAR LMML 100315Z 12008KT 9999 FEW017 SCT038 BKN090 20/18
                        Q1010 NOSIG=
201010100300 METAR LMML NIL=
201010100245 METAR LMML 100245Z 11006KT 9999 FEW015 SCT039 BKN120 20/19
                        Q1011 NOSIG=
201010100230 METAR LMML NIL=
201010100215 METAR LMML 100215Z 11004KT 9999 -RA FEW013 SCT040 BKN120
                        20/19 Q1011 NOSIG=
201010100200 METAR LMML NIL=
201010100145 METAR LMML 100145Z 09003KT 9999 FEW014 SCT120 20/18 Q1011
                        NOSIG=
201010100130 METAR LMML NIL=
201010100115 METAR LMML 100115Z 10004KT 070V130 9999 FEW016 20/18 Q1011
                        NOSIG=
201010100100 METAR LMML NIL=
201010100045 METAR LMML 100045Z 11004KT 9999 FEW016 19/17 Q1012 NOSIG=
201010100030 METAR LMML NIL=
201010100015 METAR LMML 100015Z 10005KT 9999 FEW025 19/17 Q1012 NOSIG=
201010100000 METAR LMML NIL=
201010092345 METAR LMML 092345Z 09004KT 9999 FEW036 SCT100 19/17 Q1012
                        NOSIG=
201010092330 METAR LMML NIL=
201010092315 METAR LMML 092315Z 10003KT 9999 FEW016 19/17 Q1013 NOSIG=
201010092300 METAR LMML NIL=
201010092245 METAR LMML 092245Z 11003KT 9999 FEW016 19/17 Q1013 NOSIG=
201010092230 METAR LMML NIL=
201010092215 METAR LMML 092215Z 11005KT 070V130 9999 FEW016 20/17 Q1013
                        NOSIG=
201010092200 METAR LMML NIL=
201010092145 METAR LMML 092145Z 11005KT 9999 FEW016 SCT038 20/17 Q1013
                        NOSIG=
201010092130 METAR LMML NIL=
201010092115 METAR LMML 092115Z 10006KT 9999 FEW016 BKN038 20/17 Q1013
                        NOSIG=
201010092100 METAR LMML NIL=
201010092045 METAR LMML 092045Z 10005KT 9999 FEW016 BKN035 20/18 Q1013
                        NOSIG=
201010092030 METAR LMML NIL=
201010092015 METAR LMML 092015Z 08005KT 020V120 9999 FEW016 BKN035 19/18
                        Q1013 NOSIG=
201010092000 METAR LMML NIL=
201010091945 METAR LMML 091945Z 08003KT 9999 FEW015 19/18 Q1013 NOSIG=
201010091930 METAR LMML NIL=
201010091915 METAR LMML 091915Z 07004KT 040V100 9999 FEW012 19/18 Q1013
                        NOSIG=
201010091900 METAR LMML NIL=
201010091845 METAR LMML 091845Z 07004KT 040V100 9999 FEW012 19/18 Q1013
                        NOSIG=
201010091830 METAR LMML NIL=
201010091815 METAR LMML 091815Z 06004KT 9999 FEW012 19/18 Q1013 NOSIG=
201010091800 METAR LMML NIL=
201010091745 METAR LMML 091745Z 07003KT 9999 FEW012 19/18 Q1013 NOSIG=
201010091730 METAR LMML NIL=
201010091715 METAR LMML 091715Z 08003KT 9999 FEW012 19/18 Q1013 NOSIG=
201010091700 METAR LMML NIL=
201010091645 METAR LMML 091645Z 11003KT 9999 FEW012 20/18 Q1013 TEMPO
                        SHRA=
201010091630 METAR LMML NIL=
201010091615 METAR LMML 091615Z 12004KT 090V150 9999 FEW012 SCT070 20/18
                        Q1013 TEMPO SHRA=
201010091600 METAR LMML NIL=
201010091545 METAR LMML 091545Z 16004KT 100V200 9000 FEW011 FEW020CB SCT080
                        19/18 Q1013 RESH TEMPO SHRA=
201010091530 METAR LMML NIL=
201010091515 METAR LMML 091515Z 17005KT 120V200 7000 FEW010 FEW015CB BKN080
                        19/18 Q1013 RESH TEMPO 5000 TSRA
                        BKN005 BKN015CB=
201010091500 METAR LMML NIL=
201010091445 METAR LMML 091445Z 11005KT 070V150 5000 SHRA FEW009 FEW015CB
                        BKN060 20/18 Q1014 TEMPO 5000 TSRA
                        BKN005 BKN015CB=
201010091430 METAR LMML NIL=
201010091430 SPECI LMML 091430Z 14005KT 080V190 7000 -SHRA FEW009 FEW015CB
                        BKN050 20/18 Q1015 TEMPO 5000 TSRA
                        BKN005 BKN015CB=
201010091415 METAR LMML 091415Z 14008KT 100V160 9999 SCT008 BKN050 BKN090
                        20/18 Q1014 TEMPO 5000 TSRA BKN005
                        BKN015CB=
201010091400 METAR LMML NIL=
201010091345 METAR LMML 091345Z 15008KT 9999 SCT007 BKN046 BKN090 19/18
                        Q1014 TEMPO SHRA=
201010091330 METAR LMML NIL=
201010091315 METAR LMML 091315Z 12007KT 090V160 9999 FEW007 BKN060 BKN090
                        20/19 Q1014 NOSIG=
201010091300 METAR LMML NIL=
201010091245 METAR LMML 091245Z 14006KT 9999 FEW015 SCT060 BKN090 20/19
                        Q1014 NOSIG=
201010091230 METAR LMML NIL=
201010091215 METAR LMML 091215Z 14004KT 110V170 9999 FEW015 BKN050 BKN090
                        19/19 Q1014 RETS NOSIG=
201010091200 METAR LMML NIL=
201010091145 METAR LMML 091145Z 16003KT 7000 RA FEW007 SCT015CB BKN070
                        19/18 Q1014 RETS TEMPO SHRA=
201010091130 METAR LMML NIL=
201010091115 METAR LMML 091115Z 21003KT 6000 TSRA FEW007 SCT015CB BKN080
                        19/18 Q1015 TEMPO SHRA=
201010091100 METAR LMML NIL=
201010091045 METAR LMML 091045Z VRB02KT 4500 TSRA FEW005 SCT015CB BKN080
                        19/18 Q1016 TEMPO 5000 TSRA FEW008
                        BKN015CB=
201010091030 METAR LMML NIL=
201010091015 METAR LMML 091015Z 06004KT 360V110 4000 TSRA SCT006 BKN020CB
                        19/18 Q1015 TEMPO 5000 TSRA FEW008
                        BKN015CB=
201010090945 METAR LMML 090945Z 07006KT 030V100 3500 TSRA SCT003 BKN017CB
                        19/18 Q1016 TEMPO 5000 TSRA FEW008
                        BKN015CB=
201010090930 METAR LMML NIL=
201010090915 METAR LMML 090915Z 05016KT 020V080 6000 SHRA FEW005 SCT017CB
                        BKN090 20/18 Q1015 TEMPO 5000 TSRA
                        FEW008 BKN015CB=
201010090900 METAR LMML NIL=
201010090845 METAR LMML 090845Z 20006KT 170V240 9000 SCT018CB SCT020 BKN090
                        23/19 Q1015 TEMPO SHRA=
201010090830 METAR LMML NIL=
201010090815 METAR LMML 090815Z 20005KT 160V240 9999 SCT017 SCT050 BKN090
                        23/19 Q1016 TEMPO SHRA=
201010090800 METAR LMML NIL=
201010090745 METAR LMML 090745Z 20005KT 160V270 9999 FEW022 SCT090 BKN120
                        23/19 Q1016 TEMPO SHRA=
201010090730 METAR LMML NIL=
201010090715 METAR LMML 090715Z 22008KT 190V260 9999 FEW020 SCT120 23/18
                        Q1015 TEMPO SHRA RMK CB TOPS TO NORTHEAST=
201010090700 METAR LMML NIL=
201010090645 METAR LMML 090645Z 22008KT 170V270 9999 FEW020 BKN120 22/18
                        Q1015 TEMPO SHRA=
201010090630 METAR LMML NIL=
201010090615 METAR LMML 090615Z 22006KT 190V260 9999 FEW020 BKN120 22/18
                        Q1015 TEMPO SHRA=
201010090600 METAR LMML NIL=
201010090545 METAR LMML 090545Z 22006KT 180V250 9999 FEW020 SCT070 21/18
                        Q1015 NOSIG=
201010090530 METAR LMML NIL=
201010090515 METAR LMML 090515Z 22006KT 200V280 9999 FEW016 FEW250 21/18
                        Q1015 NOSIG=
201010090500 METAR LMML NIL=
201010090445 METAR LMML 090445Z 20007KT 160V240 9999 SCT016 BKN090 22/19
                        Q1016 NOSIG=
201010090430 METAR LMML NIL=
201010090415 METAR LMML 090415Z 18005KT 160V220 9999 FEW021 SCT090 22/18
                        Q1016 NOSIG=
201010090400 METAR LMML NIL=
201010090345 METAR LMML 090345Z 20004KT 170V230 9999 SCT019 BKN100 21/18
                        Q1016 NOSIG=
201010090330 METAR LMML NIL=
201010090315 METAR LMML 090315Z 16004KT 120V190 9999 FEW020 BKN110 21/18
                        Q1016 NOSIG=
201010090300 METAR LMML NIL=
201010090245 METAR LMML 090245Z 13005KT 9999 FEW020 SCT120 20/18 Q1016
                        NOSIG=
201010090230 METAR LMML NIL=
201010090215 METAR LMML 090215Z 14005KT 9999 FEW020 BKN120 21/18 Q1016
                        NOSIG=
201010090200 METAR LMML NIL=
201010090145 METAR LMML 090145Z 14003KT 9999 FEW020 BKN080 21/18 Q1017
                        NOSIG=
201010090130 METAR LMML NIL=
201010090115 METAR LMML 090115Z 16004KT 120V190 9999 FEW020 BKN130 21/18
                        Q1017 NOSIG=
201010090100 METAR LMML NIL=
201010090045 METAR LMML 090045Z 16003KT 9999 FEW020 SCT120 20/18 Q1017
                        NOSIG=
201010090030 METAR LMML NIL=
201010090015 METAR LMML 090015Z VRB01KT 9999 FEW021 SCT120 20/18 Q1017
                        NOSIG=
201010090000 METAR LMML NIL=
201010082345 METAR LMML 082345Z 00000KT 9999 FEW020 SCT120 20/17 Q1017
                        NOSIG=
201010082330 METAR LMML NIL=
201010082315 METAR LMML 082315Z VRB01KT 9999 FEW020 SCT120 20/17 Q1017
                        NOSIG=
201010082300 METAR LMML NIL=
201010082245 METAR LMML 082245Z VRB02KT 9999 FEW020 21/18 Q1018 NOSIG=
201010082230 METAR LMML NIL=
201010082215 METAR LMML 082215Z VRB02KT 9999 FEW020 21/17 Q1018 NOSIG=
201010082145 METAR LMML 082145Z 10004KT 9999 FEW020 21/17 Q1018 NOSIG=
201010082115 METAR LMML 082115Z 10003KT 9999 FEW020 21/18 Q1018 NOSIG=
201010082045 METAR LMML 082045Z 13003KT 9999 FEW020 SCT120 21/18 Q1018
                        NOSIG=
201010082030 METAR LMML NIL=
201010082015 METAR LMML 082015Z 14003KT 9999 FEW020 21/18 Q1018 NOSIG=
201010081945 METAR LMML 081945Z VRB02KT 9999 FEW020 SCT250 21/18 Q1018
                        NOSIG=
201010081930 METAR LMML NIL=
201010081915 METAR LMML 081915Z VRB02KT 9999 FEW020 21/18 Q1018 NOSIG=
201010081900 METAR LMML NIL=
201010081845 METAR LMML 081845Z VRB02KT 9999 FEW020 21/18 Q1018 NOSIG=
201010081830 METAR LMML NIL=
201010081815 METAR LMML 081815Z 10003KT 9999 FEW020 21/18 Q1017 NOSIG=
201010081800 METAR LMML NIL=
201010081745 METAR LMML 081745Z 11004KT CAVOK 21/18 Q1017 NOSIG=
201010081730 METAR LMML NIL=
201010081715 METAR LMML 081715Z 10004KT 070V140 CAVOK 22/18 Q1017 NOSIG=
201010081700 METAR LMML NIL=
201010081645 METAR LMML 081645Z 10005KT 070V130 9999 FEW025 22/18 Q1017
                        NOSIG=
201010081630 METAR LMML NIL=
201010081615 METAR LMML 081615Z 08005KT 9999 FEW025 23/18 Q1017 NOSIG=
201010081545 METAR LMML 081545Z 08007KT 9999 FEW028 23/18 Q1017 NOSIG=
201010081530 METAR LMML NIL=
201010081515 METAR LMML 081515Z 12007KT 090V160 9999 FEW028 24/18 Q1017
                        NOSIG=
201010081500 METAR LMML NIL=
201010081445 METAR LMML 081445Z 13006KT 100V180 9999 FEW028 24/18 Q1017
                        NOSIG=
201010081430 METAR LMML NIL=
201010081415 METAR LMML 081415Z 10005KT 010V160 9999 FEW029 25/17 Q1017
                        NOSIG=
201010081345 METAR LMML 081345Z 11005KT 040V160 9999 FEW028 25/17 Q1017
                        NOSIG=
201010081330 METAR LMML NIL=
201010081315 METAR LMML 081315Z 13007KT 070V170 9999 FEW028 25/18 Q1016
                        NOSIG=
201010081300 METAR LMML NIL=
201010081245 METAR LMML 081245Z 13006KT 9999 FEW030 24/17 Q1017 NOSIG=
201010081230 METAR LMML NIL=
201010081215 METAR LMML 081215Z 13007KT 100V160 9999 FEW031 SCT120 25/18
                        Q1017 NOSIG=
201010081200 METAR LMML NIL=
201010081145 METAR LMML 081145Z 12006KT 090V160 9999 FEW030 25/17 Q1017
                        NOSIG=
201010081130 METAR LMML NIL=
201010081115 METAR LMML 081115Z 21004KT 9999 FEW029 25/17 Q1018 NOSIG=
201010081100 METAR LMML NIL=
201010081045 METAR LMML 081045Z 12005KT 070V180 9999 FEW025 25/17 Q1018
                        NOSIG=
201010081030 METAR LMML NIL=
201010081015 METAR LMML 081015Z 08005KT 030V160 9999 FEW027 25/17 Q1018
                        NOSIG=
201010080945 METAR LMML 080945Z 07005KT 320V150 9999 FEW025 25/18 Q1018
                        NOSIG=
201010080930 METAR LMML NIL=
201010080915 METAR LMML 080915Z 08006KT 020V120 9999 FEW021 25/18 Q1018
                        NOSIG=
201010080900 METAR LMML NIL=
201010080845 METAR LMML 080845Z 08006KT 020V120 9999 FEW021 24/17 Q1018
                        NOSIG=
201010080830 METAR LMML NIL=
201010080815 METAR LMML 080815Z 07005KT 010V110 9999 FEW021 24/18 Q1018
                        NOSIG=
201010080800 METAR LMML NIL=
201010080745 METAR LMML 080745Z 09006KT 060V150 9999 FEW020 23/18 Q1018
                        NOSIG=
201010080730 METAR LMML NIL=
201010080715 METAR LMML 080715Z 09006KT 060V120 9999 FEW020 23/18 Q1018
                        NOSIG=
201010080700 METAR LMML NIL=
201010080645 METAR LMML 080645Z 07004KT 040V110 9999 FEW020 23/18 Q1018
                        NOSIG=
201010080630 METAR LMML NIL=
201010080615 METAR LMML 080615Z 06003KT 9999 FEW018 22/18 Q1018 NOSIG=
201010080600 METAR LMML NIL=
201010080545 METAR LMML 080545Z 08003KT 9999 FEW018 21/18 Q1017 NOSIG=
201010080530 METAR LMML NIL=
201010080515 METAR LMML 080515Z 08003KT 9999 FEW018 20/17 Q1017 NOSIG=
201010080500 METAR LMML NIL=
201010080445 METAR LMML 080445Z VRB01KT 9999 FEW018 SCT060 20/17 Q1017
                        NOSIG=
201010080430 METAR LMML NIL=
201010080415 METAR LMML 080415Z 07003KT 9999 FEW018 SCT050 20/17 Q1017
                        NOSIG=
201010080345 METAR LMML 080345Z 07003KT 9999 FEW018 BKN050 21/17 Q1017
                        NOSIG=
201010080330 METAR LMML NIL=
201010080315 METAR LMML 080315Z 07003KT 9999 FEW018 BKN050 21/17 Q1017
                        NOSIG=
201010080300 METAR LMML NIL=
201010080245 METAR LMML 080245Z 07003KT 9999 FEW018 BKN050 21/17 Q1017
                        NOSIG=
201010080230 METAR LMML NIL=
201010080215 METAR LMML 080215Z 07003KT 9999 FEW018 SCT050 21/17 Q1017
                        NOSIG=
201010080200 METAR LMML NIL=
201010080145 METAR LMML 080145Z 08004KT 9999 FEW018 21/18 Q1017 NOSIG=
201010080130 METAR LMML NIL=
201010080115 METAR LMML 080115Z 06004KT 9999 FEW018 21/18 Q1017 NOSIG=
201010080100 METAR LMML NIL=
201010080045 METAR LMML 080045Z 07004KT 9999 FEW018 21/18 Q1017 NOSIG=
201010080030 METAR LMML NIL=
201010080015 METAR LMML 080015Z 07004KT 9999 FEW018 21/18 Q1017 NOSIG=
201010080000 METAR LMML NIL=
201010072345 METAR LMML 072345Z 07004KT 9999 FEW018 21/18 Q1018 NOSIG=
201010072330 METAR LMML NIL=
201010072315 METAR LMML 072315Z 07004KT 040V110 9999 FEW018 21/18 Q1017
                        NOSIG=
201010072300 METAR LMML NIL=
201010072245 METAR LMML 072245Z 08005KT 9999 FEW018 21/18 Q1018 NOSIG=
201010072230 METAR LMML NIL=
201010072215 METAR LMML 072215Z 07005KT 9999 FEW018 22/18 Q1018 NOSIG=
201010072200 METAR LMML NIL=
201010072145 METAR LMML 072145Z 07006KT 040V100 CAVOK 22/18 Q1018 NOSIG=
201010072130 METAR LMML NIL=
201010072115 METAR LMML 072115Z 08006KT 050V110 9999 SCT017 22/18 Q1018
                        NOSIG=
201010072100 METAR LMML NIL=
201010072045 METAR LMML 072045Z 07006KT 9999 SCT018 22/18 Q1018 NOSIG=
201010072030 METAR LMML NIL=
201010072015 METAR LMML 072015Z 07006KT 030V100 9999 SCT017 22/18 Q1018
                        NOSIG=
201010072000 METAR LMML NIL=
201010071945 METAR LMML 071945Z 07007KT 030V100 9999 SCT018 22/18 Q1017
                        NOSIG=
201010071930 METAR LMML NIL=
201010071915 METAR LMML 071915Z 07007KT 9999 SCT018 22/18 Q1017 NOSIG=
201010071900 METAR LMML NIL=
201010071845 METAR LMML 071845Z 07006KT 040V100 9999 SCT018 22/18 Q1017
                        NOSIG=
201010071830 METAR LMML NIL=
201010071815 METAR LMML 071815Z 08007KT 030V100 9999 SCT018 22/18 Q1017
                        NOSIG=
201010071745 METAR LMML 071745Z 07008KT 030V110 9999 SCT018 22/18 Q1017
                        NOSIG=
201010071730 METAR LMML NIL=
201010071715 METAR LMML 071715Z 07006KT 030V120 9999 SCT019 23/18 Q1017
                        NOSIG=
201010071700 METAR LMML NIL=
201010071645 METAR LMML 071645Z 07009KT 030V110 9999 SCT019 23/19 Q1017
                        NOSIG=
201010071630 METAR LMML NIL=
201010071615 METAR LMML 071615Z 06008KT 020V090 9999 SCT020 23/18 Q1016
                        NOSIG=
201010071545 METAR LMML 071545Z 06011KT 030V100 9999 FEW021 24/18 Q1016
                        NOSIG=
201010071530 METAR LMML NIL=
201010071515 METAR LMML 071515Z 05010KT 020V100 9999 FEW019 24/19 Q1016
                        NOSIG=
201010071500 METAR LMML NIL=
201010071445 METAR LMML 071445Z 07011KT 020V100 9999 SCT020 24/19 Q1016
                        NOSIG=
201010071430 METAR LMML NIL=
201010071415 METAR LMML 071415Z 05010KT 020V110 9999 SCT019 24/19 Q1016
                        NOSIG=
201010071400 METAR LMML NIL=
201010071345 METAR LMML 071345Z 05012KT 020V080 9999 FEW018 25/19 Q1015
                        NOSIG=
201010071330 METAR LMML NIL=
201010071315 METAR LMML 071315Z 05012KT 020V100 9999 FEW020 25/19 Q1015
                        NOSIG=
201010071300 METAR LMML NIL=
201010071245 METAR LMML 071245Z 05010KT 010V100 9999 FEW019 26/19 Q1015
                        NOSIG=
201010071230 METAR LMML NIL=
201010071215 METAR LMML 071215Z 05011KT 010V110 9999 FEW018 26/19 Q1015
                        NOSIG=
201010071200 METAR LMML NIL=
201010071145 METAR LMML 071145Z 04011KT 360V100 9999 SCT016 25/20 Q1015
                        NOSIG=
201010071115 METAR LMML 071115Z 04011KT 360V090 9999 SCT015 26/20 Q1015
                        NOSIG=
201010071100 METAR LMML NIL=
201010071045 METAR LMML 071045Z 03011KT 010V070 9999 SCT016 26/20 Q1015
                        NOSIG=
201010071030 METAR LMML NIL=
201010071015 METAR LMML 071015Z 05011KT 010V100 9999 SCT016 25/21 Q1015
                        NOSIG=
201010071000 METAR LMML NIL=
201010070945 METAR LMML 070945Z 04011KT 360V080 9999 SCT015 25/20 Q1015
                        NOSIG=
201010070930 METAR LMML NIL=
201010070915 METAR LMML 070915Z 03008KT 350V060 9999 SCT013 25/21 Q1015
                        NOSIG=
201010070900 METAR LMML NIL=
201010070845 METAR LMML 070845Z 04007KT 010V070 9000 SCT014 25/21 Q1015
                        NOSIG=
201010070830 METAR LMML NIL=
201010070815 METAR LMML 070815Z 04008KT 010V080 9000 SCT013 24/21 Q1015
                        NOSIG=
201010070800 METAR LMML NIL=
201010070745 METAR LMML 070745Z 03009KT 010V070 9000 BKN012 24/21 Q1015
                        NOSIG=
201010070730 METAR LMML NIL=
201010070715 METAR LMML 070715Z 04009KT 010V110 9000 SCT012 24/22 Q1014
                        NOSIG=
201010070700 METAR LMML NIL=
201010070645 METAR LMML 070645Z 04009KT 020V080 8000 BKN010 23/23 Q1014
                        BECMG 9999 SCT012=
201010070615 METAR LMML 070615Z 04003KT 8000 BKN008 23/22 Q1014 BECMG
                        9999=
201010070600 METAR LMML NIL=
201010070545 METAR LMML 070545Z 03004KT 010V070 8000 SCT009 22/22 Q1013
                        BECMG 9999=
201010070515 METAR LMML 070515Z VRB02KT 7000 BKN009 22/21 Q1013 NOSIG=
201010070500 METAR LMML NIL=
201010070445 METAR LMML 070445Z VRB01KT 7000 FEW011 21/21 Q1013 TEMPO
                        SCT005=
201010070430 METAR LMML NIL=
201010070415 METAR LMML 070415Z VRB02KT 7000 FEW007 21/21 Q1013 TEMPO
                        SCT005=
201010070400 METAR LMML NIL=
201010070345 METAR LMML 070345Z 35003KT 7000 FEW007 22/22 Q1013 TEMPO
                        SCT005=
201010070330 METAR LMML NIL=
201010070315 METAR LMML 070315Z 36003KT 7000 SCT007 22/22 Q1013 TEMPO
                        BKN005=
201010070300 METAR LMML NIL=
201010070245 METAR LMML 070245Z 33003KT 9000 FEW005 SCT011 22/21 Q1013
                        TEMPO BKN005=
201010070230 METAR LMML NIL=
201010070215 METAR LMML 070215Z 33003KT 9000 FEW011 22/21 Q1013 TEMPO
                        SCT008=
201010070200 METAR LMML NIL=
201010070145 METAR LMML 070145Z 34003KT 9000 SCT011 22/22 Q1013 TEMPO
                        SCT008=
201010070130 METAR LMML NIL=
201010070115 METAR LMML 070115Z 35004KT 9000 SCT012 21/21 Q1013 TEMPO
                        SCT008=
201010070100 METAR LMML NIL=
201010070045 METAR LMML 070045Z 32003KT 9000 FEW008 SCT011 22/21 Q1013
                        TEMPO BKN008=
201010070030 METAR LMML NIL=
201010070015 METAR LMML 070015Z VRB01KT 9000 BKN010 22/22 Q1013 NOSIG=
201010070000 METAR LMML NIL=
201010062345 METAR LMML 062345Z VRB01KT 9000 SCT009 22/21 Q1013 TEMPO
                        8000 BKN008=
201010062330 METAR LMML NIL=
201010062315 METAR LMML 062315Z VRB02KT 9000 FEW012 23/22 Q1013 TEMPO
                        8000 BKN008=
201010062300 METAR LMML NIL=
201010062245 METAR LMML 062245Z VRB02KT 9999 SCT012 23/22 Q1013 TEMPO
                        8000 BKN008=
201010062230 METAR LMML NIL=
201010062215 METAR LMML 062215Z VRB02KT 9999 SCT012 23/22 Q1013 TEMPO
                        8000 BKN008=
201010062200 METAR LMML NIL=
201010062145 METAR LMML 062145Z VRB02KT 9999 SCT011 23/22 Q1013 TEMPO
                        8000 BKN008=
201010062115 METAR LMML 062115Z VRB01KT 9999 FEW010 23/22 Q1013 TEMPO
                        8000 BKN008=
201010062100 METAR LMML NIL=
201010062045 METAR LMML 062045Z 17003KT 9999 FEW012 23/22 Q1013 NOSIG=
201010062030 METAR LMML NIL=
201010062015 METAR LMML 062015Z 14004KT 110V170 9999 FEW012 23/22 Q1013
                        NOSIG=
201010062000 METAR LMML NIL=
201010061945 METAR LMML 061945Z 14004KT 9999 FEW012 SCT250 23/22 Q1013
                        NOSIG=
201010061930 METAR LMML NIL=
201010061915 METAR LMML 061915Z 14005KT 9999 FEW012 SCT250 24/22 Q1013
                        NOSIG=
201010061900 METAR LMML NIL=
201010061845 METAR LMML 061845Z 14006KT 9999 FEW012 SCT250 24/22 Q1013
                        NOSIG=
201010061830 METAR LMML NIL=
201010061815 METAR LMML 061815Z 13004KT 9999 SCT012 SCT250 24/22 Q1013
                        NOSIG=
201010061800 METAR LMML NIL=
201010061745 METAR LMML 061745Z 13004KT 9999 SCT011 BKN250 24/22 Q1013
                        NOSIG=
201010061730 METAR LMML NIL=
201010061715 METAR LMML 061715Z 13003KT 9999 SCT011 BKN250 24/22 Q1013
                        NOSIG=
201010061700 METAR LMML NIL=
201010061645 METAR LMML 061645Z 16005KT 9999 FEW011 24/22 Q1013 NOSIG=
201010061630 METAR LMML NIL=
201010061615 METAR LMML 061615Z 18008KT 9999 FEW011 BKN250 25/22 Q1012
                        NOSIG=
201010061600 METAR LMML NIL=
201010061545 METAR LMML 061545Z 17008KT 9999 FEW011 BKN250 25/22 Q1012
                        NOSIG=
201010061530 METAR LMML NIL=
201010061515 METAR LMML 061515Z 17006KT 130V210 9999 FEW012 BKN250 25/22
                        Q1012 NOSIG=
201010061500 METAR LMML NIL=
201010061445 METAR LMML 061445Z 17008KT 140V240 9999 FEW013 BKN250 25/22
                        Q1012 NOSIG=
201010061430 METAR LMML NIL=
201010061415 METAR LMML 061415Z 18007KT 130V240 9999 SCT014 BKN250 26/22
                        Q1013 NOSIG=
201010061400 METAR LMML NIL=
201010061345 METAR LMML 061345Z 18009KT 150V230 9999 FEW014 SCT250 26/22
                        Q1013 NOSIG=
201010061330 METAR LMML NIL=
201010061315 METAR LMML 061315Z 18010KT 150V220 9999 FEW014 SCT250 26/22
                        Q1013 NOSIG=
201010061245 METAR LMML 061245Z 18010KT 140V220 9999 FEW014 BKN250 26/21
                        Q1013 NOSIG=
201010061215 METAR LMML 061215Z 18008KT 140V230 9999 SCT015 BKN250 26/22
                        Q1014 NOSIG=
201010061200 METAR LMML NIL=
201010061145 METAR LMML 061145Z 19009KT 120V230 9999 FEW014 BKN250 26/22
                        Q1014 NOSIG=
201010061130 METAR LMML NIL=
201010061115 METAR LMML 061115Z 18010KT 150V210 9999 FEW015 BKN250 26/21
                        Q1014 NOSIG=
201010061100 METAR LMML NIL=
201010061045 METAR LMML 061045Z 17010KT 9999 FEW013 BKN250 26/21 Q1014
                        NOSIG=
201010061030 METAR LMML NIL=
201010061015 METAR LMML 061015Z 18008KT 120V220 9999 FEW014 BKN250 26/21
                        Q1014 NOSIG=
201010061000 METAR LMML NIL=
201010060945 METAR LMML 060945Z 18008KT 120V230 9999 FEW014 BKN250 26/21
                        Q1015 NOSIG=
201010060930 METAR LMML NIL=
201010060915 METAR LMML 060915Z 18010KT 150V220 9999 FEW015 BKN250 25/21
                        Q1015 NOSIG=
201010060900 METAR LMML NIL=
201010060845 METAR LMML 060845Z 18008KT 150V240 9999 FEW015 BKN250 25/21
                        Q1015 NOSIG=
201010060815 METAR LMML 060815Z 18010KT 150V220 9999 FEW016 25/20 Q1015
                        NOSIG=
201010060800 METAR LMML NIL=
201010060745 METAR LMML 060745Z 18009KT 150V210 9999 SCT017 24/20 Q1015
                        NOSIG=
201010060730 METAR LMML NIL=
201010060715 METAR LMML 060715Z 18009KT 150V220 9999 FEW019 24/19 Q1015
                        NOSIG=
201010060700 METAR LMML NIL=
201010060645 METAR LMML 060645Z 18009KT 140V210 9999 FEW019 24/19 Q1015
                        NOSIG=
201010060630 METAR LMML NIL=
201010060615 METAR LMML 060615Z 18008KT 150V220 9999 SCT018 23/19 Q1015
                        NOSIG=
201010060600 METAR LMML NIL=
201010060545 METAR LMML 060545Z 18009KT 150V210 9999 SCT017 23/20 Q1015
                        NOSIG=
201010060530 METAR LMML NIL=
201010060515 METAR LMML 060515Z 17007KT 130V210 9999 BKN016 23/20 Q1014
                        NOSIG=
201010060500 METAR LMML NIL=
201010060445 METAR LMML 060445Z 17007KT 130V210 9999 FEW015 23/20 Q1014
                        NOSIG=
201010060430 METAR LMML NIL=
201010060415 METAR LMML 060415Z 17008KT 130V200 9999 FEW014 22/20 Q1014
                        NOSIG=
201010060400 METAR LMML NIL=
201010060345 METAR LMML 060345Z 16009KT 130V190 9999 FEW013 22/20 Q1014
                        NOSIG=
201010060330 METAR LMML NIL=
201010060315 METAR LMML 060315Z 16009KT 9999 FEW013 23/20 Q1014 NOSIG=
201010060300 METAR LMML NIL=
201010060245 METAR LMML 060245Z 16009KT 9999 FEW013 22/20 Q1015 NOSIG=
201010060230 METAR LMML NIL=
201010060215 METAR LMML 060215Z 15007KT 9999 FEW013 23/20 Q1015 NOSIG=
201010060200 METAR LMML NIL=
201010060145 METAR LMML 060145Z 15007KT 9999 FEW013 22/20 Q1015 NOSIG=
201010060130 METAR LMML NIL=
201010060115 METAR LMML 060115Z 14007KT 110V180 9999 FEW017 22/20 Q1015
                        NOSIG=
201010060100 METAR LMML NIL=
201010060045 METAR LMML 060045Z 15005KT 120V190 9999 FEW017 23/20 Q1016
                        NOSIG=
201010060030 METAR LMML NIL=
201010060015 METAR LMML 060015Z 15007KT 120V180 9999 FEW017 23/20 Q1016
                        NOSIG=
201010060000 METAR LMML NIL=
201010052345 METAR LMML 052345Z 16007KT 9999 FEW017 23/20 Q1016 NOSIG=
201010052330 METAR LMML NIL=
201010052315 METAR LMML 052315Z 16007KT 140V210 9999 FEW017 23/20 Q1016
                        NOSIG=
201010052300 METAR LMML NIL=
201010052245 METAR LMML 052245Z 17008KT 140V200 9999 FEW017 23/20 Q1016
                        NOSIG=
201010052230 METAR LMML NIL=
201010052215 METAR LMML 052215Z 17008KT 140V210 9999 FEW017 23/20 Q1017
                        NOSIG=
201010052200 METAR LMML NIL=
201010052145 METAR LMML 052145Z 17007KT 130V200 9999 FEW017 23/20 Q1017
                        NOSIG=
201010052130 METAR LMML NIL=
201010052115 METAR LMML 052115Z 17007KT 130V210 9999 FEW017 23/20 Q1017
                        NOSIG=
201010052100 METAR LMML NIL=
201010052045 METAR LMML 052045Z 17006KT 140V210 9999 FEW017 23/20 Q1017
                        NOSIG=
201010052030 METAR LMML NIL=
201010052015 METAR LMML 052015Z 17007KT 140V200 9999 FEW017 23/20 Q1017
                        NOSIG=
201010052000 METAR LMML NIL=
201010051945 METAR LMML 051945Z 17006KT 140V210 9999 FEW017 23/20 Q1017
                        NOSIG=
201010051930 METAR LMML NIL=
201010051915 METAR LMML 051915Z 17006KT 140V210 9999 FEW016 23/20 Q1017
                        NOSIG=
201010051900 METAR LMML NIL=
201010051845 METAR LMML 051845Z 17006KT 9999 FEW017 23/20 Q1017 NOSIG=
201010051830 METAR LMML NIL=
201010051815 METAR LMML 051815Z 17006KT 150V210 9999 FEW018 23/20 Q1017
                        NOSIG=
201010051800 METAR LMML NIL=
201010051745 METAR LMML 051745Z 17006KT 150V210 9999 FEW018 24/20 Q1016
                        NOSIG=
201010051730 METAR LMML NIL=
201010051715 METAR LMML 051715Z 17007KT 150V210 9999 FEW018 24/20 Q1016
                        NOSIG=
201010051700 METAR LMML NIL=
201010051645 METAR LMML 051645Z 17005KT 130V210 9999 FEW017 24/20 Q1016
                        NOSIG=
201010051630 METAR LMML NIL=
201010051615 METAR LMML 051615Z 17006KT 140V210 9999 FEW017 24/20 Q1016
                        NOSIG=
201010051600 METAR LMML NIL=
201010051545 METAR LMML 051545Z 18007KT 140V220 9999 FEW017 25/20 Q1016
                        NOSIG=
201010051530 METAR LMML NIL=
201010051515 METAR LMML 051515Z 18007KT 130V210 9999 FEW017 25/20 Q1016
                        NOSIG=
201010051445 METAR LMML 051445Z 18009KT 160V220 9999 FEW018 SCT120 25/20
                        Q1016 NOSIG=
201010051430 METAR LMML NIL=
201010051415 METAR LMML 051415Z 19009KT 150V230 9999 FEW017 25/20 Q1017
                        NOSIG=
201010051400 METAR LMML NIL=
201010051345 METAR LMML 051345Z 18010KT 150V230 9999 SCT017 SCT250 26/21
                        Q1017 NOSIG=
201010051330 METAR LMML NIL=
201010051315 METAR LMML 051315Z 18010KT 150V220 9999 SCT017 SCT250 26/21
                        Q1017 NOSIG=
201010051300 METAR LMML NIL=
201010051245 METAR LMML 051245Z 18011KT 140V220 9999 SCT016 SCT250 26/21
                        Q1017 NOSIG=
201010051230 METAR LMML NIL=
201010051215 METAR LMML 051215Z 18012KT 9999 SCT015 26/21 Q1017 NOSIG=
201010051200 METAR LMML NIL=
201010051145 METAR LMML 051145Z 18009KT 140V230 9999 FEW014 SCT250 26/21
                        Q1017 NOSIG=
201010051130 METAR LMML NIL=
201010051115 METAR LMML 051115Z 18013KT 9999 FEW014 SCT120 BKN250 26/21
                        Q1017 NOSIG=
201010051100 METAR LMML NIL=
201010051045 METAR LMML 051045Z 18011KT 160V220 9999 FEW013 SCT120 BKN250
                        26/21 Q1017 NOSIG=
201010051030 METAR LMML NIL=
201010051015 METAR LMML 051015Z 19011KT 140V230 9999 FEW013 SCT120 BKN250
                        26/21 Q1018 NOSIG=
201010051000 METAR LMML NIL=
201010050945 METAR LMML 050945Z 18010KT 150V230 9999 FEW014 SCT120 BKN250
                        26/21 Q1018 NOSIG=
201010050930 METAR LMML NIL=
201010050915 METAR LMML 050915Z 19010KT 150V220 9999 FEW014 SCT120 BKN250
                        25/21 Q1018 NOSIG=
201010050900 METAR LMML NIL=
201010050845 METAR LMML 050845Z 18011KT 150V210 9999 FEW015 SCT120 25/21
                        Q1018 NOSIG=
201010050830 METAR LMML NIL=
201010050815 METAR LMML 050815Z 19010KT 140V220 9999 SCT015 BKN120 25/21
                        Q1018 NOSIG=
201010050745 METAR LMML 050745Z 18010KT 140V220 9999 SCT014 SCT120 25/21
                        Q1017 NOSIG=
201010050730 METAR LMML NIL=
201010050715 METAR LMML 050715Z 19008KT 130V250 9999 FEW014 SCT120 25/21
                        Q1017 NOSIG=
201010050700 METAR LMML NIL=
201010050645 METAR LMML 050645Z 19009KT 150V230 9999 FEW014 SCT120 24/21
                        Q1017 NOSIG=
201010050630 METAR LMML NIL=
201010050615 METAR LMML 050615Z 18010KT 160V220 9999 FEW014 24/21 Q1017
                        NOSIG=
201010050600 METAR LMML NIL=
201010050545 METAR LMML 050545Z 19008KT 150V230 9999 FEW015 SCT250 24/21
                        Q1017 NOSIG=
201010050530 METAR LMML NIL=
201010050515 METAR LMML 050515Z 19010KT 160V230 9999 FEW015 SCT120 24/20
                        Q1016 NOSIG=
201010050500 METAR LMML NIL=
201010050445 METAR LMML 050445Z 18011KT 140V220 9999 FEW015 23/20 Q1016
                        NOSIG=
201010050430 METAR LMML NIL=
201010050415 METAR LMML 050415Z 18010KT 150V220 9999 FEW015 SCT250 23/20
                        Q1016 NOSIG=
201010050400 METAR LMML NIL=
201010050345 METAR LMML 050345Z 18009KT 150V220 9999 FEW015 23/20 Q1016
                        NOSIG=
201010050330 METAR LMML NIL=
201010050315 METAR LMML 050315Z 19010KT 160V220 9999 FEW015 23/20 Q1016
                        NOSIG=
201010050300 METAR LMML NIL=
201010050245 METAR LMML 050245Z 19011KT 150V220 9999 FEW014 23/20 Q1016
                        NOSIG=
201010050230 METAR LMML NIL=
201010050215 METAR LMML 050215Z 18011KT 150V230 9999 FEW015 23/20 Q1016
                        NOSIG=
201010050200 METAR LMML NIL=
201010050145 METAR LMML 050145Z 18011KT 9999 FEW014 23/21 Q1016 NOSIG=
201010050130 METAR LMML NIL=
201010050115 METAR LMML 050115Z 18011KT 150V220 9999 FEW015 23/20 Q1016
                        NOSIG=
201010050045 METAR LMML 050045Z 18009KT 140V220 9999 FEW014 23/21 Q1016
                        NOSIG=
201010050030 METAR LMML NIL=
201010050015 METAR LMML 050015Z 18009KT 140V210 9999 FEW014 23/21 Q1016
                        NOSIG=
201010050000 METAR LMML NIL=
201010042345 METAR LMML 042345Z 18013KT 140V220 9999 FEW014 23/21 Q1016
                        NOSIG=
201010042330 METAR LMML NIL=
201010042315 METAR LMML 042315Z 17010KT 120V220 9999 FEW014 23/20 Q1016
                        NOSIG=
201010042300 METAR LMML NIL=
201010042245 METAR LMML 042245Z 17009KT 140V200 9999 FEW014 23/20 Q1016
                        NOSIG=
201010042230 METAR LMML NIL=
201010042215 METAR LMML 042215Z 17008KT 140V220 9999 FEW020 23/21 Q1016
                        NOSIG=
201010042200 METAR LMML NIL=
201010042145 METAR LMML 042145Z 17009KT 120V220 9999 FEW020 23/20 Q1016
                        NOSIG=
201010042130 METAR LMML NIL=
201010042115 METAR LMML 042115Z 17009KT 130V220 9999 FEW020 24/20 Q1016
                        NOSIG=
201010042100 METAR LMML NIL=
201010042045 METAR LMML 042045Z 16009KT 140V210 9999 FEW020 24/20 Q1016
                        NOSIG=
201010042030 METAR LMML NIL=
201010042015 METAR LMML 042015Z 17009KT 130V200 9999 FEW020 23/20 Q1016
                        NOSIG=
201010042000 METAR LMML NIL=
201010041945 METAR LMML 041945Z 17008KT 140V200 9999 FEW020 24/20 Q1016
                        NOSIG=
201010041915 METAR LMML 041915Z 16008KT 9999 FEW020 24/20 Q1016 NOSIG=
201010041900 METAR LMML NIL=
201010041845 METAR LMML 041845Z 16008KT 130V190 9999 FEW020 24/20 Q1016
                        NOSIG=
201010041830 METAR LMML NIL=
201010041815 METAR LMML 041815Z 17007KT 130V210 9999 FEW020 24/20 Q1016
                        NOSIG=
201010041800 METAR LMML NIL=
201010041745 METAR LMML 041745Z 16008KT 120V210 9999 FEW020 24/20 Q1015
                        NOSIG=
201010041730 METAR LMML NIL=
201010041715 METAR LMML 041715Z 16008KT 140V200 9999 FEW015 24/20 Q1015
                        NOSIG=
201010041700 METAR LMML NIL=
201010041645 METAR LMML 041645Z 17008KT 130V200 9999 FEW016 24/20 Q1015
                        NOSIG=
201010041630 METAR LMML NIL=
201010041615 METAR LMML 041615Z 17010KT 130V210 9999 FEW016 24/20 Q1015
                        NOSIG=
201010041600 METAR LMML NIL=
201010041545 METAR LMML 041545Z 17010KT 110V210 9999 FEW016 25/20 Q1015
                        NOSIG=
201010041530 METAR LMML NIL=
201010041515 METAR LMML 041515Z 17011KT 130V210 9999 FEW016 25/20 Q1015
                        NOSIG=
201010041500 METAR LMML NIL=
201010041445 METAR LMML 041445Z 17011KT 130V210 9999 FEW017 25/21 Q1015
                        NOSIG=
201010041430 METAR LMML NIL=
201010041415 METAR LMML 041415Z 17012KT 130V210 9999 FEW017 26/20 Q1015
                        NOSIG=
201010041400 METAR LMML NIL=
201010041345 METAR LMML 041345Z 17011KT 130V200 9999 FEW018 26/20 Q1015
                        NOSIG=
201010041330 METAR LMML NIL=
201010041315 METAR LMML 041315Z 17011KT 130V220 9999 FEW018 26/20 Q1015
                        NOSIG=
201010041300 METAR LMML NIL=
201010041245 METAR LMML 041245Z 18011KT 140V220 9999 SCT018 26/20 Q1015
                        NOSIG=
201010041215 METAR LMML 041215Z 17013KT 130V210 9999 FEW018 26/20 Q1015
                        NOSIG=
201010041200 METAR LMML NIL=
201010041145 METAR LMML 041145Z 17013KT 130V210 9999 FEW019 26/20 Q1016
                        NOSIG=
201010041130 METAR LMML NIL=
201010041115 METAR LMML 041115Z 16012KT 140V200 9999 FEW019 26/20 Q1016
                        NOSIG=
201010041100 METAR LMML NIL=
201010041045 METAR LMML 041045Z 17011KT 090V220 9999 SCT018 26/20 Q1016
                        NOSIG=
201010041030 METAR LMML NIL=
201010041015 METAR LMML 041015Z 17011KT 130V210 9999 FEW019 SCT250 26/20
                        Q1017 NOSIG=
201010041000 METAR LMML NIL=
201010040945 METAR LMML 040945Z 17011KT 130V210 9999 FEW021 BKN250 26/20
                        Q1017 NOSIG=
201010040930 METAR LMML NIL=
201010040915 METAR LMML 040915Z 17011KT 140V210 9999 SCT021 25/20 Q1017
                        NOSIG=
201010040900 METAR LMML NIL=
201010040845 METAR LMML 040845Z 16011KT 130V210 9999 SCT020 BKN250 26/20
                        Q1017 NOSIG=
201010040830 METAR LMML NIL=
201010040815 METAR LMML 040815Z 17010KT 140V220 9999 SCT021 BKN250 25/20
                        Q1017 NOSIG=
201010040745 METAR LMML 040745Z 18010KT 140V270 9999 FEW021 BKN250 25/19
                        Q1017 NOSIG=
201010040730 METAR LMML NIL=
201010040715 METAR LMML 040715Z 18011KT 130V210 9999 FEW021 SCT250 24/19
                        Q1016 NOSIG=
201010040700 METAR LMML NIL=
201010040645 METAR LMML 040645Z 17008KT 140V230 9999 FEW021 SCT250 24/19
                        Q1016 NOSIG=
201010040630 METAR LMML NIL=
201010040615 METAR LMML 040615Z 17007KT 140V240 9999 FEW022 SCT250 24/19
                        Q1016 NOSIG=
201010040600 METAR LMML NIL=
201010040545 METAR LMML 040545Z 17007KT 140V210 9999 FEW021 SCT250 23/19
                        Q1016 NOSIG=
201010040530 METAR LMML NIL=
201010040515 METAR LMML 040515Z 17008KT 130V200 9999 FEW021 SCT250 23/19
                        Q1016 NOSIG=
201010040500 METAR LMML NIL=
201010040445 METAR LMML 040445Z 17008KT 140V210 9999 FEW021 23/19 Q1016
                        NOSIG=
201010040430 METAR LMML NIL=
201010040415 METAR LMML 040415Z 17008KT 140V210 9999 SCT021 23/19 Q1015
                        NOSIG=
201010040400 METAR LMML NIL=
201010040345 METAR LMML 040345Z 17008KT 140V220 9999 SCT020 23/19 Q1015
                        NOSIG=
201010040330 METAR LMML NIL=
201010040315 METAR LMML 040315Z 17008KT 130V200 9999 SCT020 22/19 Q1015
                        NOSIG=
201010040300 METAR LMML NIL=
201010040245 METAR LMML 040245Z 16008KT 9999 SCT020 22/19 Q1015 NOSIG=
201010040230 METAR LMML NIL=
201010040215 METAR LMML 040215Z 15007KT 120V180 9999 FEW018 22/18 Q1016
                        NOSIG=
201010040200 METAR LMML NIL=
201010040145 METAR LMML 040145Z 16009KT 9999 FEW018 22/18 Q1016 NOSIG=
201010040130 METAR LMML NIL=
201010040115 METAR LMML 040115Z 16009KT 9999 FEW018 22/19 Q1016 NOSIG=
201010040100 METAR LMML NIL=
201010040045 METAR LMML 040045Z 15008KT 120V180 9999 SCT018 22/19 Q1016
                        NOSIG=
201010040030 METAR LMML NIL=
201010040015 METAR LMML 040015Z 15007KT 120V190 9999 SCT018 22/19 Q1017
                        NOSIG=
201010040000 METAR LMML NIL=
201010032345 METAR LMML 032345Z 15008KT 120V180 9999 SCT019 22/18 Q1017
                        NOSIG=
201010032330 METAR LMML NIL=
201010032315 METAR LMML 032315Z 16008KT 9999 SCT020 22/19 Q1017 NOSIG=
201010032300 METAR LMML NIL=
201010032245 METAR LMML 032245Z 16007KT 9999 SCT020 22/18 Q1017 NOSIG=
201010032230 METAR LMML NIL=
201010032215 METAR LMML 032215Z 16007KT 130V190 9999 FEW020 SCT250 22/18
                        Q1017 NOSIG=
201010032200 METAR LMML NIL=
201010032145 METAR LMML 032145Z 16007KT 9999 FEW020 SCT250 22/18 Q1017
                        NOSIG=
201010032130 METAR LMML NIL=
201010032115 METAR LMML 032115Z 16006KT 9999 FEW020 SCT250 22/18 Q1017
                        NOSIG=
201010032100 METAR LMML NIL=
201010032045 METAR LMML 032045Z 16007KT 140V200 9999 FEW021 SCT250 23/18
                        Q1017 NOSIG=
201010032030 METAR LMML NIL=
201010032015 METAR LMML 032015Z 16005KT 140V200 9999 FEW022 SCT250 23/18
                        Q1017 NOSIG=
201010032000 METAR LMML NIL=
201010031945 METAR LMML 031945Z 16006KT 9999 FEW021 SCT250 23/18 Q1017
                        NOSIG=
201010031930 METAR LMML NIL=
201010031915 METAR LMML 031915Z 16007KT 140V200 9999 FEW023 SCT250 23/18
                        Q1017 NOSIG=
201010031900 METAR LMML NIL=
201010031845 METAR LMML 031845Z 16007KT 130V190 9999 FEW022 SCT250 23/18
                        Q1017 NOSIG=
201010031830 METAR LMML NIL=
201010031815 METAR LMML 031815Z 16007KT 120V180 9999 FEW022 SCT250 23/19
                        Q1017 NOSIG=
201010031800 METAR LMML NIL=
201010031745 METAR LMML 031745Z 16006KT 130V190 9999 FEW025 SCT250 23/18
                        Q1017 NOSIG=
201010031730 METAR LMML NIL=
201010031715 METAR LMML 031715Z 16007KT 130V190 9999 FEW025 SCT250 23/18
                        Q1017 NOSIG=
201010031700 METAR LMML NIL=
201010031645 METAR LMML 031645Z 16007KT 120V180 9999 FEW025 SCT250 23/18
                        Q1017 NOSIG=
201010031630 METAR LMML NIL=
201010031615 METAR LMML 031615Z 16006KT 130V200 9999 FEW026 SCT250 24/18
                        Q1017 NOSIG=
201010031600 METAR LMML NIL=
201010031545 METAR LMML 031545Z 16008KT 130V190 9999 FEW026 SCT250 24/18
                        Q1017 NOSIG=
201010031530 METAR LMML NIL=
201010031515 METAR LMML 031515Z 18006KT 140V230 9999 FEW026 25/18 Q1017
                        NOSIG=
201010031500 METAR LMML NIL=
201010031445 METAR LMML 031445Z 17006KT 140V230 9999 SCT026 25/18 Q1017
                        NOSIG=
201010031415 METAR LMML 031415Z 16007KT 120V220 9999 SCT026 25/18 Q1018
                        NOSIG=
201010031400 METAR LMML NIL=
201010031345 METAR LMML 031345Z 17006KT 120V230 9999 SCT027 25/18 Q1018
                        NOSIG=
201010031331 SPECI LMML 031331Z 16006KT 110V200 9999 SCT028 25/18 Q1018
                        NOSIG=
201010031330 METAR LMML NIL=
201010031300 METAR LMML NIL=
201010031245 METAR LMML 031245Z 18007KT 130V220 9999 SCT028 25/18 Q1018
                        NOSIG=
201010031230 METAR LMML NIL=
201010031215 METAR LMML 031215Z 18007KT 100V250 9999 SCT028 25/18 Q1019
                        NOSIG=
201010031145 METAR LMML 031145Z 17008KT 140V200 9999 SCT028 25/18 Q1019
                        NOSIG=
201010031115 METAR LMML 031115Z 18006KT 130V230 9999 FEW028 25/18 Q1019
                        NOSIG=
201010031100 METAR LMML NIL=
201010031045 METAR LMML 031045Z 18006KT 110V230 9999 FEW029 25/18 Q1019
                        NOSIG=
201010031030 METAR LMML NIL=
201010031015 METAR LMML 031015Z 17006KT 130V220 9999 FEW029 25/17 Q1019
                        NOSIG=
201010031000 METAR LMML NIL=
201010030945 METAR LMML 030945Z 18006KT 150V220 9999 SCT028 24/17 Q1020
                        NOSIG=
201010030930 METAR LMML NIL=
201010030915 METAR LMML 030915Z 20005KT 150V250 9999 SCT025 24/17 Q1020
                        NOSIG=
201010030900 METAR LMML NIL=
201010030845 METAR LMML 030845Z 18005KT 150V230 9999 SCT019 23/18 Q1020
                        NOSIG=
201010030830 METAR LMML NIL=
201010030815 METAR LMML 030815Z 17004KT 130V210 9999 BKN019 24/18 Q1019
                        NOSIG=
201010030800 METAR LMML NIL=
201010030745 METAR LMML 030745Z 18004KT 140V210 9999 BKN019 22/18 Q1019
                        NOSIG=
201010030730 METAR LMML NIL=
201010030715 METAR LMML 030715Z 14004KT 100V200 9999 BKN017 23/20 Q1019
                        NOSIG=
201010030700 METAR LMML NIL=
201010030645 METAR LMML 030645Z 13004KT 090V160 9999 SCT017 22/20 Q1019
                        NOSIG=
201010030630 METAR LMML NIL=
201010030615 METAR LMML 030615Z 13003KT 9999 SCT021 21/19 Q1019 NOSIG=
201010030600 METAR LMML NIL=
201010030545 METAR LMML 030545Z 12003KT 9999 FEW020 19/18 Q1018 NOSIG=
201010030515 METAR LMML 030515Z VRB02KT 9999 FEW017 18/17 Q1018 NOSIG=
201010030500 METAR LMML NIL=
201010030445 METAR LMML 030445Z VRB01KT 9999 FEW017 18/17 Q1018 NOSIG=
201010030430 METAR LMML NIL=
201010030415 METAR LMML 030415Z VRB01KT 9999 FEW017 18/17 Q1018 NOSIG=
201010030400 METAR LMML NIL=
201010030345 METAR LMML 030345Z VRB01KT 9999 FEW019 18/17 Q1018 NOSIG=
201010030330 METAR LMML NIL=
201010030315 METAR LMML 030315Z 00000KT CAVOK 18/17 Q1018 NOSIG=
201010030300 METAR LMML NIL=
201010030245 METAR LMML 030245Z 00000KT CAVOK 19/17 Q1018 NOSIG=
201010030230 METAR LMML NIL=
201010030215 METAR LMML 030215Z 00000KT CAVOK 19/17 Q1018 NOSIG=
201010030200 METAR LMML NIL=
201010030145 METAR LMML 030145Z VRB01KT CAVOK 19/17 Q1018 NOSIG=
201010030130 METAR LMML NIL=
201010030115 METAR LMML 030115Z 00000KT 9999 FEW020 19/17 Q1018 NOSIG=
201010030100 METAR LMML NIL=
201010030045 METAR LMML 030045Z 00000KT 9999 FEW022 19/17 Q1018 NOSIG=
201010030030 METAR LMML NIL=
201010030015 METAR LMML 030015Z 00000KT 9999 FEW023 19/17 Q1019 NOSIG=
201010030000 METAR LMML NIL=
201010022345 METAR LMML 022345Z 00000KT 9999 FEW020 19/17 Q1019 NOSIG=
201010022330 METAR LMML NIL=
201010022315 METAR LMML 022315Z 00000KT 9000 FEW020 19/17 Q1019 NOSIG=
201010022300 METAR LMML NIL=
201010022245 METAR LMML 022245Z 00000KT 9000 FEW020 19/17 Q1019 NOSIG=
201010022230 METAR LMML NIL=
201010022215 METAR LMML 022215Z 00000KT 6000 FEW020 19/17 Q1019 NOSIG
                        RMK SMOKE=
201010022200 METAR LMML NIL=
201010022145 METAR LMML 022145Z 00000KT 9999 FEW020 20/17 Q1019 NOSIG
                        RMK SMOKE=
201010022130 METAR LMML NIL=
201010022115 METAR LMML 022115Z VRB01KT 9999 FEW020 20/17 Q1019 NOSIG
                        RMK SMOKE=
201010022100 METAR LMML NIL=
201010022045 METAR LMML 022045Z VRB01KT CAVOK 20/17 Q1019 NOSIG=
201010022030 METAR LMML NIL=
201010022015 METAR LMML 022015Z VRB01KT 9999 FEW025 20/17 Q1019 NOSIG=
201010022000 METAR LMML NIL=
201010021945 METAR LMML 021945Z VRB01KT 9999 FEW025 21/17 Q1019 NOSIG=
201010021930 METAR LMML NIL=
201010021915 METAR LMML 021915Z VRB01KT 9999 FEW025 21/17 Q1019 NOSIG=
201010021900 METAR LMML NIL=
201010021845 METAR LMML 021845Z VRB01KT 9999 FEW025 22/17 Q1019 NOSIG=
201010021830 METAR LMML NIL=
201010021815 METAR LMML 021815Z VRB02KT 9999 FEW025 22/17 Q1019 NOSIG=
201010021800 METAR LMML NIL=
201010021745 METAR LMML 021745Z 24003KT 9999 FEW025 22/17 Q1019 NOSIG=
201010021730 METAR LMML NIL=
201010021715 METAR LMML 021715Z 24003KT 9999 FEW025 23/17 Q1018 NOSIG=
201010021700 METAR LMML NIL=
201010021645 METAR LMML 021645Z 25003KT 9999 FEW026 23/17 Q1018 NOSIG=
201010021630 METAR LMML NIL=
201010021615 METAR LMML 021615Z 25004KT 200V300 9999 FEW026 24/17 Q1018
                        NOSIG=
201010021600 METAR LMML NIL=
201010021545 METAR LMML 021545Z 24005KT 190V280 9999 FEW026 24/18 Q1018
                        NOSIG=
201010021530 METAR LMML NIL=
201010021515 METAR LMML 021515Z 26005KT 220V300 9999 FEW026 25/17 Q1018
                        NOSIG=
201010021500 METAR LMML NIL=
201010021445 METAR LMML 021445Z 26006KT 220V300 9999 FEW026 25/17 Q1018
                        NOSIG=
201010021430 METAR LMML NIL=
201010021415 METAR LMML 021415Z 25006KT 200V300 9999 FEW026 25/17 Q1018
                        NOSIG=
201010021400 METAR LMML NIL=
201010021345 METAR LMML 021345Z 27006KT 210V320 9999 FEW035 25/16 Q1018
                        NOSIG=
201010021315 METAR LMML 021315Z 25007KT 200V310 9999 SCT035 26/16 Q1018
                        NOSIG=
201010021300 METAR LMML NIL=
201010021245 METAR LMML 021245Z 25007KT 200V300 9999 SCT034 26/17 Q1018
                        NOSIG=
201010021230 METAR LMML NIL=
201010021215 METAR LMML 021215Z 28005KT 220V320 9999 SCT036 25/17 Q1018
                        NOSIG=
201010021200 METAR LMML NIL=
201010021145 METAR LMML 021145Z 27004KT 180V330 9999 SCT035 26/17 Q1019
                        NOSIG=
201010021130 METAR LMML NIL=
201010021115 METAR LMML 021115Z 29005KT 200V340 9999 SCT035 26/17 Q1019
                        NOSIG=
201010021100 METAR LMML NIL=
201010021045 METAR LMML 021045Z 31006KT 260V340 9999 SCT030 25/17 Q1019
                        NOSIG=
201010021030 METAR LMML NIL=
201010021015 METAR LMML 021015Z 31007KT 260V350 9999 SCT026 25/16 Q1019
                        NOSIG=
201010021000 METAR LMML NIL=
201010020945 METAR LMML 020945Z 31007KT 260V360 9999 SCT026 25/17 Q1019
                        NOSIG=
201010020930 METAR LMML NIL=
201010020915 METAR LMML 020915Z 30007KT 250V340 9999 SCT026 24/17 Q1019
                        NOSIG=
201010020900 METAR LMML NIL=
201010020845 METAR LMML 020845Z 32005KT 280V350 9999 SCT025 24/17 Q1019
                        NOSIG=
201010020830 METAR LMML NIL=
201010020815 METAR LMML 020815Z 33007KT 300V360 9999 SCT022 23/18 Q1019
                        NOSIG=
201010020800 METAR LMML NIL=
201010020745 METAR LMML 020745Z 33006KT 290V360 9999 FEW020 23/19 Q1018
                        NOSIG=
201010020730 METAR LMML NIL=
201010020715 METAR LMML 020715Z 33004KT 290V360 9999 FEW023 22/18 Q1018
                        NOSIG=
201010020700 METAR LMML NIL=
201010020645 METAR LMML 020645Z VRB02KT 9999 FEW022 21/18 Q1018 NOSIG=
201010020630 METAR LMML NIL=
201010020615 METAR LMML 020615Z 28003KT 9999 FEW022 20/18 Q1018 NOSIG=
201010020600 METAR LMML NIL=
201010020545 METAR LMML 020545Z VRB02KT 9999 FEW022 19/17 Q1017 NOSIG=
201010020530 METAR LMML NIL=
201010020515 METAR LMML 020515Z 27003KT 9999 FEW025 18/16 Q1017 NOSIG=
201010020500 METAR LMML NIL=
201010020445 METAR LMML 020445Z 30003KT 9999 FEW025 18/16 Q1017 NOSIG=
201010020430 METAR LMML NIL=
201010020415 METAR LMML 020415Z 29004KT CAVOK 19/16 Q1017 NOSIG=
201010020400 METAR LMML NIL=
201010020345 METAR LMML 020345Z 28003KT 9999 FEW025 19/16 Q1017 NOSIG=
201010020330 METAR LMML NIL=
201010020315 METAR LMML 020315Z 29005KT 9999 FEW020 19/16 Q1017 NOSIG=
201010020300 METAR LMML NIL=
201010020245 METAR LMML 020245Z 28004KT CAVOK 19/15 Q1017 NOSIG=
201010020230 METAR LMML NIL=
201010020215 METAR LMML 020215Z 28004KT CAVOK 19/16 Q1017 NOSIG=
201010020200 METAR LMML NIL=
201010020145 METAR LMML 020145Z 25004KT CAVOK 19/15 Q1017 NOSIG=
201010020130 METAR LMML NIL=
201010020115 METAR LMML 020115Z 28004KT 240V300 CAVOK 19/15 Q1017 NOSIG=
201010020100 METAR LMML NIL=
201010020045 METAR LMML 020045Z 28004KT 240V300 CAVOK 19/16 Q1017 NOSIG=
201010020030 METAR LMML NIL=
201010020015 METAR LMML 020015Z 28004KT 240V310 CAVOK 19/16 Q1017 NOSIG=
201010020000 METAR LMML NIL=
201010012345 METAR LMML 012345Z 28004KT CAVOK 20/16 Q1017 NOSIG=
201010012330 METAR LMML NIL=
201010012315 METAR LMML 012315Z 27004KT CAVOK 20/16 Q1017 NOSIG=
201010012300 METAR LMML NIL=
201010012245 METAR LMML 012245Z 28005KT CAVOK 20/17 Q1017 NOSIG=
201010012230 METAR LMML NIL=
201010012215 METAR LMML 012215Z 28004KT CAVOK 20/17 Q1017 NOSIG=
201010012200 METAR LMML NIL=
201010012145 METAR LMML 012145Z 28004KT CAVOK 20/17 Q1018 NOSIG=
201010012130 METAR LMML NIL=
201010012115 METAR LMML 012115Z 29004KT 9999 FEW020 SCT250 20/17 Q1018
                        NOSIG=
201010012100 METAR LMML NIL=
201010012045 METAR LMML 012045Z 28005KT 9999 FEW020 SCT250 21/17 Q1017
                        NOSIG=
201010012030 METAR LMML NIL=
201010012015 METAR LMML 012015Z 27005KT 9999 FEW020 SCT250 21/16 Q1017
                        NOSIG=
201010011945 METAR LMML 011945Z 27006KT 220V290 9999 FEW028 21/16 Q1017
                        NOSIG=
201010011930 METAR LMML NIL=
201010011915 METAR LMML 011915Z 28006KT 240V310 9999 FEW028 21/16 Q1017
                        NOSIG=
201010011900 METAR LMML NIL=
201010011845 METAR LMML 011845Z 27005KT 240V300 9999 FEW028 21/16 Q1017
                        NOSIG=
201010011830 METAR LMML NIL=
201010011815 METAR LMML 011815Z 27005KT 240V300 9999 FEW028 21/16 Q1017
                        NOSIG=
201010011800 METAR LMML NIL=
201010011745 METAR LMML 011745Z 28005KT 250V310 9999 FEW028 22/16 Q1016
                        NOSIG=
201010011730 METAR LMML NIL=
201010011715 METAR LMML 011715Z 29006KT 9999 FEW028 22/16 Q1016 NOSIG=
201010011700 METAR LMML NIL=
201010011645 METAR LMML 011645Z 30007KT 9999 FEW028 22/17 Q1016 NOSIG=
201010011630 METAR LMML NIL=
201010011615 METAR LMML 011615Z 29008KT 250V320 9999 FEW028 23/17 Q1016
                        NOSIG=
201010011600 METAR LMML NIL=
201010011545 METAR LMML 011545Z 28009KT 240V340 9999 FEW029 23/16 Q1016
                        NOSIG=
201010011530 METAR LMML NIL=
201010011515 METAR LMML 011515Z 29010KT 250V320 9999 FEW029 23/16 Q1016
                        NOSIG=
201010011500 METAR LMML NIL=
201010011445 METAR LMML 011445Z 29009KT 240V310 9999 FEW029 24/16 Q1016
                        NOSIG=
201010011430 METAR LMML NIL=
201010011415 METAR LMML 011415Z 29011KT 250V330 9999 FEW030 24/16 Q1016
                        NOSIG=
201010011400 METAR LMML NIL=
201010011345 METAR LMML 011345Z 29013KT 260V320 9999 FEW030 24/16 Q1016
                        NOSIG=
201010011330 METAR LMML NIL=
201010011315 METAR LMML 011315Z 31013KT 9999 FEW030 25/16 Q1016 NOSIG=
201010011300 METAR LMML NIL=
201010011245 METAR LMML 011245Z 29013KT 250V320 9999 FEW031 24/15 Q1016
                        NOSIG=
201010011230 METAR LMML NIL=
201010011215 METAR LMML 011215Z 29012KT 260V320 9999 FEW031 24/16 Q1016
                        NOSIG=
201010011200 METAR LMML NIL=
201010011145 METAR LMML 011145Z 29011KT 260V330 9999 FEW031 24/16 Q1016
                        NOSIG=
201010011130 METAR LMML NIL=
201010011115 METAR LMML 011115Z 29012KT 260V320 9999 FEW032 24/16 Q1017
                        NOSIG=
201010011100 METAR LMML NIL=
201010011045 METAR LMML 011045Z 28011KT 250V320 9999 SCT033 24/16 Q1017
                        NOSIG=
201010011015 METAR LMML 011015Z 29012KT 250V320 9999 SCT033 24/16 Q1017
                        NOSIG=
201010011000 METAR LMML NIL=
201010010945 METAR LMML 010945Z 29012KT 250V320 9999 SCT033 24/16 Q1017
                        NOSIG=
201010010930 METAR LMML NIL=
201010010915 METAR LMML 010915Z 30011KT 260V340 9999 FEW030 24/16 Q1017
                        NOSIG=
201010010900 METAR LMML NIL=
201010010845 METAR LMML 010845Z 31011KT 280V350 9999 FEW030 24/16 Q1017
                        NOSIG=
201010010830 METAR LMML NIL=
201010010815 METAR LMML 010815Z 30012KT 9999 FEW025 23/15 Q1017 NOSIG=
201010010800 METAR LMML NIL=
201010010745 METAR LMML 010745Z 31011KT 290V350 9999 FEW025 22/16 Q1017
                        NOSIG=
201010010730 METAR LMML NIL=
201010010715 METAR LMML 010715Z 31010KT 280V340 9999 FEW025 22/16 Q1016
                        NOSIG=
201010010700 METAR LMML NIL=
201010010645 METAR LMML 010645Z 30007KT 9999 FEW030 SCT250 22/16 Q1016
                        NOSIG=
201010010630 METAR LMML NIL=
201010010615 METAR LMML 010615Z 30006KT 9999 FEW030 BKN250 21/16 Q1016
                        NOSIG=
201010010600 METAR LMML NIL=
201010010545 METAR LMML 010545Z 29006KT 9999 FEW030 BKN250 20/16 Q1016
                        NOSIG=
201010010530 METAR LMML NIL=
201010010515 METAR LMML 010515Z 30007KT 9999 FEW030 BKN250 19/16 Q1016
                        NOSIG=
201010010445 METAR LMML 010445Z 29006KT 260V320 9999 FEW035 SCT250 19/16
                        Q1016 NOSIG=
201010010430 METAR LMML NIL=
201010010415 METAR LMML 010415Z 26004KT 240V300 9999 FEW040 19/15 Q1016
                        NOSIG=
201010010400 METAR LMML NIL=
201010010345 METAR LMML 010345Z 27004KT 9999 FEW040 18/15 Q1016 NOSIG=
201010010330 METAR LMML NIL=
201010010315 METAR LMML 010315Z 26004KT 230V290 9999 FEW040 18/15 Q1016
                        NOSIG=
201010010300 METAR LMML NIL=
201010010245 METAR LMML 010245Z 26004KT 9999 FEW040 18/15 Q1016 NOSIG=
201010010230 METAR LMML NIL=
201010010215 METAR LMML 010215Z 26004KT 9999 FEW040 18/14 Q1016 NOSIG=
201010010200 METAR LMML NIL=
201010010145 METAR LMML 010145Z 26004KT 9999 FEW040 18/14 Q1016 NOSIG=
201010010130 METAR LMML NIL=
201010010115 METAR LMML 010115Z 26004KT 9999 FEW040 18/14 Q1016 NOSIG=
201010010100 METAR LMML NIL=
201010010045 METAR LMML 010045Z 27003KT 9999 FEW040 18/14 Q1017 NOSIG=
201010010030 METAR LMML NIL=
201010010015 METAR LMML 010015Z 25004KT 220V280 9999 FEW040 18/14 Q1017
                        NOSIG=
201010010000 METAR LMML NIL=

###################################
#  short TAF from LMML
###################################
201010312300 TAF LMML 312300Z 0100/0109 16018KT CAVOK
                      TEMPO 0100/0109 15020G30KT
                      BECMG 0100/0103 9999 FEW020
                      PROB30 TEMPO 0103/0106 9000 BKN010=
201010312000 TAF LMML 312000Z 3121/0106 16017KT CAVOK
                      TEMPO 3121/0106 15020G30KT 9999 FEW020
                      BECMG 0103/0106 9999 SCT015
                      PROB30 TEMPO 0103/0106 9000 BKN010=
201010311700 TAF LMML 311700Z 3118/0103 16017KT 9999 FEW025=
201010311400 TAF LMML 311400Z 3115/3124 16017KT 9999 FEW025=
201010311100 TAF LMML 311100Z 3112/3121 16016KT 9999 FEW025=
201010310800 TAF LMML 310800Z 3109/3118 16015KT 9999 FEW025=
201010310500 TAF LMML 310500Z 3106/3115 16012KT 9999 SCT025 SCT120 BKN200=
201010310200 TAF LMML 310200Z 3103/3112 16012KT 9999 SCT020 SCT250=
201010302300 TAF LMML 302300Z 3100/3109 16010KT 9999 SCT020 SCT250=
201010302000 TAF LMML 302000Z 3021/3106 16005KT 9999 SCT030
                      BECMG 3103/3106 16015KT=
201010301700 TAF LMML 301700Z 3018/3103 16008KT 9999 FEW025=
201010301400 TAF LMML 301400Z 3015/3024 18007KT 9999 SCT030=
201010301100 TAF LMML 301100Z 3012/3021 19007KT 9999 FEW025=
201010300800 TAF LMML 300800Z 3009/3018 23007KT 9999 FEW025=
201010300500 TAF LMML 300500Z 3006/3015 VRB04KT 9999 SCT025
                      PROB30 TEMPO 3006/3009 CAVOK=
201010300200 TAF LMML 300200Z 3003/3012 VRB03KT 9999 FEW025=
201010292300 TAF LMML 292300Z 3000/3009 VRB03KT 9999 FEW025=
201010292000 TAF LMML 292000Z 2921/3006 VRB03KT 9999 SCT025=
201010291700 TAF LMML 291700Z 2918/3003 VRB03KT 9999 SCT025=
201010291400 TAF LMML 291400Z 2915/2924 VRB03KT 9999 SCT030=
201010291100 TAF LMML 291100Z 2912/2921 VRB03KT 9999 SCT030=
201010290800 TAF LMML 290800Z 2909/2918 30005KT 9999 SCT035=
201010290500 TAF LMML 290500Z 2906/2915 30005KT 9999 FEW025 SCT045=
201010290200 TAF LMML 290200Z 2903/2912 30005KT 9999 FEW025=
201010282300 TAF LMML 282300Z 2900/2909 30005KT 9999 FEW025=
201010282000 TAF LMML 282000Z 2821/2906 31010KT 9999 FEW025=
201010281700 TAF LMML 281700Z 2818/2903 31012KT 9999 FEW025 SCT040=
201010281400 TAF LMML 281400Z 2815/2824 31012KT 9999 SCT025
                      PROB30 TEMPO 2815/2818 31015G25KT=
201010281100 TAF LMML 281100Z 2812/2821 31015G25KT 9999 SCT025
                      BECMG 2815/2818 31012KT=
201010280800 TAF LMML 280800Z 2809/2818 31015KT 9999 SCT025 SCT050
                      PROB30 TEMPO 2809/2815 31015G25KT=
201010280500 TAF LMML 280500Z 2806/2815 31015KT 9999 SCT025 SCT050
                      PROB30 TEMPO 2806/2812 30017G27KT=
201010280200 TAF LMML 280200Z 2803/2812 31014KT 9999 SCT030 SCT070
                      PROB30 TEMPO 2803/2809 30015G25KT 8000 SHRA
                       BKN015 BKN060=
201010272300 TAF LMML 272300Z 2800/2809 30014KT 9999 SCT030
                      PROB30 TEMPO 2800/2809 30015G25KT 8000 SHRA
                       BKN015=
201010272000 TAF LMML 272000Z 2721/2806 31017KT 9999 SCT030
                      PROB30 TEMPO 2721/2806 30020G30KT 8000 SHRA
                       BKN015=
201010271700 TAF LMML 271700Z 2718/2803 30018G28KT 9999 SCT030
                      TEMPO 2718/2803 6000 SHRA BKN020TCU
                      PROB30 TEMPO 2718/2803 5000 TSRA BKN020CB=
201010271400 TAF LMML 271400Z 2715/2724 30018G28KT 9999 SCT030
                      TEMPO 2715/2724 6000 SHRA BKN020TCU
                      PROB30 TEMPO 2715/2724 5000 TSRA BKN020CB=
201010271100 TAF LMML 271100Z 2712/2721 30015KT 9999 SCT030
                      TEMPO 2712/2721 6000 SHRA BKN020TCU
                      PROB30 TEMPO 2712/2721 5000 TSRA BKN020CB
                       BECMG 2715/2718 30020G30KT=
201010270800 TAF LMML 270800Z 2709/2718 30015KT 9999 SCT030
                      TEMPO 2709/2718 7000 SHRA BKN020TCU
                      PROB30 TEMPO 2709/2718 5000 TSRA BKN020CB=
201010270500 TAF COR LMML 270500Z 2706/2715 27006KT 9999 SCT025
                      TEMPO 2706/2715 7000 SHRA
                      PROB30 TEMPO 2706/2715 5000 TSRA BKN015CB
                       BECMG 2712/2715 33016KT=
201010270200 TAF LMML 270200Z 2703/2712 26008KT 9999 SCT025
                      TEMPO 2703/2712 8000 SHRA BKN015
                      PROB30 TEMPO 2703/2712 5000 TSRA BKN012CB
                       BECMG 2709/2712 32012KT=
201010262300 TAF LMML 262300Z 2700/2709 26008KT 9999 FEW025
                      TEMPO 2700/2709 8000 SHRA
                      PROB30 TEMPO 2700/2709 4000 TSRA BKN015CB=
201010262000 TAF LMML 262000Z 2621/2706 25009KT 9999 FEW025
                      PROB30 TEMPO 2621/2706 8000 SHRA
                      PROB40 TEMPO 2703/2706 4000 TSRA BKN015CB=
201010261700 TAF LMML 261700Z 2618/2703 28011KT 9999 SCT020
                      TEMPO 2618/2703 8000 SHRA BKN015
                      PROB30 TEMPO 2700/2703 3000 TSRA BKN015CB=
201010261400 TAF LMML 261400Z 2615/2624 28013KT 9999 SCT020
                      TEMPO 2615/2624 8000 SHRA BKN015
                      PROB30 TEMPO 2615/2619 3000 TSRA BKN010 BKN015CB=
201010261100 TAF LMML 261100Z 2612/2621 30014KT 9999 SCT020 SCT100
                      TEMPO 2612/2621 8000 SHRA BKN015 BKN080
                      PROB30 TEMPO 2612/2617 3000 TSRA BKN015CB
                       BKN070=
201010260800 TAF LMML 260800Z 2609/2618 23008KT 9999 SCT020 SCT100
                      TEMPO 2609/2618 8000 SHRA BKN015 BKN080
                      PROB30 TEMPO 2609/2615 3000 TSRA BKN010 BKN015CB
                       BKN080
                      BECMG 2609/2612 29014KT=
201010260500 TAF LMML 260500Z 2606/2615 28012KT 9999 SCT020
                      TEMPO 2606/2615 8000 SHRA BKN015
                      PROB30 TEMPO 2606/2612 5000 TSRA BKN015CB=
201010260200 TAF LMML 260200Z 2603/2612 26012KT 9999 FEW020
                      TEMPO 2603/2612 8000 SHRA BKN015
                      PROB30 TEMPO 2603/2612 5000 TSRA BKN015CB=
201010252300 TAF LMML 252300Z 2600/2609 26010KT 9999 FEW015
                      TEMPO 2600/2609 8000 SHRA BKN015
                      PROB40 TEMPO 2600/2609 3000 TSRA BKN006 BKN012CB=
201010252000 TAF LMML 252000Z 2521/2606 26009KT 9999 FEW015
                      TEMPO 2600/2606 8000 SHRA BKN015
                      PROB30 TEMPO 2600/2606 5000 TSRA BKN006 BKN012CB=
201010251700 TAF LMML 251700Z 2518/2603 27008KT 9999 SCT015
                      TEMPO 2600/2603 8000 SHRA BKN015
                      PROB30 TEMPO 2600/2603 5000 TSRA BKN012CB=
201010251400 TAF LMML 251400Z 2515/2524 30015KT 9999 SCT015
                      BECMG 2518/2521 24010KT
                      PROB30 TEMPO 2521/2524 7000 SHRA BKN015=
201010251100 TAF LMML 251100Z 2512/2521 32015KT 9999 SCT015
                      PROB30 TEMPO 2512/2521 8000 SHRA BKN012
                      BECMG 2518/2521 24010KT=
201010250800 TAF LMML 250800Z 2509/2518 32008KT 9999 SCT015
                      TEMPO 2509/2515 32018KT=
201010250500 TAF LMML 250500Z 2506/2515 30018KT 9999 SCT018
                      TEMPO 2506/2508 3000 TSRA BKN005 BKN015CB=
201010250200 TAF LMML 250200Z 2503/2512 09010KT 9999 SCT015
                      TEMPO 2503/2509 7000 SHRA SCT008 BKN015TCU
                       PROB40
                      TEMPO 2503/2509 3000 TSRA SCT005 BKN015CB
                       BECMG 2508/2511 30018KT=
201010242300 TAF LMML 242300Z 2500/2509 16010KT 9999 SCT020
                      TEMPO 2500/2509 7000 SHRA BKN015
                      PROB30 TEMPO 2500/2508 3000 TSRA BKN007 BKN015CB
                       BECMG 2501/2504 27015KT=
201010242000 TAF LMML 242000Z 2421/2506 15012KT 9999 SCT020
                      TEMPO 2421/2506 6000 SHRA BKN015
                      PROB40 TEMPO 2421/2506 3000 TSRA BKN007 BKN015CB
                       BECMG 2501/2504 27015KT=
201010241700 TAF LMML 241700Z 2418/2503 15012KT 9999 SCT020
                      TEMPO 2418/2503 7000 RA BKN015
                      PROB30 TEMPO 2418/2503 3000 TSRA BKN080CB
                       BECMG 2500/2503 25010KT=
201010241400 TAF LMML 241400Z 2415/2424 16010KT 9999 SCT020
                      TEMPO 2415/2424 7000 RA BKN015
                      PROB40 TEMPO 2415/2424 3000 TSRA BKN080CB=
201010241100 TAF LMML 241100Z 2412/2421 17012KT 9999 SCT020
                      TEMPO 2412/2421 8000 RA BKN015
                      PROB30 TEMPO 2412/2421 3000 TSRA BKN080CB=
201010240800 TAF LMML 240800Z 2409/2418 17012KT 9999 SCT020
                      TEMPO 2412/2418 8000 RA BKN015
                      PROB30 TEMPO 2412/2418 3000 TSRA BKN080CB=
201010240500 TAF LMML 240500Z 2406/2415 16012KT 9999 SCT020 SCT120
                      TEMPO 2406/2415 8000 SHRA BKN015 BKN100
                      PROB30 TEMPO 2406/2415 3000 TSRA BKN010 BKN015CB
                       BKN080=
201010240200 TAF LMML 240200Z 2403/2412 16010KT 9999 SCT020 SCT120
                      TEMPO 2403/2412 8000 RA BKN010 BKN015 BKN100
                       PROB30
                      TEMPO 2403/2412 1500 TSRA BKN005 BKN013CB
                       BKN080=
201010232300 TAF LMML 232300Z 2400/2409 14011KT 9999 SCT020 SCT120
                      TEMPO 2400/2409 8000 RA BKN010 BKN015 BKN100
                       PROB30
                      TEMPO 2400/2409 1500 TSRA BKN005 BKN013CB
                       BKN080=
201010232000 TAF LMML 232000Z 2321/2406 VRB06KT 9999 SCT015 SCT050
                      TEMPO 2321/2406 8000 RA BKN010 BKN015
                      PROB30 TEMPO 2321/2406 1500 TSRA BKN005 BKN013CB
                       BECMG 2321/2324 16013KT=
201010231700 TAF COR LMML 231700Z 2318/2403 14005KT 9999 SCT020 BKN050
                      TEMPO 2318/2403 8000 SHRA FEW008 BKN015TCU
                       PROB40
                      TEMPO 2318/2403 3000 TSRA SCT008 BKN015CB=
201010231400 TAF LMML 231400Z 2315/2324 14006KT 9999 SCT020
                      TEMPO 2315/2324 8000 RA FEW008 BKN018TCU
                       PROB30
                      TEMPO 2315/2324 5000 TSRA SCT008 BKN018CB=
201010231100 TAF COR LMML 231100Z 2312/2321 14006KT 9999 SCT030
                      PROB40 TEMPO 2315/2321 8000 SHRA BKN020TCU
                       PROB30
                      TEMPO 2318/2321 5000 TSRA FEW008 BKN015CB=
201010230800 TAF COR LMML 230800Z 2309/2318 14005KT 9999 SCT030
                      PROB40 TEMPO 2312/2318 8000 SHRA BKN025TCU
                       PROB30
                      TEMPO 2315/2318 5000 TSRA BKN015CB=
201010230500 TAF LMML 230500Z 2306/2315 12005KT 9999 SCT025=
201010230200 TAF LMML 230200Z 2303/2312 15005KT 9999 FEW020
                      PROB30 TEMPO 2303/2305 7000=
201010222330 TAF COR LMML 222330Z 2300/2309 VRB03KT 9999 FEW020
                      PROB30 TEMPO 2300/2305 7000=
201010222300 TAF LMML NIL=
201010222000 TAF LMML 222000Z 2221/2306 VRB03KT 9999 FEW020=
201010221700 TAF LMML 221700Z 2218/2303 35005KT 9999 FEW020=
201010221400 TAF LMML 221400Z 2215/2224 02007KT 9999 SCT025=
201010221100 TAF LMML 221100Z 2212/2221 02007KT 9999 SCT030=
201010220800 TAF LMML 220800Z 2209/2218 30007KT 9999 FEW025=
201010220500 TAF LMML 220500Z 2206/2215 33006KT 9999 FEW035=
201010220200 TAF LMML 220200Z 2203/2212 33006KT 9999 FEW035=
201010212300 TAF LMML 212300Z 2200/2209 30005KT CAVOK
                      TEMPO 2200/2209 9999 FEW035=
201010212000 TAF LMML 212000Z 2121/2206 30005KT 9999 SCT030=
201010211700 TAF LMML 211700Z 2118/2203 28005KT 9999 SCT028 BKN200=
201010211400 TAF LMML 211400Z 2115/2124 30012KT 9999 SCT028 SCT050=
201010211100 TAF LMML 211100Z 2112/2121 36012KT 9999 SCT028 SCT050=
201010210800 TAF LMML 210800Z 2109/2118 29012KT 9999 SCT028 SCT040=
201010210500 TAF LMML 210500Z 2106/2115 30012KT 9999 SCT035=
201010210200 TAF LMML 210200Z 2103/2112 29012KT 9999 SCT035=
201010202300 TAF LMML 202300Z 2100/2109 29012KT 9999 SCT035=
201010202000 TAF LMML 202000Z 2021/2106 29012KT 9999 SCT025 SCT050=
201010201700 TAF LMML 201700Z 2018/2103 28008KT 9999 SCT025 SCT050=
201010201400 TAF LMML 201400Z 2015/2024 28018KT 9999 SCT030 SCT060
                      BECMG 2021/2024 28008KT=
201010201100 TAF LMML 201100Z 2012/2021 29018KT 9999 SCT035 SCT060
                      BECMG 2018/2021 28008KT=
201010200800 LMML 200800Z 2009/2018 29015KT 9999 SCT035 SCT060=
201010200500 TAF LMML 200500Z 2006/2015 28018KT 9999 SCT030 SCT050
                      PROB30 TEMPO 2006/2015 28018G28KT 8000 SHRA=
201010200200 TAF LMML 200200Z 2003/2012 29016KT 9999 SCT030
                      PROB30 TEMPO 2003/2012 28018G28KT 8000 SHRA=
201010192300 TAF LMML 192300Z 2000/2009 29018KT 9999 SCT030
                      PROB30 TEMPO 2000/2009 28018G28KT 8000 SHRA=
201010192000 TAF LMML 192000Z 1921/2006 29020KT 9999 SCT025
                      PROB30 TEMPO 1921/2006 28020G30KT 8000 SHRA
                       BKN015=
201010191700 TAF LMML 191700Z 1918/2003 29020G30KT 9999 SCT015
                      TEMPO 1918/2003 8000 SHRA BKN015TCU
                      PROB30 TEMPO 1918/1921 5000 TSRA BKN015CB
                       BECMG 2000/2003 28018KT=
201010191400 TAF LMML 191400Z 1915/1924 29018G28KT 9999 SCT020
                      TEMPO 1915/1924 8000 SHRA BKN020TCU
                      PROB30 TEMPO 1915/1921 5000 TSRA BKN015CB=
201010191100 TAF LMML 191100Z 1912/1921 28018G28KT 9999 SCT020
                      TEMPO 1912/1921 8000 SHRA BKN020TCU
                      PROB40 TEMPO 1912/1921 5000 TSRA BKN015CB=
201010190800 TAF LMML 190800Z 1909/1918 27018G28KT 9999 SCT030
                      TEMPO 1909/1918 8000 SHRA BKN020TCU
                      PROB30 TEMPO 1909/1918 5000 TSRA BKN015CB=
201010190500 TAF LMML 190500Z 1906/1915 27020G30KT 9999 SCT030
                      PROB30 TEMPO 1906/1915 5000 TSRA BKN015CB=
201010190400 TAF LMML 190400Z 1903/1912 27025KT 9999 SCT040
                      TEMPO 1903/1912 27025G35KT 8000 SHRA
                      PROB30 TEMPO 1903/1912 5000 TSRA BKN015CB=
201010190200 TAF LMML NIL=
201010182300 TAF LMML 182300Z 1900/1909 28020KT 9999 SCT040
                      PROB30 TEMPO 1900/1909 27020G30KT 5000 TSRA
                       BKN020CB=
201010182100 TAF LMML 182100Z 1821/1906 28020KT 9999 SCT040
                      PROB30 TEMPO 1821/1906 27025G35KT 5000 TSRA
                       BK020CB=
201010182000 TAF LMML 182000Z 1821/1906 28020KT 9999 SCT040
                      TEMPO 1821/1906 27025G35KT=
201010181700 TAF LMML 181700Z 1818/1903 28025KT 9999 SCT025
                      TEMPO 1818/1903 28027G37KT 8000 SHRA BKN015
                       PROB30
                      TEMPO 1821/1903 3000 TSRA BKN010 BKN015CB=
201010181400 TAF LMML 181400Z 1815/1824 31018KT 9999 SCT015
                      TEMPO 1815/1824 5000 SHRA BKN012
                      BECMG 1815/1818 28024KT
                      TEMPO 1815/1824 28027G37KT
                      PROB30 TEMPO 1820/1824 1500 TSRA BKN010 BKN015CB=
201010181100 TAF LMML 181100Z 1812/1821 31017KT 9999 SCT015
                      TEMPO 1812/1821 8000 SHRA BKN015
                      PROB30 TEMPO 1812/1815 3000 TSRA BKN010 BKN015CB
                       BECMG 1812/1815 28024KT
                      PROB30 TEMPO 1812/1821 28027G37KT=
201010180800 TAF LMML 180800Z 1809/1818 30006KT 9999 SCT015 SCT050
                      TEMPO 1809/1816 8000 SHRA BKN010 BKN015 BKN050
                       PROB30
                      TEMPO 1809/1814 3000 TSRA BKN010 BKN015CB
                       BKN040
                      BECMG 1809/1812 28016KT
                      BECMG 1812/1815 28026KT
                      TEMPO 1812/1818 28026G36KT=
201010180500 TAF LMML 180500Z 1806/1815 33006KT 9999 SCT018 BKN080
                      TEMPO 1806/1815 5000 SHRA BKN015TCU
                      TEMPO 1806/1812 1000 TSRA SCT005 BKN015CB
                       BECMG 1809/1812 30025KT=
201010180200 TAF LMML 180200Z 1803/1812 36008KT 9999 SCT018
                      TEMPO 1803/1812 5000 SHRA BKN015TCU
                      PROB40 TEMPO 1803/1812 3000 TSRA SCT005 BKN015CB
                       BECMG 1806/1809 30020KT=
201010172300 TAF LMML 172300Z 1800/1809 35010KT 9999 FEW020
                      TEMPO 1800/1809 8000 SHRA BKN015
                      PROB40 TEMPO 1800/1809 5000 TSRA BKN006 BKN015CB=
201010172000 TAF LMML 172000Z 1721/1806 36010KT 9999 FEW020
                      TEMPO 1721/1806 8000 SHRA BKN015
                      PROB30 TEMPO 1800/1806 5000 TSRA BKN006 BKN012CB=
201010171700 TAF LMML 171700Z 1718/1803 35005KT 9999 SCT020 SCT080
                      PROB30 TEMPO 1718/1803 8000 SHRA BKN015=
201010171400 TAF LMML 171400Z 1715/1724 02006KT 9999 SCT025 SCT080
                      PROB30 TEMPO 1715/1718 7000 SHRA BKN015=
201010171100 TAF LMML 171100Z 1712/1721 04008KT 9999 SCT025
                      TEMPO 8000 SHRA
                      PROB30 TEMPO 1712/1716 6000 TSRA BKN015CB=
201010170800 TAF LMML 170800Z 1709/1718 03008KT 9999 SCT020
                      PROB30 TEMPO 1709/1718 6000 TSRA BKN015CB=
201010170500 TAF LMML 170500Z 1706/1715 02008KT 9999 FEW020
                      TEMPO 1706/1715 8000 RA
                      PROB30 TEMPO 1706/1712 5000 TSRA BKN015CB=
201010170200 TAF LMML 170200Z 1703/1712 03007KT 9999 SCT018
                      TEMPO 1703/1712 8000 SHRA
                      PROB40 TEMPO 1703/1712 5000 TSRA BKN015CB=
201010162300 TAF LMML 162300Z 1700/1709 04005KT 9999 FEW015
                      TEMPO 1700/1709 8000 SHRA
                      PROB40 TEMPO 1700/1709 5000 TSRA BKN015CB=
201010162000 TAF LMML 162000Z 1621/1706 04005KT 9999 FEW015
                      PROB40 TEMPO 1621/1706 8000 RA
                      PROB30 TEMPO 1700/1706 5000 TSRA BKN050CB=
201010161700 TAF LMML 161700Z 1618/1703 VRB05KT 9999 FEW015
                      PROB40 TEMPO 1618/1621 CAVOK
                      TEMPO 1620/1703 8000 RA BKN012
                      PROB40 TEMPO 1620/1703 5000 TSRA BKN008 BKN050CB=
201010161400 TAF LMML 161400Z 1615/1624 VRB05KT 9999 FEW020
                      TEMPO 1615/1624 CAVOK
                      PROB40 TEMPO 1615/1624 9000 RA
                      PROB30 TEMPO 1618/1624 5000 TSRA BKN080CB=
201010161100 TAF LMML 161100Z 1612/1621 VRB05KT 9999 FEW020
                      TEMPO 1612/1621 8000 RA BKN015
                      PROB30 TEMPO 1612/1621 5000 TSRA BKN080CB=
201010160800 TAF LMML 160800Z 1609/1618 26005KT 9999 SCT020
                      TEMPO 1609/1618 8000 SHRA BKN015
                      PROB40 TEMPO 1609/1618 5000 TSRA BKN010 BKN015CB=
201010160500 TAF LMML 160500Z 1606/1615 26006KT 9999 SCT020
                      TEMPO 1606/1615 8000 SHRA BKN015
                      PROB30 TEMPO 1606/1615 3000 TSRA BKN010 BKN015CB
                       BECMG 1612/1615 20010KT=
201010160200 TAF LMML 160200Z 1603/1612 28006KT 9999 FEW025
                      TEMPO 1603/1612 8000 SHRA BKN015
                      PROB30 TEMPO 1606/1612 3000 TSRA BKN015CB
                       BECMG 1609/1612 22010KT=
201010152300 TAF LMML 152300Z 1600/1609 27006KT 9999 FEW025
                      PROB40 TEMPO 1600/1609 8000 SHRA
                      PROB30 TEMPO 1606/1609 3000 TSRA BKN015CB=
201010152000 TAF LMML 152000Z 1521/1606 27006KT 9999 SCT020
                      TEMPO 1521/1606 8000 SHRA BKN015TCU
                      PROB30 TEMPO 1521/1606 3000 TSRA BKN015CB=
201010151700 TAF LMML 151700Z 1518/1603 29008KT 9999 FEW020
                      PROB30 TEMPO 8000 SHRA SCT020TCU=
201010151400 TAF LMML 151400Z 1515/1524 29010KT 9999 SCT020=
201010151100 TAF LMML 151100Z 1512/1521 29012KT 9999 SCT020=
201010150800 TAF LMML 150800Z 1509/1518 29012KT 9999 SCT020=
201010150500 TAF LMML 150500Z 1506/1515 29010KT 9999 SCT020=
201010150200 TAF LMML 150200Z 1503/1512 29012KT 9999 FEW025
                      PROB30 TEMPO 1503/1506 8000 SHRA BKN015=
201010142300 TAF LMML 142300Z 1500/1509 29010KT 9999 FEW020
                      PROB30 TEMPO 1500/1506 8000 SHRA BKN015=
201010142000 TAF LMML 142000Z 1421/1506 31012KT 9999 FEW020
                      PROB30 TEMPO 1421/1506 8000 SHRA BKN015=
201010141700 TAF LMML 141700Z 1418/1503 30013KT 9999 SCT020
                      PROB30 TEMPO 1418/1503 8000 SHRA BKN015=
201010141400 TAF LMML 141400Z 1415/1424 34011KT 9999 SCT020
                      PROB30 TEMPO 1415/1418 8000 SHRA BKN015
                      BECMG 1415/1418 28015KT=
201010141100 TAF LMML 141100Z 1412/1421 29013KT 9999 SCT020
                      PROB30 TEMPO 1412/1415 8000 SHRA BKN015=
201010140800 TAF LMML 140800Z 1409/1418 24011KT 9999 SCT020
                      PROB30 TEMPO 1409/1415 8000 SHRA BKN015
                      BECMG 1409/1412 30014KT=
201010140500 TAF LMML 140500Z 1406/1415 30010KT 9999 SCT025
                      PROB30 TEMPO 1406/1415 8000 SHRA BKN018=
201010140200 TAF LMML 140200Z 1403/1412 30006KT 9999 FEW025=
201010132300 TAF LMML 132300Z 1400/1409 30005KT 9999 FEW015=
201010132200 TAF LMML 132200Z 1321/1406 25005KT 9999 FEW015
                      PROB40 TEMPO 1321/1406 CAVOK=
201010132000 TAF LMML 132000Z 3121/1406 25005KT 9999 FEW015
                      PROB40 TEMPO 1321/1406 CAVOK=
201010131700 TAF LMML 131700Z 1318/1403 26007KT 9999 FEW015
                      PROB40 TEMPO 1318/1403 CAVOK
                      PROB30 TEMPO 1321/1403 8000 BKN008=
201010131400 TAF LMML 131400Z 1315/1324 25007KT CAVOK
                      TEMPO 1315/1324 9999 FEW015
                      PROB30 TEMPO 1318/1324 7000 BKN007=
201010131100 TAF LMML 131100Z 1312/1321 VRB06KT CAVOK
                      TEMPO 1315/1321 9999 FEW015=
201010130800 TAF LMML 130800Z 1309/1318 VRB05KT CAVOK
                      TEMPO 1309/1318 9999 FEW025
                      PROB40 TEMPO 1309/1315 5000 TSRA BKN050CB
                       PROB30
                      TEMPO 1309/1312 9000 NSC=
201010130500 TAF LMML 130500Z 1306/1315 24007KT 9999 FEW025
                      TEMPO 1306/1315 CAVOK
                      PROB40 TEMPO 1306/1315 5000 TSRA BKN050CB=
201010130200 TAF LMML 130200Z 1303/1312 12005KT 9000 SCT007
                      TEMPO 1303/1308 7000 BKN004
                      PROB40 TEMPO 1303/1312 5000 TSRA BKN080CB=
201010122300 TAF LMML 122300Z 1300/1309 12005KT 7000 BKN004
                      TEMPO 1303/1309 9000 SCT005
                      PROB30 TEMPO 1303/1309 5000 TSRA BKN003 BKN080CB=
201010122000 TAF LMML 122000Z 1221/1306 12005KT 7000 BKN004
                      TEMPO 1221/1306 9000 SCT005
                      PROB40 TEMPO 1221/1303 5000 BR BKN002
                      PROB30 TEMPO 1303/1306 5000 TSRA BKN002 BKN050CB=
201010121700 TAF LMML 121700Z 1218/1303 09008KT 6000 BKN004
                      TEMPO 1218/1303 3000 BR BKN003
                      PROB30 TEMPO 1218/1303 0100 FG OVC001
                      PROB30 TEMPO 1220/1303 TSRA BKN050CB=
201010121400 TAF LMML 121400Z 1215/1224 VRB05KT 7000 BKN005
                      PROB30 TEMPO 1221/1224 5000 TSRA BKN003 BKN050CB=
201010121100 TAF LMML 121100Z 1212/1221 09010KT 8000 BKN005
                      BECMG 1212/1215 VRB05KT
                      PROB30 TEMPO 1212/1221 9999 SCT005=
201010120800 TAF LMML 120800Z 1209/1218 09015KT 9999 BKN008 BKN014
                      TEMPO 1209/1218 FEW008 SCT014
                      PROB30 TEMPO 1209/1218 9000
                      BECMG 1211/1214 VRB06KT=
201010120500 TAF LMML 120500Z 1206/1215 06007KT CAVOK
                      TEMPO 1206/1215 9999 FEW015 SCT120
                      PROB30 TEMPO 1206/1209 8000 RA BKN010 BKN100
                       BECMG 1206/1208 08017KT
                      PROB30 TEMPO 1209/1212 9000 BKN012 SCT150
                       BECMG 1209/1212 14010KT
                      BECMG 1212/1215 22008KT=
201010120200 TAF LMML 120200Z 1203/1212 08007KT CAVOK
                      TEMPO 1203/1212 9999 FEW012 SCT120
                      PROB40 TEMPO 1203/1212 8000 RA BKN010 BKN080
                       PROB30
                      TEMPO 1203/1212 3000 TSRA BKN005 BKN015CB
                       BECMG 1203/1206 08017KT=
201010112300 TAF LMML 112300Z 1200/1209 08005KT CAVOK
                      TEMPO 1200/1209 9999 FEW015 SCT120
                      PROB40 TEMPO 1200/1209 8000 RA BKN010 BKN100
                       PROB30
                      TEMPO 1200/1209 3000 TSRA BKN005 BKN060CB
                       BECMG 1202/1205 08015KT=
201010112000 TAF LMML 112000Z 1121/1206 08005KT CAVOK
                      TEMPO 1121/1206 9999 FEW015 SCT130
                      PROB30 TEMPO 1200/1206 8000 RA BKN005 BKN100
                       BECMG 1202/1205 07015KT=
201010111700 TAF LMML 111700Z 1118/1203 09010KT CAVOK
                      TEMPO 1118/1203 9999 FEW015
                      PROB30 TEMPO 1200/1203 9000 BKN007=
201010111400 TAF LMML 111400Z 1115/1124 15008KT CAVOK
                      PROB40 TEMPO 1115/1124 9999 FEW020=
201010111100 TAF LMML 111100Z 1112/1121 15005KT 9999 FEW020
                      TEMPO 1112/1121 CAVOK=
201010110800 TAF LMML 110800Z 1109/1118 15008KT 9999 FEW020
                      TEMPO 1109/118 CAVOK=
201010110500 TAF LMML 110500Z 1106/1115 16010KT 9999 FEW005 SCT014 BKN100
                      TEMPO 1106/1115 7000 RA BKN005 BKN070
                      PROB30 TEMPO 1106/1115 5000 TSRA BKN005 BKN015CB=
201010110200 TAF LMML 110200Z 1103/1112 16010KT 9999 BKN014 BKN080
                      TEMPO 1103/1112 8000 RA
                      PROB40 TEMPO 1103/1112 5000 TSRA BKN005 BKN018CB=
201010102300 TAF LMML 102300Z 1100/1109 15010KT 9999 BKN014 BKN080 OVC180
                      TEMPO 1100/1109 8000 RA
                      PROB30 TEMPO 1100/1109 5000 TSRA BKN005 BKN015CB=
201010102000 TAF LMML 102000Z 1021/1106 15015KT 9999 SCT012 BKN080
                      TEMPO 1021/1106 8000 RA BKN012
                      PROB30 TEMPO 1021/1106 5000 TSRA BKN015 BKN020CB=
201010101700 TAF LMML 101700Z 1018/1103 16015KT 9999 SCT015 SCT090
                      TEMPO 1018/1103 BKN012
                      PROB40 TEMPO 1018/1103 8000 RA BKN010 BKN080
                       PROB30
                      TEMPO 1018/1103 3000 TSRA BKN010 BKN040CB=
201010101400 TAF LMML 101400Z 1015/1024 14015KT 9999 SCT015 SCT130
                      TEMPO 1015/1024 BKN012
                      PROB40 TEMPO 1015/1024 8000 RA BKN010 BKN080
                       PROB30
                      TEMPO 1015/1024 3000 TSRA BKN010 BKN060CB=
201010101100 TAF LMML 101100Z 1012/1021 14015KT 9999 SCT015 SCT130
                      TEMPO 1012/1021 8000 SHRA BKN012 BKN100
                      PROB30 TEMPO 1014/1021 5000 TSRA BKN010 BKN060CB=
201010100800 TAF LMML 100800Z 1009/1018 14015KT 9999 SCT020 SCT070
                      TEMPO 1009/1015 8000 SHRA BKN015 BKN060
                      PROB30 TEMPO 1009/1012 3000 TSRA BKN015CB
                       BKN050=
201010100500 TAF LMML 100500Z 1006/1015 14014KT 9999 SCT015
                      TEMPO 1006/1015 8000 SHRA BKN015
                      PROB30 TEMPO 1006/1015 5000 TSRA BKN015CB=
201010100200 TAF LMML 100200Z 1003/1012 09012KT 9999 SCT012
                      PROB40 TEMPO 1003/1012 9000 SHRA BKN008 BKN012
                       PROB30
                      TEMPO 1003/1012 5000 TSRA BKN015CB=
201010092300 TAF LMML 092300Z 1000/1009 09010KT 9999 SCT012
                      PROB40 TEMPO 1000/1009 9000 SHRA BKN008 BKN012
                       PROB30
                      TEMPO 1000/1009 5000 TSRA BKN015CB=
201010092000 TAF LMML 092000Z 0921/1006 09010KT 9999 SCT012
                      PROB40 TEMPO 0921/1006 BKN008
                      PROB30 TEMPO 0921/1006 5000 TSRA BKN015CB=
201010091700 TAF LMML 091700Z 0918/1003 15006KT 9999 FEW013 SCT120
                      PROB40 TEMPO 0918/1003 8000 SHRA FEW008 BKN015
                       PROB30
                      TEMPO 0920/1003 5000 TSRA SCT008 BKN015CB=
201010091400 TAF LMML 091400Z 0915/0924 14008KT 9999 FEW008 SCT080
                      PROB40 TEMPO 0915/0924 8000 SHRA SCT008 BKN018
                       PROB30
                      TEMPO 0915/0924 5000 TSRA BKN008 BKN015CB=
201010091100 TAF LMML 091100Z 0912/0921 15010KT 9999 FEW018 SCT120
                      PROB40 TEMPO 0912/0921 5000 TSRA SCT005 BKN015CB=
201010090800 TAF LMML 090800Z 0909/0918 15010KT 9999 FEW020 SCT120
                      PROB40 TEMPO 0909/0918 5000 TSRA FEW008 BKN015CB=
201010090500 TAF LMML 090500Z 0906/0915 13008KT 9999 FEW018
                      PROB40 TEMPO 0906/0915 9000 SHRA BKN015
                      PROB30 TEMPO 0903/0915 5000 TSRA BKN013 BKN080CB=
201010090200 TAF LMML 090200Z 0903/0912 14008KT 9999 FEW018
                      PROB40 TEMPO 0903/0912 9000 SHRA BKN015
                      PROB30 TEMPO 0903/0912 5000 TSRA BKN013 BKN080CB=
201010082300 TAF LMML 082300Z 0900/0909 14008KT 9999 FEW018
                      PROB40 TEMPO 0903/0909 9000 SHRA BKN015
                      PROB30 TEMPO 0903/0909 5000 TSRA BKN013 BKN080CB=
201010082000 TAF LMML 082000Z 0821/0906 14008KT 9999 FEW015
                      PROB40 TEMPO 0903/0906 9000 SHRA BKN015
                      PROB30 TEMPO 0903/0906 5000 TSRA BKN013 BKN080CB=
201010081700 TAF LMML 081700Z 0818/0903 11005KT 9999 FEW015
                      PROB40 TEMPO 0900/0903 9000 RA BKN015
                      PROB30 TEMPO 0900/0903 5000 TSRA BKN010 BKN050CB=
201010081400 TAF LMML 081400Z 0815/0824 10005KT 9999 FEW018
                      PROB30 TEMPO 0821/0824 BKN015=
201010081100 TAF LMML 081100Z 0812/0821 10005KT 9999 FEW018=
201010080800 TAF LMML 080800Z 0809/0818 09006KT 9999 FEW018=
201010080500 TAF LMML 080500Z 0806/0815 09006KT 9999 FEW020 SCT050=
201010080200 TAF LMML 080200Z 0803/0812 08006KT 9999 SCT018=
201010072300 TAF LMML 072300Z 0800/0809 08005KT 9999 SCT018=
201010072000 TAF LMML 072000Z 0721/0806 08005KT 9999 SCT018=
201010071700 TAF LMML 071700Z 0718/0803 05010KT 9999 SCT018
                      PROB30 TEMPO 0718/0803 9000 BKN015=
201010071400 TAF LMML 071400Z 0715/0724 05012KT 9999 SCT018
                      PROB30 TEMPO 0716/0724 BKN015=
201010071100 TAF LMML 071100Z 0712/0721 05012KT 9999 SCT018
                      PROB30 TEMPO 0716/0721 BKN015=
201010070800 TAF LMML 070800Z 0709/0718 05012KT 9999 SCT015
                      PROB30 TEMPO 0709/0718 BKN015=
201010070500 TAF LMML 070500Z 0706/0715 03012KT 9999 SCT018
                      PROB40 TEMPO 0706/0709 8000 SCT008=
201010070200 TAF LMML 070200Z 0703/0712 03008KT 9999 SCT018
                      TEMPO 0703/0706 8000 BKN008=
201010062300 TAF LMML 062300Z 0700/0709 24004KT 9999 SCT010
                      PROB30 TEMPO 0700/0706 7000 BKN006
                      BECMG 0706/0709 03012KT=
201010062000 TAF LMML 062000Z 0621/0706 16005KT 9999 SCT011 SCT250
                      PROB30 TEMPO 0621/0706 6000 BKN005
                      BECMG 0703/0706 35010KT=
201010061700 TAF LMML 061700Z 0618/0703 18005KT 9999 SCT012
                      TEMPO 0618/0703 9000 BKN010
                      PROB30 TEMPO 0618/0703 5000 BR BKN005=
201010061400 TAF LMML 061400Z 0615/0624 17010KT 9999 SCT015
                      PROB30 TEMPO 0615/0624 9000 BKN010
                      BECMG 0618/0621 24006KT=
201010061100 TAF LMML 061100Z 0612/0621 17010KT 9999 SCT015
                      PROB30 TEMPO 0612/0621 9000 BKN010
                      BECMG 0618/0621 23006KT=
201010060800 TAF LMML 060800Z 0609/0618 18010KT 9999 SCT018=
201010060500 TAF LMML 060500Z 0606/0615 18010KT 9999 FEW015=
201010060200 TAF LMML 060200Z 0603/0613 18012KT 9999 FEW015=
201010052300 TAF LMML 052300Z 0600/0609 18012KT 9999 FEW015=
201010052000 TAF LMML 052000Z 0521/0606 18010KT 9999 FEW015
                      PROB30 TEMPO 0521/0606 BKN009=
201010051700 TAF LMML 051700Z 0518/0603 16005KT 9999 FEW015
                      PROB30 TEMPO 0518/0603 BKN008=
201010051400 TAF LMML 051400Z 0515/0524 18010KT 9999 FEW015
                      PROB30 TEMPO 0515/0524 SCT008 BKN018=
201010051100 TAF LMML 051100Z 0512/0521 18013KT CAVOK
                      PROB40 TEMPO 0512/0521 SCT008 BKN013=
201010050800 TAF LMML 050800Z 0509/0518 18015KT 9999 FEW015
                      PROB40 TEMPO 0512/0518 SCT008 BKN013=
201010050500 TAF LMML 050500Z 0506/0515 18013KT 9999 FEW015=
201010050200 TAF LMML 050200Z 0503/0512 18013KT 9999 FEW015
                      PROB40 TEMPO 0503/0506 CAVOK=
201010042300 TAF LMML 042300Z 0500/0509 18013KT 9999 FEW015
                      PROB40 TEMPO 0500/0506 CAVOK=
201010042000 TAF LMML 042000Z 0421/0506 18013KT 9999 FEW015
                      TEMPO 0421/0506 CAVOK=
201010041700 TAF LMML 041700Z 0418/0503 18011KT 9999 FEW015
                      PROB40 TEMPO 0418/0503 BKN012
                      PROB30 TEMPO 0420/0503 8000 BKN008=
201010041400 TAF LMML 041400Z 0415/0424 18011KT 9999 FEW015
                      PROB40 TEMPO 0415/0424 0415/0424 BKN015
                      PROB30 TEMPO 0420/0424 9000 BKN009=
201010041100 TAF LMML 041100Z 0412/0421 18013KT 9999 FEW015
                      PROB40 TEMPO 0412/0421 BKN015
                      PROB30 TEMPO 0418/0421 BKN010=
201010040800 TAF LMML 040800Z 0409/0418 18015KT 9999 FEW020=
201010040500 TAF LMML 040500Z 0406/0415 17014KT 9999 SCT020
                      PROB30 TEMPO 0406/0412 9000 BKN015=
201010040200 TAF LMML 040200Z 0403/0412 16013KT 9999 SCT015
                      PROB30 TEMPO 0403/0406 9000 BKN010=
201010032300 TAF LMML 032300Z 0400/0409 16012KT 9999 SCT020
                      PROB30 TEMPO 0400/0406 9000 BKN015=
201010032000 TAF LMML 032000Z 0321/0406 16010KT 9999 SCT020
                      PROB30 TEMPO 0321/0406 9000 BKN015=
201010031700 TAF LMML 031700Z 0318/0403 14009KT 9999 SCT020
                      PROB30 TEMPO 0321/0403 8000 BKN015=
201010031400 TAF LMML 031400Z 0315/0324 14009KT 9999 SCT020
                      PROB30 TEMPO 0321/0324 8000 BKN015=
201010031100 TAF LMML 031100Z 0312/0321 15007KT 9999 FEW025=
201010030800 TAF LMML 030800Z 0309/0318 15007KT 9999 SCT018=
201010030500 TAF LMML 030500Z 0306/0315 14008KT 9999 FEW020=
201010030200 TAF LMML 030200Z 0303/0312 16005KT 9999 FEW015=
201010022300 TAF LMML 022300Z 0300/0309 VRB03KT 9999 FEW015=
201010022000 TAF LMML 022000Z 0221/0306 VRB03KT 9999 FEW016=
201010021700 TAF LMML 021700Z 0218/0303 24005KT 9999 FEW020
                      TEMPO 0218/0303 CAVOK=
201010021400 TAF LMML 021400Z 0215/0224 24007KT 9999 FEW030
                      TEMPO 0218/0224 CAVOK=
201010021100 TAF LMML 021100Z 0212/0221 30008KT 9999 FEW030
                      TEMPO 0218/0221 CAVOK=
201010020800 TAF LMML 020800Z 0209/0218 30008KT 9999 FEW020=
201010020500 TAF LMML 020500Z 0206/0215 30005KT 9999 FEW025
                      PROB30 TEMPO 0206/0215 CAVOK=
201010020200 TAF LMML 020200Z 0203/0212 30005KT 9999 FEW020
                      TEMPO 0203/0212 CAVOK=
201010012300 TAF LMML 012300Z 0200/0209 30005KT 9999 FEW020
                      TEMPO 0200/0209 CAVOK=
201010012000 TAF LMML 012000Z 0121/0206 29005KT 9999 FEW020=
201010011700 TAF LMML 011700Z 0118/0203 30006KT 9999 FEW020 SCT140=
201010011400 TAF LMML 011400Z 0115/0124 30010KT 9999 SCT030=
201010011100 TAF LMML 011100Z 0112/0121 29010KT 9999 SCT030=
201010010800 TAF LMML 010800Z 0109/0118 30010KT 9999 SCT025=
201010010500 TAF LMML 010500Z 0106/0115 30010KT 9999 FEW028=
201010010200 TAF LMML 010200Z 0103/0112 30010KT 9999 SCT030=

###################################
#  large TAF from LMML
###################################
201010312300 TAF LMML NIL=
201010311700 TAF LMML NIL=
201010311100 TAF LMML NIL=
201010310500 TAF LMML NIL=
201010302300 TAF LMML NIL=
201010301700 TAF LMML NIL=
201010301100 TAF LMML NIL=
201010300500 TAF LMML NIL=
201010292300 TAF LMML NIL=
201010291700 TAF LMML NIL=
201010291100 TAF LMML NIL=
201010290500 TAF LMML NIL=
201010282300 TAF LMML NIL=
201010281700 TAF LMML NIL=
201010281100 TAF LMML NIL=
201010280500 TAF LMML NIL=
201010272300 TAF LMML NIL=
201010271700 TAF LMML NIL=
201010271100 TAF LMML NIL=
201010270500 TAF LMML NIL=
201010262300 TAF LMML NIL=
201010261700 TAF LMML NIL=
201010261100 TAF LMML NIL=
201010260500 TAF LMML NIL=
201010252300 TAF LMML NIL=
201010251700 TAF LMML NIL=
201010251100 TAF LMML NIL=
201010250500 TAF LMML NIL=
201010242300 TAF LMML NIL=
201010241700 TAF LMML NIL=
201010241100 TAF LMML NIL=
201010240500 TAF LMML NIL=
201010232300 TAF LMML NIL=
201010231700 TAF LMML NIL=
201010231100 TAF LMML NIL=
201010230500 TAF LMML NIL=
201010222300 TAF LMML 222300Z 2200/2309 VRB03KT 9999 FEW020
                      PROB30 TEMPO 2200/02305 7000=
201010221700 TAF LMML NIL=
201010221100 TAF LMML NIL=
201010220500 TAF LMML NIL=
201010212300 TAF LMML NIL=
201010211700 TAF LMML NIL=
201010211100 TAF LMML NIL=
201010210500 TAF LMML NIL=
201010202300 TAF LMML NIL=
201010201700 TAF LMML NIL=
201010201100 TAF LMML NIL=
201010200500 TAF LMML NIL=
201010192300 TAF LMML NIL=
201010191700 TAF LMML NIL=
201010191100 TAF LMML NIL=
201010182300 TAF LMML NIL=
201010181700 TAF LMML NIL=
201010181100 TAF LMML NIL=
201010180500 TAF LMML NIL=
201010172300 TAF LMML NIL=
201010171700 TAF LMML NIL=
201010171100 TAF LMML NIL=
201010170500 TAF LMML NIL=
201010162300 TAF LMML NIL=
201010161700 TAF LMML NIL=
201010161100 TAF LMML NIL=
201010160500 TAF LMML NIL=
201010152300 TAF LMML NIL=
201010151700 TAF LMML NIL=
201010151100 TAF LMML NIL=
201010150500 TAF LMML NIL=
201010141700 TAF LMML NIL=
201010141100 TAF LMML NIL=
201010140500 TAF LMML NIL=
201010132300 TAF LMML NIL=
201010131700 TAF LMML NIL=
201010131100 TAF LMML NIL=
201010130500 TAF LMML NIL=
201010122300 TAF LMML NIL=
201010121700 TAF LMML NIL=
201010121100 TAF LMML NIL=
201010120500 TAF LMML NIL=
201010112300 TAF LMML NIL=
201010111700 TAF LMML NIL=
201010111100 TAF LMML NIL=
201010110500 TAF LMML NIL=
201010102300 TAF LMML NIL=
201010101700 TAF LMML NIL=
201010101100 TAF LMML NIL=
201010100500 TAF LMML NIL=
201010092300 TAF LMML NIL=
201010091700 TAF LMML NIL=
201010091100 TAF LMML NIL=
201010090500 TAF LMML NIL=
201010082300 TAF LMML NIL=
201010081700 TAF LMML NIL=
201010081100 TAF LMML NIL=
201010080500 TAF LMML NIL=
201010072300 TAF LMML NIL=
201010071700 TAF LMML NIL=
201010071100 TAF LMML NIL=
201010070500 TAF LMML NIL=
201010062300 TAF LMML NIL=
201010061700 TAF LMML NIL=
201010061100 TAF LMML NIL=
201010060500 TAF LMML NIL=
201010052300 TAF LMML NIL=
201010051700 TAF LMML NIL=
201010051100 TAF LMML NIL=
201010050500 TAF LMML NIL=
201010042300 TAF LMML NIL=
201010041700 TAF LMML NIL=
201010041100 TAF LMML NIL=
201010040500 TAF LMML NIL=
201010032300 TAF LMML NIL=
201010031700 TAF LMML NIL=
201010031100 TAF LMML NIL=
201010030500 TAF LMML NIL=
201010022300 TAF LMML NIL=
201010021700 TAF LMML NIL=
201010021100 TAF LMML NIL=
201010020500 TAF LMML NIL=
201010012300 TAF LMML NIL=
201010011700 TAF LMML NIL=
201010011100 TAF LMML NIL=
201010010500 TAF LMML NIL=
