##########################################################
# Query made at 01/18/2013 17:02:11 UTC
# Time interval: from 09/01/2008 00:00  to 10/01/2008 23:59  UTC
##########################################################

##########################################################
# LMML, Luqa (Malta)
# WMO index: 16597
# Latitude 35-51N. Longitude 014-29E. Altitude 91 m.
##########################################################

###################################
#  METAR/SPECI from LMML
###################################
200810012345 METAR LMML 012345Z VRB02KT 9999 SCT008 BKN090 21/20 Q1014
                        NOSIG=
200810012330 METAR LMML NIL=
200810012315 METAR LMML 012315Z 00000KT 9999 SCT008 SCT120 21/20 Q1014
                        NOSIG=
200810012300 METAR LMML NIL=
200810012245 METAR LMML 012245Z 00000KT 9999 SCT008 SCT120 21/20 Q1014
                        NOSIG=
200810012230 METAR LMML NIL=
200810012215 METAR LMML 012215Z VRB01KT 9999 SCT008 SCT120 21/20 Q1015
                        NOSIG=
200810012200 METAR LMML NIL=
200810012145 METAR LMML 012145Z VRB01KT 9999 SCT008 SCT120 21/21 Q1014
                        NOSIG=
200810012130 METAR LMML NIL=
200810012115 METAR LMML 012115Z VRB02KT 9999 SCT007 SCT120 21/21 Q1014
                        NOSIG=
200810012100 METAR LMML NIL=
200810012045 METAR LMML 012045Z VRB01KT 9999 FEW007 SCT120 21/20 Q1015
                        NOSIG=
200810012030 METAR LMML NIL=
200810012015 METAR LMML 012015Z VRB01KT 9999 FEW007 SCT120 BKN250 21/21
                        Q1015 NOSIG=
200810012000 METAR LMML NIL=
200810011945 METAR LMML 011945Z VRB01KT 9999 FEW007 SCT120 SCT250 22/21
                        Q1015 NOSIG=
200810011930 METAR LMML NIL=
200810011915 METAR LMML 011915Z VRB02KT CAVOK 22/21 Q1014 NOSIG=
200810011900 METAR LMML NIL=
200810011845 METAR LMML 011845Z VRB03KT 9999 FEW008 SCT120 21/21 Q1014
                        NOSIG=
200810011830 METAR LMML NIL=
200810011815 METAR LMML 011815Z VRB03KT 9999 FEW008 SCT120 22/20 Q1014
                        NOSIG=
200810011800 METAR LMML NIL=
200810011745 METAR LMML 011745Z VRB03KT 9999 FEW008 SCT110 22/20 Q1014
                        NOSIG=
200810011730 METAR LMML NIL=
200810011715 METAR LMML 011715Z 12005KT 9999 FEW008 SCT110 22/21 Q1014
                        NOSIG=
200810011700 METAR LMML NIL=
200810011645 METAR LMML 011645Z 12006KT 9999 FEW007 BKN110 22/21 Q1014
                        NOSIG=
200810011630 METAR LMML NIL=
200810011615 METAR LMML 011615Z 13005KT 9999 FEW012 BKN110 23/21 Q1014
                        NOSIG=
200810011600 METAR LMML NIL=
200810011545 METAR LMML 011545Z VRB03KT 9999 FEW012 BKN120 23/20 Q1014
                        NOSIG=
200810011530 METAR LMML NIL=
200810011515 METAR LMML 011515Z 10004KT 060V200 9999 FEW012 SCT120 BKN250
                        24/20 Q1014 NOSIG=
200810011500 METAR LMML NIL=
200810011445 METAR LMML 011445Z 09004KT 030V130 9999 SCT012 SCT120 BKN250
                        23/20 Q1014 NOSIG=
200810011430 METAR LMML NIL=
200810011415 METAR LMML 011415Z 08005KT 340V130 9999 SCT012 BKN130 23/21
                        Q1014 TEMPO BKN011=
200810011400 METAR LMML NIL=
200810011345 METAR LMML 011345Z 06005KT 030V090 9999 SCT011 BKN130 24/20
                        Q1014 NOSIG=
200810011330 METAR LMML NIL=
200810011315 METAR LMML 011315Z 07005KT 020V100 9999 SCT012 BKN120 24/21
                        Q1014 NOSIG=
200810011300 METAR LMML NIL=
200810011245 METAR LMML 011245Z 05005KT 020V090 9999 SCT012 BKN018 BKN100
                        24/21 Q1014 NOSIG=
200810011230 METAR LMML NIL=
200810011215 METAR LMML 011215Z 05006KT 020V080 9999 -RA BKN012 BKN100
                        24/21 Q1014 NOSIG=
200810011200 METAR LMML NIL=
200810011145 METAR LMML 011145Z 06005KT 360V140 9999 SCT013 SCT023 24/21
                        Q1014 NOSIG=
200810011130 METAR LMML NIL=
200810011115 METAR LMML 011115Z 04005KT 360V090 9999 SCT015 SCT036 25/21
                        Q1014 NOSIG=
200810011100 METAR LMML NIL=
200810011045 METAR LMML 011045Z 05005KT 340V100 9999 SCT017 SCT250 26/21
                        Q1014 NOSIG=
200810011030 METAR LMML NIL=
200810011015 METAR LMML 011015Z VRB03KT 9999 FEW017 BKN250 25/20 Q1015
                        NOSIG=
200810011000 METAR LMML NIL=
200810010945 METAR LMML 010945Z VRB03KT 9999 FEW016 BKN250 25/20 Q1015
                        NOSIG=
200810010930 METAR LMML NIL=
200810010915 METAR LMML 010915Z VRB03KT 9999 FEW011 BKN250 25/20 Q1015
                        NOSIG=
200810010900 METAR LMML NIL=
200810010845 METAR LMML 010845Z VRB03KT 9999 SCT010 BKN250 24/21 Q1015
                        NOSIG=
200810010830 METAR LMML NIL=
200810010815 METAR LMML 010815Z VRB03KT 9999 SCT009 BKN120 23/20 Q1014
                        NOSIG=
200810010800 METAR LMML NIL=
200810010745 METAR LMML 010745Z VRB03KT 9999 SCT008 BKN120 23/20 Q1014
                        NOSIG=
200810010730 METAR LMML NIL=
200810010715 METAR LMML 010715Z VRB03KT 9999 FEW007 BKN120 22/21 Q1014
                        NOSIG=
200810010700 METAR LMML NIL=
200810010645 METAR LMML 010645Z VRB02KT 9999 FEW007 BKN120 BKN250 22/20
                        Q1014 NOSIG=
200810010630 METAR LMML NIL=
200810010615 METAR LMML 010615Z VRB03KT 9999 FEW008 SCT120 BKN250 20/19
                        Q1013 NOSIG=
200810010600 METAR LMML NIL=
200810010545 METAR LMML 010545Z VRB02KT 9999 FEW008 SCT120 BKN250 20/19
                        Q1013 NOSIG=
200810010530 METAR LMML NIL=
200810010515 METAR LMML 010515Z VRB03KT 9999 FEW008 SCT120 BKN250 20/19
                        Q1013 NOSIG=
200810010500 METAR LMML NIL=
200810010445 METAR LMML 010445Z VRB03KT 9999 FEW015 SCT120 BKN250 19/18
                        Q1012 NOSIG=
200810010430 METAR LMML NIL=
200810010415 METAR LMML 010415Z VRB03KT 9999 FEW015 SCT120 19/19 Q1012
                        NOSIG=
200810010400 METAR LMML NIL=
200810010345 METAR LMML 010345Z VRB03KT 7000 FEW008 BKN120 19/19 Q1012
                        BECMG 9999=
200810010330 METAR LMML NIL=
200810010315 METAR LMML 010315Z 09004KT 040V130 6000 FEW008 BKN120 19/19
                        Q1012 TEMPO BKN006 BKN014=
200810010300 METAR LMML NIL=
200810010245 METAR LMML 010245Z 13004KT 6000 FEW006 BKN090 19/19 Q1013
                        TEMPO BKN003 BKN015=
200810010230 METAR LMML NIL=
200810010215 METAR LMML 010215Z VRB02KT 6000 BKN003 FEW018CB BKN046 19/19
                        Q1013 RETSRA TEMPO BKN003 BKN015=
200810010200 METAR LMML NIL=
200810010145 METAR LMML 010145Z VRB02KT 6000 -TSRA SCT002 SCT018CB OVC046
                        19/19 Q1013 TEMPO 5000 TSRA BKN003
                        BKN015CB=
200810010130 METAR LMML NIL=
200810010115 METAR LMML 010115Z 31005KT 210V340 6000 -TSRA FEW005 BKN020CB
                        19/19 Q1013 TEMPO 5000 TSRA BKN005
                        BKN015CB=
200810010100 METAR LMML NIL=
200810010045 METAR LMML 010045Z 01004KT 300V040 2000 TSRA SCT005 BKN016CB
                        19/19 Q1013 TEMPO TSRA BKN005 BKN015CB=
200810010030 METAR LMML NIL=
200810010015 METAR LMML 010015Z 32018KT 260V360 3000 +TSRA SCT005 BKN017CB
                        18/18 Q1014 TEMPO 1500 +TSRA BKN005
                        BKN012CB=
200810010000 METAR LMML NIL=
200809302345 METAR LMML 302345Z 03006KT 9999 TS FEW009 BKN016CB 20/18
                        Q1013 TEMPO 3000 TSRA BKN008 BKN013CB=
200809302330 METAR LMML NIL=
200809302315 METAR LMML 302315Z 02018G33KT 310V130 9999 -TSRA FEW009 BKN014CB
                        21/18 Q1013 TEMPO 3000 TSRA BKN008
                        BKN013CB=
200809302300 METAR LMML NIL=
200809302245 METAR LMML 302245Z 14013KT 110V170 6000 -TSRA FEW007 BKN013CB
                        BKN080 22/21 Q1012 TEMPO 3000 TSRA
                        BKN007 BKN013CB=
200809302230 METAR LMML NIL=
200809302215 METAR LMML 302215Z 14010KT 110V170 6000 -TSRA BKN013CB BKN080
                        22/21 Q1013 TEMPO 3000 TSRA BKN008
                        BKN013CB=
200809302200 METAR LMML NIL=
200809302145 METAR LMML 302145Z 15008KT 9000 TS SCT011CB BKN016 BKN100
                        22/20 Q1013 RESH TEMPO 3000 TSRA
                        BKN008 BKN012CB=
200809302130 METAR LMML NIL=
200809302115 LMML 302115Z 11004KT 090V150 6000 SHRA SCT008 BKN011 BKN080
                        21/20 Q1014 TEMPO 4000 SHRA BKN008=
200809302100 METAR LMML NIL=
200809302045 METAR LMML 302045Z 09006KT 9999 FEW007 BKN012 BKN070 20/19
                        Q1014 TEMPO 8000 SHRA BKN008 BKN013=
200809302030 METAR LMML NIL=
200809302015 METAR LMML 302015Z 11008KT 080V140 4000 SHRA SCT004 BKN011
                        BKN080 21/20 Q1015 TEMPO 3000 TSRA
                        BKN008 BKN013CB=
200809302000 METAR LMML NIL=
200809301945 METAR LMML 301945Z 11008KT 8000 -SHRA BKN013 BKN080 21/20
                        Q1015 TEMPO 5000 TSRA BKN008 BKN015CB=
200809301930 METAR LMML NIL=
200809301915 METAR LMML 301915Z 10007KT 9999 FEW015 BKN090 21/19 Q1015
                        TEMPO 5000 TSRA BKN015CB=
200809301900 METAR LMML NIL=
200809301845 METAR LMML 301845Z 10006KT 9999 FEW012 SCT048 BKN090 21/20
                        Q1015 NOSIG=
200809301830 METAR LMML NIL=
200809301815 METAR LMML 301815Z 11007KT 9999 FEW009 BKN090 21/19 Q1014
                        NOSIG=
200809301800 METAR LMML NIL=
200809301745 METAR LMML 301745Z 11006KT 070V130 9999 SCT008 SCT047 BKN090
                        21/19 Q1015 NOSIG=
200809301730 METAR LMML NIL=
200809301715 METAR LMML 301715Z 11006KT 9999 SCT011 BKN090 21/19 Q1014
                        NOSIG=
200809301700 METAR LMML NIL=
200809301645 METAR LMML 301645Z 10007KT 8000 FEW010 SCT029 BKN090 21/19
                        Q1015 NOSIG=
200809301630 METAR LMML NIL=
200809301615 METAR LMML 301615Z 10005KT 8000 FEW013 SCT020 BKN080 21/19
                        Q1015 NOSIG=
200809301600 METAR LMML NIL=
200809301545 METAR LMML 301545Z 10006KT 070V130 8000 FEW013 BKN090 21/19
                        Q1015 NOSIG=
200809301530 METAR LMML NIL=
200809301515 METAR LMML 301515Z 11008KT 8000 -RA SCT009 BKN015 BKN090
                        21/20 Q1015 NOSIG=
200809301500 METAR LMML NIL=
200809301445 METAR LMML 301445Z 11008KT 8000 -RA BKN015 BKN090 21/20 Q1015
                        TEMPO 7000 RA BKN011=
200809301430 METAR LMML NIL=
200809301415 METAR LMML 301415Z 12007KT 090V150 8000 -RA BKN015 BKN100
                        22/19 Q1016 TEMPO 7000 RA BKN011=
200809301400 METAR LMML NIL=
200809301345 METAR LMML 301345Z 11005KT 090V150 8000 -RA BKN015 OVC120
                        21/19 Q1016 TEMPO 7000 RA BKN011=
200809301330 METAR LMML NIL=
200809301315 METAR LMML 301315Z 10007KT 060V130 9999 -RA SCT017 OVC120
                        22/19 Q1016 TEMPO 8000 RA=
200809301300 METAR LMML NIL=
200809301245 METAR LMML 301245Z 10007KT 070V130 9999 -RA SCT017 BKN100
                        22/19 Q1016 TEMPO 8000 RA=
200809301230 METAR LMML NIL=
200809301215 METAR LMML 301215Z 10007KT 060V120 9999 -RA FEW016 OVC100
                        22/19 Q1016 TEMPO 8000 RA=
200809301200 METAR LMML NIL=
200809301145 METAR LMML 301145Z 10006KT 060V130 9999 -RA FEW018 OVC100
                        21/19 Q1016 TEMPO 8000 RA=
200809301115 METAR LMML 301115Z 10006KT 9999 -RA FEW018 BKN100 BKN250
                        21/18 Q1017 TEMPO 8000 RA=
200809301100 METAR LMML NIL=
200809301045 METAR LMML 301045Z 10006KT 9999 -RA FEW020 BKN100 BKN250
                        21/18 Q1017 TEMPO RA=
200809301030 METAR LMML NIL=
200809301015 METAR LMML 301015Z 10007KT 9999 -RA FEW020 BKN100 BKN250
                        21/18 Q1017 TEMPO RA=
200809301000 METAR LMML NIL=
200809300945 METAR LMML 300945Z 10005KT 060V120 9999 -RA FEW020 BKN120
                        BKN250 21/17 Q1018 NOSIG=
200809300930 METAR LMML NIL=
200809300915 METAR LMML 300915Z 09006KT 060V120 9999 FEW020 BKN120 BKN250
                        21/17 Q1018 NOSIG=
200809300900 METAR LMML NIL=
200809300845 METAR LMML 300845Z 10006KT 010V140 CAVOK 21/16 Q1018 NOSIG=
200809300830 METAR LMML NIL=
200809300815 METAR LMML 300815Z 10005KT 060V140 CAVOK 21/17 Q1018 NOSIG=
200809300800 METAR LMML NIL=
200809300745 METAR LMML 300745Z 10006KT 030V160 CAVOK 21/16 Q1018 NOSIG=
200809300730 METAR LMML NIL=
200809300715 METAR LMML 300715Z 11005KT 080V140 CAVOK 21/16 Q1018 NOSIG=
200809300700 METAR LMML NIL=
200809300645 METAR LMML 300645Z 10004KT 060V130 CAVOK 20/16 Q1018 NOSIG=
200809300630 METAR LMML NIL=
200809300615 METAR LMML 300615Z VRB03KT CAVOK 19/15 Q1018 NOSIG=
200809300545 METAR LMML 300545Z VRB02KT CAVOK 19/14 Q1018 NOSIG=
200809300530 METAR LMML NIL=
200809300515 METAR LMML 300515Z VRB02KT 9999 FEW025 SCT110 BKN250 18/14
                        Q1018 NOSIG=
200809300500 METAR LMML NIL=
200809300445 METAR LMML 300445Z VRB02KT 9999 FEW025 BKN250 17/14 Q1018
                        NOSIG=
200809300430 METAR LMML NIL=
200809300415 METAR LMML 300415Z VRB01KT CAVOK 17/14 Q1018 NOSIG=
200809300400 METAR LMML NIL=
200809300345 METAR LMML 300345Z VRB01KT CAVOK 17/14 Q1018 NOSIG=
200809300330 METAR LMML NIL=
200809300315 METAR LMML 300315Z VRB01KT CAVOK 17/14 Q1017 NOSIG=
200809300300 METAR LMML NIL=
200809300245 METAR LMML 300245Z VRB01KT CAVOK 17/13 Q1017 NOSIG=
200809300230 METAR LMML NIL=
200809300215 METAR LMML 300215Z VRB02KT CAVOK 16/13 Q1017 NOSIG=
200809300200 METAR LMML NIL=
200809300145 METAR LMML 300145Z VRB01KT CAVOK 17/13 Q1018 NOSIG=
200809300130 METAR LMML NIL=
200809300115 METAR LMML 300115Z VRB02KT CAVOK 17/13 Q1018 NOSIG=
200809300100 METAR LMML NIL=
200809300045 METAR LMML 300045Z VRB01KT CAVOK 17/13 Q1019 NOSIG=
200809300030 METAR LMML NIL=
200809300015 METAR LMML 300015Z VRB01KT CAVOK 17/13 Q1019 NOSIG=
200809300000 METAR LMML NIL=
200809292345 METAR LMML 292345Z 00000KT CAVOK 17/13 Q1019 NOSIG=
200809292330 METAR LMML NIL=
200809292315 METAR LMML 292315Z 00000KT CAVOK 17/13 Q1019 NOSIG=
200809292300 METAR LMML NIL=
200809292245 METAR LMML 292245Z 00000KT CAVOK 17/13 Q1019 NOSIG=
200809292230 METAR LMML NIL=
200809292215 METAR LMML 292215Z VRB01KT CAVOK 17/14 Q1019 NOSIG=
200809292200 METAR LMML NIL=
200809292145 METAR LMML 292145Z VRB01KT CAVOK 17/13 Q1019 NOSIG=
200809292130 METAR LMML NIL=
200809292115 METAR LMML 292115Z VRB01KT CAVOK 17/13 Q1019 NOSIG=
200809292100 METAR LMML NIL=
200809292045 METAR LMML 292045Z VRB01KT CAVOK 17/13 Q1019 NOSIG=
200809292030 METAR LMML NIL=
200809292015 METAR LMML 292015Z 00000KT CAVOK 18/14 Q1020 NOSIG=
200809292000 METAR LMML NIL=
200809291945 METAR LMML 291945Z VRB01KT CAVOK 18/13 Q1020 NOSIG=
200809291930 METAR LMML NIL=
200809291915 METAR LMML 291915Z VRB01KT 9999 FEW040 19/14 Q1020 NOSIG=
200809291900 METAR LMML NIL=
200809291845 METAR LMML 291845Z VRB02KT 9999 FEW040 19/14 Q1019 NOSIG=
200809291830 METAR LMML NIL=
200809291815 METAR LMML 291815Z VRB01KT 9999 FEW040 19/13 Q1019 NOSIG=
200809291745 METAR LMML 291745Z VRB01KT 9999 FEW040 19/13 Q1019 NOSIG=
200809291730 METAR LMML NIL=
200809291715 METAR LMML 291715Z VRB02KT 9999 FEW040 21/13 Q1019 NOSIG=
200809291700 METAR LMML NIL=
200809291645 METAR LMML 291645Z VRB03KT 9999 FEW038 21/14 Q1019 NOSIG=
200809291615 METAR LMML 291615Z 06004KT 9999 FEW039 22/14 Q1019 NOSIG=
200809291600 METAR LMML NIL=
200809291545 METAR LMML 291545Z 06005KT 030V110 9999 FEW038 22/14 Q1019
                        NOSIG=
200809291530 METAR LMML NIL=
200809291515 METAR LMML 291515Z 07004KT 020V160 9999 SCT038 22/14 Q1019
                        NOSIG=
200809291500 METAR LMML NIL=
200809291445 METAR LMML 291445Z 10005KT 9999 FEW039 SCT250 22/14 Q1019
                        NOSIG=
200809291430 METAR LMML NIL=
200809291415 METAR LMML 291415Z 06005KT 010V110 9999 FEW036 SCT250 22/15
                        Q1019 NOSIG=
200809291400 METAR LMML NIL=
200809291345 METAR LMML 291345Z 06005KT 020V100 9999 FEW036 SCT250 23/15
                        Q1019 NOSIG=
200809291330 METAR LMML NIL=
200809291315 METAR LMML 291315Z 07005KT 010V130 9999 SCT035 22/14 Q1019
                        NOSIG=
200809291245 METAR LMML 291245Z 01004KT 340V060 9999 SCT034 22/14 Q1019
                        NOSIG=
200809291230 METAR LMML NIL=
200809291215 METAR LMML 291215Z 36005KT 320V030 9999 SCT036 23/15 Q1019
                        NOSIG=
200809291200 METAR LMML NIL=
200809291145 METAR LMML 291145Z 33006KT 250V010 9999 SCT044 24/15 Q1020
                        NOSIG=
200809291130 METAR LMML NIL=
200809291115 METAR LMML 291115Z 25007KT 210V300 9999 SCT045 24/12 Q1020
                        NOSIG=
200809291100 METAR LMML NIL=
200809291045 METAR LMML 291045Z 25007KT 190V300 9999 SCT045 24/12 Q1020
                        NOSIG=
200809291030 METAR LMML NIL=
200809291015 METAR LMML 291015Z 22007KT 180V270 9999 SCT045 24/13 Q1020
                        NOSIG=
200809291000 METAR LMML NIL=
200809290945 METAR LMML 290945Z 22005KT 180V270 9999 FEW040 24/12 Q1020
                        NOSIG=
200809290930 METAR LMML NIL=
200809290915 METAR LMML 290915Z VRB02KT 9999 FEW039 23/12 Q1020 NOSIG=
200809290900 METAR LMML NIL=
200809290845 METAR LMML 290845Z VRB02KT 9999 FEW039 23/11 Q1020 NOSIG=
200809290830 METAR LMML NIL=
200809290815 METAR LMML 290815Z VRB03KT 9999 FEW030 22/13 Q1020 NOSIG=
200809290800 METAR LMML NIL=
200809290745 METAR LMML 290745Z VRB02KT 9999 FEW030 22/14 Q1020 NOSIG=
200809290730 METAR LMML NIL=
200809290715 METAR LMML 290715Z VRB01KT 9999 FEW030 21/14 Q1020 NOSIG=
200809290700 METAR LMML NIL=
200809290645 METAR LMML 290645Z VRB01KT 9999 FEW030 20/14 Q1020 NOSIG=
200809290630 METAR LMML NIL=
200809290615 METAR LMML 290615Z VRB01KT 9999 FEW030 19/15 Q1020 NOSIG=
200809290545 METAR LMML 290545Z VRB02KT 9999 FEW030 17/14 Q1019 NOSIG=
200809290530 METAR LMML NIL=
200809290515 METAR LMML 290515Z VRB01KT 9999 FEW030 16/14 Q1019 NOSIG=
200809290500 METAR LMML NIL=
200809290445 METAR LMML 290445Z VRB01KT 9999 FEW030 16/14 Q1019 NOSIG=
200809290430 METAR LMML NIL=
200809290415 METAR LMML 290415Z VRB01KT 9999 FEW030 16/14 Q1018 NOSIG=
200809290400 METAR LMML NIL=
200809290345 METAR LMML 290345Z VRB02KT 9999 FEW030 16/14 Q1018 NOSIG=
200809290330 METAR LMML NIL=
200809290315 METAR LMML 290315Z VRB01KT 9999 FEW030 16/14 Q1019 NOSIG=
200809290300 METAR LMML NIL=
200809290245 METAR LMML 290245Z VRB01KT 9999 FEW035 16/14 Q1019 NOSIG=
200809290230 METAR LMML NIL=
200809290215 METAR LMML 290215Z VRB02KT 9999 FEW035 17/14 Q1019 NOSIG=
200809290200 METAR LMML NIL=
200809290145 METAR LMML 290145Z VRB03KT 9999 FEW035 17/14 Q1019 NOSIG=
200809290130 METAR LMML NIL=
200809290115 METAR LMML 290115Z VRB03KT 9999 FEW035 17/14 Q1019 NOSIG=
200809290100 METAR LMML NIL=
200809290045 METAR LMML 290045Z VRB02KT 9999 FEW035 17/14 Q1020 NOSIG=
200809290030 METAR LMML NIL=
200809290015 METAR LMML 290015Z VRB03KT 9999 FEW035 17/14 Q1020 NOSIG=
200809290000 METAR LMML NIL=
200809282345 METAR LMML 282345Z VRB02KT 9999 FEW035 17/14 Q1020 NOSIG=
200809282330 METAR LMML NIL=
200809282315 METAR LMML 282315Z VRB01KT 9999 FEW035 17/14 Q1021 NOSIG=
200809282245 METAR LMML 282245Z VRB02KT 9999 FEW020 18/15 Q1021 NOSIG=
200809282230 METAR LMML NIL=
200809282215 METAR LMML 282215Z VRB02KT 9999 FEW020 18/15 Q1021 NOSIG=
200809282200 METAR LMML NIL=
200809282145 METAR LMML 282145Z VRB01KT 9999 FEW020 18/15 Q1021 NOSIG=
200809282130 METAR LMML NIL=
200809282115 METAR LMML 282115Z VRB01KT 9999 FEW020 18/15 Q1021 NOSIG=
200809282100 METAR LMML NIL=
200809282045 METAR LMML 282045Z VRB02KT 9999 FEW020 18/15 Q1021 NOSIG=
200809282030 METAR LMML NIL=
200809282015 METAR LMML 282015Z VRB03KT 9999 FEW020 18/15 Q1021 NOSIG=
200809282000 METAR LMML NIL=
200809281945 METAR LMML 281945Z VRB02KT 9999 FEW020 19/14 Q1020 NOSIG=
200809281930 METAR LMML NIL=
200809281915 METAR LMML 281915Z VRB01KT 9999 FEW020 19/14 Q1020 NOSIG=
200809281900 METAR LMML NIL=
200809281845 METAR LMML 281845Z VRB01KT 9999 FEW020 19/14 Q1020 NOSIG=
200809281830 METAR LMML NIL=
200809281815 METAR LMML 281815Z VRB02KT 9999 FEW030 20/14 Q1020 NOSIG=
200809281800 METAR LMML NIL=
200809281745 METAR LMML 281745Z VRB03KT 9999 FEW030 20/14 Q1019 NOSIG=
200809281730 METAR LMML NIL=
200809281715 METAR LMML 281715Z VRB01KT 9999 FEW030 20/14 Q1019 NOSIG=
200809281700 METAR LMML NIL=
200809281645 METAR LMML 281645Z 06004KT 030V090 9999 FEW030 21/15 Q1019
                        NOSIG=
200809281630 METAR LMML NIL=
200809281615 METAR LMML 281615Z 03004KT 360V080 9999 FEW028 21/14 Q1019
                        NOSIG=
200809281600 METAR LMML NIL=
200809281545 METAR LMML 281545Z 04005KT 360V070 9999 FEW028 SCT250 21/15
                        Q1019 NOSIG=
200809281530 METAR LMML NIL=
200809281515 METAR LMML 281515Z 03004KT 360V090 9999 FEW028 SCT250 22/14
                        Q1019 NOSIG=
200809281445 METAR LMML 281445Z 03005KT 350V110 9999 SCT028 SCT250 23/15
                        Q1019 NOSIG=
200809281430 METAR LMML NIL=
200809281415 METAR LMML 281415Z 36004KT 320V090 9999 FEW027 23/14 Q1019
                        NOSIG=
200809281400 METAR LMML NIL=
200809281345 METAR LMML 281345Z 02004KT 330V070 9999 SCT029 24/14 Q1019
                        NOSIG=
200809281330 METAR LMML NIL=
200809281315 METAR LMML 281315Z 30006KT 9999 SCT029 23/15 Q1018 NOSIG=
200809281300 METAR LMML NIL=
200809281245 METAR LMML 281245Z 05006KT 360V110 9999 FEW028 24/15 Q1019
                        NOSIG=
200809281230 METAR LMML NIL=
200809281215 METAR LMML 281215Z 03008KT 350V090 9999 FEW027 23/15 Q1019
                        NOSIG=
200809281200 METAR LMML NIL=
200809281145 METAR LMML 281145Z 03008KT 360V090 9999 FEW021 24/15 Q1018
                        NOSIG=
200809281130 METAR LMML NIL=
200809281115 METAR LMML 281115Z 06008KT 010V090 9999 FEW021 23/14 Q1019
                        NOSIG=
200809281045 METAR LMML 281045Z 06008KT 010V110 9999 FEW021 23/15 Q1019
                        NOSIG=
200809281030 METAR LMML NIL=
200809281015 METAR LMML 281015Z 04009KT 010V090 9999 SCT019 22/16 Q1019
                        NOSIG=
200809281000 METAR LMML NIL=
200809280945 METAR LMML 280945Z 04010KT 010V080 9999 BKN019 22/16 Q1019
                        TEMPO SHRA=
200809280930 METAR LMML NIL=
200809280915 METAR LMML 280915Z 04008KT 350V080 9999 SCT029 22/15 Q1018
                        TEMPO SHRA=
200809280900 METAR LMML NIL=
200809280845 METAR LMML 280845Z 04007KT 010V090 9999 SCT030 SCT250 22/15
                        Q1018 TEMPO 5000 SHRA=
200809280830 METAR LMML NIL=
200809280815 METAR LMML 280815Z 07007KT 020V100 9999 FEW023TCU SCT027
                        22/15 Q1018 TEMPO 5000 SHRA=
200809280800 METAR LMML NIL=
200809280745 METAR LMML 280745Z 06009KT 010V100 9999 SCT023TCU 21/16 Q1018
                        TEMPO 5000 SHRA=
200809280730 METAR LMML NIL=
200809280715 METAR LMML 280715Z 06008KT 9999 SCT023TCU 20/17 Q1018 TEMPO
                        5000 SHRA=
200809280700 METAR LMML NIL=
200809280645 METAR LMML 280645Z 04010KT 350V070 9999 SCT017TCU SCT250
                        20/17 Q1018 TEMPO 5000 SHRA=
200809280630 METAR LMML NIL=
200809280615 METAR LMML 280615Z 02004KT 9999 SCT024TCU SCT250 20/16 Q1018
                        TEMPO 5000 SHRA=
200809280600 METAR LMML NIL=
200809280545 METAR LMML 280545Z 03004KT 360V070 9999 SCT022 SCT250 19/15
                        Q1017 TEMPO 5000 SHRA=
200809280530 METAR LMML NIL=
200809280515 METAR LMML 280515Z 04005KT 010V080 9999 SCT023 BKN250 19/15
                        Q1017 TEMPO 5000 SHRA=
200809280500 METAR LMML NIL=
200809280445 METAR LMML 280445Z VRB03KT 9999 SCT022 18/15 Q1017 NOSIG=
200809280430 METAR LMML NIL=
200809280415 METAR LMML 280415Z 35004KT 310V030 9999 SCT025 BKN120 18/15
                        Q1017 NOSIG=
200809280400 METAR LMML NIL=
200809280345 METAR LMML 280345Z VRB03KT 9999 FEW025 BKN120 17/15 Q1017
                        NOSIG=
200809280330 METAR LMML NIL=
200809280315 METAR LMML 280315Z VRB03KT 9999 FEW025 BKN120 17/14 Q1017
                        NOSIG=
200809280300 METAR LMML NIL=
200809280245 METAR LMML 280245Z 31005KT 9999 SCT025 BKN120 18/15 Q1017
                        NOSIG=
200809280230 METAR LMML NIL=
200809280215 METAR LMML 280215Z 31004KT 290V350 9999 FEW026 BKN120 17/14
                        Q1017 NOSIG=
200809280200 METAR LMML NIL=
200809280145 METAR LMML 280145Z 30005KT 9999 FEW035 BKN120 17/12 Q1018
                        NOSIG=
200809280130 METAR LMML NIL=
200809280115 METAR LMML 280115Z 30004KT 9999 FEW030 BKN120 17/13 Q1018
                        NOSIG=
200809280100 METAR LMML NIL=
200809280045 METAR LMML 280045Z VRB03KT 9999 FEW030 BKN120 17/13 Q1018
                        NOSIG=
200809280030 METAR LMML NIL=
200809280015 METAR LMML 280015Z VRB02KT 9999 FEW030 BKN120 17/13 Q1018
                        NOSIG=
200809280000 METAR LMML NIL=
200809272345 METAR LMML 272345Z VRB03KT 9999 FEW030 BKN120 17/13 Q1018
                        NOSIG=
200809272330 METAR LMML NIL=
200809272315 METAR LMML 272315Z VRB02KT 9999 FEW030 BKN120 16/13 Q1018
                        NOSIG=
200809272300 METAR LMML NIL=
200809272245 METAR LMML 272245Z VRB03KT 9999 FEW032 BKN120 16/12 Q1018
                        NOSIG=
200809272230 METAR LMML NIL=
200809272215 METAR LMML 272215Z 31004KT 9999 FEW032 BKN120 16/13 Q1018
                        NOSIG=
200809272200 METAR LMML NIL=
200809272145 METAR LMML 272145Z VRB02KT 9999 FEW034 BKN120 16/13 Q1018
                        NOSIG=
200809272130 METAR LMML NIL=
200809272115 METAR LMML 272115Z VRB03KT 9999 -RA FEW036 BKN090 17/14 Q1019
                        NOSIG=
200809272100 METAR LMML NIL=
200809272045 METAR LMML 272045Z VRB02KT 9999 -RA FEW034 SCT047 OVC080
                        16/14 Q1018 NOSIG=
200809272030 METAR LMML NIL=
200809272015 METAR LMML 272015Z 33004KT 9999 -RA FEW034 SCT047 OVC080
                        16/14 Q1019 NOSIG=
200809272000 METAR LMML NIL=
200809271945 METAR LMML 271945Z VRB03KT 9999 -RA FEW037 OVC080 17/14 Q1018
                        NOSIG=
200809271930 METAR LMML NIL=
200809271915 METAR LMML 271915Z VRB03KT 9999 -RA FEW036 SCT060 OVC090
                        17/13 Q1019 NOSIG=
200809271900 METAR LMML NIL=
200809271845 METAR LMML 271845Z 28006KT 9999 -RA FEW034 SCT060 OVC090
                        17/14 Q1020 NOSIG=
200809271830 METAR LMML NIL=
200809271815 METAR LMML 271815Z VRB02KT 9999 -RA FEW040 BKN090 OVC130
                        17/14 Q1018 NOSIG=
200809271800 METAR LMML NIL=
200809271745 METAR LMML 271745Z VRB03KT 9999 -RA FEW041 SCT080 OVC100
                        17/14 Q1017 NOSIG=
200809271730 METAR LMML NIL=
200809271715 METAR LMML 271715Z VRB03KT 9999 -RA FEW039 OVC050 18/14 Q1018
                        NOSIG=
200809271700 METAR LMML NIL=
200809271645 METAR LMML 271645Z VRB03KT 9999 -RA SCT034 BKN090 OVC140
                        18/15 Q1018 NOSIG=
200809271630 METAR LMML NIL=
200809271615 METAR LMML 271615Z VRB02KT 9999 -RA SCT031 SCT110 OVC140
                        19/14 Q1018 NOSIG=
200809271600 METAR LMML NIL=
200809271545 METAR LMML 271545Z 36006KT 9999 SCT028 SCT110 OVC140 19/15
                        Q1018 NOSIG=
200809271530 METAR LMML NIL=
200809271515 METAR LMML 271515Z VRB02KT 9999 -RA SCT029 SCT110 OVC140
                        19/16 Q1018 NOSIG=
200809271445 METAR LMML 271445Z VRB01KT 9999 -RA FEW034 BKN110 BKN140
                        19/15 Q1018 NOSIG=
200809271430 METAR LMML NIL=
200809271415 METAR LMML 271415Z VRB03KT 9999 -RA FEW033 SCT060 BKN110
                        19/15 Q1017 NOSIG=
200809271400 METAR LMML NIL=
200809271345 METAR LMML 271345Z VRB01KT 9999 FEW034 BKN110 BKN250 19/14
                        Q1017 NOSIG=
200809271330 METAR LMML NIL=
200809271315 METAR LMML 271315Z VRB02KT 9000 -RA FEW042 SCT110 OVC140
                        19/14 Q1017 NOSIG=
200809271300 METAR LMML NIL=
200809271245 METAR LMML 271245Z VRB01KT 9999 FEW036 BKN110 OVC140 19/13
                        Q1018 NOSIG=
200809271230 METAR LMML NIL=
200809271215 METAR LMML 271215Z VRB03KT 9999 -RA FEW036 SCT110 OVC140
                        19/13 Q1019 NOSIG=
200809271200 METAR LMML NIL=
200809271145 METAR LMML 271145Z VRB03KT 9999 -RA FEW040 OVC140 20/13 Q1018
                        NOSIG=
200809271130 METAR LMML NIL=
200809271115 METAR LMML 271115Z VRB02KT 9999 -RA FEW035 SCT090 OVC140
                        21/12 Q1018 NOSIG=
200809271100 METAR LMML NIL=
200809271045 METAR LMML 271045Z 29004KT 9999 -RA FEW030 SCT090 BKN250
                        21/13 Q1019 NOSIG=
200809271030 METAR LMML NIL=
200809271015 METAR LMML 271015Z 29004KT 250V320 9999 -RA FEW030 SCT090
                        BKN200 21/11 Q1019 NOSIG=
200809271000 METAR LMML NIL=
200809270945 METAR LMML 270945Z 33004KT 290V010 9999 -RA FEW030 SCT100
                        OVC200 20/14 Q1019 NOSIG=
200809270930 LMML NIL=
200809270915 METAR LMML 270915Z 32005KT 9999 -RA FEW030 SCT100 OVC200
                        20/14 Q1019 NOSIG=
200809270900 METAR LMML NIL=
200809270845 METAR LMML 270845Z 28005KT 250V310 9999 -RA FEW030 BKN070
                        OVC250 21/13 Q1020 NOSIG=
200809270830 METAR LMML NIL=
200809270815 METAR LMML 270815Z 31005KT 9999 FEW030 BKN080 OVC250 21/14
                        Q1019 NOSIG=
200809270800 METAR LMML NIL=
200809270745 METAR LMML 270745Z VRB03KT 9999 FEW030 BKN080 OVC250 20/13
                        Q1019 NOSIG=
200809270730 METAR LMML NIL=
200809270715 METAR LMML 270715Z 30004KT 9999 FEW030 BKN080 BKN250 20/14
                        Q1019 NOSIG=
200809270645 METAR LMML 270645Z 28004KT 9999 FEW030 SCT070 BKN090 20/14
                        Q1019 NOSIG=
200809270630 METAR LMML NIL=
200809270615 METAR LMML 270615Z 28004KT 250V320 9999 FEW030 BKN090 BKN250
                        19/14 Q1018 NOSIG=
200809270600 METAR LMML NIL=
200809270545 METAR LMML 270545Z 26004KT 230V290 9999 -RA FEW035 BKN100
                        19/15 Q1018 NOSIG=
200809270530 METAR LMML NIL=
200809270515 METAR LMML 270515Z VRB03KT 9999 -RA FEW035 BKN100 19/14 Q1017
                        NOSIG=
200809270445 METAR LMML 270445Z 26004KT 9999 FEW037 BKN100 18/15 Q1018
                        TEMPO 8000 RA=
200809270430 METAR LMML NIL=
200809270415 METAR LMML 270415Z VRB02KT 9999 -RA FEW036 SCT046 OVC080
                        18/15 Q1017 TEMPO 8000 RA=
200809270400 METAR LMML NIL=
200809270345 METAR LMML 270345Z VRB03KT 9999 SCT037 OVC090 19/15 Q1018
                        TEMPO 8000 RA=
200809270330 METAR LMML NIL=
200809270315 METAR LMML 270315Z 27004KT 240V310 9999 FEW037 OVC090 19/14
                        Q1018 TEMPO 8000 RA=
200809270245 METAR LMML 270245Z VRB02KT 9999 -RA SCT036 OVC080 19/14 Q1017
                        TEMPO 8000 RA=
200809270230 METAR LMML NIL=
200809270215 METAR LMML 270215Z VRB03KT 9999 -RA FEW036 BKN090 19/14 Q1018
                        TEMPO 8000 RA=
200809270200 METAR LMML NIL=
200809270145 METAR LMML 270145Z 30004KT 9999 -RA OVC090 20/14 Q1018 TEMPO
                        8000 RA=
200809270130 METAR LMML NIL=
200809270115 METAR LMML 270115Z 29006KT 9999 -RA OVC100 20/13 Q1018 TEMPO
                        8000 RA=
200809270100 METAR LMML NIL=
200809270045 METAR LMML 270045Z 29006KT 9999 -RA OVC100 20/13 Q1019 TEMPO
                        8000 RA=
200809270030 METAR LMML NIL=
200809270015 METAR LMML 270015Z 30004KT 9999 -RA SCT080 OVC100 20/15 Q1019
                        TEMPO 8000 RA=
200809270000 METAR LMML NIL=
200809262345 METAR LMML 262345Z 30004KT CAVOK 20/14 Q1019 NOSIG=
200809262315 METAR LMML 262315Z VRB03KT CAVOK 20/14 Q1019 NOSIG=
200809262245 METAR LMML 262245Z VRB03KT CAVOK 20/14 Q1019 NOSIG=
200809262230 METAR LMML NIL=
200809262215 METAR LMML 262215Z 30005KT CAVOK 21/13 Q1019 NOSIG=
200809262200 METAR LMML NIL=
200809262145 METAR LMML 262145Z 29005KT 250V320 9999 FEW035 SCT100 BKN250
                        21/13 Q1019 NOSIG=
200809262130 METAR LMML NIL=
200809262115 METAR LMML 262115Z 30005KT 280V340 9999 FEW035 SCT120 BKN250
                        21/13 Q1019 NOSIG=
200809262100 METAR LMML NIL=
200809262045 METAR LMML 262045Z 29005KT 9999 FEW035 SCT120 BKN250 20/13
                        Q1019 NOSIG=
200809262030 METAR LMML NIL=
200809262015 METAR LMML 262015Z 28004KT 250V320 9999 FEW035 SCT120 BKN250
                        21/14 Q1019 NOSIG=
200809261945 METAR LMML 261945Z 29004KT 250V320 9999 FEW035 BKN250 21/14
                        Q1019 NOSIG=
200809261930 METAR LMML NIL=
200809261915 METAR LMML 261915Z 30005KT 270V340 9999 FEW035 SCT120 BKN250
                        21/14 Q1019 TEMPO 8000 RA=
200809261845 METAR LMML 261845Z 30006KT 9999 FEW035 BKN250 21/14 Q1019
                        TEMPO 8000 RA=
200809261830 METAR LMML NIL=
200809261815 METAR LMML 261815Z 29004KT 260V320 9999 FEW035 BKN250 21/14
                        Q1018 TEMPO 8000 RA=
200809261800 METAR LMML NIL=
200809261745 METAR LMML 261745Z 30004KT 9999 FEW035 BKN250 21/14 Q1018
                        NOSIG=
200809261715 METAR LMML 261715Z 30005KT 270V340 9999 FEW035 BKN250 21/14
                        Q1018 NOSIG=
200809261700 METAR LMML NIL=
200809261645 METAR LMML 261645Z 29008KT 9999 FEW035 BKN250 21/14 Q1018
                        NOSIG=
200809261630 METAR LMML NIL=
200809261615 METAR LMML 261615Z 29008KT 260V320 9999 FEW035 SCT250 22/13
                        Q1018 NOSIG=
200809261600 METAR LMML NIL=
200809261545 METAR LMML 261545Z 28008KT 250V310 9999 FEW037 SCT250 23/14
                        Q1018 NOSIG=
200809261530 METAR LMML NIL=
200809261515 METAR LMML 261515Z 29008KT 250V330 9999 FEW037 SCT250 23/14
                        Q1017 NOSIG=
200809261500 METAR LMML NIL=
200809261445 METAR LMML 261445Z 29009KT 250V330 9999 FEW037 BKN250 23/13
                        Q1018 NOSIG=
200809261430 METAR LMML NIL=
200809261415 METAR LMML 261415Z 30011KT 260V330 9999 FEW037 BKN250 23/14
                        Q1018 NOSIG=
200809261400 METAR LMML NIL=
200809261345 METAR LMML 261345Z 30011KT 260V320 9999 FEW036 BKN250 23/14
                        Q1018 NOSIG=
200809261330 METAR LMML NIL=
200809261315 METAR LMML 261315Z 30009KT 260V330 9999 FEW036 SCT250 24/14
                        Q1018 NOSIG=
200809261300 METAR LMML NIL=
200809261245 METAR LMML 261245Z 29009KT 250V330 9999 FEW040 SCT250 24/13
                        Q1018 NOSIG=
200809261230 METAR LMML NIL=
200809261215 METAR LMML 261215Z 31011KT 280V340 9999 FEW040 SCT250 24/13
                        Q1018 NOSIG=
200809261200 METAR LMML NIL=
200809261145 METAR LMML 261145Z 30010KT 270V330 9999 FEW040 SCT250 24/13
                        Q1018 NOSIG=
200809261130 METAR LMML NIL=
200809261115 METAR LMML 261115Z 28009KT 240V310 9999 FEW040 25/13 Q1018
                        NOSIG=
200809261100 METAR LMML NIL=
200809261045 METAR LMML 261045Z 29008KT 240V340 9999 FEW040 SCT080 25/14
                        Q1018 NOSIG=
200809261030 METAR LMML NIL=
200809261015 METAR LMML 261015Z 31009KT 270V330 9999 FEW030 SCT080 24/13
                        Q1018 NOSIG=
200809261000 METAR LMML NIL=
200809260945 METAR LMML 260945Z 31009KT 270V340 9999 FEW025 SCT080 23/13
                        Q1018 NOSIG=
200809260930 METAR LMML NIL=
200809260915 METAR LMML 260915Z 29009KT 260V330 9999 FEW025 SCT080 23/12
                        Q1018 NOSIG=
200809260900 METAR LMML NIL=
200809260845 METAR LMML 260845Z 29009KT 260V320 9999 FEW025 SCT090 23/12
                        Q1018 NOSIG=
200809260830 METAR LMML NIL=
200809260815 METAR LMML 260815Z 32009KT 290V350 9999 FEW025 SCT100 BKN250
                        23/12 Q1018 NOSIG=
200809260800 METAR LMML NIL=
200809260745 METAR LMML 260745Z 32007KT 9999 FEW025 SCT100 BKN250 23/12
                        Q1018 NOSIG=
200809260730 METAR LMML NIL=
200809260715 METAR LMML 260715Z 31007KT 9999 FEW025 SCT100 BKN250 21/13
                        Q1018 NOSIG=
200809260700 METAR LMML NIL=
200809260645 METAR LMML 260645Z 31007KT CAVOK 20/13 Q1018 NOSIG=
200809260630 METAR LMML NIL=
200809260615 METAR LMML 260615Z 30006KT 270V330 CAVOK 20/14 Q1018 NOSIG=
200809260600 METAR LMML NIL=
200809260545 METAR LMML 260545Z 30007KT CAVOK 19/14 Q1017 NOSIG=
200809260530 METAR LMML NIL=
200809260515 METAR LMML 260515Z 30007KT 9999 FEW020 SCT120 BKN250 19/13
                        Q1017 NOSIG=
200809260500 METAR LMML NIL=
200809260445 METAR LMML 260445Z 30008KT 9999 FEW020 BKN250 19/14 Q1017
                        NOSIG=
200809260430 METAR LMML NIL=
200809260415 METAR LMML 260415Z 31006KT 9999 FEW020 19/14 Q1017 NOSIG=
200809260400 METAR LMML NIL=
200809260345 METAR LMML 260345Z 30007KT CAVOK 19/13 Q1016 NOSIG=
200809260330 METAR LMML NIL=
200809260315 METAR LMML 260315Z 31008KT CAVOK 19/13 Q1016 NOSIG=
200809260300 METAR LMML NIL=
200809260245 METAR LMML 260245Z 32008KT CAVOK 19/13 Q1016 NOSIG=
200809260230 METAR LMML NIL=
200809260215 METAR LMML 260215Z 32007KT CAVOK 19/14 Q1016 NOSIG=
200809260200 METAR LMML NIL=
200809260145 METAR LMML 260145Z 31007KT CAVOK 20/14 Q1016 NOSIG=
200809260130 METAR LMML NIL=
200809260115 METAR LMML 260115Z 33007KT 9999 FEW025 SCT110 20/15 Q1016
                        NOSIG=
200809260100 METAR LMML NIL=
200809260045 METAR LMML 260045Z 32009KT 9999 FEW025 BKN110 20/15 Q1017
                        NOSIG=
200809260030 METAR LMML NIL=
200809260015 METAR LMML 260015Z 31009KT 9999 FEW025 BKN110 21/15 Q1017
                        NOSIG=
200809260000 METAR LMML NIL=
200809252345 METAR LMML 252345Z 33008KT 9999 FEW025 BKN110 21/14 Q1017
                        NOSIG=
200809252330 METAR LMML NIL=
200809252315 METAR LMML 252315Z 33011KT CAVOK 21/14 Q1016 NOSIG=
200809252300 METAR LMML NIL=
200809252245 METAR LMML 252245Z 32011KT CAVOK 21/14 Q1016 NOSIG=
200809252230 METAR LMML NIL=
200809252215 METAR LMML 252215Z 31010KT CAVOK 21/15 Q1016 NOSIG=
200809252200 METAR LMML NIL=
200809252145 METAR LMML 252145Z 32010KT CAVOK 20/15 Q1016 NOSIG=
200809252130 METAR LMML NIL=
200809252115 METAR LMML 252115Z 31009KT CAVOK 20/15 Q1016 NOSIG=
200809252100 METAR LMML NIL=
200809252045 METAR LMML 252045Z 31012KT CAVOK 21/15 Q1016 NOSIG=
200809252030 METAR LMML NIL=
200809252015 METAR LMML 252015Z 30013KT 9999 FEW025 21/16 Q1016 NOSIG=
200809252000 METAR LMML NIL=
200809251945 METAR LMML 251945Z 30011KT 9999 FEW025 21/16 Q1016 NOSIG=
200809251930 METAR LMML NIL=
200809251915 METAR LMML 251915Z 31013KT 9999 FEW025 21/16 Q1016 NOSIG=
200809251900 METAR LMML NIL=
200809251845 METAR LMML 251845Z 31012KT 9999 FEW025 21/16 Q1015 NOSIG=
200809251830 METAR LMML NIL=
200809251815 METAR LMML 251815Z 30012KT 9999 FEW025 SCT100 21/16 Q1015
                        NOSIG=
200809251800 METAR LMML NIL=
200809251745 METAR LMML 251745Z 31013KT 9999 FEW025 SCT100 22/16 Q1015
                        NOSIG=
200809251730 METAR LMML NIL=
200809251715 METAR LMML 251715Z 30012KT 270V330 9999 FEW025 SCT110 22/15
                        Q1015 NOSIG=
200809251700 METAR LMML NIL=
200809251645 METAR LMML 251645Z 30013KT 9999 FEW025 SCT110 22/15 Q1014
                        NOSIG=
200809251630 METAR LMML NIL=
200809251615 METAR LMML 251615Z 30013KT 9999 FEW025 SCT110 23/15 Q1014
                        NOSIG=
200809251600 METAR LMML NIL=
200809251545 METAR LMML 251545Z 29014KT 260V320 9999 FEW025 SCT110 23/15
                        Q1014 NOSIG=
200809251530 METAR LMML NIL=
200809251515 METAR LMML 251515Z 30013KT 9999 FEW025 24/15 Q1014 NOSIG=
200809251500 METAR LMML NIL=
200809251445 METAR LMML 251445Z 30014KT 250V330 9999 FEW025 24/16 Q1014
                        NOSIG=
200809251430 METAR LMML NIL=
200809251415 METAR LMML 251415Z 30015KT 260V320 9999 FEW025 24/15 Q1014
                        NOSIG=
200809251400 METAR LMML NIL=
200809251345 METAR LMML 251345Z 30016KT 9999 FEW025 24/16 Q1014 NOSIG=
200809251330 METAR LMML NIL=
200809251315 METAR LMML 251315Z 29014KT 260V320 9999 FEW025 25/15 Q1014
                        NOSIG=
200809251300 METAR LMML NIL=
200809251245 METAR LMML 251245Z 30014KT 9999 FEW025 24/15 Q1013 NOSIG=
200809251230 METAR LMML NIL=
200809251215 METAR LMML 251215Z 29013KT 240V310 9999 FEW025 25/16 Q1013
                        NOSIG=
200809251200 METAR LMML NIL=
200809251145 METAR LMML 251145Z 30015KT 9999 FEW025 25/16 Q1013 NOSIG=
200809251130 METAR LMML NIL=
200809251115 METAR LMML 251115Z 29015KT 9999 FEW025 25/15 Q1014 NOSIG=
200809251100 METAR LMML NIL=
200809251045 METAR LMML 251045Z 29014KT 270V330 9999 FEW025 25/15 Q1014
                        NOSIG=
200809251030 METAR LMML NIL=
200809251015 METAR LMML 251015Z 30013KT 9999 FEW025 24/15 Q1014 NOSIG=
200809251000 METAR LMML NIL=
200809250945 METAR LMML 250945Z 30014KT 9999 FEW025 SCT110 24/17 Q1014
                        NOSIG=
200809250930 METAR LMML NIL=
200809250915 METAR LMML 250915Z 30011KT 270V330 9999 FEW025 BKN100 23/17
                        Q1014 NOSIG=
200809250900 METAR LMML NIL=
200809250845 METAR LMML 250845Z 30012KT 9999 FEW015 BKN100 22/17 Q1013
                        NOSIG=
200809250830 METAR LMML NIL=
200809250815 METAR LMML 250815Z 30007KT 270V330 9999 FEW015 22/17 Q1013
                        NOSIG=
200809250800 METAR LMML NIL=
200809250745 METAR LMML 250745Z 29008KT 9999 -RA FEW015 BKN090 21/17 Q1013
                        NOSIG=
200809250715 METAR LMML 250715Z 29007KT 260V320 9999 -RA FEW015 BKN090
                        21/16 Q1013 NOSIG=
200809250700 METAR LMML NIL=
200809250645 METAR LMML 250645Z 30009KT 9999 FEW015 BKN100 21/17 Q1013
                        NOSIG=
200809250630 METAR LMML NIL=
200809250615 METAR LMML 250615Z 29007KT 260V320 9999 FEW015 BKN100 21/16
                        Q1013 NOSIG=
200809250600 METAR LMML NIL=
200809250545 METAR LMML 250545Z 29009KT 270V330 9999 -RA FEW015 BKN100
                        21/17 Q1012 NOSIG=
200809250515 METAR LMML 250515Z 28008KT 9999 FEW015 BKN120 21/17 Q1012
                        NOSIG RMK=
200809250445 METAR LMML 250445Z 29009KT 9999 FEW015 SCT120 21/17 Q1012
                        NOSIG=
200809250430 METAR LMML NIL=
200809250415 METAR LMML 250415Z 30008KT CAVOK 21/18 Q1012 NOSIG=
200809250400 METAR LMML NIL=
200809250345 METAR LMML 250345Z 30007KT CAVOK 20/17 Q1012 NOSIG=
200809250330 METAR LMML NIL=
200809250315 METAR LMML 250315Z 31009KT CAVOK 20/17 Q1012 NOSIG=
200809250300 METAR LMML NIL=
200809250245 METAR LMML 250245Z 29006KT 250V320 CAVOK 21/17 Q1012 NOSIG=
200809250230 METAR LMML NIL=
200809250215 METAR LMML 250215Z 30009KT 270V330 CAVOK 21/17 Q1012 NOSIG=
200809250200 METAR LMML NIL=
200809250145 METAR LMML 250145Z 29007KT CAVOK 21/17 Q1012 NOSIG=
200809250130 METAR LMML NIL=
200809250115 METAR LMML 250115Z 29007KT CAVOK 21/17 Q1012 NOSIG=
200809250045 METAR LMML 250045Z 29005KT 250V320 CAVOK 21/17 Q1012 NOSIG=
200809250030 METAR LMML NIL=
200809250015 METAR LMML 250015Z 29008KT CAVOK 21/18 Q1012 NOSIG=
200809250000 METAR LMML NIL=
200809242345 METAR LMML 242345Z 29007KT 260V320 CAVOK 21/18 Q1012 NOSIG=
200809242315 METAR LMML 242315Z 29007KT 260V320 CAVOK 21/18 Q1012 NOSIG=
200809242300 METAR LMML NIL=
200809242245 METAR LMML 242245Z 29009KT CAVOK 21/18 Q1012 NOSIG=
200809242230 METAR LMML NIL=
200809242215 METAR LMML 242215Z 29007KT CAVOK 21/18 Q1012 NOSIG=
200809242200 METAR LMML NIL=
200809242145 METAR LMML 242145Z 29008KT CAVOK 21/18 Q1012 NOSIG=
200809242130 METAR LMML NIL=
200809242115 METAR LMML 242115Z 29009KT CAVOK 22/17 Q1012 NOSIG=
200809242100 METAR LMML NIL=
200809242045 METAR LMML 242045Z 28008KT CAVOK 22/18 Q1012 NOSIG=
200809242015 METAR LMML 242015Z 30007KT 260V330 9999 FEW023 22/18 Q1012
                        NOSIG=
200809241945 METAR LMML 241945Z 29008KT 9999 FEW023 22/18 Q1012 NOSIG=
200809241930 METAR LMML NIL=
200809241915 METAR LMML 241915Z 30008KT 9999 FEW023 22/18 Q1012 NOSIG=
200809241900 METAR LMML NIL=
200809241845 LMML 241845Z 28008KT 250V310 9999 FEW023 22/18 Q1012 NOSIG=
200809241830 METAR LMML NIL=
200809241815 METAR LMML 241815Z 29007KT 9999 FEW023 22/18 Q1011 NOSIG=
200809241800 METAR LMML NIL=
200809241745 METAR LMML 241745Z 29008KT 9999 FEW020 SCT250 22/18 Q1011
                        NOSIG=
200809241730 METAR LMML NIL=
200809241715 METAR LMML 241715Z 29007KT 250V320 9999 FEW020 SCT250 23/18
                        Q1011 NOSIG=
200809241645 METAR LMML 241645Z 29009KT 250V320 9999 FEW021 BKN250 23/18
                        Q1011 NOSIG=
200809241630 METAR LMML NIL=
200809241615 METAR LMML 241615Z 29010KT 260V320 9999 FEW021 BKN250 24/18
                        Q1011 NOSIG=
200809241600 METAR LMML NIL=
200809241545 METAR LMML 241545Z 29011KT 250V310 9999 FEW024 BKN250 24/19
                        Q1011 NOSIG=
200809241530 METAR LMML NIL=
200809241515 METAR LMML 241515Z 30009KT 260V340 9999 SCT023 SCT250 25/19
                        Q1010 NOSIG=
200809241500 METAR LMML NIL=
200809241445 METAR LMML 241445Z 29010KT 250V320 9999 FEW024 26/18 Q1010
                        NOSIG=
200809241430 METAR LMML NIL=
200809241415 METAR LMML 241415Z 30008KT 250V340 9999 SCT025 26/19 Q1010
                        NOSIG=
200809241400 METAR LMML NIL=
200809241345 METAR LMML 241345Z 27007KT 190V310 9999 SCT026 SCT250 26/19
                        Q1010 NOSIG=
200809241330 METAR LMML NIL=
200809241315 METAR LMML 241315Z 29008KT 250V320 9999 SCT025 SCT250 26/19
                        Q1010 NOSIG=
200809241300 METAR LMML NIL=
200809241245 METAR LMML 241245Z 31008KT 9999 SCT025 SCT070 26/19 Q1010
                        NOSIG=
200809241230 METAR LMML NIL=
200809241215 METAR LMML 241215Z 32008KT 9999 SCT027 SCT090 26/19 Q1010
                        NOSIG=
200809241200 METAR LMML NIL=
200809241145 METAR LMML 241145Z 30007KT 270V340 9999 SCT026 SCT090 26/20
                        Q1010 NOSIG=
200809241130 METAR LMML NIL=
200809241115 METAR LMML 241115Z 26006KT 210V300 9999 FEW025 BKN110 26/19
                        Q1010 NOSIG=
200809241100 METAR LMML NIL=
200809241045 METAR LMML 241045Z 24004KT 160V290 9999 FEW025 BKN090 25/19
                        Q1010 NOSIG=
200809241030 METAR LMML NIL=
200809241015 METAR LMML 241015Z VRB03KT 9999 FEW025 BKN090 25/18 Q1010
                        NOSIG=
200809241000 METAR LMML NIL=
200809240945 METAR LMML 240945Z 20004KT 160V260 9999 FEW025 BKN080 25/19
                        Q1010 TEMPO 8000 SHRA BKN015=
200809240930 METAR LMML NIL=
200809240915 METAR LMML 240915Z VRB03KT 9999 FEW025 BKN100 24/20 Q1010
                        TEMPO 8000 SHRA BKN015=
200809240900 METAR LMML NIL=
200809240845 METAR LMML 240845Z VRB01KT 9999 FEW025 BKN110 23/20 Q1010
                        TEMPO 8000 SHRA BKN015=
200809240815 METAR LMML 240815Z VRB03KT 9999 FEW025 BKN110 23/20 Q1010
                        TEMPO 5000 TSRA BKN018CB=
200809240800 METAR LMML NIL=
200809240745 METAR LMML 240745Z 33005KT 270V350 9999 SCT024CB SCT100 22/19
                        Q1009 TEMPO 5000 TSRA BKN018CB=
200809240715 METAR LMML 240715Z 33007KT 300V010 9999 SCT020CB SCT100 23/20
                        Q1010 TEMPO 5000 TSRA BKN018CB=
200809240700 METAR LMML NIL=
200809240645 METAR LMML 240645Z 34004KT 9999 FEW020CB SCT029 BKN070 22/20
                        Q1010 TEMPO 5000 TSRA BKN018CB=
200809240630 METAR LMML NIL=
200809240615 METAR LMML 240615Z VRB02KT 9999 FEW034 BKN070 22/19 Q1009
                        RETS TEMPO 5000 TSRA BKN018CB=
200809240600 METAR LMML NIL=
200809240545 METAR LMML 240545Z 22004KT 9999 FEW034CB BKN110 22/20 Q1009
                        RETS TEMPO 5000 TSRA BKN018CB=
200809240530 METAR LMML NIL=
200809240515 METAR LMML 240515Z VRB02KT 9999 FEW034 BKN090 22/20 Q1009
                        RETS TEMPO 6000 TSRA BKN018CB=
200809240500 METAR LMML NIL=
200809240445 METAR LMML 240445Z VRB03KT 9999 TSRA SCT030CB BKN120 22/21
                        Q1009 TEMPO 6000 TSRA BKN018CB=
200809240430 METAR LMML NIL=
200809240415 METAR LMML 240415Z 19004KT 110V230 9999 TSRA SCT030CB BKN100
                        22/21 Q1009 TEMPO 6000 TSRA BKN018CB=
200809240400 METAR LMML 240400Z VRB01KT 9999 TS SCT030CB BKN110 22/21
                        Q1009 TEMPO 6000 TSRA BKN018CB=
200809240345 METAR LMML 240345Z VRB02KT 9999 -RA FEW038 SCT060 BKN110
                        23/21 Q1009 TEMPO 6000 TSRA BKN018CB=
200809240330 METAR LMML NIL=
200809240315 METAR LMML 240315Z 22004KT 200V270 9999 FEW035 SCT060 BKN100
                        23/20 Q1009 TEMPO 6000 TSRA BKN018CB=
200809240300 METAR LMML NIL=
200809240245 METAR LMML 240245Z VRB03KT 9999 -RA FEW035 SCT060 BKN100
                        23/20 Q1009 TEMPO 6000 TSRA BKN018CB
                        RMK LIGHTNING TO NW=
200809240230 METAR LMML NIL=
200809240215 METAR LMML 240215Z 18007KT 150V210 CAVOK 23/20 Q1009 TEMPO
                        6000 TSRA BKN018CB RMK LIGHTNING
                        TO NW=
200809240200 METAR LMML NIL=
200809240145 METAR LMML 240145Z 15007KT 110V180 9999 SCT035 BKN120 23/21
                        Q1009 TEMPO 8000 SHRA=
200809240130 METAR LMML NIL=
200809240115 METAR LMML 240115Z 17007KT 120V220 9999 FEW015 BKN110 23/21
                        Q1009 TEMPO 8000 SHRA=
200809240100 METAR LMML NIL=
200809240045 METAR LMML 240045Z 12008KT 080V160 9999 -RA SCT011 BKN110
                        23/22 Q1008 BECMG 8000 SHRA=
200809240030 METAR LMML NIL=
200809240015 METAR LMML 240015Z 13014G26KT 080V230 9999 -RA SCT011 BKN110
                        23/21 Q1008 BECMG 8000 SHRA=
200809240000 METAR LMML NIL=
200809232345 METAR LMML 232345Z 13013KT 9999 -RA SCT016 BKN120 22/21 Q1009
                        BECMG 8000 SHRA RMK LIGHTNING TO
                        SW=
200809232315 METAR LMML 232315Z 11009KT 070V140 9999 -RA SCT017 BKN120
                        23/21 Q1009 BECMG 8000 SHRA RMK LIGHTNING
                        TO WEST=
200809232300 METAR LMML NIL=
200809232245 METAR LMML 232245Z 12009KT 090V150 9999 FEW017 SCT120 23/20
                        Q1010 NOSIG=
200809232230 METAR LMML NIL=
200809232215 METAR LMML 232215Z 12009KT CAVOK 22/20 Q1010 NOSIG=
200809232200 METAR LMML NIL=
200809232145 METAR LMML 232145Z 11008KT CAVOK 22/20 Q1010 NOSIG=
200809232130 METAR LMML NIL=
200809232115 METAR LMML 232115Z 12008KT CAVOK 22/20 Q1010 NOSIG=
200809232100 METAR LMML NIL=
200809232045 METAR LMML 232045Z 11007KT CAVOK 21/20 Q1010 NOSIG=
200809232015 METAR LMML 232015Z 10006KT 070V130 CAVOK 21/19 Q1010 NOSIG=
200809231945 METAR LMML 231945Z 10006KT CAVOK 21/19 Q1010 NOSIG=
200809231915 METAR LMML 231915Z 10006KT 280V140 CAVOK 20/18 Q1010 NOSIG=
200809231900 METAR LMML NIL=
200809231845 METAR LMML 231845Z 09006KT 060V120 9999 FEW020 SCT120 20/18
                        Q1010 NOSIG=
200809231830 METAR LMML NIL=
200809231815 METAR LMML 231815Z 06005KT 010V100 9999 SCT035 BKN080 20/18
                        Q1010 RETS NOSIG=
200809231800 METAR LMML NIL=
200809231745 METAR LMML 231745Z 06008KT 330V110 8000 SCT007 BKN020 20/18
                        Q1010 RETS BECMG 9999 FEW008=
200809231730 METAR LMML NIL=
200809231715 METAR LMML 231715Z 05007KT 360V210 5000 TSRA SCT010 BKN020CB
                        21/19 Q1010 BECMG 7000 SHRA=
200809231700 METAR LMML NIL=
200809231645 METAR LMML 231645Z 09011KT 070V130 5000 TSRA BKN020CB 22/19
                        Q1010 NOSIG=
200809231630 METAR LMML NIL=
200809231615 METAR LMML 231615Z 10011KT 9999 BKN020 SCT100 23/18 Q1009
                        NOSIG=
200809231600 METAR LMML NIL=
200809231545 METAR LMML 231545Z 11011KT 9999 SCT021 SCT100 24/18 Q1009
                        NOSIG=
200809231530 METAR LMML NIL=
200809231515 METAR LMML 231515Z 11010KT 9999 SCT021TCU SCT080 24/18 Q1010
                        NOSIG=
200809231500 METAR LMML NIL=
200809231445 METAR LMML 231445Z 12011KT 090V150 9999 SCT022 SCT080 25/18
                        Q1009 NOSIG=
200809231430 METAR LMML NIL=
200809231415 METAR LMML 231415Z 15009KT 110V200 9999 FEW023 SCT250 25/18
                        Q1009 NOSIG=
200809231400 METAR LMML NIL=
200809231345 METAR LMML 231345Z 16008KT 120V210 9999 FEW023 SCT250 25/18
                        Q1010 NOSIG=
200809231330 METAR LMML NIL=
200809231315 METAR LMML 231315Z 15008KT 110V190 9999 FEW025 SCT110 25/17
                        Q1010 NOSIG=
200809231245 METAR LMML 231245Z 16007KT 120V250 9999 FEW027 SCT250 25/17
                        Q1010 NOSIG=
200809231230 METAR LMML NIL=
200809231215 METAR LMML 231215Z 16007KT 130V220 9999 FEW031 SCT250 25/16
                        Q1010 NOSIG=
200809231200 METAR LMML NIL=
200809231145 METAR LMML 231145Z 17008KT 140V240 9999 FEW030 25/16 Q1010
                        NOSIG=
200809231115 METAR LMML 231115Z 17007KT 110V230 9999 FEW030 25/15 Q1011
                        NOSIG=
200809231100 METAR LMML NIL=
200809231045 METAR LMML 231045Z 19006KT 130V230 9999 FEW030 25/08 Q1011
                        NOSIG=
200809231030 METAR LMML NIL=
200809231015 METAR LMML 231015Z 17006KT 120V210 9999 FEW030 25/12 Q1011
                        NOSIG=
200809231000 METAR LMML NIL=
200809230945 METAR LMML 230945Z 11006KT 030V240 9999 FEW030 25/14 Q1011
                        NOSIG=
200809230930 METAR LMML NIL=
200809230915 METAR LMML 230915Z 12007KT 050V170 9999 FEW025 25/14 Q1011
                        NOSIG=
200809230845 METAR LMML 230845Z VRB03KT 9999 FEW025 26/13 Q1011 NOSIG=
200809230830 METAR LMML NIL=
200809230815 METAR LMML 230815Z VRB03KT 9999 FEW025 25/12 Q1011 NOSIG=
200809230800 METAR LMML NIL=
200809230745 METAR LMML 230745Z VRB02KT 9999 FEW025 24/13 Q1011 NOSIG=
200809230730 METAR LMML NIL=
200809230715 METAR LMML 230715Z VRB01KT 9999 FEW025 24/14 Q1011 NOSIG=
200809230700 METAR LMML NIL=
200809230645 METAR LMML 230645Z VRB02KT 9999 FEW025 22/14 Q1011 NOSIG=
200809230630 METAR LMML NIL=
200809230615 METAR LMML 230615Z VRB01KT 9999 FEW025 20/15 Q1011 NOSIG=
200809230600 METAR LMML NIL=
200809230545 METAR LMML 230545Z VRB01KT 9999 FEW025 18/15 Q1011 NOSIG=
200809230530 METAR LMML NIL=
200809230515 METAR LMML 230515Z VRB01KT 9999 FEW020 17/15 Q1010 NOSIG=
200809230500 METAR LMML NIL=
200809230445 METAR LMML 230445Z VRB01KT 9999 FEW040 SCT100 17/15 Q1011
                        NOSIG=
200809230430 METAR LMML NIL=
200809230415 METAR LMML 230415Z VRB01KT 9999 FEW040 SCT090 18/15 Q1011
                        NOSIG=
200809230400 METAR LMML NIL=
200809230345 METAR LMML 230345Z VRB01KT 9999 FEW040 BKN090 18/15 Q1010
                        NOSIG=
200809230330 METAR LMML NIL=
200809230315 METAR LMML 230315Z VRB01KT 9999 FEW040 BKN090 18/15 Q1011
                        NOSIG=
200809230300 METAR LMML NIL=
200809230245 METAR LMML 230245Z VRB01KT 9999 FEW040 BKN090 18/15 Q1011
                        NOSIG=
200809230215 METAR LMML 230215Z VRB03KT 9999 FEW040 BKN090 19/15 Q1011
                        NOSIG=
200809230200 METAR LMML NIL=
200809230145 METAR LMML 230145Z VRB03KT 9999 FEW040 BKN120 20/15 Q1011
                        NOSIG=
200809230130 METAR LMML NIL=
200809230115 METAR LMML 230115Z 20004KT 9999 FEW040 BKN100 19/15 Q1011
                        NOSIG=
200809230045 METAR LMML 230045Z 24004KT 9999 -SHRA FEW039 SCT070 BKN120
                        19/15 Q1012 NOSIG=
200809230030 METAR LMML NIL=
200809230015 METAR LMML 230015Z VRB03KT CAVOK 18/15 Q1011 NOSIG=
200809230000 METAR LMML NIL=
200809222345 METAR LMML 222345Z 31004KT CAVOK 19/15 Q1011 NOSIG=
200809222330 METAR LMML NIL=
200809222315 METAR LMML 222315Z VRB03KT CAVOK 19/14 Q1011 NOSIG=
200809222300 METAR LMML NIL=
200809222245 METAR LMML 222245Z VRB02KT CAVOK 18/14 Q1011 NOSIG=
200809222230 METAR LMML NIL=
200809222215 METAR LMML 222215Z 33004KT CAVOK 18/14 Q1011 NOSIG=
200809222200 METAR LMML NIL=
200809222145 METAR LMML 222145Z VRB03KT CAVOK 18/14 Q1011 NOSIG=
200809222115 METAR LMML 222115Z VRB03KT CAVOK 19/14 Q1011 NOSIG=
200809222100 METAR LMML NIL=
200809222045 METAR LMML 222045Z VRB02KT CAVOK 19/14 Q1012 NOSIG=
200809222030 METAR LMML NIL=
200809222015 METAR LMML 222015Z VRB02KT CAVOK 19/14 Q1011 NOSIG=
200809222000 METAR LMML NIL=
200809221945 METAR LMML 221945Z VRB03KT CAVOK 20/14 Q1011 NOSIG=
200809221930 METAR LMML NIL=
200809221915 METAR LMML 221915Z 31004KT CAVOK 20/14 Q1011 NOSIG=
200809221900 METAR LMML NIL=
200809221845 METAR LMML 221845Z 30004KT 9999 FEW035 SCT250 20/14 Q1011
                        NOSIG=
200809221830 METAR LMML NIL=
200809221815 METAR LMML 221815Z 31005KT 9999 FEW035 SCT250 21/14 Q1011
                        NOSIG=
200809221800 METAR LMML NIL=
200809221745 METAR LMML 221745Z 29005KT 260V320 9999 FEW035 SCT250 22/14
                        Q1011 NOSIG=
200809221730 METAR LMML NIL=
200809221715 METAR LMML 221715Z 30006KT 270V330 9999 FEW035 BKN250 22/14
                        Q1011 NOSIG=
200809221700 METAR LMML NIL=
200809221645 METAR LMML 221645Z 28009KT 250V310 9999 FEW035 BKN250 23/14
                        Q1011 NOSIG=
200809221630 METAR LMML NIL=
200809221615 METAR LMML 221615Z 29008KT 9999 FEW035 BKN250 23/15 Q1011
                        NOSIG=
200809221600 METAR LMML NIL=
200809221545 METAR LMML 221545Z 30011KT 270V330 9999 FEW035 BKN250 24/13
                        Q1011 NOSIG=
200809221530 METAR LMML NIL=
200809221515 METAR LMML 221515Z 29009KT 240V330 9999 FEW035 BKN250 24/14
                        Q1011 NOSIG=
200809221500 METAR LMML NIL=
200809221445 METAR LMML 221445Z 32009KT 290V350 9999 FEW035 BKN250 25/14
                        Q1011 NOSIG=
200809221430 METAR LMML NIL=
200809221415 METAR LMML 221415Z 30009KT 230V350 9999 FEW040 BKN250 25/14
                        Q1011 NOSIG=
200809221400 METAR LMML NIL=
200809221345 METAR LMML 221345Z 31009KT 9999 FEW040 SCT250 25/13 Q1011
                        NOSIG=
200809221330 METAR LMML NIL=
200809221315 METAR LMML 221315Z 30009KT 270V330 9999 SCT040 25/14 Q1011
                        NOSIG=
200809221300 METAR LMML NIL=
200809221245 METAR LMML 221245Z 29008KT 250V340 9999 SCT040 25/14 Q1011
                        NOSIG=
200809221230 METAR LMML NIL=
200809221215 METAR LMML 221215Z 29005KT 110V010 9999 BKN040 24/15 Q1011
                        NOSIG=
200809221200 METAR LMML NIL=
200809221145 METAR LMML 221145Z 06004KT 360V160 9999 BKN040 24/15 Q1011
                        NOSIG=
200809221130 METAR LMML NIL=
200809221115 METAR LMML 221115Z 04006KT 360V080 9999 SCT034 25/15 Q1011
                        NOSIG=
200809221100 METAR LMML NIL=
200809221045 METAR LMML 221045Z 07006KT 010V130 9999 FEW030 25/14 Q1011
                        NOSIG=
200809221030 METAR LMML NIL=
200809221015 METAR LMML 221015Z 25004KT 180V310 9999 SCT030 25/13 Q1012
                        NOSIG=
200809221000 METAR LMML NIL=
200809220945 METAR LMML 220945Z 02004KT 340V090 9999 FEW030 24/14 Q1012
                        NOSIG=
200809220930 METAR LMML NIL=
200809220915 METAR LMML 220915Z 31005KT 240V020 9999 FEW030 25/12 Q1012
                        NOSIG=
200809220845 METAR LMML 220845Z 34004KT 290V040 9999 FEW030 25/14 Q1012
                        NOSIG=
200809220830 METAR LMML NIL=
200809220815 METAR LMML 220815Z 33004KT 290V050 9999 FEW030 24/14 Q1012
                        NOSIG=
200809220800 METAR LMML NIL=
200809220745 METAR LMML 220745Z VRB03KT 9999 FEW030 23/15 Q1012 NOSIG=
200809220730 METAR LMML NIL=
200809220715 METAR LMML 220715Z VRB03KT 9999 SCT030 22/15 Q1012 NOSIG=
200809220700 METAR LMML NIL=
200809220645 METAR LMML 220645Z VRB01KT 9999 FEW030 21/16 Q1012 NOSIG=
200809220630 METAR LMML NIL=
200809220615 METAR LMML 220615Z VRB03KT 9999 FEW025 SCT090 19/16 Q1012
                        NOSIG=
200809220600 METAR LMML NIL=
200809220545 METAR LMML 220545Z VRB03KT 9999 FEW025 SCT130 17/15 Q1012
                        NOSIG=
200809220530 METAR LMML NIL=
200809220515 METAR LMML 220515Z VRB03KT 9999 FEW025 SCT130 17/15 Q1012
                        NOSIG=
200809220445 METAR LMML 220445Z VRB03KT 9999 FEW036 17/14 Q1011 NOSIG=
200809220430 METAR LMML NIL=
200809220415 METAR LMML 220415Z VRB02KT 9999 FEW036 17/15 Q1012 NOSIG=
200809220400 METAR LMML NIL=
200809220345 METAR LMML 220345Z VRB03KT 9999 FEW036 18/15 Q1012 NOSIG=
200809220330 METAR LMML NIL=
200809220315 METAR LMML 220315Z VRB03KT 9999 FEW036 18/14 Q1012 NOSIG=
200809220300 METAR LMML NIL=
200809220245 METAR LMML 220245Z VRB03KT 9999 FEW020 18/14 Q1012 NOSIG=
200809220230 METAR LMML NIL=
200809220215 METAR LMML 220215Z 29004KT 9999 FEW025 19/14 Q1012 NOSIG=
200809220200 METAR LMML NIL=
200809220145 METAR LMML 220145Z 30005KT 9999 FEW030 19/14 Q1012 NOSIG=
200809220130 METAR LMML NIL=
200809220115 METAR LMML 220115Z 29006KT 9999 FEW030 19/14 Q1013 NOSIG=
200809220100 METAR LMML NIL=
200809220045 METAR LMML 220045Z 29005KT 9999 FEW039 19/14 Q1013 NOSIG=
200809220030 METAR LMML NIL=
200809220015 METAR LMML 220015Z 26004KT 9999 FEW039 19/14 Q1013 NOSIG=
200809220000 METAR LMML NIL=
200809212345 METAR LMML 212345Z 28004KT 9999 FEW039 19/14 Q1013 NOSIG=
200809212330 METAR LMML NIL=
200809212315 METAR LMML 212315Z 31006KT 9999 FEW039 19/13 Q1013 NOSIG
                        RMK DISTANT LIGHTNING TO SE=
200809212300 METAR LMML NIL=
200809212245 METAR LMML 212245Z 31007KT 9999 FEW039 19/13 Q1013 TEMPO
                        5000 SHRA BKN015=
200809212230 METAR LMML NIL=
200809212215 METAR LMML 212215Z 31004KT 9999 FEW038 20/14 Q1013 TEMPO
                        5000 SHRA BKN015 RMK LIGHTNING TO
                        SSW=
200809212200 METAR LMML NIL=
200809212145 METAR LMML 212145Z VRB03KT 9999 SCT035 SCT100 20/15 Q1013
                        TEMPO 5000 SHRA BKN015=
200809212130 METAR LMML NIL=
200809212115 METAR LMML 212115Z VRB03KT 9999 SCT039 BKN100 21/14 Q1013
                        TEMPO 5000 SHRA BKN015=
200809212100 METAR LMML NIL=
200809212045 METAR LMML 212045Z 29004KT 270V330 9999 FEW030 BKN100 21/14
                        Q1013 NOSIG=
200809212030 METAR LMML NIL=
200809212015 METAR LMML 212015Z 29005KT CAVOK 21/14 Q1013 NOSIG=
200809211945 METAR LMML 211945Z 28005KT 240V320 CAVOK 21/14 Q1013 TEMPO
                        RA=
200809211930 METAR LMML NIL=
200809211915 METAR LMML 211915Z 28005KT 250V310 9999 FEW025 BKN090 21/13
                        Q1013 TEMPO RA=
200809211900 METAR LMML NIL=
200809211845 METAR LMML 211845Z 28005KT 250V310 9999 FEW025 BKN100 20/13
                        Q1013 NOSIG=
200809211830 METAR LMML NIL=
200809211815 METAR LMML 211815Z 28006KT 9999 FEW025 SCT090 20/13 Q1013
                        NOSIG=
200809211800 METAR LMML NIL=
200809211745 METAR LMML 211745Z 29008KT 9999 FEW030 SCT090 20/12 Q1013
                        NOSIG=
200809211730 METAR LMML NIL=
200809211715 METAR LMML 211715Z 30008KT 9999 FEW030 21/13 Q1013 NOSIG=
200809211700 METAR LMML NIL=
200809211645 METAR LMML 211645Z 30009KT 270V330 9999 FEW030 SCT100 21/12
                        Q1013 NOSIG=
200809211630 METAR LMML NIL=
200809211615 METAR LMML 211615Z 30009KT 270V350 9999 FEW030 22/13 Q1013
                        NOSIG=
200809211600 METAR LMML NIL=
200809211545 METAR LMML 211545Z 29009KT 250V320 9999 FEW030 SCT110 22/13
                        Q1013 NOSIG=
200809211515 METAR LMML 211515Z 29010KT 260V320 9999 FEW040 23/12 Q1013
                        NOSIG=
200809211500 METAR LMML NIL=
200809211445 METAR LMML 211445Z 28009KT 240V320 9999 FEW040 23/10 Q1013
                        NOSIG=
200809211430 METAR LMML NIL=
200809211415 METAR LMML 211415Z 30008KT 240V340 9999 FEW040 SCT250 24/10
                        Q1013 NOSIG=
200809211400 METAR LMML NIL=
200809211345 METAR LMML 211345Z 30009KT 250V340 9999 FEW040 SCT250 23/09
                        Q1013 NOSIG=
200809211330 METAR LMML NIL=
200809211315 METAR LMML 211315Z 30009KT 240V340 9999 FEW040 24/08 Q1013
                        NOSIG=
200809211300 METAR LMML NIL=
200809211245 METAR LMML 211245Z 30010KT 250V340 9999 FEW040 24/11 Q1013
                        NOSIG=
200809211230 METAR LMML NIL=
200809211215 METAR LMML 211215Z 34008KT 310V030 9999 FEW035 24/12 Q1014
                        NOSIG=
200809211200 METAR LMML NIL=
200809211145 METAR LMML 211145Z 33008KT 310V010 9999 FEW030 24/11 Q1014
                        NOSIG=
200809211130 METAR LMML NIL=
200809211115 METAR LMML 211115Z 34010KT 310V010 9999 FEW030 24/12 Q1014
                        NOSIG=
200809211100 METAR LMML NIL=
200809211045 METAR LMML 211045Z 35009KT 320V020 9999 FEW030 24/11 Q1014
                        NOSIG=
200809211030 METAR LMML NIL=
200809211015 METAR LMML 211015Z 33010KT 290V020 CAVOK 23/11 Q1014 NOSIG=
200809211000 METAR LMML NIL=
200809210945 METAR LMML 210945Z 33012KT 9999 FEW030 23/10 Q1014 NOSIG=
200809210915 METAR LMML 210915Z 33009KT 280V010 9999 FEW030 23/11 Q1014
                        NOSIG=
200809210900 METAR LMML NIL=
200809210845 METAR LMML 210845Z 35011KT 9999 FEW030 22/11 Q1014 NOSIG=
200809210830 METAR LMML NIL=
200809210815 METAR LMML 210815Z 33009KT 300V360 9999 FEW030 22/12 Q1014
                        NOSIG=
200809210800 METAR LMML NIL=
200809210745 METAR LMML 210745Z 34009KT 9999 FEW030 21/12 Q1014 NOSIG=
200809210730 METAR LMML NIL=
200809210715 METAR LMML 210715Z 33009KT 9999 FEW030 21/12 Q1014 NOSIG=
200809210700 METAR LMML NIL=
200809210645 METAR LMML 210645Z 34007KT 9999 FEW030 21/12 Q1014 NOSIG=
200809210630 METAR LMML NIL=
200809210615 METAR LMML 210615Z 33005KT 9999 FEW030 20/13 Q1014 NOSIG=
200809210600 METAR LMML NIL=
200809210545 METAR LMML 210545Z 30004KT 9999 FEW030 18/14 Q1014 NOSIG=
200809210530 METAR LMML NIL=
200809210515 METAR LMML 210515Z 31004KT 9999 FEW030 18/14 Q1013 NOSIG=
200809210500 LMML NIL=
200809210445 LMML 210445Z 30004KT 9999 FEW034 18/14 Q1013 NOSIG=
200809210430 METAR LMML NIL=
200809210415 METAR LMML 210415Z 31005KT 9999 FEW034 SCT090 18/15 Q1013
                        NOSIG=
200809210400 METAR LMML NIL=
200809210345 METAR LMML 210345Z 30004KT 9999 FEW034 SCT090 18/15 Q1013
                        NOSIG=
200809210330 METAR LMML NIL=
200809210315 METAR LMML 210315Z 32006KT 9999 FEW034 SCT090 18/16 Q1013
                        NOSIG=
200809210300 METAR LMML NIL=
200809210245 METAR LMML 210245Z 32004KT 9999 FEW039 BKN090 18/16 Q1013
                        NOSIG=
200809210230 METAR LMML NIL=
200809210215 METAR LMML 210215Z VRB01KT 9999 FEW039 BKN090 18/16 Q1013
                        TEMPO 5000 SHRA=
200809210200 METAR LMML NIL=
200809210145 METAR LMML 210145Z VRB02KT 9999 FEW039 SCT060 BKN100 18/16
                        Q1013 TEMPO 5000 SHRA=
200809210115 METAR LMML 210115Z VRB03KT 9999 FEW030 SCT046 BKN100 18/17
                        Q1014 TEMPO 5000 SHRA=
200809210100 METAR LMML NIL=
200809210045 METAR LMML 210045Z 32005KT 290V350 7000 -RA FEW030 SCT045
                        17/16 Q1014 TEMPO 5000 SHRA=
200809210030 METAR LMML NIL=
200809210015 METAR LMML 210015Z 32010KT 280V350 4000 -RA FEW035 SCT043
                        18/17 Q1014 TEMPO 5000 SHRA=
200809202345 METAR LMML 202345Z VRB02KT 9999 FEW034 SCT046 20/14 Q1013
                        TEMPO 5000 SHRA=
200809202330 METAR LMML NIL=
200809202315 METAR LMML 202315Z VRB03KT 9999 FEW034 20/13 Q1013 TEMPO
                        5000 SHRA=
200809202300 METAR LMML NIL=
200809202245 METAR LMML 202245Z VRB03KT 9999 FEW034 20/13 Q1014 TEMPO
                        5000 SHRA=
200809202230 METAR LMML NIL=
200809202215 METAR LMML 202215Z VRB02KT 9999 FEW030 SCT080 21/13 Q1014
                        NOSIG=
200809202145 METAR LMML 202145Z VRB03KT 9999 FEW034 21/13 Q1014 NOSIG=
200809202115 METAR LMML 202115Z VRB03KT 9999 FEW034 21/14 Q1014 NOSIG=
200809202100 METAR LMML NIL=
200809202045 METAR LMML 202045Z 05004KT 350V100 9999 SCT034 22/14 Q1014
                        NOSIG=
200809202030 METAR LMML NIL=
200809202015 METAR LMML 202015Z 07004KT 9999 SCT034 22/14 Q1014 NOSIG=
200809202000 METAR LMML NIL=
200809201945 METAR LMML 201945Z 06004KT 010V110 9999 SCT033 22/14 Q1014
                        NOSIG=
200809201930 LMML NIL=
200809201915 METAR LMML 201915Z 06005KT 020V120 9999 FEW035 22/14 Q1014
                        NOSIG=
200809201900 METAR LMML NIL=
200809201845 METAR LMML 201845Z VRB03KT 9999 FEW035 22/14 Q1014 NOSIG=
200809201830 METAR LMML NIL=
200809201815 METAR LMML 201815Z 06005KT 020V100 9999 FEW035 22/14 Q1013
                        NOSIG=
200809201800 METAR LMML NIL=
200809201745 METAR LMML 201745Z 05007KT 010V100 9999 FEW028 SCT050 22/15
                        Q1013 NOSIG=
200809201730 METAR LMML NIL=
200809201715 METAR LMML 201715Z 04008KT 010V080 9999 FEW028 SCT050 22/14
                        Q1013 NOSIG=
200809201700 METAR LMML NIL=
200809201645 METAR LMML 201645Z 05008KT 020V100 9999 SCT028 BKN050 22/15
                        Q1013 NOSIG=
200809201630 METAR LMML NIL=
200809201615 METAR LMML 201615Z 04006KT 010V080 9999 SCT029 BKN044 23/15
                        Q1012 NOSIG=
200809201600 METAR LMML NIL=
200809201545 METAR LMML 201545Z 05009KT 010V080 9999 SCT029 BKN050 23/15
                        Q1012 NOSIG=
200809201530 METAR LMML NIL=
200809201515 METAR LMML 201515Z 04010KT 020V080 9999 SCT028 BKN050 23/15
                        Q1012 NOSIG=
200809201500 METAR LMML NIL=
200809201445 METAR LMML 201445Z 04011KT 360V080 9999 SCT025 BKN040 23/16
                        Q1012 NOSIG=
200809201430 METAR LMML NIL=
200809201415 METAR LMML 201415Z 03010KT 010V070 9999 SCT026 SCT040 23/16
                        Q1012 NOSIG=
200809201400 METAR LMML NIL=
200809201345 METAR LMML 201345Z 03010KT 360V060 9999 BKN020 24/17 Q1011
                        NOSIG=
200809201330 METAR LMML NIL=
200809201315 METAR LMML 201315Z 04013KT 010V080 9999 BKN019 23/17 Q1011
                        TEMPO SHRA=
200809201300 METAR LMML NIL=
200809201245 METAR LMML 201245Z 03010KT 360V070 9999 FEW021TCU SCT028
                        24/17 Q1011 TEMPO SHRA=
200809201230 METAR LMML NIL=
200809201215 METAR LMML 201215Z 35014KT 320V020 9999 FEW030TCU SCT035
                        25/15 Q1011 TEMPO SHRA=
200809201200 METAR LMML NIL=
200809201145 METAR LMML 201145Z 33016KT 300V010 9999 FEW033 25/14 Q1012
                        TEMPO SHRA=
200809201130 METAR LMML NIL=
200809201115 METAR LMML 201115Z 34018KT 9999 FEW040 25/14 Q1011 NOSIG=
200809201100 METAR LMML NIL=
200809201045 METAR LMML 201045Z 32015KT 290V350 9999 FEW028 26/14 Q1011
                        NOSIG=
200809201030 METAR LMML NIL=
200809201015 METAR LMML 201015Z 33014KT 310V010 9999 FEW028 25/15 Q1011
                        NOSIG=
200809201000 METAR LMML NIL=
200809200945 LMML 200945Z 34016KT 9999 FEW028 25/16 Q1011 NOSIG=
200809200930 METAR LMML NIL=
200809200915 METAR LMML 200915Z 32014KT 280V350 9999 FEW028 25/14 Q1012
                        NOSIG=
200809200900 METAR LMML NIL=
200809200845 METAR LMML 200845Z 32015KT 9999 FEW028 25/16 Q1012 NOSIG=
200809200830 METAR LMML NIL=
200809200815 METAR LMML 200815Z 31018KT 9999 FEW028 24/16 Q1012 NOSIG=
200809200800 METAR LMML NIL=
200809200745 METAR LMML 200745Z 32016KT 290V360 9999 FEW030 24/16 Q1012
                        NOSIG=
200809200715 METAR LMML 200715Z 33014KT 280V350 9999 FEW020 23/16 Q1011
                        NOSIG=
200809200700 METAR LMML NIL=
200809200645 METAR LMML 200645Z 32016KT 9999 FEW020 23/16 Q1011 NOSIG=
200809200630 METAR LMML NIL=
200809200615 METAR LMML 200615Z 32016KT 9999 FEW020 22/16 Q1011 NOSIG=
200809200600 METAR LMML NIL=
200809200545 METAR LMML 200545Z 30014KT 9999 FEW020 SCT120 22/16 Q1011
                        NOSIG=
200809200530 METAR LMML NIL=
200809200515 METAR LMML 200515Z 30011KT 9999 FEW020 SCT120 22/17 Q1011
                        NOSIG=
200809200500 LMML NIL=
200809200445 LMML 200445Z 30015KT 9999 FEW019 22/18 Q1011 NOSIG=
200809200430 METAR LMML NIL=
200809200415 METAR LMML 200415Z 30016KT 270V330 9999 SCT020 22/18 Q1011
                        NOSIG=
200809200400 METAR LMML NIL=
200809200345 METAR LMML 200345Z 29014KT 260V320 9999 FEW021 BKN120 22/18
                        Q1011 NOSIG=
200809200330 METAR LMML NIL=
200809200315 METAR LMML 200315Z 29009KT 9999 FEW024 BKN120 22/19 Q1011
                        NOSIG=
200809200300 METAR LMML NIL=
200809200245 METAR LMML 200245Z 29013KT 260V330 9999 FEW030 BKN080 22/17
                        Q1011 TEMPO 5000 TSRA BKN015CB=
200809200230 METAR LMML NIL=
200809200215 METAR LMML 200215Z 29014KT 9000 FEW060 BKN100 21/17 Q1011
                        TEMPO 5000 TSRA BKN015CB=
200809200200 METAR LMML NIL=
200809200145 METAR LMML 200145Z 29019G29KT 9000 -SHRA SCT018 BKN090 20/18
                        Q1012 TEMPO 5000 TSRA BKN015CB=
200809200130 METAR LMML NIL=
200809200115 METAR LMML 200115Z 28017G27KT 250V320 9999 SCT030 SCT090
                        23/18 Q1011 TEMPO 5000 TSRA BKN015CB=
200809200100 METAR LMML NIL=
200809200045 METAR LMML 200045Z 28015KT 240V300 9999 -SHRA SCT030 BKN100
                        23/18 Q1012 TEMPO 5000 TSRA BKN015CB=
200809200030 METAR LMML NIL=
200809200015 METAR LMML 200015Z 27014KT 230V310 9999 FEW030 BKN090 24/18
                        Q1012 TEMPO 8000 SHRA=
200809200000 METAR LMML NIL=
200809192345 METAR LMML 192345Z 27014KT 230V300 9999 FEW030 BKN120 24/17
                        Q1013 NOSIG=
200809192330 METAR LMML NIL=
200809192315 METAR LMML 192315Z 27014KT 230V310 9999 FEW035 BKN120 24/17
                        Q1013 NOSIG=
200809192300 METAR LMML NIL=
200809192245 METAR LMML 192245Z 26013KT 220V290 9999 FEW035 SCT090 BKN120
                        23/17 Q1013 NOSIG=
200809192230 METAR LMML NIL=
200809192215 METAR LMML 192215Z 24011KT 200V280 9999 -RA SCT038 OVC110
                        23/18 Q1014 NOSIG=
200809192200 METAR LMML NIL=
200809192145 METAR LMML 192145Z 25012KT 200V290 9999 -RA SCT035 OVC080
                        23/18 Q1014 NOSIG=
200809192130 METAR LMML NIL=
200809192115 METAR LMML 192115Z 26012KT 230V290 9999 -RA FEW036 BKN110
                        23/18 Q1015 NOSIG=
200809192100 METAR LMML NIL=
200809192045 METAR LMML 192045Z 26009KT 220V300 9999 -RA FEW024 BKN110
                        23/20 Q1015 NOSIG=
200809192030 METAR LMML NIL=
200809192015 METAR LMML 192015Z 27007KT 230V310 9999 -RA FEW024 BKN120
                        24/19 Q1015 TEMPO 8000 RA=
200809192000 METAR LMML NIL=
200809191945 METAR LMML 191945Z 26007KT 220V290 9999 -RA FEW024 BKN130
                        23/19 Q1015 TEMPO 8000 RA=
200809191930 METAR LMML NIL=
200809191915 METAR LMML 191915Z 27009KT 240V300 9999 -RA FEW024 BKN130
                        24/20 Q1016 TEMPO 8000 RA=
200809191900 METAR LMML NIL=
200809191845 METAR LMML 191845Z 29008KT 9999 -RA FEW024 BKN110 24/20 Q1016
                        TEMPO 8000 RA=
200809191830 METAR LMML NIL=
200809191815 METAR LMML 191815Z 27008KT 240V310 9999 -RA FEW027 BKN110
                        25/19 Q1016 TEMPO 8000 RA=
200809191800 METAR LMML NIL=
200809191745 METAR LMML 191745Z 27009KT 240V300 9999 FEW030 BKN120 25/18
                        Q1016 NOSIG=
200809191730 METAR LMML NIL=
200809191715 METAR LMML 191715Z 27008KT 240V320 9999 FEW030 BKN120 25/18
                        Q1015 NOSIG=
200809191700 METAR LMML NIL=
200809191645 METAR LMML 191645Z 25007KT 210V290 9999 FEW029 BKN120 BKN250
                        25/18 Q1015 NOSIG=
200809191630 METAR LMML NIL=
200809191615 METAR LMML 191615Z 24007KT 200V280 9999 FEW029 SCT120 BKN250
                        25/18 Q1015 NOSIG=
200809191600 METAR LMML NIL=
200809191545 METAR LMML 191545Z 23008KT 180V290 9999 FEW031 SCT120 BKN250
                        26/18 Q1015 NOSIG=
200809191530 METAR LMML NIL=
200809191515 METAR LMML 191515Z 22008KT 190V280 9999 FEW031 BKN250 26/18
                        Q1015 NOSIG=
200809191500 METAR LMML NIL=
200809191445 METAR LMML 191445Z 22010KT 190V260 9999 FEW031 BKN250 26/17
                        Q1015 NOSIG=
200809191430 METAR LMML NIL=
200809191415 METAR LMML 191415Z 23009KT 190V280 9999 FEW034 BKN250 26/18
                        Q1016 NOSIG=
200809191400 METAR LMML NIL=
200809191345 METAR LMML 191345Z 21010KT 150V260 9999 FEW034 BKN250 27/17
                        Q1016 NOSIG=
200809191330 METAR LMML NIL=
200809191315 METAR LMML 191315Z 21009KT 150V270 9999 FEW034 BKN250 27/17
                        Q1016 NOSIG=
200809191300 METAR LMML NIL=
200809191245 METAR LMML 191245Z 20009KT 160V250 9999 FEW034 BKN250 27/17
                        Q1016 NOSIG=
200809191230 METAR LMML NIL=
200809191215 METAR LMML 191215Z 20011KT 170V230 9999 FEW033 BKN250 27/17
                        Q1016 NOSIG=
200809191145 METAR LMML 191145Z 20010KT 160V260 9999 SCT033 BKN250 27/17
                        Q1017 NOSIG=
200809191130 METAR LMML NIL=
200809191115 METAR LMML 191115Z 20009KT 150V260 9999 SCT032 BKN250 27/18
                        Q1017 NOSIG=
200809191100 METAR LMML NIL=
200809191045 METAR LMML 191045Z 19009KT 160V240 9999 SCT034 SCT250 27/18
                        Q1017 NOSIG=
200809191030 METAR LMML NIL=
200809191015 METAR LMML 191015Z 22007KT 130V270 9999 SCT034 SCT250 27/18
                        Q1018 NOSIG=
200809191000 METAR LMML NIL=
200809190945 METAR LMML 190945Z 19006KT 150V240 9999 SCT033 SCT250 27/18
                        Q1018 NOSIG=
200809190930 METAR LMML NIL=
200809190915 METAR LMML 190915Z 20005KT 140V300 9999 SCT033 SCT250 27/18
                        Q1018 NOSIG=
200809190900 METAR LMML NIL=
200809190830 METAR LMML NIL=
200809190815 METAR LMML 190815Z 16006KT 090V220 9999 FEW025 BKN250 26/18
                        Q1018 NOSIG=
200809190800 METAR LMML NIL=
200809190745 METAR LMML 190745Z 17005KT 120V230 9999 SCT028 26/18 Q1018
                        NOSIG=
200809190715 METAR LMML 190715Z 16005KT 130V190 9999 SCT029 25/18 Q1018
                        NOSIG=
200809190700 METAR LMML NIL=
200809190645 METAR LMML 190645Z 17004KT 130V190 9999 FEW031 25/17 Q1018
                        NOSIG=
200809190630 METAR LMML NIL=
200809190615 METAR LMML 190615Z VRB03KT 9999 FEW031 24/17 Q1018 NOSIG=
200809190600 METAR LMML NIL=
200809190545 METAR LMML 190545Z VRB02KT 9999 FEW030 22/17 Q1018 NOSIG=
200809190530 METAR LMML NIL=
200809190515 METAR LMML 190515Z VRB01KT 9999 FEW030 SCT250 20/17 Q1018
                        NOSIG=
200809190500 METAR LMML NIL=
200809190445 METAR LMML 190445Z VRB03KT 9999 FEW035 21/17 Q1018 NOSIG=
200809190430 METAR LMML NIL=
200809190415 METAR LMML 190415Z VRB02KT 9999 FEW035 21/17 Q1017 NOSIG=
200809190400 METAR LMML NIL=
200809190345 METAR LMML 190345Z VRB03KT 9999 FEW035 21/17 Q1017 NOSIG=
200809190330 METAR LMML NIL=
200809190315 METAR LMML 190315Z VRB03KT 9999 FEW035 21/17 Q1017 NOSIG=
200809190300 METAR LMML NIL=
200809190245 METAR LMML 190245Z VRB03KT 9999 FEW035 21/17 Q1018 NOSIG=
200809190230 METAR LMML NIL=
200809190215 METAR LMML 190215Z 15004KT 9999 SCT035 22/17 Q1018 NOSIG=
200809190200 METAR LMML NIL=
200809190145 METAR LMML 190145Z VRB03KT 9999 SCT034 21/17 Q1018 NOSIG=
200809190130 METAR LMML NIL=
200809190115 METAR LMML 190115Z VRB02KT 9999 FEW029 22/17 Q1018 NOSIG=
200809190045 METAR LMML 190045Z VRB03KT 9999 FEW029 22/17 Q1018 NOSIG=
200809190030 METAR LMML NIL=
200809190015 METAR LMML 190015Z 14004KT 9999 SCT028 SCT250 22/17 Q1018
                        NOSIG=
200809190000 METAR LMML NIL=
200809182345 METAR LMML 182345Z 14004KT 9999 SCT027 SCT250 22/17 Q1019
                        NOSIG=
200809182330 METAR LMML NIL=
200809182315 METAR LMML 182315Z VRB02KT 9999 FEW027 SCT250 22/17 Q1019
                        NOSIG=
200809182245 METAR LMML 182245Z VRB03KT 9999 FEW027 SCT250 22/17 Q1018
                        NOSIG=
200809182230 METAR LMML NIL=
200809182215 METAR LMML 182215Z VRB01KT 9999 SCT027 21/16 Q1019 NOSIG=
200809182200 METAR LMML NIL=
200809182145 METAR LMML 182145Z VRB01KT 9999 SCT027 21/16 Q1019 NOSIG=
200809182115 METAR LMML 182115Z VRB01KT 9999 FEW027 21/16 Q1019 NOSIG=
200809182100 LMML NIL=
200809182045 LMML 182045Z VRB01KT 9999 FEW032 22/16 Q1019 NOSIG=
200809182030 METAR LMML NIL=
200809182015 METAR LMML 182015Z VRB01KT 9999 FEW032 23/16 Q1019 NOSIG=
200809182000 METAR LMML NIL=
200809181945 METAR LMML 181945Z VRB02KT 9999 FEW030 23/16 Q1019 NOSIG=
200809181930 METAR LMML NIL=
200809181915 METAR LMML 181915Z VRB03KT 9999 FEW030 23/16 Q1019 NOSIG=
200809181900 METAR LMML NIL=
200809181845 METAR LMML 181845Z 13004KT 9999 FEW031 23/16 Q1018 NOSIG=
200809181830 METAR LMML NIL=
200809181815 METAR LMML 181815Z 11005KT 070V130 9999 FEW031 23/16 Q1018
                        NOSIG=
200809181800 METAR LMML NIL=
200809181745 METAR LMML 181745Z 13004KT 090V190 9999 FEW031 23/16 Q1018
                        NOSIG=
200809181730 METAR LMML NIL=
200809181715 METAR LMML 181715Z 13006KT 9999 FEW031 24/17 Q1018 NOSIG=
200809181700 METAR LMML NIL=
200809181645 METAR LMML 181645Z 19004KT 9999 FEW032 25/16 Q1018 NOSIG=
200809181630 METAR LMML NIL=
200809181615 METAR LMML 181615Z 17004KT 120V230 9999 FEW034 25/17 Q1017
                        NOSIG=
200809181600 METAR LMML NIL=
200809181545 METAR LMML 181545Z VRB03KT 9999 FEW033 25/16 Q1018 NOSIG=
200809181530 METAR LMML NIL=
200809181515 METAR LMML 181515Z 18004KT 130V250 9999 FEW035 26/16 Q1018
                        NOSIG=
200809181500 METAR LMML NIL=
200809181445 METAR LMML 181445Z 18004KT 060V270 9999 FEW035 26/17 Q1018
                        NOSIG=
200809181430 METAR LMML NIL=
200809181415 METAR LMML 181415Z 19006KT 150V250 9999 FEW035 26/16 Q1018
                        NOSIG=
200809181400 METAR LMML NIL=
200809181345 METAR LMML 181345Z 16008KT 120V200 9999 FEW036 26/16 Q1018
                        NOSIG=
200809181330 METAR LMML NIL=
200809181315 METAR LMML 181315Z 17006KT 100V260 9999 FEW035 26/15 Q1018
                        NOSIG=
200809181300 METAR LMML NIL=
200809181245 METAR LMML 181245Z 18006KT 100V260 9999 FEW038 26/16 Q1018
                        NOSIG=
200809181230 METAR LMML NIL=
200809181215 METAR LMML 181215Z 18007KT 130V250 9999 FEW036 26/15 Q1019
                        NOSIG=
200809181200 METAR LMML NIL=
200809181145 METAR LMML 181145Z 18007KT 130V230 9999 FEW038 26/15 Q1019
                        NOSIG=
200809181130 METAR LMML NIL=
200809181115 METAR LMML 181115Z 16007KT 120V220 9999 FEW036 26/15 Q1019
                        NOSIG=
200809181100 METAR LMML NIL=
200809181045 METAR LMML 181045Z 16007KT 120V220 9999 FEW039 26/15 Q1019
                        NOSIG=
200809181030 METAR LMML NIL=
200809181015 METAR LMML 181015Z 17008KT 130V220 9999 SCT030 26/15 Q1019
                        NOSIG=
200809181000 METAR LMML NIL=
200809180945 METAR LMML 180945Z 15007KT 120V200 9999 SCT030 26/15 Q1019
                        NOSIG=
200809180930 METAR LMML NIL=
200809180915 METAR LMML 180915Z 15007KT 100V200 9999 SCT030 26/16 Q1019
                        NOSIG=
200809180900 METAR LMML NIL=
200809180845 METAR LMML 180845Z 16007KT 110V220 9999 SCT030 26/17 Q1019
                        NOSIG=
200809180830 METAR LMML NIL=
200809180815 METAR LMML 180815Z 14007KT 070V230 9999 SCT030 25/15 Q1019
                        NOSIG=
200809180800 METAR LMML NIL=
200809180745 METAR LMML 180745Z 13006KT 090V200 9999 FEW020 25/17 Q1019
                        NOSIG=
200809180715 METAR LMML 180715Z 15006KT 120V200 9999 FEW020 25/16 Q1018
                        NOSIG=
200809180700 METAR LMML NIL=
200809180645 METAR LMML 180645Z 12005KT 090V160 9999 FEW020 24/16 Q1018
                        NOSIG=
200809180630 METAR LMML NIL=
200809180615 METAR LMML 180615Z 00000KT 9999 FEW020 22/17 Q1018 NOSIG=
200809180600 METAR LMML NIL=
200809180545 METAR LMML 180545Z VRB01KT 9999 FEW020 20/17 Q1018 NOSIG=
200809180530 METAR LMML NIL=
200809180515 METAR LMML 180515Z VRB01KT 9999 FEW020 19/16 Q1017 NOSIG=
200809180500 METAR LMML NIL=
200809180445 METAR LMML 180445Z VRB01KT 9999 FEW020 19/16 Q1017 NOSIG=
200809180430 METAR LMML NIL=
200809180415 METAR LMML 180415Z VRB02KT 9999 FEW020 20/16 Q1017 NOSIG=
200809180400 METAR LMML NIL=
200809180345 METAR LMML 180345Z 09004KT 9999 FEW020 SCT250 22/16 Q1017
                        NOSIG=
200809180330 METAR LMML NIL=
200809180315 METAR LMML 180315Z VRB03KT 9999 FEW020 SCT250 22/16 Q1017
                        NOSIG=
200809180300 METAR LMML NIL=
200809180245 METAR LMML 180245Z VRB03KT 9999 FEW020 BKN250 22/15 Q1017
                        NOSIG=
200809180230 METAR LMML NIL=
200809180215 METAR LMML 180215Z VRB03KT 9999 FEW020 BKN250 21/15 Q1017
                        NOSIG=
200809180200 METAR LMML NIL=
200809180145 METAR LMML 180145Z 07004KT 030V110 9999 FEW020 BKN250 21/15
                        Q1017 NOSIG=
200809180130 METAR LMML NIL=
200809180115 METAR LMML 180115Z VRB02KT 9999 FEW020 BKN200 20/15 Q1017
                        NOSIG=
200809180100 METAR LMML NIL=
200809180045 METAR LMML 180045Z VRB02KT 9999 FEW020 BKN200 20/15 Q1017
                        NOSIG=
200809180030 METAR LMML NIL=
200809180015 METAR LMML 180015Z VRB02KT 9999 FEW020 BKN200 20/15 Q1017
                        NOSIG=
200809180000 METAR LMML NIL=
200809172345 METAR LMML 172345Z VRB02KT 9999 FEW020 SCT200 20/15 Q1018
                        NOSIG=
200809172330 METAR LMML NIL=
200809172315 METAR LMML 172315Z VRB02KT 9999 FEW020 SCT200 20/15 Q1018
                        NOSIG=
200809172300 METAR LMML NIL=
200809172245 METAR LMML 172245Z 29004KT 260V320 9999 FEW020 SCT200 20/15
                        Q1018 NOSIG=
200809172230 METAR LMML NIL=
200809172215 METAR LMML 172215Z VRB03KT 9999 FEW020 BKN200 20/15 Q1018
                        NOSIG=
200809172145 METAR LMML 172145Z VRB03KT 9999 FEW020 SCT200 20/15 Q1018
                        NOSIG=
200809172130 METAR LMML NIL=
200809172115 METAR LMML 172115Z 30004KT 9999 FEW020 21/15 Q1018 NOSIG=
200809172100 METAR LMML NIL=
200809172045 METAR LMML 172045Z 30004KT 270V330 9999 FEW020 21/15 Q1018
                        NOSIG=
200809172030 METAR LMML NIL=
200809172015 METAR LMML 172015Z 31005KT 280V350 9999 FEW020 21/14 Q1017
                        NOSIG=
200809172000 METAR LMML NIL=
200809171945 METAR LMML 171945Z 30004KT 9999 FEW015 21/14 Q1017 NOSIG=
200809171930 METAR LMML NIL=
200809171915 METAR LMML 171915Z 31004KT CAVOK 21/14 Q1017 NOSIG=
200809171900 METAR LMML NIL=
200809171845 METAR LMML 171845Z 31006KT CAVOK 21/14 Q1017 NOSIG=
200809171830 METAR LMML NIL=
200809171815 METAR LMML 171815Z 31005KT 9999 FEW025 22/13 Q1016 NOSIG=
200809171800 METAR LMML NIL=
200809171745 METAR LMML 171745Z 29007KT 260V320 9999 FEW025 23/13 Q1016
                        NOSIG=
200809171730 METAR LMML NIL=
200809171715 METAR LMML 171715Z 30008KT 9999 FEW025 23/16 Q1015 NOSIG=
200809171700 METAR LMML NIL=
200809171645 METAR LMML 171645Z 30009KT 9999 FEW030 24/16 Q1015 NOSIG=
200809171630 METAR LMML NIL=
200809171615 METAR LMML 171615Z 28010KT 250V310 9999 FEW040 24/15 Q1015
                        NOSIG=
200809171600 METAR LMML NIL=
200809171545 METAR LMML 171545Z 29009KT 250V330 9999 FEW040 25/15 Q1015
                        NOSIG=
200809171530 METAR LMML NIL=
200809171515 METAR LMML 171515Z 29009KT 260V330 9999 FEW040 25/14 Q1016
                        NOSIG=
200809171500 METAR LMML NIL=
200809171445 METAR LMML 171445Z 31010KT 260V340 9999 FEW040 26/14 Q1016
                        NOSIG=
200809171430 METAR LMML NIL=
200809171415 METAR LMML 171415Z 30010KT 250V340 9999 FEW040 26/13 Q1016
                        NOSIG=
200809171400 METAR LMML NIL=
200809171330 METAR LMML NIL=
200809171315 METAR LMML 171315Z 29011KT 250V320 9999 FEW043 26/14 Q1016
                        NOSIG=
200809171245 METAR LMML 171245Z 31011KT 270V360 9999 FEW043 26/14 Q1016
                        NOSIG=
200809171230 METAR LMML NIL=
200809171215 METAR LMML 171215Z 30011KT 220V330 9999 FEW043 26/12 Q1016
                        NOSIG=
200809171200 METAR LMML NIL=
200809171145 METAR LMML 171145Z 30010KT 250V330 9999 FEW043 26/13 Q1016
                        NOSIG=
200809171130 METAR LMML NIL=
200809171115 METAR LMML 171115Z 28011KT 250V310 9999 FEW043 26/13 Q1016
                        NOSIG=
200809171100 METAR LMML NIL=
200809171045 METAR LMML 171045Z 28011KT 230V320 9999 FEW043 26/13 Q1016
                        NOSIG=
200809171030 METAR LMML NIL=
200809171015 METAR LMML 171015Z 28011KT 240V310 9999 FEW043 26/13 Q1016
                        NOSIG=
200809171000 METAR LMML NIL=
200809170945 METAR LMML 170945Z 29011KT 270V330 9999 FEW043 26/13 Q1016
                        NOSIG=
200809170930 METAR LMML NIL=
200809170915 METAR LMML 170915Z 30010KT 260V330 9999 FEW038 25/13 Q1016
                        NOSIG=
200809170900 METAR LMML NIL=
200809170845 METAR LMML 170845Z 30010KT 240V340 9999 FEW038 25/15 Q1016
                        NOSIG=
200809170830 METAR LMML NIL=
200809170815 METAR LMML 170815Z 29010KT 250V330 9999 FEW036 24/15 Q1016
                        NOSIG=
200809170800 METAR LMML NIL=
200809170745 METAR LMML 170745Z 31012KT 280V340 9999 FEW035 24/14 Q1016
                        NOSIG=
200809170730 METAR LMML NIL=
200809170715 METAR LMML 170715Z 30012KT 9999 FEW033 23/14 Q1015 NOSIG=
200809170700 METAR LMML NIL=
200809170645 METAR LMML 170645Z 31009KT 280V350 9999 FEW023 23/15 Q1015
                        NOSIG=
200809170630 METAR LMML NIL=
200809170615 METAR LMML 170615Z 31009KT 9999 FEW023 22/15 Q1015 NOSIG=
200809170600 METAR LMML NIL=
200809170545 METAR LMML 170545Z 30009KT 9999 FEW023 21/15 Q1014 NOSIG=
200809170530 METAR LMML NIL=
200809170515 METAR LMML 170515Z 31007KT 9999 FEW023 20/15 Q1014 NOSIG=
200809170500 METAR LMML NIL=
200809170445 METAR LMML 170445Z 31009KT 9999 FEW023 20/15 Q1014 NOSIG=
200809170430 METAR LMML NIL=
200809170415 METAR LMML 170415Z 31007KT 9999 FEW023 20/15 Q1014 NOSIG=
200809170400 METAR LMML NIL=
200809170345 METAR LMML 170345Z 31007KT 9999 FEW023 20/15 Q1014 NOSIG=
200809170330 METAR LMML NIL=
200809170315 METAR LMML 170315Z 31009KT CAVOK 20/15 Q1014 NOSIG=
200809170300 METAR LMML NIL=
200809170245 METAR LMML 170245Z 31008KT CAVOK 20/16 Q1014 NOSIG=
200809170230 METAR LMML NIL=
200809170215 METAR LMML 170215Z 30008KT CAVOK 21/16 Q1014 NOSIG=
200809170200 METAR LMML NIL=
200809170145 METAR LMML 170145Z 30008KT CAVOK 21/16 Q1014 NOSIG=
200809170130 METAR LMML NIL=
200809170115 METAR LMML 170115Z 29008KT CAVOK 21/16 Q1014 NOSIG=
200809170100 METAR LMML NIL=
200809170045 METAR LMML 170045Z 30008KT CAVOK 21/16 Q1014 NOSIG=
200809170030 METAR LMML NIL=
200809170015 METAR LMML 170015Z 30009KT CAVOK 21/16 Q1014 NOSIG=
200809170000 METAR LMML NIL=
200809162345 METAR LMML 162345Z 30008KT CAVOK 21/17 Q1014 NOSIG=
200809162330 METAR LMML NIL=
200809162315 METAR LMML 162315Z 30010KT CAVOK 22/16 Q1014 NOSIG=
200809162300 METAR LMML NIL=
200809162245 METAR LMML 162245Z 29009KT 270V330 9999 FEW025 22/17 Q1014
                        NOSIG=
200809162230 METAR LMML NIL=
200809162215 METAR LMML 162215Z 29008KT 9999 FEW025 22/17 Q1014 NOSIG=
200809162145 METAR LMML 162145Z 31008KT 9999 FEW025 22/17 Q1014 NOSIG=
200809162115 METAR LMML 162115Z 30009KT 270V330 9999 FEW025 22/17 Q1014
                        NOSIG=
200809162100 METAR LMML NIL=
200809162045 METAR LMML 162045Z 31009KT 9999 FEW023 22/18 Q1014 NOSIG=
200809162015 METAR LMML 162015Z 30008KT 270V330 9999 FEW023 22/17 Q1014
                        NOSIG=
200809162000 METAR LMML NIL=
200809161945 METAR LMML 161945Z 30008KT 9999 FEW020 22/17 Q1014 NOSIG=
200809161915 METAR LMML 161915Z 30009KT 270V330 9999 FEW020 23/17 Q1013
                        NOSIG=
200809161900 METAR LMML NIL=
200809161845 METAR LMML 161845Z 29009KT 260V320 9999 FEW020 23/16 Q1013
                        NOSIG=
200809161815 METAR LMML 161815Z 29010KT 9999 FEW020 23/17 Q1013 NOSIG=
200809161800 METAR LMML NIL=
200809161745 METAR LMML 161745Z 29011KT 9999 FEW030 23/17 Q1012 NOSIG=
200809161730 METAR LMML NIL=
200809161715 METAR LMML 161715Z 29011KT 260V330 9999 FEW030 23/16 Q1012
                        NOSIG=
200809161700 METAR LMML NIL=
200809161645 METAR LMML 161645Z 30014KT 260V330 9999 FEW030 24/16 Q1012
                        NOSIG=
200809161630 METAR LMML NIL=
200809161615 METAR LMML 161615Z 29015KT 250V320 9999 FEW030 24/15 Q1012
                        NOSIG=
200809161600 METAR LMML NIL=
200809161545 METAR LMML 161545Z 31019KT 9999 FEW030 25/15 Q1012 NOSIG=
200809161530 METAR LMML NIL=
200809161515 METAR LMML 161515Z 30016KT 260V330 9999 FEW031 25/15 Q1012
                        NOSIG=
200809161500 METAR LMML NIL=
200809161445 METAR LMML 161445Z 28018KT 250V330 9999 FEW031 25/16 Q1012
                        NOSIG=
200809161430 METAR LMML NIL=
200809161415 METAR LMML 161415Z 29017KT 260V320 9999 FEW031 25/16 Q1012
                        NOSIG=
200809161400 METAR LMML NIL=
200809161345 METAR LMML 161345Z 29016KT 260V330 9999 FEW033 26/17 Q1012
                        NOSIG=
200809161330 METAR LMML NIL=
200809161315 METAR LMML 161315Z 28016KT 240V320 9999 SCT031 25/16 Q1012
                        TEMPO 8000 SHRA BKN030=
200809161245 METAR LMML 161245Z 28015KT 250V310 9999 -SHRA SCT031 25/17
                        Q1012 TEMPO 8000 SHRA BKN030=
200809161230 METAR LMML NIL=
200809161215 METAR LMML 161215Z 28016KT 240V320 9999 SCT034 26/17 Q1013
                        NOSIG=
200809161200 METAR LMML NIL=
200809161145 METAR LMML 161145Z 27017KT 240V310 9999 FEW031 26/17 Q1012
                        NOSIG=
200809161130 METAR LMML NIL=
200809161115 METAR LMML 161115Z 28017KT 250V320 9999 FEW033 26/17 Q1013
                        NOSIG=
200809161100 METAR LMML NIL=
200809161045 METAR LMML 161045Z 29018KT 260V320 9999 FEW031 26/17 Q1013
                        NOSIG=
200809161030 METAR LMML NIL=
200809161015 METAR LMML 161015Z 29016KT 250V330 9999 FEW031 25/17 Q1013
                        NOSIG=
200809161000 METAR LMML NIL=
200809160945 METAR LMML 160945Z 29016KT 260V330 9999 FEW028 24/18 Q1013
                        TEMPO 8000 SHRA=
200809160930 METAR LMML NIL=
200809160915 METAR LMML 160915Z 28013KT 9999 BKN028 23/19 Q1013 TEMPO
                        8000 SHRA=
200809160900 METAR LMML NIL=
200809160845 METAR LMML 160845Z 28013KT 240V310 9999 BKN032 26/17 Q1012
                        TEMPO 8000 SHRA=
200809160830 METAR LMML NIL=
200809160815 METAR LMML 160815Z 28013KT 240V320 9999 SCT032 24/17 Q1012
                        TEMPO 8000 SHRA=
200809160800 METAR LMML NIL=
200809160745 METAR LMML 160745Z 29016KT 9999 SCT031 24/16 Q1012 NOSIG=
200809160730 METAR LMML NIL=
200809160715 METAR LMML 160715Z 30013KT 270V330 9999 FEW025 23/18 Q1012
                        NOSIG=
200809160700 METAR LMML NIL=
200809160645 METAR LMML 160645Z 32010KT 9999 FEW034 SCT080 21/18 Q1012
                        NOSIG=
200809160630 METAR LMML NIL=
200809160615 METAR LMML 160615Z 29010KT 240V320 9999 -SHRA BKN030 SCT090
                        23/18 Q1012 TEMPO 5000 SHRA=
200809160600 METAR LMML NIL=
200809160545 METAR LMML 160545Z 29008KT 260V330 9999 SCT031 23/16 Q1011
                        TEMPO 5000 SHRA=
200809160530 METAR LMML NIL=
200809160515 METAR LMML 160515Z 28008KT 250V320 9999 FEW030 22/16 Q1011
                        TEMPO 5000 SHRA=
200809160500 METAR LMML NIL=
200809160445 METAR LMML 160445Z 28008KT 9999 FEW040 22/16 Q1011 NOSIG=
200809160430 METAR LMML NIL=
200809160415 METAR LMML 160415Z 28008KT 9999 FEW040 22/15 Q1011 NOSIG=
200809160400 METAR LMML NIL=
200809160345 METAR LMML 160345Z 29010KT 9999 FEW040 22/15 Q1011 NOSIG=
200809160330 METAR LMML NIL=
200809160315 METAR LMML 160315Z 28011KT 260V320 9999 SCT040 22/16 Q1011
                        TEMPO 8000 SHRA=
200809160300 METAR LMML NIL=
200809160245 METAR LMML 160245Z 29012KT 9999 SCT035 22/16 Q1011 NOSIG=
200809160230 METAR LMML NIL=
200809160215 METAR LMML 160215Z 29010KT 260V320 9999 FEW035 22/15 Q1011
                        NOSIG=
200809160200 METAR LMML NIL=
200809160145 METAR LMML 160145Z 29008KT 260V330 9999 FEW040 22/14 Q1012
                        NOSIG=
200809160130 METAR LMML NIL=
200809160115 METAR LMML 160115Z 30007KT 9999 FEW041 22/14 Q1012 NOSIG=
200809160100 METAR LMML NIL=
200809160045 METAR LMML 160045Z 29009KT 9999 FEW040 22/14 Q1012 NOSIG=
200809160030 METAR LMML NIL=
200809160015 METAR LMML 160015Z 29009KT 9999 FEW040 22/13 Q1012 NOSIG=
200809160000 METAR LMML NIL=
200809152345 METAR LMML 152345Z 29010KT 260V320 9999 FEW040 22/12 Q1012
                        NOSIG=
200809152330 METAR LMML NIL=
200809152315 METAR LMML 152315Z 29013KT 240V330 9999 FEW040 23/12 Q1013
                        NOSIG=
200809152300 METAR LMML NIL=
200809152245 METAR LMML 152245Z 29011KT 270V330 9999 FEW040 23/14 Q1013
                        NOSIG=
200809152215 METAR LMML 152215Z 30008KT 270V330 9999 FEW041 22/14 Q1013
                        NOSIG=
200809152200 METAR LMML NIL=
200809152145 METAR LMML 152145Z 30012KT 270V330 9999 FEW037 23/14 Q1013
                        NOSIG=
200809152130 METAR LMML NIL=
200809152115 METAR LMML 152115Z 30014KT 9999 FEW037 23/13 Q1013 NOSIG=
200809152100 METAR LMML NIL=
200809152045 METAR LMML 152045Z 30008KT 9999 SCT038 22/15 Q1013 NOSIG=
200809152030 METAR LMML NIL=
200809152015 METAR LMML 152015Z 31011KT 9999 FEW030 22/14 Q1013 NOSIG=
200809152000 METAR LMML NIL=
200809151945 METAR LMML 151945Z 31010KT 9999 FEW030 22/15 Q1013 NOSIG=
200809151930 METAR LMML NIL=
200809151915 METAR LMML 151915Z 31010KT 9999 FEW030 22/16 Q1013 NOSIG=
200809151900 METAR LMML NIL=
200809151845 METAR LMML 151845Z 31013KT 9999 FEW030 23/15 Q1013 NOSIG=
200809151830 LMML NIL=
200809151815 METAR LMML 151815Z 32012KT 9999 FEW030 SCT080 23/16 Q1012
                        NOSIG=
200809151800 METAR LMML NIL=
200809151745 METAR LMML 151745Z 31012KT 270V330 9999 FEW030 23/15 Q1012
                        NOSIG=
200809151730 METAR LMML NIL=
200809151715 METAR LMML 151715Z 30011KT 260V330 9999 FEW030 23/16 Q1012
                        NOSIG=
200809151700 METAR LMML NIL=
200809151645 METAR LMML 151645Z 30012KT 9999 FEW030 24/15 Q1012 NOSIG=
200809151630 METAR LMML NIL=
200809151615 METAR LMML 151615Z 29011KT 9999 FEW030 SCT060 24/16 Q1012
                        NOSIG=
200809151600 METAR LMML NIL=
200809151545 METAR LMML 151545Z 30015KT 240V330 9999 FEW032 24/16 Q1012
                        NOSIG=
200809151530 METAR LMML NIL=
200809151515 METAR LMML 151515Z 29014KT 260V330 9999 FEW032 25/16 Q1012
                        NOSIG=
200809151500 METAR LMML NIL=
200809151445 METAR LMML 151445Z 30015KT 9999 FEW030 SCT060 25/17 Q1012
                        NOSIG=
200809151430 METAR LMML NIL=
200809151415 METAR LMML 151415Z 30016KT 270V330 9999 FEW030 25/16 Q1012
                        NOSIG=
200809151400 METAR LMML NIL=
200809151345 METAR LMML 151345Z 29015KT 250V310 9999 FEW031 25/16 Q1012
                        NOSIG=
200809151330 METAR LMML NIL=
200809151315 METAR LMML 151315Z 29014KT 250V320 9999 FEW030 SCT080 26/16
                        Q1012 NOSIG=
200809151300 METAR LMML NIL=
200809151245 METAR LMML 151245Z 29017KT 250V320 9999 FEW030 26/16 Q1012
                        NOSIG=
200809151230 METAR LMML NIL=
200809151215 METAR LMML 151215Z 29017KT 250V330 9999 FEW029 26/17 Q1012
                        NOSIG=
200809151200 METAR LMML NIL=
200809151145 METAR LMML 151145Z 29016KT 260V330 9999 SCT032 26/16 Q1012
                        NOSIG=
200809151130 METAR LMML NIL=
200809151115 METAR LMML 151115Z 28016KT 230V330 9999 SCT033 26/16 Q1012
                        NOSIG=
200809151100 METAR LMML NIL=
200809151045 METAR LMML 151045Z 29016KT 9999 FEW031 25/17 Q1012 NOSIG=
200809151030 METAR LMML NIL=
200809151015 METAR LMML 151015Z 29016KT 260V320 9999 FEW026 26/16 Q1012
                        NOSIG=
200809151000 METAR LMML NIL=
200809150945 METAR LMML 150945Z 29013KT 260V320 9999 FEW026 24/17 Q1012
                        NOSIG=
200809150930 METAR LMML NIL=
200809150915 METAR LMML 150915Z 31015KT 9999 -SHRA SCT025 24/18 Q1012
                        NOSIG=
200809150900 METAR LMML NIL=
200809150845 METAR LMML 150845Z 31014KT 290V350 9999 SCT024 SCT100 24/18
                        Q1012 TEMPO 8000 SHRA=
200809150830 METAR LMML NIL=
200809150815 METAR LMML 150815Z 29014KT 240V320 9999 BKN037 26/16 Q1012
                        TEMPO 8000 SHRA=
200809150800 METAR LMML NIL=
200809150745 METAR LMML 150745Z 30015KT 270V330 9999 FEW036 25/15 Q1012
                        TEMPO 8000 SHRA=
200809150730 METAR LMML NIL=
200809150715 METAR LMML 150715Z 30016KT 270V330 9999 FEW035 25/14 Q1012
                        TEMPO 8000 SHRA=
200809150700 METAR LMML NIL=
200809150645 METAR LMML 150645Z 29012KT 240V330 9999 FEW020 24/15 Q1011
                        NOSIG=
200809150630 METAR LMML NIL=
200809150615 METAR LMML 150615Z 29012KT 260V320 9999 FEW020 24/15 Q1011
                        NOSIG=
200809150600 METAR LMML NIL=
200809150545 METAR LMML 150545Z 29007KT 260V330 9999 FEW020 23/15 Q1011
                        NOSIG=
200809150530 METAR LMML NIL=
200809150515 METAR LMML 150515Z 29009KT 9999 FEW020 22/15 Q1011 NOSIG=
200809150500 METAR LMML NIL=
200809150445 METAR LMML 150445Z 30007KT 270V330 9999 FEW025 22/15 Q1011
                        NOSIG=
200809150430 METAR LMML NIL=
200809150415 METAR LMML 150415Z 31010KT 9999 FEW025 22/15 Q1010 NOSIG=
200809150400 METAR LMML NIL=
200809150345 METAR LMML 150345Z 31008KT 9999 FEW030 22/15 Q1010 NOSIG=
200809150330 METAR LMML NIL=
200809150315 METAR LMML 150315Z 30009KT 260V330 9999 FEW030 22/14 Q1011
                        NOSIG=
200809150300 METAR LMML NIL=
200809150245 METAR LMML 150245Z 31012KT 9999 FEW030 22/15 Q1011 NOSIG=
200809150230 METAR LMML NIL=
200809150215 METAR LMML 150215Z 31011KT 9999 FEW034 22/14 Q1011 NOSIG=
200809150200 METAR LMML NIL=
200809150145 METAR LMML 150145Z 29005KT 260V330 9999 FEW034 21/15 Q1012
                        NOSIG=
200809150130 METAR LMML NIL=
200809150115 METAR LMML 150115Z VRB03KT 9999 SCT048 21/15 Q1012 NOSIG=
200809150100 METAR LMML NIL=
200809150045 METAR LMML 150045Z 31008KT 9999 FEW012 21/15 Q1012 NOSIG=
200809150030 METAR LMML NIL=
200809150015 METAR LMML 150015Z 31011KT 9999 FEW012 22/15 Q1012 NOSIG=
200809150000 METAR LMML NIL=
200809142345 METAR LMML 142345Z 32010KT 9999 FEW012 22/15 Q1012 NOSIG=
200809142330 METAR LMML NIL=
200809142315 METAR LMML 142315Z 32011KT CAVOK 22/14 Q1012 NOSIG=
200809142300 METAR LMML NIL=
200809142245 METAR LMML 142245Z 32013KT CAVOK 22/14 Q1012 NOSIG=
200809142230 METAR LMML NIL=
200809142215 METAR LMML 142215Z 32015KT CAVOK 22/16 Q1012 NOSIG=
200809142200 METAR LMML NIL=
200809142145 METAR LMML 142145Z 32016KT CAVOK 22/16 Q1012 NOSIG=
200809142130 METAR LMML NIL=
200809142115 METAR LMML 142115Z 32017KT CAVOK 22/16 Q1012 NOSIG=
200809142100 METAR LMML NIL=
200809142045 METAR LMML 142045Z 32014KT CAVOK 22/16 Q1011 NOSIG=
200809142030 METAR LMML NIL=
200809142015 METAR LMML 142015Z 32019KT CAVOK 22/15 Q1011 NOSIG=
200809142000 METAR LMML NIL=
200809141945 METAR LMML 141945Z 32016KT CAVOK 22/14 Q1011 NOSIG=
200809141930 LMML NIL=
200809141915 METAR LMML 141915Z 32018KT CAVOK 23/14 Q1011 NOSIG=
200809141900 METAR LMML NIL=
200809141845 METAR LMML 141845Z 32019KT CAVOK 23/15 Q1010 NOSIG=
200809141830 METAR LMML NIL=
200809141815 METAR LMML 141815Z 32019KT CAVOK 24/17 Q1010 NOSIG=
200809141800 METAR LMML NIL=
200809141745 METAR LMML 141745Z 33013KT CAVOK 24/17 Q1009 NOSIG=
200809141730 METAR LMML NIL=
200809141715 METAR LMML 141715Z 32014KT 9999 SCT045 24/16 Q1009 NOSIG=
200809141700 METAR LMML NIL=
200809141645 METAR LMML 141645Z 33015KT 290V350 9999 SCT045 BKN120 25/17
                        Q1009 NOSIG=
200809141630 METAR LMML NIL=
200809141615 METAR LMML 141615Z 33019KT 9999 SCT041 BKN120 25/18 Q1009
                        NOSIG=
200809141600 METAR LMML NIL=
200809141545 METAR LMML 141545Z 33020KT 9999 FEW030 BKN120 25/17 Q1009
                        NOSIG=
200809141530 METAR LMML NIL=
200809141515 METAR LMML 141515Z 33020KT 9999 FEW030 BKN120 25/19 Q1009
                        NOSIG=
200809141445 METAR LMML 141445Z 34013KT 310V010 9999 FEW032 SCT120 BKN250
                        26/19 Q1007 NOSIG=
200809141430 METAR LMML NIL=
200809141415 METAR LMML 141415Z 32015KT 9999 SCT032 SCT120 BKN250 27/19
                        Q1008 NOSIG=
200809141400 METAR LMML NIL=
200809141345 METAR LMML 141345Z 33020KT 9999 SCT020CB SCT025 BKN120 26/19
                        Q1009 RETS NOSIG=
200809141330 METAR LMML NIL=
200809141315 METAR LMML 141315Z 32006KT 240V030 9999 TS SCT020CB SCT025
                        BKN120 28/22 Q1009 TEMPO 7000 TSRA
                        BKN015CB=
200809141300 METAR LMML NIL=
200809141245 METAR LMML 141245Z 32006KT 270V360 9999 -SHRA SCT022 SCT040
                        BKN120 28/23 Q1009 TEMPO 9000 RA=
200809141230 METAR LMML NIL=
200809141215 METAR LMML 141215Z 19006KT 150V240 9999 SCT021 SCT040 BKN120
                        28/22 Q1009 NOSIG=
200809141200 METAR LMML NIL=
200809141145 METAR LMML 141145Z 10005KT 040V200 9999 SCT021 BKN120 30/23
                        Q1009 NOSIG=
200809141130 METAR LMML NIL=
200809141115 METAR LMML 141115Z 15006KT 090V210 9999 SCT025 SCT120 29/23
                        Q1009 NOSIG=
200809141100 METAR LMML NIL=
200809141045 METAR LMML 141045Z 16007KT 130V230 9999 BKN025 BKN120 28/21
                        Q1010 NOSIG=
200809141030 METAR LMML NIL=
200809141015 METAR LMML 141015Z 16010KT 120V190 9999 SCT020 29/22 Q1009
                        NOSIG=
200809141000 METAR LMML NIL=
200809140945 METAR LMML 140945Z 15008KT 100V180 9999 SCT021 30/22 Q1010
                        NOSIG=
200809140930 METAR LMML NIL=
200809140915 METAR LMML 140915Z 14006KT 090V190 9999 SCT021 SCT250 28/21
                        Q1010 NOSIG=
200809140900 METAR LMML NIL=
200809140845 METAR LMML 140845Z 13007KT 090V180 9999 SCT020 29/22 Q1010
                        NOSIG=
200809140830 METAR LMML NIL=
200809140815 METAR LMML 140815Z 15006KT 110V190 9999 SCT019 28/23 Q1010
                        NOSIG=
200809140800 METAR LMML NIL=
200809140745 METAR LMML 140745Z 14005KT 100V220 9999 SCT018 SCT120 27/23
                        Q1010 NOSIG=
200809140730 METAR LMML NIL=
200809140715 METAR LMML 140715Z 17004KT 130V230 9999 FEW017 SCT120 27/22
                        Q1010 NOSIG=
200809140700 LMML NIL=
200809140645 LMML 140645Z 16005KT 130V200 9999 FEW030 SCT120 27/22 Q1010
                        NOSIG=
200809140630 METAR LMML NIL=
200809140615 METAR LMML 140615Z VRB01KT 9000 FEW030 BKN250 26/23 Q1010
                        NOSIG=
200809140600 METAR LMML NIL=
200809140545 METAR LMML 140545Z VRB01KT 9000 FEW020 BKN250 26/23 Q1010
                        NOSIG=
200809140530 METAR LMML NIL=
200809140515 METAR LMML 140515Z VRB01KT 9000 SCT110 BKN250 25/22 Q1010
                        NOSIG=
200809140500 METAR LMML NIL=
200809140445 METAR LMML 140445Z VRB03KT CAVOK 25/22 Q1010 NOSIG=
200809140430 METAR LMML NIL=
200809140415 METAR LMML 140415Z 16004KT 140V210 CAVOK 25/23 Q1010 TEMPO
                        SHRA=
200809140400 METAR LMML NIL=
200809140345 METAR LMML 140345Z 17005KT 140V210 CAVOK 25/22 Q1010 TEMPO
                        SHRA=
200809140330 METAR LMML NIL=
200809140315 METAR LMML 140315Z 17004KT 150V210 CAVOK 25/22 Q1010 TEMPO
                        SHRA=
200809140300 METAR LMML NIL=
200809140245 METAR LMML 140245Z 18004KT 150V210 CAVOK 25/21 Q1010 NOSIG=
200809140230 METAR LMML NIL=
200809140215 METAR LMML 140215Z 19004KT CAVOK 25/22 Q1011 NOSIG=
200809140200 METAR LMML NIL=
200809140145 METAR LMML 140145Z 21004KT CAVOK 25/22 Q1011 NOSIG=
200809140130 METAR LMML NIL=
200809140115 METAR LMML 140115Z VRB03KT CAVOK 24/21 Q1011 NOSIG=
200809140100 METAR LMML NIL=
200809140045 METAR LMML 140045Z VRB02KT CAVOK 24/21 Q1010 NOSIG=
200809140030 METAR LMML NIL=
200809140015 METAR LMML 140015Z VRB03KT CAVOK 25/21 Q1010 NOSIG=
200809132345 METAR LMML 132345Z VRB03KT CAVOK 25/21 Q1011 NOSIG=
200809132330 METAR LMML NIL=
200809132315 METAR LMML 132315Z VRB03KT CAVOK 25/21 Q1011 NOSIG=
200809132245 METAR LMML 132245Z 27004KT 230V290 CAVOK 25/21 Q1012 NOSIG=
200809132215 METAR LMML 132215Z 26004KT 230V290 CAVOK 25/21 Q1012 NOSIG=
200809132200 METAR LMML NIL=
200809132145 METAR LMML 132145Z VRB01KT CAVOK 25/21 Q1012 NOSIG=
200809132130 METAR LMML NIL=
200809132115 METAR LMML 132115Z VRB03KT CAVOK 26/21 Q1012 NOSIG=
200809132100 METAR LMML NIL=
200809132045 METAR LMML 132045Z 30004KT 270V330 CAVOK 26/21 Q1012 NOSIG=
200809132030 METAR LMML NIL=
200809132015 METAR LMML 132015Z 28004KT CAVOK 26/21 Q1013 NOSIG=
200809132000 METAR LMML NIL=
200809131945 METAR LMML 131945Z VRB03KT CAVOK 26/23 Q1012 NOSIG=
200809131915 METAR LMML 131915Z VRB02KT CAVOK 26/23 Q1012 NOSIG=
200809131845 METAR LMML 131845Z VRB03KT CAVOK 26/23 Q1012 NOSIG=
200809131830 METAR LMML NIL=
200809131815 METAR LMML 131815Z VRB03KT CAVOK 26/23 Q1011 NOSIG=
200809131800 METAR LMML NIL=
200809131745 METAR LMML 131745Z 21004KT 190V250 CAVOK 27/23 Q1011 NOSIG=
200809131715 METAR LMML 131715Z 20004KT 160V240 CAVOK 27/23 Q1010 NOSIG=
200809131700 METAR LMML NIL=
200809131645 METAR LMML 131645Z 20004KT 170V230 CAVOK 27/22 Q1011 NOSIG=
200809131630 METAR LMML NIL=
200809131615 METAR LMML 131615Z 21005KT 180V250 CAVOK 28/21 Q1011 NOSIG=
200809131600 METAR LMML NIL=
200809131545 METAR LMML 131545Z 22004KT 180V270 CAVOK 30/22 Q1011 NOSIG=
200809131530 METAR LMML NIL=
200809131515 METAR LMML 131515Z VRB03KT 9999 FEW022 BKN250 30/21 Q1011
                        NOSIG=
200809131500 METAR LMML NIL=
200809131445 METAR LMML 131445Z 22005KT 180V270 9999 FEW022 BKN250 30/21
                        Q1011 NOSIG=
200809131430 METAR LMML NIL=
200809131415 METAR LMML 131415Z 23006KT 160V290 9999 FEW022 BKN250 30/21
                        Q1011 NOSIG=
200809131345 METAR LMML 131345Z 24007KT 200V300 9999 FEW022 BKN250 31/21
                        Q1011 NOSIG=
200809131330 METAR LMML NIL=
200809131315 METAR LMML 131315Z 24005KT 150V330 9999 FEW022 BKN250 31/23
                        Q1011 NOSIG=
200809131300 METAR LMML NIL=
200809131245 METAR LMML 131245Z 28008KT 230V320 9999 FEW020 BKN250 31/23
                        Q1012 NOSIG=
200809131230 METAR LMML NIL=
200809131215 METAR LMML 131215Z 28008KT 230V320 9999 FEW020 31/20 Q1012
                        NOSIG=
200809131200 METAR LMML NIL=
200809131145 METAR LMML 131145Z 27008KT 220V320 9999 FEW020 BKN250 31/20
                        Q1012 NOSIG=
200809131130 METAR LMML NIL=
200809131115 METAR LMML 131115Z 25008KT 210V300 9999 FEW020 BKN250 31/19
                        Q1012 NOSIG=
200809131100 METAR LMML NIL=
200809131045 METAR LMML 131045Z 25007KT 200V310 9999 FEW020 30/19 Q1012
                        NOSIG=
200809131030 METAR LMML NIL=
200809131015 METAR LMML 131015Z 25007KT 210V300 9999 FEW020 31/22 Q1012
                        NOSIG=
200809131000 METAR LMML NIL=
200809130945 METAR LMML 130945Z 26008KT 200V310 9999 FEW020 30/21 Q1013
                        NOSIG=
200809130930 METAR LMML NIL=
200809130915 METAR LMML 130915Z 25008KT 200V300 9999 FEW020 31/23 Q1013
                        NOSIG=
200809130900 METAR LMML NIL=
200809130845 METAR LMML 130845Z 26008KT 220V300 9999 FEW016 28/22 Q1013
                        NOSIG=
200809130830 METAR LMML NIL=
200809130815 METAR LMML 130815Z 24007KT 190V290 9000 SCT016 28/23 Q1013
                        NOSIG=
200809130800 METAR LMML NIL=
200809130745 METAR LMML 130745Z 21007KT 160V270 9000 FEW012 SCT250 28/23
                        Q1012 NOSIG=
200809130730 METAR LMML NIL=
200809130715 METAR LMML 130715Z 21007KT 160V250 9000 FEW012 BKN250 27/23
                        Q1012 NOSIG=
200809130700 METAR LMML NIL=
200809130645 METAR LMML 130645Z 20007KT 170V240 9000 FEW010 BKN250 26/23
                        Q1012 NOSIG=
200809130630 METAR LMML NIL=
200809130615 METAR LMML 130615Z 20005KT 160V240 9000 FEW010 SCT250 26/23
                        Q1011 NOSIG=
200809130600 METAR LMML NIL=
200809130545 METAR LMML 130545Z 20005KT 160V230 9000 FEW010 BKN250 26/23
                        Q1011 NOSIG=
200809130530 METAR LMML NIL=
200809130515 METAR LMML 130515Z VRB03KT 9000 FEW010 SCT250 25/23 Q1011
                        NOSIG=
200809130500 METAR LMML NIL=
200809130445 METAR LMML 130445Z 18004KT 9000 FEW010 SCT250 24/23 Q1011
                        NOSIG=
200809130430 METAR LMML NIL=
200809130415 METAR LMML 130415Z 18004KT 9999 FEW010 SCT250 24/23 Q1011
                        NOSIG=
200809130400 METAR LMML NIL=
200809130345 METAR LMML 130345Z VRB03KT 9999 FEW010 24/23 Q1011 NOSIG=
200809130330 METAR LMML NIL=
200809130315 METAR LMML 130315Z 20004KT 9999 FEW010 24/23 Q1011 NOSIG=
200809130300 METAR LMML NIL=
200809130245 METAR LMML 130245Z VRB02KT 9999 FEW010 24/22 Q1012 NOSIG=
200809130230 METAR LMML NIL=
200809130215 METAR LMML 130215Z VRB02KT 9999 FEW010 24/23 Q1012 NOSIG=
200809130200 METAR LMML NIL=
200809130145 METAR LMML 130145Z VRB03KT 9999 FEW010 24/23 Q1012 NOSIG=
200809130130 METAR LMML NIL=
200809130115 METAR LMML 130115Z VRB02KT 9999 FEW010 SCT250 24/23 Q1012
                        NOSIG=
200809130100 METAR LMML NIL=
200809130045 METAR LMML 130045Z 30005KT 9999 FEW010 24/23 Q1013 NOSIG=
200809130030 METAR LMML NIL=
200809130000 METAR LMML NIL=
200809122345 METAR LMML 122345Z VRB01KT CAVOK 24/23 Q1012 NOSIG=
200809122330 METAR LMML NIL=
200809122315 METAR LMML 122315Z VRB02KT CAVOK 25/23 Q1012 NOSIG=
200809122300 METAR LMML NIL=
200809122245 METAR LMML 122245Z VRB02KT CAVOK 25/23 Q1012 NOSIG=
200809122230 METAR LMML NIL=
200809122215 METAR LMML 122215Z VRB03KT CAVOK 25/23 Q1012 NOSIG=
200809122200 METAR LMML NIL=
200809122145 METAR LMML 122145Z 22004KT 180V270 CAVOK 26/23 Q1012 NOSIG=
200809122100 METAR LMML NIL=
200809122030 METAR LMML NIL=
200809122015 METAR LMML 122015Z VRB02KT CAVOK 26/25 Q1012 NOSIG=
200809122000 METAR LMML NIL=
200809121945 METAR LMML 121945Z VRB03KT CAVOK 26/26 Q1012 NOSIG=
200809121930 METAR LMML NIL=
200809121915 METAR LMML 121915Z VRB03KT CAVOK 26/25 Q1012 NOSIG=
200809121900 METAR LMML NIL=
200809121845 METAR LMML 121845Z 23004KT 190V270 CAVOK 26/25 Q1012 NOSIG=
200809121830 METAR LMML NIL=
200809121815 METAR LMML 121815Z 22004KT 170V270 CAVOK 26/25 Q1011 NOSIG=
200809121800 METAR LMML NIL=
200809121745 METAR LMML 121745Z 22004KT 170V270 CAVOK 26/24 Q1011 NOSIG=
200809121730 METAR LMML NIL=
200809121715 METAR LMML 121715Z 23006KT 210V270 CAVOK 26/23 Q1011 NOSIG=
200809121700 METAR LMML NIL=
200809121645 METAR LMML 121645Z 23004KT 200V280 CAVOK 27/21 Q1011 NOSIG=
200809121630 METAR LMML NIL=
200809121615 METAR LMML 121615Z 22006KT CAVOK 28/20 Q1011 NOSIG=
200809121600 METAR LMML NIL=
200809121545 METAR LMML 121545Z 24006KT 200V270 CAVOK 28/20 Q1011 NOSIG=
200809121530 METAR LMML NIL=
200809121515 METAR LMML 121515Z 22005KT 160V270 CAVOK 29/19 Q1011 NOSIG=
200809121500 METAR LMML NIL=
200809121445 METAR LMML 121445Z 24006KT 200V300 CAVOK 29/20 Q1011 NOSIG=
200809121430 METAR LMML NIL=
200809121415 METAR LMML 121415Z 23007KT 200V270 CAVOK 29/22 Q1011 NOSIG=
200809121400 METAR LMML NIL=
200809121345 METAR LMML 121345Z 23006KT 200V280 CAVOK 29/22 Q1011 NOSIG=
200809121330 METAR LMML NIL=
200809121315 METAR LMML 121315Z 23004KT 170V320 CAVOK 29/21 Q1012 NOSIG=
200809121300 METAR LMML NIL=
200809121245 METAR LMML 121245Z 25005KT 200V300 CAVOK 29/20 Q1012 NOSIG=
200809121230 METAR LMML NIL=
200809121215 METAR LMML 121215Z 23006KT 170V290 9999 FEW014 29/21 Q1012
                        NOSIG=
200809121200 METAR LMML NIL=
200809121145 METAR LMML 121145Z 24007KT 190V280 9999 FEW014 29/21 Q1012
                        NOSIG=
200809121130 METAR LMML NIL=
200809121115 METAR LMML 121115Z 23007KT 190V290 9999 FEW014 29/22 Q1012
                        NOSIG=
200809121100 METAR LMML NIL=
200809121045 METAR LMML 121045Z 22005KT 160V280 9999 FEW014 30/18 Q1012
                        NOSIG=
200809121030 METAR LMML NIL=
200809121015 METAR LMML 121015Z 23005KT 140V280 9999 FEW014 29/19 Q1012
                        NOSIG=
200809121000 METAR LMML NIL=
200809120945 METAR LMML 120945Z 24005KT 200V300 9999 FEW014 29/20 Q1013
                        NOSIG=
200809120930 METAR LMML NIL=
200809120915 METAR LMML 120915Z 13004KT 9999 FEW014 28/20 Q1013 NOSIG=
200809120900 METAR LMML NIL=
200809120845 METAR LMML 120845Z 23004KT 180V280 9999 FEW014 28/23 Q1013
                        NOSIG=
200809120830 METAR LMML NIL=
200809120815 METAR LMML 120815Z 21006KT 180V270 9999 FEW014 27/24 Q1013
                        NOSIG=
200809120800 METAR LMML NIL=
200809120745 METAR LMML 120745Z VRB02KT 9999 FEW012 27/25 Q1012 NOSIG=
200809120730 METAR LMML NIL=
200809120715 METAR LMML 120715Z VRB01KT 9999 FEW012 26/26 Q1012 NOSIG=
200809120700 METAR LMML NIL=
200809120645 METAR LMML 120645Z VRB02KT 9000 FEW012 25/25 Q1012 BECMG
                        9999=
200809120630 METAR LMML NIL=
200809120615 METAR LMML 120615Z VRB02KT 8000 FEW012 24/24 Q1012 BECMG
                        9999=
200809120600 METAR LMML NIL=
200809120545 METAR LMML 120545Z VRB01KT 8000 FEW012 23/23 Q1012 BECMG
                        9999=
200809120515 METAR LMML 120515Z VRB01KT 8000 BCFG FEW012 23/23 Q1012 BECMG
                        9999=
200809120445 METAR LMML 120445Z VRB01KT 8000 FEW012 23/23 Q1012 BECMG
                        9999=
200809120430 METAR LMML NIL=
200809120415 METAR LMML 120415Z VRB01KT CAVOK 23/23 Q1011 NOSIG=
200809120400 METAR LMML NIL=
200809120345 METAR LMML 120345Z VRB02KT CAVOK 23/23 Q1011 NOSIG=
200809120330 METAR LMML NIL=
200809120315 METAR LMML 120315Z VRB02KT CAVOK 24/24 Q1011 NOSIG=
200809120300 METAR LMML NIL=
200809120245 METAR LMML 120245Z VRB02KT CAVOK 24/24 Q1012 NOSIG=
200809120230 METAR LMML NIL=
200809120215 METAR LMML 120215Z VRB03KT CAVOK 24/23 Q1012 NOSIG=
200809120200 METAR LMML NIL=
200809120145 METAR LMML 120145Z 28004KT CAVOK 23/23 Q1012 NOSIG=
200809120130 METAR LMML NIL=
200809120115 METAR LMML 120115Z VRB02KT CAVOK 23/23 Q1012 NOSIG=
200809120100 METAR LMML NIL=
200809120045 METAR LMML 120045Z VRB02KT CAVOK 23/23 Q1012 NOSIG=
200809120030 METAR LMML NIL=
200809120015 METAR LMML 120015Z VRB03KT CAVOK 23/23 Q1012 NOSIG=
200809120000 METAR LMML NIL=
200809112345 METAR LMML 112345Z VRB01KT CAVOK 24/23 Q1013 NOSIG=
200809112330 METAR LMML NIL=
200809112315 METAR LMML 112315Z VRB01KT CAVOK 24/24 Q1013 NOSIG=
200809112300 METAR LMML NIL=
200809112245 METAR LMML 112245Z VRB03KT CAVOK 25/24 Q1013 NOSIG=
200809112230 METAR LMML NIL=
200809112215 METAR LMML 112215Z VRB02KT CAVOK 25/24 Q1013 NOSIG=
200809112200 METAR LMML NIL=
200809112145 METAR LMML 112145Z VRB03KT CAVOK 24/23 Q1013 NOSIG=
200809112130 METAR LMML NIL=
200809112115 METAR LMML 112115Z VRB03KT CAVOK 24/23 Q1013 NOSIG=
200809112100 METAR LMML NIL=
200809112045 METAR LMML 112045Z VRB02KT CAVOK 24/23 Q1014 NOSIG=
200809112030 METAR LMML NIL=
200809112015 METAR LMML 112015Z VRB03KT CAVOK 25/23 Q1014 NOSIG=
200809112000 METAR LMML NIL=
200809111945 METAR LMML 111945Z VRB02KT CAVOK 25/23 Q1014 NOSIG=
200809111930 METAR LMML NIL=
200809111915 METAR LMML 111915Z VRB03KT CAVOK 25/23 Q1014 NOSIG=
200809111900 METAR LMML NIL=
200809111845 METAR LMML 111845Z VRB03KT CAVOK 25/22 Q1013 NOSIG=
200809111830 METAR LMML NIL=
200809111815 METAR LMML 111815Z VRB03KT CAVOK 26/22 Q1013 NOSIG=
200809111800 METAR LMML NIL=
200809111745 METAR LMML 111745Z 23004KT 200V270 CAVOK 26/22 Q1013 NOSIG=
200809111730 METAR LMML NIL=
200809111715 METAR LMML 111715Z 23004KT 200V280 CAVOK 26/22 Q1013 NOSIG=
200809111700 METAR LMML NIL=
200809111645 METAR LMML 111645Z 22005KT 180V260 CAVOK 27/21 Q1013 NOSIG=
200809111630 METAR LMML NIL=
200809111615 METAR LMML 111615Z 22005KT 180V260 CAVOK 27/21 Q1013 NOSIG=
200809111600 METAR LMML NIL=
200809111545 METAR LMML 111545Z 22004KT 160V280 CAVOK 28/21 Q1013 NOSIG=
200809111530 METAR LMML NIL=
200809111515 METAR LMML 111515Z 20005KT 160V250 CAVOK 28/20 Q1013 NOSIG=
200809111500 METAR LMML NIL=
200809111445 METAR LMML 111445Z 21005KT 180V260 9999 FEW000 28/19 Q1013
                        NOSIG=
200809111430 METAR LMML NIL=
200809111415 METAR LMML 111415Z 18004KT 130V240 CAVOK 28/19 Q1013 NOSIG=
200809111400 METAR LMML NIL=
200809111345 METAR LMML 111345Z 19006KT 130V230 CAVOK 29/19 Q1013 NOSIG=
200809111330 METAR LMML NIL=
200809111315 METAR LMML 111315Z 17005KT 130V250 CAVOK 29/19 Q1014 NOSIG=
200809111300 METAR LMML NIL=
200809111245 METAR LMML 111245Z 27004KT CAVOK 29/18 Q1014 NOSIG=
200809111230 METAR LMML NIL=
200809111215 METAR LMML 111215Z 18005KT 130V250 CAVOK 29/18 Q1014 NOSIG=
200809111200 METAR LMML NIL=
200809111145 METAR LMML 111145Z 16005KT 090V220 9999 FEW030 29/18 Q1015
                        NOSIG=
200809111130 METAR LMML NIL=
200809111115 METAR LMML 111115Z 34006KT 9999 FEW030 30/19 Q1015 NOSIG=
200809111100 METAR LMML NIL=
200809111045 METAR LMML 111045Z 15005KT 9999 FEW030 30/19 Q1015 NOSIG=
200809111030 METAR LMML NIL=
200809111015 METAR LMML 111015Z 15005KT 090V220 9999 FEW030 29/19 Q1015
                        NOSIG=
200809111000 METAR LMML NIL=
200809110945 METAR LMML 110945Z 32004KT 9999 FEW030 30/19 Q1015 NOSIG=
200809110930 METAR LMML NIL=
200809110915 METAR LMML 110915Z 12004KT 010V190 CAVOK 29/19 Q1015 NOSIG=
200809110900 METAR LMML NIL=
200809110845 METAR LMML 110845Z VRB03KT CAVOK 29/20 Q1015 NOSIG=
200809110830 METAR LMML NIL=
200809110815 METAR LMML 110815Z VRB03KT CAVOK 29/19 Q1015 NOSIG=
200809110800 METAR LMML NIL=
200809110745 METAR LMML 110745Z VRB03KT CAVOK 28/20 Q1015 NOSIG=
200809110730 METAR LMML NIL=
200809110715 METAR LMML 110715Z VRB02KT CAVOK 27/20 Q1015 NOSIG=
200809110700 METAR LMML NIL=
200809110645 METAR LMML 110645Z VRB01KT CAVOK 26/23 Q1015 NOSIG=
200809110630 METAR LMML NIL=
200809110615 METAR LMML 110615Z VRB01KT CAVOK 25/24 Q1015 TEMPO 8000=
200809110600 METAR LMML NIL=
200809110545 METAR LMML 110545Z VRB02KT CAVOK 23/23 Q1014 NOSIG=
200809110530 METAR LMML NIL=
200809110515 METAR LMML 110515Z VRB02KT CAVOK 23/23 Q1014 TEMPO 7000=
200809110500 METAR LMML NIL=
200809110445 METAR LMML 110445Z VRB03KT CAVOK 23/23 Q1014 TEMPO 7000=
200809110430 METAR LMML NIL=
200809110415 METAR LMML 110415Z VRB02KT CAVOK 22/22 Q1014 TEMPO 7000=
200809110400 METAR LMML NIL=
200809110345 METAR LMML 110345Z VRB02KT CAVOK 23/23 Q1014 TEMPO 7000=
200809110330 METAR LMML NIL=
200809110315 METAR LMML 110315Z VRB02KT CAVOK 22/22 Q1014 TEMPO 7000=
200809110300 LMML NIL=
200809110245 LMML 110245Z VRB01KT CAVOK 23/23 Q1014 NOSIG=
200809110230 METAR LMML NIL=
200809110215 METAR LMML 110215Z VRB01KT CAVOK 23/23 Q1014 NOSIG=
200809110200 METAR LMML NIL=
200809110145 METAR LMML 110145Z 00000KT CAVOK 23/23 Q1014 NOSIG=
200809110130 METAR LMML NIL=
200809110115 METAR LMML 110115Z 00000KT CAVOK 23/23 Q1014 NOSIG=
200809110100 METAR LMML NIL=
200809110045 METAR LMML 110045Z VRB01KT CAVOK 23/23 Q1014 NOSIG=
200809110030 METAR LMML NIL=
200809110015 METAR LMML 110015Z VRB01KT CAVOK 23/23 Q1015 NOSIG=
200809110000 METAR LMML NIL=
200809102345 METAR LMML 102345Z VRB01KT CAVOK 23/23 Q1015 NOSIG=
200809102330 METAR LMML NIL=
200809102315 METAR LMML 102315Z 00000KT CAVOK 24/23 Q1015 NOSIG=
200809102300 METAR LMML NIL=
200809102245 METAR LMML 102245Z VRB02KT CAVOK 24/23 Q1015 NOSIG=
200809102230 METAR LMML NIL=
200809102215 METAR LMML 102215Z VRB03KT CAVOK 25/23 Q1015 NOSIG=
200809102200 METAR LMML NIL=
200809102145 METAR LMML 102145Z 00000KT CAVOK 25/22 Q1016 NOSIG=
200809102130 METAR LMML NIL=
200809102115 METAR LMML 102115Z VRB01KT CAVOK 25/23 Q1016 NOSIG=
200809102100 METAR LMML NIL=
200809102045 METAR LMML 102045Z VRB01KT CAVOK 25/22 Q1016 NOSIG=
200809102030 METAR LMML NIL=
200809102015 METAR LMML 102015Z VRB01KT CAVOK 25/22 Q1016 NOSIG=
200809102000 METAR LMML NIL=
200809101945 METAR LMML 101945Z VRB02KT CAVOK 25/22 Q1016 NOSIG=
200809101930 METAR LMML NIL=
200809101915 METAR LMML 101915Z VRB02KT CAVOK 26/22 Q1016 NOSIG=
200809101900 METAR LMML NIL=
200809101845 METAR LMML 101845Z VRB03KT CAVOK 26/22 Q1015 NOSIG=
200809101830 METAR LMML NIL=
200809101815 METAR LMML 101815Z VRB02KT CAVOK 26/22 Q1015 NOSIG=
200809101800 METAR LMML NIL=
200809101745 METAR LMML 101745Z 30004KT CAVOK 26/22 Q1015 NOSIG=
200809101730 METAR LMML NIL=
200809101715 METAR LMML 101715Z 14004KT CAVOK 27/21 Q1015 NOSIG=
200809101700 METAR LMML NIL=
200809101645 METAR LMML 101645Z VRB03KT CAVOK 27/21 Q1015 NOSIG=
200809101630 METAR LMML NIL=
200809101615 METAR LMML 101615Z VRB03KT CAVOK 27/22 Q1015 NOSIG=
200809101600 METAR LMML NIL=
200809101545 METAR LMML 101545Z VRB03KT CAVOK 28/21 Q1015 NOSIG=
200809101530 METAR LMML NIL=
200809101515 METAR LMML 101515Z VRB03KT CAVOK 29/20 Q1015 NOSIG=
200809101500 METAR LMML NIL=
200809101445 METAR LMML 101445Z 11005KT 060V170 CAVOK 29/20 Q1015 NOSIG=
200809101430 METAR LMML NIL=
200809101415 METAR LMML 101415Z 08007KT 050V140 CAVOK 30/19 Q1015 NOSIG=
200809101400 METAR LMML NIL=
200809101345 METAR LMML 101345Z 06005KT 250V130 CAVOK 30/18 Q1015 NOSIG=
200809101330 METAR LMML NIL=
200809101315 METAR LMML 101315Z 06005KT 330V110 CAVOK 31/18 Q1015 NOSIG=
200809101300 METAR LMML NIL=
200809101245 METAR LMML 101245Z 06006KT 360V120 CAVOK 31/18 Q1016 NOSIG=
200809101215 METAR LMML 101215Z 05006KT 360V110 CAVOK 30/19 Q1016 NOSIG=
200809101200 METAR LMML NIL=
200809101145 METAR LMML 101145Z 03006KT 340V080 CAVOK 31/19 Q1016 NOSIG=
200809101130 METAR LMML NIL=
200809101115 METAR LMML 101115Z 04006KT 330V100 9999 FEW020 SCT250 31/18
                        Q1016 NOSIG=
200809101100 METAR LMML NIL=
200809101045 METAR LMML 101045Z 06005KT 340V150 9999 FEW020 31/18 Q1016
                        NOSIG=
200809101030 METAR LMML NIL=
200809101015 METAR LMML 101015Z 06006KT 010V120 9999 FEW020 30/18 Q1017
                        NOSIG=
200809101000 METAR LMML NIL=
200809100945 METAR LMML 100945Z 21005KT 9999 FEW020 30/18 Q1017 NOSIG=
200809100930 METAR LMML NIL=
200809100915 METAR LMML 100915Z VRB03KT 9999 FEW020 30/20 Q1017 NOSIG=
200809100900 METAR LMML NIL=
200809100845 METAR LMML 100845Z 03005KT 320V170 9999 FEW020 30/18 Q1017
                        NOSIG=
200809100815 METAR LMML 100815Z VRB03KT 9999 FEW020 30/17 Q1017 NOSIG=
200809100800 METAR LMML NIL=
200809100745 METAR LMML 100745Z VRB02KT 9999 FEW015 28/18 Q1017 NOSIG=
200809100730 METAR LMML NIL=
200809100715 METAR LMML 100715Z VRB01KT CAVOK 28/21 Q1017 NOSIG=
200809100700 METAR LMML NIL=
200809100645 METAR LMML 100645Z VRB01KT CAVOK 26/25 Q1016 NOSIG=
200809100630 METAR LMML NIL=
200809100615 METAR LMML 100615Z VRB01KT CAVOK 26/26 Q1016 NOSIG=
200809100600 METAR LMML NIL=
200809100545 METAR LMML 100545Z VRB02KT CAVOK 25/25 Q1016 NOSIG=
200809100530 METAR LMML NIL=
200809100515 METAR LMML 100515Z VRB01KT 9999 FEW015 24/24 Q1016 NOSIG=
200809100500 METAR LMML NIL=
200809100445 METAR LMML 100445Z VRB02KT 9999 FEW015 25/25 Q1016 NOSIG=
200809100430 METAR LMML NIL=
200809100415 METAR LMML 100415Z VRB03KT CAVOK 25/24 Q1015 NOSIG=
200809100400 METAR LMML NIL=
200809100345 METAR LMML 100345Z VRB03G13KT CAVOK 25/24 Q1015 NOSIG=
200809100315 METAR LMML 100315Z 08004KT CAVOK 25/24 Q1015 NOSIG=
200809100300 METAR LMML NIL=
200809100245 METAR LMML 100245Z 08004KT CAVOK 26/24 Q1015 NOSIG=
200809100230 METAR LMML NIL=
200809100215 METAR LMML 100215Z 07004KT CAVOK 26/24 Q1015 NOSIG=
200809100200 METAR LMML NIL=
200809100145 METAR LMML 100145Z VRB03KT CAVOK 26/24 Q1016 NOSIG=
200809100130 METAR LMML NIL=
200809100115 METAR LMML 100115Z VRB03KT CAVOK 26/25 Q1016 NOSIG=
200809100100 METAR LMML NIL=
200809100045 METAR LMML 100045Z 08004KT 050V110 CAVOK 26/26 Q1016 NOSIG=
200809100030 METAR LMML NIL=
200809100015 METAR LMML 100015Z 07004KT 9999 FEW010 26/26 Q1016 NOSIG=
200809100000 METAR LMML NIL=
200809092345 METAR LMML 092345Z 08004KT 9999 FEW010 26/26 Q1016 NOSIG=
200809092330 METAR LMML NIL=
200809092315 METAR LMML 092315Z VRB03KT 9999 SCT010 26/26 Q1016 NOSIG=
200809092245 METAR LMML 092245Z VRB03KT 9999 FEW010 26/26 Q1016 NOSIG=
200809092230 METAR LMML NIL=
200809092215 METAR LMML 092215Z VRB03KT 9999 FEW012 26/26 Q1016 NOSIG=
200809092200 METAR LMML NIL=
200809092145 METAR LMML 092145Z VRB03KT 9999 FEW012 27/24 Q1016 NOSIG=
200809092130 METAR LMML NIL=
200809092115 METAR LMML 092115Z VRB03KT CAVOK 27/23 Q1016 NOSIG=
200809092100 METAR LMML NIL=
200809092045 METAR LMML 092045Z VRB03KT CAVOK 26/22 Q1016 NOSIG=
200809092030 METAR LMML NIL=
200809092015 METAR LMML 092015Z VRB01KT CAVOK 27/21 Q1016 NOSIG=
200809092000 METAR LMML NIL=
200809091945 METAR LMML 091945Z VRB02KT CAVOK 27/21 Q1016 NOSIG=
200809091930 METAR LMML NIL=
200809091915 METAR LMML 091915Z 34005KT CAVOK 27/20 Q1016 NOSIG=
200809091900 METAR LMML NIL=
200809091845 METAR LMML 091845Z VRB03KT CAVOK 27/20 Q1016 NOSIG=
200809091830 METAR LMML NIL=
200809091815 METAR LMML 091815Z VRB03KT CAVOK 28/21 Q1015 NOSIG=
200809091745 METAR LMML 091745Z 33004KT 300V020 CAVOK 28/20 Q1015 NOSIG=
200809091730 METAR LMML NIL=
200809091715 METAR LMML 091715Z 33006KT 310V010 CAVOK 28/20 Q1015 NOSIG=
200809091700 METAR LMML NIL=
200809091645 METAR LMML 091645Z 34006KT CAVOK 29/20 Q1015 NOSIG=
200809091630 METAR LMML NIL=
200809091615 METAR LMML 091615Z 36005KT 310V040 CAVOK 30/21 Q1015 NOSIG=
200809091600 METAR LMML NIL=
200809091545 METAR LMML 091545Z VRB03KT CAVOK 31/22 Q1015 NOSIG=
200809091530 METAR LMML NIL=
200809091515 METAR LMML 091515Z 08004KT 320V190 CAVOK 31/21 Q1015 NOSIG=
200809091500 METAR LMML NIL=
200809091445 METAR LMML 091445Z VRB03KT CAVOK 32/22 Q1015 NOSIG=
200809091430 METAR LMML NIL=
200809091415 METAR LMML 091415Z 02004KT 330V060 CAVOK 33/19 Q1015 NOSIG=
200809091400 METAR LMML NIL=
200809091345 METAR LMML 091345Z VRB03KT CAVOK 33/20 Q1015 NOSIG=
200809091330 METAR LMML NIL=
200809091315 METAR LMML 091315Z 34005KT 280V080 CAVOK 33/20 Q1016 NOSIG=
200809091300 METAR LMML NIL=
200809091245 METAR LMML 091245Z 36004KT 300V090 CAVOK 34/22 Q1016 NOSIG=
200809091230 METAR LMML NIL=
200809091215 METAR LMML 091215Z 06004KT 340V160 CAVOK 33/21 Q1016 NOSIG=
200809091200 METAR LMML NIL=
200809091145 METAR LMML 091145Z 33006KT 260V020 CAVOK 33/20 Q1016 NOSIG=
200809091130 METAR LMML NIL=
200809091115 METAR LMML 091115Z 05005KT 350V110 CAVOK 33/20 Q1016 NOSIG=
200809091100 METAR LMML NIL=
200809091045 METAR LMML 091045Z 36004KT 280V080 CAVOK 33/19 Q1016 NOSIG=
200809091030 METAR LMML NIL=
200809091015 METAR LMML 091015Z 33007KT 290V020 CAVOK 33/16 Q1017 NOSIG=
200809091000 METAR LMML NIL=
200809090945 METAR LMML 090945Z 36005KT 320V060 CAVOK 32/21 Q1017 NOSIG=
200809090930 METAR LMML NIL=
200809090915 METAR LMML 090915Z 35006KT 310V020 CAVOK 31/21 Q1017 NOSIG=
200809090900 METAR LMML NIL=
200809090845 METAR LMML 090845Z 36009KT CAVOK 31/20 Q1017 NOSIG=
200809090830 METAR LMML NIL=
200809090815 METAR LMML 090815Z 35008KT 320V030 CAVOK 32/17 Q1017 NOSIG=
200809090800 METAR LMML NIL=
200809090745 METAR LMML 090745Z 35006KT 310V020 CAVOK 31/18 Q1017 NOSIG=
200809090730 METAR LMML NIL=
200809090715 METAR LMML 090715Z 33008KT CAVOK 30/20 Q1016 NOSIG=
200809090700 METAR LMML NIL=
200809090645 METAR LMML 090645Z 32006KT CAVOK 30/19 Q1016 NOSIG=
200809090630 METAR LMML NIL=
200809090615 METAR LMML 090615Z 32004KT 240V360 CAVOK 29/19 Q1015 NOSIG=
200809090600 METAR LMML NIL=
200809090545 METAR LMML 090545Z 32005KT CAVOK 28/19 Q1015 NOSIG=
200809090530 METAR LMML NIL=
200809090515 METAR LMML 090515Z 32008KT 280V340 CAVOK 27/18 Q1015 NOSIG=
200809090500 METAR LMML NIL=
200809090445 METAR LMML 090445Z 31005KT 280V350 CAVOK 27/19 Q1015 NOSIG=
200809090430 METAR LMML NIL=
200809090415 METAR LMML 090415Z 31006KT CAVOK 27/19 Q1015 NOSIG=
200809090400 METAR LMML NIL=
200809090345 METAR LMML 090345Z 31006KT CAVOK 27/19 Q1015 NOSIG=
200809090330 METAR LMML NIL=
200809090315 METAR LMML 090315Z VRB02KT CAVOK 27/19 Q1015 NOSIG=
200809090300 METAR LMML NIL=
200809090245 METAR LMML 090245Z 30004KT 270V330 CAVOK 27/19 Q1015 NOSIG=
200809090230 METAR LMML NIL=
200809090215 METAR LMML 090215Z 28005KT 240V340 CAVOK 27/20 Q1015 NOSIG=
200809090200 METAR LMML NIL=
200809090145 METAR LMML 090145Z VRB03KT CAVOK 27/21 Q1015 NOSIG=
200809090130 METAR LMML NIL=
200809090115 METAR LMML 090115Z 29007KT CAVOK 27/20 Q1015 NOSIG=
200809090100 METAR LMML NIL=
200809090045 METAR LMML 090045Z 29005KT 240V310 CAVOK 27/19 Q1015 NOSIG=
200809090030 METAR LMML NIL=
200809090015 METAR LMML 090015Z VRB02KT CAVOK 27/15 Q1015 NOSIG=
200809090000 METAR LMML NIL=
200809082345 METAR LMML 082345Z 29007KT CAVOK 28/11 Q1016 NOSIG=
200809082330 METAR LMML NIL=
200809082315 METAR LMML 082315Z VRB03KT CAVOK 27/09 Q1016 NOSIG=
200809082245 METAR LMML 082245Z VRB03KT CAVOK 28/10 Q1016 NOSIG=
200809082230 METAR LMML NIL=
200809082215 METAR LMML 082215Z 28004KT 260V320 CAVOK 28/10 Q1016 NOSIG=
200809082145 METAR LMML 082145Z 29005KT CAVOK 28/11 Q1016 NOSIG=
200809082130 METAR LMML NIL=
200809082115 METAR LMML 082115Z 28006KT CAVOK 28/12 Q1016 NOSIG=
200809082100 METAR LMML NIL=
200809082045 METAR LMML 082045Z VRB03KT CAVOK 28/13 Q1016 NOSIG=
200809082030 METAR LMML NIL=
200809082015 METAR LMML 082015Z VRB03KT CAVOK 28/13 Q1016 NOSIG=
200809082000 METAR LMML NIL=
200809081945 METAR LMML 081945Z 29005KT CAVOK 28/14 Q1016 NOSIG=
200809081930 METAR LMML NIL=
200809081915 METAR LMML 081915Z VRB02KT CAVOK 28/15 Q1016 NOSIG=
200809081845 METAR LMML 081845Z 30004KT CAVOK 28/15 Q1015 NOSIG=
200809081815 METAR LMML 081815Z 30004KT 260V330 CAVOK 28/14 Q1015 NOSIG=
200809081800 METAR LMML NIL=
200809081745 METAR LMML 081745Z VRB03KT CAVOK 29/13 Q1015 NOSIG=
200809081730 METAR LMML NIL=
200809081715 METAR LMML 081715Z 29004KT CAVOK 30/14 Q1015 NOSIG=
200809081700 METAR LMML NIL=
200809081645 METAR LMML 081645Z 28004KT 250V310 CAVOK 31/15 Q1015 NOSIG=
200809081630 METAR LMML NIL=
200809081615 METAR LMML 081615Z 30006KT CAVOK 32/14 Q1015 NOSIG=
200809081600 METAR LMML NIL=
200809081545 METAR LMML 081545Z 30007KT 270V330 CAVOK 32/14 Q1015 NOSIG=
200809081530 METAR LMML NIL=
200809081515 METAR LMML 081515Z 30008KT CAVOK 33/13 Q1015 NOSIG=
200809081500 METAR LMML NIL=
200809081445 METAR LMML 081445Z 30009KT 270V330 CAVOK 34/10 Q1015 NOSIG=
200809081430 METAR LMML NIL=
200809081415 METAR LMML 081415Z 30008KT 260V340 CAVOK 34/13 Q1015 NOSIG=
200809081400 METAR LMML NIL=
200809081345 METAR LMML 081345Z 31010KT 280V340 CAVOK 35/12 Q1015 NOSIG=
200809081330 METAR LMML NIL=
200809081315 METAR LMML 081315Z 31009KT 280V340 CAVOK 36/09 Q1015 NOSIG=
200809081300 METAR LMML NIL=
200809081245 METAR LMML 081245Z 30009KT 270V350 CAVOK 35/09 Q1015 NOSIG=
200809081230 METAR LMML NIL=
200809081215 METAR LMML 081215Z 33008KT 300V010 CAVOK 35/12 Q1015 NOSIG=
200809081200 METAR LMML NIL=
200809081145 METAR LMML 081145Z 32006KT 280V020 CAVOK 35/11 Q1015 NOSIG=
200809081130 METAR LMML NIL=
200809081115 METAR LMML 081115Z 31007KT 280V360 CAVOK 35/12 Q1015 NOSIG=
200809081100 METAR LMML NIL=
200809081045 METAR LMML 081045Z 35007KT CAVOK 35/11 Q1015 NOSIG=
200809081030 METAR LMML NIL=
200809081015 METAR LMML 081015Z 33007KT 290V020 CAVOK 35/11 Q1016 NOSIG=
200809081000 METAR LMML NIL=
200809080945 METAR LMML 080945Z 35008KT CAVOK 35/11 Q1016 NOSIG=
200809080930 METAR LMML NIL=
200809080915 METAR LMML 080915Z 32006KT 290V010 CAVOK 34/13 Q1016 NOSIG=
200809080900 METAR LMML NIL=
200809080845 METAR LMML 080845Z 32005KT 280V010 CAVOK 33/12 Q1016 NOSIG=
200809080830 METAR LMML NIL=
200809080815 METAR LMML 080815Z 31007KT CAVOK 33/11 Q1015 NOSIG=
200809080800 METAR LMML NIL=
200809080745 METAR LMML 080745Z 32006KT 290V350 CAVOK 33/11 Q1015 NOSIG=
200809080730 METAR LMML NIL=
200809080715 METAR LMML 080715Z 31005KT CAVOK 32/11 Q1015 NOSIG=
200809080700 METAR LMML NIL=
200809080645 METAR LMML 080645Z 31004KT 270V340 CAVOK 31/11 Q1015 NOSIG=
200809080630 METAR LMML NIL=
200809080615 METAR LMML 080615Z VRB03KT CAVOK 29/11 Q1014 NOSIG=
200809080600 METAR LMML NIL=
200809080545 METAR LMML 080545Z 31004KT CAVOK 28/11 Q1014 NOSIG=
200809080530 METAR LMML NIL=
200809080515 METAR LMML 080515Z 32004KT CAVOK 27/11 Q1014 NOSIG=
200809080500 METAR LMML NIL=
200809080445 METAR LMML 080445Z 30004KT CAVOK 27/11 Q1014 NOSIG=
200809080430 METAR LMML NIL=
200809080415 METAR LMML 080415Z 30004KT CAVOK 26/12 Q1014 NOSIG=
200809080400 METAR LMML NIL=
200809080345 METAR LMML 080345Z 31004KT CAVOK 26/14 Q1014 NOSIG=
200809080330 METAR LMML NIL=
200809080315 METAR LMML 080315Z 31006KT CAVOK 26/15 Q1013 NOSIG=
200809080300 METAR LMML NIL=
200809080245 METAR LMML 080245Z 31007KT CAVOK 26/14 Q1014 NOSIG=
200809080230 METAR LMML NIL=
200809080215 METAR LMML 080215Z 32005KT CAVOK 25/14 Q1014 NOSIG=
200809080200 METAR LMML NIL=
200809080145 METAR LMML 080145Z 31006KT CAVOK 26/14 Q1014 NOSIG=
200809080130 METAR LMML NIL=
200809080115 METAR LMML 080115Z 32005KT CAVOK 26/15 Q1014 NOSIG=
200809080100 METAR LMML NIL=
200809080045 METAR LMML 080045Z 32004KT CAVOK 26/15 Q1014 NOSIG=
200809080030 METAR LMML NIL=
200809080015 METAR LMML 080015Z 32005KT CAVOK 26/15 Q1014 NOSIG=
200809080000 METAR LMML NIL=
200809072345 METAR LMML 072345Z 31005KT CAVOK 26/16 Q1014 NOSIG=
200809072330 METAR LMML NIL=
200809072315 METAR LMML 072315Z 32005KT CAVOK 26/16 Q1014 NOSIG=
200809072300 METAR LMML NIL=
200809072245 METAR LMML 072245Z 32004KT CAVOK 26/16 Q1014 NOSIG=
200809072230 METAR LMML NIL=
200809072215 METAR LMML 072215Z 32004KT CAVOK 27/15 Q1014 NOSIG=
200809072200 METAR LMML NIL=
200809072145 METAR LMML 072145Z 28004KT CAVOK 26/16 Q1014 NOSIG=
200809072130 METAR LMML NIL=
200809072115 METAR LMML 072115Z 31004KT CAVOK 26/17 Q1015 NOSIG=
200809072100 METAR LMML NIL=
200809072045 METAR LMML 072045Z 31005KT CAVOK 27/16 Q1014 NOSIG=
200809072030 METAR LMML NIL=
200809072015 METAR LMML 072015Z VRB02KT CAVOK 27/13 Q1015 NOSIG=
200809072000 METAR LMML NIL=
200809071945 METAR LMML 071945Z VRB03KT CAVOK 27/13 Q1015 NOSIG=
200809071930 METAR LMML NIL=
200809071915 METAR LMML 071915Z VRB03KT CAVOK 28/13 Q1014 NOSIG=
200809071900 METAR LMML NIL=
200809071845 METAR LMML 071845Z VRB02KT CAVOK 28/14 Q1014 NOSIG=
200809071830 METAR LMML NIL=
200809071815 METAR LMML 071815Z VRB02KT CAVOK 29/15 Q1014 NOSIG=
200809071800 METAR LMML NIL=
200809071745 METAR LMML 071745Z VRB01KT CAVOK 29/15 Q1014 NOSIG RMK SMOKE
                        TO SW=
200809071730 METAR LMML NIL=
200809071715 METAR LMML 071715Z VRB03KT CAVOK 30/14 Q1013 NOSIG=
200809071700 METAR LMML NIL=
200809071645 METAR LMML 071645Z 30004KT CAVOK 31/15 Q1013 NOSIG=
200809071630 METAR LMML NIL=
200809071615 METAR LMML 071615Z 29004KT 250V320 CAVOK 31/15 Q1013 NOSIG=
200809071600 METAR LMML NIL=
200809071545 METAR LMML 071545Z 28004KT 200V330 CAVOK 31/17 Q1013 NOSIG=
200809071530 METAR LMML NIL=
200809071515 METAR LMML 071515Z 28006KT 230V320 CAVOK 32/18 Q1013 NOSIG=
200809071500 METAR LMML NIL=
200809071445 METAR LMML 071445Z 29007KT 220V320 CAVOK 32/19 Q1013 NOSIG=
200809071430 METAR LMML NIL=
200809071415 METAR LMML 071415Z 23005KT 200V270 CAVOK 33/16 Q1013 NOSIG=
200809071400 METAR LMML NIL=
200809071345 METAR LMML 071345Z 03004KT 290V100 CAVOK 34/15 Q1013 NOSIG=
200809071330 METAR LMML NIL=
200809071315 METAR LMML 071315Z VRB02KT CAVOK 34/17 Q1014 NOSIG=
200809071300 METAR LMML NIL=
200809071245 METAR LMML 071245Z 21004KT 130V270 CAVOK 33/17 Q1014 NOSIG=
200809071230 METAR LMML NIL=
200809071215 METAR LMML 071215Z 20004KT 150V290 CAVOK 32/20 Q1014 NOSIG=
200809071200 METAR LMML NIL=
200809071145 METAR LMML 071145Z 21005KT 150V260 CAVOK 32/21 Q1014 NOSIG=
200809071130 METAR LMML NIL=
200809071115 METAR LMML 071115Z 22005KT 180V300 CAVOK 32/21 Q1014 NOSIG=
200809071100 METAR LMML NIL=
200809071045 METAR LMML 071045Z 23004KT 160V330 CAVOK 31/22 Q1014 NOSIG=
200809071030 METAR LMML NIL=
200809071015 METAR LMML 071015Z 06004KT 360V150 CAVOK 33/16 Q1015 NOSIG=
200809071000 METAR LMML NIL=
200809070945 METAR LMML 070945Z 03004KT 290V110 CAVOK 33/14 Q1015 NOSIG=
200809070930 METAR LMML NIL=
200809070915 METAR LMML 070915Z 04006KT 350V090 CAVOK 33/13 Q1015 NOSIG=
200809070900 METAR LMML NIL=
200809070845 METAR LMML 070845Z 34005KT 290V020 CAVOK 31/17 Q1015 NOSIG=
200809070830 METAR LMML NIL=
200809070815 METAR LMML 070815Z 35005KT 330V120 CAVOK 32/14 Q1015 NOSIG=
200809070800 METAR LMML NIL=
200809070745 METAR LMML 070745Z 32005KT 260V010 CAVOK 31/13 Q1014 NOSIG=
200809070730 METAR LMML NIL=
200809070715 METAR LMML 070715Z VRB03KT CAVOK 31/12 Q1014 NOSIG=
200809070700 METAR LMML NIL=
200809070645 METAR LMML 070645Z VRB02KT CAVOK 30/13 Q1014 NOSIG=
200809070630 METAR LMML NIL=
200809070615 METAR LMML 070615Z VRB01KT CAVOK 28/15 Q1013 NOSIG=
200809070600 METAR LMML NIL=
200809070545 METAR LMML 070545Z VRB02KT CAVOK 26/17 Q1013 NOSIG=
200809070530 METAR LMML NIL=
200809070515 METAR LMML 070515Z 25004KT CAVOK 24/18 Q1013 NOSIG=
200809070500 METAR LMML NIL=
200809070445 METAR LMML 070445Z VRB03KT CAVOK 24/18 Q1013 NOSIG=
200809070430 METAR LMML NIL=
200809070415 METAR LMML 070415Z VRB02KT CAVOK 25/16 Q1013 NOSIG=
200809070400 METAR LMML NIL=
200809070345 METAR LMML 070345Z VRB01KT CAVOK 24/18 Q1013 NOSIG=
200809070330 METAR LMML NIL=
200809070315 METAR LMML 070315Z VRB01KT CAVOK 24/20 Q1013 NOSIG=
200809070300 METAR LMML NIL=
200809070245 METAR LMML 070245Z VRB01KT CAVOK 25/20 Q1013 NOSIG=
200809070230 METAR LMML NIL=
200809070215 METAR LMML 070215Z VRB03KT CAVOK 25/20 Q1014 NOSIG=
200809070200 METAR LMML NIL=
200809070145 METAR LMML 070145Z VRB03KT CAVOK 25/21 Q1014 NOSIG=
200809070130 METAR LMML NIL=
200809070115 METAR LMML 070115Z 32005KT CAVOK 25/21 Q1014 NOSIG=
200809070100 METAR LMML NIL=
200809070045 METAR LMML 070045Z VRB01KT CAVOK 25/20 Q1014 NOSIG=
200809070015 METAR LMML 070015Z 28004KT 240V310 CAVOK 26/20 Q1014 NOSIG=
200809070000 METAR LMML NIL=
200809062345 METAR LMML 062345Z 29004KT CAVOK 25/18 Q1015 NOSIG=
200809062330 METAR LMML NIL=
200809062315 METAR LMML 062315Z VRB01KT CAVOK 25/20 Q1015 NOSIG=
200809062245 METAR LMML 062245Z VRB02KT CAVOK 25/22 Q1015 NOSIG=
200809062230 METAR LMML NIL=
200809062215 METAR LMML 062215Z VRB03KT CAVOK 25/21 Q1015 NOSIG=
200809062200 METAR LMML NIL=
200809062145 METAR LMML 062145Z VRB02KT CAVOK 25/21 Q1015 NOSIG=
200809062130 METAR LMML NIL=
200809062115 METAR LMML 062115Z VRB02KT CAVOK 25/21 Q1015 NOSIG=
200809062100 METAR LMML NIL=
200809062045 METAR LMML 062045Z VRB01KT CAVOK 26/24 Q1015 NOSIG=
200809062015 METAR LMML 062015Z VRB03KT CAVOK 27/24 Q1015 NOSIG=
200809062000 METAR LMML NIL=
200809061945 METAR LMML 061945Z VRB01KT CAVOK 26/25 Q1015 NOSIG=
200809061915 METAR LMML 061915Z 00000KT CAVOK 26/25 Q1015 NOSIG=
200809061900 METAR LMML NIL=
200809061845 METAR LMML 061845Z VRB01KT CAVOK 27/25 Q1015 NOSIG=
200809061830 METAR LMML NIL=
200809061815 METAR LMML 061815Z VRB02KT CAVOK 27/24 Q1015 NOSIG=
200809061800 METAR LMML NIL=
200809061745 METAR LMML 061745Z VRB02KT CAVOK 28/22 Q1014 NOSIG=
200809061730 METAR LMML NIL=
200809061715 METAR LMML 061715Z VRB03KT CAVOK 28/19 Q1014 NOSIG=
200809061700 METAR LMML NIL=
200809061645 METAR LMML 061645Z VRB03KT CAVOK 29/19 Q1015 NOSIG=
200809061630 METAR LMML NIL=
200809061615 METAR LMML 061615Z 22006KT 190V270 CAVOK 29/18 Q1015 NOSIG=
200809061600 METAR LMML NIL=
200809061545 METAR LMML 061545Z 22005KT 190V260 CAVOK 30/20 Q1015 NOSIG=
200809061530 METAR LMML NIL=
200809061515 METAR LMML 061515Z 22006KT 170V260 CAVOK 30/20 Q1015 NOSIG=
200809061500 METAR LMML NIL=
200809061445 METAR LMML 061445Z 21006KT 170V260 CAVOK 30/21 Q1015 NOSIG=
200809061430 METAR LMML NIL=
200809061415 METAR LMML 061415Z 19006KT 170V240 CAVOK 30/22 Q1015 NOSIG=
200809061400 METAR LMML NIL=
200809061345 METAR LMML 061345Z 20006KT 170V250 CAVOK 30/23 Q1015 NOSIG=
200809061330 METAR LMML NIL=
200809061315 METAR LMML 061315Z 22005KT 180V280 CAVOK 30/23 Q1015 NOSIG=
200809061300 METAR LMML NIL=
200809061245 METAR LMML 061245Z 20006KT 170V250 CAVOK 30/24 Q1016 NOSIG=
200809061230 METAR LMML NIL=
200809061215 METAR LMML 061215Z VRB03KT CAVOK 31/24 Q1016 NOSIG=
200809061200 METAR LMML NIL=
200809061145 METAR LMML 061145Z VRB02KT CAVOK 31/24 Q1016 NOSIG=
200809061130 METAR LMML NIL=
200809061115 METAR LMML 061115Z 20006KT 160V250 CAVOK 30/23 Q1017 NOSIG=
200809061100 METAR LMML NIL=
200809061045 METAR LMML 061045Z VRB03KT CAVOK 31/23 Q1017 NOSIG=
200809061030 METAR LMML NIL=
200809061015 METAR LMML 061015Z 03004KT 350V070 CAVOK 32/23 Q1017 NOSIG=
200809061000 METAR LMML NIL=
200809060945 METAR LMML 060945Z VRB03KT CAVOK 30/20 Q1017 NOSIG=
200809060930 METAR LMML NIL=
200809060915 METAR LMML 060915Z 23004KT 180V280 CAVOK 30/20 Q1017 NOSIG=
200809060900 METAR LMML NIL=
200809060845 METAR LMML 060845Z VRB03KT CAVOK 30/17 Q1017 NOSIG=
200809060830 METAR LMML NIL=
200809060815 METAR LMML 060815Z VRB02KT CAVOK 29/23 Q1017 NOSIG=
200809060745 METAR LMML 060745Z VRB02KT CAVOK 27/26 Q1017 NO SIG=
200809060730 METAR LMML NIL=
200809060715 METAR LMML 060715Z VRB03KT 6000 FEW005 25/25 Q1016 BECMG
                        9999=
200809060700 METAR LMML NIL=
200809060645 METAR LMML 060645Z VRB03KT 4000 BR SCT001 25/25 Q1016 BECMG
                        8000=
200809060630 METAR LMML NIL=
200809060615 METAR LMML 060615Z VRB02KT 0500 R14/0656V0932N FG SCT001
                        25/25 Q1016 BECMG 3000 BR=
200809060600 METAR LMML NIL=
200809060545 METAR LMML 060545Z 00000KT 0200 R14/0177V0358N FG SCT001
                        24/24 Q1016 BECMG 3000 BR=
200809060530 METAR LMML NIL=
200809060515 METAR LMML 060515Z VRB02KT 0200 R14/0150N FG SCT001 23/23
                        Q1016 BECMG 3000 BR=
200809060500 METAR LMML NIL=
200809060445 METAR LMML 060445Z VRB01KT 0200 R14/0300N FG SCT001 23/23
                        Q1016 BECMG 3000 BR=
200809060430 METAR LMML NIL=
200809060415 METAR LMML 060415Z VRB02KT 0200 R14/P1500N FG SCT001 23/23
                        Q1015 BECMG 3000=
200809060400 METAR LMML NIL=
200809060345 METAR LMML 060345Z VRB01KT 2000 BR SCT001 23/23 Q1016 NOSIG=
200809060330 METAR LMML NIL=
200809060315 METAR LMML 060315Z VRB02KT 0200 R14/1376VP1500U FG SCT001
                        24/24 Q1015 NOSIG=
200809060300 METAR LMML NIL=
200809060245 METAR LMML 060245Z VRB01KT 0200 R14/P1500N FG SCT001 24/24
                        Q1016 NOSIG=
200809060230 METAR LMML NIL=
200809060215 METAR LMML 060215Z VRB02KT 0700 R14/P1500N BCFG SCT001 24/24
                        Q1016 NOSIG=
200809060200 METAR LMML NIL=
200809060145 METAR LMML 060145Z 00000KT 5000 BR FEW001 23/23 Q1016 NOSIG=
200809060130 METAR LMML NIL=
200809060115 METAR LMML 060115Z 00000KT 5000 FEW007 24/24 Q1016 NOSIG=
200809060100 METAR LMML NIL=
200809060045 METAR LMML 060045Z 00000KT 6000 FEW007 24/24 Q1016 TEMPO
                        5000 BKN005=
200809060030 METAR LMML NIL=
200809060015 METAR LMML 060015Z VRB01KT 6000 FEW007 24/24 Q1016 TEMPO
                        5000 BKN005=
200809060000 METAR LMML NIL=
200809052345 METAR LMML 052345Z VRB01KT 6000 FEW007 24/24 Q1016 TEMPO
                        5000 BKN005=
200809052330 METAR LMML NIL=
200809052315 METAR LMML 052315Z VRB01KT 7000 FEW007 25/25 Q1017 TEMPO
                        5000 BKN005=
200809052300 METAR LMML NIL=
200809052245 METAR LMML 052245Z 00000KT 7000 FEW007 25/25 Q1017 TEMPO
                        5000 BKN005=
200809052230 METAR LMML NIL=
200809052215 METAR LMML 052215Z VRB01KT 9000 FEW007 25/25 Q1017 TEMPO
                        7000 BKN005=
200809052200 METAR LMML NIL=
200809052145 METAR LMML 052145Z 33004KT 300V010 9000 FEW007 25/25 Q1017
                        TEMPO 7000 BKN005=
200809052130 METAR LMML NIL=
200809052115 METAR LMML 052115Z VRB01KT 9000 FEW006 25/25 Q1017 TEMPO
                        8000=
200809052100 METAR LMML NIL=
200809052045 METAR LMML 052045Z VRB03KT 9000 FEW006 26/26 Q1017 TEMPO
                        8000=
200809052030 METAR LMML NIL=
200809052015 METAR LMML 052015Z 14004KT 9000 FEW006 26/26 Q1016 TEMPO
                        8000=
200809052000 METAR LMML NIL=
200809051945 METAR LMML 051945Z 14004KT 9000 FEW006 26/26 Q1016 TEMPO
                        8000=
200809051930 METAR LMML NIL=
200809051915 METAR LMML 051915Z 13004KT 9000 FEW006 26/26 Q1016 TEMPO
                        8000=
200809051900 METAR LMML NIL=
200809051845 METAR LMML 051845Z 14005KT 9000 FEW006 26/26 Q1016 TEMPO
                        8000=
200809051830 METAR LMML NIL=
200809051815 METAR LMML 051815Z 12004KT 9000 FEW006 26/26 Q1016 TEMPO
                        8000=
200809051800 METAR LMML NIL=
200809051730 METAR LMML NIL=
200809051715 METAR LMML 051715Z 14006KT CAVOK 27/26 Q1015 NOSIG=
200809051700 METAR LMML NIL=
200809051630 METAR LMML NIL=
200809051615 METAR LMML 051615Z 13005KT 100V160 CAVOK 28/24 Q1015 NOSIG=
200809051600 METAR LMML NIL=
200809051545 METAR LMML 051545Z 14006KT CAVOK 29/23 Q1015 NOSIG=
200809051530 METAR LMML NIL=
200809051515 METAR LMML 051515Z 11005KT 060V160 CAVOK 30/23 Q1015 NOSIG=
200809051500 METAR LMML NIL=
200809051445 METAR LMML 051445Z 10004KT 070V150 CAVOK 31/20 Q1015 NOSIG=
200809051430 METAR LMML NIL=
200809051400 METAR LMML NIL=
200809051345 METAR LMML 051345Z 12004KT 070V170 CAVOK 31/18 Q1015 NOSIG=
200809051330 METAR LMML NIL=
200809051315 METAR LMML 051315Z 11006KT 050V170 CAVOK 30/22 Q1016 NOSIG=
200809051300 METAR LMML NIL=
200809051245 METAR LMML 051245Z 10008KT 060V140 9999 FEW015 31/21 Q1016
                        NOSIG=
200809051230 METAR LMML NIL=
200809051215 METAR LMML 051215Z 08008KT 040V120 9999 FEW015 32/20 Q1016
                        NOSIG=
200809051200 METAR LMML NIL=
200809051145 METAR LMML 051145Z 04006KT 350V080 9999 FEW015 32/19 Q1016
                        NOSIG=
200809051130 METAR LMML NIL=
200809051115 METAR LMML 051115Z 04005KT 360V100 9999 FEW015 32/20 Q1017
                        NOSIG=
200809051100 METAR LMML NIL=
200809051045 METAR LMML 051045Z 02004KT 320V120 9999 FEW015 32/20 Q1017
                        NOSIG=
200809051015 METAR LMML 051015Z 04004KT 350V110 9999 FEW015 31/21 Q1017
                        NOSIG=
200809051000 METAR LMML NIL=
200809050945 METAR LMML 050945Z 36005KT 320V050 9999 FEW015 31/22 Q1017
                        NOSIG=
200809050930 METAR LMML NIL=
200809050915 METAR LMML 050915Z 05004KT 360V100 9999 FEW015 31/21 Q1017
                        NOSIG=
200809050900 METAR LMML NIL=
200809050845 METAR LMML 050845Z VRB03KT CAVOK 30/22 Q1017 NOSIG=
200809050830 METAR LMML NIL=
200809050815 METAR LMML 050815Z 07005KT 030V110 9000 SCT250 29/24 Q1016
                        BECMG 9999=
200809050800 METAR LMML NIL=
200809050745 METAR LMML 050745Z VRB03KT 9000 SCT250 28/25 Q1017 BECMG
                        9999=
200809050730 METAR LMML NIL=
200809050715 METAR LMML 050715Z 08004KT 020V160 7000 SCT250 27/27 Q1016
                        BECMG 8000=
200809050700 METAR LMML NIL=
200809050645 METAR LMML 050645Z 07004KT 020V150 6000 FEW006 BKN250 26/26
                        Q1016 BECMG 8000=
200809050630 METAR LMML NIL=
200809050615 METAR LMML 050615Z 04004KT 010V150 3000 BR BKN006 26/26 Q1016
                        BECMG 6000 SCT006=
200809050600 METAR LMML NIL=
200809050545 METAR LMML 050545Z VRB03KT 3000 BR BKN006 25/25 Q1016 BECMG
                        6000 SCT006=
200809050530 METAR LMML NIL=
200809050515 METAR LMML 050515Z VRB03KT 3000 BR SCT006 BKN250 25/25 Q1016
                        BECMG 6000 SCT006=
200809050500 METAR LMML NIL=
200809050445 METAR LMML 050445Z VRB02KT 3000 BR BKN006 25/25 Q1016 BECMG
                        6000 SCT006=
200809050430 METAR LMML NIL=
200809050415 METAR LMML 050415Z VRB03KT 6000 FEW006 25/25 Q1015 TEMPO
                        5000 BR=
200809050400 METAR LMML NIL=
200809050345 METAR LMML 050345Z VRB02KT 5000 BR SCT006 24/24 Q1015 TEMPO
                        BKN006=
200809050330 METAR LMML NIL=
200809050315 METAR LMML 050315Z VRB01KT 5000 BR SCT006 24/24 Q1016 TEMPO
                        BKN006=
200809050300 METAR LMML NIL=
200809050245 METAR LMML 050245Z VRB01KT 5000 SCT005 24/24 Q1015 TEMPO
                        BKN006=
200809050215 METAR LMML 050215Z VRB02KT 6000 FEW006 24/24 Q1015 NOSIG=
200809050200 METAR LMML NIL=
200809050145 METAR LMML 050145Z VRB02KT 7000 FEW005 24/24 Q1015 NOSIG=
200809050130 METAR LMML NIL=
200809050115 METAR LMML 050115Z VRB01KT 7000 FEW005 24/24 Q1015 NOSIG=
200809050100 METAR LMML NIL=
200809050045 METAR LMML 050045Z VRB03KT 9000 FEW012 25/25 Q1015 NOSIG=
200809050030 METAR LMML NIL=
200809050015 METAR LMML 050015Z VRB01KT 9999 FEW012 24/24 Q1015 NOSIG=
200809050000 METAR LMML NIL=
200809042345 METAR LMML 042345Z VRB02KT CAVOK 24/24 Q1015 NOSIG=
200809042330 METAR LMML NIL=
200809042315 METAR LMML 042315Z VRB02KT 9999 FEW012 25/24 Q1015 NOSIG=
200809042300 METAR LMML NIL=
200809042245 METAR LMML 042245Z VRB03KT CAVOK 25/24 Q1015 NOSIG=
200809042230 METAR LMML NIL=
200809042215 METAR LMML 042215Z VRB02KT CAVOK 25/20 Q1015 NOSIG=
200809042200 METAR LMML NIL=
200809042145 METAR LMML 042145Z VRB03KT CAVOK 25/21 Q1016 NOSIG=
200809042130 METAR LMML NIL=
200809042115 METAR LMML 042115Z VRB01KT CAVOK 25/22 Q1016 NOSIG=
200809042100 METAR LMML NIL=
200809042045 METAR LMML 042045Z VRB01KT CAVOK 26/23 Q1016 NOSIG=
200809042030 METAR LMML NIL=
200809042015 METAR LMML 042015Z VRB02KT CAVOK 27/23 Q1015 NOSIG=
200809042000 METAR LMML NIL=
200809041945 METAR LMML 041945Z VRB02KT CAVOK 26/24 Q1015 NOSIG=
200809041930 METAR LMML NIL=
200809041915 METAR LMML 041915Z VRB01KT CAVOK 27/24 Q1015 NOSIG=
200809041900 METAR LMML NIL=
200809041845 METAR LMML 041845Z VRB02KT CAVOK 27/25 Q1015 NOSIG=
200809041830 METAR LMML NIL=
200809041815 METAR LMML 041815Z VRB02KT CAVOK 27/25 Q1014 NOSIG=
200809041800 METAR LMML NIL=
200809041745 METAR LMML 041745Z VRB03KT CAVOK 27/25 Q1014 NOSIG=
200809041730 METAR LMML NIL=
200809041715 METAR LMML 041715Z VRB03KT CAVOK 28/24 Q1014 NOSIG=
200809041700 METAR LMML NIL=
200809041645 METAR LMML 041645Z VRB03KT CAVOK 29/23 Q1013 NOSIG=
200809041630 METAR LMML NIL=
200809041615 METAR LMML 041615Z VRB03KT CAVOK 30/23 Q1013 NOSIG=
200809041600 METAR LMML NIL=
200809041545 METAR LMML 041545Z VRB03KT CAVOK 30/23 Q1013 NOSIG=
200809041530 METAR LMML NIL=
200809041515 METAR LMML 041515Z 18004KT CAVOK 30/24 Q1014 NOSIG=
200809041500 METAR LMML NIL=
200809041445 METAR LMML 041445Z 17005KT 130V210 CAVOK 30/24 Q1014 NOSIG=
200809041430 METAR LMML NIL=
200809041415 METAR LMML 041415Z 17004KT 090V230 CAVOK 30/24 Q1014 NOSIG=
200809041400 METAR LMML NIL=
200809041345 METAR LMML 041345Z 18005KT 120V220 CAVOK 30/24 Q1014 NOSIG=
200809041330 METAR LMML NIL=
200809041315 METAR LMML 041315Z 15006KT 110V190 CAVOK 31/24 Q1014 NOSIG=
200809041245 METAR LMML 041245Z 16006KT 100V220 9999 FEW015 31/24 Q1014
                        NOSIG=
200809041230 METAR LMML NIL=
200809041215 METAR LMML 041215Z 17004KT 120V250 9999 FEW012 31/23 Q1014
                        NOSIG=
200809041200 METAR LMML NIL=
200809041145 METAR LMML 041145Z 17006KT 120V210 9999 FEW012 30/23 Q1014
                        NOSIG=
200809041130 METAR LMML NIL=
200809041115 METAR LMML 041115Z 15006KT 110V190 9999 FEW012 30/23 Q1014
                        NOSIG=
200809041100 METAR LMML NIL=
200809041045 METAR LMML 041045Z 16005KT 120V230 9999 FEW012 30/23 Q1014
                        NOSIG=
200809041030 METAR LMML NIL=
200809041015 METAR LMML 041015Z 16005KT 090V220 9999 FEW013 31/25 Q1014
                        NOSIG=
200809041000 METAR LMML NIL=
200809040945 METAR LMML 040945Z 16004KT 130V230 9999 FEW013 30/24 Q1015
                        NOSIG=
200809040930 METAR LMML NIL=
200809040915 METAR LMML 040915Z 16005KT 130V230 9999 FEW012 30/23 Q1015
                        NOSIG=
200809040900 METAR LMML NIL=
200809040845 METAR LMML 040845Z 18004KT 150V250 9999 FEW013 29/23 Q1015
                        NOSIG=
200809040830 METAR LMML NIL=
200809040815 METAR LMML 040815Z 17004KT 110V230 9999 FEW012 29/25 Q1014
                        NOSIG=
200809040800 METAR LMML NIL=
200809040745 METAR LMML 040745Z 16004KT 100V210 9999 FEW011 28/25 Q1014
                        NOSIG=
200809040730 METAR LMML NIL=
200809040715 METAR LMML 040715Z 16004KT 070V200 9999 FEW008 27/26 Q1014
                        NOSIG=
200809040700 METAR LMML NIL=
200809040645 METAR LMML 040645Z VRB03KT 9000 SCT008 27/27 Q1014 BECMG
                        9999 FEW012=
200809040630 METAR LMML NIL=
200809040615 METAR LMML 040615Z VRB02KT 9000 SCT009 26/26 Q1014 BECMG
                        9999 FEW012=
200809040600 METAR LMML NIL=
200809040545 METAR LMML 040545Z VRB03KT 9000 SKC 26/26 Q1013 BECMG 9999=
200809040530 METAR LMML NIL=
200809040515 METAR LMML 040515Z 16006KT 9000 FEW120 25/25 Q1013 BECMG
                        9999 FEW015=
200809040500 LMML NIL=
200809040445 METAR LMML 040445Z 17005KT 9000 FEW120 24/24 Q1013 BECMG
                        9999 FEW015=
200809040430 METAR LMML NIL=
200809040415 METAR LMML 040415Z VRB03KT CAVOK 24/24 Q1013 NOSIG=
200809040400 METAR LMML NIL=
200809040345 METAR LMML 040345Z VRB02KT CAVOK 25/25 Q1013 TEMPO 7000 FEW011=
200809040330 METAR LMML NIL=
200809040315 METAR LMML 040315Z 17004KT CAVOK 25/25 Q1013 TEMPO 7000 FEW011=
200809040300 METAR LMML NIL=
200809040245 METAR LMML 040245Z 18004KT CAVOK 25/25 Q1013 TEMPO 7000 FEW011=
200809040230 METAR LMML NIL=
200809040215 METAR LMML 040215Z VRB01KT CAVOK 24/24 Q1013 RMK TEMPO 8000
                        MIFG FEW011=
200809040200 METAR LMML NIL=
200809040145 METAR LMML 040145Z VRB01KT CAVOK 25/25 Q1014=
200809040130 METAR LMML NIL=
200809040115 METAR LMML 040115Z 00000KT CAVOK 25/25 Q1014=
200809040100 METAR LMML NIL=
200809040045 METAR LMML 040045Z VRB01KT CAVOK 25/25 Q1014=
200809040030 METAR LMML NIL=
200809040015 METAR LMML 040015Z VRB01KT CAVOK 25/25 Q1014=
200809040000 METAR LMML NIL=
200809032345 METAR LMML 032345Z VRB01KT CAVOK 25/25 Q1014=
200809032330 METAR LMML NIL=
200809032315 METAR LMML 032315Z VRB03KT CAVOK 25/25 Q1014=
200809032300 METAR LMML NIL=
200809032245 METAR LMML 032245Z VRB03KT CAVOK 25/25 Q1015=
200809032230 METAR LMML NIL=
200809032215 METAR LMML 032215Z 17005KT CAVOK 25/25 Q1015=
200809032200 METAR LMML NIL=
200809032145 METAR LMML 032145Z VRB03KT CAVOK 25/25 Q1015=
200809032130 METAR LMML NIL=
200809032115 METAR LMML 032115Z VRB02KT CAVOK 26/25 Q1015=
200809032100 METAR LMML NIL=
200809032045 METAR LMML 032045Z VRB02KT CAVOK 26/25 Q1015 NOSIG=
200809032030 METAR LMML NIL=
200809032015 METAR LMML 032015Z VRB02KT CAVOK 26/25 Q1015 NOSIG=
200809032000 METAR LMML NIL=
200809031945 METAR LMML 031945Z VRB02KT CAVOK 26/24 Q1015 NOSIG=
200809031930 METAR LMML NIL=
200809031915 METAR LMML 031915Z VRB02KT 9999 FEW012 26/24 Q1014 NOSIG=
200809031900 METAR LMML NIL=
200809031845 METAR LMML 031845Z VRB03KT 9999 FEW012 26/24 Q1014 NOSIG=
200809031815 METAR LMML 031815Z 19004KT 170V230 CAVOK 26/24 Q1014 NOSIG=
200809031800 LMML NIL=
200809031730 METAR LMML NIL=
200809031715 METAR LMML 031715Z VRB03KT CAVOK 27/24 Q1014 NOSIG=
200809031700 METAR LMML NIL=
200809031645 METAR LMML 031645Z 20004KT 150V270 CAVOK 27/24 Q1014 NOSIG=
200809031630 METAR LMML NIL=
200809031615 METAR LMML 031615Z 19005KT 160V270 9999 FEW020 28/24 Q1014
                        NOSIG=
200809031600 METAR LMML NIL=
200809031545 METAR LMML 031545Z 21005KT 160V270 9999 FEW025 28/24 Q1014
                        NOSIG=
200809031530 METAR LMML NIL=
200809031515 METAR LMML 031515Z 18007KT 150V220 9999 FEW025 28/24 Q1014
                        NOSIG=
200809031500 METAR LMML NIL=
200809031445 METAR LMML 031445Z 18008KT 9999 FEW025 28/24 Q1014 NOSIG=
200809031430 METAR LMML NIL=
200809031415 METAR LMML 031415Z 19007KT 140V230 9999 FEW025 29/24 Q1014
                        NOSIG=
200809031400 METAR LMML NIL=
200809031345 METAR LMML 031345Z 20007KT 170V250 9999 FEW025 29/23 Q1015
                        NOSIG=
200809031330 METAR LMML NIL=
200809031315 METAR LMML 031315Z 18007KT 150V210 9999 FEW025 29/23 Q1015
                        NOSIG=
200809031300 METAR LMML NIL=
200809031245 METAR LMML 031245Z 18006KT 150V210 9999 FEW025 29/22 Q1015
                        NOSIG=
200809031230 METAR LMML NIL=
200809031215 METAR LMML 031215Z 19006KT 150V250 9999 FEW025 29/22 Q1015
                        NOSIG=
200809031200 METAR LMML NIL=
200809031145 METAR LMML 031145Z 21007KT 160V260 CAVOK 30/23 Q1015 NOSIG=
200809031130 METAR LMML NIL=
200809031115 METAR LMML 031115Z 21007KT 170V270 CAVOK 29/22 Q1015 NOSIG=
200809031100 METAR LMML NIL=
200809031045 METAR LMML 031045Z 21005KT 160V270 9999 FEW025 29/20 Q1016
                        NOSIG=
200809031030 METAR LMML NIL=
200809031015 METAR LMML 031015Z 19006KT 150V230 9999 FEW025 29/22 Q1016
                        NOSIG=
200809031000 METAR LMML NIL=
200809030945 METAR LMML 030945Z 20006KT 160V280 9999 FEW025 28/23 Q1016
                        NOSIG=
200809030930 METAR LMML NIL=
200809030915 METAR LMML 030915Z 21005KT 160V300 9999 FEW025 28/23 Q1016
                        NOSIG=
200809030900 METAR LMML NIL=
200809030845 METAR LMML 030845Z 19006KT 150V210 9999 FEW020 28/23 Q1016
                        NOSIG=
200809030830 METAR LMML NIL=
200809030815 METAR LMML 030815Z 19006KT 160V250 CAVOK 28/23 Q1016 NOSIG=
200809030800 METAR LMML NIL=
200809030745 METAR LMML 030745Z 20004KT 150V240 CAVOK 28/23 Q1016 NOSIG=
200809030730 METAR LMML NIL=
200809030715 METAR LMML 030715Z 20004KT 160V250 CAVOK 27/23 Q1016 NOSIG=
200809030700 METAR LMML NIL=
200809030645 METAR LMML 030645Z VRB03KT CAVOK 27/23 Q1016 NOSIG=
200809030630 METAR LMML NIL=
200809030615 METAR LMML 030615Z VRB01KT CAVOK 26/24 Q1016 NOSIG=
200809030600 METAR LMML NIL=
200809030545 METAR LMML 030545Z VRB02KT 9999 FEW019 25/24 Q1016 NOSIG=
200809030530 METAR LMML NIL=
200809030515 METAR LMML 030515Z VRB01KT 9999 FEW019 24/24 Q1016 NOSIG=
200809030500 METAR LMML NIL=
200809030445 METAR LMML 030445Z VRB01KT 9999 FEW019 SCT120 24/24 Q1015
                        NOSIG=
200809030430 METAR LMML NIL=
200809030415 METAR LMML 030415Z VRB01KT 9999 FEW018 SCT120 24/24 Q1015
                        NOSIG=
200809030345 METAR LMML 030345Z VRB01KT 9999 FEW018 24/23 Q1015 NOSIG=
200809030330 METAR LMML NIL=
200809030315 METAR LMML 030315Z VRB01KT 9999 FEW018 SCT250 24/23 Q1015
                        NOSIG=
200809030245 METAR LMML 030245Z 19005KT 160V220 9999 FEW018 SCT250 25/23
                        Q1015 TEMPO 4000 TSRA SCT010 BKN020CB=
200809030230 METAR LMML NIL=
200809030215 METAR LMML 030215Z VRB03KT 9999 FEW018 24/21 Q1015 TEMPO
                        4000 TSRA SCT010 BKN020CB=
200809030200 METAR LMML NIL=
200809030145 METAR LMML 030145Z VRB02KT 9999 FEW018 SCT120 24/21 Q1015
                        TEMPO 4000 TSRA SCT010 BKN020CB=
200809030130 METAR LMML NIL=
200809030115 METAR LMML 030115Z 19006KT 9999 FEW018 SCT120 24/22 Q1015
                        RETS TEMPO 4000 TSRA SCT010 BKN020CB=
200809030100 METAR LMML NIL=
200809030045 METAR LMML 030045Z 17007KT 130V230 9999 SCT018CB BKN090 24/23
                        Q1015 RETS TEMPO 4000 TSRA SCT010
                        BKN020CB=
200809030030 METAR LMML NIL=
200809030015 METAR LMML 030015Z 17007KT 130V200 6000 TSRA FEW006 SCT018CB
                        BKN090 24/21 Q1016 TEMPO 4000 TSRA
                        SCT010 BKN020CB=
200809030004 METAR LMML 030004Z 20005KT 150V270 6000 TS SCT018CB BKN080
                        23/21 Q1016 TEMPO 4000 TSRA SCT010
                        BKN020CB=
200809030000 METAR LMML NIL=
200809022345 METAR LMML 022345Z VRB03KT 9999 TS FEW018CB BKN120 25/24
                        Q1016 TEMPO 4000 TSRA SCT010 BKN020CB
                        RMK LIGHTNING TO WEST=
200809022334 LMML 022334Z VRB02KT 9999 TS FEW018CB BKN120 25/24 Q1016
                        TEMPO 5000 TSRA SCT050CB=
200809022330 METAR LMML NIL=
200809022315 METAR LMML 022315Z 19004KT 140V230 9999 FEW018 BKN120 25/24
                        Q1016 TEMPO 8000 TSRA SCT050CB=
200809022300 METAR LMML NIL=
200809022245 METAR LMML 022245Z 18005KT 9999 FEW018 SCT120 25/24 Q1016
                        RETS TEMPO 8000 TSRA SCT050CB=
200809022230 METAR LMML NIL=
200809022215 METAR LMML 022215Z VRB03KT 9999 FEW018 BKN100 25/23 Q1017
                        RETS TEMPO 8000 TSRA SCT050CB=
200809022200 METAR LMML NIL=
200809022145 METAR LMML 022145Z VRB03KT 9999 TS FEW018CB BKN090 24/23
                        Q1017 TEMPO 8000 TS SCT050CB=
200809022130 METAR LMML NIL=
200809022115 METAR LMML 022115Z VRB02KT 9999 FEW018 SCT250 25/23 Q1017
                        NOSIG RMK LIGHTNING TO NORTHWEST=
200809022100 METAR LMML NIL=
200809022045 METAR LMML 022045Z VRB02KT 9999 FEW018 SCT250 25/23 Q1016
                        NOSIG=
200809022030 METAR LMML NIL=
200809022015 LMML 022015Z VRB01KT 9999 FEW018 SCT250 25/23 Q1017 NOSIG=
200809022000 METAR LMML NIL=
200809021945 METAR LMML 021945Z VRB01KT 9999 FEW018 SCT250 25/23 Q1017
                        NOSIG=
200809021930 METAR LMML NIL=
200809021915 METAR LMML 021915Z VRB02KT 9999 FEW018 SCT250 25/23 Q1017
                        NOSIG=
200809021900 METAR LMML NIL=
200809021845 METAR LMML 021845Z 29004KT 9999 FEW018 SCT250 25/23 Q1017
                        NOSIG=
200809021830 METAR LMML NIL=
200809021815 METAR LMML 021815Z 28004KT 250V330 9999 FEW018 SCT250 25/23
                        Q1016 NOSIG=
200809021800 METAR LMML NIL=
200809021745 METAR LMML 021745Z 27005KT 230V300 9999 FEW018 BKN250 26/22
                        Q1016 NOSIG=
200809021730 METAR LMML NIL=
200809021715 METAR LMML 021715Z 27004KT 240V310 9999 FEW018 BKN250 26/22
                        Q1016 NOSIG=
200809021700 METAR LMML NIL=
200809021645 METAR LMML 021645Z 26006KT 230V300 9999 FEW018 26/22 Q1016
                        NOSIG=
200809021630 METAR LMML NIL=
200809021615 METAR LMML 021615Z 23006KT 200V280 9999 FEW018 27/22 Q1016
                        NOSIG=
200809021600 METAR LMML NIL=
200809021545 METAR LMML 021545Z 25007KT 200V290 9999 FEW018 28/20 Q1016
                        NOSIG=
200809021515 METAR LMML 021515Z 26009KT 240V310 9999 FEW018 28/21 Q1016
                        NOSIG=
200809021500 METAR LMML NIL=
200809021445 METAR LMML 021445Z 26010KT 230V300 9999 FEW018 28/21 Q1016
                        NOSIG=
200809021430 METAR LMML NIL=
200809021415 METAR LMML 021415Z 25010KT 200V290 9999 FEW018 28/20 Q1017
                        NOSIG=
200809021400 METAR LMML NIL=
200809021345 METAR LMML 021345Z 26008KT 210V300 9999 FEW025 SCT120 29/20
                        Q1017 NOSIG=
200809021330 METAR LMML NIL=
200809021315 METAR LMML 021315Z 25009KT 210V290 9999 FEW025 SCT120 28/20
                        Q1017 NOSIG=
200809021300 METAR LMML NIL=
200809021245 METAR LMML 021245Z 26007KT 210V320 9999 FEW025 BKN120 29/18
                        Q1017 NOSIG=
200809021230 METAR LMML NIL=
200809021215 METAR LMML 021215Z 27010KT 220V320 9999 FEW025 SCT120 29/20
                        Q1017 NOSIG=
200809021200 METAR LMML NIL=
200809021145 METAR LMML 021145Z 25009KT 210V290 9999 FEW025 29/19 Q1017
                        NOSIG=
200809021130 METAR LMML NIL=
200809021115 METAR LMML 021115Z 24009KT 200V290 9999 FEW025 30/18 Q1018
                        NOSIG=
200809021100 METAR LMML NIL=
200809021045 METAR LMML 021045Z 24007KT 200V300 9999 FEW025 29/18 Q1017
                        NOSIG=
200809021030 METAR LMML NIL=
200809021015 METAR LMML 021015Z 27007KT 210V310 9999 FEW025 SCT250 29/16
                        Q1018 NOSIG=
200809021000 METAR LMML NIL=
200809020945 METAR LMML 020945Z 29007KT 230V350 9999 FEW025 29/16 Q1018
                        NOSIG=
200809020930 METAR LMML NIL=
200809020915 METAR LMML 020915Z 28009KT 210V310 9999 FEW025 29/17 Q1018
                        NOSIG=
200809020900 METAR LMML NIL=
200809020845 METAR LMML 020845Z 28007KT 240V320 9999 FEW020 28/19 Q1018
                        NOSIG=
200809020830 METAR LMML NIL=
200809020815 METAR LMML 020815Z 27007KT 210V310 9999 FEW019 28/20 Q1018
                        NOSIG=
200809020800 METAR LMML NIL=
200809020745 METAR LMML 020745Z 27007KT 210V320 9999 FEW018 27/22 Q1018
                        NOSIG=
200809020730 METAR LMML NIL=
200809020715 METAR LMML 020715Z 27008KT 230V300 9999 SCT017 27/22 Q1018
                        NOSIG=
200809020700 METAR LMML NIL=
200809020645 METAR LMML 020645Z 27007KT 230V310 9999 SCT014 26/23 Q1018
                        NOSIG=
200809020630 METAR LMML NIL=
200809020615 METAR LMML 020615Z 26007KT 220V300 9999 SCT013 26/23 Q1017
                        NOSIG=
200809020600 METAR LMML NIL=
200809020545 METAR LMML 020545Z VRB02KT 9999 FEW013 25/24 Q1017 NOSIG=
200809020530 METAR LMML NIL=
200809020515 METAR LMML 020515Z VRB02KT 9999 FEW013 24/24 Q1017 NOSIG=
200809020500 METAR LMML NIL=
200809020445 METAR LMML 020445Z VRB03KT 9999 FEW012 24/23 Q1017 NOSIG=
200809020430 METAR LMML NIL=
200809020415 METAR LMML 020415Z VRB03KT 9999 FEW012 24/23 Q1017 TEMPO
                        9999 FEW005=
200809020400 METAR LMML NIL=
200809020345 METAR LMML 020345Z 27004KT 250V310 9999 FEW012 SCT250 24/24
                        Q1017 TEMPO 9999 FEW005=
200809020330 METAR LMML NIL=
200809020315 METAR LMML 020315Z 26004KT 220V290 9999 FEW012 BKN250 24/24
                        Q1017 TEMPO 9999 FEW005=
200809020300 METAR LMML NIL=
200809020245 METAR LMML 020245Z 27004KT 240V300 9999 FEW012 BKN250 24/24
                        Q1017 TEMPO 9999 FEW005=
200809020230 METAR LMML NIL=
200809020215 METAR LMML 020215Z 25004KT 220V280 CAVOK 24/23 Q1017 TEMPO
                        9999 FEW005=
200809020200 METAR LMML NIL=
200809020145 METAR LMML 020145Z 25004KT 210V290 CAVOK 24/24 Q1017 TEMPO
                        9999 FEW005=
200809020115 METAR LMML 020115Z 25004KT CAVOK 24/23 Q1017 TEMPO 9999 FEW005=
200809020100 METAR LMML NIL=
200809020045 METAR LMML 020045Z 26004KT 220V290 CAVOK 24/24 Q1017 TEMPO
                        9999 FEW005=
200809020030 METAR LMML NIL=
200809020015 METAR LMML 020015Z 26004KT 220V290 9999 FEW010 SCT120 BKN250
                        24/24 Q1018 NOSIG=
200809020000 METAR LMML NIL=
200809012345 METAR LMML 012345Z VRB02KT 9999 FEW010 SCT120 BKN250 24/23
                        Q1018 NOSIG=
200809012330 METAR LMML NIL=
200809012315 METAR LMML 012315Z VRB02KT 9999 FEW010 BKN250 24/23 Q1018
                        NOSIG=
200809012300 METAR LMML NIL=
200809012245 METAR LMML 012245Z 28004KT 250V310 9999 FEW010 BKN250 24/23
                        Q1018 NOSIG=
200809012230 METAR LMML NIL=
200809012215 METAR LMML 012215Z 28004KT 250V310 9999 FEW015 BKN250 25/23
                        Q1018 NOSIG=
200809012200 METAR LMML NIL=
200809012145 METAR LMML 012145Z 26004KT 230V290 CAVOK 25/23 Q1018 NOSIG=
200809012130 METAR LMML NIL=
200809012115 METAR LMML 012115Z VRB03KT CAVOK 24/23 Q1018 NOSIG=
200809012100 METAR LMML NIL=
200809012045 METAR LMML 012045Z 24004KT 200V270 CAVOK 25/23 Q1018 NOSIG=
200809012030 METAR LMML NIL=
200809012015 METAR LMML 012015Z 24005KT 210V280 CAVOK 25/22 Q1018 NOSIG=
200809012000 METAR LMML NIL=
200809011945 METAR LMML 011945Z 25005KT 210V290 CAVOK 25/22 Q1018 NOSIG=
200809011930 METAR LMML NIL=
200809011915 METAR LMML 011915Z 24004KT 210V290 CAVOK 25/22 Q1017 NOSIG=
200809011900 METAR LMML NIL=
200809011845 METAR LMML 011845Z 24004KT 220V280 CAVOK 25/21 Q1017 NOSIG=
200809011830 METAR LMML NIL=
200809011815 METAR LMML 011815Z 26005KT 220V300 CAVOK 25/22 Q1017 NOSIG=
200809011800 METAR LMML NIL=
200809011745 METAR LMML 011745Z 26007KT 230V300 CAVOK 25/21 Q1017 NOSIG=
200809011730 METAR LMML NIL=
200809011715 METAR LMML 011715Z 26007KT 230V290 CAVOK 26/21 Q1017 NOSIG=
200809011700 METAR LMML NIL=
200809011645 METAR LMML 011645Z 27009KT 240V300 9999 FEW020 BKN250 26/20
                        Q1017 NOSIG=
200809011630 METAR LMML NIL=
200809011615 METAR LMML 011615Z 27012KT 240V310 9999 FEW020 SCT250 27/21
                        Q1017 NOSIG=
200809011600 METAR LMML NIL=
200809011545 METAR LMML 011545Z 25009KT 210V290 9999 FEW020 SCT250 27/19
                        Q1017 NOSIG=
200809011530 METAR LMML NIL=
200809011515 METAR LMML 011515Z 26010KT 220V290 9999 FEW020 SCT250 28/19
                        Q1017 NOSIG=
200809011500 METAR LMML NIL=
200809011445 METAR LMML 011445Z 25008KT 200V290 9999 FEW020 SCT250 29/15
                        Q1017 NOSIG=
200809011430 METAR LMML NIL=
200809011415 METAR LMML 011415Z 27006KT 220V350 9999 FEW020 SCT250 29/12
                        Q1017 NOSIG=
200809011400 METAR LMML NIL=
200809011345 METAR LMML 011345Z 29007KT 260V330 9999 FEW020 SCT250 30/14
                        Q1017 NOSIG=
200809011330 METAR LMML NIL=
200809011315 METAR LMML 011315Z 29010KT 260V320 9999 FEW020 SCT250 30/15
                        Q1017 NOSIG=
200809011300 METAR LMML NIL=
200809011245 METAR LMML 011245Z 29009KT 260V320 9999 FEW020 BKN250 30/14
                        Q1018 NOSIG=
200809011230 METAR LMML NIL=
200809011215 METAR LMML 011215Z 30010KT 9999 FEW020 BKN250 30/14 Q1018
                        NOSIG=
200809011200 METAR LMML NIL=
200809011145 METAR LMML 011145Z 29010KT 240V320 9999 FEW020 BKN250 30/14
                        Q1018 NOSIG=
200809011130 METAR LMML NIL=
200809011115 METAR LMML 011115Z 28009KT 240V320 CAVOK 30/13 Q1018 NOSIG=
200809011100 METAR LMML NIL=
200809011045 METAR LMML 011045Z 28008KT 200V320 9999 FEW020 BKN250 29/14
                        Q1018 NOSIG=
200809011030 METAR LMML NIL=
200809011015 METAR LMML 011015Z 30006KT 240V350 9999 FEW020 SCT250 29/15
                        Q1018 NOSIG=
200809011000 METAR LMML NIL=
200809010945 METAR LMML 010945Z 31009KT 270V350 9999 FEW020 SCT250 29/17
                        Q1019 NOSIG=
200809010930 METAR LMML NIL=
200809010915 METAR LMML 010915Z 29008KT 250V330 CAVOK 28/18 Q1019 NOSIG=
200809010900 METAR LMML NIL=
200809010845 METAR LMML 010845Z 31010KT 270V330 9999 FEW020 SCT250 28/16
                        Q1019 NOSIG=
200809010830 METAR LMML NIL=
200809010815 METAR LMML 010815Z 30006KT 240V340 9999 FEW020 SCT250 28/19
                        Q1018 NOSIG=
200809010800 METAR LMML NIL=
200809010745 METAR LMML 010745Z 30007KT 250V330 9999 FEW020 SCT250 27/20
                        Q1018 NOSIG=
200809010730 METAR LMML NIL=
200809010715 METAR LMML 010715Z 29006KT 250V320 9999 FEW020 27/20 Q1018
                        NOSIG=
200809010700 METAR LMML NIL=
200809010645 METAR LMML 010645Z 28005KT 230V310 CAVOK 26/21 Q1017 NOSIG=
200809010630 METAR LMML NIL=
200809010615 METAR LMML 010615Z 30004KT 260V330 CAVOK 24/24 Q1017 NOSIG=
200809010600 LMML NIL=
200809010545 LMML 010545Z VRB02KT 9999 FEW015 24/23 Q1017 NOSIG=
200809010530 METAR LMML NIL=
200809010515 METAR LMML 010515Z VRB03KT 9999 FEW015 23/23 Q1017 NOSIG=
200809010500 METAR LMML NIL=
200809010445 METAR LMML 010445Z 25004KT 220V290 9000 FEW015 23/23 Q1017
                        NOSIG=
200809010430 METAR LMML NIL=
200809010415 METAR LMML 010415Z 23004KT CAVOK 22/22 Q1016 NOSIG=
200809010400 METAR LMML NIL=
200809010345 METAR LMML 010345Z VRB03KT CAVOK 21/21 Q1016 NOSIG=
200809010330 METAR LMML NIL=
200809010315 METAR LMML 010315Z 00000KT CAVOK 22/22 Q1016 NOSIG=
200809010300 METAR LMML NIL=
200809010245 METAR LMML 010245Z VRB01KT CAVOK 22/22 Q1016 NOSIG=
200809010230 METAR LMML NIL=
200809010215 METAR LMML 010215Z VRB03KT CAVOK 22/22 Q1016 NOSIG=
200809010200 METAR LMML NIL=
200809010145 METAR LMML 010145Z VRB01KT CAVOK 22/22 Q1016 NOSIG=
200809010130 METAR LMML NIL=
200809010115 METAR LMML 010115Z VRB01KT CAVOK 23/23 Q1016 NOSIG=
200809010100 METAR LMML NIL=
200809010045 METAR LMML 010045Z VRB02KT CAVOK 23/23 Q1016 NOSIG=
200809010030 METAR LMML NIL=
200809010015 METAR LMML 010015Z VRB03KT CAVOK 23/23 Q1017 NOSIG=
200809010000 METAR LMML NIL=

###################################
#  short TAF from LMML
###################################
200810012300 TAF LMML 012300Z 020009 29005KT 9999 FEW012
                      TEMPO 0006 BKN009
                      PROB30 TEMPO 0006 8000 SHRA=
200810012000 TAF LMML 012000Z 012106 VRB03KT 9999 FEW012
                      PROB40 TEMPO 2106 8000 SHRA BKN009=
200810011700 TAF LMML 011700Z 011803 12005KT 9999 FEW012
                      PROB40 TEMPO 2103 8000 SHRA BKN010=
200810011400 TAF LMML 011400Z 011524 03005KT 9999 SCT015
                      PROB40 TEMPO 1524 BKN011
                      PROB40 TEMPO 1824 8000 SHRA=
200810011200 LMML 011200Z 011221 03005KT 9999 SCT015
                      TEMPO 1221 BKN012
                      PROB30 TEMPO 1821 8000 SHRA=
200810011100 TAF LMML 011100Z 011221 03005KT 9999 FEW018
                      PROB30 TEMPO 1821 8000 SHRA=
200810010800 TAF LMML 010800Z 010918 03004KT 9999 FEW012=
200810010500 TAF LMML 010500Z 010615 10006KT 9999 FEW015 SCT120
                      TEMPO 0615 8000 SHRA BKN015
                      PROB30 TEMPO 0615 5000 TSRA BKN015CB
                      BECMG 0912 25010KT=
200810010200 TAF LMML 010200Z 010312 10007KT 9999 SCT015 SCT050 BKN090
                      TEMPO 0312 8000 SHRA BKN009 BKN015
                      PROB30 TEMPO 0312 3000 TSRA BKN006 BKN013CB=
200809302300 TAF LMML 302300Z 010009 12009KT 9999 SCT013 SCT050 BKN090
                      TEMPO 0009 8000 RA BKN007 BKN013
                      PROB30 TEMPO 0006 3000 TSRA BKN005 BKN012CB=
200809302000 TAF LMML 302000Z 302106 11008KT 9999 SCT015 SCT050 BKN090
                      TEMPO 2106 8000 RA BKN008 BKN015
                      PROB30 TEMPO 2106 5000 TSRA BKN006 BKN015CB=
200809301700 TAF LMML 301700Z 301803 10006KT 9999 FEW015 BKN080
                      TEMPO 1803 8000 RA BKN012
                      PROB30 TEMPO 1803 5000 TSRA BKN020CB=
200809301400 TAF LMML 301400Z 301524 09009KT 9999 FEW018 BKN090
                      TEMPO 1524 8000 RA BKN015
                      PROB30 TEMPO 1524 5000 TSRA BKN020CB=
200809301100 TAF LMML 301100Z 301221 09010KT 9999 FEW020 BKN070
                      TEMPO 1221 8000 RA BKN015
                      PROB30 TEMPO 1221 5000 TSRA BKN030CB=
200809300800 TAF LMML 300800Z 300918 12010KT 9999 FEW035
                      TEMPO 1018 8000 RA BKN035 BKN070
                      PROB30 TEMPO 1218 5000 TSRA BKN030CB=
200809300500 TAF LMML 300500Z 300615 13008KT 9999 FEW035 SCT120
                      PROB30 TEMPO 1015 5000 RA BKN035 BKN080
                      PROB30 TEMPO 1015 5000 TSRA BKN020CB=
200809300200 TAF LMML 300200Z 300312 13008KT 9999 FEW035 SCT120
                      PROB30 TEMPO 8000 RA BKN045 BKN100=
200809292300 TAF LMML 292300Z 300009 VRB03KT 9999 FEW035=
200809292000 TAF LMML 292000Z 292106 VRB03KT 9999 FEW030 SCT120=
200809291700 TAF LMML 291700Z 291803 08005KT 9999 FEW030 SCT120=
200809291400 TAF LMML 291400Z 291524 27005KT 9999 SCT030=
200809291100 TAF LMML 291100Z 291221 24006KT 9999 SCT030=
200809290800 TAF LMML 290800Z 290918 27005KT 9999 SCT025=
200809290500 TAF LMML 290500Z 290615 30005KT 9999 FEW030=
200809290200 TAF LMML 290200Z 290312 VRB02KT 9999 FEW025=
200809282300 TAF LMML 282300Z 290009 VRB02KT 9999 FEW025=
200809282000 TAF LMML 282000Z 282106 VRB02KT 9999 FEW025=
200809281700 TAF LMML 281700Z 281803 VRB03KT 9999 FEW020
                      PROB30 TEMPO 1803 8000 SHRA SCT025=
200809281400 TAF LMML 281400Z 281524 03008KT 9999 FEW020=
200809281100 TAF LMML 281100Z 281221 03010KT 9999 SCT025 FEW040
                      PROB30 TEMPO 1215 8000 SHRA BKN018=
200809280900 LMML 280900Z 280918 02010KT 9999 FEW025
                      PROB30 TEMPO 0912 5000 SHRA BKN015=
200809280800 LMML 280800Z 280819 02010KT 9999 FEW025
                      PROB30 TEMPO 0912 5000 SHRA BKN015=
200809280500 LMML 280500Z 280615 02006KT 9999 FEW030=
200809280200 LMML 280200Z 280312 03007KT 9999 FEW030=
200809272300 TAF LMML 272300Z 280009 01005KT 9999 FEW030=
200809272000 TAF LMML 272000Z 272106 02005KT 9999 FEW030
                      TEMPO 2106 9000 RA=
200809271700 TAF LMML 271700Z 271803 36005KT 9999 SCT030
                      TEMPO 1824 9000 RA=
200809271400 TAF LMML 271400Z 271524 33005KT 9999 FEW030
                      TEMPO 1524 9000 RA=
200809271100 TAF LMML 271100Z 271221 29007KT 9999 FEW030
                      TEMPO 1221 9000 RA=
200809270800 TAF LMML 270800Z 270918 30007KT 9999 FEW030 SCT050
                      TEMPO 0918 7000 RA=
200809270500 TAF LMML 270500Z 270615 29007KT 9999 FEW020 BKN090 OVC200
                      TEMPO 0615 8000 RA=
200809270200 TAF LMML 270200Z 270312 30005KT 9999 FEW020 BKN090 OVC200
                      PROB30 TEMPO 0312 8000 RA=
200809262300 TAF LMML 262300Z 270009 30005KT 9999 FEW020 BKN110 OVC200
                      PROB30 TEMPO 0009 8000 RA=
200809262000 TAF LMML 262000Z 262106 28005KT 9999 FEW020 SCT050 BKN100
                      PROB30 TEMPO 2106 8000 RA=
200809261700 TAF LMML 261700Z 261803 29006KT 9999 FEW025
                      PROB40 TEMPO 2103 7000 SHRA BKN018
                      PROB30 TEMPO 2103 TSRA BKN015CB=
200809261400 TAF LMML 261400Z 261524 31010KT 9999 FEW025
                      PROB40 TEMPO 1724 8000 SHRA BKN015
                      PROB30 TEMPO 1824 5000 TSRA BKN015CB=
200809261100 TAF LMML 261100Z 261221 31012KT 9999 FEW030
                      TEMPO 1221 CAVOK
                      PROB30 TEMPO 1721 8000 RA=
200809260800 TAF LMML 260800Z 260918 31010KT 9999 FEW025
                      TEMPO 0918 CAVOK=
200809260500 TAF LMML 260500Z 260615 31012KT 9999 FEW025=
200809260200 TAF LMML 260200Z 260312 30013KT 9999 FEW025=
200809252300 TAF LMML 252300Z 260009 30012KT CAVOK
                      BECMG 0306 9999 FEW025=
200809252000 TAF LMML 252000Z 252106 30012KT 9999 FEW025=
200809251700 TAF LMML 251700Z 251803 29013KT 9999 SCT020 BKN100=
200809251400 TAF LMML 251400Z 251524 30013KT 9999 SCT020 SCT060
                      PROB30 TEMPO 1824 9000 RA=
200809251100 TAF LMML 251100Z 251221 30011KT 9999 SCT020 SCT100
                      PROB30 TEMPO 1818 8000 SHRA=
200809250800 TAF LMML 250800Z 250918 30010KT 9999 SCT015 BKN040 BKN090
                      PROB30 TEMPO 1518 5000 TSRA BKN015CB=
200809250500 TAF LMML 250500Z 250615 30012KT CAVOK
                      TEMPO 0615 FEW025
                      PROB30 TEMPO 0615 9000 SHRA=
200809250200 TAF LMML 250200Z 250312 29012KT CAVOK
                      TEMPO 0312 FEW020
                      PROB30 TEMPO 0612 9000 SHRA=
200809242300 TAF LMML 242300Z 250009 29012KT CAVOK
                      TEMPO 0009 FEW020
                      PROB30 TEMPO 0609 9000 SHRA=
200809242000 TAF LMML 242000Z 242106 29010KT 9999 FEW020=
200809241700 TAF LMML 241700Z 241803 30010KT 9999 FEW025=
200809241400 TAF LMML 241400Z 241524 29008KT 9999 FEW025 SCT090=
200809241100 TAF LMML 241100Z 241221 29010KT 9999 FEW025 SCT100
                      PROB30 TEMPO 8000 SHRA SCT018 BKN080=
200809240800 TAF LMML 240800Z 240918 29010KT 9999 SCT030
                      TEMPO 0912 8000 SHRA BKN020
                      PROB30 TEMPO 0912 5000 TSRA BKN015CB=
200809240500 TAF LMML 240500Z 240615 VRB03KT 9999 SCT020
                      TEMPO 0615 7000 SHRA
                      PROB40 TEMPO 0612 5000 TSRA BKN018CB
                      BECMG 0912 29010KT=
200809240200 TAF LMML 240200Z 240312 18008KT 9999 SCT018
                      TEMPO 0312 7000 SHRA
                      PROB30 TEMPO 0312 5000 TSRA BKN018CB
                      BECMG 0508 30010KT=
200809232300 TAF LMML 232300Z 240009 14006KT 9999 SCT020
                      TEMPO 0009 7000 SHRA
                      PROB40 TEMPO 0009 5000 TSRA BKN018CB
                      BECMG 0508 29010KT=
200809232000 TAF LMML 232000Z 232106 12005KT CAVOK
                      TEMPO 9999 SCT030
                      PROB40 TEMPO 2106 8000 SHRA
                      PROB30 TEMPO 2106 5000 TSRA BKN018CB=
200809231700 TAF LMML 231700Z 231803 15005KT 9999 SCT020
                      TEMPO 1803 7000 SHRA
                      PROB40 TEMPO 1803 4000 TSRA BKN018CB=
200809231400 LMML 231400Z 231524 15005KT 9999 SCT025
                      TEMPO 1524 8000 SHRA
                      TEMPO 1524 4000 TSRA BKN018CB=
200809231100 TAF LMML 231100Z 231221 15005KT 9999 FEW030=
200809230800 TAF LMML 230800Z 230918 VRB03KT 9999 FEW025=
200809230500 TAF LMML 230500Z 230615 14005KT 9999 FEW020 SCT100
                      PROB30 TEMPO 0915 8000 RA=
200809230200 TAF LMML 230200Z 230312 VRB03KT 9999 FEW020 SCT100
                      PROB30 TEMPO 0305 8000 RA
                      BECMG 0912 12008KT=
200809222300 TAF LMML 222300Z 230009 VRB03KT 9999 FEW025 SCT100
                      PROB30 TEMPO 0006 9000 RA=
200809222000 TAF LMML 222000Z 222106 32005KT 9999 FEW025 SCT100
                      PROB30 TEMPO 0106 6000 TSRA BKN015CB=
200809221700 TAF LMML 221700Z 221803 32008KT 9999 SCT030
                      PROB30 TEMPO 1803 6000 SHRA BKN015
                      PROB30 TEMPO 2303 TSRA BKN015CB=
200809221400 TAF LMML 221400Z 221524 32009KT 9999 SCT040
                      PROB30 TEMPO 1524 6000 SHRA BKN015=
200809221100 TAF LMML 221100Z 221221 30008KT 9999 SCT030
                      PROB40 TEMPO 1221 6000 SHRA
                      PROB30 TEMPO 1221 TSRA BKN015CB=
200809220800 TAF LMML 220800Z 220918 32008KT 9999 SCT030
                      PROB40 TEMPO 0918 6000 SHRA BKN015
                      PROB30 TEMPO 0918 TSRA BKN015CB=
200809220500 TAF LMML 220500Z 220615 31008KT 9999 FEW020
                      PROB40 TEMPO 0615 5000 SHRA BKN015
                      PROB30 TEMPO 0612 5000 TSRA BKN015CB=
200809220200 TAF LMML 220200Z 220312 31006KT 9999 FEW025 SCT001
                      PROB30 TEMPO 0312 5000 SHRA BKN015
                      PROB30 TEMPO 0312 5000 TSRA BKN015CB=
200809212300 TAF LMML 212300Z 220009 33005KT 9999 FEW020 SCT120
                      PROB30 TEMPO 0009 5000 SHRA BKN015 BKN070=
200809212000 TAF LMML 212000Z 212106 30005KT 9999 FEW020 SCT090
                      PROB30 TEMPO 2106 5000 SHRA BKN015=
200809211700 TAF LMML 211700Z 211803 30009KT 9999 FEW030 SCT100
                      PROB30 TEMPO 0003 8000 SHRA=
200809211400 TAF LMML 211400Z 211524 31008KT 9999 FEW030 SCT060=
200809211100 TAF LMML 211100Z 211221 32010KT 9999 FEW030 SCT060=
200809210800 TAF LMML 210800Z 210918 32010KT 9999 SCT030=
200809210500 TAF LMML 210500Z 210615 33012KT 9999 FEW030=
200809210200 TAF LMML 210200Z 210312 34012KT 9999 FEW030
                      PROB30 TEMPO 0306 8000 SHRA=
200809202300 TAF LMML 202300Z 210009 34010KT 9999 SCT030
                      PROB40 TEMPO 0006 6000 SHRA=
200809202000 TAF LMML 202000Z 202106 04005KT 9999 SCT025
                      PROB30 TEMPO 7000 SHRA
                      BECMG 0205 34010KT=
200809201700 TAF LMML 201700Z 201803 01006KT 9999 SCT030
                      PROB30 TEMPO 1803 5000 SHRA BKN018=
200809201400 TAF LMML 201400Z 201524 03012KT 9999 FEW025
                      PROB30 TEMPO 1524 5000 SHRA BKN018=
200809201100 TAF LMML 201100Z 201221 02015KT 9999 FEW030
                      PROB30 TEMPO 1521 5000 SHRA BKN020=
200809200800 TAF LMML 200800Z 200918 03012KT 9999 FEW025=
200809200500 TAF LMML 200500Z 200615 30018G28KT 9999 SCT020
                      PROB30 TEMPO 0610 8000 SHRA BKN015
                      BECMG 0912 35013KT=
200809200200 TAF LMML 200200Z 200312 29016KT 9999 SCT025 BKN100
                      TEMPO 0310 8000 SHRA BKN015
                      PROB40 TEMPO 0306 5000 TSRA BKN015CB
                      BECMG 0306 32018G30KT
                      BECMG 0912 35013KT=
200809192300 TAF LMML 192300Z 200009 25012KT 9999 SCT025 OVC100
                      TEMPO 0009 8000 RA BKN015
                      PROB30 TEMPO 0006 5000 TSRA BKN015CB
                      BECMG 0003 30015G25KT=
200809192000 TAF LMML 192000Z 192106 25009KT 9999 SCT020 BKN100
                      TEMPO 2106 8000 RA BKN015
                      PROB30 TEMPO 2106 5000 TSRA BKN015CB
                      BECMG 2224 31013KT
                      TEMPO 0006 30015G25KT=
200809191700 TAF LMML 191700Z 191803 27010KT 9999 SCT025
                      TEMPO 1803 7000 SHRA
                      PROB30 TEMPO 2103 4000 TSRA BKN018CB
                      BECMG 2302 29016G26KT=
200809191400 TAF LMML 191400Z 191524 25010KT 9999 SCT025
                      TEMPO 1824 7000 SHRA
                      PROB30 TEMPO 2124 4000 TSRA BKN018CB=
200809191100 TAF LMML 191100Z 191221 24007KT 9999 SCT028
                      TEMPO 1621 9000 RA=
200809190800 TAF LMML 190800Z 190918 21007KT 9999 SCT027=
200809190500 TAF LMML 190500Z 190615 14005KT 9999 SCT025 BKN200=
200809190200 TAF LMML 190200Z 190312 15005KT 9999 SCT025 BKN200=
200809182300 TAF LMML 182300Z 190009 VRB03KT 9999 FEW025 SCT200=
200809182000 TAF LMML 182000Z 182106 12004KT 9999 FEW025 SCT200=
200809181700 TAF LMML 181700Z 181803 13006KT 9999 FEW025=
200809181400 TAF LMML 181400Z 181524 15008KT 9999 FEW030=
200809181100 TAF LMML 181100Z 181221 17008KT 9999 SCT030=
200809180800 TAF LMML 180800Z 180918 09006KT 9999 FEW025=
200809180500 TAF LMML 180500Z 180615 14005KT 9999 FEW025=
200809180200 TAF LMML 180200Z 180312 VRB03KT 9999 FEW020=
200809172300 TAF LMML 172300Z 180009 VRB03KT 9999 FEW020=
200809172000 TAF LMML 172000Z 172106 VRB03KT 9999 FEW025=
200809171700 TAF LMML 171700Z 171803 30008KT 9999 FEW030=
200809171100 TAF LMML 171100Z 171221 30010KT 9999 FEW030=
200809170800 TAF LMML 170800Z 170918 31010KT 9999 FEW030=
200809170500 TAF LMML 170500Z 170615 30010KT 9999 FEW025=
200809170200 TAF LMML 170200Z 170312 30010KT 9999 FEW025=
200809162300 TAF LMML 162300Z 170009 29010KT 9999 FEW025=
200809162000 LMML 162000Z 161803 29010KT 9999 FEW025=
200809161700 TAF LMML 161700Z 161803 29012KT 9999 FEW030=
200809161400 TAF LMML 161400Z 161524 29015G25KT 9999 SCT030=
200809161100 LMML 161100Z 161221 29015G25KT 9999 FEW030
                      PROB30 TEMPO 1215 8000 SHRA BKN025=
200809160800 LMML 160800Z 160918 29015G25KT 9999 FEW025 FEW040
                      PROB30 TEMPO 0914 8000 SHRA BKN025=
200809160500 LMML 160500Z 160615 28010KT 9999 SCT025 SCT060
                      BECMG 0609 28015G25KT
                      TEMPO 0615 8000 SHRA BKN015=
200809160200 LMML 160200Z 160312 29010KT 9999 FEW035 SCT060
                      BECMG 0609 28015G25KT
                      PROB30 TEMPO 0912 8000 SHRA=
200809152300 LMML 152300Z 160009 30012KT 9999 FEW025
                      BECMG 0609 29015G25KT=
200809152000 LMML 152000Z 152106 30013KT 9999 SCT025=
200809151700 TAF LMML 151700Z 151803 29015KT 9999 FEW025=
200809151400 TAF LMML 151400Z 151524 29015KT 9999 FEW025=
200809151100 TAF LMML 151100Z 151221 29015G25KT 9999 SCT025=
200809150800 TAF LMML 150800Z 150918 29016G26KT 9999 SCT025
                      PROB40 TEMPO 0918 8000 SHRA=
200809150500 TAF LMML 150500Z 150615 30015KT 9999 FEW025
                      PROB30 TEMPO 0615 8000 SHRA BKN015
                      BECMG 0912 30015G25KT=
200809150200 TAF LMML 150200Z 150312 31015G25KT 9999 FEW012
                      PROB40 TEMPO 0312 8000 SHRA BKN015
                      PROB30 TEMPO 0312 5000 TSRA BKN012CB=
200809142300 TAF LMML 142300Z 150009 32015G25KT 9999 FEW020
                      PROB40 TEMPO 0009 8000 SHRA BKN015
                      PROB30 TEMPO 0009 5000 TSRA BKN012CB=
200809142000 TAF LMML 142000Z 142106 31018G28KT 9999 FEW020
                      TEMPO 2106 8000 SHRA BKN015=
200809141700 TAF LMML 141700Z 141803 32018G28KT 9999 FEW020 BKN120
                      TEMPO 1803 8000 SHRA BKN015
                      PROB30 TEMPO 1803 5000 TSRA BKN012CB=
200809141400 TAF LMML 141400Z 141524 33015G25KT 9999 SCT020 BKN120
                      TEMPO 1524 8000 SHRA BKN015
                      PROB30 TEMPO 1524 5000 TSRA BKN015CB=
200809141100 TAF LMML 141100Z 141221 31015KT 9999 SCT020 BKN100
                      TEMPO 1221 8000 SHRA
                      PROB30 TEMPO 1821 BKN012=
200809140800 TAF LMML 140800Z 140918 16005KT 9999 SCT018
                      TEMPO 0918 8000 SHRA BKN015
                      BECMG 1215 30015KT=
200809140500 TAF LMML 140500Z 140615 30008KT 9999 SCT018
                      TEMPO 0615 8000 SHRA SCT009 BKN015
                      PROB30 TEMPO 0615 5000 TSRA BKN050CB
                      BECMG 1215 30015G25KT=
200809140200 TAF LMML 140200Z 140312 30005KT 9999 FEW018
                      PROB40 TEMPO 0312 8000 SHRA SCT008 BKN100
                       PROBB30
                      TEMPO 0312 5000 TSRA SCT008 BKN050CB=
200809132300 TAF LMML 132300Z 140009 VRB03KT CAVOK
                      PROB40 TEMPO 0009 8000 SHRA SCT008 BKN100
                       PROB30
                      TEMPO 0309 5000 TSRA SCT005 BKN050CB=
200809132000 TAF LMML 132000Z 132106 VRB03KT CAVOK
                      PROB40 TEMPO 2106 8000 SHRA BKN008 BKN100
                       PROB30
                      TEMPO 0306 5000 TSRA SCT005 BKN050CB=
200809131700 TAF LMML 131700Z 131803 22008KT 9999 FEW015 SCT100
                      TEMPO 2103 8000 SHRA BKN015
                      PROB30 TEMPO 0003 3000 TSRA BKN012CB=
200809131400 TAF LMML 131400Z 131524 27008KT 9999 FEW020 BKN250
                      PROB30 TEMPO 2124 8000 SHRA BKN015=
200809131100 TAF LMML 131100Z 131221 27010KT 9999 FEW020=
200809130800 TAF LMML 130800Z 130918 23008KT 9999 FEW015 BKN200
                      BECMG 29010KT=
200809130500 TAF LMML 130500Z 130615 20005KT 9999 FEW012 SCT200=
200809130200 TAF LMML 130200Z 130312 25006KT 9999 FEW012
                      PROB30 TEMPO 0306 8000 BKN008=
200809122300 TAF LMML 122300Z 130009 23004KT CAVOK
                      TEMPO 0009 9999 FEW012
                      PROB30 TEMPO 0306 8000 BKN008=
200809122000 TAF LMML 122000Z 122106 21004KT CAVOK
                      TEMPO 2106 8000 FEW012
                      PROB30 TEMPO 0206 5000 BR BKN008=
200809121700 TAF LMML 121700Z 121803 VRB03KT 9000 FEW010
                      PROB30 TEMPO 0306 5000 BR BKN008=
200809121400 TAF LMML 121400Z 121524 24006KT 9999 FEW012=
200809121100 TAF LMML 121100Z 121221 24008KT 9999 FEW012=
200809120800 TAF LMML 120800Z 120918 24006KT 9999 FEW020=
200809120500 TAF LMML 120500Z 120615 28005KT 9999 FEW015=
200809120200 TAF LMML 120200Z 120312 26005KT CAVOK
                      TEMPO 0306 9999 FEW008
                      PROB30 TEMPO 0305 8000 SCT006
                      BECMG 0609 9999 FEW015=
200809112300 TAF LMML 112300Z 120009 23004KT CAVOK
                      TEMPO 0006 9000 FEW007
                      PROB30 TEMPO 0005 5000 BR BKN005
                      BECMG 0609 9999 FEW015=
200809112000 TAF LMML 112000Z 112106 23004KT CAVOK
                      TEMPO 2106 9000 FEW008
                      PROB30 TEMPO 0005 8000 BKN006=
200809111700 TAF LMML 111700Z 111803 21004KT CAVOK
                      PROB30 TEMPO 0003 8000 BKN008=
200809111400 TAF LMML 111400Z 111524 18005KT CAVOK
                      PROB30 TEMPO 1524 9999 FEW018=
200809111100 TAF LMML 111100Z 111221 18005KT CAVOK
                      TEMPO 1221 9999 FEW020=
200809110800 TAF LMML 110800Z 110918 15005KT CAVOK
                      PROB40 TEMPO 0918 9999 FEW018=
200809110500 TAF LMML 110500Z 110615 13005KT CAVOK
                      BECMG 0912 9999 FEW020 SCT200=
200809110200 TAF LMML 110200Z 110312 13005KT CAVOK
                      PROB30 TEMPO 0305 5000 BR FEW008
                      BECMG 0912 9999 FEW012=
200809102300 TAF LMML 102300Z 110009 13004KT CAVOK
                      PROB30 TEMPO 0005 7000 FEW008=
200809102000 TAF LMML 102000Z 102106 13004KT CAVOK
                      TEMPO 2106 8000 FEW008=
200809101700 TAF LMML 101700Z 101803 14005KT CAVOK
                      PROB30 TEMPO 0003 9999 FEW012=
200809101400 TAF LMML 101400Z 101524 10005KT CAVOK
                      PROB30 TEMPO 2324 9999 FEW012=
200809101100 TAF LMML 101100Z 101221 12005KT 9999 FEW020=
200809100800 TAF LMML 100800Z 100918 13005KT CAVOK=
200809100500 TAF LMML 100500Z 100615 09006KT CAVOK=
200809100200 TAF LMML 100200Z 100312 06006KT CAVOK
                      TEMPO 0306 FEW010=
200809092300 TAF LMML 092300Z 100009 VRB03KT CAVOK
                      TEMPO 0306 6000 FEW005=
200809092000 TAF LMML 092000Z 092106 VRB03KT CAVOK
                      PROB30 TEMPO 0306 6000 FEW005=
200809091700 TAF LMML 091700Z 091803 03004KT CAVOK
                      PROB30 TEMPO 0203 8000 FEW004=
200809091400 TAF LMML 091400Z 091524 02006KT CAVOK=
200809091100 TAF LMML 091100Z 091221 36010KT CAVOK=
200809090800 TAF LMML 090800Z 090918 35008KT CAVOK=
200809090500 TAF LMML 090500Z 090615 34008KT CAVOK=
200809090200 TAF LMML 090200Z 090312 29004KT CAVOK=
200809082300 TAF LMML 082300Z 090009 29005KT CAVOK=
200809082000 TAF LMML 082000Z 082106 28004KT CAVOK=
200809081700 TAF LMML 081700Z 081803 30005KT CAVOK
                      PROB30 TEMPO 0203 8000=
200809081400 TAF LMML 081400Z 081524 30005KT CAVOK=
200809081100 TAF LMML 081100Z 081221 31008KT CAVOK=
200809080800 TAF LMML 080800Z 080918 32008KT CAVOK
                      PROB30 TEMPO 1218 FEW015=
200809080500 TAF LMML 080500Z 080615 30006KT CAVOK
                      TEMPO 0915 9999 FEW020=
200809080200 TAF LMML 080200Z 080312 31006KT CAVOK
                      TEMPO 0612 9999 FEW015=
200809072300 TAF LMML 072300Z 080009 31005KT CAVOK
                      PROB30 TEMPO 0005 9000 FEW006=
200809072000 TAF LMML 072000Z 072106 29004KT CAVOK
                      TEMPO 2106 9999 FEW011
                      PROB30 TEMPO 0006 9000 FEW006=
200809071700 TAF LMML 071700Z 071803 27004KT CAVOK
                      PROB30 TEMPO 0003 8000 FEW006=
200809071400 TAF LMML 071400Z 071524 34005KT CAVOK=
200809071100 TAF LMML 071100Z 071221 29008KT CAVOK=
200809070800 TAF LMML 070800Z 070918 32006KT CAVOK=
200809070500 TAF LMML 070500Z 070615 24006KT CAVOK=
200809070200 TAF LMML 070200Z 070312 23006KT CAVOK
                      PROB30 TEMPO 0306 8000 SCT008=
200809062300 TAF LMML 062300Z 070009 VRB03KT CAVOK
                      PROB30 TEMPO 0006 7000 SCT007=
200809062000 TAF LMML 062000Z 062106 VRB03KT CAVOK
                      TEMPO 2106 8000 FEW006
                      PROB30 TEMPO 0006 3000 BR SCT004=
200809061700 TAF LMML 061700Z 061803 22005KT CAVOK
                      TEMPO 1803 9000 FEW006
                      PROB30 TEMPO 0003 3000 BR SCT004=
200809061100 TAF LMML 061100Z 061221 19006KT CAVOK
                      TEMPO 1215 9999 FEW015
                      PROB30 TEMPO 1821 9000 FEW006=
200809060800 TAF LMML 060800Z 060918 14004KT 9999 FEW015
                      BECMG 1518 CAVOK=
200809060500 TAF LMML 060500Z 060615 VRB03KT 3000 BR FEW008
                      BECMG 0608 9999 FEW015=
200809060240 LMML 060240Z 060312 VRB03KT 0200 FG BKN001
                      BECMG 0506 5000 SCT005
                      BECMG 0607 9999 FEW015=
200809060200 LMML 060240 060312 VRB03KT 0200 FG BKN001
                      BECMG 0506 5000 SCT005
                      BECMG 0607 9999 FEW015=
200809052300 TAF LMML 052300Z 060009 VRB03KT 9999 FEW006
                      TEMPO 0006 3000 BR SCT003
                      BECMG 0609 9999 FEW015=
200809052000 TAF LMML 052000Z 052106 VRB03KT 9999 FEW006
                      TEMPO 2106 3000 BR SCT003=
200809051400 TAF LMML 051400Z 051524 10005KT CAVOK
                      PROB40 TEMPO 2124 8000 SCT011=
200809051100 TAF LMML 051100Z 051221 12006KT CAVOK
                      PROB30 TEMPO 1221 9999 FEW015=
200809050800 TAF LMML 050800Z 050918 12008KT CAVOK
                      PROB30 TEMPO 0918 9999 FEW015=
200809050500 TAF LMML 050500Z 050615 04005KT CAVOK
                      PROB40 TEMPO 9999 FEW015=
200809050200 TAF LMML 050200Z 050312 VRB03KT CAVOK
                      PROB30 TEMPO 0306 6000 BKN005
                      PROB30 TEMPO 0612 9999 FEW015=
200809042300 TAF LMML 042300Z 050009 VRB03KT CAVOK
                      PROB30 TEMPO 0006 9000 FEW008=
200809042000 TAF LMML 042000Z 042106 VRB03KT CAVOK
                      PROB30 TEMPO 2306 7000 SCT008=
200809041700 TAF LMML 041700Z 041803 VRB03KT CAVOK
                      PROB30 TEMPO 1803 8000 FEW010=
200809041400 TAF LMML 041400Z 041524 15006KT 9999 FEW015=
200809041100 TAF LMML 041100Z 041221 15008KT 9999 FEW018=
200809040800 TAF LMML 040800Z 040918 12007KT 9999 FEW015=
200809040500 TAF LMML 040500Z 040615 15006KT CAVOK
                      BECMG 0609 9999 FEW015=
200809040200 TAF LMML 040200Z 040312 17005KT CAVOK
                      TEMPO 0306 9000 FEW011
                      PROB30 TEMPO 0305 5000 BR BKN005
                      BECMG 0609 9999 FEW015=
200809032300 TAF LMML 032300Z 040009 16005KT CAVOK
                      TEMPO 0006 8000 FEW011
                      PROB30 TEMPO 0005 5000 BR BKN005
                      BECMG 0609 9999 FEW015=
200809032000 TAF LMML 032000Z 032106 17004KT 9999 FEW011
                      PROB30 TEMPO 2106 7000 BKN005=
200809031700 TAF LMML 031700Z 031803 17005KT CAVOK
                      TEMPO 1803 9999 FEW020
                      PROB30 TEMPO 2103 8000 BKN008=
200809031400 TAF LMML 031400Z 031524 18005KT CAVOK
                      TEMPO 1524 9999 FEW025
                      PROB30 TEMPO 2124 8000 BKN008=
200809031100 TAF LMML 031100Z 031221 18005KT CAVOK
                      TEMPO 1221 FEW025=
200809030800 TAF LMML 030800Z 030918 18005KT CAVOK
                      PROB30 TEMPO 0918 FEW020=
200809030500 TAF LMML 030500Z 030615 25005KT 9999 FEW018 SCT120=
200809030200 TAF LMML 030200Z 030312 23005KT 9999 FEW015 SCT100
                      PROB30 TEMPO 0307 4000 TSRA BKN020CB=
200809022300 TAF LMML 022300Z 030009 20005KT 9999 FEW018 SCT100
                      PROB40 TEMPO 0006 9000 BKN010
                      PROB30 TEMPO 0006 8000 TSRA BKN040CB=
200809022000 TAF LMML 022000Z 022106 25005KT 9999 FEW018 SCT100
                      PROB40 TEMPO 2306 9000 BKN010
                      PROB30 TEMPO 2106 8000 TSRA BKN080CB=
200809021700 TAF LMML 021700Z 021803 24007KT 9999 FEW015 SCT100
                      TEMPO 2103 9000 BKN010
                      PROB30 TEMPO 2103 8000 TSRA BKN009 BKN080CB=
200809021400 TAF LMML 021400Z 021524 25008KT 9999 FEW025
                      PROB30 TEMPO 2124 9000 BKN010=
200809021100 TAF LMML 021100Z 021221 26009KT 9999 FEW025 SCT100=
200809020800 TAF LMML 020800Z 020918 26009KT 9999 SCT020=
200809020500 TAF LMML 020500Z 020615 26008KT 9999 SCT015=
200809020200 TAF LMML 020200Z 020312 25005KT 9999 SCT006 SCT120
                      PROB30 TEMPO 0305 8000 BKN005=
200809012300 TAF LMML 012300Z 020009 27005KT 9999 FEW012 SCT120=
200809012000 TAF LMML 012000Z 012106 25006KT CAVOK
                      PROB30 TEMPO 2105 9999 SCT012 BKN200=
200809011700 TAF LMML 011700Z 011803 27010KT 9999 FEW020
                      PROB30 TEMPO 0003 9000 BKN011=
200809011400 TAF LMML 011400Z 011524 26008KT 9999 FEW020=
200809011145 LMML 011145Z 011221 29008KT 9999 FEW020=
200809011100 LMML 011100Z 121221 27008KT 9999 FEW020=
200809010800 TAF LMML 010800Z 010918 20008KT 9999 FEW025=
200809010500 TAF LMML 010500Z 010615 25006KT CAVOK=
200809010200 TAF LMML 010200Z 010312 28005KT CAVOK
                      PROB30 TEMPO 0306 FEW015=

###################################
#  large TAF from LMML
###################################
200810012300 TAF LMML 012300Z 020606 31010KT 9999 FEW015=
200810011700 TAF LMML 011700Z 020024 29010KT 9999 FEW012
                      PROB40 TEMPO 0006 8000 SHRA BKN010
                      PROB30 TEMPO 0107 BKN012=
200810011100 TAF LMML 011100Z 011818 29010KT 9999 SCT015
                      PROB40 TEMPO 1806 8000 SHRA BKN015=
200810010500 TAF LMML 010500Z 011212 25008KT 9999 SCT015
                      TEMPO 1215 8000 SHRA BKN015
                      PROB30 TEMPO 1215 5000 TSRA BKN015CB
                      BECMG 0306 31013KT
                      BECMG 0609 29015G25KT=
200809302300 TAF LMML 302300Z 010606 10007KT 9999 SCT014 SCT070
                      TEMPO 0612 8000 SHRA BKN010
                      BECMG 1417 23010KT
                      BECMG 2124 29013KT=
200809301700 TAF LMML 301700Z 010024 10006KT 9999 FEW015 BKN100
                      TEMPO 0012 8000 RA BKN015
                      PROB30 TEMPO 0004 8000 TSRA BKN020CB
                      BECMG 1821 31010KT=
200809301100 TAF LMML 301100Z 301818 09007KT 9999 FEW020
                      TEMPO 1812 8000 RA BKN010 BKN080
                      PROB30 TEMPO 1809 5000 TSRA BKN020CB=
200809300500 TAF LMML 300500Z 301212 14010KT 9999 FEW035 SCT100
                      TEMPO 1206 5000 RA BKN030 BKN080
                      PROB30 TEMPO 1806 5000 TSRA BKN020CB=
200809292300 TAF LMML 292300Z 300606 14010KT 9999 FEW035
                      PROB30 TEMPO 1506 5000 RA BKN040 BKN080=
200809291700 TAF LMML 291700Z 300024 09008KT 9999 FEW030 SCT100 BKN200
                      TEMPO 0924 8000 RA
                      PROB30 TEMPO 2024 5000 TSRA BKN015CB=
200809291100 TAF LMML 291100Z 291818 08005KT 9999 SCT030 SCT120
                      TEMPO 0618 7000 RA BKN015
                      PROB40 TEMPO 1509 4000 TSRA BKN015CB
                      BECMG 1518 09015KT=
200809290500 TAF LMML 290500Z 291212 30005KT 9999 FEW030
                      TEMPO 0612 9000 RA
                      BECMG 0609 13010KT
                      PROB30 TEMPO 0912 5000 TSRA BKN015CB=
200809282300 TAF LMML 282300Z 290606 30005KT 9999 FEW025=
200809281700 TAF LMML 281700Z 290024 VRB03KT 9999 FEW025=
200809281100 TAF LMML 281100Z 281818 03005KT 9999 FEW020=
200809280500 LMML 280500Z 281212 33004KT 9999 FEW030=
200809272300 TAF LMML 272300Z 280606 04007KT 9999 FEW030=
200809271700 TAF LMML 271700Z 280024 04007KT 9999 FEW030=
200809271100 TAF LMML 271100Z 271818 34005KT 9999 FEW030
                      TEMPO 1824 9000 RA
                      BECMG 0609 04010KT=
200809270500 TAF LMML 270500Z 271212 31008KT 9999 FEW020 BKN080 OVC200
                      TEMPO 1206 8000 RA=
200809262300 TAF LMML 262300Z 270606 30007KT 9999 FEW020 BKN090 OVC200
                      PROB30 TEMPO 0618 8000 RA=
200809261700 TAF LMML 261700Z 270024 30009KT 9999 FEW025
                      PROB40 TEMPO 0024 8000 SHRA BKN018
                      PROB30 TEMPO 0018 5000 TSRA BKN015CB=
200809261100 TAF LMML 261100Z 261818 31008KT 9999 FEW025
                      TEMPO 1818 8000 SHRA BKN018
                      PROB30 TEMPO 2218 5000 TSRA BKN015CB=
200809260500 TAF LMML 260500Z 261212 31012KT 9999 FEW025
                      TEMPO 0012 8000 RA=
200809252300 TAF LMML 252300Z 260606 30013KT 9999 FEW025
                      PROB30 TEMPO 0006 8000 SHRA=
200809251700 LMML 251700Z 260024 30010KT 9999 SCT020 SCT100 BKN200
                      PROB30 TEMPO 1524 7000 SHRA BKN015=
200809251100 TAF LMML 251100Z 251818 30010KT 9999 FEW020 SCT050
                      PROB30 TEMPO 1818 8000 SHRA=
200809250500 TAF LMML 250500Z 251212 30012KT 9999 FEW025
                      TEMPO 1218 9000 SHRA=
200809242300 TAF LMML 242300Z 250606 30015KT 9999 FEW020
                      PROB30 TEMPO 0618 9000 SHRA=
200809241700 TAF LMML 241700Z 250024 30015KT 9999 FEW030 SCT100
                      PROB30 TEMPO 1218 8000 SHRA FEW025 BKN070=
200809241100 TAF LMML 241100Z 241818 29008KT 9999 FEW025 SCT080=
200809240500 TAF LMML 240500Z 241212 30012KT 9999 FEW025
                      PROB30 TEMPO 1212 7000 SHRA
                      PROB30 TEMPO 2212 TSRA SCT018CB=
200809232300 TAF LMML 232300Z 240606 30012KT 9999 FEW025
                      TEMPO 0612 7000 SHRA
                      PROB30 TEMPO 0612 5000 TSRA BKN018CB
                      PROB30 TEMPO 2006 7000 SHRA=
200809231700 TAF LMML 231700Z 240024 15005KT 9999 SCT020
                      TEMPO 0012 7000 SHRA
                      TEMPO 0012 4000 TSRA BKN018CB=
200809231100 TAF LMML 231100Z 231818 15005KT 9999 FEW030
                      TEMPO 2112 8000 SHRA
                      PROB30 TEMPO 0012 5000 TSRA BKN015CB=
200809230500 TAF LMML 230500Z 231212 14007KT 9999 SCT020 BKN100
                      TEMPO 1212 8000 RA
                      PROB30 TEMPO 0006 5000 TSRA BKN015CB
                      BECMG 0912 30015KT=
200809222300 TAF LMML 222300Z 230606 15006KT 9999 FEW025 SCT060 BKN100
                      PROB30 TEMPO 0606 8000 RA
                      PROB30 TEMPO 0306 5000 TSRA BKN015CB=
200809221700 TAF LMML 221700Z 230024 12005KT 9999 SCT025
                      PROB40 TEMPO 0024 6000 SHRA BKN015
                      PROB30 TEMPO 0024 TSRA BKN015CB=
200809221100 TAF LMML 221100Z 221818 32005KT 9999 SCT030
                      PROB40 TEMPO 1818 6000 SHRA BKN015
                      PROB30 TEMPO 1818 TSRA BKN015CB
                      BECMG 0407 12010KT=
200809220500 TAF LMML 220500Z 221212 31010KT 9999 FEW025
                      PROB30 TEMPO 0412 5000 SHRA BKN015 BKN060=
200809212300 TAF LMML 212300Z 220606 31010KT 9999 SCT025 SCT040
                      TEMPO 0612 5000 SHRA BKN015
                      PROB30 TEMPO 0812 5000 TSRA BKN015CB=
200809211700 TAF LMML 211700Z 220024 29009KT 9999 FEW025 SCT100
                      PROB30 TEMPO 0012 8000 SHRA BKN015=
200809211100 TAF LMML 211100Z 211818 30005KT 9999 FEW030 SCT060
                      PROB30 TEMPO 0012 8000 SHRA BKN015
                      BECMG 0912 30015KT=
200809210500 TAF LMML 210500Z 211212 31012KT 9999 FEW030=
200809202300 TAF LMML 202300Z 210606 31015KT 9999 FEW030=
200809201700 TAF LMML 201700Z 210024 33005KT 9999 FEW030
                      PROB30 TEMPO 0006 5000 SHRA BKN020=
200809201100 TAF LMML 201100Z 201818 06010KT 9999 FEW020
                      PROB30 TEMPO 1806 5000 SHRA BKN020=
200809200500 TAF LMML 200500Z 201212 35013KT 9999 SCT025
                      BECMG 1518 05012KT
                      BECMG 0003 34008KT=
200809192300 TAF LMML 192300Z 200606 30017G27KT 9999 SCT020
                      TEMPO 0610 8000 SHRA BKN015
                      BECMG 0912 36013KT
                      TEMPO 1521 8000 SHRA
                      BECMG 1518 06012KT
                      BECMG 2201 35008KT=
200809191700 TAF LMML 191700Z 200024 32016G26KT 9999 SCT025
                      TEMPO 0024 7000 SHRA
                      PROB30 TEMPO 0004 4000 TSRA
                      BECMG 1013 02010KT=
200809191100 TAF LMML 191100Z 191818 27010KT 9999 SCT025
                      TEMPO 1806 7000 SHRA BKN015
                      PROB30 TEMPO 2103 4000 TSRA BKN015CB
                      BECMG 2302 29015G25KT=
200809190500 TAF LMML 190500Z 191212 25008KT 9999 SCT025 BKN100 OVC250
                      TEMPO 1521 8000 RA BKN015
                      TEMPO 2112 8000 SHRA BKN015
                      PROB30 TEMPO 2106 5000 TSRA BKN015CB
                      BECMG 0306 30015G25KT=
200809182300 TAF LMML 182300Z 190606 24007KT 9999 SCT025 BKN200
                      TEMPO 1518 8000 RA BKN015
                      PROB30 TEMPO 1806 5000 TSRA BKN015CB
                      BECMG 0306 30015G25KT=
200809181700 TAF LMML 181700Z 190024 10005KT 9999 SCT020
                      BECMG 1215 23010KT
                      TEMPO 1824 8000 SHRA BKN015
                      BECMG 1922 29013KT
                      PROB30 TEMPO 2024 3000 TSRA BKN015 BKN060CB=
200809181100 TAF LMML 181100Z 181818 07005KT 9999 FEW025
                      BECMG 1114 25010KT
                      PROB30 TEMPO 1518 8000 SHRA BKN015=
200809180500 TAF LMML 180500Z 181212 16005KT 9999 FEW025=
200809172300 TAF LMML 172300Z 180606 09006KT 9999 FEW025=
200809171700 TAF LMML 171700Z 180024 28004KT CAVOK
                      BECMG 0608 9999 FEW030=
200809171100 TAF LMML 171100Z 171818 30008KT 9999 FEW030=
200809170500 TAF LMML 170500Z 171212 30008KT 9999 FEW025=
200809162300 TAF LMML 162300Z 170606 30010KT 9999 FEW025=
200809161700 TAF LMML 161700Z 170024 30010KT 9999 FEW035=
200809161100 TAF LMML 161100Z 161818 29012KT 9999 FEW030=
200809160500 TAF LMML 160500Z 161212 28016G26KT 9999 SCT025
                      TEMPO 1216 8000 SHRA BKN015
                      BECMG 1821 29011KT=
200809152300 TAF LMML 152300Z 160606 29012KT 9999 SCT030
                      BECMG 0609 28015G25KT
                      PROB30 TEMPO 0915 8000 SHRA
                      BECMG 1821 28011KT=
200809151700 TAF LMML 151700Z 160024 30015KT 9999 FEW025=
200809151100 TAF LMML 151100Z 151818 30015KT 9999 FEW025=
200809150500 TAF LMML 150500Z 151212 30015G25KT 9999 FEW025
                      PROB30 TEMPO 1212 8000 SHRA BKN015=
200809142300 TAF LMML 142300Z 150606 32015G25KT 9999 FEW020
                      PROB40 TEMPO 1212 8000 SHRA BKN015
                      PROB30 TEMPO 1203 TSRA BKN012CB=
200809141700 TAF LMML 141700Z 150024 30018G28KT 9999 FEW020
                      TEMPO 0006 8000 SHRA BKN015
                      PROB30 TEMPO 0006 5000 TSRA BKN012CB
                      TEMPO 2124 8000 SHRA BKN015=
200809141100 TAF LMML 141100Z 141818 32015KT 9999 SCT020
                      TEMPO 1818 32015G25KT
                      TEMPO 1809 8000 SHRA BKN015
                      PROB30 TEMPO 2103 5000 TS BKN015CB=
200809140500 TAF LMML 140500Z 141212 30015G25KT 9999 SCT018
                      TEMPO 1212 8000 SHRA FEW009 BKN080
                      PROB30 TEMPO 1212 5000 TSRA BKN050CB=
200809132300 TAF LMML 132300Z 140606 30008KT 9999 FEW018
                      PROB40 TEMPO 0606 8000SHRA SCT008 BKN100
                       PROB30
                      TEMPO 0606 5000 TSRA SCT005 BKN030CB
                      BECMG 1215 33015G25KT=
200809131700 TAF LMML 131700Z 140024 24008KT 9999 FEW015 SCT100
                      TEMPO 0024 8000 SHRA BKN015
                      PROB40 TEMPO 0024 3000 TSRA BKN012CB
                      BECMG 0609 30010KT
                      BECMG 1518 31015G25KT=
200809131100 TAF LMML 131100Z 131818 29008KT 9999 FEW015 BKN120
                      TEMPO 2118 8000 RA
                      PROB30 TEMPO 0018 3000 TSRA BKN015CB=
200809130500 TAF LMML 130500Z 131212 25008KT 9999 FEW012 BKN200
                      TEMPO 2112 8000 RA
                      BECMG 0204 31012KT
                      PROB30 TEMPO 0612 TSRA BKN015CB=
200809122300 TAF LMML 122300Z 130606 23005KT CAVOK
                      TEMPO 0606 9999 FEW014
                      PROB30 TEMPO 0006 8000 BKN009
                      BECMG 0306 32010KT=
200809121700 TAF LMML 121700Z 130024 VRB03KT 8000 FEW008
                      PROB30 TEMPO 0306 5000 BR BKN008
                      BECMG 0912 9999 FEW015=
200809121100 TAF LMML 121100Z 121818 VRB03KT 9000 FEW010
                      PROB30 TEMPO 0006 5000 BKN005=
200809120500 TAF LMML 120500Z 121212 24007KT 9999 FEW020
                      BECMG 1518 CAVOK
                      TEMPO 1806 9999 FEW008
                      PROB30 TEMPO 0006 8000 BKN006
                      BECMG 0609 9999 FEW015=
200809112300 TAF LMML 112300Z 120606 24006KT CAVOK
                      BECMG 0609 9999 FEW015
                      BECMG 1518 CAVOK
                      TEMPO 1806 9999 FEW011
                      PROB30 TEMPO 0006 8000 BKN007=
200809111700 TAF LMML 111700Z 120024 25005KT CAVOK
                      PROB30 TEMPO 0006 8000 BKN008
                      TEMPO 0324 9999 FEW020=
200809111100 TAF LMML 111100Z 111818 20005KT 9999 FEW020
                      TEMPO 1818 CAVOK
                      PROB30 TEMPO 0006 8000 BKN008=
200809110500 TAF LMML 110500Z 111212 18005KT 9999 FEW020 SCT200
                      PROB30 TEMPO 1806 7000 BKN007=
200809102300 TAF LMML 102300Z 110606 14006KT 9999 SCT012
                      PROB30 TEMPO 2106 8000 BKN011=
200809101700 TAF LMML 101700Z 110024 13005KT 9999 FEW012
                      PROB30 TEMPO 0307 8000 BKN012=
200809101100 TAF LMML 101100Z 101818 13005KT 9999 SCT020
                      PROB30 TEMPO 0004 8000 BKN015=
200809100500 TAF LMML 100500Z 101212 10008KT CAVOK
                      PROB40 TEMPO 0306 8000 BKN012=
200809092300 TAF LMML 092300Z 100606 10008KT 9999 FEW015
                      PROB30 TEMPO 0206 8000 BKN008=
200809091700 TAF LMML 091700Z 100024 09005KT CAVOK
                      TEMPO 0005 8000 FEW004
                      PROB30 TEMPO 0305 5000 BR
                      BECMG 0811 9999 FEW025=
200809091100 TAF LMML 091100Z 091818 08005KT CAVOK
                      BECMG 0810 9999 FEW025=
200809090500 TAF LMML 090500Z 091212 06006KT CAVOK
                      PROB30 TEMPO 2206 9000 FEW008
                      PROB30 TEMPO 0612 9999 FEW020=
200809082300 TAF LMML 082300Z 090606 04006KT CAVOK
                      PROB30 TEMPO 2206 9000 FEW008=
200809081700 TAF LMML 081700Z 090024 VRB03KT CAVOK
                      PROB30 TEMPO 0206 8000 FEW012
                      BECMG 0710 06010KT=
200809081100 TAF LMML 081100Z 081818 31008KT CAVOK
                      PROB30 TEMPO 0608 06005KT 9999 FEW015=
200809080500 TAF LMML 080500Z 081212 29008KT CAVOK
                      TEMPO 1215 9999 FEW025
                      PROB30 TEMPO 0005 9000 FEW011
                      BECMG 0912 9999 FEW015=
200809072300 TAF LMML 072300Z 080606 30007KT CAVOK
                      TEMPO 0915 9999 FEW020
                      PROB30 TEMPO 0006 9000 FEW008=
200809071700 TAF LMML 071700Z 080024 29009KT CAVOK
                      PROB30 TEMPO 0006 8000 FEW006=
200809071100 TAF LMML 071100Z 071818 31005KT CAVOK=
200809070500 TAF LMML 070500Z 071212 30008KT CAVOK
                      TEMPO 1512 9999 FEW025=
200809062300 TAF LMML 062300Z 070606 23008KT CAVOK
                      BECMG 1013 9999 FEW025=
200809061700 TAF LMML 061700Z 070024 24005KT CAVOK
                      TEMPO 0006 8000 FEW006
                      PROB30 TEMPO 0006 2000 BR SCT003=
200809061100 TAF LMML 061100Z 061818 18004KT CAVOK
                      TEMPO 1806 9000 FEW006
                      PROB30 TEMPO 0006 2000 BR FEW003=
200809060500 TAF LMML 060500Z 061212 16006KT 9999 FEW018
                      PROB40 TEMPO 2024 8000 FEW006
                      PROB30 TEMPO 0005 3000 BR=
200809052300 TAF LMML 052300Z 060606 14005KT 9999 FEW015 PRB30
                      TEMPO 0306 5000 BR=
200809051100 TAF LMML 051100Z 051818 12005KT 9999 FEW015
                      PROB40 TEMPO 2106 6000 BKN008
                      PROB30 TEMPO 0005 3000 BR BKN006=
200809050500 TAF LMML 050500Z 051212 14005KT CAVOK
                      PROB40 TEMPO 9999 FEW015
                      PROB30 TEMPO 0006 6000 BKN008=
200809042300 TAF LMML 042300Z 050606 15005KT CAVOK
                      PROB30 TEMPO 0606 FEW015=
200809041700 TAF LMML 041700Z 050024 VRB03KT 8000 FEW008
                      PROB30 TEMPO 0006 5000 MIFG SCT003
                      BECMG 0811 CAVOK=
200809041100 TAF LMML 041100Z 041818 VRB03KT 9999 FEW010
                      PROB30 TEMPO 0006 5000 MIFG SCT003=
200809040500 TAF LMML 040500Z 041212 12007KT 9999 FEW020
                      BECMG 1518 CAVOK
                      TEMPO 2106 9000 FEW011
                      PROB30 TEMPO 0006 5000 BR SCT006=
200809032300 TAF LMML 032300Z 040606 14006KT 9999 FEW015
                      BECMG 1417 CAVOK
                      TEMPO 2106 9000 FEW011
                      PROB30 TEMPO 0006 5000 BR FEW008=
200809031700 TAF LMML 031700Z 040024 13005KT CAVOK
                      TEMPO 0018 9999 FEW025
                      PROB30 TEMPO 0006 8000 BKN008=
200809031100 TAF LMML 031100Z 031818 18004KT CAVOK
                      TEMPO 1818 9999 FEW015
                      PROB30 TEMPO 2106 9000 BKN008=
200809030500 TAF LMML 030500Z 031212 23005KT 9999 FEW018
                      BECMG 2124 15010KT
                      PROB30 TEMPO 2106 8000 BKN010
                      BECMG 0609 CAVOK=
200809022300 TAF LMML 022300Z 030606 25008KT 9999 FEW025 SCT100
                      BECMG 1417 16010KT CAVOK
                      BECMG 1721 9999 FEW012
                      PROB30 TEMPO 2106 7000 BKN007=
200809021700 TAF LMML 021700Z 030024 23006KT 9999 FEW012 SCT080
                      TEMPO 0006 9000 BKN010
                      PROB30 TEMPO 0006 8000 TSRA BKN009 BKN070CB
                       BECMG 1518 CAVOK
                      TEMPO 1824 9999 FEW011=
200809021200 TAF LMML 021200Z 021818 25008KT 9999 FEW015 SCT080
                      PROB30 TEMPO 2106 9000 BKN010=
200809021100 LMML NIL=
200809020500 TAF LMML 020500Z 021212 26008KT 9999 SCT015 SCT120
                      PROB30 TEMPO 1806 8000 BKN010=
200809012300 TAF LMML 012300Z 020606 26008KT 9999 SCT015 SCT120=
200809011700 TAF LMML 011700Z 020024 27010KT 9999 FEW015
                      PROB30 TEMPO 0005 9000 BKN011=
200809011100 TAF LMML 011100Z 011818 26008KT 9999 FEW015
                      PROB30 TEMPO 0004 9000 BKN011=
200809010500 TAF LMML 010500Z 011212 25006KT CAVOK
                      PROB30 TEMPO 0306 8000 SCT010=
