##########################################################
# Query made at 01/18/2013 16:00:31 UTC
# Time interval: from 09/01/2010 00:00  to 10/01/2010 23:59  UTC
##########################################################

##########################################################
# LMML, Luqa (Malta)
# WMO index: 16597
# Latitude 35-51N. Longitude 014-29E. Altitude 91 m.
##########################################################

###################################
#  METAR/SPECI from LMML
###################################
201010012345 METAR LMML 012345Z 28004KT CAVOK 20/16 Q1017 NOSIG=
201010012330 METAR LMML NIL=
201010012315 METAR LMML 012315Z 27004KT CAVOK 20/16 Q1017 NOSIG=
201010012300 METAR LMML NIL=
201010012245 METAR LMML 012245Z 28005KT CAVOK 20/17 Q1017 NOSIG=
201010012230 METAR LMML NIL=
201010012215 METAR LMML 012215Z 28004KT CAVOK 20/17 Q1017 NOSIG=
201010012200 METAR LMML NIL=
201010012145 METAR LMML 012145Z 28004KT CAVOK 20/17 Q1018 NOSIG=
201010012130 METAR LMML NIL=
201010012115 METAR LMML 012115Z 29004KT 9999 FEW020 SCT250 20/17 Q1018
                        NOSIG=
201010012100 METAR LMML NIL=
201010012045 METAR LMML 012045Z 28005KT 9999 FEW020 SCT250 21/17 Q1017
                        NOSIG=
201010012030 METAR LMML NIL=
201010012015 METAR LMML 012015Z 27005KT 9999 FEW020 SCT250 21/16 Q1017
                        NOSIG=
201010011945 METAR LMML 011945Z 27006KT 220V290 9999 FEW028 21/16 Q1017
                        NOSIG=
201010011930 METAR LMML NIL=
201010011915 METAR LMML 011915Z 28006KT 240V310 9999 FEW028 21/16 Q1017
                        NOSIG=
201010011900 METAR LMML NIL=
201010011845 METAR LMML 011845Z 27005KT 240V300 9999 FEW028 21/16 Q1017
                        NOSIG=
201010011830 METAR LMML NIL=
201010011815 METAR LMML 011815Z 27005KT 240V300 9999 FEW028 21/16 Q1017
                        NOSIG=
201010011800 METAR LMML NIL=
201010011745 METAR LMML 011745Z 28005KT 250V310 9999 FEW028 22/16 Q1016
                        NOSIG=
201010011730 METAR LMML NIL=
201010011715 METAR LMML 011715Z 29006KT 9999 FEW028 22/16 Q1016 NOSIG=
201010011700 METAR LMML NIL=
201010011645 METAR LMML 011645Z 30007KT 9999 FEW028 22/17 Q1016 NOSIG=
201010011630 METAR LMML NIL=
201010011615 METAR LMML 011615Z 29008KT 250V320 9999 FEW028 23/17 Q1016
                        NOSIG=
201010011600 METAR LMML NIL=
201010011545 METAR LMML 011545Z 28009KT 240V340 9999 FEW029 23/16 Q1016
                        NOSIG=
201010011530 METAR LMML NIL=
201010011515 METAR LMML 011515Z 29010KT 250V320 9999 FEW029 23/16 Q1016
                        NOSIG=
201010011500 METAR LMML NIL=
201010011445 METAR LMML 011445Z 29009KT 240V310 9999 FEW029 24/16 Q1016
                        NOSIG=
201010011430 METAR LMML NIL=
201010011415 METAR LMML 011415Z 29011KT 250V330 9999 FEW030 24/16 Q1016
                        NOSIG=
201010011400 METAR LMML NIL=
201010011345 METAR LMML 011345Z 29013KT 260V320 9999 FEW030 24/16 Q1016
                        NOSIG=
201010011330 METAR LMML NIL=
201010011315 METAR LMML 011315Z 31013KT 9999 FEW030 25/16 Q1016 NOSIG=
201010011300 METAR LMML NIL=
201010011245 METAR LMML 011245Z 29013KT 250V320 9999 FEW031 24/15 Q1016
                        NOSIG=
201010011230 METAR LMML NIL=
201010011215 METAR LMML 011215Z 29012KT 260V320 9999 FEW031 24/16 Q1016
                        NOSIG=
201010011200 METAR LMML NIL=
201010011145 METAR LMML 011145Z 29011KT 260V330 9999 FEW031 24/16 Q1016
                        NOSIG=
201010011130 METAR LMML NIL=
201010011115 METAR LMML 011115Z 29012KT 260V320 9999 FEW032 24/16 Q1017
                        NOSIG=
201010011100 METAR LMML NIL=
201010011045 METAR LMML 011045Z 28011KT 250V320 9999 SCT033 24/16 Q1017
                        NOSIG=
201010011015 METAR LMML 011015Z 29012KT 250V320 9999 SCT033 24/16 Q1017
                        NOSIG=
201010011000 METAR LMML NIL=
201010010945 METAR LMML 010945Z 29012KT 250V320 9999 SCT033 24/16 Q1017
                        NOSIG=
201010010930 METAR LMML NIL=
201010010915 METAR LMML 010915Z 30011KT 260V340 9999 FEW030 24/16 Q1017
                        NOSIG=
201010010900 METAR LMML NIL=
201010010845 METAR LMML 010845Z 31011KT 280V350 9999 FEW030 24/16 Q1017
                        NOSIG=
201010010830 METAR LMML NIL=
201010010815 METAR LMML 010815Z 30012KT 9999 FEW025 23/15 Q1017 NOSIG=
201010010800 METAR LMML NIL=
201010010745 METAR LMML 010745Z 31011KT 290V350 9999 FEW025 22/16 Q1017
                        NOSIG=
201010010730 METAR LMML NIL=
201010010715 METAR LMML 010715Z 31010KT 280V340 9999 FEW025 22/16 Q1016
                        NOSIG=
201010010700 METAR LMML NIL=
201010010645 METAR LMML 010645Z 30007KT 9999 FEW030 SCT250 22/16 Q1016
                        NOSIG=
201010010630 METAR LMML NIL=
201010010615 METAR LMML 010615Z 30006KT 9999 FEW030 BKN250 21/16 Q1016
                        NOSIG=
201010010600 METAR LMML NIL=
201010010545 METAR LMML 010545Z 29006KT 9999 FEW030 BKN250 20/16 Q1016
                        NOSIG=
201010010530 METAR LMML NIL=
201010010515 METAR LMML 010515Z 30007KT 9999 FEW030 BKN250 19/16 Q1016
                        NOSIG=
201010010445 METAR LMML 010445Z 29006KT 260V320 9999 FEW035 SCT250 19/16
                        Q1016 NOSIG=
201010010430 METAR LMML NIL=
201010010415 METAR LMML 010415Z 26004KT 240V300 9999 FEW040 19/15 Q1016
                        NOSIG=
201010010400 METAR LMML NIL=
201010010345 METAR LMML 010345Z 27004KT 9999 FEW040 18/15 Q1016 NOSIG=
201010010330 METAR LMML NIL=
201010010315 METAR LMML 010315Z 26004KT 230V290 9999 FEW040 18/15 Q1016
                        NOSIG=
201010010300 METAR LMML NIL=
201010010245 METAR LMML 010245Z 26004KT 9999 FEW040 18/15 Q1016 NOSIG=
201010010230 METAR LMML NIL=
201010010215 METAR LMML 010215Z 26004KT 9999 FEW040 18/14 Q1016 NOSIG=
201010010200 METAR LMML NIL=
201010010145 METAR LMML 010145Z 26004KT 9999 FEW040 18/14 Q1016 NOSIG=
201010010130 METAR LMML NIL=
201010010115 METAR LMML 010115Z 26004KT 9999 FEW040 18/14 Q1016 NOSIG=
201010010100 METAR LMML NIL=
201010010045 METAR LMML 010045Z 27003KT 9999 FEW040 18/14 Q1017 NOSIG=
201010010030 METAR LMML NIL=
201010010015 METAR LMML 010015Z 25004KT 220V280 9999 FEW040 18/14 Q1017
                        NOSIG=
201010010000 METAR LMML NIL=
201009302345 METAR LMML 302345Z 27004KT 240V300 9999 FEW040 18/14 Q1017
                        NOSIG=
201009302330 METAR LMML NIL=
201009302315 METAR LMML 302315Z 26003KT 9999 FEW040 18/14 Q1017 NOSIG=
201009302300 METAR LMML NIL=
201009302245 METAR LMML 302245Z 27003KT 9999 FEW040 18/14 Q1017 NOSIG=
201009302230 METAR LMML NIL=
201009302215 METAR LMML 302215Z 28004KT 240V310 9999 FEW045 19/14 Q1017
                        NOSIG=
201009302145 METAR LMML 302145Z 28004KT 9999 SCT045 19/14 Q1017 NOSIG=
201009302130 METAR LMML NIL=
201009302115 METAR LMML 302115Z 29004KT 9999 SCT045 19/14 Q1017 NOSIG=
201009302045 METAR LMML 302045Z 30005KT 9999 SCT045 19/14 Q1017 NOSIG=
201009302030 METAR LMML NIL=
201009302015 METAR LMML 302015Z 31006KT 9999 SCT044 20/15 Q1017 NOSIG=
201009302000 METAR LMML NIL=
201009301945 METAR LMML 301945Z 32004KT 9999 SCT042 21/15 Q1017 NOSIG=
201009301930 METAR LMML NIL=
201009301915 METAR LMML 301915Z 32004KT 9999 SCT035 20/15 Q1017 NOSIG=
201009301900 METAR LMML NIL=
201009301845 METAR LMML 301845Z 32004KT 9999 SCT035 20/15 Q1017 NOSIG=
201009301830 METAR LMML NIL=
201009301815 METAR LMML 301815Z 32005KT 9999 SCT034 20/15 Q1017 NOSIG=
201009301745 METAR LMML 301745Z 31007KT 9999 SCT039 20/15 Q1017 NOSIG=
201009301715 METAR LMML 301715Z 32006KT 290V350 9999 SCT036 21/15 Q1017
                        NOSIG=
201009301700 METAR LMML NIL=
201009301645 METAR LMML 301645Z 33007KT 300V010 9999 SCT034 21/15 Q1017
                        NOSIG=
201009301630 METAR LMML NIL=
201009301615 METAR LMML 301615Z 33008KT 9999 FEW034 21/15 Q1017 NOSIG=
201009301545 METAR LMML 301545Z 32008KT 290V350 9999 FEW034 23/15 Q1017
                        NOSIG=
201009301530 METAR LMML NIL=
201009301515 METAR LMML 301515Z 33008KT 300V360 9999 FEW034 23/15 Q1017
                        NOSIG=
201009301500 METAR LMML NIL=
201009301445 METAR LMML 301445Z 34009KT 310V030 9999 SCT033 23/16 Q1017
                        NOSIG=
201009301430 METAR LMML NIL=
201009301415 METAR LMML 301415Z 34008KT 9999 SCT033 23/16 Q1017 NOSIG=
201009301400 METAR LMML NIL=
201009301345 METAR LMML 301345Z 34008KT 9999 BKN030 23/16 Q1017 NOSIG=
201009301330 METAR LMML NIL=
201009301315 METAR LMML 301315Z 34008KT 250V360 9999 BKN028 23/16 Q1017
                        NOSIG=
201009301300 METAR LMML NIL=
201009301245 METAR LMML 301245Z 33009KT 300V360 9999 BKN028 23/17 Q1017
                        NOSIG=
201009301230 METAR LMML NIL=
201009301215 METAR LMML 301215Z 34010KT 300V010 9999 BKN026 24/17 Q1017
                        NOSIG=
201009301145 METAR LMML 301145Z 32008KT 290V350 9999 BKN025 23/17 Q1018
                        NOSIG=
201009301130 METAR LMML NIL=
201009301115 METAR LMML 301115Z 33008KT 300V360 9999 BKN026 23/17 Q1018
                        NOSIG=
201009301100 METAR LMML NIL=
201009301045 METAR LMML 301045Z 33008KT 300V010 9999 BKN027 24/17 Q1018
                        NOSIG=
201009301030 METAR LMML NIL=
201009301015 METAR LMML 301015Z 34008KT 320V020 9999 BKN026 24/17 Q1018
                        NOSIG=
201009301000 METAR LMML NIL=
201009300945 METAR LMML 300945Z 34007KT 290V020 9999 BKN024 23/17 Q1018
                        NOSIG=
201009300930 METAR LMML NIL=
201009300915 METAR LMML 300915Z 33007KT 9999 BKN024 22/17 Q1018 NOSIG=
201009300900 METAR LMML NIL=
201009300845 METAR LMML 300845Z 30010KT 9999 BKN026 22/17 Q1018 NOSIG=
201009300830 METAR LMML NIL=
201009300815 METAR LMML 300815Z 04004KT 360V070 9999 BKN027 23/17 Q1017
                        NOSIG=
201009300800 METAR LMML NIL=
201009300745 METAR LMML 300745Z 03004KT 350V060 9999 BKN024 23/18 Q1017
                        NOSIG=
201009300730 METAR LMML NIL=
201009300715 METAR LMML 300715Z 02003KT 9999 BKN024 23/18 Q1017 NOSIG=
201009300700 METAR LMML NIL=
201009300645 METAR LMML 300645Z VRB02KT 9999 SCT022 22/20 Q1017 NOSIG=
201009300630 METAR LMML NIL=
201009300615 METAR LMML 300615Z 35003KT 9999 SCT021 20/18 Q1017 NOSIG=
201009300545 METAR LMML 300545Z 32004KT 9999 SCT021 20/18 Q1017 NOSIG=
201009300530 METAR LMML NIL=
201009300515 METAR LMML 300515Z 31003KT 9999 FEW017 20/18 Q1016 NOSIG=
201009300445 METAR LMML 300445Z VRB02KT 9999 SCT019 20/18 Q1016 NOSIG=
201009300430 METAR LMML NIL=
201009300415 METAR LMML 300415Z 32003KT 9999 FEW022 20/17 Q1016 NOSIG=
201009300400 METAR LMML NIL=
201009300345 METAR LMML 300345Z VRB02KT 9999 FEW023 20/17 Q1016 NOSIG=
201009300330 METAR LMML NIL=
201009300315 METAR LMML 300315Z VRB02KT 9999 FEW023 20/17 Q1016 NOSIG=
201009300300 METAR LMML NIL=
201009300245 METAR LMML 300245Z VRB02KT 9999 FEW020 20/17 Q1016 NOSIG=
201009300230 METAR LMML NIL=
201009300215 METAR LMML 300215Z VRB02KT 9999 FEW020 20/17 Q1016 NOSIG=
201009300200 METAR LMML NIL=
201009300145 METAR LMML 300145Z 30003KT 9999 FEW024 20/17 Q1016 NOSIG=
201009300130 METAR LMML NIL=
201009300115 METAR LMML 300115Z 30005KT 9999 FEW024 20/17 Q1016 NOSIG=
201009300100 METAR LMML NIL=
201009300045 METAR LMML 300045Z 30004KT 9999 FEW025 20/18 Q1016 NOSIG=
201009300030 METAR LMML NIL=
201009300015 METAR LMML 300015Z 31006KT 9999 FEW025 20/18 Q1016 NOSIG=
201009300000 METAR LMML NIL=
201009292345 METAR LMML 292345Z 30007KT 9999 FEW025 21/18 Q1016 NOSIG=
201009292315 METAR LMML 292315Z 31009KT 9999 FEW025 20/18 Q1016 NOSIG=
201009292300 METAR LMML NIL=
201009292245 METAR LMML 292245Z 31010KT 9999 FEW025 21/18 Q1016 NOSIG=
201009292230 METAR LMML NIL=
201009292215 METAR LMML 292215Z 30010KT 9999 FEW025 21/18 Q1016 NOSIG=
201009292200 METAR LMML NIL=
201009292145 METAR LMML 292145Z 31011KT 9999 FEW025 21/18 Q1016 NOSIG=
201009292130 METAR LMML NIL=
201009292115 METAR LMML 292115Z 31010KT 9999 FEW025 20/18 Q1016 NOSIG=
201009292100 METAR LMML NIL=
201009292045 METAR LMML 292045Z 31011KT 9999 FEW025 21/18 Q1016 NOSIG=
201009292030 METAR LMML NIL=
201009292015 METAR LMML 292015Z 31011KT 9999 FEW025 21/18 Q1016 NOSIG=
201009292000 METAR LMML NIL=
201009291945 METAR LMML 291945Z 32007KT 280V350 9999 FEW025 21/18 Q1016
                        NOSIG=
201009291930 METAR LMML NIL=
201009291915 METAR LMML 291915Z 31009KT 9999 FEW030 21/18 Q1016 NOSIG=
201009291900 METAR LMML NIL=
201009291845 METAR LMML 291845Z 31012KT 9999 FEW030 21/18 Q1016 NOSIG=
201009291830 METAR LMML NIL=
201009291815 METAR LMML 291815Z 31013KT 9999 FEW030 21/17 Q1015 NOSIG=
201009291800 METAR LMML NIL=
201009291745 METAR LMML 291745Z 30013KT 9999 FEW030 22/17 Q1015 NOSIG=
201009291730 METAR LMML NIL=
201009291715 METAR LMML 291715Z 30012KT 9999 FEW030 22/16 Q1015 NOSIG=
201009291700 METAR LMML NIL=
201009291645 METAR LMML 291645Z 30011KT 9999 FEW030 22/16 Q1014 NOSIG=
201009291630 METAR LMML NIL=
201009291615 METAR LMML 291615Z 30012KT 9999 FEW030 23/16 Q1014 NOSIG=
201009291600 METAR LMML NIL=
201009291545 METAR LMML 291545Z 31014KT 9999 FEW030 23/14 Q1014 NOSIG=
201009291530 METAR LMML NIL=
201009291515 METAR LMML 291515Z 30015KT 9999 FEW030 24/15 Q1014 NOSIG=
201009291500 METAR LMML NIL=
201009291445 METAR LMML 291445Z 31017KT 9999 FEW030 24/14 Q1014 NOSIG=
201009291430 METAR LMML NIL=
201009291415 METAR LMML 291415Z 30014KT 270V350 9999 FEW030 25/13 Q1014
                        NOSIG=
201009291400 METAR LMML NIL=
201009291345 METAR LMML 291345Z 30015KT 260V330 9999 FEW030 25/14 Q1014
                        NOSIG=
201009291330 METAR LMML NIL=
201009291315 METAR LMML 291315Z 29015KT 260V320 9999 FEW030 25/15 Q1014
                        NOSIG=
201009291300 METAR LMML NIL=
201009291245 METAR LMML 291245Z 29013KT 260V320 9999 FEW030 25/16 Q1014
                        NOSIG=
201009291215 METAR LMML 291215Z 29012KT 260V320 9999 FEW030 25/16 Q1014
                        NOSIG=
201009291200 METAR LMML NIL=
201009291145 METAR LMML 291145Z 30011KT 240V330 9999 FEW030 25/16 Q1013
                        NOSIG=
201009291130 METAR LMML NIL=
201009291115 METAR LMML 291115Z 28011KT 9999 FEW025 25/16 Q1013 NOSIG=
201009291100 METAR LMML NIL=
201009291045 METAR LMML 291045Z 29011KT 250V320 9999 FEW025 25/14 Q1013
                        NOSIG=
201009291030 METAR LMML NIL=
201009291015 METAR LMML 291015Z 30009KT 280V340 9999 FEW025 25/16 Q1014
                        NOSIG=
201009291000 METAR LMML NIL=
201009290945 METAR LMML 290945Z 34009KT 310V010 9999 FEW025 25/16 Q1013
                        NOSIG=
201009290930 METAR LMML NIL=
201009290915 METAR LMML 290915Z 33010KT 9999 FEW029 24/17 Q1013 NOSIG=
201009290900 METAR LMML NIL=
201009290845 METAR LMML 290845Z 32009KT 9999 FEW025 24/17 Q1013 NOSIG=
201009290830 METAR LMML NIL=
201009290815 METAR LMML 290815Z 33011KT 310V010 9999 FEW027 23/17 Q1013
                        NOSIG=
201009290800 METAR LMML NIL=
201009290745 METAR LMML 290745Z 32011KT 9999 FEW020 23/17 Q1013 NOSIG=
201009290715 METAR LMML 290715Z 32008KT 9999 FEW020 22/19 Q1012 NOSIG=
201009290700 METAR LMML NIL=
201009290645 METAR LMML 290645Z 31006KT 9999 FEW020 21/19 Q1012 NOSIG=
201009290630 METAR LMML NIL=
201009290615 METAR LMML 290615Z 31004KT 9999 FEW015 SCT250 20/18 Q1012
                        NOSIG=
201009290600 METAR LMML NIL=
201009290545 METAR LMML 290545Z 31005KT 9999 FEW015 SCT120 20/18 Q1012
                        NOSIG=
201009290530 METAR LMML NIL=
201009290515 METAR LMML 290515Z 32006KT 9999 FEW015 BKN120 19/18 Q1012
                        NOSIG=
201009290500 METAR LMML NIL=
201009290445 METAR LMML 290445Z 30004KT 260V320 9999 FEW015 BKN120 20/18
                        Q1012 TEMPO 5000 TS BKN007 BKN015CB=
201009290430 METAR LMML NIL=
201009290415 METAR LMML 290415Z 23003KT 9999 -RA FEW015 BKN120 20/18 Q1012
                        TEMPO 5000 TS BKN007 BKN015CB=
201009290400 METAR LMML NIL=
201009290345 METAR LMML 290345Z VRB02KT 9999 -RA FEW020 SCT100 BKN120
                        20/18 Q1011 TEMPO 5000 TS BKN007
                        BKN015CB=
201009290330 METAR LMML NIL=
201009290315 METAR LMML 290315Z 06003KT 9999 -RA FEW020 SCT100 BKN120
                        20/18 Q1011 TEMPO 5000 TS BKN007
                        BKN015CB=
201009290300 METAR LMML NIL=
201009290245 METAR LMML 290245Z 31005KT 290V350 9999 -RA FEW020 OVC090
                        20/18 Q1013 TEMPO 5000 TS BKN007
                        BKN015CB=
201009290230 METAR LMML NIL=
201009290215 METAR LMML 290215Z 29013KT 250V320 9999 -RA FEW020 BKN120
                        20/18 Q1014 TEMPO 5000 TS BKN007
                        BKN015CB=
201009290200 METAR LMML NIL=
201009290145 METAR LMML 290145Z 28007KT 250V310 9999 -RA FEW018 BKN110
                        20/18 Q1014 TEMPO 5000 TS BKN007
                        BKN015CB=
201009290115 METAR LMML 290115Z 26011KT 220V310 8000 TSRA SCT018CB BKN080
                        22/19 Q1015 TEMPO 5000 TS BKN007
                        BKN015CB=
201009290100 METAR LMML NIL=
201009290045 METAR LMML 290045Z 25010KT 220V290 9999 TSRA SCT018CB BKN090
                        22/19 Q1016 TEMPO 5000 TS BKN007
                        BKN015CB=
201009290030 METAR LMML NIL=
201009290015 METAR LMML 290015Z VRB02KT 9999 FEW015 SCT120 22/19 Q1012
                        NOSIG=
201009290000 METAR LMML NIL=
201009282345 METAR LMML 282345Z 05005KT 360V090 9999 FEW015 22/19 Q1011
                        NOSIG=
201009282330 METAR LMML NIL=
201009282315 METAR LMML 282315Z 35003KT 9999 FEW015 22/19 Q1012 NOSIG=
201009282300 METAR LMML NIL=
201009282245 METAR LMML 282245Z 33003KT 9999 FEW015 22/19 Q1012 NOSIG=
201009282230 METAR LMML NIL=
201009282215 METAR LMML 282215Z 33006KT 9999 FEW015 22/19 Q1013 NOSIG=
201009282200 METAR LMML NIL=
201009282145 METAR LMML 282145Z 35004KT 320V020 9999 FEW015 22/19 Q1012
                        NOSIG=
201009282130 METAR LMML NIL=
201009282115 METAR LMML 282115Z 03004KT CAVOK 22/19 Q1012 NOSIG=
201009282100 METAR LMML NIL=
201009282045 METAR LMML 282045Z 34008KT 300V020 9999 FEW015 22/19 Q1012
                        NOSIG=
201009282030 METAR LMML NIL=
201009282015 METAR LMML 282015Z 35008KT 9999 FEW015 22/19 Q1012 NOSIG=
201009282000 METAR LMML NIL=
201009281945 METAR LMML 281945Z 35005KT 9999 FEW015 SCT120 22/19 Q1013
                        NOSIG=
201009281930 METAR LMML NIL=
201009281915 METAR LMML 281915Z 33004KT 9999 FEW015 BKN120 22/19 Q1013
                        NOSIG=
201009281900 METAR LMML NIL=
201009281845 METAR LMML 281845Z 31003KT 9999 FEW015 SCT120 BKN250 22/19
                        Q1014 NOSIG=
201009281830 METAR LMML NIL=
201009281815 METAR LMML 281815Z 31006KT 260V340 9999 FEW015 SCT120 23/19
                        Q1014 NOSIG=
201009281800 METAR LMML NIL=
201009281745 METAR LMML 281745Z 36009KT 9999 FEW015 BKN250 23/19 Q1012
                        NOSIG=
201009281730 METAR LMML NIL=
201009281715 METAR LMML 281715Z 35009KT 9999 FEW014 BKN250 23/18 Q1012
                        NOSIG=
201009281700 METAR LMML NIL=
201009281645 METAR LMML 281645Z 35010KT 9999 SCT014 BKN250 23/20 Q1012
                        NOSIG=
201009281630 METAR LMML NIL=
201009281615 METAR LMML 281615Z 36012KT 320V020 9999 BKN014 BKN250 23/20
                        Q1012 NOSIG=
201009281600 METAR LMML NIL=
201009281545 METAR LMML 281545Z 35007KT 320V020 9999 BKN013 BKN250 24/21
                        Q1013 NOSIG=
201009281531 SPECI LMML 281531Z 35007KT 310V020 9999 BKN013 24/21 Q1013
                        NOSIG=
201009281530 METAR LMML NIL=
201009281515 METAR LMML 281515Z 36008KT 9999 FEW013 BKN250 25/21 Q1012
                        NOSIG=
201009281500 METAR LMML NIL=
201009281445 METAR LMML 281445Z 01006KT 340V040 9999 FEW012 BKN250 25/21
                        Q1012 NOSIG=
201009281430 METAR LMML NIL=
201009281415 METAR LMML 281415Z 01009KT 9999 FEW011 SCT250 25/21 Q1012
                        NOSIG=
201009281400 METAR LMML NIL=
201009281345 METAR LMML 281345Z 01007KT 350V050 9999 FEW011 SCT250 26/22
                        Q1012 NOSIG=
201009281330 METAR LMML NIL=
201009281315 METAR LMML 281315Z 04009KT 360V060 9999 FEW015 SCT250 25/21
                        Q1012 NOSIG=
201009281300 METAR LMML NIL=
201009281245 METAR LMML 281245Z 03008KT 360V060 9999 FEW018 BKN250 26/21
                        Q1013 NOSIG=
201009281230 METAR LMML NIL=
201009281215 METAR LMML 281215Z 03009KT 360V060 9999 FEW011 BKN020 26/22
                        Q1013 NOSIG=
201009281200 METAR LMML NIL=
201009281145 METAR LMML 281145Z 03010KT 360V060 9999 FEW011 SCT150 BKN250
                        25/21 Q1013 NOSIG=
201009281130 METAR LMML NIL=
201009281115 METAR LMML 281115Z 04010KT 360V080 9999 FEW009 BKN150 25/22
                        Q1013 NOSIG=
201009281100 METAR LMML NIL=
201009281045 METAR LMML 281045Z 04011KT 010V070 9999 SCT008 SCT015 BKN150
                        24/21 Q1013 TEMPO BKN007 BKN015=
201009281030 METAR LMML NIL=
201009281015 METAR LMML 281015Z 04011KT 010V070 9999 SCT008 BKN013 BKN130
                        24/21 Q1013 NOSIG=
201009281000 METAR LMML NIL=
201009280945 METAR LMML 280945Z 04009KT 360V080 9999 BKN008 BKN016 BKN130
                        24/21 Q1013 TEMPO BKN005 BKN015=
201009280930 METAR LMML NIL=
201009280915 METAR LMML 280915Z 04008KT 010V090 9999 SCT008 BKN015 BKN130
                        24/22 Q1013 NOSIG=
201009280900 METAR LMML NIL=
201009280845 METAR LMML 280845Z 05011KT 020V080 9999 SCT008 BKN015 BKN120
                        24/22 Q1013 NOSIG=
201009280830 METAR LMML NIL=
201009280815 METAR LMML 280815Z 05009KT 020V090 9999 BKN006 SCT014 BKN120
                        24/22 Q1013 TEMPO BKN005=
201009280745 METAR LMML 280745Z 05008KT 350V100 9999 BKN007 SCT015 BKN120
                        23/22 Q1013 TEMPO BKN005=
201009280730 METAR LMML NIL=
201009280715 METAR LMML 280715Z 05009KT 020V080 9999 SCT007 BKN014 BKN120
                        23/22 Q1013 TEMPO BKN005=
201009280700 METAR LMML NIL=
201009280645 METAR LMML 280645Z 05007KT 020V080 9000 SCT007 SCT017 BKN120
                        23/22 Q1012 TEMPO BKN005=
201009280630 METAR LMML NIL=
201009280615 METAR LMML 280615Z 04008KT 010V080 9999 FEW007 SCT016 BKN120
                        23/22 Q1012 NOSIG=
201009280600 METAR LMML NIL=
201009280545 METAR LMML 280545Z 05008KT 020V080 9999 FEW005 SCT016 BKN130
                        23/22 Q1012 NOSIG=
201009280530 METAR LMML NIL=
201009280515 METAR LMML 280515Z 04007KT 010V080 9999 SCT006 SCT017 BKN130
                        23/22 Q1012 TEMPO 9000 BKN005=
201009280500 METAR LMML NIL=
201009280445 METAR LMML 280445Z 05007KT 010V080 9999 SCT007 SCT016 BKN130
                        23/22 Q1012 NOSIG=
201009280430 METAR LMML NIL=
201009280415 METAR LMML 280415Z 05006KT 360V100 9999 SCT007 SCT016 BKN130
                        23/22 Q1012 NOSIG=
201009280400 METAR LMML NIL=
201009280345 METAR LMML 280345Z 05009KT 020V080 9999 BKN006 23/22 Q1011
                        NOSIG=
201009280330 METAR LMML NIL=
201009280315 METAR LMML 280315Z 05007KT 010V080 9999 BKN005 23/22 Q1011
                        NOSIG=
201009280300 METAR LMML NIL=
201009280245 METAR LMML 280245Z 03008KT 9999 BKN006 SCT120 23/22 Q1011
                        NOSIG=
201009280230 METAR LMML NIL=
201009280215 METAR LMML 280215Z 04007KT 010V070 9999 SCT007 BKN130 23/21
                        Q1011 NOSIG=
201009280200 METAR LMML NIL=
201009280145 METAR LMML 280145Z 04007KT 010V070 9999 SCT007 23/21 Q1011
                        NOSIG=
201009280130 METAR LMML NIL=
201009280115 METAR LMML 280115Z 04009KT 360V090 9999 BKN007 SCT015 23/22
                        Q1012 TEMPO 7000 RA BKN005 BKN012=
201009280100 METAR LMML NIL=
201009280045 METAR LMML 280045Z 05009KT 020V080 9999 BKN007 BKN016 23/22
                        Q1012 TEMPO 7000 RA BKN005 BKN012=
201009280030 METAR LMML NIL=
201009280015 METAR LMML 280015Z 07008KT 040V100 9999 BKN008 SCT018 23/22
                        Q1012 TEMPO 7000 RA BKN005 BKN012=
201009280000 METAR LMML NIL=
201009272345 METAR LMML 272345Z 05008KT 010V070 9999 SCT008 BKN015 BKN120
                        23/21 Q1012 TEMPO 7000 RA BKN005
                        BKN012=
201009272330 METAR LMML NIL=
201009272315 METAR LMML 272315Z 06010KT 030V100 9999 SCT010 BKN023 BKN120
                        23/21 Q1013 TEMPO 7000 RA BKN005
                        BKN012 RMK LIGHTNING TO S=
201009272300 METAR LMML NIL=
201009272245 METAR LMML 272245Z 05011KT 020V080 9999 BKN009 BKN025 BKN120
                        23/21 Q1012 TEMPO 7000 RA BKN005
                        BKN012 RMK LIGHTNING TO S=
201009272230 METAR LMML NIL=
201009272215 METAR LMML 272215Z 05011KT 020V090 9999 BKN011 BKN017 23/21
                        Q1012 TEMPO 7000 RA BKN005 BKN012=
201009272200 METAR LMML NIL=
201009272145 METAR LMML 272145Z 06010KT 020V090 9999 BKN009 BKN120 23/22
                        Q1013 TEMPO 7000 RA BKN005 BKN012=
201009272130 METAR LMML NIL=
201009272115 METAR LMML 272115Z 06013KT 030V090 9999 BKN008 SCT022 BKN120
                        23/21 Q1012 TEMPO 7000 RA BKN005
                        BKN012=
201009272100 METAR LMML NIL=
201009272045 METAR LMML 272045Z 06011KT 030V090 9999 BKN007 BKN130 23/22
                        Q1013 TEMPO 7000 RA BKN005 BKN012=
201009272030 METAR LMML NIL=
201009272015 METAR LMML 272015Z 06010KT 020V090 9999 BKN006 BKN120 23/22
                        Q1013 TEMPO 7000 RA BKN005 BKN012=
201009272000 METAR LMML NIL=
201009271945 METAR LMML 271945Z 06012KT 030V090 9000 BKN006 23/22 Q1013
                        TEMPO 7000 RA BKN005 BKN012=
201009271930 METAR LMML NIL=
201009271915 METAR LMML 271915Z 06012KT 020V100 9000 -RA BKN006 BKN120
                        23/22 Q1013 TEMPO 5000 TSRA BKN015CB=
201009271900 METAR LMML NIL=
201009271845 METAR LMML 271845Z 06013KT 020V090 9000 BKN005 BKN120 23/22
                        Q1012 TEMPO 5000 TSRA BKN015CB=
201009271830 METAR LMML NIL=
201009271815 METAR LMML 271815Z 04011KT 010V080 9000 TSRA BKN004 SCT015CB
                        BKN120 23/22 Q1012 TEMPO 5000 TSRA
                        BKN015CB=
201009271800 METAR LMML NIL=
201009271745 METAR LMML 271745Z 05014KT 9000 -RA BKN008 FEW015CB OVC120
                        23/22 Q1012 RETS TEMPO 5000 TSRA
                        BKN015CB=
201009271730 METAR LMML NIL=
201009271715 METAR LMML 271715Z 04006KT 360V080 9999 -TSRA BKN008 SCT015CB
                        BKN120 23/22 Q1014 TEMPO 6000 TSRA
                        BKN015CB=
201009271700 METAR LMML NIL=
201009271645 METAR LMML 271645Z 06012KT 030V090 9999 SCT007 FEW022TCU
                        BKN120 23/22 Q1012 TEMPO 6000 TSRA
                        BKN015CB=
201009271630 METAR LMML NIL=
201009271615 METAR LMML 271615Z 04010KT 020V080 9999 FEW008 SCT024 BKN120
                        24/22 Q1012 NOSIG=
201009271600 METAR LMML NIL=
201009271545 METAR LMML 271545Z 05010KT 020V090 9999 -SHRA SCT007 SCT024
                        24/22 Q1013 TEMPO 8000 SHRA BKN015TCU=
201009271530 METAR LMML NIL=
201009271515 METAR LMML 271515Z 06010KT 010V100 9999 -SHRA BKN008 OVC028TCU
                        24/22 Q1013 TEMPO 8000 SHRA BKN015TCU=
201009271500 METAR LMML NIL=
201009271445 METAR LMML 271445Z 07009KT 040V110 9999 BKN009 SCT014 BKN120
                        24/22 Q1012 NOSIG=
201009271430 METAR LMML NIL=
201009271415 METAR LMML 271415Z 08012KT 050V110 9999 BKN009 BKN120 24/22
                        Q1012 NOSIG=
201009271400 METAR LMML NIL=
201009271345 METAR LMML 271345Z 08011KT 9999 BKN009 SCT100 24/22 Q1012
                        NOSIG=
201009271330 METAR LMML NIL=
201009271315 METAR LMML 271315Z 09011KT 060V120 9999 BKN009 SCT120 25/22
                        Q1012 NOSIG=
201009271300 METAR LMML NIL=
201009271245 METAR LMML 271245Z 10011KT 060V130 9999 BKN009 SCT100 25/22
                        Q1012 NOSIG=
201009271230 METAR LMML NIL=
201009271215 METAR LMML 271215Z 09011KT 070V150 9999 BKN009 25/22 Q1012
                        NOSIG=
201009271145 METAR LMML 271145Z 10010KT 070V130 9999 BKN009 SCT120 25/22
                        Q1012 NOSIG=
201009271130 METAR LMML NIL=
201009271115 METAR LMML 271115Z 10010KT 060V140 9999 FEW009 BKN012 26/22
                        Q1013 NOSIG=
201009271100 METAR LMML NIL=
201009271045 METAR LMML 271045Z 11011KT 9999 SCT012 SCT120 25/22 Q1013
                        NOSIG=
201009271030 METAR LMML NIL=
201009271015 METAR LMML 271015Z 11011KT 9999 SCT013 SCT250 26/22 Q1014
                        NOSIG=
201009270945 METAR LMML 270945Z 12011KT 090V150 9999 FEW014 SCT250 25/22
                        Q1014 NOSIG=
201009270930 METAR LMML NIL=
201009270915 METAR LMML 270915Z 13009KT 100V180 9999 SCT013 SCT250 25/23
                        Q1014 NOSIG=
201009270900 METAR LMML NIL=
201009270845 METAR LMML 270845Z 13004KT 100V170 9999 FEW015 SCT120 24/22
                        Q1014 NOSIG=
201009270830 METAR LMML NIL=
201009270815 METAR LMML 270815Z VRB01KT 9999 FEW020 BKN100 21/20 Q1014
                        RETS NOSIG=
201009270800 METAR LMML NIL=
201009270745 METAR LMML 270745Z 02003KT 9999 -RA FEW011 BKN020 BKN100
                        20/19 Q1014 RETS TEMPO 2000 TSRA
                        BKN010 BKN030CB=
201009270730 SPECI LMML 270730Z VRB01KT 7000 -TSRA FEW015CB SCT020 BKN100
                        20/19 Q1014 TEMPO 2000 TSRA BKN010
                        BKN030CB=
201009270730 METAR LMML NIL=
201009270715 METAR LMML 270715Z 12008KT 080V140 3000 -RA FEW007 SCT015
                        SCT100 20/19 Q1014 TEMP0 2000 TSRA
                        BKN010 BKN030CB=
201009270700 METAR LMML NIL=
201009270645 METAR LMML 270645Z 13006KT 9999 -RA FEW011 SCT015 BKN110
                        23/21 Q1014 TEMP0 6000 TSRA BKN011
                        BKN030CB=
201009270630 METAR LMML NIL=
201009270615 METAR LMML 270615Z 13005KT 9999 -SHRA FEW014 BKN100 23/21
                        Q1014 NOSIG=
201009270600 METAR LMML NIL=
201009270545 METAR LMML 270545Z 12005KT 9999 FEW016 BKN100 23/21 Q1013
                        NOSIG=
201009270530 METAR LMML NIL=
201009270515 METAR LMML 270515Z 13005KT 9999 FEW034 BKN100 22/20 Q1013
                        NOSIG=
201009270500 METAR LMML NIL=
201009270445 METAR LMML 270445Z 14006KT 9999 -RA SCT020 BKN120 22/20 Q1013
                        NOSIG=
201009270430 METAR LMML NIL=
201009270415 METAR LMML 270415Z 14005KT 9999 SCT020 BKN040 21/19 Q1013
                        NOSIG=
201009270345 METAR LMML 270345Z 00000KT 9999 SCT018 BKN120 20/18 Q1013
                        NOSIG=
201009270330 METAR LMML NIL=
201009270315 METAR LMML 270315Z VRB01KT 9999 SCT019 BKN120 20/18 Q1013
                        NOSIG=
201009270300 METAR LMML NIL=
201009270245 METAR LMML 270245Z VRB01KT 9999 FEW019 SCT120 20/17 Q1013
                        NOSIG=
201009270215 METAR LMML 270215Z VRB01KT 9999 FEW025 BKN120 20/17 Q1013
                        NOSIG=
201009270200 METAR LMML NIL=
201009270145 METAR LMML 270145Z VRB02KT 9999 FEW025 SCT100 21/17 Q1013
                        NOSIG=
201009270130 METAR LMML NIL=
201009270115 METAR LMML 270115Z 15003KT 9999 FEW025 SCT100 21/17 Q1013
                        NOSIG=
201009270100 METAR LMML NIL=
201009270045 METAR LMML 270045Z 15004KT 110V180 9999 FEW025 SCT120 21/17
                        Q1013 NOSIG=
201009270030 METAR LMML NIL=
201009270015 METAR LMML 270015Z 13004KT 9999 FEW025 SCT120 20/17 Q1013
                        NOSIG=
201009262345 METAR LMML 262345Z 12003KT 9999 FEW025 SCT120 20/16 Q1013
                        NOSIG=
201009262315 METAR LMML 262315Z VRB01KT 9999 FEW025 SCT120 20/16 Q1014
                        NOSIG=
201009262245 METAR LMML 262245Z VRB02KT 9999 FEW025 SCT120 20/15 Q1013
                        NOSIG=
201009262230 METAR LMML NIL=
201009262215 METAR LMML 262215Z 14003KT 9999 FEW025 20/15 Q1013 NOSIG=
201009262200 METAR LMML NIL=
201009262145 METAR LMML 262145Z 15003KT 9999 FEW025 SCT120 20/15 Q1013
                        NOSIG=
201009262130 METAR LMML NIL=
201009262115 METAR LMML 262115Z 13004KT 9999 FEW025 SCT120 20/15 Q1013
                        NOSIG=
201009262100 METAR LMML NIL=
201009262045 METAR LMML 262045Z VRB02KT 9999 FEW025 SCT120 20/15 Q1013
                        NOSIG=
201009262030 METAR LMML NIL=
201009262015 METAR LMML 262015Z 00000KT 9999 FEW025 SCT100 20/15 Q1013
                        NOSIG=
201009262000 METAR LMML NIL=
201009261945 METAR LMML 261945Z 00000KT 9999 FEW025 SCT100 21/15 Q1013
                        NOSIG=
201009261915 METAR LMML 261915Z VRB01KT 9999 FEW025 SCT090 21/15 Q1013
                        NOSIG=
201009261845 METAR LMML 261845Z VRB02KT 9999 FEW025 SCT090 21/15 Q1013
                        NOSIG=
201009261830 METAR LMML NIL=
201009261815 METAR LMML 261815Z VRB02KT 9999 FEW025 SCT090 22/15 Q1012
                        NOSIG=
201009261745 METAR LMML 261745Z 30003KT 9999 FEW025 SCT090 22/15 Q1012
                        NOSIG=
201009261715 METAR LMML 261715Z 31005KT 9999 FEW025 SCT090 22/14 Q1012
                        NOSIG=
201009261700 METAR LMML NIL=
201009261645 METAR LMML 261645Z 32006KT 9999 FEW028 SCT090 22/14 Q1011
                        NOSIG=
201009261630 METAR LMML NIL=
201009261615 METAR LMML 261615Z 31007KT 280V340 9999 FEW028 SCT090 23/14
                        Q1011 NOSIG=
201009261600 METAR LMML NIL=
201009261545 METAR LMML 261545Z 32007KT 290V360 9999 FEW028 24/15 Q1011
                        NOSIG=
201009261530 METAR LMML NIL=
201009261515 METAR LMML 261515Z 30007KT 270V340 9999 FEW028 24/16 Q1011
                        NOSIG=
201009261500 METAR LMML NIL=
201009261445 METAR LMML 261445Z 29007KT 260V320 9999 FEW028 24/16 Q1011
                        NOSIG=
201009261430 METAR LMML NIL=
201009261415 METAR LMML 261415Z 27007KT 210V310 9999 FEW028 SCT100 24/16
                        Q1011 NOSIG=
201009261400 METAR LMML NIL=
201009261345 METAR LMML 261345Z 28009KT 220V320 9999 FEW028 SCT100 25/17
                        Q1011 NOSIG=
201009261330 METAR LMML NIL=
201009261315 METAR LMML 261315Z 26008KT 220V310 9999 FEW030 BKN100 24/17
                        Q1011 NOSIG=
201009261300 METAR LMML NIL=
201009261245 METAR LMML 261245Z 27011KT 220V300 9999 FEW029 24/16 Q1011
                        NOSIG=
201009261230 METAR LMML NIL=
201009261215 METAR LMML 261215Z 28011KT 240V310 9999 FEW030 24/17 Q1011
                        NOSIG=
201009261200 METAR LMML NIL=
201009261145 METAR LMML 261145Z 27009KT 230V300 9999 FEW031 25/16 Q1011
                        NOSIG=
201009261130 METAR LMML NIL=
201009261115 METAR LMML 261115Z 28011KT 250V320 9999 SCT031 24/16 Q1011
                        NOSIG=
201009261045 METAR LMML 261045Z 27010KT 230V320 9999 SCT031 24/16 Q1011
                        NOSIG=
201009261030 METAR LMML NIL=
201009261015 METAR LMML 261015Z 29011KT 250V320 9999 SCT029 24/17 Q1011
                        NOSIG=
201009261000 METAR LMML NIL=
201009260945 METAR LMML 260945Z 26010KT 220V340 9999 SCT033 24/16 Q1011
                        NOSIG=
201009260930 METAR LMML NIL=
201009260915 METAR LMML 260915Z 28010KT 230V320 9999 SCT030 24/16 Q1011
                        NOSIG=
201009260900 METAR LMML NIL=
201009260845 METAR LMML 260845Z 28011KT 250V310 9999 FEW029 24/16 Q1011
                        NOSIG=
201009260830 METAR LMML NIL=
201009260815 METAR LMML 260815Z 29009KT 250V310 9999 SCT028 SCT100 24/17
                        Q1010 NOSIG=
201009260800 METAR LMML NIL=
201009260745 METAR LMML 260745Z 26009KT 230V310 9999 SCT028 SCT100 23/17
                        Q1010 NOSIG=
201009260730 METAR LMML NIL=
201009260715 METAR LMML 260715Z 28008KT 240V310 9999 FEW030 23/17 Q1010
                        NOSIG=
201009260700 METAR LMML NIL=
201009260645 METAR LMML 260645Z 28007KT 250V310 9999 FEW030 22/17 Q1009
                        NOSIG=
201009260630 METAR LMML NIL=
201009260615 METAR LMML 260615Z 28005KT 240V310 9999 FEW030 SCT090 22/17
                        Q1009 NOSIG=
201009260600 METAR LMML NIL=
201009260545 METAR LMML 260545Z 26005KT 230V290 9999 FEW030 SCT100 21/17
                        Q1009 NOSIG=
201009260530 METAR LMML NIL=
201009260515 METAR LMML 260515Z 27005KT 230V290 9999 FEW030 SCT110 20/16
                        Q1009 NOSIG=
201009260500 METAR LMML NIL=
201009260445 METAR LMML 260445Z 27007KT 9999 FEW030 SCT100 20/16 Q1008
                        NOSIG=
201009260430 METAR LMML NIL=
201009260415 METAR LMML 260415Z 27006KT 220V300 9999 FEW030 20/16 Q1008
                        NOSIG=
201009260400 METAR LMML NIL=
201009260345 METAR LMML 260345Z 27005KT 240V300 9999 FEW030 20/16 Q1008
                        NOSIG=
201009260330 METAR LMML NIL=
201009260315 METAR LMML 260315Z 26006KT 9999 FEW030 SCT100 21/17 Q1008
                        NOSIG=
201009260300 METAR LMML NIL=
201009260245 METAR LMML 260245Z 26006KT 220V290 9999 FEW030 SCT100 20/16
                        Q1008 NOSIG=
201009260230 METAR LMML NIL=
201009260215 METAR LMML 260215Z 27006KT 9999 FEW030 20/16 Q1008 NOSIG=
201009260200 METAR LMML NIL=
201009260145 METAR LMML 260145Z 29008KT 9999 FEW030 20/17 Q1007 NOSIG=
201009260130 METAR LMML NIL=
201009260115 METAR LMML 260115Z 25004KT 210V290 9999 FEW030 20/17 Q1007
                        NOSIG=
201009260100 METAR LMML NIL=
201009260045 METAR LMML 260045Z 27006KT 240V300 9999 FEW030 SCT120 20/17
                        Q1008 NOSIG=
201009260030 METAR LMML NIL=
201009260015 METAR LMML 260015Z 28006KT 250V310 9999 FEW030 SCT100 20/17
                        Q1008 NOSIG=
201009260000 METAR LMML NIL=
201009252345 METAR LMML 252345Z 28007KT 240V310 9999 FEW030 SCT100 20/17
                        Q1008 NOSIG=
201009252330 METAR LMML NIL=
201009252315 METAR LMML 252315Z 29010KT 9999 -RA FEW029 BKN070 21/18 Q1008
                        NOSIG=
201009252300 METAR LMML NIL=
201009252245 METAR LMML 252245Z 28006KT 9999 FEW030 BKN100 22/17 Q1007
                        NOSIG=
201009252230 METAR LMML NIL=
201009252215 METAR LMML 252215Z 28006KT 9999 -RA FEW029 BKN080 22/17 Q1008
                        NOSIG=
201009252200 METAR LMML NIL=
201009252145 METAR LMML 252145Z 27005KT 230V290 CAVOK 21/16 Q1008 TEMPO
                        9000 -RA FEW020 BKN080=
201009252130 METAR LMML NIL=
201009252115 METAR LMML 252115Z 27005KT 240V300 CAVOK 21/17 Q1007 BECMG
                        9999 FEW020=
201009252100 METAR LMML NIL=
201009252045 METAR LMML 252045Z 28006KT 240V310 CAVOK 21/16 Q1007 BECMG
                        9999 FEW020=
201009252030 METAR LMML NIL=
201009252015 METAR LMML 252015Z 28008KT 240V310 CAVOK 21/16 Q1007 BECMG
                        9999 FEW020=
201009252000 METAR LMML NIL=
201009251945 METAR LMML 251945Z 28008KT CAVOK 22/16 Q1007 BECMG 9999 FEW020=
201009251930 METAR LMML NIL=
201009251915 METAR LMML 251915Z 29007KT CAVOK 22/15 Q1007 BECMG 9999 FEW020=
201009251900 METAR LMML NIL=
201009251845 METAR LMML 251845Z 29009KT 260V320 CAVOK 22/15 Q1006 NOSIG=
201009251830 METAR LMML NIL=
201009251815 METAR LMML 251815Z 29010KT CAVOK 22/16 Q1006 NOSIG=
201009251800 METAR LMML NIL=
201009251745 METAR LMML 251745Z 29013KT 260V320 CAVOK 22/16 Q1006 NOSIG=
201009251715 METAR LMML 251715Z 29013KT CAVOK 22/16 Q1006 NOSIG=
201009251700 METAR LMML NIL=
201009251645 METAR LMML 251645Z 29014KT 9999 FEW028 23/16 Q1006 NOSIG=
201009251630 METAR LMML NIL=
201009251615 METAR LMML 251615Z 29015KT 260V320 9999 FEW028 23/15 Q1006
                        NOSIG=
201009251545 METAR LMML 251545Z 29016KT 9999 FEW028 24/15 Q1006 NOSIG=
201009251530 METAR LMML NIL=
201009251515 METAR LMML 251515Z 29016KT 240V320 9999 FEW028 24/16 Q1005
                        NOSIG=
201009251500 METAR LMML NIL=
201009251445 METAR LMML 251445Z 29017KT 260V320 9999 FEW028 24/17 Q1005
                        NOSIG=
201009251430 METAR LMML NIL=
201009251415 METAR LMML 251415Z 29017KT 260V320 9999 FEW029 25/17 Q1005
                        NOSIG=
201009251400 METAR LMML NIL=
201009251345 METAR LMML 251345Z 29017KT 240V320 9999 SCT029 24/17 Q1005
                        NOSIG=
201009251330 METAR LMML NIL=
201009251315 METAR LMML 251315Z 29017KT 260V330 9999 SCT027 25/17 Q1004
                        NOSIG=
201009251300 METAR LMML NIL=
201009251245 METAR LMML 251245Z 29017KT 260V330 9999 SCT026 25/17 Q1004
                        NOSIG=
201009251230 METAR LMML NIL=
201009251215 METAR LMML 251215Z 29015KT 260V320 9999 SCT026 25/18 Q1004
                        NOSIG=
201009251200 METAR LMML NIL=
201009251145 METAR LMML 251145Z 29020KT 260V320 9999 FEW028 25/18 Q1004
                        NOSIG=
201009251115 METAR LMML 251115Z 28020KT 250V310 9999 SCT029 25/17 Q1004
                        NOSIG=
201009251100 METAR LMML NIL=
201009251045 METAR LMML 251045Z 29019KT 260V320 9999 SCT027 24/17 Q1004
                        NOSIG=
201009251030 METAR LMML NIL=
201009251015 METAR LMML 251015Z 29017KT 250V320 9999 SCT026 24/17 Q1004
                        NOSIG=
201009251000 METAR LMML NIL=
201009250945 METAR LMML 250945Z 28019KT 250V320 9999 SCT027 24/17 Q1004
                        NOSIG=
201009250930 METAR LMML NIL=
201009250915 METAR LMML 250915Z 29019KT 250V310 9999 SCT024 23/18 Q1004
                        NOSIG=
201009250900 METAR LMML NIL=
201009250845 METAR LMML 250845Z 29016KT 250V320 9999 SCT022 23/18 Q1004
                        NOSIG=
201009250830 METAR LMML NIL=
201009250815 METAR LMML 250815Z 30017KT 260V320 9999 BKN021 23/18 Q1003
                        NOSIG=
201009250800 METAR LMML NIL=
201009250745 METAR LMML 250745Z 29017KT 9999 SCT022 23/18 Q1003 NOSIG=
201009250730 METAR LMML NIL=
201009250715 METAR LMML 250715Z 29012KT 260V320 9999 SCT035 23/18 Q1002
                        NOSIG=
201009250700 METAR LMML NIL=
201009250645 METAR LMML 250645Z 29016KT 240V310 9999 SCT022 22/18 Q1002
                        NOSIG=
201009250630 METAR LMML NIL=
201009250615 METAR LMML 250615Z 30014KT 270V330 9999 SCT016 21/18 Q1002
                        NOSIG=
201009250600 METAR LMML NIL=
201009250545 METAR LMML 250545Z 30020G31KT 9999 SCT014 20/18 Q1001 NOSIG=
201009250530 METAR LMML NIL=
201009250515 METAR LMML 250515Z 28018KT 250V330 9999 BKN017 21/19 Q1001
                        TEMPO 8000 SHRA BKN013=
201009250445 METAR LMML 250445Z 28017KT 250V320 9999 SCT018 21/19 Q1001
                        TEMPO 8000 SHRA BKN013=
201009250430 METAR LMML NIL=
201009250415 METAR LMML 250415Z 26015KT 220V290 9999 SCT012 SCT050 21/20
                        Q1001 TEMPO 8000 SHRA BKN013=
201009250400 METAR LMML NIL=
201009250345 METAR LMML 250345Z 25015G27KT 210V300 9999 FEW016 BKN090
                        21/19 Q1001 TEMPO 5000 TSRA BKN060CB=
201009250330 METAR LMML NIL=
201009250315 METAR LMML 250315Z 22008KT 170V260 9999 FEW015 BKN110 21/19
                        Q1001 TEMPO 5000 TSRA BKN060CB=
201009250300 METAR LMML NIL=
201009250245 METAR LMML 250245Z 23009KT 190V260 9999 FEW011 BKN100 21/19
                        Q1002 TEMPO 5000 TSRA BKN060CB=
201009250230 METAR LMML NIL=
201009250215 METAR LMML 250215Z 23010KT 200V270 9999 FEW011 BKN110 20/19
                        Q1002 TEMPO TSRA BKN060CB=
201009250200 METAR LMML NIL=
201009250145 METAR LMML 250145Z 23013KT 190V260 8000 FEW007 SCT011 BKN110
                        20/19 Q1003 TEMPO 5000 TSRA BKN060CB=
201009250130 METAR LMML NIL=
201009250115 METAR LMML 250115Z 28017KT 230V310 3000 TSRA BKN013CB 19/17
                        Q1003 TEMPO TSRA BKN060CB=
201009250045 METAR LMML 250045Z 20012G23KT 160V250 6000 TSRA BKN016CB
                        SCT080 23/20 Q1003 TEMPO 5000 TSRA
                        BKN060CB=
201009250030 METAR LMML NIL=
201009250015 METAR LMML 250015Z 21008KT 170V250 9999 BKN020 23/19 Q1003
                        TEMPO 5000 TSRA BKN060CB=
201009250000 METAR LMML NIL=
201009242345 METAR LMML 242345Z 23009KT 190V290 9999 SCT022 23/19 Q1003
                        TEMPO 5000 TSRA BKN060CB=
201009242330 METAR LMML NIL=
201009242315 METAR LMML 242315Z 23011KT 190V280 9999 SCT022 22/19 Q1004
                        RESH TEMPO 5000 TSRA BKN060CB=
201009242300 METAR LMML NIL=
201009242245 METAR LMML 242245Z 24010KT 210V290 9000 SCT017 SCT080 22/20
                        Q1004 RESH TEMPO 5000 TSRA BKN060CB=
201009242230 METAR LMML NIL=
201009242215 METAR LMML 242215Z 23010KT 200V270 9000 SCT012 SCT050 BKN090
                        22/20 Q1004 TEMPO 5000 TSRA BKN060CB=
201009242200 METAR LMML NIL=
201009242145 METAR LMML 242145Z 23015G26KT 190V270 7000 -SHRA FEW010 BKN022
                        BKN080 21/19 Q1005 RETS TEMPO 5000
                        TSRA BKN060CB=
201009242130 METAR LMML NIL=
201009242115 METAR LMML 242115Z 25012KT 200V300 6000 -SHRA FEW014CB SCT025
                        BKN080 22/20 Q1005 RETS TEMPO 5000
                        TSRA BKN060CB=
201009242100 METAR LMML NIL=
201009242045 METAR LMML 242045Z 21015KT 160V260 9999 TS SCT032CB BKN100
                        24/19 Q1005 TEMPO 5000 TSRA BKN060CB=
201009242030 METAR LMML NIL=
201009242015 METAR LMML 242015Z 20013G24KT 170V240 9999 FEW024 BKN110
                        24/19 Q1005 TEMPO 5000 TSRA BKN060CB
                        RMK LIGHTNING TO NORTHWEST=
201009242000 METAR LMML NIL=
201009241945 METAR LMML 241945Z 19014KT 9999 -RA FEW024 SCT080 24/20 Q1005
                        TEMPO 6000 TSRA BKN060CB RMK LIGHTNING
                        TO NW=
201009241930 METAR LMML NIL=
201009241915 METAR LMML 241915Z 18013KT 150V220 9999 FEW023 BKN070 24/19
                        Q1005 TEMPO 6000 TSRA BKN060CB=
201009241900 METAR LMML NIL=
201009241845 METAR LMML 241845Z 18011KT 150V220 9999 FEW023 OVC070 24/19
                        Q1005 TEMPO 6000 TSRA BKN060CB=
201009241830 METAR LMML NIL=
201009241815 METAR LMML 241815Z 19013KT 9999 FEW023 BKN080 24/19 Q1005
                        TEMPO 8000 SHRA=
201009241745 METAR LMML 241745Z 18011KT 150V220 9999 FEW024 SCT060 BKN100
                        24/18 Q1005 TEMPO 8000 SHRA=
201009241730 METAR LMML NIL=
201009241715 METAR LMML 241715Z 18012KT 150V210 9999 FEW025 SCT060 BKN120
                        24/18 Q1006 NOSIG=
201009241700 METAR LMML NIL=
201009241645 METAR LMML 241645Z 18013KT 150V210 9999 FEW027 SCT070 OVC250
                        24/18 Q1006 NOSIG=
201009241630 METAR LMML NIL=
201009241615 METAR LMML 241615Z 18010KT 140V210 9999 FEW027 SCT080 OVC250
                        24/17 Q1006 NOSIG=
201009241600 METAR LMML NIL=
201009241545 METAR LMML 241545Z 18011KT 150V210 9999 FEW027 SCT080 OVC250
                        24/17 Q1007 NOSIG=
201009241530 METAR LMML NIL=
201009241515 METAR LMML 241515Z 18009KT 150V210 9999 FEW025 BKN120 OVC250
                        24/17 Q1007 NOSIG=
201009241500 METAR LMML NIL=
201009241445 METAR LMML 241445Z 18008KT 140V230 9999 FEW025 BKN120 OVC250
                        24/18 Q1008 NOSIG=
201009241430 METAR LMML NIL=
201009241415 METAR LMML 241415Z 17009KT 140V210 9999 FEW024 SCT120 OVC250
                        24/17 Q1008 NOSIG=
201009241400 METAR LMML NIL=
201009241345 METAR LMML 241345Z 17008KT 130V210 9999 FEW025 SCT120 OVC250
                        24/18 Q1008 NOSIG=
201009241330 METAR LMML NIL=
201009241315 METAR LMML 241315Z 18008KT 160V230 9999 FEW025 BKN120 OVC250
                        24/18 Q1009 NOSIG=
201009241300 METAR LMML NIL=
201009241245 METAR LMML 241245Z 18008KT 130V230 9999 FEW025 SCT110 BKN250
                        24/18 Q1009 NOSIG=
201009241215 METAR LMML 241215Z 17007KT 130V220 9999 FEW030 BKN110 24/18
                        Q1009 NOSIG=
201009241200 METAR LMML NIL=
201009241145 METAR LMML 241145Z 20006KT 150V240 9999 FEW030 BKN100 24/18
                        Q1010 NOSIG=
201009241115 METAR LMML 241115Z 18006KT 150V240 9999 FEW030 BKN100 24/18
                        Q1010 NOSIG=
201009241100 METAR LMML NIL=
201009241045 METAR LMML 241045Z 18005KT 120V230 9999 FEW030 BKN110 24/17
                        Q1011 NOSIG=
201009241030 METAR LMML NIL=
201009241015 METAR LMML 241015Z 17005KT 140V230 9999 FEW028 BKN120 24/17
                        Q1011 NOSIG=
201009241000 METAR LMML NIL=
201009240945 METAR LMML 240945Z 19004KT 150V230 9999 FEW028 BKN120 24/17
                        Q1011 NOSIG=
201009240930 METAR LMML NIL=
201009240915 METAR LMML 240915Z 19004KT 140V280 9999 FEW028 BKN120 24/18
                        Q1011 NOSIG=
201009240900 METAR LMML NIL=
201009240845 METAR LMML 240845Z VRB02KT 9999 FEW024 BKN120 25/17 Q1012
                        NOSIG=
201009240830 METAR LMML NIL=
201009240815 METAR LMML 240815Z 19003KT 9999 FEW023 SCT250 24/18 Q1012
                        NOSIG=
201009240800 METAR LMML NIL=
201009240745 METAR LMML 240745Z VRB02KT 9999 FEW022 SCT120 BKN250 23/18
                        Q1012 NOSIG=
201009240730 METAR LMML NIL=
201009240715 METAR LMML 240715Z VRB01KT 9999 FEW025 SCT120 BKN250 22/18
                        Q1012 NOSIG=
201009240700 METAR LMML NIL=
201009240645 METAR LMML 240645Z 00000KT 9999 FEW025 BKN120 22/18 Q1012
                        NOSIG=
201009240630 METAR LMML NIL=
201009240615 METAR LMML 240615Z VRB01KT 9999 FEW025 BKN120 21/18 Q1012
                        NOSIG=
201009240600 METAR LMML NIL=
201009240545 METAR LMML 240545Z VRB02KT 9999 FEW025 BKN120 20/18 Q1012
                        NOSIG=
201009240530 METAR LMML NIL=
201009240515 METAR LMML 240515Z VRB02KT 9999 SCT024 BKN120 20/18 Q1012
                        NOSIG=
201009240500 METAR LMML NIL=
201009240445 METAR LMML 240445Z 25003KT 9999 FEW024 BKN120 20/18 Q1012
                        NOSIG=
201009240430 METAR LMML NIL=
201009240415 METAR LMML 240415Z 26003KT 9999 FEW022 SCT120 19/17 Q1012
                        NOSIG=
201009240400 METAR LMML NIL=
201009240345 METAR LMML 240345Z VRB02KT 9999 FEW022 20/17 Q1012 NOSIG=
201009240330 METAR LMML NIL=
201009240315 METAR LMML 240315Z 27003KT 9999 FEW020 SCT120 20/17 Q1012
                        NOSIG=
201009240300 METAR LMML NIL=
201009240245 METAR LMML 240245Z 27004KT 9999 FEW020 20/17 Q1013 NOSIG=
201009240230 METAR LMML NIL=
201009240215 METAR LMML 240215Z VRB02KT 9999 FEW020 19/17 Q1013 NOSIG=
201009240200 METAR LMML NIL=
201009240145 METAR LMML 240145Z VRB01KT 9999 FEW020 20/17 Q1013 NOSIG=
201009240130 METAR LMML NIL=
201009240115 METAR LMML 240115Z VRB01KT 9999 FEW020 20/17 Q1013 NOSIG=
201009240045 METAR LMML 240045Z VRB01KT 9999 FEW019 20/17 Q1013 NOSIG=
201009240030 METAR LMML NIL=
201009240015 METAR LMML 240015Z VRB01KT 9999 FEW019 21/17 Q1014 NOSIG=
201009240000 METAR LMML NIL=
201009232345 METAR LMML 232345Z 04003KT 9999 FEW019 22/18 Q1014 NOSIG=
201009232330 METAR LMML NIL=
201009232315 METAR LMML 232315Z 05004KT 020V080 9999 FEW022 22/17 Q1014
                        NOSIG=
201009232300 METAR LMML NIL=
201009232245 METAR LMML 232245Z 04004KT 9999 FEW022 22/17 Q1014 NOSIG=
201009232230 METAR LMML NIL=
201009232215 METAR LMML 232215Z 04005KT 010V070 9999 FEW021 22/17 Q1015
                        NOSIG=
201009232200 METAR LMML NIL=
201009232145 METAR LMML 232145Z 04006KT 010V080 9999 FEW020 22/17 Q1015
                        NOSIG=
201009232130 METAR LMML NIL=
201009232115 METAR LMML 232115Z 04006KT 010V070 9999 FEW020 22/17 Q1015
                        NOSIG=
201009232100 METAR LMML NIL=
201009232045 METAR LMML 232045Z 04006KT 360V070 CAVOK 22/17 Q1015 NOSIG=
201009232030 METAR LMML NIL=
201009232015 METAR LMML 232015Z 04007KT 010V070 9999 FEW020 22/17 Q1016
                        NOSIG=
201009232000 METAR LMML NIL=
201009231945 METAR LMML 231945Z 03005KT 360V070 9999 FEW020 22/17 Q1015
                        NOSIG=
201009231930 METAR LMML NIL=
201009231915 METAR LMML 231915Z 04007KT 010V080 9999 FEW020 22/17 Q1015
                        NOSIG=
201009231900 METAR LMML NIL=
201009231845 METAR LMML 231845Z 05008KT 010V090 9999 FEW020 22/17 Q1015
                        NOSIG=
201009231830 METAR LMML NIL=
201009231815 METAR LMML 231815Z 05007KT 020V080 9999 FEW021 23/17 Q1015
                        NOSIG=
201009231800 METAR LMML NIL=
201009231745 METAR LMML 231745Z 04007KT 360V070 9999 FEW021 22/17 Q1015
                        NOSIG=
201009231730 METAR LMML NIL=
201009231715 METAR LMML 231715Z 04008KT 020V080 9999 FEW019 23/18 Q1014
                        NOSIG=
201009231700 METAR LMML NIL=
201009231645 METAR LMML 231645Z 03008KT 360V070 9999 FEW019 23/18 Q1014
                        NOSIG=
201009231630 METAR LMML NIL=
201009231615 METAR LMML 231615Z 04009KT 360V070 9999 FEW017 24/18 Q1014
                        NOSIG=
201009231600 METAR LMML NIL=
201009231545 METAR LMML 231545Z 03008KT 360V070 9999 SCT019 24/18 Q1014
                        NOSIG=
201009231530 METAR LMML NIL=
201009231515 METAR LMML 231515Z 04007KT 360V090 9999 SCT021 24/18 Q1014
                        NOSIG=
201009231500 METAR LMML NIL=
201009231445 METAR LMML 231445Z 03009KT 360V070 9999 FEW022 25/18 Q1014
                        NOSIG=
201009231430 METAR LMML NIL=
201009231415 METAR LMML 231415Z 03010KT 360V070 9999 SCT022 26/18 Q1014
                        NOSIG=
201009231400 METAR LMML NIL=
201009231345 METAR LMML 231345Z 03009KT 360V060 9999 FEW022 SCT250 26/18
                        Q1014 NOSIG=
201009231330 METAR LMML NIL=
201009231315 METAR LMML 231315Z 03008KT 360V070 9999 SCT020 SCT250 26/19
                        Q1014 NOSIG=
201009231300 METAR LMML NIL=
201009231245 METAR LMML 231245Z 03009KT 9999 SCT021 BKN250 26/18 Q1014
                        NOSIG=
201009231230 METAR LMML NIL=
201009231215 METAR LMML 231215Z 02009KT 350V050 9999 FEW021 BKN250 26/18
                        Q1015 NOSIG=
201009231200 METAR LMML NIL=
201009231145 METAR LMML 231145Z 03009KT 010V070 9999 FEW019 BKN250 26/18
                        Q1015 NOSIG=
201009231130 METAR LMML NIL=
201009231115 METAR LMML 231115Z 02010KT 9999 FEW021 BKN250 26/19 Q1015
                        NOSIG=
201009231100 METAR LMML NIL=
201009231045 METAR LMML 231045Z 02008KT 350V070 9999 FEW020 SCT250 26/19
                        Q1015 NOSIG=
201009231030 METAR LMML NIL=
201009231015 METAR LMML 231015Z 04008KT 350V070 9999 FEW020 26/18 Q1015
                        NOSIG=
201009231000 METAR LMML NIL=
201009230945 METAR LMML 230945Z 04008KT 360V090 9999 FEW020 25/19 Q1015
                        NOSIG=
201009230930 METAR LMML NIL=
201009230915 METAR LMML 230915Z 04009KT 360V080 9999 FEW019 25/19 Q1015
                        NOSIG=
201009230900 METAR LMML NIL=
201009230845 METAR LMML 230845Z 03008KT 360V060 9999 FEW019 25/19 Q1015
                        NOSIG=
201009230830 METAR LMML NIL=
201009230815 METAR LMML 230815Z 04008KT 9999 FEW020 25/19 Q1016 NOSIG=
201009230800 METAR LMML NIL=
201009230745 METAR LMML 230745Z 06007KT 010V080 9999 FEW018 24/19 Q1016
                        NOSIG=
201009230730 METAR LMML NIL=
201009230715 METAR LMML 230715Z 06007KT 030V100 9999 SCT016 SCT070 23/20
                        Q1015 NOSIG=
201009230700 METAR LMML NIL=
201009230645 METAR LMML 230645Z 02004KT 280V110 9999 FEW014 FEW019TCU
                        SCT070 23/20 Q1015 NOSIG=
201009230630 METAR LMML NIL=
201009230615 METAR LMML 230615Z VRB03KT 9999 FEW014TCU SCT014 22/20 Q1015
                        NOSIG=
201009230600 METAR LMML NIL=
201009230545 METAR LMML 230545Z VRB03KT 9999 FEW017 21/20 Q1015 NOSIG
                        RMK CB TOP TO SOUTH=
201009230530 METAR LMML NIL=
201009230515 METAR LMML 230515Z 33005KT 300V360 9999 FEW017TCU 21/19 Q1015
                        NOSIG RMK CB TOP TO SOUTH=
201009230500 METAR LMML NIL=
201009230445 METAR LMML 230445Z VRB03KT 9999 FEW015 21/19 Q1015 NOSIG=
201009230430 METAR LMML NIL=
201009230415 METAR LMML 230415Z VRB03KT 9999 FEW015 21/19 Q1015 NOSIG=
201009230400 METAR LMML NIL=
201009230345 METAR LMML 230345Z 31004KT 280V340 9999 FEW015 21/19 Q1015
                        NOSIG=
201009230315 METAR LMML 230315Z 29005KT 9999 FEW014 21/20 Q1015 NOSIG=
201009230300 METAR LMML NIL=
201009230245 METAR LMML 230245Z VRB03KT 9999 FEW016 21/20 Q1015 NOSIG=
201009230230 METAR LMML NIL=
201009230215 METAR LMML 230215Z VRB03KT 9999 FEW016 21/20 Q1015 NOSIG=
201009230200 METAR LMML NIL=
201009230145 METAR LMML 230145Z VRB03KT 9999 FEW016 22/20 Q1015 NOSIG=
201009230130 METAR LMML NIL=
201009230115 METAR LMML 230115Z VRB03KT 9999 FEW016 22/20 Q1015 NOSIG=
201009230100 METAR LMML NIL=
201009230045 METAR LMML 230045Z 25004KT 210V290 9999 FEW016 22/20 Q1015
                        NOSIG=
201009230030 METAR LMML NIL=
201009230015 METAR LMML 230015Z 22005KT 190V250 9999 FEW016 22/20 Q1016
                        NOSIG=
201009230000 METAR LMML NIL=
201009222345 METAR LMML 222345Z VRB03KT 9999 FEW016 22/20 Q1016 NOSIG=
201009222330 METAR LMML NIL=
201009222315 METAR LMML 222315Z VRB03KT 9999 FEW020 22/20 Q1016 NOSIG
                        RMK DISTANT LIGHTNING TO N AND NE=
201009222245 METAR LMML 222245Z VRB03KT 9999 FEW045 22/20 Q1016 NOSIG
                        RMK DISTANT LIGHTNING TO N=
201009222215 METAR LMML 222215Z 19005KT 9999 SCT045 22/19 Q1016 NOSIG
                        RMK DISTANT LIGHTNING TO N=
201009222145 METAR LMML 222145Z VRB03KT 9999 FEW028 22/19 Q1016 NOSIG
                        RMK DISTANT LIGHTNING TO N=
201009222130 METAR LMML NIL=
201009222115 METAR LMML 222115Z 16006KT 9999 SCT028 22/19 Q1016 NOSIG
                        RMK LIGHTNING TO SE=
201009222100 METAR LMML NIL=
201009222045 METAR LMML 222045Z 16006KT 9999 BKN019 21/20 Q1017 NOSIG
                        RMK LIGHTNING TO SE=
201009222030 METAR LMML NIL=
201009222015 METAR LMML 222015Z 14007KT 9999 FEW010 BKN020 21/20 Q1017
                        TEMPO BKN014=
201009221945 METAR LMML 221945Z 13009KT 9999 FEW006 SCT014 21/20 Q1017
                        TEMPO BKN014=
201009221930 METAR LMML NIL=
201009221915 METAR LMML 221915Z 13005KT 9999 FEW011 BKN020 22/20 Q1017
                        NOSIG RMK LIGHTNING TO SE=
201009221845 METAR LMML 221845Z VRB03KT 9999 BKN010 SCT022 22/20 Q1017
                        NOSIG=
201009221830 METAR LMML NIL=
201009221815 METAR LMML 221815Z VRB02KT 9999 FEW012 BKN017 24/22 Q1016
                        NOSIG=
201009221800 METAR LMML NIL=
201009221745 METAR LMML 221745Z 28005KT 250V320 9999 BKN016TCU 24/22 Q1016
                        TEMPO BKN015=
201009221730 METAR LMML NIL=
201009221715 METAR LMML 221715Z 23004KT 200V280 9999 FEW016CB BKN023TCU
                        24/22 Q1016 NOSIG=
201009221700 METAR LMML NIL=
201009221645 METAR LMML 221645Z VRB03KT 9999 FEW017CB BKN023 24/22 Q1016
                        TEMPO SHRA=
201009221630 METAR LMML NIL=
201009221615 METAR LMML 221615Z 21008KT 170V270 6000 -SHRA FEW009 FEW015CB
                        BKN018 24/21 Q1016 TEMPO 5000 TSRA
                        BKN015CB RMK LIGHTNING TO NORTH=
201009221545 METAR LMML 221545Z 22007KT 160V270 6000 -SHRA SCT017CB SCT034
                        25/21 Q1016 TEMPO 5000 TSRA BKN015CB=
201009221530 METAR LMML NIL=
201009221500 METAR LMML NIL=
201009221445 METAR LMML 221445Z 21007KT 160V260 9999 SCT017 BKN060 26/20
                        Q1016 NOSIG=
201009221430 METAR LMML NIL=
201009221415 METAR LMML 221415Z 22010KT 180V280 9999 SCT019TCU BKN060
                        26/20 Q1016 NOSIG=
201009221400 METAR LMML NIL=
201009221345 METAR LMML 221345Z 22009KT 180V270 9999 FEW018CB SCT024 BKN250
                        26/20 Q1016 TEMPO TSRA SCT015CB=
201009221330 METAR LMML NIL=
201009221315 METAR LMML 221315Z 22008KT 180V270 9999 FEW016CB BKN250 25/20
                        Q1017 TEMPO TSRA BKN015CB=
201009221300 METAR LMML NIL=
201009221245 METAR LMML 221245Z 21009KT 160V250 9999 FEW017CB BKN250 25/20
                        Q1017 TEMPO TSRA BKN015CB=
201009221230 METAR LMML NIL=
201009221215 METAR LMML 221215Z 19009KT 150V240 9999 FEW018CB BKN250 26/20
                        Q1017 TEMPO TSRA BKN015CB=
201009221200 METAR LMML NIL=
201009221145 METAR LMML 221145Z 21009KT 160V250 9999 FEW019CB SCT250 27/20
                        Q1017 TEMPO TSRA BKN015CB=
201009221115 METAR LMML 221115Z 20010KT 170V260 9999 FEW018CB BKN050 26/21
                        Q1017 TEMPO TSRA BKN015CB=
201009221100 METAR LMML NIL=
201009221045 METAR LMML 221045Z 20007KT 160V240 9999 FEW018CB SCT048 26/20
                        Q1018 TEMPO TSRA BKN015CB=
201009221030 METAR LMML NIL=
201009221015 METAR LMML 221015Z 20006KT 150V260 9999 FEW020 SCT048 BKN120
                        26/20 Q1018 TEMPO SHRA=
201009221000 METAR LMML NIL=
201009220945 METAR LMML 220945Z 20005KT 140V250 9999 FEW022 SCT047 26/20
                        Q1018 TEMPO SHRA=
201009220930 METAR LMML NIL=
201009220915 METAR LMML 220915Z 20006KT 160V260 9999 FEW020 SCT038 26/20
                        Q1018 TEMPO SHRA=
201009220900 METAR LMML NIL=
201009220845 METAR LMML 220845Z 21007KT 170V250 9999 SCT017 SCT038 25/21
                        Q1018 TEMPO SHRA=
201009220830 METAR LMML NIL=
201009220815 METAR LMML 220815Z 21004KT 120V250 9999 BKN017 BKN120 25/20
                        Q1018 NOSIG=
201009220800 METAR LMML NIL=
201009220745 METAR LMML 220745Z 19006KT 140V220 9999 SCT019 BKN120 26/20
                        Q1018 NOSIG=
201009220730 METAR LMML NIL=
201009220715 METAR LMML 220715Z 18005KT 150V240 9999 FEW019 SCT130 25/21
                        Q1018 NOSIG=
201009220700 METAR LMML NIL=
201009220645 METAR LMML 220645Z 19004KT 160V230 9999 SCT017 BKN130 24/20
                        Q1017 NOSIG=
201009220630 METAR LMML NIL=
201009220615 METAR LMML 220615Z VRB02KT 9999 FEW016 BKN120 24/21 Q1017
                        NOSIG=
201009220600 METAR LMML NIL=
201009220545 METAR LMML 220545Z VRB02KT 9999 FEW016 BKN120 23/21 Q1017
                        NOSIG RMK SMOKE TO NORTH=
201009220530 METAR LMML NIL=
201009220515 METAR LMML 220515Z VRB03KT 9999 FEW016 BKN120 23/20 Q1017
                        NOSIG=
201009220500 METAR LMML NIL=
201009220445 METAR LMML 220445Z VRB02KT 9999 FEW016 BKN120 23/20 Q1017
                        NOSIG=
201009220430 METAR LMML NIL=
201009220415 METAR LMML 220415Z VRB03KT 9999 FEW015 SCT120 23/20 Q1017
                        NOSIG=
201009220400 METAR LMML NIL=
201009220345 METAR LMML 220345Z VRB02KT 9999 FEW015 SCT120 23/20 Q1017
                        NOSIG=
201009220330 METAR LMML NIL=
201009220315 METAR LMML 220315Z VRB03KT 9999 FEW015 SCT120 22/20 Q1017
                        NOSIG=
201009220300 METAR LMML NIL=
201009220245 METAR LMML 220245Z VRB03KT 9999 FEW018 SCT120 22/20 Q1016
                        NOSIG=
201009220230 METAR LMML NIL=
201009220215 METAR LMML 220215Z VRB03KT 9999 FEW018 SCT120 22/20 Q1016
                        NOSIG=
201009220200 METAR LMML NIL=
201009220145 METAR LMML 220145Z 17004KT 140V200 9999 FEW018 SCT110 22/20
                        Q1017 NOSIG=
201009220130 METAR LMML NIL=
201009220115 METAR LMML 220115Z 12004KT 9999 FEW018 SCT110 22/19 Q1017
                        NOSIG=
201009220100 METAR LMML NIL=
201009220045 METAR LMML 220045Z VRB03KT 9999 FEW018 BKN110 22/19 Q1017
                        NOSIG=
201009220015 METAR LMML 220015Z VRB01KT 9999 FEW018 BKN110 23/19 Q1017
                        NOSIG=
201009220000 METAR LMML NIL=
201009212345 METAR LMML 212345Z VRB01KT 9999 FEW018 BKN110 23/20 Q1018
                        NOSIG=
201009212330 METAR LMML NIL=
201009212315 METAR LMML 212315Z VRB02KT CAVOK 23/19 Q1018 NOSIG=
201009212300 METAR LMML NIL=
201009212245 METAR LMML 212245Z VRB03KT 9999 FEW020 BKN120 23/20 Q1018
                        NOSIG=
201009212230 METAR LMML NIL=
201009212215 METAR LMML 212215Z VRB03KT 9999 FEW020 BKN120 23/20 Q1018
                        NOSIG=
201009212200 METAR LMML NIL=
201009212145 METAR LMML 212145Z VRB01KT 9999 FEW020 BKN120 23/20 Q1018
                        NOSIG=
201009212130 METAR LMML NIL=
201009212115 METAR LMML 212115Z 00000KT 9999 FEW020 BKN120 23/20 Q1018
                        NOSIG=
201009212100 METAR LMML NIL=
201009212045 METAR LMML 212045Z 00000KT 9999 FEW018 BKN120 23/20 Q1018
                        NOSIG=
201009212030 METAR LMML NIL=
201009212015 METAR LMML 212015Z 00000KT 9999 FEW018 BKN120 23/20 Q1018
                        NOSIG=
201009212000 METAR LMML NIL=
201009211945 METAR LMML 211945Z VRB01KT 9999 FEW018 BKN120 24/20 Q1018
                        NOSIG=
201009211930 METAR LMML NIL=
201009211915 METAR LMML 211915Z VRB01KT 9999 FEW018 BKN120 24/20 Q1018
                        NOSIG=
201009211900 METAR LMML NIL=
201009211845 METAR LMML 211845Z VRB01KT 9999 SCT018 BKN120 24/19 Q1018
                        NOSIG=
201009211830 METAR LMML NIL=
201009211815 METAR LMML 211815Z VRB01KT 9999 FEW020 BKN120 24/19 Q1018
                        NOSIG=
201009211800 METAR LMML NIL=
201009211745 METAR LMML 211745Z VRB02KT 9999 FEW020 SCT120 24/19 Q1018
                        NOSIG=
201009211730 METAR LMML NIL=
201009211715 METAR LMML 211715Z 25004KT 210V280 9999 FEW023 BKN120 24/19
                        Q1018 NOSIG=
201009211645 METAR LMML 211645Z 24004KT 200V290 9999 FEW020 BKN120 24/19
                        Q1018 NOSIG=
201009211630 METAR LMML NIL=
201009211615 METAR LMML 211615Z 23006KT 200V300 9999 FEW020 BKN120 24/19
                        Q1018 NOSIG=
201009211600 METAR LMML NIL=
201009211545 METAR LMML 211545Z 23005KT 190V290 9999 SCT020 BKN120 24/19
                        Q1018 NOSIG=
201009211530 METAR LMML NIL=
201009211515 METAR LMML 211515Z 23007KT 200V270 9999 SCT021 BKN120 24/19
                        Q1018 NOSIG=
201009211500 METAR LMML NIL=
201009211445 METAR LMML 211445Z 23005KT 190V290 9999 SCT021 BKN120 25/19
                        Q1018 NOSIG=
201009211430 METAR LMML NIL=
201009211415 METAR LMML 211415Z 22006KT 160V270 9999 FEW021 BKN120 25/19
                        Q1018 NOSIG=
201009211400 METAR LMML NIL=
201009211345 METAR LMML 211345Z 19005KT 140V250 9999 FEW021 BKN120 25/19
                        Q1018 NOSIG=
201009211330 METAR LMML NIL=
201009211315 METAR LMML 211315Z 20005KT 140V240 9999 FEW025 BKN120 24/18
                        Q1018 NOSIG=
201009211245 METAR LMML 211245Z 20005KT 150V260 9999 FEW025 BKN250 25/17
                        Q1018 NOSIG=
201009211230 METAR LMML NIL=
201009211215 METAR LMML 211215Z 15005KT 120V180 CAVOK 25/16 Q1018 NOSIG=
201009211145 METAR LMML 211145Z 15006KT 130V190 CAVOK 25/15 Q1018 NOSIG=
201009211130 METAR LMML NIL=
201009211115 METAR LMML 211115Z 16006KT 100V210 CAVOK 26/16 Q1018 NOSIG=
201009211045 METAR LMML 211045Z 16007KT 100V210 9999 FEW030 BKN120 25/17
                        Q1018 NOSIG=
201009211030 METAR LMML NIL=
201009211015 METAR LMML 211015Z 11008KT 080V160 9999 FEW030 BKN120 26/17
                        Q1018 NOSIG=
201009210945 METAR LMML 210945Z 13005KT 040V220 9999 FEW030 SCT120 26/17
                        Q1018 NOSIG=
201009210930 METAR LMML NIL=
201009210915 METAR LMML 210915Z 09005KT 030V160 9999 FEW030 BKN250 26/17
                        Q1018 NOSIG=
201009210900 METAR LMML NIL=
201009210845 METAR LMML 210845Z VRB03KT 9999 FEW020 BKN250 25/17 Q1018
                        NOSIG=
201009210830 METAR LMML NIL=
201009210815 METAR LMML 210815Z VRB02KT 9999 FEW020 BKN250 25/17 Q1018
                        NOSIG=
201009210745 METAR LMML 210745Z VRB02KT 9999 FEW020 BKN250 24/17 Q1018
                        NOSIG=
201009210730 METAR LMML NIL=
201009210715 METAR LMML 210715Z VRB01KT 9999 FEW020 BKN250 23/18 Q1018
                        NOSIG=
201009210645 METAR LMML 210645Z VRB02KT 9999 FEW020 BKN250 22/18 Q1018
                        NOSIG=
201009210615 METAR LMML 210615Z VRB03KT 9999 FEW020 BKN250 21/18 Q1018
                        NOSIG=
201009210600 METAR LMML NIL=
201009210545 METAR LMML 210545Z VRB02KT CAVOK 20/17 Q1018 NOSIG=
201009210530 METAR LMML NIL=
201009210515 METAR LMML 210515Z VRB03KT CAVOK 20/17 Q1017 NOSIG=
201009210500 METAR LMML NIL=
201009210445 METAR LMML 210445Z VRB02KT CAVOK 20/17 Q1017 NOSIG=
201009210430 METAR LMML NIL=
201009210415 METAR LMML 210415Z VRB01KT CAVOK 20/17 Q1017 NOSIG=
201009210400 METAR LMML NIL=
201009210345 METAR LMML 210345Z VRB01KT CAVOK 20/17 Q1017 NOSIG=
201009210330 METAR LMML NIL=
201009210315 METAR LMML 210315Z VRB02KT CAVOK 20/17 Q1017 NOSIG=
201009210300 METAR LMML NIL=
201009210245 METAR LMML 210245Z VRB02KT CAVOK 20/17 Q1017 NOSIG=
201009210230 METAR LMML NIL=
201009210215 METAR LMML 210215Z VRB02KT CAVOK 20/17 Q1017 NOSIG=
201009210200 METAR LMML NIL=
201009210145 METAR LMML 210145Z VRB02KT CAVOK 20/17 Q1017 NOSIG=
201009210130 METAR LMML NIL=
201009210115 METAR LMML 210115Z VRB03KT CAVOK 20/17 Q1017 NOSIG=
201009210100 METAR LMML NIL=
201009210045 METAR LMML 210045Z VRB03KT CAVOK 20/17 Q1017 NOSIG=
201009210030 METAR LMML NIL=
201009210015 METAR LMML 210015Z VRB02KT CAVOK 20/17 Q1017 NOSIG=
201009210000 METAR LMML NIL=
201009202345 METAR LMML 202345Z VRB02KT CAVOK 20/17 Q1017 NOSIG=
201009202330 METAR LMML NIL=
201009202315 METAR LMML 202315Z VRB01KT CAVOK 20/17 Q1017 NOSIG=
201009202300 METAR LMML NIL=
201009202245 METAR LMML 202245Z VRB03KT CAVOK 21/17 Q1017 NOSIG=
201009202230 METAR LMML NIL=
201009202215 METAR LMML 202215Z VRB02KT CAVOK 20/17 Q1017 NOSIG=
201009202200 METAR LMML NIL=
201009202145 METAR LMML 202145Z VRB01KT CAVOK 21/17 Q1017 NOSIG=
201009202130 METAR LMML NIL=
201009202115 METAR LMML 202115Z VRB01KT CAVOK 21/17 Q1017 NOSIG=
201009202100 METAR LMML NIL=
201009202045 METAR LMML 202045Z VRB02KT CAVOK 22/17 Q1017 NOSIG=
201009202030 METAR LMML NIL=
201009202015 METAR LMML 202015Z VRB03KT CAVOK 22/17 Q1017 NOSIG=
201009202000 METAR LMML NIL=
201009201945 METAR LMML 201945Z VRB01KT CAVOK 22/16 Q1017 NOSIG=
201009201930 METAR LMML NIL=
201009201915 METAR LMML 201915Z VRB02KT CAVOK 22/16 Q1017 NOSIG=
201009201900 METAR LMML NIL=
201009201845 METAR LMML 201845Z VRB03KT 9999 FEW030 22/16 Q1017 NOSIG=
201009201830 METAR LMML NIL=
201009201815 METAR LMML 201815Z 35004KT 300V020 9999 FEW030 23/16 Q1016
                        NOSIG=
201009201800 METAR LMML NIL=
201009201745 METAR LMML 201745Z 34004KT 9999 FEW030 23/16 Q1016 NOSIG=
201009201730 METAR LMML NIL=
201009201715 METAR LMML 201715Z 35004KT 320V020 9999 FEW031 23/17 Q1016
                        NOSIG=
201009201700 METAR LMML NIL=
201009201645 METAR LMML 201645Z 34006KT 310V020 9999 FEW033 24/17 Q1016
                        NOSIG=
201009201630 METAR LMML NIL=
201009201615 METAR LMML 201615Z 34006KT 310V020 9999 FEW033 25/17 Q1016
                        NOSIG=
201009201600 METAR LMML NIL=
201009201545 METAR LMML 201545Z 35006KT 310V030 9999 FEW033 26/17 Q1016
                        NOSIG=
201009201530 METAR LMML NIL=
201009201515 METAR LMML 201515Z 03005KT 350V100 9999 FEW034 27/17 Q1016
                        NOSIG=
201009201500 METAR LMML NIL=
201009201445 METAR LMML 201445Z 02004KT 330V090 9999 SCT035 26/17 Q1016
                        NOSIG=
201009201430 METAR LMML NIL=
201009201415 METAR LMML 201415Z 36005KT 280V140 9999 FEW033 27/16 Q1016
                        NOSIG=
201009201400 METAR LMML NIL=
201009201345 METAR LMML 201345Z 36004KT 290V060 9999 FEW035 27/16 Q1016
                        NOSIG=
201009201330 METAR LMML NIL=
201009201315 METAR LMML 201315Z 03005KT 300V120 9999 FEW033 27/16 Q1016
                        NOSIG=
201009201300 METAR LMML NIL=
201009201245 METAR LMML 201245Z 05005KT 010V160 9999 FEW033 27/16 Q1016
                        NOSIG=
201009201230 METAR LMML NIL=
201009201215 METAR LMML 201215Z 02004KT 340V070 9999 FEW033 28/16 Q1016
                        NOSIG=
201009201200 METAR LMML NIL=
201009201145 METAR LMML 201145Z 33004KT 250V060 9999 FEW033 27/16 Q1016
                        NOSIG=
201009201130 METAR LMML NIL=
201009201115 METAR LMML 201115Z 01005KT 9999 FEW033 27/16 Q1016 NOSIG=
201009201100 METAR LMML NIL=
201009201045 METAR LMML 201045Z 01007KT 340V040 9999 FEW033 28/16 Q1016
                        NOSIG=
201009201030 METAR LMML NIL=
201009201015 METAR LMML 201015Z 35007KT 300V030 9999 FEW033 27/16 Q1016
                        NOSIG=
201009201000 METAR LMML NIL=
201009200945 METAR LMML 200945Z 33009KT 300V010 9999 FEW032 26/17 Q1016
                        NOSIG=
201009200930 METAR LMML NIL=
201009200915 METAR LMML 200915Z 33010KT 300V360 9999 FEW031 26/17 Q1017
                        NOSIG=
201009200900 METAR LMML NIL=
201009200845 METAR LMML 200845Z 32011KT 290V350 9999 FEW020 26/17 Q1017
                        NOSIG=
201009200830 METAR LMML NIL=
201009200815 METAR LMML 200815Z 33013KT 9999 FEW020 25/18 Q1016 NOSIG=
201009200800 METAR LMML NIL=
201009200745 METAR LMML 200745Z 32012KT 290V350 9999 FEW020 25/18 Q1016
                        NOSIG=
201009200730 METAR LMML NIL=
201009200715 METAR LMML 200715Z 32012KT 9999 FEW020 24/18 Q1016 NOSIG=
201009200700 METAR LMML NIL=
201009200645 METAR LMML 200645Z 32010KT 9999 FEW020 24/18 Q1016 NOSIG=
201009200630 METAR LMML NIL=
201009200615 METAR LMML 200615Z 30008KT 9999 FEW020 23/18 Q1015 NOSIG=
201009200600 METAR LMML NIL=
201009200545 METAR LMML 200545Z 31008KT 9999 FEW020 22/18 Q1015 NOSIG=
201009200530 METAR LMML NIL=
201009200515 METAR LMML 200515Z 32008KT 9999 FEW020 21/18 Q1015 NOSIG=
201009200500 METAR LMML NIL=
201009200445 METAR LMML 200445Z 32009KT CAVOK 21/18 Q1015 NOSIG=
201009200430 METAR LMML NIL=
201009200415 METAR LMML 200415Z 32008KT 9999 FEW020 21/18 Q1015 NOSIG=
201009200400 METAR LMML NIL=
201009200345 METAR LMML 200345Z 33009KT CAVOK 22/18 Q1014 NOSIG=
201009200330 METAR LMML NIL=
201009200315 METAR LMML 200315Z 33010KT CAVOK 22/18 Q1014 NOSIG=
201009200300 METAR LMML NIL=
201009200245 METAR LMML 200245Z 32009KT CAVOK 22/19 Q1014 NOSIG=
201009200230 METAR LMML NIL=
201009200215 METAR LMML 200215Z 32009KT CAVOK 22/19 Q1014 NOSIG=
201009200200 METAR LMML NIL=
201009200145 METAR LMML 200145Z 31009KT CAVOK 22/18 Q1014 NOSIG=
201009200130 METAR LMML NIL=
201009200115 METAR LMML 200115Z 33008KT CAVOK 22/18 Q1014 NOSIG=
201009200100 METAR LMML NIL=
201009200045 METAR LMML 200045Z 32010KT CAVOK 22/18 Q1015 NOSIG=
201009200030 METAR LMML NIL=
201009200015 METAR LMML 200015Z 30009KT 270V330 CAVOK 22/18 Q1015 NOSIG=
201009200000 METAR LMML NIL=
201009192345 METAR LMML 192345Z 31010KT CAVOK 22/18 Q1015 NOSIG=
201009192330 METAR LMML NIL=
201009192315 METAR LMML 192315Z 31012KT CAVOK 22/18 Q1015 NOSIG=
201009192300 METAR LMML NIL=
201009192245 METAR LMML 192245Z 30010KT CAVOK 23/18 Q1015 NOSIG=
201009192230 METAR LMML NIL=
201009192215 METAR LMML 192215Z 30011KT 270V330 CAVOK 23/18 Q1015 NOSIG=
201009192200 METAR LMML NIL=
201009192145 METAR LMML 192145Z 30013KT CAVOK 23/19 Q1015 NOSIG=
201009192130 METAR LMML NIL=
201009192115 METAR LMML 192115Z 29012KT CAVOK 23/19 Q1015 NOSIG=
201009192100 METAR LMML NIL=
201009192045 METAR LMML 192045Z 30014KT 260V320 CAVOK 24/18 Q1015 NOSIG=
201009192030 METAR LMML NIL=
201009192015 METAR LMML 192015Z 30013KT CAVOK 24/18 Q1015 NOSIG=
201009192000 METAR LMML NIL=
201009191945 METAR LMML 191945Z 30012KT CAVOK 24/19 Q1015 NOSIG=
201009191930 METAR LMML NIL=
201009191915 METAR LMML 191915Z 29010KT 260V320 CAVOK 24/20 Q1015 NOSIG=
201009191900 METAR LMML NIL=
201009191845 METAR LMML 191845Z 29010KT 260V320 CAVOK 24/20 Q1014 NOSIG=
201009191830 METAR LMML NIL=
201009191815 METAR LMML 191815Z 30009KT 260V320 CAVOK 24/20 Q1014 NOSIG=
201009191800 METAR LMML NIL=
201009191745 METAR LMML 191745Z 30010KT CAVOK 24/19 Q1014 NOSIG=
201009191730 METAR LMML NIL=
201009191715 METAR LMML 191715Z 29011KT 270V330 9999 FEW016 24/20 Q1014
                        NOSIG=
201009191700 METAR LMML NIL=
201009191645 METAR LMML 191645Z 30013KT 9999 FEW016 25/21 Q1014 NOSIG=
201009191630 METAR LMML NIL=
201009191615 METAR LMML 191615Z 28011KT 250V310 9999 FEW016 26/21 Q1014
                        NOSIG=
201009191600 METAR LMML NIL=
201009191545 METAR LMML 191545Z 29011KT 260V320 9999 FEW017 26/21 Q1014
                        NOSIG=
201009191530 METAR LMML NIL=
201009191515 METAR LMML 191515Z 28012KT 240V310 9999 FEW017 26/21 Q1014
                        NOSIG=
201009191500 METAR LMML NIL=
201009191445 METAR LMML 191445Z 27010KT 220V310 9999 FEW017 27/21 Q1014
                        NOSIG=
201009191415 METAR LMML 191415Z 26010KT 220V300 9999 FEW017 27/21 Q1014
                        NOSIG=
201009191400 METAR LMML NIL=
201009191345 METAR LMML 191345Z 25010KT 200V310 9999 SCT018 28/22 Q1014
                        NOSIG=
201009191330 METAR LMML NIL=
201009191315 METAR LMML 191315Z 26009KT 220V310 9999 SCT019 28/22 Q1014
                        NOSIG=
201009191300 METAR LMML NIL=
201009191245 METAR LMML 191245Z 25009KT 200V290 9999 SCT019 28/22 Q1014
                        NOSIG=
201009191230 METAR LMML NIL=
201009191215 METAR LMML 191215Z 25008KT 210V280 9999 FEW020 28/21 Q1015
                        NOSIG=
201009191200 METAR LMML NIL=
201009191145 METAR LMML 191145Z 27009KT 220V310 9999 FEW030 29/20 Q1015
                        NOSIG=
201009191130 METAR LMML NIL=
201009191115 METAR LMML 191115Z 26009KT 220V300 CAVOK 29/16 Q1015 NOSIG=
201009191100 METAR LMML NIL=
201009191045 METAR LMML 191045Z 24008KT 200V280 CAVOK 28/18 Q1015 NOSIG=
201009191030 METAR LMML NIL=
201009191015 METAR LMML 191015Z 25008KT 200V300 CAVOK 28/14 Q1015 NOSIG=
201009191000 METAR LMML NIL=
201009190945 METAR LMML 190945Z 25007KT 210V310 CAVOK 29/14 Q1015 NOSIG=
201009190930 METAR LMML NIL=
201009190915 METAR LMML 190915Z 27006KT 180V300 CAVOK 28/15 Q1015 NOSIG=
201009190900 METAR LMML NIL=
201009190845 METAR LMML 190845Z 24005KT 200V300 CAVOK 28/18 Q1015 NOSIG=
201009190830 METAR LMML NIL=
201009190815 METAR LMML 190815Z 24006KT 200V280 CAVOK 27/20 Q1015 NOSIG=
201009190800 METAR LMML NIL=
201009190745 METAR LMML 190745Z 23006KT 190V280 CAVOK 26/20 Q1015 NOSIG=
201009190730 METAR LMML NIL=
201009190715 METAR LMML 190715Z VRB03KT CAVOK 25/22 Q1015 NOSIG=
201009190700 METAR LMML NIL=
201009190645 METAR LMML 190645Z VRB03KT CAVOK 24/23 Q1015 NOSIG=
201009190630 METAR LMML NIL=
201009190615 METAR LMML 190615Z VRB02KT CAVOK 23/22 Q1015 NOSIG=
201009190600 METAR LMML NIL=
201009190545 METAR LMML 190545Z VRB03KT CAVOK 22/22 Q1015 NOSIG=
201009190530 METAR LMML NIL=
201009190515 METAR LMML 190515Z VRB02KT CAVOK 21/21 Q1015 NOSIG=
201009190500 METAR LMML NIL=
201009190445 METAR LMML 190445Z VRB02KT 9999 MIFG NSC 22/21 Q1014 NOSIG=
201009190430 METAR LMML NIL=
201009190415 METAR LMML 190415Z VRB02KT CAVOK 21/20 Q1014 NOSIG=
201009190345 METAR LMML 190345Z VRB03KT CAVOK 22/21 Q1014 NOSIG=
201009190330 METAR LMML NIL=
201009190315 METAR LMML 190315Z VRB03KT CAVOK 22/21 Q1014 NOSIG=
201009190300 METAR LMML NIL=
201009190245 METAR LMML 190245Z VRB03KT CAVOK 22/21 Q1014 NOSIG=
201009190230 METAR LMML NIL=
201009190215 METAR LMML 190215Z 21004KT 180V240 9999 FEW020 22/21 Q1014
                        NOSIG=
201009190145 METAR LMML 190145Z VRB03KT 9999 FEW020 22/21 Q1014 NOSIG=
201009190115 METAR LMML 190115Z VRB03KT 9999 FEW020 22/21 Q1015 NOSIG=
201009190100 METAR LMML NIL=
201009190045 METAR LMML 190045Z VRB03KT 9999 FEW020 22/20 Q1015 NOSIG=
201009190030 METAR LMML NIL=
201009190015 METAR LMML 190015Z VRB03KT 9999 FEW020 22/21 Q1015 NOSIG=
201009190000 METAR LMML NIL=
201009182345 METAR LMML 182345Z 18004KT 9999 FEW020 23/21 Q1015 NOSIG=
201009182315 METAR LMML 182315Z VRB03KT 9999 FEW020 23/20 Q1015 NOSIG=
201009182300 METAR LMML NIL=
201009182245 METAR LMML 182245Z VRB03KT 9999 FEW020 23/20 Q1016 NOSIG=
201009182230 METAR LMML NIL=
201009182215 METAR LMML 182215Z VRB03KT 9999 FEW020 SCT250 23/20 Q1016
                        NOSIG=
201009182145 METAR LMML 182145Z VRB03KT 9999 FEW020 SCT250 23/20 Q1016
                        NOSIG=
201009182130 METAR LMML NIL=
201009182115 METAR LMML 182115Z VRB03KT 9999 FEW020 SCT250 23/21 Q1016
                        NOSIG=
201009182100 METAR LMML NIL=
201009182045 METAR LMML 182045Z VRB02KT 9999 FEW020 SCT250 23/21 Q1016
                        NOSIG=
201009182030 METAR LMML NIL=
201009182015 METAR LMML 182015Z VRB02KT 9999 FEW020 SCT250 23/21 Q1016
                        NOSIG=
201009182000 METAR LMML NIL=
201009181945 METAR LMML 181945Z VRB02KT 9999 FEW020 SCT250 24/21 Q1016
                        NOSIG=
201009181930 METAR LMML NIL=
201009181915 METAR LMML 181915Z VRB02KT 9999 FEW020 SCT250 24/21 Q1016
                        NOSIG=
201009181900 METAR LMML NIL=
201009181845 METAR LMML 181845Z VRB02KT 9999 FEW020 BKN250 24/21 Q1016
                        NOSIG=
201009181830 METAR LMML NIL=
201009181815 METAR LMML 181815Z VRB02KT 9999 FEW020 BKN250 24/21 Q1016
                        NOSIG=
201009181800 METAR LMML NIL=
201009181745 METAR LMML 181745Z VRB02KT 9999 FEW017 BKN250 25/21 Q1016
                        NOSIG=
201009181715 METAR LMML 181715Z VRB02KT 9999 FEW017 BKN250 25/20 Q1016
                        NOSIG=
201009181700 METAR LMML NIL=
201009181645 METAR LMML 181645Z 20004KT 170V240 9999 FEW018 BKN250 26/20
                        Q1016 NOSIG=
201009181630 METAR LMML NIL=
201009181615 METAR LMML 181615Z 20004KT 160V230 9999 FEW019 BKN250 26/20
                        Q1016 NOSIG=
201009181600 METAR LMML NIL=
201009181545 METAR LMML 181545Z 22005KT 190V260 9999 FEW019 SCT250 26/21
                        Q1016 NOSIG=
201009181530 METAR LMML NIL=
201009181515 METAR LMML 181515Z 23006KT 200V270 9999 SCT017 SCT250 26/20
                        Q1016 NOSIG=
201009181500 METAR LMML NIL=
201009181445 METAR LMML 181445Z 22005KT 190V260 9999 FEW019 27/21 Q1016
                        NOSIG=
201009181430 METAR LMML NIL=
201009181415 METAR LMML 181415Z 22005KT 170V270 9999 FEW019 27/20 Q1016
                        NOSIG=
201009181400 METAR LMML NIL=
201009181345 METAR LMML 181345Z 20006KT 160V250 9999 FEW022 27/20 Q1016
                        NOSIG=
201009181330 METAR LMML NIL=
201009181315 METAR LMML 181315Z 19006KT 160V230 9999 FEW022 27/20 Q1016
                        NOSIG=
201009181300 METAR LMML NIL=
201009181245 METAR LMML 181245Z 20006KT 140V260 9999 SCT019 27/20 Q1017
                        NOSIG=
201009181230 METAR LMML NIL=
201009181215 METAR LMML 181215Z 20006KT 160V270 9999 SCT018 27/21 Q1017
                        NOSIG=
201009181200 METAR LMML NIL=
201009181145 METAR LMML 181145Z 19007KT 130V240 9999 SCT022 27/21 Q1017
                        NOSIG=
201009181130 METAR LMML NIL=
201009181115 METAR LMML 181115Z 22006KT 170V280 9999 BKN019 27/21 Q1017
                        NOSIG=
201009181100 METAR LMML NIL=
201009181045 METAR LMML 181045Z 19007KT 140V280 9999 SCT022 27/20 Q1018
                        NOSIG=
201009181030 METAR LMML NIL=
201009181015 METAR LMML 181015Z 20007KT 150V260 9999 SCT022 27/20 Q1018
                        NOSIG=
201009181000 METAR LMML NIL=
201009180945 METAR LMML 180945Z 20007KT 160V260 9999 SCT021 26/20 Q1018
                        NOSIG=
201009180930 METAR LMML NIL=
201009180915 METAR LMML 180915Z 20007KT 150V250 9999 SCT022 27/20 Q1018
                        NOSIG=
201009180900 METAR LMML NIL=
201009180845 METAR LMML 180845Z 19007KT 150V240 9999 SCT022 26/20 Q1018
                        NOSIG=
201009180830 METAR LMML NIL=
201009180815 METAR LMML 180815Z 19007KT 160V240 9999 SCT023 26/20 Q1018
                        NOSIG=
201009180800 METAR LMML NIL=
201009180745 METAR LMML 180745Z 21006KT 160V270 9999 SCT022 26/19 Q1018
                        NOSIG=
201009180730 METAR LMML NIL=
201009180715 METAR LMML 180715Z 20006KT 160V240 9999 FEW022 25/19 Q1018
                        NOSIG=
201009180700 METAR LMML NIL=
201009180645 METAR LMML 180645Z 19005KT 150V230 9999 FEW022 25/19 Q1018
                        NOSIG=
201009180630 METAR LMML NIL=
201009180615 METAR LMML 180615Z VRB03KT 9999 FEW025 24/19 Q1017 NOSIG=
201009180600 METAR LMML NIL=
201009180545 METAR LMML 180545Z VRB02KT 9999 SCT022 23/19 Q1017 NOSIG=
201009180530 METAR LMML NIL=
201009180515 METAR LMML 180515Z VRB03KT 9999 SCT023 22/19 Q1017 NOSIG=
201009180500 METAR LMML NIL=
201009180445 METAR LMML 180445Z VRB03KT 9999 FEW025 22/18 Q1017 NOSIG=
201009180430 METAR LMML NIL=
201009180415 METAR LMML 180415Z 19004KT 9999 FEW025 23/18 Q1017 NOSIG=
201009180400 METAR LMML NIL=
201009180345 METAR LMML 180345Z VRB03KT 9999 FEW024 22/19 Q1017 NOSIG=
201009180330 METAR LMML NIL=
201009180315 METAR LMML 180315Z VRB03KT 9999 FEW023 23/19 Q1017 NOSIG=
201009180300 METAR LMML NIL=
201009180245 METAR LMML 180245Z 20004KT 150V240 9999 FEW023 23/19 Q1017
                        NOSIG=
201009180230 METAR LMML NIL=
201009180215 METAR LMML 180215Z 19004KT 160V230 9999 FEW021 23/19 Q1017
                        NOSIG=
201009180200 METAR LMML NIL=
201009180145 METAR LMML 180145Z 18005KT 9999 FEW021 23/19 Q1017 NOSIG=
201009180130 METAR LMML NIL=
201009180115 METAR LMML 180115Z VRB03KT 9999 FEW021 23/19 Q1017 NOSIG=
201009180100 METAR LMML NIL=
201009180045 METAR LMML 180045Z VRB03KT 9999 SCT021 23/19 Q1017 NOSIG=
201009180030 METAR LMML NIL=
201009180015 METAR LMML 180015Z VRB03KT 9999 FEW021 23/19 Q1017 NOSIG=
201009180000 METAR LMML NIL=
201009172345 METAR LMML 172345Z 19004KT 150V220 9999 FEW025 23/19 Q1018
                        NOSIG=
201009172330 METAR LMML NIL=
201009172315 METAR LMML 172315Z 19004KT 9999 FEW025 23/19 Q1018 NOSIG=
201009172300 METAR LMML NIL=
201009172245 METAR LMML 172245Z VRB03KT 9999 FEW025 23/19 Q1018 NOSIG=
201009172230 METAR LMML NIL=
201009172215 METAR LMML 172215Z 19004KT 160V240 9999 FEW024 23/19 Q1018
                        NOSIG=
201009172200 METAR LMML NIL=
201009172145 METAR LMML 172145Z 19004KT 160V220 9999 FEW025 23/18 Q1018
                        NOSIG=
201009172130 METAR LMML NIL=
201009172115 METAR LMML 172115Z 19004KT 160V220 9999 FEW025 23/18 Q1018
                        NOSIG=
201009172100 METAR LMML NIL=
201009172045 METAR LMML 172045Z 19005KT 150V210 9999 FEW025 23/18 Q1018
                        NOSIG=
201009172030 METAR LMML NIL=
201009172015 METAR LMML 172015Z 18005KT 160V220 9999 FEW024 24/19 Q1018
                        NOSIG=
201009172000 METAR LMML NIL=
201009171945 METAR LMML 171945Z 17004KT 150V210 9999 FEW024 23/18 Q1018
                        NOSIG=
201009171930 METAR LMML NIL=
201009171915 METAR LMML 171915Z VRB03KT 9999 FEW024 23/18 Q1018 NOSIG=
201009171900 METAR LMML NIL=
201009171845 METAR LMML 171845Z 18004KT 150V210 9999 FEW024 24/18 Q1018
                        NOSIG=
201009171830 METAR LMML NIL=
201009171815 METAR LMML 171815Z VRB02KT 9999 FEW022 24/18 Q1018 NOSIG=
201009171745 METAR LMML 171745Z VRB03KT 9999 FEW025 24/18 Q1017 NOSIG=
201009171730 METAR LMML NIL=
201009171715 METAR LMML 171715Z 19004KT 150V230 9999 FEW026 24/18 Q1017
                        NOSIG=
201009171700 METAR LMML NIL=
201009171645 METAR LMML 171645Z 19004KT 9999 FEW026 24/18 Q1017 NOSIG=
201009171630 METAR LMML NIL=
201009171615 METAR LMML 171615Z 19004KT 140V220 9999 FEW026 25/18 Q1017
                        NOSIG=
201009171600 METAR LMML NIL=
201009171545 METAR LMML 171545Z 21004KT 170V240 9999 FEW026 25/18 Q1017
                        NOSIG=
201009171530 METAR LMML NIL=
201009171515 METAR LMML 171515Z 22005KT 160V290 9999 FEW026 26/18 Q1017
                        NOSIG=
201009171500 METAR LMML NIL=
201009171445 METAR LMML 171445Z 21006KT 140V280 9999 SCT026 26/18 Q1017
                        NOSIG=
201009171415 METAR LMML 171415Z 22006KT 170V260 9999 SCT027 26/18 Q1018
                        NOSIG=
201009171400 METAR LMML NIL=
201009171345 METAR LMML 171345Z 23007KT 180V310 9999 SCT028 26/18 Q1018
                        NOSIG=
201009171330 METAR LMML NIL=
201009171315 METAR LMML 171315Z 19006KT 160V250 9999 SCT026 26/18 Q1018
                        NOSIG=
201009171300 METAR LMML NIL=
201009171245 METAR LMML 171245Z 18007KT 140V210 9999 SCT028 26/18 Q1018
                        NOSIG=
201009171230 METAR LMML NIL=
201009171215 METAR LMML 171215Z 24007KT 190V300 9999 SCT027 26/18 Q1018
                        NOSIG=
201009171200 METAR LMML NIL=
201009171145 METAR LMML 171145Z 22007KT 170V300 9999 SCT031 26/17 Q1018
                        NOSIG=
201009171115 METAR LMML 171115Z 21007KT 160V260 9999 SCT028 26/18 Q1018
                        NOSIG=
201009171100 METAR LMML NIL=
201009171045 METAR LMML 171045Z 22007KT 180V280 9999 SCT029 26/18 Q1019
                        NOSIG=
201009171030 METAR LMML NIL=
201009171015 METAR LMML 171015Z 22007KT 110V270 9999 SCT030 26/18 Q1019
                        NOSIG=
201009171000 METAR LMML NIL=
201009170945 METAR LMML 170945Z 22007KT 180V290 9999 SCT029 26/17 Q1019
                        NOSIG=
201009170930 METAR LMML NIL=
201009170915 METAR LMML 170915Z 24007KT 200V280 9999 SCT027 25/18 Q1019
                        NOSIG=
201009170845 METAR LMML 170845Z 21007KT 150V280 9999 SCT027 25/18 Q1019
                        NOSIG=
201009170830 METAR LMML NIL=
201009170815 METAR LMML 170815Z 23006KT 180V280 9999 SCT024 25/18 Q1019
                        NOSIG=
201009170800 METAR LMML NIL=
201009170745 METAR LMML 170745Z 22006KT 160V280 9999 SCT023 24/18 Q1019
                        NOSIG=
201009170715 METAR LMML 170715Z 21006KT 170V250 9999 FEW020 24/19 Q1019
                        NOSIG=
201009170700 METAR LMML NIL=
201009170645 METAR LMML 170645Z 20004KT 130V260 9999 FEW025 23/19 Q1019
                        NOSIG=
201009170630 METAR LMML NIL=
201009170615 METAR LMML 170615Z VRB03KT 9999 FEW020 22/19 Q1018 NOSIG=
201009170600 METAR LMML NIL=
201009170545 METAR LMML 170545Z VRB03KT 9999 FEW018 21/19 Q1018 NOSIG=
201009170530 METAR LMML NIL=
201009170515 METAR LMML 170515Z VRB03KT 9999 FEW018 20/18 Q1018 NOSIG=
201009170445 METAR LMML 170445Z VRB03KT 9999 FEW015 20/18 Q1017 NOSIG=
201009170430 METAR LMML NIL=
201009170415 METAR LMML 170415Z VRB03KT 9999 FEW015 20/18 Q1017 NOSIG=
201009170400 METAR LMML NIL=
201009170345 METAR LMML 170345Z VRB03KT CAVOK 20/18 Q1017 NOSIG=
201009170330 METAR LMML NIL=
201009170315 METAR LMML 170315Z VRB02KT CAVOK 19/18 Q1017 NOSIG=
201009170245 METAR LMML 170245Z VRB02KT CAVOK 19/17 Q1017 NOSIG=
201009170230 METAR LMML NIL=
201009170215 METAR LMML 170215Z VRB01KT CAVOK 20/18 Q1017 NOSIG=
201009170200 METAR LMML NIL=
201009170145 METAR LMML 170145Z VRB02KT CAVOK 20/18 Q1017 NOSIG=
201009170130 METAR LMML NIL=
201009170115 METAR LMML 170115Z VRB02KT CAVOK 19/17 Q1017 NOSIG=
201009170100 METAR LMML NIL=
201009170045 METAR LMML 170045Z VRB02KT CAVOK 20/17 Q1017 NOSIG=
201009170030 METAR LMML NIL=
201009170015 METAR LMML 170015Z VRB02KT CAVOK 20/17 Q1017 NOSIG=
201009170000 METAR LMML NIL=
201009162345 METAR LMML 162345Z VRB02KT CAVOK 20/17 Q1018 NOSIG=
201009162330 METAR LMML NIL=
201009162315 METAR LMML 162315Z VRB02KT CAVOK 20/17 Q1018 NOSIG=
201009162300 METAR LMML NIL=
201009162245 METAR LMML 162245Z VRB02KT CAVOK 20/18 Q1018 NOSIG=
201009162230 METAR LMML NIL=
201009162215 METAR LMML 162215Z VRB03KT CAVOK 20/18 Q1018 NOSIG=
201009162200 METAR LMML NIL=
201009162145 METAR LMML 162145Z VRB02KT 9999 FEW020 21/18 Q1018 NOSIG=
201009162130 METAR LMML NIL=
201009162115 METAR LMML 162115Z VRB03KT 9999 FEW022 21/18 Q1018 NOSIG=
201009162100 METAR LMML NIL=
201009162045 METAR LMML 162045Z VRB03KT 9999 FEW022 21/18 Q1018 NOSIG=
201009162030 METAR LMML NIL=
201009162015 METAR LMML 162015Z VRB03KT 9999 FEW022 21/18 Q1018 NOSIG=
201009162000 METAR LMML NIL=
201009161945 METAR LMML 161945Z VRB02KT 9999 FEW022 21/19 Q1018 NOSIG=
201009161930 METAR LMML NIL=
201009161915 METAR LMML 161915Z VRB02KT 9999 FEW022 22/18 Q1018 NOSIG=
201009161900 METAR LMML NIL=
201009161845 METAR LMML 161845Z VRB03KT 9999 FEW022 22/19 Q1017 NOSIG=
201009161830 METAR LMML NIL=
201009161815 METAR LMML 161815Z 30004KT 9999 FEW022 22/19 Q1017 NOSIG=
201009161800 METAR LMML NIL=
201009161745 METAR LMML 161745Z VRB03KT 9999 FEW022 23/19 Q1017 NOSIG=
201009161730 METAR LMML NIL=
201009161715 METAR LMML 161715Z 31004KT 9999 FEW025 23/19 Q1016 NOSIG=
201009161700 METAR LMML NIL=
201009161645 METAR LMML 161645Z 30004KT 9999 FEW025 24/19 Q1016 NOSIG=
201009161630 METAR LMML NIL=
201009161615 METAR LMML 161615Z VRB02KT 9999 FEW025 24/18 Q1016 NOSIG=
201009161600 METAR LMML NIL=
201009161545 METAR LMML 161545Z 24004KT 200V310 9999 FEW025 25/18 Q1016
                        NOSIG=
201009161530 METAR LMML NIL=
201009161515 METAR LMML 161515Z 21004KT 170V250 9999 SCT025 25/18 Q1016
                        NOSIG=
201009161500 METAR LMML NIL=
201009161445 METAR LMML 161445Z VRB02KT 9999 FEW025 24/19 Q1017 NOSIG=
201009161430 METAR LMML NIL=
201009161415 METAR LMML 161415Z VRB02KT 9999 SCT025 23/19 Q1017 NOSIG=
201009161400 METAR LMML NIL=
201009161345 METAR LMML 161345Z VRB02KT 9000 FEW011 SCT024TCU 24/19 Q1017
                        BECMG 9999=
201009161330 METAR LMML NIL=
201009161315 METAR LMML 161315Z 18006KT 130V230 9999 -SHRA SCT020TCU 25/19
                        Q1017 NOSIG=
201009161300 METAR LMML NIL=
201009161245 METAR LMML 161245Z 21006KT 160V280 9999 SCT022TCU 25/19 Q1017
                        NOSIG=
201009161230 METAR LMML NIL=
201009161215 METAR LMML 161215Z 23005KT 190V280 9999 BKN023 24/18 Q1017
                        TEMPO 8000 SHRA BKN015TCU=
201009161200 METAR LMML NIL=
201009161145 METAR LMML 161145Z 02005KT 320V100 9999 BKN018TCU 26/19 Q1017
                        TEMPO 8000 SHRA BKN015TCU=
201009161130 METAR LMML NIL=
201009161115 METAR LMML 161115Z 05006KT 360V130 9999 BKN021CB 27/19 Q1017
                        TEMPO 8000 SHRA BKN015TCU=
201009161100 METAR LMML NIL=
201009161045 METAR LMML 161045Z 03006KT 360V080 9999 BKN022TCU 26/19 Q1017
                        NOSIG=
201009161030 METAR LMML NIL=
201009161015 METAR LMML 161015Z 02006KT 340V060 9999 BKN020TCU 26/19 Q1017
                        NOSIG=
201009161000 METAR LMML NIL=
201009160945 METAR LMML 160945Z 04007KT 020V080 9999 BKN023TCU 25/19 Q1018
                        NOSIG=
201009160930 METAR LMML NIL=
201009160915 METAR LMML 160915Z 03005KT 340V070 9999 SCT024 26/19 Q1017
                        NOSIG=
201009160900 METAR LMML NIL=
201009160845 METAR LMML 160845Z 03004KT 350V080 9999 SCT027 26/18 Q1018
                        NOSIG=
201009160830 METAR LMML NIL=
201009160815 METAR LMML 160815Z 02005KT 9999 SCT022 25/18 Q1017 NOSIG=
201009160800 METAR LMML NIL=
201009160745 METAR LMML 160745Z 15004KT 9999 BKN021 24/19 Q1017 NOSIG=
201009160730 METAR LMML NIL=
201009160715 METAR LMML 160715Z 02004KT 330V060 9999 SCT021 24/19 Q1017
                        NOSIG=
201009160700 METAR LMML NIL=
201009160645 METAR LMML 160645Z VRB02KT 9999 SCT020 22/19 Q1017 NOSIG=
201009160630 METAR LMML NIL=
201009160615 METAR LMML 160615Z 00000KT 9999 FEW021 22/19 Q1016 NOSIG=
201009160600 METAR LMML NIL=
201009160545 METAR LMML 160545Z VRB01KT 9999 FEW022 20/18 Q1016 NOSIG=
201009160530 METAR LMML NIL=
201009160515 METAR LMML 160515Z VRB01KT 9999 FEW020 19/17 Q1016 NOSIG=
201009160500 METAR LMML NIL=
201009160445 METAR LMML 160445Z VRB01KT 9999 FEW023 19/17 Q1016 NOSIG=
201009160430 METAR LMML NIL=
201009160415 METAR LMML 160415Z VRB02KT 9999 FEW022 19/17 Q1016 NOSIG=
201009160400 METAR LMML NIL=
201009160345 METAR LMML 160345Z VRB02KT 9999 FEW025 19/17 Q1015 NOSIG=
201009160330 METAR LMML NIL=
201009160315 METAR LMML 160315Z VRB03KT CAVOK 19/17 Q1015 TEMPO SHRA=
201009160300 METAR LMML NIL=
201009160245 METAR LMML 160245Z VRB02KT 9999 FEW025 19/17 Q1015 TEMPO
                        SHRA=
201009160230 METAR LMML NIL=
201009160215 METAR LMML 160215Z VRB02KT 9999 FEW025 19/17 Q1016 TEMPO
                        SHRA=
201009160200 METAR LMML NIL=
201009160145 METAR LMML 160145Z VRB01KT 9999 FEW025 19/17 Q1016 TEMPO
                        SHRA=
201009160130 METAR LMML NIL=
201009160115 METAR LMML 160115Z VRB01KT 9999 FEW025 19/17 Q1016 TEMPO
                        SHRA=
201009160100 METAR LMML NIL=
201009160045 METAR LMML 160045Z VRB02KT 9999 FEW025 20/17 Q1016 TEMPO
                        SHRA=
201009160030 METAR LMML NIL=
201009160015 METAR LMML 160015Z VRB01KT 9999 FEW025 20/17 Q1017 TEMPO
                        TSRA RMK LIGHTNING TO SE=
201009160000 METAR LMML NIL=
201009152345 METAR LMML 152345Z VRB03KT 9999 FEW024 20/17 Q1017 NOSIG=
201009152330 METAR LMML NIL=
201009152315 METAR LMML 152315Z VRB01KT 9999 FEW022 20/17 Q1017 NOSIG=
201009152300 METAR LMML NIL=
201009152245 METAR LMML 152245Z 00000KT 9999 FEW022 20/17 Q1017 NOSIG=
201009152230 METAR LMML NIL=
201009152215 METAR LMML 152215Z VRB02KT 9999 FEW022 21/17 Q1017 NOSIG=
201009152200 METAR LMML NIL=
201009152145 METAR LMML 152145Z VRB03KT 9999 FEW022 21/17 Q1017 NOSIG=
201009152130 METAR LMML NIL=
201009152115 METAR LMML 152115Z VRB03KT 9999 FEW022 21/17 Q1016 NOSIG=
201009152100 METAR LMML NIL=
201009152045 METAR LMML 152045Z VRB03KT 9999 FEW022 22/17 Q1016 NOSIG=
201009152030 METAR LMML NIL=
201009152015 METAR LMML 152015Z VRB03KT 9999 FEW022 22/17 Q1016 NOSIG=
201009152000 METAR LMML NIL=
201009151945 METAR LMML 151945Z VRB02KT 9999 FEW022 22/17 Q1016 NOSIG=
201009151930 METAR LMML NIL=
201009151915 METAR LMML 151915Z VRB03KT 9999 FEW022 22/17 Q1016 NOSIG=
201009151900 METAR LMML NIL=
201009151845 METAR LMML 151845Z VRB02KT 9999 FEW025 22/16 Q1016 NOSIG=
201009151830 METAR LMML NIL=
201009151815 METAR LMML 151815Z VRB03KT 9999 FEW025 22/16 Q1016 NOSIG=
201009151800 METAR LMML NIL=
201009151745 METAR LMML 151745Z VRB03KT 9999 FEW025 22/16 Q1015 NOSIG=
201009151730 METAR LMML NIL=
201009151715 METAR LMML 151715Z 07005KT 9999 FEW025 23/16 Q1015 NOSIG=
201009151700 METAR LMML NIL=
201009151645 METAR LMML 151645Z VRB03KT 9999 FEW025 23/16 Q1015 TEMPO
                        8000 SHRA=
201009151630 METAR LMML NIL=
201009151615 METAR LMML 151615Z 14004KT 110V190 9999 FEW025 23/16 Q1015
                        TEMPO 8000 SHRA=
201009151600 METAR LMML NIL=
201009151545 METAR LMML 151545Z 12004KT 080V180 9999 FEW027 24/15 Q1015
                        TEMPO 8000 SHRA=
201009151530 METAR LMML NIL=
201009151515 METAR LMML 151515Z 12004KT 090V180 9999 FEW025CB 24/15 Q1015
                        TEMPO 8000 TSRA BKN015CB=
201009151500 METAR LMML NIL=
201009151445 METAR LMML 151445Z VRB03KT 9999 FEW025CB SCT200 23/17 Q1015
                        TEMPO 8000 TSRA BKN015CB=
201009151430 METAR LMML NIL=
201009151415 METAR LMML 151415Z 12005KT 070V160 9999 FEW025CB SCT120 23/16
                        Q1016 TEMPO 8000 TSRA BKN015CB=
201009151400 METAR LMML NIL=
201009151345 METAR LMML 151345Z 14007KT 100V180 9999 FEW026CB SCT110 24/17
                        Q1016 RETS TEMPO 8000 TSRA BKN015CB=
201009151330 METAR LMML NIL=
201009151315 METAR LMML 151315Z 14005KT 080V210 9999 FEW020CB SCT025TCU
                        24/17 Q1015 RETS TEMPO 8000 TSRA
                        BKN015CB=
201009151300 METAR LMML NIL=
201009151245 METAR LMML 151245Z 08004KT 9999 TS FEW020CB SCT027TCU 24/17
                        Q1016 TEMPO 8000 TSRA BKN015CB=
201009151230 METAR LMML NIL=
201009151215 METAR LMML 151215Z VRB03KT 9999 FEW030TCU BKN200 23/17 Q1016
                        TEMPO 8000 TSRA BKN015CB=
201009151145 METAR LMML 151145Z VRB02KT 9999 FEW034 SCT120 22/17 Q1016
                        TEMPO 8000 TSRA BKN015CB=
201009151130 METAR LMML NIL=
201009151115 METAR LMML 151115Z 20004KT 170V260 9999 -SHRA FEW030CB SCT080
                        BKN250 22/16 Q1016 TEMPO 8000 TSRA
                        BKN015CB=
201009151100 METAR LMML NIL=
201009151045 METAR LMML 151045Z 23005KT 190V280 9999 TS FEW027CB SCT032
                        22/16 Q1017 TEMPO 8000 TSRA BKN015CB=
201009151030 METAR LMML NIL=
201009151015 METAR LMML 151015Z 30006KT 280V340 9999 TS SCT025CB SCT060
                        22/15 Q1017 TEMPO 8000 TSRA BKN015CB=
201009150945 METAR LMML 150945Z 31013KT 9999 TS SCT029CB SCT060 23/16
                        Q1016 TEMPO 8000 TSRA BKN015CB=
201009150915 METAR LMML 150915Z 13006KT 080V200 9999 TS SCT029CB 24/16
                        Q1016 TEMPO 8000 TSRA BKN015CB=
201009150900 METAR LMML NIL=
201009150845 METAR LMML 150845Z 17006KT 120V220 9999 TS FEW025CB SCT029TCU
                        24/16 Q1016 TEMPO 8000 TSRA BKN015CB=
201009150830 METAR LMML NIL=
201009150815 METAR LMML 150815Z 13005KT 110V170 9999 TS FEW020CB SCT027TCU
                        24/16 Q1016 TEMPO 8000 TSRA BKN015CB=
201009150800 METAR LMML NIL=
201009150745 METAR LMML 150745Z 16005KT 070V220 9999 SCT024TCU SCT200
                        24/16 Q1016 TEMPO 8000 TSRA BKN015CB=
201009150730 METAR LMML NIL=
201009150715 METAR LMML 150715Z 15005KT 090V190 9999 FEW026 SCT200 24/17
                        Q1015 TEMPO 8000 TSRA BKN015CB=
201009150700 METAR LMML NIL=
201009150645 METAR LMML 150645Z 14005KT 100V180 9999 FEW027TCU SCT200
                        23/17 Q1015 TEMPO 8000 TSRA BKN015CB=
201009150630 METAR LMML NIL=
201009150615 METAR LMML 150615Z VRB02KT 9999 FEW020TCU SCT200 22/17 Q1015
                        TEMP0 8000 TSRA BKN015CB=
201009150600 METAR LMML NIL=
201009150545 METAR LMML 150545Z VRB03KT 9999 FEW020CB 21/17 Q1015 TEMPO
                        8000 TSRA BKN015CB RMK SMOKE TO NORTH=
201009150530 METAR LMML NIL=
201009150515 METAR LMML 150515Z VRB03KT 9999 FEW020CB 20/17 Q1015 TEMPO
                        8000 TSRA BKN015CB RMK RAINBOW TO
                        SW=
201009150500 METAR LMML NIL=
201009150445 METAR LMML 150445Z 13004KT 9999 FEW020CB FEW025TCU 20/16
                        Q1014 NOSIG RMK LIGHTNING TO SW CB
                        TO W-SW AND N=
201009150430 METAR LMML NIL=
201009150415 METAR LMML 150415Z 10004KT 9999 FEW030 19/16 Q1015 NOSIG
                        RMK CB TO NORTH - LIGHTNING TO NE=
201009150400 METAR LMML NIL=
201009150345 METAR LMML 150345Z VRB02KT 9999 FEW030 SCT080 20/16 Q1015
                        NOSIG=
201009150330 METAR LMML NIL=
201009150315 METAR LMML 150315Z VRB02KT 9999 FEW030 SCT080 20/16 Q1014
                        NOSIG RMK DISTANT LIGHTNING TO N=
201009150300 METAR LMML NIL=
201009150245 METAR LMML 150245Z VRB01KT 9999 FEW030 SCT120 20/16 Q1014
                        NOSIG=
201009150230 METAR LMML NIL=
201009150215 METAR LMML 150215Z VRB02KT 9999 FEW030 SCT120 20/16 Q1015
                        NOSIG=
201009150200 METAR LMML NIL=
201009150145 METAR LMML 150145Z 00000KT 9999 FEW030 SCT120 20/16 Q1015
                        NOSIG=
201009150115 METAR LMML 150115Z VRB03KT 9999 FEW030TCU 20/16 Q1015 NOSIG=
201009150100 METAR LMML NIL=
201009150045 METAR LMML 150045Z VRB02KT 9999 FEW030 20/16 Q1015 NOSIG=
201009150030 METAR LMML NIL=
201009150015 METAR LMML 150015Z VRB01KT 9999 FEW030 21/16 Q1015 NOSIG=
201009150000 METAR LMML NIL=
201009142345 METAR LMML 142345Z VRB02KT 9999 FEW030 21/16 Q1015 NOSIG=
201009142315 METAR LMML 142315Z VRB02KT 9999 FEW030 21/16 Q1015 NOSIG=
201009142245 METAR LMML 142245Z VRB02KT 9999 FEW030 21/16 Q1015 NOSIG=
201009142215 METAR LMML 142215Z VRB02KT 9999 FEW030 21/16 Q1015 NOSIG=
201009142200 METAR LMML NIL=
201009142145 METAR LMML 142145Z 28005KT 9999 FEW030 21/16 Q1015 NOSIG=
201009142115 METAR LMML 142115Z VRB03KT 9999 FEW030 21/16 Q1015 NOSIG=
201009142045 METAR LMML 142045Z 26004KT 210V290 9999 FEW030 21/16 Q1015
                        NOSIG=
201009142015 METAR LMML 142015Z VRB03KT 9999 FEW030 21/16 Q1015 NOSIG=
201009142000 METAR LMML NIL=
201009141945 METAR LMML 141945Z VRB03KT 9999 FEW030 22/16 Q1015 NOSIG=
201009141930 METAR LMML NIL=
201009141915 METAR LMML 141915Z 27004KT 230V300 9999 FEW030 22/16 Q1015
                        NOSIG=
201009141900 METAR LMML NIL=
201009141845 METAR LMML 141845Z 28004KT 250V320 9999 FEW030 22/16 Q1015
                        NOSIG=
201009141830 METAR LMML NIL=
201009141815 METAR LMML 141815Z 27005KT 240V310 9999 FEW030 22/16 Q1015
                        NOSIG=
201009141800 METAR LMML NIL=
201009141745 METAR LMML 141745Z 28007KT 250V310 9999 FEW030 22/15 Q1015
                        NOSIG=
201009141715 METAR LMML 141715Z 28009KT 250V310 9999 FEW029 23/16 Q1015
                        NOSIG=
201009141645 METAR LMML 141645Z 28010KT 250V310 9999 FEW030 23/16 Q1015
                        NOSIG=
201009141630 METAR LMML NIL=
201009141615 METAR LMML 141615Z 30009KT 270V330 9999 SCT031 24/16 Q1015
                        NOSIG=
201009141600 METAR LMML NIL=
201009141545 METAR LMML 141545Z 29012KT 250V320 9999 SCT033 24/16 Q1015
                        NOSIG=
201009141530 METAR LMML NIL=
201009141515 METAR LMML 141515Z 30012KT 270V330 9999 FEW036 25/15 Q1015
                        NOSIG=
201009141500 METAR LMML NIL=
201009141445 METAR LMML 141445Z 30012KT 9999 FEW034 24/15 Q1015 NOSIG=
201009141430 METAR LMML NIL=
201009141415 METAR LMML 141415Z 28011KT 240V320 9999 SCT032 25/16 Q1015
                        NOSIG=
201009141400 METAR LMML NIL=
201009141345 METAR LMML 141345Z 26011KT 210V300 9999 BKN029 25/17 Q1015
                        NOSIG=
201009141330 METAR LMML NIL=
201009141315 METAR LMML 141315Z 26012KT 220V310 9999 BKN032 24/16 Q1015
                        NOSIG=
201009141300 METAR LMML NIL=
201009141245 METAR LMML 141245Z 26014KT 220V300 9999 FEW031 25/16 Q1016
                        NOSIG=
201009141230 METAR LMML NIL=
201009141215 METAR LMML 141215Z 26011KT 190V290 9999 FEW035 25/15 Q1016
                        NOSIG=
201009141200 METAR LMML NIL=
201009141145 METAR LMML 141145Z 26013KT 210V300 9999 FEW038 25/15 Q1016
                        NOSIG=
201009141130 METAR LMML NIL=
201009141115 METAR LMML 141115Z 28014KT 250V310 9999 SCT040 26/14 Q1016
                        NOSIG=
201009141100 METAR LMML NIL=
201009141045 METAR LMML 141045Z 28013KT 240V310 9999 FEW043 25/14 Q1016
                        NOSIG=
201009141030 METAR LMML NIL=
201009141015 METAR LMML 141015Z 26010KT 210V310 9999 FEW043 25/13 Q1016
                        NOSIG=
201009141000 METAR LMML NIL=
201009140945 METAR LMML 140945Z 27012KT 240V320 9999 FEW035 25/12 Q1017
                        NOSIG=
201009140930 METAR LMML NIL=
201009140915 METAR LMML 140915Z 27013KT 230V300 9999 FEW035 25/12 Q1017
                        NOSIG=
201009140900 METAR LMML NIL=
201009140845 METAR LMML 140845Z 28012KT 240V320 9999 FEW035 25/13 Q1017
                        NOSIG=
201009140830 METAR LMML NIL=
201009140815 METAR LMML 140815Z 28012KT 230V310 9999 SCT039 24/14 Q1017
                        NOSIG=
201009140800 METAR LMML NIL=
201009140745 METAR LMML 140745Z 29011KT 260V320 9999 SCT033 23/15 Q1017
                        NOSIG=
201009140730 METAR LMML NIL=
201009140715 METAR LMML 140715Z 28011KT 230V320 9999 SCT032 24/16 Q1017
                        NOSIG=
201009140700 METAR LMML NIL=
201009140645 METAR LMML 140645Z 30009KT 260V320 9999 SCT034 23/15 Q1017
                        NOSIG=
201009140630 METAR LMML NIL=
201009140615 METAR LMML 140615Z 29008KT 260V320 9999 SCT030 23/15 Q1017
                        NOSIG=
201009140600 METAR LMML NIL=
201009140545 METAR LMML 140545Z 28007KT 250V310 9999 FEW025 22/15 Q1016
                        NOSIG=
201009140515 METAR LMML 140515Z 28007KT 250V320 9999 FEW025 21/15 Q1016
                        NOSIG=
201009140500 METAR LMML NIL=
201009140445 METAR LMML 140445Z 30009KT 9999 FEW025 21/15 Q1016 NOSIG=
201009140430 METAR LMML NIL=
201009140415 METAR LMML 140415Z 30008KT 260V330 9999 FEW024 21/16 Q1016
                        NOSIG=
201009140400 METAR LMML NIL=
201009140345 METAR LMML 140345Z 29005KT 260V330 9999 FEW024 22/18 Q1016
                        NOSIG=
201009140330 METAR LMML NIL=
201009140315 METAR LMML 140315Z 29007KT 9999 FEW021 22/18 Q1016 NOSIG=
201009140300 METAR LMML NIL=
201009140245 METAR LMML 140245Z 31006KT CAVOK 22/19 Q1016 NOSIG=
201009140230 METAR LMML NIL=
201009140215 METAR LMML 140215Z 30009KT CAVOK 22/19 Q1016 NOSIG=
201009140200 METAR LMML NIL=
201009140145 METAR LMML 140145Z 31006KT CAVOK 22/19 Q1016 NOSIG=
201009140130 METAR LMML NIL=
201009140115 METAR LMML 140115Z 30005KT CAVOK 21/19 Q1016 NOSIG=
201009140100 METAR LMML NIL=
201009140045 METAR LMML 140045Z 29004KT 9999 FEW020 21/19 Q1017 NOSIG=
201009140030 METAR LMML NIL=
201009140015 METAR LMML 140015Z VRB03KT 9999 FEW020 21/19 Q1017 NOSIG=
201009140000 METAR LMML NIL=
201009132345 METAR LMML 132345Z VRB03KT 9999 FEW020 21/19 Q1017 NOSIG=
201009132330 METAR LMML NIL=
201009132315 METAR LMML 132315Z 29005KT 9999 FEW020 22/19 Q1017 NOSIG=
201009132300 METAR LMML NIL=
201009132245 METAR LMML 132245Z VRB03KT 9999 FEW020 21/18 Q1017 NOSIG=
201009132230 METAR LMML NIL=
201009132215 METAR LMML 132215Z 28005KT 260V320 9999 FEW020 22/19 Q1017
                        NOSIG=
201009132200 METAR LMML NIL=
201009132145 METAR LMML 132145Z 30005KT 9999 FEW020 22/19 Q1018 NOSIG=
201009132130 METAR LMML NIL=
201009132115 METAR LMML 132115Z 30004KT 9999 FEW020 22/19 Q1018 NOSIG=
201009132100 METAR LMML NIL=
201009132045 METAR LMML 132045Z 30004KT 270V330 9999 FEW020 22/19 Q1018
                        NOSIG=
201009132030 METAR LMML NIL=
201009132015 METAR LMML 132015Z 31007KT 9999 FEW020 22/19 Q1018 NOSIG=
201009132000 METAR LMML NIL=
201009131945 METAR LMML 131945Z 31008KT 9999 FEW019 23/19 Q1018 NOSIG=
201009131930 METAR LMML NIL=
201009131915 METAR LMML 131915Z 31007KT 9999 FEW023 23/19 Q1018 NOSIG=
201009131900 METAR LMML NIL=
201009131845 METAR LMML 131845Z 30006KT 9999 FEW023 23/18 Q1018 NOSIG=
201009131830 METAR LMML NIL=
201009131815 METAR LMML 131815Z 31007KT 9999 FEW023 23/18 Q1017 NOSIG=
201009131800 METAR LMML NIL=
201009131745 METAR LMML 131745Z 32007KT 9999 FEW025 23/18 Q1017 NOSIG=
201009131715 METAR LMML 131715Z 30008KT 9999 FEW025 24/18 Q1017 NOSIG=
201009131700 METAR LMML NIL=
201009131645 METAR LMML 131645Z 30011KT FEW025 24/19 Q1017 NOSIG=
201009131630 METAR LMML NIL=
201009131615 METAR LMML 131615Z 29010KT 260V340 9999 FEW025 25/18 Q1017
                        NOSIG=
201009131600 METAR LMML NIL=
201009131545 METAR LMML 131545Z 29012KT 250V320 9999 FEW030 25/18 Q1017
                        NOSIG=
201009131530 METAR LMML NIL=
201009131515 METAR LMML 131515Z 29011KT 250V320 9999 FEW030 25/18 Q1017
                        NOSIG=
201009131500 METAR LMML NIL=
201009131445 METAR LMML 131445Z 29010KT 260V320 9999 FEW030 26/17 Q1017
                        NOSIG=
201009131415 METAR LMML 131415Z 29013KT 260V330 9999 FEW033 26/17 Q1017
                        NOSIG=
201009131400 METAR LMML NIL=
201009131345 METAR LMML 131345Z 30014KT 9999 FEW031 26/17 Q1017 NOSIG=
201009131330 METAR LMML NIL=
201009131315 METAR LMML 131315Z 32012KT 280V350 9999 FEW033 27/18 Q1017
                        NOSIG=
201009131300 METAR LMML NIL=
201009131245 METAR LMML 131245Z 33011KT 300V360 9999 FEW030 27/16 Q1017
                        NOSIG=
201009131230 METAR LMML NIL=
201009131215 METAR LMML 131215Z 34012KT 320V020 9999 FEW033 27/17 Q1018
                        NOSIG=
201009131200 METAR LMML NIL=
201009131145 METAR LMML 131145Z 33012KT 310V010 9999 FEW029 26/17 Q1018
                        NOSIG=
201009131130 METAR LMML NIL=
201009131115 METAR LMML 131115Z 34010KT 9999 SCT029 27/17 Q1018 NOSIG=
201009131100 METAR LMML NIL=
201009131045 METAR LMML 131045Z 33011KT 300V360 9999 SCT027 26/18 Q1018
                        NOSIG=
201009131030 METAR LMML NIL=
201009131015 METAR LMML 131015Z 33010KT 310V010 9999 SCT025 26/19 Q1018
                        NOSIG=
201009131000 METAR LMML NIL=
201009130945 METAR LMML 130945Z 34009KT 300V020 9999 SCT025 26/18 Q1018
                        NOSIG=
201009130930 METAR LMML NIL=
201009130915 METAR LMML 130915Z 33010KT 300V010 9999 SCT024 26/18 Q1018
                        NOSIG=
201009130900 METAR LMML NIL=
201009130845 METAR LMML 130845Z 33009KT 9999 SCT025 26/18 Q1018 NOSIG=
201009130830 METAR LMML NIL=
201009130815 METAR LMML 130815Z 33009KT 310V010 9999 SCT025 25/18 Q1018
                        NOSIG=
201009130800 METAR LMML NIL=
201009130745 METAR LMML 130745Z 31012KT 9999 SCT023 24/18 Q1018 NOSIG=
201009130730 METAR LMML NIL=
201009130715 METAR LMML 130715Z 31011KT 9999 FEW025 24/18 Q1018 NOSIG=
201009130700 METAR LMML NIL=
201009130645 METAR LMML 130645Z 30010KT 9999 FEW025 23/18 Q1017 NOSIG=
201009130630 METAR LMML NIL=
201009130615 METAR LMML 130615Z 29007KT 9999 FEW025 23/18 Q1017 NOSIG=
201009130600 METAR LMML NIL=
201009130545 METAR LMML 130545Z 29006KT 250V310 9999 FEW022 22/18 Q1017
                        NOSIG=
201009130530 METAR LMML NIL=
201009130515 METAR LMML 130515Z 26004KT 230V290 9999 FEW022 21/18 Q1017
                        NOSIG=
201009130500 METAR LMML NIL=
201009130445 METAR LMML 130445Z 27004KT 240V300 9999 FEW025 21/18 Q1017
                        NOSIG=
201009130430 METAR LMML NIL=
201009130415 METAR LMML 130415Z 27004KT 240V300 CAVOK 21/18 Q1017 NOSIG=
201009130400 METAR LMML NIL=
201009130345 METAR LMML 130345Z 29006KT 250V320 CAVOK 21/18 Q1017 NOSIG=
201009130330 METAR LMML NIL=
201009130315 METAR LMML 130315Z 29005KT 260V330 CAVOK 21/18 Q1017 NOSIG=
201009130300 METAR LMML NIL=
201009130245 METAR LMML 130245Z 30007KT CAVOK 21/18 Q1017 NOSIG=
201009130230 METAR LMML NIL=
201009130215 METAR LMML 130215Z 29006KT 260V320 CAVOK 21/18 Q1017 NOSIG=
201009130200 METAR LMML NIL=
201009130145 METAR LMML 130145Z 29006KT 250V310 CAVOK 22/18 Q1017 NOSIG=
201009130130 METAR LMML NIL=
201009130115 METAR LMML 130115Z VRB03KT CAVOK 22/18 Q1017 NOSIG=
201009130100 METAR LMML NIL=
201009130045 METAR LMML 130045Z 29005KT CAVOK 22/18 Q1017 NOSIG=
201009130030 METAR LMML NIL=
201009130015 METAR LMML 130015Z 29004KT 260V320 CAVOK 22/19 Q1017 NOSIG=
201009130000 METAR LMML NIL=
201009122345 METAR LMML 122345Z 28005KT CAVOK 22/19 Q1018 NOSIG=
201009122330 METAR LMML NIL=
201009122315 METAR LMML 122315Z 26004KT 230V290 CAVOK 22/19 Q1018 NOSIG=
201009122300 METAR LMML NIL=
201009122245 METAR LMML 122245Z 26005KT 230V290 CAVOK 22/19 Q1018 NOSIG=
201009122230 METAR LMML NIL=
201009122215 METAR LMML 122215Z VRB03KT CAVOK 22/19 Q1018 NOSIG=
201009122200 METAR LMML NIL=
201009122145 METAR LMML 122145Z 28004KT CAVOK 22/19 Q1018 NOSIG=
201009122130 METAR LMML NIL=
201009122115 METAR LMML 122115Z VRB03KT 9999 FEW030 22/19 Q1018 NOSIG=
201009122100 METAR LMML NIL=
201009122045 METAR LMML 122045Z 28005KT 9999 FEW030 22/19 Q1018 NOSIG=
201009122030 METAR LMML NIL=
201009122015 METAR LMML 122015Z VRB03KT 9999 FEW030 22/19 Q1018 NOSIG=
201009122000 METAR LMML NIL=
201009121945 METAR LMML 121945Z 31005KT 9999 FEW030 22/19 Q1018 NOSIG=
201009121930 METAR LMML NIL=
201009121915 METAR LMML 121915Z 31005KT 280V340 9999 FEW030 22/19 Q1017
                        NOSIG=
201009121900 METAR LMML NIL=
201009121845 METAR LMML 121845Z 29006KT 260V320 9999 FEW030 23/19 Q1017
                        NOSIG=
201009121830 METAR LMML NIL=
201009121815 METAR LMML 121815Z 31007KT 9999 FEW030 23/19 Q1017 NOSIG=
201009121800 METAR LMML NIL=
201009121745 METAR LMML 121745Z 30007KT 270V340 9999 FEW035 23/18 Q1016
                        NOSIG=
201009121730 METAR LMML NIL=
201009121715 METAR LMML 121715Z 30007KT 260V340 9999 FEW035 23/18 Q1016
                        NOSIG=
201009121700 METAR LMML NIL=
201009121645 METAR LMML 121645Z 29011KT 9999 FEW035 24/18 Q1017 NOSIG=
201009121630 METAR LMML NIL=
201009121615 METAR LMML 121615Z 29009KT 260V330 9999 FEW035 25/18 Q1016
                        NOSIG=
201009121600 METAR LMML NIL=
201009121545 METAR LMML 121545Z 28010KT 250V310 9999 FEW035 25/18 Q1016
                        NOSIG=
201009121530 METAR LMML NIL=
201009121515 METAR LMML 121515Z 30010KT 9999 FEW035 26/17 Q1016 NOSIG=
201009121500 METAR LMML NIL=
201009121445 METAR LMML 121445Z 27010KT 220V300 9999 FEW035 26/17 Q1016
                        NOSIG=
201009121430 METAR LMML NIL=
201009121415 METAR LMML 121415Z 28009KT 240V310 9999 FEW035 26/17 Q1016
                        NOSIG=
201009121400 METAR LMML NIL=
201009121345 METAR LMML 121345Z 27008KT 230V320 9999 FEW035 27/16 Q1016
                        NOSIG=
201009121330 METAR LMML NIL=
201009121315 METAR LMML 121315Z 30008KT 260V330 9999 FEW038 27/16 Q1016
                        NOSIG=
201009121300 METAR LMML NIL=
201009121245 METAR LMML 121245Z 28008KT 220V330 9999 FEW038 27/16 Q1017
                        NOSIG=
201009121230 METAR LMML NIL=
201009121215 METAR COR LMML 121215Z 31008KT 260V360 9999 FEW040 26/17
                        Q1017 NOSIG=
201009121200 METAR LMML NIL=
201009121145 METAR LMML 121145Z 28009KT 220V330 9999 FEW037 26/16 Q1017
                        NOSIG=
201009121130 METAR LMML NIL=
201009121115 METAR LMML 121115Z 28007KT 190V360 9999 FEW035 26/17 Q1017
                        NOSIG=
201009121100 METAR LMML NIL=
201009121045 METAR LMML 121045Z 34007KT 300V010 9999 FEW035 27/17 Q1017
                        NOSIG=
201009121030 METAR LMML NIL=
201009121015 METAR LMML 121015Z 36006KT 310V040 9999 FEW030 27/16 Q1017
                        NOSIG=
201009120945 METAR LMML 120945Z 33007KT 290V060 9999 FEW030 26/15 Q1017
                        NOSIG=
201009120930 METAR LMML NIL=
201009120915 METAR LMML 120915Z 32007KT 280V360 9999 FEW030 25/15 Q1017
                        NOSIG=
201009120900 METAR LMML NIL=
201009120845 METAR LMML 120845Z 33008KT 290V360 9999 FEW029 25/16 Q1017
                        NOSIG=
201009120830 METAR LMML NIL=
201009120815 METAR LMML 120815Z 34006KT 290V030 9999 FEW025 25/17 Q1017
                        NOSIG=
201009120800 METAR LMML NIL=
201009120745 METAR LMML 120745Z 33006KT 310V030 9999 FEW025 25/16 Q1017
                        NOSIG=
201009120730 METAR LMML NIL=
201009120715 METAR LMML 120715Z 35006KT 320V020 9999 FEW025 24/15 Q1016
                        NOSIG=
201009120700 METAR LMML NIL=
201009120645 METAR LMML 120645Z 34006KT 300V010 9999 FEW025 23/16 Q1016
                        NOSIG=
201009120630 METAR LMML NIL=
201009120615 METAR LMML 120615Z VRB03KT 9999 FEW025 22/16 Q1016 NOSIG=
201009120600 METAR LMML NIL=
201009120545 METAR LMML 120545Z 31004KT 9999 FEW025 21/17 Q1016 NOSIG=
201009120530 METAR LMML NIL=
201009120515 METAR LMML 120515Z 31005KT 9999 FEW025 20/16 Q1015 NOSIG=
201009120500 METAR LMML NIL=
201009120445 METAR LMML 120445Z 31006KT 9999 FEW025 20/16 Q1015 NOSIG=
201009120415 METAR LMML 120415Z 29005KT 9999 FEW025 20/16 Q1015 NOSIG=
201009120400 METAR LMML NIL=
201009120345 METAR LMML 120345Z 30004KT 9999 FEW025 20/16 Q1015 NOSIG=
201009120330 METAR LMML NIL=
201009120315 METAR LMML 120315Z 30004KT 270V330 9999 FEW025 21/16 Q1015
                        NOSIG=
201009120300 METAR LMML NIL=
201009120245 METAR LMML 120245Z 29004KT 260V320 9999 FEW025 21/16 Q1015
                        NOSIG=
201009120230 METAR LMML NIL=
201009120215 METAR LMML 120215Z 31004KT 9999 FEW025 21/16 Q1015 NOSIG=
201009120200 METAR LMML NIL=
201009120145 METAR LMML 120145Z 29004KT 230V320 9999 FEW025 21/16 Q1015
                        NOSIG=
201009120130 METAR LMML NIL=
201009120115 METAR LMML 120115Z 31007KT 9999 FEW034 21/17 Q1015 NOSIG=
201009120100 METAR LMML NIL=
201009120045 METAR LMML 120045Z 31007KT 9999 FEW034 22/17 Q1015 NOSIG=
201009120030 METAR LMML NIL=
201009120015 METAR LMML 120015Z 29004KT 9999 FEW030 22/18 Q1015 NOSIG=
201009120000 METAR LMML NIL=
201009112345 METAR LMML 112345Z 29005KT 9999 FEW030 22/18 Q1015 NOSIG=
201009112330 METAR LMML NIL=
201009112315 METAR LMML 112315Z 30005KT 270V330 9999 FEW033 22/18 Q1015
                        NOSIG=
201009112300 METAR LMML NIL=
201009112245 METAR LMML 112245Z 30007KT 9999 FEW025 22/18 Q1015 NOSIG=
201009112215 METAR LMML 112215Z 30006KT 270V340 9999 FEW020 22/18 Q1015
                        NOSIG=
201009112200 METAR LMML NIL=
201009112145 METAR LMML 112145Z 30008KT 9999 FEW020 22/18 Q1015 NOSIG=
201009112130 METAR LMML NIL=
201009112115 METAR LMML 112115Z 31011KT 9999 FEW020 22/18 Q1015 NOSIG=
201009112100 METAR LMML NIL=
201009112045 METAR LMML 112045Z 31010KT 9999 FEW020 22/18 Q1014 NOSIG=
201009112030 METAR LMML NIL=
201009112015 METAR LMML 112015Z 31012KT 9999 FEW020 22/18 Q1014 NOSIG=
201009112000 METAR LMML NIL=
201009111945 METAR LMML 111945Z 31011KT 9999 FEW020 22/18 Q1014 NOSIG=
201009111930 METAR LMML NIL=
201009111915 METAR LMML 111915Z 31011KT 9999 FEW020 23/18 Q1014 NOSIG=
201009111900 METAR LMML NIL=
201009111845 METAR LMML 111845Z 31012KT 9999 FEW029 23/18 Q1014 NOSIG=
201009111830 METAR LMML NIL=
201009111815 METAR LMML 111815Z 31014KT 9999 FEW029 23/17 Q1013 NOSIG=
201009111800 METAR LMML NIL=
201009111745 METAR LMML 111745Z 31014KT 9999 FEW029 23/17 Q1013 NOSIG=
201009111730 METAR LMML NIL=
201009111715 METAR LMML 111715Z 31016KT 9999 FEW029 23/17 Q1013 NOSIG=
201009111700 METAR LMML NIL=
201009111645 METAR LMML 111645Z 31021KT 9999 FEW029 23/17 Q1013 NOSIG=
201009111630 METAR LMML NIL=
201009111615 METAR LMML 111615Z 31021KT 280V340 9999 FEW029 24/17 Q1013
                        NOSIG=
201009111600 METAR LMML NIL=
201009111545 METAR LMML 111545Z 30019KT 270V340 9999 FEW029 25/16 Q1013
                        NOSIG=
201009111530 METAR LMML NIL=
201009111515 METAR LMML 111515Z 30022KT 9999 FEW029 25/17 Q1013 NOSIG=
201009111500 METAR LMML NIL=
201009111445 METAR LMML 111445Z 29020KT 260V320 9999 FEW029 25/17 Q1013
                        NOSIG=
201009111430 METAR LMML NIL=
201009111415 METAR LMML 111415Z 30023KT 260V330 9999 FEW032 25/16 Q1013
                        NOSIG=
201009111400 METAR LMML NIL=
201009111345 METAR LMML 111345Z 30022KT 260V330 9999 SCT033 25/16 Q1013
                        NOSIG=
201009111330 METAR LMML NIL=
201009111315 METAR LMML 111315Z 29020G30KT 250V320 9999 SCT031 25/16 Q1012
                        NOSIG=
201009111300 METAR LMML NIL=
201009111245 METAR LMML 111245Z 30021KT 260V320 9999 FEW029 26/16 Q1013
                        NOSIG=
201009111230 METAR LMML NIL=
201009111215 METAR LMML 111215Z 29019KT 260V330 9999 SCT029 25/17 Q1013
                        NOSIG=
201009111200 METAR LMML NIL=
201009111145 METAR LMML 111145Z 29020KT 260V320 9999 FEW027 25/17 Q1013
                        NOSIG=
201009111130 METAR LMML NIL=
201009111115 METAR LMML 111115Z 28020KT 250V310 9999 FEW029 25/17 Q1013
                        NOSIG=
201009111100 METAR LMML NIL=
201009111045 METAR LMML 111045Z 29020KT 250V320 9999 FEW028 26/17 Q1013
                        NOSIG=
201009111030 METAR LMML NIL=
201009111015 METAR LMML 111015Z 30018KT 260V320 9999 FEW027 25/17 Q1013
                        NOSIG=
201009111000 METAR LMML NIL=
201009110945 METAR LMML 110945Z 30015KT 250V320 9999 FEW030 24/17 Q1013
                        NOSIG=
201009110930 METAR LMML NIL=
201009110915 METAR LMML 110915Z 30020KT 9999 FEW031 SCT100 25/16 Q1013
                        TEMPO 8000 SHRA=
201009110900 METAR LMML NIL=
201009110845 METAR LMML 110845Z 30018KT 270V330 9999 SCT031 SCT100 24/18
                        Q1013 TEMPO 8000 SHRA=
201009110830 METAR LMML NIL=
201009110815 METAR LMML 110815Z 30016KT 270V330 9999 FEW030 23/18 Q1013
                        TEMPO 8000 SHRA=
201009110800 METAR LMML NIL=
201009110745 METAR LMML 110745Z 30014KT 260V330 9999 -SHRA BKN028 22/17
                        Q1013 TEMPO 8000 SHRA=
201009110730 METAR LMML NIL=
201009110715 METAR LMML 110715Z 29016KT 260V320 9999 SCT035 24/16 Q1012
                        NOSIG=
201009110700 METAR LMML NIL=
201009110645 METAR LMML 110645Z 29017KT 9999 FEW032 23/16 Q1012 NOSIG=
201009110630 METAR LMML NIL=
201009110615 METAR LMML 110615Z 30014KT 9999 FEW032 22/16 Q1012 NOSIG=
201009110545 METAR LMML 110545Z 30010KT 9999 FEW027 21/16 Q1012 NOSIG=
201009110530 METAR LMML NIL=
201009110515 METAR LMML 110515Z 29008KT 270V330 9999 FEW027 20/17 Q1012
                        NOSIG=
201009110500 METAR LMML NIL=
201009110445 METAR LMML 110445Z 29006KT 270V330 9999 FEW027 20/17 Q1011
                        NOSIG=
201009110430 METAR LMML NIL=
201009110415 METAR LMML 110415Z 28007KT 240V310 9999 SCT027 20/17 Q1012
                        NOSIG=
201009110400 METAR LMML NIL=
201009110345 METAR LMML 110345Z 30014KT 9999 SCT030 20/16 Q1012 NOSIG=
201009110330 METAR LMML NIL=
201009110315 METAR LMML 110315Z 31014KT 9999 -SHRA SCT034 22/15 Q1011
                        NOSIG=
201009110300 METAR LMML NIL=
201009110245 METAR LMML 110245Z 30013KT 9999 FEW033 21/15 Q1011 NOSIG=
201009110230 METAR LMML NIL=
201009110215 METAR LMML 110215Z 32012KT 290V350 9999 FEW033 21/16 Q1012
                        NOSIG=
201009110200 METAR LMML NIL=
201009110145 METAR LMML 110145Z 31012KT 9999 FEW031 22/15 Q1012 NOSIG=
201009110130 METAR LMML NIL=
201009110115 METAR LMML 110115Z 31012KT 9999 FEW030 21/15 Q1012 NOSIG=
201009110100 METAR LMML NIL=
201009110045 METAR LMML 110045Z 31013KT 9999 FEW030 21/15 Q1012 NOSIG=
201009110030 METAR LMML NIL=
201009110015 METAR LMML 110015Z 31014KT 9999 FEW030 21/15 Q1012 NOSIG=
201009110000 METAR LMML NIL=
201009102345 METAR LMML 102345Z 31012KT 9999 FEW030 21/15 Q1012 NOSIG=
201009102330 METAR LMML NIL=
201009102315 METAR LMML 102315Z 31012KT 9999 FEW030 21/15 Q1012 NOSIG=
201009102245 METAR LMML 102245Z 31013KT 9999 FEW030 22/15 Q1013 NOSIG=
201009102230 METAR LMML NIL=
201009102215 METAR LMML 102215Z 31012KT 9999 FEW030 22/15 Q1013 NOSIG=
201009102145 METAR LMML 102145Z 31013KT 9999 FEW030 22/16 Q1013 NOSIG=
201009102130 METAR LMML NIL=
201009102115 METAR LMML 102115Z 30011KT 9999 FEW030 22/15 Q1013 NOSIG=
201009102100 METAR LMML NIL=
201009102045 METAR LMML 102045Z 30011KT 270V330 9999 FEW030 22/15 Q1013
                        NOSIG=
201009102015 METAR LMML 102015Z 30013KT 9999 FEW032 22/15 Q1013 NOSIG=
201009101945 METAR LMML 101945Z 31013KT 9999 FEW032 22/15 Q1013 NOSIG=
201009101930 METAR LMML NIL=
201009101915 METAR LMML 101915Z 30012KT 9999 FEW033 22/15 Q1013 NOSIG=
201009101900 METAR LMML NIL=
201009101845 METAR LMML 101845Z 29013KT 260V320 9999 FEW034 22/15 Q1013
                        NOSIG=
201009101830 METAR LMML NIL=
201009101815 METAR LMML 101815Z 30016KT 270V330 9999 FEW035 23/14 Q1012
                        NOSIG=
201009101800 METAR LMML NIL=
201009101745 METAR LMML 101745Z 29014KT 9999 FEW030 23/15 Q1012 NOSIG=
201009101730 METAR LMML NIL=
201009101715 METAR LMML 101715Z 29014KT 260V330 9999 FEW030 23/15 Q1012
                        NOSIG=
201009101700 METAR LMML NIL=
201009101645 METAR LMML 101645Z 29017KT 9999 FEW030 23/15 Q1012 NOSIG=
201009101630 METAR LMML NIL=
201009101615 METAR LMML 101615Z 29017KT 260V330 9999 FEW030 24/15 Q1012
                        NOSIG=
201009101600 METAR LMML NIL=
201009101545 METAR LMML 101545Z 30018KT 260V320 9999 FEW030 24/15 Q1012
                        NOSIG=
201009101530 METAR LMML NIL=
201009101515 METAR LMML 101515Z 29018KT 250V320 9999 FEW030 24/14 Q1012
                        NOSIG=
201009101500 METAR LMML NIL=
201009101445 METAR LMML 101445Z 29019KT 260V330 9999 FEW030 25/15 Q1013
                        NOSIG=
201009101430 METAR LMML NIL=
201009101415 METAR LMML 101415Z 30019KT 9999 FEW035 25/15 Q1013 NOSIG=
201009101400 METAR LMML NIL=
201009101345 METAR LMML 101345Z 30019KT 9999 FEW030 25/17 Q1013 NOSIG=
201009101330 METAR LMML NIL=
201009101315 METAR LMML 101315Z 30019KT 9999 FEW033 26/16 Q1013 NOSIG=
201009101300 METAR LMML NIL=
201009101245 METAR LMML 101245Z 30019KT 260V330 9999 FEW000 26/13 Q1013
                        NOSIG=
201009101230 METAR LMML NIL=
201009101215 METAR LMML 101215Z 29018KT 240V320 9999 FEW033 26/14 Q1014
                        NOSIG=
201009101200 METAR LMML NIL=
201009101145 METAR LMML 101145Z 29017KT 260V320 9999 FEW033 26/16 Q1014
                        NOSIG=
201009101130 METAR LMML NIL=
201009101115 METAR LMML 101115Z 29016KT 260V320 9999 FEW033 26/16 Q1014
                        NOSIG=
201009101100 METAR LMML NIL=
201009101045 METAR LMML 101045Z 30016KT 280V340 9999 FEW033 27/16 Q1014
                        NOSIG=
201009101030 METAR LMML NIL=
201009101015 METAR LMML 101015Z 32016KT 9999 FEW029 26/18 Q1014 NOSIG=
201009101000 METAR LMML NIL=
201009100945 METAR LMML 100945Z 31014KT 280V340 9999 FEW032 26/17 Q1014
                        NOSIG=
201009100930 METAR LMML NIL=
201009100915 METAR LMML 100915Z 32014KT 290V350 9999 FEW029 26/17 Q1014
                        NOSIG=
201009100900 METAR LMML NIL=
201009100845 METAR LMML 100845Z 31012KT 280V340 9999 FEW028 25/18 Q1014
                        NOSIG=
201009100830 METAR LMML NIL=
201009100815 METAR LMML 100815Z 31012KT 9999 FEW025 25/18 Q1014 NOSIG=
201009100800 METAR LMML NIL=
201009100745 METAR LMML 100745Z 31010KT 280V340 9999 FEW023 24/20 Q1014
                        NOSIG=
201009100730 METAR LMML NIL=
201009100715 METAR LMML 100715Z 31010KT 9999 FEW016 SCT110 24/19 Q1014
                        NOSIG=
201009100700 METAR LMML NIL=
201009100645 METAR LMML 100645Z 32005KT 270V350 9999 FEW016 SCT110 23/20
                        Q1014 NOSIG=
201009100630 METAR LMML NIL=
201009100615 METAR LMML 100615Z 33004KT 290V010 9999 FEW015 SCT110 23/20
                        Q1014 NOSIG=
201009100600 METAR LMML NIL=
201009100545 METAR LMML 100545Z 29005KT 270V330 9999 FEW015 SCT110 22/20
                        Q1013 NOSIG=
201009100530 METAR LMML NIL=
201009100515 METAR LMML 100515Z 29007KT 9999 FEW015 SCT110 21/19 Q1013
                        NOSIG=
201009100500 METAR LMML NIL=
201009100445 METAR LMML 100445Z 27004KT 240V300 9999 FEW009 BKN110 21/19
                        Q1013 NOSIG=
201009100430 METAR LMML NIL=
201009100415 METAR LMML 100415Z 27004KT 180V310 9999 FEW009 BKN080 21/20
                        Q1013 RERA NOSIG=
201009100400 METAR LMML NIL=
201009100345 METAR LMML 100345Z 28007KT 240V310 9999 RA FEW009 BKN070
                        21/20 Q1014 NOSIG=
201009100330 METAR LMML NIL=
201009100315 METAR LMML 100315Z 24004KT 190V290 9999 -RA FEW030 BKN070
                        21/20 Q1014 NOSIG=
201009100300 METAR LMML NIL=
201009100245 METAR LMML 100245Z VRB02KT 9999 FEW030 BKN100 21/19 Q1013
                        TEMPO 8000 SHRA=
201009100230 METAR LMML NIL=
201009100215 METAR LMML 100215Z 21004KT 180V240 9999 FEW030 SCT070 21/19
                        Q1013 TEMPO 8000 SHRA=
201009100200 METAR LMML NIL=
201009100145 METAR LMML 100145Z VRB03KT 9999 FEW030 BKN080 22/19 Q1013
                        NOSIG=
201009100130 METAR LMML NIL=
201009100115 METAR LMML 100115Z VRB03KT 9999 FEW030 BKN080 21/18 Q1014
                        NOSIG=
201009100100 METAR LMML NIL=
201009100045 METAR LMML 100045Z 15008KT 120V180 9999 FEW030 SCT090 21/18
                        Q1013 NOSIG=
201009100030 METAR LMML NIL=
201009100015 METAR LMML 100015Z 15009KT 120V180 9999 SCT030 BKN090 20/17
                        Q1014 TEMPO 5000 TSRA BKN015CB RMK
                        LIGHTNING TO NE=
201009100000 METAR LMML NIL=
201009092345 METAR LMML 092345Z 16006KT 9999 RA SCT031 BKN100 20/17 Q1015
                        TEMPO 5000 TSRA BKN015CB=
201009092330 METAR LMML NIL=
201009092315 METAR LMML 092315Z 17005KT 150V230 9999 RA FEW012CB SCT037
                        BKN120 21/18 Q1016 TEMPO 5000 TSRA
                        BKN012CB=
201009092300 METAR LMML NIL=
201009092245 METAR LMML 092245Z 14006KT 110V170 9999 TSRA FEW009 SCT012CB
                        BKN120 22/19 Q1016 TEMPO 3000 TSRA
                        BKN012CB=
201009092230 METAR LMML NIL=
201009092215 METAR LMML 092215Z 06004KT 010V110 9999 TSRA SCT012CB BKN120
                        24/22 Q1016 TEMPO 3000 TSRA BKN012CB=
201009092200 METAR LMML NIL=
201009092145 METAR LMML 092145Z 07005KT 9999 TS SCT015CB BKN120 24/22
                        Q1015 TEMPO 3000 TSRA BKN015CB=
201009092130 METAR LMML NIL=
201009092115 METAR LMML 092115Z 09004KT 050V120 9999 FEW012 BKN120 24/22
                        Q1015 TEMPO 3000 TSRA BKN015CB=
201009092100 METAR LMML NIL=
201009092045 METAR LMML 092045Z 08004KT 050V110 9999 FEW011 BKN120 24/22
                        Q1015 TEMPO 8000 SHRA=
201009092030 METAR LMML NIL=
201009092015 METAR LMML 092015Z VRB03KT 9999 FEW032 BKN120 25/22 Q1015
                        TEMPO 8000 SHRA=
201009092000 METAR LMML NIL=
201009091945 METAR LMML 091945Z 09004KT 070V130 9999 FEW011 BKN120 24/22
                        Q1015 NOSIG=
201009091930 METAR LMML NIL=
201009091915 METAR LMML 091915Z 13004KT 9999 FEW011 BKN120 24/22 Q1015
                        NOSIG=
201009091900 METAR LMML NIL=
201009091845 METAR LMML 091845Z 10005KT 050V130 9999 FEW011 BKN120 24/22
                        Q1014 NOSIG=
201009091830 METAR LMML NIL=
201009091815 METAR LMML 091815Z 10005KT 060V140 9999 FEW011 BKN120 24/22
                        Q1014 NOSIG=
201009091745 METAR LMML 091745Z 12011KT 9999 FEW016 BKN120 25/22 Q1013
                        NOSIG=
201009091730 METAR LMML NIL=
201009091715 METAR LMML 091715Z 12009KT 9999 FEW017 BKN120 25/22 Q1013
                        NOSIG=
201009091700 METAR LMML NIL=
201009091645 METAR LMML 091645Z 18004KT 150V210 9999 FEW015 26/21 Q1014
                        NOSIG=
201009091630 METAR LMML NIL=
201009091615 METAR LMML 091615Z 17004KT 120V220 9999 FEW017 26/21 Q1014
                        NOSIG=
201009091600 METAR LMML NIL=
201009091545 METAR LMML 091545Z 18004KT 140V220 9999 FEW018 27/21 Q1014
                        NOSIG=
201009091530 METAR LMML NIL=
201009091515 METAR LMML 091515Z 18005KT 140V230 9999 FEW020 27/21 Q1014
                        NOSIG=
201009091500 METAR LMML NIL=
201009091445 METAR LMML 091445Z 18005KT 140V250 9999 FEW020 27/21 Q1014
                        NOSIG=
201009091430 METAR LMML NIL=
201009091415 METAR LMML 091415Z 17006KT 100V240 9999 FEW023 28/21 Q1014
                        NOSIG=
201009091400 METAR LMML NIL=
201009091345 METAR LMML 091345Z 17005KT 130V210 9999 FEW019 28/21 Q1014
                        NOSIG=
201009091330 METAR LMML NIL=
201009091315 METAR LMML 091315Z 17007KT 110V230 9999 FEW018 28/21 Q1014
                        NOSIG=
201009091300 METAR LMML NIL=
201009091245 METAR LMML 091245Z 17008KT 110V210 9999 SCT018 28/21 Q1014
                        NOSIG=
201009091230 METAR LMML NIL=
201009091215 METAR LMML 091215Z 14009KT 070V230 9999 SCT017 28/22 Q1015
                        NOSIG=
201009091200 METAR LMML NIL=
201009091145 METAR LMML 091145Z 11010KT 080V150 9999 SCT017 27/22 Q1015
                        NOSIG=
201009091130 METAR LMML NIL=
201009091115 METAR LMML 091115Z 16008KT 110V210 9999 SCT019 28/21 Q1015
                        NOSIG=
201009091045 METAR LMML 091045Z 16008KT 120V200 9999 SCT014 27/21 Q1015
                        NOSIG=
201009091030 METAR LMML NIL=
201009091015 METAR LMML 091015Z 15010KT 110V200 9999 SCT017 28/21 Q1016
                        NOSIG=
201009090945 METAR LMML 090945Z 13010KT 080V170 9999 SCT016 27/22 Q1016
                        NOSIG=
201009090930 METAR LMML NIL=
201009090915 METAR LMML 090915Z 13009KT 100V170 9999 SCT016 26/22 Q1016
                        NOSIG=
201009090900 METAR LMML NIL=
201009090845 METAR LMML 090845Z 11009KT 080V150 9999 SCT014 26/22 Q1016
                        NOSIG=
201009090830 METAR LMML NIL=
201009090815 METAR LMML 090815Z 13009KT 100V160 9999 SCT014 26/21 Q1016
                        NOSIG=
201009090800 METAR LMML NIL=
201009090745 METAR LMML 090745Z 12010KT 9999 BKN011 26/22 Q1016 BECMG
                        SCT015=
201009090730 METAR LMML NIL=
201009090715 METAR LMML 090715Z 11010KT 080V140 9999 BKN012 26/21 Q1015
                        NOSIG=
201009090645 METAR LMML 090645Z 12010KT 070V140 9999 FEW011 SCT150 25/22
                        Q1015 NOSIG=
201009090630 METAR LMML NIL=
201009090615 METAR LMML 090615Z 12009KT 9999 FEW013 BKN120 24/22 Q1015
                        NOSIG=
201009090600 METAR LMML NIL=
201009090545 METAR LMML 090545Z 11007KT 9999 FEW013 BKN120 24/22 Q1015
                        NOSIG=
201009090530 METAR LMML NIL=
201009090515 METAR LMML 090515Z 11006KT 060V130 9999 FEW013 BKN120 24/22
                        Q1015 NOSIG=
201009090500 METAR LMML NIL=
201009090445 METAR LMML 090445Z 09005KT 9999 FEW012 BKN120 24/22 Q1014
                        NOSIG=
201009090415 METAR LMML 090415Z VRB03KT 9999 FEW012 BKN120 24/22 Q1015
                        NOSIG=
201009090345 METAR LMML 090345Z VRB02KT 9999 SCT012 SCT120 24/22 Q1015
                        TEMPO BKN012=
201009090315 METAR LMML 090315Z 14004KT 9999 BKN011 SCT120 24/22 Q1014
                        NOSIG=
201009090300 METAR LMML NIL=
201009090245 METAR LMML 090245Z 14007KT 9999 FEW012 BKN120 23/22 Q1014
                        NOSIG=
201009090230 METAR LMML NIL=
201009090215 METAR LMML 090215Z 14006KT 9999 FEW011 SCT120 24/22 Q1014
                        TEMPO BKN010=
201009090200 METAR LMML NIL=
201009090145 METAR LMML 090145Z 13006KT 9999 SCT009 SCT120 23/22 Q1014
                        TEMPO BKN007=
201009090130 METAR LMML NIL=
201009090115 METAR LMML 090115Z 14007KT 110V170 9999 SCT009 BKN250 23/22
                        Q1014 TEMPO BKN007=
201009090100 METAR LMML NIL=
201009090045 METAR LMML 090045Z 12009KT 9999 FEW009 SCT250 23/22 Q1014
                        NOSIG=
201009090030 METAR LMML NIL=
201009090015 METAR LMML 090015Z 12009KT 9999 FEW008 SCT250 23/22 Q1014
                        NOSIG=
201009090000 METAR LMML NIL=
201009082345 METAR LMML 082345Z 11007KT 9999 FEW009 SCT250 24/22 Q1014
                        NOSIG=
201009082330 METAR LMML NIL=
201009082315 METAR LMML 082315Z 11008KT 9999 FEW009 SCT250 24/22 Q1014
                        NOSIG=
201009082300 METAR LMML NIL=
201009082245 METAR LMML 082245Z 11008KT 9999 FEW009 SCT250 24/22 Q1014
                        NOSIG=
201009082230 METAR LMML NIL=
201009082215 METAR LMML 082215Z 11008KT CAVOK 24/22 Q1014 NOSIG=
201009082200 METAR LMML NIL=
201009082145 METAR LMML 082145Z 11007KT CAVOK 24/22 Q1014 NOSIG=
201009082130 METAR LMML NIL=
201009082115 METAR LMML 082115Z 11007KT CAVOK 24/22 Q1015 NOSIG=
201009082100 METAR LMML NIL=
201009082045 METAR LMML 082045Z 14007KT CAVOK 24/21 Q1014 NOSIG=
201009082030 METAR LMML NIL=
201009082015 METAR LMML 082015Z 14008KT CAVOK 24/21 Q1014 NOSIG=
201009082000 METAR LMML NIL=
201009081945 METAR LMML 081945Z 14007KT 9999 FEW020 25/21 Q1014 NOSIG=
201009081930 METAR LMML NIL=
201009081915 METAR LMML 081915Z 14006KT 120V180 9999 FEW020 25/21 Q1014
                        NOSIG=
201009081900 METAR LMML NIL=
201009081845 METAR LMML 081845Z 14007KT 9999 FEW020 25/22 Q1014 NOSIG=
201009081830 METAR LMML NIL=
201009081815 METAR LMML 081815Z 14006KT 110V170 9999 FEW020 25/21 Q1014
                        NOSIG=
201009081800 METAR LMML NIL=
201009081745 METAR LMML 081745Z 15007KT 120V180 9999 FEW020 25/21 Q1014
                        NOSIG=
201009081730 METAR LMML NIL=
201009081715 METAR LMML 081715Z 14006KT 110V180 9999 FEW020 26/21 Q1014
                        NOSIG=
201009081700 METAR LMML NIL=
201009081645 METAR LMML 081645Z 15008KT 120V190 9999 FEW020 26/21 Q1014
                        NOSIG=
201009081630 METAR LMML NIL=
201009081615 METAR LMML 081615Z 17007KT 140V200 9999 FEW020 26/21 Q1014
                        NOSIG=
201009081600 METAR LMML NIL=
201009081545 METAR LMML 081545Z 18007KT 140V230 9999 FEW019 27/21 Q1014
                        NOSIG=
201009081530 METAR LMML NIL=
201009081515 METAR LMML 081515Z 18008KT 130V220 9999 FEW021 27/21 Q1014
                        NOSIG=
201009081500 METAR LMML NIL=
201009081445 METAR LMML 081445Z 17007KT 130V210 9999 FEW019 28/21 Q1014
                        NOSIG=
201009081430 METAR LMML NIL=
201009081415 METAR LMML 081415Z 19008KT 140V250 9999 SCT021 28/21 Q1014
                        NOSIG=
201009081400 METAR LMML NIL=
201009081345 METAR LMML 081345Z 19009KT 170V230 9999 BKN019 28/21 Q1014
                        NOSIG=
201009081330 METAR LMML NIL=
201009081315 METAR LMML 081315Z 19008KT 140V250 9999 SCT020 28/21 Q1014
                        NOSIG=
201009081300 METAR LMML NIL=
201009081245 METAR LMML 081245Z 18010KT 140V230 9999 SCT020 28/21 Q1015
                        NOSIG=
201009081230 METAR LMML NIL=
201009081215 METAR LMML 081215Z 18012KT 140V210 9999 FEW020 28/21 Q1014
                        NOSIG=
201009081200 METAR LMML NIL=
201009081145 METAR LMML 081145Z 17012KT 150V230 9999 FEW020 28/21 Q1014
                        NOSIG=
201009081130 METAR LMML NIL=
201009081115 METAR LMML 081115Z 17013KT 140V220 9999 FEW020 SCT110 28/21
                        Q1014 NOSIG=
201009081100 METAR LMML NIL=
201009081045 METAR LMML 081045Z 17011KT 130V200 9999 FEW020 SCT120 28/21
                        Q1015 NOSIG=
201009081030 METAR LMML NIL=
201009081015 METAR LMML 081015Z 18011KT 150V220 9999 FEW019 SCT110 27/21
                        Q1015 NOSIG=
201009081000 METAR LMML NIL=
201009080945 METAR LMML 080945Z 19012KT 160V230 CAVOK 28/21 Q1015 NOSIG=
201009080930 METAR LMML NIL=
201009080915 METAR LMML 080915Z 18012KT 160V230 CAVOK 27/21 Q1015 NOSIG=
201009080900 METAR LMML NIL=
201009080845 METAR LMML 080845Z 18012KT 150V210 CAVOK 27/21 Q1015 NOSIG=
201009080830 METAR LMML NIL=
201009080815 METAR LMML 080815Z 17013KT 140V210 CAVOK 27/21 Q1014 NOSIG=
201009080800 METAR LMML NIL=
201009080745 METAR LMML 080745Z 16013KT 120V190 CAVOK 27/21 Q1014 NOSIG=
201009080730 METAR LMML NIL=
201009080715 METAR LMML 080715Z 17010KT 130V200 CAVOK 27/21 Q1014 NOSIG=
201009080700 METAR LMML NIL=
201009080645 METAR LMML 080645Z 17010KT 140V210 CAVOK 26/21 Q1014 NOSIG=
201009080630 METAR LMML NIL=
201009080615 METAR LMML 080615Z 17011KT 140V230 CAVOK 26/21 Q1013 NOSIG=
201009080600 METAR LMML NIL=
201009080545 METAR LMML 080545Z 17010KT 120V210 CAVOK 25/21 Q1013 NOSIG=
201009080530 METAR LMML NIL=
201009080515 METAR LMML 080515Z 17008KT 140V210 CAVOK 25/21 Q1013 NOSIG=
201009080445 METAR LMML 080445Z 17008KT 120V210 CAVOK 25/21 Q1013 NOSIG=
201009080430 METAR LMML NIL=
201009080415 METAR LMML 080415Z 17009KT 130V210 CAVOK 25/21 Q1013 NOSIG=
201009080400 METAR LMML NIL=
201009080345 METAR LMML 080345Z 17008KT 130V210 CAVOK 25/20 Q1013 NOSIG=
201009080330 METAR LMML NIL=
201009080315 METAR LMML 080315Z 17009KT 130V210 CAVOK 25/21 Q1013 NOSIG=
201009080300 METAR LMML NIL=
201009080245 METAR LMML 080245Z 17009KT 140V220 CAVOK 25/21 Q1013 NOSIG=
201009080230 METAR LMML NIL=
201009080215 METAR LMML 080215Z 17009KT 140V210 CAVOK 25/21 Q1013 NOSIG=
201009080200 METAR LMML NIL=
201009080145 METAR LMML 080145Z 17011KT 140V210 CAVOK 25/21 Q1013 NOSIG=
201009080130 METAR LMML NIL=
201009080115 METAR LMML 080115Z 17011KT 140V210 CAVOK 25/20 Q1013 NOSIG=
201009080100 METAR LMML NIL=
201009080045 METAR LMML 080045Z 17010KT CAVOK 25/20 Q1013 NOSIG=
201009080030 METAR LMML NIL=
201009080015 METAR LMML 080015Z 16010KT 130V200 CAVOK 25/20 Q1013 NOSIG=
201009080000 METAR LMML NIL=
201009072345 METAR LMML 072345Z 16011KT 120V190 CAVOK 25/20 Q1013 NOSIG=
201009072330 METAR LMML NIL=
201009072315 METAR LMML 072315Z 16011KT 130V200 CAVOK 25/20 Q1013 NOSIG=
201009072300 METAR LMML NIL=
201009072245 METAR LMML 072245Z 17009KT 120V200 CAVOK 25/20 Q1014 NOSIG=
201009072230 METAR LMML NIL=
201009072215 METAR LMML 072215Z 16009KT 140V200 CAVOK 25/21 Q1014 NOSIG=
201009072200 METAR LMML NIL=
201009072145 METAR LMML 072145Z 17011KT 120V210 CAVOK 25/20 Q1014 NOSIG=
201009072130 METAR LMML NIL=
201009072115 METAR LMML 072115Z 16009KT 130V190 CAVOK 25/20 Q1014 NOSIG=
201009072100 METAR LMML NIL=
201009072045 METAR LMML 072045Z 16009KT 120V190 CAVOK 25/20 Q1014 NOSIG=
201009072030 METAR LMML NIL=
201009072015 METAR LMML 072015Z 16010KT CAVOK 25/20 Q1014 NOSIG=
201009072000 METAR LMML NIL=
201009071945 METAR LMML 071945Z 17009KT 140V200 CAVOK 25/20 Q1014 NOSIG=
201009071930 METAR LMML NIL=
201009071915 METAR LMML 071915Z 17010KT 140V200 CAVOK 25/20 Q1014 NOSIG=
201009071900 METAR LMML NIL=
201009071845 METAR LMML 071845Z 17009KT 130V210 CAVOK 25/21 Q1014 NOSIG=
201009071830 METAR LMML NIL=
201009071815 METAR LMML 071815Z 17010KT 140V200 CAVOK 25/21 Q1013 NOSIG=
201009071800 METAR LMML NIL=
201009071745 METAR LMML 071745Z 17010KT 150V210 CAVOK 25/20 Q1013 NOSIG=
201009071730 METAR LMML NIL=
201009071715 METAR LMML 071715Z 17010KT 140V210 CAVOK 26/20 Q1013 NOSIG=
201009071700 METAR LMML NIL=
201009071645 METAR LMML 071645Z 17010KT 140V210 CAVOK 26/19 Q1013 NOSIG=
201009071630 METAR LMML NIL=
201009071615 METAR LMML 071615Z 17011KT 120V210 9999 FEW022 26/20 Q1013
                        NOSIG=
201009071600 METAR LMML NIL=
201009071545 METAR LMML 071545Z 17012KT 140V200 9999 FEW022 27/19 Q1013
                        NOSIG=
201009071530 METAR LMML NIL=
201009071515 METAR LMML 071515Z 17011KT 140V200 9999 FEW022 27/20 Q1014
                        NOSIG=
201009071500 METAR LMML NIL=
201009071445 METAR LMML 071445Z 17011KT 140V210 9999 FEW022 27/20 Q1014
                        NOSIG=
201009071430 METAR LMML NIL=
201009071415 METAR LMML 071415Z 18014KT 150V210 9999 FEW023 27/20 Q1014
                        NOSIG=
201009071400 METAR LMML NIL=
201009071345 METAR LMML 071345Z 17013KT 140V200 9999 FEW024 27/19 Q1014
                        NOSIG=
201009071330 METAR LMML NIL=
201009071315 METAR LMML 071315Z 18012KT 140V220 9999 FEW030 28/19 Q1014
                        NOSIG=
201009071245 METAR LMML 071245Z 17014KT 140V200 9999 FEW030 27/20 Q1014
                        NOSIG=
201009071230 METAR LMML NIL=
201009071215 METAR LMML 071215Z 18014KT 140V210 9999 FEW030 27/20 Q1014
                        NOSIG=
201009071200 METAR LMML NIL=
201009071145 METAR LMML 071145Z 17012KT 140V210 9999 FEW030 28/20 Q1015
                        NOSIG=
201009071130 METAR LMML NIL=
201009071115 METAR LMML 071115Z 17013KT 130V200 9999 FEW030 28/19 Q1015
                        NOSIG=
201009071100 METAR LMML NIL=
201009071045 METAR LMML 071045Z 17013KT 140V200 9999 FEW030 27/19 Q1015
                        NOSIG=
201009071030 METAR LMML NIL=
201009071015 METAR LMML 071015Z 17011KT 120V220 CAVOK 28/19 Q1015 NOSIG=
201009071000 METAR LMML NIL=
201009070945 METAR LMML 070945Z 18012KT 130V220 CAVOK 27/18 Q1015 NOSIG=
201009070930 METAR LMML NIL=
201009070915 METAR LMML 070915Z 17011KT 140V210 CAVOK 27/18 Q1015 NOSIG=
201009070900 METAR LMML NIL=
201009070845 METAR LMML 070845Z 17011KT 130V210 CAVOK 27/19 Q1015 NOSIG=
201009070830 METAR LMML NIL=
201009070815 METAR LMML 070815Z 17010KT 140V210 CAVOK 27/19 Q1015 NOSIG=
201009070800 METAR LMML NIL=
201009070745 METAR LMML 070745Z 17011KT 140V210 CAVOK 26/19 Q1015 NOSIG=
201009070730 METAR LMML NIL=
201009070715 METAR LMML 070715Z 17010KT CAVOK 26/19 Q1015 NOSIG=
201009070645 METAR LMML 070645Z 17008KT 130V210 CAVOK 26/19 Q1014 NOSIG=
201009070630 METAR LMML NIL=
201009070615 METAR LMML 070615Z 16008KT 130V220 CAVOK 25/18 Q1014 NOSIG=
201009070545 METAR LMML 070545Z 16007KT 110V200 CAVOK 25/18 Q1014 NOSIG=
201009070530 METAR LMML NIL=
201009070515 METAR LMML 070515Z 17005KT 130V200 CAVOK 24/18 Q1014 NOSIG=
201009070500 METAR LMML NIL=
201009070445 METAR LMML 070445Z 17004KT 140V200 CAVOK 23/18 Q1014 NOSIG=
201009070430 METAR LMML NIL=
201009070415 METAR LMML 070415Z 16005KT 130V190 CAVOK 23/17 Q1014 NOSIG=
201009070400 METAR LMML NIL=
201009070345 METAR LMML 070345Z 15004KT CAVOK 23/17 Q1014 NOSIG=
201009070330 METAR LMML NIL=
201009070315 METAR LMML 070315Z VRB03KT CAVOK 23/17 Q1014 NOSIG=
201009070300 METAR LMML NIL=
201009070245 METAR LMML 070245Z VRB03KT CAVOK 23/17 Q1014 NOSIG=
201009070230 METAR LMML NIL=
201009070215 METAR LMML 070215Z 18004KT 140V200 CAVOK 23/17 Q1014 NOSIG=
201009070200 METAR LMML NIL=
201009070145 METAR LMML 070145Z 17004KT 140V200 CAVOK 23/17 Q1014 NOSIG=
201009070130 METAR LMML NIL=
201009070115 METAR LMML 070115Z 17004KT CAVOK 23/17 Q1015 NOSIG=
201009070100 METAR LMML NIL=
201009070045 METAR LMML 070045Z VRB03KT CAVOK 23/17 Q1015 NOSIG=
201009070030 METAR LMML NIL=
201009070015 METAR LMML 070015Z VRB03KT CAVOK 23/17 Q1015 NOSIG=
201009070000 METAR LMML NIL=
201009062345 METAR LMML 062345Z 19004KT 160V220 CAVOK 23/17 Q1015 NOSIG=
201009062330 METAR LMML NIL=
201009062315 METAR LMML 062315Z VRB03KT CAVOK 23/17 Q1016 NOSIG=
201009062245 METAR LMML 062245Z VRB02KT CAVOK 23/18 Q1016 NOSIG=
201009062230 METAR LMML NIL=
201009062215 METAR LMML 062215Z VRB03KT CAVOK 23/18 Q1016 NOSIG=
201009062200 METAR LMML NIL=
201009062145 METAR LMML 062145Z VRB03KT CAVOK 23/18 Q1016 NOSIG=
201009062130 METAR LMML NIL=
201009062115 METAR LMML 062115Z VRB02KT CAVOK 23/17 Q1015 NOSIG=
201009062045 METAR LMML 062045Z VRB03KT CAVOK 23/18 Q1015 NOSIG=
201009062030 METAR LMML NIL=
201009062015 METAR LMML 062015Z VRB02KT CAVOK 24/17 Q1015 NOSIG=
201009062000 METAR LMML NIL=
201009061945 METAR LMML 061945Z VRB02KT CAVOK 24/17 Q1015 NOSIG=
201009061930 METAR LMML NIL=
201009061915 METAR LMML 061915Z VRB02KT CAVOK 24/17 Q1015 NOSIG=
201009061900 METAR LMML NIL=
201009061845 METAR LMML 061845Z 23004KT 200V270 CAVOK 24/17 Q1015 NOSIG=
201009061830 METAR LMML NIL=
201009061815 METAR LMML 061815Z VRB01KT 9999 FEW030 24/17 Q1015 NOSIG=
201009061800 METAR LMML NIL=
201009061745 METAR LMML 061745Z 23004KT 200V290 9999 FEW030 25/17 Q1015
                        NOSIG=
201009061715 METAR LMML 061715Z 22005KT 190V270 9999 FEW035 25/17 Q1014
                        NOSIG=
201009061700 METAR LMML NIL=
201009061645 METAR LMML 061645Z 23005KT 190V290 9999 FEW035 26/17 Q1014
                        NOSIG=
201009061630 METAR LMML NIL=
201009061615 METAR LMML 061615Z 24006KT 180V300 9999 FEW037 26/17 Q1014
                        NOSIG=
201009061600 METAR LMML NIL=
201009061545 METAR LMML 061545Z 23007KT 180V270 9999 FEW037 26/17 Q1014
                        NOSIG=
201009061530 METAR LMML NIL=
201009061515 METAR LMML 061515Z 21007KT 160V270 9999 FEW037 26/17 Q1014
                        NOSIG=
201009061500 METAR LMML NIL=
201009061445 METAR LMML 061445Z 23007KT 200V280 9999 FEW037 27/17 Q1014
                        NOSIG=
201009061430 METAR LMML NIL=
201009061415 METAR LMML 061415Z 23007KT 190V290 9999 FEW037 27/17 Q1015
                        NOSIG=
201009061400 METAR LMML NIL=
201009061345 METAR LMML 061345Z 22007KT 180V280 9999 FEW037 27/18 Q1015
                        NOSIG=
201009061330 METAR LMML NIL=
201009061315 METAR LMML 061315Z 23005KT 180V300 9999 FEW036 28/18 Q1015
                        NOSIG=
201009061300 METAR LMML NIL=
201009061245 METAR LMML 061245Z VRB02KT 9999 FEW034 28/17 Q1015 NOSIG=
201009061215 METAR LMML 061215Z 09008KT 050V150 9999 FEW031 28/19 Q1015
                        NOSIG=
201009061145 METAR LMML 061145Z 08007KT 040V110 9999 FEW031 FEW043 27/19
                        Q1016 NOSIG=
201009061130 METAR LMML NIL=
201009061115 METAR LMML 061115Z 10004KT 030V170 9999 FEW032 27/19 Q1016
                        NOSIG=
201009061100 METAR LMML NIL=
201009061045 METAR LMML 061045Z 11007KT 9999 FEW032 27/19 Q1016 NOSIG=
201009061030 METAR LMML NIL=
201009061015 METAR LMML 061015Z VRB03KT 9999 FEW033 27/17 Q1016 NOSIG=
201009061000 METAR LMML NIL=
201009060945 METAR LMML 060945Z 31004G14KT 220V120 9999 FEW037 28/17 Q1017
                        NOSIG=
201009060930 METAR LMML NIL=
201009060915 METAR LMML 060915Z 31006KT 250V020 9999 FEW035 27/17 Q1017
                        NOSIG=
201009060900 METAR LMML NIL=
201009060845 METAR LMML 060845Z 30006KT 230V340 9999 FEW032 27/18 Q1017
                        NOSIG=
201009060830 METAR LMML NIL=
201009060815 METAR LMML 060815Z 28005KT 210V330 9999 FEW026 26/18 Q1017
                        NOSIG=
201009060800 METAR LMML NIL=
201009060745 METAR LMML 060745Z 29005KT 260V360 9999 FEW024 25/18 Q1017
                        NOSIG=
201009060730 METAR LMML NIL=
201009060715 METAR LMML 060715Z 28005KT 240V330 9999 FEW022 25/19 Q1016
                        NOSIG=
201009060700 METAR LMML NIL=
201009060645 METAR LMML 060645Z VRB03KT 9999 FEW020 24/19 Q1016 NOSIG=
201009060630 METAR LMML NIL=
201009060615 METAR LMML 060615Z VRB03KT 9999 FEW020 23/19 Q1016 NOSIG=
201009060600 METAR LMML NIL=
201009060545 METAR LMML 060545Z 27004KT 240V300 9999 FEW020 22/19 Q1016
                        NOSIG=
201009060530 METAR LMML NIL=
201009060515 METAR LMML 060515Z 25004KT 220V280 9999 FEW020 21/18 Q1016
                        NOSIG=
201009060500 METAR LMML NIL=
201009060445 METAR LMML 060445Z 27004KT 9999 FEW020 20/18 Q1016 NOSIG=
201009060430 METAR LMML NIL=
201009060415 METAR LMML 060415Z 28004KT CAVOK 21/18 Q1016 NOSIG=
201009060400 METAR LMML NIL=
201009060345 METAR LMML 060345Z 28004KT CAVOK 21/18 Q1016 NOSIG=
201009060330 METAR LMML NIL=
201009060315 METAR LMML 060315Z VRB03KT CAVOK 20/17 Q1015 NOSIG=
201009060300 METAR LMML NIL=
201009060245 METAR LMML 060245Z VRB03KT CAVOK 20/17 Q1015 NOSIG=
201009060230 METAR LMML NIL=
201009060215 METAR LMML 060215Z VRB03KT CAVOK 20/17 Q1015 NOSIG=
201009060200 METAR LMML NIL=
201009060145 METAR LMML 060145Z VRB03KT CAVOK 21/17 Q1015 NOSIG=
201009060130 METAR LMML NIL=
201009060115 METAR LMML 060115Z VRB02KT CAVOK 21/17 Q1015 NOSIG=
201009060100 METAR LMML NIL=
201009060045 METAR LMML 060045Z VRB02KT CAVOK 21/17 Q1016 NOSIG=
201009060030 METAR LMML NIL=
201009060015 METAR LMML 060015Z VRB02KT CAVOK 21/17 Q1016 NOSIG=
201009060000 METAR LMML NIL=
201009052345 METAR LMML 052345Z VRB03KT CAVOK 21/17 Q1016 NOSIG=
201009052330 METAR LMML NIL=
201009052315 METAR LMML 052315Z VRB02KT CAVOK 21/17 Q1016 NOSIG=
201009052300 METAR LMML NIL=
201009052245 METAR LMML 052245Z VRB02KT CAVOK 21/17 Q1016 NOSIG=
201009052230 METAR LMML NIL=
201009052215 METAR LMML 052215Z VRB01KT CAVOK 22/17 Q1017 NOSIG=
201009052200 METAR LMML NIL=
201009052145 METAR LMML 052145Z VRB01KT CAVOK 22/17 Q1017 NOSIG=
201009052130 METAR LMML NIL=
201009052115 METAR LMML 052115Z VRB02KT CAVOK 22/17 Q1017 NOSIG=
201009052100 METAR LMML NIL=
201009052045 METAR LMML 052045Z VRB01KT CAVOK 22/17 Q1017 NOSIG=
201009052030 METAR LMML NIL=
201009052015 METAR LMML 052015Z VRB02KT CAVOK 23/17 Q1017 NOSIG=
201009052000 METAR LMML NIL=
201009051945 METAR LMML 051945Z VRB02KT CAVOK 23/17 Q1017 NOSIG=
201009051930 METAR LMML NIL=
201009051915 METAR LMML 051915Z VRB01KT CAVOK 23/17 Q1017 NOSIG=
201009051900 METAR LMML NIL=
201009051845 METAR LMML 051845Z VRB01KT CAVOK 23/17 Q1017 NOSIG=
201009051830 METAR LMML NIL=
201009051815 METAR LMML 051815Z VRB03KT CAVOK 24/17 Q1016 NOSIG=
201009051800 METAR LMML NIL=
201009051745 METAR LMML 051745Z VRB03KT 9999 FEW025 24/17 Q1016 NOSIG=
201009051730 METAR LMML NIL=
201009051715 METAR LMML 051715Z 13004KT 100V160 9999 FEW025 24/17 Q1016
                        NOSIG=
201009051700 METAR LMML NIL=
201009051645 METAR LMML 051645Z 11004KT 040V170 9999 FEW027 25/17 Q1016
                        NOSIG=
201009051630 METAR LMML NIL=
201009051615 METAR LMML 051615Z VRB03KT 9999 FEW027 25/16 Q1016 NOSIG=
201009051600 METAR LMML NIL=
201009051545 METAR LMML 051545Z VRB03KT 9999 FEW000 26/16 Q1016 NOSIG=
201009051530 METAR LMML NIL=
201009051515 METAR LMML 051515Z 05006KT 340V080 9999 FEW027 27/17 Q1015
                        NOSIG=
201009051500 METAR LMML NIL=
201009051445 METAR LMML 051445Z 04005KT 350V110 9999 FEW026 28/17 Q1016
                        NOSIG=
201009051430 METAR LMML NIL=
201009051415 METAR LMML 051415Z 03005KT 340V100 9999 FEW031 28/17 Q1016
                        NOSIG=
201009051400 METAR LMML NIL=
201009051345 METAR LMML 051345Z 03005KT 350V070 9999 FEW029 28/17 Q1016
                        NOSIG=
201009051330 METAR LMML NIL=
201009051315 METAR LMML 051315Z 02006KT 340V060 9999 FEW033 28/17 Q1016
                        NOSIG=
201009051300 METAR LMML NIL=
201009051245 METAR LMML 051245Z 03006KT 340V100 9999 FEW031 28/17 Q1016
                        NOSIG=
201009051230 METAR LMML NIL=
201009051215 METAR LMML 051215Z 06007KT 010V110 9999 FEW037 28/17 Q1016
                        NOSIG=
201009051200 METAR LMML NIL=
201009051145 METAR LMML 051145Z 05007KT 350V100 9999 FEW031 28/17 Q1016
                        NOSIG=
201009051130 METAR LMML NIL=
201009051115 METAR LMML 051115Z 02008KT 340V080 9999 FEW029 28/17 Q1016
                        NOSIG=
201009051100 METAR LMML NIL=
201009051045 METAR LMML 051045Z 04008KT 010V100 9999 SCT027 27/19 Q1016
                        NOSIG=
201009051030 METAR LMML NIL=
201009051015 METAR LMML 051015Z 05008KT 360V090 9999 SCT026 27/18 Q1016
                        NOSIG=
201009051000 METAR LMML NIL=
201009050945 METAR LMML 050945Z 06008KT 010V110 9999 SCT025 26/18 Q1016
                        NOSIG=
201009050930 METAR LMML NIL=
201009050915 METAR LMML 050915Z 06008KT 010V100 9999 SCT026 27/17 Q1017
                        NOSIG=
201009050900 METAR LMML NIL=
201009050845 METAR LMML 050845Z 06008KT 020V110 9999 SCT024 26/18 Q1017
                        NOSIG=
201009050830 METAR LMML NIL=
201009050815 METAR LMML 050815Z 03005KT 360V090 9999 SCT023 26/19 Q1016
                        NOSIG=
201009050800 METAR LMML NIL=
201009050745 METAR LMML 050745Z 04006KT 360V150 9999 SCT024 26/19 Q1016
                        NOSIG=
201009050730 METAR LMML NIL=
201009050715 METAR LMML 050715Z 08005KT 020V110 9999 FEW023 25/19 Q1016
                        NOSIG=
201009050700 METAR LMML NIL=
201009050645 METAR LMML 050645Z 05005KT 360V160 9999 FEW020 25/19 Q1016
                        NOSIG=
201009050615 METAR LMML 050615Z VRB03KT 9999 FEW020 BKN045 24/19 Q1016
                        NOSIG=
201009050600 METAR LMML NIL=
201009050545 METAR LMML 050545Z VRB02KT 9999 FEW020 SCT047 23/19 Q1016
                        NOSIG=
201009050530 METAR LMML NIL=
201009050515 METAR LMML 050515Z VRB03KT 9999 FEW021 SCT250 23/19 Q1015
                        NOSIG=
201009050500 METAR LMML NIL=
201009050445 METAR LMML 050445Z VRB03KT 9999 FEW022 22/19 Q1015 NOSIG=
201009050430 METAR LMML NIL=
201009050415 METAR LMML 050415Z VRB03KT 9999 FEW021 22/19 Q1015 NOSIG=
201009050400 METAR LMML NIL=
201009050345 METAR LMML 050345Z VRB03KT 9999 FEW020 22/19 Q1015 NOSIG=
201009050330 METAR LMML NIL=
201009050315 METAR LMML 050315Z VRB03KT 9999 FEW019 22/19 Q1015 NOSIG=
201009050300 METAR LMML NIL=
201009050245 METAR LMML 050245Z 07004KT 9999 FEW018 23/19 Q1015 NOSIG=
201009050230 METAR LMML NIL=
201009050215 METAR LMML 050215Z VRB03KT 9999 FEW018 23/19 Q1015 NOSIG=
201009050200 METAR LMML NIL=
201009050145 METAR LMML 050145Z VRB03KT 9999 FEW019 23/19 Q1015 NOSIG=
201009050130 METAR LMML NIL=
201009050115 METAR LMML 050115Z 09004KT 9999 FEW019 23/19 Q1015 NOSIG=
201009050100 METAR LMML NIL=
201009050045 METAR LMML 050045Z 07004KT 9999 FEW016 23/20 Q1015 NOSIG=
201009050030 METAR LMML NIL=
201009050015 METAR LMML 050015Z 08004KT 040V110 9999 FEW016 23/20 Q1015
                        NOSIG=
201009050000 METAR LMML NIL=
201009042345 METAR LMML 042345Z 11004KT 9999 FEW014 23/20 Q1015 NOSIG=
201009042330 METAR LMML NIL=
201009042315 METAR LMML 042315Z 08004KT 060V120 CAVOK 23/20 Q1015 NOSIG=
201009042300 METAR LMML NIL=
201009042245 METAR LMML 042245Z VRB03KT CAVOK 23/20 Q1015 NOSIG=
201009042230 METAR LMML NIL=
201009042215 METAR LMML 042215Z 09004KT 060V150 CAVOK 23/20 Q1015 NOSIG=
201009042200 METAR LMML NIL=
201009042145 METAR LMML 042145Z 08005KT 9999 FEW020 23/19 Q1015 NOSIG=
201009042130 METAR LMML NIL=
201009042115 METAR LMML 042115Z 07006KT 040V160 9999 FEW020 24/20 Q1015
                        NOSIG=
201009042100 METAR LMML NIL=
201009042045 METAR LMML 042045Z 07005KT 020V160 9999 FEW020 24/20 Q1015
                        NOSIG=
201009042030 METAR LMML NIL=
201009042015 METAR LMML 042015Z 07005KT 040V100 9999 FEW025 24/20 Q1015
                        NOSIG=
201009042000 METAR LMML NIL=
201009041945 METAR LMML 041945Z 07005KT 040V100 9999 FEW020 24/20 Q1015
                        NOSIG=
201009041930 METAR LMML NIL=
201009041915 METAR LMML 041915Z 04005KT 010V140 9999 FEW018 25/19 Q1014
                        NOSIG=
201009041900 METAR LMML NIL=
201009041845 METAR LMML 041845Z 01004KT 9999 FEW022 24/18 Q1014 NOSIG=
201009041830 METAR LMML NIL=
201009041815 METAR LMML 041815Z 36005KT 330V030 9999 FEW025 25/18 Q1014
                        NOSIG=
201009041800 METAR LMML NIL=
201009041745 METAR LMML 041745Z 01004KT 9999 FEW025 25/18 Q1013 NOSIG=
201009041730 METAR LMML NIL=
201009041715 METAR LMML 041715Z 36004KT 330V040 9999 FEW025 25/18 Q1013
                        NOSIG=
201009041700 METAR LMML NIL=
201009041645 METAR LMML 041645Z 01005KT 330V050 9999 FEW030 27/17 Q1013
                        NOSIG=
201009041630 METAR LMML NIL=
201009041615 METAR LMML 041615Z 35007KT 310V060 9999 FEW030 27/18 Q1013
                        NOSIG=
201009041600 METAR LMML NIL=
201009041545 METAR LMML 041545Z 02006KT 340V050 9999 FEW030 28/17 Q1013
                        NOSIG=
201009041530 METAR LMML NIL=
201009041515 METAR LMML 041515Z 35006KT 300V060 9999 FEW030 28/17 Q1013
                        NOSIG=
201009041500 METAR LMML NIL=
201009041445 METAR LMML 041445Z 01006KT 320V060 9999 FEW030 28/17 Q1013
                        NOSIG=
201009041430 METAR LMML NIL=
201009041415 METAR LMML 041415Z 36007KT 300V020 9999 FEW030 28/17 Q1012
                        NOSIG=
201009041400 METAR LMML NIL=
201009041345 METAR LMML 041345Z 33009KT 300V360 9999 FEW030 27/17 Q1012
                        NOSIG=
201009041330 METAR LMML NIL=
201009041315 METAR LMML 041315Z 36009KT 320V030 9999 FEW030 28/17 Q1012
                        NOSIG=
201009041300 METAR LMML NIL=
201009041245 METAR LMML 041245Z 35012KT 320V020 9999 FEW030 29/16 Q1012
                        NOSIG=
201009041230 METAR LMML NIL=
201009041215 METAR LMML 041215Z 34011KT 280V030 9999 FEW025 28/15 Q1013
                        NOSIG=
201009041200 METAR LMML NIL=
201009041145 METAR LMML 041145Z 34013KT 300V010 9999 FEW025 28/16 Q1013
                        NOSIG=
201009041130 METAR LMML NIL=
201009041115 METAR LMML 041115Z 33013KT 300V360 9999 FEW025 28/16 Q1013
                        NOSIG=
201009041100 METAR LMML NIL=
201009041045 METAR LMML 041045Z 33014KT 300V010 9999 FEW025 28/14 Q1013
                        NOSIG=
201009041030 METAR LMML NIL=
201009041015 METAR LMML 041015Z 33014KT 9999 FEW025 27/16 Q1013 NOSIG=
201009041000 METAR LMML NIL=
201009040945 METAR LMML 040945Z 33013KT 9999 FEW025 27/18 Q1013 NOSIG=
201009040930 METAR LMML NIL=
201009040915 METAR LMML 040915Z 33016KT 9999 FEW024 27/18 Q1013 NOSIG=
201009040900 METAR LMML NIL=
201009040845 METAR LMML 040845Z 32014KT 9999 FEW024 27/18 Q1013 NOSIG=
201009040830 METAR LMML NIL=
201009040815 METAR LMML 040815Z 34013KT 9999 FEW025 26/19 Q1013 NOSIG=
201009040800 METAR LMML NIL=
201009040745 METAR LMML 040745Z 33010KT 290V350 9999 FEW020 26/19 Q1012
                        NOSIG=
201009040730 METAR LMML NIL=
201009040715 METAR LMML 040715Z 32010KT 300V360 9999 FEW020 25/20 Q1012
                        NOSIG=
201009040700 METAR LMML NIL=
201009040645 METAR LMML 040645Z 31009KT 9999 FEW020 24/19 Q1012 NOSIG=
201009040630 METAR LMML NIL=
201009040615 METAR LMML 040615Z 31010KT 9999 FEW020 23/20 Q1012 NOSIG=
201009040600 METAR LMML NIL=
201009040545 METAR LMML 040545Z 31007KT 9999 FEW020 22/20 Q1012 NOSIG=
201009040530 METAR LMML NIL=
201009040515 METAR LMML 040515Z 32006KT 9999 FEW020 22/20 Q1012 NOSIG=
201009040500 METAR LMML NIL=
201009040445 METAR LMML 040445Z 32006KT 9999 FEW018 SCT120 22/20 Q1012
                        NOSIG=
201009040430 METAR LMML NIL=
201009040415 METAR LMML 040415Z 33005KT 9999 FEW009 SCT120 22/20 Q1012
                        NOSIG=
201009040400 METAR LMML NIL=
201009040345 METAR LMML 040345Z 32008KT 9999 FEW009 SCT120 22/20 Q1011
                        NOSIG=
201009040330 METAR LMML NIL=
201009040315 METAR LMML 040315Z 31011KT 9999 FEW009 SCT120 22/20 Q1011
                        TEMPO SHRA RMK LIGHTNING TO SOUTHEAST=
201009040300 METAR LMML NIL=
201009040245 METAR LMML 040245Z 32008KT 9999 FEW009 SCT120 22/20 Q1011
                        TEMPO SHRA RMK LIGHTNING TO EAST
                        AND SOUTHEAST=
201009040230 METAR LMML NIL=
201009040215 METAR LMML 040215Z 32008KT 9999 FEW009 SCT120 22/20 Q1011
                        TEMPO SHRA RMK LIGHTNING TO EAST
                        AND SOUTHEAST=
201009040200 METAR LMML NIL=
201009040145 METAR LMML 040145Z 33009KT 9999 FEW009 SCT120 22/20 Q1011
                        TEMPO SHRA RMK LIGHTNING TO EAST
                        AND SOUTHEAST=
201009040130 METAR LMML NIL=
201009040115 METAR LMML 040115Z 33010KT 9999 FEW009 SCT120 22/21 Q1012
                        TEMPO SHRA RMK LIGHTNING TO EAST=
201009040100 METAR LMML NIL=
201009040045 METAR LMML 040045Z 33009KT 9999 FEW009 SCT120 22/21 Q1012
                        TEMPO SHRA RMK LIGHTNING TO E=
201009040015 METAR LMML 040015Z 32011KT 9999 -SHRA SCT009 SCT021 BKN120
                        22/21 Q1012 TEMPO SHRA RMK LIGHTNING
                        TO THE NE SECTOR=
201009040000 METAR LMML NIL=
201009032345 METAR LMML 032345Z 26005KT 200V300 9999 SCT009 SCT020 BKN120
                        25/24 Q1011 TEMPO 5000 TSRA BKN005
                        BKN020CB RMK LIGHTNING TO THE NE
                        SECTOR=
201009032330 METAR LMML NIL=
201009032315 METAR LMML 032315Z 22007KT 190V260 9999 SCT008 BKN120 25/24
                        Q1011 TEMPO 5000 TSRA BKN005 BKN020CB
                        RMK LIGHTNING TO THE NE SECTOR=
201009032300 METAR LMML NIL=
201009032245 METAR LMML 032245Z 19004KT 150V230 9999 SCT008 BKN120 25/23
                        Q1011 TEMPO SHRA RMK LIGHTNING TO
                        NE=
201009032230 METAR LMML NIL=
201009032215 METAR LMML 032215Z VRB03KT 9999 SCT009 BKN120 25/23 Q1011
                        TEMPO SHRA=
201009032200 METAR LMML NIL=
201009032145 METAR LMML 032145Z 17005KT 130V230 9999 SCT009 BKN120 25/23
                        Q1012 TEMPO SHRA=
201009032130 METAR LMML NIL=
201009032115 METAR LMML 032115Z 17008KT 140V220 9999 SCT009 BKN120 25/23
                        Q1012 TEMPO SHRA=
201009032100 METAR LMML NIL=
201009032045 METAR LMML 032045Z 15007KT 120V180 9999 -RA SCT010 BKN120
                        25/23 Q1012 TEMPO SHRA=
201009032030 METAR LMML NIL=
201009032015 METAR LMML 032015Z 13006KT 9999 SCT009 BKN120 25/23 Q1012
                        TEMPO SHRA=
201009031945 METAR LMML 031945Z 14007KT 9999 SCT009 BKN120 25/23 Q1013
                        NOSIG=
201009031930 METAR LMML NIL=
201009031915 METAR LMML 031915Z 13005KT 9999 SCT010 BKN120 25/23 Q1012
                        NOSIG=
201009031900 METAR LMML NIL=
201009031845 METAR COR LMML 031845Z 12005KT 100V160 9999 SCT010 BKN120
                        25/23 Q1013 NOSIG=
201009031830 METAR LMML NIL=
201009031815 METAR LMML 031815Z 13004KT 9999 BKN011 BKN120 25/23 Q1013
                        TEMPO SHRA=
201009031800 METAR LMML NIL=
201009031745 METAR LMML 031745Z 13004KT 100V170 9999 BKN011 BKN120 25/23
                        Q1013 TEMPO SHRA=
201009031730 METAR LMML NIL=
201009031715 METAR LMML 031715Z 11008KT 9999 SCT011 BKN120 26/23 Q1012
                        NOSIG=
201009031700 METAR LMML NIL=
201009031645 METAR LMML 031645Z 12008KT 9999 SCT014 BKN120 26/23 Q1011
                        NOSIG=
201009031630 METAR LMML NIL=
201009031615 METAR LMML 031615Z 13007KT 100V160 9999 SCT016 SCT120 26/22
                        Q1012 NOSIG=
201009031600 METAR LMML NIL=
201009031545 METAR LMML 031545Z 14007KT 110V180 9999 R13/1400N FEW016
                        SCT250 27/22 Q1012 NOSIG=
201009031530 METAR LMML NIL=
201009031515 METAR LMML 031515Z 16007KT 120V200 9999 SCT016 BKN120 27/23
                        Q1013 NOSIG=
201009031500 METAR LMML NIL=
201009031445 METAR LMML 031445Z 15008KT 110V190 9999 FEW015 BKN120 26/23
                        Q1013 NOSIG=
201009031430 METAR LMML NIL=
201009031415 METAR LMML 031415Z 12008KT 080V150 9999 FEW015 BKN120 26/23
                        Q1012 NOSIG=
201009031400 METAR LMML NIL=
201009031345 METAR LMML 031345Z 11014KT 9999 FEW015 BKN120 26/23 Q1011
                        NOSIG=
201009031330 METAR LMML NIL=
201009031315 METAR LMML 031315Z 12012KT 9999 FEW015 BKN120 26/23 Q1012
                        NOSIG=
201009031300 METAR LMML NIL=
201009031245 METAR LMML 031245Z 12010KT 9999 FEW015 BKN120 26/23 Q1012
                        NOSIG=
201009031230 METAR LMML NIL=
201009031215 METAR LMML 031215Z 15008KT 110V180 9999 -SHRA FEW032 BKN120
                        26/23 Q1013 NOSIG=
201009031200 METAR LMML NIL=
201009031145 METAR LMML 031145Z 16007KT 120V210 9999 -SHRA SCT032 BKN100
                        26/23 Q1013 NOSIG=
201009031130 METAR LMML NIL=
201009031115 METAR LMML 031115Z 17011KT 140V200 9999 FEW020 SCT100 BKN130
                        27/22 Q1014 TEMPO 9000 TSRA BKN080CB=
201009031100 METAR LMML NIL=
201009031045 METAR LMML 031045Z 17009KT 130V210 9999 FEW020 SCT080 BKN120
                        27/22 Q1014 NOSIG=
201009031030 METAR LMML NIL=
201009031015 METAR LMML 031015Z 18009KT 130V220 9999 FEW022 SCT120 BKN150
                        28/22 Q1014 NOSIG=
201009031000 METAR LMML NIL=
201009030945 METAR LMML 030945Z 18011KT 150V220 9999 FEW022 SCT120 BKN150
                        27/22 Q1014 NOSIG=
201009030930 METAR LMML NIL=
201009030915 METAR LMML 030915Z 18009KT 150V220 9999 -SHRA FEW022 OVC120
                        27/22 Q1015 NOSIG=
201009030900 METAR LMML NIL=
201009030845 METAR LMML 030845Z 16010KT 140V200 9999 FEW022 BKN120 26/22
                        Q1015 NOSIG=
201009030830 METAR LMML NIL=
201009030815 METAR LMML 030815Z 16012KT 140V200 9999 FEW022 BKN120 26/22
                        Q1015 NOSIG=
201009030800 METAR LMML NIL=
201009030745 METAR LMML 030745Z 17010KT 120V200 9999 FEW022 BKN120 27/22
                        Q1015 NOSIG=
201009030730 METAR LMML NIL=
201009030715 METAR LMML 030715Z 17009KT 150V210 9999 FEW022 SCT130 BKN250
                        27/22 Q1014 NOSIG=
201009030700 METAR LMML NIL=
201009030645 METAR LMML 030645Z 18008KT 150V220 9999 FEW022 BKN130 26/22
                        Q1014 NOSIG=
201009030630 METAR LMML NIL=
201009030615 METAR LMML 030615Z 18009KT 130V230 9999 SCT022 BKN130 26/22
                        Q1014 NOSIG=
201009030600 METAR LMML NIL=
201009030545 METAR LMML 030545Z 18008KT 150V220 9999 FEW024 BKN250 26/22
                        Q1014 NOSIG=
201009030530 METAR LMML NIL=
201009030515 METAR LMML 030515Z 18008KT 150V220 9999 FEW020 BKN250 25/22
                        Q1014 NOSIG=
201009030500 METAR LMML NIL=
201009030445 METAR LMML 030445Z 18009KT 150V210 9999 SCT020 BKN250 25/21
                        Q1014 NOSIG=
201009030430 METAR LMML NIL=
201009030415 METAR LMML 030415Z 17006KT 9999 SCT020 SCT250 25/21 Q1014
                        NOSIG=
201009030400 METAR LMML NIL=
201009030345 METAR LMML 030345Z 18006KT 150V210 9999 BKN020 25/21 Q1014
                        NOSIG=
201009030330 METAR LMML NIL=
201009030315 METAR LMML 030315Z 17006KT 140V200 9999 FEW019 SCT120 25/21
                        Q1014 NOSIG=
201009030300 METAR LMML NIL=
201009030245 METAR LMML 030245Z 17007KT 140V220 9999 FEW021 SCT120 25/21
                        Q1014 NOSIG=
201009030230 METAR LMML NIL=
201009030215 METAR LMML 030215Z 17007KT 140V210 9999 FEW020 SCT120 25/21
                        Q1014 NOSIG=
201009030200 METAR LMML NIL=
201009030145 METAR LMML 030145Z 16008KT 9999 FEW020 BKN120 25/21 Q1014
                        NOSIG=
201009030130 METAR LMML NIL=
201009030115 METAR LMML 030115Z 17007KT 140V200 9999 FEW020 BKN120 25/21
                        Q1014 NOSIG=
201009030100 METAR LMML NIL=
201009030045 METAR LMML 030045Z 16009KT 120V190 9999 FEW020 25/21 Q1015
                        NOSIG=
201009030030 METAR LMML NIL=
201009030015 METAR LMML 030015Z 16011KT 9999 FEW019 25/21 Q1014 NOSIG=
201009030000 METAR LMML NIL=
201009022345 METAR LMML 022345Z 15013KT 120V180 9999 SCT020 25/21 Q1014
                        NOSIG=
201009022315 METAR LMML 022315Z 15012KT 120V180 9999 BKN022 25/21 Q1015
                        NOSIG=
201009022300 METAR LMML NIL=
201009022245 METAR LMML 022245Z 14011KT 120V180 9999 BKN021 25/21 Q1015
                        NOSIG=
201009022230 METAR LMML NIL=
201009022215 METAR LMML 022215Z 15010KT 9999 BKN021 26/21 Q1015 NOSIG=
201009022200 METAR LMML NIL=
201009022145 METAR LMML 022145Z 15012KT 9999 BKN021 25/21 Q1015 NOSIG=
201009022115 METAR LMML 022115Z 14011KT 9999 BKN021 26/21 Q1015 NOSIG=
201009022045 METAR LMML 022045Z 14013KT 120V180 9999 BKN022 26/21 Q1015
                        NOSIG=
201009022030 METAR LMML NIL=
201009022015 METAR LMML 022015Z 14012KT 110V180 9999 BKN021 26/21 Q1015
                        NOSIG=
201009021945 METAR LMML 021945Z 15012KT 9999 BKN019 26/21 Q1016 NOSIG=
201009021915 METAR LMML 021915Z 14011KT 110V180 9999 SCT019 SCT250 25/21
                        Q1015 NOSIG=
201009021900 METAR LMML NIL=
201009021845 METAR LMML 021845Z 15011KT 120V180 9999 FEW028 SCT250 26/21
                        Q1015 NOSIG=
201009021830 METAR LMML NIL=
201009021815 METAR LMML 021815Z 15012KT 9999 FEW028 SCT250 26/21 Q1015
                        NOSIG=
201009021800 METAR LMML NIL=
201009021745 METAR LMML 021745Z 15012KT 9999 FEW028 SCT250 26/21 Q1014
                        NOSIG=
201009021715 METAR LMML 021715Z 15010KT 120V190 9999 FEW028 SCT250 26/21
                        Q1015 NOSIG=
201009021700 METAR LMML NIL=
201009021645 METAR LMML 021645Z 15013KT 9999 FEW028 26/21 Q1014 NOSIG=
201009021630 METAR LMML NIL=
201009021615 METAR LMML 021615Z 16012KT 9999 FEW028 BKN120 27/21 Q1015
                        NOSIG=
201009021600 METAR LMML NIL=
201009021545 METAR LMML 021545Z 16013KT 130V190 9999 FEW028 SCT120 27/21
                        Q1015 NOSIG=
201009021530 METAR LMML NIL=
201009021515 METAR LMML 021515Z 16012KT 130V190 9999 FEW028 27/21 Q1015
                        NOSIG=
201009021500 METAR LMML NIL=
201009021445 METAR LMML 021445Z 16013KT 120V200 9999 FEW026 28/21 Q1015
                        NOSIG=
201009021430 METAR LMML NIL=
201009021415 METAR LMML 021415Z 15014KT 120V190 9999 FEW024 27/21 Q1015
                        NOSIG=
201009021400 METAR LMML NIL=
201009021345 METAR LMML 021345Z 15016KT 120V180 9999 FEW023 SCT040 28/20
                        Q1015 NOSIG=
201009021330 METAR LMML NIL=
201009021315 METAR LMML 021315Z 15015KT 120V180 9999 FEW024 SCT037 28/20
                        Q1015 NOSIG=
201009021300 METAR LMML NIL=
201009021245 METAR LMML 021245Z 15016KT 120V180 9999 SCT027 SCT036 28/20
                        Q1015 NOSIG=
201009021230 METAR LMML NIL=
201009021215 METAR LMML 021215Z 15014KT 120V190 9999 SCT027 SCT040 28/20
                        Q1015 NOSIG=
201009021200 METAR LMML NIL=
201009021145 METAR LMML 021145Z 15014KT 120V190 9999 FEW032 SCT039 BKN250
                        28/20 Q1016 NOSIG=
201009021115 METAR LMML 021115Z 15013KT 120V190 9999 FEW030 BKN250 28/19
                        Q1016 NOSIG=
201009021100 METAR LMML NIL=
201009021045 METAR LMML 021045Z 15014KT 9999 FEW029 SCT042 BKN250 28/20
                        Q1016 NOSIG=
201009021030 METAR LMML NIL=
201009021015 METAR LMML 021015Z 16014KT 130V190 9999 FEW029 SCT120 BKN250
                        28/19 Q1016 NOSIG=
201009021000 METAR LMML NIL=
201009020945 METAR LMML 020945Z 15014KT 110V190 9999 FEW028 SCT250 28/19
                        Q1016 NOSIG=
201009020930 METAR LMML NIL=
201009020915 METAR LMML 020915Z 16013KT 140V200 9999 FEW030 BKN250 28/19
                        Q1016 NOSIG=
201009020900 METAR LMML NIL=
201009020845 METAR LMML 020845Z 16013KT 120V190 9999 FEW030 SCT250 27/18
                        Q1016 NOSIG=
201009020830 METAR LMML NIL=
201009020815 METAR LMML 020815Z 16013KT 120V190 9999 SCT030 SCT250 27/19
                        Q1016 NOSIG=
201009020800 METAR LMML NIL=
201009020745 METAR LMML 020745Z 16012KT 130V190 9999 SCT028 27/19 Q1016
                        NOSIG=
201009020730 METAR LMML NIL=
201009020715 METAR LMML 020715Z 15010KT 110V200 9999 SCT030 27/18 Q1016
                        NOSIG=
201009020700 METAR LMML NIL=
201009020645 METAR LMML 020645Z 15011KT 120V180 9999 FEW030 26/18 Q1015
                        NOSIG=
201009020630 METAR LMML NIL=
201009020615 METAR LMML 020615Z 16010KT 130V190 9999 FEW029 26/18 Q1015
                        NOSIG=
201009020600 METAR LMML NIL=
201009020545 METAR LMML 020545Z 16007KT 130V190 9999 FEW029 SCT120 25/18
                        Q1015 NOSIG=
201009020530 METAR LMML NIL=
201009020515 METAR LMML 020515Z 15007KT 110V180 9999 FEW029 SCT070 25/18
                        Q1015 NOSIG=
201009020500 METAR LMML NIL=
201009020445 METAR LMML 020445Z 15007KT 9999 FEW028 24/18 Q1015 NOSIG=
201009020430 METAR LMML NIL=
201009020415 METAR LMML 020415Z 15008KT 120V190 9999 FEW027 24/18 Q1015
                        NOSIG=
201009020400 METAR LMML NIL=
201009020345 METAR LMML 020345Z 15007KT 120V180 9999 FEW028 24/18 Q1014
                        NOSIG=
201009020330 METAR LMML NIL=
201009020315 METAR LMML 020315Z 16008KT 120V190 9999 FEW027 24/18 Q1014
                        NOSIG=
201009020300 METAR LMML NIL=
201009020245 METAR LMML 020245Z 15008KT 120V190 9999 FEW027 24/18 Q1014
                        NOSIG=
201009020230 METAR LMML NIL=
201009020215 METAR LMML 020215Z 14008KT 110V170 9999 FEW027 24/18 Q1014
                        NOSIG=
201009020200 METAR LMML NIL=
201009020145 METAR LMML 020145Z 16008KT 130V190 9999 FEW028 24/18 Q1015
                        NOSIG=
201009020130 METAR LMML NIL=
201009020115 METAR LMML 020115Z 16008KT 9999 FEW028 24/18 Q1015 NOSIG=
201009020100 METAR LMML NIL=
201009020045 METAR LMML 020045Z 16008KT 120V180 CAVOK 24/18 Q1015 NOSIG=
201009020030 METAR LMML NIL=
201009020015 METAR LMML 020015Z 16007KT CAVOK 24/18 Q1015 NOSIG=
201009020000 METAR LMML NIL=
201009012345 METAR LMML 012345Z 15007KT 120V180 CAVOK 24/17 Q1015 NOSIG=
201009012330 METAR LMML NIL=
201009012315 METAR LMML 012315Z 15007KT 120V180 CAVOK 24/17 Q1015 NOSIG=
201009012300 METAR LMML NIL=
201009012245 METAR LMML 012245Z 15007KT 120V190 CAVOK 24/16 Q1016 NOSIG=
201009012230 METAR LMML NIL=
201009012215 METAR LMML 012215Z 15008KT 120V180 CAVOK 24/17 Q1016 NOSIG=
201009012200 METAR LMML NIL=
201009012145 METAR LMML 012145Z 15008KT CAVOK 24/16 Q1016 NOSIG=
201009012130 METAR LMML NIL=
201009012115 METAR LMML 012115Z 14009KT 110V170 CAVOK 24/16 Q1016 NOSIG=
201009012100 METAR LMML NIL=
201009012045 METAR LMML 012045Z 14008KT CAVOK 24/16 Q1016 NOSIG=
201009012030 METAR LMML NIL=
201009012015 METAR LMML 012015Z 14008KT 110V170 CAVOK 24/16 Q1016 NOSIG=
201009012000 METAR LMML NIL=
201009011945 METAR LMML 011945Z 14008KT CAVOK 24/16 Q1016 NOSIG=
201009011930 METAR LMML NIL=
201009011915 METAR LMML 011915Z 14007KT CAVOK 24/15 Q1016 NOSIG=
201009011900 METAR LMML NIL=
201009011845 METAR LMML 011845Z 14008KT CAVOK 24/16 Q1015 NOSIG=
201009011830 METAR LMML NIL=
201009011815 METAR LMML 011815Z 14009KT CAVOK 24/15 Q1015 NOSIG=
201009011745 METAR LMML 011745Z 14009KT CAVOK 24/16 Q1015 NOSIG=
201009011730 METAR LMML NIL=
201009011715 METAR LMML 011715Z 14010KT 110V180 CAVOK 25/16 Q1014 NOSIG=
201009011700 METAR LMML NIL=
201009011645 METAR LMML 011645Z 14010KT 110V170 9999 FEW035 25/16 Q1014
                        NOSIG=
201009011630 METAR LMML NIL=
201009011615 METAR LMML 011615Z 15010KT 120V190 9999 FEW035 25/16 Q1014
                        NOSIG=
201009011600 METAR LMML NIL=
201009011545 METAR LMML 011545Z 14010KT 100V180 9999 FEW037 26/16 Q1014
                        NOSIG=
201009011530 METAR LMML NIL=
201009011515 METAR LMML 011515Z 15009KT 120V190 9999 FEW037 26/16 Q1014
                        NOSIG=
201009011500 METAR LMML NIL=
201009011445 METAR LMML 011445Z 13011KT 100V170 9999 FEW038 27/16 Q1014
                        NOSIG=
201009011430 METAR LMML NIL=
201009011415 METAR LMML 011415Z 15011KT 110V180 9999 FEW034 27/16 Q1014
                        NOSIG=
201009011400 METAR LMML NIL=
201009011345 METAR LMML 011345Z 12012KT 080V150 9999 SCT037 27/17 Q1014
                        NOSIG=
201009011330 METAR LMML NIL=
201009011315 METAR LMML 011315Z 12011KT 090V160 9999 FEW035 27/16 Q1014
                        NOSIG=
201009011245 METAR LMML 011245Z 12013KT 080V160 9999 FEW035 27/17 Q1014
                        NOSIG=
201009011230 METAR LMML NIL=
201009011215 METAR LMML 011215Z 12012KT 080V160 9999 SCT039 27/16 Q1014
                        NOSIG=
201009011200 METAR LMML NIL=
201009011145 METAR LMML 011145Z 11013KT 060V150 9999 SCT038 27/16 Q1014
                        NOSIG=
201009011130 METAR LMML NIL=
201009011115 METAR LMML 011115Z 10013KT 060V130 9999 SCT037 27/16 Q1014
                        NOSIG=
201009011100 METAR LMML NIL=
201009011045 METAR LMML 011045Z 11013KT 070V140 9999 SCT036 27/17 Q1014
                        NOSIG=
201009011030 METAR LMML NIL=
201009011015 METAR LMML 011015Z 09009KT 030V140 9999 SCT044 27/15 Q1014
                        NOSIG=
201009011000 METAR LMML NIL=
201009010945 METAR LMML 010945Z 09010KT 050V140 9999 SCT041 28/15 Q1014
                        NOSIG=
201009010930 METAR LMML NIL=
201009010915 METAR LMML 010915Z 09010KT 070V140 9999 SCT035 26/16 Q1014
                        NOSIG=
201009010900 METAR LMML NIL=
201009010845 METAR LMML 010845Z 09009KT 060V150 9999 SCT035 26/16 Q1014
                        NOSIG=
201009010830 METAR LMML NIL=
201009010815 METAR LMML 010815Z 10008KT 040V140 9999 SCT035 27/16 Q1014
                        NOSIG=
201009010745 METAR LMML 010745Z 08008KT 330V130 9999 FEW030 27/15 Q1014
                        NOSIG=
201009010730 METAR LMML NIL=
201009010715 METAR LMML 010715Z 08008KT 030V120 9999 FEW030 26/15 Q1013
                        NOSIG=
201009010700 METAR LMML NIL=
201009010645 METAR LMML 010645Z 07007KT 030V110 9999 FEW030 26/16 Q1013
                        NOSIG=
201009010630 METAR LMML NIL=
201009010615 METAR LMML 010615Z 05006KT 010V080 9999 FEW030 25/16 Q1013
                        NOSIG=
201009010600 METAR LMML NIL=
201009010545 METAR LMML 010545Z VRB03KT 9999 FEW042 22/17 Q1013 NOSIG=
201009010530 METAR LMML NIL=
201009010515 METAR LMML 010515Z VRB02KT 9999 FEW038 22/17 Q1013 NOSIG=
201009010500 METAR LMML NIL=
201009010445 METAR LMML 010445Z VRB03KT 9999 FEW024 22/17 Q1012 NOSIG=
201009010415 METAR LMML 010415Z 35005KT 9999 FEW024 22/17 Q1012 NOSIG=
201009010400 METAR LMML NIL=
201009010345 METAR LMML 010345Z 35004KT 320V020 9999 FEW028 22/17 Q1012
                        NOSIG=
201009010330 METAR LMML NIL=
201009010315 METAR LMML 010315Z 34007KT 9999 FEW026 23/17 Q1012 NOSIG=
201009010300 METAR LMML NIL=
201009010245 METAR LMML 010245Z 33005KT 9999 SCT025 23/17 Q1012 NOSIG=
201009010215 METAR LMML 010215Z 34007KT 310V010 9999 FEW024 23/17 Q1012
                        NOSIG=
201009010200 METAR LMML NIL=
201009010145 METAR LMML 010145Z 35007KT 9999 FEW028 23/17 Q1011 NOSIG=
201009010130 METAR LMML NIL=
201009010115 METAR LMML 010115Z 35008KT 9999 FEW028 23/16 Q1011 NOSIG=
201009010100 METAR LMML NIL=
201009010045 METAR LMML 010045Z 34007KT 9999 FEW030 23/16 Q1011 NOSIG=
201009010030 METAR LMML NIL=
201009010015 METAR LMML 010015Z 34008KT 9999 FEW028 23/15 Q1011 NOSIG=
201009010000 METAR LMML NIL=

###################################
#  short TAF from LMML
###################################
201010012300 TAF LMML 012300Z 0200/0209 30005KT 9999 FEW020
                      TEMPO 0200/0209 CAVOK=
201010012000 TAF LMML 012000Z 0121/0206 29005KT 9999 FEW020=
201010011700 TAF LMML 011700Z 0118/0203 30006KT 9999 FEW020 SCT140=
201010011400 TAF LMML 011400Z 0115/0124 30010KT 9999 SCT030=
201010011100 TAF LMML 011100Z 0112/0121 29010KT 9999 SCT030=
201010010800 TAF LMML 010800Z 0109/0118 30010KT 9999 SCT025=
201010010500 TAF LMML 010500Z 0106/0115 30010KT 9999 FEW028=
201010010200 TAF LMML 010200Z 0103/0112 30010KT 9999 SCT030=
201009302300 TAF LMML 302300Z 0100/0109 30008KT 9999 FEW030=
201009302000 TAF LMML 302000Z 3021/0106 30008KT 9999 FEW030=
201009301700 TAF LMML 301700Z 3018/0103 30005KT 9999 FEW020=
201009301400 TAF LMML 301400Z 3015/3024 33006KT 9999 SCT025=
201009301100 COR LMML 301100Z 3012/3021 33010KT 9999 SCT025=
201009300800 TAF LMML 300800Z 3009/3018 33010KT 9999 SCT030=
201009300500 TAF LMML 300500Z 3006/3015 33007KT 9999 SCT020
                      PROB30 TEMPO 3006/3008 BKN015=
201009300200 TAF LMML 300200Z 3003/3012 33007KT 9999 SCT020
                      PROB30 TEMPO 3003/3012 8000 SHRA BKN015=
201009292300 TAF LMML 292300Z 3000/3009 31010KT 9999 FEW020
                      PROB30 TEMPO 3000/3009 8000 SHRA BKN015
                      BECMG 3001/3004 03007KT=
201009292000 TAF LMML 292000Z 2921/3006 31010KT CAVOK
                      BECMG 2921/2924 9999 SCT015
                      PROB30 TEMPO 3000/3006 8000 SHRA BKN013
                      BECMG 3003/3006 01005KT=
201009291700 TAF LMML 291700Z 2918/3003 32012KT 9999 FEW015
                      PROB40 TEMPO 2920/3003 BKN010=
201009291400 TAF LMML 291400Z 2915/2924 30013KT 9999 FEW020
                      PROB30 TEMPO 2921/2924 BKN015=
201009291100 TAF LMML 291100Z 2912/2921 32013KT 9999 FEW020
                      PROB30 TEMPO 2912/2918 CAVOK=
201009290800 TAF LMML 290800Z 2909/2918 34015KT 9999 SCT015
                      PROB30 TEMPO 2909/2914 8000 TSRA BKN015 BKN060CB=
201009290500 TAF LMML 290500Z 2906/2915 32008KT 9999 SCT015 SCT070=
201009290200 TAF LMML 290200Z 2903/2912 32008KT 9999 SCT015 BKN120
                      TEMPO 2903/2909 8000 RA BKN015
                      PROB30 TEMPO 2903/2909 5000 TSRA BKN007 BKN015CB=
201009282300 TAF LMML 282300Z 2900/2909 33005KT 9999 FEW015 BKN120
                      PROB30 TEMPO 2900/2909 5000 TSRA BKN007 BKN013CB=
201009282000 TAF LMML 282000Z 2821/2906 35005KT 9999 SCT012 BKN100
                      TEMPO 2821/2906 8000 RA BKN008 OVC100
                      PROB30 TEMPO 2900/2906 5000 TSRA BKN012CB=
201009281700 TAF LMML 281700Z 2818/2903 35010KT 9999 SCT015 SCT120
                      TEMPO 2818/2903 BKN010 BKN100
                      PROB40 TEMPO 2821/2903 8000 RA BKN008 BKN080
                       PROB30
                      TEMPO 2823/2903 5000 TSRA BKN005 BKN060CB=
201009281540 LMML 281540Z 2815/2824 01010KT 9999 SCT015
                      TEMPO 2815/2824 BKN012
                      PROB30 TEMPO 2815/2824 9000 BKN008=
201009281400 TAF LMML 281400Z 2815/2824 01010KT 9999 SCT020
                      PROB30 TEMPO 2818/2824 BKN015=
201009281100 TAF LMML 281100Z 2812/2821 04012KT 9999 SCT008 SCT015 BKN130
                      PROB30 TEMPO 2812/2818 9000 BKN005 BKN012
                       BKN100
                      BECMG 2818/2821 34010KT=
201009280800 TAF LMML 280800Z 2809/2818 04012KT 9999 SCT008 SCT015 BKN120
                      TEMPO 2809/2812 8000 RA BKN005 BKN013 BKN100
                       BECMG 2815/2818 34008KT=
201009280500 TAF LMML 280500Z 2806/2815 04012KT 9999 SCT008 BKN018
                      PROB30 TEMPO 2806/2809 8000 RA BKN008 BKN015
                       BKN025=
201009280200 TAF LMML 280200Z 2803/2812 03008KT 9999 SCT008 BKN018
                      PROB40 TEMPO 2803/2809 8000 RA BKN008 BKN018
                       PROB30
                      TEMPO 2803/2806 5000 TSRA BKN008 BKN015CB=
201009272300 TAF LMML 272300Z 2800/2809 06010KT 9999 FEW008 SCT012 BKN100
                      PROB40 TEMPO 2800/2809 8000 RA SCT008 BKN012
                       PROB30
                      TEMPO 2800/2809 5000 TSRA BKN008 BKN012CB=
201009272000 TAF LMML 272000Z 2721/2806 06010KT 9999 SCT005 SCT012 BKN100
                      TEMPO 2721/2806 6000 RA BKN005 BKN012
                      PROB30 TEMPO 2718/2806 5000 TSRA BKN005 BKN012CB=
201009271700 TAF LMML 271700Z 2718/2803 05010KT 9999 SCT005 SCT012 BKN080
                      TEMPO 2718/2803 6000 RA BKN005 BKN012
                      PROB30 TEMPO 2718/2721 4000 TSSRA BKN012CB=
201009271400 TAF LMML 271400Z 2715/2724 09010KT 9999 SCT011 BKN120
                      PROB30 TEMPO 2715/2724 5000 TSRA BKN005 BKN015CB=
201009271100 TAF LMML 271100Z 2715/2721 13010KT 9999 SCT012 SCT040
                      PROB30 TEMPO 2715/2721 8000 RA BKN015 BKN040=
201009270845 TAF COR LMML 270845Z 2709/2718 14008KT 8000 RA SCT012 BKN100
                      TEMPO 2709/2712 4000 TSRA BKN005 BKN020CB=
201009270800 TAF LMML 270800Z 2709/2718 14008KT 8000 RA SCT012 BKN010
                      TEMPO 2709/2712 4000 TSRA BKN005 BKN020CB=
201009270500 TAF LMML 270500Z 2706/2715 16005KT 9999 SCT019
                      TEMPO 2706/2715 8000 RA BKN015
                      PROB30 TEMPO 5000 TSRA BKN015 BKN080CB
                      BECMG 2712/2715 09012KT=
201009270200 TAF LMML 270200Z 2703/2712 15008KT 9999 SCT018
                      TEMPO 2706/2712 8000 SHRA BKN015
                      PROB30 TEMPO 2706/2709 5000 TSRA BKN015CB=
201009262300 TAF LMML 262300Z 2700/2709 16005KT 9999 FEW020
                      PROB40 TEMPO 2706/2709 9000 SHRA BKN015
                      PROB30 TEMPO 2706/2709 5000 TSRA BKN015CB=
201009262000 TAF LMML 262000Z 2621/2706 VRB05KT 9999 FEW020=
201009261700 TAF LMML 261700Z 2618/2703 30005KT 9999 FEW025 SCT080=
201009261400 TAF LMML 261400Z 2615/2624 30008KT 9999 FEW030 SCT100=
201009261100 TAF LMML 261100Z 2612/2621 30010KT 9999 SCT030=
201009260800 TAF LMML 260800Z 2609/2618 29012KT 9999 FEW025 SCT100=
201009260500 TAF LMML 260500Z 2606/2615 28010KT 9999 SCT025=
201009260200 TAF LMML 260200Z 2603/2612 28006KT 9999 FEW025 SCT120=
201009252300 TAF LMML 252300Z 2600/2609 28008KT 9999 SCT020 SCT100
                      TEMPO 2600/2606 8000 SHRA BKN015 BKN080
                      PROB30 TEMPO 2600/2603 3000 TSRA BKN015CB
                       BKN060=
201009252000 TAF LMML 252000Z 2521/2606 28010KT 9999 SCT020 SCT100
                      TEMPO 2521/2606 8000 SHRA BKN015 BKN080
                      PROB30 TEMPO 2521/2603 3000 TSRA BKN015CB
                       BKN060=
201009251700 TAF LMML 251700Z 2518/2603 29015KT 9999 FEW020
                      TEMPO 2520/2603 8000 SHRA BKN015TCU=
201009251400 TAF LMML 251400Z 2515/2524 29018KT 9999 FEW025=
201009251100 TAF LMML 251100Z 2512/2521 29018G28KT 9999 FEW028
                      BECMG 2517/2520 29015KT=
201009250800 TAF LMML 250800Z 2509/2518 29018G28KT 9999 SCT030=
201009250500 TAF LMML 250500Z 2506/2515 28016KT 9999 SCT015
                      TEMPO 2506/2512 7000 SHRA BKN013
                      TEMPO 2506/2515 28018G28KT=
201009250200 TAF LMML 250200Z 2503/2512 27015G25KT 9999 SCT018
                      TEMPO 2503/2512 6000 SHRA BKN015
                      PROB30 TEMPO 2503/2512 4000 TSRA BKN015CB=
201009242300 TAF LMML 242300Z 2500/2509 24015G25KT 9999 SCT017 SCT080
                      TEMPO 2500/2509 7000 SHRA BKN015
                      PROB30 TEMPO 2500/2504 5000 TSRA BKN015CB
                       BECMG 2503/2506 28015KT=
201009242000 TAF LMML 242000Z 2421/2506 19017G27KT 9999 SCT015 BKN070 OVC200
                       TEMPO 2421/2505 5000 TSRA BKN015CB
                      BECMG 2500/2503 27017G27KT
                      BECMG 2503/2506 28016KT=
201009241700 TAF LMML 241700Z 2418/2503 17017KT 9999 SCT025 BKN080
                      TEMPO 2418/2503 8000 SHRA BKN015 BKN070
                      PROB30 TEMPO 2418/2421 5000 TSRA BKN015 BKN060CB
                       PROB40
                      TEMPO 2421/2503 3000 TSRA BKN015CB BKN070
                       BECMG 2421/2424 23018KT
                      BECMG 2500/2503 29020KT
                      TEMPO 2500/2503 28020G30KT=
201009241400 TAF LMML 241400Z 2415/2424 18008KT 9999 SCT025 BKN120
                      TEMPO 2415/2424 8000 RA BKN015 BKN100
                      PROB30 TEMPO 2415/2418 5000 TSRA BKN015 BKN060CB
                       BECMG 2415/2418 16018KT
                      PROB40 TEMPO 2418/2424 3000 TSRA BKN015CB
                       BKN080
                      BECMG 2421/2424 25018KT=
201009241100 TAF LMML 241100Z 2412/2421 19007KT 9999 SCT025 BKN120
                      TEMPO 2412/2421 8000 RA BKN015 BKN010
                      PROB30 TEMPO 2412/2421 5000 TSRA BKN015 BKN060CB
                       BECMG 2413/2416 17017KT=
201009240800 TAF LMML 240800Z 2409/2418 19007KT 9999 SCT025 SCT120
                      TEMPO 2409/2418 9000 RA BKN015 BKN100
                      PROB30 TEMPO 2412/2418 5000 TSRA BKN015 BKN060CB
                       BECMG 2413/2416 17017KT=
201009240500 TAF LMML 240500Z 2406/2415 VRB05KT 9999 SCT020 BKN120
                      PROB30 TEMPO 2406/2415 8000 RA SCT100
                      BECMG 2412/2415 18015KT=
201009240200 TAF LMML 240200Z 2403/2412 VRB03KT 9999 FEW018=
201009232300 TAF LMML 232300Z 2400/2409 05005KT 9999 FEW018=
201009232000 TAF LMML 232000Z 2321/2406 05005KT 9999 SCT018
                      PROB30 TEMPO 2321/2324 5000 TSRA BKN015=
201009231700 TAF LMML 231700Z 2318/2403 03008KT 9999 SCT015 BKN250=
201009231400 TAF LMML 231400Z 2315/2324 02008KT 9999 SCT015=
201009231100 TAF LMML 231100Z 2312/2321 03008KT 9999 SCT015=
201009230800 TAF LMML 230800Z 2309/2318 04008KT 9999 SCT015
                      PROB30 TEMPO 2309/2315 8000 SHRA BKN015TCU=
201009230500 TAF LMML 230500Z 2306/2315 35008KT 9999 SCT015
                      TEMPO 2306/2315 8000 SHRA BKN013TCU=
201009230200 TAF LMML 230200Z 2303/2312 33007KT 9999 SCT016
                      TEMPO 2303/2312 7000 SHRA BKN015TCU
                      PROB30 TEMPO 2303/2310 5000 TSRA BKN012CB=
201009222300 TAF LMML 222300Z 2300/2309 31007KT 9999 SCT020
                      TEMPO 2300/2309 7000 SHRA BKN015TCU
                      PROB30 TEMPO 2300/2309 5000 TSRA BKN012CB=
201009222000 TAF LMML 222000Z 2221/2306 27007KT 9999 FEW012 SCT020
                      TEMPO 2221/2306 8000 SHRA BKN012TCU
                      PROB30 TEMPO 2300/2306 5000 TSRA BKN008 BKN012CB=
201009221700 TAF LMML 221700Z 2218/2303 23005KT 9999 FEW015 SCT040
                      TEMPO 2218/2303 5000 SHRA SCT008 BKN015
                      PROB30 TEMPO 2218/2303 5000 TSRA SCT008 BKN015CB=
201009221400 TAF LMML 221400Z 2215/2224 23006KT 9999 FEW018 SCT045 BKN200
                      PROB30 TEMPO 2215/2224 5000 TSRA BKN015CB=
201009221100 TAF LMML 221100Z 2212/2221 21006KT 9999 FEW025 SCT045
                      PROB30 TEMPO 2212/2221 5000 TSRA SCT018CB=
201009220800 TAF LMML 220800Z 2209/2218 21006KT 9999 FEW020 BKN120
                      PROB30 TEMPO 2209/2218 5000 TSRA SCT018CB=
201009220500 TAF LMML 220500Z 2206/2215 19006KT 9999 SCT015
                      TEMPO 2206/2215 8000 SHRA BKN015
                      PROB30 TEMPO 2206/2215 3000 TSRA BKN015CB=
201009220200 TAF LMML 220200Z 2203/2212 16005KT 9999 SCT015
                      TEMPO 2203/2212 8000 SHRA BKN015
                      PROB30 TEMPO 2206/2212 3000 TSRA BKN015CB
                       BECMG 2209/2212 22010KT=
201009212300 TAF LMML 212300Z 2200/2209 16005KT 9999 SCT015 BKN120
                      TEMPO 2200/2209 9000 RA BKN015 BKN100
                      PROB30 TEMPO 2200/2209 5000 TSRA BKN010 BKN060CB=
201009212000 TAF LMML 212000Z 2121/2206 15005KT 9999 SCT015 BKN120
                      TEMPO 2121/2206 9000 BKN015 BKN100
                      PROB30 TEMPO 2123/2206 5000 TSRA BKN010 BKN060CB=
201009211700 TAF LMML 211700Z 2118/2203 23005KT 9999 FEW020=
201009211400 TAF LMML 211400Z 2115/2124 20005KT 9999 FEW030=
201009211100 TAF LMML 211100Z 2112/2121 VRB05KT 9999 FEW030=
201009210800 TAF LMML 210800Z 2109/2118 VRB05KT 9999 FEW020=
201009210500 TAF LMML 210500Z 2106/2115 VRB05KT 9999 FEW015 SCT100 BKN200=
201009210200 TAF LMML 210200Z 2103/2112 VRB03KT 9999 FEW015
                      TEMPO 2103/2106 6000=
201009202300 TAF LMML 202300Z 2100/2109 VRB03KT 9999 FEW015
                      TEMPO 2102/2106 6000=
201009202000 TAF LMML 202000Z 2021/2106 VRB03KT 9999 FEW017=
201009201700 TAF LMML 201700Z 2018/2103 34007KT 9999 FEW025=
201009201400 TAF LMML 201400Z 2015/2024 01007KT 9999 FEW030=
201009201100 TAF LMML 201100Z 2012/2021 01009KT 9999 FEW030=
201009200800 TAF LMML 200800Z 2009/2018 33013KT 9999 FEW020=
201009200500 TAF LMML 200500Z 2006/2015 33010KT CAVOK
                      PROB30 TEMPO 2006/2015 9999 FEW020=
201009200200 TAF LMML 200200Z 2003/2012 33010KT CAVOK
                      PROB30 TEMPO 2003/2012 9999 FEW020=
201009192300 TAF LMML 192300Z 2000/2009 33010KT CAVOK
                      PROB30 TEMPO 2000/2009 9999 FEW020=
201009192000 TAF LMML 192000Z 1921/2006 32010KT 9999 FEW015
                      TEMPO 1921/2006 CAVOK=
201009191700 TAF LMML 191700Z 1918/2003 31012KT 9999 FEW015
                      TEMPO 1918/2003 CAVOK=
201009191400 TAF LMML 191400Z 1915/1924 30012KT CAVOK
                      TEMPO 1915/1924 9999 FEW015=
201009191100 TAF LMML 191100Z 1912/1921 29012KT 9999 FEW015
                      PROB30 TEMPO 1912/1915 BKN010
                      TEMPO 1914/1921 CAVOK=
201009190800 TAF LMML 190800Z 1909/1918 25008KT CAVOK
                      TEMPO 1911/1918 9999 FEW015
                      BECMG 1915/1918 31012KT=
201009190500 TAF LMML 190500Z 1906/1915 21005KT CAVOK
                      TEMPO 1906/1915 FEW020
                      BECMG 1911/1914 30012KT=
201009190200 TAF LMML 190200Z 1903/1912 21005KT CAVOK
                      TEMPO 1903/1912 9999 FEW020=
201009182300 TAF LMML 182300Z 1900/1909 21004KT CAVOK
                      TEMPO 1900/1909 9999 FEW020=
201009182000 TAF LMML 182000Z 1821/1906 21004KT 9999 FEW018=
201009181700 TAF LMML 181700Z 1818/1903 VRB03KT 9999 FEW018=
201009181400 TAF LMML 181400Z 1815/1824 VRB03KT 9999 FEW022=
201009181100 TAF LMML 181100Z 1812/1821 17006KT 9999 FEW022=
201009180800 TAF LMML 180800Z 1809/1818 19008KT 9999 FEW025=
201009180500 TAF LMML 180500Z 1806/1815 21007KT 9999 SCT020=
201009180200 TAF LMML 180200Z 1803/1812 20006KT 9999 SCT020=
201009172300 TAF LMML 172300Z 1800/1809 20005KT 9999 FEW020=
201009172000 TAF LMML 172000Z 1721/1806 19005KT 9999 FEW020=
201009171700 TAF LMML 171700Z 1718/1803 19005KT 9999 FEW018
                      PROB30 TEMPO 1718/1803 CAVOK=
201009171400 TAF LMML 171400Z 1715/1724 19007KT 9999 FEW016=
201009171100 TAF LMML 171100Z 1712/1721 19007KT 9999 SCT015=
201009170800 TAF LMML 170800Z 1709/1718 24007KT 9999 FEW020=
201009170500 TAF LMML 170500Z 1706/1715 20005KT 9999 FEW015=
201009170200 TAF LMML 170200Z 1703/1712 24004KT 9999 FEW015=
201009162300 TAF LMML 162300Z 1700/1709 26004KT 9999 FEW015=
201009162000 TAF LMML 162000Z 1621/1706 VRB03KT 9999 FEW015=
201009161700 TAF LMML 161700Z 1618/1703 28004KT 9999 FEW020=
201009161400 TAF LMML 161400Z 1615/1624 VRB07KT 9999 SCT020=
201009161100 TAF LMML 161100Z 1612/1621 04008KT 9999 SCT020=
201009160800 TAF LMML 160800Z 1609/1618 04007KT 9999 SCT020=
201009160500 TAF LMML 160500Z 1606/1615 VRB06KT 9999 FEW025=
201009160200 TAF LMML 160200Z 1603/1612 VRB05KT 9999 FEW020
                      PROB30 TEMPO 1603/1606 5000 SHRA BKN015=
201009152300 TAF LMML 152300Z 1600/1609 VRB03KT 9999 FEW020=
201009152000 TAF LMML 152000Z 1521/1606 VRB03KT 9999 FEW020=
201009151700 TAF LMML 151700Z 1518/1603 08004KT 9999 FEW020
                      PROB30 TEMPO 1518/1524 8000 SHRA BKN015=
201009151400 TAF LMML 151400Z 1515/1524 13005KT 9999 SCT025
                      TEMPO 1515/1524 8000 SHRA BKN015
                      PROB30 TEMPO 1515/1518 5000 TSRA BKN015CB=
201009151100 TAF LMML 151100Z 1512/1521 20008KT 9999 SCT025
                      TEMPO 1512/1521 8000 SHRA BKN015
                      PROB30 TEMPO 1512/1517 5000 TSRA BKN015CB=
201009150800 TAF LMML 150800Z 1509/1518 15007KT 9999 SCT025
                      TEMPO 1509/1518 8000 SHRA BKN015
                      PROB30 TEMPO 1509/1515 5000 TSRA BKN015CB=
201009150500 TAF LMML 150500Z 1506/1515 VRB05KT 9999 SCT020
                      TEMPO 1506/1515 8000 SHRA BKN015TCU
                      PROB40 TEMPO 1506/1515 5000 TSRA BKN009 BKN015CB=
201009150200 TAF LMML 150200Z 1503/1512 VRB05KT 9999 SCT020
                      TEMPO 1503/1512 8000 SHRA BKN015TCU
                      PROB30 TEMPO 1503/1512 5000 TSRA BKN008 BKN015CB=
201009142300 TAF LMML 142300Z 1500/1509 VRB05KT 9999 SCT020
                      TEMPO 1500/1509 8000 SHRA BKN015
                      PROB30 TEMPO 1500/1509 5000 TSRA BKN008 BKN015CB=
201009142000 TAF LMML 142000Z 1421/1506 VRB05KT 9999 SCT020
                      TEMPO 1421/1506 9000 SHRA BKN015
                      PROB40 TEMPO 1421/1506 5000 TSRA BKN008 BKN015CB=
201009141700 TAF LMML 141700Z 1418/1503 29013KT 9999 FEW030
                      PROB40 TEMPO 1418/1503 SHRA BKN020
                      PROB30 TEMPO 1422/1503 5000 TSRA FEW008 BKN015CB
                       BECMG 1418/1421 28003KT=
201009141400 TAF LMML 141400Z 1415/1424 27015KT 9999 FEW030
                      TEMPO 1415/1424 SHRA BKN020
                      PROB30 TEMPO 1420/1424 5000 TSRA FEW008 BKN015CB
                       1418/1421 28003KT=
201009141100 TAF LMML 141100Z 1412/1421 29015KT 9999 FEW030
                      PROB30 TEMPO 1412/1421 SHRA BKN018
                      BECMG 1418/1421 29003KT=
201009140800 TAF LMML 140800Z 1409/1418 29015KT 9999 SCT030
                      PROB30 TEMPO 1412/1418 SHRA BKN020=
201009140500 TAF LMML 140500Z 1406/1415 30012KT 9999 SCT025=
201009140200 TAF LMML 140200Z 1403/1412 30010KT 9999 FEW015
                      PROB30 TEMPO 1403/1406 BKN010=
201009132300 TAF LMML 132300Z 1400/1409 29010KT 9999 FEW015
                      PROB30 TEMPO 1400/1406 BKN012=
201009132000 TAF LMML 132000Z 1321/1406 30010KT 9999 FEW020
                      PROB30 TEMPO 1321/1406 BKN015=
201009131700 TAF LMML 131700Z 1318/1403 31011KT 9999 FEW012
                      PROB40 TEMPO 1320/1403 BKN010=
201009131400 TAF LMML 131400Z 1315/1324 31011KT 9999 SCT015
                      PROB40 TEMPO 1318/1324 BKN010=
201009131100 TAF LMML 131100Z 1312/1321 31011KT 9999 SCT018=
201009130800 TAF LMML 130800Z 1309/1318 31013KT 9999 FEW020=
201009130500 TAF LMML 130500Z 1306/1315 30011KT 9999 SCT018=
201009130200 TAF LMML 130200Z 1303/1312 29010KT 9999 FEW015=
201009122300 TAF LMML 122300Z 1300/1309 28008KT 9999 FEW015=
201009122000 TAF LMML 122000Z 1221/1306 32008KT 9999 FEW020=
201009121700 TAF LMML 121700Z 1218/1303 29010KT 9999 FEW025=
201009121400 TAF LMML 121400Z 1215/1224 28008KT 9999 FEW035
                      TEMPO 1218/1224 CAVOK=
201009121100 TAF LMML 121100Z 1212/1221 31010KT 9999 FEW030=
201009120800 TAF LMML 120800Z 1209/1218 32010KT 9999 FEW030=
201009120500 TAF LMML 120500Z 1206/1215 30010KT 9999 FEW030=
201009120200 TAF LMML 120200Z 1203/1212 30006KT 9999 FEW025=
201009112300 TAF LMML 112300Z 1200/1209 30008KT 9999 FEW020=
201009112000 TAF LMML 112000Z 1121/1206 30013KT 9999 FEW025=
201009111700 TAF LMML 111700Z 1118/1203 30018G28KT 9999 SCT025
                      BECMG 1118/1121 28015KT=
201009111400 TAF LMML 111400Z 1115/1124 30020G30KT 9999 SCT025
                      BECMG 1118/1121 29016KT=
201009111100 TAF LMML 111100Z 1112/1121 31017KT 9999 SCT025
                      TEMPO 1112/1118 32020G30=
201009110800 TAF LMML 110800Z 1109/1118 31010KT 9999 SCT025
                      TEMPO 1113/1118 31020KT
                      PROB30 TEMPO 1109/1115 8000 SHRA BKN020=
201009110500 TAF LMML 110500Z 1106/1115 30017KT 9999 SCT025
                      PROB30 TEMPO 1106/1112 8000 SHRA
                      TEMPO 1106/1115 30017G27KT=
201009110200 TAF LMML 110200Z 1103/1112 31017KT 9999 SCT020
                      PROB40 TEMPO 1103/1112 9000 SHRA BKN015TCU=
201009102300 TAF LMML 102300Z 1100/1109 30016KT 9999 FEW025
                      PROB40 TEMPO 1100/1109 9000 SHRA BKN015TCU=
201009102000 TAF LMML 102000Z 1021/1106 30015KT 9999 FEW025
                      PROB30 TEMPO 1023/1106 SHRA BKN015TCU=
201009101700 TAF LMML 101700Z 1018/1103 30016KT 9999 FEW030
                      PROB30 TEMPO 1021/1103 SHRA BKN015TCU=
201009101400 TAF LMML 101400Z 1015/1024 30018KT 9999 FEW030
                      PROB30 TEMPO 1021/1024 SHRA BKN015=
201009101100 TAF LMML 101100Z 1012/1021 30018KT 9999 FEW030
                      PROB30 TEMPO 1018/1021 SHRA BKN015=
201009100800 TAF LMML 100800Z 1009/1018 30018KT 9999 FEW018 SCT100=
201009100500 TAF LMML 100500Z 1006/1015 30012KT 9999 SCT025
                      PROB30 TEMPO 1006/1010 8000 SHRA BKN015
                      BECMG 1009/1012 29018KT
                      TEMPO 1009/1015 29018G28KT=
201009100200 TAF LMML 100200Z 1003/1012 24005KT 9999 SCT025 SCT100
                      TEMPO 1003/1012 8000 SHRA BKN015 BKN080
                      PROB30 TEMPO 1003/1006 3000 TSRA BKN015CB
                       BKN080
                      BECMG 1003/1006 31012KT
                      TEMPO 1006/1012 30015G25KT=
201009092300 TAF LMML 092300Z 1000/1009 VRB05KT 9999 SCT012 SCT030
                      TEMPO 1000/1009 8000 SHRA BKN010 BKN025
                      PROB30 TEMPO 1000/1009 3000 TSRA BKN005 BKN015CB
                       BECMG 1000/1003 31012KT
                      TEMPO 1006/1009 31015G25KT=
201009092000 TAF LMML 092000Z 0921/1006 13006KT 9999 SCT012 SCT120
                      TEMPO 0921/1006 8000 SHRA BKN010 BKN100
                      PROB30 TEMPO 0921/1006 3000 TSRA BKN005 BKN015CB
                       BKN100
                      BECMG 0923/1002 32012KT=
201009091700 TAF LMML 091700Z 0918/1003 VRB05KT 9999 SCT017
                      PROB30 TEMPO 1000/1003 8000 SHRA=
201009091400 TAF LMML 091400Z 0915/0924 VRB05KT 9999 SCT017=
201009091100 TAF LMML 091100Z 0912/0921 16005KT 9999 SCT017=
201009090800 TAF LMML 090800Z 0909/0918 13006KT 9999 SCT015=
201009090500 TAF LMML 090500Z 0906/0915 11007KT 9999 SCT015 SCT120
                      PROB30 TEMPO 0906/0908 BKN012 BKN100=
201009090200 TAF LMML 090200Z 0903/0912 15008KT 9999 SCT012
                      TEMPO 0903/0906 BKN008
                      PROB30 TEMPO 0903/0906 8000 BKN005=
201009082300 TAF LMML 082300Z 0900/0909 14008KT CAVOK
                      TEMPO 0900/0909 9999 FEW012
                      PROB30 TEMPO 0900/0906 9000 BKN008=
201009082000 TAF LMML 082000Z 0821/0906 15008KT 9999 FEW015
                      PROB30 TEMPO 0821/0906 9000 BKN008=
201009081700 TAF LMML 081700Z 0818/0903 16006KT 9999 FEW015
                      PROB40 TEMPO 0821/0903 BKN008=
201009081400 TAF LMML 081400Z 0815/0824 17007KT 9999 FEW015
                      PROB30 TEMPO 0821/0824 BKN008=
201009081100 TAF LMML 081100Z 0812/0821 17010KT 9999 FEW015
                      TEMPO 0812/0821 CAVOK=
201009080800 TAF LMML 080800Z 0809/0818 18015KT CAVOK
                      PROB30 TEMPO 0809/0818 9999 FEW015=
201009080500 TAF LMML 080500Z 0806/0815 16015KT CAVOK
                      PROB30 TEMPO 0806/0815 9999 FEW025 SCT100=
201009080200 TAF LMML 080200Z 0803/0812 16015KT CAVOK
                      PROB30 TEMPO 0803/0812 9999 FEW020=
201009072300 TAF LMML 072300Z 0800/0809 16010KT CAVOK
                      PROB30 TEMPO 0803/0809 9999 FEW018=
201009072000 TAF LMML 072000Z 0721/0806 16007KT CAVOK
                      PROB30 TEMPO 0800/0806 9999 FEW015=
201009071700 TAF LMML 071700Z 0718/0803 17011KT CAVOK=
201009071400 TAF LMML 071400Z 0715/0724 17012KT 9999 FEW030
                      BECMG 0715/0718 CAVOK=
201009071100 TAF LMML 071100Z 0712/0721 17012KT 9999 FEW030=
201009070800 TAF LMML 070800Z 0709/0718 17013KT 9999 FEW025=
201009070500 TAF LMML 070500Z 0706/0715 17010KT CAVOK
                      TEMPO 0706/0715 9999 FEW020=
201009070200 TAF LMML 070200Z 0703/0712 18008KT CAVOK
                      TEMPO 0703/0712 9999 FEW020=
201009062300 TAF LMML 062300Z 0700/0709 18008KT CAVOK
                      PROB40 TEMPO 0700/0709 9999 FEW020=
201009062000 TAF LMML 062000Z 0621/0706 18008KT CAVOK
                      PROB40 TEMPO 0621/0706 9999 FEW020=
201009061700 TAF LMML 061700Z 0618/0703 18005KT 9999 FEW025
                      PROB30 TEMPO 0618/0703 CAVOK=
201009061400 TAF LMML 061400Z 0615/0624 19005KT 9999 FEW030
                      PROB30 TEMPO 0618/0624 CAVOK=
201009061100 TAF LMML 061100Z 0612/0621 20005KT 9999 FEW030
                      PROB30 TEMPO 0612/0621 CAVOK=
201009060800 TAF LMML 060800Z 0609/0618 20005KT 9999 FEW025
                      PROB30 TEMPO 0612/0618 CAVOK=
201009060500 TAF LMML 060500Z 0606/0615 27006KT CAVOK
                      TEMPO 0608/0615 9999 FEW030=
201009060200 TAF LMML 060200Z 0603/0612 21005KT 9999 FEW015
                      PROB30 TEMPO 0603/0606 5000 BR=
201009052300 TAF LMML 052300Z 0600/0609 VRB03KT CAVOK
                      PROB30 TEMPO 0602/0606 5000 BR=
201009052000 TAF LMML 052000Z 0521/0606 VRB03KT CAVOK
                      PROB30 TEMPO 0602/0606 5000 BR=
201009051700 TAF LMML 051700Z 0518/0603 VRB05KT 9999 FEW025=
201009051400 TAF LMML 051400Z 0515/0521 07006KT 9999 FEW025=
201009051100 TAF LMML 051100Z 0512/0521 09006KT 9999 FEW025=
201009050800 TAF LMML 050800Z 0509/0518 09006KT 9999 FEW025=
201009050500 TAF LMML 050500Z 0506/0515 09006KT 9999 FEW020
                      TEMPO 0506/0509 BKN015=
201009050200 TAF LMML 050200Z 0503/0512 09005KT 9999 FEW015
                      PROB40 TEMPO 0503/0509 BKN014=
201009042300 TAF LMML 042300Z 0500/0509 09006KT 9999 FEW020
                      TEMPO 0500/0506 CAVOK
                      PROB30 TEMPO 0500/0509 BKN015=
201009042000 TAF LMML 042000Z 0421/0506 08006KT 9999 FEW015
                      PROB40 TEMPO 0421/0506 BKN014=
201009041700 TAF LMML 041700Z 0418/0503 02007KT 9999 FEW020 SCT040=
201009041400 TAF LMML 041400Z 0415/0424 35010KT 9999 SCT020
                      BECMG 0420/0423 07008KT=
201009041100 TAF LMML 041100Z 0412/0421 35012KT 9999 FEW025
                      BECMG 0418/0421 05010KT=
201009040800 TAF LMML 040800Z 0409/0418 33011KT 9999 SCT020=
201009040500 TAF LMML 040500Z 0406/0415 31010KT 9999 FEW025=
201009040200 TAF LMML 040200Z 0403/0412 31010KT 9999 FEW020
                      PROB30 TEMPO 0403/0406 SHRA BKN015=
201009032300 TAF LMML 032300Z 0400/0409 30010KT 9999 SCT008 BKN120
                      PROB40 TEMPO 0400/0406 SHRA SCT008 BKN080
                       PROB30
                      TEMPO 0400/0406 5000 TSRA SCT005 BKN050CB=
201009032000 TAF LMML 032000Z 0321/0406 VRB05KT 9999 FEW008 SCT011 BKN100
                      PROB40 TEMPO 0321/0406 RA SCT008 BKN013 BKN080
                       PROB30
                      TEMPO 0321/0406 5000 TSRA SCT005 BKN050CB=
201009031701 TAF LMML 031701Z 0318/0403 16010KT 9999 SCT015
                      TEMPO 0318/0403 8000 RA BKN013
                      PROB40 TEMPO 0318/0403 5000 TSRA BKN080CB
                       BECMG 0323/0402 30007KT=
201009031700 TAF LMML 031700Z 0318/0403 16010KT 9999 SCT015
                      TEMPO 0318/0403 8000 RA BKN013
                      PROB40 TEMPO 0318/0403 5000 TSRA BKN080CB
                       BECMG 0323/0402 3000KT=
201009031400 TAF LMML 031400Z 0315/0324 15008KT 9999 SCT015
                      TEMPO 0315/0324 8000 RA BKN015
                      PROB30 TEMPO 0315/0324 5000 TSRA BKN010 BKN080CB=
201009031100 TAF LMML 031100Z 0312/0321 15008KT 9999 SCT018
                      TEMPO 0312/0321 9000 RA BKN015
                      PROB30 TEMPO 0312/0321 5000 TSRA BKN010 BKN080CB=
201009030858 TAF LMML 030858Z 0309/0318 16010KT 9999 SCT020
                      TEMPO 0309/0318 9000 RA BKN015
                      PROB30 TEMPO 0309/0318 5000 TSRA BKN080CB=
201009030800 TAF LMML 030800Z 0309/0318 16010KT 9999 SCT020
                      PROB30 TEMPO 0315/0318 5000 TSRA BKN080CB=
201009030500 TAF LMML 030500Z 0306/0315 15015KT 9999 SCT020=
201009030200 TAF LMML 030200Z 0303/0312 15015KT 9999 BKN020=
201009022300 TAF LMML 022300Z 0300/0309 15015KT 9999 BKN020=
201009022000 TAF LMML 022000Z 0221/0306 15013KT 9999 SCT017
                      PROB30 TEMPO 0300/0306 9000 SHRA=
201009021700 TAF LMML 021700Z 0218/0303 15010KT 9999 FEW020 SCT120
                      PROB30 TEMPO 0218/0303 SHRA=
201009021615 TAF LMML 021615Z 0215/0224 15013KT 9999 SCT025
                      PROB30 TEMPO 0215/0224 SHRA=
201009021100 TAF LMML 021100Z 0212/0221 15014KT 9999 FEW030 SCT100=
201009020800 TAF LMML 020800Z 0209/0218 15013KT 9999 FEW030 SCT100
                      PROB30 TEMPO 0214/0218 8000 SHRA SCT025 BKN080=
201009020500 TAF LMML 020500Z 0206/0215 15013KT 9999 FEW025 SCT080=
201009020200 TAF LMML 020200Z 0203/0212 16012KT 9999 FEW025 SCT060=
201009012300 TAF LMML 012300Z 0200/0209 15011KT 9999 FEW025 SCT050=
201009012000 TAF LMML 012000Z 0121/0206 14009KT 9999 FEW025 SCT080=
201009011700 TAF LMML 011700Z 0118/0203 16008KT 9999 SCT035=
201009011400 TAF LMML 011400Z 0115/0124 13008KT 9999 FEW035=
201009011100 TAF LMML 011100Z 0112/0121 13007KT 9999 SCT035=
201009010800 TAF LMML 010800Z 0109/0118 09007KT 9999 SCT035=
201009010500 TAF LMML 010500Z 0106/0115 VRB05KT 9999 SCT035=
201009010200 TAF LMML 010200Z 0103/0112 06005KT 9999 FEW030
                      TEMPO 0103/0112 CAVOK=

###################################
#  large TAF from LMML
###################################
201010012300 TAF LMML NIL=
201010011700 TAF LMML NIL=
201010011100 TAF LMML NIL=
201010010500 TAF LMML NIL=
201009302300 TAF LMML NIL=
201009301700 TAF LMML NIL=
201009301100 TAF LMML NIL=
201009300500 TAF LMML NIL=
201009292300 TAF LMML NIL=
201009291700 TAF LMML NIL=
201009291100 TAF LMML NIL=
201009290500 TAF LMML NIL=
201009282300 TAF LMML NIL=
201009281700 TAF LMML NIL=
201009281100 TAF LMML NIL=
201009280500 TAF LMML NIL=
201009272300 TAF LMML NIL=
201009271700 TAF LMML NIL=
201009271100 TAF LMML NIL=
201009270500 TAF LMML NIL=
201009262300 TAF LMML NIL=
201009261700 TAF LMML NIL=
201009261100 TAF LMML NIL=
201009260500 TAF LMML NIL=
201009252300 TAF LMML NIL=
201009251700 TAF LMML NIL=
201009251100 TAF LMML NIL=
201009250500 TAF LMML NIL=
201009242300 TAF LMML NIL=
201009241700 TAF LMML NIL=
201009241100 TAF LMML NIL=
201009240500 TAF LMML NIL=
201009232300 TAF LMML NIL=
201009231700 TAF LMML NIL=
201009231100 TAF LMML NIL=
201009230500 TAF LMML NIL=
201009222300 TAF LMML NIL=
201009221700 TAF LMML NIL=
201009221100 TAF LMML NIL=
201009220500 TAF LMML NIL=
201009212300 TAF LMML NIL=
201009211100 TAF LMML NIL=
201009210500 TAF LMML NIL=
201009202300 TAF LMML NIL=
201009201700 TAF LMML NIL=
201009201100 TAF LMML NIL=
201009200500 TAF LMML NIL=
201009192300 TAF LMML NIL=
201009191700 TAF LMML NIL=
201009191100 TAF LMML NIL=
201009190500 TAF LMML NIL=
201009182300 TAF LMML NIL=
201009181700 TAF LMML NIL=
201009181100 TAF LMML NIL=
201009180500 TAF LMML NIL=
201009172300 TAF LMML NIL=
201009171700 TAF LMML NIL=
201009171100 TAF LMML NIL=
201009170500 TAF LMML NIL=
201009162300 TAF LMML NIL=
201009161700 TAF LMML NIL=
201009161100 TAF LMML NIL=
201009160500 TAF LMML NIL=
201009152300 TAF LMML NIL=
201009151100 TAF LMML NIL=
201009150500 TAF LMML NIL=
201009142300 TAF LMML NIL=
201009141700 TAF LMML NIL=
201009141100 TAF LMML NIL=
201009140500 TAF LMML NIL=
201009132300 TAF LMML NIL=
201009131700 TAF LMML NIL=
201009131100 TAF LMML NIL=
201009130500 TAF LMML NIL=
201009122300 TAF LMML NIL=
201009121700 TAF LMML NIL=
201009121100 TAF LMML NIL=
201009120500 TAF LMML NIL=
201009112300 TAF LMML NIL=
201009111700 TAF LMML NIL=
201009111100 TAF LMML NIL=
201009110500 TAF LMML NIL=
201009102300 TAF LMML NIL=
201009101700 TAF LMML NIL=
201009101100 TAF LMML NIL=
201009100500 TAF LMML NIL=
201009092300 TAF LMML NIL=
201009091700 TAF LMML NIL=
201009091100 TAF LMML NIL=
201009090500 TAF LMML NIL=
201009082300 TAF LMML NIL=
201009081700 TAF LMML NIL=
201009081100 TAF LMML NIL=
201009080500 TAF LMML NIL=
201009072300 TAF LMML NIL=
201009071700 TAF LMML NIL=
201009071100 TAF LMML NIL=
201009070500 TAF LMML NIL=
201009062300 TAF LMML NIL=
201009061700 TAF LMML NIL=
201009061100 TAF LMML NIL=
201009060500 TAF LMML NIL=
201009052300 TAF LMML NIL=
201009051700 TAF LMML NIL=
201009051100 TAF LMML NIL=
201009050500 TAF LMML NIL=
201009042300 TAF LMML NIL=
201009041700 TAF LMML NIL=
201009041100 TAF LMML NIL=
201009040500 TAF LMML NIL=
201009032300 TAF LMML NIL=
201009031700 TAF LMML NIL=
201009031100 TAF LMML NIL=
201009030500 TAF LMML NIL=
201009022300 TAF LMML NIL=
201009021700 TAF LMML NIL=
201009021100 TAF LMML NIL=
201009020500 TAF LMML NIL=
201009012300 TAF LMML NIL=
201009011700 TAF LMML NIL=
201009011100 TAF LMML NIL=
201009010500 TAF LMML NIL=
