##########################################################
# Query made at 12/28/2012 16:28:17 UTC
# Time interval: from 09/01/2012 00:00  to 10/01/2012 23:59  UTC
##########################################################

##########################################################
# LMML, Luqa (Malta)
# WMO index: 16597
# Latitude 35-51N. Longitude 014-29E. Altitude 91 m.
##########################################################

###################################
#  METAR/SPECI from LMML
###################################
201210012345 METAR LMML 012345Z AUTO 34013KT CAVOK 24/18 Q1018=
201210012315 METAR LMML 012315Z AUTO 34014KT CAVOK 23/18 Q1019=
201210012300 METAR LMML NIL=
201210012245 METAR LMML 012245Z AUTO 34016KT CAVOK 23/19 Q1019=
201210012230 METAR LMML NIL=
201210012215 METAR LMML 012215Z AUTO 34012KT CAVOK 23/20 Q1019=
201210012200 METAR LMML NIL=
201210012145 METAR LMML 012145Z AUTO 32012KT CAVOK 24/21 Q1019=
201210012130 METAR LMML NIL=
201210012115 METAR LMML 012115Z AUTO 32014KT CAVOK 24/22 Q1020=
201210012100 METAR LMML NIL=
201210012045 METAR LMML 012045Z AUTO 31011KT 9999NDV SCT013/// BKN120///
                        24/22 Q1020=
201210012030 METAR LMML NIL=
201210012015 METAR LMML 012015Z AUTO 33009KT 9999NDV BKN012/// BKN014///
                        24/22 Q1019=
201210011945 METAR LMML 011945Z 31009KT 9999 FEW011 24/22 Q1019 NOSIG=
201210011930 METAR LMML NIL=
201210011915 METAR LMML 011915Z 32009KT 9999 FEW012 SCT016 25/23 Q1018
                        NOSIG=
201210011900 METAR LMML NIL=
201210011845 METAR LMML 011845Z 30007KT 260V320 9999 FEW010 BKN017 25/23
                        Q1018 NOSIG=
201210011830 METAR LMML NIL=
201210011815 METAR LMML 011815Z 30008KT 9999 BKN017 25/23 Q1018 NOSIG=
201210011800 METAR LMML NIL=
201210011745 METAR LMML 011745Z 30009KT 9999 BKN009 25/24 Q1017 NOSIG=
201210011730 METAR LMML NIL=
201210011715 METAR LMML 011715Z 23009KT 9999 FEW009 26/24 Q1017 BECMG
                        BKN007=
201210011700 METAR LMML NIL=
201210011645 METAR LMML 011645Z 22007KT 180V260 9999 FEW015 26/24 Q1017
                        NOSIG=
201210011630 METAR LMML NIL=
201210011615 METAR LMML 011615Z 20005KT 150V250 9999 FEW020 26/24 Q1017
                        NOSIG=
201210011600 METAR LMML NIL=
201210011545 METAR LMML 011545Z 19006KT 150V270 9999 -SHRA FEW030 27/24
                        Q1016 NOSIG=
201210011530 METAR LMML NIL=
201210011515 METAR LMML 011515Z 21013KT CAVOK 27/24 Q1016 TEMPO 9000 TSRA
                        BKN040CB=
201210011500 METAR LMML NIL=
201210011445 METAR LMML 011445Z 20016KT 180V240 9999 -SHRA NSC 27/24 Q1016
                        TEMPO 9000 TSRA BKN040CB=
201210011430 METAR LMML NIL=
201210011415 METAR LMML 011415Z 19011KT CAVOK 27/24 Q1016 TEMPO 9000 TSRA
                        BKN040CB=
201210011400 METAR LMML NIL=
201210011345 METAR LMML 011345Z 17015KT CAVOK 28/23 Q1016 TEMPO 9000 TSRA
                        BKN040CB=
201210011330 METAR LMML NIL=
201210011315 METAR LMML 011315Z 19015KT 150V220 CAVOK 29/23 Q1016 TEMPO
                        9000 TSRA BKN040CB=
201210011300 METAR LMML NIL=
201210011245 METAR LMML 011245Z 19014G25KT CAVOK 29/22 Q1016 TEMPO 9000
                        TSRA BKN040CB=
201210011230 METAR LMML NIL=
201210011215 METAR LMML 011215Z 19013KT 160V220 CAVOK 29/21 Q1016 NOSIG=
201210011200 METAR LMML NIL=
201210011145 METAR LMML 011145Z 17014KT CAVOK 29/21 Q1016 NOSIG=
201210011130 METAR LMML NIL=
201210011115 METAR LMML 011115Z 20013KT CAVOK 29/22 Q1017 TEMPO 15015G25KT
                        9000 TSRA SCT040CB=
201210011100 METAR LMML NIL=
201210011045 METAR LMML 011045Z 17017G27KT 150V210 CAVOK 30/22 Q1016 TEMPO
                        15015G25KT 9000 TSRA SCT040CB=
201210011030 METAR LMML NIL=
201210011015 METAR LMML 011015Z 17019G30KT CAVOK 29/22 Q1016 NOSIG=
201210011000 METAR LMML NIL=
201210010945 METAR LMML 010945Z 15017KT CAVOK 28/22 Q1016 NOSIG=
201210010930 METAR LMML NIL=
201210010915 METAR LMML 010915Z 16015KT 9999 -SHRA FEW040 28/22 Q1017
                        NOSIG=
201210010900 METAR LMML NIL=
201210010845 METAR LMML 010845Z 14018KT 9999 FEW040 28/23 Q1016 TEMPO
                        15015G25KT 9000 TSRA SCT040CB=
201210010830 METAR LMML NIL=
201210010815 METAR LMML 010815Z 15018KT 9999 FEW040 27/22 Q1016 TEMPO
                        15015G25KT 9000 TSRA SCT040CB=
201210010800 METAR LMML NIL=
201210010745 METAR LMML 010745Z 16018KT 9999 FEW040 27/22 Q1017 RETS TEMPO
                        15015G25KT 9000 TSRA SCT040CB=
201210010730 METAR LMML NIL=
201210010715 METAR LMML 010715Z 15017KT 9999 SCT040CB 26/22 Q1016 RETS
                        TEMPO 15015G25KT 9000 TSRA SCT040CB=
201210010700 METAR LMML NIL=
201210010645 METAR LMML 010645Z 14014KT 9999 TS FEW020 SCT040CB 26/23
                        Q1017 NOSIG=
201210010630 METAR LMML NIL=
201210010615 METAR LMML 010615Z 20009KT 170V230 9000 TS FEW035 SCT060CB
                        26/23 Q1017 NOSIG=
201210010600 METAR LMML NIL=
201210010545 METAR LMML 010545Z 17010KT 9999 FEW035 26/23 Q1016 NOSIG=
201210010530 METAR LMML NIL=
201210010515 METAR LMML 010515Z 18009KT 9999 FEW035 26/23 Q1017 NOSIG=
201210010500 METAR LMML NIL=
201210010445 METAR LMML 010445Z 18010KT 9999 FEW035 26/23 Q1016 NOSIG=
201210010430 METAR LMML NIL=
201210010415 METAR LMML 010415Z 16013KT CAVOK 25/23 Q1015 NOSIG=
201210010400 METAR LMML NIL=
201210010345 METAR LMML 010345Z 16011KT CAVOK 25/23 Q1015 NOSIG=
201210010330 METAR LMML NIL=
201210010315 METAR LMML 010315Z 16012KT CAVOK 25/23 Q1015 NOSIG=
201210010300 METAR LMML NIL=
201210010245 METAR LMML 010245Z AUTO 15010KT 9000NDV NCD 23/22 Q1016=
201210010230 METAR LMML NIL=
201210010215 METAR LMML 010215Z AUTO VRB02KT CAVOK 25/22 Q1016=
201210010200 METAR LMML NIL=
201210010145 METAR LMML 010145Z AUTO 15010KT CAVOK 25/22 Q1016=
201210010130 METAR LMML NIL=
201210010115 METAR LMML 010115Z AUTO 15011KT CAVOK 26/22 Q1016=
201210010100 METAR LMML NIL=
201210010045 METAR LMML 010045Z AUTO 16010KT CAVOK 26/21 Q1016=
201210010030 METAR LMML NIL=
201210010015 METAR LMML 010015Z AUTO 15011KT CAVOK 25/22 Q1016=
201210010000 METAR LMML NIL=
201209302345 METAR LMML 302345Z AUTO 15011KT CAVOK 25/21 Q1016=
201209302330 METAR LMML NIL=
201209302315 METAR LMML 302315Z AUTO 16011KT CAVOK 26/22 Q1016=
201209302300 METAR LMML NIL=
201209302245 METAR LMML 302245Z AUTO 15011KT CAVOK 25/22 Q1016=
201209302230 METAR LMML NIL=
201209302215 METAR LMML 302215Z AUTO 17008KT CAVOK 26/22 Q1016=
201209302200 METAR LMML NIL=
201209302145 METAR LMML 302145Z AUTO 17010KT CAVOK 26/22 Q1016=
201209302130 METAR LMML NIL=
201209302115 METAR LMML 302115Z AUTO 17010KT CAVOK 26/23 Q1016=
201209302100 METAR LMML NIL=
201209302045 METAR LMML 302045Z AUTO 18010KT CAVOK 26/22 Q1016=
201209302030 METAR LMML NIL=
201209302015 METAR LMML 302015Z AUTO 17010KT CAVOK 26/22 Q1016=
201209302000 METAR LMML NIL=
201209301945 METAR LMML 301945Z 16010KT CAVOK 26/22 Q1016 NOSIG=
201209301930 METAR LMML NIL=
201209301915 METAR LMML 301915Z 17009KT CAVOK 26/22 Q1016 NOSIG=
201209301900 METAR LMML NIL=
201209301845 METAR LMML 301845Z 17009KT CAVOK 26/22 Q1016 NOSIG=
201209301830 METAR LMML NIL=
201209301815 METAR LMML 301815Z 15009KT CAVOK 25/22 Q1015 NOSIG=
201209301800 METAR LMML NIL=
201209301745 METAR LMML 301745Z 17008KT CAVOK 26/22 Q1015 NOSIG=
201209301730 METAR LMML NIL=
201209301715 METAR LMML 301715Z 16008KT CAVOK 26/22 Q1015 NOSIG=
201209301700 METAR LMML NIL=
201209301645 METAR LMML 301645Z 17008KT CAVOK 27/22 Q1015=
201209301630 METAR LMML NIL=
201209301615 METAR LMML 301615Z 17007KT CAVOK 27/22 Q1015=
201209301545 METAR LMML 301545Z 18011KT 150V210 CAVOK 28/22 Q1015=
201209301530 METAR LMML NIL=
201209301515 METAR LMML 301515Z 19015KT CAVOK 28/22 Q1015=
201209301445 METAR LMML 301445Z 18014KT CAVOK 29/22 Q1015=
201209301430 METAR LMML NIL=
201209301415 METAR LMML 301415Z 17015KT CAVOK 29/22 Q1015=
201209301345 METAR LMML 301345Z 17015KT CAVOK 29/22 Q1015=
201209301330 METAR LMML NIL=
201209301315 METAR LMML 301315Z 17012KT 140V200 CAVOK 29/22 Q1016=
201209301300 METAR LMML NIL=
201209301245 METAR LMML 301245Z AUTO 17012KT 140V200 CAVOK 30/23 Q1016=
201209301215 METAR LMML 301215Z 17014KT CAVOK 30/22 Q1016=
201209301200 METAR LMML NIL=
201209301145 METAR LMML 301145Z 17015KT CAVOK 29/23 Q1016=
201209301115 METAR LMML 301115Z 17016KT CAVOK 29/23 Q1016=
201209301100 METAR LMML NIL=
201209301045 METAR LMML 301045Z 18015KT CAVOK 29/23 Q1016=
201209301015 METAR LMML 301015Z 19014KT 160V220 CAVOK 29/23 Q1016=
201209301000 METAR LMML NIL=
201209300945 METAR LMML 300945Z 19015KT CAVOK 29/23 Q1016=
201209300930 METAR LMML NIL=
201209300915 METAR LMML 300915Z 18011KT 160V220 CAVOK 29/23 Q1016=
201209300900 METAR LMML NIL=
201209300845 METAR LMML 300845Z 18014KT 150V210 CAVOK 29/23 Q1016=
201209300830 METAR LMML NIL=
201209300815 METAR LMML 300815Z 18013KT 150V210 CAVOK 28/23 Q1016=
201209300800 METAR LMML NIL=
201209300745 METAR LMML 300745Z 18012KT CAVOK 28/23 Q1016=
201209300730 METAR LMML NIL=
201209300715 METAR LMML 300715Z 18011KT 150V220 CAVOK 28/23 Q1016=
201209300700 METAR LMML NIL=
201209300645 METAR LMML 300645Z 18010KT CAVOK 27/23 Q1016=
201209300630 METAR LMML NIL=
201209300615 METAR LMML 300615Z 18012KT CAVOK 26/23 Q1015=
201209300600 METAR LMML NIL=
201209300545 METAR LMML 300545Z 18010KT CAVOK 26/22 Q1015=
201209300530 METAR LMML NIL=
201209300515 METAR LMML 300515Z 18009KT CAVOK 26/22 Q1015=
201209300500 METAR LMML NIL=
201209300445 METAR LMML 300445Z 18010KT CAVOK 25/22 Q1015=
201209300430 METAR LMML NIL=
201209300415 METAR LMML 300415Z 17008KT CAVOK 26/22 Q1015=
201209300400 METAR LMML NIL=
201209300345 METAR LMML 300345Z 17009KT CAVOK 25/22 Q1015=
201209300330 METAR LMML NIL=
201209300315 METAR LMML 300315Z 17008KT CAVOK 25/22 Q1015=
201209300300 METAR LMML NIL=
201209300245 METAR LMML 300245Z AUTO 17007KT CAVOK 25/22 Q1015=
201209300230 METAR LMML NIL=
201209300215 METAR LMML 300215Z AUTO 17006KT CAVOK 25/22 Q1015=
201209300200 METAR LMML NIL=
201209300145 METAR LMML 300145Z AUTO 17008KT CAVOK 25/22 Q1015=
201209300130 METAR LMML NIL=
201209300115 METAR LMML 300115Z AUTO 17009KT CAVOK 25/22 Q1015=
201209300100 METAR LMML NIL=
201209300045 METAR LMML 300045Z AUTO 17005KT CAVOK 25/22 Q1016=
201209300030 METAR LMML NIL=
201209300015 METAR LMML 300015Z AUTO 17008KT CAVOK 25/23 Q1015=
201209300000 METAR LMML NIL=
201209292345 METAR LMML 292345Z AUTO 18007KT CAVOK 25/23 Q1016=
201209292330 METAR LMML NIL=
201209292315 METAR LMML 292315Z AUTO 18005KT 150V210 CAVOK 25/23 Q1016=
201209292300 METAR LMML NIL=
201209292245 METAR LMML 292245Z AUTO 18007KT CAVOK 25/24 Q1016=
201209292230 METAR LMML NIL=
201209292215 METAR LMML 292215Z AUTO 18006KT CAVOK 25/24 Q1016=
201209292200 METAR LMML NIL=
201209292145 METAR LMML 292145Z AUTO 18010KT CAVOK 25/23 Q1016=
201209292130 METAR LMML NIL=
201209292115 METAR LMML 292115Z AUTO 17012KT CAVOK 26/24 Q1016=
201209292100 METAR LMML NIL=
201209292045 METAR LMML 292045Z 17009KT CAVOK 25/24 Q1016 NOSIG=
201209292030 METAR LMML NIL=
201209292015 METAR LMML 292015Z 17009KT CAVOK 26/24 Q1016=
201209292000 METAR LMML NIL=
201209291945 METAR LMML 291945Z 17009KT CAVOK 26/23 Q1016 NOSIG=
201209291930 METAR LMML NIL=
201209291915 METAR LMML 291915Z 16008KT CAVOK 25/23 Q1016 NOSIG=
201209291900 METAR LMML NIL=
201209291845 METAR LMML 291845Z 16007KT CAVOK 25/23 Q1016 NOSIG=
201209291830 METAR LMML NIL=
201209291815 METAR LMML 291815Z 17007KT CAVOK 26/23 Q1016 NOSIG=
201209291800 METAR LMML NIL=
201209291745 METAR LMML 291745Z 17009KT CAVOK 26/23 Q1016 NOSIG=
201209291730 METAR LMML NIL=
201209291715 METAR LMML 291715Z 17009KT CAVOK 27/22 Q1015 NOSIG=
201209291700 METAR LMML NIL=
201209291645 METAR LMML 291645Z 18010KT CAVOK 27/22 Q1016 NOSIG=
201209291630 METAR LMML NIL=
201209291615 METAR LMML 291615Z 19009KT 160V220 CAVOK 28/22 Q1016 NOSIG=
201209291600 METAR LMML NIL=
201209291545 METAR LMML 291545Z 17011KT CAVOK 28/22 Q1015 NOSIG=
201209291530 METAR LMML NIL=
201209291515 METAR LMML 291515Z 18013KT 150V210 CAVOK 28/22 Q1015 NOSIG=
201209291445 METAR LMML 291445Z 17012G22KT CAVOK 28/22 Q1015 NOSIG=
201209291430 METAR LMML NIL=
201209291415 METAR LMML 291415Z 17015KT CAVOK 29/21 Q1015 NOSIG=
201209291400 METAR LMML NIL=
201209291345 METAR LMML 291345Z 17017KT CAVOK 29/21 Q1015 NOSIG=
201209291330 METAR LMML NIL=
201209291315 METAR LMML 291315Z 17014KT CAVOK 30/22 Q1016 NOSIG=
201209291300 METAR LMML NIL=
201209291245 METAR LMML 291245Z 17017KT CAVOK 30/21 Q1016 NOSIG=
201209291230 METAR LMML NIL=
201209291215 METAR LMML 291215Z 17014KT CAVOK 30/21 Q1016 NOSIG=
201209291200 METAR LMML NIL=
201209291145 METAR LMML 291145Z 17015KT CAVOK 30/21 Q1017 NOSIG=
201209291130 METAR LMML NIL=
201209291115 METAR LMML 291115Z 16015KT CAVOK 30/21 Q1017 NOSIG=
201209291100 METAR LMML NIL=
201209291045 METAR LMML 291045Z AUTO 16016KT CAVOK 30/21 Q1017=
201209291030 METAR LMML NIL=
201209291015 METAR LMML 291015Z AUTO 16015KT CAVOK 30/20 Q1018=
201209291000 METAR LMML NIL=
201209290945 METAR LMML 290945Z 17018KT CAVOK 30/19 Q1018 NOSIG=
201209290930 METAR LMML NIL=
201209290915 METAR LMML 290915Z 17017KT CAVOK 30/20 Q1018 NOSIG=
201209290900 METAR LMML NIL=
201209290845 METAR LMML 290845Z 17016KT CAVOK 29/21 Q1018 NOSIG=
201209290830 METAR LMML NIL=
201209290815 METAR LMML 290815Z 17013KT CAVOK 29/22 Q1018 NOSIG=
201209290800 METAR LMML NIL=
201209290745 METAR LMML 290745Z 17013KT CAVOK 28/22 Q1018 NOSIG=
201209290730 METAR LMML NIL=
201209290715 METAR LMML 290715Z 17011KT 150V210 CAVOK 28/22 Q1018 NOSIG=
201209290700 METAR LMML NIL=
201209290645 METAR LMML 290645Z 17012KT CAVOK 27/22 Q1018 NOSIG=
201209290630 METAR LMML NIL=
201209290615 METAR LMML 290615Z 17010KT CAVOK 26/23 Q1017 NOSIG=
201209290600 METAR LMML NIL=
201209290545 METAR LMML 290545Z 17009KT CAVOK 25/22 Q1017 NOSIG=
201209290530 METAR LMML NIL=
201209290515 METAR LMML 290515Z 17008KT 9999 FEW035 25/22 Q1017 NOSIG=
201209290500 METAR LMML NIL=
201209290445 METAR LMML 290445Z 17009KT CAVOK 25/22 Q1016 NOSIG=
201209290430 METAR LMML NIL=
201209290415 METAR LMML 290415Z 16009KT 9000 NSC 25/23 Q1016 BECMG CAVOK=
201209290400 METAR LMML NIL=
201209290345 METAR LMML 290345Z 16007KT 9000 NSC 24/23 Q1016 NOSIG=
201209290330 METAR LMML NIL=
201209290315 METAR LMML 290315Z 16009KT CAVOK 24/23 Q1016 NOSIG=
201209290300 METAR LMML NIL=
201209290245 METAR LMML 290245Z AUTO 15010KT CAVOK 24/23 Q1016=
201209290230 METAR LMML NIL=
201209290215 METAR LMML 290215Z AUTO 16010KT CAVOK 24/23 Q1016=
201209290200 METAR LMML NIL=
201209290145 METAR LMML 290145Z AUTO 15011KT CAVOK 24/23 Q1016=
201209290130 METAR LMML NIL=
201209290115 METAR LMML 290115Z AUTO 15010KT CAVOK 24/23 Q1017=
201209290100 METAR LMML NIL=
201209290045 METAR LMML 290045Z AUTO 16010KT CAVOK 24/23 Q1017=
201209290030 METAR LMML NIL=
201209290015 METAR LMML 290015Z AUTO 15010KT CAVOK 24/23 Q1017=
201209290000 METAR LMML NIL=
201209282345 METAR LMML 282345Z AUTO 15010KT CAVOK 24/23 Q1017=
201209282330 METAR LMML NIL=
201209282315 METAR LMML 282315Z AUTO 15010KT CAVOK 24/23 Q1017=
201209282300 METAR LMML NIL=
201209282245 METAR LMML 282245Z AUTO 15010KT CAVOK 24/23 Q1017=
201209282230 METAR LMML NIL=
201209282215 METAR LMML 282215Z AUTO 15010KT CAVOK 24/24 Q1018=
201209282200 METAR LMML NIL=
201209282145 METAR LMML 282145Z AUTO 15009KT CAVOK 24/23 Q1018=
201209282130 METAR LMML NIL=
201209282115 METAR LMML 282115Z AUTO 15010KT CAVOK 24/23 Q1018=
201209282100 METAR LMML NIL=
201209282045 METAR LMML 282045Z AUTO 15009KT CAVOK 24/23 Q1018=
201209282030 METAR LMML NIL=
201209282015 METAR LMML 282015Z AUTO 16010KT CAVOK 25/23 Q1018=
201209282000 METAR LMML NIL=
201209281945 METAR LMML 281945Z 15008KT CAVOK 24/24 Q1018 BECMG 9000 NSC=
201209281930 METAR LMML NIL=
201209281915 METAR LMML 281915Z 15007KT CAVOK 24/23 Q1018 BECMG 9000 NSC=
201209281900 METAR LMML NIL=
201209281845 METAR LMML 281845Z 14007KT CAVOK 24/24 Q1017 BECMG 9000 NSC=
201209281830 METAR LMML NIL=
201209281815 METAR LMML 281815Z 15007KT CAVOK 24/24 Q1017 NOSIG=
201209281800 METAR LMML NIL=
201209281745 METAR LMML 281745Z 14007KT CAVOK 24/24 Q1017 NOSIG=
201209281730 METAR LMML NIL=
201209281715 METAR LMML 281715Z 15009KT CAVOK 25/24 Q1017 NOSIG=
201209281700 METAR LMML NIL=
201209281645 METAR LMML 281645Z 15008KT CAVOK 26/24 Q1017 NOSIG=
201209281630 METAR LMML NIL=
201209281615 METAR LMML 281615Z 15010KT CAVOK 26/24 Q1017 NOSIG=
201209281600 METAR LMML NIL=
201209281545 METAR LMML 281545Z 15011KT CAVOK 27/24 Q1017 NOSIG=
201209281530 METAR LMML NIL=
201209281515 METAR LMML 281515Z 15010KT CAVOK 28/23 Q1017 NOSIG=
201209281500 METAR LMML NIL=
201209281445 METAR LMML 281445Z 16011KT CAVOK 29/22 Q1017 NOSIG=
201209281430 METAR LMML NIL=
201209281415 METAR LMML 281415Z 16010KT CAVOK 29/22 Q1017 NOSIG=
201209281400 METAR LMML NIL=
201209281345 METAR LMML 281345Z 17011KT CAVOK 29/22 Q1017 NOSIG=
201209281330 METAR LMML NIL=
201209281315 METAR LMML 281315Z 18012KT CAVOK 30/22 Q1017 NOSIG=
201209281300 METAR LMML NIL=
201209281245 METAR LMML 281245Z AUTO 16010KT CAVOK 29/23 Q1017=
201209281230 METAR LMML NIL=
201209281215 METAR LMML 281215Z 17012KT CAVOK 29/23 Q1018 NOSIG=
201209281200 METAR LMML NIL=
201209281145 METAR LMML 281145Z 17013KT CAVOK 29/22 Q1018 NOSIG=
201209281130 METAR LMML NIL=
201209281115 METAR LMML 281115Z 17013KT CAVOK 29/22 Q1018 NOSIG=
201209281100 METAR LMML NIL=
201209281045 METAR LMML 281045Z 18014KT CAVOK 30/21 Q1018 NOSIG=
201209281030 METAR LMML NIL=
201209281015 METAR LMML 281015Z 18015KT CAVOK 29/20 Q1019 NOSIG=
201209281000 METAR LMML NIL=
201209280945 METAR LMML 280945Z 18014KT CAVOK 29/20 Q1019 NOSIG=
201209280930 METAR LMML NIL=
201209280915 METAR LMML 280915Z AUTO 17011KT CAVOK 30/20 Q1019=
201209280900 METAR LMML NIL=
201209280845 METAR LMML 280845Z 18013KT CAVOK 29/20 Q1019 NOSIG=
201209280830 METAR LMML NIL=
201209280815 METAR LMML 280815Z 17013KT CAVOK 28/20 Q1018 NOSIG=
201209280800 METAR LMML NIL=
201209280745 METAR LMML 280745Z 17013KT CAVOK 28/20 Q1018 NOSIG=
201209280730 METAR LMML NIL=
201209280715 METAR LMML 280715Z 17012KT CAVOK 27/21 Q1018 NOSIG=
201209280700 METAR LMML NIL=
201209280645 METAR LMML 280645Z 17010KT CAVOK 26/22 Q1018 NOSIG=
201209280630 METAR LMML NIL=
201209280615 METAR LMML 280615Z 17009KT CAVOK 25/22 Q1018 NOSIG=
201209280600 METAR LMML NIL=
201209280545 METAR LMML 280545Z 16010KT CAVOK 24/22 Q1017 NOSIG=
201209280530 METAR LMML NIL=
201209280515 METAR LMML 280515Z 16009KT CAVOK 24/22 Q1017 NOSIG=
201209280500 METAR LMML NIL=
201209280445 METAR LMML 280445Z 16009KT 9999 FEW004 24/23 Q1017 NOSIG=
201209280430 METAR LMML NIL=
201209280415 METAR LMML 280415Z 16009KT 9000 FEW004 24/23 Q1017 NOSIG=
201209280400 METAR LMML NIL=
201209280345 METAR LMML 280345Z 15008KT 6000 BR FEW004 24/23 Q1017 BECMG
                        9999=
201209280330 METAR LMML NIL=
201209280315 METAR LMML 280315Z 15008KT 6000 BR FEW004 24/23 Q1017 NOSIG=
201209280300 METAR LMML NIL=
201209280245 METAR LMML 280245Z AUTO 16009KT 5000NDV HZ NCD 24/23 Q1017=
201209280230 METAR LMML NIL=
201209280215 METAR LMML 280215Z AUTO 16010KT 6000NDV NCD 24/23 Q1017=
201209280200 METAR LMML NIL=
201209280145 METAR LMML 280145Z AUTO 16010KT 6000NDV NCD 24/23 Q1017=
201209280130 METAR LMML NIL=
201209280115 METAR LMML 280115Z AUTO 16010KT 5000NDV NCD 24/24 Q1017=
201209280100 METAR LMML NIL=
201209280045 METAR LMML 280045Z AUTO 15009KT 5000NDV HZ SCT003/// 24/24
                        Q1017=
201209280030 METAR LMML NIL=
201209280015 METAR LMML 280015Z AUTO 15009KT 5000NDV HZ BKN003/// 24/23
                        Q1017=
201209272345 METAR LMML 272345Z AUTO 15011KT 6000NDV HZ FEW003/// 24/24
                        Q1017=
201209272330 METAR LMML NIL=
201209272315 METAR LMML 272315Z AUTO 15011KT 6000NDV HZ NCD 24/24 Q1017=
201209272300 METAR LMML NIL=
201209272245 METAR LMML 272245Z AUTO 14013KT 7000NDV HZ SCT003/// 24/24
                        Q1018=
201209272230 METAR LMML NIL=
201209272215 METAR LMML 272215Z AUTO 14011KT 7000NDV HZ BKN003/// BKN004///
                        24/24 Q1018=
201209272200 METAR LMML NIL=
201209272145 METAR LMML 272145Z AUTO 15010KT 5000NDV HZ BKN002/// 24/24
                        Q1018=
201209272130 METAR LMML NIL=
201209272115 METAR LMML 272115Z AUTO 15010KT 6000NDV HZ BKN003/// 24/24
                        Q1018=
201209272100 METAR LMML NIL=
201209272045 METAR LMML 272045Z AUTO 15009KT 7000NDV HZ NCD 24/24 Q1018=
201209272030 METAR LMML NIL=
201209272015 METAR LMML 272015Z AUTO 15010KT CAVOK 24/23 Q1018=
201209272000 METAR LMML NIL=
201209271945 METAR LMML 271945Z 15010KT 9999 FEW005 24/23 Q1018 NOSIG=
201209271930 METAR LMML NIL=
201209271915 METAR LMML 271915Z 14009KT 9999 FEW005 24/23 Q1018 NOSIG=
201209271900 METAR LMML NIL=
201209271845 METAR LMML 271845Z 15009KT 9999 FEW005 24/24 Q1018 NOSIG=
201209271830 METAR LMML NIL=
201209271815 METAR LMML 271815Z 14008KT 9999 BKN003 24/24 Q1017 NOSIG=
201209271800 METAR LMML NIL=
201209271745 METAR LMML 271745Z 14010KT 9999 SCT004 25/24 Q1017 TEMPO
                        BKN 004=
201209271730 METAR LMML NIL=
201209271715 METAR LMML 271715Z 14010KT 9999 FEW005 25/24 Q1017 NOSIG=
201209271700 METAR LMML NIL=
201209271645 METAR LMML 271645Z 14010KT 9999 FEW005 25/24 Q1017 NOSIG=
201209271630 METAR LMML NIL=
201209271615 METAR LMML 271615Z AUTO 14010KT CAVOK 26/24 Q1017 NOSIG=
201209271600 METAR LMML NIL=
201209271545 METAR LMML 271545Z 14010KT 9999 FEW007 27/24 Q1017 NOSIG=
201209271530 METAR LMML NIL=
201209271515 METAR LMML 271515Z 13010KT 9999 FEW007 27/24 Q1017 NOSIG=
201209271500 METAR LMML NIL=
201209271445 METAR LMML 271445Z 13009KT 9999 FEW009 28/24 Q1017 NOSIG=
201209271430 METAR LMML NIL=
201209271415 METAR LMML 271415Z 14008KT 110V200 9999 FEW010 28/24 Q1017
                        NOSIG=
201209271400 METAR LMML NIL=
201209271345 METAR LMML 271345Z 16011KT 9999 FEW013 28/22 Q1017 NOSIG=
201209271330 METAR LMML NIL=
201209271315 METAR LMML 271315Z 16010KT 9999 FEW013 29/22 Q1017 NOSIG=
201209271300 METAR LMML NIL=
201209271245 METAR LMML 271245Z 16009KT 140V200 9999 FEW013 29/22 Q1017
                        NOSIG=
201209271230 METAR LMML NIL=
201209271215 METAR LMML 271215Z 17009KT 130V200 9999 FEW013 29/22 Q1017
                        NOSIG=
201209271200 METAR LMML NIL=
201209271145 METAR LMML 271145Z 17009KT 130V200 9999 FEW013 29/22 Q1018
                        NOSIG=
201209271130 METAR LMML NIL=
201209271115 METAR LMML 271115Z AUTO 14011KT 9999NDV FEW021/// 29/23 Q1018=
201209271100 METAR LMML NIL=
201209271045 METAR LMML 271045Z 17009KT 140V210 9999 FEW018 29/23 Q1018
                        NOSIG=
201209271030 METAR LMML NIL=
201209271015 METAR LMML 271015Z 18009KT 140V210 CAVOK 29/23 Q1018 NOSIG=
201209271000 METAR LMML NIL=
201209270945 METAR LMML 270945Z 17010KT 130V200 CAVOK 29/22 Q1018 NOSIG=
201209270930 METAR LMML NIL=
201209270915 METAR LMML 270915Z 17011KT CAVOK 29/22 Q1018 NOSIG=
201209270900 METAR LMML NIL=
201209270845 METAR LMML 270845Z 17011KT CAVOK 28/22 Q1018 NOSIG=
201209270830 METAR LMML NIL=
201209270815 METAR LMML 270815Z 17012KT CAVOK 28/21 Q1018 NOSIG=
201209270800 METAR LMML NIL=
201209270745 METAR LMML 270745Z 17013KT CAVOK 27/22 Q1017 NOSIG=
201209270730 METAR LMML NIL=
201209270715 METAR LMML 270715Z 17013KT CAVOK 27/22 Q1017 NOSIG=
201209270700 METAR LMML NIL=
201209270645 METAR LMML 270645Z 16010KT CAVOK 26/22 Q1017 NOSIG=
201209270630 METAR LMML NIL=
201209270615 METAR LMML 270615Z 15012KT CAVOK 26/22 Q1016 NOSIG=
201209270600 METAR LMML NIL=
201209270545 METAR LMML 270545Z 16009KT CAVOK 25/22 Q1016 NOSIG=
201209270530 METAR LMML NIL=
201209270515 METAR LMML 270515Z 16009KT CAVOK 25/22 Q1016 NOSIG=
201209270500 METAR LMML NIL=
201209270445 METAR LMML 270445Z 16011KT CAVOK 25/21 Q1016 NOSIG=
201209270430 METAR LMML NIL=
201209270415 METAR LMML 270415Z AUTO 16010KT CAVOK 25/22 Q1016 BECMG 9999=
201209270400 METAR LMML NIL=
201209270345 METAR LMML 270345Z 16012KT 9000 NSC 24/23 Q1015 NOSIG=
201209270330 METAR LMML NIL=
201209270315 METAR LMML 270315Z 16012KT 9000 NSC 24/23 Q1015 NOSIG=
201209270300 METAR LMML NIL=
201209270245 METAR LMML 270245Z AUTO 16013KT CAVOK 24/23 Q1015=
201209270230 METAR LMML NIL=
201209270215 METAR LMML 270215Z AUTO 16013KT 9000NDV NCD 24/23 Q1015=
201209270200 METAR LMML NIL=
201209270145 METAR LMML 270145Z AUTO 16013KT 9000NDV NCD 24/23 Q1015=
201209270130 METAR LMML NIL=
201209270115 METAR LMML 270115Z AUTO 15013KT 8000NDV HZ NCD 24/23 Q1015=
201209270100 METAR LMML NIL=
201209270045 METAR LMML 270045Z AUTO 15014KT 8000NDV HZ NCD 24/23 Q1016=
201209270030 METAR LMML NIL=
201209270015 METAR LMML 270015Z AUTO 15015KT 9000NDV NCD 24/23 Q1016=
201209270000 METAR LMML NIL=
201209262345 METAR LMML 262345Z AUTO 15015KT 9000NDV NCD 24/23 Q1016=
201209262330 METAR LMML NIL=
201209262315 METAR LMML 262315Z AUTO 15015KT 8000NDV NCD 24/23 Q1016=
201209262300 METAR LMML NIL=
201209262245 METAR LMML 262245Z AUTO 15014KT 8000NDV HZ NCD 24/23 Q1016=
201209262230 METAR LMML NIL=
201209262215 METAR LMML 262215Z AUTO 14013KT 7000NDV HZ NCD 24/23 Q1016=
201209262200 METAR LMML NIL=
201209262145 METAR LMML 262145Z AUTO 14012KT 7000NDV HZ FEW004/// 24/23
                        Q1017=
201209262130 METAR LMML NIL=
201209262115 METAR LMML 262115Z AUTO 14012KT 7000NDV HZ BKN004/// BKN005///
                        24/24 Q1017=
201209262100 METAR LMML NIL=
201209262045 METAR LMML 262045Z AUTO 13011KT 6000NDV HZ BKN004/// BKN007///
                        24/24 Q1017=
201209262030 METAR LMML NIL=
201209262015 METAR LMML 262015Z AUTO 13011KT 7000NDV HZ BKN004/// BKN005///
                        24/24 Q1017=
201209262000 METAR LMML NIL=
201209261945 METAR LMML 261945Z 13011KT 9000 BKN003 24/24 Q1017 NOSIG=
201209261930 METAR LMML NIL=
201209261915 METAR LMML 261915Z 13012KT 9000 BKN003 24/24 Q1017 NOSIG=
201209261900 METAR LMML NIL=
201209261845 METAR LMML 261845Z 13011KT 9000 FEW003 24/23 Q1016 NOSIG=
201209261830 METAR LMML NIL=
201209261815 METAR LMML 261815Z 13009KT 9000 FEW003 25/23 Q1016 NOSIG=
201209261800 METAR LMML NIL=
201209261745 METAR LMML 261745Z 12009KT 9000 SCT004 25/23 Q1016 TEMPO
                        BKN003=
201209261730 METAR LMML NIL=
201209261715 METAR LMML 261715Z 12009KT 9999 FEW008 25/23 Q1016 TEMPO
                        9000=
201209261700 METAR LMML NIL=
201209261645 METAR LMML 261645Z 12010KT 9999 FEW008 25/23 Q1016 NOSIG=
201209261630 METAR LMML NIL=
201209261615 METAR LMML 261615Z 12011KT 9999 FEW010 26/23 Q1016 NOSIG=
201209261600 METAR LMML NIL=
201209261545 METAR LMML 261545Z 11010KT 9999 FEW012 26/23 Q1016 NOSIG=
201209261530 METAR LMML NIL=
201209261515 METAR LMML 261515Z 13010KT 9999 FEW012 27/23 Q1016 NOSIG=
201209261500 METAR LMML NIL=
201209261445 METAR LMML 261445Z 12009KT 9999 FEW020 27/23 Q1016 NOSIG=
201209261430 METAR LMML NIL=
201209261415 METAR LMML 261415Z 10008KT 080V150 9999 FEW025 27/23 Q1016
                        NOSIG=
201209261400 METAR LMML NIL=
201209261345 METAR LMML 261345Z 10008KT 080V150 9999 FEW025 27/23 Q1016
                        NOSIG=
201209261330 METAR LMML NIL=
201209261315 METAR LMML 261315Z 11008KT 9999 FEW025 28/23 Q1016 NOSIG=
201209261300 METAR LMML NIL=
201209261245 METAR LMML 261245Z AUTO 11007KT 090V160 CAVOK 28/23 Q1017=
201209261230 METAR LMML NIL=
201209261215 METAR LMML 261215Z 14007KT 080V160 9999 FEW030 28/23 Q1017
                        NOSIG=
201209261200 METAR LMML NIL=
201209261145 METAR LMML 261145Z 13008KT CAVOK 28/22 Q1017 NOSIG=
201209261130 METAR LMML NIL=
201209261115 METAR LMML 261115Z 14009KT 9999 FEW030 29/22 Q1017 NOSIG=
201209261100 METAR LMML NIL=
201209261045 METAR LMML 261045Z 11007KT 080V160 CAVOK 29/22 Q1017 NOSIG=
201209261030 METAR LMML NIL=
201209261015 METAR LMML 261015Z 13008KT 100V170 CAVOK 29/22 Q1017 NOSIG=
201209261000 METAR LMML NIL=
201209260945 METAR LMML 260945Z 13008KT CAVOK 28/21 Q1017 NOSIG=
201209260930 METAR LMML NIL=
201209260915 METAR LMML 260915Z AUTO 14010KT CAVOK 29/22 Q1017=
201209260900 METAR LMML NIL=
201209260845 METAR LMML 260845Z 15010KT CAVOK 28/22 Q1017 NOSIG=
201209260830 METAR LMML NIL=
201209260815 METAR LMML 260815Z 13011KT CAVOK 27/21 Q1017 NOSIG=
201209260800 METAR LMML NIL=
201209260745 METAR LMML 260745Z 14009KT CAVOK 27/22 Q1017 NOSIG=
201209260730 METAR LMML NIL=
201209260715 METAR LMML 260715Z 15011KT CAVOK 27/22 Q1016 NOSIG=
201209260700 METAR LMML NIL=
201209260645 METAR LMML 260645Z 13008KT CAVOK 26/22 Q1016 NOSIG=
201209260630 METAR LMML NIL=
201209260615 METAR LMML 260615Z 15007KT CAVOK 25/22 Q1016 NOSIG=
201209260600 METAR LMML NIL=
201209260545 METAR LMML 260545Z 15008KT CAVOK 24/21 Q1016 NOSIG=
201209260530 METAR LMML NIL=
201209260515 METAR LMML 260515Z 16009KT CAVOK 25/21 Q1015 NOSIG=
201209260500 METAR LMML NIL=
201209260445 METAR LMML 260445Z 16012KT CAVOK 24/21 Q1015 NOSIG=
201209260430 METAR LMML NIL=
201209260415 METAR LMML 260415Z 15013KT CAVOK 24/21 Q1015 NOSIG=
201209260400 METAR LMML NIL=
201209260345 METAR LMML 260345Z 15011KT CAVOK 24/21 Q1015 NOSIG=
201209260330 METAR LMML NIL=
201209260315 METAR LMML 260315Z 15011KT CAVOK 23/21 Q1015 NOSIG=
201209260300 METAR LMML NIL=
201209260245 METAR LMML 260245Z AUTO 15011KT CAVOK 24/21 Q1015=
201209260230 METAR LMML NIL=
201209260215 METAR LMML 260215Z AUTO 15009KT CAVOK 23/21 Q1015=
201209260200 METAR LMML NIL=
201209260145 METAR LMML 260145Z AUTO 14008KT CAVOK 22/21 Q1015=
201209260130 METAR LMML NIL=
201209260115 METAR LMML 260115Z AUTO 15008KT CAVOK 23/21 Q1015=
201209260100 METAR LMML NIL=
201209260045 METAR LMML 260045Z AUTO 13007KT CAVOK 22/20 Q1015=
201209260030 METAR LMML NIL=
201209260015 METAR LMML 260015Z AUTO 13007KT 7000NDV NCD 23/20 Q1015=
201209260000 METAR LMML NIL=
201209252345 METAR LMML 252345Z AUTO 12004KT 6000NDV NCD 23/20 Q1016=
201209252330 METAR LMML NIL=
201209252315 METAR LMML 252315Z AUTO 11005KT CAVOK 23/19 Q1016=
201209252300 METAR LMML NIL=
201209252245 METAR LMML 252245Z AUTO 08003KT CAVOK 23/19 Q1016=
201209252230 METAR LMML NIL=
201209252215 METAR LMML 252215Z AUTO 07002KT CAVOK 24/19 Q1016=
201209252200 METAR LMML NIL=
201209252145 METAR LMML 252145Z AUTO VRB02KT CAVOK 24/18 Q1016=
201209252130 METAR LMML NIL=
201209252115 METAR LMML 252115Z AUTO 10003KT 070V130 8000NDV NCD 24/19
                        Q1016=
201209252100 METAR LMML NIL=
201209252045 METAR LMML 252045Z AUTO 12004KT CAVOK 24/20 Q1016=
201209252030 METAR LMML NIL=
201209252015 METAR LMML 252015Z AUTO 11004KT 6000NDV NCD 24/22 Q1016=
201209252000 METAR LMML NIL=
201209251945 METAR LMML 251945Z 10004KT CAVOK 24/22 Q1016 NOSIG=
201209251930 METAR LMML NIL=
201209251915 METAR LMML 251915Z 09007KT CAVOK 25/21 Q1016 NOSIG=
201209251900 METAR LMML NIL=
201209251845 METAR LMML 251845Z 09007KT CAVOK 25/19 Q1016 NOSIG=
201209251830 METAR LMML NIL=
201209251815 METAR LMML 251815Z VRB01KT CAVOK 25/18 Q1016 NOSIG=
201209251800 METAR LMML NIL=
201209251745 METAR LMML 251745Z VRB01KT CAVOK 25/18 Q1015 NOSIG=
201209251730 METAR LMML NIL=
201209251715 METAR LMML 251715Z VRB02KT CAVOK 25/19 Q1015 NOSIG=
201209251700 METAR LMML NIL=
201209251645 METAR LMML 251645Z 15006KT CAVOK 26/18 Q1015 NOSIG=
201209251630 METAR LMML NIL=
201209251615 METAR LMML 251615Z 14008KT CAVOK 27/17 Q1015 NOSIG=
201209251600 METAR LMML NIL=
201209251545 METAR LMML 251545Z 05004KT 350V080 CAVOK 29/16 Q1014 NOSIG=
201209251530 METAR LMML NIL=
201209251515 METAR LMML 251515Z 04005KT CAVOK 30/14 Q1014 NOSIG=
201209251500 METAR LMML NIL=
201209251445 METAR LMML 251445Z 06004KT 020V080 CAVOK 30/14 Q1014 NOSIG=
201209251430 METAR LMML NIL=
201209251415 METAR LMML 251415Z 05007KT CAVOK 31/14 Q1014 NOSIG=
201209251400 METAR LMML NIL=
201209251345 METAR LMML 251345Z 04005KT 320V070 CAVOK 31/14 Q1014 NOSIG=
201209251330 METAR LMML NIL=
201209251315 METAR LMML 251315Z 05007KT CAVOK 31/15 Q1014 NOSIG=
201209251300 METAR LMML NIL=
201209251245 METAR LMML 251245Z 02005KT 330V050 CAVOK 31/15 Q1015 NOSIG=
201209251230 METAR LMML NIL=
201209251215 METAR LMML 251215Z 02007KT 350V080 CAVOK 31/14 Q1015 NOSIG=
201209251200 METAR LMML NIL=
201209251145 METAR LMML 251145Z 02010KT CAVOK 31/14 Q1015 NOSIG=
201209251130 METAR LMML NIL=
201209251115 METAR LMML 251115Z 04009KT CAVOK 31/15 Q1015 NOSIG=
201209251100 METAR LMML NIL=
201209251045 METAR LMML 251045Z AUTO 02010KT CAVOK 31/15 Q1015=
201209251030 METAR LMML NIL=
201209251015 METAR LMML 251015Z AUTO 01009KT CAVOK 30/16 Q1015=
201209251000 METAR LMML NIL=
201209250945 METAR LMML 250945Z 02009KT 330V040 CAVOK 31/16 Q1015 NOSIG=
201209250930 METAR LMML NIL=
201209250915 METAR LMML 250915Z 02006KT CAVOK 30/17 Q1015 NOSIG=
201209250900 METAR LMML NIL=
201209250845 METAR LMML 250845Z 36007KT 330V030 CAVOK 30/17 Q1015 NOSIG=
201209250830 METAR LMML NIL=
201209250815 METAR LMML 250815Z 34012KT CAVOK 29/17 Q1015 NOSIG=
201209250800 METAR LMML NIL=
201209250745 METAR LMML 250745Z 33011KT CAVOK 28/18 Q1015 NOSIG=
201209250730 METAR LMML NIL=
201209250715 METAR LMML 250715Z 34009KT CAVOK 27/19 Q1015 NOSIG=
201209250700 METAR LMML NIL=
201209250645 METAR LMML 250645Z 34008KT CAVOK 26/19 Q1014 NOSIG=
201209250630 METAR LMML NIL=
201209250615 METAR LMML 250615Z 33011KT CAVOK 25/21 Q1014 NOSIG=
201209250600 METAR LMML NIL=
201209250545 METAR LMML 250545Z 32009KT CAVOK 24/21 Q1014 NOSIG=
201209250530 METAR LMML NIL=
201209250515 METAR LMML 250515Z 32008KT CAVOK 23/20 Q1014 NOSIG=
201209250500 METAR LMML NIL=
201209250445 METAR LMML 250445Z 31008KT CAVOK 24/17 Q1013 NOSIG=
201209250430 METAR LMML NIL=
201209250415 METAR LMML 250415Z 31005KT CAVOK 23/17 Q1013 NOSIG=
201209250400 METAR LMML NIL=
201209250345 METAR LMML 250345Z 34005KT CAVOK 23/18 Q1013 NOSIG=
201209250330 METAR LMML NIL=
201209250315 METAR LMML 250315Z 34008KT CAVOK 22/18 Q1013 NOSIG=
201209250300 METAR LMML NIL=
201209250245 METAR LMML 250245Z AUTO 34008KT CAVOK 23/19 Q1013=
201209250230 METAR LMML NIL=
201209250215 METAR LMML 250215Z AUTO 35008KT CAVOK 23/19 Q1013=
201209250200 METAR LMML NIL=
201209250145 METAR LMML 250145Z AUTO 35010KT CAVOK 24/21 Q1014=
201209250130 METAR LMML NIL=
201209250115 METAR LMML 250115Z AUTO 34010KT 9000NDV NCD 24/22 Q1014=
201209250100 METAR LMML NIL=
201209250045 METAR LMML 250045Z AUTO 36010KT CAVOK 24/21 Q1014=
201209250030 METAR LMML NIL=
201209250015 METAR LMML 250015Z AUTO 35009KT CAVOK 24/22 Q1014=
201209250000 METAR LMML NIL=
201209242345 METAR LMML 242345Z AUTO 34009KT CAVOK 24/21 Q1015=
201209242330 METAR LMML NIL=
201209242315 METAR LMML 242315Z AUTO 31008KT CAVOK 24/21 Q1015=
201209242300 METAR LMML NIL=
201209242245 METAR LMML 242245Z AUTO 31011KT CAVOK 25/21 Q1015=
201209242230 METAR LMML NIL=
201209242215 METAR LMML 242215Z AUTO 28011KT CAVOK 25/24 Q1015=
201209242200 METAR LMML NIL=
201209242145 METAR LMML 242145Z AUTO 26010KT CAVOK 25/24 Q1015=
201209242130 METAR LMML NIL=
201209242115 METAR LMML 242115Z AUTO 25009KT CAVOK 25/23 Q1015=
201209242100 METAR LMML NIL=
201209242045 METAR LMML 242045Z AUTO 25009KT CAVOK 25/23 Q1015=
201209242030 METAR LMML NIL=
201209242015 METAR LMML 242015Z AUTO 26008KT CAVOK 25/23 Q1015=
201209242000 METAR LMML NIL=
201209241945 METAR LMML 241945Z 25008KT 220V280 CAVOK 25/23 Q1015 NOSIG=
201209241930 METAR LMML NIL=
201209241915 METAR LMML 241915Z 25008KT CAVOK 25/24 Q1015 NOSIG=
201209241900 METAR LMML NIL=
201209241845 METAR LMML 241845Z 24007KT CAVOK 26/24 Q1015 NOSIG=
201209241830 METAR LMML NIL=
201209241815 METAR LMML 241815Z 24004KT 200V290 CAVOK 25/24 Q1015 NOSIG=
201209241800 METAR LMML NIL=
201209241745 METAR LMML 241745Z 22003KT 180V280 CAVOK 26/24 Q1015 NOSIG=
201209241730 METAR LMML NIL=
201209241715 METAR LMML 241715Z VRB04KT CAVOK 26/24 Q1015 NOSIG=
201209241700 METAR LMML NIL=
201209241645 METAR LMML 241645Z 22008KT 190V250 CAVOK 26/24 Q1014 NOSIG=
201209241630 METAR LMML NIL=
201209241615 METAR LMML 241615Z 22009KT CAVOK 27/24 Q1015 NOSIG=
201209241600 METAR LMML NIL=
201209241545 METAR LMML 241545Z 22008KT 180V250 CAVOK 28/23 Q1015 NOSIG=
201209241530 METAR LMML NIL=
201209241515 METAR LMML 241515Z 24006KT 200V280 CAVOK 28/23 Q1015 NOSIG=
201209241500 METAR LMML NIL=
201209241445 METAR LMML 241445Z 24008KT CAVOK 29/23 Q1015 NOSIG=
201209241430 METAR LMML NIL=
201209241415 METAR LMML 241415Z 25009KT 210V280 CAVOK 29/22 Q1015 NOSIG=
201209241400 METAR LMML NIL=
201209241345 METAR LMML 241345Z 26007KT 220V300 CAVOK 29/22 Q1015 NOSIG=
201209241330 METAR LMML NIL=
201209241315 METAR LMML 241315Z AUTO 24008KT 210V270 CAVOK 29/22 Q1016=
201209241300 METAR LMML NIL=
201209241245 METAR LMML 241245Z 26009KT CAVOK 30/22 Q1016 NOSIG=
201209241230 METAR LMML NIL=
201209241200 METAR LMML NIL=
201209241145 METAR LMML 241145Z 24009KT CAVOK 29/23 Q1016 NOSIG=
201209241130 METAR LMML NIL=
201209241115 METAR LMML 241115Z 25010KT 210V280 CAVOK 29/23 Q1016 NOSIG=
201209241100 METAR LMML NIL=
201209241045 METAR LMML 241045Z 25009KT 210V280 9999 FEW012 29/23 Q1017
                        NOSIG=
201209241030 METAR LMML NIL=
201209241015 METAR LMML 241015Z 23009KT 190V250 9999 FEW007 28/24 Q1017
                        NOSIG=
201209241000 METAR LMML NIL=
201209240945 METAR LMML 240945Z AUTO 24009KT CAVOK 28/24 Q1017=
201209240930 METAR LMML NIL=
201209240915 METAR LMML 240915Z AUTO 23009KT 200V260 CAVOK 28/24 Q1017=
201209240900 METAR LMML NIL=
201209240845 METAR LMML 240845Z 24006KT 190V270 9999 FEW007 28/24 Q1017
                        NOSIG=
201209240830 METAR LMML NIL=
201209240815 METAR LMML 240815Z 23007KT 9999 FEW007 27/24 Q1017 NOSIG=
201209240800 METAR LMML NIL=
201209240745 METAR LMML 240745Z 24009KT 9999 FEW007 27/24 Q1017 NOSIG=
201209240730 METAR LMML NIL=
201209240715 METAR LMML 240715Z 24010KT 9999 FEW007 26/24 Q1017 NOSIG=
201209240700 METAR LMML NIL=
201209240645 METAR LMML 240645Z 24006KT 200V270 9999 FEW007 26/24 Q1017
                        NOSIG=
201209240630 METAR LMML NIL=
201209240615 METAR LMML 240615Z 24006KT 9999 FEW015 25/24 Q1017 NOSIG=
201209240600 METAR LMML NIL=
201209240545 METAR LMML 240545Z 25005KT 220V280 9999 FEW015 24/23 Q1017
                        NOSIG=
201209240530 METAR LMML NIL=
201209240515 METAR LMML 240515Z 25005KT CAVOK 24/23 Q1016 NOSIG=
201209240500 METAR LMML NIL=
201209240445 METAR LMML 240445Z 24007KT CAVOK 24/23 Q1016 NOSIG=
201209240430 METAR LMML NIL=
201209240415 METAR LMML 240415Z 27004KT 240V310 CAVOK 24/22 Q1016 NOSIG=
201209240400 METAR LMML NIL=
201209240345 METAR LMML 240345Z 23005KT 200V260 CAVOK 24/22 Q1016 NOSIG=
201209240330 METAR LMML NIL=
201209240315 METAR LMML 240315Z 24004KT 200V270 CAVOK 24/22 Q1016 NOSIG=
201209240300 METAR LMML NIL=
201209240245 METAR LMML 240245Z AUTO 23004KT 180V260 CAVOK 24/21 Q1016=
201209240215 METAR LMML 240215Z AUTO 22005KT 190V250 CAVOK 24/21 Q1016=
201209240200 METAR LMML NIL=
201209240145 METAR LMML 240145Z AUTO 22005KT 190V250 CAVOK 24/21 Q1017=
201209240130 METAR LMML NIL=
201209240115 METAR LMML 240115Z AUTO 22005KT CAVOK 24/21 Q1017=
201209240100 METAR LMML NIL=
201209240045 METAR LMML 240045Z AUTO 23009KT CAVOK 24/21 Q1017=
201209240030 METAR LMML NIL=
201209240015 METAR LMML 240015Z AUTO 22006KT 190V250 CAVOK 24/21 Q1017=
201209240000 METAR LMML NIL=
201209232345 METAR LMML 232345Z AUTO 22006KT 190V250 CAVOK 24/22 Q1017=
201209232330 METAR LMML NIL=
201209232315 METAR LMML 232315Z AUTO 22007KT CAVOK 24/22 Q1017=
201209232300 METAR LMML NIL=
201209232245 METAR LMML 232245Z AUTO 22006KT 170V240 CAVOK 24/22 Q1018=
201209232230 METAR LMML NIL=
201209232215 METAR LMML 232215Z AUTO 21007KT CAVOK 24/22 Q1018=
201209232200 METAR LMML NIL=
201209232145 METAR LMML 232145Z AUTO 21007KT CAVOK 24/22 Q1018=
201209232130 METAR LMML NIL=
201209232115 METAR LMML 232115Z AUTO 21007KT 180V240 CAVOK 24/22 Q1018=
201209232045 METAR LMML 232045Z AUTO 22007KT 180V250 CAVOK 24/23 Q1018=
201209232015 METAR LMML 232015Z AUTO 21006KT 190V250 CAVOK 24/22 Q1018=
201209232000 METAR LMML NIL=
201209231945 METAR LMML 231945Z 22005KT 180V240 9999 FEW012 24/22 Q1019
                        NOSIG=
201209231915 METAR LMML 231915Z 22006KT 190V250 9999 FEW012 24/22 Q1019
                        NOSIG=
201209231900 METAR LMML NIL=
201209231845 METAR LMML 231845Z 21006KT 9999 FEW012 25/22 Q1019 NOSIG=
201209231830 METAR LMML NIL=
201209231815 METAR LMML 231815Z 22004KT 190V260 9999 FEW012 25/22 Q1019
                        NOSIG=
201209231745 METAR LMML 231745Z 22006KT 9999 FEW012 25/22 Q1018 NOSIG=
201209231730 METAR LMML NIL=
201209231715 METAR LMML 231715Z 21008KT 180V240 9999 FEW012 25/22 Q1018
                        NOSIG=
201209231700 METAR LMML NIL=
201209231645 METAR LMML 231645Z 21008KT 190V250 9999 FEW012 25/22 Q1019
                        NOSIG=
201209231630 METAR LMML NIL=
201209231615 METAR LMML 231615Z 21008KT 190V250 9999 FEW013 26/22 Q1019
                        NOSIG=
201209231600 METAR LMML NIL=
201209231545 METAR LMML 231545Z 21008KT 180V240 9999 SCT013 26/22 Q1019
                        NOSIG=
201209231530 METAR LMML NIL=
201209231515 METAR LMML 231515Z 24009KT 200V260 9999 SCT013 27/23 Q1019
                        NOSIG=
201209231500 METAR LMML NIL=
201209231445 METAR LMML 231445Z 22010KT 190V250 9999 SCT013 27/23 Q1019
                        BECMG FEW012=
201209231430 METAR LMML NIL=
201209231415 METAR LMML 231415Z 21010KT 180V250 9999 BKN013 27/23 Q1019
                        NOSIG=
201209231400 METAR LMML NIL=
201209231345 METAR LMML 231345Z 22010KT 190V250 9999 SCT014 27/23 Q1019
                        NOSIG=
201209231330 METAR LMML NIL=
201209231315 METAR LMML 231315Z 21010KT 9999 SCT014 27/23 Q1019 NOSIG=
201209231300 METAR LMML NIL=
201209231245 METAR LMML 231245Z AUTO 22009KT 190V260 9999NDV BKN015///
                        27/23 Q1019=
201209231230 METAR LMML NIL=
201209231215 METAR LMML 231215Z 23008KT 190V250 9999 SCT015 28/23 Q1020
                        NOSIG=
201209231200 METAR LMML NIL=
201209231145 METAR LMML 231145Z 23007KT 190V260 9999 SCT015 28/23 Q1020
                        NOSIG=
201209231130 METAR LMML NIL=
201209231115 METAR LMML 231115Z 22008KT 190V260 9999 FEW016 28/23 Q1020
                        NOSIG=
201209231100 METAR LMML NIL=
201209231045 METAR LMML 231045Z 21010KT 180V270 9999 FEW016 28/23 Q1020
                        NOSIG=
201209231030 METAR LMML NIL=
201209231015 METAR LMML 231015Z 24008KT 160V270 9999 FEW015 28/23 Q1020
                        NOSIG=
201209231000 METAR LMML NIL=
201209230945 METAR LMML 230945Z 22008KT 190V250 9999 SCT015 27/22 Q1020
                        NOSIG=
201209230930 METAR LMML NIL=
201209230915 METAR LMML 230915Z 22008KT 190V270 9999 SCT014 27/22 Q1020
                        NOSIG=
201209230900 METAR LMML NIL=
201209230845 METAR LMML 230845Z 23009KT 190V260 9999 FEW015 27/22 Q1020
                        NOSIG=
201209230830 METAR LMML NIL=
201209230815 METAR LMML 230815Z 23009KT 190V270 9999 FEW015 27/22 Q1020
                        NOSIG=
201209230800 METAR LMML NIL=
201209230745 METAR LMML 230745Z 23008KT 200V270 9999 FEW015 27/22 Q1020
                        NOSIG=
201209230730 METAR LMML NIL=
201209230715 METAR LMML 230715Z 23009KT 200V260 9999 FEW020 26/22 Q1020
                        NOSIG=
201209230700 METAR LMML NIL=
201209230645 METAR LMML 230645Z 23008KT 9999 FEW020 26/22 Q1020 NOSIG=
201209230630 METAR LMML NIL=
201209230615 METAR LMML 230615Z 23007KT 200V260 9999 FEW015 25/22 Q1020
                        NOSIG=
201209230600 METAR LMML NIL=
201209230545 METAR LMML 230545Z 23005KT 200V260 9999 FEW012 25/22 Q1020
                        NOSIG=
201209230530 METAR LMML NIL=
201209230515 METAR LMML 230515Z 23005KT 190V270 9999 FEW012 24/21 Q1019
                        NOSIG=
201209230500 METAR LMML NIL=
201209230445 METAR LMML 230445Z 22005KT 190V250 CAVOK 24/21 Q1019 TEMPO
                        9999 FEW012=
201209230430 METAR LMML NIL=
201209230415 METAR LMML 230415Z 23006KT CAVOK 24/21 Q1019 TEMPO 9999 FEW012=
201209230345 METAR LMML 230345Z 22005KT 190V260 CAVOK 24/21 Q1019 TEMPO
                        9999 FEW012=
201209230330 METAR LMML NIL=
201209230315 METAR LMML 230315Z 22005KT 190V270 CAVOK 24/21 Q1019 TEMPO
                        9999 FEW012=
201209230300 METAR LMML NIL=
201209230245 METAR LMML 230245Z AUTO 21005KT 180V240 CAVOK 24/21 Q1019=
201209230230 METAR LMML NIL=
201209230215 METAR LMML 230215Z AUTO 21006KT CAVOK 24/21 Q1019=
201209230200 METAR LMML NIL=
201209230145 METAR LMML 230145Z AUTO 21006KT CAVOK 24/21 Q1019=
201209230130 METAR LMML NIL=
201209230115 METAR LMML 230115Z AUTO 21005KT CAVOK 24/21 Q1019=
201209230100 METAR LMML NIL=
201209230045 METAR LMML 230045Z AUTO 21005KT CAVOK 24/21 Q1019=
201209230030 METAR LMML NIL=
201209230015 METAR LMML 230015Z AUTO 21005KT CAVOK 24/21 Q1019=
201209230000 METAR LMML NIL=
201209222345 METAR LMML 222345Z AUTO 21005KT CAVOK 24/21 Q1020=
201209222330 METAR LMML NIL=
201209222315 METAR LMML 222315Z AUTO 21004KT CAVOK 24/21 Q1020=
201209222300 METAR LMML NIL=
201209222245 METAR LMML 222245Z AUTO 22005KT CAVOK 24/21 Q1020=
201209222230 METAR LMML NIL=
201209222215 METAR LMML 222215Z AUTO 23005KT CAVOK 24/21 Q1020=
201209222200 METAR LMML NIL=
201209222145 METAR LMML 222145Z AUTO 22004KT CAVOK 24/21 Q1020=
201209222115 METAR LMML 222115Z AUTO 22004KT CAVOK 24/21 Q1020=
201209222100 METAR LMML NIL=
201209222045 METAR LMML 222045Z AUTO 23003KT CAVOK 24/21 Q1020=
201209222030 METAR LMML NIL=
201209222015 METAR LMML 222015Z AUTO 22004KT CAVOK 24/21 Q1020=
201209222000 METAR LMML NIL=
201209221945 METAR LMML 221945Z 23005KT 9999 FEW019 24/21 Q1020 NOSIG=
201209221930 METAR LMML NIL=
201209221915 METAR LMML 221915Z 22003KT 180V240 9999 FEW019 24/21 Q1020
                        NOSIG=
201209221900 METAR LMML NIL=
201209221845 METAR LMML 221845Z 22004KT 9999 FEW019 25/21 Q1019 NOSIG=
201209221830 METAR LMML NIL=
201209221815 METAR LMML 221815Z 22003KT 190V260 9999 FEW019 25/21 Q1019
                        NOSIG=
201209221800 METAR LMML NIL=
201209221745 METAR LMML 221745Z 24005KT 9999 FEW019 25/21 Q1019 NOSIG=
201209221730 METAR LMML NIL=
201209221715 METAR LMML 221715Z 23005KT 190V260 9999 FEW020 25/21 Q1019
                        NOSIG=
201209221700 METAR LMML NIL=
201209221645 METAR LMML 221645Z 24005KT 210V290 9999 FEW020 26/21 Q1019
                        NOSIG=
201209221630 METAR LMML NIL=
201209221615 METAR LMML 221615Z 24007KT 9999 SCT020 26/21 Q1019 NOSIG=
201209221600 METAR LMML NIL=
201209221545 METAR LMML 221545Z 24007KT 9999 SCT023 27/21 Q1019 NOSIG=
201209221530 METAR LMML NIL=
201209221515 METAR LMML 221515Z 23007KT 190V270 9999 SCT023 27/21 Q1019
                        NOSIG=
201209221445 METAR LMML 221445Z 23008KT 190V260 9999 SCT025 28/21 Q1019
                        NOSIG=
201209221430 METAR LMML NIL=
201209221415 METAR LMML 221415Z 24008KT 200V290 9999 SCT024 28/21 Q1019
                        NOSIG=
201209221400 METAR LMML NIL=
201209221345 METAR LMML 221345Z 24008KT 190V280 9999 SCT024 28/20 Q1019
                        NOSIG=
201209221330 METAR LMML NIL=
201209221315 METAR LMML 221315Z 22009KT 170V250 9999 SCT024 28/20 Q1019
                        NOSIG=
201209221300 METAR LMML NIL=
201209221245 METAR LMML 221245Z AUTO 24009KT 200V270 9999NDV FEW025///
                        SCT029/// 28/20 Q1019=
201209221230 METAR LMML NIL=
201209221215 METAR LMML 221215Z 23010KT 200V260 9999 SCT024 28/20 Q1019
                        NOSIG=
201209221200 METAR LMML NIL=
201209221145 METAR LMML 221145Z 21010KT 9999 SCT024 27/20 Q1020 NOSIG=
201209221130 METAR LMML NIL=
201209221115 METAR LMML 221115Z 22009KT 180V250 9999 SCT024 28/20 Q1020
                        NOSIG=
201209221100 METAR LMML NIL=
201209221045 METAR LMML 221045Z 21009KT 9999 SCT024 28/20 Q1020 NOSIG=
201209221030 METAR LMML NIL=
201209221015 METAR LMML 221015Z 21009KT 9999 SCT024 27/20 Q1020 NOSIG=
201209221000 METAR LMML NIL=
201209220945 METAR LMML 220945Z 22008KT 180V270 9999 SCT024 27/20 Q1020
                        NOSIG=
201209220930 METAR LMML NIL=
201209220915 METAR LMML 220915Z 23008KT 190V270 9999 SCT024 27/20 Q1020
                        NOSIG=
201209220900 METAR LMML NIL=
201209220845 METAR LMML 220845Z 22009KT 180V250 9999 SCT026 27/20 Q1020
                        NOSIG=
201209220830 METAR LMML NIL=
201209220815 METAR LMML 220815Z 22007KT 190V250 9999 SCT025 26/20 Q1020
                        NOSIG=
201209220800 METAR LMML NIL=
201209220745 METAR LMML 220745Z 22007KT 190V250 9999 SCT024 26/20 Q1020
                        NOSIG=
201209220715 METAR LMML 220715Z 21006KT 190V250 9999 SCT026 26/20 Q1020
                        NOSIG=
201209220700 METAR LMML NIL=
201209220645 METAR LMML 220645Z 21003KT 170V260 9999 SCT022 26/21 Q1020
                        NOSIG=
201209220630 METAR LMML NIL=
201209220615 METAR LMML 220615Z VRB01KT 9999 FEW022 23/21 Q1019 NOSIG=
201209220545 METAR LMML 220545Z VRB01KT 9999 FEW023 21/20 Q1019 NOSIG=
201209220515 METAR LMML 220515Z VRB01KT 9999 FEW023 20/19 Q1019 NOSIG=
201209220500 METAR LMML NIL=
201209220445 METAR LMML 220445Z 36001KT 9000 FEW023 20/19 Q1019 BECMG
                        9999=
201209220430 METAR LMML NIL=
201209220415 METAR LMML 220415Z VRB01KT 9000 FEW020 20/19 Q1019 BECMG
                        9999=
201209220400 METAR LMML NIL=
201209220345 METAR LMML 220345Z 32001KT 9000 FEW021 20/19 Q1019 BECMG
                        9999=
201209220330 METAR LMML NIL=
201209220315 METAR LMML 220315Z 30001KT 9000 FEW021 20/19 Q1019=
201209220300 METAR LMML NIL=
201209220245 METAR LMML 220245Z AUTO 00000KT 7000NDV NCD 20/19 Q1019=
201209220230 METAR LMML NIL=
201209220215 METAR LMML 220215Z AUTO 09001KT 9000NDV NCD 21/19 Q1019=
201209220200 METAR LMML NIL=
201209220145 METAR LMML 220145Z AUTO 03001KT CAVOK 21/19 Q1019=
201209220130 METAR LMML NIL=
201209220115 METAR LMML 220115Z AUTO 04001KT CAVOK 21/19 Q1020=
201209220100 METAR LMML NIL=
201209220045 METAR LMML 220045Z AUTO 03001KT CAVOK 21/19 Q1020=
201209220030 METAR LMML NIL=
201209220015 METAR LMML 220015Z AUTO VRB01KT CAVOK 21/19 Q1020=
201209220000 METAR LMML NIL=
201209212345 METAR LMML 212345Z AUTO 18002KT CAVOK 22/20 Q1020=
201209212330 METAR LMML NIL=
201209212315 METAR LMML 212315Z AUTO 18002KT CAVOK 22/20 Q1020=
201209212300 METAR LMML NIL=
201209212245 METAR LMML 212245Z AUTO 19002KT CAVOK 22/20 Q1020=
201209212230 METAR LMML NIL=
201209212215 METAR LMML 212215Z AUTO 18003KT CAVOK 23/20 Q1020=
201209212200 METAR LMML NIL=
201209212145 METAR LMML 212145Z AUTO 18004KT CAVOK 23/20 Q1021=
201209212130 METAR LMML NIL=
201209212115 METAR LMML 212115Z AUTO 18004KT CAVOK 23/20 Q1021=
201209212100 METAR LMML NIL=
201209212045 METAR LMML 212045Z 17006KT 9999 FEW022 23/20 Q1021 NOSIG=
201209212030 METAR LMML NIL=
201209212015 METAR LMML 212015Z 17004KT 9999 FEW021 23/20 Q1021 NOSIG=
201209212000 METAR LMML NIL=
201209211945 METAR LMML 211945Z 18005KT 9999 FEW020 24/20 Q1021 NOSIG=
201209211930 METAR LMML NIL=
201209211915 METAR LMML 211915Z 18003KT 9999 FEW020 23/20 Q1021 NOSIG=
201209211900 METAR LMML NIL=
201209211845 METAR LMML 211845Z 16004KT 9999 FEW020 24/20 Q1020 NOSIG=
201209211830 METAR LMML NIL=
201209211815 METAR LMML 211815Z 18005KT 9999 FEW020 24/20 Q1020 NOSIG=
201209211800 METAR LMML NIL=
201209211745 METAR LMML 211745Z 18003KT 150V210 9999 FEW020 24/20 Q1020
                        NOSIG=
201209211730 METAR LMML NIL=
201209211715 METAR LMML 211715Z 18004KT 9999 FEW020 24/20 Q1020 NOSIG=
201209211700 METAR LMML NIL=
201209211645 METAR LMML 211645Z 19005KT 160V220 9999 FEW021 25/20 Q1020
                        NOSIG=
201209211630 METAR LMML NIL=
201209211615 METAR LMML 211615Z 20006KT 170V250 9999 FEW022 25/20 Q1020
                        NOSIG=
201209211600 METAR LMML NIL=
201209211545 METAR LMML 211545Z 21006KT 160V260 9999 FEW020 26/20 Q1020
                        NOSIG=
201209211530 METAR LMML NIL=
201209211515 METAR LMML 211515Z 21007KT 9999 FEW021 26/20 Q1020 NOSIG=
201209211500 METAR LMML NIL=
201209211445 METAR LMML 211445Z 19007KT 160V230 9999 FEW020 26/20 Q1020
                        NOSIG=
201209211430 METAR LMML NIL=
201209211415 METAR LMML 211415Z 21006KT 150V250 9999 FEW021 27/20 Q1020
                        NOSIG=
201209211400 METAR LMML NIL=
201209211345 METAR LMML 211345Z 20005KT 160V260 9999 FEW022 27/20 Q1021
                        NOSIG=
201209211330 METAR LMML NIL=
201209211315 METAR LMML 211315Z 19007KT 160V250 9999 FEW021 27/20 Q1021
                        NOSIG=
201209211300 METAR LMML NIL=
201209211245 METAR LMML 211245Z 19009KT 150V230 9999 FEW020 27/20 Q1021
                        NOSIG=
201209211230 METAR LMML NIL=
201209211215 METAR LMML 211215Z 20007KT 160V250 9999 FEW020 27/20 Q1021
                        NOSIG=
201209211200 METAR LMML NIL=
201209211145 METAR LMML 211145Z 21008KT 150V230 9999 FEW020 27/21 Q1021
                        NOSIG=
201209211130 METAR LMML NIL=
201209211115 METAR LMML 211115Z AUTO 20009KT 150V220 9999NDV FEW019///
                        27/21 Q1022=
201209211100 METAR LMML NIL=
201209211045 METAR LMML 211045Z AUTO 19009KT 160V230 9999NDV FEW020///
                        27/21 Q1022=
201209211030 METAR LMML NIL=
201209211015 METAR LMML 211015Z 19007KT 160V240 9999 FEW019 27/21 Q1022
                        NOSIG=
201209211000 METAR LMML NIL=
201209210945 METAR LMML 210945Z 18009KT 160V220 9999 SCT018 26/20 Q1021
                        NOSIG=
201209210930 METAR LMML NIL=
201209210915 METAR LMML 210915Z 18009KT 140V220 9999 SCT019 26/20 Q1021
                        NOSIG=
201209210900 METAR LMML NIL=
201209210845 METAR LMML 210845Z 18010KT 160V220 9999 SCT019 26/20 Q1021
                        NOSIG=
201209210830 METAR LMML NIL=
201209210815 METAR LMML 210815Z 16008KT 130V190 9999 SCT017 25/21 Q1021
                        NOSIG=
201209210800 METAR LMML NIL=
201209210745 METAR LMML 210745Z 15009KT 120V190 9999 SCT016 25/21 Q1021
                        NOSIG=
201209210730 METAR LMML NIL=
201209210715 METAR LMML 210715Z 15011KT 9999 SCT015 24/21 Q1021 TEMPO
                        BKN015=
201209210700 METAR LMML NIL=
201209210645 METAR LMML 210645Z 15008KT 9999 FEW015 24/21 Q1020 NOSIG=
201209210630 METAR LMML NIL=
201209210615 METAR LMML 210615Z 15007KT 9999 FEW011 24/21 Q1020 NOSIG=
201209210600 METAR LMML NIL=
201209210545 METAR LMML 210545Z 16008KT 9999 FEW011 23/21 Q1020 NOSIG=
201209210530 METAR LMML NIL=
201209210515 METAR LMML 210515Z 15007KT 9000 SCT009 22/21 Q1020 BECMG
                        9999=
201209210500 METAR LMML NIL=
201209210445 METAR LMML 210445Z 15007KT 6000 SCT009 21/21 Q1020 BECMG
                        9999=
201209210430 METAR LMML NIL=
201209210415 METAR LMML 210415Z 12008KT 7000 FEW015 22/21 Q1019 NOSIG=
201209210400 METAR LMML NIL=
201209210345 METAR LMML 210345Z 12004KT 9000 FEW015 21/20 Q1019 NOSIG=
201209210330 METAR LMML NIL=
201209210315 METAR LMML 210315Z 13005KT 9000 FEW015 21/21 Q1019 NOSIG=
201209210300 METAR LMML NIL=
201209210245 METAR LMML 210245Z AUTO 12006KT 7000NDV HZ NCD 22/21 Q1019=
201209210230 METAR LMML NIL=
201209210215 METAR LMML 210215Z AUTO 11005KT 7000NDV HZ NCD 22/21 Q1019=
201209210200 METAR LMML NIL=
201209210145 METAR LMML 210145Z AUTO 09004KT 7000NDV HZ NCD 22/21 Q1019=
201209210130 METAR LMML NIL=
201209210115 METAR LMML 210115Z AUTO 07006KT CAVOK 23/21 Q1019=
201209210100 METAR LMML NIL=
201209210045 METAR LMML 210045Z AUTO 06007KT CAVOK 23/20 Q1019=
201209210030 METAR LMML NIL=
201209210015 METAR LMML 210015Z AUTO 05007KT CAVOK 22/20 Q1019=
201209210000 METAR LMML NIL=
201209202345 METAR LMML 202345Z AUTO 03006KT CAVOK 22/19 Q1019=
201209202330 METAR LMML NIL=
201209202315 METAR LMML 202315Z AUTO 02004KT CAVOK 22/20 Q1019=
201209202300 METAR LMML NIL=
201209202245 METAR LMML 202245Z AUTO 02004KT CAVOK 22/20 Q1019=
201209202230 METAR LMML NIL=
201209202215 METAR LMML 202215Z AUTO 36006KT CAVOK 22/20 Q1019=
201209202200 METAR LMML NIL=
201209202145 METAR LMML 202145Z AUTO 36006KT CAVOK 22/19 Q1019=
201209202130 METAR LMML NIL=
201209202115 METAR LMML 202115Z AUTO 36009KT CAVOK 23/19 Q1019=
201209202100 METAR LMML NIL=
201209202045 METAR LMML 202045Z AUTO 01010KT CAVOK 23/19 Q1019=
201209202030 METAR LMML NIL=
201209202015 METAR LMML 202015Z AUTO 36013KT CAVOK 23/20 Q1019=
201209202000 METAR LMML NIL=
201209201945 METAR LMML 201945Z 01009KT 9999 FEW015 23/21 Q1019 NOSIG=
201209201930 METAR LMML NIL=
201209201915 METAR LMML 201915Z 36010KT 9999 FEW015 23/21 Q1019 NOSIG=
201209201900 METAR LMML NIL=
201209201845 METAR LMML 201845Z 36009KT 9999 FEW015 23/20 Q1018 NOSIG=
201209201830 METAR LMML NIL=
201209201815 METAR LMML 201815Z 35010KT 9999 FEW015 23/20 Q1018 NOSIG=
201209201800 METAR LMML NIL=
201209201745 METAR LMML 201745Z 34011KT 9999 FEW020 23/20 Q1018 NOSIG=
201209201730 METAR LMML NIL=
201209201715 METAR LMML 201715Z 33009KT 9999 FEW025 23/19 Q1018 NOSIG=
201209201700 METAR LMML NIL=
201209201645 METAR LMML 201645Z 30014KT 9999 FEW025 24/19 Q1017 NOSIG=
201209201630 METAR LMML NIL=
201209201615 METAR LMML 201615Z 30015KT 9999 FEW025 25/18 Q1017 NOSIG=
201209201600 METAR LMML NIL=
201209201545 METAR LMML 201545Z 30017KT 9999 FEW025 26/19 Q1017 NOSIG=
201209201530 METAR LMML NIL=
201209201515 METAR LMML 201515Z AUTO 31015KT CAVOK 26/19 Q1017=
201209201500 METAR LMML NIL=
201209201445 METAR LMML 201445Z 31013KT 9999 FEW025 27/20 Q1017 NOSIG=
201209201430 METAR LMML NIL=
201209201415 METAR LMML 201415Z 30014KT 9999 FEW025 27/20 Q1017 NOSIG=
201209201400 METAR LMML NIL=
201209201345 METAR LMML 201345Z 30015KT 9999 FEW025 27/20 Q1017 NOSIG=
201209201330 METAR LMML NIL=
201209201315 METAR LMML 201315Z 30012KT 260V320 9999 FEW025 27/19 Q1017
                        NOSIG=
201209201300 METAR LMML NIL=
201209201245 METAR LMML 201245Z 30012KT 9999 FEW025 28/19 Q1016 NOSIG=
201209201230 METAR LMML NIL=
201209201215 METAR LMML 201215Z 30012KT 9999 FEW025 28/18 Q1016 NOSIG=
201209201200 METAR LMML NIL=
201209201145 METAR LMML 201145Z 30009KT 270V340 9999 FEW025 28/20 Q1017
                        NOSIG=
201209201130 METAR LMML NIL=
201209201115 METAR LMML 201115Z 32009KT 280V350 9999 FEW025 28/20 Q1017
                        NOSIG=
201209201100 METAR LMML NIL=
201209201045 METAR LMML 201045Z 31007KT 270V010 9999 FEW025 28/20 Q1017
                        NOSIG=
201209201030 METAR LMML NIL=
201209201015 METAR LMML 201015Z 35007KT 320V040 9999 FEW025 27/20 Q1017
                        NOSIG=
201209201000 METAR LMML NIL=
201209200945 METAR LMML 200945Z 33008KT 300V010 9999 FEW020 27/21 Q1017
                        NOSIG=
201209200930 METAR LMML NIL=
201209200915 METAR LMML 200915Z 36008KT 9999 SCT019 27/21 Q1017 NOSIG=
201209200900 METAR LMML NIL=
201209200845 METAR LMML 200845Z 33008KT 300V010 9999 FEW019 26/20 Q1016
                        NOSIG=
201209200830 METAR LMML NIL=
201209200815 METAR LMML 200815Z 32009KT 9999 SCT017 26/21 Q1016 NOSIG=
201209200800 METAR LMML NIL=
201209200745 METAR LMML 200745Z 32007KT 290V350 9999 SCT013 25/21 Q1016
                        NOSIG=
201209200730 METAR LMML NIL=
201209200715 METAR LMML 200715Z 33009KT 9999 SCT013 25/22 Q1016 TEMPO
                        BKN010=
201209200700 METAR LMML NIL=
201209200645 METAR LMML 200645Z AUTO 32009KT 9999NDV FEW012/// 25/22 Q1015
                        NOSIG=
201209200630 METAR LMML NIL=
201209200615 METAR LMML 200615Z 30006KT 9999 FEW015 24/22 Q1015 NOSIG=
201209200545 METAR LMML 200545Z 28005KT 9999 FEW015 23/21 Q1015 NOSIG=
201209200530 METAR LMML NIL=
201209200515 METAR LMML 200515Z 28005KT 9999 FEW015 22/21 Q1015 NOSIG=
201209200500 METAR LMML NIL=
201209200445 METAR LMML 200445Z 28005KT 9999 FEW015 22/21 Q1014 NOSIG=
201209200430 METAR LMML NIL=
201209200415 METAR LMML 200415Z 31005KT 9999 FEW015 22/21 Q1014 NOSIG=
201209200400 METAR LMML NIL=
201209200345 METAR LMML 200345Z 29004KT 9999 FEW015 22/21 Q1014 NOSIG=
201209200330 METAR LMML NIL=
201209200315 METAR LMML 200315Z 30004KT 9999 FEW020 22/21 Q1014 NOSIG=
201209200300 METAR LMML NIL=
201209200245 METAR LMML 200245Z AUTO 29004KT CAVOK 22/21 Q1014=
201209200230 METAR LMML NIL=
201209200215 METAR LMML 200215Z AUTO 29004KT CAVOK 22/20 Q1014=
201209200200 METAR LMML NIL=
201209200145 METAR LMML 200145Z AUTO 29003KT CAVOK 22/20 Q1014=
201209200130 METAR LMML NIL=
201209200115 METAR LMML 200115Z AUTO 28002KT CAVOK 22/20 Q1014=
201209200100 METAR LMML NIL=
201209200045 METAR LMML 200045Z AUTO 31002KT CAVOK 21/20 Q1015=
201209200030 METAR LMML NIL=
201209200015 METAR LMML 200015Z AUTO 27003KT 250V360 CAVOK 21/20 Q1015=
201209200000 METAR LMML NIL=
201209192345 METAR LMML 192345Z AUTO 29002KT CAVOK 22/20 Q1015=
201209192315 METAR LMML 192315Z AUTO 27001KT CAVOK 22/20 Q1015=
201209192300 METAR LMML NIL=
201209192245 METAR LMML 192245Z AUTO 28003KT 230V310 CAVOK 22/20 Q1015=
201209192230 METAR LMML NIL=
201209192215 METAR LMML 192215Z AUTO VRB02KT CAVOK 22/20 Q1015=
201209192200 METAR LMML NIL=
201209192145 METAR LMML 192145Z AUTO 24003KT CAVOK 22/20 Q1015=
201209192115 METAR LMML 192115Z AUTO 25003KT CAVOK 22/20 Q1015=
201209192100 METAR LMML NIL=
201209192045 METAR LMML 192045Z AUTO 23002KT CAVOK 23/20 Q1015=
201209192030 METAR LMML NIL=
201209192015 METAR LMML 192015Z AUTO 20002KT CAVOK 23/20 Q1015=
201209192000 METAR LMML NIL=
201209191945 METAR LMML 191945Z 21003KT CAVOK 23/20 Q1015 NOSIG=
201209191930 METAR LMML NIL=
201209191915 METAR LMML 191915Z 22003KT CAVOK 23/20 Q1015 NOSIG=
201209191900 METAR LMML NIL=
201209191845 METAR LMML 191845Z 19003KT CAVOK 24/19 Q1014 NOSIG=
201209191830 METAR LMML NIL=
201209191815 METAR LMML 191815Z 21003KT CAVOK 24/20 Q1014 NOSIG=
201209191800 METAR LMML NIL=
201209191745 METAR LMML 191745Z 21003KT CAVOK 24/19 Q1014 NOSIG=
201209191730 METAR LMML NIL=
201209191715 METAR LMML 191715Z 20003KT CAVOK 24/20 Q1014 NOSIG=
201209191700 METAR LMML NIL=
201209191645 METAR LMML 191645Z 21004KT 180V240 CAVOK 25/19 Q1014 NOSIG=
201209191630 METAR LMML NIL=
201209191615 METAR LMML 191615Z 22005KT CAVOK 26/19 Q1014 NOSIG=
201209191600 METAR LMML NIL=
201209191545 METAR LMML 191545Z 23004KT 170V260 CAVOK 26/19 Q1014 NOSIG=
201209191530 METAR LMML NIL=
201209191515 METAR LMML 191515Z 23006KT 190V280 9999 FEW023 26/19 Q1014
                        NOSIG=
201209191500 METAR LMML NIL=
201209191445 METAR LMML 191445Z 24005KT 200V290 9999 FEW023 26/19 Q1014
                        NOSIG=
201209191430 METAR LMML NIL=
201209191415 METAR LMML 191415Z 23005KT 180V270 CAVOK 27/20 Q1014 NOSIG=
201209191400 METAR LMML NIL=
201209191345 METAR LMML 191345Z 20006KT 170V240 9999 FEW023 26/20 Q1014
                        NOSIG=
201209191330 METAR LMML NIL=
201209191315 METAR LMML 191315Z 20006KT 170V230 9999 FEW023 26/20 Q1014
                        NOSIG=
201209191300 METAR LMML NIL=
201209191245 METAR LMML 191245Z AUTO 24008KT 210V280 9999NDV FEW023///
                        27/20 Q1015=
201209191230 METAR LMML NIL=
201209191215 METAR LMML 191215Z 24007KT 200V260 9999 FEW023 26/19 Q1015
                        NOSIG=
201209191200 METAR LMML NIL=
201209191145 METAR LMML 191145Z 24005KT 170V310 9999 FEW024 26/19 Q1015
                        NOSIG=
201209191130 METAR LMML NIL=
201209191115 METAR LMML 191115Z 21006KT 170V280 9999 FEW025 26/19 Q1015
                        NOSIG=
201209191100 METAR LMML NIL=
201209191045 METAR LMML 191045Z 22006KT 190V260 9999 FEW025 26/19 Q1015
                        NOSIG=
201209191030 METAR LMML NIL=
201209191015 METAR LMML 191015Z 23007KT 190V300 9999 FEW020 26/19 Q1015
                        NOSIG=
201209191000 METAR LMML NIL=
201209190945 METAR LMML 190945Z 23006KT 170V260 9999 FEW020 26/19 Q1015
                        NOSIG=
201209190930 METAR LMML NIL=
201209190915 METAR LMML 190915Z 21006KT 9999 FEW021 25/19 Q1015 NOSIG=
201209190900 METAR LMML NIL=
201209190845 METAR LMML 190845Z 21006KT 170V240 9999 FEW021 25/19 Q1015
                        NOSIG=
201209190830 METAR LMML NIL=
201209190815 METAR LMML 190815Z 21004KT 170V270 9999 FEW021 25/19 Q1015
                        NOSIG=
201209190800 METAR LMML NIL=
201209190745 METAR LMML 190745Z 24004KT 200V290 9999 FEW020 25/19 Q1015
                        NOSIG=
201209190730 METAR LMML NIL=
201209190715 METAR LMML 190715Z VRB01KT 9999 FEW020 25/20 Q1014 NOSIG=
201209190700 METAR LMML NIL=
201209190645 METAR LMML 190645Z VRB01KT 9999 FEW020 23/19 Q1014 NOSIG=
201209190630 METAR LMML NIL=
201209190615 METAR LMML 190615Z VRB01KT 9999 FEW020 22/19 Q1014 NOSIG=
201209190600 METAR LMML NIL=
201209190545 METAR LMML 190545Z VRB01KT 9999 FEW020 21/19 Q1014 NOSIG=
201209190530 METAR LMML NIL=
201209190515 METAR LMML 190515Z 29002KT 9999 FEW020 19/18 Q1014 NOSIG=
201209190500 METAR LMML NIL=
201209190445 METAR LMML 190445Z 26003KT 9999 FEW015 19/18 Q1014 NOSIG=
201209190430 METAR LMML NIL=
201209190415 METAR LMML 190415Z 30001KT 9000 NSC 19/18 Q1014 BECMG 9999
                        FEW015=
201209190400 METAR LMML NIL=
201209190345 METAR LMML 190345Z VRB01KT 9000 NSC 19/17 Q1014 BECMG 9999
                        FEW015=
201209190330 METAR LMML NIL=
201209190315 METAR LMML 190315Z 30003KT CAVOK 19/18 Q1014 NOSIG=
201209190300 METAR LMML NIL=
201209190245 METAR LMML 190245Z AUTO 29003KT CAVOK 19/18 Q1014=
201209190230 METAR LMML NIL=
201209190215 METAR LMML 190215Z AUTO 27003KT CAVOK 19/17 Q1014=
201209190200 METAR LMML NIL=
201209190145 METAR LMML 190145Z AUTO 27002KT CAVOK 19/17 Q1014=
201209190130 METAR LMML NIL=
201209190115 METAR LMML 190115Z AUTO 29002KT CAVOK 20/17 Q1015=
201209190100 METAR LMML NIL=
201209190045 METAR LMML 190045Z AUTO 30003KT CAVOK 19/17 Q1015=
201209190030 METAR LMML NIL=
201209190015 METAR LMML 190015Z AUTO 29003KT CAVOK 19/17 Q1015=
201209190000 METAR LMML NIL=
201209182345 METAR LMML 182345Z AUTO 30003KT CAVOK 20/17 Q1015=
201209182330 METAR LMML NIL=
201209182315 METAR LMML 182315Z AUTO 31003KT CAVOK 20/17 Q1015=
201209182300 METAR LMML NIL=
201209182245 METAR LMML 182245Z AUTO 31003KT CAVOK 20/17 Q1015=
201209182230 METAR LMML NIL=
201209182215 METAR LMML 182215Z AUTO 28002KT CAVOK 20/17 Q1015=
201209182200 METAR LMML NIL=
201209182145 METAR LMML 182145Z AUTO 27003KT CAVOK 20/17 Q1015=
201209182130 METAR LMML NIL=
201209182115 METAR LMML 182115Z AUTO 23002KT CAVOK 21/17 Q1015=
201209182100 METAR LMML NIL=
201209182045 METAR LMML 182045Z AUTO VRB02KT CAVOK 21/17 Q1015=
201209182030 METAR LMML NIL=
201209182015 METAR LMML 182015Z AUTO 28002KT CAVOK 21/17 Q1015=
201209182000 METAR LMML NIL=
201209181945 METAR LMML 181945Z 30003KT CAVOK 21/17 Q1015 NOSIG=
201209181930 METAR LMML NIL=
201209181915 METAR LMML 181915Z 29003KT CAVOK 22/17 Q1015 NOSIG=
201209181900 METAR LMML NIL=
201209181845 METAR LMML 181845Z 27003KT CAVOK 22/17 Q1015 NOSIG=
201209181830 METAR LMML NIL=
201209181815 METAR LMML 181815Z 29003KT CAVOK 22/16 Q1015 NOSIG=
201209181800 METAR LMML NIL=
201209181745 METAR LMML 181745Z 29004KT CAVOK 23/14 Q1015 NOSIG=
201209181730 METAR LMML NIL=
201209181715 METAR LMML 181715Z 29004KT 260V320 CAVOK 23/15 Q1015 NOSIG=
201209181700 METAR LMML NIL=
201209181645 METAR LMML 181645Z AUTO 30005KT CAVOK 24/15 Q1015 NOSIG=
201209181630 METAR LMML NIL=
201209181615 METAR LMML 181615Z 33007KT CAVOK 25/16 Q1015 NOSIG=
201209181600 METAR LMML NIL=
201209181545 METAR LMML 181545Z 32008KT 9999 FEW025 26/16 Q1015 NOSIG=
201209181530 METAR LMML NIL=
201209181515 METAR LMML 181515Z 32008KT 290V350 9999 FEW025 26/16 Q1015
                        NOSIG=
201209181500 METAR LMML NIL=
201209181445 METAR LMML 181445Z 33009KT 9999 FEW028 26/17 Q1015 NOSIG=
201209181430 METAR LMML NIL=
201209181415 METAR LMML 181415Z 31008KT 270V350 9999 FEW028 26/17 Q1015
                        NOSIG=
201209181400 METAR LMML NIL=
201209181345 METAR LMML 181345Z 33010KT 9999 FEW028 26/15 Q1015 NOSIG=
201209181330 METAR LMML NIL=
201209181315 METAR LMML 181315Z 33010KT 310V010 9999 SCT028 26/18 Q1015
                        NOSIG=
201209181300 METAR LMML NIL=
201209181245 METAR LMML 181245Z 31009KT 9999 SCT028 27/17 Q1015 NOSIG=
201209181230 METAR LMML NIL=
201209181215 METAR LMML 181215Z VRB08KT 9999 SCT028 26/18 Q1016 NOSIG=
201209181200 METAR LMML NIL=
201209181145 METAR LMML 181145Z 30007KT 260V010 9999 SCT030 26/18 Q1016
                        NOSIG=
201209181130 METAR LMML NIL=
201209181115 METAR LMML 181115Z 29010KT 260V340 9999 SCT027 26/18 Q1016
                        NOSIG=
201209181100 METAR LMML NIL=
201209181045 METAR LMML 181045Z 29009KT 260V320 9999 SCT027 26/18 Q1016
                        NOSIG=
201209181030 METAR LMML NIL=
201209181015 METAR LMML 181015Z 33009KT 9999 SCT027 25/18 Q1016 NOSIG=
201209181000 METAR LMML NIL=
201209180945 METAR LMML 180945Z 32008KT 9999 SCT025 26/18 Q1016 NOSIG=
201209180930 METAR LMML NIL=
201209180915 METAR LMML 180915Z 31009KT 260V330 9999 SCT025 25/18 Q1016
                        NOSIG=
201209180900 METAR LMML NIL=
201209180845 METAR LMML 180845Z 31008KT 270V330 9999 SCT024 25/18 Q1016
                        NOSIG=
201209180830 METAR LMML NIL=
201209180815 METAR LMML 180815Z 30009KT 9999 SCT022 25/19 Q1016 NOSIG=
201209180800 METAR LMML NIL=
201209180745 METAR LMML 180745Z 31008KT 280V340 9999 SCT021 24/19 Q1016
                        NOSIG=
201209180730 METAR LMML NIL=
201209180715 METAR LMML 180715Z 30009KT 9999 FEW015 24/19 Q1016 NOSIG=
201209180700 METAR LMML NIL=
201209180645 METAR LMML 180645Z 30008KT CAVOK 23/19 Q1016 NOSIG=
201209180630 METAR LMML NIL=
201209180615 METAR LMML 180615Z 28006KT 9999 FEW015 23/19 Q1016 NOSIG=
201209180600 METAR LMML NIL=
201209180545 METAR LMML 180545Z 28005KT 9999 FEW016 22/19 Q1015 NOSIG=
201209180530 METAR LMML NIL=
201209180515 METAR LMML 180515Z 29006KT 9999 FEW015 21/18 Q1015 NOSIG=
201209180500 METAR LMML NIL=
201209180445 METAR LMML 180445Z 28005KT 9999 FEW015 21/18 Q1015 NOSIG=
201209180430 METAR LMML NIL=
201209180415 METAR LMML 180415Z 28006KT 9999 FEW015 21/19 Q1015 NOSIG=
201209180400 METAR LMML NIL=
201209180345 METAR LMML 180345Z 28007KT 9999 FEW015 21/19 Q1015 NOSIG=
201209180330 METAR LMML NIL=
201209180315 METAR LMML 180315Z 28008KT 9999 FEW015 21/19 Q1015 NOSIG=
201209180300 METAR LMML NIL=
201209180245 METAR LMML 180245Z AUTO 29005KT CAVOK 21/19 Q1015=
201209180230 METAR LMML NIL=
201209180215 METAR LMML 180215Z AUTO 29004KT CAVOK 20/19 Q1015=
201209180200 METAR LMML NIL=
201209180145 METAR LMML 180145Z AUTO 28004KT CAVOK 21/19 Q1015=
201209180130 METAR LMML NIL=
201209180115 METAR LMML 180115Z AUTO 24003KT CAVOK 20/18 Q1015=
201209180100 METAR LMML NIL=
201209180045 METAR LMML 180045Z AUTO 29003KT CAVOK 20/18 Q1015=
201209180030 METAR LMML NIL=
201209180015 METAR LMML 180015Z AUTO 30005KT CAVOK 21/18 Q1016=
201209180000 METAR LMML NIL=
201209172345 METAR LMML 172345Z AUTO 26003KT CAVOK 20/18 Q1016=
201209172330 METAR LMML NIL=
201209172315 METAR LMML 172315Z AUTO 28005KT CAVOK 21/18 Q1016=
201209172300 METAR LMML NIL=
201209172245 METAR LMML 172245Z AUTO 27004KT CAVOK 21/18 Q1016=
201209172230 METAR LMML NIL=
201209172215 METAR LMML 172215Z AUTO 26004KT CAVOK 21/18 Q1016=
201209172200 METAR LMML NIL=
201209172145 METAR LMML 172145Z AUTO 25004KT CAVOK 20/18 Q1016=
201209172130 METAR LMML NIL=
201209172115 METAR LMML 172115Z AUTO 25003KT CAVOK 21/18 Q1017=
201209172100 METAR LMML NIL=
201209172045 METAR LMML 172045Z AUTO 24003KT CAVOK 21/18 Q1017=
201209172030 METAR LMML NIL=
201209172015 METAR LMML 172015Z AUTO VRB01KT CAVOK 22/18 Q1016=
201209172000 METAR LMML NIL=
201209171945 METAR LMML 171945Z 33003KT CAVOK 21/18 Q1016 NOSIG=
201209171930 METAR LMML NIL=
201209171915 METAR LMML 171915Z 32004KT 9999 FEW020 21/18 Q1016 NOSIG=
201209171900 METAR LMML NIL=
201209171845 METAR LMML 171845Z 32005KT 9999 FEW020 22/18 Q1016 NOSIG=
201209171830 METAR LMML NIL=
201209171815 METAR LMML 171815Z 32006KT 9999 FEW020 22/18 Q1016 NOSIG=
201209171800 METAR LMML NIL=
201209171745 METAR LMML 171745Z 32006KT 9999 FEW020 22/18 Q1016 NOSIG=
201209171730 METAR LMML NIL=
201209171715 METAR LMML 171715Z AUTO 31008KT CAVOK 23/18 Q1016 NOSIG=
201209171700 METAR LMML NIL=
201209171645 METAR LMML 171645Z 31009KT 9999 FEW029 23/18 Q1016 NOSIG=
201209171630 METAR LMML NIL=
201209171615 METAR LMML 171615Z 32010KT 9999 FEW029 24/18 Q1016 NOSIG=
201209171600 METAR LMML NIL=
201209171545 METAR LMML 171545Z 32011KT 9999 FEW029 25/18 Q1015 NOSIG=
201209171530 METAR LMML NIL=
201209171515 METAR LMML 171515Z 31012KT 9999 FEW029 25/17 Q1015 NOSIG=
201209171500 METAR LMML NIL=
201209171445 METAR LMML 171445Z 30010KT 260V320 9999 FEW029 25/17 Q1015
                        NOSIG=
201209171430 METAR LMML NIL=
201209171415 METAR LMML 171415Z 32011KT 280V350 9999 FEW030 26/17 Q1015
                        NOSIG=
201209171400 METAR LMML NIL=
201209171345 METAR LMML 171345Z 31012KT 280V340 9999 FEW031 26/17 Q1015
                        NOSIG=
201209171330 METAR LMML NIL=
201209171315 METAR LMML 171315Z 32012KT 9999 FEW031 26/17 Q1015 NOSIG=
201209171300 METAR LMML NIL=
201209171245 METAR LMML 171245Z 31012KT 270V350 9999 FEW031 26/17 Q1015
                        NOSIG=
201209171230 METAR LMML NIL=
201209171215 METAR LMML 171215Z 32011KT 9999 FEW030 26/17 Q1016 NOSIG=
201209171200 METAR LMML NIL=
201209171145 METAR LMML 171145Z 32011KT 9999 FEW030 27/15 Q1016 NOSIG=
201209171130 METAR LMML NIL=
201209171115 METAR LMML 171115Z 30010KT 9999 SCT028 26/16 Q1016 NOSIG=
201209171100 METAR LMML NIL=
201209171045 METAR LMML 171045Z AUTO 31011KT 9999NDV NCD 26/17 Q1016 NOSIG=
201209171030 METAR LMML NIL=
201209171015 METAR LMML 171015Z 32009KT 9999 SCT028 26/18 Q1016 NOSIG=
201209171000 METAR LMML NIL=
201209170945 METAR LMML 170945Z 32009KT 9999 SCT027 26/19 Q1016 NOSIG=
201209170930 METAR LMML NIL=
201209170915 METAR LMML 170915Z 31008KT 280V340 9999 SCT024 25/19 Q1016
                        NOSIG=
201209170900 METAR LMML NIL=
201209170845 METAR LMML 170845Z 33006KT 290V360 9999 SCT026 25/18 Q1015
                        NOSIG=
201209170830 METAR LMML NIL=
201209170815 METAR LMML 170815Z 33005KT 310V020 9999 SCT023 25/18 Q1015
                        NOSIG=
201209170800 METAR LMML NIL=
201209170745 METAR LMML 170745Z 34006KT 300V010 9999 FEW019 25/19 Q1015
                        NOSIG=
201209170730 METAR LMML NIL=
201209170715 METAR LMML 170715Z 33007KT 9999 FEW015 24/19 Q1015 NOSIG=
201209170700 METAR LMML NIL=
201209170645 METAR LMML 170645Z AUTO 33007KT CAVOK 24/20 Q1015 NOSIG=
201209170630 METAR LMML NIL=
201209170615 METAR LMML 170615Z 33005KT 310V010 9999 FEW015 23/20 Q1014
                        NOSIG=
201209170600 METAR LMML NIL=
201209170545 METAR LMML 170545Z 33007KT 9999 FEW015 22/20 Q1014 NOSIG=
201209170530 METAR LMML NIL=
201209170515 METAR LMML 170515Z 32007KT 9999 FEW015 21/19 Q1014 NOSIG=
201209170500 METAR LMML NIL=
201209170445 METAR LMML 170445Z 32008KT 9999 FEW015 21/19 Q1014 NOSIG=
201209170430 METAR LMML NIL=
201209170415 METAR LMML 170415Z 31007KT 9999 FEW020 21/19 Q1013 NOSIG=
201209170400 METAR LMML NIL=
201209170345 METAR LMML 170345Z 33006KT CAVOK 21/19 Q1013 NOSIG=
201209170330 METAR LMML NIL=
201209170315 METAR LMML 170315Z 30006KT CAVOK 21/19 Q1013 NOSIG=
201209170300 METAR LMML NIL=
201209170245 METAR LMML 170245Z AUTO 29007KT CAVOK 22/19 Q1013=
201209170230 METAR LMML NIL=
201209170215 METAR LMML 170215Z AUTO 29006KT CAVOK 22/20 Q1013=
201209170200 METAR LMML NIL=
201209170145 METAR LMML 170145Z AUTO 28005KT CAVOK 22/20 Q1014=
201209170130 METAR LMML NIL=
201209170115 METAR LMML 170115Z AUTO 27007KT CAVOK 22/20 Q1014=
201209170100 METAR LMML NIL=
201209170045 METAR LMML 170045Z AUTO 26005KT CAVOK 21/19 Q1014=
201209170030 METAR LMML NIL=
201209170015 METAR LMML 170015Z AUTO 27004KT CAVOK 21/19 Q1014=
201209170000 METAR LMML NIL=
201209162345 METAR LMML 162345Z AUTO 27005KT CAVOK 22/19 Q1014=
201209162330 METAR LMML NIL=
201209162315 METAR LMML 162315Z AUTO 26005KT CAVOK 21/19 Q1014=
201209162300 METAR LMML NIL=
201209162245 METAR LMML 162245Z AUTO 28005KT CAVOK 21/19 Q1014=
201209162230 METAR LMML NIL=
201209162215 METAR LMML 162215Z AUTO 28004KT CAVOK 21/19 Q1014=
201209162200 METAR LMML NIL=
201209162145 METAR LMML 162145Z AUTO 27004KT CAVOK 21/19 Q1014=
201209162130 METAR LMML NIL=
201209162115 METAR LMML 162115Z AUTO 28003KT CAVOK 21/18 Q1015=
201209162100 METAR LMML NIL=
201209162045 METAR LMML 162045Z AUTO 32004KT CAVOK 22/19 Q1014=
201209162030 METAR LMML NIL=
201209162015 METAR LMML 162015Z AUTO 32005KT CAVOK 22/19 Q1014=
201209162000 METAR LMML NIL=
201209161945 METAR LMML 161945Z 31005KT 9999 FEW019 22/18 Q1014 NOSIG=
201209161930 METAR LMML NIL=
201209161915 METAR LMML 161915Z 33005KT 9999 FEW020 21/18 Q1014 NOSIG=
201209161900 METAR LMML NIL=
201209161845 METAR LMML 161845Z 33004KT 9999 FEW025 22/17 Q1014 NOSIG=
201209161830 METAR LMML NIL=
201209161815 METAR LMML 161815Z 31005KT 9999 FEW025 22/17 Q1014 NOSIG=
201209161800 METAR LMML NIL=
201209161745 METAR LMML 161745Z 31006KT 9999 FEW025 23/17 Q1013 NOSIG=
201209161730 METAR LMML NIL=
201209161715 METAR LMML 161715Z 32007KT 9999 FEW025 23/16 Q1013 NOSIG=
201209161700 METAR LMML NIL=
201209161645 METAR LMML 161645Z 32007KT 9999 FEW030 24/17 Q1013 NOSIG=
201209161630 METAR LMML NIL=
201209161615 METAR LMML 161615Z 03004KT 340V060 9999 FEW030 25/17 Q1013
                        NOSIG=
201209161600 METAR LMML NIL=
201209161545 METAR LMML 161545Z 03004KT 010V070 9999 FEW030 25/17 Q1013
                        NOSIG=
201209161530 METAR LMML NIL=
201209161515 METAR LMML 161515Z 01005KT 330V050 9999 FEW035 26/17 Q1013
                        NOSIG=
201209161500 METAR LMML NIL=
201209161445 METAR LMML 161445Z VRB03KT 9999 FEW035 26/17 Q1013 NOSIG=
201209161430 METAR LMML NIL=
201209161415 METAR LMML 161415Z VRB03KT 9999 SCT032 26/17 Q1013 NOSIG=
201209161400 METAR LMML NIL=
201209161345 METAR LMML 161345Z AUTO 09005KT 030V140 9999NDV FEW037///
                        SCT042/// 25/17 Q1013=
201209161330 METAR LMML NIL=
201209161315 METAR LMML 161315Z AUTO 19004KT 100V230 9999NDV FEW042///
                        26/16 Q1013=
201209161300 METAR LMML NIL=
201209161245 METAR LMML 161245Z 22005KT 150V280 9999 SCT031 26/17 Q1013
                        NOSIG=
201209161230 METAR LMML NIL=
201209161215 METAR LMML 161215Z 22004KT 180V290 9999 SCT032 25/17 Q1013
                        NOSIG=
201209161200 METAR LMML NIL=
201209161145 METAR LMML 161145Z 21006KT 180V260 9999 SCT032 26/17 Q1013
                        NOSIG=
201209161130 METAR LMML NIL=
201209161115 METAR LMML 161115Z 22006KT 190V260 9999 SCT031 25/17 Q1013
                        NOSIG=
201209161100 METAR LMML NIL=
201209161045 METAR LMML 161045Z VRB04KT 9999 SCT036 26/17 Q1013 NOSIG=
201209161030 METAR LMML NIL=
201209161015 METAR LMML 161015Z 09004KT 050V200 9999 FEW039 25/17 Q1014
                        NOSIG=
201209161000 METAR LMML NIL=
201209160945 METAR LMML 160945Z 05006KT 020V090 9999 FEW029 25/17 Q1013
                        NOSIG=
201209160930 METAR LMML NIL=
201209160915 METAR LMML 160915Z 06008KT 030V100 9999 FEW030 25/17 Q1013
                        NOSIG=
201209160900 METAR LMML NIL=
201209160845 METAR LMML 160845Z 07006KT 030V120 9999 FEW030 25/17 Q1013
                        NOSIG=
201209160830 METAR LMML NIL=
201209160815 METAR LMML 160815Z 04006KT 010V090 9999 FEW030 24/17 Q1013
                        NOSIG=
201209160800 METAR LMML NIL=
201209160745 METAR LMML 160745Z 03009KT 9999 FEW030 24/17 Q1013 NOSIG=
201209160730 METAR LMML NIL=
201209160715 METAR LMML 160715Z 03008KT 9999 FEW030 24/18 Q1012 NOSIG=
201209160700 METAR LMML NIL=
201209160645 METAR LMML 160645Z 03007KT 9999 FEW030 23/18 Q1012 NOSIG=
201209160630 METAR LMML NIL=
201209160615 METAR LMML 160615Z 35005KT 9999 FEW030 22/18 Q1012 NOSIG=
201209160600 METAR LMML NIL=
201209160545 METAR LMML 160545Z 36005KT 9999 FEW030 21/18 Q1012 NOSIG=
201209160530 METAR LMML NIL=
201209160515 METAR LMML 160515Z 33003KT 290V020 9999 FEW030 20/17 Q1012
                        NOSIG=
201209160500 METAR LMML NIL=
201209160445 METAR LMML 160445Z 34004KT 9999 FEW030 20/17 Q1011 NOSIG=
201209160430 METAR LMML NIL=
201209160415 METAR LMML 160415Z 33004KT 9999 FEW030 20/17 Q1011 NOSIG=
201209160400 METAR LMML NIL=
201209160345 METAR LMML 160345Z 01006KT 9999 FEW030 21/17 Q1011 NOSIG=
201209160330 METAR LMML NIL=
201209160315 METAR LMML 160315Z 36006KT 9999 FEW030 21/17 Q1011 NOSIG=
201209160300 METAR LMML NIL=
201209160245 METAR LMML 160245Z AUTO 02006KT CAVOK 21/17 Q1011=
201209160230 METAR LMML NIL=
201209160215 METAR LMML 160215Z AUTO 02007KT CAVOK 21/17 Q1011=
201209160200 METAR LMML NIL=
201209160145 METAR LMML 160145Z AUTO 01007KT CAVOK 21/17 Q1011=
201209160130 METAR LMML NIL=
201209160115 METAR LMML 160115Z AUTO 01009KT CAVOK 22/17 Q1011=
201209160100 METAR LMML NIL=
201209160045 METAR LMML 160045Z AUTO 36008KT CAVOK 21/17 Q1011=
201209160030 METAR LMML NIL=
201209160015 METAR LMML 160015Z AUTO 33007KT CAVOK 21/17 Q1011=
201209160000 METAR LMML NIL=
201209152345 METAR LMML 152345Z AUTO 33007KT CAVOK 21/17 Q1011=
201209152330 METAR LMML NIL=
201209152315 METAR LMML 152315Z AUTO 33007KT CAVOK 21/17 Q1011=
201209152300 METAR LMML NIL=
201209152245 METAR LMML 152245Z AUTO 34009KT CAVOK 21/17 Q1011=
201209152230 METAR LMML NIL=
201209152215 METAR LMML 152215Z AUTO 33010KT CAVOK 22/17 Q1011=
201209152200 METAR LMML NIL=
201209152145 METAR LMML 152145Z AUTO 32009KT CAVOK 22/18 Q1010=
201209152130 METAR LMML NIL=
201209152115 METAR LMML 152115Z AUTO 33011KT CAVOK 22/18 Q1010=
201209152100 METAR LMML NIL=
201209152045 METAR LMML 152045Z AUTO 34015KT CAVOK 22/18 Q1010=
201209152015 METAR LMML 152015Z AUTO 32012KT CAVOK 22/18 Q1011=
201209152000 METAR LMML NIL=
201209151945 METAR LMML 151945Z 33011KT 9999 FEW021 22/18 Q1010 NOSIG=
201209151930 METAR LMML NIL=
201209151915 METAR LMML 151915Z 32012KT 9999 FEW023 22/18 Q1010 NOSIG=
201209151900 METAR LMML NIL=
201209151845 METAR LMML 151845Z 32011KT 9999 FEW023 22/17 Q1010 NOSIG=
201209151830 METAR LMML NIL=
201209151815 METAR LMML 151815Z 32014KT 9999 FEW035 22/17 Q1010 NOSIG=
201209151800 METAR LMML NIL=
201209151745 METAR LMML 151745Z 31013KT 9999 FEW025 22/17 Q1009 NOSIG=
201209151730 METAR LMML NIL=
201209151715 METAR LMML 151715Z 31014KT 9999 FEW030 23/17 Q1009 NOSIG=
201209151700 METAR LMML NIL=
201209151645 METAR LMML 151645Z 31012KT 9999 FEW030 23/17 Q1009 NOSIG=
201209151630 METAR LMML NIL=
201209151615 METAR LMML 151615Z 32015KT 9999 FEW025 23/16 Q1009 NOSIG=
201209151600 METAR LMML NIL=
201209151545 METAR LMML 151545Z 32018KT 9999 FEW025 24/16 Q1009 NOSIG=
201209151530 METAR LMML NIL=
201209151515 METAR LMML 151515Z 31016KT 280V340 9999 FEW030TCU 24/16 Q1009
                        NOSIG=
201209151500 METAR LMML NIL=
201209151445 METAR LMML 151445Z 32017KT 9999 FEW025TCU 24/16 Q1009 NOSIG=
201209151430 METAR LMML NIL=
201209151415 METAR LMML 151415Z 31016KT 290V350 9999 FEW025TCU 24/16 Q1009
                        NOSIG=
201209151400 METAR LMML NIL=
201209151345 METAR LMML 151345Z AUTO 31019KT 9999NDV FEW030/// BKN120///
                        24/16 Q1009=
201209151330 METAR LMML NIL=
201209151315 METAR LMML 151315Z 31017KT 280V340 9999 BKN029 24/18 Q1009
                        TEMPO 7000 SHRA BKN015TCU=
201209151300 METAR LMML NIL=
201209151245 METAR LMML 151245Z 32016KT 9999 BKN025TCU 23/18 Q1009 TEMPO
                        7000 SHRA BKN015TCU=
201209151230 METAR LMML NIL=
201209151215 METAR LMML 151215Z 33012KT 9999 -SHRA SCT016TCU 21/19 Q1010
                        TEMPO 7000 SHRA BKN015TCU=
201209151200 METAR LMML NIL=
201209151145 METAR LMML 151145Z 30014KT 9999 SCT025TCU 23/16 Q1010 TEMPO
                        7000 SHRA BKN015TCU=
201209151130 METAR LMML NIL=
201209151115 METAR LMML 151115Z 30013KT 9999 SCT025TCU 23/17 Q1010 TEMPO
                        7000 SHRA BKN015TCU=
201209151100 METAR LMML NIL=
201209151045 METAR LMML 151045Z 29015KT 9999 -SHRA SCT019TCU 21/17 Q1010
                        TEMPO 7000 SHRA BKN015TCU=
201209151030 METAR LMML NIL=
201209151015 METAR LMML 151015Z 29011KT 260V330 9999 SCT020TCU 24/16 Q1010
                        TEMPO 7000 SHRA BKN015TCU RMK CB
                        TOP TO NORTH EAST=
201209151000 METAR LMML NIL=
201209150945 METAR LMML 150945Z 29011KT 260V330 9999 SCT025TCU 24/16 Q1010
                        TEMPO 7000 SHRA SCT020TCU RMK CB
                        TOP TO NORTH=
201209150930 METAR LMML NIL=
201209150915 METAR LMML 150915Z 31012KT 9999 SCT025TCU 24/16 Q1010 TEMPO
                        7000 SHRA SCT020TCU=
201209150900 METAR LMML NIL=
201209150845 METAR LMML 150845Z 30011KT 270V330 9999 SCT025TCU 23/16 Q1010
                        TEMPO 7000 SHRA SCT020TCU=
201209150830 METAR LMML NIL=
201209150815 METAR LMML 150815Z 30009KT 9999 SCT025TCU 22/17 Q1010 TEMPO
                        7000 SHRA SCT020TCU=
201209150800 METAR LMML NIL=
201209150745 METAR LMML 150745Z 33008KT 9999 -SHRA SCT017TCU 22/16 Q1010
                        TEMPO 3000 TSRA SCT015CB=
201209150730 METAR LMML NIL=
201209150715 METAR LMML 150715Z 32009KT 9999 SCT018CB SCT022TCU 22/17
                        Q1009 TEMPO 3000 TSRA BKN015CB=
201209150700 METAR LMML NIL=
201209150645 METAR LMML 150645Z 30007KT 280V340 9999 FEW018CB FEW020TCU
                        21/16 Q1009 TEMPO 7000 SHRA BKN015TCU=
201209150630 METAR LMML NIL=
201209150615 METAR LMML 150615Z 29009KT 9999 FEW020TCU 21/16 Q1009 TEMPO
                        7000 SHRA BKN015TCU RMK CB TOP TO
                        NORTH=
201209150600 METAR LMML NIL=
201209150545 METAR LMML 150545Z 32006KT 9999 FEW020TCU 19/16 Q1009 TEMPO
                        7000 SHRA BKN015TCU=
201209150530 METAR LMML NIL=
201209150515 METAR LMML 150515Z 29007KT 9999 SCT020CB FEW025 18/16 Q1009
                        TEMPO 3000 TSRA BKN015CB=
201209150500 METAR LMML NIL=
201209150445 METAR LMML 150445Z 29007KT 9999 SCT030TCU 18/16 Q1008 TEMPO
                        3000 TSRA BKN015CB=
201209150430 METAR LMML NIL=
201209150415 METAR LMML 150415Z 27003KT 230V300 9999 SCT030 17/16 Q1009
                        TEMPO 3000 TSRA BKN015CB=
201209150400 METAR LMML NIL=
201209150345 METAR LMML 150345Z VRB02KT 9999 SCT030 17/16 Q1009 RETS TEMPO
                        3000 TSRA BKN015CB=
201209150330 METAR LMML NIL=
201209150315 METAR LMML 150315Z VRB02KT 9999 BKN034 17/16 Q1009 TEMPO
                        3000 TSRA BKN015CB RMK LIGHTNING
                        TO E=
201209150300 METAR LMML NIL=
201209150245 METAR LMML 150245Z AUTO 26010KT 200V300 9999NDV TS +RA FEW003///
                        SCT045/// BKN073/// 19/15 Q1009=
201209150230 METAR LMML NIL=
201209150215 METAR LMML 150215Z AUTO 25008G18KT 220V300 9999NDV +RA FEW027///
                        BKN032/// OVC050/// 21/15 Q1009=
201209150200 METAR LMML NIL=
201209150145 METAR LMML 150145Z AUTO 26006KT CAVOK 21/15 Q1009=
201209150130 METAR LMML NIL=
201209150115 METAR LMML 150115Z AUTO 27008KT 240V300 CAVOK 21/14 Q1009=
201209150100 METAR LMML NIL=
201209150045 METAR LMML 150045Z AUTO 27008KT CAVOK 21/14 Q1009=
201209150030 METAR LMML NIL=
201209150015 METAR LMML 150015Z AUTO 28008KT CAVOK 22/14 Q1010=
201209150000 METAR LMML NIL=
201209142345 METAR LMML 142345Z AUTO 29006KT 9999NDV FEW048/// OVC093///
                        22/14 Q1010=
201209142330 METAR LMML NIL=
201209142315 METAR LMML 142315Z AUTO 25005KT 230V290 9999NDV FEW042///
                        21/14 Q1010=
201209142300 METAR LMML NIL=
201209142245 METAR LMML 142245Z AUTO 29006KT 260V320 9999NDV FEW044///
                        21/14 Q1010=
201209142230 METAR LMML NIL=
201209142215 METAR LMML 142215Z AUTO 29006KT 260V320 9999NDV FEW038///
                        21/14 Q1010=
201209142200 METAR LMML NIL=
201209142145 METAR LMML 142145Z AUTO 31008KT 9999NDV SCT038/// BKN043///
                        21/13 Q1010=
201209142130 METAR LMML NIL=
201209142115 METAR LMML 142115Z AUTO 31010KT CAVOK 21/13 Q1010=
201209142100 METAR LMML NIL=
201209142045 METAR LMML 142045Z AUTO 29008KT CAVOK 21/13 Q1010=
201209142030 METAR LMML NIL=
201209142015 METAR LMML 142015Z AUTO 31010KT CAVOK 22/11 Q1010=
201209142000 METAR LMML NIL=
201209141945 METAR LMML 141945Z 30010KT 9999 FEW045 22/13 Q1010 NOSIG=
201209141930 METAR LMML NIL=
201209141915 METAR LMML 141915Z 29009KT 9999 FEW045 22/13 Q1010 NOSIG=
201209141900 METAR LMML NIL=
201209141845 METAR LMML 141845Z 29007KT 9999 FEW025 21/13 Q1009 NOSIG=
201209141830 METAR LMML NIL=
201209141815 METAR LMML 141815Z 29005KT 260V320 9999 FEW025 21/12 Q1009
                        NOSIG=
201209141800 METAR LMML NIL=
201209141745 METAR LMML 141745Z 29007KT 9999 FEW025 21/11 Q1009 NOSIG=
201209141730 METAR LMML NIL=
201209141715 METAR LMML 141715Z 29008KT 9999 FEW025 22/12 Q1009 NOSIG
                        RMK DISTANT CB TOPS TO NW=
201209141700 METAR LMML NIL=
201209141645 METAR LMML 141645Z 29007KT 250V320 9999 FEW025 22/13 Q1008
                        NOSIG=
201209141630 METAR LMML NIL=
201209141615 METAR LMML 141615Z 31010KT 9999 FEW025 23/13 Q1008 NOSIG=
201209141600 METAR LMML NIL=
201209141545 METAR LMML 141545Z 32015KT 9999 FEW025 23/12 Q1008 NOSIG=
201209141530 METAR LMML NIL=
201209141515 METAR LMML 141515Z 32016KT 9999 SCT025 22/14 Q1008 NOSIG=
201209141500 METAR LMML NIL=
201209141445 METAR LMML 141445Z 29016KT 9999 -SHRA SCT038 24/14 Q1008
                        NOSIG=
201209141430 METAR LMML NIL=
201209141415 METAR LMML 141415Z 28016KT 250V320 9999 SCT041 24/14 Q1008
                        NOSIG=
201209141400 METAR LMML NIL=
201209141345 METAR LMML 141345Z 28017KT 9999 SCT040 24/13 Q1008 NOSIG=
201209141330 METAR LMML NIL=
201209141315 METAR LMML 141315Z 28017KT 250V310 9999 SCT040 24/13 Q1008
                        NOSIG=
201209141245 METAR LMML 141245Z 29018KT 9999 SCT040 24/14 Q1008 NOSIG=
201209141230 METAR LMML NIL=
201209141215 METAR LMML 141215Z 29016KT 250V310 9999 SCT040 24/13 Q1008
                        NOSIG=
201209141200 METAR LMML NIL=
201209141145 METAR LMML 141145Z 28016KT 9999 FEW040 24/13 Q1008 NOSIG=
201209141130 METAR LMML NIL=
201209141115 METAR LMML 141115Z 27014KT 240V300 9999 SCT040 24/14 Q1008
                        NOSIG=
201209141100 METAR LMML NIL=
201209141045 METAR LMML 141045Z 28015KT 9999 FEW035 24/14 Q1008 NOSIG=
201209141030 METAR LMML NIL=
201209141015 METAR LMML 141015Z 29014KT 9999 FEW035 24/12 Q1008 NOSIG=
201209141000 METAR LMML NIL=
201209140945 METAR LMML 140945Z 29014KT 9999 FEW035 24/14 Q1008 NOSIG=
201209140930 METAR LMML NIL=
201209140915 METAR LMML 140915Z 28014KT 9999 FEW035 24/13 Q1008 NOSIG=
201209140900 METAR LMML NIL=
201209140845 METAR LMML 140845Z 30013KT 9999 FEW035 23/12 Q1008 NOSIG=
201209140830 METAR LMML NIL=
201209140815 METAR LMML 140815Z 29013KT 9999 FEW035 23/13 Q1007 NOSIG=
201209140800 METAR LMML NIL=
201209140745 METAR LMML 140745Z 30016KT 9999 FEW030 23/13 Q1007 NOSIG=
201209140730 METAR LMML NIL=
201209140715 METAR LMML 140715Z 30015KT 9999 FEW030 23/13 Q1007 NOSIG=
201209140700 METAR LMML NIL=
201209140645 METAR LMML 140645Z 30015KT 9999 FEW030 21/14 Q1007 NOSIG=
201209140630 METAR LMML NIL=
201209140615 METAR LMML 140615Z 30014KT 9999 SCT031 22/15 Q1006 NOSIG=
201209140600 METAR LMML NIL=
201209140545 METAR LMML 140545Z 29011KT 9999 SCT025 21/14 Q1006 TEMPO
                        8000 RA BKN015=
201209140530 METAR LMML NIL=
201209140515 METAR LMML 140515Z 25013KT 9999 BKN022 SCT030 21/17 Q1006
                        TEMPO 8000 RA BKN015=
201209140500 METAR LMML NIL=
201209140445 METAR LMML 140445Z 25014KT 9999 SCT020 20/16 Q1005 TEMPO
                        8000 RA BKN015=
201209140430 METAR LMML NIL=
201209140415 METAR LMML 140415Z 25015KT 9999 FEW021 20/16 Q1006 TEMPO
                        8000 RA=
201209140400 METAR LMML NIL=
201209140345 METAR LMML 140345Z 26012KT 230V290 9999 FEW028 19/15 Q1005
                        TEMPO 8000 RA=
201209140330 METAR LMML NIL=
201209140315 METAR LMML 140315Z AUTO 26008KT 230V290 CAVOK 18/14 Q1005
                        TEMPO 8000 RA=
201209140300 METAR LMML NIL=
201209140245 METAR LMML 140245Z 26008KT 230V290 9999 FEW020 18/14 Q1005
                        TEMPO 3000 TSRA BKN015CB=
201209140230 METAR LMML NIL=
201209140215 METAR LMML 140215Z 23005KT 190V280 9999 FEW020 18/14 Q1006
                        RETS TEMPO 3000 TSRA BKN015CB=
201209140200 METAR LMML NIL=
201209140145 METAR LMML 140145Z 29006KT 9999 -TS FEW020CB 18/15 Q1007
                        TEMPO 3000 TSRA BKN015CB=
201209140130 METAR LMML NIL=
201209140115 METAR LMML 140115Z 30003KT 260V340 9999 FEW025 17/15 Q1007
                        RETS TEMPO 3000 TSRA BKN015CB=
201209140100 METAR LMML NIL=
201209140030 METAR LMML NIL=
201209140015 METAR LMML 140015Z AUTO 34009KT 290V020 9000NDV TS SCT020///
                        BKN059/// OVC090/// 18/15 Q1008=
201209140000 METAR LMML NIL=
201209132345 METAR LMML 132345Z AUTO 33014KT 300V360 CAVOK 18/15 Q1008=
201209132330 METAR LMML NIL=
201209132315 METAR LMML 132315Z AUTO 33015KT CAVOK 18/15 Q1008=
201209132300 METAR LMML NIL=
201209132245 METAR LMML 132245Z AUTO 34012KT 310V020 9999NDV FEW032///
                        SCT140/// 18/15 Q1008=
201209132230 METAR LMML NIL=
201209132215 METAR LMML 132215Z AUTO 31014G25KT CAVOK 21/13 Q1008=
201209132200 METAR LMML NIL=
201209132145 METAR LMML 132145Z AUTO 33016KT CAVOK 21/12 Q1007=
201209132130 METAR LMML NIL=
201209132115 METAR LMML 132115Z AUTO 33019KT 9999NDV BKN049/// OVC056///
                        21/13 Q1008=
201209132100 METAR LMML NIL=
201209132045 METAR LMML 132045Z AUTO 34024KT 9999NDV FEW043/// BKN062///
                        21/12 Q1007=
201209132030 METAR LMML NIL=
201209132015 METAR LMML 132015Z AUTO 33024G38KT 9999NDV SCT026/// OVC030///
                        21/16 Q1007=
201209132000 METAR LMML NIL=
201209131945 METAR LMML 131945Z 33022KT 9999 FEW019 BKN044 22/17 Q1007
                        NOSIG=
201209131930 METAR LMML NIL=
201209131915 METAR LMML 131915Z 33017KT 9999 FEW019 23/17 Q1006 NOSIG=
201209131900 METAR LMML NIL=
201209131845 METAR LMML 131845Z 34016KT 9999 FEW019 23/18 Q1005 NOSIG=
201209131830 METAR LMML NIL=
201209131815 METAR LMML 131815Z 33012KT 9999 FEW019 23/18 Q1005 NOSIG=
201209131800 METAR LMML NIL=
201209131745 METAR LMML 131745Z 34015KT 9999 FEW018 24/19 Q1005 NOSIG=
201209131730 METAR LMML NIL=
201209131715 METAR LMML 131715Z 34014KT 9999 FEW020 24/19 Q1005 NOSIG=
201209131700 METAR LMML NIL=
201209131645 METAR LMML 131645Z 33015KT 9999 FEW023 25/19 Q1005 NOSIG=
201209131630 METAR LMML NIL=
201209131615 METAR LMML 131615Z 34015KT 9999 FEW027 25/18 Q1005 NOSIG=
201209131600 METAR LMML NIL=
201209131545 METAR LMML 131545Z 33015KT 9999 FEW027 27/19 Q1005 NOSIG=
201209131530 METAR LMML NIL=
201209131515 METAR LMML 131515Z 32016KT 9999 FEW027 27/20 Q1005 NOSIG=
201209131500 METAR LMML NIL=
201209131445 METAR LMML 131445Z 31015KT 9999 FEW027 27/19 Q1005 NOSIG=
201209131430 METAR LMML NIL=
201209131415 METAR LMML 131415Z 32014KT 9999 FEW027 28/20 Q1005 NOSIG=
201209131400 METAR LMML NIL=
201209131345 METAR LMML 131345Z 31013KT 9999 FEW035 29/19 Q1005 NOSIG=
201209131330 METAR LMML NIL=
201209131315 METAR LMML 131315Z 31011KT 290V350 9999 FEW035 29/19 Q1005
                        NOSIG=
201209131300 METAR LMML NIL=
201209131245 METAR LMML 131245Z 33009KT 300V360 9999 FEW035 29/21 Q1005
                        NOSIG=
201209131230 METAR LMML NIL=
201209131215 METAR LMML 131215Z 34009KT 290V020 9999 FEW032 29/20 Q1006
                        NOSIG=
201209131200 METAR LMML NIL=
201209131145 METAR LMML 131145Z 36007KT 310V040 9999 FEW027 29/21 Q1006
                        NOSIG=
201209131130 METAR LMML NIL=
201209131115 METAR LMML 131115Z 34008KT 310V050 9999 FEW027 29/21 Q1006
                        NOSIG=
201209131100 METAR LMML NIL=
201209131045 METAR LMML 131045Z 33009KT 290V360 9999 FEW027 29/21 Q1007
                        NOSIG=
201209131030 METAR LMML NIL=
201209131015 METAR LMML 131015Z 01009KT 340V040 9999 FEW024 27/21 Q1007
                        NOSIG=
201209131000 METAR LMML NIL=
201209130945 METAR LMML 130945Z 35009KT 320V030 9999 FEW024 28/21 Q1007
                        NOSIG=
201209130930 METAR LMML NIL=
201209130915 METAR LMML 130915Z 36011KT 9999 FEW024 28/20 Q1008 NOSIG=
201209130900 METAR LMML NIL=
201209130845 METAR LMML 130845Z 01011KT 9999 SCT022 28/21 Q1008 NOSIG=
201209130830 METAR LMML NIL=
201209130815 METAR LMML 130815Z AUTO 35008KT 9999NDV SCT023/// SCT027///
                        28/22 Q1008=
201209130800 METAR LMML NIL=
201209130745 METAR LMML 130745Z AUTO 34009KT 9999NDV SCT022/// BKN031///
                        27/23 Q1008=
201209130730 METAR LMML NIL=
201209130715 METAR LMML 130715Z AUTO 32008KT 9999NDV SCT011/// SCT013///
                        BKN015/// 26/23 Q1008=
201209130700 METAR LMML NIL=
201209130645 METAR LMML 130645Z 26005KT 230V320 9999 FEW010 SCT013 27/24
                        Q1008 BECMG 9999=
201209130630 METAR LMML NIL=
201209130615 METAR LMML 130615Z 24006KT 9000 FEW008 SCT012 27/24 Q1008
                        BECMG 9999=
201209130600 METAR LMML NIL=
201209130545 METAR LMML 130545Z 24006KT 9000 FEW012 26/24 Q1008 BECMG
                        9999=
201209130530 METAR LMML NIL=
201209130515 METAR LMML 130515Z 23006KT 9000 FEW014 25/24 Q1008 BECMG
                        9999=
201209130500 METAR LMML NIL=
201209130445 METAR LMML 130445Z 23006KT 200V260 9000 FEW011 25/24 Q1008
                        BECMG 9999=
201209130430 METAR LMML NIL=
201209130415 METAR LMML 130415Z 23006KT 9999 FEW011 25/24 Q1008 NOSIG=
201209130400 METAR LMML NIL=
201209130345 METAR LMML 130345Z 23005KT 190V250 9999 SCT011 25/24 Q1008
                        NOSIG=
201209130330 METAR LMML NIL=
201209130315 METAR LMML 130315Z 22005KT 190V260 9999 BKN009 25/24 Q1008
                        NOSIG=
201209130300 METAR LMML NIL=
201209130245 METAR LMML 130245Z AUTO 22004KT 190V250 CAVOK 25/24 Q1009=
201209130230 METAR LMML NIL=
201209130215 METAR LMML 130215Z AUTO 23004KT 200V260 9999NDV HZ FEW012///
                        SCT027/// 25/24 Q1009=
201209130200 METAR LMML NIL=
201209130145 METAR LMML 130145Z AUTO 24003KT 180V290 9999NDV FEW013///
                        25/23 Q1009=
201209130130 METAR LMML NIL=
201209130115 METAR LMML 130115Z AUTO 23004KT 210V270 9999NDV FEW017///
                        SCT019/// 25/24 Q1010=
201209130100 METAR LMML NIL=
201209130045 METAR LMML 130045Z AUTO 22003KT 190V250 9999NDV FEW013///
                        25/24 Q1010=
201209130030 METAR LMML NIL=
201209130015 METAR LMML 130015Z AUTO 22004KT 9999NDV FEW011/// 25/24 Q1010=
201209130000 METAR LMML NIL=
201209122345 METAR LMML 122345Z AUTO 22003KT 9999NDV FEW008/// SCT019///
                        25/23 Q1011=
201209122330 METAR LMML NIL=
201209122315 METAR LMML 122315Z AUTO 22004KT 9999NDV FEW015/// SCT018///
                        25/23 Q1011=
201209122300 METAR LMML NIL=
201209122245 METAR LMML 122245Z AUTO 23004KT CAVOK 25/23 Q1011=
201209122230 METAR LMML NIL=
201209122215 METAR LMML 122215Z AUTO VRB01KT CAVOK 24/23 Q1011=
201209122200 METAR LMML NIL=
201209122145 METAR LMML 122145Z AUTO 22003KT 190V250 CAVOK 25/23 Q1012=
201209122130 METAR LMML NIL=
201209122115 METAR LMML 122115Z AUTO 21003KT 170V240 CAVOK 25/23 Q1012=
201209122100 METAR LMML NIL=
201209122045 METAR LMML 122045Z AUTO 22004KT CAVOK 25/23 Q1012=
201209122030 METAR LMML NIL=
201209122015 METAR LMML 122015Z AUTO 21002KT CAVOK 25/23 Q1012=
201209122000 METAR LMML NIL=
201209121945 METAR LMML 121945Z 20002KT 9999 FEW012 25/23 Q1012 NOSIG=
201209121930 METAR LMML NIL=
201209121915 METAR LMML 121915Z VRB01KT 9999 FEW012 25/23 Q1012 NOSIG=
201209121845 METAR LMML 121845Z 24002KT 9999 FEW012 25/23 Q1012 NOSIG=
201209121830 METAR LMML NIL=
201209121815 METAR LMML 121815Z 25003KT 9999 FEW009 25/23 Q1012 NOSIG=
201209121800 METAR LMML NIL=
201209121745 METAR LMML 121745Z 27003KT 240V300 9999 FEW017 26/23 Q1012
                        NOSIG=
201209121730 METAR LMML NIL=
201209121715 METAR LMML 121715Z 27005KT 9999 FEW017 26/23 Q1012 NOSIG=
201209121700 METAR LMML NIL=
201209121645 METAR LMML 121645Z 27006KT 9999 FEW017 27/23 Q1012 NOSIG=
201209121630 METAR LMML NIL=
201209121615 METAR LMML 121615Z 25006KT 230V300 9999 FEW017 27/23 Q1013
                        NOSIG=
201209121600 METAR LMML NIL=
201209121545 METAR LMML 121545Z 27006KT 230V300 9999 FEW018 28/22 Q1013
                        NOSIG=
201209121530 METAR LMML NIL=
201209121515 METAR LMML 121515Z 26008KT 230V310 9999 FEW019 28/22 Q1013
                        NOSIG=
201209121500 METAR LMML NIL=
201209121445 METAR LMML 121445Z 26008KT 220V300 9999 FEW025 29/21 Q1013
                        NOSIG=
201209121415 METAR LMML 121415Z 26007KT 230V300 9999 FEW025 29/18 Q1013
                        NOSIG=
201209121400 METAR LMML NIL=
201209121345 METAR LMML 121345Z 26010KT 230V300 9999 FEW025 28/18 Q1014
                        NOSIG=
201209121330 METAR LMML NIL=
201209121315 METAR LMML 121315Z 26009KT 230V290 9999 FEW025 28/18 Q1014
                        NOSIG=
201209121300 METAR LMML NIL=
201209121245 METAR LMML 121245Z 26009KT 240V300 9999 FEW030 29/18 Q1014
                        NOSIG=
201209121215 METAR LMML 121215Z 25009KT 210V290 9999 FEW025 29/20 Q1014
                        NOSIG=
201209121200 METAR LMML NIL=
201209121145 METAR LMML 121145Z 25009KT 9999 FEW025 29/17 Q1014 NOSIG=
201209121130 METAR LMML NIL=
201209121115 METAR LMML 121115Z 25008KT 220V290 9999 FEW025 29/17 Q1015
                        NOSIG=
201209121100 METAR LMML NIL=
201209121045 METAR LMML 121045Z 25009KT 9999 FEW025 29/18 Q1015 NOSIG=
201209121030 METAR LMML NIL=
201209121015 METAR LMML 121015Z 25009KT 9999 FEW025 29/19 Q1015 NOSIG=
201209121000 METAR LMML NIL=
201209120945 METAR LMML 120945Z 23009KT 200V260 9999 FEW025 28/20 Q1015
                        NOSIG=
201209120930 METAR LMML NIL=
201209120915 METAR LMML 120915Z 23007KT 190V260 CAVOK 28/20 Q1015 TEMPO
                        9999 FEW020=
201209120900 METAR LMML NIL=
201209120845 METAR LMML 120845Z 21006KT 150V270 CAVOK 29/18 Q1016 TEMPO
                        9999 FEW020=
201209120830 METAR LMML NIL=
201209120815 METAR LMML 120815Z 33004KT 280V010 CAVOK 29/15 Q1015 TEMPO
                        9999 FEW020=
201209120800 METAR LMML NIL=
201209120745 METAR LMML 120745Z 28004KT 250V310 CAVOK 28/17 Q1015 TEMPO
                        9999 FEW020=
201209120730 METAR LMML NIL=
201209120715 METAR LMML 120715Z 28005KT 240V300 CAVOK 27/19 Q1015 NOSIG=
201209120700 METAR LMML NIL=
201209120645 METAR LMML 120645Z 28004KT CAVOK 26/21 Q1015 NOSIG=
201209120630 METAR LMML NIL=
201209120615 METAR LMML 120615Z 27004KT CAVOK 25/20 Q1015 NOSIG=
201209120600 METAR LMML NIL=
201209120545 METAR LMML 120545Z 27005KT CAVOK 24/20 Q1015 NOSIG=
201209120530 METAR LMML NIL=
201209120515 METAR LMML 120515Z 26005KT CAVOK 22/19 Q1015 NOSIG=
201209120500 METAR LMML NIL=
201209120445 METAR LMML 120445Z 26005KT CAVOK 22/19 Q1015 NOSIG=
201209120430 METAR LMML NIL=
201209120415 METAR LMML 120415Z 27005KT CAVOK 22/19 Q1015 NOSIG=
201209120400 METAR LMML NIL=
201209120345 METAR LMML 120345Z 26006KT CAVOK 22/19 Q1015 NOSIG=
201209120330 METAR LMML NIL=
201209120315 METAR LMML 120315Z 27006KT CAVOK 22/19 Q1015 NOSIG=
201209120300 METAR LMML NIL=
201209120245 METAR LMML 120245Z AUTO 27006KT CAVOK 22/20 Q1015=
201209120230 METAR LMML NIL=
201209120215 METAR LMML 120215Z AUTO 27005KT CAVOK 22/20 Q1016=
201209120200 METAR LMML NIL=
201209120145 METAR LMML 120145Z AUTO 26004KT CAVOK 22/20 Q1016=
201209120130 METAR LMML NIL=
201209120115 METAR LMML 120115Z AUTO 26005KT CAVOK 22/20 Q1016=
201209120100 METAR LMML NIL=
201209120045 METAR LMML 120045Z AUTO 27006KT CAVOK 23/19 Q1016=
201209120030 METAR LMML NIL=
201209120015 METAR LMML 120015Z AUTO 27005KT CAVOK 23/19 Q1016=
201209120000 METAR LMML NIL=
201209112345 METAR LMML 112345Z AUTO 25005KT CAVOK 22/19 Q1017=
201209112330 METAR LMML NIL=
201209112315 METAR LMML 112315Z AUTO 26004KT CAVOK 22/19 Q1017=
201209112245 METAR LMML 112245Z AUTO 26003KT CAVOK 23/19 Q1017=
201209112230 METAR LMML NIL=
201209112215 METAR LMML 112215Z AUTO 29003KT CAVOK 23/19 Q1017=
201209112200 METAR LMML NIL=
201209112145 METAR LMML 112145Z AUTO 29003KT CAVOK 23/20 Q1017=
201209112130 METAR LMML NIL=
201209112115 METAR LMML 112115Z AUTO 30005KT CAVOK 23/20 Q1017=
201209112100 METAR LMML NIL=
201209112045 METAR LMML 112045Z AUTO 28004KT CAVOK 23/20 Q1017=
201209112030 METAR LMML NIL=
201209112015 METAR LMML 112015Z AUTO 31003KT 250V350 CAVOK 24/20 Q1017=
201209112000 METAR LMML NIL=
201209111945 METAR LMML 111945Z 34004KT CAVOK 24/20 Q1017 NOSIG=
201209111930 METAR LMML NIL=
201209111915 METAR LMML 111915Z 33003KT CAVOK 24/20 Q1017 NOSIG=
201209111900 METAR LMML NIL=
201209111845 METAR LMML 111845Z 32004KT CAVOK 24/20 Q1017 NOSIG=
201209111830 METAR LMML NIL=
201209111815 METAR LMML 111815Z 33004KT CAVOK 24/20 Q1017 NOSIG=
201209111800 METAR LMML NIL=
201209111745 METAR LMML 111745Z 33005KT CAVOK 24/20 Q1016 NOSIG=
201209111730 METAR LMML NIL=
201209111715 METAR LMML 111715Z 30007KT CAVOK 25/20 Q1017 NOSIG=
201209111700 METAR LMML NIL=
201209111645 METAR LMML 111645Z 31008KT 9999 FEW020 26/20 Q1017 NOSIG=
201209111630 METAR LMML NIL=
201209111615 METAR LMML 111615Z 30009KT CAVOK 27/20 Q1017 NOSIG=
201209111600 METAR LMML NIL=
201209111545 METAR LMML 111545Z 29010KT 260V320 CAVOK 27/19 Q1016 NOSIG=
201209111530 METAR LMML NIL=
201209111515 METAR LMML 111515Z 29010KT 260V320 9999 FEW029 28/18 Q1017
                        NOSIG=
201209111500 METAR LMML NIL=
201209111445 METAR LMML 111445Z 31009KT 9999 FEW029 28/18 Q1017 NOSIG=
201209111430 METAR LMML NIL=
201209111415 METAR LMML 111415Z 29010KT 260V320 9999 FEW029 28/19 Q1017
                        NOSIG RMK CB TOP TO EAST=
201209111400 METAR LMML NIL=
201209111345 METAR LMML 111345Z 29008KT 240V320 9999 FEW029 28/20 Q1017
                        NOSIG RMK CB TOP TO EAST=
201209111330 METAR LMML NIL=
201209111315 METAR LMML 111315Z 28009KT 250V320 9999 SCT027 28/20 Q1017
                        NOSIG=
201209111300 METAR LMML NIL=
201209111245 METAR LMML 111245Z AUTO 31009KT 280V340 9999NDV SCT025///
                        BKN030/// 28/21 Q1017=
201209111230 METAR LMML NIL=
201209111215 METAR LMML 111215Z 30007KT 240V330 9999 SCT028 28/20 Q1018
                        NOSIG=
201209111200 METAR LMML NIL=
201209111145 METAR LMML 111145Z 28008KT 250V320 9999 SCT025 28/20 Q1018
                        NOSIG=
201209111130 METAR LMML NIL=
201209111115 METAR LMML 111115Z 29008KT 250V320 9999 SCT026 28/20 Q1018
                        NOSIG=
201209111100 METAR LMML NIL=
201209111045 METAR LMML 111045Z 28008KT 250V320 9999 SCT026 28/19 Q1018
                        NOSIG=
201209111030 METAR LMML NIL=
201209111015 METAR LMML 111015Z 29006KT 220V320 9999 SCT026 28/20 Q1018
                        NOSIG=
201209111000 METAR LMML NIL=
201209110945 METAR LMML 110945Z 27005KT 220V310 9999 SCT028 28/20 Q1019
                        NOSIG=
201209110930 METAR LMML NIL=
201209110915 METAR LMML 110915Z 28006KT 240V330 9999 SCT028 28/21 Q1019
                        NOSIG=
201209110900 METAR LMML NIL=
201209110845 METAR LMML 110845Z 28004KT 230V320 9999 SCT025 27/20 Q1019
                        NOSIG=
201209110830 METAR LMML NIL=
201209110815 METAR LMML 110815Z VRB03KT 9999 SCT020 27/20 Q1019 NOSIG=
201209110745 METAR LMML 110745Z 30004KT 9999 SCT016 26/21 Q1018 NOSIG=
201209110730 METAR LMML NIL=
201209110715 METAR LMML 110715Z 25003KT 190V300 9999 BKN015 26/22 Q1018
                        NOSIG=
201209110700 METAR LMML NIL=
201209110645 METAR LMML 110645Z 28003KT 240V320 9999 SCT015 26/22 Q1018
                        NOSIG=
201209110630 METAR LMML NIL=
201209110615 METAR LMML 110615Z VRB02KT 9000 FEW018 25/22 Q1018 BECMG
                        9999=
201209110600 METAR LMML NIL=
201209110545 METAR LMML 110545Z 28003KT 9000 FEW018 24/22 Q1018 BECMG
                        9999=
201209110530 METAR LMML NIL=
201209110515 METAR LMML 110515Z 28003KT 8000 HZ FEW015 22/21 Q1018 BECMG
                        9999=
201209110500 METAR LMML NIL=
201209110445 METAR LMML 110445Z 29002KT 8000 FEW015 22/21 Q1017 BECMG
                        9999=
201209110430 METAR LMML NIL=
201209110415 METAR LMML 110415Z 28004KT 7000 FEW015 22/21 Q1017 NOSIG=
201209110400 METAR LMML NIL=
201209110345 METAR LMML 110345Z 28003KT 8000 FEW015 22/21 Q1017 NOSIG=
201209110330 METAR LMML NIL=
201209110315 METAR LMML 110315Z 26002KT 8000 FEW015 22/21 Q1017 NOSIG=
201209110300 METAR LMML NIL=
201209110245 METAR LMML 110245Z AUTO VRB01KT 6000NDV HZ NCD 22/21 Q1017=
201209110230 METAR LMML NIL=
201209110215 METAR LMML 110215Z AUTO 27003KT 9000NDV HZ NCD 23/21 Q1017=
201209110200 METAR LMML NIL=
201209110145 METAR LMML 110145Z AUTO 28003KT 9000NDV NCD 23/21 Q1018=
201209110130 METAR LMML NIL=
201209110115 METAR LMML 110115Z AUTO 28003KT 5000NDV NCD 23/21 Q1018=
201209110100 METAR LMML NIL=
201209110045 METAR LMML 110045Z AUTO 28003KT 7000NDV HZ NCD 23/21 Q1018=
201209110030 METAR LMML NIL=
201209110015 METAR LMML 110015Z AUTO 28001KT 6000NDV NCD 23/21 Q1018=
201209110000 METAR LMML NIL=
201209102345 METAR LMML 102345Z AUTO 27002KT 6000NDV HZ NCD 23/21 Q1018=
201209102330 METAR LMML NIL=
201209102315 METAR LMML 102315Z AUTO 28003KT 6000NDV HZ NCD 23/22 Q1018=
201209102300 METAR LMML NIL=
201209102245 METAR LMML 102245Z AUTO 31002KT 6000NDV HZ NCD 23/21 Q1018=
201209102230 METAR LMML NIL=
201209102215 METAR LMML 102215Z AUTO 32002KT 7000NDV NCD 24/22 Q1018=
201209102200 METAR LMML NIL=
201209102145 METAR LMML 102145Z AUTO 33003KT 290V020 9000NDV NCD 24/22
                        Q1018=
201209102130 METAR LMML NIL=
201209102115 METAR LMML 102115Z AUTO 33002KT 9000NDV HZ NCD 24/22 Q1019=
201209102100 METAR LMML NIL=
201209102045 METAR LMML 102045Z AUTO VRB02KT CAVOK 24/22 Q1019=
201209102030 METAR LMML NIL=
201209102015 METAR LMML 102015Z AUTO 25003KT CAVOK 24/22 Q1019=
201209102000 METAR LMML NIL=
201209101945 METAR LMML 101945Z 28003KT 250V320 9999 FEW015 25/22 Q1019
                        NOSIG=
201209101930 METAR LMML NIL=
201209101915 METAR LMML 101915Z 30004KT 9999 FEW017 25/22 Q1018 NOSIG=
201209101900 METAR LMML NIL=
201209101845 METAR LMML 101845Z 32003KT 9999 FEW017 25/22 Q1018 NOSIG=
201209101830 METAR LMML NIL=
201209101815 METAR LMML 101815Z 30005KT 9999 FEW017 25/22 Q1018 NOSIG=
201209101800 METAR LMML NIL=
201209101745 METAR LMML 101745Z 30005KT 9999 FEW020 26/22 Q1018 NOSIG=
201209101730 METAR LMML NIL=
201209101715 METAR LMML 101715Z 30006KT 9999 FEW020 26/21 Q1018 NOSIG=
201209101700 METAR LMML NIL=
201209101645 METAR LMML 101645Z 29006KT 260V320 9999 FEW021 27/21 Q1018
                        NOSIG=
201209101630 METAR LMML NIL=
201209101615 METAR LMML 101615Z 29007KT 260V320 9999 SCT023 27/21 Q1018
                        NOSIG=
201209101600 METAR LMML NIL=
201209101545 METAR LMML 101545Z 28006KT 230V320 9999 SCT022 27/21 Q1018
                        NOSIG=
201209101530 METAR LMML NIL=
201209101515 METAR LMML 101515Z 27006KT 230V290 9999 SCT022 28/22 Q1018
                        NOSIG=
201209101500 METAR LMML NIL=
201209101445 METAR LMML 101445Z 27007KT 230V300 9999 SCT023 28/22 Q1018
                        NOSIG=
201209101430 METAR LMML NIL=
201209101415 METAR LMML 101415Z 25010KT 9999 SCT022 28/22 Q1018 NOSIG=
201209101400 METAR LMML NIL=
201209101345 METAR LMML 101345Z 25008KT 220V290 9999 SCT022 28/22 Q1018
                        NOSIG=
201209101330 METAR LMML NIL=
201209101315 METAR LMML 101315Z AUTO 26007KT 220V300 9999NDV SCT020///
                        BKN024/// 29/22 Q1018 NOSIG=
201209101300 METAR LMML NIL=
201209101245 METAR LMML 101245Z 25008KT 9999 SCT021 29/22 Q1018 NOSIG=
201209101230 METAR LMML NIL=
201209101215 METAR LMML 101215Z 25007KT 210V290 9999 FEW030 29/21 Q1018
                        NOSIG=
201209101200 METAR LMML NIL=
201209101145 METAR LMML 101145Z 25007KT 200V300 9999 FEW028 29/20 Q1019
                        NOSIG=
201209101130 METAR LMML NIL=
201209101115 METAR LMML 101115Z 24007KT 190V280 9999 FEW028 29/20 Q1019
                        NOSIG=
201209101100 METAR LMML NIL=
201209101045 METAR LMML 101045Z 25007KT 220V300 9999 FEW030 29/20 Q1019
                        NOSIG=
201209101030 METAR LMML NIL=
201209101015 METAR LMML 101015Z 26007KT 220V300 9999 FEW028 28/21 Q1019
                        NOSIG=
201209101000 METAR LMML NIL=
201209100945 METAR LMML 100945Z 25007KT 210V290 9999 FEW025 28/21 Q1019
                        NOSIG=
201209100930 METAR LMML NIL=
201209100915 METAR LMML 100915Z 25008KT 230V290 9999 FEW025 28/21 Q1019
                        NOSIG=
201209100900 METAR LMML NIL=
201209100845 METAR LMML 100845Z 24004KT 190V300 9999 FEW025 28/21 Q1019
                        NOSIG=
201209100830 METAR LMML NIL=
201209100815 METAR LMML 100815Z 27005KT 200V310 9999 FEW030 28/21 Q1019
                        NOSIG=
201209100800 METAR LMML NIL=
201209100745 METAR LMML 100745Z 26005KT 210V330 CAVOK 27/20 Q1019 BECMG
                        FEW020=
201209100730 METAR LMML NIL=
201209100715 METAR LMML 100715Z 30004KT 270V330 CAVOK 27/19 Q1019 BECMG
                        FEW020=
201209100700 METAR LMML NIL=
201209100645 METAR LMML 100645Z 26003KT 230V300 CAVOK 26/21 Q1018 BECMG
                        FEW020=
201209100630 METAR LMML NIL=
201209100615 METAR LMML 100615Z 25002KT CAVOK 25/21 Q1018 BECMG FEW020=
201209100600 METAR LMML NIL=
201209100545 METAR LMML 100545Z AUTO 26003KT 7000NDV HZ NCD 24/21 Q1018
                        BECMG 9999 FEW020=
201209100530 METAR LMML NIL=
201209100515 METAR LMML 100515Z 28004KT 8000 NSC 23/21 Q1018 BECMG 9999
                        FEW020=
201209100445 METAR LMML 100445Z 32003KT 8000 NSC 23/21 Q1018 NOSIG=
201209100430 METAR LMML NIL=
201209100415 METAR LMML 100415Z 31003KT 8000 NSC 23/21 Q1017 NOSIG=
201209100400 METAR LMML NIL=
201209100345 METAR LMML 100345Z 29003KT 9000 NSC 23/21 Q1017 NOSIG=
201209100330 METAR LMML NIL=
201209100315 METAR LMML 100315Z 30005KT 9000 NSC 23/21 Q1017 NOSIG=
201209100300 METAR LMML NIL=
201209100245 METAR LMML 100245Z AUTO 31004KT 9000NDV NCD 23/21 Q1017=
201209100230 METAR LMML NIL=
201209100215 METAR LMML 100215Z AUTO 29003KT 9000NDV NCD 23/21 Q1017=
201209100200 METAR LMML NIL=
201209100145 METAR LMML 100145Z AUTO 28004KT 7000NDV HZ NCD 23/21 Q1018=
201209100130 METAR LMML NIL=
201209100115 METAR LMML 100115Z AUTO 29004KT 5000NDV HZ NCD 23/21 Q1018=
201209100100 METAR LMML NIL=
201209100045 METAR LMML 100045Z AUTO VRB02KT 6000NDV HZ NCD 23/21 Q1018=
201209100015 METAR LMML 100015Z AUTO 30004KT 4600NDV HZ NCD 23/22 Q1018=
201209100000 METAR LMML NIL=
201209092345 METAR LMML 092345Z AUTO 31001KT 5000NDV HZ NCD 23/22 Q1018=
201209092330 METAR LMML NIL=
201209092315 METAR LMML 092315Z AUTO 00000KT 6000NDV HZ NCD 23/22 Q1018=
201209092300 METAR LMML NIL=
201209092245 METAR LMML 092245Z AUTO 29002KT 7000NDV HZ NCD 23/22 Q1018=
201209092230 METAR LMML NIL=
201209092215 METAR LMML 092215Z AUTO VRB02KT 5000NDV HZ NCD 24/22 Q1018=
201209092200 METAR LMML NIL=
201209092145 METAR LMML 092145Z AUTO 27002KT 6000NDV HZ NCD 24/22 Q1018=
201209092130 METAR LMML NIL=
201209092115 METAR LMML 092115Z AUTO 32002KT 7000NDV HZ NCD 24/21 Q1018=
201209092100 METAR LMML NIL=
201209092045 METAR LMML 092045Z AUTO 30003KT 8000NDV NCD 24/21 Q1018=
201209092030 METAR LMML NIL=
201209092015 METAR LMML 092015Z AUTO VRB02KT 8000NDV HZ NCD 24/21 Q1018=
201209092000 METAR LMML NIL=
201209091945 METAR LMML 091945Z VRB02KT CAVOK 24/21 Q1018 NOSIG=
201209091930 METAR LMML NIL=
201209091915 METAR LMML 091915Z 27003KT 240V300 CAVOK 24/21 Q1018 NOSIG=
201209091900 METAR LMML NIL=
201209091845 METAR LMML 091845Z 27003KT 240V300 CAVOK 24/21 Q1018 NOSIG=
201209091830 METAR LMML NIL=
201209091815 METAR LMML 091815Z 30003KT 9999 FEW020 25/21 Q1017 NOSIG=
201209091800 METAR LMML NIL=
201209091745 METAR LMML 091745Z 27004KT 9999 FEW020 25/21 Q1018 NOSIG=
201209091730 METAR LMML NIL=
201209091715 METAR LMML 091715Z 30005KT 9999 FEW020 26/21 Q1018 NOSIG=
201209091700 METAR LMML NIL=
201209091645 METAR LMML 091645Z 29006KT 9999 FEW030 27/21 Q1017 NOSIG=
201209091630 METAR LMML NIL=
201209091615 METAR LMML 091615Z 31006KT 9999 FEW030 27/21 Q1017 NOSIG=
201209091600 METAR LMML NIL=
201209091545 METAR LMML 091545Z 32007KT 9999 FEW030 28/20 Q1017 NOSIG=
201209091530 METAR LMML NIL=
201209091515 METAR LMML 091515Z 31007KT 280V340 9999 FEW030 28/20 Q1017
                        NOSIG=
201209091500 METAR LMML NIL=
201209091445 METAR LMML 091445Z 31007KT 270V340 9999 FEW030 28/20 Q1017
                        NOSIG=
201209091430 METAR LMML NIL=
201209091415 METAR LMML 091415Z 28007KT 240V310 9999 FEW030 29/20 Q1017
                        NOSIG=
201209091400 METAR LMML NIL=
201209091345 METAR LMML 091345Z 29006KT 240V040 9999 FEW030 29/20 Q1018
                        NOSIG=
201209091330 METAR LMML NIL=
201209091315 METAR LMML 091315Z 30006KT 260V340 9999 FEW028 29/20 Q1018
                        NOSIG=
201209091300 METAR LMML NIL=
201209091245 METAR LMML 091245Z 28007KT 220V330 9999 FEW028 29/20 Q1018
                        NOSIG=
201209091230 METAR LMML NIL=
201209091215 METAR LMML 091215Z 25008KT 220V280 9999 FEW027 29/20 Q1018
                        NOSIG=
201209091200 METAR LMML NIL=
201209091145 METAR LMML 091145Z 05006KT 030V090 9999 FEW027 28/21 Q1018
                        NOSIG=
201209091130 METAR LMML NIL=
201209091115 METAR LMML 091115Z 07005KT 040V110 9999 FEW026 29/21 Q1018
                        NOSIG=
201209091100 METAR LMML NIL=
201209091045 METAR LMML 091045Z 24004KT 160V320 9999 FEW029 29/18 Q1019
                        NOSIG=
201209091030 METAR LMML NIL=
201209091015 METAR LMML 091015Z 25005KT 210V320 9999 FEW030 29/19 Q1019
                        NOSIG=
201209091000 METAR LMML NIL=
201209090945 METAR LMML 090945Z 25006KT 9999 FEW030 29/19 Q1019 NOSIG=
201209090930 METAR LMML NIL=
201209090915 METAR LMML 090915Z 23007KT 180V250 9999 FEW031 28/20 Q1019
                        NOSIG=
201209090900 METAR LMML NIL=
201209090845 METAR LMML 090845Z AUTO 25005KT 210V340 9999NDV SCT026///
                        28/20 Q1019=
201209090830 METAR LMML NIL=
201209090815 METAR LMML 090815Z AUTO VRB02KT CAVOK 28/20 Q1019=
201209090800 METAR LMML NIL=
201209090745 METAR LMML 090745Z AUTO VRB02KT CAVOK 27/21 Q1018=
201209090730 METAR LMML NIL=
201209090715 METAR LMML 090715Z 34004KT 300V020 CAVOK 26/21 Q1018 NOSIG=
201209090700 METAR LMML NIL=
201209090645 METAR LMML 090645Z 33003KT CAVOK 25/22 Q1018 NOSIG=
201209090630 METAR LMML NIL=
201209090615 METAR LMML 090615Z VRB02KT 9000 NSC 24/21 Q1018 NOSIG=
201209090600 METAR LMML NIL=
201209090545 METAR LMML 090545Z VRB02KT 9000 FEW015 23/21 Q1018 NOSIG=
201209090515 METAR LMML 090515Z 28003KT 9000 FEW015 22/20 Q1018 NOSIG=
201209090500 METAR LMML NIL=
201209090445 METAR LMML 090445Z 30003KT 9000 NSC 22/20 Q1018 BECMG 9999
                        FEW020=
201209090430 METAR LMML NIL=
201209090415 METAR LMML 090415Z 26003KT 7000 NSC 21/20 Q1018 BECMG 9999
                        FEW020=
201209090400 METAR LMML NIL=
201209090345 METAR LMML 090345Z 27002KT 7000 NSC 22/19 Q1018 NOSIG=
201209090330 METAR LMML NIL=
201209090315 METAR LMML 090315Z 29003KT 7000 NSC 22/19 Q1018 NOSIG=
201209090300 METAR LMML NIL=
201209090245 METAR LMML 090245Z AUTO 30003KT 4700NDV HZ NCD 22/19 Q1018=
201209090230 METAR LMML NIL=
201209090215 METAR LMML 090215Z AUTO 28003KT 5000NDV HZ NCD 22/20 Q1018=
201209090200 METAR LMML NIL=
201209090145 METAR LMML 090145Z AUTO 28002KT 5000NDV HZ NCD 22/20 Q1018=
201209090130 METAR LMML NIL=
201209090115 METAR LMML 090115Z AUTO 30002KT 4900NDV HZ NCD 22/20 Q1018=
201209090100 METAR LMML NIL=
201209090045 METAR LMML 090045Z AUTO 29002KT 4500NDV HZ NCD 22/21 Q1018=
201209090030 METAR LMML NIL=
201209090015 METAR LMML 090015Z AUTO 27003KT 4700NDV HZ NCD 22/21 Q1018=
201209090000 METAR LMML NIL=
201209082345 METAR LMML 082345Z AUTO 28002KT 3900NDV HZ NCD 22/21 Q1018=
201209082330 METAR LMML NIL=
201209082315 METAR LMML 082315Z AUTO VRB02KT 4500NDV HZ NCD 23/21 Q1018=
201209082300 METAR LMML NIL=
201209082245 METAR LMML 082245Z AUTO 30003KT 280V340 5000NDV HZ NCD 23/21
                        Q1018=
201209082230 METAR LMML NIL=
201209082215 METAR LMML 082215Z AUTO 34004KT 6000NDV HZ NCD 23/21 Q1018=
201209082200 METAR LMML NIL=
201209082145 METAR LMML 082145Z AUTO 35004KT 330V030 6000NDV HZ NCD 24/21
                        Q1018=
201209082130 METAR LMML NIL=
201209082115 METAR LMML 082115Z AUTO 34005KT 6000NDV HZ NCD 23/21 Q1018=
201209082100 METAR LMML NIL=
201209082045 METAR LMML 082045Z AUTO 32003KT 6000NDV HZ NCD 24/21 Q1019=
201209082030 METAR LMML NIL=
201209082015 METAR LMML 082015Z AUTO 31003KT 8000NDV HZ NCD 24/21 Q1019=
201209082000 METAR LMML NIL=
201209081945 METAR LMML 081945Z 32004KT 9999 FEW020 24/21 Q1019 NOSIG=
201209081930 METAR LMML NIL=
201209081915 METAR LMML 081915Z 30004KT 9999 FEW025 25/21 Q1018 NOSIG=
201209081900 METAR LMML NIL=
201209081845 METAR LMML 081845Z 26003KT 9999 FEW025 25/20 Q1018 NOSIG=
201209081830 METAR LMML NIL=
201209081815 METAR LMML 081815Z 26003KT 9999 FEW025 25/20 Q1018 NOSIG=
201209081800 METAR LMML NIL=
201209081745 METAR LMML 081745Z 26004KT 9999 FEW025 25/20 Q1018 NOSIG=
201209081730 METAR LMML NIL=
201209081715 METAR LMML 081715Z 24006KT 9999 FEW025 26/20 Q1018 NOSIG=
201209081700 METAR LMML NIL=
201209081645 METAR LMML 081645Z 24004KT 210V280 9999 FEW025 27/20 Q1017
                        NOSIG=
201209081630 METAR LMML NIL=
201209081615 METAR LMML 081615Z 24005KT 9999 FEW025 27/20 Q1017 NOSIG=
201209081600 METAR LMML NIL=
201209081545 METAR LMML 081545Z 24005KT 220V280 9999 FEW025 28/20 Q1018
                        NOSIG=
201209081530 METAR LMML NIL=
201209081515 METAR LMML 081515Z 22006KT 170V280 9999 FEW028 28/20 Q1017
                        NOSIG=
201209081500 METAR LMML NIL=
201209081445 METAR LMML 081445Z 24006KT 180V270 9999 FEW025 28/20 Q1018
                        NOSIG=
201209081430 METAR LMML NIL=
201209081415 METAR LMML 081415Z 25006KT 210V280 9999 FEW025 28/19 Q1018
                        NOSIG=
201209081400 METAR LMML NIL=
201209081345 METAR LMML 081345Z 22007KT 190V270 9999 FEW025 29/20 Q1018
                        NOSIG=
201209081330 METAR LMML NIL=
201209081315 METAR LMML 081315Z 23007KT 180V290 9999 FEW025 29/19 Q1018
                        NOSIG=
201209081300 METAR LMML NIL=
201209081245 METAR LMML 081245Z 22007KT 170V270 9999 FEW025 29/20 Q1018
                        NOSIG=
201209081230 METAR LMML NIL=
201209081215 METAR LMML 081215Z 22006KT 170V270 9999 FEW028 28/20 Q1018
                        NOSIG=
201209081200 METAR LMML NIL=
201209081145 METAR LMML 081145Z 21005KT 170V320 9999 FEW025 29/19 Q1019
                        NOSIG=
201209081130 METAR LMML NIL=
201209081115 METAR LMML 081115Z 22005KT 160V270 9999 FEW025 28/20 Q1019
                        NOSIG=
201209081100 METAR LMML NIL=
201209081045 METAR LMML 081045Z 22006KT 170V260 9999 FEW025 29/20 Q1019
                        NOSIG=
201209081030 METAR LMML NIL=
201209081015 METAR LMML 081015Z 19006KT 150V260 9999 FEW025 29/19 Q1019
                        NOSIG=
201209081000 METAR LMML NIL=
201209080945 METAR LMML 080945Z 19004KT 080V250 9999 FEW025 28/19 Q1019
                        NOSIG=
201209080930 METAR LMML NIL=
201209080915 METAR LMML 080915Z 18006KT 120V240 9999 FEW020 28/20 Q1019
                        NOSIG=
201209080900 METAR LMML NIL=
201209080845 METAR LMML 080845Z VRB05KT 9999 FEW020 28/19 Q1019 NOSIG=
201209080830 METAR LMML NIL=
201209080815 METAR LMML 080815Z 17006KT 120V230 9999 FEW020 28/19 Q1019
                        NOSIG=
201209080800 METAR LMML NIL=
201209080745 METAR LMML 080745Z 18005KT 150V220 9999 FEW020 27/19 Q1019
                        NOSIG=
201209080730 METAR LMML NIL=
201209080715 METAR LMML 080715Z VRB03KT 9999 FEW020 27/20 Q1019 NOSIG=
201209080700 METAR LMML NIL=
201209080645 METAR LMML 080645Z VRB02KT 8000 FEW020 26/23 Q1019 BECMG
                        9999=
201209080630 METAR LMML NIL=
201209080615 METAR LMML 080615Z 00000KT 7000 FEW020 25/23 Q1018 BECMG
                        9999=
201209080600 METAR LMML NIL=
201209080545 METAR LMML 080545Z 28002KT 6000 FEW020 23/22 Q1018 BECMG
                        9999 RMK MIST=
201209080530 METAR LMML NIL=
201209080515 METAR LMML 080515Z 25002KT 6000 FEW020 22/21 Q1018 BECMG
                        9999 RMK MIST=
201209080500 METAR LMML NIL=
201209080445 METAR LMML 080445Z 23002KT 6000 FEW020 22/21 Q1018 BECMG
                        9999=
201209080430 METAR LMML NIL=
201209080415 METAR LMML 080415Z 23002KT 6000 FEW020 22/21 Q1018 BECMG
                        9999=
201209080400 METAR LMML NIL=
201209080345 METAR LMML 080345Z 27001KT 7000 NSC 22/20 Q1018 BECMG 9999=
201209080330 METAR LMML NIL=
201209080315 METAR LMML 080315Z 23003KT 7000 NSC 22/21 Q1018 BECMG 9999=
201209080300 METAR LMML NIL=
201209080245 METAR LMML 080245Z AUTO 23004KT 5000NDV HZ NCD 22/20 Q1018=
201209080230 METAR LMML NIL=
201209080215 METAR LMML 080215Z AUTO 25002KT 3100NDV HZ NCD 22/20 Q1018=
201209080200 METAR LMML NIL=
201209080145 METAR LMML 080145Z AUTO VRB01KT 4200NDV HZ NCD 22/20 Q1018=
201209080130 METAR LMML NIL=
201209080115 METAR LMML 080115Z AUTO 26003KT 220V280 3400NDV HZ NCD 22/21
                        Q1018=
201209080100 METAR LMML NIL=
201209080045 METAR LMML 080045Z AUTO 28005KT 4900NDV HZ NCD 22/21 Q1019=
201209080030 METAR LMML NIL=
201209080015 METAR LMML 080015Z AUTO 25004KT 5000NDV HZ NCD 22/21 Q1019=
201209080000 METAR LMML NIL=
201209072345 METAR LMML 072345Z AUTO 27003KT 6000NDV HZ NCD 22/21 Q1019=
201209072330 METAR LMML NIL=
201209072315 METAR LMML 072315Z AUTO 35001KT 7000NDV HZ NCD 23/21 Q1019=
201209072300 METAR LMML NIL=
201209072245 METAR LMML 072245Z AUTO VRB01KT 7000NDV HZ NCD 23/21 Q1019=
201209072230 METAR LMML NIL=
201209072215 METAR LMML 072215Z AUTO VRB01KT 7000NDV HZ NCD 23/21 Q1019=
201209072200 METAR LMML NIL=
201209072145 METAR LMML 072145Z AUTO 34003KT 9000NDV NCD 23/21 Q1019=
201209072130 METAR LMML NIL=
201209072115 METAR LMML 072115Z AUTO 34005KT CAVOK 23/21 Q1019=
201209072100 METAR LMML NIL=
201209072045 METAR LMML 072045Z AUTO 31003KT CAVOK 23/20 Q1019=
201209072030 METAR LMML NIL=
201209072015 METAR LMML 072015Z AUTO 31003KT CAVOK 23/20 Q1019=
201209072000 METAR LMML NIL=
201209071945 METAR LMML 071945Z 32004KT CAVOK 24/20 Q1019 NOSIG=
201209071930 METAR LMML NIL=
201209071915 METAR LMML 071915Z 35005KT 9999 FEW023 24/20 Q1019 NOSIG=
201209071900 METAR LMML NIL=
201209071845 METAR LMML 071845Z 36008KT 9999 FEW023 24/20 Q1019 NOSIG=
201209071830 METAR LMML NIL=
201209071815 METAR LMML 071815Z 01008KT 9999 FEW023 24/19 Q1019 NOSIG=
201209071800 METAR LMML NIL=
201209071745 METAR LMML 071745Z 36008KT 9999 FEW023 25/19 Q1019 NOSIG=
201209071730 METAR LMML NIL=
201209071715 METAR LMML 071715Z 35007KT 320V020 9999 FEW023 25/20 Q1019
                        NOSIG=
201209071700 METAR LMML NIL=
201209071645 METAR LMML 071645Z 33008KT 9999 FEW025 27/18 Q1018 NOSIG=
201209071630 METAR LMML NIL=
201209071615 METAR LMML 071615Z 32007KT 9999 FEW025 27/19 Q1018 NOSIG=
201209071600 METAR LMML NIL=
201209071545 METAR LMML 071545Z 32008KT 290V350 9999 FEW025 28/19 Q1018
                        NOSIG=
201209071530 METAR LMML NIL=
201209071515 METAR LMML 071515Z 34007KT 320V030 9999 FEW025 28/19 Q1018
                        NOSIG=
201209071500 METAR LMML NIL=
201209071445 METAR LMML 071445Z 36008KT 340V040 9999 FEW025 28/19 Q1018
                        NOSIG=
201209071430 METAR LMML NIL=
201209071415 METAR LMML 071415Z AUTO 01008KT 330V050 CAVOK 29/19 Q1018
                        NOSIG=
201209071400 METAR LMML NIL=
201209071345 METAR LMML 071345Z 01009KT 9999 FEW025 29/18 Q1018 NOSIG=
201209071330 METAR LMML NIL=
201209071315 METAR LMML 071315Z 02009KT 310V040 9999 FEW025 29/17 Q1018
                        NOSIG=
201209071300 METAR LMML NIL=
201209071245 METAR LMML 071245Z AUTO 01008KT CAVOK 29/16 Q1019=
201209071230 METAR LMML NIL=
201209071215 METAR LMML 071215Z 34007KT 300V020 CAVOK 29/17 Q1019 NOSIG=
201209071200 METAR LMML NIL=
201209071145 METAR LMML 071145Z 01008KT 350V050 CAVOK 29/17 Q1019 NOSIG=
201209071130 METAR LMML NIL=
201209071115 METAR LMML 071115Z 02008KT 350V050 9999 FEW025 29/18 Q1019
                        NOSIG=
201209071100 METAR LMML NIL=
201209071045 METAR LMML 071045Z 01007KT 320V060 9999 FEW025 28/18 Q1019
                        NOSIG=
201209071030 METAR LMML NIL=
201209071015 METAR LMML 071015Z 01007KT 330V040 9999 FEW025 28/19 Q1019
                        NOSIG=
201209071000 METAR LMML NIL=
201209070945 METAR LMML 070945Z 01008KT 340V050 CAVOK 28/18 Q1020 NOSIG=
201209070930 METAR LMML NIL=
201209070915 METAR LMML 070915Z 36009KT CAVOK 28/18 Q1020 NOSIG=
201209070900 METAR LMML NIL=
201209070845 METAR LMML 070845Z 35010KT CAVOK 27/18 Q1020 NOSIG=
201209070830 METAR LMML NIL=
201209070815 METAR LMML 070815Z 36010KT 9999 FEW025 27/18 Q1020 NOSIG=
201209070800 METAR LMML NIL=
201209070745 METAR LMML 070745Z 35010KT CAVOK 27/18 Q1019 NOSIG=
201209070730 METAR LMML NIL=
201209070715 METAR LMML 070715Z 36011KT 310V020 CAVOK 26/19 Q1019 NOSIG=
201209070700 METAR LMML NIL=
201209070645 METAR LMML 070645Z 36008KT CAVOK 25/20 Q1019 NOSIG=
201209070630 METAR LMML NIL=
201209070615 METAR LMML 070615Z 33007KT CAVOK 25/20 Q1019 NOSIG=
201209070600 METAR LMML NIL=
201209070545 METAR LMML 070545Z 33008KT CAVOK 23/20 Q1019 NOSIG=
201209070530 METAR LMML NIL=
201209070515 METAR LMML 070515Z 33008KT CAVOK 23/20 Q1018 NOSIG=
201209070500 METAR LMML NIL=
201209070445 METAR LMML 070445Z 32008KT CAVOK 22/20 Q1018 NOSIG=
201209070430 METAR LMML NIL=
201209070415 METAR LMML 070415Z 32008KT CAVOK 23/21 Q1018 NOSIG=
201209070400 METAR LMML NIL=
201209070345 METAR LMML 070345Z 31008KT 9999 FEW020 23/21 Q1018 NOSIG=
201209070330 METAR LMML NIL=
201209070315 METAR LMML 070315Z 31007KT 9999 FEW020 23/21 Q1018 NOSIG=
201209070300 METAR LMML NIL=
201209070245 METAR LMML 070245Z AUTO 32008KT CAVOK 23/21 Q1018=
201209070230 METAR LMML NIL=
201209070215 METAR LMML 070215Z AUTO 32009KT CAVOK 23/21 Q1018=
201209070200 METAR LMML NIL=
201209070145 METAR LMML 070145Z AUTO 33009KT CAVOK 22/20 Q1018=
201209070130 METAR LMML NIL=
201209070115 METAR LMML 070115Z AUTO 34010KT CAVOK 23/20 Q1018=
201209070100 METAR LMML NIL=
201209070045 METAR LMML 070045Z AUTO 35009KT CAVOK 23/20 Q1018=
201209070030 METAR LMML NIL=
201209070015 METAR LMML 070015Z AUTO 34008KT CAVOK 23/20 Q1018=
201209070000 METAR LMML NIL=
201209062345 METAR LMML 062345Z AUTO 34008KT CAVOK 23/20 Q1019=
201209062330 METAR LMML NIL=
201209062315 METAR LMML 062315Z AUTO 35007KT CAVOK 24/20 Q1019=
201209062300 METAR LMML NIL=
201209062245 METAR LMML 062245Z AUTO 33009KT 290V350 CAVOK 24/20 Q1019=
201209062230 METAR LMML NIL=
201209062215 METAR LMML 062215Z AUTO 34006KT 300V360 CAVOK 24/20 Q1019=
201209062200 METAR LMML NIL=
201209062145 METAR LMML 062145Z AUTO 31008KT 280V350 CAVOK 24/20 Q1019=
201209062130 METAR LMML NIL=
201209062115 METAR LMML 062115Z AUTO 32005KT 300V360 CAVOK 24/20 Q1019=
201209062100 METAR LMML NIL=
201209062045 METAR LMML 062045Z AUTO 28007KT CAVOK 24/21 Q1019=
201209062030 METAR LMML NIL=
201209062015 METAR LMML 062015Z AUTO 27005KT 240V300 CAVOK 24/21 Q1019=
201209062000 METAR LMML NIL=
201209061945 METAR LMML 061945Z 29007KT CAVOK 24/21 Q1019 NOSIG=
201209061930 METAR LMML NIL=
201209061915 METAR LMML 061915Z 29007KT CAVOK 24/21 Q1019 NOSIG=
201209061900 METAR LMML NIL=
201209061845 METAR LMML 061845Z 27006KT 240V300 CAVOK 24/22 Q1018 NOSIG=
201209061830 METAR LMML NIL=
201209061815 METAR LMML 061815Z 30005KT 9999 FEW020 24/21 Q1018 NOSIG=
201209061800 METAR LMML NIL=
201209061745 METAR LMML 061745Z 33006KT 9999 FEW015 24/21 Q1018 NOSIG=
201209061730 METAR LMML NIL=
201209061715 METAR LMML 061715Z 01003KT 320V040 9999 FEW014 25/21 Q1017
                        NOSIG=
201209061700 METAR LMML NIL=
201209061645 METAR LMML 061645Z 02007KT 9999 FEW014 25/22 Q1017 NOSIG=
201209061630 METAR LMML NIL=
201209061615 METAR LMML 061615Z 36009KT 9999 FEW018 26/22 Q1017 NOSIG=
201209061600 METAR LMML NIL=
201209061545 METAR LMML 061545Z 34008KT 300V360 9999 FEW018 26/22 Q1018
                        NOSIG=
201209061530 METAR LMML NIL=
201209061515 METAR LMML 061515Z 31010KT 9999 FEW018 27/22 Q1018 NOSIG=
201209061500 METAR LMML NIL=
201209061445 METAR LMML 061445Z 30013KT 9999 FEW021 28/21 Q1018 NOSIG=
201209061430 METAR LMML NIL=
201209061415 METAR LMML 061415Z 30011KT 260V320 9999 FEW022 29/22 Q1019
                        NOSIG=
201209061400 METAR LMML NIL=
201209061345 METAR LMML 061345Z 30011KT 9999 SCT022 28/21 Q1019 NOSIG=
201209061330 METAR LMML NIL=
201209061315 METAR LMML 061315Z 30013KT 9999 SCT022 28/21 Q1019 NOSIG=
201209061245 METAR LMML 061245Z AUTO 31013KT 9999NDV FEW021/// SCT027///
                        BKN034/// 28/21 Q1019 NOSIG=
201209061230 METAR LMML NIL=
201209061215 METAR LMML 061215Z 29012KT 260V320 9999 SCT022 28/21 Q1019
                        NOSIG=
201209061200 METAR LMML NIL=
201209061145 METAR LMML 061145Z 28011KT 9999 SCT024 29/21 Q1019 NOSIG=
201209061130 METAR LMML NIL=
201209061115 METAR LMML 061115Z 28010KT 230V320 9999 SCT025 29/21 Q1019
                        NOSIG=
201209061100 METAR LMML NIL=
201209061045 METAR LMML 061045Z 28008KT 250V320 9999 FEW027 29/21 Q1019
                        NOSIG=
201209061015 METAR LMML 061015Z 33011KT 9999 FEW028 28/20 Q1019 NOSIG=
201209061000 METAR LMML NIL=
201209060945 METAR LMML 060945Z 30011KT 9999 FEW026 29/20 Q1019 NOSIG=
201209060930 METAR LMML NIL=
201209060915 METAR LMML 060915Z 32011KT 9999 SCT022 28/20 Q1019 NOSIG=
201209060900 METAR LMML NIL=
201209060845 METAR LMML 060845Z 31008KT 270V340 9999 SCT021 27/21 Q1019
                        NOSIG=
201209060830 METAR LMML NIL=
201209060815 METAR LMML 060815Z 30009KT 260V320 9999 SCT020 27/21 Q1019
                        NOSIG=
201209060800 METAR LMML NIL=
201209060745 METAR LMML 060745Z 30008KT 270V330 9999 SCT020 27/21 Q1019
                        NOSIG=
201209060730 METAR LMML NIL=
201209060715 METAR LMML 060715Z 30007KT 9999 SCT020 26/21 Q1018 NOSIG=
201209060700 METAR LMML NIL=
201209060645 METAR LMML 060645Z 29004KT 260V320 9999 SCT020 25/21 Q1018
                        NOSIG=
201209060630 METAR LMML NIL=
201209060615 METAR LMML 060615Z 28003KT 240V320 9999 FEW020 24/21 Q1018
                        NOSIG=
201209060600 METAR LMML NIL=
201209060545 METAR LMML 060545Z 34003KT 9999 FEW020 23/20 Q1018 NOSIG=
201209060530 METAR LMML NIL=
201209060515 METAR LMML 060515Z VRB02KT 9999 FEW020 22/20 Q1018 NOSIG=
201209060445 METAR LMML 060445Z VRB02KT 9999 FEW020 22/20 Q1018 NOSIG=
201209060430 METAR LMML NIL=
201209060415 METAR LMML 060415Z 28004KT 9999 FEW020 22/19 Q1018 NOSIG=
201209060400 METAR LMML NIL=
201209060345 METAR LMML 060345Z 29003KT CAVOK 22/19 Q1017 NOSIG=
201209060330 METAR LMML NIL=
201209060315 METAR LMML 060315Z 31003KT CAVOK 22/19 Q1017 NOSIG=
201209060300 METAR LMML NIL=
201209060245 METAR LMML 060245Z AUTO 28003KT CAVOK 22/19 Q1017=
201209060230 METAR LMML NIL=
201209060215 METAR LMML 060215Z AUTO 30002KT CAVOK 22/18 Q1017=
201209060200 METAR LMML NIL=
201209060145 METAR LMML 060145Z AUTO VRB02KT CAVOK 22/18 Q1017=
201209060130 METAR LMML NIL=
201209060115 METAR LMML 060115Z AUTO VRB02KT CAVOK 22/18 Q1017=
201209060100 METAR LMML NIL=
201209060045 METAR LMML 060045Z AUTO VRB01KT CAVOK 22/18 Q1017=
201209060030 METAR LMML NIL=
201209060015 METAR LMML 060015Z AUTO VRB01KT CAVOK 22/18 Q1017=
201209060000 METAR LMML NIL=
201209052345 METAR LMML 052345Z AUTO 25002KT CAVOK 22/18 Q1018=
201209052330 METAR LMML NIL=
201209052315 METAR LMML 052315Z AUTO VRB02KT CAVOK 22/18 Q1018=
201209052300 METAR LMML NIL=
201209052245 METAR LMML 052245Z AUTO 27003KT CAVOK 22/18 Q1018=
201209052230 METAR LMML NIL=
201209052215 METAR LMML 052215Z AUTO 25003KT CAVOK 22/18 Q1018=
201209052200 METAR LMML NIL=
201209052145 METAR LMML 052145Z AUTO 26004KT CAVOK 22/18 Q1018=
201209052130 METAR LMML NIL=
201209052115 METAR LMML 052115Z AUTO VRB02KT CAVOK 23/18 Q1018=
201209052100 METAR LMML NIL=
201209052045 METAR LMML 052045Z AUTO 31003KT CAVOK 23/18 Q1018=
201209052030 METAR LMML NIL=
201209052015 METAR LMML 052015Z AUTO 30004KT 270V330 CAVOK 23/19 Q1018=
201209052000 METAR LMML NIL=
201209051945 METAR LMML 051945Z 28004KT CAVOK 23/19 Q1018 NOSIG=
201209051930 METAR LMML NIL=
201209051915 METAR LMML 051915Z VRB02KT CAVOK 23/19 Q1018 NOSIG=
201209051900 METAR LMML NIL=
201209051845 METAR LMML 051845Z 30006KT 9999 FEW030 24/18 Q1017 NOSIG=
201209051830 METAR LMML NIL=
201209051815 METAR LMML 051815Z 32006KT 9999 FEW030 24/18 Q1017 NOSIG=
201209051800 METAR LMML NIL=
201209051745 METAR LMML 051745Z 32006KT 9999 FEW030 24/18 Q1017 NOSIG=
201209051730 METAR LMML NIL=
201209051715 METAR LMML 051715Z 33008KT 9999 FEW030 25/18 Q1018 NOSIG=
201209051700 METAR LMML NIL=
201209051645 METAR LMML 051645Z 31010KT 9999 FEW032 26/18 Q1017 NOSIG=
201209051630 METAR LMML NIL=
201209051615 METAR LMML 051615Z 31012KT 9999 FEW032 26/17 Q1017 NOSIG=
201209051600 METAR LMML NIL=
201209051545 METAR LMML 051545Z 30012KT 9999 FEW032 27/18 Q1017 NOSIG=
201209051530 METAR LMML NIL=
201209051515 METAR LMML 051515Z 31014KT 9999 FEW033 27/18 Q1017 NOSIG=
201209051500 METAR LMML NIL=
201209051445 METAR LMML 051445Z 31014KT 9999 FEW033 27/18 Q1017 NOSIG=
201209051430 METAR LMML NIL=
201209051415 METAR LMML 051415Z 27011KT 230V300 9999 FEW034 27/18 Q1017
                        NOSIG=
201209051400 METAR LMML NIL=
201209051345 METAR LMML 051345Z 27012KT 230V310 9999 FEW034 28/19 Q1017
                        NOSIG=
201209051330 METAR LMML NIL=
201209051315 METAR LMML 051315Z 28011KT 230V310 9999 FEW030 28/18 Q1017
                        NOSIG=
201209051300 METAR LMML NIL=
201209051245 METAR LMML 051245Z 28012KT CAVOK 28/18 Q1017 NOSIG=
201209051230 METAR LMML NIL=
201209051215 METAR LMML 051215Z 27011KT 230V300 9999 FEW034 28/18 Q1017
                        NOSIG=
201209051200 METAR LMML NIL=
201209051145 METAR LMML 051145Z 28011KT 240V320 9999 FEW030 28/19 Q1017
                        NOSIG=
201209051130 METAR LMML NIL=
201209051115 METAR LMML 051115Z 27010KT 230V310 9999 FEW031 28/19 Q1017
                        NOSIG=
201209051100 METAR LMML NIL=
201209051045 METAR LMML 051045Z 28011KT 230V310 9999 FEW031 28/19 Q1017
                        NOSIG=
201209051030 METAR LMML NIL=
201209051015 METAR LMML 051015Z 28012KT 240V320 9999 FEW029 28/19 Q1017
                        NOSIG=
201209051000 METAR LMML NIL=
201209050945 METAR LMML 050945Z 27012KT 230V310 9999 FEW027 28/20 Q1017
                        NOSIG=
201209050930 METAR LMML NIL=
201209050915 METAR LMML 050915Z 28011KT 9999 SCT026 27/20 Q1017 NOSIG=
201209050900 METAR LMML NIL=
201209050845 METAR LMML 050845Z 27011KT 220V310 9999 SCT025 27/20 Q1017
                        NOSIG=
201209050830 METAR LMML NIL=
201209050815 METAR LMML 050815Z 28011KT 240V300 9999 SCT025 27/20 Q1017
                        NOSIG=
201209050800 METAR LMML NIL=
201209050745 METAR LMML 050745Z 25009KT 200V290 9999 FEW031 27/19 Q1017
                        NOSIG=
201209050730 METAR LMML NIL=
201209050715 METAR LMML 050715Z 25008KT 190V310 9999 SCT035 26/19 Q1017
                        NOSIG=
201209050700 METAR LMML NIL=
201209050645 METAR LMML 050645Z 26005KT 230V300 9999 FEW025 26/18 Q1016
                        NOSIG=
201209050630 METAR LMML NIL=
201209050615 METAR LMML 050615Z 26003KT 9999 FEW020 25/18 Q1016 NOSIG=
201209050600 METAR LMML NIL=
201209050545 METAR LMML 050545Z 26003KT 9999 FEW020 23/17 Q1016 NOSIG=
201209050530 METAR LMML NIL=
201209050515 METAR LMML 050515Z 26003KT 9999 FEW020 22/17 Q1016 NOSIG=
201209050500 METAR LMML NIL=
201209050445 METAR LMML 050445Z 27004KT 9999 FEW020 21/17 Q1016 NOSIG=
201209050430 METAR LMML NIL=
201209050415 METAR LMML 050415Z 27003KT 9999 FEW020 21/17 Q1016 NOSIG=
201209050400 METAR LMML NIL=
201209050345 METAR LMML 050345Z 26003KT 9999 FEW020 20/18 Q1015 NOSIG=
201209050330 METAR LMML NIL=
201209050315 METAR LMML 050315Z 27003KT CAVOK 21/18 Q1016 NOSIG=
201209050300 METAR LMML NIL=
201209050245 METAR LMML 050245Z 27003KT CAVOK 21/18 Q1016 NOSIG=
201209050230 METAR LMML NIL=
201209050215 METAR LMML 050215Z 29003KT CAVOK 22/18 Q1016 NOSIG=
201209050200 METAR LMML NIL=
201209050145 METAR LMML 050145Z 28004KT CAVOK 21/18 Q1016 NOSIG=
201209050130 METAR LMML NIL=
201209050115 METAR LMML 050115Z 27004KT CAVOK 21/18 Q1016 NOSIG=
201209050100 METAR LMML NIL=
201209050045 METAR LMML 050045Z 27005KT CAVOK 22/17 Q1016 NOSIG=
201209050030 METAR LMML NIL=
201209050015 METAR LMML 050015Z 27003KT CAVOK 21/17 Q1016 NOSIG=
201209050000 METAR LMML NIL=
201209042345 METAR LMML 042345Z 27003KT CAVOK 21/18 Q1016 NOSIG=
201209042330 METAR LMML NIL=
201209042315 METAR LMML 042315Z 28005KT 250V310 CAVOK 22/18 Q1016 NOSIG=
201209042300 METAR LMML NIL=
201209042245 METAR LMML 042245Z 27004KT CAVOK 21/18 Q1016 NOSIG=
201209042230 METAR LMML NIL=
201209042215 METAR LMML 042215Z 27004KT 240V310 CAVOK 21/17 Q1016 NOSIG=
201209042200 METAR LMML NIL=
201209042145 METAR LMML 042145Z 28003KT CAVOK 21/18 Q1016 NOSIG=
201209042130 METAR LMML NIL=
201209042115 METAR LMML 042115Z 26003KT CAVOK 22/18 Q1016 NOSIG=
201209042100 METAR LMML NIL=
201209042045 METAR LMML 042045Z 27004KT CAVOK 22/17 Q1016 NOSIG=
201209042030 METAR LMML NIL=
201209042015 METAR LMML 042015Z 27003KT 9999 FEW040 22/18 Q1016 NOSIG=
201209042000 METAR LMML NIL=
201209041945 METAR LMML 041945Z 26004KT 9999 FEW040 22/17 Q1016 NOSIG=
201209041930 METAR LMML NIL=
201209041915 METAR LMML 041915Z 27003KT 9999 FEW025 22/17 Q1016 NOSIG=
201209041900 METAR LMML NIL=
201209041845 METAR LMML 041845Z 26003KT 9999 FEW030 23/17 Q1015 NOSIG=
201209041830 METAR LMML NIL=
201209041815 METAR LMML 041815Z 29006KT 9999 FEW030 23/17 Q1015 NOSIG=
201209041800 METAR LMML NIL=
201209041745 METAR LMML 041745Z 29006KT 9999 FEW030 24/16 Q1015 NOSIG=
201209041730 METAR LMML NIL=
201209041715 METAR LMML 041715Z 30008KT 9999 FEW035 24/16 Q1015 NOSIG=
201209041700 METAR LMML NIL=
201209041645 METAR LMML 041645Z 29008KT 230V330 9999 FEW035 25/16 Q1015
                        NOSIG=
201209041630 METAR LMML NIL=
201209041615 METAR LMML 041615Z 29011KT 9999 FEW035 26/17 Q1015 NOSIG=
201209041600 METAR LMML NIL=
201209041545 METAR LMML 041545Z 30010KT 270V330 9999 FEW035 26/16 Q1015
                        NOSIG=
201209041530 METAR LMML NIL=
201209041515 METAR LMML 041515Z 29009KT 260V320 9999 FEW035 27/17 Q1015
                        NOSIG=
201209041500 METAR LMML NIL=
201209041445 METAR LMML 041445Z 29011KT 260V340 9999 FEW035 27/17 Q1015
                        NOSIG=
201209041430 METAR LMML NIL=
201209041415 METAR LMML 041415Z 31010KT 280V340 9999 FEW035 27/17 Q1015
                        NOSIG=
201209041400 METAR LMML NIL=
201209041345 METAR LMML 041345Z 29011KT 240V330 9999 FEW035 27/17 Q1015
                        NOSIG=
201209041330 METAR LMML NIL=
201209041315 METAR LMML 041315Z 28011KT 250V320 9999 FEW035 28/16 Q1015
                        NOSIG=
201209041300 METAR LMML NIL=
201209041245 METAR LMML 041245Z 29010KT 9999 FEW035 28/16 Q1015 NOSIG=
201209041230 METAR LMML NIL=
201209041215 METAR LMML 041215Z 29010KT 260V330 9999 FEW035 28/17 Q1015
                        NOSIG=
201209041200 METAR LMML NIL=
201209041145 METAR LMML 041145Z 28010KT 250V320 9999 FEW034 28/17 Q1015
                        NOSIG=
201209041130 METAR LMML NIL=
201209041115 METAR LMML 041115Z 29010KT 260V330 9999 FEW034 28/18 Q1015
                        NOSIG=
201209041100 METAR LMML NIL=
201209041045 METAR LMML 041045Z 30008KT 250V360 9999 FEW030 28/17 Q1015
                        NOSIG=
201209041030 METAR LMML NIL=
201209041015 METAR LMML 041015Z 30010KT 9999 FEW030 27/17 Q1015 NOSIG=
201209041000 METAR LMML NIL=
201209040945 METAR LMML 040945Z 30009KT 250V350 9999 FEW030 27/18 Q1015
                        NOSIG=
201209040930 METAR LMML NIL=
201209040915 METAR LMML 040915Z 31010KT 260V340 9999 FEW030 27/18 Q1015
                        NOSIG=
201209040900 METAR LMML NIL=
201209040845 METAR LMML 040845Z 31010KT 9999 FEW030 26/17 Q1015 NOSIG=
201209040830 METAR LMML NIL=
201209040815 METAR LMML 040815Z 31010KT 9999 FEW030 26/18 Q1015 NOSIG=
201209040800 METAR LMML NIL=
201209040745 METAR LMML 040745Z 32010KT 300V010 9999 FEW030 25/17 Q1015
                        NOSIG=
201209040730 METAR LMML NIL=
201209040715 METAR LMML 040715Z 31008KT 9999 FEW030 25/18 Q1015 NOSIG=
201209040700 METAR LMML NIL=
201209040645 METAR LMML 040645Z 30008KT 9999 FEW030 24/18 Q1015 NOSIG=
201209040630 METAR LMML NIL=
201209040615 METAR LMML 040615Z 30006KT 9999 FEW025 23/18 Q1014 NOSIG=
201209040600 METAR LMML NIL=
201209040545 METAR LMML 040545Z 30005KT 9999 FEW025 23/18 Q1014 NOSIG=
201209040530 METAR LMML NIL=
201209040515 METAR LMML 040515Z 29006KT 9999 FEW025 21/18 Q1014 NOSIG=
201209040500 METAR LMML NIL=
201209040445 METAR LMML 040445Z 30005KT 270V340 9999 FEW025 21/18 Q1014
                        NOSIG=
201209040430 METAR LMML NIL=
201209040415 METAR LMML 040415Z 31005KT 9999 FEW040 21/18 Q1014 NOSIG=
201209040400 METAR LMML NIL=
201209040345 METAR LMML 040345Z 30004KT CAVOK 21/17 Q1014 NOSIG=
201209040330 METAR LMML NIL=
201209040315 METAR LMML 040315Z 30005KT CAVOK 21/18 Q1014 NOSIG=
201209040300 METAR LMML NIL=
201209040245 METAR LMML 040245Z 30005KT CAVOK 21/18 Q1014 NOSIG=
201209040230 METAR LMML NIL=
201209040215 METAR LMML 040215Z 31006KT CAVOK 21/18 Q1014 NOSIG=
201209040200 METAR LMML NIL=
201209040145 METAR LMML 040145Z 30006KT CAVOK 21/18 Q1014 NOSIG=
201209040130 METAR LMML NIL=
201209040115 METAR LMML 040115Z 31006KT 9999 FEW045 21/18 Q1014 NOSIG=
201209040100 METAR LMML NIL=
201209040045 METAR LMML 040045Z 31006KT 9999 FEW043 21/17 Q1014 NOSIG=
201209040030 METAR LMML NIL=
201209040015 METAR LMML 040015Z 30005KT 9999 FEW041 22/18 Q1014 NOSIG=
201209040000 METAR LMML NIL=
201209032345 METAR LMML 032345Z 30006KT 9999 FEW040 22/18 Q1015 NOSIG=
201209032330 METAR LMML NIL=
201209032315 METAR LMML 032315Z 31005KT 9999 SCT039 22/19 Q1015 NOSIG=
201209032300 METAR LMML NIL=
201209032245 METAR LMML 032245Z 32005KT 9999 SCT035 22/19 Q1015 NOSIG=
201209032230 METAR LMML NIL=
201209032215 METAR LMML 032215Z 32005KT 9999 FEW018 BKN042 22/19 Q1015
                        NOSIG=
201209032200 METAR LMML NIL=
201209032145 METAR LMML 032145Z 33007KT 9999 FEW018 BKN034 23/20 Q1015
                        NOSIG=
201209032115 METAR LMML 032115Z 33007KT 9999 SCT018 BKN036 OVC048 23/20
                        Q1015 NOSIG=
201209032100 METAR LMML NIL=
201209032045 METAR LMML 032045Z 33008KT 9999 SCT016 BKN046 23/21 Q1015
                        NOSIG=
201209032030 METAR LMML NIL=
201209032015 METAR LMML 032015Z 33009KT 9999 SCT016 BKN030 23/22 Q1015
                        NOSIG=
201209032000 METAR LMML NIL=
201209031945 METAR LMML 031945Z 34007KT 9999 FEW016 BKN030 23/22 Q1015
                        NOSIG=
201209031930 METAR LMML NIL=
201209031915 METAR LMML 031915Z 34007KT 9999 FEW015 BKN030 23/22 Q1014
                        NOSIG=
201209031900 METAR LMML NIL=
201209031845 METAR LMML 031845Z 33007KT 9999 FEW013 23/22 Q1014 NOSIG=
201209031830 METAR LMML NIL=
201209031815 METAR LMML 031815Z 33006KT 300V360 9999 FEW020 SCT120 23/22
                        Q1014 NOSIG=
201209031800 METAR LMML NIL=
201209031745 METAR LMML 031745Z 31003KT 9999 FEW020 SCT120 23/23 Q1014
                        NOSIG RMK CB TO NORTHEAST=
201209031730 METAR LMML NIL=
201209031715 METAR LMML 031715Z VRB02KT 9999 SCT024TCU 23/23 Q1013 NOSIG
                        RMK CB TO NORTH EAST=
201209031700 METAR LMML NIL=
201209031645 METAR LMML 031645Z VRB01KT 9999 SCT020TCU BKN026 23/23 Q1013
                        RETSRA NOSIG=
201209031630 METAR LMML NIL=
201209031615 METAR LMML 031615Z 27003KT 9999 SCT022TCU SCT026 23/22 Q1013
                        RETSRA NOSIG=
201209031545 METAR LMML 031545Z 21005KT 150V340 0900 R13/P1500D -TSRA
                        SCT015 BKN022 23/23 Q1014 TEMPO 0800
                        TSRA SCT015CB=
201209031530 METAR LMML NIL=
201209031515 METAR LMML 031515Z 03012KT 360V060 9999 -TSRA FEW008 SCT015CB
                        BKN024 23/20 Q1013 TEMPO 5000 TSRA
                        SCT015CB=
201209031500 METAR LMML NIL=
201209031445 METAR LMML 031445Z 01026KT 330V030 2500 TS/RA SCT004 BKN012CB
                        22/22 Q1013 TEMPO 5000 TSRA SCT015CB=
201209031430 METAR LMML NIL=
201209031415 METAR LMML 031415Z 11010KT 050V150 4000 +TSRA BKN016 SCT100
                        27/23 Q1013 TEMPO 5000 TSRA SCT015CB=
201209031400 METAR LMML NIL=
201209031345 METAR LMML 031345Z 16013KT 9000 SCT020CB BKN100 27/22
                        Q1013 TEMPO 5000 TSRA SCT015CB=
201209031330 METAR LMML NIL=
201209031315 METAR LMML 031315Z 16015KT 9999 SCT020CB BKN100 27/23
                        Q1013 TEMPO 5000 TSRA SCT015CB=
201209031300 METAR LMML NIL=
201209031245 METAR LMML 031245Z 17012KT 140V210 9999 SCT022 BKN120 28/23
                        Q1014 TEMPO 5000 TSRA SCT015CB=
201209031230 METAR LMML NIL=
201209031215 METAR LMML 031215Z 16012KT 110V190 9999 BKN021 SCT100 28/23
                        Q1014 TEMPO 5000 TSRA SCT015CB=
201209031200 METAR LMML NIL=
201209031145 METAR LMML 031145Z 17011KT 130V230 9999 BKN019 28/24 Q1014
                        TEMPO 5000 TSRA SCT015CB=
201209031130 METAR LMML NIL=
201209031115 METAR LMML 031115Z 16014KT 120V200 9999 BKN021 28/24 Q1014
                        TEMPO 5000 TSRA SCT015CB=
201209031100 METAR LMML NIL=
201209031045 METAR LMML 031045Z 15011KT 120V190 9000 SCT020 SCT080 28/25
                        Q1014 TEMPO 8000 SHRA SCT015=
201209031030 METAR LMML NIL=
201209031015 METAR LMML 031015Z 15010KT 110V170 9999 -RA FEW015TCU SCT080
                        25/23 Q1015 TEMPO 3000 TSRA SCT013CB
                        MAX35KT=
201209031000 METAR LMML NIL=
201209030945 METAR LMML 030945Z 14008KT 110V180 9999 -RA FEW015CB SCT070
                        24/22 Q1015 RETS TEMPO 3000 TSRA
                        SCT013CB MAX35KT=
201209030930 METAR LMML NIL=
201209030915 METAR LMML 030915Z 16011KT 130V200 9999 4000NW -TSRA SCT015CB
                        BKN110 24/21 Q1015 TEMPO 3000 TSRA
                        SCT013CB MAX35KT=
201209030900 METAR LMML NIL=
201209030845 METAR LMML 030845Z 16009KT 130V210 9999 FEW020TCU SCT070
                        BKN120 26/20 Q1015 TEMPO 5000 TSRA
                        SCT013CB=
201209030830 METAR LMML NIL=
201209030815 METAR LMML 030815Z 15012KT 9999 -SHRA FEW017TCU BKN080 24/21
                        Q1014 TEMPO 5000 TSRA SCT013CB RMK
                        CB TOPS TO SW=
201209030800 METAR LMML NIL=
201209030745 METAR LMML 030745Z 17010KT 130V220 9999 FEW010 FEW020TCU
                        BKN080 26/22 Q1015 TEMPO 7000 TSRA
                        SCT013CB=
201209030730 METAR LMML NIL=
201209030715 METAR LMML 030715Z 14011KT 110V170 9999 FEW020TCU SCT100
                        24/24 Q1014 TEMPO 7000 TSRA SCT013CB=
201209030700 METAR LMML NIL=
201209030645 METAR LMML 030645Z VRB02KT 9999 FEW010 FEW020TCU SCT120 21/21
                        Q1014 RETS TEMPO 7000 SHRA SCT013CB=
201209030630 METAR LMML NIL=
201209030615 METAR LMML 030615Z 02004KT 340V080 9999 FEW020TCU SCT120
                        BKN200 21/21 Q1014 RETS TEMPO 7000
                        SHRA SCT013CB=
201209030600 METAR LMML NIL=
201209030545 METAR LMML 030545Z 07006KT 040V110 9999 TS FEW008 SCT020CB
                        20/20 Q1014 TEMPO 7000 SHRA SCT013CB=
201209030530 METAR LMML NIL=
201209030515 METAR LMML 030515Z 04006KT 340V090 7000 TSRA FEW008 BKN030CB
                        19/19 Q1015 BECMG 9999 SCT013=
201209030500 METAR LMML NIL=
201209030445 METAR LMML 030445Z 05005KT 360V080 6000 TSRA FEW008 BKN020CB
                        19/19 Q1015 BECMG 9999 SCT013=
201209030430 METAR LMML NIL=
201209030415 METAR LMML 030415Z 06010KT 1500 TSRA SCT008 BKN013CB 18/18
                        Q1015 BECMG 8000 SHRA SCT013=
201209030400 METAR LMML NIL=
201209030345 METAR LMML 030345Z 30034G48KT 0700 R13/0614V0923U +TSRA SCT002
                        OVC013CB 18/18 Q1016 BECMG 8000 SHRA
                        SCT013=
201209030330 METAR LMML NIL=
201209030315 METAR LMML 030315Z 07012KT 040V100 9999 FEW018CB BKN024 24/21
                        Q1013 BECMG 5000 TSRA BKN015CB RMK
                        LIGHTNING TO NORTHWEST=
201209030300 METAR LMML NIL=
201209030245 METAR LMML 030245Z 08011KT 040V110 9999 FEW015CB BKN025 24/20
                        Q1013 BECMG 5000 TSRA BKN015CB RMK
                        LIGHTNING TO NORTHWEST=
201209030230 METAR LMML NIL=
201209030215 METAR LMML 030215Z 08011KT 9999 BKN027 24/19 Q1014 NOSIG=
201209030200 METAR LMML NIL=
201209030145 METAR LMML 030145Z 08012KT 050V110 9999 BKN024 24/19 Q1015
                        NOSIG=
201209030130 METAR LMML NIL=
201209030115 METAR LMML 030115Z 08009KT 050V110 9999 BKN024 24/20 Q1015
                        NOSIG=
201209030100 METAR LMML NIL=
201209030045 METAR LMML 030045Z 07005KT 040V100 9999 BKN023 24/20 Q1015
                        NOSIG RMK LIGHTNING TO NORTHEAST=
201209030030 METAR LMML NIL=
201209030015 METAR LMML 030015Z 01003KT 9999 BKN021 BKN120 24/20 Q1016
                        NOSIG=
201209030000 METAR LMML NIL=
201209022345 METAR LMML 022345Z 06003KT 9999 BKN022 BKN120 24/19 Q1016
                        NOSIG=
201209022330 METAR LMML NIL=
201209022315 METAR LMML 022315Z 06003KT 9999 SCT025 SCT120 BKN250 24/19
                        Q1016 NOSIG=
201209022300 METAR LMML NIL=
201209022245 METAR LMML 022245Z 06003KT 9999 SCT030 SCT120 BKN250 23/19
                        Q1017 NOSIG=
201209022230 METAR LMML NIL=
201209022215 METAR LMML 022215Z 06003KT 9999 FEW033 SCT120 BKN250 23/19
                        Q1017 NOSIG=
201209022200 METAR LMML NIL=
201209022145 METAR LMML 022145Z 05003KT 9999 FEW032 SCT120 BKN250 23/19
                        Q1016 NOSIG=
201209022130 METAR LMML NIL=
201209022115 METAR LMML 022115Z 05004KT 020V080 9999 FEW035 SCT120 BKN250
                        22/19 Q1016 NOSIG=
201209022100 METAR LMML NIL=
201209022045 METAR LMML 022045Z 05006KT 010V080 9999 FEW037 SCT120 BKN250
                        22/19 Q1017 NOSIG=
201209022030 METAR LMML NIL=
201209022015 METAR LMML 022015Z 06007KT 010V080 9999 FEW015 BKN034 BKN120
                        22/19 Q1017 NOSIG=
201209022000 METAR LMML NIL=
201209021945 METAR LMML 021945Z 33005KT 300V020 9999 FEW015 BKN033 21/19
                        Q1018 NOSIG=
201209021930 METAR LMML NIL=
201209021915 METAR LMML 021915Z 34006KT 9999 FEW015 BKN033 21/19 Q1018
                        RETS NOSIG=
201209021900 METAR LMML NIL=
201209021845 METAR LMML 021845Z 36010KT 9999 FEW008 FEW015CB BKN250 20/19
                        Q1017 RETS NOSIG RMK LIGHTNING TO
                        NORTHEAST=
201209021830 METAR LMML NIL=
201209021815 METAR LMML 021815Z 33014KT 300V010 5000 TSRA SCT006 SCT013CB
                        BKN020 19/19 Q1017 BECMG 8000 SHRA=
201209021800 METAR LMML NIL=
201209021745 METAR LMML 021745Z 28022G38KT 220V320 4000 TS SCT021CB BKN031
                        BKN250 23/18 Q1017 TEMPO 5000 TSRA
                        BKN012CB=
201209021730 METAR LMML NIL=
201209021715 METAR LMML 021715Z 13010KT 110V170 9999 SCT023 BKN250 27/22
                        Q1015 NOSIG=
201209021700 METAR LMML NIL=
201209021645 METAR LMML 021645Z 12010KT 100V160 9999 SCT023 BKN250 27/21
                        Q1015 NOSIG=
201209021630 METAR LMML NIL=
201209021615 METAR LMML 021615Z 12010KT 9999 SCT022TCU SCT120 27/22 Q1016
                        NOSIG=
201209021600 METAR LMML NIL=
201209021545 METAR LMML 021545Z 13010KT 9999 BKN023TCU SCT250 28/22 Q1015
                        NOSIG=
201209021530 METAR LMML NIL=
201209021515 METAR LMML 021515Z 14006KT 110V170 9999 BKN024TCU SCT100
                        28/21 Q1016 NOSIG=
201209021500 METAR LMML NIL=
201209021445 METAR LMML 021445Z 15007KT 110V190 9999 BKN026 SCT120 27/21
                        Q1016 NOSIG=
201209021430 METAR LMML NIL=
201209021415 METAR LMML 021415Z 14009KT 110V200 9999 FEW024 SCT250 28/21
                        Q1016 NOSIG=
201209021400 METAR LMML NIL=
201209021345 METAR LMML 021345Z 13009KT 100V180 9999 FEW035 SCT250 29/20
                        Q1015 NOSIG=
201209021330 METAR LMML NIL=
201209021315 METAR LMML 021315Z 15009KT 120V230 9999 FEW035 29/20 Q1016
                        NOSIG=
201209021300 METAR LMML NIL=
201209021245 METAR LMML 021245Z 15009KT 120V180 9999 FEW035 29/19 Q1016
                        NOSIG=
201209021230 METAR LMML NIL=
201209021215 METAR LMML 021215Z 17008KT 140V220 9999 FEW035 29/19 Q1017
                        NOSIG=
201209021200 METAR LMML NIL=
201209021145 METAR LMML 021145Z 18005KT 110V260 9999 FEW040 29/18 Q1017
                        NOSIG=
201209021130 METAR LMML NIL=
201209021115 METAR LMML 021115Z 20007KT 140V240 9999 FEW040 29/19 Q1017
                        NOSIG=
201209021100 METAR LMML NIL=
201209021045 METAR LMML 021045Z 20006KT 150V250 9999 FEW035 29/18 Q1017
                        NOSIG=
201209021015 METAR LMML 021015Z 21005KT 140V260 9999 FEW035 28/18 Q1017
                        NOSIG=
201209021000 METAR LMML NIL=
201209020945 METAR LMML 020945Z 20005KT 130V250 9999 FEW036 28/17 Q1017
                        NOSIG=
201209020930 METAR LMML NIL=
201209020915 METAR LMML 020915Z 19004KT 120V250 CAVOK 28/17 Q1017 NOSIG=
201209020900 METAR LMML NIL=
201209020845 METAR LMML 020845Z 18004KT 140V250 9999 FEW025 28/17 Q1017
                        NOSIG=
201209020830 METAR LMML NIL=
201209020815 METAR LMML 020815Z 18006KT 120V240 9999 FEW025 27/16 Q1017
                        NOSIG=
201209020800 METAR LMML NIL=
201209020745 METAR LMML 020745Z 21004KT 140V260 CAVOK 27/17 Q1017 NOSIG=
201209020730 METAR LMML NIL=
201209020715 METAR LMML 020715Z 16004KT 110V230 CAVOK 27/17 Q1017 NOSIG=
201209020700 METAR LMML NIL=
201209020645 METAR LMML 020645Z 18004KT 080V240 CAVOK 26/17 Q1017 NOSIG=
201209020630 METAR LMML NIL=
201209020615 METAR LMML 020615Z VRB01KT CAVOK 25/17 Q1017 NOSIG=
201209020600 METAR LMML NIL=
201209020545 METAR LMML 020545Z VRB01KT CAVOK 24/16 Q1017 NOSIG=
201209020530 METAR LMML NIL=
201209020515 METAR LMML 020515Z VRB01KT CAVOK 21/15 Q1016 NOSIG=
201209020445 METAR LMML 020445Z VRB01KT CAVOK 21/16 Q1016 NOSIG=
201209020430 METAR LMML NIL=
201209020415 METAR LMML 020415Z VRB01KT CAVOK 20/15 Q1016 NOSIG=
201209020400 METAR LMML NIL=
201209020345 METAR LMML 020345Z VRB01KT CAVOK 21/16 Q1016 NOSIG=
201209020330 METAR LMML NIL=
201209020315 METAR LMML 020315Z 17003KT CAVOK 22/16 Q1016 NOSIG=
201209020300 METAR LMML NIL=
201209020245 METAR LMML 020245Z 23003KT CAVOK 21/16 Q1016 NOSIG=
201209020230 METAR LMML NIL=
201209020215 METAR LMML 020215Z VRB01KT CAVOK 22/16 Q1016 NOSIG=
201209020200 METAR LMML NIL=
201209020145 METAR LMML 020145Z VRB01KT CAVOK 22/16 Q1016 NOSIG=
201209020130 METAR LMML NIL=
201209020115 METAR LMML 020115Z 29003KT CAVOK 22/16 Q1016 NOSIG=
201209020100 METAR LMML NIL=
201209020045 METAR LMML 020045Z 30003KT CAVOK 23/15 Q1016 NOSIG=
201209020030 METAR LMML NIL=
201209020015 METAR LMML 020015Z 32003KT CAVOK 23/15 Q1016 NOSIG=
201209012345 METAR LMML 012345Z 33003KT CAVOK 23/14 Q1016 NOSIG=
201209012330 METAR LMML NIL=
201209012315 METAR LMML 012315Z 32004KT CAVOK 23/14 Q1017 NOSIG=
201209012300 METAR LMML NIL=
201209012245 METAR LMML 012245Z 33004KT 300V020 CAVOK 23/16 Q1017 NOSIG=
201209012230 METAR LMML NIL=
201209012215 METAR LMML 012215Z VRB02KT CAVOK 23/16 Q1016 NOSIG=
201209012200 METAR LMML NIL=
201209012145 METAR LMML 012145Z 30004KT CAVOK 23/17 Q1017 NOSIG=
201209012130 METAR LMML NIL=
201209012115 METAR LMML 012115Z 29006KT CAVOK 24/17 Q1016 NOSIG=
201209012100 METAR LMML NIL=
201209012045 METAR LMML 012045Z 30005KT CAVOK 24/17 Q1016 NOSIG=
201209012030 METAR LMML NIL=
201209012015 METAR LMML 012015Z 31006KT CAVOK 23/17 Q1016 NOSIG=
201209012000 METAR LMML NIL=
201209011945 METAR LMML 011945Z 31007KT CAVOK 24/16 Q1016 NOSIG=
201209011930 METAR LMML NIL=
201209011915 METAR LMML 011915Z 32009KT CAVOK 24/15 Q1016 NOSIG=
201209011900 METAR LMML NIL=
201209011845 METAR LMML 011845Z 32009KT CAVOK 24/14 Q1016 NOSIG=
201209011830 METAR LMML NIL=
201209011815 METAR LMML 011815Z 31011KT CAVOK 24/15 Q1016 NOSIG=
201209011800 METAR LMML NIL=
201209011745 METAR LMML 011745Z 31013KT CAVOK 25/15 Q1015 NOSIG=
201209011730 METAR LMML NIL=
201209011715 METAR LMML 011715Z 32013KT CAVOK 25/16 Q1015 NOSIG=
201209011700 METAR LMML NIL=
201209011645 METAR LMML 011645Z 30013KT CAVOK 26/15 Q1015 NOSIG=
201209011630 METAR LMML NIL=
201209011615 METAR LMML 011615Z 31012KT 280V350 CAVOK 27/17 Q1015 NOSIG=
201209011600 METAR LMML NIL=
201209011545 METAR LMML 011545Z 31013KT 270V330 CAVOK 28/16 Q1015 NOSIG=
201209011530 METAR LMML NIL=
201209011515 METAR LMML 011515Z 31012KT 280V360 CAVOK 28/17 Q1015 NOSIG=
201209011500 METAR LMML NIL=
201209011445 METAR LMML 011445Z 31014KT 9999 FEW030 28/17 Q1015 NOSIG=
201209011430 METAR LMML NIL=
201209011415 METAR LMML 011415Z 30015KT 270V330 9999 FEW030 28/17 Q1015
                        NOSIG=
201209011400 METAR LMML NIL=
201209011345 METAR LMML 011345Z 29014KT 260V320 9999 FEW030 29/17 Q1015
                        NOSIG=
201209011330 METAR LMML NIL=
201209011315 METAR LMML 011315Z 30014KT 280V340 CAVOK 29/18 Q1015 NOSIG=
201209011300 METAR LMML NIL=
201209011245 METAR LMML 011245Z 30014KT 260V330 CAVOK 29/18 Q1015 NOSIG=
201209011230 METAR LMML NIL=
201209011215 METAR LMML 011215Z 30013KT CAVOK 29/17 Q1015 NOSIG=
201209011200 METAR LMML NIL=
201209011145 METAR LMML 011145Z 31012KT CAVOK 30/18 Q1015 NOSIG=
201209011130 METAR LMML NIL=
201209011115 METAR LMML 011115Z 31013KT 280V340 9999 FEW035 29/18 Q1016
                        NOSIG=
201209011100 METAR LMML NIL=
201209011045 METAR LMML 011045Z 29010KT 250V320 9999 FEW035 30/19 Q1015
                        NOSIG=
201209011030 METAR LMML NIL=
201209011015 METAR LMML 011015Z 31011KT 280V340 9999 FEW030 29/18 Q1016
                        NOSIG=
201209011000 METAR LMML NIL=
201209010945 METAR LMML 010945Z 28010KT 250V320 9999 FEW030 29/18 Q1016
                        NOSIG=
201209010930 METAR LMML NIL=
201209010915 METAR LMML 010915Z 29009KT 250V320 9999 SCT028 28/20 Q1015
                        NOSIG=
201209010900 METAR LMML NIL=
201209010845 METAR LMML 010845Z 29010KT 250V320 9999 SCT028 28/20 Q1015
                        NOSIG=
201209010830 METAR LMML NIL=
201209010815 METAR LMML 010815Z 28010KT 250V330 9999 FEW027 29/20 Q1015
                        NOSIG=
201209010800 METAR LMML NIL=
201209010745 METAR LMML 010745Z 30009KT 260V330 9999 FEW020 28/21 Q1015
                        NOSIG=
201209010730 METAR LMML NIL=
201209010715 METAR LMML 010715Z 30010KT 9999 FEW021 28/20 Q1015 NOSIG=
201209010700 METAR LMML NIL=
201209010645 METAR LMML 010645Z 30010KT 9999 FEW021 27/21 Q1015 NOSIG=
201209010630 METAR LMML NIL=
201209010615 METAR LMML 010615Z 28009KT 9999 SCT022 27/21 Q1014 NOSIG=
201209010600 METAR LMML NIL=
201209010545 METAR LMML 010545Z 28005KT 240V300 9999 SCT023 25/21 Q1014
                        NOSIG=
201209010515 METAR LMML 010515Z 26004KT 9999 SCT020 24/21 Q1014 NOSIG=
201209010500 METAR LMML NIL=
201209010445 METAR LMML 010445Z 26005KT 9999 FEW016 24/21 Q1014 NOSIG=
201209010430 METAR LMML NIL=
201209010415 METAR LMML 010415Z 25003KT 9999 FEW016 23/21 Q1013 NOSIG=
201209010400 METAR LMML NIL=
201209010345 METAR LMML 010345Z 25003KT 9999 FEW016 24/21 Q1013 NOSIG=
201209010330 METAR LMML NIL=
201209010315 METAR LMML 010315Z 27003KT 9999 FEW016 24/21 Q1013 NOSIG=
201209010300 METAR LMML NIL=
201209010245 METAR LMML 010245Z 30005KT 280V340 9999 FEW016 24/21 Q1014
                        NOSIG=
201209010230 METAR LMML NIL=
201209010215 METAR LMML 010215Z 30005KT 9999 FEW016 24/21 Q1014 NOSIG=
201209010200 METAR LMML NIL=
201209010145 METAR LMML 010145Z 30006KT 270V340 9999 FEW016 25/21 Q1014
                        NOSIG=
201209010130 METAR LMML NIL=
201209010115 METAR LMML 010115Z 30006KT 9999 FEW016 25/21 Q1014 NOSIG=
201209010100 METAR LMML NIL=
201209010045 METAR LMML 010045Z 30007KT 9999 FEW016 25/21 Q1014 NOSIG=
201209010030 METAR LMML NIL=
201209010015 METAR LMML 010015Z 31007KT 9999 FEW016 25/22 Q1014 NOSIG=
201209010000 METAR LMML NIL=
