##########################################################
# Query made at 01/18/2013 16:12:12 UTC
# Time interval: from 09/01/2009 00:00  to 10/01/2009 23:59  UTC
##########################################################

##########################################################
# LMML, Luqa (Malta)
# WMO index: 16597
# Latitude 35-51N. Longitude 014-29E. Altitude 91 m.
##########################################################

###################################
#  METAR/SPECI from LMML
###################################
200910012345 METAR LMML 012345Z 09005KT 040V120 9999 FEW007 SCT015CB BKN090
                        20/19 Q1010 NOSIG RMK LIGHTNING TO
                        E=
200910012330 METAR LMML NIL=
200910012315 METAR LMML 012315Z 06010KT 030V100 9999 FEW007 SCT015CB BKN080
                        19/19 Q1011 NOSIG RMK LIGHTNING TO
                        E=
200910012300 METAR LMML NIL=
200910012245 METAR LMML 012245Z 05007KT 010V090 9999 TSRA SCT007 SCT015CB
                        BKN120 19/19 Q1012 BECMG SCT015=
200910012215 METAR LMML 012215Z 02010KT 9999 SCT006 SCT038 BKN100 19/19
                        Q1011 NOSIG RMK LIGHTNING TO SW=
200910012145 METAR LMML 012145Z 36013KT 9999 TSRA BKN006 SCT015CB BKN120
                        19/18 Q1014 BECMG SCT015=
200910012115 METAR LMML 012115Z 34016KT 9999 TSRA BKN004 SCT015CB BKN120
                        18/18 Q1014 BECMG SCT015=
200910012045 METAR LMML 012045Z 02006KT 280V170 9999 TSRA SCT007 SCT015CB
                        BKN120 19/18 Q1014 NOSIG=
200910012030 METAR LMML NIL=
200910012015 METAR LMML 012015Z 33016G32KT 310V010 9999 TSRA BKN012CB
                        BKN120 20/18 Q1014 BECMG SCT015=
200910012007 SPECI LMML 012007Z 34016G32KT 310V010 9999 TSRA SCT012CB
                        BKN011 23/19 Q1015 TEMPO 5000=
200910012000 METAR LMML NIL=
200910011945 METAR LMML 011945Z 15012KT 120V180 9999 FEW014 SCT120 24/22
                        Q1011 RETS NOSIG=
200910011930 METAR LMML NIL=
200910011915 METAR LMML 011915Z 17015KT 120V230 9999 TSRA SCT014CB BKN120
                        24/22 Q1012 TEMPO 5000=
200910011900 METAR LMML NIL=
200910011845 METAR LMML 011845Z 15016KT 110V170 9999 FEW014 BKN120 24/22
                        Q1011 TEMPO 5000 TSRA BKN015CB RMK
                        LIGHTNING TO SW=
200910011830 METAR LMML NIL=
200910011815 METAR LMML 011815Z 14016KT 9999 SCT014 SCT120 24/21 Q1011
                        NOSIG=
200910011800 METAR LMML NIL=
200910011745 METAR LMML 011745Z 15012KT 120V180 9999 SCT014 SCT120 24/21
                        Q1012 NOSIG=
200910011730 METAR LMML NIL=
200910011715 METAR LMML 011715Z 15013KT 120V180 9999 FEW015 SCT120 24/21
                        Q1012 TEMPO SHRA=
200910011700 METAR LMML NIL=
200910011645 METAR LMML 011645Z 15011KT 120V180 9999 FEW015 SCT120 24/21
                        Q1012 TEMPO SHRA=
200910011630 METAR LMML NIL=
200910011615 METAR LMML 011615Z 15011KT 120V180 9999 -SHRA SCT015 BKN120
                        25/21 Q1013 TEMPO SHRA=
200910011600 METAR LMML NIL=
200910011545 METAR LMML 011545Z 14013KT 120V180 9999 SCT015 BKN120 25/21
                        Q1013 TEMPO SHRA=
200910011530 METAR LMML NIL=
200910011515 METAR LMML 011515Z 14012KT 110V170 9999 SCT015 SCT120 25/21
                        Q1013 TEMPO SHRA=
200910011500 METAR LMML NIL=
200910011445 METAR LMML 011445Z 14015KT 120V180 9999 FEW016 SCT120 25/21
                        Q1013 TEMPO SHRA=
200910011430 METAR LMML NIL=
200910011415 METAR LMML 011415Z 16012KT 130V190 9999 -SHRA FEW017 BKN120
                        25/20 Q1014 TEMPO SHRA=
200910011400 METAR LMML NIL=
200910011345 METAR LMML 011345Z 16012KT 130V190 9999 FEW018 SCT120 25/20
                        Q1014 TEMPO SHRA=
200910011330 METAR LMML NIL=
200910011315 METAR LMML 011315Z 16013KT 9999 FEW018 SCT130 26/21 Q1014
                        TEMPO SHRA=
200910011300 METAR LMML NIL=
200910011245 METAR LMML 011245Z 16010KT 9999 SCT019 BKN130 26/21 Q1015
                        TEMPO SHRA=
200910011230 METAR LMML NIL=
200910011215 METAR LMML 011215Z 17007KT 140V210 9999 SCT018 BKN130 25/20
                        Q1016 TEMPO SHRA=
200910011200 METAR LMML NIL=
200910011145 METAR LMML 011145Z 18009KT 140V230 9999 SCT019 BKN130 26/20
                        Q1016 TEMPO SHRA=
200910011130 METAR LMML NIL=
200910011115 METAR LMML 011115Z 16013KT 130V190 9999 SCT018 BKN130 25/20
                        Q1016 TEMPO SHRA=
200910011100 METAR LMML NIL=
200910011045 METAR LMML 011045Z 16014KT 130V190 9999 SCT018 25/20 Q1016
                        NOSIG=
200910011030 METAR LMML NIL=
200910011015 METAR LMML 011015Z 16013KT 9999 SCT018 SCT250 26/20 Q1016
                        NOSIG=
200910011000 METAR LMML NIL=
200910010945 METAR LMML 010945Z 16012KT 120V190 9999 SCT018 BKN250 26/20
                        Q1016 NOSIG=
200910010930 METAR LMML NIL=
200910010915 METAR LMML 010915Z 16010KT 130V200 9999 SCT017 26/20 Q1017
                        NOSIG=
200910010900 METAR LMML NIL=
200910010845 METAR LMML 010845Z 16009KT 120V210 9999 FEW035 26/20 Q1017
                        NOSIG=
200910010830 METAR LMML NIL=
200910010815 METAR LMML 010815Z 16009KT 130V210 9999 FEW020 26/20 Q1017
                        NOSIG=
200910010800 METAR LMML NIL=
200910010745 METAR LMML 010745Z 17008KT 140V200 9999 FEW020 25/20 Q1017
                        NOSIG=
200910010730 METAR LMML NIL=
200910010715 METAR LMML 010715Z 16007KT 120V220 9999 FEW017 25/20 Q1017
                        TEMPO SHRA=
200910010700 METAR LMML NIL=
200910010645 METAR LMML 010645Z 17005KT 150V210 9999 FEW017 24/20 Q1017
                        TEMPO SHRA=
200910010630 METAR LMML NIL=
200910010615 METAR LMML 010615Z 18006KT 140V210 9999 FEW017 24/20 Q1017
                        TEMPO SHRA=
200910010600 METAR LMML NIL=
200910010545 METAR LMML 010545Z VRB03KT 9999 SCT019 23/20 Q1017 TEMPO
                        SHRA=
200910010530 METAR LMML NIL=
200910010515 METAR LMML 010515Z 17004KT 150V210 9999 FEW016 23/20 Q1017
                        NOSIG=
200910010500 METAR LMML NIL=
200910010445 METAR LMML 010445Z 16004KT 9999 FEW018 23/20 Q1017 NOSIG=
200910010430 METAR LMML NIL=
200910010415 METAR LMML 010415Z 16004KT 130V210 9999 FEW016 SCT040 23/20
                        Q1017 NOSIG=
200910010400 METAR LMML NIL=
200910010345 METAR LMML 010345Z VRB03KT 9999 FEW016 BKN030 22/20 Q1017
                        NOSIG=
200910010315 METAR LMML 010315Z VRB03KT 9999 SCT016 22/20 Q1017 TEMPO
                        BKN012=
200910010300 METAR LMML NIL=
200910010245 METAR LMML 010245Z VRB03KT 9999 SCT014 22/21 Q1017 TEMPO
                        BKN010=
200910010230 METAR LMML NIL=
200910010215 METAR LMML 010215Z 13004KT 9999 SCT013 22/21 Q1017 TEMPO
                        BKN010=
200910010200 METAR LMML NIL=
200910010145 METAR LMML 010145Z 14005KT 9999 FEW013 SCT030 22/21 Q1017
                        NOSIG=
200910010130 METAR LMML NIL=
200910010115 METAR LMML 010115Z VRB03KT 9999 FEW012 BKN030 23/21 Q1017
                        TEMPO BKN010=
200910010100 METAR LMML NIL=
200910010045 METAR LMML 010045Z 14004KT 9999 SCT012 BKN250 22/21 Q1017
                        TEMPO BKN010=
200910010030 METAR LMML NIL=
200910010015 METAR LMML 010015Z 13004KT 9999 SCT011 BKN250 22/21 Q1017
                        TEMPO BKN010=
200910010000 METAR LMML NIL=
200909302345 METAR LMML 302345Z 14004KT 9999 SCT011 BKN250 22/21 Q1018
                        TEMPO BKN010=
200909302330 METAR LMML NIL=
200909302315 METAR LMML 302315Z 14006KT 9999 SCT013 BKN250 22/21 Q1018
                        TEMPO BKN010=
200909302300 METAR LMML NIL=
200909302245 METAR LMML 302245Z 14005KT 9999 SCT013 BKN250 22/21 Q1018
                        TEMPO BKN010=
200909302230 METAR LMML NIL=
200909302215 METAR LMML 302215Z 13004KT 9999 SCT012 BKN250 21/19 Q1018
                        TEMPO BKN010=
200909302200 METAR LMML NIL=
200909302145 METAR LMML 302145Z VRB02KT CAVOK 22/20 Q1018 NOSIG=
200909302130 METAR LMML NIL=
200909302115 METAR LMML 302115Z VRB02KT CAVOK 22/20 Q1018 NOSIG=
200909302100 METAR LMML NIL=
200909302045 METAR LMML 302045Z 13005KT 9999 FEW015 BKN250 22/20 Q1018
                        NOSIG=
200909302030 METAR LMML NIL=
200909302015 METAR LMML 302015Z VRB03KT 9999 FEW015 BKN250 22/20 Q1018
                        NOSIG=
200909301945 METAR LMML 301945Z 13004KT 090V160 9999 FEW015 BKN250 22/20
                        Q1018 NOSIG=
200909301930 METAR LMML NIL=
200909301915 METAR LMML 301915Z 13004KT 9999 FEW015 BKN250 22/20 Q1018
                        NOSIG=
200909301900 METAR LMML NIL=
200909301845 METAR LMML 301845Z 13004KT 9999 FEW015 BKN250 22/20 Q1018
                        NOSIG=
200909301830 METAR LMML NIL=
200909301815 METAR LMML 301815Z VRB03KT 9999 FEW015 BKN250 22/20 Q1018
                        NOSIG=
200909301745 METAR LMML 301745Z 14004KT 9999 FEW014 BKN250 23/20 Q1018
                        NOSIG=
200909301730 METAR LMML NIL=
200909301715 METAR LMML 301715Z 13004KT 9999 FEW014 BKN250 23/20 Q1017
                        NOSIG=
200909301700 METAR LMML NIL=
200909301645 METAR LMML 301645Z 13004KT 9999 FEW014 BKN250 23/20 Q1017
                        NOSIG=
200909301630 METAR LMML NIL=
200909301615 METAR LMML 301615Z 14004KT 9999 FEW017 BKN250 23/20 Q1017
                        NOSIG=
200909301545 METAR LMML 301545Z 18004KT 150V210 9999 FEW017 BKN250 24/19
                        Q1017 NOSIG=
200909301530 METAR LMML NIL=
200909301515 METAR LMML 301515Z VRB02KT 9999 FEW019 BKN250 24/19 Q1017
                        NOSIG=
200909301500 METAR LMML NIL=
200909301445 METAR LMML 301445Z VRB03KT 9999 FEW021 BKN250 25/19 Q1017
                        NOSIG=
200909301430 METAR LMML NIL=
200909301415 METAR LMML 301415Z 14005KT 100V190 9999 SCT019 BKN250 25/19
                        Q1017 NOSIG=
200909301400 METAR LMML NIL=
200909301345 METAR LMML 301345Z 10004KT 060V160 9999 SCT020 BKN250 25/19
                        Q1017 NOSIG=
200909301330 METAR LMML NIL=
200909301315 METAR LMML 301315Z 10005KT 060V180 9999 FEW020 BKN250 25/19
                        Q1017 NOSIG=
200909301245 METAR LMML 301245Z 12007KT 070V160 9999 SCT019 SCT250 25/19
                        Q1017 NOSIG=
200909301230 METAR LMML NIL=
200909301215 METAR LMML 301215Z 12007KT 080V150 9999 SCT018 SCT250 25/19
                        Q1018 NOSIG=
200909301145 METAR LMML 301145Z 11008KT 060V150 9999 SCT017 25/20 Q1018
                        NOSIG=
200909301130 METAR LMML NIL=
200909301115 METAR LMML 301115Z 12009KT 080V140 9999 SCT017 25/20 Q1018
                        NOSIG=
200909301100 METAR LMML NIL=
200909301045 METAR LMML 301045Z 11007KT 070V140 9999 SCT022 25/20 Q1018
                        NOSIG=
200909301030 METAR LMML NIL=
200909301015 METAR LMML 301015Z 12009KT 090V150 9999 BKN019 25/20 Q1018
                        NOSIG=
200909301000 METAR LMML NIL=
200909300945 METAR LMML 300945Z 12009KT 080V170 9999 BKN019 25/19 Q1018
                        NOSIG=
200909300930 METAR LMML NIL=
200909300915 METAR LMML 300915Z 09010KT 050V120 9999 SCT019 25/19 Q1018
                        NOSIG=
200909300900 METAR LMML NIL=
200909300845 METAR LMML 300845Z 10008KT 9999 SCT020 24/19 Q1018 NOSIG=
200909300830 METAR LMML NIL=
200909300815 METAR LMML 300815Z 09009KT 9999 SCT019 24/20 Q1018 NOSIG=
200909300800 METAR LMML NIL=
200909300745 METAR LMML 300745Z 10009KT 070V130 9999 SCT016 23/19 Q1018
                        NOSIG=
200909300715 METAR LMML 300715Z 09009KT 050V120 9999 SCT017 23/19 Q1017
                        NOSIG=
200909300700 METAR LMML NIL=
200909300645 METAR LMML 300645Z 08008KT 060V120 9999 SCT018 23/19 Q1017
                        NOSIG=
200909300630 METAR LMML NIL=
200909300615 METAR LMML 300615Z 08007KT 9999 SCT014 22/20 Q1017 NOSIG=
200909300600 METAR LMML NIL=
200909300545 METAR LMML 300545Z 08006KT 040V110 9999 SCT015 22/19 Q1017
                        NOSIG=
200909300515 METAR LMML 300515Z 08005KT 040V100 9999 SCT014 22/19 Q1017
                        NOSIG=
200909300500 METAR LMML NIL=
200909300445 METAR LMML 300445Z 07005KT 040V110 9999 SCT015 22/19 Q1017
                        NOSIG=
200909300430 METAR LMML NIL=
200909300415 METAR LMML 300415Z 06005KT 020V090 9999 FEW014 22/19 Q1017
                        NOSIG=
200909300400 METAR LMML NIL=
200909300345 METAR LMML 300345Z 06004KT 020V090 9999 FEW013 22/19 Q1016
                        NOSIG=
200909300330 METAR LMML NIL=
200909300315 METAR LMML 300315Z 06005KT 030V100 9999 FEW014 22/19 Q1016
                        NOSIG=
200909300300 METAR LMML NIL=
200909300245 METAR LMML 300245Z 05005KT 020V080 9999 FEW013 22/19 Q1016
                        NOSIG=
200909300230 METAR LMML NIL=
200909300215 METAR LMML 300215Z 06005KT 030V100 9999 FEW013 22/19 Q1016
                        NOSIG=
200909300200 METAR LMML NIL=
200909300145 METAR LMML 300145Z 06005KT 030V090 9999 FEW013 22/19 Q1016
                        NOSIG=
200909300115 METAR LMML 300115Z VRB03KT 9999 FEW014 21/19 Q1017 NOSIG=
200909300045 METAR LMML 300045Z 07004KT 9999 FEW014 22/19 Q1017 NOSIG=
200909300030 METAR LMML NIL=
200909300015 METAR LMML 300015Z 07004KT 040V100 9999 FEW016 22/19 Q1017
                        NOSIG=
200909300000 METAR LMML NIL=
200909292345 METAR LMML 292345Z 08004KT 9999 FEW014 22/19 Q1017 NOSIG=
200909292330 METAR LMML NIL=
200909292315 METAR LMML 292315Z 08004KT 030V120 9999 SCT014 22/20 Q1017
                        NOSIG=
200909292300 METAR LMML NIL=
200909292245 METAR LMML 292245Z 07005KT 040V100 9999 SCT013 22/20 Q1017
                        NOSIG=
200909292230 METAR LMML NIL=
200909292215 METAR LMML 292215Z 07004KT 030V140 9999 FEW014 22/20 Q1017
                        NOSIG=
200909292200 METAR LMML NIL=
200909292145 METAR LMML 292145Z 08004KT 9999 FEW014 22/20 Q1017 NOSIG=
200909292130 METAR LMML NIL=
200909292115 METAR LMML 292115Z 07004KT 040V120 9999 SCT013 22/20 Q1018
                        NOSIG=
200909292100 METAR LMML NIL=
200909292045 METAR LMML 292045Z VRB03KT 9999 BKN015 22/19 Q1017 NOSIG=
200909292030 METAR LMML NIL=
200909292015 METAR LMML 292015Z VRB03KT 9999 SCT015 22/19 Q1017 NOSIG=
200909292000 METAR LMML NIL=
200909291945 METAR LMML 291945Z VRB03KT 9999 FEW020 22/19 Q1017 NOSIG=
200909291930 METAR LMML NIL=
200909291915 METAR LMML 291915Z VRB03KT 9999 FEW020 22/18 Q1017 NOSIG=
200909291900 METAR LMML NIL=
200909291845 METAR LMML 291845Z VRB03KT 9999 FEW020 22/19 Q1017 NOSIG=
200909291830 METAR LMML NIL=
200909291815 METAR LMML 291815Z 08004KT 9999 FEW020 23/19 Q1017 NOSIG=
200909291800 METAR LMML NIL=
200909291745 METAR LMML 291745Z 08004KT 9999 FEW020 23/19 Q1016 NOSIG=
200909291730 METAR LMML NIL=
200909291715 METAR LMML 291715Z 11006KT 9999 FEW020 23/19 Q1016 NOSIG=
200909291700 METAR LMML NIL=
200909291645 METAR LMML 291645Z 11007KT 080V140 9999 FEW020 23/19 Q1016
                        NOSIG=
200909291630 METAR LMML NIL=
200909291615 METAR LMML 291615Z 13007KT 100V160 9999 FEW021 23/19 Q1016
                        NOSIG=
200909291600 METAR LMML NIL=
200909291545 METAR LMML 291545Z 11008KT 9999 FEW019 24/19 Q1016 NOSIG=
200909291515 METAR LMML 291515Z 08008KT 050V120 9999 FEW019 25/18 Q1016
                        NOSIG=
200909291500 METAR LMML NIL=
200909291445 METAR LMML 291445Z 06010KT 020V090 9999 FEW019 26/18 Q1015
                        NOSIG=
200909291430 METAR LMML NIL=
200909291415 METAR LMML 291415Z 06008KT 020V100 9999 FEW019 26/19 Q1016
                        NOSIG=
200909291400 METAR LMML NIL=
200909291345 METAR LMML 291345Z 07008KT 010V110 9999 FEW021 25/19 Q1016
                        NOSIG=
200909291330 METAR LMML NIL=
200909291315 METAR LMML 291315Z 05007KT 340V110 9999 FEW022 26/19 Q1017
                        NOSIG=
200909291300 METAR LMML NIL=
200909291245 METAR LMML 291245Z 07008KT 020V110 9999 FEW023 26/19 Q1017
                        NOSIG=
200909291230 METAR LMML NIL=
200909291215 METAR LMML 291215Z 09005KT 040V160 9999 SCT025 26/19 Q1017
                        NOSIG=
200909291145 METAR LMML 291145Z 09006KT 040V150 9999 FEW026 26/19 Q1018
                        NOSIG=
200909291130 METAR LMML NIL=
200909291115 METAR LMML 291115Z 06006KT 340V120 9999 FEW024 27/19 Q1018
                        NOSIG=
200909291100 METAR LMML NIL=
200909291045 METAR LMML 291045Z 07005KT 350V130 9999 FEW022 26/18 Q1018
                        NOSIG=
200909291030 METAR LMML NIL=
200909291015 METAR LMML 291015Z 07007KT 020V110 9999 FEW025 26/19 Q1018
                        NOSIG=
200909290945 METAR LMML 290945Z 06005KT 350V110 9999 FEW024 26/18 Q1019
                        NOSIG=
200909290930 METAR LMML NIL=
200909290915 METAR LMML 290915Z 07005KT 340V110 9999 SCT021 26/19 Q1019
                        NOSIG=
200909290900 METAR LMML NIL=
200909290845 METAR LMML 290845Z 14004KT 9999 SCT019 26/19 Q1019 NOSIG=
200909290830 METAR LMML NIL=
200909290815 METAR LMML 290815Z 05006KT 020V080 9999 SCT019 25/19 Q1019
                        NOSIG=
200909290800 METAR LMML NIL=
200909290745 METAR LMML 290745Z 07005KT 030V100 9999 SCT017 24/19 Q1019
                        NOSIG=
200909290730 METAR LMML NIL=
200909290715 METAR LMML 290715Z 05005KT 010V090 9999 FEW016 25/19 Q1018
                        NOSIG=
200909290700 METAR LMML NIL=
200909290645 METAR LMML 290645Z 04005KT 9999 SCT016 24/19 Q1018 NOSIG=
200909290630 METAR LMML NIL=
200909290615 METAR LMML 290615Z VRB03KT 9999 FEW018 24/19 Q1018 NOSIG=
200909290600 METAR LMML NIL=
200909290545 METAR LMML 290545Z VRB03KT 9999 FEW016 22/19 Q1018 NOSIG=
200909290530 METAR LMML NIL=
200909290515 METAR LMML 290515Z VRB02KT 9999 FEW015 22/19 Q1018 NOSIG=
200909290500 METAR LMML NIL=
200909290445 METAR LMML 290445Z VRB03KT 9999 FEW017 22/19 Q1017 NOSIG=
200909290430 METAR LMML NIL=
200909290415 METAR LMML 290415Z 05004KT 9999 FEW017 22/19 Q1017 NOSIG=
200909290400 METAR LMML NIL=
200909290345 METAR LMML 290345Z 04004KT 020V080 9999 BKN016 22/19 Q1017
                        NOSIG=
200909290330 METAR LMML NIL=
200909290315 METAR LMML 290315Z 05005KT 020V080 9999 BKN014 22/19 Q1017
                        NOSIG=
200909290300 METAR LMML NIL=
200909290245 METAR LMML 290245Z 05005KT 020V080 9999 BKN013 22/19 Q1017
                        NOSIG=
200909290230 METAR LMML NIL=
200909290215 METAR LMML 290215Z 04006KT 9999 FEW013 22/19 Q1017 NOSIG=
200909290200 METAR LMML NIL=
200909290145 METAR LMML 290145Z 04005KT 010V070 9999 FEW013 22/20 Q1017
                        NOSIG=
200909290130 METAR LMML NIL=
200909290115 METAR LMML 290115Z 04005KT 9999 SCT014 22/19 Q1017 NOSIG=
200909290100 METAR LMML NIL=
200909290045 METAR LMML 290045Z 04005KT 010V070 9999 SCT014 22/19 Q1018
                        NOSIG=
200909290030 METAR LMML NIL=
200909290015 METAR LMML 290015Z VRB03KT 9999 SCT016 22/19 Q1018 NOSIG=
200909290000 METAR LMML NIL=
200909282345 METAR LMML 282345Z VRB02KT 9999 SCT014 22/19 Q1018 NOSIG=
200909282330 METAR LMML NIL=
200909282315 METAR LMML 282315Z VRB02KT 9999 SCT016 22/19 Q1018 NOSIG=
200909282300 METAR LMML NIL=
200909282245 METAR LMML 282245Z VRB03KT 9999 SCT017 22/19 Q1018 NOSIG=
200909282230 METAR LMML NIL=
200909282215 METAR LMML 282215Z VRB01KT 9999 SCT016 22/19 Q1018 NOSIG=
200909282200 METAR LMML NIL=
200909282145 METAR LMML 282145Z VRB03KT 9999 FEW015 22/19 Q1018 NOSIG=
200909282130 METAR LMML NIL=
200909282115 METAR LMML 282115Z VRB03KT 9999 FEW020 22/19 Q1018 NOSIG=
200909282100 METAR LMML NIL=
200909282045 METAR LMML 282045Z VRB02KT 9999 FEW015 22/19 Q1018 NOSIG=
200909282030 METAR LMML NIL=
200909282015 METAR LMML 282015Z 04004KT 9999 FEW015 22/19 Q1018 NOSIG=
200909282000 METAR LMML NIL=
200909281945 METAR LMML 281945Z 04004KT 360V100 9999 FEW014 22/19 Q1018
                        NOSIG=
200909281930 METAR LMML NIL=
200909281915 METAR LMML 281915Z 02005KT 9999 SCT014 22/19 Q1018 NOSIG=
200909281900 METAR LMML NIL=
200909281845 METAR LMML 281845Z 03005KT 9999 SCT013 22/19 Q1018 NOSIG=
200909281830 METAR LMML NIL=
200909281815 METAR LMML 281815Z 03005KT 9999 SCT014 23/19 Q1018 NOSIG=
200909281800 METAR LMML NIL=
200909281745 METAR LMML 281745Z 03005KT 360V070 9999 SCT015 23/19 Q1018
                        NOSIG=
200909281730 METAR LMML NIL=
200909281715 METAR LMML 281715Z 03006KT 9999 SCT015 23/19 Q1017 NOSIG=
200909281700 METAR LMML NIL=
200909281645 METAR LMML 281645Z 03007KT 360V060 9999 SCT016 23/19 Q1017
                        NOSIG=
200909281630 METAR LMML NIL=
200909281615 METAR LMML 281615Z 04007KT 020V080 9999 SCT017 24/19 Q1017
                        NOSIG=
200909281600 METAR LMML NIL=
200909281545 METAR LMML 281545Z 03006KT 010V070 9999 FEW018 SCT250 24/19
                        Q1017 NOSIG=
200909281530 METAR LMML NIL=
200909281515 METAR LMML 281515Z 04006KT 360V080 9999 FEW018 SCT250 25/19
                        Q1017 NOSIG=
200909281500 METAR LMML NIL=
200909281445 METAR LMML 281445Z 04006KT 360V070 9999 SCT019 25/19 Q1017
                        NOSIG=
200909281430 METAR LMML NIL=
200909281415 METAR LMML 281415Z 02006KT 350V060 9999 SCT022 27/18 Q1017
                        NOSIG=
200909281400 METAR LMML NIL=
200909281345 METAR LMML 281345Z 02005KT 340V070 9999 FEW024 27/18 Q1017
                        NOSIG=
200909281330 METAR LMML NIL=
200909281315 METAR LMML 281315Z 04006KT 340V100 9999 FEW022 27/19 Q1017
                        NOSIG=
200909281300 METAR LMML NIL=
200909281245 METAR LMML 281245Z 02005KT 350V050 9999 SCT022 27/19 Q1017
                        NOSIG=
200909281230 METAR LMML NIL=
200909281215 METAR LMML 281215Z 04005KT 360V100 9999 SCT023 26/19 Q1017
                        NOSIG=
200909281200 METAR LMML NIL=
200909281145 METAR LMML 281145Z 02004KT 350V100 9999 FEW020 26/19 Q1018
                        NOSIG=
200909281130 METAR LMML NIL=
200909281115 METAR LMML 281115Z 03006KT 350V080 9999 SCT020 26/19 Q1018
                        NOSIG=
200909281100 METAR LMML NIL=
200909281045 METAR LMML 281045Z 03006KT 340V080 9999 SCT019 28/19 Q1018
                        NOSIG=
200909281030 METAR LMML NIL=
200909281015 METAR LMML 281015Z 02006KT 300V060 9999 SCT017 26/20 Q1018
                        NOSIG=
200909281000 METAR LMML NIL=
200909280945 METAR LMML 280945Z 02008KT 340V040 9999 SCT017 26/20 Q1018
                        NOSIG=
200909280930 METAR LMML NIL=
200909280915 METAR LMML 280915Z 01009KT 330V030 9999 -SHRA BKN017 25/19
                        Q1018 NOSIG=
200909280900 METAR LMML NIL=
200909280845 METAR LMML 280845Z 01010KT 9999 -SHRA BKN016 24/19 Q1018
                        NOSIG=
200909280830 METAR LMML NIL=
200909280815 METAR LMML 280815Z 35010KT 9999 FEW015 BKN020 25/20 Q1018
                        NOSIG=
200909280808 SPECI LMML 280808Z 36009KT 9999 FEW015 SCT020 24/19 Q1018
                        NOSIG=
200909280800 METAR LMML NIL=
200909280745 METAR LMML 280745Z 36009KT 9999 FEW015 BKN020 24/19 Q1018
                        NOSIG=
200909280730 METAR LMML NIL=
200909280715 METAR LMML 280715Z 34009KT 9999 SCT015 23/19 Q1018 NOSIG=
200909280700 METAR LMML NIL=
200909280645 METAR LMML 280645Z 35009KT 320V020 9999 SCT014 23/19 Q1018
                        NOSIG=
200909280630 METAR LMML NIL=
200909280615 METAR LMML 280615Z 35007KT 9999 SCT014 23/19 Q1018 NOSIG=
200909280600 METAR LMML NIL=
200909280545 METAR LMML 280545Z 35007KT 9999 SCT015 22/19 Q1017 NOSIG=
200909280530 METAR LMML NIL=
200909280515 METAR LMML 280515Z 33004KT 280V020 9999 SCT016 21/19 Q1017
                        NOSIG=
200909280500 METAR LMML NIL=
200909280445 METAR LMML 280445Z VRB03KT 9999 BKN022 22/18 Q1017 NOSIG=
200909280430 METAR LMML NIL=
200909280415 METAR LMML 280415Z VRB03KT 9999 BKN025 22/18 Q1017 NOSIG=
200909280345 METAR LMML 280345Z 36006KT 320V030 9999 BKN025 22/18 Q1017
                        NOSIG=
200909280330 METAR LMML NIL=
200909280315 METAR LMML 280315Z 31004KT 280V340 9999 BKN021 21/18 Q1017
                        NOSIG=
200909280300 METAR LMML NIL=
200909280245 METAR LMML 280245Z 34004KT 300V360 9999 FEW021 21/18 Q1017
                        NOSIG=
200909280215 METAR LMML 280215Z 31004KT 280V340 9999 FEW022 21/18 Q1017
                        NOSIG=
200909280200 METAR LMML NIL=
200909280145 METAR LMML 280145Z 28004KT 250V310 9999 FEW020 21/18 Q1017
                        NOSIG=
200909280130 METAR LMML NIL=
200909280115 METAR LMML 280115Z 31004KT 9999 FEW020 21/18 Q1017 NOSIG=
200909280100 METAR LMML NIL=
200909280045 METAR LMML 280045Z 30004KT 9999 FEW040 21/18 Q1017 NOSIG=
200909280030 METAR LMML NIL=
200909280015 METAR LMML 280015Z 29004KT 250V330 9999 FEW040 21/18 Q1017
                        NOSIG=
200909272345 METAR LMML 272345Z VRB03KT 9999 FEW040 21/17 Q1018 NOSIG=
200909272330 METAR LMML NIL=
200909272315 METAR LMML 272315Z VRB03KT 9999 FEW041 21/18 Q1018 NOSIG=
200909272245 METAR LMML 272245Z VRB03KT 9999 FEW040 21/18 Q1018 NOSIG=
200909272230 METAR LMML NIL=
200909272215 METAR LMML 272215Z VRB03KT 9999 FEW040 21/18 Q1018 NOSIG=
200909272200 METAR LMML NIL=
200909272145 METAR LMML 272145Z 31004KT 9999 FEW040 21/18 Q1018 NOSIG=
200909272130 METAR LMML NIL=
200909272115 METAR LMML 272115Z VRB03KT 9999 FEW040 22/18 Q1018 NOSIG=
200909272100 METAR LMML NIL=
200909272045 METAR LMML 272045Z 32004KT 9999 SCT049 22/18 Q1018 NOSIG=
200909272030 METAR LMML NIL=
200909272015 METAR LMML 272015Z 32004KT 9999 SCT041 22/18 Q1018 NOSIG=
200909272000 METAR LMML NIL=
200909271945 METAR LMML 271945Z 32004KT 9999 FEW028 SCT040 22/18 Q1018
                        NOSIG=
200909271930 METAR LMML NIL=
200909271915 METAR LMML 271915Z 31004KT 9999 FEW028 SCT050 22/18 Q1018
                        NOSIG=
200909271900 METAR LMML NIL=
200909271845 METAR LMML 271845Z 31004KT 9999 FEW028 BKN049 23/18 Q1018
                        NOSIG=
200909271830 METAR LMML NIL=
200909271815 METAR LMML 271815Z 30004KT 9999 FEW028 BKN047 23/18 Q1017
                        NOSIG=
200909271800 METAR LMML NIL=
200909271745 METAR LMML 271745Z 30004KT 9999 FEW028 SCT070 23/17 Q1017
                        NOSIG=
200909271730 METAR LMML NIL=
200909271715 METAR LMML 271715Z 31005KT 9999 FEW033 SCT060 23/17 Q1017
                        NOSIG=
200909271645 METAR LMML 271645Z VRB03KT 9999 FEW035 SCT060 24/16 Q1017
                        NOSIG=
200909271630 METAR LMML NIL=
200909271615 METAR LMML 271615Z VRB03KT 9999 FEW035 24/16 Q1017 NOSIG=
200909271600 METAR LMML NIL=
200909271545 METAR LMML 271545Z VRB03KT 9999 FEW034 25/16 Q1016 NOSIG=
200909271530 METAR LMML NIL=
200909271515 METAR LMML 271515Z 04005KT 010V080 9999 FEW036 26/16 Q1016
                        NOSIG=
200909271445 METAR LMML 271445Z 35004KT 230V030 9999 FEW036 27/16 Q1016
                        NOSIG=
200909271430 METAR LMML NIL=
200909271415 METAR LMML 271415Z 36005KT 270V060 9999 FEW033 26/16 Q1016
                        NOSIG=
200909271345 METAR LMML 271345Z 35006KT 270V050 9999 FEW033 26/16 Q1016
                        NOSIG=
200909271330 METAR LMML NIL=
200909271315 METAR LMML 271315Z 02005KT 280V080 9999 FEW030 27/16 Q1016
                        NOSIG=
200909271300 METAR LMML NIL=
200909271245 METAR LMML 271245Z 03005KT 250V090 9999 FEW028 27/17 Q1016
                        NOSIG=
200909271230 METAR LMML NIL=
200909271215 METAR LMML 271215Z 03005KT 330V080 9999 FEW028 27/17 Q1017
                        NOSIG=
200909271200 METAR LMML NIL=
200909271145 METAR LMML 271145Z 04006KT 340V100 9999 FEW028 26/17 Q1017
                        NOSIG=
200909271130 METAR LMML NIL=
200909271115 METAR LMML 271115Z 02006KT 340V090 9999 FEW028 27/17 Q1017
                        NOSIG=
200909271100 METAR LMML NIL=
200909271045 METAR LMML 271045Z 03005KT 330V100 9999 FEW027 26/18 Q1017
                        NOSIG=
200909271030 METAR LMML NIL=
200909271015 METAR LMML 271015Z 04006KT 340V100 9999 FEW027 26/17 Q1017
                        NOSIG=
200909271000 METAR LMML NIL=
200909270945 METAR LMML 270945Z 03006KT 360V070 9999 FEW027 26/16 Q1017
                        NOSIG=
200909270930 METAR LMML NIL=
200909270915 METAR LMML 270915Z 05007KT 020V090 9999 FEW027 26/17 Q1017
                        NOSIG=
200909270900 METAR LMML NIL=
200909270845 METAR LMML 270845Z 06007KT 360V100 9999 FEW027 25/17 Q1017
                        TEMPO SHRA BKN015=
200909270830 METAR LMML NIL=
200909270815 METAR LMML 270815Z 07007KT 030V120 9999 FEW022 24/17 Q1017
                        TEMPO SHRA BKN015=
200909270800 METAR LMML NIL=
200909270745 METAR LMML 270745Z 05005KT 360V120 9999 FEW021 24/18 Q1017
                        TEMPO SHRA BKN015=
200909270730 METAR LMML NIL=
200909270715 METAR LMML 270715Z 07005KT 020V100 9999 FEW018 24/18 Q1016
                        TEMPO SHRA BKN015=
200909270700 METAR LMML NIL=
200909270645 METAR LMML 270645Z VRB03KT 9999 FEW019TCU 23/19 Q1016 TEMPO
                        SHRA BKN015=
200909270630 METAR LMML NIL=
200909270615 METAR LMML 270615Z VRB02KT 9999 FEW019TCU 22/20 Q1016 TEMPO
                        SHRA BKN015=
200909270545 METAR LMML 270545Z VRB01KT 9999 FEW017TCU 20/20 Q1016 TEMPO
                        SHRA BKN015=
200909270530 METAR LMML NIL=
200909270515 METAR LMML 270515Z VRB02KT 9999 FEW015TCU 19/19 Q1015 TEMPO
                        SHRA BKN015=
200909270500 METAR LMML NIL=
200909270445 METAR LMML 270445Z VRB01KT 9000 FEW020 19/19 Q1015 BECMG
                        9999=
200909270430 METAR LMML NIL=
200909270415 METAR LMML 270415Z 00000KT 9000 FEW020 SCT250 19/19 Q1015
                        NOSIG=
200909270400 METAR LMML NIL=
200909270345 METAR LMML 270345Z VRB01KT 9000 FEW020 19/19 Q1015 NOSIG=
200909270330 METAR LMML NIL=
200909270315 METAR LMML 270315Z VRB01KT 9000 FEW020 20/19 Q1015 NOSIG=
200909270300 METAR LMML NIL=
200909270245 METAR LMML 270245Z VRB01KT 9999 FEW020 19/19 Q1015 NOSIG=
200909270230 METAR LMML NIL=
200909270215 METAR LMML 270215Z VRB01KT 9999 FEW020 19/19 Q1015 NOSIG=
200909270200 METAR LMML NIL=
200909270145 METAR LMML 270145Z VRB02KT 9999 FEW020 19/19 Q1015 NOSIG=
200909270130 METAR LMML NIL=
200909270115 METAR LMML 270115Z VRB01KT 9999 FEW016 19/19 Q1015 NOSIG=
200909270100 METAR LMML NIL=
200909270045 METAR LMML 270045Z VRB01KT 9999 FEW020 19/19 Q1015 NOSIG=
200909270015 METAR LMML 270015Z 00000KT 9999 FEW020 19/19 Q1015 NOSIG=
200909270000 METAR LMML NIL=
200909262345 METAR LMML 262345Z 00000KT 9999 FEW020 20/19 Q1015 NOSIG=
200909262330 METAR LMML NIL=
200909262315 METAR LMML 262315Z VRB01KT CAVOK 20/19 Q1015 NOSIG=
200909262300 METAR LMML NIL=
200909262245 METAR LMML 262245Z VRB01KT CAVOK 20/19 Q1015 NOSIG=
200909262230 METAR LMML NIL=
200909262215 METAR LMML 262215Z VRB03KT CAVOK 20/19 Q1015 NOSIG=
200909262200 METAR LMML NIL=
200909262145 METAR LMML 262145Z VRB02KT 9999 FEW020 20/18 Q1016 NOSIG=
200909262130 METAR LMML NIL=
200909262115 METAR LMML 262115Z VRB01KT 9999 FEW020 20/18 Q1015 NOSIG=
200909262100 METAR LMML NIL=
200909262045 METAR LMML 262045Z VRB01KT 9999 FEW020 21/18 Q1015 NOSIG=
200909262030 METAR LMML NIL=
200909262015 METAR LMML 262015Z VRB02KT 9999 FEW020 21/18 Q1015 NOSIG=
200909262000 METAR LMML NIL=
200909261945 METAR LMML 261945Z VRB01KT 9999 FEW020 21/18 Q1015 NOSIG=
200909261930 METAR LMML NIL=
200909261915 METAR LMML 261915Z VRB01KT 9999 FEW020 21/18 Q1015 NOSIG=
200909261900 METAR LMML NIL=
200909261845 METAR LMML 261845Z VRB02KT 9999 FEW020 22/18 Q1015 NOSIG=
200909261830 METAR LMML NIL=
200909261815 METAR LMML 261815Z VRB02KT 9999 FEW020 22/18 Q1014 NOSIG=
200909261800 METAR LMML NIL=
200909261745 METAR LMML 261745Z VRB03KT 9999 FEW030 22/18 Q1014 NOSIG=
200909261730 METAR LMML NIL=
200909261715 METAR LMML 261715Z 29004KT 260V320 9999 FEW030 23/18 Q1014
                        NOSIG=
200909261700 METAR LMML NIL=
200909261645 METAR LMML 261645Z 29006KT 260V320 9999 FEW030 23/17 Q1014
                        NOSIG=
200909261630 METAR LMML NIL=
200909261615 METAR LMML 261615Z 29006KT 250V320 9999 FEW035 24/17 Q1013
                        NOSIG=
200909261600 METAR LMML NIL=
200909261545 METAR LMML 261545Z 30007KT 260V330 9999 FEW035 24/17 Q1013
                        NOSIG=
200909261530 METAR LMML NIL=
200909261515 METAR LMML 261515Z 29007KT 250V330 9999 FEW035 25/16 Q1013
                        NOSIG=
200909261500 METAR LMML NIL=
200909261445 METAR LMML 261445Z 30009KT 250V340 9999 FEW034 26/16 Q1013
                        NOSIG=
200909261415 METAR LMML 261415Z 29007KT 230V350 9999 FEW034 26/16 Q1013
                        NOSIG=
200909261400 METAR LMML NIL=
200909261345 METAR LMML 261345Z 34008KT 9999 FEW030 26/17 Q1013 NOSIG=
200909261330 METAR LMML NIL=
200909261315 METAR LMML 261315Z 34009KT 300V360 9999 FEW030 26/17 Q1013
                        NOSIG=
200909261300 METAR LMML NIL=
200909261245 METAR LMML 261245Z 31006KT 260V360 9999 FEW031 26/17 Q1013
                        NOSIG=
200909261215 METAR LMML 261215Z 34007KT 290V030 9999 FEW031 26/17 Q1013
                        NOSIG=
200909261200 METAR LMML NIL=
200909261145 METAR LMML 261145Z 32008KT 270V360 9999 FEW033 26/17 Q1013
                        NOSIG=
200909261130 METAR LMML NIL=
200909261115 METAR LMML 261115Z 34006KT 290V040 9999 FEW026 27/17 Q1013
                        NOSIG=
200909261100 METAR LMML NIL=
200909261045 METAR LMML 261045Z 34007KT 300V020 9999 FEW027 25/17 Q1013
                        NOSIG=
200909261030 METAR LMML NIL=
200909261015 METAR LMML 261015Z 35007KT 310V030 9999 FEW029 26/18 Q1013
                        NOSIG=
200909261000 METAR LMML NIL=
200909260945 METAR LMML 260945Z 34008KT 310V010 9999 FEW027 26/17 Q1013
                        NOSIG=
200909260930 METAR LMML NIL=
200909260915 METAR LMML 260915Z 34006KT 290V010 9999 FEW027 25/16 Q1013
                        NOSIG=
200909260845 METAR LMML 260845Z 33006KT 300V010 9999 FEW028 25/17 Q1013
                        NOSIG=
200909260830 METAR LMML NIL=
200909260815 METAR LMML 260815Z 33008KT 9999 FEW026 24/17 Q1013 NOSIG=
200909260800 METAR LMML NIL=
200909260745 METAR LMML 260745Z 32008KT 290V360 9999 FEW022 24/17 Q1013
                        NOSIG=
200909260730 METAR LMML NIL=
200909260715 METAR LMML 260715Z 32006KT 9999 FEW018 23/18 Q1013 NOSIG=
200909260645 METAR LMML 260645Z 31004KT 280V350 9999 FEW017 23/18 Q1012
                        NOSIG=
200909260630 METAR LMML NIL=
200909260615 METAR LMML 260615Z VRB03KT 9999 FEW020 22/18 Q1012 NOSIG=
200909260600 METAR LMML NIL=
200909260545 METAR LMML 260545Z 30004KT 9999 FEW020 21/18 Q1012 NOSIG=
200909260530 METAR LMML NIL=
200909260515 METAR LMML 260515Z VRB03KT 9999 FEW020 20/18 Q1012 NOSIG=
200909260500 METAR LMML NIL=
200909260445 METAR LMML 260445Z 31004KT 9999 FEW015 20/18 Q1011 NOSIG=
200909260430 METAR LMML NIL=
200909260415 METAR LMML 260415Z 32004KT 9999 FEW015 19/18 Q1011 NOSIG=
200909260400 METAR LMML NIL=
200909260345 METAR LMML 260345Z 31006KT 9999 FEW016 19/18 Q1011 NOSIG=
200909260330 METAR LMML NIL=
200909260315 METAR LMML 260315Z 30007KT 9999 FEW016 20/19 Q1011 NOSIG=
200909260245 METAR LMML 260245Z 32004KT 9999 FEW016 19/19 Q1011 NOSIG=
200909260230 METAR LMML NIL=
200909260215 METAR LMML 260215Z VRB03KT 9999 FEW016 19/18 Q1011 NOSIG=
200909260200 METAR LMML NIL=
200909260145 METAR LMML 260145Z VRB03KT 9999 FEW016 20/18 Q1011 NOSIG=
200909260130 METAR LMML NIL=
200909260115 METAR LMML 260115Z VRB02KT 9999 FEW018 20/18 Q1011 NOSIG=
200909260100 METAR LMML NIL=
200909260045 METAR LMML 260045Z VRB02KT 9999 FEW018 20/18 Q1011 NOSIG=
200909260030 METAR LMML NIL=
200909260015 METAR LMML 260015Z 31004KT 9999 FEW018 20/18 Q1011 NOSIG=
200909260000 METAR LMML NIL=
200909252345 METAR LMML 252345Z VRB02KT 9999 FEW018 20/18 Q1011 NOSIG=
200909252330 METAR LMML NIL=
200909252315 METAR LMML 252315Z VRB02KT 9999 FEW018 20/18 Q1011 NOSIG=
200909252300 METAR LMML NIL=
200909252245 METAR LMML 252245Z VRB03KT 9999 FEW018 20/18 Q1011 NOSIG=
200909252230 METAR LMML NIL=
200909252215 METAR LMML 252215Z VRB02KT 9999 FEW018 20/18 Q1011 NOSIG=
200909252200 METAR LMML NIL=
200909252145 METAR LMML 252145Z VRB02KT 9999 FEW024 20/18 Q1012 NOSIG=
200909252130 METAR LMML NIL=
200909252115 METAR LMML 252115Z VRB03KT 9999 FEW024 20/18 Q1012 NOSIG=
200909252100 METAR LMML NIL=
200909252045 METAR LMML 252045Z VRB03KT 9999 FEW024 20/17 Q1011 NOSIG=
200909252030 METAR LMML NIL=
200909252015 METAR LMML 252015Z 27004KT 230V300 9999 FEW020 21/17 Q1011
                        NOSIG=
200909252000 METAR LMML NIL=
200909251945 METAR LMML 251945Z 30005KT 9999 FEW020 21/18 Q1011 NOSIG=
200909251930 METAR LMML NIL=
200909251915 METAR LMML 251915Z 28005KT 9999 FEW025 21/18 Q1011 NOSIG=
200909251900 METAR LMML NIL=
200909251845 METAR LMML 251845Z VRB03KT 9999 FEW025 21/17 Q1011 NOSIG=
200909251830 METAR LMML NIL=
200909251815 METAR LMML 251815Z VRB03KT 9999 FEW025 21/17 Q1011 NOSIG=
200909251800 METAR LMML NIL=
200909251745 METAR LMML 251745Z 29004KT 250V310 9999 FEW025TCU 22/17 Q1011
                        TEMPO 8000 SHRA=
200909251730 METAR LMML NIL=
200909251715 METAR LMML 251715Z 31005KT 9999 FEW025TCU 22/17 Q1010 TEMPO
                        8000 SHRA=
200909251645 METAR LMML 251645Z 28006KT 250V330 9999 SCT030TCU SCT250
                        22/17 Q1010 TEMPO 8000 SHRA=
200909251630 METAR LMML NIL=
200909251615 METAR LMML 251615Z 28007KT 250V320 9999 SCT030 SCT250 23/17
                        Q1010 TEMPO 8000 SHRA=
200909251600 METAR LMML NIL=
200909251545 METAR LMML 251545Z 28008KT 9999 SCT030 SCT250 23/16 Q1010
                        NOSIG=
200909251530 METAR LMML NIL=
200909251515 METAR LMML 251515Z 28006KT 240V320 9999 FEW031 SCT250 24/16
                        Q1010 NOSIG=
200909251500 METAR LMML NIL=
200909251445 METAR LMML 251445Z 30006KT 270V340 9999 SCT030 SCT250 25/16
                        Q1009 NOSIG RMK CB TOP TO SOUTHEAST=
200909251430 METAR LMML NIL=
200909251415 METAR LMML 251415Z 28006KT 220V030 9999 SCT026 SCT250 25/15
                        Q1009 NOSIG=
200909251400 METAR LMML NIL=
200909251345 METAR LMML 251345Z VRB02KT 9999 SCT024 24/17 Q1009 TEMPO
                        8000 SHRA BKN015 RMK CB TOP TO SOUTH=
200909251330 METAR LMML NIL=
200909251315 METAR LMML 251315Z VRB03KT 9999 SCT024TCU 24/17 Q1010 TEMPO
                        8000 SHRA BKN015 RMK CB TOPS TO SOUTHEAST=
200909251300 METAR LMML NIL=
200909251245 METAR LMML 251245Z VRB03KT 9999 SCT021TCU 24/18 Q1010 TEMPO
                        3000 TSRA BKN015CB RMK CB TOP TO
                        NORTH=
200909251230 METAR LMML NIL=
200909251215 METAR LMML 251215Z 35009KT 9999 SCT025TCU 23/17 Q1010 TEMPO
                        3000 TSRA BKN015CB=
200909251200 METAR LMML NIL=
200909251145 METAR LMML 251145Z 34011KT 9999 BKN024TCU 23/16 Q1010 TEMPO
                        3000 TSRA BKN015CB RMK CB TOP TO
                        SOUTHEAST=
200909251130 METAR LMML NIL=
200909251115 METAR LMML 251115Z 28007KT 250V330 9999 SCT024 25/16 Q1010
                        NOSIG=
200909251100 METAR LMML NIL=
200909251045 METAR LMML 251045Z 26005KT 210V340 9999 SCT026 24/17 Q1010
                        NOSIG=
200909251030 METAR LMML NIL=
200909251015 METAR LMML 251015Z 29006KT 220V350 9999 SCT026 25/16 Q1010
                        NOSIG=
200909251000 METAR LMML NIL=
200909250945 METAR LMML 250945Z 29006KT 240V330 9999 SCT027 24/17 Q1010
                        NOSIG=
200909250930 METAR LMML NIL=
200909250915 METAR LMML 250915Z 29007KT 240V320 9999 SCT024 24/15 Q1010
                        NOSIG=
200909250900 METAR LMML NIL=
200909250845 METAR LMML 250845Z 27004KT 210V320 9999 FEW025 24/17 Q1010
                        NOSIG=
200909250830 METAR LMML NIL=
200909250815 METAR LMML 250815Z VRB02KT 9999 FEW020 SCT120 23/16 Q1010
                        NOSIG=
200909250800 METAR LMML NIL=
200909250745 METAR LMML 250745Z VRB03KT 9999 FEW020 SCT100 23/17 Q1010
                        NOSIG=
200909250730 METAR LMML NIL=
200909250715 METAR LMML 250715Z VRB02KT 9999 FEW020 SCT100 22/18 Q1010
                        NOSIG=
200909250700 METAR LMML NIL=
200909250645 METAR LMML 250645Z VRB01KT 9999 FEW020 SCT100 21/19 Q1010
                        RERA NOSIG=
200909250630 METAR LMML NIL=
200909250615 METAR LMML 250615Z VRB03KT 9999 FEW020 SCT100 20/19 Q1009
                        RERA NOSIG=
200909250600 METAR LMML NIL=
200909250545 METAR LMML 250545Z 27004KT 240V300 9999 -RA FEW020TCU BKN100
                        20/19 Q1010 TEMPO 8000 SHRA BKN015=
200909250530 METAR LMML NIL=
200909250515 METAR LMML 250515Z VRB02KT 9999 FEW015CB BKN110 19/19 Q1010
                        TEMPO SHRA=
200909250500 METAR LMML NIL=
200909250445 METAR LMML 250445Z VRB02KT 9999 FEW015CB BKN120 19/19 Q1010
                        TEMPO SHRA=
200909250430 METAR LMML NIL=
200909250415 METAR LMML 250415Z 35004KT 9999 FEW017CB BKN120 19/19 Q1010
                        TEMPO SHRA RMK LIGHTNING TO SW=
200909250400 METAR LMML NIL=
200909250345 METAR LMML 250345Z VRB01KT 9999 FEW017 BKN120 19/19 Q1010
                        TEMPO SHRA=
200909250330 METAR LMML NIL=
200909250315 METAR LMML 250315Z VRB02KT 9999 FEW017 BKN120 19/19 Q1010
                        TEMPO SHRA=
200909250300 METAR LMML NIL=
200909250245 METAR LMML 250245Z VRB02KT 9999 FEW014 SCT039 BKN120 19/18
                        Q1010 TEMPO SHRA=
200909250230 METAR LMML NIL=
200909250215 METAR LMML 250215Z 28004KT 230V300 9999 FEW016CB SCT018 19/18
                        Q1010 TEMPO SHRA=
200909250200 METAR LMML NIL=
200909250145 METAR LMML 250145Z VRB03KT 9999 FEW015CB SCT021 19/18 Q1010
                        NOSIG RMK LIGHTNING TO NORTH=
200909250130 METAR LMML NIL=
200909250115 METAR LMML 250115Z VRB02KT 9999 FEW016CB SCT023 BKN250 19/18
                        Q1010 RETS NOSIG RMK LIGHTNING TO
                        E AND S=
200909250100 METAR LMML NIL=
200909250045 METAR LMML 250045Z VRB03KT 9999 -TSRA FEW008 BKN016CB 20/17
                        Q1011 TEMPO 5000 TSRA SCT008 BKN015CB=
200909250030 METAR LMML NIL=
200909250015 METAR LMML 250015Z 21009KT 170V260 9999 -TSRA FEW008 BKN016CB
                        20/18 Q1011 TEMPO 5000 TSRA SCT008
                        BKN015CB=
200909250009 SPECI LMML 250009Z 21010KT 170V260 9999 -TSRA FEW008 BKN014CB
                        20/18 Q1011 TEMPO 5000 TSRA SCT008
                        BKN015CB=
200909242345 METAR LMML 242345Z 23006KT 180V270 9000 TSRA BKN028CB 22/18
                        Q1011 TEMPO 8000 SHRA BKN015=
200909242335 SPECI LMML 242335Z 22004KT 180V270 9000 -TSRA BKN028CB 22/18
                        Q1011 TEMPO 8000 SHRA BKN015=
200909242315 METAR LMML 242315Z VRB03KT 9999 SCT027TCU BKN120 22/18 Q1011
                        TEMPO 8000 SHRA BKN015 RMK DISTANT
                        LIGHTNING TO SW AND NW=
200909242300 METAR LMML NIL=
200909242245 METAR LMML 242245Z VRB03KT 9999 FEW020CB SCT028 SCT120 22/17
                        Q1011 TEMPO 8000 SHRA BKN015 RMK
                        LIGHTNING TO SW=
200909242230 METAR LMML NIL=
200909242215 METAR LMML 242215Z 24004KT 200V280 9999 FEW028 SCT250 22/17
                        Q1011 TEMPO 8000 SHRA BKN015=
200909242200 METAR LMML NIL=
200909242145 METAR LMML 242145Z VRB03KT 9999 FEW020 SCT250 22/17 Q1012
                        TEMPO 8000 SHRA BKN015 RMK DISTANT
                        LIGHTNING TO SW=
200909242130 METAR LMML NIL=
200909242115 METAR LMML 242115Z 24004KT 200V270 9999 FEW025 22/17 Q1012
                        TEMPO 8000 SHRA BKN015=
200909242100 METAR LMML NIL=
200909242045 METAR LMML 242045Z 24005KT 210V280 9999 FEW026 22/17 Q1012
                        TEMPO 8000 SHRA BKN015=
200909242030 METAR LMML NIL=
200909242015 METAR LMML 242015Z 24004KT 220V280 9999 FEW020CB 22/18 Q1012
                        TEMPO 8000 SHRA BKN015 RMK LIGHTNING
                        TO NW=
200909242000 METAR LMML NIL=
200909241945 METAR LMML 241945Z 24006KT 190V270 9999 SCT025 23/18 Q1012
                        TEMPO 8000 SHRA BKN015 RMK CB TOP
                        TO SW=
200909241930 METAR LMML NIL=
200909241915 METAR LMML 241915Z 24007KT 200V280 9999 SCT026 23/17 Q1012
                        TEMPO 8000 SHRA BKN015=
200909241900 METAR LMML NIL=
200909241845 METAR LMML 241845Z 24006KT 210V280 9999 BKN028 23/17 Q1012
                        TEMPO 8000 SHRA BKN015=
200909241830 METAR LMML NIL=
200909241815 METAR LMML 241815Z 23005KT 210V280 9999 SCT027 23/17 Q1012
                        NOSIG=
200909241800 METAR LMML NIL=
200909241745 METAR LMML 241745Z 24006KT 200V290 9999 FEW020CB BKN026 23/17
                        Q1012 NOSIG RMK LIGHTNING TO N=
200909241730 METAR LMML NIL=
200909241715 METAR LMML 241715Z 24007KT 200V300 9999 SCT027 23/17 Q1012
                        NOSIG=
200909241700 METAR LMML NIL=
200909241645 METAR LMML 241645Z 22009KT 190V260 9999 FEW025 23/17 Q1011
                        NOSIG=
200909241630 METAR LMML NIL=
200909241615 METAR LMML 241615Z 22010KT 200V270 9999 FEW027 24/18 Q1011
                        NOSIG=
200909241600 METAR LMML NIL=
200909241545 METAR LMML 241545Z 21009KT 180V270 9999 FEW025 SCT070 24/19
                        Q1011 NOSIG=
200909241530 METAR LMML NIL=
200909241515 METAR LMML 241515Z 23010KT 200V280 9999 SCT025 SCT250 24/18
                        Q1011 NOSIG=
200909241445 METAR LMML 241445Z 22011KT 180V260 9999 FEW026 25/18 Q1011
                        NOSIG=
200909241430 METAR LMML NIL=
200909241415 METAR LMML 241415Z 22011KT 190V260 9999 FEW026 25/18 Q1011
                        NOSIG=
200909241400 METAR LMML NIL=
200909241345 METAR LMML 241345Z 23007KT 180V280 9999 FEW026 25/18 Q1012
                        NOSIG=
200909241330 METAR LMML NIL=
200909241315 METAR LMML 241315Z 23009KT 190V280 9999 FEW025 26/18 Q1012
                        NOSIG=
200909241300 METAR LMML NIL=
200909241245 METAR LMML 241245Z 25009KT 200V280 9999 FEW025 26/18 Q1012
                        NOSIG=
200909241230 METAR LMML NIL=
200909241215 METAR LMML 241215Z 24008KT 200V300 9999 FEW025TCU 27/16 Q1012
                        NOSIG=
200909241200 METAR LMML NIL=
200909241145 METAR LMML 241145Z 23010KT 200V280 9999 FEW025TCU 26/18 Q1013
                        NOSIG=
200909241115 METAR LMML 241115Z 24010KT 200V280 9999 SCT024 26/19 Q1013
                        NOSIG=
200909241100 METAR LMML NIL=
200909241045 METAR LMML 241045Z 24009KT 200V290 9999 SCT024 27/20 Q1013
                        NOSIG=
200909241030 METAR LMML NIL=
200909241015 METAR LMML 241015Z 23006KT 180V310 9999 SCT021 26/19 Q1013
                        NOSIG=
200909241000 METAR LMML NIL=
200909240945 METAR LMML 240945Z 22007KT 190V280 9999 SCT021 26/20 Q1013
                        NOSIG=
200909240930 METAR LMML NIL=
200909240915 METAR LMML 240915Z 20005KT 150V270 9999 SCT017 26/19 Q1013
                        NOSIG=
200909240900 METAR LMML NIL=
200909240845 METAR LMML 240845Z 16005KT 120V200 9999 SCT018 26/21 Q1013
                        NOSIG=
200909240830 METAR LMML NIL=
200909240815 METAR LMML 240815Z 18004KT 130V250 9999 SCT019 25/20 Q1013
                        NOSIG=
200909240800 METAR LMML NIL=
200909240745 METAR LMML 240745Z 15004KT 100V200 9999 SCT020 25/21 Q1013
                        NOSIG=
200909240730 METAR LMML NIL=
200909240715 METAR LMML 240715Z 12005KT 9999 SCT016 24/21 Q1012 NOSIG=
200909240700 METAR LMML NIL=
200909240645 METAR LMML 240645Z 09006KT 060V140 9999 FEW010 SCT015 23/21
                        Q1012 NOSIG=
200909240615 METAR LMML 240615Z 10010KT 9999 SCT010 SCT015 22/21 Q1012
                        NOSIG=
200909240600 METAR LMML NIL=
200909240545 METAR LMML 240545Z 10011KT 9000 FEW030 22/20 Q1012 NOSIG=
200909240530 METAR LMML NIL=
200909240515 METAR LMML 240515Z 11010KT 9000 FEW020 SCT130 21/20 Q1012
                        RETS NOSIG=
200909240500 METAR LMML NIL=
200909240445 METAR LMML 240445Z 11010KT 9000 FEW017 SCT130 21/21 Q1012
                        RETS NOSIG=
200909240430 METAR LMML NIL=
200909240415 METAR LMML 240415Z 13009KT 9999 FEW011CB 20/20 Q1012 RETS
                        BECMG 9999 SCT020=
200909240400 METAR LMML NIL=
200909240345 METAR LMML 240345Z 09009KT 360V170 6000 -TSRA BKN012CB 20/20
                        Q1013 BECMG 9999 SCT020=
200909240330 METAR LMML NIL=
200909240315 METAR LMML 240315Z 12006KT 1500 R13/0715VP1500D TSRA FEW008
                        BKN011CB 18/17 Q1013 BECMG 9999 SCT020=
200909240303 SPECI LMML 240303Z 13018KT 090V160 2000 TSRA BKN011CB 20/18
                        Q1013 BECMG 9999 SCT020=
200909240300 METAR LMML NIL=
200909240245 METAR COR LMML 240245Z 11016KT 7000 -TSRA SCT017CB BKN130
                        23/21 Q1012 BECMG 9999 SCT020=
200909240234 SPECI LMML 240234Z 11018KT 9999 -TSRA SCT017CB BKN130 23/21
                        Q1012 TEMPO 5000 TSRA BKN015CB=
200909240230 METAR LMML NIL=
200909240215 METAR LMML 240215Z 12015KT 090V150 9999 SCT017 BKN130 23/21
                        Q1012 TEMPO 5000 TSRA BKN015CB RMK
                        LIGHTNING TO SSE=
200909240200 METAR LMML NIL=
200909240145 METAR LMML 240145Z 13016KT 9999 SCT027 SCT042 BKN100 23/21
                        Q1013 TEMPO 5000 TSRA BKN015CB RMK
                        LIGHTNING TO S SW=
200909240130 METAR LMML NIL=
200909240115 METAR LMML 240115Z 12015KT 9999 FEW027 BKN046 BKN100 23/20
                        Q1013 TEMPO 5000 TSRA BKN015CB=
200909240100 METAR LMML NIL=
200909240045 METAR LMML 240045Z 14015KT 120V180 9999 -RA SCT025 SCT050
                        BKN100 23/20 Q1014 TEMPO 5000 TSRA
                        BKN015CB=
200909240030 METAR LMML NIL=
200909240015 METAR LMML 240015Z 14020KT 9999 -RA SCT023 BKN040 BKN100
                        23/20 Q1014 TEMPO 5000 TSRA BKN015CB
                        RMK LIGHTNING TO SE=
200909240000 METAR LMML NIL=
200909232345 METAR LMML 232345Z 13020KT 9999 -SHRA BKN022 BKN090 24/19
                        Q1014 TEMPO 5000 TSRA BKN015CB=
200909232330 METAR LMML NIL=
200909232315 METAR LMML 232315Z 14018KT 110V170 9999 SCT024 BKN090 24/19
                        Q1014 TEMPO 5000 TSRA BKN015CB=
200909232300 METAR LMML NIL=
200909232245 METAR LMML 232245Z 14018KT 9999 SCT022 BKN090 24/19 Q1014
                        TEMPO 5000 TSRA BKN015CB=
200909232230 METAR LMML NIL=
200909232215 METAR LMML 232215Z 12022KT 9999 SCT021 BKN080 24/19 Q1014
                        TEMPO 7000 TSRA BKN015CB=
200909232200 METAR LMML NIL=
200909232145 METAR LMML 232145Z 12025KT 9999 BKN021 BKN090 23/19 Q1014
                        TEMPO 7000 TSRA BKN015CB=
200909232130 METAR LMML NIL=
200909232115 METAR LMML 232115Z 11025KT 9999 BKN021 BKN090 24/19 Q1013
                        TEMPO 7000 TSRA BKN015CB=
200909232045 METAR LMML 232045Z 11022G32KT 9999 BKN020 BKN090 23/19 Q1014
                        TEMPO 7000 TSRA BKN015CB=
200909232030 METAR LMML NIL=
200909232015 METAR LMML 232015Z 11022G33KT 9999 BKN021 BKN090 24/19 Q1014
                        TEMPO 7000 TSRA BKN015CB=
200909232000 METAR LMML NIL=
200909231945 METAR LMML 231945Z 11024KT 9999 SCT023 BKN090 24/18 Q1015
                        TEMPO 7000 TSRA BKN015CB=
200909231930 METAR LMML NIL=
200909231915 METAR LMML 231915Z 11024KT 9999 SCT023 BKN090 24/19 Q1015
                        NOSIG=
200909231900 METAR LMML NIL=
200909231845 METAR LMML 231845Z 11023KT 9999 BKN023 BKN130 23/19 Q1014
                        NOSIG=
200909231830 METAR LMML NIL=
200909231815 METAR LMML 231815Z 11023KT 9999 BKN023 BKN130 23/19 Q1014
                        NOSIG=
200909231800 METAR LMML NIL=
200909231745 METAR LMML 231745Z 11023KT 9999 BKN023 BKN130 24/19 Q1014
                        NOSIG=
200909231730 METAR LMML NIL=
200909231715 METAR LMML 231715Z 11022KT 090V150 9999 BKN023 BKN130 24/19
                        Q1015 NOSIG=
200909231700 METAR LMML NIL=
200909231645 METAR LMML 231645Z 12025KT 9999 -SHRA BKN023 BKN130 24/19
                        Q1015 TEMPO 8000 SHRA BKN015=
200909231630 METAR LMML NIL=
200909231615 METAR LMML 231615Z 12023KT 9999 -SHRA SCT023 BKN130 23/19
                        Q1015 TEMPO 8000 SHRA BKN015=
200909231600 METAR LMML NIL=
200909231545 METAR LMML 231545Z 12028KT 9999 SCT023 BKN130 24/19 Q1015
                        TEMPO 8000 SHRA BKN015=
200909231530 METAR LMML NIL=
200909231515 METAR LMML 231515Z 12027KT 9999 SCT023 BKN130 24/19 Q1014
                        NOSIG=
200909231500 METAR LMML NIL=
200909231445 METAR LMML 231445Z 12023KT 9999 FEW023 BKN130 25/19 Q1015=
200909231430 METAR LMML NIL=
200909231415 METAR LMML 231415Z 12023KT 9999 FEW023 BKN130 25/19 Q1015=
200909231400 METAR LMML NIL=
200909231345 METAR LMML 231345Z 12024KT 9999 FEW025 SCT110 BKN130 24/19
                        Q1016=
200909231330 METAR LMML NIL=
200909231315 METAR LMML 231315Z 12021KT 9999 SCT025 BKN130 24/19 Q1017=
200909231300 METAR LMML NIL=
200909231245 METAR LMML 231245Z 12021KT 9999 BKN021 BKN120 24/20 Q1017=
200909231230 METAR LMML NIL=
200909231215 METAR LMML 231215Z 11018KT 9999 FEW013 BKN017 24/21 Q1017
                        TEMPO 8000 RA SCT008 BKN018=
200909231145 METAR LMML 231145Z 10013KT 9999 SCT009 SCT017 BKN025 22/21
                        Q1018 TEMPO 8000 RA SCT008 BKN018=
200909231130 METAR LMML NIL=
200909231115 METAR LMML 231115Z 10015KT 070V140 9999 SCT009 SCT015 BKN030
                        22/21 Q1018 TEMPO 8000 RA SCT008
                        BKN018=
200909231100 METAR LMML NIL=
200909231045 METAR LMML 231045Z 10013KT 9000 -SHRA FEW009 BKN012 BKN030
                        22/20 Q1018 TEMPO 8000 RA SCT008
                        BKN018=
200909231030 METAR LMML NIL=
200909231015 METAR LMML 231015Z 10014KT 9999 -RA FEW009 BKN016 BKN020
                        23/21 Q1018 TEMPO 8000 RA SCT008
                        BKN018=
200909231000 METAR LMML NIL=
200909230945 METAR LMML 230945Z 10013KT 080V140 9999 -RA FEW010 SCT020
                        BKN030 21/20 Q1019 TEMPO 8000 RA
                        SCT008 BKN018=
200909230930 METAR LMML NIL=
200909230915 METAR LMML 230915Z 10013KT 9999 FEW006 SCT011 BKN030 21/21
                        Q1019 TEMPO 8000 RA FEW008 BKN018=
200909230900 METAR LMML NIL=
200909230845 METAR LMML 230845Z 09013KT 060V120 7000 -SHRA BKN008 BKN012
                        22/21 Q1019 TEMPO 5000 TSRA SCT008
                        BKN015CB=
200909230830 METAR LMML NIL=
200909230815 METAR LMML 230815Z 10009KT 080V150 7000 -SHRA SCT009 FEW024
                        OVC100 21/20 Q1019 TEMPO 5000 TSRA
                        SCT008 BKN015CB=
200909230800 METAR LMML NIL=
200909230730 METAR LMML NIL=
200909230715 METAR LMML 230715Z 10010KT 9999 FEW010 BKN024 BKN100 22/20
                        Q1019 TEMPO 5000 SHRA=
200909230700 METAR LMML NIL=
200909230645 METAR LMML 230645Z 09008KT 9999 -RA SCT028 SCT060 BKN110
                        22/20 Q1019 NOSIG=
200909230630 METAR LMML NIL=
200909230615 METAR LMML 230615Z 11007KT 080V140 9999 -RA FEW010 SCT025
                        BKN110 21/20 Q1019 NOSIG=
200909230600 METAR LMML NIL=
200909230545 METAR LMML 230545Z 10004KT 060V130 8000 -SHRA FEW009 SCT020
                        BKN110 21/20 Q1019 TEMPO 3000 TSRA
                        BKN015CB=
200909230530 METAR LMML NIL=
200909230515 METAR LMML 230515Z 14007KT 5000 SHRA FEW008 SCT014 BKN110
                        20/19 Q1019 TEMPO 3000 TSRA BKN015CB=
200909230500 METAR LMML NIL=
200909230445 METAR LMML 230445Z 09009KT 060V140 7000 SHRA SCT018 SCT080
                        BKN120 23/19 Q1019 TEMPO 3000 TSRA
                        BKN015CB=
200909230430 METAR LMML NIL=
200909230415 METAR LMML 230415Z 07006KT 050V110 9999 -RA SCT025 SCT080
                        BKN120 23/19 Q1019 TEMPO 3000 TSRA
                        BKN015CB=
200909230345 METAR LMML 230345Z 07005KT 040V100 9999 -RA FEW020 SCT090
                        BKN120 23/18 Q1019 TEMPO 8000 SHRA=
200909230330 METAR LMML NIL=
200909230315 METAR LMML 230315Z 08006KT 040V110 9999 FEW019 SCT090 BKN120
                        23/18 Q1019 NOSIG=
200909230300 METAR LMML NIL=
200909230245 METAR LMML 230245Z 09007KT 060V120 9999 FEW019 SCT090 BKN120
                        23/18 Q1018 NOSIG=
200909230230 METAR LMML NIL=
200909230215 METAR LMML 230215Z 10009KT 9999 FEW020 SCT120 BKN250 23/18
                        Q1018 NOSIG=
200909230145 METAR LMML 230145Z 08010KT 050V110 9999 FEW019 SCT120 BKN250
                        23/18 Q1018 NOSIG=
200909230130 METAR LMML NIL=
200909230115 METAR LMML 230115Z 09008KT 060V120 9999 FEW020 SCT120 BKN250
                        23/18 Q1019 NOSIG=
200909230100 METAR LMML NIL=
200909230045 METAR LMML 230045Z 09008KT 050V110 9999 SCT020 SCT120 BKN250
                        23/18 Q1019 NOSIG=
200909230030 METAR LMML NIL=
200909230015 METAR LMML 230015Z 09008KT 050V120 9999 FEW019 SCT120 BKN250
                        23/18 Q1020 NOSIG=
200909230000 METAR LMML NIL=
200909222345 METAR LMML 222345Z 09006KT 050V120 9999 FEW026 BKN250 23/17
                        Q1020 NOSIG=
200909222330 METAR LMML NIL=
200909222315 METAR LMML 222315Z 09006KT 060V120 9999 FEW026 BKN250 23/17
                        Q1020 NOSIG=
200909222300 METAR LMML NIL=
200909222245 METAR LMML 222245Z 09005KT 360V120 9999 FEW026 BKN250 23/16
                        Q1020 NOSIG=
200909222230 METAR LMML NIL=
200909222215 METAR LMML 222215Z 08004KT 050V110 9999 FEW026 BKN250 23/16
                        Q1021 NOSIG=
200909222200 METAR LMML NIL=
200909222145 METAR LMML 222145Z 09005KT 050V120 9999 FEW026 BKN250 23/17
                        Q1021 NOSIG=
200909222130 METAR LMML NIL=
200909222115 METAR LMML 222115Z 08004KT 050V110 9999 FEW026 BKN250 23/17
                        Q1021 NOSIG=
200909222100 METAR LMML NIL=
200909222045 METAR LMML 222045Z 07004KT 040V120 9999 FEW026 BKN250 23/16
                        Q1021 NOSIG=
200909222030 METAR LMML NIL=
200909222015 METAR LMML 222015Z 07004KT 9999 FEW026 BKN250 23/17 Q1021
                        NOSIG=
200909222000 METAR LMML NIL=
200909221945 METAR LMML 221945Z VRB03KT 9999 FEW026 BKN250 23/16 Q1021
                        NOSIG=
200909221930 METAR LMML NIL=
200909221915 METAR LMML 221915Z VRB03KT 9999 FEW026 BKN250 23/16 Q1021
                        NOSIG=
200909221900 METAR LMML NIL=
200909221845 METAR LMML 221845Z VRB03KT 9999 FEW026 SCT250 23/16 Q1020
                        NOSIG=
200909221830 METAR LMML NIL=
200909221815 METAR LMML 221815Z VRB03KT 9999 FEW026 SCT250 23/16 Q1019
                        NOSIG=
200909221800 METAR LMML NIL=
200909221745 METAR LMML 221745Z 08004KT 060V120 9999 FEW026 SCT250 23/17
                        Q1019 NOSIG=
200909221730 METAR LMML NIL=
200909221715 METAR LMML 221715Z 08004KT 060V120 CAVOK 23/16 Q1019 NOSIG=
200909221700 METAR LMML NIL=
200909221645 METAR LMML 221645Z 09006KT 060V120 9999 FEW028 SCT250 23/17
                        Q1019 NOSIG=
200909221630 METAR LMML NIL=
200909221615 METAR LMML 221615Z 10007KT 9999 SCT028 24/17 Q1019 NOSIG=
200909221600 METAR LMML NIL=
200909221545 METAR LMML 221545Z 08006KT 9999 SCT032 24/17 Q1019 NOSIG=
200909221530 METAR LMML NIL=
200909221515 METAR LMML 221515Z 11006KT 070V140 9999 SCT035 25/16 Q1019
                        NOSIG=
200909221500 METAR LMML NIL=
200909221445 METAR LMML 221445Z 11006KT 060V170 9999 SCT031 26/16 Q1019
                        NOSIG=
200909221430 METAR LMML NIL=
200909221415 METAR LMML 221415Z 20004KT 040V280 9999 SCT032 26/16 Q1018
                        NOSIG=
200909221400 METAR LMML NIL=
200909221345 METAR LMML 221345Z 12004KT 060V190 9999 SCT036 26/16 Q1019
                        NOSIG=
200909221315 METAR LMML 221315Z 15006KT 100V220 9999 SCT035 26/16 Q1019
                        NOSIG=
200909221300 METAR LMML NIL=
200909221245 METAR LMML 221245Z 18006KT 120V250 9999 SCT035 26/15 Q1019
                        NOSIG=
200909221230 METAR LMML NIL=
200909221215 METAR LMML 221215Z 03005KT 330V080 9999 SCT033 25/16 Q1019
                        NOSIG=
200909221200 METAR LMML NIL=
200909221145 METAR LMML 221145Z 03004KT 310V070 9999 SCT032 25/16 Q1019
                        NOSIG=
200909221115 METAR LMML 221115Z 31005KT 280V020 9999 SCT026TCU 25/16 Q1019
                        NOSIG=
200909221100 METAR LMML NIL=
200909221045 METAR LMML 221045Z 03006KT 350V070 9999 SCT030 25/17 Q1019
                        NOSIG=
200909221030 METAR LMML NIL=
200909221015 METAR LMML 221015Z 04006KT 360V090 9999 SCT032 25/17 Q1019
                        NOSIG=
200909221000 METAR LMML NIL=
200909220945 METAR LMML 220945Z 09004KT 030V130 9999 -SHRA SCT035 24/16
                        Q1019 NOSIG=
200909220930 METAR LMML NIL=
200909220915 METAR LMML 220915Z VRB03KT 9999 SCT034TCU 24/16 Q1019 NOSIG=
200909220900 METAR LMML NIL=
200909220845 METAR LMML 220845Z 06004KT 020V120 9999 SCT032TCU 24/16 Q1019
                        NOSIG=
200909220830 METAR LMML NIL=
200909220815 METAR LMML 220815Z VRB03KT 9999 SCT035 24/16 Q1018 NOSIG=
200909220800 METAR LMML NIL=
200909220745 METAR LMML 220745Z VRB02KT 9999 SCT031 24/16 Q1018 NOSIG=
200909220730 METAR LMML NIL=
200909220715 METAR LMML 220715Z VRB02KT 9999 FEW025 25/16 Q1018 NOSIG=
200909220700 METAR LMML NIL=
200909220645 METAR LMML 220645Z VRB02KT 9999 FEW020 24/16 Q1018 NOSIG=
200909220630 METAR LMML NIL=
200909220615 METAR LMML 220615Z VRB01KT 9999 FEW020 SCT100 23/16 Q1018
                        NOSIG=
200909220600 METAR LMML NIL=
200909220545 METAR LMML 220545Z VRB01KT 9999 FEW020 SCT110 23/16 Q1018
                        NOSIG=
200909220530 METAR LMML NIL=
200909220515 METAR LMML 220515Z VRB01KT 9999 FEW020 BKN110 21/16 Q1017
                        NOSIG=
200909220445 METAR LMML 220445Z VRB01KT 9999 FEW020TCU BKN100 20/16 Q1017
                        NOSIG=
200909220430 METAR LMML NIL=
200909220415 METAR LMML 220415Z VRB01KT 9999 FEW020 BKN100 20/16 Q1017
                        NOSIG=
200909220400 METAR LMML NIL=
200909220345 METAR LMML 220345Z VRB01KT 9999 FEW020 BKN100 20/16 Q1017
                        NOSIG=
200909220330 METAR LMML NIL=
200909220315 METAR LMML 220315Z VRB03KT 9999 FEW020 BKN120 20/15 Q1017
                        NOSIG=
200909220300 METAR LMML NIL=
200909220245 METAR LMML 220245Z VRB02KT 9999 FEW020 SCT120 20/16 Q1017
                        NOSIG=
200909220230 METAR LMML NIL=
200909220215 METAR LMML 220215Z VRB03KT 9999 FEW020 SCT120 20/16 Q1017
                        NOSIG=
200909220200 METAR LMML NIL=
200909220145 METAR LMML 220145Z VRB02KT 9999 FEW020 BKN120 20/16 Q1017
                        NOSIG=
200909220130 METAR LMML NIL=
200909220115 METAR LMML 220115Z VRB01KT 9999 FEW020 SCT100 20/16 Q1017
                        NOSIG=
200909220100 METAR LMML NIL=
200909220045 METAR LMML 220045Z VRB01KT 9999 FEW020 BKN120 20/16 Q1017
                        NOSIG=
200909220030 METAR LMML NIL=
200909220015 METAR LMML 220015Z VRB02KT 9999 FEW020 BKN100 21/16 Q1017
                        NOSIG=
200909220000 METAR LMML NIL=
200909212345 METAR LMML 212345Z VRB01KT 9999 FEW020 BKN100 21/16 Q1017
                        NOSIG=
200909212330 METAR LMML NIL=
200909212315 METAR LMML 212315Z 00000KT 9999 FEW020 BKN100 21/16 Q1017
                        NOSIG=
200909212300 METAR LMML NIL=
200909212245 METAR LMML 212245Z VRB01KT 9999 FEW020 BKN120 21/16 Q1018
                        NOSIG=
200909212230 METAR LMML NIL=
200909212215 METAR LMML 212215Z VRB02KT 9999 FEW020 BKN120 22/16 Q1018
                        TEMPO 5000 TSRA BKN015CB RMK LIGHTNING
                        TO SOUTHEAST=
200909212200 METAR LMML NIL=
200909212145 METAR LMML 212145Z VRB01KT 9999 FEW020 BKN110 21/16 Q1018
                        TEMPO 5000 TSRA BKN015CB RMK LIGHTNING
                        TO SOUTHEAST=
200909212130 METAR LMML NIL=
200909212115 METAR LMML 212115Z VRB03KT 9999 FEW020 BKN120 22/16 Q1018
                        TEMPO 5000 TSRA BKN015CB RMK LIGHTNING
                        TO SOUTH=
200909212100 METAR LMML NIL=
200909212045 METAR LMML 212045Z 29004KT 9999 FEW020 BKN120 22/16 Q1017
                        TEMPO 5000 TSRA BKN015CB RMK LIGHTNING
                        TO SOUTH=
200909212030 METAR LMML NIL=
200909212015 METAR LMML 212015Z VRB03KT 9999 FEW020 BKN110 22/16 Q1017
                        TEMPO 5000 TSRA BKN015CB RMK LIGHTNING
                        TO SOUTH=
200909212000 METAR LMML NIL=
200909211945 METAR LMML 211945Z 32004KT 9999 FEW020 BKN110 22/16 Q1017
                        TEMPO 5000 TSRA BKN015CB RMK LIGHTNING
                        TO SOUTH=
200909211930 METAR LMML NIL=
200909211915 METAR LMML 211915Z 32006KT 9999 FEW020 BKN110 23/16 Q1017
                        NOSIG RMK LIGHTNING TO SOUTH=
200909211900 METAR LMML NIL=
200909211845 METAR LMML 211845Z 31004KT 9999 FEW020 BKN110 23/16 Q1017
                        NOSIG=
200909211830 METAR LMML NIL=
200909211815 METAR LMML 211815Z 29005KT 250V320 9999 FEW020 BKN100 23/16
                        Q1017 NOSIG=
200909211800 METAR LMML NIL=
200909211745 METAR LMML 211745Z 29004KT 260V320 9999 FEW030 BKN120 23/16
                        Q1016 NOSIG=
200909211730 METAR LMML NIL=
200909211715 METAR LMML 211715Z 31006KT 9999 FEW030 BKN120 23/16 Q1016
                        NOSIG=
200909211700 METAR LMML NIL=
200909211645 METAR LMML 211645Z 29006KT 250V330 9999 FEW030 BKN120 24/16
                        Q1016 NOSIG=
200909211630 METAR LMML NIL=
200909211615 METAR LMML 211615Z 31006KT 270V340 9999 FEW035 BKN120 24/16
                        Q1016 NOSIG=
200909211600 METAR LMML NIL=
200909211545 METAR LMML 211545Z 30005KT 260V330 9999 -RA FEW035 BKN120
                        24/16 Q1015 NOSIG=
200909211515 METAR LMML 211515Z 29006KT 250V320 9999 FEW035 BKN120 24/16
                        Q1015 TEMPO 8000 SHRA=
200909211500 METAR LMML NIL=
200909211445 METAR LMML 211445Z 27007KT 220V320 9999 FEW038 BKN120 25/15
                        Q1016 TEMPO 8000 SHRA RMK CB TOPS
                        TO NORTH=
200909211430 METAR LMML NIL=
200909211415 METAR LMML 211415Z 27008KT 190V320 9999 FEW038 SCT110 26/16
                        Q1016 TEMPO 8000 SHRA RMK CB TOPS
                        TO NORTH=
200909211345 METAR LMML 211345Z 30005KT 270V340 9999 FEW037 SCT044 25/15
                        Q1016 TEMPO 8000 SHRA=
200909211315 METAR LMML 211315Z 28007KT 240V320 9999 SCT041 SCT250 26/14
                        Q1016 TEMPO 8000 SHRA=
200909211300 METAR LMML NIL=
200909211245 METAR LMML 211245Z 30008KT 260V330 9999 FEW043 SCT250 26/15
                        Q1016 TEMPO 8000 SHRA=
200909211215 METAR LMML 211215Z 29008KT 250V320 9999 FEW043 SCT250 25/14
                        Q1016 NOSIG RMK CB TOP TO S AND NE=
200909211200 METAR LMML NIL=
200909211145 METAR LMML 211145Z 29007KT 250V360 9999 FEW040 SCT120 26/14
                        Q1016 NOSIG RMK CB TOP TO NORTHEAST=
200909211115 METAR LMML 211115Z 31007KT 280V350 9999 FEW040 SCT120 26/13
                        Q1016 NOSIG RMK CB TOP TO NORTHEAST=
200909211100 METAR LMML NIL=
200909211045 METAR LMML 211045Z 28008KT 230V340 9999 FEW040 SCT120 26/13
                        Q1017 NOSIG=
200909211030 METAR LMML NIL=
200909211015 METAR LMML 211015Z 30006KT 250V340 9999 FEW040 SCT120 26/14
                        Q1017 NOSIG=
200909210945 METAR LMML 210945Z 30008KT 250V350 9999 FEW040 SCT120 26/14
                        Q1017 NOSIG=
200909210930 METAR LMML NIL=
200909210915 METAR LMML 210915Z 31009KT 280V340 9999 FEW037 SCT120 25/15
                        Q1017 NOSIG=
200909210900 METAR LMML NIL=
200909210845 METAR LMML 210845Z 29007KT 240V330 9999 FEW036 SCT250 25/15
                        Q1017 NOSIG=
200909210830 METAR LMML NIL=
200909210815 METAR LMML 210815Z 28007KT 220V330 9999 FEW033 SCT250 25/16
                        Q1017 NOSIG=
200909210800 METAR LMML NIL=
200909210745 METAR LMML 210745Z 27006KT 220V310 9999 FEW029 SCT250 25/16
                        Q1016 NOSIG=
200909210730 METAR LMML NIL=
200909210715 METAR LMML 210715Z VRB03KT 9999 FEW027 SCT120 23/17 Q1016
                        NOSIG=
200909210700 METAR LMML NIL=
200909210645 METAR LMML 210645Z VRB01KT 9999 FEW025 SCT120 23/17 Q1016
                        NOSIG=
200909210630 METAR LMML NIL=
200909210615 METAR LMML 210615Z VRB02KT 9999 FEW025 SCT120 22/17 Q1016
                        NOSIG=
200909210545 METAR LMML 210545Z VRB03KT 9999 FEW025 BKN120 22/17 Q1016
                        NOSIG=
200909210530 METAR LMML NIL=
200909210515 METAR LMML 210515Z 28005KT 9999 FEW025 BKN120 21/17 Q1015
                        NOSIG=
200909210445 METAR LMML 210445Z VRB03KT 9999 SCT024 BKN120 21/17 Q1015
                        NOSIG=
200909210430 METAR LMML NIL=
200909210415 METAR LMML 210415Z VRB03KT 9999 FEW023 BKN120 21/17 Q1015
                        NOSIG=
200909210400 METAR LMML NIL=
200909210345 METAR LMML 210345Z VRB03KT 9999 FEW025 BKN120 21/17 Q1015
                        NOSIG=
200909210330 METAR LMML NIL=
200909210315 METAR LMML 210315Z 27004KT 9999 FEW020 BKN120 21/17 Q1015
                        NOSIG=
200909210300 METAR LMML NIL=
200909210245 METAR LMML 210245Z 29004KT 9999 FEW020 BKN120 21/17 Q1015
                        NOSIG=
200909210230 METAR LMML NIL=
200909210215 METAR LMML 210215Z VRB03KT 9999 FEW020 BKN120 21/17 Q1015
                        NOSIG=
200909210200 METAR LMML NIL=
200909210145 METAR LMML 210145Z VRB02KT 9999 FEW020 BKN120 21/17 Q1015
                        NOSIG=
200909210130 METAR LMML NIL=
200909210115 METAR LMML 210115Z VRB02KT 9999 FEW020 BKN120 21/17 Q1016
                        NOSIG=
200909210100 METAR LMML NIL=
200909210045 METAR LMML 210045Z VRB02KT 9999 FEW020 BKN120 21/17 Q1016
                        NOSIG=
200909210030 METAR LMML NIL=
200909210015 METAR LMML 210015Z VRB03KT 9999 FEW020 BKN120 21/17 Q1016
                        NOSIG=
200909202345 METAR LMML 202345Z VRB02KT 9999 FEW020 BKN120 21/17 Q1016
                        NOSIG=
200909202330 METAR LMML NIL=
200909202315 METAR LMML 202315Z VRB01KT CAVOK 21/17 Q1016 NOSIG=
200909202300 METAR LMML NIL=
200909202245 METAR LMML 202245Z VRB02KT CAVOK 21/16 Q1016 NOSIG=
200909202230 METAR LMML NIL=
200909202215 METAR LMML 202215Z VRB02KT CAVOK 21/16 Q1016 NOSIG=
200909202200 METAR LMML NIL=
200909202145 METAR LMML 202145Z VRB02KT CAVOK 21/16 Q1017 NOSIG=
200909202115 METAR LMML 202115Z VRB03KT CAVOK 21/16 Q1017 NOSIG=
200909202100 METAR LMML NIL=
200909202045 METAR LMML 202045Z VRB03KT CAVOK 21/16 Q1017 NOSIG=
200909202030 METAR LMML NIL=
200909202015 METAR LMML 202015Z 30006KT 9999 FEW030 SCT250 22/16 Q1017
                        NOSIG=
200909202000 METAR LMML NIL=
200909201945 METAR LMML 201945Z 30007KT 9999 FEW030 SCT250 22/17 Q1016
                        NOSIG=
200909201930 METAR LMML NIL=
200909201915 METAR LMML 201915Z 30008KT 9999 FEW030 SCT250 22/17 Q1016
                        NOSIG=
200909201900 METAR LMML NIL=
200909201845 METAR LMML 201845Z 30008KT 9999 FEW030 SCT250 22/17 Q1016
                        NOSIG=
200909201830 METAR LMML NIL=
200909201815 METAR LMML 201815Z 29008KT 250V310 9999 FEW030 BKN250 22/17
                        Q1016 NOSIG=
200909201800 METAR LMML NIL=
200909201745 METAR LMML 201745Z 29010KT 9999 FEW030 BKN250 22/16 Q1015
                        NOSIG=
200909201730 METAR LMML NIL=
200909201715 METAR LMML 201715Z 29008KT 260V330 9999 FEW030 BKN250 23/16
                        Q1015 NOSIG=
200909201700 METAR LMML NIL=
200909201645 METAR LMML 201645Z 29009KT 250V320 9999 FEW030 BKN250 23/16
                        Q1015 NOSIG=
200909201615 METAR LMML 201615Z 30010KT 260V320 9999 FEW034 BKN250 24/15
                        Q1015 NOSIG=
200909201600 METAR LMML NIL=
200909201545 METAR LMML 201545Z 28012KT 250V310 9999 FEW034 BKN250 25/15
                        Q1015 NOSIG=
200909201515 METAR LMML 201515Z 28012KT 250V320 9999 FEW034 25/16 Q1015
                        NOSIG=
200909201500 METAR LMML NIL=
200909201445 METAR LMML 201445Z 33010KT 300V360 9999 FEW035 SCT250 26/16
                        Q1014 NOSIG=
200909201430 METAR LMML NIL=
200909201415 METAR LMML 201415Z 32010KT 280V350 9999 FEW037 SCT250 26/16
                        Q1015 NOSIG=
200909201400 METAR LMML NIL=
200909201345 METAR LMML 201345Z 32010KT 260V360 9999 FEW040 SCT250 27/15
                        Q1015 NOSIG=
200909201330 METAR LMML NIL=
200909201315 METAR LMML 201315Z 33011KT 300V360 9999 FEW040 SCT250 27/14
                        Q1015 NOSIG=
200909201245 METAR LMML 201245Z 34010KT 300V020 9999 FEW044 SCT250 27/15
                        Q1015 NOSIG=
200909201230 METAR LMML NIL=
200909201215 METAR LMML 201215Z 34009KT 300V030 9999 FEW030 27/15 Q1015
                        NOSIG=
200909201200 METAR LMML NIL=
200909201145 METAR LMML 201145Z 35008KT 310V030 9999 FEW030 SCT250 27/14
                        Q1015 NOSIG=
200909201115 METAR LMML 201115Z 34006KT 290V030 9999 FEW029 SCT250 27/14
                        Q1015 NOSIG=
200909201045 METAR LMML 201045Z 34008KT 300V020 9999 FEW029 27/16 Q1016
                        NOSIG=
200909201030 METAR LMML NIL=
200909201015 METAR LMML 201015Z 35008KT 320V030 9999 FEW028 27/17 Q1016
                        NOSIG=
200909201000 METAR LMML NIL=
200909200945 METAR LMML 200945Z 35010KT 310V020 9999 FEW031 26/17 Q1016
                        NOSIG=
200909200915 METAR LMML 200915Z 34008KT 9999 SCT028 26/17 Q1016 NOSIG=
200909200900 METAR LMML NIL=
200909200845 METAR LMML 200845Z 34007KT 310V030 9999 FEW027TCU 25/17 Q1016
                        BECMG FEW028=
200909200830 METAR LMML NIL=
200909200815 METAR LMML 200815Z 34005KT 310V010 9999 FEW023TCU 25/17 Q1015
                        BECMG FEW028=
200909200800 METAR LMML NIL=
200909200745 METAR LMML 200745Z 33007KT 290V360 9999 FEW023TCU 25/18 Q1015
                        BECMG FEW028=
200909200730 METAR LMML NIL=
200909200715 METAR LMML 200715Z 32007KT 9999 FEW026TCU 24/18 Q1015 BECMG
                        FEW028=
200909200700 METAR LMML NIL=
200909200645 METAR LMML 200645Z 32004KT 290V350 9999 FEW026TCU 24/17 Q1015
                        BECMG FEW028=
200909200630 METAR LMML NIL=
200909200615 METAR LMML 200615Z VRB03KT 9999 SCT026TCU 22/18 Q1015 NOSIG=
200909200600 METAR LMML NIL=
200909200545 METAR LMML 200545Z 34006KT 9999 FEW020CB SCT023 22/18 Q1015
                        RETS NOSIG=
200909200530 METAR LMML NIL=
200909200515 METAR LMML 200515Z 32005KT 9999 SCT022CB SCT024 21/18 Q1015
                        RETS TEMPO 7000 TSRA SCT020CB=
200909200500 METAR LMML NIL=
200909200445 METAR LMML 200445Z 31004KT 9999 TS BKN022CB SCT250 21/18
                        Q1015 TEMPO 7000 TSRA=
200909200430 METAR LMML NIL=
200909200415 METAR LMML 200415Z VRB03KT 9999 -SHRA SCT022TCU SCT250 21/19
                        Q1015 TEMPO 7000 TSRA BKN018CB RMK
                        LIGHTNING TO E=
200909200400 METAR LMML NIL=
200909200345 METAR LMML 200345Z 31004KT 9999 SCT024 SCT250 21/19 Q1015
                        NOSIG=
200909200330 METAR LMML NIL=
200909200315 METAR LMML 200315Z 30004KT 9999 FEW025 21/18 Q1015 NOSIG=
200909200300 METAR LMML NIL=
200909200245 METAR LMML 200245Z 31005KT 9999 FEW023 20/18 Q1015 NOSIG
                        RMK DISTANT LIGHTNING TO W=
200909200230 METAR LMML NIL=
200909200215 METAR LMML 200215Z 31005KT 9999 FEW020 20/17 Q1015 NOSIG=
200909200200 METAR LMML NIL=
200909200145 METAR LMML 200145Z VRB03KT 9999 FEW025 20/17 Q1015 NOSIG=
200909200130 METAR LMML NIL=
200909200115 METAR LMML 200115Z VRB03KT 9999 FEW025 SCT120 20/17 Q1015
                        NOSIG RMK DISTANT LIGHTNING TO S=
200909200100 METAR LMML NIL=
200909200045 METAR LMML 200045Z 36004KT 340V040 9999 FEW030 21/17 Q1015
                        NOSIG=
200909200030 METAR LMML NIL=
200909200015 METAR LMML 200015Z 01004KT 350V050 9999 FEW030 21/17 Q1015
                        NOSIG=
200909192345 METAR LMML 192345Z VRB02KT 9999 FEW030 BKN120 22/17 Q1015
                        NOSIG=
200909192315 METAR LMML 192315Z 13006KT 110V170 9999 FEW030 BKN120 22/17
                        Q1016 NOSIG=
200909192300 METAR LMML NIL=
200909192245 METAR LMML 192245Z VRB02KT 9999 FEW030 BKN120 22/18 Q1016
                        NOSIG=
200909192215 METAR LMML 192215Z 10004KT 9999 FEW030 BKN120 22/18 Q1016
                        NOSIG=
200909192200 METAR LMML NIL=
200909192145 METAR LMML 192145Z 11005KT 9999 -RA FEW038 BKN100 22/18 Q1016
                        NOSIG=
200909192130 METAR LMML NIL=
200909192115 METAR LMML 192115Z 05004KT 360V100 9999 -RA FEW020 BKN090
                        23/16 Q1016 NOSIG=
200909192045 METAR LMML 192045Z 04006KT 9999 FEW020 BKN100 23/16 Q1016
                        NOSIG=
200909192030 METAR LMML NIL=
200909192015 METAR LMML 192015Z 02004KT 350V060 9999 FEW020 BKN130 22/17
                        Q1016 NOSIG=
200909192000 METAR LMML NIL=
200909191945 METAR LMML 191945Z 01004KT 340V050 9999 FEW020 BKN120 22/18
                        Q1016 NOSIG=
200909191915 METAR LMML 191915Z 10004KT 070V130 9999 FEW020 BKN110 23/17
                        Q1016 NOSIG RMK LIGHTNING TO NE=
200909191845 METAR LMML 191845Z 09004KT 040V110 9999 FEW020 BKN100 23/17
                        Q1016 NOSIG=
200909191830 METAR LMML NIL=
200909191815 METAR LMML 191815Z 07004KT 040V100 9999 FEW020 BKN250 23/17
                        Q1015 NOSIG=
200909191745 METAR LMML 191745Z 09006KT 040V120 9999 FEW020 SCT120 BKN250
                        23/18 Q1014 NOSIG=
200909191730 METAR LMML NIL=
200909191715 METAR LMML 191715Z 09008KT 060V120 9999 FEW020 SCT120 BKN250
                        23/18 Q1014 NOSIG=
200909191700 METAR LMML NIL=
200909191645 METAR LMML 191645Z 05009KT 020V080 9999 FEW021 BKN120 23/20
                        Q1015 NOSIG=
200909191630 METAR LMML NIL=
200909191615 METAR LMML 191615Z 03007KT 9999 -RA FEW021 SCT090 BKN100
                        23/20 Q1015 NOSIG=
200909191600 METAR LMML NIL=
200909191545 METAR LMML 191545Z 03005KT 360V060 9999 -RA FEW021 SCT090
                        BKN110 24/19 Q1016 NOSIG=
200909191530 METAR LMML NIL=
200909191515 METAR LMML 191515Z 04007KT 020V080 9999 FEW018 SCT090 BKN120
                        24/19 Q1016 NOSIG=
200909191500 METAR LMML NIL=
200909191445 METAR LMML 191445Z 07006KT 030V100 9999 -RA FEW018 SCT090
                        OVC110 24/19 Q1016 NOSIG=
200909191430 METAR LMML NIL=
200909191415 METAR LMML 191415Z 07004KT 020V230 9999 FEW018 OVC110 24/19
                        Q1016 NOSIG=
200909191400 METAR LMML NIL=
200909191345 METAR LMML 191345Z 10005KT 060V140 9999 -RA FEW018 SCT080
                        OVC110 24/19 Q1015 TEMPO SHRA=
200909191315 METAR LMML 191315Z 09008KT 040V130 9999 FEW018 SCT080 OVC120
                        25/19 Q1015 TEMPO SHRA=
200909191300 METAR LMML NIL=
200909191245 METAR LMML 191245Z 09007KT 050V130 9999 FEW018 OVC130 25/19
                        Q1016 TEMPO SHRA=
200909191230 METAR LMML NIL=
200909191215 METAR LMML 191215Z 10008KT 040V130 9999 FEW017 BKN120 24/19
                        Q1016 NOSIG=
200909191200 METAR LMML NIL=
200909191145 METAR LMML 191145Z 12009KT 080V160 9999 FEW017 BKN120 25/20
                        Q1016 NOSIG=
200909191130 METAR LMML NIL=
200909191115 METAR LMML 191115Z 10007KT 060V140 9999 FEW017 BKN130 25/20
                        Q1016 NOSIG=
200909191100 METAR LMML NIL=
200909191045 METAR LMML 191045Z 10008KT 9999 FEW017 BKN120 25/19 Q1016
                        NOSIG=
200909191030 METAR LMML NIL=
200909191015 METAR LMML 191015Z 10008KT 020V140 9999 FEW016 BKN120 26/19
                        Q1016 NOSIG=
200909191000 METAR LMML NIL=
200909190945 METAR LMML 190945Z 10008KT 060V120 9999 FEW016 BKN130 25/20
                        Q1016 NOSIG=
200909190930 METAR LMML NIL=
200909190915 METAR LMML 190915Z 10009KT 070V140 9999 FEW016 BKN130 25/20
                        Q1017 NOSIG=
200909190900 METAR LMML NIL=
200909190845 METAR LMML 190845Z 11009KT 090V150 9999 FEW016 BKN130 25/20
                        Q1017 NOSIG=
200909190830 METAR LMML NIL=
200909190815 METAR LMML 190815Z 11009KT 070V130 9999 FEW017 BKN130 BKN250
                        25/20 Q1017 NOSIG=
200909190800 METAR LMML NIL=
200909190745 METAR LMML 190745Z 10008KT 070V140 9999 FEW015 BKN130 BKN250
                        24/20 Q1016 NOSIG=
200909190730 METAR LMML NIL=
200909190715 METAR LMML 190715Z 11007KT 080V150 9999 SCT014 BKN130 BKN250
                        24/20 Q1016 NOSIG=
200909190700 METAR LMML NIL=
200909190645 METAR LMML 190645Z 11007KT 070V130 9999 FEW015 BKN130 BKN250
                        24/20 Q1016 NOSIG=
200909190630 METAR LMML NIL=
200909190615 METAR LMML 190615Z 08004KT 050V110 9999 FEW025 BKN250 24/20
                        Q1016 NOSIG=
200909190600 METAR LMML NIL=
200909190545 METAR LMML 190545Z VRB03KT 9999 FEW025 BKN250 23/20 Q1016
                        NOSIG=
200909190515 METAR LMML 190515Z VRB03KT CAVOK 22/19 Q1016 NOSIG=
200909190445 METAR LMML 190445Z VRB02KT 9999 FEW020 SCT250 21/19 Q1016
                        NOSIG=
200909190430 METAR LMML NIL=
200909190415 METAR LMML 190415Z VRB02KT 9999 FEW022 SCT120 21/19 Q1016
                        NOSIG=
200909190400 METAR LMML NIL=
200909190345 METAR LMML 190345Z 14004KT 9999 FEW022 22/19 Q1016 NOSIG=
200909190315 METAR LMML 190315Z 14004KT 9999 FEW022 21/19 Q1016 NOSIG=
200909190300 METAR LMML NIL=
200909190245 METAR LMML 190245Z VRB03KT 9999 FEW022 21/19 Q1016 NOSIG=
200909190230 METAR LMML NIL=
200909190215 METAR LMML 190215Z VRB03KT 9999 FEW018 21/20 Q1016 NOSIG=
200909190200 METAR LMML NIL=
200909190145 METAR LMML 190145Z VRB03KT 9999 FEW018 22/20 Q1016 NOSIG=
200909190130 METAR LMML NIL=
200909190115 METAR LMML 190115Z VRB03KT 9999 FEW018 22/20 Q1016 NOSIG=
200909190100 METAR LMML NIL=
200909190045 METAR LMML 190045Z 09004KT 9999 FEW018 23/20 Q1016 NOSIG=
200909190030 METAR LMML NIL=
200909190015 METAR LMML 190015Z 08004KT 9999 FEW018 23/20 Q1016 NOSIG=
200909190000 METAR LMML NIL=
200909182345 METAR LMML 182345Z 09004KT 9999 FEW018 23/20 Q1016 NOSIG=
200909182330 METAR LMML NIL=
200909182315 METAR LMML 182315Z 11004KT 9999 FEW018 22/20 Q1016 NOSIG=
200909182300 METAR LMML NIL=
200909182245 METAR LMML 182245Z VRB03KT 9999 FEW018 22/20 Q1017 NOSIG=
200909182230 METAR LMML NIL=
200909182215 METAR LMML 182215Z VRB03KT 9999 FEW020 23/20 Q1016 NOSIG=
200909182200 METAR LMML NIL=
200909182145 METAR LMML 182145Z VRB03KT 9999 FEW020 23/20 Q1016 NOSIG=
200909182130 METAR LMML NIL=
200909182115 METAR LMML 182115Z VRB03KT 9999 FEW020 23/20 Q1017 NOSIG=
200909182100 METAR LMML NIL=
200909182045 METAR LMML 182045Z VRB03KT 9999 FEW020 24/20 Q1017 NOSIG=
200909182030 METAR LMML NIL=
200909182015 METAR LMML 182015Z VRB03KT 9999 FEW022 24/20 Q1017 NOSIG=
200909182000 METAR LMML NIL=
200909181945 METAR LMML 181945Z 04004KT 360V080 9999 FEW022 24/20 Q1017
                        NOSIG=
200909181930 METAR LMML NIL=
200909181915 METAR LMML 181915Z 01005KT 9999 FEW022 24/20 Q1017 NOSIG=
200909181900 METAR LMML NIL=
200909181845 METAR LMML 181845Z 36004KT 9999 FEW022 24/20 Q1017 NOSIG=
200909181830 METAR LMML NIL=
200909181815 METAR LMML 181815Z 36005KT 340V040 9999 FEW022 24/20 Q1016
                        NOSIG=
200909181800 METAR LMML NIL=
200909181745 METAR LMML 181745Z 36004KT 320V060 9999 FEW022 24/20 Q1016
                        NOSIG=
200909181730 METAR LMML NIL=
200909181715 METAR LMML 181715Z VRB02KT 9999 FEW023 25/20 Q1016 NOSIG=
200909181700 METAR LMML NIL=
200909181645 METAR LMML 181645Z VRB03KT 9999 SCT025 25/20 Q1016 NOSIG=
200909181630 METAR LMML NIL=
200909181615 METAR LMML 181615Z 20004KT 150V240 9999 FEW029 26/19 Q1016
                        NOSIG=
200909181600 METAR LMML NIL=
200909181545 METAR LMML 181545Z 20004KT 140V280 9999 FEW021 26/19 Q1016
                        NOSIG=
200909181530 METAR LMML NIL=
200909181515 METAR LMML 181515Z 18005KT 130V220 9999 FEW021 26/19 Q1016
                        NOSIG=
200909181500 METAR LMML NIL=
200909181445 METAR LMML 181445Z 18006KT 150V260 9999 FEW021 27/19 Q1016
                        NOSIG=
200909181430 METAR LMML NIL=
200909181415 METAR LMML 181415Z 19006KT 140V250 9999 FEW033 27/19 Q1016
                        NOSIG=
200909181345 METAR LMML 181345Z 19006KT 150V240 9999 FEW025 27/19 Q1016
                        NOSIG=
200909181330 METAR LMML NIL=
200909181315 METAR LMML 181315Z 17006KT 110V250 9999 FEW020 27/18 Q1017
                        NOSIG=
200909181300 METAR LMML NIL=
200909181245 METAR LMML 181245Z 16006KT 130V220 9999 FEW020 27/19 Q1017
                        NOSIG=
200909181230 METAR LMML NIL=
200909181215 METAR LMML 181215Z 18006KT 150V230 9999 FEW021 27/20 Q1017
                        NOSIG=
200909181200 METAR LMML NIL=
200909181145 METAR LMML 181145Z 13008KT 090V170 9999 FEW025 27/19 Q1017
                        NOSIG=
200909181130 METAR LMML NIL=
200909181115 METAR LMML 181115Z 12007KT 070V160 9999 FEW022 28/19 Q1017
                        NOSIG=
200909181100 METAR LMML NIL=
200909181045 METAR LMML 181045Z 11007KT 060V150 9999 FEW027 28/19 Q1017
                        NOSIG=
200909181030 METAR LMML NIL=
200909181015 METAR LMML 181015Z 13007KT 090V170 9999 FEW024 27/19 Q1017
                        NOSIG=
200909181000 METAR LMML NIL=
200909180945 METAR LMML 180945Z 13008KT 090V170 9999 FEW027 27/20 Q1017
                        NOSIG=
200909180930 METAR LMML NIL=
200909180915 METAR LMML 180915Z 08006KT 350V140 9999 FEW025 27/19 Q1017
                        NOSIG=
200909180900 METAR LMML NIL=
200909180845 METAR LMML 180845Z 07004KT 360V130 9999 FEW021 27/19 Q1017
                        NOSIG=
200909180830 METAR LMML NIL=
200909180815 METAR LMML 180815Z 06004KT 030V100 9999 FEW021 26/19 Q1017
                        NOSIG=
200909180800 METAR LMML NIL=
200909180745 METAR LMML 180745Z 04005KT 340V090 9999 FEW021 27/20 Q1017
                        NOSIG=
200909180715 METAR LMML 180715Z 05005KT 010V100 9999 FEW015 26/20 Q1017
                        NOSIG=
200909180700 METAR LMML NIL=
200909180630 METAR LMML NIL=
200909180600 METAR LMML NIL=
200909180545 METAR LMML 180545Z VRB03KT 9999 FEW020 22/20 Q1016 NOSIG=
200909180530 METAR LMML NIL=
200909180515 METAR LMML 180515Z VRB01KT 9999 FEW020 20/20 Q1016 NOSIG=
200909180500 METAR LMML NIL=
200909180445 METAR LMML 180445Z VRB01KT CAVOK 20/19 Q1016 NOSIG=
200909180430 METAR LMML NIL=
200909180415 METAR LMML 180415Z VRB01KT CAVOK 21/19 Q1016 NOSIG=
200909180400 METAR LMML NIL=
200909180345 METAR LMML 180345Z VRB03KT CAVOK 21/19 Q1015 NOSIG=
200909180315 METAR LMML 180315Z 35004KT CAVOK 22/19 Q1016 NOSIG=
200909180300 METAR LMML NIL=
200909180245 METAR LMML 180245Z 35004KT CAVOK 22/19 Q1016 NOSIG=
200909180215 METAR LMML 180215Z 34007KT CAVOK 22/19 Q1015 NOSIG=
200909180200 METAR LMML NIL=
200909180145 METAR LMML 180145Z 34007KT CAVOK 22/19 Q1015 NOSIG=
200909180130 METAR LMML NIL=
200909180115 METAR LMML 180115Z 34008KT CAVOK 22/19 Q1015 NOSIG=
200909180100 METAR LMML NIL=
200909180045 METAR LMML 180045Z 33008KT CAVOK 22/19 Q1015 NOSIG=
200909180030 METAR LMML NIL=
200909180015 METAR LMML 180015Z 32006KT CAVOK 22/19 Q1015 NOSIG=
200909180000 METAR LMML NIL=
200909172345 METAR LMML 172345Z 32009KT CAVOK 22/18 Q1016 NOSIG=
200909172330 METAR LMML NIL=
200909172315 METAR LMML 172315Z 31011KT CAVOK 22/17 Q1016 NOSIG=
200909172245 METAR LMML 172245Z 31009KT CAVOK 22/17 Q1016 NOSIG=
200909172230 METAR LMML NIL=
200909172215 METAR LMML 172215Z 31008KT CAVOK 22/16 Q1016 NOSIG=
200909172145 METAR LMML 172145Z 32008KT CAVOK 22/16 Q1016 NOSIG=
200909172130 METAR LMML NIL=
200909172115 METAR LMML 172115Z 33006KT CAVOK 22/17 Q1016 NOSIG=
200909172100 METAR LMML NIL=
200909172045 METAR LMML 172045Z 32010KT CAVOK 23/17 Q1016 NOSIG=
200909172030 METAR LMML NIL=
200909172015 METAR LMML 172015Z 30011KT CAVOK 23/17 Q1016 NOSIG=
200909172000 METAR LMML NIL=
200909171945 METAR LMML 171945Z 31011KT CAVOK 23/17 Q1015 NOSIG=
200909171930 METAR LMML NIL=
200909171915 METAR LMML 171915Z 30011KT CAVOK 23/18 Q1015 NOSIG=
200909171900 METAR LMML NIL=
200909171845 METAR LMML 171845Z 30010KT CAVOK 23/18 Q1015 NOSIG=
200909171815 METAR LMML 171815Z 31012KT CAVOK 24/18 Q1015 NOSIG=
200909171800 METAR LMML NIL=
200909171745 METAR LMML 171745Z 31014KT CAVOK 24/18 Q1014 NOSIG=
200909171730 METAR LMML NIL=
200909171715 METAR LMML 171715Z 30014KT 9999 FEW025 24/18 Q1014 NOSIG=
200909171700 METAR LMML NIL=
200909171645 METAR LMML 171645Z 30014KT 9999 FEW025 25/17 Q1014 NOSIG=
200909171630 METAR LMML NIL=
200909171615 METAR LMML 171615Z 31016KT 9999 FEW025 26/17 Q1014 NOSIG=
200909171600 METAR LMML NIL=
200909171545 METAR LMML 171545Z 30013KT 270V330 9999 FEW025 27/16 Q1014
                        NOSIG=
200909171530 METAR LMML NIL=
200909171515 METAR LMML 171515Z 30011KT 260V330 9999 FEW025 27/16 Q1014
                        NOSIG=
200909171500 METAR LMML NIL=
200909171445 METAR LMML 171445Z 29010KT 260V330 9999 FEW025 28/17 Q1014
                        NOSIG=
200909171430 METAR LMML NIL=
200909171400 METAR LMML NIL=
200909171345 METAR LMML 171345Z 34010KT 300V360 9999 FEW025 29/17 Q1013
                        NOSIG=
200909171330 METAR LMML NIL=
200909171315 METAR LMML 171315Z 34012KT 9999 FEW025 28/18 Q1013 NOSIG=
200909171300 METAR LMML NIL=
200909171245 METAR LMML 171245Z 34012KT 9999 FEW025 29/18 Q1013 NOSIG=
200909171230 METAR LMML NIL=
200909171215 METAR LMML 171215Z 33011KT 300V010 9999 FEW025 29/20 Q1013
                        NOSIG=
200909171200 METAR LMML NIL=
200909171145 METAR LMML 171145Z 34011KT 9999 FEW025 30/19 Q1013 NOSIG=
200909171130 METAR LMML NIL=
200909171115 METAR LMML 171115Z 33010KT 290V350 9999 FEW025 29/18 Q1013
                        NOSIG=
200909171100 METAR LMML NIL=
200909171045 METAR LMML 171045Z 33012KT 300V010 9999 FEW024 29/20 Q1013
                        NOSIG=
200909171030 METAR LMML NIL=
200909171015 METAR LMML 171015Z 33013KT 9999 FEW020 28/21 Q1013 NOSIG=
200909171000 METAR LMML NIL=
200909170945 METAR LMML 170945Z 32014KT 300V360 9999 FEW020 27/19 Q1013
                        NOSIG=
200909170930 METAR LMML NIL=
200909170915 METAR LMML 170915Z 35013KT 9999 FEW020 27/19 Q1013 NOSIG=
200909170900 METAR LMML NIL=
200909170845 METAR LMML 170845Z 35014KT 9999 FEW015 27/19 Q1012 NOSIG=
200909170830 METAR LMML NIL=
200909170815 METAR LMML 170815Z 34012KT 9999 BKN013 26/22 Q1012 NOSIG=
200909170800 METAR LMML NIL=
200909170745 METAR LMML 170745Z 36012KT 9999 SCT012 26/22 Q1012 BECMG
                        9999=
200909170730 METAR LMML NIL=
200909170715 METAR LMML 170715Z 34010KT 9000 SCT012 26/23 Q1012 BECMG
                        9999=
200909170700 METAR LMML NIL=
200909170645 METAR LMML 170645Z 34009KT 310V010 9000 SCT011 25/25 Q1011
                        BECMG 9999=
200909170630 METAR LMML NIL=
200909170615 METAR LMML 170615Z 32005KT 290V350 5000 BR SCT007 24/24 Q1011
                        BECMG 9000=
200909170600 METAR LMML NIL=
200909170545 METAR LMML 170545Z 33004KT 3000 BR FEW005 24/24 Q1011 BECMG
                        6000=
200909170530 METAR LMML NIL=
200909170515 METAR LMML 170515Z VRB02KT 0800 R13/0540V1051U FG SCT001
                        23/23 Q1010 BECMG 1000 BR=
200909170500 METAR LMML NIL=
200909170445 METAR LMML 170445Z VRB03KT 0200 R13/0650N FG SCT001 23/23
                        Q1010 TEMPO 0800 BCFG=
200909170432 SPECI LMML 170432Z VRB03KT 2000 BR FEW003 23/23 Q1010 BECMG
                        5000=
200909170430 METAR LMML NIL=
200909170415 METAR LMML 170415Z VRB03KT 5000 BR FEW004 23/23 Q1010 NOSIG=
200909170400 METAR LMML NIL=
200909170345 METAR LMML 170345Z 29004KT 7000 FEW004 23/23 Q1010 NOSIG=
200909170330 METAR LMML NIL=
200909170315 METAR LMML 170315Z VRB02KT 6000 FEW004 23/23 Q1010 NOSIG=
200909170300 METAR LMML NIL=
200909170245 METAR LMML 170245Z VRB02KT 6000 FEW004 23/23 Q1010 NOSIG=
200909170230 METAR LMML NIL=
200909170215 METAR LMML 170215Z VRB01KT 5000 BR SCT004 24/24 Q1009 TEMPO
                        BKN003=
200909170200 METAR LMML NIL=
200909170145 METAR LMML 170145Z VRB03KT 5000 BR BKN004 24/24 Q1010 TEMPO
                        BKN003=
200909170130 METAR LMML NIL=
200909170115 METAR LMML 170115Z VRB02KT 5000 BR SCT005 24/24 Q1010 TEMPO
                        BKN003=
200909170100 METAR LMML NIL=
200909170045 METAR LMML 170045Z VRB02KT 5000 BKN004 24/24 Q1010 NOSIG=
200909170032 SPECI LMML 170032Z VRB02KT 5000 BKN004 24/24 Q1010 TEMPO
                        BKN003=
200909170030 METAR LMML NIL=
200909170015 METAR LMML 170015Z 13004KT 070V150 5000 SCT003 24/24 Q1009
                        TEMPO BKN003=
200909170000 METAR LMML NIL=
200909162345 METAR LMML 162345Z 13006KT 5000 BKN003 25/25 Q1010 NOSIG=
200909162330 METAR LMML NIL=
200909162300 METAR LMML NIL=
200909162245 METAR LMML 162245Z VRB03KT 9000 FEW006 SCT250 25/24 Q1010
                        TEMPO 8000 BKN005=
200909162230 METAR LMML NIL=
200909162215 METAR LMML 162215Z 14005KT 9000 FEW006 SCT250 25/24 Q1010
                        TEMPO 8000 BKN005=
200909162200 METAR LMML NIL=
200909162145 METAR LMML 162145Z VRB03KT 9000 FEW006 25/24 Q1011 TEMPO
                        8000 BKN005=
200909162130 METAR LMML NIL=
200909162115 METAR LMML 162115Z 13004KT 100V170 9999 FEW006 25/24 Q1011
                        TEMPO 8000 BKN005=
200909162100 METAR LMML NIL=
200909162045 METAR LMML 162045Z 15009KT 9999 FEW005 25/24 Q1010 TEMPO
                        8000 BKN005=
200909162030 METAR LMML NIL=
200909162015 METAR LMML 162015Z 14009KT 9999 FEW005 25/24 Q1010 TEMPO
                        8000 BKN005=
200909162000 METAR LMML NIL=
200909161945 METAR LMML 161945Z 13011KT SCT006 25/24 Q1010 NOSIG=
200909161930 METAR LMML NIL=
200909161915 METAR LMML 161915Z 12010KT 100V160 CAVOK 25/24 Q1010 NOSIG=
200909161900 METAR LMML NIL=
200909161845 METAR LMML 161845Z 12007KT CAVOK 25/23 Q1010 NOSIG=
200909161830 METAR LMML NIL=
200909161815 METAR LMML 161815Z 12008KT CAVOK 25/23 Q1010 NOSIG=
200909161745 METAR LMML 161745Z 12007KT CAVOK 26/23 Q1010 NOSIG=
200909161715 METAR LMML 161715Z 12006KT CAVOK 26/23 Q1010 NOSIG=
200909161700 METAR LMML NIL=
200909161645 METAR LMML 161645Z 15008KT 130V190 CAVOK 27/22 Q1010 NOSIG=
200909161630 METAR LMML NIL=
200909161615 METAR LMML 161615Z 16009KT 110V180 CAVOK 27/23 Q1009 NOSIG=
200909161600 METAR LMML NIL=
200909161545 METAR LMML 161545Z 14010KT 120V180 CAVOK 27/22 Q1009 NOSIG=
200909161530 METAR LMML NIL=
200909161515 METAR LMML 161515Z 16012KT 130V200 CAVOK 27/23 Q1009 NOSIG=
200909161500 METAR LMML NIL=
200909161445 METAR LMML 161445Z 17008KT 130V210 9999 DU NSC 28/22 Q1009
                        NOSIG=
200909161415 METAR LMML 161415Z 18011KT 160V220 9999 DU NSC 28/23 Q1009
                        TEMPO 9000 SHRA SCT015TCU=
200909161400 METAR LMML NIL=
200909161345 METAR LMML 161345Z 17011KT 140V210 9999 DU NSC 28/22 Q1009
                        TEMPO 9000 SHRA SCT015TCU=
200909161330 METAR LMML NIL=
200909161315 METAR LMML 161315Z 18011KT 140V210 9999 DU NSC 27/23 Q1010
                        TEMPO 9000 SHRA SCT015TCU=
200909161300 METAR LMML NIL=
200909161245 METAR LMML 161245Z 18011KT 140V210 9999 DU NSC 28/23 Q1010
                        TEMPO 9000 SHRA SCT015TCU=
200909161230 METAR LMML NIL=
200909161215 METAR LMML 161215Z 17012KT 130V210 9999 DU NSC 29/23 Q1010
                        TEMPO 9000 SHRA SCT015TCU=
200909161145 METAR LMML 161145Z 18010KT 140V220 CAVOK 29/22 Q1010 NOSIG=
200909161130 METAR LMML NIL=
200909161115 METAR LMML 161115Z 18007KT 160V230 CAVOK 28/21 Q1010 NOSIG=
200909161100 METAR LMML NIL=
200909161045 METAR LMML 161045Z 18008KT 140V250 CAVOK 29/22 Q1011 NOSIG=
200909161030 METAR LMML NIL=
200909161015 METAR LMML 161015Z 18010KT 140V220 CAVOK 28/22 Q1011 NOSIG=
200909161000 METAR LMML NIL=
200909160945 METAR LMML 160945Z 18011KT 160V220 CAVOK 28/23 Q1011 NOSIG=
200909160930 METAR LMML NIL=
200909160915 METAR LMML 160915Z 17011KT 140V210 CAVOK 28/23 Q1011 NOSIG=
200909160900 METAR LMML NIL=
200909160845 METAR LMML 160845Z 17012KT 150V210 9999 FEW015 SCT120 BKN250
                        27/23 Q1011 NOSIG=
200909160830 METAR LMML NIL=
200909160815 METAR LMML 160815Z 17013KT 140V210 9999 FEW015 SCT120 BKN250
                        27/23 Q1011 NOSIG=
200909160800 METAR LMML NIL=
200909160745 METAR LMML 160745Z 16014KT 140V200 9999 FEW015 SCT120 BKN250
                        27/23 Q1011 NOSIG=
200909160715 METAR LMML 160715Z 16014KT 9999 FEW011 SCT120 BKN250 26/23
                        Q1011 NOSIG=
200909160700 METAR LMML NIL=
200909160645 METAR LMML 160645Z 16015KT 130V200 9999 FEW011 SCT120 26/23
                        Q1011 NOSIG=
200909160615 METAR LMML 160615Z 16016KT 9999 FEW011 SCT120 26/23 Q1011
                        NOSIG=
200909160600 METAR LMML NIL=
200909160545 METAR LMML 160545Z 16014KT 130V190 9999 FEW013 SCT120 BKN250
                        25/23 Q1011 NOSIG=
200909160515 METAR LMML 160515Z 16013KT 140V220 8000 FEW013 BKN250 25/23
                        Q1011 NOSIG=
200909160500 METAR LMML NIL=
200909160445 METAR LMML 160445Z 16013KT 130V200 8000 BKN015 25/23 Q1011
                        TEMPO BKN013=
200909160430 METAR LMML NIL=
200909160345 METAR LMML 160345Z 16015KT 130V200 9999 BKN016 25/22 Q1011
                        TEMPO BKN010=
200909160330 METAR LMML NIL=
200909160315 METAR LMML 160315Z 16014KT 9999 SCT013 25/22 Q1011 TEMPO
                        BKN010=
200909160300 METAR LMML NIL=
200909160245 METAR LMML 160245Z 15015KT 120V180 9999 FEW014 25/22 Q1011
                        TEMPO BKN010=
200909160230 METAR LMML NIL=
200909160215 METAR LMML 160215Z 15015KT 9999 FEW014 25/21 Q1011 TEMPO
                        BKN010=
200909160200 METAR LMML NIL=
200909160145 METAR LMML 160145Z 15014KT 9999 SCT014 25/22 Q1012 TEMPO
                        BKN010=
200909160130 METAR LMML NIL=
200909160115 METAR LMML 160115Z 15014KT 9999 FEW012 25/22 Q1012 TEMPO
                        BKN010=
200909160100 METAR LMML NIL=
200909160045 METAR LMML 160045Z 15013KT 9999 FEW012 25/22 Q1012 TEMPO
                        BKN010=
200909160030 METAR LMML NIL=
200909160015 METAR LMML 160015Z 14014KT 9999 SCT012 25/22 Q1013 TEMPO
                        BKN014=
200909160000 METAR LMML NIL=
200909152345 METAR LMML 152345Z 14013KT 9999 SCT012 25/22 Q1013 TEMPO
                        BKN014=
200909152315 METAR LMML 152315Z 14014KT 9999 SCT013 25/22 Q1013 TEMPO
                        BKN014=
200909152245 METAR LMML 152245Z 15014KT 120V180 9999 SCT012 25/22 Q1014
                        TEMPO BKN014=
200909152215 METAR LMML 152215Z 14015KT 9999 SCT012 25/22 Q1014 TEMPO
                        BKN014=
200909152200 METAR LMML NIL=
200909152145 METAR LMML 152145Z 13017KT 9999 SCT013 25/21 Q1014 TEMPO
                        BKN014=
200909152130 METAR LMML NIL=
200909152115 METAR LMML 152115Z 14015KT 110V170 9999 SCT014 25/22 Q1014
                        TEMPO BKN014=
200909152045 METAR LMML 152045Z 14016KT 9999 BKN014 25/22 Q1014 NOSIG=
200909152030 METAR LMML NIL=
200909152015 METAR LMML 152015Z 14015KT 9999 BKN015 25/22 Q1014 NOSIG=
200909151945 METAR LMML 151945Z 13014KT 9999 BKN015 25/22 Q1015 NOSIG=
200909151915 METAR LMML 151915Z 13015KT 9999 BKN015 25/22 Q1015 NOSIG=
200909151900 METAR LMML NIL=
200909151845 METAR LMML 151845Z 13012KT 9999 BKN014 25/22 Q1015 NOSIG=
200909151815 METAR LMML 151815Z 13010KT 9999 SCT015 25/21 Q1015 NOSIG=
200909151800 METAR LMML NIL=
200909151745 METAR LMML 151745Z 14012KT 9999 SCT016 25/21 Q1015 NOSIG=
200909151730 METAR LMML NIL=
200909151715 METAR LMML 151715Z 13011KT 9999 SCT016 SCT250 25/21 Q1015
                        NOSIG=
200909151700 METAR LMML NIL=
200909151645 METAR LMML 151645Z 14011KT 9999 SCT016 SCT250 26/21 Q1015
                        NOSIG=
200909151630 METAR LMML NIL=
200909151615 METAR LMML 151615Z 13012KT 9999 SCT017 SCT250 26/22 Q1015
                        NOSIG=
200909151600 METAR LMML NIL=
200909151545 METAR LMML 151545Z 14011KT 110V180 9999 SCT018 27/21 Q1015
                        NOSIG=
200909151530 METAR LMML NIL=
200909151515 METAR LMML 151515Z 13013KT 100V160 9999 SCT019 27/22 Q1015
                        NOSIG=
200909151500 METAR LMML NIL=
200909151445 METAR LMML 151445Z 15010KT 120V190 9999 BKN019 27/21 Q1015
                        NOSIG=
200909151430 METAR LMML NIL=
200909151415 METAR LMML 151415Z 15011KT 100V190 9999 SCT019 28/21 Q1015
                        NOSIG=
200909151400 METAR LMML NIL=
200909151345 METAR LMML 151345Z 15010KT 110V200 9999 BKN019 28/21 Q1015
                        NOSIG=
200909151330 METAR LMML NIL=
200909151315 METAR LMML 151315Z 16010KT 110V200 9999 BKN017 28/22 Q1015
                        NOSIG=
200909151300 METAR LMML NIL=
200909151245 METAR LMML 151245Z 16011KT 120V200 9999 BKN018 27/21 Q1016
                        NOSIG=
200909151230 METAR LMML NIL=
200909151215 METAR LMML 151215Z 16011KT 110V200 9999 SCT019 28/21 Q1016
                        NOSIG=
200909151200 METAR LMML NIL=
200909151145 METAR LMML 151145Z 15011KT 120V190 9999 SCT019 28/21 Q1016
                        NOSIG=
200909151130 METAR LMML NIL=
200909151115 METAR LMML 151115Z 16011KT 120V220 9999 FEW019 SCT250 28/21
                        Q1016 NOSIG=
200909151100 METAR LMML NIL=
200909151045 METAR LMML 151045Z 16010KT 120V200 9999 FEW023 SCT250 27/20
                        Q1017 NOSIG=
200909151030 METAR LMML NIL=
200909151015 METAR LMML 151015Z 16010KT 120V210 9999 FEW023 BKN250 27/20
                        Q1017 NOSIG=
200909151000 METAR LMML NIL=
200909150945 METAR LMML 150945Z 16011KT 130V210 9999 FEW024 BKN250 27/20
                        Q1017 NOSIG=
200909150930 METAR LMML NIL=
200909150915 METAR LMML 150915Z 16010KT 130V190 9999 FEW025 SCT250 27/19
                        Q1017 NOSIG=
200909150900 METAR LMML NIL=
200909150845 METAR LMML 150845Z 16009KT 120V200 9999 FEW025 BKN250 27/19
                        Q1017 NOSIG=
200909150830 METAR LMML NIL=
200909150815 METAR LMML 150815Z 16008KT 110V210 9999 FEW025 BKN250 26/19
                        Q1017 NOSIG=
200909150800 METAR LMML NIL=
200909150745 METAR LMML 150745Z 16008KT 130V200 9999 SCT026 BKN250 26/19
                        Q1016 NOSIG=
200909150730 METAR LMML NIL=
200909150715 METAR LMML 150715Z 16008KT 130V200 9999 FEW027 BKN250 26/19
                        Q1016 NOSIG=
200909150700 METAR LMML NIL=
200909150645 METAR LMML 150645Z 17005KT 140V230 9999 FEW026 BKN250 25/19
                        Q1016 NOSIG=
200909150630 METAR LMML NIL=
200909150615 METAR LMML 150615Z 17005KT 140V200 9999 FEW025 SCT250 25/19
                        Q1016 NOSIG=
200909150600 METAR LMML NIL=
200909150545 METAR LMML 150545Z 17006KT 9999 FEW023 SCT250 24/18 Q1016
                        NOSIG=
200909150530 METAR LMML NIL=
200909150515 METAR LMML 150515Z 17005KT 140V200 9999 FEW023 23/19 Q1015
                        NOSIG=
200909150445 METAR LMML 150445Z 17004KT 9999 FEW023 22/19 Q1015 NOSIG=
200909150430 METAR LMML NIL=
200909150415 METAR LMML 150415Z VRB03KT 9999 FEW022 21/18 Q1015 NOSIG=
200909150400 METAR LMML NIL=
200909150345 METAR LMML 150345Z 17004KT 9999 FEW022 22/19 Q1015 NOSIG=
200909150330 METAR LMML NIL=
200909150315 METAR LMML 150315Z VRB02KT 9999 FEW025 21/18 Q1015 NOSIG=
200909150300 METAR LMML NIL=
200909150245 METAR LMML 150245Z VRB02KT CAVOK 21/18 Q1015 NOSIG=
200909150230 METAR LMML NIL=
200909150215 METAR LMML 150215Z VRB02KT CAVOK 21/18 Q1015 NOSIG=
200909150200 METAR LMML NIL=
200909150145 METAR LMML 150145Z VRB02KT CAVOK 22/18 Q1015 NOSIG=
200909150130 METAR LMML NIL=
200909150115 METAR LMML 150115Z VRB01KT CAVOK 22/18 Q1015 NOSIG=
200909150100 METAR LMML NIL=
200909150045 METAR LMML 150045Z VRB01KT CAVOK 22/18 Q1015 NOSIG=
200909150030 METAR LMML NIL=
200909150015 METAR LMML 150015Z VRB01KT CAVOK 21/18 Q1015 NOSIG=
200909150000 METAR LMML NIL=
200909142345 METAR LMML 142345Z VRB02KT CAVOK 22/18 Q1015 NOSIG=
200909142330 METAR LMML NIL=
200909142315 METAR LMML 142315Z VRB01KT CAVOK 22/18 Q1016 NOSIG=
200909142300 METAR LMML NIL=
200909142245 METAR LMML 142245Z VRB01KT 9999 FEW020 23/18 Q1016 NOSIG=
200909142230 METAR LMML NIL=
200909142215 METAR LMML 142215Z VRB03KT 9999 FEW025 23/18 Q1016 NOSIG=
200909142200 METAR LMML NIL=
200909142145 METAR LMML 142145Z VRB03KT CAVOK 23/18 Q1016 NOSIG=
200909142130 METAR LMML NIL=
200909142115 METAR LMML 142115Z VRB03KT CAVOK 23/18 Q1016 NOSIG=
200909142100 METAR LMML NIL=
200909142045 METAR LMML 142045Z VRB03KT CAVOK 23/18 Q1016 NOSIG=
200909142030 METAR LMML NIL=
200909142015 METAR LMML 142015Z VRB03KT CAVOK 23/17 Q1016 NOSIG=
200909142000 METAR LMML NIL=
200909141945 METAR LMML 141945Z VRB02KT CAVOK 23/17 Q1015 NOSIG=
200909141930 METAR LMML NIL=
200909141915 METAR LMML 141915Z VRB03KT CAVOK 23/18 Q1015 NOSIG=
200909141900 METAR LMML NIL=
200909141845 METAR LMML 141845Z 23004KT 200V280 9999 FEW025 23/18 Q1015
                        NOSIG=
200909141830 METAR LMML NIL=
200909141815 METAR LMML 141815Z VRB03KT 9999 FEW025 23/17 Q1014 NOSIG=
200909141800 METAR LMML NIL=
200909141745 METAR LMML 141745Z 25004KT 220V280 9999 FEW025 23/17 Q1014
                        NOSIG=
200909141730 METAR LMML NIL=
200909141715 METAR LMML 141715Z 27006KT 230V290 9999 FEW030 24/18 Q1014
                        NOSIG=
200909141700 METAR LMML NIL=
200909141645 METAR LMML 141645Z 28007KT 240V320 9999 FEW030 SCT250 24/18
                        Q1014 NOSIG=
200909141630 METAR LMML NIL=
200909141615 METAR LMML 141615Z 26007KT 220V300 9999 FEW030 25/17 Q1014
                        NOSIG=
200909141600 METAR LMML NIL=
200909141545 METAR LMML 141545Z 27010KT 230V310 9999 FEW029 25/17 Q1014
                        NOSIG=
200909141530 METAR LMML NIL=
200909141515 METAR LMML 141515Z 27008KT 220V310 9999 FEW031 26/17 Q1014
                        NOSIG=
200909141500 METAR LMML NIL=
200909141445 METAR LMML 141445Z 25010KT 210V280 9999 FEW031 26/17 Q1014
                        NOSIG=
200909141430 METAR LMML NIL=
200909141415 METAR LMML 141415Z 26009KT 230V340 9999 FEW031 27/17 Q1014
                        NOSIG=
200909141400 METAR LMML NIL=
200909141345 METAR LMML 141345Z 26009KT 200V300 9999 FEW032 26/17 Q1014
                        NOSIG=
200909141330 METAR LMML NIL=
200909141315 METAR LMML 141315Z 26009KT 210V300 9999 FEW034TCU 26/17 Q1014
                        NOSIG=
200909141300 METAR LMML NIL=
200909141245 METAR LMML 141245Z 26009KT 220V300 9999 FEW032TCU SCT250
                        27/17 Q1014 TEMPO 8000 SHRA SCT025TCU=
200909141230 METAR LMML NIL=
200909141215 METAR LMML 141215Z 29011KT 250V320 9999 FEW031TCU SCT120
                        26/17 Q1014 TEMPO 8000 SHRA SCT025TCU=
200909141200 METAR LMML NIL=
200909141145 METAR LMML 141145Z 28010KT 220V310 9999 FEW030 SCT250 26/17
                        Q1014 NOSIG=
200909141130 METAR LMML NIL=
200909141115 METAR LMML 141115Z 28009KT 240V320 9999 SCT031 SCT120 BKN250
                        26/17 Q1014 NOSIG=
200909141100 METAR LMML NIL=
200909141045 METAR LMML 141045Z 28009KT 200V330 9999 FEW032 BKN250 26/16
                        Q1014 NOSIG=
200909141030 METAR LMML NIL=
200909141015 METAR LMML 141015Z 30010KT 260V340 9999 FEW030 BKN250 26/16
                        Q1014 NOSIG=
200909141000 METAR LMML NIL=
200909140945 METAR LMML 140945Z 28011KT 250V310 9999 FEW030 BKN250 26/14
                        Q1014 NOSIG=
200909140930 METAR LMML NIL=
200909140915 METAR LMML 140915Z 30009KT 270V330 9999 FEW032 BKN250 26/16
                        Q1014 NOSIG=
200909140900 METAR LMML NIL=
200909140845 METAR LMML 140845Z 30008KT 260V340 9999 FEW029 BKN250 25/16
                        Q1014 NOSIG=
200909140830 METAR LMML NIL=
200909140815 METAR LMML 140815Z 31008KT 260V340 9999 SCT029 BKN250 26/17
                        Q1014 NOSIG=
200909140800 METAR LMML NIL=
200909140745 METAR LMML 140745Z 32009KT 9999 FEW025 BKN250 25/17 Q1014
                        NOSIG=
200909140730 METAR LMML NIL=
200909140715 METAR LMML 140715Z 32008KT 290V350 9999 FEW025 BKN250 24/18
                        Q1014 NOSIG=
200909140700 METAR LMML NIL=
200909140645 METAR LMML 140645Z 34004KT 310V030 9999 FEW025 BKN250 23/18
                        Q1013 NOSIG=
200909140630 METAR LMML NIL=
200909140615 METAR LMML 140615Z 31004KT 9999 FEW025 BKN250 22/18 Q1013
                        NOSIG=
200909140600 METAR LMML NIL=
200909140545 METAR LMML 140545Z 28004KT 240V310 9999 FEW025 BKN250 21/18
                        Q1013 NOSIG=
200909140530 METAR LMML NIL=
200909140515 METAR LMML 140515Z VRB03KT 9999 FEW025 SCT250 19/17 Q1013
                        NOSIG=
200909140500 METAR LMML NIL=
200909140445 METAR LMML 140445Z 29004KT 260V320 9999 FEW025 SCT250 20/17
                        Q1013 NOSIG=
200909140430 METAR LMML NIL=
200909140415 METAR LMML 140415Z 30005KT CAVOK 20/17 Q1013 NOSIG=
200909140400 METAR LMML NIL=
200909140330 METAR LMML NIL=
200909140315 METAR LMML 140315Z 29004KT 250V330 CAVOK 20/17 Q1013 NOSIG=
200909140300 METAR LMML NIL=
200909140245 METAR LMML 140245Z 29004KT 250V340 CAVOK 20/17 Q1013 NOSIG=
200909140230 METAR LMML NIL=
200909140215 METAR LMML 140215Z 28004KT CAVOK 20/18 Q1013 NOSIG=
200909140200 METAR LMML NIL=
200909140145 METAR LMML 140145Z 26004KT CAVOK 20/17 Q1013 NOSIG=
200909140130 METAR LMML NIL=
200909140115 METAR LMML 140115Z 30006KT CAVOK 21/18 Q1013 NOSIG=
200909140100 METAR LMML NIL=
200909140045 METAR LMML 140045Z 29004KT 250V330 CAVOK 20/18 Q1013 NOSIG=
200909140030 METAR LMML NIL=
200909140015 METAR LMML 140015Z VRB02KT CAVOK 19/18 Q1013 NOSIG=
200909140000 METAR LMML NIL=
200909132345 METAR LMML 132345Z VRB01KT CAVOK 20/18 Q1013 NOSIG=
200909132330 METAR LMML NIL=
200909132315 METAR LMML 132315Z VRB03KT CAVOK 20/18 Q1013 NOSIG=
200909132300 METAR LMML NIL=
200909132245 METAR LMML 132245Z VRB03KT CAVOK 21/18 Q1013 NOSIG=
200909132215 METAR LMML 132215Z 28004KT 9999 FEW020 21/18 Q1013 NOSIG=
200909132200 METAR LMML NIL=
200909132145 METAR LMML 132145Z VRB03KT 9999 FEW020 21/18 Q1014 NOSIG=
200909132130 METAR LMML NIL=
200909132115 METAR LMML 132115Z VRB03KT 9999 FEW020 21/17 Q1014 NOSIG=
200909132100 METAR LMML NIL=
200909132045 METAR LMML 132045Z VRB03KT 9999 FEW020 21/17 Q1014 NOSIG=
200909132030 METAR LMML NIL=
200909132015 METAR LMML 132015Z VRB03KT CAVOK 21/17 Q1013 NOSIG=
200909132000 METAR LMML NIL=
200909131945 METAR LMML 131945Z 30004KT CAVOK 21/17 Q1013 NOSIG=
200909131930 METAR LMML NIL=
200909131915 METAR LMML 131915Z VRB02KT 9999 FEW030 21/16 Q1013 NOSIG=
200909131900 METAR LMML NIL=
200909131845 METAR LMML 131845Z 32005KT 9999 FEW030 21/16 Q1013 NOSIG=
200909131830 METAR LMML NIL=
200909131815 METAR LMML 131815Z 31004KT 9999 FEW030 22/16 Q1012 NOSIG=
200909131800 METAR LMML NIL=
200909131745 METAR LMML 131745Z VRB03KT 9999 FEW030 22/16 Q1012 NOSIG=
200909131730 METAR LMML NIL=
200909131715 METAR LMML 131715Z 34004KT 9999 FEW030 23/16 Q1012 NOSIG=
200909131700 METAR LMML NIL=
200909131645 METAR LMML 131645Z 33007KT 9999 FEW030 23/16 Q1012 NOSIG=
200909131630 METAR LMML NIL=
200909131615 METAR LMML 131615Z 36008KT 320V020 9999 FEW030 24/14 Q1012
                        NOSIG=
200909131600 METAR LMML NIL=
200909131545 METAR LMML 131545Z 35007KT 330V030 9999 FEW030 26/15 Q1012
                        NOSIG=
200909131530 METAR LMML NIL=
200909131515 METAR LMML 131515Z 35005KT 9999 FEW030 SCT080 26/15 Q1012
                        NOSIG=
200909131500 METAR LMML NIL=
200909131445 METAR LMML 131445Z 36004KT 290V130 9999 FEW030 SCT080 26/14
                        Q1012 NOSIG=
200909131430 METAR LMML NIL=
200909131415 METAR LMML 131415Z 34005KT 290V020 9999 FEW030 SCT080 26/14
                        Q1012 NOSIG=
200909131400 METAR LMML NIL=
200909131345 METAR LMML 131345Z 33005KT 290V030 9999 FEW030 SCT120 26/14
                        Q1012 NOSIG=
200909131330 METAR LMML NIL=
200909131315 METAR LMML 131315Z 34005KT 250V080 CAVOK 26/16 Q1012 NOSIG=
200909131300 METAR LMML NIL=
200909131245 METAR LMML 131245Z 31005KT 260V010 9999 FEW030 SCT100 24/16
                        Q1013 NOSIG=
200909131230 METAR LMML NIL=
200909131215 METAR LMML 131215Z 33004KT 300V010 CAVOK 24/17 Q1013 NOSIG=
200909131200 METAR LMML NIL=
200909131145 METAR LMML 131145Z VRB03KT CAVOK 23/16 Q1013 NOSIG=
200909131130 METAR LMML NIL=
200909131115 METAR LMML 131115Z 33004KT 270V360 CAVOK 23/16 Q1013 NOSIG=
200909131100 METAR LMML NIL=
200909131045 METAR LMML 131045Z 33004KT 290V360 9999 -RA NSC 23/17 Q1013
                        NOSIG=
200909131030 METAR LMML NIL=
200909131015 METAR LMML 131015Z 33004KT 310V010 CAVOK 21/18 Q1014 NOSIG=
200909131000 METAR LMML NIL=
200909130945 METAR LMML 130945Z 33004KT 300V360 9999 FEW027 BKN110 21/19
                        Q1014 TEMPO 8000 RA=
200909130930 METAR LMML NIL=
200909130915 METAR LMML 130915Z 32006KT 9999 -RA FEW007 BKN130 20/18 Q1014
                        TEMPO 8000 RA=
200909130900 METAR LMML NIL=
200909130845 METAR LMML 130845Z 31006KT 8000 -RA FEW009 OVC080 20/18 Q1014
                        NOSIG=
200909130830 METAR LMML NIL=
200909130815 METAR LMML 130815Z 31008KT 8000 -RA FEW020 OVC090 20/19 Q1014
                        NOSIG=
200909130800 METAR LMML NIL=
200909130745 METAR LMML 130745Z 30006KT 9999 -RA FEW024 OVC090 21/18 Q1014
                        TEMPO 8000 RA=
200909130730 METAR LMML NIL=
200909130715 METAR LMML 130715Z VRB03KT 7000 -RA FEW024 BKN070 21/18 Q1014
                        NOSIG=
200909130700 METAR LMML NIL=
200909130645 METAR LMML 130645Z VRB02KT 7000 -RA FEW025 BKN070 21/19 Q1014
                        NOSIG=
200909130630 METAR LMML NIL=
200909130615 METAR LMML 130615Z VRB03KT 9000 -RA SCT027 BKN070 21/19 Q1013
                        TEMPO SHRA=
200909130545 METAR LMML 130545Z VRB02KT 9000 -RA FEW033 BKN100 21/18 Q1013
                        TEMPO 8000 SHRA=
200909130530 METAR LMML NIL=
200909130515 METAR LMML 130515Z VRB02KT 9999 -RA FEW028 BKN100 22/17 Q1013
                        TEMPO 8000 SHRA=
200909130500 METAR LMML NIL=
200909130445 METAR LMML 130445Z VRB03KT 9999 FEW025 BKN100 23/17 Q1013
                        TEMPO 8000 SHRA=
200909130430 METAR LMML NIL=
200909130415 METAR LMML 130415Z VRB02KT CAVOK 22/16 Q1013 TEMPO 8000 SHRA=
200909130400 METAR LMML NIL=
200909130345 METAR LMML 130345Z VRB02KT CAVOK 22/16 Q1012 TEMPO 8000 SHRA=
200909130330 METAR LMML NIL=
200909130315 METAR LMML 130315Z VRB01KT CAVOK 22/16 Q1012 TEMPO 8000 SHRA=
200909130300 METAR LMML NIL=
200909130245 METAR LMML 130245Z VRB02KT CAVOK 22/16 Q1013 TEMPO 8000 SHRA=
200909130230 METAR LMML NIL=
200909130215 METAR LMML 130215Z VRB02KT CAVOK 22/15 Q1012 TEMPO 8000 SHRA=
200909130200 METAR LMML NIL=
200909130145 METAR LMML 130145Z VRB03KT CAVOK 22/16 Q1013 TEMPO 8000 SHRA=
200909130130 METAR LMML NIL=
200909130115 METAR LMML 130115Z VRB03KT CAVOK 22/16 Q1012 NOSIG=
200909130100 METAR LMML NIL=
200909130045 METAR LMML 130045Z VRB02KT CAVOK 22/16 Q1012 NOSIG=
200909130030 METAR LMML NIL=
200909130015 METAR LMML 130015Z VRB03KT CAVOK 23/16 Q1013 NOSIG=
200909130000 METAR LMML NIL=
200909122345 METAR LMML 122345Z VRB03KT CAVOK 23/17 Q1013 TEMPO 8000 SHRA=
200909122330 METAR LMML NIL=
200909122315 METAR LMML 122315Z VRB02KT CAVOK 22/17 Q1013 TEMPO 8000 SHRA=
200909122300 METAR LMML NIL=
200909122245 METAR LMML 122245Z VRB03KT CAVOK 23/17 Q1013 NOSIG=
200909122230 METAR LMML NIL=
200909122215 METAR LMML 122215Z VRB02KT CAVOK 23/17 Q1013 NOSIG=
200909122200 METAR LMML NIL=
200909122145 METAR LMML 122145Z VRB02KT 9999 FEW025 SCT120 BKN250 23/17
                        Q1013 NOSIG=
200909122130 METAR LMML NIL=
200909122115 METAR LMML 122115Z 31004KT 280V340 9999 FEW025 SCT120 BKN250
                        23/17 Q1013 NOSIG=
200909122100 METAR LMML NIL=
200909122045 METAR LMML 122045Z 29004KT 9999 FEW025 SCT120 BKN250 23/17
                        Q1013 NOSIG=
200909122030 METAR LMML NIL=
200909122015 METAR LMML 122015Z 28005KT 9999 FEW025 SCT120 BKN250 23/17
                        Q1013 NOSIG=
200909122000 METAR LMML NIL=
200909121945 METAR LMML 121945Z 28005KT 9999 FEW025 SCT120 BKN250 23/17
                        Q1014 NOSIG=
200909121930 METAR LMML NIL=
200909121915 METAR LMML 121915Z 28005KT 250V310 9999 FEW027 BKN250 23/17
                        Q1013 NOSIG=
200909121900 METAR LMML NIL=
200909121845 METAR LMML 121845Z 29006KT 9999 FEW027 BKN250 23/16 Q1013
                        NOSIG=
200909121830 METAR LMML NIL=
200909121815 METAR LMML 121815Z 29006KT 9999 FEW027 BKN250 23/17 Q1013
                        NOSIG=
200909121800 METAR LMML NIL=
200909121745 METAR LMML 121745Z 29005KT 240V320 9999 FEW027 BKN250 24/17
                        Q1013 NOSIG=
200909121730 METAR LMML NIL=
200909121715 METAR LMML 121715Z 29009KT 9999 FEW027 BKN250 24/17 Q1013
                        NOSIG=
200909121700 METAR LMML NIL=
200909121645 METAR LMML 121645Z 29009KT 250V320 9999 FEW030 BKN250 24/16
                        Q1012 NOSIG=
200909121630 METAR LMML NIL=
200909121615 METAR LMML 121615Z 29009KT 250V330 9999 FEW030 BKN250 24/16
                        Q1012 NOSIG=
200909121545 METAR LMML 121545Z 28011KT 230V310 9999 FEW035 BKN250 25/16
                        Q1012 NOSIG=
200909121530 METAR LMML NIL=
200909121515 METAR LMML 121515Z 27012KT 230V300 9999 FEW035 BKN250 25/15
                        Q1012 NOSIG=
200909121500 METAR LMML NIL=
200909121445 METAR LMML 121445Z 30011KT 260V340 9999 FEW035 BKN250 27/15
                        Q1012 NOSIG=
200909121430 METAR LMML NIL=
200909121415 METAR LMML 121415Z 29011KT 250V320 9999 FEW035 BKN250 26/15
                        Q1012 NOSIG=
200909121400 METAR LMML NIL=
200909121345 METAR LMML 121345Z 28011KT 240V310 9999 FEW035 BKN250 26/13
                        Q1012 NOSIG=
200909121330 METAR LMML NIL=
200909121315 METAR LMML 121315Z 28011KT 210V320 9999 FEW036 SCT250 27/14
                        Q1012 NOSIG=
200909121300 METAR LMML NIL=
200909121245 METAR LMML 121245Z 29010KT 250V320 9999 SCT034 26/16 Q1012
                        NOSIG=
200909121215 METAR LMML 121215Z 29012KT 250V320 9999 SCT036 25/16 Q1012
                        NOSIG=
200909121200 METAR LMML NIL=
200909121130 METAR LMML NIL=
200909121115 METAR LMML 121115Z 29011KT 250V330 9999 FEW039 26/14 Q1013
                        NOSIG=
200909121100 METAR LMML NIL=
200909121045 METAR LMML 121045Z 28010KT 240V320 9999 FEW040 26/14 Q1013
                        NOSIG=
200909121030 METAR LMML NIL=
200909121015 METAR LMML 121015Z 29010KT 250V330 9999 FEW036 26/15 Q1012
                        NOSIG=
200909120945 METAR LMML 120945Z 29011KT 270V330 9999 FEW039 26/15 Q1013
                        NOSIG=
200909120930 METAR LMML NIL=
200909120915 METAR LMML 120915Z 29010KT 230V330 9999 FEW037 25/14 Q1013
                        NOSIG=
200909120900 METAR LMML NIL=
200909120845 METAR LMML 120845Z 28009KT 260V320 9999 SCT034 25/15 Q1013
                        NOSIG=
200909120815 METAR LMML 120815Z 28009KT 250V320 9999 SCT034 26/15 Q1013
                        NOSIG=
200909120800 METAR LMML NIL=
200909120745 METAR LMML 120745Z 28009KT 240V310 9999 SCT029 25/16 Q1013
                        NOSIG=
200909120730 METAR LMML NIL=
200909120715 METAR LMML 120715Z 29008KT 250V330 9999 FEW032 25/17 Q1013
                        NOSIG=
200909120700 METAR LMML NIL=
200909120645 METAR LMML 120645Z 29008KT 260V330 9999 FEW020 24/17 Q1013
                        NOSIG=
200909120630 METAR LMML NIL=
200909120615 METAR LMML 120615Z VRB03KT 9999 FEW020 23/17 Q1012 NOSIG=
200909120600 METAR LMML NIL=
200909120545 METAR LMML 120545Z VRB03KT 9999 FEW020 22/17 Q1012 NOSIG=
200909120530 METAR LMML NIL=
200909120515 METAR LMML 120515Z VRB03KT 9999 FEW020 21/17 Q1012 NOSIG=
200909120500 METAR LMML NIL=
200909120445 METAR LMML 120445Z 31004KT 9999 FEW020 20/17 Q1012 NOSIG=
200909120430 METAR LMML NIL=
200909120415 METAR LMML 120415Z 31005KT 9999 FEW020 21/17 Q1012 NOSIG=
200909120345 METAR LMML 120345Z 30005KT CAVOK 21/17 Q1012 NOSIG=
200909120315 METAR LMML 120315Z VRB03KT CAVOK 21/17 Q1012 NOSIG=
200909120300 METAR LMML NIL=
200909120245 METAR LMML 120245Z 30004KT 270V330 CAVOK 22/16 Q1012 NOSIG=
200909120215 METAR LMML 120215Z 29005KT 250V310 CAVOK 22/16 Q1012 NOSIG=
200909120200 METAR LMML NIL=
200909120145 METAR LMML 120145Z 29006KT CAVOK 22/17 Q1012 NOSIG=
200909120130 METAR LMML NIL=
200909120115 METAR LMML 120115Z 29008KT CAVOK 23/16 Q1012 NOSIG=
200909120100 METAR LMML NIL=
200909120045 METAR LMML 120045Z 30008KT CAVOK 23/17 Q1012 NOSIG=
200909120030 METAR LMML NIL=
200909120015 METAR LMML 120015Z 29004KT 250V330 CAVOK 22/17 Q1012 NOSIG=
200909120000 METAR LMML NIL=
200909112345 METAR LMML 112345Z 29006KT CAVOK 23/17 Q1012 NOSIG=
200909112330 METAR LMML NIL=
200909112315 METAR LMML 112315Z 29006KT 260V320 CAVOK 23/17 Q1013 NOSIG=
200909112300 METAR LMML NIL=
200909112245 METAR LMML 112245Z 30007KT CAVOK 23/18 Q1013 NOSIG=
200909112230 METAR LMML NIL=
200909112215 METAR LMML 112215Z 30007KT CAVOK 23/17 Q1013 NOSIG=
200909112200 METAR LMML NIL=
200909112145 METAR LMML 112145Z 30005KT CAVOK 23/17 Q1013 NOSIG=
200909112130 METAR LMML NIL=
200909112115 METAR LMML 112115Z 29005KT 260V320 CAVOK 23/17 Q1013 NOSIG=
200909112045 METAR LMML 112045Z 31006KT 9999 FEW030 23/17 Q1013 NOSIG=
200909112030 METAR LMML NIL=
200909112015 METAR LMML 112015Z 30005KT 9999 FEW030 23/17 Q1014 NOSIG=
200909112000 METAR LMML NIL=
200909111945 METAR LMML 111945Z 30005KT 280V340 9999 FEW030 23/16 Q1014
                        NOSIG=
200909111930 METAR LMML NIL=
200909111915 METAR LMML 111915Z 31005KT 9999 FEW030 23/15 Q1014 NOSIG=
200909111900 METAR LMML NIL=
200909111845 METAR LMML 111845Z 31005KT 9999 FEW030 23/15 Q1013 NOSIG=
200909111830 METAR LMML NIL=
200909111815 METAR LMML 111815Z 31006KT 9999 FEW030 24/14 Q1013 NOSIG=
200909111800 METAR LMML NIL=
200909111745 METAR LMML 111745Z 30006KT 270V330 9999 FEW030 24/14 Q1013
                        NOSIG=
200909111730 METAR LMML NIL=
200909111715 METAR LMML 111715Z 29008KT 9999 FEW030 24/14 Q1013 NOSIG=
200909111700 METAR LMML NIL=
200909111645 METAR LMML 111645Z 30008KT 260V330 9999 FEW030 25/14 Q1013
                        NOSIG=
200909111630 METAR LMML NIL=
200909111615 METAR LMML 111615Z 31008KT 9999 FEW030 26/11 Q1013 NOSIG=
200909111600 METAR LMML NIL=
200909111545 METAR LMML 111545Z 31008KT 280V360 9999 FEW030 26/12 Q1013
                        NOSIG=
200909111530 METAR LMML NIL=
200909111515 METAR LMML 111515Z 31010KT 9999 FEW030 27/11 Q1013 NOSIG=
200909111500 METAR LMML NIL=
200909111445 METAR LMML 111445Z 31009KT 260V350 9999 FEW030 27/12 Q1012
                        NOSIG=
200909111430 METAR LMML NIL=
200909111415 METAR LMML 111415Z 30008KT 230V360 9999 FEW030 27/12 Q1012
                        NOSIG=
200909111400 METAR LMML NIL=
200909111345 METAR LMML 111345Z 33006KT 270V050 9999 FEW030 27/13 Q1013
                        NOSIG=
200909111330 METAR LMML NIL=
200909111315 METAR LMML 111315Z 34004KT 250V080 9999 FEW030 28/10 Q1012
                        NOSIG=
200909111300 METAR LMML NIL=
200909111245 METAR LMML 111245Z 23005KT 9999 FEW040 28/11 Q1013 NOSIG=
200909111230 METAR LMML NIL=
200909111215 METAR LMML 111215Z 28004G15KT 190V110 9999 FEW040 27/11 Q1013
                        NOSIG=
200909111200 METAR LMML NIL=
200909111145 METAR LMML 111145Z VRB03KT 9999 FEW040 26/12 Q1013 NOSIG=
200909111130 METAR LMML NIL=
200909111115 METAR LMML 111115Z 35006KT 270V070 9999 FEW040 27/13 Q1013
                        NOSIG=
200909111100 METAR LMML NIL=
200909111045 METAR LMML 111045Z 36007KT 300V050 9999 FEW040 27/13 Q1013
                        NOSIG=
200909111030 METAR LMML NIL=
200909111015 METAR LMML 111015Z 02008KT 330V060 9999 FEW040 27/13 Q1013
                        NOSIG=
200909111000 METAR LMML NIL=
200909110945 METAR LMML 110945Z 01009KT 340V040 9999 FEW038 26/11 Q1013
                        NOSIG=
200909110930 METAR LMML NIL=
200909110915 METAR LMML 110915Z 33010KT 9999 FEW038 26/13 Q1013 NOSIG=
200909110900 METAR LMML NIL=
200909110845 METAR LMML 110845Z 35009KT 320V040 9999 FEW028 26/13 Q1013
                        NOSIG=
200909110830 METAR LMML NIL=
200909110815 METAR LMML 110815Z 34010KT 300V360 9999 FEW028 25/14 Q1013
                        NOSIG=
200909110800 METAR LMML NIL=
200909110745 METAR LMML 110745Z 34012KT 320V020 9999 FEW028 25/14 Q1013
                        NOSIG=
200909110730 METAR LMML NIL=
200909110715 METAR LMML 110715Z 34012KT 9999 FEW028 24/14 Q1013 NOSIG=
200909110700 METAR LMML NIL=
200909110645 METAR LMML 110645Z 34012KT 9999 FEW028 23/14 Q1013 NOSIG=
200909110630 METAR LMML NIL=
200909110615 METAR LMML 110615Z 34011KT 9999 FEW028 23/15 Q1013 NOSIG=
200909110600 METAR LMML NIL=
200909110545 METAR LMML 110545Z 33008KT 9999 FEW028 22/14 Q1012 NOSIG=
200909110515 METAR LMML 110515Z 33006KT 9999 FEW028 20/15 Q1012 NOSIG=
200909110500 METAR LMML NIL=
200909110445 METAR LMML 110445Z 32005KT 9999 FEW028 19/15 Q1012 NOSIG=
200909110430 METAR LMML NIL=
200909110415 METAR LMML 110415Z 32005KT 9999 FEW028 19/15 Q1012 NOSIG=
200909110400 METAR LMML NIL=
200909110345 METAR LMML 110345Z 32006KT 9999 FEW028 19/15 Q1012 NOSIG=
200909110330 METAR LMML NIL=
200909110315 METAR LMML 110315Z 31005KT 9999 FEW028 20/16 Q1013 NOSIG=
200909110300 METAR LMML NIL=
200909110245 METAR LMML 110245Z 32005KT 9999 FEW025 20/16 Q1013 NOSIG=
200909110230 METAR LMML NIL=
200909110215 METAR LMML 110215Z 34004KT 310V030 9999 FEW025 21/16 Q1013
                        NOSIG=
200909110200 METAR LMML NIL=
200909110145 METAR LMML 110145Z 35005KT 9999 FEW026 21/16 Q1013 NOSIG
                        RMK DISTANT LIGHTNING TO SE=
200909110130 METAR LMML NIL=
200909110115 METAR LMML 110115Z 02004KT 9999 SCT026 21/16 Q1013 NOSIG
                        RMK LIGHTNING TO SW=
200909110100 METAR LMML NIL=
200909110045 METAR LMML 110045Z 04005KT 010V070 9999 SCT023 22/16 Q1014
                        TEMPO 3000 TSRA BKN015CB RMK LIGHTNING
                        TO SW=
200909110030 METAR LMML NIL=
200909110015 METAR LMML 110015Z 04004KT 350V100 9999 FEW028 21/16 Q1014
                        TEMPO 8000 SHRA=
200909110000 METAR LMML NIL=
200909102345 METAR LMML 102345Z VRB03KT 9999 FEW026 21/15 Q1014 RETS NOSIG=
200909102330 METAR LMML NIL=
200909102315 METAR LMML 102315Z 08004KT 030V110 9999 FEW028 22/15 Q1014
                        TEMPO 3000 TSRA BKN015CB=
200909102300 METAR LMML NIL=
200909102245 METAR LMML 102245Z 06008KT 010V100 9999 TS SCT027CB 22/15
                        Q1014 TEMPO 3000 TSRA BKN015CB=
200909102230 METAR LMML NIL=
200909102215 METAR LMML 102215Z VRB02KT 9999 TS SCT030CB 21/16 Q1014 TEMPO
                        3000 TSRA BKN015CB=
200909102200 METAR LMML NIL=
200909102145 METAR LMML 102145Z VRB02KT 9999 FEW030 21/16 Q1014 NOSIG=
200909102130 METAR LMML NIL=
200909102115 METAR LMML 102115Z VRB03KT 9999 FEW030 21/16 Q1014 NOSIG=
200909102100 METAR LMML NIL=
200909102045 METAR LMML 102045Z VRB03KT 9999 FEW032 22/16 Q1014 NOSIG=
200909102030 METAR LMML NIL=
200909102015 METAR LMML 102015Z VRB03KT 9999 FEW032 21/16 Q1014 NOSIG=
200909102000 METAR LMML NIL=
200909101945 METAR LMML 101945Z 30006KT 9999 FEW032 22/16 Q1014 NOSIG=
200909101930 METAR LMML NIL=
200909101915 METAR LMML 101915Z 31005KT 9999 FEW032 22/16 Q1015 NOSIG
                        RMK DISTANT LIGHTNING TO S=
200909101900 METAR LMML NIL=
200909101845 METAR LMML 101845Z 32007KT 9999 FEW032 22/16 Q1015 NOSIG
                        RMK DISTANT LIGHTNING TO S=
200909101830 METAR LMML NIL=
200909101815 METAR LMML 101815Z 33008KT 9999 FEW032 23/16 Q1015 NOSIG=
200909101800 METAR LMML NIL=
200909101745 METAR LMML 101745Z 34007KT 9999 FEW030TCU 23/15 Q1014 NOSIG
                        RMK LIGHTNING TO EAST=
200909101730 METAR LMML NIL=
200909101715 METAR LMML 101715Z 34008KT 300V360 9999 FEW030TCU 23/15 Q1014
                        NOSIG=
200909101700 METAR LMML NIL=
200909101645 METAR LMML 101645Z 34007KT 9999 FEW030 24/14 Q1014 NOSIG=
200909101630 METAR LMML NIL=
200909101615 METAR LMML 101615Z 34009KT 310V010 9999 SCT030 24/12 Q1014
                        NOSIG=
200909101600 METAR LMML NIL=
200909101545 METAR LMML 101545Z 33009KT 300V360 9999 FEW032 SCT090 23/16
                        Q1014 NOSIG=
200909101530 METAR LMML NIL=
200909101515 METAR LMML 101515Z 33013KT 9999 -SHRA SCT026 SCT120 24/16
                        Q1015 TEMPO 7000 TSRA SCT015CB=
200909101500 METAR LMML NIL=
200909101445 METAR LMML 101445Z 01009KT 340V050 9999 FEW032TCU 25/16 Q1014
                        TEMPO 7000 TSRA SCT015CB=
200909101430 METAR LMML NIL=
200909101415 METAR LMML 101415Z 03010KT 360V080 9999 FEW032 26/16 Q1014
                        TEMPO 7000 TSRA SCT015CB RMK CB TOP
                        TO N=
200909101400 METAR LMML NIL=
200909101345 METAR LMML 101345Z 03010KT 360V070 9999 FEW032 27/16 Q1014
                        NOSIG=
200909101330 METAR LMML NIL=
200909101315 METAR LMML 101315Z 04009KT 010V070 9999 FEW027 27/16 Q1014
                        NOSIG=
200909101300 METAR LMML NIL=
200909101245 METAR LMML 101245Z 03012KT 360V080 9999 FEW027 27/17 Q1014
                        NOSIG=
200909101230 METAR LMML NIL=
200909101215 METAR LMML 101215Z 03009KT 360V060 9999 FEW033 28/17 Q1015
                        NOSIG=
200909101200 METAR LMML NIL=
200909101145 METAR LMML 101145Z 05011KT 360V090 9999 FEW036 SCT120 27/17
                        Q1015 NOSIG=
200909101130 METAR LMML NIL=
200909101115 METAR LMML 101115Z 03009KT 350V080 9999 FEW030 SCT120 28/15
                        Q1015 NOSIG=
200909101100 METAR LMML NIL=
200909101030 METAR LMML NIL=
200909101000 METAR LMML NIL=
200909100930 METAR LMML NIL=
200909100915 METAR LMML 100915Z 04015KT 010V070 9999 SCT035 BKN120 26/15
                        Q1015 NOSIG=
200909100900 METAR LMML NIL=
200909100845 METAR LMML 100845Z 02012G22KT 360V060 9999 FEW035 SCT120
                        27/15 Q1015 NOSIG=
200909100830 METAR LMML NIL=
200909100815 METAR LMML 100815Z 04011KT 360V070 9999 FEW036 BKN120 25/15
                        Q1015 NOSIG=
200909100800 METAR LMML NIL=
200909100745 METAR LMML 100745Z 03011KT 360V060 9999 FEW036 BKN120 24/15
                        Q1015 NOSIG=
200909100730 METAR LMML NIL=
200909100715 METAR LMML 100715Z 04010KT 010V070 9999 FEW038 BKN120 25/15
                        Q1015 NOSIG=
200909100700 METAR LMML NIL=
200909100645 METAR LMML 100645Z 04012KT 010V070 9999 FEW036 BKN120 24/15
                        Q1015 TEMPO 8000 SHRA BKN020TCU=
200909100630 METAR LMML NIL=
200909100615 METAR LMML 100615Z 04010KT 360V080 9999 FEW029 BKN120 24/16
                        Q1015 TEMPO 8000 SHRA BKN020TCU=
200909100600 METAR LMML NIL=
200909100545 METAR LMML 100545Z 04011KT 010V070 9999 FEW026 BKN110 24/17
                        Q1015 TEMPO 8000 SHRA BKN020TCU=
200909100530 METAR LMML NIL=
200909100515 METAR LMML 100515Z 04011KT 020V080 9999 FEW025 BKN110 23/17
                        Q1014 TEMPO 8000 SHRA BKN020TCU=
200909100500 METAR LMML NIL=
200909100445 METAR LMML 100445Z 06011KT 020V100 9999 FEW025 BKN120 23/17
                        Q1014 TEMPO 8000 SHRA BKN020TCU=
200909100430 METAR LMML NIL=
200909100415 METAR LMML 100415Z 06011KT 030V100 9999 FEW025 BKN110 23/17
                        Q1014 TEMPO 8000 SHRA BKN020TCU=
200909100400 METAR LMML NIL=
200909100345 METAR LMML 100345Z 07012KT 030V100 9999 FEW025 BKN110 23/17
                        Q1014 TEMPO 8000 SHRA BKN020TCU=
200909100330 METAR LMML NIL=
200909100315 METAR LMML 100315Z 07010KT 030V100 9999 FEW025 BKN110 23/17
                        Q1015 TEMPO 8000 SHRA BKN020TCU=
200909100300 METAR LMML NIL=
200909100245 METAR LMML 100245Z 05013KT 010V090 9999 FEW025 BKN120 24/18
                        Q1014 TEMPO 8000 SHRA BKN020TCU=
200909100230 METAR LMML NIL=
200909100215 METAR LMML 100215Z 04010KT 360V080 9999 FEW030 BKN110 24/17
                        Q1014 TEMPO 8000 SHRA BKN020TCU=
200909100200 METAR LMML NIL=
200909100145 METAR LMML 100145Z 04009KT 350V080 9999 FEW028 BKN090 24/17
                        Q1015 TEMPO 8000 SHRA BKN020TCU=
200909100130 METAR LMML NIL=
200909100115 METAR LMML 100115Z 02008KT 9999 FEW031 BKN090 24/17 Q1015
                        TEMPO 8000 SHRA BKN020TCU=
200909100100 METAR LMML NIL=
200909100045 METAR LMML 100045Z 04009KT 010V080 9999 FEW028 BKN100 23/15
                        Q1015 TEMPO 8000 SHRA BKN020TCU=
200909100015 METAR LMML 100015Z 05008KT 020V090 9999 SCT028 BKN100 24/17
                        Q1015 TEMPO 8000 SHRA BKN020TCU=
200909100000 METAR LMML NIL=
200909092345 METAR LMML 092345Z 04006KT 010V080 9999 FEW030 SCT070 BKN110
                        24/17 Q1015 TEMPO 8000 SHRA BKN020TCU=
200909092330 METAR LMML NIL=
200909092315 METAR LMML 092315Z 04004KT 010V070 9999 FEW035 SCT080 BKN110
                        23/18 Q1016 TEMPO 8000 SHRA BKN020TCU=
200909092300 METAR LMML NIL=
200909092245 METAR LMML 092245Z 06004KT 030V100 9999 FEW035 SCT070 BKN110
                        23/17 Q1016 TEMPO 8000 SHRA BKN020TCU=
200909092230 METAR LMML NIL=
200909092215 METAR LMML 092215Z 05007KT 010V090 9999 FEW038 SCT070 BKN110
                        23/18 Q1016 TEMPO 8000 SHRA BKN020TCU=
200909092200 METAR LMML NIL=
200909092145 METAR LMML 092145Z 06005KT 020V090 9999 FEW039 SCT070 BKN110
                        23/16 Q1016 TEMPO 8000 SHRA BKN020TCU=
200909092130 METAR LMML NIL=
200909092115 METAR LMML 092115Z VRB01KT 9999 SCT025 BKN070 22/17 Q1016
                        TEMPO 8000 SHRA BKN020TCU=
200909092100 METAR LMML NIL=
200909092045 METAR LMML 092045Z 14005KT 9999 SCT022 BKN090 BKN250 21/17
                        Q1016 TEMPO 8000 SHRA BKN020TCU=
200909092030 METAR LMML NIL=
200909092015 METAR LMML 092015Z 05007KT 020V090 9999 -SHRA SCT025 SCT090
                        BKN250 24/18 Q1016 TEMPO 8000 SHRA
                        BKN020TCU=
200909092000 METAR LMML NIL=
200909091945 METAR LMML 091945Z 06007KT 030V090 9999 SCT022 BKN080 BKN250
                        24/18 Q1016 TEMPO 8000 SHRA=
200909091930 METAR LMML NIL=
200909091915 METAR LMML 091915Z 07006KT 040V100 9999 SCT027 BKN080 BKN250
                        24/18 Q1016 TEMPO 8000 SHRA=
200909091900 METAR LMML NIL=
200909091845 METAR LMML 091845Z 10005KT 060V120 9999 SCT026 BKN080 BKN250
                        23/17 Q1016 TEMPO 8000 SHRA=
200909091830 METAR LMML NIL=
200909091815 METAR LMML 091815Z 08006KT 040V110 9999 SCT027 BKN070 BKN250
                        23/18 Q1015 TEMPO 8000 SHRA=
200909091800 METAR LMML NIL=
200909091745 METAR LMML 091745Z 12006KT 090V150 9999 BKN027 BKN038 24/17
                        Q1015 TEMPO 8000 SHRA=
200909091730 METAR LMML NIL=
200909091715 METAR LMML 091715Z 11006KT 080V140 9999 BKN028 BKN250 24/17
                        Q1015 TEMPO 8000 SHRA=
200909091700 METAR LMML NIL=
200909091645 METAR LMML 091645Z 13006KT 100V160 9999 SCT030 SCT100 BKN250
                        24/17 Q1015 TEMPO 8000 SHRA=
200909091630 METAR LMML NIL=
200909091615 METAR LMML 091615Z 13006KT 080V170 9999 SCT037 SCT100 BKN250
                        25/16 Q1015 TEMPO 8000 SHRA=
200909091600 METAR LMML NIL=
200909091545 METAR LMML 091545Z 13007KT 100V180 9999 SCT039 BKN250 25/16
                        Q1015 TEMPO 8000 SHRA=
200909091530 METAR LMML NIL=
200909091515 METAR LMML 091515Z 13009KT 080V160 9999 SCT039TCU SCT250
                        26/15 Q1015 TEMPO 8000 SHRA=
200909091500 METAR LMML NIL=
200909091445 METAR LMML 091445Z 12009KT 090V170 9999 FEW041 SCT250 26/15
                        Q1015 NOSIG=
200909091430 METAR LMML NIL=
200909091415 METAR LMML 091415Z 12009KT 090V170 9999 FEW040 SCT250 26/15
                        Q1015 NOSIG=
200909091400 METAR LMML NIL=
200909091345 METAR LMML 091345Z 13010KT 090V160 9999 SCT038 SCT250 27/15
                        Q1015 NOSIG=
200909091330 METAR LMML NIL=
200909091315 METAR LMML 091315Z 12010KT 100V170 9999 SCT038 SCT110 26/16
                        Q1015 NOSIG=
200909091300 METAR LMML NIL=
200909091245 METAR LMML 091245Z 14009KT 090V190 9999 SCT038 SCT110 26/16
                        Q1015 NOSIG=
200909091230 METAR LMML NIL=
200909091215 METAR COR LMML 091215Z 11010KT 070V170 9999 FEW033 BKN110
                        26/16 Q1016 NOSIG=
200909091200 METAR LMML NIL=
200909091145 METAR LMML 091145Z 11011KT 080V140 9999 FEW033 BKN110 26/16
                        Q1016 NOSIG=
200909091130 METAR LMML NIL=
200909091115 METAR LMML 091115Z 11009KT 080V150 9999 FEW033 BKN110 26/17
                        Q1016 NOSIG=
200909091100 METAR LMML NIL=
200909091045 METAR LMML 091045Z 12009KT 090V150 9999 FEW035 SCT100 BKN140
                        25/16 Q1016 NOSIG=
200909091030 METAR LMML NIL=
200909091015 METAR LMML 091015Z 14009KT 9999 FEW035 SCT100 BKN140 24/16
                        Q1016 NOSIG=
200909090945 METAR LMML 090945Z 13010KT 9999 FEW035 SCT100 BKN140 24/15
                        Q1016 NOSIG=
200909090930 METAR LMML NIL=
200909090915 METAR LMML 090915Z 14008KT 110V180 9999 -RA SCT037 SCT090
                        BKN140 24/15 Q1016 TEMPO 8000 SHRA=
200909090900 METAR LMML NIL=
200909090845 METAR LMML 090845Z 14007KT 9999 -RA SCT032 SCT080 BKN140
                        23/14 Q1016 TEMPO 8000 SHRA=
200909090830 METAR LMML NIL=
200909090815 METAR LMML 090815Z 14009KT 110V170 9999 SCT020 SCT080 BKN140
                        23/14 Q1016 TEMPO 8000 SHRA=
200909090800 METAR LMML NIL=
200909090745 METAR LMML 090745Z 16008KT 130V200 9999 SCT037 SCT080 BKN140
                        23/15 Q1015 TEMPO 8000 SHRA=
200909090730 METAR LMML NIL=
200909090715 METAR LMML 090715Z 16007KT 120V210 9999 SCT040 BKN070 23/16
                        Q1015 NOSIG=
200909090700 METAR LMML NIL=
200909090645 METAR LMML 090645Z 12008KT 9999 SCT042 BKN070 24/16 Q1015
                        NOSIG=
200909090630 METAR LMML NIL=
200909090615 METAR LMML 090615Z 13005KT 9999 -RA SCT042 BKN070 23/17 Q1015
                        TEMPO 8000 SHRA=
200909090600 METAR LMML NIL=
200909090545 METAR LMML 090545Z 12005KT 080V150 9999 -SHRA SCT039 BKN070
                        23/16 Q1015 TEMPO 8000 SHRA=
200909090530 METAR LMML NIL=
200909090515 METAR LMML 090515Z 12008KT 080V150 9999 -SHRA FEW038 OVC069
                        24/15 Q1015 TEMPO 8000 SHRA=
200909090500 METAR LMML NIL=
200909090445 METAR LMML 090445Z 11007KT 9999 FEW037 SCT070 BKN080 24/14
                        Q1014 TEMPO 8000 SHRA=
200909090430 METAR LMML NIL=
200909090415 METAR LMML 090415Z 10008KT 9999 FEW037 SCT070 BKN090 24/15
                        Q1014 TEMPO 8000 SHRA=
200909090400 METAR LMML NIL=
200909090345 METAR LMML 090345Z 10007KT 060V130 9999 FEW037 SCT070 BKN090
                        24/15 Q1014 TEMPO 8000 SHRA=
200909090330 METAR LMML NIL=
200909090315 METAR LMML 090315Z 10008KT 9999 FEW036 SCT070 BKN090 24/15
                        Q1014 TEMPO 8000 SHRA=
200909090300 METAR LMML NIL=
200909090245 METAR LMML 090245Z 09007KT 060V130 9999 FEW036 BKN070 BKN080
                        24/15 Q1014 TEMPO 8000 SHRA=
200909090230 METAR LMML NIL=
200909090215 METAR LMML 090215Z 10007KT 9999 FEW036 BKN070 24/15 Q1015
                        TEMPO 8000 SHRA=
200909090200 METAR LMML NIL=
200909090145 METAR LMML 090145Z 08007KT 9999 FEW038 BKN080 24/15 Q1015
                        TEMPO 8000 SHRA=
200909090130 METAR LMML NIL=
200909090115 METAR LMML 090115Z 09006KT 060V120 9999 FEW037 BKN090 23/15
                        Q1015 TEMPO 8000 SHRA=
200909090100 METAR LMML NIL=
200909090045 METAR LMML 090045Z 09007KT 9999 FEW038 23/14 Q1015 TEMPO
                        8000 SHRA=
200909090030 METAR LMML NIL=
200909090015 METAR LMML 090015Z 09006KT 050V130 9999 FEW039 SCT080 23/15
                        Q1015 NOSIG=
200909082345 METAR LMML 082345Z 09007KT 050V120 9999 FEW039 SCT080 23/15
                        Q1015 NOSIG=
200909082330 METAR LMML NIL=
200909082315 METAR LMML 082315Z 09007KT 060V120 9999 FEW040 23/15 Q1016
                        NOSIG=
200909082300 METAR LMML NIL=
200909082245 METAR LMML 082245Z 09007KT 060V120 9999 FEW039 23/15 Q1015
                        NOSIG=
200909082215 METAR LMML 082215Z 10007KT 070V130 9999 SCT038 23/15 Q1016
                        NOSIG=
200909082200 METAR LMML NIL=
200909082145 METAR LMML 082145Z 10007KT 9999 FEW035 SCT250 23/15 Q1016
                        NOSIG=
200909082130 METAR LMML NIL=
200909082115 METAR LMML 082115Z 09006KT 050V120 9999 FEW030 BKN250 23/14
                        Q1016 NOSIG=
200909082100 METAR LMML NIL=
200909082045 METAR LMML 082045Z 08005KT 040V110 9999 FEW030 BKN250 23/14
                        Q1015 NOSIG=
200909082030 METAR LMML NIL=
200909082015 METAR LMML 082015Z 09006KT 9999 FEW035 SCT250 23/15 Q1015
                        NOSIG=
200909082000 METAR LMML NIL=
200909081945 METAR LMML 081945Z 10006KT 070V140 9999 FEW040 23/15 Q1016
                        NOSIG=
200909081930 METAR LMML NIL=
200909081915 METAR LMML 081915Z 09006KT 9999 FEW040 24/15 Q1016 NOSIG=
200909081900 METAR LMML NIL=
200909081845 METAR LMML 081845Z 10007KT 9999 FEW038 SCT070 24/15 Q1015
                        NOSIG=
200909081830 METAR LMML NIL=
200909081815 METAR LMML 081815Z 10007KT 9999 FEW041 SCT080 24/15 Q1015
                        NOSIG=
200909081745 METAR LMML 081745Z 10006KT 060V130 9999 FEW030 SCT080 24/15
                        Q1015 NOSIG=
200909081715 METAR LMML 081715Z 10006KT 070V140 9999 FEW030 24/14 Q1015
                        NOSIG=
200909081700 METAR LMML NIL=
200909081645 METAR LMML 081645Z 09007KT 060V120 9999 FEW043 25/14 Q1015
                        NOSIG=
200909081615 METAR LMML 081615Z 11007KT 080V140 9999 FEW043 25/14 Q1015
                        NOSIG=
200909081545 METAR LMML 081545Z 08008KT 9999 FEW040 25/15 Q1015 NOSIG=
200909081530 METAR LMML NIL=
200909081515 METAR LMML 081515Z 09008KT 050V140 9999 SCT040 26/15 Q1015
                        NOSIG=
200909081500 METAR LMML NIL=
200909081445 METAR LMML 081445Z 10007KT 060V140 9999 SCT044 26/14 Q1015
                        NOSIG=
200909081430 METAR LMML NIL=
200909081415 METAR LMML 081415Z 09008KT 040V130 9999 SCT044 26/14 Q1015
                        NOSIG=
200909081400 METAR LMML NIL=
200909081345 METAR LMML 081345Z 10008KT 070V140 9999 SCT042 SCT060 26/15
                        Q1015 NOSIG=
200909081330 METAR LMML NIL=
200909081315 METAR LMML 081315Z 10008KT 040V130 9999 SCT041 SCT060 25/15
                        Q1015 NOSIG=
200909081300 METAR LMML NIL=
200909081245 METAR LMML 081245Z 07008KT 020V130 9999 SCT039 26/15 Q1015
                        NOSIG=
200909081230 METAR LMML NIL=
200909081215 METAR LMML 081215Z 10006KT 010V170 9999 SCT042 SCT050 26/15
                        Q1016 NOSIG=
200909081200 METAR LMML NIL=
200909081145 METAR LMML 081145Z 07007KT 030V100 9999 SCT042 SCT060 26/14
                        Q1016 NOSIG=
200909081130 METAR LMML NIL=
200909081115 METAR LMML 081115Z 06007KT 020V090 9999 BKN045 26/14 Q1016
                        NOSIG=
200909081045 METAR LMML 081045Z 03004KT 330V110 9999 BKN043 26/14 Q1016
                        NOSIG=
200909081030 METAR LMML NIL=
200909081015 METAR LMML 081015Z 02006KT 340V050 9999 BKN040 26/15 Q1016
                        NOSIG=
200909081000 METAR LMML NIL=
200909080945 METAR LMML 080945Z 05007KT 360V090 9999 BKN040 28/15 Q1016
                        NOSIG=
200909080930 METAR LMML NIL=
200909080915 METAR LMML 080915Z 06006KT 020V110 9999 SCT034 SCT050 26/15
                        Q1016 NOSIG=
200909080845 METAR LMML 080845Z 05005KT 360V120 9999 SCT033 SCT050 25/16
                        Q1016 NOSIG=
200909080830 METAR LMML NIL=
200909080815 METAR LMML 080815Z 04005KT 010V090 9999 SCT029 SCT036 25/17
                        Q1016 TEMPO 8000 SHRA=
200909080800 METAR LMML NIL=
200909080745 METAR LMML 080745Z 06005KT 010V180 9999 SCT034 24/17 Q1016
                        TEMPO 8000 SHRA=
200909080730 METAR LMML NIL=
200909080715 METAR LMML 080715Z 03005KT 360V070 9999 SCT028 25/17 Q1015
                        TEMPO 8000 SHRA=
200909080700 METAR LMML NIL=
200909080645 METAR LMML 080645Z 36005KT 340V060 9999 VCSHRA SCT028 23/18
                        Q1015 TEMPO 8000 SHRA=
200909080630 METAR LMML NIL=
200909080615 METAR LMML 080615Z VRB01KT 9999 VCSHRA FEW025 23/18 Q1015
                        TEMPO 8000 SHRA=
200909080545 METAR LMML 080545Z VRB01KT 9999 FEW025 22/18 Q1015 TEMPO
                        8000 SHRA=
200909080530 METAR LMML NIL=
200909080515 METAR LMML 080515Z VRB03KT 9999 FEW024 21/18 Q1015 NOSIG=
200909080500 METAR LMML NIL=
200909080445 METAR LMML 080445Z VRB01KT 9999 FEW024 21/18 Q1015 NOSIG=
200909080415 METAR LMML 080415Z VRB03KT 9999 FEW024 22/18 Q1015 NOSIG=
200909080400 METAR LMML NIL=
200909080345 METAR LMML 080345Z VRB02KT 9999 -SHRA FEW024 SCT080 22/19
                        Q1014 NOSIG=
200909080330 METAR LMML NIL=
200909080315 METAR LMML 080315Z VRB01KT 9999 -SHRA SCT025 23/19 Q1015
                        NOSIG=
200909080300 METAR LMML NIL=
200909080245 METAR LMML 080245Z 14004KT 100V170 9999 FEW022 SCT045 23/18
                        Q1015 NOSIG=
200909080230 METAR LMML NIL=
200909080215 METAR LMML 080215Z 14005KT 9999 FEW022 23/18 Q1015 NOSIG=
200909080200 METAR LMML NIL=
200909080145 METAR LMML 080145Z 12006KT 9999 FEW024 22/18 Q1015 NOSIG=
200909080130 METAR LMML NIL=
200909080115 METAR LMML 080115Z 11006KT 9999 FEW024 23/18 Q1015 NOSIG=
200909080100 METAR LMML NIL=
200909080045 METAR LMML 080045Z 10004KT 060V130 9999 FEW024 23/18 Q1015
                        NOSIG=
200909080030 METAR LMML NIL=
200909080015 METAR LMML 080015Z 09005KT 060V120 9999 FEW025 23/18 Q1015
                        NOSIG=
200909080000 METAR LMML NIL=
200909072345 METAR LMML 072345Z 09005KT 040V140 9999 FEW020 23/19 Q1015
                        NOSIG=
200909072315 METAR LMML 072315Z 09006KT 060V120 9999 FEW027 23/19 Q1015
                        NOSIG=
200909072300 METAR LMML NIL=
200909072245 METAR LMML 072245Z 07004KT 040V100 9999 FEW027 24/18 Q1015
                        NOSIG=
200909072230 METAR LMML NIL=
200909072215 METAR LMML 072215Z 08005KT 030V130 9999 FEW020 23/19 Q1015
                        NOSIG=
200909072200 METAR LMML NIL=
200909072145 METAR LMML 072145Z 07006KT 030V110 9999 FEW020 SCT090 24/19
                        Q1015 NOSIG=
200909072130 METAR LMML NIL=
200909072115 METAR LMML 072115Z 07005KT 020V100 9999 FEW020 SCT090 23/19
                        Q1015 NOSIG=
200909072100 METAR LMML NIL=
200909072045 METAR LMML 072045Z 07005KT 020V100 9999 FEW020 24/19 Q1015
                        NOSIG=
200909072030 METAR LMML NIL=
200909072015 METAR LMML 072015Z 02004KT 9999 FEW020 24/19 Q1015 NOSIG=
200909072000 METAR LMML NIL=
200909071945 METAR LMML 071945Z 31004KT 9999 FEW027 24/19 Q1015 NOSIG=
200909071915 METAR LMML 071915Z VRB03KT 9999 FEW027 24/19 Q1015 NOSIG
                        RMK LIGHTNING TO E=
200909071900 METAR LMML NIL=
200909071845 METAR LMML 071845Z 32004KT 290V020 9999 FEW027 24/19 Q1015
                        NOSIG RMK LIGHTNING TO NE=
200909071830 METAR LMML NIL=
200909071815 METAR LMML 071815Z 31004KT 9999 FEW027 24/19 Q1015 NOSIG=
200909071800 METAR LMML NIL=
200909071745 METAR LMML 071745Z VRB02KT 9999 FEW028 25/19 Q1014 NOSIG
                        RMK DISTANT CB TO NE=
200909071715 METAR LMML 071715Z VRB02KT 9999 FEW028 25/18 Q1014 NOSIG=
200909071700 METAR LMML NIL=
200909071645 METAR LMML 071645Z VRB03KT 9999 FEW028TCU 25/18 Q1014 TEMPO
                        SHRA BKN015=
200909071630 METAR LMML NIL=
200909071615 METAR LMML 071615Z 04005KT 020V090 9999 SCT027TCU 25/19 Q1014
                        TEMPO SHRA BKN015=
200909071545 METAR LMML 071545Z 05010KT 360V080 9999 SCT029TCU 26/19 Q1014
                        TEMPO SHRA BKN015=
200909071530 METAR LMML NIL=
200909071515 METAR LMML 071515Z VRB03KT 9999 SCT033TCU 27/19 Q1014 TEMPO
                        SHRA BKN015=
200909071500 METAR LMML NIL=
200909071445 METAR LMML 071445Z 17007KT 140V210 9999 SCT036TCU 27/19 Q1014
                        TEMPO SHRA BKN015=
200909071415 METAR LMML 071415Z VRB03KT 9999 SCT036 27/18 Q1014 TEMPO
                        SHRA BKN015=
200909071400 METAR LMML NIL=
200909071345 METAR LMML 071345Z 01006KT 320V060 9999 SCT036 27/18 Q1014
                        TEMPO SHRA BKN015=
200909071330 METAR LMML NIL=
200909071315 METAR LMML 071315Z 02004KT 280V080 9999 SCT039 30/17 Q1014
                        TEMPO SHRA BKN015=
200909071245 METAR LMML 071245Z 04005KT 320V110 9999 SCT038 29/19 Q1015
                        TEMPO SHRA BKN015=
200909071230 METAR LMML NIL=
200909071215 METAR LMML 071215Z 09004KT 9999 SCT031 29/18 Q1015 TEMPO
                        SHRA BKN015=
200909071200 METAR LMML NIL=
200909071145 METAR LMML 071145Z 03007KT 360V080 9999 SCT028 29/19 Q1015
                        NOSIG=
200909071130 METAR LMML NIL=
200909071115 METAR LMML 071115Z 03008KT 360V080 9999 SCT029 28/19 Q1015
                        NOSIG=
200909071100 METAR LMML NIL=
200909071045 METAR LMML 071045Z 04007KT 360V120 9999 SCT028 29/19 Q1015
                        NOSIG=
200909071030 METAR LMML NIL=
200909071015 METAR LMML 071015Z 05007KT 020V110 9999 SCT024 29/19 Q1015
                        NOSIG=
200909071000 METAR LMML NIL=
200909070945 METAR LMML 070945Z 06010KT 030V100 9999 -SHRA SCT021 27/20
                        Q1015 NOSIG=
200909070930 METAR LMML NIL=
200909070915 METAR LMML 070915Z 04009KT 360V110 9999 SCT025 28/19 Q1015
                        NOSIG=
200909070900 METAR LMML NIL=
200909070845 METAR LMML 070845Z 04008KT 010V080 9999 FEW020 28/19 Q1015
                        NOSIG=
200909070830 METAR LMML NIL=
200909070815 METAR LMML 070815Z 05010KT 010V080 9999 FEW020 27/19 Q1014
                        NOSIG=
200909070800 METAR LMML NIL=
200909070745 METAR LMML 070745Z 05011KT 010V090 9999 FEW020 26/19 Q1014
                        NOSIG=
200909070730 METAR LMML NIL=
200909070715 METAR LMML 070715Z 05012KT 020V080 9999 FEW020 26/19 Q1014
                        TEMPO SHRA BKN015=
200909070700 METAR LMML NIL=
200909070645 METAR LMML 070645Z 05011KT 020V080 9999 FEW020 25/19 Q1014
                        TEMPO SHRA BKN015=
200909070630 METAR LMML NIL=
200909070615 METAR LMML 070615Z 04007KT 360V090 9999 SCT020 25/19 Q1014
                        TEMPO SHRA BKN015=
200909070600 METAR LMML NIL=
200909070545 METAR LMML 070545Z 04007KT 010V070 9999 SCT022 25/20 Q1014
                        TEMPO SHRA BKN015=
200909070530 METAR LMML NIL=
200909070515 METAR LMML 070515Z 06010KT 010V090 9999 FEW011 SCT017 24/20
                        Q1014 TEMPO SHRA BKN015=
200909070500 METAR LMML NIL=
200909070445 METAR LMML 070445Z 04012KT 9000 FEW010 SCT020 24/21 Q1013
                        TEMPO 5000 SHRA BKN015=
200909070430 METAR LMML NIL=
200909070415 METAR LMML 070415Z 36012KT 9999 FEW021 25/20 Q1013 NOSIG=
200909070400 METAR LMML NIL=
200909070345 METAR LMML 070345Z 35010KT 9999 SCT018 25/21 Q1012 NOSIG
                        RMK DISTANT LIGHTNING TO NE=
200909070315 METAR LMML 070315Z 35011KT 9999 FEW017 25/21 Q1012 NOSIG
                        RMK FREQUENT DISTANT LIGHTNING TO
                        NE=
200909070300 METAR LMML NIL=
200909070245 METAR LMML 070245Z 35007KT 320V020 9999 FEW019 24/21 Q1012
                        NOSIG RMK DISTANT LIGHTNING TO NE=
200909070230 METAR LMML NIL=
200909070215 METAR COR LMML 070215Z 32006KT 9999 FEW017 23/21 Q1012 NOSIG
                        RMK DISTANT FREQUENT LIGHTNING TO
                        NE AND E=
200909070200 METAR LMML NIL=
200909070145 METAR LMML 070145Z 32006KT 9999 FEW030 23/20 Q1012 NOSIG
                        RMK FREQUENT DISTANT LIGHTNING TO
                        E AND NE=
200909070130 METAR LMML NIL=
200909070115 METAR LMML 070115Z 30005KT 9999 FEW030 24/20 Q1012 NOSIG
                        RMK DISTANT LIGHTNING TO E AND NE=
200909070100 METAR LMML NIL=
200909070045 METAR LMML 070045Z 27005KT 240V300 CAVOK 24/20 Q1012 NOSIG=
200909070030 METAR LMML NIL=
200909070015 METAR LMML 070015Z VRB02KT CAVOK 24/20 Q1012 NOSIG=
200909070000 METAR LMML NIL=
200909062345 METAR LMML 062345Z 29005KT 250V310 CAVOK 24/20 Q1013 NOSIG=
200909062330 METAR LMML NIL=
200909062315 METAR LMML 062315Z 31005KT 280V360 CAVOK 24/20 Q1013 NOSIG=
200909062300 METAR LMML NIL=
200909062245 METAR LMML 062245Z 30005KT CAVOK 25/19 Q1013 NOSIG=
200909062230 METAR LMML NIL=
200909062215 METAR LMML 062215Z 31004KT 270V340 CAVOK 25/19 Q1013 NOSIG=
200909062200 METAR LMML NIL=
200909062145 METAR LMML 062145Z 31005KT CAVOK 25/19 Q1013 NOSIG=
200909062130 METAR LMML NIL=
200909062115 METAR LMML 062115Z 32004KT 280V010 CAVOK 25/19 Q1013 NOSIG=
200909062100 METAR LMML NIL=
200909062045 METAR LMML 062045Z 30007KT 270V330 CAVOK 25/20 Q1014 NOSIG=
200909062030 METAR LMML NIL=
200909062015 METAR LMML 062015Z 31006KT CAVOK 25/19 Q1014 NOSIG=
200909062000 METAR LMML NIL=
200909061945 METAR LMML 061945Z 30007KT CAVOK 25/19 Q1014 NOSIG=
200909061930 METAR LMML NIL=
200909061915 METAR LMML 061915Z 32008KT 290V360 CAVOK 25/20 Q1013 NOSIG=
200909061900 METAR LMML NIL=
200909061845 METAR LMML 061845Z 33009KT CAVOK 25/20 Q1013 NOSIG=
200909061830 METAR LMML NIL=
200909061815 METAR LMML 061815Z 33009KT 310V010 9999 FEW030 26/20 Q1013
                        NOSIG=
200909061800 METAR LMML NIL=
200909061745 METAR LMML 061745Z 32008KT 290V350 9999 FEW030 26/20 Q1013
                        NOSIG=
200909061715 METAR LMML 061715Z 32012KT 290V350 9999 FEW030 26/20 Q1013
                        NOSIG=
200909061700 METAR LMML NIL=
200909061645 METAR LMML 061645Z 31013KT 9999 FEW030 27/20 Q1013 NOSIG=
200909061630 METAR LMML NIL=
200909061615 METAR LMML 061615Z 31015KT 9999 FEW030 28/20 Q1013 NOSIG=
200909061600 METAR LMML NIL=
200909061545 METAR LMML 061545Z 29014KT 9999 FEW030 28/20 Q1013 NOSIG=
200909061530 METAR LMML NIL=
200909061515 METAR LMML 061515Z 30017KT 9999 FEW030 28/21 Q1013 NOSIG=
200909061500 METAR LMML NIL=
200909061445 METAR LMML 061445Z 28016KT 250V310 9999 FEW030 28/20 Q1013
                        NOSIG=
200909061430 METAR LMML NIL=
200909061415 METAR LMML 061415Z 28014KT 240V300 9999 FEW030 29/20 Q1014
                        NOSIG=
200909061400 METAR LMML NIL=
200909061345 METAR LMML 061345Z 29015KT 260V320 9999 FEW030 29/19 Q1014
                        NOSIG=
200909061330 METAR LMML NIL=
200909061315 METAR LMML 061315Z 29013KT 250V330 9999 FEW030 30/19 Q1014
                        NOSIG=
200909061300 METAR LMML NIL=
200909061245 METAR LMML 061245Z 31013KT 270V330 CAVOK 30/18 Q1014 NOSIG=
200909061230 METAR LMML NIL=
200909061215 METAR LMML 061215Z 30011KT 240V330 CAVOK 30/17 Q1015 NOSIG=
200909061200 METAR LMML NIL=
200909061145 METAR LMML 061145Z 30012KT 260V340 9999 FEW020 30/18 Q1015
                        NOSIG=
200909061115 METAR LMML 061115Z 30012KT 260V320 9999 FEW020 30/18 Q1015
                        NOSIG=
200909061100 METAR LMML NIL=
200909061045 METAR LMML 061045Z 30012KT 260V330 9999 FEW020 30/20 Q1015
                        NOSIG=
200909061030 METAR LMML NIL=
200909061015 METAR LMML 061015Z 31013KT 9999 FEW020 30/18 Q1015 NOSIG=
200909061000 METAR LMML NIL=
200909060945 METAR LMML 060945Z 31011KT 260V340 9999 FEW020 30/18 Q1015
                        NOSIG=
200909060930 METAR LMML NIL=
200909060915 METAR LMML 060915Z 30012KT 9999 FEW020 30/18 Q1015 NOSIG=
200909060900 METAR LMML NIL=
200909060845 METAR LMML 060845Z 31013KT CAVOK 29/19 Q1015 NOSIG=
200909060830 METAR LMML NIL=
200909060815 METAR LMML 060815Z 30011KT 270V330 CAVOK 29/20 Q1015 NOSIG=
200909060800 METAR LMML NIL=
200909060745 METAR LMML 060745Z 31011KT CAVOK 29/19 Q1015 NOSIG=
200909060730 METAR LMML NIL=
200909060715 METAR LMML 060715Z 32011KT CAVOK 28/19 Q1014 NOSIG=
200909060700 METAR LMML NIL=
200909060645 METAR LMML 060645Z 32012KT 290V350 9999 FEW025 27/19 Q1015
                        NOSIG=
200909060630 METAR LMML NIL=
200909060615 METAR LMML 060615Z 32009KT 9999 FEW025 26/21 Q1014 NOSIG=
200909060600 METAR LMML NIL=
200909060545 METAR LMML 060545Z 32011KT 9999 FEW020 25/21 Q1014 NOSIG=
200909060530 METAR LMML NIL=
200909060515 METAR LMML 060515Z 31011KT 9999 FEW020 25/21 Q1014 NOSIG=
200909060500 METAR LMML NIL=
200909060445 METAR LMML 060445Z 32008KT 9999 FEW020 24/21 Q1014 NOSIG=
200909060430 METAR LMML NIL=
200909060415 METAR LMML 060415Z 32006KT CAVOK 24/22 Q1014 NOSIG=
200909060400 METAR LMML NIL=
200909060345 METAR LMML 060345Z 32007KT CAVOK 25/22 Q1014 NOSIG=
200909060315 METAR LMML 060315Z 32009KT CAVOK 25/22 Q1014 NOSIG=
200909060300 METAR LMML NIL=
200909060245 METAR LMML 060245Z 32008KT CAVOK 25/22 Q1014 NOSIG=
200909060230 METAR LMML NIL=
200909060215 METAR LMML 060215Z 32008KT CAVOK 25/22 Q1014 NOSIG=
200909060200 METAR LMML NIL=
200909060145 METAR LMML 060145Z 33008KT CAVOK 25/22 Q1014 NOSIG=
200909060130 METAR LMML NIL=
200909060115 METAR LMML 060115Z 32006KT CAVOK 25/22 Q1014 NOSIG=
200909060100 METAR LMML NIL=
200909060045 METAR LMML 060045Z 33005KT 300V360 CAVOK 25/21 Q1014 NOSIG=
200909060030 METAR LMML NIL=
200909060015 METAR LMML 060015Z 31005KT 280V340 CAVOK 25/21 Q1014 NOSIG=
200909060000 METAR LMML NIL=
200909052345 METAR LMML 052345Z 33007KT 290V350 CAVOK 25/21 Q1015 NOSIG=
200909052330 METAR LMML NIL=
200909052315 METAR LMML 052315Z 30007KT 270V340 CAVOK 26/21 Q1015 NOSIG=
200909052300 METAR LMML NIL=
200909052245 METAR LMML 052245Z 30007KT 260V330 CAVOK 26/21 Q1015 NOSIG=
200909052230 METAR LMML NIL=
200909052215 METAR LMML 052215Z 29004KT 240V320 CAVOK 26/21 Q1015 NOSIG=
200909052200 METAR LMML NIL=
200909052145 METAR LMML 052145Z 30005KT 9999 FEW013 26/22 Q1015 NOSIG=
200909052130 METAR LMML NIL=
200909052115 METAR LMML 052115Z 29006KT 260V320 9999 FEW013 26/23 Q1015
                        NOSIG=
200909052100 METAR LMML NIL=
200909052045 METAR LMML 052045Z 30009KT 9999 FEW015 26/23 Q1015 NOSIG=
200909052030 METAR LMML NIL=
200909052015 METAR LMML 052015Z 30011KT 9999 FEW015 26/23 Q1015 NOSIG=
200909052000 METAR LMML NIL=
200909051945 METAR LMML 051945Z 30010KT 270V330 9999 FEW016 26/22 Q1015
                        NOSIG=
200909051930 METAR LMML NIL=
200909051915 METAR LMML 051915Z 29007KT 260V320 9999 FEW016 26/22 Q1015
                        NOSIG=
200909051900 METAR LMML NIL=
200909051845 METAR LMML 051845Z 29005KT 240V340 9999 FEW016 26/22 Q1015
                        NOSIG=
200909051830 METAR LMML NIL=
200909051815 METAR LMML 051815Z 29006KT 250V330 9999 FEW015 26/23 Q1015
                        NOSIG=
200909051745 METAR LMML 051745Z 28006KT 240V320 9999 FEW015 26/23 Q1014
                        NOSIG=
200909051730 METAR LMML NIL=
200909051715 METAR LMML 051715Z 26006KT 210V300 9999 FEW018 27/23 Q1014
                        NOSIG=
200909051700 METAR LMML NIL=
200909051645 METAR LMML 051645Z 26007KT 230V300 9999 FEW030 28/22 Q1014
                        NOSIG=
200909051630 METAR LMML NIL=
200909051615 METAR LMML 051615Z 27009KT 230V300 9999 FEW030 28/21 Q1014
                        NOSIG=
200909051600 METAR LMML NIL=
200909051545 METAR LMML 051545Z 29010KT 260V320 9999 FEW030 29/21 Q1014
                        NOSIG=
200909051530 METAR LMML NIL=
200909051515 METAR LMML 051515Z 28009KT 250V310 9999 FEW030 30/21 Q1014
                        NOSIG=
200909051500 METAR LMML NIL=
200909051445 METAR LMML 051445Z 28010KT 9999 FEW030 30/20 Q1014 NOSIG=
200909051430 METAR LMML NIL=
200909051415 METAR LMML 051415Z 28010KT 250V320 9999 FEW030 30/20 Q1014
                        NOSIG=
200909051400 METAR LMML NIL=
200909051345 METAR LMML 051345Z 27009KT 220V310 9999 FEW030 31/18 Q1014
                        NOSIG=
200909051330 METAR LMML NIL=
200909051315 METAR LMML 051315Z 31010KT 9999 FEW030 32/18 Q1014 WS RWY31
                        NOSIG=
200909051245 METAR LMML 051245Z 30009KT 260V330 9999 FEW030 32/16 Q1015
                        WS RWY31 NOSIG=
200909051230 METAR LMML NIL=
200909051215 METAR LMML 051215Z 29007KT 220V350 9999 FEW030 32/18 Q1015
                        NOSIG=
200909051200 METAR LMML NIL=
200909051145 METAR LMML 051145Z 31008KT 270V350 9999 FEW030 32/18 Q1015
                        NOSIG=
200909051115 METAR LMML 051115Z 31007KT 260V020 9999 FEW028 31/16 Q1015
                        NOSIG=
200909051100 METAR LMML NIL=
200909051045 METAR LMML 051045Z 32006KT 270V040 9999 FEW031 31/22 Q1015
                        NOSIG=
200909051030 METAR LMML NIL=
200909051015 METAR LMML 051015Z 34005KT 280V050 9999 FEW032 31/22 Q1015
                        NOSIG=
200909051000 METAR LMML NIL=
200909050945 METAR LMML 050945Z 35005KT 290V050 CAVOK 31/22 Q1015 NOSIG=
200909050930 METAR LMML NIL=
200909050915 METAR LMML 050915Z 32006KT 280V010 CAVOK 30/21 Q1015 NOSIG=
200909050900 METAR LMML NIL=
200909050845 METAR LMML 050845Z 34005KT 280V040 CAVOK 31/22 Q1015 NOSIG=
200909050830 METAR LMML NIL=
200909050815 METAR LMML 050815Z 33006KT 290V360 9999 FEW015 29/22 Q1015
                        NOSIG=
200909050800 METAR LMML NIL=
200909050745 METAR LMML 050745Z 34006KT 300V010 9999 FEW015 29/22 Q1015
                        NOSIG=
200909050730 METAR LMML NIL=
200909050715 METAR LMML 050715Z 34006KT 300V360 9999 FEW013 28/23 Q1015
                        NOSIG=
200909050700 METAR LMML NIL=
200909050645 METAR LMML 050645Z 32006KT 290V350 9000 FEW013 27/23 Q1014
                        BECMG 9999=
200909050630 METAR LMML NIL=
200909050615 METAR LMML 050615Z 32005KT 280V360 7000 FEW013 26/23 Q1014
                        BECMG 9999=
200909050600 METAR LMML NIL=
200909050545 METAR LMML 050545Z 34005KT 7000 FEW013 26/23 Q1014 BECMG
                        9999=
200909050530 METAR LMML NIL=
200909050515 METAR LMML 050515Z 32004KT 9999 FEW013 25/23 Q1014 NOSIG=
200909050500 METAR LMML NIL=
200909050445 METAR LMML 050445Z 30004KT 270V330 9999 FEW013 25/23 Q1014
                        NOSIG=
200909050430 METAR LMML NIL=
200909050415 METAR LMML 050415Z 31005KT 9999 FEW013 25/23 Q1014 NOSIG=
200909050400 METAR LMML NIL=
200909050345 METAR LMML 050345Z 32006KT 9999 FEW011 25/23 Q1014 NOSIG=
200909050330 METAR LMML NIL=
200909050315 METAR LMML 050315Z VRB03KT 9999 FEW011 25/23 Q1014 NOSIG=
200909050300 METAR LMML NIL=
200909050245 METAR LMML 050245Z VRB02KT 9999 FEW012 25/23 Q1014 NOSIG=
200909050230 METAR LMML NIL=
200909050215 METAR LMML 050215Z VRB02KT 9999 FEW012 25/23 Q1014 NOSIG=
200909050200 METAR LMML NIL=
200909050145 METAR LMML 050145Z VRB02KT 9999 FEW012 25/23 Q1014 NOSIG=
200909050130 METAR LMML NIL=
200909050115 METAR LMML 050115Z VRB03KT 9999 FEW012 25/23 Q1014 NOSIG=
200909050100 METAR LMML NIL=
200909050045 METAR LMML 050045Z 28004KT 9999 FEW012 25/23 Q1014 NOSIG=
200909050030 METAR LMML NIL=
200909050015 METAR LMML 050015Z 27004KT 9999 FEW000 25/23 Q1015 NOSIG=
200909050000 METAR LMML NIL=
200909042345 METAR LMML 042345Z VRB03KT CAVOK 25/23 Q1015 NOSIG=
200909042315 METAR LMML 042315Z VRB03KT CAVOK 25/23 Q1015 NOSIG=
200909042300 METAR LMML NIL=
200909042245 METAR LMML 042245Z VRB03KT CAVOK 25/22 Q1015 NOSIG=
200909042230 METAR LMML NIL=
200909042215 METAR LMML 042215Z VRB03KT CAVOK 26/23 Q1015 NOSIG=
200909042200 METAR LMML NIL=
200909042145 METAR LMML 042145Z VRB03KT CAVOK 26/23 Q1015 NOSIG=
200909042130 METAR LMML NIL=
200909042115 METAR LMML 042115Z VRB03KT CAVOK 26/23 Q1015 NOSIG=
200909042100 METAR LMML NIL=
200909042045 METAR LMML 042045Z VRB03KT CAVOK 26/23 Q1015 NOSIG=
200909042030 METAR LMML NIL=
200909042015 METAR LMML 042015Z VRB03KT CAVOK 26/23 Q1015 NOSIG=
200909042000 METAR LMML NIL=
200909041945 METAR LMML 041945Z 24006KT 210V270 9999 FEW020 26/23 Q1015
                        NOSIG=
200909041930 METAR LMML NIL=
200909041915 METAR LMML 041915Z 24005KT 210V270 9999 FEW020 27/23 Q1015
                        NOSIG=
200909041900 METAR LMML NIL=
200909041845 METAR LMML 041845Z 24006KT 210V270 9999 FEW020 27/23 Q1014
                        NOSIG=
200909041830 METAR LMML NIL=
200909041815 METAR LMML 041815Z 24006KT 200V280 CAVOK 27/22 Q1014 NOSIG=
200909041800 METAR LMML NIL=
200909041745 METAR LMML 041745Z 23005KT 200V270 CAVOK 27/22 Q1014 NOSIG=
200909041730 METAR LMML NIL=
200909041715 METAR LMML 041715Z 24007KT 200V290 CAVOK 27/22 Q1014 NOSIG=
200909041700 METAR LMML NIL=
200909041645 METAR LMML 041645Z 22007KT 200V270 CAVOK 28/22 Q1014 NOSIG=
200909041630 METAR LMML NIL=
200909041615 METAR LMML 041615Z 24007KT 200V280 CAVOK 28/22 Q1014 NOSIG=
200909041600 METAR LMML NIL=
200909041545 METAR LMML 041545Z 22006KT 170V290 CAVOK 29/22 Q1014 NOSIG=
200909041530 METAR LMML NIL=
200909041515 METAR LMML 041515Z 23006KT 180V270 CAVOK 29/22 Q1014 NOSIG=
200909041500 METAR LMML NIL=
200909041445 METAR LMML 041445Z 22007KT 190V270 CAVOK 30/21 Q1014 NOSIG=
200909041430 METAR LMML NIL=
200909041415 METAR LMML 041415Z 24008KT 200V290 CAVOK 30/21 Q1014 NOSIG=
200909041400 METAR LMML NIL=
200909041345 METAR LMML 041345Z 23007KT 200V290 CAVOK 30/20 Q1014 NOSIG=
200909041330 METAR LMML NIL=
200909041315 METAR LMML 041315Z 22008KT 190V280 9999 FEW020 30/21 Q1014
                        NOSIG=
200909041300 METAR LMML NIL=
200909041245 METAR LMML 041245Z 23008KT 190V270 9999 FEW020 30/20 Q1015
                        NOSIG=
200909041230 METAR LMML NIL=
200909041215 METAR LMML 041215Z 23008KT 200V290 CAVOK 30/20 Q1015 NOSIG=
200909041200 METAR LMML NIL=
200909041145 METAR LMML 041145Z 23007KT 190V270 9999 FEW020 30/20 Q1015
                        NOSIG=
200909041130 METAR LMML NIL=
200909041115 METAR LMML 041115Z 22008KT 200V280 9999 FEW020 30/21 Q1015
                        NOSIG=
200909041100 METAR LMML NIL=
200909041045 METAR LMML 041045Z 23008KT 200V280 9999 FEW020 30/21 Q1015
                        NOSIG=
200909041015 METAR LMML 041015Z 23007KT 200V300 9999 FEW020 30/20 Q1015
                        NOSIG=
200909041000 METAR LMML NIL=
200909040945 METAR LMML 040945Z 23007KT 200V280 9999 FEW020 29/22 Q1015
                        NOSIG=
200909040930 METAR LMML NIL=
200909040915 METAR LMML 040915Z 24006KT 200V300 9999 FEW020 29/22 Q1015
                        NOSIG=
200909040900 METAR LMML NIL=
200909040845 METAR LMML 040845Z 23007KT 200V280 9999 FEW020 29/22 Q1015
                        NOSIG=
200909040830 METAR LMML NIL=
200909040815 METAR LMML 040815Z 24006KT 200V290 9999 FEW020 28/22 Q1015
                        NOSIG=
200909040800 METAR LMML NIL=
200909040745 METAR LMML 040745Z 23005KT 200V270 9999 FEW020 28/22 Q1015
                        NOSIG=
200909040730 METAR LMML NIL=
200909040715 METAR LMML 040715Z 23004KT 180V280 9999 FEW020 28/22 Q1015
                        NOSIG=
200909040700 METAR LMML NIL=
200909040645 METAR LMML 040645Z VRB03KT 9999 FEW015 27/23 Q1015 NOSIG=
200909040630 METAR LMML NIL=
200909040615 METAR LMML 040615Z VRB02KT 9999 FEW012 26/23 Q1014 NOSIG=
200909040600 METAR LMML NIL=
200909040545 METAR LMML 040545Z VRB02KT 9999 FEW012 25/23 Q1015 NOSIG=
200909040530 METAR LMML NIL=
200909040515 METAR LMML 040515Z VRB02KT 9999 FEW012 24/22 Q1014 NOSIG=
200909040500 METAR LMML NIL=
200909040445 METAR LMML 040445Z VRB02KT 9999 FEW014 24/22 Q1014 NOSIG=
200909040430 METAR LMML NIL=
200909040415 METAR COR LMML 040415Z VRB03KT 9999 FEW014 24/22 Q1014 NOSIG=
200909040400 METAR LMML NIL=
200909040345 METAR LMML 040345Z VRB02KT 9999 FEW014 24/22 Q1014 NOSIG=
200909040330 METAR LMML NIL=
200909040315 METAR LMML 040315Z VRB01KT 9999 FEW014 24/22 Q1014 NOSIG=
200909040245 METAR LMML 040245Z VRB01KT 9999 FEW014 25/22 Q1014 NOSIG=
200909040230 METAR LMML NIL=
200909040215 METAR LMML 040215Z VRB03KT 9999 FEW014 24/22 Q1014 NOSIG=
200909040200 METAR LMML NIL=
200909040145 METAR LMML 040145Z 29004KT 9999 FEW018 25/22 Q1015 NOSIG=
200909040130 METAR LMML NIL=
200909040115 METAR LMML 040115Z VRB02KT 9999 FEW014 25/22 Q1014 NOSIG=
200909040100 METAR LMML NIL=
200909040045 METAR LMML 040045Z VRB01KT 9999 FEW014 24/22 Q1014 NOSIG=
200909040030 METAR LMML NIL=
200909040015 METAR LMML 040015Z VRB01KT 9999 FEW014 24/22 Q1015 NOSIG=
200909040000 METAR LMML NIL=
200909032345 METAR LMML 032345Z VRB02KT 9999 FEW014 25/22 Q1015 NOSIG=
200909032330 METAR LMML NIL=
200909032245 METAR LMML 032245Z VRB03KT 9999 FEW013 25/22 Q1015 NOSIG=
200909032230 METAR LMML NIL=
200909032215 METAR LMML 032215Z VRB02KT 9999 FEW015 25/22 Q1015 NOSIG=
200909032200 METAR LMML NIL=
200909032145 METAR LMML 032145Z VRB03KT 9999 FEW014 25/22 Q1015 NOSIG=
200909032115 METAR LMML 032115Z VRB02KT 9999 FEW014 25/22 Q1015 NOSIG=
200909032045 METAR LMML 032045Z VRB02KT 9999 FEW013 25/22 Q1015 NOSIG=
200909032015 METAR LMML 032015Z VRB02KT 9999 FEW020 26/22 Q1015 NOSIG=
200909032000 METAR LMML NIL=
200909031945 METAR LMML 031945Z VRB01KT 9999 FEW020 26/22 Q1015 NOSIG=
200909031930 METAR LMML NIL=
200909031915 METAR LMML 031915Z VRB03KT 9999 FEW020 26/22 Q1014 NOSIG=
200909031900 METAR LMML NIL=
200909031845 METAR LMML 031845Z 23004KT 190V280 9999 FEW020 26/22 Q1014
                        NOSIG=
200909031830 METAR LMML NIL=
200909031815 METAR LMML 031815Z 22004KT 180V260 9999 FEW020 26/22 Q1014
                        NOSIG=
200909031800 METAR LMML NIL=
200909031745 METAR LMML 031745Z 20004KT 170V240 9999 FEW020 26/22 Q1014
                        NOSIG=
200909031715 METAR LMML 031715Z 21005KT 170V250 9999 FEW020 27/22 Q1013
                        NOSIG=
200909031700 METAR LMML NIL=
200909031645 METAR LMML 031645Z 21005KT 170V260 9999 FEW020 27/22 Q1013
                        NOSIG=
200909031630 METAR LMML NIL=
200909031615 METAR LMML 031615Z 21006KT 170V260 9999 FEW020 28/22 Q1013
                        NOSIG=
200909031600 METAR LMML NIL=
200909031545 METAR LMML 031545Z 19006KT 140V230 9999 FEW020 28/22 Q1014
                        NOSIG=
200909031530 METAR LMML NIL=
200909031515 METAR LMML 031515Z 20006KT 170V250 9999 FEW020 28/22 Q1014
                        NOSIG=
200909031500 METAR LMML NIL=
200909031445 METAR LMML 031445Z 20005KT 140V270 CAVOK 29/21 Q1014 NOSIG=
200909031430 METAR LMML NIL=
200909031415 METAR LMML 031415Z 20005KT 160V260 9999 FEW021 30/22 Q1014
                        NOSIG=
200909031400 METAR LMML NIL=
200909031345 METAR LMML 031345Z 18006KT 130V240 9999 FEW021 29/22 Q1014
                        NOSIG=
200909031330 METAR LMML NIL=
200909031315 METAR LMML 031315Z 17007KT 140V240 9999 FEW021 29/22 Q1014
                        NOSIG=
200909031300 METAR LMML NIL=
200909031245 METAR LMML 031245Z 18007KT 140V240 9999 FEW021 30/22 Q1015
                        NOSIG=
200909031230 METAR LMML NIL=
200909031215 METAR LMML 031215Z 19006KT 140V250 9999 FEW021 29/21 Q1015
                        NOSIG=
200909031200 METAR LMML NIL=
200909031145 METAR LMML 031145Z 17006KT 120V240 9999 FEW021 30/21 Q1015
                        NOSIG=
200909031130 METAR LMML NIL=
200909031115 METAR LMML 031115Z 17006KT 120V220 9999 FEW025 30/21 Q1015
                        NOSIG=
200909031100 METAR LMML NIL=
200909031045 METAR LMML 031045Z 16006KT 090V220 9999 FEW025 30/21 Q1015
                        NOSIG=
200909031030 METAR LMML NIL=
200909031015 METAR LMML 031015Z 15006KT 120V200 9999 FEW021 29/21 Q1015
                        NOSIG=
200909031000 METAR LMML NIL=
200909030945 METAR LMML 030945Z 15005KT 050V350 9999 FEW020 30/21 Q1015
                        NOSIG=
200909030930 METAR LMML NIL=
200909030915 METAR LMML 030915Z 12005KT 080V200 9999 FEW020 29/21 Q1015
                        NOSIG=
200909030900 METAR LMML NIL=
200909030845 METAR LMML 030845Z VRB03KT 9999 FEW020 29/21 Q1015 NOSIG=
200909030830 METAR LMML NIL=
200909030800 METAR LMML NIL=
200909030745 METAR LMML 030745Z VRB03KT 9999 FEW019 28/21 Q1015 NOSIG=
200909030730 METAR LMML NIL=
200909030715 METAR LMML 030715Z VRB02KT 9999 FEW018 27/21 Q1015 NOSIG=
200909030700 METAR LMML NIL=
200909030645 METAR LMML 030645Z VRB02KT 9999 FEW017 27/22 Q1015 NOSIG=
200909030630 METAR LMML NIL=
200909030615 METAR LMML 030615Z VRB01KT 9000 FEW017 25/22 Q1014 NOSIG=
200909030600 METAR LMML NIL=
200909030545 METAR LMML 030545Z VRB01KT 9000 FEW016 23/21 Q1014 BECMG
                        9999=
200909030530 METAR LMML NIL=
200909030515 METAR LMML 030515Z VRB02KT 9000 FEW015 22/21 Q1014 BECMG
                        9999=
200909030500 METAR LMML NIL=
200909030445 METAR LMML 030445Z VRB01KT 9000 FEW015 22/21 Q1014 BECMG
                        9999=
200909030430 METAR LMML NIL=
200909030415 METAR LMML 030415Z VRB01KT 9999 FEW014 22/21 Q1014 NOSIG=
200909030400 METAR LMML NIL=
200909030345 METAR LMML 030345Z VRB01KT 9999 FEW014 22/21 Q1014 NOSIG=
200909030330 METAR LMML NIL=
200909030315 METAR LMML 030315Z 00000KT 9999 FEW014 22/20 Q1014 NOSIG=
200909030300 METAR LMML NIL=
200909030245 METAR LMML 030245Z VRB01KT 9999 FEW014 23/21 Q1014 NOSIG=
200909030230 METAR LMML NIL=
200909030215 METAR LMML 030215Z VRB02KT 9999 FEW015 23/21 Q1014 NOSIG=
200909030200 METAR LMML NIL=
200909030145 METAR LMML 030145Z VRB02KT 9999 FEW015 24/21 Q1014 NOSIG=
200909030130 METAR LMML NIL=
200909030115 METAR LMML 030115Z VRB02KT 9999 FEW015 24/21 Q1014 NOSIG=
200909030100 METAR LMML NIL=
200909030045 METAR LMML 030045Z VRB02KT 9999 FEW017 24/21 Q1015 NOSIG=
200909030015 METAR LMML 030015Z VRB03KT 9999 FEW017 24/21 Q1015 NOSIG=
200909030000 METAR LMML NIL=
200909022345 METAR LMML 022345Z VRB03KT 9999 FEW017 24/21 Q1015 NOSIG=
200909022330 METAR LMML NIL=
200909022315 METAR LMML 022315Z VRB02KT 9999 SCT017 24/21 Q1015 NOSIG=
200909022300 METAR LMML NIL=
200909022245 METAR LMML 022245Z VRB03KT 9999 SCT017 25/21 Q1015 NOSIG=
200909022230 METAR LMML NIL=
200909022215 METAR LMML 022215Z VRB03KT 9999 FEW017 25/21 Q1016 NOSIG=
200909022200 METAR LMML NIL=
200909022145 METAR LMML 022145Z 13004KT 080V150 9999 FEW017 25/21 Q1016
                        NOSIG=
200909022130 METAR LMML NIL=
200909022115 METAR LMML 022115Z VRB03KT 9999 FEW017 25/21 Q1015 NOSIG=
200909022100 METAR LMML NIL=
200909022045 METAR LMML 022045Z 13004KT 100V180 9999 FEW040 25/21 Q1015
                        NOSIG=
200909022030 METAR LMML NIL=
200909022015 METAR LMML 022015Z 14005KT 9999 FEW040 25/21 Q1015 NOSIG=
200909022000 METAR LMML NIL=
200909021945 METAR LMML 021945Z 14005KT 120V180 9999 FEW040 26/21 Q1015
                        NOSIG=
200909021930 METAR LMML NIL=
200909021915 METAR LMML 021915Z 14004KT 100V190 9999 FEW040 26/21 Q1015
                        NOSIG=
200909021900 METAR LMML NIL=
200909021845 METAR LMML 021845Z 14006KT 120V180 9999 FEW020 26/21 Q1015
                        NOSIG=
200909021830 METAR LMML NIL=
200909021815 METAR COR LMML 021815Z 14006KT 9999 FEW020 26/21 Q1015 NOSIG=
200909021800 METAR LMML NIL=
200909021745 METAR LMML 021745Z 13007KT 9999 FEW020 26/21 Q1015 NOSIG=
200909021730 METAR LMML NIL=
200909021715 METAR LMML 021715Z 13008KT 100V160 9999 FEW020 26/21 Q1015
                        NOSIG=
200909021700 METAR LMML NIL=
200909021645 METAR LMML 021645Z 15007KT 110V190 9999 FEW021 27/21 Q1015
                        NOSIG=
200909021630 METAR LMML NIL=
200909021615 METAR LMML 021615Z 14008KT 120V180 9999 FEW021 28/21 Q1015
                        NOSIG=
200909021600 METAR LMML NIL=
200909021545 METAR LMML 021545Z 15007KT 110V190 9999 FEW022 28/21 Q1016
                        NOSIG=
200909021530 METAR LMML NIL=
200909021515 METAR LMML 021515Z 13009KT 100V170 9999 FEW022 28/21 Q1016
                        NOSIG=
200909021500 METAR LMML NIL=
200909021445 METAR LMML 021445Z 13007KT 080V170 9999 FEW022 29/21 Q1016
                        NOSIG=
200909021430 METAR LMML NIL=
200909021415 METAR LMML 021415Z 13009KT 100V180 9999 FEW025 29/21 Q1016
                        NOSIG=
200909021400 METAR LMML NIL=
200909021345 METAR LMML 021345Z 13008KT 090V180 9999 FEW024 29/21 Q1016
                        NOSIG=
200909021330 METAR LMML NIL=
200909021315 METAR LMML 021315Z 15008KT 100V180 9999 SCT025 30/21 Q1017
                        NOSIG=
200909021300 METAR LMML NIL=
200909021245 METAR LMML 021245Z 13008KT 100V170 9999 SCT025 29/21 Q1017
                        NOSIG=
200909021230 METAR LMML NIL=
200909021215 METAR LMML 021215Z 14008KT 080V200 9999 FEW026 29/21 Q1017
                        NOSIG=
200909021200 METAR LMML NIL=
200909021145 METAR LMML 021145Z 12010KT 080V160 9999 FEW025 29/21 Q1017
                        NOSIG=
200909021130 METAR LMML NIL=
200909021115 METAR LMML 021115Z 11008KT 060V150 9999 FEW025 29/21 Q1017
                        NOSIG=
200909021100 METAR LMML NIL=
200909021045 METAR LMML 021045Z 12009KT 080V160 9999 FEW023 29/21 Q1017
                        NOSIG=
200909021015 METAR LMML 021015Z 11008KT 070V160 9999 FEW023 29/21 Q1018
                        NOSIG=
200909021000 METAR LMML NIL=
200909020945 METAR LMML 020945Z 12007KT 090V180 9999 FEW024 29/20 Q1018
                        NOSIG=
200909020930 METAR LMML NIL=
200909020915 METAR LMML 020915Z 12007KT 040V160 9999 FEW025 29/21 Q1018
                        NOSIG=
200909020900 METAR LMML NIL=
200909020845 METAR LMML 020845Z 11007KT 060V160 9999 SCT026 29/21 Q1018
                        NOSIG=
200909020830 METAR LMML NIL=
200909020815 METAR LMML 020815Z 10005KT 050V150 9999 SCT025 29/20 Q1018
                        NOSIG=
200909020800 METAR LMML NIL=
200909020745 METAR LMML 020745Z 12006KT 050V160 9999 SCT024 28/21 Q1018
                        NOSIG=
200909020730 METAR LMML NIL=
200909020715 METAR LMML 020715Z VRB03KT 9999 SCT020 27/21 Q1017 NOSIG=
200909020700 METAR LMML NIL=
200909020645 METAR LMML 020645Z 07005KT 040V110 9999 SCT020 27/21 Q1017
                        NOSIG=
200909020630 METAR LMML NIL=
200909020615 METAR LMML 020615Z VRB02KT 9999 SCT022 25/21 Q1017 NOSIG=
200909020600 METAR LMML NIL=
200909020545 METAR LMML 020545Z VRB01KT 9999 SCT022 24/20 Q1017 NOSIG=
200909020515 METAR LMML 020515Z VRB01KT 9999 SCT021 23/20 Q1017 NOSIG=
200909020500 METAR LMML NIL=
200909020445 METAR LMML 020445Z VRB01KT 9999 FEW023 22/20 Q1017 NOSIG=
200909020430 METAR LMML NIL=
200909020415 METAR LMML 020415Z VRB01KT 9999 SCT023 22/19 Q1017 NOSIG=
200909020400 METAR LMML NIL=
200909020345 METAR LMML 020345Z 00000KT 9999 FEW025 22/19 Q1017 NOSIG=
200909020315 METAR LMML 020315Z VRB01KT 9999 FEW025 22/20 Q1017 NOSIG=
200909020300 METAR LMML NIL=
200909020245 METAR LMML 020245Z VRB01KT 9999 FEW025 23/20 Q1017 NOSIG=
200909020230 METAR LMML NIL=
200909020215 METAR LMML 020215Z VRB01KT 9999 FEW025 23/20 Q1017 NOSIG=
200909020145 METAR LMML 020145Z VRB01KT 9999 FEW025 24/20 Q1017 NOSIG=
200909020130 METAR LMML NIL=
200909020115 METAR LMML 020115Z VRB02KT 9999 FEW025 24/20 Q1017 NOSIG=
200909020100 METAR LMML NIL=
200909020045 METAR LMML 020045Z VRB02KT 9999 FEW024 24/20 Q1018 NOSIG=
200909020030 METAR LMML NIL=
200909020015 METAR LMML 020015Z VRB03KT 9999 FEW024 24/20 Q1018 NOSIG=
200909020000 METAR LMML NIL=
200909012345 METAR LMML 012345Z VRB03KT 9999 FEW019 25/20 Q1018 NOSIG=
200909012330 METAR LMML NIL=
200909012315 METAR LMML 012315Z 14005KT 9999 FEW019 25/20 Q1018 NOSIG=
200909012300 METAR LMML NIL=
200909012245 METAR LMML 012245Z 14005KT 9999 FEW019 25/20 Q1018 NOSIG=
200909012230 METAR LMML NIL=
200909012215 METAR LMML 012215Z 13005KT 9999 FEW019 25/21 Q1018 NOSIG=
200909012145 METAR LMML 012145Z 13004KT 9999 SCT020 25/20 Q1018 NOSIG=
200909012130 METAR LMML NIL=
200909012115 METAR LMML 012115Z VRB03KT 9999 FEW020 25/20 Q1018 NOSIG=
200909012100 METAR LMML NIL=
200909012045 METAR LMML 012045Z 13004KT 9999 FEW019 25/21 Q1018 NOSIG=
200909012030 METAR LMML NIL=
200909012015 METAR LMML 012015Z 13004KT 9999 FEW019 25/21 Q1018 NOSIG=
200909011945 METAR LMML 011945Z 14005KT 9999 FEW020 25/20 Q1018 NOSIG=
200909011930 METAR LMML NIL=
200909011915 METAR LMML 011915Z 13005KT CAVOK 25/21 Q1018 NOSIG=
200909011900 METAR LMML NIL=
200909011845 METAR LMML 011845Z 13005KT CAVOK 25/20 Q1018 NOSIG=
200909011815 METAR LMML 011815Z 14006KT CAVOK 26/20 Q1018 NOSIG=
200909011800 METAR LMML NIL=
200909011745 METAR LMML 011745Z 14006KT CAVOK 26/20 Q1018 NOSIG=
200909011730 METAR LMML NIL=
200909011715 METAR LMML 011715Z 14006KT 9999 FEW030 27/20 Q1018 NOSIG=
200909011700 METAR LMML NIL=
200909011645 METAR LMML 011645Z 13007KT 9999 FEW030 27/20 Q1018 NOSIG=
200909011630 METAR LMML NIL=
200909011615 METAR LMML 011615Z 13007KT 100V160 9999 FEW030 28/20 Q1018
                        NOSIG=
200909011600 METAR LMML NIL=
200909011545 METAR LMML 011545Z 13007KT 100V160 9999 FEW030 28/20 Q1018
                        NOSIG=
200909011530 METAR LMML NIL=
200909011515 METAR LMML 011515Z 13007KT 100V180 9999 FEW030 29/20 Q1018
                        NOSIG=
200909011500 METAR LMML NIL=
200909011445 METAR LMML 011445Z 13007KT 100V170 9999 FEW030 29/19 Q1018
                        NOSIG=
200909011430 METAR LMML NIL=
200909011415 METAR LMML 011415Z 12008KT 090V160 9999 FEW024 29/21 Q1018
                        NOSIG=
200909011400 METAR LMML NIL=
200909011345 METAR LMML 011345Z 12008KT 070V160 9999 FEW027 29/20 Q1018
                        NOSIG=
200909011330 METAR LMML NIL=
200909011315 METAR LMML 011315Z 11007KT 070V150 9999 FEW027 29/19 Q1018
                        NOSIG=
200909011300 METAR LMML NIL=
200909011245 METAR LMML 011245Z 13007KT 080V180 9999 FEW027 29/20 Q1019
                        NOSIG=
200909011230 METAR LMML NIL=
200909011200 METAR LMML NIL=
200909011145 METAR LMML 011145Z 12008KT 100V160 9999 SCT030 29/19 Q1019
                        NOSIG=
200909011130 METAR LMML NIL=
200909011115 METAR LMML 011115Z 12007KT 080V180 9999 SCT029 29/19 Q1019
                        NOSIG=
200909011100 METAR LMML NIL=
200909011045 METAR LMML 011045Z 12007KT 060V160 9999 SCT033 30/18 Q1020
                        NOSIG=
200909011030 METAR LMML NIL=
200909011015 METAR LMML 011015Z 13007KT 080V190 9999 SCT033 29/18 Q1020
                        NOSIG=
200909011000 METAR LMML NIL=
200909010945 METAR LMML 010945Z 11009KT 050V150 9999 SCT028 29/20 Q1020
                        NOSIG=
200909010930 METAR LMML NIL=
200909010915 METAR LMML 010915Z 12008KT 100V160 9999 SCT027 29/20 Q1020
                        NOSIG=
200909010900 METAR LMML NIL=
200909010845 METAR LMML 010845Z 11006KT 080V160 9999 SCT028 29/20 Q1020
                        NOSIG=
200909010830 METAR LMML NIL=
200909010815 METAR LMML 010815Z 12007KT 070V170 9999 SCT026 27/20 Q1020
                        NOSIG=
200909010800 METAR LMML NIL=
200909010745 METAR LMML 010745Z 12005KT 080V170 9999 FEW026 28/20 Q1019
                        NOSIG=
200909010730 METAR LMML NIL=
200909010715 METAR LMML 010715Z 12005KT 060V160 9999 FEW024 27/20 Q1019
                        NOSIG=
200909010700 METAR LMML NIL=
200909010645 METAR LMML 010645Z VRB03KT 9999 FEW023 27/21 Q1019 NOSIG=
200909010630 METAR LMML NIL=
200909010615 METAR LMML 010615Z VRB02KT 9999 FEW025 26/21 Q1019 NOSIG=
200909010600 METAR LMML NIL=
200909010545 METAR LMML 010545Z 00000KT 9999 FEW025 24/21 Q1019 NOSIG=
200909010530 METAR LMML NIL=
200909010515 METAR LMML 010515Z 00000KT 9999 FEW022 23/20 Q1019 NOSIG=
200909010500 METAR LMML NIL=
200909010445 METAR LMML 010445Z 00000KT 9999 FEW022 23/20 Q1018 NOSIG=
200909010430 METAR LMML NIL=
200909010415 METAR LMML 010415Z 00000KT 9999 FEW022 23/20 Q1018 NOSIG=
200909010400 METAR LMML NIL=
200909010345 METAR LMML 010345Z VRB01KT 9999 FEW023 23/20 Q1018 NOSIG=
200909010315 METAR LMML 010315Z VRB01KT 9999 FEW023 23/20 Q1018 NOSIG=
200909010300 METAR LMML NIL=
200909010245 METAR LMML 010245Z VRB01KT 9999 FEW023 23/20 Q1018 NOSIG=
200909010230 METAR LMML NIL=
200909010215 METAR LMML 010215Z VRB02KT 9999 FEW022 23/20 Q1018 NOSIG=
200909010200 METAR LMML NIL=
200909010145 METAR LMML 010145Z VRB01KT 9999 FEW023 23/19 Q1018 NOSIG=
200909010130 METAR LMML NIL=
200909010115 METAR LMML 010115Z VRB01KT 9999 FEW023 24/20 Q1018 NOSIG=
200909010100 METAR LMML NIL=
200909010045 METAR LMML 010045Z VRB02KT 9999 FEW023 24/20 Q1018 NOSIG=
200909010030 METAR LMML NIL=
200909010015 METAR LMML 010015Z VRB02KT 9999 FEW023 24/20 Q1019 NOSIG=
200909010000 METAR LMML NIL=

###################################
#  short TAF from LMML
###################################
200910012300 TAF LMML 012300Z 0200/0209 30015KT 9999 FEW007 SCT015
                      TEMPO 0200/0206 8000 SHRA BKN013
                      PROB40 TEMPO 0200/0206 5000 TSRA BKN005 BKN013CB=
200910012000 TAF LMML 012000Z 0121/0206 15017KT 9999 SCT013
                      TEMPO 0121/0206 8000 SHRA BKN013
                      PROB40 TEMPO 0121/0204 5000 TSRA BKN013CB
                       BECMG 0123/0202 28015KT=
200910011700 TAF LMML 011700Z 0118/0203 15012KT 9999 SCT015 SCT020
                      TEMPO 0118/0203 8000 SHRA BKN015
                      PROB40 TEMPO 0118/0203 5000 TSRA FEW008 BKN015CB=
200910011400 TAF LMML 011400Z 0115/0124 15013KT 9999 FEW018 SCT030
                      TEMPO 0115/0124 8000 BKN015
                      PROB40 TEMPO 0115/0124 5000 TSRA FEW008 BKN015CB=
200910011100 TAF LMML 011100Z 0112/0121 15013KT 9999 FEW018 SCT030
                      TEMPO 0112/0121 8000 SHRA BKN018
                      PROB40 TEMPO 0112/0121 5000 TSRA FEW008 BKN015CB=
200910010800 TAF LMML 010800Z 0109/0118 15010KT 9999 FEW020 SCT035
                      PROB40 TEMPO 0111/0118 8000 SHRA BKN018
                      PROB30 TEMPO 0112/0118 5000 TSRA FEW008 BKN015CB=
200910010500 TAF LMML 010500Z 0106/0115 16007KT 9999 FEW015 SCT035
                      PROB40 TEMPO 0106/0115 8000 RA BKN015 BKN030=
200910010200 TAF LMML 010200Z 0103/0112 16007KT 9999 FEW013 SCT025
                      PROB40 TEMPO 0103/0106 9000 BKN010 BKN025
                       PROB30
                      TEMPO 0106/0112 8000 SHRA BKN015=
200909302300 TAF LMML 302300Z 0100/0109 15008KT 9999 SCT015
                      TEMPO 0100/0106 BKN011
                      PROB40 TEMPO 0100/0106 9000 BKN008
                      PROB30 TEMPO 0106/0109 8000 SHRA BKN015=
200909302000 TAF LMML 302000Z 3021/0106 14006KT 9999 FEW015
                      TEMPO 3021/0106 BKN012
                      PROB30 TEMPO 3021/0106 8000 BKN008=
200909301700 TAF LMML 301700Z 3018/0103 14006KT 9999 SCT020
                      PROB40 TEMPO 3018/0103 BKN014=
200909301400 TAF LMML 301400Z 3015/3024 12006KT 9999 SCT020
                      PROB30 TEMPO 3018/3024 BKN014=
200909301100 TAF LMML 301100Z 3012/3021 11006KT 9999 SCT019
                      PROB40 TEMPO 3018/3021 BKN014=
200909300800 TAF LMML 300800Z 3009/3018 09007KT 9999 SCT017=
200909300500 TAF LMML 300500Z 3006/3015 09007KT 9999 SCT017
                      PROB30 TEMPO 3006/3009 BKN015=
200909300200 TAF LMML 300200Z 3003/3012 10006KT 9999 FEW014
                      TEMPO 3003/3012 BKN013=
200909292300 TAF LMML 292300Z 3000/3009 09006KT 9999 FEW014
                      TEMPO 3000/3009 BKN011=
200909292000 TAF LMML 292000Z 2921/3006 09005KT 9999 FEW015
                      TEMPO 2921/3006 BKN013
                      PROB30 TEMPO 3000/3006 9000 BKN009=
200909291700 TAF LMML 291700Z 2918/3003 10008KT 9999 SCT015
                      PROB30 TEMPO 2921/3003 9000 BKN010=
200909291400 TAF LMML 291400Z 2915/2924 08009KT 9999 SCT020
                      PROB30 TEMPO 2918/2924 BKN015=
200909291100 TAF LMML 291100Z 2912/2921 06008KT 9999 SCT020
                      PROB30 TEMPO 2918/2921 BKN015=
200909290800 TAF LMML 290800Z 2909/2918 07008KT 9999 SCT020=
200909290500 TAF LMML 290500Z 2906/2915 04007KT 9999 FEW020=
200909290200 TAF LMML 290200Z 2903/2912 04007KT 9999 FEW015
                      PROB30 TEMPO 2903/2905 9000 BKN011=
200909282300 TAF LMML 282300Z 2900/2909 04007KT 9999 FEW015
                      PROB30 TEMPO 2900/2905 9000 BKN011=
200909282000 TAF LMML 282000Z 2821/2806 03008KT 9999 SCT015
                      PROB40 TEMPO 2821/2905 9000 BKN011=
200909281700 TAF LMML 281700Z 2818/2903 05007KT 9999 FEW017
                      TEMPO 2818/2903 BKN014
                      PROB30 TEMPO 2823/2903 8000 BKN008=
200909281400 TAF LMML 281400Z 2815/2824 02010KT 9999 FEW024=
200909281100 TAF LMML 281100Z 2812/2821 02012KT 9999 SCT020=
200909280800 TAF LMML 280800Z 2809/2818 36010KT 9999 SCT018=
200909280500 TAF LMML 280500Z 2806/2815 36005KT 9999 SCT025=
200909280200 TAF LMML 280200Z 2803/2812 34005KT 9999 FEW025=
200909272300 TAF LMML 272300Z 2800/2809 34005KT 9999 FEW025=
200909272000 TAF LMML 272000Z 2721/2806 34005KT 9999 FEW025=
200909271700 TAF LMML 271700Z 2718/2803 VRB03KT 9999 FEW025=
200909271400 TAF LMML 271400Z 2715/2724 33004KT 9999 FEW025=
200909271100 TAF LMML 271100Z 2712/2721 03006KT 9999 FEW025=
200909270800 TAF LMML 270800Z 2709/2718 03005KT 9999 FEW020
                      PROB30 TEMPO 2709/2715 8000 SHRA BKN018=
200909270500 TAF LMML 270500Z 2706/2715 34006KT 9000 SCT020
                      BECMG 2706/2707 9999
                      TEMPO 2706/2715 8000 SHRA BKN015TCU
                      PROB30 TEMPO 2706/2710 3000 TSRA BKN015CB=
200909270200 TAF LMML 270200Z 2703/2712 03004KT 9999 FEW020
                      PROB30 TEMPO 2703/2706 8000=
200909262300 TAF LMML 262300Z 2700/2709 29004KT 9999 FEW015
                      PROB30 TEMPO 2700/2706 8000=
200909262000 TAF LMML 262000Z 2621/2706 30004KT 9999 FEW020
                      PROB30 TEMPO 2702/2706 9000=
200909261700 TAF LMML 261700Z 2618/2703 29006KT 9999 FEW030=
200909261400 TAF LMML 261400Z 2615/2624 32008KT 9999 FEW030=
200909261100 TAF LMML 261100Z 2612/2621 32010KT 9999 SCT025=
200909260800 TAF LMML 260800Z 2609/2618 32009KT 9999 SCT020=
200909260500 TAF LMML 260500Z 2606/2615 31008KT 9999 FEW018=
200909260200 TAF LMML 260200Z 2603/2612 31008KT 9999 FEW018
                      PROB40 TEMPO 2603/2612 8000 SHRA BKN015TCU=
200909252300 TAF LMML 252300Z 2600/2609 31006KT 9999 FEW018
                      PROB40 TEMPO 2600/2609 8000 SHRA BKN015TCU=
200909252000 TAF LMML 252000Z 2521/2606 30006KT 9999 FEW025
                      PROB40 TEMPO 2523/2606 8000 SHRA BKN015TCU=
200909251700 TAF LMML 251700Z 2518/2603 29006KT 9999 SCT020
                      TEMPO 2518/2603 8000 SHRA BKN015TCU
                      PROB30 TEMPO 2518/2603 3000 TSRA BKN015CB=
200909251400 TAF LMML 251400Z 2515/2524 30006KT 9999 SCT020
                      TEMPO 2515/2524 8000 SHRA BKN015TCU
                      PROB30 TEMPO 2515/2524 3000 TSRA BKN015CB=
200909251100 TAF LMML 251100Z 2512/2521 28008KT 9999 SCT025
                      TEMPO 2512/2521 8000 SHRA BKN015
                      PROB30 TEMPO 2512/2518 3000 TSRA BKN015CB=
200909250800 TAF LMML 250800Z 2509/2518 28008KT 9999 SCT020 SCT120
                      TEMPO 2509/2518 8000 SHRA BKN015
                      PROB30 TEMPO 2509/2512 3000 TSRA BKN015CB=
200909250500 TAF LMML 250500Z 2506/2515 27008KT 9999 FEW025
                      TEMPO 2506/2515 6000 SHRA FEW008 BKN015
                      PROB40 TEMPO 2506/2509 5000 TSRA SCT008 BKN015CB=
200909250200 TAF LMML 250200Z 2503/2512 26005KT 9999 SCT025
                      TEMPO 2503/2512 5000 SHRA BKN018
                      PROB30 TEMPO 2503/2506 3000 TSRA FEW008 BKN015CB=
200909242300 TAF LMML 242300Z 2500/2509 23004KT 9999 SCT025 SCT045
                      TEMPO 2500/2509 5000 SHRA BKN015
                      PROB40 TEMPO 2500/2509 3000 TSRA SCT008 BKN015CB=
200909242000 TAF LMML 242000Z 2421/2506 24004KT 9999 SCT025 SCT050
                      TEMPO 2421/2506 5000 SHRA BKN015
                      PROB40 TEMPO 2422/2506 3000 TSRA FEW008 BKN015CB=
200909241700 TAF LMML 241700Z 2418/2503 23008KT 9999 SCT020 SCT050
                      PROB30 TEMPO 2421/2503 4000 TSRA BKN015CB=
200909241400 TAF LMML 241400Z 2415/2424 23010KT 9999 SCT020
                      TEMPO 2421/2424 8000 SHRA
                      PROB30 TEMPO 2421/2424 4000 TSRA BKN015CB=
200909241100 TAF LMML 241100Z 2412/2421 24012KT 9999 SCT020
                      PROB30 TEMPO 2418/2421 8000 SHRA BKN015 BKN100=
200909240800 TAF LMML 240800Z 2409/2418 25012KT 9999 FEW020
                      PROB30 TEMPO 2409/2415 8000 SHRA BKN015=
200909240500 TAF LMML 240500Z 2406/2415 14015KT 9999 FEW020
                      BECMG 2406/2409 24012KT=
200909240200 TAF LMML 240200Z 2403/2412 13023G35KT 9999 BKN020
                      TEMPO 2403/2409 7000 SHRA BKN015
                      TEMPO 2403/2406 5000 TSRA BKN015CB
                      BECMG 2406/2409 24015KT=
200909232300 TAF LMML 232300Z 2400/2409 13023G35KT 9999 BKN020
                      TEMPO 2400/2409 7000 SHRA BKN015
                      TEMPO 2400/2406 5000 TSRA BKN013CB
                      BECMG 2406/2409 24015KT=
200909232000 TAF LMML 232000Z 2321/2406 13023G35KT 9999 BKN020
                      TEMPO 2321/2406 7000 SHRA BKN015
                      TEMPO 2321/2406 5000 TSRA BKN013CB=
200909231700 TAF LMML 231700Z 2318/2403 10020KT 9999 SCT020 BKN120
                      TEMPO 2318/2324 10030KT
                      TEMPO 2318/2403 8000 RA FEW008 BKN015=
200909231400 TAF LMML 231400Z 2315/2324 10020KT 9999 SCT018 BKN030
                      TEMPO 2315/2324 9000 SHRA FEW008 BKN015
                      TEMPO 2315/2324 10030KT=
200909231100 TAF LMML 231100Z 2312/2321 10015KT 9999 SCT018 BKN040
                      TEMPO 2312/2318 8000 RA FEW008 BKN018
                      PROB30 2312/2315 5000 TSRA SCT008 BKN015CB
                       BECMG 2312/2315 10025KT=
200909230800 TAF LMML 230800Z 2309/2318 10015KT 9999 SCT025 BKN100
                      TEMPO 2309/2315 8000 RA BKN015 BKN050
                      PROB30 TEMPO 2309/2315 5000 TSRA FEW008 BKN015CB
                       BECMG 2312/2315 10025KT=
200909230500 TAF LMML 230500Z 2306/2315 10014KT 9999 SCT020 BKN100
                      TEMPO 2306/2315 8000 RA BKN015 BKN080
                      PROB30 TEMPO 2306/2315 3000 TSRA BKN015CB
                       BKN060
                      BECMG 2312/2315 10024KT=
200909230200 TAF LMML 230200Z 2303/2312 10014KT 9999 FEW020 BKN120
                      TEMPO 2303/2312 8000 RA BKN015 BKN100
                      PROB30 TEMPO 2303/2312 3000 TSRA BKN015CB
                       BKN080=
200909222300 TAF LMML 222300Z 2300/2309 07007KT 9999 FEW025
                      TEMPO 2300/2309 8000 RA BKN015 SCT100
                      PROB30 TEMPO 2300/2309 3000 TSRA BKN015CB
                       BKN080
                      BECMG 2304/2307 11017KT=
200909222000 TAF LMML 222000Z 2221/2306 08008KT 9999 FEW025
                      TEMPO 2301/2306 8000 RA BKN015 SCT120
                      PROB30 TEMPO 2303/2306 3000 TSRA BKN015CB
                       BKN080=
200909221700 TAF LMML 221700Z 2218/2303 09008KT 9999 FEW025
                      PROB30 TEMPO 2201/2203 7000 RA BKN15=
200909221400 TAF LMML 221400Z 2215/2224 06006KT 9999 FEW030=
200909221100 TAF LMML 221100Z 2212/2221 04006KT 9999 FEW030=
200909220800 TAF LMML 220800Z 2209/2218 36004KT 9999 FEW025=
200909220500 TAF LMML 220500Z 2206/2215 28004KT 9999 FEW023=
200909220200 TAF LMML NIL=
200909212300 TAF LMML 212300Z 2200/2209 VRB04KT 9999 FEW020
                      PROB30 TEMPO 2200/2206 8000 SHRA=
200909212000 TAF LMML 212000Z 2121/2206 33005KT 9999 FEW020
                      PROB40 TEMPO 2121/2206 8000 SHRA
                      PROB30 TEMPO 2118/2203 5000 TSRA BKN015CB=
200909211700 TAF LMML 211700Z 2118/2203 30006KT 9999 FEW025 BKN120
                      TEMPO 2118/2203 8000 SHRA
                      PROB30 TEMPO 2118/2124 3000 TSRA BKN015CB
                       BKN080=
200909211400 TAF LMML 211400Z 2115/2124 29008KT 9999 SCT030 SCT120
                      TEMPO 2115/2124 8000 SHRA
                      PROB30 TEMPO 2115/2118 3000 TSRA BKN015CB
                       BKN080=
200909211100 TAF LMML 211100Z 2112/2121 29007KT 9999 FEW030 SCT120
                      TEMPO 2112/2121 8000 SHRA
                      PROB30 TEMPO 2112/2118 3000 TSRA BKN015CB
                       BKN090=
200909210800 TAF LMML 210800Z 2109/2118 28007KT 9999 SCT025 SCT120
                      TEMPO 2109/2118 8000 SHRA BKN015TCU
                      PROB30 TEMPO 2109/2118 3000 TSRA BKN015CB=
200909210500 TAF LMML 210500Z 2106/2115 31008KT 9999 FEW025 SCT120
                      PROB40 TEMPO 2109/2115 8000 SHRA SCT015 BKN040
                       PROB30
                      TEMPO 2109/2115 5000 TSRA BKN015CB=
200909210200 TAF LMML 210200Z 2103/2112 32008KT 9999 FEW025 BKN120
                      PROB30 TEMPO 2104/2112 8000 RA SCT015 BKN080=
200909202300 TAF LMML 202300Z 2100/2109 32005KT 9999 FEW020 BKN120
                      PROB30 TEMPO 2102/2109 8000 SHRA SCT015 BKN100=
200909202000 TAF LMML 202000Z 2021/2106 32005KT 9999 FEW020
                      PROB40 TEMPO 2100/2106 8000 SHRA BKN015=
200909201700 TAF LMML 201700Z 2018/2103 30009KT 9999 FEW025
                      PROB30 TEMPO 2100/2103 9000 SHRA SCT018TCU=
200909201400 TAF LMML 201400Z 2015/2024 32012KT 9999 FEW030=
200909201100 TAF LMML 201100Z 2012/2021 31010KT 9999 FEW028=
200909200800 TAF LMML 200800Z 2009/2018 32010KT 9999 FEW025
                      TEMPO 2009/2018 CAVOK=
200909200500 TAF LMML 200500Z 2006/2015 30010KT 9999 FEW025
                      PROB40 TEMPO 2006/2008 9000 SHRA
                      PROB30 TEMPO 2006/2008 5000 TSRA BKN015CB=
200909200200 TAF LMML 200200Z 2003/2012 04008KT 9999 FEW020
                      PROB40 TEMPO 2003/2006 9000 SHRA
                      PROB30 TEMPO 2203/2006 5000 TSRA BKN015CB=
200909192300 TAF LMML 192300Z 2000/2009 06007KT 9999 FEW020
                      PROB40 TEMPO 2000/2006 9000 SHRA
                      PROB30 TEMPO 2000/2006 6000 TSRA BKN015CB=
200909192000 TAF LMML 192000Z 1921/2006 06008KT 9999 FEW020
                      PROB40 TEMPO 1921/2006 6000 TSRA BKN018CB=
200909191700 TAF LMML 191700Z 1918/2003 04005KT 9999 FEW018 SCT100
                      PROB40 TEMPO 1918/2003 8000 RA SCT015 BKN080=
200909191400 TAF LMML 191400Z 1915/1924 08008KT 9999 FEW018 SCT100
                      PROB40 TEMPO 1915/1924 8000 RA SCT015 BKN080=
200909191100 TAF LMML 191100Z 1912/1921 12010KT 9999 FEW020 SCT120
                      PROB30 TEMPO 1915/1921 9000 SHRA SCT015 BKN100=
200909190800 TAF LMML 190800Z 1909/1918 12010KT 9999 FEW018 SCT120
                      PROB30 TEMPO 1915/1918 9000 SHRA SCT015 BKN100=
200909190500 TAF LMML 190500Z 1906/1915 12007KT 9999 FEW020 SCT120=
200909190200 TAF LMML 190200Z 1903/1912 12006KT 9999 SCT015
                      PROB30 TEMPO 1903/1906 9000 BKN010=
200909182300 TAF LMML 182300Z 1900/1909 10005KT 9999 FEW015=
200909182000 TAF LMML 182000Z 1821/1906 06004KT 9999 FEW015=
200909181700 TAF LMML 181700Z 1818/1903 12005KT 9999 FEW015=
200909181400 TAF LMML 181400Z 1815/1824 11006KT 9999 FEW018=
200909181100 TAF LMML 181100Z 1812/1821 14006KT 9999 FEW025=
200909180800 TAF LMML 180800Z 1809/1818 VRB05KT 9999 FEW020=
200909180500 TAF LMML 180500Z 1806/1815 VRB05KT CAVOK
                      TEMPO 1806/1815 9999 FEW012=
200909180200 TAF LMML 180200Z 1803/1812 VRB05KT CAVOK
                      TEMPO 1803/1812 9999 FEW012
                      PROB30 TEMPO 1803/1806 8000 BKN008=
200909172300 TAF LMML 172300Z 1800/1809 33010KT CAVOK
                      TEMPO 1802/1809 9999 FEW012
                      PROB30 TEMPO 1802/1806 8000 BKN008
                      BECMG 1803/1806 VRB05KT=
200909172000 TAF LMML 172000Z 1721/1806 33010KT CAVOK
                      PROB40 TEMPO 1802/1806 9999 FEW011
                      PROB30 TEMPO 1802/1806 7000 BKN007
                      BECMG 1803/1806 06005KT=
200909171700 TAF LMML 171700Z 1718/1803 29014KT 9999 FEW020
                      BECMG 1718/1721 CAVOK
                      BECMG 1800/1803 35007KT=
200909171400 TAF LMML 171400Z 1715/1724 31014KT 9999 FEW025
                      BECMG 1715/1718 CAVOK=
200909171100 TAF LMML 171100Z 1712/1721 31014KT 9999 FEW020
                      PROB30 TEMPO 1712/1718 30015G25KT
                      BECMG 1715/1718 CAVOK=
200909170800 TAF LMML 170800Z 1709/1718 34014KT 9999 SCT015
                      BECMG 1712/1715 CAVOK
                      PROB30 TEMPO 1712/1718 30015G25KT=
200909170500 TAF LMML 170500Z 1706/1715 30005KT 9999 FEW005
                      BECMG 1706/1709 30015KT FEW018=
200909170200 TAF LMML 170200Z 1703/1712 30005KT 5000 SCT005
                      BECMG 1706/1709 30015KT 9999 FEW015=
200909162300 TAF LMML 162300Z 1700/1709 VRB03KT 9999 FEW006
                      TEMPO 1700/1706 BKN005
                      BECMG 1705/1708 9999 30015KT=
200909162004 TAF LMML 162004Z 1621/1706 13008KT 9999 SCT005
                      TEMPO 1621/1705 6000 BKN005
                      PROB30 TEMPO 1622/1705 5000 TSRA SCT003 BKN018CB=
200909162000 TAF LMML 162000Z 1621/1706 13005KT CAVOK
                      PROB3O TEMPO 1703/1706 8000 SCT008=
200909161700 TAF LMML 161700Z 1618/1703 18010KT CAVOK
                      TEMPO 1618/1703 9000 DU NSC
                      BECMG 1621/1624 VRB04KT
                      PROB40 TEMPO 1621/1703 SCT010=
200909161630 TAF LMML NIL=
200909161400 TAF LMML 161400Z 1615/1624 18010KT 9999 DU NSC
                      TEMPO 1615/1624 CAVOK
                      PROB40 TEMPO 1615/1621 FEW012
                      PROB30 TEMPO 1615/1618 9000 SHRA SCT015TCU
                       BECMG 1618/1621 10005KT=
200909161100 TAF LMML 161100Z 1612/1621 18010KT CAVOK
                      TEMPO 1612/1621 9999 FEW012
                      BECMG 1617/1620 12005KT=
200909160500 TAF LMML 160500Z 1606/1615 15016KT 9999 SCT015 SCT120
                      TEMPO 1606/1609 BKN015 BKN090=
200909160200 TAF LMML 160200Z 1603/1612 15015KT 9999 SCT012 BKN100
                      TEMPO 1603/1612 7000 RA BKN008
                      PROB30 TEMPO 1603/1609 6000 TSRA BKN060CB=
200909152300 TAF LMML 152300Z 1600/1609 14015KT 9999 SCT012 BKN100
                      TEMPO 1600/1609 7000 RA BKN008=
200909152000 TAF LMML 152000Z 1521/1606 14015KT 9999 SCT012 BKN120
                      TEMPO 1521/1606 7000 RA BKN007 BKN100=
200909151700 TAF LMML 151700Z 1518/1603 14010KT 9999 FEW015
                      PROB30 TEMPO 1521/1603 8000 BKN008=
200909151400 TAF LMML 151400Z 1515/1524 14012KT 9999 FEW020=
200909151100 TAF LMML 151100Z 1512/1521 14015KT 9999 FEW025=
200909150800 TAF LMML 150800Z 1509/1518 16005KT 9999 FEW025
                      BECMG 1514/1517 13015KT=
200909150500 TAF LMML 150500Z 1506/1515 15008KT 9999 SCT020=
200909150200 TAF LMML 150200Z 1503/1512 VRB03KT CAVOK
                      BECMG 1503/1506 17007KT 9999 FEW020=
200909142300 TAF LMML 142300Z 1500/1509 22004KT CAVOK
                      TEMPO 1500/1509 9999 FEW020
                      BECMG 1506/1509 16010KT=
200909142000 TAF LMML 142000Z 1421/1506 22004KT CAVOK
                      TEMPO 1421/1506 9999 FEW020=
200909141700 TAF LMML 141700Z 1418/1503 24004KT 9999 FEW025 SCT120 BKN250=
200909141400 TAF LMML 141400Z 1415/1424 24008KT 9999 SCT025=
200909141100 TAF LMML 141100Z 1412/1421 28010KT 9999 SCT025 SCT250
                      BECMG 1418/1421 22005KT=
200909140800 TAF LMML 140800Z 1409/1418 29008KT 9999 SCT025 BKN250=
200909140500 TAF LMML 140500Z 1406/1415 29008KT CAVOK
                      TEMPO 1406/1415 9999 FEW025=
200909140200 TAF LMML 140200Z 1403/1412 29008KT 9999 FEW025
                      TEMPO 1403/1412 CAVOK=
200909132300 TAF LMML 132300Z 1400/1409 29006KT 9999 FEW020=
200909132000 TAF LMML 132000Z 1321/1406 30006KT 9999 FEW030
                      PROB40 TEMPO 1321/1406 CAVOK=
200909131700 TAF LMML 131700Z 1318/1403 31008KT 9999 FEW025
                      PROB30 TEMPO 1318/1324 8000 SHRA=
200909131400 TAF LMML 131400Z 1315/1324 30008KT 9999 FEW025 SCT100
                      TEMPO 1315/1321 8000 SHRA
                      PROB30 TEMPO 1315/1318 3000 TSRA BKN015CB
                       BKN080=
200909131100 TAF LMML 131100Z 1312/1321 32008KT 9999 FEW025 SCT100
                      TEMPO 1312/1321 8000 RA BKN015 BKN080
                      PROB30 TEMPO 1312/1318 3000 TSRA BKN015CB
                       BKN070=
200909130800 TAF LMML 130800Z 1309/1318 30008KT 9999 SCT020 BKN080
                      TEMPO 1309/1318 8000 RA BKN015 BKN070
                      PROB30 TEMPO 1309/1315 3000 TSRA BKN015CB
                       BKN070=
200909130500 TAF LMML 130500Z 1306/1315 30010KT 9999 FEW025 BKN100
                      TEMPO 1306/1315 6000 RA BKN030
                      PROB40 TEMPO 1306/1315 3000 TSRA BKN015CB=
200909130200 TAF LMML 130200Z 1303/1312 28008KT 9999 FEW025 SCT100
                      TEMPO 1303/1312 8000 RA SCT018 BKN080
                      PROB40 TEMPO 1306/1312 5000 TSRA SCT018CB
                       BKN030=
200909122300 TAF LMML 122300Z 1300/1309 28004KT 9999 FEW025 SCT100
                      TEMPO 1300/1309 8000 RA SCT020 BKN090
                      PROB40 TEMPO 1303/1309 5000 TSRA SCT018CB
                       BKN035=
200909122000 TAF LMML 122000Z 1221/1306 29004KT 9999 FEW025 SCT120
                      PROB30 TEMPO 1221/1306 9000 SHRA SCT015 BKN100=
200909121700 TAF LMML 121700Z 1218/1303 29008KT 9999 FEW030 BKN130 OVC200
                      PROB30 TEMPO 1300/1303 8000 RA=
200909121400 TAF LMML 121400Z 1215/1224 30010KT 9999 SCT030 SCT250=
200909121100 TAF LMML 121100Z 1212/1221 28009KT 9999 SCT030 SCT250=
200909120800 TAF LMML 120800Z 1209/1218 30009KT 9999 SCT025=
200909120500 TAF LMML 120500Z 1206/1215 30008KT 9999 FEW030=
200909120200 TAF LMML 120200Z 1203/1212 30008KT 9999 FEW030=
200909112300 TAF LMML 112300Z 1200/1209 30006KT 9999 FEW030
                      TEMPO 1200/1204 CAVOK=
200909112000 TAF LMML 112000Z 1121/1206 31005KT 9999 FEW030
                      PROB40 TEMPO 1121/1204 CAVOK=
200909111700 TAF LMML 111700Z 1118/1203 30005KT 9999 FEW025=
200909111400 TAF LMML 111400Z 1115/1124 33005KT 9999 FEW030=
200909111100 TAF LMML 111100Z 1112/1121 34008KT 9999 FEW030=
200909110800 TAF LMML 110800Z 1109/1118 33012KT 9999 FEW030=
200909110500 TAF LMML 110500Z 1106/1115 31009KT 9999 FEW025
                      PROB30 TEMPO 1106/1115 8000 SHRA BKN015TCU=
200909110200 TAF LMML 110200Z 1103/1112 35010KT 9999 SCT020
                      TEMPO 1103/1109 8000 SHRA BKN015TCU
                      PROB30 TEMPO 1103/1106 3000 TSRA BKN015CB=
200909102300 TAF LMML 102300Z 1100/1109 02010KT 9999 FEW025
                      TEMPO 1100/1109 8000 SHRA
                      PROB30 TEMPO 1100/1103 3000 TSRA BKN015CB
                       BECMG 1100/1103 32008KT=
200909102000 TAF LMML 102000Z 1021/1106 33009KT 9999 FEW025
                      TEMPO 1021/1106 8000 SHRA BKN015TCU
                      PROB30 TEMPO 1021/1024 3000 TSRA BKN015CB=
200909101700 TAF LMML 101700Z 1018/1103 36010KT 9999 FEW025
                      PROB40 TEMPO 1018/1103 8000 SHRA BKN015
                      PROB30 TEMPO 1018/1024 4000 TSRA BKN015CB=
200909101400 TAF LMML 101400Z 1015/1024 02010KT 9999 FEW030
                      PROB40 TEMPO 1015/1024 8000 SHRA BKN015
                      PROB30 TEMPO 1015/1024 4000 TSRA BKN015CB=
200909101100 TAF LMML 101100Z 1012/1021 03010KT 9999 FEW028
                      PROB40 TEMPO 1012/1021 8000 SHRA BKN015
                      PROB30 TEMPO 1012/1021 4000 TSRA BKN015CB=
200909100800 TAF LMML 100800Z 1009/1018 04010KT 9999 FEW028
                      PROB40 TEMPO 1009/1018 7000 SHRA BKN018TCU
                       PROB30
                      TEMPO 1009/1015 4000 TSRA BKN015CB=
200909100500 TAF LMML 100500Z 1006/1015 05010KT 9999 SCT025 BKN100
                      TEMPO 1006/1015 8000 SHRA BKN020TCU
                      PROB30 TEMPO 1006/1015 4000 TSRA BKN015CB=
200909100200 TAF LMML 100200Z 1003/1012 04010KT 9999 SCT020 BKN100
                      TEMPO 1003/1012 8000 SHRA BKN015TCU
                      PROB30 TEMPO 1003/1012 4000 TSRA BKN015CB=
200909092300 TAF LMML 092300Z 1000/1009 06010KT 9999 SCT020 BKN080
                      TEMPO 1000/1009 8000 SHRA BKN015TCU
                      PROB30 TEMPO 1000/1009 4000 TSRA BKN015CB=
200909092000 TAF LMML 092000Z 0921/1006 04009KT 9999 SCT020 BKN080
                      TEMPO 0921/1006 8000 SHRA BKN020TCU
                      PROB30 TEMPO 0921/1006 4000 TSRA BKN015CB=
200909091700 TAF LMML 091700Z 0918/1003 11010KT 9999 SCT025TCU SCT100
                      TEMPO 0918/1003 8000 SHRA
                      PROB40 TEMPO 0918/1003 3000 TSRA BKN015CB
                       BKN080=
200909091400 TAF LMML 091400Z 0915/0924 12010KT 9999 SCT025 SCT100
                      TEMPO 0915/0924 8000 SHRA
                      PROB30 TEMPO 0915/0924 3000 TSRA BKN015CB
                       BKN020 BKN080=
200909091100 TAF LMML 091100Z 0912/0921 11010KT 9999 FEW025 SCT100
                      TEMPO 0912/0921 8000 SHRA
                      PROB30 TEMPO 0912/0921 3000 TSRA BKN015CB
                       SCT020 BKN080=
200909090800 TAF LMML 090800Z 0909/0918 13010KT 9999 SCT030 BKN070
                      TEMPO 0909/0918 8000 SHRA
                      PROB30 TEMPO 0909/0918 3000 TSRA BKN015CB
                       BKN025 BKN060=
200909090500 TAF LMML 090500Z 0906/0915 10010KT 9999 SCT018 BKN080
                      TEMPO 0906/0915 8000 SHRA
                      PROB30 TEMPO 0906/0915 5000 TSRA BKN015CB=
200909090200 TAF LMML 090200Z 0903/0912 09005KT 9999 SCT020 BKN080
                      TEMPO 0903/0912 8000 SHRA BKN015
                      PROB30 TEMPO 0903/0912 5000 TSRA BKN015CB=
200909082300 TAF LMML 082300Z 0900/0909 08005KT 9999 FEW025 SCT100
                      TEMPO 0900/0909 8000 SHRA BKN015=
200909082000 TAF LMML 082000Z 0821/0906 07005KT 9999 FEW025 SCT070
                      TEMPO 0900/0906 8000 SHRA BKN015
                      PROB30 TEMPO 0903/0906 5000 TSRA BKN015CB=
200909081700 TAF LMML 081700Z 0818/0903 09006KT 9999 FEW025
                      PROB30 TEMPO 0900/0903 8000 SHRA=
200909081400 TAF LMML 081400Z 0815/0824 08007KT 9999 SCT030 BKN050
                      PROB30 TEMPO 0821/0824 8000 SHRA=
200909081100 TAF LMML 081100Z 0812/0821 05007KT 9999 BKN030=
200909080800 TAF LMML 080800Z 0809/0818 06007KT 9999 SCT020=
200909080500 TAF LMML 080500Z 0806/0815 07006KT 9999 FEW025=
200909080200 TAF LMML 080200Z 0803/0812 08005KT 9999 FEW025
                      PROB30 TEMPO 0803/0809 7000 SHRA BKN015=
200909072300 TAF LMML 072300Z 0800/0809 08005KT 9999 FEW020
                      PROB30 TEMPO 0800/0809 7000 SHRA BKN015=
200909071700 TAF LMML 071700Z 0718/0803 06004KT 9999 FEW025
                      TEMPO 0718/0803 5000 SHRA BKN015=
200909071400 TAF LMML 071400Z 0715/0724 07005KT 9999 SCT025
                      PROB40 TEMPO 0715/0724 9000 SHRA BKN015=
200909071100 TAF LMML 071100Z 0712/0721 07008KT 9999 FEW025
                      PROB30 TEMPO 0712/0721 9000 SHRA BKN015=
200909070800 TAF LMML 070800Z 0709/0718 05010KT 9999 FEW020
                      PROB30 TEMPO 0709/0718 9000 SHRA BKN015=
200909070500 TAF LMML 070500Z 0706/0715 02013KT 9999 SCT020
                      TEMPO 0706/0715 8000 SHRA BKN015
                      PROB30 TEMPO 0706/0715 3000 TSRA BKN015CB
                       BECMG 0712/715 08007KT=
200909070200 TAF LMML 070200Z 0703/0712 32008KT 9999 SCT020
                      BECMG 0703/0706 04010KT
                      TEMPO 0703/0712 8000 SHRA BKN015
                      PROB30 TEMPO 0703/0712 3000 TSRA BKN015CB=
200909062300 TAF LMML 062300Z 0700/0709 32008KT CAVOK
                      BECMG 0700/0703 03010KT 9999 SCT020
                      PROB30 TEMPO 0700/0709 8000 SHRA BKN015=
200909062000 TAF LMML 062000Z 0621/0706 30010KT CAVOK
                      BECMG 0621/0624 9999 SCT020
                      BECMG 0623/0702 02008KT
                      PROB30 TEMPO 0700/0706 8000 SHRA BKN015=
200909061700 TAF LMML 061700Z 0618/0703 30010KT 9999 FEW020
                      BECMG 0622/0703 02010KT
                      PROB40 TEMPO 0700/0703 6000 SHRA BKN015=
200909061400 TAF LMML 061400Z 0615/0624 30013KT 9999 FEW020
                      BECMG 0622/0624 02010KT=
200909061100 TAF LMML 061100Z 0612/0621 30015KT 9999 FEW020
                      PROB30 TEMPO 0609/0618 CAVOK=
200909060800 TAF LMML 060800Z 0609/0618 30015KT 9999 FEW020
                      PROB0 TEMPO 0609/0618 CAVOK=
200909060500 TAF LMML 060500Z 0606/0615 30013KT CAVOK=
200909060200 TAF LMML 060200Z 0603/0612 31010KT CAVOK
                      PROB30 TEMPO 0603/0606 9999 FEW013=
200909052300 TAF LMML 052300Z 0600/0609 31010KT CAVOK
                      PROB30 0600/06006 9999 FEW013=
200909052000 TAF LMML 052000Z 0521/0606 30012KT 9999 FEW016
                      TEMPO 0521/0606 CAVOK=
200909051700 TAF LMML 051700Z 0518/0603 29010KT 9999 FEW020=
200909051400 TAF LMML 051400Z 0515/0524 30010KT 9999 FEW025=
200909051100 TAF LMML 051100Z 0512/0521 31009KT 9999 FEW030=
200909050800 TAF LMML 050800Z 0509/0518 31009KT 9999 FEW020=
200909050500 TAF LMML 050500Z 0506/0515 30010KT 9999 FEW020=
200909050200 TAF LMML 050200Z 0503/0512 30006KT 9999 FEW015=
200909042300 TAF LMML 042300Z 0500/0509 30004KT 9999 FEW015=
200909042000 TAF LMML 042000Z 0421/0506 29004KT 9999 FEW015
                      PROB30 TEMPO 0503/0505 9000 BKN012=
200909041700 TAF LMML 041700Z 0418/0503 25006KT 9999 FEW015=
200909041400 TAF LMML 041400Z 0415/0424 27007KT 9999 FEW025=
200909041100 TAF LMML 041100Z 0412/0421 24008KT 9999 FEW025=
200909040800 TAF LMML 040800Z 0409/0418 23007KT 9999 FEW025=
200909040500 TAF LMML 040500Z 0406/0415 27008KT 9999 FEW020=
200909040200 TAF LMML 040200Z 0403/0412 27007KT 9999 FEW018=
200909032300 TAF LMML 032300Z 0400/0409 25004KT 9999 FEW015=
200909032000 TAF LMML 032000Z 0321/0406 24004KT 9999 FEW020
                      PROB30 TEMPO 0321/0405 CAVOK=
200909031700 TAF LMML 031700Z 0318/0403 24004KT 9999 FEW020
                      PROB30 TEMPO 0322/0403 9000 BKN012=
200909031400 TAF LMML 031400Z 0315/0324 18005KT 9999 FEW020=
200909031100 TAF LMML 031100Z 0312/0321 18005KT 9999 FEW020=
200909030800 TAF LMML 030800Z 0309/0318 15006KT 9999 FEW020=
200909030500 TAF LMML NIL=
200909030200 TAF LMML 030200Z 0303/0312 16004KT 9999 FEW015
                      PROB30 TEMPO 0303/0306 8000 BKN008=
200909022300 TAF LMML 022300Z 0300/0309 15004KT 9999 FEW015
                      PROB30 TEMPO 0300/0306 8000 BKN008=
200909022000 TAF LMML 022000Z 0221/0306 14005KT 9999 FEW020
                      PROB30 0221/0306 9000 BKN010=
200909021700 TAF LMML 021700Z 0218/0303 14004KT 9999 FEW020=
200909021400 TAF LMML 021400Z 0215/0224 14006KT 9999 FEW020=
200909021100 TAF LMML 021100Z 0212/0221 14006KT 9999 FEW020
                      PROB40 TEMPO 0212/0218 CAVOK=
200909020800 TAF LMML 020800Z 0209/0218 14005KT 9999 SCT020=
200909020500 TAF LMML 020500Z 0206/0215 17006KT 9999 FEW025=
200909020200 TAF LMML 020200Z 0203/0212 16006KT 9999 FEW025=
200909012300 TAF LMML 012300Z 0200/0209 19006KT 9000 SCT015=
200909012000 TAF LMML 012000Z 0121/0206 13006KT 9999 SCT015=
200909011700 TAF LMML 011700Z 0118/0203 13006KT 9999 FEW020
                      PROB30 TEMPO 0121/0203 9000 BKN010=
200909011400 TAF LMML 011400Z 0115/0124 12008KT 9999 FEW025=
200909011100 TAF LMML 011100Z 0112/0121 12008KT 9999 SCT025=
200909010800 TAF LMML 010800Z 0109/0118 12007KT 9999 FEW025=
200909010500 TAF LMML 010500Z 0106/0115 12006KT 9999 FEW025=
200909010200 TAF LMML 010200Z 0103/0112 12004KT 9999 FEW020
                      TEMPO 0103/0106 9000 BKN012=

###################################
#  large TAF from LMML
###################################
200910012300 TAF LMML NIL=
200910011700 TAF LMML NIL=
200910011100 TAF LMML NIL=
200910010500 TAF LMML NIL=
200909302300 TAF LMML NIL=
200909301700 TAF LMML NIL=
200909301100 TAF LMML NIL=
200909300500 TAF LMML NIL=
200909292300 TAF LMML NIL=
200909291700 TAF LMML NIL=
200909291100 TAF LMML NIL=
200909290500 TAF LMML NIL=
200909282300 TAF LMML NIL=
200909281700 TAF LMML NIL=
200909281100 TAF LMML NIL=
200909280500 TAF LMML NIL=
200909272300 TAF LMML NIL=
200909271700 TAF LMML NIL=
200909271100 TAF LMML NIL=
200909270500 TAF LMML NIL=
200909262300 TAF LMML NIL=
200909261700 TAF LMML NIL=
200909261100 TAF LMML NIL=
200909260500 TAF LMML NIL=
200909252300 TAF LMML NIL=
200909251700 TAF LMML NIL=
200909251100 TAF LMML NIL=
200909250500 TAF LMML NIL=
200909242300 TAF LMML NIL=
200909241700 TAF LMML NIL=
200909241100 TAF LMML NIL=
200909240500 TAF LMML NIL=
200909232300 TAF LMML NIL=
200909231700 TAF LMML NIL=
200909231100 TAF LMML NIL=
200909230500 TAF LMML NIL=
200909222300 TAF LMML NIL=
200909221700 TAF LMML NIL=
200909221100 TAF LMML NIL=
200909220500 TAF LMML NIL=
200909212300 TAF LMML NIL=
200909211700 TAF LMML NIL=
200909211100 TAF LMML NIL=
200909210500 TAF LMML NIL=
200909202300 TAF LMML NIL=
200909201700 TAF LMML NIL=
200909201100 TAF LMML NIL=
200909200500 TAF LMML NIL=
200909192300 TAF LMML NIL=
200909191700 TAF LMML NIL=
200909191100 TAF LMML NIL=
200909190500 TAF LMML NIL=
200909182300 TAF LMML NIL=
200909181700 TAF LMML NIL=
200909181100 TAF LMML NIL=
200909180500 TAF LMML NIL=
200909172300 TAF LMML NIL=
200909171700 TAF LMML NIL=
200909171100 TAF LMML NIL=
200909170500 TAF LMML NIL=
200909162300 TAF LMML NIL=
200909161700 TAF LMML NIL=
200909161100 TAF LMML NIL=
200909160500 TAF LMML NIL=
200909152300 TAF LMML NIL=
200909151700 TAF LMML NIL=
200909151100 TAF LMML NIL=
200909150500 TAF LMML NIL=
200909142300 TAF LMML NIL=
200909141700 TAF LMML NIL=
200909141100 TAF LMML NIL=
200909140500 TAF LMML NIL=
200909132300 TAF LMML NIL=
200909131700 TAF LMML NIL=
200909131100 TAF LMML NIL=
200909130500 TAF LMML NIL=
200909122300 TAF LMML NIL=
200909121700 TAF LMML NIL=
200909121100 TAF LMML NIL=
200909120500 TAF LMML NIL=
200909112300 TAF LMML NIL=
200909111700 TAF LMML NIL=
200909111100 TAF LMML NIL=
200909110500 TAF LMML NIL=
200909102300 TAF LMML NIL=
200909101700 TAF LMML NIL=
200909101100 TAF LMML NIL=
200909100500 TAF LMML NIL=
200909092300 TAF LMML NIL=
200909091700 TAF LMML NIL=
200909091100 TAF LMML NIL=
200909090500 TAF LMML NIL=
200909082300 TAF LMML NIL=
200909081700 TAF LMML NIL=
200909081100 TAF LMML NIL=
200909080500 TAF LMML NIL=
200909072300 TAF LMML NIL=
200909071700 TAF LMML NIL=
200909071100 TAF LMML NIL=
200909070500 TAF LMML NIL=
200909062300 TAF LMML NIL=
200909061700 TAF LMML NIL=
200909061100 TAF LMML NIL=
200909060500 TAF LMML NIL=
200909052300 TAF LMML NIL=
200909051700 TAF LMML NIL=
200909051100 TAF LMML NIL=
200909050500 TAF LMML NIL=
200909042300 TAF LMML NIL=
200909041700 TAF LMML NIL=
200909041100 TAF LMML NIL=
200909040500 TAF LMML NIL=
200909032300 TAF LMML NIL=
200909031700 TAF LMML NIL=
200909031100 TAF LMML NIL=
200909030500 TAF LMML NIL=
200909022300 TAF LMML NIL=
200909021700 TAF LMML NIL=
200909021100 TAF LMML NIL=
200909020500 TAF LMML NIL=
200909012300 TAF LMML NIL=
200909011700 TAF LMML NIL=
200909011100 TAF LMML NIL=
200909010500 TAF LMML NIL=
