##########################################################
# Query made at 01/18/2013 15:39:59 UTC
# Time interval: from 09/01/2011 00:00  to 10/01/2011 23:59  UTC
##########################################################

##########################################################
# LMML, Luqa (Malta)
# WMO index: 16597
# Latitude 35-51N. Longitude 014-29E. Altitude 91 m.
##########################################################

###################################
#  METAR/SPECI from LMML
###################################
201110012345 METAR LMML 012345Z VRB02KT CAVOK 20/16 Q1021 NOSIG=
201110012330 METAR LMML NIL=
201110012315 METAR LMML 012315Z 34003KT CAVOK 20/16 Q1021 NOSIG=
201110012245 METAR LMML 012245Z 34003KT CAVOK 20/16 Q1022 NOSIG=
201110012230 METAR LMML NIL=
201110012215 METAR LMML 012215Z VRB02KT CAVOK 20/16 Q1022 NOSIG=
201110012200 METAR LMML NIL=
201110012145 METAR LMML 012145Z VRB02KT CAVOK 20/16 Q1022 NOSIG=
201110012130 METAR LMML NIL=
201110012115 METAR LMML 012115Z VRB02KT CAVOK 21/16 Q1022 NOSIG=
201110012045 METAR LMML 012045Z 04003KT CAVOK 22/16 Q1022 NOSIG=
201110012030 METAR LMML NIL=
201110012015 METAR LMML 012015Z VRB02KT CAVOK 21/16 Q1022 NOSIG=
201110012000 METAR LMML NIL=
201110011945 METAR LMML 011945Z 04003KT CAVOK 22/16 Q1022 NOSIG=
201110011930 METAR LMML NIL=
201110011915 METAR LMML 011915Z 04004KT 020V080 CAVOK 22/16 Q1021 NOSIG=
201110011900 METAR LMML NIL=
201110011845 METAR LMML 011845Z 05004KT 270V090 9999 FEW025 22/16 Q1021
                        NOSIG=
201110011830 METAR LMML NIL=
201110011815 METAR LMML 011815Z 07003KT 9999 FEW025 22/16 Q1021 NOSIG=
201110011745 METAR LMML 011745Z 07003KT 9999 FEW025 22/17 Q1021 NOSIG=
201110011730 METAR LMML NIL=
201110011715 METAR LMML 011715Z 06005KT 030V090 9999 FEW025 23/17 Q1021
                        NOSIG=
201110011645 METAR LMML 011645Z 06006KT 020V100 9999 FEW024 23/17 Q1021
                        NOSIG=
201110011630 METAR LMML NIL=
201110011615 METAR LMML 011615Z 06005KT 360V110 9999 FEW025 24/16 Q1021
                        NOSIG=
201110011545 METAR LMML 011545Z 05007KT 010V080 9999 FEW027 25/16 Q1021
                        NOSIG=
201110011515 METAR LMML 011515Z 06006KT 010V100 9999 FEW029 25/16 Q1021
                        NOSIG=
201110011445 METAR LMML 011445Z 06007KT 020V090 9999 FEW028 25/16 Q1021
                        NOSIG=
201110011430 METAR LMML NIL=
201110011415 METAR LMML 011415Z 05006KT 350V090 9999 FEW030 25/14 Q1021
                        NOSIG=
201110011400 METAR LMML NIL=
201110011345 METAR LMML 011345Z 05007KT 360V090 9999 FEW026 25/16 Q1021
                        NOSIG=
201110011330 METAR LMML NIL=
201110011315 METAR LMML 011315Z 05008KT 360V090 9999 FEW027 25/17 Q1021
                        NOSIG=
201110011300 METAR LMML NIL=
201110011245 METAR LMML 011245Z 04009KT 310V070 9999 FEW029 26/16 Q1021
                        NOSIG=
201110011230 METAR LMML NIL=
201110011215 METAR LMML 011215Z 04008KT 360V090 9999 FEW028 27/16 Q1021
                        NOSIG=
201110011200 METAR LMML NIL=
201110011145 METAR LMML 011145Z 05010KT 360V090 9999 FEW029 26/15 Q1022
                        NOSIG=
201110011130 METAR LMML NIL=
201110011115 METAR LMML 011115Z 04009KT 010V070 9999 FEW032 27/17 Q1022
                        NOSIG=
201110011100 METAR LMML NIL=
201110011045 METAR LMML 011045Z 03010KT 360V060 9999 FEW025 27/15 Q1022
                        NOSIG=
201110011030 METAR LMML NIL=
201110011015 METAR LMML 011015Z 05011KT 010V090 9999 FEW025 26/16 Q1022
                        NOSIG=
201110011000 METAR LMML NIL=
201110010945 METAR LMML 010945Z 04013KT 010V080 9999 FEW025 26/17 Q1022
                        NOSIG=
201110010930 METAR LMML NIL=
201110010915 METAR LMML 010915Z 03010KT 360V080 9999 SCT026 25/18 Q1022
                        NOSIG=
201110010900 METAR LMML NIL=
201110010845 METAR LMML 010845Z 02008KT 350V050 9999 FEW024 25/18 Q1023
                        NOSIG=
201110010830 METAR LMML NIL=
201110010815 METAR LMML 010815Z 03008KT 350V070 9999 FEW025 26/18 Q1023
                        NOSIG=
201110010800 METAR LMML NIL=
201110010745 METAR LMML 010745Z 02008KT 350V050 9999 FEW020 25/18 Q1022
                        NOSIG=
201110010730 METAR LMML NIL=
201110010715 METAR LMML 010715Z 02007KT 360V060 9999 FEW020 24/17 Q1022
                        NOSIG=
201110010700 METAR LMML NIL=
201110010645 METAR LMML 010645Z 03006KT 300V070 9999 FEW025 24/17 Q1022
                        NOSIG=
201110010630 METAR LMML NIL=
201110010615 METAR LMML 010615Z 03005KT CAVOK 23/16 Q1022 NOSIG=
201110010600 METAR LMML NIL=
201110010545 METAR LMML 010545Z 03005KT 010V070 9999 FEW025 22/16 Q1022
                        NOSIG=
201110010530 METAR LMML NIL=
201110010515 METAR LMML 010515Z 03006KT 360V060 9999 FEW025 21/16 Q1022
                        NOSIG=
201110010445 METAR LMML 010445Z 03006KT 9999 FEW025 21/16 Q1021 NOSIG=
201110010430 METAR LMML NIL=
201110010415 METAR LMML 010415Z 02005KT CAVOK 20/16 Q1021 NOSIG=
201110010400 METAR LMML NIL=
201110010345 METAR LMML 010345Z 01004KT CAVOK 20/16 Q1021 NOSIG=
201110010330 METAR LMML NIL=
201110010315 METAR LMML 010315Z 01004KT 350V090 CAVOK 21/16 Q1021 NOSIG=
201110010245 METAR LMML 010245Z 01004KT CAVOK 21/16 Q1021 NOSIG=
201110010230 METAR LMML NIL=
201110010215 METAR LMML 010215Z 01004KT CAVOK 20/15 Q1022 NOSIG=
201110010200 METAR LMML NIL=
201110010145 METAR LMML 010145Z 01004KT CAVOK 21/15 Q1022 NOSIG=
201110010130 METAR LMML NIL=
201110010115 METAR LMML 010115Z 02005KT 360V060 CAVOK 21/16 Q1022 NOSIG=
201110010100 METAR LMML NIL=
201110010045 METAR LMML 010045Z 02004KT 9999 FEW025 21/16 Q1022 NOSIG=
201110010030 METAR LMML NIL=
201110010015 METAR LMML 010015Z 01004KT 9999 FEW025 21/16 Q1022 NOSIG=
201110010000 METAR LMML NIL=
201109302345 METAR LMML 302345Z 01006KT 9999 FEW025 21/16 Q1022 NOSIG=
201109302330 METAR LMML NIL=
201109302315 METAR LMML 302315Z 36006KT 340V050 9999 FEW025 21/16 Q1022
                        NOSIG=
201109302300 METAR LMML NIL=
201109302245 METAR LMML 302245Z 36005KT 9999 FEW026 21/16 Q1022 NOSIG=
201109302230 METAR LMML NIL=
201109302215 METAR LMML 302215Z 01005KT 9999 FEW026 21/16 Q1023 NOSIG=
201109302200 METAR LMML NIL=
201109302145 METAR LMML 302145Z 01005KT 9999 FEW027 21/16 Q1023 NOSIG=
201109302130 METAR LMML NIL=
201109302115 METAR LMML 302115Z 01004KT 9999 FEW027 21/16 Q1023 NOSIG=
201109302100 METAR LMML NIL=
201109302045 METAR LMML 302045Z 02004KT 9999 FEW025 21/16 Q1023 NOSIG=
201109302030 METAR LMML NIL=
201109302015 METAR LMML 302015Z 02004KT 9999 FEW025 22/16 Q1023 NOSIG=
201109302000 METAR LMML NIL=
201109301945 METAR LMML 301945Z 02005KT 360V060 9999 FEW025 22/16 Q1022
                        NOSIG=
201109301930 METAR LMML NIL=
201109301915 METAR LMML 301915Z 03006KT 350V060 9999 FEW026 22/16 Q1022
                        NOSIG=
201109301900 METAR LMML NIL=
201109301845 METAR LMML 301845Z 02004KT 360V060 9999 FEW025 22/16 Q1022
                        NOSIG=
201109301830 METAR LMML NIL=
201109301815 METAR LMML 301815Z 04004KT 010V070 9999 FEW025 22/16 Q1022
                        NOSIG=
201109301800 METAR LMML NIL=
201109301745 METAR LMML 301745Z 04006KT 010V080 9999 FEW025 22/16 Q1022
                        NOSIG=
201109301730 METAR LMML NIL=
201109301715 METAR LMML 301715Z 04006KT 010V070 9999 FEW025 23/16 Q1021
                        NOSIG=
201109301700 METAR LMML NIL=
201109301645 METAR LMML 301645Z 03006KT 360V080 9999 FEW025 23/17 Q1021
                        NOSIG=
201109301630 METAR LMML NIL=
201109301615 METAR LMML 301615Z 02005KT 350V060 9999 FEW027 24/17 Q1021
                        NOSIG=
201109301600 METAR LMML NIL=
201109301545 METAR LMML 301545Z 02006KT 360V060 9999 FEW028 24/17 Q1021
                        NOSIG=
201109301530 METAR LMML NIL=
201109301515 METAR LMML 301515Z 03006KT 350V060 9999 FEW026 25/17 Q1021
                        NOSIG=
201109301500 METAR LMML NIL=
201109301445 METAR LMML 301445Z 01008KT 350V050 9999 FEW025 26/17 Q1021
                        NOSIG=
201109301430 METAR LMML NIL=
201109301415 METAR LMML 301415Z 02007KT 9999 FEW025 26/16 Q1021 NOSIG=
201109301400 METAR LMML NIL=
201109301345 METAR LMML 301345Z 03009KT 360V060 9999 FEW025 25/17 Q1021
                        NOSIG=
201109301330 METAR LMML NIL=
201109301315 METAR LMML 301315Z 02007KT 330V070 9999 FEW027 SCT100 26/17
                        Q1021 NOSIG=
201109301300 METAR LMML NIL=
201109301245 METAR LMML 301245Z 02008KT 350V050 9999 FEW029 SCT100 25/17
                        Q1021 NOSIG=
201109301230 METAR LMML NIL=
201109301215 METAR LMML 301215Z 01008KT 9999 SCT029 25/17 Q1021 NOSIG=
201109301200 METAR LMML NIL=
201109301145 METAR LMML 301145Z 02009KT 340V050 9999 FEW029 26/16 Q1022
                        NOSIG=
201109301130 METAR LMML NIL=
201109301115 METAR LMML 301115Z 02009KT 360V070 9999 FEW031 26/16 Q1022
                        NOSIG=
201109301100 METAR LMML NIL=
201109301045 METAR LMML 301045Z 03010KT 350V060 9999 FEW031 26/16 Q1022
                        NOSIG=
201109301030 METAR LMML NIL=
201109301015 METAR LMML 301015Z 03011KT 350V060 9999 FEW032 26/16 Q1022
                        NOSIG=
201109301000 METAR LMML NIL=
201109300945 METAR LMML 300945Z 03011KT 360V060 9999 FEW025 26/15 Q1022
                        NOSIG=
201109300930 METAR LMML NIL=
201109300915 METAR LMML 300915Z 04010KT 350V060 9999 FEW025 26/15 Q1022
                        NOSIG=
201109300900 METAR LMML NIL=
201109300845 METAR LMML 300845Z 04008KT 340V080 9999 FEW025 25/16 Q1022
                        NOSIG=
201109300830 METAR LMML NIL=
201109300815 METAR LMML 300815Z 03010KT 010V070 9999 FEW025 25/15 Q1022
                        NOSIG=
201109300800 METAR LMML NIL=
201109300745 METAR LMML 300745Z 01007KT 350V050 9999 FEW025 25/16 Q1021
                        NOSIG=
201109300730 METAR LMML NIL=
201109300715 METAR LMML 300715Z 36010KT 330V040 9999 FEW025 24/16 Q1021
                        NOSIG=
201109300700 METAR LMML NIL=
201109300645 METAR LMML 300645Z 36006KT 9999 FEW025 23/17 Q1021 NOSIG=
201109300630 METAR LMML NIL=
201109300615 METAR LMML 300615Z 35003KT 9999 FEW030 22/16 Q1021 NOSIG=
201109300600 METAR LMML NIL=
201109300545 METAR LMML 300545Z 33003KT 9999 FEW025 20/16 Q1021 NOSIG=
201109300530 METAR LMML NIL=
201109300515 METAR LMML 300515Z 34003KT 9999 FEW025 19/15 Q1020 NOSIG=
201109300500 METAR LMML NIL=
201109300445 METAR LMML 300445Z 33003KT 9999 FEW023 19/15 Q1020 NOSIG=
201109300430 METAR LMML NIL=
201109300415 METAR LMML 300415Z 34003KT 9999 FEW023 20/16 Q1020 NOSIG=
201109300400 METAR LMML NIL=
201109300345 METAR LMML 300345Z 36004KT 9999 FEW023 20/15 Q1020 NOSIG=
201109300315 METAR LMML 300315Z 36005KT 9999 FEW023 20/16 Q1020 NOSIG=
201109300300 METAR LMML NIL=
201109300245 METAR LMML 300245Z 36005KT 9999 FEW023 20/17 Q1020 NOSIG=
201109300230 METAR LMML NIL=
201109300215 METAR LMML 300215Z 36006KT 9999 FEW023 21/17 Q1020 NOSIG=
201109300200 METAR LMML NIL=
201109300145 METAR LMML 300145Z 36007KT 9999 FEW023 21/17 Q1020 NOSIG=
201109300130 METAR LMML NIL=
201109300115 METAR LMML 300115Z 01005KT 9999 SCT025 21/17 Q1020 NOSIG=
201109300100 METAR LMML NIL=
201109300045 METAR LMML 300045Z 36006KT 9999 FEW025 21/17 Q1020 NOSIG=
201109300030 METAR LMML NIL=
201109300015 METAR LMML 300015Z 36006KT 9999 FEW020 21/17 Q1020 NOSIG=
201109292345 METAR LMML 292345Z 36006KT CAVOK 21/17 Q1020 NOSIG=
201109292315 METAR LMML 292315Z 34005KT 320V080 CAVOK 21/17 Q1021 NOSIG=
201109292245 METAR LMML 292245Z 35005KT CAVOK 21/17 Q1021 NOSIG=
201109292230 METAR LMML NIL=
201109292215 METAR LMML 292215Z 34006KT 310V010 CAVOK 21/16 Q1021 NOSIG=
201109292200 METAR LMML NIL=
201109292145 METAR LMML 292145Z 35007KT 9999 FEW030 21/16 Q1021 NOSIG=
201109292115 METAR LMML 292115Z 35006KT 9999 FEW030 22/16 Q1021 NOSIG=
201109292100 METAR LMML NIL=
201109292045 METAR LMML 292045Z 35006KT 9999 FEW030 22/16 Q1021 NOSIG=
201109292030 METAR LMML NIL=
201109292015 METAR LMML 292015Z 34006KT 9999 FEW029 22/16 Q1021 NOSIG=
201109292000 METAR LMML NIL=
201109291945 METAR LMML 291945Z 34004KT 290V070 9999 SCT029 22/16 Q1021
                        NOSIG=
201109291930 METAR LMML NIL=
201109291915 METAR LMML 291915Z 35005KT 9999 FEW030 22/16 Q1021 NOSIG=
201109291900 METAR LMML NIL=
201109291845 METAR LMML 291845Z 36005KT 9999 FEW030 22/16 Q1020 NOSIG=
201109291830 METAR LMML NIL=
201109291815 METAR LMML 291815Z 36006KT 9999 FEW030 22/16 Q1020 NOSIG=
201109291800 METAR LMML NIL=
201109291745 METAR LMML 291745Z 36006KT 290V030 9999 FEW030 22/16 Q1020
                        NOSIG=
201109291730 METAR LMML NIL=
201109291715 METAR LMML 291715Z 01006KT 340V040 9999 FEW030 22/16 Q1020
                        NOSIG=
201109291700 METAR LMML NIL=
201109291645 METAR LMML 291645Z 02006KT 350V090 9999 FEW031 23/16 Q1019
                        NOSIG=
201109291630 METAR LMML NIL=
201109291615 METAR LMML 291615Z 03007KT 360V070 9999 FEW031 24/16 Q1019
                        NOSIG=
201109291600 METAR LMML NIL=
201109291545 METAR LMML 291545Z 03009KT 9999 FEW031 24/16 Q1019 NOSIG=
201109291530 METAR LMML NIL=
201109291515 METAR LMML 291515Z 03008KT 360V080 9999 FEW031 25/16 Q1019
                        NOSIG=
201109291500 METAR LMML NIL=
201109291445 METAR LMML 291445Z 03008KT 290V070 9999 FEW030 25/16 Q1019
                        NOSIG=
201109291430 METAR LMML NIL=
201109291415 METAR LMML 291415Z 02007KT 350V070 9999 FEW030 26/16 Q1019
                        NOSIG=
201109291345 METAR LMML 291345Z 01009KT 330V080 9999 FEW030 25/16 Q1019
                        NOSIG=
201109291330 METAR LMML NIL=
201109291315 METAR LMML 291315Z 02008KT 350V080 9999 FEW030 25/16 Q1019
                        NOSIG=
201109291300 METAR LMML NIL=
201109291245 METAR LMML 291245Z 01009KT 340V070 9999 SCT028 25/17 Q1019
                        NOSIG=
201109291230 METAR LMML NIL=
201109291215 METAR LMML 291215Z 02010KT 360V070 9999 SCT028 26/16 Q1019
                        NOSIG=
201109291200 METAR LMML NIL=
201109291145 METAR LMML 291145Z 03008KT 360V080 9999 FEW028 26/16 Q1019
                        NOSIG=
201109291130 METAR LMML NIL=
201109291115 METAR LMML 291115Z 04011KT 360V080 9999 FEW028 26/17 Q1020
                        NOSIG=
201109291100 METAR LMML NIL=
201109291045 METAR LMML 291045Z 02009KT 340V070 9999 FEW027 26/17 Q1020
                        NOSIG=
201109291030 METAR LMML NIL=
201109291015 METAR LMML 291015Z 03009KT 350V070 9999 FEW027 26/16 Q1020
                        NOSIG=
201109291000 METAR LMML NIL=
201109290945 METAR LMML 290945Z 02009KT 360V080 9999 FEW026 26/16 Q1020
                        NOSIG=
201109290930 METAR LMML NIL=
201109290915 METAR LMML 290915Z 03010KT 360V070 9999 FEW026 25/17 Q1020
                        NOSIG=
201109290900 METAR LMML NIL=
201109290845 METAR LMML 290845Z 01010KT 350V050 9999 FEW028 25/17 Q1020
                        NOSIG=
201109290830 METAR LMML NIL=
201109290815 METAR LMML 290815Z 01010KT 340V050 9999 FEW028 25/17 Q1020
                        NOSIG=
201109290800 METAR LMML NIL=
201109290745 METAR LMML 290745Z 01010KT 9999 FEW028 24/16 Q1020 NOSIG=
201109290730 METAR LMML NIL=
201109290715 METAR LMML 290715Z 01011KT 340V040 9999 FEW028 24/16 Q1019
                        NOSIG=
201109290700 METAR LMML NIL=
201109290645 METAR LMML 290645Z 02009KT 9999 FEW024 23/16 Q1019 NOSIG=
201109290630 METAR LMML NIL=
201109290615 METAR LMML 290615Z 02009KT 340V050 9999 FEW024 23/16 Q1019
                        NOSIG=
201109290600 METAR LMML NIL=
201109290545 METAR LMML 290545Z 02008KT 9999 FEW025 22/17 Q1019 NOSIG=
201109290515 METAR LMML 290515Z 01007KT 340V040 9999 SCT021 22/17 Q1018
                        NOSIG=
201109290500 METAR LMML NIL=
201109290445 METAR LMML 290445Z 02008KT 360V060 9999 FEW025 22/16 Q1018
                        NOSIG=
201109290430 METAR LMML NIL=
201109290415 METAR LMML 290415Z 04007KT 360V080 9999 FEW035 22/15 Q1018
                        NOSIG=
201109290400 METAR LMML NIL=
201109290345 METAR LMML 290345Z 03008KT 360V070 9999 FEW034 22/15 Q1018
                        NOSIG=
201109290330 METAR LMML NIL=
201109290315 METAR LMML 290315Z 03010KT 9999 FEW035 22/14 Q1018 NOSIG=
201109290300 METAR LMML NIL=
201109290245 METAR LMML 290245Z 03008KT 010V070 9999 FEW033 22/15 Q1018
                        NOSIG=
201109290230 METAR LMML NIL=
201109290215 METAR LMML 290215Z 03009KT 360V070 9999 FEW034 22/15 Q1018
                        NOSIG=
201109290200 METAR LMML NIL=
201109290145 METAR LMML 290145Z 03012KT 360V060 9999 FEW035 22/15 Q1018
                        NOSIG=
201109290130 METAR LMML NIL=
201109290115 METAR LMML 290115Z 03009KT 010V070 9999 FEW031 22/15 Q1018
                        NOSIG=
201109290045 METAR LMML 290045Z 03009KT 9999 FEW031 22/15 Q1018 NOSIG=
201109290030 METAR LMML NIL=
201109290015 METAR LMML 290015Z 03009KT 010V080 9999 FEW031 SCT120 22/15
                        Q1018 NOSIG=
201109290000 METAR LMML NIL=
201109282345 METAR LMML 282345Z 03009KT 9999 FEW031 SCT120 22/15 Q1019
                        NOSIG=
201109282330 METAR LMML NIL=
201109282315 METAR LMML 282315Z 04010KT 010V070 9999 FEW031 SCT120 22/15
                        Q1018 TEMPO 8000 SHRA BKN015TCU=
201109282300 METAR LMML NIL=
201109282245 METAR LMML 282245Z 01007KT 9999 FEW015CB SCT022 22/17 Q1019
                        TEMPO 3000 TSRA BKN015CB=
201109282230 METAR LMML NIL=
201109282215 METAR LMML 282215Z 01004KT 9999 FEW024 BKN120 21/18 Q1019
                        TEMPO 8000 SHRA BKN015TCU=
201109282145 METAR LMML 282145Z 02004KT 350V060 9999 FEW021 BKN110 21/18
                        Q1019 NOSIG=
201109282130 METAR LMML NIL=
201109282115 METAR LMML 282115Z 01006KT 9999 FEW019 SCT120 22/18 Q1019
                        NOSIG=
201109282100 METAR LMML NIL=
201109282045 METAR LMML 282045Z 02005KT 360V060 9999 FEW027 BKN120 22/18
                        Q1019 NOSIG=
201109282030 METAR LMML NIL=
201109282015 METAR LMML 282015Z 04008KT 360V070 9999 FEW027 BKN120 22/17
                        Q1019 NOSIG=
201109282000 METAR LMML NIL=
201109281945 METAR LMML 281945Z 04006KT 360V080 9999 FEW020 SCT120 22/16
                        Q1019 NOSIG=
201109281930 METAR LMML NIL=
201109281915 METAR LMML 281915Z 04008KT 010V070 9999 FEW020 BKN120 22/16
                        Q1018 NOSIG=
201109281900 METAR LMML NIL=
201109281845 METAR LMML 281845Z 04008KT 010V070 9999 FEW020 BKN120 22/16
                        Q1018 NOSIG=
201109281830 METAR LMML NIL=
201109281815 METAR LMML 281815Z 04007KT 010V070 9999 FEW020 BKN120 22/16
                        Q1018 NOSIG=
201109281800 METAR LMML NIL=
201109281745 METAR LMML 281745Z 07005KT 040V120 9999 FEW020 BKN140 21/17
                        Q1018 NOSIG=
201109281730 METAR LMML NIL=
201109281715 METAR LMML 281715Z 05008KT 020V090 9999 FEW023 BKN140 22/17
                        Q1017 TEMPO 5000 SHRA BKN015TCU=
201109281700 METAR LMML NIL=
201109281645 METAR LMML 281645Z 05006KT 010V110 9999 SCT020 OVC150 22/18
                        Q1017 TEMPO 5000 SHRA BKN015TCU=
201109281615 METAR LMML 281615Z 06005KT 020V130 9999 SCT020 OVC120 22/18
                        Q1017 TEMPO 5000 SHRA BKN015TCU=
201109281600 METAR LMML NIL=
201109281545 METAR LMML 281545Z 07003KT 9999 SCT023 OVC110 22/19 Q1017
                        TEMPO 5000 SHRA BKN015TCU=
201109281530 METAR LMML NIL=
201109281515 METAR LMML 281515Z 04003KT 9000 FEW022 BKN110 21/18 Q1017
                        TEMPO 5000 SHRA BKN015TCU=
201109281445 METAR LMML 281445Z 03003KT 9000 -RA FEW018 BKN120 21/18 Q1017
                        TEMPO 5000 SHRA BKN015TCU=
201109281415 METAR LMML 281415Z 07004KT 040V100 9000 -RA FEW018 BKN120
                        20/18 Q1017 TEMPO 5000 SHRA BKN015TCU=
201109281400 METAR LMML NIL=
201109281345 METAR LMML 281345Z 09006KT 9000 -RA FEW008 BKN120 20/17 Q1018
                        TEMPO 5000 SHRA BKN015TCU=
201109281330 METAR LMML NIL=
201109281315 METAR LMML 281315Z 09008KT 070V130 9000 FEW008 SCT018 BKN120
                        20/17 Q1018 RESHRA TEMPO 5000 SHRA
                        BKN015TCU=
201109281300 METAR LMML NIL=
201109281245 METAR LMML 281245Z 08010KT 050V110 9000 FEW010 BKN018TCU
                        BKN100 20/18 Q1018 RESHRA TEMPO 5000
                        SHRA BKN015TCU=
201109281230 METAR LMML NIL=
201109281215 METAR LMML 281215Z 03010KT 360V090 9999 SCT017 BKN024 23/17
                        Q1017 TEMPO 5000 SHRA BKN015TCU=
201109281145 METAR LMML 281145Z 04012KT 360V070 9999 SCT017 BKN100 23/17
                        Q1017 TEMPO 5000 SHRA BKN015TCU=
201109281115 METAR LMML 281115Z 03011KT 360V060 9999 SCT020 SCT100 23/17
                        Q1017 NOSIG=
201109281100 METAR LMML NIL=
201109281045 METAR LMML 281045Z 04011KT 010V080 9999 SCT020 SCT120 24/17
                        Q1018 NOSIG=
201109281030 METAR LMML NIL=
201109281015 METAR LMML 281015Z 06009KT 020V090 9999 FEW020 BKN110 23/17
                        Q1018 NOSIG=
201109281000 METAR LMML NIL=
201109280945 METAR LMML 280945Z 06010KT 020V100 9999 FEW020 BKN110 22/16
                        Q1018 NOSIG=
201109280930 METAR LMML NIL=
201109280915 METAR LMML 280915Z 08011KT 030V120 9999 SCT023 BKN110 22/17
                        Q1018 NOSIG=
201109280900 METAR LMML NIL=
201109280845 METAR LMML 280845Z 07010KT 9999 FEW020 SCT045 BKN100 22/16
                        Q1018 NOSIG=
201109280830 METAR LMML NIL=
201109280815 METAR LMML 280815Z 07010KT 020V100 9999 FEW016 SCT047 BKN100
                        22/16 Q1018 TEMPO 5000 TSRA BKN015CB=
201109280800 METAR LMML NIL=
201109280745 METAR LMML 280745Z 06009KT 020V100 9999 FEW016 SCT050 BKN100
                        21/16 Q1018 TEMPO 5000 TSRA BKN015CB=
201109280730 METAR LMML NIL=
201109280715 METAR LMML 280715Z 07010KT 040V100 9999 SCT016 SCT050 BKN100
                        21/16 Q1018 TEMPO 5000 TSRA BKN015CB=
201109280700 METAR LMML NIL=
201109280645 METAR LMML 280645Z 05010KT 020V090 9999 SCT016 SCT050 BKN100
                        21/16 Q1018 TEMPO 5000 TSRA BKN015CB=
201109280630 METAR LMML NIL=
201109280615 METAR LMML 280615Z 04009KT 010V080 9999 SCT016 SCT050 BKN120
                        20/16 Q1018 TEMPO 5000 TSRA BKN015CB=
201109280600 METAR LMML NIL=
201109280545 METAR LMML 280545Z 05009KT 360V090 9999 FEW018 SCT070 BKN130
                        20/15 Q1017 TEMPO 5000 TSRA BKN015CB=
201109280515 METAR LMML 280515Z 06008KT 030V100 9999 -SHRA SCT023 BKN070
                        20/15 Q1017 TEMPO 5000 TSRA BKN015CB=
201109280500 METAR LMML NIL=
201109280445 METAR LMML 280445Z 06011KT 030V100 9999 FEW035 SCT120 BKN250
                        20/15 Q1017 TEMPO 5000 TSRA BKN015CB=
201109280430 METAR LMML NIL=
201109280415 METAR LMML 280415Z 06009KT 020V090 9999 FEW035 BKN100 20/16
                        Q1017 TEMPO 5000 TSRA BKN015CB=
201109280400 METAR LMML NIL=
201109280345 METAR LMML 280345Z 07012KT 030V100 9999 SCT017 SCT100 BKN250
                        21/17 Q1017 TEMPO 5000 TSRA BKN015CB=
201109280330 METAR LMML NIL=
201109280315 METAR LMML 280315Z 05009KT 010V090 9999 BKN018 BKN110 21/17
                        Q1016 TEMPO 5000 TSRA BKN015CB=
201109280300 METAR LMML NIL=
201109280245 METAR LMML 280245Z 06008KT 020V110 9999 BKN019 BKN110 21/17
                        Q1017 TEMPO 5000 TSRA BKN015CB=
201109280230 METAR LMML NIL=
201109280215 METAR LMML 280215Z 07007KT 020V100 9999 SCT024 BKN110 21/17
                        Q1017 TEMPO 5000 TSRA BKN015CB=
201109280200 METAR LMML NIL=
201109280145 METAR LMML 280145Z 09006KT 050V110 9999 SCT023 BKN090 21/17
                        Q1017 TEMPO 5000 TSRA BKN015CB=
201109280130 METAR LMML NIL=
201109280115 METAR LMML 280115Z 08008KT 9999 FEW020 SCT120 21/16 Q1017
                        TEMPO 5000 TSRA BKN015CB=
201109280100 METAR LMML NIL=
201109280045 METAR LMML 280045Z 08007KT 060V120 9999 FEW020 SCT120 21/17
                        Q1018 TEMPO 5000 TSRA BKN015CB=
201109280030 METAR LMML NIL=
201109280015 METAR LMML 280015Z 06008KT 020V090 9999 SCT016 BKN120 21/18
                        Q1018 TEMPO 5000 TSRA BKN015CB=
201109280000 METAR LMML NIL=
201109272345 METAR LMML 272345Z 06005KT 360V100 9999 SCT039 BKN120 20/17
                        Q1018 TEMPO 5000 TSRA BKN015CB=
201109272330 METAR LMML NIL=
201109272315 METAR LMML 272315Z 07006KT 9999 FEW020 BKN120 20/17 Q1018
                        TEMPO 5000 TSRA BKN015CB=
201109272300 METAR LMML NIL=
201109272245 METAR LMML 272245Z 06008KT 030V100 9999 FEW012 SCT050 BKN120
                        20/18 Q1018 TEMPO 5000 TSRA BKN015CB=
201109272230 METAR LMML NIL=
201109272215 METAR COR LMML 272215Z 08007KT 9999 FEW017 SCT050 20/17 Q1018
                        TEMPO 5000 TSRA BKN015CB=
201109272200 METAR LMML NIL=
201109272145 METAR LMML 272145Z 07006KT 030V110 9999 FEW020 SCT120 21/16
                        Q1018 TEMPO 8000 SHRA BKN015TCU=
201109272130 METAR LMML NIL=
201109272115 METAR LMML 272115Z 07008KT 020V100 9999 FEW017 SCT120 21/18
                        Q1018 TEMPO 8000 SHRA BKN015TCU=
201109272100 METAR LMML NIL=
201109272045 METAR LMML 272045Z 05006KT 020V100 9999 FEW020 SCT120 21/18
                        Q1018 TEMPO 8000 SHRA BKN015TCU RMK
                        LIGHTNING TO NE=
201109272030 METAR LMML NIL=
201109272015 METAR LMML 272015Z 07007KT 030V090 9999 FEW022 BKN110 21/18
                        Q1019 TEMPO 8000 SHRA BKN015TCU=
201109272000 METAR LMML NIL=
201109271945 METAR LMML 271945Z 06006KT 360V100 9999 FEW017 BKN120 21/17
                        Q1019 TEMPO 8000 SHRA BKN015TCU=
201109271930 METAR LMML NIL=
201109271915 METAR LMML 271915Z 05010KT 020V080 9999 FEW017 BKN110 21/17
                        Q1018 TEMPO 8000 SHRA BKN015TCU=
201109271900 METAR LMML NIL=
201109271845 METAR LMML 271845Z 07009KT 030V100 9999 SCT017 SCT120 22/18
                        Q1018 TEMPO 8000 SHRA BKN015TCU=
201109271830 METAR LMML NIL=
201109271815 METAR LMML 271815Z 05009KT 020V090 9999 SCT018 SCT120 22/18
                        Q1018 TEMPO 8000 SHRA BKN015TCU=
201109271800 METAR LMML NIL=
201109271745 METAR LMML 271745Z 05008KT 010V110 9999 SCT025 SCT120 22/17
                        Q1018 TEMPO 8000 SHRA BKN015TCU=
201109271730 METAR LMML NIL=
201109271715 METAR LMML 271715Z 05009KT 010V080 9999 SCT025 SCT120 22/17
                        Q1018 TEMPO 8000 SHRA BKN015TCU=
201109271700 METAR LMML NIL=
201109271645 METAR LMML 271645Z 06011KT 030V100 9999 -SHRA FEW020TCU SCT025
                        22/18 Q1017 TEMPO 8000 SHRA BKN015TCU
                        RMK CB TOPS TO WEST=
201109271630 METAR LMML NIL=
201109271615 METAR LMML 271615Z 06009KT 010V110 9999 FEW020TCU SCT023
                        23/17 Q1017 TEMPO 8000 SHRA BKN015TCU=
201109271600 METAR LMML NIL=
201109271545 METAR LMML 271545Z 06008KT 030V090 9999 SCT022TCU SCT100
                        23/17 Q1018 TEMPO 8000 SHRA BKN015TCU=
201109271515 METAR LMML 271515Z 05008KT 010V090 9999 SCT022 SCT120 23/17
                        Q1018 NOSIG=
201109271500 METAR LMML NIL=
201109271445 METAR LMML 271445Z 06007KT 030V090 9999 FEW022 SCT120 23/17
                        Q1017 NOSIG RMK CB TOPS TO S=
201109271430 METAR LMML NIL=
201109271415 METAR LMML 271415Z 09007KT 030V140 9999 FEW022 SCT250 25/17
                        Q1017 NOSIG=
201109271400 METAR LMML NIL=
201109271345 METAR LMML 271345Z 08008KT 040V130 9999 FEW021 SCT250 23/17
                        Q1017 TEMPO 8000 SHRA BKN015=
201109271330 METAR LMML NIL=
201109271315 METAR LMML 271315Z 08008KT 030V120 9999 FEW021 SCT250 24/17
                        Q1017 TEMPO 7000 TSRA BKN015CB=
201109271300 METAR LMML NIL=
201109271245 METAR LMML 271245Z 08012KT 050V110 9999 SCT021 24/17 Q1018
                        TEMPO 8000 SHRA BKN015TCU=
201109271230 METAR LMML NIL=
201109271215 METAR LMML 271215Z 09012KT 050V120 9999 SCT016 SCT250 24/18
                        Q1018 TEMPO 8000 SHRA BKN015TCU=
201109271200 METAR LMML NIL=
201109271145 METAR LMML 271145Z 09014KT 060V120 9999 FEW018 SCT250 23/18
                        Q1018 TEMPO 8000 SHRA BKN015TCU=
201109271130 METAR LMML NIL=
201109271115 METAR LMML 271115Z 10013KT 070V140 9999 SCT019TCU SCT120
                        24/18 Q1018 TEMPO 8000 SHRA BKN015TCU=
201109271045 METAR LMML 271045Z 09010KT 040V130 9999 BKN020 SCT046 25/18
                        Q1019 TEMPO 8000 SHRA BKN015TCU=
201109271030 METAR LMML NIL=
201109271015 METAR LMML 271015Z 09010KT 050V120 9999 FEW018 SCT050 25/18
                        Q1019 TEMPO 3000 TSRA BKN015CB RMK
                        CB TOP TO SW=
201109271000 METAR LMML NIL=
201109270945 METAR LMML 270945Z 11012KT 060V130 9999 FEW018TCU SCT045
                        24/17 Q1018 TEMPO 3000 TSRA BKN015CB=
201109270930 METAR LMML NIL=
201109270915 METAR LMML 270915Z 09013KT 030V110 9999 FEW016TCU SCT021
                        23/17 Q1018 NOSIG=
201109270900 METAR LMML NIL=
201109270845 METAR LMML 270845Z 09008KT 050V120 9999 FEW017TCU 24/18 Q1018
                        NOSIG RMK CB TOPS TO NW AND NNE=
201109270815 METAR LMML 270815Z 09008KT 040V130 9999 FEW018TCU 24/18 Q1018
                        NOSIG RMK CB TOPS NO W/NW AND NNE=
201109270800 METAR LMML NIL=
201109270745 METAR LMML 270745Z 09009KT 040V120 9999 FEW016TCU SCT017
                        23/18 Q1018 NOSIG RMK CB TOPS TO
                        W=
201109270730 METAR LMML NIL=
201109270715 METAR LMML 270715Z 08009KT 9999 FEW014TCU SCT015 23/18 Q1018
                        NOSIG=
201109270700 METAR LMML NIL=
201109270645 METAR LMML 270645Z 09008KT 070V130 9999 FEW014TCU SCT015
                        22/19 Q1018 NOSIG RMK CB TOPS TO
                        NW=
201109270630 METAR LMML NIL=
201109270615 METAR LMML 270615Z 08006KT 050V110 9999 FEW013TCU BKN014
                        21/18 Q1017 NOSIG RMK CB TOPS TO
                        NW=
201109270600 METAR LMML NIL=
201109270545 METAR LMML 270545Z 07005KT 9999 FEW015TCU 21/18 Q1017 NOSIG
                        RMK CB TOPS TO NW=
201109270530 METAR LMML NIL=
201109270515 METAR LMML 270515Z 09006KT 9999 FEW015TCU 20/17 Q1017 NOSIG
                        RMK CB TOPS TO NW=
201109270500 METAR LMML NIL=
201109270445 METAR LMML 270445Z 08006KT 050V110 9999 FEW023 20/17 Q1017
                        NOSIG=
201109270430 METAR LMML NIL=
201109270415 METAR LMML 270415Z 09008KT 060V120 9999 FEW023 20/17 Q1017
                        NOSIG=
201109270345 METAR LMML 270345Z 10009KT 9999 FEW008 20/17 Q1017 NOSIG=
201109270330 METAR LMML NIL=
201109270315 METAR LMML 270315Z 09009KT 9999 FEW009 SCT013 20/18 Q1017
                        TEMPO BKN012=
201109270300 METAR LMML NIL=
201109270245 METAR LMML 270245Z 08008KT 050V110 9999 SCT013 21/18 Q1017
                        TEMPO BKN012=
201109270230 METAR LMML NIL=
201109270215 METAR LMML 270215Z 03009KT 360V080 9999 SCT013 22/19 Q1016
                        TEMPO BKN012=
201109270200 METAR LMML NIL=
201109270145 METAR LMML 270145Z 01005KT 9999 SCT012 21/19 Q1017 TEMPO
                        BKN012=
201109270130 METAR LMML NIL=
201109270115 METAR LMML 270115Z 36006KT 9999 FEW012 21/19 Q1017 TEMPO
                        BKN012=
201109270100 METAR LMML NIL=
201109270045 METAR LMML 270045Z 35005KT 9999 FEW012 21/19 Q1017 TEMPO
                        BKN012 RMK LIGHTNING TO SE=
201109270030 METAR LMML NIL=
201109270015 METAR LMML 270015Z 34005KT 9999 FEW012 21/19 Q1017 TEMPO
                        BKN012 RMK LIGHTNING TO SE=
201109262345 METAR LMML 262345Z 34005KT 9999 FEW012 21/19 Q1017 TEMPO
                        BKN012 RMK LIGHTNING TO EAST AND
                        SE=
201109262330 METAR LMML NIL=
201109262315 METAR LMML 262315Z 34006KT 9999 FEW012 22/19 Q1017 TEMPO
                        BKN012=
201109262300 METAR LMML NIL=
201109262245 METAR LMML 262245Z 33008KT 9999 SCT012 22/20 Q1017 NOSIG
                        RMK LIGHTNING TO EAST=
201109262230 METAR LMML NIL=
201109262215 METAR LMML 262215Z 31003KT 9999 FEW012 21/19 Q1018 NOSIG=
201109262200 METAR LMML NIL=
201109262145 METAR LMML 262145Z 33003KT 9999 FEW012 21/19 Q1018 NOSIG=
201109262130 METAR LMML NIL=
201109262115 METAR LMML 262115Z VRB02KT 9999 FEW012 21/18 Q1018 NOSIG=
201109262100 METAR LMML NIL=
201109262045 METAR LMML 262045Z VRB02KT 9999 FEW015 21/19 Q1018 NOSIG=
201109262030 METAR LMML NIL=
201109262015 METAR LMML 262015Z 33003KT 9999 FEW015 21/19 Q1018 NOSIG=
201109262000 METAR LMML NIL=
201109261945 METAR LMML 261945Z 34004KT 9999 FEW015 22/19 Q1018 NOSIG=
201109261930 METAR LMML NIL=
201109261915 METAR LMML 261915Z 34008KT 9999 FEW015 22/19 Q1018 NOSIG=
201109261900 METAR LMML NIL=
201109261845 METAR LMML 261845Z 36006KT 9999 SCT015 22/19 Q1017 NOSIG=
201109261830 METAR LMML NIL=
201109261815 METAR LMML 261815Z 35007KT 9999 SCT013 22/19 Q1017 NOSIG=
201109261800 METAR LMML NIL=
201109261745 METAR LMML 261745Z 01006KT 9999 SCT014 23/19 Q1017 NOSIG=
201109261730 METAR LMML NIL=
201109261715 METAR LMML 261715Z 36007KT 9999 SCT015 23/19 Q1017 NOSIG=
201109261700 METAR LMML NIL=
201109261645 METAR LMML 261645Z 35005KT 330V030 9999 -SHRA SCT019TCU 24/18
                        Q1017 NOSIG=
201109261630 METAR LMML NIL=
201109261615 METAR LMML 261615Z 03006KT 9999 SCT019 24/18 Q1016 NOSIG=
201109261600 METAR LMML NIL=
201109261545 METAR LMML 261545Z 02005KT 340V060 9999 SCT018 25/18 Q1016
                        NOSIG=
201109261530 METAR LMML NIL=
201109261515 METAR LMML 261515Z 05007KT 010V100 9999 SCT018 25/19 Q1016
                        NOSIG=
201109261500 METAR LMML NIL=
201109261445 METAR LMML 261445Z 03007KT 360V080 9999 SCT018 26/18 Q1016
                        NOSIG=
201109261430 METAR LMML NIL=
201109261415 METAR LMML 261415Z 03007KT 350V080 9999 FEW020 25/19 Q1016
                        NOSIG=
201109261400 METAR LMML NIL=
201109261345 METAR LMML 261345Z 04010KT 010V080 9999 FEW020 26/18 Q1016
                        NOSIG=
201109261330 METAR LMML NIL=
201109261315 METAR LMML 261315Z 02008KT 360V060 9999 FEW018 26/19 Q1016
                        NOSIG=
201109261300 METAR LMML NIL=
201109261245 METAR LMML 261245Z 03011KT 010V070 9999 FEW025 26/19 Q1016
                        TEMPO SHRA BKN015TCU=
201109261230 METAR LMML NIL=
201109261215 METAR LMML 261215Z 03010KT 360V060 9999 FEW025 26/19 Q1016
                        TEMPO SHRA BKN015TCU=
201109261200 METAR LMML NIL=
201109261145 METAR LMML 261145Z 03009KT 360V060 9999 FEW024 SCT110 27/18
                        Q1016 TEMPO SHRA BKN015TCU=
201109261130 METAR LMML NIL=
201109261115 METAR LMML 261115Z 04004KT 360V070 9999 FEW024TCU BKN110
                        25/19 Q1017 TEMPO SHRA BKN015TCU=
201109261100 METAR LMML NIL=
201109261045 METAR LMML 261045Z 07006KT 350V130 9999 SCT024TCU BKN110
                        23/19 Q1017 RETSRA TEMPO SHRA BKN015TCU=
201109261030 METAR LMML NIL=
201109261015 METAR LMML 261015Z 05008KT 010V100 9999 SCT014 BKN021 BKN100
                        23/20 Q1018 RETSRA TEMPO SHRA BKN015TCU=
201109260945 METAR LMML 260945Z 03008KT 350V100 9999 TSRA BKN019CB 23/20
                        Q1018 TEMPO SHRA BKN015TCU=
201109260930 METAR LMML NIL=
201109260915 METAR LMML 260915Z 04007KT 010V130 6000 -SHRA BKN022TCU SCT025
                        25/20 Q1017 TEMPO SHRA BKN015TCU=
201109260900 METAR LMML NIL=
201109260845 METAR LMML 260845Z 06003KT 9999 BKN023TCU 26/19 Q1017 TEMPO
                        SHRA BKN015TCU=
201109260830 METAR LMML NIL=
201109260815 METAR LMML 260815Z VRB02KT 9999 BKN022 25/19 Q1017 TEMPO
                        SHRA BKN015TCU=
201109260800 METAR LMML NIL=
201109260745 METAR LMML 260745Z VRB02KT 9999 FEW015 26/19 Q1017 TEMPO
                        SHRA BKN015TCU=
201109260730 METAR LMML NIL=
201109260715 METAR LMML 260715Z 03005KT 360V060 9999 FEW011 25/20 Q1017
                        TEMPO SHRA BKN015TCU=
201109260700 METAR LMML NIL=
201109260645 METAR LMML 260645Z 34005KT 320V020 9999 FEW020 24/20 Q1017
                        TEMPO SHRA BKN015TCU=
201109260630 METAR LMML NIL=
201109260615 METAR LMML 260615Z 30003KT 9999 FEW018TCU 23/19 Q1017 NOSIG=
201109260600 METAR LMML NIL=
201109260545 METAR LMML 260545Z VRB01KT 9999 FEW018TCU 22/18 Q1016 NOSIG=
201109260530 METAR LMML NIL=
201109260515 METAR LMML 260515Z 33003KT 9999 FEW018TCU 20/18 Q1017 NOSIG=
201109260445 METAR LMML 260445Z VRB01KT 9999 FEW017TCU 21/18 Q1016 NOSIG
                        RMK LIGHTNING TO NE=
201109260430 METAR LMML NIL=
201109260415 METAR LMML 260415Z VRB02KT 9999 FEW015 SCT050 22/18 Q1016
                        NOSIG=
201109260400 METAR LMML NIL=
201109260345 METAR LMML 260345Z 07005KT 9999 FEW015 22/18 Q1016 NOSIG=
201109260330 METAR LMML NIL=
201109260315 METAR LMML 260315Z 07003KT 9999 FEW017 22/21 Q1016 NOSIG=
201109260245 METAR LMML 260245Z 06003KT 9999 FEW017 SCT060 22/21 Q1016
                        DISTANT LIGHTNING TO NNE=
201109260230 METAR LMML NIL=
201109260215 METAR LMML 260215Z VRB02KT 9999 FEW016 SCT070 23/21 Q1016
                        NOSIG=
201109260200 METAR LMML NIL=
201109260145 METAR LMML 260145Z VRB02KT 9999 FEW014 SCT070 22/20 Q1017
                        NOSIG=
201109260115 METAR LMML 260115Z 07003KT 9999 FEW014 22/20 Q1017 LIGHTNING
                        TO NE=
201109260100 METAR LMML NIL=
201109260045 METAR LMML 260045Z 05003KT 9999 FEW020 23/20 Q1017 NOSIG
                        RMK LIGHTNING TO NE=
201109260030 METAR LMML NIL=
201109260015 METAR LMML 260015Z 06003KT 9999 FEW020 23/20 Q1017 NOSIG
                        RMK LIGHTNING TO NE=
201109260000 METAR LMML NIL=
201109252345 METAR LMML 252345Z 02003KT 9999 FEW020 22/20 Q1017 NOSIG=
201109252330 METAR LMML NIL=
201109252315 METAR LMML 252315Z 05003KT 9999 FEW025 23/20 Q1017 NOSIG=
201109252300 METAR LMML NIL=
201109252245 METAR LMML 252245Z 07003KT 9999 FEW025 23/20 Q1017 NOSIG=
201109252215 METAR LMML 252215Z 07003KT 9999 FEW025 23/20 Q1018 NOSIG=
201109252200 METAR LMML NIL=
201109252145 METAR LMML 252145Z 10005KT 060V130 9999 FEW025 23/20 Q1017
                        NOSIG=
201109252115 METAR LMML 252115Z 10006KT 9999 FEW025 23/20 Q1017 NOSIG=
201109252045 METAR LMML 252045Z 08005KT 9999 SCT022 23/20 Q1017 NOSIG=
201109252015 METAR LMML 252015Z 07005KT 040V100 9999 SCT021 24/20 Q1017
                        NOSIG=
201109251945 METAR LMML 251945Z 07006KT 040V100 9999 BKN023 24/20 Q1017
                        NOSIG=
201109251930 METAR LMML NIL=
201109251915 METAR LMML 251915Z 08006KT 040V120 9999 SCT024 24/20 Q1017
                        NOSIG=
201109251900 METAR LMML NIL=
201109251845 METAR LMML 251845Z 07006KT 030V100 9999 SCT024 23/20 Q1017
                        NOSIG=
201109251830 METAR LMML NIL=
201109251815 METAR LMML 251815Z 07007KT 030V100 9999 BKN021 SCT250 24/20
                        Q1016 NOSIG=
201109251800 METAR LMML NIL=
201109251745 METAR LMML 251745Z 08006KT 050V110 9999 BKN026 SCT250 24/20
                        Q1016 NOSIG=
201109251730 METAR LMML NIL=
201109251715 METAR LMML 251715Z 08007KT 040V110 9999 BKN017 SCT250 24/20
                        Q1016 NOSIG=
201109251700 METAR LMML NIL=
201109251645 METAR LMML 251645Z 07006KT 040V110 9999 BKN021 SCT250 24/20
                        Q1017 NOSIG=
201109251630 METAR LMML NIL=
201109251615 METAR LMML 251615Z 07008KT 020V120 9999 FEW019 SCT250 24/19
                        Q1016 NOSIG=
201109251600 METAR LMML NIL=
201109251545 METAR LMML 251545Z 09011KT 9999 FEW020 25/19 Q1015 NOSIG=
201109251530 METAR LMML NIL=
201109251515 METAR LMML 251515Z 08012KT 060V120 9999 FEW024 25/20 Q1015
                        NOSIG=
201109251500 METAR LMML NIL=
201109251445 METAR LMML 251445Z 09014KT 060V120 9999 FEW024 SCT250 26/19
                        Q1015 NOSIG=
201109251430 METAR LMML NIL=
201109251415 METAR LMML 251415Z 12006KT 070V170 9999 FEW023 SCT250 26/19
                        Q1016 NOSIG=
201109251400 METAR LMML NIL=
201109251345 METAR LMML 251345Z 19003KT 9999 SCT022 BKN120 25/19 Q1018
                        NOSIG=
201109251330 METAR LMML NIL=
201109251315 METAR LMML 251315Z 17006KT 130V210 9999 SCT021 BKN120 25/19
                        Q1018 NOSIG=
201109251300 METAR LMML NIL=
201109251245 METAR LMML 251245Z 12008KT 080V150 9999 SCT021 SCT120 26/19
                        Q1017 NOSIG=
201109251215 METAR LMML 251215Z 11014KT 9999 SCT017 SCT120 26/19 Q1017
                        NOSIG=
201109251145 METAR LMML 251145Z 11015KT 070V130 9999 FEW019 SCT120 26/19
                        Q1016 NOSIG=
201109251115 METAR LMML 251115Z 11016KT 9999 FEW020 27/19 Q1016 NOSIG=
201109251100 METAR LMML NIL=
201109251045 METAR LMML 251045Z 11015KT 070V150 9999 FEW020 26/19 Q1017
                        NOSIG=
201109251030 METAR LMML NIL=
201109251015 METAR LMML 251015Z 11013KT 070V140 9999 SCT017 26/19 Q1017
                        NOSIG=
201109251000 METAR LMML NIL=
201109250945 METAR LMML 250945Z 11012KT 080V150 9999 SCT019 26/19 Q1017
                        NOSIG=
201109250930 METAR LMML NIL=
201109250915 METAR LMML 250915Z 12011KT 060V160 9999 SCT021 25/19 Q1018
                        NOSIG=
201109250845 METAR LMML 250845Z 13012KT 100V170 9999 SCT020 26/18 Q1018
                        NOSIG=
201109250830 METAR LMML NIL=
201109250815 METAR LMML 250815Z 11011KT 080V140 9999 FEW023 25/18 Q1018
                        NOSIG=
201109250800 METAR LMML NIL=
201109250745 METAR LMML 250745Z 12011KT 090V150 9999 FEW020 25/18 Q1018
                        NOSIG=
201109250730 METAR LMML NIL=
201109250715 METAR LMML 250715Z 13010KT 100V160 9999 FEW020 24/18 Q1018
                        NOSIG=
201109250700 METAR LMML NIL=
201109250645 METAR LMML 250645Z 14008KT 110V180 9999 FEW018 SCT120 23/18
                        Q1017 NOSIG=
201109250630 METAR LMML NIL=
201109250615 METAR LMML 250615Z 14007KT 9999 FEW018 BKN120 23/18 Q1017
                        NOSIG=
201109250600 METAR LMML NIL=
201109250545 METAR LMML 250545Z 14008KT 9999 FEW018 SCT120 22/18 Q1016
                        NOSIG=
201109250530 METAR LMML NIL=
201109250515 METAR LMML 250515Z 14008KT 9999 FEW018 21/18 Q1016 NOSIG=
201109250500 METAR LMML NIL=
201109250445 METAR LMML 250445Z 13006KT 9999 FEW014 SCT250 20/18 Q1016
                        NOSIG=
201109250430 METAR LMML NIL=
201109250415 METAR LMML 250415Z 13007KT 9999 FEW014 SCT250 21/18 Q1016
                        NOSIG=
201109250400 METAR LMML NIL=
201109250345 METAR LMML 250345Z 12006KT 9999 FEW014 SCT250 21/18 Q1016
                        NOSIG=
201109250330 METAR LMML NIL=
201109250315 METAR LMML 250315Z 10007KT 9999 FEW015 SCT250 21/18 Q1016
                        NOSIG=
201109250300 METAR LMML NIL=
201109250245 METAR LMML 250245Z 10007KT 040V130 9999 FEW013 SCT250 21/18
                        Q1016 NOSIG=
201109250230 METAR LMML NIL=
201109250215 METAR LMML 250215Z 09006KT 9999 FEW030 SCT250 20/19 Q1016
                        NOSIG=
201109250200 METAR LMML NIL=
201109250145 METAR LMML 250145Z 09004KT 9999 FEW030 SCT250 20/18 Q1016
                        NOSIG=
201109250130 METAR LMML NIL=
201109250115 METAR LMML 250115Z VRB02KT CAVOK 20/18 Q1017 NOSIG=
201109250100 METAR LMML NIL=
201109250045 METAR LMML 250045Z VRB01KT 9999 FEW020 SCT250 19/17 Q1017
                        NOSIG=
201109250030 METAR LMML NIL=
201109250015 METAR LMML 250015Z VRB01KT CAVOK 19/17 Q1017 NOSIG=
201109250000 METAR LMML NIL=
201109242345 METAR LMML 242345Z 34004KT CAVOK 19/17 Q1018 NOSIG=
201109242330 METAR LMML NIL=
201109242315 METAR LMML 242315Z VRB01KT CAVOK 20/17 Q1017 NOSIG=
201109242300 METAR LMML NIL=
201109242245 METAR LMML 242245Z VRB01KT CAVOK 20/18 Q1017 NOSIG=
201109242230 METAR LMML NIL=
201109242215 METAR LMML 242215Z VRB02KT CAVOK 20/17 Q1017 NOSIG=
201109242200 METAR LMML NIL=
201109242145 METAR LMML 242145Z VRB01KT CAVOK 20/17 Q1017 NOSIG=
201109242130 METAR LMML NIL=
201109242115 METAR LMML 242115Z VRB01KT CAVOK 20/17 Q1017 NOSIG=
201109242100 METAR LMML NIL=
201109242045 METAR LMML 242045Z VRB01KT CAVOK 20/17 Q1017 NOSIG=
201109242030 METAR LMML NIL=
201109242015 METAR LMML 242015Z VRB01KT CAVOK 20/17 Q1017 NOSIG=
201109242000 METAR LMML NIL=
201109241945 METAR LMML 241945Z VRB02KT CAVOK 21/18 Q1017 NOSIG=
201109241930 METAR LMML NIL=
201109241915 METAR LMML 241915Z VRB02KT CAVOK 21/18 Q1017 NOSIG=
201109241900 METAR LMML NIL=
201109241845 METAR LMML 241845Z 35003KT CAVOK 21/18 Q1016 NOSIG=
201109241830 METAR LMML NIL=
201109241815 METAR LMML 241815Z 04003KT CAVOK 22/18 Q1016 NOSIG=
201109241800 METAR LMML NIL=
201109241745 METAR LMML 241745Z 04003KT CAVOK 22/18 Q1016 NOSIG=
201109241730 METAR LMML NIL=
201109241715 METAR LMML 241715Z 04003KT CAVOK 22/18 Q1016 NOSIG=
201109241700 METAR LMML NIL=
201109241645 METAR LMML 241645Z 03004KT 360V130 CAVOK 23/18 Q1015 NOSIG=
201109241630 METAR LMML NIL=
201109241615 METAR LMML 241615Z 04005KT 360V100 CAVOK 24/18 Q1015 NOSIG=
201109241600 METAR LMML NIL=
201109241545 METAR LMML 241545Z 03004KT 9999 FEW026 SCT250 25/18 Q1015
                        NOSIG=
201109241530 METAR LMML NIL=
201109241515 METAR LMML 241515Z 03006KT 360V060 9999 FEW026 SCT250 26/18
                        Q1015 NOSIG=
201109241445 METAR LMML 241445Z 03006KT 010V080 9999 FEW030 SCT250 26/18
                        Q1015 NOSIG=
201109241430 METAR LMML NIL=
201109241415 METAR LMML 241415Z 22007KT 190V270 9999 FEW028 SCT250 25/17
                        Q1015 NOSIG=
201109241400 METAR LMML NIL=
201109241345 METAR LMML 241345Z 23007KT 170V290 9999 FEW029 26/17 Q1015
                        NOSIG=
201109241315 METAR LMML 241315Z 18004KT 120V250 9999 FEW029 26/17 Q1015
                        NOSIG=
201109241300 METAR LMML NIL=
201109241245 METAR LMML 241245Z 04003KT 9999 FEW023 26/18 Q1015 NOSIG=
201109241230 METAR LMML NIL=
201109241215 METAR LMML 241215Z 10004KT 360V180 9999 SCT023 SCT250 25/18
                        Q1015 NOSIG=
201109241145 METAR LMML 241145Z 07006KT 340V130 9999 FEW038 26/18 Q1015
                        NOSIG=
201109241115 METAR LMML 241115Z 07007KT 040V120 9999 FEW038 25/18 Q1016
                        NOSIG=
201109241045 METAR LMML 241045Z 22004KT 150V290 9999 FEW025 27/13 Q1016
                        NOSIG=
201109241015 METAR LMML 241015Z 03005KT 9999 FEW025 26/15 Q1016 NOSIG=
201109240945 METAR LMML 240945Z 27005KT 180V350 9999 FEW015 26/16 Q1016
                        NOSIG=
201109240930 METAR LMML NIL=
201109240915 METAR LMML 240915Z 33004KT 290V050 9999 FEW015 26/17 Q1016
                        NOSIG=
201109240900 METAR LMML NIL=
201109240845 METAR LMML 240845Z 30004KT 210V020 9999 FEW015 25/15 Q1016
                        NOSIG=
201109240830 METAR LMML NIL=
201109240815 METAR LMML 240815Z 28005KT 240V320 9999 FEW013 25/15 Q1016
                        NOSIG=
201109240745 METAR LMML 240745Z 32004KT 280V060 9999 FEW013 24/17 Q1016
                        NOSIG=
201109240730 METAR LMML NIL=
201109240715 METAR LMML 240715Z 30005KT 9999 FEW013 23/18 Q1016 NOSIG=
201109240700 METAR LMML NIL=
201109240645 METAR LMML 240645Z 31003KT 9999 FEW020 22/18 Q1016 NOSIG=
201109240630 METAR LMML NIL=
201109240615 METAR LMML 240615Z VRB01KT 9999 FEW020 21/18 Q1015 NOSIG=
201109240600 METAR LMML NIL=
201109240545 METAR LMML 240545Z VRB02KT 9999 FEW018 20/17 Q1015 NOSIG=
201109240515 METAR LMML 240515Z 28003KT 9999 FEW018 20/17 Q1015 TEMPO
                        8000=
201109240500 METAR LMML NIL=
201109240445 METAR LMML 240445Z 27003KT 9999 FEW018 19/17 Q1015 TEMPO
                        8000=
201109240430 METAR LMML NIL=
201109240415 METAR LMML 240415Z VRB02KT 9999 FEW018 19/17 Q1015 TEMPO
                        8000=
201109240400 METAR LMML NIL=
201109240345 METAR LMML 240345Z VRB02KT CAVOK 19/16 Q1014 TEMPO 8000 FEW011=
201109240330 METAR LMML NIL=
201109240315 METAR LMML 240315Z 27003KT CAVOK 19/16 Q1015 TEMPO 8000 FEW011=
201109240245 METAR LMML 240245Z VRB02KT CAVOK 20/16 Q1015 NOSIG=
201109240230 METAR LMML NIL=
201109240215 METAR LMML 240215Z 27003KT CAVOK 20/16 Q1015 NOSIG=
201109240200 METAR LMML NIL=
201109240145 METAR LMML 240145Z 26003KT CAVOK 19/16 Q1015 NOSIG=
201109240130 METAR LMML NIL=
201109240115 METAR LMML 240115Z 27004KT CAVOK 20/16 Q1015 NOSIG=
201109240100 METAR LMML NIL=
201109240045 METAR LMML 240045Z 27004KT 240V300 CAVOK 20/16 Q1015 NOSIG=
201109240030 METAR LMML NIL=
201109240015 METAR LMML 240015Z 26003KT CAVOK 19/16 Q1015 NOSIG=
201109240000 METAR LMML NIL=
201109232345 METAR LMML 232345Z VRB02KT CAVOK 19/16 Q1015 NOSIG=
201109232330 METAR LMML NIL=
201109232315 METAR LMML 232315Z VRB02KT CAVOK 19/16 Q1015 NOSIG=
201109232300 METAR LMML NIL=
201109232245 METAR LMML 232245Z VRB02KT CAVOK 20/17 Q1015 NOSIG=
201109232230 METAR LMML NIL=
201109232215 METAR LMML 232215Z VRB02KT CAVOK 20/17 Q1015 NOSIG=
201109232200 METAR LMML NIL=
201109232145 METAR LMML 232145Z VRB02KT 9999 FEW020 20/17 Q1016 NOSIG=
201109232130 METAR LMML NIL=
201109232115 METAR LMML 232115Z VRB02KT 9999 FEW020 SCT250 20/18 Q1016
                        NOSIG=
201109232100 METAR LMML NIL=
201109232045 METAR LMML 232045Z VRB01KT 9999 FEW020 SCT250 21/18 Q1015
                        NOSIG=
201109232015 METAR LMML 232015Z 32003KT 9999 FEW020 SCT250 21/18 Q1016
                        NOSIG=
201109232000 METAR LMML NIL=
201109231945 METAR LMML 231945Z 28003KT 9999 FEW020 BKN250 21/18 Q1016
                        NOSIG=
201109231930 METAR LMML NIL=
201109231915 METAR LMML 231915Z 29003KT 9999 FEW020 BKN250 21/18 Q1015
                        NOSIG=
201109231900 METAR LMML NIL=
201109231845 METAR LMML 231845Z 29005KT 9999 FEW020 BKN250 21/18 Q1015
                        NOSIG=
201109231815 METAR LMML 231815Z 28006KT 250V310 9999 FEW020 BKN250 22/18
                        Q1015 NOSIG=
201109231800 METAR LMML NIL=
201109231745 METAR LMML 231745Z 29006KT 260V320 9999 FEW020 BKN250 22/18
                        Q1015 NOSIG=
201109231730 METAR LMML NIL=
201109231715 METAR LMML 231715Z 29007KT 9999 FEW020 BKN250 22/18 Q1015
                        NOSIG=
201109231700 METAR LMML NIL=
201109231645 METAR LMML 231645Z 29007KT 9999 FEW020 BKN250 23/18 Q1015
                        NOSIG=
201109231630 METAR LMML NIL=
201109231615 METAR LMML 231615Z 29008KT 9999 FEW025 BKN250 23/17 Q1015
                        NOSIG=
201109231600 METAR LMML NIL=
201109231545 METAR LMML 231545Z 29007KT 240V330 9999 FEW030 BKN250 25/17
                        Q1014 NOSIG=
201109231530 METAR LMML NIL=
201109231515 METAR LMML 231515Z 29007KT 9999 FEW030 BKN250 26/16 Q1014
                        NOSIG=
201109231500 METAR LMML NIL=
201109231445 METAR LMML 231445Z 26005KT 180V310 9999 FEW030 SCT250 27/15
                        Q1014 NOSIG=
201109231430 METAR LMML NIL=
201109231415 METAR LMML 231415Z 27007KT 210V320 9999 FEW035 SCT250 26/16
                        Q1014 NOSIG=
201109231400 METAR LMML NIL=
201109231345 METAR LMML 231345Z 25008KT 190V290 9999 FEW035 26/17 Q1014
                        NOSIG=
201109231330 METAR LMML NIL=
201109231315 METAR LMML 231315Z 22008KT 170V280 9999 FEW035 27/17 Q1014
                        NOSIG=
201109231300 METAR LMML NIL=
201109231245 METAR LMML 231245Z 24006KT 190V290 9999 FEW035 27/16 Q1014
                        NOSIG=
201109231230 METAR LMML NIL=
201109231215 METAR LMML 231215Z 33003KT 9999 FEW025 28/15 Q1014 NOSIG=
201109231145 METAR LMML 231145Z 19005KT 140V250 9999 FEW022 27/15 Q1015
                        NOSIG=
201109231130 METAR LMML NIL=
201109231115 METAR LMML 231115Z 23004KT 180V300 CAVOK 27/16 Q1015 NOSIG=
201109231100 METAR LMML NIL=
201109231045 METAR LMML 231045Z 24006KT 200V290 9999 FEW022 27/16 Q1015
                        NOSIG=
201109231030 METAR LMML NIL=
201109231015 METAR LMML 231015Z 23007KT 190V280 9999 FEW022 26/18 Q1015
                        NOSIG=
201109230945 METAR LMML 230945Z 23006KT 190V280 9999 FEW022 26/18 Q1015
                        NOSIG=
201109230930 METAR LMML NIL=
201109230915 METAR LMML 230915Z 22006KT 180V280 9999 FEW022 26/18 Q1015
                        NOSIG=
201109230900 METAR LMML NIL=
201109230845 METAR LMML 230845Z 23004KT 170V300 9999 FEW022 25/19 Q1015
                        NOSIG=
201109230830 METAR LMML NIL=
201109230815 METAR LMML 230815Z 24003KT 9999 FEW016 24/18 Q1015 NOSIG=
201109230800 METAR LMML NIL=
201109230745 METAR LMML 230745Z 28003KT 9999 FEW016 25/18 Q1016 NOSIG=
201109230730 METAR LMML NIL=
201109230715 METAR LMML 230715Z VRB02KT 9999 FEW013 24/19 Q1016 NOSIG=
201109230700 METAR LMML NIL=
201109230645 METAR LMML 230645Z VRB01KT 9999 FEW018 23/20 Q1015 NOSIG=
201109230630 METAR LMML NIL=
201109230615 METAR LMML 230615Z VRB01KT CAVOK 22/19 Q1015 NOSIG=
201109230600 METAR LMML NIL=
201109230545 METAR LMML 230545Z 26003KT 9999 FEW020 21/19 Q1015 NOSIG=
201109230530 METAR LMML NIL=
201109230515 METAR LMML 230515Z VRB02KT CAVOK 20/19 Q1014 NOSIG=
201109230445 METAR LMML 230445Z VRB02KT CAVOK 20/19 Q1014 NOSIG=
201109230430 METAR LMML NIL=
201109230415 METAR LMML 230415Z 26003KT CAVOK 20/19 Q1014 NOSIG=
201109230400 METAR LMML NIL=
201109230345 METAR LMML 230345Z VRB02KT CAVOK 20/18 Q1014 NOSIG=
201109230330 METAR LMML NIL=
201109230315 METAR LMML 230315Z 25004KT CAVOK 21/19 Q1014 NOSIG=
201109230300 METAR LMML NIL=
201109230245 METAR LMML 230245Z 24003KT CAVOK 20/18 Q1014 NOSIG=
201109230230 METAR LMML NIL=
201109230215 METAR LMML 230215Z 25003KT CAVOK 20/18 Q1015 NOSIG=
201109230200 METAR LMML NIL=
201109230145 METAR LMML 230145Z 24004KT CAVOK 20/18 Q1015 NOSIG=
201109230130 METAR LMML NIL=
201109230115 METAR LMML 230115Z 25004KT CAVOK 20/18 Q1015 NOSIG=
201109230100 METAR LMML NIL=
201109230045 METAR LMML 230045Z 24003KT CAVOK 20/18 Q1015 NOSIG=
201109230030 METAR LMML NIL=
201109230015 METAR LMML 230015Z 25003KT CAVOK 20/18 Q1015 NOSIG=
201109230000 METAR LMML NIL=
201109222345 METAR LMML 222345Z 27003KT CAVOK 20/18 Q1015 NOSIG=
201109222330 METAR LMML NIL=
201109222315 METAR LMML 222315Z 27003KT CAVOK 20/18 Q1015 NOSIG=
201109222300 METAR LMML NIL=
201109222245 METAR LMML 222245Z 28003KT 9999 FEW020 21/18 Q1016 NOSIG=
201109222230 METAR LMML NIL=
201109222215 METAR LMML 222215Z 28003KT 9999 FEW020 21/18 Q1016 NOSIG=
201109222200 METAR LMML NIL=
201109222145 METAR LMML 222145Z 29003KT 9999 FEW020 21/18 Q1016 NOSIG=
201109222130 METAR LMML NIL=
201109222115 METAR LMML 222115Z 31003KT 9999 FEW020 21/18 Q1016 NOSIG=
201109222100 METAR LMML NIL=
201109222045 METAR LMML 222045Z 30004KT 9999 FEW020 21/19 Q1016 NOSIG=
201109222030 METAR LMML NIL=
201109222015 METAR LMML 222015Z 30003KT 9999 FEW020 21/18 Q1016 NOSIG=
201109222000 METAR LMML NIL=
201109221945 METAR LMML 221945Z 31005KT 9999 FEW020 21/18 Q1016 NOSIG=
201109221930 METAR LMML NIL=
201109221915 METAR LMML 221915Z 31005KT 9999 FEW020 22/18 Q1016 NOSIG=
201109221900 METAR LMML NIL=
201109221845 METAR LMML 221845Z 32006KT 9999 FEW020 22/18 Q1015 NOSIG=
201109221830 METAR LMML NIL=
201109221815 METAR LMML 221815Z 31006KT 9999 FEW020 22/18 Q1015 NOSIG=
201109221745 METAR LMML 221745Z 29006KT 9999 FEW020 22/18 Q1015 NOSIG=
201109221715 METAR LMML 221715Z 29007KT 9999 FEW020 23/17 Q1015 NOSIG=
201109221700 METAR LMML NIL=
201109221645 METAR LMML 221645Z 30007KT CAVOK 24/17 Q1015 NOSIG=
201109221630 METAR LMML NIL=
201109221615 METAR LMML 221615Z 29008KT 9999 FEW035 25/15 Q1015 NOSIG=
201109221600 METAR LMML NIL=
201109221545 METAR LMML 221545Z 29009KT 260V320 9999 FEW035 25/15 Q1014
                        NOSIG=
201109221530 METAR LMML NIL=
201109221515 METAR LMML 221515Z 30009KT 250V330 9999 FEW035 26/16 Q1015
                        NOSIG=
201109221500 METAR LMML NIL=
201109221445 METAR LMML 221445Z 30009KT 270V340 9999 FEW037 26/15 Q1015
                        NOSIG=
201109221430 METAR LMML NIL=
201109221415 METAR LMML 221415Z 30010KT 220V340 9999 FEW040 26/16 Q1015
                        NOSIG=
201109221400 METAR LMML NIL=
201109221345 METAR LMML 221345Z 30008KT 280V340 9999 FEW040 27/16 Q1014
                        NOSIG=
201109221330 METAR LMML NIL=
201109221315 METAR LMML 221315Z 33007KT 290V040 9999 FEW040 28/14 Q1015
                        NOSIG=
201109221300 METAR LMML NIL=
201109221245 METAR LMML 221245Z 33007KT 290V020 9999 FEW040 28/15 Q1015
                        NOSIG=
201109221230 METAR LMML NIL=
201109221215 METAR LMML 221215Z 33007KT 260V020 9999 FEW040 27/15 Q1015
                        NOSIG=
201109221200 METAR LMML NIL=
201109221145 METAR LMML 221145Z 31007KT 270V340 9999 FEW041 27/14 Q1015
                        NOSIG=
201109221130 METAR LMML NIL=
201109221115 METAR LMML 221115Z 31008KT 240V010 9999 FEW042 27/15 Q1015
                        NOSIG=
201109221045 METAR LMML 221045Z 30007KT 260V360 9999 FEW039 27/15 Q1016
                        NOSIG=
201109221030 METAR LMML NIL=
201109221015 METAR LMML 221015Z 29009KT 250V330 CAVOK 26/15 Q1016 NOSIG=
201109221000 METAR LMML NIL=
201109220945 METAR LMML 220945Z 34008KT 310V020 9999 FEW025 27/16 Q1016
                        NOSIG=
201109220930 METAR LMML NIL=
201109220915 METAR LMML 220915Z 34008KT 320V020 9999 FEW025 26/15 Q1016
                        NOSIG=
201109220900 METAR LMML NIL=
201109220845 METAR LMML 220845Z 33008KT 290V360 9999 FEW025 25/15 Q1016
                        NOSIG=
201109220830 METAR LMML NIL=
201109220815 METAR LMML 220815Z 33009KT 300V360 9999 FEW025 25/16 Q1016
                        NOSIG=
201109220800 METAR LMML NIL=
201109220745 METAR LMML 220745Z 34011KT 300V010 9999 FEW025 24/16 Q1016
                        NOSIG=
201109220730 METAR LMML NIL=
201109220715 METAR LMML 220715Z 31010KT 9999 FEW025 24/17 Q1015 NOSIG=
201109220700 METAR LMML NIL=
201109220645 METAR LMML 220645Z 32011KT 9999 FEW025 23/17 Q1015 NOSIG=
201109220630 METAR LMML NIL=
201109220615 METAR LMML 220615Z 31008KT 280V340 9999 FEW025 22/17 Q1015
                        NOSIG=
201109220545 METAR LMML 220545Z 32006KT 9999 FEW025 21/17 Q1015 NOSIG=
201109220530 METAR LMML NIL=
201109220515 METAR LMML 220515Z 30005KT 9999 FEW020 20/16 Q1015 NOSIG=
201109220500 METAR LMML NIL=
201109220445 METAR LMML 220445Z 29006KT 9999 FEW020 20/16 Q1015 NOSIG=
201109220430 METAR LMML NIL=
201109220415 METAR LMML 220415Z 30006KT CAVOK 20/16 Q1015 NOSIG=
201109220400 METAR LMML NIL=
201109220345 METAR LMML 220345Z 31005KT CAVOK 20/16 Q1015 NOSIG=
201109220330 METAR LMML NIL=
201109220315 METAR LMML 220315Z 30004KT CAVOK 21/16 Q1015 NOSIG=
201109220300 METAR LMML NIL=
201109220245 METAR LMML 220245Z 32008KT CAVOK 21/16 Q1015 NOSIG=
201109220230 METAR LMML NIL=
201109220215 METAR LMML 220215Z 33007KT CAVOK 21/16 Q1015 NOSIG=
201109220200 METAR LMML NIL=
201109220145 METAR LMML 220145Z 33008KT CAVOK 21/16 Q1015 NOSIG=
201109220130 METAR LMML NIL=
201109220115 METAR LMML 220115Z 33009KT CAVOK 21/16 Q1015 NOSIG=
201109220100 METAR LMML NIL=
201109220045 METAR LMML 220045Z 33009KT CAVOK 21/16 Q1015 NOSIG=
201109220030 METAR LMML NIL=
201109220015 METAR LMML 220015Z 33011KT CAVOK 21/16 Q1015 NOSIG=
201109220000 METAR LMML NIL=
201109212345 METAR LMML 212345Z 32008KT CAVOK 21/16 Q1015 NOSIG=
201109212330 METAR LMML NIL=
201109212315 METAR LMML 212315Z 30007KT 280V340 CAVOK 21/16 Q1016 NOSIG=
201109212300 METAR LMML NIL=
201109212245 METAR LMML 212245Z 32006KT CAVOK 21/16 Q1016 NOSIG=
201109212230 METAR LMML NIL=
201109212215 METAR LMML 212215Z 30009KT CAVOK 22/16 Q1016 NOSIG=
201109212200 METAR LMML NIL=
201109212145 METAR LMML 212145Z 29006KT CAVOK 22/16 Q1016 NOSIG=
201109212130 METAR LMML NIL=
201109212115 METAR LMML 212115Z 30007KT CAVOK 22/17 Q1016 NOSIG=
201109212100 METAR LMML NIL=
201109212045 METAR LMML 212045Z 31008KT CAVOK 22/17 Q1016 NOSIG=
201109212030 METAR LMML NIL=
201109212015 METAR LMML 212015Z 31008KT CAVOK 22/17 Q1016 NOSIG=
201109212000 METAR LMML NIL=
201109211945 METAR LMML 211945Z 31012KT CAVOK 22/17 Q1016 NOSIG=
201109211930 METAR LMML NIL=
201109211915 METAR LMML 211915Z 31013KT 280V340 CAVOK 22/16 Q1016 NOSIG=
201109211900 METAR LMML NIL=
201109211845 METAR LMML 211845Z 31013KT CAVOK 22/16 Q1015 NOSIG=
201109211830 METAR LMML NIL=
201109211815 METAR LMML 211815Z 31012KT 280V340 CAVOK 22/16 Q1015 NOSIG=
201109211800 METAR LMML NIL=
201109211745 METAR LMML 211745Z 31015KT CAVOK 23/16 Q1015 NOSIG=
201109211730 METAR LMML NIL=
201109211715 METAR LMML 211715Z 31017KT 9999 FEW030 23/16 Q1015 NOSIG=
201109211645 METAR LMML 211645Z 31019KT 9999 FEW030 23/16 Q1014 NOSIG=
201109211630 METAR LMML NIL=
201109211615 METAR LMML 211615Z 31016KT 9999 FEW030 24/16 Q1015 NOSIG=
201109211600 METAR LMML NIL=
201109211545 METAR LMML 211545Z 30019KT 9999 FEW030 24/16 Q1015 NOSIG=
201109211530 METAR LMML NIL=
201109211515 METAR LMML 211515Z 30018KT 9999 FEW030 25/15 Q1014 NOSIG=
201109211500 METAR LMML NIL=
201109211445 METAR LMML 211445Z 30018KT 9999 FEW030 25/16 Q1014 NOSIG=
201109211430 METAR LMML NIL=
201109211415 METAR LMML 211415Z 31023KT 9999 FEW030 25/16 Q1015 NOSIG=
201109211400 METAR LMML NIL=
201109211345 METAR LMML 211345Z 29020KT 250V320 9999 FEW030 25/16 Q1014
                        NOSIG=
201109211330 METAR LMML NIL=
201109211315 METAR LMML 211315Z 30021KT 9999 FEW038 26/16 Q1015 NOSIG=
201109211300 METAR LMML NIL=
201109211245 METAR LMML 211245Z 31019KT 280V340 9999 FEW035 26/14 Q1015
                        NOSIG=
201109211215 METAR LMML 211215Z 30019KT 9999 FEW035 26/14 Q1015 NOSIG=
201109211200 METAR LMML NIL=
201109211145 METAR LMML 211145Z 30019KT 270V330 9999 FEW035 26/15 Q1015
                        NOSIG=
201109211130 METAR LMML NIL=
201109211115 METAR LMML 211115Z 30019KT 250V330 9999 FEW036 26/14 Q1015
                        NOSIG=
201109211100 METAR LMML NIL=
201109211045 METAR LMML 211045Z 32017KT 300V360 9999 FEW038 24/14 Q1015
                        NOSIG=
201109211030 METAR LMML NIL=
201109211015 METAR LMML 211015Z 33018KT 300V360 9999 FEW035 26/14 Q1015
                        NOSIG=
201109211000 METAR LMML NIL=
201109210945 METAR LMML 210945Z 32019KT 290V350 9999 FEW036 26/15 Q1015
                        NOSIG=
201109210930 METAR LMML NIL=
201109210915 METAR LMML 210915Z 33020KT 9999 FEW035 25/14 Q1015 NOSIG=
201109210900 METAR LMML NIL=
201109210845 METAR LMML 210845Z 33020KT 9999 FEW035 24/14 Q1015 NOSIG=
201109210830 METAR LMML NIL=
201109210815 METAR LMML 210815Z 32020KT 290V350 9999 FEW035 24/14 Q1015
                        NOSIG=
201109210800 METAR LMML NIL=
201109210745 METAR LMML 210745Z 31021KT 9999 FEW030 24/14 Q1015 NOSIG=
201109210730 METAR LMML NIL=
201109210715 METAR LMML 210715Z 31022G32KT 9999 FEW025 23/14 Q1015 NOSIG=
201109210700 METAR LMML NIL=
201109210645 METAR LMML 210645Z 31017KT 9999 FEW025 23/14 Q1014 NOSIG=
201109210630 METAR LMML NIL=
201109210615 METAR LMML 210615Z 31015G25KT 9999 FEW025 22/14 Q1014 NOSIG=
201109210600 METAR LMML NIL=
201109210545 METAR LMML 210545Z 31015KT 9999 FEW025 21/15 Q1014 NOSIG=
201109210530 METAR LMML NIL=
201109210515 METAR LMML 210515Z 31014KT 9999 FEW030 20/15 Q1014 NOSIG=
201109210445 METAR LMML 210445Z 31014KT 9999 FEW033 20/15 Q1014 NOSIG=
201109210430 METAR LMML NIL=
201109210415 METAR LMML 210415Z 31015KT 9999 FEW033 20/15 Q1014 NOSIG=
201109210400 METAR LMML NIL=
201109210345 METAR LMML 210345Z 31014KT 9999 FEW033 SCT080 19/15 Q1014
                        NOSIG=
201109210330 METAR LMML NIL=
201109210315 METAR LMML 210315Z 29015KT 260V320 9999 FEW033 SCT080 SCT075
                        19/15 Q1014 NOSIG=
201109210300 METAR LMML NIL=
201109210245 METAR LMML 210245Z 31015KT 9999 FEW036 21/14 Q1014 NOSIG=
201109210230 METAR LMML NIL=
201109210215 METAR LMML 210215Z 31015KT 9999 FEW040 21/13 Q1014 NOSIG=
201109210200 METAR LMML NIL=
201109210145 METAR LMML 210145Z 30015KT 9999 FEW035 SCT080 21/13 Q1014
                        NOSIG=
201109210130 METAR LMML NIL=
201109210115 METAR LMML 210115Z 30014KT 260V330 9999 FEW034 SCT080 21/13
                        Q1014 NOSIG=
201109210100 METAR LMML NIL=
201109210045 METAR LMML 210045Z 28015KT 9999 FEW029 21/14 Q1014 NOSIG=
201109210030 METAR LMML NIL=
201109210015 METAR LMML 210015Z 28015KT 9999 FEW031 21/14 Q1014 NOSIG=
201109210000 METAR LMML NIL=
201109202345 METAR LMML 202345Z 28015KT 9999 FEW031 21/15 Q1014 NOSIG=
201109202330 METAR LMML NIL=
201109202315 METAR LMML 202315Z 29013KT 260V320 9999 FEW030 21/14 Q1015
                        NOSIG=
201109202300 METAR LMML NIL=
201109202245 METAR LMML 202245Z 29012KT 9999 FEW035 20/13 Q1015 NOSIG=
201109202230 METAR LMML NIL=
201109202215 METAR LMML 202215Z 29018KT 9999 -SHRA BKN027 19/14 Q1015
                        NOSIG=
201109202200 METAR LMML NIL=
201109202145 METAR LMML 202145Z 30013KT 9999 FEW035 SCT090 21/13 Q1015
                        NOSIG=
201109202130 METAR LMML NIL=
201109202115 METAR LMML 202115Z 31014KT 9999 FEW040 21/13 Q1015 NOSIG=
201109202100 METAR LMML NIL=
201109202045 METAR LMML 202045Z 31015KT 9999 FEW040 21/13 Q1015 NOSIG=
201109202030 METAR LMML NIL=
201109202015 METAR LMML 202015Z 30014KT 9999 FEW040 21/13 Q1015 NOSIG=
201109202000 METAR LMML NIL=
201109201945 METAR LMML 201945Z 30014KT 9999 FEW040 21/12 Q1015 NOSIG=
201109201930 METAR LMML NIL=
201109201915 METAR LMML 201915Z 30013KT 270V330 9999 FEW043 21/12 Q1015
                        NOSIG=
201109201900 METAR LMML NIL=
201109201845 METAR LMML 201845Z 30015KT 9999 FEW040 22/12 Q1015 NOSIG=
201109201830 METAR LMML NIL=
201109201815 METAR LMML 201815Z 30019KT 270V330 9999 FEW035 22/12 Q1014
                        NOSIG=
201109201800 METAR LMML NIL=
201109201745 METAR LMML 201745Z 30019KT 270V330 9999 FEW035 22/11 Q1014
                        NOSIG=
201109201730 METAR LMML NIL=
201109201715 METAR LMML 201715Z 30020KT 9999 FEW037 22/13 Q1014 NOSIG=
201109201700 METAR LMML NIL=
201109201645 METAR LMML 201645Z 29015G25KT 260V320 9999 FEW038 22/12 Q1014
                        NOSIG=
201109201630 METAR LMML NIL=
201109201615 METAR LMML 201615Z 30020KT 9999 FEW036 22/13 Q1014 NOSIG=
201109201545 METAR LMML 201545Z 29021KT 260V320 9999 FEW038 23/12 Q1014
                        NOSIG=
201109201530 METAR LMML NIL=
201109201515 METAR LMML 201515Z 29022KT 260V320 9999 FEW038 23/12 Q1014
                        NOSIG=
201109201500 METAR LMML NIL=
201109201445 METAR LMML 201445Z 30022KT 9999 FEW040 24/12 Q1013 NOSIG=
201109201430 METAR LMML NIL=
201109201415 METAR LMML 201415Z 29021G31KT 260V320 9999 FEW040 24/12 Q1014
                        NOSIG=
201109201345 METAR LMML 201345Z 29021G32KT 260V320 9999 FEW038 24/12 Q1014
                        NOSIG=
201109201330 METAR LMML NIL=
201109201315 METAR LMML 201315Z 29018KT 250V320 9999 SCT038 25/13 Q1014
                        NOSIG=
201109201300 METAR LMML NIL=
201109201245 METAR LMML 201245Z 29019KT 260V320 9999 FEW039 24/13 Q1014
                        NOSIG=
201109201230 METAR LMML NIL=
201109201215 METAR LMML 201215Z 29021G31KT 260V320 9999 SCT035 24/13 Q1014
                        NOSIG=
201109201200 METAR LMML NIL=
201109201145 METAR LMML 201145Z 29016KT 260V320 9999 SCT034 24/15 Q1014
                        NOSIG=
201109201130 METAR LMML NIL=
201109201115 METAR LMML 201115Z 29021KT 260V330 9999 FEW037TCU SCT060
                        22/15 Q1014 TEMPO 8000 SHRA=
201109201100 METAR LMML NIL=
201109201045 METAR LMML 201045Z 28013KT 230V310 9999 FEW030 SCT070 22/16
                        Q1015 TEMPO 8000 SHRA=
201109201030 METAR LMML NIL=
201109201015 METAR LMML 201015Z 28016KT 250V310 9999 FEW030TCU SCT040
                        20/16 Q1015 TEMPO 8000 SHRA=
201109201003 SPECI LMML 201003Z 28020G30KT 250V310 9999 -SHRA BKN030 18/16
                        Q1015 NOSIG=
201109201000 METAR LMML NIL=
201109200945 METAR LMML 200945Z 27019KT 230V310 6000 BKN031TCU 24/15 Q1015
                        TEMPO 5000 SHRA=
201109200930 METAR LMML NIL=
201109200915 METAR LMML 200915Z 26014KT 210V310 9999 SCT033TCU 23/14 Q1014
                        NOSIG RMK CB TOP TO NW=
201109200900 METAR LMML NIL=
201109200845 METAR LMML 200845Z 27013KT 240V300 9999 FEW025 23/14 Q1015
                        NOSIG=
201109200830 METAR LMML NIL=
201109200815 METAR LMML 200815Z 27009KT 210V310 9999 FEW025 SCT090 22/13
                        Q1015 NOSIG=
201109200800 METAR LMML NIL=
201109200745 METAR LMML 200745Z 28007KT 9999 FEW025 BKN050 19/15 Q1015
                        NOSIG=
201109200730 METAR LMML NIL=
201109200715 METAR LMML 200715Z 30019KT 270V330 6000 SCT019 SCT060 20/14
                        Q1015 NOSIG=
201109200700 METAR LMML NIL=
201109200645 METAR LMML 200645Z 31019KT 280V340 9999 SCT038 21/15 Q1015
                        TEMPO 8000 SHRA=
201109200630 METAR LMML NIL=
201109200615 METAR LMML 200615Z 30014KT 9999 FEW036 23/13 Q1014 NOSIG=
201109200600 METAR LMML NIL=
201109200545 METAR LMML 200545Z 30012KT 9999 FEW032 22/13 Q1014 NOSIG=
201109200530 METAR LMML NIL=
201109200515 METAR LMML 200515Z 32010KT 9999 FEW032 21/15 Q1014 NOSIG=
201109200500 METAR LMML NIL=
201109200445 METAR LMML 200445Z 31009KT 9999 FEW027 21/15 Q1014 NOSIG=
201109200430 METAR LMML NIL=
201109200415 METAR LMML 200415Z 31009KT 9999 FEW027 21/15 Q1014 NOSIG=
201109200400 METAR LMML NIL=
201109200345 METAR LMML 200345Z 30007KT 9999 FEW020 21/15 Q1013 NOSIG=
201109200330 METAR LMML NIL=
201109200315 METAR LMML 200315Z 30006KT 260V320 9999 FEW020 22/12 Q1013
                        NOSIG=
201109200245 METAR LMML 200245Z 31010KT CAVOK 22/12 Q1013 NOSIG=
201109200230 METAR LMML NIL=
201109200215 METAR LMML 200215Z 30009KT CAVOK 22/12 Q1014 NOSIG=
201109200200 METAR LMML NIL=
201109200145 METAR LMML 200145Z 30009KT CAVOK 22/12 Q1014 NOSIG=
201109200130 METAR LMML NIL=
201109200115 METAR LMML 200115Z 31009KT CAVOK 22/12 Q1014 NOSIG=
201109200100 METAR LMML NIL=
201109200045 METAR LMML 200045Z 31008KT CAVOK 22/12 Q1014 NOSIG=
201109200030 METAR LMML NIL=
201109200015 METAR LMML 200015Z 31011KT CAVOK 22/13 Q1014 NOSIG=
201109200000 METAR LMML NIL=
201109192345 METAR LMML 192345Z 31009KT CAVOK 22/14 Q1014 NOSIG=
201109192330 METAR LMML NIL=
201109192315 METAR LMML 192315Z 30006KT CAVOK 22/14 Q1014 NOSIG=
201109192300 METAR LMML NIL=
201109192245 METAR LMML 192245Z 31008KT CAVOK 22/14 Q1014 NOSIG=
201109192230 METAR LMML NIL=
201109192215 METAR LMML 192215Z 29005KT CAVOK 21/14 Q1015 NOSIG=
201109192200 METAR LMML NIL=
201109192145 METAR LMML 192145Z 31007KT CAVOK 21/14 Q1015 NOSIG=
201109192130 METAR LMML NIL=
201109192115 METAR LMML 192115Z 32010KT CAVOK 22/14 Q1014 NOSIG=
201109192100 METAR LMML NIL=
201109192045 METAR LMML 192045Z 32009KT CAVOK 22/13 Q1015 NOSIG=
201109192030 METAR LMML NIL=
201109192015 METAR LMML 192015Z 32012KT CAVOK 22/12 Q1015 NOSIG=
201109192000 METAR LMML NIL=
201109191945 METAR LMML 191945Z 33010KT CAVOK 22/15 Q1015 NOSIG=
201109191930 METAR LMML NIL=
201109191915 METAR LMML 191915Z 34011KT CAVOK 22/15 Q1015 NOSIG=
201109191900 METAR LMML NIL=
201109191845 METAR LMML 191845Z 33013KT CAVOK 22/15 Q1015 NOSIG=
201109191830 METAR LMML NIL=
201109191815 METAR LMML 191815Z 33016KT CAVOK 22/15 Q1014 NOSIG=
201109191745 METAR LMML 191745Z 34013KT 320V020 CAVOK 23/16 Q1014 NOSIG=
201109191715 METAR LMML 191715Z 33014KT 9999 FEW020 23/14 Q1014 NOSIG=
201109191700 METAR LMML NIL=
201109191645 METAR LMML 191645Z 34016G27KT 9999 FEW020 24/16 Q1014 NOSIG=
201109191630 METAR LMML NIL=
201109191615 METAR LMML 191615Z 33017KT 9999 FEW020 24/17 Q1013 NOSIG=
201109191600 METAR LMML NIL=
201109191545 METAR LMML 191545Z 33020KT 9999 FEW020 25/16 Q1013 NOSIG=
201109191530 METAR LMML NIL=
201109191515 METAR LMML 191515Z 34018KT CAVOK 26/17 Q1012 NOSIG=
201109191500 METAR LMML NIL=
201109191445 METAR LMML 191445Z 34016KT CAVOK 27/17 Q1012 NOSIG=
201109191430 METAR LMML NIL=
201109191415 METAR LMML 191415Z 34019KT CAVOK 27/15 Q1012 NOSIG=
201109191400 METAR LMML NIL=
201109191345 METAR LMML 191345Z 34016KT CAVOK 28/15 Q1012 NOSIG=
201109191330 METAR LMML NIL=
201109191315 METAR LMML 191315Z 34013KT CAVOK 30/18 Q1012 NOSIG=
201109191300 METAR LMML NIL=
201109191245 METAR LMML 191245Z 35009KT 300V020 9999 FEW000 31/16 Q1011
                        NOSIG=
201109191230 METAR LMML NIL=
201109191215 METAR LMML 191215Z 32011KT 290V350 9999 FEW026 SCT120 31/15
                        Q1012 NOSIG=
201109191200 METAR LMML NIL=
201109191145 METAR LMML 191145Z 31019KT 9999 FEW026 30/19 Q1013 NOSIG=
201109191130 METAR LMML NIL=
201109191115 METAR LMML 191115Z 28017KT 220V310 4000 -SHRA FEW025 BKN120
                        28/23 Q1015 NOSIG=
201109191100 METAR LMML NIL=
201109191045 METAR LMML 191045Z 25014KT 200V300 9999 FEW025 BKN120 28/22
                        Q1013 NOSIG=
201109191030 METAR LMML NIL=
201109191015 METAR LMML 191015Z 22010KT 150V270 9999 FEW025 29/22 Q1012
                        NOSIG=
201109191000 METAR LMML NIL=
201109190945 METAR LMML 190945Z 21013KT 170V270 CAVOK 29/22 Q1012 NOSIG=
201109190930 METAR LMML NIL=
201109190915 METAR LMML 190915Z 20010KT 150V240 CAVOK 28/22 Q1012 NOSIG=
201109190900 METAR LMML NIL=
201109190845 METAR LMML 190845Z 19010KT 150V220 CAVOK 27/22 Q1011 NOSIG=
201109190830 METAR LMML NIL=
201109190815 METAR LMML 190815Z 17007KT 130V220 CAVOK 26/22 Q1011 NOSIG=
201109190800 METAR LMML NIL=
201109190745 METAR LMML 190745Z 12009KT 080V180 CAVOK 26/22 Q1010 NOSIG=
201109190730 METAR LMML NIL=
201109190715 METAR LMML 190715Z 19007KT 150V230 CAVOK 26/22 Q1012 NOSIG=
201109190700 METAR LMML NIL=
201109190645 METAR LMML 190645Z 22009KT 170V260 CAVOK 26/22 Q1013 NOSIG=
201109190630 METAR LMML NIL=
201109190615 METAR LMML 190615Z 21005KT 170V250 CAVOK 26/23 Q1012 NOSIG=
201109190600 METAR LMML NIL=
201109190545 METAR LMML 190545Z 20005KT 170V260 CAVOK 25/22 Q1012 NOSIG=
201109190530 METAR LMML NIL=
201109190515 METAR LMML 190515Z 19006KT CAVOK 25/22 Q1011 NOSIG=
201109190500 METAR LMML NIL=
201109190445 METAR LMML 190445Z 18007KT 160V220 CAVOK 25/22 Q1010 NOSIG=
201109190430 METAR LMML NIL=
201109190415 METAR LMML 190415Z 18007KT 160V220 CAVOK 25/22 Q1010 NOSIG=
201109190400 METAR LMML NIL=
201109190345 METAR LMML 190345Z 18007KT CAVOK 25/22 Q1010 NOSIG=
201109190330 METAR LMML NIL=
201109190315 METAR LMML 190315Z 18008KT CAVOK 25/22 Q1010 NOSIG=
201109190300 METAR LMML NIL=
201109190245 METAR LMML 190245Z 19007KT 160V230 CAVOK 25/22 Q1011 NOSIG=
201109190230 METAR LMML NIL=
201109190215 METAR LMML 190215Z 18007KT 150V220 CAVOK 25/22 Q1011 NOSIG=
201109190200 METAR LMML NIL=
201109190145 METAR LMML 190145Z 18006KT 150V220 CAVOK 25/21 Q1011 NOSIG=
201109190130 METAR LMML NIL=
201109190115 METAR LMML 190115Z 18007KT 140V210 CAVOK 25/21 Q1011 NOSIG=
201109190100 METAR LMML NIL=
201109190045 METAR LMML 190045Z 18006KT 140V220 CAVOK 25/21 Q1011 NOSIG=
201109190030 METAR LMML NIL=
201109190015 METAR LMML 190015Z 17006KT 130V200 CAVOK 25/21 Q1011 NOSIG=
201109190000 METAR LMML NIL=
201109182345 METAR LMML 182345Z 17004KT 130V200 CAVOK 24/21 Q1011 NOSIG=
201109182330 METAR LMML NIL=
201109182315 METAR LMML 182315Z 17005KT 130V200 CAVOK 24/21 Q1011 NOSIG=
201109182300 METAR LMML NIL=
201109182245 METAR LMML 182245Z 16005KT 120V200 CAVOK 25/21 Q1012 NOSIG=
201109182230 METAR LMML NIL=
201109182215 METAR LMML 182215Z 14003KT CAVOK 24/21 Q1012 NOSIG=
201109182200 METAR LMML NIL=
201109182145 METAR LMML 182145Z 14004KT CAVOK 24/20 Q1012 NOSIG=
201109182130 METAR LMML NIL=
201109182115 METAR LMML 182115Z 16003KT CAVOK 24/21 Q1012 NOSIG=
201109182100 METAR LMML NIL=
201109182045 METAR LMML 182045Z 14004KT CAVOK 24/20 Q1012 NOSIG=
201109182030 METAR LMML NIL=
201109182015 METAR LMML 182015Z 15003KT CAVOK 24/20 Q1012 NOSIG=
201109182000 METAR LMML NIL=
201109181945 METAR LMML 181945Z 14003KT CAVOK 25/20 Q1012 NOSIG=
201109181930 METAR LMML NIL=
201109181915 METAR LMML 181915Z 16003KT CAVOK 25/20 Q1012 NOSIG=
201109181900 METAR LMML NIL=
201109181845 METAR LMML 181845Z 18003KT CAVOK 25/20 Q1012 NOSIG=
201109181830 METAR LMML NIL=
201109181815 METAR LMML 181815Z 18003KT CAVOK 25/20 Q1011 NOSIG=
201109181800 METAR LMML NIL=
201109181745 METAR LMML 181745Z 19004KT 160V230 CAVOK 25/19 Q1011 NOSIG=
201109181730 METAR LMML NIL=
201109181715 METAR LMML 181715Z 20004KT 160V240 CAVOK 26/19 Q1011 NOSIG=
201109181700 METAR LMML NIL=
201109181645 METAR LMML 181645Z 20004KT 170V240 CAVOK 26/18 Q1011 NOSIG=
201109181630 METAR LMML NIL=
201109181615 METAR LMML 181615Z 20004KT 160V270 CAVOK 27/17 Q1011 NOSIG=
201109181600 METAR LMML NIL=
201109181545 METAR LMML 181545Z 20005KT 150V270 CAVOK 28/17 Q1011 NOSIG=
201109181530 METAR LMML NIL=
201109181515 METAR LMML 181515Z 21005KT 180V250 CAVOK 28/16 Q1011 NOSIG=
201109181500 METAR LMML NIL=
201109181445 METAR LMML 181445Z 20005KT 150V260 CAVOK 29/15 Q1011 NOSIG=
201109181430 METAR LMML NIL=
201109181415 METAR LMML 181415Z 22007KT 170V260 CAVOK 29/12 Q1011 NOSIG=
201109181400 METAR LMML NIL=
201109181345 METAR LMML 181345Z 21007KT 150V290 CAVOK 29/13 Q1012 NOSIG=
201109181330 METAR LMML NIL=
201109181315 METAR LMML 181315Z 20006KT 170V280 CAVOK 29/13 Q1012 NOSIG=
201109181300 METAR LMML NIL=
201109181245 METAR LMML 181245Z 21006KT 180V280 CAVOK 30/10 Q1012 NOSIG=
201109181230 METAR LMML NIL=
201109181215 METAR LMML 181215Z 21006KT 150V270 CAVOK 30/10 Q1012 NOSIG=
201109181200 METAR LMML NIL=
201109181145 METAR LMML 181145Z 20007KT 150V260 CAVOK 30/08 Q1012 NOSIG=
201109181115 METAR LMML 181115Z 20006KT 140V280 CAVOK 31/09 Q1012 NOSIG=
201109181100 METAR LMML NIL=
201109181045 METAR LMML 181045Z 21007KT 170V270 CAVOK 30/08 Q1013 NOSIG=
201109181030 METAR LMML NIL=
201109181015 METAR LMML 181015Z 22005KT 160V280 CAVOK 30/09 Q1013 NOSIG=
201109181000 METAR LMML NIL=
201109180945 METAR LMML 180945Z 22006KT 190V260 CAVOK 30/10 Q1013 NOSIG=
201109180930 METAR LMML NIL=
201109180915 METAR LMML 180915Z 18005KT 140V210 CAVOK 30/12 Q1013 NOSIG=
201109180900 METAR LMML NIL=
201109180845 METAR LMML 180845Z VRB02KT CAVOK 30/13 Q1013 NOSIG=
201109180830 METAR LMML NIL=
201109180815 METAR LMML 180815Z VRB02KT CAVOK 31/09 Q1013 NOSIG=
201109180800 METAR LMML NIL=
201109180745 METAR LMML 180745Z VRB02KT CAVOK 30/09 Q1013 NOSIG=
201109180730 METAR LMML NIL=
201109180715 METAR LMML 180715Z VRB02KT CAVOK 28/09 Q1013 NOSIG=
201109180700 METAR LMML NIL=
201109180645 METAR LMML 180645Z VRB02KT CAVOK 27/11 Q1013 NOSIG=
201109180630 METAR LMML NIL=
201109180615 METAR LMML 180615Z VRB02KT CAVOK 25/13 Q1013 NOSIG=
201109180600 METAR LMML NIL=
201109180545 METAR LMML 180545Z 27003KT CAVOK 23/13 Q1013 NOSIG=
201109180530 METAR LMML NIL=
201109180515 METAR LMML 180515Z 26003KT CAVOK 22/12 Q1013 NOSIG=
201109180500 METAR LMML NIL=
201109180445 METAR LMML 180445Z 27003KT CAVOK 22/11 Q1013 NOSIG=
201109180430 METAR LMML NIL=
201109180415 METAR LMML 180415Z 26004KT CAVOK 22/13 Q1012 NOSIG=
201109180400 METAR LMML NIL=
201109180345 METAR LMML 180345Z 25004KT CAVOK 21/13 Q1012 NOSIG=
201109180330 METAR LMML NIL=
201109180315 METAR LMML 180315Z 27004KT CAVOK 22/13 Q1013 NOSIG=
201109180300 METAR LMML NIL=
201109180245 METAR LMML 180245Z 26004KT CAVOK 22/10 Q1013 NOSIG=
201109180215 METAR LMML 180215Z 26004KT CAVOK 22/10 Q1013 NOSIG=
201109180200 METAR LMML NIL=
201109180145 METAR LMML 180145Z 24004KT CAVOK 22/08 Q1013 NOSIG=
201109180130 METAR LMML NIL=
201109180115 METAR LMML 180115Z VRB02KT CAVOK 21/10 Q1013 NOSIG=
201109180100 METAR LMML NIL=
201109180045 METAR LMML 180045Z 26003KT CAVOK 23/10 Q1013 NOSIG=
201109180030 METAR LMML NIL=
201109180015 METAR LMML 180015Z 28004KT 230V290 CAVOK 23/10 Q1013 NOSIG=
201109172345 METAR LMML 172345Z 25004KT CAVOK 22/13 Q1014 NOSIG=
201109172330 METAR LMML NIL=
201109172315 METAR LMML 172315Z 28003KT CAVOK 22/14 Q1014 NOSIG=
201109172300 METAR LMML NIL=
201109172245 METAR LMML 172245Z 30003KT CAVOK 23/15 Q1014 NOSIG=
201109172230 METAR LMML NIL=
201109172215 METAR LMML 172215Z 29003KT CAVOK 22/16 Q1014 NOSIG=
201109172145 METAR LMML 172145Z 30003KT CAVOK 23/17 Q1014 NOSIG=
201109172130 METAR LMML NIL=
201109172115 METAR LMML 172115Z 32004KT CAVOK 23/18 Q1015 NOSIG=
201109172045 METAR LMML 172045Z 30003KT CAVOK 23/19 Q1015 NOSIG=
201109172030 METAR LMML NIL=
201109172015 METAR LMML 172015Z VRB02KT CAVOK 23/19 Q1015 NOSIG=
201109172000 METAR LMML NIL=
201109171945 METAR LMML 171945Z 31004KT CAVOK 24/19 Q1015 NOSIG=
201109171915 METAR LMML 171915Z 32005KT CAVOK 24/19 Q1015 NOSIG=
201109171900 METAR LMML NIL=
201109171845 METAR LMML 171845Z 33005KT CAVOK 25/19 Q1015 NOSIG=
201109171830 METAR LMML NIL=
201109171815 METAR LMML 171815Z 33005KT 310V020 CAVOK 25/18 Q1015 NOSIG=
201109171800 METAR LMML NIL=
201109171745 METAR LMML 171745Z 31005KT CAVOK 25/19 Q1014 NOSIG=
201109171715 METAR LMML 171715Z 31006KT CAVOK 26/18 Q1014 NOSIG=
201109171700 METAR LMML NIL=
201109171645 METAR LMML 171645Z 31008KT CAVOK 27/18 Q1014 NOSIG=
201109171615 METAR LMML 171615Z 31008KT CAVOK 28/18 Q1014 NOSIG=
201109171600 METAR LMML NIL=
201109171545 METAR LMML 171545Z 30008KT CAVOK 29/18 Q1014 NOSIG=
201109171530 METAR LMML NIL=
201109171515 METAR LMML 171515Z 32006KT 260V360 CAVOK 30/18 Q1014 NOSIG=
201109171500 METAR LMML NIL=
201109171445 METAR LMML 171445Z 35006KT 300V030 CAVOK 32/12 Q1014 NOSIG=
201109171430 METAR LMML NIL=
201109171415 METAR LMML 171415Z 02005KT 340V060 CAVOK 32/13 Q1014 NOSIG=
201109171400 METAR LMML NIL=
201109171345 METAR LMML 171345Z 01006KT 330V040 CAVOK 33/14 Q1014 NOSIG=
201109171330 METAR LMML NIL=
201109171315 METAR LMML 171315Z 02005KT 350V050 CAVOK 33/14 Q1014 NOSIG=
201109171300 METAR LMML NIL=
201109171245 METAR LMML 171245Z 01005KT 320V070 CAVOK 33/14 Q1014 NOSIG=
201109171230 METAR LMML NIL=
201109171215 METAR LMML 171215Z 36005KT 330V040 CAVOK 33/13 Q1015 NOSIG=
201109171200 METAR LMML NIL=
201109171145 METAR LMML 171145Z 02006KT CAVOK 33/13 Q1014 NOSIG=
201109171130 METAR LMML NIL=
201109171115 METAR LMML 171115Z 01006KT 330V060 CAVOK 33/13 Q1015 NOSIG=
201109171045 METAR LMML 171045Z 01006KT 330V050 CAVOK 33/14 Q1015 NOSIG=
201109171030 METAR LMML NIL=
201109171015 METAR LMML 171015Z 36006KT 320V030 CAVOK 32/14 Q1015 NOSIG=
201109171000 METAR LMML NIL=
201109170945 METAR LMML 170945Z 33007KT CAVOK 31/15 Q1015 NOSIG=
201109170930 METAR LMML NIL=
201109170915 METAR LMML 170915Z 34008KT CAVOK 31/14 Q1016 NOSIG=
201109170900 METAR LMML NIL=
201109170845 METAR LMML 170845Z 35006KT 320V020 CAVOK 31/14 Q1015 NOSIG=
201109170830 METAR LMML NIL=
201109170815 METAR LMML 170815Z 34007KT 310V010 CAVOK 30/15 Q1015 NOSIG=
201109170800 METAR LMML NIL=
201109170745 METAR LMML 170745Z 34008KT CAVOK 28/17 Q1015 NOSIG=
201109170730 METAR LMML NIL=
201109170715 METAR LMML 170715Z 34007KT CAVOK 27/18 Q1015 NOSIG=
201109170700 METAR LMML NIL=
201109170645 METAR LMML 170645Z 33007KT CAVOK 26/20 Q1015 NOSIG=
201109170630 METAR LMML NIL=
201109170615 METAR LMML 170615Z 32005KT CAVOK 24/19 Q1015 NOSIG=
201109170600 METAR LMML NIL=
201109170545 METAR LMML 170545Z 32005KT CAVOK 23/18 Q1015 NOSIG=
201109170530 METAR LMML NIL=
201109170515 METAR LMML 170515Z 33005KT CAVOK 22/16 Q1015 NOSIG=
201109170500 METAR LMML NIL=
201109170445 METAR LMML 170445Z 33005KT CAVOK 22/16 Q1015 NOSIG=
201109170430 METAR LMML NIL=
201109170415 METAR LMML 170415Z 32005KT CAVOK 22/16 Q1015 NOSIG=
201109170400 METAR LMML NIL=
201109170345 METAR LMML 170345Z 31005KT CAVOK 22/16 Q1015 NOSIG=
201109170330 METAR LMML NIL=
201109170315 METAR LMML 170315Z 31005KT CAVOK 22/16 Q1015 NOSIG=
201109170300 METAR LMML NIL=
201109170245 METAR LMML 170245Z 32004KT CAVOK 23/15 Q1015 NOSIG=
201109170230 METAR LMML NIL=
201109170215 METAR LMML 170215Z 32003KT CAVOK 22/15 Q1015 NOSIG=
201109170200 METAR LMML NIL=
201109170145 METAR LMML 170145Z 30005KT CAVOK 23/15 Q1015 NOSIG=
201109170130 METAR LMML NIL=
201109170115 METAR LMML 170115Z 30004KT CAVOK 22/15 Q1015 NOSIG=
201109170100 METAR LMML NIL=
201109170045 METAR LMML 170045Z 29004KT CAVOK 23/15 Q1015 NOSIG=
201109170030 METAR LMML NIL=
201109170015 METAR LMML 170015Z 29005KT CAVOK 22/17 Q1015 NOSIG=
201109170000 METAR LMML NIL=
201109162345 METAR LMML 162345Z 30003KT CAVOK 23/19 Q1015 NOSIG=
201109162330 METAR LMML NIL=
201109162315 METAR LMML 162315Z 30004KT CAVOK 23/20 Q1016 NOSIG=
201109162300 METAR LMML NIL=
201109162245 METAR LMML 162245Z 32003KT CAVOK 23/20 Q1016 NOSIG=
201109162230 METAR LMML NIL=
201109162215 METAR LMML 162215Z 32004KT CAVOK 23/20 Q1016 NOSIG=
201109162200 METAR LMML NIL=
201109162145 METAR LMML 162145Z 32004KT CAVOK 23/19 Q1016 NOSIG=
201109162130 METAR LMML NIL=
201109162115 METAR LMML 162115Z 30003KT CAVOK 23/20 Q1016 NOSIG=
201109162100 METAR LMML NIL=
201109162045 METAR LMML 162045Z 33004KT CAVOK 23/20 Q1016 NOSIG=
201109162030 METAR LMML NIL=
201109162015 METAR LMML 162015Z 32004KT CAVOK 24/20 Q1016 NOSIG=
201109162000 METAR LMML NIL=
201109161945 METAR LMML 161945Z 32004KT 280V020 CAVOK 24/20 Q1016 NOSIG=
201109161930 METAR LMML NIL=
201109161915 METAR LMML 161915Z 33006KT CAVOK 24/20 Q1016 NOSIG=
201109161900 METAR LMML NIL=
201109161845 METAR LMML 161845Z 35005KT CAVOK 24/19 Q1016 NOSIG=
201109161830 METAR LMML NIL=
201109161815 METAR LMML 161815Z 34005KT 320V020 CAVOK 25/20 Q1015 NOSIG=
201109161800 METAR LMML NIL=
201109161745 METAR LMML 161745Z 34004KT 9999 SCT017 25/20 Q1015 TEMPO
                        9000 BKN015=
201109161730 METAR LMML NIL=
201109161715 METAR LMML 161715Z 01003KT 9999 FEW020 25/20 Q1015 NOSIG=
201109161700 METAR LMML NIL=
201109161645 METAR LMML 161645Z 03004KT 360V070 9999 FEW020 27/19 Q1015
                        NOSIG=
201109161630 METAR LMML NIL=
201109161615 METAR LMML 161615Z 26003KT 9999 FEW020 28/20 Q1015 NOSIG=
201109161600 METAR LMML NIL=
201109161545 METAR LMML 161545Z 03004KT 340V080 9999 FEW020 28/20 Q1015
                        NOSIG=
201109161530 METAR LMML NIL=
201109161515 METAR LMML 161515Z 06006KT 020V080 9999 FEW020 28/19 Q1014
                        NOSIG=
201109161500 METAR LMML NIL=
201109161445 METAR LMML 161445Z 05005KT 360V100 CAVOK 29/19 Q1014 NOSIG=
201109161430 METAR LMML NIL=
201109161415 METAR LMML 161415Z 04007KT 010V080 CAVOK 29/20 Q1014 NOSIG=
201109161400 METAR LMML NIL=
201109161345 METAR LMML 161345Z 02007KT 340V080 CAVOK 30/20 Q1015 NOSIG=
201109161330 METAR LMML NIL=
201109161315 METAR LMML 161315Z 02007KT 350V060 CAVOK 30/19 Q1015 NOSIG=
201109161300 METAR LMML NIL=
201109161245 METAR LMML 161245Z 03008KT 360V070 CAVOK 29/20 Q1015 NOSIG=
201109161230 METAR LMML NIL=
201109161215 METAR LMML 161215Z 04008KT 360V070 9999 FEW025 30/20 Q1015
                        NOSIG=
201109161200 METAR LMML NIL=
201109161145 METAR LMML 161145Z 04008KT 350V080 9999 FEW025 30/20 Q1016
                        NOSIG=
201109161130 METAR LMML NIL=
201109161115 METAR LMML 161115Z 04008KT 350V080 9999 FEW025 30/20 Q1016
                        NOSIG=
201109161100 METAR LMML NIL=
201109161045 METAR COR LMML 161045Z 03008KT 350V070 9999 FEW025 29/20
                        Q1016 NOSIG=
201109161015 METAR LMML 161015Z 03007KT 350V060 9999 FEW025 29/20 Q1016
                        NOSIG=
201109161000 METAR LMML NIL=
201109160945 METAR LMML 160945Z 03006KT 360V060 9999 FEW025 30/20 Q1016
                        NOSIG=
201109160930 METAR LMML NIL=
201109160915 METAR LMML 160915Z 03006KT 350V090 9999 FEW025 29/20 Q1016
                        NOSIG=
201109160900 METAR LMML NIL=
201109160845 METAR LMML 160845Z 04006KT 350V080 9999 FEW025 29/20 Q1016
                        NOSIG=
201109160830 METAR LMML NIL=
201109160815 METAR LMML 160815Z 07006KT 020V130 9999 FEW020 28/19 Q1016
                        NOSIG=
201109160800 METAR LMML NIL=
201109160745 METAR LMML 160745Z 03005KT 360V070 9999 FEW020 28/20 Q1016
                        NOSIG=
201109160730 METAR LMML NIL=
201109160715 METAR LMML 160715Z 05004KT 350V080 9999 FEW020 27/21 Q1016
                        NOSIG=
201109160700 METAR LMML NIL=
201109160645 METAR LMML 160645Z VRB02KT 9999 FEW020 26/21 Q1015 NOSIG=
201109160615 METAR LMML 160615Z 31003KT CAVOK 24/21 Q1015 NOSIG=
201109160600 METAR LMML NIL=
201109160545 METAR LMML 160545Z 31004KT 240V010 CAVOK 23/21 Q1015 NOSIG=
201109160530 METAR LMML NIL=
201109160515 METAR LMML 160515Z 30004KT CAVOK 22/20 Q1015 NOSIG=
201109160500 METAR LMML NIL=
201109160445 METAR LMML 160445Z 30003KT CAVOK 21/20 Q1015 NOSIG=
201109160430 METAR LMML NIL=
201109160415 METAR LMML 160415Z 29003KT CAVOK 21/19 Q1015 NOSIG=
201109160400 METAR LMML NIL=
201109160345 METAR LMML 160345Z 30003KT CAVOK 21/19 Q1015 NOSIG=
201109160330 METAR LMML NIL=
201109160315 METAR LMML 160315Z VRB02KT CAVOK 21/19 Q1015 NOSIG=
201109160300 METAR LMML NIL=
201109160245 METAR LMML 160245Z VRB02KT CAVOK 21/19 Q1015 NOSIG=
201109160230 METAR LMML NIL=
201109160215 METAR LMML 160215Z 30003KT CAVOK 21/19 Q1015 NOSIG=
201109160200 METAR LMML NIL=
201109160145 METAR LMML 160145Z 31003KT CAVOK 21/19 Q1015 NOSIG=
201109160130 METAR LMML NIL=
201109160115 METAR LMML 160115Z 31004KT CAVOK 21/19 Q1015 NOSIG=
201109160100 METAR LMML NIL=
201109160045 METAR LMML 160045Z 30003KT CAVOK 21/19 Q1015 NOSIG=
201109160030 METAR LMML NIL=
201109160015 METAR LMML 160015Z VRB02KT CAVOK 21/19 Q1015 NOSIG=
201109160000 METAR LMML NIL=
201109152345 METAR LMML 152345Z VRB02KT CAVOK 21/19 Q1016 NOSIG=
201109152330 METAR LMML NIL=
201109152315 METAR LMML 152315Z 32003KT CAVOK 21/18 Q1016 NOSIG=
201109152245 METAR LMML 152245Z VRB02KT CAVOK 22/19 Q1016 NOSIG=
201109152230 METAR LMML NIL=
201109152215 METAR LMML 152215Z VRB01KT CAVOK 22/19 Q1016 NOSIG=
201109152200 METAR LMML NIL=
201109152145 METAR LMML 152145Z VRB02KT CAVOK 23/19 Q1016 NOSIG=
201109152130 METAR LMML NIL=
201109152115 METAR LMML 152115Z 34003KT CAVOK 23/19 Q1016 NOSIG=
201109152100 METAR LMML NIL=
201109152045 METAR LMML 152045Z 34005KT CAVOK 24/20 Q1016 NOSIG=
201109152030 METAR LMML NIL=
201109152015 METAR LMML 152015Z 35005KT CAVOK 24/20 Q1016 NOSIG=
201109152000 METAR LMML NIL=
201109151945 METAR LMML 151945Z 32004KT 290V350 CAVOK 24/20 Q1016 NOSIG=
201109151930 METAR LMML NIL=
201109151915 METAR LMML 151915Z 32004KT CAVOK 24/20 Q1016 NOSIG=
201109151900 METAR LMML NIL=
201109151845 METAR LMML 151845Z VRB01KT CAVOK 25/19 Q1015 NOSIG=
201109151830 METAR LMML NIL=
201109151815 METAR LMML 151815Z VRB02KT 9999 FEW025 25/19 Q1015 NOSIG=
201109151800 METAR LMML NIL=
201109151745 METAR LMML 151745Z VRB01KT 9999 FEW025 25/19 Q1015 NOSIG=
201109151730 METAR LMML NIL=
201109151715 METAR LMML 151715Z VRB02KT 9999 FEW025 25/19 Q1015 NOSIG=
201109151700 METAR LMML NIL=
201109151645 METAR LMML 151645Z 02003KT 9999 FEW028 27/19 Q1015 NOSIG=
201109151630 METAR LMML NIL=
201109151615 METAR LMML 151615Z 03004KT 350V070 9999 FEW028 27/19 Q1015
                        NOSIG=
201109151600 METAR LMML NIL=
201109151545 METAR LMML 151545Z 03004KT 350V060 9999 FEW029 28/19 Q1015
                        NOSIG=
201109151530 METAR LMML NIL=
201109151515 METAR LMML 151515Z 03005KT 360V060 9999 FEW030 29/19 Q1015
                        NOSIG=
201109151500 METAR LMML NIL=
201109151445 METAR LMML 151445Z 23006KT 180V310 9999 FEW033 28/19 Q1015
                        NOSIG=
201109151430 METAR LMML NIL=
201109151415 METAR LMML 151415Z 24007KT 190V310 9999 FEW034 28/19 Q1015
                        NOSIG=
201109151400 METAR LMML NIL=
201109151345 METAR LMML 151345Z 23006KT 170V300 9999 FEW039 29/18 Q1015
                        NOSIG=
201109151330 METAR LMML NIL=
201109151315 METAR LMML 151315Z 24006KT 180V310 9999 FEW036 30/16 Q1015
                        NOSIG=
201109151245 METAR LMML 151245Z 36005KT 280V110 9999 FEW047 30/18 Q1015
                        NOSIG=
201109151230 METAR LMML NIL=
201109151215 METAR LMML 151215Z 34003KT 9999 FEW036 30/18 Q1016 NOSIG
                        RMK CB TOPS TO NNE=
201109151200 METAR LMML NIL=
201109151145 METAR LMML 151145Z 26008KT 220V320 9999 FEW036 30/14 Q1016
                        NOSIG=
201109151130 METAR LMML NIL=
201109151115 METAR LMML 151115Z 07004KT 250V190 9999 FEW036 30/16 Q1016
                        NOSIG=
201109151100 METAR LMML NIL=
201109151045 METAR LMML 151045Z VRB02KT 9999 FEW020 SCT100 30/12 Q1016
                        NOSIG=
201109151030 METAR LMML NIL=
201109151015 METAR LMML 151015Z 19003KT 9999 FEW020 29/13 Q1016 NOSIG=
201109151000 METAR LMML NIL=
201109150945 METAR LMML 150945Z 26004KT 9999 FEW020 30/12 Q1016 NOSIG=
201109150930 METAR LMML NIL=
201109150915 METAR LMML 150915Z 22006KT 170V270 9999 FEW020 29/15 Q1016
                        NOSIG=
201109150900 METAR LMML NIL=
201109150845 METAR LMML 150845Z VRB02KT 9999 FEW020 28/14 Q1016 NOSIG=
201109150830 METAR LMML NIL=
201109150815 METAR LMML 150815Z 32005KT 270V010 9999 FEW020 28/15 Q1016
                        NOSIG=
201109150800 METAR LMML NIL=
201109150745 METAR LMML 150745Z 28004KT 230V320 9999 FEW020 27/15 Q1015
                        NOSIG=
201109150715 METAR LMML 150715Z 23005KT 190V290 9999 FEW020 26/19 Q1015
                        NOSIG=
201109150700 METAR LMML NIL=
201109150645 METAR LMML 150645Z 26005KT 220V300 9999 FEW020 25/19 Q1015
                        NOSIG=
201109150630 METAR LMML NIL=
201109150615 METAR LMML 150615Z 28004KT 240V300 9999 FEW020 24/19 Q1015
                        NOSIG=
201109150600 METAR LMML NIL=
201109150545 METAR LMML 150545Z 25003KT 9999 FEW020 23/20 Q1015 NOSIG=
201109150530 METAR LMML NIL=
201109150515 METAR LMML 150515Z 27004KT 9999 FEW020 22/20 Q1015 NOSIG=
201109150500 METAR LMML NIL=
201109150445 METAR LMML 150445Z 26004KT 220V280 9999 FEW020 22/19 Q1015
                        NOSIG=
201109150430 METAR LMML NIL=
201109150415 METAR LMML 150415Z 23004KT 210V270 CAVOK 22/20 Q1014 NOSIG=
201109150400 METAR LMML NIL=
201109150345 METAR LMML 150345Z 25005KT CAVOK 22/20 Q1015 NOSIG=
201109150330 METAR LMML NIL=
201109150315 METAR LMML 150315Z 24004KT 200V280 CAVOK 22/20 Q1014 NOSIG=
201109150300 METAR LMML NIL=
201109150245 METAR LMML 150245Z 23004KT CAVOK 22/20 Q1014 NOSIG=
201109150230 METAR LMML NIL=
201109150215 METAR LMML 150215Z 23004KT 200V260 CAVOK 22/20 Q1014 NOSIG=
201109150200 METAR LMML NIL=
201109150145 METAR LMML 150145Z 23003KT CAVOK 22/20 Q1014 NOSIG=
201109150130 METAR LMML NIL=
201109150115 METAR LMML 150115Z VRB02KT CAVOK 22/20 Q1015 NOSIG=
201109150100 METAR LMML NIL=
201109150045 METAR LMML 150045Z VRB02KT CAVOK 22/20 Q1015 NOSIG=
201109150030 METAR LMML NIL=
201109150015 METAR LMML 150015Z VRB02KT CAVOK 22/20 Q1015 NOSIG=
201109150000 METAR LMML NIL=
201109142345 METAR LMML 142345Z 23004KT CAVOK 22/20 Q1015 NOSIG=
201109142330 METAR LMML NIL=
201109142315 METAR LMML 142315Z 24003KT CAVOK 22/19 Q1015 NOSIG=
201109142300 METAR LMML NIL=
201109142245 METAR LMML 142245Z VRB01KT CAVOK 22/20 Q1015 NOSIG=
201109142230 METAR LMML NIL=
201109142215 METAR LMML 142215Z VRB01KT CAVOK 22/20 Q1015 NOSIG=
201109142200 METAR LMML NIL=
201109142145 METAR LMML 142145Z VRB01KT 9999 FEW016 23/20 Q1015 NOSIG=
201109142130 METAR LMML NIL=
201109142115 METAR LMML 142115Z VRB01KT 9999 FEW016 23/20 Q1015 NOSIG=
201109142100 METAR LMML NIL=
201109142045 METAR LMML 142045Z VRB02KT 9999 FEW016 SCT090 23/20 Q1016
                        NOSIG=
201109142030 METAR LMML NIL=
201109142015 METAR LMML 142015Z 28003KT 9999 FEW016 23/20 Q1016 NOSIG=
201109142000 METAR LMML NIL=
201109141945 METAR LMML 141945Z VRB02KT 9999 FEW016 23/20 Q1016 NOSIG=
201109141930 METAR LMML NIL=
201109141915 METAR LMML 141915Z 29005KT 9999 FEW018 23/20 Q1015 NOSIG=
201109141900 METAR LMML NIL=
201109141845 METAR LMML 141845Z VRB02KT 9999 FEW018 24/20 Q1015 NOSIG=
201109141830 METAR LMML NIL=
201109141815 METAR LMML 141815Z 26004KT 200V310 9999 FEW018 24/20 Q1015
                        NOSIG=
201109141800 METAR LMML NIL=
201109141745 METAR LMML 141745Z 26005KT 220V300 9999 FEW020 24/20 Q1014
                        NOSIG=
201109141730 METAR LMML NIL=
201109141715 METAR LMML 141715Z 25006KT CAVOK 24/19 Q1014 NOSIG=
201109141700 METAR LMML NIL=
201109141645 METAR LMML 141645Z 25006KT 220V290 9999 FEW034 25/19 Q1014
                        NOSIG=
201109141630 METAR LMML NIL=
201109141615 METAR LMML 141615Z 27006KT 220V300 9999 FEW034 26/19 Q1014
                        NOSIG=
201109141600 METAR LMML NIL=
201109141545 METAR LMML 141545Z 25007KT 200V290 9999 FEW034 26/19 Q1014
                        NOSIG=
201109141530 METAR LMML NIL=
201109141515 METAR LMML 141515Z 25007KT 210V300 9999 FEW034 27/18 Q1014
                        NOSIG=
201109141500 METAR LMML NIL=
201109141445 METAR LMML 141445Z 25008KT 210V300 9999 FEW034 27/18 Q1014
                        NOSIG=
201109141430 METAR LMML NIL=
201109141415 METAR LMML 141415Z 23008KT 190V280 9999 FEW034 28/17 Q1014
                        NOSIG=
201109141400 METAR LMML NIL=
201109141345 METAR LMML 141345Z 22008KT 190V260 9999 FEW034 28/17 Q1014
                        NOSIG=
201109141330 SPECI LMML 141330Z 22007KT 190V270 CAVOK 28/17 Q1015 NOSIG=
201109141330 METAR LMML NIL=
201109141315 METAR LMML 141315Z 22008KT 190V280 9999 FEW034 28/18 Q1015
                        NOSIG=
201109141300 METAR LMML NIL=
201109141245 METAR LMML 141245Z 25007KT 200V300 9999 FEW034 28/19 Q1015
                        NOSIG=
201109141230 METAR LMML NIL=
201109141215 METAR LMML 141215Z 23008KT 190V270 9999 FEW034 28/19 Q1015
                        NOSIG=
201109141200 METAR LMML NIL=
201109141145 METAR LMML 141145Z 23008KT 200V280 9999 FEW033 28/18 Q1015
                        NOSIG=
201109141130 METAR LMML NIL=
201109141115 METAR LMML 141115Z 23007KT 190V290 9999 FEW030 28/18 Q1015
                        NOSIG=
201109141100 METAR LMML NIL=
201109141045 METAR LMML 141045Z 23007KT 190V300 9999 FEW027 28/19 Q1015
                        NOSIG=
201109141030 METAR LMML NIL=
201109141015 METAR LMML 141015Z 22007KT 180V280 9999 FEW027 27/19 Q1015
                        NOSIG=
201109141000 METAR LMML NIL=
201109140945 METAR LMML 140945Z 20007KT 160V250 9999 FEW029 27/19 Q1015
                        NOSIG=
201109140930 METAR LMML NIL=
201109140915 METAR LMML 140915Z 24006KT 180V300 9999 FEW028 27/19 Q1015
                        NOSIG=
201109140900 METAR LMML NIL=
201109140845 METAR LMML 140845Z 23006KT 190V270 9999 FEW026 27/19 Q1015
                        NOSIG=
201109140830 METAR LMML NIL=
201109140815 METAR LMML 140815Z 27005KT 200V330 9999 FEW028 26/18 Q1015
                        NOSIG=
201109140800 METAR LMML NIL=
201109140745 METAR LMML 140745Z 26004KT 210V310 9999 FEW024 26/18 Q1015
                        NOSIG=
201109140715 METAR LMML 140715Z 26005KT 220V300 9999 FEW020 25/18 Q1015
                        NOSIG=
201109140700 METAR LMML NIL=
201109140645 METAR LMML 140645Z 28006KT 250V310 9999 FEW020 25/19 Q1015
                        NOSIG=
201109140630 METAR LMML NIL=
201109140615 METAR LMML 140615Z 27003KT 9999 FEW020 24/20 Q1015 NOSIG=
201109140600 METAR LMML NIL=
201109140545 METAR LMML 140545Z 27003KT 9999 FEW020 23/19 Q1015 NOSIG=
201109140530 METAR LMML NIL=
201109140515 METAR LMML 140515Z 25003KT 9999 FEW017 22/19 Q1014 NOSIG=
201109140500 METAR LMML NIL=
201109140445 METAR LMML 140445Z VRB02KT 9999 FEW020 22/19 Q1014 NOSIG=
201109140430 METAR LMML NIL=
201109140415 METAR LMML 140415Z VRB02KT 9999 FEW020 22/19 Q1014 NOSIG=
201109140400 METAR LMML NIL=
201109140345 METAR LMML 140345Z 23004KT 190V260 9999 FEW020 22/19 Q1014
                        NOSIG=
201109140330 METAR LMML NIL=
201109140315 METAR LMML 140315Z 22003KT 9999 FEW016 22/19 Q1014 NOSIG=
201109140300 METAR LMML NIL=
201109140245 METAR LMML 140245Z 22004KT 9999 FEW013 22/19 Q1014 NOSIG=
201109140230 METAR LMML NIL=
201109140215 METAR LMML 140215Z 23003KT 9999 FEW013 22/19 Q1014 NOSIG=
201109140200 METAR LMML NIL=
201109140145 METAR LMML 140145Z 21003KT 9999 FEW013 22/20 Q1014 NOSIG=
201109140130 METAR LMML NIL=
201109140115 METAR LMML 140115Z 23003KT 9999 FEW013 22/20 Q1014 NOSIG=
201109140045 METAR LMML 140045Z 22003KT 9999 FEW013 22/20 Q1014 NOSIG=
201109140030 METAR LMML NIL=
201109140015 METAR LMML 140015Z VRB02KT 9999 FEW013 22/20 Q1014 NOSIG=
201109140000 METAR LMML NIL=
201109132315 METAR LMML 132315Z VRB02KT 9999 FEW013 22/20 Q1015 NOSIG=
201109132300 METAR LMML NIL=
201109132245 METAR LMML 132245Z VRB02KT 9999 SCT013 23/20 Q1015 NOSIG=
201109132230 METAR LMML NIL=
201109132215 METAR LMML 132215Z VRB02KT 9999 BKN014 23/20 Q1015 NOSIG=
201109132145 METAR LMML 132145Z VRB02KT 9999 FEW014 23/20 Q1015 NOSIG=
201109132115 METAR LMML 132115Z VRB02KT 9999 FEW013 23/20 Q1015 NOSIG=
201109132045 METAR LMML 132045Z VRB02KT 9999 FEW019 23/20 Q1014 NOSIG=
201109132030 METAR LMML NIL=
201109132015 METAR LMML 132015Z VRB02KT 9999 FEW019 23/20 Q1015 NOSIG=
201109131945 METAR LMML 131945Z 24003KT 9999 FEW019 23/20 Q1014 NOSIG=
201109131930 METAR LMML NIL=
201109131915 METAR LMML 131915Z VRB02KT 9999 FEW019 23/20 Q1014 NOSIG=
201109131900 METAR LMML NIL=
201109131845 METAR LMML 131845Z 28004KT 230V320 9999 FEW019 24/20 Q1014
                        NOSIG=
201109131830 METAR LMML NIL=
201109131815 METAR LMML 131815Z 28004KT 9999 FEW019 24/20 Q1014 NOSIG=
201109131800 METAR LMML NIL=
201109131745 METAR LMML 131745Z 27005KT 210V300 9999 FEW017 24/20 Q1013
                        NOSIG=
201109131730 METAR LMML NIL=
201109131715 METAR LMML 131715Z 28005KT 250V310 9999 FEW022 24/20 Q1013
                        NOSIG=
201109131645 METAR LMML 131645Z 25006KT 210V280 9999 FEW022 25/20 Q1013
                        NOSIG=
201109131630 METAR LMML NIL=
201109131615 METAR LMML 131615Z 26006KT 230V290 9999 FEW022 26/20 Q1013
                        NOSIG=
201109131600 METAR LMML NIL=
201109131545 METAR LMML 131545Z 25005KT 210V300 9999 FEW022 26/19 Q1013
                        NOSIG=
201109131530 METAR LMML NIL=
201109131515 METAR LMML 131515Z 24007KT 210V300 9999 FEW023 26/19 Q1013
                        NOSIG=
201109131500 METAR LMML NIL=
201109131445 METAR LMML 131445Z 25007KT 200V290 9999 SCT024 27/19 Q1013
                        NOSIG=
201109131430 METAR LMML NIL=
201109131415 METAR LMML 131415Z 24007KT 180V300 9999 SCT025 27/20 Q1013
                        NOSIG=
201109131400 METAR LMML NIL=
201109131345 METAR LMML 131345Z 24008KT 200V290 9999 SCT024 27/19 Q1014
                        NOSIG=
201109131330 METAR LMML NIL=
201109131315 METAR LMML 131315Z 24007KT 190V300 9999 SCT026 28/20 Q1014
                        NOSIG=
201109131300 METAR LMML NIL=
201109131245 METAR LMML 131245Z 23006KT 170V300 9999 SCT023 28/19 Q1014
                        NOSIG=
201109131230 METAR LMML NIL=
201109131215 METAR LMML 131215Z 23008KT 200V280 9999 SCT022 28/19 Q1014
                        NOSIG=
201109131200 METAR LMML NIL=
201109131145 METAR LMML 131145Z 22007KT 190V270 9999 SCT023 28/20 Q1015
                        NOSIG=
201109131130 METAR LMML NIL=
201109131115 METAR LMML 131115Z 23007KT 180V270 9999 SCT024 28/19 Q1015
                        NOSIG=
201109131100 METAR LMML NIL=
201109131045 METAR LMML 131045Z 24008KT 200V280 CAVOK 27/19 Q1015 NOSIG=
201109131030 METAR LMML NIL=
201109131015 METAR LMML 131015Z 23007KT 160V280 9999 SCT023 28/19 Q1015
                        NOSIG=
201109131000 METAR LMML NIL=
201109130945 METAR LMML 130945Z 23007KT 170V280 9999 SCT025 27/19 Q1015
                        NOSIG=
201109130930 METAR LMML NIL=
201109130915 METAR LMML 130915Z 25005KT 200V310 9999 SCT021 27/19 Q1015
                        NOSIG=
201109130900 METAR LMML NIL=
201109130845 METAR LMML 130845Z 23006KT 190V280 9999 BKN022 26/20 Q1015
                        NOSIG=
201109130830 METAR LMML NIL=
201109130815 METAR LMML 130815Z 24005KT 190V290 9999 BKN019 27/20 Q1015
                        NOSIG=
201109130800 METAR LMML NIL=
201109130745 METAR LMML 130745Z 23006KT 200V270 9999 SCT019 25/20 Q1015
                        NOSIG=
201109130730 METAR LMML NIL=
201109130715 METAR LMML 130715Z 23005KT 200V280 9999 SCT017 25/20 Q1015
                        NOSIG=
201109130700 METAR LMML NIL=
201109130645 METAR LMML 130645Z 23004KT 200V290 9999 SCT015 25/20 Q1014
                        NOSIG=
201109130630 METAR LMML NIL=
201109130615 METAR LMML 130615Z 23003KT 9999 FEW020 SCT024 25/20 Q1014
                        NOSIG=
201109130600 METAR LMML NIL=
201109130545 METAR LMML 130545Z VRB02KT 9999 FEW020 BKN026 24/20 Q1014
                        NOSIG=
201109130530 METAR LMML NIL=
201109130515 METAR LMML 130515Z VRB02KT 9999 FEW018 BKN023 23/20 Q1014
                        NOSIG=
201109130445 METAR LMML 130445Z VRB02KT 9999 FEW017 BKN023 23/20 Q1014
                        NOSIG=
201109130430 METAR LMML NIL=
201109130415 METAR LMML 130415Z VRB02KT 9999 BKN017 23/21 Q1014 NOSIG=
201109130400 METAR LMML NIL=
201109130345 METAR LMML 130345Z 25003KT 9999 BKN017 23/21 Q1014 NOSIG=
201109130330 METAR LMML NIL=
201109130315 METAR LMML 130315Z 26004KT 9999 FEW011 23/20 Q1014 NOSIG=
201109130300 METAR LMML NIL=
201109130245 METAR LMML 130245Z 27003KT 9999 SCT011 23/21 Q1014 TEMPO
                        BKN010=
201109130232 SPECI LMML 130232Z VRB02KT 9999 BKN012 23/21 Q1014 NOSIG=
201109130230 METAR LMML NIL=
201109130215 METAR LMML 130215Z 27004KT 9999 SCT013 23/21 Q1014 TEMPO
                        9000 BKN010=
201109130200 METAR LMML NIL=
201109130145 METAR LMML 130145Z VRB02KT 9999 FEW012 23/21 Q1014 TEMPO
                        9000 BKN010=
201109130130 METAR LMML NIL=
201109130115 METAR LMML 130115Z VRB02KT 9999 FEW012 23/21 Q1014 NOSIG=
201109130100 METAR LMML NIL=
201109130045 METAR LMML 130045Z 25004KT 220V280 CAVOK 23/21 Q1014 NOSIG=
201109130030 METAR LMML NIL=
201109130015 METAR LMML 130015Z 25003KT 9999 FEW012 23/21 Q1014 NOSIG=
201109130000 METAR LMML NIL=
201109122345 METAR LMML 122345Z 24004KT 210V280 CAVOK 23/21 Q1014 NOSIG=
201109122330 METAR LMML NIL=
201109122315 METAR LMML 122315Z 23003KT CAVOK 22/20 Q1015 NOSIG=
201109122300 METAR LMML NIL=
201109122245 METAR LMML 122245Z VRB02KT CAVOK 22/20 Q1015 NOSIG=
201109122230 METAR LMML NIL=
201109122215 METAR LMML 122215Z VRB02KT 9999 FEW015 22/20 Q1015 NOSIG=
201109122200 METAR LMML NIL=
201109122145 METAR LMML 122145Z 28003KT 9999 FEW015 23/20 Q1015 NOSIG=
201109122130 METAR LMML NIL=
201109122115 METAR LMML 122115Z 30004KT 9999 FEW015 23/20 Q1015 NOSIG=
201109122100 METAR LMML NIL=
201109122045 METAR LMML 122045Z 28004KT 250V310 9999 FEW015 23/20 Q1015
                        NOSIG=
201109122030 METAR LMML NIL=
201109122015 METAR LMML 122015Z 28004KT 250V310 9999 FEW015 23/20 Q1015
                        NOSIG=
201109122000 METAR LMML NIL=
201109121945 METAR LMML 121945Z 27004KT 9999 FEW015 23/19 Q1015 NOSIG=
201109121930 METAR LMML NIL=
201109121915 METAR LMML 121915Z 26003KT 9999 FEW015 23/19 Q1015 NOSIG=
201109121900 METAR LMML NIL=
201109121845 METAR LMML 121845Z 27004KT 9999 FEW015 23/20 Q1015 NOSIG=
201109121830 METAR LMML NIL=
201109121815 METAR LMML 121815Z 28004KT 250V310 9999 FEW015 24/20 Q1015
                        NOSIG=
201109121800 METAR LMML NIL=
201109121745 METAR LMML 121745Z 28006KT 240V310 9999 FEW015 24/20 Q1014
                        NOSIG=
201109121730 METAR LMML NIL=
201109121715 METAR LMML 121715Z 28006KT 250V310 9999 FEW022 24/20 Q1014
                        NOSIG=
201109121700 METAR LMML NIL=
201109121645 METAR LMML 121645Z 29007KT 9999 FEW022 25/20 Q1014 NOSIG=
201109121630 METAR LMML NIL=
201109121615 METAR LMML 121615Z 27008KT 230V300 9999 FEW028 26/19 Q1014
                        NOSIG=
201109121545 METAR LMML 121545Z 29008KT 240V310 9999 FEW028 27/18 Q1014
                        NOSIG=
201109121530 METAR LMML NIL=
201109121515 METAR LMML 121515Z 29007KT 240V320 9999 FEW028 28/16 Q1014
                        NOSIG=
201109121445 METAR LMML 121445Z 28008KT 240V310 9999 FEW028 28/17 Q1015
                        NOSIG=
201109121430 METAR LMML NIL=
201109121415 METAR LMML 121415Z 26008KT 220V310 9999 FEW028 28/17 Q1015
                        NOSIG=
201109121400 METAR LMML NIL=
201109121345 METAR LMML 121345Z 26007KT 190V320 9999 SCT028 29/17 Q1015
                        NOSIG=
201109121330 METAR LMML NIL=
201109121315 METAR LMML 121315Z 33005KT 190V060 9999 SCT028 29/18 Q1015
                        NOSIG=
201109121300 METAR LMML NIL=
201109121245 METAR LMML 121245Z 11005KT 060V150 9999 SCT029 27/20 Q1015
                        NOSIG=
201109121230 METAR LMML NIL=
201109121215 METAR LMML 121215Z 12008KT 070V160 9999 SCT035 27/20 Q1016
                        NOSIG=
201109121200 METAR LMML NIL=
201109121145 METAR LMML 121145Z 03003KT 9999 SCT035 28/20 Q1016 NOSIG=
201109121115 METAR LMML 121115Z 36004KT 280V070 9999 SCT029 28/19 Q1016
                        NOSIG=
201109121045 METAR LMML 121045Z 34006KT 240V030 9999 SCT029 28/19 Q1016
                        NOSIG=
201109121030 METAR LMML NIL=
201109121015 METAR LMML 121015Z 35005KT 310V030 9999 FEW028 27/20 Q1016
                        NOSIG=
201109121000 METAR LMML NIL=
201109120945 METAR LMML 120945Z 01005KT 300V070 9999 FEW028 27/20 Q1016
                        NOSIG=
201109120930 METAR LMML NIL=
201109120915 METAR LMML 120915Z 34003KT 9999 FEW031 29/19 Q1016 NOSIG=
201109120900 METAR LMML NIL=
201109120845 METAR LMML 120845Z 26003KT 9999 FEW022 28/19 Q1016 NOSIG=
201109120830 METAR LMML NIL=
201109120815 METAR LMML 120815Z 29003KT 9999 FEW022 27/19 Q1016 NOSIG=
201109120800 METAR LMML NIL=
201109120745 METAR LMML 120745Z 34004KT 280V030 9999 SCT017 26/19 Q1016
                        NOSIG=
201109120730 METAR LMML NIL=
201109120715 METAR LMML 120715Z 33004KT 280V030 9999 SCT015 25/20 Q1016
                        NOSIG=
201109120700 METAR LMML NIL=
201109120645 METAR LMML 120645Z 33004KT 290V010 9999 SCT020 25/20 Q1016
                        NOSIG=
201109120630 METAR LMML NIL=
201109120615 METAR LMML 120615Z 31003KT 9999 FEW020 24/21 Q1016 NOSIG=
201109120600 METAR LMML NIL=
201109120545 METAR LMML 120545Z VRB02KT 9999 FEW020 23/20 Q1016 NOSIG=
201109120530 METAR LMML NIL=
201109120515 METAR LMML 120515Z VRB02KT 9999 FEW020 22/20 Q1015 NOSIG=
201109120500 METAR LMML NIL=
201109120445 METAR LMML 120445Z VRB02KT CAVOK 21/20 Q1015 NOSIG=
201109120430 METAR LMML NIL=
201109120415 METAR LMML 120415Z VRB02KT CAVOK 22/20 Q1015 NOSIG=
201109120400 METAR LMML NIL=
201109120345 METAR LMML 120345Z 29003KT CAVOK 22/20 Q1015 NOSIG=
201109120330 METAR LMML NIL=
201109120315 METAR LMML 120315Z VRB02KT CAVOK 22/20 Q1015 NOSIG=
201109120300 METAR LMML NIL=
201109120245 METAR LMML 120245Z 29003KT CAVOK 22/20 Q1015 NOSIG=
201109120230 METAR LMML NIL=
201109120215 METAR LMML 120215Z 30003KT CAVOK 22/20 Q1015 NOSIG=
201109120200 METAR LMML NIL=
201109120145 METAR LMML 120145Z 30003KT CAVOK 22/19 Q1015 NOSIG=
201109120130 METAR LMML NIL=
201109120115 METAR LMML 120115Z 31003KT CAVOK 22/19 Q1016 NOSIG=
201109120100 METAR LMML NIL=
201109120045 METAR LMML 120045Z VRB01KT CAVOK 22/19 Q1016 NOSIG=
201109120030 METAR LMML NIL=
201109120015 METAR LMML 120015Z VRB02KT CAVOK 23/19 Q1016 NOSIG=
201109120000 METAR LMML NIL=
201109112345 METAR LMML 112345Z 29003KT CAVOK 23/19 Q1016 NOSIG=
201109112330 METAR LMML NIL=
201109112315 METAR LMML 112315Z 31003KT 9999 FEW018 23/19 Q1016 NOSIG=
201109112300 METAR LMML NIL=
201109112245 METAR LMML 112245Z VRB02KT 9999 FEW018 23/19 Q1016 NOSIG=
201109112230 METAR LMML NIL=
201109112215 METAR LMML 112215Z 30003KT 9999 FEW020 23/19 Q1016 NOSIG=
201109112200 METAR LMML NIL=
201109112145 METAR LMML 112145Z VRB02KT 9999 FEW020 23/19 Q1016 NOSIG=
201109112130 METAR LMML NIL=
201109112115 METAR LMML 112115Z VRB01KT 9999 FEW020 23/19 Q1016 NOSIG=
201109112100 METAR LMML NIL=
201109112045 METAR LMML 112045Z VRB01KT 9999 FEW020 24/19 Q1016 NOSIG=
201109112030 METAR LMML NIL=
201109112015 METAR LMML 112015Z VRB01KT 9999 FEW020 24/20 Q1017 NOSIG=
201109112000 METAR LMML NIL=
201109111945 METAR LMML 111945Z VRB02KT 9999 FEW020 24/20 Q1017 NOSIG=
201109111930 METAR LMML NIL=
201109111915 METAR LMML 111915Z VRB02KT 9999 FEW019 25/20 Q1016 NOSIG=
201109111900 METAR LMML NIL=
201109111845 METAR LMML 111845Z 13003KT 9999 FEW024 25/19 Q1016 NOSIG=
201109111830 METAR LMML NIL=
201109111815 METAR LMML 111815Z 13004KT 9999 FEW024 25/20 Q1016 NOSIG=
201109111800 METAR LMML NIL=
201109111745 METAR LMML 111745Z 13004KT 9999 FEW024 25/19 Q1016 NOSIG=
201109111730 METAR LMML NIL=
201109111715 METAR LMML 111715Z 14004KT 9999 FEW023 25/20 Q1016 NOSIG=
201109111700 METAR LMML NIL=
201109111645 METAR LMML 111645Z 12005KT 080V150 9999 FEW026 26/19 Q1016
                        NOSIG=
201109111630 METAR LMML NIL=
201109111615 METAR LMML 111615Z 11006KT 070V140 9999 FEW026 27/19 Q1016
                        NOSIG=
201109111600 METAR LMML NIL=
201109111545 METAR LMML 111545Z 17004KT 110V210 9999 SCT032 27/19 Q1016
                        NOSIG=
201109111530 METAR LMML NIL=
201109111515 METAR LMML 111515Z 17005KT 120V220 9999 FEW034 28/19 Q1016
                        NOSIG=
201109111500 METAR LMML NIL=
201109111445 METAR LMML 111445Z 18004KT 140V220 9999 FEW031 28/19 Q1016
                        NOSIG=
201109111430 METAR LMML NIL=
201109111415 METAR LMML 111415Z 17005KT 120V230 9999 FEW024 28/19 Q1016
                        NOSIG=
201109111400 METAR LMML NIL=
201109111345 METAR LMML 111345Z 16007KT 120V210 9999 FEW026 28/19 Q1017
                        NOSIG=
201109111330 METAR LMML NIL=
201109111315 METAR LMML 111315Z 17006KT 120V230 9999 FEW025 28/18 Q1017
                        NOSIG=
201109111300 METAR LMML NIL=
201109111245 METAR LMML 111245Z 17006KT 120V220 9999 FEW034 28/18 Q1017
                        NOSIG=
201109111230 METAR LMML NIL=
201109111215 METAR LMML 111215Z 17006KT 130V210 9999 FEW032 29/18 Q1017
                        NOSIG=
201109111200 METAR LMML NIL=
201109111145 METAR LMML 111145Z 17006KT 100V260 9999 FEW032 29/18 Q1017
                        NOSIG=
201109111130 METAR LMML NIL=
201109111115 METAR LMML 111115Z 15006KT 110V230 9999 FEW032 28/18 Q1017
                        NOSIG=
201109111100 METAR LMML NIL=
201109111045 METAR LMML 111045Z 18006KT 140V220 9999 FEW032 29/17 Q1018
                        NOSIG=
201109111030 METAR LMML NIL=
201109111015 METAR LMML 111015Z 12006KT 050V190 9999 FEW034 28/18 Q1018
                        NOSIG=
201109111000 METAR LMML NIL=
201109110945 METAR LMML 110945Z 13006KT 070V180 9999 FEW030 28/18 Q1018
                        NOSIG=
201109110930 METAR LMML NIL=
201109110915 METAR LMML 110915Z 15005KT 050V280 9999 FEW028 28/19 Q1018
                        NOSIG=
201109110900 METAR LMML NIL=
201109110845 METAR LMML 110845Z 13004KT 050V200 9999 FEW029 27/19 Q1018
                        NOSIG=
201109110830 METAR LMML NIL=
201109110815 METAR LMML 110815Z 12005KT 040V160 9999 FEW027 28/19 Q1018
                        NOSIG=
201109110800 METAR LMML NIL=
201109110745 METAR LMML 110745Z 08003KT 9999 SCT023 27/18 Q1018 NOSIG=
201109110730 METAR LMML NIL=
201109110715 METAR LMML 110715Z VRB02KT 9999 FEW020 26/19 Q1018 NOSIG=
201109110700 METAR LMML NIL=
201109110645 METAR LMML 110645Z VRB02KT 9999 FEW025 26/20 Q1018 NOSIG=
201109110630 METAR LMML NIL=
201109110615 METAR LMML 110615Z VRB01KT 9999 FEW025 25/20 Q1017 NOSIG=
201109110600 METAR LMML NIL=
201109110545 METAR LMML 110545Z VRB02KT 9999 FEW025 23/20 Q1017 NOSIG=
201109110530 METAR LMML NIL=
201109110515 METAR LMML 110515Z VRB02KT 9999 FEW020 22/20 Q1017 NOSIG=
201109110445 METAR LMML 110445Z 30003KT 9999 FEW020 21/20 Q1017 NOSIG=
201109110430 METAR LMML NIL=
201109110415 METAR LMML 110415Z 29003KT CAVOK 21/19 Q1017 NOSIG=
201109110400 METAR LMML NIL=
201109110345 METAR LMML 110345Z VRB01KT CAVOK 21/19 Q1017 NOSIG=
201109110330 METAR LMML NIL=
201109110315 METAR LMML 110315Z 00000KT 9999 FEW020 22/20 Q1017 NOSIG=
201109110300 METAR LMML NIL=
201109110245 METAR LMML 110245Z VRB01KT 9999 FEW020 22/19 Q1017 NOSIG=
201109110230 METAR LMML NIL=
201109110215 METAR LMML 110215Z VRB02KT 9999 FEW021 22/19 Q1017 NOSIG=
201109110200 METAR LMML NIL=
201109110145 METAR LMML 110145Z VRB01KT 9999 FEW021 22/19 Q1017 NOSIG=
201109110130 METAR LMML NIL=
201109110115 METAR LMML 110115Z 30003KT CAVOK 22/19 Q1017 NOSIG=
201109110100 METAR LMML NIL=
201109110045 METAR LMML 110045Z VRB01KT 9999 FEW018 23/19 Q1017 NOSIG=
201109110030 METAR LMML NIL=
201109110015 METAR LMML 110015Z 00000KT 9999 SCT022 22/19 Q1017 NOSIG=
201109110000 METAR LMML NIL=
201109102345 METAR LMML 102345Z VRB01KT 9999 SCT023 23/19 Q1017 NOSIG=
201109102330 METAR LMML NIL=
201109102315 METAR LMML 102315Z VRB01KT 9999 FEW022 23/19 Q1017 NOSIG=
201109102300 METAR LMML NIL=
201109102245 METAR COR LMML 102245Z VRB02KT 9999 FEW022 24/19 Q1018 NOSIG=
201109102230 METAR LMML NIL=
201109102215 METAR LMML 102215Z 08003KT 9999 FEW021 24/20 Q1018 NOSIG=
201109102200 METAR LMML NIL=
201109102145 METAR LMML 102145Z 09003KT 9999 FEW020 24/20 Q1018 NOSIG=
201109102130 METAR LMML NIL=
201109102115 METAR LMML 102115Z 13004KT 9999 FEW020 24/19 Q1018 NOSIG=
201109102100 METAR LMML NIL=
201109102045 METAR LMML 102045Z 13005KT 9999 FEW020 24/20 Q1018 NOSIG=
201109102030 METAR LMML NIL=
201109102015 METAR LMML 102015Z 13004KT 9999 FEW020 24/19 Q1018 NOSIG=
201109102000 METAR LMML NIL=
201109101945 METAR LMML 101945Z 12003KT CAVOK 24/19 Q1018 NOSIG=
201109101930 METAR LMML NIL=
201109101915 METAR LMML 101915Z 13005KT CAVOK 24/19 Q1017 NOSIG=
201109101900 METAR LMML NIL=
201109101845 METAR LMML 101845Z 13005KT CAVOK 24/19 Q1017 NOSIG=
201109101830 METAR LMML NIL=
201109101815 METAR LMML 101815Z 14004KT CAVOK 24/19 Q1017 NOSIG=
201109101800 METAR LMML NIL=
201109101745 METAR LMML 101745Z 16005KT 140V200 9999 FEW023 24/19 Q1016
                        NOSIG=
201109101730 METAR LMML NIL=
201109101715 METAR LMML 101715Z 16005KT 130V200 9999 FEW023 25/19 Q1016
                        NOSIG=
201109101700 METAR LMML NIL=
201109101645 METAR LMML 101645Z 16005KT 130V210 9999 FEW023 25/19 Q1016
                        NOSIG=
201109101630 METAR LMML NIL=
201109101615 METAR LMML 101615Z 18004KT 130V230 9999 FEW022 26/19 Q1016
                        NOSIG=
201109101600 METAR LMML NIL=
201109101545 METAR LMML 101545Z 18006KT 150V220 9999 FEW022 26/19 Q1016
                        NOSIG=
201109101530 METAR LMML NIL=
201109101515 METAR LMML 101515Z 19005KT 150V250 9999 FEW023 27/19 Q1016
                        NOSIG=
201109101500 METAR LMML NIL=
201109101445 METAR LMML 101445Z 18005KT 140V220 9999 FEW023 27/19 Q1016
                        NOSIG=
201109101430 METAR LMML NIL=
201109101415 METAR LMML 101415Z 20005KT 150V260 CAVOK 28/19 Q1016 NOSIG=
201109101400 METAR LMML NIL=
201109101345 METAR LMML 101345Z 20005KT 120V270 9999 FEW024 28/19 Q1016
                        NOSIG=
201109101330 METAR LMML NIL=
201109101315 METAR LMML 101315Z 19006KT 130V240 9999 FEW026 28/19 Q1016
                        NOSIG=
201109101300 METAR LMML NIL=
201109101245 METAR LMML 101245Z 17006KT 120V240 9999 FEW022 28/19 Q1016
                        NOSIG=
201109101230 METAR LMML NIL=
201109101215 METAR LMML 101215Z 17006KT 110V220 9999 SCT020 28/19 Q1016
                        NOSIG=
201109101200 METAR LMML NIL=
201109101145 METAR LMML 101145Z 18006KT 130V250 9999 FEW020 28/20 Q1016
                        NOSIG=
201109101130 METAR LMML NIL=
201109101115 METAR LMML 101115Z 18007KT 100V230 9999 SCT020 28/20 Q1017
                        NOSIG=
201109101100 METAR LMML NIL=
201109101045 METAR LMML 101045Z 17007KT 120V220 9999 SCT020 28/20 Q1017
                        NOSIG=
201109101030 METAR LMML NIL=
201109101015 METAR LMML 101015Z 17007KT 120V230 9999 SCT018 27/20 Q1017
                        NOSIG=
201109101000 METAR LMML NIL=
201109100945 METAR LMML 100945Z 18007KT 130V210 9999 SCT018 27/20 Q1017
                        NOSIG=
201109100930 METAR LMML NIL=
201109100915 METAR LMML 100915Z 17008KT 140V210 9999 SCT017 28/20 Q1017
                        NOSIG=
201109100845 METAR LMML 100845Z 15006KT 060V210 9999 SCT020 27/20 Q1016
                        NOSIG=
201109100830 METAR LMML NIL=
201109100815 METAR LMML 100815Z 10003KT 9999 SCT027 27/19 Q1016 NOSIG=
201109100800 METAR LMML NIL=
201109100745 METAR LMML 100745Z 09004KT 9999 SCT023 26/19 Q1016 NOSIG=
201109100730 METAR LMML NIL=
201109100715 METAR LMML 100715Z 09003KT 9999 SCT019 27/19 Q1016 NOSIG=
201109100700 METAR LMML NIL=
201109100645 METAR LMML 100645Z 08004G14KT 360V150 9999 FEW020 26/19 Q1016
                        NOSIG=
201109100630 METAR LMML NIL=
201109100615 METAR LMML 100615Z 07003KT 9999 FEW025 25/19 Q1015 NOSIG=
201109100600 METAR LMML NIL=
201109100545 METAR LMML 100545Z VRB02KT 9999 FEW023 25/19 Q1015 NOSIG=
201109100530 METAR LMML NIL=
201109100515 METAR LMML 100515Z VRB02KT 9999 FEW023 23/19 Q1015 NOSIG=
201109100500 METAR LMML NIL=
201109100445 METAR LMML 100445Z VRB02KT 9999 SCT023 23/19 Q1015 NOSIG=
201109100430 METAR LMML NIL=
201109100415 METAR LMML 100415Z VRB02KT 9999 SCT021 23/20 Q1015 NOSIG=
201109100400 METAR LMML NIL=
201109100345 METAR LMML 100345Z VRB02KT 9999 FEW019 23/20 Q1014 NOSIG=
201109100315 METAR LMML 100315Z 05003KT 9999 FEW017 23/20 Q1014 NOSIG=
201109100300 METAR LMML NIL=
201109100245 METAR LMML 100245Z VRB01KT 9999 FEW012 23/21 Q1014 NOSIG=
201109100230 METAR LMML NIL=
201109100215 METAR LMML 100215Z 34003KT 9999 SCT012 23/21 Q1014 NOSIG=
201109100200 METAR LMML NIL=
201109100145 METAR LMML 100145Z 01003KT 9999 SCT013 23/21 Q1014 NOSIG=
201109100130 METAR LMML NIL=
201109100115 METAR LMML 100115Z VRB02KT 9999 SCT014 23/21 Q1015 NOSIG=
201109100100 METAR LMML NIL=
201109100045 METAR LMML 100045Z VRB02KT 9999 FEW014 23/21 Q1015 NOSIG=
201109100030 METAR LMML NIL=
201109100015 METAR LMML 100015Z 02003KT 9999 SCT012 23/21 Q1015 NOSIG=
201109100000 METAR LMML NIL=
201109092345 METAR LMML 092345Z VRB02KT 9999 FEW010 SCT015 23/22 Q1015
                        NOSIG=
201109092330 METAR LMML NIL=
201109092315 METAR LMML 092315Z 32004KT 9999 BKN009 23/22 Q1015 NOSIG=
201109092300 METAR LMML NIL=
201109092245 METAR LMML 092245Z 32004KT 9999 BKN009 23/21 Q1015 NOSIG=
201109092230 METAR LMML NIL=
201109092215 METAR LMML 092215Z 32004KT 9999 SCT009 23/21 Q1015 NOSIG=
201109092145 METAR LMML 092145Z 33004KT 9999 FEW009 23/21 Q1015 NOSIG=
201109092115 METAR LMML 092115Z 33005KT 310V020 9999 SCT009 23/21 Q1015
                        NOSIG=
201109092100 METAR LMML NIL=
201109092045 METAR LMML 092045Z 32004KT 300V030 9999 SCT010 23/21 Q1015
                        NOSIG=
201109092015 METAR LMML 092015Z 31004KT 9999 SCT010 23/20 Q1015 NOSIG=
201109092000 METAR LMML NIL=
201109091945 METAR LMML 091945Z 30003KT 9999 BKN011 23/20 Q1015 NOSIG=
201109091930 METAR LMML NIL=
201109091915 METAR LMML 091915Z 30004KT 9999 BKN012 24/20 Q1015 NOSIG=
201109091900 METAR LMML NIL=
201109091845 METAR LMML 091845Z 31005KT 9999 SCT013 24/20 Q1014 NOSIG=
201109091830 METAR LMML NIL=
201109091815 METAR LMML 091815Z 30005KT 9999 SCT015 24/20 Q1014 NOSIG=
201109091800 METAR LMML NIL=
201109091745 METAR LMML 091745Z VRB02KT 9999 FEW019 25/20 Q1013 NOSIG=
201109091730 METAR LMML NIL=
201109091715 METAR LMML 091715Z VRB02KT 9999 SCT019 25/20 Q1013 NOSIG=
201109091700 METAR LMML NIL=
201109091645 METAR LMML 091645Z 19003KT 9999 FEW018 26/20 Q1013 NOSIG=
201109091630 METAR LMML NIL=
201109091615 METAR LMML 091615Z 05003KT 9999 FEW018 27/20 Q1013 NOSIG=
201109091600 METAR LMML NIL=
201109091545 METAR LMML 091545Z 03004KT 340V090 9999 FEW022 27/20 Q1013
                        NOSIG=
201109091530 METAR LMML NIL=
201109091515 METAR LMML 091515Z 02005KT 330V060 9999 FEW021 28/20 Q1013
                        NOSIG=
201109091500 METAR LMML NIL=
201109091445 METAR LMML 091445Z 36005KT 310V040 9999 FEW023 29/20 Q1013
                        NOSIG=
201109091430 METAR LMML NIL=
201109091415 METAR LMML 091415Z 02006KT 350V060 9999 FEW023 28/20 Q1013
                        NOSIG=
201109091400 METAR LMML NIL=
201109091345 METAR LMML 091345Z 04007KT 360V080 9999 SCT023 28/20 Q1013
                        NOSIG=
201109091330 METAR LMML NIL=
201109091315 METAR LMML 091315Z 01005KT 320V060 9999 SCT023 28/20 Q1013
                        NOSIG=
201109091300 METAR LMML NIL=
201109091245 METAR LMML 091245Z 01005KT 340V050 9999 SCT027 29/19 Q1013
                        NOSIG=
201109091230 METAR LMML NIL=
201109091215 METAR LMML 091215Z 02007KT 350V060 9999 FEW032 30/19 Q1013
                        NOSIG=
201109091200 METAR LMML NIL=
201109091145 METAR LMML 091145Z 33007KT 290V020 9999 FEW035 30/18 Q1013
                        NOSIG=
201109091130 METAR LMML NIL=
201109091115 METAR LMML 091115Z 34005KT 300V030 9999 FEW032 30/18 Q1013
                        NOSIG=
201109091100 METAR LMML NIL=
201109091045 METAR LMML 091045Z 31007KT 250V350 9999 FEW033 29/19 Q1013
                        NOSIG=
201109091015 METAR LMML 091015Z 33006KT 280V020 9999 FEW025 FEW030 28/20
                        Q1014 NOSIG=
201109091000 METAR LMML NIL=
201109090945 METAR LMML 090945Z 31006KT 270V020 9999 FEW025 28/20 Q1014
                        NOSIG=
201109090930 METAR LMML NIL=
201109090915 METAR LMML 090915Z 31007KT 270V360 9999 FEW024 28/19 Q1013
                        NOSIG=
201109090900 METAR LMML NIL=
201109090845 METAR LMML 090845Z 33007KT 290V360 9999 FEW022 27/20 Q1013
                        NOSIG=
201109090830 METAR LMML NIL=
201109090815 METAR LMML 090815Z 31008KT 270V340 9999 FEW016 27/19 Q1013
                        NOSIG=
201109090800 METAR LMML NIL=
201109090745 METAR LMML 090745Z 29007KT 250V350 9999 FEW016 26/19 Q1013
                        NOSIG=
201109090730 METAR LMML NIL=
201109090715 METAR LMML 090715Z 28008KT 250V310 9999 FEW016 25/19 Q1013
                        NOSIG=
201109090700 METAR LMML NIL=
201109090645 METAR LMML 090645Z 31009KT 9999 FEW013 25/20 Q1013 NOSIG=
201109090630 METAR LMML NIL=
201109090615 METAR LMML 090615Z 30006KT 270V330 9999 FEW012 24/20 Q1013
                        NOSIG=
201109090600 METAR LMML NIL=
201109090545 METAR LMML 090545Z 27004KT 220V320 9999 FEW013 23/20 Q1012
                        NOSIG=
201109090530 METAR LMML NIL=
201109090515 METAR LMML 090515Z 30004KT 280V350 9999 FEW013 22/20 Q1012
                        NOSIG=
201109090500 METAR LMML NIL=
201109090445 METAR LMML 090445Z 27004KT 9999 FEW013 22/20 Q1012 NOSIG=
201109090430 METAR LMML NIL=
201109090415 METAR LMML 090415Z 26003KT 9999 FEW013 22/20 Q1011 NOSIG=
201109090400 METAR LMML NIL=
201109090345 METAR LMML 090345Z 29005KT 250V320 9999 FEW015 22/20 Q1011
                        NOSIG=
201109090330 METAR LMML NIL=
201109090315 METAR LMML 090315Z 29007KT 9999 FEW013 22/20 Q1011 NOSIG=
201109090300 METAR LMML NIL=
201109090245 METAR LMML 090245Z 27005KT 9999 FEW013 22/20 Q1011 NOSIG=
201109090230 METAR LMML NIL=
201109090215 METAR LMML 090215Z 28006KT 9999 FEW013 22/20 Q1011 NOSIG=
201109090200 METAR LMML NIL=
201109090145 METAR LMML 090145Z 27005KT 230V300 9999 FEW013 22/20 Q1012
                        NOSIG=
201109090130 METAR LMML NIL=
201109090115 METAR LMML 090115Z 28006KT 250V310 9999 FEW013 22/20 Q1012
                        NOSIG=
201109090100 METAR LMML NIL=
201109090045 METAR LMML 090045Z 27007KT 240V300 9999 FEW013 22/20 Q1012
                        NOSIG=
201109090030 METAR LMML NIL=
201109090015 METAR LMML 090015Z 27006KT 240V300 9999 FEW013 22/20 Q1012
                        NOSIG=
201109090000 METAR LMML NIL=
201109082345 METAR LMML 082345Z 27005KT 230V300 9999 FEW013 22/20 Q1012
                        NOSIG=
201109082330 METAR LMML NIL=
201109082315 METAR LMML 082315Z 29006KT 260V330 9999 FEW013 23/20 Q1012
                        NOSIG=
201109082300 METAR LMML NIL=
201109082245 METAR LMML 082245Z 28004KT 240V310 9999 FEW013 23/20 Q1013
                        NOSIG=
201109082230 METAR LMML NIL=
201109082215 METAR LMML 082215Z 28006KT 240V310 9999 FEW013 23/20 Q1013
                        NOSIG=
201109082200 METAR LMML NIL=
201109082145 METAR LMML 082145Z 29005KT 250V330 9999 FEW013 23/20 Q1013
                        TEMPO CAVOK=
201109082130 METAR LMML NIL=
201109082115 METAR LMML 082115Z 29005KT 9999 FEW020 23/20 Q1013 TEMPO
                        CAVOK=
201109082100 METAR LMML NIL=
201109082045 METAR LMML 082045Z 29004KT 250V310 9999 FEW020 23/20 Q1013
                        NOSIG=
201109082030 METAR LMML NIL=
201109082015 METAR LMML 082015Z 29005KT 9999 FEW020 23/20 Q1013 NOSIG=
201109082000 METAR LMML NIL=
201109081945 METAR LMML 081945Z 31006KT 9999 FEW020 23/20 Q1013 NOSIG=
201109081930 METAR LMML NIL=
201109081915 METAR LMML 081915Z 30005KT 270V330 9999 FEW020 23/19 Q1013
                        NOSIG=
201109081900 METAR LMML NIL=
201109081845 METAR LMML 081845Z 30005KT 9999 FEW020 23/19 Q1013 NOSIG=
201109081830 METAR LMML NIL=
201109081815 METAR LMML 081815Z 30007KT 280V340 9999 FEW020 23/19 Q1012
                        NOSIG=
201109081800 METAR LMML NIL=
201109081745 METAR LMML 081745Z 31009KT 280V340 9999 FEW020 24/19 Q1012
                        NOSIG=
201109081730 METAR LMML NIL=
201109081715 METAR LMML 081715Z 30010KT 9999 FEW025 24/19 Q1012 NOSIG=
201109081645 METAR LMML 081645Z 29010KT 260V330 9999 FEW025 25/19 Q1012
                        NOSIG=
201109081630 METAR LMML NIL=
201109081615 METAR LMML 081615Z 30010KT 250V330 9999 FEW025 26/18 Q1012
                        NOSIG=
201109081600 METAR LMML NIL=
201109081545 METAR LMML 081545Z 31012KT 9999 FEW029 27/15 Q1012 NOSIG=
201109081530 METAR LMML NIL=
201109081515 METAR LMML 081515Z 29012KT 260V330 9999 FEW029 27/18 Q1012
                        NOSIG=
201109081445 METAR LMML 081445Z 29011KT 260V320 9999 FEW029 27/17 Q1012
                        NOSIG=
201109081415 METAR LMML 081415Z 29011KT 250V340 9999 FEW029 28/17 Q1013
                        NOSIG=
201109081400 METAR LMML NIL=
201109081345 METAR LMML 081345Z 31010KT 270V360 9999 FEW028 28/18 Q1012
                        NOSIG=
201109081330 METAR LMML NIL=
201109081315 METAR LMML 081315Z 31012KT 260V360 9999 FEW029 28/18 Q1013
                        NOSIG=
201109081245 METAR LMML 081245Z 32010KT 270V010 9999 FEW030 29/18 Q1013
                        NOSIG=
201109081230 METAR LMML NIL=
201109081215 METAR LMML 081215Z 29010KT 260V340 9999 FEW033 28/18 Q1013
                        NOSIG=
201109081145 METAR LMML 081145Z 29009KT 260V330 9999 FEW031 28/17 Q1013
                        NOSIG=
201109081130 METAR LMML NIL=
201109081115 METAR LMML 081115Z 30009KT 250V340 9999 FEW031 28/18 Q1013
                        NOSIG=
201109081045 METAR LMML 081045Z 30010KT 260V350 9999 FEW030 28/18 Q1014
                        NOSIG=
201109081030 METAR LMML NIL=
201109081015 METAR LMML 081015Z 29009KT 220V340 9999 FEW027 27/18 Q1014
                        NOSIG=
201109080945 METAR LMML 080945Z 29009KT 240V320 9999 FEW030 27/18 Q1014
                        NOSIG=
201109080915 METAR LMML 080915Z 29009KT 250V340 9999 FEW029 27/18 Q1014
                        NOSIG=
201109080845 METAR LMML 080845Z 29008KT 250V340 9999 FEW030 27/18 Q1014
                        NOSIG=
201109080830 METAR LMML NIL=
201109080815 METAR LMML 080815Z 32006KT 280V340 9999 FEW025 27/17 Q1014
                        NOSIG=
201109080800 METAR LMML NIL=
201109080745 METAR LMML 080745Z 33006KT 290V010 9999 FEW025 26/18 Q1014
                        NOSIG=
201109080730 METAR LMML NIL=
201109080715 METAR LMML 080715Z 32007KT 290V010 9999 FEW025 25/17 Q1013
                        NOSIG=
201109080700 METAR LMML NIL=
201109080645 METAR LMML 080645Z 33006KT 280V360 9999 FEW025 25/17 Q1013
                        NOSIG=
201109080630 METAR LMML NIL=
201109080615 METAR LMML 080615Z 32004KT 9999 FEW025 24/18 Q1013 NOSIG=
201109080600 METAR LMML NIL=
201109080545 METAR LMML 080545Z 30004KT 9999 FEW025 23/18 Q1013 NOSIG=
201109080530 METAR LMML NIL=
201109080515 METAR LMML 080515Z 29004KT 9999 FEW025 22/18 Q1013 NOSIG=
201109080445 METAR LMML 080445Z 30004KT 9999 FEW025 22/18 Q1013 NOSIG=
201109080430 METAR LMML NIL=
201109080415 METAR LMML 080415Z 31007KT 9999 FEW025 22/18 Q1013 NOSIG=
201109080400 METAR LMML NIL=
201109080345 METAR LMML 080345Z 31007KT 9999 FEW026 22/18 Q1013 NOSIG=
201109080330 METAR LMML NIL=
201109080315 METAR LMML 080315Z 31006KT 9999 FEW025 22/18 Q1013 NOSIG=
201109080300 METAR LMML NIL=
201109080245 METAR LMML 080245Z 30008KT 9999 FEW025 22/18 Q1013 NOSIG=
201109080230 METAR LMML NIL=
201109080215 METAR LMML 080215Z 31007KT 9999 FEW028 23/18 Q1013 NOSIG=
201109080200 METAR LMML NIL=
201109080145 METAR LMML 080145Z 31009KT 9999 FEW026 23/18 Q1013 NOSIG=
201109080130 METAR LMML NIL=
201109080115 METAR LMML 080115Z 32009KT 9999 FEW025 23/18 Q1013 NOSIG=
201109080100 METAR LMML NIL=
201109080045 METAR LMML 080045Z 32012KT 9999 FEW024 23/18 Q1013 NOSIG=
201109080030 METAR LMML NIL=
201109080015 METAR LMML 080015Z 33012KT 9999 FEW024 24/18 Q1013 NOSIG=
201109080000 METAR LMML NIL=
201109072345 METAR LMML 072345Z 32011KT 9999 FEW022 24/18 Q1014 NOSIG=
201109072330 METAR LMML NIL=
201109072315 METAR LMML 072315Z 32011KT 9999 FEW012 23/18 Q1014 NOSIG=
201109072300 METAR LMML NIL=
201109072245 METAR LMML 072245Z 32010KT CAVOK 23/19 Q1014 NOSIG=
201109072230 METAR LMML NIL=
201109072215 METAR LMML 072215Z 32012KT CAVOK 23/19 Q1014 NOSIG=
201109072200 METAR LMML NIL=
201109072145 METAR LMML 072145Z 31013KT CAVOK 23/19 Q1015 NOSIG=
201109072130 METAR LMML NIL=
201109072115 METAR LMML 072115Z 30014KT CAVOK 23/19 Q1015 NOSIG=
201109072100 METAR LMML NIL=
201109072045 METAR LMML 072045Z 31014KT CAVOK 23/19 Q1015 NOSIG=
201109072030 METAR LMML NIL=
201109072015 METAR LMML 072015Z 31014KT CAVOK 23/19 Q1015 NOSIG=
201109072000 METAR LMML NIL=
201109071945 METAR LMML 071945Z 30015KT CAVOK 24/18 Q1015 NOSIG=
201109071930 METAR LMML NIL=
201109071915 METAR LMML 071915Z 30014KT CAVOK 24/18 Q1015 NOSIG=
201109071900 METAR LMML NIL=
201109071845 METAR LMML 071845Z 30012KT CAVOK 24/18 Q1015 NOSIG=
201109071830 METAR LMML NIL=
201109071815 METAR LMML 071815Z 30012KT CAVOK 24/18 Q1015 NOSIG=
201109071800 METAR LMML NIL=
201109071745 METAR LMML 071745Z 30013KT CAVOK 24/18 Q1014 NOSIG=
201109071730 METAR LMML NIL=
201109071715 METAR LMML 071715Z 30015KT CAVOK 25/17 Q1014 NOSIG=
201109071700 METAR LMML NIL=
201109071645 METAR LMML 071645Z 30018KT 9999 FEW024 25/17 Q1014 NOSIG=
201109071630 METAR LMML NIL=
201109071615 METAR LMML 071615Z 30016KT 9999 FEW024 26/17 Q1014 NOSIG=
201109071600 METAR LMML NIL=
201109071545 METAR LMML 071545Z 29019KT 9999 FEW024 26/19 Q1014 NOSIG=
201109071530 METAR LMML NIL=
201109071515 METAR LMML 071515Z 30021KT 9999 FEW024 26/18 Q1014 NOSIG=
201109071500 METAR LMML NIL=
201109071445 METAR LMML 071445Z 30019KT 9999 FEW024 27/16 Q1015 NOSIG=
201109071430 METAR LMML NIL=
201109071415 METAR LMML 071415Z 31018KT 9999 FEW024 27/17 Q1015 NOSIG=
201109071400 METAR LMML NIL=
201109071345 METAR LMML 071345Z 31016KT 9999 FEW024 28/18 Q1015 NOSIG=
201109071330 METAR LMML NIL=
201109071315 METAR LMML 071315Z 29015KT 260V320 9999 FEW024 28/18 Q1015
                        NOSIG=
201109071300 METAR LMML NIL=
201109071245 METAR LMML 071245Z 28016KT 250V320 9999 FEW024 27/19 Q1016
                        NOSIG=
201109071230 METAR LMML NIL=
201109071215 METAR LMML 071215Z 28015KT 250V310 9999 FEW026 27/18 Q1016
                        NOSIG=
201109071200 METAR LMML NIL=
201109071145 METAR LMML 071145Z 29012KT 260V330 9999 FEW027 28/16 Q1016
                        NOSIG=
201109071130 METAR LMML NIL=
201109071115 METAR LMML 071115Z 28014KT 250V310 9999 FEW027 27/17 Q1016
                        NOSIG=
201109071100 METAR LMML NIL=
201109071045 METAR LMML 071045Z 29013KT 250V330 9999 FEW027 27/18 Q1017
                        NOSIG=
201109071030 METAR LMML NIL=
201109071015 METAR LMML 071015Z 30013KT 260V330 9999 FEW026 27/19 Q1017
                        NOSIG=
201109071000 METAR LMML NIL=
201109070945 METAR LMML 070945Z 29013KT 250V320 9999 FEW027 27/18 Q1017
                        NOSIG=
201109070930 METAR LMML NIL=
201109070915 METAR LMML 070915Z 31013KT 280V340 9999 SCT027 27/18 Q1017
                        NOSIG=
201109070900 METAR LMML NIL=
201109070845 METAR LMML 070845Z 33011KT 9999 SCT029 27/18 Q1017 NOSIG=
201109070830 METAR LMML NIL=
201109070815 METAR LMML 070815Z 33012KT 290V010 9999 SCT028 27/18 Q1017
                        NOSIG=
201109070800 METAR LMML NIL=
201109070745 METAR LMML 070745Z 30013KT 9999 SCT026 26/18 Q1017 NOSIG=
201109070730 METAR LMML NIL=
201109070715 METAR LMML 070715Z 30013KT 9999 FEW025 26/18 Q1017 NOSIG=
201109070700 METAR LMML NIL=
201109070645 METAR LMML 070645Z 31011KT 9999 FEW017 25/19 Q1017 NOSIG=
201109070630 METAR LMML NIL=
201109070615 METAR LMML 070615Z 31012KT 9999 FEW017 24/19 Q1017 NOSIG=
201109070600 METAR LMML NIL=
201109070545 METAR LMML 070545Z 31009KT 9999 FEW016 23/20 Q1017 NOSIG=
201109070530 METAR LMML NIL=
201109070515 METAR LMML 070515Z 30009KT 9999 FEW015 23/20 Q1017 NOSIG=
201109070500 METAR LMML NIL=
201109070445 METAR LMML 070445Z 30008KT 9999 SCT016 23/20 Q1017 NOSIG=
201109070430 METAR LMML NIL=
201109070415 METAR LMML 070415Z 30010KT 9999 FEW020 23/20 Q1017 NOSIG=
201109070400 METAR LMML NIL=
201109070345 METAR LMML 070345Z 31011KT CAVOK 23/20 Q1017 NOSIG=
201109070330 METAR LMML NIL=
201109070315 METAR LMML 070315Z 32009KT CAVOK 23/19 Q1017 NOSIG=
201109070300 METAR LMML NIL=
201109070245 METAR LMML 070245Z 31008KT CAVOK 23/20 Q1017 NOSIG=
201109070230 METAR LMML NIL=
201109070215 METAR LMML 070215Z 30008KT CAVOK 23/20 Q1017 NOSIG=
201109070200 METAR LMML NIL=
201109070145 METAR LMML 070145Z 30006KT CAVOK 23/20 Q1018 NOSIG=
201109070130 METAR LMML NIL=
201109070115 METAR LMML 070115Z 31008KT CAVOK 23/19 Q1018 NOSIG=
201109070100 METAR LMML NIL=
201109070045 METAR LMML 070045Z 31008KT CAVOK 23/18 Q1018 NOSIG=
201109070030 METAR LMML NIL=
201109070015 METAR LMML 070015Z 31009KT CAVOK 24/19 Q1018 NOSIG=
201109070000 METAR LMML NIL=
201109062345 METAR LMML 062345Z 31007KT CAVOK 24/22 Q1018 NOSIG=
201109062330 METAR LMML NIL=
201109062315 METAR LMML 062315Z 32005KT CAVOK 24/21 Q1019 NOSIG=
201109062300 METAR LMML NIL=
201109062245 METAR LMML 062245Z 35004KT CAVOK 25/21 Q1019 NOSIG=
201109062215 METAR LMML 062215Z 01005KT 320V070 CAVOK 25/21 Q1019 NOSIG=
201109062200 METAR LMML NIL=
201109062145 METAR LMML 062145Z 36008KT CAVOK 25/22 Q1019 NOSIG=
201109062115 METAR LMML 062115Z 35008KT CAVOK 25/22 Q1019 NOSIG=
201109062100 METAR LMML NIL=
201109062045 METAR LMML 062045Z 33011KT CAVOK 25/22 Q1019 NOSIG=
201109062030 METAR LMML NIL=
201109062015 METAR LMML 062015Z 33014KT CAVOK 26/21 Q1019 NOSIG=
201109062000 METAR LMML NIL=
201109061945 METAR LMML 061945Z 32014KT 290V360 CAVOK 26/20 Q1019 NOSIG=
201109061930 METAR LMML NIL=
201109061915 METAR LMML 061915Z 30012KT CAVOK 26/19 Q1018 NOSIG=
201109061900 METAR LMML NIL=
201109061845 METAR LMML 061845Z 31014KT CAVOK 26/19 Q1018 NOSIG=
201109061830 METAR LMML NIL=
201109061815 METAR LMML 061815Z 30011KT 270V330 CAVOK 26/19 Q1018 NOSIG=
201109061800 METAR LMML NIL=
201109061745 METAR LMML 061745Z 30012KT CAVOK 25/20 Q1018 NOSIG=
201109061730 METAR LMML NIL=
201109061715 METAR LMML 061715Z 30011KT CAVOK 26/19 Q1017 NOSIG=
201109061645 METAR LMML 061645Z 31012KT 9999 FEW030 27/19 Q1018 NOSIG=
201109061630 METAR LMML NIL=
201109061615 METAR LMML 061615Z 30011KT 260V320 9999 FEW030 28/19 Q1018
                        NOSIG=
201109061600 METAR LMML NIL=
201109061545 METAR LMML 061545Z 30012KT 9999 FEW030 28/19 Q1018 NOSIG=
201109061530 METAR LMML NIL=
201109061515 METAR LMML 061515Z 30013KT 9999 FEW030 29/18 Q1018 NOSIG=
201109061500 METAR LMML NIL=
201109061445 METAR LMML 061445Z 29013KT 270V330 9999 FEW030 29/17 Q1018
                        NOSIG=
201109061430 METAR LMML NIL=
201109061415 METAR LMML 061415Z 30013KT 270V330 9999 FEW030 29/17 Q1018
                        NOSIG=
201109061400 METAR LMML NIL=
201109061345 METAR LMML 061345Z 29011KT 260V330 9999 FEW030 30/18 Q1018
                        NOSIG=
201109061330 METAR LMML NIL=
201109061315 METAR LMML 061315Z 33009KT 290V010 9999 FEW030 31/17 Q1018
                        NOSIG=
201109061300 METAR LMML NIL=
201109061245 METAR LMML 061245Z 33009KT 290V360 9999 FEW030 31/15 Q1018
                        NOSIG=
201109061230 METAR LMML NIL=
201109061215 METAR LMML 061215Z 33009KT 290V010 9999 FEW030 31/16 Q1019
                        NOSIG=
201109061200 METAR LMML NIL=
201109061145 METAR LMML 061145Z 34009KT 310V010 9999 FEW025 31/17 Q1019
                        NOSIG=
201109061130 METAR LMML NIL=
201109061115 METAR LMML 061115Z 34006KT 310V030 9999 FEW025 31/18 Q1019
                        NOSIG=
201109061100 METAR LMML NIL=
201109061045 METAR LMML 061045Z 33009KT 300V010 CAVOK 30/17 Q1019 NOSIG=
201109061030 METAR LMML NIL=
201109061015 METAR LMML 061015Z 33009KT 290V010 9999 FEW025 30/18 Q1019
                        NOSIG=
201109060945 METAR LMML 060945Z 34009KT 310V010 9999 FEW022 30/20 Q1019
                        NOSIG=
201109060930 METAR LMML NIL=
201109060915 METAR LMML 060915Z 34009KT 310V020 9999 FEW022 29/20 Q1019
                        NOSIG=
201109060900 METAR LMML NIL=
201109060845 METAR LMML 060845Z 35012KT 320V020 9999 FEW022 29/19 Q1019
                        NOSIG=
201109060830 METAR LMML NIL=
201109060815 METAR LMML 060815Z 35010KT 310V020 9999 FEW018 28/21 Q1019
                        NOSIG=
201109060745 METAR LMML 060745Z 33009KT 300V010 9999 FEW018 28/21 Q1019
                        NOSIG=
201109060730 METAR LMML NIL=
201109060715 METAR LMML 060715Z 33011KT 9999 FEW018 27/21 Q1019 NOSIG=
201109060700 METAR LMML NIL=
201109060645 METAR LMML 060645Z 33008KT 300V010 9999 FEW009 26/22 Q1019
                        NOSIG=
201109060630 METAR LMML NIL=
201109060615 METAR LMML 060615Z 33007KT 300V360 9999 FEW009 26/22 Q1018
                        NOSIG=
201109060545 METAR LMML 060545Z 32005KT 9999 FEW007 25/22 Q1018 NOSIG=
201109060530 METAR LMML NIL=
201109060515 METAR LMML 060515Z 31007KT 9999 FEW007 24/22 Q1018 NOSIG=
201109060445 METAR LMML 060445Z 31006KT 9999 FEW007 24/22 Q1018 NOSIG=
201109060430 METAR LMML NIL=
201109060415 METAR LMML 060415Z 31007KT 9999 FEW007 24/22 Q1017 NOSIG=
201109060400 METAR LMML NIL=
201109060345 METAR LMML 060345Z 31005KT 9999 FEW007 24/22 Q1018 NOSIG=
201109060330 METAR LMML NIL=
201109060315 METAR LMML 060315Z 30005KT 9999 FEW007 24/22 Q1017 NOSIG=
201109060300 METAR LMML NIL=
201109060245 METAR LMML 060245Z 31006KT 9999 FEW007 24/22 Q1017 NOSIG=
201109060230 METAR LMML NIL=
201109060215 METAR LMML 060215Z 31007KT 9999 FEW007 24/23 Q1017 NOSIG=
201109060200 METAR LMML NIL=
201109060145 METAR LMML 060145Z 32006KT 9999 SCT007 24/23 Q1017 NOSIG=
201109060130 METAR LMML NIL=
201109060115 METAR LMML 060115Z 32005KT 9999 SCT007 24/23 Q1017 NOSIG=
201109060100 METAR LMML NIL=
201109060045 METAR LMML 060045Z 32003KT 9999 FEW008 24/22 Q1017 NOSIG=
201109060030 METAR LMML NIL=
201109060015 METAR LMML 060015Z 31003KT 9999 FEW008 24/22 Q1017 NOSIG=
201109060000 METAR LMML NIL=
201109052345 METAR LMML 052345Z 30004KT 260V340 9999 FEW009 24/22 Q1017
                        NOSIG=
201109052330 METAR LMML NIL=
201109052315 METAR LMML 052315Z 28005KT 240V300 9999 FEW008 24/22 Q1017
                        NOSIG=
201109052245 METAR LMML 052245Z 29007KT 9999 FEW008 25/22 Q1018 NOSIG=
201109052230 METAR LMML NIL=
201109052215 METAR LMML 052215Z 30007KT 9999 FEW008 25/23 Q1017 NOSIG=
201109052145 METAR LMML 052145Z 30005KT 9999 SCT008 25/23 Q1018 NOSIG=
201109052115 METAR LMML 052115Z 29004KT 9999 FEW012 25/23 Q1018 NOSIG=
201109052045 METAR LMML 052045Z 29005KT 9999 FEW012 25/23 Q1018 NOSIG=
201109052030 METAR LMML NIL=
201109052015 METAR LMML 052015Z 29005KT 9999 FEW012 26/23 Q1018 NOSIG=
201109052000 METAR LMML NIL=
201109051945 METAR LMML 051945Z 29003KT 9999 FEW012 26/23 Q1017 NOSIG=
201109051930 METAR LMML NIL=
201109051915 METAR LMML 051915Z 28004KT 9999 FEW013 26/23 Q1017 NOSIG=
201109051900 METAR LMML NIL=
201109051845 METAR LMML 051845Z 28005KT 9999 FEW013 26/23 Q1017 BECMG
                        9000 BKN010=
201109051830 METAR LMML NIL=
201109051815 METAR LMML 051815Z 25005KT 210V280 9999 FEW012 26/23 Q1017
                        BECMG 9000 BKN010=
201109051800 METAR LMML NIL=
201109051745 METAR LMML 051745Z 22004KT 170V260 9999 FEW010 26/24 Q1017
                        BECMG 9000 BKN008=
201109051730 METAR LMML NIL=
201109051715 METAR LMML 051715Z 19005KT 160V230 9999 FEW011 27/24 Q1016
                        NOSIG=
201109051700 METAR LMML NIL=
201109051645 METAR LMML 051645Z 20006KT 170V250 9999 FEW012 27/24 Q1016
                        NOSIG=
201109051630 METAR LMML NIL=
201109051615 METAR LMML 051615Z 19006KT 150V240 9999 FEW012 28/23 Q1016
                        NOSIG=
201109051545 METAR LMML 051545Z 19006KT 160V230 CAVOK 28/23 Q1016 NOSIG=
201109051530 METAR LMML NIL=
201109051515 METAR LMML 051515Z 19006KT 150V240 CAVOK 29/23 Q1016 NOSIG=
201109051500 METAR LMML NIL=
201109051445 METAR LMML 051445Z 19007KT 160V240 CAVOK 29/23 Q1016 NOSIG=
201109051430 METAR LMML NIL=
201109051415 METAR LMML 051415Z 19008KT 160V240 CAVOK 29/23 Q1016 NOSIG=
201109051345 METAR LMML 051345Z 18012KT 140V230 CAVOK 29/23 Q1016 NOSIG=
201109051330 METAR LMML NIL=
201109051315 METAR LMML 051315Z 18010KT 150V230 CAVOK 30/23 Q1016 NOSIG=
201109051300 METAR LMML NIL=
201109051245 METAR LMML 051245Z 18011KT 150V210 CAVOK 30/22 Q1016 NOSIG=
201109051230 METAR LMML NIL=
201109051215 METAR LMML 051215Z 17012KT 140V200 CAVOK 30/23 Q1016 NOSIG=
201109051145 METAR LMML 051145Z 17011KT 130V220 CAVOK 30/23 Q1016 NOSIG=
201109051130 METAR LMML NIL=
201109051115 METAR LMML 051115Z 16012KT 130V200 CAVOK 30/23 Q1016 NOSIG=
201109051045 METAR LMML 051045Z 15011KT CAVOK 30/23 Q1017 NOSIG=
201109051030 METAR LMML NIL=
201109051015 METAR LMML 051015Z 15010KT 120V200 CAVOK 30/22 Q1017 NOSIG=
201109051000 METAR LMML NIL=
201109050945 METAR LMML 050945Z 14009KT 100V170 CAVOK 30/23 Q1017 NOSIG=
201109050930 METAR LMML NIL=
201109050915 METAR LMML 050915Z 14008KT 080V190 CAVOK 29/22 Q1017 NOSIG=
201109050900 METAR LMML NIL=
201109050845 METAR LMML 050845Z 15008KT 110V180 CAVOK 30/22 Q1017 NOSIG=
201109050830 METAR LMML NIL=
201109050815 METAR LMML 050815Z 15008KT CAVOK 29/22 Q1017 NOSIG=
201109050745 METAR LMML 050745Z 13008KT 100V160 CAVOK 29/23 Q1017 NOSIG=
201109050730 METAR LMML NIL=
201109050715 METAR LMML 050715Z 13007KT 090V160 CAVOK 28/22 Q1016 NOSIG=
201109050700 METAR LMML NIL=
201109050645 METAR LMML 050645Z 13006KT CAVOK 28/22 Q1016 NOSIG=
201109050630 METAR LMML NIL=
201109050615 METAR LMML 050615Z 12004KT CAVOK 27/22 Q1016 NOSIG=
201109050600 METAR LMML NIL=
201109050545 METAR LMML 050545Z 13003KT CAVOK 25/23 Q1016 NOSIG=
201109050530 METAR LMML NIL=
201109050515 METAR LMML 050515Z 15004KT 120V180 CAVOK 25/22 Q1016 NOSIG=
201109050445 METAR LMML 050445Z 15003KT CAVOK 24/22 Q1016 NOSIG=
201109050430 METAR LMML NIL=
201109050415 METAR LMML 050415Z VRB02KT CAVOK 23/21 Q1016 NOSIG=
201109050400 METAR LMML NIL=
201109050345 METAR LMML 050345Z VRB01KT CAVOK 23/21 Q1016 NOSIG=
201109050330 METAR LMML NIL=
201109050315 METAR LMML 050315Z VRB01KT CAVOK 23/21 Q1015 NOSIG=
201109050300 METAR LMML NIL=
201109050245 METAR LMML 050245Z VRB01KT CAVOK 24/22 Q1015 NOSIG=
201109050230 METAR LMML NIL=
201109050215 METAR LMML 050215Z VRB02KT CAVOK 24/21 Q1015 NOSIG=
201109050200 METAR LMML NIL=
201109050145 METAR LMML 050145Z 11003KT CAVOK 24/21 Q1015 NOSIG=
201109050130 METAR LMML NIL=
201109050115 METAR LMML 050115Z 14005KT CAVOK 25/22 Q1015 NOSIG=
201109050100 METAR LMML NIL=
201109050045 METAR LMML 050045Z 14004KT 120V180 CAVOK 25/22 Q1015 NOSIG=
201109050030 METAR LMML NIL=
201109050015 METAR LMML 050015Z 14005KT CAVOK 25/22 Q1015 NOSIG=
201109050000 METAR LMML NIL=
201109042345 METAR LMML 042345Z 13004KT CAVOK 25/21 Q1015 NOSIG=
201109042330 METAR LMML NIL=
201109042315 METAR LMML 042315Z 14006KT CAVOK 26/21 Q1015 NOSIG=
201109042245 METAR LMML 042245Z 14006KT CAVOK 26/20 Q1015 NOSIG=
201109042230 METAR LMML NIL=
201109042215 METAR LMML 042215Z 12005KT CAVOK 25/20 Q1016 NOSIG=
201109042200 METAR LMML NIL=
201109042145 METAR LMML 042145Z 14005KT CAVOK 26/20 Q1015 NOSIG=
201109042130 METAR LMML NIL=
201109042115 METAR LMML 042115Z 14006KT CAVOK 26/20 Q1016 NOSIG=
201109042100 METAR LMML NIL=
201109042045 METAR LMML 042045Z 15006KT 120V180 CAVOK 26/19 Q1016 NOSIG=
201109042030 METAR LMML NIL=
201109042015 METAR LMML 042015Z 14007KT CAVOK 27/20 Q1016 NOSIG=
201109042000 METAR LMML NIL=
201109041945 METAR LMML 041945Z 16006KT CAVOK 27/18 Q1015 NOSIG=
201109041930 METAR LMML NIL=
201109041915 METAR LMML 041915Z 15006KT 130V190 CAVOK 27/20 Q1015 NOSIG=
201109041900 METAR LMML NIL=
201109041845 METAR LMML 041845Z 16007KT CAVOK 27/20 Q1015 NOSIG=
201109041830 METAR LMML NIL=
201109041815 METAR LMML 041815Z 16007KT CAVOK 27/19 Q1015 NOSIG=
201109041800 METAR LMML NIL=
201109041745 METAR LMML 041745Z 15008KT 120V180 CAVOK 27/20 Q1014 NOSIG=
201109041730 METAR LMML NIL=
201109041715 METAR LMML 041715Z 14006KT 120V180 CAVOK 28/20 Q1015 NOSIG=
201109041700 METAR LMML NIL=
201109041645 METAR LMML 041645Z 17004KT 120V210 CAVOK 28/21 Q1015 NOSIG=
201109041630 METAR LMML NIL=
201109041615 METAR LMML 041615Z 16006KT 120V200 CAVOK 28/21 Q1015 NOSIG=
201109041600 METAR LMML NIL=
201109041545 METAR LMML 041545Z 13008KT 090V160 CAVOK 29/21 Q1015 NOSIG=
201109041530 METAR LMML NIL=
201109041515 METAR LMML 041515Z 12011KT CAVOK 29/22 Q1014 NOSIG=
201109041500 METAR LMML NIL=
201109041445 METAR LMML 041445Z 13011KT CAVOK 29/24 Q1014 NOSIG=
201109041430 METAR LMML NIL=
201109041415 METAR LMML 041415Z 12011KT 090V150 CAVOK 30/24 Q1014 NOSIG=
201109041400 METAR LMML NIL=
201109041345 METAR LMML 041345Z 11006KT 060V150 CAVOK 32/22 Q1015 NOSIG=
201109041330 METAR LMML NIL=
201109041315 METAR LMML 041315Z 12009KT 090V150 CAVOK 31/21 Q1015 NOSIG=
201109041300 METAR LMML NIL=
201109041245 METAR LMML 041245Z 10011KT 060V140 CAVOK 33/14 Q1015 NOSIG=
201109041230 METAR LMML NIL=
201109041215 METAR LMML 041215Z 08008KT 040V120 CAVOK 32/18 Q1015 NOSIG=
201109041200 METAR LMML NIL=
201109041145 METAR LMML 041145Z 07009KT 020V110 CAVOK 35/15 Q1015 NOSIG=
201109041130 METAR LMML NIL=
201109041115 METAR LMML 041115Z 06007KT 010V100 CAVOK 34/12 Q1015 NOSIG=
201109041045 METAR LMML 041045Z 05007KT 360V100 CAVOK 34/13 Q1015 NOSIG=
201109041030 METAR LMML NIL=
201109041015 METAR LMML 041015Z 10005KT CAVOK 34/13 Q1016 NOSIG=
201109041000 METAR LMML NIL=
201109040945 METAR LMML 040945Z 05006KT 020V090 CAVOK 33/14 Q1016 NOSIG=
201109040930 METAR LMML NIL=
201109040915 METAR LMML 040915Z 03005KT 350V070 CAVOK 33/16 Q1015 NOSIG=
201109040900 METAR LMML NIL=
201109040845 METAR LMML 040845Z 04006KT 010V080 CAVOK 31/19 Q1015 NOSIG=
201109040830 METAR LMML NIL=
201109040815 METAR LMML 040815Z 03007KT 360V070 CAVOK 31/18 Q1015 NOSIG=
201109040745 METAR LMML 040745Z 04009KT 010V080 CAVOK 30/19 Q1015 NOSIG=
201109040730 METAR LMML NIL=
201109040715 METAR LMML 040715Z 03007KT 360V060 CAVOK 30/19 Q1015 NOSIG=
201109040700 METAR LMML NIL=
201109040645 METAR LMML 040645Z 02005KT CAVOK 29/22 Q1015 NOSIG=
201109040630 METAR LMML NIL=
201109040615 METAR LMML 040615Z 36004KT CAVOK 28/22 Q1015 NOSIG=
201109040600 METAR LMML NIL=
201109040545 METAR LMML 040545Z 36005KT CAVOK 27/18 Q1015 NOSIG=
201109040530 METAR LMML NIL=
201109040515 METAR LMML 040515Z 34004KT CAVOK 26/19 Q1015 NOSIG=
201109040500 METAR LMML NIL=
201109040445 METAR LMML 040445Z 32004KT CAVOK 25/19 Q1015 NOSIG=
201109040430 METAR LMML NIL=
201109040415 METAR LMML 040415Z 31005KT CAVOK 25/18 Q1014 NOSIG=
201109040400 METAR LMML NIL=
201109040345 METAR LMML 040345Z 31006KT CAVOK 26/13 Q1014 NOSIG=
201109040315 METAR LMML 040315Z 31006KT CAVOK 26/12 Q1014 NOSIG=
201109040300 METAR LMML NIL=
201109040245 METAR LMML 040245Z 32005KT CAVOK 25/15 Q1014 NOSIG=
201109040230 METAR LMML NIL=
201109040215 METAR LMML 040215Z VRB02KT CAVOK 25/16 Q1013 NOSIG=
201109040145 METAR LMML 040145Z VRB01KT CAVOK 26/17 Q1013 NOSIG=
201109040130 METAR LMML NIL=
201109040115 METAR LMML 040115Z VRB02KT CAVOK 26/17 Q1013 NOSIG=
201109040100 METAR LMML NIL=
201109040045 METAR LMML 040045Z VRB01KT CAVOK 26/17 Q1013 NOSIG=
201109040030 METAR LMML NIL=
201109040015 METAR LMML 040015Z 20003KT CAVOK 27/16 Q1013 NOSIG=
201109040000 METAR LMML NIL=
201109032345 METAR LMML 032345Z 19003KT CAVOK 27/17 Q1013 NOSIG=
201109032330 METAR LMML NIL=
201109032315 METAR LMML 032315Z 19004KT CAVOK 27/18 Q1014 NOSIG=
201109032300 METAR LMML NIL=
201109032245 METAR LMML 032245Z 19005KT CAVOK 27/18 Q1013 NOSIG=
201109032230 METAR LMML NIL=
201109032215 METAR LMML 032215Z 20004KT 180V250 CAVOK 27/18 Q1013 NOSIG=
201109032200 METAR LMML NIL=
201109032145 METAR LMML 032145Z 18004KT CAVOK 27/15 Q1014 NOSIG=
201109032115 METAR LMML 032115Z 18004KT CAVOK 28/13 Q1014 NOSIG=
201109032100 METAR LMML NIL=
201109032045 METAR LMML 032045Z 17004KT CAVOK 28/16 Q1014 NOSIG=
201109032030 METAR LMML NIL=
201109032015 METAR LMML 032015Z 18003KT CAVOK 27/19 Q1014 NOSIG=
201109032000 METAR LMML NIL=
201109031945 METAR LMML 031945Z 18003KT CAVOK 27/21 Q1014 NOSIG=
201109031930 METAR LMML NIL=
201109031915 METAR LMML 031915Z 18004KT CAVOK 27/22 Q1014 NOSIG=
201109031900 METAR LMML NIL=
201109031845 METAR LMML 031845Z 18004KT CAVOK 27/21 Q1014 NOSIG=
201109031830 METAR LMML NIL=
201109031815 METAR LMML 031815Z 13004KT CAVOK 27/23 Q1013 NOSIG=
201109031800 METAR LMML NIL=
201109031745 METAR LMML 031745Z 17003KT CAVOK 28/22 Q1013 NOSIG=
201109031730 METAR LMML NIL=
201109031715 METAR LMML 031715Z 17003KT CAVOK 29/19 Q1013 NOSIG=
201109031645 METAR LMML 031645Z 18004KT 150V210 CAVOK 31/14 Q1013 NOSIG=
201109031630 METAR LMML NIL=
201109031615 METAR LMML 031615Z 17003KT CAVOK 32/12 Q1013 NOSIG=
201109031600 METAR LMML NIL=
201109031545 METAR LMML 031545Z 13004KT 090V180 CAVOK 33/12 Q1013 NOSIG=
201109031530 METAR LMML NIL=
201109031515 METAR LMML 031515Z 14003KT CAVOK 34/13 Q1014 NOSIG=
201109031500 METAR LMML NIL=
201109031445 METAR LMML 031445Z 11003KT CAVOK 35/12 Q1014 NOSIG=
201109031430 METAR LMML NIL=
201109031415 METAR LMML 031415Z 18004KT 130V230 CAVOK 34/02 Q1014 NOSIG=
201109031400 METAR LMML NIL=
201109031345 METAR LMML 031345Z 22005KT 190V250 CAVOK 34/07 Q1014 NOSIG=
201109031330 METAR LMML NIL=
201109031315 METAR LMML 031315Z 21004KT 170V280 CAVOK 34/05 Q1014 NOSIG=
201109031300 METAR LMML NIL=
201109031245 METAR LMML 031245Z 22005KT 180V270 CAVOK 34/06 Q1014 NOSIG=
201109031230 METAR LMML NIL=
201109031215 METAR LMML 031215Z 21006KT 170V250 CAVOK 34/12 Q1014 NOSIG=
201109031200 METAR LMML NIL=
201109031145 METAR LMML 031145Z 19006KT 160V230 CAVOK 33/14 Q1014 NOSIG=
201109031130 METAR LMML NIL=
201109031115 METAR LMML 031115Z 20006KT 150V260 CAVOK 33/16 Q1014 NOSIG=
201109031100 METAR LMML NIL=
201109031045 METAR LMML 031045Z 20006KT CAVOK 33/15 Q1014 NOSIG=
201109031030 METAR LMML NIL=
201109031015 METAR LMML 031015Z 19004KT 150V250 CAVOK 33/15 Q1014 NOSIG=
201109030945 METAR LMML 030945Z 19004KT 150V230 CAVOK 32/17 Q1014 NOSIG=
201109030930 METAR LMML NIL=
201109030915 METAR LMML 030915Z VRB02KT CAVOK 32/16 Q1014 NOSIG=
201109030900 METAR LMML NIL=
201109030845 METAR LMML 030845Z 18005KT 9999 FEW009 31/18 Q1014 NOSIG=
201109030830 METAR LMML NIL=
201109030815 METAR LMML 030815Z VRB02KT CAVOK 32/09 Q1014 NOSIG=
201109030800 METAR LMML NIL=
201109030745 METAR LMML 030745Z VRB02KT 9999 FEW040 31/13 Q1014 NOSIG=
201109030730 METAR LMML NIL=
201109030715 METAR LMML 030715Z VRB02KT CAVOK 30/12 Q1014 NOSIG=
201109030700 METAR LMML NIL=
201109030645 METAR LMML 030645Z VRB01KT CAVOK 29/13 Q1014 NOSIG=
201109030630 METAR LMML NIL=
201109030615 METAR LMML 030615Z VRB01KT CAVOK 26/17 Q1014 NOSIG=
201109030600 METAR LMML NIL=
201109030545 METAR LMML 030545Z VRB01KT CAVOK 24/18 Q1014 NOSIG=
201109030530 METAR LMML NIL=
201109030515 METAR LMML 030515Z 26005KT 230V290 CAVOK 24/18 Q1014 NOSIG=
201109030500 METAR LMML NIL=
201109030445 METAR LMML 030445Z VRB02KT CAVOK 23/18 Q1014 NOSIG=
201109030415 METAR LMML 030415Z 27003KT 8000 FEW008 22/21 Q1014 NOSIG=
201109030400 METAR LMML NIL=
201109030345 METAR LMML 030345Z 00000KT 0500 R13/P1500N FG SCT001 22/22
                        Q1014 TEMPO 0100 FG BKN001=
201109030330 METAR LMML NIL=
201109030315 METAR LMML 030315Z VRB01KT 0200 R13/P1500N FG BKN001 22/22
                        Q1014 TEMPO 0100 FG BKN001=
201109030300 METAR LMML NIL=
201109030245 METAR LMML 030245Z VRB01KT 0100 R13/P1500N FG BKN001 23/23
                        Q1014 TEMPO 0100 FG BKN001=
201109030215 METAR LMML 030215Z VRB01KT 0100 R13/0393V0499N FG BKN001
                        23/23 Q1014 TEMPO 0100 FG BKN001=
201109030200 METAR LMML NIL=
201109030145 METAR LMML 030145Z VRB01KT 0200 R13/P1500N FG BKN001 23/23
                        Q1014 TEMPO 0100 FG BKN001=
201109030130 METAR LMML NIL=
201109030115 METAR LMML 030115Z 13003KT 0300 R13/0811VP1500D FG SCT001
                        24/24 Q1014 TEMPO 0100 FG BKN001=
201109030100 METAR LMML NIL=
201109030045 METAR LMML 030045Z VRB01KT 6000 0500SW R13/0864VP1500U BCFG
                        SCT001 24/24 Q1014 TEMPO 0100 FG
                        BKN001=
201109030033 SPECI LMML 030033Z VRB02KT 5000 0900SW R13/P1500D BCFG SCT001
                        24/24 Q1014 TEMPO 0800 BCFG BKN001=
201109030032 SPECI LMML 030032Z VRB02KT 5000 0900SW R13/P1500N BCFG NSC
                        24/24 Q1014 TEMPO 0800 BCFG BKN001=
201109030030 METAR LMML NIL=
201109030015 METAR LMML 030015Z VRB02KT 3000 BR SCT001 24/24 Q1014 TEMPO
                        0800 BCFG BKN001=
201109022345 METAR LMML 022345Z VRB01KT CAVOK 24/22 Q1014 NOSIG=
201109022315 METAR LMML 022315Z VRB01KT CAVOK 24/23 Q1014 NOSIG=
201109022300 METAR LMML NIL=
201109022245 METAR LMML 022245Z VRB01KT CAVOK 24/23 Q1015 NOSIG=
201109022230 METAR LMML NIL=
201109022215 METAR LMML 022215Z VRB01KT CAVOK 24/23 Q1015 NOSIG=
201109022200 METAR LMML NIL=
201109022145 METAR LMML 022145Z VRB01KT CAVOK 25/23 Q1015 NOSIG=
201109022130 METAR LMML NIL=
201109022115 METAR LMML 022115Z VRB01KT CAVOK 25/22 Q1015 NOSIG=
201109022045 METAR LMML 022045Z VRB02KT CAVOK 26/23 Q1015 NOSIG=
201109022030 METAR LMML NIL=
201109022015 METAR LMML 022015Z 20003KT CAVOK 26/22 Q1015 NOSIG RMK SMOKE
                        LAYER FROM WEST TO NORTH=
201109022000 METAR LMML NIL=
201109021945 METAR LMML 021945Z VRB02KT CAVOK 26/22 Q1014 NOSIG=
201109021930 METAR LMML NIL=
201109021915 METAR LMML 021915Z 21004KT 180V260 CAVOK 26/23 Q1014 NOSIG=
201109021900 METAR LMML NIL=
201109021845 METAR LMML 021845Z 20004KT 170V230 CAVOK 26/23 Q1014 NOSIG=
201109021830 METAR LMML NIL=
201109021815 METAR LMML 021815Z 21005KT 170V250 CAVOK 26/23 Q1014 NOSIG=
201109021800 METAR LMML NIL=
201109021745 METAR LMML 021745Z 20005KT 170V270 CAVOK 26/23 Q1014 NOSIG=
201109021730 METAR LMML NIL=
201109021715 METAR LMML 021715Z 20008KT 170V240 CAVOK 27/23 Q1014 NOSIG=
201109021700 METAR LMML NIL=
201109021645 METAR LMML 021645Z 20007KT 170V230 CAVOK 28/21 Q1013 NOSIG=
201109021630 METAR LMML NIL=
201109021615 METAR LMML 021615Z 18006KT CAVOK 28/20 Q1014 NOSIG=
201109021545 METAR LMML 021545Z 20006KT 160V230 CAVOK 27/22 Q1014 NOSIG=
201109021530 METAR LMML NIL=
201109021515 METAR LMML 021515Z 20007KT 170V240 CAVOK 29/21 Q1014 NOSIG=
201109021500 METAR LMML NIL=
201109021445 METAR LMML 021445Z 21007KT 150V240 9999 FEW012 29/21 Q1014
                        NOSIG=
201109021430 METAR LMML NIL=
201109021415 METAR LMML 021415Z 21008KT 170V260 9999 FEW012 29/22 Q1015
                        NOSIG=
201109021400 METAR LMML NIL=
201109021345 METAR LMML 021345Z 21008KT 160V260 9999 FEW012 30/20 Q1015
                        NOSIG=
201109021330 METAR LMML NIL=
201109021315 METAR LMML 021315Z 23009KT 190V260 CAVOK 31/19 Q1015 NOSIG=
201109021300 METAR LMML NIL=
201109021245 METAR LMML 021245Z 22007KT 160V270 CAVOK 31/19 Q1016 NOSIG=
201109021230 METAR LMML NIL=
201109021215 METAR LMML 021215Z 21008KT 170V260 9999 FEW012 30/21 Q1016
                        NOSIG=
201109021200 METAR LMML NIL=
201109021145 METAR LMML 021145Z 22007KT 160V250 9999 FEW012 30/19 Q1016
                        NOSIG=
201109021130 METAR LMML NIL=
201109021115 METAR LMML 021115Z 22005KT 160V270 9999 FEW012 31/19 Q1016
                        NOSIG=
201109021100 METAR LMML NIL=
201109021045 METAR LMML 021045Z 22005KT 190V270 9999 FEW012 31/19 Q1017
                        NOSIG=
201109021015 METAR LMML 021015Z 21005KT 160V260 CAVOK 31/20 Q1017 NOSIG=
201109021000 METAR LMML NIL=
201109020945 METAR LMML 020945Z 22004KT 150V300 9999 FEW012 31/18 Q1017
                        NOSIG=
201109020930 METAR LMML NIL=
201109020915 METAR LMML 020915Z 20004KT 140V290 9999 FEW008 31/19 Q1016
                        NOSIG=
201109020900 METAR LMML NIL=
201109020845 METAR LMML 020845Z 21003KT 9999 FEW008 31/18 Q1016 NOSIG=
201109020830 METAR LMML NIL=
201109020815 METAR LMML 020815Z 25003KT 9999 FEW008 30/18 Q1017 NOSIG=
201109020800 METAR LMML NIL=
201109020745 METAR LMML 020745Z VRB02KT 9999 FEW008 28/20 Q1016 NOSIG=
201109020730 METAR LMML NIL=
201109020715 METAR LMML 020715Z 23004KT 200V280 9999 FEW008 27/22 Q1016
                        NOSIG=
201109020700 METAR LMML NIL=
201109020645 METAR LMML 020645Z 22003KT 9999 FEW005 26/23 Q1016 NOSIG=
201109020630 METAR LMML NIL=
201109020615 METAR LMML 020615Z VRB01KT 9999 FEW005 25/24 Q1016 NOSIG=
201109020545 METAR LMML 020545Z VRB02KT 9999 FEW005 24/24 Q1016 NOSIG=
201109020530 METAR LMML NIL=
201109020515 METAR LMML 020515Z VRB02KT 9999 FEW008 23/23 Q1016 NOSIG=
201109020500 METAR LMML NIL=
201109020445 METAR LMML 020445Z 20003KT 9999 FEW008 23/23 Q1016 NOSIG=
201109020415 METAR LMML 020415Z VRB02KT 9999 FEW008 23/23 Q1016 NOSIG=
201109020400 METAR LMML NIL=
201109020345 METAR LMML 020345Z 20003KT CAVOK 23/22 Q1016 NOSIG=
201109020315 METAR LMML 020315Z VRB01KT CAVOK 23/22 Q1016 NOSIG=
201109020300 METAR LMML NIL=
201109020245 METAR LMML 020245Z VRB01KT CAVOK 23/22 Q1016 NOSIG=
201109020230 METAR LMML NIL=
201109020215 METAR LMML 020215Z VRB01KT CAVOK 23/21 Q1016 NOSIG=
201109020200 METAR LMML NIL=
201109020145 METAR LMML 020145Z VRB01KT CAVOK 23/22 Q1016 NOSIG=
201109020130 METAR LMML NIL=
201109020115 METAR LMML 020115Z 22003KT CAVOK 23/21 Q1016 NOSIG=
201109020100 METAR LMML NIL=
201109020045 METAR LMML 020045Z 20003KT CAVOK 24/21 Q1016 NOSIG=
201109020030 METAR LMML NIL=
201109020015 METAR LMML 020015Z 20003KT CAVOK 24/21 Q1016 NOSIG=
201109020000 METAR LMML NIL=
201109012345 METAR LMML 012345Z VRB02KT CAVOK 23/21 Q1016 NOSIG=
201109012315 METAR LMML 012315Z VRB01KT CAVOK 23/21 Q1017 NOSIG=
201109012300 METAR LMML NIL=
201109012245 METAR LMML 012245Z VRB02KT CAVOK 24/22 Q1017 NOSIG=
201109012230 METAR LMML NIL=
201109012215 METAR LMML 012215Z VRB02KT CAVOK 24/21 Q1017 NOSIG=
201109012200 METAR LMML NIL=
201109012145 METAR LMML 012145Z VRB02KT CAVOK 25/21 Q1017 NOSIG=
201109012130 METAR LMML NIL=
201109012115 METAR LMML 012115Z 16003KT CAVOK 25/21 Q1017 NOSIG=
201109012100 METAR LMML NIL=
201109012045 METAR LMML 012045Z 17003KT CAVOK 25/20 Q1017 NOSIG=
201109012030 METAR LMML NIL=
201109012015 METAR LMML 012015Z 19003KT CAVOK 25/19 Q1017 NOSIG=
201109011945 METAR LMML 011945Z 21003KT CAVOK 25/20 Q1017 NOSIG=
201109011930 METAR LMML NIL=
201109011915 METAR LMML 011915Z 19004KT 060V220 CAVOK 25/21 Q1017 NOSIG=
201109011900 METAR LMML NIL=
201109011845 METAR LMML 011845Z 21003KT CAVOK 25/20 Q1017 NOSIG=
201109011830 METAR LMML NIL=
201109011815 METAR LMML 011815Z 22006KT 180V260 CAVOK 26/20 Q1016 NOSIG=
201109011800 METAR LMML NIL=
201109011745 METAR LMML 011745Z 20005KT 170V250 CAVOK 26/20 Q1016 NOSIG=
201109011730 METAR LMML NIL=
201109011715 METAR LMML 011715Z 19005KT 160V230 CAVOK 26/20 Q1016 NOSIG=
201109011700 METAR LMML NIL=
201109011645 METAR LMML 011645Z 21005KT 170V260 CAVOK 27/20 Q1016 NOSIG=
201109011630 METAR LMML NIL=
201109011615 METAR LMML 011615Z 18004KT 150V210 CAVOK 29/20 Q1016 NOSIG=
201109011600 METAR LMML NIL=
201109011545 METAR LMML 011545Z 07003KT CAVOK 31/20 Q1016 NOSIG=
201109011530 METAR LMML NIL=
201109011515 METAR LMML 011515Z 19003KT CAVOK 31/16 Q1016 NOSIG=
201109011500 METAR LMML NIL=
201109011445 METAR LMML 011445Z 21005KT 160V270 CAVOK 30/17 Q1016 NOSIG=
201109011430 METAR LMML NIL=
201109011415 METAR LMML 011415Z 22006KT 190V280 CAVOK 30/18 Q1017 NOSIG=
201109011345 METAR LMML 011345Z 22006KT 150V270 CAVOK 30/18 Q1017 NOSIG=
201109011315 METAR LMML 011315Z 20007KT 170V240 CAVOK 30/18 Q1017 NOSIG=
201109011300 METAR LMML NIL=
201109011245 METAR LMML 011245Z 21005KT 160V270 CAVOK 31/17 Q1017 NOSIG=
201109011230 METAR LMML NIL=
201109011215 METAR LMML 011215Z 19005KT 150V230 CAVOK 31/17 Q1017 NOSIG=
201109011200 METAR LMML NIL=
201109011145 METAR LMML 011145Z 20006KT 160V250 CAVOK 31/16 Q1017 NOSIG=
201109011130 METAR LMML NIL=
201109011115 METAR LMML 011115Z 22005KT 170V310 CAVOK 31/17 Q1017 NOSIG=
201109011045 METAR LMML 011045Z 03004KT 330V060 CAVOK 32/20 Q1017 NOSIG=
201109011030 METAR LMML NIL=
201109011015 METAR LMML 011015Z 24003KT CAVOK 31/16 Q1017 NOSIG=
201109010945 METAR LMML 010945Z 19004KT 130V240 CAVOK 30/16 Q1017 NOSIG=
201109010930 METAR LMML NIL=
201109010915 METAR LMML 010915Z 23005KT 190V280 CAVOK 30/15 Q1018 NOSIG=
201109010900 METAR LMML NIL=
201109010845 METAR LMML 010845Z 21003KT CAVOK 29/17 Q1017 NOSIG=
201109010815 METAR LMML 010815Z 19004KT 150V230 CAVOK 28/19 Q1017 NOSIG=
201109010800 METAR LMML NIL=
201109010745 METAR LMML 010745Z VRB02KT CAVOK 28/18 Q1017 NOSIG=
201109010730 METAR LMML NIL=
201109010715 METAR LMML 010715Z VRB01KT CAVOK 28/19 Q1017 NOSIG=
201109010700 METAR LMML NIL=
201109010645 METAR LMML 010645Z VRB01KT 9999 FEW020 26/19 Q1017 NOSIG=
201109010630 METAR LMML NIL=
201109010615 METAR LMML 010615Z VRB02KT 8000 FEW012 24/21 Q1017 NOSIG=
201109010600 METAR LMML NIL=
201109010545 METAR LMML 010545Z VRB01KT 8000 NSC 23/23 Q1016 NOSIG=
201109010530 METAR LMML NIL=
201109010515 METAR LMML 010515Z VRB02KT 8000 NSC 21/21 Q1016 NOSIG=
201109010445 METAR LMML 010445Z VRB01KT 9000 FEW008 21/21 Q1015 NOSIG=
201109010430 METAR LMML NIL=
201109010415 METAR LMML 010415Z VRB02KT 9000 FEW008 21/21 Q1015 NOSIG=
201109010400 METAR LMML NIL=
201109010345 METAR LMML 010345Z VRB02KT 9999 FEW008 21/21 Q1016 NOSIG=
201109010330 METAR LMML NIL=
201109010315 METAR LMML 010315Z VRB02KT 9999 SCT009 22/22 Q1015 TEMPO
                        9000 BKN007=
201109010300 METAR LMML NIL=
201109010245 METAR LMML 010245Z VRB01KT 9999 SCT008 22/21 Q1015 TEMPO
                        9000 BKN007=
201109010230 METAR LMML NIL=
201109010215 METAR LMML 010215Z VRB02KT 9999 BKN007 22/22 Q1015 TEMPO
                        9000=
201109010200 METAR LMML NIL=
201109010145 METAR LMML 010145Z VRB01KT 9999 BKN007 21/21 Q1015 NOSIG=
201109010130 METAR LMML NIL=
201109010115 METAR LMML 010115Z VRB01KT 9999 FEW008 22/21 Q1015 NOSIG=
201109010100 METAR LMML NIL=
201109010045 METAR LMML 010045Z 31003KT 9999 FEW008 22/21 Q1015 NOSIG=
201109010030 METAR LMML NIL=
201109010015 METAR LMML 010015Z VRB02KT 9999 FEW008 22/21 Q1015 NOSIG=
201109010000 METAR LMML NIL=

###################################
#  short TAF from LMML
###################################
201110012300 TAF LMML 012300Z 0200/0209 35004KT 9999 FEW025=
201110012000 TAF LMML 012000Z 0121/0206 03004KT 9999 FEW025=
201110011700 TAF LMML 011700Z 0118/0203 05007KT 9999 FEW020=
201110011400 TAF LMML 011400Z 0115/0124 04010KT 9999 FEW025=
201110011100 TAF LMML 011100Z 0112/0121 04010KT 9999 SCT025=
201110010800 TAF LMML 010800Z 0109/0118 04010KT 9999 FEW020=
201110010500 TAF LMML 010500Z 0106/0115 05008KT 9999 FEW025
                      PROB30 TEMPO 0106/0115 CAVOK=
201110010200 TAF LMML 010200Z 0103/0112 03008KT 9999 FEW025
                      TEMPO 0103/0112 CAVOK=
201109302300 TAF LMML 302300Z 0100/0109 03008KT 9999 FEW025
                      TEMPO 0100/0109 CAVOK=
201109302000 TAF LMML 302000Z 3021/0106 03005KT 9999 FEW025=
201109301700 TAF LMML 301700Z 3018/0103 02005KT 9999 FEW020=
201109301400 TAF LMML 301400Z 3015/3024 03010KT 9999 FEW025=
201109301100 TAF LMML 301100Z 3012/3021 02010KT 9999 FEW025=
201109300800 TAF LMML 300800Z 3009/3018 01008KT 9999 SCT025=
201109300500 TAF LMML 300500Z 3006/3015 03008KT 9999 FEW025=
201109300200 TAF LMML 300200Z 3003/3012 02006KT 9999 SCT025=
201109292300 TAF LMML 292300Z 3000/3009 02005KT 9999 FEW025
                      TEMPO 3000/3006 CAVOK=
201109292000 TAF LMML 292000Z 2921/3006 02005KT 9999 FEW025=
201109291700 TAF LMML 291700Z 2918/3003 02006KT 9999 FEW028
                      PROB30 TEMPO 2918/3003 CAVOK=
201109291400 TAF LMML 291400Z 2915/2924 05008KT 9999 FEW030=
201109291100 TAF LMML 291100Z 2912/2921 06010KT 9999 FEW030=
201109290800 TAF LMML 290800Z 2909/2918 06012KT 9999 FEW032=
201109290500 TAF LMML 290500Z 2906/2915 04012KT 9999 FEW025
                      PROB30 TEMPO 2906/2909 8000 SHRA BKN015=
201109290200 TAF LMML 290200Z 2903/2912 04010KT 9999 FEW020
                      PROB30 TEMPO 2903/2906 8000 SHRA BKN015=
201109282300 TAF LMML 282300Z 2900/2909 05008KT 9999 SCT020 SCT120
                      TEMPO 2900/2906 8000 SHRA BKN015TCU BKN100
                       PROB30
                      TEMPO 2900/2903 3000 TSRA SCT008 BKN015CB
                       BKN080=
201109282000 TAF LMML 282000Z 2821/2906 05010KT 9999 FEW020 SCT120
                      TEMPO 2821/2906 8000 SHRA BKN015TCU BKN100
                       PROB30
                      TEMPO 2821/2903 3000 TSRA BKN015CB BKN080=
201109281700 TAF LMML 281700Z 2818/2903 07008KT 9999 SCT018 BKN100
                      TEMPO 2818/2903 5000 SHRA FEW008 BKN015TCU
                       PROB30
                      TEMPO 2818/2903 3000 TSRA SCT008 BKN015CB=
201109281400 TAF LMML 281400Z 2815/2824 07010KT 9999 SCT018 BKN100
                      TEMPO 2815/2824 5000 SHRA FEW008 BKN015TCU
                       PROB30
                      TEMPO 2815/2824 3000 TSRA SCT008 BKN015CB=
201109281100 TAF LMML 281100Z 2812/2821 07012KT 9999 SCT018 SCT100
                      PROB30 TEMPO 2815/2521 5000 SHRA FEW008 BKN015TCU=
201109280800 TAF LMML 280800Z 2809/2818 06012KT 9999 SCT018 BKN100
                      TEMPO 2809/2818 5000 SHRA FEW012 BKN015TCU
                       PROB30
                      TEMPO 2809/2818 3000 TSRA SCT008 BKN015CB=
201109280500 TAF LMML 280500Z 2806/2815 06012KT 9999 SCT015 SCT100
                      TEMPO 2806/2815 8000 SHRA BKN015TCU
                      PROB30 TEMPO 2806/2815 4000 TSRA BKN012CB=
201109280200 TAF LMML 280200Z 2803/2812 06012KT 9999 SCT015
                      TEMPO 2803/2812 8000 SHRA BKN015TCU
                      PROB30 TEMPO 2803/2812 05012G22KT 4000 TSRA
                       BKN012CB=
201109272300 TAF LMML 272300Z 2800/2809 07010KT 9999 SCT017
                      TEMPO 2800/2809 8000 SHRA BKN015TCU
                      PROB30 TEMPO 2800/2809 06010G20KT 4000 TSRA
                       BKN012CB=
201109272000 TAF LMML 272000Z 2721/2806 06010KT 9999 SCT015
                      TEMPO 2721/2806 8000 SHRA BKN015TCU
                      PROB30 TEMPO 2721/2806 06010G20KT 4000 TSRA
                       BKN012CB=
201109271700 TAF LMML 271700Z 2718/2803 07012KT 9999 SCT015
                      TEMPO 2718/2803 8000 SHRA BKN015TCU
                      PROB30 TEMPO 2718/2803 06015G25KT 3000 TSRA
                       BKN010 BKN015CB=
201109271400 TAF LMML 271400Z 2715/2724 08013KT 9999 SCT015
                      TEMPO 2715/2724 8000 SHRA BKN015TCU
                      PROB30 TEMPO 2715/2724 06015G25KT 3000 TSRA
                       BKN010 BKN015CB=
201109271100 TAF LMML 271100Z 2712/2721 08013KT 9999 SCT015
                      TEMPO 2712/2721 8000 SHRA BKN015TCU
                      PROB30 TEMPO 2712/2721 06015G25KT 3000 TSRA
                       BKN010 BKN015CB=
201109270800 TAF LMML 270800Z 2709/2718 08010KT 9999 SCT015
                      TEMPO 2709/2718 5000 SHRA BKN015TCU
                      PROB30 TEMPO 2709/2718 06015G25KT 2000 TSRA
                       BKN010 BKN015CB=
201109270500 TAF LMML 270500Z 2706/2715 08010KT 9999 SCT020
                      TEMPO 2706/2715 5000 BKN012 BKN018TCU
                      PROB30 TEMPO 2706/2715 2000 TSRA BKN018CB=
201109270200 TAF LMML 270200Z 2703/2712 03008KT 9999 SCT012
                      TEMPO 2703/2712 5000 SHRA BKN010 BKN015TCU
                       PROB40
                      TEMPO 2703/2712 2000 TSRA BKN015CB=
201109262300 TAF LMML 262300Z 2700/2709 VRB05KT 9999 SCT012
                      TEMPO 2700/2709 8000 SHRA BKN010 BKN015TCU
                       PROB30
                      TEMPO 2700/2709 3000 TSRA BKN015CB=
201109262000 TAF LMML 262000Z 2621/2706 VRB05KT 9999 SCT015
                      TEMPO 2621/2706 BKN010
                      PROB40 TEMPO 2621/2706 8000 SHRA BKN015TCU
                       PROB30
                      TEMPO 2700/2706 5000 TSRA BKN015CB=
201109261700 TAF LMML 261700Z 2618/2703 02005KT 9999 SCT018
                      TEMPO 2618/2703 5000 SHRA FEW008 BKN015TCU
                       PROB30
                      TEMPO 2618/2703 3000 TSRA SCT005 BKN015CB=
201109261400 TAF LMML 261400Z 2615/2624 03008KT 9999 SCT020
                      PROB40 TEMPO 2615/2624 5000 SHRA FEW008 BKN015TCU=
201109261100 TAF LMML 261100Z 2612/2621 03008KT 9999 SCT015
                      TEMPO 2612/2621 5000 SHRA FEW008 BKN015TCU
                       PROB30
                      TEMPO 2612/2621 TSRA SCT005 BKN015CB=
201109260800 TAF LMML 260800Z 2609/2618 03008KT 9999 SCT015
                      TEMPO 2609/2618 5000 SHRA FEW008 BKN015TCU
                       PROB40
                      TEMPO 2609/2618 3000 TSRA SCT005 BKN015CB=
201109260500 TAF LMML 260500Z 2606/2615 09005KT 9999 SCT020 SCT050
                      TEMPO 2606/2615 8000 SHRA BKN015
                      PROB40 TEMPO 2606/2615 3000 TSRA BKN015CB=
201109260200 TAF LMML 260200Z 2603/2612 14005KT 9999 SCT020 SCT050
                      TEMPO 2603/2612 8000 SHRA BKN015TCU=
201109252300 TAF LMML 252300Z 2600/2609 14005KT 9999 SCT018
                      PROB40 TEMPO 2600/2609 8000 SHRA BKN015TCU=
201109252000 TAF LMML 252000Z 2521/2606 10008KT 9999 SCT018
                      TEMPO 2521/2606 8000 SHRA BKN015TCU=
201109251700 TAF LMML 251700Z 2518/2603 10008KT 9999 SCT018
                      PROB40 TEMPO 2518/2603 8000 SHRA BKN015
                      PROB30 TEMPO 2600/2603 5000 TSRA BKN015CB=
201109251400 TAF LMML 251400Z 2515/2524 09012KT 9999 SCT018
                      PROB40 TEMPO 2518/2524 8000 SHRA BKN015
                      PROB30 TEMPO 2518/2524 5000 TSRA BKN015CB=
201109251100 TAF LMML 251100Z 2512/2521 12013KT 9999 SCT020 FEW120=
201109250800 TAF LMML 250800Z 2509/2518 13013KT 9999 FEW020 SCT120=
201109250500 TAF LMML 250500Z 2506/2515 13010KT 9999 SCT015 SCT100=
201109250200 TAF LMML 250200Z 2503/2512 10007KT CAVOK
                      TEMPO 2503/2512 9999 FEW015 SCT120=
201109242300 TAF LMML 242300Z 2500/2509 10006KT CAVOK
                      TEMPO 2500/2509 9999 FEW015 SCT120=
201109242000 TAF LMML 242000Z 2421/2506 VRB03KT CAVOK
                      TEMPO 2421/2506 9999 FEW015
                      BECMG 2500/2503 10010KT=
201109241700 TAF LMML 241700Z 2418/2503 09005KT 9999 FEW023=
201109241400 TAF LMML 241400Z 2415/2424 VRB05KT 9999 FEW023=
201109241100 TAF LMML 241100Z 2412/2421 VRB05KT 9999 FEW023=
201109240800 TAF LMML 240800Z 2409/2418 30005KT 9999 FEW020=
201109240500 TAF LMML 240500Z 2406/2415 27005KT 9999 FEW025=
201109240200 TAF LMML 240200Z 2403/2412 27004KT 9999 FEW013
                      PROB30 TEMPO 2403/2406 8000=
201109232300 TAF LMML 232300Z 2400/2409 VRB03KT CAVOK
                      TEMPO 2400/2406 7000 SCT012
                      BECMG 2406/2408 9999 SCT015=
201109232000 TAF LMML 232000Z 2321/2406 28004KT 9999 FEW018 SCT250
                      PROB30 TEMPO 2321/2406 7000 BKN012=
201109231700 TAF LMML 231700Z 2318/2403 29006KT 9999 FEW015
                      PROB30 TEMPO 2321/2403 9000 BKN010=
201109231400 TAF LMML 231400Z 2315/2324 27008KT 9999 FEW020=
201109231100 TAF LMML 231100Z 2312/2321 25008KT 9999 FEW020=
201109230800 TAF LMML 230800Z 2309/2318 28008KT 9999 FEW020=
201109230500 TAF LMML 230500Z 2306/2315 28008KT CAVOK
                      TEMPO 2306/2315 9999 FEW020=
201109230200 TAF LMML 230200Z 2303/2312 28008KT 9999 FEW020
                      PROB40 TEMPO 2303/2312 CAVOK
                      PROB30 TEMPO 2303/2306 9000 BKN010=
201109222300 TAF LMML 222300Z 2300/2309 28006KT 9999 FEW020
                      PROB40 TEMPO 2300/2309 CAVOK
                      PROB30 TEMPO 2300/2306 9000 BKN010=
201109222000 TAF LMML 222000Z 2221/2306 28005KT 9999 FEW016
                      PROB30 TEMPO 2223/2306 9000 BKN010=
201109221700 TAF LMML 221700Z 2218/2303 29005KT 9999 FEW030
                      PROB30 TEMPO 2223/2303 9000 BKN010=
201109221400 TAF LMML 221400Z 2215/2224 32006KT 9999 FEW040
                      PROB30 TEMPO 2215/2224 CAVOK=
201109221100 TAF LMML 221100Z 2212/2221 32010KT 9999 FEW030
                      PROB30 TEMPO 2212/2221 CAVOK=
201109220800 TAF LMML 220800Z 2209/2218 31010KT 9999 FEW025
                      PROB30 TEMPO 2212/2218 CAVOK=
201109220500 TAF LMML 220500Z 2206/2215 30009KT CAVOK
                      TEMPO 2206/2215 9999 FEW025=
201109220200 TAF LMML 220200Z 2203/2212 32009KT CAVOK
                      TEMPO 2203/2212 9999 FEW025=
201109212300 TAF LMML 212300Z 2200/2209 31008KT CAVOK
                      TEMPO 2200/2209 9999 FEW025=
201109212000 TAF LMML 212000Z 2121/2206 32013KT CAVOK
                      TEMPO 2121/2206 9999 FEW025=
201109211700 TAF LMML 211700Z 2118/2203 31015G25KT 9999 FEW025
                      BECMG 2200/2203 33005KT=
201109211400 TAF LMML 211400Z 2115/2124 30015G25KT 9999 FEW030=
201109211100 TAF LMML 211100Z 2112/2121 31020G30KT 9999 FEW035=
201109210800 TAF LMML 210800Z 2109/2118 31020G30KT 9999 FEW025=
201109210500 TAF LMML 210500Z 2106/2115 30017KT 9999 SCT028
                      PROB30 TEMPO 2106/2109 8000 SHRA
                      PROB40 TEMPO 2106/2115 30017G27KT=
201109210200 TAF LMML 210200Z 2103/2112 30017KT 9999 SCT028
                      PROB30 21O3/2109 8000 SHRA BKN015TCU
                      PROB40 TEMPO 2106/2112 30017G27KT=
201109202300 TAF LMML 202300Z 2100/2109 30017KT 9999 SCT028
                      PROB30 TEMPO 2100/2109 8000 SHRA BKN015TCU
                       PROB40
                      TEMPO 2106/2109 30017G27KT=
201109202000 TAF LMML 202000Z 2021/2106 30017KT 9999 SCT028=
201109201700 TAF LMML 201700Z 2018/2103 29019KT 9999 FEW025=
201109201400 TAF LMML 201400Z 2015/2024 30020KT 9999 SCT030
                      PROB30 TEMPO 2015/2018 8000 SHRA BKN020TCU
                       PROB40
                      TEMPO 2015/2024 29023G34KT=
201109201100 TAF LMML 201100Z 2012/2021 29019KT 9999 SCT025
                      TEMPO 2012/2018 8000 SHRA BKN015TCU
                      PROB40 TEMPO 2012/2021 28023G34KT=
201109200800 TAF LMML 200800Z 2009/2018 30020KT 9999 SCT025
                      TEMPO 2009/2015 8000 SHRA BKN015TCU
                      PROB40 TEMPO 2009/2018 29025G35KT=
201109200500 TAF LMML 200500Z 2006/2015 29022KT 9999 SCT035
                      PROB30 TEMPO 2006/2015 9000 SHRA BKN030TCU
                       TEMPO 2008/2015 28020G30KT=
201109200200 TAF LMML 200200Z 2003/2012 28020KT 9999 SCT035
                      PROB40 TEMPO 2008/2012 28018G28KT=
201109192300 TAF LMML 192300Z 2000/2009 29016KT 9999 SCT025
                      TEMPO 2000/2003 CAVOK
                      PROB30 TEMPO 2006/2009 28016G26KT=
201109192000 TAF LMML 192000Z 1921/2006 31016KT 9999 FEW020
                      TEMPO 1921/2003 CAVOK
                      PROB30 TEMPO 2003/2006 BKN015=
201109191700 TAF LMML 191700Z 1918/2003 30018KT 9999 FEW020
                      PROB30 TEMPO 2000/2003 BKN015=
201109191400 TAF LMML 191400Z 1915/1924 30018KT 9999 FEW020
                      PROB30 TEMPO 1915/1918 BKN015
                      PROB40 TEMPO 1915/1924 30018G30KT=
201109191100 TAF LMML 191100Z 1912/1921 30008KT 9999 FEW020
                      PROB30 TEMPO 1912/1918 BKN015
                      BECMG 1915/1918 30018KT
                      PROB40 TEMPO 1915/1921 30018G30KT=
201109190800 TAF LMML 190800Z 1909/1918 18008KT CAVOK
                      BECMG 1912/1915 32018KT 9999 FEW020
                      PROB30 TEMPO 1915/1918 BKN015
                      PROB40 TEMPO 1915/1918 32018G30KT=
201109190500 TAF LMML 190500Z 1906/1915 18010KT CAVOK
                      TEMPO 1910/1915 9999 FEW08
                      BECMG 1912/1915 30018G28KT=
201109190200 TAF LMML 190200Z 1903/1912 18010KT CAVOK
                      PROB30 TEMPO 1903/1906 9000 FEW008=
201109182300 TAF LMML 182300Z 1900/1909 18010KT CAVOK
                      PROB30 TEMPO 1900/1906 9000 FEW008=
201109182000 TAF LMML 182000Z 1821/1906 18006KT CAVOK
                      PROB30 TEMPO 1902/1906 9000 FEW008=
201109181700 TAF LMML 181700Z 1818/1903 19005KT CAVOK
                      PROB30 TEMPO 1821/1903 9999 SCT008 SCT090=
201109181400 TAF LMML 181400Z 1815/1824 19008KT CAVOK=
201109181100 TAF LMML 181100Z 1812/1821 22008KT CAVOK=
201109180800 TAF LMML 180800Z 1809/1818 28004KT CAVOK
                      BECMG 1812/1815 20010KT=
201109180500 TAF LMML 180500Z 1806/1815 27007KT CAVOK=
201109180200 TAF LMML 180200Z 1803/1812 27007KT CAVOK=
201109172300 TAF LMML 172300Z 1800/1809 29005KT CAVOK=
201109172000 TAF LMML 172000Z 1721/1806 29005KT CAVOK=
201109171700 TAF LMML 171700Z 1718/1803 28005KT CAVOK=
201109171400 TAF LMML 171400Z 1715/1724 30006KT CAVOK=
201109171100 TAF LMML 171100Z 1712/1721 30010KT CAVOK
                      PROB30 TEMPO 1712/1721 9999 FEW030=
201109170800 TAF LMML 170800Z 1709/1718 30010KT CAVOK
                      PROB30 TEMPO 1709/1718 9999 FEW035=
201109170500 TAF LMML 170500Z 1706/1715 31008KT CAVOK
                      PROB30 TEMPO 1706/1715 9999 FEW020=
201109170200 TAF LMML 170200Z 1703/1712 29006KT CAVOK
                      PROB30 TEMPO 1703/1706 9000 FEW010
                      TEMPO 1706/1712 9999 FEW020=
201109162300 TAF LMML 162300Z 1700/1709 30006KT CAVOK
                      PROB30 TEMPO 1700/1706 9000 FEW010=
201109162000 TAF LMML 162000Z 1621/1706 31006KT CAVOK
                      TEMPO 1621/1706 9999 FEW012
                      PROB30 TEMPO 1700/1706 9000 NSC=
201109161700 COR LMML 161700Z 1618/1703 34005KT CAVOK
                      TEMPO 1618/1703 9999 FEW020=
201109161400 TAF LMML 161400Z 1615/1624 34007KT 9999 FEW020
                      PROB30 TEMPO 1615/1624 CAVOK=
201109161100 TAF LMML 161100Z 1612/1621 34007KT 9999 FEW020
                      PROB30 TEMPO 1617/1621 CAVOK=
201109160800 TAF LMML 160800Z 1609/1618 03005KT 9999 FEW018
                      PROB30 TEMPO 1609/1618 CAVOK=
201109160500 TAF LMML 160500Z 1606/1615 34005KT CAVOK
                      TEMPO 1609/1615 9999 FEW025=
201109160200 TAF LMML 160200Z 1603/1612 35004KT CAVOK
                      PROB30 TEMPO 1603/1605 7000 FEW005=
201109152300 TAF LMML 152300Z 1600/1609 VRB03KT CAVOK
                      PROB30 TEMPO 1602/1605 7000 FEW005=
201109152000 TAF LMML 152000Z 1521/1606 VRB02KT CAVOK
                      PROB30 TEMPO 1602/1605 7000 FEW005=
201109151700 TAF LMML 151700Z 1518/1603 VRB05KT 9999 FEW020
                      TEMPO 1518/1603 CAVOK=
201109151400 TAF LMML 151400Z 1515/1524 27007KT 9999 FEW025
                      TEMPO 1515/1524 CAVOK=
201109151100 TAF LMML 151100Z 1512/1521 VRB06KT 9999 FEW020 SCT090
                      PROB30 TEMPO 1512/1515 9000 TSRA SCT015 BKN080CB=
201109150800 TAF LMML 150800Z 1509/1518 28007KT 9999 FEW020 SCT090
                      PROB30 TEMPO 1509/1515 9000 TSRA SCT015 BKN080CB=
201109150500 TAF LMML 150500Z 1506/1515 27007KT 9999 FEW015
                      PROB40 TEMPO 1506/1515 CAVOK
                      PROB30 TEMPO 1506/1515 9000 TSRA BKN090CB=
201109150200 TAF LMML 150200Z 1503/1512 27006KT 9999 SCT012
                      TEMPO 1503/1506 CAVOK
                      PROB30 TEMPO 1506/1512 9000 TSRA BKN090CB=
201109142300 TAF LMML 142300Z 1500/1509 27005KT 9999 SCT012
                      TEMPO 1500/1506 CAVOK
                      PROB30 TEMPO 1506/1509 9000 TSRA BKN090CB=
201109142000 TAF LMML 142000Z 1421/1506 27005KT 9999 FEW016
                      PROB30 TEMPO 1500/1506 9000 BKN015=
201109141700 TAF LMML 141700Z 1418/1503 27004KT 9999 FEW020=
201109141400 TAF LMML 141400Z 1415/1424 23006KT 9999 SCT025=
201109141100 TAF LMML 141100Z 1412/1421 24006KT 9999 SCT025=
201109140800 TAF LMML 140800Z 1409/1418 25006KT 9999 SCT020=
201109140500 TAF LMML 140500Z 1406/1415 23005KT 9999 FEW020=
201109140200 TAF LMML 140200Z 1403/1412 VRB03KT 9999 FEW013
                      PROB30 TEMPO 1403/1405 8000 BKN012=
201109132300 TAF LMML 132300Z 1400/1409 VRB03KT 9999 SCT015
                      PROB30 TEMPO 1400/1405 8000 BKN010=
201109132000 TAF LMML 132000Z 1321/1406 VRB03KT 9999 FEW015
                      PROB30 TEMPO 1323/1405 8000 BKN010=
201109131700 TAF LMML 131700Z 1318/1403 VRB05KT 9999 SCT015
                      PROB40 TEMPO 1321/1403 BKN012
                      PROB30 TEMPO 1400/1403 9000=
201109131400 TAF LMML 131400Z 1315/1324 VRB05KT 9999 SCT015
                      PROB30 TEMPO 1321/1324 BKN010=
201109131100 TAF LMML 131100Z 1312/1321 VRB05KT 9999 SCT018
                      PROB30 TEMPO 1318/1321 BKN015=
201109130800 TAF LMML 130800Z 1309/1318 27006KT 9999 SCT020=
201109130500 TAF LMML 130500Z 1306/1315 26006KT 9999 SCT020=
201109130200 TAF LMML 130200Z 1303/1312 26005KT 9999 FEW012
                      TEMPO 1303/1306 9000 BKN010
                      PROB30 TEMPO 1303/1306 5000 BR BKN005=
201109122300 TAF LMML 122300Z 1300/1309 26005KT 9999 FEW012
                      PROB30 TEMPO 1300/1306 9000 BKN010=
201109122000 TAF LMML 122000Z 1221/1306 27005KT 9999 FEW015
                      PROB30 TEMPO 1300/1306 9000 BKN010=
201109121700 TAF LMML 121700Z 1218/1303 30007KT 9999 FEW015
                      PROB30 TEMPO 1300/1303 9000 BKN011=
201109121400 TAF LMML 121400Z 1215/1224 30008KT 9999 SCT028=
201109121100 TAF LMML 121100Z 1212/1221 30008KT 9999 SCT025=
201109120800 TAF LMML 120800Z 1209/1218 29008KT 9999 FEW023=
201109120500 TAF LMML 120500Z 1206/1215 30006KT 9999 SCT025=
201109120200 TAF LMML 120200Z 1203/1212 29004KT 9999 SCT015=
201109112300 TAF LMML 112300Z 1200/1209 VRB03KT 9999 FEW018
                      TEMPO 1200/1205 8000=
201109112000 TAF COR LMML 112000Z 1121/1206 VRB03KT 9999 FEW015
                      PROB30 TEMPO 1200/1206 8000 BKN011=
201109111700 TAF LMML 111700Z 1118/1203 11005KT 9999 FEW020
                      PROB30 TEMPO 1200/1203 BKN015=
201109111400 TAF LMML 111400Z 1115/1124 16007KT 9999 FEW025=
201109111100 TAF LMML 111100Z 1112/1121 12007KT 9999 FEW030=
201109110800 TAF LMML 110800Z 1109/1118 10006KT 9999 SCT020=
201109110500 TAF LMML 110500Z 1106/1115 14005KT CAVOK
                      PROB30 TEMPO 1106/1115 CAVOK=
201109110200 TAF LMML 110200Z 1103/1112 VRB03KT 9999 SCT020=
201109102300 TAF LMML 102300Z 1100/1109 VRB03KT 9999 SCT023
                      PROB30 TEMPO 1100/1106 9000=
201109102000 TAF LMML 102000Z 1021/1103 VRB03KT 9999 FEW020
                      TEMPO 1021/1024 CAVOK
                      PROB30 TEMPO 1100/1106 9000 BKN012=
201109101700 TAF LMML 101700Z 1018/1103 VRB03KT 9999 FEW020
                      PROB30 TEMPO 1021/1103 9999 BKN012=
201109101400 TAF LMML 101400Z 1015/1024 17005KT 9999 SCT020=
201109101100 TAF LMML 101100Z 1012/1021 15005KT 9999 FEW023=
201109100800 TAF LMML 100800Z 1009/1018 VRB05KT 9999 SCT025=
201109100500 TAF LMML 100500Z 1006/1015 VRB05KT 9999 SCT020=
201109100200 TAF LMML 100200Z 1003/1012 VRB03KT 9999 FEW013
                      PROB30 TEMPO 1003/1005 9000 BKN010=
201109092300 TAF LMML 092300Z 1000/1009 VRB03KT 9999 FEW013
                      PROB30 TEMPO 1000/1005 9000 BKN010=
201109092000 TAF LMML 092000Z 0921/1006 VRB03KT 9999 SCT013
                      TEMPO 0921/1006 BKN012
                      PROB40 TEMPO 0921/1006 9000 BKN008=
201109091700 TAF LMML 091700Z 0918/1003 VRB03KT 9999 FEW016
                      PROB30 TEMPO 1000/1003 9000 BKN015=
201109091400 TAF LMML 091400Z 0915/0924 31005KT 9999 FEW020=
201109091100 TAF LMML 091100Z 0912/0921 30005KT 9999 FEW020=
201109090800 TAF LMML 090800Z 0909/0918 28008KT 9999 SCT020=
201109090500 TAF LMML 090500Z 0906/0915 29007KT 9999 SCT018=
201109090200 TAF LMML 090200Z 0903/0912 29007KT 9999 FEW012
                      PROB30 TEMPO 0903/0906 8000 BKN007=
201109082300 TAF LMML 082300Z 0900/0909 30007KT 9999 FEW012
                      PROB30 TEMPO 0900/0906 8000 BKN007=
201109082000 TAF LMML 082000Z 0821/0906 30007KT 9999 FEW020=
201109081700 TAF LMML 081700Z 0818/0903 30008KT 9999 FEW025=
201109081400 TAF COR LMML 081400Z 0815/0824 31010KT 9999 FEW025=
201109081100 TAF LMML 081100Z 0812/0821 31010KT 9999 SCT030=
201109080800 TAF LMML 080800Z 0809/0818 32008KT 9999 FEW022=
201109080500 TAF LMML 080500Z 0806/0815 33010KT 9999 FEW022=
201109080200 TAF LMML 080200Z 0803/0812 32010KT 9999 FEW018=
201109072300 TAF LMML 072300Z 0800/0809 31012KT CAVOK=
201109072000 TAF LMML 072000Z 0721/0806 30012KT CAVOK=
201109071700 TAF LMML 071700Z 0718/0803 30015KT 9999 FEW020
                      TEMPO 0718/0724 CAVOK
                      PROB30 TEMPO 0718/0721 30015G25KT=
201109071400 TAF LMML 071400Z 0715/0724 29014KT 9999 FEW020
                      PROB30 TEMPO 0715/0721 30015G25KT
                      BECMG 0721/0724 35010KT=
201109071100 TAF LMML 071100Z 0712/0721 30014KT 9999 FEW025
                      PROB30 TEMPO 0712/0721 30015G25KT CAVOK=
201109070800 TAF LMML 070800Z 0709/0718 30014KT 9999 SCT025
                      PROB30 TEMPO 0709/0718 30015G25KT=
201109070500 TAF LMML 070500Z 0706/0715 32012KT 9999 FEW025
                      TEMPO 0706/0715 32016G26KT=
201109070200 TAF LMML 070200Z 0703/0712 32006KT CAVOK
                      TEMPO 0703/0712 9999 FEW025
                      TEMPO 0707/0712 32016G26KT=
201109062300 TAF LMML 062300Z 0700/0709 32009KT CAVOK
                      TEMPO 0700/0709 9999 FEW025=
201109062000 TAF LMML 062000Z 0621/0706 31010KT CAVOK
                      TEMPO 0623/0706 9999 FEW025=
201109061700 TAF LMML 061700Z 0618/0703 32014KT 9999 FEW018=
201109061400 TAF LMML 061400Z 0615/0624 32011KT 9999 FEW020=
201109061100 TAF LMML 061100Z 0612/0621 33012KT 9999 FEW020=
201109060800 TAF LMML 060800Z 0609/0618 32012KT 9999 FEW018=
201109060500 TAF LMML 060500Z 0606/0615 31010KT 9999 FEW018=
201109060200 TAF LMML 060200Z 0603/0612 31010KT 9999 FEW008
                      PROB40 TEMPO 0603/0606 9000 BKN008=
201109052300 TAF LMML 052300Z 0600/0609 30010KT 9999 FEW008
                      PROB30TEMPO 0600/0606 9000 BKN008=
201109052000 TAF LMML 052000Z 0521/0606 30010KT 9999 FEW012
                      PROB40 TEMPO 0521/0606 BKN012
                      PROB30 TEMPO 0521/0606 9000 BKN008=
201109051700 TAF LMML 051700Z 0518/0603 21006KT CAVOK
                      TEMPO 0518/0603 FEW012
                      BECMG 0518/0521 32010KT=
201109051400 TAF LMML 051400Z 0515/0524 20010KT CAVOK
                      BECMG 0515/0518 32010KT FEW015KT=
201109051100 TAF LMML 051100Z 0512/0521 15010KT CAVOK
                      TEMPO 0912/0921 9999 FEW015
                      BECMG 0515/0518 32010KT=
201109050800 TAF LMML 050800Z 0509/0518 15006KT CAVOK
                      TEMPO 0509/0518 9999 FEW015
                      BECMG 0515/0518 30010KT FEW012=
201109050500 TAF LMML 050500Z 0506/0515 15007KT CAVOK
                      TEMPO 0506/0515 9999 FEW020=
201109050200 TAF LMML 050200Z 0503/0512 14006KT CAVOK
                      TEMPO 0503/0512 9999 FEW015
                      PROB30 TEMPO 0503/0506 9000 SCT007=
201109042300 TAF LMML 042300Z 0500/0509 11006KT CAVOK
                      TEMPO 0500/0509 9999 FEW012
                      PROB30 TEMPO 0500/0506 9000 SCT007=
201109042000 TAF LMML 042000Z 0421/0506 14005KT CAVOK
                      TEMPO 0421/0506 9999 FEW012
                      PROB30 TEMPO 0500/0506 9000 SCT008=
201109041700 TAF LMML 041700Z 0418/0503 15008KT CAVOK=
201109041400 TAF LMML 041400Z 0415/0424 14010KT CAVOK=
201109041100 TAF LMML 041100Z 0412/0421 14007KT CAVOK=
201109040800 TAF LMML 040800Z 0409/0418 05007KT CAVOK
                      BECMG 0410/0413 14010KT=
201109040500 TAF LMML 040500Z 0406/0415 01005KT CAVOK
                      BECMG 0412/0415 13010KT=
201109040200 TAF LMML 040200Z 0403/0412 18004KT CAVOK
                      PROB30 TEMPO 0403/0406 5000 BR FEW004=
201109032300 TAF LMML 032300Z 0400/0409 18005KT CAVOK
                      PROB30 TEMPO 0400/0406 5000 BR FEW004=
201109032000 TAF LMML 032000Z 0321/0406 VRB03KT CAVOK
                      TEMPO 0400/0406 5000 BR FEW004
                      PROB30 TEMPO 0402/0405 0800 BCFG SCT002=
201109031700 TAF LMML 031700Z 0318/0403 15005KT CAVOK
                      TEMPO 0321/0403 9999 FEW012
                      PROB30 TEMPO 0400/0403 9000 SCT008=
201109031400 TAF LMML 031400Z 0315/0324 19007KT CAVOK
                      TEMPO 0318/0324 9999 FEW015
                      PROB30 TEMPO 0321/0324 9000 SCT008=
201109031100 TAF LMML 031100Z 0312/0321 19007KT CAVOK=
201109030800 TAF LMML 030800Z 0309/0318 15007KT CAVOK=
201109030500 TAF LMML 030500Z 0306/0315 16005KT CAVOK=
201109030200 TAF LMML 030200Z 0303/0312 VRB03KT 0800 BCFG BKN001
                      PROB30 TEMPO 0303/0306 0100 FG BKN001
                      TEMPO 0306/0308 8000 FEW005
                      BECMG 0308/0311 CAVOK=
201109030030 TAF AMD LMML 030030Z 0300/0309 VRB03KT 0800 BCFG BKN001
                      PROB40 TEMPO 0300/0306 0100 FG BKN001
                      TEMPO 0306/0309 8000 SCT008=
201109022300 TAF LMML 022300Z 0300/0309 VRB03KT CAVOK
                      PROB30 TEMPO 0300/0306 5000 BR FEW005=
201109022000 TAF LMML 022000Z 0221/0306 VRB03KT CAVOK
                      PROB30 TEMPO 0300/0306 5000 BR FEW005=
201109021700 TAF LMML 021700Z 0218/0303 17005KT CAVOK
                      PROB30 TEMPO 0218/0303 9000 SCT007=
201109021400 TAF LMML 021400Z 0215/0224 20005KT CAVOK
                      TEMPO 0217/0224 9000 SCT007=
201109021100 TAF LMML 021100Z 0212/0221 18005KT CAVOK=
201109020800 TAF LMML 020800Z 0209/0218 18005KT CAVOK=
201109020500 TAF LMML 020500Z 0206/0215 21007KT CAVOK=
201109020200 TAF LMML 020200Z 0203/0212 21005KT CAVOK
                      PROB40 TEMPO 0203/0206 8000 FEW008=
201109012300 TAF LMML 012300Z 0200/0209 21005KT CAVOK
                      PROB40 TEMPO 0200/0206 8000 FEW008=
201109012000 TAF LMML 012000Z 0121/0206 18004KT CAVOK
                      PROB40 TEMPO 0200/0206 8000 FEW008=
201109011700 TAF LMML 011700Z 0118/0203 VRB03KT CAVOK=
201109011400 TAF LMML 011400Z 0115/0124 18006KT CAVOK=
201109011100 TAF LMML 011100Z 0112/0121 18006KT CAVOK
                      PROB30 TEMPO 0112/0121 9999 FEW030=
201109010800 TAF LMML 010800Z 0109/0118 16006KT CAVOK
                      TEMPO 0109/0118 9999 FEW020=
201109010500 TAF LMML 010500Z 0106/0115 15006KT 9999 FEW015
                      TEMPO 0106/0115 CAVOK=
201109010200 TAF LMML 010200Z 0103/0112 VRB05KT 9999 FEW008
                      TEMPO 0103/0106 9000
                      PROB30 TEMPO 0103/0106 5000 BR BKN005=

###################################
#  large TAF from LMML
###################################
201110012300 TAF LMML NIL=
201110011700 TAF LMML NIL=
201110011100 TAF LMML NIL=
201110010500 TAF LMML NIL=
201109302300 TAF LMML NIL=
201109301700 TAF LMML NIL=
201109301100 TAF LMML NIL=
201109300500 TAF LMML NIL=
201109292300 TAF LMML NIL=
201109291700 TAF LMML NIL=
201109291100 TAF LMML NIL=
201109290500 TAF LMML NIL=
201109282300 TAF LMML NIL=
201109281700 TAF LMML NIL=
201109281100 TAF LMML NIL=
201109280500 TAF LMML NIL=
201109272300 TAF LMML NIL=
201109271700 TAF LMML NIL=
201109271100 TAF LMML NIL=
201109270500 TAF LMML NIL=
201109262300 TAF LMML NIL=
201109261700 TAF LMML NIL=
201109261100 TAF LMML NIL=
201109260500 TAF LMML NIL=
201109252300 TAF LMML NIL=
201109251700 TAF LMML NIL=
201109251100 TAF LMML NIL=
201109250500 TAF LMML NIL=
201109242300 TAF LMML NIL=
201109241700 TAF LMML NIL=
201109241100 TAF LMML NIL=
201109240500 TAF LMML NIL=
201109232300 TAF LMML NIL=
201109231700 TAF LMML NIL=
201109231100 TAF LMML NIL=
201109230500 TAF LMML NIL=
201109222300 TAF LMML NIL=
201109221700 TAF LMML NIL=
201109221100 TAF LMML NIL=
201109220500 TAF LMML NIL=
201109212300 TAF LMML NIL=
201109211700 TAF LMML NIL=
201109211100 TAF LMML NIL=
201109210500 TAF LMML NIL=
201109202300 TAF LMML NIL=
201109201700 TAF LMML NIL=
201109201100 TAF LMML NIL=
201109200500 TAF LMML NIL=
201109192300 TAF LMML NIL=
201109191700 TAF LMML NIL=
201109191100 TAF LMML NIL=
201109190500 TAF LMML NIL=
201109182300 TAF LMML NIL=
201109181700 TAF LMML NIL=
201109181100 TAF LMML NIL=
201109180500 TAF LMML NIL=
201109172300 TAF LMML NIL=
201109171700 TAF LMML NIL=
201109171100 TAF LMML NIL=
201109170500 TAF LMML NIL=
201109162300 TAF LMML NIL=
201109161700 TAF LMML NIL=
201109161100 TAF LMML NIL=
201109160500 TAF LMML NIL=
201109152300 TAF LMML NIL=
201109151700 TAF LMML NIL=
201109151100 TAF LMML NIL=
201109150500 TAF LMML NIL=
201109142300 TAF LMML NIL=
201109141700 TAF LMML NIL=
201109141100 TAF LMML NIL=
201109140500 TAF LMML NIL=
201109132300 TAF LMML NIL=
201109131700 TAF LMML NIL=
201109131100 TAF LMML NIL=
201109130500 TAF LMML NIL=
201109122300 TAF LMML NIL=
201109121700 TAF LMML NIL=
201109121100 TAF LMML NIL=
201109120500 TAF LMML NIL=
201109112300 TAF LMML NIL=
201109111700 TAF LMML NIL=
201109111100 TAF LMML NIL=
201109110500 TAF LMML NIL=
201109102300 TAF LMML NIL=
201109101700 TAF LMML NIL=
201109101100 TAF LMML NIL=
201109100500 TAF LMML NIL=
201109092300 TAF LMML NIL=
201109091700 TAF LMML NIL=
201109091100 TAF LMML NIL=
201109090500 TAF LMML NIL=
201109082300 TAF LMML NIL=
201109081700 TAF LMML NIL=
201109081100 TAF LMML NIL=
201109080500 TAF LMML NIL=
201109072300 TAF LMML NIL=
201109071700 TAF LMML NIL=
201109071100 TAF LMML NIL=
201109070500 TAF LMML NIL=
201109062300 TAF LMML NIL=
201109061700 TAF LMML NIL=
201109061100 TAF LMML NIL=
201109060500 TAF LMML NIL=
201109052300 TAF LMML NIL=
201109051700 TAF LMML NIL=
201109051100 TAF LMML NIL=
201109050500 TAF LMML NIL=
201109042300 TAF LMML NIL=
201109041700 TAF LMML NIL=
201109041100 TAF LMML NIL=
201109040500 TAF LMML NIL=
201109032300 TAF LMML NIL=
201109031700 TAF LMML NIL=
201109031100 TAF LMML NIL=
201109030500 TAF LMML NIL=
201109022300 TAF LMML NIL=
201109021700 TAF LMML NIL=
201109021100 TAF LMML NIL=
201109020500 TAF LMML NIL=
201109012300 TAF LMML NIL=
201109011700 TAF LMML NIL=
201109011100 TAF LMML NIL=
201109010500 TAF LMML NIL=
