##########################################################
# Query made at 01/23/2013 09:09:11 UTC
# Time interval: from 12/01/2012 00:00  to 12/31/2012 23:59  UTC
##########################################################

##########################################################
# ESSA, Stockholm / Arlanda (Sweden)
# WMO index: 02460
# Latitude 59-39N. Longitude 017-57E. Altitude 38 m.
##########################################################

###################################
#  METAR/SPECI from ESSA
###################################
201212312350 METAR COR ESSA 312350Z 20013KT 9000 -DZ SCT006 BKN008 06/05
                        Q0988 REDZ R01L/290177 R08/290176
                        R01R/290175 TEMPO BKN010=
201212312320 METAR ESSA 312320Z 19014KT 9999 SCT008 BKN010 06/05 Q0988
                        R01L/290177 R08/290176 R01R/290175
                        NOSIG=
201212312250 METAR ESSA 312250Z 19014KT 9999 SCT008 BKN011 06/05 Q0988
                        R01L/290177 R08/290176 R01R/290175
                        NOSIG=
201212312220 METAR ESSA 312220Z 20014KT 9999 SCT008 BKN011 06/05 Q0989
                        R01L/290177 R08/290176 R01R/290175
                        NOSIG=
201212312150 METAR ESSA 312150Z 20015KT 9999 SCT008 BKN012 06/05 Q0989
                        R01L/290177 R08/290176 R01R/290175
                        NOSIG=
201212312120 METAR ESSA 312120Z 20014KT 9999 SCT006 BKN008 05/05 Q0989
                        R01L/290177 R08/290176 R01R/290175
                        NOSIG=
201212312050 METAR ESSA 312050Z 19014KT 9999 SCT006 BKN008 05/05 Q0989
                        R01L/290177 R08/290176 R01R/290175
                        NOSIG=
201212312020 METAR COR ESSA 312020Z 20014KT 6000 DZ SCT003 BKN005 05/05
                        Q0989 R01L/290177 R08/290176 R01R/290175
                        NOSIG=
201212311950 METAR ESSA 311950Z 19013KT 9000 -DZ SCT003 BKN005 05/04 Q0990
                        RESG REDZ R01L/290177 R08/290176
                        R01R/290175 NOSIG=
201212311920 METAR COR ESSA 311920Z 19012KT 7000 DZ OVC003 04/04 Q0990
                        RESG R01L/290177 R08/290176 R01R/290175
                        NOSIG=
201212311850 METAR ESSA 311850Z 18013KT 5000 DZ OVC004 03/03 Q0990 R01L/290177
                        R08/290176 R01R/290175 TEMPO 6000=
201212311820 METAR ESSA 311820Z 17012KT 9000 -RA SCT003 BKN005 03/03 Q0990
                        REDZ R01L/290177 R08/290176 R01R/290175
                        NOSIG=
201212311750 METAR ESSA 311750Z 17010KT 8000 DZ SCT003 BKN005 03/03 Q0991
                        R01L/290177 R08/290176 R01R/290175
                        NOSIG=
201212311720 METAR ESSA 311720Z 16010KT 7000 -RA OVC004 03/03 Q0991 R01L/290177
                        R08/290176 R01R/290175 NOSIG=
201212311650 METAR COR ESSA 311650Z 17010KT 6000 -RA SCT003 BKN005 03/03
                        Q0991 R01L/290177 R08/290176 R01R/290175
                        TEMPO BKN004=
201212311620 METAR ESSA 311620Z 16010KT 9000 -RA BKN007 03/02 Q0992 REDZ
                        R01L/290177 R08/290176 R01R/290175
                        NOSIG=
201212311550 METAR ESSA 311550Z 17009KT 9999 -RA FEW007 BKN009 03/02 Q0992
                        R01L/290177 R08/290176 R01R/290175
                        NOSIG=
201212311520 METAR ESSA 311520Z 17012KT 9999 -RA BKN012 03/02 Q0993 R01L/290177
                        R08/290176 R01R/290175 BECMG RA BKN009=
201212311450 METAR ESSA 311450Z 18011KT 9999 FEW013 BKN040 03/02 Q0993
                        R01L/290177 R08/290176 R01R/290175
                        BECMG RA BKN009=
201212311420 METAR ESSA 311420Z 18010KT 9999 BKN013 03/01 Q0993 R01L/290177
                        R08/290176 R01R/290175 NOSIG=
201212311350 METAR ESSA 311350Z 20011KT 9999 BKN013 03/02 Q0994 R01L/290177
                        R08/290176 R01R/290175 NOSIG=
201212311320 METAR ESSA 311320Z 20011KT 9999 FEW013 BKN015 03/02 Q0994
                        R01L/290177 R08/290176 R01R/290175
                        TEMPO BKN013=
201212311250 METAR ESSA 311250Z 21010KT 9999 FEW013 BKN016 03/02 Q0994
                        R01L/290177 R08/290176 R01R/290175
                        TEMPO BKN013=
201212311220 METAR ESSA 311220Z 19011KT 9999 FEW012 BKN014 03/01 Q0994
                        R01L/290177 R08/290176 R01R/290175
                        NOSIG=
201212311150 METAR ESSA 311150Z 19012KT 9999 SCT013 BKN016 03/02 Q0994
                        R01L/290177 R08/290176 R01R/290175
                        TEMPO BKN013=
201212311120 METAR ESSA 311120Z 21013KT 9999 FEW014 BKN018 03/02 Q0994
                        R01L/290177 R08/290176 R01R/290175
                        NOSIG=
201212311050 METAR ESSA 311050Z 20013KT 9999 FEW014 BKN020 03/02 Q0994
                        R01L/290177 R08/290176 R01R/290175
                        NOSIG=
201212311020 METAR ESSA 311020Z 20014KT 9999 SCT014 BKN016 03/02 Q0994
                        R01L/290177 R08/290176 R01R/290175
                        NOSIG=
201212310950 METAR ESSA 310950Z 20013KT 9999 FEW015 BKN030 03/02 Q0994
                        R01L/290177 R08/290176 R01R/290075
                        NOSIG=
201212310920 METAR ESSA 310920Z 20013KT 9999 FEW013 BKN027 03/02 Q0994
                        R01L/290077 R08/290077 R01R/290075
                        NOSIG=
201212310850 METAR ESSA 310850Z 19014KT 9999 FEW009 BKN013 BKN030 03/02
                        Q0994 R01L/290077 R08/290077 R01R/290075
                        BECMG BKN016=
201212310820 METAR ESSA 310820Z 19012KT 9999 FEW009 BKN011 03/02 Q0995
                        R01L/290077 R08/290077 R01R/290075
                        TEMPO BKN016=
201212310750 METAR ESSA 310750Z 20013KT 9999 SCT011 BKN013 02/01 Q0995
                        R01L/290077 R08/290077 R01R/290075
                        TEMPO BKN016=
201212310720 METAR ESSA 310720Z 19012KT 9999 SCT010 BKN012 02/01 Q0995
                        R01L/290077 R08/290077 R01R/290075
                        TEMPO BKN016=
201212310650 METAR ESSA 310650Z 18012KT 9999 FEW010 BKN013 02/01 Q0994
                        R01L/290077 R08/290077 R01R/290075
                        TEMPO BKN016=
201212310620 METAR ESSA 310620Z 19011KT 9999 -DZ FEW008 BKN015 02/01 Q0995
                        R01L/710169 R08/710173 R01R/7/0162
                        NOSIG=
201212310550 METAR COR ESSA 310550Z 20011KT 9999 FEW012 BKN014 02/01 Q0995
                        R01L/710169 R08/710173 R01R/7/0162
                        TEMPO BKN008=
201212310520 METAR ESSA 310520Z 20011KT 9999 SCT012 BKN015 02/01 Q0995
                        R01L/710169 R08/710173 R01R/7/0162
                        NOSIG=
201212310450 METAR ESSA 310450Z 20010KT 9999 SCT010 BKN018 02/02 Q0995
                        R01L/710169 R08/710173 R01R/7/0162
                        NOSIG=
201212310420 METAR ESSA 310420Z 21011KT 9999 FEW010 BKN023 02/02 Q0995
                        R01L/710169 R08/710173 R01R/7/0162
                        NOSIG=
201212310350 METAR ESSA 310350Z 21011KT 9999 FEW009 SCT013 BKN022 02/02
                        Q0995 R01L/710169 R08/710173 R01R/7/0162
                        NOSIG=
201212310320 METAR ESSA 310320Z 21011KT 9999 -DZ SCT006 BKN009 BKN026
                        02/02 Q0995 R01L/710169 R08/710173
                        R01R/7/0162 TEMPO BKN012=
201212310250 METAR ESSA 310250Z 21013KT 9000 -RA FEW005 BKN007 02/02 Q0995
                        R01L/710169 R08/710173 R01R/7/0162
                        TEMPO BKN012=
201212310220 METAR ESSA 310220Z 21011KT 9999 -DZ BKN009 BKN012 02/02 Q0995
                        R01L/710169 R08/710173 R01R/7/0162
                        NOSIG=
201212310150 METAR ESSA 310150Z 20011KT 9999 BKN009 BKN015 02/02 Q0995
                        R01L/710169 R08/710173 R01R/7/0162
                        NOSIG=
201212310120 METAR ESSA 310120Z 20010KT 9999 SCT010 BKN020 02/02 Q0995
                        R01L/710169 R08/710173 R01R/7/0162
                        NOSIG=
201212310050 METAR ESSA 310050Z 20010KT 9999 SCT009 BKN024 02/02 Q0995
                        R01L/710169 R08/710173 R01R/7/0162
                        NOSIG=
201212310020 METAR ESSA 310020Z 20010KT 9999 SCT008 BKN011 02/02 Q0995
                        R01L/710169 R08/710173 R01R/7/0162
                        NOSIG=
201212302350 METAR ESSA 302350Z 21011KT 9999 FEW008 SCT010 BKN014 03/02
                        Q0996 R01L/710169 R08/710173 R01R/7/0162
                        NOSIG=
201212302320 METAR ESSA 302320Z 20010KT 9999 FEW010 BKN014 03/02 Q0996
                        R01L/710169 R08/710173 R01R/7/0162
                        NOSIG=
201212302250 METAR ESSA 302250Z 20010KT 9999 FEW014 SCT033 BKN040 03/02
                        Q0996 R01L/710169 R08/710173 R01R/7/0162
                        NOSIG=
201212302220 METAR ESSA 302220Z 20011KT 9999 FEW007 SCT013 BKN016 03/03
                        Q0996 R01L/710169 R08/710173 R01R/7/0162
                        NOSIG=
201212302150 METAR ESSA 302150Z 20009KT 9999 FEW010 SCT018 BKN034 03/03
                        Q0996 R01L/710169 R08/710173 R01R/7/0162
                        NOSIG=
201212302120 METAR ESSA 302120Z 20011KT 9999 SCT009 BKN033 03/03 Q0996
                        R01L/710169 R08/710173 R01R/7/0162
                        NOSIG=
201212302050 METAR ESSA 302050Z 20012KT 9999 FEW008 BKN013 BKN035 04/03
                        Q0996 R01L/710169 R08/710173 R01R/7/0162
                        TEMPO BKN008=
201212302020 METAR ESSA 302020Z 20010KT 9999 FEW007 SCT011 BKN015 04/03
                        Q0996 REDZ R01L/710169 R08/710173
                        R01R/7/0162 TEMPO BKN008=
201212301950 METAR COR ESSA 301950Z 19011KT 9000 -DZ FEW005 SCT010 BKN017
                        04/03 Q0996 RERA R01L/710169 R08/710173
                        R01R/7/0162 TEMPO BKN008=
201212301920 METAR ESSA 301920Z 18011KT 9999 FEW006 BKN008 BKN035 03/03
                        Q0996 R01L/710169 R08/710173 R01R/7/0162
                        BECMG SCT008=
201212301850 METAR ESSA 301850Z 18011KT 9999 FEW008 SCT019 BKN027 03/03
                        Q0996 R01L/710169 R08/710173 R01R/7/0162
                        TEMPO BKN008=
201212301820 METAR COR ESSA 301820Z 18011KT 8000 BR SCT032 BKN036 BKN110
                        03/03 Q0996 R01L/710169 R08/710173
                        R01R/7/0162 NOSIG=
201212301750 METAR ESSA 301750Z 18011KT 7000 BR SCT006 BKN040 02/02 Q0997
                        R01L/710169 R08/710173 R01R/7/0162
                        NOSIG=
201212301720 METAR ESSA 301720Z 19010KT 7000 BR FEW003 BKN004 03/03 Q0997
                        R01L/710169 R08/710173 R01R/7/0162
                        NOSIG=
201212301650 METAR ESSA 301650Z 18010KT 7000 BR FEW002 BKN003 04/03 Q0997
                        R01L/710169 R08/710173 R01R/7/0162
                        NOSIG=
201212301620 METAR ESSA 301620Z 19010KT 7000 BR FEW003 BKN004 04/04 Q0997
                        R01L/710169 R08/710173 R01R/7/0162
                        BECMG BKN005=
201212301550 METAR ESSA 301550Z 18010KT 7000 BR FEW003 BKN004 03/03 Q0997
                        R01L/710169 R08/710173 R01R/7/0162
                        BECMG BKN005=
201212301520 METAR ESSA 301520Z 19010KT 7000 BR BKN003 04/04 Q0998 R01L/710169
                        R08/710173 R01R/7/0162 NOSIG=
201212301450 METAR ESSA 301450Z 19010KT 6000 BR FEW002 BKN003 04/04 Q0998
                        R01L/710169 R08/710173 R01R/7/0162
                        NOSIG=
201212301420 METAR ESSA 301420Z 19010KT 6000 BR FEW002 OVC003 03/03 Q0998
                        R01L/710169 R08/710173 R01R/7/0162
                        NOSIG=
201212301350 METAR ESSA 301350Z 19009KT 6000 BR OVC003 03/03 Q0998 R01L/710169
                        R08/710173 R01R/7/0162 NOSIG=
201212301320 METAR ESSA 301320Z 19008KT 4500 BR BKN002 03/03 Q0998 R01L/710169
                        R08/710173 R01R/7/0162 NOSIG=
201212301250 METAR ESSA 301250Z 19008KT 5000 -RA BR FEW002 OVC003 03/03
                        Q0998 R01L/710169 R08/710173 R01R/7/0162
                        TEMPO BKN005=
201212301220 METAR ESSA 301220Z 19008KT 6000 -RA BR OVC003 03/03 Q0998
                        R01L/710169 R08/710173 R01R/7/0162
                        TEMPO BKN005=
201212301150 METAR ESSA 301150Z 18009KT 7000 BR BKN003 03/03 Q0998 R01L/710169
                        R08/710173 R01R/7/0162 TEMPO BKN005=
201212301120 METAR ESSA 301120Z 17010KT 6000 -DZ BR OVC003 03/03 Q0999
                        R01L/710169 R08/710173 R01R/7/0162
                        TEMPO BKN005=
201212301050 METAR ESSA 301050Z 17010KT 4500 -RA BR BKN002 02/02 Q0999
                        R01L/710169 R08/710173 R01R/7/0162
                        TEMPO 5000 BKN005=
201212301020 METAR ESSA 301020Z 17010KT 4000 -RADZ BR OVC002 03/03 Q0999
                        R01L/710169 R08/710173 R01R/7/0162
                        TEMPO 5000 BKN005=
201212300950 METAR ESSA 300950Z 17010KT 2800 -DZ BR OVC002 03/03 Q0999
                        R01L/710169 R08/710173 R01R/7/0162
                        TEMPO 4000=
201212300920 METAR ESSA 300920Z 17011KT 1200 R01L/P1500N R19R/P1500N R01R/1300N
                        R19L/P1500N -DZ BR OVC002 03/03 Q0999
                        R01L/710169 R08/710173 R01R/7/0162
                        TEMPO 2000=
201212300850 METAR ESSA 300850Z 17012KT 1500 BR OVC002 03/03 Q0999 R01L/710169
                        R08/710173 R01R/7/0162 TEMPO 1200=
201212300820 METAR ESSA 300820Z 18013KT 2800 BR OVC002 03/03 Q0999 R01L/710169
                        R08/710173 R01R/7/0162 TEMPO 4000=
201212300750 METAR ESSA 300750Z 18017KT 3800 BR OVC002 03/03 Q0999 R01L/710169
                        R08/710173 R01R/7/0162 TEMPO 2000=
201212300720 METAR ESSA 300720Z 19017KT 4000 BR OVC002 03/03 Q0999 R01L/710169
                        R08/710173 R01R/7/0162 TEMPO 2000=
201212300650 METAR ESSA 300650Z 19014KT 4500 BR OVC002 03/03 Q1000 R01L/710169
                        R08/710173 R01R/7/0162 TEMPO 2000=
201212300620 METAR ESSA 300620Z 17014KT 4500 BR OVC002 03/03 Q1000 R01L/710169
                        R08/710173 R01R/7/0162 TEMPO 2000=
201212300550 METAR ESSA 300550Z 16016KT 4000 BR BKN002 03/03 Q0999 R01L/710169
                        R08/710173 R01R/7/0162 TEMPO 1300=
201212300520 METAR ESSA 300520Z 16017KT 4000 BR BKN002 03/03 Q1000 R01L/710169
                        R08/710173 R01R/7/0162 TEMPO 1300=
201212300450 METAR ESSA 300450Z 17017KT 3500 BR BKN002 03/03 Q1000 R01L/710169
                        R08/710173 R01R/7/0162 TEMPO 1300=
201212300420 METAR ESSA 300420Z 17016KT 4000 BR OVC002 03/03 Q1001 R01L/710169
                        R08/710173 R01R/7/0162 TEMPO 1300=
201212300350 METAR COR ESSA 300350Z 17015KT 3500 BR OVC002 03/03 Q1002
                        R01L/710161 R08/710157 R01R/7/0162
                        TEMPO 1300=
201212300320 METAR ESSA 300320Z 17015KT 6000 BR OVC002 03/03 Q1002 R01L/710161
                        R08/710157 R01R/7/0162 BECMG 3000=
201212300250 METAR ESSA 300250Z 17013KT 9000 BR BKN004 03/03 Q1002 R01L/710161
                        R08/710157 R01R/7/0162 NOSIG=
201212300220 METAR ESSA 300220Z 17012KT 9999 SCT005 SCT057 03/03 Q1002
                        R01L/710161 R08/710157 R01R/7/0162
                        TEMPO 3000=
201212300150 METAR ESSA 300150Z 17011KT 9999 SCT005 SCT057 03/03 Q1003
                        R01L/710161 R08/710157 R01R/7/0162
                        TEMPO 3000=
201212300120 METAR ESSA 300120Z 16011KT 9000 BR BKN005 03/03 Q1003 R01L/710161
                        R08/710157 R01R/7/0162 TEMPO 3000=
201212300050 METAR ESSA 300050Z 17009KT 7000 BR BKN004 03/03 Q1004 R01L/710161
                        R08/710157 R01R/7/0162 TEMPO 3000=
201212300020 METAR ESSA 300020Z 17009KT 6000 BR BKN003 03/03 Q1004 R01L/710161
                        R08/710157 R01R/7/0162 TEMPO 3000=
201212292350 METAR ESSA 292350Z 17011KT 8000 BR OVC003 03/03 Q1004 R01L/710161
                        R08/710157 R01R/7/0162 TEMPO 3000=
201212292320 METAR ESSA 292320Z 17010KT 6000 BR OVC003 03/03 Q1004 R01L/710161
                        R08/710157 R01R/7/0162 TEMPO 3000=
201212292250 METAR ESSA 292250Z 17011KT 5000 BR OVC002 03/03 Q1004 R01L/710161
                        R08/710157 R01R/7/0162 TEMPO 1400=
201212292220 METAR ESSA 292220Z 16009KT 2000 BR OVC002 03/03 Q1004 R01L/710161
                        R08/710157 R01R/7/0162 TEMPO 1400=
201212292150 METAR ESSA 292150Z 17010KT 1500 BR OVC002 03/03 Q1004 R01L/710161
                        R08/710157 R01R/7/0162 TEMPO 1400=
201212292120 METAR ESSA 292120Z 17008KT 1500 BR OVC002 02/02 Q1005 R01L/710161
                        R08/710157 R01R/7/0162 TEMPO 1400=
201212292050 METAR ESSA 292050Z 17009KT 2500 BR OVC002 03/03 Q1005 R01L/710161
                        R08/710157 R01R/7/0162 TEMPO 1400=
201212292020 METAR ESSA 292020Z 17010KT 6000 BR OVC003 02/02 Q1005 R01L/710161
                        R08/710157 R01R/7/0162 TEMPO 3000=
201212291950 METAR ESSA 291950Z 17010KT 8000 BR OVC003 02/02 Q1005 R01L/710161
                        R08/710157 TEMPO 3000=
201212291920 METAR ESSA 291920Z 17010KT 4000 -DZ BR OVC002 02/02 Q1005
                        R01L/710161 R08/710157 TEMPO 1400
                        DZ=
201212291850 METAR ESSA 291850Z 17010KT 4000 -DZ BR OVC002 02/02 Q1005
                        R01L/710161 R08/710157 TEMPO 1400
                        DZ=
201212291820 METAR ESSA 291820Z 17010KT 4000 -DZ BR OVC002 02/02 Q1006
                        R01L/710161 R08/710157 TEMPO 1400
                        DZ=
201212291750 METAR ESSA 291750Z 17009KT 4000 BR OVC002 02/02 Q1006 R01L/710161
                        R08/710157 TEMPO 1400 DZ=
201212291720 METAR ESSA 291720Z 16011KT 3500 -DZ BR OVC002 02/02 Q1006
                        R01L/710161 R08/710157 TEMPO 1400
                        DZ=
201212291650 METAR ESSA 291650Z 17009KT 5000 BR OVC003 02/02 Q1006 R01L/710161
                        R08/710157 TEMPO 4000=
201212291620 METAR ESSA 291620Z 17010KT 6000 BR BKN003 02/02 Q1007 R01L/710161
                        R08/710157 TEMPO 4000=
201212291550 METAR ESSA 291550Z 17008KT 6000 BR BKN003 02/02 Q1007 R01L/710161
                        R08/710157 NOSIG=
201212291520 METAR ESSA 291520Z 17008KT 6000 BR BKN003 02/02 Q1007 R01L/710161
                        R08/710157 NOSIG=
201212291450 METAR ESSA 291450Z 17008KT 9999 BKN003 02/02 Q1007 R01L/710161
                        R08/710157 NOSIG=
201212291420 METAR ESSA 291420Z 17009KT 6000 BR BKN004 02/02 Q1007 R01L/710161
                        R08/710157 NOSIG=
201212291350 METAR ESSA 291350Z 17010KT 4000 BR BKN003 02/02 Q1008 R01L/710161
                        R08/710157 NOSIG=
201212291320 METAR ESSA 291320Z 17009G19KT 4000 BR BKN003 02/02 Q1008
                        R01L/710161 R08/710157 NOSIG=
201212291250 METAR ESSA 291250Z 17010KT 6000 BR BKN003 02/02 Q1008 R01L/710161
                        R08/710157 TEMPO 4000=
201212291220 METAR ESSA 291220Z 16011KT 9000 BR BKN004 02/02 Q1008 R01L/710161
                        R08/710157 TEMPO 4000 BKN005=
201212291150 METAR ESSA 291150Z 17011KT 9000 BR BKN005 01/01 Q1009 R01L/710161
                        R01R/710160 R08/710157 NOSIG=
201212291120 METAR ESSA 291120Z 16012KT 7000 -RA BKN005 01/01 Q1009 R01L/710161
                        R01R/710160 R08/710157 NOSIG=
201212291050 METAR ESSA 291050Z 16011KT 5000 -RASN BKN005 01/01 Q1010
                        R01L/710157 R01R/710160 R08/710157
                        NOSIG=
201212291020 METAR ESSA 291020Z 16012KT 5000 -RASN BKN005 01/01 Q1010
                        R01L/710157 R01R/710160 R08/710157
                        NOSIG=
201212290950 METAR ESSA 290950Z 16014KT 4000 -SNRA BKN005 01/01 Q1011
                        R01L/710156 R01R/710160 R08/710157
                        TEMPO 2000=
201212290920 METAR ESSA 290920Z 16013KT 4000 -SNRA BR BKN005 01/01 Q1011
                        R01L/710156 R01R/710160 R08/710153
                        TEMPO 2000=
201212290850 METAR ESSA 290850Z 15012KT 4000 -SN BR BKN006 01/01 Q1011
                        R01L/710151 R08/710130 BECMG VV008=
201212290820 METAR ESSA 290820Z 14012KT 2500 -SN BR VV014 01/01 Q1012
                        R01L/710151 R08/710130 BECMG VV008=
201212290750 METAR COR ESSA 290750Z 16013KT 2000 -SN BR VV015 00/M00 Q1012
                        R01L/710168 R08/710170 BECMG VV008=
201212290720 METAR ESSA 290720Z 16011KT 9999 BKN028 00/M01 Q1013 R01L/710168
                        R08/710170 BECMG 2000 -SN VV012=
201212290650 METAR ESSA 290650Z 16010KT 9999 FEW043 BKN051 M00/M02 Q1013
                        R01L/710168 R08/710170 BECMG 2000
                        -SN VV012=
201212290620 METAR COR ESSA 290620Z 15008KT CAVOK M01/M03 Q1014 R01L/710168
                        R08/710170 BECMG 2000 -SN VV012=
201212290550 METAR COR ESSA 290550Z 14007KT CAVOK Q1014 R01L/710168 R08/710170
                        BECMG 2000 -SN VV 1200=
201212290520 METAR ESSA 290520Z 16007KT CAVOK M03/M04 Q1015 R01L/710168
                        R01R/710163 R08/710170 NOSIG=
201212290450 METAR ESSA 290450Z 15008KT CAVOK M03/M05 Q1015 R01L/710168
                        R01R/710163 R08/710170 NOSIG=
201212290420 METAR COR ESSA 290420Z 14008KT CAVOK M04/M06 Q1015 R01L/710168
                        R01R/710163 R08/710170 NOSIG=
201212290350 METAR ESSA 290350Z 15007KT CAVOK M04/M06 Q1016 R01L/710168
                        R01R/710163 R08/710170 NOSIG=
201212290320 METAR ESSA 290320Z 14006KT CAVOK M05/M06 Q1016 R01L/710168
                        R01R/710163 R08/710170 NOSIG=
201212290250 METAR ESSA 290250Z 14006KT CAVOK M05/M07 Q1017 R01L/710168
                        R01R/710163 R08/710170 NOSIG=
201212290220 METAR ESSA 290220Z 16005KT CAVOK M05/M07 Q1017 R01L/710168
                        R01R/710163 R08/710170 NOSIG=
201212290150 METAR ESSA 290150Z 15006KT CAVOK M05/M07 Q1018 R01L/710168
                        R01R/710163 R08/710170 NOSIG=
201212290120 METAR ESSA 290120Z 16006KT CAVOK M06/M07 Q1018 R01L/710168
                        R01R/710163 R08/710170 NOSIG=
201212290050 METAR ESSA 290050Z 16006KT CAVOK M06/M08 Q1018 R01L/710168
                        R01R/710163 R08/710170 NOSIG=
201212290020 METAR ESSA 290020Z 15004KT CAVOK M07/M08 Q1018 R01L/710168
                        R01R/710163 R08/710170 NOSIG=
201212282350 METAR ESSA 282350Z 17003KT CAVOK M07/M08 Q1019 R01L/710168
                        R01R/710163 R08/710170 NOSIG=
201212282320 METAR ESSA 282320Z 17004KT CAVOK M07/M08 Q1019 R01L/710168
                        R01R/710163 R08/710170 NOSIG=
201212282250 METAR ESSA 282250Z 24004KT 190V260 CAVOK M07/M08 Q1019 R01L/710168
                        R01R/710163 R08/710170 NOSIG=
201212282220 METAR ESSA 282220Z 24006KT CAVOK M07/M08 Q1019 R01L/710168
                        R01R/710163 R08/710170 NOSIG=
201212282150 METAR ESSA 282150Z 23005KT CAVOK M07/M08 Q1019 R01L/710168
                        R01R/710163 R08/710170 NOSIG=
201212282120 METAR ESSA 282120Z 22006KT CAVOK M07/M08 Q1019 R01L/710168
                        R01R/710163 R08/710170 NOSIG=
201212282050 METAR ESSA 282050Z 24004KT CAVOK M07/M08 Q1019 R01L/710168
                        R01R/710163 R08/710170 NOSIG=
201212282020 METAR ESSA 282020Z 23006KT CAVOK M07/M08 Q1018 R01L/710168
                        R01R/710163 R08/710170 NOSIG=
201212281950 METAR ESSA 281950Z 25006KT CAVOK M07/M08 Q1018 R01L/710168
                        R01R/710163 R08/710170 NOSIG=
201212281920 METAR ESSA 281920Z 26008KT CAVOK M06/M08 Q1018 R01L/710168
                        R01R/710163 R08/710170 NOSIG=
201212281850 METAR ESSA 281850Z 27008KT CAVOK M06/M08 Q1018 R01L/710168
                        R01R/710163 R08/710170 NOSIG=
201212281820 METAR ESSA 281820Z 27008KT CAVOK M06/M08 Q1018 R01L/710168
                        R01R/710163 R08/710170 NOSIG=
201212281750 METAR ESSA 281750Z 27008KT CAVOK M06/M08 Q1017 R01L/710168
                        R01R/710163 R08/710170 NOSIG=
201212281720 METAR ESSA 281720Z 27008KT CAVOK M06/M08 Q1017 R01L/710168
                        R01R/710163 R08/710170 NOSIG=
201212281650 METAR ESSA 281650Z 27008KT CAVOK M05/M07 Q1017 R01L/710168
                        R01R/710163 R08/710170 NOSIG=
201212281620 METAR ESSA 281620Z 27009KT CAVOK M04/M07 Q1017 R01L/710168
                        R01R/710163 R08/710170 NOSIG=
201212281550 METAR ESSA 281550Z 27009KT CAVOK M04/M07 Q1016 R01L/710168
                        R01R/710163 R08/710170 NOSIG=
201212281520 METAR ESSA 281520Z 27009KT CAVOK M03/M07 Q1016 R01L/710168
                        R01R/710163 R08/710170 NOSIG=
201212281450 METAR ESSA 281450Z 27009KT CAVOK M03/M07 Q1015 R01L/710168
                        R01R/710163 R08/710170 NOSIG=
201212281420 METAR ESSA 281420Z 27011KT CAVOK M03/M07 Q1014 R01L/710168
                        R01R/710163 R08/710170 NOSIG=
201212281350 METAR ESSA 281350Z 27014KT CAVOK M03/M07 Q1014 R01L/710168
                        R01R/710163 R08/710170 NOSIG=
201212281320 METAR ESSA 281320Z 27012KT CAVOK M03/M07 Q1013 R01L/710168
                        R01R/710163 R08/710170 NOSIG=
201212281250 METAR ESSA 281250Z 27014KT CAVOK M02/M07 Q1013 R01L/710168
                        R01R/710163 R08/710170 NOSIG=
201212281220 METAR ESSA 281220Z 27015KT CAVOK M02/M07 Q1012 R01L/710168
                        R01R/710163 R08/710170 NOSIG=
201212281150 METAR ESSA 281150Z 28016KT CAVOK M02/M07 Q1011 R01L/710168
                        R01R/710163 R08/710170 NOSIG=
201212281120 METAR ESSA 281120Z 28017G27KT CAVOK M03/M07 Q1010 R01L/710168
                        R01R/710163 R08/710170 NOSIG=
201212281050 METAR ESSA 281050Z 28017KT CAVOK M03/M07 Q1009 R01L/710168
                        R01R/710163 R08/710170 NOSIG=
201212281020 METAR ESSA 281020Z 28017KT CAVOK M03/M07 Q1009 R01L/710168
                        R01R/710163 R08/710170 NOSIG=
201212280950 METAR ESSA 280950Z 27016KT CAVOK M03/M07 Q1008 R01L/710168
                        R01R/710163 R08/710170 NOSIG=
201212280920 METAR ESSA 280920Z 28015KT CAVOK M03/M08 Q1007 R01L/710168
                        R01R/710163 R08/710170 NOSIG=
201212280850 METAR ESSA 280850Z 27015KT CAVOK M04/M08 Q1007 R01L/710168
                        R01R/710163 R08/710170 NOSIG=
201212280820 METAR ESSA 280820Z 28015KT CAVOK M04/M08 Q1006 R01L/710168
                        R01R/710163 R08/710170 NOSIG=
201212280750 METAR ESSA 280750Z 28018KT CAVOK M04/M08 Q1005 R01L/710168
                        R01R/710163 R08/710170 NOSIG=
201212280720 METAR ESSA 280720Z 29018KT CAVOK M02/M08 Q1005 R01L/710168
                        R01R/710163 R08/710170 NOSIG=
201212280650 METAR ESSA 280650Z 28014KT CAVOK M03/M08 Q1004 R01L/710168
                        R01R/710163 R08/710170 NOSIG=
201212280620 METAR ESSA 280620Z 26010KT 9999 FEW034 BKN050 M05/M08 Q1004
                        R01L/710168 R01R/710163 R08/710170
                        NOSIG=
201212280550 METAR ESSA 280550Z 26008KT CAVOK M06/M09 Q1003 R01L/710168
                        R01R/710163 R08/710170 NOSIG=
201212280520 METAR ESSA 280520Z 25010KT CAVOK M07/M10 Q1002 R01L/710168
                        R01R/710163 R08/710170 NOSIG=
201212280450 METAR ESSA 280450Z 27009KT CAVOK M07/M10 Q1002 R01L/710168
                        R01R/710163 R08/710170 NOSIG=
201212280420 METAR ESSA 280420Z 26011KT CAVOK M06/M10 Q1002 R01L/710168
                        R01R/710163 R08/710170 NOSIG=
201212280350 METAR ESSA 280350Z 27010KT CAVOK M07/M10 Q1002 R01L/710167
                        R01R/710165 R08/710170 NOSIG=
201212280320 METAR ESSA 280320Z 27009KT CAVOK M07/M10 Q1001 R01L/710167
                        R01R/710165 R08/710170 NOSIG=
201212280250 METAR ESSA 280250Z 27009KT CAVOK M07/M10 Q1001 R01L/710167
                        R01R/710165 R08/710170 NOSIG=
201212280220 METAR ESSA 280220Z 28009KT CAVOK M07/M10 Q1000 R01L/710167
                        R01R/710165 R08/710170 NOSIG=
201212280150 METAR ESSA 280150Z 27009KT CAVOK M07/M10 Q1000 R01L/710167
                        R01R/710165 R08/710170 NOSIG=
201212280120 METAR ESSA 280120Z 27009KT CAVOK M07/M10 Q0999 R01L/710167
                        R01R/710165 R08/710170 NOSIG=
201212280050 METAR ESSA 280050Z 27008KT CAVOK M07/M10 Q0999 R01L/710167
                        R01R/710165 R08/710170 NOSIG=
201212280020 METAR ESSA 280020Z 28008KT CAVOK M06/M09 Q0998 R01L/710167
                        R01R/710165 R08/710170 NOSIG=
201212272350 METAR ESSA 272350Z 29009KT CAVOK M06/M09 Q0998 R01L/710167
                        R01R/710165 R08/710170 NOSIG=
201212272320 METAR ESSA 272320Z 28008KT CAVOK M06/M09 Q0997 R01L/710167
                        R01R/710165 R08/710170 NOSIG=
201212272250 METAR ESSA 272250Z 30009KT CAVOK M05/M08 Q0997 R01L/710167
                        R01R/710165 R08/710170 NOSIG=
201212272220 METAR ESSA 272220Z 29011KT CAVOK M05/M08 Q0997 R01L/710167
                        R01R/710165 R08/710170 NOSIG=
201212272150 METAR ESSA 272150Z 29009KT CAVOK M05/M07 Q0996 R01L/710167
                        R01R/710165 R08/710170 NOSIG=
201212272120 METAR COR ESSA 272120Z 29008KT CAVOK M05/M07 Q0995 R01L/710167
                        R01R/710172 R08/710170 NOSIG=
201212272050 METAR ESSA 272050Z 29009KT CAVOK M04/M06 Q0995 R01L/710167
                        R01R/710172 R08/710171 NOSIG=
201212272020 METAR ESSA 272020Z 29008KT CAVOK M04/M06 Q0994 R01L/710167
                        R01R/710172 R08/710171 NOSIG=
201212271950 METAR ESSA 271950Z 30010KT CAVOK M03/M05 Q0994 R01L/710167
                        R01R/710172 R08/710171 NOSIG=
201212271920 METAR ESSA 271920Z 32008KT CAVOK M02/M05 Q0993 R01L/710167
                        R01R/710172 R08/710171 NOSIG=
201212271850 METAR ESSA 271850Z 32009KT CAVOK M02/M05 Q0993 R01L/710167
                        R01R/710172 R08/710171 NOSIG=
201212271820 METAR ESSA 271820Z 32010KT CAVOK M02/M04 Q0992 R01L/710167
                        R01R/710172 R08/710171 NOSIG=
201212271750 METAR ESSA 271750Z 31010KT 9999 FEW025 BKN037 M01/M03 Q0992
                        R01L/710167 R01R/710172 R08/710171
                        NOSIG=
201212271720 METAR ESSA 271720Z 31009KT 9999 FEW022 BKN027 M02/M02 Q0991
                        R01L/710167 R01R/710172 R08/710171
                        NOSIG=
201212271650 METAR ESSA 271650Z 31005KT 9999 FEW014 SCT033 M01/M03 Q0991
                        R01L/710167 R01R/710172 R08/710171
                        NOSIG=
201212271620 METAR ESSA 271620Z 32008KT 9999 FEW013 SCT016 M01/M03 Q0990
                        R01L/710167 R01R/710172 R08/710171
                        NOSIG=
201212271550 METAR ESSA 271550Z 29008KT 9999 SCT013 BKN017 M00/M02 Q0990
                        R01L/710168 R01R/710172 R08/710171
                        TEMPO BKN012=
201212271520 METAR ESSA 271520Z 28006KT 9999 FEW014 BKN019 M00/M02 Q0990
                        R01L/710168 R01R/710172 R08/710171
                        TEMPO BKN012=
201212271450 METAR ESSA 271450Z 29007KT 9999 FEW014 BKN019 00/M02 Q0989
                        R01L/710168 R01R/710172 R08/710171
                        TEMPO BKN012=
201212271420 METAR ESSA 271420Z 28009KT 9999 FEW014 BKN019 00/M02 Q0989
                        R01L/710168 R01R/710172 R08/710171
                        TEMPO BKN012=
201212271350 METAR ESSA 271350Z 27009KT 9999 BKN018 00/M01 Q0989 R01L/710168
                        R01R/710172 R08/710171 TEMPO BKN012=
201212271320 METAR ESSA 271320Z 27009KT 9999 -SHSN FEW013 BKN019 00/M00
                        Q0989 R01L/710168 R01R/710172 R08/710171
                        TEMPO BKN012=
201212271250 METAR ESSA 271250Z 25010KT 8000 -SHSN SCT013 BKN016 01/M01
                        Q0989 R01L/710168 R01R/710172 R08/710171
                        TEMPO BKN014=
201212271220 METAR ESSA 271220Z 27012KT 9999 FEW014 BKN016 01/M01 Q0989
                        R01L/710168 R01R/710172 R08/710171
                        TEMPO BKN014=
201212271150 METAR ESSA 271150Z 27013KT 9999 FEW014 BKN017 01/M01 Q0989
                        R01L/710168 R01R/710172 R08/710171
                        NOSIG=
201212271120 METAR ESSA 271120Z 25011KT 9999 FEW013 BKN017 01/M01 Q0988
                        R01L/710168 R01R/710172 R08/710171
                        NOSIG=
201212271050 METAR ESSA 271050Z 25011KT 9999 FEW012 BKN018 01/M00 Q0988
                        R01L/710168 R01R/710172 R08/710171
                        NOSIG=
201212271020 METAR ESSA 271020Z 25011KT 9999 -SN SCT013 BKN023 01/00 Q0989
                        R01L/710171 R01R/710173 R08/710177
                        TEMPO BKN013=
201212270950 METAR ESSA 270950Z 25012KT 8000 -SHSN SCT013 BKN024 01/01
                        Q0988 R01L/710171 R01R/710173 R08/710177
                        TEMPO BKN013=
201212270920 METAR ESSA 270920Z 24013KT 9999 SCT016 BKN021 01/00 Q0988
                        R01L/710171 R01R/710173 R08/710177
                        TEMPO BKN013=
201212270850 METAR ESSA 270850Z 23012KT 9999 FEW007 SCT013 BKN020 01/01
                        Q0988 R01L/710171 R01R/710173 R08/710177
                        TEMPO BKN012=
201212270820 METAR ESSA 270820Z 26011KT 9999 -RA FEW009 SCT012 BKN020
                        02/01 Q0988 R01L/710171 R01R/710173
                        R08/710177 TEMPO BKN012=
201212270750 METAR ESSA 270750Z 26010KT 9999 -RA FEW004 BKN006 02/02 Q0988
                        R01L/710171 R01R/710173 R08/710177
                        TEMPO BKN012=
201212270720 METAR ESSA 270720Z 24013KT 9999 SCT006 BKN009 02/02 Q0987
                        R01L/710171 R01R/710173 R08/710177
                        TEMPO BKN012=
201212270650 METAR ESSA 270650Z 22012KT 8000 -RADZ BKN006 02/02 Q0987
                        R01L/710171 R01R/710173 R08/710177
                        BECMG BKN015=
201212270620 METAR ESSA 270620Z 22011KT 9999 BKN006 02/02 Q0987 R01L/710171
                        R01R/710173 R08/710177 BECMG BKN015=
201212270550 METAR ESSA 270550Z 22010KT 9999 -DZRA BKN006 02/02 Q0987
                        R01L/710171 R01R/710173 R08/710177
                        BECMG BKN015=
201212270520 METAR COR ESSA 270520Z 22010KT 6000 -DZRA BR SCT005 BKN007
                        02/02 Q0987 R01L/710171 R01R/710173
                        R08/710177 BECMG BKN015=
201212270450 METAR ESSA 270450Z 22011KT 7000 -DZ BR SCT005 BKN007 02/02
                        Q0987 R01L/710171 R01R/710173 R08/710177
                        BECMG BKN015=
201212270420 METAR ESSA 270420Z 22010KT 9999 SCT007 BKN009 02/02 Q0987
                        R01L/710171 R01R/710173 R08/710177
                        TEMPO BKN010=
201212270350 METAR ESSA 270350Z 21010KT 9999 FEW005 BKN007 02/02 Q0987
                        R01L/710171 R01R/710173 R08/710177
                        TEMPO BKN010=
201212270320 METAR COR ESSA 270320Z 21010KT 7000 -DZRA FEW004 BKN005 02/02
                        Q0987 R01L/710171 R01R/710171 R08/710163
                        TEMPO BKN010=
201212270250 METAR ESSA 270250Z 21010KT 9000 FEW004 BKN005 02/02 Q0987
                        R01L/710171 R01R/710171 R08/710163
                        TEMPO BKN004=
201212270220 METAR ESSA 270220Z 22009KT 8000 -DZ BR SCT004 BKN005 02/02
                        Q0987 REDZRA R01L/710171 R01R/710171
                        R08/710163 TEMPO BKN004=
201212270150 METAR ESSA 270150Z 21009KT 5000 DZRA FEW004 BKN005 02/02
                        Q0987 R01L/710171 R01R/710171 R08/710163
                        TEMPO 4000=
201212270120 METAR ESSA 270120Z 22010KT 9999 BKN006 BKN018 02/02 Q0987
                        R01L/710171 R01R/710171 R08/710163
                        NOSIG=
201212270050 METAR ESSA 270050Z 21010KT 9999 BKN005 02/02 Q0987 R01L/710171
                        R01R/710171 R08/710163 NOSIG=
201212270020 METAR ESSA 270020Z 22011KT 6000 -RADZ BKN005 02/02 Q0988
                        R01L/710171 R01R/710171 R08/710163
                        NOSIG=
201212262350 METAR ESSA 262350Z 21009KT 9000 BR BKN004 OVC005 02/02 Q0988
                        RERADZ R01L/710171 R01R/710171 R08/710163
                        TEMPO BKN005=
201212262320 METAR ESSA 262320Z 21008KT 5000 RADZ FEW003 BKN004 02/02
                        Q0988 R01L/710171 R01R/710171 R08/710163
                        TEMPO 4000=
201212262250 METAR COR ESSA 262250Z 22010KT 9999 BKN004 OVC006 02/02 Q0988
                        R01L/710171 R01R/710171 R08/710131
                        BECMG BKN005=
201212262220 METAR COR ESSA 262220Z 22010KT 9000 BR FEW003 BKN004 02/02
                        Q0988 R01L/710139 R01R/710171 R08/710131
                        BECMG BKN005=
201212262150 METAR ESSA 262150Z 22010KT 9000 BR SCT002 OVC003 01/01 Q0988
                        R01L/710139 R01R/710152 R08/710131
                        NOSIG=
201212262120 METAR ESSA 262120Z 22010KT 9000 BR SCT002 OVC003 01/01 Q0988
                        R01L/710164 R01R/710152 R08/710162
                        NOSIG=
201212262050 METAR ESSA 262050Z 24008KT 9000 -SNRA BR BKN003 OVC004 01/01
                        Q0988 R01L/710164 R01R/710172 R08/710162
                        NOSIG=
201212262020 METAR ESSA 262020Z 24010KT 5000 -SNRA BR OVC004 01/01 Q0988
                        R01L/710164 R01R/710172 R08/710162
                        TEMPO 2000=
201212261950 METAR ESSA 261950Z 25010KT 9999 -RASN OVC004 01/01 Q0988
                        R01L/710164 R01R/710172 R08/710162
                        BECMG BKN005=
201212261920 METAR ESSA 261920Z 25010KT 9999 -RASN FEW003 OVC004 01/01
                        Q0988 R01L/710164 R01R/710172 R08/710134
                        BECMG BKN005=
201212261850 METAR ESSA 261850Z 24010KT 9999 -RASN SCT004 OVC005 01/01
                        Q0988 R01L/710164 R01R/710172 R08/710134
                        TEMPO BKN002=
201212261820 METAR ESSA 261820Z 25009KT 8000 -RA BR BKN004 OVC005 02/02
                        Q0988 R01L/710164 R01R/710172 R08/710134
                        BECMG BKN005=
201212261750 METAR ESSA 261750Z 22007KT 3500 -RA BR BKN003 OVC005 02/02
                        Q0988 R01L/710164 R01R/710172 R08/710134
                        BECMG BKN005=
201212261720 METAR ESSA 261720Z 18006KT 0700 R01L/P1500N R19R/P1500N R01R/1000VP1500U
                        R19L/P1500N -RADZ FG VV002 02/02
                        Q0988 R01L/710164 R01R/710172 R08/710134
                        BECMG 3000=
201212261650 METAR ESSA 261650Z 13006KT 0500 R01L/1400N R19R/1100VP1500N
                        R01R/1000N R19L/P1500N -DZ FG VV002
                        02/02 Q0988 R01L/710164 R01R/710172
                        R08/710134 TEMPO 3000=
201212261620 METAR ESSA 261620Z 13006KT 0600 R01L/P1500N R19R/1300N R01R/1100N
                        R19L/P1500N -DZ FG VV002 02/02 Q0989
                        R01L/710164 R01R/710172 R08/710134
                        TEMPO 3000=
201212261550 METAR ESSA 261550Z 12005KT 1000 R01L/P1500N R19R/P1500N R01R/1400N
                        R19L/P1500N -DZ BR OVC002 02/02 Q0989
                        R01L/710164 R01R/710172 R08/710170
                        TEMPO 3000=
201212261520 METAR ESSA 261520Z 11005KT 1300 R01L/P1500N R19R/P1500N R01R/P1500N
                        R19L/P1500N -DZ BR OVC002 02/02 Q0989
                        R01L/710164 R01R/710172 R08/710170
                        TEMPO 3000=
201212261450 METAR ESSA 261450Z 11005KT 2000 -DZ BR OVC002 02/02 Q0990
                        R01L/710164 R01R/710172 R08/710170
                        TEMPO 1400=
201212261420 METAR ESSA 261420Z 11005KT 2800 BR OVC002 02/02 Q0990 R01L/710164
                        R01R/710172 R08/710170 TEMPO 1400=
201212261350 METAR ESSA 261350Z 13006KT 3000 -DZ BR OVC002 01/01 Q0990
                        R01L/710164 R01R/710172 R08/710173
                        TEMPO 2000=
201212261320 METAR ESSA 261320Z 12006KT 8000 -DZ BR FEW002 OVC003 01/01
                        Q0991 R01L/710164 R01R/710172 R08/710173
                        TEMPO 2000=
201212261250 METAR ESSA 261250Z 13007KT 8000 -DZ BR BKN002 01/01 Q0991
                        R01L/710164 R01R/710172 R08/710173
                        TEMPO 2000=
201212261220 METAR ESSA 261220Z 14006KT 4500 -RA OVC002 01/01 Q0992 R01L/710164
                        R01R/710172 R08/710173 TEMPO 2000=
201212261150 METAR ESSA 261150Z 14005KT 2500 -RA BR OVC002 01/01 Q0992
                        R01L/710170 R01R/710172 R08/710173
                        TEMPO 1400=
201212261120 METAR ESSA 261120Z 15006KT 1800 -RA BR OVC002 02/02 Q0993
                        R01L/710170 R01R///99// R08/710173
                        TEMPO 1400=
201212261050 METAR ESSA 261050Z 15008G19KT 3000 -RA BR OVC002 02/02 Q0993
                        R01L/710170 R01R///99// R08/710173
                        TEMPO 2000=
201212261020 METAR ESSA 261020Z 16009KT 4500 BR OVC002 01/01 Q0993 R01L/710169
                        R01R///99// R08/710171 TEMPO 2000=
201212260950 METAR ESSA 260950Z 16010KT 6000 BR OVC003 01/01 Q0993 R01L/710169
                        R01R///99// R08/710171 BECMG 3000
                        RA=
201212260920 METAR COR ESSA 260920Z 17009KT 7000 BR FEW003 OVC004 01/01
                        Q0994 R01L/710169 R01R///99// R08/710171
                        TEMPO 3000=
201212260850 METAR ESSA 260850Z 17009KT 5000 -RASN BR OVC004 01/01 Q0994
                        R01L/710169 R01R///99// R08/710169
                        TEMPO 3000=
201212260820 METAR ESSA 260820Z 17009KT 7000 -SNRA BR OVC004 01/01 Q0994
                        R01L/710169 R01R///99// R08/710169
                        TEMPO 3000=
201212260750 METAR ESSA 260750Z 16008KT 9000 BR OVC004 00/00 Q0994 R01L/710148
                        R01R///99// R08/710169 NOSIG=
201212260720 METAR ESSA 260720Z 17007KT 9000 BR BKN004 M01/M01 Q0994 R01L/710148
                        R01R///99// R08/710169 NOSIG=
201212260650 METAR ESSA 260650Z 17008KT 9999 BKN004 M01/M01 Q0994 R01L/710148
                        R01R///99// R08/710169 NOSIG=
201212260620 METAR ESSA 260620Z 15007KT 9999 FEW004 OVC005 M02/M02 Q0994
                        R01L/710148 R01R///99// R08/710169
                        BECMG BKN004=
201212260550 METAR ESSA 260550Z 15007KT 8000 -SN OVC005 M02/M02 Q0994
                        R01L/710163 R01R///99// R08/710167
                        BECMG BKN004=
201212260520 METAR ESSA 260520Z 15008KT 7000 -SN OVC006 M02/M02 Q0994
                        R01L/710163 R01R///99// R08/710167
                        NOSIG=
201212260450 METAR ESSA 260450Z 15008KT 8000 -SN BKN007 M02/M03 Q0994
                        R01L/710163 R01R///99// R08/710167
                        NOSIG=
201212260420 METAR ESSA 260420Z 16009KT 8000 -SN BKN007 M03/M03 Q0995
                        R01L/710149 R01R///99// R08/710167
                        NOSIG=
201212260350 METAR ESSA 260350Z 15007KT 5000 -SN FEW010 BKN020 M03/M03
                        Q0995 R01L/710149 R01R///99// R08/710167
                        BECMG 9999=
201212260320 METAR ESSA 260320Z 16008KT 3000 SN BKN029 M03/M04 Q0995 R01L/710149
                        R01R///99// R08/710167 BECMG 9999=
201212260250 METAR ESSA 260250Z 16006KT 3500 SN VV016 M03/M04 Q0995 R01L/710149
                        R01R///99// R08/710167 BECMG 9999=
201212260220 METAR ESSA 260220Z 15006KT 8000 -SN SCT030 BKN045 M03/M04
                        Q0995 R01L/710169 R01R///99// R08/710167
                        TEMPO 4000=
201212260150 METAR ESSA 260150Z 17005KT 9999 SCT025 BKN040 M03/M04 Q0995
                        R01L/710169 R01R///99// R08/710167
                        TEMPO 4000 -SN=
201212260120 METAR ESSA 260120Z 16004KT 9000 -SN SCT032 BKN050 M04/M04
                        Q0995 R01L/710169 R01R///99// R08/710167
                        TEMPO 4000 -SN=
201212260050 METAR ESSA 260050Z 16003KT CAVOK M04/M04 Q0995 R01L/710169
                        R01R///99// R08/710167 TEMPO 4000
                        -SN=
201212260020 METAR ESSA 260020Z 14004KT CAVOK M04/M05 Q0995 R01L/710169
                        R01R///99// R08/710167 TEMPO 4000
                        -SN=
201212252350 METAR ESSA 252350Z 17002KT CAVOK M04/M04 Q0995 R01L/710169
                        R01R///99// R08/710167 TEMPO 4000
                        -SN=
201212252320 METAR ESSA 252320Z 25002KT CAVOK M04/M05 Q0995 R01L/710169
                        R01R///99// R08/710167 NOSIG=
201212252250 METAR ESSA 252250Z 23003KT 9999 FEW012 SCT095 M04/M04 Q0995
                        R01L/710169 R01R///99// R08/710167
                        NOSIG=
201212252220 METAR ESSA 252220Z 25004KT 9999 BKN012 M04/M04 Q0995 R01L/710169
                        R01R///99// R08/710167 BECMG SCT012
                        BKN050=
201212252150 METAR ESSA 252150Z 25004KT 9999 BKN012 M04/M04 Q0994 R01L/710169
                        R01R///99// R08/710167 NOSIG=
201212252120 METAR ESSA 252120Z 26006KT 9999 BKN011 M04/M04 Q0994 R01L/710169
                        R01R///99// R08/710167 NOSIG=
201212252050 METAR ESSA 252050Z 26005KT 9999 BKN011 M04/M04 Q0994 R01L/710169
                        R01R///99// R08/710167 NOSIG=
201212252020 METAR ESSA 252020Z 27005KT 9999 BKN011 M04/M04 Q0993 R01L/710162
                        R01R///99// R08/710166 NOSIG=
201212251950 METAR ESSA 251950Z 32005KT 9999 BKN010 M04/M04 Q0993 R01L/710162
                        R01R///99// R08/710166 NOSIG=
201212251920 METAR ESSA 251920Z 33006KT 9999 BKN010 M04/M04 Q0993 R01L/710164
                        R01R///99// R08/710168 NOSIG=
201212251850 METAR ESSA 251850Z 34008KT 9999 BKN010 M04/M04 Q0992 R01L/710164
                        R01R///99// R08/710168 NOSIG=
201212251820 METAR ESSA 251820Z 34007KT 9999 BKN010 M04/M04 Q0991 R01L/710164
                        R01R///99// R08/710168 NOSIG=
201212251750 METAR ESSA 251750Z 34008KT 9999 BKN011 M04/M04 Q0991 R01L/710164
                        R01R///99// R08/710168 NOSIG=
201212251720 METAR ESSA 251720Z 33009KT 9999 BKN015 M04/M05 Q0991 R01L/710164
                        R01R///99// R08/710168 TEMPO BKN012=
201212251650 METAR ESSA 251650Z 32008KT 9999 FEW010 SCT020 M04/M05 Q0991
                        R01L/710164 R01R///99// R08/710168
                        TEMPO BKN012=
201212251620 METAR ESSA 251620Z 33008KT 9999 FEW011 BKN016 M04/M05 Q0990
                        R01L/710164 R01R///99// R08/P710168
                        BKN012=
201212251550 METAR COR ESSA 251550Z 35008KT 9999 FEW011 BKN016 M04/M05
                        Q0990 R01L/710164 R01R///99// R08/710168
                        TEMPO BKN012=
201212251520 METAR COR ESSA 251520Z 36009KT 9999 FEW008 SCT010 BKN036
                        M04/M04 Q0990 R01L/710164 R01R///99//
                        R08/710168 NOSIG=
201212251450 METAR ESSA 251450Z 36014KT 9999 SCT008 BKN010 M03/M04 Q0989
                        R01L/710165 R01R///99// R08/710164
                        BECMG BKN020=
201212251420 METAR ESSA 251420Z 01013KT 6000 -SN SCT008 BKN010 M03/M03
                        Q0988 R01L/710165 R01R///99// R08/710164
                        NOSIG=
201212251350 METAR ESSA 251350Z 02013KT 7000 -SN SCT008 BKN010 M03/M03
                        Q0988 R01L/710165 R01R///99// R08/710164
                        NOSIG=
201212251320 METAR ESSA 251320Z 03012KT 8000 -SN SCT007 BKN009 M02/M03
                        Q0987 R01L/710161 R01R///99// R08/710131
                        NOSIG=
201212251250 METAR ESSA 251250Z 03013KT 4500 -SN SCT005 BKN008 M02/M02
                        Q0987 R01L/710161 R01R///99// R08/710158
                        TEMPO 5000=
201212251220 METAR ESSA 251220Z 03013KT 1600 -SN SCT005 OVC006 M02/M02
                        Q0986 R01L/710161 R01R///99// R08/710158
                        TEMPO 3000=
201212251150 METAR ESSA 251150Z 02013KT 3000 1600W -SN SCT005 OVC006 M02/M02
                        Q0986 R01L/710127 R01R///99// R08/710165
                        TEMPO 2000=
201212251120 METAR ESSA 251120Z 03012KT 3000 -SN SCT005 OVC007 M02/M02
                        Q0986 R01L/710127 R01R///99// R08/710165
                        TEMPO 2000=
201212251050 METAR ESSA 251050Z 06012KT 1600 SN SCT003 SCT005 OVC006 M02/M02
                        Q0986 R01L/710155 R01R///99// R08/710134
                        TEMPO 3000=
201212251020 METAR COR ESSA 251020Z 07015KT 1600 SN SCT003 SCT005 OVC006
                        M01/M01 Q0986 R01L/710155 R01R///99//
                        R08/710165 TEMPO 3000=
201212250950 METAR ESSA 250950Z 07013KT 3000 -SN FEW003 SCT005 OVC006
                        M01/M01 Q0987 R01L/710162 R01R///99//
                        R08/710165 TEMPO 2000=
201212250920 METAR ESSA 250920Z 08014KT 9000 -SN SCT005 OVC006 M01/M01
                        Q0987 R01L/710163 R01R///99// R08/710165
                        TEMPO 4000=
201212250850 METAR ESSA 250850Z 08014KT 7000 -SN SCT005 OVC006 M01/M01
                        Q0987 R01L/710163 R01R///99// R08/99
                        NOSIG=
201212250820 METAR ESSA 250820Z 08013KT 4000 -SN SCT005 OVC006 M01/M01
                        Q0988 R01L/710152 R01R///99// R08/99
                        TEMPO 5000=
201212250750 METAR ESSA 250750Z 09012KT 2500 -SN SCT004 OVC005 M01/M01
                        Q0989 R01L/710152 R01R///99// R08/99
                        TEMPO 1200=
201212250720 METAR ESSA 250720Z 08010KT 0600 R01L/P1500N R19R/P1500N R01R/0900VP1500D
                        R19L/P1500N SN VV005 M01/M01 Q0989
                        R01L/710135 R01R///99// R08/710150
                        TEMPO 1200=
201212250650 METAR ESSA 250650Z 10009KT 0800 R01L/P1500N R19R/P1500N R01R/P1500N
                        R19L/P1500N SN VV007 M01/M01 Q0990
                        R01L/710135 R01R///99// R08/710150
                        TEMPO 1200=
201212250620 METAR ESSA 250620Z 09009KT 0700 R01L/P1500N R19R/P1500N R01R/1100VP1500N
                        R19L/P1500N SN VV007 M01/M01 Q0990
                        R01L/710148 R01R///99// R08/710150
                        TEMPO 1200=
201212250550 METAR COR ESSA 250550Z 09008KT 1000 SN VV010 M01/M01 Q0991
                        R01L/710148 R01R///99// R08/710156
                        NOSIG=
201212250520 METAR ESSA 250520Z 09008KT 0500 R01L/1300N R19R/1100N R01R/1200N
                        R19L/1000VP1500N +SN VV005 M01/M01
                        Q0992 R01L/710170 R01R///99// R08/710156
                        NOSIG=
201212250450 METAR ESSA 250450Z 09009KT 2000 SN BKN007 M02/M02 Q0992 R01L/710170
                        R01R///99// R08/710156 TEMPO 1400=
201212250420 METAR ESSA 250420Z 10008KT 9999 SCT007 BKN015 M02/M02 Q0993
                        R01L/710165 R01R///99// R08/710148
                        BECMG 2000 SN BKN008=
201212250350 METAR ESSA 250350Z 11009KT 9999 SCT008 BKN012 M02/M02 Q0994
                        R01L/710165 R01R///99// R08/710148
                        BECMG 2000 SN BKN008=
201212250320 METAR COR ESSA 250320Z 11008KT 9999 FEW008 BKN014 M02/M02
                        Q0995 R01L/710165 R01R///99// R08/710148
                        BECMG 2000 SN BKN008=
201212250250 METAR ESSA 250250Z 11008KT 9999 FEW008 BKN012 M02/M03 Q0995
                        R01L/710165 R01R///99// R08/710148
                        NOSIG=
201212250220 METAR ESSA 250220Z 11007KT 9999 BKN013 M02/M03 Q0996 R01L/710165
                        R01R///99// R08/710148 NOSIG=
201212250150 METAR ESSA 250150Z 11007KT 9999 BKN013 M02/M03 Q0996 R01L/710165
                        R01R///99// R08/710148 NOSIG=
201212250120 METAR ESSA 250120Z 11009KT 9999 SCT011 BKN012 M02/M04 Q0997
                        R01L/710165 R01R///99// R08/710148
                        NOSIG=
201212250050 METAR ESSA 250050Z 12008KT 9999 BKN011 M02/M04 Q0997 R01L/710165
                        R01R///99// R08/710148 NOSIG=
201212250020 METAR ESSA 250020Z 11009KT 9999 BKN011 M03/M04 Q0998 R01L/710165
                        R01R///99// R08/710148 NOSIG=
201212242350 METAR ESSA 242350Z 11006KT 9999 BKN012 M03/M04 Q0999 R01L/710165
                        R01R///99// R08/710148 NOSIG=
201212242320 METAR ESSA 242320Z 11006KT 9999 SCT011 BKN012 M03/M04 Q0999
                        R01L/710165 R01R///99// R08/710148
                        NOSIG=
201212242250 METAR ESSA 242250Z 11006KT 9999 SCT011 BKN012 M03/M04 Q0999
                        R01L/710165 R01R///99// R08/710148
                        NOSIG=
201212242220 METAR ESSA 242220Z 12006KT 9999 BKN012 M03/M04 Q1000 R01L/710165
                        R01R///99// R08/710148 NOSIG=
201212242150 METAR ESSA 242150Z 12005KT 9999 BKN012 M03/M04 Q1000 R01L/710165
                        R01R///99// R08/710148 NOSIG=
201212242120 METAR ESSA 242120Z 11005KT 9999 SCT011 BKN012 M03/M04 Q1000
                        R01L/710165 R01R///99// R08/710148
                        NOSIG=
201212242050 METAR ESSA 242050Z 10004KT 9999 BKN011 M03/M04 Q1000 R01L/710165
                        R01R///99// R08/710148 NOSIG=
201212242020 METAR ESSA 242020Z 10004KT 9999 SCT010 BKN011 M03/M04 Q1000
                        R01L/710165 R01R///99// R08/710148
                        NOSIG=
201212241950 METAR ESSA 241950Z 09004KT 9999 BKN011 M03/M04 Q1000 R01L/710166
                        R01R///99// R08/710139 NOSIG=
201212241920 METAR ESSA 241920Z 13004KT 9999 SCT012 BKN014 M03/M04 Q1001
                        R01L/710166 R01R///99// R08/710139
                        NOSIG=
201212241850 METAR ESSA 241850Z 09006KT 9999 SCT016 BKN021 M03/M04 Q1001
                        R01L/710166 R01R///99// R08/710139
                        NOSIG=
201212241820 METAR ESSA 241820Z 10005KT 9999 SCT020 BKN022 M03/M04 Q1001
                        R01L/710166 R01R///99// R08/710139
                        NOSIG=
201212241750 METAR ESSA 241750Z 09005KT 9999 FEW020 BKN024 M03/M04 Q1001
                        R01L/710166 R01R///99// R08/710139
                        NOSIG=
201212241720 METAR ESSA 241720Z 08004KT 9999 FEW020 SCT022 BKN025 M03/M04
                        Q1001 R01L/710166 R01R///99// R08/710139
                        NOSIG=
201212241650 METAR ESSA 241650Z 09006KT 9999 SCT023 BKN025 M03/M04 Q1001
                        R01L/710166 R01R///99// R08/710139
                        NOSIG=
201212241620 METAR ESSA 241620Z 08006KT 9999 SCT022 BKN023 M03/M03 Q1001
                        R01L/710166 R01R///99// R08/710139
                        NOSIG=
201212241550 METAR ESSA 241550Z 08007KT 9999 SCT022 BKN023 M03/M04 Q1001
                        R01L/710166 R01R///99// R08/710139
                        NOSIG=
201212241520 METAR ESSA 241520Z 07008KT 9999 BKN024 M03/M04 Q1001 R01L/710166
                        R01R///99// R08/710139 NOSIG=
201212241450 METAR ESSA 241450Z 08006KT 9999 -SN FEW015 BKN026 M03/M03
                        Q1001 R01L/710166 R01R///99// R08/710139
                        TEMPO BKN013=
201212241420 METAR COR ESSA 241420Z 08006KT 9999 -SN FEW018 BKN025 M03/M03
                        Q1001 R01L/710166 R01R///99// R08/710139
                        TEMPO BKN013=
201212241350 METAR ESSA 241350Z 07006KT 9999 -SN BKN018 M03/M03 Q1001
                        R01L/710166 R01R///99// R08/720136
                        TEMPO BKN012=
201212241320 METAR ESSA 241320Z 07007KT 9999 -SN BKN016 M03/M03 Q1001
                        R01L/710166 R01R///99// R08/720136
                        TEMPO BKN012=
201212241250 METAR ESSA 241250Z 07007KT 9000 -SN SCT010 BKN016 M03/M03
                        Q1001 R01L/710166 R01R///99// R08/720132
                        TEMPO BKN012=
201212241220 METAR ESSA 241220Z 07007KT 9999 -SN FEW008 BKN022 M03/M03
                        Q1001 R01L/710166 R01R///99// R08/720132
                        TEMPO BKN012=
201212241150 METAR ESSA 241150Z 08008KT 9999 -SN BKN020 M03/M03 Q1001
                        RESG R01L/710166 R01R///99// R08/720132
                        TEMPO BKN012=
201212241120 METAR ESSA 241120Z 08007KT 9999 -SN BKN018 M03/M03 Q1001
                        R01L/710166 R01R///99// R08/720132
                        TEMPO BKN012=
201212241050 METAR ESSA 241050Z 07006KT 9999 -SN BKN015 M03/M03 Q1001
                        R01L/710166 R01R///99// R08/720132
                        TEMPO BKN012=
201212241020 METAR COR ESSA 241020Z 10005KT 9999 -SN BKN013 M03/M03 Q1001
                        R01L/710166 R01R///99// R08/720132
                        TEMPO BKN015=
201212240950 METAR ESSA 240950Z 08006KT 9999 -SN BKN012 M03/M03 Q1002
                        R01L/710166 R01R///99// R08/720132
                        TEMPO BKN010=
201212240920 METAR ESSA 240920Z 09006KT 9999 -SN BKN015 M03/M03 Q1002
                        R01L/710166 R01R///99// R08/720132
                        TEMPO BKN010=
201212240850 METAR ESSA 240850Z 09008KT 9999 -SN FEW012 BKN023 M03/M03
                        Q1002 R01L/710166 R01R///99// R08/720132
                        TEMPO BKN010=
201212240820 METAR ESSA 240820Z 09007KT 9999 -SN FEW012 BKN023 M03/M03
                        Q1002 R01L/710166 R01R///99// R08/720132
                        TEMPO BKN010=
201212240750 METAR ESSA 240750Z 08007KT 9999 -SN SCT013 BKN025 M03/M03
                        Q1003 R01L/710166 R01R///99// R08/720132
                        TEMPO BKN010=
201212240720 METAR ESSA 240720Z 08008KT 9999 -SN BKN010 M03/M04 Q1003
                        R01L/710166 R01R///99// R08/720132
                        TEMPO BKN015=
201212240650 METAR ESSA 240650Z 08008KT 9999 -SN BKN011 M04/M04 Q1003
                        R01L/710152 R01R///99// R08/720132
                        TEMPO BKN015=
201212240620 METAR ESSA 240620Z 08009KT 9999 -SN BKN011 M04/M04 Q1003
                        R01L/710152 R01R///99// R08/720132
                        TEMPO BKN015=
201212240550 METAR ESSA 240550Z 08008KT 9999 -SN BKN010 BKN016 M04/M04
                        Q1003 R01L/710152 R01R///99// R08/720132
                        TEMPO BKN015=
201212240520 METAR ESSA 240520Z 09009KT 9999 -SN SCT009 SCT014 BKN055
                        M04/M05 Q1003 R01L/710152 R01R///99//
                        R08/720132 TEMPO BKN009=
201212240450 METAR ESSA 240450Z 09008KT 7000 -SN SCT021 BKN060 M04/M05
                        Q1004 R01L/710145 R01R///99// R08/710154
                        TEMPO 3000=
201212240420 METAR ESSA 240420Z 09007KT 5000 -SN VV030 M04/M04 Q1005 R01L/710145
                        R01R///99// R08/710154 TEMPO 3000=
201212240350 METAR ESSA 240350Z 10007KT 4000 -SN VV017 M04/M04 Q1005 R01L/710145
                        R01R///99// R08/710154 TEMPO 2000
                        VV008=
201212240320 METAR ESSA 240320Z 10007KT 4000 -SN VV014 M04/M04 Q1006 R01L/710145
                        R01R///99// R08/710154 TEMPO 2000
                        VV008=
201212240250 METAR ESSA 240250Z 09008KT 3000 SN VV014 M04/M04 Q1007 R01L/710145
                        R01R///99// R08/710154 TEMPO 2000
                        VV008=
201212240220 METAR ESSA 240220Z 10008KT 3000 SN VV020 M04/M05 Q1007 R01L/710145
                        R01R///99// R08/710154 TEMPO 2000
                        VV008=
201212240150 METAR ESSA 240150Z 09008KT 4000 -SN VV025 M04/M04 Q1008 R01L/710145
                        R01R///99// R08/710154 TEMPO 2000
                        SN VV008=
201212240120 METAR ESSA 240120Z 11008KT 2500 SN VV010 M04/M04 Q1008 R01L/710145
                        R01R///99// R08/710154 TEMPO 3000
                        VV008=
201212240050 METAR ESSA 240050Z 12010KT 5000 -SN OVC008 M04/M05 Q1009
                        R01L/710145 R01R///99// R08/710154
                        BECMG 4000 SN=
201212240020 METAR ESSA 240020Z 12011KT 9999 -SN OVC008 M04/M05 Q1010
                        R01L/710145 R01R///99// R08/710154
                        TEMPO 4000 SN=
201212232350 METAR ESSA 232350Z 12011KT 9999 -SN OVC008 M04/M05 Q1010
                        R01L/710145 R01R///99// R08/710154
                        NOSIG=
201212232320 METAR ESSA 232320Z 13010KT 9999 -SN OVC010 M04/M05 Q1011
                        R01L/710145 R01R///99// R08/710154
                        TEMPO 4000 SN=
201212232250 METAR ESSA 232250Z 13013KT 9999 -SN BKN010 M04/M05 Q1012
                        R01L/710145 R01R///99// R08/710154
                        TEMPO 4000 SN=
201212232220 METAR ESSA 232220Z 13012KT 9999 -SN BKN010 M04/M05 Q1012
                        R01L/710145 R01R///99// R08/710154
                        TEMPO 4000 SN=
201212232150 METAR ESSA 232150Z 13014KT 9000 -SN BKN010 M04/M05 Q1013
                        R01L/710169 R01R///99// R08/710162
                        TEMPO 4000 SN=
201212232120 METAR ESSA 232120Z 12013KT 9000 -SN BKN010 M04/M05 Q1013
                        R01L/710169 R01R///99// R08/710162
                        TEMPO 4000 SN=
201212232050 METAR ESSA 232050Z 13012KT 9000 -SN BKN012 M04/M05 Q1014
                        R01L/710169 R01R///99// R08/710162
                        TEMPO 4000 SN=
201212232020 METAR ESSA 232020Z 12012KT 9999 -SN SCT012 BKN016 M04/M06
                        Q1014 R01L/710169 R01R///99// R08/710162
                        TEMPO BKN012=
201212231950 METAR ESSA 231950Z 12009KT 9999 -SN BKN019 M04/M06 Q1015
                        R01L/710169 R01R///99// R08/710162
                        TEMPO BKN012=
201212231920 METAR ESSA 231920Z 13011KT 9999 FEW017 BKN021 M03/M06 Q1016
                        R01L/710169 R01R///99// R08/710162
                        NOSIG=
201212231850 METAR ESSA 231850Z 13011KT 9999 BKN022 M03/M06 Q1017 R01L/710169
                        R01R///99// R08/710162 NOSIG=
201212231820 METAR ESSA 231820Z 14010KT 9999 BKN022 M03/M05 Q1017 R01L/710169
                        R01R///99// R08/710162 NOSIG=
201212231750 METAR ESSA 231750Z 11008KT 080V140 9999 SCT021 BKN025 M03/M05
                        Q1017 R01L/710169 R01R///99// R08/710162
                        NOSIG=
201212231720 METAR ESSA 231720Z 12007KT 9999 SCT020 SCT025 M03/M05 Q1018
                        R01L/710169 R01R///99// R08/710162
                        NOSIG=
201212231650 METAR ESSA 231650Z 12007KT 9999 BKN027 M03/M05 Q1019 R01L/710169
                        R01R///99// R08/710162 NOSIG=
201212231620 METAR ESSA 231620Z 12007KT 9999 BKN027 M04/M05 Q1019 R01L/710169
                        R01R///99// R08/710162 NOSIG=
201212231550 METAR ESSA 231550Z 12006KT 9999 SCT023 BKN028 M03/M05 Q1019
                        R01L/710169 R01R///99// R08/710162
                        NOSIG=
201212231520 METAR ESSA 231520Z 09006KT 9999 SCT020 BKN025 M04/M05 Q1020
                        R01L/710169 R01R///99// R08/710163
                        NOSIG=
201212231450 METAR ESSA 231450Z 09007KT 9999 SCT023 BKN026 M04/M05 Q1020
                        R01L/710169 R01R///99// R08/710163
                        NOSIG=
201212231420 METAR ESSA 231420Z 08006KT 9999 SCT024 BKN030 M04/M05 Q1021
                        R01L/710169 R01R///99// R08/710163
                        NOSIG=
201212231350 METAR ESSA 231350Z 09006KT 9999 SCT027 BKN030 M04/M05 Q1021
                        R01L/710169 R01R///99// R08/710163
                        NOSIG=
201212231320 METAR ESSA 231320Z 11005KT 9999 SCT027 BKN030 M04/M05 Q1022
                        R01L/710169 R01R///99// R08/710163
                        NOSIG=
201212231250 METAR ESSA 231250Z 13005KT 9999 BKN026 M04/M05 Q1023 R01L/710169
                        R01R///99// R08/710163 NOSIG=
201212231220 METAR ESSA 231220Z 08006KT 9999 BKN027 M04/M05 Q1023 R01L/710169
                        R01R///99// R08/710163 NOSIG=
201212231150 METAR ESSA 231150Z 11006KT 9999 BKN027 M04/M06 Q1023 R01L/710169
                        R01R///99// R08/710163 NOSIG=
201212231120 METAR ESSA 231120Z 11005KT 9999 BKN029 M04/M05 Q1024 R01L/710169
                        R01R///99// R08/710163 NOSIG=
201212231050 METAR ESSA 231050Z 13004KT 9999 BKN028 M04/M06 Q1024 R01L/710169
                        R01R///99// R08/710163 NOSIG=
201212231020 METAR ESSA 231020Z 09005KT 9999 BKN030 M04/M06 Q1025 R01L/710169
                        R01R///99// R08/710163 NOSIG=
201212230950 METAR ESSA 230950Z 08006KT 9999 BKN031 M04/M06 Q1025 R01L/710160
                        R01R///99// R08/710161 NOSIG=
201212230920 METAR ESSA 230920Z 09004KT 9999 SCT027 BKN030 M04/M06 Q1026
                        R01L/710160 R01R///99// R08/710161
                        NOSIG=
201212230850 METAR ESSA 230850Z 09007KT 9999 BKN028 M04/M06 Q1026 R01L/710160
                        R01R///99// R08/710161 NOSIG=
201212230820 METAR ESSA 230820Z 06006KT 9999 BKN028 M04/M06 Q1026 R01L/710160
                        R01R///99// R08/710161 NOSIG=
201212230750 METAR ESSA 230750Z 08007KT 9999 BKN027 M04/M06 Q1026 R01L/710160
                        R01R///99// R08/710161 NOSIG=
201212230720 METAR ESSA 230720Z 07009KT 9999 SCT023 BKN029 M04/M06 Q1026
                        R01L/710160 R01R///99// R08/710161
                        NOSIG=
201212230650 METAR ESSA 230650Z 08006KT 9999 BKN026 M04/M06 Q1026 R01L/710163
                        R01R///99// R08/710166 NOSIG=
201212230620 METAR ESSA 230620Z 08009KT 9999 SCT022 BKN025 M05/M07 Q1026
                        R01L/710163 R01R///99// R08/710166
                        NOSIG=
201212230550 METAR ESSA 230550Z 06010KT 9999 SCT029 BKN032 M05/M07 Q1026
                        R01L/710163 R01R///99// R08/710166
                        NOSIG=
201212230520 METAR ESSA 230520Z 05007KT 9999 BKN030 M05/M07 Q1026 R01L/710163
                        R01R///99// R08/710166 NOSIG=
201212230450 METAR ESSA 230450Z 05007KT 9999 BKN028 M05/M07 Q1027 R01L/710163
                        R01R///99// R08/710166 NOSIG=
201212230420 METAR ESSA 230420Z 06006KT 9999 BKN028 M05/M07 Q1027 R01L/710163
                        R01R///99// R08/710166 NOSIG=
201212230350 METAR ESSA 230350Z 06006KT 9999 BKN027 M06/M08 Q1027 R01L/710163
                        R01R///99// R08/710166 NOSIG=
201212230320 METAR ESSA 230320Z 06006KT 9999 BKN026 M06/M07 Q1028 R01L/710163
                        R01R///99// R08/710166 NOSIG=
201212230250 METAR ESSA 230250Z 06006KT 9999 BKN025 M06/M08 Q1028 R01L/710163
                        R01R///99// R08/710166 NOSIG=
201212230220 METAR ESSA 230220Z 05007KT 9999 SCT025 M06/M08 Q1028 R01L/710163
                        R01R///99// R08/710166 NOSIG=
201212230150 METAR ESSA 230150Z 05005KT CAVOK M06/M07 Q1028 R01L/710163
                        R01R///99// R08/710166 NOSIG=
201212230120 METAR ESSA 230120Z 07006KT CAVOK M06/M07 Q1028 R01L/710163
                        R01R///99// R08/710166 NOSIG=
201212230050 METAR ESSA 230050Z 07006KT CAVOK M05/M07 Q1028 R01L/710163
                        R01R///99// R08/710166 NOSIG=
201212230020 METAR ESSA 230020Z 07006KT CAVOK M05/M06 Q1028 R01L/710163
                        R01R///99// R08/710166 NOSIG=
201212222350 METAR ESSA 222350Z 07006KT CAVOK M05/M06 Q1028 R01L/710163
                        R01R///99// R08/710166 NOSIG=
201212222320 METAR ESSA 222320Z 07006KT 9999 SCT046 BKN066 M04/M06 Q1028
                        R01L/710163 R01R///99// R08/710166
                        NOSIG=
201212222250 METAR ESSA 222250Z 07007KT CAVOK M04/M05 Q1028 R01L/710161
                        R01R///99// R08/710168 NOSIG=
201212222220 METAR ESSA 222220Z 06007KT 9999 SCT045 BKN058 M03/M05 Q1028
                        R01L/710161 R01R///99// R08/710168
                        NOSIG=
201212222150 METAR ESSA 222150Z 07008KT 9999 SCT045 BKN058 M03/M04 Q1028
                        R01L/710161 R01R///99// R08/710168
                        NOSIG=
201212222120 METAR ESSA 222120Z 07007KT 9999 SCT038 BKN057 M03/M04 Q1028
                        R01L/710161 R01R///99// R08/710168
                        NOSIG=
201212222050 METAR ESSA 222050Z 07007KT 9999 -SN FEW025 BKN055 M03/M04
                        Q1029 R01L/710161 R01R///99// R08/710168
                        NOSIG=
201212222020 METAR ESSA 222020Z 07007KT 9000 -SN FEW024 BKN051 M04/M04
                        Q1029 R01L/710161 R01R///99// R08/710168
                        NOSIG=
201212221950 METAR ESSA 221950Z 05007KT 9000 -SN FEW019 BKN051 M04/M04
                        Q1029 R01L/710161 R01R///99// R08/710157
                        NOSIG=
201212221920 METAR ESSA 221920Z 03008KT 9000 -SN SCT044 BKN055 M04/M05
                        Q1029 R01L/710150 R01R///99// R08/710157
                        NOSIG=
201212221850 METAR ESSA 221850Z 03009KT 7000 -SN FEW025 BKN045 M05/M05
                        Q1029 R01L/710154 R01R///99// R08/710157
                        NOSIG=
201212221820 METAR ESSA 221820Z 03008KT 9000 -SN FEW020 BKN041 M05/M05
                        Q1029 R01L/710154 R01R///99// R08/710157
                        NOSIG=
201212221750 METAR ESSA 221750Z 04009KT 9000 -SN FEW020 BKN038 M05/M05
                        Q1029 R01L/720163 R01R///99// R08/710162
                        NOSIG=
201212221720 METAR ESSA 221720Z 03010KT 9999 -SN BKN033 M05/M05 Q1029
                        R01L/720163 R01R///99// R08/710162
                        NOSIG=
201212221650 METAR ESSA 221650Z 03010KT 9000 -SN FEW008 BKN035 M05/M05
                        Q1029 R01L/720163 R01R///99// R08/710162
                        NOSIG=
201212221620 METAR ESSA 221620Z 03010KT 8000 -SN SCT008 BKN040 M05/M05
                        Q1029 R01L/720163 R01R///99// R08/710162
                        NOSIG=
201212221550 METAR ESSA 221550Z 03010KT 4000 SN FEW007 SCT017 BKN024 M05/M06
                        Q1030 R01L/720130 R01R///99// R08/720128
                        NOSIG=
201212221520 METAR ESSA 221520Z 03010KT 8000 -SN FEW008 SCT017 BKN026
                        M05/M06 Q1030 R01L/710167 R01R///99//
                        R08/710156 BECMG 3000 SN=
201212221450 METAR ESSA 221450Z 03009KT 9999 BKN032 M05/M06 Q1030 R01L/710167
                        R01R///99// R08/710156 BECMG 3000
                        SN=
201212221420 METAR COR ESSA 221420Z 03009KT 9999 FEW022 SCT037 M05/M06
                        Q1030 R01L/710167 R01R///99// R08/710156
                        BECMG 3000 SN=
201212221350 METAR ESSA 221350Z 03010KT 9999 SCT019 M05/M06 Q1030 R01L/710167
                        R01R///99// R08/710156 NOSIG=
201212221320 METAR ESSA 221320Z 04011KT 9999 SCT020 M05/M05 Q1030 R01L/710167
                        R01R///99// R08/710139 NOSIG=
201212221250 METAR ESSA 221250Z 06009KT 9999 FEW010 SCT018 BKN028 M04/M04
                        Q1031 R01L/710167 R01R///99// R08/710163
                        NOSIG=
201212221220 METAR ESSA 221220Z 04010KT 9999 -SN SCT010 BKN029 M04/M04
                        Q1031 R01L/710167 R01R///99// R08/710163
                        NOSIG=
201212221150 METAR COR ESSA 221150Z 06009KT 4000 -SN SCT009 BKN033 M03/M04
                        Q1031 R01L/710167 R01R///99// R08/710163
                        TEMPO 6000=
201212221120 METAR ESSA 221120Z 07011KT 8000 -SN SCT009 BKN033 M03/M03
                        Q1031 R01L/710167 R01R///99// R08/710169
                        TEMPO 4000=
201212221050 METAR ESSA 221050Z 07010KT 4000 -SN SCT009 BKN019 M03/M03
                        Q1031 R01L/710167 R01R///99// R08/710169
                        TEMPO 6000=
201212221020 METAR ESSA 221020Z 08011KT 4000 SN VV013 M03/M03 Q1031 R01L/710167
                        R01R///99// R08/710169 TEMPO 6000=
201212220950 METAR ESSA 220950Z 08010KT 8000 -SN FEW012 SCT021 BKN030
                        M03/M03 Q1031 R01L/710167 R01R///99//
                        R08/710169 NOSIG=
201212220920 METAR ESSA 220920Z 06008KT 4000 SN BR VV022 M03/M03 Q1031
                        R01L/710167 R01R///99// R08/710169
                        NOSIG=
201212220850 METAR ESSA 220850Z 04009KT 6000 -SN BR FEW006 SCT012 BKN022
                        M03/M03 Q1031 R01L/710167 R01R///99//
                        R08/710169 TEMPO 4500 SN=
201212220820 METAR ESSA 220820Z 04007KT 9999 SG SCT025 BKN028 M03/M03
                        Q1031 R01L/710167 R01R///99// R08/710169
                        NOSIG=
201212220750 METAR ESSA 220750Z 05008KT 9999 -SN SCT024 BKN027 M03/M03
                        Q1031 R01L/710167 R01R///99// R08/710169
                        NOSIG=
201212220720 METAR ESSA 220720Z 04008KT 9999 -SN FEW007 SCT023 BKN029
                        M03/M03 Q1031 R01L/710167 R01R///99//
                        R08/710169 NOSIG=
201212220650 METAR ESSA 220650Z 03007KT 9999 -SG FEW007 SCT015 BKN019
                        M03/M03 Q1031 R01L/710151 R01R///99//
                        R08/710168 NOSIG=
201212220620 METAR ESSA 220620Z 03007KT 9999 -SN FEW008 BKN019 M03/M03
                        Q1031 R01L/710151 R01R///99// R08/710168
                        NOSIG=
201212220550 METAR ESSA 220550Z 05006KT 9999 -SN FEW007 BKN027 M03/M04
                        Q1031 R01L/710141 R01R///99// R08/710163
                        NOSIG=
201212220520 METAR ESSA 220520Z 03007KT 9999 -SN FEW007 BKN023 M03/M04
                        Q1031 R01L/710141 R01R///99// R08/710163
                        NOSIG=
201212220450 METAR ESSA 220450Z 02007KT 9999 -SN FEW007 BKN027 M03/M04
                        Q1031 R01L/710141 R01R///99// R08/710163
                        NOSIG=
201212220420 METAR ESSA 220420Z 03005KT 9999 -SN BKN027 M03/M04 Q1031
                        R01L/710141 R01R///99// R08/710163
                        NOSIG=
201212220350 METAR ESSA 220350Z 05007KT 9999 -SN BKN028 M03/M04 Q1031
                        R01L/710141 R01R///99// R08/710163
                        NOSIG=
201212220320 METAR ESSA 220320Z 04006KT 9999 -SN BKN028 M03/M04 Q1031
                        R01L/710141 R01R///99// R08/710163
                        NOSIG=
201212220250 METAR ESSA 220250Z 06007KT 9999 -SN BKN018 M03/M04 Q1031
                        R01L/710141 R01R///99// R08/710163
                        NOSIG=
201212220220 METAR ESSA 220220Z 04006KT 9000 -SN BKN026 M04/M04 Q1031
                        R01L/710141 R01R///99// R08/710163
                        NOSIG=
201212220150 METAR ESSA 220150Z 03006KT 9000 -SN BKN020 M04/M04 Q1031
                        R01L/710141 R01R///99// R08/710163
                        NOSIG=
201212220120 METAR ESSA 220120Z 04007KT 9000 -SN BKN020 M04/M04 Q1031
                        R01L/710141 R01R///99// R08/710163
                        NOSIG=
201212220050 METAR COR ESSA 220050Z 03008KT 9999 -SN FEW007 BKN030 M04/M05
                        Q1031 R01L/710141 R01R///99// R08/710163
                        NOSIG=
201212220020 METAR ESSA 220020Z 03007KT 9999 BKN035 M04/M05 Q1030 R01L/710141
                        R01R///99// R08/710163 TEMPO 4000=
201212212350 METAR ESSA 212350Z 01006KT 9999 -SN FEW006 SCT025 BKN040
                        M05/M05 Q1030 R01L/710141 R01R///99//
                        R08/710163 TEMPO 4000=
201212212320 METAR ESSA 212320Z 03007KT 7000 -SN FEW007 BKN030 M05/M05
                        Q1030 R01L/710141 R01R///99// R08/710163
                        TEMPO 4000=
201212212250 METAR ESSA 212250Z 03006KT 7000 -SN FEW007 BKN030 M05/M05
                        Q1030 R01L/710141 R01R///99// R08/710163
                        TEMPO 4000=
201212212220 METAR ESSA 212220Z 03007KT 8000 -SN FEW009 BKN028 M05/M05
                        Q1030 R01L/710141 R01R///99// R08/710163
                        TEMPO 4000=
201212212150 METAR ESSA 212150Z 03008KT 5000 -SN FEW011 BKN031 M05/M05
                        Q1030 R01L/710141 R01R///99// R08/710163
                        TEMPO 4000=
201212212120 METAR ESSA 212120Z 02008KT 5000 -SN FEW006 BKN030 M05/M05
                        Q1030 R01L/710141 R01R///99// R08/710163
                        TEMPO 4000=
201212212050 METAR ESSA 212050Z 02007KT 6000 -SN FEW006 BKN036 M05/M05
                        Q1030 R01L/710141 R01R///99// R08/710163
                        TEMPO 4000=
201212212020 METAR COR ESSA 212020Z 02008KT 6000 -SN EFW011 BKN024 M05/M05
                        Q1030 R01L/710141 R01R///99// R08/710163
                        TEMPO 4000=
201212211950 METAR ESSA 211950Z 02008KT 4000 -SN FEW010 BKN035 M05/M05
                        Q1030 R01L/710166 R01R///99// R08/710163
                        NOSIG=
201212211920 METAR ESSA 211920Z 02009KT 5000 -SN FEW010 BKN027 M05/M05
                        Q1030 R01L/710166 R01R///99// R08/710163
                        TEMPO 4000=
201212211850 METAR ESSA 211850Z 02009KT 7000 -SN FEW010 BKN026 M05/M05
                        Q1030 RESG R01L/710166 R01R///99//
                        R08/710163 TEMPO 4000=
201212211820 METAR ESSA 211820Z 02008KT 7000 -SN FEW010 BKN025 M05/M05
                        Q1030 R01L/710166 R01R///99// R08/710163
                        TEMPO 4000=
201212211750 METAR ESSA 211750Z 02008KT 9000 -SN FEW010 SCT030 BKN080
                        M05/M05 Q1030 R01L/710166 R01R///99//
                        R08/710163 TEMPO 4000=
201212211720 METAR ESSA 211720Z 02009KT 7000 -SN FEW010 BKN027 M05/M05
                        Q1030 R01L/710144 R01R///99// R08/710163
                        TEMPO 4000=
201212211650 METAR ESSA 211650Z 02007KT 9000 -SN FEW010 BKN025 BKN040
                        M05/M05 Q1030 R01L/710144 R01R///99//
                        R08/710163 TEMPO 4000=
201212211620 METAR ESSA 211620Z 02008KT 6000 -SN FEW030 BKN060 M05/M05
                        Q1030 R01L/710165 R01R///99// R08/710163
                        TEMPO 4000=
201212211550 METAR ESSA 211550Z 02009KT 7000 -SN VV025 M05/M05 Q1030 R01L/710170
                        R01R///99// R08/71016 TEMPO 4000=
201212211520 METAR ESSA 211520Z 03009KT 8000 -SN FEW009 BKN060 M04/M05
                        Q1030 R01L/710170 R01R///99// R08/71016
                        TEMPO 4000=
201212211450 METAR ESSA 211450Z 02009KT 8000 -SN SCT008 BKN060 M04/M05
                        Q1029 R01L/710170 R01R///99// R08/71016
                        TEMPO 4000=
201212211420 METAR ESSA 211420Z 02010KT 8000 -SN SCT008 BKN060 M04/M05
                        Q1029 R01L/710170 R01R///99// R08/71016
                        TEMPO 4000=
201212211350 METAR ESSA 211350Z 02011KT 7000 -SN BKN008 M04/M04 Q1029
                        R01L/710170 R01R///99// R08/71016
                        TEMPO 4000 SCT010=
201212211320 METAR ESSA 211320Z 03011KT 5000 -SN BKN008 M04/M04 Q1029
                        R01L/710170 R01R///99// R08/71016
                        TEMPO 4000 SCT010=
201212211250 METAR COR ESSA 211250Z 03010KT 6000 -SN BKN010 M04/M04 Q1029
                        R01L/710170 R01R///99// R08/71016
                        TEMPO 4000 SCT010=
201212211220 METAR ESSA 211220Z 03012KT 6000 -SN FEW006 BKN020 M04/M04
                        Q1029 R01L/710170 R01R///99// R08/71016
                        TEMPO 4000=
201212211150 METAR COR ESSA 211150Z 02011KT 6000 -SN FEW006 BKN035 M04/M04
                        Q1029 R01L/710170 R01R///99// R08/71016
                        TEMPO 4000=
201212211120 METAR ESSA 211120Z 02010KT 2500 -SN BKN025 M04/M04 Q1029
                        R01L/710170 R01R///99// R08/71016
                        TEMPO 6000=
201212211050 METAR ESSA 211050Z 02010KT 3000 -SN BR FEW004 BKN025 M04/M04
                        Q1029 R01L/710170 R01R///99// R08/71016
                        TEMPO 6000=
201212211020 METAR COR ESSA 211020Z 03011KT 7000 -SN FEW010 BKN020 M04/M04
                        Q1029 R01L/710170 R01R///99// R08/71016
                        TEMPO BKN013=
201212210950 METAR ESSA 210950Z 02010KT 7000 -SN BKN008 M04/M04 Q1029
                        R01L/710170 R01R///99// R08/710162
                        BECMG SCT008=
201212210920 METAR ESSA 210920Z 03009KT 7000 -SN BKN008 M04/M04 Q1029
                        R01L/710170 R01R///99// R08/710162
                        BECMG SCT008=
201212210850 METAR ESSA 210850Z 03010KT 8000 -SN SCT008 BKN017 M04/M04
                        Q1029 R01L/710170 R01R///99// R08/710162
                        NOSIG=
201212210820 METAR ESSA 210820Z 03009KT 8000 -SN SCT008 BKN017 M04/M05
                        Q1029 R01L/710170 R01R///99// R08/710162
                        NOSIG=
201212210750 METAR ESSA 210750Z 02009KT 8000 -SN FEW007 BKN018 M04/M05
                        Q1028 R01L/710170 R01R///99// R08/710162
                        NOSIG=
201212210720 METAR ESSA 210720Z 03009KT 9999 -SN FEW008 BKN016 M04/M05
                        Q1028 R01L/710170 R01R///99// R08/710162
                        TEMPO BKN014=
201212210650 METAR ESSA 210650Z 03008KT 9999 -SN BKN020 M04/M05 Q1028
                        R01L/710170 R01R///99// R08/710162
                        NOSIG=
201212210620 METAR ESSA 210620Z 04009KT 9999 -SN SCT022 BKN045 M04/M05
                        Q1028 R01L/710170 R01R///99// R08/710162
                        NOSIG=
201212210550 METAR ESSA 210550Z 04007KT 9999 -SN FEW025 BKN045 M04/M05
                        Q1028 R01L/710170 R01R///99// R08/710162
                        NOSIG=
201212210520 METAR ESSA 210520Z 03008KT 9999 -SN FEW025 SCT035 BKN040
                        M04/M05 Q1028 R01L/710170 R01R///99//
                        R08/710162 NOSIG=
201212210450 METAR ESSA 210450Z 06007KT 9000 -SN FEW020 SCT030 BKN035
                        M03/M04 Q1028 R01L/710170 R01R///99//
                        R08/710162 NOSIG=
201212210420 METAR ESSA 210420Z 05006KT 9999 -SN FEW020 SCT030 BKN035
                        M03/M04 Q1028 R01L/710170 R01R///99//
                        R08/710162 NOSIG=
201212210350 METAR ESSA 210350Z 03006KT 9999 SCT025 BKN030 M03/M04 Q1028
                        R01L/710170 R01R///99// R08/710152
                        NOSIG=
201212210320 METAR ESSA 210320Z 03006KT 9999 -SN SCT025 BKN030 M03/M04
                        Q1029 R01L/710167 R01R///99// R08/710152
                        NOSIG=
201212210250 METAR ESSA 210250Z 03006KT 9999 -SN SCT025 BKN030 M03/M04
                        Q1029 R01L/710167 R01R///99// R08/710152
                        NOSIG=
201212210220 METAR ESSA 210220Z 03005KT 9999 -SN SCT020 BKN025 M03/M04
                        Q1029 R01L/710167 R01R///99// R08/710152
                        NOSIG=
201212210150 METAR ESSA 210150Z 02005KT 9999 -SN SCT020 BKN025 M03/M04
                        Q1029 R01L/710167 R01R///99// R08/710152
                        NOSIG=
201212210120 METAR ESSA 210120Z 02006KT 9000 -SN SCT020 BKN025 M03/M04
                        Q1029 R01L/710167 R01R///99// R08/710152
                        NOSIG=
201212210050 METAR ESSA 210050Z 02006KT 9000 -SN SCT025 BKN030 M03/M04
                        Q1028 R01L/710167 R01R///99// R08/710152
                        NOSIG=
201212210020 METAR ESSA 210020Z 02005KT 9999 SCT027 BKN030 M03/M04 Q1029
                        R01L/710167 R01R///99// R08/710152
                        NOSIG=
201212202350 METAR ESSA 202350Z 03005KT 9999 FEW025 SCT030 BKN035 M03/M04
                        Q1028 R01L/710167 R01R///99// R08/710152
                        NOSIG=
201212202320 METAR ESSA 202320Z 04006KT 9999 -SN FEW025 SCT030 BKN035
                        M03/M04 Q1028 R01L/710167 R01R///99//
                        R08/710152 NOSIG=
201212202250 METAR ESSA 202250Z 04006KT 9999 FEW025 SCT030 BKN035 M03/M04
                        Q1028 R01L/710167 R01R///99// R08/710152
                        NOSIG=
201212202220 METAR ESSA 202220Z 05007KT 9999 FEW025 SCT030 BKN035 M03/M04
                        Q1029 R01L/710167 R01R///99// R08/710152
                        NOSIG=
201212202150 METAR ESSA 202150Z 04006KT 9999 FEW025 SCT035 BKN040 M03/M04
                        Q1029 R01L/710167 R01R///99// R08/710152
                        NOSIG=
201212202120 METAR ESSA 202120Z 05005KT 9999 SCT035 BKN040 M03/M04 Q1029
                        R01L/710167 R01R///99// R08/710157
                        NOSIG=
201212202050 METAR ESSA 202050Z 03006KT 9999 SCT035 BKN040 M03/M04 Q1029
                        R01L/710170 R01R///99// R08/710157
                        NOSIG=
201212202020 METAR ESSA 202020Z 04006KT 9999 SCT035 BKN040 M03/M04 Q1029
                        R01L/710170 R01R///99// R08/710157
                        NOSIG=
201212201950 METAR ESSA 201950Z 05005KT 9000 -SN SCT030 BKN035 M03/M04
                        Q1029 R01L/710170 R01R///99// R08/710157
                        NOSIG=
201212201920 METAR ESSA 201920Z 07005KT 6000 -SN FEW006 SCT030 BKN035
                        M03/M03 Q1029 R01L/710170 R01R///99//
                        R08/710157 NOSIG=
201212201850 METAR ESSA 201850Z 08004KT 9000 -SG SCT033 BKN038 M03/M03
                        Q1029 R01L/710170 R01R///99// R08/710157
                        NOSIG=
201212201820 METAR ESSA 201820Z 08005KT 9000 -SG SCT033 BKN038 M03/M03
                        Q1029 R01L/710171 R01R///99// R08/710157
                        NOSIG=
201212201750 METAR ESSA 201750Z 06005KT 9000 -SG FEW015 SCT025 BKN030
                        M03/M03 Q1029 R01L/710171 R01R///99//
                        R08/710157 NOSIG=
201212201720 METAR ESSA 201720Z 06005KT 9000 -SG SCT030 BKN035 M03/M03
                        Q1029 R01L/710171 R01R///99// R08/710157
                        NOSIG=
201212201650 METAR ESSA 201650Z 03004KT 9000 -SG FEW015 SCT035 BKN040
                        M03/M03 Q1029 R01L/710171 R01R///99//
                        R08/710157 NOSIG=
201212201620 METAR ESSA 201620Z 05005KT 9000 -SG FEW005 SCT025 BKN037
                        M03/M03 Q1029 R01L/710171 R01R///99//
                        R08/710157 NOSIG=
201212201550 METAR ESSA 201550Z 06004KT 9999 -SG FEW020 BKN037 M03/M03
                        Q1029 R01L/710171 R01R///99// R08/710157
                        NOSIG=
201212201520 METAR ESSA 201520Z 05005KT 9999 -SG FEW016 BKN037 M03/M03
                        Q1029 R01L/710171 R01R///99// R08/710157
                        NOSIG=
201212201450 METAR ESSA 201450Z 06005KT 9999 -SG BKN037 M03/M03 Q1029
                        R01L/710171 R01R///99// R08/710157
                        NOSIG=
201212201420 METAR ESSA 201420Z 08004KT 9999 BKN037 M03/M03 Q1029 R01L/710171
                        R01R///99// R08/710157 NOSIG=
201212201350 METAR ESSA 201350Z 07004KT 9999 BKN037 M03/M03 Q1029 R01L/710171
                        R01R///99// R08/710157 NOSIG=
201212201320 METAR ESSA 201320Z 08004KT 9999 BKN037 M02/M03 Q1029 R01L/710171
                        R01R///99// R08/710157 NOSIG=
201212201250 METAR ESSA 201250Z 08004KT 9999 FEW022 BKN034 M02/M03 Q1029
                        R01L/710171 R01R///99// R08/710157
                        NOSIG=
201212201220 METAR ESSA 201220Z 08004KT 9999 FEW022 BKN034 M02/M03 Q1030
                        R01L/710171 R01R///99// R08/710157
                        NOSIG=
201212201150 METAR ESSA 201150Z 09004KT 9999 -SG FEW018 BKN031 M02/M03
                        Q1030 R01L/710171 R01R///99// R08/710157
                        NOSIG=
201212201120 METAR ESSA 201120Z 08004KT 9999 -SG FEW018 BKN031 M03/M03
                        Q1030 R01L/710171 R01R///99// R08/710157
                        NOSIG=
201212201050 METAR ESSA 201050Z 07003KT 9999 -SG FEW016 BKN031 M02/M03
                        Q1030 R01L/710171 R01R///99// R08/710157
                        NOSIG=
201212201020 METAR ESSA 201020Z 07004KT 9999 -SG FEW016 BKN031 M03/M03
                        Q1030 R01L/710171 R01R///99// R08/710157
                        NOSIG=
201212200950 METAR ESSA 200950Z 07003KT 9999 -SN FEW020 BKN033 M03/M03
                        Q1030 R01L/710171 R01R///99// R08/710157
                        NOSIG=
201212200920 METAR ESSA 200920Z 01003KT 9999 -SN FEW020 BKN033 M03/M03
                        Q1030 R01L/710171 R01R///99// R08/710163
                        NOSIG=
201212200850 METAR ESSA 200850Z 04003KT 9999 -SN FEW020 BKN033 M03/M04
                        Q1030 R01L/710171 R01R///99// R08/710163
                        NOSIG=
201212200820 METAR ESSA 200820Z 36002KT 9999 FEW020 BKN034 M03/M03 Q1030
                        R01L/710171 R01R///99// R08/710163
                        NOSIG=
201212200750 METAR ESSA 200750Z 36002KT 9999 BKN036 M04/M04 Q1030 R01L/710171
                        R01R///99// R08/710163 NOSIG=
201212200720 METAR ESSA 200720Z 01002KT 9999 BKN036 M04/M04 Q1030 R01L/710171
                        R01R///99// R08/710163 NOSIG=
201212200650 METAR ESSA 200650Z VRB02KT 9999 FEW030 BKN036 M04/M04 Q1030
                        R01L/710171 R01R///99// R08/710163
                        NOSIG=
201212200620 METAR ESSA 200620Z 07003KT 9999 BKN036 M04/M04 Q1030 R01L/710171
                        R01R///99// R08/710163 NOSIG=
201212200550 METAR ESSA 200550Z 36002KT 9999 BKN036 M03/M04 Q1030 R01L/710171
                        R01R///99// R08/710163 NOSIG=
201212200520 METAR ESSA 200520Z 36003KT 9000 BR BKN036 M04/M04 Q1030 R01L/710171
                        R01R///99// R08/710163 NOSIG=
201212200450 METAR ESSA 200450Z 35002KT 9000 -SN FEW008 BKN036 M03/M04
                        Q1030 R01L/710171 R01R///99// R08/710163
                        NOSIG=
201212200420 METAR ESSA 200420Z 36002KT 9000 -SN FEW029 BKN036 M03/M03
                        Q1030 R01L/710171 R01R///99// R08/710163
                        NOSIG=
201212200350 METAR ESSA 200350Z 36002KT 9000 BR FEW011 BKN036 M03/M03
                        Q1030 R01L/710163 R01R///99// R08/710158
                        TEMPO BKN035=
201212200320 METAR ESSA 200320Z 31005KT 9000 BR FEW009 BKN011 M03/M03
                        Q1031 R01L/710163 R01R///99// R08/710158
                        TEMPO BKN035=
201212200250 METAR ESSA 200250Z 32002KT 9000 -SN BKN034 M03/M03 Q1031
                        RESG R01L/710166 R01R///99// R08/710155
                        NOSIG=
201212200220 METAR ESSA 200220Z 01002KT 9000 -SN BKN036 M03/M03 Q1031
                        R01L/710166 R01R///99// R08/710155
                        NOSIG=
201212200150 METAR ESSA 200150Z 34002KT 9999 BKN036 M03/M03 Q1031 R01L/710166
                        R01R///99// R08/710155 NOSIG=
201212200120 METAR ESSA 200120Z 35003KT 9999 BKN037 M03/M03 Q1031 R01L/710166
                        R01R///99// R08/710155 NOSIG=
201212200050 METAR ESSA 200050Z 36004KT 9999 FEW034 BKN037 M03/M03 Q1030
                        R01L/710166 R01R///99// R08/710155
                        NOSIG=
201212200020 METAR ESSA 200020Z 01003KT 9999 FEW033 BKN036 M03/M03 Q1030
                        R01L/710166 R01R///99// R08/710155
                        NOSIG=
201212192350 METAR ESSA 192350Z 03004KT 9999 FEW025 BKN037 M03/M03 Q1030
                        R01L/710166 R01R///99// R08/710155
                        NOSIG=
201212192320 METAR ESSA 192320Z 03004KT 9999 FEW027 BKN038 M03/M03 Q1031
                        R01L/710166 R01R///99// R08/710155
                        NOSIG=
201212192250 METAR ESSA 192250Z 05003KT 9000 -SN SCT028 BKN035 M03/M03
                        Q1031 R01L/710166 R01R///99// R08/710155
                        NOSIG=
201212192220 METAR ESSA 192220Z 04004KT 9999 FEW012 BKN036 M03/M03 Q1031
                        R01L/710166 R01R///99// R08/710155
                        TEMPO BKN012=
201212192150 METAR ESSA 192150Z 03004KT 9999 FEW030 BKN037 M03/M03 Q1031
                        R01L/710166 R01R///99// R08/710155
                        NOSIG=
201212192120 METAR ESSA 192120Z 03004KT 9999 FEW019 BKN034 M03/M03 Q1030
                        R01L/710166 R01R///99// R08/710156
                        NOSIG=
201212192050 METAR ESSA 192050Z 01004KT 9999 FEW023 BKN037 M03/M03 Q1031
                        R01L/710170 R01R///99// R08/710156
                        NOSIG=
201212192020 METAR ESSA 192020Z 36004KT 9999 FEW012 SCT035 BKN038 M03/M03
                        Q1031 R01L/710170 R01R///99// R08/710156
                        TEMPO BKN012=
201212191950 METAR ESSA 191950Z 36004KT 9999 FEW024 SCT028 BKN039 M03/M03
                        Q1030 R01L/710170 R01R///99// R08/710156
                        NOSIG=
201212191920 METAR ESSA 191920Z 01004KT 9999 SCT028 BKN039 M03/M03 Q1030
                        R01L/710170 R01R///99// R08/710156
                        NOSIG=
201212191850 METAR ESSA 191850Z 01005KT 9999 FEW030 BKN037 M03/M03 Q1030
                        R01L/710170 R01R///99// R08/710156
                        NOSIG=
201212191820 METAR ESSA 191820Z 01005KT 9999 BKN036 M03/M03 Q1030 R01L/710169
                        R01R///99// R08/710161 NOSIG=
201212191750 METAR ESSA 191750Z 04005KT 9999 FEW033 BKN036 M03/M03 Q1030
                        R01L/710169 R01R///99// R08/710161
                        NOSIG=
201212191720 METAR ESSA 191720Z 04005KT 9999 BKN037 M03/M03 Q1030 R01L/710169
                        R01R///99// R08/710161 NOSIG=
201212191650 METAR ESSA 191650Z 03005KT 9999 BKN038 M03/M03 Q1030 R01L/710169
                        R01R///99// R08/710161 NOSIG=
201212191620 METAR ESSA 191620Z 01005KT 9000 -SN SCT037 BKN045 M03/M03
                        Q1030 R01L/710169 R01R///99// R08/710161
                        NOSIG=
201212191550 METAR ESSA 191550Z 05005KT 9000 -SN SCT040 BKN043 M02/M02
                        Q1030 R01L/710169 R01R///99// R08/710161
                        NOSIG=
201212191520 METAR ESSA 191520Z 05005KT 9999 SCT038 BKN040 M02/M02 Q1030
                        R01L/710169 R01R///99// R08/710161
                        NOSIG=
201212191450 METAR ESSA 191450Z 03006KT 9999 SCT033 BKN035 M02/M02 Q1029
                        R01L/710169 R01R///99// R08/710160
                        NOSIG=
201212191420 METAR ESSA 191420Z 04006KT 9999 SCT030 BKN035 M02/M02 Q1029
                        R01L/710169 R01R///99// R08/710160
                        NOSIG=
201212191350 METAR ESSA 191350Z 05006KT 9999 SCT025 BKN030 M02/M02 Q1029
                        R01L/710169 R01R///99// R08/710160
                        NOSIG=
201212191320 METAR ESSA 191320Z 07007KT 9999 SCT008 BKN020 M02/M02 Q1029
                        R01L/710169 R01R///99// R08/710160
                        TEMPO BKN008=
201212191250 METAR ESSA 191250Z 07007KT 9999 SCT008 BKN022 M02/M02 Q1029
                        R01L/710169 R01R///99// R08/710160
                        TEMPO BKN008=
201212191220 METAR ESSA 191220Z 07006KT 9999 SCT008 BKN010 M01/M01 Q1029
                        R01L/710169 R01R///99// R08/710160
                        NOSIG=
201212191150 METAR ESSA 191150Z 07006KT 9000 BR SCT008 BKN010 M01/M01
                        Q1029 R01L/710169 R01R///99// R08/710160
                        NOSIG=
201212191120 METAR ESSA 191120Z 06005KT 6000 -SN BR SCT008 BKN010 M01/M01
                        Q1029 R01L/710169 R01R///99// R08/710160
                        NOSIG=
201212191050 METAR ESSA 191050Z 05005KT 4000 -SN BR SCT006 BKN008 M02/M02
                        Q1028 R01L/710169 R01R///99// R08/710160
                        TEMPO 5000 BKN010=
201212191020 METAR ESSA 191020Z 05006KT 4000 -SN BR SCT005 BKN007 M02/M02
                        Q1028 R01L/710169 R01R///99// R08/710160
                        TEMPO 5000=
201212190950 METAR ESSA 190950Z 02005KT 5000 -SN BR BKN005 M02/M02 Q1028
                        R01L/710169 R01R///99// R08/710160
                        TEMPO 4000=
201212190920 METAR ESSA 190920Z 01005KT 4000 -SN BR FEW005 SCT025 BKN030
                        M02/M02 Q1028 R01L/710169 R01R///99//
                        R08/710160 TEMPO 6000=
201212190850 METAR ESSA 190850Z 03007KT 4000 -SN BR FEW005 BKN025 M02/M02
                        Q1028 R01L/710169 R01R///99// R08/710168
                        TEMPO 6000=
201212190820 METAR ESSA 190820Z 04007KT 4000 -SN BR FEW005 BKN025 M02/M02
                        Q1028 R01L/710169 R01R///99// R08/710168
                        TEMPO 6000=
201212190750 METAR ESSA 190750Z 03008KT 4000 -SN BR FEW005 SCT010 BKN025
                        M02/M02 Q1028 R01L/710169 R01R///99//
                        R08/710168 TEMPO 6000 BKN010=
201212190720 METAR ESSA 190720Z 03008KT 4000 -SN BR FEW005 SCT010 BKN025
                        M02/M02 Q1028 R01L/710169 R01R///99//
                        R08/710168 TEMPO 6000 BKN010=
201212190650 METAR ESSA 190650Z 03008KT 6000 -SN FEW005 SCT010 BKN025
                        M02/M02 Q1027 R01L/710169 R01R///99//
                        R08/710168 TEMPO 4000 BKN010=
201212190620 METAR ESSA 190620Z 02008KT 8000 -SN SCT007 BKN010 M02/M02
                        Q1027 R01L/710169 R01R///99// R08/710168
                        NOSIG=
201212190550 METAR ESSA 190550Z 03009KT 9999 -SN FEW006 BKN035 M02/M02
                        Q1027 R01L/710169 R01R///99// R08/710174
                        NOSIG=
201212190520 METAR ESSA 190520Z 03008KT 9999 -SN FEW011 SCT025 BKN040
                        M02/M03 Q1027 R01L/710166 R01R///99//
                        R08/710174 NOSIG=
201212190450 METAR ESSA 190450Z 02008KT 9999 FEW006 SCT016 BKN030 M02/M03
                        Q1027 R01L/710166 R01R///99// R08/710174
                        NOSIG=
201212190420 METAR ESSA 190420Z 02010KT 9999 FEW007 SCT012 BKN040 M03/M03
                        Q1027 R01L/710166 R01R///99// R08/710174
                        NOSIG=
201212190350 METAR ESSA 190350Z 02009KT 9999 FEW007 BKN015 M03/M03 Q1027
                        R01L/710166 R01R///99// R08/710174
                        NOSIG=
201212190320 METAR ESSA 190320Z 02009KT 9999 FEW007 SCT014 BKN038 M03/M03
                        Q1027 R01L/710167 R01R///99// R08/710171
                        NOSIG=
201212190250 METAR ESSA 190250Z 02009KT 9999 FEW007 SCT030 BKN039 M03/M03
                        Q1027 R01L/710167 R01R///99// R08/710171
                        NOSIG=
201212190220 METAR COR ESSA 190220Z 02008KT 9999 FEW007 BKN029 M03/M03
                        Q1026 R01L/710167 R01R///99// R08/710171
                        NOSIG=
201212190150 METAR ESSA 190150Z 03009KT 9999 FEW007 BKN029 M03/M03 Q1026
                        R01L/710167 R01R///99// R08/710171
                        TEMPO 4000=
201212190120 METAR ESSA 190120Z 02009KT 9999 FEW007 BKN029 M03/M03 Q1026
                        R01L/710167 R01R///99// R08/710171
                        TEMPO 4000=
201212190050 METAR ESSA 190050Z 02008KT 9999 BKN025 M03/M03 Q1026 R01L/710167
                        R01R///99// R08/710171 TEMPO 4000=
201212190020 METAR ESSA 190020Z 02009KT 8000 -SN BKN030 M03/M03 Q1026
                        R01L/710167 R01R///99// R08/710171
                        TEMPO 4000=
201212182350 METAR ESSA 182350Z 03009KT 6000 -SN SCT025 BKN035 M03/M03
                        Q1026 R01L/710167 R01R///99// R08/710171
                        TEMPO 4000=
201212182320 METAR ESSA 182320Z 03009KT 6000 -SN BKN030 M03/M03 Q1026
                        R01L/710165 R01R///99// R08/710165
                        TEMPO 4000=
201212182250 METAR ESSA 182250Z 03010KT 5000 -SN FEW008 BKN025 M03/M03
                        Q1026 R01L/710165 R01R///99// R08/710165
                        TEMPO 4000=
201212182220 METAR ESSA 182220Z 03010KT 7000 -SN FEW008 BKN035 M02/M03
                        Q1026 R01L/710165 R01R///99// R08/710165
                        TEMPO 4000=
201212182150 METAR ESSA 182150Z 03010KT 7000 -SN BKN042 M03/M03 Q1026
                        R01L/710134 R01R///99// R08/710165
                        TEMPO 4000=
201212182120 METAR ESSA 182120Z 03009KT 4500 -SN VV018 M03/M03 Q1025 R01L/710149
                        R01R///99// R08/710164 TEMPO 8000
                        BKN030=
201212182050 METAR ESSA 182050Z 03009KT 5000 -SN VV018 M03/M03 Q1025 R01L/710149
                        R01R///99// R08/710164 TEMPO 8000
                        BKN030=
201212182020 METAR ESSA 182020Z 03008KT 4500 -SN VV026 M02/M03 Q1025 R01L/710167
                        R01R///99// R08/710163 TEMPO 8000
                        BKN030=
201212181950 METAR ESSA 181950Z 05006KT 9999 -SN FEW019 SCT058 BKN070
                        M03/M03 Q1025 R01L/710167 R01R///99//
                        R08/710163 TEMPO 4000 BKN006=
201212181920 METAR ESSA 181920Z 07007KT 9999 -SN SCT006 SCT030 M03/M03
                        Q1025 R01L/710167 R01R///99// R08/710163
                        TEMPO 4000 BKN006=
201212181850 METAR ESSA 181850Z 03007KT 9000 -SN SCT009 SCT063 M02/M03
                        Q1024 R01L/710167 R01R///99// R08/710163
                        TEMPO 4000 BKN006=
201212181820 METAR ESSA 181820Z 05006KT 9999 -SN SCT008 SCT040 M03/M03
                        Q1024 R01L/710167 R01R///99// R08/710163
                        TEMPO 4000 BKN006=
201212181750 METAR ESSA 181750Z 03007KT 9999 -SN FEW008 SCT032 M02/M03
                        Q1024 R01L/710167 R01R///99// R08/710163
                        TEMPO 4000 BKN006=
201212181720 METAR ESSA 181720Z 04008KT 9999 FEW010 SCT038 M03/M03 Q1024
                        R01L/710167 R01R///99// R08/710163
                        TEMPO 4000 BKN006=
201212181650 METAR ESSA 181650Z 03007KT 9999 FEW008 SCT030 M02/M02 Q1024
                        R01L/710167 R01R///99// R08/710164
                        TEMPO 4000 BKN006=
201212181620 METAR ESSA 181620Z 02007KT 8000 -SN SCT006 BKN012 M02/M02
                        Q1024 R01L/710167 R01R///99// R08/710164
                        TEMPO 4000 BKN006=
201212181550 METAR ESSA 181550Z 02008KT 7000 -SN BR SCT008 BKN010 M02/M02
                        Q1023 R01L/710165 R01R///99// R08/710164
                        TEMPO 4000=
201212181520 METAR ESSA 181520Z 03008KT 5000 -SN BR SCT006 BKN008 M02/M02
                        Q1023 R01L/710155 R01R///99// R08/710164
                        TEMPO 4000=
201212181450 METAR ESSA 181450Z 02007KT 4000 -SN BR SCT005 BKN007 M02/M02
                        Q1023 R01L/710155 R01R///99// R08/710159
                        TEMPO 2000=
201212181420 METAR ESSA 181420Z 03009KT 8000 -SN BR BKN007 M02/M02 Q1022
                        R01L/710168 R01R///99// R08/710160
                        TEMPO 4000=
201212181350 METAR ESSA 181350Z 03007KT 8000 BR BKN007 M02/M02 Q1022 R01L/710168
                        R01R///99// R08/710160 TEMPO BKN010=
201212181320 METAR ESSA 181320Z 02007KT 9999 SCT007 BKN010 M02/M02 Q1022
                        R01L/710168 R01R///99// R08/710160
                        TEMPO BKN007=
201212181250 METAR ESSA 181250Z 03007KT 9999 SCT007 BKN010 M02/M02 Q1022
                        R01L/710168 R01R///99// R08/710160
                        TEMPO BKN007=
201212181220 METAR ESSA 181220Z 02009KT 9000 BR SCT007 BKN010 M02/M02
                        Q1022 R01L/710168 R01R///99// R08/710160
                        TEMPO BKN007=
201212181150 METAR ESSA 181150Z 02008KT 9000 BR FEW007 SCT015 BKN018 M02/M02
                        Q1022 R01L/710168 R01R///99// R08/710160
                        TEMPO BKN010=
201212181120 METAR ESSA 181120Z 02008KT 8000 BR FEW010 SCT015 BKN020 M02/M02
                        Q1022 R01L/710168 R01R///99// R08/710160
                        TEMPO BKN010=
201212181050 METAR ESSA 181050Z 03008KT 7000 BR FEW010 SCT015 BKN020 M02/M02
                        Q1022 R01L/710168 R01R///99// R08/710160
                        TEMPO BKN010=
201212181020 METAR ESSA 181020Z 03009KT 9999 SCT020 BKN025 M02/M02 Q1022
                        R01L/710168 R01R///99// R08/710160
                        TEMPO BKN010=
201212180950 METAR ESSA 180950Z 02008KT 9999 SCT020 BKN025 M02/M02 Q1021
                        R01L/710164 R01R///99// R08/710161
                        TEMPO BKN010=
201212180920 METAR ESSA 180920Z 02008KT 9999 SCT020 BKN025 M02/M02 Q1021
                        R01L/710164 R01R///99// R08/710161
                        NOSIG=
201212180850 METAR ESSA 180850Z 03007KT 9999 SCT020 BKN023 M02/M02 Q1021
                        R01L/710164 R01R///99// R08/710161
                        NOSIG=
201212180820 METAR ESSA 180820Z 03007KT 9999 SCT018 BKN020 M02/M02 Q1021
                        R01L/710164 R01R///99// R08/710161
                        NOSIG=
201212180750 METAR ESSA 180750Z 03008KT 9000 BR SCT020 BKN025 M02/M02
                        Q1021 R01L/710165 R01R///99// R08/710159
                        NOSIG=
201212180720 METAR ESSA 180720Z 04009KT 8000 -SN BR SCT015 BKN020 M02/M02
                        Q1020 R01L/710162 R01R///99// R08/710159
                        TEMPO BKN014=
201212180650 METAR ESSA 180650Z 06008KT 8000 -SN BR SCT013 BKN017 M02/M02
                        Q1020 R01L/710162 R01R///99// R08/710159
                        TEMPO BKN010=
201212180620 METAR ESSA 180620Z 07008KT 8000 -SN BR SCT007 BKN015 M02/M02
                        Q1020 R01L/710162 R01R///99// R08/710131
                        TEMPO BKN010=
201212180550 METAR ESSA 180550Z 04008KT 8000 BR SCT007 BKN017 M02/M02
                        Q1020 R01L/710161 R01R///99// R08/710165
                        TEMPO 4500 -SN BKN009=
201212180520 METAR ESSA 180520Z 02007KT 9999 FEW007 BKN013 M02/M02 Q1019
                        R01L/710161 R01R///99// R08/710165
                        TEMPO 4500 -SN BKN009=
201212180450 METAR ESSA 180450Z 03006KT 9999 FEW007 BKN014 M02/M02 Q1019
                        R01L/710162 R01R///99// R08/710152
                        TEMPO BKN015=
201212180420 METAR ESSA 180420Z 04006KT 9999 SCT011 BKN012 M02/M02 Q1019
                        R01L/710162 R01R///99// R08/710152
                        TEMPO BKN015=
201212180350 METAR ESSA 180350Z 04006KT 9999 SCT013 BKN014 M02/M02 Q1019
                        R01L/710162 R01R///99// R08/710152
                        TEMPO BKN015=
201212180320 METAR ESSA 180320Z 05006KT 9999 SCT014 BKN015 M02/M02 Q1019
                        R01L/710162 R01R///99// R08/710152
                        TEMPO BKN014=
201212180250 METAR ESSA 180250Z 05006KT 9999 SCT014 BKN015 M02/M02 Q1019
                        R01L/710162 R01R///99// R08/710152
                        TEMPO BKN014=
201212180220 METAR ESSA 180220Z 07006KT 9999 SCT013 BKN014 M02/M02 Q1019
                        R01L/710162 R01R///99// R08/710152
                        TEMPO BKN015=
201212180150 METAR ESSA 180150Z 07007KT 9999 SCT013 BKN014 M02/M02 Q1019
                        R01L/710162 R01R///99// R08/710152
                        TEMPO BKN015=
201212180120 METAR ESSA 180120Z 07007KT 9999 SCT013 BKN014 M01/M02 Q1019
                        R01L/710162 R01R///99// R08/710152
                        TEMPO BKN010=
201212180050 METAR ESSA 180050Z 08007KT 9999 SCT010 BKN012 M01/M02 Q1018
                        R01L/710162 R01R///99// R08/710152
                        TEMPO BKN010=
201212180020 METAR ESSA 180020Z 08007KT 9999 SCT012 BKN014 M01/M01 Q1018
                        R01L/710162 R01R///99// R08/710152
                        TEMPO BKN010=
201212172350 METAR COR ESSA 172350Z 07007KT 9999 FEW008 BKN016 M01/M01
                        Q1018 R01L/710162 R01R///99// R08/710152
                        TEMPO BKN010=
201212172320 METAR ESSA 172320Z 07006KT 9999 FEW008 BKN016 M01/M01 Q1018
                        R01L/710162 R01R///99// R08/710152
                        TEMPO 4500 -SN BKN010=
201212172250 METAR ESSA 172250Z 05006KT 9999 FEW015 BKN016 M01/M01 Q1018
                        R01L/710162 R01R///99// R08/710152
                        TEMPO 4500 -SN BKN010=
201212172220 METAR ESSA 172220Z 07007KT 9999 FEW007 BKN015 M01/M01 Q1018
                        R01L/710162 R01R///99// R08/710152
                        TEMPO 4500 -SN BKN010=
201212172150 METAR ESSA 172150Z 07006KT 9999 SCT016 BKN017 M01/M01 Q1018
                        R01L/710162 R01R///99// R08/710152
                        TEMPO 4500 -SN BKN010=
201212172120 METAR ESSA 172120Z 07007KT 9999 SCT015 BKN016 M01/M01 Q1018
                        R01L/710162 R01R///99// R08/710152
                        TEMPO BKN010=
201212172050 METAR ESSA 172050Z 08007KT 9999 SCT015 BKN016 M01/M01 Q1018
                        R01L/710162 R01R///99// R08/710152
                        TEMPO BKN010=
201212172020 METAR ESSA 172020Z 08007KT 9999 SCT012 BKN015 M01/M01 Q1017
                        R01L/710162 R01R///99// R08/710152
                        TEMPO BKN010=
201212171950 METAR ESSA 171950Z 09006KT 9999 FEW006 SCT009 BKN012 M01/M01
                        Q1017 R01L/710162 R01R///99// R08/710152
                        NOSIG=
201212171920 METAR ESSA 171920Z 08006KT 9999 SCT007 BKN009 M00/M00 Q1017
                        R01L/710162 R01R///99// R08/710152
                        BECMG BKN010=
201212171850 METAR ESSA 171850Z 10006KT 8000 BR SCT006 BKN008 M00/M00
                        Q1017 R01L/710162 R01R///99// R08/710152
                        BECMG BKN010=
201212171820 METAR COR ESSA 171820Z 10005KT 7000 BR FEW005 BKN007 M00/M00
                        Q1017 R01L/710162 R01R///99// R08/710152
                        BECMG BKN010=
201212171750 METAR ESSA 171750Z 09005KT 6000 BR SCT005 BKN006 M00/M00
                        Q1017 R01L/710162 R01R///99// R08/710152
                        NOSIG=
201212171720 METAR ESSA 171720Z 11005KT 8000 BR SCT005 BKN007 M00/M00
                        Q1017 R01L/710162 R01R///99// R08/710152
                        NOSIG=
201212171650 METAR ESSA 171650Z 10005KT 5000 BR FEW004 BKN005 00/00 Q1017
                        R01L/710162 R01R///99// R08/710152
                        NOSIG=
201212171620 METAR ESSA 171620Z 10005KT 5000 BR SCT004 BKN005 00/00 Q1016
                        R01L/710160 R01R///99// R08/710157
                        NOSIG=
201212171550 METAR ESSA 171550Z 10006KT 3000 -SG BR BKN004 00/00 Q1016
                        R01L/710160 R01R///99// R08/710157
                        TEMPO 5000 BKN005=
201212171520 METAR ESSA 171520Z 10005KT 3500 -SG BR BKN004 00/00 Q1016
                        R01L/710142 R01R///99// R08/710157
                        TEMPO BKN005=
201212171450 METAR ESSA 171450Z 09006KT 4000 -SG BR BKN004 00/00 Q1016
                        R01L/710142 R01R///99// R08/710157
                        TEMPO BKN005=
201212171420 METAR ESSA 171420Z 09006KT 4500 -SG BR SCT004 BKN005 00/00
                        Q1016 R01L/710151 R01R///99// R08/710157
                        TEMPO 6000=
201212171350 METAR ESSA 171350Z 09006KT 4500 -SG BR FEW004 BKN005 00/00
                        Q1016 R01L/710135 R01R///99// R08/710157
                        TEMPO 6000=
201212171320 METAR ESSA 171320Z 09006KT 4000 -SG BR FEW004 BKN005 00/00
                        Q1016 R01L/710135 R01R///99// R08/710161
                        NOSIG=
201212171250 METAR ESSA 171250Z 08006KT 4000 -SG BR FEW004 BKN005 00/00
                        Q1015 R01L/710164 R01R///99// R08/710161
                        NOSIG=
201212171220 METAR ESSA 171220Z 08006KT 4000 -SG BR SCT005 BKN007 00/00
                        Q1015 R01L/710164 R01R///99// R08/710161
                        TEMPO 5000 BKN015=
201212171150 METAR ESSA 171150Z 09005KT 4500 -SN BR FEW005 BKN007 01/01
                        Q1015 R01L/710155 R01R///99// R08/710161
                        TEMPO 5000 BKN015=
201212171120 METAR ESSA 171120Z 08005KT 2800 -SN BR VV006 00/00 Q1015
                        R01L/710159 R01R///99// R08/710160
                        TEMPO 5000 BKN015=
201212171050 METAR ESSA 171050Z 10005KT 2500 -SN BR VV006 00/00 Q1015
                        R01L/710159 R01R///99// R08/710160
                        TEMPO 5000 BKN015=
201212171020 METAR ESSA 171020Z 09006KT 2200 -SN BR VV006 00/00 Q1015
                        R01L/710125 R01R///99// R08/710157
                        TEMPO 5000 BKN015=
201212170950 METAR ESSA 170950Z 09006KT 2500 -SN BR VV006 00/00 Q1015
                        R01L/710160 R01R///99// R08/710157
                        NOSIG=
201212170915 METAR ESSA 170915Z 09006KT 2800 -SN BR VV006 00/00 Q1015
                        R01L/710160 R01R///99// R08/710157
                        NOSIG=
201212170850 METAR ESSA 170850Z 09005KT 2600 -SN BR VV006 00/00 Q1015
                        R01L/710126 R01R///99// R08/710154
                        NOSIG=
201212170820 METAR ESSA 170820Z 09006KT 2800 -SN BR VV006 00/00 Q1015
                        R01L/710126 R01R///99// R08/710154
                        NOSIG=
201212170750 METAR ESSA 170750Z 08005KT 2700 -SN BR VV006 00/00 Q1014
                        R01L/710126 R01R///99// R08/710139
                        NOSIG=
201212170720 METAR ESSA 170720Z 09005KT 2800 -SN BR VV005 00/00 Q1014
                        R01L/710134 R01R///99// R08/710139
                        NOSIG=
201212170650 METAR ESSA 170650Z 09005KT 3000 -SN BR VV005 00/00 Q1014
                        R01L/710134 R01R///99// R08/710148
                        TEMPO 2000=
201212170620 METAR ESSA 170620Z 09005KT 3000 -SN BR VV006 00/00 Q1014
                        R01L/710135 R01R///99// R08/710169
                        TEMPO 2000=
201212170550 METAR ESSA 170550Z 09005KT 3500 -SN VV006 00/00 Q1014 R01L/710164
                        R01R///99// R08/710169 TEMPO 2000=
201212170520 METAR ESSA 170520Z 09006KT 3500 -SNRA BKN005 00/00 Q1014
                        R01L/710159 R01R///99// R08/710160
                        TEMPO 2000 BKN012=
201212170450 METAR ESSA 170450Z 08006KT 3000 -SN BKN006 00/00 Q1014 R01L/710159
                        R01R///99// R08/710160 TEMPO 2000
                        BKN012=
201212170420 METAR ESSA 170420Z 08006KT 4000 -SN SCT006 BKN018 00/00 Q1014
                        R01L/710159 R01R///99// R08/710160
                        BECMG 2500 -SN VV008=
201212170350 METAR ESSA 170350Z 08007KT 8000 BR FEW011 SCT015 BKN026 01/00
                        Q1013 R01L/710159 R01R///99// R08/710160
                        BECMG 2500 -SN VV008=
201212170320 METAR ESSA 170320Z 08006KT 8000 BR BKN012 01/01 Q1013 R01L/710159
                        R01R///99// R08/710160 BECMG 2500
                        -SN VV008=
201212170250 METAR ESSA 170250Z 08006KT 8000 BR BKN012 01/01 Q1013 R01L/710159
                        R01R///99// R08/710160 BECMG 2500
                        -SN VV008=
201212170220 METAR ESSA 170220Z 09005KT 7000 BR FEW005 BKN012 01/01 Q1013
                        R01L/710159 R01R///99// R08/710160
                        NOSIG=
201212170150 METAR ESSA 170150Z 10005KT 5000 BR SCT004 BKN012 01/01 Q1013
                        R01L/710159 R01R///99// R08/710160
                        NOSIG=
201212170120 METAR ESSA 170120Z 09005KT 3000 BR BKN004 01/01 Q1013 R01L/710159
                        R01R///99// R08/710160 TEMPO 6000
                        BKN006=
201212170050 METAR ESSA 170050Z 09006KT 4000 BR BKN004 00/00 Q1013 R01L/710159
                        R01R///99// R08/710160 TEMPO 3000=
201212170020 METAR ESSA 170020Z 08005KT 5000 BR SCT005 BKN025 00/00 Q1013
                        R01L/710159 R01R///99// R08/710160
                        TEMPO BKN013=
201212162350 METAR ESSA 162350Z 08005KT 5000 BR FEW012 BKN022 00/00 Q1013
                        R01L/710159 R01R///99// R08/710160
                        TEMPO BKN013=
201212162320 METAR ESSA 162320Z 08005KT 5000 BR FEW005 BKN020 M00/M00
                        Q1013 R01L/710159 R01R///99// R08/710160
                        TEMPO BKN013=
201212162250 METAR ESSA 162250Z 07005KT 5000 BR FEW006 BKN017 M00/M00
                        Q1013 R01L/610161 R01R///99// R08/710160
                        TEMPO BKN013=
201212162220 METAR ESSA 162220Z 08005KT 5000 BR FEW006 BKN016 M00/M00
                        Q1013 R01L/610161 R01R///99// R08/710160
                        TEMPO BKN013=
201212162150 METAR ESSA 162150Z 08006KT 7000 BR FEW010 BKN015 M00/M00
                        Q1013 R01L/610161 R01R///99// R08/610163
                        TEMPO BKN012=
201212162120 METAR ESSA 162120Z 06004KT 9000 BR SCT026 BKN092 M01/M01
                        Q1013 R01L/610161 R01R///99// R08/610163
                        NOSIG=
201212162050 METAR ESSA 162050Z 07006KT CAVOK M01/M01 Q1013 R01L/610161
                        R01R///99// R08/610163 NOSIG=
201212162020 METAR ESSA 162020Z 08005KT CAVOK M00/M01 Q1013 R01L/610161
                        R01R///99// R08/610163 NOSIG=
201212161950 METAR ESSA 161950Z 08005KT 060V120 CAVOK M00/M00 Q1012 R01L/610161
                        R01R///99// R08/610163 NOSIG=
201212161920 METAR ESSA 161920Z 08005KT CAVOK M00/M00 Q1012 R01L/610161
                        R01R///99// R08/610163 NOSIG=
201212161850 METAR ESSA 161850Z 08005KT CAVOK M00/M00 Q1012 R01L/610161
                        R01R///99// R08/610163 NOSIG=
201212161820 METAR ESSA 161820Z 08005KT CAVOK M00/M00 Q1012 R01L/610161
                        R01R///99// R08/610163 NOSIG=
201212161750 METAR ESSA 161750Z 08006KT CAVOK M00/M00 Q1012 R01L/610161
                        R01R///99// R08/610163 NOSIG=
201212161720 METAR ESSA 161720Z 08006KT CAVOK M00/M00 Q1012 R01L/610161
                        R01R///99// R08/610163 NOSIG=
201212161650 METAR ESSA 161650Z 08005KT CAVOK M00/M00 Q1012 R01L/610161
                        R01R///99// R08/610163 NOSIG=
201212161620 METAR ESSA 161620Z 10005KT CAVOK M00/M00 Q1012 R01L/610161
                        R01R///99// R08/610163 NOSIG=
201212161550 METAR ESSA 161550Z 10005KT 8000 BR FEW020 BKN038 M00/M00
                        Q1012 R01L/610161 R01R///99// R08/610163
                        NOSIG=
201212161520 METAR ESSA 161520Z 09006KT 8000 BR FEW008 BKN037 M00/M00
                        Q1012 R01L/610161 R01R///99// R08/610163
                        TEMPO BKN012=
201212161450 METAR ESSA 161450Z 11006KT 6000 BR SCT008 BKN035 M00/M00
                        Q1011 R01L/610161 R01R///99// R08/610163
                        TEMPO BKN012=
201212161420 METAR ESSA 161420Z 11006KT 6000 BR SCT007 BKN010 M00/M00
                        Q1011 R01L/610161 R01R///99// R08/610163
                        NOSIG=
201212161350 METAR ESSA 161350Z 10007KT 6000 -RASN SCT006 BKN010 M00/M00
                        Q1011 R01L/610155 R01R///99// R08/610163
                        NOSIG=
201212161320 METAR ESSA 161320Z 11007KT 4000 -RASN SCT006 BKN008 00/00
                        Q1011 R01L/610155 R01R///99// R08/610163
                        TEMPO 6000 BKN010=
201212161250 METAR ESSA 161250Z 11007KT 4000 -RASN SCT006 BKN008 00/00
                        Q1011 R01L/610161 R01R///99// R08/610166
                        TEMPO 6000 BKN010=
201212161220 METAR ESSA 161220Z 11007KT 4000 -RASN SCT006 BKN008 00/00
                        Q1011 R01L/610161 R01R///99// R08/610166
                        TEMPO 6000 BKN010=
201212161150 METAR ESSA 161150Z 11006KT 4000 -RASN SCT006 BKN008 01/01
                        Q1011 R01L/610161 R01R///99// R08/610166
                        TEMPO 6000 BKN010=
201212161120 METAR ESSA 161120Z 12007KT 4000 -RASN SCT006 BKN008 01/01
                        Q1011 R01L/610165 R01R///99// R08/610166
                        TEMPO 6000 BKN010=
201212161050 METAR ESSA 161050Z 11005KT 4000 -RASN SCT005 BKN007 00/00
                        Q1011 R01L/610165 R01R///99// R08/610166
                        NOSIG=
201212161020 METAR ESSA 161020Z 11006KT 4000 -RASN SCT005 BKN007 01/01
                        Q1011 R01L/710165 R01R///99// R08/710166
                        NOSIG=
201212160950 METAR ESSA 160950Z 12006KT 4000 -RASN SCT005 BKN007 00/00
                        Q1011 R01L/710165 R01R///99// R08/710166
                        NOSIG=
201212160920 METAR ESSA 160920Z 11006KT 4000 -RASN SCT005 BKN007 00/00
                        Q1011 R01L/710131 R01R///99// R08/710164
                        TEMPO 3000=
201212160850 METAR ESSA 160850Z 11006KT 3000 -RASN SCT005 BKN007 00/00
                        Q1010 R01L/710157 R01R///99// R08/710164
                        TEMPO 5000=
201212160820 METAR ESSA 160820Z 12006KT 3000 -RASN BKN007 00/00 Q1010
                        R01L/710157 R01R///99// R08/710164
                        TEMPO 5000=
201212160750 METAR ESSA 160750Z 12006G17KT 4000 -RASN BKN007 00/00 Q1010
                        R01L/710162 R01R///99// R08/710154
                        TEMPO 5000=
201212160720 METAR ESSA 160720Z 12007KT 4000 -RASN BKN007 00/00 Q1010
                        R01L/710162 R01R///99// R08/710154
                        TEMPO 5000=
201212160650 METAR ESSA 160650Z 12006KT 4000 -RASN BKN007 00/00 Q1010
                        R01L/710161 R01R///99// R08/710154
                        TEMPO 5000=
201212160620 METAR ESSA 160620Z 12007KT 5000 -RASN BKN007 00/00 Q1010
                        R01L/710153 R01R///99// R08/710154
                        TEMPO 3000=
201212160550 METAR ESSA 160550Z 12008KT 4500 -RASN BKN007 00/00 Q1009
                        R01L/710161 R01R///99// R08/710154
                        BECMG 6000=
201212160520 METAR COR ESSA 160520Z 12008KT 4500 -RASN BKN007 BKN012 00/00
                        Q1010 R01L/710161 R01R///99// R08/710154
                        BECMG 6000=
201212160450 METAR ESSA 160450Z 13008KT 4500 -RASN BKN006 00/00 Q1010
                        R01L/710163 R01R///99// R08/710169
                        BECMG 6000=
201212160420 METAR ESSA 160420Z 12009KT 4500 -RASN BKN006 00/00 Q1009
                        R01L/710163 R01R///99// R08/710169
                        BECMG 6000=
201212160350 METAR ESSA 160350Z 12010KT 3000 -RASN BKN006 00/00 Q1009
                        R01L/710163 R01R///99// R08/710169
                        BECMG 6000=
201212160320 METAR ESSA 160320Z 12009KT 1800 -SN BKN006 00/00 Q1009 R01L/710163
                        R01R///99// R08/710169 BECMG 6000=
201212160250 METAR ESSA 160250Z 12010KT 6000 -RASN BKN006 01/01 Q1009
                        R01L/710163 R01R///99// R08/710169
                        TEMPO 2000=
201212160220 METAR ESSA 160220Z 13010KT 4500 -SN BKN006 01/01 Q1009 R01L/710163
                        R01R///99// R08/710169 TEMPO 2000=
201212160150 METAR ESSA 160150Z 13011KT 4500 -SN BKN006 01/01 Q1009 R01L/710163
                        R01R///99// R08/710169 TEMPO 2000=
201212160120 METAR ESSA 160120Z 13011KT 8000 -RASN BKN006 01/01 Q1009
                        R01L/710163 R01R///99// R08/710169
                        TEMPO 2000=
201212160050 METAR ESSA 160050Z 13010KT 9999 -RASN BKN006 01/01 Q1009
                        R01L/710163 R01R///99// R08/710169
                        TEMPO 2000=
201212160020 METAR ESSA 160020Z 13013KT 8000 -RASN BKN006 01/01 Q1009
                        R01L/710163 R01R///99// R08/710169
                        TEMPO 2000=
201212152350 METAR ESSA 152350Z 13011KT 5000 -RASN BKN006 01/01 Q1009
                        R01L/710163 R01R///99// R08/710169
                        TEMPO 2000=
201212152320 METAR ESSA 152320Z 13011KT 6000 -SN BKN006 01/01 Q1009 R01L/710165
                        R01R///99// R08/710168 TEMPO 2000=
201212152250 METAR ESSA 152250Z 13010KT 5000 -SN BKN006 01/01 Q1009 R01L/710165
                        R01R///99// R08/710168 TEMPO 2000=
201212152220 METAR ESSA 152220Z 13010KT 3500 -SN BKN006 01/01 Q1009 R01L/710165
                        R01R///99// R08/710168 BECMG 7000=
201212152150 METAR ESSA 152150Z 14010KT 3500 -SN BKN006 01/01 Q1009 R01L/710165
                        R01R///99// R08/710168 BECMG 7000=
201212152120 METAR ESSA 152120Z 14011KT 3000 -SN BKN007 01/01 Q1009 R01L/720147
                        R01R///99// R08/720150 BECMG 7000=
201212152050 METAR ESSA 152050Z 14012KT 3500 -SN BKN007 01/01 Q1009 R01L/720147
                        R01R///99// R08/720150 TEMPO 2000=
201212152020 METAR ESSA 152020Z 14012KT 7000 -SN BKN007 BKN013 01/01 Q1009
                        R01L/720147 R01R///99// R08/720150
                        TEMPO 1400=
201212151950 METAR ESSA 151950Z 14012KT 3000 -SN BKN006 BKN012 01/01 Q1009
                        R01L/710161 R01R///99// R08/710171
                        TEMPO 1400=
201212151920 METAR ESSA 151920Z 13012KT 2500 -SN BKN006 BKN012 01/01 Q1009
                        R01L/710141 R01R///99// R08/710171
                        TEMPO 1400=
201212151850 METAR ESSA 151850Z 13013KT 2000 -SN FEW003 BKN006 BKN012
                        01/01 Q1009 R01L/710141 R01R///99//
                        R08/710172 TEMPO 1400=
201212151820 METAR COR ESSA 151820Z 14014KT 2500 -SN FEW003 BKN006 BKN013
                        01/01 Q1009 R01L/710165 R01R///99//
                        R08/710172 TEMPO 1400=
201212151750 METAR ESSA 151750Z 14015KT 8000 -SN BKN007 BKN013 01/01 Q1008
                        R01L/710165 R01R///99// R08/610172
                        TEMPO 1400=
201212151720 METAR ESSA 151720Z 14015KT 5000 -SN BR BKN007 BKN012 01/01
                        Q1009 R01L/610161 R01R///99// R08/610160
                        TEMPO 1400=
201212151650 METAR ESSA 151650Z 14013KT 2500 -SN BR BKN006 BKN014 01/01
                        Q1009 R01L/610161 R01R///99// R08/610159
                        TEMPO 1400=
201212151620 METAR COR ESSA 151620Z 14013KT 2500 -SN BR BKN006 BKN013
                        01/01 Q1009 R01L/610162 R01R///99//
                        R08/610159 TEMPO 1400=
201212151550 METAR ESSA 151550Z 14014KT 2000 -SN BR BKN006 01/01 Q1009
                        RESN R01L/710157 R01R///99// R08/710155
                        TEMPO 1400=
201212151520 METAR ESSA 151520Z 14015KT 1400 R01L/P1500N R19R/P1500N R01R/P1500N
                        R19L/P1500N SN BR VV008 01/01 Q1009
                        R01L/710157 R01R///99// R08/710155
                        TEMPO 1500=
201212151450 METAR ESSA 151450Z 14016KT 1400 R01L/P1500N R19R/P1500N R01R/P1500N
                        R19L/P1500N SN BR VV008 00/00 Q1009
                        R01L/710151 R01R///99// R08/710152
                        TEMPO 1500=
201212151420 METAR ESSA 151420Z 13016KT 1500 SN BR FEW004 BKN007 00/00
                        Q1009 R01L/710162 R01R///99// R08/710163
                        TEMPO 1200=
201212151350 METAR ESSA 151350Z 13017KT 1500 SN BR BKN008 00/00 Q1009
                        R01L/710162 R01R///99// R08/710163
                        TEMPO 1200=
201212151320 METAR ESSA 151320Z 13015G26KT 2000 -SN BR BKN009 00/00 Q1009
                        R01L/710162 R01R///99// R08/710163
                        TEMPO 1200=
201212151250 METAR ESSA 151250Z 12016G29KT 4000 -SN BR BKN009 00/M00 Q1009
                        R01L/710148 R01R///99// R08/710163
                        TEMPO 2000=
201212151220 METAR ESSA 151220Z 13021KT 6000 -SN BR BKN009 01/M00 Q1009
                        R01L/710148 R01R///99// R08/710163
                        BECMG 3000=
201212151150 METAR ESSA 151150Z 13020G30KT 7000 -SN SCT009 BKN010 01/M01
                        Q1010 R01L/710162 R01R///99// R08/710164
                        BECMG 3000 BKN009=
201212151120 METAR ESSA 151120Z 14020KT 7000 -SN BKN010 01/M01 Q1010 R01L/710162
                        R01R///99// R08/710164 BECMG 3000
                        -SN BKN009=
201212151050 METAR ESSA 151050Z 13018KT 9999 FEW009 BKN011 01/M01 Q1010
                        R01L/710160 R01R///99// R08/710163
                        BECMG 3000 -SN BKN009=
201212151020 METAR ESSA 151020Z 13018KT 9999 BKN011 01/M01 Q1011 R01L/710160
                        R01R///99// R08/710163 BECMG 3000
                        -SN=
201212150950 METAR ESSA 150950Z 13016KT 9999 BKN012 01/M01 Q1011 R01L/710160
                        R01R///99// R08/710163 NOSIG=
201212150920 METAR ESSA 150920Z 13015KT 9999 BKN013 01/M01 Q1011 R01L/710162
                        R01R///99// R08/710170 NOSIG=
201212150850 METAR ESSA 150850Z 12013KT 9999 BKN014 01/M01 Q1012 R01L/710162
                        R01R///99// R08/710170 TEMPO BKN015=
201212150820 METAR ESSA 150820Z 13014G24KT 9999 BKN014 00/M02 Q1012 R01L/710162
                        R01R///99// R08/710170 TEMPO BKN015=
201212150750 METAR ESSA 150750Z 12015KT 9999 BKN014 00/M02 Q1013 R01L/710162
                        R01R///99// R08/710170 TEMPO BKN015=
201212150720 METAR ESSA 150720Z 12014KT 9999 FEW013 BKN014 00/M02 Q1013
                        R01L/710162 R01R///99// R08/710170
                        TEMPO BKN015=
201212150650 METAR ESSA 150650Z 13013KT 9999 SCT013 BKN015 M00/M02 Q1013
                        R01L/710162 R01R///99// R08/710170
                        TEMPO BKN013=
201212150620 METAR ESSA 150620Z 12012KT 8000 BKN015 M00/M02 Q1013 R01L/710162
                        R01R///99// R08/710170 NOSIG=
201212150550 METAR ESSA 150550Z 11012G24KT 9999 BKN017 M00/M03 Q1014 R01L/710162
                        R01R///99// R08/710170 NOSIG=
201212150520 METAR ESSA 150520Z 11013KT 9999 BKN019 M00/M03 Q1014 R01L/710162
                        R01R///99// R08/710170 NOSIG=
201212150450 METAR ESSA 150450Z 12011KT 9999 BKN020 M01/M03 Q1015 R01L/710162
                        R01R///99// R08/710170 NOSIG=
201212150420 METAR ESSA 150420Z 11010KT 9999 BKN020 M01/M03 Q1015 R01L/710162
                        R01R///99// R08/710170 NOSIG=
201212150350 METAR ESSA 150350Z 11010KT 9999 BKN022 M01/M03 Q1015 R01L/710154
                        R01R///99// R08/710166 NOSIG=
201212150320 METAR ESSA 150320Z 11009KT 9999 OVC028 M01/M03 Q1016 R01L/710154
                        R01R///99// R08/710166 NOSIG=
201212150250 METAR ESSA 150250Z 11008KT 9999 BKN035 M02/M04 Q1016 R01L/710154
                        R01R///99// R08/710166 NOSIG=
201212150220 METAR ESSA 150220Z 11008KT 9999 BKN036 M02/M04 Q1017 R01L/710154
                        R01R///99// R08/710166 NOSIG=
201212150150 METAR ESSA 150150Z 09008KT 9999 BKN035 M02/M04 Q1017 R01L/710154
                        R01R///99// R08/710166 NOSIG=
201212150120 METAR ESSA 150120Z 10007KT 9999 BKN034 M02/M04 Q1018 R01L/710154
                        R01R///99// R08/710166 NOSIG=
201212150050 METAR ESSA 150050Z 08007KT 9999 BKN034 M02/M04 Q1018 R01L/710154
                        R01R///99// R08/710166 NOSIG=
201212150020 METAR ESSA 150020Z 10008KT 9999 BKN027 M02/M04 Q1019 R01L/710154
                        R01R///99// R08/710166 NOSIG=
201212142350 METAR ESSA 142350Z 10010KT 9999 BKN031 M02/M04 Q1019 R01L/710154
                        R01R///99// R08/710166 NOSIG=
201212142320 METAR ESSA 142320Z 11011KT 9999 BKN027 M02/M04 Q1019 R01L/710154
                        R01R///99// R08/710166 NOSIG=
201212142250 METAR ESSA 142250Z 09008KT 9999 SCT025 BKN032 M02/M04 Q1020
                        R01L/710154 R01R///99// R08/710166
                        NOSIG=
201212142220 METAR ESSA 142220Z 09007KT 9999 SCT027 BKN032 M03/M04 Q1020
                        R01L/710154 R01R///99// R08/710166
                        NOSIG=
201212142150 METAR ESSA 142150Z 09006KT 9999 BKN034 M03/M04 Q1020 R01L/710154
                        R01R///99// R08/710166 NOSIG=
201212142120 METAR ESSA 142120Z 09007KT 9999 FEW035 BKN046 M03/M03 Q1021
                        R01L/710159 R01R///99// R08/710159
                        NOSIG=
201212142050 METAR ESSA 142050Z 08006KT 9999 BKN035 M04/M04 Q1021 R01L/710159
                        R01R///99// R08/710159 NOSIG=
201212142020 METAR ESSA 142020Z 09007KT 9999 BKN035 M03/M04 Q1021 R01L/710159
                        R01R///99// R08/710159 NOSIG=
201212141950 METAR ESSA 141950Z 07007KT 9999 FEW015 BKN030 M05/M05 Q1021
                        R01L/710159 R01R///99// R08/710159
                        NOSIG=
201212141920 METAR ESSA 141920Z 08008KT 9999 BKN042 M06/M06 Q1021 R01L/720117
                        R01R///99// R08/710134 NOSIG=
201212141850 METAR ESSA 141850Z 08008KT CAVOK M06/M07 Q1021 RESHSN R01L/720117
                        R01R///99// R08/710134 NOSIG=
201212141820 METAR COR ESSA 141820Z 07010KT 2000 SHSN FEW019 SCT023 BKN037
                        M06/M07 Q1021 R01L/720119 R01R///99//
                        R08/710134 BECMG 9999 NSW=
201212141750 METAR ESSA 141750Z 07009KT 4000 -SHSN FEW021 BKN024 M07/M07
                        Q1021 R01L/710155 R01R///99// R08/720122
                        TEMPO 2000=
201212141720 METAR COR ESSA 141720Z 07009KT 9999 BKN027 M07/M08 Q1021
                        R01L/710164 R01R///99// R08/710166
                        TEMPO 2000 -SHSN=
201212141650 METAR ESSA 141650Z 07008KT 4000 -SHSN FEW020 BKN035 M08/M08
                        Q1022 R01L/710164 R01R///99// R08/710166
                        TEMPO 2000=
201212141620 METAR ESSA 141620Z 07009KT 9999 FEW024 SCT040 M08/M09 Q1022
                        R01L/710164 R01R///99// R08/710166
                        BECMG 3000 -SHSN=
201212141550 METAR ESSA 141550Z 07007KT 9999 FEW036 SCT039 M09/M09 Q1022
                        R01L/710164 R01R///99// R08/710166
                        BECMG 3000 -SHSN=
201212141520 METAR ESSA 141520Z 08007KT 4200 FEW032 SCT039 M09/M09 Q1022
                        R01L/710164 R01R///99// R08/710166
                        BECMG 3000 -SHSN=
201212141450 METAR ESSA 141450Z 07007KT CAVOK M09/M09 Q1022 R01L/710164
                        R01R///99// R08/710166 BECMG 3000
                        -SHSN=
201212141420 METAR ESSA 141420Z 08006KT CAVOK M09/M09 Q1022 R01L/710164
                        R01R///99// R08/710166 NOSIG=
201212141350 METAR ESSA 141350Z 08005KT 9999 SCT021 M09/M10 Q1022 R01L/710164
                        R01R///99// R08/710166 NOSIG=
201212141320 METAR ESSA 141320Z 07005KT CAVOK M08/M09 Q1022 R01L/710158
                        R01R///99// R08/710166 NOSIG=
201212141250 METAR ESSA 141250Z 09004KT CAVOK M07/M08 Q1021 R01L/710158
                        R01R///99// R08/710162 NOSIG=
201212141220 METAR ESSA 141220Z 08003KT 060V130 CAVOK M08/M09 Q1021 R01L/710158
                        R01R///99// R08/710162 NOSIG=
201212141150 METAR ESSA 141150Z 01002KT 9999 -SN FEW035 SCT038 M07/M08
                        Q1021 R01L/710158 R01R///99// R08/710155
                        NOSIG=
201212141120 METAR ESSA 141120Z 06002KT 9000 -SN FEW021 SCT035 M07/M08
                        Q1021 R01L/710158 R01R///99// R08/710155
                        NOSIG=
201212141050 METAR ESSA 141050Z 16002KT 9000 -SN SCT005 BKN015 M07/M09
                        Q1021 R01L/710158 R01R///99// R08/710155
                        NOSIG=
201212141020 METAR ESSA 141020Z 20003KT 6000 -SN FEW010 SCT018 BKN034
                        M08/M09 Q1021 R01L/710154 R01R///99//
                        R08/710149 BECMG 4000=
201212140950 METAR ESSA 140950Z 24003KT 200V260 2000 -SN FEW005 SCT017
                        BKN019 M08/M09 Q1021 R01L/710146
                        R01R///99// R08/710149 BECMG 4000=
201212140920 METAR ESSA 140920Z 26004KT 2000 -SN VV016 M08/M09 Q1021 R01L/710156
                        R01R///99// R08/710165 BECMG 4000=
201212140850 METAR ESSA 140850Z 25003KT 1500 R01L/P1500N R19R/P1500N R01R/P1500N
                        R19L/P1500N -SN VV016 M09/M09 Q1020
                        R01L/710156 R01R///99// R08/710165
                        BECMG 4000=
201212140820 METAR ESSA 140820Z 25004KT 2000 -SN FEW006 SCT023 BKN031
                        M09/M09 Q1020 R01L/710162 R01R///99//
                        R08/710162 BECMG 4000=
201212140750 METAR ESSA 140750Z VRB02KT 6000 -SN FEW007 BKN030 M09/M10
                        Q1020 R01L/710164 R01R///99// R08/710162
                        NOSIG=
201212140720 METAR ESSA 140720Z 27004KT 8000 -SN SCT005 BKN033 M09/M10
                        Q1019 R01L/710164 R01R///99// R08/710162
                        NOSIG=
201212140650 METAR ESSA 140650Z 29003KT 8000 -SN SCT033 BKN036 M09/M10
                        Q1019 R01L/710142 R01R///99// R08/710138
                        NOSIG=
201212140620 METAR ESSA 140620Z 34004KT 7000 -SN SCT035 BKN044 M08/M10
                        Q1019 R01L/710142 R01R///99// R08/710138
                        NOSIG=
201212140550 METAR ESSA 140550Z 32006KT 6000 -SN SCT030 BKN036 M08/M10
                        Q1018 R01L/710159 R01R///99// R08/710155
                        NOSIG=
201212140520 METAR ESSA 140520Z 33003KT 9000 -SN BKN012 M08/M09 Q1018
                        R01L/710159 R01R///99// R08/710155
                        NOSIG=
201212140450 METAR ESSA 140450Z 34002KT 9999 -SN BKN013 M09/M10 Q1018
                        R01L/710159 R01R///99// R08/710155
                        TEMPO BKN009=
201212140420 METAR ESSA 140420Z 32002KT 9999 BKN014 M09/M10 Q1018 RESG
                        R01L/710159 R01R///99// R08/710155
                        TEMPO BKN009=
201212140350 METAR ESSA 140350Z 36002KT 9999 SCT016 BKN031 M09/M10 Q1018
                        R01L/710159 R01R///99// R08/710155
                        NOSIG=
201212140320 METAR ESSA 140320Z 31003KT 9999 BKN031 M08/M10 Q1017 R01L/710166
                        R01R///99// R08/710159 NOSIG=
201212140250 METAR COR ESSA 140250Z 31004KT 9999 BKN031 M08/M09 Q1017
                        R01L/710166 R01R///99// R08/710159
                        NOSIG=
201212140220 METAR ESSA 140220Z 29004KT 9999 BKN030 M08/M09 Q1017 R01L/710166
                        R01R///99// R08/710159 NOSIG=
201212140150 METAR ESSA 140150Z 34004KT 9999 BKN028 M08/M10 Q1017 R01L/710166
                        R01R///99// R08/710159 NOSIG=
201212140120 METAR ESSA 140120Z 32003KT 290V350 9999 BKN029 M08/M09 Q1017
                        R01L/710166 R01R///99// R08/710159
                        NOSIG=
201212140050 METAR ESSA 140050Z 32006KT 9999 BKN028 M08/M10 Q1016 R01L/710166
                        R01R///99// R08/710159 NOSIG=
201212140020 METAR ESSA 140020Z 29005KT 9999 BKN028 M08/M09 Q1016 R01L/710166
                        R01R///99// R08/710159 NOSIG=
201212132350 METAR ESSA 132350Z 29005KT 9999 BKN028 M08/M09 Q1016 R01L/710166
                        R01R///99// R08/710159 NOSIG=
201212132320 METAR ESSA 132320Z 30006KT 9999 BKN028 M08/M09 Q1016 R01L/710166
                        R01R///99// R08/710159 NOSIG=
201212132250 METAR ESSA 132250Z 29005KT 9999 BKN028 M08/M09 Q1015 R01L/710166
                        R01R///99// R08/710159 NOSIG=
201212132220 METAR ESSA 132220Z 30004KT 9999 SCT030 BKN051 M08/M09 Q1015
                        R01L/710166 R01R///99// R08/710159
                        NOSIG=
201212132150 METAR ESSA 132150Z 28003KT CAVOK M08/M09 Q1015 R01L/710166
                        R01R///99// R08/710159 NOSIG=
201212132120 METAR ESSA 132120Z 31005KT CAVOK M08/M09 Q1015 R01L/710166
                        R01R///99// R08/710159 NOSIG=
201212132050 METAR ESSA 132050Z 32006KT 9999 -SN BKN049 M07/M09 Q1014
                        R01L/710158 R01R///99// R08/710160
                        NOSIG=
201212132020 METAR ESSA 132020Z 32005KT 290V010 9999 -SN SCT027 BKN033
                        M07/M08 Q1014 R01L/710158 R01R///99//
                        R08/710160 NOSIG=
201212131950 METAR ESSA 131950Z 33005KT 9999 -SN BKN032 M07/M08 Q1014
                        R01L/710158 R01R///99// R08/710160
                        NOSIG=
201212131920 METAR ESSA 131920Z 31005KT 9999 BKN031 M07/M08 Q1014 R01L/710158
                        R01R///99// R08/710160 NOSIG=
201212131850 METAR ESSA 131850Z 32006KT 9999 BKN028 M07/M08 Q1014 R01L/710158
                        R01R///99// R08/710160 NOSIG=
201212131820 METAR ESSA 131820Z 31006KT 9999 BKN023 M07/M08 Q1014 R01L/710149
                        R01R///99// R08/710155 NOSIG=
201212131750 METAR ESSA 131750Z 31007KT 9999 -SN BKN021 M07/M08 Q1014
                        R01L/710149 R01R///99// R08/710150
                        NOSIG=
201212131720 METAR ESSA 131720Z 32006KT 9999 -SN BKN020 M07/M08 Q1014
                        R01L/710145 R01R///99// R08/710150
                        NOSIG=
201212131650 METAR ESSA 131650Z 32007KT 9999 -SN BKN019 M07/M08 Q1014
                        R01L/710135 R01R///99// R08/710138
                        TEMPO 4000=
201212131620 METAR COR ESSA 131620Z 32007KT 7000 -SN BKN020 M07/M08 Q1014
                        R01L/710135 R01R///99// R08/710138
                        TEMPO 3000 SN BKN007=
201212131550 METAR ESSA 131550Z 31006KT 4500 -SN FEW006 BKN027 M08/M09
                        Q1014 R01L/710135 R01R///99// R08/710135
                        TEMPO 3000 SN BKN007=
201212131520 METAR ESSA 131520Z 32007KT 4500 -SN BKN018 M08/M09 Q1014
                        R01L/710137 R01R///99// R08/710138
                        TEMPO 3000 SN BKN007=
201212131450 METAR ESSA 131450Z 32007KT 5000 -SN FEW007 BKN019 M08/M09
                        Q1014 R01L/710137 R01R///99// R08/710138
                        TEMPO 3000 SN BKN007=
201212131420 METAR ESSA 131420Z 33009KT 5000 -SN FEW007 BKN018 M08/M09
                        Q1014 R01L/710158 R01R///99// R08/710157
                        TEMPO 3000 SN BKN007=
201212131350 METAR ESSA 131350Z 33008KT 4000 -SN FEW010 BKN017 M08/M09
                        Q1014 R01L/710158 R01R///99// R08/710157
                        TEMPO 3000 SN BKN007=
201212131320 METAR ESSA 131320Z 33009KT 5000 -SN SCT005 BKN016 M08/M09
                        Q1014 R01L/710158 R01R///99// R08/710157
                        TEMPO 4000 BKN007=
201212131250 METAR ESSA 131250Z 32009KT 9999 -SN BKN016 M08/M09 Q1014
                        R01L/710158 R01R///99// R08/710157
                        TEMPO 4000 BKN007=
201212131220 METAR ESSA 131220Z 32008KT 7000 -SG FEW006 BKN015 M08/M10
                        Q1014 R01L/710158 R01R///99// R08/710157
                        TEMPO 4000 -SN BKN007=
201212131150 METAR ESSA 131150Z 32007KT 9999 -SG FEW007 BKN019 M08/M10
                        Q1015 R01L/710158 R01R///99// R08/710157
                        TEMPO 4000 -SN BKN010=
201212131120 METAR ESSA 131120Z 32006KT 9999 -SG FEW006 BKN007 M08/M10
                        Q1015 R01L/710158 R01R///99// R08/710157
                        TEMPO 4000 -SN BKN010=
201212131050 METAR ESSA 131050Z 32007KT 9999 FEW006 BKN007 M09/M10 Q1015
                        R01L/710158 R01R///99// R08/710157
                        NOSIG=
201212131020 METAR ESSA 131020Z 31007KT 9999 BKN008 M09/M10 Q1015 R01L/710158
                        R01R///99// R08/710157 TEMPO BKN020=
201212130950 METAR ESSA 130950Z 31006KT 9999 BKN008 M09/M10 Q1016 R01L/710158
                        R01R///99// R08/710157 TEMPO BKN020=
201212130920 METAR ESSA 130920Z 30005KT 9999 BKN007 M09/M10 Q1016 R01L/710158
                        R01R///99// R08/710157 NOSIG=
201212130850 METAR ESSA 130850Z 29005KT 9999 -SG BKN007 M09/M11 Q1016
                        R01L/710158 R01R///99// R08/710157
                        NOSIG=
201212130820 METAR ESSA 130820Z 30006KT 9999 BKN006 M09/M11 Q1016 R01L/710158
                        R01R///99// R08/710157 NOSIG=
201212130750 METAR ESSA 130750Z 29005KT 9999 FEW004 OVC005 M10/M11 Q1016
                        R01L/710158 R01R///99// R08/710157
                        NOSIG=
201212130720 METAR ESSA 130720Z 29005KT 9999 FEW004 BKN005 M10/M11 Q1016
                        R01L/710158 R01R///99// R08/710157
                        NOSIG=
201212130650 METAR ESSA 130650Z 31005KT 9999 FEW005 BKN007 M10/M11 Q1016
                        R01L/710158 R01R///99// R08/710157
                        TEMPO BKN030=
201212130620 METAR ESSA 130620Z 30005KT 9999 FEW006 BKN007 M10/M11 Q1016
                        R01L/710158 R01R///99// R08/710157
                        TEMPO BKN030=
201212130550 METAR ESSA 130550Z 31004KT 9999 BKN006 BKN034 M10/M11 Q1016
                        R01L/710158 R01R///99// R08/710157
                        TEMPO BKN030=
201212130520 METAR ESSA 130520Z 29005KT 9999 FEW006 BKN009 BKN034 M10/M11
                        Q1016 R01L/710158 R01R///99// R08/710157
                        TEMPO BKN030=
201212130450 METAR ESSA 130450Z 29005KT 9999 -SN FEW009 BKN034 M10/M11
                        Q1016 R01L/710158 R01R///99// R08/710157
                        NOSIG=
201212130420 METAR ESSA 130420Z 28005KT 9999 -SN FEW009 BKN033 M09/M10
                        Q1016 R01L/710158 R01R///99// R08/710157
                        NOSIG=
201212130350 METAR ESSA 130350Z 29004KT 9999 -SN FEW009 BKN033 M09/M10
                        Q1017 R01L/710158 R01R///99// R08/710166
                        NOSIG=
201212130320 METAR ESSA 130320Z 27004KT 9999 -SN FEW005 BKN033 M09/M10
                        Q1017 R01L/710158 R01R///99// R08/710166
                        NOSIG=
201212130250 METAR ESSA 130250Z 28004KT 9999 -SN FEW009 BKN033 M09/M10
                        Q1017 R01L/710158 R01R///99// R08/710166
                        NOSIG=
201212130220 METAR ESSA 130220Z 27004KT 9999 -SN FEW007 BKN034 M09/M10
                        Q1017 R01L/710158 R01R///99// R08/710166
                        NOSIG=
201212130150 METAR ESSA 130150Z 29005KT 9999 FEW023 BKN034 M09/M09 Q1017
                        R01L/710158 R01R///99// R08/710166
                        NOSIG=
201212130120 METAR ESSA 130120Z 26004KT 9999 FEW006 BKN035 M09/M09 Q1017
                        R01L/710158 R01R///99// R08/710166
                        NOSIG=
201212130050 METAR ESSA 130050Z 29004KT 9999 BKN035 M08/M09 Q1017 R01L/710158
                        R01R///99// R08/710166 NOSIG=
201212130020 METAR ESSA 130020Z 29005KT 9999 FEW025 BKN035 M08/M09 Q1017
                        R01L/710158 R01R///99// R08/710166
                        NOSIG=
201212122350 METAR ESSA 122350Z 29006KT 9999 FEW025 BKN035 M08/M09 Q1017
                        R01L/710158 R01R///99// R08/710166
                        NOSIG=
201212122320 METAR ESSA 122320Z 31004KT 9999 BKN033 M08/M09 Q1017 R01L/710158
                        R01R///99// R08/710166 NOSIG=
201212122250 METAR ESSA 122250Z 31004KT 9999 BKN032 M08/M09 Q1017 R01L/710158
                        R01R///99// R08/710166 NOSIG=
201212122220 METAR ESSA 122220Z 31004KT 9999 BKN032 M08/M09 Q1017 R01L/710158
                        R01R///99// R08/710166 NOSIG=
201212122150 METAR ESSA 122150Z 31002KT 9999 FEW015 BKN033 M08/M09 Q1017
                        R01L/710158 R01R///99// R08/710166
                        NOSIG=
201212122120 METAR ESSA 122120Z VRB02KT 9999 BKN033 M08/M09 Q1017 R01L/710158
                        R01R///99// R08/710166 NOSIG=
201212122050 METAR ESSA 122050Z 28004KT 170V340 9999 FEW005 SCT014 BKN033
                        M08/M09 Q1017 R01L/710158 R01R///99//
                        R08/710166 TEMPO BKN015=
201212122020 METAR ESSA 122020Z 30007KT 9999 -SN BKN014 BKN033 M07/M09
                        Q1017 R01L/710169 R01R///99// R08/710164
                        TEMPO BKN015=
201212121950 METAR ESSA 121950Z 31004KT 9999 -SN FEW011 BKN014 M07/M09
                        Q1017 R01L/710169 R01R///99// R08/710164
                        TEMPO BKN015=
201212121920 METAR ESSA 121920Z 32005KT 9999 -SN FEW007 BKN013 M07/M09
                        Q1017 R01L/710169 R01R///99// R08/710164
                        TEMPO BKN015=
201212121850 METAR ESSA 121850Z 28005KT 9999 -SN FEW004 BKN013 M07/M09
                        Q1017 R01L/710169 R01R///99// R08/710164
                        TEMPO BKN015=
201212121820 METAR ESSA 121820Z 26005KT 9999 -SN FEW007 BKN013 M07/M09
                        Q1017 R01L/710169 R01R///99// R08/710164
                        TEMPO BKN007=
201212121750 METAR ESSA 121750Z 26005KT 9999 -SN FEW005 SCT007 BKN013
                        M07/M08 Q1017 R01L/710169 R01R///99//
                        R08/710164 TEMPO BKN007=
201212121720 METAR ESSA 121720Z 26006KT 9999 -SN SCT007 BKN010 BKN016
                        M07/M08 Q1016 R01L/710169 R01R///99//
                        R08/710164 TEMPO BKN008=
201212121650 METAR ESSA 121650Z 29006KT 9999 -SN SCT007 BKN011 BKN033
                        M07/M08 Q1016 R01L/710169 R01R///99//
                        R08/710164 TEMPO BKN008=
201212121620 METAR ESSA 121620Z 27007KT 9999 -SN SCT007 SCT011 BKN033
                        M07/M08 Q1016 R01L/710169 R01R///99//
                        R08/710164 TEMPO BKN008=
201212121550 METAR ESSA 121550Z 28006KT 9999 -SN FEW007 SCT011 BKN029
                        M06/M07 Q1016 R01L/710169 R01R///99//
                        R08/710164 TEMPO BKN008=
201212121520 METAR ESSA 121520Z 28006KT 9999 -SN FEW008 BKN010 M06/M08
                        Q1016 R01L/710168 R01R///99// R08/710164
                        TEMPO BKN008=
201212121450 METAR ESSA 121450Z 29005KT 9999 -SN SCT009 BKN010 M06/M07
                        Q1016 R01L/710159 R01R///99// R08/710165
                        NOSIG=
201212121420 METAR ESSA 121420Z 29006KT 9999 -SN FEW009 BKN010 M06/M07
                        Q1015 R01L/710159 R01R///99// R08/710165
                        NOSIG=
201212121350 METAR ESSA 121350Z 31006KT 9999 -SN FEW009 BKN010 M06/M07
                        Q1015 R01L/710159 R01R///99// R08/710165
                        TEMPO BKN015=
201212121320 METAR ESSA 121320Z 30006KT 9999 -SN BKN009 M06/M07 Q1015
                        R01L/710159 R01R///99// R08/710165
                        TEMPO BKN015=
201212121250 METAR ESSA 121250Z 31006KT 280V340 9999 -SN SCT008 BKN009
                        M06/M07 Q1015 R01L/710159 R01R///99//
                        R08/710165 TEMPO BKN015=
201212121220 METAR ESSA 121220Z 30007KT 9999 -SN SCT008 BKN009 M06/M07
                        Q1014 R01L/710159 R01R///99// R08/710165
                        TEMPO BKN015=
201212121150 METAR ESSA 121150Z 30007KT 9999 -SN SCT008 BKN009 M06/M07
                        Q1014 R01L/710159 R01R///99// R08/710165
                        TEMPO BKN015=
201212121120 METAR ESSA 121120Z 32008KT 9999 -SN SCT008 BKN009 M06/M07
                        Q1014 R01L/710159 R01R///99// R08/710165
                        TEMPO BKN015=
201212121050 METAR ESSA 121050Z 32008KT 9999 -SN SCT008 BKN009 M06/M07
                        Q1014 R01L/710159 R01R///99// R08/710165
                        TEMPO BKN015=
201212121020 METAR ESSA 121020Z 32008KT 9999 BKN009 M05/M06 Q1014 R01L/710159
                        R01R///99// R08/710165 TEMPO BKN015=
201212120950 METAR ESSA 120950Z 31007KT 9999 BKN009 M05/M06 Q1014 R01L/710159
                        R01R///99// R08/710163 TEMPO BKN015=
201212120920 METAR ESSA 120920Z 30006KT 9999 BKN009 M05/M06 Q1014 R01L/710159
                        R01R///99// R08/710163 TEMPO BKN015=
201212120850 METAR ESSA 120850Z 32006KT 300V010 9999 BKN009 M06/M06 Q1013
                        R01L/710164 R01R///99// R08/710163
                        TEMPO BKN015=
201212120820 METAR ESSA 120820Z 32006KT 9999 BKN009 M05/M06 Q1013 R01L/710164
                        R01R///99// R08/710163 TEMPO BKN015=
201212120750 METAR ESSA 120750Z 32006KT 290V010 9999 SCT008 BKN022 M05/M06
                        Q1013 R01L/710164 R01R///99// R08/710163
                        TEMPO BKN008=
201212120720 METAR ESSA 120720Z 32008KT 9999 SCT008 BKN009 M05/M06 Q1012
                        R01L/710145 R01R///99// R08/710139
                        TEMPO BKN011=
201212120650 METAR ESSA 120650Z 32009KT 9999 SCT008 BKN009 M05/M05 Q1012
                        R01L/710145 R01R///99// R08/710139
                        TEMPO BKN011=
201212120620 METAR ESSA 120620Z 31008KT 9999 SCT008 BKN009 M05/M05 Q1012
                        R01L/710145 R01R///99// R08/710139
                        NOSIG=
201212120550 METAR ESSA 120550Z 31009KT 9999 BKN007 M05/M05 Q1012 R01L/710145
                        R01R///99// R08/710139 NOSIG=
201212120520 METAR ESSA 120520Z 31009KT 9999 BKN007 M05/M05 Q1011 R01L/710145
                        R01R///99// R08/710139 NOSIG=
201212120450 METAR ESSA 120450Z 31009KT 9999 BKN007 M04/M05 Q1011 R01L/710145
                        R01R///99// R08/720138 TEMPO BKN010=
201212120420 METAR ESSA 120420Z 31010KT 9999 BKN007 M04/M04 Q1011 R01L/710131
                        R01R///99// R08/720138 TEMPO BKN010=
201212120350 METAR ESSA 120350Z 32008KT 9999 BKN006 M04/M04 Q1011 R01L/710131
                        R01R///99// R08/720138 TEMPO BKN010=
201212120320 METAR ESSA 120320Z 32009KT 9999 -SN BKN006 M04/M04 Q1011
                        R01L/720130 R01R///99// R08/720138
                        TEMPO BKN010=
201212120250 METAR ESSA 120250Z 34006KT 9999 -SN SCT005 BKN008 M03/M03
                        Q1011 R01L/720130 R01R///99// R08/720138
                        TEMPO BKN010=
201212120220 METAR ESSA 120220Z 33008KT 9999 -SN SCT007 BKN053 M03/M03
                        Q1011 R01L/720130 R01R///99// R08/720140
                        NOSIG=
201212120150 METAR ESSA 120150Z 33006KT 6000 -SN FEW008 SCT011 BKN038
                        M03/M03 Q1011 R01L/720130 R01R///99//
                        R08/720140 TEMPO 3000 BKN013=
201212111820 METAR ESSA 111820Z 36015KT 1400 R01L/P1500N R19R/P1500N R01R/P1500N
                        R19L/P1500N SN VV011 M02/M02 Q1013
                        R01L/710123 R01R///99// R08/710127
                        TEMPO 2000=
201212111750 METAR ESSA 111750Z 35013KT 2800 -SN BR SCT007 BKN010 M02/M03
                        Q1013 R01L/710123 R01R///99// R08/710132
                        TEMPO 4000=
201212111720 METAR ESSA 111720Z 36014KT 2500 SN SCT008 BKN010 M02/M03
                        Q1014 R01L/710127 R01R///99// R08/710132
                        TEMPO 4000=
201212111650 METAR ESSA 111650Z 36015KT 7000 -SN FEW006 SCT008 BKN010
                        M02/M03 Q1014 R01L/710128 R01R///99//
                        R08/710134 TEMPO 4000=
201212111620 METAR ESSA 111620Z 36015KT 4000 -SN BR SCT008 BKN010 M02/M03
                        Q1015 R01L/710127 R01R///99// R08/710136
                        TEMPO 5000=
201212111550 METAR ESSA 111550Z 36015KT 4500 -SN BR SCT008 BKN010 M02/M03
                        Q1015 R01L/710127 R01R///99// R08/710136
                        TEMPO BKN008=
201212111520 METAR ESSA 111520Z 36016KT 4000 -SN BR FEW008 BKN011 M02/M03
                        Q1015 R01L/710129 R01R///99// R08/710135
                        TEMPO BKN008=
201212111450 METAR ESSA 111450Z 01016KT 5000 -SN BR FEW009 BKN011 M03/M03
                        Q1016 R01L/710134 R01R///99// R08/710145
                        TEMPO 3000=
201212111420 METAR ESSA 111420Z 01015KT 4500 -SN BR FEW009 BKN011 M03/M03
                        Q1016 R01L/710134 R01R///99// R08/710145
                        TEMPO 2000 BKN020=
201212111350 METAR ESSA 111350Z 01016KT 4500 -SN BR FEW009 BKN012 M02/M03
                        Q1017 R01L/710132 R01R///99// R08/710146
                        TEMPO 2000 BKN020=
201212111320 METAR ESSA 111320Z 01016KT 4500 -SN BR FEW009 BKN012 M03/M03
                        Q1017 R01L/710132 R01R///99// R08/710159
                        TEMPO 2000 BKN020=
201212111250 METAR ESSA 111250Z 01016KT 4500 -SN FEW009 BKN012 M02/M04
                        Q1017 R01L/710146 R01R///99// R08/710159
                        TEMPO 2000 BKN020=
201212111215 METAR ESSA 111215Z 01015KT 5000 -SN SCT012 BKN035 M02/M04
                        Q1017 R01L/710146 R01R///99// R08/710159
                        BECMG 4500 BKN014=
201212111150 METAR COR ESSA 111150Z 36013KT 9999 -SN FEW016 BKN040 M03/M04
                        Q1018 R01L/710146 R01R///99// R08/710159
                        BECMG 4500 BKN014=
201212111120 METAR ESSA 111120Z 36013KT 9999 FEW012 SCT028 BKN200 M03/M04
                        Q1018 R01L/710146 R01R///99// R08/710159
                        NOSIG=
201212111050 METAR ESSA 111050Z 36014KT 9999 FEW012 BKN023 M03/M04 Q1018
                        R01L/710146 R01R///99// R08/710159
                        NOSIG=
201212111020 METAR ESSA 111020Z 36013KT 9999 FEW014 BKN020 M03/M04 Q1019
                        R01L/710146 R01R///99// R08/710159
                        TEMPO BKN012=
201212110950 METAR ESSA 110950Z 36014KT 9999 FEW014 BKN019 M03/M04 Q1019
                        R01L/710136 R01R///99// R08/710144
                        TEMPO BKN012=
201212110920 METAR ESSA 110920Z 36013KT 9999 FEW016 BKN020 M03/M04 Q1019
                        R01L/710136 R01R///99// R08/710144
                        TEMPO BKN012=
201212110850 METAR ESSA 110850Z 01013KT 9999 BKN019 M03/M04 Q1020 R01L/710136
                        R01R///99// R08/710144 TEMPO BKN012=
201212110820 METAR ESSA 110820Z 36012KT 9999 BKN017 M03/M04 Q1020 R01L/710136
                        R01R///99// R08/710144 TEMPO BKN012=
201212110750 METAR ESSA 110750Z 36010KT 9999 FEW014 BKN016 M04/M05 Q1020
                        R01L/710136 R01R///99// R08/710144
                        TEMPO BKN012=
201212110720 METAR ESSA 110720Z 01009KT 9999 FEW014 BKN090 M04/M05 Q1020
                        R01L/710136 R01R///99// R08/710143
                        TEMPO BKN012=
201212110650 METAR ESSA 110650Z 01009KT 9999 FEW018 BKN060 M04/M05 Q1021
                        R01L/710134 R01R///99// R08/710143
                        NOSIG=
201212110620 METAR ESSA 110620Z 36011KT 9999 SCT018 BKN090 M04/M05 Q1021
                        R01L/710134 R01R///99// R08/710143
                        TEMPO BKN012=
201212110550 METAR ESSA 110550Z 01010KT 9999 FEW012 BKN062 M04/M05 Q1021
                        R01L/710134 R01R///99// R08/710143
                        TEMPO BKN012=
201212110520 METAR ESSA 110520Z 01011KT CAVOK M04/M05 Q1021 R01L/710134
                        R01R///99// R08/710143 NOSIG=
201212110450 METAR ESSA 110450Z 01011KT CAVOK M04/M05 Q1021 R01L/710138
                        R01R///99// R08/710143 NOSIG=
201212110420 METAR ESSA 110420Z 35011KT CAVOK M04/M05 Q1021 R01L/710138
                        R01R///99// R08/710143 NOSIG=
201212110350 METAR ESSA 110350Z 36010KT 9999 SCT049 BKN070 M04/M05 Q1021
                        R01L/710138 R01R///99// R08/710148
                        NOSIG=
201212110320 METAR ESSA 110320Z 01010KT 9999 SCT025 BKN040 M04/M05 Q1021
                        R01L/710145 R01R///99// R08/710148
                        NOSIG=
201212110250 METAR ESSA 110250Z 01012KT 9999 SCT025 BKN051 M04/M05 Q1022
                        R01L/710145 R01R///99// R08/710148
                        NOSIG=
201212110220 METAR ESSA 110220Z 01011KT CAVOK M04/M06 Q1022 R01L/710145
                        R01R///99// R08/710148 NOSIG=
201212110150 METAR ESSA 110150Z 01009KT CAVOK M05/M06 Q1022 R01L/710145
                        R01R///99// R08/710148 NOSIG=
201212110120 METAR ESSA 110120Z 01008KT CAVOK M05/M06 Q1022 R01L/710145
                        R01R///99// R08/710148 NOSIG=
201212110050 METAR ESSA 110050Z 02008KT CAVOK M06/M07 Q1022 R01L/710145
                        R01R///99// R08/710148 NOSIG=
201212110020 METAR ESSA 110020Z 03008KT 9999 SCT025 BKN027 M06/M07 Q1022
                        R01L/710145 R01R///99// R08/710148
                        NOSIG=
201212102350 METAR ESSA 102350Z 02008KT 9999 SCT025 BKN027 M05/M07 Q1022
                        R01L/710145 R01R///99// R08/710148
                        NOSIG=
201212102320 METAR ESSA 102320Z 02008KT 9999 SCT027 BKN030 M06/M07 Q1023
                        R01L/710145 R01R///99// R08/710148
                        NOSIG=
201212102250 METAR ESSA 102250Z 03007KT 9999 SCT027 BKN030 M06/M08 Q1023
                        R01L/710145 R01R///99// R08/710148
                        NOSIG=
201212102220 METAR ESSA 102220Z 02007KT 9999 SCT027 BKN030 M06/M07 Q1023
                        R01L/710145 R01R///99// R08/710148
                        NOSIG=
201212102150 METAR ESSA 102150Z 03008KT 9999 SCT030 BKN130 M06/M08 Q1023
                        R01L/710145 R01R///99// R08/710148
                        NOSIG=
201212102120 METAR ESSA 102120Z 02008KT 9999 FEW040 M06/M08 Q1023 R01L/710135
                        R01R///99// R08/710146 NOSIG=
201212102050 METAR ESSA 102050Z 03008KT 9999 BKN040 M06/M07 Q1023 R01L/710139
                        R01R///99// R08/710147 NOSIG=
201212102020 METAR ESSA 102020Z 03009KT 9999 SCT040 BKN042 M05/M07 Q1023
                        R01L/710139 R01R///99// R08/710147
                        NOSIG=
201212101950 METAR ESSA 101950Z 01011KT 9999 SCT040 BKN042 M05/M07 Q1023
                        R01L/710139 R01R///99// R08/710147
                        NOSIG=
201212101920 METAR ESSA 101920Z 36012KT 9999 SCT037 BKN041 M05/M06 Q1023
                        R01L/710139 R01R///99// R08/710147
                        NOSIG=
201212101850 METAR ESSA 101850Z 01012KT 9999 SCT019 BKN037 M05/M06 Q1023
                        R01L/710132 R01R///99// R08/710151
                        NOSIG=
201212101820 METAR ESSA 101820Z 02011KT 9999 SCT019 BKN040 M05/M06 Q1023
                        R01L/710133 R01R///99// R08/710151
                        NOSIG=
201212101750 METAR ESSA 101750Z 02011KT 9999 SCT020 BKN040 M05/M06 Q1023
                        R01L/710137 R01R///99// R08/710148
                        NOSIG=
201212101720 METAR ESSA 101720Z 01011KT 9999 BKN020 M05/M06 Q1023 R01L/710137
                        R01R///99// R08/710148 NOSIG=
201212101650 METAR ESSA 101650Z 02012KT 9999 BKN020 M05/M06 Q1023 R01L/710137
                        R01R///99// R08/710148 NOSIG=
201212101620 METAR ESSA 101620Z 02011KT 9999 BKN035 M05/M06 Q1022 R01L/710137
                        R01R///99// R08/710148 NOSIG=
201212101550 METAR ESSA 101550Z 35009KT 9999 BKN035 M05/M05 Q1022 R01L/710136
                        R01R///99// R08/710147 NOSIG=
201212101520 METAR ESSA 101520Z 01007KT 9999 BKN030 M05/M06 Q1022 R01L/710136
                        R01R///99// R08/710147 NOSIG=
201212101450 METAR ESSA 101450Z 36008KT 9999 SCT028 M04/M05 Q1022 R01L/710136
                        R01R///99// R08/710147 NOSIG=
201212101420 METAR ESSA 101420Z 01007KT 9999 BKN028 M04/M05 Q1022 R01L/710126
                        R01R///99// R08/710148 NOSIG=
201212101350 METAR ESSA 101350Z 05008KT 9999 BKN026 M04/M05 Q1022 R01L/710133
                        R01R///99// R08/710135 NOSIG=
201212101320 METAR ESSA 101320Z 02008KT 9999 BKN025 M04/M05 Q1022 R01L/710133
                        R01R///99// R08/710135 NOSIG=
201212101250 METAR ESSA 101250Z 04009KT 9999 SCT025 M04/M04 Q1022 R01L/710133
                        R01R///99// R08/710135 NOSIG=
201212101220 METAR ESSA 101220Z 03008KT 9999 SCT025 M04/M05 Q1022 R01L/710133
                        R01R///99// R08/710135 NOSIG=
201212101150 METAR ESSA 101150Z 04007KT 9999 BKN028 M04/M04 Q1022 R01L/710133
                        R01R///99// R08/710135 NOSIG=
201212101120 METAR ESSA 101120Z 05008KT 9999 SCT030 M04/M04 Q1022 R01L/710133
                        R01R///99// R08/710135 NOSIG=
201212101050 METAR ESSA 101050Z 06006KT 9999 SCT030 M05/M05 Q1022 R01L/710160
                        R01R///99// R08/710155 NOSIG=
201212101020 METAR ESSA 101020Z 02006KT 9999 BKN025 M04/M04 Q1021 R01L/710160
                        R01R///99// R08/710155 NOSIG=
201212100950 METAR COR ESSA 100950Z 08007KT 1500 SHSN VV015 M04/M04 Q1021
                        R01L/710160 R01R///99// R08/710155
                        BECMG 5000 -SHSN=
201212100920 METAR ESSA 100920Z 36008KT 9999 FEW040 BKN060 M04/M04 Q1021
                        R01L/710160 R01R///99// R08/710155
                        TEMPO 1200 SHSN VV012=
201212100850 METAR COR ESSA 100850Z 03008KT 5000 SHSN VV020 M05/M05 Q1021
                        R01L/710160 R01R///99// R08/710155
                        TEMPO 1200 SHSN VV012=
201212100820 METAR COR ESSA 100820Z 03009KT 3000 -SN FEW007 BKN030 M05/M05
                        Q1021 R01L/710160 R01R///99// R08/710155
                        TEMPO 1200 SHSN=
201212100750 METAR ESSA 100750Z 03010KT 9999 SCT020 M06/M06 Q1020 R01L/710160
                        R01R///99// R08/710155 TEMPO 1200
                        SHSN=
201212100720 METAR ESSA 100720Z 03008KT 9999 FEW030 M07/M07 Q1020 R01L/710160
                        R01R///99// R08/710155 TEMPO 1200
                        SHSN=
201212100650 METAR ESSA 100650Z 04007KT 020V090 9999 MIFG NSC M07/M08
                        Q1020 R01L/710160 R01R///99// R08/710155
                        NOSIG=
201212100620 METAR ESSA 100620Z 01005KT 9999 SCT035 M06/M06 Q1020 R01L/710160
                        R01R///99// R08/710155 NOSIG=
201212100550 METAR ESSA 100550Z 05007KT 9999 -SN FEW027 BKN032 M04/M04
                        Q1020 R01L/710160 R01R///99// R08/710155
                        NOSIG=
201212100520 METAR ESSA 100520Z 07007KT 7000 -SN FEW022 SCT027 BKN032
                        M03/M04 Q1019 R01L/710160 R01R///99//
                        R08/710155 NOSIG=
201212100450 METAR ESSA 100450Z 04007KT 9999 FEW031 SCT034 M04/M05 Q1019
                        R01L/710160 R01R///99// R08/710155
                        NOSIG=
201212100420 METAR ESSA 100420Z 05007KT 9999 FEW038 SCT043 M04/M05 Q1019
                        R01L/710160 R01R///99// R08/710155
                        NOSIG=
201212100350 METAR ESSA 100350Z 05006KT 9999 FEW018 SCT026 M04/M05 Q1019
                        R01L/710160 R01R///99// R08/710167
                        NOSIG=
201212100320 METAR ESSA 100320Z 06005KT 9999 FEW035 BKN040 M05/M05 Q1019
                        R01L/710147 R01R///99// R08/710167
                        NOSIG=
201212100250 METAR ESSA 100250Z 04006KT 9999 FEW034 BKN041 M04/M05 Q1019
                        R01L/710147 R01R///99// R08/710167
                        NOSIG=
201212100220 METAR ESSA 100220Z 04007KT 9999 SCT034 BKN048 M03/M04 Q1019
                        R01L/710147 R01R///99// R08/710167
                        NOSIG=
201212100150 METAR ESSA 100150Z 06005KT 9999 SCT026 BKN033 M02/M04 Q1018
                        R01L/710147 R01R///99// R08/710167
                        NOSIG=
201212100120 METAR ESSA 100120Z 07005KT 9999 FEW014 SCT030 BKN045 M03/M04
                        Q1018 R01L/710147 R01R///99// R08/710167
                        NOSIG=
201212100050 METAR ESSA 100050Z 07005KT 9999 SCT034 BKN039 M02/M04 Q1018
                        R01L/710147 R01R///99// R08/710167
                        NOSIG=
201212100020 METAR ESSA 100020Z 08006KT 9999 FEW033 SCT039 BKN045 M03/M04
                        Q1018 R01L/710153 R01R///99// R08/710163
                        NOSIG=
201212092350 METAR ESSA 092350Z 08005KT 9999 SCT034 BKN046 M03/M04 Q1017
                        R01L/710153 R01R///99// R08/710163
                        NOSIG=
201212092320 METAR ESSA 092320Z 08006KT 9999 SCT034 BKN040 M03/M04 Q1017
                        R01L/710153 R01R///99// R08/710163
                        NOSIG=
201212092250 METAR ESSA 092250Z 08006KT 9999 SCT036 BKN045 M03/M04 Q1017
                        R01L/710153 R01R///99// R08/710163
                        NOSIG=
201212092220 METAR ESSA 092220Z 05006KT 9999 SCT045 M04/M04 Q1017 R01L/710153
                        R01R///99// R08/710163 NOSIG=
201212092150 METAR COR ESSA 092150Z 07006KT 9999 NSC M03/M03 Q1017 R01L/710153
                        R01R///99// R08/710163 NOSIG=
201212092120 METAR ESSA 092120Z 08005KT 9999 SCT031 BKN035 M04/M04 Q1016
                        R01L/710153 R01R///99// R08/710150
                        TEMPO 1300 SHSN VV008=
201212092050 METAR ESSA 092050Z 08006KT 8000 -SN SCT028 BKN031 M05/M05
                        Q1016 R01L/710158 R01R///99// R08/710156
                        TEMPO 1300 SHSN VV008=
201212092020 METAR ESSA 092020Z 05003KT 350V090 9999 SCT034 BKN045 M08/M08
                        Q1016 R01L/710161 R01R///99// R08/710160
                        TEMPO 1300 SHSN VV008=
201212091950 METAR ESSA 091950Z 04009KT 9000 BR SCT003 BKN048 M06/M06
                        Q1016 R01L/710161 R01R///99// R08/710160
                        TEMPO 1300 SHSN VV008=
201212091920 METAR ESSA 091920Z 04010KT 1500 SCT003 BKN027 M07/M07 Q1016
                        R01L/710161 R01R///99// R08/710160
                        TEMPO 1300 SHSN VV008=
201212091850 METAR ESSA 091850Z 03009KT 9000 FEW003 SCT026 BKN048 M07/M07
                        Q1016 R01L/710161 R01R///99// R08/710160
                        TEMPO 1300 SHSN VV008=
201212091820 METAR ESSA 091820Z 03010KT 7000 BKN003 M08/M08 Q1016 R01L/710163
                        R01R///99// R08/710155 TEMPO 1300
                        SHSN VV008=
201212091750 METAR ESSA 091750Z 02010KT 9999 FEW004 SCT008 BKN012 M09/M09
                        Q1016 R01L/710163 R01R///99// R08/710155
                        TEMPO 1300 SHSN VV009=
201212091720 METAR ESSA 091720Z 02012KT 9999 SCT047 M09/M10 Q1015 R01L/710163
                        R01R///99// R08/710155 TEMPO 1300
                        SHSN VV009=
201212091650 METAR ESSA 091650Z 02011KT 9999 FEW007 SCT016 BKN020 M08/M09
                        Q1016 R01L/710163 R01R///99// R08/710155
                        TEMPO 1300 SHSN VV009=
201212091620 METAR ESSA 091620Z 02009KT 9999 BKN007 M08/M09 Q1016 R01L/710163
                        R01R///99// R08/710155 BECMG 1300
                        SHSN VV009=
201212091550 METAR ESSA 091550Z 02005KT 5000 -SHSN SCT004 BKN013 M09/M10
                        Q1015 R01L/710163 R01R///99// R08/710155
                        BECMG 1300 SHSN VV009=
201212091520 METAR ESSA 091520Z 08004KT 9999 FEW002 SCT013 BKN015 M10/M10
                        Q1016 R01L/710163 R01R///99// R08/710155
                        BECMG FM1630 2000 SHSN=
201212091450 METAR ESSA 091450Z 08005KT 9999 FEW002 SCT013 BKN015 M11/M11
                        Q1015 R01L/710162 R01R///99// R08/710155
                        NOSIG=
201212091420 METAR ESSA 091420Z 03005KT 9999 FEW002 SCT013 BKN015 M10/M11
                        Q1015 R01L/710162 R01R///99// R08/710155
                        TEMPO BKN013=
201212091350 METAR ESSA 091350Z 02004KT 9999 FEW002 SCT013 BKN015 M11/M11
                        Q1015 R01L/710162 R01R///99// R08/710155
                        NOSIG=
201212091320 METAR ESSA 091320Z 07004KT 9999 FEW002 BKN015 M11/M11 Q1015
                        R01L/710162 R01R///99// R08/710155
                        NOSIG=
201212091250 METAR ESSA 091250Z 08004KT 9999 FEW002 SCT015 M11/M12 Q1015
                        R01L/710162 R01R///99// R08/710155
                        NOSIG=
201212091220 METAR ESSA 091220Z 06004KT 9999 BKN015 BKN150 M11/M12 Q1016
                        R01L/710162 R01R///99// R08/710155
                        NOSIG=
201212091150 METAR ESSA 091150Z 08003KT 9999 FEW002 SCT140 M12/M13 Q1016
                        R01L/710162 R01R///99// R08/710155
                        NOSIG=
201212091120 METAR ESSA 091120Z 09004KT 9999 FEW002 SCT140 M12/M13 Q1016
                        R01L/710162 R01R///99// R08/710155
                        NOSIG=
201212091050 METAR ESSA 091050Z 01003KT 9999 FEW002 SCT140 M13/M14 Q1016
                        R01L/710162 R01R///99// R08/710155
                        NOSIG=
201212091020 METAR ESSA 091020Z 03003KT 9999 FEW002 SCT140 M13/M15 Q1016
                        R01L/710162 R01R///99// R08/710155
                        NOSIG=
201212090950 METAR ESSA 090950Z 04003KT CAVOK M14/M15 Q1016 R01L/710162
                        R01R///99// R08/710155 NOSIG=
201212090920 METAR ESSA 090920Z 08004KT CAVOK M15/M16 Q1016 R01L/710162
                        R01R///99// R08/710155 NOSIG=
201212090850 METAR ESSA 090850Z 08002KT CAVOK M15/M16 Q1016 R01L/710163
                        R01R///99// R08/710159 NOSIG=
201212090820 METAR ESSA 090820Z 10002KT CAVOK M16/M18 Q1016 R01L/710163
                        R01R///99// R08/710159 NOSIG=
201212090750 METAR ESSA 090750Z 21001KT 9999 FEW003 M15/M16 Q1015 R01L/710163
                        R01R///99// R08/710159 BECMG CAVOK=
201212090720 METAR ESSA 090720Z 20001KT 9999 BCFG FEW002 M14/M15 Q1015
                        R01L/710163 R01R///99// R08/710159
                        BECMG CAVOK=
201212090650 METAR ESSA 090650Z 20002KT 9999 0500W R01L/0750VP1500D R19R/P1500N
                        R01R/P1500N R19L/P1500N BCFG NSC
                        M14/M15 Q1015 R01L/710163 R01R///99//
                        R08/710159 BECMG CAVOK=
201212090620 METAR ESSA 090620Z 17003KT 0300 R01L/1500N R19R/1100VP1500U
                        R01R/P1500N R19L/0650VP1500N FZFG
                        VV002 M13/M14 Q1015 R01L/710163 R01R///99//
                        R08/710159 TEMPO 2000=
201212090550 METAR ESSA 090550Z 16002KT 0800 R01L/0650VP1500D R19R/P1500N
                        R01R/0600N R19L/0500VP1500N FZFG
                        VV002 M15/M16 Q1015 R01L/710163 R01R///99//
                        R08/710159 TEMPO 2000=
201212090520 METAR ESSA 090520Z 08002KT CAVOK M13/M14 Q1015 R01L/710163
                        R01R///99// R08/710159 NOSIG=
201212090450 METAR ESSA 090450Z 10002KT CAVOK M14/M15 Q1015 R01L/710163
                        R01R///99// R08/710159 TEMPO BKN008=
201212090420 METAR ESSA 090420Z VRB01KT CAVOK M13/M15 Q1015 R01L/710163
                        R01R///99// R08/710159 TEMPO BKN008=
201212090350 METAR ESSA 090350Z 13001KT CAVOK M14/M15 Q1015 R01L/710159
                        R01R///99// R08/710158 TEMPO BKN008=
201212090320 METAR ESSA 090320Z 17002KT CAVOK M12/M13 Q1015 R01L/710159
                        R01R///99// R08/710158 TEMPO BKN008=
201212090250 METAR ESSA 090250Z 27002KT CAVOK M14/M15 Q1015 R01L/710159
                        R01R///99// R08/710158 TEMPO BKN008=
201212090220 METAR ESSA 090220Z 21001KT CAVOK M12/M13 Q1015 R01L/710159
                        R01R///99// R08/710158 TEMPO BKN008=
201212090150 METAR ESSA 090150Z 21002KT CAVOK M13/M14 Q1015 R01L/710159
                        R01R///99// R08/710158 TEMPO BKN008=
201212090120 METAR ESSA 090120Z 26003KT 9000 BR FEW002 BKN100 M14/M15
                        Q1016 R01L/710159 R01R///99// R08/710158
                        TEMPO 1000 BKN002=
201212090050 METAR ESSA 090050Z 24003KT 0700 R01L/0600VP1500N R19R/0400V0550N
                        R01R/0700N R19L/0450N PRFG VV002
                        M14/M15 Q1016 R01L/710159 R01R///99//
                        R08/710158 TEMPO 5000 BR=
201212090020 METAR ESSA 090020Z VRB02KT 8000 BR BKN002 M13/M14 Q1016 R01L/710159
                        R01R///99// R08/710158 NOSIG=
201212082350 METAR ESSA 082350Z 21002KT 9999 BKN004 M15/M16 Q1016 R01L/710159
                        R01R///99// R08/710158 NOSIG=
201212082320 METAR ESSA 082320Z 20002KT CAVOK M15/M17 Q1016 R01L/710159
                        R01R///99// R08/710158 NOSIG=
201212082250 METAR ESSA 082250Z 21003KT CAVOK M15/M16 Q1016 R01L/710159
                        R01R///99// R08/710158 NOSIG=
201212082220 METAR ESSA 082220Z 21002KT CAVOK M15/M16 Q1016 R01L/710159
                        R01R///99// R08/710158 NOSIG=
201212082150 METAR ESSA 082150Z 25003KT 9999 FEW004 M15/M16 Q1016 R01L/710159
                        R01R///99// R08/710158 NOSIG=
201212082120 METAR ESSA 082120Z 22002KT 9999 SCT004 M14/M15 Q1017 R01L/710159
                        R01R///99// R08/710158 NOSIG=
201212082050 METAR ESSA 082050Z 21002KT CAVOK M15/M16 Q1017 R01L/710159
                        R01R///99// R08/710158 NOSIG=
201212082020 METAR ESSA 082020Z 21002KT CAVOK M14/M15 Q1017 R01L/710159
                        R01R///99// R08/710158 NOSIG=
201212081950 METAR ESSA 081950Z 23001KT CAVOK M13/M14 Q1016 R01L/710159
                        R01R///99// R08/710158 NOSIG=
201212081920 METAR ESSA 081920Z 18002KT CAVOK M13/M14 Q1016 R01L/710159
                        R01R///99// R08/710158 NOSIG=
201212081850 METAR ESSA 081850Z 26002KT CAVOK M13/M14 Q1016 R01L/710159
                        R01R///99// R08/710158 NOSIG=
201212081820 METAR ESSA 081820Z 26003KT CAVOK M12/M13 Q1016 R01L/710159
                        R01R///99// R08/710158 NOSIG=
201212081750 METAR ESSA 081750Z 26003KT CAVOK M11/M12 Q1016 R01L/710159
                        R01R///99// R08/710158 NOSIG=
201212081720 METAR ESSA 081720Z 26004KT CAVOK M10/M11 Q1016 R01L/710159
                        R01R///99// R08/710158 NOSIG=
201212081650 METAR ESSA 081650Z 26005KT 9999 FEW015 SCT025 M10/M11 Q1016
                        R01L/710159 R01R///99// R08/710158
                        NOSIG=
201212081620 METAR ESSA 081620Z 28004KT 9999 FEW010 BKN022 M11/M11 Q1016
                        R01L/710159 R01R///99// R08/710158
                        NOSIG=
201212081550 METAR ESSA 081550Z 28004KT 9999 FEW015 BKN024 M10/M11 Q1016
                        R01L/710159 R01R///99// R08/710158
                        NOSIG=
201212081520 METAR COR ESSA 081520Z 27004KT 9999 FEW024 M10/M11 Q1016
                        R01L/710159 R01R///99// R08/710158
                        NOSIG=
201212081450 METAR ESSA 081450Z 32003KT 9999 FEW025 M10/M11 Q1016 R01L/710163
                        R01R///99// R08/710164 NOSIG=
201212081420 METAR ESSA 081420Z 33003KT 9999 FEW027 M09/M09 Q1016 R01L/710163
                        R01R///99// R08/710164 NOSIG=
201212081350 METAR ESSA 081350Z 31005KT CAVOK M08/M08 Q1016 R01L/710163
                        R01R///99// R08/710164 NOSIG=
201212081320 METAR ESSA 081320Z 31004KT CAVOK M08/M09 Q1015 R01L/710163
                        R01R///99// R08/710164 NOSIG=
201212081250 METAR ESSA 081250Z 29005KT CAVOK M07/M07 Q1015 R01L/710163
                        R01R///99// R08/710164 NOSIG=
201212081220 METAR ESSA 081220Z 30007KT CAVOK M06/M07 Q1015 R01L/710163
                        R01R///99// R08/710164 NOSIG=
201212081150 METAR ESSA 081150Z 30007KT 9999 IC FEW012 M06/M07 Q1015 R01L/710163
                        R01R///99// R08/710164 NOSIG=
201212081120 METAR ESSA 081120Z 32004KT 9999 -SN FEW008 SCT027 M06/M07
                        Q1015 R01L/710163 R01R///99// R08/710164
                        NOSIG=
201212081050 METAR ESSA 081050Z 31005KT 9999 -SN FEW009 SCT020 M05/M06
                        Q1015 R01L/710160 R01R///99// R08/710160
                        NOSIG=
201212081020 METAR ESSA 081020Z 31005KT 8000 -SN FEW010 SCT018 M05/M06
                        Q1015 R01L/710160 R01R///99// R08/710160
                        NOSIG=
201212080950 METAR ESSA 080950Z 30008KT 8000 -SN SCT020 BKN030 M05/M06
                        Q1014 R01L/710160 R01R///99// R08/710160
                        NOSIG=
201212080920 METAR ESSA 080920Z 30007KT 8000 -SN SCT022 BKN035 M05/M06
                        Q1014 R01L/710160 R01R///99// R08/710160
                        NOSIG=
201212080850 METAR ESSA 080850Z 31007KT 8000 -SN FEW015 BKN021 M05/M06
                        Q1014 R01L/710160 R01R///99// R08/710160
                        NOSIG=
201212080820 METAR ESSA 080820Z 30006KT 9999 -SN BKN019 M05/M06 Q1014
                        R01L/710160 R01R///99// R08/710160
                        NOSIG=
201212080750 METAR ESSA 080750Z 31007KT 9999 -SN FEW014 BKN019 M05/M06
                        Q1014 R01L/710160 R01R///99// R08/710160
                        NOSIG=
201212080720 METAR ESSA 080720Z 29004KT 9999 -SN BKN020 M06/M06 Q1014
                        R01L/710160 R01R///99// R08/710160
                        NOSIG=
201212080650 METAR ESSA 080650Z 33004KT 9999 -SN SCT021 BKN024 M05/M06
                        Q1013 R01L/710160 R01R///99// R08/710160
                        NOSIG=
201212080620 METAR ESSA 080620Z 32004KT 290V020 9999 SCT029 BKN034 M05/M06
                        Q1013 R01L/710160 R01R///99// R08/710160
                        NOSIG=
201212080550 METAR ESSA 080550Z 32007KT 9999 SCT012 BKN040 M05/M06 Q1012
                        R01L/710160 R01R///99// R08/710160
                        NOSIG=
201212080520 METAR ESSA 080520Z 32006KT 9999 SCT012 M05/M05 Q1012 R01L/710160
                        R01R///99// R08/710160 NOSIG=
201212080450 METAR ESSA 080450Z 32008KT 9999 SCT012 M04/M05 Q1012 R01L/710160
                        R01R///99// R08/710160 NOSIG=
201212080420 METAR ESSA 080420Z 33010KT 6000 -SN BR VV010 M04/M04 Q1012
                        R01L/710160 R01R///99// R08/710160
                        NOSIG=
201212080350 METAR ESSA 080350Z 32011KT 4000 -SN BR VV010 M04/M04 Q1011
                        R01L/710160 R01R///99// R08/710163
                        TEMPO 5000 VV020=
201212080320 METAR ESSA 080320Z 32010KT 4000 -SN BR VV010 M03/M03 Q1011
                        R01L/710160 R01R///99// R08/710163
                        TEMPO 5000 VV020=
201212080250 METAR COR ESSA 080250Z 31009KT 4000 -SN BR BKN006 M03/M03
                        Q1011 R01L/710160 R01R///99// R08/710163
                        TEMPO BKN010=
201212080220 METAR ESSA 080220Z 31008KT 4000 -SN BR BKN006 M02/M02 Q1011
                        R01L/710160 R01R///99// R08/710163
                        TEMPO BKN010=
201212080150 METAR ESSA 080150Z 31006KT 4000 -SN BR VV010 M02/M02 Q1011
                        R01L/710160 R01R///99// R08/710163
                        NOSIG=
201212080120 METAR ESSA 080120Z 32008KT 4000 -SN BR VV020 M02/M02 Q1011
                        R01L/710160 R01R///99// R08/710163
                        TEMPO 7000 VV010=
201212080050 METAR ESSA 080050Z 32007KT 6000 -SN BR VV010 M02/M02 Q1010
                        R01L/710160 R01R///99// R08/710163
                        TEMPO 4000 VV030=
201212080020 METAR ESSA 080020Z 31006KT 6000 -SN BR VV010 M02/M02 Q1010
                        R01L/710160 R01R///99// R08/710163
                        TEMPO 4000 VV030=
201212072350 METAR ESSA 072350Z 31007KT 6000 -SN BR VV010 M02/M02 Q1010
                        R01L/710164 R01R///99// R08/710163
                        TEMPO 4000 VV030=
201212072320 METAR ESSA 072320Z 33006KT 7000 -SN BR SCT045 M02/M02 Q1010
                        R01L/710164 R01R///99// R08/710163
                        TEMPO 4000=
201212072250 METAR ESSA 072250Z 32005KT 5000 -SN BR VV015 M02/M02 Q1010
                        R01L/710164 R01R///99// R08/710163
                        TEMPO 4000 VV010=
201212072220 METAR ESSA 072220Z 34006KT 5000 -SN BR VV015 M02/M02 Q1010
                        R01L/710164 R01R///99// R08/710163
                        TEMPO 4000 VV010=
201212072150 METAR ESSA 072150Z 34007KT 9000 -SN BR SCT033 BKN035 M02/M02
                        Q1010 R01L/710164 R01R///99// R08/710163
                        NOSIG=
201212072120 METAR ESSA 072120Z 36007KT 9000 -SN BR SCT030 BKN035 M03/M03
                        Q1010 R01L/710153 R01R///99// R08/710162
                        NOSIG=
201212072050 METAR ESSA 072050Z 36005KT 340V040 6000 -SN BR SCT025 BKN030
                        M03/M03 Q1010 R01L/710153 R01R///99//
                        R08/710162 TEMPO 8000=
201212072020 METAR ESSA 072020Z 35004KT 9000 -SN BR SCT015 BKN020 M04/M04
                        Q1010 R01L/710157 R01R///99// R08/710162
                        NOSIG=
201212071950 METAR ESSA 071950Z 30004KT 9000 -SN BR SCT010 BKN020 M05/M05
                        Q1010 R01L/710157 R01R///99// R08/710168
                        TEMPO 2000 BKN012=
201212071920 METAR ESSA 071920Z 29004KT 9000 BR SCT005 BKN015 M05/M05
                        Q1010 R01L/710157 R01R///99// R08/710168
                        TEMPO BKN005=
201212071850 METAR ESSA 071850Z 32004KT 9000 BR BKN006 M05/M05 Q1010 R01L/710157
                        R01R///99// R08/710168 TEMPO SCT006
                        BKN030=
201212071820 METAR ESSA 071820Z 31004KT 9000 BR SCT006 BKN035 M05/M05
                        Q1010 R01L/710151 R01R///99// R08/710162
                        TEMPO BKN006=
201212071750 METAR ESSA 071750Z 32005KT 290V060 8000 -SN BR BKN006 M05/M05
                        Q1010 R01L/710125 R01R///99// R08/710162
                        TEMPO SCT006 BKN040=
201212071720 METAR ESSA 071720Z 30004KT 3000 SN BR BKN006 M05/M05 Q1010
                        R01L/710125 R01R///99// R08/720130
                        TEMPO 5000 -SN SCT012 BKN040=
201212071650 METAR ESSA 071650Z 31006KT 2000 SN BR BKN003 M05/M06 Q1010
                        R01L/710158 R01R///99// R08/710159
                        TEMPO 4000 VV012=
201212071620 METAR ESSA 071620Z 31006KT 8000 BR BKN003 M06/M06 Q1010 R01L/710158
                        R01R///99// R08/710159 TEMPO 4000
                        -SN VV008=
201212071550 METAR COR ESSA 071550Z 34006KT 9000 BR OVC003 M06/M06 Q1010
                        R01L/710158 R01R///99// R08/710159
                        TEMPO 4000 -SN VV008=
201212071520 METAR ESSA 071520Z 29005KT 9000 BR SCT003 OVC004 M06/M06
                        Q1010 R01L/710158 R01R///99// R08/710157
                        TEMPO -SN VV008=
201212071450 METAR ESSA 071450Z 28006KT 9000 BR BKN003 M06/M06 Q1010 R01L/710154
                        R01R///99// R08/710157 NOSIG=
201212071420 METAR ESSA 071420Z 32005KT 9999 BR SCT002 OVC003 M05/M05
                        Q1010 R01L/710154 R01R///99// R08/710157
                        NOSIG=
201212071350 METAR ESSA 071350Z 30006KT 4000 BR OVC002 M05/M05 Q1010 R01L/710154
                        R01R///99// R08/710157 TEMPO 2000=
201212071320 METAR COR ESSA 071320Z 29006KT 4000 1400E BCFG FEW002 OVC003
                        M05/M05 Q1010 R01L/710154 R01R///99//
                        R08/710157 TEMPO 1200=
201212071250 METAR ESSA 071250Z 28003KT 230V330 9000 4500E BCFG FEW002
                        BKN003 M05/M05 Q1010 R01L/710154
                        R01R///99// R08/710157 TEMPO 4000=
201212071220 METAR ESSA 071220Z 34003KT 9999 FEW003 BKN004 M05/M05 Q1010
                        R01L/710154 R01R///99// R08/710157
                        NOSIG=
201212071150 METAR ESSA 071150Z 32004KT 9999 SCT004 BKN200 M05/M05 Q1010
                        R01L/710154 R01R///99// R08/710157
                        TEMPO BKN005=
201212071120 METAR ESSA 071120Z 27003KT 9999 SCT005 BKN006 M04/M05 Q1010
                        R01L/710154 R01R///99// R08/710157
                        TEMPO SCT006=
201212071050 METAR ESSA 071050Z 25004KT 9999 BKN005 M04/M05 Q1010 R01L/710154
                        R01R///99// R08/710157 TEMPO SCT006=
201212071020 METAR ESSA 071020Z 26003KT 9999 -SG FEW006 BKN021 M04/M05
                        Q1010 R01L/710154 R01R///99// R08/710157
                        NOSIG=
201212070950 METAR ESSA 070950Z 28002KT 9999 -SG FEW006 BKN021 M04/M04
                        Q1010 R01L/710154 R01R///99// R08/710157
                        NOSIG=
201212070920 METAR ESSA 070920Z 33002KT 9999 -SN FEW005 SCT014 BKN022
                        M04/M04 Q1010 R01L/710149 R01R///99//
                        R08/710150 TEMPO BKN006=
201212070850 METAR ESSA 070850Z VRB01KT 9999 -SN FEW006 SCT014 BKN024
                        M04/M04 Q1009 R01L/710149 R01R///99//
                        R08/710150 TEMPO BKN006=
201212070820 METAR ESSA 070820Z 30003KT 9999 -SN SCT006 BKN032 M04/M04
                        Q1009 R01L/710149 R01R///99// R08/710150
                        TEMPO BKN006=
201212070750 METAR ESSA 070750Z 26004KT 9999 -SN FEW005 BKN006 M04/M04
                        Q1009 R01L/710143 R01R///99// R08/710157
                        TEMPO SCT007=
201212070720 METAR ESSA 070720Z 25004KT 9999 -SG FEW005 BKN006 M04/M04
                        Q1009 R01L/710143 R01R///99// R08/710157
                        TEMPO SCT007=
201212070650 METAR ESSA 070650Z 27004KT 9999 -SN BKN005 M04/M04 Q1009
                        R01L/710143 R01R///99// R08/710157
                        TEMPO SCT007=
201212070620 METAR COR ESSA 070620Z 26003KT 9999 -SN BKN006 M03/M03 Q1009
                        R01L/710143 R01R///99// R08/710157
                        NOSIG=
201212070550 METAR ESSA 070550Z 23004KT 200V260 9999 -SN SCT006 BKN039
                        M03/M03 Q1008 R01L/710195 R01R///99//
                        R08/710195 TEMPO BKN007=
201212070520 METAR ESSA 070520Z 21003KT 9999 SCT028 BKN036 M03/M03 Q1008
                        R01L/710195 R01R///99// R08/710195
                        NOSIG=
201212070450 METAR ESSA 070450Z 18003KT 9999 FEW008 SCT019 BKN026 M03/M03
                        Q1008 R01L/710195 R01R///99// R08/710195
                        NOSIG=
201212070420 METAR ESSA 070420Z 15003KT 9999 SCT018 BKN020 M03/M03 Q1008
                        R01L/710195 R01R///99// R08/710195
                        NOSIG=
201212070350 METAR ESSA 070350Z 19003KT 9999 SCT010 BKN020 BKN035 M03/M03
                        Q1007 R01L/710195 R01R///99// R08/710195
                        TEMPO BKN008=
201212070320 METAR ESSA 070320Z 18004KT 9999 BKN009 BKN025 M03/M03 Q1007
                        R01L/710195 R01R///99// R08/710195
                        TEMPO BKN008=
201212070250 METAR ESSA 070250Z 19005KT 9999 SCT006 BKN032 M03/M03 Q1007
                        R01L/710195 R01R///99// R08/710195
                        TEMPO BKN008=
201212070220 METAR ESSA 070220Z 06003KT 9999 SCT034 BKN037 M03/M03 Q1007
                        R01L/710195 R01R///99// R08/710195
                        TEMPO BKN008=
201212070150 METAR ESSA 070150Z 09006KT 9999 FEW002 SCT034 BKN037 M02/M03
                        Q1007 R01L/710195 R01R///99// R08/710195
                        TEMPO BKN004=
201212070120 METAR COR ESSA 070120Z 08008KT 6000 BR FEW002 SCT029 BKN037
                        M03/M03 Q1006 R01L/710195 R01R///99//
                        R08/710195 TEMPO BKN004=
201212070050 METAR ESSA 070050Z 07006KT 9999 FEW002 SCT037 BKN039 M03/M03
                        Q1006 R01L/710195 R01R///99// R08/710195
                        NOSIG=
201212070020 METAR ESSA 070020Z 08003KT 9999 SCT036 BKN038 M04/M04 Q1006
                        R01L/710195 R01R///99// R08/710195
                        NOSIG=
201212062350 METAR ESSA 062350Z 08004KT 9999 SCT037 BKN040 M03/M03 Q1006
                        R01L/710195 R01R///99// R08/710195
                        NOSIG=
201212062320 METAR ESSA 062320Z 08004KT 030V120 9999 SCT025 BKN040 M03/M03
                        Q1006 R01L/710195 R01R///99// R08/710195
                        NOSIG=
201212062250 METAR ESSA 062250Z 08003KT 9999 SCT019 BKN024 M03/M03 Q1006
                        R01L/710195 R01R///99// R08/710195
                        NOSIG=
201212062220 METAR ESSA 062220Z 08005KT 9999 SCT018 BKN024 M03/M03 Q1006
                        RESG R01L/710195 R01R///99// R08/710195
                        NOSIG=
201212062150 METAR ESSA 062150Z 08004KT 4000 -SN SCT005 BKN018 M03/M03
                        Q1006 RESG R01L/710195 R01R///99//
                        R08/710195 TEMPO 5000 BKN012=
201212062120 METAR ESSA 062120Z 07005KT 7000 -SN FEW007 SCT013 BKN022
                        M03/M03 Q1005 R01L/710195 R01R///99//
                        R08/710195 BECMG 4000 BKN012=
201212062050 METAR ESSA 062050Z 08006KT 5000 -SN SCT010 BKN028 M03/M04
                        Q1005 R01L/710195 R01R///99// R08/710195
                        BECMG 4000 BKN012=
201212062020 METAR ESSA 062020Z 07006KT 040V140 7000 FEW007 SCT011 BKN021
                        M04/M04 Q1005 R01L/710195 R01R///99//
                        R08/710195 BECMG 4000 BKN012=
201212061950 METAR ESSA 061950Z 07006KT 040V110 9999 FEW025 SCT030 BKN039
                        M04/M05 Q1005 R01L/710195 R01R///99//
                        R08/710195 NOSIG=
201212061920 METAR ESSA 061920Z 06006KT 9999 SCT038 BKN046 M04/M05 Q1005
                        R01L/710195 R01R///99// R08/710195
                        NOSIG=
201212061850 METAR ESSA 061850Z 07005KT 030V100 CAVOK M03/M05 Q1005 R01L/710195
                        R01R///99// R08/710195 NOSIG=
201212061820 METAR ESSA 061820Z 06006KT 9999 SCT025 BKN044 M03/M04 Q1004
                        R01L/710195 R01R///99// R08/710195
                        NOSIG=
201212061750 METAR ESSA 061750Z 08005KT 060V130 9999 BKN025 M03/M04 Q1004
                        R01L/710195 R01R///99// R08/710195
                        NOSIG=
201212061720 METAR ESSA 061720Z 09005KT 9999 SCT028 BKN042 M02/M04 Q1004
                        R01L/710195 R01R///99// R08/710195
                        NOSIG=
201212061650 METAR ESSA 061650Z 09005KT 9999 SCT037 BKN046 M02/M04 Q1004
                        R01L/710195 R01R///99// R08/710195
                        NOSIG=
201212061620 METAR ESSA 061620Z 10004KT 070V140 9999 SCT034 BKN044 M02/M03
                        Q1003 R01L/710195 R01R///99// R08/720195
                        NOSIG=
201212061550 METAR ESSA 061550Z 11005KT 9999 SCT030 BKN040 M02/M03 Q1003
                        R01L/710195 R01R///99// R08/720195
                        NOSIG=
201212061520 METAR ESSA 061520Z 12007KT 9999 -SN BKN028 M01/M03 Q1003
                        R01L/710195 R01R///99// R08/720195
                        NOSIG=
201212061450 METAR ESSA 061450Z 11006KT 9999 SCT025 BKN033 M01/M03 Q1003
                        R01L/710195 R01R///99// R08/720195
                        NOSIG=
201212061420 METAR ESSA 061420Z 12005KT 9999 SCT018 BKN032 M01/M02 Q1002
                        R01L/710195 R01R///99// R08/720195
                        NOSIG=
201212061350 METAR ESSA 061350Z 12004KT 9999 SG FEW021 BKN033 M01/M02
                        Q1002 R01L/720195 R01R///99// R08/720195
                        NOSIG=
201212061320 METAR ESSA 061320Z 09004KT 9999 SCT021 BKN035 M01/M01 Q1002
                        R01L/720195 R01R///99// R08/720195
                        NOSIG=
201212061250 METAR ESSA 061250Z 09004KT 9999 FEW031 BKN037 M01/M01 Q1001
                        R01L/720195 R01R///99// R08/720195
                        NOSIG=
201212061220 METAR ESSA 061220Z 08003KT 9999 BKN037 M00/M02 Q1001 R01L/720195
                        R01R///99// R08/720195 NOSIG=
201212061150 METAR ESSA 061150Z 12004KT 9999 BKN037 M00/M02 Q1001 R01L/720195
                        R01R///99// R08/720195 NOSIG=
201212061120 METAR ESSA 061120Z 11004KT 9999 SCT019 BKN033 M00/M01 Q1001
                        R01L/710195 R01R///99// R08/720195
                        NOSIG=
201212061050 METAR ESSA 061050Z 10004KT 9999 FEW023 BKN030 M01/M01 Q1001
                        R01L/720195 R01R///99// R08/720195
                        NOSIG=
201212061020 METAR ESSA 061020Z 11004KT 9999 BKN031 M00/M01 Q1000 R01L/720139
                        R01R///99// R08/720195 NOSIG=
201212060950 METAR ESSA 060950Z 12004KT 9999 BKN029 M01/M01 Q1000 R01L/720139
                        R01R///99// R08/720148 NOSIG=
201212060920 METAR ESSA 060920Z 11005KT 9999 FEW017 BKN026 M01/M01 Q1000
                        R01L/720139 R01R///99// R08/720148
                        NOSIG=
201212060850 METAR ESSA 060850Z 09005KT 9999 BKN026 M01/M01 Q1000 R01L/720137
                        R01R///99// R08/720141 NOSIG=
201212060820 METAR ESSA 060820Z 08007KT 9999 FEW046 BKN060 M01/M01 Q0999
                        R01L/720137 R01R///99// R08/720141
                        NOSIG=
201212060750 METAR ESSA 060750Z 07005KT 8000 FEW033 BKN060 M01/M01 Q0999
                        R01L/720132 R01R///99// R08/720141
                        NOSIG=
201212060720 METAR ESSA 060720Z 08006KT 9999 -SN BKN031 M01/M01 Q0999
                        R01L/720132 R01R///99// R08/720141
                        NOSIG=
201212060650 METAR COR ESSA 060650Z 07006KT 9999 -SN BKN025 M01/M01 Q0998
                        R01L/720131 R01R///99// R08/720137
                        NOSIG=
201212060620 METAR ESSA 060620Z 08005KT 7000 -SN SCT006 BKN020 M01/M01
                        Q0998 R01L/720134 R01R///99// R08/420137
                        TEMPO 2500 VV009=
201212060550 METAR ESSA 060550Z 07005KT 7000 -SN FEW005 BKN022 M01/M01
                        Q0998 R01L/720126 R01R///99// R08/420137
                        TEMPO 2500 VV009=
201212060520 METAR ESSA 060520Z 08003KT 5000 -SN FEW009 BKN022 M01/M01
                        Q0998 R01L/720127 R01R///99// R08/420137
                        TEMPO 2500 SN VV009=
201212060450 METAR ESSA 060450Z 07005KT 5000 -SN SCT009 BKN015 M01/M01
                        Q0997 R01L/720127 R01R///99// R08/420136
                        TEMPO 2500 SN VV009=
201212060420 METAR ESSA 060420Z 05004KT 7000 -SN SCT021 BKN030 M01/M01
                        Q0997 R01L/720136 R01R///99// R08/420136
                        TEMPO 2500 SN=
201212060350 METAR COR ESSA 060350Z 06005KT 9999 -SN FEW006 BKN025 M01/M01
                        Q0997 R01L/720136 R01R///99// R08/420136
                        TEMPO 2500 SN=
201212060320 METAR ESSA 060320Z 07005KT 9999 BKN025 M01/M01 Q0997 R01L/720136
                        R01R///99// R08/99 NOSIG=
201212060250 METAR ESSA 060250Z 06005KT 9999 BKN024 M01/M01 Q0996 R01L/720136
                        R01R///99// R08/99 NOSIG=
201212060220 METAR ESSA 060220Z 07005KT 9999 BKN025 M00/M01 Q0996 R01L/720136
                        R01R///99// R08/99 NOSIG=
201212060150 METAR ESSA 060150Z 07005KT 9999 FEW014 BKN020 M01/M01 Q0996
                        R01L/720122 R01R///99// R08/99 NOSIG=
201212060120 METAR ESSA 060120Z 06004KT 9999 BKN017 M01/M01 Q0996 R01L/750228
                        R01R///99// R08/99 NOSIG=
201212060050 METAR ESSA 060050Z 06004KT 9999 FEW017 BKN020 M01/M01 Q0995
                        R01L/750228 R01R///99// R08/99 NOSIG=
201212060020 METAR ESSA 060020Z 07005KT 9999 FEW017 BKN020 M01/M01 Q0995
                        R01L/750228 R01R///99// R08/99 NOSIG=
201212052350 METAR ESSA 052350Z 06005KT 030V090 9999 BKN023 M01/M01 Q0995
                        R01L/750228 R01R///99// R08///99//
                        NOSIG=
201212052320 METAR ESSA 052320Z 05005KT 9999 FEW008 SCT015 BKN023 M01/M01
                        Q0995 R01L/750228 R01R///99// R08/99
                        NOSIG=
201212052250 METAR ESSA 052250Z 04006KT 9999 SCT006 SCT016 BKN032 M01/M01
                        Q0994 R01L/750225 R01R///99// R08/99
                        NOSIG=
201212052220 METAR ESSA 052220Z 04008KT 9999 BKN007 M01/M01 Q0994 R01L/750225
                        R01R///99// R08/99 TEMPO BKN006=
201212052150 METAR ESSA 052150Z 03009KT 9999 SCT006 BKN010 M01/M01 Q0994
                        R01L/750223 R01R///99// R08/99 TEMPO
                        BKN006=
201212052120 METAR ESSA 052120Z 03010KT 1500 SN BKN005 M01/M01 Q0994 R01L/750223
                        R01R///99// R08/99 BECMG 8000 -SN=
201212052050 METAR ESSA 052050Z 02011KT 9999 BKN006 M01/M02 Q0993 R01L/750228
                        R01R///99// R08/99 NOSIG=
201212052020 METAR ESSA 052020Z 01013KT 9999 BKN006 M02/M02 Q0993 R01L/750223
                        R01R///99// R08/99 NOSIG=
201212051950 METAR ESSA 051950Z 02013KT 2500 SN BKN006 M02/M02 Q0993 R01L/750223
                        R01R///99// R08/99 NOSIG=
201212051920 METAR COR ESSA 051920Z 02015KT 2500 SN BKN007 M02/M02 Q0993
                        R01L/750227 R01R///99// R08/99 NOSIG=
201212051850 METAR ESSA 051850Z 02016KT 6000 -SN BKN007 M02/M02 Q0993
                        R01L/750227 R01R///99// R08/99 TEMPO
                        2500 BKN015=
201212051820 METAR ESSA 051820Z 01015KT 2500 -SN SCT007 BKN022 M02/M03
                        Q0992 R01L/750220 R01R///99// R08/99
                        TEMPO 3000 BKN007=
201212051750 METAR ESSA 051750Z 01017KT 2200 -SN SCT007 BKN023 M03/M03
                        Q0992 R01L/750227 R01R///99// R08/99
                        TEMPO 3000 BKN008=
201212051720 METAR ESSA 051720Z 01018KT 1400 SN DRSN VV013 M03/M03 Q0992
                        R01L/750224 R01R///99// R08/99 TEMPO
                        2500=
201212051650 METAR ESSA 051650Z 02020KT 1200 SN DRSN VV012 M03/M03 Q0992
                        R01L/750224 R01R///99// R08/99 TEMPO
                        2500=
201212051620 METAR ESSA 051620Z 02021KT 0700 SN DRSN VV010 M03/M03 Q0992
                        R01L/750227 R01R///99// R08/99 TEMPO
                        1400=
201212051550 METAR ESSA 051550Z 02022KT 0700 SN VV010 M03/M03 Q0992 R01L/750227
                        R01R///99// R08/99 TEMPO 1400=
201212051520 METAR ESSA 051520Z 02020KT 0500 SN DRSN VV009 M03/M03 Q0992
                        R01L/750227 R01R///99// R08/99 TEMPO
                        0800 VV012=
201212051450 METAR ESSA 051450Z 02020KT 0600 SN VV008 M03/M03 Q0992 R01L/750231
                        R01R///99// R08/99 TEMPO 0800 VV012=
201212051320 METAR ESSA 051320Z 02022G32KT 0500 R01L/0900U R01R/0700V1300U
                        R19L/0750N SN DRSN VV007 M03/M04
                        Q0992 R01L/750228 R01R///99// R08/99
                        TEMPO 0800 VV012=
201212051250 METAR ESSA 051250Z 03023KT 0300 R01L/0700N R19R/0800VP1500D
                        R01R/0500N R19L/0600N SN DRSN VV004
                        M04/M04 Q0992 R01L/750237 R01R///99//
                        R08/99 TEMPO 0600 VV007=
201212051220 METAR ESSA 051220Z 02024G35KT 1300 -SN FEW006 BKN011 M04/M04
                        Q0992 R01L/750237 R01R///99// R08/99
                        TEMPO 0700 VV009=
201212051150 METAR ESSA 051150Z 02025KT 0800 R01L/1400N R19R/1500N R01R/1000VP1500N
                        R19L/1300N -SN VV014 M04/M04 Q0992
                        R01L/750234 R01R///99// R08/99 TEMPO
                        0600 VV012=
201212051120 METAR ESSA 051120Z 02024KT 0900 R01L/0900VP1500N R19R/1000V1400N
                        R01R/1000VP1500N R19L/1400N -SN VV009
                        M04/M05 Q0992 R01L/750230 R01R///99//
                        R08/99 TEMPO 0600 VV012=
201212051050 METAR ESSA 051050Z 02025KT 0700 R01L/0900V1400N R19R/0800V1100N
                        R01R/1100VP1500N R19L/0800V1400D
                        SN VV008 M04/M05 Q0992 R01L/750233
                        R01R///99// R08/99 TEMPO 0900 VV012=
201212051020 METAR ESSA 051020Z 03025KT 0700 R01L/1000V1400N R19R/0700V1400N
                        R01R/0900V1500N R19L/0900V1400N SN
                        VV008 M04/M05 Q0992 R01L/750233 R01R///99//
                        R08/99 TEMPO 0900 VV012=
201212050950 METAR ESSA 050950Z 02024KT 0700 R01L/0900V1400N R19R/1000N
                        R01R/0900VP1500N R19L/0800V1300U
                        SN VV008 M04/M05 Q0992 R01L/750230
                        R01R///99// R08/750224 TEMPO 0900
                        VV012=
201212050920 METAR ESSA 050920Z 03024KT 0600 R01L/1000VP1500D R19R/0750VP1500N
                        R01R/1000VP1500D R19L/0900V1500D
                        SN VV008 M05/M05 Q0992 R01L/750231
                        R01R///99// R08/750224 TEMPO 0900
                        VV012=
201212050850 METAR ESSA 050850Z 03023KT 0600 R01L/1200N R19R/0900VP1500N
                        R01R/1000V1500N R19L/0900V1400N SN
                        VV008 M05/M05 Q0993 R01L/750231 R01R///99//
                        R08/750224 TEMPO 0900 VV012=
201212050820 METAR ESSA 050820Z 03022KT 0600 R01L/0900V1400N R01R/1000VP1500N
                        R19L/0800V1400N SN VV008 M05/M05
                        Q0993 R01L/750223 R01R///99// R08/750224
                        TEMPO 0900 VV012=
201212050750 METAR COR ESSA 050750Z 02022KT 1000 R01L/P1500N R01R/P1500N
                        R19L/P1500N -SN VV012 M05/M05 Q0993
                        R01L/750224 R01R///99// R08/750224
                        TEMPO 0700 VV009=
201212050720 METAR ESSA 050720Z 02023KT 0600 R01R/P1500N R19L/1100VP1500N
                        SN VV009 M05/M05 Q0993 R01L/75030
                        R01R///99// R08/750224 TEMPO 0900
                        VV012=
201212050650 METAR ESSA 050650Z 03021KT 0800 ///// ///// R01R/P1500N R19L/P1500N
                        VV012 M05/M05 Q0993 R01L/75026 R01R///99//
                        R08/750224 TEMP 0700=
201212050620 METAR ESSA 050620Z 02022G32KT 1200 R01R/P1500N R19L/P1500N
                        -SN VV015 M05/M05 Q0993 R01L/75022
                        R01R///99// R08/750224 TEMPO 700
                        VV005=
201212050550 METAR ESSA 050550Z 02022KT 1000 R01R/P1500N R19L/P1500N VV010
                        M05/M05 Q0993 R01L/750216 R01R///99//
                        R08/750224 TEMPO 700 VV005=
201212050520 METAR ESSA 050520Z 03024KT 0700 R01L/XXXX R08/ R01R/P1500N
                        R19L/1500U SN VV009 M05/M05 Q0993
                        R01L/750216 R01R///99// R08/750224
                        TEMPO 1200 VV005=
201212050450 METAR ESSA 050450Z 02021KT 0700 R01L/P1500N R19R/1000VP1500D
                        R01R/P1500N R19L/P1500N SN VV009
                        M05/M05 Q0993 R01L/750221 R01R///99//
                        R08/750224 TEMPO 1200 VV005=
201212050420 METAR ESSA 050420Z 02022KT 1000 R01L/P1500N R19R/P1500N R01R/P1500N
                        R19L/P1500N SN VV011 M05/M05 Q0993
                        R01L/750220 R01R///99// R08/750224
                        TEMPO VV005=
201212050350 METAR ESSA 050350Z 03022KT 1300 R01L/P1500N R19R/P1500N R01R/P1500N
                        R19L/P1500N SN FEW005 BKN012 M05/M05
                        Q0993 R01L/720231 R01R///99// R08/99
                        TEMPO VV005=
201212050320 METAR ESSA 050320Z 03021G33KT 4800 -SN FEW010 BKN014 M05/M06
                        Q0994 R01L/720231 R01R///99// R08/99
                        TEMPO 1400 VV009=
201212050250 METAR ESSA 050250Z 03021KT 1200 R01L/P1500N R19R/P1500N R01R/P1500N
                        R19L/P1500N SN VV012 M05/M06 Q0994
                        R01L/720231 R01R///99// R08/99 TEMPO
                        2000 VV015=
201212050220 METAR ESSA 050220Z 03021KT 2500 SN FEW011 BKN014 M05/M06
                        Q0994 R01L/720231 R01R///99// R08/99
                        TEMPO 1400 BKN015=
201212050150 METAR ESSA 050150Z 03021KT 1400 R01L/P1500N R19R/P1500N R01R/P1500N
                        R19L/P1500N SN FEW011 BKN014 M05/M06
                        Q0994 R01L/720231 R01R///99// R08/99
                        TEMPO 3000 BKN015=
201212050120 METAR ESSA 050120Z 03020KT 9000 -SN FEW012 SCT015 BKN031
                        M05/M06 Q0994 R01L/720236 R01R///99//
                        R08/720231 TEMPO 5000 BKN015=
201212050050 METAR ESSA 050050Z 03020KT 3200 SN FEW011 BKN014 M05/M06
                        Q0994 R01L/720219 R01R///99// R08/720231
                        TEMPO 5000 BKN015=
201212050020 METAR ESSA 050020Z 03019KT 1400 R01L/P1500N R19R/P1500N R01R/P1500N
                        R19L/P1500N SN VV013 M05/M06 Q0994
                        R01L/720219 R01R///99// R08/720231
                        TEMPO VV010=
201212042350 METAR ESSA 042350Z 03021KT 1400 SN VV014 M05/M06 Q0995 R01L/720226
                        R01R///99// R08/720234 TEMPO VV010=
201212042320 METAR ESSA 042320Z 03021KT 1400 R01L/P1500N R19R/P1500N R01R/P1500N
                        R19L/P1500N SN VV011 M05/M06 Q0995
                        R01L/720226 R01R///99// R08/550229
                        TEMPO VV010=
201212042250 METAR ESSA 042250Z 03021KT 2500 SN VV018 M05/M06 Q0995 R01L/550228
                        R01R///99// R08/550229 TEMPO 2000
                        VV008=
201212042220 METAR ESSA 042220Z 03023KT 2500 SN VV020 M05/M07 Q0995 R01L/550228
                        R01R///99// R08/520259 TEMPO 2000
                        VV008=
201212042150 METAR ESSA 042150Z 04022KT 9000 -SN SCT020 BKN040 M05/M07
                        Q0995 R01L/520259 R01R///99// R08/520259
                        TEMPO 4000 VV012=
201212042120 METAR ESSA 042120Z 04020KT 9999 -SN SCT020 SCT035 BKN060
                        M05/M08 Q0995 R01L/520259 R01R///99//
                        R08/520259 TEMPO 4000 VV012=
201212042050 METAR ESSA 042050Z 03021KT 9000 -SN FEW019 SCT030 BKN060
                        M05/M08 Q0995 R01L/520259 R01R///99//
                        R08/550257 TEMPO 4000 VV012=
201212042020 METAR ESSA 042020Z 03020KT 9000 -SN FEW018 SCT025 BKN053
                        M05/M07 Q0995 R01L/520254 R01R///99//
                        R08/550257 TEMPO 4000 VV012=
201212041950 METAR ESSA 041950Z 04020KT 7000 -SN FEW025 SCT036 BKN046
                        M05/M07 Q0995 R01L/520254 R01R///99//
                        R08/550257 TEMPO 4000 VV012=
201212041920 METAR ESSA 041920Z 04018KT 8000 -SN FEW009 SCT020 BKN035
                        M05/M06 Q0995 R01L/520250 R01R///99//
                        R08/520263 TEMPO 4000 VV012=
201212041850 METAR ESSA 041850Z 04017KT 8000 -SN FEW011 BKN042 M04/M06
                        Q0995 R01L/520256 R01R///99// R08/520263
                        TEMPO 4000 VV012=
201212041820 METAR ESSA 041820Z 04016KT 9999 -SN SCT011 BKN042 M04/M05
                        Q0995 R01L/520256 R01R///99// R08/520263
                        TEMPO 2000 SN VV008=
201212041750 METAR ESSA 041750Z 04015KT 7000 -SN BKN010 M04/M05 Q0995
                        R01L/520256 R01R///99// R08/520265
                        TEMPO 2000 SN VV008=
201212041720 METAR ESSA 041720Z 04013KT 7000 -SN BKN011 M04/M04 Q0995
                        R01L/520257 R01R///99// R08/520255
                        TEMPO 2000 SN VV008=
201212041650 METAR ESSA 041650Z 07013KT 4800 -SN SCT010 BKN033 M04/M04
                        Q0995 R01L/520257 R01R///99// R08/520255
                        TEMPO 2000 SN VV010=
201212041620 METAR ESSA 041620Z 04013KT 9999 -SN SCT012 BKN019 M04/M04
                        Q0995 R01L/520251 R01R///99// R08/520253
                        TEMPO 4000 BKN010=
201212041550 METAR ESSA 041550Z 03013KT 7000 -SN SCT010 BKN015 M04/M05
                        Q0995 R01L/520251 R01R///99// R08/520252
                        TEMPO 4000 BKN010=
201212041520 METAR ESSA 041520Z 02012KT 8000 -SN BKN010 M05/M05 Q0995
                        R01L/520252 R01R///99// R08/520252
                        TEMPO 4000 BKN008=
201212041450 METAR ESSA 041450Z 03012KT 5000 -SN BKN010 M04/M05 Q0996
                        R01L/520233 R01R///99// R08/520250
                        TEMPO 3000 BKN008=
201212041420 METAR ESSA 041420Z 36012KT 2000 SN VV010 M05/M05 Q0996 R01L/520227
                        R01R///99// R08/520227 TEMPO 3000=
201212041350 METAR ESSA 041350Z 01008KT 2000 SN VV010 M06/M06 Q0996 R01L/520227
                        R01R///99// R08/520239 TEMPO 3000=
201212041320 METAR ESSA 041320Z 02008KT 2500 SN VV015 M07/M07 Q0996 R01L/520250
                        R01R///99// R08/520239 TEMPO 1400
                        VV010=
201212041250 METAR ESSA 041250Z 36007KT 2500 SN VV015 M07/M08 Q0997 R01L/510227
                        R01R///99// R08/710152 TEMPO 1400
                        VV010=
201212041220 METAR ESSA 041220Z 35007KT 2500 SN SCT007 BKN010 M07/M08
                        Q0997 R01L/710164 R01R/810282 R08/710152
                        TEMPO 4000 BKN006=
201212041150 METAR ESSA 041150Z 34006KT 5000 -SN SCT007 BKN010 M08/M08
                        Q0997 R01L/710164 R01R/810282 R08/710152
                        TEMPO 4000 BKN015=
201212041120 METAR ESSA 041120Z 35006KT 6000 -SN VV010 M08/M09 Q0998 R01L/710164
                        R01R/810282 R08/710152 TEMPO BKN015=
201212041050 METAR ESSA 041050Z 35006KT 8000 -SN BKN014 M09/M10 Q0998
                        R01L/710164 R01R/810282 R08/710152
                        TEMPO SCT012=
201212041020 METAR ESSA 041020Z 35007KT 9999 BKN014 M09/M10 Q0998 R01L/710164
                        R01R/810282 R08/710152 TEMPO SCT012=
201212040950 METAR ESSA 040950Z 32006KT 9999 BKN045 M10/M11 Q0998 R01L/710164
                        R01R/810282 R08/710152 TEMPO BKN012=
201212040920 METAR ESSA 040920Z 35008KT 9999 SCT012 BKN020 M10/M11 Q0999
                        R01L/710164 R01R/810282 R08/710152
                        TEMPO BKN012=
201212040850 METAR ESSA 040850Z 36008KT 9999 SCT016 BKN022 M11/M12 Q0999
                        R01L/710164 R01R/810282 R08/710152
                        NOSIG=
201212040820 METAR ESSA 040820Z 33007KT 9000 -SN BKN022 M11/M12 Q0999
                        R01L/710164 R01R/810282 R08/710152
                        NOSIG=
201212040750 METAR ESSA 040750Z 33006KT 7000 -SN BKN016 M11/M12 Q0999
                        R01L/710164 R01R/810282 R08/710152
                        NOSIG=
201212040720 METAR ESSA 040720Z 32005KT 9999 SCT013 BKN015 M12/M13 Q0999
                        R01L/710164 R01R/810282 R08/710152
                        BECMG BKN013=
201212040650 METAR ESSA 040650Z 31006KT 9999 SCT013 BKN015 M12/M13 Q0999
                        R01L/710164 R01R/810282 R08/710152
                        BECMG BKN013=
201212040620 METAR ESSA 040620Z 34004KT 9999 SCT014 BKN018 M12/M13 Q1000
                        R01L/710164 R01R/810282 R08/710152
                        NOSIG=
201212040550 METAR ESSA 040550Z 33005KT 9999 FEW015 BKN018 M13/M14 Q1000
                        R01L/710164 R01R/810282 R08/710152
                        NOSIG=
201212040520 METAR ESSA 040520Z 33005KT 9999 FEW010 BKN018 M13/M15 Q1000
                        R01L/710164 R01R/810282 R08/710152
                        NOSIG=
201212040450 METAR ESSA 040450Z 30005KT 9999 BKN020 M14/M15 Q1001 R01L/710164
                        R01R/810282 R08/710152 NOSIG=
201212040420 METAR ESSA 040420Z 29004KT 9999 BKN022 M14/M15 Q1001 R01L/710160
                        R01R/810282 R08/710152 NOSIG=
201212040350 METAR ESSA 040350Z 31003KT 9999 BKN023 M14/M16 Q1001 R01L/710160
                        R01R/710174 R08/710147 NOSIG=
201212040320 METAR ESSA 040320Z 29003KT 270V330 9999 BKN025 M15/M16 Q1002
                        R01L/710160 R01R/710174 R08/710147
                        NOSIG=
201212040250 METAR ESSA 040250Z 30003KT 9999 SCT025 BKN080 M16/M17 Q1002
                        R01L/710160 R01R/710174 R08/710147
                        NOSIG=
201212040220 METAR ESSA 040220Z 29003KT 9999 SCT025 BKN080 M16/M18 Q1002
                        R01L/710160 R01R/710174 R08/710147
                        NOSIG=
201212040150 METAR ESSA 040150Z 29004KT CAVOK M16/M18 Q1003 R01L/710160
                        R01R/710174 R08/710147 NOSIG=
201212040120 METAR ESSA 040120Z 34004KT CAVOK M17/M18 Q1003 R01L/710160
                        R01R/710174 R08/710147 NOSIG=
201212040050 METAR ESSA 040050Z 33003KT CAVOK M17/M19 Q1003 R01L/710160
                        R01R/710174 R08/710147 NOSIG=
201212040020 METAR ESSA 040020Z 31003KT CAVOK M18/M19 Q1004 R01L/710160
                        R01R/710174 R08/710147 NOSIG=
201212032350 METAR ESSA 032350Z 31002KT CAVOK M18/M19 Q1004 R01L/710160
                        R01R/710174 R08/710147 NOSIG=
201212032320 METAR ESSA 032320Z 31004KT CAVOK M18/M19 Q1005 R01L/710160
                        R01R/710174 R08/710147 NOSIG=
201212032250 METAR ESSA 032250Z 33003KT CAVOK M18/M19 Q1005 R01L/710160
                        R01R/710174 R08/710147 NOSIG=
201212032220 METAR ESSA 032220Z 25003KT CAVOK M18/M20 Q1005 R01L/710160
                        R01R/710174 R08/710147 NOSIG=
201212032150 METAR ESSA 032150Z VRB02KT CAVOK M18/M19 Q1005 R01L/710160
                        R01R/710174 R08/710147 NOSIG=
201212032120 METAR ESSA 032120Z 25003KT CAVOK M18/M20 Q1006 R01L/710160
                        R01R/710174 R08/710147 NOSIG=
201212032050 METAR ESSA 032050Z 30002KT CAVOK M18/M20 Q1006 R01L/710160
                        R01R/710174 R08/710147 NOSIG=
201212032020 METAR ESSA 032020Z 31003KT CAVOK M17/M18 Q1006 R01L/710160
                        R01R/710174 R08/710147 NOSIG=
201212031950 METAR ESSA 031950Z 31003KT CAVOK M17/M18 Q1006 R01L/710160
                        R01R/710174 R08/710147 NOSIG=
201212031920 METAR ESSA 031920Z 28003KT CAVOK M17/M19 Q1006 R01L/710160
                        R01R/710174 R08/710147 NOSIG=
201212031850 METAR ESSA 031850Z 25002KT 9999 FEW004 M16/M18 Q1007 R01L/710160
                        R01R/710174 R08/710147 NOSIG=
201212031820 METAR ESSA 031820Z 31002KT CAVOK M16/M18 Q1007 R01L/710160
                        R01R/710174 R08/710147 NOSIG=
201212031750 METAR ESSA 031750Z 33003KT 290V360 CAVOK M16/M17 Q1007 R01L/710160
                        R01R/710174 R08/710147 NOSIG=
201212031720 METAR ESSA 031720Z 23005KT CAVOK M15/M17 Q1007 R01L/710160
                        R01R/710174 R08/710147 NOSIG=
201212031650 METAR ESSA 031650Z 27003KT CAVOK M16/M17 Q1008 R01L/710160
                        R01R/710174 R08/710147 NOSIG=
201212031620 METAR ESSA 031620Z 28004KT CAVOK M15/M17 Q1008 R01L/710160
                        R01R/710174 R08/710147 NOSIG=
201212031550 METAR ESSA 031550Z 29003KT CAVOK M15/M16 Q1008 R01L/710160
                        R01R/710174 R08/710147 NOSIG=
201212031520 METAR ESSA 031520Z 29003KT CAVOK M15/M16 Q1008 R01L/710160
                        R01R/710174 R08/710147 NOSIG=
201212031450 METAR ESSA 031450Z 30003KT CAVOK M14/M15 Q1008 R01L/710160
                        R01R/710174 R08/710147 NOSIG=
201212031420 METAR ESSA 031420Z 30003KT CAVOK M15/M16 Q1008 R01L/710160
                        R01R/710174 R08/710147 NOSIG=
201212031350 METAR ESSA 031350Z 27003KT CAVOK M14/M15 Q1009 R01L/710160
                        R01R/710174 R08/710147 NOSIG=
201212031320 METAR ESSA 031320Z 26003KT 240V300 CAVOK M13/M15 Q1009 R01L/710160
                        R01R/710174 R08/710147 NOSIG=
201212031250 METAR ESSA 031250Z 26005KT CAVOK M13/M14 Q1009 R01L/710160
                        R01R/710174 R08/710147 NOSIG=
201212031220 METAR ESSA 031220Z 26004KT CAVOK M13/M14 Q1010 R01L/710160
                        R01R/710174 R08/710147 NOSIG=
201212031150 METAR ESSA 031150Z 28003KT CAVOK M13/M15 Q1010 R01L/710160
                        R01R/710174 R08/710147 NOSIG=
201212031120 METAR ESSA 031120Z 30004KT CAVOK M14/M15 Q1010 R01L/710160
                        R01R/710174 R08/710147 NOSIG=
201212031050 METAR ESSA 031050Z 28004KT CAVOK M14/M15 Q1010 R01L/710160
                        R01R/710174 R08/710147 NOSIG=
201212031020 METAR ESSA 031020Z 29004KT CAVOK M14/M16 Q1010 R01L/710160
                        R01R/710174 R08/710147 NOSIG=
201212030950 METAR ESSA 030950Z 30004KT CAVOK M15/M16 Q1011 R08/710148
                        R01L/710160 R01R/710174 NOSIG=
201212030920 METAR ESSA 030920Z 30005KT CAVOK M15/M17 Q1011 R08/710148
                        R01L/710160 R01R/710174 NOSIG=
201212030850 METAR ESSA 030850Z 29004KT CAVOK M16/M17 Q1011 R08/710148
                        R01L/710160 R01R/710174 NOSIG=
201212030820 METAR ESSA 030820Z 29004KT CAVOK M16/M18 Q1011 R08/710148
                        R01L/710160 R01R/710174 NOSIG=
201212030750 METAR ESSA 030750Z 29003KT CAVOK M17/M18 Q1011 R08/710148
                        R01L/710160 R01R/710174 NOSIG=
201212030720 METAR ESSA 030720Z 27003KT CAVOK M16/M18 Q1011 R08/710148
                        R01L/710160 R01R/710174 NOSIG=
201212030650 METAR ESSA 030650Z 29003KT CAVOK M16/M18 Q1011 R08/710148
                        R01L/710160 R01R/710174 NOSIG=
201212030620 METAR ESSA 030620Z 30003KT CAVOK M16/M18 Q1011 R08/710148
                        R01L/710160 R01R/710174 NOSIG=
201212030550 METAR ESSA 030550Z 29003KT CAVOK M16/M18 Q1011 R08/710148
                        R01L/710160 R01R/710174 NOSIG=
201212030520 METAR ESSA 030520Z 30003KT CAVOK M16/M17 Q1011 R08/710148
                        R01L/710160 R01R/710174 NOSIG=
201212030450 METAR ESSA 030450Z 29003KT CAVOK M16/M17 Q1011 R08/710148
                        R01L/710160 R01R/710174 NOSIG=
201212030420 METAR ESSA 030420Z 31003KT CAVOK M16/M17 Q1012 R08/710148
                        R01L/710160 R01R/710174 NOSIG=
201212030350 METAR ESSA 030350Z 30004KT CAVOK M15/M17 Q1012 R08/710148
                        R01L/710164 R01R/710175 NOSIG=
201212030320 METAR ESSA 030320Z 31004KT CAVOK M15/M16 Q1012 R08/710150
                        R01L/710164 R01R/710175 NOSIG=
201212030250 METAR ESSA 030250Z 30004KT CAVOK M15/M16 Q1012 R08/710150
                        R01L/710164 R01R/710175 NOSIG=
201212030220 METAR ESSA 030220Z 29003KT CAVOK M15/M16 Q1012 R08/710150
                        R01L/710164 R01R/710175 NOSIG=
201212030150 METAR ESSA 030150Z 28003KT CAVOK M15/M17 Q1012 R08/710150
                        R01L/710164 R01R/710175 NOSIG=
201212030120 METAR ESSA 030120Z 30003KT CAVOK M15/M16 Q1012 R08/710150
                        R01L/710164 R01R/710175 NOSIG=
201212030050 METAR ESSA 030050Z 29003KT CAVOK M15/M16 Q1012 R08/710150
                        R01L/710164 R01R/710175 NOSIG=
201212030020 METAR ESSA 030020Z 27002KT CAVOK M15/M16 Q1012 R08/710150
                        R01L/710164 R01R/710175 NOSIG=
201212022350 METAR ESSA 022350Z 31003KT CAVOK M15/M16 Q1013 RESG R08/710150
                        R01L/710164 R01R/710175 NOSIG=
201212022320 METAR COR ESSA 022320Z 29003KT CAVOK M14/M16 Q1013 R08/710150
                        R01L/710164 R01R/710175 NOSIG=
201212022250 METAR ESSA 022250Z 29003KT CAVOK M15/M16 Q1013 R08/710150
                        R01L/710164 R01R/710175 TEMPO BKN004=
201212022220 METAR ESSA 022220Z 30004KT 9999 -SN FEW004 M14/M15 Q1013
                        R08/710150 R01L/710164 R01R/710175
                        TEMPO BKN004=
201212022150 METAR ESSA 022150Z 29004KT CAVOK M14/M15 Q1013 R08/710148
                        R01L/710167 R01R/710183 NOSIG=
201212022120 METAR ESSA 022120Z 29004KT CAVOK M14/M15 Q1013 R08/710148
                        R01L/710167 R01R/710183 NOSIG=
201212022050 METAR ESSA 022050Z 30004KT 9999 FEW018 M14/M15 Q1013 R08/710148
                        R01L/710167 R01R/710183 NOSIG=
201212022020 METAR ESSA 022020Z 31005KT 9999 SCT018 M14/M15 Q1013 R08/710148
                        R01L/710167 R01R/710183 NOSIG=
201212021950 METAR ESSA 021950Z 30004KT CAVOK M14/M15 Q1013 R08/710148
                        R01L/710167 R01R/710183 NOSIG=
201212021920 METAR ESSA 021920Z 30003KT CAVOK M13/M15 Q1013 R08/710148
                        R01L/710167 R01R/710183 NOSIG=
201212021850 METAR ESSA 021850Z 31004KT CAVOK M13/M15 Q1013 R08/710148
                        R01L/710167 R01R/710183 NOSIG=
201212021820 METAR ESSA 021820Z 31006KT CAVOK M13/M15 Q1013 R08/710148
                        R01L/710167 R01R/710183 NOSIG=
201212021750 METAR ESSA 021750Z 32006KT CAVOK M13/M14 Q1013 R08/710148
                        R01L/710167 R01R/710183 NOSIG=
201212021720 METAR ESSA 021720Z 33006KT CAVOK M13/M14 Q1013 R08/710148
                        R01L/710167 R01R/710183 NOSIG=
201212021650 METAR ESSA 021650Z 33006KT CAVOK M13/M14 Q1013 R08/710148
                        R01L/710167 R01R/710183 NOSIG=
201212021620 METAR ESSA 021620Z 33005KT 310V020 CAVOK M13/M14 Q1013 R08/710148
                        R01L/710167 R01R/719982 NOSIG=
201212021550 METAR ESSA 021550Z 32005KT CAVOK M12/M14 Q1013 R08/710148
                        R01L/710167 R01R/719982 NOSIG=
201212021520 METAR ESSA 021520Z 32005KT 9999 FEW046 SCT200 M12/M14 Q1013
                        R08/710148 R01L/710167 R01R/719982
                        NOSIG=
201212021450 METAR ESSA 021450Z 32006KT CAVOK M12/M13 Q1013 R08/710151
                        R01L/710167 R01R/719982 NOSIG=
201212021420 METAR ESSA 021420Z 32006KT CAVOK M12/M13 Q1013 R08/710151
                        R01L/710167 R01R/719982 NOSIG=
201212021350 METAR ESSA 021350Z 33006KT CAVOK M11/M13 Q1013 R08/710151
                        R01L/710167 R01R/719982 NOSIG=
201212021320 METAR ESSA 021320Z 32006KT CAVOK M11/M12 Q1013 R08/710151
                        R01L/710167 R01R/719982 NOSIG=
201212021250 METAR ESSA 021250Z 32009KT CAVOK M11/M12 Q1013 R08/710151
                        R01L/710167 R01R/719982 NOSIG=
201212021220 METAR ESSA 021220Z 32007KT CAVOK M10/M11 Q1013 R08/710151
                        R01L/710167 R01R/719982 NOSIG=
201212021150 METAR ESSA 021150Z 32008KT 9999 FEW036 BKN200 M09/M11 Q1013
                        R08/710151 R01L/710167 R01R/719982
                        NOSIG=
201212021120 METAR ESSA 021120Z 33007KT 9999 FEW032 BKN200 M09/M11 Q1013
                        R08/710151 R01L/710167 R01R/719982
                        NOSIG=
201212021050 METAR ESSA 021050Z 33008KT 9999 SCT029 BKN200 M09/M11 Q1013
                        R08/710151 R01L/710167 R01R/719982
                        NOSIG=
201212021020 METAR ESSA 021020Z 34007KT 9999 FEW045 SCT060 BKN200 M09/M11
                        Q1013 R08/710151 R01L/710167 R01R///99//
                        NOSIG=
201212020950 METAR ESSA 020950Z 33009KT 9999 -SN FEW045 BKN060 M09/M10
                        Q1012 R08/710155 R01L/710166 R01R///99//
                        NOSIG=
201212020920 METAR ESSA 020920Z 34008KT CAVOK M09/M10 Q1012 R08/710155
                        R01L/710166 R01R///99// NOSIG=
201212020850 METAR ESSA 020850Z 33008KT 9999 FEW035 BKN200 M09/M10 Q1012
                        R08/710155 R01L/710166 R01R///99//
                        NOSIG=
201212020820 METAR ESSA 020820Z 33008KT 9999 FEW032 SCT055 M09/M10 Q1012
                        R08/710155 R01L/710166 R01R///99//
                        TEMPO 4000 -SN=
201212020750 METAR ESSA 020750Z 33010KT 9999 FEW037 BKN060 M09/M10 Q1012
                        R08/710155 R01L/710166 R01R///99//
                        TEMPO 4000 -SN=
201212020720 METAR ESSA 020720Z 33010KT CAVOK M08/M10 Q1011 R08/710155
                        R01L/710166 R01R///99// TEMPO 4000
                        -SN=
201212020650 METAR ESSA 020650Z 32011KT CAVOK M08/M09 Q1011 R08/710155
                        R01L/710166 R01R///99// TEMPO 4000
                        -SN=
201212020620 METAR ESSA 020620Z 32011KT CAVOK M08/M09 Q1011 R08/710155
                        R01L/710166 TEMPO 4000 -SN=
201212020550 METAR COR ESSA 020550Z 31010KT CAVOK M08/M09 Q1011 R08/710155
                        R01L/710166 TEMPO 4000 -SN=
201212020520 METAR ESSA 020520Z 31009KT CAVOK M08/M09 Q1011 R01L/710166
                        R01R///99// R08/710155 TEMPO 4000=
201212020450 METAR ESSA 020450Z 31009KT 9999 -SN FEW016 SCT035 BKN100
                        M08/M09 Q1010 R01L/710166 R01R///99//
                        R08/710155 TEMPO 4000=
201212020420 METAR ESSA 020420Z 31010KT 9999 -SN FEW025 BKN100 M08/M09
                        Q1010 RESG R01L/710166 R01R///99//
                        R08/710155 TEMPO 4000=
201212020350 METAR COR ESSA 020350Z 31010KT 9999 -SN FEW031 BKN100 M08/M09
                        Q1010 R01L/710166 R01R///99// R08/710155
                        TEMPO 4000=
201212020320 METAR COR ESSA 020320Z 31008KT 9999 -SN NSC M08/M08 Q1010
                        R01L/710156 R01R///99// R08/710156
                        TEMPO 4000=
201212020250 METAR ESSA 020250Z 30008KT 9999 SCT045 BKN100 M08/M08 Q1010
                        R01L/710156 R01R///99// R08/710156
                        NOSIG=
201212020220 METAR ESSA 020220Z 31007KT CAVOK M08/M09 Q1010 R01L/710156
                        R01R///99// R08/710156 NOSIG=
201212020150 METAR ESSA 020150Z 32008KT CAVOK M08/M09 Q1009 R01L/710156
                        R01R///99// R08/710156 NOSIG=
201212020120 METAR ESSA 020120Z 32008KT CAVOK M08/M09 Q1009 R01L/710156
                        R01R///99// R08/710156 NOSIG=
201212020050 METAR ESSA 020050Z 31008KT CAVOK M08/M08 Q1009 R01L/710156
                        R01R///99// R08/710156 NOSIG=
201212020020 METAR ESSA 020020Z 32009KT CAVOK M08/M08 Q1009 R01L/710156
                        R01R///99// R08/710156 NOSIG=
201212012350 METAR ESSA 012350Z 32007KT CAVOK M08/M08 Q1009 R01L/710156
                        R01R///99// R08/710156 NOSIG=
201212012320 METAR ESSA 012320Z 32006KT 9999 -SN FEW042 BKN100 M08/M09
                        Q1009 R01L/710156 R01R///99// R08/710156
                        NOSIG=
201212012250 METAR ESSA 012250Z 32007KT 9999 -SN FEW016 BKN068 M08/M09
                        Q1009 R01L/710156 R01R///99// R08/710156
                        NOSIG=
201212012220 METAR ESSA 012220Z 32008KT CAVOK M08/M08 Q1009 R01L/710156
                        R01R///99// R08/710156 NOSIG=
201212012150 METAR ESSA 012150Z 34006KT CAVOK M08/M08 Q1008 R01L/710156
                        R01R///99// R08/710156 NOSIG=
201212012120 METAR ESSA 012120Z 33008KT CAVOK M08/M08 Q1008 R01L/710156
                        R01R///99// R08/710156 NOSIG=
201212012050 METAR ESSA 012050Z 34006KT CAVOK M07/M08 Q1008 R01L/710156
                        R01R///99// R08/710156 NOSIG=
201212012020 METAR ESSA 012020Z 33007KT CAVOK M07/M08 Q1008 R01L/710163
                        R01R///99// R08/710159 NOSIG=
201212011950 METAR ESSA 011950Z 33008KT CAVOK M07/M08 Q1008 R01L/710163
                        R01R///99// R08/710159 NOSIG=
201212011920 METAR ESSA 011920Z 33006KT CAVOK M07/M08 Q1008 R01L/710163
                        R01R///99// R08/710159 NOSIG=
201212011850 METAR ESSA 011850Z 33007KT CAVOK M07/M08 Q1007 R01L/710163
                        R01R///99// R08/710159 NOSIG=
201212011820 METAR ESSA 011820Z 34006KT CAVOK M07/M08 Q1007 R01L/710163
                        R01R///99// R08/710159 NOSIG=
201212011750 METAR ESSA 011750Z 34008KT CAVOK M07/M07 Q1007 RESG R01L/710163
                        R01R///99// R08/710159 NOSIG=
201212011720 METAR ESSA 011720Z 33006KT CAVOK M07/M07 Q1007 RESG R01L/710163
                        R01R///99// R08/710159 NOSIG=
201212011650 METAR ESSA 011650Z 33006KT 9999 -SN FEW006 BKN070 M06/M07
                        Q1007 R01L/710163 R01R///99// R08/710159
                        NOSIG=
201212011620 METAR COR ESSA 011620Z 34006KT 5000 -SN SCT007 SCT017 BKN070
                        M06/M06 Q1007 R01L/710163 R01R///99//
                        R08/710159 TEMPO 4000=
201212011550 METAR ESSA 011550Z 34007KT 7000 -SN SCT004 BKN025 M06/M06
                        Q1007 R01L/7101763 R01R///99// R08/710159
                        BECMG 9999=
201212011520 METAR ESSA 011520Z 34006KT 9000 -SN SCT005 BKN020 M06/M06
                        Q1007 R01L/710170 R01R///99// R08/710163
                        NOSIG=
201212011450 METAR ESSA 011450Z 34008KT 9999 -SN FEW007 SCT012 BKN025
                        M06/M06 Q1007 R01L/710170 R01R///99//
                        R08/710163 NOSIG=
201212011420 METAR ESSA 011420Z 33006KT 9999 FEW014 SCT025 SCT060 M06/M07
                        Q1007 R01L/710170 R01R///99// R08/710163
                        NOSIG=
201212011350 METAR ESSA 011350Z 34007KT 9999 FEW015 BKN060 M06/M06 Q1006
                        R01L/710170 R01R///99// R08/710163
                        NOSIG=
201212011320 METAR ESSA 011320Z 34007KT 9999 FEW021 BKN055 M06/M06 Q1006
                        R01L/710170 R01R///99// R08/710163
                        NOSIG=
201212011250 METAR ESSA 011250Z 34008KT CAVOK M06/M06 Q1006 R01L/710170
                        R01R///99// R08/710163 NOSIG=
201212011220 METAR ESSA 011220Z 35006KT 9999 FEW046 BKN068 M06/M06 Q1006
                        R01L/710170 R01R///99// R08/710163
                        NOSIG=
201212011150 METAR ESSA 011150Z 33006KT 9999 FEW044 SCT055 M06/M06 Q1006
                        R01L/710170 R01R///99// R08/710163
                        NOSIG=
201212011120 METAR ESSA 011120Z 36008KT CAVOK M05/M06 Q1006 R01L/710170
                        R01R///99// R08/710163 NOSIG=
201212011050 METAR ESSA 011050Z 36006KT 9999 FEW034 SCT048 M05/M06 Q1006
                        R01L/710170 R01R///99// R08/710163
                        NOSIG=
201212011020 METAR ESSA 011020Z 36006KT 9999 FEW047 M06/M06 Q1006 R01L/710170
                        R01R///99// R08/710163 NOSIG=
201212010950 METAR ESSA 010950Z 36006KT 9999 FEW021 M06/M06 Q1006 R01L/710170
                        R01R///99// R08/710163 NOSIG=
201212010920 METAR ESSA 010920Z 36007KT 9999 -SN FEW016 SCT021 BKN070
                        M06/M06 Q1005 R01L/710165 R01R///99//
                        R08/710163 NOSIG=
201212010850 METAR ESSA 010850Z 36007KT 9999 -SN FEW012 SCT015 BKN025
                        M06/M06 Q1005 R01L/710165 R01R///99//
                        R08/710165 NOSIG=
201212010820 METAR ESSA 010820Z 35005KT 9000 -SN SCT006 BKN030 M06/M06
                        Q1005 R01L/710165 R01R///99// R08/710165
                        NOSIG=
201212010750 METAR ESSA 010750Z 36005KT 8000 -SN FEW006 BKN008 M06/M06
                        Q1005 R01L/710165 R01R///99// R08/710165
                        BECMG BKN025=
201212010720 METAR ESSA 010720Z 36006KT 7000 -SN FEW005 BKN009 M06/M06
                        Q1005 R01L/710165 R01R///99// R08/710165
                        TEMPO 4000 BKN015=
201212010650 METAR ESSA 010650Z 34006KT 9999 SG FEW007 BKN016 M06/M06
                        Q1005 R01L/710165 R01R///99// R08/710165
                        NOSIG=
201212010620 METAR ESSA 010620Z 36006KT 9000 -SN FEW009 BKN011 BKN025
                        M06/M06 Q1005 R01L/710165 R01R///99//
                        R08/710165 TEMPO BKN020=
201212010550 METAR ESSA 010550Z 36006KT 9000 -SN FEW013 BKN020 BKN035
                        M06/M06 Q1005 R01L/710165 R01R///99//
                        R08/710165 NOSIG=
201212010520 METAR ESSA 010520Z 36005KT 9999 -SN BKN017 BKN035 M06/M06
                        Q1005 R01L/710165 R01R///99// R08/710165
                        NOSIG=
201212010450 METAR ESSA 010450Z 36006KT 9999 -SN BKN025 BKN060 M06/M06
                        Q1005 R01L/710165 R01R///99// R08/710165
                        NOSIG=
201212010420 METAR ESSA 010420Z 01005KT 9999 BKN038 BKN098 M06/M06 Q1004
                        R01L/710165 R01R///99// R08/710165
                        NOSIG=
201212010350 METAR ESSA 010350Z 36006KT 9999 BKN040 BKN098 M06/M06 Q1004
                        R01L/710163 R01R///99// R08/710162
                        NOSIG=
201212010320 METAR ESSA 010320Z 36006KT 9999 BKN040 BKN098 M06/M06 Q1004
                        R01L/710163 R01R///99// R08/710162
                        NOSIG=
201212010250 METAR ESSA 010250Z 02006KT 9999 BKN040 BKN098 M06/M06 Q1004
                        R01L/710163 R01R///99// R08/710162
                        NOSIG=
201212010220 METAR ESSA 010220Z 01005KT CAVOK M06/M06 Q1004 R01L/710163
                        R01R///99// R08/710162 NOSIG=
201212010150 METAR ESSA 010150Z 01007KT CAVOK M06/M06 Q1004 R01L/710163
                        R01R///99// R08/710162 NOSIG=
201212010120 METAR ESSA 010120Z 01007KT CAVOK M06/M06 Q1004 R01L/710163
                        R01R///99// R08/710162 NOSIG=
201212010050 METAR COR ESSA 010050Z 01007KT CAVOK M06/M06 Q1004 R01L/710163
                        R01R///99// R08/710162 NOSIG=
201212010020 METAR ESSA 010020Z 02007KT 9999 FEW025 BKN098 M06/M06 Q1004
                        R01L/710162 R01R///99// R08/710161
                        NOSIG=

# No short TAF reports from ESSA in databse.

###################################
#  large TAF from ESSA
###################################
201212312330 TAF ESSA 312330Z 0100/0124 21012KT 9999 BKN012
                      TEMPO 0100/0109 4000 -RADZ BKN006
                      BECMG 0109/0111 SCT020
                      PROB40 0120/0124 4000 BR BKN008=
201212311730 TAF ESSA 311730Z 3118/0118 18012KT 8000 -RA BKN008
                      TEMPO 3118/3122 4000 -DZ BKN004
                      BECMG 3122/3124 BKN010
                      TEMPO 0100/0109 4000 -DZ BKN007
                      BECMG 0109/0111 SCT020=
201212311130 TAF ESSA 311130Z 3112/0112 20014KT 9999 BKN015
                      TEMPO 3112/3114 BKN010
                      BECMG 3114/3116 RA BKN008
                      TEMPO 3116/3122 4000 -RADZ BKN004
                      BECMG 3122/3124 NSW BKN010
                      TEMPO 0100/0109 4000 -DZ BKN007
                      BECMG 0109/0111 SCT020=
201212310530 TAF ESSA 310530Z 3106/0106 21013KT 9999 SCT008 BKN020
                      PROB40 3106/3109 BKN008
                      BECMG 3114/3116 4000 RA BKN006
                      PROB40 3117/3124 BKN004
                      BECMG 0100/0102 BR=
201212302330 TAF ESSA 302330Z 3100/3124 21012G22KT 9999 SCT008 BKN040
                      PROB40 3100/3109 BKN008
                      BECMG 3114/3116 4000 RA BKN006
                      PROB40 3117/3121 BKN004=
201212301744 TAF AMD ESSA 301744Z 3018/3118 19010KT 9999 SCT005 BKN040
                      TEMPO 3018/3022 4000 -SHRA BKN006
                      PROB40 3022/3110 BKN008
                      BECMG 3114/3116 4500 RA BKN006=
201212301730 TAF ESSA 301730Z 3018/3118 19010KT 7000 BR BKN003
                      TEMPO 3018/3020 4000 -SHRA BKN006
                      BECMG 3020/3022 BKN015
                      PROB40 3022/3110 BKN008
                      BECMG 3114/3116 4500 RA BKN006=
201212301130 TAF ESSA 301130Z 3012/3112 17010KT 6000 BR BKN002
                      TEMPO 3012/3014 2000 -RADZ BKN006
                      TEMPO 3014/3021 4000 -SHRA BKN020
                      BECMG 3021/3023 BKN015
                      PROB40 3106/3112 BKN008=
201212300530 TAF ESSA 300530Z 3006/3106 17015G28KT 6000 BR BKN002
                      TEMPO 3006/3010 1200 BKN006
                      TEMPO 3010/3023 2000 -RA BKN006
                      BECMG 3021/3023 BKN015=
201212292330 TAF ESSA 292330Z 3000/3024 17012KT 6000 BR BKN006
                      BECMG 3001/3003 18016G28KT SCT003 BKN015
                       TEMPO 3000/3008 1400 BKN003
                      TEMPO 3008/3024 4000 -RA BR BKN003=
201212291730 TAF ESSA 291730Z 2918/3018 17012KT 6000 -DZ BR BKN005
                      PROB40 2918/3003 0500 FG VV002
                      BECMG 3001/3003 18016G28KT SCT003 BKN015
                       TEMPO 3003/3007 1200 BKN003
                      TEMPO 3007/3018 4000 RA BKN003=
201212291130 TAF ESSA 291130Z 2912/3012 17013KT 7000 -RASN BKN006
                      TEMPO 2912/2916 2000 RADZ BKN003
                      PROB40 2916/3004 0500 FG VV002
                      BECMG 3004/3006 18020G33KT
                      TEMPO 3004/3012 4000 RA BKN003=
201212290530 TAF ESSA 290530Z 2906/3006 16013KT 9999 FEW040 BKN060
                      BECMG 2907/2909 1400 SN VV012
                      TEMPO 2909/2914 6000 -SNRA BKN005
                      BECMG 2914/2917 0300 FG VV002
                      TEMPO 2917/2924 2000 -DZ BR
                      BECMG 3000/3003 4000 BR BKN006=
201212282330 TAF ESSA 282330Z 2900/2924 17004KT CAVOK
                      BECMG 2904/2906 16014KT
                      BECMG 2907/2909 2000 -SN VV012
                      TEMPO 2909/2914 6000 RASN BKN005
                      BECMG 2914/2917 0300 FG VV002
                      TEMPO 2917/2924 2000 -DZ BR=
201212281730 TAF ESSA 281730Z 2818/2918 24004KT CAVOK
                      BECMG 2903/2905 16010KT
                      BECMG 2908/2910 2000 SN VV012
                      BECMG 2910/2912 5000 -SNRA BKN008
                      BECMG 2912/2914 3000 -DZ BR BKN003
                      TEMPO 2914/2918 0200 FG VV001=
201212281130 TAF ESSA 281130Z 2812/2912 26015G25KT CAVOK
                      BECMG 2816/2818 24005KT
                      BECMG 2900/2903 16010KT
                      BECMG 2908/2910 2000 SN VV012
                      BECMG 2910/2912 5000 -SNRA BKN008=
201212280530 TAF ESSA 280530Z 2806/2906 26015G30KT CAVOK
                      TEMPO 2806/2808 4000 -SHSN BKN020CB
                      BECMG 2814/2817 23005KT
                      BECMG 2823/2901 17010KT=
201212272330 TAF ESSA 272330Z 2800/2824 30008KT CAVOK
                      BECMG 2800/2803 30018G28KT
                      PROB40 2806/2808 4000 -SHSN=
201212271730 TAF ESSA 271730Z 2718/2818 31006KT 9999 FEW020 BKN025
                      BECMG 2723/2801 30016G28KT
                      PROB40 2804/2807 4000 -SHSN=
201212271130 TAF ESSA 271130Z 2712/2812 24010KT 9999 SCT013 BKN018
                      TEMPO 2712/2718 BKN010
                      BECMG 2714/2717 30012KT
                      BECMG 2723/2801 29016G28KT
                      PROB40 2804/2807 4000 -SHSN=
201212271000 TAF AMD ESSA 271000Z 2710/2806 24012KT 9999 SCT013 BKN020
                      TEMPO 2710/2712 4000 -SHSN BKN008
                      TEMPO 2712/2717 BKN010
                      BECMG 2715/2718 30012KT
                      BECMG 2723/2801 29015G26KT=
201212270742 TAF AMD ESSA 270742Z 2707/2806 24012KT 9999 BKN006
                      TEMPO 2708/2716 RADZ BKN015
                      BECMG 2715/2718 30012KT CAVOK
                      BECMG 2723/2801 29015G26KT=
201212270530 TAF ESSA 270530Z 2706/2806 22012KT 9999 BKN006
                      BECMG 2706/2708 BKN015
                      PROB40 2712/2718 BKN008
                      BECMG 2714/2716 29012KT
                      BECMG 2723/2801 30015G28KT=
201212270202 TAF AMD ESSA 270202Z 2702/2724 22012KT 9999 SCT004 BKN006
                      TEMPO 2702/2706 2000 RADZ BKN004
                      BECMG 2706/2708 SCT015
                      TEMPO 2713/2717 BKN006
                      BECMG 2716/2718 29012KT=
201212262330 TAF ESSA 262330Z 2700/2724 22012KT 9999 SCT004 BKN006
                      TEMPO 2700/2704 BKN004
                      TEMPO 2704/2707 2000 RASN BKN004
                      BECMG 2705/2707 SCT015
                      BECMG 2714/2717 29012KT=
201212262300 TAF AMD ESSA 270202Z 2702/2724 22012KT 9999 SCT004 BKN006
                      TEMPO 2702/2706 2000 RADZ BKN004
                      BECMG 2706/2708 SCT015
                      TEMPO 2713/2717 BKN006
                      BECMG 2716/2718 29012KT=
201212261851 TAF AMD ESSA 261851Z 2618/2718 24008KT 7000 -RADZ BR BKN005
                      TEMPO 2618/2620 2000 -RASN BKN004
                      PROB40 2620/2705 2000 RADZ BKN004
                      BECMG 2705/2707 SCT015=
201212261730 TAF ESSA 261730Z 2618/2718 20006KT 3000 RADZ BR BKN005
                      TEMPO 2618/2620 1000 -RADZ BKN002
                      BECMG 2620/2622 5000 BR
                      PROB40 2622/2704 2000 RADZ BKN004
                      BECMG 2704/2706 SCT015=
201212261625 TAF AMD ESSA 261625Z 2616/2712 13006KT 0600 FG VV002
                      TEMPO 2616/2622 3000 RADZ BKN005
                      BECMG 2622/2624 25012KT 5000 BR BKN006
                      TEMPO 2700/2705 2000 RADZ BR BKN004
                      BECMG 2704/2706 CAVOK=
201212261130 TAF ESSA 261130Z 2612/2712 15008KT 4000 BR -DZ BKN003
                      TEMPO 2612/2614 0700 RADZ FG VV002
                      TEMPO 2614/2621 1400 SNRA BKN005
                      BECMG 2622/2624 25012KT 8000 BR BKN020
                      TEMPO 2702/2705 4000 RADZ BKN008=
201212261047 TAF AMD ESSA 261047Z 2610/2706 15008KT 4000 BR -DZ BKN003
                      TEMPO 2611/2614 0700 RADZ FG VV002
                      TEMPO 2614/2620 1400 SNRA BKN005
                      BECMG 2622/2624 25012KT 8000 BR BKN020
                      TEMPO 2702/2705 4000 RADZ BKN008=
201212260530 TAF ESSA 260530Z 2606/2706 15008KT 9999 BKN005
                      BECMG 2606/2608 BKN003
                      BECMG 2610/2612 3000 BR
                      TEMPO 2610/2622 0700 RADZ FG
                      BECMG 2622/2624 23012KT 8000 BR BKN020
                      TEMPO 2622/2706 4000 RADZ BKN008=
201212252330 TAF ESSA 252330Z 2600/2624 17006KT 9999 BKN020
                      TEMPO 2600/2606 2000 SN BKN008
                      BECMG 2606/2608 BKN006
                      BECMG 2610/2612 3000 BR
                      TEMPO 2612/2622 0700 RADZ FG VV002
                      BECMG 2622/2624 23012KT 9999 NSW BKN020=
201212252224 TAF AMD ESSA 252224Z 2522/2618 25004KT 9999 BKN012
                      BECMG 2522/2524 SCT012 BKN050
                      TEMPO 2600/2606 2000 SN BKN008
                      BECMG 2606/2608 BKN006
                      BECMG 2610/2612 17010KT 3000 BR
                      TEMPO 2612/2618 1000 RADZ BKN002=
201212252054 TAF AMD ESSA 252054Z 2520/2618 30008KT 9999 BKN012
                      TEMPO 2520/2522 BKN015
                      TEMPO 2522/2606 BKN008
                      TEMPO 2602/2606 2000 SN
                      BECMG 2606/2608 BKN007
                      BECMG 2610/2612 17010KT 4000 BR
                      TEMPO 2612/2618 2000 RADZ BKN004
                      BECMG 2616/2618 24012KT=
201212251730 TAF ESSA 251730Z 2518/2618 30008KT 9999 FEW010 BKN015
                      TEMPO 2518/2602 BKN013
                      PROB40 2602/2606 2000 SN BKN012
                      BECMG 2606/2608 BKN007
                      BECMG 2610/2612 17010KT
                      BECMG 2616/2618 24012KT=
201212251130 TAF ESSA 251130Z 2512/2612 06012KT 5000 -SN SCT005 BKN015
                      TEMPO 2512/2517 2000 SN BKN008
                      BECMG 2512/2514 36012KT
                      BECMG 2522/2524 VRB02KT
                      PROB40 2602/2606 2000 SN BKN012=
201212250643 TAF COR ESSA 250643Z 2506/2606 09014KT 5000 -SN SCT008 BKN015
                      TEMPO 2506/2518 2000 SN BKN008
                      PROB40 2506/2510 0600 SN OVC002
                      BECMG 2511/2513 01012KT
                      TEMPO 2518/2606 BKN012=
201212250640 TAF COR ESSA 250640Z 2506/2606 09014KT 5000 -SN SCT008 BKN015
                      TEMPO 2506/2518 2000 SN BKN008
                      TEMPO 2506/2510 0700 SN BKN004
                      PROB40 2506/2510 0600 SN OVC002
                      BECMG 2511/2513 01012KT
                      TEMPO 2518/2606 BKN012=
201212250530 TAF ESSA 250530Z 2506/2606 09014KT 5000 -SN SCT008 BKN015
                      TEMPO 2506/2518 2000 SN BKN008
                      TEMPO 2506/2510 0700 SN BKN004
                      PROB40 2506/2510 0600 SN OVC002
                      TEMPO 2518/2606 BKN012=
201212250500 TAF ESSA 250500Z NIL=
201212242330 TAF ESSA 242330Z 2500/2524 12004KT 9999 SCT012 BKN015
                      TEMPO 2500/2504 BKN008
                      BECMG 2505/2507 11014G25KT 2000 SN BKN008
                       TEMPO 2506/2510 0700 SN BKN004
                      BECMG 2510/2512 1200 BR OVC002
                      BECMG 2518/2520 9999 NSW BKN015=
201212241730 TAF ESSA 241730Z 2418/2518 09004KT 9999 SCT015 BKN020
                      TEMPO 2418/2504 BKN008
                      BECMG 2504/2507 08014KT 2000 SN BKN008
                      TEMPO 2506/2510 0700 SN BKN004
                      BECMG 2510/2512 1200 BR OVC002=
201212241130 TAF ESSA 241130Z 2412/2512 09004KT 8000 -SN BKN015
                      TEMPO 2412/2504 3000 BKN008
                      BECMG 2504/2507 08014KT 2000 SN BKN008
                      TEMPO 2506/2510 0700 SN BKN004
                      BECMG 2510/2512 1200 BR OVC002=
201212241011 TAF AMD ESSA 241011Z 2410/2506 09006KT 8000 -SN BKN015
                      TEMPO 2410/2505 3000 BKN008
                      BECMG 2505/2506 2000 SN BKN008=
201212240530 TAF ESSA 240530Z 2406/2506 09009KT 8000 -SN BKN020
                      TEMPO 2406/2410 2500 SN BKN008=
201212240228 TAF AMD ESSA 240228Z 2402/2424 10010KT 8000 -SN BKN020
                      TEMPO 2402/2410 2500 SN BKN008=
201212232330 TAF ESSA 232330Z 2400/2424 13010KT 8000 -SN BKN010
                      TEMPO 2400/2410 2500 SN BKN008
                      BECMG 2409/2411 BKN015=
201212232300 TAF AMD ESSA 240228Z 2402/2424 10010KT 8000 -SN BKN020
                      TEMPO 2402/2410 2500 SN BKN008=
201212231730 TAF ESSA 231730Z 2318/2418 12013KT 9999 BKN020
                      TEMPO 2318/2324 4000 -SN BKN012
                      TEMPO 2400/2410 2500 SN BKN008=
201212231130 TAF ESSA 231130Z 2312/2412 11013KT 9999 BKN020
                      TEMPO 2317/2324 4000 -SN BKN012
                      TEMPO 2400/2412 2500 SN BKN008=
201212230530 TAF ESSA 230530Z 2306/2406 07009KT 9999 BKN030
                      PROB40 2306/2323 4000 -SN BKN014
                      BECMG 2309/2312 12016G26KT
                      TEMPO 2323/2406 2000 SN VV008=
201212222330 TAF ESSA 222330Z 2300/2324 09010KT 9999 BKN040
                      PROB40 2300/2321 4000 -SN VV012
                      BECMG 2309/2312 12016G26KT
                      TEMPO 2321/2324 2000 SN VV008=
201212221730 TAF ESSA 221730Z 2218/2318 04010KT 9000 -SN BKN030
                      PROB40 2218/2318 4000 SN VV012
                      BECMG 2309/2312 12015G25KT=
201212221130 TAF ESSA 221130Z 2212/2312 08010KT 9000 -SN BKN020
                      PROB40 2212/2302 3500 SN VV009=
201212220530 TAF ESSA 220530Z 2206/2306 03010KT 9000 -SN BKN020
                      PROB40 2206/2224 4000 SN VV009=
201212212330 TAF ESSA 212330Z 2200/2224 03012KT 8000 -SN BKN030
                      PROB40 2200/2224 2800 SN VV010=
201212211730 TAF ESSA 211730Z 2118/2218 03012KT 8000 -SN BKN030
                      TEMPO 2118/2218 2800 SG BR BKN010=
201212211130 TAF ESSA 211130Z 2112/2212 05012KT 7000 -SN BR SCT008 BKN030
                      TEMPO 2112/2212 2500 SG BKN008=
201212210530 TAF ESSA 210530Z 2106/2206 05008KT 9000 -SN SCT020 BKN035
                      TEMPO 2106/2206 3000 SG BKN009=
201212202330 TAF ESSA 202330Z 2100/2124 05007KT 9999 -SN SCT020 BKN035
                      TEMPO 2100/2124 3000 SG BKN009=
201212201730 TAF ESSA 201730Z 2018/2118 06005KT 8000 -SN FEW010 BKN030
                      TEMPO 2018/2118 3000 SG BKN009=
201212201130 TAF ESSA 201130Z 2012/2112 06004KT 8000 -SN FEW010 BKN025
                      TEMPO 2012/2112 3000 BKN008=
201212200530 TAF ESSA 200530Z 2006/2106 01003KT 9999 -SN BKN035
                      PROB40 2006/2018 BKN012
                      PROB40 2018/2024 4000 BKN014
                      TEMPO 2100/2106 BKN012=
201212192330 TAF ESSA 192330Z 2000/2024 04003KT 9999 -SN BKN035
                      PROB40 2000/2014 BKN012
                      PROB40 2014/2024 4000 BKN014=
201212191730 TAF ESSA 191730Z 1918/2018 04005KT 9999 BKN035
                      PROB40 1918/2014 BKN012
                      PROB40 2014/2018 4000 SN VV012=
201212191130 TAF ESSA 191130Z 1912/2012 07005KT 8000 -SN SCT008 BKN020
                      TEMPO 1912/1916 4000 -SN BR BKN008
                      TEMPO 1916/2012 BKN012=
201212190530 TAF ESSA 190530Z 1906/2006 02010KT 9999 SCT012 BKN030
                      PROB40 1906/1914 4000 -SN BKN009
                      BECMG 1907/1909 08007KT
                      TEMPO 1914/2006 BKN012=
201212181730 TAF ESSA 181730Z 1818/1918 03008KT 9999 -SN FEW010 BKN035
                      TEMPO 1818/1905 2000 SN BKN006
                      PROB40 1905/1914 4000 BKN012=
201212181130 TAF ESSA 181130Z 1812/1912 02008KT 9999 FEW010 BKN020
                      TEMPO 1812/1824 2500 -SN BKN009=
201212180530 TAF ESSA 180530Z 1806/1906 04006KT 9999 FEW007 BKN015
                      TEMPO 1806/1824 2500 -SN BKN009=
201212172330 TAF ESSA 172330Z 1800/1824 06006KT 9999 OVC015
                      PROB40 1800/1809 BKN012
                      PROB40 1809/1822 2000 -SN VV014=
201212171730 TAF ESSA 171730Z 1718/1818 08006KT 6000 BR SCT006 BKN015
                      TEMPO 1718/1806 2000 SG -SN BKN005
                      TEMPO 1806/1818 2000 -SN VV006=
201212171446 TAF AMD ESSA 171446Z 1714/1812 08006KT 6000 -SN BR SCT005 BKN015
                       TEMPO 1714/1724 2000 SG BKN004
                      TEMPO 1800/1812 3000 BKN006=
201212171130 TAF ESSA 171130Z 1712/1812 08006KT 6000 -SN BR SCT005 BKN015
                      TEMPO 1712/1714 2000 SN VV006
                      TEMPO 1714/1812 3000 BKN008=
201212170530 TAF ESSA 170530Z 1706/1806 08006KT 2000 SN VV008
                      TEMPO 1706/1718 5000 -SN BKN015
                      BECMG 1718/1720 9999 NSW BKN015
                      TEMPO 1720/1806 4000 -SN BKN012=
201212170304 TAF AMD ESSA 170304Z 1703/1724 09006KT 6000 BR BKN015
                      BECMG 1703/1705 2000 SN VV008
                      TEMPO 1705/1718 5000 -SN BKN015
                      BECMG 1718/1720 9999 NSW BKN015
                      PROB40 1720/1724 BKN010=
201212170031 TAF AMD ESSA 170031Z 1700/1724 09006KT 6000 BR SCT006 BKN020
                      TEMPO 1700/1706 3000 BKN004
                      BECMG 1706/1708 2000 SN VV008
                      TEMPO 1708/1718 5000 -SN BKN015
                      BECMG 1718/1720 9999 NSW BKN015
                      PROB40 1720/1724 BKN010=
201212162330 TAF ESSA 162330Z 1700/1724 09006KT 6000 BR SCT006 BKN020
                      PROB40 1700/1706 4000 BKN006
                      BECMG 1706/1708 2000 SN VV008
                      TEMPO 1708/1718 5000 -SN BKN015
                      BECMG 1718/1720 9999 NSW BKN015=
201212162300 TAF AMD ESSA 170304Z 1703/1724 09006KT 6000 BR BKN015
                      BECMG 1703/1705 2000 SN VV008
                      TEMPO 1705/1718 5000 -SN BKN015
                      BECMG 1718/1720 9999 NSW BKN015
                      PROB40 1720/1724 BKN010=
201212161730 TAF ESSA 161730Z 1618/1718 09006KT 9999 BKN025
                      TEMPO 1618/1706 BKN014
                      BECMG 1706/1708 2000 -SN VV008
                      TEMPO 1708/1718 5000 BKN015=
201212161442 TAF AMD ESSA 161442Z 1614/1712 11007KT 6000 BR SCT007 BKN012
                      TEMPO 1614/1618 BKN030
                      TEMPO 1618/1706 4000 BKN006
                      TEMPO 1706/1712 2500 -SN BKN006=
201212161130 TAF ESSA 161130Z 1612/1712 11007KT 5000 -SNRA BR BKN007
                      TEMPO 1612/1615 4000 -SN BKN010
                      BECMG 1615/1617 BKN010
                      TEMPO 1617/1706 4000 BR BKN006
                      TEMPO 1706/1712 2500 -SN BKN006=
201212160932 TAF AMD ESSA 160932Z 1609/1706 13010KT 5000 -SNRA BR OVC006
                      TEMPO 1609/1612 2500 -SN BKN010
                      PROB40 1610/1706 BKN010=
201212160530 TAF ESSA 160530Z 1606/1706 13010KT 5000 -RASN OVC006
                      TEMPO 1606/1610 2500 RASN BKN010
                      PROB40 1610/1706 BKN010=
201212152330 TAF ESSA 152330Z 1600/1624 13010KT 5000 -SN OVC006
                      TEMPO 1600/1609 2500 RASN BKN010
                      PROB40 1609/1624 BKN010=
201212151730 TAF ESSA 151730Z 1518/1618 13013KT 5000 -SN OVC006
                      TEMPO 1518/1522 1200 SN VV010
                      TEMPO 1522/1606 2500 SN BKN010
                      PROB40 1606/1612 BKN015=
201212151256 TAF AMD ESSA 151256Z 1512/1612 13018G30KT 5000 -SN OVC010
                      TEMPO 1512/1608 1000 SN VV006
                      BECMG 1608/1610 14008KT=
201212151130 TAF ESSA 151130Z 1512/1612 13018G30KT 5000 -SN OVC010
                      TEMPO 1512/1608 2000 SN VV006
                      BECMG 1608/1610 14008KT=
201212150636 TAF AMD ESSA 150636Z 1506/1606 11012KT 9999 BKN015
                      TEMPO 1507/1510 BKN012
                      TEMPO 1507/1521 12015G28KT
                      BECMG 1510/1512 2000 SN VV006
                      TEMPO 1510/1606 4000 -SN BKN016=
201212150530 TAF ESSA 150530Z 1506/1606 11012KT 9999 BKN020
                      TEMPO 1506/1521 12015G28KT
                      BECMG 1510/1512 2000 SN BKN013
                      TEMPO 1510/1606 4000 -SN BKN016=
201212142330 TAF ESSA 142330Z 1500/1524 11010KT 9999 SCT025 BKN035
                      PROB40 1503/1508 2500 SN BKN010
                      TEMPO 1502/1521 12015G28KT
                      BECMG 1509/1511 2000 SN BKN013
                      TEMPO 1510/1524 4000 -SN BKN016=
201212141730 TAF ESSA 141730Z 1418/1518 10010KT 9000 -SN BKN035
                      TEMPO 1418/1420 2000 SHSN VV014
                      PROB40 1503/1508 2500 SN BKN010
                      BECMG 1508/1510 2000 SN BKN013
                      TEMPO 1510/1518 4000 -SN BKN016=
201212141130 TAF ESSA 141130Z 1412/1512 18003KT 9000 -SN SCT035
                      PROB40 1415/1420 2000 SHSN VV014
                      BECMG 1421/1423 11014KT
                      PROB40 1503/1508 2500 SN BKN010
                      BECMG 1508/1510 2000 SN BKN013
                      TEMPO 1510/1512 4000 -SN BKN016=
201212140821 TAF AMD ESSA 140821Z 1408/1506 VRB02KT 8000 -SN BKN025
                      TEMPO 1408/1411 2000 SN BKN012
                      PROB40 1415/1421 2000 SHSN VV014
                      BECMG 1500/1502 11015G25KT
                      PROB40 1502/1506 2000 SN BKN010=
201212140530 TAF ESSA 140530Z 1406/1506 VRB02KT 9999 -SN BKN025
                      PROB40 1406/1409 4000 BKN012
                      PROB40 1415/1421 2000 SHSN VV014
                      BECMG 1500/1502 11015G25KT
                      PROB40 1502/1506 2000 SN BKN010=
201212131730 TAF ESSA 131730Z 1318/1418 30006KT 9999 -SN BKN020
                      PROB40 1400/1409 BKN006
                      PROB40 1415/1418 2000 SHSN VV014=
201212131130 TAF ESSA 131130Z 1312/1412 32007KT 9999 -SN SCT007 BKN020
                      TEMPO 1313/1322 3000 SN VV007
                      PROB40 1322/1409 BKN006=
201212130530 TAF ESSA 130530Z 1306/1406 32006KT 9999 -SN BKN030
                      TEMPO 1306/1314 BKN009
                      TEMPO 1314/1322 3000 SN VV010
                      PROB40 1322/1406 BKN006=
201212122330 TAF ESSA 122330Z 1300/1324 32006KT 9999 BKN030
                      PROB40 1300/1314 BKN009
                      TEMPO 1314/1322 3000 SN VV010=
201212121730 TAF ESSA 121730Z 1218/1318 29006KT 9999 SCT007 BKN030
                      TEMPO 1218/1314 BKN007
                      TEMPO 1314/1318 3000 SN VV010=
201212121130 TAF ESSA 121130Z 1212/1312 29006KT 9999 BKN008
                      TEMPO 1212/1312 BKN015=
201212120530 TAF ESSA 120530Z 1206/1306 31008KT 9999 BKN008
                      TEMPO 1206/1306 BKN015=
201212111730 TAF ESSA 111730Z 1118/1218 36015KT 6000 -SN BKN016
                      TEMPO 1118/1202 1400 SN VV008
                      TEMPO 1202/1208 4000 BKN012
                      BECMG 1205/1207 34005KT
                      TEMPO 1208/1218 BKN013=
201212111130 TAF ESSA 111130Z 1112/1212 36013KT 5000 -SN BKN020
                      TEMPO 1112/1202 2000 SN VV012
                      TEMPO 1202/1207 4000 BKN012
                      BECMG 1210/1212 30008KT=
201212110530 TAF ESSA 110530Z 1106/1206 01012KT CAVOK
                      PROB40 1106/1111 BKN013
                      PROB40 1108/1110 4000 -SN
                      BECMG 1110/1112 4000 -SN
                      TEMPO 1112/1206 1800 SN VV012=
201212102330 TAF ESSA 102330Z 1100/1124 01012KT 9999 BKN025
                      BECMG 1108/1110 4000 -SN
                      TEMPO 1112/1124 1800 SN VV012=
201212101730 TAF ESSA 101730Z 1018/1118 01012KT 9999 BKN020
                      BECMG 1110/1112 4000 -SN
                      TEMPO 1112/1118 1800 SN VV012=
201212101130 TAF ESSA 101130Z 1012/1112 03008KT 9999 SCT030
                      BECMG 1110/1112 4000 -SN=
201212100737 TAF AMD ESSA 100737Z 1007/1106 03008KT 9999 FEW020 BKN040
                      TEMPO 1007/1011 1200 SHSN VV012=
201212100530 TAF ESSA 100530Z 1006/1106 04010KT 9999 FEW020 BKN040
                      PROB40 1007/1011 1800 SN VV012=
201212092330 TAF ESSA 092330Z 1000/1024 08006KT 9999 BKN035
                      PROB40 1007/1011 1800 SN VV012
                      BECMG 1009/1011 02012KT=
201212092122 TAF AMD ESSA 092122Z 0921/1018 05005KT 9999 SCT030 BKN040
                      PROB40 1007/1011 1800 SN VV008=
201212091804 TAF AMD ESSA 091804Z 0918/1018 05008KT 9999 BKN018
                      TEMPO 0918/0919 BKN004
                      TEMPO 0919/0923 1300 SHSN VV008
                      PROB40 1007/1011 1800 SN VV008=
201212091730 TAF ESSA 091730Z 0918/1018 05008KT 9999 BKN018
                      TEMPO 0918/0923 1300 SHSN VV008
                      PROB40 1007/1011 1800 SN VV008=
201212091502 TAF AMD ESSA 091502Z 0915/1012 05006KT 9999 BKN018
                      TEMPO 0915/0924 1300 SHSN VV008
                      TEMPO 1005/1012 1300 SN VV008=
201212091355 TAF AMD ESSA 091355Z 0913/1012 05006KT 9999 BKN018
                      PROB40 0913/0915 BKN012
                      TEMPO 0917/1004 4000 -SN BKN014
                      TEMPO 1004/1012 2000 SHSN BKN013=
201212091130 TAF ESSA 091130Z 0912/1012 09005KT CAVOK
                      PROB40 0912/0915 BKN002
                      TEMPO 0917/1004 4000 -SN BKN014
                      TEMPO 1004/1012 2000 SHSN BKN013=
201212090537 TAF AMD ESSA 090537Z 0906/1006 09005KT CAVOK
                      PROB40 0906/0909 0300 FZFG VV003
                      TEMPO 0915/0920 2000 SN VV007
                      PROB40 1003/1006 3000 SN BKN010=
201212090025 TAF AMD ESSA 090025Z 0900/0924 VRB02KT 8000 BR SCT002
                      TEMPO 0900/0906 0300 FZFG VV002
                      BECMG 0909/0911 04010KT
                      TEMPO 0915/0920 2000 SN VV010=
201212082346 TAF AMD ESSA 082346Z 0900/0924 21004KT 9999 FEW006
                      PROB40 0900/0905 BKN003
                      BECMG 0911/0913 04010KT
                      TEMPO 0915/0920 2000 SN VV010=
201212082330 TAF ESSA 082330Z 0900/0924 21004KT CAVOK
                      BECMG 0911/0913 04010KT
                      TEMPO 0915/0920 2000 SN VV010=
201212082300 TAF AMD ESSA 090025Z 0900/0924 VRB02KT 8000 BR SCT002
                      TEMPO 0900/0906 0300 FZFG VV002
                      BECMG 0909/0911 04010KT
                      TEMPO 0915/0920 2000 SN VV010=
201212081730 TAF ESSA 081730Z 0818/0918 27004KT 9999 FEW015
                      BECMG 0912/0914 04010KT
                      TEMPO 0915/0918 2000 SN VV010=
201212081130 TAF ESSA 081130Z 0812/0912 30005KT 9999 FEW010 SCT020=
201212080530 TAF ESSA 080530Z 0806/0906 33005KT 9999 SCT012 BKN055
                      PROB40 0806/0809 4000 SN BKN012=
201212080225 TAF AMD ESSA 080225Z 0802/0824 32005KT 9999 -SN BKN040
                      PROB40 0802/0809 2000 SHSN BR VV008=
201212072330 TAF ESSA 072330Z 0800/0824 32005KT 9999 -SN BKN040
                      PROB40 0800/0809 4000 -SHSN BR VV010=
201212072300 TAF AMD ESSA 080225Z 0802/0824 32005KT 9999 -SN BKN040
                      PROB40 0802/0809 2000 SHSN BR VV008=
201212071730 TAF ESSA 071730Z 0718/0818 32005KT 9999 -SN SCT012 BKN015
                      TEMPO 0718/0720 2000 SN BR VV008
                      PROB40 0722/0809 4000 -SHSN VV010=
201212071632 TAF AMD ESSA 071632Z 0716/0812 VRB02KT 9999 SCT003 BKN025
                      TEMPO 0716/0717 4000 SN BR VV004
                      TEMPO 0717/0721 2000 SN VV008
                      BECMG 0718/0720 36010KT
                      PROB40 0800/0809 4000 -SHSN VV010=
201212071231 TAF AMD ESSA 071231Z 0712/0812 VRB02KT 9999 SCT003 BKN025
                      TEMPO 0712/0716 0700 FZFG VV002
                      TEMPO 0716/0721 2000 SN VV008
                      BECMG 0718/0720 36010KT
                      PROB40 0800/0809 4000 -SHSN VV010=
201212071130 TAF ESSA 071130Z 0712/0812 VRB02KT 9999 FEW005 BKN025
                      TEMPO 0712/0715 BKN004
                      TEMPO 0715/0721 2000 SN VV008
                      BECMG 0718/0720 36010KT
                      PROB40 0800/0809 4000 -SHSN VV010=
201212071039 TAF AMD ESSA 071039Z 0710/0806 VRB02KT 9999 FEW006 BKN025
                      TEMPO 0710/0714 BKN005
                      TEMPO 0714/0721 2000 SN VV006
                      BECMG 0718/0720 01010KT
                      PROB40 0800/0806 4000 -SHSN VV010=
201212070549 TAF AMD ESSA 070549Z 0706/0806 08004KT 9999 SCT012 BKN025
                      TEMPO 0706/0710 BKN007
                      TEMPO 0714/0724 2000 SN VV006=
201212070530 TAF ESSA 070530Z 0706/0806 08004KT 9999 SCT012 BKN025
                      TEMPO 0706/0710 BKN012
                      TEMPO 0714/0724 2000 SN VV006=
201212062027 TAF AMD ESSA 062027Z 0620/0718 09005KT 9999 SCT020 BKN030
                      PROB40 TEMPO 0620/0622 2000 SN VV008
                      PROB40 0622/0707 4000 -SN VV010=
201212061730 TAF ESSA 061730Z 0618/0718 09004KT 9999 SCT020 BKN030
                      PROB40 0618/0707 4000 -SN VV010=
201212061130 TAF ESSA 061130Z 0612/0712 10004KT 9999 SCT020 BKN030
                      PROB40 0613/0705 4000 -SN=
201212060530 TAF ESSA 060530Z 0606/0706 06004KT 8000 -SN BKN020
                      TEMPO 0606/0614 2500 SN VV008
                      PROB40 0614/0702 4000 -SN VV014=
201212052248 TAF AMD ESSA 052248Z 0522/0618 04005KT 9999 BKN020
                      TEMPO 0522/0524 4000 -SN BKN008
                      TEMPO 0606/0615 2500 -SN VV008=
201212052231 TAF AMD ESSA 052231Z 0522/0618 04005KT 9999 BKN006
                      TEMPO 0522/0524 4000 -SN BKN012
                      BECMG 0600/0602 BKN015
                      TEMPO 0606/0615 2500 -SN VV008=
201212051837 TAF AMD ESSA 051837Z 0519/0618 02016KT 8000 -SN BKN020
                      TEMPO 0519/0522 2500 SN DRSN VV008
                      BECMG 0600/0602 07005KT
                      TEMPO 0607/0615 2500 SN VV008=
201212051730 TAF ESSA 051730Z 0518/0618 02016KT 1200 SN DRSN VV012
                      TEMPO 0518/0616 3000 -SN VV008
                      BECMG 0600/0602 09005KT 8000 -SN BKN015=
201212051248 TAF AMD ESSA 051248Z 0512/0612 02025G35KT 1500 -SN VV012
                      TEMPO 0512/0517 0300 +SN DRSN VV004
                      TEMPO 0517/0612 5000 SN VV009
                      BECMG 0518/0520 02015KT
                      BECMG 0521/0523 08007KT=
201212051130 TAF ESSA 051130Z 0512/0612 02025KT 1500 -SN VV012
                      TEMPO 0512/0517 0600 SN DRSN VV007
                      TEMPO 0517/0612 5000 SN VV009
                      BECMG 0518/0520 02015KT
                      BECMG 0521/0523 08007KT=
201212050942 TAF AMD ESSA 050942Z 0509/0606 03024KT 1500 -SN BKN015
                      TEMPO 0509/0517 0600 SN DRSN VV008
                      TEMPO 0517/0606 5000 SN VV009
                      BECMG 0518/0520 02014KT
                      BECMG 0521/0523 08007KT=
201212050530 TAF ESSA 050530Z 0506/0606 03020G30KT 4000 -SN BKN020
                      TEMPO 0506/0515 0700 +SN VV008
                      PROB40 0515/0518 8000 VV012=
201212041844 TAF AMD ESSA 041844Z 0418/0518 03012KT 8000 -SN BKN020
                      TEMPO 0418/0421 4000 SN VV012
                      TEMPO 0421/0503 2000 SN VV008
                      BECMG 0422/0424 03018G35KT
                      TEMPO 0503/0518 1400 SN VV005=
201212041838 TAF AMD ESSA 041838Z 0418/0518 03012KT 8000 -SN BKN020
                      TEMPO 0421/0503 4000 SN VV012
                      TEMPO 0421/0503 2000 SN VV008
                      BECMG 0422/0424 03018G35KT
                      TEMPO 0503/0518 1400 SN VV005=
201212041730 TAF ESSA 041730Z 0418/0518 03012KT 8000 -SN BKN020
                      TEMPO 0418/0503 2000 SN VV008
                      BECMG 0422/0424 03018G35KT
                      TEMPO 0503/0518 1400 SN VV005=
201212041718 TAF AMD ESSA 041718Z 0417/0512 03012KT 8000 -SN BKN020
                      TEMPO 0417/0418 2000 SN VV008
                      TEMPO 0418/0512 1400 SN VV006
                      BECMG 0422/0424 03020G35KT=
201212041701 TAF AMD ESSA 041701Z 0417/0512 35005KT 8000 -SN BKN015
                      TEMPO 0417/0418 2000 SN VV005
                      BECMG 0418/0420 03015KT
                      TEMPO 0418/0512 1400 SN VV006
                      BECMG 0422/0424 03018G35KT=
201212041654 TAF AMD ESSA 041654Z 0416/0512 03012KT 8000 -SN BKN020
                      TEMPO 0416/0418 2000 SN VV008
                      TEMPO 0418/0512 1400 SN VV006
                      TEMPO 0422/0424 03020G35KT=
201212041130 TAF ESSA 041130Z 0412/0512 35005KT 8000 -SN BKN015
                      TEMPO 0412/0418 2000 SN VV005
                      BECMG 0418/0420 03015KT
                      TEMPO 0418/0512 1400 SN VV006
                      TEMPO 0422/0512 03018G35KT=
201212040801 TAF AMD ESSA 040801Z 0408/0506 32006KT 9000 -SN BKN015
                      PROB40 0411/0413 4000 BKN009
                      TEMPO 0413/0418 2000 SN VV006
                      BECMG 0418/0420 03015KT
                      TEMPO 0418/0506 1400 SN VV006
                      TEMPO 0422/0506 03017G27KT=
201212040717 TAF AMD ESSA 040717Z 0407/0506 32006KT 9999 BKN012
                      PROB40 0411/0413 4000 -SN BKN009
                      TEMPO 0413/0418 2000 SN VV006
                      BECMG 0418/0420 03015KT
                      TEMPO 0418/0506 1400 SN VV006
                      TEMPO 0422/0506 03017G27KT=
201212040530 TAF ESSA 040530Z 0406/0506 32003KT 9999 BKN020
                      PROB40 0414/0416 4000 -SN BKN012
                      BECMG 0414/0416 02012KT
                      TEMPO 0416/0506 2500 SN VV006=
201212031730 TAF ESSA 031730Z 0318/0418 30004KT CAVOK
                      PROB40 0400/0406 BKN004
                      TEMPO 0406/0418 2500 SN BKN009=
201212031130 TAF ESSA 031130Z 0312/0412 30005KT CAVOK
                      PROB40 0400/0406 BKN004
                      TEMPO 0406/0412 2500 SN BKN007=
201212030530 TAF ESSA 030530Z 0306/0406 30005KT CAVOK
                      PROB40 0400/0406 BKN004=
201212022202 TAF AMD ESSA 022202Z 0222/0318 32005KT 9999 FEW004
                      TEMPO 0222/0312 BKN004=
201212021730 TAF ESSA 021730Z 0218/0318 32005KT CAVOK
                      TEMPO 0222/0312 BKN007=
201212021130 TAF ESSA 021130Z 0212/0312 32007KT 9999 FEW025
                      TEMPO 0218/0312 BKN007=
201212020530 TAF ESSA 020530Z 0206/0306 32008KT 9999 SCT030
                      TEMPO 0206/0211 3000 -SHSN VV014=
201212011730 TAF ESSA 011730Z 0118/0218 33005KT 9999 SCT025
                      PROB40 0210/0214 4000 -SHSN VV014=
201212011130 TAF ESSA 011130Z 0112/0212 33005KT 9999 SCT025
                      TEMPO 0112/0116 2500 -SN VV012=
201212010714 TAF AMD ESSA 010714Z 0107/0206 35006KT 9999 -SN BKN025
                      TEMPO 0107/0115 4000 VV009=
201212010530 TAF ESSA 010530Z 0106/0206 36006KT 9999 -SN BKN020
                      PROB40 0106/0118 4000 BKN012
                      PROB40 0204/0206 BKN014=
