##########################################################
# Query made at 01/23/2013 09:12:30 UTC
# Time interval: from 07/01/2012 00:00  to 07/31/2012 23:59  UTC
##########################################################

##########################################################
# ESSA, Stockholm / Arlanda (Sweden)
# WMO index: 02460
# Latitude 59-39N. Longitude 017-57E. Altitude 38 m.
##########################################################

###################################
#  METAR/SPECI from ESSA
###################################
201207312350 METAR ESSA 312350Z 19008KT CAVOK 12/10 Q1013 NOSIG=
201207312320 METAR ESSA 312320Z 20008KT CAVOK 12/10 Q1013 NOSIG=
201207312250 METAR ESSA 312250Z 19006KT CAVOK 12/10 Q1013 NOSIG=
201207312220 METAR ESSA 312220Z 19007KT CAVOK 12/10 Q1013 NOSIG=
201207312150 METAR ESSA 312150Z 18007KT CAVOK 13/10 Q1013 NOSIG=
201207312120 METAR ESSA 312120Z 19007KT CAVOK 13/10 Q1013 NOSIG=
201207312050 METAR ESSA 312050Z 22007KT CAVOK 14/11 Q1013 NOSIG=
201207312020 METAR ESSA 312020Z 20008KT CAVOK 14/11 Q1012 NOSIG=
201207311950 METAR ESSA 311950Z 19008KT CAVOK 14/11 Q1012 NOSIG=
201207311920 METAR ESSA 311920Z 20008KT CAVOK 14/11 Q1012 NOSIG=
201207311850 METAR ESSA 311850Z 17008KT CAVOK 15/10 Q1012 NOSIG=
201207311820 METAR ESSA 311820Z 20007KT CAVOK 15/10 Q1012 NOSIG=
201207311750 METAR ESSA 311750Z 17010KT CAVOK 16/11 Q1012 NOSIG=
201207311720 METAR ESSA 311720Z 18011KT CAVOK 17/11 Q1011 NOSIG=
201207311650 METAR ESSA 311650Z 19011KT 9999 VCSH FEW036CB SCT090 17/11
                        Q1012 TEMPO SHRA=
201207311620 METAR ESSA 311620Z 20012KT 9999 VCSH FEW036CB FEW040 SCT070
                        17/11 Q1011 TEMPO SHRA=
201207311550 METAR ESSA 311550Z 19013KT 9999 FEW036 SCT090 19/10 Q1012
                        RETS TEMPO TSRA=
201207311520 METAR ESSA 311520Z 22011KT 9999 -TS FEW036CB SCT070 17/12
                        Q1012 TEMPO SHRA SCT035CB=
201207311450 METAR ESSA 311450Z 19017KT 9999 VCSH FEW036 SCT070 17/11
                        Q1011 TEMPO SHRA SCT035CB=
201207311420 METAR ESSA 311420Z 20012KT 9999 VCSH NSC 17/12 Q1011 TEMPO
                        SHRA SCT035CB=
201207311350 METAR ESSA 311350Z 19012KT 9999 VCSH NSC 17/11 Q1012 TEMPO
                        SHRA SCT035CB=
201207311320 METAR ESSA 311320Z 19014KT 9999 -SHRA FEW045CB SCT080 17/11
                        Q1011 TEMPO SHRA SCT035CB=
201207311250 METAR ESSA 311250Z 20012KT 9999 VCSH FEW040 SCT150 19/10
                        Q1011 TEMPO SHRA SCT035CB=
201207311220 METAR ESSA 311220Z 23014KT CAVOK 18/10 Q1011 NOSIG=
201207311150 METAR ESSA 311150Z 21014KT 9999 FEW045 SCT080 19/08 Q1011
                        NOSIG=
201207311120 METAR ESSA 311120Z 21014KT 9999 SCT042 20/09 Q1011 NOSIG=
201207311050 METAR ESSA 311050Z 23013KT 9999 SCT040 20/11 Q1011 NOSIG=
201207311020 METAR ESSA 311020Z 22013KT 9999 SCT042 19/10 Q1010 NOSIG=
201207310950 METAR ESSA 310950Z 22013KT 9999 SCT040 19/10 Q1010 NOSIG=
201207310920 METAR ESSA 310920Z 20013KT 160V230 9999 SCT035 FEW040TCU
                        20/10 Q1010 NOSIG=
201207310850 METAR ESSA 310850Z 19012KT 9999 SCT031 19/11 Q1011 NOSIG=
201207310820 METAR ESSA 310820Z 18011KT 9999 SCT027 19/12 Q1011 NOSIG=
201207310750 METAR ESSA 310750Z 20010KT 9999 SCT025 18/12 Q1011 NOSIG=
201207310720 METAR ESSA 310720Z 20010KT 9999 SCT023 18/13 Q1011 NOSIG=
201207310650 METAR COR ESSA 310650Z 21010KT 9999 SCT015 17/13 Q1010 NOSIG=
201207310620 METAR ESSA 310620Z 20008KT 170V230 9999 SCT012 SCT090 16/14
                        Q1010 TEMPO BKN012=
201207310550 METAR ESSA 310550Z 19008KT CAVOK 15/14 Q1010 NOSIG=
201207310520 METAR ESSA 310520Z 19007KT CAVOK 15/14 Q1011 NOSIG=
201207310450 METAR ESSA 310450Z 18006KT 9999 FEW013 BKN110 15/14 Q1010
                        NOSIG=
201207310420 METAR ESSA 310420Z 18006KT CAVOK 14/13 Q1010 NOSIG=
201207310350 METAR ESSA 310350Z 19006KT CAVOK 14/13 Q1010 NOSIG=
201207310320 METAR ESSA 310320Z 17005KT 9999 FEW045 13/13 Q1010 NOSIG=
201207310250 METAR ESSA 310250Z 18005KT 9999 FEW045 13/13 Q1010 NOSIG=
201207310220 METAR ESSA 310220Z 18004KT CAVOK 13/12 Q1010 NOSIG=
201207310150 METAR ESSA 310150Z 16003KT CAVOK 13/12 Q1010 NOSIG=
201207310120 METAR ESSA 310120Z 13003KT CAVOK 13/11 Q1010 NOSIG=
201207310050 METAR ESSA 310050Z 16003KT CAVOK 14/13 Q1010 NOSIG=
201207310020 METAR ESSA 310020Z 16003KT CAVOK 14/12 Q1010 NOSIG=
201207302350 METAR ESSA 302350Z 15004KT CAVOK 14/13 Q1010 NOSIG=
201207302320 METAR ESSA 302320Z 17005KT CAVOK 15/13 Q1010 NOSIG=
201207302250 METAR ESSA 302250Z 18007KT CAVOK 15/13 Q1010 NOSIG=
201207302220 METAR ESSA 302220Z 21006KT CAVOK 15/13 Q1010 NOSIG=
201207302150 METAR ESSA 302150Z 22005KT CAVOK 16/13 Q1010 NOSIG=
201207302120 METAR ESSA 302120Z 19006KT CAVOK 16/14 Q1010 NOSIG=
201207302050 METAR ESSA 302050Z 19007KT CAVOK 17/14 Q1010 NOSIG=
201207302020 METAR ESSA 302020Z 19008KT CAVOK 17/13 Q1010 NOSIG=
201207301950 METAR ESSA 301950Z 17007KT CAVOK 18/13 Q1010 NOSIG=
201207301920 METAR ESSA 301920Z 17004KT 9999 FEW046 18/12 Q1010 NOSIG=
201207301850 METAR ESSA 301850Z 25005KT 230V290 9999 FEW046 18/12 Q1010
                        NOSIG=
201207301820 METAR ESSA 301820Z 21005KT CAVOK 19/13 Q1010 NOSIG=
201207301750 METAR ESSA 301750Z 24006KT CAVOK 20/12 Q1010 NOSIG=
201207301720 METAR ESSA 301720Z 22008KT CAVOK 20/11 Q1010 NOSIG=
201207301650 METAR ESSA 301650Z 25008KT CAVOK 20/11 Q1010 NOSIG=
201207301620 METAR ESSA 301620Z 26011KT CAVOK 21/11 Q1010 NOSIG=
201207301550 METAR ESSA 301550Z 23013KT CAVOK 21/11 Q1010 NOSIG=
201207301520 METAR COR ESSA 301520Z 23012KT CAVOK 21/11 Q1010 NOSIG=
201207301450 METAR ESSA 301450Z 26012KT CAVOK 21/10 Q1009 NOSIG=
201207301420 METAR ESSA 301420Z 25011KT CAVOK 21/10 Q1010 NOSIG=
201207301350 METAR ESSA 301350Z 22013KT CAVOK 21/10 Q1010 NOSIG=
201207301320 METAR ESSA 301320Z 22010KT CAVOK 21/13 Q1010 NOSIG=
201207301250 METAR ESSA 301250Z 23011KT CAVOK 22/12 Q1010 NOSIG=
201207301220 METAR ESSA 301220Z 23009KT CAVOK 22/11 Q1009 NOSIG=
201207301150 METAR ESSA 301150Z 26010KT CAVOK 22/10 Q1009 NOSIG=
201207301120 METAR ESSA 301120Z 26011KT CAVOK 22/10 Q1009 NOSIG=
201207301050 METAR ESSA 301050Z 24012KT CAVOK 21/10 Q1009 NOSIG=
201207301020 METAR ESSA 301020Z 24011KT CAVOK 21/11 Q1009 NOSIG=
201207300950 METAR ESSA 300950Z 23011KT CAVOK 21/11 Q1009 NOSIG=
201207300920 METAR ESSA 300920Z 25011KT CAVOK 20/13 Q1009 NOSIG=
201207300850 METAR ESSA 300850Z 24010KT CAVOK 20/13 Q1009 NOSIG=
201207300820 METAR ESSA 300820Z 26010KT CAVOK 19/13 Q1008 NOSIG=
201207300750 METAR ESSA 300750Z 24010KT CAVOK 19/14 Q1008 NOSIG=
201207300720 METAR ESSA 300720Z 26010KT CAVOK 18/13 Q1008 NOSIG=
201207300650 METAR ESSA 300650Z 26008KT CAVOK 17/14 Q1008 NOSIG=
201207300620 METAR ESSA 300620Z 28009KT CAVOK 17/13 Q1008 NOSIG=
201207300550 METAR ESSA 300550Z 25006KT 9999 SCT047 15/13 Q1008 NOSIG=
201207300520 METAR ESSA 300520Z 25005KT 9999 BKN047 15/14 Q1008 NOSIG=
201207300450 METAR ESSA 300450Z 26005KT 9999 BKN045 15/14 Q1007 NOSIG=
201207300420 METAR ESSA 300420Z 25005KT 9999 BKN045 14/13 Q1007 NOSIG=
201207300350 METAR ESSA 300350Z 26005KT 9999 BKN045 14/13 Q1007 NOSIG=
201207300320 METAR ESSA 300320Z 31005KT 9999 BKN046 14/13 Q1007 NOSIG=
201207300250 METAR COR ESSA 300250Z 30007KT CAVOK 14/13 Q1007 NOSIG=
201207300220 METAR ESSA 300220Z 27006KT 9999 -RA FEW020 BKN057 14/13 Q1007
                        NOSIG=
201207300150 METAR ESSA 300150Z 29008KT 9999 -RA FEW040 BKN060 14/13 Q1007
                        NOSIG=
201207300120 METAR ESSA 300120Z 29008KT 9999 -RA SCT022 BKN040 15/14 Q1007
                        NOSIG=
201207300050 METAR ESSA 300050Z 28006KT 9999 -RA FEW025 BKN041 15/14 Q1007
                        TEMPO RA=
201207300020 METAR ESSA 300020Z 29005KT 9999 -RA BKN041 15/14 Q1007 TEMPO
                        RA=
201207292350 METAR ESSA 292350Z 30007KT 9999 -RA BKN042 15/14 Q1007 TEMPO
                        RA=
201207292320 METAR ESSA 292320Z 28006KT 9999 -RA BKN042 15/14 Q1007 RERA
                        TEMPO RA=
201207292250 METAR ESSA 292250Z 23003KT 7000 RA FEW037 BKN046 15/15 Q1008
                        TEMPO -RA=
201207292220 METAR ESSA 292220Z VRB02KT 9999 -RA SCT040 BKN090 16/14 Q1007
                        BECMG 4000 RA=
201207292150 METAR ESSA 292150Z 32006KT 9999 -RA FEW040 BKN092 16/14 Q1007
                        BECMG 4000 RA=
201207292120 METAR ESSA 292120Z 30006KT 9999 -RA FEW035 BKN074 16/14 Q1007
                        BECMG 4000 RA=
201207292050 METAR ESSA 292050Z 24003KT 170V270 9999 -RA BKN035 BKN076
                        17/13 Q1008 BECMG 4000 RA=
201207292020 METAR COR ESSA 292020Z 24004KT 200V270 9999 FEW035 SCT070
                        BKN100 17/13 Q1009 BECMG 4000 RA=
201207291950 METAR ESSA 291950Z 30005KT CAVOK 17/13 Q1008 NOSIG=
201207291920 METAR ESSA 291920Z 30004KT CAVOK 18/12 Q1008 NOSIG=
201207291850 METAR ESSA 291850Z 31005KT 280V340 CAVOK 18/12 Q1008 NOSIG=
201207291820 METAR ESSA 291820Z 28005KT 260V320 CAVOK 19/13 Q1008 NOSIG=
201207291750 METAR ESSA NIL=
201207291720 METAR ESSA NIL=
201207291650 METAR ESSA 291650Z 28008KT CAVOK 20/11 Q1009 NOSIG=
201207291620 METAR ESSA 291620Z 26008KT CAVOK 20/11 Q1009 NOSIG=
201207291550 METAR ESSA 291550Z 25007KT CAVOK 20/12 Q1009 NOSIG=
201207291520 METAR ESSA 291520Z 25006KT CAVOK 20/11 Q1009 NOSIG=
201207291450 METAR ESSA 291450Z 25007KT CAVOK 21/11 Q1009 NOSIG=
201207291420 METAR ESSA 291420Z 26008KT 230V290 CAVOK 21/11 Q1009 NOSIG=
201207291350 METAR ESSA 291350Z 25007KT 210V290 CAVOK 22/12 Q1009 NOSIG=
201207291320 METAR ESSA 291320Z 25008KT 200V270 CAVOK 21/12 Q1009 NOSIG=
201207291250 METAR ESSA 291250Z 21008KT CAVOK 21/12 Q1009 NOSIG=
201207291220 METAR ESSA 291220Z 25008KT CAVOK 21/12 Q1009 NOSIG=
201207291150 METAR ESSA 291150Z 23007KT 190V270 CAVOK 21/13 Q1009 NOSIG=
201207291120 METAR ESSA 291120Z 26007KT 9999 FEW027 21/14 Q1009 NOSIG=
201207291050 METAR ESSA 291050Z 20008KT 9999 FEW027 21/14 Q1009 NOSIG=
201207291020 METAR ESSA 291020Z 21008KT 190V250 9999 SCT025 21/15 Q1009
                        NOSIG=
201207290950 METAR ESSA 290950Z 20007KT 9999 SCT025 21/15 Q1008 NOSIG=
201207290920 METAR ESSA 290920Z 24008KT 210V280 9999 SCT025 21/15 Q1008
                        NOSIG=
201207290850 METAR ESSA 290850Z 22008KT 190V250 9999 SCT025 21/14 Q1008
                        NOSIG=
201207290820 METAR ESSA 290820Z 26009KT 9999 SCT025 21/15 Q1008 NOSIG=
201207290750 METAR ESSA 290750Z 25009KT 9999 SCT025 21/14 Q1008 NOSIG=
201207290720 METAR ESSA 290720Z 26011KT 9999 FEW025 20/14 Q1007 NOSIG=
201207290650 METAR ESSA 290650Z 25008KT 9999 FEW021 19/14 Q1007 NOSIG=
201207290620 METAR ESSA 290620Z 27010KT 9999 SCT021 18/14 Q1007 NOSIG=
201207290550 METAR ESSA 290550Z 27011KT 9999 BKN021 18/14 Q1007 NOSIG=
201207290520 METAR ESSA 290520Z 26012KT 9999 FEW018 SCT025 19/15 Q1007
                        NOSIG=
201207290450 METAR ESSA 290450Z 26011KT CAVOK 18/15 Q1006 NOSIG=
201207290420 METAR ESSA 290420Z 25012KT CAVOK 18/15 Q1006 NOSIG=
201207290350 METAR ESSA 290350Z 25011KT 9999 FEW014 18/15 Q1005 NOSIG=
201207290320 METAR ESSA 290320Z 25014KT 9999 FEW015 18/16 Q1005 NOSIG=
201207290250 METAR ESSA 290250Z 26010KT 9999 SCT015 20/17 Q1005 BECMG
                        BKN012=
201207290220 METAR ESSA 290220Z 25010KT 9999 BKN015 20/17 Q1004 BECMG
                        BKN012=
201207290150 METAR ESSA 290150Z 24009KT 9999 BKN015 21/18 Q1004 BECMG
                        BKN012=
201207290120 METAR ESSA 290120Z 19008KT 9999 BKN015 20/18 Q1004 BECMG
                        BKN012=
201207290050 METAR ESSA 290050Z 17008KT CAVOK 20/18 Q1003 NOSIG=
201207290020 METAR ESSA 290020Z 16009KT CAVOK 21/18 Q1003 NOSIG=
201207282350 METAR ESSA 282350Z 16010KT CAVOK 20/18 Q1003 NOSIG=
201207282320 METAR ESSA 282320Z 14008KT CAVOK 20/18 Q1003 NOSIG=
201207282250 METAR ESSA 282250Z 14008KT CAVOK 20/18 Q1003 NOSIG=
201207282220 METAR ESSA 282220Z 13009KT CAVOK 20/18 Q1003 NOSIG=
201207282150 METAR ESSA 282150Z 13006KT CAVOK 20/18 Q1004 NOSIG=
201207282120 METAR ESSA 282120Z 14006KT CAVOK 20/18 Q1004 NOSIG=
201207282050 METAR ESSA 282050Z 14007KT CAVOK 20/18 Q1004 NOSIG=
201207282020 METAR ESSA 282020Z 13008KT CAVOK 21/18 Q1004 NOSIG=
201207281950 METAR ESSA 281950Z 13008KT CAVOK 21/18 Q1004 NOSIG=
201207281920 METAR ESSA 281920Z 14008KT CAVOK 21/18 Q1004 NOSIG=
201207281850 METAR ESSA 281850Z 14008KT CAVOK 22/18 Q1004 NOSIG=
201207281820 METAR ESSA 281820Z 13009KT CAVOK 22/18 Q1005 NOSIG=
201207281750 METAR ESSA 281750Z 11009KT CAVOK 22/17 Q1005 NOSIG=
201207281720 METAR ESSA 281720Z 14010KT CAVOK 22/17 Q1005 NOSIG=
201207281650 METAR ESSA 281650Z 13010KT CAVOK 23/16 Q1006 NOSIG=
201207281620 METAR ESSA 281620Z 14011KT CAVOK 23/16 Q1006 NOSIG=
201207281550 METAR ESSA 281550Z 12012KT CAVOK 24/16 Q1006 NOSIG=
201207281520 METAR ESSA 281520Z 13010KT CAVOK 25/16 Q1006 NOSIG=
201207281450 METAR ESSA 281450Z 12011KT CAVOK 25/17 Q1007 NOSIG=
201207281420 METAR ESSA 281420Z 12012KT CAVOK 25/16 Q1007 NOSIG=
201207281350 METAR ESSA 281350Z 13012KT CAVOK 26/17 Q1007 NOSIG=
201207281320 METAR ESSA 281320Z 13012KT CAVOK 25/17 Q1008 NOSIG=
201207281250 METAR ESSA 281250Z 14013G24KT 100V190 CAVOK 26/17 Q1008 NOSIG=
201207281220 METAR ESSA 281220Z 13012KT CAVOK 26/17 Q1008 NOSIG=
201207281150 METAR ESSA 281150Z 12010KT CAVOK 24/16 Q1009 NOSIG=
201207281120 METAR ESSA 281120Z 11009KT CAVOK 24/17 Q1009 NOSIG=
201207281050 METAR ESSA 281050Z 12010KT CAVOK 24/16 Q1009 NOSIG=
201207281020 METAR ESSA 281020Z 11011KT CAVOK 25/16 Q1009 NOSIG=
201207280950 METAR ESSA 280950Z 14009KT CAVOK 25/16 Q1010 NOSIG=
201207280920 METAR ESSA 280920Z 13009KT 090V150 CAVOK 24/16 Q1010 NOSIG=
201207280850 METAR ESSA 280850Z 12008KT CAVOK 23/16 Q1011 NOSIG=
201207280820 METAR ESSA 280820Z 14008KT CAVOK 23/16 Q1011 NOSIG=
201207280750 METAR ESSA 280750Z 14008KT CAVOK 22/16 Q1011 NOSIG=
201207280720 METAR ESSA 280720Z 13008KT CAVOK 22/16 Q1011 NOSIG=
201207280650 METAR ESSA 280650Z 12008KT 090V160 CAVOK 21/16 Q1011 NOSIG=
201207280620 METAR ESSA 280620Z 11007KT CAVOK 20/16 Q1012 NOSIG=
201207280550 METAR ESSA 280550Z 12007KT CAVOK 19/15 Q1012 NOSIG=
201207280520 METAR ESSA 280520Z 12006KT CAVOK 18/15 Q1012 NOSIG=
201207280450 METAR ESSA 280450Z 12006KT CAVOK 17/14 Q1013 NOSIG=
201207280420 METAR ESSA 280420Z 12005KT 340V140 CAVOK 16/14 Q1013 NOSIG=
201207280350 METAR ESSA 280350Z 12004KT CAVOK 15/13 Q1013 NOSIG=
201207280320 METAR ESSA 280320Z 08006KT CAVOK 14/13 Q1013 NOSIG=
201207280250 METAR ESSA 280250Z 08005KT CAVOK 14/13 Q1013 NOSIG=
201207280220 METAR ESSA 280220Z 10005KT CAVOK 14/13 Q1013 NOSIG=
201207280150 METAR ESSA 280150Z 11005KT CAVOK 14/12 Q1014 NOSIG=
201207280120 METAR ESSA 280120Z 08005KT CAVOK 15/12 Q1014 NOSIG=
201207280050 METAR ESSA 280050Z 08005KT CAVOK 15/12 Q1014 NOSIG=
201207280020 METAR ESSA 280020Z 10005KT CAVOK 15/12 Q1014 NOSIG=
201207272350 METAR ESSA 272350Z 09005KT CAVOK 15/11 Q1014 NOSIG=
201207272320 METAR ESSA 272320Z 10005KT CAVOK 16/11 Q1015 NOSIG=
201207272250 METAR ESSA 272250Z 09004KT 9999 BKN030 17/11 Q1015 NOSIG=
201207272220 METAR ESSA 272220Z 11005KT 9999 BKN031 17/10 Q1015 NOSIG=
201207272150 METAR ESSA 272150Z 12006KT 9999 BKN037 17/10 Q1015 NOSIG=
201207272120 METAR ESSA 272120Z 09005G17KT 9999 BKN039 18/10 Q1015 NOSIG=
201207272050 METAR ESSA 272050Z 10006KT 9999 BKN039 17/10 Q1015 NOSIG=
201207272020 METAR ESSA 272020Z 10005KT 9999 OVC036 18/10 Q1015 NOSIG=
201207271950 METAR ESSA 271950Z 12005KT 9999 OVC036 18/09 Q1016 NOSIG=
201207271920 METAR ESSA 271920Z 12007KT 9999 BKN036 18/09 Q1016 NOSIG=
201207271850 METAR ESSA 271850Z 13007KT 9999 SCT038 BKN066 19/09 Q1016
                        NOSIG=
201207271820 METAR ESSA 271820Z 13008KT 9999 FEW040 SCT066 19/08 Q1016
                        NOSIG=
201207271750 METAR ESSA 271750Z 13009KT 9999 FEW048 19/07 Q1016 NOSIG=
201207271720 METAR ESSA 271720Z 12009KT CAVOK 20/07 Q1016 NOSIG=
201207271650 METAR ESSA 271650Z 13009KT CAVOK 21/08 Q1016 NOSIG=
201207271620 METAR ESSA 271620Z 12009KT 080V140 CAVOK 21/08 Q1016 NOSIG=
201207271550 METAR ESSA 271550Z 11009KT CAVOK 21/08 Q1016 NOSIG=
201207271520 METAR ESSA 271520Z 11009KT CAVOK 21/07 Q1016 NOSIG=
201207271450 METAR ESSA 271450Z 10010KT CAVOK 22/07 Q1016 NOSIG=
201207271420 METAR ESSA 271420Z 13011KT CAVOK 22/06 Q1017 NOSIG=
201207271350 METAR ESSA 271350Z 13011KT CAVOK 22/07 Q1017 NOSIG=
201207271320 METAR ESSA 271320Z 11011KT CAVOK 22/06 Q1017 NOSIG=
201207271250 METAR ESSA 271250Z 10010G24KT 070V130 CAVOK 23/08 Q1017 NOSIG=
201207271220 METAR ESSA 271220Z 10009KT CAVOK 23/07 Q1017 NOSIG=
201207271150 METAR ESSA 271150Z 13010KT CAVOK 23/07 Q1018 NOSIG=
201207271120 METAR ESSA 271120Z 11010KT CAVOK 23/09 Q1018 NOSIG=
201207271050 METAR ESSA 271050Z 13010KT CAVOK 22/08 Q1018 NOSIG=
201207271020 METAR ESSA 271020Z 13010KT CAVOK 22/08 Q1018 NOSIG=
201207270950 METAR ESSA 270950Z 14010KT CAVOK 22/09 Q1018 NOSIG=
201207270920 METAR ESSA 270920Z 10009KT 080V150 CAVOK 22/09 Q1018 NOSIG=
201207270850 METAR ESSA 270850Z 10009KT CAVOK 21/09 Q1019 NOSIG=
201207270820 METAR ESSA 270820Z 11009KT CAVOK 20/09 Q1019 NOSIG=
201207270750 METAR ESSA 270750Z 10009KT CAVOK 20/10 Q1019 NOSIG=
201207270720 METAR ESSA 270720Z 10009KT CAVOK 19/11 Q1019 NOSIG=
201207270650 METAR ESSA 270650Z 09009KT CAVOK 18/11 Q1019 NOSIG=
201207270620 METAR ESSA 270620Z 09007KT CAVOK 17/12 Q1019 NOSIG=
201207270550 METAR ESSA 270550Z 08007KT CAVOK 16/12 Q1019 NOSIG=
201207270520 METAR ESSA 270520Z 07008KT CAVOK 15/12 Q1019 NOSIG=
201207270450 METAR ESSA 270450Z 05006KT CAVOK 14/11 Q1019 NOSIG=
201207270420 METAR ESSA 270420Z 05005KT CAVOK 12/10 Q1019 NOSIG=
201207270350 METAR ESSA 270350Z 07004KT CAVOK 11/09 Q1019 NOSIG=
201207270320 METAR ESSA 270320Z 03004KT CAVOK 10/09 Q1019 NOSIG=
201207270250 METAR ESSA 270250Z 03005KT CAVOK 09/09 Q1019 NOSIG=
201207270220 METAR ESSA 270220Z VRB01KT CAVOK 09/09 Q1019 NOSIG=
201207270150 METAR ESSA 270150Z 34002KT CAVOK 09/08 Q1019 NOSIG=
201207270120 METAR ESSA 270120Z VRB01KT CAVOK 09/08 Q1019 NOSIG=
201207270050 METAR ESSA 270050Z VRB01KT CAVOK 09/08 Q1019 NOSIG=
201207270020 METAR ESSA 270020Z VRB01KT CAVOK 09/08 Q1019 NOSIG=
201207262350 METAR ESSA 262350Z 28002KT CAVOK 09/09 Q1019 NOSIG=
201207262320 METAR ESSA 262320Z VRB01KT CAVOK 09/08 Q1019 NOSIG=
201207262250 METAR ESSA 262250Z 02001KT CAVOK 09/08 Q1019 NOSIG=
201207262220 METAR ESSA 262220Z 36002KT CAVOK 11/09 Q1019 NOSIG=
201207262150 METAR ESSA 262150Z 01003KT CAVOK 11/09 Q1019 NOSIG=
201207262120 METAR ESSA 262120Z 03002KT CAVOK 11/09 Q1019 NOSIG=
201207262050 METAR ESSA 262050Z 04003KT CAVOK 13/10 Q1019 NOSIG=
201207262020 METAR ESSA 262020Z 05005KT CAVOK 13/09 Q1019 NOSIG=
201207261950 METAR ESSA 261950Z 04008KT CAVOK 14/10 Q1019 NOSIG=
201207261920 METAR ESSA 261920Z 05008KT CAVOK 17/09 Q1018 NOSIG=
201207261850 METAR ESSA 261850Z 04008KT CAVOK 18/10 Q1018 NOSIG=
201207261820 METAR ESSA 261820Z 03010KT CAVOK 19/10 Q1018 NOSIG=
201207261750 METAR ESSA 261750Z 03010KT CAVOK 20/10 Q1018 NOSIG=
201207261720 METAR ESSA 261720Z 01009KT CAVOK 20/10 Q1018 NOSIG=
201207261650 METAR ESSA 261650Z 06008KT CAVOK 21/11 Q1018 NOSIG=
201207261620 METAR ESSA 261620Z 04008KT 020V100 CAVOK 21/10 Q1018 NOSIG=
201207261550 METAR ESSA 261550Z 05009KT 020V080 CAVOK 21/11 Q1017 NOSIG=
201207261520 METAR ESSA 261520Z 05011KT 360V080 9999 SCT037 21/11 Q1017
                        NOSIG=
201207261450 METAR ESSA 261450Z 04010KT 9999 SCT036 BKN038 21/12 Q1017
                        NOSIG=
201207261420 METAR ESSA 261420Z 02010KT 360V070 9999 SCT033 BKN036 21/13
                        Q1017 NOSIG=
201207261350 METAR ESSA 261350Z 04010KT 9999 SCT033 BKN047 22/13 Q1017
                        NOSIG=
201207261320 METAR ESSA 261320Z 05009KT 9999 SCT032 BKN047 22/13 Q1017
                        NOSIG=
201207261250 METAR ESSA 261250Z 06010KT 010V080 9999 SCT030 BKN045 21/13
                        Q1017 NOSIG=
201207261220 METAR ESSA 261220Z 03010KT 9999 SCT027 BKN030 21/13 Q1017
                        NOSIG=
201207261150 METAR ESSA 261150Z 36012KT 9999 SCT025 BKN027 20/14 Q1017
                        NOSIG=
201207261120 METAR ESSA 261120Z 36011KT 9999 SCT023 BKN025 20/14 Q1017
                        NOSIG=
201207261050 METAR ESSA 261050Z 02011KT 9999 SCT020 BKN023 20/14 Q1017
                        NOSIG=
201207261020 METAR ESSA 261020Z 03011KT 9999 SCT017 BKN020 20/15 Q1017
                        NOSIG=
201207260950 METAR ESSA 260950Z 35011KT 9999 SCT012 BKN015 18/15 Q1016
                        NOSIG=
201207260920 METAR ESSA 260920Z 34012KT 9999 SCT015 BKN017 18/15 Q1016
                        NOSIG=
201207260850 METAR ESSA 260850Z 36011KT 9999 SCT016 BKN018 19/15 Q1016
                        NOSIG=
201207260820 METAR ESSA 260820Z 35010KT 9999 SCT015 BKN017 19/15 Q1016
                        NOSIG=
201207260750 METAR ESSA 260750Z 35011KT 9999 BKN015 18/15 Q1016 NOSIG=
201207260720 METAR ESSA 260720Z 36012KT 9999 BKN014 18/15 Q1015 BECMG
                        SCT015=
201207260650 METAR ESSA 260650Z 36010KT 9999 BKN012 18/15 Q1015 BECMG
                        SCT015=
201207260620 METAR ESSA 260620Z 01009KT 9999 SCT010 BKN084 18/15 Q1015
                        TEMPO BKN012=
201207260550 METAR ESSA 260550Z 36010KT CAVOK 17/15 Q1015 NOSIG=
201207260520 METAR ESSA 260520Z 36009KT CAVOK 17/15 Q1014 NOSIG=
201207260450 METAR ESSA 260450Z 36009KT CAVOK 17/15 Q1014 NOSIG=
201207260420 METAR ESSA 260420Z 36008KT CAVOK 17/15 Q1014 NOSIG=
201207260350 METAR ESSA 260350Z 01009KT CAVOK 16/14 Q1014 NOSIG=
201207260320 METAR ESSA 260320Z 03007KT CAVOK 16/15 Q1014 NOSIG=
201207260250 METAR ESSA 260250Z 02007KT CAVOK 16/15 Q1013 NOSIG=
201207260220 METAR ESSA 260220Z 36004KT CAVOK 14/13 Q1013 NOSIG=
201207260150 METAR ESSA 260150Z 34003KT CAVOK 14/14 Q1013 NOSIG=
201207260120 METAR ESSA 260120Z 35004KT CAVOK 15/14 Q1013 NOSIG=
201207260050 METAR ESSA 260050Z 04003KT CAVOK 15/14 Q1013 NOSIG=
201207260020 METAR ESSA 260020Z 03003KT CAVOK 16/14 Q1013 NOSIG=
201207252350 METAR ESSA 252350Z 16003KT CAVOK 16/14 Q1013 NOSIG=
201207252320 METAR ESSA 252320Z 17003KT CAVOK 17/14 Q1013 NOSIG=
201207252250 METAR ESSA 252250Z 20003KT CAVOK 17/14 Q1013 NOSIG=
201207252220 METAR ESSA 252220Z 20003KT CAVOK 18/14 Q1013 NOSIG=
201207252150 METAR ESSA 252150Z 17004KT CAVOK 19/14 Q1013 NOSIG=
201207252120 METAR ESSA 252120Z 20004KT CAVOK 19/15 Q1013 NOSIG=
201207252050 METAR ESSA 252050Z 18005KT CAVOK 19/15 Q1013 NOSIG=
201207252020 METAR ESSA 252020Z 17005KT CAVOK 20/14 Q1013 NOSIG=
201207251950 METAR ESSA 251950Z 16006KT CAVOK 21/14 Q1014 NOSIG=
201207251920 METAR ESSA 251920Z 18006KT CAVOK 22/14 Q1014 NOSIG=
201207251850 METAR ESSA 251850Z 17007KT CAVOK 21/14 Q1013 NOSIG=
201207251820 METAR ESSA 251820Z 19007KT CAVOK 22/15 Q1013 NOSIG=
201207251750 METAR ESSA 251750Z 17009KT CAVOK 23/15 Q1013 NOSIG=
201207251720 METAR ESSA 251720Z 19009KT CAVOK 23/15 Q1013 NOSIG=
201207251650 METAR ESSA 251650Z 18009KT CAVOK 24/14 Q1013 NOSIG=
201207251620 METAR ESSA 251620Z 18010KT CAVOK 25/13 Q1013 NOSIG=
201207251550 METAR ESSA 251550Z 18011KT CAVOK 25/14 Q1013 NOSIG=
201207251520 METAR ESSA 251520Z 19012KT 9999 VCSH NSC 26/15 Q1013 NOSIG=
201207251450 METAR ESSA 251450Z 18013KT 9999 -SHRA FEW050CB BKN110 25/15
                        Q1014 RESHRA NOSIG=
201207251420 METAR ESSA 251420Z 17013KT CAVOK 26/13 Q1014 NOSIG=
201207251350 METAR ESSA 251350Z 20012KT CAVOK 27/11 Q1014 NOSIG=
201207251320 METAR ESSA 251320Z 22012KT CAVOK 27/13 Q1014 NOSIG=
201207251250 METAR ESSA 251250Z 21013KT CAVOK 26/13 Q1015 NOSIG=
201207251220 METAR ESSA 251220Z 21014KT CAVOK 26/12 Q1015 NOSIG=
201207251150 METAR ESSA 251150Z 21013KT CAVOK 27/13 Q1015 NOSIG=
201207251120 METAR ESSA 251120Z 21013KT 170V240 CAVOK 27/13 Q1015 NOSIG=
201207251050 METAR ESSA 251050Z 20011KT CAVOK 26/13 Q1015 NOSIG=
201207251020 METAR ESSA 251020Z 20013KT CAVOK 26/13 Q1016 NOSIG=
201207250950 METAR ESSA 250950Z 20012KT CAVOK 26/15 Q1016 NOSIG=
201207250920 METAR ESSA 250920Z 21012KT CAVOK 25/15 Q1016 NOSIG=
201207250850 METAR ESSA 250850Z 18011KT CAVOK 25/14 Q1016 NOSIG=
201207250820 METAR ESSA 250820Z 20010KT CAVOK 24/15 Q1016 NOSIG=
201207250750 METAR ESSA 250750Z 21008KT CAVOK 24/14 Q1017 NOSIG=
201207250720 METAR ESSA 250720Z 20008KT CAVOK 23/15 Q1017 NOSIG=
201207250650 METAR ESSA 250650Z 21008KT CAVOK 22/15 Q1017 NOSIG=
201207250620 METAR ESSA 250620Z 22007KT CAVOK 21/15 Q1017 NOSIG=
201207250550 METAR ESSA 250550Z 21008KT CAVOK 21/15 Q1017 NOSIG=
201207250520 METAR ESSA 250520Z 21007KT CAVOK 20/16 Q1017 NOSIG=
201207250450 METAR ESSA 250450Z 22007KT CAVOK 20/16 Q1017 NOSIG=
201207250420 METAR ESSA 250420Z 22005KT CAVOK 18/16 Q1017 NOSIG=
201207250350 METAR ESSA 250350Z 18006KT CAVOK 17/16 Q1017 NOSIG=
201207250320 METAR COR ESSA 250320Z 18006KT CAVOK 17/15 Q1017 NOSIG=
201207250250 METAR ESSA 250250Z 21003KT CAVOK 17/15 Q1018 NOSIG=
201207250220 METAR ESSA 250220Z 17003KT CAVOK 17/14 Q1018 NOSIG=
201207250150 METAR ESSA 250150Z 18005KT CAVOK 18/15 Q1018 NOSIG=
201207250120 METAR ESSA 250120Z 23005KT CAVOK 19/15 Q1018 NOSIG=
201207250050 METAR ESSA 250050Z 23006KT CAVOK 19/15 Q1017 NOSIG=
201207250020 METAR ESSA 250020Z 22006KT CAVOK 18/15 Q1018 NOSIG=
201207242350 METAR ESSA 242350Z 22006KT CAVOK 18/15 Q1017 NOSIG=
201207242320 METAR ESSA 242320Z 22006KT CAVOK 19/15 Q1017 NOSIG=
201207242250 METAR ESSA 242250Z 24007KT 9999 FEW045 BKN050 21/15 Q1018
                        NOSIG=
201207242220 METAR ESSA 242220Z 25010KT 9999 FEW041 BKN045 21/15 Q1018
                        NOSIG=
201207242150 METAR ESSA 242150Z 23008KT 9999 FEW041 BKN045 21/15 Q1018
                        NOSIG=
201207242120 METAR ESSA 242120Z 26008KT 9999 FEW047 BKN055 21/15 Q1018
                        NOSIG=
201207242050 METAR ESSA 242050Z 26008KT 9999 FEW047 BKN055 21/16 Q1018
                        NOSIG=
201207242020 METAR ESSA 242020Z 25011KT 9999 FEW047 BKN055 22/15 Q1018
                        NOSIG=
201207241950 METAR ESSA 241950Z 26012KT 9999 FEW047 BKN055 22/15 Q1017
                        NOSIG=
201207241920 METAR ESSA 241920Z 25010KT 9999 FEW045 BKN063 22/16 Q1017
                        NOSIG=
201207241850 METAR ESSA 241850Z 25014KT 9999 FEW040 BKN045 23/16 Q1017
                        NOSIG=
201207241820 METAR ESSA 241820Z 25014KT 9999 FEW043 BKN065 23/16 Q1017
                        NOSIG=
201207241750 METAR ESSA 241750Z 23011KT 9999 FEW045 BKN065 23/16 Q1017
                        NOSIG=
201207241720 METAR ESSA 241720Z 23011KT 9999 FEW045 BKN065 23/16 Q1017
                        NOSIG=
201207241650 METAR ESSA 241650Z 22010KT 9999 SCT040 BKN045 23/17 Q1017
                        NOSIG=
201207241620 METAR ESSA 241620Z 23011KT 9999 FEW038 BKN040 23/16 Q1017
                        NOSIG=
201207241550 METAR ESSA 241550Z 25012KT 9999 FEW038 BKN040 24/17 Q1017
                        NOSIG=
201207241520 METAR ESSA 241520Z 23013KT 9999 SCT038 BKN045 24/17 Q1017
                        NOSIG=
201207241450 METAR ESSA 241450Z 24013KT 9999 SCT038 BKN045 24/17 Q1017
                        NOSIG=
201207241420 METAR ESSA 241420Z 25013KT 9999 BKN038 23/17 Q1017 NOSIG=
201207241350 METAR ESSA 241350Z 25015KT 9999 BKN038 23/17 Q1017 NOSIG=
201207241320 METAR ESSA 241320Z 24013KT 9999 BKN040 23/17 Q1017 NOSIG=
201207241250 METAR ESSA 241250Z 24014KT 9999 BKN034 23/17 Q1017 NOSIG=
201207241220 METAR ESSA 241220Z 25013KT 9999 BKN034 22/17 Q1017 NOSIG=
201207241150 METAR ESSA 241150Z 24012KT 9999 BKN034 23/16 Q1017 NOSIG=
201207241120 METAR ESSA 241120Z 25016KT 9999 BKN030 22/16 Q1017 NOSIG=
201207241050 METAR ESSA 241050Z 25012KT 9999 BKN028 22/16 Q1017 NOSIG=
201207241020 METAR ESSA 241020Z 24014KT 9999 BKN025 22/16 Q1017 NOSIG=
201207240950 METAR ESSA 240950Z 25015KT 9999 BKN025 22/16 Q1017 NOSIG=
201207240920 METAR ESSA 240920Z 24015KT 9999 BKN024 20/16 Q1017 NOSIG=
201207240850 METAR ESSA 240850Z 26017KT 9999 BKN023 20/16 Q1017 NOSIG=
201207240820 METAR ESSA 240820Z 24015KT 9999 BKN020 21/16 Q1017 NOSIG=
201207240750 METAR ESSA 240750Z 24014KT 9999 BKN019 20/16 Q1017 NOSIG=
201207240720 METAR ESSA 240720Z 24012KT 9999 BKN018 20/16 Q1017 NOSIG=
201207240650 METAR ESSA 240650Z 25015KT 9999 BKN018 19/15 Q1017 NOSIG=
201207240620 METAR ESSA 240620Z 24010KT 9999 BKN018 19/15 Q1017 NOSIG=
201207240550 METAR ESSA 240550Z 24012KT 9999 BKN018 19/15 Q1017 NOSIG=
201207240520 METAR ESSA 240520Z 25012KT 9999 BKN018 19/15 Q1016 NOSIG=
201207240450 METAR ESSA 240450Z 23011KT 9999 BKN018 19/15 Q1016 NOSIG=
201207240420 METAR ESSA 240420Z 25012KT 9999 BKN018 19/15 Q1016 NOSIG=
201207240350 METAR ESSA 240350Z 24010KT 9999 BKN019 18/15 Q1016 NOSIG=
201207240320 METAR ESSA 240320Z 25011KT 9999 BKN019 18/15 Q1016 NOSIG=
201207240250 METAR ESSA 240250Z 25013KT 9999 BKN019 19/15 Q1016 NOSIG=
201207240220 METAR ESSA 240220Z 25013KT 9999 BKN019 19/15 Q1016 NOSIG=
201207240150 METAR ESSA 240150Z 24013KT 9999 BKN019 19/15 Q1016 NOSIG=
201207240120 METAR ESSA 240120Z 25014KT 9999 BKN019 19/15 Q1016 NOSIG=
201207240050 METAR ESSA 240050Z 25012KT 9999 BKN019 19/15 Q1016 NOSIG=
201207240020 METAR ESSA 240020Z 25013KT 9999 BKN019 19/15 Q1016 NOSIG=
201207232350 METAR ESSA 232350Z 25015KT 9999 BKN019 19/15 Q1015 NOSIG=
201207232320 METAR ESSA 232320Z 25016KT 9999 BKN020 19/15 Q1015 NOSIG=
201207232250 METAR ESSA 232250Z 25017KT 9999 BKN020 19/15 Q1015 NOSIG=
201207232220 METAR ESSA 232220Z 25016KT 9999 BKN020 19/15 Q1015 NOSIG=
201207232150 METAR ESSA 232150Z 25018KT 9999 BKN020 19/15 Q1015 NOSIG=
201207232120 METAR ESSA 232120Z 25018KT 9999 BKN023 19/15 Q1015 NOSIG=
201207232050 METAR ESSA 232050Z 26013KT 9999 BKN025 19/15 Q1015 NOSIG=
201207232020 METAR ESSA 232020Z 25012KT 9999 BKN026 19/15 Q1015 NOSIG=
201207231950 METAR ESSA 231950Z 24013KT 9999 BKN025 19/15 Q1015 NOSIG=
201207231920 METAR ESSA 231920Z 24014KT 9999 BKN026 19/15 Q1015 NOSIG=
201207231850 METAR ESSA 231850Z 25016KT 9999 BKN023 19/15 Q1015 NOSIG=
201207231820 METAR ESSA 231820Z 25017KT 9999 BKN026 19/15 Q1015 NOSIG=
201207231750 METAR ESSA 231750Z 25015KT 9999 BKN025 19/15 Q1015 NOSIG=
201207231720 METAR ESSA 231720Z 25017KT 9999 BKN025 19/15 Q1015 NOSIG=
201207231650 METAR ESSA 231650Z 25018KT 9999 BKN022 19/15 Q1015 NOSIG=
201207231620 METAR ESSA 231620Z 24018KT 9999 BKN020 19/15 Q1015 NOSIG=
201207231550 METAR ESSA 231550Z 25022G32KT 9999 BKN022 BKN090 19/15 Q1015
                        NOSIG=
201207231520 METAR ESSA 231520Z 24023KT 9999 BKN022 BKN092 19/15 Q1015
                        NOSIG=
201207231450 METAR COR ESSA 231450Z 26018KT 9999 -RA BKN021 18/15 Q1015
                        NOSIG=
201207231420 METAR ESSA 231420Z 25017KT 9999 -RA BKN021 18/15 Q1015 NOSIG=
201207231350 METAR ESSA 231350Z 26018KT 9999 -RA BKN021 18/14 Q1015 NOSIG=
201207231320 METAR ESSA 231320Z 25019KT 9999 BKN022 18/14 Q1014 NOSIG=
201207231250 METAR ESSA 231250Z 26019KT 9999 BKN021 18/14 Q1014 NOSIG=
201207231220 METAR ESSA 231220Z 25018KT 9999 BKN021 18/14 Q1014 NOSIG=
201207231150 METAR ESSA 231150Z 25014KT 9999 BKN021 17/14 Q1014 NOSIG=
201207231120 METAR ESSA 231120Z 25014KT 9999 BKN023 17/14 Q1014 NOSIG=
201207231050 METAR ESSA 231050Z 25014KT 9999 BKN023 17/14 Q1015 NOSIG=
201207231020 METAR ESSA 231020Z 23014KT 9999 -RA BKN023 17/14 Q1014 NOSIG=
201207230950 METAR ESSA 230950Z 24015KT 9999 -RA BKN020 17/14 Q1014 NOSIG=
201207230920 METAR ESSA 230920Z 25016KT 9999 -RA BKN020 17/14 Q1014 NOSIG=
201207230850 METAR ESSA 230850Z 24015KT 9999 -RA BKN020 17/13 Q1014 NOSIG=
201207230820 METAR ESSA 230820Z 24014KT 9999 -RA BKN020 17/13 Q1014 NOSIG=
201207230750 METAR ESSA 230750Z 23013KT 9999 BKN020 16/13 Q1014 NOSIG=
201207230720 METAR ESSA 230720Z 22015KT 9999 BKN020 16/12 Q1014 NOSIG=
201207230650 METAR ESSA 230650Z 23016KT 9999 BKN020 16/12 Q1014 NOSIG=
201207230620 METAR ESSA 230620Z 22015KT 9999 BKN020 16/12 Q1014 NOSIG=
201207230550 METAR ESSA 230550Z 22014KT 9999 BKN020 15/12 Q1014 NOSIG=
201207230520 METAR ESSA 230520Z 22014KT 9999 BKN020 15/11 Q1015 NOSIG=
201207230450 METAR ESSA 230450Z 22011KT 9999 BKN020 15/11 Q1015 NOSIG=
201207230420 METAR ESSA 230420Z 21011KT 9999 BKN020 15/11 Q1015 NOSIG=
201207230350 METAR ESSA 230350Z 20012KT 9999 FEW019 BKN022 14/11 Q1015
                        NOSIG=
201207230320 METAR ESSA 230320Z 22010KT 9999 FEW019 BKN022 14/11 Q1015
                        TEMPO BKN014=
201207230250 METAR ESSA 230250Z 22013KT 9999 -RA FEW025 BKN057 14/11 Q1016
                        NOSIG=
201207230220 METAR ESSA 230220Z 24014KT 9999 -RA SCT023 BKN033 14/11 Q1016
                        NOSIG=
201207230150 METAR ESSA 230150Z 25016KT 9999 -RA BKN027 14/10 Q1016 NOSIG=
201207230120 METAR ESSA 230120Z 25016KT 9999 -RA BKN029 15/10 Q1016 NOSIG=
201207230050 METAR ESSA 230050Z 24015KT 9999 -DZ SCT030 BKN042 15/09 Q1016
                        NOSIG=
201207230020 METAR ESSA 230020Z 24015KT 9999 -DZ NSC 16/09 Q1016 NOSIG=
201207222350 METAR ESSA 222350Z 25015KT 9999 -DZ NSC 16/09 Q1016 NOSIG=
201207222320 METAR ESSA 222320Z 25014KT CAVOK 16/10 Q1016 NOSIG=
201207222250 METAR ESSA 222250Z 25013KT CAVOK 16/10 Q1016 NOSIG=
201207222220 METAR ESSA 222220Z 24016KT CAVOK 16/09 Q1017 NOSIG=
201207222150 METAR ESSA 222150Z 23015KT CAVOK 17/09 Q1017 NOSIG=
201207222120 METAR ESSA 222120Z 25016KT CAVOK 17/10 Q1017 NOSIG=
201207222050 METAR ESSA 222050Z 24015KT CAVOK 17/09 Q1017 NOSIG=
201207222020 METAR ESSA 222020Z 24012KT CAVOK 17/09 Q1017 NOSIG=
201207221950 METAR ESSA 221950Z 25011KT CAVOK 17/09 Q1017 NOSIG=
201207221920 METAR ESSA 221920Z 25012KT CAVOK 17/09 Q1017 NOSIG=
201207221850 METAR ESSA 221850Z 25013KT CAVOK 18/08 Q1017 NOSIG=
201207221820 METAR ESSA 221820Z 26014KT CAVOK 19/08 Q1017 NOSIG=
201207221750 METAR ESSA 221750Z 25015KT CAVOK 19/09 Q1016 NOSIG=
201207221720 METAR ESSA 221720Z 25011KT CAVOK 20/10 Q1017 NOSIG=
201207221650 METAR ESSA 221650Z 23013KT CAVOK 20/10 Q1017 NOSIG=
201207221620 METAR ESSA 221620Z 24013KT CAVOK 20/11 Q1017 NOSIG=
201207221550 METAR ESSA 221550Z 26012KT CAVOK 20/10 Q1017 NOSIG=
201207221520 METAR ESSA 221520Z 26013KT CAVOK 20/09 Q1017 NOSIG=
201207221450 METAR ESSA 221450Z 26012KT CAVOK 21/10 Q1017 NOSIG=
201207221420 METAR ESSA 221420Z 24015KT CAVOK 21/10 Q1017 NOSIG=
201207221350 METAR ESSA 221350Z 25016KT CAVOK 21/10 Q1017 NOSIG=
201207221320 METAR ESSA 221320Z 23016KT CAVOK 21/09 Q1017 NOSIG=
201207221250 METAR ESSA 221250Z 24015G25KT CAVOK 21/09 Q1017 NOSIG=
201207221220 METAR ESSA 221220Z 22015KT CAVOK 21/09 Q1017 NOSIG=
201207221150 METAR ESSA 221150Z 24014KT CAVOK 21/09 Q1017 NOSIG=
201207221120 METAR ESSA 221120Z 22015KT CAVOK 22/10 Q1017 NOSIG=
201207221050 METAR ESSA 221050Z 22014KT CAVOK 20/08 Q1017 NOSIG=
201207221020 METAR ESSA 221020Z 22013KT CAVOK 20/08 Q1018 NOSIG=
201207220950 METAR ESSA 220950Z 20013KT CAVOK 20/08 Q1017 NOSIG=
201207220920 METAR ESSA 220920Z 23013KT CAVOK 20/08 Q1018 NOSIG=
201207220850 METAR ESSA 220850Z 23012KT 190V250 CAVOK 19/08 Q1018 NOSIG=
201207220820 METAR ESSA 220820Z 21012KT CAVOK 19/09 Q1018 NOSIG=
201207220750 METAR ESSA 220750Z 21012KT CAVOK 19/08 Q1018 NOSIG=
201207220720 METAR ESSA 220720Z 20008KT CAVOK 18/10 Q1018 NOSIG=
201207220650 METAR ESSA 220650Z 19007KT CAVOK 18/11 Q1018 NOSIG=
201207220620 METAR ESSA 220620Z 24006KT CAVOK 16/11 Q1018 NOSIG=
201207220550 METAR ESSA 220550Z 23006KT CAVOK 15/10 Q1017 NOSIG=
201207220520 METAR ESSA 220520Z 24006KT CAVOK 14/10 Q1017 NOSIG=
201207220450 METAR ESSA 220450Z 23005KT CAVOK 13/10 Q1017 NOSIG=
201207220420 METAR ESSA 220420Z 23003KT CAVOK 11/10 Q1017 NOSIG=
201207220350 METAR ESSA 220350Z 20003KT CAVOK 10/09 Q1017 NOSIG=
201207220320 METAR ESSA 220320Z 25003KT CAVOK 09/08 Q1017 NOSIG=
201207220250 METAR ESSA 220250Z 22003KT 9999 MIFG NSC 08/07 Q1017 NOSIG=
201207220220 METAR ESSA 220220Z 21004KT 9999 MIFG NSC 08/08 Q1017 NOSIG=
201207220150 METAR ESSA 220150Z 18003KT 9999 MIFG NSC 08/08 Q1017 NOSIG=
201207220120 METAR ESSA 220120Z 18003KT 9999 MIFG NSC 10/09 Q1016 NOSIG=
201207220050 METAR ESSA 220050Z 17003KT 9999 VCFG NSC 10/08 Q1016 TEMPO
                        4000=
201207220020 METAR ESSA 220020Z 18003KT CAVOK 11/09 Q1016 NOSIG=
201207212350 METAR ESSA 212350Z 19005KT CAVOK 11/09 Q1016 NOSIG=
201207212320 METAR ESSA 212320Z 19004KT CAVOK 11/10 Q1016 NOSIG=
201207212250 METAR ESSA 212250Z 18004KT CAVOK 11/10 Q1016 NOSIG=
201207212220 METAR ESSA 212220Z 18006KT CAVOK 11/09 Q1016 NOSIG=
201207212150 METAR ESSA 212150Z 17007KT CAVOK 12/08 Q1016 NOSIG=
201207212120 METAR ESSA 212120Z 16007KT CAVOK 13/08 Q1015 NOSIG=
201207212050 METAR ESSA 212050Z 17004KT CAVOK 14/08 Q1015 NOSIG=
201207212020 METAR ESSA 212020Z 17005KT CAVOK 13/08 Q1015 NOSIG=
201207211950 METAR ESSA 211950Z 17004KT CAVOK 14/07 Q1015 NOSIG=
201207211920 METAR ESSA 211920Z 18003KT CAVOK 14/09 Q1014 NOSIG=
201207211850 METAR ESSA 211850Z 15003KT CAVOK 16/09 Q1014 NOSIG=
201207211820 METAR ESSA 211820Z 13003KT CAVOK 15/09 Q1014 NOSIG=
201207211750 METAR ESSA 211750Z 15003KT CAVOK 18/04 Q1014 NOSIG=
201207211720 METAR ESSA 211720Z 36004KT CAVOK 18/05 Q1013 NOSIG=
201207211650 METAR ESSA 211650Z 33006KT CAVOK 18/04 Q1013 NOSIG=
201207211620 METAR ESSA 211620Z 36007KT CAVOK 17/05 Q1013 NOSIG=
201207211550 METAR ESSA 211550Z 31006KT 290V350 CAVOK 18/05 Q1013 NOSIG=
201207211520 METAR ESSA 211520Z 02008KT 320V040 CAVOK 17/05 Q1013 NOSIG=
201207211450 METAR ESSA 211450Z 33008KT 290V360 CAVOK 18/04 Q1013 NOSIG=
201207211420 METAR ESSA 211420Z 36009KT CAVOK 18/05 Q1012 NOSIG=
201207211350 METAR ESSA 211350Z 32008KT 290V360 CAVOK 18/06 Q1012 NOSIG=
201207211320 METAR ESSA 211320Z 35009KT 9999 SCT049 17/06 Q1012 NOSIG=
201207211250 METAR ESSA 211250Z 33008KT 270V020 9999 SCT048 17/07 Q1012
                        NOSIG=
201207211220 METAR ESSA 211220Z 35009KT 9999 SCT044 17/06 Q1012 NOSIG=
201207211150 METAR ESSA 211150Z 31009KT 270V340 9999 SCT043 17/06 Q1012
                        NOSIG=
201207211120 METAR ESSA 211120Z 34009KT 300V010 9999 SCT041 17/07 Q1011
                        NOSIG=
201207211050 METAR ESSA 211050Z 32010KT 9999 SCT040 15/08 Q1011 NOSIG=
201207211020 METAR ESSA 211020Z 33010KT 300V360 9999 SCT035 16/09 Q1011
                        NOSIG=
201207210950 METAR ESSA 210950Z 34011KT 310V010 9999 SCT032 15/10 Q1011
                        NOSIG=
201207210920 METAR ESSA 210920Z 34010KT 9999 BKN030 14/09 Q1010 NOSIG=
201207210850 METAR ESSA 210850Z 36009KT 9999 BKN033 15/09 Q1010 NOSIG=
201207210820 METAR ESSA 210820Z 35010KT 9999 BKN030 14/10 Q1010 NOSIG=
201207210750 METAR ESSA 210750Z 34011KT 9999 BKN025 13/10 Q1009 NOSIG=
201207210720 METAR ESSA 210720Z 34010KT 9999 SCT016 BKN030 13/10 Q1009
                        NOSIG=
201207210650 METAR ESSA 210650Z 34010KT 9999 SCT015 BKN025 12/11 Q1009
                        NOSIG=
201207210620 METAR ESSA 210620Z 34010KT 9999 BKN010 BKN018 12/11 Q1008
                        BECMG SCT015=
201207210550 METAR ESSA 210550Z 34008KT 9999 SCT012 BKN030 12/11 Q1008
                        NOSIG=
201207210520 METAR ESSA 210520Z 33009KT 9999 -DZ FEW006 BKN011 BKN019
                        12/11 Q1008 BECMG BKN015=
201207210450 METAR ESSA 210450Z 33007KT 9000 -DZ SCT007 BKN010 BKN035
                        11/11 Q1007 BECMG BKN015=
201207210420 METAR ESSA 210420Z 36009KT 6000 -SHRA BR SCT007CB BKN010
                        11/11 Q1007 BECMG BKN015=
201207210350 METAR ESSA 210350Z 34009KT 6000 -SHRA BR BKN007 12/11 Q1007
                        TEMPO SHRA FEW007 BKN040=
201207210320 METAR ESSA 210320Z 35010KT 8000 BR BKN007 12/11 Q1007 TEMPO
                        4000=
201207210250 METAR ESSA 210250Z 33009KT 8000 BR BKN007 12/11 Q1006 TEMPO
                        4000=
201207210220 METAR ESSA 210220Z 35007KT 8000 BR BKN007 13/12 Q1006 TEMPO
                        4000=
201207210150 METAR ESSA 210150Z 36008KT 8000 BR BKN007 13/12 Q1006 TEMPO
                        4000=
201207210120 METAR ESSA 210120Z 36007KT 8000 BR BKN007 13/12 Q1006 TEMPO
                        4000=
201207210050 METAR ESSA 210050Z 36004KT 8000 -SHRA BR FEW040CB BKN064
                        13/13 Q1006 TEMPO 4000=
201207210020 METAR ESSA 210020Z 35003KT 8000 -SHRA BR FEW045CB BKN064
                        13/13 Q1005 TEMPO 4000=
201207202350 METAR ESSA 202350Z 34005KT 8000 BR BKN064 13/13 Q1005 TEMPO
                        4000=
201207202320 METAR ESSA 202320Z 34005KT CAVOK 13/13 Q1005 NOSIG=
201207202250 METAR ESSA 202250Z 01003KT CAVOK 13/13 Q1005 NOSIG=
201207202220 METAR ESSA 202220Z 14003KT 110V200 9999 -SHRA FEW045CB BKN068
                        14/13 Q1005 NOSIG=
201207202150 METAR ESSA 202150Z 13004KT CAVOK 14/13 Q1005 NOSIG=
201207202120 METAR ESSA 202120Z 07003KT 9999 -SHRA FEW049CB BKN078 14/13
                        Q1005 TEMPO SHRA=
201207202050 METAR ESSA 202050Z 08005KT 9999 -SHRA FEW049CB BKN060 14/13
                        Q1005 TEMPO SHRA=
201207202020 METAR ESSA 202020Z 35005KT 9999 -SHRA FEW045CB BKN065 14/13
                        Q1005 TEMPO SHRA=
201207201950 METAR ESSA 201950Z 30006KT 9999 -SHRA SCT045CB BKN065 14/13
                        Q1005 TEMPO SHRA=
201207201920 METAR ESSA 201920Z 07004KT 9999 FEW045CB BKN065 14/13 Q1004
                        TEMPO SHRA=
201207201850 METAR ESSA 201850Z 10004KT CAVOK 14/13 Q1004 TEMPO SHRA=
201207201820 METAR ESSA 201820Z 04005KT 9999 FEW040CB BKN080 15/13 Q1004
                        RETSRA TEMPO SHRA=
201207201750 METAR COR ESSA 201750Z 02012KT 6000 R01L/P1500N R19R/P1500U
                        R01R/P1500N R19L/0550VP1500U TSRA
                        SCT040CB SCT100 15/13 Q1004 RESHRA
                        TEMPO SHRA=
201207201720 METAR ESSA 201720Z 36006KT 9999 VCTS SCT040CB BKN045 16/13
                        Q1003 TEMPO SHRA=
201207201650 METAR ESSA 201650Z 06006KT 9999 FEW050CB BKN065 16/13 Q1003
                        TEMPO SHRA=
201207201620 METAR ESSA 201620Z 03008KT 9999 FEW048CB SCT055 17/12 Q1003
                        RESHRA NOSIG=
201207201550 METAR ESSA 201550Z 04008KT 9999 -SHRA FEW048CB BKN055 16/14
                        Q1003 NOSIG=
201207201520 METAR ESSA 201520Z 05007KT 9999 -SHRA FEW048CB BKN055 18/13
                        Q1003 NOSIG=
201207201450 METAR ESSA 201450Z 05011KT 9999 FEW048CB BKN060 18/11 Q1003
                        NOSIG=
201207201420 METAR COR ESSA 201420Z 10007KT 060V130 9999 -SHRA FEW048CB
                        BKN052 20/10 Q1003 NOSIG=
201207201350 METAR ESSA 201350Z 05004KT 360V080 9999 FEW048TCU SCT052
                        21/09 Q1003 NOSIG=
201207201320 METAR ESSA 201320Z 33005KT 280V010 9999 FEW048 SCT065 21/09
                        Q1002 NOSIG=
201207201250 METAR ESSA 201250Z 08007KT 010V120 CAVOK 21/09 Q1002 NOSIG=
201207201220 METAR ESSA 201220Z 02008KT 9999 -SHRA FEW050CB SCT064 21/10
                        Q1002 NOSIG=
201207201150 METAR ESSA 201150Z 03011KT 9999 -SHRA BKN057 20/11 Q1002
                        NOSIG=
201207201120 METAR ESSA 201120Z VRB07KT CAVOK 20/11 Q1002 NOSIG=
201207201050 METAR ESSA 201050Z 20005KT 140V240 CAVOK 21/09 Q1002 NOSIG=
201207201020 METAR ESSA 201020Z 31003KT 9999 FEW049TCU SCT051 21/08 Q1002
                        NOSIG=
201207200950 METAR ESSA 200950Z 33005KT 9999 FEW045TCU SCT057 21/07 Q1002
                        NOSIG=
201207200920 METAR ESSA 200920Z 24004KT 160V300 9999 SCT043 19/09 Q1002
                        NOSIG=
201207200850 METAR ESSA 200850Z 23004KT 180V300 9999 FEW038 20/09 Q1002
                        NOSIG=
201207200820 METAR ESSA 200820Z 22003KT 140V280 9999 FEW032 19/11 Q1001
                        NOSIG=
201207200750 METAR ESSA 200750Z 08003KT 030V120 9999 FEW028 19/12 Q1001
                        NOSIG=
201207200720 METAR ESSA 200720Z VRB01KT 9999 FEW026 18/11 Q1001 NOSIG=
201207200650 METAR ESSA 200650Z 19003KT 160V230 CAVOK 17/12 Q1001 NOSIG=
201207200620 METAR ESSA 200620Z VRB02KT CAVOK 16/12 Q1001 NOSIG=
201207200550 METAR ESSA 200550Z VRB01KT CAVOK 15/12 Q1000 NOSIG=
201207200520 METAR ESSA 200520Z VRB02KT CAVOK 13/12 Q1000 NOSIG=
201207200450 METAR ESSA 200450Z 00000KT CAVOK 11/10 Q1000 NOSIG=
201207200420 METAR ESSA 200420Z 00000KT CAVOK 10/10 Q1000 NOSIG=
201207200350 METAR ESSA 200350Z 00000KT CAVOK 09/08 Q1000 NOSIG=
201207200320 METAR ESSA 200320Z 04001KT CAVOK 08/08 Q1000 NOSIG=
201207200250 METAR ESSA 200250Z 00000KT CAVOK 08/07 Q0999 NOSIG=
201207200220 METAR ESSA 200220Z 35002KT CAVOK 07/07 Q0999 NOSIG=
201207200150 METAR ESSA 200150Z 35002KT CAVOK 07/07 Q0999 NOSIG=
201207200120 METAR ESSA 200120Z 04002KT CAVOK 08/07 Q0999 NOSIG=
201207200050 METAR ESSA 200050Z VRB01KT CAVOK 08/07 Q0999 NOSIG=
201207200020 METAR ESSA 200020Z 06001KT CAVOK 09/08 Q0999 NOSIG=
201207192350 METAR ESSA 192350Z 07001KT CAVOK 09/08 Q0999 NOSIG=
201207192320 METAR ESSA 192320Z 35002KT CAVOK 10/09 Q0999 NOSIG=
201207192250 METAR ESSA 192250Z VRB01KT CAVOK 10/09 Q0999 NOSIG=
201207192220 METAR ESSA 192220Z 01001KT CAVOK 11/09 Q0999 NOSIG=
201207192150 METAR ESSA 192150Z 10003KT 060V120 CAVOK 13/11 Q0999 NOSIG=
201207192120 METAR ESSA 192120Z VRB01KT CAVOK 13/10 Q0999 NOSIG=
201207192050 METAR ESSA 192050Z VRB02KT CAVOK 14/11 Q0999 NOSIG=
201207192020 METAR ESSA 192020Z 12002KT CAVOK 15/11 Q0999 NOSIG=
201207191950 METAR ESSA 191950Z 15003KT CAVOK 16/11 Q0999 NOSIG=
201207191920 METAR ESSA 191920Z 14004KT CAVOK 17/11 Q0999 NOSIG=
201207191850 METAR ESSA 191850Z 12006KT CAVOK 17/10 Q0999 NOSIG=
201207191820 METAR ESSA 191820Z 13007KT CAVOK 18/10 Q0999 NOSIG=
201207191750 METAR ESSA 191750Z 13006KT CAVOK 18/10 Q0999 NOSIG=
201207191720 METAR ESSA 191720Z 13007KT 090V160 CAVOK 19/10 Q0999 NOSIG=
201207191650 METAR ESSA 191650Z 13008KT CAVOK 20/09 Q0999 NOSIG=
201207191620 METAR ESSA 191620Z 12008KT 080V150 CAVOK 20/09 Q0999 NOSIG=
201207191550 METAR ESSA 191550Z 13008KT CAVOK 20/08 Q0999 NOSIG=
201207191520 METAR ESSA 191520Z 14008KT 110V170 CAVOK 21/07 Q0999 NOSIG=
201207191450 METAR ESSA 191450Z 10007KT 080V140 CAVOK 20/08 Q0999 NOSIG=
201207191420 METAR ESSA 191420Z 13007KT CAVOK 21/07 Q0999 NOSIG=
201207191350 METAR ESSA 191350Z 14009KT 110V180 CAVOK 20/07 Q0999 NOSIG=
201207191320 METAR ESSA 191320Z 11008KT 080V160 CAVOK 21/07 Q0999 NOSIG=
201207191250 METAR ESSA 191250Z 15008KT 110V180 CAVOK 21/07 Q0999 NOSIG=
201207191220 METAR ESSA 191220Z 13007KT 080V170 CAVOK 20/07 Q0999 NOSIG=
201207191150 METAR ESSA 191150Z 15008KT 110V170 CAVOK 21/09 Q1000 NOSIG=
201207191120 METAR ESSA 191120Z 15008KT 100V170 CAVOK 21/08 Q1000 NOSIG=
201207191050 METAR ESSA 191050Z 17009KT CAVOK 20/07 Q1000 NOSIG=
201207191020 METAR ESSA 191020Z 13007KT 090V180 9999 FEW045 SCT051 21/07
                        Q1000 NOSIG=
201207190950 METAR ESSA 190950Z 14007KT 9999 SCT045 20/09 Q1000 NOSIG=
201207190920 METAR ESSA 190920Z 13006KT 100V170 9999 FEW035 SCT045 19/09
                        Q1000 NOSIG=
201207190850 METAR ESSA 190850Z 13005KT 040V190 9999 SCT035 18/09 Q1001
                        NOSIG=
201207190820 METAR ESSA 190820Z 15005KT 080V190 9999 FEW028 19/10 Q1001
                        NOSIG=
201207190750 METAR ESSA 190750Z 15005KT 9999 FEW030 18/10 Q1001 NOSIG=
201207190720 METAR ESSA 190720Z 08004KT 040V130 CAVOK 18/11 Q1001 NOSIG=
201207190650 METAR ESSA 190650Z 10004KT 070V130 CAVOK 17/11 Q1001 NOSIG=
201207190620 METAR ESSA 190620Z 07003KT 040V120 CAVOK 17/12 Q1001 NOSIG=
201207190550 METAR ESSA 190550Z 00000KT 9999 VCFG NSC 15/13 Q1001 NOSIG=
201207190520 METAR ESSA 190520Z VRB01KT 9999 VCFG NSC 13/12 Q1001 NOSIG=
201207190450 METAR ESSA 190450Z 00000KT 9999 BCFG NSC 12/11 Q1001 BECMG
                        9999 NSW=
201207190420 METAR ESSA 190420Z 00000KT 3000 NSC 10/09 Q1001 BECMG 9999
                        NSW=
201207190350 METAR ESSA 190350Z 00000KT 3000 R01L/P1500N R19R/P1500N R01R/0300V0650N
                        R19L/0450VP1500N NSC 10/09 Q1001
                        BECMG 9999 NSW=
201207190320 METAR ESSA 190320Z 00000KT 3000 BCFG NSC 07/07 Q1001 TEMPO
                        2000 BCFG=
201207190250 METAR ESSA 190250Z 09002KT 9999 BCFG NSC 07/07 Q1001 NOSIG=
201207190220 METAR ESSA 190220Z 36002KT 9999 BCFG NSC 07/07 Q1001 NOSIG=
201207190150 METAR ESSA 190150Z 02001KT 9999 BCFG NSC 07/07 Q1001 NOSIG=
201207190120 METAR ESSA 190120Z VRB01KT 9999 VCFG NSC 08/08 Q1002 NOSIG=
201207190050 METAR ESSA 190050Z 00000KT 9999 VCFG NSC 08/08 Q1002 NOSIG=
201207190020 METAR ESSA 190020Z 24002KT 9999 MIFG NSC 09/08 Q1002 NOSIG=
201207182350 METAR ESSA 182350Z 21003KT 9999 MIFG NSC 09/08 Q1002 NOSIG=
201207182320 METAR ESSA 182320Z 06001KT CAVOK 09/08 Q1002 NOSIG=
201207182250 METAR ESSA 182250Z 03002KT CAVOK 10/09 Q1002 NOSIG=
201207182220 METAR ESSA 182220Z 35002KT 9999 VCFG NSC 10/10 Q1002 TEMPO
                        4000 MIFG=
201207182150 METAR ESSA 182150Z VRB01KT 9999 VCFG NSC 10/10 Q1002 TEMPO
                        4000 MIFG=
201207182120 METAR ESSA 182120Z 19003KT 9999 VCFG NSC 10/10 Q1002 TEMPO
                        4000 MIFG=
201207182050 METAR ESSA 182050Z 21002KT 9999 MIFG NSC 11/10 Q1002 TEMPO
                        4000 MIFG=
201207182020 METAR ESSA 182020Z 18002KT 9999 VCFG NSC 12/11 Q1003 NOSIG=
201207181950 METAR ESSA 181950Z 00000KT CAVOK 12/11 Q1003 NOSIG=
201207181920 METAR ESSA 181920Z VRB02KT CAVOK 14/12 Q1003 NOSIG=
201207181850 METAR ESSA 181850Z 08004KT CAVOK 16/11 Q1003 NOSIG=
201207181820 METAR ESSA 181820Z 06003KT CAVOK 16/12 Q1003 NOSIG=
201207181750 METAR ESSA 181750Z 03004KT 350V140 CAVOK 17/11 Q1002 NOSIG=
201207181720 METAR ESSA 181720Z 14003KT 100V170 CAVOK 18/11 Q1003 NOSIG=
201207181650 METAR ESSA 181650Z VRB02KT 9999 SCT080CB 18/10 Q1002 NOSIG=
201207181620 METAR ESSA 181620Z 21007KT 9999 VCSH SCT047 BKN070CB 15/11
                        Q1003 NOSIG=
201207181550 METAR ESSA 181550Z 22010KT 9999 -SHRA SCT047 BKN060CB 15/11
                        Q1003 TEMPO SHRA=
201207181520 METAR ESSA 181520Z 27007KT 9000 -SHRA SCT035 15/12 Q1003
                        TEMPO SHRA=
201207181450 METAR ESSA 181450Z 34007KT 9000 -SHRA SCT035 16/13 Q1003
                        TEMPO SHRA=
201207181420 METAR ESSA 181420Z 31004KT 260V350 9999 SCT035 19/11 Q1003
                        NOSIG=
201207181350 METAR ESSA 181350Z 29005KT 230V330 9999 FEW035 19/11 Q1003
                        NOSIG=
201207181320 METAR ESSA 181320Z 29005KT 240V330 CAVOK 18/12 Q1003 NOSIG=
201207181250 METAR ESSA 181250Z 25006KT 220V290 9999 FEW027 18/12 Q1003
                        NOSIG=
201207181220 METAR ESSA 181220Z 26009KT CAVOK 18/12 Q1003 NOSIG=
201207181150 METAR ESSA 181150Z 25010KT 9999 SCT040 17/12 Q1004 NOSIG=
201207181120 METAR ESSA 181120Z 24010KT 9999 SCT035 SCT040 16/12 Q1004
                        TEMPO SHRA=
201207181050 METAR ESSA 181050Z 21009KT 180V250 9999 SCT035 SCT040 17/13
                        Q1004 TEMPO SHRA=
201207181020 METAR ESSA 181020Z 21008KT 9999 SCT035 SCT040 17/12 Q1004
                        NOSIG=
201207180950 METAR ESSA 180950Z 15005KT 090V180 9999 FEW030 SCT035 19/10
                        Q1003 NOSIG=
201207180920 METAR ESSA 180920Z 14005KT 100V240 9999 SCT030 19/11 Q1004
                        NOSIG=
201207180850 METAR ESSA 180850Z 11006KT 080V150 9999 SCT030 18/11 Q1004
                        NOSIG=
201207180820 METAR ESSA 180820Z 13006KT 9999 FEW025 18/12 Q1004 NOSIG=
201207180750 METAR ESSA 180750Z 12006KT CAVOK 17/12 Q1004 NOSIG=
201207180720 METAR ESSA 180720Z 13005KT CAVOK 17/11 Q1004 NOSIG=
201207180650 METAR ESSA 180650Z 12004KT 070V150 CAVOK 16/12 Q1004 NOSIG=
201207180620 METAR ESSA 180620Z 12002KT CAVOK 15/13 Q1004 NOSIG=
201207180550 METAR ESSA 180550Z 11003KT CAVOK 14/12 Q1004 NOSIG=
201207180520 METAR ESSA 180520Z VRB02KT CAVOK 13/12 Q1004 NOSIG=
201207180450 METAR ESSA 180450Z VRB02KT CAVOK 12/11 Q1004 NOSIG=
201207180420 METAR ESSA 180420Z VRB02KT CAVOK 12/11 Q1004 NOSIG=
201207180350 METAR ESSA 180350Z 16003KT 9999 BCFG NSC 11/10 Q1004 NOSIG=
201207180320 METAR ESSA 180320Z 18001KT 9999 BCFG NSC 09/08 Q1004 NOSIG=
201207180250 METAR ESSA 180250Z 00000KT 9999 BCFG NSC 08/08 Q1004 NOSIG=
201207180220 METAR ESSA 180220Z 05001KT 9999 BCFG NSC 08/07 Q1004 NOSIG=
201207180150 METAR ESSA 180150Z 06001KT 9999 BCFG NSC 08/07 Q1005 NOSIG=
201207180120 METAR ESSA 180120Z 20002KT 9999 BCFG NSC 08/08 Q1005 NOSIG=
201207180050 METAR ESSA 180050Z 18002KT 9999 BCFG NSC 09/09 Q1005 NOSIG=
201207180020 METAR ESSA 180020Z 17002KT 9999 BCFG NSC 08/07 Q1005 NOSIG=
201207172350 METAR ESSA 172350Z 14001KT 9999 MIFG NSC 09/09 Q1005 NOSIG=
201207172320 METAR ESSA 172320Z 15001KT 9999 MIFG NSC 08/08 Q1005 NOSIG=
201207172250 METAR ESSA 172250Z 14001KT 9999 MIFG NSC 10/09 Q1006 NOSIG=
201207172220 METAR ESSA 172220Z VRB02KT 9999 MIFG NSC 11/10 Q1006 NOSIG=
201207172150 METAR ESSA 172150Z 07001KT 9999 MIFG NSC 11/09 Q1005 NOSIG=
201207172120 METAR ESSA 172120Z 18003KT 9999 MIFG NSC 11/10 Q1006 NOSIG=
201207172050 METAR ESSA 172050Z VRB02KT 9999 MIFG NSC 11/10 Q1006 NOSIG=
201207172020 METAR ESSA 172020Z 19003KT 9999 MIFG FEW080 11/10 Q1006 NOSIG=
201207171950 METAR ESSA 171950Z 18002KT CAVOK 12/11 Q1006 NOSIG=
201207171920 METAR ESSA 171920Z VRB01KT CAVOK 14/12 Q1006 NOSIG=
201207171850 METAR ESSA 171850Z 15002KT CAVOK 13/12 Q1006 NOSIG=
201207171820 METAR ESSA 171820Z VRB02KT CAVOK 14/11 Q1005 NOSIG=
201207171750 METAR ESSA 171750Z VRB02KT CAVOK 15/12 Q1006 NOSIG=
201207171720 METAR ESSA 171720Z 20003KT CAVOK 16/10 Q1006 NOSIG=
201207171650 METAR ESSA 171650Z 23004KT 9999 FEW030 SCT070 17/11 Q1006
                        NOSIG=
201207171620 METAR ESSA 171620Z 21005KT 190V250 9999 FEW030 SCT070 16/10
                        Q1006 NOSIG=
201207171550 METAR ESSA 171550Z 23006KT 9999 -SHRA FEW030CB BKN070 16/12
                        Q1006 TEMPO SHRA SCT030CB=
201207171520 METAR ESSA 171520Z 18006KT 9999 FEW030 BKN070 16/10 Q1006
                        TEMPO SHRA SCT030CB=
201207171450 METAR ESSA 171450Z 14004KT 9999 FEW030 BKN075 16/10 Q1006
                        TEMPO SHRA SCT030CB=
201207171420 METAR ESSA 171420Z 19006KT 150V240 9999 FEW030 BKN070 15/11
                        Q1006 TEMPO SHRA SCT030CB=
201207171350 METAR ESSA 171350Z 20006KT 9999 FEW030 BKN070 15/12 Q1006
                        TEMPO SHRA SCT030CB=
201207171320 METAR ESSA 171320Z 21005KT 9999 FEW030 BKN070 15/12 Q1006
                        NOSIG=
201207171250 METAR ESSA 171250Z VRB05KT 9999 SCT030 15/12 Q1006 NOSIG=
201207171220 METAR ESSA 171220Z 16006KT 9999 BKN030 16/12 Q1006 NOSIG=
201207171150 METAR ESSA 171150Z 05008KT 020V080 9000 -SHRA BKN030 SCT030CB
                        16/11 Q1005 TEMPO TSRA=
201207171120 METAR COR ESSA 171120Z 02010KT 9000 -SHRA BKN030 SCT030CB
                        16/09 Q1005 TEMPO TSRA=
201207171050 METAR ESSA 171050Z 01016KT 9999 SCT030 SCT060 17/10 Q1005
                        TEMPO SHRA SCT030CB=
201207171020 METAR ESSA 171020Z 28007KT 9999 SCT025 18/09 Q1005 NOSIG=
201207170950 METAR ESSA 170950Z 29006KT 210V350 9999 SCT025 18/11 Q1005
                        NOSIG=
201207170920 METAR ESSA 170920Z 31005KT 270V350 9999 SCT025 18/11 Q1005
                        NOSIG=
201207170850 METAR ESSA 170850Z 28005KT 9999 SCT023 17/12 Q1005 NOSIG=
201207170820 METAR ESSA 170820Z 28004KT 230V340 9999 SCT020 17/11 Q1005
                        NOSIG=
201207170750 METAR ESSA 170750Z 32005KT 240V350 9999 SCT020 16/11 Q1005
                        NOSIG=
201207170720 METAR ESSA 170720Z 33006KT 9999 FEW017 15/11 Q1005 NOSIG=
201207170650 METAR ESSA 170650Z 29006KT 250V320 9999 FEW015 15/11 Q1005
                        NOSIG=
201207170620 METAR ESSA 170620Z 26007KT 9999 FEW010 14/11 Q1005 NOSIG=
201207170550 METAR ESSA 170550Z 26007KT 9999 FEW010 14/11 Q1005 NOSIG=
201207170520 METAR ESSA 170520Z 25008KT 9999 FEW010 14/11 Q1005 NOSIG=
201207170450 METAR ESSA 170450Z 25006KT CAVOK 13/11 Q1005 NOSIG=
201207170420 METAR ESSA 170420Z 25006KT CAVOK 12/10 Q1004 NOSIG=
201207170350 METAR ESSA 170350Z 25006KT CAVOK 12/10 Q1004 NOSIG=
201207170320 METAR ESSA 170320Z 25006KT CAVOK 11/10 Q1004 NOSIG=
201207170250 METAR ESSA 170250Z 23005KT CAVOK 11/09 Q1004 NOSIG=
201207170220 METAR ESSA 170220Z 20005KT CAVOK 11/09 Q1004 NOSIG=
201207170150 METAR ESSA 170150Z 25005KT CAVOK 11/10 Q1004 NOSIG=
201207170120 METAR ESSA 170120Z 25006KT CAVOK 11/09 Q1004 NOSIG=
201207170050 METAR ESSA 170050Z 23007KT CAVOK 12/10 Q1004 NOSIG=
201207170020 METAR ESSA 170020Z 25007KT CAVOK 12/10 Q1004 NOSIG=
201207162350 METAR ESSA 162350Z 25006KT CAVOK 12/10 Q1004 NOSIG=
201207162320 METAR ESSA 162320Z 25008KT CAVOK 12/10 Q1004 NOSIG=
201207162250 METAR ESSA 162250Z 24007KT CAVOK 12/10 Q1004 NOSIG=
201207162220 METAR ESSA 162220Z 25008KT CAVOK 13/10 Q1004 NOSIG=
201207162150 METAR ESSA 162150Z 25006KT CAVOK 13/11 Q1004 NOSIG=
201207162120 METAR ESSA 162120Z 26004KT CAVOK 13/11 Q1004 NOSIG=
201207162050 METAR ESSA 162050Z 26004KT CAVOK 13/12 Q1004 NOSIG=
201207162020 METAR ESSA 162020Z 22005KT CAVOK 14/11 Q1004 NOSIG=
201207161950 METAR ESSA 161950Z 26004KT 9999 -SHRA FEW045CB BKN070 14/11
                        Q1005 TEMPO SHRA=
201207161920 METAR COR ESSA 161920Z 31006KT 9999 VCSH NSC 14/11 Q1004
                        TEMPO SHRA=
201207161850 METAR ESSA 161850Z 33008KT CAVOK 15/11 Q1004 NOSIG=
201207161820 METAR ESSA 161820Z 33009KT 9999 VCSH NSC 17/10 Q1004 NOSIG=
201207161750 METAR ESSA 161750Z 25006KT 220V300 9999 VCSH NSC 18/10 Q1003
                        NOSIG=
201207161720 METAR ESSA 161720Z 26010KT CAVOK 19/08 Q1003 NOSIG=
201207161650 METAR ESSA 161650Z 25012KT CAVOK 20/09 Q1003 NOSIG=
201207161620 METAR ESSA 161620Z 23009KT CAVOK 20/11 Q1003 NOSIG=
201207161550 METAR ESSA 161550Z 27007KT 220V330 9999 SCT047 19/11 Q1003
                        NOSIG=
201207161520 METAR ESSA 161520Z 27004KT 220V340 CAVOK 20/11 Q1003 NOSIG=
201207161450 METAR ESSA 161450Z VRB03KT CAVOK 20/11 Q1003 NOSIG=
201207161420 METAR ESSA 161420Z 34007KT CAVOK 18/11 Q1003 NOSIG=
201207161350 METAR ESSA 161350Z 36009KT CAVOK 18/11 Q1003 TEMPO SHRA=
201207161320 METAR ESSA 161320Z 25015KT 9999 FEW049TCU SCT049 20/09 Q1003
                        TEMPO SHRA=
201207161250 METAR ESSA 161250Z 25016KT 9999 FEW048 21/08 Q1003 TEMPO
                        SHRA=
201207161220 METAR ESSA 161220Z 24017KT 9999 SCT043 20/08 Q1003 TEMPO
                        SHRA=
201207161150 METAR ESSA 161150Z 25017KT 9999 SCT041 21/10 Q1003 NOSIG=
201207161120 METAR ESSA 161120Z 25016KT 9999 SCT040 20/11 Q1002 NOSIG=
201207161050 METAR ESSA 161050Z 24017KT 9999 SCT038 20/11 Q1002 NOSIG=
201207161020 METAR ESSA 161020Z 25015KT 9999 SCT035 19/11 Q1002 NOSIG=
201207160950 METAR ESSA 160950Z 25015KT 9999 SCT032 18/12 Q1002 NOSIG=
201207160920 METAR ESSA 160920Z 26014KT 9999 SCT030 18/12 Q1002 NOSIG=
201207160850 METAR ESSA 160850Z 24014KT 9999 SCT028 18/12 Q1002 NOSIG=
201207160820 METAR ESSA 160820Z 25016KT 9999 SCT025 18/12 Q1002 NOSIG=
201207160750 METAR ESSA 160750Z 25014KT 9999 SCT023 17/12 Q1002 NOSIG=
201207160720 METAR ESSA 160720Z 25015KT 9999 SCT020 17/12 Q1002 NOSIG=
201207160650 METAR ESSA 160650Z 23011KT 9999 SCT018 16/12 Q1002 NOSIG=
201207160620 METAR ESSA 160620Z 26012KT 9999 SCT015 16/12 Q1001 NOSIG=
201207160550 METAR ESSA 160550Z 25013KT 9999 SCT014 SCT085 15/12 Q1001
                        NOSIG=
201207160520 METAR ESSA 160520Z 26013KT 9999 SCT014 SCT085 15/12 Q1001
                        NOSIG=
201207160450 METAR ESSA 160450Z 25012KT 9999 FEW014 15/13 Q1001 NOSIG=
201207160420 METAR ESSA 160420Z 25011KT CAVOK 15/12 Q1001 NOSIG=
201207160350 METAR ESSA 160350Z 26010KT CAVOK 14/12 Q1001 NOSIG=
201207160320 METAR ESSA 160320Z 25009KT CAVOK 13/12 Q1001 NOSIG=
201207160250 METAR ESSA 160250Z 25008KT CAVOK 13/12 Q1000 NOSIG=
201207160220 METAR ESSA 160220Z 25008KT CAVOK 13/11 Q1000 NOSIG=
201207160150 METAR COR ESSA 160150Z 26008KT CAVOK 13/12 Q1000 NOSIG=
201207160120 METAR ESSA 160120Z 25008KT CAVOK 13/12 Q1000 NOSIG=
201207160050 METAR ESSA 160050Z 26008KT CAVOK 14/12 Q1000 NOSIG=
201207160020 METAR ESSA 160020Z 26008KT CAVOK 14/12 Q1000 NOSIG=
201207152350 METAR ESSA 152350Z 26007KT CAVOK 14/12 Q1000 NOSIG=
201207152320 METAR ESSA 152320Z 26009KT CAVOK 14/12 Q1000 NOSIG=
201207152250 METAR ESSA 152250Z 26007KT CAVOK 14/12 Q1000 NOSIG=
201207152220 METAR ESSA 152220Z 26008KT CAVOK 14/12 Q1000 NOSIG=
201207152150 METAR ESSA 152150Z 26009KT CAVOK 15/13 Q1000 NOSIG=
201207152120 METAR ESSA 152120Z 26007KT 9999 SCT033 BKN048 15/14 Q1000
                        NOSIG=
201207152050 METAR ESSA 152050Z 25006KT 9999 SCT036 BKN045 15/14 Q1000
                        NOSIG=
201207152020 METAR ESSA 152020Z 25006KT 9999 BKN046 15/14 Q1000 NOSIG=
201207151950 METAR ESSA 151950Z 25007KT 9999 BKN047 15/14 Q0999 NOSIG=
201207151920 METAR ESSA 151920Z 27006KT 9999 FEW028 SCT034 BKN040 16/15
                        Q0999 NOSIG=
201207151850 METAR ESSA 151850Z 25008KT 9999 FEW017 SCT025 BKN035 16/15
                        Q0999 NOSIG=
201207151820 METAR ESSA 151820Z 27006KT 9999 -RA FEW026 SCT035 BKN070
                        16/15 Q0999 NOSIG=
201207151750 METAR ESSA 151750Z 26005KT 9999 -RA SCT030 BKN043 16/15 Q0999
                        REDZ NOSIG=
201207151720 METAR ESSA 151720Z 26006KT 9999 FEW029 SCT035 16/15 Q0999
                        NOSIG=
201207151650 METAR ESSA 151650Z 25005KT CAVOK 16/15 Q0999 NOSIG=
201207151620 METAR ESSA 151620Z 25006KT CAVOK 16/14 Q0999 TEMPO SHRA=
201207151550 METAR ESSA 151550Z 26006KT 9999 -RA FEW040 16/15 Q0998 TEMPO
                        SHRA=
201207151520 METAR ESSA 151520Z 25009KT 9999 -SHRA SCT036 SCT050CB BKN070
                        16/15 Q0998 RERA TEMPO 4000 SHRA=
201207151450 METAR COR ESSA 151450Z 26007KT 9999 -SHRA SCT040 SCT050CB
                        BKN070 16/15 Q0998 TEMPO 4000 SHRA=
201207151420 METAR ESSA 151420Z 25008KT 9999 -SHRA SCT020 SCT035CB BKN064
                        16/14 Q0998 NOSIG=
201207151350 METAR ESSA 151350Z 25008KT 9999 -SHRA SCT017 SCT030CB BKN068
                        17/15 Q0998 NOSIG=
201207151320 METAR ESSA 151320Z 26007KT 9999 5000S -SHRA SCT020 SCT030CB
                        BKN150 17/15 Q0997 NOSIG=
201207151250 METAR ESSA 151250Z 29007KT 9999 SCT015 SCT030 BKN140 18/14
                        Q0997 NOSIG=
201207151220 METAR ESSA 151220Z 29008KT 9999 BKN015 17/14 Q0997 TEMPO
                        BKN012=
201207151150 METAR ESSA 151150Z 29008KT 9999 BKN012 17/15 Q0997 BECMG
                        BKN015=
201207151120 METAR ESSA 151120Z 29008KT 9999 -RA BKN012 17/15 Q0997 BECMG
                        BKN015=
201207151050 METAR ESSA 151050Z 28008KT 9999 -RA BKN010 16/15 Q0997 BECMG
                        BKN015=
201207151020 METAR ESSA 151020Z 31008KT 9999 -RA BKN009 16/15 Q0997 BECMG
                        BKN010=
201207150950 METAR ESSA 150950Z 29009KT 9999 -RA BKN009 16/15 Q0997 BECMG
                        BKN010=
201207150920 METAR ESSA 150920Z 30009KT 9999 -RA BKN007 16/15 Q0997 BECMG
                        SCT008=
201207150850 METAR ESSA 150850Z 31008KT 9999 -RA BKN008 16/15 Q0996 BECMG
                        SCT008=
201207150820 METAR ESSA 150820Z 32008KT 9999 -DZ BKN008 16/15 Q0996 TEMPO
                        SCT008=
201207150750 METAR ESSA 150750Z 33008KT 9999 -DZ BKN008 16/15 Q0996 TEMPO
                        SCT008=
201207150720 METAR COR ESSA 150720Z 33007KT 9999 -DZ SCT008 BKN074 16/15
                        Q0996 TEMPO BKN008=
201207150650 METAR ESSA 150650Z 34008KT 9999 -DZ BKN008 16/15 Q0996 BECMG
                        BKN010=
201207150620 METAR ESSA 150620Z 34008KT 9999 -DZ SCT007 BKN015 16/15 Q0996
                        TEMPO BKN010=
201207150550 METAR ESSA 150550Z 34005KT 9999 FEW007 SCT015 BKN070 15/15
                        Q0996 NOSIG=
201207150520 METAR ESSA 150520Z 35006KT 9000 -RA SCT005 SCT016 BKN035
                        15/14 Q0996 BECMG BKN005=
201207150450 METAR ESSA 150450Z 01006KT 9000 -RA BKN004 BKN016 15/14 Q0996
                        BECMG BKN005=
201207150420 METAR COR ESSA 150420Z 02006KT 6000 -RA BR BKN004 15/15 Q0996
                        BECMG BKN005=
201207150350 METAR COR ESSA 150350Z 02006KT 5000 -RA BR BKN004 15/14 Q0996
                        NOSIG=
201207150320 METAR ESSA 150320Z 36005KT 4500 -RA SCT012 BKN065 15/14 Q0996
                        TEMPO BKN007=
201207150250 METAR COR ESSA 150250Z 04004KT 4500 -RA BR FEW010 BKN060
                        15/14 Q0996 TEMPO BKN007=
201207150220 METAR ESSA 150220Z 06005KT 6000 -RA BR NSC 15/14 Q0996 TEMPO
                        4000 BKN007=
201207150150 METAR ESSA 150150Z 06005KT 7000 -RA NSC 15/14 Q0997 BECMG
                        BKN007=
201207150120 METAR ESSA 150120Z 06004KT 9000 -RA FEW041 BKN070 15/14 Q0997
                        BECMG BKN007=
201207150050 METAR ESSA 150050Z 07004KT 8000 BR NSC 15/14 Q0997 NOSIG=
201207150020 METAR ESSA 150020Z 08005KT 8000 BR FEW007 BKN070 15/14 Q0997
                        NOSIG=
201207142350 METAR ESSA 142350Z 06004KT 9999 BKN040 BKN053 15/15 Q0998
                        NOSIG=
201207142320 METAR ESSA 142320Z 10004KT 7000 -SHRA FEW005 SCT030CB BKN045
                        15/15 Q0998 NOSIG=
201207142250 METAR ESSA 142250Z 10006KT 7000 SHRA FEW007 SCT030CB BKN055
                        15/15 Q0998 BECMG -SHRA=
201207142220 METAR COR ESSA 142220Z 09006KT 9999 -SHRA FEW020 SCT25CB
                        BKN075 15/14 Q0998 NOSIG=
201207142150 METAR ESSA 142150Z 08005KT 9999 FEW025 BKN078 15/14 Q0998
                        NOSIG=
201207142120 METAR ESSA 142120Z 08005KT 9999 FEW015 SCT050 BKN075 15/14
                        Q0999 NOSIG=
201207142050 METAR ESSA 142050Z 10005KT 9999 -SHRA FEW020 FEW035CB BKN050
                        15/14 Q0999 NOSIG=
201207142020 METAR ESSA 142020Z 08005KT 9999 -SHRA FEW018 FEW025CB BKN045
                        15/14 Q0999 NOSIG=
201207141950 METAR COR ESSA 141950Z 12007KT 9999 -SHRA SCT016 SCT030CB
                        BKN043 16/14 Q0999 NOSIG=
201207141920 METAR ESSA 141920Z 13007KT 9999 VCSH SCT040 BKN050 BKN088
                        16/14 Q0999 NOSIG=
201207141850 METAR ESSA 141850Z 13009KT 9999 FEW015 SCT035 BKN060 17/14
                        Q0999 NOSIG=
201207141820 METAR ESSA 141820Z 13009KT 090V160 9999 VCSH SCT016 SCT040
                        BKN080 17/13 Q0999 NOSIG=
201207141750 METAR ESSA 141750Z 12008KT 9999 FEW032 BKN086 17/14 Q1000
                        NOSIG=
201207141720 METAR ESSA 141720Z 12006KT CAVOK 17/13 Q1000 NOSIG=
201207141650 METAR ESSA 141650Z 13010KT 9999 FEW015 SCT045 BKN055 17/14
                        Q1000 NOSIG=
201207141620 METAR ESSA 141620Z 13009KT 9999 -SHRA FEW018 FEW035CB BKN060
                        17/13 Q1000 NOSIG=
201207141550 METAR ESSA 141550Z 12010KT 9999 FEW017 BKN055 BKN100 17/13
                        Q1000 NOSIG=
201207141520 METAR ESSA 141520Z 13011KT 9999 FEW034TCU BKN045 17/13 Q1000
                        NOSIG=
201207141450 METAR ESSA 141450Z 14010KT 9999 FEW026TCU SCT030 BKN045 18/12
                        Q1000 NOSIG=
201207141420 METAR ESSA 141420Z 14011KT 9999 FEW026TCU SCT034 BKN045 18/12
                        Q1000 NOSIG=
201207141350 METAR ESSA 141350Z 14011KT 9999 FEW026TCU SCT032 BKN045 19/12
                        Q1000 NOSIG=
201207141320 METAR ESSA 141320Z 13011KT 9999 FEW028 SCT031 BKN045 19/11
                        Q1000 NOSIG=
201207141250 METAR ESSA 141250Z 14011KT 9999 FEW031 19/11 Q1000 NOSIG=
201207141220 METAR ESSA 141220Z 16012KT 9999 FEW050 19/11 Q1001 NOSIG=
201207141150 METAR ESSA 141150Z 16013KT 9999 FEW035 19/10 Q1001 NOSIG=
201207141120 METAR ESSA 141120Z 17012KT 9999 FEW035 20/10 Q1001 NOSIG=
201207141050 METAR ESSA 141050Z 16012KT 9999 FEW035 20/10 Q1001 NOSIG=
201207141020 METAR ESSA 141020Z 18014KT 9999 FEW040 20/09 Q1001 NOSIG=
201207140950 METAR ESSA 140950Z 16012KT 9999 FEW045 20/09 Q1001 NOSIG=
201207140920 METAR ESSA 140920Z 18010KT 150V220 9999 FEW040 19/10 Q1001
                        NOSIG=
201207140850 METAR ESSA 140850Z 16010KT 9999 FEW038 19/10 Q1001 NOSIG=
201207140820 METAR ESSA 140820Z 20009KT 9999 FEW036 19/10 Q1001 NOSIG=
201207140750 METAR ESSA 140750Z 20007KT 170V240 9999 FEW034 18/10 Q1001
                        NOSIG=
201207140720 METAR ESSA 140720Z 21009KT 180V240 CAVOK 18/10 Q1002 NOSIG=
201207140650 METAR ESSA 140650Z 21009KT CAVOK 17/10 Q1002 NOSIG=
201207140620 METAR ESSA 140620Z 20007KT CAVOK 17/11 Q1002 NOSIG=
201207140550 METAR ESSA 140550Z 21008KT CAVOK 16/11 Q1002 NOSIG=
201207140520 METAR ESSA 140520Z 18008KT CAVOK 15/12 Q1002 NOSIG=
201207140450 METAR ESSA 140450Z 18008KT CAVOK 14/12 Q1002 NOSIG=
201207140420 METAR ESSA 140420Z 18006KT CAVOK 14/12 Q1002 NOSIG=
201207140350 METAR ESSA 140350Z 18006KT CAVOK 13/12 Q1001 NOSIG=
201207140320 METAR ESSA 140320Z 17006KT CAVOK 13/12 Q1001 NOSIG=
201207140250 METAR ESSA 140250Z 16005KT CAVOK 13/12 Q1001 NOSIG=
201207140220 METAR ESSA 140220Z 17008KT CAVOK 13/12 Q1001 NOSIG=
201207140150 METAR ESSA 140150Z 19007KT CAVOK 12/11 Q1001 NOSIG=
201207140120 METAR ESSA 140120Z 17007KT CAVOK 12/11 Q1001 NOSIG=
201207140050 METAR ESSA 140050Z 18007KT CAVOK 12/11 Q1001 NOSIG=
201207140020 METAR ESSA 140020Z 18005KT CAVOK 13/11 Q1001 NOSIG=
201207132350 METAR ESSA 132350Z 18006KT CAVOK 13/12 Q1001 NOSIG=
201207132320 METAR ESSA 132320Z 20007KT CAVOK 13/11 Q1001 NOSIG=
201207132250 METAR ESSA 132250Z 19006KT CAVOK 13/11 Q1002 NOSIG=
201207132220 METAR ESSA 132220Z 19006KT CAVOK 14/12 Q1002 NOSIG=
201207132150 METAR ESSA 132150Z 19008KT CAVOK 15/12 Q1001 NOSIG=
201207132120 METAR ESSA 132120Z 21007KT CAVOK 15/12 Q1001 NOSIG=
201207132050 METAR ESSA 132050Z 21006KT 9999 FEW032 SCT090 15/11 Q1001
                        NOSIG=
201207132020 METAR ESSA 132020Z 19007KT CAVOK 16/11 Q1001 NOSIG=
201207131950 METAR ESSA 131950Z 20009KT CAVOK 16/11 Q1001 NOSIG=
201207131920 METAR ESSA 131920Z 18008KT CAVOK 16/12 Q1001 NOSIG=
201207131850 METAR ESSA 131850Z 18007KT CAVOK 17/13 Q1001 NOSIG=
201207131820 METAR ESSA 131820Z 19009KT CAVOK 17/12 Q1001 NOSIG=
201207131750 METAR ESSA 131750Z 19010KT CAVOK 17/13 Q1000 NOSIG=
201207131720 METAR ESSA 131720Z 17009KT 9999 FEW040 SCT060 18/13 Q1000
                        NOSIG=
201207131650 METAR ESSA 131650Z 15006KT 2500 FEW030 SCT040 18/13 Q1000
                        NOSIG=
201207131620 METAR ESSA 131620Z 18007KT 9999 -SHRA FEW033CB SCT090 19/12
                        Q1000 NOSIG=
201207131550 METAR ESSA 131550Z 18008KT CAVOK 19/12 Q1001 NOSIG=
201207131520 METAR ESSA 131520Z 18008KT CAVOK 17/12 Q1001 NOSIG=
201207131450 METAR ESSA 131450Z 17007KT CAVOK 17/11 Q1001 NOSIG=
201207131420 METAR ESSA 131420Z 20007KT CAVOK 17/12 Q1001 NOSIG=
201207131350 METAR ESSA 131350Z 19009KT 9999 -SHRA BKN070CB 16/12 Q1001
                        TEMPO SHRA=
201207131320 METAR ESSA 131320Z 21012KT 9999 VCSH FEW037 BKN085CB 18/12
                        Q1001 TEMPO SHRA=
201207131250 METAR ESSA 131250Z 22012KT 9999 FEW037CB 19/11 Q1001 TEMPO
                        SHRA=
201207131220 METAR ESSA 131220Z 21010KT CAVOK 18/13 Q1001 NOSIG=
201207131150 METAR ESSA 131150Z 18008KT CAVOK 15/13 Q1001 NOSIG=
201207131120 METAR ESSA 131120Z 19007KT 9999 -SHRA BKN066CB 14/12 Q1001
                        TEMPO SHRA=
201207131050 METAR ESSA 131050Z 22012KT 9999 -SHRA VCTS FEW040 BKN072CB
                        16/11 Q1001 TEMPO SHRA=
201207131020 METAR ESSA 131020Z 24015KT 9999 VCSH SCT040 BKN090CB 18/11
                        Q1001 TEMPO SHRA=
201207130950 METAR ESSA 130950Z 22010KT 190V260 9999 SCT040 SCT045CB 20/10
                        Q1001 TEMPO SHRA=
201207130920 METAR ESSA 130920Z 18009KT 150V210 9999 SCT035 FEW040TCU
                        19/11 Q1001 TEMPO SHRA SCT030CB=
201207130850 METAR ESSA 130850Z 17007KT 130V190 9999 SCT030 FEW035TCU
                        18/12 Q1001 NOSIG=
201207130820 METAR ESSA 130820Z 19006KT 9999 SCT020 17/12 Q1001 NOSIG=
201207130750 METAR ESSA 130750Z 24006KT CAVOK 17/13 Q1001 NOSIG=
201207130720 METAR ESSA 130720Z 24006KT CAVOK 16/13 Q1001 NOSIG=
201207130650 METAR ESSA 130650Z 21006KT CAVOK 15/13 Q1001 NOSIG=
201207130620 METAR ESSA 130620Z 22006KT CAVOK 15/13 Q1001 NOSIG=
201207130550 METAR ESSA 130550Z 21005KT CAVOK 15/13 Q1001 NOSIG=
201207130520 METAR ESSA 130520Z 24006KT 200V270 CAVOK 14/13 Q1001 NOSIG=
201207130450 METAR ESSA 130450Z 17004KT CAVOK 14/13 Q1001 NOSIG=
201207130420 METAR ESSA 130420Z 22005KT CAVOK 13/12 Q1001 NOSIG=
201207130350 METAR ESSA 130350Z 26003KT CAVOK 13/12 Q1001 NOSIG=
201207130320 METAR ESSA 130320Z 21002KT CAVOK 13/12 Q1001 NOSIG=
201207130250 METAR ESSA 130250Z 19002KT 9999 VCFG NSC 12/12 Q1001 NOSIG=
201207130220 METAR ESSA 130220Z 25002KT 9999 VCFG NSC 12/12 Q1001 NOSIG=
201207130150 METAR ESSA 130150Z 22004KT 9999 VCFG NSC 12/12 Q1002 NOSIG=
201207130120 METAR ESSA 130120Z 20003KT 9999 VCFG NSC 12/11 Q1002 NOSIG=
201207130050 METAR ESSA 130050Z 18003KT 9999 VCFG NSC 13/12 Q1002 NOSIG=
201207130020 METAR ESSA 130020Z 16004KT 9999 VCFG NSC 13/12 Q1002 NOSIG=
201207122350 METAR ESSA 122350Z 22004KT 9999 VCFG NSC 13/12 Q1002 NOSIG=
201207122320 METAR ESSA 122320Z 15004KT 9999 VCFG NSC 13/12 Q1002 NOSIG=
201207122250 METAR ESSA 122250Z 16004KT 9999 VCFG NSC 13/12 Q1002 NOSIG=
201207122220 METAR ESSA 122220Z 13002KT CAVOK 14/12 Q1003 NOSIG=
201207122150 METAR ESSA 122150Z 15005KT CAVOK 14/12 Q1003 NOSIG=
201207122120 METAR ESSA 122120Z 17005KT CAVOK 15/12 Q1003 NOSIG=
201207122050 METAR ESSA 122050Z 16005KT CAVOK 15/12 Q1003 NOSIG=
201207122020 METAR ESSA 122020Z 19005KT CAVOK 15/12 Q1003 NOSIG=
201207121950 METAR ESSA 121950Z 18004KT CAVOK 16/12 Q1003 NOSIG=
201207121920 METAR ESSA 121920Z 21005KT CAVOK 16/11 Q1003 NOSIG=
201207121850 METAR ESSA 121850Z 19007KT CAVOK 18/11 Q1003 NOSIG=
201207121820 METAR ESSA 121820Z 19008KT CAVOK 18/11 Q1003 NOSIG=
201207121750 METAR ESSA 121750Z 20009KT 9999 FEW040TCU 18/10 Q1003 NOSIG=
201207121720 METAR ESSA 121720Z 19009KT 9999 FEW040TCU 18/10 Q1003 NOSIG=
201207121650 METAR ESSA 121650Z 21010KT CAVOK 18/11 Q1003 NOSIG=
201207121620 METAR ESSA 121620Z 21011KT CAVOK 19/11 Q1003 NOSIG=
201207121550 METAR ESSA 121550Z 22012KT 9999 VCSH FEW045TCU SCT080 18/11
                        Q1003 NOSIG=
201207121520 METAR ESSA 121520Z 21016KT 9999 TS VCSH SCT028 SCT045TCU
                        18/12 Q1003 TEMPO SHRA=
201207121450 METAR ESSA 121450Z 17011KT 9999 FEW035 SCT045TCU 21/12 Q1002
                        TEMPO SHRA=
201207121420 METAR ESSA 121420Z 19014KT 9999 SCT045 21/11 Q1002 TEMPO
                        SHRA=
201207121350 METAR ESSA 121350Z 17013KT 9999 FEW047 21/11 Q1002 NOSIG=
201207121320 METAR ESSA 121320Z 20013KT 9999 FEW047 22/11 Q1002 NOSIG=
201207121250 METAR ESSA 121250Z 18016KT 9999 SCT045 22/10 Q1003 NOSIG=
201207121220 METAR ESSA 121220Z 23010KT 9999 SCT040 20/13 Q1003 NOSIG=
201207121150 METAR ESSA 121150Z 20010KT 9999 SCT040 21/12 Q1003 NOSIG=
201207121120 METAR ESSA 121120Z 21011KT 9999 SCT040 20/12 Q1003 NOSIG=
201207121050 METAR ESSA 121050Z 21010KT 9999 SCT035 20/12 Q1003 NOSIG=
201207121020 METAR ESSA 121020Z 19010KT 9999 SCT033 21/12 Q1003 NOSIG=
201207120950 METAR ESSA 120950Z 21010KT 170V240 9999 SCT030 20/12 Q1003
                        NOSIG=
201207120920 METAR ESSA 120920Z 18010KT 9999 SCT025 20/12 Q1003 NOSIG=
201207120850 METAR ESSA 120850Z 18009KT 9999 SCT024 19/13 Q1003 NOSIG=
201207120820 METAR ESSA 120820Z 19007KT 9999 SCT020 19/14 Q1003 NOSIG=
201207120750 METAR ESSA 120750Z 18009KT 9999 SCT020 18/14 Q1003 NOSIG=
201207120720 METAR ESSA 120720Z 17009KT 9999 SCT015 19/15 Q1003 NOSIG=
201207120650 METAR ESSA 120650Z 22009KT 9999 SCT012 18/15 Q1003 NOSIG=
201207120620 METAR ESSA 120620Z 19008KT 9999 BKN010 17/15 Q1003 BECMG
                        SCT015=
201207120550 METAR ESSA 120550Z 16007KT 8000 BR BKN006 17/15 Q1003 BECMG
                        SCT005=
201207120520 METAR ESSA 120520Z 14007KT 8000 BR BKN006 16/15 Q1003 BECMG
                        SCT005=
201207120450 METAR ESSA 120450Z 13006KT 8000 BKN006 16/15 Q1003 BECMG
                        SCT005=
201207120420 METAR ESSA 120420Z 13007KT 8000 BR SCT005 BKN066 16/15 Q1003
                        NOSIG=
201207120350 METAR ESSA 120350Z 12006KT 8000 BR SCT051 BKN074 16/15 Q1003
                        NOSIG=
201207120320 METAR ESSA 120320Z 13005KT 8000 BR SCT040 BKN060 16/15 Q1004
                        NOSIG=
201207120250 METAR ESSA 120250Z 14005KT 8000 BR SCT050 BKN070 16/15 Q1004
                        NOSIG=
201207120220 METAR ESSA 120220Z 12006KT 6000 -RA BR SCT050 BKN074 15/15
                        Q1004 NOSIG=
201207120150 METAR ESSA 120150Z 12005KT 6000 BR BKN005 15/15 Q1004 TEMPO
                        SHRA SCT006 BKN030CB=
201207120120 METAR ESSA 120120Z 10005KT 6000 -RA BR BKN004 15/14 Q1004
                        TEMPO SHRA BKN007 BKN030CB=
201207120050 METAR ESSA 120050Z 11006KT 8000 SHRA BKN004 BKN043CB 15/14
                        Q1005 TEMPO -SHRA SCT006=
201207120020 METAR ESSA 120020Z 10005KT 070V130 9999 BKN006 15/13 Q1005
                        BECMG SHRA SCT006 BKN040CB=
201207112350 METAR ESSA 112350Z 08004KT CAVOK 15/13 Q1005 TEMPO SHRA BKN040CB=
201207112320 METAR ESSA 112320Z 08004KT CAVOK 15/14 Q1005 TEMPO SHRA BKN040CB=
201207112250 METAR ESSA 112250Z 11005KT CAVOK 16/14 Q1005 NOSIG=
201207112220 METAR ESSA 112220Z 13006KT CAVOK 16/13 Q1006 NOSIG=
201207112150 METAR ESSA 112150Z 13007KT 9999 FEW044 SCT100 16/13 Q1006
                        NOSIG=
201207112120 METAR ESSA 112120Z 13005KT 9999 FEW045 16/13 Q1006 NOSIG=
201207112050 METAR ESSA 112050Z 12004KT CAVOK 16/13 Q1006 NOSIG=
201207112020 METAR ESSA 112020Z 11005KT CAVOK 17/13 Q1006 NOSIG=
201207111950 METAR ESSA 111950Z 21004KT 180V250 9999 SCT040 18/13 Q1006
                        NOSIG=
201207111920 METAR ESSA 111920Z 17004KT 9999 SCT026 SCT036 18/13 Q1006
                        NOSIG=
201207111850 METAR ESSA 111850Z 20003KT 9999 SCT031 SCT044 19/13 Q1006
                        NOSIG=
201207111820 METAR ESSA 111820Z 27004KT 9999 SCT043 19/12 Q1006 NOSIG=
201207111750 METAR ESSA 111750Z 27005KT CAVOK 19/12 Q1006 NOSIG=
201207111720 METAR ESSA 111720Z 24007KT CAVOK 19/11 Q1006 NOSIG=
201207111650 METAR ESSA 111650Z 25010KT 9999 FEW045 19/12 Q1006 NOSIG=
201207111620 METAR ESSA 111620Z 24011KT 9999 FEW045 19/11 Q1007 NOSIG=
201207111550 METAR ESSA 111550Z 24013KT 9999 FEW045 19/11 Q1007 NOSIG=
201207111520 METAR ESSA 111520Z 25013KT 9999 FEW038 19/10 Q1007 NOSIG=
201207111450 METAR ESSA 111450Z 24014KT 9999 FEW038 BKN048 19/11 Q1007
                        NOSIG=
201207111420 METAR ESSA 111420Z 23015KT 9999 SCT035 BKN045 19/11 Q1007
                        NOSIG=
201207111350 METAR ESSA 111350Z 25016KT 9999 FEW036 BKN045 19/10 Q1007
                        NOSIG=
201207111320 METAR ESSA 111320Z 24016KT 9999 FEW032 BKN042 18/11 Q1007
                        NOSIG=
201207111250 METAR ESSA 111250Z 23015KT 9999 SCT029 BKN045 18/12 Q1007
                        NOSIG=
201207111220 METAR ESSA 111220Z 22013KT 9999 SCT029 BKN045 18/13 Q1007
                        NOSIG=
201207111150 METAR ESSA 111150Z 23012KT 9999 FEW025 BKN042 17/12 Q1007
                        NOSIG=
201207111120 METAR ESSA 111120Z 21012KT 9999 SCT022 BKN035 16/12 Q1007
                        NOSIG=
201207111050 METAR ESSA 111050Z 23015KT 9999 SCT021 BKN035 16/12 Q1007
                        NOSIG=
201207111020 METAR ESSA 111020Z 22015KT 9999 FEW017 SCT020 BKN037 16/12
                        Q1007 NOSIG=
201207110950 METAR ESSA 110950Z 23014KT 9999 SCT018 BKN038 16/13 Q1007
                        NOSIG=
201207110920 METAR ESSA 110920Z 23013KT 9999 FEW014 BKN016 16/13 Q1006
                        NOSIG=
201207110850 METAR ESSA 110850Z 23013KT 9999 SCT013 BKN015 16/13 Q1006
                        NOSIG=
201207110820 METAR COR ESSA 110820Z 22012KT 9999 FEW010 SCT013 BKN018
                        16/14 Q1006 NOSIG=
201207110750 METAR ESSA 110750Z 22011KT 9999 FEW008 SCT010 BKN013 15/14
                        Q1006 BECMG BKN015=
201207110720 METAR ESSA 110720Z 22012KT 9999 SCT008 BKN010 15/14 Q1006
                        BECMG BKN015=
201207110650 METAR ESSA 110650Z 24010KT 9999 SCT008 BKN010 15/14 Q1005
                        BECMG BKN015=
201207110620 METAR ESSA 110620Z 25007KT 7000 -DZ BR FEW006 BKN008 14/14
                        Q1005 BECMG BKN015=
201207110550 METAR ESSA 110550Z 21005KT 4000 -DZ BR FEW004 BKN005 14/14
                        Q1005 TEMPO 5000=
201207110520 METAR ESSA 110520Z 23005KT 8000 BR FEW004 BKN006 14/13 Q1005
                        TEMPO 4000 BKN004=
201207110450 METAR ESSA 110450Z 24006KT 7000 BR FEW003 BKN005 14/13 Q1005
                        TEMPO 4000 BKN004=
201207110420 METAR ESSA 110420Z 25006KT 5000 BR FEW003 BKN005 14/13 Q1005
                        TEMPO 4000 BKN004=
201207110350 METAR ESSA 110350Z 25006KT 8000 BR FEW003 BKN007 14/13 Q1005
                        TEMPO BKN004=
201207110320 METAR ESSA 110320Z 25005KT 9999 BKN007 13/13 Q1004 NOSIG=
201207110250 METAR ESSA 110250Z 26005KT 9999 BKN007 13/13 Q1004 NOSIG=
201207110220 METAR ESSA 110220Z 26005KT 9999 BKN007 13/13 Q1004 NOSIG=
201207110150 METAR ESSA 110150Z 27005KT 9999 BKN005 13/13 Q1004 NOSIG=
201207110120 METAR ESSA 110120Z 28006KT 9999 BKN005 13/13 Q1004 NOSIG=
201207110050 METAR ESSA 110050Z 30007KT 9999 BKN004 13/13 Q1003 NOSIG=
201207110020 METAR ESSA 110020Z 29007KT 5000 BKN003 13/13 Q1003 TEMPO
                        3000 BKN004=
201207102350 METAR ESSA 102350Z 31005KT 2000 -RA BR BKN002 14/13 Q1003
                        BECMG 3000=
201207102320 METAR ESSA 102320Z 32005KT 1500 BR BKN002 14/13 Q1003 TEMPO
                        1200=
201207102250 METAR ESSA 102250Z 35005KT 1500 BR BKN002 14/13 Q1002 TEMPO
                        1200=
201207102220 METAR ESSA 102220Z 36005KT 1500 BR BKN002 14/13 Q1002 TEMPO
                        1200=
201207102150 METAR ESSA 102150Z 03006KT 1500 BR BKN002 14/13 Q1002 TEMPO
                        1200=
201207102120 METAR ESSA 102120Z 03007KT 1500 BR BKN002 14/14 Q1002 TEMPO
                        1200=
201207102050 METAR ESSA 102050Z 03007KT 3000 BR BKN002 14/14 Q1002 NOSIG=
201207102020 METAR ESSA 102020Z 03008KT 3000 BR BKN002 14/14 Q1002 NOSIG=
201207101950 METAR ESSA 101950Z 02007KT 5000 BR BKN002 14/14 Q1002 TEMPO
                        4000=
201207101920 METAR ESSA 101920Z 05008KT 8000 BR BKN003 14/14 Q1002 NOSIG=
201207101850 METAR ESSA 101850Z 04010KT 8000 BR BKN003 14/14 Q1002 NOSIG=
201207101820 METAR ESSA 101820Z 03009KT 9999 BKN005 15/14 Q1002 TEMPO
                        BKN004=
201207101750 METAR ESSA 101750Z 04012KT 9999 BKN006 15/14 Q1002 TEMPO
                        SCT006=
201207101720 METAR ESSA 101720Z 04012KT 9999 BKN006 15/15 Q1002 BECMG
                        SCT006=
201207101650 METAR ESSA 101650Z 03010KT 9999 BKN006 16/15 Q1002 BECMG
                        SCT006=
201207101620 METAR ESSA 101620Z 05012KT 9999 -SHRA BKN006 17/16 Q1002
                        BECMG SCT006=
201207101550 METAR ESSA 101550Z 03009KT 9999 SCT006 BKN025 17/16 Q1002
                        NOSIG=
201207101520 METAR COR ESSA 101520Z 02010KT 9999 -SHRA BKN006 17/16 Q1002
                        BECMG BKN030=
201207101450 METAR ESSA 101450Z 03009KT 9999 -SHRA SCT006 SCT021 BKN029
                        17/16 Q1002 TEMPO SHRA=
201207101420 METAR ESSA 101420Z 02009KT 9999 FEW007 SCT030 BKN045 17/16
                        Q1002 RESHRA TEMPO SHRA=
201207101350 METAR ESSA 101350Z 03008KT 9999 -SHRA FEW005 SCT009 BKN020
                        17/15 Q1002 TEMPO SHRA=
201207101320 METAR ESSA 101320Z 03010KT 9999 -SHRA FEW009 SCT023 BKN034
                        18/16 Q1002 TEMPO SHRA=
201207101250 METAR ESSA 101250Z 02008KT 9999 VCSH FEW014 SCT020 BKN040
                        19/15 Q1002 TEMPO SHRA=
201207101220 METAR ESSA 101220Z 35007KT 9999 FEW013 SCT026 BKN053 18/16
                        Q1002 NOSIG=
201207101150 METAR ESSA 101150Z 19007KT 9999 FEW008 SCT029 BKN050 18/16
                        Q1002 NOSIG=
201207101120 METAR ESSA 101120Z 08006KT 9999 FEW013 SCT017 BKN062 19/16
                        Q1002 NOSIG=
201207101050 METAR ESSA 101050Z 10003KT 9999 -SHRA FEW012 SCT015 BKN055
                        18/16 Q1002 NOSIG=
201207101020 METAR ESSA 101020Z 04003KT 350V070 9999 -SHRA FEW014 SCT018
                        BKN047 18/15 Q1002 NOSIG=
201207100950 METAR ESSA 100950Z 04003KT 9999 FEW012 FEW020TCU BKN060 18/15
                        Q1002 NOSIG=
201207100920 METAR ESSA 100920Z VRB02KT 9000 -SHRA FEW011 SCT016 BKN043
                        17/15 Q1002 NOSIG=
201207100850 METAR ESSA 100850Z 06003G15KT 030V140 9999 -SHRA SCT009 BKN012
                        17/15 Q1002 BECMG BKN020=
201207100820 METAR ESSA 100820Z 11003KT 9999 -SHRA BKN009 17/15 Q1002
                        BECMG BKN020=
201207100750 METAR ESSA 100750Z 05004KT 030V090 9999 FEW008 BKN009 17/14
                        Q1002 BECMG BKN020=
201207100720 METAR ESSA 100720Z 09004KT 9999 FEW008 BKN009 17/14 Q1002
                        BECMG BKN020=
201207100650 METAR ESSA 100650Z 09005KT 9999 FEW008 BKN009 16/14 Q1002
                        BECMG BKN020=
201207100620 METAR ESSA 100620Z 09005KT 9999 SCT008 BKN010 16/14 Q1002
                        BECMG BKN020=
201207100550 METAR ESSA 100550Z 09005KT 9999 FEW008 BKN009 16/13 Q1002
                        NOSIG=
201207100520 METAR ESSA 100520Z 09006KT 010V110 9999 FEW008 SCT009 BKN011
                        16/13 Q1002 TEMPO BKN008=
201207100450 METAR ESSA 100450Z 07005KT 9999 FEW009 BKN011 15/13 Q1002
                        TEMPO BKN008=
201207100420 METAR ESSA 100420Z 07005KT 9999 FEW009 BKN011 15/13 Q1002
                        TEMPO BKN008=
201207100350 METAR ESSA 100350Z 07005KT 9999 BKN013 15/13 Q1002 TEMPO
                        BKN008=
201207100320 METAR ESSA 100320Z 04003KT 9999 FEW012 BKN016 15/13 Q1002
                        TEMPO BKN010=
201207100250 METAR ESSA 100250Z 08002KT 9999 BKN018 15/13 Q1002 NOSIG=
201207100220 METAR ESSA 100220Z 12003KT 090V150 9999 BKN016 15/13 Q1002
                        NOSIG=
201207100150 METAR COR ESSA 100150Z 09005KT 9999 BKN016 15/13 Q1002 NOSIG=
201207100120 METAR ESSA 100120Z 06006KT 9999 BKN013 15/13 Q1002 TEMPO
                        SCT012=
201207100050 METAR ESSA 100050Z 03008KT 9999 BKN013 15/13 Q1002 TEMPO
                        SCT012=
201207100020 METAR ESSA 100020Z 34006KT 9999 BKN013 15/13 Q1003 TEMPO
                        SCT012=
201207092350 METAR ESSA 092350Z 36006KT 9999 BKN011 15/13 Q1002 TEMPO
                        SCT012=
201207092320 METAR ESSA 092320Z 04007KT 9999 BKN010 15/13 Q1002 TEMPO
                        SCT012=
201207092250 METAR ESSA 092250Z 03005KT 9999 BKN010 15/13 Q1003 TEMPO
                        SCT012=
201207092220 METAR ESSA 092220Z 01006KT 9999 SCT011 15/13 Q1003 TEMPO
                        BKN010=
201207092150 METAR ESSA 092150Z 02009KT 9999 FEW009 SCT060 16/14 Q1002
                        NOSIG=
201207092120 METAR ESSA 092120Z 03009KT 9999 SCT009 SCT060 16/14 Q1003
                        NOSIG=
201207092050 METAR ESSA 092050Z 03009KT 9999 BKN009 17/15 Q1003 TEMPO
                        SCT010=
201207092020 METAR ESSA 092020Z 02010KT 9999 BKN009 17/15 Q1003 TEMPO
                        SCT010=
201207091950 METAR COR ESSA 091950Z 01007KT 9999 SCT010 SCT060 17/15 Q1003
                        TEMPO BKN008=
201207091920 METAR ESSA 091920Z 01009KT 9999 FEW011 17/15 Q1002 TEMPO
                        BKN012=
201207091850 METAR COR ESSA 091850Z 36008KT 9999 FEW016 SCT060 18/16 Q1002
                        TEMPO BKN012=
201207091820 METAR ESSA 091820Z 01008KT CAVOK 20/16 Q1002 NOSIG=
201207091750 METAR ESSA 091750Z 35008KT CAVOK 21/16 Q1002 NOSIG=
201207091720 METAR ESSA 091720Z 35008KT CAVOK 21/16 Q1002 NOSIG=
201207091650 METAR ESSA 091650Z 35008KT 9999 FEW040 SCT070 22/17 Q1002
                        NOSIG=
201207091620 METAR ESSA 091620Z 34008KT 9999 FEW035 SCT100 22/17 Q1002
                        NOSIG=
201207091550 METAR ESSA 091550Z 31006KT 260V360 9999 FEW035 SCT100 23/17
                        Q1002 NOSIG=
201207091520 METAR ESSA 091520Z 29007KT 260V320 9999 FEW035 SCT070 24/17
                        Q1002 NOSIG=
201207091450 METAR ESSA 091450Z 30009KT 9999 FEW030 24/17 Q1002 NOSIG=
201207091420 METAR ESSA 091420Z 29007KT CAVOK 23/17 Q1002 NOSIG=
201207091350 METAR ESSA 091350Z 31011KT 9999 FEW030 23/16 Q1002 NOSIG=
201207091320 METAR ESSA 091320Z 29008KT 260V320 9999 FEW023 SCT030 22/17
                        Q1002 NOSIG=
201207091250 METAR ESSA 091250Z 26008KT 9999 SCT020 SCT035 23/17 Q1002
                        NOSIG=
201207091220 METAR COR ESSA 091220Z 27008KT 9999 SCT015 SCT020 22/18 Q1003
                        NOSIG=
201207091150 METAR ESSA 091150Z 27007KT 250V310 9999 SCT015 SCT020 21/17
                        Q1003 NOSIG=
201207091120 METAR ESSA 091120Z 30007KT 9999 SCT012 SCT020 21/17 Q1003
                        NOSIG=
201207091050 METAR ESSA 091050Z 29009KT 250V310 9999 SCT011 SCT018 20/18
                        Q1003 NOSIG=
201207091020 METAR ESSA 091020Z 26009KT 9999 SCT011 SCT020 20/17 Q1002
                        NOSIG=
201207090950 METAR ESSA 090950Z 25010KT 9999 BKN010 19/17 Q1002 BECMG
                        SCT010 BKN018=
201207090920 METAR ESSA 090920Z 24009KT 9999 BKN010 18/17 Q1002 BECMG
                        SCT010 BKN018=
201207090850 METAR ESSA 090850Z 24011KT 9999 BKN007 18/18 Q1002 TEMPO
                        BKN010=
201207090820 METAR ESSA 090820Z 25009KT 5000 -DZ BR BKN005 17/17 Q1002
                        TEMPO BKN010=
201207090750 METAR ESSA 090750Z 25008KT 3000 DZ BR BKN005 17/17 Q1002
                        TEMPO 5000=
201207090720 METAR ESSA 090720Z 25009KT 5000 BR BKN005 17/17 Q1002 TEMPO
                        4000=
201207090650 METAR ESSA 090650Z 24012KT 8000 BR BKN007 18/17 Q1002 BECMG
                        BKN010=
201207090620 METAR ESSA 090620Z 24012KT 9999 BKN007 18/16 Q1002 BECMG
                        BKN010=
201207090550 METAR ESSA 090550Z 23013KT 9999 BKN007 18/16 Q1002 BECMG
                        BKN010=
201207090520 METAR ESSA 090520Z 23012KT 9999 SCT009 BKN011 17/16 Q1002
                        BECMG SCT012=
201207090450 METAR ESSA 090450Z 23011KT 9999 SCT009 BKN011 17/16 Q1002
                        BECMG SCT012=
201207090420 METAR ESSA 090420Z 22012KT 9999 BKN009 17/16 Q1002 TEMPO
                        BKN012=
201207090350 METAR ESSA 090350Z 23010KT 9999 BKN008 17/16 Q1002 TEMPO
                        BKN012=
201207090320 METAR ESSA 090320Z 23009KT 9999 BKN008 17/16 Q1001 TEMPO
                        BKN012=
201207090250 METAR ESSA 090250Z 23009KT 9999 BKN007 17/16 Q1002 TEMPO
                        BKN012=
201207090220 METAR ESSA 090220Z 23010KT 9999 BKN007 17/16 Q1002 TEMPO
                        BKN012=
201207090150 METAR ESSA 090150Z 23012KT 9999 BKN007 17/16 Q1002 TEMPO
                        BKN010=
201207090120 METAR ESSA 090120Z 22011KT 9999 BKN007 18/17 Q1002 TEMPO
                        BKN010=
201207090050 METAR ESSA 090050Z 22009KT 9999 OVC006 18/17 Q1002 TEMPO
                        BKN010=
201207090020 METAR ESSA 090020Z 23009KT 9999 OVC006 18/17 Q1002 TEMPO
                        BKN010=
201207082350 METAR ESSA 082350Z 24010KT 9999 OVC006 17/17 Q1002 TEMPO
                        BKN010=
201207082320 METAR ESSA 082320Z 26009KT 9999 BKN007 18/17 Q1002 TEMPO
                        BKN010=
201207082250 METAR ESSA 082250Z 25011KT 4000 -SHRA BR BKN006 SCT030CB
                        18/17 Q1002 TEMPO 6000 SHRA BKN004=
201207082220 METAR ESSA 082220Z 25010KT 6000 BR BKN008 18/17 Q1002 TEMPO
                        4000 SHRA BKN030CB=
201207082150 METAR ESSA 082150Z 23009KT 9999 SCT008 BKN012 18/17 Q1002
                        TEMPO SHRA BKN008 BKN030CB=
201207082120 METAR ESSA 082120Z 25010KT 9999 BKN012 18/17 Q1002 NOSIG=
201207082050 METAR ESSA 082050Z 24010KT 9999 BKN008 19/18 Q1003 TEMPO
                        BKN012=
201207082020 METAR ESSA 082020Z 24010KT 9999 BKN008 19/18 Q1003 TEMPO
                        BKN012=
201207081950 METAR ESSA 081950Z 24008KT 9999 FEW004 BKN006 19/18 Q1002
                        NOSIG=
201207081920 METAR ESSA 081920Z 23007KT 9999 FEW004 BKN006 19/18 Q1002
                        NOSIG=
201207081850 METAR ESSA 081850Z 22006KT 9999 FEW004 BKN006 19/18 Q1002
                        NOSIG=
201207081820 METAR ESSA 081820Z 23005KT 8000 BR FEW004 BKN006 19/18 Q1002
                        NOSIG=
201207081750 METAR ESSA 081750Z 21006KT 8000 BR SCT004 BKN006 19/18 Q1002
                        NOSIG=
201207081720 METAR ESSA 081720Z 22005KT 6000 BR FEW004 BKN007 19/18 Q1002
                        NOSIG=
201207081650 METAR ESSA 081650Z 16005KT 3500 -SHRA BR BKN004 FEW015CB
                        19/18 Q1003 TEMPO 6000 SHRA BKN006=
201207081620 METAR COR ESSA 081620Z 16004KT 2500 -DZ BR SCT003 BKN005
                        19/18 Q1003 TEMPO 6000 SHRA BKN003
                        BKN030CB=
201207081550 METAR ESSA 081550Z 15005KT 4000 -DZ BR SCT003 BKN005 19/18
                        Q1003 TEMPO 6000 SHRA BKN003 BKN030CB=
201207081520 METAR ESSA 081520Z 14006KT 4000 -DZ BR SCT003 BKN005 19/18
                        Q1003 TEMPO 6000 SHRA BKN003 BKN030CB=
201207081450 METAR ESSA 081450Z 12005KT 8000 BR BKN006 19/18 Q1003 TEMPO
                        SHRA BKN030CB=
201207081420 METAR ESSA 081420Z 11005KT 9999 BKN007 20/18 Q1004 TEMPO
                        SHRA BKN030CB=
201207081350 METAR ESSA 081350Z 14005KT 100V190 9999 BKN008 20/18 Q1004
                        TEMPO BKN012=
201207081320 METAR ESSA 081320Z 14005KT 9999 BKN008 20/18 Q1004 TEMPO
                        BKN012=
201207081250 METAR ESSA 081250Z 15004KT 9999 BKN007 20/18 Q1004 TEMPO
                        BKN012=
201207081220 METAR ESSA 081220Z 09004KT 9999 BKN008 20/18 Q1005 TEMPO
                        BKN012=
201207081150 METAR ESSA 081150Z 15004KT 120V180 9999 SCT006 BKN008 20/18
                        Q1005 TEMPO SHRA BKN012=
201207081120 METAR ESSA 081120Z 14005KT 9999 SCT006 BKN008 20/18 Q1005
                        TEMPO SHRA BKN012=
201207081050 METAR ESSA 081050Z 11005KT 9999 SCT006 BKN008 20/18 Q1005
                        TEMPO SHRA BKN012=
201207081020 METAR ESSA 081020Z 12004G15KT 7000 BR SCT008 BKN010 20/18
                        Q1006 TEMPO SHRA=
201207080950 METAR ESSA 080950Z 09004KT 050V130 7000 -RA BR BKN008 20/18
                        Q1006 TEMPO SHRA=
201207080920 METAR ESSA 080920Z 11003KT 080V140 7000 -RA BR BKN006 20/18
                        Q1006 TEMPO SHRA=
201207080850 METAR ESSA 080850Z 10004KT 070V160 7000 BR BKN006 19/18 Q1006
                        TEMPO SHRA=
201207080820 METAR ESSA 080820Z 05004KT 020V090 5000 BR BKN005 20/18 Q1006
                        TEMPO SHRA=
201207080750 METAR ESSA 080750Z 04004KT 3000 BR BKN004 19/18 Q1006 BECMG
                        5000 BKN005=
201207080720 METAR ESSA 080720Z VRB02KT 1500 -RA BR BKN003 19/18 Q1007
                        BECMG 5000 BKN005=
201207080650 METAR ESSA 080650Z 04004KT 010V140 3000 -RA BR BKN003 18/18
                        Q1007 BECMG 5000 BKN005=
201207080620 METAR ESSA 080620Z 08003KT 3000 BR BKN003 18/17 Q1007 BECMG
                        5000 BKN005=
201207080550 METAR ESSA 080550Z 12003KT 060V150 1500 BR BKN002 18/18 Q1007
                        BECMG 3000=
201207080520 METAR ESSA 080520Z 06003KT 1500 BR BKN002 18/17 Q1007 BECMG
                        3000=
201207080450 METAR ESSA 080450Z 06004KT 1500 BR BKN002 18/17 Q1007 BECMG
                        3000=
201207080420 METAR ESSA 080420Z 07004KT 0700 R01L/P1500N R19R/0900VP1500D
                        R01R/0550V0800N R19L/P1500N FG BKN002
                        18/17 Q1007 BECMG 1500=
201207080350 METAR ESSA 080350Z VRB02KT 0700 0300N R01L/P1500N R19R/0650N
                        R01R/P1500N R19L/1100N FG BKN002
                        18/17 Q1008 BECMG 1500=
201207080320 METAR ESSA 080320Z 08003KT 0500 R01L/P1500N R19R/1000VP1500N
                        R01R/P1500N R19L/0450V0550N FG VV002
                        17/17 Q1008 BECMG 1500=
201207080250 METAR ESSA 080250Z 08003KT 0200 R01L/P1500N R19R/P1500U R01R/1100VP1500N
                        R19L/0375N FG VV002 17/17 Q1008 NOSIG=
201207080220 METAR ESSA 080220Z 06003KT 0150 R01L/1100N R19R/0500N R01R/0375N
                        R19L/0400V0600N FG VV002 17/17 Q1008
                        NOSIG=
201207080150 METAR ESSA 080150Z VRB02KT 0150 R01L/0800VP1500N R19R/0350V0550N
                        R01R/0350N R19L/0450V0700N FG VV002
                        17/17 Q1008 NOSIG=
201207080120 METAR ESSA 080120Z 08003KT 0150 R01L/0700N R19R/0550V0800N
                        R01R/0400V0550N R19L/0700N FG VV002
                        17/17 Q1008 NOSIG=
201207080050 METAR ESSA 080050Z 12003KT 0150 R01L/0800V1400N R19R/0500V0750N
                        R01R/0550N R19L/0550N FG VV002 17/17
                        Q1008 NOSIG=
201207080020 METAR ESSA 080020Z 08002KT 0150 R01L/P1500N R19R/0750V1300N
                        R01R/0500N R19L/0550N FG VV002 17/17
                        Q1009 NOSIG=
201207072350 METAR ESSA 072350Z 10004KT 070V130 0200 R01L/0700VP1500N
                        R19R/0800V1500D R01R/0700V1200N R19L/0800N
                        FG VV002 17/17 Q1009 NOSIG=
201207072320 METAR ESSA 072320Z 10004KT 0300 R01L/P1500N R19R/P1500N R01R/0650VP1500D
                        R19L/P1500N FG BKN002 18/17 Q1009
                        NOSIG=
201207072250 METAR ESSA 072250Z 11003KT 8000 BR SCT003 BKN025 18/17 Q1010
                        BECMG 4000 BKN003=
201207072220 METAR ESSA 072220Z 09004KT 9999 SCT025 BKN160 19/17 Q1010
                        NOSIG=
201207072150 METAR ESSA 072150Z 12004KT 9999 BKN035 19/18 Q1010 NOSIG=
201207072120 METAR ESSA 072120Z 10004KT 9999 SCT036 BKN170 20/18 Q1010
                        NOSIG=
201207072050 METAR ESSA 072050Z 13004KT 9999 BKN036 20/18 Q1010 NOSIG=
201207072020 METAR ESSA 072020Z 10005KT 9999 FEW031 BKN036 21/18 Q1010
                        NOSIG=
201207071950 METAR ESSA 071950Z 10004KT 9999 SCT036 22/18 Q1010 NOSIG=
201207071920 METAR ESSA 071920Z 12005KT 9999 SCT037 22/18 Q1010 NOSIG=
201207071850 METAR ESSA 071850Z 13004KT 9999 SCT035 23/18 Q1010 NOSIG=
201207071820 METAR ESSA 071820Z 11007KT 9999 SCT035 23/18 Q1010 NOSIG=
201207071750 METAR ESSA 071750Z 13005KT 9999 SCT027 BKN035 24/19 Q1010
                        NOSIG=
201207071720 METAR ESSA 071720Z 13004KT 9999 SCT030 BKN049 25/19 Q1010
                        NOSIG=
201207071650 METAR ESSA 071650Z 06005KT 9999 FEW028 BKN048 25/18 Q1010
                        NOSIG=
201207071620 METAR ESSA 071620Z 03006KT 9999 FEW040 BKN048 25/18 Q1010
                        NOSIG=
201207071550 METAR ESSA 071550Z 06006KT 9999 FEW030 BKN048 25/18 Q1010
                        NOSIG=
201207071520 METAR ESSA 071520Z 08007KT 9999 SCT037 BKN047 26/18 Q1010
                        NOSIG=
201207071450 METAR ESSA 071450Z 05007KT 010V070 9999 FEW030 BKN047 25/18
                        Q1011 NOSIG=
201207071420 METAR ESSA 071420Z 07007KT 050V110 9999 SCT030 BKN047 25/18
                        Q1011 NOSIG=
201207071350 METAR ESSA 071350Z 08007KT 050V130 9999 SCT028 BKN050 25/18
                        Q1011 NOSIG=
201207071320 METAR ESSA 071320Z 11007KT 030V150 9999 SCT028 25/18 Q1011
                        NOSIG=
201207071250 METAR ESSA 071250Z 09008KT 9999 SCT028 25/18 Q1012 NOSIG=
201207071220 METAR ESSA 071220Z 08009KT 050V140 9999 SCT030 25/17 Q1012
                        NOSIG=
201207071150 METAR ESSA 071150Z 13008KT 9999 FEW025 SCT040 24/17 Q1012
                        NOSIG=
201207071120 METAR ESSA 071120Z 12010KT 9999 FEW025 SCT030 24/18 Q1012
                        NOSIG=
201207071050 METAR ESSA 071050Z 12009KT 9999 FEW022 SCT025 24/18 Q1012
                        NOSIG=
201207071020 METAR ESSA 071020Z 11009KT 070V160 9999 FEW020 SCT025 23/18
                        Q1013 NOSIG=
201207070950 METAR ESSA 070950Z 13010KT 9999 BKN020 23/18 Q1013 NOSIG=
201207070920 METAR ESSA 070920Z 13009KT 9999 BKN017 23/18 Q1013 NOSIG=
201207070850 METAR ESSA 070850Z 13010G22KT 9999 BKN015 22/18 Q1013 NOSIG=
201207070820 METAR ESSA 070820Z 11009KT 9999 SCT010 21/18 Q1013 NOSIG=
201207070750 METAR ESSA 070750Z 12008KT 9999 BKN008 21/18 Q1013 TEMPO
                        SCT008=
201207070720 METAR ESSA 070720Z 12007KT 9999 BKN008 20/18 Q1013 TEMPO
                        SCT008=
201207070650 METAR ESSA 070650Z 13006KT 9999 BKN008 19/17 Q1013 TEMPO
                        SCT008=
201207070620 METAR COR ESSA 070620Z 12006KT 9999 FEW008 BKN070 19/17 Q1013
                        TEMPO BKN008=
201207070550 METAR ESSA 070550Z 09004KT 050V130 CAVOK 19/17 Q1013 NOSIG=
201207070520 METAR ESSA 070520Z 08008KT 9999 -DZ FEW043 BKN120 18/16 Q1013
                        NOSIG=
201207070450 METAR ESSA 070450Z 08009KT 9999 -DZ FEW043 BKN120 18/16 Q1013
                        NOSIG=
201207070420 METAR ESSA 070420Z 09008KT 9999 -DZ NSC 17/16 Q1013 NOSIG=
201207070350 METAR ESSA 070350Z 08009KT CAVOK 17/15 Q1013 NOSIG=
201207070320 METAR ESSA 070320Z 07010KT CAVOK 17/15 Q1013 NOSIG=
201207070250 METAR ESSA 070250Z 07008KT CAVOK 17/15 Q1013 NOSIG=
201207070220 METAR ESSA 070220Z 08009KT 9999 FEW032 17/15 Q1013 NOSIG=
201207070150 METAR ESSA 070150Z 08007KT 9999 FEW014 SCT030 BKN090 17/15
                        Q1014 BECMG 3000 TSRA BKN040CB=
201207070120 METAR ESSA 070120Z 07010KT CAVOK 17/15 Q1014 NOSIG=
201207070050 METAR ESSA 070050Z 07009KT CAVOK 16/14 Q1015 NOSIG=
201207070020 METAR ESSA 070020Z 07008KT CAVOK 16/14 Q1015 NOSIG=
201207062350 METAR ESSA 062350Z 07009KT CAVOK 16/14 Q1015 NOSIG=
201207062320 METAR ESSA 062320Z 03008KT 9999 -RA NSC 16/14 Q1015 NOSIG=
201207062250 METAR ESSA 062250Z 03009KT 9999 -RA NSC 16/14 Q1016 NOSIG=
201207062220 METAR ESSA 062220Z 04008KT 9999 -RA NSC 17/14 Q1016 NOSIG=
201207062150 METAR ESSA 062150Z 03007KT 9999 -RA NSC 17/14 Q1016 NOSIG=
201207062120 METAR ESSA 062120Z 05008KT 9999 -RA FEW051 BKN110 18/14 Q1016
                        NOSIG=
201207062050 METAR ESSA 062050Z 07008KT CAVOK 18/13 Q1016 NOSIG=
201207062020 METAR ESSA 062020Z 06007KT CAVOK 18/13 Q1017 NOSIG=
201207061950 METAR ESSA 061950Z 07009KT CAVOK 19/14 Q1017 NOSIG=
201207061920 METAR ESSA 061920Z 06010KT CAVOK 19/14 Q1017 NOSIG=
201207061850 METAR ESSA 061850Z 07009KT CAVOK 19/14 Q1017 NOSIG=
201207061820 METAR ESSA 061820Z 08011KT CAVOK 19/14 Q1017 NOSIG=
201207061750 METAR ESSA 061750Z 09010KT CAVOK 20/15 Q1018 NOSIG=
201207061720 METAR ESSA 061720Z 08012KT 9999 SCT037 BKN170 20/15 Q1018
                        NOSIG=
201207061650 METAR ESSA 061650Z 09012KT 9999 SCT037 BKN180 20/15 Q1018
                        NOSIG=
201207061620 METAR ESSA 061620Z 07011KT 9999 SCT037 BKN190 21/15 Q1018
                        NOSIG=
201207061550 METAR ESSA 061550Z 08014KT 9999 BKN036 21/15 Q1018 NOSIG=
201207061520 METAR ESSA 061520Z 09013KT 9999 FEW023 BKN047 21/15 Q1018
                        NOSIG=
201207061450 METAR ESSA 061450Z 09014KT 9999 BKN047 22/16 Q1018 NOSIG=
201207061420 METAR ESSA 061420Z 08014KT 9999 FEW027 BKN060 22/16 Q1018
                        NOSIG=
201207061350 METAR ESSA 061350Z 08015KT 9999 SCT037 BKN060 22/16 Q1018
                        NOSIG=
201207061320 METAR ESSA 061320Z 08013KT CAVOK 22/16 Q1019 NOSIG=
201207061250 METAR ESSA 061250Z 08015KT CAVOK 22/15 Q1019 NOSIG=
201207061220 METAR ESSA 061220Z 08014KT 9999 SCT046 BKN060 22/15 Q1019
                        NOSIG=
201207061150 METAR ESSA 061150Z 10014KT 9999 BKN047 22/15 Q1019 NOSIG=
201207061120 METAR ESSA 061120Z 08012KT 9999 FEW040 BKN052 23/15 Q1019
                        NOSIG=
201207061050 METAR ESSA 061050Z 08015KT 9999 FEW042 BKN052 23/15 Q1019
                        NOSIG=
201207061020 METAR ESSA 061020Z 09013KT CAVOK 22/15 Q1019 NOSIG=
201207060950 METAR ESSA 060950Z 08012KT 9999 FEW032 BKN055 22/15 Q1019
                        NOSIG=
201207060920 METAR ESSA 060920Z 08012KT CAVOK 21/15 Q1019 NOSIG=
201207060850 METAR ESSA 060850Z 08011KT 9999 FEW048 BKN080 21/15 Q1019
                        NOSIG=
201207060820 METAR ESSA 060820Z 07013KT 9999 FEW047 BKN080 20/15 Q1019
                        NOSIG=
201207060750 METAR ESSA 060750Z 07011KT 9999 FEW047 BKN055 19/15 Q1019
                        NOSIG=
201207060720 METAR ESSA 060720Z 03009KT CAVOK 18/14 Q1019 NOSIG=
201207060650 METAR ESSA 060650Z 06008KT CAVOK 17/14 Q1019 NOSIG=
201207060620 METAR ESSA 060620Z 07007KT 9999 BKN048 17/14 Q1020 NOSIG=
201207060550 METAR ESSA 060550Z 04007KT 9999 SCT038 BKN060 17/13 Q1020
                        NOSIG=
201207060520 METAR ESSA 060520Z 07008KT 9000 -RA SCT040 BKN080 17/12 Q1020
                        NOSIG=
201207060450 METAR ESSA 060450Z 06008KT 9999 FEW047 BKN080 17/12 Q1019
                        NOSIG=
201207060420 METAR ESSA 060420Z 07007KT CAVOK 16/12 Q1020 NOSIG=
201207060350 METAR ESSA 060350Z 04008KT CAVOK 16/12 Q1019 NOSIG=
201207060320 METAR ESSA 060320Z 04007KT 9999 SCT048 BKN070 16/12 Q1020
                        NOSIG=
201207060250 METAR ESSA 060250Z 03007KT 9999 SCT048 BKN070 16/12 Q1020
                        NOSIG=
201207060220 METAR ESSA 060220Z 04008KT 9999 FEW034 SCT048 BKN074 15/12
                        Q1020 NOSIG=
201207060150 METAR ESSA 060150Z 04009KT CAVOK 15/12 Q1020 NOSIG=
201207060120 METAR ESSA 060120Z 03008KT CAVOK 15/12 Q1020 NOSIG=
201207060050 METAR ESSA 060050Z 04007KT CAVOK 15/12 Q1020 NOSIG=
201207060020 METAR ESSA 060020Z 04008KT CAVOK 15/12 Q1020 NOSIG=
201207052350 METAR ESSA 052350Z 04007KT CAVOK 15/12 Q1020 NOSIG=
201207052320 METAR ESSA 052320Z 04008KT CAVOK 16/12 Q1020 NOSIG=
201207052250 METAR ESSA 052250Z 04009KT CAVOK 16/13 Q1021 NOSIG=
201207052220 METAR ESSA 052220Z 03008KT CAVOK 17/13 Q1021 NOSIG=
201207052150 METAR ESSA 052150Z 03008KT CAVOK 17/14 Q1021 NOSIG=
201207052120 METAR ESSA 052120Z 04006KT CAVOK 17/14 Q1021 NOSIG=
201207052050 METAR ESSA 052050Z 04007KT CAVOK 18/14 Q1021 NOSIG=
201207052020 METAR ESSA 052020Z 03007KT CAVOK 18/14 Q1021 NOSIG=
201207051950 METAR ESSA 051950Z 06005KT CAVOK 19/14 Q1021 NOSIG=
201207051920 METAR ESSA 051920Z 06007KT CAVOK 20/14 Q1021 NOSIG=
201207051850 METAR ESSA 051850Z 06007KT CAVOK 20/13 Q1021 NOSIG=
201207051820 METAR ESSA 051820Z 08008KT CAVOK 21/14 Q1021 NOSIG=
201207051750 METAR ESSA 051750Z 07009KT 9999 FEW031 21/14 Q1021 NOSIG=
201207051720 METAR ESSA 051720Z 07008KT 9999 SCT028 21/14 Q1021 NOSIG=
201207051650 METAR ESSA 051650Z 10010KT 9999 FEW026 SCT100 21/14 Q1021
                        NOSIG=
201207051620 METAR ESSA 051620Z 09012KT 9999 FEW045 BKN200 21/15 Q1021
                        NOSIG=
201207051550 METAR ESSA 051550Z 09011KT 9999 FEW024 BKN045 21/15 Q1021
                        NOSIG=
201207051520 METAR COR ESSA 051520Z 11010KT 9999 FEW027 BKN045 BKN070
                        21/15 Q1021 NOSIG=
201207051450 METAR ESSA 051450Z 10010KT 9999 FEW030 BKN047 BKN086 22/15
                        Q1021 NOSIG=
201207051420 METAR ESSA 051420Z 08011KT 9999 BKN031 BKN086 22/14 Q1021
                        NOSIG=
201207051350 METAR ESSA 051350Z 07011KT 9999 BKN032 BKN086 22/15 Q1021
                        NOSIG=
201207051320 METAR ESSA 051320Z 08011KT 9999 SCT030 BKN086 22/14 Q1021
                        NOSIG=
201207051250 METAR ESSA 051250Z 08013KT 9999 FEW032 BKN084 23/14 Q1021
                        NOSIG=
201207051220 METAR ESSA 051220Z 07012KT CAVOK 23/13 Q1021 NOSIG=
201207051150 METAR ESSA 051150Z 04013KT CAVOK 23/12 Q1021 NOSIG=
201207051120 METAR ESSA 051120Z 06011KT CAVOK 22/12 Q1021 NOSIG=
201207051050 METAR ESSA 051050Z 05009KT 020V090 CAVOK 22/12 Q1021 NOSIG=
201207051020 METAR ESSA 051020Z 07009KT CAVOK 21/12 Q1021 NOSIG=
201207050950 METAR ESSA 050950Z 06011KT CAVOK 21/12 Q1021 NOSIG=
201207050920 METAR ESSA 050920Z 06009KT CAVOK 21/12 Q1021 NOSIG=
201207050850 METAR ESSA 050850Z 03010KT CAVOK 21/12 Q1021 NOSIG=
201207050820 METAR ESSA 050820Z 03010KT CAVOK 20/12 Q1021 NOSIG=
201207050750 METAR ESSA 050750Z 03010KT CAVOK 20/12 Q1021 NOSIG=
201207050720 METAR ESSA 050720Z 02011KT CAVOK 20/11 Q1021 NOSIG=
201207050650 METAR ESSA 050650Z 03010KT CAVOK 19/11 Q1021 NOSIG=
201207050620 METAR ESSA 050620Z 03010KT CAVOK 17/11 Q1021 NOSIG=
201207050550 METAR ESSA 050550Z 02009KT CAVOK 17/11 Q1021 NOSIG=
201207050520 METAR ESSA 050520Z 03009KT CAVOK 15/11 Q1021 NOSIG=
201207050450 METAR ESSA 050450Z 01008KT CAVOK 14/10 Q1021 NOSIG=
201207050420 METAR ESSA 050420Z 35007KT CAVOK 13/10 Q1021 NOSIG=
201207050350 METAR ESSA 050350Z 01006KT CAVOK 12/10 Q1021 NOSIG=
201207050320 METAR ESSA 050320Z 36005KT CAVOK 11/09 Q1021 NOSIG=
201207050250 METAR ESSA 050250Z 01006KT CAVOK 10/09 Q1021 NOSIG=
201207050220 METAR ESSA 050220Z 35006KT CAVOK 10/08 Q1021 NOSIG=
201207050150 METAR ESSA 050150Z 35005KT CAVOK 10/08 Q1021 NOSIG=
201207050120 METAR ESSA 050120Z 35005KT CAVOK 10/08 Q1021 NOSIG=
201207050050 METAR ESSA 050050Z 35005KT CAVOK 10/08 Q1021 NOSIG=
201207050020 METAR ESSA 050020Z 36005KT CAVOK 10/08 Q1022 NOSIG=
201207042350 METAR ESSA 042350Z 36005KT CAVOK 10/08 Q1022 NOSIG=
201207042320 METAR ESSA 042320Z 35005KT CAVOK 11/08 Q1022 NOSIG=
201207042250 METAR ESSA 042250Z 03006KT CAVOK 11/08 Q1022 NOSIG=
201207042220 METAR ESSA 042220Z 03006KT CAVOK 12/08 Q1022 NOSIG=
201207042150 METAR ESSA 042150Z 03007KT CAVOK 12/08 Q1022 NOSIG=
201207042120 METAR ESSA 042120Z 02007KT CAVOK 13/08 Q1022 NOSIG=
201207042050 METAR ESSA 042050Z 04007KT CAVOK 15/08 Q1022 NOSIG=
201207042020 METAR ESSA 042020Z 03009KT CAVOK 15/08 Q1022 NOSIG=
201207041950 METAR ESSA 041950Z 01007KT CAVOK 16/07 Q1022 NOSIG=
201207041920 METAR ESSA 041920Z 04007KT CAVOK 18/08 Q1021 NOSIG=
201207041850 METAR ESSA 041850Z 06010KT CAVOK 19/07 Q1021 NOSIG=
201207041820 METAR ESSA 041820Z 05009KT CAVOK 20/06 Q1021 NOSIG=
201207041750 METAR ESSA 041750Z 05011KT CAVOK 20/06 Q1021 NOSIG=
201207041720 METAR ESSA 041720Z 07010KT CAVOK 21/06 Q1021 NOSIG=
201207041650 METAR ESSA 041650Z 07010KT CAVOK 21/06 Q1021 NOSIG=
201207041620 METAR ESSA 041620Z 05010KT CAVOK 22/06 Q1021 NOSIG=
201207041550 METAR ESSA 041550Z 04010KT CAVOK 22/06 Q1021 NOSIG=
201207041520 METAR ESSA 041520Z 06010KT CAVOK 22/06 Q1021 NOSIG=
201207041450 METAR ESSA 041450Z 08009KT 040V110 CAVOK 23/07 Q1021 NOSIG=
201207041420 METAR ESSA 041420Z 07009KT CAVOK 23/07 Q1021 NOSIG=
201207041350 METAR ESSA 041350Z 07009KT 020V090 CAVOK 23/07 Q1021 NOSIG=
201207041320 METAR ESSA 041320Z 09009KT CAVOK 23/08 Q1021 NOSIG=
201207041250 METAR ESSA 041250Z 09008KT 060V130 CAVOK 23/08 Q1022 NOSIG=
201207041220 METAR ESSA 041220Z 07009KT 050V120 CAVOK 22/09 Q1022 NOSIG=
201207041150 METAR ESSA 041150Z 07009KT CAVOK 23/10 Q1022 NOSIG=
201207041120 METAR ESSA 041120Z 08007KT 9999 FEW047 SCT150 22/10 Q1022
                        NOSIG=
201207041050 METAR ESSA 041050Z 08008KT 040V130 9999 SCT044 21/11 Q1022
                        NOSIG=
201207041020 METAR ESSA 041020Z 09007KT 9999 SCT044 22/10 Q1022 NOSIG=
201207040950 METAR COR ESSA 040950Z 08007KT 050V110 9999 SCT042 22/11
                        Q1022 NOSIG=
201207040920 METAR ESSA 040920Z 05005KT 010V080 9999 FEW040 SCT140 21/12
                        Q1022 NOSIG=
201207040850 METAR ESSA 040850Z 05007KT 9999 FEW035 20/11 Q1022 NOSIG=
201207040820 METAR ESSA 040820Z 13006KT 080V160 CAVOK 20/12 Q1022 NOSIG=
201207040750 METAR ESSA 040750Z 05006KT 020V090 CAVOK 20/12 Q1022 NOSIG=
201207040720 METAR ESSA 040720Z 11007KT CAVOK 18/12 Q1022 NOSIG=
201207040650 METAR ESSA 040650Z 10007KT CAVOK 18/12 Q1022 NOSIG=
201207040620 METAR ESSA 040620Z 09006KT CAVOK 18/12 Q1022 NOSIG=
201207040550 METAR ESSA 040550Z 10006KT CAVOK 17/12 Q1022 NOSIG=
201207040520 METAR ESSA 040520Z 09005KT CAVOK 17/12 Q1022 NOSIG=
201207040450 METAR ESSA 040450Z 08005KT CAVOK 16/12 Q1022 NOSIG=
201207040420 METAR ESSA 040420Z 08004KT CAVOK 16/11 Q1022 NOSIG=
201207040350 METAR ESSA 040350Z 08006KT CAVOK 15/12 Q1022 NOSIG=
201207040320 METAR ESSA 040320Z 08006KT CAVOK 15/11 Q1022 NOSIG=
201207040250 METAR ESSA 040250Z 08005KT CAVOK 14/12 Q1022 NOSIG=
201207040220 METAR ESSA 040220Z 08004KT CAVOK 13/11 Q1022 NOSIG=
201207040150 METAR ESSA 040150Z 08004KT CAVOK 14/11 Q1022 NOSIG=
201207040120 METAR ESSA 040120Z 08005KT CAVOK 14/11 Q1022 NOSIG=
201207040050 METAR ESSA 040050Z 11004KT CAVOK 14/11 Q1022 NOSIG=
201207040020 METAR ESSA 040020Z 11004KT CAVOK 15/12 Q1022 NOSIG=
201207032350 METAR ESSA 032350Z 11004KT CAVOK 15/12 Q1022 NOSIG=
201207032320 METAR ESSA 032320Z 10005KT CAVOK 15/12 Q1021 NOSIG=
201207032250 METAR ESSA 032250Z 10004KT CAVOK 16/12 Q1021 NOSIG=
201207032220 METAR ESSA 032220Z 11005KT CAVOK 16/12 Q1021 NOSIG=
201207032150 METAR ESSA 032150Z 09005KT CAVOK 17/12 Q1021 NOSIG=
201207032120 METAR ESSA 032120Z 12005KT CAVOK 17/12 Q1021 NOSIG=
201207032050 METAR ESSA 032050Z 09006KT CAVOK 18/12 Q1021 NOSIG=
201207032020 METAR ESSA 032020Z 08007KT CAVOK 19/12 Q1021 NOSIG=
201207031950 METAR ESSA 031950Z 05006KT CAVOK 20/12 Q1020 NOSIG=
201207031920 METAR ESSA 031920Z 05005KT CAVOK 20/12 Q1020 NOSIG=
201207031850 METAR ESSA 031850Z 06006KT CAVOK 21/12 Q1020 NOSIG=
201207031820 METAR ESSA 031820Z 03007KT CAVOK 22/12 Q1020 NOSIG=
201207031750 METAR ESSA 031750Z 36005KT CAVOK 22/10 Q1020 NOSIG=
201207031720 METAR ESSA 031720Z 30005KT 260V360 CAVOK 23/10 Q1020 NOSIG=
201207031650 METAR ESSA 031650Z 35005KT 290V030 CAVOK 23/10 Q1020 NOSIG=
201207031620 METAR ESSA 031620Z 31005KT 250V330 CAVOK 23/10 Q1020 NOSIG=
201207031550 METAR ESSA 031550Z 25005KT 220V290 CAVOK 23/09 Q1020 NOSIG=
201207031520 METAR ESSA 031520Z 28006KT CAVOK 22/09 Q1020 NOSIG=
201207031450 METAR ESSA 031450Z 28006KT CAVOK 23/10 Q1020 NOSIG=
201207031420 METAR ESSA 031420Z 25007KT CAVOK 23/09 Q1020 NOSIG=
201207031350 METAR ESSA 031350Z 27007KT 240V300 CAVOK 22/09 Q1020 NOSIG=
201207031320 METAR ESSA 031320Z 23007KT 200V280 CAVOK 22/10 Q1020 NOSIG=
201207031250 METAR ESSA 031250Z 24007KT 220V280 CAVOK 22/08 Q1020 NOSIG=
201207031220 METAR ESSA 031220Z 28007KT 240V310 9999 FEW044 22/11 Q1020
                        NOSIG=
201207031150 METAR ESSA 031150Z 24008KT 210V300 9999 FEW043 22/08 Q1020
                        NOSIG=
201207031120 METAR ESSA 031120Z 26008KT 230V300 9999 FEW040 21/10 Q1020
                        NOSIG=
201207031050 METAR ESSA 031050Z 26009KT 220V290 CAVOK 21/10 Q1020 NOSIG=
201207031020 METAR ESSA 031020Z 22009KT 200V260 CAVOK 21/11 Q1020 NOSIG=
201207030950 METAR ESSA 030950Z 21009KT CAVOK 20/11 Q1020 NOSIG=
201207030920 METAR ESSA 030920Z 19009KT 9999 FEW029 19/12 Q1020 NOSIG=
201207030850 METAR ESSA 030850Z 22008KT 190V250 9999 FEW028 19/11 Q1020
                        NOSIG=
201207030820 METAR ESSA 030820Z 25008G18KT 9999 FEW027 19/12 Q1020 NOSIG=
201207030750 METAR ESSA 030750Z 25008KT 9999 FEW022 18/11 Q1020 NOSIG=
201207030720 METAR ESSA 030720Z 21006KT CAVOK 17/11 Q1020 NOSIG=
201207030650 METAR ESSA 030650Z 21007KT CAVOK 17/12 Q1020 NOSIG=
201207030620 METAR ESSA 030620Z 26007KT 9999 FEW021 16/11 Q1020 NOSIG=
201207030550 METAR ESSA 030550Z 25008KT 9999 FEW020 16/11 Q1020 NOSIG=
201207030520 METAR ESSA 030520Z 25009KT CAVOK 15/11 Q1019 NOSIG=
201207030450 METAR ESSA 030450Z 26010KT CAVOK 15/11 Q1019 NOSIG=
201207030420 METAR ESSA 030420Z 26009KT CAVOK 14/11 Q1019 NOSIG=
201207030350 METAR ESSA 030350Z 24008KT CAVOK 14/11 Q1019 NOSIG=
201207030320 METAR ESSA 030320Z 25006KT CAVOK 14/10 Q1019 NOSIG=
201207030250 METAR ESSA 030250Z 21006KT CAVOK 13/11 Q1019 NOSIG=
201207030220 METAR ESSA 030220Z 24007KT CAVOK 13/11 Q1019 NOSIG=
201207030150 METAR ESSA 030150Z 24008KT CAVOK 13/11 Q1019 NOSIG=
201207030120 METAR ESSA 030120Z 23009KT CAVOK 14/11 Q1019 NOSIG=
201207030050 METAR ESSA 030050Z 24006KT CAVOK 14/11 Q1019 NOSIG=
201207030020 METAR ESSA 030020Z 25007KT CAVOK 14/11 Q1019 NOSIG=
201207022350 METAR ESSA 022350Z 25007KT CAVOK 14/11 Q1018 NOSIG=
201207022320 METAR ESSA 022320Z 26008KT CAVOK 15/11 Q1018 NOSIG=
201207022250 METAR ESSA 022250Z 23009KT CAVOK 15/11 Q1018 NOSIG=
201207022220 METAR ESSA 022220Z 22008KT CAVOK 15/12 Q1018 NOSIG=
201207022150 METAR ESSA 022150Z 23009KT CAVOK 15/11 Q1018 NOSIG=
201207022120 METAR ESSA 022120Z 22008KT CAVOK 15/11 Q1018 NOSIG=
201207022050 METAR ESSA 022050Z 22008KT CAVOK 15/11 Q1018 NOSIG=
201207022020 METAR ESSA 022020Z 23011KT CAVOK 16/11 Q1018 NOSIG=
201207021950 METAR ESSA 021950Z 24011KT CAVOK 17/11 Q1017 NOSIG=
201207021920 METAR ESSA 021920Z 22014KT CAVOK 18/11 Q1017 NOSIG=
201207021850 METAR ESSA 021850Z 23013KT CAVOK 18/11 Q1017 NOSIG=
201207021820 METAR ESSA 021820Z 23014KT 9999 FEW035 18/11 Q1017 NOSIG=
201207021750 METAR ESSA 021750Z 24016KT 9999 SCT035 19/11 Q1016 NOSIG=
201207021720 METAR ESSA 021720Z 24016KT 9999 SCT045 19/11 Q1016 NOSIG=
201207021650 METAR ESSA 021650Z 25015KT 9999 SCT043 20/10 Q1016 NOSIG=
201207021620 METAR ESSA 021620Z 25016KT 9999 SCT045 20/10 Q1016 NOSIG=
201207021550 METAR ESSA 021550Z 25017KT 9999 SCT043 20/11 Q1016 NOSIG=
201207021520 METAR ESSA 021520Z 25018KT 9999 SCT045 20/10 Q1016 NOSIG=
201207021450 METAR ESSA 021450Z 25015KT 9999 SCT045 20/10 Q1016 NOSIG=
201207021420 METAR ESSA 021420Z 25016KT 9999 SCT042 20/10 Q1016 NOSIG=
201207021350 METAR ESSA 021350Z 25014KT 9999 SCT042 19/10 Q1016 NOSIG=
201207021320 METAR ESSA 021320Z 25020KT 9999 SCT040 19/10 Q1016 NOSIG=
201207021250 METAR ESSA 021250Z 25018KT 9999 SCT040 20/10 Q1015 NOSIG=
201207021220 METAR ESSA 021220Z 25018KT 9999 SCT040 19/10 Q1015 NOSIG=
201207021150 METAR ESSA 021150Z 25019KT 9999 SCT040 BKN062 18/09 Q1015
                        NOSIG=
201207021120 METAR ESSA 021120Z 25019KT 9999 FEW043 BKN059 19/10 Q1015
                        NOSIG=
201207021050 METAR ESSA 021050Z 25020KT 9999 SCT044 BKN051 18/09 Q1015
                        NOSIG=
201207021020 METAR ESSA 021020Z 24018KT 9999 SCT038 BKN053 18/09 Q1015
                        NOSIG=
201207020950 METAR ESSA 020950Z 25018KT 9999 BKN038 18/09 Q1014 NOSIG=
201207020920 METAR ESSA 020920Z 25017KT 9999 BKN038 18/10 Q1014 NOSIG=
201207020850 METAR ESSA 020850Z 25018KT 9999 SCT036 17/09 Q1014 NOSIG=
201207020820 METAR ESSA 020820Z 24017KT 9999 SCT032 17/09 Q1013 NOSIG=
201207020750 METAR ESSA 020750Z 25018KT 9999 BKN030 16/09 Q1013 NOSIG=
201207020720 METAR ESSA 020720Z 25019KT 9999 SCT028 BKN035 16/09 Q1013
                        NOSIG=
201207020650 METAR ESSA 020650Z 23016KT 9999 SCT025 15/10 Q1013 NOSIG=
201207020620 METAR ESSA 020620Z 24014KT 9999 BKN023 15/10 Q1013 NOSIG=
201207020550 METAR ESSA 020550Z 24015KT 9999 SCT021 BKN028 15/10 Q1013
                        NOSIG=
201207020520 METAR ESSA 020520Z 24012KT 9999 BKN020 15/10 Q1012 NOSIG=
201207020450 METAR ESSA 020450Z 25014KT 9999 BKN020 14/10 Q1012 NOSIG=
201207020420 METAR ESSA 020420Z 23013KT 9999 FEW020 14/11 Q1012 NOSIG=
201207020350 METAR ESSA 020350Z 24010KT CAVOK 14/11 Q1012 NOSIG=
201207020320 METAR ESSA 020320Z 23010KT CAVOK 14/11 Q1012 NOSIG=
201207020250 METAR ESSA 020250Z 23009KT CAVOK 14/11 Q1011 NOSIG=
201207020220 METAR ESSA 020220Z 22008KT CAVOK 14/11 Q1011 NOSIG=
201207020150 METAR ESSA 020150Z 22009KT CAVOK 14/11 Q1010 NOSIG=
201207020120 METAR ESSA 020120Z 21008KT CAVOK 14/12 Q1010 NOSIG=
201207020050 METAR ESSA 020050Z 22007KT CAVOK 14/12 Q1010 NOSIG=
201207020020 METAR ESSA 020020Z 20006KT CAVOK 14/12 Q1010 NOSIG=
201207012350 METAR ESSA 012350Z 23007KT 9999 SCT035 15/12 Q1010 NOSIG=
201207012320 METAR ESSA 012320Z 24005KT CAVOK 15/11 Q1010 NOSIG=
201207012250 METAR ESSA 012250Z 22006KT CAVOK 15/11 Q1010 NOSIG=
201207012220 METAR ESSA 012220Z 23007KT CAVOK 15/11 Q1010 NOSIG=
201207012150 METAR ESSA 012150Z 24006KT CAVOK 16/11 Q1010 NOSIG=
201207012120 METAR ESSA 012120Z 25006KT CAVOK 16/12 Q1009 NOSIG=
201207012050 METAR ESSA 012050Z 23007KT CAVOK 17/12 Q1009 NOSIG=
201207012020 METAR ESSA 012020Z 26009KT CAVOK 17/12 Q1009 NOSIG=
201207011950 METAR ESSA 011950Z 25010KT 9999 FEW030 18/13 Q1009 NOSIG=
201207011920 METAR ESSA 011920Z 22010KT CAVOK 18/14 Q1008 NOSIG=
201207011850 METAR ESSA 011850Z 21011KT 9999 FEW025 SCT035 19/14 Q1008
                        BECMG 25012KT=
201207011820 METAR ESSA 011820Z 20011KT 9999 FEW026 SCT032 19/14 Q1008
                        BECMG 25012KT=
201207011750 METAR ESSA 011750Z 18011KT CAVOK 19/14 Q1007 BECMG 25012KT=
201207011720 METAR COR ESSA 011720Z 18014KT CAVOK 20/14 Q1007 BECMG 25012KT=
201207011650 METAR ESSA 011650Z 18015KT CAVOK 20/14 Q1007 NOSIG=
201207011620 METAR ESSA 011620Z 19017KT CAVOK 20/14 Q1008 NOSIG=
201207011550 METAR ESSA 011550Z 18021KT 9999 FEW027 SCT045 21/13 Q1008
                        NOSIG=
201207011520 METAR ESSA 011520Z 18017KT 9999 SCT045 21/12 Q1008 NOSIG=
201207011450 METAR ESSA 011450Z 18013KT CAVOK 21/14 Q1008 NOSIG=
201207011420 METAR ESSA 011420Z 18012KT 9999 -RA FEW027 SCT045 BKN080
                        19/15 Q1008 RERA NOSIG=
201207011350 METAR ESSA 011350Z 18017KT 9999 -DZ SCT034 BKN080 21/13 Q1009
                        NOSIG=
201207011320 METAR ESSA 011320Z 16017KT 9999 FEW040 BKN110 22/13 Q1009
                        NOSIG=
201207011250 METAR ESSA 011250Z 18016KT 9999 SCT043 BKN120 23/12 Q1008
                        NOSIG=
201207011220 METAR ESSA 011220Z 18016KT 9999 SCT047 24/12 Q1009 NOSIG=
201207011150 METAR ESSA 011150Z 18014KT CAVOK 24/11 Q1009 NOSIG=
201207011120 METAR ESSA 011120Z 19014KT 9999 SCT048 24/12 Q1009 NOSIG=
201207011050 METAR ESSA 011050Z 17015KT CAVOK 24/11 Q1009 NOSIG=
201207011020 METAR ESSA 011020Z 17011KT 9999 FEW045 BKN190 23/11 Q1009
                        NOSIG=
201207010950 METAR ESSA 010950Z 18009KT 140V210 9999 FEW042 BKN180 23/13
                        Q1010 NOSIG=
201207010920 METAR ESSA 010920Z 22008KT 9999 FEW039 BKN180 22/13 Q1010
                        NOSIG=
201207010850 METAR ESSA 010850Z 23010KT 180V250 9999 SCT036 22/14 Q1010
                        NOSIG=
201207010820 METAR ESSA 010820Z 22010KT 9999 SCT032 22/14 Q1011 NOSIG=
201207010750 METAR ESSA 010750Z 21011KT 9999 SCT028 21/14 Q1011 NOSIG=
201207010720 METAR ESSA 010720Z 21010KT 9999 SCT026 20/14 Q1011 NOSIG=
201207010650 METAR ESSA 010650Z 20009KT 170V230 9999 FEW023 20/14 Q1011
                        NOSIG=
201207010620 METAR ESSA 010620Z 19009KT 9999 SCT021 19/14 Q1012 NOSIG=
201207010550 METAR ESSA 010550Z 21009KT CAVOK 19/14 Q1011 NOSIG=
201207010520 METAR ESSA 010520Z 22008KT CAVOK 18/14 Q1011 NOSIG=
201207010450 METAR ESSA 010450Z 22010KT CAVOK 17/13 Q1011 NOSIG=
201207010420 METAR ESSA 010420Z 22006KT CAVOK 17/14 Q1010 NOSIG=
201207010350 METAR ESSA 010350Z 22006KT CAVOK 16/13 Q1011 NOSIG=
201207010320 METAR ESSA 010320Z 21007KT CAVOK 16/13 Q1011 NOSIG=
201207010250 METAR ESSA 010250Z 22008KT CAVOK 15/13 Q1011 NOSIG=
201207010220 METAR ESSA 010220Z 22007KT CAVOK 15/13 Q1011 NOSIG=
201207010150 METAR ESSA 010150Z 23008KT CAVOK 15/13 Q1011 NOSIG=
201207010120 METAR ESSA 010120Z 24008KT CAVOK 15/14 Q1011 NOSIG=
201207010050 METAR ESSA 010050Z 21007KT CAVOK 16/13 Q1011 NOSIG=
201207010020 METAR ESSA 010020Z 22005KT CAVOK 15/13 Q1011 NOSIG=

# No short TAF reports from ESSA in databse.

###################################
#  large TAF from ESSA
###################################
201207312330 TAF ESSA 312330Z 0100/0124 19006KT CAVOK=
201207311730 TAF ESSA 311730Z 3118/0118 19010KT CAVOK
                      PROB30 3118/3120 SHRA SCT040CB=
201207311130 TAF ESSA 311130Z 3112/0112 20014KT 9999 SCT040
                      PROB30 3112/3117 SHRA TS SCT035CB=
201207310614 TAF AMD ESSA 310614Z 3106/0106 19012KT 9999 SCT025
                      TEMPO 3106/3108 BKN012
                      PROB30 3106/3115 SHRA SCT050CB=
201207310530 TAF ESSA 310530Z 3106/0106 19010KT CAVOK
                      PROB30 3106/3112 SHRA BKN050CB=
201207302330 TAF ESSA 302330Z 3100/3124 18006KT CAVOK
                      PROB30 3101/3112 SHRA BKN050CB=
201207301730 TAF ESSA 301730Z 3018/3118 24008KT CAVOK
                      TEMPO 3101/3112 SHRA BKN050CB=
201207301130 TAF ESSA 301130Z 3012/3112 22012KT CAVOK
                      TEMPO 3106/3112 SHRA BKN050CB=
201207300530 TAF ESSA 300530Z 3006/3106 26005KT CAVOK=
201207300228 TAF AMD ESSA 300228Z 3002/3024 28006KT 9999 -RA SCT040 BKN090=
201207292330 TAF ESSA 292330Z 3000/3024 28006KT 9999 -RA SCT040 BKN090
                      TEMPO 3000/3006 4000 RA BKN007 BKN040CB=
201207292300 TAF AMD ESSA 300228Z 3002/3024 28006KT 9999 -RA SCT040 BKN090=
201207291845 TAF AMD ESSA 291845Z 2919/3018 26008KT CAVOK
                      TEMPO 2920/3006 4000 RA BKN007 BKN040CB
                      PROB40 2920/3006 4000 TSRA
                      TEMPO 3000/3004 32010KT=
201207291839 TAF AMD ESSA 291839Z 2919/3018 26008KT CAVOK
                      TEMPO 2920/3006 4000 RA BKN007 BKN040CB
                      TEMPO 2920/3006 4000 TSRA
                      TEMPO 3000/3004 32010KT=
201207291730 TAF ESSA 291730Z 2918/3018 26008KT CAVOK
                      TEMPO 2921/3006 4000 RA BKN007 SCT040CB
                      TEMPO 3000/3004 32010KT=
201207291130 TAF ESSA 291130Z 2912/3012 25005KT CAVOK
                      TEMPO 2921/3007 4000 RA BKN007 SCT040CB
                      TEMPO 3000/3004 32010KT=
201207290530 TAF ESSA 290530Z 2906/3006 25012KT 9999 SCT025
                      TEMPO 2920/3004 3000 RA BKN014=
201207282330 TAF ESSA 282330Z 2900/2924 13008KT CAVOK
                      PROB30 2902/2905 BKN005
                      BECMG 2904/2906 24010KT
                      TEMPO 2920/2924 RA=
201207281730 TAF ESSA 281730Z 2818/2918 13010KT CAVOK
                      TEMPO 2823/2906 3000 SHRA BKN005 BKN040CB
                       PROB30
                      TEMPO 2823/2902 TSRA
                      BECMG 2904/2906 24010KT=
201207281130 TAF ESSA 281130Z 2812/2912 12013KT 9999 FEW050TCU
                      TEMPO 2823/2906 3000 SHRA BKN005 BKN040CB
                       PROB30
                      TEMPO 2823/2902 TSRA
                      BECMG 2904/2906 24010KT=
201207280530 TAF ESSA 280530Z 2806/2906 12010KT CAVOK
                      PROB40 2901/2906 4000 SHRA BKN014 BKN040CB
                       BECMG 2901/2903 19012KT=
201207272330 TAF ESSA 272330Z 2800/2824 10006KT 9999 SCT030
                      PROB40 2800/2806 BKN012=
201207271730 TAF ESSA 271730Z 2718/2818 12009KT CAVOK=
201207271130 TAF ESSA 271130Z 2712/2812 13011KT CAVOK=
201207270530 TAF ESSA 270530Z 2706/2806 05005KT CAVOK
                      BECMG 2706/2709 11010KT=
201207262330 TAF ESSA 262330Z 2700/2724 02003KT CAVOK
                      BECMG 2706/2709 11010KT=
201207261730 TAF ESSA 261730Z 2618/2718 02007KT CAVOK
                      BECMG 2706/2709 11010KT=
201207261130 TAF ESSA 261130Z 2612/2712 36010KT 9999 SCT030 SCT060=
201207260530 TAF ESSA 260530Z 2606/2706 36010KT 9999 FEW035 BKN060
                      PROB30 2606/2607 BKN010
                      PROB30 2610/2618 SHRA BKN045CB
                      BECMG 2619/2621 VRB03KT=
201207252330 TAF ESSA 252330Z 2600/2624 18005KT CAVOK
                      BECMG 2604/2607 02010KT
                      PROB30 2606/2624 SHRA BKN045CB=
201207251730 TAF ESSA 251730Z 2518/2618 18010KT CAVOK
                      BECMG 2521/2523 VRB03KT
                      BECMG 2604/2607 02010KT
                      PROB30 2606/2618 SHRA BKN045CB=
201207251130 TAF ESSA 251130Z 2512/2612 20011KT CAVOK
                      TEMPO 2515/2607 SHRA SCT040CB
                      BECMG 2604/2607 02010KT=
201207250530 TAF ESSA 250530Z 2506/2606 22005KT CAVOK
                      TEMPO 2518/2603 SHRA SCT040CB=
201207242330 TAF ESSA 242330Z 2500/2524 24008KT CAVOK
                      TEMPO 2518/2524 SHRA SCT040CB=
201207241730 TAF ESSA 241730Z 2418/2518 23010KT CAVOK
                      TEMPO 2516/2518 SHRA SCT040CB=
201207241130 TAF ESSA 241130Z 2412/2512 25014KT 9999 BKN030=
201207240530 TAF ESSA 240530Z 2406/2506 24012KT 9999 BKN020=
201207232330 TAF ESSA 232330Z 2400/2424 25015KT 9999 BKN020
                      PROB30 2401/2407 BKN014=
201207232254 TAF AMD ESSA 232254Z 2322/2418 25015KT 9999 BKN020
                      PROB40 2400/2407 BKN013=
201207231730 TAF ESSA 231730Z 2318/2418 24014KT 9999 BKN020
                      BECMG 2321/2323 BKN012
                      BECMG 2323/2401 BKN008
                      BECMG 2407/2409 BKN012
                      BECMG 2409/2411 BKN020=
201207231700 TAF ESSA 231700Z NIL=
201207231130 TAF ESSA 231130Z 2312/2412 24015G25KT 9999 BKN025
                      TEMPO 2321/2408 BKN012=
201207230530 TAF ESSA 230530Z 2306/2406 22015KT 9999 BKN020
                      TEMPO 2306/2318 4000 RADZ BKN011
                      TEMPO 2318/2406 BKN012=
201207222330 TAF ESSA 222330Z 2300/2324 23015KT CAVOK
                      TEMPO 2301/2308 4000 RA BKN011
                      TEMPO 2308/2324 BKN012
                      PROB40 2314/2318 RA=
201207221730 TAF ESSA 221730Z 2218/2318 23012KT CAVOK
                      TEMPO 2301/2318 4000 RA BKN010=
201207221130 TAF ESSA 221130Z 2212/2312 22014KT CAVOK
                      TEMPO 2301/2312 3000 RA BKN020
                      BECMG 2305/2307 -RA BKN010=
201207220530 TAF ESSA 220530Z 2206/2306 24009KT CAVOK=
201207212330 TAF ESSA 212330Z 2200/2224 18004KT CAVOK
                      BECMG 2206/2209 24010KT=
201207211730 TAF ESSA 211730Z 2118/2218 35008KT CAVOK
                      BECMG 2206/2209 24010KT=
201207211130 TAF ESSA 211130Z 2112/2212 35008KT 9999 SCT040
                      BECMG 2204/2207 24010KT=
201207210530 TAF ESSA 210530Z 2106/2206 33009KT 9999 SCT011 BKN020
                      TEMPO 2106/2107 DZRA BKN011=
201207202330 TAF ESSA 202330Z 2100/2124 34005KT CAVOK
                      TEMPO 2100/2106 SHRA BKN030CB
                      PROB30 2100/2104 3000 DZRA BKN004=
201207201730 TAF ESSA 201730Z 2018/2118 06006KT 9999 SCT045
                      TEMPO 2018/2106 SHRA TS BKN030CB
                      PROB40 2022/2106 1200 DZRA BKN004
                      BECMG 2106/2108 CAVOK=
201207201236 TAF COR ESSA 201236Z 2012/2112 VRB03KT CAVOK
                      TEMPO 2012/2018 SHRA TS BKN030CB
                      BECMG 2020/2022 RA
                      PROB40 2022/2106 1200 DZRA BKN004
                      BECMG 2106/2108 CAVOK=
201207201130 TAF ESSA 201130Z 2012/2112 VRB03KT CAVOK
                      TEMPO 2012/2018 SHRA TS BKN030CB
                      BECMG 2020/2022 RA
                      PROB40 2022/2106 1200 DZRA BKN004
                      BECMG 2106/2110 CAVOK=
201207200530 TAF ESSA 200530Z 2006/2106 VRB03KT CAVOK
                      TEMPO 2011/2106 SHRA BKN020CB
                      PROB40 2023/2106 4000 BR BKN004=
201207192330 TAF ESSA 192330Z 2000/2024 VRB03KT CAVOK
                      TEMPO 2002/2005 2000 MIFG
                      TEMPO 2011/2018 SHRA BKN020CB=
201207191730 TAF ESSA 191730Z 1918/2018 13005KT CAVOK
                      PROB40 2002/2005 2000 MIFG
                      TEMPO 2011/2018 SHRA BKN020CB=
201207191130 TAF ESSA 191130Z 1912/2012 14005KT CAVOK
                      PROB40 2002/2005 2000 MIFG=
201207190530 TAF ESSA 190530Z 1906/2006 VRB02KT CAVOK=
201207182330 TAF ESSA 182330Z 1900/1924 VRB02KT CAVOK
                      TEMPO 1900/1904 0700 BCFG=
201207181730 TAF ESSA 181730Z 1818/1918 VRB02KT CAVOK
                      TEMPO 1820/1905 0700 BCFG=
201207181130 TAF ESSA 181130Z 1812/1912 22005KT 9999 BKN035
                      TEMPO 1812/1818 SHRA BKN030CB
                      TEMPO 1821/1906 0700 BCFG=
201207180530 TAF ESSA 180530Z 1806/1906 VRB02KT CAVOK
                      TEMPO 1808/1818 SHRA BKN030CB
                      TEMPO 1821/1905 0700 BCFG=
201207172330 TAF ESSA 172330Z 1800/1824 VRB02KT 9999 MIFG NSC
                      PROB30 1800/1805 0700 BCFG
                      TEMPO 1808/1818 SHRA BKN030CB=
201207171735 TAF COR ESSA 171735Z 1718/1818 VRB02KT 9999 FEW030
                      PROB30 1723/1805 0700 BCFG=
201207171130 TAF ESSA 171130Z 1712/1812 35006KT 9999 SCT030TCU
                      TEMPO 1712/1720 SHRA BKN030CB
                      PROB30 1712/1718 VRB15G25KT 4000 TSRA
                      PROB30 1723/1805 0700 BCFG=
201207171052 TAF AMD ESSA 171052Z 1710/1812 01007KT 9999 SCT030TCU
                      TEMPO 1711/1720 SHRA BKN030CB
                      PROB30 1711/1718 VRB15G25KT 4000 TSRA
                      PROB30 1723/1805 0700 BCFG=
201207170530 TAF ESSA 170530Z 1706/1806 24008KT CAVOK
                      PROB30 1706/1708 BKN012
                      TEMPO 1710/1718 4000 SHRA BKN030CB
                      PROB40 1722/1806 0900 FG VV002=
201207162330 TAF ESSA 162330Z 1700/1724 25008KT CAVOK
                      PROB30 1711/1719 SHRA BKN040CB=
201207161922 TAF AMD ESSA 161922Z 1619/1718 26009KT 9999 SCT040
                      PROB40 1619/1621 SHRA BKN040CB
                      PROB30 1705/1718 SHRA BKN040CB=
201207161730 TAF ESSA 161730Z 1618/1718 26010KT 9999 SCT040
                      PROB30 1705/1718 SHRA BKN040CB=
201207161421 TAF AMD ESSA 161421Z 1614/1712 35007KT 9999 SCT040
                      BECMG 1617/1620 24010KT=
201207161130 TAF ESSA 161130Z 1612/1712 25016KT 9999 SCT040
                      TEMPO 1613/1619 4000 SHRA BKN030CB=
201207160530 TAF ESSA 160530Z 1606/1706 25012KT 9999 SCT015
                      TEMPO 1612/1619 4000 SHRA BKN030CB=
201207152330 TAF ESSA 152330Z 1600/1624 26009KT CAVOK
                      TEMPO 1612/1619 4000 SHRA BKN030CB=
201207151730 TAF ESSA 151730Z 1518/1618 25006KT 9999 SCT030
                      TEMPO 1612/1618 4000 SHRA BKN030CB=
201207151130 TAF ESSA 151130Z 1512/1612 29008KT 9999 -RA SCT010 BKN030
                      BECMG 1513/1515 23010KT
                      TEMPO 1512/1520 4000 RA BKN008
                      TEMPO 1520/1612 SHRA BKN012 BKN030CB=
201207150659 TAF AMD ESSA 150659Z 1507/1606 34006KT 9999 -RA SCT010 BKN030
                      TEMPO 1507/1510 4000 RA BKN008
                      BECMG 1513/1515 24010KT
                      TEMPO 1513/1520 SHRA BKN030CB=
201207150530 TAF ESSA 150530Z 1506/1606 34006KT 9999 -RA SCT010 BKN030
                      PROB40 1506/1510 4000 RA BKN012
                      PROB40 1513/1517 SHRA SCT030CB
                      BECMG 1515/1517 24010KT=
201207150331 TAF AMD ESSA 150331Z 1503/1524 33006KT 9999 -RA SCT010 BKN030
                      TEMPO 1503/1509 4000 RA BKN004
                      PROB40 1511/1516 TSRA SCT030CB
                      BECMG 1515/1517 24010KT=
201207150005 TAF AMD ESSA 150005Z 1500/1524 07005KT 9999 -RA SCT010 BKN030
                      TEMPO 1500/1509 4000 RA BKN007
                      PROB40 1511/1516 TSRA SCT030CB
                      BECMG 1515/1517 24010KT=
201207142330 TAF ESSA 142330Z 1500/1524 10005KT 9999 SCT035TCU
                      PROB30 1500/1504 0800 BCFG
                      PROB40 1511/1516 TSRA SCT030CB
                      BECMG 1515/1517 24010KT=
201207142300 TAF AMD ESSA 150331Z 1503/1524 33006KT 9999 -RA SCT010 BKN030
                      TEMPO 1503/1509 4000 RA BKN004
                      PROB40 1511/1516 TSRA SCT030CB
                      BECMG 1515/1517 24010KT=
201207141730 TAF ESSA 141730Z 1418/1518 10005KT 9999 SCT035
                      PROB30 1422/1504 0800 BCFG
                      PROB40 1511/1516 TSRA SCT030CB
                      BECMG 1515/1517 24010KT=
201207141130 TAF ESSA 141130Z 1412/1512 14010KT 9999 BKN035TCU
                      TEMPO 1412/1417 SHRA BKN030CB
                      BECMG 1420/1422 08003KT
                      PROB30 1422/1504 0800 BCFG
                      PROB40 1511/1512 TSRA SCT030CB=
201207140530 TAF ESSA 140530Z 1406/1506 18006KT CAVOK
                      TEMPO 1414/1420 SHRA BKN030CB
                      PROB40 1420/1504 0800 BCFG=
201207132330 TAF ESSA 132330Z 1400/1424 19006KT CAVOK
                      TEMPO 1414/1421 SHRA BKN030CB
                      PROB40 1421/1424 0800 BCFG=
201207131730 TAF ESSA 131730Z 1318/1418 17007KT 9999 FEW040CB
                      TEMPO 1416/1418 RA=
201207131130 TAF ESSA 131130Z 1312/1412 22012KT 9999 FEW040
                      TEMPO 1312/1319 SHRA TS BKN040CB
                      BECMG 1410/1412 09005KT=
201207130811 TAF AMD ESSA 130811Z 1308/1406 24009KT CAVOK
                      TEMPO 1310/1320 SHRA TS BKN040CB=
201207130530 TAF ESSA 130530Z 1306/1406 24007KT CAVOK
                      TEMPO 1315/1320 SHRA BKN040CB=
201207122330 TAF ESSA 122330Z 1300/1324 16005KT CAVOK
                      PROB30 1300/1305 2000 BCFG
                      TEMPO 1315/1318 SHRA BKN040CB=
201207121730 TAF ESSA 121730Z 1218/1318 20009KT CAVOK
                      TEMPO 1315/1318 SHRA BKN040CB=
201207121130 TAF ESSA 121130Z 1212/1312 20010KT 9999 SCT040TCU
                      TEMPO 1212/1218 SHRA BKN030CB=
201207120530 TAF ESSA 120530Z 1206/1306 13006KT 9999 BKN006
                      BECMG 1206/1208 19010KT NSC
                      TEMPO 1211/1215 SHRA SCT030CB=
201207120440 TAF AMD ESSA 120440Z 1204/1224 12005KT 9999 BKN006
                      BECMG 1205/1207 19010KT NSC
                      TEMPO 1210/1215 SHRA BKN020CB=
201207120048 TAF AMD ESSA 120048Z 1201/1224 12005KT 9999 -RA SCT006
                      TEMPO 1201/1204 4000 SHRA BKN004 BKN020CB
                       BECMG 1205/1207 19010KT
                      TEMPO 1210/1215 SHRA BKN020CB=
201207112330 TAF ESSA 112330Z 1200/1224 12005KT CAVOK
                      TEMPO 1200/1204 4000 SHRA BKN008 BKN020CB
                       BECMG 1205/1207 19010KT
                      TEMPO 1210/1215 SHRA BKN020CB=
201207112300 TAF AMD ESSA 120440Z 1204/1224 12005KT 9999 BKN006
                      BECMG 1205/1207 19010KT NSC
                      TEMPO 1210/1215 SHRA BKN020CB=
201207111730 TAF ESSA 111730Z 1118/1218 24012KT 9999 FEW045
                      BECMG 1118/1120 18005KT
                      TEMPO 1200/1208 4000 SHRA BKN008 BKN020CB
                       PROB40 1200/1208 TSRA
                      TEMPO 1208/1214 SHRA BKN020CB=
201207111130 TAF ESSA 111130Z 1112/1212 22012KT 9999 SCT025 BKN040
                      BECMG 1117/1119 15008KT
                      TEMPO 1122/1212 4000 SHRA BKN008 BKN020CB=
201207110530 TAF ESSA 110530Z 1106/1206 24009KT 8000 BR BKN005
                      PROB30 1106/1107 4000 BKN004
                      BECMG 1107/1110 SCT010 BKN015
                      TEMPO 1122/1206 4000 SHRA BKN008 BKN015CB=
201207102330 TAF ESSA 102330Z 1100/1124 33007KT 5000 BR BKN002
                      TEMPO 1100/1106 1400 SHRA BR BKN005 BKN015CB
                       BECMG 1104/1107 25012KT BKN006
                      BECMG 1107/1109 BKN015=
201207102028 TAF AMD ESSA 102028Z 1020/1118 04010KT 9999 SCT004 BKN015
                      TEMPO 1020/1106 SHRA BKN003 BKN015CB
                      PROB30 1022/1106 VRB03KT 1200 BR
                      BECMG 1104/1107 25012KT=
201207101853 TAF AMD ESSA 101853Z 1018/1118 04010KT 9999 SCT004 BKN015
                      TEMPO 1018/1106 SHRA BKN003 BKN015CB
                      PROB30 1022/1106 VRB03KT 4000 BR
                      BECMG 1104/1107 25012KT=
201207101730 TAF ESSA 101730Z 1018/1118 04010KT 9999 SCT006 BKN015
                      TEMPO 1018/1106 SHRA BKN006 BKN015CB
                      PROB30 1022/1106 VRB03KT 4000 BR
                      BECMG 1104/1107 25012KT=
201207101130 TAF ESSA 101130Z 1012/1112 VRB03KT 9999 SCT020 BKN050
                      TEMPO 1012/1112 SHRA BKN014 SCT030CB
                      PROB30 1022/1110 4000 BKN008
                      BECMG 1101/1102 25013KT=
201207100837 TAF AMD ESSA 100837Z 1008/1106 10005KT 9999 BKN008
                      BECMG 1008/1010 22010KT BKN020
                      TEMPO 1010/1106 SHRA BKN014 SCT030CB
                      BECMG 1017/1018 03005KT
                      PROB30 1022/1106 4000 BKN008
                      BECMG 1023/1101 250101KT=
201207100530 TAF ESSA 100530Z 1006/1106 10005KT 9999 BKN008
                      BECMG 1006/1008 22010KT BKN020
                      TEMPO 1008/1106 VRB10KT SHRA BKN014 SCT030CB
                       PROB30 1022/1106 4000 BKN008=
201207091730 TAF COR ESSA 091730Z 0918/1018 36007KT 9999 SCT040
                      PROB30 0918/1006 4000 SHRA BR BKN008 FEW040CB
                       BECMG 1001/1003 22010KT
                      TEMPO 1012/1018 SHRA SCT030CB=
201207091700 TAF ESSA 091700Z NIL=
201207091130 TAF ESSA 091130Z 0912/1012 28012KT 9999 SCT020
                      PROB40 0914/1012 SHRA BKN030CB
                      TEMPO 0914/0921 4000 TSRA
                      BECMG 0916/0919 01008KT=
201207090710 TAF AMD ESSA 090710Z 0907/1006 23012KT 4000 -DZ BR BKN004
                      BECMG 0907/0909 9999 SCT010
                      PROB30 0909/0912 BKN012
                      PROB40 0914/1006 SHRA BKN030CB
                      TEMPO 0914/0921 4000 TSRA=
201207090530 TAF ESSA 090530Z 0906/1006 23012KT 9999 BKN010
                      BECMG 0906/0908 SCT010
                      PROB40 0914/1006 SHRA BKN030CB
                      TEMPO 0914/0921 4000 TSRA=
201207082330 TAF ESSA 082330Z 0900/0924 25010KT 7000 BR SCT004 BKN015
                      TEMPO 0900/0903 4000 SHRA BKN004 BKN030CB
                       PROB40 0903/0906 1200 BKN002
                      BECMG 0914/0916 19010KT
                      PROB40 0915/0924 SHRA BKN030CB=
201207081730 TAF ESSA 081730Z 0818/0918 16005KT 7000 BR SCT003 BKN015
                      TEMPO 0818/0821 4000 SHRA BKN007 BKN030CB
                       PROB40 0821/0906 1200 BKN002=
201207081602 TAF AMD ESSA 081602Z 0816/0912 14006KT 7000 BR SCT003 BKN008
                      TEMPO 0816/0821 2000 SHRA BR BKN003 BKN030CB
                       BECMG 0821/0823 1200 BR BKN002
                      BECMG 0904/0906 9999 NSW BKN015=
201207081600 TAF AMD ESSA 081600Z 0816/0912 14006KT 7000 BR SCT003 BKN008
                      TEMPO 0816/0821 4000 SHRA BR BKN003 BKN030CB
                       BECMG 0821/0823 1200 BR BKN002
                      BECMG 0904/0906 9999 NSW BKN015=
201207081548 TAF AMD ESSA 081548Z 0815/0912 14006KT 7000 BR SCT003 BKN008
                      TEMPO 0815/0821 SHRA BKN003 BKN030CB
                      BECMG 0821/0823 1200 BR BKN002
                      BECMG 0904/0906 9999 NSW BKN015=
201207081431 TAF AMD ESSA 081431Z 0815/0912 VRB03KT 9999 BKN008
                      TEMPO 0815/0821 SHRA BKN010 BKN030CB
                      BECMG 0821/0823 1200 BR BKN002
                      BECMG 0904/0906 9999 NSW BKN015=
201207081130 TAF ESSA 081130Z 0812/0912 VRB03KT 9999 BKN012
                      TEMPO 0812/0814 BKN008
                      BECMG 0814/0816 BKN016
                      TEMPO 0817/0821 SHRA BKN009 BKN030CB
                      BECMG 0821/0823 1200 BR BKN002
                      BECMG 0904/0906 9999 NSW BKN015=
201207080707 TAF AMD ESSA 080707Z 0807/0906 VRB03KT 1500 BR BKN003
                      BECMG 0807/0809 6000 BKN006
                      BECMG 0809/0811 BKN015
                      TEMPO 0811/0822 SHRA BKN009 BKN020CB
                      TEMPO 0822/0906 1200 BR BKN002=
201207080530 TAF ESSA 080530Z 0806/0906 VRB03KT 1500 BR BKN002
                      BECMG 0806/0809 9999 SCT006 BKN015
                      TEMPO 0809/0822 4000 SHRA BKN008 BKN020CB
                       TEMPO 0822/0906 1200 BR BKN002=
201207080006 TAF AMD ESSA 080006Z 0800/0824 VRB03KT 0200 FG VV002
                      TEMPO 0800/0806 1500 BR BKN005
                      BECMG 0806/0808 9999 SCT015
                      TEMPO 0811/0824 4000 SHRA BKN020CB
                      PROB40 0822/0824 2000 BR BKN004=
201207072330 TAF ESSA 072330Z 0800/0824 VRB03KT 0200 FG VV002
                      TEMPO 0800/0806 1500 BR BKN005
                      BECMG 0806/0808 9999
                      TEMPO 0811/0824 4000 SHRA BKN020CB
                      PROB40 0822/0824 2000 BR BKN004=
201207072300 TAF AMD ESSA 080006Z 0800/0824 VRB03KT 0200 FG VV002
                      TEMPO 0800/0806 1500 BR BKN005
                      BECMG 0806/0808 9999 SCT015
                      TEMPO 0811/0824 4000 SHRA BKN020CB
                      PROB40 0822/0824 2000 BR BKN004=
201207071730 TAF ESSA 071730Z 0718/0818 VRB03KT 9999 FEW020 BKN045
                      PROB40 0721/0809 4000 BR BKN006
                      BECMG 0806/0808 26010KT
                      TEMPO 0811/0818 4000 SHRA BKN020CB=
201207071130 TAF ESSA 071130Z 0712/0812 11008KT 9999 BKN035
                      PROB30 0712/0716 4000 SHRA BKN030CB
                      TEMPO 0721/0803 BKN008
                      PROB40 0803/0812 4000 SHRA BKN008 BKN020CB=
201207070614 TAF AMD ESSA 070614Z 0706/0806 08006KT 9999 FEW010
                      PROB40 0706/0716 4000 SHRA BKN007 BKN040CB
                       TEMPO 0718/0803 BKN008
                      PROB40 0803/0806 4000 SHRA BKN008 BKN020CB=
201207070530 TAF ESSA 070530Z 0706/0806 08010KT 9999 -RA FEW045
                      PROB40 0706/0715 4000 SHRA BKN040CB
                      BECMG 0713/0715 25008KT
                      BECMG 0800/0802 36010KT=
201207070043 TAF AMD ESSA 070043Z 0700/0724 03008KT 9999 -RA NSC
                      PROB40 0702/0707 2000 TSRA BKN040CB
                      TEMPO 0706/0713 2000 BR BKN004
                      BECMG 0712/0714 16012KT=
201207062330 TAF ESSA 062330Z 0700/0724 03008KT 9999 -RA NSC
                      PROB40 0705/0710 2000 TSRA BR BKN006 BKN040CB
                       TEMPO 0710/0713 BKN012
                      BECMG 0706/0708 16012KT=
201207062300 TAF AMD ESSA 070043Z 0700/0724 03008KT 9999 -RA NSC
                      PROB40 0702/0707 2000 TSRA BKN040CB
                      TEMPO 0706/0713 2000 BR BKN004
                      BECMG 0712/0714 16012KT=
201207061730 TAF ESSA 061730Z 0618/0718 09012KT 9999 SCT035
                      PROB40 0700/0710 4000 SHRA BKN006 BKN040CB
                       BECMG 0706/0708 16012KT=
201207061130 TAF ESSA 061130Z 0612/0712 08012KT 9999 SCT045
                      PROB40 0623/0709 3000 SHRA BKN006 BKN040CB=
201207060530 TAF ESSA 060530Z 0606/0706 04008KT 9999 SCT045
                      PROB30 0606/0613 SHRA
                      PROB40 0623/0706 4000 RA BKN006 BKN040CB=
201207052330 TAF ESSA 052330Z 0600/0624 04008KT CAVOK=
201207051730 TAF ESSA 051730Z 0518/0618 07010KT 9999 SCT030=
201207051130 TAF ESSA 051130Z 0512/0612 05011KT CAVOK=
201207050530 TAF ESSA 050530Z 0506/0606 03009KT CAVOK=
201207042330 TAF ESSA 042330Z 0500/0524 35005KT CAVOK
                      TEMPO 0513/0517 07010KT=
201207041730 TAF ESSA 041730Z 0418/0518 05009KT CAVOK=
201207041130 TAF ESSA 041130Z 0412/0512 07007KT 9999 SCT045=
201207040530 TAF ESSA 040530Z 0406/0506 09005KT CAVOK=
201207032330 TAF ESSA 032330Z 0400/0424 10005KT CAVOK=
201207031730 TAF ESSA 031730Z 0318/0418 33005KT CAVOK
                      BECMG 0415/0417 06010KT=
201207031130 TAF ESSA 031130Z 0312/0412 26010KT 9999 FEW040
                      BECMG 0316/0319 10008KT=
201207030530 TAF ESSA 030530Z 0306/0406 26008KT CAVOK
                      BECMG 0314/0316 09010KT=
201207022330 TAF ESSA 022330Z 0300/0324 23008KT CAVOK=
201207021730 TAF ESSA 021730Z 0218/0318 25016KT 9999 SCT045
                      BECMG 0218/0220 25006KT=
201207021130 TAF ESSA 021130Z 0212/0312 25017G27KT 9999 SCT040
                      BECMG 0218/0220 22007KT=
201207020530 TAF ESSA 020530Z 0206/0306 25013G23KT 9999 SCT020
                      PROB30 0212/0218 SHRA BKN040CB
                      BECMG 0220/0222 22003KT=
201207012330 TAF ESSA 012330Z 0200/0224 24006KT CAVOK
                      TEMPO 0206/0215 24015G25KT
                      PROB30 0212/0218 SHRA BKN040CB=
201207011730 TAF ESSA 011730Z 0118/0218 18014KT CAVOK
                      BECMG 0118/0120 24012KT
                      PROB30 0203/0205 SHRA BKN045CB
                      TEMPO 0206/0213 24015G25KT=
201207011130 TAF ESSA 011130Z 0112/0212 17014KT 9999 SCT045
                      TEMPO 0115/0121 SHRA BKN045CB
                      BECMG 0119/0121 25010KT=
201207010530 TAF ESSA 010530Z 0106/0206 19010KT CAVOK
                      TEMPO 0115/0122 SHRA BKN045CB=
