##########################################################
# Query made at 01/23/2013 09:13:25 UTC
# Time interval: from 06/01/2012 00:00  to 07/01/2012 23:59  UTC
##########################################################

##########################################################
# ESSA, Stockholm / Arlanda (Sweden)
# WMO index: 02460
# Latitude 59-39N. Longitude 017-57E. Altitude 38 m.
##########################################################

###################################
#  METAR/SPECI from ESSA
###################################
201207012350 METAR ESSA 012350Z 23007KT 9999 SCT035 15/12 Q1010 NOSIG=
201207012320 METAR ESSA 012320Z 24005KT CAVOK 15/11 Q1010 NOSIG=
201207012250 METAR ESSA 012250Z 22006KT CAVOK 15/11 Q1010 NOSIG=
201207012220 METAR ESSA 012220Z 23007KT CAVOK 15/11 Q1010 NOSIG=
201207012150 METAR ESSA 012150Z 24006KT CAVOK 16/11 Q1010 NOSIG=
201207012120 METAR ESSA 012120Z 25006KT CAVOK 16/12 Q1009 NOSIG=
201207012050 METAR ESSA 012050Z 23007KT CAVOK 17/12 Q1009 NOSIG=
201207012020 METAR ESSA 012020Z 26009KT CAVOK 17/12 Q1009 NOSIG=
201207011950 METAR ESSA 011950Z 25010KT 9999 FEW030 18/13 Q1009 NOSIG=
201207011920 METAR ESSA 011920Z 22010KT CAVOK 18/14 Q1008 NOSIG=
201207011850 METAR ESSA 011850Z 21011KT 9999 FEW025 SCT035 19/14 Q1008
                        BECMG 25012KT=
201207011820 METAR ESSA 011820Z 20011KT 9999 FEW026 SCT032 19/14 Q1008
                        BECMG 25012KT=
201207011750 METAR ESSA 011750Z 18011KT CAVOK 19/14 Q1007 BECMG 25012KT=
201207011720 METAR COR ESSA 011720Z 18014KT CAVOK 20/14 Q1007 BECMG 25012KT=
201207011650 METAR ESSA 011650Z 18015KT CAVOK 20/14 Q1007 NOSIG=
201207011620 METAR ESSA 011620Z 19017KT CAVOK 20/14 Q1008 NOSIG=
201207011550 METAR ESSA 011550Z 18021KT 9999 FEW027 SCT045 21/13 Q1008
                        NOSIG=
201207011520 METAR ESSA 011520Z 18017KT 9999 SCT045 21/12 Q1008 NOSIG=
201207011450 METAR ESSA 011450Z 18013KT CAVOK 21/14 Q1008 NOSIG=
201207011420 METAR ESSA 011420Z 18012KT 9999 -RA FEW027 SCT045 BKN080
                        19/15 Q1008 RERA NOSIG=
201207011350 METAR ESSA 011350Z 18017KT 9999 -DZ SCT034 BKN080 21/13 Q1009
                        NOSIG=
201207011320 METAR ESSA 011320Z 16017KT 9999 FEW040 BKN110 22/13 Q1009
                        NOSIG=
201207011250 METAR ESSA 011250Z 18016KT 9999 SCT043 BKN120 23/12 Q1008
                        NOSIG=
201207011220 METAR ESSA 011220Z 18016KT 9999 SCT047 24/12 Q1009 NOSIG=
201207011150 METAR ESSA 011150Z 18014KT CAVOK 24/11 Q1009 NOSIG=
201207011120 METAR ESSA 011120Z 19014KT 9999 SCT048 24/12 Q1009 NOSIG=
201207011050 METAR ESSA 011050Z 17015KT CAVOK 24/11 Q1009 NOSIG=
201207011020 METAR ESSA 011020Z 17011KT 9999 FEW045 BKN190 23/11 Q1009
                        NOSIG=
201207010950 METAR ESSA 010950Z 18009KT 140V210 9999 FEW042 BKN180 23/13
                        Q1010 NOSIG=
201207010920 METAR ESSA 010920Z 22008KT 9999 FEW039 BKN180 22/13 Q1010
                        NOSIG=
201207010850 METAR ESSA 010850Z 23010KT 180V250 9999 SCT036 22/14 Q1010
                        NOSIG=
201207010820 METAR ESSA 010820Z 22010KT 9999 SCT032 22/14 Q1011 NOSIG=
201207010750 METAR ESSA 010750Z 21011KT 9999 SCT028 21/14 Q1011 NOSIG=
201207010720 METAR ESSA 010720Z 21010KT 9999 SCT026 20/14 Q1011 NOSIG=
201207010650 METAR ESSA 010650Z 20009KT 170V230 9999 FEW023 20/14 Q1011
                        NOSIG=
201207010620 METAR ESSA 010620Z 19009KT 9999 SCT021 19/14 Q1012 NOSIG=
201207010550 METAR ESSA 010550Z 21009KT CAVOK 19/14 Q1011 NOSIG=
201207010520 METAR ESSA 010520Z 22008KT CAVOK 18/14 Q1011 NOSIG=
201207010450 METAR ESSA 010450Z 22010KT CAVOK 17/13 Q1011 NOSIG=
201207010420 METAR ESSA 010420Z 22006KT CAVOK 17/14 Q1010 NOSIG=
201207010350 METAR ESSA 010350Z 22006KT CAVOK 16/13 Q1011 NOSIG=
201207010320 METAR ESSA 010320Z 21007KT CAVOK 16/13 Q1011 NOSIG=
201207010250 METAR ESSA 010250Z 22008KT CAVOK 15/13 Q1011 NOSIG=
201207010220 METAR ESSA 010220Z 22007KT CAVOK 15/13 Q1011 NOSIG=
201207010150 METAR ESSA 010150Z 23008KT CAVOK 15/13 Q1011 NOSIG=
201207010120 METAR ESSA 010120Z 24008KT CAVOK 15/14 Q1011 NOSIG=
201207010050 METAR ESSA 010050Z 21007KT CAVOK 16/13 Q1011 NOSIG=
201207010020 METAR ESSA 010020Z 22005KT CAVOK 15/13 Q1011 NOSIG=
201206302350 METAR ESSA 302350Z 22006KT CAVOK 16/13 Q1011 NOSIG=
201206302320 METAR ESSA 302320Z 23008KT CAVOK 16/13 Q1011 NOSIG=
201206302250 METAR ESSA 302250Z 23009KT CAVOK 16/13 Q1011 NOSIG=
201206302220 METAR ESSA 302220Z 22009KT CAVOK 17/14 Q1010 NOSIG=
201206302150 METAR ESSA 302150Z 22010KT CAVOK 17/13 Q1010 NOSIG=
201206302120 METAR ESSA 302120Z 20007KT CAVOK 17/13 Q1010 NOSIG=
201206302050 METAR ESSA 302050Z 23011KT CAVOK 18/13 Q1010 NOSIG=
201206302020 METAR ESSA 302020Z 22014KT 9999 VCSH FEW048CB BKN055 19/13
                        Q1010 NOSIG=
201206301950 METAR COR ESSA 301950Z 23008KT 9999 VCSH FEW060CB BKN085
                        19/12 Q1009 NOSIG=
201206301920 METAR ESSA 301920Z 23010KT CAVOK 20/12 Q1009 NOSIG=
201206301850 METAR ESSA 301850Z 22011KT CAVOK 20/12 Q1009 NOSIG=
201206301820 METAR ESSA 301820Z 23011KT CAVOK 21/13 Q1009 NOSIG=
201206301750 METAR ESSA 301750Z 25009KT 9999 FEW042 SCT100 22/13 Q1009
                        NOSIG=
201206301720 METAR ESSA 301720Z 25010KT 9999 SCT045 21/13 Q1009 NOSIG=
201206301650 METAR ESSA 301650Z 24011KT 9999 FEW044 21/13 Q1008 NOSIG=
201206301620 METAR ESSA 301620Z 25010KT 9999 FEW044 22/13 Q1008 NOSIG=
201206301550 METAR ESSA 301550Z 25011KT 9999 FEW043 22/12 Q1008 NOSIG=
201206301520 METAR ESSA 301520Z 24013KT 9999 FEW042 22/12 Q1008 NOSIG=
201206301450 METAR ESSA 301450Z 24014KT 9999 SCT041 22/12 Q1008 NOSIG=
201206301420 METAR ESSA 301420Z 26014KT 9999 SCT042 22/13 Q1008 NOSIG=
201206301350 METAR ESSA 301350Z 25013KT 9999 SCT041 21/13 Q1008 NOSIG=
201206301320 METAR ESSA 301320Z 25014KT 9999 SCT039 20/12 Q1008 NOSIG=
201206301250 METAR ESSA 301250Z 25015KT 9999 SCT036 21/12 Q1008 NOSIG=
201206301220 METAR ESSA 301220Z 25011KT 9999 BKN029 20/13 Q1008 NOSIG=
201206301150 METAR ESSA 301150Z 24012KT 9999 SCT025 20/14 Q1008 NOSIG=
201206301120 METAR ESSA 301120Z 26013KT 9999 BKN019 18/14 Q1008 NOSIG=
201206301050 METAR ESSA 301050Z 22010KT 9999 FEW010 BKN013 17/15 Q1008
                        BECMG BKN030=
201206301020 METAR ESSA 301020Z 23008KT 9999 BKN007 16/15 Q1008 BECMG
                        BKN012=
201206300950 METAR ESSA 300950Z 24011KT 9000 BR FEW005 BKN006 16/15 Q1007
                        BECMG BKN012=
201206300920 METAR ESSA 300920Z 24011KT 7000 BR FEW004 BKN006 16/15 Q1007
                        BECMG BKN012=
201206300850 METAR COR ESSA 300850Z 21010KT 7000 BR FEW003 BKN004 16/15
                        Q1007 REDZ BECMG BKN007=
201206300820 METAR ESSA 300820Z 20009KT 2000 BR OVC002 15/15 Q1007 TEMPO
                        3500 BKN005=
201206300750 METAR ESSA 300750Z 17009KT 2200 BR OVC002 15/15 Q1007 TEMPO
                        3500 BR=
201206300720 METAR ESSA 300720Z 16008KT 4500 BR BKN003 15/15 Q1006 TEMPO
                        3500 BR=
201206300650 METAR ESSA 300650Z 16009KT 7000 -DZ BKN005 15/14 Q1007 TEMPO
                        BKN004=
201206300620 METAR ESSA 300620Z 16010KT 9999 BKN007 15/14 Q1007 TEMPO
                        BKN004=
201206300550 METAR ESSA 300550Z 13010G22KT 9999 -RA SCT012 BKN086 15/13
                        Q1007 BECMG BKN009=
201206300520 METAR ESSA 300520Z 14012KT 8000 RA FEW040 BKN055 15/13 Q1007
                        TEMPO 4000 SHRA BKN010 BKN025CB=
201206300450 METAR ESSA 300450Z 14012KT 9999 -RA FEW035 BKN048 16/12 Q1008
                        TEMPO 4000 SHRA BKN010 BKN025CB=
201206300420 METAR ESSA 300420Z 14013KT 9999 FEW030 BKN045 17/11 Q1008
                        TEMPO 4000 SHRA BKN010 BKN025CB=
201206300350 METAR ESSA 300350Z 14011KT 9999 BKN045 16/11 Q1008 TEMPO
                        4000 SHRA BKN010 BKN025CB=
201206300320 METAR ESSA 300320Z 14011KT 9999 SCT049 BKN080 16/11 Q1008
                        NOSIG=
201206300250 METAR ESSA 300250Z 14011KT 9999 SCT049 BKN080 16/10 Q1009
                        NOSIG=
201206300220 METAR ESSA 300220Z 14010KT CAVOK 16/08 Q1009 NOSIG=
201206300150 METAR ESSA 300150Z 13009KT CAVOK 16/08 Q1009 NOSIG=
201206300120 METAR ESSA 300120Z 14009KT CAVOK 15/08 Q1010 NOSIG=
201206300050 METAR ESSA 300050Z 15011KT 9999 BKN048 15/09 Q1010 NOSIG=
201206300020 METAR ESSA 300020Z 16011KT 9999 BKN048 15/09 Q1011 NOSIG=
201206292350 METAR ESSA 292350Z 15011KT 9999 BKN048 15/10 Q1011 NOSIG=
201206292320 METAR ESSA 292320Z 15011KT 9999 BKN047 15/10 Q1011 NOSIG=
201206292250 METAR ESSA 292250Z 17012KT 9999 BKN049 15/10 Q1012 NOSIG=
201206292220 METAR ESSA 292220Z 15012KT CAVOK 15/10 Q1012 NOSIG=
201206292150 METAR ESSA 292150Z 15011KT CAVOK 15/10 Q1012 NOSIG=
201206292120 METAR ESSA 292120Z 14011KT 9000 -RA FEW048 15/09 Q1012 NOSIG=
201206292050 METAR ESSA 292050Z 16011KT 9999 FEW048 16/08 Q1013 NOSIG=
201206292020 METAR ESSA 292020Z 15011KT 9999 FEW040 17/07 Q1012 NOSIG=
201206291950 METAR ESSA 291950Z 16013KT 9999 FEW036 17/07 Q1012 NOSIG=
201206291920 METAR ESSA 291920Z 16015KT CAVOK 17/08 Q1012 NOSIG=
201206291850 METAR ESSA 291850Z 16014KT CAVOK 17/08 Q1012 NOSIG=
201206291820 METAR ESSA 291820Z 16016KT CAVOK 18/07 Q1012 NOSIG=
201206291750 METAR ESSA 291750Z 16016KT CAVOK 18/08 Q1012 NOSIG=
201206291720 METAR ESSA 291720Z 16017KT CAVOK 19/07 Q1013 NOSIG=
201206291650 METAR ESSA 291650Z 16017KT CAVOK 19/07 Q1012 NOSIG=
201206291620 METAR ESSA 291620Z 16017KT CAVOK 19/07 Q1012 NOSIG=
201206291550 METAR ESSA 291550Z 16015KT CAVOK 19/08 Q1013 NOSIG=
201206291520 METAR ESSA 291520Z 16016KT CAVOK 20/08 Q1013 NOSIG=
201206291450 METAR ESSA 291450Z 15012KT CAVOK 19/08 Q1013 NOSIG=
201206291420 METAR ESSA 291420Z 17013KT CAVOK 19/08 Q1013 NOSIG=
201206291350 METAR ESSA 291350Z 21013KT CAVOK 20/07 Q1014 NOSIG=
201206291320 METAR ESSA 291320Z 18014KT CAVOK 20/06 Q1013 NOSIG=
201206291250 METAR ESSA 291250Z 18018KT CAVOK 21/06 Q1014 NOSIG=
201206291220 METAR ESSA 291220Z 19017KT CAVOK 20/04 Q1013 NOSIG=
201206291150 METAR ESSA 291150Z 19019KT CAVOK 21/04 Q1013 NOSIG=
201206291120 METAR ESSA 291120Z 18018KT CAVOK 21/04 Q1014 NOSIG=
201206291050 METAR ESSA 291050Z 18018KT CAVOK 21/04 Q1014 NOSIG=
201206291020 METAR ESSA 291020Z 18016KT CAVOK 22/07 Q1013 NOSIG=
201206290950 METAR ESSA 290950Z 17015KT CAVOK 22/09 Q1013 NOSIG=
201206290920 METAR ESSA 290920Z 18012KT CAVOK 21/09 Q1013 NOSIG=
201206290850 METAR ESSA 290850Z 17012KT 130V220 CAVOK 21/09 Q1013 NOSIG=
201206290820 METAR ESSA 290820Z 16011KT CAVOK 20/09 Q1013 NOSIG=
201206290750 METAR ESSA 290750Z 16011KT CAVOK 20/09 Q1013 NOSIG=
201206290720 METAR ESSA 290720Z 16009KT CAVOK 19/10 Q1014 NOSIG=
201206290650 METAR ESSA 290650Z 16009KT CAVOK 18/11 Q1014 NOSIG=
201206290620 METAR ESSA 290620Z 14007KT CAVOK 17/12 Q1014 NOSIG=
201206290550 METAR ESSA 290550Z 12008KT 090V150 CAVOK 16/12 Q1013 NOSIG=
201206290520 METAR ESSA 290520Z 11006KT 040V150 CAVOK 15/11 Q1014 NOSIG=
201206290450 METAR ESSA 290450Z 13006KT CAVOK 14/11 Q1014 NOSIG=
201206290420 METAR ESSA 290420Z 12007KT CAVOK 14/11 Q1014 NOSIG=
201206290350 METAR ESSA 290350Z 11006KT CAVOK 13/11 Q1014 NOSIG=
201206290320 METAR ESSA 290320Z 12005KT CAVOK 12/11 Q1013 NOSIG=
201206290250 METAR ESSA 290250Z 13005KT CAVOK 12/11 Q1013 NOSIG=
201206290220 METAR ESSA 290220Z 11004KT CAVOK 13/11 Q1013 NOSIG=
201206290150 METAR ESSA 290150Z 13004KT CAVOK 13/11 Q1013 NOSIG=
201206290120 METAR ESSA 290120Z 13004KT CAVOK 12/11 Q1013 NOSIG=
201206290050 METAR ESSA 290050Z 13005KT CAVOK 12/11 Q1013 NOSIG=
201206290020 METAR ESSA 290020Z 11004KT CAVOK 12/11 Q1013 NOSIG=
201206282350 METAR ESSA 282350Z 08004KT 9000 -RA FEW035 SCT040 12/11 Q1013
                        NOSIG=
201206282320 METAR ESSA 282320Z 14003KT CAVOK 12/11 Q1013 NOSIG=
201206282250 METAR ESSA 282250Z 09004KT CAVOK 11/11 Q1013 NOSIG=
201206282220 METAR ESSA 282220Z 15006KT CAVOK 12/11 Q1013 NOSIG=
201206282150 METAR ESSA 282150Z 16005KT CAVOK 12/11 Q1013 NOSIG=
201206282120 METAR ESSA 282120Z 15005KT CAVOK 12/11 Q1013 NOSIG=
201206282050 METAR ESSA 282050Z 15006KT 120V190 CAVOK 13/11 Q1013 NOSIG=
201206282020 METAR ESSA 282020Z 14007KT CAVOK 13/10 Q1012 NOSIG=
201206281950 METAR ESSA 281950Z 13009KT CAVOK 14/11 Q1012 NOSIG=
201206281920 METAR ESSA 281920Z 13009KT CAVOK 14/10 Q1012 NOSIG=
201206281850 METAR ESSA 281850Z 12009KT CAVOK 15/10 Q1012 NOSIG=
201206281820 METAR ESSA 281820Z 12010KT CAVOK 15/10 Q1012 NOSIG=
201206281750 METAR ESSA 281750Z 13009KT CAVOK 16/10 Q1012 NOSIG=
201206281720 METAR ESSA 281720Z 13010KT CAVOK 16/10 Q1012 NOSIG=
201206281650 METAR ESSA 281650Z 11010KT CAVOK 16/10 Q1011 NOSIG=
201206281620 METAR ESSA 281620Z 12005KT 080V150 CAVOK 19/04 Q1011 NOSIG=
201206281550 METAR ESSA 281550Z 04004KT 360V070 CAVOK 18/06 Q1011 NOSIG=
201206281520 METAR ESSA 281520Z 04006KT CAVOK 18/06 Q1011 NOSIG=
201206281450 METAR ESSA 281450Z 03006KT 350V070 CAVOK 19/05 Q1011 NOSIG=
201206281420 METAR ESSA 281420Z 04005KT 010V090 CAVOK 19/05 Q1011 NOSIG=
201206281350 METAR ESSA 281350Z 33004KT 240V020 CAVOK 19/05 Q1011 NOSIG=
201206281320 METAR ESSA 281320Z 25005KT 210V300 CAVOK 18/05 Q1011 NOSIG=
201206281250 METAR ESSA 281250Z 32006KT 290V360 CAVOK 18/05 Q1011 NOSIG=
201206281220 METAR ESSA 281220Z 34007KT 310V040 CAVOK 18/05 Q1011 NOSIG=
201206281150 METAR ESSA 281150Z 34006KT 310V010 CAVOK 18/06 Q1011 NOSIG=
201206281120 METAR ESSA 281120Z 28006KT 250V310 CAVOK 18/05 Q1010 NOSIG=
201206281050 METAR ESSA 281050Z 34006KT 270V030 CAVOK 17/04 Q1010 NOSIG=
201206281020 METAR ESSA 281020Z 27008KT 230V310 9999 SCT048 17/06 Q1010
                        NOSIG=
201206280950 METAR ESSA 280950Z 29008KT 240V360 9999 FEW045 SCT048 16/05
                        Q1010 NOSIG=
201206280920 METAR ESSA 280920Z 28009KT 240V320 9999 FEW042 SCT046 16/07
                        Q1010 NOSIG=
201206280850 METAR ESSA 280850Z 26009KT 240V300 9999 FEW037 SCT042 16/07
                        Q1010 NOSIG=
201206280820 METAR ESSA 280820Z 27006KT 230V300 9999 FEW033 SCT042 15/07
                        Q1010 NOSIG=
201206280750 METAR ESSA 280750Z 29005KT 240V330 9999 FEW033 15/07 Q1010
                        NOSIG=
201206280720 METAR ESSA 280720Z 30004KT 250V350 CAVOK 15/07 Q1010 NOSIG=
201206280650 METAR ESSA 280650Z 32005KT 270V360 CAVOK 14/07 Q1010 NOSIG=
201206280620 METAR ESSA 280620Z 31006KT CAVOK 14/08 Q1010 NOSIG=
201206280550 METAR ESSA 280550Z 34006KT CAVOK 12/07 Q1009 NOSIG=
201206280520 METAR ESSA 280520Z 33007KT CAVOK 12/07 Q1009 NOSIG=
201206280450 METAR ESSA 280450Z 33010KT CAVOK 11/07 Q1009 NOSIG=
201206280420 METAR ESSA 280420Z 33009KT CAVOK 11/07 Q1009 NOSIG=
201206280350 METAR ESSA 280350Z 32007KT CAVOK 10/07 Q1009 NOSIG=
201206280320 METAR ESSA 280320Z 36005KT CAVOK 10/08 Q1009 NOSIG=
201206280250 METAR ESSA 280250Z 34006KT CAVOK 09/08 Q1009 NOSIG=
201206280220 METAR ESSA 280220Z 35006KT CAVOK 07/07 Q1009 NOSIG=
201206280150 METAR ESSA 280150Z 35005KT 9999 VCFG NSC 08/07 Q1008 NOSIG=
201206280120 METAR ESSA 280120Z 33001KT 9999 BCFG NSC 07/07 Q1008 NOSIG=
201206280050 METAR ESSA 280050Z 32001KT 9999 BCFG NSC 09/08 Q1008 NOSIG=
201206280020 METAR ESSA 280020Z 07002KT CAVOK 09/09 Q1008 NOSIG=
201206272350 METAR ESSA 272350Z 08004KT CAVOK 10/10 Q1008 NOSIG=
201206272320 METAR ESSA 272320Z 20002KT CAVOK 12/11 Q1008 NOSIG=
201206272250 METAR ESSA 272250Z 15004KT CAVOK 12/10 Q1008 NOSIG=
201206272220 METAR ESSA 272220Z 18004KT CAVOK 12/10 Q1008 NOSIG=
201206272150 METAR ESSA 272150Z 16004KT CAVOK 12/11 Q1008 NOSIG=
201206272120 METAR ESSA 272120Z 15005KT CAVOK 12/11 Q1008 NOSIG=
201206272050 METAR ESSA 272050Z 14003KT CAVOK 12/11 Q1008 NOSIG=
201206272020 METAR ESSA 272020Z 13004KT 9999 BCFG NSC 12/11 Q1008 NOSIG=
201206271950 METAR ESSA 271950Z 17003KT 9999 BCFG NSC 13/11 Q1008 NOSIG=
201206271920 METAR ESSA 271920Z 22002KT CAVOK 13/12 Q1007 NOSIG=
201206271850 METAR ESSA 271850Z 24003KT CAVOK 14/12 Q1007 NOSIG=
201206271820 METAR ESSA 271820Z 26003KT CAVOK 14/11 Q1007 NOSIG=
201206271750 METAR ESSA 271750Z 24002KT CAVOK 15/11 Q1007 NOSIG=
201206271720 METAR ESSA 271720Z 02005KT 360V080 9999 VCSH FEW038 FEW040CB
                        SCT070 15/10 Q1008 NOSIG=
201206271650 METAR ESSA 271650Z 26006KT 9999 VCSH FEW036 FEW040CB SCT060
                        15/12 Q1008 NOSIG=
201206271620 METAR ESSA 271620Z 27007KT 9999 -SHRA FEW035 FEW040CB SCT070
                        14/11 Q1008 NOSIG=
201206271550 METAR ESSA 271550Z 28006KT 9999 -SHRA FEW035 FEW040CB SCT070
                        15/10 Q1008 NOSIG=
201206271520 METAR ESSA 271520Z 32004KT 290V020 9999 FEW036 SCT070 17/09
                        Q1007 NOSIG=
201206271450 METAR ESSA 271450Z 02003KT 330V100 9999 FEW036 SCT070 17/10
                        Q1007 NOSIG=
201206271420 METAR ESSA 271420Z 31005KT 280V350 9999 FEW033 17/10 Q1007
                        NOSIG=
201206271350 METAR ESSA 271350Z 33006KT 290V350 9999 BKN046 17/10 Q1008
                        NOSIG=
201206271320 METAR ESSA 271320Z 28006KT 250V310 9999 FEW028 BKN042 16/10
                        Q1008 NOSIG=
201206271250 METAR ESSA 271250Z 32007KT 290V350 9999 SCT030 BKN040 16/10
                        Q1008 NOSIG=
201206271220 METAR ESSA 271220Z 32007KT 290V360 9999 SCT030 BKN035 15/09
                        Q1008 NOSIG=
201206271150 METAR ESSA 271150Z 35008KT 9999 BKN027 15/09 Q1008 NOSIG=
201206271120 METAR ESSA 271120Z 33009KT 9999 BKN028 15/09 Q1007 NOSIG=
201206271050 METAR ESSA 271050Z 35009KT 290V020 9999 BKN028 15/09 Q1007
                        NOSIG=
201206271020 METAR ESSA 271020Z 35009KT 9999 BKN025 15/08 Q1007 NOSIG=
201206270950 METAR ESSA 270950Z 36009KT 320V030 9999 BKN025 15/09 Q1007
                        NOSIG=
201206270920 METAR ESSA 270920Z 35009KT 9999 BKN025 14/09 Q1007 NOSIG=
201206270850 METAR ESSA 270850Z 33011KT 9999 SCT025 15/09 Q1007 NOSIG=
201206270820 METAR ESSA 270820Z 32011KT 9999 SCT022 14/09 Q1007 NOSIG=
201206270750 METAR ESSA 270750Z 33008KT 9999 SCT022 14/09 Q1007 NOSIG=
201206270720 METAR ESSA 270720Z 35010KT 9999 FEW022 14/09 Q1007 NOSIG=
201206270650 METAR ESSA 270650Z 34010KT 9999 FEW020 14/08 Q1007 NOSIG=
201206270620 METAR ESSA 270620Z 33008KT 9999 FEW002 13/09 Q1006 NOSIG=
201206270550 METAR ESSA 270550Z 33007KT CAVOK 13/09 Q1006 NOSIG=
201206270520 METAR ESSA 270520Z 33010KT CAVOK 12/10 Q1006 NOSIG=
201206270450 METAR ESSA 270450Z 31007KT CAVOK 12/09 Q1006 NOSIG=
201206270420 METAR ESSA 270420Z 30007KT CAVOK 12/10 Q1006 NOSIG=
201206270350 METAR ESSA 270350Z 29007KT CAVOK 11/10 Q1006 NOSIG=
201206270320 METAR ESSA 270320Z 30007KT CAVOK 10/10 Q1006 NOSIG=
201206270250 METAR ESSA 270250Z 30007KT CAVOK 10/10 Q1006 NOSIG=
201206270220 METAR ESSA 270220Z 29005KT CAVOK 10/10 Q1006 NOSIG=
201206270150 METAR ESSA 270150Z 28005KT CAVOK 10/10 Q1006 NOSIG=
201206270120 METAR ESSA 270120Z 29005KT 9999 VCFG FEW070 10/10 Q1006 TEMPO
                        4000=
201206270050 METAR ESSA 270050Z 29006KT 9999 VCFG SCT070 11/10 Q1006 TEMPO
                        4000=
201206270020 METAR ESSA 270020Z 29005KT 9999 VCFG SCT070 11/11 Q1006 TEMPO
                        4000=
201206262350 METAR ESSA 262350Z 28007KT CAVOK 11/11 Q1006 NOSIG=
201206262320 METAR ESSA 262320Z 29006KT CAVOK 12/11 Q1006 NOSIG=
201206262250 METAR ESSA 262250Z 27006KT CAVOK 12/12 Q1005 NOSIG=
201206262220 METAR ESSA 262220Z 27005KT CAVOK 12/12 Q1005 NOSIG=
201206262150 METAR ESSA 262150Z 27008KT 9999 -SHRA SCT055 BKN068 12/11
                        Q1005 NOSIG=
201206262120 METAR ESSA 262120Z 32005KT 280V350 9999 -SHRA SCT040 BKN057
                        13/12 Q1006 RESHRA NOSIG=
201206262050 METAR ESSA 262050Z 26005KT 9999 -SHRA FEW035 BKN040 13/12
                        Q1005 RESHRA TEMPO SHRA=
201206262020 METAR ESSA 262020Z 27003KT 9999 VCSH BKN045 13/11 Q1005 NOSIG=
201206261950 METAR ESSA 261950Z 25003KT 9999 FEW045 BKN098 14/12 Q1005
                        NOSIG=
201206261920 METAR ESSA 261920Z 27003KT 9999 VCSH FEW055 BKN080 15/12
                        Q1005 NOSIG=
201206261850 METAR ESSA 261850Z 30004KT 280V350 9999 -SHRA FEW040 BKN080
                        15/11 Q1005 NOSIG=
201206261820 METAR ESSA 261820Z 29005KT CAVOK 15/11 Q1005 NOSIG=
201206261750 METAR ESSA 261750Z 33005KT CAVOK 15/11 Q1005 NOSIG=
201206261720 METAR ESSA 261720Z 35007KT CAVOK 16/10 Q1005 NOSIG=
201206261650 METAR ESSA 261650Z 36010KT 9999 FEW027 SCT070 BKN110 16/10
                        Q1005 NOSIG=
201206261620 METAR ESSA 261620Z 35008KT 9999 FEW025 SCT030 BKN110 16/10
                        Q1005 NOSIG=
201206261550 METAR ESSA 261550Z 02010KT 9999 SCT023 BKN029 16/11 Q1005
                        NOSIG=
201206261520 METAR ESSA 261520Z 36011KT 9999 BKN023 16/11 Q1004 NOSIG=
201206261450 METAR ESSA 261450Z 33013KT 9999 BKN022 15/10 Q1004 NOSIG=
201206261420 METAR ESSA 261420Z 33015KT 9999 FEW020 BKN025 15/11 Q1004
                        NOSIG=
201206261350 METAR ESSA 261350Z 33015KT 9999 SCT025 BKN060 16/11 Q1004
                        TEMPO SHRA=
201206261320 METAR ESSA 261320Z 33013KT 9999 VCSH FEW020 SCT028 BKN045
                        15/11 Q1003 RERA TEMPO SHRA=
201206261250 METAR ESSA 261250Z 01008KT 9999 FEW025 BKN070 17/12 Q1003
                        TEMPO SHRA=
201206261220 METAR ESSA 261220Z 33011KT 9999 FEW045 BKN070 16/11 Q1003
                        TEMPO SHRA=
201206261150 METAR ESSA 261150Z 01012KT 9999 FEW026 BKN072 16/11 Q1002
                        TEMPO SHRA=
201206261120 METAR ESSA 261120Z 35010KT 320V020 9999 FEW018 BKN074 16/11
                        Q1002 TEMPO SHRA=
201206261050 METAR ESSA 261050Z 34010KT 9999 FEW022 BKN051 15/12 Q1002
                        RERA TEMPO SHRA=
201206261020 METAR ESSA 261020Z 01010KT 9999 FEW022 BKN060 16/11 Q1002
                        NOSIG=
201206260950 METAR COR ESSA 260950Z 36010KT 9999 VCSH FEW015 BKN020CB
                        15/12 Q1002 TEMPO SHRA=
201206260920 METAR ESSA 260920Z 34012KT 9999 VCSH FEW017 SCT022CB BKN070
                        15/12 Q1001 TEMPO SHRA=
201206260850 METAR ESSA 260850Z 01011KT 9999 SCT020 BKN070 16/12 Q1001
                        TEMPO SHRA=
201206260820 METAR ESSA 260820Z 01012KT 9999 SCT018 BKN045 16/11 Q1001
                        TEMPO SHRA=
201206260750 METAR ESSA 260750Z 01011KT 9999 FEW014 BKN018 15/12 Q1000
                        NOSIG=
201206260720 METAR ESSA 260720Z 02012KT 9999 BKN016 15/11 Q1000 NOSIG=
201206260650 METAR ESSA 260650Z 01013KT 9999 BKN012 14/11 Q1000 BECMG
                        BKN015=
201206260620 METAR ESSA 260620Z 01012KT 9999 BKN009 14/12 Q1000 BECMG
                        BKN015=
201206260550 METAR ESSA 260550Z 01011KT 9999 BKN008 13/12 Q0999 BECMG
                        BKN035=
201206260520 METAR ESSA 260520Z 36011KT 9999 BKN008 13/12 Q0999 BECMG
                        BKN035=
201206260450 METAR ESSA 260450Z 36011KT 9999 BKN007 13/12 Q0999 NOSIG=
201206260420 METAR ESSA 260420Z 36010KT 9999 FEW005 BKN007 12/12 Q0999
                        NOSIG=
201206260350 METAR ESSA 260350Z 36009KT 9999 FEW005 BKN006 12/12 Q0998
                        NOSIG=
201206260320 METAR ESSA 260320Z 36009KT 9999 BKN006 12/12 Q0998 NOSIG=
201206260250 METAR ESSA 260250Z 36008KT 9999 BKN005 12/11 Q0998 NOSIG=
201206260220 METAR ESSA 260220Z 02010KT 9999 BKN006 12/11 Q0997 NOSIG=
201206260150 METAR ESSA 260150Z 36010KT 7000 -SHRA BR FEW005 BKN006 12/11
                        Q0997 NOSIG=
201206260120 METAR ESSA 260120Z 01009KT 9999 FEW005 BKN006 12/11 Q0997
                        NOSIG=
201206260050 METAR ESSA 260050Z 01010KT 9999 BKN005 12/11 Q0997 NOSIG=
201206260020 METAR ESSA 260020Z 01011KT 9999 FEW004 BKN005 12/11 Q0997
                        NOSIG=
201206252350 METAR ESSA 252350Z 36009KT 9999 FEW005 BKN007 12/11 Q0997
                        NOSIG=
201206252320 METAR ESSA 252320Z 02008KT 9999 FEW005 BKN007 12/11 Q0996
                        NOSIG=
201206252250 METAR ESSA 252250Z 03008KT 9999 FEW005 BKN007 12/11 Q0996
                        NOSIG=
201206252220 METAR ESSA 252220Z 02010KT 9999 FEW005 BKN007 12/12 Q0996
                        NOSIG=
201206252150 METAR ESSA 252150Z 02010KT 9999 FEW005 BKN007 12/12 Q0996
                        NOSIG=
201206252120 METAR ESSA 252120Z 04010KT 9999 FEW006 BKN008 13/12 Q0996
                        NOSIG=
201206252050 METAR ESSA 252050Z 03010KT 9999 FEW007 BKN009 13/12 Q0996
                        NOSIG=
201206252020 METAR ESSA 252020Z 02010KT 9999 FEW006 BKN008 13/12 Q0995
                        NOSIG=
201206251950 METAR ESSA 251950Z 02009KT 9999 SCT008 BKN013 13/12 Q0995
                        TEMPO BKN015=
201206251920 METAR ESSA 251920Z 03009KT 9999 FEW008 SCT011 BKN055 13/12
                        Q0995 NOSIG=
201206251850 METAR ESSA 251850Z 04009KT 9999 FEW009 SCT014 BKN053 13/12
                        Q0995 NOSIG=
201206251820 METAR ESSA 251820Z 07009KT 9999 FEW010 SCT019 BKN053 13/12
                        Q0994 NOSIG=
201206251750 METAR ESSA 251750Z 07010KT 9999 FEW008 SCT015 BKN051 13/12
                        Q0994 NOSIG=
201206251720 METAR ESSA 251720Z 08009KT 9999 FEW008 SCT026 BKN051 13/12
                        Q0994 NOSIG=
201206251650 METAR ESSA 251650Z 09010KT 9000 BR FEW007 SCT009 BKN029 13/12
                        Q0994 TEMPO BKN014=
201206251620 METAR ESSA 251620Z 09011KT 9999 SCT007 BKN009 13/12 Q0994
                        TEMPO SHRA BKN013=
201206251550 METAR ESSA 251550Z 08011KT 7000 -SHRA BR SCT006 BKN009 14/12
                        Q0993 TEMPO SHRA BKN013=
201206251520 METAR ESSA 251520Z 08014KT 8000 -SHRA FEW007 BKN011 14/12
                        Q0993 TEMPO SHRA=
201206251450 METAR ESSA 251450Z 07011KT 9999 FEW007 SCT011 BKN046 14/12
                        Q0993 TEMPO SHRA=
201206251420 METAR ESSA 251420Z 08012KT 9999 SCT011 BKN036 13/12 Q0993
                        TEMPO SHRA=
201206251350 METAR ESSA 251350Z 08012KT 9999 FEW006 SCT011 BKN034 14/12
                        Q0993 TEMPO SHRA=
201206251320 METAR ESSA 251320Z 07014KT 9999 FEW006 SCT011 BKN014 14/12
                        Q0993 BECMG BKN025=
201206251250 METAR ESSA 251250Z 06013KT 9999 FEW009 BKN012 14/12 Q0993
                        BECMG BKN025=
201206251220 METAR ESSA 251220Z 07012KT 9999 FEW006 SCT008 BKN012 14/13
                        Q0993 BECMG BKN025=
201206251150 METAR ESSA 251150Z 07012KT 9999 FEW006 BKN008 BKN016 13/12
                        Q0993 BECMG BKN025=
201206251120 METAR ESSA 251120Z 07014KT 9999 FEW006 BKN009 BKN025 13/12
                        Q0993 BECMG BKN025=
201206251050 METAR ESSA 251050Z 07016KT 9999 -RA BKN007 12/12 Q0993 TEMPO
                        4000=
201206251020 METAR ESSA 251020Z 07019KT 9999 -RA BKN009 12/11 Q0993 TEMPO
                        BKN012=
201206250950 METAR ESSA 250950Z 07021KT 9999 -RA BKN009 12/11 Q0994 TEMPO
                        BKN012=
201206250920 METAR ESSA 250920Z 05020G32KT 9999 -RA SCT009 BKN012 12/11
                        Q0994 TEMPO BKN009=
201206250850 METAR ESSA 250850Z 07020G32KT 9999 -RA SCT009 BKN012 12/11
                        Q0994 TEMPO BKN009=
201206250820 METAR ESSA 250820Z 05019KT 8000 -RA SCT009 BKN012 12/11 Q0995
                        TEMPO BKN009=
201206250750 METAR ESSA 250750Z 07019KT 9999 -RA SCT009 BKN013 13/12 Q0995
                        TEMPO BKN009=
201206250720 METAR ESSA 250720Z 07018KT 9999 -RA SCT009 BKN013 13/12 Q0996
                        TEMPO BKN012=
201206250650 METAR ESSA 250650Z 07018KT 9999 -RA BKN009 12/12 Q0996 TEMPO
                        BKN012=
201206250620 METAR ESSA 250620Z 07015KT 9999 -RA BKN009 12/11 Q0997 TEMPO
                        BKN012=
201206250550 METAR ESSA 250550Z 07014KT 9999 -RA BKN009 12/11 Q0998 TEMPO
                        BKN012=
201206250520 METAR ESSA 250520Z 07012KT 9999 -RA SCT009 BKN050 12/11 Q0998
                        TEMPO BKN009=
201206250450 METAR ESSA 250450Z 08012KT 9999 -RA FEW010 BKN050 12/11 Q0999
                        TEMPO RA=
201206250420 METAR ESSA 250420Z 08011KT 7000 -RA BKN050 13/12 Q0999 TEMPO
                        RA=
201206250350 METAR ESSA 250350Z 08009KT 7000 -RA BKN050 13/12 Q1000 TEMPO
                        RA=
201206250320 METAR ESSA 250320Z 08008KT 8000 -RA BKN050 13/12 Q1000 TEMPO
                        RA=
201206250250 METAR ESSA 250250Z 07007KT 8000 -RA BKN050 13/12 Q1001 TEMPO
                        RA=
201206250220 METAR ESSA 250220Z 07007KT 8000 -RA BKN040 13/12 Q1001 TEMPO
                        RA=
201206250150 METAR ESSA 250150Z 07006KT 8000 -RA BKN070 13/12 Q1002 BECMG
                        RA=
201206250120 METAR ESSA 250120Z 09005KT 9999 -RA BKN060 13/11 Q1002 BECMG
                        RA=
201206250050 METAR ESSA 250050Z 11005KT CAVOK 13/11 Q1003 BECMG RA=
201206250020 METAR ESSA 250020Z 12006KT CAVOK 13/11 Q1004 BECMG RA=
201206242350 METAR ESSA 242350Z 10005KT CAVOK 13/12 Q1004 BECMG RA=
201206242320 METAR ESSA 242320Z 11005KT CAVOK 13/12 Q1004 NOSIG=
201206242250 METAR ESSA 242250Z 11005KT CAVOK 14/12 Q1005 NOSIG=
201206242220 METAR ESSA 242220Z 09005KT CAVOK 14/11 Q1005 NOSIG=
201206242150 METAR ESSA 242150Z 08005KT CAVOK 14/11 Q1006 NOSIG=
201206242120 METAR ESSA 242120Z 10003KT CAVOK 14/10 Q1006 NOSIG=
201206242050 METAR ESSA 242050Z 20004KT CAVOK 15/10 Q1006 NOSIG=
201206242020 METAR ESSA 242020Z 20005KT CAVOK 15/10 Q1007 NOSIG=
201206241950 METAR ESSA 241950Z 19006KT CAVOK 16/12 Q1007 NOSIG=
201206241920 METAR ESSA 241920Z 19005KT CAVOK 16/11 Q1007 NOSIG=
201206241850 METAR ESSA 241850Z 21006KT CAVOK 16/11 Q1007 NOSIG=
201206241820 METAR ESSA 241820Z 20008KT CAVOK 16/11 Q1007 NOSIG=
201206241750 METAR ESSA 241750Z 20011KT CAVOK 17/11 Q1008 NOSIG=
201206241720 METAR ESSA 241720Z 18012KT 9999 FEW032 BKN090 18/11 Q1008
                        NOSIG=
201206241650 METAR ESSA 241650Z 22011KT 9999 FEW035 18/11 Q1008 NOSIG=
201206241620 METAR ESSA 241620Z 18011KT 9999 SCT035 19/11 Q1008 NOSIG=
201206241550 METAR ESSA 241550Z 22012KT 9999 FEW035 18/10 Q1009 NOSIG=
201206241520 METAR ESSA 241520Z 21011KT CAVOK 19/11 Q1009 NOSIG=
201206241450 METAR ESSA 241450Z 21011KT CAVOK 19/11 Q1009 NOSIG=
201206241420 METAR ESSA 241420Z 21013KT CAVOK 19/11 Q1009 NOSIG=
201206241350 METAR COR ESSA 241350Z 20010KT 170V250 9999 SCT045 19/09
                        Q1010 NOSIG=
201206241320 METAR ESSA 241320Z 24011KT 9999 FEW045 SCT080 19/09 Q1010
                        NOSIG=
201206241250 METAR ESSA 241250Z 21011KT 9999 FEW038 SCT080 18/10 Q1010
                        NOSIG=
201206241220 METAR ESSA 241220Z 21011KT 9999 FEW036 BKN077 19/10 Q1010
                        NOSIG=
201206241150 METAR ESSA 241150Z 23009KT 200V260 9999 SCT035 18/10 Q1010
                        NOSIG=
201206241120 METAR ESSA 241120Z 23011KT 9999 FEW033 BKN083 18/11 Q1011
                        NOSIG=
201206241050 METAR ESSA 241050Z 24011KT 9999 FEW035 BKN075 16/11 Q1011
                        NOSIG=
201206241020 METAR ESSA 241020Z 21009KT 9999 FEW033 BKN076 17/11 Q1011
                        RESHRA NOSIG=
201206240950 METAR COR ESSA 240950Z 25011KT 210V280 9999 -SHRA FEW030CB
                        SCT035 BKN065 15/12 Q1012 NOSIG=
201206240920 METAR ESSA 240920Z 23007KT 190V270 9999 SCT034 BKN065 18/09
                        Q1012 NOSIG=
201206240850 METAR ESSA 240850Z 23006KT 200V280 9999 BKN035 SCT060 17/11
                        Q1012 NOSIG=
201206240820 METAR ESSA 240820Z 26007KT 220V310 9999 SCT029 16/11 Q1012
                        NOSIG=
201206240750 METAR ESSA 240750Z 31007KT 260V340 9999 FEW017 SCT028 16/12
                        Q1012 NOSIG=
201206240720 METAR ESSA 240720Z 30005KT 260V320 9999 FEW013 SCT018 15/12
                        Q1012 NOSIG=
201206240650 METAR COR ESSA 240650Z 27006KT 240V300 9999 FEW009 BKN012
                        15/13 Q1012 TEMPO BKN015=
201206240620 METAR ESSA 240620Z 24005KT 9999 SCT005 BKN009 14/13 Q1013
                        TEMPO BKN012=
201206240550 METAR ESSA 240550Z 17003KT 9999 SCT003 BKN009 13/13 Q1013
                        TEMPO BKN004=
201206240520 METAR ESSA 240520Z 17004KT 8000 -RA BR FEW004 BKN007 13/12
                        Q1013 BECMG SCT008=
201206240450 METAR ESSA 240450Z 15004KT 9000 BR FEW004 BKN006 12/12 Q1013
                        BECMG SCT008=
201206240420 METAR ESSA 240420Z 15003KT 9999 -RA FEW004 BKN006 13/12 Q1013
                        BECMG SCT008=
201206240350 METAR ESSA 240350Z 16004KT 9999 -RA FEW006 BKN008 12/12 Q1013
                        NOSIG=
201206240320 METAR ESSA 240320Z 16004KT 9999 FEW007 BKN008 BKN016 12/11
                        Q1013 NOSIG=
201206240250 METAR ESSA 240250Z 14003KT 9999 FEW008 BKN010 BKN035 12/11
                        Q1013 BECMG BKN008=
201206240220 METAR ESSA 240220Z 11004KT 9999 FEW010 SCT016 BKN035 11/11
                        Q1014 NOSIG=
201206240150 METAR ESSA 240150Z 09004KT 9999 SCT035 BKN044 11/11 Q1014
                        NOSIG=
201206240120 METAR ESSA 240120Z 17002KT CAVOK 11/10 Q1014 NOSIG=
201206240050 METAR ESSA 240050Z 16003KT CAVOK 11/10 Q1014 NOSIG=
201206240020 METAR ESSA 240020Z 18002KT CAVOK 11/09 Q1014 NOSIG=
201206232350 METAR ESSA 232350Z 13003KT 9999 FEW030 BKN038 12/10 Q1014
                        TEMPO SHRA=
201206232320 METAR ESSA 232320Z 13003KT 9999 FEW030 BKN038 12/10 Q1014
                        TEMPO SHRA=
201206232250 METAR ESSA 232250Z 13003KT 9999 FEW030 SCT038 13/10 Q1015
                        NOSIG=
201206232220 METAR ESSA 232220Z 16006KT 9999 SCT040 BKN060 13/10 Q1015
                        NOSIG=
201206232150 METAR ESSA 232150Z 15005KT 9999 FEW027 BKN040 13/10 Q1015
                        NOSIG=
201206232120 METAR ESSA 232120Z 13004KT 090V150 9999 FEW038 BKN047 13/11
                        Q1015 NOSIG=
201206232050 METAR ESSA 232050Z 11004KT 9999 BKN047 14/10 Q1015 NOSIG=
201206232020 METAR ESSA 232020Z 11004KT CAVOK 14/10 Q1015 NOSIG=
201206231950 METAR ESSA 231950Z 11004KT CAVOK 14/10 Q1015 NOSIG=
201206231920 METAR ESSA 231920Z 11005KT CAVOK 14/10 Q1015 NOSIG=
201206231850 METAR ESSA 231850Z 10005KT CAVOK 14/11 Q1015 NOSIG=
201206231820 METAR ESSA 231820Z 08005KT 9999 BKN047 15/11 Q1015 NOSIG=
201206231750 METAR ESSA 231750Z 09005KT 9999 BKN047 15/11 Q1015 NOSIG=
201206231720 METAR ESSA 231720Z 08006KT 9999 BKN047 15/11 Q1015 NOSIG=
201206231650 METAR ESSA 231650Z 08006KT 9999 BKN047 15/11 Q1015 NOSIG=
201206231620 METAR ESSA 231620Z 08007KT 9999 FEW035 BKN047 15/11 Q1015
                        NOSIG=
201206231550 METAR ESSA 231550Z 06003KT 030V090 CAVOK 16/10 Q1015 NOSIG=
201206231520 METAR ESSA 231520Z 02004KT CAVOK 16/10 Q1015 NOSIG=
201206231450 METAR ESSA 231450Z 02005KT 350V050 9999 BKN049 16/10 Q1015
                        NOSIG=
201206231420 METAR ESSA 231420Z 03006KT 360V070 9999 BKN049 16/11 Q1016
                        NOSIG=
201206231350 METAR ESSA 231350Z 35005KT 9999 BKN049 16/12 Q1016 NOSIG=
201206231320 METAR ESSA 231320Z 01005KT CAVOK 16/11 Q1016 NOSIG=
201206231250 METAR ESSA 231250Z 35004KT 320V020 CAVOK 16/12 Q1016 NOSIG=
201206231220 METAR ESSA 231220Z 01005KT CAVOK 15/12 Q1016 NOSIG=
201206231150 METAR ESSA 231150Z 36005KT 9999 -RA BKN050 15/11 Q1016 NOSIG=
201206231120 METAR ESSA 231120Z 02005KT 9999 -RA BKN057 15/11 Q1016 NOSIG=
201206231050 METAR ESSA 231050Z 03005KT 9999 -RA BKN062 15/11 Q1016 NOSIG=
201206231020 METAR ESSA 231020Z 02006KT 9999 -RA BKN062 15/10 Q1016 NOSIG=
201206230950 METAR ESSA 230950Z 04005KT 9999 -RA BKN062 16/11 Q1016 NOSIG=
201206230920 METAR ESSA 230920Z 04004KT 9999 -RA BKN066 16/10 Q1016 NOSIG=
201206230850 METAR ESSA 230850Z 36003KT 320V030 9999 -RA BKN066 16/11
                        Q1015 NOSIG=
201206230820 METAR ESSA 230820Z 33003KT CAVOK 15/12 Q1015 NOSIG=
201206230750 METAR ESSA 230750Z 36003KT CAVOK 14/12 Q1015 NOSIG=
201206230720 METAR ESSA 230720Z 02003KT 9999 -RA FEW045 BKN061 13/11 Q1015
                        NOSIG=
201206230650 METAR ESSA 230650Z 03004KT 9999 -RA FEW045 BKN061 13/11 Q1016
                        TEMPO RA=
201206230620 METAR ESSA 230620Z 05005KT 9999 -RA FEW045 BKN051 13/11 Q1016
                        TEMPO RA=
201206230550 METAR ESSA 230550Z 36003KT 330V040 9999 -RA FEW045 BKN061
                        12/10 Q1016 TEMPO RA=
201206230520 METAR ESSA 230520Z 01003KT 9999 -RA FEW045 BKN051 12/10 Q1016
                        TEMPO RA=
201206230450 METAR ESSA 230450Z 35003KT 9999 -RA FEW045 BKN070 12/10 Q1015
                        TEMPO RA=
201206230420 METAR ESSA 230420Z VRB02KT 9999 -RA FEW045 BKN070 12/09 Q1015
                        TEMPO RA=
201206230350 METAR ESSA 230350Z 06003KT CAVOK 12/09 Q1015 NOSIG=
201206230320 METAR ESSA 230320Z 01005KT CAVOK 12/09 Q1015 NOSIG=
201206230250 METAR ESSA 230250Z 02007KT 9999 SCT045 BKN080 12/08 Q1015
                        NOSIG=
201206230220 METAR ESSA 230220Z 02006KT CAVOK 12/08 Q1015 NOSIG=
201206230150 METAR ESSA 230150Z 02007KT CAVOK 13/08 Q1016 NOSIG=
201206230120 METAR ESSA 230120Z 02006KT CAVOK 13/07 Q1016 NOSIG=
201206230050 METAR ESSA 230050Z 01006KT CAVOK 12/08 Q1016 NOSIG=
201206230020 METAR ESSA 230020Z 02008KT CAVOK 12/08 Q1016 NOSIG=
201206222350 METAR ESSA 222350Z 02008KT CAVOK 13/07 Q1016 NOSIG=
201206222320 METAR ESSA 222320Z 02008KT CAVOK 13/07 Q1017 NOSIG=
201206222250 METAR ESSA 222250Z 02006KT CAVOK 13/07 Q1017 NOSIG=
201206222220 METAR ESSA 222220Z 03006KT CAVOK 13/07 Q1017 NOSIG=
201206222150 METAR ESSA 222150Z 01006KT CAVOK 13/08 Q1017 NOSIG=
201206222120 METAR ESSA 222120Z 03006KT CAVOK 13/07 Q1018 NOSIG=
201206222050 METAR ESSA 222050Z 04007KT CAVOK 14/07 Q1018 NOSIG=
201206222020 METAR ESSA 222020Z 06005KT CAVOK 15/06 Q1018 NOSIG=
201206221950 METAR COR ESSA 221950Z 07006KT CAVOK 16/06 Q1018 NOSIG=
201206221920 METAR ESSA 221920Z 06006KT CAVOK 17/05 Q1017 NOSIG=
201206221850 METAR ESSA 221850Z 08007KT CAVOK 17/04 Q1018 NOSIG=
201206221820 METAR ESSA 221820Z 08008KT CAVOK 18/04 Q1018 NOSIG=
201206221750 METAR ESSA 221750Z 09009KT CAVOK 18/03 Q1018 NOSIG=
201206221720 METAR ESSA 221720Z 12009KT CAVOK 18/02 Q1018 NOSIG=
201206221650 METAR ESSA 221650Z 10010KT CAVOK 19/03 Q1018 NOSIG=
201206221620 METAR ESSA 221620Z 11011KT CAVOK 19/02 Q1018 NOSIG=
201206221550 METAR ESSA 221550Z 10010KT CAVOK 19/03 Q1018 NOSIG=
201206221520 METAR ESSA 221520Z 09010KT 060V160 CAVOK 20/05 Q1019 NOSIG=
201206221450 METAR ESSA 221450Z 08011KT CAVOK 20/03 Q1019 NOSIG=
201206221420 METAR ESSA 221420Z 07015KT CAVOK 20/03 Q1019 NOSIG=
201206221350 METAR ESSA 221350Z 08013KT CAVOK 20/03 Q1019 NOSIG=
201206221320 METAR ESSA 221320Z 08012KT CAVOK 20/02 Q1019 NOSIG=
201206221250 METAR ESSA 221250Z 04013KT CAVOK 20/03 Q1019 NOSIG=
201206221220 METAR ESSA 221220Z 08012KT CAVOK 20/02 Q1019 NOSIG=
201206221150 METAR ESSA 221150Z 07015KT CAVOK 20/02 Q1019 NOSIG=
201206221120 METAR ESSA 221120Z 08016KT CAVOK 20/02 Q1020 NOSIG=
201206221050 METAR ESSA 221050Z 08018KT CAVOK 20/02 Q1020 NOSIG=
201206221020 METAR ESSA 221020Z 07016KT CAVOK 20/02 Q1020 NOSIG=
201206220950 METAR ESSA 220950Z 07017KT CAVOK 20/02 Q1020 NOSIG=
201206220920 METAR ESSA 220920Z 10014KT CAVOK 19/03 Q1020 NOSIG=
201206220850 METAR ESSA 220850Z 08015KT CAVOK 19/03 Q1021 NOSIG=
201206220820 METAR ESSA 220820Z 09013KT CAVOK 19/04 Q1021 NOSIG=
201206220750 METAR ESSA 220750Z 08013KT CAVOK 18/04 Q1021 NOSIG=
201206220720 METAR ESSA 220720Z 08012KT CAVOK 18/05 Q1021 NOSIG=
201206220650 METAR ESSA 220650Z 08011KT CAVOK 18/04 Q1021 NOSIG=
201206220620 METAR ESSA 220620Z 08010KT CAVOK 17/05 Q1021 NOSIG=
201206220550 METAR ESSA 220550Z 07008KT CAVOK 16/06 Q1021 NOSIG=
201206220520 METAR ESSA 220520Z 07008KT CAVOK 15/07 Q1021 NOSIG=
201206220450 METAR ESSA 220450Z 08007KT CAVOK 14/07 Q1021 NOSIG=
201206220420 METAR ESSA 220420Z 07006KT CAVOK 13/07 Q1021 NOSIG=
201206220350 METAR ESSA 220350Z 05006KT CAVOK 13/08 Q1021 NOSIG=
201206220320 METAR ESSA 220320Z 09006KT CAVOK 12/08 Q1021 NOSIG=
201206220250 METAR ESSA 220250Z 07004KT CAVOK 08/07 Q1021 NOSIG=
201206220220 METAR ESSA 220220Z 08004KT CAVOK 07/06 Q1021 NOSIG=
201206220150 METAR ESSA 220150Z 08003KT CAVOK 06/06 Q1021 NOSIG=
201206220120 METAR ESSA 220120Z 09003KT CAVOK 07/06 Q1021 NOSIG=
201206220050 METAR ESSA 220050Z 07004KT CAVOK 08/07 Q1021 NOSIG=
201206220020 METAR ESSA 220020Z 08004KT CAVOK 08/06 Q1021 NOSIG=
201206212350 METAR ESSA 212350Z 09002KT CAVOK 09/07 Q1021 NOSIG=
201206212320 METAR ESSA 212320Z 09002KT CAVOK 10/07 Q1021 NOSIG=
201206212250 METAR ESSA 212250Z 09002KT CAVOK 10/07 Q1021 NOSIG=
201206212220 METAR ESSA 212220Z 10003KT CAVOK 12/07 Q1021 NOSIG=
201206212150 METAR ESSA 212150Z 10004KT CAVOK 12/07 Q1021 NOSIG=
201206212120 METAR ESSA 212120Z 08005KT CAVOK 13/06 Q1021 NOSIG=
201206212050 METAR ESSA 212050Z 10004KT CAVOK 13/07 Q1021 NOSIG=
201206212020 METAR ESSA 212020Z 10005KT CAVOK 14/06 Q1021 NOSIG=
201206211950 METAR ESSA 211950Z 12005KT CAVOK 15/06 Q1021 NOSIG=
201206211920 METAR ESSA 211920Z 12006KT CAVOK 16/06 Q1020 NOSIG=
201206211850 METAR ESSA 211850Z 13007KT CAVOK 17/06 Q1020 NOSIG=
201206211820 METAR ESSA 211820Z 12008KT 080V140 CAVOK 18/07 Q1020 NOSIG=
201206211750 METAR ESSA 211750Z 12008KT CAVOK 18/06 Q1020 NOSIG=
201206211720 METAR ESSA 211720Z 12008KT CAVOK 18/06 Q1020 NOSIG=
201206211650 METAR ESSA 211650Z 13010KT CAVOK 19/07 Q1020 NOSIG=
201206211620 METAR ESSA 211620Z 12008KT CAVOK 20/08 Q1020 NOSIG=
201206211550 METAR ESSA 211550Z 14008KT CAVOK 20/08 Q1020 NOSIG=
201206211520 METAR ESSA 211520Z 14007KT 110V190 CAVOK 20/08 Q1020 NOSIG=
201206211450 METAR ESSA 211450Z 13008KT CAVOK 20/08 Q1020 NOSIG=
201206211420 METAR ESSA 211420Z 14007KT 090V150 CAVOK 19/08 Q1020 NOSIG=
201206211350 METAR ESSA 211350Z 13008G19KT CAVOK 20/08 Q1020 NOSIG=
201206211320 METAR ESSA 211320Z 12009KT CAVOK 20/08 Q1021 NOSIG=
201206211250 METAR COR ESSA 211250Z 16009KT CAVOK 19/09 Q1021 NOSIG=
201206211220 METAR ESSA 211220Z 13008KT CAVOK 19/08 Q1021 NOSIG=
201206211150 METAR ESSA 211150Z 12008KT 9999 SCT048 BKN082 19/09 Q1020
                        NOSIG=
201206211120 METAR ESSA 211120Z 14008KT 9999 SCT045 BKN090 20/10 Q1020
                        NOSIG=
201206211050 METAR ESSA 211050Z 14009KT 9999 SCT045 BKN055 19/10 Q1020
                        NOSIG=
201206211020 METAR ESSA 211020Z 11008KT 080V150 9999 -RA SCT045 BKN055
                        19/09 Q1020 NOSIG=
201206210950 METAR ESSA 210950Z 07009KT 040V100 9999 SCT045 BKN055 19/09
                        Q1020 NOSIG=
201206210920 METAR ESSA 210920Z 03008KT 9999 SCT042 20/10 Q1020 NOSIG=
201206210850 METAR ESSA 210850Z 08009KT 040V110 9999 SCT042 20/10 Q1020
                        NOSIG=
201206210820 METAR ESSA 210820Z 07010KT 030V110 9999 FEW042 20/10 Q1020
                        NOSIG=
201206210750 METAR ESSA 210750Z 08007KT 050V110 CAVOK 19/11 Q1020 NOSIG=
201206210720 METAR ESSA 210720Z 08008KT CAVOK 19/10 Q1020 NOSIG=
201206210650 METAR ESSA 210650Z 08008KT CAVOK 18/10 Q1019 NOSIG=
201206210620 METAR ESSA 210620Z 05008KT CAVOK 18/10 Q1019 NOSIG=
201206210550 METAR ESSA 210550Z 05008KT CAVOK 17/10 Q1019 NOSIG=
201206210520 METAR ESSA 210520Z 04005KT CAVOK 16/10 Q1019 NOSIG=
201206210450 METAR ESSA 210450Z 07003KT CAVOK 14/10 Q1019 NOSIG=
201206210420 METAR ESSA 210420Z 06003KT CAVOK 14/10 Q1019 NOSIG=
201206210350 METAR ESSA 210350Z 15002KT CAVOK 11/10 Q1019 NOSIG=
201206210320 METAR ESSA 210320Z 00000KT CAVOK 10/09 Q1018 NOSIG=
201206210250 METAR ESSA 210250Z 00000KT CAVOK 08/07 Q1018 NOSIG=
201206210220 METAR ESSA 210220Z 12002KT CAVOK 08/08 Q1018 NOSIG=
201206210150 METAR ESSA 210150Z 02002KT CAVOK 08/07 Q1018 NOSIG=
201206210120 METAR ESSA 210120Z 35003KT CAVOK 08/08 Q1018 NOSIG=
201206210050 METAR ESSA 210050Z 05002KT CAVOK 08/08 Q1018 NOSIG=
201206210020 METAR ESSA 210020Z 04002KT CAVOK 09/08 Q1018 NOSIG=
201206202350 METAR ESSA 202350Z VRB01KT CAVOK 09/08 Q1018 NOSIG=
201206202320 METAR ESSA 202320Z 17003KT CAVOK 10/08 Q1018 NOSIG=
201206202250 METAR ESSA 202250Z 16002KT CAVOK 11/09 Q1018 NOSIG=
201206202220 METAR ESSA 202220Z 22003KT CAVOK 12/09 Q1017 NOSIG=
201206202150 METAR ESSA 202150Z 23003KT CAVOK 13/09 Q1017 NOSIG=
201206202120 METAR ESSA 202120Z 18005KT CAVOK 13/09 Q1017 NOSIG=
201206202050 METAR ESSA 202050Z 14003KT CAVOK 14/10 Q1017 NOSIG=
201206202020 METAR ESSA 202020Z 09005KT CAVOK 15/10 Q1017 NOSIG=
201206201950 METAR ESSA 201950Z VRB01KT CAVOK 17/10 Q1017 NOSIG=
201206201920 METAR ESSA 201920Z 34004KT 290V350 CAVOK 17/09 Q1017 NOSIG=
201206201850 METAR ESSA 201850Z 33008KT CAVOK 17/09 Q1017 NOSIG=
201206201820 METAR ESSA 201820Z 34009KT CAVOK 18/09 Q1016 NOSIG=
201206201750 METAR ESSA 201750Z 28007KT CAVOK 19/06 Q1016 NOSIG=
201206201720 METAR ESSA 201720Z 27008KT CAVOK 20/05 Q1016 NOSIG=
201206201650 METAR ESSA 201650Z 26008KT 230V290 CAVOK 20/04 Q1016 NOSIG=
201206201620 METAR ESSA 201620Z 23007KT CAVOK 21/04 Q1016 NOSIG=
201206201550 METAR ESSA 201550Z 25009KT CAVOK 21/03 Q1016 NOSIG=
201206201520 METAR ESSA 201520Z 26010KT CAVOK 21/03 Q1016 NOSIG=
201206201450 METAR ESSA 201450Z 27007G17KT 230V310 CAVOK 21/05 Q1016 NOSIG=
201206201420 METAR ESSA 201420Z 27007KT 210V350 CAVOK 21/06 Q1016 NOSIG=
201206201350 METAR ESSA 201350Z 25007KT 210V310 CAVOK 20/05 Q1017 NOSIG=
201206201320 METAR ESSA 201320Z 32008KT 290V360 CAVOK 20/04 Q1017 NOSIG=
201206201250 METAR ESSA 201250Z 22007KT 180V270 CAVOK 20/06 Q1017 NOSIG=
201206201220 METAR ESSA 201220Z 26007KT 220V320 CAVOK 20/06 Q1017 NOSIG=
201206201150 METAR ESSA 201150Z 25006KT 190V280 CAVOK 20/06 Q1017 NOSIG=
201206201120 METAR ESSA 201120Z 25008KT CAVOK 19/06 Q1017 NOSIG=
201206201050 METAR ESSA 201050Z 21005KT 160V260 9999 FEW048 19/06 Q1017
                        NOSIG=
201206201020 METAR ESSA 201020Z 25005KT 200V290 9999 FEW047 18/06 Q1017
                        NOSIG=
201206200950 METAR ESSA 200950Z 31004KT 260V360 CAVOK 18/07 Q1018 NOSIG=
201206200920 METAR ESSA 200920Z 25006KT CAVOK 17/06 Q1018 NOSIG=
201206200850 METAR ESSA 200850Z 17005KT 130V200 CAVOK 17/05 Q1017 NOSIG=
201206200820 METAR ESSA 200820Z 22003KT 190V250 CAVOK 17/04 Q1017 NOSIG=
201206200750 METAR ESSA 200750Z 20003KT 170V230 CAVOK 16/05 Q1018 NOSIG=
201206200720 METAR ESSA 200720Z 32003KT 240V360 CAVOK 16/05 Q1018 NOSIG=
201206200650 METAR ESSA 200650Z 15004KT 070V240 CAVOK 15/04 Q1017 NOSIG=
201206200620 METAR ESSA 200620Z 05004KT CAVOK 15/04 Q1018 NOSIG=
201206200550 METAR ESSA 200550Z 05006KT 010V080 CAVOK 14/05 Q1017 NOSIG=
201206200520 METAR ESSA 200520Z 03007KT 360V070 CAVOK 13/05 Q1017 NOSIG=
201206200450 METAR ESSA 200450Z 02007KT CAVOK 13/05 Q1017 NOSIG=
201206200420 METAR ESSA 200420Z 03003KT 350V070 CAVOK 12/07 Q1017 NOSIG=
201206200350 METAR ESSA 200350Z 31003KT 280V350 CAVOK 11/08 Q1017 NOSIG=
201206200320 METAR ESSA 200320Z VRB02KT CAVOK 10/08 Q1017 NOSIG=
201206200250 METAR ESSA 200250Z 30003KT CAVOK 09/07 Q1017 NOSIG=
201206200220 METAR ESSA 200220Z 24003KT CAVOK 09/07 Q1017 NOSIG=
201206200150 METAR ESSA 200150Z 26003KT CAVOK 10/07 Q1016 NOSIG=
201206200120 METAR ESSA 200120Z 25005KT CAVOK 10/07 Q1016 NOSIG=
201206200050 METAR ESSA 200050Z 26005KT CAVOK 11/07 Q1016 NOSIG=
201206200020 METAR ESSA 200020Z 25006KT CAVOK 12/07 Q1016 NOSIG=
201206192350 METAR ESSA 192350Z 25006KT CAVOK 12/07 Q1016 NOSIG=
201206192320 METAR ESSA 192320Z 25006KT CAVOK 13/07 Q1016 NOSIG=
201206192250 METAR ESSA 192250Z 27006KT CAVOK 13/07 Q1016 NOSIG=
201206192220 METAR ESSA 192220Z 26007KT CAVOK 14/08 Q1016 NOSIG=
201206192150 METAR ESSA 192150Z 26008KT CAVOK 15/08 Q1015 NOSIG=
201206192120 METAR ESSA 192120Z 26008KT CAVOK 15/08 Q1015 NOSIG=
201206192050 METAR ESSA 192050Z 23008KT CAVOK 15/08 Q1015 NOSIG=
201206192020 METAR ESSA 192020Z 24010KT CAVOK 16/08 Q1015 NOSIG=
201206191950 METAR ESSA 191950Z 23010KT CAVOK 17/09 Q1014 NOSIG=
201206191920 METAR ESSA 191920Z 26009KT CAVOK 17/09 Q1014 NOSIG=
201206191850 METAR ESSA 191850Z 24008KT CAVOK 18/08 Q1013 NOSIG=
201206191820 METAR ESSA 191820Z 27008KT CAVOK 19/07 Q1013 NOSIG=
201206191750 METAR ESSA 191750Z 28011KT CAVOK 19/04 Q1013 NOSIG=
201206191720 METAR ESSA 191720Z 27013KT CAVOK 20/04 Q1013 NOSIG=
201206191650 METAR ESSA 191650Z 27017KT CAVOK 20/04 Q1013 NOSIG=
201206191620 METAR ESSA 191620Z 27017KT CAVOK 20/04 Q1013 NOSIG=
201206191550 METAR ESSA 191550Z 27019KT CAVOK 20/04 Q1012 NOSIG=
201206191520 METAR ESSA 191520Z 28019KT CAVOK 20/04 Q1012 NOSIG=
201206191450 METAR ESSA 191450Z 28020KT CAVOK 20/05 Q1012 NOSIG=
201206191420 METAR ESSA 191420Z 27021KT CAVOK 20/06 Q1012 NOSIG=
201206191350 METAR ESSA 191350Z 27021KT CAVOK 19/06 Q1012 NOSIG=
201206191320 METAR ESSA 191320Z 26022KT 9999 SCT043 20/10 Q1011 NOSIG=
201206191250 METAR ESSA 191250Z 25021KT 9999 SCT043 19/09 Q1011 NOSIG=
201206191220 METAR ESSA 191220Z 25021KT 9999 SCT043 19/09 Q1011 NOSIG=
201206191150 METAR ESSA 191150Z 24019KT 9999 SCT040 18/10 Q1011 NOSIG=
201206191120 METAR ESSA 191120Z 24017KT 9999 SCT035 17/10 Q1011 NOSIG=
201206191050 METAR ESSA 191050Z 26016KT 9999 SCT032 17/10 Q1010 NOSIG=
201206191020 METAR ESSA 191020Z 26018KT 9999 SCT030 16/10 Q1010 NOSIG=
201206190950 METAR ESSA 190950Z 26016KT 9999 SCT029 16/11 Q1010 NOSIG=
201206190920 METAR ESSA 190920Z 25016KT 9999 SCT025 16/11 Q1010 NOSIG=
201206190850 METAR ESSA 190850Z 26013KT 9999 SCT022 15/11 Q1009 NOSIG=
201206190820 METAR ESSA 190820Z 26013KT 9999 SCT020 15/11 Q1009 NOSIG=
201206190750 METAR ESSA 190750Z 28014KT 9999 SCT017 15/10 Q1009 NOSIG=
201206190720 METAR ESSA 190720Z 27012KT 9999 SCT017 14/12 Q1009 NOSIG=
201206190650 METAR ESSA 190650Z 27015KT 9999 SCT012 14/12 Q1009 TEMPO
                        BKN012=
201206190620 METAR ESSA 190620Z 27012KT 9999 SCT010 14/13 Q1009 TEMPO
                        BKN012=
201206190550 METAR ESSA 190550Z 25005KT 7000 BR BKN007 13/13 Q1009 BECMG
                        9000 SCT 700FT=
201206190520 METAR ESSA 190520Z 26004KT 3000 BR BKN007 13/13 Q1009 BECMG
                        9000 SCT 700FT=
201206190450 METAR COR ESSA 190450Z 28004KT 5000 BR BKN005 13/13 Q1008
                        TEMPO 3000=
201206190420 METAR ESSA 190420Z 31004KT 7000 BR BKN005 13/12 Q1008 TEMPO
                        3000=
201206190350 METAR ESSA 190350Z 34003KT 7000 BR BKN005 13/12 Q1008 TEMPO
                        3000=
201206190320 METAR ESSA 190320Z 33003KT 300V020 7000 BR SCT005 BKN045
                        12/12 Q1008 NOSIG=
201206190250 METAR ESSA 190250Z 07003KT 350V100 9999 SCT003 OVC045 12/12
                        Q1008 NOSIG=
201206190220 METAR ESSA 190220Z 10006KT 8000 BKN045 13/12 Q1008 NOSIG=
201206190150 METAR ESSA 190150Z 11004KT 4000 -RA BR SCT010 BKN030 13/12
                        Q1009 NOSIG=
201206190120 METAR ESSA 190120Z 05002KT 5000 -RA SCT020 BKN035 13/12 Q1010
                        RERA NOSIG=
201206190050 METAR ESSA 190050Z 23002KT 5000 RA BR BKN035 13/12 Q1010
                        TEMPO 4000=
201206190020 METAR ESSA 190020Z 14003KT 090V160 8000 RA BKN045 13/12 Q1010
                        TEMPO 4000 RA=
201206182350 METAR ESSA 182350Z 13004KT 9999 -RA BKN045 13/12 Q1010 TEMPO
                        4000 RA=
201206182320 METAR COR ESSA 182320Z 13006KT 7000 RA BKN070 13/12 Q1010
                        TEMPO 4000=
201206182250 METAR ESSA 182250Z 13006KT 9999 -RA BKN070 14/11 Q1011 NOSIG=
201206182220 METAR ESSA 182220Z 15008KT CAVOK 15/11 Q1011 NOSIG=
201206182150 METAR ESSA 182150Z 15008KT CAVOK 15/11 Q1011 NOSIG=
201206182120 METAR ESSA 182120Z 14006KT CAVOK 15/11 Q1011 NOSIG=
201206182050 METAR ESSA 182050Z 16007KT CAVOK 16/10 Q1012 NOSIG=
201206182020 METAR ESSA 182020Z 14006KT CAVOK 16/10 Q1012 NOSIG=
201206181950 METAR ESSA 181950Z 16005KT CAVOK 16/10 Q1012 NOSIG=
201206181920 METAR ESSA 181920Z 18008KT CAVOK 16/10 Q1013 NOSIG=
201206181850 METAR ESSA 181850Z 18009KT CAVOK 16/10 Q1013 NOSIG=
201206181820 METAR ESSA 181820Z 19009KT CAVOK 16/10 Q1014 NOSIG=
201206181750 METAR ESSA 181750Z 18009KT CAVOK 17/11 Q1013 NOSIG=
201206181720 METAR ESSA 181720Z 20007KT 9999 FEW042 SCT055 BKN190 17/11
                        Q1013 NOSIG=
201206181650 METAR ESSA 181650Z 21008KT CAVOK 17/11 Q1014 NOSIG=
201206181620 METAR ESSA 181620Z 24009KT CAVOK 18/11 Q1014 NOSIG=
201206181550 METAR ESSA 181550Z 23010KT 9999 SCT031 17/11 Q1014 NOSIG=
201206181520 METAR ESSA 181520Z 21009KT 9999 SCT031 18/11 Q1014 NOSIG=
201206181450 METAR ESSA 181450Z 24008KT 9999 FEW025 17/11 Q1015 NOSIG=
201206181420 METAR ESSA 181420Z 22011KT 9999 FEW025 17/11 Q1015 NOSIG=
201206181350 METAR ESSA 181350Z 22010KT 9999 FEW025 18/12 Q1015 NOSIG=
201206181320 METAR ESSA 181320Z 23013KT 9999 FEW025 17/11 Q1016 NOSIG=
201206181250 METAR ESSA 181250Z 22013KT 9999 SCT027 17/11 Q1015 NOSIG=
201206181220 METAR ESSA 181220Z 21011KT 9999 SCT026 17/12 Q1015 NOSIG=
201206181150 METAR ESSA 181150Z 22010KT 9999 FEW025 16/11 Q1016 NOSIG=
201206181120 METAR ESSA 181120Z 25013KT 9999 FEW027 BKN049 17/11 Q1016
                        NOSIG=
201206181050 METAR ESSA 181050Z 24014KT 9999 BKN042 17/11 Q1016 NOSIG=
201206181020 METAR ESSA 181020Z 24013KT 9999 FEW024 BKN049 16/10 Q1016
                        NOSIG=
201206180950 METAR ESSA 180950Z 25012KT 9999 FEW024 BKN046 17/11 Q1016
                        NOSIG=
201206180920 METAR ESSA 180920Z 24012KT 9999 FEW023 BKN045 16/11 Q1016
                        NOSIG=
201206180850 METAR ESSA 180850Z 24012KT 9999 SCT021 BKN049 16/11 Q1016
                        NOSIG=
201206180820 METAR ESSA 180820Z 24013KT 9999 SCT020 BKN049 16/11 Q1016
                        NOSIG=
201206180750 METAR ESSA 180750Z 25010KT 9999 FEW017 BKN045 15/11 Q1016
                        NOSIG=
201206180720 METAR ESSA 180720Z 25013KT 9999 SCT018 BKN021 15/11 Q1016
                        NOSIG=
201206180650 METAR ESSA 180650Z 24012KT 9999 BKN021 16/11 Q1016 NOSIG=
201206180620 METAR ESSA 180620Z 26013KT 9999 SCT020 BKN040 16/12 Q1015
                        NOSIG=
201206180550 METAR ESSA 180550Z 25012KT 9999 SCT015 15/12 Q1015 NOSIG=
201206180520 METAR ESSA 180520Z 25011KT 9999 FEW012 BKN046 15/12 Q1015
                        NOSIG=
201206180450 METAR ESSA 180450Z 25010KT 9999 FEW012 BKN046 14/12 Q1015
                        NOSIG=
201206180420 METAR ESSA 180420Z 25011KT 9999 SCT011 BKN047 14/12 Q1015
                        NOSIG=
201206180350 METAR ESSA 180350Z 23009KT 9999 FEW013 BKN017 14/12 Q1015
                        NOSIG=
201206180320 METAR ESSA 180320Z 24007KT 9999 SCT013 BKN017 13/12 Q1015
                        TEMPO BKN013=
201206180250 METAR ESSA 180250Z 24007KT 9999 FEW016 BKN019 13/12 Q1015
                        NOSIG=
201206180220 METAR ESSA 180220Z 23008KT 9999 SCT016 12/12 Q1015 NOSIG=
201206180150 METAR ESSA 180150Z 25009KT CAVOK 13/11 Q1015 NOSIG=
201206180120 METAR ESSA 180120Z 24009KT CAVOK 13/11 Q1014 NOSIG=
201206180050 METAR ESSA 180050Z 25009KT CAVOK 13/11 Q1014 NOSIG=
201206180020 METAR ESSA 180020Z 25007KT CAVOK 13/11 Q1014 NOSIG=
201206172350 METAR ESSA 172350Z 23006KT CAVOK 13/11 Q1014 NOSIG=
201206172320 METAR ESSA 172320Z 23009KT CAVOK 13/11 Q1014 NOSIG=
201206172250 METAR ESSA 172250Z 24008KT CAVOK 13/11 Q1014 NOSIG=
201206172220 METAR ESSA 172220Z 23009KT CAVOK 14/11 Q1013 NOSIG=
201206172150 METAR ESSA 172150Z 23012KT CAVOK 14/11 Q1013 NOSIG=
201206172120 METAR ESSA 172120Z 23010KT CAVOK 14/11 Q1013 NOSIG=
201206172050 METAR ESSA 172050Z 22009KT CAVOK 14/11 Q1012 NOSIG=
201206172020 METAR ESSA 172020Z 22009KT CAVOK 14/11 Q1012 NOSIG=
201206171950 METAR ESSA 171950Z 22010KT CAVOK 15/11 Q1012 NOSIG=
201206171920 METAR ESSA 171920Z 25009KT CAVOK 16/11 Q1012 NOSIG=
201206171850 METAR ESSA 171850Z 24012KT CAVOK 17/11 Q1012 NOSIG=
201206171820 METAR ESSA 171820Z 24012KT CAVOK 17/12 Q1011 NOSIG=
201206171750 METAR ESSA 171750Z 23008KT 9999 FEW042 SCT085 17/12 Q1011
                        NOSIG=
201206171720 METAR ESSA 171720Z 25009KT 9999 SCT041 17/12 Q1011 NOSIG=
201206171650 METAR ESSA 171650Z 25012KT 9999 FEW025 BKN078 17/12 Q1011
                        NOSIG=
201206171620 METAR ESSA 171620Z 25009KT 9999 FEW021 SCT025 17/13 Q1011
                        NOSIG=
201206171550 METAR ESSA 171550Z 24011KT 9999 SCT018 17/13 Q1010 NOSIG=
201206171520 METAR ESSA 171520Z 25010KT 9999 SCT019 BKN086 17/13 Q1010
                        NOSIG=
201206171450 METAR ESSA 171450Z 24007KT 9999 SCT017 BKN075 16/13 Q1010
                        NOSIG=
201206171420 METAR ESSA 171420Z 25010KT 9999 SCT015 BKN070 15/13 Q1010
                        NOSIG=
201206171350 METAR ESSA 171350Z 25010KT 9999 SCT012 BKN015 15/12 Q1010
                        NOSIG=
201206171320 METAR ESSA 171320Z 25009KT 9999 SCT012 BKN015 14/12 Q1009
                        NOSIG=
201206171250 METAR ESSA 171250Z 26008KT 9000 -RA BR SCT008 BKN010 14/12
                        Q1009 BECMG BKN015=
201206171220 METAR ESSA 171220Z 28008KT 9000 -RA BR SCT007 BKN009 13/12
                        Q1009 BECMG BKN015=
201206171150 METAR ESSA 171150Z 29009KT 9000 -RA BR SCT007 BKN009 13/13
                        Q1009 BECMG BKN012=
201206171120 METAR ESSA 171120Z 31009KT 7000 -RA BR SCT005 BKN007 13/13
                        Q1008 NOSIG=
201206171050 METAR ESSA 171050Z 31008KT 7000 -RA BR SCT004 BKN006 13/12
                        Q1008 NOSIG=
201206171020 METAR ESSA 171020Z 32008KT 6000 -RA BR SCT004 BKN006 13/12
                        Q1008 TEMPO 4000 RA=
201206170950 METAR ESSA 170950Z 33007KT 6000 -RA BR SCT004 BKN006 13/12
                        Q1007 TEMPO 4000 RA=
201206170920 METAR ESSA 170920Z 34005KT 6000 -RA BR SCT004 BKN006 12/12
                        Q1007 TEMPO 4000 RA=
201206170850 METAR ESSA 170850Z 36007KT 6000 -RA BR SCT004 BKN006 12/12
                        Q1007 TEMPO 4000 RA=
201206170820 METAR ESSA 170820Z 02007KT 6000 -RA BR SCT005 BKN008 12/12
                        Q1006 TEMPO 4000 SHRA BKN004=
201206170750 METAR ESSA 170750Z 04006KT 6000 -RA BR SCT005 BKN008 12/12
                        Q1007 TEMPO 4000 SHRA BKN004=
201206170720 METAR ESSA 170720Z 07006KT 6000 -RA BR SCT005 BKN008 12/12
                        Q1007 TEMPO 4000 SHRA BKN004=
201206170650 METAR ESSA 170650Z 07005KT 5000 -RA BR BKN005 12/12 Q1007
                        TEMPO 3000 SHRA BKN004=
201206170620 METAR ESSA 170620Z 10006KT 5000 -SHRA BR BKN005 12/12 Q1007
                        BECMG 3000 SHRA BKN010 BKN015CB=
201206170550 METAR ESSA 170550Z 08006KT 5000 -SHRA BR BKN005 12/12 Q1007
                        BECMG 3000 SHRA BKN010 BKN015CB=
201206170520 METAR ESSA 170520Z 09007KT 5000 -RA BR BKN003 12/12 Q1007
                        BECMG 4000 RA BKN010=
201206170450 METAR ESSA 170450Z 09007KT 060V140 3000 BR BKN002 12/12 Q1007
                        BECMG 4000 RA BKN010=
201206170420 METAR ESSA 170420Z 12005KT 1500 R01L/P1500N R19R/P1500N R01R/1000V1400N
                        R19L/P1500N BKN002 12/12 Q1008 BECMG
                        5000=
201206170350 METAR ESSA 170350Z 08007KT 0500 R01L/1100VP1500U R19R/0750VP1500U
                        R01R/0750V1000N R19L/1000VP1500N
                        FG VV002 11/11 Q1008 BECMG 0800=
201206170320 METAR ESSA 170320Z 09005KT 0400 R01L/P1500N R19R/0800V1300U
                        R01R/0700N R19L/0800N FG VV002 11/11
                        Q1008 BECMG 0800=
201206170250 METAR COR ESSA 170250Z 09005KT 0400 R01L/1500D R19R/0800V1200N
                        R01R/0700N R19L/0900N FG VV002 11/11
                        Q1009 BECMG 0800=
201206170220 METAR COR ESSA 170220Z 08003KT 0500 R01L/P1500N R19R/1200N
                        R01R/0900V1400N R19L/1200N FG VV002
                        11/11 Q1010 BECMG 800=
201206170150 METAR ESSA 170150Z 10005KT 0500 R01L/P1500N R19R/0800V1200D
                        R01R/1200N R19L/1300N FG VV002 11/11
                        Q1010 BECMG 1500=
201206170120 METAR ESSA 170120Z 10003KT 070V130 0400 R01L/0800V1100N R19R/0750N
                        R01R/0650N R19L/1100N FG VV002 11/11
                        Q1010 BECMG 1500=
201206170050 METAR ESSA 170050Z 10005KT 0300 R01L/0550V0800N R19R/0700N
                        R01R/0700N R19L/0800N FG VV002 11/11
                        Q1010 BECMG 1500=
201206170020 METAR ESSA 170020Z 10003KT 0200 R01L/0750N R19R/0400V0550N
                        R01R/0550N R19L/0600N FG VV002 11/11
                        Q1011 BECMG 1500=
201206162350 METAR ESSA 162350Z 08004KT 0300 R01L/0800N R19R/1000N R01R/0600N
                        R19L/0500N FG VV002 11/11 Q1011 NOSIG=
201206162320 METAR ESSA 162320Z 13003KT 0300 R01L/0900VP1500D R19R/0600V0800N
                        R01R/0750N R19L/0400V0600N FG VV002
                        11/11 Q1011 NOSIG=
201206162250 METAR ESSA 162250Z 10005KT 0200 R01L/0600V0800N R19R/0450N
                        R01R/0700N R19L/0350V0500N FG VV002
                        12/12 Q1011 NOSIG=
201206162220 METAR ESSA 162220Z 08005KT 0200 R01L/0800VP1500U R19R/0700VP1500D
                        R01R/0700N R19L/0400V0550N FG VV002
                        12/12 Q1011 NOSIG=
201206162150 METAR ESSA 162150Z 14003KT 0300 R01L/0900N R19R/0600N R01R/0500N
                        R19L/0550N FG VV002 12/12 Q1012 NOSIG=
201206162120 METAR ESSA 162120Z 11004KT 0500 R01L/0650VP1500D R19R/0750VP1500D
                        R01R/0700N R19L/0650N FG VV002 12/12
                        Q1012 NOSIG=
201206162050 METAR COR ESSA 162050Z 11005KT 1500 R01L/P1500N R19R/P1500N
                        R01R/P1500N R19L/P1500N BCFG VV003
                        12/12 Q1012 BECMG 900 FG VV002=
201206162020 METAR COR ESSA 162020Z 13005KT 7000 R01L/P1500N R19R/P1500N
                        R01R/P1500N R19L/P1500N BCFG FEW027
                        13/12 Q1012 TEMPO 2000=
201206161950 METAR ESSA 161950Z 13003KT 6000 R01L/P1500N R19R/P1500N R01R/P1500N
                        R19L/P1500N NSC 14/13 Q1012 NOSIG=
201206161920 METAR COR ESSA 161920Z 13003KT CAVOK 14/13 Q1012 NOSIG=
201206161850 METAR ESSA 161850Z 15005G15KT 9999 SCT009 SCT024 14/13 Q1012
                        BECMG SCT030=
201206161820 METAR ESSA 161820Z 19003KT 9999 FEW006 SCT008 BKN010 14/13
                        Q1012 BECMG SCT030=
201206161750 METAR ESSA 161750Z 15004KT 9999 SCT005 BKN008 14/13 Q1012
                        BECMG BKN010=
201206161720 METAR ESSA 161720Z 14005KT 9999 SCT005 BKN032 14/13 Q1012
                        BECMG BKN010=
201206161650 METAR ESSA 161650Z 14007KT 9999 BKN005 BKN037 14/13 Q1013
                        BECMG BKN010=
201206161620 METAR ESSA 161620Z 13007KT 9999 BKN005 BKN009 14/13 Q1013
                        BECMG BKN010=
201206161550 METAR ESSA 161550Z 14007KT 9999 BKN005 14/13 Q1013 BECMG
                        BKN010=
201206161520 METAR COR ESSA 161520Z 14007KT 7000 BR BKN006 14/13 Q1013
                        BECMG BKN010=
201206161450 METAR ESSA 161450Z 14008KT 9999 BKN006 13/13 Q1013 REDZ NOSIG=
201206161420 METAR ESSA 161420Z 14008KT 9999 BKN006 13/12 Q1013 NOSIG=
201206161350 METAR COR ESSA 161350Z 12009KT 9999 BKN006 13/12 Q1013 NOSIG=
201206161320 METAR ESSA 161320Z 12009KT 9999 BKN007 13/12 Q1013 NOSIG=
201206161250 METAR ESSA 161250Z 12008KT 8000 -RA BR BKN007 12/11 Q1013
                        NOSIG=
201206161220 METAR ESSA 161220Z 11007KT 8000 -RA BR FEW007 BKN012 12/11
                        Q1013 TEMPO 4000 BKN008=
201206161150 METAR ESSA 161150Z 12008KT 9999 -RA FEW015 BKN035 12/10 Q1014
                        BECMG BKN014=
201206161120 METAR ESSA 161120Z 12009KT 9999 FEW040 BKN065 12/10 Q1014
                        TEMPO RA=
201206161050 METAR ESSA 161050Z 13009KT 9999 -RA NSC 13/10 Q1014 TEMPO
                        RA=
201206161020 METAR ESSA 161020Z 13008KT 9999 -RA BKN045 12/09 Q1015 TEMPO
                        RA=
201206160950 METAR ESSA 160950Z 12011KT 9999 -RA FEW045 BKN055 13/09 Q1015
                        BECMG RA=
201206160920 METAR ESSA 160920Z 14012KT 9999 -RA FEW040 BKN060 14/08 Q1015
                        BECMG RA=
201206160850 METAR ESSA 160850Z 14011G22KT 9999 FEW020 BKN055 14/09 Q1015
                        BECMG RA=
201206160820 METAR ESSA 160820Z 13013KT CAVOK 15/08 Q1015 BECMG RA=
201206160750 METAR ESSA 160750Z 13010KT CAVOK 14/08 Q1015 NOSIG=
201206160720 METAR ESSA 160720Z 13011KT CAVOK 14/08 Q1015 NOSIG=
201206160650 METAR ESSA 160650Z 14012KT CAVOK 14/09 Q1015 NOSIG=
201206160620 METAR ESSA 160620Z 14007KT CAVOK 13/09 Q1016 NOSIG=
201206160550 METAR ESSA 160550Z 14007KT CAVOK 13/09 Q1016 NOSIG=
201206160520 METAR ESSA 160520Z 14009KT CAVOK 13/09 Q1016 NOSIG=
201206160450 METAR ESSA 160450Z 13008KT CAVOK 13/09 Q1016 NOSIG=
201206160420 METAR ESSA 160420Z 12009KT CAVOK 12/09 Q1016 NOSIG=
201206160350 METAR ESSA 160350Z 12009KT CAVOK 12/09 Q1016 NOSIG=
201206160320 METAR ESSA 160320Z 13008KT 9999 SCT045 BKN180 11/09 Q1016
                        NOSIG=
201206160250 METAR ESSA 160250Z 13007KT 9999 BKN043 11/08 Q1016 NOSIG=
201206160220 METAR ESSA 160220Z 13006KT 9999 BKN041 10/07 Q1016 NOSIG=
201206160150 METAR ESSA 160150Z 12006KT 9999 BKN041 10/07 Q1017 NOSIG=
201206160120 METAR ESSA 160120Z 11006KT 9999 SCT041 09/07 Q1017 NOSIG=
201206160050 METAR ESSA 160050Z 11006KT 9999 FEW040 09/07 Q1017 NOSIG=
201206160020 METAR ESSA 160020Z 13005KT 9999 FEW042 09/06 Q1018 NOSIG=
201206152350 METAR ESSA 152350Z 14004KT 9999 BKN042 10/06 Q1018 NOSIG=
201206152320 METAR ESSA 152320Z 14005KT 9999 FEW044 10/06 Q1018 NOSIG=
201206152250 METAR ESSA 152250Z 15004KT CAVOK 10/06 Q1018 NOSIG=
201206152220 METAR ESSA 152220Z 17005KT CAVOK 11/06 Q1018 NOSIG=
201206152150 METAR ESSA 152150Z 17006KT CAVOK 11/06 Q1018 NOSIG=
201206152120 METAR ESSA 152120Z 20005KT CAVOK 12/07 Q1018 NOSIG=
201206152050 METAR ESSA 152050Z 21005KT CAVOK 12/07 Q1018 NOSIG=
201206152020 METAR ESSA 152020Z 18007KT CAVOK 13/07 Q1018 NOSIG=
201206151950 METAR ESSA 151950Z 17005KT CAVOK 14/07 Q1017 NOSIG=
201206151920 METAR ESSA 151920Z 18006KT CAVOK 15/07 Q1017 NOSIG=
201206151850 METAR ESSA 151850Z 15007KT CAVOK 16/08 Q1017 NOSIG=
201206151820 METAR ESSA 151820Z 16007KT CAVOK 17/08 Q1017 NOSIG=
201206151750 METAR ESSA 151750Z 15008KT CAVOK 17/08 Q1017 NOSIG=
201206151720 METAR ESSA 151720Z 14009KT CAVOK 18/07 Q1017 NOSIG=
201206151650 METAR ESSA 151650Z 16008KT 120V190 CAVOK 18/07 Q1017 NOSIG=
201206151620 METAR ESSA 151620Z 20007KT 160V220 CAVOK 19/06 Q1017 NOSIG=
201206151550 METAR ESSA 151550Z 20007KT CAVOK 18/06 Q1017 NOSIG=
201206151520 METAR ESSA 151520Z 18008KT CAVOK 19/05 Q1017 NOSIG=
201206151450 METAR ESSA 151450Z 21008KT 180V250 CAVOK 18/07 Q1017 NOSIG=
201206151420 METAR ESSA 151420Z 19007KT 160V230 CAVOK 18/06 Q1017 NOSIG=
201206151350 METAR ESSA 151350Z 21006KT 170V240 CAVOK 19/05 Q1017 NOSIG=
201206151320 METAR ESSA 151320Z 17007KT 140V210 CAVOK 19/06 Q1017 NOSIG=
201206151250 METAR ESSA 151250Z 16009KT 140V200 9999 FEW046 SCT060 19/06
                        Q1017 NOSIG=
201206151220 METAR ESSA 151220Z VRB06KT 9999 SCT043 SCT060 17/08 Q1018
                        NOSIG=
201206151150 METAR ESSA 151150Z 19007KT 150V220 9999 FEW041 BKN060 17/08
                        Q1018 NOSIG=
201206151120 METAR ESSA 151120Z 21006KT 150V240 9999 FEW040 BKN060 17/08
                        Q1018 NOSIG=
201206151050 METAR ESSA 151050Z 20007KT 170V240 9999 FEW040 BKN060 17/07
                        Q1018 NOSIG=
201206151020 METAR ESSA 151020Z 21007KT 170V230 9999 FEW040 BKN060 16/07
                        Q1018 NOSIG=
201206150950 METAR ESSA 150950Z 20009KT 9999 FEW039 BKN060 17/07 Q1018
                        NOSIG=
201206150920 METAR ESSA 150920Z 20008KT 9999 SCT038 SCT055 17/08 Q1018
                        NOSIG=
201206150850 METAR ESSA 150850Z 25008KT 220V280 9999 SCT036 SCT200 16/08
                        Q1017 NOSIG=
201206150820 METAR ESSA 150820Z 19007KT 170V230 9999 FEW034 SCT200 16/08
                        Q1017 NOSIG=
201206150750 METAR ESSA 150750Z 26005KT 230V320 9999 FEW033 SCT200 16/08
                        Q1017 NOSIG=
201206150720 METAR ESSA 150720Z 21005KT 9999 FEW032 SCT200 15/07 Q1017
                        NOSIG=
201206150650 METAR ESSA 150650Z 24005KT 210V310 CAVOK 14/07 Q1017 NOSIG=
201206150620 METAR ESSA 150620Z 24005KT CAVOK 14/07 Q1017 NOSIG=
201206150550 METAR ESSA 150550Z 23005KT CAVOK 13/08 Q1017 NOSIG=
201206150520 METAR ESSA 150520Z 25007KT CAVOK 13/07 Q1017 NOSIG=
201206150450 METAR ESSA 150450Z 26007KT CAVOK 12/08 Q1017 NOSIG=
201206150420 METAR ESSA 150420Z 24006KT CAVOK 12/08 Q1016 NOSIG=
201206150350 METAR ESSA 150350Z 27006KT CAVOK 11/08 Q1016 NOSIG=
201206150320 METAR ESSA 150320Z 25005KT CAVOK 10/07 Q1016 NOSIG=
201206150250 METAR ESSA 150250Z 26005KT CAVOK 10/07 Q1016 NOSIG=
201206150220 METAR ESSA 150220Z 25006KT CAVOK 11/07 Q1016 NOSIG=
201206150150 METAR ESSA 150150Z 26007KT CAVOK 11/08 Q1016 NOSIG=
201206150120 METAR ESSA 150120Z 26005KT CAVOK 11/08 Q1016 NOSIG=
201206150050 METAR ESSA 150050Z 25005KT CAVOK 12/08 Q1016 NOSIG=
201206150020 METAR ESSA 150020Z 25005KT 9999 FEW034 BKN078 11/08 Q1015
                        NOSIG=
201206142350 METAR ESSA 142350Z 27005KT 9999 FEW030 BKN078 11/08 Q1015
                        NOSIG=
201206142320 METAR ESSA 142320Z 25006KT CAVOK 11/09 Q1015 NOSIG=
201206142250 METAR ESSA 142250Z 24005KT CAVOK 10/08 Q1015 NOSIG=
201206142220 METAR ESSA 142220Z 21004KT CAVOK 11/08 Q1015 NOSIG=
201206142150 METAR ESSA 142150Z 21004KT CAVOK 12/08 Q1014 NOSIG=
201206142120 METAR ESSA 142120Z 25006KT CAVOK 12/08 Q1014 NOSIG=
201206142050 METAR ESSA 142050Z 24004KT CAVOK 13/08 Q1014 NOSIG=
201206142020 METAR ESSA 142020Z 23006KT CAVOK 14/07 Q1014 NOSIG=
201206141950 METAR ESSA 141950Z 24006KT CAVOK 14/07 Q1013 NOSIG=
201206141920 METAR ESSA 141920Z 23005KT CAVOK 15/07 Q1013 NOSIG=
201206141850 METAR ESSA 141850Z 26006KT CAVOK 16/07 Q1013 NOSIG=
201206141820 METAR ESSA 141820Z 25009KT CAVOK 17/07 Q1013 NOSIG=
201206141750 METAR ESSA 141750Z 25010KT CAVOK 17/06 Q1013 NOSIG=
201206141720 METAR ESSA 141720Z 24012KT 9999 FEW048 SCT070 17/06 Q1012
                        NOSIG=
201206141650 METAR ESSA 141650Z 24010KT 210V270 9999 FEW046 SCT066 17/07
                        Q1012 NOSIG=
201206141620 METAR ESSA 141620Z 25011KT 9999 FEW048 BKN066 17/08 Q1012
                        NOSIG=
201206141550 METAR ESSA 141550Z 25015KT CAVOK 18/06 Q1012 NOSIG=
201206141520 METAR ESSA 141520Z 25011KT 9999 FEW049 BKN062 18/07 Q1012
                        NOSIG=
201206141450 METAR ESSA 141450Z 22014KT CAVOK 17/06 Q1012 NOSIG=
201206141420 METAR ESSA 141420Z 26015KT CAVOK 17/05 Q1011 NOSIG=
201206141350 METAR ESSA 141350Z 23015KT CAVOK 17/06 Q1011 NOSIG=
201206141320 METAR ESSA 141320Z 22015KT 180V240 CAVOK 18/07 Q1011 NOSIG=
201206141250 METAR ESSA 141250Z 23015KT CAVOK 19/06 Q1011 NOSIG=
201206141220 METAR ESSA 141220Z 25016KT CAVOK 18/05 Q1011 NOSIG=
201206141150 METAR ESSA 141150Z 21014KT CAVOK 18/06 Q1011 NOSIG=
201206141120 METAR ESSA 141120Z 24014KT 220V280 CAVOK 17/06 Q1011 NOSIG=
201206141050 METAR ESSA 141050Z 22016KT 9999 FEW047 BKN060 17/06 Q1011
                        NOSIG=
201206141020 METAR ESSA 141020Z 23014KT 9999 FEW045 BKN055 17/06 Q1011
                        NOSIG=
201206140950 METAR ESSA 140950Z 24016KT 9999 FEW042 BKN053 17/08 Q1011
                        NOSIG=
201206140920 METAR ESSA 140920Z 25013KT 9999 FEW042 BKN050 17/09 Q1011
                        NOSIG=
201206140850 METAR ESSA 140850Z 26013KT 9999 SCT024 BKN046 16/10 Q1010
                        NOSIG=
201206140820 METAR ESSA 140820Z 22012KT 9999 FEW022 SCT035 BKN044 16/11
                        Q1010 NOSIG=
201206140750 METAR ESSA 140750Z 22011KT 9999 SCT020 BKN061 17/12 Q1010
                        NOSIG=
201206140720 METAR ESSA 140720Z 22010KT 9999 SCT019 BKN060 16/12 Q1010
                        NOSIG=
201206140650 METAR ESSA 140650Z 18008KT 9999 FEW018 BKN060 17/13 Q1009
                        NOSIG=
201206140620 METAR ESSA 140620Z 17006KT 130V200 CAVOK 16/12 Q1009 NOSIG=
201206140550 METAR ESSA 140550Z 16004KT CAVOK 16/12 Q1009 NOSIG=
201206140520 METAR ESSA 140520Z 17006KT CAVOK 15/12 Q1009 NOSIG=
201206140450 METAR ESSA 140450Z 17006KT CAVOK 15/12 Q1009 NOSIG=
201206140420 METAR ESSA 140420Z 16005KT CAVOK 15/12 Q1009 NOSIG=
201206140350 METAR ESSA 140350Z 15005KT CAVOK 13/11 Q1009 NOSIG=
201206140320 METAR ESSA 140320Z 13003KT CAVOK 12/11 Q1009 NOSIG=
201206140250 METAR ESSA 140250Z 15003KT CAVOK 11/10 Q1009 NOSIG=
201206140220 METAR ESSA 140220Z 13004KT CAVOK 11/10 Q1009 NOSIG=
201206140150 METAR ESSA 140150Z 18003KT 9999 VCFG NSC 10/10 Q1009 NOSIG=
201206140120 METAR ESSA 140120Z 14004KT 9999 VCFG NSC 10/10 Q1009 NOSIG=
201206140050 METAR ESSA 140050Z 17003KT 9999 VCFG NSC 11/10 Q1009 NOSIG=
201206140020 METAR ESSA 140020Z 17003KT CAVOK 12/10 Q1009 NOSIG=
201206132350 METAR ESSA 132350Z 20003KT CAVOK 13/11 Q1009 NOSIG=
201206132320 METAR ESSA 132320Z 19004KT CAVOK 13/11 Q1009 NOSIG=
201206132250 METAR ESSA 132250Z 20004KT CAVOK 12/10 Q1009 NOSIG=
201206132220 METAR ESSA 132220Z 19005KT CAVOK 13/10 Q1009 NOSIG=
201206132150 METAR ESSA 132150Z 17005KT CAVOK 13/10 Q1009 NOSIG=
201206132120 METAR ESSA 132120Z 18005KT CAVOK 14/11 Q1008 NOSIG=
201206132050 METAR ESSA 132050Z 18006KT CAVOK 15/11 Q1008 NOSIG=
201206132020 METAR ESSA 132020Z 16005KT CAVOK 16/11 Q1008 NOSIG=
201206131950 METAR ESSA 131950Z 21007KT 9999 SCT049 16/10 Q1008 NOSIG=
201206131920 METAR ESSA 131920Z 23005KT CAVOK 17/10 Q1008 NOSIG=
201206131850 METAR ESSA 131850Z 26004KT CAVOK 18/09 Q1007 NOSIG=
201206131820 METAR ESSA 131820Z 20006KT 9999 SCT048 19/09 Q1007 NOSIG=
201206131750 METAR ESSA 131750Z 20008KT 9999 SCT048 19/09 Q1007 NOSIG=
201206131720 METAR ESSA 131720Z 20008KT 9999 SCT047 20/08 Q1007 NOSIG=
201206131650 METAR ESSA 131650Z 19007KT 150V220 9999 FEW047 SCT061 20/09
                        Q1007 NOSIG=
201206131620 METAR ESSA 131620Z 23009KT 9999 SCT047 20/08 Q1007 NOSIG=
201206131550 METAR ESSA 131550Z 21009KT 9999 SCT047 20/09 Q1007 NOSIG=
201206131520 METAR ESSA 131520Z 19009KT CAVOK 20/08 Q1007 NOSIG=
201206131450 METAR ESSA 131450Z 24009KT 200V260 CAVOK 20/08 Q1007 NOSIG=
201206131420 METAR ESSA 131420Z 25010KT 9999 FEW047 SCT075 20/08 Q1007
                        NOSIG=
201206131350 METAR ESSA 131350Z 23010KT 9999 FEW044 SCT075 20/09 Q1007
                        NOSIG=
201206131320 METAR ESSA 131320Z 20009KT 9999 FEW039 SCT060 20/10 Q1007
                        NOSIG=
201206131250 METAR ESSA 131250Z 19010KT 9999 VCSH FEW038CB SCT060 19/11
                        Q1007 NOSIG=
201206131220 METAR ESSA 131220Z 18009KT 9999 -SHRA FEW035CB BKN037 18/10
                        Q1007 NOSIG=
201206131150 METAR ESSA 131150Z 19007KT 150V220 9999 BKN037 19/11 Q1007
                        NOSIG=
201206131120 METAR ESSA 131120Z 22008KT 180V240 9999 SCT039 19/11 Q1007
                        NOSIG=
201206131050 METAR ESSA 131050Z 20006KT 150V230 9999 SCT037 18/10 Q1007
                        NOSIG=
201206131020 METAR ESSA 131020Z 25005KT 200V310 9999 SCT030 19/11 Q1007
                        NOSIG=
201206130950 METAR ESSA 130950Z 26005KT 210V300 9999 SCT032 18/11 Q1007
                        NOSIG=
201206130920 METAR ESSA 130920Z 28003KT 220V320 9999 FEW038 SCT055 18/13
                        Q1007 NOSIG=
201206130850 METAR ESSA 130850Z 25003KT 160V290 9999 FEW021 SCT045 16/12
                        Q1007 NOSIG=
201206130820 METAR ESSA 130820Z 36003KT 320V050 9999 SCT017 BKN030 16/12
                        Q1006 NOSIG=
201206130750 METAR ESSA 130750Z 14003KT 100V180 9999 SCT015 BKN036 17/12
                        Q1006 BECMG SCT030=
201206130720 METAR COR ESSA 130720Z 15003KT 110V210 9999 BKN010 15/13
                        Q1006 BECMG SCT030=
201206130650 METAR ESSA 130650Z 13003KT 080V170 9999 BKN008 14/13 Q1006
                        BECMG SCT005=
201206130620 METAR ESSA 130620Z 22004KT 190V270 9000 OVC004 13/13 Q1006
                        BECMG SCT005=
201206130550 METAR ESSA 130550Z 23003KT 0900 R01L/P1500N R19R/0700VP1500N
                        R01R/0550V0800N R19L/1500D BCFG OVC002
                        13/13 Q1006 BECMG 1500 BCFG BKN003=
201206130520 METAR ESSA 130520Z VRB02KT 0400 R01L/0350V0650N R19R/0325V0900N
                        R01R/0700N R19L/0650N FG VV002 12/12
                        Q1006 BECMG 1500 BCFG BKN003=
201206130450 METAR COR ESSA 130450Z VRB02KT 0200 R01L/0300N R19R/0350N
                        R01R/0275V0450N R19L/0350V0600N FG
                        VV002 12/12 Q1006 BECMG 1500 BCFG
                        BKN003=
201206130420 METAR ESSA 130420Z 27003KT 230V290 0200 R01L/0325N R19R/0325N
                        R01R/0275V0400N R19L/0350N FG VV002
                        12/12 Q1006 BECMG 4000 BCFG BKN003=
201206130350 METAR ESSA 130350Z 26004KT 0100 R01L/0250V0350N R19R/0250N
                        R01R/0250N R19L/0225N FG VV002 12/12
                        Q1006 BECMG 4000 BCFG BKN003=
201206130320 METAR ESSA 130320Z VRB02KT 0100 R01L/0250N R19R/0200N R01R/0225N
                        R19L/0225N FG VV002 11/11 Q1006 NOSIG=
201206130250 METAR ESSA 130250Z 25003KT 0100 R01L/0225N R19R/0200N R01R/0300N
                        R19L/0250N FG VV002 10/09 Q1005 NOSIG=
201206130220 METAR ESSA 130220Z 19003KT 0300 R01L/0250N R19R/0600N R01R/0200N
                        R19L/0350V0550N FG VV002 08/08 Q1005
                        NOSIG=
201206130150 METAR ESSA 130150Z 18004KT 0500 R01L/0500V0900N R19R/0300V1000N
                        R01R/0275V0500N R19L/0350V0750N BCFG
                        NSC 07/07 Q1005 TEMPO 4000=
201206130120 METAR ESSA 130120Z 17001KT 1300 R01L/0500V0700N R19R/P1500N
                        R01R/0600V1000N R19L/0275V0750D BCFG
                        NSC 07/07 Q1005 TEMPO 0300=
201206130050 METAR ESSA 130050Z 16001KT 4500 BCFG NSC 08/08 Q1005 TEMPO
                        1300=
201206130020 METAR ESSA 130020Z 00000KT 4500 BCFG NSC 09/09 Q1005 TEMPO
                        1300=
201206122350 METAR COR ESSA 122350Z 16002KT 5000 BCFG NSC 08/08 Q1005
                        TEMPO 1300=
201206122320 METAR ESSA 122320Z 14002KT 9999 5000NE MIFG NSC 09/09 Q1005
                        TEMPO 2000=
201206122250 METAR ESSA 122250Z 08003KT 9999 4500NE MIFG NSC 10/10 Q1005
                        TEMPO 2000=
201206122220 METAR ESSA 122220Z VRB01KT 9999 3000NE MIFG NSC 10/10 Q1005
                        TEMPO 2000=
201206122150 METAR ESSA 122150Z VRB02KT 9999 3000NE MIFG NSC 11/11 Q1005
                        TEMPO 2000=
201206122120 METAR ESSA 122120Z 14001KT 9999 4000NE MIFG NSC 12/12 Q1005
                        TEMPO 2000=
201206122050 METAR ESSA 122050Z 00000KT 9999 MIFG FEW035 SCT100 12/12
                        Q1005 NOSIG=
201206122020 METAR ESSA 122020Z VRB02KT 9999 MIFG NSC 13/12 Q1005 NOSIG=
201206121950 METAR ESSA 121950Z 09004KT 9999 VCFG NSC 14/12 Q1005 NOSIG=
201206121920 METAR ESSA 121920Z 11002KT CAVOK 14/12 Q1004 NOSIG=
201206121850 METAR ESSA 121850Z 07003KT 050V110 9999 -RA NSC 14/12 Q1004
                        NOSIG=
201206121820 METAR ESSA 121820Z 06002KT 9999 -SHRA FEW030 FEW045CB BKN084
                        14/11 Q1004 NOSIG=
201206121750 METAR ESSA 121750Z VRB02KT 9999 -SHRA FEW030 SCT050CB BKN080
                        14/13 Q1004 TEMPO SHRA=
201206121720 METAR ESSA 121720Z 32003KT 9999 -SHRA FEW010 SCT055CB BKN070
                        14/12 Q1004 TEMPO SHRA=
201206121650 METAR ESSA 121650Z VRB02KT 9999 -SHRA FEW045CB BKN060 15/12
                        Q1004 TEMPO SHRA=
201206121620 METAR ESSA 121620Z 18007KT 9999 VCSH FEW030 BKN060 BKN090
                        15/12 Q1004 TEMPO SHRA=
201206121550 METAR COR ESSA 121550Z 17010KT 9999 -SHRA FEW010 FEW050CB
                        BKN070 15/12 Q1004 RESHRA TEMPO SHRA=
201206121520 METAR ESSA 121520Z 17014KT 9999 -SHRA SCT045 FEW050CB BKN070
                        17/12 Q1004 TEMPO SHRA=
201206121450 METAR ESSA 121450Z 13005KT 9999 SCT045TCU BKN060 19/09 Q1003
                        NOSIG=
201206121420 METAR ESSA 121420Z 14005KT 100V160 9999 SCT045 BKN060 19/08
                        Q1003 NOSIG=
201206121350 METAR ESSA 121350Z 13005KT 070V160 9999 SCT045 BKN060 20/08
                        Q1003 NOSIG=
201206121320 METAR ESSA 121320Z 06004KT 010V100 9999 SCT040 BKN060 20/09
                        Q1003 NOSIG=
201206121250 METAR ESSA 121250Z 09004KT 030V120 9999 SCT045 BKN051 19/09
                        Q1003 NOSIG=
201206121220 METAR ESSA 121220Z VRB03KT 9999 SCT037 BKN120 19/09 Q1003
                        NOSIG=
201206121150 METAR ESSA 121150Z 22003KT 160V270 9999 SCT035 BKN120 18/09
                        Q1003 NOSIG=
201206121120 METAR ESSA 121120Z 17003KT 110V210 9999 SCT032 BKN110 19/09
                        Q1003 NOSIG=
201206121050 METAR ESSA 121050Z 12003KT 090V260 9999 SCT032 BKN110 18/09
                        Q1003 NOSIG=
201206121020 METAR ESSA 121020Z VRB03KT CAVOK 17/09 Q1004 NOSIG=
201206120950 METAR ESSA 120950Z 10003KT 030V160 CAVOK 17/09 Q1004 NOSIG=
201206120920 METAR ESSA 120920Z VRB02KT CAVOK 17/09 Q1004 NOSIG=
201206120850 METAR ESSA 120850Z 10003KT 030V140 CAVOK 16/09 Q1003 NOSIG=
201206120820 METAR ESSA 120820Z 09003KT 050V130 CAVOK 15/08 Q1003 NOSIG=
201206120750 METAR ESSA 120750Z 12004KT 090V160 CAVOK 15/08 Q1003 NOSIG=
201206120720 METAR ESSA 120720Z 14004KT 110V170 CAVOK 14/09 Q1003 NOSIG=
201206120650 METAR ESSA 120650Z 12004KT CAVOK 14/10 Q1003 NOSIG=
201206120620 METAR ESSA 120620Z 12003KT 9999 -RA BKN080 13/10 Q1003 NOSIG=
201206120550 METAR ESSA 120550Z 12003KT 9999 -RA FEW049 BKN098 13/10 Q1003
                        NOSIG=
201206120520 METAR ESSA 120520Z 09003KT CAVOK 12/10 Q1003 NOSIG=
201206120450 METAR ESSA 120450Z 11003KT CAVOK 12/10 Q1003 NOSIG=
201206120420 METAR ESSA 120420Z 12003KT CAVOK 12/09 Q1003 NOSIG=
201206120350 METAR ESSA 120350Z 13004KT CAVOK 11/09 Q1003 NOSIG=
201206120320 METAR ESSA 120320Z 08004KT CAVOK 11/09 Q1003 NOSIG=
201206120250 METAR ESSA 120250Z 10004KT CAVOK 11/09 Q1003 NOSIG=
201206120220 METAR ESSA 120220Z 12004KT CAVOK 11/09 Q1003 NOSIG=
201206120150 METAR ESSA 120150Z 11004KT CAVOK 10/09 Q1002 NOSIG=
201206120120 METAR ESSA 120120Z 14003KT CAVOK 10/09 Q1003 NOSIG=
201206120050 METAR ESSA 120050Z 11004KT CAVOK 11/09 Q1003 NOSIG=
201206120020 METAR ESSA 120020Z 11005KT CAVOK 11/09 Q1003 NOSIG=
201206112350 METAR ESSA 112350Z 09005KT CAVOK 11/09 Q1003 NOSIG=
201206112320 METAR ESSA 112320Z 09004KT CAVOK 11/09 Q1003 NOSIG=
201206112250 METAR ESSA 112250Z 16003KT CAVOK 12/10 Q1003 NOSIG=
201206112220 METAR ESSA 112220Z 11003KT CAVOK 13/10 Q1003 NOSIG=
201206112150 METAR ESSA 112150Z 13003KT CAVOK 13/10 Q1003 NOSIG=
201206112120 METAR ESSA 112120Z 12005KT CAVOK 13/10 Q1003 NOSIG=
201206112050 METAR ESSA 112050Z 14005KT CAVOK 13/10 Q1003 NOSIG=
201206112020 METAR ESSA 112020Z 13006KT CAVOK 13/10 Q1003 NOSIG=
201206111950 METAR ESSA 111950Z 14006KT CAVOK 14/10 Q1003 NOSIG=
201206111920 METAR ESSA 111920Z 14006KT CAVOK 15/10 Q1003 NOSIG=
201206111850 METAR ESSA 111850Z 13006KT CAVOK 16/10 Q1003 NOSIG=
201206111820 METAR ESSA 111820Z 13007KT CAVOK 16/10 Q1003 NOSIG=
201206111750 METAR ESSA 111750Z 14009KT CAVOK 16/10 Q1002 NOSIG=
201206111720 METAR ESSA 111720Z 15010KT 9999 FEW040 17/10 Q1002 NOSIG=
201206111650 METAR ESSA 111650Z 14011KT 9999 FEW037TCU 17/10 Q1002 NOSIG=
201206111620 METAR ESSA 111620Z 16011KT 9999 FEW037TCU 18/09 Q1002 NOSIG=
201206111550 METAR ESSA 111550Z 15012KT 9999 SCT037TCU 18/10 Q1002 NOSIG=
201206111520 METAR ESSA 111520Z 13010KT 9999 SCT037TCU 18/09 Q1002 NOSIG=
201206111450 METAR ESSA 111450Z 15009KT 120V190 9999 SCT037 19/09 Q1002
                        NOSIG=
201206111420 METAR ESSA 111420Z 15010KT 9999 FEW042 19/09 Q1002 NOSIG=
201206111350 METAR ESSA 111350Z 15010KT 9999 VCSH FEW042 SCT120 19/09
                        Q1002 NOSIG=
201206111320 METAR ESSA 111320Z 14011KT 9999 VCSH SCT040 SCT120 19/09
                        Q1002 NOSIG=
201206111250 METAR ESSA 111250Z 14009KT 110V180 9999 FEW036 SCT120 20/10
                        Q1002 NOSIG=
201206111220 METAR ESSA 111220Z 13008KT 9999 FEW035 SCT110 19/11 Q1002
                        NOSIG=
201206111150 METAR ESSA 111150Z 17007KT 9999 -SHRA FEW030 FEW050CB BKN085
                        18/11 Q1002 NOSIG=
201206111120 METAR ESSA 111120Z 17009KT 9999 VCSH FEW035 BKN090 18/10
                        Q1003 NOSIG=
201206111050 METAR ESSA 111050Z 16007KT 9999 VCSH FEW035 BKN085 18/10
                        Q1003 NOSIG=
201206111020 METAR ESSA 111020Z 14006KT 060V180 9999 VCSH SCT035 BKN090
                        18/10 Q1003 NOSIG=
201206110950 METAR ESSA 110950Z 16007KT 110V200 9999 SCT033 SCT086 19/10
                        Q1003 NOSIG=
201206110920 METAR ESSA 110920Z 12005KT 070V170 9999 SCT030 SCT086 18/10
                        Q1003 NOSIG=
201206110850 METAR ESSA 110850Z 15004KT 080V190 9999 SCT025 SCT086 18/10
                        Q1003 NOSIG=
201206110820 METAR ESSA 110820Z 15004KT 130V210 9999 FEW022 SCT086 17/11
                        Q1003 NOSIG=
201206110750 METAR ESSA 110750Z 17003KT 110V230 9999 FEW022 BKN086 17/10
                        Q1003 NOSIG=
201206110720 METAR ESSA 110720Z 13003KT 080V160 9999 FEW018 BKN088 16/10
                        Q1004 NOSIG=
201206110650 METAR ESSA 110650Z VRB01KT CAVOK 15/11 Q1004 NOSIG=
201206110620 METAR ESSA 110620Z VRB01KT CAVOK 15/11 Q1004 NOSIG=
201206110550 METAR ESSA 110550Z VRB02KT CAVOK 13/11 Q1004 NOSIG=
201206110520 METAR ESSA 110520Z 12003KT 070V150 9999 FEW005 BKN088 12/10
                        Q1004 NOSIG=
201206110450 METAR ESSA 110450Z 09004KT CAVOK 11/10 Q1004 NOSIG=
201206110420 METAR ESSA 110420Z 09003KT 9000 BR BKN088 11/10 Q1004 NOSIG=
201206110350 METAR ESSA 110350Z 11003KT 8000 BR BKN088 11/10 Q1004 NOSIG=
201206110320 METAR ESSA 110320Z 10003KT CAVOK 11/10 Q1004 NOSIG=
201206110250 METAR ESSA 110250Z 13003KT CAVOK 11/10 Q1005 NOSIG=
201206110220 METAR ESSA 110220Z 14004KT CAVOK 11/10 Q1005 NOSIG=
201206110150 METAR ESSA 110150Z 14005KT CAVOK 10/10 Q1005 NOSIG=
201206110120 METAR ESSA 110120Z 14003KT 9000 BR BKN086 10/08 Q1005 NOSIG=
201206110050 METAR COR ESSA 110050Z 13003KT CAVOK 10/09 Q1005 NOSIG=
201206110020 METAR ESSA 110020Z 14004KT CAVOK 10/09 Q1005 NOSIG=
201206102350 METAR ESSA 102350Z 14003KT CAVOK 10/09 Q1005 NOSIG=
201206102320 METAR ESSA 102320Z 16004KT CAVOK 11/09 Q1005 NOSIG=
201206102250 METAR ESSA 102250Z 16005KT CAVOK 11/09 Q1005 NOSIG=
201206102220 METAR ESSA 102220Z 16004KT CAVOK 12/10 Q1005 NOSIG=
201206102150 METAR ESSA 102150Z 15005KT CAVOK 12/10 Q1005 NOSIG=
201206102120 METAR ESSA 102120Z 15005KT 110V180 CAVOK 13/10 Q1005 NOSIG=
201206102050 METAR ESSA 102050Z 17003KT CAVOK 11/09 Q1005 NOSIG=
201206102020 METAR ESSA 102020Z 12003KT CAVOK 12/09 Q1005 NOSIG=
201206101950 METAR ESSA 101950Z 21004KT CAVOK 13/09 Q1005 NOSIG=
201206101920 METAR ESSA 101920Z 19006KT CAVOK 14/10 Q1005 NOSIG=
201206101850 METAR ESSA 101850Z 23009KT CAVOK 15/10 Q1005 NOSIG=
201206101820 METAR ESSA 101820Z 20010KT 9999 FEW035 15/11 Q1005 NOSIG=
201206101750 METAR ESSA 101750Z 19010KT CAVOK 16/10 Q1006 NOSIG=
201206101720 METAR ESSA 101720Z 22011KT CAVOK 16/09 Q1006 NOSIG=
201206101650 METAR ESSA 101650Z 21012KT CAVOK 16/09 Q1006 NOSIG=
201206101620 METAR ESSA 101620Z 19009KT CAVOK 17/09 Q1005 NOSIG=
201206101550 METAR ESSA 101550Z 22014KT 9999 FEW035CB SCT180 17/10 Q1006
                        TEMPO SHRA=
201206101520 METAR ESSA 101520Z 19010KT 9999 FEW074CB SCT180 17/10 Q1006
                        TEMPO SHRA=
201206101450 METAR ESSA 101450Z 25008KT 9999 -SHRA FEW035CB BKN080 14/10
                        Q1006 TEMPO SHRA=
201206101420 METAR ESSA 101420Z 26013KT 9999 -SHRA SCT035CB BKN040 14/09
                        Q1006 TEMPO SHRA=
201206101350 METAR ESSA 101350Z 24011KT 9999 VCSH SCT035CB SCT037 BKN090
                        18/10 Q1006 TEMPO SHRA=
201206101320 METAR ESSA 101320Z 24008KT 9999 SCT035 SCT090 17/10 Q1006
                        TEMPO SHRA=
201206101250 METAR ESSA 101250Z 25013KT 9999 -SHRA SCT035CB SCT037 17/10
                        Q1006 NOSIG=
201206101220 METAR ESSA 101220Z 25012KT 9999 BKN035 17/09 Q1006 NOSIG=
201206101150 METAR ESSA 101150Z 21012KT 180V240 9999 BKN035 17/09 Q1006
                        NOSIG=
201206101120 METAR ESSA 101120Z 22012KT 9999 SCT030 SCT090 18/10 Q1006
                        NOSIG=
201206101050 METAR ESSA 101050Z 22014KT 9999 -SHRA SCT027CB SCT090 17/11
                        Q1006 NOSIG=
201206101020 METAR ESSA 101020Z 21012KT 9999 SCT027 SCT090 17/10 Q1007
                        NOSIG=
201206100950 METAR ESSA 100950Z 22010KT 9999 FEW025 SCT090 16/10 Q1007
                        NOSIG=
201206100920 METAR ESSA 100920Z 24010KT 9999 FEW025 SCT090 16/10 Q1007
                        NOSIG=
201206100850 METAR ESSA 100850Z 25012KT 9999 FEW025 SCT090 16/10 Q1007
                        NOSIG=
201206100820 METAR ESSA 100820Z 22011KT 9999 FEW025 SCT090 16/11 Q1006
                        NOSIG=
201206100750 METAR ESSA 100750Z 22010KT 9999 SCT025 SCT090 16/11 Q1006
                        NOSIG=
201206100720 METAR ESSA 100720Z 26007KT 220V280 9999 FEW023 SCT090 17/10
                        Q1006 NOSIG=
201206100650 METAR ESSA 100650Z 22006KT 190V270 CAVOK 16/10 Q1006 NOSIG=
201206100620 METAR ESSA 100620Z 25006KT 230V290 CAVOK 15/10 Q1006 NOSIG=
201206100550 METAR ESSA 100550Z 23006KT CAVOK 15/11 Q1006 NOSIG=
201206100520 METAR ESSA 100520Z 25007KT CAVOK 13/11 Q1006 NOSIG=
201206100450 METAR ESSA 100450Z 24006KT CAVOK 14/11 Q1006 NOSIG=
201206100420 METAR ESSA 100420Z 25006KT CAVOK 12/11 Q1006 NOSIG=
201206100350 METAR ESSA 100350Z 22005KT CAVOK 11/11 Q1006 NOSIG=
201206100320 METAR ESSA 100320Z 18004KT CAVOK 11/10 Q1006 NOSIG=
201206100250 METAR ESSA 100250Z 18004KT 9999 BCFG SCT088 10/10 Q1006 NOSIG=
201206100220 METAR ESSA 100220Z 18005KT 9999 BCFG SCT088 10/10 Q1006 NOSIG=
201206100150 METAR ESSA 100150Z 18004KT 9999 BCFG SCT088 10/10 Q1006 NOSIG=
201206100120 METAR ESSA 100120Z 21005KT CAVOK 10/10 Q1006 NOSIG=
201206100050 METAR ESSA 100050Z 22004KT CAVOK 10/10 Q1006 NOSIG=
201206100020 METAR ESSA 100020Z 19004KT CAVOK 10/10 Q1006 NOSIG=
201206092350 METAR ESSA 092350Z 20005KT CAVOK 10/10 Q1006 NOSIG=
201206092320 METAR ESSA 092320Z 20005KT CAVOK 11/10 Q1006 NOSIG=
201206092250 METAR ESSA 092250Z 18005KT CAVOK 11/10 Q1006 NOSIG=
201206092220 METAR ESSA 092220Z 18006KT CAVOK 12/10 Q1006 NOSIG=
201206092150 METAR ESSA 092150Z 22006KT CAVOK 12/10 Q1006 NOSIG=
201206092120 METAR ESSA 092120Z 22005KT CAVOK 13/11 Q1006 NOSIG=
201206092050 METAR ESSA 092050Z 19006KT CAVOK 13/11 Q1006 NOSIG=
201206092020 METAR ESSA 092020Z 20007KT CAVOK 14/11 Q1006 NOSIG=
201206091950 METAR ESSA 091950Z 20007KT CAVOK 14/11 Q1006 NOSIG=
201206091920 METAR ESSA 091920Z 21007KT CAVOK 14/11 Q1006 NOSIG=
201206091850 METAR ESSA 091850Z 18011KT 9999 FEW030 BKN140 15/11 Q1006
                        NOSIG=
201206091820 METAR ESSA 091820Z 18008KT 9999 SCT030 SCT044 BKN049 16/09
                        Q1006 NOSIG=
201206091750 METAR ESSA 091750Z 22009KT CAVOK 16/08 Q1006 NOSIG=
201206091720 METAR ESSA 091720Z 21008KT CAVOK 16/08 Q1006 NOSIG=
201206091650 METAR ESSA 091650Z 20005KT 9999 SCT038 SCT051 16/07 Q1006
                        NOSIG=
201206091620 METAR ESSA 091620Z 20006KT 9999 SCT038 SCT051 16/08 Q1007
                        NOSIG=
201206091550 METAR ESSA 091550Z 20005KT CAVOK 17/07 Q1007 NOSIG=
201206091520 METAR ESSA 091520Z 26007KT 9999 SCT040 SCT049 16/07 Q1007
                        NOSIG=
201206091450 METAR ESSA 091450Z 28006KT 9999 SCT045 SCT053 16/06 Q1007
                        NOSIG=
201206091420 METAR ESSA 091420Z 28007KT 9999 BKN048 16/07 Q1007 NOSIG=
201206091350 METAR ESSA 091350Z 29009KT 9999 SCT037 SCT046 16/06 Q1007
                        NOSIG=
201206091320 METAR ESSA 091320Z 29008KT 260V320 9999 SCT040 SCT052 15/07
                        Q1007 NOSIG=
201206091250 METAR ESSA 091250Z VRB06KT 9999 FEW045 SCT052 15/08 Q1007
                        NOSIG=
201206091220 METAR ESSA 091220Z 29007KT 250V320 9999 SCT031 SCT041 13/08
                        Q1007 NOSIG=
201206091150 METAR ESSA 091150Z 30004KT 270V330 9999 BKN036 14/08 Q1007
                        NOSIG=
201206091120 METAR ESSA 091120Z 32007KT 9999 BKN029 13/07 Q1007 NOSIG=
201206091050 METAR ESSA 091050Z 30004KT 230V010 9999 SCT023 SCT040 14/09
                        Q1006 NOSIG=
201206091020 METAR ESSA 091020Z 36006KT 310V020 9999 FEW020 SCT040 BKN150
                        13/08 Q1006 NOSIG=
201206090950 METAR ESSA 090950Z 33008KT 300V360 9999 FEW015 SCT042 BKN060
                        12/08 Q1006 NOSIG=
201206090920 METAR ESSA 090920Z 32010KT 9999 SCT015 BKN080 12/09 Q1006
                        NOSIG=
201206090850 METAR ESSA 090850Z 32009KT 9999 -RA SCT010 BKN060 11/09 Q1006
                        NOSIG=
201206090820 METAR ESSA 090820Z 34008KT 9999 -RA SCT010 BKN060 11/09 Q1006
                        NOSIG=
201206090750 METAR ESSA 090750Z 33008KT 9999 SCT008 BKN065 10/09 Q1005
                        NOSIG=
201206090720 METAR ESSA 090720Z 33007KT 9999 -RA SCT007 BKN055 10/09 Q1005
                        NOSIG=
201206090650 METAR ESSA 090650Z 35007KT 9999 -RA FEW007 BKN060 10/09 Q1005
                        NOSIG=
201206090620 METAR ESSA 090620Z 34008KT 9999 -RA FEW007 BKN060 09/09 Q1005
                        NOSIG=
201206090550 METAR ESSA 090550Z 34007KT 9999 DZ SCT006 BKN060 09/09 Q1005
                        NOSIG=
201206090520 METAR ESSA 090520Z 35007KT 9999 -RA FEW008 BKN045 09/09 Q1005
                        NOSIG=
201206090450 METAR ESSA 090450Z 36008KT 9999 -RA FEW008 SCT047 BKN060
                        09/09 Q1004 NOSIG=
201206090420 METAR ESSA 090420Z 01007KT 9999 -RA FEW008 BKN060 09/09 Q1004
                        NOSIG=
201206090350 METAR ESSA 090350Z 01005KT 9999 -RA FEW012 BKN051 09/09 Q1004
                        NOSIG=
201206090320 METAR ESSA 090320Z 02005KT 9999 -RA FEW013 BKN055 09/09 Q1004
                        NOSIG=
201206090250 METAR ESSA 090250Z 06003KT 020V090 9999 -RA NSC 10/08 Q1005
                        NOSIG=
201206090220 METAR ESSA 090220Z 09003KT 9999 -RA FEW040 BKN055 10/08 Q1005
                        NOSIG=
201206090150 METAR ESSA 090150Z 08004KT 9999 -RA FEW030 BKN055 10/08 Q1005
                        NOSIG=
201206090120 METAR ESSA 090120Z 09006KT CAVOK 11/07 Q1005 NOSIG=
201206090050 METAR ESSA 090050Z 10006KT 9999 -RA FEW040 BKN080 10/08 Q1005
                        NOSIG=
201206090020 METAR ESSA 090020Z 10005KT 9999 -RA FEW030 BKN070 10/07 Q1005
                        NOSIG=
201206082350 METAR ESSA 082350Z 09005KT CAVOK 10/07 Q1005 NOSIG=
201206082320 METAR ESSA 082320Z 09005KT CAVOK 10/07 Q1005 NOSIG=
201206082250 METAR ESSA 082250Z 10004KT CAVOK 11/07 Q1006 NOSIG=
201206082220 METAR ESSA 082220Z 13005KT CAVOK 11/07 Q1006 NOSIG=
201206082150 METAR ESSA 082150Z 13006KT CAVOK 11/07 Q1006 NOSIG=
201206082120 METAR ESSA 082120Z 13007KT CAVOK 12/07 Q1006 NOSIG=
201206082050 METAR ESSA 082050Z 13006KT CAVOK 12/07 Q1006 NOSIG=
201206082020 METAR ESSA 082020Z 14006KT 120V190 CAVOK 13/06 Q1006 NOSIG=
201206081950 METAR ESSA 081950Z 16009KT CAVOK 14/06 Q1006 NOSIG=
201206081920 METAR ESSA 081920Z 16008KT CAVOK 15/06 Q1006 NOSIG=
201206081850 METAR ESSA 081850Z 14008KT CAVOK 16/06 Q1006 NOSIG=
201206081820 METAR ESSA 081820Z 14009KT CAVOK 17/04 Q1006 NOSIG=
201206081750 METAR ESSA 081750Z 14008KT CAVOK 17/03 Q1006 NOSIG=
201206081720 METAR ESSA 081720Z 16009KT CAVOK 18/03 Q1006 NOSIG=
201206081650 METAR ESSA 081650Z 16008KT 130V190 CAVOK 18/03 Q1006 NOSIG=
201206081620 METAR ESSA 081620Z 14008KT CAVOK 18/05 Q1006 NOSIG=
201206081550 METAR ESSA 081550Z 18009KT 150V210 CAVOK 19/03 Q1006 NOSIG=
201206081520 METAR ESSA 081520Z 18010KT CAVOK 19/03 Q1007 NOSIG=
201206081450 METAR ESSA 081450Z 13009KT CAVOK 20/03 Q1007 NOSIG=
201206081420 METAR ESSA 081420Z 18009KT CAVOK 19/03 Q1007 NOSIG=
201206081350 METAR ESSA 081350Z 18008KT CAVOK 19/05 Q1007 NOSIG=
201206081320 METAR ESSA 081320Z 18009KT 150V220 CAVOK 18/06 Q1007 NOSIG=
201206081250 METAR ESSA 081250Z 20009KT CAVOK 19/06 Q1007 NOSIG=
201206081220 METAR ESSA 081220Z 16009KT CAVOK 18/04 Q1007 NOSIG=
201206081150 METAR ESSA 081150Z 18008KT 130V230 CAVOK 18/04 Q1007 NOSIG=
201206081120 METAR ESSA 081120Z 18008KT 150V210 CAVOK 19/04 Q1007 NOSIG=
201206081050 METAR ESSA 081050Z 18006KT 140V220 CAVOK 19/05 Q1007 NOSIG=
201206081020 METAR ESSA 081020Z 20006KT 140V260 CAVOK 18/04 Q1007 NOSIG=
201206080950 METAR ESSA 080950Z 12006KT 080V170 CAVOK 18/05 Q1008 NOSIG=
201206080920 METAR ESSA 080920Z 19009KT 170V230 CAVOK 17/04 Q1008 NOSIG=
201206080850 METAR ESSA 080850Z 17006KT 130V210 CAVOK 17/04 Q1008 NOSIG=
201206080820 METAR ESSA 080820Z 20006KT 160V240 CAVOK 17/05 Q1008 NOSIG=
201206080750 METAR ESSA 080750Z 19007KT CAVOK 17/06 Q1008 NOSIG=
201206080720 METAR ESSA 080720Z 18006KT 150V220 CAVOK 17/09 Q1008 NOSIG=
201206080650 METAR ESSA 080650Z 20005KT CAVOK 15/08 Q1008 NOSIG=
201206080620 METAR ESSA 080620Z 19005KT CAVOK 15/08 Q1008 NOSIG=
201206080550 METAR ESSA 080550Z 22004KT 190V250 CAVOK 13/09 Q1008 NOSIG=
201206080520 METAR ESSA 080520Z 18004KT CAVOK 12/09 Q1008 NOSIG=
201206080450 METAR ESSA 080450Z 17005KT CAVOK 11/09 Q1008 NOSIG=
201206080420 METAR ESSA 080420Z 18004KT CAVOK 10/08 Q1008 NOSIG=
201206080350 METAR ESSA 080350Z 17004KT CAVOK 10/08 Q1008 NOSIG=
201206080320 METAR ESSA 080320Z 21004KT CAVOK 10/08 Q1008 NOSIG=
201206080250 METAR ESSA 080250Z 17005KT CAVOK 09/07 Q1008 NOSIG=
201206080220 METAR ESSA 080220Z 18005KT CAVOK 08/06 Q1008 NOSIG=
201206080150 METAR ESSA 080150Z 18003KT CAVOK 07/06 Q1008 NOSIG=
201206080120 METAR ESSA 080120Z 19003KT CAVOK 07/06 Q1008 NOSIG=
201206080050 METAR ESSA 080050Z 19004KT CAVOK 07/06 Q1008 NOSIG=
201206080020 METAR ESSA 080020Z 22003KT CAVOK 08/06 Q1008 NOSIG=
201206072350 METAR ESSA 072350Z 18005KT CAVOK 10/07 Q1008 NOSIG=
201206072320 METAR ESSA 072320Z 18005KT CAVOK 10/07 Q1008 NOSIG=
201206072250 METAR ESSA 072250Z 17004KT CAVOK 10/06 Q1008 NOSIG=
201206072220 METAR ESSA 072220Z 17005KT CAVOK 10/06 Q1008 NOSIG=
201206072150 METAR ESSA 072150Z 17004KT CAVOK 11/06 Q1008 NOSIG=
201206072120 METAR ESSA 072120Z 17004KT CAVOK 11/06 Q1008 NOSIG=
201206072050 METAR ESSA 072050Z 20004KT CAVOK 12/07 Q1008 NOSIG=
201206072020 METAR ESSA 072020Z 20005KT CAVOK 13/07 Q1008 NOSIG=
201206071950 METAR ESSA 071950Z 19007KT CAVOK 13/09 Q1008 NOSIG=
201206071920 METAR ESSA 071920Z 21005KT CAVOK 14/10 Q1008 NOSIG=
201206071850 METAR ESSA 071850Z 35003KT CAVOK 15/10 Q1008 NOSIG=
201206071820 METAR ESSA 071820Z 01006KT CAVOK 15/10 Q1008 NOSIG=
201206071750 METAR ESSA 071750Z 06004KT CAVOK 16/09 Q1008 NOSIG=
201206071720 METAR ESSA 071720Z 05006KT 020V080 CAVOK 16/09 Q1008 NOSIG=
201206071650 METAR ESSA 071650Z 06005KT CAVOK 17/07 Q1007 NOSIG=
201206071620 METAR ESSA 071620Z 07007KT CAVOK 17/07 Q1008 NOSIG=
201206071550 METAR ESSA 071550Z 06007KT CAVOK 18/05 Q1008 NOSIG=
201206071520 METAR ESSA 071520Z 06007KT 030V090 CAVOK 17/08 Q1008 NOSIG=
201206071450 METAR ESSA 071450Z 08008KT CAVOK 17/09 Q1008 NOSIG=
201206071420 METAR ESSA 071420Z 03007KT 360V060 CAVOK 17/08 Q1008 NOSIG=
201206071350 METAR ESSA 071350Z 05009KT CAVOK 16/09 Q1008 NOSIG=
201206071320 METAR ESSA 071320Z 01007KT 350V050 CAVOK 17/10 Q1008 NOSIG=
201206071250 METAR ESSA 071250Z VRB04KT CAVOK 18/05 Q1008 NOSIG=
201206071220 METAR ESSA 071220Z 21005KT 180V250 CAVOK 18/05 Q1008 NOSIG=
201206071150 METAR ESSA 071150Z 22005KT CAVOK 17/06 Q1008 NOSIG=
201206071120 METAR ESSA 071120Z 25006KT 210V280 CAVOK 18/07 Q1008 NOSIG=
201206071050 METAR ESSA 071050Z 25006KT CAVOK 17/06 Q1008 NOSIG=
201206071020 METAR ESSA 071020Z 22008KT 9999 FEW040 SCT070 16/07 Q1008
                        NOSIG=
201206070950 METAR COR ESSA 070950Z 24007KT 210V270 9999 FEW044 SCT070
                        16/08 Q1008 NOSIG=
201206070920 METAR ESSA 070920Z 25006KT CAVOK 17/08 Q1008 NOSIG=
201206070850 METAR ESSA 070850Z 32005KT 9999 FEW040 BKN068 15/08 Q1008
                        NOSIG=
201206070820 METAR ESSA 070820Z 31004KT 9999 SCT040 SCT080 15/08 Q1008
                        NOSIG=
201206070750 METAR ESSA 070750Z 26004KT 220V290 9999 SCT035 16/07 Q1008
                        NOSIG=
201206070720 METAR ESSA 070720Z 23004KT 180V250 9999 FEW028 16/08 Q1009
                        NOSIG=
201206070650 METAR ESSA 070650Z VRB02KT 9999 FEW027 16/09 Q1009 NOSIG=
201206070620 METAR ESSA 070620Z VRB02KT CAVOK 15/09 Q1009 NOSIG=
201206070550 METAR ESSA 070550Z VRB02KT CAVOK 14/09 Q1009 NOSIG=
201206070520 METAR ESSA 070520Z VRB02KT CAVOK 13/09 Q1009 NOSIG=
201206070450 METAR ESSA 070450Z 00000KT CAVOK 12/09 Q1009 NOSIG=
201206070420 METAR ESSA 070420Z 00000KT CAVOK 11/09 Q1009 NOSIG=
201206070350 METAR ESSA 070350Z VRB01KT CAVOK 08/07 Q1009 NOSIG=
201206070320 METAR ESSA 070320Z 00000KT CAVOK 07/07 Q1008 NOSIG=
201206070250 METAR ESSA 070250Z 17001KT 9999 BCFG SCT060 06/05 Q1008 NOSIG=
201206070220 METAR ESSA 070220Z 36001KT 9999 BCFG SCT060 05/05 Q1008 NOSIG=
201206070150 METAR ESSA 070150Z 19001KT CAVOK 05/04 Q1008 NOSIG=
201206070120 METAR ESSA 070120Z 00000KT CAVOK 06/06 Q1008 NOSIG=
201206070050 METAR ESSA 070050Z 19002KT CAVOK 06/05 Q1008 NOSIG=
201206070020 METAR ESSA 070020Z 15001KT CAVOK 07/07 Q1008 NOSIG=
201206062350 METAR ESSA 062350Z 00000KT CAVOK 07/06 Q1008 NOSIG=
201206062320 METAR ESSA 062320Z 00000KT CAVOK 06/06 Q1008 NOSIG=
201206062250 METAR ESSA 062250Z VRB02KT CAVOK 07/07 Q1009 NOSIG=
201206062220 METAR ESSA 062220Z 15002KT CAVOK 09/08 Q1008 NOSIG=
201206062150 METAR ESSA 062150Z 17003KT CAVOK 09/08 Q1008 NOSIG=
201206062120 METAR ESSA 062120Z 17002KT CAVOK 10/08 Q1008 NOSIG=
201206062050 METAR ESSA 062050Z 16004KT CAVOK 11/08 Q1008 NOSIG=
201206062020 METAR ESSA 062020Z 17003KT CAVOK 11/09 Q1008 NOSIG=
201206061950 METAR ESSA 061950Z 18004KT CAVOK 12/08 Q1008 NOSIG=
201206061920 METAR ESSA 061920Z 17004KT CAVOK 13/08 Q1008 NOSIG=
201206061850 METAR ESSA 061850Z 19004KT CAVOK 14/08 Q1008 NOSIG=
201206061820 METAR ESSA 061820Z 21003KT 9999 SCT070TCU 15/07 Q1008 NOSIG=
201206061750 METAR ESSA 061750Z VRB01KT 9999 SCT070TCU 15/06 Q1008 NOSIG=
201206061720 METAR ESSA 061720Z VRB02KT 9999 SCT060TCU SCT070 14/08 Q1008
                        NOSIG=
201206061650 METAR ESSA 061650Z 22007KT 9999 FEW023 SCT045CB BKN045 14/08
                        Q1008 NOSIG=
201206061620 METAR ESSA 061620Z 29009KT 9999 FEW030 BKN040 SCT080TCU 14/07
                        Q1008 NOSIG=
201206061550 METAR ESSA 061550Z 27005KT 230V310 9999 FEW030 SCT044 SCT080TCU
                        15/07 Q1008 NOSIG=
201206061520 METAR ESSA 061520Z 33004KT 290V350 9999 FEW055 SCT080TCU
                        15/07 Q1008 NOSIG=
201206061450 METAR ESSA 061450Z 34003KT 310V020 9999 SCT080TCU 15/08 Q1008
                        NOSIG=
201206061420 METAR ESSA 061420Z 01005KT 330V040 9999 SCT050TCU BKN084
                        13/08 Q1008 NOSIG=
201206061350 METAR ESSA 061350Z 34009KT 9999 VCSH BKN045CB 12/09 Q1008
                        NOSIG=
201206061320 METAR ESSA 061320Z 28009G21KT 220V330 9999 5000N VCSH BKN039CB
                        13/08 Q1008 NOSIG=
201206061250 METAR COR ESSA 061250Z 22007KT 180V260 9999 VCSH SCT040TCU
                        BKN094 15/07 Q1007 NOSIG=
201206061220 METAR ESSA 061220Z 20008KT 170V240 9999 SCT032TCU SCT094
                        16/08 Q1007 NOSIG=
201206061150 METAR ESSA 061150Z 21009KT 9999 SCT032TCU SCT094 16/08 Q1008
                        NOSIG=
201206061120 METAR ESSA 061120Z 22009KT 9999 SCT030 16/08 Q1008 NOSIG=
201206061050 METAR ESSA 061050Z 22010KT 190V250 9999 SCT028 SCT035 15/07
                        Q1008 NOSIG=
201206061020 METAR ESSA 061020Z 22009KT 180V250 9999 SCT025 SCT035 15/08
                        Q1008 NOSIG=
201206060950 METAR ESSA 060950Z 25011KT 9999 SCT020 SCT030 14/09 Q1008
                        NOSIG=
201206060920 METAR ESSA 060920Z 25010KT 9999 SCT017 SCT022TCU 13/09 Q1008
                        NOSIG=
201206060850 METAR ESSA 060850Z 23008KT 9999 SCT020 BKN035 12/09 Q1008
                        NOSIG=
201206060820 METAR COR ESSA 060820Z 22007KT 9999 BKN018 12/09 Q1008 NOSIG=
201206060750 METAR ESSA 060750Z 22006KT 9999 BKN015 12/09 Q1008 BECMG
                        SCT015=
201206060720 METAR ESSA 060720Z 26007KT 9999 BKN014 12/09 Q1007 BECMG
                        SCT015=
201206060650 METAR ESSA 060650Z 26008KT 9999 BKN012 11/09 Q1007 BECMG
                        SCT015=
201206060620 METAR ESSA 060620Z 25008KT 9999 BKN010 11/09 Q1007 BECMG
                        SCT010=
201206060550 METAR ESSA 060550Z 25009KT 9999 BKN009 11/09 Q1007 BECMG
                        BKN012=
201206060520 METAR ESSA 060520Z 25007KT 9999 BKN008 10/09 Q1007 NOSIG=
201206060450 METAR ESSA 060450Z 24007KT 9999 BKN008 10/09 Q1007 NOSIG=
201206060420 METAR ESSA 060420Z 24007KT CAVOK 10/09 Q1007 NOSIG=
201206060350 METAR ESSA 060350Z 25005KT CAVOK 10/09 Q1007 NOSIG=
201206060320 METAR ESSA 060320Z 26005KT CAVOK 09/08 Q1006 NOSIG=
201206060250 METAR ESSA 060250Z 26003KT CAVOK 09/08 Q1006 NOSIG=
201206060220 METAR ESSA 060220Z 26005KT CAVOK 08/08 Q1006 NOSIG=
201206060150 METAR ESSA 060150Z 25004KT CAVOK 08/08 Q1006 NOSIG=
201206060120 METAR ESSA 060120Z 26003KT CAVOK 09/08 Q1006 NOSIG=
201206060050 METAR ESSA 060050Z 23004KT 9999 FEW034 SCT046 BKN060 08/08
                        Q1006 NOSIG=
201206060020 METAR ESSA 060020Z VRB01KT 9999 SCT048 BKN064 07/07 Q1006
                        NOSIG=
201206052350 METAR ESSA 052350Z 17002KT CAVOK 07/07 Q1006 NOSIG=
201206052320 METAR ESSA 052320Z 15003KT 9999 BR NSC 08/07 Q1006 NOSIG=
201206052250 METAR ESSA 052250Z 18003KT CAVOK 08/07 Q1007 NOSIG=
201206052220 METAR ESSA 052220Z 16004KT CAVOK 09/08 Q1007 NOSIG=
201206052150 METAR ESSA 052150Z 17005KT CAVOK 10/08 Q1007 NOSIG=
201206052120 METAR ESSA 052120Z 18004KT CAVOK 10/08 Q1007 NOSIG=
201206052050 METAR ESSA 052050Z 18003KT CAVOK 10/08 Q1007 NOSIG=
201206052020 METAR ESSA 052020Z 17003KT CAVOK 11/08 Q1007 NOSIG=
201206051950 METAR ESSA 051950Z 16003KT 110V190 CAVOK 12/08 Q1006 NOSIG=
201206051920 METAR ESSA 051920Z 15003KT CAVOK 13/08 Q1006 NOSIG=
201206051850 METAR ESSA 051850Z 17005KT CAVOK 13/08 Q1006 NOSIG=
201206051820 METAR ESSA 051820Z 20006KT 160V230 9999 NSC 14/07 Q1007 NOSIG=
201206051750 METAR ESSA 051750Z 21007KT 9999 FEW034 SCT042 BKN055 14/08
                        Q1007 NOSIG=
201206051720 METAR ESSA 051720Z 26007KT 9999 NSC 15/07 Q1006 NOSIG=
201206051650 METAR ESSA 051650Z 20008KT 9999 FEW032 SCT076 BKN130 14/07
                        Q1006 NOSIG=
201206051620 METAR ESSA 051620Z 17007KT 9999 NSC 14/08 Q1006 NOSIG=
201206051550 METAR ESSA 051550Z 16011KT 9999 NSC 14/07 Q1006 NOSIG=
201206051520 METAR ESSA 051520Z 17010KT 9999 FEW045 SCT062 BKN100 15/07
                        Q1006 NOSIG=
201206051450 METAR COR ESSA 051450Z 14011KT 9999 FEW035 BKN043 15/07 Q1006
                        TEMPO SHRA=
201206051420 METAR ESSA 051420Z 18011KT 9999 -SHRA FEW035CB BKN050 15/07
                        Q1006 TEMPO SHRA=
201206051350 METAR ESSA 051350Z 17012KT 9999 -SHRA FEW035CB BKN060 16/07
                        Q1006 TEMPO SHRA=
201206051320 METAR ESSA 051320Z 17008KT CAVOK 17/05 Q1006 NOSIG=
201206051250 METAR ESSA 051250Z 18006KT 130V200 CAVOK 17/05 Q1006 NOSIG=
201206051220 METAR ESSA 051220Z 18008KT CAVOK 17/05 Q1006 NOSIG=
201206051150 METAR ESSA 051150Z 16008KT 130V250 9999 SCT047 16/05 Q1006
                        NOSIG=
201206051120 METAR ESSA 051120Z 22007KT 9999 SCT045 16/07 Q1006 NOSIG=
201206051050 METAR ESSA 051050Z 22006KT 180V240 9999 BKN038 16/05 Q1006
                        NOSIG=
201206051020 METAR ESSA 051020Z 20007KT 9999 BKN038 16/06 Q1006 NOSIG=
201206050950 METAR ESSA 050950Z 22007KT 190V250 9999 BKN038 16/06 Q1006
                        NOSIG=
201206050920 METAR ESSA 050920Z 23008KT 9999 BKN035 15/07 Q1006 NOSIG=
201206050850 METAR ESSA 050850Z 25009KT 9999 BKN033 15/07 Q1006 NOSIG=
201206050820 METAR ESSA 050820Z 25009KT 9999 SCT027 13/08 Q1005 NOSIG=
201206050750 METAR ESSA 050750Z 23006KT 9999 SCT022 13/08 Q1005 NOSIG=
201206050720 METAR ESSA 050720Z 21006KT 9999 FEW010 BKN070 13/08 Q1005
                        NOSIG=
201206050650 METAR ESSA 050650Z 19005KT 9999 FEW010 BKN070 12/09 Q1005
                        NOSIG=
201206050620 METAR ESSA 050620Z 19005KT 9999 FEW010 BKN070 11/09 Q1005
                        NOSIG=
201206050550 METAR ESSA 050550Z 19004KT 9999 BKN008 11/09 Q1005 BECMG
                        SCT020=
201206050520 METAR ESSA 050520Z 18005KT 9999 FEW006 SCT070 10/08 Q1005
                        TEMPO BKN005=
201206050450 METAR ESSA 050450Z 19005KT 9999 FEW005 10/08 Q1004 TEMPO
                        BKN005=
201206050420 METAR ESSA 050420Z 19004KT 9999 FEW005 09/08 Q1004 NOSIG=
201206050350 METAR ESSA 050350Z 20003KT CAVOK 08/08 Q1004 NOSIG=
201206050320 METAR ESSA 050320Z 22004KT CAVOK 08/08 Q1004 NOSIG=
201206050250 METAR ESSA 050250Z 17003KT CAVOK 08/08 Q1004 NOSIG=
201206050220 METAR ESSA 050220Z 16003KT CAVOK 08/07 Q1004 NOSIG=
201206050150 METAR ESSA 050150Z 16003KT CAVOK 08/08 Q1004 NOSIG=
201206050120 METAR ESSA 050120Z 17003KT CAVOK 08/07 Q1004 NOSIG=
201206050050 METAR ESSA 050050Z 22003KT CAVOK 08/07 Q1004 NOSIG=
201206050020 METAR ESSA 050020Z 14005KT 9999 FEW043 08/07 Q1003 NOSIG=
201206042350 METAR ESSA 042350Z 17005KT 9999 SCT048 09/08 Q1003 NOSIG=
201206042320 METAR ESSA 042320Z 21005KT 9999 SCT042 08/07 Q1003 NOSIG=
201206042250 METAR ESSA 042250Z 22005KT 9999 -DZ FEW027 SCT045 09/08 Q1003
                        NOSIG=
201206042220 METAR ESSA 042220Z 21004KT 9999 -RA SCT045 09/08 Q1003 NOSIG=
201206042150 METAR ESSA 042150Z 18005KT CAVOK 09/08 Q1003 NOSIG=
201206042120 METAR ESSA 042120Z 19005KT 9999 FEW025 09/08 Q1003 NOSIG=
201206042050 METAR ESSA 042050Z 18005KT 9999 SCT027 SCT042 10/08 Q1003
                        NOSIG=
201206042020 METAR ESSA 042020Z 16003KT 9999 FEW043 BKN060 10/07 Q1003
                        NOSIG=
201206041950 METAR ESSA 041950Z 18003KT CAVOK 10/07 Q1003 NOSIG=
201206041920 METAR ESSA 041920Z 17004KT CAVOK 10/07 Q1003 NOSIG=
201206041850 METAR ESSA 041850Z 19007KT CAVOK 11/07 Q1003 NOSIG=
201206041820 METAR ESSA 041820Z 21007KT CAVOK 11/08 Q1003 NOSIG=
201206041750 METAR ESSA 041750Z 19008KT CAVOK 12/07 Q1002 NOSIG=
201206041720 METAR ESSA 041720Z 20012KT 9999 FEW023 SCT086 12/07 Q1002
                        NOSIG=
201206041650 METAR ESSA 041650Z 19010KT 9999 FEW019 BKN065 12/08 Q1002
                        NOSIG=
201206041620 METAR ESSA 041620Z 19009KT 160V220 9999 FEW016 BKN140 12/08
                        Q1002 TEMPO SHRA=
201206041550 METAR ESSA 041550Z 19009KT CAVOK 12/08 Q1002 TEMPO SHRA=
201206041520 METAR COR ESSA 041520Z 19011KT 9999 VCSH FEW040CB BKN090
                        12/07 Q1002 TEMPO SHRA=
201206041450 METAR ESSA 041450Z 18009KT 9999 VCSH SCT045 SCT064CB BKN080
                        11/08 Q1002 TEMPO SHRA=
201206041420 METAR ESSA 041420Z 20012KT 9999 VCSH BKN040CB 11/08 Q1002
                        TEMPO SHRA=
201206041350 METAR ESSA 041350Z 19010KT 9999 -SHRA BKN045CB 12/08 Q1002
                        TEMPO SHRA=
201206041320 METAR ESSA 041320Z 18008KT 9999 VCSH SCT050CB BKN075 13/08
                        Q1002 TEMPO SHRA=
201206041250 METAR ESSA 041250Z 20005KT 9999 -SHRA BKN045CB 11/08 Q1002
                        TEMPO SHRA=
201206041220 METAR ESSA 041220Z 19007KT 8000 -SHRA BKN045CB 11/08 Q1002
                        TEMPO SHRA=
201206041150 METAR ESSA 041150Z 27009KT 9999 4000S SHRA BKN052CB 12/07
                        Q1002 TEMPO 4000=
201206041120 METAR ESSA 041120Z 25008KT 9999 VCSH BKN052 SCT055CB 13/07
                        Q1001 NOSIG=
201206041050 METAR ESSA 041050Z 25010KT 9999 -SHRA BKN030 SCT032CB 12/08
                        Q1001 NOSIG=
201206041020 METAR ESSA 041020Z 26009KT 220V280 9999 BKN032 SCT035TCU
                        12/07 Q1001 NOSIG=
201206040950 METAR ESSA 040950Z 21009KT 180V240 9999 BKN035 SCT040TCU
                        13/05 Q1001 NOSIG=
201206040920 METAR ESSA 040920Z 21009KT 9999 SCT030 SCT040TCU 13/06 Q1001
                        NOSIG=
201206040850 METAR ESSA 040850Z 20008KT 150V240 9999 BKN027 FEW030TCU
                        11/07 Q1001 NOSIG=
201206040820 METAR ESSA 040820Z 19009KT 150V230 9999 BKN025 12/06 Q1001
                        NOSIG=
201206040750 METAR ESSA 040750Z 18008KT 9999 SCT015 SCT050 12/07 Q1001
                        NOSIG=
201206040720 METAR ESSA 040720Z 20008KT 9999 SCT015 BKN048 10/06 Q1001
                        NOSIG=
201206040650 METAR ESSA 040650Z 20010KT 9999 SCT012 BKN050 10/07 Q1000
                        NOSIG=
201206040620 METAR ESSA 040620Z 18009KT 9999 SCT013 SCT030 BKN051 10/07
                        Q1000 NOSIG=
201206040550 METAR ESSA 040550Z 20009KT 9999 BKN010 09/07 Q1000 TEMPO
                        SCT007 BKN037=
201206040520 METAR ESSA 040520Z 21009KT 9999 BKN010 09/07 Q1000 TEMPO
                        SCT007 BKN037=
201206040450 METAR ESSA 040450Z 20008KT 9999 BKN007 08/08 Q1000 TEMPO
                        SCT007 BKN037=
201206040420 METAR ESSA 040420Z 20008KT 9999 BKN007 BKN037 08/08 Q1000
                        TEMPO SCT007 BKN037=
201206040350 METAR ESSA 040350Z 20007KT 9999 BKN006 BKN040 08/07 Q0999
                        NOSIG=
201206040320 METAR ESSA 040320Z 20006KT 9999 SCT006 SCT025 BKN040 08/08
                        Q0999 NOSIG=
201206040250 METAR ESSA 040250Z 18005KT 9999 FEW006 BKN042 08/08 Q0999
                        NOSIG=
201206040220 METAR ESSA 040220Z 18004KT 9999 FEW006 BKN042 08/07 Q0999
                        NOSIG=
201206040150 METAR ESSA 040150Z 21006KT 9999 SCT007 BKN045 08/07 Q0999
                        NOSIG=
201206040120 METAR ESSA 040120Z 20006KT 9999 FEW005 BKN008 BKN047 07/07
                        Q0999 TEMPO SCT007 BKN047=
201206040050 METAR ESSA 040050Z 19004KT 9999 FEW008 SCT045 07/07 Q0999
                        NOSIG=
201206040020 METAR ESSA 040020Z 22005KT CAVOK 07/07 Q0998 NOSIG=
201206032350 METAR ESSA 032350Z 21006KT 9999 FEW008 SCT045 08/07 Q0998
                        NOSIG=
201206032320 METAR ESSA 032320Z 21006KT 9999 FEW008 BKN040 07/07 Q0998
                        NOSIG=
201206032250 METAR ESSA 032250Z 19005KT 9999 -RA FEW030 BKN090 07/07 Q0998
                        NOSIG=
201206032220 METAR ESSA 032220Z 17006KT CAVOK 07/07 Q0998 NOSIG=
201206032150 METAR ESSA 032150Z 18006KT CAVOK 07/06 Q0998 NOSIG=
201206032120 METAR ESSA 032120Z 18007KT 9999 FEW044 SCT090 07/07 Q0998
                        NOSIG=
201206032050 METAR ESSA 032050Z 21007KT 9999 FEW008 SCT100 08/07 Q0998
                        NOSIG=
201206032020 METAR ESSA 032020Z 19006KT 9999 FEW007 SCT100 08/07 Q0998
                        NOSIG=
201206031950 METAR ESSA 031950Z 20006KT 9999 FEW008 SCT040 BKN060 08/08
                        Q0997 NOSIG=
201206031920 METAR COR ESSA 031920Z 19006KT 9999 -SHRA FEW012 FEW035CB
                        BKN060 09/08 Q0997 NOSIG=
201206031850 METAR ESSA 031850Z 20007KT 9999 -SHRA FEW023 FEW035CB BKN050
                        09/08 Q0997 TEMPO SHRA=
201206031820 METAR ESSA 031820Z 20007KT 9999 -SHRA FEW020 FEW030CB BKN040
                        09/08 Q0997 TEMPO SHRA=
201206031750 METAR ESSA 031750Z 23008KT 9999 -SHRA FEW010 FEW035CB BKN043
                        09/07 Q0997 TEMPO SHRA=
201206031720 METAR ESSA 031720Z 22008KT 9999 -SHRA FEW011 SCT035CB BKN060
                        10/08 Q0996 TEMPO SHRA=
201206031650 METAR ESSA 031650Z 25007KT 9999 -SHRA SCT013 BKN035CB BKN050
                        09/08 Q0996 RESHRA TEMPO SHRA=
201206031620 METAR COR ESSA 031620Z 22009KT 9999 VCSH FEW015 BKN036 BKN100
                        10/07 Q0996 TEMPO SHRA=
201206031550 METAR ESSA 031550Z 21010KT 9999 FEW014 BKN036 10/08 Q0996
                        TEMPO SHRA=
201206031520 METAR ESSA 031520Z 23010KT 9999 -SHRA FEW015 BKN043CB 10/08
                        Q0996 TEMPO SHRA=
201206031450 METAR ESSA 031450Z 24011KT 9999 -SHRA SCT030 BKN035CB 10/08
                        Q0996 TEMPO SHRA=
201206031420 METAR ESSA 031420Z 21009KT 9000 -SHRA SCT025 BKN030CB 09/07
                        Q0995 TEMPO SHRA=
201206031350 METAR ESSA 031350Z 24010KT 7000 -SHRA SCT020 BKN030CB 09/07
                        Q0995 TEMPO SHRA=
201206031320 METAR ESSA 031320Z 21013KT 7000 -SHRA SCT020 BKN030CB 09/07
                        Q0995 TEMPO SHRA=
201206031250 METAR ESSA 031250Z 24016KT 9999 SCT020 BKN030TCU 12/06 Q0994
                        TEMPO SHRA=
201206031220 METAR ESSA 031220Z 22012KT 9000 -SHRA SCT020 BKN030CB 11/06
                        Q0994 TEMPO SHRA=
201206031150 METAR ESSA 031150Z 26011KT 9999 SCT025 BKN035TCU 11/05 Q0994
                        TEMPO SHRA=
201206031120 METAR ESSA 031120Z 26013KT 9999 SCT025 BKN035TCU 11/05 Q0994
                        TEMPO SHRA=
201206031050 METAR ESSA 031050Z 26013KT 9999 SCT025 BKN035TCU 11/06 Q0993
                        TEMPO SHRA=
201206031020 METAR ESSA 031020Z 27015KT 9999 SCT020 BKN025TCU 09/05 Q0993
                        TEMPO SHRA BKN012=
201206030950 METAR ESSA 030950Z 27014KT 9000 -RA SCT020 BKN025CB 10/05
                        Q0993 TEMPO SHRA BKN012=
201206030920 METAR ESSA 030920Z 29011KT 9000 -SHRA SCT015 BKN020CB 09/06
                        Q0993 TEMPO SHRA BKN012=
201206030850 METAR ESSA 030850Z 27010KT 9999 SCT015 BKN020 10/06 Q0992
                        TEMPO SHRA=
201206030820 METAR ESSA 030820Z 27010KT 9999 SCT015 BKN020 09/06 Q0992
                        TEMPO SHRA=
201206030750 METAR ESSA 030750Z 27010KT 9999 SCT012 BKN015 08/06 Q0992
                        TEMPO BKN012=
201206030720 METAR ESSA 030720Z 27011KT 9999 SCT012 BKN015 08/06 Q0991
                        TEMPO BKN012=
201206030650 METAR ESSA 030650Z 26011KT 9999 -RA SCT010 BKN014 07/06 Q0991
                        TEMPO BKN009=
201206030620 METAR ESSA 030620Z 27011KT 9999 -RA SCT010 BKN014 07/06 Q0991
                        TEMPO BKN009=
201206030550 METAR ESSA 030550Z 29011KT 9999 SCT010 BKN014 07/06 Q0990
                        NOSIG=
201206030520 METAR ESSA 030520Z 29012KT 9999 SCT010 BKN014 07/05 Q0990
                        NOSIG=
201206030450 METAR ESSA 030450Z 29011KT 9999 SCT009 BKN012 07/06 Q0990
                        TEMPO BKN009=
201206030420 METAR ESSA 030420Z 29012KT 9999 SCT009 BKN012 07/06 Q0989
                        TEMPO BKN009=
201206030350 METAR ESSA 030350Z 29012KT 9999 -DZ SCT007 BKN009 07/06 Q0989
                        TEMPO BKN010=
201206030320 METAR ESSA 030320Z 26012KT 9999 -DZ BKN007 07/07 Q0989 NOSIG=
201206030250 METAR ESSA 030250Z 26012KT 9999 BKN007 07/07 Q0989 NOSIG=
201206030220 METAR ESSA 030220Z 27012KT 9999 BKN006 07/07 Q0988 NOSIG=
201206030150 METAR ESSA 030150Z 27012KT 9999 BKN005 07/07 Q0988 BECMG
                        BKN004=
201206030120 METAR ESSA 030120Z 27012KT 9999 BKN005 07/07 Q0988 BECMG
                        BKN004=
201206030050 METAR ESSA 030050Z 28012KT 9999 BKN005 07/06 Q0988 BECMG
                        BKN004=
201206030020 METAR ESSA 030020Z 26015KT 6000 -DZ BKN006 07/06 Q0988 BECMG
                        4000 RADZ BKN004=
201206022350 METAR ESSA 022350Z 26015KT 6000 -DZ BKN006 07/06 Q0988 BECMG
                        4000 RADZ BKN004=
201206022320 METAR ESSA 022320Z 27017KT 8000 -DZ BKN006 07/06 Q0988 BECMG
                        4000 RADZ BKN004=
201206022250 METAR ESSA 022250Z 26015KT 8000 -DZ BKN006 07/06 Q0988 BECMG
                        4000 RADZ BKN004=
201206022220 METAR ESSA 022220Z 28017KT 8000 -RA BKN007 07/06 Q0988 BECMG
                        4000 RADZ BKN004=
201206022150 METAR ESSA 022150Z 27019KT 7000 -RA BKN007 07/06 Q0988 BECMG
                        4000 RADZ BKN004=
201206022120 METAR ESSA 022120Z 27019KT 7000 -RA BKN007 07/06 Q0988 BECMG
                        4000 RADZ BKN004=
201206022050 METAR ESSA 022050Z 27018KT 8000 -RA BKN008 07/06 Q0988 NOSIG=
201206022020 METAR ESSA 022020Z 28018KT 9999 -RA BKN008 07/06 Q0989 NOSIG=
201206021950 METAR ESSA 021950Z 27017G29KT 9999 -RA BKN008 07/06 Q0989
                        NOSIG=
201206021920 METAR ESSA 021920Z 28017KT 9999 -RA BKN008 07/06 Q0989 NOSIG=
201206021850 METAR ESSA 021850Z 27018KT 9999 -RA BKN008 07/06 Q0989 NOSIG=
201206021820 METAR ESSA 021820Z 28016KT 9999 -RA BKN009 07/06 Q0990 NOSIG=
201206021750 METAR ESSA 021750Z 28018KT 9999 -RA BKN008 06/06 Q0990 NOSIG=
201206021720 METAR ESSA 021720Z 27018KT 9999 -RA BKN008 06/05 Q0991 NOSIG=
201206021650 METAR ESSA 021650Z 27019KT 9999 -RA BKN008 06/05 Q0991 NOSIG=
201206021620 METAR ESSA 021620Z 29016KT 9999 -RA BKN008 06/05 Q0991 NOSIG=
201206021550 METAR ESSA 021550Z 29017KT 9999 -RA BKN008 06/05 Q0991 TEMPO
                        4000=
201206021520 METAR ESSA 021520Z 28017KT 9999 -RA BKN008 06/05 Q0992 TEMPO
                        4000=
201206021450 METAR ESSA 021450Z 29016KT 9999 -RA BKN008 06/05 Q0992 TEMPO
                        4000=
201206021420 METAR ESSA 021420Z 29019KT 9999 -RA BKN008 06/05 Q0992 TEMPO
                        4000=
201206021350 METAR ESSA 021350Z 29018KT 9999 -RA BKN008 06/05 Q0993 TEMPO
                        4000=
201206021320 METAR ESSA 021320Z 29020KT 9999 -RA SCT008 BKN010 05/04 Q0993
                        TEMPO 4000 BKN008=
201206021250 METAR ESSA 021250Z 30020KT 9999 -RA SCT008 BKN010 05/04 Q0993
                        TEMPO 4000 BKN008=
201206021220 METAR ESSA 021220Z 30017KT 9999 -RA SCT008 BKN010 05/04 Q0993
                        TEMPO 4000 BKN008=
201206021150 METAR ESSA 021150Z 31020G30KT 9999 -RA SCT008 BKN010 05/04
                        Q0994 TEMPO 4000 BKN008=
201206021120 METAR ESSA 021120Z 31020KT 9000 -RA BKN010 05/04 Q0994 NOSIG=
201206021050 METAR ESSA 021050Z 31019KT 9999 -RA FEW008 BKN010 05/04 Q0994
                        NOSIG=
201206021020 METAR ESSA 021020Z 31021KT 9999 -RA FEW008 BKN010 05/04 Q0994
                        NOSIG=
201206020950 METAR ESSA 020950Z 31018KT 9999 -RA BKN010 05/04 Q0994 NOSIG=
201206020920 METAR ESSA 020920Z 31023KT 9999 -RA BKN010 05/04 Q0995 NOSIG=
201206020850 METAR ESSA 020850Z 32018G30KT 280V340 9999 -RA BKN011 05/04
                        Q0995 NOSIG=
201206020820 METAR ESSA 020820Z 31020G30KT 9999 -RA BKN010 05/04 Q0995
                        NOSIG=
201206020750 METAR ESSA 020750Z 32022KT 9999 -RA BKN010 05/04 Q0995 NOSIG=
201206020720 METAR ESSA 020720Z 32019G29KT 9999 -RA BKN011 06/04 Q0995
                        NOSIG=
201206020650 METAR ESSA 020650Z 32019G30KT 9999 -RA BKN011 06/04 Q0996
                        NOSIG=
201206020620 METAR ESSA 020620Z 32020KT 9999 -RA BKN010 06/05 Q0996 NOSIG=
201206020550 METAR ESSA 020550Z 33016KT 9999 -RA BKN010 06/05 Q0996 NOSIG=
201206020520 METAR ESSA 020520Z 33017KT 9999 -RA BKN010 06/05 Q0997 NOSIG=
201206020450 METAR ESSA 020450Z 33016KT 9999 -RA BKN011 06/05 Q0997 NOSIG=
201206020420 METAR ESSA 020420Z 33016KT 9999 -RA BKN013 06/05 Q0998 NOSIG=
201206020350 METAR ESSA 020350Z 33017KT 9999 -RA BKN013 06/05 Q0998 NOSIG=
201206020320 METAR ESSA 020320Z 34015KT 9999 -RA FEW005 BKN013 07/04 Q0998
                        NOSIG=
201206020250 METAR ESSA 020250Z 34014KT 9999 -RA FEW005 BKN013 06/05 Q0999
                        NOSIG=
201206020220 METAR ESSA 020220Z 33011KT 8000 -RA BKN013 06/04 Q0999 NOSIG=
201206020150 METAR COR ESSA 020150Z 32012KT 9999 BKN013 06/04 Q0999 NOSIG=
201206020120 METAR ESSA 020120Z 33012KT 9999 BKN011 06/04 Q1000 TEMPO
                        BKN008=
201206020050 METAR ESSA 020050Z 33012KT 9999 BKN011 06/04 Q1000 NOSIG=
201206020020 METAR ESSA 020020Z 33012KT 9999 BKN013 06/04 Q1001 NOSIG=
201206012350 METAR ESSA 012350Z 33012KT 9999 BKN013 06/04 Q1001 TEMPO
                        BKN015=
201206012320 METAR ESSA 012320Z 33011KT 9999 -RA BKN016 06/04 Q1001 NOSIG=
201206012250 METAR ESSA 012250Z 33010KT 9999 BKN013 06/04 Q1002 TEMPO
                        BKN015=
201206012220 METAR ESSA 012220Z 33010KT 9999 BKN015 06/04 Q1002 TEMPO
                        BKN012=
201206012150 METAR ESSA 012150Z 33010KT 9999 SCT017 BKN070 06/04 Q1002
                        TEMPO BKN012=
201206012120 METAR ESSA 012120Z 33009KT CAVOK 06/04 Q1002 NOSIG=
201206012050 METAR ESSA 012050Z 33009KT 9999 FEW026 BKN100 06/04 Q1003
                        NOSIG=
201206012020 METAR ESSA 012020Z 35009KT CAVOK 06/04 Q1003 NOSIG=
201206011950 METAR ESSA 011950Z 36010KT CAVOK 06/04 Q1003 NOSIG=
201206011920 METAR ESSA 011920Z 36011KT 9999 FEW019 BKN049 06/04 Q1003
                        NOSIG=
201206011850 METAR ESSA 011850Z 36011KT 9999 FEW019 BKN049 07/04 Q1004
                        NOSIG=
201206011820 METAR ESSA 011820Z 36011KT 9999 FEW022 BKN043 07/03 Q1004
                        NOSIG=
201206011750 METAR ESSA 011750Z 35011KT 9999 FEW020 SCT040 BKN047 07/04
                        Q1004 NOSIG=
201206011720 METAR ESSA 011720Z 36013KT 9999 SCT020 BKN038 07/04 Q1004
                        NOSIG=
201206011650 METAR ESSA 011650Z 36013KT 9999 FEW013 BKN022 07/04 Q1004
                        NOSIG=
201206011620 METAR ESSA 011620Z 36013KT 9999 FEW010 SCT015 BKN020 07/05
                        Q1004 NOSIG=
201206011550 METAR ESSA 011550Z 01014KT 9999 FEW010 SCT015 BKN020 07/05
                        Q1004 NOSIG=
201206011520 METAR ESSA 011520Z 01015KT 9999 -RA SCT009 BKN014 07/05 Q1004
                        TEMPO BKN020=
201206011450 METAR ESSA 011450Z 01014KT 9999 -RA SCT010 BKN014 07/05 Q1004
                        TEMPO BKN020=
201206011420 METAR ESSA 011420Z 01016KT 9999 -RA FEW012 SCT016 BKN022
                        07/05 Q1004 NOSIG=
201206011350 METAR ESSA 011350Z 02015KT 9999 -RA SCT013 BKN018 07/05 Q1004
                        NOSIG=
201206011320 METAR ESSA 011320Z 01015KT 9999 -RA FEW012 SCT016 BKN023
                        07/05 Q1004 NOSIG=
201206011250 METAR ESSA 011250Z 01013KT 9999 -RA SCT015 BKN023 07/05 Q1004
                        NOSIG=
201206011220 METAR ESSA 011220Z 02014KT 9999 -RA BKN017 07/05 Q1004 NOSIG=
201206011150 METAR ESSA 011150Z 02015KT 9999 -RA BKN022 07/05 Q1004 NOSIG=
201206011120 METAR ESSA 011120Z 01013KT 9999 -RA SCT017 BKN022 07/05 Q1004
                        NOSIG=
201206011050 METAR ESSA 011050Z 01012KT 9999 -RA FEW013 SCT017 BKN022
                        07/05 Q1004 NOSIG=
201206011020 METAR ESSA 011020Z 01013KT 9999 -RA FEW013 SCT017 BKN022
                        07/05 Q1004 NOSIG=
201206010950 METAR ESSA 010950Z 02014KT 9999 -RA FEW017 BKN022 07/05 Q1004
                        NOSIG=
201206010920 METAR ESSA 010920Z 01013KT 9999 -RA BKN022 07/05 Q1004 NOSIG=
201206010850 METAR ESSA 010850Z 02012KT 9999 -RA BKN022 08/04 Q1004 NOSIG=
201206010820 METAR ESSA 010820Z 03012KT 9999 -RA FEW009 BKN017 07/05 Q1004
                        NOSIG=
201206010750 METAR ESSA 010750Z 03013KT 9999 -RA FEW009 BKN017 07/04 Q1004
                        NOSIG=
201206010720 METAR ESSA 010720Z 03014KT 9999 -RA FEW009 BKN017 07/05 Q1004
                        TEMPO BKN014=
201206010650 METAR ESSA 010650Z 02012KT 9999 -RA FEW009 BKN017 07/05 Q1004
                        TEMPO BKN014=
201206010620 METAR ESSA 010620Z 02010KT 9999 -RA FEW009 BKN011 06/06 Q1005
                        TEMPO BKN015=
201206010550 METAR ESSA 010550Z 02009KT 9999 -RA FEW009 BKN011 06/05 Q1005
                        TEMPO BKN015=
201206010520 METAR ESSA 010520Z 01010KT 9999 -RA SCT009 BKN017 06/05 Q1005
                        TEMPO BKN009=
201206010450 METAR ESSA 010450Z 02010KT 9999 -RA SCT009 BKN022 07/05 Q1005
                        TEMPO BKN009=
201206010420 METAR ESSA 010420Z 02009KT 9999 -RA SCT009 BKN025 06/06 Q1005
                        TEMPO BKN009=
201206010350 METAR ESSA 010350Z 01008KT 9999 -RA BKN007 BKN023 06/06 Q1005
                        TEMPO BKN015=
201206010320 METAR ESSA 010320Z 01008KT 9999 BKN006 BKN020 06/05 Q1005
                        TEMPO BKN015=
201206010250 METAR ESSA 010250Z 01009KT 9999 BKN006 06/05 Q1005 TEMPO
                        BKN015=
201206010220 METAR ESSA 010220Z 01008KT 9999 BKN006 06/05 Q1005 TEMPO
                        BKN015=
201206010150 METAR ESSA 010150Z 01009KT 9999 BKN007 06/06 Q1005 TEMPO
                        BKN015=
201206010120 METAR ESSA 010120Z 01007KT 9999 SCT008 BKN045 06/06 Q1005
                        NOSIG=
201206010050 METAR ESSA 010050Z 36008KT 9999 FEW008 BKN044 07/06 Q1005
                        NOSIG=
201206010020 METAR ESSA 010020Z 36007KT 9999 BKN007 BKN012 07/07 Q1005
                        TEMPO BKN015=

# No short TAF reports from ESSA in databse.

###################################
#  large TAF from ESSA
###################################
201207012330 TAF ESSA 012330Z 0200/0224 24006KT CAVOK
                      TEMPO 0206/0215 24015G25KT
                      PROB30 0212/0218 SHRA BKN040CB=
201207011730 TAF ESSA 011730Z 0118/0218 18014KT CAVOK
                      BECMG 0118/0120 24012KT
                      PROB30 0203/0205 SHRA BKN045CB
                      TEMPO 0206/0213 24015G25KT=
201207011130 TAF ESSA 011130Z 0112/0212 17014KT 9999 SCT045
                      TEMPO 0115/0121 SHRA BKN045CB
                      BECMG 0119/0121 25010KT=
201207010530 TAF ESSA 010530Z 0106/0206 19010KT CAVOK
                      TEMPO 0115/0122 SHRA BKN045CB=
201206302330 TAF ESSA 302330Z 0100/0124 21008KT CAVOK
                      TEMPO 0115/0122 SHRA BKN045CB=
201206301730 TAF ESSA 301730Z 3018/0118 21008KT CAVOK=
201206301130 TAF ESSA 301130Z 3012/0112 25008KT 9999 SCT020=
201206300727 TAF AMD ESSA 300727Z 3007/0106 17007KT 9000 BR BKN003
                      TEMPO 3007/3010 2000 BKN008
                      BECMG 3010/3012 23010KT SCT025=
201206300530 TAF ESSA 300530Z 3006/0106 17016KT 9999 -RA SCT012 BKN025
                      TEMPO 3006/3010 4000 RA BKN004
                      PROB40 3010/3013 BKN004
                      BECMG 3011/3013 24010KT=
201206292330 TAF ESSA 292330Z 3000/3024 17016KT 9999 BKN045
                      TEMPO 3003/3013 4000 SHRA BKN004 BKN015CB
                       BECMG 3011/3013 24010KT=
201206291730 TAF ESSA 291730Z 2918/3018 16018KT CAVOK
                      TEMPO 2918/3009 16018G30KT
                      TEMPO 3004/3013 4000 SHRA BKN004 BKN015CB
                       BECMG 3011/3013 24010KT=
201206291130 TAF ESSA 291130Z 2912/3012 16018KT CAVOK
                      TEMPO 2917/2921 4000 SHRA BKN050CB
                      TEMPO 2918/3009 16018G35KT
                      TEMPO 3004/3010 3000 SHRA BKN004 BKN015CB=
201206290530 TAF ESSA 290530Z 2906/3006 12007KT CAVOK
                      BECMG 2908/2910 20012KT
                      TEMPO 2912/2919 19015G25KT
                      TEMPO 2917/2921 SHRA BKN050CB
                      TEMPO 3003/3006 SHRA BKN004 BKN015CB=
201206282330 TAF ESSA 282330Z 2900/2924 14004KT CAVOK
                      BECMG 2912/2914 18015KT
                      TEMPO 2917/2924 SHRA BKN050CB=
201206281730 TAF ESSA 281730Z 2818/2918 11010KT CAVOK
                      BECMG 2823/2901 18005KT
                      BECMG 2912/2914 18015KT=
201206281448 TAF AMD ESSA 281448Z 2814/2912 29007KT CAVOK
                      TEMPO 2815/2820 11010KT
                      BECMG 2905/2907 18010KT=
201206281130 TAF ESSA 281130Z 2812/2912 28007KT CAVOK
                      BECMG 2904/2906 16010KT=
201206280530 TAF ESSA 280530Z 2806/2906 31007KT CAVOK
                      BECMG 2904/2906 16010KT=
201206280051 TAF AMD ESSA 280051Z 2801/2824 33004KT 9999 BCFG NSC
                      PROB40 2801/2804 0800 MIFG=
201206272330 TAF ESSA 272330Z 2800/2824 31004KT CAVOK=
201206272300 TAF AMD ESSA 280051Z 2801/2824 33004KT 9999 BCFG NSC
                      PROB40 2801/2804 0800 MIFG=
201206271730 TAF ESSA 271730Z 2718/2818 VRB02KT CAVOK=
201206271130 TAF ESSA 271130Z 2712/2812 33010KT 9999 BKN030
                      BECMG 2717/2719 VRB02KT=
201206270530 TAF ESSA 270530Z 2706/2806 32010KT CAVOK
                      TEMPO 2711/2718 SHRA SCT045CB
                      BECMG 2716/2718 VRB02KT=
201206262330 TAF ESSA 262330Z 2700/2724 27005KT CAVOK
                      PROB40 2700/2703 4000 BR BKN008=
201206262033 TAF AMD ESSA 262033Z 2620/2718 30005KT CAVOK
                      TEMPO 2620/2622 4000 SHRA BKN040CB
                      PROB40 2622/2703 4000 BR BKN008=
201206261730 TAF ESSA 261730Z 2618/2718 33006KT CAVOK
                      TEMPO 2622/2703 4000 SHRA BR BKN008 BKN035CB=
201206261130 TAF ESSA 261130Z 2612/2712 34010KT 9999 SCT025TCU BKN060
                      TEMPO 2612/2617 4000 SHRA BKN020CB
                      TEMPO 2622/2703 28006KT 4000 SHRA BKN008
                       BKN035CB=
201206260530 TAF ESSA 260530Z 2606/2706 36010KT 9999 BKN008
                      BECMG 2606/2608 BKN035
                      TEMPO 2606/2617 SHRA SCT025CB
                      BECMG 2618/2620 30005KT
                      TEMPO 2622/2704 SHRA SCT040CB=
201206252330 TAF ESSA 252330Z 2600/2624 02009KT 9999 BKN007
                      TEMPO 2600/2606 4000 BR BKN020
                      BECMG 2606/2608 BKN030
                      TEMPO 2606/2617 SHRA BKN017CB=
201206252001 TAF AMD ESSA 252001Z 2520/2618 02008KT 9999 SCT008 BKN015
                      TEMPO 2520/2606 4000 BR BKN008
                      TEMPO 2606/2617 SHRA BKN010CB=
201206251730 TAF ESSA 251730Z 2518/2618 08012KT 9999 SCT008 BKN015
                      TEMPO 2518/2520 SHRA BKN014CB
                      PROB40 2522/2606 4000 BR
                      TEMPO 2606/2617 SHRA BKN010CB
                      BECMG 2600/2602 02005KT=
201206251130 TAF ESSA 251130Z 2512/2612 08014KT 9999 SCT010 BKN015
                      TEMPO 2512/2612 SHRA BKN009 BKN020CB
                      BECMG 2600/2602 02008KT=
201206250530 TAF ESSA 250530Z 2506/2606 08014KT 8000 -RA BKN045
                      TEMPO 2506/2512 RA
                      TEMPO 2506/2519 BKN009
                      BECMG 2511/2513 08004KT
                      TEMPO 2512/2606 SHRA BKN020CB=
201206250332 TAF AMD ESSA 250332Z 2503/2524 09005KT 8000 -RA BKN045
                      TEMPO 2503/2512 3000 RA BKN009
                      BECMG 2505/2507 07015KT
                      BECMG 2511/2513 08005KT
                      TEMPO 2513/2524 SHRA BKN013 BKN020CB=
201206242330 TAF ESSA 242330Z 2500/2524 09005KT CAVOK
                      BECMG 2500/2502 RA
                      TEMPO 2502/2512 3000 -RA BKN009
                      BECMG 2505/2507 07015KT
                      BECMG 2511/2513 08005KT NSW
                      TEMPO 2513/2524 SHRA BKN013 BKN020CB=
201206242300 TAF AMD ESSA 250332Z 2503/2524 09005KT 8000 -RA BKN045
                      TEMPO 2503/2512 3000 RA BKN009
                      BECMG 2505/2507 07015KT
                      BECMG 2511/2513 08005KT
                      TEMPO 2513/2524 SHRA BKN013 BKN020CB=
201206242228 TAF AMD ESSA 242228Z 2422/2518 09005KT CAVOK
                      BECMG 2501/2503 RA
                      TEMPO 2503/2512 3000 -RA BKN009
                      BECMG 2505/2507 09015KT
                      BECMG 2512/2514 NSW
                      TEMPO 2514/2518 SHRA BKN020CB=
201206241730 TAF ESSA 241730Z 2418/2518 21010KT 9999 SCT035
                      BECMG 2418/2420 15005KT
                      BECMG 2504/2506 RA
                      TEMPO 2504/2512 3000 -RA BKN009
                      BECMG 2505/2507 09015KT
                      BECMG 2512/2514 NSW
                      TEMPO 2514/2518 SHRA BKN020CB=
201206241519 TAF AMD ESSA 241519Z 2415/2512 21010KT CAVOK
                      BECMG 2418/2420 15005KT
                      BECMG 2504/2506 RA
                      TEMPO 2504/2512 3000 -RA
                      BECMG 2505/2507 09014KT
                      PROB40 2509/2512 BKN009=
201206241130 TAF ESSA 241130Z 2412/2512 24010KT 9999 FEW035
                      PROB40 2412/2419 SHRA BKN030CB
                      BECMG 2419/2421 18005KT
                      PROB40 2503/2512 4000 RA
                      TEMPO 2508/2512 BKN008
                      BECMG 2503/2505 07012KT=
201206240530 TAF ESSA 240530Z 2406/2506 17005KT 9999 BKN004
                      BECMG 2406/2408 24010KT SCT010 BKN060
                      PROB40 2410/2418 SHRA BKN030CB
                      BECMG 2418/2421 10009KT
                      PROB40 2504/2506 RA=
201206240246 TAF AMD ESSA 240246Z 2402/2424 17006KT 9999 BKN040
                      PROB40 2402/2405 BKN008
                      BECMG 2405/2408 24010KT=
201206232330 TAF ESSA 232330Z 2400/2424 17006KT 9999 BKN040
                      PROB40 2400/2407 4000 SHRA BKN020CB
                      BECMG 2405/2408 24010KT=
201206232300 TAF AMD ESSA 240246Z 2402/2424 17006KT 9999 BKN040
                      PROB40 2402/2405 BKN008
                      BECMG 2405/2408 24010KT=
201206231730 TAF ESSA 231730Z 2318/2418 10005KT 9999 BKN040
                      PROB40 2400/2407 4000 SHRA BKN030CB
                      BECMG 2405/2408 24010KT=
201206231130 TAF ESSA 231130Z 2312/2412 03005KT 9999 -RA SCT045 BKN070=
201206230530 TAF ESSA 230530Z 2306/2406 VRB03KT CAVOK
                      TEMPO 2306/2316 RA=
201206222330 TAF ESSA 222330Z 2300/2324 03005KT CAVOK
                      TEMPO 2301/2316 RA=
201206221730 TAF ESSA 221730Z 2218/2318 12010KT CAVOK
                      BECMG 2221/2223 03005KT
                      PROB30 2303/2318 RA=
201206221700 TAF ESSA 221700Z NIL=
201206221130 TAF ESSA 221130Z 2212/2312 08016KT CAVOK
                      BECMG 2221/2223 03005KT=
201206220530 TAF ESSA 220530Z 2206/2306 07010KT CAVOK=
201206212330 TAF ESSA 212330Z 2200/2224 07004KT CAVOK=
201206211730 TAF ESSA 211730Z 2118/2218 13008KT CAVOK=
201206211437 TAF AMD ESSA 211437Z 2114/2212 13008KT CAVOK=
201206211130 TAF ESSA 211130Z 2112/2212 08008KT 9999 SCT045=
201206210530 TAF ESSA 210530Z 2106/2206 04005KT CAVOK=
201206202330 TAF ESSA 202330Z 2100/2124 VRB02KT CAVOK
                      PROB40 2101/2104 2000 BCFG BR=
201206201730 TAF ESSA 201730Z 2018/2118 27003KT CAVOK=
201206201130 TAF ESSA 201130Z 2012/2112 21005KT CAVOK=
201206200530 TAF ESSA 200530Z 2006/2106 36005KT CAVOK=
201206192330 TAF ESSA 192330Z 2000/2024 27005KT CAVOK=
201206191730 TAF ESSA 191730Z 1918/2018 25010KT CAVOK=
201206191130 TAF ESSA 191130Z 1912/2012 25020KT 9999 SCT045
                      BECMG 1919/1921 24010KT
                      BECMG 2003/2005 35005KT=
201206190530 TAF ESSA 190530Z 1906/2006 28006KT 3000 BR BKN007
                      BECMG 1906/1908 CAVOK
                      TEMPO 1910/1916 26015G25KT=
201206190347 TAF AMD ESSA 190347Z 1903/1924 33003KT 7000 BR BKN004
                      PROB40 1903/1905 3000 BR DZ SCT005
                      BECMG 1905/1907 27012KT SCT005
                      TEMPO 1910/1916 26015G25KT=
201206182330 TAF ESSA 182330Z 1900/1924 13007KT 7000 -RA NSC
                      TEMPO 1900/1903 4000 RA
                      PROB30 1903/1906 3000 BR DZ BKN012
                      BECMG 1904/1906 27012KT
                      TEMPO 1910/1916 26015G25KT=
201206182300 TAF AMD ESSA 190347Z 1903/1924 33003KT 7000 BR BKN004
                      PROB40 1903/1905 3000 BR DZ SCT005
                      BECMG 1905/1907 27012KT SCT005
                      TEMPO 1910/1916 26015G25KT=
201206181730 TAF ESSA 181730Z 1818/1918 18007KT 9999 FEW040
                      TEMPO 1820/1904 4000 RA BKN012
                      TEMPO 1904/1906 3000 BR=
201206181130 TAF ESSA 181130Z 1812/1912 25014KT 9999 BKN040
                      BECMG 1820/1822 11006KT RA
                      TEMPO 1822/1906 4000 BKN012
                      BECMG 1905/1907 25010KT NSW=
201206180530 TAF ESSA 180530Z 1806/1906 25012KT 9999 SCT020 BKN040
                      BECMG 1820/1822 RA BKN010
                      TEMPO 1820/1906 2000 BKN007=
201206172330 TAF ESSA 172330Z 1800/1824 25010KT CAVOK
                      TEMPO 1800/1809 BKN013
                      BECMG 1820/1822 RA BKN010
                      TEMPO 1820/1824 2000 BKN007=
201206171730 TAF ESSA 171730Z 1718/1818 25010KT 9999 SCT040
                      TEMPO 1723/1809 BKN013=
201206171435 TAF AMD ESSA 171435Z 1714/1812 26010KT 9999 BKN020
                      TEMPO 1714/1716 SHRA BKN013 BKN025CB
                      TEMPO 1723/1809 BKN013=
201206171130 TAF ESSA 171130Z 1712/1812 26012KT 9999 BKN007
                      BECMG 1712/1714 BKN020
                      TEMPO 1714/1716 SHRA BKN013 BKN025CB
                      PROB30 TEMPO 1714/1716 28015G25KT 4000 TSRA
                       TEMPO 1723/1809 BKN013=
201206171015 TAF AMD ESSA 171015Z 1710/1806 29008KT 4000 RA BKN005
                      BECMG 1711/1714 9999 NSW BKN015
                      TEMPO 1714/1717 4000 SHRA BKN013 BKN025CB=
201206170530 TAF ESSA 170530Z 1706/1806 08007KT 5000 -RA BKN010
                      TEMPO 1706/1710 2000 SHRA TS BKN004 BKN030CB
                       BECMG 1710/1712 27010KT BKN015
                      TEMPO 1710/1718 3000 SHRA BKN030CB=
201206162330 TAF ESSA 162330Z 1700/1724 13003KT 0200 FG VV002
                      TEMPO 1700/1704 5000 BR BKN030
                      BECMG 1704/1706 5000 RA BKN006
                      TEMPO 1706/1710 1400 +SHRA BKN004 BKN030CB
                       BECMG 1710/1712 BKN015
                      TEMPO 1710/1718 3000 SHRA BKN030CB=
201206162119 TAF AMD ESSA 162119Z 1621/1718 11005KT 0200 FG VV002
                      TEMPO 1700/1704 5000 BR BKN030
                      BECMG 1704/1706 5000 RA BKN006
                      TEMPO 1706/1710 1400 +SHRA BKN004 BKN030CB
                       BECMG 1710/1712 BKN015
                      TEMPO 1710/1718 3000 SHRA BKN030CB=
201206161730 TAF ESSA 161730Z 1618/1718 14005KT 9999 SCT005
                      TEMPO 1620/1704 0600 FG VV002
                      BECMG 1704/1707 4000 RA BKN006
                      TEMPO 1706/1710 1400 +SHRA BKN004 BKN030CB
                       BECMG 1710/1712 6000 BKN015
                      TEMPO 1710/1718 3000 SHRA BKN030CB=
201206161254 TAF AMD ESSA 161254Z 1613/1712 16007KT 8000 BR SCT007 BKN012
                      TEMPO 1613/1619 BKN005
                      BECMG 1619/1621 BKN020
                      TEMPO 1620/1704 0600 BCFG
                      BECMG 1704/1706 3000 RA BKN006
                      TEMPO 1704/1712 1400 +SHRA BKN004 BKN030CB=
201206161130 TAF ESSA 161130Z 1612/1712 16007KT 8000 -RA SCT015 BKN030
                      TEMPO 1612/1614 4000 RADZ
                      BECMG 1612/1614 BKN012
                      TEMPO 1614/1619 BKN007
                      TEMPO 1619/1704 0600 BCFG
                      BECMG 1704/1706 3000 RA BKN006
                      TEMPO 1704/1712 1400 +SHRA BKN004 BKN030CB=
201206160530 TAF ESSA 160530Z 1606/1706 15012KT 9999 SCT040
                      BECMG 1607/1609 4000 RA
                      TEMPO 1609/1612 8000 -RA
                      BECMG 1612/1614 9999 NSW
                      PROB40 1609/1618 BKN012
                      TEMPO 1618/1704 3000 BR BKN006
                      TEMPO 1704/1705 4000 RA BKN006=
201206152330 TAF ESSA 152330Z 1600/1624 15005KT 9999 SCT040
                      TEMPO 1607/1612 4000 RA BKN012
                      PROB40 1612/1624 BKN012=
201206151730 TAF ESSA 151730Z 1518/1618 15008KT CAVOK
                      TEMPO 1607/1612 RA BKN012=
201206151130 TAF ESSA 151130Z 1512/1612 19008KT 9999 SCT045 BKN060
                      BECMG 1606/1608 12010KT
                      TEMPO 1608/1612 RA=
201206150530 TAF ESSA 150530Z 1506/1606 23007KT CAVOK
                      BECMG 1604/1606 10010KT=
201206142330 TAF ESSA 142330Z 1500/1524 23007KT CAVOK=
201206141730 TAF ESSA 141730Z 1418/1518 24010KT 9999 FEW045
                      BECMG 1510/1512 18006KT=
201206141130 TAF ESSA 141130Z 1412/1512 24013KT CAVOK
                      BECMG 1510/1512 18006KT=
201206140530 TAF ESSA 140530Z 1406/1506 19009KT CAVOK
                      PROB30 1407/1411 SHRA SCT040CB
                      BECMG 1412/1414 26010KT=
201206132330 TAF ESSA 132330Z 1400/1424 20005KT CAVOK
                      PROB40 1401/1404 4000 SHRA BKN040CB
                      PROB40 1403/1406 BKN006=
201206131730 TAF ESSA 131730Z 1318/1418 20007KT 9999 SCT040
                      PROB40 1323/1403 4000 SHRA BKN030CB
                      PROB40 1403/1406 BKN006=
201206131130 TAF ESSA 131130Z 1312/1412 23005KT 9999 SCT040
                      PROB30 1313/1317 SHRA SCT035CB=
201206130757 TAF COR ESSA 130757Z 1307/1406 23005KT 3000 BCFG BKN003
                      BECMG 1306/1308 9999 SCT040
                      TEMPO 1310/1316 SHRA SCT030CB=
201206130530 TAF ESSA 130530Z 1306/1406 23005KT 3000 BCFG BKN003
                      BECMG 1306/1308 9999 SCT040TEMPO 1310/1316
                       SHRA SCT030CB=
201206122330 TAF ESSA 122330Z 1300/1324 VRB03KT 6000 MIFG NSC
                      PROB40 1300/1305 0300 FG VV002
                      PROB40 1305/1307 BKN003TEMPO 1310/1316 SHRA
                       SCT030CB=
201206121730 TAF ESSA 121730Z 1218/1318 VRB03KT CAVOK
                      PROB40 1218/1220 SHRA SCT040CB
                      BECMG 1223/1301 BKN004
                      PROB40 1221/1223 2000 MIFG
                      PROB40 1223/1305 0300 FG VV002
                      BECMG 1305/1308 SCT040
                      TEMPO 1310/1316 SHRA SCT030CB=
201206121130 TAF ESSA 121130Z 1212/1312 17003KT 9999 SCT035
                      PROB40 1213/1219 SHRA BKN040CB
                      PROB40 1300/1306 1000 PRFG
                      TEMPO 1310/1312 SHRA SCT030CB=
201206120530 TAF ESSA 120530Z 1206/1306 11003KT CAVOK
                      PROB40 1208/1218 SHRA BKN020CB
                      PROB40 1300/1306 1000 PRFG=
201206112330 TAF ESSA 112330Z 1200/1224 10003KT CAVOK
                      PROB30 1200/1204 2000 BCFG
                      TEMPO 1208/1218 SHRA BKN020CB=
201206111730 TAF ESSA 111730Z 1118/1218 16008KT CAVOK
                      PROB30 1200/1205 0700 FG VV002
                      PROB40 1208/1218 SHRA BKN020CB=
201206111130 TAF ESSA 111130Z 1112/1212 16008KT CAVOK
                      PROB40 1112/1116 SHRA BKN030CB=
201206110530 TAF ESSA 110530Z 1106/1206 12004KT CAVOK
                      PROB40 1109/1116 SHRA BKN030CB=
201206102330 TAF ESSA 102330Z 1100/1124 21008KT CAVOK
                      PROB40 1108/1115 SHRA BKN030CB=
201206101730 TAF ESSA 101730Z 1018/1118 21008KT CAVOK
                      TEMPO 1019/1021 SHRA BKN030CB
                      PROB40 1108/1111 SHRA BKN030CB=
201206101130 TAF ESSA 101130Z 1012/1112 22012KT CAVOK
                      TEMPO 1012/1020 SHRA BKN030CB
                      BECMG 1023/1101 14005KT=
201206100537 TAF AMD ESSA 100537Z 1006/1106 22009KT CAVOK
                      TEMPO 1008/1018 SHRA BKN030CB=
201206092330 TAF ESSA 092330Z 1000/1024 20006KT CAVOK
                      PROB40 1002/1006 2000 BR BKN004
                      PROB40 1012/1015 SHRA BKN030CB=
201206091730 TAF ESSA 091730Z 0918/1018 20006KT 9999 BKN040
                      PROB40 0918/1002 SHRA BKN010 BKN025CB
                      PROB40 1002/1006 BKN008
                      PROB40 1012/1015 SHRA BKN030CB=
201206091130 TAF ESSA 091130Z 0912/1012 31005KT 9999 BKN030
                      TEMPO 0922/1003 SHRA BKN010 BKN025CB
                      PROB40 1003/1006 BKN008=
201206090530 TAF ESSA 090530Z 0906/1006 36008KT 9999 -RA FEW008 BKN040
                      TEMPO 0906/0912 RA
                      PROB40 0906/0909 BKN008
                      TEMPO 1000/1006 SHRA BKN025CB=
201206082330 TAF ESSA 082330Z 0900/0924 10004KT CAVOK
                      TEMPO 0900/0907 4000 RA
                      BECMG 0902/0904 04010KT
                      PROB40 0903/0908 BKN010
                      TEMPO 0907/0912 SHRA BKN030CB=
201206081730 TAF ESSA 081730Z 0818/0918 16009KT CAVOK
                      TEMPO 0824/0907 4000 RA
                      BECMG 0902/0904 04010KT
                      PROB40 0903/0908 BKN012=
201206081130 TAF ESSA 081130Z 0812/0912 18008KT CAVOK
                      TEMPO 0824/0906 4000 RA
                      PROB40 0903/0908 BKN012=
201206080530 TAF ESSA 080530Z 0806/0906 20009KT CAVOK=
201206072330 TAF ESSA 072330Z 0800/0824 19005KT CAVOK=
201206071730 TAF ESSA 071730Z 0718/0818 22005KT CAVOK=
201206071130 TAF ESSA 071130Z 0712/0812 22008KT 9999 SCT040
                      PROB30 0712/0717 SHRA SCT040CB=
201206070530 TAF ESSA 070530Z 0706/0806 20005KT CAVOK=
201206062330 TAF ESSA 062330Z 0700/0724 VRB02KT CAVOK=
201206061730 TAF ESSA 061730Z 0618/0718 23004KT 9999 SCT040=
201206061130 TAF ESSA 061130Z 0612/0712 22008KT 9999 SCT040=
201206060530 TAF ESSA 060530Z 0606/0706 24007KT 9999 BKN008
                      BECMG 0606/0608 SCT020=
201206052330 TAF ESSA 052330Z 0600/0624 22004KT CAVOK
                      PROB40 0600/0607 2000 BR BKN006=
201206051730 TAF ESSA 051730Z 0518/0618 22009KT 9999 SCT035
                      PROB40 0520/0522 SHRA BKN030CB
                      PROB40 0522/0607 2000 BR BKN006=
201206051130 TAF ESSA 051130Z 0512/0612 22007KT 9999 BKN040
                      PROB40 0514/0519 SHRA BKN035CB
                      PROB40 0601/0607 2000 BR BKN006=
201206050530 TAF ESSA 050530Z 0506/0606 20004KT 9999 FEW005
                      TEMPO 0506/0507 BKN006=
201206050437 TAF AMD ESSA 050437Z 0505/0524 21004KT 9999 BKN004
                      BECMG 0505/0507 SCT030=
201206042330 TAF ESSA 042330Z 0500/0524 21004KT 9999 BKN035
                      TEMPO 0500/0504 SHRA BKN030CB
                      PROB30 0500/0506 1200 BCFG=
201206042300 TAF AMD ESSA 050437Z 0505/0524 21004KT 9999 BKN004
                      BECMG 0505/0507 SCT030=
201206041730 TAF ESSA 041730Z 0418/0518 20009KT 9999 BKN035
                      TEMPO 0422/0504 SHRA BKN030CB
                      PROB30 0423/0505 1200 BCFG=
201206041130 TAF ESSA 041130Z 0412/0512 23008KT 9999 BKN035
                      PROB40 0412/0418 SHRA BKN030CB
                      PROB30 0423/0505 1200 BCFG=
201206040530 TAF ESSA 040530Z 0406/0506 20005KT 9999 BKN012
                      BECMG 0406/0408 BKN020
                      PROB40 0410/0418 SHRA BKN030CB
                      PROB30 0423/0505 1200 BCFG=
201206032341 TAF COR ESSA 032341Z 0400/0424 20005KT 9999 FEW008 SCT045
                      PROB30 0400/0405 BKN007
                      PROB40 0410/0418 SHRA SCT030CB=
201206032330 TAF ESSA 032330Z 0400/0424 20005KT 9999 FEW008
                      PROB30 0400/0405 BKN007 SCT045
                      PROB40 0410/0418 SHRA SCT030CB=
201206031730 TAF ESSA 031730Z 0318/0418 22006KT 9999 FEW025 SCT035TCU
                      PROB40 0318/0320 SHRA BKN014 BKN035CB
                      PROB40 0323/0408 BKN013
                      PROB40 0411/0417 SHRA SCT025CB=
201206031130 TAF ESSA 031130Z 0312/0412 26013KT 9999 BKN025TCU
                      TEMPO 0312/0320 4000 SHRA BKN012 BKN020CB
                       BECMG 0319/0321 20006KT
                      PROB30 0320/0408 BKN013=
201206030530 TAF ESSA 030530Z 0306/0406 27012KT 9999 -RA SCT010 BKN015
                      TEMPO 0306/0309 BKN007
                      TEMPO 0309/0320 SHRA BKN014BKN040CB
                      BECMG 0318/0320 21006KT=
201206030417 TAF AMD ESSA 030417Z 0304/0324 27012KT 9999 -DZ BKN008
                      TEMPO 0304/0307 BKN020
                      BECMG 0307/0310 BKN020
                      TEMPO 0312/0319 SHRA BKN040CB
                      BECMG 0318/0320 21006KT=
201206022330 TAF ESSA 022330Z 0300/0324 28013KT 9999 -RA SCT004 BKN008
                      TEMPO 0300/0307 2500 RADZ BKN004
                      BECMG 0310/0313 22010KT BKN015
                      TEMPO 0312/0319 SHRA BKN040CB=
201206022300 TAF AMD ESSA 030417Z 0304/0324 27012KT 9999 -DZ BKN008
                      TEMPO 0304/0307 BKN020
                      BECMG 0307/0310 BKN020
                      TEMPO 0312/0319 SHRA BKN040CB
                      BECMG 0318/0320 21006KT=
201206021730 TAF ESSA 021730Z 0218/0318 29014G27KT 9999 -RA SCT006 BKN012
                      TEMPO 0218/0221 4000 RA BKN006
                      TEMPO 0221/0307 2500 RADZ BKN004
                      BECMG 0310/0313 23010KT BKN015=
201206021130 TAF ESSA 021130Z 0212/0312 29015G25KT 9999 -RA SCT010 BKN015
                      TEMPO 0212/0222 4000 RA BKN008
                      TEMPO 0222/0308 2000 BR BKN004
                      BECMG 0308/0310 23010KT=
201206020534 TAF AMD ESSA 020534Z 0206/0306 31022G32KT 9999 -RA BKN008
                      TEMPO 0206/0218 4000 RA BKN012
                      TEMPO 0218/0306 2000 RA BR BKN003=
201206012330 TAF ESSA 012330Z 0200/0224 32010KT 9999 -RA BKN012
                      TEMPO 0200/0224 BKN015
                      BECMG 0205/0207 30022G32KT BKN006
                      TEMPO 0206/0218 4000 RA
                      TEMPO 0218/0224 2500 RA BR=
201206011730 TAF ESSA 011730Z 0118/0218 36010KT 9999 -RA BKN020
                      TEMPO 0118/0124 BKN012
                      BECMG 0205/0207 31020G30KT
                      TEMPO 0206/0218 4000 RA BR BKN008=
201206011449 TAF AMD ESSA 011449Z 0115/0212 02012KT 9999 -RA FEW015 BKN023
                      TEMPO 0115/0124 BKN012
                      BECMG 0119/0121 32005KT
                      BECMG 0205/0207 34015G25KT
                      TEMPO 0206/0212 4000 RA BKN009=
201206011130 TAF ESSA 011130Z 0112/0212 02012KT 9999 -RA FEW015 BKN023
                      BECMG 0119/0121 32005KT
                      BECMG 0205/0207 34015G25KT=
201206010530 TAF ESSA 010530Z 0106/0206 02011KT 9999 -RA SCT012 BKN025
                      PROB40 0106/0109 RA BKN008
                      TEMPO 0109/0116 SHRA BKN014 BKN030CB
                      BECMG 0119/0121 32007KT=
