##########################################################
# Query made at 01/23/2013 09:13:47 UTC
# Time interval: from 05/01/2012 00:00  to 05/31/2012 23:59  UTC
##########################################################

##########################################################
# ESSA, Stockholm / Arlanda (Sweden)
# WMO index: 02460
# Latitude 59-39N. Longitude 017-57E. Altitude 38 m.
##########################################################

###################################
#  METAR/SPECI from ESSA
###################################
201205312350 METAR ESSA 312350Z 35010KT 9999 BKN006 08/07 Q1005 TEMPO
                        BKN015=
201205312320 METAR ESSA 312320Z 34008KT 9999 SCT004 BKN006 08/07 Q1006
                        TEMPO BKN015=
201205312250 METAR ESSA 312250Z 36006KT 9999 BKN006 BKN042 08/08 Q1006
                        TEMPO BKN015=
201205312220 METAR COR ESSA 312220Z 35004KT 9999 FEW006 BKN042 08/08 Q1006
                        BECMG BKN008=
201205312150 METAR ESSA 312150Z 31006KT 9999 FEW010 BKN025 BKN040 08/08
                        Q1006 NOSIG=
201205312120 METAR ESSA 312120Z 30007KT 9999 FEW010 BKN033 BKN110 08/08
                        Q1006 NOSIG=
201205312050 METAR ESSA 312050Z 30005KT 9999 FEW025 BKN075 08/08 Q1006
                        NOSIG=
201205312020 METAR ESSA 312020Z VRB01KT 9999 FEW025 BKN090 09/08 Q1006
                        NOSIG=
201205311950 METAR ESSA 311950Z 24004KT 9999 -SHRA FEW017 FEW033CB BKN060
                        09/08 Q1006 NOSIG=
201205311920 METAR ESSA 311920Z 25003KT 9999 -SHRA SCT015 FEW035CB BKN050
                        09/08 Q1006 NOSIG=
201205311850 METAR ESSA 311850Z 28005KT 9999 -SHRA FEW013 SCT045CB BKN057
                        09/08 Q1006 NOSIG=
201205311820 METAR COR ESSA 311820Z 22005KT 9999 -SHRA FEW013 FEW030CB
                        BKN045 10/08 Q1006 NOSIG=
201205311750 METAR ESSA 311750Z 27006KT 9999 -SHRA FEW012 BKN016 SCT035CB
                        BKN045 10/08 Q1006 TEMPO BKN013=
201205311720 METAR ESSA 311720Z 22005KT 190V260 9999 -SHRA BKN016 BKN035
                        SCT040CB 10/09 Q1007 NOSIG=
201205311650 METAR ESSA 311650Z 18006KT 9999 -SHRA FEW020 SCT035CB BKN045
                        10/08 Q1007 NOSIG=
201205311620 METAR ESSA 311620Z 20005KT 9999 -SHRA FEW035CB BKN043 10/08
                        Q1007 RESHRA NOSIG=
201205311550 METAR ESSA 311550Z 20005KT 9999 -SHRA FEW040CB BKN055 10/08
                        Q1007 TEMPO SHRA BKN030CB=
201205311520 METAR ESSA 311520Z 18008KT 9999 -SHRA FEW030 FEW036CB BKN043
                        10/08 Q1007 TEMPO SHRA BKN030CB=
201205311450 METAR ESSA 311450Z 17009KT 9999 -SHRA FEW040CB BKN048 11/08
                        Q1008 TEMPO SHRA BKN030CB=
201205311420 METAR COR ESSA 311420Z 12007KT 9999 VCSH FEW040CB BKN060
                        11/08 Q1008 RESHRA TEMPO SHRA BKN030CB=
201205311350 METAR ESSA 311350Z 27003KT 230V310 6000 SHRA FEW025 BKN035CB
                        09/08 Q1008 BECMG 9999 NSW=
201205311320 METAR ESSA 311320Z 29011KT 260V340 9999 -SHRA FEW025 BKN035CB
                        10/07 Q1009 NOSIG=
201205311250 METAR ESSA 311250Z 14010KT 9999 FEW040CB BKN060 12/05 Q1008
                        TEMPO SHRA BKN030CB=
201205311220 METAR ESSA 311220Z 18014KT 9999 FEW040CB BKN080 12/06 Q1008
                        NOSIG=
201205311150 METAR ESSA 311150Z 18014KT 9999 VCTS FEW030 FEW040CB SCT090
                        14/06 Q1008 TEMPO SHRA BKN040CB=
201205311120 METAR ESSA 311120Z 18014KT 9999 VCSH FEW030 FEW040CB SCT090
                        13/05 Q1008 TEMPO SHRA BKN040CB=
201205311050 METAR ESSA 311050Z 16012KT 9999 VCSH FEW030 FEW040CB BKN090
                        13/06 Q1009 TEMPO SHRA BKN040CB=
201205311020 METAR ESSA 311020Z 17015KT 9999 FEW040CB BKN060 13/06 Q1009
                        TEMPO SHRA BKN040CB=
201205310950 METAR ESSA 310950Z 15012KT 9000 VCSH FEW040CB BKN045 14/03
                        Q1009 TEMPO SHRA BKN040CB=
201205310920 METAR ESSA 310920Z 15009KT 120V180 9999 BKN040 15/04 Q1009
                        TEMPO SHRA BKN040CB=
201205310850 METAR ESSA 310850Z 14009KT 9999 SCT040 BKN100 14/04 Q1009
                        TEMPO SHRA BKN040CB=
201205310820 METAR COR ESSA 310820Z 15009KT 9999 FEW038 BKN100 14/03 Q1010
                        TEMPO SHRA BKN040CB=
201205310750 METAR ESSA 310750Z 17008KT 9999 FEW035 BKN100 14/05 Q1010
                        NOSIG=
201205310720 METAR ESSA 310720Z 16007KT 9999 FEW035 SCT100 BKN200 13/04
                        Q1010 NOSIG=
201205310650 METAR ESSA 310650Z 16007KT CAVOK 13/04 Q1010 NOSIG=
201205310620 METAR ESSA 310620Z 14006KT CAVOK 12/04 Q1010 NOSIG=
201205310550 METAR ESSA 310550Z 18005KT 140V210 CAVOK 11/05 Q1011 NOSIG=
201205310520 METAR ESSA 310520Z 15005KT 110V180 CAVOK 10/05 Q1011 NOSIG=
201205310450 METAR ESSA 310450Z 13003KT CAVOK 09/04 Q1011 NOSIG=
201205310420 METAR ESSA 310420Z 14002KT CAVOK 09/04 Q1011 NOSIG=
201205310350 METAR ESSA 310350Z VRB02KT CAVOK 08/05 Q1011 NOSIG=
201205310320 METAR ESSA 310320Z 15004KT CAVOK 08/04 Q1011 NOSIG=
201205310250 METAR ESSA 310250Z 15004KT CAVOK 08/04 Q1011 NOSIG=
201205310220 METAR ESSA 310220Z 17005KT CAVOK 08/04 Q1011 NOSIG=
201205310150 METAR ESSA 310150Z 18004KT CAVOK 08/04 Q1011 NOSIG=
201205310120 METAR ESSA 310120Z 18004KT CAVOK 08/04 Q1011 NOSIG=
201205310050 METAR ESSA 310050Z 18005KT CAVOK 08/04 Q1011 NOSIG=
201205310020 METAR ESSA 310020Z 19004KT CAVOK 08/04 Q1012 NOSIG=
201205302350 METAR ESSA 302350Z 15004KT CAVOK 08/04 Q1012 NOSIG=
201205302320 METAR ESSA 302320Z 17006KT CAVOK 08/04 Q1012 NOSIG=
201205302250 METAR ESSA 302250Z 18005KT CAVOK 08/04 Q1012 NOSIG=
201205302220 METAR ESSA 302220Z 18006KT CAVOK 08/04 Q1012 NOSIG=
201205302150 METAR ESSA 302150Z 17006KT CAVOK 08/04 Q1012 NOSIG=
201205302120 METAR ESSA 302120Z 17006G16KT 140V200 CAVOK 09/04 Q1012 NOSIG=
201205302050 METAR ESSA 302050Z 17007KT CAVOK 10/03 Q1012 NOSIG=
201205302020 METAR ESSA 302020Z 15005KT CAVOK 08/01 Q1012 NOSIG=
201205301950 METAR ESSA 301950Z 14004KT 110V190 CAVOK 08/01 Q1012 NOSIG=
201205301920 METAR ESSA 301920Z 09005KT 030V160 CAVOK 11/M01 Q1012 NOSIG=
201205301850 METAR ESSA 301850Z 08005KT CAVOK 11/M02 Q1012 NOSIG=
201205301820 METAR ESSA 301820Z 06006KT 020V080 CAVOK 12/M02 Q1012 NOSIG=
201205301750 METAR ESSA 301750Z 04007KT CAVOK 12/M02 Q1012 NOSIG=
201205301720 METAR ESSA 301720Z 04010KT CAVOK 12/M01 Q1012 NOSIG=
201205301650 METAR ESSA 301650Z 33007KT 300V360 CAVOK 12/M02 Q1012 NOSIG=
201205301620 METAR ESSA 301620Z 35009KT CAVOK 12/M02 Q1012 NOSIG=
201205301550 METAR ESSA 301550Z 01007KT 330V060 CAVOK 13/M02 Q1012 NOSIG=
201205301520 METAR ESSA 301520Z 36008KT CAVOK 13/M01 Q1012 NOSIG=
201205301450 METAR ESSA 301450Z 02011KT CAVOK 12/M01 Q1012 NOSIG=
201205301420 METAR ESSA 301420Z 36006KT CAVOK 13/M01 Q1012 NOSIG=
201205301350 METAR ESSA 301350Z 35010KT CAVOK 12/M01 Q1012 NOSIG=
201205301320 METAR ESSA 301320Z 35011KT CAVOK 12/M01 Q1011 NOSIG=
201205301250 METAR ESSA 301250Z 32010KT 280V350 CAVOK 12/M02 Q1012 NOSIG=
201205301220 METAR ESSA 301220Z 32012KT CAVOK 12/M01 Q1012 NOSIG=
201205301150 METAR ESSA 301150Z 34009KT CAVOK 12/M00 Q1011 NOSIG=
201205301120 METAR ESSA 301120Z 34008KT 300V030 CAVOK 12/01 Q1011 NOSIG=
201205301050 METAR ESSA 301050Z 35011KT CAVOK 11/00 Q1011 NOSIG=
201205301020 METAR ESSA 301020Z 35010KT CAVOK 11/M00 Q1011 NOSIG=
201205300950 METAR ESSA 300950Z 35011KT CAVOK 11/M01 Q1011 NOSIG=
201205300920 METAR ESSA 300920Z 34007KT 9999 SCT048 SCT063 11/M00 Q1011
                        NOSIG=
201205300850 METAR ESSA 300850Z 33010KT 9999 SCT047 SCT060 11/00 Q1010
                        NOSIG=
201205300820 METAR ESSA 300820Z 35008KT 9999 SCT045 SCT060 12/01 Q1010
                        NOSIG=
201205300750 METAR ESSA 300750Z 35008KT 320V020 9999 FEW040 SCT070 11/00
                        Q1010 NOSIG=
201205300720 METAR ESSA 300720Z 36011KT CAVOK 11/01 Q1010 NOSIG=
201205300650 METAR ESSA 300650Z 36009KT 330V030 CAVOK 11/02 Q1010 NOSIG=
201205300620 METAR ESSA 300620Z 34011KT CAVOK 10/01 Q1010 NOSIG=
201205300550 METAR ESSA 300550Z 01011KT CAVOK 10/01 Q1010 NOSIG=
201205300520 METAR ESSA 300520Z 02012KT CAVOK 09/02 Q1010 NOSIG=
201205300450 METAR ESSA 300450Z 36009KT CAVOK 08/02 Q1010 NOSIG=
201205300420 METAR ESSA 300420Z 35007KT CAVOK 07/02 Q1010 NOSIG=
201205300350 METAR ESSA 300350Z 30006KT CAVOK 05/02 Q1010 NOSIG=
201205300320 METAR ESSA 300320Z 29005KT CAVOK 04/02 Q1009 NOSIG=
201205300250 METAR ESSA 300250Z 31004KT CAVOK 01/00 Q1009 NOSIG=
201205300220 METAR ESSA 300220Z 31005KT CAVOK 00/M01 Q1009 NOSIG=
201205300150 METAR ESSA 300150Z 31005KT CAVOK 01/M00 Q1009 NOSIG=
201205300120 METAR ESSA 300120Z 30004KT CAVOK 01/00 Q1009 NOSIG=
201205300050 METAR ESSA 300050Z 31003KT CAVOK 01/M00 Q1009 NOSIG=
201205300020 METAR ESSA 300020Z 26001KT CAVOK 02/00 Q1009 NOSIG=
201205292350 METAR ESSA 292350Z 00000KT CAVOK 01/M00 Q1010 NOSIG=
201205292320 METAR ESSA 292320Z 18002KT CAVOK 02/00 Q1010 NOSIG=
201205292250 METAR ESSA 292250Z VRB01KT CAVOK 04/01 Q1010 NOSIG=
201205292220 METAR ESSA 292220Z VRB02KT CAVOK 04/01 Q1010 NOSIG=
201205292150 METAR ESSA 292150Z VRB02KT CAVOK 05/01 Q1010 NOSIG=
201205292120 METAR ESSA 292120Z 17002KT CAVOK 07/01 Q1010 NOSIG=
201205292050 METAR ESSA 292050Z 17004KT CAVOK 08/01 Q1010 NOSIG=
201205292020 METAR ESSA 292020Z 09004KT CAVOK 09/M00 Q1010 NOSIG=
201205291950 METAR ESSA 291950Z 13003KT 070V170 CAVOK 09/00 Q1010 NOSIG=
201205291920 METAR ESSA 291920Z 07005KT CAVOK 09/M00 Q1010 NOSIG=
201205291850 METAR ESSA 291850Z 05008KT CAVOK 10/M01 Q1009 NOSIG=
201205291820 METAR ESSA 291820Z 06009KT CAVOK 11/M01 Q1009 NOSIG=
201205291750 METAR ESSA 291750Z 04008KT CAVOK 12/M02 Q1009 NOSIG=
201205291720 METAR ESSA 291720Z 04008KT CAVOK 12/M02 Q1009 NOSIG=
201205291650 METAR ESSA 291650Z 07008KT CAVOK 13/M02 Q1009 NOSIG=
201205291620 METAR ESSA 291620Z 02008KT CAVOK 13/M02 Q1009 NOSIG=
201205291550 METAR ESSA 291550Z 03008KT CAVOK 13/M02 Q1010 NOSIG=
201205291520 METAR ESSA 291520Z 04007KT 360V060 CAVOK 13/M03 Q1010 NOSIG=
201205291450 METAR ESSA 291450Z 02008KT CAVOK 13/M02 Q1010 NOSIG=
201205291420 METAR ESSA 291420Z 07007KT 030V110 CAVOK 12/M02 Q1010 NOSIG=
201205291350 METAR ESSA 291350Z 05010KT CAVOK 13/M02 Q1010 NOSIG=
201205291320 METAR ESSA 291320Z 03015KT 340V040 CAVOK 13/M03 Q1010 NOSIG=
201205291250 METAR ESSA 291250Z 01010KT 320V030 CAVOK 12/M02 Q1010 NOSIG=
201205291220 METAR ESSA 291220Z 36009KT 320V040 CAVOK 12/M02 Q1011 NOSIG=
201205291150 METAR ESSA 291150Z 36012KT CAVOK 12/M03 Q1011 NOSIG=
201205291120 METAR ESSA 291120Z 02009KT 340V060 CAVOK 12/M02 Q1011 NOSIG=
201205291050 METAR ESSA 291050Z 02011KT 350V070 CAVOK 12/M02 Q1010 NOSIG=
201205291020 METAR ESSA 291020Z 36010KT CAVOK 12/M03 Q1011 NOSIG=
201205290950 METAR ESSA 290950Z 35012KT CAVOK 10/M02 Q1011 NOSIG=
201205290920 METAR ESSA 290920Z 36008KT CAVOK 11/M02 Q1010 NOSIG=
201205290850 METAR ESSA 290850Z 34012KT CAVOK 11/M01 Q1010 NOSIG=
201205290820 METAR ESSA 290820Z 36011KT 320V040 9999 FEW048 BKN053 10/M01
                        Q1010 NOSIG=
201205290750 METAR ESSA 290750Z 02014KT 9999 SCT045 10/M01 Q1010 NOSIG=
201205290720 METAR ESSA 290720Z 02013KT 9999 FEW042 10/M01 Q1010 NOSIG=
201205290650 METAR ESSA 290650Z 01013KT 9999 FEW040 10/00 Q1010 NOSIG=
201205290620 METAR ESSA 290620Z 01013KT CAVOK 09/00 Q1010 NOSIG=
201205290550 METAR ESSA 290550Z 36013KT CAVOK 09/00 Q1010 NOSIG=
201205290520 METAR ESSA 290520Z 36013KT CAVOK 09/01 Q1010 NOSIG=
201205290450 METAR ESSA 290450Z 36014KT CAVOK 08/01 Q1010 NOSIG=
201205290420 METAR ESSA 290420Z 36012KT CAVOK 07/01 Q1010 NOSIG=
201205290350 METAR ESSA 290350Z 35009KT CAVOK 07/01 Q1010 NOSIG=
201205290320 METAR ESSA 290320Z 34008KT CAVOK 06/01 Q1010 NOSIG=
201205290250 METAR ESSA 290250Z 35007KT CAVOK 06/01 Q1009 NOSIG=
201205290220 METAR ESSA 290220Z 36009KT CAVOK 06/01 Q1009 NOSIG=
201205290150 METAR ESSA 290150Z 36010KT CAVOK 05/01 Q1009 NOSIG=
201205290120 METAR ESSA 290120Z 34009KT CAVOK 06/01 Q1009 NOSIG=
201205290050 METAR ESSA 290050Z 34008KT CAVOK 06/01 Q1009 NOSIG=
201205290020 METAR ESSA 290020Z 34007KT CAVOK 05/02 Q1009 NOSIG=
201205282350 METAR ESSA 282350Z 01006KT CAVOK 07/02 Q1009 NOSIG=
201205282320 METAR ESSA 282320Z 35006KT CAVOK 07/02 Q1009 NOSIG=
201205282250 METAR ESSA 282250Z 02004KT CAVOK 08/02 Q1009 NOSIG=
201205282220 METAR ESSA 282220Z 01005KT CAVOK 08/01 Q1009 NOSIG=
201205282150 METAR ESSA 282150Z 01006KT CAVOK 08/02 Q1009 NOSIG=
201205282120 METAR ESSA 282120Z 36006KT CAVOK 08/02 Q1009 NOSIG=
201205282050 METAR ESSA 282050Z 36006KT CAVOK 08/04 Q1009 NOSIG=
201205282020 METAR ESSA 282020Z 34004KT 320V020 CAVOK 08/04 Q1009 NOSIG=
201205281950 METAR ESSA 281950Z 01003KT CAVOK 09/04 Q1009 NOSIG=
201205281920 METAR ESSA 281920Z 04003KT CAVOK 09/02 Q1009 NOSIG=
201205281850 METAR ESSA 281850Z 03007KT CAVOK 11/01 Q1008 NOSIG=
201205281820 METAR ESSA 281820Z 03008KT CAVOK 11/M00 Q1008 NOSIG=
201205281750 METAR ESSA 281750Z 02008KT CAVOK 13/M01 Q1008 NOSIG=
201205281720 METAR ESSA 281720Z 04008KT CAVOK 13/M00 Q1008 NOSIG=
201205281650 METAR ESSA 281650Z 05005KT 020V090 CAVOK 13/01 Q1008 NOSIG=
201205281620 METAR ESSA 281620Z 02007KT CAVOK 13/01 Q1008 NOSIG=
201205281550 METAR ESSA 281550Z 03009KT CAVOK 12/01 Q1008 NOSIG=
201205281520 METAR ESSA 281520Z 02009KT CAVOK 12/01 Q1008 NOSIG=
201205281450 METAR ESSA 281450Z 03006KT 330V070 CAVOK 11/01 Q1008 NOSIG=
201205281420 METAR ESSA 281420Z 05009KT CAVOK 10/02 Q1008 NOSIG=
201205281350 METAR ESSA 281350Z 03009KT CAVOK 10/01 Q1009 NOSIG=
201205281320 METAR ESSA 281320Z 01009KT CAVOK 10/02 Q1009 NOSIG=
201205281250 METAR ESSA 281250Z 01011KT 9999 -RA NSC 09/02 Q1009 NOSIG=
201205281220 METAR ESSA 281220Z 01014KT CAVOK 09/03 Q1009 NOSIG=
201205281150 METAR ESSA 281150Z 36016KT CAVOK 10/02 Q1009 NOSIG=
201205281120 METAR ESSA 281120Z 01016KT CAVOK 12/03 Q1009 NOSIG=
201205281050 METAR ESSA 281050Z 02017KT CAVOK 12/03 Q1008 NOSIG=
201205281020 METAR ESSA 281020Z 01019KT CAVOK 13/03 Q1008 NOSIG=
201205280950 METAR ESSA 280950Z 01018KT CAVOK 14/04 Q1008 NOSIG=
201205280920 METAR ESSA 280920Z 01019KT CAVOK 15/05 Q1008 NOSIG=
201205280850 METAR ESSA 280850Z 01018KT CAVOK 15/05 Q1007 NOSIG=
201205280820 METAR ESSA 280820Z 03021KT CAVOK 16/06 Q1007 NOSIG=
201205280750 METAR ESSA 280750Z 02022KT CAVOK 16/06 Q1007 NOSIG=
201205280720 METAR ESSA 280720Z 02019KT CAVOK 17/07 Q1007 NOSIG=
201205280650 METAR ESSA 280650Z 03019KT CAVOK 17/08 Q1006 NOSIG=
201205280620 METAR ESSA 280620Z 03011KT CAVOK 18/09 Q1006 NOSIG=
201205280550 METAR ESSA 280550Z 33006KT CAVOK 17/10 Q1006 NOSIG=
201205280520 METAR ESSA 280520Z 28007KT CAVOK 16/10 Q1006 NOSIG=
201205280450 METAR ESSA 280450Z 27007KT CAVOK 16/10 Q1006 NOSIG=
201205280420 METAR ESSA 280420Z 25006KT CAVOK 15/10 Q1006 NOSIG=
201205280350 METAR ESSA 280350Z 25006KT CAVOK 15/09 Q1006 NOSIG=
201205280320 METAR ESSA 280320Z 25007KT CAVOK 14/09 Q1006 NOSIG=
201205280250 METAR ESSA 280250Z 25006KT CAVOK 13/09 Q1007 NOSIG=
201205280220 METAR ESSA 280220Z 22007KT CAVOK 13/09 Q1007 NOSIG=
201205280150 METAR ESSA 280150Z 21008KT CAVOK 13/09 Q1007 NOSIG=
201205280120 METAR ESSA 280120Z 20007KT CAVOK 13/08 Q1008 NOSIG=
201205280050 METAR ESSA 280050Z 19007KT CAVOK 13/08 Q1008 NOSIG=
201205280020 METAR ESSA 280020Z 22006KT CAVOK 13/08 Q1009 NOSIG=
201205272350 METAR ESSA 272350Z 22007KT CAVOK 13/08 Q1010 NOSIG=
201205272320 METAR ESSA 272320Z 21009KT CAVOK 13/08 Q1010 NOSIG=
201205272250 METAR ESSA 272250Z 22007KT CAVOK 14/08 Q1011 NOSIG=
201205272220 METAR ESSA 272220Z 21007KT CAVOK 14/08 Q1011 NOSIG=
201205272150 METAR ESSA 272150Z 18007KT CAVOK 14/08 Q1012 NOSIG=
201205272120 METAR ESSA 272120Z 18008KT CAVOK 14/08 Q1012 NOSIG=
201205272050 METAR COR ESSA 272050Z 18009KT CAVOK 15/08 Q1012 NOSIG=
201205272020 METAR ESSA 272020Z 18009KT CAVOK 15/09 Q1013 NOSIG=
201205271950 METAR ESSA 271950Z 21009KT CAVOK 17/09 Q1013 NOSIG=
201205271920 METAR ESSA 271920Z 21010KT CAVOK 18/08 Q1013 NOSIG=
201205271850 METAR ESSA 271850Z 22006KT CAVOK 20/07 Q1014 NOSIG=
201205271820 METAR ESSA 271820Z 21009KT CAVOK 20/07 Q1014 NOSIG=
201205271750 METAR ESSA 271750Z 23009KT CAVOK 21/06 Q1015 NOSIG=
201205271720 METAR ESSA 271720Z 22009KT CAVOK 22/06 Q1015 NOSIG=
201205271650 METAR ESSA 271650Z 26007KT CAVOK 22/05 Q1016 NOSIG=
201205271620 METAR ESSA 271620Z 23007KT CAVOK 22/05 Q1016 NOSIG=
201205271550 METAR ESSA 271550Z 21007KT CAVOK 23/05 Q1016 NOSIG=
201205271520 METAR ESSA 271520Z 26006KT 220V300 CAVOK 22/04 Q1017 NOSIG=
201205271450 METAR ESSA 271450Z 29006KT 230V320 CAVOK 23/05 Q1018 NOSIG=
201205271420 METAR ESSA 271420Z 24006KT 210V290 CAVOK 23/04 Q1018 NOSIG=
201205271350 METAR ESSA 271350Z 20004KT 150V280 CAVOK 23/04 Q1018 NOSIG=
201205271320 METAR ESSA 271320Z 25004KT 210V330 CAVOK 23/04 Q1019 NOSIG=
201205271250 METAR ESSA 271250Z VRB04KT CAVOK 22/04 Q1019 NOSIG=
201205271220 METAR ESSA 271220Z 28005KT 240V320 CAVOK 22/04 Q1020 NOSIG=
201205271150 METAR ESSA 271150Z 08006KT 040V150 CAVOK 22/04 Q1020 NOSIG=
201205271120 METAR ESSA 271120Z VRB05KT CAVOK 22/04 Q1021 NOSIG=
201205271050 METAR ESSA 271050Z 08004KT 360V140 CAVOK 21/04 Q1021 NOSIG=
201205271020 METAR ESSA 271020Z 04006KT 350V090 CAVOK 20/04 Q1022 NOSIG=
201205270950 METAR ESSA 270950Z 07006KT 040V130 CAVOK 20/04 Q1022 NOSIG=
201205270920 METAR ESSA 270920Z 07005KT 010V150 CAVOK 19/04 Q1023 NOSIG=
201205270850 METAR ESSA 270850Z VRB04KT CAVOK 19/04 Q1023 NOSIG=
201205270820 METAR ESSA 270820Z 09005KT 050V130 CAVOK 18/04 Q1023 NOSIG=
201205270750 METAR ESSA 270750Z 08005KT 360V130 CAVOK 18/05 Q1023 NOSIG=
201205270720 METAR ESSA 270720Z 06006KT CAVOK 17/05 Q1024 NOSIG=
201205270650 METAR ESSA 270650Z 06007KT CAVOK 17/06 Q1024 NOSIG=
201205270620 METAR ESSA 270620Z 06008KT CAVOK 16/05 Q1024 NOSIG=
201205270550 METAR ESSA 270550Z 05008KT CAVOK 16/06 Q1024 NOSIG=
201205270520 METAR ESSA 270520Z 04007KT CAVOK 14/07 Q1024 NOSIG=
201205270450 METAR ESSA 270450Z 36006KT CAVOK 13/07 Q1024 NOSIG=
201205270420 METAR ESSA 270420Z 02005KT CAVOK 11/07 Q1024 NOSIG=
201205270350 METAR ESSA 270350Z 01005KT CAVOK 09/06 Q1024 NOSIG=
201205270320 METAR ESSA 270320Z 01004KT CAVOK 07/06 Q1025 NOSIG=
201205270250 METAR ESSA 270250Z 35006KT CAVOK 06/05 Q1025=
201205270220 METAR ESSA 270220Z 35005KT CAVOK 05/04 Q1025=
201205270150 METAR ESSA 270150Z 35005KT CAVOK 05/04 Q1025=
201205270120 METAR ESSA 270120Z 35004KT CAVOK 05/04 Q1025=
201205270050 METAR ESSA 270050Z NIL=
201205270020 METAR ESSA 270020Z 36004KT CAVOK 08/05 Q1025 NOSIG=
201205262350 METAR ESSA 262350Z 35005KT CAVOK 06/04 Q1025 NOSIG=
201205262320 METAR ESSA 262320Z 36005KT CAVOK 06/05 Q1025 NOSIG=
201205262250 METAR ESSA 262250Z 35004KT CAVOK 07/05 Q1025 NOSIG=
201205262220 METAR ESSA 262220Z 35004KT CAVOK 08/05 Q1025 NOSIG=
201205262150 METAR ESSA 262150Z 33004KT CAVOK 08/05 Q1025 NOSIG=
201205262120 METAR ESSA 262120Z 34004KT CAVOK 07/05 Q1025 NOSIG=
201205262050 METAR ESSA 262050Z 34005KT CAVOK 08/05 Q1025 NOSIG=
201205262020 METAR ESSA 262020Z 32004KT CAVOK 10/05 Q1025 NOSIG=
201205261950 METAR ESSA 261950Z 34007KT CAVOK 12/05 Q1025 NOSIG=
201205261920 METAR ESSA 261920Z 34007KT CAVOK 13/05 Q1026 NOSIG=
201205261850 METAR ESSA 261850Z 35008KT CAVOK 14/05 Q1026 NOSIG=
201205261820 METAR ESSA 261820Z 35008KT CAVOK 15/05 Q1026 NOSIG=
201205261750 METAR ESSA 261750Z 36010KT CAVOK 15/05 Q1026 NOSIG=
201205261720 METAR ESSA 261720Z 02010KT CAVOK 15/05 Q1026 NOSIG=
201205261650 METAR ESSA 261650Z 02015KT CAVOK 16/05 Q1026 NOSIG=
201205261620 METAR ESSA 261620Z 02015KT CAVOK 16/05 Q1026 NOSIG=
201205261550 METAR ESSA 261550Z 01015KT CAVOK 17/05 Q1026 NOSIG=
201205261520 METAR ESSA 261520Z 02013KT CAVOK 18/05 Q1026 NOSIG=
201205261450 METAR ESSA 261450Z 03012KT CAVOK 17/06 Q1026 NOSIG=
201205261420 METAR ESSA 261420Z 02012KT CAVOK 17/06 Q1026 NOSIG=
201205261350 METAR ESSA 261350Z 03011KT 9999 FEW043 18/06 Q1026 NOSIG=
201205261320 METAR ESSA 261320Z 02013KT 9999 FEW042 17/06 Q1026 NOSIG=
201205261250 METAR ESSA 261250Z 03012KT 9999 FEW040 17/07 Q1027 NOSIG=
201205261220 METAR ESSA 261220Z 03012KT 9999 FEW038 SCT190 17/07 Q1027
                        NOSIG=
201205261150 METAR ESSA 261150Z 02012KT 9999 FEW038 SCT190 16/07 Q1027
                        NOSIG=
201205261120 METAR ESSA 261120Z 02011KT 9999 SCT037 BKN190 17/07 Q1027
                        NOSIG=
201205261050 METAR ESSA 261050Z 01011KT 340V040 9999 SCT038 BKN200 16/07
                        Q1027 NOSIG=
201205261020 METAR ESSA 261020Z 03013KT CAVOK 16/06 Q1027 NOSIG=
201205260950 METAR ESSA 260950Z 02011KT CAVOK 16/06 Q1027 NOSIG=
201205260920 METAR ESSA 260920Z 36011KT CAVOK 16/06 Q1027 NOSIG=
201205260850 METAR ESSA 260850Z 35012KT 320V020 CAVOK 16/06 Q1027 NOSIG=
201205260820 METAR ESSA 260820Z 02013KT CAVOK 16/06 Q1027 NOSIG=
201205260750 METAR ESSA 260750Z 01011KT CAVOK 16/07 Q1027 NOSIG=
201205260720 METAR ESSA 260720Z 36012KT CAVOK 15/07 Q1027 NOSIG=
201205260650 METAR ESSA 260650Z 01012KT CAVOK 15/07 Q1027 NOSIG=
201205260620 METAR ESSA 260620Z 01012KT CAVOK 15/07 Q1028 NOSIG=
201205260550 METAR ESSA 260550Z 36012KT CAVOK 14/08 Q1028 NOSIG=
201205260520 METAR ESSA 260520Z 01011KT CAVOK 14/08 Q1028 NOSIG=
201205260450 METAR ESSA 260450Z 36010KT CAVOK 14/09 Q1028 NOSIG=
201205260420 METAR ESSA 260420Z 01009KT CAVOK 14/10 Q1028 NOSIG=
201205260350 METAR ESSA 260350Z 01009KT CAVOK 14/11 Q1027 NOSIG=
201205260320 METAR ESSA 260320Z 01009KT 9999 SCT038 BKN040 14/12 Q1027
                        NOSIG=
201205260250 METAR ESSA 260250Z 34006KT 9999 SCT031 BKN036 14/13 Q1027
                        NOSIG=
201205260220 METAR ESSA 260220Z 34005KT 9999 FEW030 BKN037 13/13 Q1027
                        NOSIG=
201205260150 METAR ESSA 260150Z 33004KT 9999 FEW044 SCT130 13/12 Q1027
                        NOSIG=
201205260120 METAR ESSA 260120Z 33004KT 9000 -DZ FEW030 SCT064 BKN090
                        14/12 Q1027 NOSIG=
201205260050 METAR ESSA 260050Z 33005KT 9999 FEW028 SCT049 BKN092 14/12
                        Q1027 REDZ NOSIG=
201205260020 METAR ESSA 260020Z 31005KT 280V350 CAVOK 14/12 Q1028 NOSIG=
201205252350 METAR ESSA 252350Z 32006KT CAVOK 14/11 Q1028 NOSIG=
201205252320 METAR ESSA 252320Z 33006KT CAVOK 15/11 Q1027 NOSIG=
201205252250 METAR ESSA 252250Z 33006KT 290V010 CAVOK 15/12 Q1027 NOSIG=
201205252220 METAR ESSA 252220Z 03004KT 330V050 CAVOK 15/11 Q1027 NOSIG=
201205252150 METAR ESSA 252150Z 03008KT 360V080 9999 FEW038 SCT096 BKN100
                        16/12 Q1027 NOSIG=
201205252120 METAR ESSA 252120Z 05010KT 9999 -RA FEW035 SCT070 BKN090
                        17/10 Q1027 TEMPO SHRA=
201205252050 METAR ESSA 252050Z 02015KT 9999 FEW044 SCT080 BKN100 19/08
                        Q1027 TEMPO SHRA=
201205252020 METAR ESSA 252020Z 29007KT CAVOK 19/08 Q1027 TEMPO SHRA=
201205251950 METAR ESSA 251950Z 30010KT CAVOK 19/07 Q1028 TEMPO SHRA=
201205251920 METAR ESSA 251920Z 19003KT CAVOK 19/07 Q1027 NOSIG=
201205251850 METAR ESSA 251850Z 15007KT CAVOK 21/05 Q1026 NOSIG=
201205251820 METAR ESSA 251820Z 15008KT CAVOK 22/04 Q1026 NOSIG=
201205251750 METAR ESSA 251750Z 17009KT CAVOK 22/04 Q1026 NOSIG=
201205251720 METAR ESSA 251720Z 15008KT CAVOK 23/05 Q1027 NOSIG=
201205251650 METAR ESSA 251650Z 16008KT CAVOK 23/05 Q1027 NOSIG=
201205251620 METAR ESSA 251620Z 15009KT CAVOK 24/05 Q1027 NOSIG=
201205251550 METAR ESSA 251550Z 15008G18KT 120V190 CAVOK 24/05 Q1027 NOSIG=
201205251520 METAR ESSA 251520Z 15009KT CAVOK 24/05 Q1027 NOSIG=
201205251450 METAR ESSA 251450Z 16009KT CAVOK 25/06 Q1028 NOSIG=
201205251420 METAR ESSA 251420Z 16009KT CAVOK 25/06 Q1028 NOSIG=
201205251350 METAR ESSA 251350Z 13007KT 070V170 CAVOK 26/05 Q1028 NOSIG=
201205251320 METAR ESSA 251320Z 08008KT CAVOK 26/06 Q1028 NOSIG=
201205251250 METAR ESSA 251250Z 07006KT 030V130 CAVOK 25/06 Q1029 NOSIG=
201205251220 METAR ESSA 251220Z 04007KT CAVOK 25/05 Q1029 NOSIG=
201205251150 METAR ESSA 251150Z 08007KT 040V140 CAVOK 25/06 Q1029 NOSIG=
201205251120 METAR ESSA 251120Z 09007KT 050V120 CAVOK 24/05 Q1030 NOSIG=
201205251050 METAR ESSA 251050Z 09006KT 050V130 CAVOK 24/05 Q1030 NOSIG=
201205251020 METAR ESSA 251020Z 09006KT 040V130 CAVOK 24/04 Q1030 NOSIG=
201205250950 METAR ESSA 250950Z 06006KT 010V120 CAVOK 23/04 Q1030 NOSIG=
201205250920 METAR ESSA 250920Z 36004KT 290V060 CAVOK 23/03 Q1031 NOSIG=
201205250850 METAR ESSA 250850Z 04005KT 350V070 CAVOK 22/04 Q1031 NOSIG=
201205250820 METAR ESSA 250820Z 36005KT 320V040 CAVOK 21/03 Q1031 NOSIG=
201205250750 METAR ESSA 250750Z 08004KT 050V110 CAVOK 20/03 Q1031 NOSIG=
201205250720 METAR ESSA 250720Z 05004KT 020V100 CAVOK 19/03 Q1031 NOSIG=
201205250650 METAR ESSA 250650Z 05004KT CAVOK 18/06 Q1032 NOSIG=
201205250620 METAR ESSA 250620Z 08005KT CAVOK 17/06 Q1032 NOSIG=
201205250550 METAR ESSA 250550Z 08006KT CAVOK 17/07 Q1032 NOSIG=
201205250520 METAR ESSA 250520Z 09003KT CAVOK 16/07 Q1032 NOSIG=
201205250450 METAR ESSA 250450Z VRB02KT CAVOK 14/08 Q1032 NOSIG=
201205250420 METAR ESSA 250420Z 00000KT CAVOK 12/08 Q1032 NOSIG=
201205250350 METAR ESSA 250350Z 00000KT CAVOK 10/07 Q1032 NOSIG=
201205250320 METAR ESSA 250320Z 00000KT CAVOK 08/07 Q1032 NOSIG=
201205250250 METAR ESSA 250250Z 03002KT CAVOK 07/06 Q1031 NOSIG=
201205250220 METAR ESSA 250220Z 00000KT CAVOK 07/05 Q1031 NOSIG=
201205250150 METAR ESSA 250150Z 15001KT CAVOK 07/06 Q1031 NOSIG=
201205250120 METAR ESSA 250120Z 05001KT CAVOK 08/06 Q1031 NOSIG=
201205250050 METAR ESSA 250050Z 05002KT CAVOK 08/06 Q1031 NOSIG=
201205250020 METAR ESSA 250020Z 17002KT CAVOK 08/06 Q1032 NOSIG=
201205242350 METAR ESSA 242350Z 20002KT CAVOK 10/07 Q1032 NOSIG=
201205242320 METAR ESSA 242320Z 26003KT CAVOK 10/07 Q1032 NOSIG=
201205242250 METAR ESSA 242250Z 19003KT CAVOK 12/08 Q1032 NOSIG=
201205242220 METAR ESSA 242220Z 21002KT CAVOK 14/07 Q1032 NOSIG=
201205242150 METAR ESSA 242150Z 17004KT CAVOK 14/07 Q1032 NOSIG=
201205242120 METAR ESSA 242120Z 16004KT CAVOK 15/07 Q1032 NOSIG=
201205242050 METAR ESSA 242050Z 17004KT CAVOK 15/07 Q1032 NOSIG=
201205242020 METAR ESSA 242020Z 17004KT CAVOK 16/07 Q1032 NOSIG=
201205241950 METAR ESSA 241950Z 15004KT CAVOK 17/06 Q1032 NOSIG=
201205241920 METAR ESSA 241920Z 09006KT CAVOK 17/06 Q1032 NOSIG=
201205241850 METAR ESSA 241850Z 10006KT CAVOK 18/06 Q1031 NOSIG=
201205241820 METAR ESSA 241820Z 11006KT CAVOK 19/06 Q1031 NOSIG=
201205241750 METAR ESSA 241750Z 13006KT CAVOK 20/06 Q1031 NOSIG=
201205241720 METAR ESSA 241720Z 14009KT CAVOK 21/06 Q1031 NOSIG=
201205241650 METAR ESSA 241650Z 15010KT CAVOK 22/06 Q1031 NOSIG=
201205241620 METAR ESSA 241620Z 15010KT CAVOK 23/06 Q1031 NOSIG=
201205241550 METAR ESSA 241550Z 14010KT CAVOK 23/06 Q1031 NOSIG=
201205241520 METAR ESSA 241520Z 15011KT CAVOK 24/07 Q1031 NOSIG=
201205241450 METAR ESSA 241450Z 15008KT CAVOK 25/07 Q1031 NOSIG=
201205241420 METAR ESSA 241420Z 06005KT 360V100 CAVOK 24/07 Q1031 NOSIG=
201205241350 METAR ESSA 241350Z 21005KT 160V250 CAVOK 24/07 Q1031 NOSIG=
201205241320 METAR ESSA 241320Z 20004KT 140V250 CAVOK 24/06 Q1031 NOSIG=
201205241250 METAR ESSA 241250Z 19005KT 150V250 CAVOK 24/06 Q1031 NOSIG=
201205241220 METAR ESSA 241220Z 30004KT 230V340 CAVOK 23/06 Q1031 NOSIG=
201205241150 METAR ESSA 241150Z 23003KT 200V270 CAVOK 23/06 Q1032 NOSIG=
201205241120 METAR ESSA 241120Z 17005KT CAVOK 23/06 Q1032 NOSIG=
201205241050 METAR ESSA 241050Z 17004KT 110V220 CAVOK 22/05 Q1032 NOSIG=
201205241020 METAR ESSA 241020Z 16004KT 120V230 CAVOK 22/05 Q1032 NOSIG=
201205240950 METAR ESSA 240950Z 25003KT 170V330 CAVOK 21/05 Q1032 NOSIG=
201205240920 METAR ESSA 240920Z 23003G14KT 180V290 CAVOK 21/04 Q1033 NOSIG=
201205240850 METAR ESSA 240850Z VRB03KT CAVOK 20/05 Q1033 NOSIG=
201205240820 METAR ESSA 240820Z 08004KT CAVOK 19/04 Q1033 NOSIG=
201205240750 METAR ESSA 240750Z 12003KT 080V150 CAVOK 19/04 Q1033 NOSIG=
201205240720 METAR ESSA 240720Z 13005KT 100V170 CAVOK 18/03 Q1033 NOSIG=
201205240650 METAR ESSA 240650Z 13004KT 090V150 CAVOK 17/02 Q1033 NOSIG=
201205240620 METAR ESSA 240620Z 08005KT CAVOK 17/02 Q1033 NOSIG=
201205240550 METAR ESSA 240550Z 06003KT 040V110 CAVOK 15/04 Q1033 NOSIG=
201205240520 METAR ESSA 240520Z 15003KT CAVOK 14/03 Q1032 NOSIG=
201205240450 METAR ESSA 240450Z 15005KT CAVOK 13/03 Q1033 NOSIG=
201205240420 METAR ESSA 240420Z VRB02KT CAVOK 12/03 Q1033 NOSIG=
201205240350 METAR ESSA 240350Z 09002KT CAVOK 10/04 Q1033 NOSIG=
201205240320 METAR ESSA 240320Z 09002KT CAVOK 10/03 Q1033 NOSIG=
201205240250 METAR ESSA 240250Z 08003KT CAVOK 10/03 Q1033 NOSIG=
201205240220 METAR ESSA 240220Z 08003KT CAVOK 10/02 Q1033 NOSIG=
201205240150 METAR ESSA 240150Z 08003KT CAVOK 10/02 Q1032 NOSIG=
201205240120 METAR ESSA 240120Z 08005KT CAVOK 09/04 Q1032 NOSIG=
201205240050 METAR ESSA 240050Z 08004KT CAVOK 11/03 Q1032 NOSIG=
201205240020 METAR ESSA 240020Z 08004KT CAVOK 11/03 Q1032 NOSIG=
201205232350 METAR ESSA 232350Z 07004KT CAVOK 11/03 Q1032 NOSIG=
201205232320 METAR ESSA 232320Z 08006KT CAVOK 12/04 Q1032 NOSIG=
201205232250 METAR ESSA 232250Z 07006KT CAVOK 13/06 Q1032 NOSIG=
201205232220 METAR ESSA 232220Z 09005KT CAVOK 13/07 Q1032 NOSIG=
201205232150 METAR ESSA 232150Z 08006KT CAVOK 14/06 Q1032 NOSIG=
201205232120 METAR ESSA 232120Z 09004KT CAVOK 15/07 Q1032 NOSIG=
201205232050 METAR ESSA 232050Z 08003KT CAVOK 15/07 Q1031 NOSIG=
201205232020 METAR ESSA 232020Z 11003KT CAVOK 16/07 Q1031 NOSIG=
201205231950 METAR ESSA 231950Z 12004KT CAVOK 17/07 Q1031 NOSIG=
201205231920 METAR ESSA 231920Z 13005KT CAVOK 17/06 Q1031 NOSIG=
201205231850 METAR ESSA 231850Z 12006KT CAVOK 18/06 Q1031 NOSIG=
201205231820 METAR ESSA 231820Z 08007KT 050V130 CAVOK 19/05 Q1031 NOSIG=
201205231750 METAR ESSA 231750Z 08010KT CAVOK 20/05 Q1031 NOSIG=
201205231720 METAR ESSA 231720Z 07008KT CAVOK 21/05 Q1031 NOSIG=
201205231650 METAR ESSA 231650Z 09008KT CAVOK 21/05 Q1030 NOSIG=
201205231620 METAR ESSA 231620Z 08008KT CAVOK 22/06 Q1030 NOSIG=
201205231550 METAR ESSA 231550Z 04007KT 010V090 CAVOK 22/06 Q1030 NOSIG=
201205231520 METAR ESSA 231520Z 06005KT CAVOK 22/06 Q1030 NOSIG=
201205231450 METAR ESSA 231450Z 05004KT 360V110 CAVOK 23/05 Q1030 NOSIG=
201205231420 METAR ESSA 231420Z 06005KT 350V110 CAVOK 22/05 Q1030 NOSIG=
201205231350 METAR ESSA 231350Z 05006KT 340V070 CAVOK 22/05 Q1030 NOSIG=
201205231320 METAR ESSA 231320Z 07007KT CAVOK 22/05 Q1030 NOSIG=
201205231250 METAR ESSA 231250Z VRB06KT CAVOK 22/05 Q1030 NOSIG=
201205231220 METAR ESSA 231220Z 04009KT CAVOK 21/05 Q1030 NOSIG=
201205231150 METAR ESSA 231150Z 02006KT 340V060 CAVOK 21/05 Q1030 NOSIG=
201205231120 METAR ESSA 231120Z 05005KT 320V090 CAVOK 21/05 Q1030 NOSIG=
201205231050 METAR ESSA 231050Z 36006KT CAVOK 20/05 Q1031 NOSIG=
201205231020 METAR ESSA 231020Z 05007KT 010V080 CAVOK 20/05 Q1031 NOSIG=
201205230950 METAR ESSA 230950Z 06007KT 010V100 CAVOK 21/06 Q1031 NOSIG=
201205230920 METAR ESSA 230920Z 04007KT 010V070 CAVOK 20/04 Q1031 NOSIG=
201205230850 METAR ESSA 230850Z 04007KT 350V080 CAVOK 20/05 Q1030 NOSIG=
201205230820 METAR ESSA 230820Z 02011KT CAVOK 20/05 Q1030 NOSIG=
201205230750 METAR ESSA 230750Z 04008KT CAVOK 19/05 Q1030 NOSIG=
201205230720 METAR ESSA 230720Z 03008KT 360V060 CAVOK 17/04 Q1030 NOSIG=
201205230650 METAR ESSA 230650Z 01007KT CAVOK 17/05 Q1030 NOSIG=
201205230620 METAR ESSA 230620Z 07005KT CAVOK 15/05 Q1029 NOSIG=
201205230550 METAR ESSA 230550Z 07006KT CAVOK 14/05 Q1029 NOSIG=
201205230520 METAR ESSA 230520Z 36007KT CAVOK 12/05 Q1029 NOSIG=
201205230450 METAR ESSA 230450Z 01005KT CAVOK 11/05 Q1029 NOSIG=
201205230420 METAR ESSA 230420Z 36008KT CAVOK 09/04 Q1029 NOSIG=
201205230350 METAR ESSA 230350Z 36007KT CAVOK 08/04 Q1029 NOSIG=
201205230320 METAR ESSA 230320Z 03008KT CAVOK 07/04 Q1028 NOSIG=
201205230250 METAR ESSA 230250Z 01007KT CAVOK 07/03 Q1028 NOSIG=
201205230220 METAR ESSA 230220Z 36007KT CAVOK 07/03 Q1028 NOSIG=
201205230150 METAR ESSA 230150Z 36007KT CAVOK 07/03 Q1028 NOSIG=
201205230120 METAR ESSA 230120Z 01006KT CAVOK 07/03 Q1028 NOSIG=
201205230050 METAR ESSA 230050Z 01008KT CAVOK 08/03 Q1027 NOSIG=
201205230020 METAR ESSA 230020Z 36008KT CAVOK 08/03 Q1027 NOSIG=
201205222350 METAR ESSA 222350Z 36008KT CAVOK 08/03 Q1027 NOSIG=
201205222320 METAR ESSA 222320Z 36009KT CAVOK 08/04 Q1027 NOSIG=
201205222250 METAR ESSA 222250Z 01008KT CAVOK 09/04 Q1026 NOSIG=
201205222220 METAR ESSA 222220Z 36009KT CAVOK 09/04 Q1027 NOSIG=
201205222150 METAR ESSA 222150Z 01010KT CAVOK 10/04 Q1026 NOSIG=
201205222120 METAR ESSA 222120Z 01008KT CAVOK 10/03 Q1026 NOSIG=
201205222050 METAR ESSA 222050Z 01008KT CAVOK 11/04 Q1026 NOSIG=
201205222020 METAR ESSA 222020Z 02010KT CAVOK 12/04 Q1026 NOSIG=
201205221950 METAR ESSA 221950Z 02010KT CAVOK 13/04 Q1025 NOSIG=
201205221920 METAR ESSA 221920Z 03011KT CAVOK 14/04 Q1025 NOSIG=
201205221850 METAR ESSA 221850Z 02012KT CAVOK 15/04 Q1025 NOSIG=
201205221820 METAR ESSA 221820Z 02014KT CAVOK 16/04 Q1024 NOSIG=
201205221750 METAR ESSA 221750Z 03013KT CAVOK 16/03 Q1024 NOSIG=
201205221720 METAR ESSA 221720Z 03013KT CAVOK 17/03 Q1024 NOSIG=
201205221650 METAR ESSA 221650Z 03014KT CAVOK 18/03 Q1023 NOSIG=
201205221620 METAR ESSA 221620Z 03013KT CAVOK 19/04 Q1023 NOSIG=
201205221550 METAR ESSA 221550Z 05013KT CAVOK 20/05 Q1023 NOSIG=
201205221520 METAR ESSA 221520Z 04013KT CAVOK 20/07 Q1023 NOSIG=
201205221450 METAR ESSA 221450Z 02015KT CAVOK 21/07 Q1023 NOSIG=
201205221420 METAR ESSA 221420Z 02014KT 350V050 CAVOK 21/08 Q1022 NOSIG=
201205221350 METAR ESSA 221350Z 03012KT CAVOK 21/09 Q1022 NOSIG=
201205221320 METAR ESSA 221320Z 03013KT CAVOK 21/10 Q1022 NOSIG=
201205221250 METAR ESSA 221250Z 04013KT CAVOK 21/10 Q1022 NOSIG=
201205221220 METAR ESSA 221220Z 04014KT CAVOK 22/10 Q1022 NOSIG=
201205221150 METAR ESSA 221150Z 03014KT CAVOK 22/10 Q1022 NOSIG=
201205221120 METAR ESSA 221120Z 03016KT CAVOK 21/09 Q1021 NOSIG=
201205221050 METAR ESSA 221050Z 03015KT CAVOK 21/09 Q1021 NOSIG=
201205221020 METAR ESSA 221020Z 03014KT CAVOK 21/10 Q1021 NOSIG=
201205220950 METAR ESSA 220950Z 03013KT CAVOK 20/10 Q1021 NOSIG=
201205220920 METAR ESSA 220920Z 02013KT CAVOK 20/11 Q1021 NOSIG=
201205220850 METAR ESSA 220850Z 01012KT CAVOK 18/11 Q1020 NOSIG=
201205220820 METAR ESSA 220820Z 03012KT CAVOK 18/10 Q1020 NOSIG=
201205220750 METAR ESSA 220750Z 36012KT CAVOK 17/11 Q1020 NOSIG=
201205220720 METAR ESSA 220720Z 03011KT CAVOK 17/10 Q1020 NOSIG=
201205220650 METAR ESSA 220650Z 02012KT CAVOK 16/10 Q1020 NOSIG=
201205220620 METAR ESSA 220620Z 02009KT CAVOK 15/10 Q1020 NOSIG=
201205220550 METAR ESSA 220550Z 01011KT CAVOK 13/09 Q1019 NOSIG=
201205220520 METAR ESSA 220520Z 03012KT CAVOK 13/09 Q1019 NOSIG=
201205220450 METAR ESSA 220450Z 36010KT CAVOK 11/08 Q1019 NOSIG=
201205220420 METAR ESSA 220420Z 01010KT CAVOK 10/07 Q1019 NOSIG=
201205220350 METAR ESSA 220350Z 36008KT CAVOK 10/07 Q1019 NOSIG=
201205220320 METAR ESSA 220320Z 01007KT CAVOK 10/06 Q1019 NOSIG=
201205220250 METAR ESSA 220250Z 03009KT CAVOK 10/06 Q1019 NOSIG=
201205220220 METAR ESSA 220220Z 36010KT CAVOK 09/05 Q1018 NOSIG=
201205220150 METAR ESSA 220150Z 36008KT CAVOK 09/05 Q1018 NOSIG=
201205220120 METAR ESSA 220120Z 36009KT CAVOK 09/05 Q1018 NOSIG=
201205220050 METAR ESSA 220050Z 02010KT CAVOK 09/05 Q1018 NOSIG=
201205220020 METAR ESSA 220020Z 02011KT CAVOK 09/05 Q1018 NOSIG=
201205212350 METAR ESSA 212350Z 01010KT CAVOK 09/06 Q1018 NOSIG=
201205212320 METAR ESSA 212320Z 36009KT CAVOK 09/05 Q1018 NOSIG=
201205212250 METAR ESSA 212250Z 02011KT CAVOK 09/05 Q1018 NOSIG=
201205212220 METAR ESSA 212220Z 02011KT CAVOK 10/06 Q1018 NOSIG=
201205212150 METAR ESSA 212150Z 02011KT CAVOK 10/06 Q1018 NOSIG=
201205212120 METAR ESSA 212120Z 36010KT CAVOK 10/06 Q1018 NOSIG=
201205212050 METAR ESSA 212050Z 01012KT CAVOK 11/07 Q1018 NOSIG=
201205212020 METAR ESSA 212020Z 02011KT CAVOK 12/08 Q1018 NOSIG=
201205211950 METAR ESSA 211950Z 36011KT CAVOK 13/08 Q1018 NOSIG=
201205211920 METAR ESSA 211920Z 02011KT CAVOK 15/08 Q1018 NOSIG=
201205211850 METAR ESSA 211850Z 03011KT CAVOK 15/08 Q1017 NOSIG=
201205211820 METAR ESSA 211820Z 03011KT CAVOK 16/09 Q1017 NOSIG=
201205211750 METAR ESSA 211750Z 03012KT CAVOK 18/09 Q1017 NOSIG=
201205211720 METAR ESSA 211720Z 07011KT CAVOK 19/08 Q1017 NOSIG=
201205211650 METAR ESSA 211650Z 04011KT CAVOK 19/08 Q1017 NOSIG=
201205211620 METAR ESSA 211620Z 05011KT CAVOK 21/09 Q1017 NOSIG=
201205211550 METAR ESSA 211550Z 09012KT CAVOK 21/08 Q1017 NOSIG=
201205211520 METAR ESSA 211520Z 09013KT CAVOK 21/08 Q1017 NOSIG=
201205211450 METAR ESSA 211450Z 08012KT CAVOK 21/08 Q1016 NOSIG=
201205211420 METAR ESSA 211420Z 07013KT CAVOK 22/08 Q1016 NOSIG=
201205211350 METAR ESSA 211350Z 08011KT CAVOK 22/08 Q1016 NOSIG=
201205211320 METAR ESSA 211320Z 07011KT CAVOK 22/09 Q1016 NOSIG=
201205211250 METAR ESSA 211250Z 07012KT CAVOK 22/09 Q1016 NOSIG=
201205211220 METAR ESSA 211220Z 04011KT CAVOK 22/08 Q1016 NOSIG=
201205211150 METAR ESSA 211150Z 08013KT CAVOK 21/08 Q1017 NOSIG=
201205211120 METAR ESSA 211120Z 07010KT CAVOK 21/09 Q1017 NOSIG=
201205211050 METAR ESSA 211050Z 08012KT CAVOK 21/08 Q1017 NOSIG=
201205211020 METAR ESSA 211020Z 06011KT 030V090 CAVOK 21/08 Q1017 NOSIG=
201205210950 METAR ESSA 210950Z 07012KT CAVOK 20/08 Q1017 NOSIG=
201205210920 METAR ESSA 210920Z 08012KT CAVOK 20/08 Q1017 NOSIG=
201205210850 METAR ESSA 210850Z 05013KT CAVOK 19/09 Q1017 NOSIG=
201205210820 METAR ESSA 210820Z 07013KT CAVOK 18/09 Q1017 NOSIG=
201205210750 METAR ESSA 210750Z 07010KT CAVOK 18/10 Q1017 NOSIG=
201205210720 METAR ESSA 210720Z 05010KT CAVOK 17/10 Q1017 NOSIG=
201205210650 METAR ESSA 210650Z 05009KT CAVOK 16/10 Q1017 NOSIG=
201205210620 METAR ESSA 210620Z 05007KT CAVOK 15/10 Q1017 NOSIG=
201205210550 METAR ESSA 210550Z 02009KT CAVOK 14/10 Q1017 NOSIG=
201205210520 METAR ESSA 210520Z 02006KT CAVOK 13/09 Q1017 NOSIG=
201205210450 METAR ESSA 210450Z 02005KT 9999 FEW048 SCT200 12/09 Q1017
                        NOSIG=
201205210420 METAR ESSA 210420Z 04006KT CAVOK 11/09 Q1017 NOSIG=
201205210350 METAR ESSA 210350Z 04005KT CAVOK 10/09 Q1017 NOSIG=
201205210320 METAR ESSA 210320Z 04007KT CAVOK 10/09 Q1017 NOSIG=
201205210250 METAR ESSA 210250Z 01006KT CAVOK 09/08 Q1017 NOSIG=
201205210220 METAR ESSA 210220Z 03003KT CAVOK 09/08 Q1017 NOSIG=
201205210150 METAR ESSA 210150Z 04003KT CAVOK 10/09 Q1017 NOSIG=
201205210120 METAR ESSA 210120Z 02003KT CAVOK 09/08 Q1017 NOSIG=
201205210050 METAR ESSA 210050Z 14003KT 080V160 CAVOK 11/08 Q1018 NOSIG=
201205210020 METAR ESSA 210020Z 16006KT CAVOK 12/09 Q1017 NOSIG=
201205202350 METAR ESSA 202350Z 13005KT CAVOK 13/09 Q1017 NOSIG=
201205202320 METAR ESSA 202320Z 13004KT CAVOK 13/09 Q1017 NOSIG=
201205202250 METAR ESSA 202250Z 07003KT CAVOK 14/09 Q1017 NOSIG=
201205202220 METAR ESSA 202220Z 11005KT CAVOK 15/09 Q1017 NOSIG=
201205202150 METAR ESSA 202150Z 10003KT CAVOK 15/09 Q1017 NOSIG=
201205202120 METAR ESSA 202120Z 14004KT CAVOK 15/09 Q1017 NOSIG=
201205202050 METAR ESSA 202050Z 19005KT CAVOK 15/09 Q1017 NOSIG=
201205202020 METAR ESSA 202020Z 17006KT CAVOK 16/09 Q1017 NOSIG=
201205201950 METAR ESSA 201950Z 17007KT CAVOK 16/09 Q1016 NOSIG=
201205201920 METAR ESSA 201920Z 17007KT CAVOK 17/08 Q1016 NOSIG=
201205201850 METAR ESSA 201850Z 18008KT CAVOK 18/08 Q1016 NOSIG=
201205201820 METAR ESSA 201820Z 18008KT CAVOK 19/08 Q1016 NOSIG=
201205201750 METAR ESSA 201750Z 19007KT CAVOK 20/07 Q1016 NOSIG=
201205201720 METAR ESSA 201720Z 20009KT CAVOK 20/07 Q1016 NOSIG=
201205201650 METAR ESSA 201650Z 20009KT CAVOK 20/07 Q1016 NOSIG=
201205201620 METAR ESSA 201620Z 22011KT CAVOK 21/08 Q1016 NOSIG=
201205201550 METAR ESSA 201550Z 22010KT CAVOK 21/08 Q1016 NOSIG=
201205201520 METAR ESSA 201520Z 22011KT CAVOK 21/09 Q1016 NOSIG=
201205201450 METAR ESSA 201450Z 21010KT CAVOK 21/08 Q1015 NOSIG=
201205201420 METAR ESSA 201420Z 23011KT CAVOK 22/08 Q1015 NOSIG=
201205201350 METAR ESSA 201350Z 22012KT CAVOK 21/07 Q1015 NOSIG=
201205201320 METAR ESSA 201320Z 23011KT CAVOK 21/07 Q1015 NOSIG=
201205201250 METAR ESSA 201250Z 22010KT 180V240 CAVOK 21/08 Q1016 NOSIG=
201205201220 METAR ESSA 201220Z 23010KT 190V260 CAVOK 21/08 Q1015 NOSIG=
201205201150 METAR ESSA 201150Z 20011KT CAVOK 20/07 Q1015 NOSIG=
201205201120 METAR ESSA 201120Z 21009KT CAVOK 20/09 Q1015 NOSIG=
201205201050 METAR ESSA 201050Z 24009KT 200V270 CAVOK 19/09 Q1016 NOSIG=
201205201020 METAR ESSA 201020Z 23011KT 190V250 CAVOK 19/09 Q1016 NOSIG=
201205200950 METAR ESSA 200950Z 19009KT CAVOK 19/08 Q1016 NOSIG=
201205200920 METAR ESSA 200920Z 18008KT CAVOK 18/07 Q1016 NOSIG=
201205200850 METAR ESSA 200850Z 21008KT CAVOK 17/08 Q1016 NOSIG=
201205200820 METAR ESSA 200820Z 17010KT CAVOK 16/08 Q1016 NOSIG=
201205200750 METAR ESSA 200750Z 17009KT CAVOK 16/07 Q1016 NOSIG=
201205200720 METAR ESSA 200720Z 21009KT CAVOK 15/07 Q1016 NOSIG=
201205200650 METAR ESSA 200650Z 15009KT CAVOK 14/07 Q1016 NOSIG=
201205200620 METAR ESSA 200620Z 15009KT CAVOK 13/06 Q1016 NOSIG=
201205200550 METAR ESSA 200550Z 14008KT CAVOK 12/06 Q1016 NOSIG=
201205200520 METAR ESSA 200520Z 14006KT CAVOK 11/05 Q1016 NOSIG=
201205200450 METAR ESSA 200450Z 14006KT CAVOK 11/05 Q1016 NOSIG=
201205200420 METAR ESSA 200420Z 13007KT CAVOK 10/05 Q1016 NOSIG=
201205200350 METAR ESSA 200350Z 14007KT CAVOK 10/05 Q1016 NOSIG=
201205200320 METAR ESSA 200320Z 14007KT CAVOK 10/04 Q1016 NOSIG=
201205200250 METAR ESSA 200250Z 14007KT CAVOK 10/04 Q1016 NOSIG=
201205200220 METAR ESSA 200220Z 14008KT CAVOK 10/04 Q1017 NOSIG=
201205200150 METAR ESSA 200150Z 15007KT CAVOK 10/04 Q1017 NOSIG=
201205200120 METAR ESSA 200120Z 15007KT CAVOK 10/04 Q1017 NOSIG=
201205200050 METAR ESSA 200050Z 14006KT CAVOK 10/04 Q1017 NOSIG=
201205200020 METAR ESSA 200020Z 14007KT CAVOK 10/04 Q1017 NOSIG=
201205192350 METAR ESSA 192350Z 14008KT CAVOK 10/04 Q1017 NOSIG=
201205192320 METAR ESSA 192320Z 14008KT CAVOK 10/04 Q1017 NOSIG=
201205192250 METAR ESSA 192250Z 13008KT CAVOK 10/04 Q1018 NOSIG=
201205192220 METAR ESSA 192220Z 16008KT CAVOK 11/04 Q1018 NOSIG=
201205192150 METAR ESSA 192150Z 16009KT CAVOK 11/04 Q1018 NOSIG=
201205192120 METAR ESSA 192120Z 15008KT CAVOK 11/04 Q1018 NOSIG=
201205192050 METAR ESSA 192050Z 15010KT CAVOK 12/03 Q1018 NOSIG=
201205192020 METAR ESSA 192020Z 16010KT CAVOK 12/03 Q1018 NOSIG=
201205191950 METAR ESSA 191950Z 15008KT CAVOK 13/03 Q1018 NOSIG=
201205191920 METAR ESSA 191920Z 16012KT CAVOK 13/02 Q1018 NOSIG=
201205191850 METAR ESSA 191850Z 15010KT CAVOK 14/03 Q1018 NOSIG=
201205191820 METAR ESSA 191820Z 16013KT CAVOK 15/03 Q1018 NOSIG=
201205191750 METAR ESSA 191750Z 16014KT CAVOK 15/03 Q1018 NOSIG=
201205191720 METAR ESSA 191720Z 17011KT CAVOK 15/03 Q1018 NOSIG=
201205191650 METAR ESSA 191650Z 20012KT CAVOK 16/03 Q1018 NOSIG=
201205191620 METAR ESSA 191620Z 21013KT CAVOK 17/02 Q1018 NOSIG=
201205191550 METAR ESSA 191550Z 19014KT CAVOK 17/02 Q1018 NOSIG=
201205191520 METAR ESSA 191520Z 18016KT CAVOK 17/02 Q1018 NOSIG=
201205191450 METAR ESSA 191450Z 19017KT CAVOK 17/03 Q1018 NOSIG=
201205191420 METAR ESSA 191420Z 19014KT CAVOK 18/04 Q1019 NOSIG=
201205191350 METAR ESSA 191350Z 22014KT CAVOK 18/04 Q1019 NOSIG=
201205191320 METAR ESSA 191320Z 21014KT CAVOK 18/04 Q1019 NOSIG=
201205191250 METAR ESSA 191250Z 22013KT CAVOK 18/03 Q1019 NOSIG=
201205191220 METAR ESSA 191220Z 19012KT 160V220 CAVOK 18/04 Q1019 NOSIG=
201205191150 METAR ESSA 191150Z 19011KT 160V240 CAVOK 17/05 Q1019 NOSIG=
201205191120 METAR ESSA 191120Z 17010KT 150V220 CAVOK 18/05 Q1019 NOSIG=
201205191050 METAR ESSA 191050Z 17008KT 130V220 CAVOK 17/04 Q1020 NOSIG=
201205191020 METAR ESSA 191020Z 21010KT CAVOK 16/04 Q1020 NOSIG=
201205190950 METAR ESSA 190950Z 24010KT 9999 FEW047 BKN160 16/05 Q1020
                        NOSIG=
201205190920 METAR ESSA 190920Z 20009KT 9999 FEW045 BKN120 15/04 Q1020
                        NOSIG=
201205190850 METAR ESSA 190850Z 21008KT 180V250 CAVOK 15/04 Q1020 NOSIG=
201205190820 METAR ESSA 190820Z 22010KT CAVOK 14/04 Q1020 NOSIG=
201205190750 METAR ESSA 190750Z 21010KT CAVOK 14/04 Q1020 NOSIG=
201205190720 METAR ESSA 190720Z 18009KT 150V210 CAVOK 14/04 Q1020 NOSIG=
201205190650 METAR ESSA 190650Z 18007KT CAVOK 14/04 Q1020 NOSIG=
201205190620 METAR ESSA 190620Z 17005KT CAVOK 13/04 Q1020 NOSIG=
201205190550 METAR ESSA 190550Z 21005KT 180V250 CAVOK 12/03 Q1020 NOSIG=
201205190520 METAR ESSA 190520Z 22005KT CAVOK 11/04 Q1019 NOSIG=
201205190450 METAR ESSA 190450Z 18004KT CAVOK 10/05 Q1019 NOSIG=
201205190420 METAR ESSA 190420Z 18005KT CAVOK 08/05 Q1019 NOSIG=
201205190350 METAR ESSA 190350Z 17004KT CAVOK 07/05 Q1019 NOSIG=
201205190320 METAR ESSA 190320Z 17004KT CAVOK 06/05 Q1019 NOSIG=
201205190250 METAR ESSA 190250Z 18005KT CAVOK 05/04 Q1019 NOSIG=
201205190220 METAR ESSA 190220Z 17005KT CAVOK 06/04 Q1019 NOSIG=
201205190150 METAR ESSA 190150Z 17004KT CAVOK 06/04 Q1018 NOSIG=
201205190120 METAR ESSA 190120Z 17005KT CAVOK 06/04 Q1018 NOSIG=
201205190050 METAR ESSA 190050Z 18005KT CAVOK 06/04 Q1018 NOSIG=
201205190020 METAR ESSA 190020Z 19005KT CAVOK 07/04 Q1018 NOSIG=
201205182350 METAR ESSA 182350Z 21004KT CAVOK 08/04 Q1018 NOSIG=
201205182320 METAR ESSA 182320Z 23006KT CAVOK 09/05 Q1017 NOSIG=
201205182250 METAR ESSA 182250Z 23007KT CAVOK 09/05 Q1017 NOSIG=
201205182220 METAR ESSA 182220Z 20007KT CAVOK 10/05 Q1017 NOSIG=
201205182150 METAR ESSA 182150Z 19007KT 9999 SCT047 10/05 Q1017 NOSIG=
201205182120 METAR ESSA 182120Z 18008KT CAVOK 11/06 Q1016 NOSIG=
201205182050 METAR ESSA 182050Z 21007KT 9999 BKN047 11/06 Q1016 NOSIG=
201205182020 METAR ESSA 182020Z 19005KT 9999 SCT048 09/06 Q1016 NOSIG=
201205181950 METAR ESSA 181950Z 19005KT CAVOK 11/06 Q1015 NOSIG=
201205181920 METAR ESSA 181920Z 23006KT 9999 SCT049 12/06 Q1015 NOSIG=
201205181850 METAR ESSA 181850Z 25005KT CAVOK 13/06 Q1014 NOSIG=
201205181820 METAR ESSA 181820Z 25006KT CAVOK 13/06 Q1014 NOSIG=
201205181750 METAR ESSA 181750Z 27006KT CAVOK 13/06 Q1013 NOSIG=
201205181720 METAR ESSA 181720Z 27009KT CAVOK 14/06 Q1013 NOSIG=
201205181650 METAR ESSA 181650Z 29010KT CAVOK 14/06 Q1013 NOSIG=
201205181620 METAR ESSA 181620Z 24013KT CAVOK 15/04 Q1012 NOSIG=
201205181550 METAR ESSA 181550Z 24013G23KT CAVOK 15/04 Q1012 NOSIG=
201205181520 METAR ESSA 181520Z 24015KT CAVOK 15/04 Q1011 NOSIG=
201205181450 METAR ESSA 181450Z 23015KT 200V260 CAVOK 16/03 Q1011 NOSIG=
201205181420 METAR ESSA 181420Z 23014KT CAVOK 16/04 Q1011 NOSIG=
201205181350 METAR ESSA 181350Z 24015KT 210V270 CAVOK 16/05 Q1010 NOSIG=
201205181320 METAR ESSA 181320Z 22015KT 9999 FEW048 BKN062 16/04 Q1010
                        NOSIG=
201205181250 METAR ESSA 181250Z 25015KT 9999 SCT048 BKN062 15/05 Q1010
                        NOSIG=
201205181220 METAR ESSA 181220Z 24017KT CAVOK 16/05 Q1010 NOSIG=
201205181150 METAR ESSA 181150Z 24016KT 9999 SCT043 BKN055 14/05 Q1010
                        NOSIG=
201205181120 METAR ESSA 181120Z 26013KT 9999 SCT038 BKN042 14/05 Q1009
                        NOSIG=
201205181050 METAR ESSA 181050Z 25013G24KT 230V310 9999 SCT037 BKN041
                        14/06 Q1009 NOSIG=
201205181020 METAR ESSA 181020Z 24015KT 9999 BKN030 12/05 Q1009 NOSIG=
201205180950 METAR ESSA 180950Z 24012KT 9999 SCT026 BKN030 12/06 Q1009
                        NOSIG=
201205180920 METAR ESSA 180920Z 25012KT 9999 SCT024 BKN027 11/06 Q1008
                        NOSIG=
201205180850 METAR ESSA 180850Z 24014KT 9999 BKN023 11/06 Q1008 NOSIG=
201205180820 METAR ESSA 180820Z 23015KT 9999 SCT021 BKN024 11/06 Q1008
                        NOSIG=
201205180750 METAR ESSA 180750Z 25014KT 9999 BKN021 11/06 Q1007 NOSIG=
201205180720 METAR ESSA 180720Z 24017KT 9999 BKN017 10/06 Q1007 NOSIG=
201205180650 METAR ESSA 180650Z 25013KT 9999 FEW014 BKN016 10/06 Q1007
                        NOSIG=
201205180620 METAR ESSA 180620Z 24011KT 9999 SCT013 OVC015 09/07 Q1006
                        NOSIG=
201205180550 METAR ESSA 180550Z 24013KT 9999 -SHRA FEW003 SCT005 BKN013
                        08/07 Q1006 RESHRA BECMG BKN015=
201205180520 METAR ESSA 180520Z 24013KT 9999 FEW010 OVC012 09/07 Q1006
                        BECMG BKN015=
201205180450 METAR ESSA 180450Z 23012KT 9999 FEW009 OVC011 09/07 Q1005
                        NOSIG=
201205180420 METAR ESSA 180420Z 24012KT 9999 OVC011 08/06 Q1005 NOSIG=
201205180350 METAR ESSA 180350Z 23010KT 9999 OVC012 08/06 Q1005 NOSIG=
201205180320 METAR ESSA 180320Z 24010KT 9999 OVC012 08/06 Q1005 NOSIG=
201205180250 METAR ESSA 180250Z 23010KT 9999 OVC015 08/06 Q1005 NOSIG=
201205180220 METAR ESSA 180220Z 23010KT 9999 OVC015 08/06 Q1005 NOSIG=
201205180150 METAR ESSA 180150Z 23010KT 9999 BKN020 08/06 Q1005 NOSIG=
201205180120 METAR ESSA 180120Z 23007KT 9999 BKN020 08/06 Q1005 NOSIG=
201205180050 METAR ESSA 180050Z 26007KT 9999 SCT047 SCT098 08/06 Q1005
                        NOSIG=
201205180020 METAR ESSA 180020Z 25007KT CAVOK 08/06 Q1005 NOSIG=
201205172350 METAR ESSA 172350Z 25006KT 9999 SCT020 SCT070 08/06 Q1005
                        NOSIG=
201205172320 METAR ESSA 172320Z 22005KT 9999 SCT020 SCT045 BKN078 08/06
                        Q1005 NOSIG=
201205172250 METAR ESSA 172250Z 24006KT 9999 SCT041 BKN078 08/06 Q1005
                        NOSIG=
201205172220 METAR ESSA 172220Z 26006KT CAVOK 08/06 Q1005 NOSIG=
201205172150 METAR ESSA 172150Z 26006KT CAVOK 08/05 Q1005 NOSIG=
201205172120 METAR ESSA 172120Z 24005KT CAVOK 08/05 Q1005 NOSIG=
201205172050 METAR ESSA 172050Z 19006KT CAVOK 09/05 Q1005 NOSIG=
201205172020 METAR ESSA 172020Z 18007KT CAVOK 09/05 Q1005 NOSIG=
201205171950 METAR ESSA 171950Z 19008KT CAVOK 10/05 Q1005 NOSIG=
201205171920 METAR ESSA 171920Z 18007KT CAVOK 11/05 Q1005 NOSIG=
201205171850 METAR ESSA 171850Z 20007KT CAVOK 12/05 Q1005 NOSIG=
201205171820 METAR ESSA 171820Z 20008KT CAVOK 13/03 Q1005 NOSIG=
201205171750 METAR ESSA 171750Z 24011KT CAVOK 14/03 Q1005 NOSIG=
201205171720 METAR ESSA 171720Z 21010KT 9999 FEW043 BKN160 15/05 Q1005
                        NOSIG=
201205171650 METAR ESSA 171650Z 22010KT 9999 SCT042 BKN150 15/06 Q1005
                        NOSIG=
201205171620 METAR ESSA 171620Z 18009KT 9999 SCT042 BKN150 15/05 Q1005
                        NOSIG=
201205171550 METAR ESSA 171550Z 19010KT CAVOK 15/06 Q1005 NOSIG=
201205171520 METAR ESSA 171520Z 19011KT 9999 SCT047 16/05 Q1005 NOSIG=
201205171450 METAR ESSA 171450Z 19012KT 9999 SCT046 BKN150 16/05 Q1005
                        NOSIG=
201205171420 METAR ESSA 171420Z 18012KT 9999 SCT045 16/06 Q1005 NOSIG=
201205171350 METAR ESSA 171350Z 21010KT 9999 FEW040 BKN045 17/06 Q1005
                        NOSIG=
201205171320 METAR ESSA 171320Z 14008KT 9999 SCT040 BKN060 15/07 Q1005
                        NOSIG=
201205171250 METAR ESSA 171250Z 18009KT 9999 FEW040 BKN059 16/06 Q1005
                        NOSIG=
201205171220 METAR ESSA 171220Z 20007KT 9999 SCT036 BKN062 15/06 Q1006
                        NOSIG=
201205171150 METAR ESSA 171150Z 21006KT 9999 FEW035 BKN061 15/07 Q1006
                        NOSIG=
201205171120 METAR ESSA 171120Z 20008KT 9999 SCT031 14/07 Q1006 NOSIG=
201205171050 METAR ESSA 171050Z 21007KT 9999 SCT025 BKN034 14/07 Q1006
                        NOSIG=
201205171020 METAR ESSA 171020Z 21009KT 9999 FEW021 SCT024 BKN032 13/08
                        Q1006 NOSIG=
201205170950 METAR ESSA 170950Z 20006KT 170V230 9999 FEW017 SCT021 BKN030
                        13/08 Q1006 NOSIG=
201205170920 METAR ESSA 170920Z 21006KT 9999 SCT011 BKN018 BKN029 12/09
                        Q1006 NOSIG=
201205170850 METAR ESSA 170850Z 19006KT 9999 SCT008 BKN011 BKN015 11/09
                        Q1006 NOSIG=
201205170820 METAR ESSA 170820Z 22006KT 9999 FEW007 SCT009 BKN012 11/09
                        Q1007 NOSIG=
201205170750 METAR ESSA 170750Z 25007KT 9999 SCT006 BKN008 10/09 Q1007
                        BECMG BKN012=
201205170720 METAR ESSA 170720Z 21004KT 180V240 9999 FEW005 BKN006 BKN009
                        10/09 Q1006 BECMG BKN012=
201205170650 METAR ESSA 170650Z 26004KT 9999 SCT003 BKN006 10/09 Q1006
                        BECMG BKN012=
201205170620 METAR ESSA 170620Z 26005KT 9999 SCT004 BKN005 10/09 Q1006
                        BECMG BKN012=
201205170550 METAR ESSA 170550Z 26005KT 9000 BR SCT003 BKN004 09/09 Q1006
                        BECMG BKN015=
201205170520 METAR ESSA 170520Z 25004KT 7000 BR SCT003 BKN004 09/09 Q1006
                        BECMG BKN015=
201205170450 METAR ESSA 170450Z 24004KT 6000 BR FEW002 BKN003 09/09 Q1006
                        TEMPO 4000=
201205170420 METAR ESSA 170420Z 32003KT 2000 BR BKN002 09/09 Q1006 TEMPO
                        6000 BKN030=
201205170350 METAR ESSA 170350Z 31003KT 1000 FG BKN002 09/08 Q1006 TEMPO
                        6000 BKN030=
201205170320 METAR ESSA 170320Z 28003KT 260V330 1000 FG BKN002 09/08 Q1007
                        TEMPO 6000 BKN030=
201205170250 METAR COR ESSA 170250Z 28003KT 1000 -DZ FG SCT002 BKN034
                        08/08 Q1007 TEMPO 6000 BKN030=
201205170220 METAR ESSA 170220Z 29003KT 8000 -RA BKN034 08/08 Q1007 NOSIG=
201205170150 METAR ESSA 170150Z VRB02KT 8000 -RA SCT030 BKN034 09/08 Q1007
                        REDZ NOSIG=
201205170120 METAR ESSA 170120Z 36003KT 8000 -RA SCT030 BKN034 09/08 Q1008
                        NOSIG=
201205170050 METAR ESSA 170050Z 34003KT 8000 -RA BKN034 09/08 Q1008 REDZ
                        NOSIG=
201205170020 METAR ESSA 170020Z 04004KT 8000 -RA BKN034 09/08 Q1008 NOSIG=
201205162350 METAR ESSA 162350Z 04005KT 8000 -RA SCT031 BKN034 09/08 Q1008
                        NOSIG=
201205162320 METAR ESSA 162320Z 02005KT 8000 -RA SCT031 BKN034 09/08 Q1009
                        NOSIG=
201205162250 METAR ESSA 162250Z 02004KT 8000 -RA BKN034 09/08 Q1009 NOSIG=
201205162220 METAR ESSA 162220Z 02003KT 8000 -RA BKN033 09/08 Q1009 NOSIG=
201205162150 METAR ESSA 162150Z 33002KT 8000 -RA SCT034 BKN040 09/08 Q1009
                        NOSIG=
201205162120 METAR ESSA 162120Z VRB02G15KT 8000 -RA SCT034 BKN040 10/08
                        Q1010 NOSIG=
201205162050 METAR ESSA 162050Z 07003KT 8000 -RA SCT032 BKN035 09/08 Q1010
                        NOSIG=
201205162020 METAR ESSA 162020Z 07005KT 9000 -RA SCT035 BKN053 10/08 Q1010
                        NOSIG=
201205161950 METAR ESSA 161950Z 08005KT 9999 -RA BKN053 10/07 Q1010 NOSIG=
201205161920 METAR ESSA 161920Z 09005KT 9999 -RA BKN055 11/07 Q1010 NOSIG=
201205161850 METAR ESSA 161850Z 09005KT 9999 -RA BKN049 11/07 Q1011 NOSIG=
201205161820 METAR ESSA 161820Z 09005KT 9999 BKN049 12/06 Q1011 NOSIG=
201205161750 METAR ESSA 161750Z 09005KT 9999 BKN049 12/06 Q1011 NOSIG=
201205161720 METAR ESSA 161720Z 09006KT 9999 SCT045 BKN057 12/07 Q1011
                        NOSIG=
201205161650 METAR ESSA 161650Z 07007KT 9999 SCT045 BKN057 12/06 Q1011
                        NOSIG=
201205161620 METAR ESSA 161620Z 09007KT 9999 SCT040 BKN045 13/06 Q1011
                        NOSIG=
201205161550 METAR ESSA 161550Z 09008KT 9999 BKN040 13/06 Q1011 NOSIG=
201205161520 METAR ESSA 161520Z 08006KT 9999 BKN049 13/06 Q1011 NOSIG=
201205161450 METAR ESSA 161450Z 09008KT 9999 BKN049 13/07 Q1012 NOSIG=
201205161420 METAR ESSA 161420Z 07009KT 9999 BKN049 14/07 Q1012 NOSIG=
201205161350 METAR ESSA 161350Z 07008KT 9999 FEW048 BKN053 14/06 Q1012
                        NOSIG=
201205161320 METAR ESSA 161320Z 06007KT 030V090 9999 FEW040 BKN053 14/06
                        Q1012 NOSIG=
201205161250 METAR ESSA 161250Z 06007KT 9999 FEW040 BKN055 14/05 Q1012
                        NOSIG=
201205161220 METAR ESSA 161220Z 04006KT 010V080 9999 FEW037 SCT045 BKN057
                        14/07 Q1012 NOSIG=
201205161150 METAR ESSA 161150Z 04005KT 010V070 CAVOK 14/05 Q1012 NOSIG=
201205161120 METAR ESSA 161120Z 06005KT 020V090 CAVOK 14/06 Q1012 NOSIG=
201205161050 METAR ESSA 161050Z 06006KT 9999 -DZ NSC 14/06 Q1012 NOSIG=
201205161020 METAR ESSA 161020Z 07005KT 040V110 9999 -DZ FEW023 SCT040
                        BKN050 13/06 Q1012 NOSIG=
201205160950 METAR ESSA 160950Z 09006KT 9999 FEW029 BKN060 14/04 Q1013
                        NOSIG=
201205160920 METAR ESSA 160920Z 10006KT 020V130 9999 FEW030 BKN046 BKN054
                        14/04 Q1013 NOSIG=
201205160850 METAR ESSA 160850Z 10007KT 9999 FEW026 SCT041 BKN047 13/04
                        Q1013 NOSIG=
201205160820 METAR ESSA 160820Z 11009KT 9999 FEW034 SCT041 BKN055 13/05
                        Q1013 NOSIG=
201205160750 METAR ESSA 160750Z 10009KT 9999 FEW043 SCT055 BKN081 13/05
                        Q1013 NOSIG=
201205160720 METAR ESSA 160720Z 09007KT CAVOK 13/07 Q1013 NOSIG=
201205160650 METAR ESSA 160650Z 08006KT CAVOK 12/06 Q1012 NOSIG=
201205160620 METAR ESSA 160620Z 06006KT CAVOK 11/06 Q1012 NOSIG=
201205160550 METAR ESSA 160550Z 07006KT CAVOK 10/05 Q1012 NOSIG=
201205160520 METAR ESSA 160520Z 07007KT CAVOK 09/05 Q1012 NOSIG=
201205160450 METAR ESSA 160450Z 06007KT CAVOK 08/05 Q1012 NOSIG=
201205160420 METAR ESSA 160420Z 05007KT CAVOK 07/04 Q1012 NOSIG=
201205160350 METAR ESSA 160350Z 05005KT CAVOK 07/04 Q1012 NOSIG=
201205160320 METAR ESSA 160320Z 07005KT CAVOK 06/04 Q1013 NOSIG=
201205160250 METAR ESSA 160250Z 02003KT CAVOK 06/04 Q1013 NOSIG=
201205160220 METAR ESSA 160220Z 05004KT CAVOK 07/04 Q1013 NOSIG=
201205160150 METAR ESSA 160150Z 08004KT CAVOK 07/04 Q1013 NOSIG=
201205160120 METAR ESSA 160120Z 07007KT CAVOK 07/03 Q1013 NOSIG=
201205160050 METAR ESSA 160050Z 08006KT 060V220 CAVOK 07/04 Q1013 NOSIG=
201205160020 METAR ESSA 160020Z 07007KT CAVOK 07/03 Q1013 NOSIG=
201205152350 METAR ESSA 152350Z 11005KT CAVOK 06/03 Q1013 NOSIG=
201205152320 METAR ESSA 152320Z 09005KT CAVOK 06/03 Q1013 NOSIG=
201205152250 METAR ESSA 152250Z 08005KT CAVOK 07/03 Q1013 NOSIG=
201205152220 METAR ESSA 152220Z 07005KT CAVOK 07/03 Q1013 NOSIG=
201205152150 METAR ESSA 152150Z 12003KT CAVOK 08/03 Q1014 NOSIG=
201205152120 METAR ESSA 152120Z 11004KT CAVOK 08/03 Q1014 NOSIG=
201205152050 METAR ESSA 152050Z 14004KT CAVOK 09/03 Q1014 NOSIG=
201205152020 METAR ESSA 152020Z 13005KT CAVOK 10/03 Q1014 NOSIG=
201205151950 METAR ESSA 151950Z 13007KT CAVOK 11/02 Q1013 NOSIG=
201205151920 METAR ESSA 151920Z 13008KT CAVOK 12/02 Q1013 NOSIG=
201205151850 METAR ESSA 151850Z 13009KT CAVOK 13/02 Q1013 NOSIG=
201205151820 METAR ESSA 151820Z 14011KT CAVOK 14/02 Q1013 NOSIG=
201205151750 METAR ESSA 151750Z 15010KT CAVOK 14/03 Q1013 NOSIG=
201205151720 METAR ESSA 151720Z 15011G22KT CAVOK 14/04 Q1013 NOSIG=
201205151650 METAR ESSA 151650Z 15014KT CAVOK 14/04 Q1013 NOSIG=
201205151620 METAR ESSA 151620Z 16013KT 9999 FEW040 15/05 Q1013 NOSIG=
201205151550 METAR ESSA 151550Z 16016KT 9999 FEW040 SCT090 15/06 Q1013
                        NOSIG=
201205151520 METAR ESSA 151520Z 16015KT 9999 FEW043 SCT085 15/06 Q1013
                        NOSIG=
201205151450 METAR ESSA 151450Z 15016KT 9999 FEW044 SCT055 16/05 Q1013
                        NOSIG=
201205151420 METAR ESSA 151420Z 16015KT CAVOK 16/05 Q1012 NOSIG=
201205151350 METAR ESSA 151350Z 18015KT CAVOK 16/02 Q1012 NOSIG=
201205151320 METAR ESSA 151320Z 16014KT CAVOK 17/03 Q1013 NOSIG=
201205151250 METAR ESSA 151250Z 15014KT CAVOK 17/03 Q1013 NOSIG=
201205151220 METAR ESSA 151220Z 16015KT CAVOK 17/03 Q1013 NOSIG=
201205151150 METAR ESSA 151150Z 17014KT CAVOK 17/03 Q1013 NOSIG=
201205151120 METAR ESSA 151120Z 16016KT CAVOK 17/03 Q1013 NOSIG=
201205151050 METAR ESSA 151050Z 17014G24KT 140V200 CAVOK 17/03 Q1013 NOSIG=
201205151020 METAR ESSA 151020Z 19014KT CAVOK 15/03 Q1013 NOSIG=
201205150950 METAR ESSA 150950Z 17016KT 9999 SCT049 16/04 Q1013 NOSIG=
201205150920 METAR ESSA 150920Z 20012KT 9999 SCT047 16/04 Q1014 NOSIG=
201205150850 METAR ESSA 150850Z 18014KT 9999 SCT045 16/05 Q1014 NOSIG=
201205150820 METAR ESSA 150820Z 17012KT 9999 FEW040 15/04 Q1014 NOSIG=
201205150750 METAR ESSA 150750Z 19010KT CAVOK 14/05 Q1014 NOSIG=
201205150720 METAR ESSA 150720Z 20011KT CAVOK 13/05 Q1014 NOSIG=
201205150650 METAR ESSA 150650Z 18011KT CAVOK 13/05 Q1014 NOSIG=
201205150620 METAR ESSA 150620Z 17010KT CAVOK 12/05 Q1014 NOSIG=
201205150550 METAR ESSA 150550Z 19009KT CAVOK 11/06 Q1014 NOSIG=
201205150520 METAR ESSA 150520Z 18008KT CAVOK 11/06 Q1015 NOSIG=
201205150450 METAR ESSA 150450Z 17010KT CAVOK 10/05 Q1014 NOSIG=
201205150420 METAR ESSA 150420Z 16009KT CAVOK 09/05 Q1014 NOSIG=
201205150350 METAR ESSA 150350Z 15008KT CAVOK 09/05 Q1014 NOSIG=
201205150320 METAR ESSA 150320Z 16007KT CAVOK 09/05 Q1014 NOSIG=
201205150250 METAR COR ESSA 150250Z 16006KT CAVOK 09/06 Q1014 NOSIG=
201205150220 METAR ESSA 150220Z 19006KT CAVOK 09/06 Q1014 NOSIG=
201205150150 METAR ESSA 150150Z 22006KT CAVOK 09/06 Q1014 NOSIG=
201205150120 METAR ESSA 150120Z 22006KT CAVOK 09/06 Q1014 NOSIG=
201205150050 METAR ESSA 150050Z 21008KT 9999 SCT049 BKN110 09/06 Q1014
                        NOSIG=
201205150020 METAR ESSA 150020Z 23009KT 9999 FEW031 SCT094 BKN120 09/06
                        Q1014 NOSIG=
201205142350 METAR ESSA 142350Z 21006KT 9999 -RA FEW032 SCT090 BKN140
                        09/06 Q1014 NOSIG=
201205142320 METAR ESSA 142320Z 20007KT 9999 -RA FEW035 BKN045 09/06 Q1014
                        NOSIG=
201205142250 METAR ESSA 142250Z 16007KT 9999 FEW040 BKN053 09/05 Q1013
                        NOSIG=
201205142220 METAR ESSA 142220Z 18008KT 9999 -RA FEW030 BKN050 09/06 Q1013
                        NOSIG=
201205142150 METAR ESSA 142150Z 18008KT CAVOK 09/05 Q1013 NOSIG=
201205142120 METAR ESSA 142120Z 18007KT CAVOK 09/05 Q1013 NOSIG=
201205142050 METAR ESSA 142050Z 18007KT CAVOK 09/05 Q1013 NOSIG=
201205142020 METAR COR ESSA 142020Z 17008KT CAVOK 09/05 Q1013 NOSIG=
201205141950 METAR ESSA 141950Z 19008KT CAVOK 10/05 Q1013 NOSIG=
201205141920 METAR ESSA 141920Z 18010KT CAVOK 11/05 Q1013 NOSIG=
201205141850 METAR ESSA 141850Z 18011KT CAVOK 11/05 Q1012 NOSIG=
201205141820 METAR ESSA 141820Z 17010KT CAVOK 11/05 Q1012 NOSIG=
201205141750 METAR ESSA 141750Z 18011KT CAVOK 11/05 Q1012 NOSIG=
201205141720 METAR ESSA 141720Z 18013KT CAVOK 12/05 Q1012 NOSIG=
201205141650 METAR ESSA 141650Z 18015KT CAVOK 12/05 Q1012 NOSIG=
201205141620 METAR ESSA 141620Z 19014KT CAVOK 12/05 Q1012 NOSIG=
201205141550 METAR ESSA 141550Z 18014KT CAVOK 12/05 Q1012 NOSIG=
201205141520 METAR ESSA 141520Z 20015KT CAVOK 12/04 Q1012 NOSIG=
201205141450 METAR ESSA 141450Z 19016G26KT 9999 BKN050 13/04 Q1012 NOSIG=
201205141420 METAR ESSA 141420Z 18020KT 9999 BKN050 13/04 Q1012 NOSIG=
201205141350 METAR ESSA 141350Z 17021KT CAVOK 13/04 Q1012 NOSIG=
201205141320 METAR ESSA 141320Z 18022KT CAVOK 13/05 Q1012 NOSIG=
201205141250 METAR ESSA 141250Z 18020KT CAVOK 13/05 Q1012 NOSIG=
201205141220 METAR ESSA 141220Z 18022KT CAVOK 14/04 Q1012 NOSIG=
201205141150 METAR ESSA 141150Z 18021KT 9999 BKN050 14/05 Q1012 NOSIG=
201205141120 METAR ESSA 141120Z 17022KT 9999 SCT037 BKN053 14/05 Q1012
                        NOSIG=
201205141050 METAR ESSA 141050Z 19021G31KT 9999 FEW040 14/05 Q1012 NOSIG=
201205141020 METAR ESSA 141020Z 17020KT 9999 FEW040 SCT042 14/05 Q1012
                        NOSIG=
201205140950 METAR ESSA 140950Z 18017KT 9999 FEW039 SCT041 14/04 Q1012
                        NOSIG=
201205140920 METAR ESSA 140920Z 19022KT 9999 FEW420 14/03 Q1012 NOSIG=
201205140850 METAR ESSA 140850Z 20020KT 9999 FEW420 14/03 Q1012 NOSIG=
201205140820 METAR ESSA 140820Z 20020G30KT CAVOK 13/03 Q1013 NOSIG=
201205140750 METAR ESSA 140750Z 20022KT CAVOK 12/02 Q1013 NOSIG=
201205140720 METAR ESSA 140720Z 20020KT CAVOK 13/02 Q1013 NOSIG=
201205140650 METAR ESSA 140650Z 21019G29KT CAVOK 11/02 Q1013 NOSIG=
201205140620 METAR ESSA 140620Z 19018KT CAVOK 11/03 Q1014 NOSIG=
201205140550 METAR ESSA 140550Z 20016KT CAVOK 10/03 Q1014 NOSIG=
201205140520 METAR ESSA 140520Z 19014KT CAVOK 10/04 Q1014 NOSIG=
201205140450 METAR ESSA 140450Z 18013KT CAVOK 09/04 Q1014 NOSIG=
201205140420 METAR ESSA 140420Z 18011KT CAVOK 08/04 Q1014 NOSIG=
201205140350 METAR ESSA 140350Z 19011KT CAVOK 08/03 Q1015 NOSIG=
201205140320 METAR ESSA 140320Z 19011KT CAVOK 08/04 Q1015 NOSIG=
201205140250 METAR ESSA 140250Z 18010KT CAVOK 07/03 Q1015 NOSIG=
201205140220 METAR ESSA 140220Z 18011KT CAVOK 07/03 Q1015 NOSIG=
201205140150 METAR ESSA 140150Z 19011KT CAVOK 08/03 Q1015 NOSIG=
201205140120 METAR ESSA 140120Z 18010KT CAVOK 07/03 Q1016 NOSIG=
201205140050 METAR ESSA 140050Z 18010KT CAVOK 07/03 Q1016 NOSIG=
201205140020 METAR ESSA 140020Z 18010KT CAVOK 07/03 Q1016 NOSIG=
201205132350 METAR ESSA 132350Z 18008KT CAVOK 07/03 Q1016 NOSIG=
201205132320 METAR ESSA 132320Z 17010KT CAVOK 06/03 Q1017 NOSIG=
201205132250 METAR ESSA 132250Z 17009KT CAVOK 07/03 Q1017 NOSIG=
201205132220 METAR ESSA 132220Z 17010KT CAVOK 07/02 Q1017 NOSIG=
201205132150 METAR ESSA 132150Z 17009KT CAVOK 07/02 Q1017 NOSIG=
201205132120 METAR ESSA 132120Z 17011KT CAVOK 08/02 Q1017 NOSIG=
201205132050 METAR ESSA 132050Z 18010KT CAVOK 08/02 Q1017 NOSIG=
201205132020 METAR ESSA 132020Z 19011KT CAVOK 08/01 Q1018 NOSIG=
201205131950 METAR ESSA 131950Z 19012KT CAVOK 09/01 Q1018 NOSIG=
201205131920 METAR ESSA 131920Z 18016KT CAVOK 09/01 Q1017 NOSIG=
201205131850 METAR ESSA 131850Z 18016KT CAVOK 10/01 Q1017 NOSIG=
201205131820 METAR ESSA 131820Z 18015KT CAVOK 11/01 Q1017 NOSIG=
201205131750 METAR ESSA 131750Z 18018KT CAVOK 12/01 Q1018 NOSIG=
201205131720 METAR ESSA 131720Z 18016KT CAVOK 12/02 Q1018 NOSIG=
201205131650 METAR ESSA 131650Z 18015KT CAVOK 14/01 Q1018 NOSIG=
201205131620 METAR ESSA 131620Z 18014KT CAVOK 14/01 Q1018 NOSIG=
201205131550 METAR ESSA 131550Z 18014KT CAVOK 14/M00 Q1019 NOSIG=
201205131520 METAR ESSA 131520Z 21011KT CAVOK 14/M02 Q1019 NOSIG=
201205131450 METAR ESSA 131450Z 20012KT CAVOK 14/M01 Q1019 NOSIG=
201205131420 METAR ESSA 131420Z 23011KT CAVOK 14/M01 Q1020 NOSIG=
201205131350 METAR ESSA 131350Z 24008KT 200V290 CAVOK 13/M02 Q1020 NOSIG=
201205131320 METAR ESSA 131320Z 22009KT CAVOK 13/M02 Q1020 NOSIG=
201205131250 METAR ESSA 131250Z 25009KT CAVOK 13/M01 Q1021 NOSIG=
201205131220 METAR ESSA 131220Z 26008KT 230V360 CAVOK 13/M02 Q1021 NOSIG=
201205131150 METAR ESSA 131150Z 23006KT 180V290 CAVOK 12/M02 Q1021 NOSIG=
201205131120 METAR ESSA 131120Z 21007KT 180V240 CAVOK 12/M02 Q1022 NOSIG=
201205131050 METAR ESSA 131050Z 26007KT 230V300 CAVOK 12/M03 Q1022 NOSIG=
201205131020 METAR ESSA 131020Z 24006KT 220V290 CAVOK 11/M03 Q1022 NOSIG=
201205130950 METAR ESSA 130950Z 22007KT 190V260 CAVOK 11/M03 Q1022 NOSIG=
201205130920 METAR ESSA 130920Z 25007KT 9999 FEW049 10/M02 Q1022 NOSIG=
201205130850 METAR ESSA 130850Z 26007KT 230V300 9999 FEW042 10/M03 Q1023
                        NOSIG=
201205130820 METAR ESSA 130820Z 27007KT 230V310 9999 FEW042 09/M03 Q1023
                        NOSIG=
201205130750 METAR ESSA 130750Z 27006KT 190V320 9999 SCT042 09/M01 Q1023
                        NOSIG=
201205130720 METAR ESSA 130720Z 23005KT 190V270 9999 FEW041 09/M01 Q1023
                        NOSIG=
201205130650 METAR ESSA 130650Z 20003KT 140V270 CAVOK 09/M00 Q1023 NOSIG=
201205130620 METAR ESSA 130620Z 30003KT 250V040 CAVOK 08/M00 Q1023 NOSIG=
201205130550 METAR ESSA 130550Z 03003KT 350V070 CAVOK 07/M00 Q1023 NOSIG=
201205130520 METAR ESSA 130520Z 02004KT 350V050 CAVOK 07/00 Q1023 NOSIG=
201205130450 METAR ESSA 130450Z 34004KT 300V010 CAVOK 06/01 Q1023 NOSIG=
201205130420 METAR ESSA 130420Z 33004KT CAVOK 05/02 Q1023 NOSIG=
201205130350 METAR ESSA 130350Z 29003KT CAVOK 04/02 Q1022 NOSIG=
201205130320 METAR ESSA 130320Z 34003KT CAVOK 03/02 Q1022 NOSIG=
201205130250 METAR ESSA 130250Z 32003KT 290V350 CAVOK 04/02 Q1022 NOSIG=
201205130220 METAR ESSA 130220Z 28004KT CAVOK 05/02 Q1022 NOSIG=
201205130150 METAR ESSA 130150Z VRB01KT CAVOK 04/03 Q1022 NOSIG=
201205130120 METAR ESSA 130120Z VRB02KT CAVOK 05/03 Q1022 NOSIG=
201205130050 METAR ESSA 130050Z VRB02KT CAVOK 05/03 Q1022 NOSIG=
201205130020 METAR ESSA 130020Z 27003KT CAVOK 05/03 Q1022 NOSIG=
201205122350 METAR ESSA 122350Z 30002KT CAVOK 05/04 Q1021 NOSIG=
201205122320 METAR ESSA 122320Z 30003KT CAVOK 05/04 Q1021 NOSIG=
201205122250 METAR ESSA 122250Z 02003KT CAVOK 06/03 Q1021 NOSIG=
201205122220 METAR ESSA 122220Z 01003KT CAVOK 06/05 Q1021 NOSIG=
201205122150 METAR ESSA 122150Z 01003KT CAVOK 06/05 Q1021 NOSIG=
201205122120 METAR ESSA 122120Z 32003KT CAVOK 06/04 Q1020 NOSIG=
201205122050 METAR ESSA 122050Z VRB02KT CAVOK 06/05 Q1020 NOSIG=
201205122020 METAR ESSA 122020Z 29002KT CAVOK 07/05 Q1020 NOSIG=
201205121950 METAR ESSA 121950Z 35003KT CAVOK 08/04 Q1019 NOSIG=
201205121920 METAR ESSA 121920Z 02005KT CAVOK 08/05 Q1019 NOSIG=
201205121850 METAR ESSA 121850Z 35005KT CAVOK 08/05 Q1018 NOSIG=
201205121820 METAR ESSA 121820Z 35005KT CAVOK 09/05 Q1018 NOSIG=
201205121750 METAR ESSA 121750Z 36004KT CAVOK 10/05 Q1017 NOSIG=
201205121720 METAR ESSA 121720Z 01006KT 9999 FEW038 BKN055 10/06 Q1017
                        NOSIG=
201205121650 METAR ESSA 121650Z 35005KT 320V020 9999 VCTS BKN043 10/04
                        Q1017 NOSIG=
201205121620 METAR ESSA 121620Z 02011KT 9999 FEW025 BKN057 10/05 Q1016
                        NOSIG=
201205121550 METAR ESSA 121550Z 36007KT 9999 BKN043 10/06 Q1016 NOSIG=
201205121520 METAR ESSA 121520Z 01009KT 9999 VCSH FEW030 BKN035 10/05
                        Q1016 NOSIG=
201205121450 METAR ESSA 121450Z 01012KT 9999 BKN040 SCT045CB 10/06 Q1015
                        NOSIG=
201205121420 METAR ESSA 121420Z 36011KT 9999 VCSH BKN035CB 10/07 Q1015
                        NOSIG=
201205121350 METAR ESSA 121350Z 36008KT 9000 -SHRA BKN035CB 09/06 Q1014
                        NOSIG=
201205121320 METAR ESSA 121320Z 01011KT 8000 SHRA BKN040CB 10/06 Q1014
                        NOSIG=
201205121250 METAR ESSA 121250Z 35012KT 9999 VCSH BKN035 SCT040CB 10/06
                        Q1013 NOSIG=
201205121220 METAR ESSA 121220Z 35011G22KT 9999 BKN035 SCT040CB 10/06
                        Q1013 NOSIG=
201205121150 METAR ESSA 121150Z 34010KT 8000 SHRA BKN025CB 09/06 Q1012
                        NOSIG=
201205121120 METAR ESSA 121120Z 33008KT 9999 BKN040 09/07 Q1012 NOSIG=
201205121050 METAR ESSA 121050Z 35013KT 9999 BKN022 09/06 Q1011 NOSIG=
201205121020 METAR ESSA 121020Z 33010KT 9999 SCT020 BKN140 10/07 Q1010
                        NOSIG=
201205120950 METAR ESSA 120950Z 34009KT 9999 -RA BKN020 09/06 Q1010 NOSIG=
201205120920 METAR ESSA 120920Z 32008KT 9999 BKN015 08/06 Q1009 NOSIG=
201205120850 METAR ESSA 120850Z 34010KT 9999 BKN017 08/06 Q1008 NOSIG=
201205120820 METAR ESSA 120820Z 34010KT 9999 -DZ BKN015 07/05 Q1008 TEMPO
                        4000=
201205120750 METAR ESSA 120750Z 33013KT 9999 -DZ BKN012 07/05 Q1007 TEMPO
                        4000=
201205120720 METAR ESSA 120720Z 33012KT 7000 -DZ BKN014 07/05 Q1006 TEMPO
                        4000=
201205120650 METAR ESSA 120650Z 34012KT 9999 BKN014 07/05 Q1005 BECMG
                        BKN020=
201205120620 METAR ESSA 120620Z 33012KT 9999 -DZ BKN012 07/06 Q1004 BECMG
                        BKN020=
201205120550 METAR ESSA 120550Z 32011KT 9999 BKN010 07/05 Q1003 BECMG
                        BKN020=
201205120520 METAR ESSA 120520Z 34012KT 9999 SCT010 BKN023 07/05 Q1002
                        REDZ NOSIG=
201205120450 METAR ESSA 120450Z 26012KT 5000 DZ FEW006 SCT009 BKN012 07/06
                        Q1001 BECMG 32010KT=
201205120420 METAR ESSA 120420Z 26012KT 9999 -RA FEW006 SCT011 BKN015
                        08/06 Q1001 BECMG 32010KT=
201205120350 METAR ESSA 120350Z 25012KT 9999 FEW006 SCT015 BKN020 08/05
                        Q1001 BECMG 32010KT=
201205120320 METAR ESSA 120320Z 25015KT 9000 -DZ FEW010 BKN019 OVC029
                        08/05 Q1000 NOSIG=
201205120250 METAR ESSA 120250Z 24015KT 9999 FEW013 BKN023 08/04 Q1000
                        NOSIG=
201205120220 METAR ESSA 120220Z 23016KT 9999 FEW013 BKN023 08/04 Q1000
                        NOSIG=
201205120150 METAR COR ESSA 120150Z 23016KT 9999 -RA BKN025 08/04 Q1000
                        NOSIG=
201205120120 METAR ESSA 120120Z 25017KT 9999 BKN025 08/04 Q1000 NOSIG=
201205120050 METAR ESSA 120050Z 24016KT 9999 BKN029 OVC057 08/03 Q1000
                        NOSIG=
201205120020 METAR ESSA 120020Z 25018KT 9999 BKN029 OVC057 08/03 Q1000
                        NOSIG=
201205112350 METAR ESSA 112350Z 24018G29KT CAVOK 08/03 Q1000 NOSIG=
201205112320 METAR ESSA 112320Z 24017KT 9999 FEW032 BKN052 09/03 Q1001
                        NOSIG=
201205112250 METAR ESSA 112250Z 23017KT 9999 SCT033 BKN049 09/04 Q1001
                        NOSIG=
201205112220 METAR ESSA 112220Z 25015KT 9999 FEW028 BKN047 10/05 Q1001
                        NOSIG=
201205112150 METAR ESSA 112150Z 25015KT 9999 SCT039 BKN046 10/05 Q1001
                        NOSIG=
201205112120 METAR ESSA 112120Z 26019KT 9999 FEW015 SCT028 BKN039 10/05
                        Q1001 NOSIG=
201205112050 METAR ESSA 112050Z 24015KT 9999 SCT015 BKN020 11/08 Q1001
                        NOSIG=
201205112020 METAR ESSA 112020Z 24012KT 9999 FEW017 SCT023 BKN029 11/09
                        Q1001 NOSIG=
201205111950 METAR ESSA 111950Z 23011KT 9999 FEW017 SCT023 BKN035 12/09
                        Q1001 NOSIG=
201205111920 METAR ESSA 111920Z 25017G28KT 9999 -SHRA FEW019 SCT027CB
                        BKN036 12/09 Q1001 NOSIG=
201205111850 METAR ESSA 111850Z 20008KT 9999 SCT035 BKN080 13/10 Q1001
                        NOSIG=
201205111820 METAR ESSA 111820Z 22009KT CAVOK 13/10 Q1001 NOSIG=
201205111750 METAR ESSA 111750Z 25008KT CAVOK 13/11 Q1001 NOSIG=
201205111720 METAR ESSA 111720Z 22009KT 9999 FEW028 SCT038CB BKN055 13/10
                        Q1001 NOSIG=
201205111650 METAR ESSA 111650Z 24008KT 9999 -SHRA FEW028 SCT038CB BKN055
                        16/13 Q1001 NOSIG=
201205111620 METAR ESSA 111620Z 24012KT 210V270 9999 FEW020 SCT032 BKN065
                        16/13 Q1001 NOSIG=
201205111550 METAR ESSA 111550Z 22013KT 9999 -SHRA SCT025CB BKN028 BKN055
                        17/13 Q1002 NOSIG=
201205111520 METAR ESSA 111520Z 26014KT 9999 BKN025 BKN080 18/12 Q1002
                        NOSIG=
201205111450 METAR ESSA 111450Z 24014KT 9999 FEW023 BKN026 BKN088 18/12
                        Q1002 NOSIG=
201205111420 METAR ESSA 111420Z 25016KT 9999 FEW020 BKN023 18/13 Q1002
                        NOSIG=
201205111350 METAR ESSA 111350Z 25019KT 9999 FEW023 SCT025 BKN030 18/13
                        Q1003 NOSIG=
201205111320 METAR ESSA 111320Z 26018KT 9999 FEW016 SCT034 18/13 Q1003
                        NOSIG=
201205111250 METAR ESSA 111250Z 24017KT 9999 SCT016 BKN026 BKN061 18/15
                        Q1003 NOSIG=
201205111220 METAR ESSA 111220Z 27011KT 9999 -DZ FEW012 BKN047 BKN061
                        16/15 Q1003 RERA NOSIG=
201205111150 METAR ESSA 111150Z 27018G29KT 5000 RA FEW004 SCT019 BKN035
                        15/14 Q1003 NOSIG=
201205111120 METAR ESSA 111120Z 22018KT 9999 FEW020 BKN033 20/15 Q1002
                        NOSIG=
201205111050 METAR ESSA 111050Z 20013KT 9999 FEW015 BKN028 19/15 Q1003
                        NOSIG=
201205111020 METAR ESSA 111020Z 19013KT 9999 -DZ FEW004 SCT018 BKN033
                        18/15 Q1003 NOSIG=
201205110950 METAR ESSA 110950Z 19012KT 9999 SCT017 BKN020 17/14 Q1003
                        NOSIG=
201205110920 METAR ESSA 110920Z 20012KT 170V230 9999 SCT019 BKN025 18/14
                        Q1003 NOSIG=
201205110850 METAR ESSA 110850Z 22012KT 9999 SCT017 BKN020 BKN070 17/14
                        Q1004 NOSIG=
201205110820 METAR ESSA 110820Z 22014KT 9999 SCT018 BKN023 BKN088 17/14
                        Q1004 NOSIG=
201205110750 METAR ESSA 110750Z 22016KT 9999 SCT018 BKN022 BKN095 17/14
                        Q1004 NOSIG=
201205110720 METAR ESSA 110720Z 23015KT 9999 SCT016 BKN020 BKN077 17/14
                        Q1004 NOSIG=
201205110650 METAR ESSA 110650Z 22015KT 9999 SCT015 BKN019 17/14 Q1004
                        TEMPO BKN013=
201205110620 METAR ESSA 110620Z 22014KT 9999 SCT013 BKN020 16/13 Q1004
                        TEMPO BKN013=
201205110550 METAR ESSA 110550Z 22014KT 9999 SCT013 BKN022 BKN075 16/13
                        Q1004 NOSIG=
201205110520 METAR ESSA 110520Z 22013KT 9000 FEW007 SCT011 BKN030 15/14
                        Q1004 NOSIG=
201205110450 METAR ESSA 110450Z 22012KT 9999 FEW013 SCT029 BKN042 15/14
                        Q1005 NOSIG=
201205110420 METAR ESSA 110420Z 21012KT 9999 FEW009 SCT028 BKN038 15/13
                        Q1005 NOSIG=
201205110350 METAR ESSA 110350Z 22011KT 9999 SCT010 SCT034 BKN044 15/13
                        Q1005 NOSIG=
201205110320 METAR ESSA 110320Z 22010KT 9999 FEW010 SCT023 BKN047 15/13
                        Q1005 NOSIG=
201205110250 METAR ESSA 110250Z 21011KT 9999 FEW027 BKN049 15/13 Q1005
                        NOSIG=
201205110220 METAR ESSA 110220Z 21010KT 9999 FEW007 BKN044 15/13 Q1005
                        NOSIG=
201205110150 METAR ESSA 110150Z 22012KT 9999 BKN007 BKN038 14/14 Q1005
                        TEMPO BKN030=
201205110120 METAR COR ESSA 110120Z 21013KT 9999 BKN006 BKN038 15/14 Q1005
                        TEMPO BKN030=
201205110050 METAR ESSA 110050Z 21013KT 9999 SCT006 BKN038 15/14 Q1005
                        TEMPO BKN010=
201205110020 METAR ESSA 110020Z 21014KT 9999 FEW006 SCT024 BKN032 14/14
                        Q1005 TEMPO BKN010=
201205102350 METAR ESSA 102350Z 21014KT 9999 BKN005 BKN034 14/14 Q1005
                        NOSIG=
201205102320 METAR ESSA 102320Z 21012KT 9999 SCT004 BKN005 14/14 Q1005
                        NOSIG=
201205102250 METAR ESSA 102250Z 20013KT 6000 BR SCT004 BKN005 14/13 Q1006
                        NOSIG=
201205102220 METAR ESSA 102220Z 19013KT 6000 BR SCT005 BKN006 14/13 Q1006
                        NOSIG=
201205102150 METAR COR ESSA 102150Z 19015KT 9000 BR FEW005 BKN007 14/13
                        Q1006 NOSIG=
201205102120 METAR ESSA 102120Z 20016KT 9000 BR FEW005 BKN007 14/13 Q1006
                        NOSIG=
201205102050 METAR ESSA 102050Z 19017KT 9000 BR FEW005 BKN006 14/13 Q1006
                        NOSIG=
201205102020 METAR ESSA 102020Z 18020KT 9000 BR FEW005 BKN006 14/13 Q1006
                        RERA NOSIG=
201205101950 METAR ESSA 101950Z 17015G25KT 8000 BR FEW003 BKN006 14/13
                        Q1007 NOSIG=
201205101920 METAR ESSA 101920Z 16017KT 6000 -RA FEW004 BKN005 13/13 Q1007
                        NOSIG=
201205101850 METAR ESSA 101850Z 15014KT 4000 RA FEW004 BKN005 13/12 Q1008
                        BECMG 6000 -RA=
201205101820 METAR ESSA 101820Z 15013KT 4000 RA FEW003 SCT004 BKN005 13/12
                        Q1008 BECMG 6000 -RA=
201205101750 METAR ESSA 101750Z 15011KT 4000 RA FEW004 SCT005 BKN006 13/12
                        Q1009 BECMG 6000 -RA=
201205101720 METAR ESSA 101720Z 15011KT 4000 RA FEW005 SCT008 BKN010 14/12
                        Q1010 BECMG BKN008=
201205101650 METAR ESSA 101650Z 15011KT 8000 -RA SCT012 BKN015 14/12 Q1010
                        TEMPO BKN012=
201205101620 METAR ESSA 101620Z 14010KT 8000 -RA SCT015 BKN020 14/13 Q1011
                        NOSIG=
201205101550 METAR ESSA 101550Z 13007KT 8000 -RA SCT023 BKN032 14/13 Q1011
                        NOSIG=
201205101520 METAR ESSA 101520Z 16007KT 8000 -RA SCT027 BKN035 14/13 Q1012
                        NOSIG=
201205101450 METAR ESSA 101450Z 18011KT 8000 -RA SCT032 BKN035 14/12 Q1013
                        NOSIG=
201205101420 METAR ESSA 101420Z 19013KT 9000 -RA FEW028 SCT032 BKN035
                        16/11 Q1013 NOSIG=
201205101350 METAR ESSA 101350Z 22009KT 9999 SCT041 BKN046 17/08 Q1013
                        NOSIG=
201205101320 METAR ESSA 101320Z 22012KT 9999 FEW027 SCT030 BKN040 17/07
                        Q1014 NOSIG=
201205101250 METAR ESSA 101250Z 23013KT 9999 SCT047 BKN130 18/07 Q1014
                        NOSIG=
201205101220 METAR ESSA 101220Z 22015KT CAVOK FEW044 18/07 Q1014 NOSIG=
201205101150 METAR ESSA 101150Z 22014KT CAVOK 18/07 Q1014 NOSIG=
201205101120 METAR ESSA 101120Z 24014KT 9999 FEW040 18/07 Q1014 NOSIG=
201205101050 METAR ESSA 101050Z 21014KT 9999 FEW039 18/08 Q1014 NOSIG=
201205101020 METAR ESSA 101020Z 25013KT 9999 FEW037 17/09 Q1014 NOSIG=
201205100950 METAR ESSA 100950Z 25016KT 9999 FEW034 17/09 Q1014 NOSIG=
201205100920 METAR ESSA 100920Z 24017KT 9999 SCT031 17/09 Q1014 NOSIG=
201205100850 METAR ESSA 100850Z 25018KT 9999 FEW029 SCT032 16/09 Q1014
                        NOSIG=
201205100820 METAR ESSA 100820Z 23015KT 9999 FEW025 SCT030 15/09 Q1014
                        NOSIG=
201205100750 METAR ESSA 100750Z 25014KT 9999 SCT023 BKN031 14/10 Q1014
                        NOSIG=
201205100720 METAR ESSA 100720Z 25015KT 9999 SCT022 BKN030 14/10 Q1014
                        NOSIG=
201205100650 METAR ESSA 100650Z 22014KT 9999 FEW017 BKN020 15/11 Q1013
                        NOSIG=
201205100620 METAR ESSA 100620Z 22015KT 9999 FEW015 BKN043 14/11 Q1013
                        NOSIG=
201205100550 METAR ESSA 100550Z 22011KT 9999 FEW012 SCT019 14/12 Q1012
                        NOSIG=
201205100520 METAR ESSA 100520Z 22010KT 9999 FEW009 SCT033 BKN042 13/11
                        Q1012 TEMPO BKN011=
201205100450 METAR ESSA 100450Z 22008KT 9999 SCT008 BKN033 12/10 Q1012
                        TEMPO BKN011=
201205100420 METAR ESSA 100420Z 19008KT 9999 BKN009 12/10 Q1012 TEMPO
                        BKN011=
201205100350 METAR ESSA 100350Z 18008KT 9999 BKN009 11/10 Q1012 TEMPO
                        BKN011=
201205100320 METAR ESSA 100320Z 20007KT 9999 BKN010 11/10 Q1012 TEMPO
                        BKN009=
201205100250 METAR ESSA 100250Z 18007KT 9999 FEW013 BKN078 11/09 Q1012
                        NOSIG=
201205100220 METAR ESSA 100220Z 18007KT CAVOK 11/09 Q1012 NOSIG=
201205100150 METAR ESSA 100150Z 19007KT 9999 BKN046 10/09 Q1012 NOSIG=
201205100120 METAR ESSA 100120Z 17007KT 9999 BKN020 11/10 Q1012 NOSIG=
201205100050 METAR ESSA 100050Z 18009KT 9999 BKN020 11/10 Q1012 NOSIG=
201205100020 METAR ESSA 100020Z 18008KT 9999 -RA FEW017 BKN025 11/09 Q1012
                        NOSIG=
201205092350 METAR ESSA 092350Z 18007KT 9999 -RA BKN038 11/09 Q1012 NOSIG=
201205092320 METAR ESSA 092320Z 16006KT 9999 BKN045 11/08 Q1012 NOSIG=
201205092250 METAR ESSA 092250Z 16005KT 9999 FEW037 BKN045 11/08 Q1012
                        NOSIG=
201205092220 METAR ESSA 092220Z 16006KT CAVOK 11/08 Q1012 NOSIG=
201205092150 METAR ESSA 092150Z 16008KT CAVOK 11/08 Q1012 NOSIG=
201205092120 METAR ESSA 092120Z 17009KT CAVOK 11/08 Q1012 NOSIG=
201205092050 METAR ESSA 092050Z 17008KT CAVOK 10/09 Q1012 NOSIG=
201205092020 METAR ESSA 092020Z 17010KT CAVOK 11/08 Q1012 NOSIG=
201205091950 METAR ESSA 091950Z 18009KT CAVOK 11/08 Q1012 NOSIG=
201205091920 METAR ESSA 091920Z 16015KT CAVOK 12/08 Q1012 NOSIG=
201205091850 METAR ESSA 091850Z 17011KT CAVOK 12/08 Q1012 NOSIG=
201205091820 METAR ESSA 091820Z 21007KT CAVOK 12/08 Q1012 NOSIG=
201205091750 METAR ESSA 091750Z 20006KT 9999 FEW045 BKN060 12/08 Q1012
                        NOSIG=
201205091720 METAR ESSA 091720Z 18010KT 9999 FEW030 BKN062 12/08 Q1012
                        NOSIG=
201205091650 METAR ESSA 091650Z 18014KT 9999 -RA FEW043 BKN062 12/08 Q1012
                        NOSIG=
201205091620 METAR ESSA 091620Z 19010KT 9999 -RA OVC059 13/08 Q1012 NOSIG=
201205091550 METAR ESSA 091550Z 17014KT CAVOK 14/08 Q1012 NOSIG=
201205091520 METAR ESSA 091520Z 16014KT CAVOK 14/08 Q1012 NOSIG=
201205091450 METAR ESSA 091450Z 15011KT CAVOK 13/08 Q1012 NOSIG=
201205091420 METAR ESSA 091420Z 16016KT 9999 -RA FEW043 BKN060 12/09 Q1013
                        NOSIG=
201205091350 METAR ESSA 091350Z 16018KT 9999 -RA FEW043 BKN060 12/09 Q1013
                        NOSIG=
201205091320 METAR ESSA 091320Z 16015KT 9999 -RA FEW031 SCT046 BKN060
                        12/09 Q1013 NOSIG=
201205091250 METAR ESSA 091250Z 15010KT 9999 -RA SCT048 BKN057 12/09 Q1013
                        NOSIG=
201205091220 METAR ESSA 091220Z 13007KT 9999 -RA FEW042 BKN057 12/09 Q1014
                        NOSIG=
201205091150 METAR ESSA 091150Z 17006KT 9999 -RA FEW042 BKN057 12/09 Q1014
                        NOSIG=
201205091120 METAR ESSA 091120Z 14010KT 9999 -RA FEW027 BKN057 12/08 Q1014
                        NOSIG=
201205091050 METAR ESSA 091050Z 14008KT 9999 -RA FEW042 BKN057 12/08 Q1014
                        NOSIG=
201205091020 METAR ESSA 091020Z 15012KT 9999 -RA FEW042 BKN057 12/07 Q1014
                        NOSIG=
201205090950 METAR ESSA 090950Z 17017KT 140V210 9999 -RA FEW047 BKN060
                        13/07 Q1014 NOSIG=
201205090920 METAR ESSA 090920Z 16014KT 9999 -RA FEW047 BKN060 14/06 Q1014
                        NOSIG=
201205090850 METAR ESSA 090850Z 16013KT 9999 -RA SCT044 BKN055 12/06 Q1014
                        NOSIG=
201205090820 METAR ESSA 090820Z 15014KT 9999 -RA SCT044 BKN055 12/05 Q1014
                        NOSIG=
201205090750 METAR ESSA 090750Z 16015KT 9999 -RA SCT046 BKN053 11/04 Q1014
                        NOSIG=
201205090720 METAR ESSA 090720Z 15017KT CAVOK 12/02 Q1014 NOSIG=
201205090650 METAR ESSA 090650Z 15014KT CAVOK 12/02 Q1014 NOSIG=
201205090620 METAR ESSA 090620Z 16012KT CAVOK 11/01 Q1015 NOSIG=
201205090550 METAR ESSA 090550Z 14012KT CAVOK 10/01 Q1015 NOSIG=
201205090520 METAR ESSA 090520Z 16012KT CAVOK 09/01 Q1015 NOSIG=
201205090450 METAR ESSA 090450Z 16011KT CAVOK 09/02 Q1015 NOSIG=
201205090420 METAR ESSA 090420Z 14011KT CAVOK 07/02 Q1016 NOSIG=
201205090350 METAR ESSA 090350Z 14011KT CAVOK 07/02 Q1016 NOSIG=
201205090320 METAR ESSA 090320Z 14010KT CAVOK 06/02 Q1016 NOSIG=
201205090250 METAR ESSA 090250Z 14009KT CAVOK 05/02 Q1016 NOSIG=
201205090220 METAR ESSA 090220Z 13008KT CAVOK 06/02 Q1017 NOSIG=
201205090150 METAR ESSA 090150Z 14009KT CAVOK 06/02 Q1017 NOSIG=
201205090120 METAR ESSA 090120Z 14008KT CAVOK 06/02 Q1017 NOSIG=
201205090050 METAR ESSA 090050Z 14008KT CAVOK 05/02 Q1017 NOSIG=
201205090020 METAR ESSA 090020Z 13007KT CAVOK 05/02 Q1018 NOSIG=
201205082350 METAR ESSA 082350Z 13008KT CAVOK 05/02 Q1018 NOSIG=
201205082320 METAR ESSA 082320Z 13009KT CAVOK 06/02 Q1018 NOSIG=
201205082250 METAR ESSA 082250Z 14009KT CAVOK 05/02 Q1018 NOSIG=
201205082220 METAR ESSA 082220Z 13008KT CAVOK 06/02 Q1018 NOSIG=
201205082150 METAR ESSA 082150Z 13008KT CAVOK 06/02 Q1018 NOSIG=
201205082120 METAR ESSA 082120Z 13007KT CAVOK 06/01 Q1018 NOSIG=
201205082050 METAR ESSA 082050Z 13006KT CAVOK 07/01 Q1018 NOSIG=
201205082020 METAR ESSA 082020Z 13007KT CAVOK 08/01 Q1018 NOSIG=
201205081950 METAR ESSA 081950Z 14007KT CAVOK 09/01 Q1018 NOSIG=
201205081920 METAR ESSA 081920Z 16009KT CAVOK 09/01 Q1018 NOSIG=
201205081850 METAR ESSA 081850Z 16010KT CAVOK 10/M00 Q1018 NOSIG=
201205081820 METAR ESSA 081820Z 16014KT CAVOK 11/M03 Q1018 NOSIG=
201205081750 METAR ESSA 081750Z 16013KT CAVOK 12/M02 Q1018 NOSIG=
201205081720 METAR ESSA 081720Z 16015KT CAVOK 12/M03 Q1018 NOSIG=
201205081650 METAR ESSA 081650Z 16015KT CAVOK 13/M03 Q1018 NOSIG=
201205081620 METAR ESSA 081620Z 16015KT CAVOK 14/M03 Q1018 NOSIG=
201205081550 METAR COR ESSA 081550Z 16014KT CAVOK 14/M05 Q1018 NOSIG=
201205081520 METAR ESSA 081520Z 16014KT CAVOK 14/M04 Q1018 NOSIG=
201205081450 METAR ESSA 081450Z 18013KT CAVOK 14/M04 Q1018 NOSIG=
201205081420 METAR ESSA 081420Z 15014KT 120V190 CAVOK 15/M04 Q1018 NOSIG=
201205081350 METAR ESSA 081350Z 15012KT CAVOK 15/M04 Q1018 NOSIG=
201205081320 METAR ESSA 081320Z 20013KT CAVOK 15/M04 Q1019 NOSIG=
201205081250 METAR ESSA 081250Z 16011KT CAVOK 15/M03 Q1019 NOSIG=
201205081220 METAR ESSA 081220Z 18013KT CAVOK 15/M03 Q1019 NOSIG=
201205081150 METAR ESSA 081150Z 22010KT 180V240 CAVOK 14/M04 Q1019 NOSIG=
201205081120 METAR ESSA 081120Z 22009KT 160V250 CAVOK 14/M04 Q1019 NOSIG=
201205081050 METAR ESSA 081050Z 22010KT CAVOK 14/M03 Q1019 NOSIG=
201205081020 METAR ESSA 081020Z 21008KT 160V250 CAVOK 14/M04 Q1020 NOSIG=
201205080950 METAR ESSA 080950Z 21009KT 180V250 CAVOK 14/M04 Q1020=
201205080920 METAR ESSA 080920Z 22009KT 160V240 CAVOK 13/M04 Q1020=
201205080850 METAR ESSA 080850Z 23009KT 190V260 CAVOK 13/M04 Q1020=
201205080820 METAR ESSA 080820Z 23010KT CAVOK 12/M03 Q1020=
201205080750 METAR ESSA 080750Z 22008KT CAVOK 12/M02 Q1020=
201205080720 METAR ESSA 080720Z 23008KT CAVOK 11/M01 Q1020=
201205080650 METAR ESSA 080650Z 22006KT 180V240 CAVOK 10/00 Q1020=
201205080620 METAR ESSA 080620Z 25004KT CAVOK 10/01 Q1019=
201205080550 METAR ESSA 080550Z 19004KT CAVOK 08/01 Q1019=
201205080520 METAR ESSA 080520Z 25005KT CAVOK 07/01 Q1019=
201205080450 METAR ESSA 080450Z 21005KT CAVOK 06/M00 Q1019=
201205080420 METAR ESSA 080420Z 23003KT CAVOK 05/M01 Q1019=
201205080350 METAR ESSA 080350Z 22004KT CAVOK 03/M01 Q1019=
201205080320 METAR ESSA 080320Z 26003KT CAVOK 01/M02 Q1018=
201205080250 METAR ESSA 080250Z 25004KT CAVOK 01/M02 Q1018=
201205080220 METAR ESSA 080220Z 23006KT CAVOK 03/M02 Q1018=
201205080150 METAR ESSA 080150Z 25004KT CAVOK 03/M02 Q1018=
201205080120 METAR ESSA 080120Z 26005KT CAVOK 04/M02 Q1018=
201205080050 METAR ESSA 080050Z 25006KT CAVOK 04/M01 Q1018=
201205080020 METAR ESSA 080020Z 23005KT CAVOK 04/M02 Q1018=
201205072350 METAR ESSA 072350Z 26005KT CAVOK 04/M01 Q1017=
201205072320 METAR ESSA 072320Z 23005KT CAVOK 04/M01 Q1017=
201205072250 METAR ESSA 072250Z 21005KT CAVOK 05/M01 Q1017=
201205072220 METAR ESSA 072220Z 21004KT CAVOK 05/M02 Q1017=
201205072150 METAR ESSA 072150Z 20005KT CAVOK 06/M02 Q1017=
201205072120 METAR ESSA 072120Z 20005KT CAVOK 07/M02 Q1016=
201205072050 METAR ESSA 072050Z 18007KT CAVOK 07/M03 Q1016=
201205072020 METAR ESSA 072020Z 18006KT CAVOK 08/M03 Q1016=
201205071950 METAR ESSA 071950Z 18007KT CAVOK 08/M03 Q1016=
201205071920 METAR ESSA 071920Z 19007KT CAVOK 09/M02 Q1016=
201205071850 METAR ESSA 071850Z 21009KT CAVOK 10/M02 Q1015=
201205071820 METAR ESSA 071820Z 20009KT CAVOK 12/M04 Q1015=
201205071750 METAR ESSA 071750Z 23008KT CAVOK 12/M04 Q1015=
201205071720 METAR ESSA 071720Z 23008KT CAVOK 12/M05 Q1015=
201205071650 METAR ESSA 071650Z 24009KT CAVOK 12/M05 Q1014=
201205071620 METAR ESSA 071620Z 25011KT CAVOK 13/M05 Q1014=
201205071550 METAR ESSA 071550Z 24010KT 200V260 CAVOK 13/M05 Q1014=
201205071520 METAR ESSA 071520Z 24011KT 200V270 CAVOK 13/M07 Q1014=
201205071450 METAR ESSA 071450Z 22010KT 180V270 CAVOK 14/M07 Q1014=
201205071420 METAR ESSA 071420Z 21010KT 180V240 CAVOK 13/M07 Q1014=
201205071350 METAR ESSA 071350Z 23009KT 170V270 CAVOK 14/M07 Q1014=
201205071320 METAR ESSA 071320Z 21008KT 180V250 CAVOK 13/M07 Q1014=
201205071250 METAR ESSA 071250Z 23010KT CAVOK 14/M06 Q1014=
201205071220 METAR ESSA 071220Z 26012KT CAVOK 14/M07 Q1014=
201205071150 METAR ESSA 071150Z 23010KT 190V250 CAVOK 13/M07 Q1014=
201205071120 METAR ESSA 071120Z 20010KT 170V240 CAVOK 14/M07 Q1014=
201205071050 METAR ESSA 071050Z 21010KT 180V250 CAVOK 13/M08 Q1014=
201205071020 METAR ESSA 071020Z 19009KT 070V230 CAVOK 12/M09 Q1014 NOSIG=
201205070950 METAR ESSA 070950Z 23010KT 180V270 CAVOK 13/M08 Q1014 NOSIG=
201205070920 METAR ESSA 070920Z 24008KT 200V260 CAVOK 12/M09 Q1014 NOSIG=
201205070850 METAR ESSA 070850Z 23009KT 190V260 CAVOK 12/M08 Q1014 NOSIG=
201205070820 METAR ESSA 070820Z 20008KT 170V230 CAVOK 12/M09 Q1014 NOSIG=
201205070750 METAR ESSA 070750Z 16006KT 140V210 CAVOK 11/M07 Q1014 NOSIG=
201205070720 METAR ESSA 070720Z 20006KT 160V220 CAVOK 11/M09 Q1014 NOSIG=
201205070650 METAR ESSA 070650Z 17005KT CAVOK 11/M08 Q1014 NOSIG=
201205070620 METAR ESSA 070620Z 16005KT CAVOK 10/M07 Q1014 NOSIG=
201205070550 METAR ESSA 070550Z 18003KT 150V220 CAVOK 08/M04 Q1014 NOSIG=
201205070520 METAR ESSA 070520Z VRB01KT CAVOK 05/M00 Q1013 NOSIG=
201205070450 METAR ESSA 070450Z VRB01KT CAVOK 04/M01 Q1013 NOSIG=
201205070420 METAR ESSA 070420Z 19001KT CAVOK 02/M01 Q1013 NOSIG=
201205070350 METAR ESSA 070350Z 23002KT CAVOK M01/M03 Q1013 NOSIG=
201205070320 METAR ESSA 070320Z 23003KT CAVOK M03/M04 Q1013 NOSIG=
201205070250 METAR ESSA 070250Z 24002KT CAVOK M02/M04 Q1012 NOSIG=
201205070220 METAR ESSA 070220Z 25003KT CAVOK M03/M04 Q1012 NOSIG=
201205070150 METAR ESSA 070150Z 36001KT CAVOK M02/M04 Q1012 NOSIG=
201205070120 METAR ESSA 070120Z 01001KT CAVOK M02/M04 Q1012 NOSIG=
201205070050 METAR ESSA 070050Z 21001KT CAVOK M01/M04 Q1012 NOSIG=
201205070020 METAR ESSA 070020Z 03001KT CAVOK M01/M04 Q1012 NOSIG=
201205062350 METAR ESSA 062350Z 03001KT CAVOK M01/M04 Q1011 NOSIG=
201205062320 METAR ESSA 062320Z 34002KT CAVOK M01/M04 Q1011 NOSIG=
201205062250 METAR ESSA 062250Z 19001KT CAVOK 00/M04 Q1011 NOSIG=
201205062220 METAR ESSA 062220Z 36002KT CAVOK M00/M04 Q1011 NOSIG=
201205062150 METAR ESSA 062150Z 36004KT CAVOK 00/M03 Q1010 NOSIG=
201205062120 METAR ESSA 062120Z 03005KT CAVOK 02/M03 Q1010 NOSIG=
201205062050 METAR ESSA 062050Z 03006KT CAVOK 03/M04 Q1010 NOSIG=
201205062020 METAR ESSA 062020Z 03005KT CAVOK 04/M04 Q1010 NOSIG=
201205061950 METAR ESSA 061950Z 04006KT CAVOK 06/M05 Q1010 NOSIG=
201205061920 METAR ESSA 061920Z 35005KT 320V050 CAVOK 08/M06 Q1009 NOSIG=
201205061850 METAR ESSA 061850Z 34006KT CAVOK 10/M08 Q1009 NOSIG=
201205061820 METAR ESSA 061820Z 34007KT CAVOK 11/M08 Q1008 NOSIG=
201205061750 METAR ESSA 061750Z 32009KT CAVOK 12/M08 Q1008 NOSIG=
201205061720 METAR ESSA 061720Z 28007KT 250V320 CAVOK 12/M08 Q1008 NOSIG=
201205061650 METAR ESSA 061650Z 26009KT CAVOK 13/M08 Q1007 NOSIG=
201205061620 METAR ESSA 061620Z 24007KT 200V280 CAVOK 13/M07 Q1007 NOSIG=
201205061550 METAR ESSA 061550Z 25008KT 220V280 CAVOK 13/M07 Q1007 NOSIG=
201205061520 METAR ESSA 061520Z 25008KT CAVOK 12/M07 Q1007 NOSIG=
201205061450 METAR ESSA 061450Z 28007KT 240V310 CAVOK 13/M08 Q1007 NOSIG=
201205061420 METAR ESSA 061420Z 28009KT 240V310 CAVOK 12/M09 Q1007 NOSIG=
201205061350 METAR ESSA 061350Z 25011KT CAVOK 12/M06 Q1007 NOSIG=
201205061320 METAR ESSA 061320Z 25009KT CAVOK 12/M05 Q1007 NOSIG=
201205061250 METAR ESSA 061250Z 24011KT CAVOK 12/M04 Q1007 NOSIG=
201205061220 METAR ESSA 061220Z 24009KT CAVOK 12/M02 Q1007 NOSIG=
201205061150 METAR ESSA 061150Z 25009KT CAVOK 11/M03 Q1007 NOSIG=
201205061120 METAR ESSA 061120Z 19012KT CAVOK 11/M02 Q1007 NOSIG=
201205061050 METAR ESSA 061050Z 23011KT 190V250 CAVOK 12/M03 Q1007 NOSIG=
201205061020 METAR ESSA 061020Z 25012KT CAVOK 12/M02 Q1007 NOSIG=
201205060950 METAR ESSA 060950Z 24010KT 9999 FEW048 BKN150 11/M01 Q1007
                        NOSIG=
201205060920 METAR ESSA 060920Z 24012KT 9999 FEW045 BKN150 11/M00 Q1007
                        NOSIG=
201205060850 METAR COR ESSA 060850Z 22012KT 9999 FEW044 SCT160 10/M01
                        Q1007 NOSIG=
201205060820 METAR ESSA 060820Z 22010KT 9999 FEW044 SCT160 10/M01 Q1007
                        NOSIG=
201205060750 METAR ESSA 060750Z 20009KT CAVOK 10/M00 Q1006 NOSIG=
201205060720 METAR ESSA 060720Z 18009KT CAVOK 09/M00 Q1006 NOSIG=
201205060650 METAR ESSA 060650Z 19007KT CAVOK 08/01 Q1006 NOSIG=
201205060620 METAR ESSA 060620Z 22006KT CAVOK 08/01 Q1006 NOSIG=
201205060550 METAR ESSA 060550Z 21006KT CAVOK 07/02 Q1006 NOSIG=
201205060520 METAR ESSA 060520Z 21006KT CAVOK 06/02 Q1006 NOSIG=
201205060450 METAR ESSA 060450Z 21006KT CAVOK 05/02 Q1006 NOSIG=
201205060420 METAR ESSA 060420Z 22006KT CAVOK 04/01 Q1005 NOSIG=
201205060350 METAR ESSA 060350Z 19005KT CAVOK 03/01 Q1005 NOSIG=
201205060320 METAR ESSA 060320Z 18005KT CAVOK 01/M00 Q1005 NOSIG=
201205060250 METAR ESSA 060250Z 17005KT CAVOK 01/M00 Q1005 NOSIG=
201205060220 METAR ESSA 060220Z 19003KT CAVOK 02/M00 Q1005 NOSIG=
201205060150 METAR ESSA 060150Z 17004KT CAVOK 02/M01 Q1005 NOSIG=
201205060120 METAR ESSA 060120Z 16003KT CAVOK 01/M01 Q1004 NOSIG=
201205060050 METAR ESSA 060050Z 18003KT CAVOK 02/M01 Q1004 NOSIG=
201205060020 METAR ESSA 060020Z 25004KT CAVOK 03/M01 Q1004 NOSIG=
201205052350 METAR ESSA 052350Z 26006KT CAVOK 03/M01 Q1004 NOSIG=
201205052320 METAR ESSA 052320Z 25007KT CAVOK 04/M00 Q1003 NOSIG=
201205052250 METAR ESSA 052250Z 26007KT CAVOK 04/M00 Q1003 NOSIG=
201205052220 METAR ESSA 052220Z 26008KT CAVOK 05/M00 Q1003 NOSIG=
201205052150 METAR ESSA 052150Z 26010KT CAVOK 05/M00 Q1002 NOSIG=
201205052120 METAR ESSA 052120Z 26009KT CAVOK 05/M00 Q1002 NOSIG=
201205052050 METAR ESSA 052050Z 27010KT CAVOK 06/00 Q1001 NOSIG=
201205052020 METAR ESSA 052020Z 25012KT CAVOK 06/00 Q1001 NOSIG=
201205051950 METAR ESSA 051950Z 27014KT CAVOK 07/00 Q1000 NOSIG=
201205051920 METAR ESSA 051920Z 26015KT CAVOK 07/01 Q1000 NOSIG=
201205051850 METAR ESSA 051850Z 27014KT 9999 FEW040 08/01 Q0999 NOSIG=
201205051820 METAR ESSA 051820Z 26019KT 9999 BKN040 08/01 Q0998 NOSIG=
201205051750 METAR ESSA 051750Z 25019KT 9999 BKN040 08/01 Q0998 NOSIG=
201205051720 METAR ESSA 051720Z 25020G30KT 9999 BKN035 08/01 Q0997 NOSIG=
201205051650 METAR ESSA 051650Z 25023KT 9999 BKN040 08/01 Q0997 NOSIG=
201205051620 METAR ESSA 051620Z 25024KT 9999 BKN040 08/01 Q0996 NOSIG=
201205051550 METAR ESSA 051550Z 25026KT 9999 BKN040 09/00 Q0996 NOSIG=
201205051520 METAR ESSA 051520Z 24020G30KT 9999 SCT035 10/03 Q0995 NOSIG=
201205051450 METAR ESSA 051450Z 24021KT 9999 SHRA FEW038 BKN045 11/02
                        Q0995 NOSIG=
201205051420 METAR ESSA 051420Z 24019KT CAVOK 11/M01 Q0994 NOSIG=
201205051350 METAR ESSA 051350Z 23018KT CAVOK 12/M02 Q0994 NOSIG=
201205051320 METAR ESSA 051320Z 23019KT CAVOK 12/M03 Q0994 NOSIG=
201205051250 METAR ESSA 051250Z 23021G32KT CAVOK 12/M03 Q0993 NOSIG=
201205051220 METAR ESSA 051220Z 22020G30KT CAVOK 13/M03 Q0993 NOSIG=
201205051150 METAR ESSA 051150Z 24017KT CAVOK 14/00 Q0993 NOSIG=
201205051120 METAR ESSA 051120Z 20016KT 9999 SCT045 13/02 Q0993 NOSIG=
201205051050 METAR ESSA 051050Z 23017KT 9999 SCT037 12/03 Q0993 NOSIG=
201205051020 METAR ESSA 051020Z 21015KT 9999 SCT032 12/05 Q0993 NOSIG=
201205050950 METAR ESSA 050950Z 20010KT 9999 SCT017 11/08 Q0993 NOSIG=
201205050920 METAR ESSA 050920Z 22010KT 9999 BKN011 09/07 Q0993 BECMG
                        BKN020=
201205050850 METAR COR ESSA 050850Z 20009KT 9999 BKN008 09/07 Q0993 BECMG
                        BKN020=
201205050820 METAR COR ESSA 050820Z 19008KT 9999 BKN007 08/07 Q0993 BECMG
                        BKN020=
201205050750 METAR ESSA 050750Z 19007KT 9999 BKN005 08/07 Q0992 BECMG
                        SCT005=
201205050720 METAR ESSA 050720Z 23008KT 7000 BR BKN004 08/07 Q0993 BECMG
                        SCT004=
201205050650 METAR ESSA 050650Z 20008KT 6000 BR BKN003 08/07 Q0993 BECMG
                        SCT003=
201205050620 METAR ESSA 050620Z 18004KT 5000 BR BKN003 07/07 Q0992 BECMG
                        SCT003=
201205050550 METAR ESSA 050550Z 20003KT 160V330 2000 BKN002 07/07 Q0992
                        BECMG 8000=
201205050520 METAR ESSA 050520Z 18003KT 0800 R01L/P1500N R19R/0550V0800N
                        R01R/0600V0800N R19L/0700N FG BKN002
                        07/07 Q0993 NOSIG=
201205050450 METAR ESSA 050450Z 22004KT 0800 R01L/0700N R19R/0700N R01R/0450N
                        R19L/0900VP1500D FG BKN002 07/07
                        Q0993 NOSIG=
201205050420 METAR ESSA 050420Z 20003KT 1000 FG BKN002 07/07 Q0993 NOSIG=
201205050350 METAR ESSA 050350Z 14003KT 1000 R01L/P1500N R19R/0700N R01R/0600N
                        R19L/0700N FG BKN002 07/06 Q0993
                        NOSIG=
201205050320 METAR ESSA 050320Z 10002KT 1000 R01L/P1500N R19R/0750N R01R/0750N
                        R19L/0700N FG BKN002 06/06 Q0993
                        NOSIG=
201205050250 METAR ESSA 050250Z VRB01KT 1000 FG BKN002 06/06 Q0993 NOSIG=
201205050220 METAR ESSA 050220Z NIL=
201205050150 METAR ESSA 050150Z VRB01KT 5000 R01L/P1500N R19R/1100D R01R/P1500N
                        R19L/P1500N BR BKN002 06/06 Q0994
                        NOSIG=
201205050120 METAR ESSA 050120Z 33001KT 5000 R01L/P1500N R19R/1400N R01R/1100N
                        R19L/P1500N BR BKN002 06/06 Q0994
                        NOSIG=
201205050050 METAR ESSA 050050Z 34001KT 5000 R01L/P1500N R19R/P1500N R01R/P1500N
                        R19L/P1500N BR BKN002 06/06 Q0994
                        NOSIG=
201205050020 METAR ESSA 050020Z 07002KT 5000 R01L/P1500N R19R/P1500N R01R/P1500N
                        R19L/P1500N BR BKN002 06/06 Q0994
                        NOSIG=
201205042350 METAR ESSA 042350Z VRB01KT 5000 BR BKN002 06/06 Q0994 NOSIG=
201205042320 METAR ESSA 042320Z 09004KT 5000 BR BKN002 06/06 Q0994 TEMPO
                        BKN005=
201205042250 METAR ESSA 042250Z 10004KT 5000 BR BKN002 06/06 Q0995 TEMPO
                        BKN005=
201205042220 METAR ESSA 042220Z 09004KT 5000 BR BKN003 06/06 Q0995 TEMPO
                        BKN005=
201205042150 METAR ESSA 042150Z 10004KT 5000 BR BKN003 06/06 Q0995 TEMPO
                        BKN005=
201205042120 METAR ESSA 042120Z 09004KT 5000 -DZ BR BKN003 07/06 Q0996
                        TEMPO BKN005=
201205042050 METAR ESSA 042050Z 09005KT 4000 -DZ BR BKN004 07/06 Q0996
                        TEMPO BKN005=
201205042020 METAR ESSA 042020Z 09005KT 9999 BKN009 07/06 Q0996 NOSIG=
201205041950 METAR ESSA 041950Z 10007KT 9999 BKN016 07/06 Q0996 BECMG
                        BKN008=
201205041920 METAR ESSA 041920Z 10007KT 9999 BKN018 07/06 Q0997 NOSIG=
201205041850 METAR ESSA 041850Z 11007KT 9999 BKN024 07/06 Q0997 NOSIG=
201205041820 METAR ESSA 041820Z 11009KT 9999 FEW035CB BKN050 07/06 Q0997
                        NOSIG=
201205041750 METAR ESSA 041750Z 11007KT 9999 -SHRA FEW035CB BKN040 08/05
                        Q0997 NOSIG=
201205041720 METAR ESSA 041720Z 10007KT 9999 BKN040 08/05 Q0997 NOSIG=
201205041650 METAR ESSA 041650Z 13007KT 9999 -SHRA FEW035CB BKN037 08/05
                        Q0998 NOSIG=
201205041620 METAR ESSA 041620Z 12008KT 9999 -SHRA FEW035CB BKN037 09/04
                        Q0998 NOSIG=
201205041550 METAR ESSA 041550Z 12009KT 9999 FEW033 SCT044 BKN098 10/02
                        Q0998=
201205041520 METAR ESSA 041520Z 11008KT CAVOK 10/02 Q0999=
201205041450 METAR ESSA 041450Z 13010KT CAVOK 09/02 Q0999=
201205041420 METAR ESSA 041420Z 11013KT CAVOK 09/02 Q0999=
201205041350 METAR ESSA 041350Z 12013KT CAVOK 10/01 Q1000=
201205041320 METAR ESSA 041320Z 13013KT CAVOK 11/00 Q1000=
201205041250 METAR ESSA 041250Z 11012KT CAVOK 11/01 Q1000=
201205041220 METAR ESSA 041220Z 11013KT CAVOK 11/00 Q1000=
201205041150 METAR ESSA 041150Z 12013KT CAVOK 11/M00 Q1001=
201205041120 METAR ESSA 041120Z 13014KT CAVOK 10/M00 Q1001=
201205041050 METAR ESSA 041050Z 12015KT CAVOK 10/M01 Q1002=
201205041020 METAR ESSA 041020Z 13016KT CAVOK 10/M01 Q1002=
201205040950 METAR ESSA 040950Z 13017KT CAVOK 10/M01 Q1003=
201205040920 METAR ESSA 040920Z 12016KT CAVOK 10/M01 Q1003=
201205040850 METAR ESSA 040850Z 12015KT CAVOK 10/M01 Q1004=
201205040820 METAR ESSA 040820Z 11014KT CAVOK 09/M01 Q1004=
201205040750 METAR ESSA 040750Z 12013KT CAVOK 08/M00 Q1005=
201205040720 METAR ESSA 040720Z 13013KT CAVOK 07/M00 Q1005=
201205040650 METAR ESSA 040650Z 10012KT CAVOK 07/M01 Q1005=
201205040620 METAR ESSA 040620Z NIL=
201205040550 METAR ESSA 040550Z 09011KT CAVOK 06/M02 Q1006 NOSIG=
201205040520 METAR ESSA 040520Z 09009KT CAVOK 05/M01 Q1006 NOSIG=
201205040450 METAR ESSA 040450Z 11009KT CAVOK 05/M01 Q1006 NOSIG=
201205040420 METAR ESSA 040420Z 11008KT CAVOK 05/M01 Q1007 NOSIG=
201205040350 METAR ESSA 040350Z 09008KT CAVOK 05/M01 Q1007 NOSIG=
201205040320 METAR ESSA 040320Z 08008KT CAVOK 05/M01 Q1007 NOSIG=
201205040250 METAR ESSA 040250Z 08008KT CAVOK 05/M01 Q1007 NOSIG=
201205040220 METAR ESSA 040220Z 08007KT CAVOK 04/M01 Q1008 NOSIG=
201205040150 METAR ESSA 040150Z 08006KT CAVOK 04/M01 Q1008 NOSIG=
201205040120 METAR ESSA 040120Z 05006KT 9999 FEW043 BKN070 05/M01 Q1008
                        NOSIG=
201205040050 METAR ESSA 040050Z 03006KT 9999 FEW035 BKN050 04/M01 Q1009
                        NOSIG=
201205040020 METAR ESSA 040020Z 08004KT CAVOK 05/M01 Q1009 NOSIG=
201205032350 METAR ESSA 032350Z 09004KT CAVOK 05/M02 Q1009 NOSIG=
201205032320 METAR ESSA 032320Z 12003KT CAVOK 05/M02 Q1010 NOSIG=
201205032250 METAR ESSA 032250Z 14002KT CAVOK 05/M02 Q1010 NOSIG=
201205032220 METAR ESSA 032220Z 14003KT CAVOK 05/M02 Q1010 NOSIG=
201205032150 METAR ESSA 032150Z 13004KT CAVOK 05/M03 Q1010 NOSIG=
201205032120 METAR ESSA 032120Z 13003KT CAVOK 05/M02 Q1010 NOSIG=
201205032050 METAR ESSA 032050Z 14004KT CAVOK 05/M03 Q1010 NOSIG=
201205032020 METAR ESSA 032020Z 12004KT CAVOK 05/M02 Q1010 NOSIG=
201205031950 METAR ESSA 031950Z 13005KT CAVOK 06/M02 Q1010 NOSIG=
201205031920 METAR ESSA 031920Z 14006KT CAVOK 06/M02 Q1010 NOSIG=
201205031850 METAR ESSA 031850Z 13006KT CAVOK 07/M01 Q1010 NOSIG=
201205031820 METAR ESSA 031820Z 13007KT CAVOK 07/M02 Q1010 NOSIG=
201205031750 METAR ESSA 031750Z 13008KT CAVOK 08/M01 Q1011 NOSIG=
201205031720 METAR ESSA 031720Z 12010KT CAVOK 09/M03 Q1011 NOSIG=
201205031650 METAR ESSA 031650Z 09010KT CAVOK 09/M02 Q1011 NOSIG=
201205031620 METAR ESSA 031620Z 13010KT CAVOK 09/M01 Q1011 NOSIG=
201205031550 METAR ESSA 031550Z 13010KT CAVOK 10/M01 Q1011 NOSIG=
201205031520 METAR ESSA 031520Z 12013KT CAVOK 11/M00 Q1011 NOSIG=
201205031450 METAR ESSA 031450Z 16011KT CAVOK 13/M02 Q1011 NOSIG=
201205031420 METAR ESSA 031420Z 33004KT 270V010 CAVOK 12/M01 Q1011 NOSIG=
201205031350 METAR ESSA 031350Z VRB04KT CAVOK 12/M02 Q1011 NOSIG=
201205031320 METAR ESSA 031320Z 30007KT 170V340 CAVOK 14/M01 Q1011 NOSIG=
201205031250 METAR ESSA 031250Z 34005KT CAVOK 13/M01 Q1011 NOSIG=
201205031220 METAR ESSA 031220Z 32008KT 290V350 CAVOK 12/M02 Q1012 NOSIG=
201205031150 METAR ESSA 031150Z 31006KT 230V360 CAVOK 12/M02 Q1012 NOSIG=
201205031120 METAR ESSA 031120Z 35006KT 320V040 CAVOK 12/M01 Q1012 NOSIG=
201205031050 METAR ESSA 031050Z 33005KT 260V030 CAVOK 11/M02 Q1012 NOSIG=
201205031020 METAR ESSA 031020Z 34008KT CAVOK 11/M02 Q1012 NOSIG=
201205030950 METAR ESSA 030950Z 34008KT 300V030 CAVOK 11/M02 Q1012 NOSIG=
201205030920 METAR ESSA 030920Z 03009KT 360V070 CAVOK 10/M02 Q1013 NOSIG=
201205030850 METAR ESSA 030850Z 01009KT 330V040 CAVOK 10/M02 Q1013 NOSIG=
201205030820 METAR ESSA 030820Z 01009KT CAVOK 10/M01 Q1013 NOSIG=
201205030750 METAR ESSA 030750Z 02008KT 350V060 CAVOK 09/M01 Q1013 NOSIG=
201205030720 METAR ESSA 030720Z 06008KT 010V080 CAVOK 09/M01 Q1013 NOSIG=
201205030650 METAR ESSA 030650Z 06006KT 360V080 CAVOK 08/M01 Q1013 NOSIG=
201205030620 METAR ESSA 030620Z 03011KT CAVOK 08/M01 Q1013 NOSIG=
201205030550 METAR ESSA 030550Z 03010KT CAVOK 07/M01 Q1013 NOSIG=
201205030520 METAR ESSA 030520Z 03009KT CAVOK 07/M01 Q1013 NOSIG=
201205030450 METAR ESSA 030450Z 06008KT CAVOK 07/M00 Q1013 NOSIG=
201205030420 METAR ESSA 030420Z 06007KT CAVOK 06/M00 Q1013 NOSIG=
201205030350 METAR ESSA 030350Z 05007KT CAVOK 05/M00 Q1013 NOSIG=
201205030320 METAR ESSA 030320Z 04007KT CAVOK 05/M00 Q1013 NOSIG=
201205030250 METAR ESSA 030250Z 04007KT CAVOK 04/M00 Q1013 NOSIG=
201205030220 METAR ESSA 030220Z 03006KT CAVOK 05/M01 Q1013 NOSIG=
201205030150 METAR ESSA 030150Z 04006KT CAVOK 05/M01 Q1013 NOSIG=
201205030120 METAR ESSA 030120Z 04006KT CAVOK 06/M01 Q1013 NOSIG=
201205030050 METAR ESSA 030050Z 04007KT CAVOK 06/M00 Q1013 NOSIG=
201205030020 METAR ESSA 030020Z 03008KT CAVOK 05/M00 Q1013 NOSIG=
201205022350 METAR ESSA 022350Z 02007KT CAVOK 04/00 Q1013 NOSIG=
201205022320 METAR ESSA 022320Z 35004KT CAVOK 03/01 Q1013 NOSIG=
201205022250 METAR ESSA 022250Z 35004KT CAVOK 04/01 Q1013 NOSIG=
201205022220 METAR ESSA 022220Z 35003KT CAVOK 05/01 Q1013 NOSIG=
201205022150 METAR ESSA 022150Z 07004KT CAVOK 07/01 Q1013 NOSIG=
201205022120 METAR ESSA 022120Z 07004KT 9999 SCT001 08/00 Q1013 NOSIG=
201205022050 METAR ESSA 022050Z 07005KT CAVOK 09/00 Q1013 NOSIG=
201205022020 METAR ESSA 022020Z 06005KT CAVOK 09/01 Q1013 NOSIG=
201205021950 METAR ESSA 021950Z 07006KT CAVOK 10/02 Q1013 NOSIG=
201205021920 METAR ESSA 021920Z 09005KT CAVOK 12/01 Q1013 NOSIG=
201205021850 METAR ESSA 021850Z 09006KT CAVOK 12/00 Q1013 NOSIG=
201205021820 METAR ESSA 021820Z 10004KT CAVOK 13/00 Q1013 NOSIG=
201205021750 METAR ESSA 021750Z 15005KT 100V170 CAVOK 14/M00 Q1013 NOSIG=
201205021720 METAR ESSA 021720Z 14007KT CAVOK 15/00 Q1013 NOSIG=
201205021650 METAR ESSA 021650Z 15009KT CAVOK 15/M00 Q1013 NOSIG=
201205021620 METAR ESSA 021620Z 13010KT CAVOK 20/M01 Q1013 NOSIG=
201205021550 METAR ESSA 021550Z 31007KT CAVOK 20/M01 Q1014 NOSIG=
201205021520 METAR ESSA 021520Z 32009KT CAVOK 20/M01 Q1014 NOSIG=
201205021450 METAR ESSA 021450Z 28010KT CAVOK 20/M00 Q1014 NOSIG=
201205021420 METAR ESSA 021420Z 29008KT 250V320 CAVOK 20/00 Q1014 NOSIG=
201205021350 METAR ESSA 021350Z 32007KT 280V360 CAVOK 20/03 Q1015 NOSIG=
201205021320 METAR ESSA 021320Z 27009KT 230V300 CAVOK 19/03 Q1015 NOSIG=
201205021250 METAR ESSA 021250Z 30008KT 260V330 CAVOK 19/02 Q1015 NOSIG=
201205021220 METAR ESSA 021220Z 25007KT 220V310 CAVOK 19/03 Q1015 NOSIG=
201205021150 METAR ESSA 021150Z 28007KT 230V320 CAVOK 18/04 Q1015 NOSIG=
201205021120 METAR ESSA 021120Z 26007KT 220V320 CAVOK 18/03 Q1016 NOSIG=
201205021050 METAR ESSA 021050Z 30009KT 260V330 CAVOK 18/03 Q1016 NOSIG=
201205021020 METAR ESSA 021020Z 27010KT CAVOK 17/04 Q1016 NOSIG=
201205020950 METAR ESSA 020950Z 29010KT CAVOK 16/04 Q1017 NOSIG=
201205020920 METAR ESSA 020920Z 24009KT CAVOK 16/03 Q1017 NOSIG=
201205020850 METAR ESSA 020850Z 29010KT CAVOK 15/03 Q1017 NOSIG=
201205020820 METAR ESSA 020820Z 23008KT CAVOK 15/03 Q1017 NOSIG=
201205020750 METAR ESSA 020750Z 23008KT CAVOK 13/03 Q1018 NOSIG=
201205020720 METAR ESSA 020720Z 26008KT CAVOK 12/03 Q1018 NOSIG=
201205020650 METAR ESSA 020650Z 24009KT CAVOK 11/03 Q1018 NOSIG=
201205020620 METAR ESSA 020620Z 25008KT CAVOK 10/03 Q1018 NOSIG=
201205020550 METAR ESSA 020550Z 23008KT CAVOK 09/02 Q1019 NOSIG=
201205020520 METAR ESSA 020520Z 23009KT CAVOK 08/02 Q1019 NOSIG=
201205020450 METAR ESSA 020450Z 23011KT CAVOK 07/01 Q1019 NOSIG=
201205020420 METAR ESSA 020420Z 22008KT CAVOK 05/01 Q1020 NOSIG=
201205020350 METAR ESSA 020350Z 22008KT CAVOK 04/00 Q1020 NOSIG=
201205020320 METAR ESSA 020320Z 22007KT CAVOK 03/M00 Q1020 NOSIG=
201205020250 METAR ESSA 020250Z 22007KT CAVOK 03/M01 Q1021 NOSIG=
201205020220 METAR ESSA 020220Z 22007KT CAVOK 03/M01 Q1021 NOSIG=
201205020150 METAR ESSA 020150Z 22008KT CAVOK 04/M01 Q1021 NOSIG=
201205020120 METAR ESSA 020120Z 22008KT CAVOK 04/M01 Q1022 NOSIG=
201205020050 METAR ESSA 020050Z 22008KT CAVOK 04/M02 Q1022 NOSIG=
201205020020 METAR ESSA 020020Z 19007KT CAVOK 04/M02 Q1022 NOSIG=
201205012350 METAR ESSA 012350Z 20007KT CAVOK 03/M02 Q1023 NOSIG=
201205012320 METAR ESSA 012320Z 21007KT CAVOK 04/M03 Q1023 NOSIG=
201205012250 METAR ESSA 012250Z 22006KT CAVOK 04/M02 Q1023 NOSIG=
201205012220 METAR ESSA 012220Z 19007KT CAVOK 04/M01 Q1024 NOSIG=
201205012150 METAR ESSA 012150Z 21008KT CAVOK 05/M00 Q1024 NOSIG=
201205012120 METAR ESSA 012120Z 19008KT CAVOK 05/M00 Q1024 NOSIG=
201205012050 METAR ESSA 012050Z 17006KT CAVOK 06/00 Q1024 NOSIG=
201205012020 METAR ESSA 012020Z 14007KT CAVOK 07/M00 Q1024 NOSIG=
201205011950 METAR ESSA 011950Z 15008KT CAVOK 07/M00 Q1024 NOSIG=
201205011920 METAR ESSA 011920Z 15008KT CAVOK 08/M00 Q1024 NOSIG=
201205011850 METAR ESSA 011850Z 14009KT CAVOK 09/00 Q1024 NOSIG=
201205011820 METAR ESSA 011820Z 14009KT CAVOK 10/M00 Q1024 NOSIG=
201205011750 METAR ESSA 011750Z 14008KT CAVOK 12/M00 Q1024 NOSIG=
201205011720 METAR ESSA 011720Z 10004KT 080V140 CAVOK 14/M03 Q1024 NOSIG=
201205011650 METAR ESSA 011650Z 11004KT 060V160 CAVOK 14/M03 Q1025 NOSIG=
201205011620 METAR ESSA 011620Z 09004KT 050V120 CAVOK 14/M02 Q1025 NOSIG=
201205011550 METAR ESSA 011550Z 11004KT 080V160 CAVOK 14/M02 Q1025 NOSIG=
201205011520 METAR ESSA 011520Z 33004KT 270V020 CAVOK 14/M02 Q1026 NOSIG=
201205011450 METAR ESSA 011450Z 35004KT 230V030 CAVOK 14/M02 Q1026 NOSIG=
201205011420 METAR ESSA 011420Z 05006KT 360V090 CAVOK 13/M03 Q1026 NOSIG=
201205011350 METAR ESSA 011350Z 08004KT 020V120 CAVOK 13/M02 Q1027 NOSIG=
201205011320 METAR ESSA 011320Z 03005KT 340V160 CAVOK 13/M02 Q1027 NOSIG=
201205011250 METAR ESSA 011250Z 05007KT 350V090 CAVOK 13/M02 Q1027 NOSIG=
201205011220 METAR ESSA 011220Z 03008KT 350V080 CAVOK 13/M02 Q1027 NOSIG=
201205011150 METAR ESSA 011150Z 02007KT 340V060 CAVOK 12/M03 Q1027 NOSIG=
201205011120 METAR ESSA 011120Z 04009KT 360V070 CAVOK 12/M02 Q1028 NOSIG=
201205011050 METAR ESSA 011050Z 02009KT 340V060 CAVOK 12/M03 Q1028 NOSIG=
201205011020 METAR ESSA 011020Z 36010KT 320V030 CAVOK 12/M02 Q1028 NOSIG=
201205010950 METAR ESSA 010950Z 02008KT 330V060 CAVOK 11/M02 Q1028 NOSIG=
201205010920 METAR ESSA 010920Z 03010KT CAVOK 10/M03 Q1028 NOSIG=
201205010850 METAR ESSA 010850Z 03010KT CAVOK 10/M02 Q1028 NOSIG=
201205010820 METAR ESSA 010820Z 01011KT CAVOK 10/M01 Q1028 NOSIG=
201205010750 METAR ESSA 010750Z 03011KT CAVOK 09/M01 Q1027 NOSIG=
201205010720 METAR ESSA 010720Z 36012KT CAVOK 09/M01 Q1027 NOSIG=
201205010650 METAR ESSA 010650Z 02015KT CAVOK 09/M01 Q1027 NOSIG=
201205010620 METAR ESSA 010620Z 36014KT CAVOK 08/M00 Q1027 NOSIG=
201205010550 METAR ESSA 010550Z 01014KT CAVOK 08/M00 Q1027 NOSIG=
201205010520 METAR ESSA 010520Z 36011KT CAVOK 07/00 Q1027 NOSIG=
201205010450 METAR ESSA 010450Z 36009KT CAVOK 06/00 Q1027 NOSIG=
201205010420 METAR ESSA 010420Z 35007KT CAVOK 06/00 Q1027 NOSIG=
201205010350 METAR ESSA 010350Z 36008KT CAVOK 05/00 Q1026 NOSIG=
201205010320 METAR ESSA 010320Z 35007KT CAVOK 05/00 Q1026 NOSIG=
201205010250 METAR ESSA 010250Z 35006KT CAVOK 05/01 Q1026 NOSIG=
201205010220 METAR ESSA 010220Z 35005KT CAVOK 06/01 Q1025 NOSIG=
201205010150 METAR ESSA 010150Z 03007KT CAVOK 06/00 Q1025 NOSIG=
201205010120 METAR ESSA 010120Z 02008KT CAVOK 07/00 Q1024 NOSIG=
201205010050 METAR ESSA 010050Z 03009KT CAVOK 07/M00 Q1024 NOSIG=
201205010020 METAR ESSA 010020Z 01011KT CAVOK 07/M00 Q1023 NOSIG=

# No short TAF reports from ESSA in databse.

###################################
#  large TAF from ESSA
###################################
201205312330 TAF ESSA 312330Z 0100/0124 36008KT 9999 SCT008 BKN018
                      PROB40 0100/0109 4500 BR BKN008
                      TEMPO 0109/0118 SHRA BKN012 BKN030CB=
201205311730 TAF ESSA 311730Z 3118/0118 22003KT 9999 FEW015 BKN060
                      PROB40 3118/3120 SHRA BKN014 BKN040CB
                      PROB40 3122/0109 4500 -RA BR BKN009
                      TEMPO 0109/0118 SHRA BKN012 BKN030CB
                      BECMG 0100/0103 36010KT=
201205311130 TAF ESSA 311130Z 3112/0112 18014KT 9999 FEW040CB
                      PROB40 3112/3119 SHRA BKN040CB
                      PROB40 3124/0109 4500 -RA BR BKN010=
201205310530 TAF ESSA 310530Z 3106/0106 17005KT CAVOK
                      TEMPO 3108/3119 SHRA BKN030CB
                      PROB40 3123/0106 4000 RA BR BKN010=
201205302330 TAF ESSA 302330Z 3100/3124 17005KT CAVOK
                      TEMPO 3109/3119 SHRA BKN030CB=
201205301730 TAF ESSA 301730Z 3018/3118 05008KT CAVOK
                      TEMPO 3110/3118 SHRA BKN030CB=
201205301130 TAF ESSA 301130Z 3012/3112 34008KT CAVOK
                      TEMPO 3110/3112 SHRA BKN030CB=
201205300530 TAF ESSA 300530Z 3006/3106 36010KT CAVOK
                      BECMG 3018/3020 17004KT
                      PROB30 3102/3106 SHRA BKN045CB=
201205292330 TAF ESSA 292330Z 3000/3024 VRB02KT CAVOK
                      BECMG 3003/3006 35010KT
                      BECMG 3018/3020 18004KT=
201205291730 TAF ESSA 291730Z 2918/3018 05010KT CAVOK
                      BECMG 2918/2920 15005KT
                      BECMG 3003/3006 35010KT=
201205291130 TAF ESSA 291130Z 2912/3012 03011KT CAVOK
                      BECMG 2913/2915 VRB02KT=
201205290530 TAF ESSA 290530Z 2906/3006 35014KT CAVOK=
201205282330 TAF ESSA 282330Z 2900/2924 35010KT CAVOK=
201205281730 TAF ESSA 281730Z 2818/2918 05010KT CAVOK
                      BECMG 2819/2821 35008KT=
201205281130 TAF ESSA 281130Z 2812/2912 02010KT CAVOK
                      TEMPO 2812/2815 RA=
201205280530 TAF ESSA 280530Z 2806/2906 28008KT CAVOK
                      BECMG 2806/2808 02015G25KT
                      TEMPO 2811/2816 SHRA BKN050CB
                      BECMG 2819/2821 02005KT=
201205272330 TAF ESSA 272330Z 2800/2824 22008KT CAVOK
                      BECMG 2806/2808 02015G25KT
                      TEMPO 2811/2816 SHRA BKN050CB
                      BECMG 2819/2821 02005KT=
201205271730 TAF ESSA 271730Z 2718/2818 24008KT CAVOK
                      BECMG 2805/2807 36012KT
                      TEMPO 2812/2816 SHRA BKN050CB=
201205271130 TAF ESSA 271130Z 2712/2812 08006KT CAVOK
                      BECMG 2717/2719 18010KT
                      BECMG 2804/2806 25010KT
                      BECMG 2807/2809 03015KT=
201205270530 TAF ESSA 270530Z 2706/2806 02007KT CAVOK
                      BECMG 2804/2806 22010KT=
201205262330 TAF ESSA 262330Z 2700/2724 35004KT CAVOK
                      PROB30 2700/2705 2000 BCFG
                      BECMG 2718/2720 19010KT=
201205261814 TAF COR ESSA 261814Z 2618/2718 02010KT CAVOK
                      BECMG 2715/2717 18005KT=
201205261730 TAF ESSA 261730Z 2618/2718 02010KT 9999 FEW040
                      BECMG 2715/2717 18005KT=
201205261130 TAF ESSA 261130Z 2612/2712 02013KT 9999 FEW040=
201205260530 TAF ESSA 260530Z 2606/2706 01010KT CAVOK=
201205252330 TAF ESSA 252330Z 2600/2624 35008KT CAVOK
                      PROB30 2600/2603 SHRA BKN040CB
                      PROB30 2602/2605 BKN010=
201205251730 TAF ESSA 251730Z 2518/2618 16008KT CAVOK
                      BECMG 2518/2520 25010KT
                      BECMG 2600/2602 35010KT
                      TEMPO 2523/2603 SHRA BKN040CB
                      PROB30 2602/2604 BKN010=
201205251422 TAF AMD ESSA 251422Z 2514/2612 12010KT CAVOK
                      BECMG 2518/2520 25010KT
                      BECMG 2600/2602 35010KT
                      TEMPO 2523/2603 SHRA BKN040CB
                      PROB30 2602/2604 BKN010=
201205251130 TAF ESSA 251130Z 2512/2612 06007KT CAVOK
                      BECMG 2518/2520 25010KT
                      BECMG 2600/2602 35010KT
                      TEMPO 2523/2603 SHRA BKN040CB
                      PROB30 2602/2604 BKN010=
201205250530 TAF ESSA 250530Z 2506/2606 VRB02KT CAVOK
                      TEMPO 2600/2603 SHRA BKN040CB=
201205242330 TAF ESSA 242330Z 2500/2524 VRB02KT CAVOK=
201205241730 TAF ESSA 241730Z 2418/2518 14009KT CAVOK=
201205241130 TAF ESSA 241130Z 2412/2512 16007KT CAVOK=
201205240530 TAF ESSA 240530Z 2406/2506 16005KT CAVOK=
201205232330 TAF ESSA 232330Z 2400/2424 07005KT CAVOK=
201205231730 TAF ESSA 231730Z 2318/2418 07008KT CAVOK=
201205231130 TAF ESSA 231130Z 2312/2412 03006KT CAVOK=
201205230530 TAF ESSA 230530Z 2306/2406 01008KT CAVOK=
201205222330 TAF ESSA 222330Z 2300/2324 01008KT CAVOK=
201205221730 TAF ESSA 221730Z 2218/2318 03012KT CAVOK=
201205221130 TAF ESSA 221130Z 2212/2312 02015KT CAVOK=
201205220530 TAF ESSA 220530Z 2206/2306 02014KT CAVOK=
201205212330 TAF ESSA 212330Z 2200/2224 01009KT CAVOK=
201205211730 TAF ESSA 211730Z 2118/2218 04010KT CAVOK=
201205211130 TAF ESSA 211130Z 2112/2212 05012KT 9999 FEW060TCU=
201205210530 TAF ESSA 210530Z 2106/2206 06008KT CAVOK=
201205202330 TAF ESSA 202330Z 2100/2124 08006KT CAVOK=
201205201730 TAF ESSA 201730Z 2018/2118 19007KT CAVOK=
201205201130 TAF ESSA 201130Z 2012/2112 21010KT CAVOK
                      BECMG 2021/2023 13006KT=
201205200530 TAF ESSA 200530Z 2006/2106 15008KT CAVOK
                      BECMG 2006/2008 23010KT=
201205192330 TAF ESSA 192330Z 2000/2024 15008KT CAVOK
                      BECMG 2006/2008 23010KT=
201205191730 TAF ESSA 191730Z 1918/2018 17012KT CAVOK
                      BECMG 2006/2008 23010KT=
201205191130 TAF ESSA 191130Z 1912/2012 17012KT CAVOK=
201205190530 TAF ESSA 190530Z 1906/2006 21005KT CAVOK
                      TEMPO 1910/1918 18015G25KT=
201205182330 TAF ESSA 182330Z 1900/1924 21006KT CAVOK=
201205181730 TAF ESSA 181730Z 1818/1918 26010KT CAVOK
                      BECMG 1820/1823 19005KT=
201205181130 TAF ESSA 181130Z 1812/1912 24014KT CAVOK
                      BECMG 1900/1903 18005KT=
201205180530 TAF ESSA 180530Z 1806/1906 24015KT 9999 BKN012
                      BECMG 1806/1808 BKN015=
201205180331 TAF AMD ESSA 180331Z 1803/1824 24010KT 9999 SCT012 BKN045
                      TEMPO 1803/1807 BKN012=
201205172330 TAF ESSA 172330Z 1800/1824 24006KT CAVOK=
201205172300 TAF AMD ESSA 180331Z 1803/1824 24010KT 9999 SCT012 BKN045
                      TEMPO 1803/1807 BKN012=
201205171730 TAF ESSA 171730Z 1718/1818 22006KT CAVOK=
201205171130 TAF ESSA 171130Z 1712/1812 21008KT 9999 SCT030=
201205170530 TAF ESSA 170530Z 1706/1806 27005KT 9999 BKN004
                      BECMG 1706/1708 BKN030
                      BECMG 1709/1711 20010KT
                      PROB40 1800/1806 4000 BR BKN004=
201205170200 TAF ESSA 170200Z 1702/1724 28002KT 1000 BR VV003
                      BECMG 1702/1705 8000 BKN030
                      TEMPO 1702/1709 4000 RA
                      BECMG 1705/1707 30012KT
                      BECMG 1711/1713 24012KT=
201205162330 TAF ESSA 162330Z 1700/1724 02005KT 8000 -RA BKN035
                      TEMPO 1700/1709 4000 RA
                      BECMG 1704/1706 30010KT
                      BECMG 1711/1713 24012KT=
201205162300 TAF ESSA 170200Z 1702/1724 28002KT 1000 BR VV003
                      BECMG 1702/1705 8000 BKN030
                      TEMPO 1702/1709 4000 RA
                      BECMG 1705/1707 30012KT
                      BECMG 1711/1713 24012KT=
201205161730 TAF ESSA 161730Z 1618/1718 07010KT 9999 SCT045 BKN055
                      TEMPO 1618/1708 4000 RA
                      BECMG 1621/1623 34007KT
                      BECMG 1707/1709 24012KT=
201205161130 TAF ESSA 161130Z 1612/1712 07006KT 9999 -DZRA NSC
                      TEMPO 1618/1712 4000 RA=
201205160530 TAF ESSA 160530Z 1606/1706 07007KT CAVOK
                      TEMPO 1619/1703 4000 RA=
201205152330 TAF ESSA 152330Z 1600/1624 08005KT CAVOK
                      TEMPO 1622/1624 4000 RA=
201205151730 TAF ESSA 151730Z 1518/1618 15015KT CAVOK
                      BECMG 1519/1521 12005KT
                      BECMG 1607/1609 06010KT=
201205151130 TAF ESSA 151130Z 1512/1612 17015KT CAVOK
                      BECMG 1519/1521 09010KT=
201205150530 TAF ESSA 150530Z 1506/1606 16011KT CAVOK=
201205142330 TAF ESSA 142330Z 1500/1524 17007KT CAVOK=
201205141730 TAF ESSA 141730Z 1418/1518 16009KT CAVOK=
201205141130 TAF ESSA 141130Z 1412/1512 20018G28KT CAVOK
                      BECMG 1419/1420 18005KT
                      BECMG 1509/1511 17015KT=
201205140759 TAF AMD ESSA 140759Z 1407/1506 20020G30KT CAVOK
                      BECMG 1416/1418 20010KT=
201205140530 TAF ESSA 140530Z 1406/1506 19014KT CAVOK
                      BECMG 1406/1409 19016G26KT
                      BECMG 1416/1418 19010KT=
201205132330 TAF ESSA 132330Z 1400/1424 17010KT CAVOK
                      BECMG 1406/1408 20016G26KT
                      BECMG 1416/1418 19010KT=
201205131730 TAF ESSA 131730Z 1318/1418 19015KT CAVOK
                      BECMG 1406/1408 20020G30KT
                      BECMG 1416/1418 19010KT=
201205131130 TAF ESSA 131130Z 1312/1412 21012KT CAVOK
                      BECMG 1406/1408 20016G26KT=
201205130530 TAF ESSA 130530Z 1306/1406 30007KT CAVOK
                      BECMG 1311/1313 21012KT=
201205122330 TAF ESSA 122330Z 1300/1324 35005KT CAVOK
                      BECMG 1311/1313 21012KT=
201205121730 TAF ESSA 121730Z 1218/1318 35005KT 9999 FEW040
                      BECMG 1311/1313 21012KT=
201205121401 TAF AMD ESSA 121401Z 1214/1312 35010KT 9999 BKN040
                      TEMPO 1214/1215 SHRA BKN012 BKN035CB=
201205121353 TAF AMD ESSA 121353Z 1213/1312 35010KT 9999 BKN040
                      TEMPO 1213/1215 RA BKN012 BKN035CB=
201205121130 TAF ESSA 121130Z 1212/1312 35010KT 9999 BKN040
                      TEMPO 1212/1215 RA BKN012=
201205120530 TAF ESSA 120530Z 1206/1306 32010KT 9999 SCT010 BKN020
                      TEMPO 1206/1214 4000 RA BKN009=
201205112330 TAF ESSA 112330Z 1200/1224 23015G26KT 9999 FEW030 BKN040
                      TEMPO 1202/1214 SHRA BKN013 BKN020CB
                      BECMG 1204/1206 32010KT=
201205111730 TAF ESSA 111730Z 1118/1218 23013G26KT 9999 FEW015 BKN035
                      TEMPO 1118/1214 SHRA BKN013 BKN020CB
                      BECMG 1204/1206 32010KT=
201205111130 TAF ESSA 111130Z 1112/1212 21012KT 9999 FEW015 BKN035
                      BECMG 1203/1205 27010KT
                      TEMPO 1112/1212 SHRA BKN013 BKN020CB=
201205110530 TAF ESSA 110530Z 1106/1206 21012KT 9999 FEW010 BKN035
                      TEMPO 1109/1121 SHRA BKN013 BKN020CB
                      BECMG 1202/1204 27010KT=
201205110430 TAF AMD ESSA 110430Z 1104/1124 21012KT 9999 FEW010 BKN035
                      TEMPO 1104/1109 BKN013
                      TEMPO 1109/1121 SHRA BKN013 BKN020CB=
201205102330 TAF ESSA 102330Z 1100/1124 21012KT 6000 BR BKN005
                      PROB40 1100/1107 2000 DZ SCT005 BKN025
                      BECMG 1107/1109 BKN025
                      TEMPO 1109/1121 SHRA BKN013CB=
201205102300 TAF AMD ESSA 110430Z 1104/1124 21012KT 9999 FEW010 BKN035
                      TEMPO 1104/1109 BKN013
                      TEMPO 1109/1121 SHRA BKN013 BKN020CB=
201205101730 TAF ESSA 101730Z 1018/1118 15008KT 6000 -RA BR BKN008
                      TEMPO 1018/1022 4000 RA BKN004
                      BECMG 1021/1023 21010KT
                      TEMPO 1022/1107 2000 SCT008 BKN025
                      BECMG 1107/1109 BKN025=
201205101602 TAF AMD ESSA 101602Z 1016/1112 15008KT 8000 -RA BR BKN030
                      TEMPO 1016/1019 RA BKN014
                      BECMG 1019/1021 BKN008
                      TEMPO 1021/1101 2000 RADZ BKN004
                      BECMG 1021/1023 21010KT
                      TEMPO 1101/1108 2000 SCT008 BKN025
                      BECMG 1108/1110 BKN025=
201205101130 TAF ESSA 101130Z 1012/1112 24015KT 9999 SCT035
                      BECMG 1014/1016 17015KT
                      TEMPO 1014/1020 RA
                      BECMG 1020/1023 4000 BR -RA BKN009
                      TEMPO 1020/1106 2000 RA BKN004
                      BECMG 1109/1111 9999 BKN015=
201205100530 TAF ESSA 100530Z 1006/1106 23012KT 9999 SCT030
                      PROB30 1014/1020 RA
                      BECMG 1020/1023 4000 BR -RA BKN009
                      TEMPO 1023/1106 2000 BKN004=
201205092330 TAF ESSA 092330Z 1000/1024 17005KT 9999 SCT030 BKN045
                      TEMPO 1000/1003 RA
                      PROB40 1003/1006 1200 BCFG VV003
                      BECMG 1005/1007 23010KT
                      PROB30 1015/1020 RA
                      TEMPO 1021/1024 3000 BKN005=
201205091730 TAF ESSA 091730Z 0918/1018 17010KT 9999 -RA SCT045 BKN060
                      TEMPO 0918/1003 RA
                      PROB40 1003/1006 1200 BCFG VV003
                      BECMG 1004/1006 23006KT=
201205091130 TAF ESSA 091130Z 0912/1012 15014KT 9999 -RA SCT045 BKN060
                      TEMPO 0912/1002 RA
                      PROB40 1002/1006 2000 BR BKN003
                      BECMG 1005/1007 22006KT=
201205090829 TAF AMD ESSA 090829Z 0908/1006 16016KT 9999 -RA SCT045 BKN060
                      TEMPO 0908/1002 RA
                      BECMG 0921/0923 18006KT
                      PROB40 1002/1006 2000 BR BKN003=
201205090530 TAF ESSA 090530Z 0906/1006 16012KT CAVOK
                      BECMG 0906/0908 16018G30KT
                      TEMPO 0910/1003 RA
                      BECMG 0921/0923 18008KT
                      PROB40 1003/1006 2000 DZ BR BKN003=
201205082330 TAF ESSA 082330Z 0900/0924 14008KT CAVOK
                      BECMG 0906/0908 16018G30KT
                      BECMG 0921/0923 18008KT=
201205081730 TAF ESSA 081730Z 0818/0918 15012KT CAVOK
                      BECMG 0906/0908 15018G30KT=
201205081130 TAF ESSA 081130Z 0812/0912 20010G24KT CAVOK=
201205080530 TAF ESSA 080530Z 0806/0906 24005KT CAVOK
                      BECMG 0810/0813 16010KT=
201205072330 TAF ESSA 072330Z 0800/0824 23005KT CAVOK
                      BECMG 0810/0813 16012KT=
201205071730 TAF ESSA 071730Z 0718/0818 23007KT CAVOK
                      BECMG 0809/0812 17010KT=
201205071130 TAF ESSA 071130Z 0712/0812 20010KT CAVOK
                      BECMG 0723/0801 01005KT=
201205070530 TAF ESSA 070530Z 0706/0806 23005KT CAVOK=
201205062330 TAF ESSA 062330Z 0700/0724 25005KT CAVOK=
201205061730 TAF ESSA 061730Z 0618/0718 30006KT CAVOK
                      BECMG 0707/0709 23010KT=
201205061428 TAF AMD ESSA 061428Z 0614/0712 24008KT CAVOK=
201205061130 TAF ESSA 061130Z 0612/0712 20010KT CAVOK=
201205060530 TAF ESSA 060530Z 0606/0706 23007KT CAVOK=
201205052330 TAF ESSA 052330Z 0600/0624 24007KT CAVOK=
201205051730 TAF ESSA 051730Z 0518/0618 25019G29KT 9999 BKN040 FM052130 22008KT
                       CAVOK=
201205051130 TAF ESSA 051130Z 0512/0612 24020G30KT 9999 FEW045 SCT050
                      BECMG 0522/0524 22010KT=
201205050530 TAF ESSA 050530Z 0506/0606 21003KT 0700 FG VV002
                      BECMG 0506/0508 9999 NSW BKN005
                      BECMG 0508/0510 24013KT SCT015
                      TEMPO 0514/0518 25015G25KT=
201205050313 TAF AMD ESSA 050313Z 0503/0524 VRB02KT 5000 BR BKN003
                      TEMPO 0503/0506 0700 FG VV002
                      BECMG 0506/0509 21010KT FEW010
                      TEMPO 0514/0518 24015G25KT=
201205042330 TAF ESSA 042330Z 0500/0524 VRB02KT 8000 BR BKN003
                      TEMPO 0500/0506 2000 BR BKN005
                      BECMG 0506/0509 21010KT FEW010
                      TEMPO 0514/0518 24015G25KT=
201205042300 TAF AMD ESSA 050313Z 0503/0524 VRB02KT 5000 BR BKN003
                      TEMPO 0503/0506 0700 FG VV002
                      BECMG 0506/0509 21010KT FEW010
                      TEMPO 0514/0518 24015G25KT=
201205042030 TAF AMD ESSA 042030Z 0420/0518 12006KT 9999 BKN008
                      TEMPO 0420/0506 2000 BR BKN003
                      BECMG 0506/0509 21010KT FEW010=
201205041948 TAF AMD ESSA 041948Z 0420/0518 12006KT 9999 BKN020
                      BECMG 0420/0422 BKN005
                      TEMPO 0422/0506 2000 BR BKN003
                      BECMG 0506/0509 21010KT FEW010=
201205041730 TAF ESSA 041730Z 0418/0518 12006KT 9999 BKN040
                      BECMG 0423/0502 BKN005
                      TEMPO 0500/0506 2000 BR BKN003
                      BECMG 0506/0509 21010KT FEW010=
201205041130 TAF ESSA 041130Z 0412/0512 10013KT CAVOK
                      PROB30 0414/0419 SHRA BKN040CB
                      PROB30 0419/0507 BKN004
                      BECMG 0504/0506 22010KT=
201205040530 TAF ESSA 040530Z 0406/0506 10010KT CAVOK
                      PROB30 0414/0420 SHRA BKN040CB
                      BECMG 0504/0506 22005KT=
201205032330 TAF ESSA 032330Z 0400/0424 14004KT CAVOK
                      PROB30 0414/0420 SHRA BKN040CB=
201205031730 TAF ESSA 031730Z 0318/0418 13009KT CAVOK=
201205031130 TAF ESSA 031130Z 0312/0412 34006KT CAVOK
                      BECMG 0315/0317 13012KT=
201205030530 TAF ESSA 030530Z 0306/0406 04007KT CAVOK
                      PROB40 0308/0315 34012KT
                      PROB40 0315/0319 13012KT=
201205022330 TAF ESSA 022330Z 0300/0324 34005KT CAVOK
                      TEMPO 0315/0319 13012KT=
201205022117 TAF AMD ESSA 022117Z 0221/0318 VRB04KT CAVOK
                      PROB30 0221/0223 0300 BCFG VV001
                      TEMPO 0315/0318 13012KT=
201205021730 TAF ESSA 021730Z 0218/0318 30007KT CAVOK
                      TEMPO 0218/0220 13012KT=
201205021618 TAF AMD ESSA 021618Z 0216/0312 30007KT CAVOK
                      TEMPO 0216/0219 13012KT=
201205021130 TAF ESSA 021130Z 0212/0312 29008KT CAVOK=
201205020530 TAF ESSA 020530Z 0206/0306 22009KT CAVOK
                      BECMG 0210/0212 28010KT=
201205020500 TAF ESSA 020500Z NIL=
201205012330 TAF ESSA 012330Z 0200/0224 21007KT CAVOK
                      BECMG 0210/0212 28010KT=
201205011730 TAF ESSA 011730Z 0118/0218 12004KT CAVOK
                      BECMG 0207/0209 25010KT
                      BECMG 0216/0218 31005KT=
201205011130 TAF ESSA 011130Z 0112/0212 03008KT CAVOK
                      TEMPO 0118/0120 17010KT
                      BECMG 0207/0209 25010KT=
201205010530 TAF ESSA 010530Z 0106/0206 36009KT CAVOK
                      BECMG 0119/0121 18010KT=
