##########################################################
# Query made at 11/10/2014 14:52:58 UTC
# Time interval: from 04/01/2009 00:00  to 05/01/2009 23:59  UTC
##########################################################

##########################################################
# LIRA, Roma / Ciampino (Italy)
# WMO index: 16239
# Latitude 41-47N. Longitude 012-35E. Altitude 129 m.
##########################################################

###################################
#  METAR/SPECI from LIRA
###################################
200904302350 METAR LIRA 010045Z 05003KT CAVOK 10/09 Q1011=
200904302345 METAR LIRA 302345Z 35004KT 9999 FEW080 11/09 Q1011=
200904302315 METAR LIRA 302315Z 02003KT CAVOK 11/09 Q1011=
200904302245 METAR LIRA 302245Z 35006KT 320V030 CAVOK 10/09 Q1011=
200904302215 METAR LIRA 302215Z 36004KT CAVOK 11/09 Q1011=
200904302145 METAR LIRA 302145Z 34005KT CAVOK 11/09 Q1011=
200904302115 METAR LIRA 302115Z 34002KT CAVOK 11/08 Q1011=
200904302045 METAR LIRA 302045Z 01004KT CAVOK 12/08 Q1011=
200904302015 METAR LIRA 302015Z 36004KT 9999 FEW080 12/09 Q1011=
200904301945 METAR LIRA 301945Z 34005KT 310V010 9999 FEW025 13/08 Q1011=
200904301915 METAR LIRA 301915Z 01004KT 9999 FEW020 13/07 Q1010=
200904301845 METAR LIRA 301845Z 01004KT 9999 FEW020 SCT070 13/06 Q1010=
200904301815 METAR LIRA 301815Z 01004KT 330V040 9999 FEW020 SCT070 15/07
                        Q1010=
200904301745 METAR LIRA 301745Z 35003KT 9999 FEW025 SCT080 15/06 Q1010=
200904301715 METAR LIRA 301715Z 35003KT 9999 FEW025 SCT070 15/06 Q1010=
200904301645 METAR LIRA 301645Z 02003KT 9999 FEW018 SCT030 15/07 Q1010=
200904301615 METAR LIRA 301615Z 36008KT 9999 FEW017 FEW018CB BKN060 14/07
                        Q1010=
200904301545 METAR LIRA 301545Z 04007KT 320V080 9999 FEW017 FEW020CB SCT070
                        14/06 Q1010=
200904301515 METAR LIRA 301515Z 03009KT 360V090 9999 FEW017 FEW020CB 15/06
                        Q1010=
200904301445 METAR LIRA 301445Z 03007KT 310V070 9999 FEW017 FEW020CB 16/06
                        Q1009=
200904301415 METAR LIRA 301415Z 03009KT 330V080 9999 FEW017 FEW020CB 16/06
                        Q1009=
200904301345 METAR LIRA 301345Z 06012KT 020V120 9999 FEW017 FEW018TCU
                        FEW020CB 19/04 Q1009=
200904301315 METAR LIRA 301315Z 33010KT 270V020 9999 FEW017 FEW018TCU
                        FEW020CB 18/03 Q1009=
200904301245 METAR LIRA 301245Z 27010KT 220V320 9999 SCT017 FEW018TCU
                        FEW020CB 18/05 Q1009=
200904301215 METAR LIRA 301215Z 26011KT 190V310 9999 FEW017 FEW020CB 18/05
                        Q1009=
200904301145 METAR LIRA 301145Z 26010KT 190V320 9999 FEW017 FEW018TCU
                        FEW020CB 17/05 Q1009=
200904301115 METAR LIRA 301115Z 27009KT 210V310 9999 SCT017 FEW018TCU
                        FEW020CB 18/05 Q1009=
200904301045 METAR LIRA 301045Z 23009G20KT 180V280 9999 SCT017 FEW018TCU
                        FEW020CB 18/06 Q1009=
200904301015 METAR LIRA 301015Z 21007KT 140V270 9999 SCT017 FEW018TCU
                        FEW020CB 18/05 Q1009=
200904300945 METAR LIRA 300945Z 22007KT 160V270 9999 SCT017 FEW018TCU
                        17/05 Q1010=
200904300915 METAR LIRA 300915Z 22006KT 160V270 9999 SCT017 FEW018TCU
                        17/06 Q1010=
200904300845 METAR LIRA 300845Z 26005KT 230V320 9999 SCT017 FEW018TCU
                        16/07 Q1010=
200904300815 METAR LIRA 300815Z 18002KT 9999 SCT017 16/09 Q1010=
200904300745 METAR LIRA 300745Z 24003KT 220V310 9999 FEW017 16/09 Q1010=
200904300715 METAR LIRA 300715Z 14001KT 9999 FEW017 15/10 Q1010=
200904300645 METAR LIRA 300645Z 17003KT 9999 FEW017 13/09 Q1010=
200904300615 METAR LIRA 300615Z 16003KT 9999 FEW017 12/10 Q1010=
200904300545 METAR LIRA 300545Z 14003KT 9999 FEW030 11/09 Q1010=
200904300515 METAR LIRA 300515Z 00000KT 9999 FEW030 10/09 Q1010=
200904300445 METAR LIRA 300445Z 10003KT 9999 FEW020 10/09 Q1009=
200904300415 METAR LIRA 300415Z 14002KT 9999 FEW015 10/09 Q1010=
200904300345 METAR LIRA 300345Z 14002KT 9999 FEW015 10/09 Q1010=
200904300315 METAR LIRA 300315Z 14002KT 9999 FEW080 10/09 Q1010=
200904300245 METAR LIRA 300245Z 14004KT CAVOK 11/10 Q1010=
200904300215 METAR LIRA 300215Z 16003KT CAVOK 11/09 Q1010=
200904300145 METAR LIRA 300145Z 16003KT CAVOK 11/09 Q1010=
200904300115 METAR LIRA 300115Z 15006KT CAVOK 11/09 Q1010=
200904300045 METAR LIRA 300045Z 15006KT CAVOK 12/09 Q1010=
200904300015 METAR LIRA 300015Z 17005KT 9999 FEW030 12/10 Q1011=
200904292345 METAR LIRA 292345Z 19003KT 9999 FEW030 13/09 Q1011=
200904292315 METAR LIRA 292315Z 16006KT 9999 FEW030 13/10 Q1011=
200904292245 METAR LIRA 292245Z 19005KT 9999 FEW018 13/10 Q1011=
200904292215 METAR LIRA 292215Z 19005KT 160V230 9999 FEW018 SCT030 14/10
                        Q1011=
200904292145 METAR LIRA 292145Z 22005KT 180V260 9999 SCT018 SCT030 14/10
                        Q1011=
200904292115 METAR LIRA 292115Z 23007KT 190V270 9999 FEW018 SCT030 13/10
                        Q1011=
200904292045 METAR LIRA 292045Z 23005KT 9999 FEW018 SCT030 13/09 Q1011=
200904292015 METAR LIRA 292015Z 21004KT 9999 FEW018 SCT030 14/10 Q1011=
200904291945 METAR LIRA 291945Z 23004KT 190V270 9999 FEW018 SCT030 14/08
                        Q1011=
200904291915 METAR LIRA 291915Z 25008KT 200V300 9999 SCT018 FEW020CB SCT070
                        14/08 Q1011=
200904291845 METAR LIRA 291845Z 26007KT 200V310 9999 SCT018 FEW020CB SCT080
                        15/09 Q1011=
200904291815 METAR LIRA 291815Z 26009G19KT 210V330 9999 SCT018 FEW020CB
                        SCT080 15/09 Q1010=
200904291745 METAR LIRA 291745Z 24008KT 160V310 9999 SCT018 FEW020CB SCT080
                        15/09 Q1010=
200904291715 METAR LIRA 291715Z 25008KT 200V300 9999 FEW018 FEW020CB SCT080
                        17/08 Q1010=
200904291645 METAR LIRA 291645Z 25010KT 180V320 9999 FEW018 FEW020CB 17/08
                        Q1010=
200904291615 METAR LIRA 291615Z 26012KT 200V310 9999 SCT018 FEW020CB 18/09
                        Q1010=
200904291545 METAR LIRA 291545Z 23008KT 180V310 9999 FEW018 FEW020TCU
                        18/10 Q1010=
200904291515 METAR LIRA 291515Z 24008KT 190V300 9999 FEW018 FEW020TCU
                        18/09 Q1010=
200904291445 METAR LIRA 291445Z 21008KT 140V260 9999 SCT018 FEW020TCU
                        18/09 Q1010=
200904291415 METAR LIRA 291415Z 21008KT 150V260 9999 SCT018 FEW020TCU
                        18/10 Q1010=
200904291345 METAR LIRA 291345Z 21008KT 140V260 9999 SCT018 FEW020TCU
                        18/11 Q1010=
200904291315 METAR LIRA 291315Z 22008KT 160V270 9999 SCT018 FEW020TCU
                        18/10 Q1010=
200904291245 METAR LIRA 291245Z 23009KT 150V280 9999 SCT018 FEW020TCU
                        18/08 Q1010=
200904291215 METAR LIRA 291215Z 20010KT 150V260 9999 FEW018 FEW020TCU
                        18/08 Q1010=
200904291145 METAR LIRA 291145Z 19011KT 160V240 9999 FEW018 FEW020TCU
                        18/10 Q1010=
200904291115 METAR LIRA 291115Z 19010KT 140V240 9999 FEW018 FEW020TCU
                        18/10 Q1010=
200904291045 METAR LIRA 291045Z 19009KT 150V240 9999 FEW018 FEW020TCU
                        17/11 Q1010=
200904291015 METAR LIRA 291015Z 21009KT 160V250 9999 SCT020 17/11 Q1010=
200904290945 METAR LIRA 290945Z 19008KT 150V250 9999 SCT020 17/11 Q1010=
200904290915 METAR LIRA 290915Z 19008KT 150V240 9999 SCT020 17/11 Q1010=
200904290845 METAR LIRA 290845Z 17009KT 120V220 9999 SCT020 16/11 Q1009=
200904290815 METAR LIRA 290815Z 15008KT 070V200 9999 SCT020 15/11 Q1009=
200904290745 METAR LIRA 290745Z 15010KT 120V220 9999 SCT020 15/11 Q1009=
200904290715 METAR LIRA 290715Z 15011KT 9999 FEW020 14/11 Q1009=
200904290645 METAR LIRA 290645Z 16010KT 130V190 9999 FEW020 14/11 Q1009=
200904290615 METAR LIRA 290615Z 16009KT 130V190 9999 FEW018 13/11 Q1009=
200904290545 METAR LIRA 290545Z 15007KT 9999 FEW018 13/11 Q1008=
200904290515 METAR LIRA 290515Z 15007KT 9999 FEW018 12/11 Q1008=
200904290445 METAR LIRA 290445Z 17004KT 9999 FEW025 11/10 Q1008=
200904290415 METAR LIRA 290415Z 16003KT 9999 FEW025 10/09 Q1008=
200904290345 METAR LIRA 290345Z 13006KT 9999 SCT070 11/10 Q1008=
200904290315 METAR LIRA 290315Z 16005KT 9999 FEW070 11/10 Q1008=
200904290245 METAR LIRA 290245Z 13006KT CAVOK 12/11 Q1008=
200904290215 METAR LIRA 290215Z 14006KT 9999 FEW030 13/11 Q1008=
200904290145 METAR LIRA 290145Z 15005KT 9999 FEW020 SCT030 BKN070 13/11
                        Q1008=
200904290115 METAR LIRA 290115Z 16004KT 9999 FEW020 SCT030 BKN070 13/11
                        Q1008=
200904290045 METAR LIRA 290045Z 15005KT 9999 FEW020 SCT030 BKN070 12/11
                        Q1008=
200904290015 METAR LIRA 290015Z 14006KT 9999 SCT020 12/11 Q1008=
200904282345 METAR LIRA 282345Z 13006KT 9999 SCT018 SCT070 13/11 Q1008=
200904282315 METAR LIRA 282315Z 12005KT 9999 SCT018 SCT060 13/11 Q1008=
200904282245 METAR LIRA 282245Z 16005KT 9999 FEW018 SCT070 13/11 Q1008=
200904282215 METAR LIRA 282215Z 16006KT 9999 FEW018 SCT070 13/11 Q1008=
200904282145 METAR LIRA 282145Z 14007KT 9999 FEW018 SCT070 13/11 Q1008=
200904282115 METAR LIRA 282115Z 16006KT 9999 SCT070 13/11 Q1008=
200904282045 METAR LIRA 282045Z 16005KT 9999 FEW025 SCT070 13/12 Q1008=
200904282015 METAR LIRA 282015Z 20002KT 9999 SCT025 SCT070 13/11 Q1008=
200904281945 METAR LIRA 281945Z 11002KT 9999 SCT025 SCT060 13/12 Q1007=
200904281915 METAR LIRA 281915Z 07002KT 9999 FEW018 SCT025 13/11 Q1007=
200904281845 METAR LIRA 281845Z 12004KT 9999 -RA FEW017 BKN025 13/12 Q1007=
200904281815 METAR LIRA 281815Z 12005KT 9999 -RA FEW017 BKN025 13/10 Q1006=
200904281745 METAR LIRA 281745Z 07003KT 9999 BKN025 SCT070 14/11 Q1007=
200904281715 METAR LIRA 281715Z 10003KT 9999 FEW018 BKN025 14/11 Q1006=
200904281645 METAR LIRA 281645Z 06003KT 9999 FEW015 BKN023 14/12 Q1006=
200904281615 METAR LIRA 281615Z 09002KT 9999 SCT012 BKN023 15/12 Q1006=
200904281545 METAR LIRA 281545Z 00000KT 9999 SCT012 BKN023 14/12 Q1006
                        RERA=
200904281515 METAR LIRA 281515Z 01002KT 9999 -RA BR FEW008 BKN023 14/12
                        Q1005 RERA=
200904281445 METAR LIRA 281445Z 16003KT 4000 RA BR SCT007 BKN023 13/11
                        Q1005=
200904281415 METAR LIRA 281415Z 20005KT 150V250 5000 -RA BR SCT008 BKN023
                        14/12 Q1005=
200904281345 METAR LIRA 281345Z 18006KT 130V240 6000 -RA SCT010 BKN023
                        14/12 Q1005=
200904281315 METAR LIRA 281315Z 15007KT 9999 SCT012 BKN030 14/11 Q1005=
200904281245 METAR LIRA 281245Z 16006KT 9999 SCT012 BKN030 14/12 Q1005=
200904281215 METAR LIRA 281215Z 15004KT 9999 SCT012 BKN030 14/11 Q1005=
200904281145 METAR LIRA 281145Z 24003KT 8000 SCT012 BKN030 14/12 Q1004=
200904281115 METAR LIRA 281115Z 27005KT 210V300 8000 SCT010 BKN030 14/12
                        Q1004=
200904281045 METAR LIRA 281045Z 22003KT 6000 -RA SCT006 BKN023 12/11 Q1004
                        RERA=
200904281015 METAR LIRA 281015Z 18003KT 6000 R15/0900 -RA SCT005 BKN023
                        12/11 Q1004 RERA=
200904280945 METAR LIRA 280945Z 22002KT 2000 R15/0900 RA BR SCT003 BKN023
                        12/11 Q1004 RERA=
200904280915 METAR LIRA 280915Z 20005KT 150V240 5000 R15/1000 -RA BR SCT004
                        BKN023 12/11 Q1003=
200904280845 METAR LIRA 280845Z 21008KT 150V240 5000 R15/1100 -RA BR SCT004
                        BKN023 12/11 Q1003=
200904280815 METAR LIRA 280815Z 19011KT 150V230 6000 -RA SCT004 BKN023
                        12/11 Q1003 RERA=
200904280745 METAR LIRA 280745Z 21011KT 140V270 4000 R15/1000 RA BR BKN003
                        SCT023 13/12 Q1003 RERA=
200904280715 METAR LIRA 280715Z 22006KT 180V260 3000 R15/1100 -RA BR BKN003
                        SCT023 12/11 Q1002=
200904280645 METAR LIRA 280645Z 22008KT 150V270 5000 R15/1000 -RA BR BKN004
                        SCT023 12/11 Q1002=
200904280615 METAR LIRA 280615Z 19007KT 150V220 4000 R15/1100 -RA BR BKN004
                        SCT023 12/11 Q1002=
200904280545 METAR LIRA 280545Z 18007KT 140V210 6000 R15/1100 -RA BKN006
                        SCT025 12/11 Q1002=
200904280515 METAR LIRA 280515Z 19007KT 160V220 6000 R15/1100 -RA SCT009
                        BKN025 12/11 Q1002=
200904280445 METAR LIRA 280445Z 19005KT 160V230 6000 R15/1200 -RA SCT009
                        BKN025 12/11 Q1002=
200904280415 METAR LIRA 280415Z 19005KT 160V230 4000 R15/1300 -RA BR SCT009
                        BKN025 12/11 Q1001=
200904280345 METAR LIRA 280345Z 21006KT 160V260 6000 RA SCT015 BKN025
                        12/11 Q1001=
200904280315 METAR LIRA 280315Z 21006KT 140V260 6000 -RA SCT016 BKN025
                        12/11 Q1001=
200904280245 METAR LIRA 280245Z 19006KT 140V250 8000 -RA SCT016 SCT025
                        12/11 Q1001=
200904280215 METAR LIRA 280215Z 19009KT 6000 -RA SCT016 BKN025 12/12 Q1001=
200904280145 METAR LIRA 280145Z 18011KT 140V230 6000 -RA SCT015 FEW017CB
                        BKN023 13/13 Q1001=
200904280115 METAR LIRA 280115Z 16012KT 7000 -RA SCT015 FEW017CB BKN023
                        13/12 Q1002=
200904280045 METAR LIRA 280045Z 18007KT 150V230 8000 -RA SCT016 FEW018CB
                        BKN025 13/11 Q1002=
200904280015 METAR LIRA 280015Z 15013KT 110V180 8000 -RA SCT016 BKN025
                        13/11 Q1002=
200904272345 METAR LIRA 272345Z 13014KT 9999 -RA SCT016 BKN070 13/11 Q1003=
200904272315 METAR LIRA 272315Z 14013KT 9999 -RA SCT016 BKN025 13/11 Q1003=
200904272245 METAR LIRA 272245Z 15011KT 9999 SCT016 SCT025 13/10 Q1003=
200904272215 METAR LIRA 272215Z 14012KT 100V180 9999 FEW016 SCT030 13/10
                        Q1003=
200904272145 METAR LIRA 272145Z 14012KT 9999 FEW016 SCT030 13/11 Q1003=
200904272115 METAR LIRA 272115Z 14013KT 9999 -RA SCT016 SCT030 13/10 Q1003=
200904272045 METAR LIRA 272045Z 14012KT 9999 SCT018 SCT030 13/10 Q1003=
200904272015 METAR LIRA 272015Z 15009KT 9999 SCT020 SCT030 13/10 Q1003=
200904271945 METAR LIRA 271945Z 13004KT 9999 -RA SCT016 BKN025 13/10 Q1003=
200904271915 METAR LIRA 271915Z 14005KT 9999 -RA SCT016 BKN025 13/11 Q1003=
200904271845 METAR LIRA 271845Z 13007KT 7000 -RA SCT016 FEW018CB BKN025
                        12/12 Q1002=
200904271815 METAR LIRA 271815Z 11006KT 070V150 5000 -RA BR SCT016 FEW018CB
                        BKN025 13/12 Q1002=
200904271745 METAR LIRA 271745Z 18004KT 170V240 5000 R15/1300 -RA BR SCT016
                        FEW018CB BKN025 14/14 Q1002 RMK RERA
                        WS RWY 15=
200904271715 METAR LIRA 271715Z 14023G34KT 4000 R15/0900 RA BR SCT015
                        FEW018CB BKN023 15/13 Q1001=
200904271645 METAR LIRA 271645Z 13020KT 100V160 5000 R15/0900 -RA BR SCT016
                        FEW020TCU SCT030 15/13 Q1000=
200904271615 METAR LIRA 271615Z 12020G30KT 090V160 3500 R15/1000 -RA BR
                        SCT015 FEW017CB BKN023 15/13 Q1001=
200904271545 METAR LIRA 271545Z 13020KT 4000 -RA BR SCT015 FEW017CB BKN023
                        17/12 Q1002=
200904271515 METAR LIRA 271515Z 14022G32KT 120V180 4000 -RA SCT015 FEW020CB
                        BKN025 20/10 Q1002=
200904271445 METAR LIRA 271445Z 14026G39KT 100V190 9999 -RA SCT020 BKN030
                        21/04 Q1002=
200904271415 METAR LIRA 271415Z 14029G47KT 090V180 9999 FEW020 BKN030
                        22/05 Q1002=
200904271345 METAR LIRA 271345Z 15025G37KT 9999 FEW020 BKN030 23/06 Q1002=
200904271315 METAR LIRA 271315Z 14024G34KT 090V170 9999 FEW020 BKN030
                        23/06 Q1002=
200904271245 METAR LIRA 271245Z 12023G35KT 090V160 9999 FEW020 BKN030
                        24/07 Q1002=
200904271215 METAR LIRA 271215Z 14018G31KT 100V180 9999 FEW020 BKN030
                        23/07 Q1002=
200904271145 METAR LIRA 271145Z 15017G32KT 100V180 9999 FEW020 SCT030
                        23/07 Q1002=
200904271115 METAR LIRA 271115Z 12018G28KT 090V160 9999 FEW020 SCT030
                        BKN060 24/07 Q1002=
200904271045 METAR LIRA 271045Z 12020KT 9999 SCT030 BKN060 25/08 Q1003=
200904271015 METAR LIRA 271015Z 13023G33KT 090V170 9999 SCT030 BKN060
                        25/08 Q1004=
200904270945 METAR LIRA 270945Z 13017KT 090V160 9999 FEW040 SCT070 24/14
                        Q1004=
200904270915 METAR LIRA 270915Z 15023G33KT 9999 FEW040 SCT070 BKN090 23/13
                        Q1004=
200904270845 METAR LIRA 270845Z 12014KT 080V150 9999 FEW040 SCT070 23/13
                        Q1004=
200904270815 METAR LIRA 270815Z 14006KT 100V180 9999 FEW040 SCT070 BKN090
                        20/12 Q1005=
200904270745 METAR LIRA 270745Z 36004KT 310V050 9999 SCT070 BKN090 20/13
                        Q1006=
200904270715 METAR LIRA 270715Z 03005KT 360V150 9999 SCT070 SCT090 19/12
                        Q1007=
200904270645 METAR LIRA 270645Z 13008KT 090V170 9999 FEW040 SCT080 17/10
                        Q1007=
200904270615 METAR LIRA 270615Z 16004KT 130V200 9999 FEW040 SCT080 16/09
                        Q1008=
200904270545 METAR LIRA 270545Z 25005KT 9999 FEW040 SCT080 16/08 Q1008=
200904270515 METAR LIRA 270515Z 30002KT 9999 FEW040 SCT080 17/08 Q1007=
200904270445 METAR LIRA 270445Z 26007KT 9999 FEW040 SCT070 17/07 Q1007=
200904270415 METAR LIRA 270415Z 00000KT 9999 FEW040 SCT070 18/08 Q1007=
200904270345 METAR LIRA 270345Z 29003KT 9999 FEW030 SCT060 18/09 Q1008=
200904270315 METAR LIRA 270315Z 34001KT 9999 FEW030 SCT060 18/08 Q1008=
200904270245 METAR LIRA 270245Z 04002KT 9999 FEW030 SCT060 18/06 Q1009=
200904270215 METAR LIRA 270215Z 02003KT 9999 FEW030 SCT070 19/07 Q1009=
200904270145 METAR LIRA 270145Z 20002KT 9999 SCT030 SCT070 20/05 Q1009=
200904270115 METAR LIRA 270115Z 33003KT 9999 SCT030 SCT070 20/05 Q1010=
200904270045 METAR LIRA 270045Z 36004KT 9999 SCT030 SCT070 20/06 Q1010=
200904270015 METAR LIRA 270015Z 36002KT 330V130 9999 SCT030 SCT070 20/08
                        Q1010=
200904262345 METAR LIRA 262345Z 12006KT 080V170 9999 SCT030 SCT070 18/08
                        Q1011=
200904262315 METAR LIRA 262315Z 05003KT 9999 SCT030 SCT070 18/07 Q1011=
200904262245 METAR LIRA 262245Z 25002KT 9999 SCT030 SCT070 18/07 Q1012=
200904262215 METAR LIRA 262215Z 26001KT 9999 SCT030 SCT070 19/07 Q1012=
200904262145 METAR LIRA 262145Z 12005KT 070V160 9999 SCT030 SCT070 19/10
                        Q1011=
200904262115 METAR LIRA 262115Z 11007KT 060V140 9999 SCT030 SCT070 18/12
                        Q1012=
200904262045 METAR LIRA 262045Z 04005KT 350V100 9999 SCT030 SCT070 17/11
                        Q1012=
200904262015 METAR LIRA 262015Z 05007KT 020V110 9999 SCT030 SCT070 18/11
                        Q1013=
200904261945 METAR LIRA 261945Z 29005KT 9999 SCT030 SCT070 20/05 Q1013=
200904261915 METAR LIRA 261915Z 23003KT 9999 SCT030 SCT070 18/10 Q1013=
200904261845 METAR LIRA 261845Z 09008KT 060V140 9999 SCT030 BKN070 18/08
                        Q1012=
200904261815 METAR LIRA 261815Z 31003KT 9999 SCT030 BKN070 19/09 Q1013=
200904261745 METAR LIRA 261745Z 19003KT 9999 SCT030 BKN070 20/08 Q1013=
200904261715 METAR LIRA 261715Z 14006KT 9999 FEW020 SCT030 BKN070 20/08
                        Q1013=
200904261645 METAR LIRA 261645Z 18005KT 130V220 9999 FEW020 SCT030 BKN070
                        20/07 Q1014=
200904261615 METAR LIRA 261615Z 18005KT 130V220 9999 FEW020 SCT030 BKN070
                        21/08 Q1014=
200904261545 METAR LIRA 261545Z 14008KT 080V170 9999 FEW020 SCT030 BKN070
                        21/08 Q1014=
200904261515 METAR LIRA 261515Z 15011KT 070V200 9999 FEW020 SCT030 BKN070
                        20/07 Q1014=
200904261445 METAR LIRA 261445Z 12006KT 090V180 9999 FEW020 BKN090 21/07
                        Q1014=
200904261415 METAR LIRA 261415Z 12009KT 080V180 9999 FEW020 BKN090 21/06
                        Q1014=
200904261345 METAR LIRA 261345Z 15016KT 120V210 9999 FEW020 BKN090 21/07
                        Q1013=
200904261315 METAR LIRA 261315Z 14014KT 090V170 9999 FEW020 BKN080 21/09
                        Q1013=
200904261245 METAR LIRA 261245Z 14013KT 110V180 9999 FEW020 BKN080 21/08
                        Q1014=
200904261215 METAR LIRA 261215Z 15015KT 100V180 9999 FEW020 BKN080 21/08
                        Q1014=
200904261145 METAR LIRA 261145Z 14013KT 100V180 9999 FEW020 BKN080 21/07
                        Q1014=
200904261115 METAR LIRA 261115Z 14018KT 9999 FEW020 BKN080 22/07 Q1014=
200904261045 METAR LIRA 261045Z 13019KT 9999 FEW020 BKN080 22/07 Q1014=
200904261015 METAR LIRA 261015Z 16017KT 100V180 9999 FEW020 BKN080 22/07
                        Q1014=
200904260945 METAR LIRA 260945Z 13012G24KT 070V170 9999 FEW020 SCT080
                        21/11 Q1014=
200904260915 METAR LIRA 260915Z 13012KT 080V170 9999 FEW020 SCT080 20/10
                        Q1014=
200904260845 METAR LIRA 260845Z 07005KT 330V120 9999 FEW020 SCT070 19/09
                        Q1015=
200904260815 METAR LIRA 260815Z 07007KT 020V110 9999 FEW020 SCT030 BKN070
                        18/09 Q1015=
200904260745 METAR LIRA 260745Z 06006KT 020V150 9999 FEW020 SCT030 BKN070
                        18/09 Q1015=
200904260715 METAR LIRA 260715Z 14004KT 9999 FEW020 SCT030 17/09 Q1015=
200904260645 METAR LIRA 260645Z 29002KT 9999 FEW020 SCT030 17/10 Q1015=
200904260615 METAR LIRA 260615Z 26003KT 9999 FEW020 SCT030 17/10 Q1015=
200904260545 METAR LIRA 260545Z 32002KT 9999 FEW020 SCT030 16/09 Q1015=
200904260515 METAR LIRA 260515Z 08004KT 9999 FEW020 SCT030 15/10 Q1015=
200904260445 METAR LIRA 260445Z 30001KT 9999 FEW020 SCT030 BKN070 14/13
                        Q1015=
200904260415 METAR LIRA 260415Z 30004KT 9999 FEW020 BKN070 14/12 Q1015=
200904260345 METAR LIRA 260345Z 00000KT 9999 FEW020 BKN070 15/12 Q1015=
200904260315 METAR LIRA 260315Z 02002KT 9999 FEW020 SCT070 15/12 Q1015=
200904260245 METAR LIRA 260245Z 03003KT 9999 FEW020 SCT070 15/12 Q1015=
200904260215 METAR LIRA 260215Z 02003KT 9999 SCT070 BKN200 14/12 Q1016=
200904260145 METAR LIRA 260145Z 00000KT 9999 SCT070 BKN200 14/12 Q1016=
200904260115 METAR LIRA 260115Z 04005KT 9999 FEW020 SCT070 15/12 Q1016=
200904260045 METAR LIRA 260045Z 00000KT 9999 FEW020 SCT070 14/12 Q1017=
200904260015 METAR LIRA 260015Z 00000KT 9999 SCT020 SCT070 14/11 Q1017=
200904252345 METAR LIRA 252345Z 00000KT 9999 SCT020 SCT070 14/11 Q1017=
200904252315 METAR LIRA 252315Z 06002KT 9999 SCT070 SCT200 14/11 Q1017=
200904252245 METAR LIRA 252245Z 11002KT 9999 SCT070 SCT200 14/12 Q1017=
200904252215 METAR LIRA 252215Z 27001KT 9999 SCT070 SCT200 15/11 Q1017=
200904252145 METAR LIRA 252145Z 24002KT 9999 FEW070 BKN200 15/11 Q1017=
200904252115 METAR LIRA 252115Z 19002KT 9999 FEW080 BKN200 15/11 Q1017=
200904252045 METAR LIRA 252045Z 00000KT 9999 SCT080 BKN200 16/11 Q1017=
200904252015 METAR LIRA 252015Z 00000KT 9999 SCT080 BKN200 16/10 Q1017=
200904251945 METAR LIRA 251945Z 01003KT CAVOK 17/11 Q1017=
200904251915 METAR LIRA 251915Z 02003KT CAVOK 16/11 Q1017=
200904251845 METAR LIRA 251845Z 05002KT CAVOK 17/10 Q1017=
200904251815 METAR LIRA 251815Z 23002KT 9999 FEW020 SCT090 BKN200 18/09
                        Q1017=
200904251745 METAR LIRA 251745Z 19006KT 9999 FEW020 SCT090 BKN200 18/08
                        Q1017=
200904251715 METAR LIRA 251715Z 18008KT 160V220 9999 FEW020 BKN200 19/09
                        Q1017=
200904251645 METAR LIRA 251645Z 17011KT 140V200 9999 FEW020 BKN200 20/09
                        Q1017=
200904251615 METAR LIRA 251615Z 18012KT 140V240 9999 FEW020 BKN200 20/09
                        Q1017=
200904251545 METAR LIRA 251545Z 18013KT 130V220 9999 FEW020 BKN200 20/09
                        Q1017=
200904251515 METAR LIRA 251515Z 18014KT 130V220 9999 FEW020 BKN200 21/11
                        Q1017=
200904251445 METAR LIRA 251445Z 16012KT 120V230 9999 FEW020 BKN200 21/11
                        Q1017=
200904251415 METAR LIRA 251415Z 18014KT 150V240 9999 FEW020 SCT200 21/10
                        Q1017=
200904251345 METAR LIRA 251345Z 19011KT 130V220 9999 FEW018 SCT200 22/10
                        Q1017=
200904251315 METAR LIRA 251315Z 18008KT 130V220 9999 FEW018 SCT200 22/10
                        Q1017=
200904251245 METAR LIRA 251245Z 17009KT 140V250 9999 SCT018 SCT200 22/10
                        Q1017=
200904251215 METAR LIRA 251215Z 17008KT 120V220 9999 SCT018 SCT200 21/10
                        Q1018=
200904251145 METAR LIRA 251145Z 29003KT 9999 SCT018 20/09 Q1018=
200904251115 METAR LIRA 251115Z 00000KT 9999 SCT018 20/10 Q1018=
200904251045 METAR LIRA 251045Z 30003KT 9999 SCT018 20/10 Q1018=
200904251015 METAR LIRA 251015Z 01002KT 9999 SCT018 SCT200 20/11 Q1019=
200904250945 METAR LIRA 250945Z 03002KT 9999 FEW020 BKN200 19/10 Q1019=
200904250915 METAR LIRA 250915Z 33003KT 9999 FEW025 BKN200 18/11 Q1019=
200904250845 METAR LIRA 250845Z 34004KT 9999 FEW025 BKN200 17/10 Q1019=
200904250815 METAR LIRA 250815Z 34001KT 9999 FEW025 BKN200 16/11 Q1019=
200904250745 METAR LIRA 250745Z 02003KT CAVOK 14/10 Q1019=
200904250715 METAR LIRA 250715Z 34003KT CAVOK 13/10 Q1019=
200904250645 METAR LIRA 250645Z 36003KT CAVOK 11/09 Q1018=
200904250615 METAR LIRA 250615Z 36003KT CAVOK 10/09 Q1018=
200904250545 METAR LIRA 250545Z 34001KT CAVOK 09/08 Q1018=
200904250515 METAR LIRA 250515Z 36001KT CAVOK 09/08 Q1017=
200904250445 METAR LIRA 250445Z 05002KT CAVOK 09/08 Q1017=
200904250415 METAR LIRA 250415Z 04002KT CAVOK 09/08 Q1017=
200904250345 METAR LIRA 250345Z 00000KT 9999 FEW080 09/08 Q1017=
200904250315 METAR LIRA 250315Z 00000KT CAVOK 09/08 Q1017=
200904250245 METAR LIRA 250245Z 00000KT CAVOK 09/08 Q1017=
200904250215 METAR LIRA 250215Z 00000KT CAVOK 10/08 Q1017=
200904250145 METAR LIRA 250145Z 00000KT CAVOK 10/08 Q1017=
200904250115 METAR LIRA 250115Z 33001KT CAVOK 10/08 Q1017=
200904250045 METAR LIRA 250045Z 04002KT 9999 FEW080 10/09 Q1017=
200904250015 METAR LIRA 250015Z 02002KT 9999 FEW080 11/09 Q1017=
200904242345 METAR LIRA 242345Z 04001KT 9999 FEW080 11/09 Q1017=
200904242315 METAR LIRA 242315Z 02003KT 9999 FEW080 11/08 Q1017=
200904242245 METAR LIRA 242245Z 35004KT 9999 FEW080 12/09 Q1017=
200904242215 METAR LIRA 242215Z 29003KT 9999 FEW080 12/09 Q1017=
200904242145 METAR LIRA 242145Z 05003KT 9999 FEW080 12/09 Q1017=
200904242115 METAR LIRA 242115Z 00000KT 9999 FEW080 13/09 Q1017=
200904242045 METAR LIRA 242045Z 00000KT 9999 FEW020 13/09 Q1017=
200904242015 METAR LIRA 242015Z 05004KT 9999 FEW017 FEW018CB 13/11 Q1017=
200904241945 METAR LIRA 241945Z 06006KT 030V110 9999 FEW018 FEW020CB 14/11
                        Q1017=
200904241915 METAR LIRA 241915Z 06007KT 010V100 9999 FEW017 FEW018CB 14/11
                        Q1017=
200904241845 METAR LIRA 241845Z 05007KT 010V080 9999 FEW018 FEW020CB SCT070
                        15/10 Q1017=
200904241815 METAR LIRA 241815Z 03009KT 350V060 9999 FEW017 FEW018CB 15/09
                        Q1016=
200904241745 METAR LIRA 241745Z 03006KT 360V090 9999 FEW017 SCT018CB 16/07
                        Q1016=
200904241715 METAR LIRA 241715Z 04006KT 9999 SCT017 SCT018CB 17/07 Q1016
                        RETS=
200904241645 METAR LIRA 241645Z 04006KT 360V090 9999 SCT017 SCT018CB 17/08
                        Q1016 RETS=
200904241615 METAR LIRA 241615Z 01004KT 9999 TS SCT017 FEW018CB SCT030
                        18/08 Q1016=
200904241545 METAR LIRA 241545Z 33004KT 9999 TS SCT017 FEW018CB FEW020TCU
                        19/10 Q1016=
200904241515 METAR LIRA 241515Z 05005KT 9999 TS SCT017 FEW018CB FEW020TCU
                        20/10 Q1016=
200904241445 METAR LIRA 241445Z 20007KT 140V280 9999 TS FEW017 FEW018CB
                        FEW020TCU 20/10 Q1015=
200904241415 METAR LIRA 241415Z 21006KT 110V290 9999 TS FEW017 FEW018CB
                        FEW020TCU 20/10 Q1015=
200904241345 METAR LIRA 241345Z 19008KT 130V260 9999 TS FEW017 FEW018CB
                        FEW020TCU 20/10 Q1015=
200904241315 METAR LIRA 241315Z 21009KT 150V270 9999 TS FEW017 FEW018CB
                        FEW020TCU 20/11 Q1015=
200904241245 METAR LIRA 241245Z 20007KT 160V260 9999 SCT017 FEW018CB 20/09
                        Q1015=
200904241215 METAR LIRA 241215Z 22004KT 160V250 9999 FEW017 FEW018TCU
                        SCT030 20/09 Q1015=
200904241145 METAR LIRA 241145Z 22004KT 9999 BKN018 20/10 Q1015=
200904241115 METAR LIRA 241115Z 25005KT 190V280 9999 SCT018 19/11 Q1015=
200904241045 METAR LIRA 241045Z 22006KT 120V230 9999 SCT018 19/11 Q1015=
200904241015 METAR LIRA 241015Z 09004KT 9999 FEW018 18/10 Q1015=
200904240945 METAR LIRA 240945Z 23001KT 9999 FEW018 17/10 Q1015=
200904240915 METAR LIRA 240915Z 29004KT 9999 FEW018 SCT070 17/11 Q1015=
200904240845 METAR LIRA 240845Z 36005KT 9999 FEW023 SCT070 16/11 Q1015=
200904240815 METAR LIRA 240815Z 02002KT 9999 FEW025 14/10 Q1015=
200904240745 METAR LIRA 240745Z 05006KT 350V100 9999 FEW025 13/09 Q1015=
200904240715 METAR LIRA 240715Z 04006KT 350V090 9999 FEW025 12/09 Q1015=
200904240645 METAR LIRA 240645Z 01004KT 9999 FEW040 SCT060 10/09 Q1015=
200904240615 METAR LIRA 240615Z 02004KT 330V090 9999 FEW040 SCT060 10/08
                        Q1015=
200904240545 METAR LIRA 240545Z 03006KT 360V090 9999 FEW060 09/08 Q1014=
200904240515 METAR LIRA 240515Z 03004KT 340V080 9999 FEW070 09/08 Q1014=
200904240445 METAR LIRA 240445Z 03005KT 330V090 9999 FEW040 SCT070 08/08
                        Q1014=
200904240415 METAR LIRA 240415Z 03004KT 9999 FEW070 08/08 Q1014=
200904240345 METAR LIRA 240345Z 03004KT 9999 FEW070 09/09 Q1014=
200904240315 METAR LIRA 240315Z 04004KT CAVOK 09/08 Q1014=
200904240245 METAR LIRA 240245Z 02003KT CAVOK 10/09 Q1014=
200904240215 METAR LIRA 240215Z 36003KT CAVOK 10/09 Q1014=
200904240145 METAR LIRA 240145Z 36003KT CAVOK 10/09 Q1014=
200904240115 METAR LIRA 240115Z 00000KT CAVOK 10/09 Q1014=
200904240045 METAR LIRA 240045Z 00000KT 9999 FEW070 11/08 Q1014=
200904240015 METAR LIRA 240015Z 04003KT 9999 SCT070 11/08 Q1014=
200904232350 METAR LIRA 240045Z 00000KT 9999 FEW070 11/08 Q1014=
200904232245 METAR LIRA 232245Z 05009KT 010V080 9999 SCT030 SCT070 12/09
                        Q1014 RETS=
200904232215 METAR LIRA 232215Z 03005KT 330V070 9999 SCT030 SCT070 12/09
                        Q1014 RETS=
200904232145 METAR LIRA 232145Z 36002KT 9999 TS FEW015CB SCT025 13/09
                        Q1013=
200904232115 METAR LIRA 232115Z 29005KT 280V360 9999 TS FEW015CB SCT025
                        13/10 Q1013=
200904232045 METAR LIRA 232045Z 11009KT 090V150 9999 -TSRA FEW015CB SCT025
                        12/11 Q1013 RETS=
200904232015 METAR LIRA 232015Z 07009KT 030V110 9999 -TSRA SCT015CB SCT025
                        12/10 Q1013 RETS=
200904231945 METAR LIRA 231945Z 10017KT 8000 TSRA FEW002 SCT012CB 13/11
                        Q1013=
200904231915 METAR LIRA 231915Z 01014G25KT 310V070 8000 -TSRA FEW003 SCT015CB
                        14/11 Q1015=
200904231845 METAR LIRA 231845Z 36014G30KT 300V080 9999 -TSRA SCT015CB
                        SCT025 15/10 Q1015=
200904231815 METAR LIRA 231815Z 13010KT 090V160 9999 TS SCT017CB SCT200
                        16/09 Q1012=
200904231745 METAR LIRA 231745Z 13009KT 100V170 9999 -TSRA SCT017CB SCT200
                        17/10 Q1012=
200904231715 METAR LIRA 231715Z 10010KT 060V130 9999 FEW017CB SCT025 20/12
                        Q1012=
200904231645 METAR LIRA 231645Z 11013KT 080V140 9999 FEW017CB SCT025 20/12
                        Q1012=
200904231615 METAR LIRA 231615Z 22002KT 9999 FEW015 FEW020CB 20/14 Q1011=
200904231545 METAR LIRA 231545Z 19005KT 120V220 9999 FEW018 FEW020TCU
                        SCT200 19/14 Q1011=
200904231515 METAR LIRA 231515Z 20005KT 170V250 9999 FEW018 FEW020TCU
                        SCT200 19/14 Q1011=
200904231445 METAR LIRA 231445Z 20006KT 120V250 9999 FEW018 FEW020CB SCT200
                        20/13 Q1011=
200904231415 METAR LIRA 231415Z 20007KT 160V250 9999 SCT018 FEW020CB SCT200
                        19/14 Q1011=
200904231345 METAR LIRA 231345Z 22007KT 170V250 9999 SCT018 FEW020CB SCT200
                        20/13 Q1011=
200904231315 METAR LIRA 231315Z 20009KT 160V260 9999 SCT018 FEW020CB SCT200
                        21/14 Q1011=
200904231245 METAR LIRA 231245Z 21007KT 150V240 9999 FEW018 SCT200 21/14
                        Q1011=
200904231215 METAR LIRA 231215Z 22008KT 170V280 9999 FEW018 SCT200 20/13
                        Q1011=
200904231145 METAR LIRA 231145Z 22006KT 180V260 9999 SCT018 SCT200 20/13
                        Q1012=
200904231115 METAR LIRA 231115Z 23005KT 170V270 9999 SCT018 FEW020TCU
                        SCT040 21/09 Q1012=
200904231045 METAR LIRA 231045Z 24008KT 180V290 9999 SCT018 FEW020TCU
                        SCT200 21/11 Q1012=
200904231015 METAR LIRA 231015Z 17002KT 9999 SCT018 FEW020TCU 21/11 Q1012=
200904230945 METAR LIRA 230945Z 19003KT 180V260 9999 SCT020 20/11 Q1012=
200904230915 METAR LIRA 230915Z 23005KT 180V260 9999 FEW020 20/12 Q1012=
200904230845 METAR LIRA 230845Z 23004KT 9999 FEW020 19/12 Q1012=
200904230815 METAR LIRA 230815Z 25003KT 9999 FEW020 18/12 Q1012=
200904230745 METAR LIRA 230745Z 29003KT CAVOK 16/11 Q1011=
200904230715 METAR LIRA 230715Z 33001KT CAVOK 16/11 Q1011=
200904230645 METAR LIRA 230645Z 02002KT CAVOK 14/11 Q1011=
200904230615 METAR LIRA 230615Z 05002KT CAVOK 13/11 Q1011=
200904230545 METAR LIRA 230545Z 05003KT 9999 FEW070 12/10 Q1011=
200904230515 METAR LIRA 230515Z 05004KT 9999 SCT070 12/10 Q1011=
200904230445 METAR LIRA 230445Z 05004KT 9999 FEW030 SCT070 12/10 Q1011=
200904230415 METAR LIRA 230415Z 06001KT 9999 FEW030 SCT070 12/10 Q1011=
200904230345 METAR LIRA 230345Z 03003KT 9999 FEW030 SCT070 12/10 Q1011=
200904230315 METAR LIRA 230315Z 35002KT 9999 FEW030 SCT070 12/10 Q1011=
200904230245 METAR LIRA 230245Z 01002KT 9999 FEW030 SCT070 12/10 Q1011=
200904230215 METAR LIRA 230215Z 05001KT 9999 FEW030 SCT070 12/09 Q1011=
200904230145 METAR LIRA 230145Z 06001KT 9999 FEW030 SCT070 13/10 Q1011=
200904230115 METAR LIRA 230115Z 01002KT 9999 FEW030 SCT070 13/10 Q1011=
200904230045 METAR LIRA 230045Z 03003KT 9999 FEW030 SCT070 13/11 Q1011=
200904230015 METAR LIRA 230015Z 06002KT 9999 FEW030 SCT070 13/10 Q1011=
200904222345 METAR LIRA 222345Z 36002KT 9999 FEW018 SCT070 13/10 Q1011=
200904222245 METAR LIRA 222245Z 00000KT 9999 FEW018 SCT070 13/11 Q1011=
200904222215 METAR LIRA 222215Z 07004KT 9999 FEW018 SCT070 14/11 Q1011=
200904222145 METAR LIRA 222145Z 36002KT 9999 FEW018 SCT070 14/11 Q1011=
200904222115 METAR LIRA 222115Z 34003KT 9999 FEW018 SCT070 15/12 Q1011=
200904222045 METAR LIRA 222045Z 03003KT 9999 FEW018 SCT070 15/11 Q1011=
200904222015 METAR LIRA 222015Z 35003KT 9999 FEW018 BKN070 15/12 Q1010=
200904221945 METAR LIRA 221945Z 30002KT 9999 FEW018 BKN070 15/12 Q1010=
200904221915 METAR LIRA 221915Z 01002KT 9999 FEW016 SCT030 16/13 Q1010=
200904221845 METAR LIRA 221845Z 18002KT 9999 FEW016 SCT030 16/13 Q1010=
200904221815 METAR LIRA 221815Z 23004KT 9999 FEW018 SCT030 17/12 Q1009=
200904221745 METAR LIRA 221745Z 17004KT 9999 FEW018 SCT030 17/13 Q1010=
200904221715 METAR LIRA 221715Z 18006KT 9999 FEW018 SCT030 17/11 Q1009=
200904221645 METAR LIRA 221645Z 17008KT 9999 FEW018 SCT030 18/12 Q1008=
200904221615 METAR LIRA 221615Z 18005KT 130V210 9999 FEW018 SCT030 18/12
                        Q1008=
200904221545 METAR LIRA 221545Z 19004KT 150V220 9999 FEW017 SCT030 18/13
                        Q1008=
200904221515 METAR LIRA 221515Z 18004KT 130V200 9999 FEW017 SCT030 18/12
                        Q1008=
200904221445 METAR LIRA 221445Z 19006KT 150V240 9999 FEW017 SCT030 18/12
                        Q1008=
200904221415 METAR LIRA 221415Z 19006KT 150V240 9999 FEW017 FEW020CB SCT030
                        18/11 Q1008=
200904221345 METAR LIRA 221345Z 18007KT 150V240 9999 FEW017 FEW020CB SCT030
                        19/12 Q1008=
200904221315 METAR LIRA 221315Z 19008KT 150V220 9999 FEW017 FEW020CB SCT030
                        18/12 Q1008=
200904221245 METAR LIRA 221245Z 19009KT 150V230 9999 -DZ FEW017 FEW020CB
                        SCT030 18/12 Q1008=
200904221215 METAR LIRA 221215Z 15006KT 120V260 9999 -DZ FEW017 FEW020CB
                        SCT030 19/12 Q1008=
200904221145 METAR LIRA 221145Z 34005KT 290V040 9999 FEW020 SCT030 BKN070
                        21/10 Q1008=
200904221115 METAR LIRA 221115Z 31009KT 280V020 9999 SCT020 SCT030 21/10
                        Q1008=
200904221045 METAR LIRA 221045Z 31009KT 290V010 9999 FEW020 SCT035 20/10
                        Q1008=
200904221015 METAR LIRA 221015Z 01007KT 320V070 9999 FEW020 SCT035 20/11
                        Q1009=
200904220945 METAR LIRA 220945Z 06004KT 9999 FEW020 SCT080 20/11 Q1009=
200904220915 METAR LIRA 220915Z 03003KT 010V100 9999 FEW020 SCT080 20/11
                        Q1008=
200904220845 METAR LIRA 220845Z 02005KT 320V080 9999 FEW020 SCT080 18/09
                        Q1008=
200904220815 METAR LIRA 220815Z 36005KT 330V040 9999 FEW020 SCT200 17/09
                        Q1008=
200904220745 METAR LIRA 220745Z 05004KT 340V070 9999 FEW020 SCT035 16/08
                        Q1008=
200904220715 METAR LIRA 220715Z 01006KT 340V060 9999 FEW020 SCT035 16/09
                        Q1008=
200904220645 METAR LIRA 220645Z 02005KT 330V060 9999 FEW020 SCT035 14/09
                        Q1008=
200904220615 METAR LIRA 220615Z 02005KT 330V060 9999 FEW020 SCT035 14/08
                        Q1007=
200904220545 METAR LIRA 220545Z 02005KT 330V090 9999 FEW020 SCT070 13/09
                        Q1007=
200904220515 METAR LIRA 220515Z 04006KT 010V080 9999 FEW020 SCT070 13/08
                        Q1007=
200904220445 METAR LIRA 220445Z 02004KT 340V040 9999 FEW020 SCT030 12/08
                        Q1007=
200904220415 METAR LIRA 220415Z 03006KT 350V060 9999 FEW020 SCT030 12/09
                        Q1006=
200904220345 METAR LIRA 220345Z 36004KT 9999 FEW020 SCT030 12/09 Q1006=
200904220315 METAR LIRA 220315Z 02002KT 9999 FEW020 SCT045 12/09 Q1006=
200904220245 METAR LIRA 220245Z 36004KT 9999 FEW020 SCT045 12/09 Q1006=
200904220215 METAR LIRA 220215Z 36002KT 9999 SCT045 13/10 Q1006=
200904220145 METAR LIRA 220145Z 01005KT 9999 FEW020 SCT045 12/10 Q1006=
200904220115 METAR LIRA 220115Z 03004KT 9999 FEW020 SCT035 13/10 Q1006=
200904220045 METAR LIRA 220045Z 01003KT 9999 FEW020 SCT035 13/10 Q1006=
200904220015 METAR LIRA 220015Z 03004KT 9999 FEW020 SCT045 14/10 Q1007=
200904212350 METAR LIRA 220045Z 01003KT 9999 FEW020 SCT035 13/10 Q1006=
200904212345 METAR LIRA 212345Z 36004KT 9999 FEW020 SCT040 14/10 Q1007=
200904212315 METAR LIRA 212315Z 36004KT 9999 FEW020 SCT035 14/10 Q1007=
200904212245 METAR LIRA 212245Z 36005KT 9999 FEW020 SCT030 14/10 Q1007=
200904212215 METAR LIRA 212215Z 36006KT 320V050 9999 -RA FEW018 SCT030
                        14/10 Q1007=
200904212145 METAR LIRA 212145Z 01004KT 330V060 9999 -RA FEW018 SCT030
                        15/10 Q1007=
200904212115 METAR LIRA 212115Z 36004KT 330V030 9999 FEW018 SCT035 15/10
                        Q1007=
200904212045 METAR LIRA 212045Z 36005KT 320V030 9999 FEW020TCU SCT035
                        15/09 Q1007=
200904212015 METAR LIRA 212015Z 02002KT 9999 FEW018 SCT035 15/09 Q1006=
200904211945 METAR LIRA 211945Z 01009KT 330V060 9999 FEW018TCU SCT035
                        15/09 Q1006=
200904211915 METAR LIRA 211915Z 36007KT 310V050 9999 FEW018TCU SCT030
                        15/08 Q1006=
200904211845 METAR LIRA 211845Z 36007KT 320V060 9999 FEW018TCU SCT030
                        16/08 Q1006=
200904211815 METAR LIRA 211815Z 36007G17KT 310V080 9999 FEW018TCU SCT035
                        BKN070 17/08 Q1005=
200904211745 METAR LIRA 211745Z 35011KT 300V040 9999 FEW017TCU SCT035
                        17/08 Q1005=
200904211715 METAR LIRA 211715Z 36014KT 310V060 9999 FEW017TCU SCT030
                        18/09 Q1005=
200904211645 METAR LIRA 211645Z 34010KT 300V040 9999 FEW018TCU SCT030
                        18/09 Q1005=
200904211615 METAR LIRA 211615Z 34012KT 300V040 9999 FEW017 SCT035 18/07
                        Q1005=
200904211545 METAR LIRA 211545Z 34012KT 290V050 9999 FEW018 SCT070 19/08
                        Q1005=
200904211515 METAR LIRA 211515Z 36009KT 310V060 9999 FEW018 SCT070 18/07
                        Q1005=
200904211445 METAR LIRA 211445Z 35011KT 300V040 9999 FEW018 SCT070 18/07
                        Q1006=
200904211415 METAR LIRA 211415Z 02010KT 330V080 9999 FEW018 SCT030 18/07
                        Q1006=
200904211345 METAR LIRA 211345Z 03009KT 310V080 9999 SCT017 SCT027 18/07
                        Q1006=
200904211315 METAR LIRA 211315Z 01011KT 330V070 9999 SCT016 SCT025 BKN070
                        19/09 Q1006=
200904211245 METAR LIRA 211245Z 03012KT 340V080 9999 SCT016 SCT025 BKN070
                        19/09 Q1006=
200904211215 METAR LIRA 211215Z 04011KT 340V090 9999 SCT016 SCT025 BKN070
                        19/09 Q1006=
200904211145 METAR LIRA 211145Z 03005KT 310V020 9999 FEW018 SCT025 19/11
                        Q1006=
200904211115 METAR LIRA 211115Z 02005KT 320V090 9999 FEW018 SCT030 19/11
                        Q1007=
200904211045 METAR LIRA 211045Z 03004KT 330V090 9999 FEW018 SCT070 18/10
                        Q1007=
200904211015 METAR LIRA 211015Z 04006KT 9999 FEW018 SCT030 15/10 Q1007=
200904210945 METAR LIRA 210945Z 04004KT 9999 FEW018 SCT030 BKN070 15/11
                        Q1007=
200904210915 METAR LIRA 210915Z 03002KT 9999 FEW018 SCT030 BKN070 15/11
                        Q1008=
200904210845 METAR LIRA 210845Z 04002KT 9999 FEW018 SCT030 BKN070 14/11
                        Q1007=
200904210815 METAR LIRA 210815Z 06005KT 9999 FEW018 SCT030 BKN070 13/11
                        Q1008=
200904210745 METAR LIRA 210745Z 03003KT 9999 FEW018 SCT030 BKN070 13/10
                        Q1008=
200904210715 METAR LIRA 210715Z 00000KT 9999 -RA FEW018 BKN030 12/10 Q1008=
200904210645 METAR LIRA 210645Z 00000KT 9999 -RA FEW018 BKN030 12/10 Q1008=
200904210615 METAR LIRA 210615Z 01003KT 9999 -RA SCT020 BKN030 12/11 Q1008=
200904210545 METAR LIRA 210545Z 05003KT 9999 -RA FEW018 BKN030 12/11 Q1008=
200904210515 METAR LIRA 210515Z 05002KT 9999 -RA FEW018 SCT030 12/11 Q1008=
200904210445 METAR LIRA 210445Z 05004KT 8000 -RA SCT018 SCT030 11/11 Q1008=
200904210415 METAR LIRA 210415Z 06003KT 9999 -RA SCT020 SCT030 12/11 Q1008=
200904210345 METAR LIRA 210345Z 01004KT 9999 -RA SCT020 SCT030 12/11 Q1008=
200904210315 METAR LIRA 210315Z 03004KT 9999 FEW020 SCT030 12/11 Q1008=
200904210245 METAR LIRA 210245Z 02004KT 9999 FEW020 SCT040 12/11 Q1008=
200904210215 METAR LIRA 210215Z 03005KT 9999 FEW018 SCT030 12/11 Q1008=
200904210145 METAR LIRA 210145Z 03004KT 9999 FEW020 SCT040 12/11 Q1009=
200904210115 METAR LIRA 210115Z 04004KT 9999 FEW020 SCT040 12/11 Q1009=
200904210045 METAR LIRA 210045Z 03005KT 9999 FEW020 SCT040 12/12 Q1009=
200904210015 METAR LIRA 210015Z 02003KT 9999 FEW020 SCT035 13/12 Q1010=
200904202350 METAR LIRA 210045Z 03005KT 9999 FEW020 SCT040 12/12 Q1009=
200904202345 METAR LIRA 202345Z 01003KT 9999 FEW020 SCT035 13/12 Q1010=
200904202315 METAR LIRA 202315Z 03002KT 9999 FEW020 SCT030 13/12 Q1010=
200904202245 METAR LIRA 202245Z 36003KT 9999 FEW020 SCT030 13/13 Q1011=
200904202215 METAR LIRA 202215Z 04004KT 9999 -RA FEW020 SCT030 BKN060
                        13/12 Q1011=
200904202145 METAR LIRA 202145Z 36004KT 9999 FEW020 SCT030 BKN060 13/12
                        Q1011=
200904202115 METAR LIRA 202115Z 01003KT 9999 FEW020 SCT030 14/12 Q1012=
200904202045 METAR LIRA 202045Z 04004KT 9999 FEW020 SCT030 14/12 Q1012=
200904202015 METAR LIRA 202015Z 04002KT 9999 FEW020 SCT030 14/12 Q1012=
200904201945 METAR LIRA 201945Z 04002KT 9999 FEW022TCU SCT030 14/12 Q1012=
200904201915 METAR LIRA 201915Z 05004KT 8000 FEW022TCU SCT035 14/12 Q1012=
200904201845 METAR LIRA 201845Z 02004KT 8000 FEW022TCU SCT035 BKN070 15/12
                        Q1012=
200904201815 METAR LIRA 201815Z 01004KT 320V050 8000 FEW022TCU SCT035
                        BKN070 15/11 Q1012=
200904201745 METAR LIRA 201745Z 36005KT 330V030 9999 FEW018 FEW022TCU
                        SCT035 16/11 Q1012=
200904201715 METAR LIRA 201715Z 34006KT 9999 FEW018 FEW022TCU SCT035 16/11
                        Q1012=
200904201645 METAR LIRA 201645Z 34003KT 9999 SCT020 FEW022TCU SCT035 16/11
                        Q1012=
200904201615 METAR LIRA 201615Z 33004KT 9999 -RA SCT018 FEW020TCU SCT035
                        16/12 Q1012=
200904201545 METAR LIRA 201545Z 36002KT 9000 FEW015 FEW017CB BKN060 16/12
                        Q1013=
200904201515 METAR LIRA 201515Z 01004KT 9000 FEW015 FEW017CB BKN060 16/11
                        Q1013=
200904201445 METAR LIRA 201445Z 36005KT 330V080 9000 FEW018 SCT030 BKN060
                        16/11 Q1013=
200904201415 METAR LIRA 201415Z 04003KT 360V080 9000 FEW018 SCT030 BKN060
                        16/12 Q1013=
200904201345 METAR LIRA 201345Z 04004KT 9000 FEW018 SCT030 BKN060 16/13
                        Q1014=
200904201315 METAR LIRA 201315Z 36003KT 8000 -RA FEW017 SCT030 BKN060
                        16/12 Q1014=
200904201245 METAR LIRA 201245Z 05003KT 8000 -RA FEW017 BKN060 16/12 Q1014=
200904201215 METAR LIRA 201215Z 01004KT 330V060 9999 FEW017 BKN060 15/11
                        Q1014=
200904201145 METAR LIRA 201145Z 02003KT 9999 FEW017 SCT030 15/11 Q1015=
200904201115 METAR LIRA 201115Z 03004KT 350V070 9999 FEW017 SCT030 15/11
                        Q1014=
200904201045 METAR LIRA 201045Z 04007KT 340V090 9999 FEW017 SCT030 14/11
                        Q1015=
200904201015 METAR LIRA 201015Z 05003KT 9999 FEW017 SCT025 14/11 Q1015=
200904201000 METAR LIRA INTER CB SW-N=
200904200945 METAR LIRA 200945Z 02004KT 340V060 9999 FEW017 SCT025 14/10
                        Q1015=
200904200915 METAR LIRA 200915Z 01004KT 320V070 9999 FEW015 SCT070 14/11
                        Q1016=
200904200845 METAR LIRA 200845Z 01005KT 330V090 9999 FEW015 SCT070 11/10
                        Q1016=
200904200815 METAR LIRA 200815Z 02004KT 340V080 8000 SCT015 SCT070 10/09
                        Q1015=
200904200745 METAR LIRA 200745Z 02004KT 340V060 7000 SCT010 SCT023 09/08
                        Q1015=
200904200715 METAR LIRA 200715Z 02007KT 320V050 6000 SCT010 SCT023 08/08
                        Q1015=
200904200645 METAR LIRA 200645Z 02004KT 340V060 8000 FEW018 SCT070 08/08
                        Q1015=
200904200615 METAR LIRA 200615Z 03006KT 360V090 5000 BR FEW007 SCT070
                        BKN200 08/07 Q1015=
200904200545 METAR LIRA 200545Z 02003KT 1200 R15/1400D MIFG SCT003 SCT200
                        07/07 Q1015=
200904200515 METAR LIRA 200515Z 01003KT 0600 R15/0700 FG SCT002 SCT200
                        07/06 Q1015=
200904200445 METAR LIRA 200445Z 02004KT 0400 R15/1500D FG BKN002 07/06
                        Q1015=
200904200415 METAR LIRA 200415Z 02003KT 7000 FEW070 SCT200 07/07 Q1015=
200904200345 METAR LIRA 200345Z 00000KT 6000 FEW007 07/06 Q1015=
200904200315 METAR LIRA 200315Z 04002KT 4000 BR FEW007 07/07 Q1015=
200904200245 METAR LIRA 200245Z 02003KT 4000 BR FEW004 07/07 Q1015=
200904200215 METAR LIRA 200215Z 04004KT 2000 MIFG FEW003 07/07 Q1015=
200904200145 METAR LIRA 200145Z 03002KT 0200 R15/0800U FG SCT001 07/07
                        Q1015=
200904200115 METAR LIRA 200115Z 01003KT 3000 BR SCT003 08/07 Q1016=
200904200045 METAR LIRA 200045Z 03002KT 3000 BR SCT003 08/08 Q1016=
200904200015 METAR LIRA 200015Z 03002KT 7000 FEW004 09/08 Q1016=
200904192350 METAR LIRA 200045Z 03002KT 3000 BR SCT003 08/08 Q1016=
200904192345 METAR LIRA 192345Z 07002KT 7000 FEW004 09/08 Q1016=
200904192315 METAR LIRA 192315Z 11003KT 6000 SCT004 09/08 Q1016=
200904192245 METAR LIRA 192245Z 10003KT 6000 SCT004 09/09 Q1016=
200904192215 METAR LIRA 192215Z 11003KT 6000 SCT002 09/09 Q1016=
200904192145 METAR LIRA 192145Z 10003KT 6000 SCT004 10/09 Q1016=
200904192115 METAR LIRA 192115Z 10002KT 5000 BR FEW004 10/10 Q1016=
200904192045 METAR LIRA 192045Z 00000KT 2000 MIFG BR SCT003 10/09 Q1016=
200904192015 METAR LIRA 192015Z 00000KT 2000 MIFG BR FEW004 10/10 Q1016=
200904191945 METAR LIRA 191945Z 00000KT 1200 R15/P1500U MIFG BR SCT003
                        11/10 Q1016=
200904191915 METAR LIRA 191915Z 00000KT 4000 MIFG BR FEW004 12/11 Q1015=
200904191845 METAR LIRA 191845Z 00000KT 7000 FEW003 12/11 Q1015=
200904191815 METAR LIRA 191815Z 02001KT 9000 FEW003 SCT070 13/11 Q1014=
200904191745 METAR LIRA 191745Z 36001KT 9999 FEW003 SCT070 13/11 Q1014=
200904191715 METAR LIRA 191715Z 01003KT 9999 FEW007 SCT070 13/12 Q1014=
200904191645 METAR LIRA 191645Z 36003KT 9999 SCT012 SCT030 13/12 Q1014=
200904191615 METAR LIRA 191615Z 34001KT 9999 SCT015 SCT030 13/12 Q1014=
200904191545 METAR LIRA 191545Z 01002KT 9999 SCT009 SCT015 BKN030 12/11
                        Q1014=
200904191515 METAR LIRA 191515Z 24002KT 9000 -RA SCT009 SCT015 BKN030
                        12/11 Q1014=
200904191445 METAR LIRA 191445Z 00000KT 8000 -RA FEW016 SCT030 BKN070
                        12/10 Q1014=
200904191415 METAR LIRA 191415Z 23002KT 8000 FEW016 SCT025 BKN060 12/11
                        Q1014=
200904191345 METAR LIRA 191345Z 14005KT 8000 -RA FEW015 SCT025 BKN060
                        12/11 Q1014=
200904191315 METAR LIRA 191315Z 17004KT 8000 -RA FEW015 SCT023 BKN060
                        12/12 Q1014=
200904191245 METAR LIRA 191245Z 15005KT 120V200 7000 -RA SCT013 BKN023
                        12/11 Q1014=
200904191215 METAR LIRA 191215Z 18005KT 7000 -RA SCT013 SCT023 BKN060
                        12/11 Q1014=
200904191145 METAR LIRA 191145Z 18003KT 6000 -RA SCT012 FEW018CB BKN023
                        11/11 Q1014 RERA=
200904191115 METAR LIRA 191115Z 17005KT 5000 -RA BR FEW012 FEW018CB BKN023
                        12/11 Q1014 RERA=
200904191045 METAR LIRA 191045Z 19012KT 4000 RA BR SCT009 FEW018CB BKN023
                        13/11 Q1014=
200904191015 METAR LIRA 191015Z 20005KT 170V250 5000 -RA BR SCT013 FEW018CB
                        BKN025 14/11 Q1014=
200904190945 METAR LIRA 190945Z 26006KT 210V310 6000 -RA SCT013 FEW018CB
                        SCT025 14/11 Q1013=
200904190915 METAR LIRA 190915Z 24009KT 180V280 8000 SCT013 FEW018CB SCT025
                        16/10 Q1013=
200904190845 METAR LIRA 190845Z 19008KT 140V220 9999 FEW018 FEW020CB SCT030
                        BKN070 16/11 Q1013=
200904190815 METAR LIRA 190815Z 14005KT 090V180 9999 FEW018 FEW020CB SCT030
                        16/12 Q1013=
200904190745 METAR LIRA 190745Z 30001KT 9999 FEW018 FEW020CB SCT030 14/10
                        Q1013=
200904190715 METAR LIRA 190715Z 30001KT 9999 FEW018 FEW020CB SCT030 14/11
                        Q1013=
200904190645 METAR LIRA 190645Z 00000KT 9999 FEW018 SCT030 BKN070 13/11
                        Q1013=
200904190615 METAR LIRA 190615Z 36002KT 9999 FEW018 SCT030 BKN070 13/10
                        Q1012=
200904190545 METAR LIRA 190545Z 36002KT 9999 FEW018 SCT040 BKN070 13/10
                        Q1012=
200904190515 METAR LIRA 190515Z 34004KT 9999 FEW018 SCT040 BKN070 12/10
                        Q1012=
200904190445 METAR LIRA 190445Z 33001KT 9999 FEW018 SCT030 BKN070 12/10
                        Q1012=
200904190415 METAR LIRA 190415Z 03002KT 9999 FEW018 BKN030 12/10 Q1012=
200904190345 METAR LIRA 190345Z 00000KT 9999 FEW018 SCT030 BKN070 12/10
                        Q1012=
200904190315 METAR LIRA 190315Z 00000KT 9999 FEW018 SCT030 BKN070 12/10
                        Q1012=
200904190245 METAR LIRA 190245Z 23002KT 9999 FEW018 SCT030 BKN070 12/10
                        Q1012=
200904190215 METAR LIRA 190215Z 02002KT 9999 FEW018 BKN080 13/10 Q1012=
200904190145 METAR LIRA 190145Z 08002KT 9999 FEW018 BKN080 13/10 Q1012=
200904190115 METAR LIRA 190115Z 02002KT 9999 FEW018 BKN080 13/10 Q1012=
200904190045 METAR LIRA 190045Z 01002KT 9999 FEW018 BKN080 13/10 Q1012=
200904190015 METAR LIRA 190015Z 01002KT 9999 FEW018 BKN070 13/09 Q1012=
200904182350 METAR LIRA 190045Z 01002KT 9999 FEW018 BKN080 13/10 Q1012=
200904182345 METAR LIRA 182345Z 36002KT 9999 FEW018 BKN080 13/09 Q1012=
200904182315 METAR LIRA 182315Z 03001KT 9999 FEW018 BKN080 14/07 Q1012=
200904182245 METAR LIRA 182245Z 03005KT 9999 FEW018 BKN080 14/08 Q1013=
200904182215 METAR LIRA 182215Z 07004KT 9999 FEW018 BKN070 14/08 Q1013=
200904182145 METAR LIRA 182145Z 00000KT 9999 FEW018 BKN080 15/08 Q1013=
200904182115 METAR LIRA 182115Z 16002KT 9999 FEW018 BKN080 15/09 Q1013=
200904182045 METAR LIRA 182045Z 20002KT 9999 FEW018 BKN080 15/09 Q1013=
200904182015 METAR LIRA 182015Z 19002KT 9999 FEW018 BKN080 14/09 Q1013=
200904181945 METAR LIRA 181945Z 21001KT 9999 FEW018 BKN080 15/09 Q1013=
200904181915 METAR LIRA 181915Z 21001KT 9999 FEW018 SCT030 BKN080 15/09
                        Q1012=
200904181845 METAR LIRA 181845Z 21002KT 9999 -DZ FEW018 SCT030 BKN080
                        16/09 Q1012=
200904181815 METAR LIRA 181815Z 20004KT 9999 FEW018 BKN080 16/08 Q1012=
200904181745 METAR LIRA 181745Z 21006KT 170V250 9999 FEW018 BKN080 16/09
                        Q1011=
200904181715 METAR LIRA 181715Z 19007KT 160V230 9999 FEW020 BKN080 18/06
                        Q1011=
200904181645 METAR LIRA 181645Z 18006KT 130V250 9999 FEW020 BKN080 18/06
                        Q1011=
200904181615 METAR LIRA 181615Z 32003KT 9999 FEW020 BKN080 19/06 Q1011=
200904181545 METAR LIRA 181545Z 01002KT 9999 FEW020 BKN080 19/06 Q1011=
200904181515 METAR LIRA 181515Z 34005KT 9999 FEW020 SCT070 19/07 Q1011=
200904181445 METAR LIRA 181445Z 35005KT 300V030 9999 FEW020 SCT070 19/07
                        Q1011=
200904181415 METAR LIRA 181415Z 32006KT 270V360 9999 FEW020 SCT035 19/08
                        Q1011=
200904181345 METAR LIRA 181345Z 35003KT 9999 FEW020 SCT030 19/08 Q1012=
200904181315 METAR LIRA 181315Z 03005KT 9999 FEW020 SCT030 18/08 Q1012=
200904181245 METAR LIRA 181245Z 36005KT 310V050 9999 FEW020 BKN090 18/09
                        Q1012=
200904181215 METAR LIRA 181215Z 32003KT 9999 FEW020 BKN100 18/09 Q1012=
200904181145 METAR LIRA 181145Z 32004KT 9999 FEW018 BKN100 17/08 Q1012=
200904181115 METAR LIRA 181115Z 30004KT 240V340 9999 FEW018 BKN100 17/08
                        Q1012=
200904181045 METAR LIRA 181045Z 22002KT 9999 FEW018 BKN100 17/09 Q1012=
200904181015 METAR LIRA 181015Z 03004KT 010V090 9999 SCT030 BKN100 16/07
                        Q1012=
200904180945 METAR LIRA 180945Z 01003KT 9999 SCT030 BKN100 15/09 Q1013=
200904180915 METAR LIRA 180915Z 04004KT 9999 SCT030 BKN100 14/09 Q1013=
200904180845 METAR LIRA 180845Z 36001KT 9999 SCT030 BKN080 13/09 Q1013=
200904180815 METAR LIRA 180815Z 33001KT 9999 SCT030 BKN080 12/09 Q1013=
200904180745 METAR LIRA 180745Z 35001KT 9999 SCT030 SCT080 BKN100 11/09
                        Q1013=
200904180715 METAR LIRA 180715Z 01002KT 9999 SCT030 BKN080 11/08 Q1013=
200904180645 METAR LIRA 180645Z 02002KT 9999 SCT030 BKN080 10/08 Q1013=
200904180615 METAR LIRA 180615Z 05003KT 9999 SCT030 BKN080 10/08 Q1013=
200904180545 METAR LIRA 180545Z 34001KT 9999 SCT030 BKN080 10/08 Q1012=
200904180515 METAR LIRA 180515Z 01001KT 9999 SCT030 BKN080 10/08 Q1012=
200904180445 METAR LIRA 180445Z 02003KT 9999 FEW020 SCT025 09/08 Q1012=
200904180415 METAR LIRA 180415Z 01001KT 9999 FEW020 SCT025 09/08 Q1012=
200904180345 METAR LIRA 180345Z 04002KT 9999 FEW020 SCT025 09/08 Q1013=
200904180315 METAR LIRA 180315Z 03002KT 9999 SCT070 09/07 Q1013=
200904180245 METAR LIRA 180245Z 36003KT 9999 SCT070 09/08 Q1013=
200904180215 METAR LIRA 180215Z 35001KT 9999 FEW070 10/08 Q1013=
200904180145 METAR LIRA 180145Z 08002KT 9999 FEW070 10/08 Q1013=
200904180115 METAR LIRA 180115Z 07002KT 9999 FEW070 10/08 Q1013=
200904180045 METAR LIRA 180045Z 12002KT 9999 SCT070 SCT200 11/09 Q1014=
200904180015 METAR LIRA 180015Z 00000KT 9999 SCT070 SCT200 11/09 Q1014=
200904172350 METAR LIRA 180045Z 12002KT 9999 SCT070 SCT200 11/09 Q1014=
200904172345 METAR LIRA 172345Z 09001KT 9999 SCT070 SCT200 12/09 Q1014=
200904172315 METAR LIRA 172315Z 01003KT CAVOK 11/08 Q1013=
200904172245 METAR LIRA 172245Z 09003KT CAVOK 11/09 Q1013=
200904172215 METAR LIRA 172215Z 11002KT CAVOK 11/09 Q1014=
200904172145 METAR LIRA 172145Z 00000KT CAVOK 13/10 Q1014=
200904172115 METAR LIRA 172115Z 15002KT CAVOK 13/10 Q1014=
200904172045 METAR LIRA 172045Z 15003KT CAVOK 13/10 Q1014=
200904172015 METAR LIRA 172015Z 16004KT CAVOK 14/10 Q1014=
200904171945 METAR LIRA 171945Z 15003KT 9999 FEW070 SCT200 14/10 Q1014=
200904171915 METAR LIRA 171915Z 19002KT 9999 FEW070 SCT200 14/09 Q1013=
200904171845 METAR LIRA 171845Z 21002KT 9999 FEW020 SCT200 15/09 Q1013=
200904171815 METAR LIRA 171815Z 21003KT 9999 FEW020 SCT200 15/10 Q1013=
200904171745 METAR LIRA 171745Z 21005KT 9999 FEW020 SCT200 16/10 Q1013=
200904171715 METAR LIRA 171715Z 23006KT 180V260 9999 FEW020 SCT200 16/10
                        Q1013=
200904171645 METAR LIRA 171645Z 24007KT 190V270 9999 FEW020 SCT200 17/09
                        Q1013=
200904171615 METAR LIRA 171615Z 23006KT 190V270 9999 SCT018 BKN200 18/08
                        Q1014=
200904171545 METAR LIRA 171545Z 24008KT 190V280 9999 SCT018 BKN200 18/08
                        Q1014=
200904171515 METAR LIRA 171515Z 23008KT 180V270 9999 FEW018 BKN200 18/07
                        Q1014=
200904171445 METAR LIRA 171445Z 22007KT 180V250 9999 SCT018 BKN200 19/08
                        Q1014=
200904171415 METAR LIRA 171415Z 20005KT 150V270 9999 SCT018 SCT200 19/08
                        Q1014=
200904171345 METAR LIRA 171345Z 24010KT 180V280 9999 SCT018 SCT200 19/09
                        Q1014=
200904171315 METAR LIRA 171315Z 21008KT 140V260 9999 SCT018 BKN200 19/08
                        Q1014=
200904171245 METAR LIRA 171245Z 22008KT 130V270 9999 SCT018 BKN200 19/08
                        Q1014=
200904171215 METAR LIRA 171215Z 24006KT 200V300 9999 SCT018 SCT200 19/08
                        Q1014=
200904171145 METAR LIRA 171145Z 22009KT 180V270 9999 SCT018 SCT200 19/07
                        Q1014=
200904171115 METAR LIRA 171115Z 22007KT 130V270 9999 SCT018 SCT200 19/07
                        Q1014=
200904171045 METAR LIRA 171045Z 26008KT 200V300 9999 SCT018 SCT200 18/10
                        Q1015=
200904171015 METAR LIRA 171015Z 23007KT 210V280 9999 SCT018 SCT200 17/09
                        Q1015=
200904170945 METAR LIRA 170945Z 25004KT 220V280 9999 SCT018 17/10 Q1014=
200904170915 METAR LIRA 170915Z 30005KT 9999 SCT018 17/10 Q1014=
200904170845 METAR LIRA 170845Z 24005KT 200V300 9999 SCT018 17/11 Q1014=
200904170815 METAR LIRA 170815Z 27004KT 9999 SCT018 16/12 Q1014=
200904170745 METAR LIRA 170745Z 17002KT 9999 SCT018 15/11 Q1014=
200904170715 METAR LIRA 170715Z 24002KT 9999 SCT018 SCT070 15/12 Q1014=
200904170645 METAR LIRA 170645Z 18002KT 9999 SCT018 SCT030 14/11 Q1014=
200904170615 METAR LIRA 170615Z 17001KT 9999 SCT018 14/12 Q1014=
200904170545 METAR LIRA 170545Z 16001KT 9999 SCT018 14/12 Q1014=
200904170515 METAR LIRA 170515Z 18002KT 9999 FEW020 SCT030 14/12 Q1014=
200904170445 METAR LIRA 170445Z 16002KT 9999 FEW020 SCT030 14/12 Q1013=
200904170415 METAR LIRA 170415Z 22001KT 9999 SCT030 SCT060 14/12 Q1013=
200904170345 METAR LIRA 170345Z 18002KT 9999 SCT030 SCT060 14/13 Q1013=
200904170315 METAR LIRA 170315Z 17003KT 9999 SCT035 SCT060 14/13 Q1013=
200904170245 METAR LIRA 170245Z 19004KT 9999 SCT035 SCT060 14/13 Q1013=
200904170215 METAR LIRA 170215Z 19003KT 8000 FEW030 SCT060 14/14 Q1013=
200904170145 METAR LIRA 170145Z 18003KT 8000 SCT035 SCT060 14/14 Q1013=
200904170045 METAR LIRA 170045Z 17005KT 7000 FEW018 SCT030 14/14 Q1013=
200904170015 METAR LIRA 170015Z 17005KT 130V200 7000 FEW018 SCT025 14/12
                        Q1013=
200904162350 METAR LIRA 170045Z 17005KT 7000 FEW018 SCT030 14/14 Q1013=
200904162345 METAR LIRA 162345Z 17008KT 7000 -RA FEW018 SCT030 14/14 Q1013
                        RERA=
200904162315 METAR LIRA 162315Z 16010KT 130V190 7000 -RA FEW018 BKN030
                        15/13 Q1013=
200904162245 METAR LIRA 162245Z 16013KT 7000 -DZ FEW018 SCT030 BKN060
                        15/13 Q1013=
200904162215 METAR LIRA 162215Z 15009KT 120V190 8000 -DZ SCT030 SCT060
                        15/13 Q1013=
200904162145 METAR LIRA 162145Z 16010KT 130V190 7000 -DZ BKN030 SCT060
                        15/13 Q1013=
200904162115 METAR LIRA 162115Z 19007KT 150V230 9999 SCT030 SCT060 15/13
                        Q1013=
200904162045 METAR LIRA 162045Z 15008KT 130V200 9999 -RA SCT030 SCT060
                        15/13 Q1013=
200904162015 METAR LIRA 162015Z 15012KT 090V190 9999 -RA SCT030 SCT060
                        15/12 Q1014=
200904161945 METAR LIRA 161945Z 16008KT 120V210 9999 SCT030 SCT060 15/11
                        Q1014=
200904161915 METAR LIRA 161915Z 16013KT 130V210 9999 SCT030 SCT060 16/10
                        Q1014=
200904161845 METAR LIRA 161845Z 18015KT 150V220 9999 FEW025 SCT060 16/09
                        Q1013=
200904161815 METAR LIRA 161815Z 17015KT 130V210 9999 FEW025 SCT060 17/10
                        Q1012=
200904161745 METAR LIRA 161745Z 18012KT 150V220 9999 FEW025 SCT060 17/09
                        Q1013=
200904161715 METAR LIRA 161715Z 16015KT 130V200 9999 FEW020TCU SCT035
                        18/09 Q1012=
200904161645 METAR LIRA 161645Z 16017KT 120V190 9999 FEW020TCU SCT035
                        18/09 Q1013=
200904161615 METAR LIRA 161615Z 19015KT 140V220 9999 SCT025 SCT070 19/08
                        Q1013=
200904161545 METAR LIRA 161545Z 16010KT 130V240 9999 FEW020 BKN070 19/09
                        Q1012=
200904161515 METAR LIRA 161515Z 15020KT 9999 FEW020 BKN070 19/08 Q1012=
200904161445 METAR LIRA 161445Z 15019KT 120V190 9999 FEW020 BKN070 19/07
                        Q1013=
200904161415 METAR LIRA 161415Z 16016KT 130V210 9999 FEW020 SCT070 20/06
                        Q1014=
200904161345 METAR LIRA 161345Z 15018KT 9999 FEW020 SCT070 20/06 Q1014=
200904161315 METAR LIRA 161315Z 15015KT 9999 FEW020 SCT070 20/06 Q1014=
200904161245 METAR LIRA 161245Z 16014KT 130V220 9999 FEW020 SCT070 21/09
                        Q1015=
200904161215 METAR LIRA 161215Z 20010KT 060V230 9999 FEW042 SCT070 21/11
                        Q1015=
200904161145 METAR LIRA 161145Z 18009KT 150V230 9999 SCT070 BKN080 20/10
                        Q1015=
200904161115 METAR LIRA 161115Z 15011KT 130V190 9999 BKN070 SCT080 21/10
                        Q1015=
200904161045 METAR LIRA 161045Z 15013KT 130V190 CAVOK 20/10 Q1015=
200904161015 METAR LIRA 161015Z 18013KT 120V210 CAVOK 20/10 Q1015=
200904160945 METAR LIRA 160945Z 16014KT 130V200 CAVOK 20/10 Q1015=
200904160915 METAR LIRA 160915Z 18010KT 090V230 9000 NSC 19/14 Q1015=
200904160845 METAR LIRA 160845Z 11002KT 8000 NSC 17/12 Q1015=
200904160815 METAR LIRA 160815Z 30001KT 7000 SCT080 SCT200 16/11 Q1015=
200904160745 METAR LIRA 160745Z 31005KT 7000 NSC 15/12 Q1015=
200904160715 METAR LIRA 160715Z 34003KT 6000 FEW070 SCT200 14/11 Q1015=
200904160645 METAR LIRA 160645Z 03004KT 7000 FEW030 SCT070 12/10 Q1016=
200904160615 METAR LIRA 160615Z 07004KT 050V120 6000 FEW030 SCT070 12/10
                        Q1016=
200904160515 METAR LIRA 160515Z 06005KT 8000 SCT070 10/09 Q1015=
200904160445 METAR LIRA 160445Z 07002KT 9999 SCT070 09/06 Q1014=
200904160415 METAR LIRA 160415Z 00000KT 9999 SCT070 09/06 Q1014=
200904160345 METAR LIRA 160345Z 00000KT CAVOK 09/05 Q1014=
200904160315 METAR LIRA 160315Z 00000KT CAVOK 10/06 Q1014=
200904160245 METAR LIRA 160245Z 00000KT CAVOK 10/08 Q1014=
200904160215 METAR LIRA 160215Z 00000KT CAVOK 11/07 Q1014=
200904160145 METAR LIRA 160145Z 00000KT CAVOK 11/07 Q1014=
200904160115 METAR LIRA 160115Z 00000KT CAVOK 11/07 Q1014=
200904160045 METAR LIRA 160045Z 05003KT CAVOK 12/08 Q1014=
200904160015 METAR LIRA 160015Z 06001KT CAVOK 12/08 Q1015=
200904152350 METAR LIRA 160045Z 05003KT CAVOK 12/08 Q1014=
200904152345 METAR LIRA 152345Z 17003KT CAVOK 12/09 Q1015=
200904152315 METAR LIRA 152315Z 15003KT CAVOK 11/09 Q1015=
200904152245 METAR LIRA 152245Z 14004KT CAVOK 12/08 Q1015=
200904152215 METAR LIRA 152215Z 24005KT CAVOK 12/07 Q1015=
200904152145 METAR LIRA 152145Z 11002KT 9999 FEW070 13/09 Q1015=
200904152115 METAR LIRA 152115Z 14003KT 9999 FEW070 13/09 Q1015=
200904152045 METAR LIRA 152045Z 16002KT CAVOK 14/11 Q1015=
200904152015 METAR LIRA 152015Z 17002KT CAVOK 14/12 Q1015=
200904151945 METAR LIRA 151945Z 16001KT CAVOK 15/12 Q1015=
200904151915 METAR LIRA 151915Z 23002KT CAVOK 16/12 Q1015=
200904151845 METAR LIRA 151845Z 18003KT CAVOK 16/11 Q1015=
200904151815 METAR LIRA 151815Z 21003KT CAVOK 17/10 Q1014=
200904151745 METAR LIRA 151745Z 21003KT CAVOK 18/10 Q1014=
200904151715 METAR LIRA 151715Z 20005KT 160V230 CAVOK 19/12 Q1014=
200904151645 METAR LIRA 151645Z 22005KT 160V260 CAVOK 19/11 Q1014=
200904151615 METAR LIRA 151615Z 21007KT 150V240 CAVOK 20/11 Q1014=
200904151545 METAR LIRA 151545Z 22006KT 170V260 CAVOK 21/10 Q1013=
200904151515 METAR LIRA 151515Z 23007KT 190V300 CAVOK 22/10 Q1013=
200904151445 METAR LIRA 151445Z 21005KT 170V260 CAVOK 21/10 Q1013=
200904151415 METAR LIRA 151415Z 21007KT 130V240 CAVOK 22/11 Q1013=
200904151345 METAR LIRA 151345Z 23008KT 170V270 9999 FEW025 22/10 Q1014=
200904151315 METAR LIRA 151315Z 21007KT 170V270 9999 FEW025 22/10 Q1014=
200904151245 METAR LIRA 151245Z 22009KT 160V260 9999 FEW025 23/11 Q1014=
200904151215 METAR LIRA 151215Z 22007KT 150V240 9999 FEW025 23/09 Q1014=
200904151145 METAR LIRA 151145Z 29003KT 210V310 9999 FEW025 22/06 Q1014=
200904151115 METAR LIRA 151115Z 25004KT 9999 FEW025 21/05 Q1014=
200904151100 METAR LIRA INT=
200904151045 METAR LIRA 151045Z 14005KT 9000 FEW025 20/08 Q1014=
200904151015 METAR LIRA 151015Z 29004KT 9000 FEW025 20/09 Q1014=
200904151000 METAR LIRA CONTUS=
200904150945 METAR LIRA 150945Z 30003KT 8000 FEW025 19/11 Q1014=
200904150915 METAR LIRA 150915Z 00000KT 7000 NSC 18/11 Q1014=
200904150845 METAR LIRA 150845Z 34002KT 7000 NSC 17/11 Q1014=
200904150815 METAR LIRA 150815Z 00000KT 7000 NSC 16/11 Q1014=
200904150745 METAR LIRA 150745Z 36002KT 8000 NSC 13/09 Q1013=
200904150715 METAR LIRA 150715Z 34004KT CAVOK 13/10 Q1013=
200904150645 METAR LIRA 150645Z 05003KT CAVOK 09/08 Q1013=
200904150615 METAR LIRA 150615Z 04003KT CAVOK 09/08 Q1013=
200904150545 METAR LIRA 150545Z 00000KT CAVOK 08/08 Q1012=
200904150515 METAR LIRA 150515Z 00000KT CAVOK 08/07 Q1012=
200904150445 METAR LIRA 150445Z 00000KT CAVOK 08/08 Q1012=
200904150415 METAR LIRA 150415Z 00000KT CAVOK 08/07 Q1011=
200904150345 METAR LIRA 150345Z 00000KT CAVOK 08/08 Q1011=
200904150315 METAR LIRA 150315Z 00000KT CAVOK 08/08 Q1011=
200904150245 METAR LIRA 150245Z 00000KT CAVOK 09/08 Q1011=
200904150215 METAR LIRA 150215Z 00000KT CAVOK 09/09 Q1011=
200904150145 METAR LIRA 150145Z 00000KT CAVOK 10/09 Q1011=
200904150115 METAR LIRA 150115Z 00000KT CAVOK 10/10 Q1011=
200904150045 METAR LIRA 150045Z 00000KT CAVOK 11/09 Q1011=
200904150015 METAR LIRA 150015Z 00000KT CAVOK 11/10 Q1010=
200904142350 METAR LIRA 150045Z 00000KT CAVOK 11/09 Q1011=
200904142345 METAR LIRA 142345Z 00000KT CAVOK 11/09 Q1010=
200904142315 METAR LIRA 142315Z 16002KT CAVOK 12/10 Q1010=
200904142245 METAR LIRA 142245Z 15001KT CAVOK 12/10 Q1010=
200904142145 METAR LIRA 142145Z 18002KT 9999 FEW020 13/11 Q1010=
200904142115 METAR LIRA 142115Z 17008KT 9999 FEW020 14/12 Q1010=
200904142045 METAR LIRA 142045Z 17005KT 9999 FEW020 15/12 Q1010=
200904142015 METAR LIRA 142015Z 16007KT 9999 FEW020 15/12 Q1009=
200904141945 METAR LIRA 141945Z 17003KT 9999 FEW020 15/12 Q1009=
200904141915 METAR LIRA 141915Z 16008KT 090V180 9999 FEW020 15/11 Q1009=
200904141845 METAR LIRA 141845Z 17008KT 9999 FEW020 15/11 Q1008=
200904141815 METAR LIRA 141815Z 17008KT 9999 FEW018 16/09 Q1008=
200904141745 METAR LIRA 141745Z 18008KT 9999 FEW018 17/10 Q1008=
200904141715 METAR LIRA 141715Z 19008KT 150V220 9999 FEW018 17/10 Q1008=
200904141645 METAR LIRA 141645Z 19008KT 160V230 9999 FEW018 18/10 Q1008=
200904141615 METAR LIRA 141615Z 20005KT 180V250 9999 FEW018 18/10 Q1008=
200904141545 METAR LIRA 141545Z 20008KT 160V250 9999 FEW018 19/11 Q1007=
200904141515 METAR LIRA 141515Z 25007KT 190V300 9999 FEW018 18/10 Q1007=
200904141445 METAR LIRA 141445Z 25006KT 200V300 9999 FEW018 19/11 Q1007=
200904141415 METAR LIRA 141415Z 25009KT 200V300 9999 SCT018 20/11 Q1007=
200904141345 METAR LIRA 141345Z 23010KT 200V300 9999 SCT018 19/10 Q1007=
200904141315 METAR LIRA 141315Z 22007KT 180V300 9999 SCT018 19/10 Q1007=
200904141245 METAR LIRA 141245Z 26009KT 200V300 9999 SCT018 20/10 Q1007=
200904141215 METAR LIRA 141215Z 18004KT 190V280 9999 SCT018 20/10 Q1007=
200904141145 METAR LIRA 141145Z 26007KT 200V310 9999 SCT018 19/10 Q1007=
200904141115 METAR LIRA 141115Z 30005KT 230V350 9999 SCT018 19/10 Q1007=
200904141045 METAR LIRA 141045Z 28006KT 210V330 9999 SCT018 19/10 Q1007=
200904141015 METAR LIRA 141015Z 28007KT 9999 SCT018 18/10 Q1007=
200904140945 METAR LIRA 140945Z 27007KT 220V330 9999 FEW018 17/10 Q1007=
200904140915 METAR LIRA 140915Z 26004KT 9999 FEW018 16/08 Q1007=
200904140845 METAR LIRA 140845Z 26001KT 9999 FEW018 15/09 Q1007=
200904140815 METAR LIRA 140815Z 02002KT 9999 FEW018 13/09 Q1006=
200904140745 METAR LIRA 140745Z 03004KT 010V090 9999 FEW018 SCT030 12/08
                        Q1006=
200904140715 METAR LIRA 140715Z 03004KT 9999 FEW020 SCT030 12/08 Q1006=
200904140645 METAR LIRA 140645Z 04004KT 9999 FEW022 SCT035 11/08 Q1006=
200904140615 METAR LIRA 140615Z 05004KT 9999 FEW022 10/08 Q1005=
200904140545 METAR LIRA 140545Z 04003KT 9999 FEW035 09/07 Q1005=
200904140515 METAR LIRA 140515Z 04003KT 9999 FEW070 08/07 Q1005=
200904140445 METAR LIRA 140445Z 03002KT 9999 FEW080 08/06 Q1004=
200904140415 METAR LIRA 140415Z 04002KT CAVOK 08/06 Q1004=
200904140345 METAR LIRA 140345Z 04003KT 9999 FEW080 09/06 Q1004=
200904140315 METAR LIRA 140315Z 09003KT CAVOK 09/06 Q1004=
200904140245 METAR LIRA 140245Z 05003KT CAVOK 10/07 Q1004=
200904140215 METAR LIRA 140215Z 15003KT CAVOK 10/07 Q1004=
200904140145 METAR LIRA 140145Z 09002KT 9999 FEW080 10/07 Q1004=
200904140115 METAR LIRA 140115Z 06003KT 9999 FEW080 10/06 Q1004=
200904140045 METAR LIRA 140045Z 10005KT CAVOK 10/07 Q1004=
200904140015 METAR LIRA 140015Z 10001KT CAVOK 11/07 Q1004=
200904132345 METAR LIRA 132345Z 11004KT 9999 FEW070 11/06 Q1004=
200904132315 METAR LIRA 132315Z 19002KT 9999 FEW070 12/06 Q1003=
200904132245 METAR LIRA 132245Z 12002KT 9999 FEW070 12/05 Q1003=
200904132215 METAR LIRA 132215Z 23002KT 9999 FEW070 13/06 Q1003=
200904132145 METAR LIRA 132145Z 31003KT 9999 FEW070 14/06 Q1003=
200904132115 METAR LIRA 132115Z 08001KT 9999 FEW070 14/06 Q1003=
200904132045 METAR LIRA 132045Z 06004KT 9999 SCT070 15/06 Q1002=
200904132015 METAR LIRA 132015Z 06006KT 9999 SCT070 16/06 Q1002=
200904131945 METAR LIRA 131945Z 04006KT 290V090 9999 FEW035 SCT070 16/06
                        Q1002=
200904131915 METAR LIRA 131915Z 02004KT 9999 FEW035 SCT070 17/07 Q1001=
200904131845 METAR LIRA 131845Z 02006KT 310V090 9999 SCT035 17/07 Q1001=
200904131815 METAR LIRA 131815Z 06009KT 9999 SCT030 18/07 Q1000=
200904131745 METAR LIRA 131745Z 05008KT 020V080 9999 SCT030 SCT200 19/07
                        Q1000=
200904131715 METAR LIRA 131715Z 03007KT 350V070 9999 SCT030 SCT200 19/07
                        Q1000=
200904131645 METAR LIRA 131645Z 02006KT 340V060 9999 FEW020 SCT030 20/07
                        Q1000=
200904131615 METAR LIRA 131615Z 02008KT 330V080 9999 FEW018 SCT030 20/08
                        Q1000=
200904131545 METAR LIRA 131545Z 36007KT 310V060 9999 FEW020 SCT200 20/08
                        Q1000=
200904131515 METAR LIRA 131515Z 01008KT 320V060 9999 FEW020 SCT200 20/08
                        Q1000=
200904131445 METAR LIRA 131445Z 01010KT 310V050 9999 FEW020 SCT080 20/08
                        Q1000=
200904131415 METAR LIRA 131415Z 01009KT 310V050 9999 FEW020 BKN080 19/08
                        Q1000=
200904131345 METAR LIRA 131345Z 34011KT 300V050 9999 FEW020 BKN080 19/07
                        Q1000=
200904131315 METAR LIRA 131315Z 35008KT 300V050 9999 FEW020 BKN080 19/07
                        Q1000=
200904131245 METAR LIRA 131245Z 35009KT 290V050 9999 FEW018 SCT030 BKN080
                        19/08 Q1000=
200904131215 METAR LIRA 131215Z 33008KT 290V030 9999 FEW018 SCT030 19/08
                        Q1000=
200904131145 METAR LIRA 131145Z 36005KT 330V060 9999 FEW018 SCT030 19/09
                        Q1000=
200904131115 METAR LIRA 131115Z 01009KT 300V060 9999 FEW018 SCT035 19/09
                        Q1000=
200904131045 METAR LIRA 131045Z 35006KT 330V060 9999 FEW018 BKN035 19/09
                        Q1000=
200904131015 METAR LIRA 131015Z 36007KT 300V030 9999 FEW018 BKN035 19/09
                        Q1000=
200904130945 METAR LIRA 130945Z 35005KT 300V020 9999 FEW020 SCT035 BKN080
                        18/09 Q1000=
200904130915 METAR LIRA 130915Z 33005KT 9999 FEW020 BKN080 17/09 Q0999=
200904130845 METAR LIRA 130845Z 36006KT 9999 FEW020 BKN080 17/10 Q0999=
200904130815 METAR LIRA 130815Z 08001KT 9999 FEW020 BKN080 16/09 Q0998=
200904130745 METAR LIRA 130745Z 02001KT 9999 FEW020 BKN070 15/08 Q0998=
200904130715 METAR LIRA 130715Z 06002KT 9999 FEW020 BKN070 15/08 Q0998=
200904130645 METAR LIRA 130645Z 01005KT 320V050 9999 FEW020 BKN070 14/08
                        Q0998=
200904130615 METAR LIRA 130615Z 36007KT 310V050 9999 FEW020 BKN070 14/07
                        Q0997=
200904130545 METAR LIRA 130545Z 36005KT 330V040 9999 FEW020 BKN070 13/07
                        Q0997=
200904130515 METAR LIRA 130515Z 36007KT 320V040 9999 FEW020 BKN070 12/07
                        Q0997=
200904130445 METAR LIRA 130445Z 01008KT 340V040 9999 FEW020 SCT070 12/07
                        Q0997=
200904130415 METAR LIRA 130415Z 10001KT 9999 FEW020 SCT070 12/07 Q0998=
200904130345 METAR LIRA 130345Z 01004KT 9999 FEW030 SCT070 12/07 Q0998=
200904130315 METAR LIRA 130315Z 01005KT 9999 FEW030 SCT070 12/07 Q0998=
200904130245 METAR LIRA 130245Z 00000KT 9999 FEW025 SCT070 12/07 Q0998=
200904130215 METAR LIRA 130215Z 03002KT 9999 FEW030 SCT070 12/07 Q0998=
200904130145 METAR LIRA 130145Z 36002KT 9999 FEW030 SCT060 13/08 Q0998=
200904130115 METAR LIRA 130115Z 31001KT 9999 FEW030 SCT060 14/09 Q0999=
200904130045 METAR LIRA 130045Z 31004KT 320V040 9999 SCT030 SCT060 14/10
                        Q0999=
200904130015 METAR LIRA 130015Z 35006KT 300V020 9999 SCT030 SCT060 14/10
                        Q1000=
200904122345 METAR LIRA 122345Z 36006KT 320V080 9999 SCT030 SCT070 14/10
                        Q1000=
200904122315 METAR LIRA 122315Z 03004KT 330V060 9999 SCT030 SCT060 14/10
                        Q1000=
200904122245 METAR LIRA 122245Z 35006KT 320V020 9999 SCT035 SCT060 14/12
                        Q1000=
200904122215 METAR LIRA 122215Z 25001KT 9999 -RA SCT035 SCT060 14/12 Q1001=
200904122145 METAR LIRA 122145Z 32001KT 9999 -RA SCT030 SCT060 14/12 Q1001=
200904122115 METAR LIRA 122115Z 29001KT 9999 SCT035 SCT070 15/09 Q1001=
200904122045 METAR LIRA 122045Z 25003KT 9999 SCT030 SCT060 16/09 Q1001=
200904122015 METAR LIRA 122015Z 19006KT 150V240 9999 SCT035 SCT070 17/09
                        Q1001=
200904121945 METAR LIRA 121945Z 15008KT 100V180 9999 SCT035 SCT070 18/08
                        Q1001=
200904121915 METAR LIRA 121915Z 12004KT 9999 SCT035 SCT070 17/08 Q1001=
200904121845 METAR LIRA 121845Z 17004KT 9999 SCT030 18/07 Q1001=
200904121815 METAR LIRA 121815Z 17003KT 9999 SCT030 SCT070 18/06 Q1001=
200904121745 METAR LIRA 121745Z 12007KT 050V150 9999 FEW020 SCT030 19/06
                        Q1001=
200904121715 METAR LIRA 121715Z 05005KT 9999 FEW020 SCT030 20/06 Q1001=
200904121645 METAR LIRA 121645Z 06004KT 360V080 9999 FEW020 SCT030 BKN070
                        20/05 Q1000=
200904121615 METAR LIRA 121615Z 02007KT 330V070 9999 FEW020 SCT030 21/06
                        Q1001=
200904121545 METAR LIRA 121545Z 08008KT 050V150 9999 FEW020 SCT030 22/06
                        Q1001=
200904121515 METAR LIRA 121515Z 01004KT 290V080 9999 FEW020 SCT030 23/06
                        Q1001=
200904121445 METAR LIRA 121445Z 28005KT 240V330 9999 FEW020 BKN200 22/06
                        Q1002=
200904121415 METAR LIRA 121415Z 27004KT 250V320 9999 FEW020 BKN200 21/06
                        Q1002=
200904121345 METAR LIRA 121345Z 30001KT 9999 FEW025 SCT070 BKN200 21/07
                        Q1003=
200904121315 METAR LIRA 121315Z 05002KT 9999 FEW025 SCT070 BKN200 21/07
                        Q1003=
200904121245 METAR LIRA 121245Z 11003KT 080V150 9999 FEW020 SCT070 20/06
                        Q1004=
200904121215 METAR LIRA 121215Z 10010KT 060V130 9999 FEW020 BKN070 20/06
                        Q1004=
200904121145 METAR LIRA 121145Z 09009KT 050V110 9999 FEW020 BKN070 20/07
                        Q1005=
200904121115 METAR LIRA 121115Z 08013KT 040V130 9999 FEW020 BKN070 20/08
                        Q1005=
200904121045 METAR LIRA 121045Z 09015KT 060V130 9999 FEW020 BKN070 19/10
                        Q1005=
200904121015 METAR LIRA 121015Z 09011KT 040V120 9999 FEW020 SCT080 BKN200
                        18/10 Q1005=
200904120945 METAR LIRA 120945Z 01008KT 330V060 9999 FEW020 SCT080 BKN200
                        17/10 Q1005=
200904120915 METAR LIRA 120915Z 01005KT 330V060 9999 FEW020 SCT080 BKN200
                        17/10 Q1005=
200904120845 METAR LIRA 120845Z 01003KT 9999 FEW020 SCT080 BKN200 15/10
                        Q1005=
200904120815 METAR LIRA 120815Z 02005KT 330V050 9999 FEW020 SCT070 14/09
                        Q1005=
200904120745 METAR LIRA 120745Z 01004KT 9999 FEW020 SCT070 13/09 Q1005=
200904120715 METAR LIRA 120715Z 02001KT 9999 FEW020 SCT070 13/08 Q1006=
200904120645 METAR LIRA 120645Z 02004KT 9999 FEW020 SCT070 BKN200 12/08
                        Q1006=
200904120615 METAR LIRA 120615Z 04005KT 9999 FEW020 SCT070 BKN200 12/07
                        Q1006=
200904120545 METAR LIRA 120545Z 03004KT 9999 FEW030 SCT070 BKN200 11/06
                        Q1006=
200904120515 METAR LIRA 120515Z 06004KT 9999 FEW030 SCT070 BKN200 11/06
                        Q1006=
200904120445 METAR LIRA 120445Z 02005KT 350V050 9999 SCT070 BKN200 12/06
                        Q1006=
200904120415 METAR LIRA 120415Z 02005KT 9999 FEW070 BKN200 11/06 Q1006=
200904120345 METAR LIRA 120345Z 35002KT 9999 SCT060 12/06 Q1007=
200904120315 METAR LIRA 120315Z 03003KT 9999 FEW030 SCT070 12/06 Q1007=
200904120245 METAR LIRA 120245Z 01002KT 9999 SCT060 SCT090 12/06 Q1007=
200904120215 METAR LIRA 120215Z 34001KT 9999 SCT060 SCT200 12/06 Q1008=
200904120145 METAR LIRA 120145Z 01002KT 9999 SCT060 12/07 Q1008=
200904120115 METAR LIRA 120115Z 02002KT 9999 FEW030 SCT060 12/06 Q1009=
200904120045 METAR LIRA 120045Z 35002KT 9999 FEW030 SCT060 12/06 Q1009=
200904120015 METAR LIRA 120015Z 04002KT 9999 FEW030 SCT070 12/07 Q1009=
200904112350 METAR LIRA 120045Z 35002KT 9999 FEW030 SCT060 12/06 Q1009=
200904112345 METAR LIRA 112345Z 08001KT 9999 FEW030 SCT070 12/06 Q1010=
200904112315 METAR LIRA 112315Z VRB01KT 9999 FEW030 SCT070 13/06 Q1010=
200904112245 METAR LIRA 112245Z 00000KT 9999 FEW030 SCT060 14/06 Q1010=
200904112215 METAR LIRA 112215Z 00000KT 9999 SCT060 14/05 Q1011=
200904112145 METAR LIRA 112145Z 06003KT 9999 SCT070 14/05 Q1011=
200904112115 METAR LIRA 112115Z 05002KT 9999 SCT070 14/06 Q1011=
200904112045 METAR LIRA 112045Z 10005KT 9999 SCT060 14/06 Q1011=
200904112015 METAR LIRA 112015Z 00000KT 9999 SCT060 15/05 Q1011=
200904111945 METAR LIRA 111945Z 18004KT 9999 FEW060 16/07 Q1011=
200904111915 METAR LIRA 111915Z 18005KT 9999 FEW025 SCT060 16/07 Q1011=
200904111845 METAR LIRA 111845Z 17003KT 9999 FEW025 SCT070 17/05 Q1011=
200904111815 METAR LIRA 111815Z 13005KT 110V180 9999 FEW025 SCT080 17/04
                        Q1011=
200904111745 METAR LIRA 111745Z 17009KT 140V220 9999 FEW020 SCT080 18/05
                        Q1010=
200904111715 METAR LIRA 111715Z 17011KT 130V200 9999 FEW020 SCT070 19/05
                        Q1010=
200904111645 METAR LIRA 111645Z 17014KT 140V210 9999 FEW020 SCT070 19/06
                        Q1010=
200904111615 METAR LIRA 111615Z 18012KT 140V230 9999 FEW020 SCT070 19/06
                        Q1010=
200904111545 METAR LIRA 111545Z 16014KT 140V220 9999 FEW018 SCT070 19/04
                        Q1011=
200904111515 METAR LIRA 111515Z 19013KT 150V240 9999 FEW018 SCT070 19/04
                        Q1010=
200904111445 METAR LIRA 111445Z 20010KT 160V240 9999 FEW018 SCT070 20/03
                        Q1010=
200904111415 METAR LIRA 111415Z 02010KT 170V230 9999 FEW018 SCT070 20/03
                        Q1010=
200904111345 METAR LIRA 111345Z 19010KT 150V230 9999 FEW018 SCT070 22/04
                        Q1010=
200904111315 METAR LIRA 111315Z 20012KT 140V240 9999 FEW018 SCT070 22/06
                        Q1010=
200904111245 METAR LIRA 111245Z 17008KT 120V210 9999 FEW018 SCT070 21/07
                        Q1010=
200904111215 METAR LIRA 111215Z 18011KT 120V220 9999 FEW018 SCT070 21/06
                        Q1010=
200904111145 METAR LIRA 111145Z 21005KT 140V260 9999 SCT018 BKN070 21/07
                        Q1010=
200904111115 METAR LIRA 111115Z 17006KT 130V230 9999 SCT018 BKN070 21/07
                        Q1010=
200904111045 METAR LIRA 111045Z 15009KT 120V250 9999 FEW018 SCT070 20/06
                        Q1010=
200904111015 METAR LIRA 111015Z 00000KT 9999 SCT070 SCT200 20/11 Q1010=
200904110945 METAR LIRA 110945Z 02003KT 330V070 9999 SCT080 19/11 Q1010=
200904110915 METAR LIRA 110915Z 02003KT 300V060 9999 SCT070 19/11 Q1010=
200904110845 METAR LIRA 110845Z 04009KT 310V070 9999 SCT070 17/11 Q1010=
200904110815 METAR LIRA 110815Z 02005KT 330V070 9999 FEW070 15/10 Q1010=
200904110745 METAR LIRA 110745Z 04005KT 340V070 9999 FEW070 14/10 Q1010=
200904110715 METAR LIRA 110715Z 00004KT 300V080 9999 FEW070 13/09 Q1010=
200904110645 METAR LIRA 110645Z 03006KT 360V070 9999 SCT070 12/08 Q1010=
200904110615 METAR LIRA 110615Z 04004KT 9999 SCT070 10/07 Q1010=
200904110545 METAR LIRA 110545Z 05003KT 9999 SCT070 09/06 Q1010=
200904110515 METAR LIRA 110515Z 04002KT 9999 SCT070 09/06 Q1010=
200904110445 METAR LIRA 110445Z 02003KT 9999 SCT070 SCT200 09/06 Q1010=
200904110415 METAR LIRA 110415Z 01003KT 9999 SCT070 SCT200 10/06 Q1010=
200904110345 METAR LIRA 110345Z 36004KT 9999 SCT080 SCT200 09/06 Q1010=
200904110315 METAR LIRA 110315Z 05003KT 9999 SCT080 SCT200 10/05 Q1010=
200904110245 METAR LIRA 110245Z 36002KT 9999 SCT070 SCT200 10/05 Q1010=
200904110215 METAR LIRA 110215Z 05003KT 9999 SCT080 SCT200 10/06 Q1010=
200904110145 METAR LIRA 110145Z 36004KT 9999 FEW080 11/06 Q1011=
200904110115 METAR LIRA 110115Z 00000KT CAVOK 11/06 Q1011=
200904110045 METAR LIRA 110045Z 04002KT CAVOK 11/06 Q1011=
200904110015 METAR LIRA 110015Z 03003KT CAVOK 12/06 Q1012=
200904102345 METAR LIRA 102345Z 00000KT CAVOK 12/06 Q1012=
200904102315 METAR LIRA 102315Z 00000KT CAVOK 12/05 Q1012=
200904102245 METAR LIRA 102245Z 03004KT CAVOK 14/05 Q1012=
200904102215 METAR LIRA 102215Z 03003KT 9999 FEW070 14/05 Q1012=
200904102145 METAR LIRA 102145Z 03003KT 9999 FEW025 SCT070 14/05 Q1012=
200904102115 METAR LIRA 102115Z 06003KT 9999 FEW025 SCT070 15/05 Q1012=
200904102045 METAR LIRA 102045Z 13006KT 9999 FEW025 SCT070 16/05 Q1012=
200904102015 METAR LIRA 102015Z 14004KT 9999 FEW018 BKN070 16/04 Q1012=
200904101945 METAR LIRA 101945Z 16007KT 9999 FEW018 BKN070 16/04 Q1012=
200904101915 METAR LIRA 101915Z 17005KT 130V210 9999 FEW018 BKN070 17/04
                        Q1011=
200904101845 METAR LIRA 101845Z 17006KT 140V210 9999 FEW018 BKN070 17/03
                        Q1011=
200904101815 METAR LIRA 101815Z 17009KT 9999 FEW018 SCT025 BKN070 18/02
                        Q1011=
200904101745 METAR LIRA 101745Z 16009KT 9999 FEW018 SCT025 BKN070 18/02
                        Q1011=
200904101715 METAR LIRA 101715Z 17008KT 130V200 9999 FEW018 SCT025 BKN070
                        18/02 Q1011=
200904101645 METAR LIRA 101645Z 16012KT 120V190 9999 SCT025 BKN070 19/03
                        Q1011=
200904101615 METAR LIRA 101615Z 17012KT 9999 SCT025 BKN070 20/03 Q1011=
200904101545 METAR LIRA 101545Z 14010KT 110V200 9999 SCT025 BKN070 21/04
                        Q1011=
200904101515 METAR LIRA 101515Z 15013KT 120V210 9999 SCT025 SCT070 21/04
                        Q1011=
200904101445 METAR LIRA 101445Z 17014KT 9999 SCT025 SCT070 22/04 Q1011=
200904101415 METAR LIRA 101415Z 18012KT 120V230 9999 FEW018 SCT030 23/04
                        Q1011=
200904101345 METAR LIRA 101345Z 15017KT 110V220 9999 FEW018 SCT030 23/04
                        Q1011=
200904101315 METAR LIRA 101315Z 17011KT 110V210 9999 FEW018 SCT030 23/05
                        Q1011=
200904101245 METAR LIRA 101245Z 17011KT 130V220 9999 SCT018 22/07 Q1011=
200904101215 METAR LIRA 101215Z 16014KT 120V180 9999 SCT018 21/07 Q1012=
200904101145 METAR LIRA 101145Z 17008KT 130V230 9999 FEW018 21/06 Q1012=
200904101115 METAR LIRA 101115Z 17010KT 090V210 9999 FEW018 SCT200 21/05
                        Q1012=
200904101045 METAR LIRA 101045Z 17013KT 120V220 9999 FEW018 SCT200 21/05
                        Q1012=
200904101015 METAR LIRA 101015Z 18009KT 120V240 9999 FEW018 SCT200 21/05
                        Q1013=
200904100945 METAR LIRA 100945Z 16013KT 120V200 9999 FEW018 SCT200 20/05
                        Q1013=
200904100915 METAR LIRA 100915Z 17010KT 120V210 9999 FEW080 SCT200 20/06
                        Q1013=
200904100900 METAR LIRA INTER CB SE-SW=
200904100845 METAR LIRA 100845Z 20004KT 160V260 9999 FEW080 SCT200 17/10
                        Q1013=
200904100815 METAR LIRA 100815Z 29002KT 9999 SCT070 16/11 Q1012=
200904100745 METAR LIRA 100745Z 01002KT 9999 BKN070 13/10 Q1012=
200904100715 METAR LIRA 100715Z 02002KT 9999 BKN070 12/09 Q1012=
200904100645 METAR LIRA 100645Z 02002KT 9999 BKN070 11/08 Q1012=
200904100615 METAR LIRA 100615Z 03004KT 9999 BKN070 11/08 Q1012=
200904100545 METAR LIRA 100545Z 06002KT 9999 SCT070 11/08 Q1012=
200904100515 METAR LIRA 100515Z 01003KT 9999 BKN070 10/08 Q1012=
200904100445 METAR LIRA 100445Z 00000KT 9999 SCT070 SCT200 10/08 Q1012=
200904100415 METAR LIRA 100415Z 04004KT 9999 FEW080 SCT200 10/08 Q1012=
200904100345 METAR LIRA 100345Z 05004KT 9999 FEW080 SCT200 10/09 Q1013=
200904100315 METAR LIRA 100315Z 06002KT 9999 FEW080 SCT200 10/08 Q1013=
200904100245 METAR LIRA 100245Z 04004KT 9999 FEW080 SCT200 11/08 Q1013=
200904100215 METAR LIRA 100215Z 00000KT 9999 FEW080 12/08 Q1013=
200904100145 METAR LIRA 100145Z 06002KT 9999 FEW080 12/08 Q1013=
200904100115 METAR LIRA 100115Z 00000KT 9999 FEW080 12/07 Q1014=
200904100045 METAR LIRA 100045Z 00000KT 9999 FEW080 13/07 Q1014=
200904100015 METAR LIRA 100015Z 00000KT 9999 FEW080 15/07 Q1014=
200904092345 METAR LIRA 092345Z 00000KT 9999 FEW025 15/07 Q1015=
200904092315 METAR LIRA 092315Z 13002KT 9999 FEW025 SCT070 15/09 Q1015=
200904092245 METAR LIRA 092245Z 15003KT 9999 FEW020TCU SCT070 15/11 Q1015=
200904092215 METAR LIRA 092215Z 15002KT 9999 FEW018 FEW020CB SCT070 16/12
                        Q1015 RETS=
200904092145 METAR LIRA 092145Z 16004KT 9999 FEW018 FEW020CB BKN070 16/12
                        Q1015 RETS=
200904092115 METAR LIRA 092115Z 18004KT 9999 TS FEW018 FEW020CB BKN070
                        16/11 Q1015=
200904092045 METAR LIRA 092045Z 14010KT 9999 -TSRA FEW018 FEW020CB SCT070
                        16/11 Q1015=
200904092015 METAR LIRA 092015Z 11005KT 9999 FEW020 SCT070 16/10 Q1015=
200904091945 METAR LIRA 091945Z 15004KT 9999 FEW025 BKN070 16/10 Q1015=
200904091915 METAR LIRA 091915Z 17003KT 9999 FEW020CB SCT070 17/10 Q1015=
200904091845 METAR LIRA 091845Z 17004KT 9999 FEW020CB SCT070 17/10 Q1014=
200904091815 METAR LIRA 091815Z 16004KT 9999 FEW020CB BKN070 18/10 Q1014=
200904091745 METAR LIRA 091745Z 23002KT 9999 FEW020CB BKN080 19/10 Q1014=
200904091715 METAR LIRA 091715Z 26003KT 9999 FEW020CB BKN080 20/11 Q1014=
200904091645 METAR LIRA 091645Z 26005KT 230V300 9999 FEW020CB SCT080 20/13
                        Q1014=
200904091615 METAR LIRA 091615Z 27003KT 9999 FEW018 FEW020CB SCT080 19/12
                        Q1014=
200904091545 METAR LIRA 091545Z 04003KT 9999 FEW020 FEW023CB SCT070 20/12
                        Q1014=
200904091515 METAR LIRA 091515Z 18001KT 9999 FEW018 FEW023CB SCT070 20/12
                        Q1014=
200904091445 METAR LIRA 091445Z 00000KT 9999 FEW020 SCT070 20/12 Q1014=
200904091415 METAR LIRA 091415Z 34001KT 9999 FEW020 BKN070 20/12 Q1014=
200904091345 METAR LIRA 091345Z 05004KT 9999 FEW020 SCT030 BKN070 20/11
                        Q1015=
200904091315 METAR LIRA 091315Z 05002KT 9999 FEW020 SCT025 BKN070 20/12
                        Q1015=
200904091245 METAR LIRA 091245Z 35002KT 9999 FEW020 SCT025 BKN070 20/10
                        Q1015=
200904091215 METAR LIRA 091215Z 04006KT 350V090 9999 FEW020 SCT025 BKN070
                        19/11 Q1015=
200904091145 METAR LIRA 091145Z 03007KT 340V090 9999 FEW020 SCT025 BKN070
                        19/10 Q1016=
200904091115 METAR LIRA 091115Z 36007KT 300V060 9999 SCT025 BKN070 18/10
                        Q1016=
200904091045 METAR LIRA 091045Z 36007KT 320V050 9999 SCT025 BKN070 18/10
                        Q1016=
200904091015 METAR LIRA 091015Z 35006KT 300V040 9999 SCT025 BKN070 18/11
                        Q1017=
200904090945 METAR LIRA 090945Z 34006KT 300V040 9999 FEW025 SCT070 16/11
                        Q1017=
200904090845 METAR LIRA 090845Z 04003KT 9999 FEW025 SCT070 15/11 Q1017=
200904090815 METAR LIRA 090815Z 01002KT 9999 BKN025 SCT070 15/11 Q1016=
200904090745 METAR LIRA 090745Z 34002KT 8000 BKN025 SCT070 14/11 Q1016=
200904090715 METAR LIRA 090715Z 00000KT 8000 SCT025 BKN070 13/10 Q1016=
200904090645 METAR LIRA 090645Z 03001KT 8000 SCT025 BKN070 13/11 Q1016=
200904090615 METAR LIRA 090615Z 03003KT 8000 SCT025 BKN070 13/12 Q1016=
200904090545 METAR LIRA 090545Z 33003KT 8000 SCT025 BKN070 13/11 Q1015=
200904090515 METAR LIRA 090515Z 34002KT 8000 SCT025 SCT070 13/11 Q1015=
200904090445 METAR LIRA 090445Z 00000KT 8000 SCT025 SCT070 14/12 Q1015=
200904090415 METAR LIRA 090415Z 07001KT 8000 SCT025 SCT070 14/12 Q1015=
200904090345 METAR LIRA 090345Z 00000KT 8000 -RA FEW010 BKN025 14/08 Q1016=
200904090315 METAR LIRA 090315Z 04006KT 360V060 8000 -RA BKN025 SCT070
                        15/06 Q1016=
200904090245 METAR LIRA 090245Z 26002KT 8000 -RA BKN025 SCT070 14/12 Q1016=
200904090215 METAR LIRA 090215Z 18004KT 9999 SCT030 SCT070 13/11 Q1016=
200904090145 METAR LIRA 090145Z 17001KT 9999 SCT030 SCT070 13/10 Q1016=
200904090115 METAR LIRA 090115Z 00000KT 9999 SCT030 SCT070 13/10 Q1016=
200904090045 METAR LIRA 090045Z 17003KT 9999 SCT030 SCT070 13/10 Q1016=
200904090015 METAR LIRA 090015Z 01001KT 9999 SCT030 SCT070 13/10 Q1016=
200904082345 METAR LIRA 082345Z 36004KT 9999 SCT030 SCT070 13/10 Q1016=
200904082315 METAR LIRA 082315Z 06003KT 9999 SCT070 SCT200 13/10 Q1016=
200904082245 METAR LIRA 082245Z 05004KT 9999 SCT070 SCT200 14/10 Q1016=
200904082215 METAR LIRA 082215Z 05004KT 9999 SCT070 SCT200 14/10 Q1016=
200904082145 METAR LIRA 082145Z 05003KT 9999 SCT070 SCT200 14/09 Q1016=
200904082115 METAR LIRA 082115Z 05001KT 9999 SCT070 SCT200 14/07 Q1016=
200904082045 METAR LIRA 082045Z 09002KT 9999 FEW070 14/06 Q1016=
200904082015 METAR LIRA 082015Z 00000KT 9999 FEW080 15/07 Q1016=
200904081945 METAR LIRA 081945Z 00000KT 9999 FEW080 15/08 Q1016=
200904081915 METAR LIRA 081915Z 17002KT 9999 FEW080 15/08 Q1016=
200904081845 METAR LIRA 081845Z 18004KT 9999 SCT080 BKN200 16/10 Q1016=
200904081815 METAR LIRA 081815Z 21004KT 9999 SCT080 BKN200 17/10 Q1016=
200904081745 METAR LIRA 081745Z 25001KT 9999 SCT080 BKN200 18/09 Q1016=
200904081715 METAR LIRA 081715Z 26002KT 9999 FEW020 BKN200 19/09 Q1016=
200904081645 METAR LIRA 081645Z 26002KT 9999 FEW020 BKN200 19/08 Q1016=
200904081615 METAR LIRA 081615Z 22004KT 9999 FEW020 BKN200 19/07 Q1016=
200904081545 METAR LIRA 081545Z 23005KT 9999 FEW020 BKN200 20/07 Q1016=
200904081515 METAR LIRA 081515Z 23007KT 200V280 9999 FEW020 BKN200 20/07
                        Q1016=
200904081445 METAR LIRA 081445Z 21004KT 9999 FEW020 SCT090 BKN200 20/09
                        Q1016=
200904081415 METAR LIRA 081415Z 22004KT 150V260 9999 FEW020 SCT080 BKN200
                        20/10 Q1016=
200904081345 METAR LIRA 081345Z 23006KT 180V260 9999 FEW020 SCT080 BKN200
                        20/10 Q1016=
200904081315 METAR LIRA 081315Z 17004KT 150V290 9999 FEW020 BKN200 20/10
                        Q1016=
200904081245 METAR LIRA 081245Z 21004KT 170V250 9999 FEW020 BKN200 20/11
                        Q1017=
200904081215 METAR LIRA 081215Z 24005KT 9999 FEW020 BKN200 20/10 Q1017=
200904081145 METAR LIRA 081145Z 25004KT 190V290 9999 FEW023 BKN200 19/10
                        Q1017=
200904081115 METAR LIRA 081115Z 24007KT 180V270 9999 FEW023 BKN200 19/10
                        Q1017=
200904081045 METAR LIRA 081045Z 24005KT 9999 FEW023 BKN200 19/10 Q1017=
200904081015 METAR LIRA 081015Z 23004KT 9999 FEW023 BKN200 19/11 Q1017=
200904080945 METAR LIRA 080945Z 22002KT 9999 FEW023 BKN200 18/10 Q1017=
200904080915 METAR LIRA 080915Z 29002KT 8000 NSC 17/09 Q1017=
200904080845 METAR LIRA 080845Z 26002KT 8000 FEW018 BKN200 17/10 Q1017=
200904080815 METAR LIRA 080815Z 00000KT 8000 NSC 15/11 Q1017=
200904080745 METAR LIRA 080745Z 35002KT 8000 NSC 14/11 Q1016=
200904080715 METAR LIRA 080715Z 36002KT 8000 NSC 12/10 Q1016=
200904080645 METAR LIRA 080645Z 00000KT 8000 NSC 11/09 Q1016=
200904080615 METAR LIRA 080615Z 35001KT 8000 NSC 10/09 Q1016=
200904080545 METAR LIRA 080545Z 03001KT 8000 NSC 09/08 Q1016=
200904080515 METAR LIRA 080515Z 03002KT 8000 NSC 09/07 Q1016=
200904080445 METAR LIRA 080445Z 05001KT 8000 FEW080 SCT200 09/07 Q1016=
200904080415 METAR LIRA 080415Z 07002KT 8000 FEW010 09/07 Q1016=
200904080345 METAR LIRA 080345Z 10002KT 8000 FEW010 09/08 Q1016=
200904080315 METAR LIRA 080315Z 09002KT 8000 FEW010 09/07 Q1016=
200904080245 METAR LIRA 080245Z 09002KT 8000 FEW010 09/08 Q1017=
200904080215 METAR LIRA 080215Z 08003KT 8000 FEW010 09/08 Q1017=
200904080145 METAR LIRA 080145Z 09003KT 7000 FEW010 10/08 Q1017=
200904080115 METAR LIRA 080115Z 09003KT 7000 FEW010 10/09 Q1017=
200904080045 METAR LIRA 080045Z 06003KT 7000 FEW010 11/10 Q1017=
200904080015 METAR LIRA 080015Z 09002KT 7000 SCT010 SCT070 11/10 Q1017=
200904072345 METAR LIRA 072345Z 08002KT 7000 FEW010 SCT070 11/10 Q1017=
200904072315 METAR LIRA 072315Z 08002KT 7000 FEW010 SCT070 11/10 Q1017=
200904072245 METAR LIRA 072245Z 10003KT 7000 SCT009 12/11 Q1017=
200904072215 METAR LIRA 072215Z 06001KT 6000 BKN005 12/11 Q1017=
200904072145 METAR LIRA 072145Z 10002KT 7000 SCT005 11/10 Q1017=
200904072115 METAR LIRA 072115Z 13001KT 7000 SCT005 12/11 Q1017=
200904072045 METAR LIRA 072045Z 16003KT 8000 SCT005 13/11 Q1017=
200904072015 METAR LIRA 072015Z 21004KT 9999 FEW005 13/11 Q1016=
200904071945 METAR LIRA 071945Z 20004KT 9999 FEW005 13/11 Q1016=
200904071915 METAR LIRA 071915Z 20003KT CAVOK 13/11 Q1016=
200904071845 METAR LIRA 071845Z 21003KT 9999 FEW080 13/10 Q1016=
200904071815 METAR LIRA 071815Z 21003KT 9999 FEW080 14/10 Q1015=
200904071745 METAR LIRA 071745Z 22004KT 9999 FEW005 15/11 Q1015=
200904071715 METAR LIRA 071715Z 22005KT 9999 FEW018 16/12 Q1015=
200904071645 METAR LIRA 071645Z 23007KT 180V260 9999 FEW018 17/12 Q1015=
200904071615 METAR LIRA 071615Z 23006KT 160V270 9999 FEW018 17/12 Q1015=
200904071545 METAR LIRA 071545Z 22006KT 140V260 9999 SCT018 18/09 Q1015=
200904071515 METAR LIRA 071515Z 24006KT 190V270 9999 FEW016 SCT025 18/10
                        Q1015=
200904071445 METAR LIRA 071445Z 22006KT 160V280 9999 FEW016 SCT025 18/12
                        Q1015=
200904071415 METAR LIRA 071415Z 22009KT 170V270 9999 SCT016 SCT025 18/12
                        Q1015=
200904071345 METAR LIRA 071345Z 20006KT 160V280 9999 SCT016 SCT025 18/12
                        Q1016=
200904071315 METAR LIRA 071315Z 19008KT 150V270 9999 SCT016 SCT025 19/12
                        Q1016=
200904071245 METAR LIRA 071245Z 20006KT 150V260 9999 SCT016 SCT025 19/12
                        Q1016=
200904071215 METAR LIRA 071215Z 12007KT 150V280 9999 SCT016 SCT025 19/11
                        Q1016=
200904071145 METAR LIRA 071145Z 22009KT 170V300 9999 SCT016 SCT025 19/11
                        Q1016=
200904071115 METAR LIRA 071115Z 23006KT 180V230 9999 SCT016 19/11 Q1016=
200904071045 METAR LIRA 071045Z 20006KT 160V300 9999 SCT016 18/11 Q1016=
200904071015 METAR LIRA 071015Z 20006KT 130V240 9999 SCT016 18/10 Q1016=
200904070945 METAR LIRA 070945Z 23003KT 160V220 9999 SCT016 17/11 Q1016=
200904070915 METAR LIRA 070915Z 20004KT 160V240 9999 SCT016 17/11 Q1016=
200904070845 METAR LIRA 070845Z 21005KT 170V250 9999 SCT015 16/11 Q1016=
200904070815 METAR LIRA 070815Z 24004KT 9000 SCT015 SCT025 15/10 Q1016=
200904070745 METAR LIRA 070745Z 19004KT 9000 SCT015 SCT025 15/10 Q1016=
200904070715 METAR LIRA 070715Z 17002KT 7000 SCT013 SCT025 14/10 Q1015=
200904070645 METAR LIRA 070645Z 15001KT 6000 SCT010 SCT025 14/11 Q1015=
200904070615 METAR LIRA 070615Z 09002KT 6000 SCT010 SCT025 13/10 Q1015=
200904070545 METAR LIRA 070545Z 10003KT 6000 SCT010 SCT025 12/09 Q1015=
200904070515 METAR LIRA 070515Z 12003KT 6000 SCT010 SCT025 12/10 Q1015=
200904070445 METAR LIRA 070445Z 12004KT 6000 SCT010 SCT025 13/10 Q1014=
200904070415 METAR LIRA 070415Z 12003KT 6000 SCT010 SCT025 13/11 Q1014=
200904070345 METAR LIRA 070345Z 22002KT 6000 SCT010 SCT025 13/11 Q1014=
200904070315 METAR LIRA 070315Z 00000KT 6000 SCT010 SCT025 13/11 Q1014=
200904070245 METAR LIRA 070245Z 21002KT 6000 SCT010 SCT025 13/11 Q1014=
200904070215 METAR LIRA 070215Z 21002KT 7000 SCT010 SCT025 13/11 Q1014=
200904070145 METAR LIRA 070145Z 21002KT 7000 SCT010 SCT025 13/11 Q1014=
200904070115 METAR LIRA 070115Z 15003KT 7000 SCT010 SCT025 13/11 Q1014=
200904070045 METAR LIRA 070045Z 18004KT 7000 SCT010 SCT025 13/11 Q1015=
200904070015 METAR LIRA 070015Z 19003KT 7000 SCT010 SCT025 13/11 Q1015=
200904062345 METAR LIRA 062345Z 20003KT 7000 SCT011 SCT025 13/12 Q1015=
200904062315 METAR LIRA 062315Z 21004KT 6000 SCT009 SCT025 13/12 Q1015=
200904062245 METAR LIRA 062245Z 20003KT 6000 SCT009 SCT025 14/12 Q1015=
200904062215 METAR LIRA 062215Z 19006KT 5000 BR SCT009 SCT025 13/13 Q1015=
200904062145 METAR LIRA 062145Z 20003KT 5000 BR SCT009 SCT020 13/13 Q1015=
200904062115 METAR LIRA 062115Z 19006KT 5000 BR SCT009 SCT020 13/13 Q1015=
200904062045 METAR LIRA 062045Z 18003KT 7000 SCT009 SCT025 13/13 Q1015=
200904062015 METAR LIRA 062015Z 19004KT 7000 FEW009 14/13 Q1015=
200904061945 METAR LIRA 061945Z 21003KT 8000 FEW025 14/13 Q1015=
200904061915 METAR LIRA 061915Z 19005KT 8000 NSC 14/12 Q1014=
200904061845 METAR LIRA 061845Z 18004KT 9999 FEW070 SCT200 15/11 Q1014=
200904061815 METAR LIRA 061815Z 20003KT 9999 FEW070 SCT200 16/12 Q1014=
200904061745 METAR LIRA 061745Z 21004KT 9999 FEW020TCU SCT200 16/12 Q1014=
200904061715 METAR LIRA 061715Z 23004KT 9999 FEW020TCU SCT200 17/11 Q1014=
200904061645 METAR LIRA 061645Z 23007KT 200V270 9999 FEW020 SCT200 18/11
                        Q1013=
200904061615 METAR LIRA 061615Z 23007KT 200V280 9999 FEW020CB SCT200 18/11
                        Q1013=
200904061545 METAR LIRA 061545Z 23006KT 210V300 9999 FEW020 FEW022CB 18/10
                        Q1013=
200904061515 METAR LIRA 061515Z 24009KT 190V300 9999 FEW020 FEW022CB 19/10
                        Q1013=
200904061445 METAR LIRA 061445Z 24009KT 170V290 9999 FEW020 FEW022CB 19/10
                        Q1013=
200904061415 METAR LIRA 061415Z 24008KT 200V310 9999 FEW020 FEW022CB 19/10
                        Q1014=
200904061345 METAR LIRA 061345Z 26007KT 200V330 9999 FEW020 20/10 Q1014=
200904061315 METAR LIRA 061315Z 26007KT 190V340 9999 FEW020 20/10 Q1014=
200904061245 METAR LIRA 061245Z 27005KT 200V310 9999 FEW020 20/10 Q1014=
200904061215 METAR LIRA 061215Z 24007KT 190V300 9999 FEW020 20/10 Q1014=
200904061145 METAR LIRA 061145Z 26007KT 220V340 9999 FEW020 21/10 Q1014=
200904061115 METAR LIRA 061115Z 26004KT 9999 FEW020 SCT200 20/10 Q1015=
200904061045 METAR LIRA 061045Z 21004KT 180V330 9999 FEW020 SCT200 19/10
                        Q1015=
200904061015 METAR LIRA 061015Z 26001KT 9999 FEW020 19/10 Q1016=
200904060945 METAR LIRA 060945Z 25004KT 9999 FEW020 18/14 Q1016=
200904060915 METAR LIRA 060915Z 30001KT 9999 FEW020 17/14 Q1016=
200904060845 METAR LIRA 060845Z 30003KT 9999 FEW020 15/13 Q1016=
200904060815 METAR LIRA 060815Z 33004KT CAVOK 14/09 Q1016=
200904060745 METAR LIRA 060745Z 00000KT CAVOK 12/10 Q1016=
200904060715 METAR LIRA 060715Z 06003KT CAVOK 11/10 Q1016=
200904060645 METAR LIRA 060645Z 03002KT CAVOK 11/09 Q1016=
200904060615 METAR LIRA 060615Z 05003KT CAVOK 10/09 Q1015=
200904060545 METAR LIRA 060545Z 04003KT CAVOK 09/09 Q1015=
200904060515 METAR LIRA 060515Z 04003KT CAVOK 09/09 Q1015=
200904060445 METAR LIRA 060445Z 04004KT CAVOK 09/09 Q1015=
200904060415 METAR LIRA 060415Z 36002KT CAVOK 10/09 Q1016=
200904060345 METAR LIRA 060345Z 00000KT CAVOK 10/09 Q1016=
200904060315 METAR LIRA 060315Z 00000KT CAVOK 10/09 Q1016=
200904060245 METAR LIRA 060245Z 00000KT CAVOK 10/09 Q1016=
200904060215 METAR LIRA 060215Z 00000KT CAVOK 11/09 Q1016=
200904060145 METAR LIRA 060145Z 01001KT CAVOK 11/10 Q1016=
200904060115 METAR LIRA 060115Z 10001KT CAVOK 11/11 Q1016=
200904060045 METAR LIRA 060045Z 00000KT 7000 NSC 12/11 Q1016=
200904060015 METAR LIRA 060015Z 00000KT CAVOK 12/11 Q1016=
200904052345 METAR LIRA 052345Z 00000KT CAVOK 12/11 Q1016=
200904052315 METAR LIRA 052315Z 11002KT 8000 FEW070 12/12 Q1017=
200904052245 METAR LIRA 052245Z 12002KT 8000 FEW070 13/13 Q1017=
200904052215 METAR LIRA 052215Z 00000KT 8000 FEW060 14/12 Q1017=
200904052145 METAR LIRA 052145Z 00000KT 9999 SCT070 14/11 Q1017=
200904052115 METAR LIRA 052115Z 22007KT 9999 FEW030 SCT060 14/12 Q1016=
200904052045 METAR LIRA 052045Z 09001KT 9999 SCT030 SCT070 14/12 Q1017=
200904052015 METAR LIRA 052015Z 00000KT 9999 SCT030 SCT070 15/12 Q1017=
200904051945 METAR LIRA 051945Z 00000KT 9999 FEW020TCU SCT035 BKN070 15/12
                        Q1017=
200904051915 METAR LIRA 051915Z 19004KT 9999 SCT030 SCT060 15/11 Q1017=
200904051845 METAR LIRA 051845Z 18004KT 9999 SCT030 SCT060 15/11 Q1016=
200904051815 METAR LIRA 051815Z 19005KT 9999 SCT030 SCT060 16/10 Q1016=
200904051745 METAR LIRA 051745Z 22006KT 9999 FEW020 SCT035 17/11 Q1016=
200904051715 METAR LIRA 051715Z 21004KT 9999 FEW018 FEW020TCU SCT060 17/11
                        Q1016=
200904051645 METAR LIRA 051645Z 25005KT 200V310 9999 FEW018 FEW020TCU
                        SCT090 18/11 Q1015=
200904051615 METAR LIRA 051615Z 23007KT 180V290 9999 FEW018 FEW020CB SCT080
                        18/11 Q1015=
200904051545 METAR LIRA 051545Z 23006KT 200V300 9999 FEW018 FEW020CB 19/10
                        Q1015=
200904051515 METAR LIRA 051515Z 25008KT 200V300 9999 FEW018 FEW020CB 19/10
                        Q1015=
200904051445 METAR LIRA 051445Z 25009KT 210V310 9999 FEW018 FEW020CB 19/10
                        Q1015=
200904051415 METAR LIRA 051415Z 26005KT 180V300 9999 FEW018 FEW020TCU
                        20/11 Q1015=
200904051345 METAR LIRA 051345Z 26007KT 180V300 9999 FEW018 FEW020TCU
                        20/10 Q1016=
200904051315 METAR LIRA 051315Z 28008KT 200V310 9999 SCT018 FEW020TCU
                        20/10 Q1016=
200904051245 METAR LIRA 051245Z 24006KT 200V290 9999 SCT018 FEW020TCU
                        20/08 Q1016=
200904051215 METAR LIRA 051215Z 25003KT 9999 FEW018 FEW020TCU BKN200 19/05
                        Q1016=
200904051145 METAR LIRA 051145Z 30006KT 9999 FEW018 FEW020TCU BKN200 18/08
                        Q1017=
200904051115 METAR LIRA 051115Z 22002KT 9999 FEW020 BKN200 18/09 Q1017=
200904051045 METAR LIRA 051045Z 27003KT 9999 FEW020 BKN200 18/08 Q1017=
200904051015 METAR LIRA 051015Z 33002KT 9999 FEW020 BKN200 17/09 Q1017=
200904050945 METAR LIRA 050945Z 30003KT 9999 FEW020 SCT200 16/09 Q1017=
200904050915 METAR LIRA 050915Z 30001KT 9999 FEW020 SCT200 15/09 Q1017=
200904050845 METAR LIRA 050845Z 32002KT 9999 FEW020 SCT200 14/09 Q1017=
200904050815 METAR LIRA 050815Z 35004KT 9999 FEW020 SCT200 13/09 Q1017=
200904050745 METAR LIRA 050745Z 36003KT 9999 FEW020 SCT200 11/09 Q1017=
200904050715 METAR LIRA 050715Z 02002KT CAVOK 11/09 Q1017=
200904050645 METAR LIRA 050645Z 36003KT CAVOK 09/08 Q1017=
200904050615 METAR LIRA 050615Z 05005KT CAVOK 09/08 Q1017=
200904050545 METAR LIRA 050545Z 04003KT CAVOK 07/07 Q1017=
200904050515 METAR LIRA 050515Z 02002KT CAVOK 07/07 Q1016=
200904050445 METAR LIRA 050445Z 06003KT CAVOK 08/08 Q1016=
200904050415 METAR LIRA 050415Z 06003KT CAVOK 08/08 Q1016=
200904050345 METAR LIRA 050345Z 04003KT CAVOK 08/08 Q1016=
200904050315 METAR LIRA 050315Z 04002KT 9999 FEW004 09/08 Q1016=
200904050245 METAR LIRA 050245Z 06005KT CAVOK 09/08 Q1016=
200904050215 METAR LIRA 050215Z 00000KT CAVOK 09/08 Q1016=
200904050145 METAR LIRA 050145Z 10003KT CAVOK 09/08 Q1016=
200904050115 METAR LIRA 050115Z 12003KT CAVOK 09/08 Q1016=
200904050045 METAR LIRA 050045Z 00000KT CAVOK 09/08 Q1017=
200904050015 METAR LIRA 050015Z 14001KT CAVOK 10/09 Q1017=
200904042350 METAR LIRA 050045Z 00000KT CAVOK 09/08 Q1017=
200904042345 METAR LIRA 042345Z 14003KT CAVOK 10/09 Q1017=
200904042315 METAR LIRA 042315Z 14002KT CAVOK 10/09 Q1017=
200904042245 METAR LIRA 042245Z 17001KT 9999 FEW080 10/09 Q1017=
200904042215 METAR LIRA 042215Z 14004KT 9999 FEW080 11/10 Q1017=
200904042145 METAR LIRA 042145Z 08002KT 9999 FEW080 10/10 Q1017=
200904042115 METAR LIRA 042115Z 12002KT 9999 FEW070 11/10 Q1017=
200904042045 METAR LIRA 042045Z 11005KT 9999 FEW070 13/11 Q1017=
200904042015 METAR LIRA 042015Z 11002KT 9999 SCT070 13/12 Q1017=
200904041945 METAR LIRA 041945Z 16001KT 9999 SCT070 13/12 Q1017=
200904041915 METAR LIRA 041915Z 16002KT 9999 FEW020 SCT070 13/12 Q1017=
200904041845 METAR LIRA 041845Z 16003KT 9999 FEW020 SCT070 14/11 Q1016=
200904041815 METAR LIRA 041815Z 21002KT 9999 FEW020 SCT070 14/12 Q1016=
200904041745 METAR LIRA 041745Z 12002KT 9999 FEW018 FEW020CB SCT070 15/13
                        Q1016=
200904041715 METAR LIRA 041715Z 19002KT 9999 FEW020CB SCT070 15/13 Q1015=
200904041645 METAR LIRA 041645Z 17004KT 9999 FEW020CB SCT200 14/12 Q1015=
200904041615 METAR LIRA 041615Z 19003KT 9999 FEW020CB SCT200 15/12 Q1015=
200904041545 METAR LIRA 041545Z 18003KT 9999 SCT017 FEW018CB SCT027 14/12
                        Q1015=
200904041515 METAR LIRA 041515Z 12005KT 9999 SCT017 FEW018CB SCT027 15/12
                        Q1015 RETS=
200904041445 METAR LIRA 041445Z 00000KT 9999 SCT017 FEW018CB SCT027 15/12
                        Q1015 RETS=
200904041415 METAR LIRA 041415Z 16006KT 140V230 9999 -TSRA SCT017 FEW018CB
                        SCT027 15/10 Q1015=
200904041345 METAR LIRA 041345Z 23005KT 150V250 9999 -TSRA SCT017 FEW018CB
                        SCT027 17/13 Q1015=
200904041315 METAR LIRA 041315Z 15008KT 130V210 6000 -TSRA SCT017 FEW018CB
                        SCT027 18/11 Q1015=
200904041245 METAR LIRA 041245Z 16008KT 9999 -TSRA SCT015 FEW017CB SCT027
                        18/10 Q1015=
200904041215 METAR LIRA 041215Z 22006KT 170V280 9999 SCT017 FEW018CB 19/09
                        Q1015=
200904041145 METAR LIRA 041145Z 21003KT 150V270 9999 SCT017 FEW018CB SCT200
                        18/09 Q1015=
200904041115 METAR LIRA 041115Z 19006KT 140V260 9999 SCT017 FEW018CB SCT200
                        17/08 Q1016=
200904041045 METAR LIRA 041045Z 20004KT 9999 SCT017 FEW018CB SCT080 17/09
                        Q1016=
200904041015 METAR LIRA 041015Z 22005KT 9999 SCT017 FEW018CB SCT200 17/10
                        Q1016=
200904040945 METAR LIRA 040945Z 19004KT 9999 FEW017 FEW018CB SCT200 17/11
                        Q1016=
200904040915 METAR LIRA 040915Z 26003KT 9999 FEW017 FEW018CB SCT200 16/11
                        Q1016=
200904040845 METAR LIRA 040845Z 00000KT 9999 FEW018 SCT200 15/10 Q1016=
200904040815 METAR LIRA 040815Z 36003KT 9999 FEW018 SCT200 15/10 Q1016=
200904040745 METAR LIRA 040745Z 04002KT 9999 FEW018 SCT070 13/09 Q1016=
200904040715 METAR LIRA 040715Z 36004KT 9999 FEW025 SCT070 13/09 Q1015=
200904040645 METAR LIRA 040645Z 03005KT 010V090 9999 FEW025 SCT070 12/09
                        Q1015=
200904040615 METAR LIRA 040615Z 02003KT 9999 FEW030 SCT070 11/09 Q1015=
200904040545 METAR LIRA 040545Z 03001KT 9999 SCT030 SCT070 10/09 Q1015=
200904040515 METAR LIRA 040515Z 07001KT 9999 SCT030 SCT070 10/09 Q1015=
200904040445 METAR LIRA 040445Z 04003KT 9999 SCT030 SCT070 10/09 Q1015=
200904040415 METAR LIRA 040415Z 05002KT 9999 SCT030 SCT070 10/09 Q1016=
200904040345 METAR LIRA 040345Z 33002KT 9999 SCT030 SCT070 11/09 Q1016=
200904040315 METAR LIRA 040315Z 00000KT 9999 SCT030 SCT070 11/09 Q1016=
200904040245 METAR LIRA 040245Z 00000KT 9999 SCT030 SCT070 11/08 Q1016=
200904040215 METAR LIRA 040215Z 03002KT 9999 SCT030 SCT070 11/08 Q1016=
200904040145 METAR LIRA 040145Z 01002KT 9999 SCT030 SCT070 11/08 Q1016=
200904040115 METAR LIRA 040115Z 17001KT 9999 SCT030 SCT070 11/08 Q1016=
200904040045 METAR LIRA 040045Z 00000KT 9999 SCT030 SCT070 11/08 Q1016=
200904040015 METAR LIRA 040015Z 23002KT 9999 SCT030 SCT070 11/09 Q1017=
200904032345 METAR LIRA 032345Z 19002KT 9999 SCT030 SCT070 11/09 Q1017=
200904032315 METAR LIRA 032315Z 16003KT 9999 FEW030 BKN070 12/09 Q1017=
200904032245 METAR LIRA 032245Z 15003KT 9999 SCT030 SCT070 12/09 Q1017=
200904032215 METAR LIRA 032215Z 17003KT 9999 SCT030 SCT070 12/10 Q1017=
200904032145 METAR LIRA 032145Z 17003KT 9999 FEW030 SCT070 12/08 Q1017=
200904032115 METAR LIRA 032115Z 22003KT 9999 FEW030 SCT070 13/09 Q1017=
200904032100 METAR LIRA INTER=
200904032045 METAR LIRA 032045Z 18003KT 9999 FEW030 SCT070 13/09 Q1017=
200904032015 METAR LIRA 032015Z 17003KT 9999 FEW030 SCT070 13/08 Q1017=
200904031945 METAR LIRA 031945Z 19003KT 9999 FEW030 SCT070 13/08 Q1017=
200904031915 METAR LIRA 031915Z 19002KT 9999 FEW030 SCT070 13/08 Q1017=
200904031845 METAR LIRA 031845Z 17004KT 9999 FEW070 SCT200 14/09 Q1017=
200904031815 METAR LIRA 031815Z 17004KT 9999 FEW070 SCT200 14/08 Q1016=
200904031745 METAR LIRA 031745Z 20004KT 9999 FEW020 SCT200 15/06 Q1017=
200904031715 METAR LIRA 031715Z 23003KT 9999 FEW020 SCT200 15/06 Q1016=
200904031645 METAR LIRA 031645Z 25005KT 200V320 9999 FEW020 SCT200 17/06
                        Q1017=
200904031615 METAR LIRA 031615Z 26005KT 220V320 9999 FEW020 SCT200 17/07
                        Q1017=
200904031545 METAR LIRA 031545Z 25007KT 200V310 9999 FEW020 BKN200 18/06
                        Q1017=
200904031515 METAR LIRA 031515Z 29007KT 210V330 9999 FEW020 BKN200 18/06
                        Q1017=
200904031445 METAR LIRA 031445Z 27008KT 210V310 9999 FEW020 BKN200 18/06
                        Q1017=
200904031415 METAR LIRA 031415Z 27008KT 230V330 9999 FEW020 BKN200 18/07
                        Q1018=
200904031345 METAR LIRA 031345Z 28007KT 230V310 9999 FEW020 BKN200 18/05
                        Q1018=
200904031315 METAR LIRA 031315Z 28007KT 240V330 9999 FEW020 FEW025TCU
                        BKN200 18/06 Q1018=
200904031245 METAR LIRA 031245Z 29009KT 220V310 9999 FEW020 FEW025TCU
                        BKN200 19/05 Q1018=
200904031215 METAR LIRA 031215Z 27008KT 240V330 9999 SCT020 BKN200 19/04
                        Q1018=
200904031145 METAR LIRA 031145Z 23003KT 170V270 9999 SCT020 BKN200 19/05
                        Q1018=
200904031115 METAR LIRA 031115Z 21002KT 9999 SCT020 SCT200 18/07 Q1018=
200904031045 METAR LIRA 031045Z 29005KT 240V310 9999 FEW020 BKN200 17/05
                        Q1018=
200904031015 METAR LIRA 031015Z 29005KT 9999 FEW018 SCT200 17/06 Q1019=
200904030945 METAR LIRA 030945Z 32003KT 9999 FEW018 SCT200 16/07 Q1019=
200904030915 METAR LIRA 030915Z 33003KT 9999 FEW018 SCT200 15/08 Q1019=
200904030900 METAR LIRA INT=
200904030845 METAR LIRA 030845Z 33003KT 9999 FEW018 SCT200 14/09 Q1019=
200904030815 METAR LIRA 030815Z 36002KT CAVOK 13/08 Q1019=
200904030745 METAR LIRA 030745Z 34003KT 9999 R15/1400N FEW012 12/09 Q1019=
200904030715 METAR LIRA 030715Z 02003KT 9999 R15/1400N FEW010 10/08 Q1019=
200904030645 METAR LIRA 030645Z 01003KT 9999 R15/1400N FEW010 08/07 Q1018=
200904030615 METAR LIRA 030615Z 04004KT 9999 R15/1400N FEW010 07/07 Q1018=
200904030545 METAR LIRA 030545Z 04004KT CAVOK 06/06 Q1018=
200904030515 METAR LIRA 030515Z 04002KT CAVOK 06/06 Q1018=
200904030445 METAR LIRA 030445Z 04002KT CAVOK 06/06 Q1018=
200904030415 METAR LIRA 030415Z 05004KT CAVOK 06/06 Q1017=
200904030345 METAR LIRA 030345Z 00000KT CAVOK 07/05 Q1018=
200904030315 METAR LIRA 030315Z 03002KT CAVOK 07/06 Q1018=
200904030245 METAR LIRA 030245Z 03002KT CAVOK 07/06 Q1018=
200904030215 METAR LIRA 030215Z 05002KT CAVOK 07/06 Q1018=
200904030015 METAR LIRA 030015Z 06003KT 9999 FEW020 08/07 Q1018=
200904022345 METAR LIRA 022345Z 08003KT 9999 FEW020 09/07 Q1018=
200904022315 METAR LIRA 022315Z 07002KT 9999 FEW020 09/07 Q1018=
200904022245 METAR LIRA 022245Z 14002KT 9999 FEW020 10/08 Q1018=
200904022215 METAR LIRA 022215Z 00000KT 9999 FEW020 10/08 Q1018=
200904022145 METAR LIRA 022145Z 05003KT 9999 FEW020 10/08 Q1018=
200904022115 METAR LIRA 022115Z 00000KT 9999 FEW020 10/08 Q1018=
200904022045 METAR LIRA 022045Z 08002KT 9999 FEW020 10/09 Q1017=
200904022015 METAR LIRA 022015Z 10002KT 9999 FEW020 11/09 Q1017=
200904021945 METAR LIRA 021945Z 17002KT 9999 FEW020 11/09 Q1017=
200904021915 METAR LIRA 021915Z 16002KT 9999 FEW020 12/10 Q1017=
200904021845 METAR LIRA 021845Z 21003KT 9999 FEW020 13/10 Q1016=
200904021815 METAR LIRA 021815Z 22003KT 9999 FEW020 13/10 Q1016=
200904021745 METAR LIRA 021745Z 21005KT 150V240 9999 FEW020 14/09 Q1016=
200904021715 METAR LIRA 021715Z 21004KT 150V260 9999 FEW020 14/07 Q1016=
200904021645 METAR LIRA 021645Z 15007KT 160V240 9999 FEW020 15/07 Q1016=
200904021615 METAR LIRA 021615Z 19009KT 150V230 9999 FEW020 15/06 Q1016=
200904021545 METAR LIRA 021545Z 17009KT 150V240 9999 FEW020 16/07 Q1015=
200904021515 METAR LIRA 021515Z 19009KT 150V260 9999 FEW020 16/07 Q1015=
200904021445 METAR LIRA 021445Z 21009KT 160V270 9999 FEW020 17/09 Q1014=
200904021415 METAR LIRA 021415Z 22009KT 160V260 9999 FEW020 17/09 Q1014=
200904021345 METAR LIRA 021345Z 19008KT 170V260 9999 SCT020 17/09 Q1014=
200904021315 METAR LIRA 021315Z 22008KT 160V260 9999 SCT020 16/09 Q1014=
200904021245 METAR LIRA 021245Z 21008KT 150V260 9999 SCT020 16/09 Q1015=
200904021215 METAR LIRA 021215Z 21005KT 170V280 9999 SCT020 16/09 Q1015=
200904021145 METAR LIRA 021145Z 21006KT 130V250 9999 SCT020 16/09 Q1015=
200904021115 METAR LIRA 021115Z 22007KT 150V270 9999 SCT020 16/09 Q1015=
200904021045 METAR LIRA 021045Z 17006KT 130V210 9999 BKN020 16/09 Q1015=
200904021015 METAR LIRA 021015Z 19009KT 150V230 9999 BKN020 16/09 Q1015=
200904020945 METAR LIRA 020945Z 20005KT 150V230 9999 BKN020 14/09 Q1015=
200904020915 METAR LIRA 020915Z 19004KT 160V240 9999 BKN018 14/09 Q1015=
200904020845 METAR LIRA 020845Z 19005KT 140V210 9999 SCT018 13/09 Q1015=
200904020815 METAR LIRA 020815Z 02002KT 9999 SCT018 13/09 Q1014=
200904020745 METAR LIRA 020745Z 36003KT 9999 FEW018 13/10 Q1014=
200904020715 METAR LIRA 020715Z 03004KT 9999 FEW018 13/10 Q1014=
200904020645 METAR LIRA 020645Z 05002KT 9999 FEW018 11/09 Q1013=
200904020615 METAR LIRA 020615Z 05003KT 9999 FEW018 11/09 Q1013=
200904020545 METAR LIRA 020545Z 09005KT 9999 FEW018 BKN025 10/09 Q1012=
200904020515 METAR LIRA 020515Z 10006KT 9999 FEW018 BKN025 09/08 Q1012=
200904020445 METAR LIRA 020445Z 08005KT 9999 FEW018 BKN025 08/07 Q1012=
200904020415 METAR LIRA 020415Z 06002KT 9999 FEW025 SCT070 07/06 Q1012=
200904020345 METAR LIRA 020345Z 00000KT 9999 FEW025 SCT060 07/07 Q1011=
200904020315 METAR LIRA 020315Z 00000KT 9999 SCT025 08/07 Q1011=
200904020245 METAR LIRA 020245Z 00000KT 9999 FEW060 09/09 Q1011=
200904020215 METAR LIRA 020215Z 17002KT 9999 FEW070 09/08 Q1012=
200904020145 METAR LIRA 020145Z 00000KT 9999 FEW030 09/08 Q1012=
200904020115 METAR LIRA 020115Z 29002KT 9999 FEW030 10/08 Q1012=
200904020045 METAR LIRA 020045Z 16004KT 9999 FEW025 11/10 Q1012=
200904020015 METAR LIRA 020015Z 14005KT 9999 SCT040 11/10 Q1012=
200904012345 METAR LIRA 012345Z 20001KT 9999 BKN030 11/10 Q1012=
200904012315 METAR LIRA 012315Z 00000KT 9999 SCT030 SCT060 11/10 Q1011=
200904012245 METAR LIRA 012245Z 00000KT 9999 FEW020 SCT035 11/10 Q1011=
200904012215 METAR LIRA 012215Z 24001KT 9999 SCT035 SCT060 11/10 Q1011=
200904012145 METAR LIRA 012145Z 13002KT 9999 SCT045 SCT060 11/09 Q1011=
200904012115 METAR LIRA 012115Z 04002KT 9999 SCT040 SCT060 11/10 Q1011=
200904012045 METAR LIRA 012045Z 05002KT 9999 FEW020 SCT045 11/10 Q1011=
200904012015 METAR LIRA 012015Z 02003KT 9999 FEW020 SCT040 11/11 Q1011=
200904011945 METAR LIRA 011945Z 06004KT 020V090 9999 SCT020 SCT040 11/11
                        Q1011=
200904011915 METAR LIRA 011915Z 06006KT 360V080 8000 -RA SCT018 SCT040
                        11/11 Q1011=
200904011845 METAR LIRA 011845Z 08003KT 8000 -RA SCT018 FEW022TCU BKN030
                        12/11 Q1011=
200904011815 METAR LIRA 011815Z 16002KT 7000 -RA SCT015 FEW020CB BKN025
                        12/11 Q1010=
200904011745 METAR LIRA 011745Z 19004KT 7000 -RA SCT015 FEW020CB BKN025
                        12/11 Q1010=
200904011715 METAR LIRA 011715Z 18005KT 7000 -RA SCT015 FEW020CB BKN025
                        12/11 Q1010=
200904011645 METAR LIRA 011645Z 16008KT 130V200 5000 -RA BR SCT012 FEW016CB
                        BKN022 12/11 Q1010=
200904011615 METAR LIRA 011615Z 20007KT 160V250 3000 RA BR SCT010 FEW015CB
                        BKN020 13/13 Q1009=
200904011545 METAR LIRA 011545Z 18007KT 160V230 4000 -RA BR SCT011 FEW014CB
                        BKN022 13/12 Q1009=
200904011515 METAR LIRA 011515Z 22005KT 8000 -RA SCT011 BKN022 13/12 Q1009=
200904011445 METAR LIRA 011445Z 24004KT 9999 -RA SCT011 BKN022 14/12 Q1008=
200904011415 METAR LIRA 011415Z 23005KT 200V270 9999 -RA FEW016 SCT030
                        14/13 Q1008=
200904011345 METAR LIRA 011345Z 20003KT 9999 SCT030 BKN070 13/12 Q1008=
200904011315 METAR LIRA 011315Z 11005KT 300V160 9999 SCT030 BKN070 13/12
                        Q1008=
200904011245 METAR LIRA 011245Z 04010KT 9999 SCT030 BKN070 13/12 Q1008=
200904011215 METAR LIRA 011215Z 01004KT 330V060 9999 SCT030 BKN070 13/12
                        Q1008=
200904011145 METAR LIRA 011145Z 12002KT 9999 FEW011 BKN027 13/11 Q1009=
200904011115 METAR LIRA 011115Z 19004KT 130V260 9999 -RA SCT011 FEW015CB
                        BKN027 14/13 Q1010=
200904011045 METAR LIRA 011045Z 21010KT 150V270 9999 -RA SCT011 FEW015CB
                        BKN022 14/13 Q1010=
200904011015 METAR LIRA 011015Z 22009KT 160V250 4000 -RA BR SCT011 FEW015CB
                        BKN025 15/14 Q1010=
200904010945 METAR LIRA 010945Z 20006KT 160V250 9999 FEW017 FEW018CB SCT030
                        16/14 Q1009=
200904010915 METAR LIRA 010915Z 23005KT 190V280 9999 SCT017 BKN070 16/13
                        Q1009=
200904010845 METAR LIRA 010845Z 23004KT 9999 SCT017 SCT070 16/12 Q1009=
200904010815 METAR LIRA 010815Z 33001KT 9999 FEW030 SCT070 15/12 Q1008=
200904010745 METAR LIRA 010745Z 04004KT 9999 FEW030 SCT070 BKN200 15/12
                        Q1008=
200904010715 METAR LIRA 010715Z 04007KT 340V080 9999 FEW070 SCT200 14/12
                        Q1008=
200904010645 METAR LIRA 010645Z 03003KT 9999 FEW030 SCT200 14/12 Q1008=
200904010615 METAR LIRA 010615Z 01004KT 9999 FEW018 SCT070 13/11 Q1009=
200904010545 METAR LIRA 010545Z 33002KT 9999 FEW018 SCT070 12/12 Q1009=
200904010515 METAR LIRA 010515Z 00000KT 9999 FEW033 SCT070 13/12 Q1009=
200904010445 METAR LIRA 010445Z 04003KT 9999 FEW030 SCT070 13/12 Q1009=
200904010415 METAR LIRA 010415Z 04005KT 9999 FEW030 SCT070 09/07 Q1009=
200904010345 METAR LIRA 010345Z 08003KT 9999 FEW030 SCT060 13/12 Q1009=
200904010315 METAR LIRA 010315Z 10003KT 9999 -RA SCT030 SCT060 13/12 Q1009=
200904010245 METAR LIRA 010245Z 30001KT 9999 FEW030 SCT060 14/11 Q1009=
200904010215 METAR LIRA 010215Z 20003KT 160V230 9999 FEW030 SCT070 14/11
                        Q1010=
200904010145 METAR LIRA 010145Z 18006KT 9999 FEW025 SCT060 12/11 Q1010=
200904010115 METAR LIRA 010115Z 15004KT 9999 SCT070 13/11 Q1010=
200904010045 METAR LIRA 010045Z 14004KT 9999 FEW080 14/11 Q1010=
200904010015 METAR LIRA 010015Z 15008KT 150V220 9999 SCT080 14/11 Q1010=

</pre>

</body>
</html>
