##########################################################
# Query made at 11/10/2014 15:31:14 UTC
# Time interval: from 04/01/2010 00:00  to 05/01/2010 23:59  UTC
##########################################################

##########################################################
# LIRA, Roma / Ciampino (Italy)
# WMO index: 16239
# Latitude 41-47N. Longitude 012-35E. Altitude 129 m.
##########################################################

###################################
#  METAR/SPECI from LIRA
###################################
201004302350 METAR LIRA 010045Z 11003KT CAVOK 11/09 Q1016=
201004302345 METAR LIRA 302345Z 12002KT 9000 FEW015 13/11 Q1017=
201004302315 METAR LIRA 302315Z 19001KT 8000 FEW015 14/12 Q1017=
201004302245 METAR LIRA 302245Z 10002KT 8000 FEW014 14/12 Q1017=
201004302215 METAR LIRA 302215Z 09004KT 6000 SCT012 14/13 Q1017=
201004302145 METAR LIRA 302145Z 15002KT 6000 FEW014 15/14 Q1017=
201004302115 METAR LIRA 302115Z 18004KT 7000 NSC 15/15 Q1017=
201004302045 METAR LIRA 302045Z 22002KT 7000 NSC 15/15 Q1017=
201004302015 METAR LIRA 302015Z 20002KT 8000 NSC 16/15 Q1017=
201004301945 METAR LIRA 301945Z 19005KT 150V220 8000 NSC 16/15 Q1017=
201004301915 METAR LIRA 301915Z 22004KT CAVOK 17/15 Q1017=
201004301845 METAR LIRA 301845Z 20006KT 160V240 CAVOK 18/15 Q1016=
201004301815 METAR LIRA 301815Z 20005KT 150V230 CAVOK 18/14 Q1017=
201004301745 METAR LIRA 301745Z 20005KT 150V250 CAVOK 19/13 Q1017=
201004301715 METAR LIRA 301715Z 20005KT 170V240 CAVOK 20/11 Q1017=
201004301645 METAR LIRA 301645Z 20007KT 160V230 CAVOK 21/10 Q1017=
201004301615 METAR LIRA 301615Z 19006KT 130V260 CAVOK 21/10 Q1017=
201004301545 METAR LIRA 301545Z 20007KT 150V240 CAVOK 21/09 Q1017=
201004301515 METAR LIRA 301515Z 19009KT 150V230 CAVOK 21/11 Q1017=
201004301445 METAR LIRA 301445Z 21007KT 150V270 CAVOK 22/11 Q1017=
201004301415 METAR LIRA 301415Z 22008KT 180V270 CAVOK 22/09 Q1017=
201004301345 METAR LIRA 301345Z 22007KT 150V280 9999 FEW070 23/09 Q1017=
201004301315 METAR LIRA 301315Z 21008KT 150V250 9999 FEW023 23/09 Q1017=
201004301245 METAR LIRA 301245Z 21008KT 150V250 9999 FEW023 23/10 Q1018=
201004301215 METAR LIRA 301215Z 22006KT 160V280 9999 FEW023 23/11 Q1018=
201004301145 METAR LIRA 301145Z 21006KT 160V280 9999 FEW023 23/12 Q1018=
201004301115 METAR LIRA 301115Z 22005KT 150V270 9999 FEW023 23/12 Q1018=
201004301045 METAR LIRA 301045Z 21006KT 130V260 9999 FEW023 23/12 Q1018=
201004301015 METAR LIRA 301015Z 24004KT 190V310 9999 FEW023 23/10 Q1018=
201004300945 METAR LIRA 300945Z 23005KT 180V290 9999 FEW023 23/11 Q1018=
201004300915 METAR LIRA 300915Z 22005KT 170V270 CAVOK 22/11 Q1018=
201004300845 METAR LIRA 300845Z 20006KT 150V250 CAVOK 21/11 Q1018=
201004300815 METAR LIRA 300815Z 19006KT 160V240 CAVOK 21/10 Q1018=
201004300745 METAR LIRA 300745Z 19006KT 140V240 CAVOK 20/11 Q1018=
201004300715 METAR LIRA 300715Z 19004KT CAVOK 19/11 Q1018=
201004300645 METAR LIRA 300645Z 25002KT CAVOK 16/11 Q1018=
201004300615 METAR LIRA 300615Z 25002KT CAVOK 14/10 Q1018=
201004300545 METAR LIRA 300545Z 31001KT CAVOK 13/09 Q1018=
201004300515 METAR LIRA 300515Z 32001KT 9999 FEW080 12/09 Q1017=
201004300415 METAR LIRA 300415Z 06004KT 9999 FEW080 11/08 Q1018=
201004300345 METAR LIRA 300345Z 07002KT 9999 FEW080 11/08 Q1018=
201004300315 METAR LIRA 300315Z 03002KT 9999 FEW080 12/08 Q1018=
201004300245 METAR LIRA 300245Z 03002KT 9999 FEW080 12/08 Q1018=
201004300215 METAR LIRA 300215Z 07002KT 9999 FEW070 12/07 Q1018=
201004300145 METAR LIRA 300145Z 08003KT 9999 FEW070 13/08 Q1018=
201004300115 METAR LIRA 300115Z 07002KT 9999 FEW080 13/07 Q1018=
201004300045 METAR LIRA 300045Z 10004KT 9999 FEW080 13/06 Q1018=
201004300015 METAR LIRA 300015Z 12001KT 9999 FEW080 13/06 Q1018=
201004292350 METAR LIRA 300045Z 10004KT 9999 FEW080 13/06 Q1018=
201004292345 METAR LIRA 292345Z 11003KT 9999 FEW080 14/07 Q1018=
201004292315 METAR LIRA 292315Z 14003KT 9999 FEW080 14/07 Q1018=
201004292245 METAR LIRA 292245Z 14003KT 9999 FEW080 14/07 Q1018=
201004292215 METAR LIRA 292215Z 11003KT 9999 FEW080 14/09 Q1018=
201004292145 METAR LIRA 292145Z 14003KT 9999 FEW080 15/08 Q1018=
201004292115 METAR LIRA 292115Z 12002KT 9999 FEW080 15/08 Q1018=
201004292045 METAR LIRA 292045Z 10003KT 9999 FEW080 15/09 Q1018=
201004292015 METAR LIRA 292015Z 10002KT 9999 FEW080 17/11 Q1018=
201004291945 METAR LIRA 291945Z 15003KT CAVOK 17/12 Q1018=
201004291915 METAR LIRA 291915Z 17004KT CAVOK 17/12 Q1018=
201004291845 METAR LIRA 291845Z 19004KT CAVOK 18/11 Q1018=
201004291815 METAR LIRA 291815Z 23003KT CAVOK 18/11 Q1018=
201004291745 METAR LIRA 291745Z 20004KT 160V250 CAVOK 20/11 Q1018=
201004291715 METAR LIRA 291715Z 21005KT 180V250 CAVOK 20/08 Q1018=
201004291645 METAR LIRA 291645Z 20007KT 150V240 9999 FEW020 20/06 Q1018=
201004291615 METAR LIRA 291615Z 20008KT 140V230 9999 FEW027 21/07 Q1018=
201004291545 METAR LIRA 291545Z 20007KT 150V240 9999 FEW027 22/07 Q1018=
201004291515 METAR LIRA 291515Z 20006KT 150V270 9999 FEW027 22/08 Q1018=
201004291445 METAR LIRA 291445Z 19007KT 130V270 9999 FEW025 22/07 Q1018=
201004291415 METAR LIRA 291415Z 20007KT 150V270 9999 FEW025 23/10 Q1018=
201004291345 METAR LIRA 291345Z 20008KT 160V250 9999 FEW025 23/10 Q1019=
201004291315 METAR LIRA 291315Z 19007KT 140V250 9999 FEW020 23/10 Q1019=
201004291245 METAR LIRA 291245Z 22007KT 160V300 9999 FEW020 FEW022TCU
                        23/10 Q1019=
201004291215 METAR LIRA 291215Z 21007KT 130V260 9999 SCT020 23/11 Q1019=
201004291145 METAR LIRA 291145Z 20007KT 150V260 9999 SCT020 23/11 Q1019=
201004291115 METAR LIRA 291115Z 20006KT 130V240 9999 FEW020 23/12 Q1019=
201004291045 METAR LIRA 291045Z 17007KT 120V240 9999 FEW020 23/11 Q1019=
201004291015 METAR LIRA 291015Z 29004KT 9999 FEW020 22/13 Q1020=
201004290945 METAR LIRA 290945Z 30002KT 9999 FEW020 21/13 Q1020=
201004290915 METAR LIRA 290915Z 03002KT 9999 FEW020 20/12 Q1020=
201004290845 METAR LIRA 290845Z 35003KT 9999 FEW020 19/12 Q1020=
201004290815 METAR LIRA 290815Z 34003KT CAVOK 19/13 Q1020=
201004290745 METAR LIRA 290745Z 13003KT CAVOK 17/13 Q1020=
201004290715 METAR LIRA 290715Z 36004KT CAVOK 16/12 Q1020=
201004290645 METAR LIRA 290645Z 36004KT CAVOK 15/12 Q1020=
201004290615 METAR LIRA 290615Z 35003KT CAVOK 14/12 Q1020=
201004290545 METAR LIRA 290545Z 36002KT CAVOK 13/12 Q1020=
201004290515 METAR LIRA 290515Z 05004KT CAVOK 12/11 Q1019=
201004290445 METAR LIRA 290445Z 05003KT CAVOK 11/10 Q1019=
201004290415 METAR LIRA 290415Z 03003KT CAVOK 10/10 Q1019=
201004290345 METAR LIRA 290345Z 06003KT CAVOK 10/10 Q1020=
201004290315 METAR LIRA 290315Z 01003KT 9999 FEW070 11/10 Q1020=
201004290245 METAR LIRA 290245Z 01002KT 9999 FEW070 11/10 Q1020=
201004290215 METAR LIRA 290215Z 01003KT 9999 FEW070 11/10 Q1020=
201004290145 METAR LIRA 290145Z 33003KT 9999 FEW070 12/10 Q1020=
201004290115 METAR LIRA 290115Z 04004KT 9999 FEW070 12/11 Q1020=
201004290045 METAR LIRA 290045Z 36002KT 9999 FEW070 13/11 Q1021=
201004290015 METAR LIRA 290015Z 05003KT 9999 FEW070 13/11 Q1021=
201004282350 METAR LIRA 290045Z 36002KT 9999 FEW070 13/11 Q1021=
201004282345 METAR LIRA 282345Z 10001KT 9999 FEW070 14/12 Q1021=
201004282315 METAR LIRA 282315Z 15003KT 9999 FEW070 14/12 Q1021=
201004282245 METAR LIRA 282245Z 11002KT 9999 FEW070 14/12 Q1021=
201004282215 METAR LIRA 282215Z 11002KT 9999 FEW070 15/13 Q1021=
201004282145 METAR LIRA 282145Z 10002KT 9999 FEW070 15/13 Q1021=
201004282115 METAR LIRA 282115Z 17002KT 9999 FEW070 16/13 Q1021=
201004282045 METAR LIRA 282045Z 02003KT 9999 FEW070 17/14 Q1021=
201004282015 METAR LIRA 282015Z 13003KT 9999 FEW018 16/14 Q1021=
201004281945 METAR LIRA 281945Z 15002KT 9999 FEW018 17/14 Q1021=
201004281915 METAR LIRA 281915Z 16004KT 9999 FEW018 SCT070 17/15 Q1020=
201004281845 METAR LIRA 281845Z 09004KT 9999 FEW018 FEW020CB SCT070 18/15
                        Q1020=
201004281815 METAR LIRA 281815Z 07002KT 9999 FEW018 FEW020CB SCT070 18/15
                        Q1021=
201004281745 METAR LIRA 281745Z 13003KT 9999 FEW018 FEW020CB SCT070 18/15
                        Q1020=
201004281715 METAR LIRA 281715Z 17004KT 9999 FEW015 FEW017CB SCT070 18/15
                        Q1020 RETS=
201004281645 METAR LIRA 281645Z 24003KT 9999 -TSRA FEW015 FEW017CB SCT070
                        17/15 Q1020=
201004281615 METAR LIRA 281615Z 12010KT 9999 -TSRA FEW016 FEW018CB SCT070
                        17/15 Q1021=
201004281545 METAR LIRA 281545Z 06010KT 360V120 9999 -TSRA FEW016 FEW018CB
                        20/13 Q1021=
201004281515 METAR LIRA 281515Z 06010KT 360V100 9999 TS FEW018TCU FEW020CB
                        21/13 Q1021=
201004281445 METAR LIRA 281445Z 26009KT 210V320 9999 TS FEW018TCU FEW020CB
                        22/11 Q1020=
201004281415 METAR LIRA 281415Z 27009KT 200V310 9999 FEW018TCU FEW020CB
                        23/12 Q1020=
201004281345 METAR LIRA 281345Z 27010KT 220V320 9999 FEW018TCU FEW020CB
                        23/12 Q1020=
201004281315 METAR LIRA 281315Z 26010KT 200V320 9999 FEW018 FEW020TCU
                        24/13 Q1020=
201004281245 METAR LIRA 281245Z 27008KT 190V330 9999 FEW018 FEW020TCU
                        24/13 Q1021=
201004281215 METAR LIRA 281215Z 27005KT 200V330 9999 FEW018 FEW020TCU
                        24/11 Q1021=
201004281145 METAR LIRA 281145Z 27005KT 240V020 9999 FEW018 FEW020TCU
                        23/10 Q1021=
201004281115 METAR LIRA 281115Z 27005KT 200V330 9999 FEW018 FEW020TCU
                        23/10 Q1021=
201004281045 METAR LIRA 281045Z 29006KT 220V010 9999 FEW020 23/11 Q1022=
201004281015 METAR LIRA 281015Z 30006KT 250V340 9999 FEW020 22/10 Q1022=
201004281000 METAR LIRA INTER CB NW/NE=
201004280945 METAR LIRA 280945Z 34004KT 300V360 9999 FEW020 22/12 Q1022=
201004280915 METAR LIRA 280915Z 29003KT 9999 FEW020 21/12 Q1022=
201004280845 METAR LIRA 280845Z 33002KT 9999 FEW020 20/13 Q1022=
201004280815 METAR LIRA 280815Z 03003KT 9999 FEW020 19/14 Q1022=
201004280745 METAR LIRA 280745Z 01003KT CAVOK 17/13 Q1022=
201004280715 METAR LIRA 280715Z 05003KT CAVOK 17/13 Q1022=
201004280645 METAR LIRA 280645Z 35004KT CAVOK 15/13 Q1022=
201004280615 METAR LIRA 280615Z 03002KT 9999 FEW080 12/11 Q1021=
201004280545 METAR LIRA 280545Z 04005KT 360V070 8000 FEW080 12/11 Q1021=
201004280515 METAR LIRA 280515Z 04004KT 7000 FEW080 11/11 Q1021=
201004280445 METAR LIRA 280445Z 06003KT 7000 FEW030 SCT070 11/10 Q1020=
201004280415 METAR LIRA 280415Z 03004KT 8000 FEW030 SCT070 11/10 Q1020=
201004280345 METAR LIRA 280345Z 06003KT 9999 FEW030 SCT060 11/10 Q1020=
201004280315 METAR LIRA 280315Z 05003KT 9999 FEW030 SCT060 11/10 Q1020=
201004280245 METAR LIRA 280245Z 03002KT 9999 FEW070 12/11 Q1020=
201004280215 METAR LIRA 280215Z 08002KT 9999 FEW060 11/11 Q1020=
201004280145 METAR LIRA 280145Z 05003KT CAVOK 12/11 Q1020=
201004280115 METAR LIRA 280115Z 03003KT CAVOK 12/11 Q1020=
201004280045 METAR LIRA 280045Z 04003KT 9999 FEW070 12/12 Q1021=
201004280015 METAR LIRA 280015Z 04003KT 9999 SCT070 13/12 Q1021=
201004272350 METAR LIRA 280045Z 04003KT 9999 FEW070 12/12 Q1021=
201004272345 METAR LIRA 272345Z 01002KT 9999 FEW070 13/12 Q1021=
201004272315 METAR LIRA 272315Z 03003KT 9999 FEW070 13/12 Q1021=
201004272245 METAR LIRA 272245Z 04002KT CAVOK 13/13 Q1021=
201004272215 METAR LIRA 272215Z 05003KT 9999 FEW080 13/13 Q1021=
201004272145 METAR LIRA 272145Z 02003KT 9999 FEW025 SCT070 14/13 Q1021=
201004272115 METAR LIRA 272115Z 02004KT 010V070 9999 FEW030 SCT060 15/13
                        Q1021=
201004272045 METAR LIRA 272045Z 36007KT 320V040 9999 FEW030 SCT060 15/13
                        Q1021=
201004272015 METAR LIRA 272015Z 02006KT 340V060 9999 SCT035 SCT060 15/13
                        Q1021=
201004271945 METAR LIRA 271945Z 04007KT 010V080 9999 FEW025 SCT060 15/13
                        Q1021=
201004271915 METAR LIRA 271915Z 03005KT 360V070 9999 FEW020 SCT060 15/13
                        Q1020=
201004271845 METAR LIRA 271845Z 03007KT 360V070 8000 FEW020 SCT035 15/13
                        Q1020=
201004271815 METAR LIRA 271815Z 33005KT 7000 FEW016 FEW022TCU SCT035 16/15
                        Q1020=
201004271745 METAR LIRA 271745Z 29005KT 8000 FEW017 FEW022TCU SCT035 17/16
                        Q1020=
201004271715 METAR LIRA 271715Z 35003KT 8000 FEW016 FEW020CB SCT030 17/15
                        Q1019=
201004271645 METAR LIRA 271645Z 33004KT 8000 FEW016 FEW020CB SCT030 17/15
                        Q1019=
201004271615 METAR LIRA 271615Z 34002KT 8000 FEW016 FEW020CB BKN030 18/16
                        Q1019=
201004271545 METAR LIRA 271545Z 03002KT 8000 -RA FEW015 FEW018CB BKN025
                        17/16 Q1019 RETS=
201004271515 METAR LIRA 271515Z 00000KT 8000 -RA FEW015 FEW018CB BKN025
                        17/15 Q1019 RETS=
201004271445 METAR LIRA 271445Z 13005KT 8000 -TSRA FEW018CB BKN025 17/16
                        Q1019=
201004271415 METAR LIRA 271415Z 15004KT 8000 -TSRA FEW015 FEW016CB BKN023
                        17/16 Q1019=
201004271345 METAR LIRA 271345Z 18005KT 8000 -TSRA FEW015 FEW016CB BKN023
                        17/16 Q1019=
201004271315 METAR LIRA 271315Z 22005KT 190V250 6000 -TSRA FEW015 FEW016CB
                        BKN023 17/17 Q1019=
201004271245 METAR LIRA 271245Z 30004KT 240V310 7000 -TSRA FEW015 FEW017CB
                        BKN030 20/17 Q1019=
201004271215 METAR LIRA 271215Z 33003KT 8000 FEW015 SCT033 BKN070 20/16
                        Q1019=
201004271145 METAR LIRA 271145Z 33004KT 7000 FEW015 SCT033 BKN070 20/16
                        Q1019=
201004271115 METAR LIRA 271115Z 04003KT 7000 FEW015 SCT033 BKN070 20/17
                        Q1020=
201004271045 METAR LIRA 271045Z 02003KT 7000 FEW015 SCT033 BKN070 19/16
                        Q1020=
201004271015 METAR LIRA 271015Z 35002KT 7000 FEW015 SCT033 BKN070 18/16
                        Q1020=
201004270945 METAR LIRA 270945Z 32002KT 8000 -RA FEW007 SCT033 BKN070
                        17/16 Q1020=
201004270915 METAR LIRA 270915Z 22002KT 7000 -RA FEW007 SCT033 BKN070
                        17/16 Q1019=
201004270845 METAR LIRA 270845Z 23004KT 8000 -RA FEW007 SCT030 BKN070
                        16/15 Q1019=
201004270815 METAR LIRA 270815Z 23004KT 9000 -RA FEW007 SCT030 BKN070
                        17/15 Q1019=
201004270745 METAR LIRA 270745Z 22001KT 8000 -RA FEW018 SCT030 BKN070
                        16/14 Q1019=
201004270715 METAR LIRA 270715Z 10001KT 8000 -RA FEW018 SCT030 BKN070
                        16/15 Q1019=
201004270615 METAR LIRA 270615Z 15004KT 8000 -RA FEW017 SCT030 BKN070
                        16/15 Q1018 RETS=
201004270415 METAR LIRA 270415Z 02002KT 6000 -TSRA FEW015 FEW017CB BKN025
                        16/15 Q1018=
201004270345 METAR LIRA 270345Z 09002KT 9999 -TSRA FEW020CB BKN030 16/14
                        Q1018=
201004270315 METAR LIRA 270315Z 12003KT 9999 SCT025 SCT060 16/14 Q1018=
201004270245 METAR LIRA 270245Z 16004KT 9999 SCT030 SCT060 17/14 Q1018=
201004270215 METAR LIRA 270215Z 16005KT 130V210 9999 SCT025 SCT060 16/14
                        Q1018=
201004270145 METAR LIRA 270145Z 19003KT 9999 SCT025 SCT060 16/14 Q1018=
201004270115 METAR LIRA 270115Z 19005KT 9999 SCT025 SCT060 16/13 Q1018=
201004270045 METAR LIRA 270045Z 19004KT 9999 SCT030 SCT060 17/13 Q1018=
201004270015 METAR LIRA 270015Z 11002KT 9999 SCT030 SCT060 16/15 Q1018=
201004262350 METAR LIRA 270045Z 19004KT 9999 SCT030 SCT060 17/13 Q1018=
201004262345 METAR LIRA 262345Z 10003KT 9999 SCT030 SCT060 16/15 Q1018=
201004262315 METAR LIRA 262315Z 10004KT 9999 SCT030 SCT060 16/15 Q1018=
201004262245 METAR LIRA 262245Z 11003KT 9999 -RA BKN030 SCT060 16/15 Q1018=
201004262215 METAR LIRA 262215Z 09003KT 9999 -RA BKN030 SCT060 17/15 Q1019=
201004262145 METAR LIRA 262145Z 10003KT 9999 SCT025 SCT060 16/13 Q1019=
201004262115 METAR LIRA 262115Z 13002KT 9999 SCT025 SCT060 16/13 Q1019=
201004262045 METAR LIRA 262045Z 11002KT 9999 SCT025 SCT060 16/13 Q1019=
201004262015 METAR LIRA 262015Z 12003KT 9999 FEW025 SCT060 17/13 Q1019=
201004261945 METAR LIRA 261945Z 15003KT 9999 FEW025 SCT060 17/13 Q1019=
201004261915 METAR LIRA 261915Z 19003KT 9999 FEW060 18/13 Q1018=
201004261845 METAR LIRA 261845Z 21003KT 9999 FEW070 18/13 Q1018=
201004261815 METAR LIRA 261815Z 21004KT 9999 FEW020 18/14 Q1018=
201004261745 METAR LIRA 261745Z 22005KT 9999 FEW020 20/15 Q1018=
201004261715 METAR LIRA 261715Z 22004KT 9999 FEW020 SCT070 20/14 Q1018=
201004261645 METAR LIRA 261645Z 21005KT 180V250 9999 FEW020 SCT060 21/14
                        Q1018=
201004261615 METAR LIRA 261615Z 23006KT 190V260 9999 FEW020TCU SCT060
                        21/14 Q1018=
201004261545 METAR LIRA 261545Z 22005KT 180V270 9999 FEW020 FEW022TCU
                        22/14 Q1018=
201004261515 METAR LIRA 261515Z 22005KT 170V280 9999 FEW020 FEW022TCU
                        SCT030 23/15 Q1018=
201004261445 METAR LIRA 261445Z 22005KT 9999 FEW020 FEW022TCU SCT030 23/15
                        Q1018=
201004261415 METAR LIRA 261415Z 24005KT 180V280 9999 FEW020 FEW022TCU
                        SCT030 23/15 Q1018=
201004261345 METAR LIRA 261345Z 21004KT 180V270 9999 FEW020 FEW022TCU
                        SCT030 23/15 Q1018=
201004261315 METAR LIRA 261315Z 23006KT 190V280 9999 FEW020 FEW022TCU
                        SCT030 22/15 Q1018=
201004261245 METAR LIRA 261245Z 23005KT 180V270 9999 FEW020 FEW022TCU
                        SCT027 21/15 Q1018=
201004261215 METAR LIRA 261215Z 22004KT 180V250 9999 FEW020 FEW022TCU
                        SCT027 22/14 Q1019=
201004261145 METAR LIRA 261145Z 21004KT 9999 FEW020 FEW022TCU SCT025 22/13
                        Q1019=
201004261115 METAR LIRA 261115Z 19005KT 150V220 9999 FEW020 FEW022TCU
                        SCT025 22/13 Q1019=
201004261045 METAR LIRA 261045Z 21004KT 9999 FEW023 SCT025 22/14 Q1019=
201004261015 METAR LIRA 261015Z 22003KT 9999 FEW023 22/14 Q1019=
201004260945 METAR LIRA 260945Z 02003KT 9999 FEW023 22/13 Q1019=
201004260915 METAR LIRA 260915Z 02002KT 9999 FEW023 21/13 Q1019=
201004260845 METAR LIRA 260845Z 34002KT 9999 FEW023 19/14 Q1019=
201004260815 METAR LIRA 260815Z 02003KT 9999 FEW023 18/13 Q1019=
201004260745 METAR LIRA 260745Z 36005KT 320V050 9999 FEW025 18/12 Q1019=
201004260715 METAR LIRA 260715Z 03004KT CAVOK 17/12 Q1019=
201004260645 METAR LIRA 260645Z 02004KT CAVOK 15/12 Q1019=
201004260615 METAR LIRA 260615Z 02003KT CAVOK 14/12 Q1019=
201004260545 METAR LIRA 260545Z 02003KT CAVOK 13/11 Q1019=
201004260515 METAR LIRA 260515Z 03003KT CAVOK 12/11 Q1018=
201004260445 METAR LIRA 260445Z 04004KT 9999 FEW080 12/11 Q1018=
201004260415 METAR LIRA 260415Z 05004KT 9999 FEW080 12/11 Q1018=
201004260345 METAR LIRA 260345Z 02003KT CAVOK 12/11 Q1018=
201004260315 METAR LIRA 260315Z 01001KT CAVOK 12/11 Q1018=
201004260245 METAR LIRA 260245Z 36003KT CAVOK 13/11 Q1018=
201004260215 METAR LIRA 260215Z 01002KT CAVOK 13/11 Q1018=
201004260145 METAR LIRA 260145Z 00000KT CAVOK 13/11 Q1018=
201004260115 METAR LIRA 260115Z 07002KT CAVOK 13/12 Q1018=
201004260045 METAR LIRA 260045Z 03003KT CAVOK 13/12 Q1018=
201004260015 METAR LIRA 260015Z 03003KT CAVOK 14/12 Q1018=
201004252350 METAR LIRA 260045Z 03003KT CAVOK 13/12 Q1018=
201004252345 METAR LIRA 252345Z 02003KT CAVOK 14/12 Q1018=
201004252315 METAR LIRA 252315Z 02002KT CAVOK 14/12 Q1018=
201004252245 METAR LIRA 252245Z 04002KT CAVOK 14/12 Q1018=
201004252215 METAR LIRA 252215Z 32001KT CAVOK 15/12 Q1019=
201004252145 METAR LIRA 252145Z 00000KT CAVOK 15/13 Q1019=
201004252115 METAR LIRA 252115Z 12001KT CAVOK 15/13 Q1019=
201004252045 METAR LIRA 252045Z 15001KT 9999 FEW070 16/13 Q1019=
201004252015 METAR LIRA 252015Z 14003KT 9999 FEW070 16/13 Q1018=
201004251945 METAR LIRA 251945Z 17002KT 9999 FEW070 17/13 Q1018=
201004251915 METAR LIRA 251915Z 17004KT 9999 FEW070 17/13 Q1018=
201004251845 METAR LIRA 251845Z 19004KT 9999 FEW035 SCT070 17/12 Q1018=
201004251815 METAR LIRA 251815Z 18004KT 9999 FEW035 SCT070 18/12 Q1018=
201004251745 METAR LIRA 251745Z 20004KT 160V230 9999 FEW035 SCT070 18/12
                        Q1018=
201004251715 METAR LIRA 251715Z 22005KT 180V260 9999 FEW020 SCT060 19/12
                        Q1019=
201004251645 METAR LIRA 251645Z 23007KT 200V300 9999 FEW020 SCT060 20/12
                        Q1019=
201004251615 METAR LIRA 251615Z 25007KT 200V310 9999 FEW020 20/13 Q1018=
201004251545 METAR LIRA 251545Z 24007KT 200V300 9999 FEW020 21/12 Q1018=
201004251515 METAR LIRA 251515Z 25005KT 210V310 9999 FEW020 21/11 Q1018=
201004251445 METAR LIRA 251445Z 25008KT 210V320 9999 FEW020 22/09 Q1018=
201004251415 METAR LIRA 251415Z 26009KT 220V320 9999 FEW020 22/10 Q1018=
201004251345 METAR LIRA 251345Z 26007KT 210V330 9999 FEW022 23/10 Q1019=
201004251315 METAR LIRA 251315Z 23009KT 190V290 9999 FEW022 23/12 Q1019=
201004251245 METAR LIRA 251245Z 26008KT 210V330 9999 FEW022 23/10 Q1019=
201004251215 METAR LIRA 251215Z 26006KT 210V340 9999 FEW022 23/09 Q1019=
201004251145 METAR LIRA 251145Z 32004KT 270V360 9999 FEW022 22/08 Q1019=
201004251115 METAR LIRA 251115Z 26004KT 9999 FEW022 22/10 Q1019=
201004251045 METAR LIRA 251045Z 28004KT 9999 FEW022 21/11 Q1019=
201004251015 METAR LIRA 251015Z 31004KT 260V360 9999 FEW022 20/11 Q1019=
201004250945 METAR LIRA 250945Z 34005KT 310V030 9999 FEW022 20/12 Q1019=
201004250915 METAR LIRA 250915Z 02005KT 300V060 CAVOK 19/12 Q1019=
201004250845 METAR LIRA 250845Z 35006KT 330V070 CAVOK 18/12 Q1019=
201004250815 METAR LIRA 250815Z 04006KT 360V090 CAVOK 16/12 Q1019=
201004250745 METAR LIRA 250745Z 01006KT 330V060 CAVOK 15/12 Q1018=
201004250715 METAR LIRA 250715Z 03006KT 360V090 CAVOK 14/11 Q1018=
201004250645 METAR LIRA 250645Z 03007KT 340V080 9999 FEW080 13/12 Q1018=
201004250615 METAR LIRA 250615Z 04005KT 350V080 9999 FEW035 12/11 Q1018=
201004250545 METAR LIRA 250545Z 05006KT 360V080 9999 FEW035 11/10 Q1017=
201004250515 METAR LIRA 250515Z 02005KT 360V080 9999 FEW035 11/10 Q1017=
201004250445 METAR LIRA 250445Z 02004KT 9999 FEW040 11/10 Q1017=
201004250415 METAR LIRA 250415Z 04004KT 9999 FEW040 11/10 Q1017=
201004250345 METAR LIRA 250345Z 04004KT 9999 FEW030 SCT070 12/11 Q1016=
201004250315 METAR LIRA 250315Z 03004KT 9999 FEW030 SCT070 12/11 Q1016=
201004250245 METAR LIRA 250245Z 02003KT 9999 SCT070 12/11 Q1016=
201004250215 METAR LIRA 250215Z 36004KT 9999 SCT070 12/11 Q1016=
201004250145 METAR LIRA 250145Z 03003KT 9999 FEW020 SCT070 12/11 Q1016=
201004250115 METAR LIRA 250115Z 04003KT 9999 FEW020 SCT070 13/12 Q1016=
201004250045 METAR LIRA 250045Z 05004KT 9999 FEW020 SCT070 13/12 Q1016=
201004250015 METAR LIRA 250015Z 25001KT 9999 FEW020 SCT070 13/12 Q1016=
201004242350 METAR LIRA 250045Z 05004KT 9999 FEW020 SCT070 13/12 Q1016=
201004242345 METAR LIRA 242345Z 11001KT 9999 FEW020 SCT070 14/13 Q1016=
201004242315 METAR LIRA 242315Z 36001KT 9999 FEW020 SCT070 14/13 Q1016=
201004242245 METAR LIRA 242245Z 23003KT 9999 FEW020 SCT070 15/14 Q1015=
201004242215 METAR LIRA 242215Z 28002KT 9999 FEW020 SCT070 15/14 Q1015=
201004242145 METAR LIRA 242145Z 03001KT 9999 FEW018 SCT070 16/15 Q1015=
201004242115 METAR LIRA 242115Z 00000KT 9999 FEW018 SCT070 16/15 Q1015=
201004242045 METAR LIRA 242045Z 01002KT 9999 FEW018 SCT070 16/15 Q1015=
201004242015 METAR LIRA 242015Z 03002KT 9999 FEW015 BKN030 16/15 Q1015=
201004241945 METAR LIRA 241945Z 06001KT 9999 FEW015 BKN030 17/15 Q1015=
201004241915 METAR LIRA 241915Z 06002KT 9999 FEW015 BKN030 17/14 Q1014=
201004241845 METAR LIRA 241845Z 02002KT 9999 FEW015 SCT030 BKN070 16/14
                        Q1014=
201004241815 METAR LIRA 241815Z 02003KT 9999 FEW015 SCT030 BKN070 16/13
                        Q1013=
201004241745 METAR LIRA 241745Z 36003KT 9999 FEW015 SCT070 18/14 Q1013=
201004241715 METAR LIRA 241715Z 35003KT 9999 FEW015 SCT070 18/15 Q1013=
201004241645 METAR LIRA 241645Z 36003KT 9999 FEW017 BKN070 18/14 Q1013=
201004241615 METAR COR LIRA 241615Z 36004KT 9999 FEW017 SCT080 18/14 Q1013=
201004241545 METAR LIRA 241545Z 01004KT 350V120 9999 FEW017 SCT080 18/14
                        Q1013=
201004241515 METAR LIRA 241515Z 01003KT 9999 FEW017 SCT080 17/13 Q1013=
201004241445 METAR LIRA 241445Z 36005KT 320V020 9999 FEW017 SCT080 17/14
                        Q1013=
201004241415 METAR LIRA 241415Z 01005KT 310V050 9999 FEW018 SCT040 16/13
                        Q1013=
201004241345 METAR LIRA 241345Z 04006KT 350V090 9999 -RA FEW018 SCT040
                        16/13 Q1013=
201004241315 METAR LIRA 241315Z 03006KT 330V080 8000 -RA SCT018 BKN040
                        15/13 Q1013=
201004241245 METAR LIRA 241245Z 05007KT 360V100 8000 -RA SCT018 BKN040
                        15/13 Q1013=
201004241215 METAR LIRA 241215Z 03003KT 340V080 8000 -RA SCT018 BKN040
                        16/13 Q1013=
201004241145 METAR LIRA 241145Z 04006KT 360V090 8000 -RA SCT018 BKN035
                        16/15 Q1013=
201004241115 METAR LIRA 241115Z 04005KT 360V080 7000 -RA SCT017 BKN035
                        16/15 Q1013=
201004241045 METAR LIRA 241045Z 03005KT 340V080 7000 -RA FEW010 BKN035
                        16/15 Q1013=
201004241015 METAR LIRA 241015Z 03003KT 7000 -RA FEW010 BKN035 16/15 Q1013=
201004240945 METAR LIRA 240945Z 32003KT 7000 -RA FEW010 BKN035 15/14 Q1013=
201004240915 METAR LIRA 240915Z 35003KT 7000 -RA FEW010 SCT017 BKN035
                        15/14 Q1013=
201004240845 METAR LIRA 240845Z 34004KT 6000 -RA FEW010 SCT017 BKN030
                        15/14 Q1012=
201004240815 METAR LIRA 240815Z 06002KT 7000 FEW010 SCT017 BKN030 15/14
                        Q1012=
201004240745 METAR LIRA 240745Z 07003KT 7000 -RA FEW010 BKN030 15/14 Q1012=
201004240715 METAR LIRA 240715Z 05006KT 010V100 6000 -RA FEW010 BKN030
                        14/14 Q1012=
201004240645 METAR LIRA 240645Z 05005KT 020V100 6000 -RA FEW010 BKN025
                        14/13 Q1012=
201004240615 METAR LIRA 240615Z 32004KT 5000 -RA BR FEW010 SCT016 BKN025
                        14/13 Q1011=
201004240545 METAR LIRA 240545Z 34002KT 5000 -RA BR FEW007 SCT016 BKN025
                        14/13 Q1011=
201004240515 METAR LIRA 240515Z 32001KT 5000 -RA BR FEW007 SCT015 BKN025
                        14/13 Q1011=
201004240445 METAR LIRA 240445Z 21004KT 5000 -RA BR FEW012 SCT015 BKN025
                        14/13 Q1011=
201004240415 METAR LIRA 240415Z 21004KT 6000 -RA SCT015 FEW016CB BKN025
                        14/13 Q1010=
201004240345 METAR LIRA 240345Z 05004KT 060V160 9999 -RA SCT015 BKN025
                        14/13 Q1010=
201004240315 METAR LIRA 240315Z 05005KT 010V100 9999 -RA SCT015 BKN025
                        14/13 Q1010=
201004240245 METAR LIRA 240245Z 03005KT 9999 -RA SCT015 BKN025 14/13 Q1010=
201004240215 METAR LIRA 240215Z 06004KT 9999 -RA SCT015 BKN025 14/13 Q1010=
201004240145 METAR LIRA 240145Z 02003KT 9999 -RA SCT015 BKN025 14/13 Q1010=
201004240115 METAR LIRA 240115Z 34003KT 9999 -RA SCT015 BKN025 14/13 Q1010=
201004240045 METAR LIRA 240045Z 12009KT 9999 -RA SCT015 BKN025 15/12 Q1010=
201004240015 METAR LIRA 240015Z 36003KT 9999 SCT015 BKN025 14/13 Q1010=
201004232350 METAR LIRA 240045Z 12009KT 9999 -RA SCT015 BKN025 15/12 Q1010=
201004232345 METAR LIRA 232345Z 33002KT 9999 -RA SCT015 BKN025 14/13 Q1010=
201004232315 METAR LIRA 232315Z 31005KT 9999 -RA SCT015 BKN025 14/13 Q1010=
201004232245 METAR LIRA 232245Z 27004KT 9999 SCT015 BKN025 15/13 Q1010=
201004232215 METAR LIRA 232215Z 35003KT 9999 SCT015 BKN025 14/13 Q1010=
201004232145 METAR LIRA 232145Z 34006KT 290V150 9999 -RA SCT015 BKN025
                        14/13 Q1010=
201004232115 METAR LIRA 232115Z 07004KT 020V110 9999 -RA SCT015 BKN025
                        14/13 Q1010=
201004232045 METAR LIRA 232045Z 13008KT 9999 -RA SCT015 FEW017CB SCT025
                        14/13 Q1010=
201004232015 METAR LIRA 232015Z 14009KT 100V210 9999 -RA SCT015 FEW017CB
                        SCT025 14/13 Q1010=
201004231945 METAR LIRA 231945Z 17006KT 120V210 9999 -RA SCT015 FEW017CB
                        SCT025 15/13 Q1010=
201004231915 METAR LIRA 231915Z 15006KT 9999 -RA SCT015 FEW017CB SCT030
                        15/13 Q1009=
201004231845 METAR LIRA 231845Z 16005KT 130V190 9999 -DZ SCT015 FEW017CB
                        SCT030 16/13 Q1010=
201004231815 METAR LIRA 231815Z 13007KT 100V170 9999 -DZ SCT015 FEW017CB
                        SCT030 16/13 Q1010=
201004231745 METAR LIRA 231745Z 10003KT 9999 -DZ SCT015 FEW017CB SCT030
                        16/13 Q1010=
201004231715 METAR LIRA 231715Z 27002KT 9999 -DZ FEW015 SCT030 BKN070
                        15/14 Q1009=
201004231645 METAR LIRA 231645Z 35003KT 9999 -DZ FEW015 BKN030 16/14 Q1009=
201004231615 METAR LIRA 231615Z 11004KT 9999 FEW015 BKN030 17/12 Q1009=
201004231545 METAR LIRA 231545Z 11010KT 070V170 9999 FEW015 BKN070 16/12
                        Q1009=
201004231515 METAR LIRA 231515Z 13013KT 080V160 9999 FEW015 BKN070 16/13
                        Q1009=
201004231445 METAR LIRA 231445Z 13014KT 090V170 9999 FEW015 BKN070 16/13
                        Q1009=
201004231415 METAR LIRA 231415Z /////KT 9999 FEW015 BKN070 17/14 Q1009=
201004231345 METAR LIRA 231345Z /////KT 9999 FEW015 BKN070 17/13 Q1009=
201004231315 METAR LIRA 231315Z /////KT 9999 FEW015 BKN070 17/13 Q1009=
201004231245 METAR LIRA 231245Z /////KT 9999 FEW015 BKN070 17/13 Q1009=
201004231215 METAR LIRA 231215Z /////KT 9999 -RA FEW015 BKN070 17/13 Q1009=
201004231145 METAR LIRA 231145Z /////KT 9999 -RA FEW015 BKN070 17/13 Q1009=
201004231115 METAR LIRA 231115Z /////KT 9999 FEW015 BKN070 17/11 Q1009=
201004231045 METAR LIRA 231045Z /////KT 9999 FEW015 BKN070 19/12 Q1009=
201004231015 METAR LIRA 231015Z /////KT 9999 FEW015 BKN070 17/14 Q1009=
201004230945 METAR LIRA 230945Z /////KT 9999 FEW015 SCT030 BKN070 15/14
                        Q1009=
201004230915 METAR LIRA 230915Z /////KT 9999 -RA FEW015 BKN030 15/14 Q1010=
201004230845 METAR LIRA 230845Z /////KT 6000 -RA FEW012 BKN030 14/13 Q1010=
201004230815 METAR LIRA 230815Z /////KT 9000 -RA FEW020 SCT035 BKN070
                        14/14 Q1009=
201004230745 METAR LIRA 230745Z /////KT 9000 -RA FEW020 SCT035 BKN070
                        13/12 Q1009=
201004230715 METAR LIRA 230715Z /////KT 8000 -RA FEW020 SCT030 BKN070
                        12/12 Q1010=
201004230645 METAR LIRA 230645Z /////KT 7000 -RA FEW020 BKN030 12/11 Q1010=
201004230615 METAR LIRA 230615Z /////KT 7000 -RA FEW020 BKN030 12/11 Q1010=
201004230545 METAR LIRA 230545Z /////KT 7000 -RA FEW020 BKN030 12/11 Q1010=
201004230515 METAR LIRA 230515Z /////KT 7000 -RA FEW020 BKN030 12/11 Q1010=
201004230445 METAR LIRA 230445Z /////KT 6000 -RA FEW009 BKN025 11/11 Q1009=
201004230415 METAR LIRA 230415Z /////KT 9999 -RA FEW015 SCT030 BKN070
                        11/10 Q1009=
201004230345 METAR LIRA 230345Z /////KT 9999 -RA SCT035 SCT070 11/11 Q1009=
201004230315 METAR LIRA 230315Z /////KT 9999 -RA SCT035 SCT070 11/10 Q1009=
201004230245 METAR LIRA 230245Z /////KT 9999 -RA FEW020 BKN030 11/10 Q1010=
201004230215 METAR LIRA 230215Z /////KT 9999 -RA BKN030 SCT070 12/11 Q1010=
201004230145 METAR LIRA 230145Z /////KT 9999 -RA BKN030 SCT060 12/10 Q1010=
201004230115 METAR LIRA 230115Z /////KT 9999 -RA SCT030 SCT070 12/11 Q1011=
201004230045 METAR LIRA 230045Z /////KT 9999 -RA BKN030 SCT060 12/11 Q1011=
201004230015 METAR LIRA 230015Z /////KT 9999 -RA BKN030 SCT060 12/11 Q1012=
201004222350 METAR LIRA 230045Z /////KT 9999 -RA BKN030 SCT060 12/11 Q1011=
201004222345 METAR LIRA 222345Z /////KT 9999 -RA BKN030 SCT070 13/11 Q1012=
201004222315 METAR LIRA 222315Z /////KT 9999 -RA SCT030 BKN070 14/09 Q1013=
201004222245 METAR LIRA 222245Z /////KT 9999 -RA SCT030 BKN070 14/07 Q1013=
201004222215 METAR LIRA 222215Z /////KT 9999 -RA BKN030 SCT060 14/10 Q1013=
201004222145 METAR LIRA 222145Z /////KT 9999 -RA BKN030 SCT060 14/09 Q1013=
201004222115 METAR LIRA 222115Z /////KT 9999 -RA BKN030 SCT060 13/09 Q1013=
201004222045 METAR LIRA 222045Z /////KT 9999 -RA BKN030 SCT060 13/10 Q1013=
201004222015 METAR LIRA 222015Z /////KT 9999 -RA BKN030 SCT060 14/10 Q1013=
201004221945 METAR LIRA 221945Z /////KT 9999 -RA FEW020 SCT030 BKN060
                        15/11 Q1013=
201004221915 METAR LIRA 221915Z /////KT 9999 -RA FEW022 SCT030 BKN060
                        16/10 Q1012=
201004221845 METAR LIRA 221845Z /////KT 9999 -RA FEW022 SCT030 BKN060
                        17/07 Q1012=
201004221815 METAR LIRA 221815Z /////KT 9999 FEW022 SCT030 17/06 Q1012=
201004221745 METAR LIRA 221745Z /////KT 9999 FEW022 SCT030 18/05 Q1012=
201004221715 METAR LIRA 221715Z /////KT 9999 FEW025 SCT035 18/06 Q1012=
201004221645 METAR LIRA 221645Z /////KT 9999 FEW020 SCT035 19/05 Q1012=
201004221615 METAR LIRA 221615Z /////KT 9999 FEW020 SCT035 19/04 Q1012=
201004221545 METAR LIRA 221545Z /////KT 9999 FEW022 BKN200 21/05 Q1012=
201004221515 METAR LIRA 221515Z /////KT 9999 FEW022 BKN200 21/06 Q1012=
201004221445 METAR LIRA 221445Z /////KT 9999 FEW022 BKN200 21/06 Q1012=
201004221415 METAR LIRA 221415Z /////KT 9999 FEW022 BKN200 20/06 Q1012=
201004221345 METAR LIRA 221345Z /////KT 9999 FEW022 BKN200 21/06 Q1013=
201004221315 METAR LIRA 221315Z /////KT 9999 FEW022 SCT200 22/06 Q1013=
201004221245 METAR LIRA 221245Z /////KT 9999 FEW022 22/07 Q1013=
201004221215 METAR LIRA 221215Z /////KT 9999 FEW022 22/08 Q1014=
201004221145 METAR LIRA 221145Z /////KT 9999 FEW022 22/07 Q1014=
201004221115 METAR LIRA 221115Z /////KT CAVOK 22/07 Q1014=
201004221045 METAR LIRA 221045Z /////KT CAVOK 21/08 Q1015=
201004221015 METAR LIRA 221015Z /////KT CAVOK 20/07 Q1015=
201004220945 METAR LIRA 220945Z /////KT CAVOK 20/09 Q1015=
201004220915 METAR LIRA 220915Z /////KT CAVOK 19/09 Q1015=
201004220845 METAR LIRA 220845Z /////KT CAVOK 18/10 Q1015=
201004220815 METAR LIRA 220815Z /////KT CAVOK 16/12 Q1015=
201004220745 METAR LIRA 220745Z /////KT CAVOK 15/11 Q1015=
201004220715 METAR LIRA 220715Z /////KT 8000 NSC 13/10 Q1015=
201004220645 METAR LIRA 220645Z /////KT CAVOK 12/10 Q1015=
201004220615 METAR LIRA 220615Z /////KT CAVOK 11/10 Q1015=
201004220545 METAR LIRA 220545Z /////KT CAVOK 09/08 Q1015=
201004220515 METAR LIRA 220515Z /////KT CAVOK 08/07 Q1015=
201004220445 METAR LIRA 220445Z /////KT CAVOK 07/07 Q1015=
201004220415 METAR LIRA 220415Z /////KT CAVOK 08/07 Q1014=
201004220345 METAR LIRA 220345Z /////KT CAVOK 08/07 Q1015=
201004220315 METAR LIRA 220315Z /////KT CAVOK 08/07 Q1015=
201004220245 METAR LIRA 220245Z /////KT CAVOK 08/07 Q1015=
201004220215 METAR LIRA 220215Z /////KT CAVOK 08/08 Q1015=
201004220145 METAR LIRA 220145Z /////KT CAVOK 09/08 Q1015=
201004220115 METAR LIRA 220115Z /////KT CAVOK 09/08 Q1015=
201004220045 METAR LIRA 220045Z /////KT CAVOK 10/08 Q1016=
201004220015 METAR LIRA 220015Z /////KT CAVOK 10/08 Q1016=
201004212350 METAR LIRA 220045Z /////KT CAVOK 10/08 Q1016=
201004212345 METAR LIRA 212345Z /////KT CAVOK 10/08 Q1016=
201004212315 METAR LIRA 212315Z /////KT CAVOK 11/08 Q1016=
201004212245 METAR LIRA 212245Z /////KT CAVOK 11/08 Q1016=
201004212215 METAR LIRA 212215Z /////KT CAVOK 12/08 Q1016=
201004212145 METAR LIRA 212145Z /////KT CAVOK 12/08 Q1016=
201004212115 METAR LIRA 212115Z /////KT CAVOK 12/09 Q1016=
201004212045 METAR LIRA 212045Z /////KT CAVOK 12/10 Q1016=
201004212015 METAR LIRA 212015Z /////KT CAVOK 13/11 Q1016=
201004211945 METAR LIRA 211945Z /////KT CAVOK 13/11 Q1016=
201004211915 METAR LIRA 211915Z /////KT CAVOK 14/11 Q1016=
201004211845 METAR LIRA 211845Z /////KT CAVOK 15/11 Q1016=
201004211815 METAR LIRA 211815Z /////KT CAVOK 15/12 Q1016=
201004211745 METAR LIRA 211745Z /////KT 9999 FEW070 16/12 Q1016=
201004211715 METAR LIRA 211715Z /////KT CAVOK 16/12 Q1016=
201004211645 METAR LIRA 211645Z /////KT CAVOK 16/11 Q1016=
201004211615 METAR LIRA 211615Z /////KT 9999 FEW020 17/12 Q1016=
201004211545 METAR LIRA 211545Z /////KT CAVOK 18/12 Q1016=
201004211515 METAR LIRA 211515Z /////KT CAVOK 18/12 Q1017=
201004211445 METAR LIRA 211445Z /////KT 9999 FEW018 18/12 Q1017=
201004211415 METAR LIRA 211415Z /////KT 9999 FEW018 18/11 Q1017=
201004211345 METAR LIRA 211345Z /////KT 9999 FEW018 19/11 Q1017=
201004211315 METAR LIRA 211315Z /////KT 9999 FEW018 20/13 Q1017=
201004211245 METAR LIRA 211245Z /////KT 9999 FEW018 20/12 Q1017=
201004211215 METAR LIRA 211215Z /////KT 9999 FEW018 20/13 Q1017=
201004211145 METAR LIRA 211145Z /////KT 9999 FEW018 20/13 Q1017=
201004211115 METAR LIRA 211115Z /////KT 9999 FEW015 19/14 Q1017=
201004211045 METAR LIRA 211045Z /////KT 9999 FEW015 19/14 Q1017=
201004211015 METAR LIRA 211015Z /////KT 9999 SCT015 19/15 Q1017=
201004210945 METAR LIRA 210945Z /////KT 9999 SCT015 19/14 Q1018=
201004210915 METAR LIRA 210915Z /////KT 9999 SCT014 18/13 Q1017=
201004210845 METAR LIRA 210845Z /////KT 9999 SCT014 17/12 Q1017=
201004210815 METAR LIRA 210815Z /////KT 9000 SCT013 16/13 Q1017=
201004210745 METAR LIRA 210745Z /////KT 8000 FEW010 SCT030 15/12 Q1017=
201004210715 METAR LIRA 210715Z /////KT 7000 SCT010 15/13 Q1017=
201004210645 METAR LIRA 210645Z /////KT 6000 FEW010 SCT030 14/13 Q1017=
201004210615 METAR LIRA 210615Z /////KT 5000 BR FEW010 SCT070 13/12 Q1017=
201004210545 METAR LIRA 210545Z /////KT 3000 BR OVC002 12/11 Q1016=
201004210515 METAR LIRA 210515Z /////KT 0200 R15//// FG OVC001 12/11 Q1016=
201004210445 METAR LIRA 210445Z /////KT 0800 R15//// FG OVC001 12/11 Q1016=
201004210415 METAR LIRA 210415Z /////KT 0800 R15//// FG OVC001 12/11 Q1016=
201004210345 METAR LIRA 210345Z /////KT 1500 BR BKN002 12/11 Q1016=
201004210315 METAR LIRA 210315Z /////KT 2500 BR BKN004 12/11 Q1016=
201004210245 METAR LIRA 210245Z /////KT 3000 BR BKN005 12/11 Q1016=
201004210215 METAR LIRA 210215Z /////KT 6000 SCT010 12/11 Q1016=
201004210145 METAR LIRA 210145Z /////KT 7000 SCT011 12/11 Q1017=
201004210115 METAR LIRA 210115Z /////KT 7000 SCT011 12/12 Q1017=
201004210045 METAR LIRA 210045Z /////KT 6000 SCT011 12/11 Q1017=
201004210015 METAR LIRA 210015Z /////KT 9999 FEW012 12/11 Q1017=
201004202350 METAR LIRA 210045Z /////KT 6000 SCT011 12/11 Q1017=
201004202345 METAR LIRA 202345Z /////KT CAVOK 12/11 Q1017=
201004202315 METAR LIRA 202315Z /////KT CAVOK 12/11 Q1017=
201004202245 METAR LIRA 202245Z /////KT CAVOK 12/11 Q1017=
201004202215 METAR LIRA 202215Z /////KT CAVOK 13/11 Q1017=
201004202145 METAR LIRA 202145Z /////KT CAVOK 13/11 Q1017=
201004202115 METAR LIRA 202115Z /////KT CAVOK 13/12 Q1017=
201004202045 METAR LIRA 202045Z /////KT CAVOK 14/12 Q1017=
201004202015 METAR LIRA 202015Z /////KT CAVOK 14/12 Q1016=
201004201945 METAR LIRA 201945Z /////KT CAVOK 14/12 Q1016=
201004201915 METAR LIRA 201915Z /////KT CAVOK 15/12 Q1016=
201004201845 METAR LIRA 201845Z /////KT CAVOK 15/11 Q1016=
201004201815 METAR LIRA 201815Z /////KT 9999 FEW020 16/10 Q1015=
201004201745 METAR LIRA 201745Z /////KT 9999 FEW020 18/09 Q1015=
201004201715 METAR LIRA 201715Z /////KT 9999 FEW020 19/08 Q1015=
201004201645 METAR LIRA 201645Z /////KT 9999 FEW020 FEW022TCU 19/09 Q1015=
201004201615 METAR LIRA 201615Z /////KT 9999 FEW020 FEW022TCU 20/08 Q1014=
201004201545 METAR LIRA 201545Z /////KT 9999 FEW020 FEW022CB 20/09 Q1014=
201004201515 METAR LIRA 201515Z /////KT 9999 FEW020CB FEW022TCU 20/09
                        Q1014=
201004201445 METAR LIRA 201445Z /////KT 9999 FEW020CB FEW022TCU 20/10
                        Q1015=
201004201415 METAR LIRA 201415Z /////KT 9999 FEW020CB FEW022TCU 21/10
                        Q1015=
201004201345 METAR LIRA 201345Z /////KT 9999 SCT020 21/09 Q1015=
201004201315 METAR LIRA 201315Z /////KT 9999 SCT020 21/10 Q1015=
201004201245 METAR LIRA 201245Z /////KT 9999 SCT020 21/09 Q1015=
201004201215 METAR LIRA 201215Z /////KT 9999 FEW020 21/07 Q1015=
201004201145 METAR LIRA 201145Z /////KT 9999 FEW020 20/08 Q1015=
201004201115 METAR LIRA 201115Z /////KT 9999 FEW022 20/10 Q1016=
201004201045 METAR LIRA 201045Z /////KT 9999 FEW022 19/10 Q1016=
201004201015 METAR LIRA 201015Z /////KT 9999 FEW022 18/11 Q1016=
201004200945 METAR LIRA 200945Z /////KT 9999 FEW022 17/11 Q1016=
201004200915 METAR LIRA 200915Z /////KT 9999 FEW022 16/11 Q1016=
201004200845 METAR LIRA 200845Z /////KT CAVOK 14/10 Q1016=
201004200815 METAR LIRA 200815Z /////KT CAVOK 14/10 Q1016=
201004200745 METAR LIRA 200745Z /////KT CAVOK 13/09 Q1016=
201004200715 METAR LIRA 200715Z /////KT CAVOK 12/09 Q1016=
201004200645 METAR LIRA 200645Z /////KT CAVOK 11/09 Q1016=
201004200615 METAR LIRA 200615Z /////KT CAVOK 10/09 Q1015=
201004200545 METAR LIRA 200545Z /////KT CAVOK 09/08 Q1015=
201004200515 METAR LIRA 200515Z /////KT CAVOK 08/07 Q1015=
201004200445 METAR LIRA 200445Z /////KT CAVOK 08/07 Q1015=
201004200415 METAR LIRA 200415Z /////KT CAVOK 07/07 Q1014=
201004200345 METAR LIRA 200345Z /////KT 9999 FEW080 07/06 Q1014=
201004200315 METAR LIRA 200315Z /////KT 9999 FEW080 07/07 Q1014=
201004200245 METAR LIRA 200245Z /////KT 9999 FEW080 07/07 Q1014=
201004200215 METAR LIRA 200215Z /////KT 9999 FEW080 08/07 Q1014=
201004200145 METAR LIRA 200145Z /////KT 9999 FEW080 08/08 Q1014=
201004200115 METAR LIRA 200115Z /////KT 9999 FEW080 09/08 Q1014=
201004200045 METAR LIRA 200045Z /////KT 9999 FEW080 09/08 Q1014=
201004200015 METAR LIRA 200015Z /////KT 9999 FEW080 10/08 Q1014=
201004192350 METAR LIRA 200045Z /////KT 9999 FEW080 09/08 Q1014=
201004192345 METAR LIRA 192345Z /////KT 9999 FEW080 10/08 Q1014=
201004192315 METAR LIRA 192315Z /////KT 9999 FEW080 10/09 Q1014=
201004192245 METAR LIRA 192245Z /////KT 9999 FEW080 10/09 Q1014=
201004192215 METAR LIRA 192215Z /////KT 9999 FEW070 11/09 Q1014=
201004192145 METAR LIRA 192145Z /////KT 9999 FEW070 11/09 Q1014=
201004192115 METAR LIRA 192115Z /////KT 9999 FEW018 12/10 Q1014=
201004192045 METAR LIRA 192045Z /////KT 9999 FEW018 12/09 Q1013=
201004192015 METAR LIRA 192015Z /////KT 9999 FEW018 12/09 Q1013=
201004191945 METAR LIRA 191945Z /////KT 9999 FEW018 13/09 Q1013=
201004191915 METAR LIRA 191915Z /////KT 9999 SCT018 FEW020CB 13/11 Q1013=
201004191845 METAR LIRA 191845Z /////KT 9999 SCT018 FEW020CB 14/11 Q1013=
201004191815 METAR LIRA 191815Z /////KT 9999 FEW018 FEW020CB 14/11 Q1012=
201004191745 METAR LIRA 191745Z /////KT 9999 FEW018 FEW020CB 15/11 Q1012=
201004191715 METAR LIRA 191715Z /////KT 9999 FEW018 FEW020CB 16/11 Q1011=
201004191645 METAR LIRA 191645Z /////KT 9999 FEW018 FEW020CB 17/12 Q1011=
201004191615 METAR LIRA 191615Z /////KT 9999 FEW018 FEW020CB 16/12 Q1011
                        RETS=
201004191545 METAR LIRA 191545Z /////KT 9999 FEW018CB 16/13 Q1011 RETS=
201004191515 METAR LIRA 191515Z /////KT 9999 -TSRA FEW015 SCT018CB 16/13
                        Q1011=
201004191445 METAR LIRA 191445Z /////KT 9999 -TSRA FEW017CB SCT018TCU
                        16/12 Q1011=
201004191415 METAR LIRA 191415Z /////KT 9999 -TSRA FEW017CB SCT018TCU
                        19/07 Q1011=
201004191345 METAR LIRA 191345Z /////KT 9999 FEW017CB FEW018TCU 20/08
                        Q1011=
201004191315 METAR LIRA 191315Z /////KT 9999 FEW017CB FEW018TCU 20/07
                        Q1011=
201004191245 METAR LIRA 191245Z /////KT 9999 FEW017TCU SCT018 20/09 Q1011=
201004191215 METAR LIRA 191215Z /////KT 9999 FEW017TCU SCT018 20/10 Q1011=
201004191145 METAR LIRA 191145Z /////KT 9999 FEW017TCU SCT018 20/06 Q1011=
201004191115 METAR LIRA 191115Z /////KT 9999 SCT018 20/07 Q1012=
201004191045 METAR LIRA 191045Z /////KT 9999 FEW020 19/08 Q1012=
201004191015 METAR LIRA 191015Z /////KT 9999 FEW020 18/10 Q1012=
201004190945 METAR LIRA 190945Z /////KT 9000 FEW020 17/10 Q1012=
201004190915 METAR LIRA 190915Z /////KT 9000 FEW020 17/10 Q1012=
201004190845 METAR LIRA 190845Z /////KT 8000 FEW020 16/10 Q1012=
201004190815 METAR LIRA 190815Z /////KT 8000 FEW020 15/10 Q1012=
201004190745 METAR LIRA 190745Z /////KT 7000 FEW070 14/10 Q1012=
201004190715 METAR LIRA 190715Z /////KT 7000 FEW070 13/10 Q1012=
201004190645 METAR LIRA 190645Z /////KT 7000 FEW030 13/10 Q1012=
201004190615 METAR LIRA 190615Z /////KT 7000 FEW030 10/09 Q1012=
201004190545 METAR LIRA 190545Z /////KT 7000 FEW060 09/08 Q1011=
201004190515 METAR LIRA 190515Z /////KT 8000 FEW070 08/07 Q1011=
201004190445 METAR LIRA 190445Z /////KT 9999 FEW070 08/07 Q1011=
201004190415 METAR LIRA 190415Z /////KT 9999 FEW070 08/07 Q1011=
201004190345 METAR LIRA 190345Z /////KT 9999 FEW070 08/07 Q1011=
201004190315 METAR LIRA 190315Z /////KT 9999 FEW070 08/07 Q1012=
201004190245 METAR LIRA 190245Z /////KT 9999 FEW070 08/07 Q1012=
201004190215 METAR LIRA 190215Z /////KT 9999 FEW070 08/07 Q1012=
201004190145 METAR LIRA 190145Z /////KT 9999 FEW070 09/07 Q1012=
201004190115 METAR LIRA 190115Z /////KT 9999 FEW070 09/07 Q1012=
201004190045 METAR LIRA 190045Z /////KT 9999 FEW070 10/08 Q1012=
201004190015 METAR LIRA 190015Z /////KT 9999 FEW070 10/07 Q1012=
201004182350 METAR LIRA 190045Z /////KT 9999 FEW070 10/08 Q1012=
201004182345 METAR LIRA 182345Z /////KT 9999 FEW070 11/06 Q1012=
201004182315 METAR LIRA 182315Z /////KT 9999 FEW030 12/08 Q1012=
201004182245 METAR LIRA 182245Z /////KT 9999 FEW030 SCT070 12/08 Q1012=
201004182215 METAR LIRA 182215Z /////KT 9999 FEW030 SCT070 12/08 Q1012=
201004182145 METAR LIRA 182145Z /////KT 9999 FEW030 12/09 Q1012=
201004182115 METAR LIRA 182115Z /////KT 9999 FEW030 13/09 Q1012=
201004182045 METAR LIRA 182045Z /////KT 9999 FEW010 SCT070 13/10 Q1012=
201004182015 METAR LIRA 182015Z /////KT 9999 FEW070 13/10 Q1012=
201004181945 METAR LIRA 181945Z /////KT 9999 FEW070 14/11 Q1012=
201004181915 METAR LIRA 181915Z /////KT 9999 FEW070 14/10 Q1012=
201004181845 METAR LIRA 181845Z /////KT 9999 FEW030 SCT070 14/10 Q1012=
201004181815 METAR LIRA 181815Z /////KT 9999 FEW030 SCT070 14/11 Q1012=
201004181745 METAR LIRA 181745Z /////KT 9999 FEW030 SCT070 15/11 Q1012=
201004181715 METAR LIRA 181715Z /////KT 9999 FEW025 SCT070 15/12 Q1012=
201004181645 METAR LIRA 181645Z /////KT 9999 FEW015 SCT070 16/12 Q1012=
201004181615 METAR LIRA 181615Z /////KT 9999 FEW015 BKN070 16/13 Q1012=
201004181545 METAR LIRA 181545Z /////KT 9999 FEW015 BKN070 17/13 Q1013=
201004181515 METAR LIRA 181515Z /////KT 9999 FEW015 BKN070 17/13 Q1013=
201004181445 METAR LIRA 181445Z /////KT 9999 FEW015 BKN070 17/13 Q1013=
201004181415 METAR LIRA 181415Z /////KT 9999 FEW015 BKN070 17/13 Q1013=
201004181345 METAR LIRA 181345Z /////KT 9999 SCT015 BKN070 17/13 Q1013=
201004181315 METAR LIRA 181315Z /////KT 9999 SCT015 BKN080 17/13 Q1013=
201004181245 METAR LIRA 181245Z /////KT 9999 SCT015 SCT080 18/11 Q1013=
201004181215 METAR LIRA 181215Z /////KT 9999 SCT015 SCT080 18/12 Q1014=
201004181145 METAR LIRA 181145Z /////KT 9999 SCT015 SCT080 19/12 Q1014=
201004181115 METAR LIRA 181115Z /////KT 9999 SCT015 19/12 Q1014=
201004181100 METAR LIRA INT=
201004181045 METAR LIRA 181045Z /////KT 9999 FEW015 18/12 Q1014=
201004181015 METAR LIRA 181015Z /////KT 9999 FEW015 17/11 Q1015=
201004180945 METAR LIRA 180945Z /////KT 9999 FEW015 17/11 Q1015=
201004180915 METAR LIRA 180915Z /////KT 9999 SCT080 16/11 Q1015=
201004180845 METAR LIRA 180845Z /////KT 8000 FEW015 BKN030 14/10 Q1015=
201004180815 METAR LIRA 180815Z /////KT 8000 FEW015 BKN030 13/10 Q1015=
201004180745 METAR LIRA 180745Z /////KT 8000 FEW015 BKN030 12/10 Q1015=
201004180715 METAR LIRA 180715Z /////KT 8000 FEW015 BKN030 10/10 Q1014=
201004180645 METAR LIRA 180645Z /////KT 8000 FEW015 BKN030 10/09 Q1014=
201004180615 METAR LIRA 180615Z /////KT 8000 FEW015 BKN030 10/09 Q1014=
201004180545 METAR LIRA 180545Z /////KT 8000 FEW015 BKN030 10/09 Q1014=
201004180515 METAR LIRA 180515Z /////KT 8000 FEW015 BKN030 10/09 Q1014=
201004180445 METAR LIRA 180445Z /////KT 9999 FEW015 BKN030 10/09 Q1014=
201004180415 METAR LIRA 180415Z /////KT 9999 FEW015 BKN030 09/08 Q1014=
201004180345 METAR LIRA 180345Z /////KT 9999 FEW030 SCT060 09/07 Q1014=
201004180315 METAR LIRA 180315Z /////KT 9999 FEW030 SCT060 08/07 Q1014=
201004180245 METAR LIRA 180245Z /////KT 9999 SCT070 08/07 Q1014=
201004180215 METAR LIRA 180215Z /////KT 9999 FEW060 08/06 Q1015=
201004180145 METAR LIRA 180145Z /////KT 9999 FEW060 08/07 Q1015=
201004180115 METAR LIRA 180115Z /////KT 9999 FEW080 09/07 Q1015=
201004180045 METAR LIRA 180045Z /////KT 9999 FEW060 09/07 Q1015=
201004180015 METAR LIRA 180015Z /////KT 9999 FEW060 09/08 Q1015=
201004172350 METAR LIRA 180045Z /////KT 9999 FEW060 09/07 Q1015=
201004172345 METAR LIRA 172345Z /////KT 9999 FEW070 10/08 Q1015=
201004172315 METAR LIRA 172315Z /////KT 9999 FEW060 10/08 Q1015=
201004172245 METAR LIRA 172245Z /////KT 9999 SCT060 11/09 Q1015=
201004172215 METAR LIRA 172215Z /////KT 9999 FEW030 SCT060 11/10 Q1015=
201004172145 METAR LIRA 172145Z /////KT 9999 FEW025 SCT060 11/10 Q1015=
201004172115 METAR LIRA 172115Z /////KT 9999 FEW025 SCT060 11/10 Q1015=
201004172045 METAR LIRA 172045Z /////KT 9999 FEW030 SCT060 11/10 Q1015=
201004172015 METAR LIRA 172015Z /////KT 9999 FEW030 SCT070 12/11 Q1015=
201004171945 METAR LIRA 171945Z /////KT 9999 FEW030 SCT060 12/11 Q1014=
201004171915 METAR LIRA 171915Z /////KT 9999 FEW030 SCT070 12/10 Q1014=
201004171845 METAR LIRA 171845Z /////KT 9999 FEW030 SCT070 13/10 Q1014=
201004171815 METAR LIRA 171815Z /////KT 9999 FEW025 SCT070 13/09 Q1013=
201004171745 METAR LIRA 171745Z /////KT 9999 FEW025 SCT080 15/09 Q1013=
201004171715 METAR LIRA 171715Z /////KT 9999 FEW025 15/09 Q1013=
201004171645 METAR LIRA 171645Z /////KT 9999 FEW025 SCT060 15/10 Q1013=
201004171615 METAR LIRA 171615Z /////KT 9999 FEW025 SCT080 16/09 Q1013=
201004171545 METAR LIRA 171545Z /////KT 9999 FEW020 SCT070 16/10 Q1014=
201004171515 METAR LIRA 171515Z /////KT 9999 FEW020 BKN070 16/09 Q1014=
201004171445 METAR LIRA 171445Z /////KT 9999 FEW020 BKN070 16/06 Q1014=
201004171415 METAR LIRA 171415Z /////KT 9999 FEW020 SCT030 BKN070 16/08
                        Q1014=
201004171345 METAR LIRA 171345Z /////KT 9999 FEW020 SCT030 BKN070 16/07
                        Q1014=
201004171315 METAR LIRA 171315Z /////KT 9999 FEW020 SCT030 BKN070 17/08
                        Q1014=
201004171245 METAR LIRA 171245Z /////KT 9999 FEW020 SCT030 BKN070 17/09
                        Q1014=
201004171215 METAR LIRA 171215Z /////KT 9999 FEW020 SCT030 BKN070 16/07
                        Q1014=
201004171145 METAR LIRA 171145Z /////KT 9999 FEW020 SCT030 BKN070 16/09
                        Q1014=
201004171115 METAR LIRA 171115Z /////KT 9999 FEW020 SCT030 BKN070 16/08
                        Q1014=
201004171045 METAR LIRA 171045Z /////KT 9999 SCT030 BKN070 16/09 Q1014=
201004171015 METAR LIRA 171015Z /////KT 8000 SCT033 BKN070 16/12 Q1013=
201004170945 METAR LIRA 170945Z /////KT 8000 SCT033 BKN070 15/11 Q1013=
201004170915 METAR LIRA 170915Z /////KT 8000 SCT033 BKN070 14/11 Q1013=
201004170845 METAR LIRA 170845Z /////KT 8000 SCT033 BKN070 14/10 Q1013=
201004170815 METAR LIRA 170815Z /////KT 9999 SCT033 BKN070 13/10 Q1013=
201004170745 METAR LIRA 170745Z /////KT 9999 SCT033 BKN070 12/09 Q1013=
201004170715 METAR LIRA 170715Z /////KT 9999 SCT033 BKN070 12/09 Q1013=
201004170645 METAR LIRA 170645Z /////KT 9999 SCT033 BKN070 11/09 Q1013=
201004170615 METAR LIRA 170615Z /////KT 9999 SCT033 BKN070 11/09 Q1012=
201004170545 METAR LIRA 170545Z /////KT 9000 SCT033 BKN070 11/09 Q1012=
201004170515 METAR LIRA 170515Z /////KT 9000 SCT040 BKN070 10/08 Q1012=
201004170445 METAR LIRA 170445Z /////KT 9999 FEW040 BKN070 10/08 Q1012=
201004170415 METAR LIRA 170415Z /////KT 9999 FEW040 BKN070 10/08 Q1012=
201004170345 METAR LIRA 170345Z /////KT 9999 BKN070 10/08 Q1012=
201004170315 METAR LIRA 170315Z /////KT 9999 BKN070 10/08 Q1011=
201004170245 METAR LIRA 170245Z /////KT 9999 BKN070 10/08 Q1012=
201004170215 METAR LIRA 170215Z /////KT 9999 BKN080 10/09 Q1012=
201004170145 METAR LIRA 170145Z /////KT 9999 BKN080 10/09 Q1012=
201004170115 METAR LIRA 170115Z /////KT 9999 SCT080 10/09 Q1012=
201004170045 METAR LIRA 170045Z /////KT 9999 FEW080 10/09 Q1012=
201004170015 METAR LIRA 170015Z /////KT CAVOK 10/08 Q1012=
201004162350 METAR LIRA 170045Z /////KT 9999 FEW080 10/09 Q1012=
201004162345 METAR LIRA 162345Z /////KT CAVOK 10/09 Q1012=
201004162315 METAR LIRA 162315Z /////KT 9999 FEW070 11/09 Q1012=
201004162245 METAR LIRA 162245Z /////KT 9999 FEW045 11/09 Q1012=
201004162215 METAR LIRA 162215Z /////KT 9999 FEW030 11/09 Q1012=
201004162145 METAR LIRA 162145Z /////KT 9999 FEW080 11/10 Q1012=
201004162115 METAR LIRA 162115Z /////KT 9999 FEW080 12/10 Q1012=
201004162045 METAR LIRA 162045Z /////KT 9999 SCT080 12/08 Q1012=
201004162015 METAR LIRA 162015Z /////KT 9999 FEW080 13/08 Q1012=
201004161945 METAR LIRA 161945Z /////KT 9999 FEW040 14/09 Q1012=
201004161915 METAR LIRA 161915Z /////KT 9999 FEW040 SCT070 15/09 Q1011=
201004161845 METAR LIRA 161845Z /////KT 9999 FEW020 SCT040 15/08 Q1011=
201004161815 METAR LIRA 161815Z /////KT 9999 FEW020 SCT040 16/08 Q1011=
201004161745 METAR LIRA 161745Z /////KT 9999 FEW020 SCT040 16/07 Q1011=
201004161715 METAR LIRA 161715Z /////KT 9999 FEW018TCU SCT080 18/07 Q1010=
201004161645 METAR LIRA 161645Z /////KT 9999 FEW020 18/06 Q1010=
201004161615 METAR LIRA 161615Z /////KT 9999 FEW020TCU 19/07 Q1010=
201004161545 METAR LIRA 161545Z /////KT 9999 FEW022 20/08 Q1010=
201004161515 METAR LIRA 161515Z /////KT 9999 FEW018 20/08 Q1010=
201004161445 METAR LIRA 161445Z /////KT 9999 FEW018 FEW020TCU 20/08 Q1010=
201004161415 METAR LIRA 161415Z /////KT 9999 SCT020 19/07 Q1010=
201004161345 METAR LIRA 161345Z /////KT 9999 FEW018 FEW020TCU 20/09 Q1010=
201004161315 METAR LIRA 161315Z /////KT 9999 FEW018 FEW020TCU SCT070 20/10
                        Q1011=
201004161245 METAR LIRA 161245Z /////KT 9999 FEW018 FEW020TCU 19/10 Q1011=
201004161215 METAR LIRA 161215Z /////KT 9999 FEW020 FEW022CB SCT070 19/12
                        Q1011=
201004161145 METAR LIRA 161145Z /////KT 9999 FEW020 FEW022CB SCT070 18/11
                        Q1011=
201004161115 METAR COR LIRA 161115Z /////KT 9999 FEW023 FEW025TCU SCT070
                        18/11 Q1011=
201004161045 METAR LIRA 161045Z /////KT 9999 FEW023 BKN070 18/11 Q1011=
201004161015 METAR LIRA 161015Z /////KT 9999 FEW025 BKN070 18/11 Q1010=
201004160945 METAR LIRA 160945Z /////KT 9999 FEW025 BKN070 18/11 Q1010=
201004160915 METAR LIRA 160915Z /////KT 9999 FEW025 SCT070 16/11 Q1010=
201004160845 METAR LIRA 160845Z /////KT 9999 FEW025 BKN070 16/10 Q1010=
201004160815 METAR LIRA 160815Z /////KT 9999 FEW040 SCT070 15/10 Q1010=
201004160745 METAR LIRA 160745Z /////KT 9999 FEW040 SCT070 15/10 Q1010=
201004160715 METAR LIRA 160715Z /////KT 9999 FEW040 SCT080 14/09 Q1009=
201004160645 METAR LIRA 160645Z /////KT 9999 FEW040 SCT080 13/09 Q1009=
201004160615 METAR LIRA 160615Z /////KT 9999 FEW040 SCT070 12/10 Q1009=
201004160545 METAR LIRA 160545Z /////KT 9999 FEW040 SCT070 11/09 Q1009=
201004160515 METAR LIRA 160515Z /////KT 9999 FEW040 SCT070 11/09 Q1009=
201004160445 METAR LIRA 160445Z /////KT 9999 FEW040 BKN070 11/09 Q1009=
201004160415 METAR LIRA 160415Z /////KT 9999 FEW040 BKN070 11/08 Q1009=
201004160345 METAR LIRA 160345Z /////KT 9999 FEW040 SCT070 11/09 Q1010=
201004160315 METAR LIRA 160315Z /////KT 9999 FEW040 SCT070 11/09 Q1010=
201004160245 METAR LIRA 160245Z /////KT 9999 FEW040 SCT070 11/09 Q1010=
201004160215 METAR LIRA 160215Z /////KT 9999 FEW030 SCT070 11/09 Q1010=
201004160145 METAR LIRA 160145Z /////KT 9999 FEW030 SCT070 11/09 Q1010=
201004160115 METAR LIRA 160115Z /////KT 9999 FEW020 SCT070 11/09 Q1010=
201004160045 METAR LIRA 160045Z /////KT 9999 FEW020 SCT070 11/09 Q1010=
201004160015 METAR LIRA 160015Z /////KT 9999 SCT070 11/09 Q1010=
201004152350 METAR LIRA 160045Z /////KT 9999 FEW020 SCT070 11/09 Q1010=
201004152345 METAR LIRA 152345Z /////KT 9999 SCT060 12/08 Q1010=
201004152315 METAR LIRA 152315Z /////KT 9999 SCT060 12/08 Q1010=
201004152245 METAR LIRA 152245Z /////KT 9999 SCT070 11/08 Q1010=
201004152215 METAR LIRA 152215Z /////KT 9999 SCT070 12/08 Q1010=
201004152145 METAR LIRA 152145Z /////KT 9999 SCT070 12/08 Q1010=
201004152115 METAR LIRA 152115Z /////KT 9999 SCT070 12/08 Q1010=
201004152045 METAR LIRA 152045Z /////KT 9999 FEW070 12/08 Q1010=
201004152015 METAR LIRA 152015Z /////KT CAVOK 13/08 Q1010=
201004151945 METAR LIRA 151945Z /////KT CAVOK 13/08 Q1010=
201004151915 METAR LIRA 151915Z /////KT CAVOK 13/08 Q1010=
201004151845 METAR LIRA 151845Z /////KT CAVOK 13/07 Q1010=
201004151815 METAR LIRA 151815Z /////KT CAVOK 14/07 Q1010=
201004151745 METAR LIRA 151745Z /////KT CAVOK 15/07 Q1010=
201004151715 METAR LIRA 151715Z /////KT CAVOK 16/08 Q1010=
201004151645 METAR LIRA 151645Z /////KT 9999 FEW080 16/07 Q1010=
201004151615 METAR LIRA 151615Z /////KT 9999 FEW025 17/07 Q1010=
201004151545 METAR LIRA 151545Z /////KT 9999 FEW025 18/08 Q1010=
201004151515 METAR LIRA 151515Z /////KT 9999 FEW025 18/07 Q1010=
201004151445 METAR LIRA 151445Z /////KT 9999 FEW018 18/08 Q1010=
201004151415 METAR LIRA 151415Z /////KT 9999 FEW018 19/08 Q1010=
201004151345 METAR LIRA 151345Z /////KT 9999 SCT018 19/08 Q1010=
201004151315 METAR LIRA 151315Z /////KT 9999 BKN018 19/09 Q1011=
201004151245 METAR LIRA 151245Z /////KT 9999 SCT018 19/08 Q1011=
201004151215 METAR LIRA 151215Z /////KT 9999 SCT018 19/08 Q1011=
201004151145 METAR LIRA 151145Z /////KT 9999 BKN018 18/07 Q1011=
201004151115 METAR LIRA 151115Z /////KT 9999 SCT020 18/09 Q1011=
201004151045 METAR LIRA 151045Z /////KT 9999 FEW023 BKN080 18/09 Q1011=
201004151015 METAR LIRA 151015Z /////KT 9999 FEW023 SCT070 16/08 Q1011=
201004150945 METAR LIRA 150945Z /////KT 9999 FEW023 SCT070 16/09 Q1011=
201004150915 METAR LIRA 150915Z /////KT 9999 FEW023 BKN070 14/10 Q1011=
201004150845 METAR LIRA 150845Z /////KT 9000 FEW025 BKN060 13/09 Q1011=
201004150815 METAR LIRA 150815Z /////KT 9000 FEW025 BKN060 12/09 Q1011=
201004150745 METAR LIRA 150745Z /////KT 8000 FEW025 BKN060 11/09 Q1011=
201004150715 METAR LIRA 150715Z /////KT 8000 FEW040 BKN060 10/08 Q1011=
201004150645 METAR LIRA 150645Z /////KT 8000 FEW030 BKN070 10/09 Q1011=
201004150615 METAR LIRA 150615Z /////KT 8000 FEW030 BKN070 10/09 Q1011=
201004150545 METAR LIRA 150545Z /////KT 8000 FEW030 BKN070 09/09 Q1011=
201004150515 METAR LIRA 150515Z /////KT 8000 FEW030 BKN080 09/08 Q1011=
201004150445 METAR LIRA 150445Z /////KT 8000 FEW030 BKN080 09/08 Q1011=
201004150415 METAR LIRA 150415Z /////KT 8000 FEW030 SCT070 08/07 Q1011=
201004150345 METAR LIRA 150345Z /////KT 8000 FEW034 SCT070 09/08 Q1011=
201004150315 METAR LIRA 150315Z /////KT 8000 FEW035 09/08 Q1011=
201004150245 METAR LIRA 150245Z /////KT 8000 FEW035 09/07 Q1011=
201004150215 METAR LIRA 150215Z /////KT 8000 FEW035 09/07 Q1011=
201004150145 METAR LIRA 150145Z /////KT 8000 FEW035 09/08 Q1011=
201004150115 METAR LIRA 150115Z /////KT 8000 FEW035 09/08 Q1011=
201004150045 METAR LIRA 150045Z /////KT 9999 FEW070 10/08 Q1012=
201004150015 METAR LIRA 150015Z /////KT 9999 FEW070 10/08 Q1012=
201004142350 METAR LIRA 150045Z /////KT 9999 FEW070 10/08 Q1012=
201004142345 METAR LIRA 142345Z /////KT 9999 FEW022 SCT070 10/08 Q1012=
201004142315 METAR LIRA 142315Z /////KT 9999 FEW022 SCT070 10/09 Q1012=
201004142245 METAR LIRA 142245Z /////KT 9999 FEW022 SCT070 10/09 Q1012=
201004142215 METAR LIRA 142215Z /////KT 9999 FEW022 SCT070 11/09 Q1012=
201004142145 METAR LIRA 142145Z /////KT 9999 FEW022 SCT070 11/09 Q1012=
201004142115 METAR LIRA 142115Z /////KT 9999 FEW022 BKN070 11/09 Q1012=
201004142045 METAR LIRA 142045Z /////KT 9999 FEW022 SCT070 12/09 Q1012=
201004142015 METAR LIRA 142015Z /////KT 9999 FEW018 SCT070 12/10 Q1012=
201004141945 METAR LIRA 141945Z /////KT 9999 FEW018 SCT070 12/09 Q1012=
201004141915 METAR LIRA 141915Z /////KT 9999 SCT017 SCT035 12/10 Q1011=
201004141845 METAR LIRA 141845Z /////KT 9999 SCT017 SCT035 13/10 Q1011=
201004141815 METAR LIRA 141815Z /////KT 9999 FEW017 SCT035 12/09 Q1011=
201004141745 METAR LIRA 141745Z /////KT 9999 FEW017 SCT070 14/11 Q1011=
201004141715 METAR LIRA 141715Z /////KT 9999 SCT017 SCT040 14/10 Q1011=
201004141645 METAR LIRA 141645Z /////KT 9999 SCT017 SCT040 14/10 Q1011=
201004141615 METAR LIRA 141615Z /////KT 9999 SCT017 SCT040 14/10 Q1011=
201004141545 METAR LIRA 141545Z /////KT 9999 SCT017 SCT040 15/10 Q1011=
201004141515 METAR LIRA 141515Z /////KT 9999 FEW015 SCT017 15/10 Q1011=
201004141445 METAR LIRA 141445Z /////KT 9999 FEW015 SCT017 15/09 Q1011=
201004141415 METAR LIRA 141415Z /////KT 9999 FEW015 SCT017 15/09 Q1011=
201004141345 METAR LIRA 141345Z /////KT 9999 SCT017 SCT070 15/09 Q1011=
201004141315 METAR LIRA 141315Z /////KT 9999 SCT018 SCT060 15/09 Q1012=
201004141245 METAR LIRA 141245Z /////KT 9999 SCT018 15/09 Q1012=
201004141215 METAR LIRA 141215Z 18007KT 130V210 9999 SCT018 16/08 Q1011=
201004141145 METAR LIRA 141145Z 22005KT 140V270 9999 SCT018 16/09 Q1011=
201004141115 METAR LIRA 141115Z 19009KT 160V220 9999 SCT018 15/09 Q1012=
201004141045 METAR LIRA 141045Z 18004KT 170V240 9999 FEW018TCU SCT020
                        15/09 Q1012=
201004141015 METAR LIRA 141015Z 22005KT 9999 FEW018TCU SCT020 15/08 Q1012=
201004140945 METAR LIRA 140945Z 21004KT 9999 FEW020 SCT080 15/07 Q1012=
201004140915 METAR LIRA 140915Z 23003KT 9999 FEW020 SCT070 14/07 Q1012=
201004140845 METAR LIRA 140845Z 28002KT 9999 FEW030 SCT060 13/07 Q1012=
201004140815 METAR LIRA 140815Z 27002KT 9999 FEW025 SCT060 13/08 Q1011=
201004140745 METAR LIRA 140745Z 30003KT 9999 FEW025 SCT060 12/10 Q1011=
201004140715 METAR LIRA 140715Z 33001KT 9999 FEW040 SCT060 11/09 Q1011=
201004140645 METAR LIRA 140645Z 00000KT 9999 SCT060 11/09 Q1011=
201004140615 METAR LIRA 140615Z 00000KT 9999 SCT060 09/08 Q1011=
201004140545 METAR LIRA 140545Z 01002KT 9999 SCT060 08/07 Q1011=
201004140515 METAR LIRA 140515Z 10003KT 9999 FEW060 08/07 Q1011=
201004140445 METAR LIRA 140445Z 10004KT 9999 FEW070 08/07 Q1011=
201004140415 METAR LIRA 140415Z 10003KT 9999 FEW020 08/07 Q1011=
201004140345 METAR LIRA 140345Z 16002KT 9999 FEW070 08/07 Q1011=
201004140315 METAR LIRA 140315Z 15004KT 9999 FEW070 09/08 Q1012=
201004140245 METAR LIRA 140245Z 15004KT 9999 FEW005 SCT070 09/08 Q1012=
201004140215 METAR LIRA 140215Z 16004KT 9999 FEW005 SCT070 09/08 Q1012=
201004140145 METAR LIRA 140145Z 16004KT 9999 FEW005 SCT070 09/08 Q1012=
201004140115 METAR LIRA 140115Z 15004KT 9999 FEW005 SCT070 09/08 Q1012=
201004140045 METAR LIRA 140045Z 15003KT 9999 FEW005 SCT070 09/08 Q1012=
201004140015 METAR LIRA 140015Z 14002KT 9999 FEW005 SCT070 09/08 Q1012=
201004132350 METAR LIRA 140045Z 15003KT 9999 FEW005 SCT070 09/08 Q1012=
201004132345 METAR LIRA 132345Z 16003KT 9999 FEW005 SCT070 10/08 Q1012=
201004132315 METAR LIRA 132315Z 15003KT 9999 FEW005 SCT070 09/08 Q1012=
201004132245 METAR LIRA 132245Z 15003KT 9999 FEW005 10/08 Q1012=
201004132215 METAR LIRA 132215Z 13002KT 9999 FEW030 SCT070 10/08 Q1012=
201004132145 METAR LIRA 132145Z 11002KT 9999 FEW030 SCT070 10/08 Q1012=
201004132115 METAR LIRA 132115Z 16002KT 9999 FEW080 10/08 Q1012=
201004132045 METAR LIRA 132045Z 18001KT 9999 FEW080 11/08 Q1012=
201004132015 METAR LIRA 132015Z 16001KT 9999 FEW080 11/08 Q1011=
201004131945 METAR LIRA 131945Z 18002KT 9999 FEW080 12/09 Q1011=
201004131915 METAR LIRA 131915Z 20001KT 9999 FEW080 12/09 Q1011=
201004131845 METAR LIRA 131845Z 24002KT 9999 FEW080 12/09 Q1010=
201004131815 METAR LIRA 131815Z 22003KT 9999 FEW080 13/10 Q1010=
201004131745 METAR LIRA 131745Z 23004KT 9999 FEW018 SCT080 13/10 Q1010=
201004131715 METAR LIRA 131715Z 23005KT 9999 FEW018 15/10 Q1010=
201004131645 METAR LIRA 131645Z 24004KT 9999 FEW018 SCT200 15/09 Q1010=
201004131615 METAR LIRA 131615Z 27007KT 210V310 9999 SCT015 BKN200 15/08
                        Q1010=
201004131545 METAR LIRA 131545Z 27006KT 210V300 9999 SCT015 15/08 Q1010=
201004131515 METAR LIRA 131515Z 24008KT 200V340 9999 SCT015 16/08 Q1009=
201004131445 METAR LIRA 131445Z 27008KT 200V310 9999 SCT015 17/08 Q1009=
201004131415 METAR LIRA 131415Z 27008KT 220V330 9999 SCT015 18/07 Q1009=
201004131345 METAR LIRA 131345Z 26008KT 190V340 9999 SCT015 18/08 Q1009=
201004131315 METAR LIRA 131315Z 29005KT 220V330 9999 SCT015 18/08 Q1009=
201004131245 METAR LIRA 131245Z 24003KT 9999 SCT015 18/09 Q1009=
201004131215 METAR LIRA 131215Z 24003KT 190V310 9999 SCT015 18/09 Q1010=
201004131145 METAR LIRA 131145Z 18003KT 180V330 9999 SCT015 17/08 Q1010=
201004131115 METAR LIRA 131115Z 18003KT 9999 SCT015 17/09 Q1010=
201004131100 METAR LIRA INTER=
201004131045 METAR LIRA 131045Z 23004KT 8000 FEW015 17/10 Q1010=
201004131015 METAR LIRA 131015Z 26003KT 8000 FEW015 16/10 Q1010=
201004130945 METAR LIRA 130945Z 25003KT 8000 FEW015 15/12 Q1009=
201004130915 METAR LIRA 130915Z 20002KT 7000 FEW015 15/12 Q1009=
201004130845 METAR LIRA 130845Z 29002KT 7000 FEW015 14/11 Q1009=
201004130815 METAR LIRA 130815Z 33002KT 7000 FEW020 13/11 Q1009=
201004130745 METAR LIRA 130745Z 35005KT 270V350 6000 FEW020 12/11 Q1009=
201004130715 METAR LIRA 130715Z 36003KT 5000 BR FEW080 12/11 Q1008=
201004130645 METAR LIRA 130645Z 07002KT 5000 BR FEW070 11/10 Q1008=
201004130615 METAR LIRA 130615Z 00000KT 5000 BR FEW010 09/09 Q1008=
201004130545 METAR LIRA 130545Z 33001KT 5000 BR FEW009 08/08 Q1008=
201004130515 METAR LIRA 130515Z 00000KT 5000 BR FEW009 08/08 Q1007=
201004130445 METAR LIRA 130445Z 07002KT 5000 BR FEW009 08/08 Q1007=
201004130415 METAR LIRA 130415Z 08003KT 5000 BR FEW009 08/07 Q1007=
201004130345 METAR LIRA 130345Z 00000KT 5000 MIFG BR FEW020 09/08 Q1007=
201004130315 METAR LIRA 130315Z 00000KT 3000 BCFG SCT020 10/09 Q1008=
201004130245 METAR LIRA 130245Z 00000KT 5000 BR BKN018 10/09 Q1008=
201004130215 METAR LIRA 130215Z 00000KT 5000 BR BKN020 09/08 Q1008=
201004130145 METAR LIRA 130145Z 00000KT 5000 BR SCT025 09/08 Q1008=
201004130115 METAR LIRA 130115Z 21002KT 9999 FEW025 09/08 Q1008=
201004130045 METAR LIRA 130045Z 17002KT 9999 FEW020 10/09 Q1007=
201004130015 METAR LIRA 130015Z 13004KT 9999 FEW020 10/09 Q1008=
201004122350 METAR LIRA 130045Z 17002KT 9999 FEW020 10/09 Q1007=
201004122345 METAR LIRA 122345Z 15002KT 9999 FEW025 10/09 Q1008=
201004122315 METAR LIRA 122315Z 18003KT 9999 FEW025 11/10 Q1008=
201004122245 METAR LIRA 122245Z 16002KT 9999 SCT030 10/10 Q1008=
201004122215 METAR LIRA 122215Z 00000KT 9999 SCT030 11/10 Q1008=
201004122145 METAR LIRA 122145Z 00000KT 9999 SCT030 11/10 Q1007=
201004122115 METAR LIRA 122115Z 00000KT 9999 FEW018 SCT025 11/11 Q1007=
201004122045 METAR LIRA 122045Z 00000KT 9999 SCT020 SCT030 11/11 Q1007=
201004122015 METAR LIRA 122015Z 00000KT 9999 FEW016 12/11 Q1007=
201004121945 METAR LIRA 121945Z 00000KT 9999 FEW016 SCT022 12/11 Q1007=
201004121915 METAR LIRA 121915Z 00000KT 9999 FEW016 SCT022 12/10 Q1007=
201004121845 METAR LIRA 121845Z 23002KT 9999 SCT022 SCT060 13/12 Q1006=
201004121815 METAR LIRA 121815Z 23004KT 8000 -RA SCT014 SCT022 13/11 Q1007=
201004121745 METAR LIRA 121745Z 17001KT 9999 -RA SCT014 BKN022 13/12 Q1006
                        RERA=
201004121715 METAR LIRA 121715Z 26002KT 9999 FEW015 FEW018TCU SCT025 13/12
                        Q1006 RERA=
201004121645 METAR LIRA 121645Z 09005KT 9999 RA SCT015 FEW018TCU BKN023
                        14/11 Q1006=
201004121615 METAR LIRA 121615Z 09005KT 060V130 9999 -RA SCT015 FEW018CB
                        BKN025 14/12 Q1006=
201004121545 METAR LIRA 121545Z 13002KT 9999 SCT015 FEW017CB BKN025 14/13
                        Q1005=
201004121515 METAR LIRA 121515Z 07004KT 030V100 9999 SCT015 FEW017CB BKN025
                        14/12 Q1006=
201004121445 METAR LIRA 121445Z 07002KT 9999 SCT015 FEW017CB BKN025 14/10
                        Q1006=
201004121415 METAR LIRA 121415Z 02002KT 9999 SCT015 FEW017CB BKN025 14/12
                        Q1006=
201004121345 METAR LIRA 121345Z 01002KT 9999 SCT015 FEW017CB BKN025 14/12
                        Q1006=
201004121315 METAR LIRA 121315Z 29002KT 9999 SCT015 FEW017CB SCT025 14/11
                        Q1006=
201004121245 METAR LIRA 121245Z 05003KT 9999 SCT015 FEW017CB SCT025 15/10
                        Q1006=
201004121215 METAR LIRA 121215Z 29003KT 9999 SCT015 BKN022 15/10 Q1006=
201004121145 METAR LIRA 121145Z 21003KT 9999 SCT015 BKN025 15/10 Q1006=
201004121115 METAR LIRA 121115Z 12004KT 9999 SCT015 BKN025 15/10 Q1005=
201004121045 METAR LIRA 121045Z 05004KT 020V120 9999 FEW015 SCT025 15/09
                        Q1005=
201004121015 METAR LIRA 121015Z 02005KT 320V080 9999 FEW015 SCT025 14/09
                        Q1005=
201004120945 METAR LIRA 120945Z 03003KT 9999 FEW015 SCT025 14/10 Q1005=
201004120845 METAR LIRA 120845Z 36004KT 320V040 9999 FEW005 SCT025 BKN070
                        10/09 Q1005=
201004120815 METAR LIRA 120815Z 35005KT 320V040 9999 FEW005 SCT070 09/07
                        Q1005=
201004120745 METAR LIRA 120745Z 35004KT 9999 4000S BR FEW005 SCT013 08/07
                        Q1005=
201004120715 METAR LIRA 120715Z 36004KT 310V080 4000 BR FEW005 SCT013
                        BKN025 08/07 Q1005=
201004120645 METAR LIRA 120645Z 36005KT 310V040 9999 4000S BR FEW005 SCT013
                        BKN025 08/07 Q1005=
201004120615 METAR LIRA 120615Z 01005KT 330V070 9999 4000 BR FEW005 SCT013
                        BKN025 08/07 Q1005=
201004120545 METAR LIRA 120545Z 02006KT 340V060 8000 BR FEW005 SCT013
                        BKN025 07/06 Q1005=
201004120515 METAR LIRA 120515Z 01003KT 8000 BR FEW005 SCT013 BKN025 07/06
                        Q1005=
201004120445 METAR LIRA 120445Z 02004KT 8000 -RA BR SCT013 BKN022 07/06
                        Q1005=
201004120415 METAR LIRA 120415Z 03005KT 330V070 8000 -RA FEW007 SCT015
                        07/06 Q1005=
201004120345 METAR LIRA 120345Z 35005KT 300V010 9999 -RA BR FEW006 SCT030
                        08/07 Q1005=
201004120315 METAR LIRA 120315Z 35003KT 9999 BR FEW008 SCT030 08/07 Q1005=
201004120245 METAR LIRA 120245Z 35003KT 9999 BR FEW008 SCT030 08/07 Q1005=
201004120215 METAR LIRA 120215Z 35002KT 9999 BR FEW008 SCT030 08/07 Q1005=
201004120145 METAR LIRA 120145Z 35003KT 9999 -RA BR FEW008 SCT025 08/07
                        Q1006=
201004120115 METAR LIRA 120115Z 35004KT 9999 -RA BR FEW008 SCT025 08/08
                        Q1006=
201004120045 METAR LIRA 120045Z 03003KT 9999 -RA BR FEW008 SCT025 08/07
                        Q1006=
201004120015 METAR LIRA 120015Z 02004KT 5000 BR FEW010 SCT025 08/07 Q1007=
201004112350 METAR LIRA 120045Z 03003KT 9999 -RA BR FEW008 SCT025 08/07
                        Q1006=
201004112345 METAR LIRA 112345Z 36005KT 310V070 5000 BR SCT010 SCT020
                        08/07 Q1007=
201004112315 METAR LIRA 112315Z 35006KT 290V020 4500 BR SCT010 SCT020
                        08/07 Q1007=
201004112245 METAR LIRA 112245Z 01006KT 310V060 7000 -RA FEW016 SCT030
                        08/07 Q1007=
201004112215 METAR LIRA 112215Z 02007KT 310V080 7000 FEW016 SCT030 08/07
                        Q1008=
201004112145 METAR LIRA 112145Z 35005KT 310V010 5000 -RA BR FEW015 FEW020TCU
                        SCT030 08/07 Q1007=
201004112115 METAR LIRA 112115Z 04007KT 360V080 7000 VCTS -RA FEW015 FEW020TCU
                        SCT030 08/07 Q1007=
201004112045 METAR LIRA 112045Z 06011KT 030V090 7000 -TSRA FEW016 FEW020CB
                        SCT035 08/07 Q1007 RETS RERA=
201004112015 METAR LIRA 112015Z 31006KT 200V050 3000 TSRA FEW015 FEW020CB
                        BKN030 08/07 Q1009=
201004111945 METAR LIRA 111945Z 01011KT 300V070 9999 -TSRA FEW015 FEW020CB
                        SCT030 10/08 Q1007=
201004111915 METAR LIRA 111915Z VRB06KT 270V160 9999 TS FEW018 FEW020CB
                        BKN040 13/09 Q1007=
201004111845 METAR LIRA 111845Z 17008KT 140V210 9999 VCTS FEW018 FEW020CB
                        SCT040 13/09 Q1006=
201004111815 METAR LIRA 111815Z 16010KT 120V200 9999 FEW017 FEW020TCU
                        SCT040 BKN080 14/08 Q1006=
201004111745 METAR LIRA 111745Z 16012KT 130V190 9999 FEW017 FEW020TCU
                        SCT040 BKN080 15/09 Q1006=
201004111715 METAR LIRA 111715Z 15011KT 130V200 9999 FEW016 FEW020TCU
                        SCT070 15/05 Q1007=
201004111645 METAR LIRA 111645Z 18011KT 150V220 9999 FEW020TCU SCT080
                        15/07 Q1007=
201004111615 METAR LIRA 111615Z 18011KT 150V230 9999 FEW016 FEW020TCU
                        16/07 Q1007=
201004111545 METAR LIRA 111545Z 19011KT 150V230 9999 FEW016 FEW020TCU
                        16/04 Q1007=
201004111515 METAR LIRA 111515Z 19010KT 150V220 9999 FEW015 SCT025 16/06
                        Q1007=
201004111445 METAR LIRA 111445Z 19009KT 150V230 9999 FEW015 SCT025 16/06
                        Q1008=
201004111415 METAR LIRA 111415Z 19009KT 150V230 9999 SCT015 16/06 Q1008=
201004111345 METAR LIRA 111345Z 21009KT 150V260 9999 SCT015 FEW016TCU
                        16/07 Q1008=
201004111315 METAR LIRA 111315Z 20010KT 160V260 9999 SCT015 FEW016TCU
                        16/08 Q1008=
201004111245 METAR LIRA 111245Z 20011KT 150V250 9999 FEW015 FEW016TCU
                        SCT025 16/10 Q1008=
201004111215 METAR LIRA 111215Z 20012KT 160V260 9999 SCT015 SCT025 16/10
                        Q1008=
201004111145 METAR LIRA 111145Z 19013KT 140V230 9999 SCT015 SCT025 16/10
                        Q1009=
201004111115 METAR LIRA 111115Z 19010KT 150V240 9999 SCT015 SCT025 16/09
                        Q1009=
201004111045 METAR LIRA 111045Z 19010KT 160V240 9999 SCT014 SCT025 16/09
                        Q1009=
201004111015 METAR LIRA 111015Z 17008KT 110V220 9999 SCT014 SCT025 16/10
                        Q1010=
201004110945 METAR LIRA 110945Z 17006KT 120V220 9000 SCT014 SCT025 15/10
                        Q1010=
201004110915 METAR LIRA 110915Z 17007KT 130V210 9000 SCT014 SCT025 15/10
                        Q1010=
201004110845 METAR LIRA 110845Z 18004KT 130V220 9000 SCT013 SCT023 15/10
                        Q1010=
201004110815 METAR LIRA 110815Z 19006KT 140V240 8000 FEW008 SCT012 14/11
                        Q1010=
201004110745 METAR LIRA 110745Z 19006KT 140V240 8000 SCT012 SCT025 14/10
                        Q1010=
201004110715 METAR LIRA 110715Z 17007KT 130V240 8000 FEW012 SCT025 13/10
                        Q1010=
201004110645 METAR LIRA 110645Z 18005KT 140V220 8000 FEW010 SCT025 BKN070
                        12/11 Q1010=
201004110615 METAR LIRA 110615Z 17004KT 8000 FEW010 SCT025 BKN070 12/10
                        Q1010=
201004110545 METAR LIRA 110545Z 20002KT 8000 SCT010 SCT025 12/10 Q1010=
201004110515 METAR LIRA 110515Z 18003KT 8000 SCT010 SCT025 12/10 Q1010=
201004110445 METAR LIRA 110445Z 15002KT 8000 FEW013 SCT030 12/11 Q1010=
201004110415 METAR LIRA 110415Z 17005KT 9000 FEW016 SCT070 12/11 Q1011=
201004110345 METAR LIRA 110345Z 18004KT 9000 SCT016 12/11 Q1011=
201004110315 METAR LIRA 110315Z 15004KT 8000 SCT016 12/11 Q1011=
201004110245 METAR LIRA 110245Z 15003KT 7000 FEW010 SCT015 12/11 Q1011=
201004110215 METAR LIRA 110215Z 16003KT 7000 FEW010 SCT015 12/12 Q1012=
201004110145 METAR LIRA 110145Z 17003KT 6000 FEW010 SCT014 13/12 Q1012=
201004110115 METAR LIRA 110115Z 18004KT 6000 FEW010 FEW013TCU SCT014 13/12
                        Q1012=
201004110045 METAR LIRA 110045Z 19005KT 160V220 7000 FEW010 FEW013TCU
                        SCT014 13/12 Q1013=
201004110015 METAR LIRA 110015Z 18004KT 8000 FEW011 FEW013TCU SCT015 13/12
                        Q1013=
201004102350 METAR LIRA 110045Z 19005KT 160V220 7000 FEW010 FEW013TCU
                        SCT014 13/12 Q1013=
201004102345 METAR LIRA 102345Z 17005KT 9000 FEW012 SCT020 FEW021TCU 13/12
                        Q1013=
201004102315 METAR LIRA 102315Z 18008KT 9999 FEW013 SCT020 BKN070 13/12
                        Q1013=
201004102245 METAR LIRA 102245Z 17004KT 9999 FEW013 BKN070 13/11 Q1014=
201004102215 METAR LIRA 102215Z 17004KT 9999 SCT020 BKN060 13/11 Q1014=
201004102145 METAR LIRA 102145Z 18005KT 160V230 9999 SCT020 BKN060 13/11
                        Q1014=
201004102115 METAR LIRA 102115Z 18004KT 9999 FEW025 BKN060 13/11 Q1014=
201004102045 METAR LIRA 102045Z 18004KT 9999 FEW025 BKN060 13/10 Q1014=
201004102015 METAR LIRA 102015Z 18005KT 9999 FEW025 SCT060 14/09 Q1014=
201004101945 METAR LIRA 101945Z 17004KT 9999 FEW030 SCT060 14/08 Q1014=
201004101915 METAR LIRA 101915Z 19003KT 9999 FEW030 SCT060 14/08 Q1014=
201004101845 METAR LIRA 101845Z 17004KT 9999 SCT070 14/07 Q1015=
201004101815 METAR LIRA 101815Z 19004KT 9999 SCT070 15/07 Q1015=
201004101745 METAR LIRA 101745Z 22004KT 9999 SCT070 15/06 Q1015=
201004101715 METAR LIRA 101715Z 20003KT 9999 SCT070 16/06 Q1015=
201004101645 METAR LIRA 101645Z 23004KT 9999 FEW060 17/07 Q1015=
201004101615 METAR LIRA 101615Z 25005KT 190V330 9999 FEW030 18/07 Q1015=
201004101545 METAR LIRA 101545Z 26007KT 210V310 9999 FEW023 19/06 Q1015=
201004101515 METAR LIRA 101515Z 26008KT 210V310 9999 FEW023 19/05 Q1015=
201004101445 METAR LIRA 101445Z 27008KT 190V310 9999 FEW022 20/05 Q1016=
201004101415 METAR LIRA 101415Z 25009KT 190V300 9999 FEW022 20/06 Q1016=
201004101345 METAR LIRA 101345Z 25008KT 190V300 9999 FEW022 21/04 Q1017=
201004101315 METAR LIRA 101315Z 25009KT 180V290 9999 SCT022 21/03 Q1017=
201004101245 METAR LIRA 101245Z 26008KT 200V310 9999 SCT022 20/04 Q1017=
201004101215 METAR LIRA 101215Z 27006KT 210V330 9999 FEW023 21/04 Q1017=
201004101145 METAR LIRA 101145Z 27005KT 9999 FEW023 20/04 Q1018=
201004101115 METAR LIRA 101115Z 28005KT 220V320 9999 FEW023 20/04 Q1018=
201004101045 METAR LIRA 101045Z 31003KT 9999 FEW023 19/05 Q1019=
201004101015 METAR LIRA 101015Z 33003KT 9999 FEW023 18/05 Q1019=
201004100945 METAR LIRA 100945Z 34003KT 9999 FEW023 17/06 Q1020=
201004100915 METAR LIRA 100915Z 34003KT 9999 FEW023 17/07 Q1020=
201004100845 METAR LIRA 100845Z 33003KT CAVOK 15/08 Q1020=
201004100815 METAR LIRA 100815Z 02006KT 330V060 CAVOK 13/07 Q1020=
201004100745 METAR LIRA 100745Z 03006KT 340V070 CAVOK 12/06 Q1020=
201004100715 METAR LIRA 100715Z 03005KT 340V070 CAVOK 11/06 Q1020=
201004100645 METAR LIRA 100645Z 02005KT 330V060 CAVOK 10/06 Q1020=
201004100615 METAR LIRA 100615Z 04006KT CAVOK 08/05 Q1020=
201004100545 METAR LIRA 100545Z 03003KT CAVOK 07/05 Q1020=
201004100515 METAR LIRA 100515Z 03004KT CAVOK 06/05 Q1021=
201004100445 METAR LIRA 100445Z 03003KT CAVOK 06/05 Q1021=
201004100415 METAR LIRA 100415Z 05006KT CAVOK 06/05 Q1021=
201004100345 METAR LIRA 100345Z 03004KT 9999 FEW080 06/05 Q1021=
201004100315 METAR LIRA 100315Z 04003KT 9999 FEW080 06/05 Q1021=
201004100245 METAR LIRA 100245Z 36003KT 9999 FEW080 07/06 Q1021=
201004100215 METAR LIRA 100215Z 03003KT 9999 FEW080 07/06 Q1021=
201004100145 METAR LIRA 100145Z 04002KT 9999 FEW080 08/07 Q1021=
201004100115 METAR LIRA 100115Z 02003KT 9999 FEW080 08/06 Q1022=
201004100045 METAR LIRA 100045Z 10002KT 9999 FEW080 09/07 Q1022=
201004100015 METAR LIRA 100015Z 00000KT 9999 FEW080 09/05 Q1022=
201004092350 METAR LIRA 100045Z 10002KT 9999 FEW080 09/07 Q1022=
201004092345 METAR LIRA 092345Z 00000KT 9999 FEW080 10/05 Q1022=
201004092315 METAR LIRA 092315Z 12003KT 9999 FEW080 10/06 Q1022=
201004092245 METAR LIRA 092245Z 11003KT 9999 FEW080 10/06 Q1022=
201004092215 METAR LIRA 092215Z 12003KT 9999 FEW080 10/06 Q1022=
201004092145 METAR LIRA 092145Z 09002KT 9999 FEW080 10/06 Q1022=
201004092115 METAR LIRA 092115Z 11002KT 9999 FEW080 10/06 Q1022=
201004092045 METAR LIRA 092045Z 12002KT 9999 FEW080 10/06 Q1022=
201004092015 METAR LIRA 092015Z 09002KT 9999 FEW080 11/07 Q1022=
201004091945 METAR LIRA 091945Z 10002KT 9999 FEW080 12/08 Q1022=
201004091915 METAR LIRA 091915Z 06001KT 9999 FEW020 SCT080 13/08 Q1022=
201004091845 METAR LIRA 091845Z 00000KT 9999 FEW020 SCT080 13/08 Q1022=
201004091815 METAR LIRA 091815Z 17003KT 9999 FEW020 SCT080 13/09 Q1021=
201004091745 METAR LIRA 091745Z 17003KT 9999 FEW020 SCT080 14/09 Q1021=
201004091715 METAR LIRA 091715Z 20003KT 9999 FEW020 SCT070 15/08 Q1021=
201004091645 METAR LIRA 091645Z 21004KT 9999 FEW020 SCT070 15/07 Q1021=
201004091615 METAR LIRA 091615Z 21004KT 160V260 9999 FEW020 SCT070 15/07
                        Q1021=
201004091545 METAR LIRA 091545Z 19007KT 130V240 9999 FEW020 16/07 Q1021=
201004091515 METAR LIRA 091515Z 23007KT 200V260 9999 FEW020TCU 16/07 Q1021=
201004091445 METAR LIRA 091445Z 22007KT 180V260 9999 FEW020TCU 17/08 Q1021=
201004091415 METAR LIRA 091415Z 22008KT 110V270 9999 FEW020 18/07 Q1021=
201004091345 METAR LIRA 091345Z 22006KT 150V250 9999 FEW020 SCT070 17/06
                        Q1021=
201004091315 METAR LIRA 091315Z 22006KT 170V280 9999 FEW020 SCT080 18/07
                        Q1021=
201004091245 METAR LIRA 091245Z 23008KT 180V270 9999 FEW020 18/06 Q1021=
201004091215 METAR LIRA 091215Z 22005KT 180V260 9999 FEW020 18/06 Q1021=
201004091145 METAR LIRA 091145Z 24005KT 180V290 9999 FEW020 B 18/06 Q1021=
201004091115 METAR LIRA 091115Z 17004KT 200V290 9999 FEW020 17/06 Q1022=
201004091045 METAR LIRA 091045Z 25004KT 190V260 9999 FEW020 17/07 Q1022=
201004091015 METAR LIRA 091015Z 25004KT 9999 FEW020 17/08 Q1022=
201004090945 METAR LIRA 090945Z 26003KT 9999 FEW020 17/08 Q1022=
201004090915 METAR LIRA 090915Z 22003KT 9999 FEW020 17/08 Q1022=
201004090845 METAR LIRA 090845Z 22002KT 9999 FEW020 16/08 Q1022=
201004090815 METAR LIRA 090815Z 00000KT 9999 FEW035 SCT080 15/07 Q1021=
201004090745 METAR LIRA 090745Z 00000KT 9999 SCT030 SCT070 14/08 Q1021=
201004090715 METAR LIRA 090715Z 33002KT 9999 FEW030 SCT070 13/08 Q1021=
201004090645 METAR LIRA 090645Z 35003KT 9999 SCT030 SCT060 12/08 Q1021=
201004090615 METAR LIRA 090615Z 07002KT 9999 SCT030 SCT070 10/08 Q1021=
201004090545 METAR LIRA 090545Z 02004KT 330V040 9999 FEW030 SCT070 10/07
                        Q1020=
201004090515 METAR LIRA 090515Z 02004KT 9999 SCT030 SCT070 10/08 Q1020=
201004090445 METAR LIRA 090445Z 03005KT 9999 SCT030 SCT070 10/08 Q1020=
201004090415 METAR LIRA 090415Z 02006KT 330V060 9999 FEW025 SCT070 11/08
                        Q1020=
201004090345 METAR LIRA 090345Z 01004KT 9999 FEW025 SCT070 11/07 Q1020=
201004090315 METAR LIRA 090315Z 02002KT 9999 FEW025 SCT070 BKN080 11/07
                        Q1020=
201004090245 METAR LIRA 090245Z 06004KT 9999 FEW025 SCT070 BKN080 11/07
                        Q1020=
201004090215 METAR LIRA 090215Z 06004KT 9999 FEW025 SCT070 BKN080 11/08
                        Q1020=
201004090145 METAR LIRA 090145Z 03004KT 9999 FEW033 SCT070 BKN080 11/08
                        Q1020=
201004090115 METAR LIRA 090115Z 04004KT 9999 FEW033 SCT070 BKN080 11/08
                        Q1020=
201004090045 METAR LIRA 090045Z 04003KT 9999 FEW033 SCT070 BKN080 11/08
                        Q1020=
201004090015 METAR LIRA 090015Z 01003KT 9999 FEW033 SCT070 BKN080 11/08
                        Q1020=
201004082350 METAR LIRA 090045Z 04003KT 9999 FEW033 SCT070 BKN080 11/08
                        Q1020=
201004082345 METAR LIRA 082345Z 01001KT 9999 FEW033 SCT070 BKN080 12/08
                        Q1020=
201004082315 METAR LIRA 082315Z 04002KT 9999 FEW033 SCT070 BKN080 12/09
                        Q1020=
201004082245 METAR LIRA 082245Z 18003KT 9999 FEW033 SCT070 BKN080 12/09
                        Q1020=
201004082215 METAR LIRA 082215Z 23004KT 150V230 9999 FEW033 SCT070 BKN080
                        12/09 Q1020=
201004082145 METAR LIRA 082145Z 19003KT 9999 FEW033 SCT070 BKN080 12/09
                        Q1020=
201004082115 METAR LIRA 082115Z 19004KT 9999 FEW033 BKN070 12/09 Q1020=
201004082045 METAR LIRA 082045Z 20003KT 160V250 9999 FEW033 BKN070 12/07
                        Q1020=
201004082015 METAR LIRA 082015Z 05002KT 9999 FEW033 BKN070 12/07 Q1019=
201004081945 METAR LIRA 081945Z 07005KT 020V110 9999 FEW033 BKN070 12/07
                        Q1019=
201004081915 METAR LIRA 081915Z 07003KT 9999 FEW033 BKN070 12/08 Q1019=
201004081845 METAR LIRA 081845Z 05002KT 9999 FEW040 SCT080 13/09 Q1019=
201004081815 METAR LIRA 081815Z 00000KT 9999 FEW040 SCT080 13/08 Q1019=
201004081745 METAR LIRA 081745Z 00000KT 9999 FEW040 SCT080 13/07 Q1018=
201004081715 METAR LIRA 081715Z 22003KT 9999 FEW035 BKN070 14/06 Q1018=
201004081645 METAR LIRA 081645Z 22004KT 9999 FEW035 BKN070 15/07 Q1018=
201004081615 METAR LIRA 081615Z 23004KT 9999 FEW035 BKN070 15/06 Q1018=
201004081545 METAR LIRA 081545Z 23007KT 180V260 9999 FEW035 BKN080 17/05
                        Q1018=
201004081515 METAR LIRA 081515Z 22006KT 160V230 9999 FEW035 BKN080 17/07
                        Q1018=
201004081445 METAR LIRA 081445Z 21004KT 170V230 9999 FEW035 BKN080 16/04
                        Q1018=
201004081415 METAR LIRA 081415Z 22005KT 150V260 9999 FEW035 BKN080 16/03
                        Q1018=
201004081345 METAR LIRA 081345Z 20005KT 150V250 9999 SCT080 BKN200 17/05
                        Q1018=
201004081315 METAR LIRA 081315Z 21006KT 150V250 9999 SCT080 17/03 Q1018=
201004081245 METAR LIRA 081245Z 19008KT 240V150 9999 SCT080 BKN200 17/05
                        Q1018=
201004081215 METAR LIRA 081215Z 22008KT 200V280 9999 SCT080 17/08 Q1018=
201004081145 METAR LIRA 081145Z 24005KT 150V320 9999 FEW080 17/07 Q1018=
201004081115 METAR LIRA 081115Z 21004KT 180V240 9999 FEW080 16/07 Q1018=
201004081045 METAR LIRA 081045Z 21006KT 140V250 9999 SCT080 17/08 Q1019=
201004081015 METAR LIRA 081015Z 28004KT CAVOK 17/06 Q1019=
201004080945 METAR LIRA 080945Z 35004KT 9999 FEW080 16/07 Q1019=
201004080915 METAR LIRA 080915Z 03003KT 9999 FEW080 15/08 Q1019=
201004080845 METAR LIRA 080845Z 36002KT 9999 FEW080 14/07 Q1019=
201004080815 METAR LIRA 080815Z 31003KT 9999 FEW080 13/08 Q1019=
201004080745 METAR LIRA 080745Z 31003KT 9999 FEW080 11/07 Q1019=
201004080715 METAR LIRA 080715Z 04003KT 340V080 9999 FEW080 11/07 Q1019=
201004080645 METAR LIRA 080645Z 04003KT 9999 FEW080 10/07 Q1018=
201004080615 METAR LIRA 080615Z 00000KT 9999 FEW080 09/07 Q1018=
201004080545 METAR LIRA 080545Z 05002KT 9999 FEW080 07/05 Q1018=
201004080515 METAR LIRA 080515Z 06002KT 9999 FEW080 07/05 Q1018=
201004080445 METAR LIRA 080445Z 05003KT 9999 FEW080 07/05 Q1018=
201004080415 METAR LIRA 080415Z 06001KT 9999 FEW080 07/05 Q1018=
201004080315 METAR LIRA 080315Z 36001KT 9999 FEW080 07/06 Q1018=
201004080215 METAR LIRA 080215Z 03002KT 9999 FEW080 08/06 Q1018=
201004080115 METAR LIRA 080115Z 35002KT 9999 FEW080 09/07 Q1018=
201004080045 METAR LIRA 080045Z 09001KT 9999 FEW080 10/06 Q1018=
201004080015 METAR LIRA 080015Z 02001KT CAVOK 10/07 Q1018=
201004072350 METAR LIRA 080045Z 09001KT 9999 FEW080 10/06 Q1018=
201004072345 METAR LIRA 072345Z 05005KT 9999 FEW080 10/07 Q1018=
201004072315 METAR LIRA 072315Z 04005KT CAVOK 10/07 Q1018=
201004072245 METAR LIRA 072245Z 02003KT CAVOK 10/07 Q1018=
201004072215 METAR LIRA 072215Z 05006KT CAVOK 10/07 Q1018=
201004072145 METAR LIRA 072145Z 04003KT 340V100 CAVOK 10/07 Q1018=
201004072120 METAR LIRA 072115 07004KT CAVOK 09/06 Q1018=
201004072115 METAR LIRA 072115Z 07004KT CAVOK 09/06 Q1018=
201004072045 METAR LIRA 072045Z 07002KT CAVOK 11/07 Q1019=
201004072015 METAR LIRA 072015Z 16002KT CAVOK 11/07 Q1019=
201004071945 METAR LIRA 071945Z 04001KT CAVOK 12/09 Q1019=
201004071915 METAR LIRA 071915Z 00000KT CAVOK 12/08 Q1019=
201004071845 METAR LIRA 071845Z 21003KT CAVOK 12/08 Q1018=
201004071815 METAR LIRA 071815Z 22003KT CAVOK 13/08 Q1018=
201004071745 METAR LIRA 071745Z 20003KT CAVOK 13/07 Q1018=
201004071715 METAR LIRA 071715Z 19005KT CAVOK 14/05 Q1018=
201004071645 METAR LIRA 071645Z 21005KT 170V240 CAVOK 15/02 Q1018=
201004071615 METAR LIRA 071615Z 22006KT 180V250 CAVOK 16/02 Q1018=
201004071545 METAR LIRA 071545Z 21006KT 180V260 9999 FEW020 16/01 Q1019=
201004071515 METAR LIRA 071515Z 21007KT 160V250 9999 FEW020 17/01 Q1019=
201004071445 METAR LIRA 071445Z 23007KT 200V280 9999 FEW020 17/01 Q1019=
201004071415 METAR LIRA 071415Z 23007KT 180V270 9999 FEW020 17/02 Q1019=
201004071345 METAR LIRA 071345Z 23008KT 200V310 9999 FEW020 18/02 Q1019=
201004071315 METAR LIRA 071315Z 21007KT 150V270 9999 FEW070 18/02 Q1019=
201004071245 METAR LIRA 071245Z 20007KT 130V260 9999 FEW070 18/03 Q1019=
201004071215 METAR LIRA 071215Z 19009KT 150V240 9999 FEW070 18/03 Q1019=
201004071145 METAR LIRA 071145Z 19009KT 130V260 9999 FEW070 19/04 Q1019=
201004071115 METAR LIRA 071115Z 18008KT 150V240 9999 FEW070 18/04 Q1020=
201004071045 METAR LIRA 071045Z 18008KT 110V240 9999 FEW070 18/04 Q1028=
201004071015 METAR LIRA 071015Z 18009KT 130V220 9999 FEW070 17/03 Q1020=
201004070945 METAR LIRA 070945Z 18010KT 150V240 9999 FEW070 17/03 Q1020=
201004070915 METAR LIRA 070915Z 16010KT 130V200 9999 FEW070 16/04 Q1021=
201004070845 METAR LIRA 070845Z 22004KT 9999 FEW070 20/09 Q1021=
201004070815 METAR LIRA 070815Z 33003KT 9999 FEW070 13/07 Q1021=
201004070745 METAR LIRA 070745Z 33002KT 9999 FEW070 12/08 Q1021=
201004070715 METAR LIRA 070715Z 36002KT 9999 FEW070 11/07 Q1021=
201004070645 METAR LIRA 070645Z 02003KT 9999 FEW070 09/06 Q1020=
201004070615 METAR LIRA 070615Z 01001KT 9999 FEW070 07/05 Q1020=
201004070545 METAR LIRA 070545Z 35001KT 9999 FEW070 06/04 Q1020=
201004070515 METAR LIRA 070515Z 00000KT 9999 FEW070 06/04 Q1020=
201004070445 METAR LIRA 070445Z 13001KT CAVOK 05/04 Q1020=
201004070415 METAR LIRA 070415Z 09002KT CAVOK 05/04 Q1020=
201004070345 METAR LIRA 070345Z 00000KT CAVOK 04/03 Q1020=
201004070315 METAR LIRA 070315Z 29002KT CAVOK 05/04 Q1020=
201004070245 METAR LIRA 070245Z 03001KT CAVOK 05/05 Q1020=
201004070215 METAR LIRA 070215Z 04002KT CAVOK 06/05 Q1020=
201004070145 METAR LIRA 070145Z 04002KT CAVOK 06/05 Q1020=
201004070115 METAR LIRA 070115Z 31001KT CAVOK 07/05 Q1020=
201004070045 METAR LIRA 070045Z 21002KT CAVOK 07/05 Q1020=
201004070015 METAR LIRA 070015Z 05003KT CAVOK 07/05 Q1021=
201004062350 METAR LIRA 070045Z 21002KT CAVOK 07/05 Q1020=
201004062345 METAR LIRA 062345Z 04002KT CAVOK 07/05 Q1021=
201004062315 METAR LIRA 062315Z VRB01KT CAVOK 07/05 Q1021=
201004062245 METAR LIRA 062245Z 04002KT CAVOK 08/05 Q1021=
201004062215 METAR LIRA 062215Z 07001KT CAVOK 09/05 Q1021=
201004062145 METAR LIRA 062145Z 19001KT CAVOK 09/05 Q1021=
201004062115 METAR LIRA 062115Z 12002KT CAVOK 09/06 Q1021=
201004062045 METAR LIRA 062045Z 14003KT CAVOK 09/06 Q1021=
201004062015 METAR LIRA 062015Z 16003KT CAVOK 11/06 Q1021=
201004061945 METAR LIRA 061945Z 17004KT CAVOK 11/06 Q1021=
201004061915 METAR LIRA 061915Z 17004KT CAVOK 11/05 Q1021=
201004061845 METAR LIRA 061845Z 18005KT CAVOK 12/04 Q1021=
201004061815 METAR LIRA 061815Z 17005KT CAVOK 12/04 Q1021=
201004061745 METAR LIRA 061745Z 18004KT CAVOK 13/04 Q1021=
201004061715 METAR LIRA 061715Z 02004KT CAVOK 13/05 Q1021=
201004061645 METAR LIRA 061645Z 24005KT 190V290 CAVOK 14/04 Q1021=
201004061615 METAR LIRA 061615Z 26009KT 200V310 CAVOK 15/03 Q1021=
201004061415 METAR LIRA 061415Z 26008KT 210V320 CAVOK 18/04 Q1022=
201004061345 METAR LIRA 061345Z 26007KT 210V310 CAVOK 18/04 Q1023=
201004061315 METAR LIRA 061315Z 26008KT 180V300 9999 FEW023 18/04 Q1023=
201004061245 METAR LIRA 061245Z 27009KT 9999 FEW022 18/05 Q1023=
201004061215 METAR LIRA 061215Z 27009KT 210V310 9999 FEW022 17/06 Q1023=
201004061145 METAR LIRA 061145Z 27009KT 210V320 9999 FEW022 17/05 Q1024=
201004061115 METAR LIRA 061115Z 28006KT 240V320 9999 FEW022 17/03 Q1024=
201004061045 METAR LIRA 061045Z 31003KT CAVOK 16/04 Q1025=
201004061015 METAR LIRA 061015Z 30003KT CAVOK 15/05 Q1025=
201004060945 METAR LIRA 060945Z 32004KT CAVOK 14/05 Q1025=
201004060915 METAR LIRA 060915Z 01003KT CAVOK 14/05 Q1025=
201004060845 METAR LIRA 060845Z 01005KT 340V060 CAVOK 13/05 Q1025=
201004060815 METAR LIRA 060815Z 02004KT CAVOK 11/06 Q1025=
201004060745 METAR LIRA 060745Z 02005KT 340V040 CAVOK 10/05 Q1025=
201004060715 METAR LIRA 060715Z 01003KT CAVOK 09/05 Q1025=
201004060645 METAR LIRA 060645Z 02004KT CAVOK 08/05 Q1025=
201004060615 METAR LIRA 060615Z 03002KT CAVOK 07/05 Q1024=
201004060545 METAR LIRA 060545Z 03003KT CAVOK 05/04 Q1024=
201004060515 METAR LIRA 060515Z 05003KT CAVOK 04/03 Q1024=
201004060445 METAR LIRA 060445Z 03003KT CAVOK 04/03 Q1024=
201004060415 METAR LIRA 060415Z 03003KT CAVOK 05/04 Q1024=
201004060345 METAR LIRA 060345Z 04004KT CAVOK 05/04 Q1024=
201004060315 METAR LIRA 060315Z 06006KT CAVOK 05/04 Q1024=
201004060245 METAR LIRA 060245Z 04004KT CAVOK 05/04 Q1024=
201004060215 METAR LIRA 060215Z 04003KT CAVOK 05/04 Q1024=
201004060145 METAR LIRA 060145Z 36005KT CAVOK 06/04 Q1024=
201004060115 METAR LIRA 060115Z 03005KT CAVOK 06/04 Q1024=
201004060045 METAR LIRA 060045Z 07003KT CAVOK 06/05 Q1024=
201004060015 METAR LIRA 060015Z 05004KT CAVOK 06/05 Q1024=
201004052350 METAR LIRA 060045Z 07003KT CAVOK 06/05 Q1024=
201004052345 METAR LIRA 052345Z 05004KT CAVOK 07/05 Q1024=
201004052315 METAR LIRA 052315Z 05002KT CAVOK 07/05 Q1024=
201004052245 METAR LIRA 052245Z 02003KT CAVOK 07/05 Q1024=
201004052215 METAR LIRA 052215Z 06003KT 9999 FEW018 07/05 Q1024=
201004052145 METAR LIRA 052145Z 05002KT 9999 FEW018 07/05 Q1024=
201004052115 METAR LIRA 052115Z 33005KT 9999 FEW018 08/06 Q1024=
201004052045 METAR LIRA 052045Z 03003KT 9999 FEW018 08/06 Q1024=
201004052015 METAR LIRA 052015Z 03002KT 9999 FEW018 08/06 Q1023=
201004051945 METAR LIRA 051945Z 35004KT 9999 FEW018 09/06 Q1023=
201004051915 METAR LIRA 051915Z 34006KT 9999 FEW018 09/07 Q1022=
201004051845 METAR LIRA 051845Z 35005KT 320V040 9999 FEW018 09/07 Q1022=
201004051815 METAR LIRA 051815Z 32002KT 9999 FEW018TCU 10/08 Q1022=
201004051745 METAR LIRA 051745Z 36004KT 9999 FEW018TCU 10/07 Q1021=
201004051715 METAR LIRA 051715Z 36008KT 300V350 9999 FEW015TCU SCT025
                        10/07 Q1021=
201004051645 METAR LIRA 051645Z 33011G21KT 300V030 9999 FEW015 FEW018CB
                        SCT025 11/09 Q1021=
201004051615 METAR LIRA 051615Z 35002KT 9999 FEW015 FEW018CB SCT025 11/09
                        Q1021=
201004051545 METAR LIRA 051545Z 30005KT 260V360 9999 FEW015 FEW018CB SCT025
                        11/09 Q1020=
201004051515 METAR LIRA 051515Z 31009KT 260V350 9000 -RA FEW015 FEW017CB
                        BKN025 12/09 Q1020=
201004051445 METAR LIRA 051445Z 35009KT 290V050 9999 FEW015 FEW017CB BKN025
                        14/07 Q1020=
201004051415 METAR LIRA 051415Z 32010G20KT 280V350 9999 FEW015 BKN025
                        15/05 Q1020=
201004051345 METAR LIRA 051345Z 33009KT 300V020 9999 FEW015 SCT025 15/06
                        Q1020=
201004051315 METAR LIRA 051315Z 33012KT 260V040 9999 FEW015 SCT025 15/06
                        Q1020=
201004051245 METAR LIRA 051245Z 32008KT 260V010 9999 SCT015 SCT025 14/07
                        Q1019=
201004051215 METAR LIRA 051215Z 02005KT 330V060 9999 FEW015 BKN025 13/08
                        Q1019=
201004051145 METAR LIRA 051145Z 34009KT 280V040 9999 FEW015 FEW017TCU
                        BKN025 13/07 Q1019=
201004051115 METAR LIRA 051115Z 29011KT 260V340 9999 FEW015 FEW017TCU
                        BKN025 13/07 Q1019=
201004051045 METAR LIRA 051045Z 30011KT 230V350 9999 FEW015 FEW017TCU
                        BKN025 13/07 Q1019=
201004051015 METAR LIRA 051015Z 28008KT 230V010 9999 FEW015 FEW016TCU
                        BKN025 12/08 Q1019=
201004050945 METAR LIRA 050945Z 28011G22KT 210V340 9999 FEW015 FEW016TCU
                        BKN025 13/07 Q1018=
201004050915 METAR LIRA 050915Z 26013G25KT 220V310 9999 FEW015 FEW016TCU
                        BKN023 13/07 Q1018=
201004050845 METAR LIRA 050845Z 27012G23KT 220V320 9999 FEW015 FEW016TCU
                        SCT023 13/06 Q1018=
201004050815 METAR LIRA 050815Z 23009KT 180V300 9999 SCT015 FEW016TCU
                        BKN023 13/07 Q1018=
201004050745 METAR LIRA 050745Z 22008KT 190V260 9999 FEW015 BKN022 13/09
                        Q1018=
201004050715 METAR LIRA 050715Z 19007KT 150V260 9999 FEW015 SCT025 13/09
                        Q1018=
201004050645 METAR LIRA 050645Z 19006KT 160V260 9999 FEW014 SCT025 12/09
                        Q1018=
201004050615 METAR LIRA 050615Z 17006KT 9999 FEW015 11/09 Q1017=
201004050545 METAR LIRA 050545Z 17006KT 9999 FEW015 SCT025 10/08 Q1017=
201004050515 METAR LIRA 050515Z 17004KT 9999 FEW015 SCT025 09/08 Q1017=
201004050445 METAR LIRA 050445Z 16004KT 9999 FEW015 SCT025 10/09 Q1017=
201004050415 METAR LIRA 050415Z 16003KT 9999 FEW015 SCT025 10/09 Q1017=
201004050345 METAR LIRA 050345Z 17002KT 9999 FEW010 SCT025 10/08 Q1017=
201004050315 METAR LIRA 050315Z 18004KT 9999 FEW008 SCT025 10/08 Q1016=
201004050245 METAR LIRA 050245Z 17004KT 9999 FEW015 SCT025 10/08 Q1016=
201004050215 METAR LIRA 050215Z 17007KT 140V210 9999 FEW018 SCT025 10/08
                        Q1016=
201004050145 METAR LIRA 050145Z 14006KT 9999 FEW015 SCT025 10/08 Q1016=
201004050115 METAR LIRA 050115Z 22004KT 200V310 9999 FEW015 SCT025 10/08
                        Q1016=
201004050045 METAR LIRA 050045Z 20004KT 8000 FEW015 SCT025 11/08 Q1016=
201004042350 METAR LIRA 050045Z 20004KT 8000 FEW015 SCT025 11/08 Q1016=
201004042315 METAR LIRA 042315Z 19007KT 140V270 8000 SCT005 BKN025 11/08
                        Q1015=
201004042245 METAR LIRA 042245Z 22008KT 170V310 7000 SCT005 SCT025 11/09
                        Q1015=
201004042215 METAR LIRA 042215Z 22008KT 170V260 7000 SCT005 FEW018CB SCT025
                        12/10 Q1014 RETS=
201004042145 METAR LIRA 042145Z 23011KT 180V270 6000 SCT005 FEW018CB SCT025
                        12/11 Q1014 RETS=
201004042115 METAR LIRA 042115Z 19010G22KT 150V250 4000 TSRA BR SCT014
                        FEW018CB SCT025 12/12 Q1013=
201004042045 METAR LIRA 042045Z 15017KT 120V190 4000 TSRA BR FEW018CB
                        SCT022 BKN060 12/11 Q1013=
201004042015 METAR LIRA 042015Z 15018KT 5000 TSRA BR FEW018CB SCT022 BKN060
                        12/11 Q1013=
201004041945 METAR LIRA 041945Z 15018KT 6000 TSRA FEW018CB SCT022 BKN060
                        12/11 Q1013=
201004041915 METAR LIRA 041915Z 14021G31KT 110V180 4000 TSRA FEW018CB
                        SCT022 BKN060 13/10 Q1012=
201004041845 METAR LIRA 041845Z 14021KT 9999 -RA FEW018CB SCT025 13/10
                        Q1013=
201004041815 METAR LIRA 041815Z 14021KT 110V180 9999 -RA FEW018CB SCT025
                        13/09 Q1013=
201004041745 METAR LIRA 041745Z 14021KT 110V180 9999 -RA FEW018CB SCT025
                        14/08 Q1013=
201004041715 METAR LIRA 041715Z 15016G29KT 120V190 9999 -RA FEW018CB SCT025
                        14/07 Q1013=
201004041645 METAR LIRA 041645Z 13020G30KT 9999 -RA FEW018CB SCT025 13/07
                        Q1014=
201004041615 METAR LIRA 041615Z 13015KT 090V160 7000 RA FEW018CB SCT025
                        13/08 Q1014=
201004041545 METAR LIRA 041545Z 14020KT 100V180 7000 RA FEW018CB SCT025
                        11/08 Q1015=
201004041515 METAR LIRA 041515Z 15021G32KT 090V210 7000 RA FEW018CB SCT025
                        11/07 Q1015=
201004041445 METAR LIRA 041445Z 14017G27KT 110V180 9999 -RA FEW018TCU
                        SCT025 BKN070 13/08 Q1015=
201004041415 METAR LIRA 041415Z 15015KT 090V210 9999 FEW018 SCT025 BKN070
                        13/08 Q1016=
201004041345 METAR LIRA 041345Z 19005G18KT 090V210 9999 FEW013 SCT025
                        BKN070 13/08 Q1016 RERA=
201004041315 METAR LIRA 041315Z 14006G16KT 090V190 6000 RA FEW012 SCT013
                        BKN070 12/08 Q1017=
201004041245 METAR LIRA 041245Z 32004KT 9999 SCT025 BKN070 12/10 Q1017
                        RERA=
201004041215 METAR LIRA 041215Z 36004KT 9999 -RA FEW018 SCT025 BKN070
                        10/10 Q1017=
201004041145 METAR LIRA 041145Z 35004KT 9999 -RA FEW018 SCT025 BKN070
                        11/10 Q1017=
201004041115 METAR LIRA 041115Z 31005KT 300V070 9000 RA SCT018 SCT025
                        BKN070 11/10 Q1018=
201004041045 METAR LIRA 041045Z 10006KT 060V130 9000 RA SCT018 SCT025
                        BKN070 11/10 Q1018=
201004041015 METAR LIRA 041015Z 12009KT 060V170 9000 RA SCT018 SCT025
                        BKN070 11/09 Q1018=
201004040945 METAR LIRA 040945Z 11008KT 050V170 9999 -RA FEW017 SCT025
                        11/08 Q1018=
201004040915 METAR LIRA 040915Z 11011KT 070V150 9999 -RA FEW017TCU SCT025
                        11/09 Q1018=
201004040845 METAR LIRA 040845Z 13007KT 080V170 9999 -RA FEW017TCU SCT025
                        BKN070 11/09 Q1019=
201004040815 METAR COR LIRA 040815Z 12015G25KT 090V160 8000 -RA FEW017TCU
                        SCT025 BKN070 11/08 Q1019=
201004040745 METAR LIRA 040745Z 14007KT 080V210 9999 -RA FEW017TCU BKN070
                        11/07 Q1018=
201004040715 METAR LIRA 040715Z 33003KT 9999 -RA BKN070 10/07 Q1018=
201004040645 METAR LIRA 040645Z 11003KT 090V170 9999 BKN080 12/03 Q1018=
201004040615 METAR LIRA 040615Z 26003KT 9999 BKN080 12/04 Q1018=
201004040545 METAR LIRA 040545Z 13007KT 100V180 9999 BKN080 11/05 Q1018=
201004040515 METAR LIRA 040515Z 14006KT 100V170 9999 BKN080 10/07 Q1018=
201004040445 METAR LIRA 040445Z 13007KT 080V160 9999 BKN080 10/06 Q1018=
201004040415 METAR LIRA 040415Z 13006KT 9999 BKN080 08/05 Q1018=
201004040345 METAR LIRA 040345Z 16003KT CAVOK 06/04 Q1018=
201004040315 METAR LIRA 040315Z 00000KT CAVOK 06/03 Q1018=
201004040245 METAR LIRA 040245Z 00000KT CAVOK 06/03 Q1018=
201004040215 METAR LIRA 040215Z 08002KT CAVOK 07/03 Q1019=
201004040145 METAR LIRA 040145Z 00000KT CAVOK 06/03 Q1019=
201004040115 METAR LIRA 040115Z 07004KT CAVOK 06/02 Q1019=
201004040045 METAR LIRA 040045Z 16002KT CAVOK 07/03 Q1019=
201004040015 METAR LIRA 040015Z 31002KT CAVOK 08/03 Q1020=
201004032350 METAR LIRA 040045Z 16002KT CAVOK 07/03 Q1019=
201004032345 METAR LIRA 032345Z 15004KT CAVOK 08/03 Q1019=
201004032315 METAR LIRA 032315Z 16002KT CAVOK 08/02 Q1020=
201004032245 METAR LIRA 032245Z 11004KT CAVOK 09/02 Q1020=
201004032215 METAR LIRA 032215Z 10005KT CAVOK 08/02 Q1020=
201004032145 METAR LIRA 032145Z 12003KT CAVOK 09/03 Q1020=
201004032115 METAR LIRA 032115Z 00000KT CAVOK 09/04 Q1020=
201004032045 METAR LIRA 032045Z 10002KT CAVOK 09/04 Q1020=
201004032015 METAR LIRA 032015Z 09003KT CAVOK 09/05 Q1020=
201004031945 METAR LIRA 031945Z 15002KT CAVOK 10/06 Q1020=
201004031915 METAR LIRA 031915Z 18003KT CAVOK 11/07 Q1020=
201004031845 METAR LIRA 031845Z 20003KT CAVOK 12/07 Q1020=
201004031815 METAR LIRA 031815Z 20003KT CAVOK 12/07 Q1020=
201004031745 METAR LIRA 031745Z 20002KT CAVOK 12/06 Q1020=
201004031715 METAR LIRA 031715Z 21004KT CAVOK 13/03 Q1020=
201004031645 METAR LIRA 031645Z 22006KT 170V260 CAVOK 14/03 Q1020=
201004031615 METAR LIRA 031615Z 22007KT 180V250 9999 FEW018 15/02 Q1020=
201004031545 METAR LIRA 031545Z 22006KT 170V240 9999 FEW018 15/00 Q1020=
201004031515 METAR LIRA 031515Z 21006KT 170V230 9999 FEW018 15/01 Q1020=
201004031445 METAR LIRA 031445Z 23007KT 170V250 9999 FEW018 15/00 Q1021=
201004031415 METAR LIRA 031415Z 20007KT 160V230 9999 FEW018 15/00 Q1021=
201004031345 METAR LIRA 031345Z 19009KT 150V260 9999 FEW018 15/M00 Q1021=
201004031315 METAR LIRA 031315Z 19009KT 140V260 9999 FEW018 15/M00 Q1021=
201004031245 METAR LIRA 031245Z 23009KT 150V300 9999 SCT018 16/00 Q1021=
201004031215 METAR LIRA 031215Z 23010KT 160V260 9999 SCT015 16/00 Q1021=
201004031145 METAR LIRA 031145Z 19005KT 140V270 9999 SCT015 16/02 Q1022=
201004031115 METAR LIRA 031115Z 21007KT 090V260 9999 SCT015 16/02 Q1022=
201004031045 METAR LIRA 031045Z 22008KT 150V260 9999 SCT015 16/03 Q1022=
201004031015 METAR LIRA 031015Z 19007KT 150V290 9999 SCT015 16/02 Q1022=
201004030945 METAR LIRA 030945Z 21006KT 170V250 9999 FEW015 15/04 Q1022=
201004030915 METAR LIRA 030915Z 25002KT 9999 FEW015 14/04 Q1022=
201004030845 METAR LIRA 030845Z 26003KT 9999 FEW015 13/04 Q1021=
201004030815 METAR LIRA 030815Z 34001KT 9999 FEW015 12/05 Q1021=
201004030745 METAR LIRA 030745Z 29003KT 9999 FEW005 11/04 Q1021=
201004030715 METAR LIRA 030715Z 33002KT 9999 FEW080 10/04 Q1021=
201004030645 METAR LIRA 030645Z 04004KT 9999 FEW005 09/04 Q1021=
201004030615 METAR LIRA 030615Z 04003KT 9999 FEW005 08/05 Q1020=
201004030545 METAR LIRA 030545Z 04003KT 9999 FEW005 05/04 Q1020=
201004030515 METAR LIRA 030515Z 05003KT 9999 FEW080 04/04 Q1020=
201004030445 METAR LIRA 030445Z 02001KT 9999 FEW080 05/04 Q1020=
201004030415 METAR LIRA 030415Z 00000KT 9999 FEW080 05/04 Q1019=
201004030345 METAR LIRA 030345Z 02001KT 9999 FEW080 05/04 Q1019=
201004030315 METAR LIRA 030315Z 02003KT 9999 FEW080 05/05 Q1019=
201004030245 METAR LIRA 030245Z 02003KT CAVOK 05/04 Q1019=
201004030215 METAR LIRA 030215Z 03003KT CAVOK 05/04 Q1019=
201004030145 METAR LIRA 030145Z 03003KT CAVOK 06/05 Q1019=
201004030115 METAR LIRA 030115Z 00000KT CAVOK 06/05 Q1019=
201004030045 METAR LIRA 030045Z 30001KT 9999 FEW080 06/04 Q1019=
201004030015 METAR LIRA 030015Z 05002KT 9999 FEW080 06/04 Q1019=
201004022350 METAR LIRA 030045Z 30001KT 9999 FEW080 06/04 Q1019=
201004022345 METAR LIRA 022345Z 00000KT 9999 FEW080 07/05 Q1019=
201004022315 METAR LIRA 022315Z 08002KT CAVOK 07/04 Q1019=
201004022300 LIRA INTER=
201004022245 METAR LIRA 022245Z 05002KT 9999 FEW070 07/05 Q1019=
201004022215 METAR LIRA 022215Z 14002KT 9999 FEW070 08/05 Q1019=
201004022145 METAR LIRA 022145Z 10004KT CAVOK 08/05 Q1019=
201004022115 METAR LIRA 022115Z 00000KT CAVOK 08/06 Q1019=
201004022045 METAR LIRA 022045Z 02001KT 9999 FEW080 09/07 Q1018=
201004022015 METAR LIRA 022015Z 14003KT CAVOK 09/07 Q1018=
201004021945 METAR LIRA 021945Z 19002KT CAVOK 10/07 Q1018=
201004021915 METAR LIRA 021915Z 19002KT 9999 FEW080 11/08 Q1018=
201004021845 METAR LIRA 021845Z 23002KT 9999 FEW080 11/08 Q1017=
201004021815 METAR LIRA 021815Z 24002KT 9999 SCT070 12/08 Q1017=
201004021745 METAR LIRA 021745Z 26003KT 9999 FEW020 SCT080 12/08 Q1017=
201004021715 METAR LIRA 021715Z 26006KT 200V300 9999 FEW020 SCT070 13/07
                        Q1017=
201004021645 METAR LIRA 021645Z 24005KT 9999 FEW020 SCT040 BKN200 12/07
                        Q1017=
201004021615 METAR LIRA 021615Z 24005KT 210V300 9999 FEW018 FEW020TCU
                        SCT080 14/05 Q1017=
201004021545 METAR LIRA 021545Z 25006KT 190V330 9999 FEW018 FEW020TCU
                        BKN200 14/05 Q1016=
201004021515 METAR LIRA 021515Z 20007KT 160V250 9999 FEW018 FEW020TCU
                        15/04 Q1016=
201004021445 METAR LIRA 021445Z 22005KT 170V300 9999 FEW018 SCT200 15/04
                        Q1016=
201004021415 METAR LIRA 021415Z 21007KT 150V250 9999 FEW018 16/05 Q1016=
201004021345 METAR LIRA 021345Z 21007KT 160V260 9999 FEW018 16/06 Q1017=
201004021315 METAR LIRA 021315Z 22009KT 170V260 9999 SCT018 SCT200 16/04
                        Q1017=
201004021245 METAR LIRA 021245Z 20006KT 160V260 9999 SCT018 16/05 Q1017=
201004021215 METAR LIRA 021215Z 22008KT 150V300 9999 SCT018 15/06 Q1017=
201004021145 METAR LIRA 021145Z 21008KT 160V260 9999 SCT017 15/06 Q1017=
201004021115 METAR LIRA 021115Z 18009KT 140V230 9999 SCT017 16/06 Q1017=
201004021045 METAR LIRA 021045Z 19009KT 160V260 9999 SCT017 15/06 Q1017=
201004021015 METAR LIRA 021015Z 18008KT 120V230 9999 SCT017 15/07 Q1017=
201004020945 METAR LIRA 020945Z 18006KT 140V240 9999 BKN017 14/08 Q1017=
201004020915 METAR LIRA 020915Z 17008KT 130V230 9999 BKN018 14/06 Q1017=
201004020845 METAR LIRA 020845Z 19008KT 150V240 9999 BKN018 13/06 Q1017=
201004020815 METAR LIRA 020815Z 18006KT 110V240 9999 SCT018 13/06 Q1017=
201004020745 METAR LIRA 020745Z 19006KT 130V250 9999 SCT018 13/07 Q1017=
201004020715 METAR LIRA 020715Z 17004KT 9999 SCT018 12/08 Q1017=
201004020645 METAR LIRA 020645Z 13005KT 9999 FEW018 12/08 Q1017=
201004020615 METAR LIRA 020615Z 13005KT 9999 FEW018 10/08 Q1016=
201004020545 METAR LIRA 020545Z 14005KT 9999 FEW018 08/07 Q1016=
201004020515 METAR LIRA 020515Z 14005KT 9999 SCT018 08/07 Q1016=
201004020445 METAR LIRA 020445Z 16002KT 9999 SCT018 08/07 Q1016=
201004020415 METAR LIRA 020415Z 14005KT 9999 SCT018 08/07 Q1015=
201004020345 METAR LIRA 020345Z 14003KT 9999 FEW018 SCT030 BKN080 08/07
                        Q1015=
201004020315 METAR LIRA 020315Z 17004KT 9999 FEW018 09/08 Q1015=
201004020245 METAR LIRA 020245Z 17004KT 9999 FEW018 09/09 Q1015=
201004020215 METAR LIRA 020215Z 18005KT 9999 FEW018 10/09 Q1015=
201004020145 METAR LIRA 020145Z 17004KT 9999 SCT018 10/09 Q1015=
201004020115 METAR LIRA 020115Z 17004KT 9999 SCT020 11/09 Q1015=
201004020045 METAR LIRA 020045Z 17006KT 9999 FEW020 SCT025 11/09 Q1016=
201004020015 METAR LIRA 020015Z 17004KT 9999 FEW025 SCT080 11/09 Q1016=
201004012350 METAR LIRA 020045Z 17006KT 9999 FEW020 SCT025 11/09 Q1016=
201004012345 METAR LIRA 012345Z 17004KT 9999 FEW025 SCT080 11/09 Q1016=
201004012315 METAR LIRA 012315Z 23005KT 170V250 9999 FEW025 SCT070 11/08
                        Q1016=
201004012245 METAR LIRA 012245Z 20004KT 9999 FEW030 11/07 Q1016=
201004012215 METAR LIRA 012215Z 19004KT 9999 FEW025 12/07 Q1016=
201004012145 METAR LIRA 012145Z 18005KT 9999 FEW030 11/08 Q1016=
201004012115 METAR LIRA 012115Z 19004KT 9999 FEW030 12/09 Q1015=
201004012045 METAR LIRA 012045Z 22003KT 9999 SCT030 SCT070 12/09 Q1015=
201004012015 METAR LIRA 012015Z 21003KT 9999 SCT030 SCT060 12/09 Q1015=
201004011945 METAR LIRA 011945Z 16006KT 9999 SCT030 SCT060 12/10 Q1015=
201004011915 METAR LIRA 011915Z 17006KT 9999 SCT030 SCT060 12/10 Q1015=
201004011845 METAR LIRA 011845Z 18007KT 9999 FEW018 SCT060 12/11 Q1015=
201004011815 METAR LIRA 011815Z 18005KT 9999 FEW018 SCT080 13/11 Q1015=
201004011745 METAR LIRA 011745Z 18005KT 9999 FEW018 FEW020TCU SCT080 13/10
                        Q1015=
201004011715 METAR LIRA 011715Z 19006KT 160V260 9999 FEW018TCU SCT080
                        14/11 Q1015=
201004011645 METAR LIRA 011645Z 21007KT 180V260 9999 FEW018TCU SCT080
                        14/11 Q1015=
201004011615 METAR LIRA 011615Z 22010KT 180V270 9999 FEW018TCU SCT080
                        14/11 Q1015=
201004011545 METAR LIRA 011545Z 22011KT 180V270 9999 SCT017 FEW020TCU
                        15/11 Q1015=
201004011445 METAR LIRA 011445Z 23010KT 170V270 9999 SCT017 17/07 Q1014=
201004011415 METAR LIRA 011415Z 23008KT 190V300 9999 SCT017 18/05 Q1015=
201004011345 METAR LIRA 011345Z 23009KT 120V240 9999 SCT017 17/05 Q1015=
201004011315 METAR LIRA 011315Z 21006KT 170V260 9999 SCT017 17/05 Q1015=
201004011245 METAR LIRA 011245Z 17010KT 130V230 9999 SCT017 17/05 Q1015=
201004011215 METAR LIRA 011215Z 18010KT 130V230 9999 SCT017 17/05 Q1015=
201004011145 METAR LIRA 011145Z 18010KT 120V230 9999 SCT020 16/04 Q1015=
201004011115 METAR LIRA 011115Z 17010KT 130V220 9999 SCT020 16/04 Q1015=
201004011045 METAR LIRA 011045Z 17011KT 130V230 9999 SCT020 16/04 Q1015=
201004011015 METAR LIRA 011015Z 16012KT 130V230 9999 SCT020 16/05 Q1015=
201004010945 METAR LIRA 010945Z 17011KT 130V230 9999 FEW020 16/05 Q1015=
201004010845 METAR LIRA 010845Z 17011KT 130V210 9999 FEW022 15/05 Q1015=
201004010815 METAR LIRA 010815Z 20005KT 150V230 CAVOK 15/05 Q1015=
201004010745 METAR LIRA 010745Z 18006KT CAVOK 14/05 Q1015=
201004010715 METAR LIRA 010715Z 30002KT CAVOK 12/07 Q1015=
201004010645 METAR LIRA 010645Z 00000KT CAVOK 12/07 Q1015=
201004010615 METAR LIRA 010615Z 13002KT CAVOK 09/06 Q1014=
201004010545 METAR LIRA 010545Z 13003KT CAVOK 08/05 Q1014=
201004010515 METAR LIRA 010515Z 11006KT CAVOK 07/05 Q1014=
201004010445 METAR LIRA 010445Z 11004KT CAVOK 07/04 Q1014=
201004010415 METAR LIRA 010415Z 14004KT CAVOK 07/04 Q1014=
201004010345 METAR LIRA 010345Z 12004KT CAVOK 07/05 Q1014=
201004010315 METAR LIRA 010315Z 15004KT CAVOK 08/05 Q1014=
201004010245 METAR LIRA 010245Z 14004KT CAVOK 08/05 Q1014=
201004010215 METAR LIRA 010215Z 14003KT CAVOK 07/04 Q1014=
201004010145 METAR LIRA 010145Z 14002KT CAVOK 08/05 Q1014=
201004010115 METAR LIRA 010115Z 15005KT 9999 FEW080 08/05 Q1014=
201004010045 METAR LIRA 010045Z 15005KT 9999 FEW080 08/05 Q1014=
201004010015 METAR LIRA 010015Z 18005KT 9999 FEW080 09/06 Q1014=

</pre>

</body>
</html>
