##########################################################
# Query made at 11/10/2014 16:49:37 UTC
# Time interval: from 04/01/2012 00:00  to 05/01/2012 23:59  UTC
##########################################################

##########################################################
# LIRA, Roma / Ciampino (Italy)
# WMO index: 16239
# Latitude 41-47N. Longitude 012-35E. Altitude 129 m.
##########################################################

###################################
#  METAR/SPECI from LIRA
###################################
201204302350 METAR LIRA 010045Z 23002KT 9999 FEW018 SCT030 BKN080 16/14
                        Q1015=
201204302345 METAR LIRA 302345Z 33002KT 9999 FEW030 BKN080 17/13 Q1015=
201204302315 METAR LIRA 302315Z 36002KT 9999 FEW030 BKN080 17/13 Q1015=
201204302245 METAR LIRA 302245Z 06005KT 9999 FEW030 BKN070 17/14 Q1015=
201204302215 METAR LIRA 302215Z 07003KT 9999 -RA FEW030 BKN070 16/14 Q1015=
201204302145 METAR LIRA 302145Z 10003KT 9999 -RA FEW030 BKN070 17/13 Q1016=
201204302115 METAR LIRA 302115Z 00000KT 9999 FEW030 BKN080 17/14 Q1016=
201204302045 METAR LIRA 302045Z 12001KT 9999 FEW030 BKN080 16/13 Q1016=
201204302015 METAR LIRA 302015Z 18001KT 9999 FEW030 17/13 Q1016=
201204301945 METAR LIRA 301945Z 21003KT 9999 FEW030 17/13 Q1016=
201204301915 METAR LIRA 301915Z 22003KT 9999 FEW030 18/12 Q1016=
201204301845 METAR LIRA 301845Z 22002KT 9999 FEW030 19/13 Q1015=
201204301815 METAR LIRA 301815Z 23003KT 9999 FEW030 19/13 Q1015=
201204301745 METAR LIRA 301745Z 22003KT 9999 FEW030 21/11 Q1015=
201204301715 METAR LIRA 301715Z 20003KT 9999 FEW030 21/12 Q1015=
201204301645 METAR LIRA 301645Z 23004KT 9999 FEW030 22/13 Q1015=
201204301615 METAR LIRA 301615Z 24006KT 9999 SCT030 22/13 Q1015=
201204301545 METAR LIRA 301545Z 24007KT 9999 FEW030 23/12 Q1015=
201204301515 METAR LIRA 301515Z 25007KT 210V280 9999 FEW030 24/13 Q1015=
201204301445 METAR LIRA 301445Z 20005KT 180V260 9999 FEW030 24/14 Q1015=
201204301415 METAR LIRA 301415Z 19005KT 160V220 9999 FEW025 24/13 Q1015=
201204301345 METAR LIRA 301345Z 20006KT 170V260 9999 FEW025 23/13 Q1015=
201204301315 METAR LIRA 301315Z 17006KT 9999 FEW030 SCT080 23/12 Q1016=
201204301245 METAR LIRA 301245Z 19006KT 150V230 9999 FEW030 SCT080 23/12
                        Q1016=
201204301215 METAR LIRA 301215Z 18007KT 150V210 9999 FEW030 SCT080 22/12
                        Q1016=
201204301145 METAR LIRA 301145Z 16007KT 9999 FEW030 SCT080 22/15 Q1016=
201204301115 METAR LIRA 301115Z 07001KT 9999 FEW030 SCT070 20/17 Q1017=
201204301045 METAR LIRA 301045Z 21002KT 9999 -RA SCT030 SCT070 20/16 Q1017=
201204301015 METAR LIRA 301015Z 17007KT 120V200 9999 -RA SCT030 SCT070
                        20/14 Q1017=
201204300945 METAR LIRA 300945Z 19007KT 9999 SCT030 SCT070 21/13 Q1017=
201204300915 METAR LIRA 300915Z 27001KT 9999 SCT030 SCT070 20/14 Q1017=
201204300845 METAR LIRA 300845Z 01001KT 9999 SCT030 SCT070 19/15 Q1017=
201204300815 METAR LIRA 300815Z 03002KT 9999 SCT035 SCT070 19/14 Q1016=
201204300745 METAR LIRA 300745Z 09002KT 9999 SCT030 SCT070 18/15 Q1016=
201204300715 METAR LIRA 300715Z 00000KT 9999 -RA SCT035 BKN070 17/15 Q1016=
201204300645 METAR LIRA 300645Z 26001KT 9999 -RA SCT035 BKN070 17/14 Q1016=
201204300615 METAR LIRA 300615Z 29001KT 9999 SCT035 BKN070 17/13 Q1016=
201204300545 METAR LIRA 300545Z 00000KT 9999 FEW040 BKN070 16/13 Q1016=
201204300515 METAR LIRA 300515Z 36002KT 9999 FEW040 BKN070 16/12 Q1016=
201204300445 METAR LIRA 300445Z 09005KT 9999 SCT040 SCT070 16/10 Q1015=
201204300415 METAR LIRA 300415Z 09006KT 9999 SCT040 SCT070 15/12 Q1015=
201204300345 METAR LIRA 300345Z 00000KT 9999 SCT070 15/12 Q1016=
201204300315 METAR LIRA 300315Z 00000KT 9999 SCT070 15/12 Q1016=
201204300245 METAR LIRA 300245Z 05003KT 9999 SCT070 SCT200 15/11 Q1016=
201204300215 METAR LIRA 300215Z 11002KT 9999 SCT070 SCT200 15/09 Q1016=
201204300145 METAR LIRA 300145Z 11002KT 9999 SCT070 15/10 Q1016=
201204300115 METAR LIRA 300115Z 08002KT 9999 SCT070 15/11 Q1016=
201204300045 METAR LIRA 300045Z 00000KT 9999 SCT070 15/12 Q1016=
201204300015 METAR LIRA 300015Z 00000KT 9999 SCT070 15/14 Q1016=
201204292350 METAR LIRA 300045Z 00000KT 9999 SCT070 15/12 Q1016=
201204292345 METAR LIRA 292345Z 17002KT 9999 FEW070 15/14 Q1016=
201204292315 METAR LIRA 292315Z 00000KT 9999 FEW035 15/13 Q1017=
201204292245 METAR LIRA 292245Z 23002KT 9999 FEW035 SCT070 16/14 Q1017=
201204292215 METAR LIRA 292215Z 22001KT 9999 FEW030 SCT070 17/14 Q1017=
201204292145 METAR LIRA 292145Z 06001KT 9999 FEW030 SCT070 17/14 Q1017=
201204292115 METAR LIRA 292115Z 06002KT 9999 FEW030 SCT070 17/14 Q1017=
201204292045 METAR LIRA 292045Z 13002KT 9999 FEW025 SCT070 17/15 Q1017=
201204292015 METAR LIRA 292015Z 11004KT 9999 FEW025 17/15 Q1016=
201204291945 METAR LIRA 291945Z 25001KT 9999 FEW025 18/15 Q1016=
201204291915 METAR LIRA 291915Z 26005KT 9999 FEW025 19/15 Q1016=
201204291845 METAR LIRA 291845Z 27005KT 9999 FEW025 18/14 Q1016=
201204291815 METAR LIRA 291815Z 12002KT 9999 FEW025 19/14 Q1016=
201204291745 METAR LIRA 291745Z 20002KT 9999 FEW030 20/14 Q1016=
201204291715 METAR LIRA 291715Z 09003KT 9999 FEW030 20/12 Q1016=
201204291645 METAR LIRA 291645Z 07006KT 030V110 9999 FEW030 20/13 Q1016=
201204291615 METAR LIRA 291615Z 07006KT 030V100 9999 FEW040 20/13 Q1017=
201204291545 METAR LIRA 291545Z 09006KT 9999 FEW040 SCT080 19/13 Q1018=
201204291515 METAR LIRA 291515Z 08003KT 9999 FEW040 SCT080 20/13 Q1018=
201204291445 METAR LIRA 291445Z 00000KT 9999 FEW040 SCT080 20/13 Q1018=
201204291415 METAR LIRA 291415Z 27003KT 9999 FEW040 SCT080 20/12 Q1019=
201204291345 METAR LIRA 291345Z 26003KT 9999 FEW040 SCT080 20/12 Q1019=
201204291315 METAR LIRA 291315Z 28004KT 9999 FEW040 SCT080 21/13 Q1019=
201204291245 METAR LIRA 291245Z 23005KT 9999 SCT080 21/12 Q1019=
201204291215 METAR LIRA 291215Z 23007KT 210V270 9999 SCT080 21/12 Q1019=
201204291145 METAR LIRA 291145Z 24007KT 220V280 9999 SCT080 21/12 Q1019=
201204291115 METAR LIRA 291115Z 25006KT 210V280 CAVOK 21/12 Q1019=
201204291045 METAR LIRA 291045Z 23008KT 200V260 CAVOK 21/12 Q1019=
201204291015 METAR LIRA 291015Z 20011KT CAVOK 22/11 Q1019=
201204290945 METAR LIRA 290945Z 20012KT CAVOK 23/11 Q1019=
201204290915 METAR LIRA 290915Z 20012KT 170V230 CAVOK 23/11 Q1019=
201204290845 METAR LIRA 290845Z 19011KT CAVOK 23/11 Q1019=
201204290815 METAR LIRA 290815Z 18010KT 9999 FEW080 23/10 Q1019=
201204290745 METAR LIRA 290745Z 17010KT 9999 FEW080 22/09 Q1019=
201204290715 METAR LIRA 290715Z 16011KT 9999 FEW080 22/09 Q1018=
201204290645 METAR LIRA 290645Z 17009KT 9999 FEW080 21/10 Q1018=
201204290615 METAR LIRA 290615Z 16010KT 9999 FEW080 21/10 Q1017=
201204290600 METAR LIRA CONTUS LOW CLDS MVG S=
201204290545 METAR LIRA 290545Z 15011KT 9999 FEW080 21/10 Q1017=
201204290515 METAR LIRA 290515Z 14010KT 9999 FEW080 20/10 Q1017=
201204290445 METAR LIRA 290445Z 14007KT 9999 FEW080 19/09 Q1016=
201204290415 METAR LIRA 290415Z 15007KT 9999 FEW080 19/10 Q1016=
201204290400 METAR LIRA INTER LOW CLDS MVG S=
201204290345 METAR LIRA 290345Z 13003KT 9999 FEW080 18/11 Q1016=
201204290315 METAR LIRA 290315Z 16003KT 9999 FEW080 19/10 Q1016=
201204290300 METAR LIRA INTER=
201204290245 METAR LIRA 290245Z 14005KT CAVOK 19/09 Q1017=
201204290215 METAR LIRA 290215Z 14004KT CAVOK 19/10 Q1016=
201204290200 METAR LIRA INTER=
201204290145 METAR LIRA 290145Z 14007KT CAVOK 20/11 Q1016=
201204290115 METAR LIRA 290115Z 12009KT CAVOK 18/12 Q1016=
201204290045 METAR LIRA 290045Z 17009KT CAVOK 18/14 Q1016=
201204290015 METAR LIRA 290015Z 19010KT CAVOK 18/13 Q1016=
201204282350 METAR LIRA 290045Z 17009KT CAVOK 18/14 Q1016=
201204282345 METAR LIRA 282345Z 22003KT CAVOK 17/14 Q1016=
201204282315 METAR LIRA 282315Z 00000KT CAVOK 17/15 Q1016=
201204282245 METAR LIRA 282245Z 09001KT CAVOK 17/15 Q1016=
201204282215 METAR LIRA 282215Z 00000KT CAVOK 17/15 Q1016=
201204282145 METAR LIRA 282145Z 23005KT 200V260 CAVOK 18/16 Q1016=
201204282115 METAR LIRA 282115Z 23004KT CAVOK 19/15 Q1016=
201204282045 METAR LIRA 282045Z 22001KT CAVOK 19/16 Q1016=
201204282015 METAR LIRA 282015Z 17002KT CAVOK 19/16 Q1016=
201204281945 METAR LIRA 281945Z 25002KT CAVOK 20/16 Q1015=
201204281915 METAR LIRA 281915Z 00000KT CAVOK 21/16 Q1015=
201204281845 METAR LIRA 281845Z 01001KT CAVOK 21/15 Q1015=
201204281815 METAR LIRA 281815Z 06003KT CAVOK 21/15 Q1015=
201204281745 METAR LIRA 281745Z 00000KT CAVOK 22/15 Q1015=
201204281715 METAR LIRA 281715Z 24005KT CAVOK 23/16 Q1015=
201204281645 METAR LIRA 281645Z 21005KT CAVOK 23/15 Q1016=
201204281615 METAR LIRA 281615Z 22005KT CAVOK 24/16 Q1016=
201204281545 METAR LIRA 281545Z 23008KT CAVOK 24/16 Q1016=
201204281515 METAR LIRA 281515Z 24008KT CAVOK 25/17 Q1016=
201204281445 METAR LIRA 281445Z 24006KT 210V270 CAVOK 25/17 Q1016=
201204281415 METAR LIRA 281415Z 23008KT CAVOK 25/17 Q1016=
201204281345 METAR LIRA 281345Z 23008KT 200V260 CAVOK 26/17 Q1016=
201204281315 METAR LIRA 281315Z 23008KT 200V270 CAVOK 26/17 Q1016=
201204281245 METAR LIRA 281245Z 23009KT 190V250 CAVOK 26/17 Q1017=
201204281215 METAR LIRA 281215Z 21009KT 170V260 CAVOK 26/17 Q1016=
201204281145 METAR LIRA 281145Z 20008KT 180V260 CAVOK 26/17 Q1016=
201204281115 METAR LIRA 281115Z 22007KT 190V260 CAVOK 26/17 Q1016=
201204281045 METAR LIRA 281045Z 20009KT 170V230 CAVOK 25/15 Q1017=
201204281015 METAR LIRA 281015Z 20010KT 170V240 CAVOK 25/15 Q1017=
201204280945 METAR LIRA 280945Z 20009KT 160V240 CAVOK 25/14 Q1017=
201204280915 METAR LIRA 280915Z 32002KT CAVOK 24/16 Q1017=
201204280845 METAR LIRA 280845Z 07001KT CAVOK 23/16 Q1017=
201204280815 METAR LIRA 280815Z 01001KT CAVOK 21/15 Q1017=
201204280745 METAR LIRA 280745Z 23001KT CAVOK 21/15 Q1017=
201204280715 METAR LIRA 280715Z 01001KT CAVOK 19/15 Q1017=
201204280645 METAR LIRA 280645Z 35002KT CAVOK 17/15 Q1017=
201204280615 METAR LIRA 280615Z 33001KT CAVOK 17/14 Q1017=
201204280545 METAR LIRA 280545Z 26002KT CAVOK 15/13 Q1017=
201204280515 METAR LIRA 280515Z 29001KT CAVOK 14/12 Q1016=
201204280445 METAR LIRA 280445Z 11001KT CAVOK 13/11 Q1016=
201204280415 METAR LIRA 280415Z 05003KT CAVOK 13/11 Q1016=
201204280345 METAR LIRA 280345Z 04005KT CAVOK 12/11 Q1016=
201204280315 METAR LIRA 280315Z 07003KT CAVOK 12/11 Q1016=
201204280245 METAR LIRA 280245Z 07004KT CAVOK 12/11 Q1016=
201204280215 METAR LIRA 280215Z 05004KT CAVOK 12/10 Q1016=
201204280145 METAR LIRA 280145Z 33002KT CAVOK 13/11 Q1016=
201204280115 METAR LIRA 280115Z 02002KT CAVOK 14/11 Q1016=
201204280045 METAR LIRA 280045Z 03003KT CAVOK 14/11 Q1017=
201204280015 METAR LIRA 280015Z 03003KT CAVOK 14/11 Q1017=
201204272350 METAR LIRA 280045Z 03003KT CAVOK 14/11 Q1017=
201204272345 METAR LIRA 272345Z 03002KT CAVOK 15/11 Q1017=
201204272315 METAR LIRA 272315Z 05003KT CAVOK 15/11 Q1017=
201204272245 METAR LIRA 272245Z 02002KT CAVOK 15/11 Q1017=
201204272215 METAR LIRA 272215Z 04003KT CAVOK 15/11 Q1017=
201204272145 METAR LIRA 272145Z 05003KT CAVOK 15/10 Q1017=
201204272115 METAR LIRA 272115Z 12002KT CAVOK 16/10 Q1018=
201204272045 METAR LIRA 272045Z 15002KT CAVOK 16/11 Q1018=
201204272015 METAR LIRA 272015Z 16001KT CAVOK 16/11 Q1018=
201204271945 METAR LIRA 271945Z 00000KT CAVOK 17/11 Q1018=
201204271915 METAR LIRA 271915Z 21001KT CAVOK 17/11 Q1018=
201204271845 METAR LIRA 271845Z 00000KT CAVOK 19/11 Q1018=
201204271815 METAR LIRA 271815Z 21002KT CAVOK 19/11 Q1018=
201204271745 METAR LIRA 271745Z 22002KT CAVOK 20/10 Q1018=
201204271715 METAR LIRA 271715Z 24003KT 9999 FEW020 22/11 Q1018=
201204271645 METAR LIRA 271645Z 24004KT 9999 FEW020TCU 22/09 Q1018=
201204271615 METAR LIRA 271615Z 27005KT 9999 FEW018TCU 23/10 Q1018=
201204271545 METAR LIRA 271545Z 23005KT 210V270 9999 FEW018TCU 23/10 Q1018=
201204271515 METAR LIRA 271515Z 23005KT 9999 FEW018 23/10 Q1018=
201204271445 METAR LIRA 271445Z 24006KT 210V280 9999 FEW018 23/10 Q1018=
201204271415 METAR LIRA 271415Z 23006KT 200V260 9999 FEW018 23/10 Q1018=
201204271345 METAR LIRA 271345Z 22007KT 190V270 9999 FEW018 24/11 Q1018=
201204271315 METAR LIRA 271315Z 22006KT 180V270 CAVOK 24/11 Q1019=
201204271245 METAR LIRA 271245Z 23006KT 200V300 CAVOK 24/11 Q1019=
201204271215 METAR LIRA 271215Z 25006KT CAVOK 24/12 Q1019=
201204271145 METAR LIRA 271145Z 24006KT 200V290 CAVOK 24/12 Q1019=
201204271115 METAR LIRA 271115Z 25007KT 220V290 CAVOK 24/12 Q1019=
201204271045 METAR LIRA 271045Z 22005KT 160V250 CAVOK 24/12 Q1019=
201204271015 METAR LIRA 271015Z 22003KT CAVOK 23/12 Q1019=
201204270945 METAR LIRA 270945Z 20003KT CAVOK 23/13 Q1019=
201204270915 METAR LIRA 270915Z 28003KT CAVOK 22/13 Q1019=
201204270845 METAR LIRA 270845Z 34003KT CAVOK 21/13 Q1019=
201204270815 METAR LIRA 270815Z 33002KT CAVOK 20/13 Q1019=
201204270745 METAR LIRA 270745Z 35002KT CAVOK 19/13 Q1019=
201204270715 METAR LIRA 270715Z 34002KT CAVOK 17/12 Q1019=
201204270645 METAR LIRA 270645Z 05001KT CAVOK 16/12 Q1019=
201204270615 METAR LIRA 270615Z 01002KT CAVOK 14/12 Q1019=
201204270545 METAR LIRA 270545Z 02001KT CAVOK 12/11 Q1019=
201204270515 METAR LIRA 270515Z 02001KT CAVOK 11/11 Q1019=
201204270445 METAR LIRA 270445Z 04002KT CAVOK 11/10 Q1019=
201204270415 METAR LIRA 270415Z 02002KT CAVOK 11/10 Q1019=
201204270345 METAR LIRA 270345Z 02002KT CAVOK 11/10 Q1019=
201204270315 METAR LIRA 270315Z 03002KT CAVOK 12/11 Q1019=
201204270245 METAR LIRA 270245Z 05002KT CAVOK 12/11 Q1019=
201204270215 METAR LIRA 270215Z 05001KT CAVOK 12/11 Q1019=
201204270145 METAR LIRA 270145Z 34002KT CAVOK 12/11 Q1019=
201204270115 METAR LIRA 270115Z 01002KT CAVOK 13/11 Q1019=
201204270045 METAR LIRA 270045Z 03002KT CAVOK 13/11 Q1019=
201204270015 METAR LIRA 270015Z 06003KT CAVOK 13/10 Q1019=
201204262350 METAR LIRA 270045Z 03002KT CAVOK 13/11 Q1019=
201204262345 METAR LIRA 262345Z 06003KT CAVOK 14/10 Q1019=
201204262315 METAR LIRA 262315Z 11001KT CAVOK 14/10 Q1020=
201204262245 METAR LIRA 262245Z 12002KT CAVOK 14/11 Q1020=
201204262215 METAR LIRA 262215Z 10003KT CAVOK 14/11 Q1020=
201204262145 METAR LIRA 262145Z 08002KT CAVOK 14/11 Q1020=
201204262115 METAR LIRA 262115Z 08004KT CAVOK 15/11 Q1020=
201204262045 METAR LIRA 262045Z 05003KT CAVOK 14/11 Q1020=
201204262015 METAR LIRA 262015Z 02002KT CAVOK 14/11 Q1020=
201204261945 METAR LIRA 261945Z 00000KT CAVOK 16/12 Q1020=
201204261915 METAR LIRA 261915Z 20003KT CAVOK 16/11 Q1020=
201204261845 METAR LIRA 261845Z 22005KT CAVOK 17/11 Q1019=
201204261815 METAR LIRA 261815Z 23005KT CAVOK 18/12 Q1019=
201204261745 METAR LIRA 261745Z 22004KT CAVOK 19/10 Q1019=
201204261715 METAR LIRA 261715Z 21006KT 180V240 CAVOK 20/10 Q1019=
201204261645 METAR LIRA 261645Z 21006KT 180V250 CAVOK 21/09 Q1019=
201204261615 METAR LIRA 261615Z 21007KT 180V250 CAVOK 21/10 Q1019=
201204261545 METAR LIRA 261545Z 21007KT 170V240 CAVOK 21/10 Q1019=
201204261515 METAR LIRA 261515Z 21009KT 180V250 CAVOK 21/10 Q1019=
201204261445 METAR LIRA 261445Z 20010KT 170V230 CAVOK 21/10 Q1019=
201204261415 METAR LIRA 261415Z 20010KT 170V240 CAVOK 21/11 Q1019=
201204261345 METAR LIRA 261345Z 21009KT 170V230 CAVOK 22/11 Q1019=
201204261315 METAR LIRA 261315Z 15009KT 160V240 CAVOK 22/11 Q1019=
201204261245 METAR LIRA 261245Z 19007KT 150V220 CAVOK 22/08 Q1019=
201204261215 METAR LIRA 261215Z 19007KT 160V230 9999 FEW080 22/08 Q1019=
201204261145 METAR LIRA 261145Z 20006KT 170V250 CAVOK 22/08 Q1020=
201204261115 METAR LIRA 261115Z 21006KT 150V250 CAVOK 21/07 Q1020=
201204261045 METAR LIRA 261045Z 19008KT 140V220 CAVOK 21/06 Q1020=
201204261015 METAR LIRA 261015Z 20008KT 150V230 CAVOK 21/08 Q1020=
201204260945 METAR LIRA 260945Z 20007KT 170V240 CAVOK 19/07 Q1020=
201204260915 METAR LIRA 260915Z 07003KT CAVOK 18/09 Q1020=
201204260845 METAR LIRA 260845Z 29001KT CAVOK 17/10 Q1020=
201204260815 METAR LIRA 260815Z 35001KT 9999 FEW080 16/10 Q1020=
201204260745 METAR LIRA 260745Z 34002KT 9999 FEW080 15/11 Q1020=
201204260715 METAR LIRA 260715Z 34003KT 9999 FEW080 14/11 Q1020=
201204260645 METAR LIRA 260645Z 32001KT 9999 FEW070 12/10 Q1020=
201204260615 METAR LIRA 260615Z 36001KT 9999 FEW080 11/09 Q1019=
201204260545 METAR LIRA 260545Z 05002KT 9999 FEW080 11/10 Q1019=
201204260515 METAR LIRA 260515Z 05002KT 9999 FEW080 09/08 Q1019=
201204260445 METAR LIRA 260445Z 10002KT 9999 FEW080 08/07 Q1018=
201204260415 METAR LIRA 260415Z 08003KT 9999 FEW080 08/07 Q1018=
201204260345 METAR LIRA 260345Z 07001KT CAVOK 08/07 Q1018=
201204260315 METAR LIRA 260315Z 08001KT CAVOK 09/08 Q1018=
201204260245 METAR LIRA 260245Z 14001KT CAVOK 08/07 Q1018=
201204260215 METAR LIRA 260215Z 00000KT CAVOK 08/07 Q1018=
201204260145 METAR LIRA 260145Z 28001KT CAVOK 09/08 Q1018=
201204260115 METAR LIRA 260115Z 28001KT CAVOK 09/08 Q1018=
201204260045 METAR LIRA 260045Z 17002KT CAVOK 09/08 Q1018=
201204260015 METAR LIRA 260015Z 16002KT CAVOK 09/07 Q1018=
201204252350 METAR LIRA 260045Z 17002KT CAVOK 09/08 Q1018=
201204252345 METAR LIRA 252345Z 15001KT CAVOK 10/08 Q1018=
201204252315 METAR LIRA 252315Z 09003KT CAVOK 10/08 Q1018=
201204252245 METAR LIRA 252245Z 11002KT CAVOK 10/09 Q1018=
201204252215 METAR LIRA 252215Z 14003KT CAVOK 10/08 Q1018=
201204252145 METAR LIRA 252145Z 15003KT 9999 FEW030 11/09 Q1018=
201204252115 METAR LIRA 252115Z 16003KT 9999 FEW030 12/09 Q1018=
201204252045 METAR LIRA 252045Z 15002KT 9999 FEW030 12/09 Q1018=
201204252015 METAR LIRA 252015Z 14003KT CAVOK 12/09 Q1018=
201204251945 METAR LIRA 251945Z 17003KT CAVOK 13/09 Q1018=
201204251915 METAR LIRA 251915Z 19003KT 9999 FEW030 13/10 Q1018=
201204251845 METAR LIRA 251845Z 20003KT 9999 FEW030 14/10 Q1017=
201204251815 METAR LIRA 251815Z 22003KT 9999 FEW030 14/09 Q1017=
201204251745 METAR LIRA 251745Z 23005KT 9999 FEW030 15/09 Q1017=
201204251715 METAR LIRA 251715Z 23005KT 9999 FEW030 16/09 Q1017=
201204251645 METAR LIRA 251645Z 22007KT 190V260 9999 FEW030 16/09 Q1017=
201204251615 METAR LIRA 251615Z 22007KT 190V260 9999 FEW022 17/09 Q1017=
201204251545 METAR LIRA 251545Z 22007KT 180V270 9999 FEW022 17/09 Q1017=
201204251515 METAR LIRA 251515Z 23007KT 190V300 9999 SCT022 17/10 Q1017=
201204251445 METAR LIRA 251445Z 24008KT 200V290 9999 SCT022 18/11 Q1016=
201204251415 METAR LIRA 251415Z 23008KT 9999 SCT022 18/11 Q1016=
201204251345 METAR LIRA 251345Z 22008KT 180V260 9999 SCT022 18/11 Q1016=
201204251315 METAR LIRA 251315Z 21007KT 160V270 9999 SCT022 18/11 Q1016=
201204251245 METAR LIRA 251245Z 22009KT 180V270 9999 SCT024 18/11 Q1016=
201204251215 METAR LIRA 251215Z 20009KT 180V240 9999 SCT025 18/11 Q1016=
201204251145 METAR LIRA 251145Z 20008KT 150V250 9999 SCT025 18/11 Q1015=
201204251115 METAR LIRA 251115Z 21006KT 160V260 9999 SCT025 18/10 Q1015=
201204251045 METAR LIRA 251045Z 21009KT 170V250 9999 SCT025 18/10 Q1015=
201204251015 METAR LIRA 251015Z 21009KT 170V250 9999 BKN025 18/10 Q1015=
201204250945 METAR LIRA 250945Z 16008KT 130V190 9999 SCT015 17/08 Q1015=
201204250915 METAR LIRA 250915Z 18009KT 140V220 9999 SCT015 17/09 Q1015=
201204250845 METAR LIRA 250845Z 18009KT 140V210 9999 SCT014 16/09 Q1015=
201204250815 METAR LIRA 250815Z 19008KT 160V220 9999 SCT014 16/10 Q1015=
201204250745 METAR LIRA 250745Z 21005KT 9999 SCT014 16/10 Q1014=
201204250715 METAR LIRA 250715Z 20003KT 9999 SCT014 15/11 Q1014=
201204250645 METAR LIRA 250645Z 11002KT 9999 SCT020 15/11 Q1013=
201204250615 METAR LIRA 250615Z 12002KT 9999 FEW020 13/11 Q1013=
201204250545 METAR LIRA 250545Z 13003KT 9999 FEW018 12/11 Q1012=
201204250515 METAR LIRA 250515Z 15001KT 9999 FEW018 11/10 Q1012=
201204250445 METAR LIRA 250445Z 17003KT 9999 FEW016 11/10 Q1011=
201204250415 METAR LIRA 250415Z 17005KT 9999 FEW014 11/10 Q1011=
201204250345 METAR LIRA 250345Z 18003KT 9999 FEW014 11/10 Q1010=
201204250315 METAR LIRA 250315Z 19003KT 9999 FEW014 12/11 Q1010=
201204250245 METAR LIRA 250245Z 19004KT 9999 FEW016 SCT018 12/11 Q1010=
201204250215 METAR LIRA 250215Z 18004KT 9999 FEW016 FEW017TCU SCT020 12/11
                        Q1009=
201204250145 METAR LIRA 250145Z 19004KT 9999 FEW016 FEW017TCU SCT020 12/11
                        Q1009=
201204250115 METAR LIRA 250115Z 18004KT 9999 FEW016 FEW017TCU SCT020 12/11
                        Q1008=
201204250045 METAR LIRA 250045Z 18006KT 9999 FEW016 FEW017TCU SCT020 12/10
                        Q1008=
201204250015 METAR LIRA 250015Z 17005KT 030V190 9999 FEW020 BKN030 12/10
                        Q1009=
201204242350 METAR LIRA 250045Z 18006KT 9999 FEW016 FEW017TCU SCT020 12/10
                        Q1008=
201204242345 METAR LIRA 242345Z 15008KT 9999 FEW020 SCT030 11/10 Q1008=
201204242315 METAR LIRA 242315Z 15006KT 9999 FEW020 11/10 Q1008=
201204242245 METAR LIRA 242245Z 17007KT 9999 FEW020 12/10 Q1008=
201204242215 METAR LIRA 242215Z 17005KT 9999 FEW015 SCT020 BKN030 13/10
                        Q1008=
201204242145 METAR LIRA 242145Z 19004KT 9999 FEW015 SCT020 BKN030 13/10
                        Q1008=
201204242115 METAR LIRA 242115Z 18004KT 9999 FEW015 SCT020 BKN030 13/10
                        Q1008=
201204242045 METAR LIRA 242045Z 21004KT 160V230 9999 FEW015 SCT020 13/10
                        Q1008=
201204242015 METAR LIRA 242015Z 18007KT 9999 FEW015 SCT020 13/12 Q1008=
201204241945 METAR LIRA 241945Z 18006KT 9999 FEW015 SCT025 13/12 Q1008=
201204241915 METAR LIRA 241915Z 20006KT 9999 FEW015 SCT025 13/12 Q1008=
201204241845 METAR LIRA 241845Z 23007KT 190V280 9999 FEW018TCU SCT025
                        13/12 Q1008=
201204241815 METAR LIRA 241815Z 20007KT 9999 -RA FEW018TCU SCT025 13/12
                        Q1007=
201204241745 METAR LIRA 241745Z 20008KT 9999 -RA FEW018TCU SCT025 14/12
                        Q1007=
201204241715 METAR LIRA 241715Z 19008KT 160V230 9999 -RA SCT018 BKN025
                        14/12 Q1007=
201204241645 METAR LIRA 241645Z 22007KT 9999 FEW017TCU SCT018 BKN030 14/12
                        Q1007=
201204241615 METAR LIRA 241615Z 21009KT 9999 FEW017TCU SCT018 BKN030 15/13
                        Q1007=
201204241545 METAR LIRA 241545Z 20011KT 9999 FEW017TCU SCT018 BKN030 15/14
                        Q1007=
201204241515 METAR LIRA 241515Z 20009KT 170V240 9999 FEW017TCU SCT018
                        BKN025 16/13 Q1007=
201204241445 METAR LIRA 241445Z 19011KT 9999 FEW017TCU SCT018 BKN025 16/13
                        Q1007=
201204241415 METAR LIRA 241415Z 20012KT 9999 FEW017TCU SCT018 BKN025 16/13
                        Q1007=
201204241345 METAR LIRA 241345Z 20011KT 180V240 9999 SCT017 FEW018TCU
                        SCT025 17/13 Q1007=
201204241315 METAR LIRA 241315Z 21012KT 170V250 9999 SCT016 FEW017TCU
                        SCT025 17/12 Q1007=
201204241245 METAR LIRA 241245Z 19013KT 9999 SCT014 FEW015TCU SCT025 17/12
                        Q1007=
201204241215 METAR LIRA 241215Z 19013KT 8000 SCT014 FEW015TCU SCT025 17/12
                        Q1007=
201204241145 METAR LIRA 241145Z 19015KT 8000 SCT014 FEW015TCU SCT025 17/13
                        Q1007=
201204241115 METAR LIRA 241115Z 19015KT 8000 SCT013 FEW014TCU SCT025 17/13
                        Q1007=
201204241045 METAR LIRA 241045Z 19014KT 8000 SCT013 FEW014CB SCT025 16/12
                        Q1007=
201204241015 METAR LIRA 241015Z 19014KT 8000 SCT013 FEW014CB SCT025 16/12
                        Q1007=
201204240945 METAR LIRA 240945Z 17015KT 8000 SCT013 FEW014TCU SCT025 16/13
                        Q1007=
201204240915 METAR LIRA 240915Z 17015KT 8000 SCT013 FEW014TCU SCT025 17/13
                        Q1007=
201204240845 METAR LIRA 240845Z 17018KT 8000 SCT013 FEW014TCU SCT025 16/13
                        Q1007=
201204240815 METAR LIRA 240815Z 17015KT 8000 SCT013 FEW014TCU 16/13 Q1007=
201204240745 METAR LIRA 240745Z 16017KT 8000 SCT013 FEW014TCU 16/13 Q1007=
201204240715 METAR LIRA 240715Z 17016KT 8000 FEW012 16/13 Q1007=
201204240645 METAR LIRA 240645Z 15016KT 8000 FEW012 15/12 Q1007=
201204240615 METAR LIRA 240615Z 15016KT 8000 FEW012 15/12 Q1007=
201204240545 METAR LIRA 240545Z 14015KT 8000 FEW012 SCT070 14/12 Q1007=
201204240515 METAR LIRA 240515Z 17013KT 8000 FEW012 14/12 Q1008=
201204240445 METAR LIRA 240445Z 17010KT 9999 FEW030 SCT070 13/11 Q1008=
201204240415 METAR LIRA 240415Z 16009KT 9999 FEW030 SCT070 13/11 Q1008=
201204240345 METAR LIRA 240345Z 16006KT 9999 SCT080 12/10 Q1008=
201204240315 METAR LIRA 240315Z 14005KT 9999 SCT080 11/09 Q1009=
201204240245 METAR LIRA 240245Z 13002KT 9999 SCT080 11/09 Q1009=
201204240215 METAR LIRA 240215Z 16002KT 9999 SCT080 11/09 Q1009=
201204240145 METAR LIRA 240145Z 13002KT 9999 SCT080 11/08 Q1009=
201204240115 METAR LIRA 240115Z 14005KT 9999 SCT080 11/08 Q1010=
201204240045 METAR LIRA 240045Z 14005KT 9999 FEW005 SCT070 11/08 Q1010=
201204232350 METAR LIRA 240045Z 14005KT 9999 FEW005 SCT070 11/08 Q1010=
201204232345 METAR LIRA 232345Z 15005KT 9999 FEW005 10/05 Q1011=
201204232315 METAR LIRA 232315Z 15005KT 9999 FEW005 SCT070 10/04 Q1011=
201204232245 METAR LIRA 232245Z 17004KT 9999 FEW080 12/03 Q1011=
201204232215 METAR LIRA 232215Z 16004KT 9999 FEW080 12/03 Q1011=
201204232145 METAR LIRA 232145Z 17004KT CAVOK 12/03 Q1011=
201204232115 METAR LIRA 232115Z 18004KT CAVOK 12/03 Q1011=
201204232045 METAR LIRA 232045Z 16004KT CAVOK 12/05 Q1011=
201204232015 METAR LIRA 232015Z 17005KT 9999 FEW030 13/09 Q1011=
201204231945 METAR LIRA 231945Z 16006KT 9999 FEW030 13/11 Q1011=
201204231915 METAR LIRA 231915Z 17005KT 9999 FEW030 13/11 Q1011=
201204231845 METAR LIRA 231845Z 20007KT CAVOK 13/11 Q1010=
201204231815 METAR LIRA 231815Z 20006KT 9999 FEW030 13/11 Q1010=
201204231745 METAR LIRA 231745Z 20006KT 170V240 9999 FEW030 15/12 Q1010=
201204231715 METAR LIRA 231715Z 20008KT 9999 FEW030 15/11 Q1010=
201204231645 METAR LIRA 231645Z 20009KT 9999 FEW023 16/12 Q1010=
201204231615 METAR LIRA 231615Z 22007KT 180V250 9999 FEW023 16/11 Q1010=
201204231545 METAR LIRA 231545Z 18009KT 9999 FEW023 17/08 Q1010=
201204231515 METAR LIRA 231515Z 21009KT 170V240 9999 FEW023 17/10 Q1010=
201204231445 METAR LIRA 231445Z 21009KT 180V250 9999 FEW023 17/09 Q1011=
201204231415 METAR LIRA 231415Z 19010KT 160V220 9999 FEW023 17/08 Q1010=
201204231345 METAR LIRA 231345Z 21010KT 170V260 9999 FEW017 18/09 Q1011=
201204231315 METAR LIRA 231315Z 23009KT 190V250 9999 FEW017 18/08 Q1011=
201204231245 METAR LIRA 231245Z 20009KT 160V250 9999 FEW017 18/07 Q1011=
201204231215 METAR LIRA 231215Z 22009KT 200V260 9999 FEW017 18/09 Q1011=
201204231145 METAR LIRA 231145Z 21008KT 170V250 9999 FEW017 18/11 Q1011=
201204231115 METAR LIRA 231115Z 22010KT 190V250 9999 FEW017 SCT060 18/10
                        Q1011=
201204231045 METAR LIRA 231045Z 20012KT 180V250 9999 SCT017 SCT060 18/10
                        Q1011=
201204231015 METAR LIRA 231015Z 20010KT 170V240 9999 SCT017 SCT060 18/12
                        Q1011=
201204230945 METAR LIRA 230945Z 20010KT 160V240 9999 FEW014 SCT017 18/12
                        Q1011=
201204230915 METAR LIRA 230915Z 20008KT 130V250 9999 FEW014 SCT017 18/13
                        Q1011=
201204230845 METAR LIRA 230845Z 18009KT 140V210 8000 FEW013 SCT017 17/13
                        Q1011=
201204230815 METAR LIRA 230815Z 19008KT 170V240 7000 FEW010 FEW016TCU
                        SCT017 16/14 Q1012=
201204230745 METAR LIRA 230745Z 18009KT 7000 FEW010 FEW016TCU SCT017 15/14
                        Q1012=
201204230715 METAR LIRA 230715Z 18010KT 7000 FEW010 FEW016TCU SCT017 15/14
                        Q1012=
201204230645 METAR LIRA 230645Z 17010KT 7000 FEW010 FEW016TCU SCT080 15/14
                        Q1012=
201204230615 METAR LIRA 230615Z 17009KT 9999 FEW010 FEW016TCU SCT070 15/13
                        Q1012=
201204230545 METAR LIRA 230545Z 15009KT 9999 FEW010 SCT030 15/13 Q1012=
201204230515 METAR LIRA 230515Z 15012KT 9999 FEW010 SCT017 BKN030 14/13
                        Q1012=
201204230445 METAR LIRA 230445Z 16009KT 9999 FEW010 SCT017 BKN030 14/13
                        Q1012=
201204230415 METAR LIRA 230415Z 17009KT 9999 -DZ FEW018 BKN025 14/13 Q1012=
201204230345 METAR LIRA 230345Z 18007KT 9999 -DZ FEW018 BKN025 13/12 Q1012=
201204230315 METAR LIRA 230315Z 16011KT 9999 SCT018 SCT025 13/12 Q1012=
201204230245 METAR LIRA 230245Z 17010KT 130V220 9999 SCT018 SCT030 14/11
                        Q1012=
201204230215 METAR LIRA 230215Z 17011KT 9999 SCT018 SCT030 14/11 Q1012=
201204230145 METAR LIRA 230145Z 16011KT 9999 FEW018 SCT030 14/12 Q1013=
201204230115 METAR LIRA 230115Z 17011KT 9999 FEW018 SCT030 14/12 Q1013=
201204230045 METAR LIRA 230045Z 18010KT 9999 FEW018 SCT030 14/12 Q1013=
201204230015 METAR LIRA 230015Z 19009KT 9999 FEW018 SCT030 14/12 Q1013=
201204222350 METAR LIRA 230045Z 18010KT 9999 FEW018 SCT030 14/12 Q1013=
201204222345 METAR LIRA 222345Z 18010KT 9999 FEW018 SCT030 14/12 Q1013=
201204222315 METAR LIRA 222315Z 17011KT 9999 SCT018 SCT030 14/12 Q1014=
201204222245 METAR LIRA 222245Z 17009KT 9999 SCT018 SCT030 14/12 Q1014=
201204222215 METAR LIRA 222215Z 18008KT 9999 FEW018 14/12 Q1014=
201204222145 METAR LIRA 222145Z 17008KT 140V210 9999 FEW018 14/12 Q1014=
201204222115 METAR LIRA 222115Z 17008KT 9999 FEW015 SCT030 14/12 Q1014=
201204222045 METAR LIRA 222045Z 18009KT 9999 SCT015 SCT030 14/13 Q1014=
201204222015 METAR LIRA 222015Z 18008KT 150V210 9999 SCT015 SCT030 14/13
                        Q1014=
201204221945 METAR LIRA 221945Z 19009KT 9999 SCT015 SCT030 14/13 Q1013=
201204221915 METAR LIRA 221915Z 19009KT 9999 SCT015 FEW020TCU SCT030 15/13
                        Q1013=
201204221845 METAR LIRA 221845Z 18009KT 9999 SCT015 FEW020TCU SCT030 15/13
                        Q1013=
201204221815 METAR LIRA 221815Z 18010KT 9999 SCT015 FEW020TCU SCT025 15/13
                        Q1013=
201204221745 METAR LIRA 221745Z 19009KT 9999 FEW015 SCT070 15/13 Q1012=
201204221715 METAR LIRA 221715Z 14013KT 9999 FEW018 SCT070 16/13 Q1012=
201204221645 METAR LIRA 221645Z 18010KT 160V220 9999 FEW015 SCT070 17/13
                        Q1013=
201204221615 METAR LIRA 221615Z 18010KT 9999 FEW018 SCT070 17/12 Q1013=
201204221545 METAR LIRA 221545Z 19010KT 150V230 9999 FEW018 SCT070 17/12
                        Q1013=
201204221515 METAR LIRA 221515Z 18009KT 9999 FEW015 BKN080 18/13 Q1013=
201204221445 METAR LIRA 221445Z 19009KT 160V230 9999 FEW015 SCT080 18/12
                        Q1013=
201204221415 METAR LIRA 221415Z 20011KT 150V220 9999 SCT018 18/11 Q1013=
201204221345 METAR LIRA 221345Z 21010KT 160V240 9999 SCT017 FEW018TCU
                        18/13 Q1013=
201204221315 METAR LIRA 221315Z 20012KT 9999 SCT017 FEW018TCU 18/13 Q1013=
201204221245 METAR LIRA 221245Z 21013KT 180V240 9999 SCT017 FEW018TCU
                        SCT030 18/13 Q1013=
201204221215 METAR LIRA 221215Z 19010KT 160V230 9999 SCT017 18/14 Q1013=
201204221145 METAR LIRA 221145Z 19012KT 160V220 9999 SCT017 18/13 Q1013=
201204221115 METAR LIRA 221115Z 19012KT 170V230 9999 SCT017 18/13 Q1013=
201204221045 METAR LIRA 221045Z 20011KT 160V220 9999 SCT017 18/13 Q1013=
201204221015 METAR LIRA 221015Z 19010KT 150V220 9999 FEW017 SCT030 18/13
                        Q1013=
201204220945 METAR LIRA 220945Z 18014KT 9999 FEW017 SCT030 18/13 Q1013=
201204220915 METAR LIRA 220915Z 17015KT 9999 FEW017 SCT070 18/12 Q1013=
201204220845 METAR LIRA 220845Z 16013KT 9999 FEW017 SCT070 17/13 Q1013=
201204220815 METAR LIRA 220815Z 16013KT 9999 FEW017 SCT070 17/13 Q1013=
201204220745 METAR LIRA 220745Z 17013KT 9999 FEW017 16/13 Q1013=
201204220715 METAR LIRA 220715Z 17010KT 9999 FEW017 16/14 Q1013=
201204220700 METAR LIRA INTER CB W=
201204220645 METAR LIRA 220645Z 19006KT 160V230 9999 FEW015 SCT030 15/14
                        Q1013=
201204220615 METAR LIRA 220615Z 17009KT 9999 FEW015 SCT030 14/13 Q1013=
201204220600 METAR LIRA INTER CB NW/NE/SE/W=
201204220545 METAR LIRA 220545Z 19008KT 9999 FEW015 SCT030 14/13 Q1013=
201204220515 METAR LIRA 220515Z 19006KT 9999 FEW015 14/13 Q1013=
201204220445 METAR LIRA 220445Z 19003KT 9999 FEW015 13/12 Q1013=
201204220415 METAR LIRA 220415Z 16006KT 9999 FEW015 13/13 Q1013=
201204220345 METAR LIRA 220345Z 18006KT 9999 FEW015 14/13 Q1013=
201204220315 METAR LIRA 220315Z 17009KT 9999 FEW013 14/13 Q1013=
201204220245 METAR LIRA 220245Z 17007KT 9999 FEW013 14/13 Q1013=
201204220215 METAR LIRA 220215Z 18007KT 150V210 9999 FEW013 14/13 Q1013=
201204220145 METAR LIRA 220145Z 17007KT 9999 FEW013 SCT018 14/13 Q1013=
201204220115 METAR LIRA 220115Z 16009KT 9999 FEW013 SCT060 14/13 Q1013=
201204220045 METAR LIRA 220045Z 17009KT 9999 SCT013 SCT060 14/13 Q1013=
201204220015 METAR LIRA 220015Z 17010KT 9999 SCT012 SCT018 15/13 Q1013=
201204212350 METAR LIRA 220045Z 17009KT 9999 SCT013 SCT060 14/13 Q1013=
201204212345 METAR LIRA 212345Z 17010KT 9999 FEW004 SCT018 15/13 Q1013=
201204212315 METAR LIRA 212315Z 16012G22KT 9999 FEW004 SCT018 15/13 Q1013=
201204212245 METAR LIRA 212245Z 16013KT 9999 FEW012 SCT018 15/13 Q1013=
201204212215 METAR LIRA 212215Z 17014KT 9999 FEW012 SCT018 15/13 Q1013=
201204212145 METAR LIRA 212145Z 17013KT 9999 FEW016 SCT018 15/13 Q1013=
201204212115 METAR LIRA 212115Z 17015KT 9999 FEW016 SCT022 15/13 Q1013=
201204212045 METAR LIRA 212045Z 17014KT 9999 FEW016 FEW020TCU SCT023 14/13
                        Q1013=
201204212015 METAR LIRA 212015Z 16013KT 9999 FEW016 FEW020TCU SCT023 15/13
                        Q1013=
201204211945 METAR LIRA 211945Z 16011KT 9999 SCT016 SCT060 14/12 Q1013=
201204211915 METAR LIRA 211915Z 19009KT 150V230 9999 FEW016 15/13 Q1013=
201204211845 METAR LIRA 211845Z 17011KT 9999 FEW016 15/13 Q1013=
201204211815 METAR LIRA 211815Z 17010KT 9999 FEW016 15/12 Q1013=
201204211745 METAR LIRA 211745Z 17010KT 120V190 9999 FEW016 SCT025 16/12
                        Q1013=
201204211715 METAR LIRA 211715Z 18010KT 9999 FEW016 SCT025 16/11 Q1013=
201204211645 METAR LIRA 211645Z 18010KT 9999 FEW018TCU SCT020 17/12 Q1013=
201204211615 METAR LIRA 211615Z 20010KT 9999 SCT020 17/11 Q1013=
201204211545 METAR LIRA 211545Z 19008KT 9999 SCT025 17/11 Q1013=
201204211515 METAR LIRA 211515Z 21009KT 170V250 9999 SCT025 17/10 Q1013=
201204211445 METAR LIRA 211445Z 20008KT 170V250 9999 SCT025 17/11 Q1013=
201204211415 METAR LIRA 211415Z 22008KT 180V250 9999 FEW015 SCT025 18/11
                        Q1013=
201204211345 METAR LIRA 211345Z 21007KT 180V240 9999 FEW015 SCT025 17/11
                        Q1013=
201204211315 METAR LIRA 211315Z 24008KT 9999 FEW015 SCT025 17/11 Q1013=
201204211245 METAR LIRA 211245Z 24008KT 9999 FEW015 BKN025 17/11 Q1013=
201204211215 METAR LIRA 211215Z 23009KT 190V270 9999 FEW015 BKN025 17/11
                        Q1013=
201204211145 METAR LIRA 211145Z 23010KT 180V260 9999 FEW015 BKN025 17/12
                        Q1013=
201204211115 METAR LIRA 211115Z 23010KT 9999 FEW015 BKN025 16/12 Q1012=
201204211045 METAR LIRA 211045Z 23008KT 190V260 9999 FEW015 BKN025 17/12
                        Q1012=
201204211015 METAR LIRA 211015Z 23009KT 180V260 9999 FEW015 BKN025 17/11
                        Q1012=
201204210945 METAR LIRA 210945Z 20009KT 170V240 9999 FEW015 SCT025 17/11
                        Q1012=
201204210915 METAR LIRA 210915Z 21007KT 180V260 9999 FEW015 BKN025 16/11
                        Q1012=
201204210845 METAR LIRA 210845Z 20007KT 150V260 9999 FEW015 BKN023 15/12
                        Q1012=
201204210815 METAR LIRA 210815Z 21007KT 9999 FEW015 BKN023 14/11 Q1012=
201204210745 METAR LIRA 210745Z 21004KT 9999 FEW015 BKN023 14/12 Q1011=
201204210715 METAR LIRA 210715Z 21005KT 180V240 9999 BKN015 13/11 Q1011=
201204210645 METAR LIRA 210645Z 17005KT 9999 SCT015 13/11 Q1010=
201204210615 METAR LIRA 210615Z 17006KT 9999 SCT015 13/11 Q1010=
201204210545 METAR LIRA 210545Z 17006KT 9999 FEW015 11/10 Q1009=
201204210515 METAR LIRA 210515Z 16004KT 9999 FEW015 09/08 Q1009=
201204210445 METAR LIRA 210445Z 15005KT 9999 FEW015 09/08 Q1008=
201204210415 METAR LIRA 210415Z 16004KT 9999 FEW020 SCT070 09/08 Q1008=
201204210345 METAR LIRA 210345Z 17002KT 9999 FEW020 09/08 Q1008=
201204210315 METAR LIRA 210315Z 15005KT 9999 SCT015 10/09 Q1007=
201204210245 METAR LIRA 210245Z 16003KT 9999 FEW015 FEW020TCU SCT030 10/09
                        Q1008=
201204210215 METAR LIRA 210215Z 16004KT 9999 FEW017 FEW020TCU 10/09 Q1007=
201204210145 METAR LIRA 210145Z 16004KT 9999 SCT017 FEW020TCU 11/10 Q1007=
201204210115 METAR LIRA 210115Z 17002KT 9999 -RA SCT017 FEW020TCU BKN030
                        11/10 Q1007=
201204210045 METAR LIRA 210045Z 20004KT 9999 -RA SCT017 FEW020TCU BKN030
                        11/10 Q1007=
201204210015 METAR LIRA 210015Z 19005KT 9999 SCT017 FEW020TCU SCT030 11/10
                        Q1007=
201204202350 METAR LIRA 210045Z 20004KT 9999 -RA SCT017 FEW020TCU BKN030
                        11/10 Q1007=
201204202345 METAR LIRA 202345Z 18004KT 9999 SCT018 FEW025TCU SCT030 11/10
                        Q1007=
201204202315 METAR LIRA 202315Z 17005KT 9999 SCT018 FEW025TCU SCT030 11/10
                        Q1007=
201204202245 METAR LIRA 202245Z 18004KT 9999 SCT018 FEW025TCU SCT030 11/10
                        Q1007=
201204202215 METAR LIRA 202215Z 18004KT 9999 SCT018 FEW025TCU SCT030 11/10
                        Q1007=
201204202145 METAR LIRA 202145Z 18005KT 9999 SCT018 FEW025TCU SCT030 11/10
                        Q1007=
201204202115 METAR LIRA 202115Z 17005KT 9999 SCT017 FEW025TCU SCT030 11/10
                        Q1007=
201204202045 METAR LIRA 202045Z 17005KT 9999 SCT018 FEW025TCU SCT030 11/10
                        Q1007=
201204202015 METAR LIRA 202015Z 18004KT 9999 FEW018 FEW025TCU SCT030 11/10
                        Q1006=
201204201945 METAR LIRA 201945Z 18005KT 9999 SCT018 FEW025TCU SCT030 11/10
                        Q1006=
201204201915 METAR LIRA 201915Z 17004KT 9999 FEW020 11/10 Q1005=
201204201845 METAR LIRA 201845Z 21003KT 9999 FEW020 12/10 Q1005=
201204201815 METAR LIRA 201815Z 25003KT 9999 FEW020 13/10 Q1004=
201204201745 METAR LIRA 201745Z 25005KT 220V310 9999 FEW020 FEW025TCU
                        13/09 Q1004=
201204201715 METAR LIRA 201715Z 26009KT 200V290 9999 FEW018 FEW020TCU
                        SCT030 15/09 Q1003=
201204201645 METAR LIRA 201645Z 27008KT 200V300 9999 FEW018 FEW020TCU
                        SCT030 15/09 Q1003=
201204201615 METAR LIRA 201615Z 26009KT 220V300 9999 FEW018TCU SCT020
                        15/07 Q1003=
201204201545 METAR LIRA 201545Z 27008KT 210V310 9999 FEW018TCU SCT020
                        15/08 Q1002=
201204201515 METAR LIRA 201515Z 26008KT 210V310 9999 FEW018TCU SCT020
                        15/08 Q1002=
201204201445 METAR LIRA 201445Z 25008KT 200V290 9999 FEW018TCU SCT020
                        15/09 Q1002=
201204201415 METAR LIRA 201415Z 24009KT 210V290 9999 FEW018TCU SCT020
                        15/10 Q1001=
201204201345 METAR LIRA 201345Z 24011KT 210V270 9999 FEW017TCU SCT020
                        15/11 Q1001=
201204201315 METAR LIRA 201315Z 24009KT 220V280 9999 FEW013 FEW015TCU
                        SCT020 14/10 Q1001=
201204201245 METAR LIRA 201245Z 24005KT 200V280 9999 FEW013 FEW015CB SCT020
                        14/12 Q1001=
201204201215 METAR LIRA 201215Z 22008KT 170V250 8000 -RA SCT013TCU FEW014CB
                        SCT020 13/11 Q1001=
201204201145 METAR LIRA 201145Z 24012KT 210V280 9999 -RA SCT013TCU FEW014CB
                        SCT020 14/11 Q1001=
201204201115 METAR LIRA 201115Z 24010G20KT 200V290 9999 SCT014TCU SCT020
                        14/11 Q1001 RETS REGR=
201204201045 METAR LIRA 201045Z 11004KT 8000 -TSRA FEW010 SCT014CB 12/10
                        Q1001 REGR=
201204201015 METAR LIRA 201015Z 06002KT 9999 -TSRA FEW010CB SCT014CB 11/09
                        Q1001 REGR=
201204200945 METAR LIRA 200945Z 24002KT 9999 -TSRA FEW010 SCT014CB BKN020
                        12/09 Q1001 REGR=
201204200915 METAR COR LIRA 200915Z 22002KT 9999 TSGR FEW010 SCT014CB
                        12/10 Q1001=
201204200845 METAR LIRA 200845Z 22004KT 9999 SHGR FEW010 FEW015TCU FEW020CB
                        SCT023 12/10 Q1001=
201204200815 METAR LIRA 200815Z 19005KT 9999 FEW015TCU FEW018CB SCT023
                        12/11 Q1000=
201204200745 METAR LIRA 200745Z 20003KT 8000 -RA SCT015TCU FEW018CB SCT025
                        12/10 Q1000=
201204200715 METAR LIRA 200715Z 21004KT 170V270 8000 -RA SCT015TCU FEW017CB
                        SCT025 12/10 Q1000=
201204200645 METAR LIRA 200645Z 12005KT 9999 FEW015TCU FEW017CB SCT024
                        11/11 Q1000=
201204200615 METAR LIRA 200615Z 10004KT 9999 -RA FEW014TCU FEW017CB SCT023
                        11/10 Q1000=
201204200545 METAR LIRA 200545Z 07003KT 9000 FEW014TCU FEW015CB SCT020
                        10/10 Q1000=
201204200515 METAR LIRA 200515Z 06003KT 9000 -RA FEW006 FEW014TCU FEW018CB
                        SCT020 10/10 Q0999=
201204200445 METAR LIRA 200445Z 36004KT 9000 -RA FEW006 FEW012TCU FEW017CB
                        SCT020 10/10 Q0999=
201204200415 METAR LIRA 200415Z 21002KT 9999 FEW013TCU FEW017CB SCT020
                        11/10 Q0999=
201204200345 METAR LIRA 200345Z 19007KT 9999 FEW017CB SCT018 11/10 Q0999=
201204200315 METAR LIRA 200315Z 17006KT 9999 FEW017CB SCT018 11/10 Q0999
                        RETS=
201204200245 METAR LIRA 200245Z 16007KT 9000 FEW016CB SCT017 11/10 Q0999
                        RETS=
201204200215 METAR LIRA 200215Z 18007KT 8000 -TSRA FEW016CB SCT017 11/10
                        Q0999=
201204200145 METAR LIRA 200145Z 17009KT 7000 -TSRA FEW016CB SCT017 11/10
                        Q0999=
201204200115 METAR LIRA 200115Z 15003KT 7000 -TSRA FEW016CB SCT017 11/10
                        Q0999=
201204200045 METAR LIRA 200045Z 15009KT 9999 -TSRA FEW016CB SCT017 11/10
                        Q0999=
201204200015 METAR LIRA 200015Z 17010KT 9999 -RA SCT017 FEW020TCU SCT030
                        11/10 Q0999=
201204192350 METAR LIRA 200045Z 15009KT 9999 -TSRA FEW016CB SCT017 11/10
                        Q0999=
201204192345 METAR LIRA 192345Z 17008KT 9999 FEW018 FEW020TCU SCT070 11/10
                        Q1000=
201204192315 METAR LIRA 192315Z 16007KT 9999 SCT018 SCT030 12/10 Q1000=
201204192245 METAR LIRA 192245Z 18004KT 9999 SCT018 SCT030 11/10 Q1000=
201204192215 METAR LIRA 192215Z 16005KT 9999 FEW018 SCT030 11/10 Q1000=
201204192145 METAR LIRA 192145Z 14003KT 9999 FEW017 FEW020TCU SCT030 11/09
                        Q1000=
201204192115 METAR LIRA 192115Z 15005KT 9999 FEW017 FEW020TCU SCT030 11/10
                        Q1000=
201204192045 METAR LIRA 192045Z 16004KT 9000 -RA SCT018 FEW020CB SCT030
                        12/10 Q1000=
201204192015 METAR LIRA 192015Z 16005KT 130V190 9000 -RA SCT018 FEW020CB
                        SCT030 12/10 Q1000=
201204191945 METAR LIRA 191945Z 15005KT 9000 -RA SCT018 FEW020CB SCT030
                        12/10 Q1000=
201204191915 METAR LIRA 191915Z 15005KT 9000 -RA FEW018 FEW020CB SCT030
                        12/09 Q1000=
201204191845 METAR LIRA 191845Z 14005KT 9000 -RA SCT018 FEW020CB SCT025
                        12/10 Q0999=
201204191815 METAR LIRA 191815Z 15004KT 8000 -RA SCT017 FEW018CB BKN025
                        12/11 Q0999=
201204191745 METAR LIRA 191745Z 20005KT 8000 -RA SCT015 SCT017CB 12/11
                        Q0999=
201204191715 METAR LIRA 191715Z 16014G24KT 5000 BR -SHRA SCT012 SCT015CB
                        12/11 Q0999=
201204191645 METAR LIRA 191645Z 16011KT 9999 SCT016 SCT018CB 14/10 Q0999=
201204191615 METAR LIRA 191615Z 17011KT 9999 SCT016 FEW018CB 15/10 Q0999=
201204191545 METAR LIRA 191545Z 19012KT 160V220 9999 FEW017 FEW020TCU
                        SCT030 15/09 Q0999=
201204191515 METAR LIRA 191515Z 19012KT 160V230 9999 SCT017 FEW020TCU
                        15/10 Q0999=
201204191445 METAR LIRA 191445Z 20011KT 170V240 9999 SCT018 FEW020TCU
                        15/08 Q0999=
201204191415 METAR LIRA 191415Z 20011KT 9999 SCT018 FEW020TCU 16/08 Q1000=
201204191315 METAR LIRA 191315Z 19013KT 140V220 9999 SCT018 FEW020TCU
                        16/08 Q1000=
201204191245 METAR LIRA 191245Z 19012KT 160V230 9999 SCT018 FEW020TCU
                        16/08 Q1000=
201204191215 METAR LIRA 191215Z 21011KT 180V260 9999 SCT018 FEW020TCU
                        15/07 Q1000=
201204191145 METAR LIRA 191145Z 21010KT 170V230 9999 SCT018 FEW020TCU
                        16/08 Q1000=
201204191115 METAR LIRA 191115Z 20011KT 160V230 9999 SCT017 FEW020TCU
                        16/10 Q1000=
201204191045 METAR LIRA 191045Z 19012KT 160V230 9999 SCT017 FEW020TCU
                        15/10 Q1000=
201204191015 METAR LIRA 191015Z 21010KT 170V240 9999 SCT016 FEW020TCU
                        15/10 Q1000=
201204190945 METAR LIRA 190945Z 21010KT 170V250 9999 FEW015 FEW020TCU
                        SCT030 15/10 Q1000=
201204190915 METAR LIRA 190915Z 21008KT 160V250 9999 FEW015 FEW020TCU
                        SCT030 14/11 Q1000=
201204190845 METAR LIRA 190845Z 18008KT 140V220 9999 FEW015 FEW020TCU
                        SCT030 14/11 Q1000=
201204190815 METAR LIRA 190815Z 18008KT 150V210 9999 FEW015 FEW020TCU
                        SCT030 13/11 Q1000=
201204190745 METAR LIRA 190745Z 19007KT 130V220 9999 FEW017 FEW020TCU
                        SCT030 BKN070 13/11 Q1000=
201204190715 METAR LIRA 190715Z 18007KT 9999 FEW017 FEW020TCU SCT030 BKN070
                        13/10 Q1000=
201204190645 METAR LIRA 190645Z 17007KT 9999 FEW017 FEW020TCU SCT030 13/11
                        Q1000=
201204190615 METAR LIRA 190615Z 15007KT 9999 FEW017 FEW020TCU SCT030 12/10
                        Q1000=
201204190545 METAR LIRA 190545Z 15006KT 9999 FEW018 SCT030 12/11 Q0999=
201204190515 METAR LIRA 190515Z 15007KT 9999 FEW017 SCT030 11/10 Q0999=
201204190445 METAR LIRA 190445Z 17005KT 9999 FEW017 SCT030 11/10 Q0999=
201204190415 METAR LIRA 190415Z 16005KT 9999 FEW018 SCT030 11/10 Q0999=
201204190345 METAR LIRA 190345Z 17007KT 9999 FEW018 SCT070 11/10 Q1000=
201204190315 METAR LIRA 190315Z 17006KT 9999 FEW018 SCT030 11/10 Q1000=
201204190245 METAR LIRA 190245Z 17004KT 9999 FEW018 SCT030 11/10 Q1000=
201204190215 METAR LIRA 190215Z 18004KT 9999 FEW018 FEW020CB SCT030 11/10
                        Q0999=
201204190145 METAR LIRA 190145Z 19003KT 9999 FEW018 FEW020CB SCT030 11/10
                        Q0999=
201204190115 METAR LIRA 190115Z 18004KT 9999 FEW018 FEW020CB SCT030 11/10
                        Q0999=
201204190045 METAR LIRA 190045Z 18005KT 9999 FEW018 FEW020CB SCT070 11/10
                        Q0999=
201204190015 METAR LIRA 190015Z 18005KT 9999 FEW018 FEW020CB SCT070 11/10
                        Q1000=
201204182350 METAR LIRA 190045Z 18005KT 9999 FEW018 FEW020CB SCT070 11/10
                        Q0999=
201204182345 METAR LIRA 182345Z 18008KT 150V220 9999 FEW018 FEW020CB SCT070
                        11/10 Q1000=
201204182315 METAR LIRA 182315Z 15007KT 9999 FEW015 FEW018CB SCT070 11/10
                        Q1000 RETS=
201204182245 METAR LIRA 182245Z 16015KT 9999 SCT015 FEW018CB SCT022 11/10
                        Q0999 RETS=
201204182215 METAR LIRA 182215Z 15017G28KT 7000 -TSRA SCT015 FEW018CB
                        BKN022 11/10 Q0999=
201204182145 METAR LIRA 182145Z 15009KT 7000 -TSRA SCT015 FEW018CB BKN022
                        11/10 Q1000=
201204182115 METAR LIRA 182115Z 16010KT 7000 -RA SCT015 BKN022 12/10 Q1001=
201204182045 METAR LIRA 182045Z 15010KT 9999 -RA SCT015 SCT030 BKN070
                        12/11 Q1001=
201204182015 METAR LIRA 182015Z 15009KT 9999 -RA SCT015 SCT030 BKN070
                        12/11 Q1001=
201204181945 METAR LIRA 181945Z 16008KT 9999 -RA SCT015 SCT030 BKN070
                        12/11 Q1001=
201204181915 METAR LIRA 181915Z 15005KT 9999 -RA SCT015 SCT030 BKN080
                        12/11 Q1001=
201204181845 METAR LIRA 181845Z 13004KT 9999 -RA SCT015 SCT030 BKN080
                        12/10 Q1001=
201204181815 METAR LIRA 181815Z 13004KT 9999 SCT015 SCT030 BKN070 12/10
                        Q1001=
201204181745 METAR LIRA 181745Z 18004KT 9999 SCT015 SCT030 BKN080 12/10
                        Q1001=
201204181715 METAR LIRA 181715Z 19002KT 8000 -RA SCT015 SCT028 12/10 Q1001=
201204181645 METAR LIRA 181645Z 23006KT 8000 -RA SCT015 SCT022 13/11 Q1001=
201204181615 METAR LIRA 181615Z 24006KT 210V280 8000 -RA SCT015 SCT022
                        13/12 Q1001=
201204181545 METAR LIRA 181545Z 25008KT 200V310 9999 SCT016 15/11 Q1001=
201204181515 METAR LIRA 181515Z 23008KT 200V260 9999 SCT016 15/12 Q1001=
201204181445 METAR LIRA 181445Z 23010KT 9999 SCT016 16/11 Q1002=
201204181415 METAR LIRA 181415Z 22010KT 180V260 9999 SCT018 16/11 Q1002=
201204181345 METAR LIRA 181345Z 22010KT 180V250 9999 SCT018 17/10 Q1002=
201204181315 METAR LIRA 181315Z 21010KT 180V270 9999 SCT018 17/10 Q1002=
201204181245 METAR LIRA 181245Z 23009KT 170V270 9999 SCT018 17/10 Q1002=
201204181215 METAR LIRA 181215Z 24008KT 200V310 9999 SCT018 17/11 Q1002=
201204181145 METAR LIRA 181145Z 24009KT 210V280 9999 FEW017TCU SCT018
                        17/11 Q1002=
201204181115 METAR LIRA 181115Z 26006KT 190V300 9999 FEW017TCU SCT018
                        17/10 Q1002=
201204181045 METAR LIRA 181045Z 26006KT 190V300 9999 BKN018 17/08 Q1002=
201204181015 METAR LIRA 181015Z 24003KT 9999 SCT018 17/08 Q1002=
201204180945 METAR LIRA 180945Z 29003KT 9999 SCT018 16/07 Q1002=
201204180915 METAR LIRA 180915Z 31003KT 9999 FEW018 15/09 Q1003=
201204180845 METAR LIRA 180845Z 32002KT 9999 FEW018 15/10 Q1002=
201204180815 METAR LIRA 180815Z 33002KT 9999 FEW018 14/10 Q1002=
201204180745 METAR LIRA 180745Z 05003KT 9000 NSC 13/11 Q1002=
201204180715 METAR LIRA 180715Z 01005KT 350V050 8000 FEW080 12/10 Q1002=
201204180645 METAR LIRA 180645Z 04004KT 8000 NSC 11/10 Q1002=
201204180615 METAR LIRA 180615Z 04005KT 8000 FEW070 10/09 Q1002=
201204180545 METAR LIRA 180545Z 35001KT 8000 FEW070 09/07 Q1003=
201204180515 METAR LIRA 180515Z 00000KT 8000 FEW010 08/06 Q1002=
201204180445 METAR LIRA 180445Z 00000KT 7000 MIFG FEW005 07/06 Q1002=
201204180415 METAR LIRA 180415Z 31001KT 8000 FEW006 08/07 Q1002=
201204180345 METAR LIRA 180345Z 05001KT 9999 FEW070 08/06 Q1002=
201204180315 METAR LIRA 180315Z 08004KT 9999 SCT070 08/06 Q1002=
201204180245 METAR LIRA 180245Z 05001KT 9999 FEW030 SCT070 08/07 Q1003=
201204180215 METAR LIRA 180215Z 00000KT 9999 FEW030 SCT070 09/07 Q1003=
201204180145 METAR LIRA 180145Z 06002KT 9999 FEW030 SCT070 09/08 Q1003=
201204180115 METAR LIRA 180115Z 15002KT 9999 FEW030 10/08 Q1003=
201204180045 METAR LIRA 180045Z 15002KT 9999 FEW030 09/08 Q1004=
201204180015 METAR LIRA 180015Z 16002KT 9999 FEW030 SCT070 10/08 Q1004=
201204172350 METAR LIRA 180045Z 15002KT 9999 FEW030 09/08 Q1004=
201204172345 METAR LIRA 172345Z 18003KT 9999 FEW030 SCT070 10/09 Q1004=
201204172315 METAR LIRA 172315Z 17002KT 9999 FEW070 10/08 Q1004=
201204172245 METAR LIRA 172245Z 17003KT 9999 FEW070 10/09 Q1005=
201204172215 METAR LIRA 172215Z 18004KT 9999 SCT070 11/10 Q1005=
201204172145 METAR LIRA 172145Z 17006KT 9999 FEW070 11/10 Q1005=
201204172115 METAR LIRA 172115Z 17005KT 9999 FEW018 11/10 Q1005=
201204172045 METAR LIRA 172045Z 17006KT 9999 FEW070 11/10 Q1005=
201204172015 METAR LIRA 172015Z 18008KT 9999 FEW018 12/11 Q1005=
201204171945 METAR LIRA 171945Z 17009KT 9999 FEW018 12/11 Q1005=
201204171915 METAR LIRA 171915Z 17010KT 9999 FEW018 FEW020TCU 12/11 Q1004=
201204171845 METAR LIRA 171845Z 19009KT 9999 9999 FEW018 13/11 Q1004=
201204171815 METAR LIRA 171815Z 17010KT 9999 FEW018 13/11 Q1004=
201204171745 METAR LIRA 171745Z 19008KT 9999 FEW018 FEW023TCU 14/12 Q1004=
201204171715 METAR LIRA 171715Z 18010KT 9999 FEW018 FEW022TCU 14/11 Q1004=
201204171645 METAR LIRA 171645Z 18009KT 150V230 9999 FEW018 FEW020CB 14/11
                        Q1004=
201204171615 METAR LIRA 171615Z 18013KT 9999 FEW018 FEW020CB 14/11 Q1004=
201204171545 METAR LIRA 171545Z 17014KT 9999 FEW017 FEW018CB 14/12 Q1004=
201204171515 METAR LIRA 171515Z 18016KT 9999 SCT017 FEW018CB 14/12 Q1004=
201204171445 METAR LIRA 171445Z 18013KT 9999 SCT017 FEW018CB 14/10 Q1004=
201204171415 METAR LIRA 171415Z 18013KT 9999 SCT017 FEW018CB 13/09 Q1004=
201204171345 METAR LIRA 171345Z 17016KT 9999 SCT017 FEW018CB 15/09 Q1004=
201204171315 METAR LIRA 171315Z 17015KT 9999 SCT017 FEW018CB 15/10 Q1004=
201204171245 METAR LIRA 171245Z 17002KT 9999 SCT017 FEW018CB SCT030 17/07
                        Q1004=
201204171215 METAR LIRA 171215Z 01004KT 9999 SCT017 FEW018CB SCT080 18/08
                        Q1004=
201204171145 METAR LIRA 171145Z 07004KT 9999 FEW017 FEW018CB 18/09 Q1004=
201204171115 METAR LIRA 171115Z 17003KT 340V060 9999 FEW017 FEW018TCU
                        17/08 Q1005=
201204171045 METAR LIRA 171045Z 02004KT 9999 FEW017 FEW018TCU 16/08 Q1005=
201204171015 METAR LIRA 171015Z 35004KT 9999 FEW017 FEW018TCU 16/09 Q1005=
201204170945 METAR LIRA 170945Z 04004KT 010V090 9999 FEW018 15/09 Q1005=
201204170915 METAR LIRA 170915Z 02007KT 350V070 9999 FEW018 SCT080 14/09
                        Q1005=
201204170845 METAR LIRA 170845Z 03006KT 350V090 9999 FEW018 SCT080 14/10
                        Q1005=
201204170815 METAR LIRA 170815Z 02007KT 350V050 9999 FEW018 SCT080 13/10
                        Q1005=
201204170745 METAR LIRA 170745Z 01004KT 9999 FEW018 SCT080 12/09 Q1004=
201204170715 METAR LIRA 170715Z 36004KT 9999 FEW018 BKN080 11/10 Q1004=
201204170645 METAR LIRA 170645Z 03003KT 9999 FEW018 BKN080 10/09 Q1004=
201204170615 METAR LIRA 170615Z 03003KT 9999 FEW018 BKN080 10/09 Q1003=
201204170545 METAR LIRA 170545Z 00000KT 9999 FEW018 SCT080 09/08 Q1003=
201204170515 METAR LIRA 170515Z 02002KT 9999 FEW018 SCT080 09/08 Q1003=
201204170445 METAR LIRA 170445Z 03003KT 9999 FEW018 SCT080 09/08 Q1003=
201204170415 METAR LIRA 170415Z 02001KT 9999 FEW018 09/08 Q1003=
201204170345 METAR LIRA 170345Z 03002KT 9999 FEW018 09/08 Q1003=
201204170315 METAR LIRA 170315Z 05002KT 9999 FEW006 09/08 Q1003=
201204170245 METAR LIRA 170245Z 05003KT 9999 FEW006 09/08 Q1003=
201204170215 METAR LIRA 170215Z 01003KT 9999 FEW006 09/09 Q1003=
201204170145 METAR LIRA 170145Z 00000KT 9999 FEW006 10/09 Q1003=
201204170115 METAR LIRA 170115Z 00000KT 9999 SCT080 10/09 Q1003=
201204170045 METAR LIRA 170045Z 02001KT 9999 SCT080 10/09 Q1003=
201204170015 METAR LIRA 170015Z 34001KT 9999 FEW006 SCT060 11/10 Q1003=
201204162350 METAR LIRA 170045Z 02001KT 9999 SCT080 10/09 Q1003=
201204162345 METAR LIRA 162345Z 02001KT 9999 FEW006 SCT060 11/10 Q1003=
201204162315 METAR LIRA 162315Z 03001KT 9999 FEW007 SCT060 11/10 Q1003=
201204162245 METAR LIRA 162245Z 02002KT 9999 FEW018 SCT060 12/10 Q1003=
201204162215 METAR LIRA 162215Z 00000KT 9999 SCT030 SCT070 13/11 Q1003=
201204162145 METAR LIRA 162145Z 14003KT 9999 FEW018 SCT030 13/11 Q1003=
201204162115 METAR LIRA 162115Z 16005KT 9999 FEW018 SCT030 13/10 Q1003=
201204162045 METAR LIRA 162045Z 17005KT 9999 FEW018 SCT030 13/11 Q1002=
201204162015 METAR LIRA 162015Z 19007KT 9999 FEW018 FEW020TCU SCT030 14/11
                        Q1002=
201204161945 METAR LIRA 161945Z 18005KT 160V220 9999 FEW012 SCT020TCU
                        14/11 Q1002 RETS=
201204161915 METAR LIRA 161915Z 15005KT 9999 FEW012 SCT017CB 14/11 Q1002
                        RETS=
201204161845 METAR LIRA 161845Z 16005KT 9999 TS FEW012 SCT018CB 14/11
                        Q1002=
201204161815 METAR LIRA 161815Z 20005KT 9999 VCTS FEW017 SCT018CB 14/11
                        Q1001=
201204161745 METAR LIRA 161745Z 20003KT 9999 SCT017 FEW020CB SCT070 15/11
                        Q1001=
201204161715 METAR LIRA 161715Z 24003KT 9999 SCT017 FEW020CB SCT070 15/11
                        Q1001=
201204161645 METAR LIRA 161645Z 28005KT 230V310 9999 SCT018 FEW020CB SCT070
                        15/11 Q1001=
201204161615 METAR LIRA 161615Z 28008KT 250V310 9999 SCT018 FEW020CB SCT070
                        16/10 Q1001=
201204161545 METAR LIRA 161545Z 27009KT 190V300 9999 SCT018 FEW020CB SCT070
                        16/09 Q1000=
201204161515 METAR LIRA 161515Z 27008G18KT 9999 SCT018 FEW020TCU 16/09
                        Q1000=
201204161445 METAR LIRA 161445Z 27010KT 220V310 9999 SCT018 FEW022TCU
                        16/10 Q1001=
201204161415 METAR LIRA 161415Z 26010KT 210V300 9999 SCT018 FEW022TCU
                        16/10 Q1001=
201204161345 METAR LIRA 161345Z 26008KT 200V300 9999 SCT018 FEW022TCU
                        16/09 Q1001=
201204161315 METAR LIRA 161315Z 27009KT 230V320 9999 SCT018 FEW022TCU
                        16/09 Q1001=
201204161245 METAR LIRA 161245Z 29008KT 240V340 9999 SCT018 16/08 Q1001=
201204161215 METAR LIRA 161215Z 29007KT 9999 SCT018 16/07 Q1001=
201204161145 METAR LIRA 161145Z 23004KT 150V290 9999 SCT018 16/07 Q1001=
201204161115 METAR LIRA 161115Z 35003KT 9999 SCT018 16/08 Q1001=
201204161100 METAR LIRA W=
201204161045 METAR LIRA 161045Z 14002KT 9999 SCT018 16/09 Q1002=
201204161015 METAR LIRA 161015Z 33004KT 9999 SCT018 15/08 Q1002=
201204160945 METAR LIRA 160945Z 04003KT 330V040 9999 SCT018 15/09 Q1002=
201204160915 METAR LIRA 160915Z 34003KT 300V030 CAVOK 14/11 Q1002=
201204160845 METAR LIRA 160845Z 33004KT 300V020 9999 SCT018 14/11 Q1002=
201204160815 METAR LIRA 160815Z 34003KT 9999 FEW018 13/09 Q1002=
201204160745 METAR LIRA 160745Z 02003KT 9999 FEW018 12/10 Q1002=
201204160715 METAR LIRA 160715Z 01003KT 9999 FEW018 11/10 Q1002=
201204160645 METAR LIRA 160645Z 04002KT 9999 FEW018 10/09 Q1002=
201204160615 METAR LIRA 160615Z 04003KT 9999 FEW005 10/09 Q1002=
201204160545 METAR LIRA 160545Z 06003KT 9999 FEW005 08/07 Q1002=
201204160515 METAR LIRA 160515Z 07001KT 9999 FEW005 07/06 Q1001=
201204160445 METAR LIRA 160445Z 00000KT 9999 MIFG FEW001 07/06 Q1001=
201204160415 METAR LIRA 160415Z 30001KT 9999 0400 R15/0400 MIFG FEW001
                        07/06 Q1001=
201204160345 METAR LIRA 160345Z 31001KT 9999 FEW001 08/07 Q1001=
201204160315 METAR LIRA 160315Z 05003KT 9999 FEW020 SCT070 08/07 Q1001=
201204160245 METAR LIRA 160245Z 05004KT 9999 FEW020 SCT070 09/08 Q1001=
201204160215 METAR LIRA 160215Z 04002KT 9999 FEW016 SCT070 09/08 Q1001=
201204160145 METAR LIRA 160145Z 34002KT 9999 FEW015 SCT030 10/09 Q1001=
201204160115 METAR LIRA 160115Z 35001KT 9999 FEW015 SCT030 10/09 Q1002=
201204160045 METAR LIRA 160045Z 36002KT 9999 FEW014 SCT030 10/09 Q1002=
201204160015 METAR LIRA 160015Z 02002KT 8000 -RA FEW014 SCT030 10/09 Q1002=
201204152350 METAR LIRA 160045Z 36002KT 9999 FEW014 SCT030 10/09 Q1002=
201204152345 METAR LIRA 152345Z 03003KT 8000 -RA FEW005 SCT030 10/09 Q1002=
201204152315 METAR LIRA 152315Z 01002KT 8000 -RA FEW005 SCT014 10/09 Q1002=
201204152245 METAR LIRA 152245Z 03003KT 8000 -RA FEW005 SCT014 BKN030
                        10/09 Q1001=
201204152215 METAR LIRA 152215Z 04001KT 8000 -RA SCT014 BKN030 11/10 Q1001=
201204152145 METAR LIRA 152145Z 04003KT 8000 -RA FEW005 SCT014 BKN030
                        11/10 Q1001=
201204152115 METAR LIRA 152115Z 36002KT 9999 -RA FEW012 SCT015 BKN030
                        11/10 Q1001=
201204152045 METAR LIRA 152045Z 33001KT 9999 -RA FEW012 SCT015 BKN030
                        11/10 Q1001=
201204152015 METAR LIRA 152015Z 02001KT 9999 -RA FEW012 SCT015 BKN030
                        11/10 Q1002=
201204151945 METAR LIRA 151945Z 03002KT 9999 -RA SCT012 BKN030 11/10 Q1001=
201204151915 METAR LIRA 151915Z 01001KT 9999 -RA SCT012 BKN034 11/10 Q1001=
201204151845 METAR LIRA 151845Z 00000KT 9999 -RA SCT014 BKN034 11/10 Q1000=
201204151815 METAR LIRA 151815Z 04003KT 9999 -RA FEW015 SCT034 11/10 Q1000=
201204151745 METAR LIRA 151745Z 02002KT 9999 -RA FEW015 SCT034 11/10 Q1000=
201204151715 METAR LIRA 151715Z 05003KT 9999 -RA FEW015 BKN035 11/10 Q0999=
201204151645 METAR LIRA 151645Z 07004KT 9999 -RA SCT015 BKN035 11/10 Q0999=
201204151615 METAR LIRA 151615Z 10005KT 9999 -RA FEW015 FEW020TCU BKN035
                        11/10 Q0999 RERA=
201204151545 METAR LIRA 151545Z 08004KT 9999 -RA FEW015 FEW020TCU BKN035
                        11/11 Q0999 RERA=
201204151515 METAR LIRA 151515Z 13003KT 8000 RA SCT012 FEW014TCU SCT040
                        11/10 Q0999=
201204151445 METAR LIRA 151445Z 21005KT 7000 RA SCT012 FEW014TCU SCT050
                        13/11 Q0999=
201204151415 METAR LIRA 151415Z 12002KT 9999 -RA SCT013 FEW014TCU SCT050
                        13/10 Q0999=
201204151345 METAR LIRA 151345Z 19004KT 9999 -RA SCT013 FEW014TCU BKN050
                        13/10 Q0999=
201204151315 METAR LIRA 151315Z 20006KT 170V240 9999 -RA FEW013 SCT018
                        BKN050 13/10 Q0999=
201204151245 METAR LIRA 151245Z 20005KT 9999 -RA SCT018 FEW020CB SCT050
                        13/10 Q0999=
201204151215 METAR LIRA 151215Z 12005KT 9999 -RA SCT018 FEW020CB SCT050
                        13/09 Q0999=
201204151145 METAR LIRA 151145Z 12009KT 9999 -RA FEW013 FEW014CB SCT020
                        14/08 Q0999=
201204151115 METAR LIRA 151115Z 15009KT 110V190 9999 SCT013 FEW014CB SCT020
                        15/08 Q0999=
201204151045 METAR LIRA 151045Z 19007KT 9999 FEW013 FEW014CB SCT020 15/07
                        Q0999=
201204151015 METAR LIRA 151015Z 18007KT 140V220 9999 SCT013 FEW014CB SCT020
                        15/07 Q0999=
201204150945 METAR LIRA 150945Z 19008KT 160V230 9999 SCT013 FEW014TCU
                        SCT020 15/08 Q0999=
201204150915 METAR LIRA 150915Z 18006KT 140V210 9999 SCT013 FEW014TCU
                        SCT020 14/07 Q0999=
201204150845 METAR LIRA 150845Z 17006KT 9999 SCT013 FEW014TCU 14/07 Q0999=
201204150815 METAR LIRA 150815Z 18009KT 150V210 9999 BKN013 FEW014TCU
                        14/09 Q0998=
201204150745 METAR LIRA 150745Z 19006KT 160V220 9999 BKN013 FEW014TCU
                        14/09 Q0998=
201204150715 METAR LIRA 150715Z 19006KT 170V230 9999 SCT013 FEW014TCU
                        13/09 Q0998=
201204150645 METAR LIRA 150645Z 16005KT 9999 FEW014 FEW017TCU 11/09 Q0998=
201204150615 METAR LIRA 150615Z 16005KT 9999 FEW013 FEW016CB 10/08 Q0998=
201204150545 METAR LIRA 150545Z 17007KT 9999 SCT013 FEW016CB 10/09 Q0998=
201204150515 METAR LIRA 150515Z 15003KT 9999 FEW016 FEW017CB 09/08 Q0998=
201204150445 METAR LIRA 150445Z 14006KT 9999 FEW016 FEW017TCU 09/08 Q0997=
201204150415 METAR LIRA 150415Z 17004KT 9999 SCT016 FEW017TCU 09/08 Q0997=
201204150345 METAR LIRA 150345Z 15003KT 9999 SCT016 FEW017TCU 09/08 Q0997=
201204150315 METAR LIRA 150315Z 15003KT 9999 FEW016 08/08 Q0997=
201204150245 METAR LIRA 150245Z 16001KT 9999 SCT016 09/08 Q0997=
201204150215 METAR LIRA 150215Z 16003KT 9999 SCT015 SCT060 11/09 Q0997=
201204150145 METAR LIRA 150145Z 17002KT 9999 SCT015 SCT060 11/09 Q0997=
201204150115 METAR LIRA 150115Z 17002KT 9999 SCT015 11/09 Q0997=
201204150045 METAR LIRA 150045Z 17003KT 9999 FEW015 SCT030 11/09 Q0997=
201204150015 METAR LIRA 150015Z 18003KT 9999 FEW015 FEW018TCU SCT030 11/09
                        Q0997=
201204142350 METAR LIRA 150045Z 17003KT 9999 FEW015 SCT030 11/09 Q0997=
201204142345 METAR LIRA 142345Z 17002KT 9999 FEW015 FEW018TCU SCT030 11/10
                        Q0997=
201204142315 METAR LIRA 142315Z 18002KT 9999 FEW014 FEW017CB SCT025 11/09
                        Q0997=
201204142245 METAR LIRA 142245Z 18003KT 9999 SCT014 FEW016CB SCT025 11/09
                        Q0997=
201204142215 METAR LIRA 142215Z 18003KT 9999 SCT014 FEW016CB SCT025 11/09
                        Q0997=
201204142145 METAR LIRA 142145Z 18003KT 9999 SCT015 FEW017CB SCT025 11/09
                        Q0997=
201204142115 METAR LIRA 142115Z 20003KT 9999 SCT016 FEW017TCU SCT025 11/09
                        Q0997=
201204142045 METAR LIRA 142045Z 19003KT 9999 FEW015 FEW016TCU SCT060 11/09
                        Q0997=
201204142015 METAR LIRA 142015Z 19003KT 9999 FEW015 FEW016TCU SCT070 11/09
                        Q0996=
201204141945 METAR LIRA 141945Z 19002KT 9999 FEW015 FEW016TCU SCT070 11/09
                        Q0996=
201204141915 METAR LIRA 141915Z 22002KT 9999 FEW015 FEW016TCU SCT070 11/09
                        Q0996=
201204141845 METAR LIRA 141845Z 23003KT 9999 SCT015 SCT080 11/09 Q0996=
201204141815 METAR LIRA 141815Z 26004KT 9999 SCT014 SCT070 11/09 Q0995=
201204141745 METAR LIRA 141745Z 26006KT 9999 SCT014 FEW018CB SCT070 12/10
                        Q0995=
201204141715 METAR LIRA 141715Z 28008KT 240V310 9999 SCT015 FEW017CB SCT070
                        12/09 Q0994=
201204141645 METAR LIRA 141645Z 27008KT 240V300 9999 SCT015 FEW017CB 13/09
                        Q0994=
201204141615 METAR LIRA 141615Z 27009KT 240V340 9999 -RA SCT015 FEW017CB
                        12/09 Q0994=
201204141545 METAR LIRA 141545Z 26008KT 220V310 9999 -RA FEW014 FEW018CB
                        BKN025 13/09 Q0993=
201204141515 METAR LIRA 141515Z 27009KT 230V300 9999 -RA FEW014 FEW018CB
                        BKN025 12/09 Q0993=
201204141445 METAR LIRA 141445Z 28005KT 9999 -RA FEW014 FEW018TCU BKN025
                        12/10 Q0993=
201204141415 METAR LIRA 141415Z 29005KT 250V320 9999 FEW014 FEW022TCU
                        BKN025 12/10 Q0993=
201204141345 METAR LIRA 141345Z 27004KT 9999 SCT012 BKN023 13/11 Q0993=
201204141315 METAR LIRA 141315Z 28005KT 9999 SCT012 BKN023 13/12 Q0993=
201204141245 METAR LIRA 141245Z 30005KT 9000 -RA SCT012 BKN022 12/11 Q0993=
201204141215 METAR LIRA 141215Z 27005KT 5000 -RA BR FEW005 SCT012 BKN022
                        11/11 Q0993=
201204141145 METAR LIRA 141145Z 26003KT 4000 -RA BR FEW005 SCT012 BKN022
                        11/11 Q0992=
201204141115 METAR LIRA 141115Z 25004KT 4000 -RA BR FEW004 SCT012 BKN022
                        11/11 Q0992=
201204141045 METAR LIRA 141045Z 26003KT 4000 -RA BR FEW004 SCT012 BKN022
                        12/11 Q0992=
201204141015 METAR LIRA 141015Z 28004KT 4000 -RA BR FEW005 SCT012 BKN023
                        12/11 Q0992=
201204140945 METAR LIRA 140945Z 29003KT 4000 -RA BR FEW004 SCT012 BKN023
                        11/11 Q0991=
201204140915 METAR LIRA 140915Z 29005KT 4000 -RA BR FEW004 SCT012 BKN023
                        11/11 Q0991=
201204140845 METAR LIRA 140845Z 29004KT 250V320 4000 -RA BR FEW004 SCT012
                        BKN023 11/10 Q0991=
201204140815 METAR LIRA 140815Z 27003KT 9000 4000S -RA BR FEW004 SCT012
                        BKN025 11/10 Q0990=
201204140745 METAR LIRA 140745Z 27004KT 9000 4000S -RA BR FEW004 SCT012
                        BKN023 11/10 Q0990=
201204140715 METAR LIRA 140715Z 27004KT 3000 -RA BR FEW003 SCT012 BKN023
                        10/10 Q0989=
201204140645 METAR LIRA 140645Z 27002KT 3000 -RA BR FEW003 SCT012 BKN025
                        10/10 Q0989=
201204140615 METAR LIRA 140615Z 25001KT 3000 -RA BR FEW004 SCT012 BKN025
                        10/10 Q0989=
201204140545 METAR LIRA 140545Z 26001KT 3000 -RA BR FEW004 SCT012 BKN025
                        10/09 Q0989=
201204140515 METAR LIRA 140515Z 00000KT 4000 -RA BR FEW004 SCT012 BKN025
                        10/09 Q0989=
201204140445 METAR LIRA 140445Z 00000KT 5000 -RA BR FEW004 SCT012 BKN025
                        10/09 Q0989=
201204140415 METAR LIRA 140415Z 00000KT 5000 -RA BR FEW004 SCT012 BKN025
                        10/09 Q0988=
201204140345 METAR LIRA 140345Z 00000KT 5000 -RA BR FEW012 BKN025 10/09
                        Q0988=
201204140315 METAR LIRA 140315Z 00000KT 5000 -RA BR FEW012 BKN025 10/09
                        Q0988=
201204140245 METAR LIRA 140245Z 05002KT 5000 -RA BR FEW012 BKN025 10/09
                        Q0988=
201204140215 METAR LIRA 140215Z 03002KT 5000 RA BR FEW012 BKN025 10/09
                        Q0988=
201204140145 METAR LIRA 140145Z 34003KT 5000 RA BR FEW012 BKN025 10/09
                        Q0988=
201204140115 METAR LIRA 140115Z 35003KT 5000 -RA BR FEW012 BKN025 10/09
                        Q0988=
201204140045 METAR LIRA 140045Z 01003KT 7000 -RA SCT025 BKN070 10/09 Q0988=
201204140015 METAR LIRA 140015Z 05003KT 9999 -RA SCT025 BKN080 10/09 Q0988=
201204132350 METAR LIRA 140045Z 01003KT 7000 -RA SCT025 BKN070 10/09 Q0988=
201204132345 METAR LIRA 132345Z 03003KT 9999 SCT025 SCT080 10/09 Q0989=
201204132315 METAR LIRA 132315Z 01004KT 9999 SCT025 SCT080 10/09 Q0989=
201204132245 METAR LIRA 132245Z 36004KT 9999 SCT025 SCT080 10/09 Q0989=
201204132215 METAR LIRA 132215Z 35006KT 8000 SCT025 SCT080 10/10 Q0989=
201204132145 METAR LIRA 132145Z 35007KT 340V030 8000 SCT017 SCT022 10/10
                        Q0989=
201204132115 METAR LIRA 132115Z 01006KT 8000 SCT017 SCT022 11/10 Q0989=
201204132045 METAR LIRA 132045Z 04009KT 8000 -RA SCT015 BKN020 11/10 Q0990=
201204132015 METAR LIRA 132015Z 02010KT 340V050 8000 -RA SCT015 BKN022
                        10/10 Q0990=
201204131945 METAR LIRA 131945Z 02007KT 340V050 7000 -RA SCT012 BKN020
                        10/10 Q0990=
201204131915 METAR LIRA 131915Z 03008KT 360V080 7000 -RA SCT012 BKN020
                        10/10 Q0990=
201204131845 METAR LIRA 131845Z 03008KT 360V070 7000 -RA SCT012 BKN020
                        10/10 Q0990=
201204131815 METAR LIRA 131815Z 02008KT 350V060 5000 -RA BR SCT010 BKN030
                        10/09 Q0990=
201204131745 METAR LIRA 131745Z 03010KT 360V060 5000 -RA BR SCT010 BKN020
                        10/09 Q0990=
201204131715 METAR LIRA 131715Z 03008KT 340V060 5000 -RA BR SCT010 BKN020
                        11/10 Q0990=
201204131645 METAR LIRA 131645Z 03010KT 350V050 6000 -RA SCT010 BKN020
                        11/10 Q0990=
201204131615 METAR LIRA 131615Z 04010KT 6000 -RA SCT012 BKN020 11/10 Q0991=
201204131545 METAR LIRA 131545Z 06007KT 7000 SCT017 BKN025 11/10 Q0991=
201204131515 METAR LIRA 131515Z 05007KT 020V100 6000 -RA SCT017 BKN025
                        11/10 Q0992=
201204131445 METAR LIRA 131445Z 05009KT 020V080 6000 -RA SCT018 BKN025
                        11/10 Q0992=
201204131415 METAR LIRA 131415Z 01007KT 320V050 6000 -RA SCT020 BKN030
                        11/10 Q0992=
201204131345 METAR LIRA 131345Z 03007KT 340V060 6000 -RA SCT020 BKN030
                        11/10 Q0993=
201204131315 METAR LIRA 131315Z 04007KT 6000 SCT020 BKN030 10/10 Q0994=
201204131245 METAR LIRA 131245Z 05009KT 6000 -RA SCT020 SCT030 13/12 Q0994=
201204131215 METAR LIRA 131215Z 07009KT 6000 SCT020 SCT030 11/09 Q0995=
201204131145 METAR LIRA 131145Z 07011KT 6000 -RA SCT020 SCT030 11/08 Q0995=
201204131115 METAR LIRA 131115Z 09010KT 060V120 7000 -RA FEW020 SCT035
                        11/08 Q0996=
201204131045 METAR LIRA 131045Z 08008KT 8000 -RA FEW020 SCT035 12/08 Q0996=
201204131015 METAR LIRA 131015Z 05005KT 8000 -RA SCT020 SCT030 12/09 Q0996=
201204130945 METAR LIRA 130945Z 03003KT 8000 -RA SCT020 SCT030 13/10 Q0997=
201204130915 METAR LIRA 130915Z 05004KT 9000 -RA SCT020 SCT030 13/09 Q0997=
201204130845 METAR LIRA 130845Z 04004KT 9000 -RA SCT020 SCT030 13/09 Q0997=
201204130815 METAR LIRA 130815Z 02004KT 350V060 9999 FEW020 SCT040 13/09
                        Q0998=
201204130745 METAR LIRA 130745Z 03006KT 340V080 9999 FEW020 SCT040 12/09
                        Q0998=
201204130715 METAR LIRA 130715Z 05004KT 9999 FEW020 SCT040 12/10 Q0998=
201204130645 METAR LIRA 130645Z 01003KT 9999 FEW020 SCT040 12/10 Q0998=
201204130615 METAR LIRA 130615Z 02005KT 340V050 9999 SCT020 SCT035 12/09
                        Q0999=
201204130545 METAR LIRA 130545Z 36003KT 9999 FEW018 SCT035 11/08 Q0999=
201204130515 METAR LIRA 130515Z 04003KT 9999 FEW017 SCT030 11/09 Q0999=
201204130445 METAR LIRA 130445Z 06005KT 9999 FEW017 SCT030 11/08 Q0999=
201204130415 METAR LIRA 130415Z 04003KT 9999 FEW017 BKN030 11/08 Q1000=
201204130345 METAR LIRA 130345Z 00000KT 9999 SCT015 BKN025 10/08 Q1001=
201204130315 METAR LIRA 130315Z 36001KT 9999 SCT015 BKN025 10/08 Q1001=
201204130245 METAR LIRA 130245Z 00000KT 9999 SCT015 BKN025 10/08 Q1002=
201204130215 METAR LIRA 130215Z 00000KT 9999 FEW015 SCT025 10/09 Q1002=
201204130145 METAR LIRA 130145Z 06003KT 9999 FEW015 SCT025 10/09 Q1002=
201204130115 METAR LIRA 130115Z 13002KT 9999 FEW020 SCT070 10/08 Q1003=
201204130045 METAR LIRA 130045Z 23003KT 9999 FEW020 SCT070 10/08 Q1003=
201204130015 METAR LIRA 130015Z 23003KT 9999 FEW020 SCT070 10/09 Q1003=
201204122350 METAR LIRA 130045Z 23003KT 9999 FEW020 SCT070 10/08 Q1003=
201204122345 METAR LIRA 122345Z 15001KT 9999 FEW020 SCT070 10/09 Q1003=
201204122315 METAR LIRA 122315Z 09002KT 9999 FEW020 SCT070 11/09 Q1004=
201204122245 METAR LIRA 122245Z 08001KT 9999 FEW020 SCT070 11/09 Q1005=
201204122215 METAR LIRA 122215Z 06001KT 9999 FEW020 SCT070 11/08 Q1005=
201204122145 METAR LIRA 122145Z 10003KT 9999 FEW018 SCT070 12/09 Q1005=
201204122115 METAR LIRA 122115Z 08004KT 9999 FEW018 12/08 Q1005=
201204122045 METAR LIRA 122045Z 09003KT 9999 FEW070 SCT200 11/08 Q1006=
201204122015 METAR LIRA 122015Z 12005KT 9999 FEW070 SCT200 11/09 Q1006=
201204121945 METAR LIRA 121945Z 14006KT 9999 FEW070 SCT200 12/09 Q1007=
201204121915 METAR LIRA 121915Z 18005KT 9999 FEW070 SCT200 12/10 Q1007=
201204121845 METAR LIRA 121845Z 20007KT 9999 FEW015 SCT200 12/10 Q1006=
201204121815 METAR LIRA 121815Z 33001KT 9999 FEW015 SCT200 13/10 Q1006=
201204121745 METAR LIRA 121745Z 23003KT 9999 SCT015 13/09 Q1006=
201204121715 METAR LIRA 121715Z 21004KT 9999 SCT015 SCT200 14/10 Q1006=
201204121645 METAR LIRA 121645Z 22006KT 160V240 9999 SCT015 FEW020TCU
                        SCT200 14/09 Q1006=
201204121615 METAR LIRA 121615Z 20007KT 9999 SCT014 FEW018TCU SCT200 14/09
                        Q1007=
201204121545 METAR LIRA 121545Z 20009KT 180V260 9999 SCT014 FEW018TCU
                        15/10 Q1007=
201204121515 METAR LIRA 121515Z 20009KT 9999 SCT014 FEW018TCU 15/10 Q1007=
201204121445 METAR LIRA 121445Z 20010G20KT 180V250 9999 SCT014 FEW018TCU
                        16/10 Q1007=
201204121415 METAR LIRA 121415Z 20011KT 180V280 9999 SCT014 FEW018TCU
                        16/10 Q1007=
201204121345 METAR LIRA 121345Z 22010KT 160V240 9999 SCT014 FEW018TCU
                        16/09 Q1007=
201204121315 METAR LIRA 121315Z 19013KT 170V240 9999 SCT014 FEW018TCU
                        16/09 Q1007=
201204121245 METAR LIRA 121245Z 21009KT 170V240 9999 SCT014 FEW018TCU
                        17/11 Q1007=
201204121215 METAR LIRA 121215Z 22009KT 170V250 9999 SCT014 FEW018TCU
                        17/11 Q1007=
201204121145 METAR LIRA 121145Z 20012KT 170V230 9999 SCT014 17/11 Q1007=
201204121115 METAR LIRA 121115Z 21011KT 160V250 9999 SCT014 17/10 Q1007=
201204121045 METAR LIRA 121045Z 19012KT 160V260 9999 SCT014 17/10 Q1007=
201204120945 METAR LIRA 120945Z 19008KT 9999 SCT014 17/09 Q1007=
201204120915 METAR LIRA 120915Z 18009KT 170V230 9999 SCT014 16/08 Q1007=
201204120845 METAR LIRA 120845Z 22009KT 160V250 9999 SCT014 16/09 Q1007=
201204120815 METAR LIRA 120815Z 17003KT 9999 FEW014 15/09 Q1006=
201204120745 METAR LIRA 120745Z 13001KT 9999 FEW014 14/09 Q1006=
201204120715 METAR LIRA 120715Z 13002KT CAVOK 14/10 Q1006=
201204120645 METAR LIRA 120645Z 09005KT CAVOK 13/10 Q1006=
201204120615 METAR LIRA 120615Z 11004KT CAVOK 12/10 Q1006=
201204120545 METAR LIRA 120545Z 13006KT 8000 FEW010 10/10 Q1006=
201204120515 METAR LIRA 120515Z 14006KT 110V170 8000 FEW010 09/09 Q1006=
201204120445 METAR LIRA 120445Z 16005KT 8000 SCT008 08/07 Q1006=
201204120415 METAR LIRA 120415Z 16004KT 9999 FEW008 08/07 Q1006=
201204120345 METAR LIRA 120345Z 15006KT 9999 FEW014 09/08 Q1006=
201204120315 METAR LIRA 120315Z 16006KT 9999 FEW017 09/08 Q1006=
201204120245 METAR LIRA 120245Z 16004KT 9999 FEW020 09/08 Q1006=
201204120215 METAR LIRA 120215Z 16004KT 9999 FEW025 10/09 Q1005=
201204120145 METAR LIRA 120145Z 16005KT 9999 FEW025 11/09 Q1005=
201204120115 METAR LIRA 120115Z 18006KT 9999 FEW025 11/10 Q1005=
201204120045 METAR LIRA 120045Z 17004KT 9999 SCT017 SCT025 11/10 Q1005=
201204120015 METAR LIRA 120015Z 18005KT 9999 SCT017 SCT025 11/10 Q1005=
201204112350 METAR LIRA 120045Z 17004KT 9999 SCT017 SCT025 11/10 Q1005=
201204112345 METAR LIRA 112345Z 15005KT 9999 FEW020 SCT025 09/08 Q1005=
201204112315 METAR LIRA 112315Z 18005KT 9999 FEW020 SCT070 10/09 Q1005=
201204112245 METAR LIRA 112245Z 18004KT 9999 FEW020 SCT025 09/08 Q1005=
201204112215 METAR LIRA 112215Z 16005KT 9999 FEW020 SCT080 10/09 Q1005=
201204112145 METAR LIRA 112145Z 17004KT 9999 FEW020 SCT060 10/09 Q1005=
201204112115 METAR LIRA 112115Z 16004KT CAVOK 11/10 Q1004=
201204112045 METAR LIRA 112045Z 15007KT CAVOK 11/10 Q1004=
201204112015 METAR LIRA 112015Z 24004KT 9999 FEW004 11/10 Q1004=
201204111945 METAR LIRA 111945Z 17006KT 9999 FEW004 11/10 Q1004=
201204111915 METAR LIRA 111915Z 21005KT 170V260 9999 FEW004 SCT050 12/10
                        Q1004=
201204111845 METAR LIRA 111845Z 17005KT 9999 FEW002 12/10 Q1003=
201204111815 METAR LIRA 111815Z 23005KT 9999 FEW015 FEW017CB 13/10 Q1003=
201204111745 METAR LIRA 111745Z 25005KT 210V310 9999 FEW015 FEW017CB 13/10
                        Q1003=
201204111715 METAR COR LIRA 111715Z 27009G20KT 220V310 9999 FEW015 FEW018CB
                        SCT025 14/10 Q1003=
201204111645 METAR LIRA 111645Z 26008KT 220V290 9999 FEW015 FEW018TCU
                        SCT025 14/10 Q1003=
201204111615 METAR LIRA 111615Z 25008KT 210V290 9999 FEW017 FEW018TCU
                        15/10 Q1002=
201204111545 METAR LIRA 111545Z 24010KT 200V280 9999 FEW017 FEW018TCU
                        15/11 Q1002=
201204111515 METAR LIRA 111515Z 24008KT 9999 SCT017 SCT030 14/10 Q1002=
201204111445 METAR LIRA 111445Z 24008KT 9999 SCT017 BKN027 13/10 Q1002=
201204111415 METAR LIRA 111415Z 25011G21KT 220V280 9999 SCT017 BKN027
                        13/10 Q1002=
201204111345 METAR LIRA 111345Z 24009KT 9999 SCT017 BKN027 13/11 Q1002=
201204111315 METAR LIRA 111315Z 22009KT 160V300 8000 -RA FEW010 SCT017
                        BKN027 13/12 Q1002=
201204111245 METAR LIRA 111245Z 18011KT 150V220 7000 -RA FEW010 SCT017
                        BKN027 13/13 Q1002=
201204111215 METAR LIRA 111215Z 15020KT 8000 -RA FEW010 SCT017 BKN027
                        14/13 Q1001=
201204111145 METAR LIRA 111145Z 15022G34KT 9999 FEW010 SCT017 BKN027 13/13
                        Q1001=
201204111115 METAR LIRA 111115Z 15023KT 5000 -RA BR FEW009 SCT017 BKN027
                        14/13 Q1002=
201204111045 METAR LIRA 111045Z 15023G33KT 7000 -RA SCT017 BKN027 14/13
                        Q1002=
201204111015 METAR LIRA 111015Z 14024G39KT 9999 SCT017 BKN030 14/12 Q1002=
201204110945 METAR LIRA 110945Z 14023G36KT 9999 SCT017 BKN030 15/12 Q1002=
201204110915 METAR LIRA 110915Z 14020G32KT 9999 FEW015 BKN030 14/11 Q1003=
201204110845 METAR LIRA 110845Z 14020KT 9999 FEW015 BKN030 15/10 Q1003=
201204110815 METAR LIRA 110815Z 14017KT 9999 FEW015 BKN030 14/10 Q1003=
201204110745 METAR LIRA 110745Z 14016KT 9999 FEW015 BKN030 14/10 Q1003=
201204110715 METAR LIRA 110715Z 13016G27KT 9999 FEW015 BKN030 13/10 Q1004=
201204110645 METAR LIRA 110645Z 14016KT 9999 FEW015 BKN030 13/10 Q1004=
201204110615 METAR LIRA 110615Z 15012KT 110V170 9999 FEW015 BKN030 13/10
                        Q1005=
201204110545 METAR LIRA 110545Z 14012KT 9999 FEW015 SCT030 12/10 Q1005=
201204110515 METAR LIRA 110515Z 14014KT 9999 FEW015 BKN030 12/10 Q1005=
201204110445 METAR LIRA 110445Z 14014G24KT 110V180 9999 FEW015 BKN030
                        12/10 Q1005=
201204110415 METAR LIRA 110415Z 13013KT 9999 FEW015 BKN030 12/10 Q1005=
201204110345 METAR LIRA 110345Z 15018KT 9999 FEW015 BKN030 12/10 Q1005=
201204110315 METAR LIRA 110315Z 15018G28KT 9999 FEW015 BKN030 12/10 Q1005=
201204110245 METAR LIRA 110245Z 15016KT 9999 -RA FEW015 BKN030 12/10 Q1006=
201204110215 METAR LIRA 110215Z 15014KT 9999 -RA FEW015 BKN030 12/10 Q1007=
201204110145 METAR LIRA 110145Z 14012KT 9999 FEW015 BKN040 13/09 Q1008=
201204110115 METAR LIRA 110115Z 16009KT 9999 FEW015 BKN060 12/08 Q1008=
201204110100 METAR LIRA CONTUS LOW CLDS MOVING S=
201204110045 METAR LIRA 110045Z 18007KT 9999 FEW015 SCT060 12/08 Q1008=
201204110015 METAR LIRA 110015Z 14008KT 9999 FEW015 SCT060 12/08 Q1008=
201204110000 METAR LIRA CONTUS LOW CLDS MOVING S=
201204102350 METAR LIRA 110045Z 18007KT 9999 FEW015 SCT060 12/08 Q1008=
201204102345 METAR LIRA 102345Z 14007KT 9999 FEW015 SCT060 12/07 Q1008=
201204102315 METAR LIRA 102315Z 17007KT 9999 BKN060 13/09 Q1009=
201204102245 METAR LIRA 102245Z 14007KT 9999 BKN060 12/09 Q1009=
201204102215 METAR LIRA 102215Z 14008KT 9999 SCT060 12/09 Q1009=
201204102145 METAR LIRA 102145Z 15007KT 9999 SCT080 12/09 Q1010=
201204102115 METAR LIRA 102115Z 14005KT 110V180 9999 FEW040 SCT080 12/08
                        Q1010=
201204102045 METAR LIRA 102045Z 12008KT 9999 FEW040 SCT080 12/09 Q1010=
201204102015 METAR LIRA 102015Z 14009KT 9999 FEW040 SCT080 12/09 Q1010=
201204101945 METAR LIRA 101945Z 17008KT 9999 FEW040 SCT080 12/08 Q1011=
201204101915 METAR LIRA 101915Z 17007KT 050V180 9999 FEW040 BKN080 12/08
                        Q1011=
201204101845 METAR LIRA 101845Z 17010KT 9999 FEW025 SCT080 12/07 Q1010=
201204101815 METAR LIRA 101815Z 18011KT 9999 FEW025 SCT080 12/07 Q1010=
201204101745 METAR LIRA 101745Z 18009KT 9999 FEW025 SCT080 13/07 Q1010=
201204101715 METAR LIRA 101715Z 19008KT 170V230 9999 FEW020 SCT080 13/06
                        Q1010=
201204101645 METAR LIRA 101645Z 19009KT 160V240 9999 SCT020 SCT080 13/08
                        Q1010=
201204101615 METAR LIRA 101615Z 20010KT 170V240 9999 SCT020 SCT080 13/08
                        Q1010=
201204101545 METAR LIRA 101545Z 20012KT 180V240 9999 SCT020 SCT080 14/07
                        Q1011=
201204101515 METAR LIRA 101515Z 20010KT 170V250 9999 FEW020 SCT080 14/08
                        Q1011=
201204101445 METAR LIRA 101445Z 21010KT 160V250 9999 FEW020 SCT080 15/08
                        Q1011=
201204101415 METAR LIRA 101415Z 21012KT 170V230 9999 FEW020 SCT080 15/08
                        Q1011=
201204101345 METAR LIRA 101345Z 20012G22KT 170V230 9999 FEW020 SCT080
                        15/07 Q1011=
201204101215 METAR LIRA 101215Z 20010KT 160V240 9999 FEW020 17/05 Q1010=
201204101145 METAR LIRA 101145Z 18005KT 9999 FEW020 17/02 Q1011=
201204101115 METAR LIRA 101115Z 18004KT 170V240 9999 FEW020 17/03 Q1011=
201204101045 METAR LIRA 101045Z 25004KT 9999 FEW020 17/03 Q1012=
201204101015 METAR LIRA 101015Z 22003KT 9999 FEW020 16/02 Q1012=
201204100945 METAR LIRA 100945Z 23002KT CAVOK 15/01 Q1012=
201204100915 METAR LIRA 100915Z 03001KT CAVOK 15/02 Q1012=
201204100845 METAR LIRA 100845Z 00000KT CAVOK 13/02 Q1012=
201204100815 METAR LIRA 100815Z 36001KT CAVOK 11/02 Q1012=
201204100745 METAR LIRA 100745Z 03001KT CAVOK 10/02 Q1012=
201204100715 METAR LIRA 100715Z 04002KT CAVOK 09/03 Q1012=
201204100645 METAR LIRA 100645Z 33002KT CAVOK 07/03 Q1012=
201204100615 METAR LIRA 100615Z 04002KT CAVOK 06/03 Q1012=
201204100545 METAR LIRA 100545Z 04002KT CAVOK 04/02 Q1012=
201204100515 METAR LIRA 100515Z 35001KT CAVOK 04/02 Q1012=
201204100445 METAR LIRA 100445Z 00000KT CAVOK 04/02 Q1011=
201204100415 METAR LIRA 100415Z 06001KT CAVOK 04/02 Q1011=
201204100345 METAR LIRA 100345Z 07001KT CAVOK 04/02 Q1011=
201204100315 METAR LIRA 100315Z 04001KT CAVOK 04/02 Q1011=
201204100245 METAR LIRA 100245Z 03001KT CAVOK 05/02 Q1011=
201204100215 METAR LIRA 100215Z 01001KT CAVOK 05/01 Q1011=
201204100145 METAR LIRA 100145Z 04001KT CAVOK 05/01 Q1011=
201204100115 METAR LIRA 100115Z 09001KT CAVOK 05/01 Q1011=
201204100045 METAR LIRA 100045Z 05001KT CAVOK 05/01 Q1011=
201204100015 METAR LIRA 100015Z 00000KT CAVOK 06/00 Q1011=
201204092350 METAR LIRA 100045Z 05001KT CAVOK 05/01 Q1011=
201204092345 METAR LIRA 092345Z 10003KT CAVOK 05/01 Q1011=
201204092315 METAR LIRA 092315Z 12003KT CAVOK 07/01 Q1011=
201204092245 METAR LIRA 092245Z 14002KT CAVOK 07/02 Q1011=
201204092215 METAR LIRA 092215Z 13001KT CAVOK 07/03 Q1011=
201204092145 METAR LIRA 092145Z 14002KT 9999 FEW080 07/03 Q1011=
201204092115 METAR LIRA 092115Z 17002KT CAVOK 08/04 Q1011=
201204092045 METAR LIRA 092045Z 00000KT CAVOK 08/04 Q1010=
201204092015 METAR LIRA 092015Z 14001KT CAVOK 08/04 Q1010=
201204091945 METAR LIRA 091945Z 22003KT CAVOK 09/03 Q1010=
201204091915 METAR LIRA 091915Z 27002KT CAVOK 09/02 Q1010=
201204091845 METAR LIRA 091845Z 27002KT CAVOK 11/M04 Q1010=
201204091815 METAR LIRA 091815Z 00000KT CAVOK 11/M04 Q1009=
201204091745 METAR LIRA 091745Z 34005KT CAVOK 12/M05 Q1009=
201204091715 METAR LIRA 091715Z 34008KT CAVOK 13/M05 Q1009=
201204091645 METAR LIRA 091645Z 35009KT CAVOK 14/M04 Q1009=
201204091615 METAR LIRA 091615Z 34009KT 310V020 CAVOK 14/M05 Q1009=
201204091545 METAR LIRA 091545Z 33008KT 290V350 CAVOK 14/M06 Q1009=
201204091515 METAR LIRA 091515Z 33010KT CAVOK 14/M06 Q1009=
201204091445 METAR LIRA 091445Z 33011KT 290V010 CAVOK 15/M05 Q1009=
201204091415 METAR LIRA 091415Z 32010KT 280V030 CAVOK 14/M04 Q1009=
201204091345 METAR LIRA 091345Z 33011KT CAVOK 14/M05 Q1009=
201204091315 METAR LIRA 091315Z 34010KT CAVOK 14/M04 Q1010=
201204091245 METAR LIRA 091245Z 35009KT 310V030 CAVOK 13/M05 Q1010=
201204091215 METAR LIRA 091215Z 35010KT 310V030 CAVOK 14/M04 Q1010=
201204091145 METAR LIRA 091145Z 35010KT 300V060 CAVOK 13/M04 Q1010=
201204091115 METAR LIRA 091115Z 34010KT 310V050 CAVOK 12/M03 Q1010=
201204091045 METAR LIRA 091045Z 33013KT CAVOK 12/M03 Q1010=
201204091015 METAR LIRA 091015Z 36009KT 330V040 CAVOK 11/M05 Q1009=
201204091000 METAR LIRA INTER=
201204090945 METAR LIRA 090945Z 35012KT 320V040 CAVOK 11/M04 Q1009=
201204090915 METAR LIRA 090915Z 35011KT 330V060 CAVOK 10/M03 Q1009=
201204090845 METAR LIRA 090845Z 35015G26KT 320V030 CAVOK 09/M03 Q1009=
201204090815 METAR LIRA 090815Z 36016KT CAVOK 09/M04 Q1008=
201204090745 METAR LIRA 090745Z 35014KT 320V020 CAVOK 08/M04 Q1008=
201204090715 METAR LIRA 090715Z 01016G27KT 340V050 CAVOK 08/M03 Q1008=
201204090645 METAR LIRA 090645Z 35016G26KT CAVOK 07/M02 Q1008=
201204090615 METAR LIRA 090615Z 35014KT 330V020 CAVOK 07/M01 Q1008=
201204090545 METAR LIRA 090545Z 35014KT 320V020 CAVOK 06/M01 Q1008=
201204090515 METAR LIRA 090515Z 36012KT 330V060 CAVOK 06/M01 Q1007=
201204090445 METAR LIRA 090445Z 36012KT 300V030 CAVOK 06/M00 Q1007=
201204090415 METAR LIRA 090415Z 36011KT 300V030 CAVOK 06/M01 Q1007=
201204090345 METAR LIRA 090345Z 36009G19KT 300V030 CAVOK 06/M00 Q1006=
201204090315 METAR LIRA 090315Z 35008KT 310V030 CAVOK 06/M00 Q1006=
201204090245 METAR LIRA 090245Z 34008KT CAVOK 06/M00 Q1006=
201204090215 METAR LIRA 090215Z 34011KT CAVOK 07/M00 Q1005=
201204090145 METAR LIRA 090145Z 35014KT CAVOK 07/01 Q1005=
201204090115 METAR LIRA 090115Z 34016G26KT CAVOK 07/01 Q1005=
201204090045 METAR LIRA 090045Z 35016KT CAVOK 07/01 Q1005=
201204090015 METAR LIRA 090015Z 36014G25KT CAVOK 07/02 Q1004=
201204082350 METAR LIRA 090045Z 35016KT CAVOK 07/01 Q1005=
201204082345 METAR LIRA 082345Z 35011KT CAVOK 07/03 Q1004=
201204082315 METAR LIRA 082315Z 35012KT CAVOK 07/03 Q1004=
201204082245 METAR LIRA 082245Z 35013G23KT 320V030 CAVOK 07/03 Q1003=
201204082215 METAR LIRA 082215Z 35013G29KT 9999 FEW080 07/04 Q1003=
201204082145 METAR LIRA 082145Z 35015G26KT 9999 FEW080 08/05 Q1002=
201204082115 METAR LIRA 082115Z 35015KT 9999 FEW080 08/05 Q1002=
201204082045 METAR LIRA 082045Z 34013G24KT 9999 FEW016 08/05 Q1002=
201204082015 METAR LIRA 082015Z 35011KT 320V020 9999 FEW016 08/05 Q1001=
201204081945 METAR LIRA 081945Z 01008KT 330V060 9999 FEW017 07/05 Q1000=
201204081915 METAR LIRA 081915Z 36008KT 310V040 9999 FEW017 07/05 Q1000=
201204081845 METAR LIRA 081845Z 34013KT 9999 FEW017 07/05 Q1000=
201204081815 METAR LIRA 081815Z 35012G23KT 9999 FEW017 07/05 Q0999=
201204081745 METAR LIRA 081745Z 04010KT 010V070 9999 FEW017 SCT070 08/05
                        Q0999=
201204081715 METAR LIRA 081715Z 01010KT 330V060 9999 FEW010 FEW016CB SCT070
                        08/07 Q1000=
201204081645 METAR LIRA 081645Z 36012G22KT 340V040 9999 SCT011 FEW016CB
                        SCT025 09/07 Q1000=
201204081615 METAR LIRA 081615Z 35012KT 310V030 9999 FEW014 FEW017CB SCT025
                        10/08 Q0999=
201204081545 METAR LIRA 081545Z 35016G30KT 9999 FEW017CB BKN025 15/09
                        Q0999=
201204081515 METAR LIRA 081515Z 21005KT 160V240 9999 FEW017TCU BKN025
                        15/09 Q0998=
201204081445 METAR LIRA 081445Z 21008KT 180V250 9999 FEW017TCU BKN025
                        16/10 Q0998=
201204081415 METAR LIRA 081415Z 23010KT 9999 FEW017TCU SCT025 15/09 Q0998=
201204081345 METAR LIRA 081345Z 24012KT 200V260 9999 FEW017TCU BKN025
                        16/09 Q0998=
201204081315 METAR LIRA 081315Z 23011KT 9999 FEW017TCU BKN025 16/09 Q0999=
201204081245 METAR LIRA 081245Z 22007KT 9999 FEW017TCU BKN025 17/09 Q0999=
201204081215 METAR LIRA 081215Z 22006KT 180V260 9999 FEW017TCU BKN025
                        17/10 Q1000=
201204081145 METAR LIRA 081145Z 22009KT 160V240 9999 FEW017TCU BKN025
                        16/08 Q1000=
201204081115 METAR LIRA 081115Z 23007KT 180V250 9999 FEW017CB BKN025 16/10
                        Q1000=
201204081045 METAR LIRA 081045Z 17009KT 9999 FEW017CB SCT025 15/11 Q1000=
201204081015 METAR LIRA 081015Z 19006KT 160V240 9999 FEW017CB SCT025 14/11
                        Q1000=
201204080945 METAR LIRA 080945Z 17008KT 9999 FEW017CB SCT020 13/09 Q1000=
201204080915 METAR LIRA 080915Z 19008KT 120V200 9999 FEW016 FEW017CB SCT020
                        13/09 Q1001=
201204080900 LIRA INTER CB SW/W=
201204080845 METAR LIRA 080845Z 18010KT 9999 -RA FEW016 FEW017CB SCT020
                        14/10 Q1000=
201204080815 METAR LIRA 080815Z 16008KT 130V200 9999 -RA FEW016 FEW017CB
                        SCT020 13/09 Q1000=
201204080745 METAR LIRA 080745Z 16005KT 9999 FEW016 FEW017CB SCT020 12/10
                        Q1000=
201204080715 METAR LIRA 080715Z 16007KT 9999 FEW017CB SCT020 11/10 Q1001=
201204080645 METAR LIRA 080645Z 15006KT 9999 FEW013 FEW017CB SCT020 10/09
                        Q1001=
201204080615 METAR LIRA 080615Z 17005KT 9999 FEW013 FEW017CB SCT020 09/09
                        Q1001=
201204080545 METAR LIRA 080545Z 16004KT 9999 FEW013 FEW017CB SCT020 09/07
                        Q1001=
201204080515 METAR LIRA 080515Z 17004KT 9999 -RA FEW014 FEW017CB BKN020
                        09/08 Q1001=
201204080445 METAR LIRA 080445Z 19009KT 160V240 7000 RA FEW013 FEW017CB
                        BKN020 09/09 Q1001=
201204080415 METAR LIRA 080415Z 14005KT 9999 FEW015 FEW017CB SCT070 09/08
                        Q1001=
201204080345 METAR LIRA 080345Z 15003KT 9999 FEW015 09/09 Q1002=
201204080315 METAR LIRA 080315Z 17004KT 9999 FEW015 10/09 Q1002=
201204080245 METAR LIRA 080245Z 24010KT 9999 FEW015 11/08 Q1003=
201204080215 METAR LIRA 080215Z 25010KT 9999 FEW015 11/08 Q1003=
201204080145 METAR LIRA 080145Z 24008KT 9999 SCT015 SCT070 12/07 Q1003=
201204080115 METAR LIRA 080115Z 22006KT 9999 SCT015 SCT070 12/08 Q1004=
201204080045 METAR LIRA 080045Z 23006KT 9999 SCT015 SCT070 12/08 Q1004=
201204080015 METAR LIRA 080015Z 23005KT 200V280 9999 SCT015 SCT070 12/07
                        Q1004=
201204072350 METAR LIRA 080045Z 23006KT 9999 SCT015 SCT070 12/08 Q1004=
201204072345 METAR LIRA 072345Z 23006KT 9999 SCT015 SCT070 12/08 Q1004=
201204072315 METAR LIRA 072315Z 24009KT 9999 SCT015 SCT070 12/08 Q1004=
201204072245 METAR LIRA 072245Z 24006KT 210V280 9999 SCT015 12/08 Q1004=
201204072215 METAR LIRA 072215Z 25005KT 9999 SCT015 SCT025 12/09 Q1004=
201204072145 METAR LIRA 072145Z 24005KT 190V280 9999 SCT015 SCT025 12/09
                        Q1005=
201204072115 METAR LIRA 072115Z 23005KT 9999 FEW018 12/09 Q1005=
201204072045 METAR LIRA 072045Z 25005KT 210V280 9999 FEW018 12/08 Q1005=
201204072015 METAR LIRA 072015Z 23004KT 9999 FEW015 12/08 Q1004=
201204071945 METAR LIRA 071945Z 21004KT 9999 FEW015 12/09 Q1004=
201204071915 METAR LIRA 071915Z 18005KT 9999 FEW015 12/09 Q1004=
201204071845 METAR LIRA 071845Z 20004KT 9999 FEW015 13/10 Q1004=
201204071815 METAR LIRA 071815Z 23005KT 9999 FEW015 13/10 Q1004=
201204071745 METAR LIRA 071745Z 23005KT 200V270 9999 SCT015 FEW020CB SCT025
                        13/10 Q1004=
201204071715 METAR LIRA 071715Z 26007KT 210V300 9999 SCT015 FEW020CB SCT030
                        14/11 Q1004=
201204071645 METAR LIRA 071645Z 25010KT 200V290 9999 SCT015 FEW020CB SCT025
                        14/10 Q1004=
201204071615 METAR LIRA 071615Z 26009KT 230V320 9999 SCT015 FEW020CB SCT025
                        15/11 Q1004=
201204071545 METAR LIRA 071545Z 27012KT 230V300 9999 SCT015 FEW018CB SCT025
                        15/11 Q1004=
201204071515 METAR LIRA 071515Z 26013KT 230V310 9999 SCT015 FEW018CB SCT025
                        16/13 Q1004=
201204071445 METAR LIRA 071445Z 26010KT 230V300 9999 SCT015 FEW018CB SCT025
                        15/13 Q1004 RETS=
201204071415 METAR LIRA 071415Z 26007KT 9999 SCT015 FEW018CB SCT025 15/14
                        Q1004 RETS=
201204071345 METAR LIRA 071345Z 24009KT 220V280 8000 -TSRA SCT015 FEW018CB
                        BKN025 14/13 Q1004=
201204071315 METAR LIRA 071315Z 20004KT 8000 -TSRA SCT015 FEW018CB BKN025
                        14/13 Q1004=
201204071245 METAR LIRA 071245Z 17006KT 8000 -TSRA SCT015 FEW018CB BKN025
                        14/13 Q1005=
201204071215 METAR LIRA 071215Z 16010KT 8000 -TSRA SCT015 FEW018CB BKN025
                        15/13 Q1005=
201204071145 METAR LIRA 071145Z 18009KT 9999 SCT015 FEW018CB BKN025 14/12
                        Q1005=
201204071115 METAR LIRA 071115Z 17009KT 9999 SCT015 FEW018CB BKN025 14/12
                        Q1006=
201204071045 METAR LIRA 071045Z 17009KT 9999 SCT015 FEW018CB BKN025 14/12
                        Q1006=
201204071015 METAR LIRA 071015Z 17008KT 9999 SCT012 FEW018CB BKN025 14/12
                        Q1006=
201204070945 METAR LIRA 070945Z 16007KT 8000 SCT012 FEW018CB BKN025 14/12
                        Q1006 RERA=
201204070915 METAR LIRA 070915Z 16005KT 8000 -RA SCT012 FEW018CB BKN025
                        13/12 Q1006 RERA=
201204070845 METAR LIRA 070845Z 15008KT 4000 -SHRA BR SCT005 FEW018CB
                        BKN025 13/12 Q1006=
201204070815 METAR LIRA 070815Z 16008KT 7000 -RA FEW005 FEW018CB BKN025
                        13/11 Q1006=
201204070745 METAR LIRA 070745Z 17007KT 7000 -RA FEW005 FEW018CB BKN025
                        13/12 Q1006 RETS=
201204070715 METAR LIRA 070715Z 23003KT 5000 -TSRA SCT012 FEW018CB BKN025
                        14/13 Q1006=
201204070645 METAR LIRA 070645Z 16003KT 8000 -TSRA SCT012 FEW018CB SCT025
                        13/12 Q1006=
201204070615 METAR LIRA 070615Z 15003KT 9999 SCT018 SCT025 BKN070 13/11
                        Q1006=
201204070545 METAR LIRA 070545Z 15002KT 9999 FEW020 SCT070 12/10 Q1006=
201204070515 METAR LIRA 070515Z 12002KT 9999 FEW022 SCT080 12/10 Q1006=
201204070445 METAR LIRA 070445Z 16001KT 9999 FEW022 SCT080 12/10 Q1007=
201204070415 METAR LIRA 070415Z 13001KT 9999 FEW025 SCT080 12/11 Q1007=
201204070345 METAR LIRA 070345Z 12003KT 9999 FEW025 12/11 Q1007=
201204070315 METAR LIRA 070315Z 13002KT 9999 FEW025 12/11 Q1007=
201204070245 METAR LIRA 070245Z 11001KT 9999 FEW025 12/11 Q1008=
201204070215 METAR LIRA 070215Z 15004KT 9999 FEW025 12/11 Q1008=
201204070145 METAR LIRA 070145Z 15002KT 9999 FEW030 12/11 Q1008=
201204070115 METAR LIRA 070115Z 11001KT 9999 FEW030 SCT080 12/11 Q1008=
201204070045 METAR LIRA 070045Z 15003KT 9999 FEW030 SCT080 13/12 Q1008=
201204070015 METAR LIRA 070015Z 17004KT 9999 SCT030 BKN080 14/13 Q1009=
201204062350 METAR LIRA 070045Z 15003KT 9999 FEW030 SCT080 13/12 Q1008=
201204062345 METAR LIRA 062345Z 19004KT 9999 SCT030 BKN080 14/12 Q1010=
201204062315 METAR LIRA 062315Z 19003KT 9999 SCT030 BKN080 14/12 Q1010=
201204062245 METAR LIRA 062245Z 19002KT 9999 SCT030 BKN080 13/11 Q1010=
201204062215 METAR LIRA 062215Z 15001KT 9999 SCT030 13/11 Q1010=
201204062145 METAR LIRA 062145Z 14001KT 9999 SCT030 13/11 Q1010=
201204062115 METAR LIRA 062115Z 15003KT 9999 FEW030 14/12 Q1010=
201204062045 METAR LIRA 062045Z 15002KT 9999 FEW030 14/13 Q1010=
201204062015 METAR LIRA 062015Z 18002KT 9999 FEW030 14/13 Q1010=
201204061945 METAR LIRA 061945Z 19002KT 9999 FEW030 15/14 Q1010=
201204061915 METAR LIRA 061915Z 21002KT 9999 FEW030 15/13 Q1010=
201204061845 METAR LIRA 061845Z 19003KT 9999 FEW030 BKN080 15/14 Q1010=
201204061815 METAR LIRA 061815Z 18004KT 9999 FEW030 BKN080 15/13 Q1009=
201204061745 METAR LIRA 061745Z 20003KT 9999 FEW018 BKN080 16/14 Q1009=
201204061715 METAR LIRA 061715Z 22006KT 200V260 9999 SCT018 SCT060 17/13
                        Q1009=
201204061645 METAR LIRA 061645Z 24007KT 9999 SCT017 SCT070 17/12 Q1009=
201204061615 METAR LIRA 061615Z 23008KT 190V260 9999 SCT017 17/12 Q1010=
201204061545 METAR LIRA 061545Z 24008KT 210V270 9999 SCT018 SCT200 17/12
                        Q1010=
201204061515 METAR LIRA 061515Z 23009KT 200V280 9999 SCT018 17/12 Q1010=
201204061445 METAR LIRA 061445Z 23009KT 9999 SCT018 18/12 Q1010=
201204061415 METAR LIRA 061415Z 24009KT 180V260 9999 SCT018 SCT200 18/11
                        Q1010=
201204061345 METAR LIRA 061345Z 24009KT 150V260 9999 SCT018 19/11 Q1010=
201204061315 METAR LIRA 061315Z 23008KT 180V260 9999 SCT018 19/10 Q1010=
201204061245 METAR LIRA 061245Z 21007KT 170V270 9999 SCT018 20/10 Q1010=
201204061215 METAR LIRA 061215Z 21007KT 140V250 9999 SCT018 19/11 Q1010=
201204061145 METAR LIRA 061145Z 23007KT 200V280 9999 SCT018 19/11 Q1010=
201204061115 METAR LIRA 061115Z 24007KT 210V280 9999 SCT018 FEW022TCU
                        19/12 Q1010=
201204061045 METAR LIRA 061045Z 23005KT 180V280 9999 SCT018 18/12 Q1010=
201204061015 METAR LIRA 061015Z 24004KT 9999 SCT018 FEW022TCU 18/12 Q1010=
201204060945 METAR LIRA 060945Z 24004KT 9999 SCT018 FEW022TCU 18/12 Q1010=
201204060915 METAR LIRA 060915Z 26005KT 210V290 9999 SCT018 18/13 Q1010=
201204060845 METAR LIRA 060845Z 26005KT 220V290 9999 SCT018 17/13 Q1010=
201204060815 METAR LIRA 060815Z 20004KT 9999 SCT018 16/12 Q1010=
201204060745 METAR LIRA 060745Z 20004KT 9999 SCT018 16/13 Q1010=
201204060715 METAR LIRA 060715Z 19005KT 160V240 9999 FEW020 15/13 Q1010=
201204060645 METAR LIRA 060645Z 21004KT 9999 FEW030 SCT070 14/13 Q1010=
201204060615 METAR LIRA 060615Z 00000KT 9999 FEW030 SCT070 13/11 Q1009=
201204060545 METAR LIRA 060545Z 13002KT 9999 FEW030 11/10 Q1009=
201204060515 METAR LIRA 060515Z 11004KT 9999 FEW030 SCT070 11/10 Q1009=
201204060445 METAR LIRA 060445Z 15002KT 9999 FEW030 SCT070 11/10 Q1009=
201204060415 METAR LIRA 060415Z 13002KT 9999 FEW030 SCT070 12/11 Q1009=
201204060345 METAR LIRA 060345Z 10003KT 9999 SCT020 SCT030 12/11 Q1009=
201204060315 METAR LIRA 060315Z 15003KT 9999 SCT020 12/11 Q1009=
201204060245 METAR LIRA 060245Z 14002KT 9999 SCT020 12/11 Q1009=
201204060215 METAR LIRA 060215Z 17001KT 9999 SCT017 SCT030 13/12 Q1009=
201204060145 METAR LIRA 060145Z 17004KT 9000 FEW010 SCT016 13/12 Q1009=
201204060115 METAR LIRA 060115Z 17004KT 9999 FEW010 13/12 Q1009=
201204060045 METAR LIRA 060045Z 18004KT 9999 FEW010 13/12 Q1009=
201204060015 METAR LIRA 060015Z 17003KT 9999 FEW010 BKN040 13/12 Q1009=
201204052350 METAR LIRA 060045Z 18004KT 9999 FEW010 13/12 Q1009=
201204052345 METAR LIRA 052345Z 17003KT 9999 FEW010 BKN040 13/12 Q1009=
201204052315 METAR LIRA 052315Z 18003KT 9999 FEW013 BKN040 13/12 Q1009=
201204052245 METAR LIRA 052245Z 19003KT 9999 FEW014 BKN040 13/12 Q1009=
201204052215 METAR LIRA 052215Z 17002KT 9999 FEW014 BKN040 13/12 Q1009=
201204052145 METAR LIRA 052145Z 18001KT 9999 FEW014 SCT040 13/13 Q1009=
201204052115 METAR LIRA 052115Z 18002KT 9999 FEW014 SCT040 14/13 Q1009=
201204052045 METAR LIRA 052045Z 19002KT 9999 FEW014 SCT040 15/14 Q1009=
201204052015 METAR LIRA 052015Z 19002KT 8000 FEW014CB BKN030 15/14 Q1009=
201204051945 METAR LIRA 051945Z 23003KT 7000 FEW014CB SCT025 15/14 Q1009=
201204051915 METAR LIRA 051915Z 23002KT 7000 FEW014CB SCT025 15/13 Q1009=
201204051845 METAR LIRA 051845Z 18003KT 7000 FEW014CB SCT025 16/14 Q1008=
201204051815 METAR LIRA 051815Z 20003KT 7000 FEW013 FEW016CB SCT030 16/14
                        Q1008=
201204051745 METAR LIRA 051745Z 22003KT 7000 FEW013 FEW016CB SCT030 16/14
                        Q1007=
201204051715 METAR LIRA 051715Z 24003KT 8000 FEW013 FEW016CB SCT030 16/14
                        Q1007=
201204051645 METAR LIRA 051645Z 23003KT 9000 FEW013 FEW016CB SCT030 17/14
                        Q1007=
201204051615 METAR LIRA 051615Z 22005KT 8000 FEW013 FEW016CB BKN025 17/14
                        Q1007=
201204051545 METAR LIRA 051545Z 23007KT 8000 FEW013 FEW016CB BKN025 17/14
                        Q1007=
201204051515 METAR LIRA 051515Z 24006KT 210V270 8000 FEW013 FEW016CB BKN025
                        18/15 Q1007=
201204051445 METAR LIRA 051445Z 21008KT 180V260 8000 FEW013 FEW017CB BKN025
                        18/16 Q1007=
201204051415 METAR LIRA 051415Z 22008KT 170V280 8000 FEW013 FEW018CB BKN025
                        19/16 Q1007=
201204051345 METAR LIRA 051345Z 21007KT 180V260 8000 FEW013 FEW018CB BKN025
                        19/15 Q1007=
201204051315 METAR LIRA 051315Z 21008KT 160V250 9999 FEW013 FEW018CB SCT025
                        19/15 Q1007=
201204051245 METAR LIRA 051245Z 22007KT 190V260 9999 FEW013 FEW018CB SCT060
                        19/15 Q1007=
201204051215 METAR LIRA 051215Z 20009KT 170V270 9999 FEW013 FEW017CB SCT060
                        19/17 Q1007=
201204051145 METAR LIRA 051145Z 20009KT 170V230 8000 FEW013 FEW017CB SCT025
                        19/16 Q1008=
201204051115 METAR LIRA 051115Z 20009KT 180V240 8000 FEW013 FEW017CB SCT023
                        20/16 Q1008=
201204051045 METAR LIRA 051045Z 18011KT 150V220 8000 FEW013 FEW017CB SCT023
                        19/13 Q1008=
201204051015 METAR LIRA 051015Z 19010KT 160V230 8000 FEW013 FEW017TCU
                        SCT023 18/15 Q1008=
201204050945 METAR LIRA 050945Z 17010KT 8000 FEW013 FEW018TCU SCT023 18/14
                        Q1008=
201204050915 METAR LIRA 050915Z 15010KT 8000 FEW013 FEW018TCU SCT025 18/15
                        Q1008=
201204050845 METAR LIRA 050845Z 16009KT 140V210 8000 FEW014 FEW018TCU
                        BKN025 17/15 Q1008=
201204050815 METAR LIRA 050815Z 15007KT 120V180 8000 FEW015 FEW018TCU
                        BKN025 17/15 Q1008=
201204050745 METAR LIRA 050745Z 06003KT 8000 FEW015 FEW018TCU BKN025 15/13
                        Q1007=
201204050715 METAR LIRA 050715Z 07002KT 8000 FEW017 FEW020TCU BKN025 15/13
                        Q1007=
201204050645 METAR LIRA 050645Z 06004KT 8000 FEW018 SCT040 15/13 Q1007=
201204050615 METAR LIRA 050615Z 03002KT 8000 FEW018 SCT040 14/12 Q1007=
201204050545 METAR LIRA 050545Z 12003KT 8000 FEW010 FEW018TCU SCT025 14/14
                        Q1007=
201204050515 METAR LIRA 050515Z 05001KT 7000 SCT010 FEW018TCU BKN020 13/12
                        Q1007=
201204050445 METAR LIRA 050445Z 36001KT 8000 SCT010 BKN020 12/11 Q1007=
201204050415 METAR LIRA 050415Z 16001KT 8000 SCT015 SCT060 12/11 Q1007=
201204050345 METAR LIRA 050345Z 00000KT 8000 NSC 12/11 Q1006=
201204050315 METAR LIRA 050315Z 33002KT 8000 FEW013 12/11 Q1006=
201204050245 METAR LIRA 050245Z 01002KT CAVOK 12/11 Q1006=
201204050215 METAR LIRA 050215Z 03001KT CAVOK 13/11 Q1006=
201204050145 METAR LIRA 050145Z 02003KT 9999 FEW020 13/11 Q1007=
201204050115 METAR LIRA 050115Z 03002KT 9999 FEW020 13/11 Q1007=
201204050045 METAR LIRA 050045Z 00000KT 9999 SCT020 13/11 Q1007=
201204050015 METAR LIRA 050015Z 07002KT 9999 FEW060 13/11 Q1007=
201204042350 METAR LIRA 050045Z 00000KT 9999 SCT020 13/11 Q1007=
201204042345 METAR LIRA 042345Z 08003KT 9999 FEW060 13/11 Q1007=
201204042315 METAR LIRA 042315Z 08003KT 9999 FEW080 13/11 Q1007=
201204042245 METAR LIRA 042245Z 05004KT 9999 FEW080 13/11 Q1007=
201204042215 METAR LIRA 042215Z 10004KT 9999 FEW080 13/11 Q1007=
201204042145 METAR LIRA 042145Z 09003KT 9999 FEW018 13/11 Q1007=
201204042115 METAR LIRA 042115Z 09003KT 9999 FEW018 14/12 Q1007=
201204042045 METAR LIRA 042045Z 15001KT 9999 SCT018 14/12 Q1007=
201204042015 METAR LIRA 042015Z 00000KT CAVOK 15/12 Q1007=
201204041945 METAR LIRA 041945Z 00000KT CAVOK 15/12 Q1007=
201204041915 METAR LIRA 041915Z 03001KT CAVOK 15/12 Q1007=
201204041845 METAR LIRA 041845Z 16001KT CAVOK 15/12 Q1006=
201204041815 METAR LIRA 041815Z 23002KT CAVOK 16/13 Q1006=
201204041745 METAR LIRA 041745Z 23004KT CAVOK 16/12 Q1006=
201204041715 METAR LIRA 041715Z 24005KT CAVOK 18/13 Q1007=
201204041645 METAR LIRA 041645Z 23006KT CAVOK 18/10 Q1007=
201204041615 METAR LIRA 041615Z 23008KT 170V260 CAVOK 19/11 Q1007=
201204041545 METAR LIRA 041545Z 20012KT CAVOK 19/12 Q1006=
201204041515 METAR LIRA 041515Z 20010KT 170V230 CAVOK 20/12 Q1006=
201204041445 METAR LIRA 041445Z 20010KT 9999 FEW030 20/13 Q1007=
201204041415 METAR LIRA 041415Z 20009KT 170V240 9999 FEW030 21/14 Q1007=
201204041345 METAR LIRA 041345Z 23009KT 160V250 9999 FEW030 21/14 Q1007=
201204041315 METAR LIRA 041315Z 19009KT 160V230 9999 FEW030 21/13 Q1007=
201204041245 METAR LIRA 041245Z 19013KT 150V220 9999 FEW030 21/12 Q1008=
201204041215 METAR LIRA 041215Z 19011KT 150V220 9999 FEW030 21/13 Q1008=
201204041145 METAR LIRA 041145Z 20012KT 170V240 9999 FEW030 21/14 Q1008=
201204041115 METAR LIRA 041115Z 21011KT 160V240 9999 FEW030 SCT080 21/14
                        Q1008=
201204041045 METAR LIRA 041045Z 20005KT 160V260 9999 FEW030 21/12 Q1008=
201204041015 METAR LIRA 041015Z 25006KT 9999 FEW030 20/13 Q1008=
201204040945 METAR LIRA 040945Z 05002KT 9999 FEW030 19/11 Q1008=
201204040915 METAR LIRA 040915Z 31004KT 9999 FEW070 18/12 Q1008=
201204040845 METAR LIRA 040845Z 02003KT 9999 FEW070 17/13 Q1009=
201204040815 METAR LIRA 040815Z 35001KT 9999 FEW070 16/13 Q1009=
201204040745 METAR LIRA 040745Z 31002KT 9999 FEW030 14/12 Q1009=
201204040715 METAR LIRA 040715Z 06002KT 9999 FEW030 13/12 Q1009=
201204040645 METAR LIRA 040645Z 36001KT 9999 SCT030 13/11 Q1009=
201204040615 METAR LIRA 040615Z 30001KT 9999 FEW030 12/11 Q1009=
201204040545 METAR LIRA 040545Z 00000KT 9999 FEW030 SCT070 11/10 Q1009=
201204040515 METAR LIRA 040515Z 05002KT 9999 SCT030 SCT070 11/10 Q1009=
201204040445 METAR LIRA 040445Z 01002KT 9999 SCT030 SCT070 12/10 Q1009=
201204040415 METAR LIRA 040415Z 09002KT 9999 FEW030 SCT080 11/10 Q1009=
201204040345 METAR LIRA 040345Z 00000KT 9999 FEW030 SCT070 12/10 Q1009=
201204040315 METAR LIRA 040315Z 01002KT 9999 FEW030 SCT080 12/10 Q1009=
201204040245 METAR LIRA 040245Z 00000KT 9999 FEW030 SCT080 11/10 Q1009=
201204040215 METAR LIRA 040215Z 00000KT 9999 SCT080 12/10 Q1009=
201204040145 METAR LIRA 040145Z 00000KT 9999 SCT080 12/10 Q1009=
201204040115 METAR LIRA 040115Z 20002KT 9999 SCT080 12/10 Q1009=
201204040045 METAR LIRA 040045Z 17002KT 9999 SCT080 12/10 Q1009=
201204040015 METAR LIRA 040015Z 16003KT 9999 SCT080 12/11 Q1009=
201204032350 METAR LIRA 040045Z 17002KT 9999 SCT080 12/10 Q1009=
201204032345 METAR LIRA 032345Z 17001KT 9999 SCT080 13/11 Q1009=
201204032315 METAR LIRA 032315Z 20001KT 9999 FEW080 13/12 Q1009=
201204032245 METAR LIRA 032245Z 17002KT 9999 FEW080 13/11 Q1009=
201204032215 METAR LIRA 032215Z 12003KT 9999 FEW080 13/11 Q1009=
201204032145 METAR LIRA 032145Z 16002KT 9999 FEW080 14/12 Q1009=
201204032115 METAR LIRA 032115Z 00000KT 9999 FEW080 14/12 Q1009=
201204032045 METAR LIRA 032045Z 17001KT CAVOK 14/12 Q1009=
201204032015 METAR LIRA 032015Z 16002KT CAVOK 15/12 Q1009=
201204031945 METAR LIRA 031945Z 17002KT CAVOK 15/12 Q1009=
201204031915 METAR LIRA 031915Z 22002KT 9999 FEW080 15/12 Q1009=
201204031845 METAR LIRA 031845Z 24002KT 9999 FEW080 15/12 Q1008=
201204031815 METAR LIRA 031815Z 26001KT 9999 FEW080 16/12 Q1008=
201204031745 METAR LIRA 031745Z 22003KT 9999 FEW080 17/12 Q1008=
201204031715 METAR LIRA 031715Z 21005KT 9999 FEW080 18/12 Q1008=
201204031645 METAR LIRA 031645Z 20006KT 9999 FEW080 18/11 Q1008=
201204031615 METAR LIRA 031615Z 28004KT 9999 FEW025 20/11 Q1008=
201204031545 METAR LIRA 031545Z 24003KT 9999 FEW025 20/11 Q1008=
201204031515 METAR LIRA 031515Z 25004KT 9999 FEW025 SCT080 20/11 Q1008=
201204031445 METAR LIRA 031445Z 29005KT 260V350 9999 FEW025 SCT080 20/11
                        Q1009=
201204031415 METAR LIRA 031415Z 24004KT 180V300 9999 FEW025 BKN200 20/11
                        Q1009=
201204031345 METAR LIRA 031345Z 25005KT 190V300 9999 FEW025 20/12 Q1009=
201204031315 METAR LIRA 031315Z 24008KT 200V280 9999 FEW025 20/12 Q1009=
201204031245 METAR LIRA 031245Z 25007KT 190V300 9999 FEW022 SCT070 20/11
                        Q1009=
201204031215 METAR LIRA 031215Z 23007KT 9999 FEW022 SCT070 20/11 Q1010=
201204031145 METAR LIRA 031145Z 23009KT 9999 FEW022 SCT070 20/10 Q1010=
201204031115 METAR LIRA 031115Z 21008KT 150V250 9999 FEW022 SCT070 20/09
                        Q1010=
201204031045 METAR LIRA 031045Z 22007KT 170V280 9999 FEW022 SCT070 20/10
                        Q1010=
201204031015 METAR LIRA 031015Z 23005KT 180V240 9999 FEW020 SCT070 20/10
                        Q1010=
201204030945 METAR LIRA 030945Z 29002KT 9999 FEW020 20/11 Q1010=
201204030915 METAR LIRA 030915Z 00000KT 9999 FEW020 18/10 Q1010=
201204030845 METAR LIRA 030845Z 33001KT CAVOK 18/11 Q1010=
201204030815 METAR LIRA 030815Z 00000KT 9999 FEW080 17/12 Q1010=
201204030745 METAR LIRA 030745Z 00000KT 9000 FEW080 15/12 Q1010=
201204030715 METAR LIRA 030715Z 02003KT 9000 FEW040 SCT080 15/12 Q1009=
201204030645 METAR LIRA 030645Z 09002KT 8000 FEW040 SCT080 14/13 Q1009=
201204030615 METAR LIRA 030615Z 04001KT 8000 FEW012 SCT080 13/12 Q1010=
201204030545 METAR LIRA 030545Z 33002KT 7000 -RA FEW009 SCT035 12/11 Q1010=
201204030515 METAR LIRA 030515Z 00000KT 8000 -RA FEW018 SCT030 13/12 Q1010=
201204030445 METAR LIRA 030445Z 14002KT 9999 FEW018 SCT030 13/12 Q1010=
201204030415 METAR LIRA 030415Z 18002KT 9999 FEW018 SCT030 13/12 Q1010=
201204030345 METAR LIRA 030345Z 00000KT 9999 FEW018 SCT030 13/12 Q1010=
201204030315 METAR LIRA 030315Z 33001KT 9999 FEW018 SCT030 13/11 Q1010=
201204030245 METAR LIRA 030245Z 34002KT 8000 FEW018 SCT030 13/10 Q1010=
201204030215 METAR LIRA 030215Z 00000KT 8000 SCT018 SCT030 13/11 Q1010=
201204030145 METAR LIRA 030145Z 11005KT 8000 SCT018 SCT030 13/11 Q1010=
201204030115 METAR LIRA 030115Z 13003KT 8000 FEW018 SCT030 13/11 Q1011=
201204030045 METAR LIRA 030045Z 13002KT 8000 FEW018 SCT030 13/11 Q1011=
201204030015 METAR LIRA 030015Z 04002KT 8000 FEW018 SCT030 13/12 Q1011=
201204022350 METAR LIRA 030045Z 13002KT 8000 FEW018 SCT030 13/11 Q1011=
201204022345 METAR LIRA 022345Z 00000KT 8000 -DZ FEW018 SCT030 13/12 Q1011=
201204022315 METAR LIRA 022315Z 07001KT 7000 -DZ FEW018 SCT030 13/12 Q1011=
201204022245 METAR LIRA 022245Z 07001KT 7000 -RA FEW018 SCT030 13/12 Q1011=
201204022215 METAR LIRA 022215Z 06004KT 7000 -RA FEW018 SCT030 13/12 Q1012=
201204022145 METAR LIRA 022145Z 06005KT 7000 -RA FEW018 SCT030 13/11 Q1011=
201204022115 METAR LIRA 022115Z 05001KT 7000 -RA FEW018 SCT033 14/12 Q1011=
201204022045 METAR LIRA 022045Z 15004KT 8000 -DZ FEW018 SCT070 BKN200
                        14/14 Q1012=
201204022015 METAR LIRA 022015Z 16005KT 8000 -DZ FEW018 SCT030 14/13 Q1011=
201204021945 METAR LIRA 021945Z 19005KT 8000 -DZ FEW018 SCT030 14/13 Q1011=
201204021915 METAR LIRA 021915Z 20007KT 9999 -DZ FEW018 SCT030 15/13 Q1011=
201204021845 METAR LIRA 021845Z 20005KT 9999 -DZ FEW018 SCT070 15/13 Q1011=
201204021815 METAR LIRA 021815Z 19008KT 160V240 9999 FEW018 SCT070 15/13
                        Q1010=
201204021745 METAR LIRA 021745Z 18012KT 9000 FEW018 SCT070 BKN200 16/13
                        Q1010=
201204021715 METAR LIRA 021715Z 19011KT 150V230 9999 FEW018 SCT070 16/13
                        Q1010=
201204021645 METAR LIRA 021645Z 19010KT 9999 FEW018 SCT070 16/12 Q1010=
201204021615 METAR LIRA 021615Z 17010KT 9999 FEW018 SCT070 BKN200 18/10
                        Q1010=
201204021545 METAR LIRA 021545Z 17011KT 9999 FEW018 SCT080 18/09 Q1010=
201204021515 METAR LIRA 021515Z 16010KT 9999 FEW018 SCT080 18/10 Q1010=
201204021445 METAR LIRA 021445Z 17016KT 9999 FEW018 SCT080 19/12 Q1010=
201204021415 METAR LIRA 021415Z 17014KT 9999 FEW018 20/12 Q1010=
201204021345 METAR LIRA 021345Z 18013KT 9999 FEW018 19/12 Q1011=
201204021315 METAR LIRA 021315Z 18013KT 9999 FEW018 19/11 Q1011=
201204021245 METAR LIRA 021245Z 19012KT 150V230 9999 FEW018 21/11 Q1011=
201204021215 METAR LIRA 021215Z 18011KT 9999 FEW018 21/11 Q1011=
201204021145 METAR LIRA 021145Z 17011KT 140V210 9999 FEW018 21/10 Q1011=
201204021115 METAR LIRA 021115Z 18012KT 130V190 9999 FEW018 21/09 Q1012=
201204021045 METAR LIRA 021045Z 17011KT 130V200 9999 FEW018 20/10 Q1012=
201204021015 METAR LIRA 021015Z 18011KT 9999 FEW018 20/10 Q1012=
201204020945 METAR LIRA 020945Z 33009KT 160V220 9999 FEW018 19/10 Q1012=
201204020915 METAR LIRA 020915Z 02001KT 9999 FEW018 17/11 Q1012=
201204020845 METAR LIRA 020845Z 29006KT 9999 FEW018 17/12 Q1012=
201204020815 METAR LIRA 020815Z 33002KT 9999 FEW070 16/11 Q1012=
201204020745 METAR LIRA 020745Z 34001KT 9999 FEW070 14/11 Q1012=
201204020715 METAR LIRA 020715Z 35001KT 9999 FEW080 13/11 Q1012=
201204020645 METAR LIRA 020645Z 35001KT 9999 FEW080 12/11 Q1012=
201204020615 METAR LIRA 020615Z 00000KT 8000 FEW080 11/10 Q1011=
201204020545 METAR LIRA 020545Z 00000KT 8000 FEW080 09/09 Q1011=
201204020515 METAR LIRA 020515Z 00000KT 8000 FEW080 09/08 Q1011=
201204020445 METAR LIRA 020445Z 00000KT 8000 NSC 09/08 Q1010=
201204020415 METAR LIRA 020415Z 00000KT CAVOK 09/09 Q1010=
201204020345 METAR LIRA 020345Z 12001KT CAVOK 09/08 Q1010=
201204020315 METAR LIRA 020315Z 12001KT CAVOK 09/08 Q1011=
201204020245 METAR LIRA 020245Z 24001KT CAVOK 10/09 Q1011=
201204020215 METAR LIRA 020215Z 27001KT CAVOK 10/09 Q1011=
201204020145 METAR LIRA 020145Z 00000KT CAVOK 10/10 Q1011=
201204020115 METAR LIRA 020115Z 00000KT CAVOK 11/10 Q1011=
201204020045 METAR LIRA 020045Z 29001KT 9999 FEW014 11/10 Q1011=
201204020015 METAR LIRA 020015Z 31001KT CAVOK 11/10 Q1011=
201204012350 METAR LIRA 020045Z 29001KT 9999 FEW014 11/10 Q1011=
201204012345 METAR LIRA 012345Z 00000KT CAVOK 12/11 Q1011=
201204012315 METAR LIRA 012315Z 05001KT 9999 FEW014 12/11 Q1011=
201204012245 METAR LIRA 012245Z 02001KT 9999 FEW014 13/11 Q1011=
201204012215 METAR LIRA 012215Z 16001KT 9999 FEW014 13/12 Q1010=
201204012145 METAR LIRA 012145Z 15003KT CAVOK 13/11 Q1010=
201204012115 METAR LIRA 012115Z 19004KT 9999 FEW014 13/11 Q1010=
201204012045 METAR LIRA 012045Z 19006KT 9999 FEW015 13/11 Q1010=
201204012015 METAR LIRA 012015Z 19009KT 9999 FEW015 14/12 Q1010=
201204011945 METAR LIRA 011945Z 19009KT 9999 FEW015 14/13 Q1009=
201204011915 METAR LIRA 011915Z 19008KT 9999 FEW015 14/12 Q1009=
201204011845 METAR LIRA 011845Z 18008KT 9999 FEW015 15/12 Q1009=
201204011815 METAR LIRA 011815Z 18008KT 9999 FEW018 15/12 Q1008=
201204011745 METAR LIRA 011745Z 18007KT 150V220 9999 FEW018 17/14 Q1007=
201204011715 METAR LIRA 011715Z 21005KT 170V250 9999 FEW018 17/13 Q1007=
201204011645 METAR LIRA 011645Z 21006KT 9999 FEW018 17/13 Q1007=
201204011615 METAR LIRA 011615Z 21007KT 9999 FEW018 SCT030 18/13 Q1007=
201204011545 METAR LIRA 011545Z 20007KT 030V240 9999 FEW018 SCT030 17/13
                        Q1007=
201204011515 METAR LIRA 011515Z 20008KT 170V270 9999 FEW018 SCT030 18/13
                        Q1006=
201204011445 METAR LIRA 011445Z 19008KT 9999 FEW018 SCT030 18/13 Q1006=
201204011415 METAR LIRA 011415Z 19008KT 160V230 9999 FEW018 SCT030 18/13
                        Q1006=
201204011345 METAR LIRA 011345Z 20007KT 150V240 9999 FEW018 SCT030 18/13
                        Q1006=
201204011315 METAR LIRA 011315Z 21007KT 9999 FEW018 SCT030 18/13 Q1006=
201204011245 METAR LIRA 011245Z 22006KT 180V250 9999 FEW018 SCT030 18/13
                        Q1006=
201204011215 METAR LIRA 011215Z 20008KT 9999 FEW018 BKN030 18/13 Q1006=
201204011145 METAR LIRA 011145Z 21008KT 180V240 9999 FEW018 BKN030 17/12
                        Q1006=
201204011115 METAR LIRA 011115Z 19005KT 120V230 9999 FEW018 BKN030 17/10
                        Q1006=
201204011045 METAR LIRA 011045Z 16007KT 100V200 9999 FEW018 BKN030 17/10
                        Q1006=
201204011015 METAR LIRA 011015Z 16006KT 110V200 9999 FEW018 SCT030 17/10
                        Q1006=
201204010945 METAR LIRA 010945Z 19007KT 9000 FEW018 SCT033 17/10 Q1007=
201204010915 METAR LIRA 010915Z 20006KT 160V240 9000 FEW018 BKN033 17/10
                        Q1007=
201204010845 METAR LIRA 010845Z 16007KT 130V200 8000 FEW018 BKN033 16/11
                        Q1007=
201204010815 METAR LIRA 010815Z 14010KT 8000 FEW018 BKN033 15/11 Q1006=
201204010745 METAR LIRA 010745Z 02003KT 8000 FEW018 BKN030 14/11 Q1007=
201204010715 METAR LIRA 010715Z 07001KT 8000 FEW018 BKN030 11/09 Q1007=
201204010645 METAR LIRA 010645Z 05006KT 8000 FEW018 BKN030 11/08 Q1006=
201204010615 METAR LIRA 010615Z 06005KT 8000 FEW018 BKN025 10/10 Q1006=
201204010545 METAR LIRA 010545Z 08006KT 8000 FEW010 SCT025 10/08 Q1006=
201204010515 METAR LIRA 010515Z 06006KT 8000 FEW010 08/06 Q1006=
201204010445 METAR LIRA 010445Z 10003KT 9000 FEW010 07/05 Q1006=
201204010415 METAR LIRA 010415Z 09001KT 9000 FEW010 07/05 Q1006=
201204010345 METAR LIRA 010345Z 23001KT 9000 FEW010 08/05 Q1006=
201204010315 METAR LIRA 010315Z 20001KT 9000 FEW010 07/04 Q1006=
201204010245 METAR LIRA 010245Z 17001KT 9000 FEW010 08/04 Q1006=
201204010215 METAR LIRA 010215Z 34002KT 9999 FEW080 08/04 Q1006=
201204010145 METAR LIRA 010145Z 14002KT 9999 FEW080 09/04 Q1006=
201204010115 METAR LIRA 010115Z 18002KT 9999 FEW080 09/06 Q1007=
201204010045 METAR LIRA 010045Z 16001KT CAVOK 10/06 Q1007=
201204010015 METAR LIRA 010015Z 13001KT CAVOK 10/06 Q1007=

</pre>

</body>
</html>
