##########################################################
# Query made at 11/10/2014 15:44:02 UTC
# Time interval: from 08/01/2010 00:00  to 08/31/2010 23:59  UTC
##########################################################

##########################################################
# LIRA, Roma / Ciampino (Italy)
# WMO index: 16239
# Latitude 41-47N. Longitude 012-35E. Altitude 129 m.
##########################################################

###################################
#  METAR/SPECI from LIRA
###################################
201008312350 METAR LIRA 010045Z 31004KT CAVOK 16/07 Q1012=
201008312345 METAR LIRA 312345Z 03002KT CAVOK 16/05 Q1012=
201008312315 METAR LIRA 312315Z 01002KT CAVOK 17/05 Q1012=
201008312145 METAR LIRA 312145Z 35003KT CAVOK 18/02 Q1011=
201008312115 METAR LIRA 312115Z 01004KT CAVOK 19/02 Q1011=
201008312045 METAR LIRA 312045Z 04003KT CAVOK 19/00 Q1011=
201008312015 METAR LIRA 312015Z 05006KT 320V090 CAVOK 20/M02 Q1011=
201008311945 METAR LIRA 311945Z 01005KT 310V050 CAVOK 22/M01 Q1011=
201008311915 METAR LIRA 311915Z 34006KT 310V010 9999 FEW020 22/M02 Q1010=
201008311845 METAR LIRA 311845Z 33006KT 9999 FEW020 23/M03 Q1010=
201008311815 METAR LIRA 311815Z 32007KT 9999 FEW020 24/M03 Q1010=
201008311745 METAR LIRA 311745Z 33009KT 300V360 9999 FEW020 24/M02 Q1009=
201008311715 METAR LIRA 311715Z 32010KT 290V360 9999 FEW020 25/M02 Q1009=
201008311645 METAR LIRA 311645Z 33014KT 300V360 9999 FEW020 26/M01 Q1009=
201008311615 METAR LIRA 311615Z 34013KT 300V360 9999 FEW020 26/M01 Q1009=
201008311545 METAR LIRA 311545Z 34012KT 280V020 9999 FEW018 26/M01 Q1010=
201008311515 METAR LIRA 311515Z 33011KT 290V060 9999 FEW018 27/M01 Q1010=
201008311445 METAR LIRA 311445Z 31012KT 280V010 9999 FEW018 27/M03 Q1009=
201008311415 METAR LIRA 311415Z 32013KT 270V060 9999 FEW018 27/M03 Q1009=
201008311345 METAR LIRA 311345Z 33010KT 290V360 9999 FEW016 27/M04 Q1009=
201008311315 METAR LIRA 311315Z 33011KT 290V080 9999 FEW016 27/M03 Q1009=
201008311245 METAR LIRA 311245Z 31011KT 270V360 9999 FEW016 26/M01 Q1009=
201008311215 METAR LIRA 311215Z 32014KT 270V360 9999 FEW016 26/M01 Q1010=
201008311145 METAR LIRA 311145Z 33012KT 290V010 9999 FEW016 26/02 Q1010=
201008311115 METAR LIRA 311115Z 32012KT 280V010 CAVOK 25/03 Q1010=
201008311045 METAR LIRA 311045Z 35009KT 280V040 CAVOK 25/05 Q1010=
201008311015 METAR LIRA 311015Z 01008KT 310V090 CAVOK 24/06 Q1010=
201008310945 METAR LIRA 310945Z 03008KT 290V070 CAVOK 24/06 Q1010=
201008310915 METAR LIRA 310915Z 03008KT 280V080 CAVOK 23/07 Q1010=
201008310845 METAR LIRA 310845Z 35007KT 320V080 CAVOK 22/07 Q1010=
201008310815 METAR LIRA 310815Z 03007KT 300V080 CAVOK 20/07 Q1009=
201008310745 METAR LIRA 310745Z 03008KT 350V080 CAVOK 19/09 Q1009=
201008310715 METAR LIRA 310715Z 01009KT 330V060 CAVOK 17/10 Q1009=
201008310645 METAR LIRA 310645Z 02008KT 320V080 CAVOK 17/10 Q1008=
201008310615 METAR LIRA 310615Z 02006KT 310V080 CAVOK 16/10 Q1008=
201008310545 METAR LIRA 310545Z 36007KT 310V040 CAVOK 15/11 Q1008=
201008310515 METAR LIRA 310515Z 36007KT 300V030 CAVOK 14/11 Q1007=
201008310445 METAR LIRA 310445Z 03005KT 350V070 CAVOK 14/11 Q1007=
201008310415 METAR LIRA 310415Z 04007KT 350V090 CAVOK 14/11 Q1006=
201008310345 METAR LIRA 310345Z 02006KT 330V050 CAVOK 15/11 Q1006=
201008310315 METAR LIRA 310315Z 02006KT 330V080 CAVOK 15/11 Q1006=
201008310245 METAR LIRA 310245Z 03005KT 360V070 CAVOK 15/12 Q1006=
201008310215 METAR LIRA 310215Z 01005KT 320V050 CAVOK 15/11 Q1006=
201008310145 METAR LIRA 310145Z 01005KT 330V060 CAVOK 16/12 Q1006=
201008310115 METAR LIRA 310115Z 02005KT 340V080 CAVOK 16/12 Q1006=
201008310045 METAR LIRA 310045Z 03006KT 350V090 CAVOK 17/13 Q1006=
201008310015 METAR LIRA 310015Z 01005KT 330V060 9999 FEW010 17/14 Q1006=
201008302350 METAR LIRA 310045Z 03006KT 350V090 CAVOK 17/13 Q1006=
201008302345 METAR LIRA 302345Z 01006KT 300V060 9999 FEW010 18/15 Q1006=
201008302315 METAR LIRA 302315Z 01004KT 300V040 9999 FEW070 18/15 Q1006=
201008302245 METAR LIRA 302245Z 03004KT 310V060 CAVOK 18/15 Q1006=
201008302215 METAR LIRA 302215Z 02005KT 300V060 9999 FEW010 18/16 Q1006=
201008302145 METAR LIRA 302145Z 35007KT 320V040 9999 FEW070 18/17 Q1006=
201008302115 METAR LIRA 302115Z 02003KT 9999 FEW070 19/17 Q1005=
201008302045 METAR LIRA 302045Z 36005KT 300V060 9999 FEW025 SCT080 19/18
                        Q1005=
201008302015 METAR LIRA 302015Z 33009KT 300V010 9999 FEW020 20/17 Q1005=
201008301945 METAR LIRA 301945Z VRB08KT 150V340 9999 -RA FEW014CB SCT022
                        22/18 Q1005=
201008301915 METAR LIRA 301915Z 17006KT 9999 FEW015TCU SCT025 22/19 Q1005=
201008301845 METAR LIRA 301845Z 17007KT 9999 FEW020TCU 22/19 Q1005=
201008301815 METAR LIRA 301815Z 19007KT 150V220 9999 FEW020TCU SCT025
                        23/19 Q1005=
201008301745 METAR LIRA 301745Z 19006KT 140V230 9999 SCT025 23/18 Q1005=
201008301715 METAR LIRA 301715Z 19006KT 150V250 9999 SCT025 23/17 Q1005=
201008301645 METAR LIRA 301645Z 22006KT 140V280 9999 FEW018 SCT025 23/16
                        Q1005=
201008301615 METAR LIRA 301615Z 21008KT 140V260 9999 FEW017 SCT025 23/16
                        Q1005=
201008301545 METAR LIRA 301545Z 22008KT 140V270 9999 FEW018 BKN025 24/16
                        Q1005=
201008301515 METAR LIRA 301515Z 21010KT 160V270 9999 FEW017 SCT025 24/14
                        Q1005=
201008301445 METAR LIRA 301445Z 21010KT 160V250 9999 FEW017 SCT025 24/14
                        Q1006=
201008301415 METAR LIRA 301415Z 22011KT 160V260 9999 SCT015 SCT025 24/14
                        Q1006=
201008301345 METAR LIRA 301345Z 22011KT 160V270 9999 FEW015 SCT025 25/13
                        Q1006=
201008301315 METAR LIRA 301315Z 21011G22KT 120V270 9999 FEW015 SCT025
                        25/13 Q1007=
201008301245 METAR LIRA 301245Z 22013KT 170V260 9999 FEW015 BKN025 25/13
                        Q1007=
201008301215 METAR LIRA 301215Z 22013KT 160V290 9999 FEW015 BKN025 25/13
                        Q1007=
201008301145 METAR LIRA 301145Z 22013KT 180V260 9999 FEW015 BKN025 25/15
                        Q1007=
201008301115 METAR LIRA 301115Z 22013KT 180V260 9999 SCT015 SCT025 24/16
                        Q1007=
201008301045 METAR LIRA 301045Z 20012KT 130V260 9999 SCT014 SCT025 25/16
                        Q1007=
201008301015 METAR LIRA 301015Z 22011KT 160V280 9999 SCT015 SCT025 25/17
                        Q1007=
201008300945 METAR LIRA 300945Z 22010KT 140V280 9999 SCT014 SCT025 24/17
                        Q1008=
201008300915 METAR LIRA 300915Z 22009KT 160V270 9999 SCT014 SCT025 24/18
                        Q1008=
201008300845 METAR LIRA 300845Z 23009KT 180V290 9999 SCT014 SCT025 24/18
                        Q1008=
201008300815 METAR LIRA 300815Z 22006KT 160V260 9999 FEW016 SCT025 24/18
                        Q1008=
201008300745 METAR LIRA 300745Z 21005KT 170V270 9999 SCT015 SCT025 23/18
                        Q1008=
201008300715 METAR LIRA 300715Z 24005KT 200V290 9999 SCT015 SCT025 23/20
                        Q1008=
201008300645 METAR LIRA 300645Z 23008KT 190V260 9999 SCT015 SCT025 23/20
                        Q1008=
201008300615 METAR LIRA 300615Z 19004KT 9999 SCT015 SCT070 22/20 Q1008=
201008300545 METAR LIRA 300545Z 18006KT 150V230 9999 SCT015 SCT070 22/20
                        Q1008=
201008300515 METAR LIRA 300515Z 21004KT 9999 SCT014 SCT023 22/20 Q1008=
201008300445 METAR LIRA 300445Z 19005KT 150V220 9999 SCT014 SCT023 21/20
                        Q1008=
201008300415 METAR LIRA 300415Z 22003KT 9999 SCT014 SCT023 21/20 Q1008=
201008300345 METAR LIRA 300345Z 15003KT 9999 SCT025 SCT060 21/20 Q1009=
201008300315 METAR LIRA 300315Z 15002KT 9999 FEW018 SCT030 21/20 Q1009=
201008300245 METAR LIRA 300245Z 16004KT 9999 FEW018 21/20 Q1009=
201008300215 METAR LIRA 300215Z 17004KT 9999 FEW018 21/19 Q1009=
201008300145 METAR LIRA 300145Z 17004KT 9999 FEW030 SCT060 21/19 Q1010=
201008300115 METAR LIRA 300115Z 17005KT 9999 FEW030 SCT070 21/19 Q1010=
201008300045 METAR LIRA 300045Z 17004KT 9999 FEW030 21/19 Q1010=
201008300015 METAR LIRA 300015Z 18002KT 9999 FEW030 20/19 Q1010=
201008292350 METAR LIRA 300045Z 17004KT 9999 FEW030 21/19 Q1010=
201008292345 METAR LIRA 292345Z 20002KT 9999 FEW030 21/18 Q1010=
201008292315 METAR LIRA 292315Z 36001KT CAVOK 21/16 Q1010=
201008292245 METAR LIRA 292245Z 10002KT CAVOK 20/16 Q1010=
201008292215 METAR LIRA 292215Z 10002KT CAVOK 21/19 Q1011=
201008292145 METAR LIRA 292145Z 10003KT CAVOK 22/20 Q1011=
201008292115 METAR LIRA 292115Z 08002KT 9999 FEW070 22/20 Q1011=
201008292045 METAR LIRA 292045Z 00000KT 9999 FEW070 23/21 Q1010=
201008292015 METAR LIRA 292015Z 18002KT 9999 FEW070 23/21 Q1011=
201008291945 METAR LIRA 291945Z 20001KT 9999 FEW070 24/21 Q1011=
201008291915 METAR LIRA 291915Z 21003KT 9999 FEW060 24/21 Q1010=
201008291845 METAR LIRA 291845Z 22004KT 9999 FEW020 24/21 Q1010=
201008291815 METAR LIRA 291815Z 23004KT 9999 FEW020 24/21 Q1010=
201008291745 METAR LIRA 291745Z 23006KT 190V250 9999 FEW022 FEW023TCU
                        25/21 Q1010=
201008291715 METAR LIRA 291715Z 23008KT 180V270 9999 FEW018 FEW023TCU
                        26/21 Q1010=
201008291645 METAR LIRA 291645Z 22007KT 170V280 9999 FEW018 FEW023TCU
                        27/20 Q1010=
201008291615 METAR LIRA 291615Z 22009KT 160V270 9999 FEW018 FEW023TCU
                        28/19 Q1010=
201008291545 METAR LIRA 291545Z 21008KT 150V270 9999 FEW020 FEW023TCU
                        27/18 Q1010=
201008291515 METAR LIRA 291515Z 21008KT 150V270 9999 FEW020 FEW023TCU
                        28/17 Q1010=
201008291445 METAR LIRA 291445Z 22010KT 170V270 9999 FEW020 FEW023TCU
                        28/18 Q1010=
201008291415 METAR LIRA 291415Z 22009KT 150V280 9999 FEW020 28/19 Q1010=
201008291345 METAR LIRA 291345Z 20008KT 150V270 9999 SCT016 29/19 Q1010=
201008291315 METAR LIRA 291315Z 24008KT 180V300 9999 FEW016 29/19 Q1011=
201008291245 METAR LIRA 291245Z 24007KT 180V300 9999 SCT016 FEW018TCU
                        28/18 Q1011=
201008291215 METAR LIRA 291215Z 25007KT 210V300 9999 SCT016 FEW018TCU
                        29/18 Q1011=
201008291145 METAR LIRA 291145Z 24006KT 190V310 9999 SCT016 FEW018TCU
                        30/19 Q1011=
201008291115 METAR LIRA 291115Z 20006KT 140V250 9999 SCT016 30/19 Q1011=
201008291045 METAR LIRA 291045Z 29008KT 260V340 9999 SCT016 29/18 Q1011=
201008291015 METAR LIRA 291015Z 33006KT 260V020 9999 SCT016 28/18 Q1011=
201008290945 METAR LIRA 290945Z 30003KT 240V330 9999 SCT016 27/18 Q1011=
201008290915 METAR LIRA 290915Z 33004KT 9999 SCT016 26/19 Q1011=
201008290845 METAR LIRA 290845Z 33004KT 9999 SCT016 25/18 Q1010=
201008290815 METAR LIRA 290815Z 35004KT 320V040 9999 SCT016 25/19 Q1010=
201008290745 METAR LIRA 290745Z 31002KT 9999 FEW018 23/18 Q1010=
201008290715 METAR LIRA 290715Z 36003KT 9999 FEW018 22/18 Q1010=
201008290645 METAR LIRA 290645Z 34002KT 9999 FEW018 21/18 Q1010=
201008290615 METAR LIRA 290615Z 34002KT 9999 FEW018 20/18 Q1009=
201008290545 METAR LIRA 290545Z 05002KT 9999 FEW018 20/18 Q1008=
201008290515 METAR LIRA 290515Z 03003KT 9999 FEW018 19/18 Q1008=
201008290445 METAR LIRA 290445Z 36003KT 9999 FEW013 19/18 Q1008=
201008290415 METAR LIRA 290415Z 02003KT 9999 SCT013 19/19 Q1007=
201008290345 METAR LIRA 290345Z 36002KT CAVOK 19/19 Q1007=
201008290315 METAR LIRA 290315Z 03002KT CAVOK 19/18 Q1007=
201008290245 METAR LIRA 290245Z 01002KT CAVOK 20/19 Q1007=
201008290215 METAR LIRA 290215Z 36003KT CAVOK 20/19 Q1007=
201008290145 METAR LIRA 290145Z 35001KT CAVOK 20/19 Q1007=
201008290115 METAR LIRA 290115Z 04002KT CAVOK 20/18 Q1007=
201008290045 METAR LIRA 290045Z 06002KT CAVOK 20/18 Q1007=
201008290015 METAR LIRA 290015Z 11002KT CAVOK 21/19 Q1007=
201008282350 METAR LIRA 290045Z 06002KT CAVOK 20/18 Q1007=
201008282345 METAR LIRA 282345Z 11003KT CAVOK 21/19 Q1007=
201008282315 METAR LIRA 282315Z 10005KT CAVOK 21/20 Q1007=
201008282245 METAR LIRA 282245Z 07003KT CAVOK 21/20 Q1007=
201008282215 METAR LIRA 282215Z 10003KT CAVOK 22/20 Q1007=
201008282145 METAR LIRA 282145Z 10004KT CAVOK 22/20 Q1007=
201008282115 METAR LIRA 282115Z 18004KT CAVOK 23/21 Q1007=
201008282045 METAR LIRA 282045Z 15003KT CAVOK 23/21 Q1007=
201008282015 METAR LIRA 282015Z 19005KT 9999 FEW020 23/21 Q1007=
201008281945 METAR LIRA 281945Z 17006KT 9999 FEW020 24/21 Q1007=
201008281915 METAR LIRA 281915Z 18006KT 140V220 9999 FEW020 24/21 Q1007=
201008281845 METAR LIRA 281845Z 19006KT 150V250 9999 FEW025 24/21 Q1007=
201008281815 METAR LIRA 281815Z 19007KT 140V230 9999 FEW025 24/21 Q1006=
201008281745 METAR LIRA 281745Z 19009KT 150V230 9999 FEW025 25/21 Q1006=
201008281715 METAR LIRA 281715Z 20009KT 160V250 9999 FEW025 25/21 Q1006=
201008281645 METAR LIRA 281645Z 20008KT 160V250 9999 FEW025 26/21 Q1006=
201008281615 METAR LIRA 281615Z 21009KT 160V260 9999 FEW020 27/20 Q1006=
201008281545 METAR LIRA 281545Z 19011KT 150V250 9999 FEW020 27/20 Q1006=
201008281515 METAR LIRA 281515Z 19010KT 150V270 9999 FEW020 28/19 Q1006=
201008281445 METAR LIRA 281445Z 20009KT 150V260 9999 FEW020 28/19 Q1006=
201008281415 METAR LIRA 281415Z 21010KT 160V260 9999 FEW017 28/20 Q1006=
201008281345 METAR LIRA 281345Z 22012KT 160V280 9999 FEW017 29/20 Q1007=
201008281315 METAR LIRA 281315Z 21012KT 160V250 9999 SCT017 29/20 Q1007=
201008281245 METAR LIRA 281245Z 21011KT 150V250 9999 SCT017 29/20 Q1007=
201008281215 METAR LIRA 281215Z 20010KT 150V260 9999 SCT017 30/21 Q1007=
201008281145 METAR LIRA 281145Z 20010KT 150V260 9999 SCT017 30/21 Q1007=
201008281115 METAR LIRA 281115Z 20010KT 150V260 9999 SCT017 30/21 Q1007=
201008281045 METAR LIRA 281045Z 20009KT 160V270 9999 SCT017 30/21 Q1008=
201008281015 METAR LIRA 281015Z 20011KT 150V260 9999 SCT016 SCT025 30/23
                        Q1008=
201008280945 METAR LIRA 280945Z 19010KT 130V240 9999 FEW016 SCT025 29/22
                        Q1008=
201008280915 METAR LIRA 280915Z 15011KT 120V200 9999 SCT016 SCT025 28/21
                        Q1008=
201008280845 METAR LIRA 280845Z 16011KT 120V220 9999 FEW016 28/22 Q1008=
201008280815 METAR LIRA 280815Z 16009KT 130V210 9999 SCT016 SCT025 27/21
                        Q1008=
201008280745 METAR LIRA 280745Z 17008KT 120V220 9999 FEW018 27/22 Q1008=
201008280715 METAR LIRA 280715Z 15010KT 120V190 9999 FEW018 26/22 Q1008=
201008280645 METAR LIRA 280645Z 15009KT 9999 FEW018 25/21 Q1008=
201008280615 METAR LIRA 280615Z 05002KT 9999 FEW018 24/19 Q1008=
201008280545 METAR LIRA 280545Z 09004KT CAVOK 22/20 Q1009=
201008280515 METAR LIRA 280515Z 11004KT CAVOK 22/20 Q1009=
201008280445 METAR LIRA 280445Z 08002KT CAVOK 21/17 Q1009=
201008280415 METAR LIRA 280415Z 13003KT CAVOK 22/17 Q1009=
201008280345 METAR LIRA 280345Z 13001KT CAVOK 22/17 Q1009=
201008280315 METAR LIRA 280315Z 11001KT CAVOK 21/16 Q1009=
201008272345 METAR LIRA 272345Z 22003KT CAVOK 22/18 Q1011=
201008272315 METAR LIRA 272315Z 20003KT CAVOK 23/17 Q1011=
201008272245 METAR LIRA 272245Z 15003KT CAVOK 23/17 Q1011=
201008272215 METAR LIRA 272215Z 17003KT CAVOK 24/18 Q1012=
201008272145 METAR LIRA 272145Z 17002KT CAVOK 24/20 Q1012=
201008272115 METAR LIRA 272115Z 15007KT 110V180 CAVOK 24/22 Q1012=
201008272100 METAR LIRA INT=
201008272045 METAR LIRA 272045Z 17007KT CAVOK 24/23 Q1012=
201008272015 METAR LIRA 272015Z 16005KT CAVOK 24/23 Q1012=
201008271945 METAR LIRA 271945Z 18005KT 140V200 CAVOK 25/23 Q1012=
201008271915 METAR LIRA 271915Z 19004KT CAVOK 25/23 Q1012=
201008271845 METAR LIRA 271845Z 20005KT 160V220 CAVOK 25/23 Q1011=
201008271815 METAR LIRA 271815Z 22006KT 190V260 CAVOK 26/23 Q1011=
201008271745 METAR LIRA 271745Z 21007KT 160V250 CAVOK 27/22 Q1011=
201008271715 METAR LIRA 271715Z 21007KT 170V260 CAVOK 28/22 Q1011=
201008271645 METAR LIRA 271645Z 21005KT 150V250 CAVOK 28/22 Q1012=
201008271615 METAR LIRA 271615Z 19007KT 140V250 CAVOK 29/22 Q1012=
201008271545 METAR LIRA 271545Z 22003KT 180V270 CAVOK 29/21 Q1012=
201008271515 METAR LIRA 271515Z 21008KT 150V250 CAVOK 29/22 Q1012=
201008271445 METAR LIRA 271445Z 22008KT 180V300 CAVOK 30/20 Q1012=
201008271415 METAR LIRA 271415Z 23012KT 180V280 CAVOK 31/18 Q1012=
201008271345 METAR LIRA 271345Z 19007KT 150V250 CAVOK 32/16 Q1012=
201008271315 METAR LIRA 271315Z 21007KT 160V260 CAVOK 32/16 Q1012=
201008271245 METAR LIRA 271245Z 24009KT 190V290 CAVOK 32/16 Q1013=
201008271215 METAR LIRA 271215Z 24009KT 180V300 CAVOK 33/16 Q1013=
201008271145 METAR LIRA 271145Z 23009KT 180V300 CAVOK 33/16 Q1013=
201008271115 METAR LIRA 271115Z 22006KT 190V300 CAVOK 33/17 Q1013=
201008271045 METAR LIRA 271045Z 21008KT 140V260 CAVOK 33/17 Q1013=
201008271015 METAR LIRA 271015Z 20005KT 130V240 CAVOK 32/16 Q1013=
201008270945 METAR LIRA 270945Z 25005KT 190V300 CAVOK 31/17 Q1013=
201008270915 METAR LIRA 270915Z 24003KT CAVOK 30/18 Q1013=
201008270845 METAR LIRA 270845Z 24001KT CAVOK 29/19 Q1013=
201008270815 METAR LIRA 270815Z 21002KT CAVOK 28/20 Q1013=
201008270745 METAR LIRA 270745Z 34002KT CAVOK 27/20 Q1013=
201008270715 METAR LIRA 270715Z 32002KT CAVOK 25/19 Q1013=
201008270645 METAR LIRA 270645Z 33002KT CAVOK 24/19 Q1013=
201008270615 METAR LIRA 270615Z 09001KT CAVOK 23/19 Q1013=
201008270545 METAR LIRA 270545Z 00000KT CAVOK 21/18 Q1013=
201008270515 METAR LIRA 270515Z 07001KT CAVOK 21/18 Q1013=
201008270445 METAR LIRA 270445Z 10002KT CAVOK 20/18 Q1013=
201008270415 METAR LIRA 270415Z 30003KT CAVOK 20/17 Q1013=
201008270345 METAR LIRA 270345Z 10003KT CAVOK 20/19 Q1013=
201008270315 METAR LIRA 270315Z 10002KT CAVOK 20/19 Q1013=
201008270245 METAR LIRA 270245Z 09001KT CAVOK 21/19 Q1013=
201008270215 METAR LIRA 270215Z 18001KT CAVOK 21/18 Q1013=
201008270145 METAR LIRA 270145Z 00000KT CAVOK 21/18 Q1013=
201008270115 METAR LIRA 270115Z 00000KT CAVOK 21/17 Q1014=
201008270045 METAR LIRA 270045Z 00000KT CAVOK 21/18 Q1014=
201008270015 METAR LIRA 270015Z 00000KT CAVOK 22/18 Q1014=
201008262350 METAR LIRA 270045Z 00000KT CAVOK 21/18 Q1014=
201008262345 METAR LIRA 262345Z 00000KT CAVOK 22/19 Q1015=
201008262315 METAR LIRA 262315Z 00000KT CAVOK 23/18 Q1015=
201008262245 METAR LIRA 262245Z 09001KT CAVOK 23/17 Q1015=
201008262215 METAR LIRA 262215Z 00000KT CAVOK 24/17 Q1015=
201008262145 METAR LIRA 262145Z 09001KT CAVOK 24/17 Q1015=
201008262115 METAR LIRA 262115Z 09001KT CAVOK 24/19 Q1015=
201008262045 METAR LIRA 262045Z 10001KT CAVOK 25/22 Q1015=
201008262015 METAR LIRA 262015Z 17004KT CAVOK 25/22 Q1015=
201008261945 METAR LIRA 261945Z 18004KT CAVOK 25/22 Q1015=
201008261915 METAR LIRA 261915Z 19004KT CAVOK 25/22 Q1015=
201008261845 METAR LIRA 261845Z 23003KT CAVOK 26/23 Q1015=
201008261815 METAR LIRA 261815Z 21003KT CAVOK 27/23 Q1015=
201008261745 METAR LIRA 261745Z 21004KT CAVOK 27/23 Q1015=
201008261715 METAR LIRA 261715Z 23005KT CAVOK 28/22 Q1015=
201008261645 METAR LIRA 261645Z 23006KT 200V300 CAVOK 30/22 Q1015=
201008261615 METAR LIRA 261615Z 23008KT 130V280 CAVOK 30/22 Q1015=
201008261545 METAR LIRA 261545Z 22008KT 180V260 CAVOK 30/22 Q1015=
201008261515 METAR LIRA 261515Z 31009KT CAVOK 31/21 Q1015=
201008261445 METAR LIRA 261445Z 23011KT 160V260 CAVOK 32/20 Q1015=
201008261415 METAR LIRA 261415Z 21007KT 170V270 CAVOK 33/19 Q1015=
201008261345 METAR LIRA 261345Z 22006KT 170V320 CAVOK 33/20 Q1015=
201008261315 METAR LIRA 261315Z 20008KT 120V260 9999 FEW018 33/20 Q1015=
201008261245 METAR LIRA 261245Z 24007KT 170V290 9999 FEW018 33/19 Q1015=
201008261215 METAR LIRA 261215Z 23011KT 190V320 9999 FEW018 33/18 Q1016=
201008261145 METAR LIRA 261145Z 04007KT 270V060 CAVOK 33/17 Q1016=
201008261115 METAR LIRA 261115Z 25005KT 220V310 CAVOK 33/16 Q1016=
201008261045 METAR LIRA 261045Z 34003KT 260V340 CAVOK 33/17 Q1016=
201008261015 METAR LIRA 261015Z 20003KT CAVOK 32/18 Q1016=
201008260945 METAR LIRA 260945Z 23005KT 150V270 CAVOK 31/18 Q1016=
201008260915 METAR LIRA 260915Z 22003KT CAVOK 30/18 Q1016=
201008260845 METAR LIRA 260845Z 24004KT CAVOK 29/17 Q1016=
201008260815 METAR LIRA 260815Z 18003KT CAVOK 28/17 Q1016=
201008260745 METAR LIRA 260745Z 02002KT CAVOK 26/18 Q1016=
201008260715 METAR LIRA 260715Z 01004KT CAVOK 25/18 Q1016=
201008260645 METAR LIRA 260645Z 02003KT CAVOK 23/20 Q1016=
201008260615 METAR LIRA 260615Z 02003KT CAVOK 23/20 Q1016=
201008260545 METAR LIRA 260545Z 05004KT CAVOK 23/20 Q1016=
201008260515 METAR LIRA 260515Z 01003KT CAVOK 21/19 Q1016=
201008260445 METAR LIRA 260445Z 01003KT CAVOK 21/20 Q1015=
201008260415 METAR LIRA 260415Z 36003KT CAVOK 21/20 Q1015=
201008260345 METAR LIRA 260345Z 02002KT CAVOK 21/20 Q1016=
201008260315 METAR LIRA 260315Z 04002KT 8000 SKC 21/20 Q1016=
201008260245 METAR LIRA 260245Z 05003KT 8000 FEW010 21/20 Q1016=
201008260215 METAR LIRA 260215Z 08002KT 8000 FEW010 21/20 Q1016=
201008260145 METAR LIRA 260145Z 04002KT 8000 FEW010 21/20 Q1016=
201008260115 METAR LIRA 260115Z 04001KT 8000 FEW010 21/20 Q1016=
201008260045 METAR LIRA 260045Z 07002KT 8000 FEW010 22/20 Q1016=
201008260015 METAR LIRA 260015Z 09002KT 8000 FEW010 22/20 Q1016=
201008252350 METAR LIRA 260045Z 07002KT 8000 FEW010 22/20 Q1016=
201008252345 METAR LIRA 252345Z 12001KT 7000 FEW010 22/20 Q1016=
201008252315 METAR LIRA 252315Z 12002KT 8000 FEW010 22/20 Q1016=
201008252245 METAR LIRA 252245Z 06001KT 8000 SCT010 23/22 Q1016=
201008252215 METAR LIRA 252215Z 20001KT 8000 FEW010 23/22 Q1016=
201008252145 METAR LIRA 252145Z 22002KT CAVOK 23/22 Q1016=
201008252115 METAR LIRA 252115Z 00000KT CAVOK 23/22 Q1016=
201008252045 METAR LIRA 252045Z 00000KT CAVOK 24/23 Q1016=
201008252015 METAR LIRA 252015Z 19002KT CAVOK 24/23 Q1016=
201008251945 METAR LIRA 251945Z 19004KT CAVOK 25/23 Q1016=
201008251915 METAR LIRA 251915Z 19004KT CAVOK 25/23 Q1015=
201008251845 METAR LIRA 251845Z 21004KT CAVOK 25/23 Q1015=
201008251815 METAR LIRA 251815Z 23004KT CAVOK 26/23 Q1015=
201008251745 METAR LIRA 251745Z 22004KT CAVOK 27/21 Q1015=
201008251715 METAR LIRA 251715Z 22005KT 200V290 CAVOK 28/21 Q1015=
201008251645 METAR LIRA 251645Z 24005KT 170V270 CAVOK 29/21 Q1015=
201008251615 METAR LIRA 251615Z 22005KT 180V270 CAVOK 29/21 Q1015=
201008251545 METAR LIRA 251545Z 21007KT 170V290 CAVOK 30/20 Q1015=
201008251515 METAR LIRA 251515Z 24007KT 180V310 CAVOK 31/18 Q1015=
201008251445 METAR LIRA 251445Z 23008KT 180V320 9999 FEW020 31/15 Q1015=
201008251415 METAR LIRA 251415Z 24009KT 130V280 9999 FEW020 31/15 Q1015=
201008251345 METAR LIRA 251345Z 21010KT 170V310 9999 FEW020 32/16 Q1015=
201008251315 METAR LIRA 251315Z 22009KT 140V310 9999 FEW020 32/17 Q1015=
201008251245 METAR LIRA 251245Z 25006KT 180V320 CAVOK 33/16 Q1015=
201008251215 METAR LIRA 251215Z 24007KT 190V280 CAVOK 33/16 Q1015=
201008251145 METAR LIRA 251145Z 25006KT 200V310 CAVOK 32/16 Q1015=
201008251115 METAR LIRA 251115Z 19006KT 130V300 CAVOK 32/17 Q1015=
201008251045 METAR LIRA 251045Z 30006KT 200V020 CAVOK 32/17 Q1015=
201008251015 METAR LIRA 251015Z 23006KT CAVOK 31/18 Q1015=
201008250945 METAR LIRA 250945Z 32004KT CAVOK 30/20 Q1015=
201008250915 METAR LIRA 250915Z 06003KT CAVOK 30/21 Q1015=
201008250845 METAR LIRA 250845Z 24003KT CAVOK 29/21 Q1015=
201008250815 METAR LIRA 250815Z 35001KT CAVOK 27/21 Q1015=
201008250745 METAR LIRA 250745Z 36002KT 9999 FEW018 25/20 Q1015=
201008250715 METAR LIRA 250715Z 34002KT 9999 FEW018 25/21 Q1015=
201008250645 METAR LIRA 250645Z 02002KT 9999 FEW018 24/19 Q1015=
201008250615 METAR LIRA 250615Z 04001KT 9999 FEW070 23/19 Q1014=
201008250545 METAR LIRA 250545Z 31002KT 9999 FEW070 21/19 Q1014=
201008250515 METAR LIRA 250515Z 36002KT 9999 FEW070 21/18 Q1014=
201008250445 METAR LIRA 250445Z 17003KT 9999 FEW070 21/18 Q1014=
201008250415 METAR LIRA 250415Z 16002KT 9999 FEW070 21/16 Q1014=
201008250345 METAR LIRA 250345Z 15003KT CAVOK 21/16 Q1014=
201008250315 METAR LIRA 250315Z 15001KT CAVOK 20/16 Q1014=
201008250245 METAR LIRA 250245Z 11005KT CAVOK 20/16 Q1014=
201008250215 METAR LIRA 250215Z 10002KT CAVOK 21/17 Q1014=
201008250145 METAR LIRA 250145Z 10005KT CAVOK 21/17 Q1014=
201008250115 METAR LIRA 250115Z 13002KT CAVOK 21/17 Q1014=
201008250045 METAR LIRA 250045Z 14001KT CAVOK 21/17 Q1014=
201008250015 METAR LIRA 250015Z 02003KT CAVOK 22/19 Q1014=
201008242350 METAR LIRA 250045Z 14001KT CAVOK 21/17 Q1014=
201008242345 METAR LIRA 242345Z 10002KT CAVOK 22/18 Q1015=
201008242315 METAR LIRA 242315Z 10001KT CAVOK 23/18 Q1015=
201008242245 METAR LIRA 242245Z 11002KT CAVOK 24/18 Q1015=
201008242215 METAR LIRA 242215Z 14003KT CAVOK 24/19 Q1015=
201008242145 METAR LIRA 242145Z 12003KT CAVOK 24/20 Q1015=
201008242115 METAR LIRA 242115Z 14004KT CAVOK 24/21 Q1014=
201008242045 METAR LIRA 242045Z 16004KT CAVOK 25/22 Q1014=
201008242015 METAR LIRA 242015Z 18005KT CAVOK 24/21 Q1014=
201008241945 METAR LIRA 241945Z 19004KT CAVOK 25/21 Q1014=
201008241915 METAR LIRA 241915Z 22003KT CAVOK 25/20 Q1014=
201008241845 METAR LIRA 241845Z 23004KT CAVOK 25/18 Q1013=
201008241815 METAR LIRA 241815Z 21005KT CAVOK 27/17 Q1013=
201008241745 METAR LIRA 241745Z 19005KT 170V230 CAVOK 28/16 Q1013=
201008241715 METAR LIRA 241715Z 20006KT 150V250 CAVOK 28/16 Q1013=
201008241645 METAR LIRA 241645Z 24008KT 180V260 CAVOK 29/16 Q1013=
201008241615 METAR LIRA 241615Z 22006KT 180V260 CAVOK 30/15 Q1013=
201008241545 METAR LIRA 241545Z 23008KT 150V270 CAVOK 30/15 Q1013=
201008241515 METAR LIRA 241515Z 22007KT 160V270 CAVOK 31/16 Q1013=
201008241445 METAR LIRA 241445Z 21007KT 170V270 CAVOK 31/16 Q1014=
201008241415 METAR LIRA 241415Z 22008KT 180V280 CAVOK 31/16 Q1014=
201008241345 METAR LIRA 241345Z 23009KT 150V250 CAVOK 31/16 Q1014=
201008241315 METAR LIRA 241315Z 24006KT 180V300 9999 FEW025 31/16 Q1014=
201008241245 METAR LIRA 241245Z 24007KT 180V300 9999 FEW025 31/17 Q1014=
201008241215 METAR LIRA 241215Z 21006KT 150V270 9999 FEW025 32/17 Q1014=
201008241145 METAR LIRA 241145Z 21006KT 150V270 9999 FEW025 32/17 Q1014=
201008241115 METAR LIRA 241115Z 24011KT 190V290 9999 FEW025 31/17 Q1014=
201008241045 METAR LIRA 241045Z 20006KT 120V260 9999 FEW070 32/16 Q1014=
201008241015 METAR LIRA 241015Z 21004KT 150V250 9999 FEW060 31/16 Q1014=
201008240945 METAR LIRA 240945Z 21004KT 150V250 9999 FEW060 31/16 Q1014=
201008240915 METAR LIRA 240915Z 18003KT 130V220 9999 FEW040 30/17 Q1014=
201008240845 METAR LIRA 240845Z 15006KT 120V220 9999 FEW040 29/20 Q1014=
201008240815 METAR LIRA 240815Z 20002KT CAVOK 28/19 Q1014=
201008240745 METAR LIRA 240745Z 20003KT CAVOK 27/19 Q1013=
201008240715 METAR LIRA 240715Z 23003KT CAVOK 25/19 Q1013=
201008240645 METAR LIRA 240645Z 26002KT CAVOK 24/18 Q1013=
201008240615 METAR LIRA 240615Z 09002KT CAVOK 24/18 Q1013=
201008240545 METAR LIRA 240545Z 10004KT CAVOK 22/17 Q1013=
201008240515 METAR LIRA 240515Z 05002KT CAVOK 21/17 Q1013=
201008240445 METAR LIRA 240445Z 14001KT CAVOK 21/17 Q1013=
201008240415 METAR LIRA 240415Z 14003KT CAVOK 21/17 Q1013=
201008240345 METAR LIRA 240345Z 11003KT CAVOK 20/17 Q1012=
201008240315 METAR LIRA 240315Z 00000KT CAVOK 20/18 Q1012=
201008240245 METAR LIRA 240245Z 11003KT CAVOK 20/17 Q1012=
201008240215 METAR LIRA 240215Z 10006KT CAVOK 21/17 Q1012=
201008240145 METAR LIRA 240145Z 10005KT CAVOK 22/20 Q1013=
201008240115 METAR LIRA 240115Z 13003KT 3000 BR SKC 22/21 Q1013=
201008240045 METAR LIRA 240045Z 19002KT 3000 1200N BR BCFG FEW006 23/22
                        Q1013=
201008240015 METAR LIRA 240015Z 15003KT 1500 FG SCT010 23/22 Q1013=
201008232350 METAR LIRA 240045Z 19002KT 3000 1200N BR BCFG FEW006 23/22
                        Q1013=
201008232345 METAR LIRA 232345Z 16003KT 1500 FG SKC 24/23 Q1013=
201008232315 METAR LIRA 232315Z 17003KT 3000 1200N BR BCFG SKC 24/23 Q1013=
201008232245 METAR LIRA 232245Z 18003KT 3000 1200N BR BCFG SKC 24/23 Q1013=
201008232215 METAR LIRA 232215Z 19004KT 2500 1000N BCFG SKC 24/23 Q1013=
201008232145 METAR LIRA 232145Z 21003KT 1500 0800N FG SKC 24/23 Q1013=
201008232115 METAR LIRA 232115Z 22003KT 9999 1000N BCFG SKC 24/23 Q1013=
201008232045 METAR LIRA 232045Z 20004KT 180V240 8000 SKC 24/23 Q1013=
201008232015 METAR LIRA 232015Z 20003KT 9000 NSC 25/24 Q1013=
201008231945 METAR LIRA 231945Z 20003KT CAVOK 25/23 Q1012=
201008231915 METAR LIRA 231915Z 22004KT CAVOK 25/24 Q1012=
201008231845 METAR LIRA 231845Z 22003KT CAVOK 26/24 Q1012=
201008231815 METAR LIRA 231815Z 19005KT CAVOK 27/24 Q1012=
201008231745 METAR LIRA 231745Z 19006KT 150V240 CAVOK 27/24 Q1012=
201008231715 METAR LIRA 231715Z 22006KT 160V250 CAVOK 29/23 Q1012=
201008231645 METAR LIRA 231645Z 21007KT 160V250 CAVOK 30/22 Q1012=
201008231615 METAR LIRA 231615Z 22007KT 150V270 CAVOK 32/23 Q1012=
201008231545 METAR LIRA 231545Z 23008KT 180V280 CAVOK 32/21 Q1012=
201008231515 METAR LIRA 231515Z 24009KT 190V290 CAVOK 32/19 Q1012=
201008231445 METAR LIRA 231445Z 23008KT 180V270 9999 FEW025 33/18 Q1012=
201008231415 METAR LIRA 231415Z 24007KT 180V290 9999 FEW025 33/19 Q1012=
201008231345 METAR LIRA 231345Z 23007KT 180V280 9999 FEW025 33/19 Q1012=
201008231315 METAR LIRA 231315Z 23009KT 170V280 9999 FEW025 33/19 Q1012=
201008231245 METAR LIRA 231245Z 25007KT 180V280 9999 FEW025 34/20 Q1013=
201008231215 METAR LIRA 231215Z 21010KT 150V280 9999 FEW025 33/19 Q1013=
201008231145 METAR LIRA 231145Z 24007KT 170V330 9999 FEW025 34/19 Q1013=
201008231115 METAR LIRA 231115Z 23007KT 180V270 9999 FEW025 33/18 Q1013=
201008231045 METAR LIRA 231045Z 28006KT 240V320 9999 FEW025 33/18 Q1013=
201008231015 METAR LIRA 231015Z 16002KT 9999 FEW025 33/17 Q1013=
201008230945 METAR LIRA 230945Z 23003KT 9999 FEW025 32/18 Q1013=
201008230915 METAR LIRA 230915Z 22003KT CAVOK 31/18 Q1013=
201008230845 METAR LIRA 230845Z 20005KT CAVOK 31/20 Q1013=
201008230815 METAR LIRA 230815Z 24003KT CAVOK 30/20 Q1013=
201008230745 METAR LIRA 230745Z 28002KT 9999 FEW040 29/20 Q1013=
201008230715 METAR LIRA 230715Z 23003KT 9999 FEW040 27/20 Q1013=
201008230645 METAR LIRA 230645Z 34002KT 9999 FEW040 26/19 Q1013=
201008230615 METAR LIRA 230615Z 33002KT 9999 FEW040 25/19 Q1013=
201008230545 METAR LIRA 230545Z 10002KT 9999 FEW035 22/18 Q1013=
201008230515 METAR LIRA 230515Z 09002KT CAVOK 22/19 Q1013=
201008230445 METAR LIRA 230445Z 03003KT CAVOK 22/19 Q1013=
201008230415 METAR LIRA 230415Z 05003KT CAVOK 22/19 Q1013=
201008230345 METAR LIRA 230345Z 04003KT CAVOK 22/18 Q1013=
201008230315 METAR LIRA 230315Z 04003KT CAVOK 23/19 Q1013=
201008230245 METAR LIRA 230245Z 01002KT CAVOK 23/19 Q1012=
201008230215 METAR LIRA 230215Z 06003KT CAVOK 24/19 Q1013=
201008230145 METAR LIRA 230145Z 04004KT 9999 FEW070 24/19 Q1013=
201008230115 METAR LIRA 230115Z 10002KT 9999 FEW070 24/18 Q1014=
201008230045 METAR LIRA 230045Z 08001KT 9999 FEW070 24/18 Q1014=
201008230015 METAR LIRA 230015Z 10001KT 9999 FEW070 25/18 Q1014=
201008222350 METAR LIRA 230045Z 08001KT 9999 FEW070 24/18 Q1014=
201008222345 METAR LIRA 222345Z 24001KT 9999 FEW070 26/18 Q1014=
201008222315 METAR LIRA 222315Z 29003KT 9999 FEW070 26/17 Q1014=
201008222245 METAR LIRA 222245Z 15002KT 9999 FEW070 26/17 Q1014=
201008222215 METAR LIRA 222215Z 15002KT 9999 FEW070 26/17 Q1014=
201008222145 METAR LIRA 222145Z 11006KT 9999 FEW070 26/18 Q1014=
201008222115 METAR LIRA 222115Z 11004KT 9999 FEW070 26/18 Q1015=
201008222045 METAR LIRA 222045Z 10004KT 9999 FEW070 27/18 Q1015=
201008222015 METAR LIRA 222015Z 10004KT 9999 FEW070 27/19 Q1015=
201008221945 METAR LIRA 221945Z 11003KT 9999 FEW020 27/19 Q1015=
201008221915 METAR LIRA 221915Z 15003KT 9999 FEW020 28/18 Q1015=
201008221845 METAR LIRA 221845Z 22002KT 9999 FEW018 28/18 Q1015=
201008221815 METAR LIRA 221815Z 26004KT 9999 FEW018 29/18 Q1014=
201008221745 METAR LIRA 221745Z 26005KT 200V300 9999 FEW018 FEW020TCU
                        30/17 Q1014=
201008221715 METAR LIRA 221715Z 23006KT 210V290 9999 FEW018 FEW020TCU
                        31/17 Q1014=
201008221645 METAR LIRA 221645Z 24006KT 200V300 9999 FEW018 FEW020TCU
                        32/18 Q1014=
201008221615 METAR LIRA 221615Z 25009KT 200V310 9999 FEW018 FEW020TCU
                        32/17 Q1014=
201008221545 METAR LIRA 221545Z 24008KT 200V300 9999 FEW018 FEW020TCU
                        33/17 Q1014=
201008221515 METAR LIRA 221515Z 24008KT 210V320 9999 FEW017 FEW018TCU
                        33/16 Q1015=
201008221445 METAR LIRA 221445Z 24006KT 190V280 9999 FEW017 FEW018TCU
                        33/17 Q1015=
201008221415 METAR LIRA 221415Z 25008KT 180V300 9999 FEW017 33/17 Q1015=
201008221345 METAR LIRA 221345Z 27010KT 200V330 9999 FEW017 34/18 Q1015=
201008221315 METAR LIRA 221315Z 27009KT 200V330 9999 FEW015 34/17 Q1015=
201008221245 METAR LIRA 221245Z 27008KT 210V310 9999 FEW015 34/17 Q1015=
201008221215 METAR LIRA 221215Z 27007KT 210V330 9999 FEW015 34/17 Q1015=
201008221145 METAR LIRA 221145Z 27006KT 180V310 9999 FEW015 34/17 Q1015=
201008221115 METAR LIRA 221115Z 23004KT 9999 FEW015 34/17 Q1016=
201008221045 METAR LIRA 221045Z 27004KT 330V030 9999 FEW015 33/17 Q1016=
201008221015 METAR LIRA 221015Z 28006KT 240V020 9999 FEW015 33/17 Q1016=
201008220945 METAR LIRA 220945Z 30004KT 260V360 9999 FEW015 32/18 Q1016=
201008220915 METAR LIRA 220915Z 29006KT 240V310 9999 FEW015 31/18 Q1016=
201008220845 METAR LIRA 220845Z 34003KT CAVOK 30/19 Q1016=
201008220815 METAR LIRA 220815Z 02004KT CAVOK 30/20 Q1016=
201008220745 METAR LIRA 220745Z 36004KT CAVOK 28/19 Q1016=
201008220715 METAR LIRA 220715Z 04005KT 340V070 CAVOK 27/20 Q1016=
201008220645 METAR LIRA 220645Z 01004KT 330V050 CAVOK 25/20 Q1016=
201008220615 METAR LIRA 220615Z 03004KT 330V070 CAVOK 25/20 Q1016=
201008220545 METAR LIRA 220545Z 04005KT 350V070 CAVOK 23/20 Q1016=
201008220515 METAR LIRA 220515Z 03004KT CAVOK 23/20 Q1016=
201008220445 METAR LIRA 220445Z 03004KT CAVOK 23/20 Q1016=
201008220415 METAR LIRA 220415Z 04004KT CAVOK 23/20 Q1016=
201008220345 METAR LIRA 220345Z 03004KT CAVOK 23/20 Q1016=
201008220315 METAR LIRA 220315Z 03002KT CAVOK 23/19 Q1016=
201008220245 METAR LIRA 220245Z 01003KT CAVOK 23/20 Q1016=
201008220215 METAR LIRA 220215Z 36003KT CAVOK 24/20 Q1016=
201008220145 METAR LIRA 220145Z 33003KT CAVOK 24/20 Q1016=
201008220115 METAR LIRA 220115Z 36001KT CAVOK 24/20 Q1016=
201008220045 METAR LIRA 220045Z 01001KT CAVOK 25/20 Q1017=
201008220015 METAR LIRA 220015Z 02002KT CAVOK 25/20 Q1017=
201008212350 METAR LIRA 220045Z 01001KT CAVOK 25/20 Q1017=
201008212345 METAR LIRA 212345Z 18001KT CAVOK 25/20 Q1017=
201008212315 METAR LIRA 212315Z 02003KT CAVOK 25/20 Q1017=
201008212245 METAR LIRA 212245Z 02002KT CAVOK 25/20 Q1017=
201008212215 METAR LIRA 212215Z 04002KT 9999 FEW070 26/19 Q1017=
201008212145 METAR LIRA 212145Z 35004KT 9999 FEW070 26/19 Q1017=
201008212115 METAR LIRA 212115Z 02003KT 9999 FEW070 26/19 Q1017=
201008212045 METAR LIRA 212045Z 31001KT 9999 FEW070 26/19 Q1017=
201008212015 METAR LIRA 212015Z 27001KT 9999 FEW070 27/18 Q1017=
201008211945 METAR LIRA 211945Z 11003KT 9999 FEW070 27/18 Q1017=
201008211915 METAR LIRA 211915Z 14003KT 9999 FEW070 28/18 Q1017=
201008211845 METAR LIRA 211845Z 00000KT 9999 FEW020 28/18 Q1017=
201008211815 METAR LIRA 211815Z 22003KT 9999 FEW020 FEW023CB 29/19 Q1017=
201008211745 METAR LIRA 211745Z 26003KT 9999 FEW020 FEW023CB 30/18 Q1017=
201008211715 METAR LIRA 211715Z 24004KT 9999 FEW020 FEW023CB SCT200 30/17
                        Q1017=
201008211645 METAR LIRA 211645Z 27006KT 190V320 9999 FEW020 FEW023TCU
                        31/17 Q1017=
201008211615 METAR LIRA 211615Z 25008KT 170V320 9999 FEW020 FEW023TCU
                        32/16 Q1017=
201008211545 METAR LIRA 211545Z 24006KT 180V320 9999 FEW020 FEW023TCU
                        33/17 Q1018=
201008211515 METAR LIRA 211515Z 29008KT 230V330 9999 FEW020 FEW023TCU
                        33/17 Q1018=
201008211445 METAR LIRA 211445Z 25008KT 200V340 9999 FEW020 FEW023TCU
                        33/18 Q1018=
201008211415 METAR LIRA 211415Z 25006KT 190V310 9999 FEW020 FEW023TCU
                        33/18 Q1018=
201008211345 METAR LIRA 211345Z 21008KT 9999 FEW020 FEW023TCU 34/17 Q1018=
201008211315 METAR LIRA 211315Z 21008KT 180V290 9999 FEW020 FEW023TCU
                        34/18 Q1018=
201008211245 METAR LIRA 211245Z 22005KT 170V310 9999 FEW020 FEW023TCU
                        34/18 Q1018=
201008211215 METAR LIRA 211215Z 22008KT 200V340 9999 FEW020 FEW023TCU
                        34/18 Q1018=
201008211145 METAR LIRA 211145Z 25005KT 110V300 9999 FEW023 34/18 Q1019=
201008211115 METAR LIRA 211115Z 24006KT 150V260 CAVOK 34/17 Q1019=
201008211045 METAR LIRA 211045Z 33007KT 310V100 CAVOK 34/17 Q1019=
201008211015 METAR LIRA 211015Z 33003KT CAVOK 33/17 Q1019=
201008210945 METAR LIRA 210945Z 01004KT CAVOK 32/16 Q1019=
201008210915 METAR LIRA 210915Z 32003KT CAVOK 32/16 Q1020=
201008210845 METAR LIRA 210845Z 33003KT CAVOK 31/17 Q1020=
201008210815 METAR LIRA 210815Z 32003KT CAVOK 30/19 Q1020=
201008210745 METAR LIRA 210745Z 04004KT CAVOK 28/18 Q1019=
201008210715 METAR LIRA 210715Z 03003KT CAVOK 27/19 Q1019=
201008210645 METAR LIRA 210645Z 04003KT CAVOK 26/19 Q1019=
201008210615 METAR LIRA 210615Z 01002KT CAVOK 24/19 Q1019=
201008210545 METAR LIRA 210545Z 01002KT CAVOK 23/19 Q1019=
201008210515 METAR LIRA 210515Z 34001KT CAVOK 23/18 Q1019=
201008210445 METAR LIRA 210445Z 06002KT 9999 FEW070 22/17 Q1019=
201008210415 METAR LIRA 210415Z 05004KT 9999 FEW070 23/18 Q1018=
201008210345 METAR LIRA 210345Z 17003KT CAVOK 23/18 Q1019=
201008210315 METAR LIRA 210315Z 17003KT CAVOK 23/18 Q1019=
201008210245 METAR LIRA 210245Z 20003KT CAVOK 23/18 Q1019=
201008210215 METAR LIRA 210215Z 21005KT 9999 FEW070 23/19 Q1019=
201008210145 METAR LIRA 210145Z 21005KT 170V260 9999 FEW070 23/18 Q1019=
201008210115 METAR LIRA 210115Z 21004KT CAVOK 23/18 Q1019=
201008210045 METAR LIRA 210045Z 18003KT CAVOK 23/18 Q1019=
201008210015 METAR LIRA 210015Z 17002KT CAVOK 23/18 Q1019=
201008202350 METAR LIRA 210045Z 18003KT CAVOK 23/18 Q1019=
201008202345 METAR LIRA 202345Z 03003KT CAVOK 24/17 Q1019=
201008202315 METAR LIRA 202315Z 06002KT CAVOK 24/17 Q1019=
201008202245 METAR LIRA 202245Z 06003KT CAVOK 24/18 Q1019=
201008202215 METAR LIRA 202215Z 05004KT CAVOK 24/18 Q1019=
201008202145 METAR LIRA 202145Z 04004KT CAVOK 25/19 Q1019=
201008202115 METAR LIRA 202115Z 07003KT 9999 FEW070 25/18 Q1019=
201008202045 METAR LIRA 202045Z 08003KT 9999 FEW070 25/19 Q1020=
201008202015 METAR LIRA 202015Z 04002KT 9999 SCT070 26/19 Q1020=
201008201945 METAR LIRA 201945Z 16001KT 9999 SCT070 26/19 Q1020=
201008201915 METAR LIRA 201915Z 17002KT 9999 FEW035 SCT070 27/19 Q1020=
201008201845 METAR LIRA 201845Z 25001KT 9999 FEW035 SCT070 28/19 Q1020=
201008201815 METAR LIRA 201815Z 26004KT 9999 FEW035 SCT070 28/19 Q1019=
201008201745 METAR LIRA 201745Z 28003KT 9999 FEW035 SCT070 29/19 Q1019=
201008201715 METAR LIRA 201715Z 28005KT 9999 SCT030 SCT070 29/19 Q1019=
201008201645 METAR LIRA 201645Z 27005KT 9999 FEW030 SCT060 30/20 Q1019=
201008201615 METAR LIRA 201615Z 24005KT 190V270 9999 FEW020 SCT060 30/17
                        Q1019=
201008201545 METAR LIRA 201545Z 26006KT 9999 FEW020 BKN070 30/18 Q1019=
201008201515 METAR LIRA 201515Z 22007KT 9999 FEW020 BKN070 32/18 Q1018=
201008201445 METAR LIRA 201445Z 23005KT 9999 FEW020 BKN070 32/17 Q1018=
201008201415 METAR LIRA 201415Z 21003KT 9999 FEW020 BKN070 32/16 Q1019=
201008201345 METAR LIRA 201345Z 08003KT 9999 FEW020 BKN070 32/16 Q1019=
201008201315 METAR LIRA 201315Z 29010KT 230V350 9999 FEW020 BKN070 33/17
                        Q1020=
201008201245 METAR LIRA 201245Z 21002KT 9999 FEW020 BKN070 33/19 Q1020=
201008201215 METAR LIRA 201215Z 26008KT 210V330 9999 FEW020 BKN070 33/19
                        Q1020=
201008201145 METAR LIRA 201145Z 29007KT 250V340 9999 FEW020 SCT070 33/17
                        Q1020=
201008201115 METAR LIRA 201115Z 21003KT 9999 FEW020 SCT070 32/17 Q1020=
201008201045 METAR LIRA 201045Z 29006KT 200V330 9999 FEW020 BKN070 31/17
                        Q1020=
201008201015 METAR LIRA 201015Z 31006KT 260V020 9999 FEW020 SCT070 31/17
                        Q1020=
201008200945 METAR LIRA 200945Z 03005KT 350V090 9999 FEW020 SCT070 30/17
                        Q1019=
201008200915 METAR LIRA 200915Z 25004KT 9999 FEW020 SCT070 30/17 Q1020=
201008200845 METAR LIRA 200845Z 30006KT 270V020 9999 SCT070 28/18 Q1020=
201008200815 METAR LIRA 200815Z 35005KT 320V060 9999 FEW080 27/17 Q1020=
201008200745 METAR LIRA 200745Z 01004KT 320V060 9999 FEW080 26/18 Q1020=
201008200715 METAR LIRA 200715Z 36004KT CAVOK 25/18 Q1020=
201008200645 METAR LIRA 200645Z 35003KT CAVOK 24/18 Q1020=
201008200615 METAR LIRA 200615Z 36004KT CAVOK 22/17 Q1020=
201008200545 METAR LIRA 200545Z 02002KT CAVOK 21/19 Q1019=
201008200515 METAR LIRA 200515Z 03003KT CAVOK 20/18 Q1019=
201008200500 METAR LIRA CONTUS/CB SW=
201008200445 METAR LIRA 200445Z 04003KT CAVOK 20/18 Q1018=
201008200415 METAR LIRA 200415Z 01002KT CAVOK 20/18 Q1018=
201008200400 METAR LIRA CONTUS/CB SW/LOW CLD MVG S=
201008200345 METAR LIRA 200345Z 36002KT CAVOK 21/19 Q1018=
201008200315 METAR LIRA 200315Z 33001KT CAVOK 21/19 Q1018=
201008200300 METAR LIRA INTER/CB S=
201008200245 METAR LIRA 200245Z 03003KT CAVOK 21/19 Q1018=
201008200215 METAR LIRA 200215Z 03004KT CAVOK 20/19 Q1018=
201008200145 METAR LIRA 200145Z 03002KT CAVOK 21/19 Q1018=
201008200115 METAR LIRA 200115Z 07001KT CAVOK 21/18 Q1018=
201008200045 METAR LIRA 200045Z 09003KT CAVOK 21/18 Q1018=
201008200015 METAR LIRA 200015Z 07003KT CAVOK 21/19 Q1018=
201008192350 METAR LIRA 200045Z 09003KT CAVOK 21/18 Q1018=
201008192345 METAR LIRA 192345Z 09002KT CAVOK 21/19 Q1018=
201008192315 METAR LIRA 192315Z 09004KT CAVOK 21/19 Q1018=
201008192245 METAR LIRA 192245Z 31001KT CAVOK 23/22 Q1018=
201008192215 METAR LIRA 192215Z 30001KT CAVOK 23/21 Q1018=
201008192145 METAR LIRA 192145Z 32002KT CAVOK 23/21 Q1018=
201008192115 METAR LIRA 192115Z 30001KT CAVOK 23/21 Q1018=
201008192045 METAR LIRA 192045Z 30001KT CAVOK 23/21 Q1018=
201008192015 METAR LIRA 192015Z 27002KT CAVOK 24/22 Q1018=
201008191945 METAR LIRA 191945Z 26002KT CAVOK 25/21 Q1018=
201008191915 METAR LIRA 191915Z 29002KT CAVOK 25/21 Q1018=
201008191845 METAR LIRA 191845Z 25002KT CAVOK 25/21 Q1018=
201008191815 METAR LIRA 191815Z 23001KT CAVOK 26/20 Q1017=
201008191745 METAR LIRA 191745Z 28005KT CAVOK 26/21 Q1017=
201008191715 METAR LIRA 191715Z 24004KT 200V290 CAVOK 27/21 Q1017=
201008191645 METAR LIRA 191645Z 24006KT 180V280 CAVOK 28/21 Q1017=
201008191615 METAR LIRA 191615Z 23007KT 190V300 CAVOK 28/19 Q1017=
201008191545 METAR LIRA 191545Z 24006KT 180V290 CAVOK 29/18 Q1017=
201008191515 METAR LIRA 191515Z 26008KT 210V320 CAVOK 30/17 Q1017=
201008191445 METAR LIRA 191445Z 24007KT 170V280 CAVOK 31/16 Q1017=
201008191415 METAR LIRA 191415Z 24008KT 180V300 CAVOK 31/16 Q1017=
201008191345 METAR LIRA 191345Z 24005KT 190V300 CAVOK 31/16 Q1017=
201008191315 METAR LIRA 191315Z 26008KT 190V300 CAVOK 30/15 Q1017=
201008191245 METAR LIRA 191245Z 25010KT 190V320 CAVOK 31/14 Q1017=
201008191215 METAR LIRA 191215Z 27010KT 200V320 CAVOK 31/15 Q1017=
201008191145 METAR LIRA 191145Z 27007KT 200V320 CAVOK 32/14 Q1017=
201008191115 METAR LIRA 191115Z 21008KT 210V310 CAVOK 31/14 Q1017=
201008191045 METAR LIRA 191045Z 27005KT 210V310 CAVOK 30/14 Q1017=
201008191015 METAR LIRA 191015Z 27003KT CAVOK 30/14 Q1017=
201008190945 METAR LIRA 190945Z 01003KT CAVOK 29/16 Q1017=
201008190915 METAR LIRA 190915Z 06003KT 9999 FEW080 28/17 Q1017=
201008190845 METAR LIRA 190845Z 03003KT 9999 FEW080 27/17 Q1017=
201008190815 METAR LIRA 190815Z 03002KT 9999 FEW080 25/17 Q1017=
201008190745 METAR LIRA 190745Z 31002KT 9999 FEW080 25/18 Q1017=
201008190715 METAR LIRA 190715Z 33002KT 9999 FEW080 24/18 Q1017=
201008190645 METAR LIRA 190645Z 36002KT 9999 FEW080 23/18 Q1016=
201008190615 METAR LIRA 190615Z 02003KT 9999 FEW080 20/17 Q1016=
201008190545 METAR LIRA 190545Z 36003KT 9999 FEW070 20/18 Q1016=
201008190515 METAR LIRA 190515Z 03002KT CAVOK 18/17 Q1016=
201008190445 METAR LIRA 190445Z 02004KT CAVOK 18/17 Q1015=
201008190415 METAR LIRA 190415Z 02003KT CAVOK 18/17 Q1015=
201008190345 METAR LIRA 190345Z 02002KT CAVOK 18/17 Q1015=
201008190315 METAR LIRA 190315Z 34003KT CAVOK 18/17 Q1015=
201008190245 METAR LIRA 190245Z 32004KT CAVOK 19/17 Q1015=
201008190215 METAR LIRA 190215Z 07002KT CAVOK 19/17 Q1015=
201008190145 METAR LIRA 190145Z 07002KT CAVOK 19/17 Q1015=
201008190115 METAR LIRA 190115Z 10002KT CAVOK 20/18 Q1015=
201008190045 METAR LIRA 190045Z 12001KT CAVOK 20/18 Q1015=
201008190015 METAR LIRA 190015Z 08002KT CAVOK 20/18 Q1015=
201008182350 METAR LIRA 190045Z 12001KT CAVOK 20/18 Q1015=
201008182345 METAR LIRA 182345Z 08002KT CAVOK 20/18 Q1015=
201008182315 METAR LIRA 182315Z 09004KT CAVOK 20/18 Q1015=
201008182245 METAR LIRA 182245Z 09003KT CAVOK 20/19 Q1015=
201008182215 METAR LIRA 182215Z 10003KT CAVOK 21/19 Q1015=
201008182145 METAR LIRA 182145Z 16001KT CAVOK 21/20 Q1015=
201008182115 METAR LIRA 182115Z 20002KT CAVOK 22/20 Q1014=
201008182045 METAR LIRA 182045Z 21001KT CAVOK 22/20 Q1014=
201008182015 METAR LIRA 182015Z 18003KT CAVOK 22/20 Q1014=
201008181945 METAR LIRA 181945Z 22003KT CAVOK 22/20 Q1014=
201008181915 METAR LIRA 181915Z 23003KT CAVOK 23/20 Q1013=
201008181845 METAR LIRA 181845Z 23004KT CAVOK 23/20 Q1013=
201008181815 METAR LIRA 181815Z 23003KT CAVOK 24/20 Q1013=
201008181745 METAR LIRA 181745Z 23005KT 170V270 CAVOK 24/20 Q1014=
201008181715 METAR LIRA 181715Z 23007KT CAVOK 25/19 Q1014=
201008181645 METAR LIRA 181645Z 22009KT 190V260 9999 FEW025 26/18 Q1013=
201008181615 METAR LIRA 181615Z 20007KT 150V270 9999 FEW025 26/18 Q1014=
201008181545 METAR LIRA 181545Z 21006KT 150V260 9999 FEW023 26/18 Q1014=
201008181515 METAR LIRA 181515Z 21008KT 150V260 9999 FEW023 27/17 Q1014=
201008181445 METAR LIRA 181445Z 19009KT 150V250 9999 FEW023 28/17 Q1014=
201008181415 METAR LIRA 181415Z 17005KT 130V240 9999 FEW023 28/16 Q1014=
201008181345 METAR LIRA 181345Z 17008KT 110V250 9999 FEW023 29/16 Q1014=
201008181315 METAR LIRA 181315Z 20006KT 150V250 9999 FEW023 29/16 Q1014=
201008181245 METAR LIRA 181245Z 20006KT 160V250 9999 FEW023 29/16 Q1014=
201008181215 METAR LIRA 181215Z 21005KT 150V280 9999 FEW023 29/16 Q1014=
201008181145 METAR LIRA 181145Z 16007KT 090V240 9999 FEW023 29/16 Q1015=
201008181115 METAR LIRA 181115Z 22008KT 150V270 9999 FEW023 28/15 Q1015=
201008181045 METAR LIRA 181045Z 18005KT 120V240 9999 SCT023 28/15 Q1015=
201008181015 METAR LIRA 181015Z 25006KT 170V300 9999 SCT023 28/16 Q1015=
201008180945 METAR LIRA 180945Z 25004KT 170V300 9999 SCT023 27/16 Q1015=
201008180915 METAR LIRA 180915Z 18006KT 150V250 9999 BKN023 26/16 Q1015=
201008180845 METAR LIRA 180845Z 21005KT 160V270 9999 SCT023 26/16 Q1014=
201008180815 METAR LIRA 180815Z 21005KT 130V270 9999 SCT023 25/18 Q1014=
201008180745 METAR LIRA 180745Z 20005KT 140V270 9999 SCT023 25/18 Q1014=
201008180715 METAR LIRA 180715Z 15005KT 9999 FEW023 25/18 Q1015=
201008180645 METAR LIRA 180645Z 20002KT 9999 FEW023 24/18 Q1014=
201008180615 METAR LIRA 180615Z 13003KT 9999 FEW023 23/18 Q1014=
201008180545 METAR LIRA 180545Z 12004KT 9999 FEW023 21/18 Q1014=
201008180515 METAR LIRA 180515Z 11005KT 9999 FEW023 20/17 Q1014=
201008180445 METAR LIRA 180445Z 11005KT 9999 FEW025 19/17 Q1014=
201008180415 METAR LIRA 180415Z 10005KT 9999 FEW018 20/17 Q1014=
201008180345 METAR LIRA 180345Z 11006KT 9999 FEW015 19/17 Q1014=
201008180315 METAR LIRA 180315Z 10007KT 9999 FEW080 18/16 Q1014=
201008180245 METAR LIRA 180245Z 10004KT 9999 FEW080 19/16 Q1014=
201008180215 METAR LIRA 180215Z 09004KT 9999 FEW080 19/17 Q1015=
201008180145 METAR LIRA 180145Z 10005KT 9999 FEW080 19/18 Q1015=
201008180115 METAR LIRA 180115Z 10004KT 9999 FEW080 19/18 Q1015=
201008180045 METAR LIRA 180045Z 14005KT 9999 FEW080 20/19 Q1015=
201008180015 METAR LIRA 180015Z 17003KT 9999 FEW070 20/19 Q1015=
201008172350 METAR LIRA 180045Z 14005KT 9999 FEW080 20/19 Q1015=
201008172345 METAR LIRA 172345Z 15003KT 9999 FEW070 21/19 Q1015=
201008172315 METAR LIRA 172315Z 17005KT 9999 FEW070 21/19 Q1015=
201008172245 METAR LIRA 172245Z 16005KT 9999 FEW070 21/19 Q1015=
201008172215 METAR LIRA 172215Z 17004KT 140V200 9999 FEW010 21/19 Q1015=
201008172145 METAR LIRA 172145Z 16006KT 9999 FEW010 21/19 Q1015=
201008172115 METAR LIRA 172115Z 16006KT CAVOK 21/19 Q1015=
201008172045 METAR LIRA 172045Z 16006KT CAVOK 22/19 Q1015=
201008172015 METAR LIRA 172015Z 16006KT CAVOK 22/19 Q1015=
201008171945 METAR LIRA 171945Z 16006KT CAVOK 22/19 Q1015=
201008171915 METAR LIRA 171915Z 18006KT CAVOK 22/19 Q1014=
201008171845 METAR LIRA 171845Z 18005KT 150V230 9999 FEW080 23/19 Q1014=
201008171815 METAR LIRA 171815Z 21005KT 180V250 9999 FEW025 23/19 Q1014=
201008171745 METAR LIRA 171745Z 22006KT 150V260 9999 FEW025 25/18 Q1014=
201008171715 METAR LIRA 171715Z 22007KT 180V260 9999 FEW025 25/16 Q1014=
201008171645 METAR LIRA 171645Z 23007KT 170V250 9999 FEW025 26/16 Q1014=
201008171615 METAR LIRA 171615Z 21008KT 160V260 9999 FEW025 26/16 Q1014=
201008171545 METAR LIRA 171545Z 23008KT 150V280 9999 FEW030 27/16 Q1014=
201008171515 METAR LIRA 171515Z 19007KT 130V270 9999 FEW030 27/14 Q1014=
201008171445 METAR LIRA 171445Z 22009KT 150V270 9999 FEW030 27/15 Q1014=
201008171415 METAR LIRA 171415Z 21006KT 140V270 9999 FEW025 27/15 Q1014=
201008171345 METAR LIRA 171345Z 20006KT 110V260 9999 FEW025 27/16 Q1015=
201008171315 METAR LIRA 171315Z 20009KT 120V260 9999 FEW025 26/16 Q1015=
201008171245 METAR LIRA 171245Z 18010KT 130V260 9999 FEW025 27/16 Q1015=
201008171215 METAR LIRA 171215Z 21008KT 120V230 9999 FEW025 27/17 Q1015=
201008171145 METAR LIRA 171145Z 19011KT 150V250 9999 FEW025 SCT035 27/17
                        Q1015=
201008171115 METAR LIRA 171115Z 21006KT 150V270 9999 FEW025 SCT035 27/16
                        Q1015=
201008171045 METAR LIRA 171045Z 19009KT 120V260 9999 FEW020 SCT025 26/15
                        Q1016=
201008171015 METAR LIRA 171015Z 15006KT 110V230 9999 FEW020 SCT025 26/15
                        Q1016=
201008170945 METAR LIRA 170945Z 14007KT 090V210 9999 FEW018 SCT020 27/16
                        Q1016=
201008170915 METAR LIRA 170915Z 14008KT 090V200 9999 FEW018 SCT020 25/16
                        Q1016=
201008170845 METAR LIRA 170845Z 16008KT 130V220 9999 FEW018 25/16 Q1016=
201008170815 METAR LIRA 170815Z 16009KT 110V200 9999 FEW018 25/17 Q1017=
201008170745 METAR LIRA 170745Z 15010KT 130V210 9999 FEW013 SCT070 23/17
                        Q1017=
201008170715 METAR LIRA 170715Z 16008KT 130V210 9999 FEW013 22/17 Q1016=
201008170645 METAR LIRA 170645Z 14011KT 120V180 9999 FEW013 SCT080 22/17
                        Q1016=
201008170615 METAR LIRA 170615Z 15006KT 110V200 9999 FEW020 22/17 Q1016=
201008170545 METAR LIRA 170545Z 14008KT 110V190 9999 FEW013 21/17 Q1016=
201008170515 METAR LIRA 170515Z 12003KT 9999 FEW070 18/16 Q1016=
201008170445 METAR LIRA 170445Z 11004KT 9999 FEW070 17/16 Q1016=
201008170415 METAR LIRA 170415Z 09005KT 9999 FEW070 18/16 Q1016=
201008170345 METAR LIRA 170345Z 10004KT 9999 FEW020 18/17 Q1016=
201008170315 METAR LIRA 170315Z 12003KT 9999 FEW020 18/17 Q1016=
201008170245 METAR LIRA 170245Z 13005KT 9999 FEW020 19/17 Q1016=
201008170215 METAR LIRA 170215Z 14003KT 9999 FEW020 19/17 Q1016=
201008170145 METAR LIRA 170145Z 13002KT 9999 FEW020 19/17 Q1017=
201008170115 METAR LIRA 170115Z 14003KT CAVOK 19/17 Q1017=
201008170045 METAR LIRA 170045Z 10006KT CAVOK 19/18 Q1017=
201008170015 METAR LIRA 170015Z 13003KT CAVOK 20/18 Q1017=
201008162350 METAR LIRA 170045Z 10006KT CAVOK 19/18 Q1017=
201008162345 METAR LIRA 162345Z 16004KT CAVOK 21/18 Q1018=
201008162315 METAR LIRA 162315Z 18004KT 9999 FEW018 21/17 Q1018=
201008162245 METAR LIRA 162245Z 17005KT 9999 FEW018 21/18 Q1018=
201008162215 METAR LIRA 162215Z 17005KT 9999 FEW018 21/18 Q1017=
201008162145 METAR LIRA 162145Z 17005KT 9999 FEW018 21/18 Q1017=
201008162115 METAR LIRA 162115Z 18004KT 9999 FEW018 22/18 Q1017=
201008162045 METAR LIRA 162045Z 18005KT 9999 FEW018 22/19 Q1017=
201008162015 METAR LIRA 162015Z 18005KT 9999 FEW018 22/19 Q1017=
201008161945 METAR LIRA 161945Z 18005KT CAVOK 23/19 Q1017=
201008161915 METAR LIRA 161915Z 18004KT 9999 FEW018 23/19 Q1016=
201008161845 METAR LIRA 161845Z 16005KT 150V220 9999 FEW018 23/19 Q1016=
201008161815 METAR LIRA 161815Z 20003KT 160V230 9999 FEW018 23/19 Q1016=
201008161745 METAR LIRA 161745Z 23006KT 150V260 9999 FEW018 25/18 Q1016=
201008161715 METAR LIRA 161715Z 21007KT 160V240 9999 FEW018 25/17 Q1016=
201008161645 METAR LIRA 161645Z 22007KT 170V250 9999 FEW018 26/17 Q1016=
201008161615 METAR LIRA 161615Z 22008KT 170V270 9999 FEW018 26/17 Q1016=
201008161545 METAR LIRA 161545Z 23010KT 180V280 9999 FEW018 27/16 Q1016=
201008161515 METAR LIRA 161515Z 23009KT 190V290 9999 FEW018 27/16 Q1016=
201008161445 METAR LIRA 161445Z 24009KT 190V290 9999 FEW018 27/14 Q1016=
201008161415 METAR LIRA 161415Z 21009KT 160V270 9999 FEW018 28/13 Q1016=
201008161345 METAR LIRA 161345Z 23008KT 140V290 9999 FEW018 28/13 Q1016=
201008161315 METAR LIRA 161315Z 23008KT 180V300 9999 FEW018 29/13 Q1016=
201008161245 METAR LIRA 161245Z 23007KT 140V300 9999 SCT018 29/16 Q1016=
201008161215 METAR LIRA 161215Z 25008KT 180V300 9999 SCT018 29/16 Q1016=
201008161145 METAR LIRA 161145Z 22006KT 200V310 9999 SCT018 29/13 Q1016=
201008161115 METAR LIRA 161115Z 21004KT 170V340 9999 FEW018 29/10 Q1017=
201008161045 METAR LIRA 161045Z 26004KT 210V310 9999 FEW018 29/11 Q1017=
201008161015 METAR LIRA 161015Z 02003KT 9999 FEW018 28/15 Q1017=
201008160945 METAR LIRA 160945Z 28002KT 9999 FEW018 28/15 Q1017=
201008160915 METAR LIRA 160915Z 04003KT 9999 FEW080 27/11 Q1017=
201008160845 METAR LIRA 160845Z 32002KT 9999 FEW080 26/14 Q1017=
201008160815 METAR LIRA 160815Z 01003KT 9999 FEW080 24/15 Q1017=
201008160745 METAR LIRA 160745Z 03004KT 9999 FEW080 23/15 Q1017=
201008160715 METAR LIRA 160715Z 01004KT 9999 FEW080 22/15 Q1017=
201008160645 METAR LIRA 160645Z 36004KT CAVOK 20/14 Q1017=
201008160615 METAR LIRA 160615Z 05002KT CAVOK 20/15 Q1017=
201008160545 METAR LIRA 160545Z 02003KT CAVOK 18/13 Q1016=
201008160515 METAR LIRA 160515Z 05003KT CAVOK 18/14 Q1016=
201008160445 METAR LIRA 160445Z 06002KT CAVOK 17/14 Q1016=
201008160415 METAR LIRA 160415Z 03003KT CAVOK 17/14 Q1016=
201008160345 METAR LIRA 160345Z 01002KT CAVOK 17/14 Q1016=
201008160315 METAR LIRA 160315Z 36003KT CAVOK 18/13 Q1016=
201008160245 METAR LIRA 160245Z 01003KT CAVOK 18/12 Q1016=
201008160215 METAR LIRA 160215Z 09002KT CAVOK 18/11 Q1016=
201008160145 METAR LIRA 160145Z 10004KT CAVOK 19/14 Q1016=
201008160115 METAR LIRA 160115Z 11003KT CAVOK 19/14 Q1016=
201008160045 METAR LIRA 160045Z 10003KT CAVOK 19/13 Q1016=
201008160015 METAR LIRA 160015Z 10001KT CAVOK 19/13 Q1016=
201008152350 METAR LIRA 160045Z 10003KT CAVOK 19/13 Q1016=
201008152345 METAR LIRA 152345Z 09002KT CAVOK 19/13 Q1016=
201008152315 METAR LIRA 152315Z 12002KT CAVOK 19/12 Q1016=
201008152245 METAR LIRA 152245Z 00000KT CAVOK 19/13 Q1016=
201008152215 METAR LIRA 152215Z 09002KT CAVOK 20/13 Q1016=
201008152145 METAR LIRA 152145Z 09004KT CAVOK 20/16 Q1016=
201008152115 METAR LIRA 152115Z 09003KT CAVOK 20/16 Q1016=
201008152045 METAR LIRA 152045Z 17002KT CAVOK 22/18 Q1016=
201008152015 METAR LIRA 152015Z 18002KT CAVOK 22/18 Q1016=
201008151945 METAR LIRA 151945Z 16003KT CAVOK 22/18 Q1016=
201008151915 METAR LIRA 151915Z 20005KT CAVOK 23/18 Q1016=
201008151845 METAR LIRA 151845Z 21004KT CAVOK 24/17 Q1016=
201008151815 METAR LIRA 151815Z 23004KT CAVOK 25/10 Q1016=
201008151745 METAR LIRA 151745Z 23005KT CAVOK 26/11 Q1016=
201008151715 METAR LIRA 151715Z 26004KT CAVOK 27/11 Q1016=
201008151645 METAR LIRA 151645Z 26006KT 220V310 CAVOK 28/10 Q1016=
201008151615 METAR LIRA 151615Z 27006KT 220V320 CAVOK 28/09 Q1016=
201008151545 METAR LIRA 151545Z 28006KT 190V360 CAVOK 29/09 Q1016=
201008151515 METAR LIRA 151515Z 27008KT 200V320 CAVOK 29/09 Q1016=
201008151445 METAR LIRA 151445Z 27009KT 210V330 9999 FEW080 29/11 Q1016=
201008151415 METAR LIRA 151415Z 26008KT 200V340 9999 FEW080 29/12 Q1016=
201008151345 METAR LIRA 151345Z VRB07KT 140V360 9999 FEW025 30/12 Q1016=
201008151315 METAR LIRA 151315Z 25005KT 210V300 9999 FEW025 30/12 Q1016=
201008151245 METAR LIRA 151245Z 27004KT 220V330 9999 FEW025 30/12 Q1016=
201008151215 METAR LIRA 151215Z VRB05KT 180V030 9999 FEW025 29/12 Q1016=
201008151145 METAR LIRA 151145Z 25007KT 190V330 9999 FEW025 28/15 Q1016=
201008151115 METAR LIRA 151115Z 25008KT 170V320 9999 FEW025 28/16 Q1016=
201008151045 METAR LIRA 151045Z 27009KT 220V330 9999 FEW025 28/17 Q1016=
201008151015 METAR LIRA 151015Z 18006KT 130V240 9999 SCT025 28/17 Q1016=
201008150945 METAR LIRA 150945Z 26006KT 190V330 9999 SCT025 27/17 Q1016=
201008150915 METAR LIRA 150915Z 20005KT 150V260 9999 FEW025 27/18 Q1016=
201008150845 METAR LIRA 150845Z 06003KT 9999 FEW025 26/19 Q1016=
201008150815 METAR LIRA 150815Z 22004KT 160V270 9999 FEW025 25/19 Q1016=
201008150745 METAR LIRA 150745Z 23005KT 200V280 9999 FEW020 SCT060 24/19
                        Q1016=
201008150715 METAR LIRA 150715Z 24004KT 9999 FEW020 23/20 Q1016=
201008150645 METAR LIRA 150645Z 25003KT 9999 FEW020 23/19 Q1015=
201008150615 METAR LIRA 150615Z 20001KT 9999 FEW022 22/19 Q1015=
201008150545 METAR LIRA 150545Z 15002KT 9999 FEW022 22/20 Q1015=
201008150515 METAR LIRA 150515Z 19001KT 9999 FEW023 SCT080 21/19 Q1015=
201008150445 METAR LIRA 150445Z 08002KT 9999 FEW025 22/21 Q1015=
201008150415 METAR LIRA 150415Z 13002KT 9999 FEW025 SCT070 21/20 Q1015=
201008150345 METAR LIRA 150345Z 01001KT 9999 FEW025 SCT070 21/20 Q1014=
201008150315 METAR LIRA 150315Z 29002KT 9999 FEW035 22/20 Q1014=
201008150245 METAR LIRA 150245Z 07002KT 9999 SCT035 22/20 Q1014=
201008150215 METAR LIRA 150215Z 08001KT 9999 FEW018 BKN035 22/20 Q1014=
201008150145 METAR LIRA 150145Z 10001KT 8000 FEW017 SCT035 23/21 Q1014=
201008150115 METAR LIRA 150115Z 26002KT 8000 FEW020TCU SCT035 23/22 Q1014=
201008150045 METAR LIRA 150045Z 27003KT 7000 FEW017CB SCT030 23/22 Q1013
                        RETS RERA=
201008150015 METAR LIRA 150015Z 25002KT 8000 -RA FEW017CB SCT025 23/22
                        Q1013 RETS RERA=
201008142350 METAR LIRA 150045Z 27003KT 7000 FEW017CB SCT030 23/22 Q1013
                        RETS RERA=
201008142345 METAR LIRA 142345Z 22007KT 160V310 7000 -TSRA SCT017CB BKN025
                        24/23 Q1013=
201008142315 METAR LIRA 142315Z 15010KT 9999 -TSRA SCT020CB SCT030 25/21
                        Q1013=
201008142245 METAR LIRA 142245Z 22005KT 9999 VCTS FEW020CB SCT070 25/21
                        Q1013=
201008142215 METAR LIRA 142215Z 17006KT 140V210 9999 FEW030 SCT060 26/19
                        Q1013=
201008142145 METAR LIRA 142145Z 19008KT 120V220 9999 SCT045 26/19 Q1013=
201008142115 METAR LIRA 142115Z 19008KT 160V230 9999 SCT045 26/18 Q1012=
201008142045 METAR LIRA 142045Z 20003KT 9999 FEW070 27/18 Q1012=
201008142015 METAR LIRA 142015Z 15006KT 9999 SCT045 27/18 Q1012=
201008141945 METAR LIRA 141945Z 17006KT 140V200 9999 SCT060 27/17 Q1012=
201008141915 METAR LIRA 141915Z 16009KT 120V190 9999 SCT035 SCT070 28/17
                        Q1012=
201008141845 METAR LIRA 141845Z 15010KT 120V180 9999 SCT035 27/18 Q1012=
201008141815 METAR LIRA 141815Z 15008KT 120V200 9999 SCT030 27/20 Q1012=
201008141745 METAR LIRA 141745Z 18008KT 150V220 9999 FEW018 SCT030 27/20
                        Q1012=
201008141715 METAR LIRA 141715Z 16016KT 130V190 9999 FEW017 SCT030 27/20
                        Q1011=
201008141645 METAR LIRA 141645Z 16016KT 130V190 9999 FEW017 SCT035 28/20
                        Q1011=
201008141615 METAR LIRA 141615Z 17014KT 130V250 9999 FEW017 BKN030 28/19
                        Q1011=
201008141545 METAR LIRA 141545Z 17017KT 130V220 9999 FEW040 29/19 Q1012=
201008141515 METAR LIRA 141515Z 15021KT 120V200 9999 FEW040 30/17 Q1012=
201008141445 METAR LIRA 141445Z 15021KT 120V200 9999 FEW045 30/15 Q1012=
201008141415 METAR LIRA 141415Z 15022G39KT 120V180 9999 FEW045 31/16 Q1011=
201008141345 METAR LIRA 141345Z 14024KT 9999 FEW045 31/15 Q1010=
201008141315 METAR LIRA 141315Z 14025KT 9999 FEW045 SCT080 30/14 Q1011=
201008141245 METAR LIRA 141245Z 14020KT 110V180 9999 FEW040 SCT080 30/15
                        Q1011=
201008141215 METAR LIRA 141215Z 13023KT 100V160 9999 FEW040 SCT080 30/14
                        Q1011=
201008141145 METAR COR LIRA 141145Z 07016KT 9999 FEW023 SCT040 BKN080
                        26/20 Q1013=
201008141115 METAR LIRA 141115Z 05008KT 020V100 9999 FEW020 SCT040 BKN080
                        25/20 Q1013 RETS=
201008141045 METAR LIRA 141045Z 08004KT 9000 -RA FEW020CB SCT040 BKN080
                        24/21 Q1014 RETS=
201008141015 METAR LIRA 141015Z 04004KT 350V060 9000 -TSRA FEW020CB SCT040
                        BKN080 25/20 Q1013=
201008140945 METAR LIRA 140945Z 15003KT 9000 -TSRA FEW020CB SCT040 BKN070
                        26/13 Q1014 RETS=
201008140915 METAR LIRA 140915Z 15005KT 120V210 9999 -RA FEW020CB SCT040
                        BKN080 26/15 Q1014 RETS=
201008140845 METAR LIRA 140845Z 15009KT 110V190 9999 -TSRA FEW020CB SCT040
                        BKN080 26/15 Q1013=
201008140815 METAR LIRA 140815Z 22003KT 9999 BKN040 SCT080 26/17 Q1013=
201008140745 METAR LIRA 140745Z 36001KT 9999 BKN040 SCT070 25/19 Q1013=
201008140715 METAR LIRA 140715Z 00000KT 9999 BKN040 SCT070 24/19 Q1013=
201008140645 METAR LIRA 140645Z 01003KT 9999 BKN040 SCT070 24/19 Q1013=
201008140615 METAR LIRA 140615Z 36003KT 9999 FEW023 SCT040 BKN070 23/18
                        Q1013=
201008140545 METAR LIRA 140545Z 02003KT 9999 FEW023 SCT035 BKN070 22/18
                        Q1013=
201008140515 METAR LIRA 140515Z 01002KT 9999 FEW023 SCT035 BKN070 21/19
                        Q1013=
201008140445 METAR LIRA 140445Z 36002KT 9999 FEW023 SCT035 21/19 Q1013=
201008140415 METAR LIRA 140415Z 02002KT 9999 SCT023 SCT035 21/18 Q1013=
201008140345 METAR LIRA 140345Z 04005KT 010V070 9999 SCT025 BKN070 20/18
                        Q1013=
201008140315 METAR LIRA 140315Z 05004KT 9999 FEW025 BKN080 20/18 Q1013=
201008140245 METAR LIRA 140245Z 04004KT 9999 FEW025 BKN080 20/17 Q1013=
201008140215 METAR LIRA 140215Z 02001KT 9999 FEW070 21/19 Q1013=
201008140145 METAR LIRA 140145Z 02001KT 9999 FEW070 21/19 Q1013=
201008140115 METAR LIRA 140115Z 27001KT 9999 FEW080 22/19 Q1013=
201008140045 METAR LIRA 140045Z 20001KT 9999 FEW030 22/19 Q1013=
201008140015 METAR LIRA 140015Z 26002KT 9999 FEW030 22/20 Q1013=
201008132350 METAR LIRA 140045Z 20001KT 9999 FEW030 22/19 Q1013=
201008132345 METAR LIRA 132345Z 23001KT CAVOK 22/20 Q1013=
201008132315 METAR LIRA 132315Z 04002KT CAVOK 22/20 Q1013=
201008132245 METAR LIRA 132245Z 05003KT CAVOK 23/20 Q1013=
201008132215 METAR LIRA 132215Z 06004KT CAVOK 23/20 Q1013=
201008132145 METAR LIRA 132145Z 05004KT CAVOK 23/20 Q1013=
201008132115 METAR LIRA 132115Z 17003KT 9999 FEW070 24/20 Q1013=
201008132045 METAR LIRA 132045Z 16004KT 9999 FEW070 24/21 Q1013=
201008132015 METAR LIRA 132015Z 18004KT 9999 FEW070 24/21 Q1013=
201008131945 METAR LIRA 131945Z 21003KT 9999 FEW025 SCT080 25/21 Q1013=
201008131915 METAR LIRA 131915Z 21003KT 9999 FEW025 SCT080 25/21 Q1013=
201008131845 METAR LIRA 131845Z 22003KT 9999 FEW025 26/20 Q1013=
201008131815 METAR LIRA 131815Z 29003KT 9999 FEW020TCU SCT035 26/19 Q1013=
201008131745 METAR LIRA 131745Z 29005KT 260V320 9999 FEW020TCU SCT035
                        27/20 Q1013=
201008131715 METAR LIRA 131715Z 26004KT 210V280 9999 FEW020 27/19 Q1013=
201008131645 METAR LIRA 131645Z 22005KT 200V270 9999 FEW035 28/20 Q1013=
201008131615 METAR LIRA 131615Z 22006KT 140V270 9999 FEW020 SCT080 28/20
                        Q1013=
201008131545 METAR LIRA 131545Z 21007KT 160V270 9999 FEW020 SCT035 BKN080
                        28/19 Q1013=
201008131515 METAR LIRA 131515Z 21008KT 150V270 9999 FEW020 SCT080 29/19
                        Q1013=
201008131445 METAR LIRA 131445Z 20010KT 150V250 9999 FEW020 SCT080 29/20
                        Q1013=
201008131415 METAR LIRA 131415Z 24008KT 180V290 9999 FEW020 SCT080 30/19
                        Q1013=
201008131345 METAR LIRA 131345Z 25007KT 200V300 9999 FEW020 SCT080 28/19
                        Q1013=
201008131315 METAR LIRA 131315Z 23005KT 190V280 9999 FEW020 SCT080 28/19
                        Q1013=
201008131245 METAR LIRA 131245Z 14010KT 090V190 9999 -RA FEW020 FEW021TCU
                        SCT030 27/19 Q1013=
201008131215 METAR LIRA 131215Z 21009KT 160V270 9999 FEW020 FEW021TCU
                        SCT030 28/17 Q1013=
201008131145 METAR LIRA 131145Z 19009KT 150V250 9999 FEW023 SCT040 29/19
                        Q1013=
201008131115 METAR LIRA 131115Z 19006KT 130V240 9999 FEW023 SCT040 28/20
                        Q1013=
201008131045 METAR LIRA 131045Z 18009KT 130V230 9999 FEW040 SCT080 28/18
                        Q1013=
201008131015 METAR LIRA 131015Z 19007KT 140V220 9999 FEW040 SCT080 28/18
                        Q1013=
201008130945 METAR LIRA 130945Z 20008KT 150V260 9999 FEW040 SCT080 28/17
                        Q1013=
201008130915 METAR LIRA 130915Z 18008KT 140V220 9999 FEW040 SCT080 29/16
                        Q1013=
201008130845 METAR LIRA 130845Z 16009KT 120V220 9999 FEW035 SCT080 29/17
                        Q1013=
201008130815 METAR LIRA 130815Z 19010KT 150V240 9999 FEW035 27/18 Q1013=
201008130745 METAR LIRA 130745Z 24004KT 9999 FEW035 27/19 Q1013=
201008130715 METAR LIRA 130715Z 30002KT 9999 FEW035 25/20 Q1012=
201008130645 METAR LIRA 130645Z 35004KT 9999 FEW080 25/20 Q1013=
201008130615 METAR LIRA 130615Z 04004KT 9999 FEW080 23/18 Q1013=
201008130545 METAR LIRA 130545Z 05002KT 9999 FEW080 22/18 Q1013=
201008130515 METAR LIRA 130515Z 07004KT 9999 FEW080 21/18 Q1013=
201008130445 METAR LIRA 130445Z 13002KT 9999 FEW080 21/19 Q1013=
201008130415 METAR LIRA 130415Z 17002KT 9999 FEW080 21/18 Q1013=
201008130345 METAR LIRA 130345Z 14003KT 9999 FEW018 21/16 Q1013=
201008130315 METAR LIRA 130315Z 05002KT 9999 FEW018 21/17 Q1013=
201008130245 METAR LIRA 130245Z 04004KT 9999 FEW018 20/17 Q1014=
201008130215 METAR LIRA 130215Z 04004KT 9999 FEW018 20/17 Q1014=
201008130145 METAR LIRA 130145Z 12001KT 9999 FEW018 21/19 Q1014=
201008130115 METAR LIRA 130115Z 12001KT 9999 FEW018 21/19 Q1014=
201008130045 METAR LIRA 130045Z 10004KT 9999 FEW018 21/20 Q1014=
201008130015 METAR LIRA 130015Z 10003KT 9999 FEW018 22/20 Q1014=
201008122350 METAR LIRA 130045Z 10004KT 9999 FEW018 21/20 Q1014=
201008122345 METAR LIRA 122345Z 09003KT 9999 FEW070 23/20 Q1014=
201008122315 METAR LIRA 122315Z 09002KT 9999 FEW070 23/21 Q1014=
201008122245 METAR LIRA 122245Z 12002KT 9999 FEW070 23/21 Q1014=
201008122215 METAR LIRA 122215Z 22002KT 9999 FEW070 23/21 Q1014=
201008122145 METAR LIRA 122145Z 16002KT 9999 FEW018 23/22 Q1014=
201008122115 METAR LIRA 122115Z 15002KT 9999 FEW018 24/22 Q1014=
201008122045 METAR LIRA 122045Z 21002KT 9999 FEW018 24/22 Q1014=
201008122015 METAR LIRA 122015Z 21001KT 9999 FEW018 24/23 Q1014=
201008121945 METAR LIRA 121945Z 21001KT 9999 FEW018 24/22 Q1014=
201008121915 METAR LIRA 121915Z 21005KT 9999 FEW018 24/22 Q1014=
201008121845 METAR LIRA 121845Z 23004KT 9999 FEW018 25/22 Q1013=
201008121815 METAR LIRA 121815Z 22004KT 9999 FEW018 26/22 Q1013=
201008121745 METAR LIRA 121745Z 21005KT 160V250 9999 FEW018 27/21 Q1013=
201008121715 METAR LIRA 121715Z 21005KT 170V270 9999 FEW018 27/20 Q1013=
201008121645 METAR LIRA 121645Z 23007KT 180V270 9999 FEW018 27/20 Q1013=
201008121615 METAR LIRA 121615Z 22008KT 170V280 9999 FEW018 27/19 Q1013=
201008121545 METAR LIRA 121545Z 19009KT 150V260 9999 FEW018 28/19 Q1013=
201008121515 METAR LIRA 121515Z 22005KT 170V320 9999 FEW025 28/20 Q1013=
201008121445 METAR LIRA 121445Z 23008KT 160V300 9999 FEW025 29/20 Q1014=
201008121415 METAR LIRA 121415Z 23008KT 180V300 9999 FEW025 29/19 Q1014=
201008121345 METAR LIRA 121345Z 23006KT 160V300 9999 FEW025 28/18 Q1014=
201008121315 METAR LIRA 121315Z 23008KT 180V320 9999 FEW020 29/18 Q1014=
201008121245 METAR LIRA 121245Z 24007KT 150V300 9999 FEW020 29/18 Q1014=
201008121215 METAR LIRA 121215Z 23006KT 140V290 9999 FEW017TCU SCT018
                        28/20 Q1014=
201008121145 METAR LIRA 121145Z 22006KT 140V270 9999 FEW018TCU SCT020
                        29/20 Q1014=
201008121115 METAR LIRA 121115Z 19005KT 140V260 9999 FEW018TCU SCT020
                        29/20 Q1014=
201008121045 METAR LIRA 121045Z 25004KT 190V320 9999 FEW018TCU SCT020
                        29/20 Q1014=
201008121015 METAR LIRA 121015Z 20006KT 170V290 9999 FEW018TCU SCT020
                        29/19 Q1014=
201008120945 METAR LIRA 120945Z 25004KT 160V320 9999 FEW017TCU SCT018
                        29/18 Q1014=
201008120915 METAR LIRA 120915Z 20005KT 9999 FEW017TCU SCT018 28/18 Q1014=
201008120845 METAR LIRA 120845Z 23005KT 200V330 9999 SCT017TCU SCT018
                        28/19 Q1014=
201008120815 METAR LIRA 120815Z 28003KT 9999 SCT017TCU SCT018 27/20 Q1014=
201008120745 METAR LIRA 120745Z 23002KT 9999 SCT017TCU SCT018 26/20 Q1013=
201008120715 METAR LIRA 120715Z 16002KT 9000 FEW006 FEW017TCU SCT018 26/21
                        Q1013=
201008120645 METAR LIRA 120645Z 10003KT 9000 FEW006 SCT018 25/21 Q1013=
201008120615 METAR LIRA 120615Z 10003KT 9000 FEW006 24/22 Q1014=
201008120545 METAR LIRA 120545Z 10004KT 9000 FEW006 23/21 Q1014=
201008120515 METAR LIRA 120515Z 11004KT 9000 FEW007 SCT018 22/20 Q1014=
201008120445 METAR LIRA 120445Z 10004KT 9000 FEW007 SCT015 22/20 Q1014=
201008120415 METAR LIRA 120415Z 11002KT 9000 FEW007 SCT018 22/20 Q1014=
201008120345 METAR LIRA 120345Z 13002KT 9000 SCT007 22/20 Q1014=
201008120315 METAR LIRA 120315Z 12002KT 9000 SCT007 22/20 Q1014=
201008120245 METAR LIRA 120245Z 11003KT 9000 SCT007 22/20 Q1014=
201008120215 METAR LIRA 120215Z 09002KT 9000 FEW010 22/20 Q1014=
201008120145 METAR LIRA 120145Z 15004KT 9000 FEW010 22/20 Q1014=
201008120115 METAR LIRA 120115Z 13003KT 9000 SCT007 22/20 Q1014=
201008120045 METAR LIRA 120045Z 14003KT 9000 SCT007 22/20 Q1014=
201008120015 METAR LIRA 120015Z 15002KT 9000 SCT010 22/19 Q1015=
201008112350 METAR LIRA 120045Z 14003KT 9000 SCT007 22/20 Q1014=
201008112345 METAR LIRA 112345Z 14003KT 9000 SCT010 22/19 Q1015=
201008112315 METAR LIRA 112315Z 12001KT 9000 SCT010 22/20 Q1015=
201008112245 METAR LIRA 112245Z 12001KT 9000 SCT010 23/20 Q1015=
201008112215 METAR LIRA 112215Z 15002KT 9000 FEW010 23/21 Q1015=
201008112145 METAR LIRA 112145Z 16002KT 9000 FEW010 23/21 Q1015=
201008112115 METAR LIRA 112115Z 17003KT 9000 FEW010 23/21 Q1015=
201008112045 METAR LIRA 112045Z 17004KT CAVOK 23/22 Q1015=
201008112015 METAR LIRA 112015Z 19003KT CAVOK 23/22 Q1015=
201008111945 METAR LIRA 111945Z 21003KT CAVOK 24/22 Q1015=
201008111915 METAR LIRA 111915Z 20006KT 160V230 CAVOK 24/22 Q1014=
201008111845 METAR LIRA 111845Z 22004KT CAVOK 25/21 Q1014=
201008111815 METAR LIRA 111815Z 23004KT CAVOK 26/21 Q1014=
201008111745 METAR LIRA 111745Z 22005KT 210V280 9999 FEW020 27/20 Q1014=
201008111715 METAR LIRA 111715Z 23006KT 200V300 9999 FEW020 FEW023CB 28/19
                        Q1014=
201008111645 METAR LIRA 111645Z 23005KT 180V300 9999 FEW020 FEW021CB 28/19
                        Q1014=
201008111615 METAR LIRA 111615Z 23006KT 160V300 9999 FEW020 FEW021CB 29/18
                        Q1014=
201008111545 METAR LIRA 111545Z 23007KT 180V280 9999 FEW020 FEW021CB 29/18
                        Q1014=
201008111515 METAR LIRA 111515Z 23008KT 170V280 9999 FEW020 FEW021CB 29/18
                        Q1014=
201008111445 METAR LIRA 111445Z 23008KT 180V320 9999 FEW020 FEW021CB 30/17
                        Q1014=
201008111415 METAR LIRA 111415Z 23008KT 170V300 9999 FEW020 FEW021TCU
                        30/17 Q1014=
201008111345 METAR LIRA 111345Z 24007KT 170V300 9999 FEW020 FEW021TCU
                        30/17 Q1014=
201008111315 METAR LIRA 111315Z 24008KT 180V310 9999 FEW020 30/17 Q1015=
201008111245 METAR LIRA 111245Z 25007KT 190V360 9999 FEW020 30/16 Q1015=
201008111215 METAR LIRA 111215Z 23008KT 160V310 9999 FEW020 30/17 Q1015=
201008111145 METAR LIRA 111145Z 24007KT 140V330 9999 FEW020 30/19 Q1015=
201008111115 METAR LIRA 111115Z 22006KT 160V290 9999 FEW020 30/19 Q1015=
201008111045 METAR LIRA 111045Z 27005KT 180V320 9999 FEW020 30/20 Q1015=
201008111015 METAR LIRA 111015Z 25007KT 170V310 9999 FEW020 30/20 Q1015=
201008110945 METAR LIRA 110945Z 19006KT 130V250 9999 FEW020 30/17 Q1015=
201008110915 METAR LIRA 110915Z 20004KT 150V260 9999 FEW020 30/17 Q1015=
201008110845 METAR LIRA 110845Z 24004KT CAVOK 29/18 Q1015=
201008110815 METAR LIRA 110815Z 25004KT CAVOK 28/18 Q1015=
201008110745 METAR LIRA 110745Z 26002KT CAVOK 26/19 Q1015=
201008110715 METAR LIRA 110715Z 34001KT CAVOK 25/18 Q1015=
201008110645 METAR LIRA 110645Z 33002KT 9999 FEW080 23/18 Q1015=
201008110615 METAR LIRA 110615Z 35002KT 9999 FEW080 23/17 Q1015=
201008110545 METAR LIRA 110545Z 32002KT 9999 FEW080 22/17 Q1015=
201008110515 METAR LIRA 110515Z 35001KT 9999 FEW080 21/17 Q1014=
201008110445 METAR LIRA 110445Z 00000KT 9999 FEW080 20/16 Q1014=
201008110415 METAR LIRA 110415Z 00000KT 9999 FEW080 20/17 Q1014=
201008110345 METAR LIRA 110345Z 07001KT 9999 FEW080 20/15 Q1014=
201008110315 METAR LIRA 110315Z 09003KT 9999 FEW010 20/15 Q1014=
201008110245 METAR LIRA 110245Z 10002KT CAVOK 21/15 Q1014=
201008110215 METAR LIRA 110215Z 13004KT 9999 FEW010 20/16 Q1014=
201008110145 METAR LIRA 110145Z 14001KT 8000 SCT006 22/20 Q1014=
201008110115 METAR LIRA 110115Z 15002KT 8000 SCT006 22/21 Q1014=
201008110045 METAR LIRA 110045Z 16003KT 8000 SCT005 22/21 Q1015=
201008110015 METAR LIRA 110015Z 02003KT CAVOK 23/22 Q1015=
201008102350 METAR LIRA 110045Z 16003KT 8000 SCT005 22/21 Q1015=
201008102345 METAR LIRA 102345Z 18003KT CAVOK 23/22 Q1015=
201008102315 METAR LIRA 102315Z 17004KT CAVOK 23/22 Q1015=
201008102245 METAR LIRA 102245Z 17004KT CAVOK 23/21 Q1015=
201008102215 METAR LIRA 102215Z 17004KT CAVOK 23/21 Q1015=
201008102145 METAR LIRA 102145Z 17004KT CAVOK 24/21 Q1015=
201008102115 METAR LIRA 102115Z 17005KT CAVOK 24/21 Q1015=
201008102045 METAR LIRA 102045Z 18004KT CAVOK 24/19 Q1014=
201008102015 METAR LIRA 102015Z 18004KT CAVOK 25/18 Q1014=
201008101945 METAR LIRA 101945Z 19004KT CAVOK 25/18 Q1014=
201008101915 METAR LIRA 101915Z 20003KT CAVOK 25/17 Q1014=
201008101845 METAR LIRA 101845Z 23003KT CAVOK 26/17 Q1014=
201008101815 METAR LIRA 101815Z 23004KT CAVOK 27/18 Q1014=
201008101745 METAR LIRA 101745Z 23005KT 190V260 CAVOK 28/17 Q1014=
201008101715 METAR LIRA 101715Z 24006KT 180V300 CAVOK 28/17 Q1014=
201008101645 METAR LIRA 101645Z 25006KT 200V290 CAVOK 29/16 Q1014=
201008101615 METAR LIRA 101615Z 23007KT 190V290 9999 FEW020 30/17 Q1014=
201008101545 METAR LIRA 101545Z 22007KT 150V280 9999 FEW020 30/19 Q1014=
201008101515 METAR LIRA 101515Z 21007KT 140V250 9999 FEW020 31/19 Q1014=
201008101445 METAR LIRA 101445Z 22007KT 150V270 9999 FEW020 31/19 Q1014=
201008101415 METAR LIRA 101415Z 23006KT 170V280 9999 FEW020 30/17 Q1015=
201008101345 METAR LIRA 101345Z 22006KT 150V290 9999 FEW020 31/18 Q1015=
201008101315 METAR LIRA 101315Z 25007KT 190V320 9999 SCT020 31/18 Q1015=
201008101245 METAR LIRA 101245Z 22007KT 130V280 9999 SCT020 31/17 Q1015=
201008101215 METAR LIRA 101215Z 22007KT 150V310 9999 SCT020 32/18 Q1015=
201008101145 METAR LIRA 101145Z 20007KT 140V260 9999 SCT020 31/19 Q1015=
201008101115 METAR LIRA 101115Z 21007KT 160V300 9999 SCT020 31/20 Q1015=
201008101045 METAR LIRA 101045Z 15006KT 090V200 9999 FEW020 31/20 Q1015=
201008101015 METAR LIRA 101015Z 22005KT 100V290 9999 FEW022 31/19 Q1015=
201008101000 METAR LIRA CONTUS CB NW W=
201008100945 METAR LIRA 100945Z 21004KT 160V230 9999 FEW022 31/17 Q1015=
201008100915 METAR LIRA 100915Z 22002KT CAVOK 30/17 Q1015=
201008100845 METAR LIRA 100845Z 34003KT CAVOK 28/16 Q1015=
201008100815 METAR LIRA 100815Z 24002KT CAVOK 27/17 Q1015=
201008100745 METAR LIRA 100745Z 29002KT CAVOK 26/16 Q1015=
201008100715 METAR LIRA 100715Z 03003KT CAVOK 25/16 Q1015=
201008100645 METAR LIRA 100645Z 01004KT CAVOK 23/17 Q1015=
201008100615 METAR LIRA 100615Z 01003KT CAVOK 22/17 Q1015=
201008100545 METAR LIRA 100545Z 01004KT 9999 FEW070 22/17 Q1014=
201008100515 METAR LIRA 100515Z 34002KT 9999 SCT070 20/17 Q1014=
201008100445 METAR LIRA 100445Z 05003KT 9999 SCT070 20/17 Q1014=
201008100415 METAR LIRA 100415Z 31002KT 9999 FEW021 SCT070 21/19 Q1014=
201008100345 METAR LIRA 100345Z 00000KT 9999 SCT060 20/18 Q1014=
201008100315 METAR LIRA 100315Z 31002KT 9999 SCT070 21/17 Q1014=
201008100245 METAR LIRA 100245Z 09002KT 9999 BKN070 21/18 Q1015=
201008100215 METAR LIRA 100215Z 08002KT 9999 BKN070 21/18 Q1014=
201008100145 METAR LIRA 100145Z 09003KT 9999 BKN070 20/18 Q1015=
201008100115 METAR LIRA 100115Z VRB01KT 9999 FEW070 20/18 Q1015=
201008100045 METAR LIRA 100045Z 16002KT 9999 FEW070 21/19 Q1015=
201008100015 METAR LIRA 100015Z 18002KT CAVOK 21/19 Q1015=
201008092350 METAR LIRA 100045Z 16002KT 9999 FEW070 21/19 Q1015=
201008092345 METAR LIRA 092345Z 22003KT CAVOK 21/19 Q1015=
201008092315 METAR LIRA 092315Z 24002KT CAVOK 21/17 Q1015=
201008092245 METAR LIRA 092245Z 08002KT CAVOK 22/16 Q1015=
201008092215 METAR LIRA 092215Z 11001KT CAVOK 22/16 Q1015=
201008092145 METAR LIRA 092145Z 24002KT CAVOK 22/18 Q1015=
201008092115 METAR LIRA 092115Z 10003KT CAVOK 23/17 Q1015=
201008092045 METAR LIRA 092045Z 10002KT CAVOK 24/19 Q1015=
201008092015 METAR LIRA 092015Z 18003KT CAVOK 24/20 Q1015=
201008091945 METAR LIRA 091945Z 20003KT CAVOK 24/22 Q1015=
201008091915 METAR LIRA 091915Z 19003KT 9999 FEW080 SCT200 25/21 Q1015=
201008091845 METAR LIRA 091845Z 21004KT 9999 FEW080 SCT200 25/21 Q1015=
201008091815 METAR LIRA 091815Z 23004KT 9999 FEW080 SCT200 25/21 Q1015=
201008091745 METAR LIRA 091745Z 23006KT 200V290 9999 FEW080 26/20 Q1015=
201008091715 METAR LIRA 091715Z 23008KT 190V310 CAVOK 28/18 Q1015=
201008091645 METAR LIRA 091645Z 26007KT 190V350 9999 FEW020 SCT200 29/13
                        Q1015=
201008091615 METAR LIRA 091615Z 27009KT 210V330 9999 FEW020 30/15 Q1015=
201008091545 METAR LIRA 091545Z 27009KT 220V330 9999 FEW020 31/14 Q1015=
201008091515 METAR LIRA 091515Z 27009KT 210V330 9999 FEW020 31/13 Q1015=
201008091445 METAR LIRA 091445Z 27009KT 210V320 9999 FEW020 31/14 Q1015=
201008091415 METAR LIRA 091415Z 25007KT 190V320 9999 FEW020 31/14 Q1015=
201008091345 METAR LIRA 091345Z 27009KT 210V310 CAVOK 32/14 Q1015=
201008091315 METAR LIRA 091315Z 27010KT 220V330 CAVOK 32/14 Q1015=
201008091245 METAR LIRA 091245Z 27004KT CAVOK 33/12 Q1015=
201008091215 METAR LIRA 091215Z 21005KT CAVOK 33/12 Q1016=
201008091145 METAR LIRA 091145Z 35004KT CAVOK 32/11 Q1016=
201008091115 METAR LIRA 091115Z 31006KT 270V060 CAVOK 31/11 Q1016=
201008091045 METAR LIRA 091045Z 34006KT 270V030 CAVOK 31/10 Q1016=
201008091015 METAR LIRA 091015Z 36006KT 300V060 CAVOK 31/10 Q1017=
201008090945 METAR LIRA 090945Z 01005KT 320V040 CAVOK 30/12 Q1017=
201008090915 METAR LIRA 090915Z 33005KT CAVOK 29/14 Q1017=
201008090845 METAR LIRA 090845Z 33003KT CAVOK 27/17 Q1017=
201008090815 METAR LIRA 090815Z 35003KT CAVOK 26/17 Q1017=
201008090745 METAR LIRA 090745Z 03003KT CAVOK 25/18 Q1017=
201008090715 METAR LIRA 090715Z 34002KT CAVOK 24/18 Q1016=
201008090645 METAR LIRA 090645Z 34002KT CAVOK 21/17 Q1016=
201008090615 METAR LIRA 090615Z 32004KT CAVOK 20/16 Q1016=
201008090545 METAR LIRA 090545Z 31003KT CAVOK 19/15 Q1016=
201008090515 METAR LIRA 090515Z 33002KT CAVOK 18/15 Q1016=
201008090445 METAR LIRA 090445Z 33002KT CAVOK 18/15 Q1016=
201008090415 METAR LIRA 090415Z 06002KT CAVOK 18/14 Q1016=
201008090345 METAR LIRA 090345Z 05004KT CAVOK 18/14 Q1016=
201008090315 METAR LIRA 090315Z 35001KT CAVOK 18/13 Q1016=
201008090245 METAR LIRA 090245Z 09001KT CAVOK 18/13 Q1016=
201008090215 METAR LIRA 090215Z 08001KT CAVOK 18/13 Q1016=
201008090145 METAR LIRA 090145Z 08002KT CAVOK 19/13 Q1016=
201008090115 METAR LIRA 090115Z 15001KT CAVOK 19/13 Q1016=
201008090045 METAR LIRA 090045Z 14001KT CAVOK 19/13 Q1016=
201008090015 METAR LIRA 090015Z 16001KT CAVOK 20/12 Q1017=
201008082350 METAR LIRA 090045Z 14001KT CAVOK 19/13 Q1016=
201008082345 METAR LIRA 082345Z 16002KT CAVOK 20/14 Q1017=
201008082315 METAR LIRA 082315Z 00000KT CAVOK 20/16 Q1017=
201008082245 METAR LIRA 082245Z 00000KT CAVOK 21/16 Q1017=
201008082215 METAR LIRA 082215Z 16004KT CAVOK 22/18 Q1017=
201008082145 METAR LIRA 082145Z 15003KT CAVOK 22/18 Q1017=
201008082115 METAR LIRA 082115Z 18004KT CAVOK 23/18 Q1017=
201008082045 METAR LIRA 082045Z 17003KT CAVOK 23/18 Q1017=
201008082015 METAR LIRA 082015Z 18003KT CAVOK 23/17 Q1017=
201008081945 METAR LIRA 081945Z 19003KT CAVOK 23/17 Q1017=
201008081915 METAR LIRA 081915Z 21004KT CAVOK 23/15 Q1016=
201008081845 METAR LIRA 081845Z 21005KT 160V240 CAVOK 24/14 Q1016=
201008081815 METAR LIRA 081815Z 22005KT CAVOK 25/15 Q1016=
201008081745 METAR LIRA 081745Z 23005KT 200V300 CAVOK 26/14 Q1016=
201008081715 METAR LIRA 081715Z 23008KT 190V280 CAVOK 27/12 Q1016=
201008081645 METAR LIRA 081645Z 26007KT 200V330 CAVOK 28/12 Q1016=
201008081615 METAR LIRA 081615Z 25007KT 180V340 CAVOK 28/11 Q1016=
201008081545 METAR LIRA 081545Z 27011KT 230V330 CAVOK 29/11 Q1016=
201008081515 METAR LIRA 081515Z 26010KT 200V310 CAVOK 29/12 Q1016=
201008081445 METAR LIRA 081445Z 27011KT 200V360 9999 FEW018 29/12 Q1016=
201008081415 METAR LIRA 081415Z 27010KT 210V330 9999 FEW018 29/13 Q1016=
201008081345 METAR LIRA 081345Z 27011KT 210V330 9999 FEW018 30/13 Q1016=
201008081315 METAR LIRA 081315Z 28010KT 220V320 9999 FEW018 30/15 Q1016=
201008081245 METAR LIRA 081245Z 27010KT 210V330 9999 FEW018 31/15 Q1017=
201008081215 METAR LIRA 081215Z 26007KT 200V300 9999 FEW018 30/14 Q1017=
201008081145 METAR LIRA 081145Z 35007KT 300V060 9999 FEW018 30/12 Q1017=
201008081115 METAR LIRA 081115Z 29004KT 240V330 9999 FEW018 30/12 Q1017=
201008081045 METAR LIRA 081045Z 34005KT 270V020 9999 FEW018 29/12 Q1018=
201008081015 METAR COR LIRA 081015Z 34006KT 290V050 9999 FEW018 29/12
                        Q1018=
201008080945 METAR LIRA 080945Z 31006KT 270V360 CAVOK 28/13 Q1018=
201008080915 METAR LIRA 080915Z 34006KT 260V030 CAVOK 27/13 Q1018=
201008080845 METAR LIRA 080845Z 33004KT CAVOK 26/16 Q1018=
201008080815 METAR LIRA 080815Z 36004KT CAVOK 25/16 Q1018=
201008080745 METAR LIRA 080745Z 01003KT CAVOK 24/17 Q1018=
201008080715 METAR LIRA 080715Z 36003KT CAVOK 23/16 Q1018=
201008080645 METAR LIRA 080645Z 36005KT 310V040 CAVOK 22/16 Q1017=
201008080615 METAR LIRA 080615Z 36005KT 310V040 CAVOK 21/17 Q1017=
201008080545 METAR LIRA 080545Z 36004KT CAVOK 19/16 Q1017=
201008080515 METAR LIRA 080515Z 33004KT CAVOK 18/16 Q1017=
201008080445 METAR LIRA 080445Z 32003KT CAVOK 18/15 Q1017=
201008080415 METAR LIRA 080415Z 34002KT CAVOK 18/15 Q1017=
201008080345 METAR LIRA 080345Z 05004KT CAVOK 18/16 Q1016=
201008080315 METAR LIRA 080315Z 35003KT CAVOK 18/16 Q1016=
201008080245 METAR LIRA 080245Z 35003KT CAVOK 18/16 Q1017=
201008080215 METAR LIRA 080215Z 23002KT CAVOK 19/16 Q1017=
201008080145 METAR LIRA 080145Z 07002KT CAVOK 19/15 Q1017=
201008080115 METAR LIRA 080115Z 15002KT CAVOK 20/16 Q1017=
201008072245 METAR LIRA 072245Z 18002KT CAVOK 21/17 Q1017=
201008072215 METAR LIRA 072215Z 19002KT CAVOK 21/17 Q1017=
201008072145 METAR LIRA 072145Z 16004KT CAVOK 21/16 Q1017=
201008072115 METAR LIRA 072115Z 16004KT CAVOK 22/17 Q1017=
201008072045 METAR LIRA 072045Z 16001KT CAVOK 22/17 Q1017=
201008072015 METAR LIRA 072015Z 17002KT CAVOK 23/18 Q1017=
201008071945 METAR LIRA 071945Z 21003KT 9999 FEW070 23/17 Q1017=
201008071915 METAR LIRA 071915Z 22003KT 9999 FEW070 23/17 Q1017=
201008071845 METAR LIRA 071845Z 23004KT 9999 FEW020 24/15 Q1016=
201008071815 METAR LIRA 071815Z 23004KT 9999 FEW020 24/15 Q1016=
201008071745 METAR LIRA 071745Z 26007KT 200V330 9999 FEW020 25/14 Q1015=
201008071715 METAR LIRA 071715Z 28008KT 220V320 9999 FEW020 26/14 Q1015=
201008071645 METAR LIRA 071645Z 25009KT 210V350 9999 FEW020 26/13 Q1015=
201008071615 METAR LIRA 071615Z 25009KT 210V340 9999 FEW020 27/14 Q1015=
201008071545 METAR LIRA 071545Z 26009KT 200V320 9999 FEW020 27/14 Q1015=
201008071515 METAR LIRA 071515Z 25010KT 200V310 9999 FEW020 27/15 Q1015=
201008071445 METAR LIRA 071445Z 26009KT 210V310 9999 FEW018TCU 28/16 Q1015=
201008071415 METAR LIRA 071415Z 27010KT 220V320 9999 FEW020 28/16 Q1015=
201008071345 METAR LIRA 071345Z 25010KT 200V330 9999 SCT020 28/16 Q1015=
201008071315 METAR LIRA 071315Z 26010KT 210V320 9999 SCT020 28/13 Q1015=
201008071245 METAR LIRA 071245Z 26009KT 210V310 9999 SCT020 28/10 Q1015=
201008071215 METAR LIRA 071215Z 33005KT 270V310 9999 SCT020 29/10 Q1015=
201008071145 METAR LIRA 071145Z 30006KT 240V040 9999 SCT020 29/11 Q1015=
201008071115 METAR LIRA 071115Z 33005KT 210V070 9999 SCT020 28/12 Q1015=
201008071045 METAR LIRA 071045Z 28006KT 220V330 9999 FEW020 28/12 Q1015=
201008071015 METAR LIRA 071015Z 32006KT 230V010 9999 FEW020 27/12 Q1015=
201008070945 METAR LIRA 070945Z 30006KT 240V330 9999 FEW020 27/13 Q1015=
201008070915 METAR LIRA 070915Z 36004KT 300V020 9999 FEW020 26/15 Q1015=
201008070845 METAR LIRA 070845Z 36004KT 300V090 9999 FEW020 25/16 Q1015=
201008070815 METAR LIRA 070815Z 35003KT CAVOK 25/16 Q1015=
201008070745 METAR LIRA 070745Z 02003KT CAVOK 24/17 Q1015=
201008070715 METAR LIRA 070715Z 03004KT CAVOK 23/17 Q1015=
201008070645 METAR LIRA 070645Z 35002KT CAVOK 21/17 Q1015=
201008070615 METAR LIRA 070615Z 01002KT CAVOK 20/17 Q1015=
201008070545 METAR LIRA 070545Z 02003KT CAVOK 19/16 Q1014=
201008070515 METAR LIRA 070515Z 04002KT CAVOK 18/16 Q1014=
201008070445 METAR LIRA 070445Z 32002KT CAVOK 17/16 Q1014=
201008070415 METAR LIRA 070415Z 32001KT CAVOK 17/15 Q1013=
201008070345 METAR LIRA 070345Z 08001KT CAVOK 18/16 Q1013=
201008070315 METAR LIRA 070315Z 04004KT CAVOK 18/16 Q1013=
201008070245 METAR LIRA 070245Z 01002KT CAVOK 18/16 Q1013=
201008070215 METAR LIRA 070215Z 03002KT CAVOK 18/16 Q1013=
201008070145 METAR LIRA 070145Z 04003KT CAVOK 18/16 Q1013=
201008070115 METAR LIRA 070115Z 08002KT 9999 FEW070 19/17 Q1013=
201008070045 METAR LIRA 070045Z 10002KT 9999 FEW070 19/17 Q1012=
201008070015 METAR LIRA 070015Z 08002KT 9999 FEW070 19/17 Q1012=
201008062350 METAR LIRA 070045Z 10002KT 9999 FEW070 19/17 Q1012=
201008062345 METAR LIRA 062345Z 15003KT 9999 FEW070 19/17 Q1012=
201008062315 METAR LIRA 062315Z 13002KT 9999 FEW070 19/17 Q1012=
201008062245 METAR LIRA 062245Z 11004KT 9999 FEW070 19/17 Q1012=
201008062215 METAR LIRA 062215Z 09002KT 9999 FEW070 20/18 Q1012=
201008062145 METAR LIRA 062145Z 04001KT 9999 FEW010 21/18 Q1012=
201008062115 METAR LIRA 062115Z 35002KT 9999 FEW010 21/18 Q1012=
201008062045 METAR LIRA 062045Z 33002KT 9999 FEW010 21/18 Q1012=
201008062015 METAR LIRA 062015Z 28003KT 9999 FEW070 22/18 Q1012=
201008061945 METAR LIRA 061945Z 28005KT 250V340 9999 FEW070 22/19 Q1012=
201008061915 METAR LIRA 061915Z 27004KT 9999 FEW018 23/18 Q1012=
201008061845 METAR LIRA 061845Z 26004KT 210V310 9999 FEW018 23/16 Q1011=
201008061815 METAR LIRA 061815Z 27005KT 200V310 9999 FEW018 24/15 Q1011=
201008061745 METAR LIRA 061745Z 26006KT 210V320 9999 FEW018 25/14 Q1011=
201008061715 METAR LIRA 061715Z 27008KT 210V320 9999 FEW018 25/14 Q1010=
201008061645 METAR LIRA 061645Z 29009KT 230V310 9999 FEW018 26/14 Q1010=
201008061615 METAR LIRA 061615Z 27008KT 200V360 9999 FEW018 26/14 Q1010=
201008061545 METAR LIRA 061545Z 27009KT 210V320 9999 SCT030 26/14 Q1010=
201008061515 METAR LIRA 061515Z 27010KT 190V340 9999 FEW018 BKN030 26/14
                        Q1010=
201008061445 METAR LIRA 061445Z 26010KT 190V310 9999 FEW018 SCT030 27/13
                        Q1010=
201008061415 METAR LIRA 061415Z 28010KT 230V320 9999 FEW018 SCT030 27/13
                        Q1010=
201008061345 METAR LIRA 061345Z 26009KT 160V330 9999 FEW018 BKN030 27/13
                        Q1010=
201008061315 METAR LIRA 061315Z 27011KT 200V310 9999 FEW018 SCT030 27/11
                        Q1009=
201008061245 METAR LIRA 061245Z 29011KT 240V340 9999 FEW018 SCT025 27/10
                        Q1009=
201008061215 METAR LIRA 061215Z 36003KT 030V090 9999 FEW018 FEW020CB SCT030
                        26/14 Q1009=
201008061145 METAR LIRA 061145Z 06007KT 020V100 9999 FEW018 FEW020CB SCT030
                        25/14 Q1009=
201008061115 METAR LIRA 061115Z 36007KT 310V060 9999 FEW018 FEW020CB SCT030
                        23/16 Q1009=
201008061045 METAR LIRA 061045Z 29004KT 9999 FEW018 FEW020CB BKN030 25/12
                        Q1008=
201008061015 METAR LIRA 061015Z 25004KT 240V300 9999 FEW018 FEW020CB SCT030
                        25/12 Q1008=
201008060945 METAR LIRA 060945Z 19002KT 9999 FEW018 FEW020CB 26/12 Q1008=
201008060915 METAR LIRA 060915Z 05003KT 9999 SCT018 25/13 Q1008=
201008060845 METAR LIRA 060845Z 06004KT 9999 FEW018 SCT030 25/15 Q1008=
201008060815 METAR LIRA 060815Z 12005KT 9999 FEW018 FEW020CB SCT030 24/15
                        Q1008=
201008060745 METAR LIRA 060745Z 11007KT 080V140 9999 FEW017 FEW018CB SCT025
                        23/15 Q1008=
201008060715 METAR LIRA 060715Z 07006KT 030V110 9999 FEW017 FEW018CB SCT025
                        21/16 Q1008=
201008060645 METAR LIRA 060645Z 36003KT 9999 FEW017 FEW018CB BKN025 21/18
                        Q1008=
201008060615 METAR LIRA 060615Z 08003KT 9999 FEW018 FEW020CB SCT025 21/17
                        Q1007=
201008060545 METAR LIRA 060545Z 18004KT 9999 FEW017 FEW018CB SCT025 21/17
                        Q1007=
201008060515 METAR LIRA 060515Z 16005KT 120V190 9999 FEW017 FEW018CB SCT025
                        21/19 Q1007=
201008060445 METAR LIRA 060445Z 16005KT 9999 FEW018 FEW020CB SCT025 20/19
                        Q1007=
201008060415 METAR LIRA 060415Z 17006KT 9999 FEW018 20/18 Q1006=
201008060345 METAR LIRA 060345Z 18005KT 9999 SCT025 20/18 Q1006=
201008060315 METAR LIRA 060315Z 17005KT 150V250 9999 FEW016 20/18 Q1006=
201008060300 METAR LIRA INTER CB NE=
201008060245 METAR LIRA 060245Z 19007KT 150V250 9999 FEW016 21/18 Q1006=
201008060215 METAR LIRA 060215Z 19007KT 140V240 9999 SCT025 21/18 Q1006=
201008060145 METAR LIRA 060145Z 17005KT 9999 FEW016 SCT025 21/18 Q1006=
201008060115 METAR LIRA 060115Z 17006KT 9999 FEW016 SCT030 21/18 Q1006=
201008060045 METAR LIRA 060045Z 19006KT 150V250 9999 FEW016 SCT030 22/19
                        Q1006=
201008060015 METAR LIRA 060015Z 18005KT 150V240 9999 FEW016 SCT025 22/19
                        Q1006=
201008052350 METAR LIRA 060045Z 19006KT 150V250 9999 FEW016 SCT030 22/19
                        Q1006=
201008052345 METAR LIRA 052345Z 19007KT 9999 SCT025 22/19 Q1006=
201008052315 METAR LIRA 052315Z 19007KT 150V230 9999 FEW016 SCT030 22/19
                        Q1006=
201008052245 METAR LIRA 052245Z 18006KT 150V250 9999 FEW017 SCT030 22/19
                        Q1006=
201008052215 METAR LIRA 052215Z 19008KT 150V230 9999 FEW017 SCT030 22/19
                        Q1006=
201008052145 METAR LIRA 052145Z 19008KT 120V230 9999 SCT018 SCT030 22/19
                        Q1006=
201008052115 METAR LIRA 052115Z 19008KT 160V230 9999 FEW016 SCT030 22/19
                        Q1006=
201008052045 METAR LIRA 052045Z 20008KT 160V260 9999 FEW016 SCT030 23/18
                        Q1006=
201008052015 METAR LIRA 052015Z 22009KT 180V250 9999 SCT020 23/18 Q1006=
201008051945 METAR LIRA 051945Z 19009KT 150V220 9999 FEW017 SCT025 23/18
                        Q1006=
201008051915 METAR LIRA 051915Z 21007KT 160V250 9999 SCT020 SCT070 23/18
                        Q1006=
201008051845 METAR LIRA 051845Z 20008KT 160V250 9999 SCT020 SCT070 23/18
                        Q1005=
201008051815 METAR LIRA 051815Z 20008KT 140V250 9999 SCT020 SCT070 23/17
                        Q1006=
201008051745 METAR LIRA 051745Z 22008KT 140V280 9999 SCT020 SCT080 24/16
                        Q1005=
201008051715 METAR LIRA 051715Z 23010KT 180V250 9999 SCT020 SCT080 24/16
                        Q1006=
201008051645 METAR LIRA 051645Z 22013KT 170V250 9999 FEW018 SCT080 25/15
                        Q1006=
201008051615 METAR LIRA 051615Z 21011KT 140V270 9999 FEW018 SCT080 25/14
                        Q1006=
201008051545 METAR LIRA 051545Z 20012KT 160V260 9999 SCT018 SCT025 25/16
                        Q1006=
201008051515 METAR LIRA 051515Z 20011KT 150V260 9999 SCT018 SCT025 26/17
                        Q1005=
201008051445 METAR LIRA 051445Z 20010KT 150V250 9999 SCT018 26/16 Q1005=
201008051415 METAR LIRA 051415Z 22011KT 150V270 9999 SCT018 27/16 Q1005=
201008051345 METAR LIRA 051345Z 22012KT 180V270 9999 SCT018 SCT070 27/16
                        Q1005=
201008051315 METAR LIRA 051315Z 21011KT 150V270 9999 FEW018 SCT070 28/15
                        Q1005=
201008051245 METAR LIRA 051245Z 22011KT 160V300 9999 FEW018 27/13 Q1005=
201008051215 METAR LIRA 051215Z 20009KT 130V270 9999 FEW018 FEW022TCU
                        27/13 Q1005=
201008051145 METAR LIRA 051145Z 21010KT 160V290 9999 FEW018 FEW022TCU
                        27/14 Q1006=
201008051115 METAR LIRA 051115Z 20009KT 140V250 9999 FEW018 FEW022TCU
                        27/17 Q1006=
201008051045 METAR LIRA 051045Z 22009KT 160V280 9999 SCT018 27/15 Q1006=
201008051015 METAR LIRA 051015Z 20008KT 140V250 9999 SCT018 27/17 Q1006=
201008050945 METAR LIRA 050945Z 21006KT 140V260 9999 SCT018 26/18 Q1006=
201008050915 METAR LIRA 050915Z 22006KT 150V300 9999 SCT018 BKN025 26/18
                        Q1006=
201008050845 METAR LIRA 050845Z 22007KT 160V270 9999 SCT018 BKN025 26/18
                        Q1006=
201008050815 METAR LIRA 050815Z 23007KT 180V300 9999 FEW010 SCT018 26/18
                        Q1006=
201008050745 METAR LIRA 050745Z 23007KT 180V270 9999 FEW010 SCT018 25/19
                        Q1006=
201008050715 METAR LIRA 050715Z 20006KT 170V270 8000 FEW010 25/19 Q1006=
201008050645 METAR LIRA 050645Z 20005KT 170V230 8000 FEW010 24/20 Q1006=
201008050615 METAR LIRA 050615Z 18005KT 120V220 8000 FEW010 23/21 Q1006=
201008050545 METAR LIRA 050545Z 21004KT 8000 FEW010 22/20 Q1006=
201008050515 METAR LIRA 050515Z 26006KT 8000 FEW010 SCT025 22/21 Q1005=
201008050445 METAR LIRA 050445Z 16004KT 7000 FEW010 SCT025 22/21 Q1005=
201008050415 METAR LIRA 050415Z 18003KT 7000 SCT010 SCT025 23/22 Q1005=
201008050345 METAR LIRA 050345Z 18004KT 7000 SCT010 SCT025 23/22 Q1005=
201008050315 METAR LIRA 050315Z 17004KT 8000 FEW010 SCT025 23/22 Q1006=
201008050245 METAR LIRA 050245Z 18004KT 8000 FEW010 SCT030 23/22 Q1006=
201008050215 METAR LIRA 050215Z 17004KT 9999 SCT010 23/22 Q1006=
201008050145 METAR LIRA 050145Z 18004KT 9999 SCT010 23/22 Q1006=
201008050115 METAR LIRA 050115Z 19005KT 9999 FEW010 SCT020 22/21 Q1006=
201008050045 METAR LIRA 050045Z 17006KT 9999 FEW020 22/21 Q1006=
201008050015 METAR LIRA 050015Z 17006KT 9999 FEW060 22/21 Q1006=
201008042350 METAR LIRA 050045Z 17006KT 9999 FEW020 22/21 Q1006=
201008042345 METAR LIRA 042345Z 18005KT CAVOK 23/21 Q1006=
201008042315 METAR LIRA 042315Z 17006KT 9999 FEW060 23/21 Q1006=
201008042245 METAR LIRA 042245Z 18005KT 9999 FEW025 SCT060 23/21 Q1006=
201008042215 METAR LIRA 042215Z 17005KT 9999 SCT060 23/21 Q1006=
201008042145 METAR LIRA 042145Z 19004KT 9999 SCT060 24/21 Q1006=
201008042115 METAR LIRA 042115Z 18004KT 9999 SCT060 24/21 Q1006=
201008042045 METAR LIRA 042045Z 18004KT 9999 SCT060 24/21 Q1006=
201008042015 METAR LIRA 042015Z 17005KT 9999 FEW025 24/21 Q1006=
201008041945 METAR LIRA 041945Z 18005KT 150V230 9999 FEW020 25/21 Q1006=
201008041915 METAR LIRA 041915Z 18005KT 140V240 9999 FEW020 25/21 Q1006=
201008041845 METAR LIRA 041845Z 20005KT 160V230 9999 FEW020 25/20 Q1006=
201008041815 METAR LIRA 041815Z 22005KT 180V250 9999 FEW020 26/19 Q1006=
201008041745 METAR LIRA 041745Z 21004KT 160V240 9999 FEW020 27/18 Q1006=
201008041715 METAR LIRA 041715Z 20005KT 110V250 9999 FEW018 FEW022TCU
                        28/18 Q1006=
201008041645 METAR LIRA 041645Z 24007KT 190V290 9999 FEW018CB SCT030 28/16
                        Q1006=
201008041615 METAR LIRA 041615Z 26007KT 200V320 9999 FEW018CB 29/18 Q1006=
201008041545 METAR LIRA 041545Z 23009KT 190V310 9999 FEW018 FEW020TCU
                        FEW022CB 29/19 Q1006=
201008041515 METAR LIRA 041515Z 23009KT 180V290 9999 FEW018 FEW020TCU
                        FEW022CB 29/20 Q1006=
201008041445 METAR LIRA 041445Z 25009KT 180V320 9999 FEW018 FEW020CB 29/20
                        Q1006=
201008041415 METAR LIRA 041415Z 24009KT 180V330 9999 FEW018 FEW020TCU
                        30/20 Q1006=
201008041345 METAR LIRA 041345Z 25008KT 190V310 9999 SCT018 FEW020TCU
                        29/20 Q1007=
201008041315 METAR LIRA 041315Z 24009KT 180V290 9999 SCT018 FEW020TCU
                        29/20 Q1007=
201008041245 METAR LIRA 041245Z 24009KT 180V280 9999 SCT018 FEW020TCU
                        SCT025 29/21 Q1007=
201008041215 METAR LIRA 041215Z 22008KT 150V280 9999 SCT018 FEW020TCU
                        29/20 Q1007=
201008041145 METAR LIRA 041145Z 24010KT 180V280 9999 SCT018 FEW020TCU
                        28/18 Q1007=
201008041115 METAR LIRA 041115Z 22005KT 170V270 9999 SCT018 SCT025 29/17
                        Q1007=
201008041045 METAR LIRA 041045Z 20004KT 150V270 9999 SCT018 30/18 Q1007=
201008041015 METAR LIRA 041015Z 27005KT 9999 BKN018 29/18 Q1007=
201008040945 METAR LIRA 040945Z 20003KT 9999 BKN018 28/18 Q1007=
201008040915 METAR LIRA 040915Z 07003KT 9999 SCT018 28/18 Q1007=
201008040845 METAR LIRA 040845Z 15002KT 9999 SCT018 27/19 Q1008=
201008040815 METAR LIRA 040815Z 03003KT 9999 SCT018 26/19 Q1008=
201008040745 METAR LIRA 040745Z 36004KT 310V070 9999 SCT018 26/19 Q1008=
201008040715 METAR LIRA 040715Z 03005KT 340V070 9999 FEW018 25/20 Q1008=
201008040645 METAR LIRA 040645Z 04004KT 350V070 9999 FEW018 25/20 Q1008=
201008040615 METAR LIRA 040615Z 04004KT 9999 FEW022 23/20 Q1007=
201008040545 METAR LIRA 040545Z 04004KT 9999 FEW023 21/19 Q1007=
201008040515 METAR LIRA 040515Z 03002KT 9999 FEW023 21/19 Q1007=
201008040445 METAR LIRA 040445Z 04002KT 9999 FEW080 21/19 Q1007=
201008040415 METAR LIRA 040415Z 06002KT 9999 FEW016 21/18 Q1007=
201008040345 METAR LIRA 040345Z 09003KT 9999 FEW025 21/18 Q1007=
201008040315 METAR LIRA 040315Z 09003KT 9999 FEW020 21/18 Q1007=
201008040245 METAR LIRA 040245Z 10002KT 9999 SCT020 SCT070 22/20 Q1007=
201008040215 METAR LIRA 040215Z 08004KT 9999 SCT017 SCT070 21/20 Q1007=
201008040145 METAR LIRA 040145Z 08003KT 9999 SCT017 SCT070 22/20 Q1008=
201008040115 METAR LIRA 040115Z 13003KT 9999 SCT017 SCT070 22/20 Q1008=
201008040045 METAR LIRA 040045Z 14003KT 9999 SCT017 SCT070 22/20 Q1008=
201008040015 METAR LIRA 040015Z 18002KT 9999 SCT017 23/20 Q1008=
201008032350 METAR LIRA 040045Z 14003KT 9999 SCT017 SCT070 22/20 Q1008=
201008032345 METAR LIRA 032345Z 18003KT 9999 SCT017 23/20 Q1008=
201008032315 METAR LIRA 032315Z 21003KT 9999 FEW018 23/20 Q1009=
201008032245 METAR LIRA 032245Z 21004KT 9999 FEW018 23/21 Q1009=
201008032215 METAR LIRA 032215Z 18004KT 9999 FEW018 23/21 Q1009=
201008032145 METAR LIRA 032145Z 16005KT 9999 FEW018 23/21 Q1009=
201008032115 METAR LIRA 032115Z 16004KT 9999 FEW017 23/21 Q1009=
201008032045 METAR LIRA 032045Z 17004KT 9999 FEW017 23/22 Q1010=
201008032015 METAR LIRA 032015Z 19004KT 9999 SCT017 24/22 Q1010=
201008031945 METAR LIRA 031945Z 20003KT 9999 FEW017 24/22 Q1010=
201008031915 METAR LIRA 031915Z 22004KT 9999 FEW017 24/22 Q1009=
201008031845 METAR LIRA 031845Z 22006KT 190V260 9999 FEW014 24/22 Q1009=
201008031815 METAR LIRA 031815Z 21006KT 160V250 9999 FEW018 25/22 Q1009=
201008031745 METAR LIRA 031745Z 23006KT 180V290 9999 FEW020 25/21 Q1009=
201008031715 METAR LIRA 031715Z 23007KT 180V270 9999 FEW025 27/22 Q1009=
201008031645 METAR LIRA 031645Z 23008KT 190V280 9999 FEW025 28/19 Q1009=
201008031615 METAR LIRA 031615Z 22007KT 140V290 9999 FEW025 28/16 Q1009=
201008031545 METAR LIRA 031545Z 22009KT 140V250 9999 FEW020 28/18 Q1010=
201008031515 METAR LIRA 031515Z 24008KT 180V280 9999 FEW020 28/19 Q1010=
201008031445 METAR LIRA 031445Z 22010KT 180V270 9999 FEW020 FEW022TCU
                        29/17 Q1010=
201008031415 METAR LIRA 031415Z 22010KT 160V280 9999 FEW020 FEW022TCU
                        29/16 Q1010=
201008031345 METAR LIRA 031345Z 23010KT 180V280 9999 FEW022 31/12 Q1010=
201008031315 METAR LIRA 031315Z 23005KT 180V300 9999 FEW023 30/12 Q1010=
201008031245 METAR LIRA 031245Z 22006KT 170V310 9999 FEW023 30/15 Q1010=
201008031215 METAR LIRA 031215Z 22007KT 170V320 9999 FEW022 30/16 Q1010=
201008031145 METAR LIRA 031145Z 25007KT 200V300 9999 FEW022 30/15 Q1010=
201008031115 METAR LIRA 031115Z 27006KT 210V310 9999 FEW022 30/14 Q1011=
201008031045 METAR LIRA 031045Z 21006KT 150V280 9999 FEW022 31/13 Q1011=
201008031015 METAR LIRA 031015Z 28002KT 9999 FEW022 30/13 Q1011=
201008030945 METAR LIRA 030945Z 23004KT 9999 FEW022 29/14 Q1011=
201008030915 METAR LIRA 030915Z 24003KT 200V300 9999 FEW040 29/14 Q1011=
201008030845 METAR LIRA 030845Z 22004KT 180V260 9999 FEW040 28/14 Q1011=
201008030815 METAR LIRA 030815Z 21004KT 9999 FEW040 28/14 Q1011=
201008030745 METAR LIRA 030745Z 27003KT 9999 FEW070 27/15 Q1011=
201008030715 METAR LIRA 030715Z 23002KT 9999 FEW080 26/16 Q1011=
201008030645 METAR LIRA 030645Z 25002KT CAVOK 25/18 Q1012=
201008030615 METAR LIRA 030615Z 14003KT CAVOK 23/20 Q1012=
201008030545 METAR LIRA 030545Z 20002KT CAVOK 22/20 Q1012=
201008030515 METAR LIRA 030515Z 19003KT CAVOK 22/20 Q1011=
201008030445 METAR LIRA 030445Z 14003KT 9999 FEW016 21/19 Q1011=
201008030415 METAR LIRA 030415Z 20001KT CAVOK 20/19 Q1011=
201008030345 METAR LIRA 030345Z 20002KT CAVOK 20/19 Q1011=
201008030315 METAR LIRA 030315Z 15001KT 9999 FEW005 20/18 Q1011=
201008030245 METAR LIRA 030245Z 20001KT 9999 FEW005 21/19 Q1012=
201008030215 METAR LIRA 030215Z 13003KT 9999 FEW005 21/19 Q1012=
201008030145 METAR LIRA 030145Z 13004KT 9999 FEW005 20/19 Q1012=
201008030115 METAR LIRA 030115Z 23002KT 9999 FEW005 21/19 Q1012=
201008030045 METAR LIRA 030045Z 21002KT 9999 FEW005 22/19 Q1012=
201008030015 METAR LIRA 030015Z 20002KT CAVOK 22/18 Q1013=
201008022350 METAR LIRA 030045Z 21002KT 9999 FEW005 22/19 Q1012=
201008022345 METAR LIRA 022345Z 22003KT CAVOK 22/16 Q1013=
201008022315 METAR LIRA 022315Z 15004KT CAVOK 22/16 Q1013=
201008022245 METAR LIRA 022245Z 19003KT CAVOK 23/17 Q1013=
201008022215 METAR LIRA 022215Z 17003KT CAVOK 24/17 Q1013=
201008022145 METAR LIRA 022145Z 16003KT CAVOK 24/19 Q1013=
201008022115 METAR LIRA 022115Z 18003KT CAVOK 24/19 Q1013=
201008022045 METAR LIRA 022045Z 18004KT CAVOK 24/19 Q1013=
201008022015 METAR LIRA 022015Z 20003KT CAVOK 25/18 Q1013=
201008021945 METAR LIRA 021945Z 20003KT CAVOK 25/18 Q1013=
201008021915 METAR LIRA 021915Z 21003KT CAVOK 25/17 Q1013=
201008021845 METAR LIRA 021845Z 22003KT CAVOK 26/16 Q1013=
201008021815 METAR LIRA 021815Z 25004KT 200V280 CAVOK 27/15 Q1013=
201008021745 METAR LIRA 021745Z 26005KT 200V310 CAVOK 28/15 Q1013=
201008021715 METAR LIRA 021715Z 26006KT 200V320 CAVOK 29/14 Q1013=
201008021645 METAR LIRA 021645Z 24007KT 190V290 CAVOK 29/14 Q1013=
201008021615 METAR LIRA 021615Z 26007KT 200V330 CAVOK 30/15 Q1013=
201008021545 METAR LIRA 021545Z 26008KT 200V320 CAVOK 30/15 Q1014=
201008021515 METAR LIRA 021515Z 28010KT 240V310 CAVOK 31/15 Q1014=
201008021445 METAR LIRA 021445Z 26009KT 200V320 CAVOK 31/14 Q1014=
201008021415 METAR LIRA 021415Z 27010KT 220V310 CAVOK 31/14 Q1014=
201008021345 METAR LIRA 021345Z 27009KT 200V310 9999 FEW025 32/15 Q1014=
201008021315 METAR LIRA 021315Z 27010KT 180V320 9999 FEW025 32/15 Q1014=
201008021245 METAR LIRA 021245Z 24006KT 240V350 9999 FEW020 32/15 Q1014=
201008021215 METAR LIRA 021215Z 31004KT 220V330 9999 FEW020 32/16 Q1015=
201008021145 METAR LIRA 021145Z 31007KT 230V030 9999 FEW020 32/15 Q1015=
201008021115 METAR LIRA 021115Z 30005KT 150V010 9999 FEW020 32/15 Q1015=
201008021045 METAR LIRA 021045Z 30005KT 240V020 9999 FEW020 31/15 Q1015=
201008021015 METAR LIRA 021015Z 27004KT 250V330 9999 FEW020 31/15 Q1015=
201008020945 METAR LIRA 020945Z 28005KT 220V320 9999 FEW020 30/15 Q1015=
201008020915 METAR LIRA 020915Z 30004KT 280V360 9999 FEW020 30/15 Q1016=
201008020845 METAR LIRA 020845Z 30003KT 290V350 CAVOK 29/14 Q1016=
201008020815 METAR LIRA 020815Z 29002KT CAVOK 28/14 Q1016=
201008020745 METAR LIRA 020745Z 34002KT CAVOK 27/16 Q1016=
201008020715 METAR LIRA 020715Z 35003KT CAVOK 26/17 Q1016=
201008020645 METAR LIRA 020645Z 01004KT CAVOK 25/17 Q1016=
201008020615 METAR LIRA 020615Z 03003KT CAVOK 23/17 Q1016=
201008020545 METAR LIRA 020545Z 02003KT CAVOK 22/17 Q1016=
201008020515 METAR LIRA 020515Z 02003KT CAVOK 20/16 Q1016=
201008020445 METAR LIRA 020445Z 03003KT CAVOK 19/17 Q1016=
201008020415 METAR LIRA 020415Z 04003KT CAVOK 19/17 Q1016=
201008020345 METAR LIRA 020345Z 05003KT CAVOK 19/17 Q1017=
201008020315 METAR LIRA 020315Z 04003KT CAVOK 20/17 Q1017=
201008020245 METAR LIRA 020245Z 10002KT CAVOK 20/16 Q1017=
201008020215 METAR LIRA 020215Z 09003KT CAVOK 20/16 Q1017=
201008020145 METAR LIRA 020145Z 30002KT 9999 FEW010 20/16 Q1017=
201008020115 METAR LIRA 020115Z 32003KT 9999 FEW010 20/17 Q1017=
201008020045 METAR LIRA 020045Z 24001KT 9999 FEW010 20/17 Q1017=
201008020015 METAR LIRA 020015Z 00000KT CAVOK 21/17 Q1017=
201008012350 METAR LIRA 020045Z 24001KT 9999 FEW010 20/17 Q1017=
201008012345 METAR LIRA 012345Z 00000KT CAVOK 22/16 Q1017=
201008012315 METAR LIRA 012315Z 17002KT CAVOK 22/16 Q1017=
201008012245 METAR LIRA 012245Z 13002KT CAVOK 22/16 Q1017=
201008012215 METAR LIRA 012215Z 12004KT CAVOK 23/16 Q1017=
201008012145 METAR LIRA 012145Z 10004KT CAVOK 23/17 Q1017=
201008012115 METAR LIRA 012115Z 14003KT CAVOK 23/16 Q1017=
201008012045 METAR LIRA 012045Z 17003KT CAVOK 24/17 Q1017=
201008012015 METAR LIRA 012015Z 17004KT CAVOK 24/16 Q1017=
201008011945 METAR LIRA 011945Z 19004KT CAVOK 24/16 Q1017=
201008011915 METAR LIRA 011915Z 21004KT CAVOK 24/15 Q1017=
201008011845 METAR LIRA 011845Z 23003KT CAVOK 25/15 Q1017=
201008011815 METAR LIRA 011815Z 25004KT CAVOK 26/16 Q1017=
201008011745 METAR LIRA 011745Z 24005KT CAVOK 27/16 Q1017=
201008011715 METAR LIRA 011715Z 26006KT 200V320 CAVOK 27/16 Q1017=
201008011645 METAR LIRA 011645Z 26006KT 200V300 CAVOK 27/15 Q1017=
201008011615 METAR LIRA 011615Z 26008KT 210V320 9999 FEW022 27/15 Q1017=
201008011545 METAR LIRA 011545Z 24007KT 190V310 9999 FEW022 29/17 Q1017=
201008011515 METAR LIRA 011515Z 24008KT 200V320 9999 FEW022 29/17 Q1017=
201008011445 METAR LIRA 011445Z 26009KT 200V320 9999 FEW022 29/17 Q1017=
201008011415 METAR LIRA 011415Z 23006KT 160V290 9999 FEW022 29/17 Q1017=
201008011345 METAR LIRA 011345Z 23006KT 140V360 9999 FEW020 SCT030 29/17
                        Q1017=
201008011315 METAR LIRA 011315Z 24006KT 180V280 9999 FEW020 SCT030 28/18
                        Q1017=
201008011245 METAR LIRA 011245Z 23007KT 140V330 9999 FEW020 SCT030 29/19
                        Q1017=
201008011215 METAR LIRA 011215Z 25008KT 230V330 9999 FEW021 BKN030 29/19
                        Q1017=
201008011145 METAR LIRA 011145Z 03003KT 330V060 9999 SCT022 29/15 Q1017=
201008011115 METAR LIRA 011115Z 26004KT 160V250 9999 SCT022 30/15 Q1017=
201008011045 METAR LIRA 011045Z 28005KT 250V310 9999 SCT022 29/17 Q1017=
201008011015 METAR LIRA 011015Z 23005KT 290V050 9999 SCT022 29/17 Q1017=
201008010945 METAR LIRA 010945Z 14003KT 9999 SCT022 28/17 Q1017=
201008010915 METAR LIRA 010915Z 33003KT 9999 SCT021 28/17 Q1017=
201008010845 METAR LIRA 010845Z 15004KT 080V160 9999 FEW020 27/17 Q1017=
201008010815 METAR LIRA 010815Z 01004KT 9999 FEW020 25/16 Q1017=
201008010745 METAR LIRA 010745Z 35004KT 9999 FEW020 24/16 Q1017=
201008010715 METAR LIRA 010715Z 35004KT 310V020 9999 FEW030 23/16 Q1017=
201008010645 METAR LIRA 010645Z 03004KT 9999 FEW030 23/17 Q1017=
201008010615 METAR LIRA 010615Z 03004KT 9999 FEW030 22/17 Q1016=
201008010545 METAR LIRA 010545Z 04004KT 9999 FEW030 21/17 Q1016=
201008010515 METAR LIRA 010515Z 02003KT 9999 FEW030 19/15 Q1016=
201008010445 METAR LIRA 010445Z 02003KT 9999 FEW030 18/15 Q1015=
201008010415 METAR LIRA 010415Z 36002KT 9999 FEW070 18/15 Q1015=
201008010345 METAR LIRA 010345Z 02003KT CAVOK 18/15 Q1015=
201008010315 METAR LIRA 010315Z 04004KT CAVOK 18/16 Q1015=
201008010245 METAR LIRA 010245Z 05004KT CAVOK 19/16 Q1015=
201008010215 METAR LIRA 010215Z 05004KT CAVOK 19/16 Q1015=
201008010145 METAR LIRA 010145Z 03003KT CAVOK 19/16 Q1015=
201008010115 METAR LIRA 010115Z 01002KT CAVOK 20/16 Q1015=
201008010045 METAR LIRA 010045Z 36003KT CAVOK 20/16 Q1015=
201008010015 METAR LIRA 010015Z 36002KT CAVOK 21/16 Q1015=

</pre>

</body>
</html>
