##########################################################
# Query made at 11/10/2014 16:23:05 UTC
# Time interval: from 08/01/2011 00:00  to 08/31/2011 23:59  UTC
##########################################################

##########################################################
# LIRA, Roma / Ciampino (Italy)
# WMO index: 16239
# Latitude 41-47N. Longitude 012-35E. Altitude 129 m.
##########################################################

###################################
#  METAR/SPECI from LIRA
###################################
201108312350 METAR LIRA 010045Z 16003KT 9999 FEW018 21/20 Q1015=
201108312345 METAR LIRA 312345Z 15004KT 9999 FEW018 21/20 Q1015=
201108312315 METAR LIRA 312315Z 17003KT 9999 FEW018 22/21 Q1014=
201108312245 METAR LIRA 312245Z 16003KT 9999 FEW018 21/21 Q1014=
201108312215 METAR LIRA 312215Z 16003KT 9999 FEW018 22/21 Q1014=
201108312145 METAR LIRA 312145Z 17002KT 9999 FEW018 22/22 Q1014=
201108312115 METAR LIRA 312115Z 20003KT 9999 FEW018 23/22 Q1014=
201108312045 METAR LIRA 312045Z 17003KT 9999 FEW018 23/22 Q1014=
201108312015 METAR LIRA 312015Z 17004KT 9999 FEW018 23/22 Q1014=
201108311945 METAR LIRA 311945Z 19004KT 9999 FEW018 23/22 Q1014=
201108311915 METAR LIRA 311915Z 20004KT 9999 FEW018 24/22 Q1014=
201108311845 METAR LIRA 311845Z 20005KT 9999 FEW018 24/21 Q1013=
201108311815 METAR LIRA 311815Z 20005KT 9999 FEW018 25/21 Q1013=
201108311745 METAR LIRA 311745Z 22004KT 9999 FEW018 26/21 Q1013=
201108311715 METAR LIRA 311715Z 21006KT 180V250 9999 FEW018 27/20 Q1013=
201108311645 METAR LIRA 311645Z 22007KT 9999 FEW018 27/19 Q1013=
201108311615 METAR LIRA 311615Z 21006KT 180V240 9999 FEW018 28/16 Q1013=
201108311545 METAR LIRA 311545Z 24008KT 200V290 9999 FEW018 29/17 Q1013=
201108311515 METAR LIRA 311515Z 24010KT 9999 FEW018 30/16 Q1013=
201108311445 METAR LIRA 311445Z 23008KT 180V280 9999 FEW018 30/15 Q1013=
201108311415 METAR LIRA 311415Z 24008KT 210V290 9999 FEW018 31/15 Q1013=
201108311345 METAR LIRA 311345Z 24009KT 210V310 9999 SCT015 31/16 Q1013=
201108311315 METAR LIRA 311315Z 23007KT 180V250 9999 SCT015 31/12 Q1013=
201108311245 METAR LIRA 311245Z 06002KT 9999 FEW015 31/10 Q1013=
201108311215 METAR LIRA 311215Z 33006KT 9999 FEW015 31/11 Q1013=
201108311145 METAR LIRA 311145Z 33006KT 320V040 9999 FEW015 31/12 Q1014=
201108311115 METAR LIRA 311115Z 12003KT 9999 FEW015 30/12 Q1014=
201108311045 METAR LIRA 311045Z 02007KT 9999 FEW015 30/12 Q1014=
201108311015 METAR LIRA 311015Z 02003KT 9999 FEW015 29/14 Q1014=
201108310945 METAR LIRA 310945Z 35002KT 9999 FEW015 28/16 Q1014=
201108310915 METAR LIRA 310915Z 05002KT 9999 FEW015 28/16 Q1014=
201108310845 METAR LIRA 310845Z 33003KT CAVOK 26/17 Q1014=
201108310815 METAR LIRA 310815Z 04004KT CAVOK 26/19 Q1014=
201108310745 METAR LIRA 310745Z 01003KT CAVOK 25/20 Q1013=
201108310715 METAR LIRA 310715Z 35002KT CAVOK 24/20 Q1013=
201108310645 METAR LIRA 310645Z 03002KT CAVOK 23/20 Q1013=
201108310615 METAR LIRA 310615Z 06002KT CAVOK 22/19 Q1013=
201108310545 METAR LIRA 310545Z 09003KT 9999 FEW006 20/18 Q1013=
201108310515 METAR LIRA 310515Z 09003KT 9999 FEW006 19/18 Q1012=
201108310445 METAR LIRA 310445Z 04002KT 9999 FEW006 SCT013 19/17 Q1012=
201108310415 METAR LIRA 310415Z 04002KT 9999 FEW006 SCT013 19/17 Q1012=
201108310345 METAR LIRA 310345Z 05004KT 9999 FEW006 SCT013 19/18 Q1012=
201108310315 METAR LIRA 310315Z 02001KT 9999 FEW006 19/18 Q1012=
201108310245 METAR LIRA 310245Z 10002KT 9999 FEW006 SCT013 20/19 Q1012=
201108310215 METAR LIRA 310215Z 15002KT 9999 FEW006 SCT013 19/18 Q1012=
201108310145 METAR LIRA 310145Z 13001KT 9999 FEW006 20/18 Q1012=
201108310115 METAR LIRA 310115Z 16002KT 9999 FEW006 20/18 Q1012=
201108310045 METAR LIRA 310045Z 15004KT 9999 FEW006 20/18 Q1012=
201108310015 METAR LIRA 310015Z 11004KT 9999 FEW006 20/19 Q1012=
201108302350 METAR LIRA 310045Z 15004KT 9999 FEW006 20/18 Q1012=
201108302345 METAR LIRA 302345Z 10002KT 9999 FEW006 20/19 Q1012=
201108302315 METAR LIRA 302315Z 15003KT 9999 FEW006 21/20 Q1012=
201108302245 METAR LIRA 302245Z 15004KT 9999 FEW006 21/20 Q1012=
201108302215 METAR LIRA 302215Z 15004KT 9999 FEW020 22/20 Q1012=
201108302145 METAR LIRA 302145Z 17004KT 9999 FEW015 SCT040 22/21 Q1012=
201108302115 METAR LIRA 302115Z 17003KT 9999 FEW015 SCT040 23/21 Q1012=
201108302045 METAR LIRA 302045Z 18002KT 9999 FEW015 SCT060 23/21 Q1011=
201108302015 METAR LIRA 302015Z 18003KT 9999 FEW015 23/20 Q1011=
201108301945 METAR LIRA 301945Z 18003KT 9999 FEW015 23/20 Q1011=
201108301915 METAR LIRA 301915Z 17003KT CAVOK 23/20 Q1011=
201108301845 METAR LIRA 301845Z 20005KT 9999 FEW020 24/20 Q1011=
201108301815 METAR LIRA 301815Z 19005KT 160V220 9999 FEW020 24/20 Q1012=
201108301745 METAR LIRA 301745Z 22006KT 180V250 9999 FEW020 25/20 Q1012=
201108301715 METAR LIRA 301715Z 23008KT 200V290 9999 SCT020 25/20 Q1012=
201108301645 METAR LIRA 301645Z 23008KT 210V310 9999 SCT020 26/19 Q1011=
201108301615 METAR LIRA 301615Z 24010KT 9999 FEW015 26/19 Q1011=
201108301545 METAR LIRA 301545Z 24008KT 9999 FEW015 27/18 Q1012=
201108301515 METAR LIRA 301515Z 21009KT 180V260 9999 FEW015 27/18 Q1012=
201108301445 METAR LIRA 301445Z 21009KT 160V260 9999 FEW015 28/18 Q1012=
201108301415 METAR LIRA 301415Z 21011KT 180V260 9999 FEW015 28/18 Q1012=
201108301345 METAR LIRA 301345Z 21008KT 180V300 9999 FEW015 29/18 Q1012=
201108301315 METAR LIRA 301315Z 22010KT 170V250 9999 FEW015 29/19 Q1012=
201108301245 METAR LIRA 301245Z 23008KT 160V270 9999 FEW015 29/19 Q1012=
201108301215 METAR LIRA 301215Z 23006KT 180V280 9999 FEW015 30/19 Q1012=
201108301145 METAR LIRA 301145Z 22007KT 160V240 9999 FEW015 29/19 Q1012=
201108301115 METAR LIRA 301115Z 24011KT 180V270 9999 FEW015 29/18 Q1012=
201108301045 METAR LIRA 301045Z 21006KT 170V270 9999 FEW015 29/19 Q1012=
201108301015 METAR LIRA 301015Z 25005KT 160V240 9999 FEW015 29/15 Q1012=
201108300945 METAR LIRA 300945Z 26003KT 190V280 9999 FEW015 29/16 Q1012=
201108300915 METAR LIRA 300915Z 30003KT 9999 FEW015 28/17 Q1012=
201108300845 METAR LIRA 300845Z 16002KT 9999 FEW070 27/18 Q1012=
201108300815 METAR LIRA 300815Z 11005KT 9999 FEW070 27/20 Q1012=
201108300745 METAR LIRA 300745Z 00000KT 9999 FEW015 26/20 Q1012=
201108300715 METAR LIRA 300715Z 11001KT 9999 FEW012 25/20 Q1012=
201108300645 METAR LIRA 300645Z 11001KT 9999 FEW012 24/20 Q1012=
201108300615 METAR LIRA 300615Z 00000KT 9999 FEW012 23/21 Q1012=
201108300545 METAR LIRA 300545Z 16001KT 9999 FEW012 23/21 Q1012=
201108300515 METAR LIRA 300515Z 16002KT 9999 FEW007 22/21 Q1012=
201108300445 METAR LIRA 300445Z 18002KT 9999 SCT007 21/20 Q1012=
201108300415 METAR LIRA 300415Z 19003KT 9999 SCT007 21/20 Q1012=
201108300345 METAR LIRA 300345Z 17003KT 9999 FEW014 21/20 Q1012=
201108300315 METAR LIRA 300315Z 15003KT 9999 FEW014 BKN040 21/20 Q1012=
201108300245 METAR LIRA 300245Z 10001KT 9999 FEW014 21/20 Q1012=
201108300215 METAR LIRA 300215Z 13002KT 9999 FEW014 21/20 Q1012=
201108300145 METAR LIRA 300145Z 13001KT 9999 FEW025 SCT060 21/20 Q1012=
201108300115 METAR LIRA 300115Z 20003KT 9999 FEW025 SCT060 22/20 Q1013=
201108300045 METAR LIRA 300045Z 20003KT 9999 FEW025 SCT060 22/21 Q1013=
201108300015 METAR LIRA 300015Z 17002KT 9999 FEW025 SCT060 22/21 Q1013=
201108292350 METAR LIRA 300045Z 20003KT 9999 FEW025 SCT060 22/21 Q1013=
201108292345 METAR LIRA 292345Z 18003KT 9999 FEW025 SCT060 23/21 Q1013=
201108292315 METAR LIRA 292315Z 17003KT 9999 FEW025 SCT060 22/21 Q1013=
201108292245 METAR LIRA 292245Z 18002KT 9999 FEW010 SCT060 23/21 Q1012=
201108292215 METAR LIRA 292215Z 21003KT 9999 FEW010 SCT060 23/21 Q1012=
201108292145 METAR LIRA 292145Z 21002KT 9999 FEW010 BKN060 23/21 Q1012=
201108292115 METAR LIRA 292115Z 23003KT 9999 FEW010 BKN060 23/21 Q1012=
201108292045 METAR LIRA 292045Z 24002KT 9999 FEW010 BKN060 23/21 Q1012=
201108292015 METAR LIRA 292015Z 24004KT 9999 FEW010 BKN060 23/21 Q1012=
201108291945 METAR LIRA 291945Z 25004KT 9999 FEW010 BKN060 23/22 Q1012=
201108291915 METAR LIRA 291915Z 24004KT 9999 FEW018 SCT060 24/21 Q1012=
201108291845 METAR LIRA 291845Z 24004KT 9999 FEW018 SCT060 24/21 Q1011=
201108291815 METAR LIRA 291815Z 25004KT 9999 FEW018 SCT060 24/21 Q1011=
201108291745 METAR LIRA 291745Z 27005KT 230V020 9999 FEW018 25/20 Q1011=
201108291715 METAR LIRA 291715Z 26006KT 220V300 9999 FEW018 25/20 Q1011=
201108291645 METAR LIRA 291645Z 26006KT 220V340 9999 FEW018 26/20 Q1011=
201108291615 METAR LIRA 291615Z 26008KT 230V290 9999 FEW020 27/19 Q1012=
201108291545 METAR LIRA 291545Z 23007KT 200V270 9999 FEW020 28/17 Q1012=
201108291515 METAR LIRA 291515Z 26007KT 220V300 9999 FEW020 28/16 Q1012=
201108291445 METAR LIRA 291445Z 25007KT 220V300 9999 SCT020 28/17 Q1012=
201108291415 METAR LIRA 291415Z 24006KT 200V360 9999 SCT020 28/18 Q1013=
201108291345 METAR LIRA 291345Z 27006KT 200V330 9999 SCT020 27/18 Q1013=
201108291315 METAR LIRA 291315Z 24006KT 210V340 9999 FEW020 SCT025 27/17
                        Q1013=
201108291245 METAR LIRA 291245Z 27008KT 210V340 9999 SCT020 SCT025 27/17
                        Q1013=
201108291215 METAR LIRA 291215Z 25007KT 190V300 9999 FEW020 SCT025 29/19
                        Q1013=
201108291145 METAR LIRA 291145Z 22008KT 190V250 9999 SCT020 28/20 Q1013=
201108291115 METAR LIRA 291115Z 24006KT 220V280 9999 SCT018 SCT025 28/18
                        Q1013=
201108291045 METAR LIRA 291045Z 30003KT 9999 SCT018 SCT025 27/16 Q1013=
201108291015 METAR LIRA 291015Z 21006KT 170V230 9999 SCT018 28/18 Q1014=
201108290945 METAR LIRA 290945Z 25006KT 190V280 9999 SCT018 27/19 Q1014=
201108290915 METAR LIRA 290915Z 21004KT 200V260 9999 SCT018 27/19 Q1014=
201108290845 METAR LIRA 290845Z 27003KT 9999 SCT018 26/18 Q1014=
201108290815 METAR LIRA 290815Z 23004KT 160V240 9999 SCT018 25/20 Q1014=
201108290745 METAR LIRA 290745Z 23003KT 9999 SCT014 25/20 Q1014=
201108290715 METAR LIRA 290715Z 31002KT 9999 SCT014 24/20 Q1014=
201108290645 METAR LIRA 290645Z 23003KT 9999 FEW014 23/20 Q1014=
201108290615 METAR LIRA 290615Z 20004KT 9999 FEW013 22/20 Q1014=
201108290545 METAR LIRA 290545Z 20005KT 9999 FEW013 22/21 Q1014=
201108290515 METAR LIRA 290515Z 18004KT 9999 FEW016 21/20 Q1014=
201108290445 METAR LIRA 290445Z 18004KT 9999 FEW070 21/20 Q1013=
201108290415 METAR LIRA 290415Z 17004KT CAVOK 21/20 Q1013=
201108290345 METAR LIRA 290345Z 18004KT CAVOK 21/20 Q1014=
201108290315 METAR LIRA 290315Z 17004KT CAVOK 21/20 Q1014=
201108290245 METAR LIRA 290245Z 17005KT CAVOK 21/19 Q1014=
201108290215 METAR LIRA 290215Z 19004KT CAVOK 21/20 Q1014=
201108290145 METAR LIRA 290145Z 17004KT CAVOK 21/20 Q1015=
201108290115 METAR LIRA 290115Z 18003KT CAVOK 20/19 Q1015=
201108290045 METAR LIRA 290045Z 16005KT CAVOK 20/19 Q1015=
201108290015 METAR LIRA 290015Z 17004KT CAVOK 21/20 Q1015=
201108282350 METAR LIRA 290045Z 16005KT CAVOK 20/19 Q1015=
201108282345 METAR LIRA 282345Z 18003KT CAVOK 22/21 Q1015=
201108282315 METAR LIRA 282315Z 18003KT CAVOK 22/21 Q1015=
201108282245 METAR LIRA 282245Z 17003KT CAVOK 22/21 Q1015=
201108282215 METAR LIRA 282215Z 16003KT CAVOK 22/20 Q1015=
201108282145 METAR LIRA 282145Z 19004KT CAVOK 23/20 Q1015=
201108282115 METAR LIRA 282115Z 17003KT CAVOK 23/20 Q1015=
201108282045 METAR LIRA 282045Z 16004KT CAVOK 23/20 Q1015=
201108282015 METAR LIRA 282015Z 17004KT CAVOK 23/19 Q1015=
201108281945 METAR LIRA 281945Z 18004KT CAVOK 23/19 Q1015=
201108281915 METAR LIRA 281915Z 19004KT CAVOK 24/18 Q1015=
201108281845 METAR LIRA 281845Z 20004KT CAVOK 25/16 Q1014=
201108281815 METAR LIRA 281815Z 23004KT CAVOK 25/15 Q1014=
201108281745 METAR LIRA 281745Z 26004KT CAVOK 27/13 Q1014=
201108281715 METAR LIRA 281715Z 24006KT 220V280 CAVOK 28/12 Q1014=
201108281645 METAR LIRA 281645Z 26007KT 200V300 CAVOK 28/12 Q1014=
201108281615 METAR LIRA 281615Z 25006KT 200V290 CAVOK 28/12 Q1014=
201108281545 METAR LIRA 281545Z 26007KT 220V320 CAVOK 29/14 Q1014=
201108281515 METAR LIRA 281515Z 25008KT 190V290 CAVOK 29/14 Q1014=
201108281445 METAR LIRA 281445Z 25009KT 210V300 CAVOK 29/15 Q1014=
201108281415 METAR LIRA 281415Z 27008KT 210V300 9999 FEW020 29/14 Q1014=
201108281345 METAR LIRA 281345Z 25009KT 210V300 9999 FEW020 29/14 Q1015=
201108281315 METAR LIRA 281315Z 27008KT 240V330 9999 FEW020 30/14 Q1015=
201108281245 METAR LIRA 281245Z 25006KT 180V270 9999 FEW020 30/14 Q1015=
201108281215 METAR LIRA 281215Z 26007KT 210V310 9999 FEW020 31/15 Q1015=
201108281145 METAR LIRA 281145Z 26008KT 210V310 9999 FEW020 30/18 Q1015=
201108281115 METAR LIRA 281115Z 27004KT 9999 FEW020 30/18 Q1015=
201108281045 METAR LIRA 281045Z 30005KT 250V350 9999 FEW020 29/19 Q1015=
201108281015 METAR LIRA 281015Z 26005KT 240V310 9999 FEW020 29/19 Q1015=
201108280945 METAR LIRA 280945Z 15003KT 9999 FEW020 28/19 Q1015=
201108280915 METAR LIRA 280915Z 30003KT 9999 FEW020 27/19 Q1015=
201108280845 METAR LIRA 280845Z 04002KT 9999 FEW020 26/18 Q1015=
201108280815 METAR LIRA 280815Z 36003KT 9999 FEW020 24/17 Q1015=
201108280745 METAR LIRA 280745Z 03003KT 9999 FEW020 24/16 Q1015=
201108280715 METAR LIRA 280715Z 02004KT 9999 FEW020 22/15 Q1015=
201108280645 METAR LIRA 280645Z 02005KT 9999 FEW020 21/13 Q1015=
201108280615 METAR LIRA 280615Z 02005KT 330V060 CAVOK 20/13 Q1014=
201108280545 METAR LIRA 280545Z 04004KT CAVOK 19/11 Q1014=
201108280515 METAR LIRA 280515Z 04004KT CAVOK 19/11 Q1014=
201108280445 METAR LIRA 280445Z 05004KT 9999 FEW025 19/10 Q1014=
201108280415 METAR LIRA 280415Z 02004KT CAVOK 19/10 Q1014=
201108280345 METAR LIRA 280345Z 02003KT CAVOK 19/10 Q1013=
201108280315 METAR LIRA 280315Z 04004KT CAVOK 20/10 Q1014=
201108280245 METAR LIRA 280245Z 04004KT CAVOK 20/10 Q1014=
201108280215 METAR LIRA 280215Z 04003KT 9999 FEW010 20/11 Q1014=
201108280145 METAR LIRA 280145Z 04003KT 9999 FEW010 21/11 Q1013=
201108280115 METAR LIRA 280115Z 01003KT 9999 SCT010 21/10 Q1013=
201108280045 METAR LIRA 280045Z 36002KT 9999 FEW010 21/11 Q1013=
201108280015 METAR LIRA 280015Z 03003KT CAVOK 22/12 Q1013=
201108272350 METAR LIRA 280045Z 36002KT 9999 FEW010 21/11 Q1013=
201108272345 METAR LIRA 272345Z 35002KT 9999 FEW010 22/14 Q1013=
201108272315 METAR LIRA 272315Z 04002KT 9999 FEW010 23/21 Q1013=
201108272245 METAR LIRA 272245Z 15002KT CAVOK 23/21 Q1013=
201108272215 METAR LIRA 272215Z 15002KT CAVOK 23/21 Q1013=
201108272145 METAR LIRA 272145Z 14003KT CAVOK 24/22 Q1013=
201108272115 METAR LIRA 272115Z 17003KT 9999 FEW080 24/22 Q1013=
201108272045 METAR LIRA 272045Z 15003KT 9999 FEW018 24/22 Q1013=
201108272015 METAR LIRA 272015Z 14004KT 9999 SCT060 24/22 Q1013=
201108271945 METAR LIRA 271945Z 17005KT 9999 FEW070 25/22 Q1013=
201108271915 METAR LIRA 271915Z 19004KT 9999 FEW016 25/22 Q1013=
201108271845 METAR LIRA 271845Z 22003KT 9999 FEW017 25/23 Q1012=
201108271815 METAR LIRA 271815Z 23004KT 9999 FEW017 26/24 Q1012=
201108271745 METAR LIRA 271745Z 24006KT 220V290 9999 FEW017 26/24 Q1012=
201108271715 METAR LIRA 271715Z 26008KT 210V330 9999 FEW017TCU 27/24 Q1012=
201108271645 METAR LIRA 271645Z 27008KT 200V310 9999 FEW017CB SCT018 28/25
                        Q1012=
201108271615 METAR LIRA 271615Z 23008KT 9999 BKN018 29/25 Q1012=
201108271545 METAR LIRA 271545Z 21006KT 160V240 9999 SCT020 29/24 Q1012=
201108271515 METAR LIRA 271515Z 22008KT 180V250 9999 FEW020 30/24 Q1012=
201108271445 METAR LIRA 271445Z 21009KT 170V270 9999 FEW020 30/22 Q1012=
201108271415 METAR LIRA 271415Z 21008G18KT 150V260 9999 FEW020 30/21 Q1012=
201108271345 METAR LIRA 271345Z 21010KT 160V240 9999 FEW020 30/23 Q1012=
201108271315 METAR LIRA 271315Z 21008KT 170V260 9999 FEW018 30/24 Q1013=
201108271245 METAR LIRA 271245Z 20009KT 160V240 9999 FEW016 30/24 Q1013=
201108271215 METAR LIRA 271215Z 23010KT 190V270 9999 SCT016 30/25 Q1013=
201108271145 METAR LIRA 271145Z 24011KT 9999 SCT016 31/25 Q1013=
201108271115 METAR LIRA 271115Z 23009KT 190V270 9999 SCT016 30/25 Q1013=
201108271045 METAR LIRA 271045Z 20008KT 170V250 9999 SCT016 31/24 Q1013=
201108271015 METAR LIRA 271015Z 22008KT 160V280 9999 SCT016 31/24 Q1013=
201108270945 METAR LIRA 270945Z 22007KT 160V280 9999 SCT016 31/24 Q1013=
201108270915 METAR LIRA 270915Z 18008KT 150V220 9999 SCT015 31/23 Q1013=
201108270845 METAR LIRA 270845Z 17008KT 150V230 9999 FEW015 30/23 Q1013=
201108270815 METAR LIRA 270815Z 21007KT 160V260 CAVOK 30/22 Q1013=
201108270745 METAR LIRA 270745Z 19008KT 160V250 CAVOK 29/21 Q1013=
201108270715 METAR LIRA 270715Z 20009KT 170V230 CAVOK 29/17 Q1013=
201108270645 METAR LIRA 270645Z 33002KT CAVOK 26/19 Q1013=
201108270615 METAR LIRA 270615Z 33002KT CAVOK 24/19 Q1012=
201108270545 METAR LIRA 270545Z 33002KT CAVOK 23/19 Q1012=
201108270515 METAR LIRA 270515Z 08002KT CAVOK 22/19 Q1012=
201108270445 METAR LIRA 270445Z 09002KT 9000 NSC 22/19 Q1011=
201108270415 METAR LIRA 270415Z 34002KT 7000 NSC 22/18 Q1011=
201108270345 METAR LIRA 270345Z 10003KT CAVOK 22/18 Q1011=
201108270315 METAR LIRA 270315Z 09003KT CAVOK 22/19 Q1011=
201108270245 METAR LIRA 270245Z 00000KT 9999 FEW002 22/20 Q1011=
201108270215 METAR LIRA 270215Z 33002KT 9999 3000S FU FEW001 23/20 Q1011=
201108270145 METAR LIRA 270145Z 00000KT CAVOK 23/20 Q1011=
201108270115 METAR LIRA 270115Z 04001KT CAVOK 23/20 Q1012=
201108270045 METAR LIRA 270045Z 05002KT CAVOK 23/20 Q1012=
201108270015 METAR LIRA 270015Z 00000KT CAVOK 23/21 Q1012=
201108262350 METAR LIRA 270045Z 05002KT CAVOK 23/20 Q1012=
201108262345 METAR LIRA 262345Z 00000KT CAVOK 24/21 Q1012=
201108262315 METAR LIRA 262315Z 35001KT CAVOK 24/21 Q1012=
201108262245 METAR LIRA 262245Z 00000KT CAVOK 24/20 Q1012=
201108262215 METAR LIRA 262215Z 27001KT CAVOK 25/21 Q1012=
201108262145 METAR LIRA 262145Z 32001KT CAVOK 26/20 Q1012=
201108262115 METAR LIRA 262115Z 09003KT CAVOK 25/21 Q1012=
201108262045 METAR LIRA 262045Z 19005KT CAVOK 27/23 Q1012=
201108262015 METAR LIRA 262015Z 20005KT 170V230 CAVOK 27/21 Q1012=
201108261945 METAR LIRA 261945Z 23004KT CAVOK 27/23 Q1012=
201108261915 METAR LIRA 261915Z 28001KT CAVOK 28/23 Q1012=
201108261845 METAR LIRA 261845Z 25003KT CAVOK 29/22 Q1012=
201108261815 METAR LIRA 261815Z 19004KT 9999 FEW080 30/22 Q1011=
201108261745 METAR LIRA 261745Z 22003KT 9999 FEW080 31/21 Q1011=
201108261715 METAR LIRA 261715Z 21005KT 180V240 9999 FEW080 32/20 Q1011=
201108261645 METAR LIRA 261645Z 19007KT 9999 FEW080 33/19 Q1011=
201108261615 METAR LIRA 261615Z 22007KT 170V250 9999 FEW080 34/20 Q1011=
201108261545 METAR LIRA 261545Z 21007KT 180V240 9999 FEW080 35/18 Q1012=
201108261515 METAR LIRA 261515Z 21008KT 180V260 CAVOK 35/17 Q1012=
201108261445 METAR LIRA 261445Z 21008KT 170V250 9999 FEW035 36/18 Q1012=
201108261415 METAR LIRA 261415Z 22008KT 180V260 9999 FEW022 36/18 Q1012=
201108261345 METAR LIRA 261345Z 23009KT 180V260 9999 FEW022 37/19 Q1012=
201108261315 METAR LIRA 261315Z 22008KT 190V260 9999 FEW022 37/20 Q1012=
201108261245 METAR LIRA 261245Z 22007KT 170V260 9999 FEW022 37/20 Q1012=
201108261215 METAR LIRA 261215Z 23007G18KT 190V280 9999 FEW022 37/21 Q1013=
201108261145 METAR LIRA 261145Z 19005KT 170V260 9999 FEW020 36/19 Q1013=
201108261115 METAR LIRA 261115Z 16005KT CAVOK 36/18 Q1013=
201108261045 METAR LIRA 261045Z 19004KT 140V250 CAVOK 36/19 Q1013=
201108261015 METAR LIRA 261015Z 09003KT CAVOK 35/19 Q1014=
201108260945 METAR LIRA 260945Z 31002KT CAVOK 34/19 Q1014=
201108260915 METAR LIRA 260915Z 27002KT CAVOK 33/18 Q1014=
201108260845 METAR LIRA 260845Z 33001KT CAVOK 31/18 Q1014=
201108260815 METAR LIRA 260815Z 36002KT CAVOK 30/18 Q1014=
201108260745 METAR LIRA 260745Z 01001KT CAVOK 29/19 Q1014=
201108260715 METAR LIRA 260715Z 07003KT CAVOK 28/19 Q1014=
201108260645 METAR LIRA 260645Z 03002KT CAVOK 26/18 Q1014=
201108260615 METAR LIRA 260615Z 05002KT CAVOK 25/18 Q1014=
201108260545 METAR LIRA 260545Z 00000KT CAVOK 23/17 Q1013=
201108260515 METAR LIRA 260515Z 32001KT CAVOK 22/17 Q1013=
201108260445 METAR LIRA 260445Z 12002KT CAVOK 22/17 Q1013=
201108260415 METAR LIRA 260415Z 08002KT CAVOK 22/16 Q1013=
201108260345 METAR LIRA 260345Z 05002KT CAVOK 22/16 Q1013=
201108260315 METAR LIRA 260315Z 02002KT CAVOK 23/16 Q1013=
201108260245 METAR LIRA 260245Z 03003KT CAVOK 23/16 Q1013=
201108260215 METAR LIRA 260215Z 07004KT CAVOK 23/16 Q1013=
201108260145 METAR LIRA 260145Z 06003KT 9999 FEW003 23/16 Q1013=
201108260115 METAR LIRA 260115Z 04002KT 9999 FEW003 23/16 Q1013=
201108260045 METAR LIRA 260045Z 33002KT CAVOK 24/16 Q1013=
201108260015 METAR LIRA 260015Z 08003KT CAVOK 24/15 Q1013=
201108252350 METAR LIRA 260045Z 33002KT CAVOK 24/16 Q1013=
201108252345 METAR LIRA 252345Z 08001KT CAVOK 24/14 Q1014=
201108252315 METAR LIRA 252315Z 05002KT CAVOK 25/15 Q1014=
201108252245 METAR LIRA 252245Z 03002KT CAVOK 25/15 Q1014=
201108252215 METAR LIRA 252215Z 13002KT CAVOK 26/14 Q1014=
201108252145 METAR LIRA 252145Z 13002KT CAVOK 26/14 Q1014=
201108252115 METAR LIRA 252115Z 13002KT CAVOK 27/14 Q1014=
201108252045 METAR LIRA 252045Z 16003KT CAVOK 27/14 Q1014=
201108252015 METAR LIRA 252015Z 15002KT CAVOK 28/13 Q1014=
201108251945 METAR LIRA 251945Z 18002KT CAVOK 29/13 Q1014=
201108251915 METAR LIRA 251915Z 18003KT CAVOK 29/13 Q1014=
201108251845 METAR LIRA 251845Z 17003KT CAVOK 30/13 Q1013=
201108251815 METAR LIRA 251815Z 21003KT CAVOK 30/13 Q1013=
201108251745 METAR LIRA 251745Z 23004KT CAVOK 32/13 Q1013=
201108251715 METAR LIRA 251715Z 25004KT CAVOK 33/14 Q1013=
201108251645 METAR LIRA 251645Z 25005KT 210V280 CAVOK 33/14 Q1013=
201108251615 METAR LIRA 251615Z 26006KT 220V300 CAVOK 34/14 Q1014=
201108251545 METAR LIRA 251545Z 26005KT 220V310 9999 FEW018 34/14 Q1014=
201108251515 METAR LIRA 251515Z 27009KT 240V360 9999 FEW018 35/15 Q1014=
201108251445 METAR LIRA 251445Z 26008KT 230V290 9999 FEW018 35/15 Q1014=
201108251415 METAR LIRA 251415Z 28009KT 240V310 9999 FEW018 35/15 Q1014=
201108251345 METAR LIRA 251345Z 27007KT 240V330 9999 FEW018 35/15 Q1014=
201108251315 METAR LIRA 251315Z 27008KT 240V310 9999 FEW018 35/16 Q1014=
201108251245 METAR LIRA 251245Z 25007KT 220V300 9999 FEW018 35/17 Q1015=
201108251215 METAR LIRA 251215Z 27007KT 220V310 9999 FEW018 36/18 Q1015=
201108251145 METAR LIRA 251145Z 22008KT 170V260 9999 FEW018 36/18 Q1015=
201108251115 METAR LIRA 251115Z 22006KT 170V270 9999 FEW018 36/18 Q1015=
201108251045 METAR LIRA 251045Z 28004KT 240V300 CAVOK 36/17 Q1015=
201108251015 METAR LIRA 251015Z 25004KT CAVOK 35/17 Q1015=
201108250945 METAR LIRA 250945Z 21003KT CAVOK 35/17 Q1015=
201108250915 METAR LIRA 250915Z 36002KT CAVOK 33/18 Q1015=
201108250845 METAR LIRA 250845Z 36001KT CAVOK 31/18 Q1015=
201108250815 METAR LIRA 250815Z 02003KT CAVOK 30/18 Q1015=
201108250800 METAR LIRA INTER CB SW-W=
201108250745 METAR LIRA 250745Z 36003KT CAVOK 28/18 Q1015=
201108250715 METAR LIRA 250715Z 36004KT CAVOK 27/18 Q1015=
201108250645 METAR LIRA 250645Z 02003KT CAVOK 26/19 Q1014=
201108250615 METAR LIRA 250615Z 02003KT CAVOK 25/18 Q1014=
201108250545 METAR LIRA 250545Z 06003KT CAVOK 23/18 Q1014=
201108250515 METAR LIRA 250515Z 05003KT CAVOK 22/17 Q1014=
201108250445 METAR LIRA 250445Z 04002KT CAVOK 22/16 Q1014=
201108250415 METAR LIRA 250415Z 08003KT CAVOK 22/16 Q1014=
201108250345 METAR LIRA 250345Z 07001KT CAVOK 22/16 Q1014=
201108250315 METAR LIRA 250315Z 00000KT CAVOK 22/17 Q1014=
201108250245 METAR LIRA 250245Z 00000KT CAVOK 23/17 Q1014=
201108250215 METAR LIRA 250215Z 00000KT CAVOK 23/16 Q1014=
201108250145 METAR LIRA 250145Z 00000KT CAVOK 23/16 Q1014=
201108250115 METAR LIRA 250115Z 02003KT CAVOK 24/16 Q1014=
201108250045 METAR LIRA 250045Z 02003KT CAVOK 24/16 Q1014=
201108250015 METAR LIRA 250015Z 03003KT CAVOK 25/16 Q1014=
201108242350 METAR LIRA 250045Z 02003KT CAVOK 24/16 Q1014=
201108242345 METAR LIRA 242345Z 03003KT CAVOK 25/16 Q1014=
201108242315 METAR LIRA 242315Z 04003KT CAVOK 25/15 Q1014=
201108242245 METAR LIRA 242245Z 01001KT CAVOK 25/16 Q1014=
201108242215 METAR LIRA 242215Z 10001KT CAVOK 26/16 Q1014=
201108242145 METAR LIRA 242145Z 13002KT CAVOK 26/16 Q1014=
201108242115 METAR LIRA 242115Z 17002KT CAVOK 27/16 Q1014=
201108242045 METAR LIRA 242045Z 17002KT CAVOK 27/15 Q1014=
201108242015 METAR LIRA 242015Z 18003KT CAVOK 28/15 Q1014=
201108241945 METAR LIRA 241945Z 18004KT CAVOK 28/15 Q1014=
201108241915 METAR LIRA 241915Z 18004KT CAVOK 29/15 Q1014=
201108241845 METAR LIRA 241845Z 17004KT CAVOK 29/15 Q1014=
201108241815 METAR LIRA 241815Z 20004KT CAVOK 30/15 Q1014=
201108241745 METAR LIRA 241745Z 23005KT CAVOK 31/15 Q1014=
201108241715 METAR LIRA 241715Z 23005KT CAVOK 31/14 Q1014=
201108241645 METAR LIRA 241645Z 23006KT CAVOK 33/15 Q1014=
201108241615 METAR LIRA 241615Z 24007KT CAVOK 34/16 Q1014=
201108241545 METAR LIRA 241545Z 24007KT 200V280 CAVOK 34/16 Q1014=
201108241515 METAR LIRA 241515Z 26007KT 200V330 CAVOK 34/16 Q1014=
201108241445 METAR LIRA 241445Z 24009KT 220V280 CAVOK 34/17 Q1014=
201108241415 METAR LIRA 241415Z 26008KT 220V300 CAVOK 35/17 Q1014=
201108241345 METAR LIRA 241345Z 25007KT 200V300 CAVOK 36/16 Q1014=
201108241315 METAR LIRA 241315Z 27007KT 220V350 CAVOK 36/17 Q1014=
201108241245 METAR LIRA 241245Z 29007KT CAVOK 36/18 Q1015=
201108241215 METAR LIRA 241215Z 05003KT CAVOK 37/16 Q1015=
201108241145 METAR LIRA 241145Z 34004KT 320V020 CAVOK 36/14 Q1015=
201108241115 METAR LIRA 241115Z 34005KT 300V020 CAVOK 36/13 Q1015=
201108241045 METAR LIRA 241045Z 30005KT 260V330 CAVOK 35/14 Q1016=
201108241015 METAR LIRA 241015Z 30003KT CAVOK 35/16 Q1016=
201108240945 METAR LIRA 240945Z 32002KT CAVOK 34/16 Q1016=
201108240915 METAR LIRA 240915Z 31002KT CAVOK 33/16 Q1016=
201108240845 METAR LIRA 240845Z 30002KT CAVOK 31/18 Q1016=
201108240815 METAR LIRA 240815Z 02002KT CAVOK 30/19 Q1016=
201108240745 METAR LIRA 240745Z 35001KT CAVOK 29/18 Q1016=
201108240715 METAR LIRA 240715Z 17001KT CAVOK 27/18 Q1016=
201108240645 METAR LIRA 240645Z 02001KT CAVOK 27/18 Q1016=
201108240615 METAR LIRA 240615Z 00000KT CAVOK 26/18 Q1016=
201108240545 METAR LIRA 240545Z 00000KT CAVOK 23/17 Q1016=
201108240515 METAR LIRA 240515Z 09001KT CAVOK 22/17 Q1015=
201108240445 METAR LIRA 240445Z 00000KT CAVOK 22/17 Q1015=
201108240415 METAR LIRA 240415Z 00000KT CAVOK 22/16 Q1015=
201108240345 METAR LIRA 240345Z 00000KT CAVOK 22/16 Q1015=
201108240315 METAR LIRA 240315Z 30002KT CAVOK 23/16 Q1015=
201108240245 METAR LIRA 240245Z 02002KT CAVOK 23/16 Q1015=
201108240215 METAR LIRA 240215Z 03003KT CAVOK 24/16 Q1015=
201108240145 METAR LIRA 240145Z 03004KT CAVOK 24/16 Q1016=
201108240115 METAR LIRA 240115Z 03003KT CAVOK 24/16 Q1016=
201108240045 METAR LIRA 240045Z 04003KT CAVOK 24/15 Q1016=
201108240015 METAR LIRA 240015Z 05002KT CAVOK 24/15 Q1016=
201108232350 METAR LIRA 240045Z 04003KT CAVOK 24/15 Q1016=
201108232345 METAR LIRA 232345Z 08002KT CAVOK 25/15 Q1016=
201108232315 METAR LIRA 232315Z 09002KT CAVOK 25/15 Q1016=
201108232245 METAR LIRA 232245Z 15002KT CAVOK 26/16 Q1016=
201108232215 METAR LIRA 232215Z 15001KT CAVOK 27/15 Q1016=
201108232145 METAR LIRA 232145Z 18003KT CAVOK 28/16 Q1016=
201108232115 METAR LIRA 232115Z 18002KT CAVOK 28/16 Q1016=
201108232045 METAR LIRA 232045Z 19005KT CAVOK 29/16 Q1016=
201108232015 METAR LIRA 232015Z 18002KT CAVOK 29/15 Q1016=
201108231945 METAR LIRA 231945Z 19003KT CAVOK 29/16 Q1016=
201108231915 METAR LIRA 231915Z 18004KT CAVOK 29/16 Q1015=
201108231845 METAR LIRA 231845Z 18005KT CAVOK 30/16 Q1015=
201108231815 METAR LIRA 231815Z 20004KT CAVOK 31/15 Q1015=
201108231745 METAR LIRA 231745Z 22004KT CAVOK 32/15 Q1015=
201108231715 METAR LIRA 231715Z 23006KT CAVOK 33/15 Q1015=
201108231645 METAR LIRA 231645Z 24006KT 200V280 CAVOK 34/16 Q1015=
201108231615 METAR LIRA 231615Z 24007KT 220V290 CAVOK 35/15 Q1015=
201108231545 METAR LIRA 231545Z 27007KT 220V320 CAVOK 35/14 Q1015=
201108231515 METAR LIRA 231515Z 26007KT 210V300 CAVOK 35/14 Q1015=
201108231445 METAR LIRA 231445Z 27008KT 220V310 CAVOK 35/15 Q1015=
201108231415 METAR LIRA 231415Z 25009KT 210V300 CAVOK 35/15 Q1015=
201108231345 METAR LIRA 231345Z 28010KT 240V330 CAVOK 36/15 Q1015=
201108231315 METAR LIRA 231315Z 26007KT 240V320 CAVOK 37/15 Q1016=
201108231245 METAR LIRA 231245Z 34005KT CAVOK 37/15 Q1016=
201108231215 METAR LIRA 231215Z 34005KT CAVOK 37/15 Q1016=
201108231145 METAR LIRA 231145Z 34005KT 300V020 CAVOK 37/15 Q1016=
201108231115 METAR LIRA 231115Z 30004KT 210V330 CAVOK 37/17 Q1017=
201108231045 METAR LIRA 231045Z 18003KT CAVOK 36/17 Q1017=
201108231015 METAR LIRA 231015Z 22004KT CAVOK 36/17 Q1017=
201108230945 METAR LIRA 230945Z 18003KT CAVOK 35/18 Q1017=
201108230915 METAR LIRA 230915Z 21005KT 180V270 CAVOK 35/18 Q1017=
201108230845 METAR LIRA 230845Z 20006KT 160V250 CAVOK 34/18 Q1017=
201108230815 METAR LIRA 230815Z 20007KT 160V250 CAVOK 33/19 Q1017=
201108230745 METAR LIRA 230745Z 25002KT CAVOK 31/18 Q1017=
201108230715 METAR LIRA 230715Z 27002KT CAVOK 29/17 Q1017=
201108230645 METAR LIRA 230645Z 34002KT CAVOK 27/17 Q1017=
201108230615 METAR LIRA 230615Z 01002KT CAVOK 25/16 Q1017=
201108230545 METAR LIRA 230545Z 04001KT CAVOK 23/16 Q1016=
201108230515 METAR LIRA 230515Z 04004KT CAVOK 21/15 Q1016=
201108230445 METAR LIRA 230445Z 05003KT CAVOK 21/14 Q1016=
201108230415 METAR LIRA 230415Z 05003KT CAVOK 22/15 Q1016=
201108230345 METAR LIRA 230345Z 04003KT CAVOK 22/14 Q1016=
201108230315 METAR LIRA 230315Z 04002KT CAVOK 22/14 Q1016=
201108230245 METAR LIRA 230245Z 01002KT CAVOK 22/13 Q1016=
201108230215 METAR LIRA 230215Z 05004KT CAVOK 23/14 Q1016=
201108230145 METAR LIRA 230145Z 03003KT CAVOK 23/14 Q1016=
201108230115 METAR LIRA 230115Z 03002KT CAVOK 24/14 Q1016=
201108230045 METAR LIRA 230045Z 36001KT CAVOK 25/13 Q1016=
201108230015 METAR LIRA 230015Z 06002KT CAVOK 25/12 Q1016=
201108222350 METAR LIRA 230045Z 36001KT CAVOK 25/13 Q1016=
201108222345 METAR LIRA 222345Z 06003KT CAVOK 25/12 Q1016=
201108222315 METAR LIRA 222315Z 08001KT CAVOK 26/11 Q1016=
201108222245 METAR LIRA 222245Z 10004KT CAVOK 26/11 Q1016=
201108222215 METAR LIRA 222215Z 11004KT CAVOK 27/12 Q1016=
201108222145 METAR LIRA 222145Z 10004KT CAVOK 27/13 Q1016=
201108222115 METAR LIRA 222115Z 11005KT CAVOK 27/13 Q1016=
201108222045 METAR LIRA 222045Z 09004KT CAVOK 27/14 Q1016=
201108222015 METAR LIRA 222015Z 12004KT CAVOK 27/14 Q1016=
201108221945 METAR LIRA 221945Z 12003KT CAVOK 28/15 Q1016=
201108221915 METAR LIRA 221915Z 33001KT CAVOK 29/14 Q1016=
201108221845 METAR LIRA 221845Z 30001KT CAVOK 30/14 Q1015=
201108221815 METAR LIRA 221815Z 29003KT CAVOK 31/15 Q1015=
201108221745 METAR LIRA 221745Z 29004KT CAVOK 33/16 Q1015=
201108221715 METAR LIRA 221715Z 26005KT 220V310 CAVOK 34/16 Q1015=
201108221645 METAR LIRA 221645Z 24006KT CAVOK 34/11 Q1015=
201108221615 METAR LIRA 221615Z 26006KT 220V300 CAVOK 35/11 Q1015=
201108221545 METAR LIRA 221545Z 23007KT 190V280 CAVOK 35/12 Q1015=
201108221515 METAR LIRA 221515Z 24008KT 220V310 CAVOK 36/12 Q1015=
201108221445 METAR LIRA 221445Z 23007KT 180V260 CAVOK 36/12 Q1015=
201108221415 METAR LIRA 221415Z 23008KT 180V270 CAVOK 36/13 Q1015=
201108221345 METAR LIRA 221345Z 22010KT 180V250 CAVOK 37/12 Q1015=
201108221315 METAR LIRA 221315Z 23009KT 200V300 CAVOK 37/12 Q1015=
201108221245 METAR LIRA 221245Z 25008G18KT 200V290 CAVOK 37/13 Q1015=
201108221215 METAR LIRA 221215Z 26005KT 160V330 CAVOK 37/11 Q1016=
201108221145 METAR LIRA 221145Z 30005KT 280V010 CAVOK 37/12 Q1016=
201108221115 METAR LIRA 221115Z 01004KT CAVOK 37/12 Q1016=
201108221045 METAR LIRA 221045Z 32003KT CAVOK 36/12 Q1016=
201108221015 METAR LIRA 221015Z 36003KT CAVOK 36/13 Q1017=
201108220945 METAR LIRA 220945Z 33003KT 320V030 CAVOK 35/13 Q1017=
201108220915 METAR LIRA 220915Z 02004KT CAVOK 34/13 Q1017=
201108220845 METAR LIRA 220845Z 01006KT 330V040 CAVOK 33/14 Q1017=
201108220815 METAR LIRA 220815Z 01005KT CAVOK 32/14 Q1017=
201108220745 METAR LIRA 220745Z 01004KT 310V040 CAVOK 30/16 Q1017=
201108220715 METAR LIRA 220715Z 04003KT CAVOK 28/17 Q1017=
201108220645 METAR LIRA 220645Z 01004KT CAVOK 27/17 Q1017=
201108220615 METAR LIRA 220615Z 36003KT CAVOK 26/18 Q1017=
201108220545 METAR LIRA 220545Z 35002KT CAVOK 25/19 Q1017=
201108220515 METAR LIRA 220515Z 00000KT CAVOK 24/18 Q1016=
201108220445 METAR LIRA 220445Z 08002KT CAVOK 24/20 Q1016=
201108220415 METAR LIRA 220415Z 10002KT CAVOK 24/20 Q1016=
201108220345 METAR LIRA 220345Z 08004KT CAVOK 24/18 Q1016=
201108220315 METAR LIRA 220315Z 07006KT CAVOK 24/18 Q1016=
201108220245 METAR LIRA 220245Z 15002KT CAVOK 24/18 Q1016=
201108220215 METAR LIRA 220215Z 00000KT CAVOK 24/19 Q1016=
201108220145 METAR LIRA 220145Z 27001KT CAVOK 24/19 Q1016=
201108220115 METAR LIRA 220115Z 22002KT CAVOK 25/19 Q1016=
201108220045 METAR LIRA 220045Z 34001KT CAVOK 25/19 Q1016=
201108220015 METAR LIRA 220015Z 33001KT CAVOK 25/18 Q1016=
201108212350 METAR LIRA 220045Z 34001KT CAVOK 25/19 Q1016=
201108212345 METAR LIRA 212345Z 01001KT CAVOK 26/18 Q1016=
201108212315 METAR LIRA 212315Z 10001KT CAVOK 26/18 Q1016=
201108212245 METAR LIRA 212245Z 00000KT CAVOK 27/18 Q1016=
201108212215 METAR LIRA 212215Z 11005KT CAVOK 27/17 Q1016=
201108212145 METAR LIRA 212145Z 12003KT CAVOK 27/19 Q1017=
201108212115 METAR LIRA 212115Z 08003KT CAVOK 27/19 Q1017=
201108212045 METAR LIRA 212045Z 10004KT CAVOK 27/19 Q1017=
201108212015 METAR LIRA 212015Z 00000KT CAVOK 28/20 Q1017=
201108211945 METAR LIRA 211945Z 18002KT 9999 FEW080 29/20 Q1017=
201108211915 METAR LIRA 211915Z 21002KT 9999 FEW030 29/19 Q1017=
201108211845 METAR LIRA 211845Z 24004KT 9999 FEW030 30/18 Q1016=
201108211815 METAR LIRA 211815Z 25003KT 9999 FEW030 30/17 Q1016=
201108211745 METAR LIRA 211745Z 23004KT 9999 FEW040 32/16 Q1016=
201108211715 METAR LIRA 211715Z 22005KT 9999 FEW060 33/15 Q1016=
201108211645 METAR LIRA 211645Z 22007KT 9999 FEW018 34/15 Q1016=
201108211615 METAR LIRA 211615Z 22007KT 190V250 9999 FEW018 34/16 Q1016=
201108211545 METAR LIRA 211545Z 20010KT 170V230 9999 FEW018 34/15 Q1017=
201108211515 METAR LIRA 211515Z 20009KT 170V240 9999 FEW018 34/16 Q1017=
201108211445 METAR LIRA 211445Z 21009KT 180V260 9999 FEW018 35/16 Q1017=
201108211415 METAR LIRA 211415Z 20009KT 160V230 9999 FEW018 35/16 Q1017=
201108211345 METAR LIRA 211345Z 20008KT 170V240 9999 FEW018 35/15 Q1017=
201108211315 METAR LIRA 211315Z 21008KT 170V260 9999 FEW018 36/16 Q1017=
201108211245 METAR LIRA 211245Z 21007KT 120V270 9999 FEW018 36/16 Q1017=
201108211215 METAR LIRA 211215Z 24008KT 170V300 9999 FEW018 36/17 Q1017=
201108211145 METAR LIRA 211145Z 23006KT 200V280 9999 FEW018 36/17 Q1017=
201108211115 METAR LIRA 211115Z 22007KT 150V260 CAVOK 36/17 Q1017=
201108211045 METAR LIRA 211045Z 21004KT CAVOK 35/17 Q1017=
201108211015 METAR LIRA 211015Z 20005KT 160V250 CAVOK 35/17 Q1017=
201108210945 METAR LIRA 210945Z 19005KT 130V260 CAVOK 35/17 Q1017=
201108210915 METAR LIRA 210915Z 20004KT CAVOK 34/17 Q1017=
201108210845 METAR LIRA 210845Z 26001KT CAVOK 33/18 Q1017=
201108210815 METAR LIRA 210815Z 34002KT CAVOK 31/17 Q1017=
201108210745 METAR LIRA 210745Z 04003KT CAVOK 29/17 Q1017=
201108210715 METAR LIRA 210715Z 01003KT CAVOK 27/17 Q1017=
201108210645 METAR LIRA 210645Z 02003KT CAVOK 25/17 Q1017=
201108210615 METAR LIRA 210615Z 01003KT CAVOK 24/17 Q1017=
201108210545 METAR LIRA 210545Z 02002KT CAVOK 23/17 Q1017=
201108210515 METAR LIRA 210515Z 05002KT CAVOK 22/17 Q1017=
201108210345 METAR LIRA 210345Z 04003KT CAVOK 21/16 Q1017=
201108202345 METAR LIRA 202345Z 11009KT CAVOK 24/18 Q1018=
201108202315 METAR LIRA 202315Z 00000KT CAVOK 23/18 Q1018=
201108202245 METAR LIRA 202245Z 00000KT CAVOK 24/18 Q1018=
201108202215 METAR LIRA 202215Z 23001KT CAVOK 25/23 Q1018=
201108202145 METAR LIRA 202145Z 23001KT CAVOK 25/24 Q1018=
201108202115 METAR LIRA 202115Z 18004KT CAVOK 25/23 Q1017=
201108202045 METAR LIRA 202045Z 18004KT CAVOK 25/23 Q1017=
201108202015 METAR LIRA 202015Z 22005KT CAVOK 25/22 Q1017=
201108201945 METAR LIRA 201945Z 23004KT CAVOK 26/21 Q1017=
201108201915 METAR LIRA 201915Z 22005KT CAVOK 27/20 Q1017=
201108201845 METAR LIRA 201845Z 21005KT CAVOK 27/19 Q1017=
201108201815 METAR LIRA 201815Z 20006KT CAVOK 29/19 Q1017=
201108201745 METAR LIRA 201745Z 20005KT 9999 FEW020TCU 30/19 Q1017=
201108201715 METAR LIRA 201715Z 23004KT 180V250 9999 FEW020TCU 30/19 Q1017=
201108201645 METAR LIRA 201645Z 23006KT 9999 FEW020TCU 31/17 Q1017=
201108201615 METAR LIRA 201615Z 24009KT 210V270 9999 FEW020TCU 32/17 Q1017=
201108201545 METAR LIRA 201545Z 27009KT 9999 FEW020 FEW022TCU 33/16 Q1017=
201108201515 METAR LIRA 201515Z 28010KT 240V310 9999 FEW020 33/16 Q1017=
201108201445 METAR LIRA 201445Z 26007KT 210V300 9999 FEW020 35/17 Q1018=
201108201415 METAR LIRA 201415Z 25008KT 220V310 9999 FEW020 35/17 Q1018=
201108201345 METAR LIRA 201345Z 25009KT 210V300 9999 FEW020 35/16 Q1018=
201108201315 METAR LIRA 201315Z 27008KT 220V320 9999 FEW020 35/16 Q1018=
201108201245 METAR LIRA 201245Z 29007KT 250V320 9999 FEW020 36/16 Q1018=
201108201215 METAR LIRA 201215Z 27006KT 220V320 CAVOK 36/16 Q1018=
201108201145 METAR LIRA 201145Z 32005KT 270V350 CAVOK 35/17 Q1019=
201108201115 METAR LIRA 201115Z 33005KT CAVOK 34/17 Q1019=
201108201045 METAR LIRA 201045Z 33005KT CAVOK 33/16 Q1019=
201108201015 METAR LIRA 201015Z 33005KT CAVOK 33/16 Q1019=
201108200945 METAR LIRA 200945Z 33003KT CAVOK 32/16 Q1019=
201108200915 METAR LIRA 200915Z 32004KT CAVOK 31/17 Q1019=
201108200845 METAR LIRA 200845Z 34005KT CAVOK 30/18 Q1019=
201108200815 METAR LIRA 200815Z 36003KT CAVOK 29/18 Q1019=
201108200745 METAR LIRA 200745Z 36005KT CAVOK 27/18 Q1019=
201108200715 METAR LIRA 200715Z 02004KT CAVOK 26/17 Q1019=
201108200645 METAR LIRA 200645Z 02004KT CAVOK 25/17 Q1019=
201108200615 METAR LIRA 200615Z 35004KT CAVOK 23/18 Q1018=
201108200545 METAR LIRA 200545Z 01002KT CAVOK 22/17 Q1018=
201108200515 METAR LIRA 200515Z 03002KT CAVOK 21/17 Q1018=
201108200445 METAR LIRA 200445Z 03003KT CAVOK 20/16 Q1018=
201108200415 METAR LIRA 200415Z 03003KT CAVOK 20/16 Q1018=
201108200345 METAR LIRA 200345Z 01003KT CAVOK 21/17 Q1018=
201108200315 METAR LIRA 200315Z 06003KT CAVOK 21/17 Q1018=
201108200245 METAR LIRA 200245Z 05004KT CAVOK 21/16 Q1018=
201108200215 METAR LIRA 200215Z 02003KT 9999 FEW004 21/17 Q1018=
201108200145 METAR LIRA 200145Z 03002KT 9999 FEW004 21/16 Q1018=
201108200115 METAR LIRA 200115Z 08002KT 9999 FEW004 21/16 Q1018=
201108200045 METAR LIRA 200045Z 04001KT CAVOK 22/17 Q1018=
201108200015 METAR LIRA 200015Z 00000KT CAVOK 22/19 Q1018=
201108192350 METAR LIRA 200045Z 04001KT CAVOK 22/17 Q1018=
201108192345 METAR LIRA 192345Z 00000KT CAVOK 23/18 Q1018=
201108192315 METAR LIRA 192315Z 22001KT CAVOK 23/17 Q1018=
201108192245 METAR LIRA 192245Z 21001KT CAVOK 24/16 Q1018=
201108192215 METAR LIRA 192215Z 16003KT CAVOK 25/16 Q1018=
201108192145 METAR LIRA 192145Z 16003KT CAVOK 25/16 Q1018=
201108192115 METAR LIRA 192115Z 19002KT CAVOK 25/16 Q1018=
201108192045 METAR LIRA 192045Z 19002KT CAVOK 26/16 Q1018=
201108192015 METAR LIRA 192015Z 19002KT CAVOK 26/16 Q1018=
201108191945 METAR LIRA 191945Z 18002KT CAVOK 27/17 Q1018=
201108191915 METAR LIRA 191915Z 18002KT CAVOK 27/17 Q1018=
201108191845 METAR LIRA 191845Z 20002KT CAVOK 27/17 Q1018=
201108191815 METAR LIRA 191815Z 22002KT CAVOK 28/16 Q1018=
201108191745 METAR LIRA 191745Z 25005KT CAVOK 30/15 Q1018=
201108191715 METAR LIRA 191715Z 27004KT CAVOK 31/15 Q1017=
201108191645 METAR LIRA 191645Z 26006KT 220V300 CAVOK 32/15 Q1017=
201108191615 METAR LIRA 191615Z 28008KT 250V320 CAVOK 32/15 Q1018=
201108191545 METAR LIRA 191545Z 27009KT 210V300 CAVOK 32/15 Q1018=
201108191515 METAR LIRA 191515Z 27008G18KT 240V330 CAVOK 33/15 Q1018=
201108191445 METAR LIRA 191445Z 26009KT 220V310 CAVOK 33/14 Q1018=
201108191415 METAR LIRA 191415Z 26008KT 220V310 CAVOK 34/14 Q1018=
201108191345 METAR LIRA 191345Z 28010KT 230V340 CAVOK 34/13 Q1018=
201108191315 METAR LIRA 191315Z 26008KT 210V300 CAVOK 34/13 Q1019=
201108191245 METAR LIRA 191245Z 26008KT 210V330 CAVOK 34/13 Q1019=
201108191215 METAR LIRA 191215Z 28008KT 230V330 CAVOK 35/14 Q1019=
201108191145 METAR LIRA 191145Z 29008KT 250V330 CAVOK 35/16 Q1019=
201108191115 METAR LIRA 191115Z 25005KT 200V290 CAVOK 34/16 Q1019=
201108191045 METAR LIRA 191045Z 31005KT 270V330 CAVOK 33/16 Q1019=
201108191015 METAR LIRA 191015Z 30004KT 240V340 CAVOK 33/17 Q1019=
201108190945 METAR LIRA 190945Z 31004KT 270V360 CAVOK 32/18 Q1019=
201108190915 METAR LIRA 190915Z 31002KT CAVOK 31/20 Q1019=
201108190845 METAR LIRA 190845Z 36002KT CAVOK 30/20 Q1019=
201108190815 METAR LIRA 190815Z 36002KT CAVOK 29/20 Q1019=
201108190745 METAR LIRA 190745Z 36002KT CAVOK 28/21 Q1019=
201108190715 METAR LIRA 190715Z 03003KT CAVOK 26/20 Q1019=
201108190645 METAR LIRA 190645Z 03003KT CAVOK 25/20 Q1018=
201108190615 METAR LIRA 190615Z 02003KT CAVOK 24/21 Q1018=
201108190545 METAR LIRA 190545Z 04002KT CAVOK 22/19 Q1018=
201108190515 METAR LIRA 190515Z 06001KT CAVOK 21/18 Q1018=
201108190445 METAR LIRA 190445Z 06001KT CAVOK 21/18 Q1017=
201108190415 METAR LIRA 190415Z 00000KT CAVOK 21/18 Q1017=
201108190345 METAR LIRA 190345Z 00000KT CAVOK 21/18 Q1017=
201108190315 METAR LIRA 190315Z 00000KT CAVOK 21/19 Q1017=
201108190245 METAR LIRA 190245Z 10003KT CAVOK 21/19 Q1017=
201108190215 METAR LIRA 190215Z 00000KT CAVOK 21/20 Q1017=
201108190145 METAR LIRA 190145Z 00000KT CAVOK 22/20 Q1017=
201108190115 METAR LIRA 190115Z 00000KT CAVOK 22/20 Q1017=
201108190045 METAR LIRA 190045Z 00000KT CAVOK 22/20 Q1018=
201108190015 METAR LIRA 190015Z 00000KT CAVOK 23/19 Q1018=
201108182350 METAR LIRA 190045Z 00000KT CAVOK 22/20 Q1018=
201108182345 METAR LIRA 182345Z 00000KT CAVOK 23/18 Q1018=
201108182315 METAR LIRA 182315Z 10001KT CAVOK 23/19 Q1017=
201108182245 METAR LIRA 182245Z 00000KT CAVOK 23/22 Q1017=
201108182215 METAR LIRA 182215Z 00000KT CAVOK 24/22 Q1017=
201108182145 METAR LIRA 182145Z 00000KT CAVOK 24/22 Q1017=
201108182115 METAR LIRA 182115Z 21002KT CAVOK 25/21 Q1017=
201108182045 METAR LIRA 182045Z 21002KT CAVOK 25/21 Q1017=
201108182015 METAR LIRA 182015Z 19003KT CAVOK 26/21 Q1017=
201108181945 METAR LIRA 181945Z 20002KT CAVOK 26/21 Q1017=
201108181915 METAR LIRA 181915Z 22003KT CAVOK 27/21 Q1017=
201108181845 METAR LIRA 181845Z 25002KT CAVOK 28/20 Q1016=
201108181815 METAR LIRA 181815Z 28003KT CAVOK 28/21 Q1016=
201108181745 METAR LIRA 181745Z 29005KT 240V310 CAVOK 30/22 Q1016=
201108181715 METAR LIRA 181715Z 26005KT 200V310 CAVOK 30/21 Q1016=
201108181645 METAR LIRA 181645Z 23005KT CAVOK 31/21 Q1016=
201108181615 METAR LIRA 181615Z 23007KT 170V260 CAVOK 31/21 Q1016=
201108181545 METAR LIRA 181545Z 24008KT 9999 FEW017 31/20 Q1016=
201108181515 METAR LIRA 181515Z 23008KT 190V260 9999 FEW017 31/20 Q1016=
201108181445 METAR LIRA 181445Z 23008KT 210V280 9999 FEW017 32/21 Q1016=
201108181415 METAR LIRA 181415Z 22009KT 170V270 9999 FEW017 33/21 Q1016=
201108181345 METAR LIRA 181345Z 23007KT 180V260 9999 FEW017 33/20 Q1016=
201108181315 METAR LIRA 181315Z 23008KT 190V270 9999 FEW017TCU 33/20 Q1016=
201108181245 METAR LIRA 181245Z 23007KT 180V310 9999 FEW017 33/19 Q1016=
201108181215 METAR LIRA 181215Z 21007KT 150V240 9999 FEW017 33/19 Q1016=
201108181145 METAR LIRA 181145Z 23008KT 190V280 9999 FEW017 33/19 Q1016=
201108181115 METAR LIRA 181115Z 30005KT 220V340 CAVOK 33/18 Q1016=
201108181045 METAR LIRA 181045Z 25005KT 180V280 CAVOK 33/18 Q1016=
201108181015 METAR LIRA 181015Z 21003KT 210V280 CAVOK 32/18 Q1016=
201108180945 METAR LIRA 180945Z 19003KT CAVOK 32/19 Q1016=
201108180915 METAR LIRA 180915Z 21004KT CAVOK 30/19 Q1016=
201108180845 METAR LIRA 180845Z 23003KT CAVOK 30/20 Q1016=
201108180815 METAR LIRA 180815Z 22003KT CAVOK 29/20 Q1016=
201108180745 METAR LIRA 180745Z 13001KT CAVOK 28/21 Q1016=
201108180715 METAR LIRA 180715Z 26001KT CAVOK 26/21 Q1016=
201108180645 METAR LIRA 180645Z 07001KT CAVOK 25/21 Q1016=
201108180615 METAR LIRA 180615Z 02001KT CAVOK 23/22 Q1016=
201108180515 METAR LIRA 180515Z 00000KT CAVOK 21/20 Q1015=
201108180445 METAR LIRA 180445Z 00000KT CAVOK 22/21 Q1015=
201108180415 METAR LIRA 180415Z 00000KT CAVOK 21/21 Q1015=
201108180345 METAR LIRA 180345Z 15003KT CAVOK 21/19 Q1015=
201108180315 METAR LIRA 180315Z 18002KT CAVOK 21/19 Q1015=
201108180245 METAR LIRA 180245Z 00000KT CAVOK 22/20 Q1015=
201108180215 METAR LIRA 180215Z 27001KT CAVOK 23/20 Q1015=
201108180145 METAR LIRA 180145Z 15002KT CAVOK 23/21 Q1015=
201108180115 METAR LIRA 180115Z 15003KT CAVOK 23/21 Q1015=
201108180045 METAR LIRA 180045Z 00000KT CAVOK 23/21 Q1015=
201108180015 METAR LIRA 180015Z 00000KT CAVOK 23/20 Q1015=
201108172350 METAR LIRA 180045Z 00000KT CAVOK 23/21 Q1015=
201108172345 METAR LIRA 172345Z 33003KT CAVOK 24/20 Q1015=
201108172315 METAR LIRA 172315Z 00000KT CAVOK 24/19 Q1015=
201108172245 METAR LIRA 172245Z 00000KT CAVOK 24/19 Q1015=
201108172215 METAR LIRA 172215Z 00000KT CAVOK 24/20 Q1015=
201108172145 METAR LIRA 172145Z 00000KT CAVOK 25/21 Q1015=
201108172115 METAR LIRA 172115Z 00000KT CAVOK 25/21 Q1015=
201108172045 METAR LIRA 172045Z 00000KT CAVOK 25/20 Q1015=
201108172015 METAR LIRA 172015Z 16002KT CAVOK 25/20 Q1015=
201108171945 METAR LIRA 171945Z 28002KT CAVOK 26/20 Q1015=
201108171915 METAR LIRA 171915Z 26003KT CAVOK 26/20 Q1015=
201108171845 METAR LIRA 171845Z 22003KT CAVOK 27/20 Q1014=
201108171815 METAR LIRA 171815Z 23003KT 9999 FEW080 28/20 Q1014=
201108171745 METAR LIRA 171745Z 26004KT 9999 FEW080 28/21 Q1014=
201108171715 METAR LIRA 171715Z 25006KT 220V280 9999 FEW080 29/22 Q1014=
201108171645 METAR LIRA 171645Z 25006KT 210V300 9999 FEW020 29/22 Q1014=
201108171615 METAR LIRA 171615Z 22007KT 180V260 9999 FEW020 30/22 Q1014=
201108171545 METAR LIRA 171545Z 22008KT 190V250 CAVOK 31/21 Q1014=
201108171515 METAR LIRA 171515Z 23008KT 190V250 9999 FEW020 32/20 Q1014=
201108171445 METAR LIRA 171445Z 21009KT 170V250 9999 FEW020 32/19 Q1014=
201108171415 METAR LIRA 171415Z 21008KT 180V250 9999 FEW020 32/18 Q1014=
201108171345 METAR LIRA 171345Z 23008KT 200V300 9999 FEW020 33/19 Q1014=
201108171315 METAR LIRA 171315Z 22008KT 9999 FEW020 33/21 Q1014=
201108171245 METAR LIRA 171245Z 23008KT 180V270 9999 FEW020 32/22 Q1014=
201108171215 METAR LIRA 171215Z 22008KT 170V260 9999 SCT020 32/23 Q1014=
201108171145 METAR LIRA 171145Z 23009KT 180V270 9999 FEW020 32/23 Q1015=
201108171115 METAR LIRA 171115Z 15006KT 090V200 9999 FEW020 33/19 Q1015=
201108171045 METAR LIRA 171045Z 21004KT 160V260 9999 FEW020 32/17 Q1015=
201108171015 METAR LIRA 171015Z 17005KT 9999 FEW020 32/18 Q1015=
201108170945 METAR LIRA 170945Z 21004KT 170V240 9999 FEW020 31/18 Q1015=
201108170915 METAR LIRA 170915Z 18006KT CAVOK 31/19 Q1015=
201108170845 METAR LIRA 170845Z 02003KT CAVOK 30/20 Q1015=
201108170815 METAR LIRA 170815Z 13001KT CAVOK 29/19 Q1015=
201108170745 METAR LIRA 170745Z 35003KT CAVOK 27/19 Q1015=
201108170715 METAR LIRA 170715Z 33002KT CAVOK 26/19 Q1015=
201108170645 METAR LIRA 170645Z 34002KT CAVOK 25/19 Q1015=
201108170615 METAR LIRA 170615Z 33001KT CAVOK 24/18 Q1015=
201108170545 METAR LIRA 170545Z 36001KT CAVOK 23/18 Q1014=
201108170515 METAR LIRA 170515Z 08001KT CAVOK 21/17 Q1014=
201108170445 METAR LIRA 170445Z 06003KT CAVOK 21/18 Q1014=
201108170415 METAR LIRA 170415Z 20002KT CAVOK 21/17 Q1014=
201108170345 METAR LIRA 170345Z 05002KT CAVOK 22/18 Q1014=
201108170315 METAR LIRA 170315Z 05004KT CAVOK 22/19 Q1014=
201108170245 METAR LIRA 170245Z 05003KT CAVOK 22/18 Q1014=
201108170215 METAR LIRA 170215Z 05003KT CAVOK 22/18 Q1014=
201108170145 METAR LIRA 170145Z 08002KT CAVOK 22/17 Q1014=
201108170115 METAR LIRA 170115Z 08001KT CAVOK 22/19 Q1014=
201108170045 METAR LIRA 170045Z 16001KT CAVOK 22/19 Q1014=
201108170015 METAR LIRA 170015Z 15002KT CAVOK 22/19 Q1014=
201108162350 METAR LIRA 170045Z 16001KT CAVOK 22/19 Q1014=
201108162345 METAR LIRA 162345Z 18002KT CAVOK 23/21 Q1015=
201108162315 METAR LIRA 162315Z 17002KT CAVOK 23/21 Q1015=
201108162245 METAR LIRA 162245Z 18002KT CAVOK 24/21 Q1015=
201108162215 METAR LIRA 162215Z 18003KT CAVOK 24/22 Q1015=
201108162145 METAR LIRA 162145Z 20002KT CAVOK 24/22 Q1015=
201108162115 METAR LIRA 162115Z 21004KT CAVOK 25/21 Q1015=
201108162045 METAR LIRA 162045Z 19005KT CAVOK 25/20 Q1015=
201108162015 METAR LIRA 162015Z 20003KT CAVOK 25/21 Q1015=
201108161945 METAR LIRA 161945Z 20005KT CAVOK 26/20 Q1014=
201108161915 METAR LIRA 161915Z 21004KT CAVOK 26/20 Q1014=
201108161845 METAR LIRA 161845Z 20004KT CAVOK 27/19 Q1014=
201108161815 METAR LIRA 161815Z 22004KT CAVOK 27/18 Q1014=
201108161745 METAR LIRA 161745Z 23005KT 200V260 9999 FEW018 28/18 Q1013=
201108161715 METAR LIRA 161715Z 23006KT 9999 FEW018 29/18 Q1013=
201108161645 METAR LIRA 161645Z 24006KT 210V280 9999 FEW018 30/18 Q1013=
201108161615 METAR LIRA 161615Z 26007KT 220V290 9999 FEW018 30/17 Q1013=
201108161545 METAR LIRA 161545Z 26008KT 220V300 9999 FEW018 31/17 Q1014=
201108161515 METAR LIRA 161515Z 25009KT 220V290 9999 FEW018 32/18 Q1014=
201108161445 METAR LIRA 161445Z 25008KT 220V280 9999 FEW018 32/19 Q1014=
201108161415 METAR LIRA 161415Z 23010KT 190V250 9999 FEW018 32/19 Q1014=
201108161345 METAR LIRA 161345Z 21009KT 9999 FEW018 32/20 Q1014=
201108161315 METAR LIRA 161315Z 21010KT 160V240 9999 FEW018 32/20 Q1014=
201108161245 METAR LIRA 161245Z 19012KT 9999 FEW018 32/20 Q1014=
201108161215 METAR LIRA 161215Z 23006KT 150V330 9999 FEW018 33/16 Q1014=
201108161145 METAR LIRA 161145Z 29005KT 230V330 9999 FEW018 33/12 Q1014=
201108161115 METAR LIRA 161115Z 09003KT 9999 FEW018 33/13 Q1014=
201108161045 METAR LIRA 161045Z 33004KT 270V050 9999 FEW018 33/14 Q1014=
201108161015 METAR LIRA 161015Z 32004KT 9999 FEW018 31/15 Q1014=
201108160945 METAR LIRA 160945Z 33005KT 9999 FEW018 31/16 Q1014=
201108160915 METAR LIRA 160915Z 36003KT CAVOK 30/17 Q1014=
201108160845 METAR LIRA 160845Z 02004KT CAVOK 28/17 Q1014=
201108160815 METAR LIRA 160815Z 36005KT CAVOK 27/17 Q1014=
201108160745 METAR LIRA 160745Z 03005KT 350V060 CAVOK 26/17 Q1014=
201108160715 METAR LIRA 160715Z 02005KT CAVOK 25/17 Q1014=
201108160645 METAR LIRA 160645Z 03004KT CAVOK 24/17 Q1014=
201108160615 METAR LIRA 160615Z 02003KT CAVOK 22/17 Q1014=
201108160545 METAR LIRA 160545Z 04003KT 9999 FEW009 21/18 Q1014=
201108160515 METAR LIRA 160515Z 02003KT CAVOK 20/18 Q1014=
201108160445 METAR LIRA 160445Z 33004KT 9999 FEW009 20/19 Q1014=
201108160415 METAR LIRA 160415Z 12002KT 9999 FEW012 20/19 Q1014=
201108160345 METAR LIRA 160345Z 10002KT 9999 FEW012 20/19 Q1014=
201108160315 METAR LIRA 160315Z 10002KT 9999 FEW012 20/19 Q1014=
201108160245 METAR LIRA 160245Z 13002KT 9999 FEW012 21/20 Q1014=
201108160215 METAR LIRA 160215Z 00000KT 9999 FEW012 SCT030 22/21 Q1014=
201108160145 METAR LIRA 160145Z 00000KT 9999 FEW012 SCT030 22/21 Q1014=
201108160115 METAR LIRA 160115Z 00000KT 9999 SCT012 22/21 Q1014=
201108160045 METAR LIRA 160045Z 25001KT 9000 SCT012 22/21 Q1014=
201108160015 METAR LIRA 160015Z 29004KT 7000 SCT008 SCT015 22/21 Q1014=
201108152350 METAR LIRA 160045Z 25001KT 9000 SCT012 22/21 Q1014=
201108152345 METAR LIRA 152345Z 27002KT 7000 SCT008 SCT015 22/20 Q1014=
201108152315 METAR LIRA 152315Z 00000KT CAVOK 22/20 Q1014=
201108152245 METAR LIRA 152245Z 22001KT CAVOK 22/21 Q1014=
201108152215 METAR LIRA 152215Z 22001KT CAVOK 23/21 Q1014=
201108152145 METAR LIRA 152145Z 19001KT 9999 FEW070 23/19 Q1014=
201108152115 METAR LIRA 152115Z 19001KT 9999 FEW070 23/20 Q1014=
201108152045 METAR LIRA 152045Z 19002KT 9999 FEW070 24/20 Q1014=
201108152015 METAR LIRA 152015Z 22002KT 9999 FEW070 24/20 Q1014=
201108151945 METAR LIRA 151945Z 00000KT 9999 FEW040 25/19 Q1014=
201108151915 METAR LIRA 151915Z 26002KT 9999 FEW040 25/19 Q1013=
201108151845 METAR LIRA 151845Z 25003KT 9999 FEW040 26/19 Q1013=
201108151815 METAR LIRA 151815Z 23003KT 9999 FEW030 SCT080 26/18 Q1013=
201108151745 METAR LIRA 151745Z 24003KT 9999 FEW030 SCT080 27/17 Q1013=
201108151715 METAR LIRA 151715Z 29008KT 9999 FEW020 SCT080 27/17 Q1012=
201108151645 METAR LIRA 151645Z 28007KT 250V310 9999 FEW020 BKN080 29/13
                        Q1013=
201108151615 METAR LIRA 151615Z 28006KT 240V310 9999 FEW020 30/13 Q1013=
201108151545 METAR LIRA 151545Z 26006KT 210V310 9999 FEW020 31/13 Q1013=
201108151515 METAR LIRA 151515Z 27007KT 230V300 9999 FEW020 31/13 Q1013=
201108151445 METAR LIRA 151445Z 27007KT 210V310 9999 FEW080 31/14 Q1013=
201108151415 METAR LIRA 151415Z 28007KT 220V320 9999 FEW020 29/13 Q1013=
201108151345 METAR LIRA 151345Z 26007KT 220V290 9999 FEW020 31/15 Q1013=
201108151315 METAR LIRA 151315Z 25004KT 9999 FEW023 30/15 Q1013=
201108151245 METAR LIRA 151245Z 26007KT 210V300 9999 FEW080 29/16 Q1013=
201108151215 METAR LIRA 151215Z 28008KT 230V300 9999 FEW080 30/18 Q1013=
201108151145 METAR LIRA 151145Z 25008KT 210V300 9999 FEW080 30/16 Q1013=
201108151115 METAR LIRA 151115Z 26006KT 180V290 9999 FEW080 31/15 Q1013=
201108151045 METAR LIRA 151045Z 27006KT 230V330 9999 FEW080 31/14 Q1013=
201108151015 METAR LIRA 151015Z 29005KT 240V340 9999 FEW080 30/14 Q1013=
201108150945 METAR LIRA 150945Z 25004KT 9999 FEW080 30/14 Q1012=
201108150915 METAR LIRA 150915Z 22003KT 9999 FEW080 29/16 Q1012=
201108150845 METAR LIRA 150845Z 25004KT 9999 FEW080 28/18 Q1012=
201108150815 METAR LIRA 150815Z 22003KT 9999 FEW080 27/19 Q1012=
201108150745 METAR LIRA 150745Z 29002KT 9999 FEW080 26/19 Q1012=
201108150715 METAR LIRA 150715Z 15001KT 9999 FEW080 24/20 Q1012=
201108150645 METAR LIRA 150645Z 01001KT 9999 FEW080 22/19 Q1012=
201108150615 METAR LIRA 150615Z 00000KT 9999 FEW080 20/18 Q1012=
201108150545 METAR LIRA 150545Z 12001KT 9999 FEW080 19/17 Q1012=
201108150515 METAR LIRA 150515Z 22003KT 9999 FEW080 19/17 Q1012=
201108150445 METAR LIRA 150445Z 24002KT 9999 FEW080 19/17 Q1012=
201108150415 METAR LIRA 150415Z 06001KT CAVOK 19/17 Q1011=
201108150345 METAR LIRA 150345Z 09002KT CAVOK 19/17 Q1011=
201108150315 METAR LIRA 150315Z 00000KT CAVOK 19/17 Q1011=
201108150245 METAR LIRA 150245Z 00000KT CAVOK 19/17 Q1011=
201108150215 METAR LIRA 150215Z 00000KT CAVOK 20/18 Q1012=
201108150145 METAR LIRA 150145Z 03002KT CAVOK 19/17 Q1012=
201108150115 METAR LIRA 150115Z 10002KT CAVOK 19/16 Q1012=
201108150045 METAR LIRA 150045Z 09002KT CAVOK 19/17 Q1012=
201108150015 METAR LIRA 150015Z 00000KT CAVOK 20/19 Q1012=
201108142350 METAR LIRA 150045Z 09002KT CAVOK 19/17 Q1012=
201108142345 METAR LIRA 142345Z 00000KT CAVOK 20/19 Q1012=
201108142315 METAR LIRA 142315Z 09001KT CAVOK 21/19 Q1012=
201108142245 METAR LIRA 142245Z 09001KT CAVOK 21/19 Q1012=
201108142215 METAR LIRA 142215Z 07001KT CAVOK 21/19 Q1012=
201108142145 METAR LIRA 142145Z 00000KT CAVOK 21/20 Q1012=
201108142115 METAR LIRA 142115Z 07002KT CAVOK 21/20 Q1012=
201108142045 METAR LIRA 142045Z 00000KT CAVOK 22/20 Q1012=
201108142015 METAR LIRA 142015Z 00000KT CAVOK 23/21 Q1012=
201108141945 METAR LIRA 141945Z 21003KT CAVOK 23/21 Q1011=
201108141915 METAR LIRA 141915Z 22003KT CAVOK 24/21 Q1011=
201108141845 METAR LIRA 141845Z 21003KT CAVOK 24/21 Q1011=
201108141815 METAR LIRA 141815Z 22006KT CAVOK 25/20 Q1011=
201108141745 METAR LIRA 141745Z 21005KT CAVOK 25/20 Q1011=
201108141715 METAR LIRA 141715Z 23006KT 180V260 CAVOK 27/18 Q1011=
201108141645 METAR LIRA 141645Z 23006KT CAVOK 28/18 Q1011=
201108141615 METAR LIRA 141615Z 21007KT 170V240 CAVOK 29/15 Q1011=
201108141545 METAR LIRA 141545Z 23007KT 200V260 9999 FEW020 29/16 Q1011=
201108141515 METAR LIRA 141515Z 22006KT 190V290 9999 FEW020 30/16 Q1011=
201108141445 METAR LIRA 141445Z 23006KT 160V280 9999 FEW020 30/15 Q1011=
201108141415 METAR LIRA 141415Z 21006KT 170V260 9999 FEW020 30/15 Q1011=
201108141345 METAR LIRA 141345Z 25006KT 210V280 9999 FEW020 30/17 Q1011=
201108141315 METAR LIRA 141315Z 22008KT 180V260 9999 FEW020 30/18 Q1011=
201108141245 METAR LIRA 141245Z 24007KT 190V310 9999 FEW020 31/18 Q1011=
201108141215 METAR LIRA 141215Z 26005KT 9999 FEW020 30/19 Q1011=
201108141145 METAR LIRA 141145Z 19005KT 130V260 9999 FEW020 30/20 Q1011=
201108141115 METAR LIRA 141115Z 32005KT 210V270 9999 FEW020 30/16 Q1011=
201108141045 METAR LIRA 141045Z 27003KT 9999 FEW020 30/15 Q1012=
201108141015 METAR LIRA 141015Z 19005KT 9999 FEW020 30/17 Q1012=
201108140945 METAR LIRA 140945Z 10004KT 9999 FEW025 29/18 Q1011=
201108140915 METAR LIRA 140915Z 18004KT 9999 FEW020 28/18 Q1011=
201108140845 METAR LIRA 140845Z 29003KT CAVOK 27/19 Q1011=
201108140815 METAR LIRA 140815Z 26003KT CAVOK 26/19 Q1011=
201108140745 METAR LIRA 140745Z 25002KT CAVOK 25/20 Q1011=
201108140715 METAR LIRA 140715Z 25001KT CAVOK 24/19 Q1011=
201108140645 METAR LIRA 140645Z 00000KT CAVOK 23/18 Q1011=
201108140615 METAR LIRA 140615Z 04001KT CAVOK 21/15 Q1011=
201108140545 METAR LIRA 140545Z 04001KT CAVOK 19/16 Q1011=
201108140515 METAR LIRA 140515Z 34001KT CAVOK 18/15 Q1011=
201108140445 METAR LIRA 140445Z 12001KT CAVOK 18/15 Q1011=
201108140415 METAR LIRA 140415Z 00000KT CAVOK 18/14 Q1011=
201108140345 METAR LIRA 140345Z 09001KT CAVOK 18/14 Q1011=
201108140315 METAR LIRA 140315Z 11002KT CAVOK 19/14 Q1011=
201108140245 METAR LIRA 140245Z 12002KT CAVOK 18/15 Q1011=
201108140215 METAR LIRA 140215Z 14002KT CAVOK 18/14 Q1011=
201108140145 METAR LIRA 140145Z 12002KT CAVOK 19/14 Q1011=
201108140115 METAR LIRA 140115Z 11002KT CAVOK 19/14 Q1011=
201108140045 METAR LIRA 140045Z 11004KT CAVOK 19/14 Q1011=
201108140015 METAR LIRA 140015Z 11003KT CAVOK 19/16 Q1011=
201108132350 METAR LIRA 140045Z 11004KT CAVOK 19/14 Q1011=
201108132345 METAR LIRA 132345Z 11003KT CAVOK 19/16 Q1011=
201108132315 METAR LIRA 132315Z 11002KT CAVOK 20/16 Q1011=
201108132245 METAR LIRA 132245Z 16002KT CAVOK 21/17 Q1011=
201108132215 METAR LIRA 132215Z 19002KT CAVOK 21/20 Q1011=
201108132145 METAR LIRA 132145Z 16002KT CAVOK 22/21 Q1011=
201108132115 METAR LIRA 132115Z 17003KT CAVOK 22/21 Q1011=
201108132045 METAR LIRA 132045Z 18003KT CAVOK 22/21 Q1011=
201108132015 METAR LIRA 132015Z 20003KT CAVOK 22/21 Q1011=
201108131945 METAR LIRA 131945Z 19003KT CAVOK 22/21 Q1011=
201108131915 METAR LIRA 131915Z 20003KT CAVOK 23/21 Q1011=
201108131845 METAR LIRA 131845Z 22005KT CAVOK 24/21 Q1011=
201108131815 METAR LIRA 131815Z 22006KT CAVOK 24/21 Q1011=
201108131745 METAR LIRA 131745Z 22006KT 180V260 CAVOK 25/20 Q1010=
201108131715 METAR LIRA 131715Z 21007KT 180V250 CAVOK 26/20 Q1010=
201108131645 METAR LIRA 131645Z 20008KT 170V240 CAVOK 27/20 Q1010=
201108131615 METAR LIRA 131615Z 20008KT 170V240 9999 FEW022 27/18 Q1010=
201108131545 METAR LIRA 131545Z 21008KT 180V260 9999 FEW023 27/17 Q1010=
201108131515 METAR LIRA 131515Z 21009KT 170V250 9999 FEW023 28/17 Q1010=
201108131445 METAR LIRA 131445Z 20008KT 160V240 9999 FEW023 29/17 Q1010=
201108131415 METAR LIRA 131415Z 23008KT 190V270 9999 FEW023 29/17 Q1010=
201108131345 METAR LIRA 131345Z 20010KT 180V250 9999 FEW023 29/18 Q1011=
201108131315 METAR LIRA 131315Z 22007KT 170V270 9999 FEW023 30/19 Q1011=
201108131245 METAR LIRA 131245Z 22006KT 170V270 9999 FEW023 30/19 Q1011=
201108131215 METAR LIRA 131215Z 17006KT 130V230 9999 FEW023 30/19 Q1011=
201108131145 METAR LIRA 131145Z 23005KT 160V270 9999 FEW023 30/19 Q1011=
201108131115 METAR LIRA 131115Z 18006KT 140V230 9999 FEW023 29/18 Q1011=
201108131045 METAR LIRA 131045Z 22007KT 180V260 9999 FEW023 30/17 Q1011=
201108131015 METAR LIRA 131015Z 21005KT 150V250 9999 FEW023 29/14 Q1011=
201108130945 METAR LIRA 130945Z 19004KT 140V220 CAVOK 29/15 Q1011=
201108130915 METAR LIRA 130915Z 21003KT CAVOK 28/15 Q1011=
201108130845 METAR LIRA 130845Z 21005KT 180V270 CAVOK 27/15 Q1011=
201108130815 METAR LIRA 130815Z 21002KT CAVOK 26/16 Q1011=
201108130745 METAR LIRA 130745Z 12001KT CAVOK 25/15 Q1011=
201108130715 METAR LIRA 130715Z 01003KT CAVOK 24/16 Q1011=
201108130645 METAR LIRA 130645Z 35003KT CAVOK 23/16 Q1011=
201108130615 METAR LIRA 130615Z 03002KT CAVOK 21/16 Q1011=
201108130600 METAR LIRA INTER/CB NW/SE=
201108130545 METAR LIRA 130545Z 06002KT CAVOK 19/15 Q1011=
201108130515 METAR LIRA 130515Z 04002KT CAVOK 18/15 Q1011=
201108130445 METAR LIRA 130445Z 05003KT CAVOK 17/13 Q1011=
201108130415 METAR LIRA 130415Z 00000KT CAVOK 17/13 Q1011=
201108130345 METAR LIRA 130345Z 00000KT CAVOK 17/13 Q1011=
201108130315 METAR LIRA 130315Z 00000KT CAVOK 17/13 Q1011=
201108130245 METAR LIRA 130245Z 00000KT CAVOK 18/12 Q1012=
201108130215 METAR LIRA 130215Z 12002KT CAVOK 18/13 Q1012=
201108130145 METAR LIRA 130145Z 14002KT CAVOK 18/13 Q1012=
201108130115 METAR LIRA 130115Z 00000KT CAVOK 19/16 Q1013=
201108130045 METAR LIRA 130045Z 16002KT CAVOK 20/17 Q1013=
201108130015 METAR LIRA 130015Z 16002KT CAVOK 20/17 Q1013=
201108122350 METAR LIRA 130045Z 16002KT CAVOK 20/17 Q1013=
201108122345 METAR LIRA 122345Z 18003KT CAVOK 21/19 Q1013=
201108122315 METAR LIRA 122315Z 18003KT CAVOK 21/19 Q1012=
201108122245 METAR LIRA 122245Z 18004KT CAVOK 21/19 Q1012=
201108122215 METAR LIRA 122215Z 17003KT CAVOK 22/20 Q1012=
201108122145 METAR LIRA 122145Z 17005KT CAVOK 22/20 Q1012=
201108122115 METAR LIRA 122115Z 18004KT CAVOK 22/19 Q1012=
201108122045 METAR LIRA 122045Z 18004KT CAVOK 22/19 Q1012=
201108122015 METAR LIRA 122015Z 19004KT CAVOK 23/19 Q1012=
201108121945 METAR LIRA 121945Z 19004KT CAVOK 23/18 Q1012=
201108121915 METAR LIRA 121915Z 21003KT CAVOK 24/18 Q1012=
201108121845 METAR LIRA 121845Z 20003KT CAVOK 24/15 Q1012=
201108121815 METAR LIRA 121815Z 23004KT CAVOK 25/13 Q1012=
201108121745 METAR LIRA 121745Z 26005KT 220V310 CAVOK 27/12 Q1012=
201108121715 METAR LIRA 121715Z 25007KT 200V280 CAVOK 27/11 Q1012=
201108121645 METAR LIRA 121645Z 26007KT 220V320 CAVOK 28/11 Q1012=
201108121615 METAR LIRA 121615Z 27009KT 230V310 CAVOK 29/11 Q1012=
201108121545 METAR LIRA 121545Z 25008KT 220V300 CAVOK 29/11 Q1012=
201108121515 METAR LIRA 121515Z 26008KT 220V310 CAVOK 29/11 Q1012=
201108121445 METAR LIRA 121445Z 26006KT 220V320 CAVOK 29/10 Q1012=
201108121415 METAR LIRA 121415Z 26008KT 220V300 CAVOK 30/12 Q1013=
201108121345 METAR LIRA 121345Z 27007KT 210V310 CAVOK 30/13 Q1013=
201108121315 METAR LIRA 121315Z 27007KT 220V310 CAVOK 30/13 Q1013=
201108121245 METAR LIRA 121245Z 28009KT 240V310 CAVOK 30/13 Q1013=
201108121215 METAR LIRA 121215Z 27009KT 240V300 CAVOK 30/13 Q1013=
201108121145 METAR LIRA 121145Z 07003KT 9999 FEW020 30/11 Q1013=
201108121115 METAR LIRA 121115Z 33004KT 290V360 9999 FEW020 29/11 Q1014=
201108121045 METAR LIRA 121045Z 09002KT 9999 FEW020 29/11 Q1014=
201108121015 METAR LIRA 121015Z 01003KT 9999 FEW020 29/12 Q1014=
201108121000 METAR LIRA CONTUS CB SW-NE=
201108120945 METAR LIRA 120945Z 33004KT 9999 FEW020 28/13 Q1014=
201108120915 METAR LIRA 120915Z 02002KT 9999 FEW020 27/14 Q1014=
201108120845 METAR LIRA 120845Z 32003KT CAVOK 26/15 Q1014=
201108120815 METAR LIRA 120815Z 02002KT CAVOK 26/15 Q1014=
201108120745 METAR LIRA 120745Z 35002KT CAVOK 24/16 Q1014=
201108120715 METAR LIRA 120715Z 01002KT CAVOK 23/19 Q1014=
201108120645 METAR LIRA 120645Z 01002KT CAVOK 22/18 Q1014=
201108120615 METAR LIRA 120615Z 05002KT CAVOK 20/18 Q1014=
201108120545 METAR LIRA 120545Z 06003KT CAVOK 19/16 Q1014=
201108120515 METAR LIRA 120515Z 02003KT CAVOK 18/16 Q1014=
201108120445 METAR LIRA 120445Z 01003KT CAVOK 17/15 Q1014=
201108120415 METAR LIRA 120415Z 02003KT CAVOK 17/15 Q1014=
201108120345 METAR LIRA 120345Z 02003KT CAVOK 17/15 Q1014=
201108120315 METAR LIRA 120315Z 02002KT CAVOK 17/15 Q1015=
201108120245 METAR LIRA 120245Z 10002KT 9999 FEW005 18/15 Q1015=
201108120215 METAR LIRA 120215Z 31002KT 9999 FEW005 18/15 Q1015=
201108120145 METAR LIRA 120145Z 10002KT CAVOK 19/15 Q1015=
201108120115 METAR LIRA 120115Z 10002KT CAVOK 19/15 Q1015=
201108120045 METAR LIRA 120045Z 13002KT CAVOK 19/14 Q1016=
201108120015 METAR LIRA 120015Z 12001KT CAVOK 19/14 Q1016=
201108112350 METAR LIRA 120045Z 13002KT CAVOK 19/14 Q1016=
201108112345 METAR LIRA 112345Z 15002KT CAVOK 19/14 Q1016=
201108112315 METAR LIRA 112315Z 15003KT CAVOK 20/15 Q1016=
201108112245 METAR LIRA 112245Z 15002KT CAVOK 20/17 Q1016=
201108112215 METAR LIRA 112215Z 17002KT CAVOK 21/18 Q1016=
201108112145 METAR LIRA 112145Z 16002KT CAVOK 21/18 Q1016=
201108112115 METAR LIRA 112115Z 15004KT CAVOK 21/19 Q1016=
201108112045 METAR LIRA 112045Z 17004KT CAVOK 21/19 Q1016=
201108112015 METAR LIRA 112015Z 17003KT CAVOK 22/19 Q1016=
201108111945 METAR LIRA 111945Z 23002KT CAVOK 22/19 Q1016=
201108111915 METAR LIRA 111915Z 23002KT CAVOK 23/19 Q1016=
201108111845 METAR LIRA 111845Z 25003KT CAVOK 23/19 Q1016=
201108111815 METAR LIRA 111815Z 26004KT CAVOK 24/18 Q1016=
201108111745 METAR LIRA 111745Z 27006KT 220V310 CAVOK 25/18 Q1016=
201108111715 METAR LIRA 111715Z 27005KT 220V310 CAVOK 26/17 Q1016=
201108111645 METAR LIRA 111645Z 27008KT 230V330 CAVOK 26/16 Q1016=
201108111615 METAR LIRA 111615Z 28008KT 240V320 CAVOK 27/16 Q1016=
201108111545 METAR LIRA 111545Z 25007KT 220V320 CAVOK 28/16 Q1016=
201108111515 METAR LIRA 111515Z 26007KT 220V330 CAVOK 28/16 Q1017=
201108111445 METAR LIRA 111445Z 25007KT 220V300 CAVOK 28/16 Q1017=
201108111415 METAR LIRA 111415Z 27007KT 220V360 CAVOK 28/15 Q1017=
201108111345 METAR LIRA 111345Z 26008KT 220V290 CAVOK 28/16 Q1017=
201108111315 METAR LIRA 111315Z 27007KT 180V330 CAVOK 28/15 Q1017=
201108111245 METAR LIRA 111245Z 25009KT 210V300 CAVOK 28/16 Q1018=
201108111215 METAR LIRA 111215Z 27006KT 190V330 CAVOK 29/14 Q1018=
201108111145 METAR LIRA 111145Z 34004KT 320V040 CAVOK 29/12 Q1018=
201108111115 METAR LIRA 111115Z 34006KT 310V030 9999 FEW018 28/12 Q1018=
201108111045 METAR LIRA 111045Z 25002KT 9999 FEW018 27/12 Q1019=
201108111015 METAR LIRA 111015Z 32006KT 300V020 9999 FEW018 27/13 Q1019=
201108110945 METAR LIRA 110945Z 26002KT 9999 FEW018 26/13 Q1019=
201108110915 METAR LIRA 110915Z 34003KT 9999 FEW018 26/13 Q1018=
201108110845 METAR LIRA 110845Z 33003KT 9999 FEW020 26/13 Q1018=
201108110815 METAR LIRA 110815Z 36004KT 310V050 9999 FEW020 25/12 Q1018=
201108110745 METAR LIRA 110745Z 03005KT 350V060 CAVOK 24/11 Q1018=
201108110715 METAR LIRA 110715Z 02005KT 340V060 CAVOK 23/11 Q1018=
201108110645 METAR LIRA 110645Z 01005KT 350V050 CAVOK 21/11 Q1018=
201108110615 METAR LIRA 110615Z 02004KT CAVOK 20/13 Q1018=
201108110545 METAR LIRA 110545Z 04004KT CAVOK 18/11 Q1018=
201108110515 METAR LIRA 110515Z 04004KT CAVOK 17/11 Q1018=
201108110445 METAR LIRA 110445Z 03003KT CAVOK 17/11 Q1017=
201108110415 METAR LIRA 110415Z 04005KT CAVOK 17/11 Q1017=
201108110345 METAR LIRA 110345Z 05006KT CAVOK 17/11 Q1018=
201108110315 METAR LIRA 110315Z 03003KT CAVOK 17/11 Q1018=
201108110245 METAR LIRA 110245Z 01003KT CAVOK 18/11 Q1017=
201108110215 METAR LIRA 110215Z 02003KT CAVOK 18/11 Q1017=
201108110145 METAR LIRA 110145Z 04001KT CAVOK 18/12 Q1017=
201108110115 METAR LIRA 110115Z 08002KT CAVOK 18/12 Q1018=
201108110045 METAR LIRA 110045Z 03001KT CAVOK 19/11 Q1018=
201108110015 METAR LIRA 110015Z 02003KT CAVOK 20/10 Q1018=
201108102350 METAR LIRA 110045Z 03001KT CAVOK 19/11 Q1018=
201108102345 METAR LIRA 102345Z 01004KT CAVOK 20/08 Q1017=
201108102315 METAR LIRA 102315Z 02004KT CAVOK 20/07 Q1017=
201108102245 METAR LIRA 102245Z 02004KT CAVOK 21/06 Q1017=
201108102215 METAR LIRA 102215Z 01004KT CAVOK 21/05 Q1017=
201108102145 METAR LIRA 102145Z 02004KT CAVOK 22/05 Q1017=
201108102115 METAR LIRA 102115Z 01005KT 340V060 CAVOK 22/03 Q1017=
201108102045 METAR LIRA 102045Z 04005KT 360V060 CAVOK 23/03 Q1017=
201108102015 METAR LIRA 102015Z 03004KT CAVOK 23/03 Q1017=
201108101945 METAR LIRA 101945Z 36008KT 320V030 CAVOK 25/02 Q1017=
201108101915 METAR LIRA 101915Z 35009KT 320V030 CAVOK 25/02 Q1016=
201108101845 METAR LIRA 101845Z 35010KT 300V030 CAVOK 26/03 Q1016=
201108101815 METAR LIRA 101815Z 34014KT CAVOK 28/04 Q1016=
201108101745 METAR LIRA 101745Z 34014KT CAVOK 28/03 Q1015=
201108101715 METAR LIRA 101715Z 34012KT 300V360 9999 FEW020 28/02 Q1015=
201108101645 METAR LIRA 101645Z 34015G27KT 9999 FEW020 29/04 Q1015=
201108101615 METAR LIRA 101615Z 34016KT 310V010 9999 FEW020 30/03 Q1015=
201108101545 METAR LIRA 101545Z 34014KT 300V030 9999 FEW020 30/03 Q1014=
201108101515 METAR LIRA 101515Z 31013G25KT 290V020 9999 FEW020 30/03 Q1014=
201108101445 METAR LIRA 101445Z 32009KT 280V020 9999 FEW020 30/04 Q1015=
201108101415 METAR LIRA 101415Z 33011KT 290V010 9999 FEW020 30/03 Q1015=
201108101345 METAR LIRA 101345Z 32010G20KT 280V010 9999 FEW020 30/03 Q1015=
201108101315 METAR LIRA 101315Z 36010KT 310V040 9999 FEW020 30/04 Q1015=
201108101245 METAR LIRA 101245Z 34009G20KT 290V020 9999 SCT020 31/07 Q1015=
201108101215 METAR LIRA 101215Z 34010G26KT 290V030 9999 SCT020 30/07 Q1015=
201108101145 METAR LIRA 101145Z 35009KT 290V040 9999 SCT020 30/10 Q1015=
201108101115 METAR LIRA 101115Z 35009KT 300V040 9999 SCT020 30/10 Q1015=
201108101045 METAR LIRA 101045Z 26006G17KT 020V220 9999 SCT020 30/12 Q1015=
201108101015 METAR LIRA 101015Z 36007KT 280V060 9999 FEW020 28/12 Q1015=
201108100945 METAR LIRA 100945Z 01007KT 340V060 9999 FEW020 28/13 Q1015=
201108100915 METAR LIRA 100915Z 04007KT 360V080 9999 FEW020 27/14 Q1015=
201108100845 METAR LIRA 100845Z 02007KT 350V070 9999 FEW020 26/15 Q1015=
201108100815 METAR LIRA 100815Z 02006KT 340V070 9999 FEW022 25/15 Q1015=
201108100745 METAR LIRA 100745Z 01008KT 310V060 9999 FEW022 25/15 Q1015=
201108100715 METAR LIRA 100715Z 03008KT 340V060 9999 FEW070 24/15 Q1014=
201108100645 METAR LIRA 100645Z 02006KT 340V070 9999 FEW070 23/16 Q1014=
201108100615 METAR LIRA 100615Z 36006KT 320V040 9999 FEW022 22/16 Q1014=
201108100545 METAR LIRA 100545Z 03005KT 9999 FEW022 21/17 Q1014=
201108100515 METAR LIRA 100515Z 04004KT 9999 FEW022 19/16 Q1014=
201108100500 METAR LIRA INTER CB S=
201108100445 METAR LIRA 100445Z 05005KT 9999 FEW022 19/16 Q1013=
201108100415 METAR LIRA 100415Z 04005KT 9999 FEW022 19/16 Q1013=
201108100345 METAR LIRA 100345Z 03003KT 9999 FEW025 20/18 Q1013=
201108100315 METAR LIRA 100315Z 04003KT 9999 FEW030 20/18 Q1013=
201108100245 METAR LIRA 100245Z 05004KT 9999 FEW030 20/18 Q1013=
201108100215 METAR LIRA 100215Z 02004KT CAVOK 21/19 Q1013=
201108100200 METAR LIRA INTER=
201108100145 METAR LIRA 100145Z 02004KT CAVOK 21/19 Q1013=
201108100115 METAR LIRA 100115Z 04003KT CAVOK 21/19 Q1013=
201108100045 METAR LIRA 100045Z 35002KT CAVOK 21/20 Q1013=
201108100015 METAR LIRA 100015Z 01001KT 9999 FEW030 22/20 Q1013=
201108092350 METAR LIRA 100045Z 35002KT CAVOK 21/20 Q1013=
201108092345 METAR LIRA 092345Z 02001KT 9999 FEW030 22/20 Q1013=
201108092315 METAR LIRA 092315Z 04002KT 9999 FEW030 22/20 Q1013=
201108092245 METAR LIRA 092245Z 00000KT 9999 FEW030 22/20 Q1013=
201108092215 METAR LIRA 092215Z 13002KT 9999 FEW030 22/20 Q1013=
201108092145 METAR LIRA 092145Z 00000KT CAVOK 23/20 Q1013=
201108092115 METAR LIRA 092115Z 16002KT CAVOK 23/21 Q1013=
201108092045 METAR LIRA 092045Z 25003KT 9999 FEW025 23/21 Q1013=
201108092015 METAR LIRA 092015Z 24003KT 9999 FEW013 23/22 Q1013=
201108091945 METAR LIRA 091945Z 25003KT CAVOK 24/21 Q1013=
201108091915 METAR LIRA 091915Z 27003KT 9999 FEW080 24/20 Q1013=
201108091845 METAR LIRA 091845Z 26006KT 230V300 9999 FEW060 25/19 Q1012=
201108091815 METAR LIRA 091815Z 26005KT 220V330 9999 FEW020 25/16 Q1012=
201108091745 METAR LIRA 091745Z 28010G22KT 240V330 9999 FEW020 27/13 Q1012=
201108091715 METAR LIRA 091715Z 28013G24KT 250V330 9999 FEW025 27/14 Q1011=
201108091645 METAR LIRA 091645Z 27012G23KT 230V310 9999 FEW020 28/16 Q1011=
201108091615 METAR LIRA 091615Z 28013KT 240V350 9999 FEW020 28/16 Q1011=
201108091545 METAR LIRA 091545Z 29011KT 230V300 9999 FEW020 29/16 Q1011=
201108091515 METAR LIRA 091515Z 28010KT 240V310 9999 FEW020 30/16 Q1011=
201108091445 METAR LIRA 091445Z 29010KT 230V320 9999 FEW020 31/16 Q1011=
201108091415 METAR LIRA 091415Z 25005KT 250V320 9999 FEW020 31/15 Q1012=
201108091345 METAR LIRA 091345Z 28004KT 9999 FEW020 30/11 Q1012=
201108091315 METAR LIRA 091315Z 31003KT 9999 FEW020 30/12 Q1012=
201108091245 METAR LIRA 091245Z 24006KT 200V300 9999 FEW020 30/12 Q1012=
201108091215 METAR LIRA 091215Z 20007KT 160V240 9999 FEW020 30/14 Q1012=
201108091145 METAR LIRA 091145Z 16008KT 120V220 CAVOK 28/15 Q1012=
201108091115 METAR LIRA 091115Z 18007KT 130V220 9999 FEW020 28/18 Q1012=
201108091100 METAR LIRA CB SE/SW=
201108091045 METAR LIRA 091045Z 16008KT 130V200 9999 FEW023 27/18 Q1012=
201108091015 METAR LIRA 091015Z 16009KT 130V210 9999 FEW023 28/18 Q1012=
201108090945 METAR LIRA 090945Z 17008KT 120V240 9999 FEW023 28/18 Q1012=
201108090915 METAR LIRA 090915Z 16011KT 9999 FEW023 27/17 Q1012=
201108090845 METAR LIRA 090845Z 18011KT 150V230 9999 FEW023 26/16 Q1012=
201108090815 METAR LIRA 090815Z 16011KT CAVOK 26/17 Q1012=
201108090745 METAR LIRA 090745Z 16016KT CAVOK 25/17 Q1012=
201108090715 METAR LIRA 090715Z 18013KT 150V230 CAVOK 26/18 Q1012=
201108090645 METAR LIRA 090645Z 19011KT CAVOK 24/18 Q1012=
201108090615 METAR LIRA 090615Z 16008KT CAVOK 24/19 Q1012=
201108090545 METAR LIRA 090545Z 16008KT CAVOK 23/19 Q1011=
201108090515 METAR LIRA 090515Z 17006KT CAVOK 22/19 Q1012=
201108090445 METAR LIRA 090445Z 17008KT CAVOK 22/20 Q1011=
201108090415 METAR LIRA 090415Z 17007KT 9999 FEW015 23/20 Q1011=
201108090345 METAR LIRA 090345Z 19009KT 9999 FEW015 23/21 Q1011=
201108090315 METAR LIRA 090315Z 17011KT 9999 FEW015 24/23 Q1011=
201108090245 METAR LIRA 090245Z 17009KT 9999 SCT015 24/23 Q1012=
201108090215 METAR LIRA 090215Z 17008KT 9999 FEW015 24/23 Q1012=
201108090145 METAR LIRA 090145Z 16008KT 9999 FEW015 24/23 Q1012=
201108090115 METAR LIRA 090115Z 16007KT 9999 FEW015 24/23 Q1012=
201108090045 METAR LIRA 090045Z 17005KT 9999 FEW015 24/23 Q1012=
201108090015 METAR LIRA 090015Z 18005KT 9999 FEW015 24/23 Q1012=
201108082350 METAR LIRA 090045Z 17005KT 9999 FEW015 24/23 Q1012=
201108082345 METAR LIRA 082345Z 17006KT 9999 FEW015 24/23 Q1012=
201108082315 METAR LIRA 082315Z 19006KT 160V210 9999 SCT015 24/22 Q1012=
201108082245 METAR LIRA 082245Z 20005KT 9999 FEW015 25/22 Q1012=
201108082215 METAR LIRA 082215Z 19005KT 9999 FEW080 25/22 Q1012=
201108082145 METAR LIRA 082145Z 18006KT 140V230 9999 SCT070 25/23 Q1012=
201108082115 METAR LIRA 082115Z 15010KT 9999 FEW016 SCT070 25/23 Q1012=
201108082045 METAR LIRA 082045Z 15010KT 9999 FEW016 SCT060 25/24 Q1012=
201108082015 METAR LIRA 082015Z 18006KT 150V230 9999 SCT016 25/24 Q1012=
201108081945 METAR LIRA 081945Z 19007KT 160V230 9999 FEW017 25/24 Q1012=
201108081915 METAR LIRA 081915Z 20007KT 180V240 9999 FEW017 25/24 Q1012=
201108081845 METAR LIRA 081845Z 22006KT 9999 FEW017 26/24 Q1012=
201108081815 METAR LIRA 081815Z 20007KT 160V240 9999 FEW017 26/24 Q1012=
201108081745 METAR LIRA 081745Z 21008KT 180V250 CAVOK 27/24 Q1012=
201108081715 METAR LIRA 081715Z 20008KT 160V250 CAVOK 28/23 Q1012=
201108081645 METAR LIRA 081645Z 21009KT 170V250 CAVOK 28/22 Q1012=
201108081615 METAR LIRA 081615Z 20010KT 170V240 CAVOK 29/23 Q1012=
201108081545 METAR LIRA 081545Z 20010KT 160V260 CAVOK 29/23 Q1012=
201108081515 METAR LIRA 081515Z 21010KT CAVOK 29/23 Q1012=
201108081445 METAR LIRA 081445Z 21010KT 160V260 CAVOK 31/21 Q1012=
201108081415 METAR LIRA 081415Z 17014KT 140V220 CAVOK 31/19 Q1012=
201108081345 METAR LIRA 081345Z 18010KT 150V220 9999 FEW023 31/20 Q1012=
201108081315 METAR LIRA 081315Z 18013KT 150V220 9999 FEW023 31/20 Q1012=
201108081245 METAR LIRA 081245Z 19011KT 9999 FEW023 30/20 Q1012=
201108081215 METAR LIRA 081215Z 18013KT 160V220 9999 FEW023 31/21 Q1012=
201108081145 METAR LIRA 081145Z 17010KT 140V230 9999 FEW023 30/21 Q1013=
201108081115 METAR LIRA 081115Z 19011KT 9999 FEW023 31/21 Q1013=
201108081045 METAR LIRA 081045Z 18010KT 150V220 9999 FEW023 30/21 Q1013=
201108081015 METAR LIRA 081015Z 18012KT 150V210 9999 FEW023 30/20 Q1013=
201108080945 METAR LIRA 080945Z 21010KT 150V250 9999 FEW023 29/20 Q1013=
201108080915 METAR LIRA 080915Z 17009KT 9999 FEW023 28/19 Q1013=
201108080845 METAR LIRA 080845Z 16011KT CAVOK 29/21 Q1013=
201108080815 METAR LIRA 080815Z 17012KT 130V220 CAVOK 28/22 Q1013=
201108080745 METAR LIRA 080745Z 17012KT CAVOK 27/22 Q1013=
201108080715 METAR LIRA 080715Z 19010KT 150V240 CAVOK 27/22 Q1013=
201108080645 METAR LIRA 080645Z 32004KT CAVOK 24/22 Q1013=
201108080615 METAR LIRA 080615Z 34001KT CAVOK 23/21 Q1012=
201108080545 METAR LIRA 080545Z 11003KT CAVOK 22/20 Q1012=
201108080515 METAR LIRA 080515Z 11002KT 9999 FEW080 21/20 Q1012=
201108080445 METAR LIRA 080445Z 09002KT 9999 FEW080 20/19 Q1012=
201108080420 LIRA 080450=
201108080415 METAR LIRA 080415Z 09003KT 9999 FEW080 20/19 Q1012=
201108080345 METAR LIRA 080345Z 36001KT 9999 FEW 080 21/20 Q1012=
201108080320 LIRA 080350=
201108080315 METAR LIRA 080315Z 0000KT CAVOK 21/20 Q1012=
201108080250 METAR LIRA 080245 14003KT CAVOK 21/20 Q1012 METAR LIRF 080250Z
                        13007KT 9999 FEW015 22/21 Q1012 NOSIG=
201108080245 METAR LIRA 080245Z 14003KT CAVOK 21/20 Q1012=
201108080220 METAR LIRA 080215 14005KT CAVOK 22/21 Q1012=
201108080215 METAR LIRA 080215Z 14005KT CAVOK 22/21 Q1012=
201108080150 METAR LIRA 080145 15004KT CAVOK 22/21 Q1012 METAR LIRF 080150Z
                        13007KT CAVOK 22/21 Q1012 NOSIG=
201108080145 METAR LIRA 080145Z 15004KT CAVOK 22/21 Q1012=
201108080120 METAR LIRA 080115 15005KT CAVOK 22/21 Q1012=
201108080115 METAR LIRA 080115Z 15005KT CAVOK 22/21 Q1012=
201108080015 METAR LIRA 080015Z 21001KT CAVOK 23/21 Q1012=
201108072345 METAR LIRA 072345Z 23002KT CAVOK 23/21 Q1012=
201108072315 METAR LIRA 072315Z 14002KT CAVOK 23/21 Q1012=
201108072245 METAR LIRA 072245Z 12003KT CAVOK 23/21 Q1012=
201108072215 METAR LIRA 072215Z 11004KT CAVOK 23/21 Q1012=
201108072145 METAR LIRA 072145Z 16004KT CAVOK 23/21 Q1012=
201108072115 METAR LIRA 072115Z 20005KT CAVOK 23/21 Q10120=
201108072045 METAR LIRA 072045Z 20007KT CAVOK 23/21 Q1012=
201108072015 METAR LIRA 072015Z 20007KT CAVOK 23/22 Q1012=
201108071945 METAR LIRA 071945Z 19005KT CAVOK 24/22 Q1012=
201108071915 METAR LIRA 071915Z 21005KT CAVOK 24/22 Q1012=
201108071845 METAR LIRA 071845Z 19006KT CAVOK 25/22 Q1012=
201108071815 METAR LIRA 071815Z 20009KT CAVOK 25/23 Q1012=
201108071745 METAR LIRA 071745Z 21008KT CAVOK 26/22 Q1012=
201108071715 METAR LIRA 071715Z 21007KT 180V240 CAVOK 27/22 Q1012=
201108071645 METAR LIRA 071645Z 20008KT 160V270 CAVOK 27/22 Q1012=
201108071615 METAR LIRA 071615Z 23006KT 180V300 CAVOK 28/22 Q1012=
201108071545 METAR LIRA 071545Z 21009KT 160V250 CAVOK 28/21 Q1012=
201108071515 METAR LIRA 071515Z 21009KT 180V260 CAVOK 29/21 Q1012=
201108071445 METAR LIRA 071445Z 20009KT 140V250 CAVOK 29/21 Q1012=
201108071415 METAR LIRA 071415Z 20008KT 160V250 CAVOK 29/21 Q1012=
201108071345 METAR LIRA 071345Z 19010KT 170V240 CAVOK 29/21 Q1012=
201108071315 METAR LIRA 071315Z 20009KT 170V250 9999 FEW030 29/21 Q1012=
201108071245 METAR LIRA 071245Z 20009KT 150V250 9999 FEW030 29/21 Q1012=
201108071215 METAR LIRA 071215Z 20011KT 170V240 9999 FEW030 29/21 Q1012=
201108071145 METAR LIRA 071145Z 20010KT 170V240 9999 FEW020 29/22 Q1012=
201108071115 METAR LIRA 071115Z 20012KT 170V230 9999 FEW020 29/22 Q1012=
201108071045 METAR LIRA 071045Z 22009KT 180V250 9999 FEW020 30/23 Q1012=
201108071015 METAR LIRA 071015Z 23008KT 140V300 9999 SCT020 29/21 Q1012=
201108070945 METAR LIRA 070945Z 19009KT 140V220 9999 FEW020 28/18 Q1012=
201108070915 METAR LIRA 070915Z 19010KT 9999 FEW020 28/20 Q1012=
201108070845 METAR LIRA 070845Z 20009KT 190V260 CAVOK 27/19 Q1012=
201108070815 METAR LIRA 070815Z 20008KT 160V250 9000 NSC 27/19 Q1012=
201108070745 METAR LIRA 070745Z 20004KT 8000 NSC 26/21 Q1012=
201108070715 METAR LIRA 070715Z 17002KT 6000 FEW008 25/22 Q1012=
201108070645 METAR LIRA 070645Z 13002KT 6000 FEW007 24/21 Q1012=
201108070615 METAR LIRA 070615Z 09001KT 6000 FEW007 24/21 Q1012=
201108070545 METAR LIRA 070545Z 06001KT 6000 FEW007 23/22 Q1012=
201108070515 METAR LIRA 070515Z 00000KT 6000 FEW007 22/21 Q1011=
201108070445 METAR LIRA 070445Z 00000KT 6000 FEW007 21/20 Q1011=
201108070415 METAR LIRA 070415Z 00000KT 7000 FEW007 21/20 Q1011=
201108070345 METAR LIRA 070345Z 11003KT 8000 SCT007 21/20 Q1011=
201108070315 METAR LIRA 070315Z 00000KT 8000 SCT007 22/20 Q1011=
201108070245 METAR LIRA 070245Z 17002KT 8000 SCT007 22/21 Q1011=
201108070215 METAR LIRA 070215Z 21002KT CAVOK 22/21 Q1011=
201108070145 METAR LIRA 070145Z 17002KT CAVOK 22/21 Q1011=
201108070115 METAR LIRA 070115Z 14002KT 9999 FEW010 22/21 Q1011=
201108070045 METAR LIRA 070045Z 15002KT 9999 FEW010 22/20 Q1011=
201108070015 METAR LIRA 070015Z 18003KT 9999 FEW010 22/20 Q1011=
201108062350 METAR LIRA 070045Z 15002KT 9999 FEW010 22/20 Q1011=
201108062345 METAR LIRA 062345Z 22002KT 9999 FEW010 22/20 Q1011=
201108062315 METAR LIRA 062315Z 19003KT 9999 FEW010 22/21 Q1011=
201108062245 METAR LIRA 062245Z 21003KT 9999 FEW010 22/21 Q1011=
201108062215 METAR LIRA 062215Z 00000KT 9999 FEW010 22/21 Q1011=
201108062145 METAR LIRA 062145Z 20001KT 9999 FEW070 23/21 Q1011=
201108062115 METAR LIRA 062115Z 20003KT 9999 FEW070 23/21 Q1011=
201108062045 METAR LIRA 062045Z 21002KT 9999 FEW070 23/21 Q1011=
201108062015 METAR LIRA 062015Z 24004KT 9999 FEW070 24/21 Q1011=
201108061945 METAR LIRA 061945Z 24003KT 9999 FEW070 24/21 Q1011=
201108061915 METAR LIRA 061915Z 19003KT 9999 FEW018 25/21 Q1011=
201108061845 METAR LIRA 061845Z 22003KT 9999 FEW018 26/20 Q1011=
201108061815 METAR LIRA 061815Z 24004KT 9999 FEW018 26/21 Q1011=
201108061745 METAR LIRA 061745Z 26004KT 9999 FEW018 27/21 Q1011=
201108061715 METAR LIRA 061715Z 27004KT 9999 FEW018 27/22 Q1011=
201108061645 METAR LIRA 061645Z 24005KT 9999 FEW018 27/21 Q1011=
201108061615 METAR LIRA 061615Z 23005KT 9999 FEW018 28/22 Q1012=
201108061545 METAR LIRA 061545Z 23006KT 170V270 9999 FEW018 28/22 Q1012=
201108061515 METAR LIRA 061515Z 23007KT 180V250 9999 FEW018 28/21 Q1012=
201108061445 METAR LIRA 061445Z 23009KT 190V260 9999 FEW018 28/21 Q1012=
201108061415 METAR LIRA 061415Z 24009KT 210V290 9999 FEW018 29/22 Q1012=
201108061345 METAR LIRA 061345Z 23010KT 200V290 9999 FEW018 29/22 Q1012=
201108061315 METAR LIRA 061315Z 22009KT 170V250 9999 FEW018 30/23 Q1012=
201108061245 METAR LIRA 061245Z 23009KT 200V280 9999 FEW018 30/23 Q1012=
201108061215 METAR LIRA 061215Z 23007KT 150V290 9999 FEW018 30/23 Q1012=
201108061145 METAR LIRA 061145Z 22008KT 170V250 9999 FEW018 30/22 Q1012=
201108061115 METAR LIRA 061115Z 19008KT 160V240 9999 FEW018 30/21 Q1012=
201108061045 METAR LIRA 061045Z 18007KT 120V230 9999 FEW018 30/21 Q1012=
201108061015 METAR LIRA 061015Z 19007KT 140V260 9999 FEW018 29/21 Q1012=
201108060945 METAR LIRA 060945Z 20007KT 170V230 9999 FEW018 29/20 Q1012=
201108060915 METAR LIRA 060915Z 18008KT 140V200 CAVOK 28/21 Q1012=
201108060845 METAR LIRA 060845Z 19008KT CAVOK 28/21 Q1012=
201108060815 METAR LIRA 060815Z 21006KT 180V240 9999 FEW080 27/20 Q1012=
201108060745 METAR LIRA 060745Z 23004KT 9999 FEW080 27/19 Q1012=
201108060715 METAR LIRA 060715Z 23003KT 9999 FEW080 26/21 Q1012=
201108060645 METAR LIRA 060645Z 04002KT 9999 FEW080 25/22 Q1012=
201108060615 METAR LIRA 060615Z 34001KT CAVOK 23/22 Q1012=
201108060545 METAR LIRA 060545Z 05002KT 8000 FEW080 22/22 Q1011=
201108060515 METAR LIRA 060515Z 04002KT 7000 FEW080 22/21 Q1011=
201108060445 METAR LIRA 060445Z 07002KT 7000 FEW080 21/20 Q1011=
201108060415 METAR LIRA 060415Z 07001KT 4000 MIFG FEW005 21/20 Q1011=
201108060345 METAR LIRA 060345Z 00000KT 0200 FG OVC001 21/20 Q1011=
201108060315 METAR LIRA 060315Z 22001KT 0300 FG OVC001 22/21 Q1011=
201108060245 METAR LIRA 060245Z 00000KT 2000 BR SCT005 BKN020 22/21 Q1011=
201108060215 METAR LIRA 060215Z 00000KT 0300 FG OVC001 22/21 Q1011=
201108060145 METAR LIRA 060145Z 18004KT 7000 FEW005 22/21 Q1011=
201108060115 METAR LIRA 060115Z 19003KT 8000 FEW005 22/21 Q1011=
201108060045 METAR LIRA 060045Z 22006KT CAVOK 22/20 Q1011=
201108060015 METAR LIRA 060015Z 21005KT CAVOK 23/20 Q1011=
201108052350 METAR LIRA 060045Z 22006KT CAVOK 22/20 Q1011=
201108052345 METAR LIRA 052345Z 21002KT CAVOK 24/20 Q1011=
201108052315 METAR LIRA 052315Z 20002KT CAVOK 24/20 Q1011=
201108052245 METAR LIRA 052245Z 00000KT CAVOK 23/22 Q1011=
201108052215 METAR LIRA 052215Z 13001KT CAVOK 24/21 Q1011=
201108052145 METAR LIRA 052145Z 24002KT CAVOK 24/20 Q1011=
201108052115 METAR LIRA 052115Z 23003KT CAVOK 24/20 Q1011=
201108052045 METAR LIRA 052045Z 24003KT CAVOK 25/19 Q1011=
201108052015 METAR LIRA 052015Z 29002KT CAVOK 26/18 Q1011=
201108051945 METAR LIRA 051945Z 30002KT 9999 FEW020 26/18 Q1011=
201108051915 METAR LIRA 051915Z 35002KT 9999 FEW020CB 26/18 Q1011=
201108051845 METAR LIRA 051845Z 24002KT 9999 FEW020CB 27/18 Q1011=
201108051815 METAR LIRA 051815Z 25004KT 9999 FEW018 FEW020CB 28/18 Q1011=
201108051745 METAR LIRA 051745Z 23004KT 9999 FEW018 FEW020CB 29/18 Q1011=
201108051715 METAR LIRA 051715Z 23003KT 9999 FEW018 FEW020CB 29/18 Q1011=
201108051645 METAR LIRA 051645Z 24005KT 9999 FEW018 FEW020CB 29/19 Q1011=
201108051615 METAR LIRA 051615Z 25006KT 200V310 9999 FEW018 FEW020CB 30/19
                        Q1011=
201108051545 METAR LIRA 051545Z 26006KT 210V320 9999 FEW018 FEW022CB 30/19
                        Q1011=
201108051515 METAR LIRA 051515Z 22007KT 180V260 9999 FEW018 FEW022CB 30/18
                        Q1011=
201108051445 METAR LIRA 051445Z 22008KT 190V270 9999 FEW018 FEW022TCU
                        31/18 Q1011=
201108051415 METAR LIRA 051415Z 24009KT 9999 SCT018 31/20 Q1011=
201108051345 METAR LIRA 051345Z 21006KT 140V290 9999 SCT018 31/20 Q1012=
201108051315 METAR LIRA 051315Z 24006KT 200V330 9999 SCT018 31/20 Q1012=
201108051245 METAR LIRA 051245Z 26006KT 210V310 9999 SCT018 31/21 Q1012=
201108051215 METAR LIRA 051215Z 23006KT 180V300 9999 SCT018 31/22 Q1012=
201108051145 METAR LIRA 051145Z 25008KT 210V280 9999 SCT018 31/21 Q1012=
201108051115 METAR LIRA 051115Z 02003KT 160V240 9999 FEW018 31/19 Q1012=
201108051045 METAR LIRA 051045Z 22005KT 160V270 9999 FEW018 30/19 Q1013=
201108051015 METAR LIRA 051015Z 22004KT 9999 FEW018 30/19 Q1013=
201108050945 METAR LIRA 050945Z 02003KT 9999 FEW018 28/18 Q1013=
201108050915 METAR LIRA 050915Z 21002KT 9999 FEW018 28/19 Q1013=
201108050845 METAR LIRA 050845Z 17002KT 9999 FEW018 28/19 Q1013=
201108050815 METAR LIRA 050815Z 23002KT CAVOK 26/20 Q1013=
201108050745 METAR LIRA 050745Z 24001KT 9999 FEW080 25/20 Q1013=
201108050715 METAR LIRA 050715Z 30002KT 9999 FEW080 25/20 Q1013=
201108050645 METAR LIRA 050645Z 32002KT 9999 FEW080 24/20 Q1013=
201108050615 METAR LIRA 050615Z 02001KT 9999 FEW080 23/20 Q1013=
201108050545 METAR LIRA 050545Z 12003KT 9999 FEW080 22/20 Q1013=
201108050515 METAR LIRA 050515Z 06002KT 9999 FEW080 21/19 Q1012=
201108050445 METAR LIRA 050445Z 11002KT 9999 FEW080 20/18 Q1012=
201108050415 METAR LIRA 050415Z 06001KT 9999 FEW080 20/19 Q1012=
201108050345 METAR LIRA 050345Z 00000KT CAVOK 20/19 Q1013=
201108050315 METAR LIRA 050315Z 00000KT CAVOK 20/19 Q1013=
201108050245 METAR LIRA 050245Z 00000KT CAVOK 20/19 Q1013=
201108050215 METAR LIRA 050215Z 00000KT CAVOK 21/20 Q1013=
201108050145 METAR LIRA 050145Z 00000KT CAVOK 21/20 Q1013=
201108050115 METAR LIRA 050115Z 00000KT CAVOK 21/20 Q1013=
201108050045 METAR LIRA 050045Z 29001KT CAVOK 22/21 Q1013=
201108050015 METAR LIRA 050015Z 03001KT CAVOK 22/21 Q1013=
201108042350 METAR LIRA 050045Z 29001KT CAVOK 22/21 Q1013=
201108042345 METAR LIRA 042345Z 04001KT CAVOK 22/21 Q1013=
201108042315 METAR LIRA 042315Z 03001KT CAVOK 22/22 Q1013=
201108042245 METAR LIRA 042245Z 00000KT CAVOK 23/22 Q1013=
201108042215 METAR LIRA 042215Z 00000KT CAVOK 23/22 Q1013=
201108042145 METAR LIRA 042145Z 00000KT CAVOK 23/22 Q1013=
201108042115 METAR LIRA 042115Z 25001KT CAVOK 23/22 Q1013=
201108042045 METAR LIRA 042045Z 23001KT CAVOK 23/22 Q1013=
201108042015 METAR LIRA 042015Z 21002KT CAVOK 23/22 Q1012=
201108041945 METAR LIRA 041945Z 22002KT CAVOK 24/22 Q1012=
201108041915 METAR LIRA 041915Z 24003KT CAVOK 24/22 Q1013=
201108041845 METAR LIRA 041845Z 23004KT CAVOK 25/23 Q1013=
201108041815 METAR LIRA 041815Z 24005KT 9999 FEW016 25/23 Q1013=
201108041745 METAR LIRA 041745Z 23005KT 9999 FEW016 26/21 Q1013=
201108041715 METAR LIRA 041715Z 22006KT 9999 FEW016 27/20 Q1013=
201108041645 METAR LIRA 041645Z 23008KT 200V260 9999 FEW016 27/20 Q1013=
201108041615 METAR LIRA 041615Z 24009KT 200V280 9999 FEW016 28/22 Q1013=
201108041545 METAR LIRA 041545Z 23009KT 190V270 9999 FEW016 28/23 Q1013=
201108041515 METAR LIRA 041515Z 23010KT 190V270 9999 FEW016 28/22 Q1013=
201108041445 METAR LIRA 041445Z 21009KT 170V250 CAVOK 29/21 Q1013=
201108041415 METAR LIRA 041415Z 21010KT 170V260 CAVOK 29/20 Q1013=
201108041345 METAR LIRA 041345Z 21009KT 160V260 CAVOK 30/21 Q1014=
201108041315 METAR LIRA 041315Z 20009KT 150V250 CAVOK 30/20 Q1014=
201108041245 METAR LIRA 041245Z 21009KT 170V270 CAVOK 30/20 Q1014=
201108041215 METAR LIRA 041215Z 19008KT 140V240 CAVOK 30/19 Q1014=
201108041145 METAR LIRA 041145Z 18008KT CAVOK 30/19 Q1014=
201108041115 METAR LIRA 041115Z 17007KT 120V240 9999 FEW040 30/19 Q1015=
201108041045 METAR LIRA 041045Z 20005KT 9999 FEW040 30/19 Q1015=
201108041015 METAR LIRA 041015Z 22007KT 170V270 9999 FEW040 29/18 Q1015=
201108040945 METAR LIRA 040945Z 18006G120KT 9999 FEW025 30/17 Q1015=
201108040915 METAR LIRA 040915Z 21005KT 150V260 9999 FEW025 30/15 Q1015=
201108040845 METAR LIRA 040845Z 24007KT 200V300 9999 FEW025 29/15 Q1015=
201108040815 METAR LIRA 040815Z 35002KT 9999 FEW025 28/18 Q1015=
201108040745 METAR LIRA 040745Z 33003KT 9999 FEW025 27/18 Q1015=
201108040715 METAR LIRA 040715Z 30005KT 9999 FEW025 26/17 Q1015=
201108040645 METAR LIRA 040645Z 12002KT 9999 SCT025 25/17 Q1015=
201108040615 METAR LIRA 040615Z 24002KT 9999 SCT025 24/17 Q1014=
201108040545 METAR LIRA 040545Z 19004KT 9999 SCT025 24/15 Q1014=
201108040515 METAR LIRA 040515Z 17002KT 9999 SCT025 23/14 Q1014=
201108040445 METAR LIRA 040445Z 13006KT 9999 SCT025 23/15 Q1014=
201108040415 METAR LIRA 040415Z 11005KT 9999 FEW025 SCT040 22/15 Q1015=
201108040345 METAR LIRA 040345Z 10003KT 9999 FEW030 SCT060 22/16 Q1015=
201108040315 METAR LIRA 040315Z 09005KT 9999 FEW030 SCT060 22/17 Q1015=
201108040245 METAR LIRA 040245Z 10005KT 9999 FEW030 SCT060 22/18 Q1016=
201108040215 METAR LIRA 040215Z 11002KT 9999 SCT070 23/18 Q1016=
201108040145 METAR LIRA 040145Z 14003KT 9999 FEW030 SCT070 23/19 Q1016=
201108040115 METAR LIRA 040115Z 17003KT 9999 FEW030 SCT070 23/19 Q1016=
201108040045 METAR LIRA 040045Z 21002KT 9999 FEW025 SCT070 24/19 Q1016=
201108040015 METAR LIRA 040015Z 16003KT 9999 SCT060 24/19 Q1016=
201108032350 METAR LIRA 040045Z 21002KT 9999 FEW025 SCT070 24/19 Q1016=
201108032345 METAR LIRA 032345Z 28004KT 220V290 9999 FEW030 SCT060 24/18
                        Q1016=
201108032315 METAR LIRA 032315Z 29008KT 260V320 9999 SCT060 25/16 Q1015=
201108032245 METAR LIRA 032245Z 12001KT 9999 FEW030 SCT060 25/13 Q1015=
201108032215 METAR LIRA 032215Z 07008KT 9999 FEW030 SCT060 24/15 Q1015=
201108032145 METAR LIRA 032145Z 11005KT 9999 FEW025 SCT060 24/17 Q1016=
201108032115 METAR LIRA 032115Z 09003KT 9999 FEW030 SCT060 24/18 Q1017=
201108032045 METAR LIRA 032045Z 00000KT 9999 FEW030 SCT070 25/19 Q1018=
201108032015 METAR LIRA 032015Z 29003KT 9999 FEW030 SCT060 25/20 Q1018=
201108031945 METAR LIRA 031945Z 32002KT 9999 SCT060 25/20 Q1018=
201108031915 METAR LIRA 031915Z 13001KT 9999 SCT070 25/19 Q1018=
201108031845 METAR LIRA 031845Z 24002KT 9999 SCT070 25/19 Q1018=
201108031815 METAR LIRA 031815Z 23004KT 9999 SCT070 26/19 Q1017=
201108031745 METAR LIRA 031745Z 25005KT 210V300 9999 SCT070 26/18 Q1017=
201108031715 METAR LIRA 031715Z 24007KT 220V290 9999 FEW080 27/18 Q1017=
201108031645 METAR LIRA 031645Z 27007KT CAVOK 28/16 Q1017=
201108031615 METAR LIRA 031615Z 25007KT 200V290 CAVOK 30/17 Q1017=
201108031545 METAR LIRA 031545Z 24008KT 220V280 9999 FEW080 30/14 Q1017=
201108031515 METAR LIRA 031515Z 27011KT 230V300 9999 FEW080 30/13 Q1017=
201108031445 METAR LIRA 031445Z 27009KT 220V310 9999 BKN070 32/14 Q1017=
201108031415 METAR LIRA 031415Z 28010KT 250V310 9999 BKN070 32/16 Q1017=
201108031345 METAR LIRA 031345Z 28009KT 250V320 9999 FEW030 BKN070 33/17
                        Q1017=
201108031315 METAR LIRA 031315Z 28005KT 230V310 9999 FEW030 BKN070 33/17
                        Q1017=
201108031245 METAR LIRA 031245Z 29003KT 9999 FEW030 BKN070 33/17 Q1018=
201108031215 METAR LIRA 031215Z 04003KT 9999 FEW023 SCT070 33/16 Q1018=
201108031145 METAR LIRA 031145Z 34004KT 9999 FEW023 SCT070 32/16 Q1018=
201108031115 METAR LIRA 031115Z 35004KT 320V040 9999 FEW023 31/17 Q1018=
201108031045 METAR LIRA 031045Z 36003KT 270V330 9999 FEW023 30/17 Q1018=
201108031015 METAR LIRA 031015Z 02003KT 9999 FEW023 31/18 Q1019=
201108030945 METAR LIRA 030945Z 27003KT 9999 FEW080 30/19 Q1019=
201108030915 METAR LIRA 030915Z 29002KT CAVOK 29/19 Q1019=
201108030845 METAR LIRA 030845Z 32003KT CAVOK 28/19 Q1019=
201108030815 METAR LIRA 030815Z 34003KT CAVOK 28/19 Q1019=
201108030745 METAR LIRA 030745Z 35003KT CAVOK 27/19 Q1019=
201108030715 METAR LIRA 030715Z 06003KT CAVOK 25/19 Q1019=
201108030645 METAR LIRA 030645Z 06002KT CAVOK 24/19 Q1019=
201108030615 METAR LIRA 030615Z 33001KT CAVOK 23/19 Q1019=
201108030545 METAR LIRA 030545Z 34001KT CAVOK 22/19 Q1018=
201108030515 METAR LIRA 030515Z 04002KT CAVOK 21/19 Q1018=
201108030445 METAR LIRA 030445Z 05001KT CAVOK 20/19 Q1018=
201108030415 METAR LIRA 030415Z 03002KT CAVOK 20/19 Q1017=
201108030345 METAR LIRA 030345Z 05003KT 9999 FEW080 20/18 Q1017=
201108030315 METAR LIRA 030315Z 03003KT 9999 FEW080 20/18 Q1017=
201108030245 METAR LIRA 030245Z 03003KT CAVOK 21/18 Q1017=
201108030215 METAR LIRA 030215Z 00000KT CAVOK 21/18 Q1017=
201108030145 METAR LIRA 030145Z 03002KT CAVOK 21/18 Q1017=
201108030115 METAR LIRA 030115Z 00000KT CAVOK 21/18 Q1017=
201108030045 METAR LIRA 030045Z 00000KT CAVOK 21/18 Q1017=
201108030015 METAR LIRA 030015Z 00000KT CAVOK 22/18 Q1017=
201108022350 METAR LIRA 030045Z 00000KT CAVOK 21/18 Q1017=
201108022345 METAR LIRA 022345Z 08001KT CAVOK 22/19 Q1017=
201108022315 METAR LIRA 022315Z 08001KT CAVOK 22/19 Q1017=
201108022245 METAR LIRA 022245Z 14002KT CAVOK 23/19 Q1017=
201108022215 METAR LIRA 022215Z 20002KT CAVOK 23/19 Q1017=
201108022145 METAR LIRA 022145Z 16002KT CAVOK 24/19 Q1017=
201108022115 METAR LIRA 022115Z 20003KT CAVOK 24/18 Q1017=
201108022045 METAR LIRA 022045Z 15004KT CAVOK 24/18 Q1017=
201108022015 METAR LIRA 022015Z 17004KT CAVOK 24/18 Q1017=
201108021945 METAR LIRA 021945Z 20005KT CAVOK 25/18 Q1017=
201108021915 METAR LIRA 021915Z 19004KT CAVOK 26/17 Q1017=
201108021845 METAR LIRA 021845Z 20003KT CAVOK 26/16 Q1016=
201108021815 METAR LIRA 021815Z 23006KT 210V290 CAVOK 27/17 Q1015=
201108021745 METAR LIRA 021745Z 27006KT 230V300 9999 FEW020 29/16 Q1015=
201108021715 METAR LIRA 021715Z 26006KT 190V300 9999 FEW020 29/15 Q1015=
201108021645 METAR LIRA 021645Z 26009KT 220V300 9999 FEW020 29/16 Q1015=
201108021615 METAR LIRA 021615Z 28009KT 230V310 9999 FEW020 31/16 Q1015=
201108021545 METAR LIRA 021545Z 28010KT 210V330 9999 FEW020 30/16 Q1015=
201108021515 METAR LIRA 021515Z 28011KT 210V310 9999 FEW020 30/16 Q1015=
201108021445 METAR LIRA 021445Z 27009KT 240V300 9999 FEW020 31/16 Q1015=
201108021415 METAR LIRA 021415Z 29010KT 240V310 9999 SCT020 31/17 Q1015=
201108021345 METAR LIRA 021345Z 27011KT 210V310 9999 SCT020 31/17 Q1015=
201108021315 METAR LIRA 021315Z 29010G21KT 260V330 9999 SCT020 31/18 Q1016=
201108021245 METAR LIRA 021245Z 29006G16KT 240V350 9999 SCT020 31/16 Q1016=
201108021215 METAR LIRA 021215Z 33007KT 290V350 9999 SCT020 32/17 Q1016=
201108021145 METAR LIRA 021145Z 02006KT 300V070 9999 SCT020 30/18 Q1016=
201108021115 METAR LIRA 021115Z 01004KT 290V040 9999 FEW020 30/17 Q1016=
201108021045 METAR LIRA 021045Z 36005KT 9999 FEW020 29/18 Q1016=
201108021015 METAR LIRA 021015Z 34005KT 300V360 9999 FEW020 29/19 Q1016=
201108020945 METAR LIRA 020945Z 34003KT 9999 FEW020 28/18 Q1016=
201108020915 METAR LIRA 020915Z 02003KT 9999 FEW020 27/19 Q1016=
201108020845 METAR LIRA 020845Z 34004KT 9999 FEW020 27/19 Q1016=
201108020815 METAR LIRA 020815Z 34002KT 9999 FEW020 26/19 Q1016=
201108020745 METAR LIRA 020745Z 31004KT 9999 FEW020 24/19 Q1016=
201108020715 METAR LIRA 020715Z 01003KT CAVOK 23/19 Q1016=
201108020645 METAR LIRA 020645Z 02002KT CAVOK 23/19 Q1015=
201108020615 METAR LIRA 020615Z 35003KT CAVOK 22/20 Q1015=
201108020545 METAR LIRA 020545Z 02002KT CAVOK 21/19 Q1015=
201108020515 METAR LIRA 020515Z 03001KT CAVOK 20/19 Q1015=
201108020445 METAR LIRA 020445Z 06003KT CAVOK 19/18 Q1015=
201108020415 METAR LIRA 020415Z 01001KT CAVOK 19/18 Q1015=
201108020345 METAR LIRA 020345Z 05001KT CAVOK 19/17 Q1015=
201108020315 METAR LIRA 020315Z 06002KT CAVOK 19/17 Q1015=
201108020245 METAR LIRA 020245Z 03002KT 9999 FEW070 19/17 Q1015=
201108020215 METAR LIRA 020215Z 10002KT 9999 FEW070 19/18 Q1015=
201108020145 METAR LIRA 020145Z 14001KT 9999 FEW070 20/18 Q1015=
201108020115 METAR LIRA 020115Z 00000KT 9999 FEW070 20/19 Q1015=
201108020045 METAR LIRA 020045Z 00000KT 9999 FEW070 20/18 Q1015=
201108020015 METAR LIRA 020015Z 00000KT 9999 FEW070 20/18 Q1015=
201108012350 METAR LIRA 020045Z 00000KT 9999 FEW070 20/18 Q1015=
201108012345 METAR LIRA 012345Z 00000KT 9999 FEW070 20/18 Q1015=
201108012315 METAR LIRA 012315Z 00000KT 9999 FEW070 20/19 Q1015=
201108012245 METAR LIRA 012245Z 18001KT 9999 FEW070 20/19 Q1015=
201108012215 METAR LIRA 012215Z 11001KT 9999 FEW070 21/19 Q1015=
201108012145 METAR LIRA 012145Z 00000KT 9999 FEW070 21/19 Q1015=
201108012115 METAR LIRA 012115Z 00000KT 9999 FEW070 21/19 Q1015=
201108012045 METAR LIRA 012045Z 24001KT 9999 FEW070 23/20 Q1015=
201108012015 METAR LIRA 012015Z 30001KT 9999 FEW018 23/20 Q1015=
201108011945 METAR LIRA 011945Z 26002KT 9999 FEW018 23/20 Q1014=
201108011915 METAR LIRA 011915Z 23002KT 9999 FEW018 24/21 Q1014=
201108011845 METAR LIRA 011845Z 22003KT 9999 FEW018 24/21 Q1014=
201108011815 METAR LIRA 011815Z 23004KT 9999 FEW018 25/20 Q1014=
201108011745 METAR LIRA 011745Z 31003KT 9999 FEW018 26/18 Q1013=
201108011715 METAR LIRA 011715Z 20003KT 9999 FEW018 FEW020CB 26/18 Q1013=
201108011645 METAR LIRA 011645Z 24004KT 9999 FEW018 FEW020CB 26/19 Q1013=
201108011615 METAR LIRA 011615Z 23005KT 9999 FEW018 FEW020CB 26/19 Q1013=
201108011545 METAR LIRA 011545Z 22007KT 190V260 9999 FEW018 FEW020CB 26/18
                        Q1013=
201108011515 METAR LIRA 011515Z 22007KT 190V300 9999 FEW018 FEW020CB 26/17
                        Q1013=
201108011445 METAR LIRA 011445Z 24009KT 210V280 9999 FEW018 FEW020CB 27/17
                        Q1013=
201108011415 METAR LIRA 011415Z 23007KT 190V270 9999 FEW018 FEW020CB 27/17
                        Q1013=
201108011345 METAR LIRA 011345Z 23009KT 180V260 9999 FEW018 FEW020CB 27/17
                        Q1013=
201108011315 METAR LIRA 011315Z 22009KT 190V260 9999 FEW018 FEW020TCU
                        27/17 Q1013=
201108011245 METAR LIRA 011245Z 21008KT 160V170 9999 SCT018 27/17 Q1013=
201108011215 METAR LIRA 011215Z 19007KT 130V260 9999 SCT018 27/17 Q1013=
201108011145 METAR LIRA 011145Z 18006KT 150V230 9999 SCT018 27/18 Q1013=
201108011115 METAR LIRA 011115Z 18005KT 150V220 9999 SCT018 28/17 Q1013=
201108011045 METAR LIRA 011045Z 17005KT 9999 SCT018 28/15 Q1013=
201108011015 METAR LIRA 011015Z 17002KT 9999 SCT018 27/16 Q1013=
201108010945 METAR LIRA 010945Z 14002KT 9999 FEW018 27/17 Q1013=
201108010915 METAR LIRA 010915Z 19004KT 9999 FEW018 26/17 Q1013=
201108010845 METAR LIRA 010845Z 07002KT 9999 FEW018 25/17 Q1013=
201108010815 METAR LIRA 010815Z 11002KT 9999 FEW018 25/18 Q1013=
201108010745 METAR LIRA 010745Z 33002KT 9999 FEW018 24/17 Q1013=
201108010715 METAR LIRA 010715Z 35001KT CAVOK 23/19 Q1013=
201108010645 METAR LIRA 010645Z 00000KT CAVOK 21/18 Q1012=
201108010615 METAR LIRA 010615Z 05001KT CAVOK 21/18 Q1012=
201108010545 METAR LIRA 010545Z 06002KT CAVOK 20/17 Q1012=
201108010515 METAR LIRA 010515Z 04001KT CAVOK 18/17 Q1012=
201108010445 METAR LIRA 010445Z 13001KT CAVOK 18/17 Q1012=
201108010415 METAR LIRA 010415Z 15001KT CAVOK 18/16 Q1012=
201108010345 METAR LIRA 010345Z 00000KT CAVOK 18/16 Q1012=
201108010315 METAR LIRA 010315Z 00000KT CAVOK 18/16 Q1012=
201108010245 METAR LIRA 010245Z 10005KT CAVOK 18/16 Q1012=
201108010215 METAR LIRA 010215Z 09005KT CAVOK 18/16 Q1012=
201108010145 METAR LIRA 010145Z 10006KT CAVOK 18/17 Q1012=
201108010115 METAR LIRA 010115Z 10005KT CAVOK 19/17 Q1012=
201108010045 METAR LIRA 010045Z 08002KT CAVOK 18/15 Q1012=
201108010015 METAR LIRA 010015Z 09003KT CAVOK 18/15 Q1012=

</pre>

</body>
</html>
