##########################################################
# Query made at 11/10/2014 15:05:41 UTC
# Time interval: from 08/01/2009 00:00  to 08/31/2009 23:59  UTC
##########################################################

##########################################################
# LIRA, Roma / Ciampino (Italy)
# WMO index: 16239
# Latitude 41-47N. Longitude 012-35E. Altitude 129 m.
##########################################################

###################################
#  METAR/SPECI from LIRA
###################################
200908312345 METAR LIRA 312345Z 04001KT CAVOK 24/22 Q1019=
200908312315 METAR LIRA 312315Z 08002KT CAVOK 24/22 Q1019=
200908312245 METAR LIRA 312245Z 07002KT CAVOK 24/21 Q1019=
200908312215 METAR LIRA 312215Z 06003KT CAVOK 24/22 Q1018=
200908312145 METAR LIRA 312145Z 11003KT CAVOK 25/23 Q1018=
200908312115 METAR LIRA 312115Z 11001KT CAVOK 25/23 Q1018=
200908312045 METAR LIRA 312045Z 18002KT CAVOK 25/23 Q1018=
200908312015 METAR LIRA 312015Z 18002KT CAVOK 26/23 Q1018=
200908311945 METAR LIRA 311945Z 20003KT 9999 FEW017 26/23 Q1018=
200908311915 METAR LIRA 311915Z 21003KT 9999 FEW017 27/22 Q1018=
200908311845 METAR LIRA 311845Z 21003KT 9999 FEW017 FEW020TCU 27/22 Q1018=
200908311815 METAR LIRA 311815Z 02003KT 9999 SCT017 FEW020CB 28/22 Q1017=
200908311745 METAR LIRA 311745Z 26004KT 9999 SCT017 FEW020CB 28/21 Q1017=
200908311715 METAR LIRA 311715Z 25002KT 190V310 9999 SCT017 FEW020CB 29/21
                        Q1017=
200908311645 METAR LIRA 311645Z 24007KT 210V290 9999 FEW018 FEW020CB 29/21
                        Q1017=
200908311615 METAR LIRA 311615Z 23005KT 190V280 9999 FEW018 FEW020CB 30/21
                        Q1017=
200908311545 METAR LIRA 311545Z 21007KT 150V250 9999 FEW018 FEW020CB 30/21
                        Q1017=
200908311515 METAR LIRA 311515Z 21008KT 150V240 9999 FEW018 FEW020CB 30/21
                        Q1017=
200908311445 METAR LIRA 311445Z 21008KT 150V240 9999 FEW018 FEW020TCU
                        30/23 Q1017=
200908311415 METAR LIRA 311415Z 20008KT 130V240 9999 FEW018 FEW020TCU
                        30/25 Q1017=
200908311345 METAR LIRA 311345Z 21002KT 9999 SCT018 FEW020CB 28/23 Q1018=
200908311315 METAR LIRA 311315Z 18015KT 130V220 9999 -RA SCT018 SCT020CB
                        28/23 Q1017=
200908311245 METAR LIRA 311245Z 18009KT 140V240 9999 SCT020 FEW022CB 31/19
                        Q1018=
200908311215 METAR LIRA 311215Z 22006KT 170V270 9999 BKN020 FEW022TCU
                        31/19 Q1018=
200908311145 METAR LIRA 311145Z 24001KT 9999 SCT020 FEW022TCU 30/18 Q1018=
200908311115 METAR LIRA 311115Z 26006KT 210V300 9999 SCT020 FEW022TCU
                        30/19 Q1018=
200908311045 METAR LIRA 311045Z 13004KT 9999 SCT022 31/18 Q1019=
200908311015 METAR LIRA 311015Z 24006KT 200V270 9999 SCT022 30/18 Q1019=
200908310945 METAR LIRA 310945Z 06001KT 9999 FEW023 31/19 Q1019=
200908310915 METAR LIRA 310915Z 30006KT 300V090 9999 FEW023 30/19 Q1019=
200908310845 METAR LIRA 310845Z 35005KT 300V060 9999 FEW023 30/21 Q1019=
200908310815 METAR LIRA 310815Z 08002KT 9999 FEW023 29/21 Q1018=
200908310745 METAR LIRA 310745Z 03006KT 340V060 CAVOK 27/21 Q1018=
200908310715 METAR LIRA 310715Z 01007KT 320V050 CAVOK 26/21 Q1018=
200908310645 METAR LIRA 310645Z 01004KT CAVOK 24/20 Q1018=
200908310615 METAR LIRA 310615Z 02003KT CAVOK 23/20 Q1018=
200908310545 METAR LIRA 310545Z 03004KT CAVOK 22/20 Q1017=
200908310515 METAR LIRA 310515Z 36003KT CAVOK 21/19 Q1017=
200908310445 METAR LIRA 310445Z 00000KT CAVOK 22/20 Q1017=
200908310415 METAR LIRA 310415Z 03002KT CAVOK 22/19 Q1017=
200908310345 METAR LIRA 310345Z 03003KT CAVOK 22/20 Q1017=
200908310315 METAR LIRA 310315Z 02002KT CAVOK 22/20 Q1017=
200908310245 METAR LIRA 310245Z 00000KT CAVOK 23/20 Q1017=
200908310215 METAR LIRA 310215Z 04003KT CAVOK 22/20 Q1017=
200908310145 METAR LIRA 310145Z 08003KT CAVOK 23/20 Q1016=
200908310045 METAR LIRA 310045Z 05002KT 9999 FEW070 23/21 Q1016=
200908310015 METAR LIRA 310015Z 03002KT CAVOK 23/21 Q1016=
200908302350 METAR LIRA 310045Z 05002KT 9999 FEW070 23/21 Q1016=
200908302345 METAR LIRA 302345Z 00000KT 9999 FEW070 24/22 Q1016=
200908302315 METAR LIRA 302315Z 14002KT 9999 FEW070 24/21 Q1016=
200908302245 METAR LIRA 302245Z 14003KT 9999 FEW070 24/20 Q1016=
200908302215 METAR LIRA 302215Z 14002KT 9999 FEW070 24/19 Q1016=
200908302145 METAR LIRA 302145Z 12002KT 9999 FEW070 25/19 Q1016=
200908302115 METAR LIRA 302115Z 11002KT 9999 FEW070 25/19 Q1016=
200908302045 METAR LIRA 302045Z 11004KT 9999 FEW020 25/20 Q1016=
200908302015 METAR LIRA 302015Z 11005KT 9999 FEW020 25/21 Q1016=
200908301945 METAR LIRA 301945Z 11003KT 9999 FEW020 26/21 Q1016=
200908301915 METAR LIRA 301915Z 10003KT 9999 FEW020 26/22 Q1016=
200908301845 METAR LIRA 301845Z 00000KT 9999 FEW018 27/22 Q1015=
200908301815 METAR LIRA 301815Z 24002KT 9999 FEW018CB 27/21 Q1015=
200908301745 METAR LIRA 301745Z 23002KT 9999 FEW018CB 27/21 Q1015=
200908301715 METAR LIRA 301715Z 23004KT 9999 FEW018CB 28/21 Q1015=
200908301645 METAR LIRA 301645Z 27004KT 9999 FEW018CB 29/21 Q1015=
200908301615 METAR LIRA 301615Z 29008KT 250V340 9999 FEW018CB 29/21 Q1014=
200908301545 METAR LIRA 301545Z 27007KT 210V320 9999 SCT018 FEW020CB 30/21
                        Q1014=
200908301515 METAR LIRA 301515Z 27007KT 210V320 9999 SCT018 FEW020CB 30/21
                        Q1014=
200908301445 METAR LIRA 301445Z 21005KT 170V310 9999 FEW018 FEW022CB 31/20
                        Q1014=
200908301415 METAR LIRA 301415Z 23004KT 9999 SCT018 FEW020CB 30/23 Q1014=
200908301345 METAR LIRA 301345Z 10004KT 060V240 9999 FEW018 FEW022CB 29/23
                        Q1015=
200908301315 METAR LIRA 301315Z 12007KT 9999 SCT018 FEW022CB 27/21 Q1015
                        RETS WS RWY 15=
200908301245 METAR LIRA 301245Z 12009KT 060V130 9999 TS SCT018 FEW022CB
                        25/20 Q1015=
200908301215 METAR LIRA 301215Z 18004KT 120V270 6000 -TSRA SCT018 FEW022CB
                        SCT070 28/19 Q1014=
200908301145 METAR LIRA 301145Z 25006KT 200V330 9999 SCT018 FEW022CB SCT070
                        31/17 Q1015=
200908301115 METAR LIRA 301115Z 22002KT 9999 FEW020 FEW022CB 31/16 Q1015=
200908301045 METAR LIRA 301045Z 19005KT 9999 FEW020 FEW022CB 32/16 Q1015=
200908301015 METAR LIRA 301015Z 15005KT 9999 FEW020 FEW022CB 31/16 Q1015=
200908300945 METAR LIRA 300945Z 14001KT 9999 FEW020 FEW022CB 30/17 Q1015=
200908300845 METAR LIRA 300845Z 33003KT 9999 FEW020 FEW022CB 28/18 Q1015=
200908300815 METAR LIRA 300815Z 02003KT 9999 FEW020 FEW022CB 27/18 Q1015=
200908300745 METAR LIRA 300745Z 02002KT 9999 FEW020 FEW022CB SCT200 27/19
                        Q1015=
200908300715 METAR LIRA 300715Z 36003KT 9999 FEW020 SCT200 26/20 Q1015=
200908300645 METAR LIRA 300645Z 35002KT 9999 FEW030 SCT200 25/20 Q1014=
200908300615 METAR LIRA 300615Z 01001KT 9999 FEW070 SCT200 24/20 Q1014=
200908300545 METAR LIRA 300545Z 03002KT 9999 FEW070 SCT200 22/19 Q1014=
200908300515 METAR LIRA 300515Z 06003KT 9999 FEW070 SCT200 22/17 Q1013=
200908300445 METAR LIRA 300445Z 09002KT 9999 FEW020 SCT200 21/17 Q1013=
200908300415 METAR LIRA 300415Z 05002KT 9999 FEW020 SCT200 22/18 Q1013=
200908300345 METAR LIRA 300345Z 09004KT CAVOK 22/17 Q1013=
200908300315 METAR LIRA 300315Z 11005KT 9999 FEW018 22/17 Q1013=
200908300245 METAR LIRA 300245Z 10003KT 9999 FEW018 22/19 Q1013=
200908300215 METAR LIRA 300215Z 09004KT 9999 FEW018 22/19 Q1013=
200908300145 METAR LIRA 300145Z 09004KT 9999 FEW018 22/20 Q1013=
200908300115 METAR LIRA 300115Z 08004KT 9999 FEW018 22/20 Q1013=
200908300045 METAR LIRA 300045Z 09003KT CAVOK 22/19 Q1013=
200908300015 METAR LIRA 300015Z 10005KT CAVOK 22/19 Q1013=
200908292350 METAR LIRA 300045Z 09003KT CAVOK 22/19 Q1013=
200908292345 METAR LIRA 292345Z 11003KT CAVOK 23/19 Q1013=
200908292315 METAR LIRA 292315Z 09004KT CAVOK 23/19 Q1013=
200908292245 METAR LIRA 292245Z 11004KT CAVOK 23/19 Q1013=
200908292215 METAR LIRA 292215Z 10002KT CAVOK 24/20 Q1013=
200908292145 METAR LIRA 292145Z 13002KT CAVOK 24/21 Q1013=
200908292115 METAR LIRA 292115Z 14002KT CAVOK 24/21 Q1013=
200908292045 METAR LIRA 292045Z 19001KT CAVOK 25/21 Q1013=
200908292015 METAR LIRA 292015Z 19001KT CAVOK 25/20 Q1013=
200908291945 METAR LIRA 291945Z 22002KT CAVOK 26/21 Q1013=
200908291915 METAR LIRA 291915Z 19003KT CAVOK 26/21 Q1013=
200908291845 METAR LIRA 291845Z 19004KT 9999 FEW080 26/20 Q1012=
200908291745 METAR LIRA 291745Z 26004KT 230V320 9999 FEW018 28/21 Q1012=
200908291715 METAR LIRA 291715Z 25004KT 210V300 9999 FEW018 FEW020CB 28/21
                        Q1012=
200908291645 METAR LIRA 291645Z 24006KT 190V340 9999 FEW018 FEW020CB 29/21
                        Q1012=
200908291615 METAR LIRA 291615Z 23007KT 190V280 9999 FEW015 FEW020CB 30/21
                        Q1012=
200908291545 METAR LIRA 291545Z 23007KT 180V280 9999 SCT015 FEW020CB 30/18
                        Q1012=
200908291515 METAR LIRA 291515Z 24006KT 150V310 9999 SCT015 31/19 Q1012=
200908291445 METAR LIRA 291445Z 24006KT 190V310 9999 SCT020 31/20 Q1012=
200908291415 METAR LIRA 291415Z 24006KT 180V280 9999 SCT015 FEW022TCU
                        32/20 Q1012=
200908291345 METAR LIRA 291345Z 22010KT 170V280 9999 SCT015 FEW022TCU
                        32/21 Q1013=
200908291315 METAR LIRA 291315Z 21009KT 150V290 9999 SCT015 32/20 Q1013=
200908291245 METAR LIRA 291245Z 22006KT 180V300 9999 SCT015 32/18 Q1013=
200908291215 METAR LIRA 291215Z 22006KT 160V310 9999 SCT015 32/18 Q1013=
200908291145 METAR LIRA 291145Z 25006KT 190V030 9999 SCT015 31/19 Q1013=
200908291115 METAR LIRA 291115Z 21004KT 120V360 9999 BKN015 31/20 Q1013=
200908291045 METAR LIRA 291045Z 25006KT 200V340 9999 SCT015 30/20 Q1013=
200908291015 METAR LIRA 291015Z 28004KT 9999 SCT015 30/19 Q1013=
200908290945 METAR LIRA 290945Z 34003KT 9999 SCT015 30/20 Q1013=
200908290915 METAR LIRA 290915Z 29005KT 9999 SCT015 30/21 Q1013=
200908290845 METAR LIRA 290845Z 01003KT 9999 SCT015 29/21 Q1013=
200908290815 METAR LIRA 290815Z 36002KT 9999 SCT015 28/22 Q1013=
200908290745 METAR LIRA 290745Z 31003KT 9999 SCT015 27/22 Q1013=
200908290645 METAR LIRA 290645Z 03001KT 9999 FEW007 26/23 Q1013=
200908290615 METAR LIRA 290615Z 11003KT 9999 FEW007 25/21 Q1013=
200908290545 METAR LIRA 290545Z 14002KT 9999 FEW007 24/20 Q1013=
200908290515 METAR LIRA 290515Z 11002KT 9999 FEW007 23/20 Q1012=
200908290445 METAR LIRA 290445Z 11002KT 9999 FEW007 22/20 Q1012=
200908290415 METAR LIRA 290415Z 00000KT 9999 FEW007 23/21 Q1012=
200908290345 METAR LIRA 290345Z 00000KT 9999 SCT020 23/21 Q1012=
200908290315 METAR LIRA 290315Z 11004KT CAVOK 22/20 Q1012=
200908290245 METAR LIRA 290245Z 11002KT CAVOK 23/20 Q1012=
200908290215 METAR LIRA 290215Z 11002KT 9999 FEW020 23/20 Q1013=
200908290145 METAR LIRA 290145Z 11003KT 9999 FEW020 23/20 Q1013=
200908290115 METAR LIRA 290115Z 14002KT 9999 FEW025 23/20 Q1013=
200908290045 METAR LIRA 290045Z 08001KT CAVOK 23/20 Q1013=
200908290015 METAR LIRA 290015Z 11003KT CAVOK 24/21 Q1013=
200908282350 METAR LIRA 290045Z 08001KT CAVOK 23/20 Q1013=
200908282345 METAR LIRA 282345Z 00000KT CAVOK 24/21 Q1013=
200908282315 METAR LIRA 282315Z 11003KT CAVOK 24/21 Q1014=
200908282245 METAR LIRA 282245Z 00000KT CAVOK 24/21 Q1014=
200908282215 METAR LIRA 282215Z 10002KT CAVOK 25/21 Q1013=
200908282145 METAR LIRA 282145Z 00000KT CAVOK 25/23 Q1014=
200908282115 METAR LIRA 282115Z 00000KT CAVOK 25/22 Q1014=
200908282045 METAR LIRA 282045Z 22002KT CAVOK 26/23 Q1014=
200908282015 METAR LIRA 282015Z 22002KT CAVOK 26/23 Q1014=
200908281945 METAR LIRA 281945Z 26001KT CAVOK 26/22 Q1014=
200908281915 METAR LIRA 281915Z 26001KT CAVOK 27/22 Q1013=
200908281845 METAR LIRA 281845Z 25003KT CAVOK 27/21 Q1013=
200908281815 METAR LIRA 281815Z 26003KT 9999 FEW030 28/22 Q1013=
200908281745 METAR LIRA 281745Z 26004KT 220V280 9999 FEW025 29/21 Q1013=
200908281715 METAR LIRA 281715Z 27007KT 210V330 9999 FEW020TCU SCT110
                        29/21 Q1013=
200908281615 METAR LIRA 281615Z 27008KT 200V330 9999 FEW017 FEW020CB 31/21
                        Q1013=
200908281545 METAR LIRA 281545Z 24005KT 180V310 9999 FEW018 FEW020CB 31/21
                        Q1013=
200908281515 METAR LIRA 281515Z 24010KT 210V300 9999 FEW018 FEW020CB 32/21
                        Q1013=
200908281445 METAR LIRA 281445Z 24007KT 180V310 9999 FEW018 FEW020CB 32/21
                        Q1013=
200908281415 METAR LIRA 281415Z 23008KT 180V290 9999 FEW018 FEW020CB 32/21
                        Q1013=
200908281345 METAR LIRA 281345Z 24009KT 130V280 9999 FEW018 FEW020TCU
                        32/20 Q1014=
200908281315 METAR LIRA 281315Z 24097KT 180V280 9999 FEW018 32/22 Q1014=
200908281245 METAR LIRA 281245Z 22011KT 140V260 9999 FEW018 33/22 Q1014=
200908281215 METAR LIRA 281215Z 23008KT 170V290 9999 FEW018 34/21 Q1014=
200908281145 METAR LIRA 281145Z 23007KT 170V300 9999 FEW018 33/21 Q1014=
200908281115 METAR LIRA 281115Z 15007KT 090V210 9999 FEW018 34/19 Q1014=
200908281045 METAR LIRA 281045Z 14003KT 130V240 9999 FEW018 33/18 Q1014=
200908281015 METAR LIRA 281015Z 22007KT 180V250 9999 FEW018 33/20 Q1014=
200908280945 METAR LIRA 280945Z 23004KT 190V270 9999 FEW018 32/21 Q1015=
200908280915 METAR LIRA 280915Z 24004KT 9999 FEW018 31/22 Q1015=
200908280845 METAR LIRA 280845Z 24005KT 190V290 9999 FEW018 30/23 Q1015=
200908280815 METAR LIRA 280815Z 29001KT 9999 FEW018 29/22 Q1014=
200908280745 METAR LIRA 280745Z 28001KT 9999 FEW018 27/21 Q1014=
200908280715 METAR LIRA 280715Z 02003KT CAVOK 26/20 Q1014=
200908280645 METAR LIRA 280645Z 33002KT CAVOK 24/19 Q1014=
200908280615 METAR LIRA 280615Z 03002KT CAVOK 24/20 Q1014=
200908280545 METAR LIRA 280545Z 04002KT CAVOK 22/19 Q1014=
200908280515 METAR LIRA 280515Z 04003KT CAVOK 22/18 Q1015=
200908280445 METAR LIRA 280445Z 03003KT CAVOK 22/19 Q1015=
200908280415 METAR LIRA 280415Z 04004KT 9999 FEW016 22/18 Q1015=
200908280345 METAR LIRA 280345Z 35003KT 9999 FEW018 22/18 Q1015=
200908280315 METAR LIRA 280315Z 05003KT CAVOK 22/18 Q1015=
200908280245 METAR LIRA 280245Z 07002KT CAVOK 22/18 Q1015=
200908280215 METAR LIRA 280215Z 08002KT CAVOK 22/18 Q1015=
200908280145 METAR LIRA 280145Z 00000KT 8000 FEW070 22/18 Q1015=
200908280115 METAR LIRA 280115Z 02001KT 8000 FEW070 22/18 Q1015=
200908280045 METAR LIRA 280045Z 02004KT 8000 FEW070 22/18 Q1015=
200908280015 METAR LIRA 280015Z 03004KT 8000 FEW070 23/18 Q1015=
200908272345 METAR LIRA 272345Z 02002KT 8000 FEW070 23/18 Q1015=
200908272315 METAR LIRA 272315Z 03002KT 8000 FEW070 23/17 Q1015=
200908272245 METAR LIRA 272245Z 00000KT 8000 FEW070 23/17 Q1015=
200908272215 METAR LIRA 272215Z 36005KT 8000 FEW020 24/18 Q1015=
200908272145 METAR LIRA 272145Z 01004KT 330V050 8000 FEW020 25/18 Q1015=
200908272115 METAR LIRA 272115Z 02003KT 8000 FEW020 25/17 Q1016=
200908272045 METAR LIRA 272045Z 02005KT 340V080 8000 FEW020 26/19 Q1016=
200908272015 METAR LIRA 272015Z 02005KT 320V060 8000 FEW018 26/20 Q1016=
200908271945 METAR LIRA 271945Z 36004KT 8000 FEW018 26/20 Q1016=
200908271915 METAR LIRA 271915Z 01008KT 310V070 8000 FEW018 SCT030 27/21
                        Q1016=
200908271845 METAR LIRA 271845Z 06005KT 030V090 8000 FEW016 FEW020TCU
                        SCT025 27/20 Q1017=
200908271745 METAR LIRA 271745Z 28004KT 250V320 9999 FEW016 FEW018CB SCT025
                        29/24 Q1017=
200908271715 METAR LIRA 271715Z 27003KT 210V280 9999 FEW016 FEW018CB SCT025
                        29/24 Q1017=
200908271645 METAR LIRA 271645Z 23007KT 210V280 9999 FEW016 FEW018CB SCT025
                        29/24 Q1016=
200908271615 METAR LIRA 271615Z 24007KT 200V280 9999 FEW016 FEW018CB SCT025
                        30/24 Q1016=
200908271545 METAR LIRA 271545Z 23008KT 180V270 9999 FEW016 FEW020CB SCT025
                        30/24 Q1016=
200908271515 METAR LIRA 271515Z 23010KT 190V280 9999 FEW018CB SCT025 31/24
                        Q1016=
200908271445 METAR LIRA 271445Z 22010KT 180V280 9999 FEW017 FEW020CB 31/23
                        Q1016=
200908271415 METAR LIRA 271415Z 23008KT 150V280 9999 FEW017 FEW020TCU
                        32/24 Q1016=
200908271345 METAR LIRA 271345Z 22006KT 150V280 9999 FEW017 FEW020TCU
                        32/24 Q1016=
200908271315 METAR LIRA 271315Z 21008KT 150V260 9999 SCT020 32/24 Q1017=
200908271245 METAR LIRA 271245Z 23010KT 180V270 9999 SCT020 32/25 Q1017=
200908271215 METAR LIRA 271215Z 21008KT 150V280 9999 FEW018TCU SCT022
                        32/24 Q1017=
200908271145 METAR LIRA 271145Z 23013KT 190V270 9999 SCT018 33/23 Q1017=
200908271115 METAR LIRA 271115Z 23008KT 170V270 9999 FEW018 34/20 Q1017=
200908271045 METAR LIRA 271045Z 16005KT 130V280 9999 FEW018 33/20 Q1017=
200908271015 METAR LIRA 271015Z 12008KT 080V210 9999 FEW018 33/18 Q1017=
200908270945 METAR LIRA 270945Z 12004KT 090V200 9999 FEW018 SCT090 32/19
                        Q1017=
200908270915 METAR LIRA 270915Z 12004KT 060V180 9999 FEW018 SCT090 32/19
                        Q1017=
200908270845 METAR LIRA 270845Z 27003KT 270V360 9999 FEW018 SCT090 30/18
                        Q1018=
200908270815 METAR LIRA 270815Z 32002KT 9999 FEW020 SCT090 30/18 Q1018=
200908270745 METAR LIRA 270745Z 36004KT CAVOK 29/19 Q1017=
200908270715 METAR LIRA 270715Z 32003KT 9999 FEW030 SCT080 27/19 Q1017=
200908270645 METAR LIRA 270645Z 31001KT 9999 FEW025 SCT060 27/19 Q1017=
200908270615 METAR LIRA 270615Z 00000KT 9999 FEW025 SCT060 25/19 Q1017=
200908270545 METAR LIRA 270545Z 03002KT 9999 SCT030 SCT060 25/19 Q1017=
200908270515 METAR LIRA 270515Z 29003KT 9999 SCT030 SCT060 24/19 Q1017=
200908270445 METAR LIRA 270445Z 06005KT 020V080 9999 SCT025 SCT060 24/19
                        Q1017=
200908270415 METAR LIRA 270415Z 07005KT 9999 FEW017 SCT030 23/20 Q1017=
200908270345 METAR LIRA 270345Z 05004KT 9999 FEW015 SCT070 22/19 Q1017=
200908270315 METAR LIRA 270315Z 08003KT 9999 FEW015 SCT070 23/19 Q1017=
200908270245 METAR LIRA 270245Z 09001KT 9999 FEW015 SCT070 22/20 Q1017=
200908270215 METAR LIRA 270215Z 13002KT 9999 FEW015 22/20 Q1017=
200908270145 METAR LIRA 270145Z 22001KT 9999 FEW015 23/17 Q1016=
200908270115 METAR LIRA 270115Z 23004KT 9999 FEW015 22/18 Q1016=
200908270045 METAR LIRA 270045Z 06001KT 9999 FEW015 23/18 Q1016=
200908270015 METAR LIRA 270015Z 09004KT 9999 FEW015 23/19 Q1016=
200908262350 METAR LIRA 270045Z 06001KT 9999 FEW015 23/18 Q1016=
200908262345 METAR LIRA 262345Z 09001KT 9999 FEW015 23/19 Q1017=
200908262315 METAR LIRA 262315Z 09003KT 8000 FEW015 23/19 Q1017=
200908262245 METAR LIRA 262245Z 10003KT 8000 FEW015 23/21 Q1017=
200908262215 METAR LIRA 262215Z 09005KT 8000 FEW015 24/22 Q1017=
200908262145 METAR LIRA 262145Z 08003KT 8000 FEW015 25/24 Q1017=
200908262115 METAR LIRA 262115Z 22002KT 8000 FEW015 26/25 Q1017=
200908262045 METAR LIRA 262045Z 22001KT 9999 FEW015 26/25 Q1017=
200908262015 METAR LIRA 262015Z 22002KT 9999 FEW015 26/25 Q1017=
200908261945 METAR LIRA 261945Z 23002KT 9999 SCT015 26/25 Q1017=
200908261915 METAR LIRA 261915Z 23002KT 9999 FEW070 27/25 Q1016=
200908261845 METAR LIRA 261845Z 21002KT 9999 FEW070 27/24 Q1016=
200908261815 METAR LIRA 261815Z 22005KT 9999 FEW070 27/24 Q1016=
200908261745 METAR LIRA 261745Z 24006KT 9999 FEW020 28/23 Q1016=
200908261715 METAR LIRA 261715Z 23008KT 190V280 9999 FEW020 29/23 Q1016=
200908261645 METAR LIRA 261645Z 21006KT 140V250 9999 FEW020 31/18 Q1016=
200908261615 METAR LIRA 261615Z 27008KT 150V250 9999 FEW020 31/17 Q1016=
200908261545 METAR LIRA 261545Z 19009KT 150V250 9999 FEW018 32/16 Q1015=
200908261515 METAR LIRA 261515Z 20009KT 160V250 9999 FEW018 33/16 Q1015=
200908261445 METAR LIRA 261445Z 18008KT 140V230 9999 FEW018 34/17 Q1015=
200908261415 METAR LIRA 261415Z 18009KT 140V230 CAVOK 33/18 Q1015=
200908261345 METAR LIRA 261345Z 19008KT 140V230 9999 FEW018 33/16 Q1016=
200908261315 METAR LIRA 261315Z 20010KT 150V260 9999 FEW018 33/17 Q1016=
200908261245 METAR LIRA 261245Z 20009KT 160V280 9999 FEW018 34/18 Q1016=
200908261215 METAR LIRA 261215Z 19008KT 150V270 9999 FEW018 34/18 Q1016=
200908261145 METAR LIRA 261145Z 20007KT 170V260 9999 FEW018 34/14 Q1016=
200908261115 METAR LIRA 261115Z 20006KT 140V270 9999 FEW018 34/12 Q1016=
200908261045 METAR LIRA 261045Z 18003KT 090V200 9999 FEW018 34/12 Q1016=
200908261015 METAR LIRA 261015Z 19007KT 160V260 9999 FEW018 34/13 Q1016=
200908260945 METAR LIRA 260945Z 11004KT 080V250 CAVOK 33/15 Q1016=
200908260915 METAR LIRA 260915Z 23004KT CAVOK 31/17 Q1016=
200908260845 METAR LIRA 260845Z 02003KT CAVOK 30/18 Q1016=
200908260815 METAR LIRA 260815Z 00000KT CAVOK 29/19 Q1016=
200908260745 METAR LIRA 260745Z 00000KT CAVOK 27/20 Q1016=
200908260715 METAR LIRA 260715Z 34002KT CAVOK 26/21 Q1015=
200908260645 METAR LIRA 260645Z 35001KT CAVOK 25/21 Q1015=
200908260615 METAR LIRA 260615Z 01001KT CAVOK 24/21 Q1015=
200908260545 METAR LIRA 260545Z 04002KT CAVOK 23/21 Q1015=
200908260515 METAR LIRA 260515Z 04002KT CAVOK 22/20 Q1015=
200908260445 METAR LIRA 260445Z 05003KT CAVOK 22/19 Q1015=
200908260415 METAR LIRA 260415Z 06003KT CAVOK 22/19 Q1015=
200908260345 METAR LIRA 260345Z 00000KT CAVOK 22/20 Q1015=
200908260315 METAR LIRA 260315Z 00000KT CAVOK 22/20 Q1015=
200908260245 METAR LIRA 260245Z 15004KT CAVOK 22/20 Q1015=
200908260215 METAR LIRA 260215Z 00000KT CAVOK 23/20 Q1014=
200908260145 METAR LIRA 260145Z 00000KT CAVOK 23/21 Q1014=
200908260115 METAR LIRA 260115Z 00000KT CAVOK 23/22 Q1014=
200908260045 METAR LIRA 260045Z 00000KT CAVOK 24/23 Q1014=
200908260015 METAR LIRA 260015Z 29002KT CAVOK 24/23 Q1014=
200908252350 METAR LIRA 260045Z 00000KT CAVOK 24/23 Q1014=
200908252345 METAR LIRA 252345Z 32003KT CAVOK 24/23 Q1014=
200908252315 METAR LIRA 252315Z 04003KT CAVOK 24/23 Q1014=
200908252245 METAR LIRA 252245Z 03003KT CAVOK 25/23 Q1014=
200908252215 METAR LIRA 252215Z 04002KT CAVOK 25/23 Q1014=
200908252145 METAR LIRA 252145Z 05002KT CAVOK 25/23 Q1014=
200908252115 METAR LIRA 252115Z 08002KT CAVOK 25/23 Q1014=
200908252045 METAR LIRA 252045Z 00000KT CAVOK 25/23 Q1014=
200908252015 METAR LIRA 252015Z 21001KT CAVOK 26/24 Q1014=
200908251945 METAR LIRA 251945Z 21003KT CAVOK 26/24 Q1014=
200908251915 METAR LIRA 251915Z 22001KT CAVOK 26/24 Q1014=
200908251845 METAR LIRA 251845Z 23004KT CAVOK 26/24 Q1013=
200908251815 METAR LIRA 251815Z 22005KT CAVOK 27/24 Q1013=
200908251745 METAR LIRA 251745Z 23006KT 190V260 CAVOK 28/23 Q1013=
200908251715 METAR LIRA 251715Z 22008KT 190V260 9999 FEW018 29/23 Q1013=
200908251645 METAR LIRA 251645Z 21006KT 140V250 9999 FEW018 29/22 Q1013=
200908251615 METAR LIRA 251615Z 21007KT 160V260 9999 FEW018 FEW020CB SCT200
                        30/22 Q1013=
200908251545 METAR LIRA 251545Z 22009KT 140V270 9999 FEW018 FEW020CB 31/21
                        Q1013=
200908251515 METAR LIRA 251515Z 19010KT 150V240 9999 FEW018 FEW020CB 31/20
                        Q1013=
200908251445 METAR LIRA 251445Z 21008KT 130V280 9999 FEW018 FEW020CB 31/20
                        Q1013=
200908251415 METAR LIRA 251415Z 23011KT 140V270 9999 FEW018 FEW020CB 32/20
                        Q1013=
200908251345 METAR LIRA 251345Z 19009KT 140V250 9999 FEW018 FEW020CB 32/18
                        Q1013=
200908251315 METAR LIRA 251315Z 20012KT 150V240 9999 FEW017 FEW020CB 32/18
                        Q1013=
200908251245 METAR LIRA 251245Z 17013KT 120V230 9999 FEW017 33/17 Q1013=
200908251215 METAR LIRA 251215Z 19008KT 140V230 9999 FEW017 33/17 Q1013=
200908251145 METAR LIRA 251145Z 16009KT 120V240 9999 SCT017 33/18 Q1013=
200908251115 METAR LIRA 251115Z 20006KT 110V240 9999 SCT015 32/18 Q1013=
200908251045 METAR LIRA 251045Z 18009KT 120V230 9999 SCT015 32/20 Q1013=
200908251015 METAR LIRA 251015Z 15011KT 120V230 9999 SCT015 32/19 Q1013=
200908250945 METAR LIRA 250945Z 17008KT 140V230 9999 SCT014 31/20 Q1013=
200908250915 METAR LIRA 250915Z 16008KT 120V210 9999 SCT014 30/21 Q1013=
200908250845 METAR LIRA 250845Z 19007KT 140V240 9999 SCT013 29/22 Q1013=
200908250815 METAR LIRA 250815Z 20004KT 9999 SCT013 29/22 Q1013=
200908250745 METAR LIRA 250745Z 06002KT 8000 SCT013 28/23 Q1013=
200908250715 METAR LIRA 250715Z 05002KT 8000 SCT010 27/23 Q1013=
200908250645 METAR LIRA 250645Z 03002KT 8000 SKC 26/23 Q1013=
200908250615 METAR LIRA 250615Z 00000KT 8000 SKC 25/22 Q1013=
200908250545 METAR LIRA 250545Z 00000KT 8000 SKC 23/21 Q1012=
200908250515 METAR LIRA 250515Z 00000KT 8000 SKC 22/19 Q1012=
200908250445 METAR LIRA 250445Z 08002KT 8000 FEW022 22/20 Q1011=
200908250415 METAR LIRA 250415Z 06002KT 8000 SKC 22/19 Q1011=
200908250345 METAR LIRA 250345Z 07002KT CAVOK 22/20 Q1011=
200908250315 METAR LIRA 250315Z 17003KT CAVOK 23/21 Q1011=
200908250245 METAR LIRA 250245Z 17003KT CAVOK 23/22 Q1011=
200908250215 METAR LIRA 250215Z 15003KT CAVOK 23/22 Q1011=
200908250145 METAR LIRA 250145Z 15003KT CAVOK 23/19 Q1011=
200908250115 METAR LIRA 250115Z 14005KT CAVOK 23/19 Q1011=
200908250045 METAR LIRA 250045Z 16002KT CAVOK 24/19 Q1011=
200908250015 METAR LIRA 250015Z 18002KT CAVOK 24/19 Q1011=
200908242350 METAR LIRA 250045Z 16002KT CAVOK 24/19 Q1011=
200908242345 METAR LIRA 242345Z 15002KT CAVOK 24/19 Q1011=
200908242315 METAR LIRA 242315Z 14001KT CAVOK 24/19 Q1011=
200908242245 METAR LIRA 242245Z 16002KT CAVOK 24/20 Q1011=
200908242215 METAR LIRA 242215Z 15003KT CAVOK 24/22 Q1011=
200908242145 METAR LIRA 242145Z 00000KT CAVOK 25/23 Q1011=
200908242115 METAR LIRA 242115Z 00000KT CAVOK 25/23 Q1011=
200908242045 METAR LIRA 242045Z 00000KT CAVOK 25/23 Q1011=
200908242015 METAR LIRA 242015Z 22001KT CAVOK 26/24 Q1011=
200908241945 METAR LIRA 241945Z 22002KT CAVOK 26/23 Q1011=
200908241915 METAR LIRA 241915Z 21003KT CAVOK 26/23 Q1011=
200908241845 METAR LIRA 241845Z 21003KT CAVOK 27/24 Q1011=
200908241815 METAR LIRA 241815Z 23003KT 9999 FEW020 28/23 Q1011=
200908241745 METAR LIRA 241745Z 26004KT 9999 FEW020 28/23 Q1011=
200908241715 METAR LIRA 241715Z 24006KT 200V280 9999 FEW020 FEW022CB 29/23
                        Q1011=
200908241645 METAR LIRA 241645Z 21007KT 160V270 9999 FEW020 FEW022CB 30/21
                        Q1011=
200908241615 METAR LIRA 241615Z 23008KT 160V250 9999 FEW020 FEW022CB 30/21
                        Q1011=
200908241545 METAR LIRA 241545Z 22007KT 160V320 9999 FEW020 FEW022CB 31/22
                        Q1011=
200908241515 METAR LIRA 241515Z 23008KT 160V280 9999 FEW020 FEW022CB 32/21
                        Q1011=
200908241445 METAR LIRA 241445Z 22008KT 150V270 9999 FEW023 33/19 Q1011=
200908241415 METAR LIRA 241415Z 23008KT 170V300 9999 FEW023 33/19 Q1011=
200908241345 METAR LIRA 241345Z 23007KT 150V280 9999 FEW023 33/19 Q1012=
200908241315 METAR LIRA 241315Z 22008KT 160V280 9999 FEW023 33/19 Q1012=
200908241245 METAR LIRA 241245Z 21008KT 190V270 9999 FEW023 34/18 Q1012=
200908241215 METAR LIRA 241215Z 22005KT 160V260 9999 FEW023 33/17 Q1012=
200908241145 METAR LIRA 241145Z 22006KT 150V290 9999 FEW023 34/18 Q1012=
200908241115 METAR LIRA 241115Z 22007KT 180V260 9999 FEW023 34/16 Q1012=
200908241045 METAR LIRA 241045Z 20007KT 150V240 9999 FEW023 34/17 Q1012=
200908241015 METAR LIRA 241015Z 24002KT CAVOK 33/16 Q1012=
200908240945 METAR LIRA 240945Z 08002KT CAVOK 32/17 Q1012=
200908240915 METAR LIRA 240915Z 01002KT CAVOK 31/17 Q1012=
200908240845 METAR LIRA 240845Z 01004KT CAVOK 30/20 Q1012=
200908240815 METAR LIRA 240815Z 34005KT CAVOK 28/18 Q1012=
200908240745 METAR LIRA 240745Z 02004KT CAVOK 27/19 Q1012=
200908240715 METAR LIRA 240715Z 03004KT 350V060 CAVOK 26/19 Q1012=
200908240645 METAR LIRA 240645Z 01005KT 340V070 CAVOK 24/19 Q1012=
200908240615 METAR LIRA 240615Z 01005KT CAVOK 23/19 Q1012=
200908240545 METAR LIRA 240545Z 03005KT 010V070 CAVOK 22/18 Q1012=
200908240445 METAR LIRA 240445Z 02003KT CAVOK 21/17 Q1012=
200908240045 METAR LIRA 240045Z 34003KT CAVOK 23/18 Q1013=
200908240015 METAR LIRA 240015Z 04001KT CAVOK 23/18 Q1013=
200908232350 METAR LIRA 240045Z 34003KT CAVOK 23/18 Q1013=
200908232345 METAR LIRA 232345Z 06001KT CAVOK 23/18 Q1013=
200908232315 METAR LIRA 232315Z 05003KT CAVOK 24/18 Q1013=
200908232245 METAR LIRA 232245Z 05006KT CAVOK 24/18 Q1013=
200908232215 METAR LIRA 232215Z 04005KT CAVOK 24/17 Q1013=
200908232145 METAR LIRA 232145Z 03004KT 9999 FEW080 25/18 Q1013=
200908232115 METAR LIRA 232115Z 01003KT 9999 SCT080 26/18 Q1013=
200908232045 METAR LIRA 232045Z 01001KT CAVOK 26/16 Q1013=
200908232015 METAR LIRA 232015Z 29001KT 9999 FEW070 27/16 Q1013=
200908231945 METAR LIRA 231945Z 08004KT 9999 FEW025 SCT070 27/17 Q1013=
200908231915 METAR LIRA 231915Z 06008KT 350V100 9999 FEW020TCU SCT080
                        27/17 Q1013=
200908231845 METAR LIRA 231845Z 04007KT 330V080 9999 FEW018 FEW020TCU
                        SCT080 27/17 Q1013=
200908231815 METAR LIRA 231815Z 05011KT 340V110 9999 FEW018 FEW020CB SCT080
                        28/17 Q1013=
200908231745 METAR LIRA 231745Z 05001KT 9999 FEW018 FEW020CB SCT080 30/18
                        Q1013=
200908231715 METAR LIRA 231715Z 08005KT 050V130 9999 FEW018 FEW020CB SCT080
                        30/18 Q1012=
200908231645 METAR LIRA 231645Z 04009KT 330V120 9999 FEW018 FEW020TCU
                        SCT070 30/18 Q1012=
200908231615 METAR LIRA 231615Z 18006KT 120V240 9999 FEW018 FEW020TCU
                        SCT080 32/20 Q1012=
200908231545 METAR LIRA 231545Z 20006KT 140V260 9999 FEW018 FEW020TCU
                        32/20 Q1012=
200908231515 METAR LIRA 231515Z 21010KT 150V250 9999 FEW018 FEW020TCU
                        32/20 Q1012=
200908231445 METAR LIRA 231445Z 22009KT 150V260 9999 FEW018 FEW020TCU
                        32/20 Q1012=
200908231415 METAR LIRA 231415Z 21008KT 150V260 9999 FEW018 FEW020TCU
                        33/21 Q1012=
200908231345 METAR LIRA 231345Z 24010KT 190V280 9999 FEW018 FEW020TCU
                        33/21 Q1012=
200908231315 METAR LIRA 231315Z 22008KT 160V260 9999 FEW018 FEW020TCU
                        33/23 Q1013=
200908231245 METAR LIRA 231245Z 21010KT 150V270 9999 FEW018 FEW020TCU
                        33/23 Q1013=
200908231215 METAR LIRA 231215Z 23009KT 180V250 9999 FEW018 FEW020TCU
                        34/23 Q1013=
200908231145 METAR LIRA 231145Z 20008KT 160V250 9999 FEW018 34/23 Q1013=
200908231115 METAR LIRA 231115Z 14002KT 120V210 9999 FEW018 35/14 Q1013=
200908231045 METAR LIRA 231045Z 08003KT 150V280 9999 FEW018 34/13 Q1014=
200908231015 METAR LIRA 231015Z 17005KT 120V230 9999 FEW018 34/13 Q1014=
200908230945 METAR LIRA 230945Z 28005KT 180V280 9999 FEW018 33/12 Q1014=
200908230915 METAR LIRA 230915Z 30002KT 9999 FEW018 32/13 Q1014=
200908230845 METAR LIRA 230845Z 30002KT CAVOK 31/13 Q1014=
200908230815 METAR LIRA 230815Z 30002KT CAVOK 29/12 Q1014=
200908230715 METAR LIRA 230715Z 34001KT CAVOK 25/13 Q1013=
200908230645 METAR LIRA 230645Z 35002KT CAVOK 24/12 Q1013=
200908230615 METAR LIRA 230615Z 02003KT CAVOK 23/12 Q1013=
200908230545 METAR LIRA 230545Z 34003KT CAVOK 22/15 Q1013=
200908230515 METAR LIRA 230515Z 05001KT CAVOK 22/15 Q1013=
200908230445 METAR LIRA 230445Z 05003KT CAVOK 21/14 Q1013=
200908230415 METAR LIRA 230415Z 01002KT CAVOK 22/16 Q1013=
200908230345 METAR LIRA 230345Z 01003KT CAVOK 22/19 Q1013=
200908230315 METAR LIRA 230315Z 06002KT CAVOK 23/19 Q1013=
200908230245 METAR LIRA 230245Z 05004KT CAVOK 23/20 Q1013=
200908230215 METAR LIRA 230215Z 08002KT CAVOK 23/21 Q1013=
200908230145 METAR LIRA 230145Z 14003KT CAVOK 24/23 Q1013=
200908230115 METAR LIRA 230115Z 15003KT CAVOK 24/23 Q1013=
200908230045 METAR LIRA 230045Z 14004KT CAVOK 24/22 Q1013=
200908230015 METAR LIRA 230015Z 18003KT CAVOK 25/23 Q1013=
200908222350 METAR LIRA 230045Z 14004KT CAVOK 24/22 Q1013=
200908222345 METAR LIRA 222345Z 17002KT CAVOK 25/20 Q1014=
200908222315 METAR LIRA 222315Z 15003KT CAVOK 25/20 Q1014=
200908222245 METAR LIRA 222245Z 18004KT CAVOK 25/21 Q1014=
200908222215 METAR LIRA 222215Z 18003KT CAVOK 26/19 Q1014=
200908222145 METAR LIRA 222145Z 15003KT CAVOK 26/19 Q1014=
200908222115 METAR LIRA 222115Z 19004KT CAVOK 27/20 Q1014=
200908222045 METAR LIRA 222045Z 20004KT CAVOK 28/17 Q1014=
200908222015 METAR LIRA 222015Z 18003KT CAVOK 28/17 Q1013=
200908221945 METAR LIRA 221945Z 18003KT CAVOK 28/18 Q1013=
200908221915 METAR LIRA 221915Z 17005KT CAVOK 28/18 Q1013=
200908221845 METAR LIRA 221845Z 17005KT CAVOK 28/18 Q1013=
200908221815 METAR LIRA 221815Z 21005KT CAVOK 29/19 Q1013=
200908221745 METAR LIRA 221745Z /////KT CAVOK 30/16 Q1013=
200908221715 METAR LIRA 221715Z /////KT CAVOK 32/10 Q1013=
200908221645 METAR LIRA 221645Z /////KT 9999 FEW018 34/09 Q1013=
200908221615 METAR LIRA 221615Z /////KT 9999 FEW018 35/07 Q1013=
200908221545 METAR LIRA 221545Z /////KT 9999 FEW018 35/07 Q1013=
200908221515 METAR LIRA 221515Z /////KT 9999 FEW018 35/07 Q1013=
200908221445 METAR LIRA 221445Z /////KT 9999 FEW018 35/07 Q1013=
200908221345 METAR LIRA 221345Z 28013KT 210V330 9999 FEW018 36/10 Q1014=
200908221315 METAR LIRA 221315Z 27009KT 210V330 9999 FEW018 36/09 Q1014=
200908221245 METAR LIRA 221245Z 29010KT 240V300 9999 FEW018 36/08 Q1014=
200908221215 METAR LIRA 221215Z 26005KT 250V030 9999 FEW015 37/08 Q1014=
200908221145 METAR LIRA 221145Z 01003KT 290V080 9999 FEW015 37/08 Q1014=
200908221115 METAR LIRA 221115Z 29007KT 260V070 9999 FEW015 36/07 Q1015=
200908221045 METAR LIRA 221045Z 31008KT 250V030 9999 FEW015 35/09 Q1015=
200908221015 METAR LIRA 221015Z 35005KT 280V040 9999 FEW015 34/11 Q1015=
200908220945 METAR LIRA 220945Z 36006KT 270V040 CAVOK 32/13 Q1015=
200908220915 METAR LIRA 220915Z 36004KT CAVOK 32/15 Q1015=
200908220845 METAR LIRA 220845Z 02003KT CAVOK 30/14 Q1015=
200908220815 METAR LIRA 220815Z 34003KT CAVOK 29/15 Q1015=
200908220745 METAR LIRA 220745Z 35004KT 310V040 CAVOK 29/16 Q1015=
200908220715 METAR LIRA 220715Z 03003KT CAVOK 27/17 Q1015=
200908220645 METAR LIRA 220645Z 02004KT CAVOK 25/17 Q1015=
200908220615 METAR LIRA 220615Z 35003KT CAVOK 23/16 Q1015=
200908220545 METAR LIRA 220545Z 36002KT CAVOK 23/16 Q1015=
200908220515 METAR LIRA 220515Z 36001KT CAVOK 22/16 Q1015=
200908220445 METAR LIRA 220445Z 04004KT 9999 FEW018 22/16 Q1015=
200908220415 METAR LIRA 220415Z 03004KT 9999 FEW018 22/16 Q1015=
200908220345 METAR LIRA 220345Z 03003KT CAVOK 22/15 Q1015=
200908220315 METAR LIRA 220315Z 03003KT CAVOK 22/15 Q1015=
200908220245 METAR LIRA 220245Z 36002KT 9999 FEW070 22/15 Q1015=
200908220215 METAR LIRA 220215Z 02002KT 9999 FEW070 22/15 Q1015=
200908220145 METAR LIRA 220145Z 07002KT 9999 FEW070 23/15 Q1015=
200908220115 METAR LIRA 220115Z 06002KT 9999 FEW070 23/16 Q1015=
200908220045 METAR LIRA 220045Z 07003KT 9999 FEW070 23/17 Q1015=
200908220015 METAR LIRA 220015Z 00000KT 9999 FEW070 24/23 Q1016=
200908212350 METAR LIRA 220045Z 07003KT 9999 FEW070 23/17 Q1015=
200908212345 METAR LIRA 212345Z 15001KT 9999 FEW070 25/22 Q1016=
200908212315 METAR LIRA 212315Z 18003KT 9999 FEW070 25/23 Q1016=
200908212245 METAR LIRA 212245Z 15003KT 9999 FEW070 25/23 Q1016=
200908212215 METAR LIRA 212215Z 16004KT 9999 FEW070 26/24 Q1016=
200908212145 METAR LIRA 212145Z 15004KT 9999 FEW070 26/24 Q1016=
200908212115 METAR LIRA 212115Z 17004KT 9999 FEW070 26/23 Q1016=
200908212045 METAR LIRA 212045Z 15006KT 9999 FEW070 26/23 Q1016=
200908212015 METAR LIRA 212015Z 18006KT 150V230 9999 FEW070 27/21 Q1016=
200908211945 METAR LIRA 211945Z 19007KT 9999 FEW070 27/19 Q1016=
200908211915 METAR LIRA 211915Z 17006KT 9999 FEW070 28/18 Q1016=
200908211845 METAR LIRA 211845Z 17007KT 9999 FEW070 28/18 Q1016=
200908211815 METAR LIRA 211815Z 19007KT 9999 FEW070 29/17 Q1016=
200908211745 METAR LIRA 211745Z 21005KT 9999 FEW070 30/16 Q1016=
200908211715 METAR LIRA 211715Z 21005KT 150V260 9999 FEW020 31/15 Q1016=
200908211645 METAR LIRA 211645Z 23008KT 180V280 9999 FEW020 32/16 Q1016=
200908211615 METAR LIRA 211615Z 22010KT 170V280 9999 FEW020 33/16 Q1016=
200908211545 METAR LIRA 211545Z 26008KT 180V320 9999 FEW022 34/15 Q1016=
200908211515 METAR LIRA 211515Z 24009KT 190V330 9999 FEW022 34/16 Q1016=
200908211445 METAR LIRA 211445Z 26009KT 200V310 9999 FEW022 34/17 Q1016=
200908211415 METAR LIRA 211415Z 27011KT 210V310 9999 FEW022 35/16 Q1017=
200908211345 METAR LIRA 211345Z 26011KT 190V310 9999 FEW022 35/16 Q1017=
200908211315 METAR LIRA 211315Z 24008KT 180V310 9999 FEW022 35/17 Q1017=
200908211245 METAR LIRA 211245Z 25008KT 200V340 9999 FEW022 35/17 Q1017=
200908211215 METAR LIRA 211215Z 28010KT 210V330 9999 FEW022 37/15 Q1017=
200908211145 METAR LIRA 211145Z 35004KT 300V050 9999 FEW022 36/14 Q1018=
200908211115 METAR LIRA 211115Z 36003KT CAVOK 36/14 Q1018=
200908211045 METAR LIRA 211045Z 30006KT CAVOK 36/15 Q1018=
200908211015 METAR LIRA 211015Z 15004KT 120V200 CAVOK 35/16 Q1018=
200908210945 METAR LIRA 210945Z 27005KT 230V310 CAVOK 34/16 Q1018=
200908210915 METAR LIRA 210915Z 00000KT CAVOK 33/16 Q1018=
200908210845 METAR LIRA 210845Z 35001KT CAVOK 31/15 Q1018=
200908210815 METAR LIRA 210815Z 34004KT CAVOK 30/15 Q1018=
200908210745 METAR LIRA 210745Z 02002KT CAVOK 30/16 Q1018=
200908210715 METAR LIRA 210715Z 03002KT CAVOK 28/16 Q1018=
200908210645 METAR LIRA 210645Z 05003KT CAVOK 26/15 Q1018=
200908210615 METAR LIRA 210615Z 02003KT CAVOK 24/15 Q1018=
200908210545 METAR LIRA 210545Z 04002KT CAVOK 23/16 Q1018=
200908210515 METAR LIRA 210515Z 03004KT CAVOK 22/15 Q1017=
200908210445 METAR LIRA 210445Z 05006KT CAVOK 21/15 Q1017=
200908210415 METAR LIRA 210415Z 33002KT CAVOK 21/14 Q1017=
200908210345 METAR LIRA 210345Z 00000KT CAVOK 22/13 Q1017=
200908210315 METAR LIRA 210315Z 00000KT CAVOK 22/13 Q1017=
200908210245 METAR LIRA 210245Z 00000KT CAVOK 22/13 Q1017=
200908210215 METAR LIRA 210215Z 03001KT CAVOK 23/13 Q1017=
200908210145 METAR LIRA 210145Z 04003KT CAVOK 23/13 Q1018=
200908210115 METAR LIRA 210115Z 05003KT CAVOK 23/13 Q1018=
200908210045 METAR LIRA 210045Z 06002KT CAVOK 23/12 Q1018=
200908210015 METAR LIRA 210015Z 05002KT CAVOK 25/13 Q1018=
200908202350 METAR LIRA 210045Z 06002KT CAVOK 23/12 Q1018=
200908202315 METAR LIRA 202315Z 03002KT CAVOK 25/14 Q1019=
200908202245 METAR LIRA 202245Z 00000KT CAVOK 25/13 Q1019=
200908202215 METAR LIRA 202215Z 00000KT CAVOK 26/13 Q1019=
200908202145 METAR LIRA 202145Z 15004KT CAVOK 27/14 Q1019=
200908202115 METAR LIRA 202115Z 15004KT CAVOK 27/14 Q1019=
200908202045 METAR LIRA 202045Z 13002KT 9999 FEW070 28/14 Q1019=
200908202015 METAR LIRA 202015Z 17003KT 9999 FEW070 28/15 Q1019=
200908201945 METAR LIRA 201945Z 00000KT 9999 FEW070 28/17 Q1019=
200908201915 METAR LIRA 201915Z 22001KT 9999 FEW070 28/16 Q1019=
200908201845 METAR LIRA 201845Z 17004KT 9999 FEW070 30/17 Q1018=
200908201815 METAR LIRA 201815Z 21002KT 9999 FEW020 30/16 Q1018=
200908201745 METAR LIRA 201745Z 22004KT 9999 FEW022 31/16 Q1018=
200908201715 METAR LIRA 201715Z 24006KT 200V280 9999 FEW022 32/16 Q1018=
200908201645 METAR LIRA 201645Z 26005KT 210V340 9999 FEW022 33/15 Q1018=
200908201615 METAR LIRA 201615Z 23006KT 190V300 9999 FEW023 33/15 Q1019=
200908201545 METAR LIRA 201545Z 27007KT 210V310 9999 FEW023 34/13 Q1019=
200908201515 METAR LIRA 201515Z 25005KT 170V300 9999 FEW023 35/14 Q1019=
200908201445 METAR LIRA 201445Z 23008KT 200V280 9999 FEW023 35/13 Q1019=
200908201415 METAR LIRA 201415Z 23009KT 180V280 9999 FEW023 35/13 Q1019=
200908201345 METAR LIRA 201345Z 24010KT 170V290 9999 FEW023 36/13 Q1019=
200908201315 METAR LIRA 201315Z 24010KT 180V310 9999 FEW020 36/13 Q1019=
200908201245 METAR LIRA 201245Z 25011KT 200V300 9999 FEW020 37/13 Q1020=
200908201215 METAR LIRA 201215Z 25005KT 190V310 9999 FEW020 36/13 Q1020=
200908201145 METAR LIRA 201145Z 27005KT 220V310 9999 FEW020 37/13 Q1020=
200908201115 METAR LIRA 201115Z 25003KT 9999 FEW020 36/12 Q1020=
200908201045 METAR LIRA 201045Z 28004KT 230V360 9999 FEW020 36/13 Q1020=
200908201015 METAR LIRA 201015Z 31003KT 9999 FEW020 36/13 Q1020=
200908200945 METAR LIRA 200945Z 03001KT CAVOK 35/13 Q1020=
200908200845 METAR LIRA 200845Z 34002KT CAVOK 33/15 Q1020=
200908200815 METAR LIRA 200815Z 36005KT 330V050 CAVOK 32/16 Q1020=
200908200745 METAR LIRA 200745Z 02004KT CAVOK 30/16 Q1020=
200908200715 METAR LIRA 200715Z 02005KT 330V080 CAVOK 29/16 Q1020=
200908200645 METAR LIRA 200645Z 34004KT CAVOK 28/18 Q1020=
200908200615 METAR LIRA 200615Z 34002KT CAVOK 26/18 Q1019=
200908200545 METAR LIRA 200545Z 35002KT CAVOK 24/16 Q1019=
200908200515 METAR LIRA 200515Z 01003KT CAVOK 23/16 Q1019=
200908200445 METAR LIRA 200445Z 02001KT CAVOK 23/16 Q1019=
200908200415 METAR LIRA 200415Z 05003KT CAVOK 23/16 Q1019=
200908200345 METAR LIRA 200345Z 03002KT CAVOK 23/16 Q1019=
200908200315 METAR LIRA 200315Z 00000KT CAVOK 23/16 Q1019=
200908200245 METAR LIRA 200245Z 00000KT CAVOK 23/16 Q1019=
200908200215 METAR LIRA 200215Z 00000KT CAVOK 23/16 Q1019=
200908200145 METAR LIRA 200145Z 33002KT CAVOK 24/15 Q1019=
200908200115 METAR LIRA 200115Z 32002KT CAVOK 24/15 Q1019=
200908200045 METAR LIRA 200045Z 10003KT CAVOK 25/15 Q1019=
200908200015 METAR LIRA 200015Z 01003KT CAVOK 25/16 Q1019=
200908192350 METAR LIRA 200045Z 10003KT CAVOK 25/15 Q1019=
200908192345 METAR LIRA 192345Z 11002KT CAVOK 26/15 Q1019=
200908192315 METAR LIRA 192315Z 09002KT CAVOK 25/15 Q1019=
200908192245 METAR LIRA 192245Z 07002KT CAVOK 25/15 Q1019=
200908192215 METAR LIRA 192215Z 10003KT CAVOK 26/16 Q1019=
200908192145 METAR LIRA 192145Z 00000KT CAVOK 26/16 Q1019=
200908192115 METAR LIRA 192115Z 00000KT CAVOK 27/16 Q1019=
200908192045 METAR LIRA 192045Z 14003KT CAVOK 28/16 Q1019=
200908192015 METAR LIRA 192015Z 16004KT 9999 FEW060 29/17 Q1019=
200908191945 METAR LIRA 191945Z 17003KT 9999 FEW060 28/18 Q1019=
200908191915 METAR LIRA 191915Z 00000KT 9999 FEW030 29/19 Q1019=
200908191845 METAR LIRA 191845Z 00000KT 9999 FEW030 30/19 Q1018=
200908191815 METAR LIRA 191815Z 19003KT 9999 FEW030 31/19 Q1018=
200908191745 METAR LIRA 191745Z 20003KT 9999 FEW030 31/18 Q1018=
200908191715 METAR LIRA 191715Z 24004KT 9999 SCT030 32/16 Q1018=
200908191645 METAR LIRA 191645Z 28008KT 240V320 9999 SCT030 33/14 Q1018=
200908191615 METAR LIRA 191615Z 23008KT 190V300 9999 SCT025 34/14 Q1018=
200908191545 METAR LIRA 191545Z 25007KT 190V300 9999 FEW018 34/13 Q1018=
200908191515 METAR LIRA 191515Z 23009KT 190V290 9999 SCT018 34/13 Q1018=
200908191445 METAR LIRA 191445Z 24009KT 200V310 9999 SCT018 35/18 Q1018=
200908191415 METAR LIRA 191415Z 24009KT 200V300 9999 SCT020 35/14 Q1019=
200908191345 METAR LIRA 191345Z 25008KT 180V300 9999 SCT020 35/14 Q1019=
200908191315 METAR LIRA 191315Z 25009KT 190V340 9999 SCT020 36/14 Q1019=
200908191245 METAR LIRA 191245Z 26008KT 190V340 9999 SCT020 36/13 Q1019=
200908191215 METAR LIRA 191215Z 26010G21KT 190V340 9999 SCT022 36/14 Q1019=
200908191145 METAR LIRA 191145Z 27005KT 210V320 9999 FEW022 37/15 Q1019=
200908191115 METAR LIRA 191115Z 15003KT 160V270 9999 FEW022 37/15 Q1019=
200908191045 METAR LIRA 191045Z 25004KT 220V340 9999 FEW022 36/14 Q1019=
200908191015 METAR LIRA 191015Z 19003KT 9999 FEW022 36/14 Q1019=
200908190945 METAR LIRA 190945Z 34003KT 9999 FEW022 34/16 Q1019=
200908190915 METAR LIRA 190915Z 34003KT 9999 FEW022 33/17 Q1019=
200908190845 METAR LIRA 190845Z 34003KT CAVOK 33/17 Q1019=
200908190815 METAR LIRA 190815Z 01001KT CAVOK 32/18 Q1019=
200908190745 METAR LIRA 190745Z 35001KT CAVOK 29/18 Q1019=
200908190715 METAR LIRA 190715Z 29001KT CAVOK 28/19 Q1019=
200908190645 METAR LIRA 190645Z 00000KT CAVOK 26/19 Q1019=
200908190615 METAR LIRA 190615Z 02002KT CAVOK 25/18 Q1018=
200908190545 METAR LIRA 190545Z 36001KT CAVOK 23/18 Q1018=
200908190515 METAR LIRA 190515Z 36001KT CAVOK 23/18 Q1018=
200908190445 METAR LIRA 190445Z 01001KT CAVOK 23/18 Q1018=
200908190415 METAR LIRA 190415Z 05001KT CAVOK 23/17 Q1017=
200908190345 METAR LIRA 190345Z 10001KT CAVOK 23/16 Q1017=
200908190315 METAR LIRA 190315Z 00000KT CAVOK 23/16 Q1017=
200908190245 METAR LIRA 190245Z 15002KT CAVOK 23/17 Q1017=
200908190215 METAR LIRA 190215Z 00000KT CAVOK 23/19 Q1017=
200908190145 METAR LIRA 190145Z 00000KT CAVOK 24/19 Q1017=
200908190115 METAR LIRA 190115Z 17001KT CAVOK 24/21 Q1017=
200908190045 METAR LIRA 190045Z 16002KT CAVOK 24/21 Q1018=
200908190015 METAR LIRA 190015Z 17002KT CAVOK 25/22 Q1018=
200908182350 METAR LIRA 190045Z 16002KT CAVOK 24/21 Q1018=
200908182345 METAR LIRA 182345Z 15004KT CAVOK 25/22 Q1018=
200908182315 METAR LIRA 182315Z 15004KT CAVOK 25/23 Q1018=
200908182245 METAR LIRA 182245Z 18004KT CAVOK 25/24 Q1018=
200908182215 METAR LIRA 182215Z 16004KT CAVOK 25/23 Q1018=
200908182145 METAR LIRA 182145Z 18004KT CAVOK 26/23 Q1017=
200908182115 METAR LIRA 182115Z 20004KT CAVOK 26/22 Q1017=
200908182045 METAR LIRA 182045Z 20005KT CAVOK 27/21 Q1017=
200908182015 METAR LIRA 182015Z 20004KT CAVOK 27/21 Q1017=
200908181945 METAR LIRA 181945Z 20005KT 170V230 CAVOK 28/20 Q1017=
200908181915 METAR LIRA 181915Z 17004KT CAVOK 29/19 Q1016=
200908181845 METAR LIRA 181845Z 17005KT 140V200 9999 FEW030 29/18 Q1016=
200908181815 METAR LIRA 181815Z 19004KT 9999 FEW020TCU 30/18 Q1016=
200908181745 METAR LIRA 181745Z 21005KT 9999 FEW020TCU 30/17 Q1016=
200908181715 METAR LIRA 181715Z 23006KT 190V270 9999 FEW020 31/17 Q1015=
200908181645 METAR LIRA 181645Z 24006KT 190V310 9999 FEW020 32/16 Q1015=
200908181615 METAR LIRA 181615Z 25007KT 180V340 9999 FEW020 33/16 Q1015=
200908181545 METAR LIRA 181545Z 23010KT 200V280 9999 FEW020 33/16 Q1015=
200908181515 METAR LIRA 181515Z 26008KT 170V310 9999 FEW020 34/16 Q1015=
200908181445 METAR LIRA 181445Z 26009KT 210V310 9999 FEW020 34/16 Q1015=
200908181415 METAR LIRA 181415Z 26010KT 200V320 9999 FEW020 35/16 Q1015=
200908181345 METAR LIRA 181345Z 25010KT 210V310 9999 FEW020 35/16 Q1015=
200908181315 METAR LIRA 181315Z 26010KT 220V310 9999 FEW020 35/16 Q1015=
200908181245 METAR LIRA 181245Z 29011KT 230V360 9999 FEW020 35/17 Q1015=
200908181215 METAR LIRA 181215Z 07004KT 280V050 9999 FEW020 35/15 Q1016=
200908181145 METAR LIRA 181145Z 31003KT 260V340 9999 FEW020 35/13 Q1016=
200908181115 METAR LIRA 181115Z 31006KT 250V360 9999 FEW020 35/14 Q1016=
200908181045 METAR LIRA 181045Z 31005KT 270V020 9999 FEW020 34/13 Q1015=
200908181015 METAR LIRA 181015Z 34005KT 280V040 9999 FEW020 34/14 Q1016=
200908180945 METAR LIRA 180945Z 34005KT 300V040 CAVOK 33/15 Q1016=
200908180915 METAR LIRA 180915Z 36004KT 310V030 CAVOK 32/14 Q1016=
200908180845 METAR LIRA 180845Z 01004KT 300V080 CAVOK 31/15 Q1016=
200908180815 METAR LIRA 180815Z 01005KT 300V110 CAVOK 30/15 Q1016=
200908180745 METAR LIRA 180745Z 02005KT 310V090 CAVOK 29/16 Q1016=
200908180715 METAR LIRA 180715Z 04005KT CAVOK 28/16 Q1016=
200908180645 METAR LIRA 180645Z 02005KT CAVOK 26/16 Q1015=
200908180615 METAR LIRA 180615Z 02004KT CAVOK 24/17 Q1015=
200908180545 METAR LIRA 180545Z 02003KT CAVOK 23/17 Q1015=
200908180515 METAR LIRA 180515Z 03004KT CAVOK 22/17 Q1014=
200908180445 METAR LIRA 180445Z 03005KT 350V090 CAVOK 22/17 Q1014=
200908180415 METAR LIRA 180415Z 03003KT CAVOK 21/17 Q1014=
200908180345 METAR LIRA 180345Z 36003KT CAVOK 22/18 Q1014=
200908180315 METAR LIRA 180315Z 24003KT CAVOK 22/18 Q1014=
200908180245 METAR LIRA 180245Z 04003KT CAVOK 23/18 Q1014=
200908180215 METAR LIRA 180215Z 04003KT CAVOK 23/19 Q1014=
200908180145 METAR LIRA 180145Z 04003KT CAVOK 23/17 Q1014=
200908180115 METAR LIRA 180115Z 04003KT CAVOK 23/17 Q1014=
200908180045 METAR LIRA 180045Z 00000KT CAVOK 23/17 Q1014=
200908180015 METAR LIRA 180015Z 00000KT CAVOK 24/18 Q1014=
200908172350 METAR LIRA 180045Z 00000KT CAVOK 23/17 Q1014=
200908172345 METAR LIRA 172345Z 00000KT CAVOK 24/19 Q1014=
200908172315 METAR LIRA 172315Z 00000KT CAVOK 24/21 Q1014=
200908172245 METAR LIRA 172245Z 19001KT CAVOK 25/22 Q1014=
200908172215 METAR LIRA 172215Z 14004KT CAVOK 25/23 Q1014=
200908172145 METAR LIRA 172145Z 18004KT CAVOK 26/24 Q1014=
200908172115 METAR LIRA 172115Z 19003KT CAVOK 26/23 Q1014=
200908172045 METAR LIRA 172045Z 19004KT CAVOK 26/23 Q1014=
200908172015 METAR LIRA 172015Z 17005KT CAVOK 26/23 Q1014=
200908171945 METAR LIRA 171945Z 16004KT CAVOK 27/23 Q1014=
200908171915 METAR LIRA 171915Z 21003KT CAVOK 27/22 Q1014=
200908171845 METAR LIRA 171845Z 21004KT CAVOK 27/21 Q1014=
200908171815 METAR LIRA 171815Z 19005KT 150V230 CAVOK 29/20 Q1014=
200908171745 METAR LIRA 171745Z 24005KT 200V280 9999 FEW018 30/18 Q1014=
200908171715 METAR LIRA 171715Z 24006KT 180V290 9999 FEW018 31/19 Q1014=
200908171645 METAR LIRA 171645Z 24006KT 190V330 9999 FEW018 SCT070 31/18
                        Q1014=
200908171615 METAR LIRA 171615Z 24008KT 200V320 9999 FEW018 FEW020CB 32/17
                        Q1014=
200908171545 METAR LIRA 171545Z 26007KT 160V350 9999 FEW018 FEW020CB 34/16
                        Q1014=
200908171515 METAR LIRA 171515Z 26010KT 210V330 9999 FEW018 FEW020CB 31/14
                        Q1014=
200908171445 METAR LIRA 171445Z 25010KT 200V320 9999 FEW018 FEW020CB 34/15
                        Q1014=
200908171415 METAR LIRA 171415Z 26012KT 200V310 9999 FEW018 FEW020CB 34/13
                        Q1014=
200908171345 METAR LIRA 171345Z 27012KT 220V310 9999 FEW018 FEW020CB 35/14
                        Q1014=
200908171315 METAR LIRA 171315Z 25010KT 210V320 9999 FEW018 FEW020CB 35/15
                        Q1014=
200908171245 METAR LIRA 171245Z 25009KT 190V300 9999 FEW018 FEW020CB 35/16
                        Q1014=
200908171215 METAR LIRA 171215Z 26008KT 210V310 9999 FEW018 FEW020CB 35/16
                        Q1014=
200908171145 METAR LIRA 171145Z 27009KT 190V320 9999 FEW018 35/17 Q1014=
200908171115 METAR LIRA 171115Z 29008KT 220V010 9999 FEW018 35/16 Q1014=
200908171045 METAR LIRA 171045Z 25004KT 200V300 9999 FEW018 35/16 Q1015=
200908171015 METAR LIRA 171015Z 31005KT 250V330 9999 FEW018 34/16 Q1015=
200908170945 METAR LIRA 170945Z 29004KT 9999 FEW018 33/16 Q1015=
200908170915 METAR LIRA 170915Z 33004KT 260V360 CAVOK 31/17 Q1015=
200908170845 METAR LIRA 170845Z 31004KT 9999 FEW070 31/19 Q1015=
200908170815 METAR LIRA 170815Z 34003KT 9999 FEW070 30/19 Q1015=
200908170745 METAR LIRA 170745Z 31004KT 9999 FEW070 27/19 Q1015=
200908170715 METAR LIRA 170715Z 32004KT 9999 FEW070 27/20 Q1014=
200908170645 METAR LIRA 170645Z 34003KT 9999 FEW070 26/19 Q1014=
200908170615 METAR LIRA 170615Z 03004KT 9999 FEW070 24/18 Q1014=
200908170545 METAR LIRA 170545Z 03003KT 9999 FEW070 24/19 Q1014=
200908170515 METAR LIRA 170515Z 03004KT 360V100 9999 FEW070 24/18 Q1014=
200908170445 METAR LIRA 170445Z 01003KT 9999 FEW070 23/18 Q1014=
200908170415 METAR LIRA 170415Z 01003KT 9999 FEW070 23/17 Q1014=
200908170345 METAR LIRA 170345Z 01003KT 9999 FEW070 23/16 Q1014=
200908170315 METAR LIRA 170315Z 02002KT 9999 FEW070 23/16 Q1014=
200908170245 METAR LIRA 170245Z 00000KT 9999 FEW020 23/18 Q1015=
200908170215 METAR LIRA 170215Z 00000KT 9999 FEW020 24/19 Q1015=
200908170145 METAR LIRA 170145Z 00000KT 9999 FEW020 24/19 Q1015=
200908170115 METAR LIRA 170115Z 18001KT 9999 FEW025 24/18 Q1015=
200908170045 METAR LIRA 170045Z 00000KT 9999 FEW025 25/19 Q1015=
200908170015 METAR LIRA 170015Z 00000KT 9999 FEW025 25/19 Q1015=
200908162350 METAR LIRA 170045Z 00000KT 9999 FEW025 25/19 Q1015=
200908162345 METAR LIRA 162345Z 18002KT 9999 FEW025 26/18 Q1016=
200908162315 METAR LIRA 162315Z 23001KT 9999 FEW025 26/18 Q1016=
200908162245 METAR LIRA 162245Z 19003KT 9999 FEW025 27/18 Q1016=
200908162215 METAR LIRA 162215Z 17003KT 9999 FEW025 27/18 Q1016=
200908162145 METAR LIRA 162145Z 17004KT 9999 FEW020 27/17 Q1016=
200908162115 METAR LIRA 162115Z 16004KT 9999 FEW020 27/17 Q1016=
200908162045 METAR LIRA 162045Z 19004KT 9999 FEW020 27/17 Q1016=
200908162015 METAR LIRA 162015Z 19003KT 9999 FEW020 27/17 Q1016=
200908161945 METAR LIRA 161945Z 19004KT 9999 FEW020 27/17 Q1015=
200908161915 METAR LIRA 161915Z 19005KT 9999 FEW020 27/18 Q1015=
200908161845 METAR LIRA 161845Z 19005KT 9999 FEW020 FEW022TCU 28/18 Q1015=
200908161815 METAR LIRA 161815Z 22005KT 9999 FEW020 FEW022CB 29/18 Q1015=
200908161745 METAR LIRA 161745Z 23007KT 200V290 9999 FEW020 FEW022CB 30/16
                        Q1015=
200908161715 METAR LIRA 161715Z 25006KT 200V300 9999 FEW020 FEW022CB 30/16
                        Q1015=
200908161645 METAR LIRA 161645Z 24008KT 200V310 9999 FEW020 FEW022CB 32/16
                        Q1015=
200908161615 METAR LIRA 161615Z 24007KT 190V310 9999 FEW020 FEW022CB 33/16
                        Q1015=
200908161545 METAR LIRA 161545Z 27007KT 210V330 9999 FEW020 FEW022CB 34/17
                        Q1015=
200908161515 METAR LIRA 161515Z 27008KT 210V310 9999 FEW020 FEW022CB 34/17
                        Q1015=
200908161445 METAR LIRA 161445Z 27008KT 190V310 9999 FEW020 FEW022CB 34/18
                        Q1016=
200908161415 METAR LIRA 161415Z 27009KT 220V320 9999 FEW020 FEW022CB 34/18
                        Q1016=
200908161345 METAR LIRA 161345Z 26010KT 210V310 9999 FEW020 FEW022CB 34/18
                        Q1016=
200908161315 METAR LIRA 161315Z 24008KT 180V300 9999 FEW020 FEW022CB 35/18
                        Q1016=
200908161245 METAR LIRA 161245Z 24008KT 150V300 9999 FEW020 FEW022TCU
                        35/18 Q1016=
200908161215 METAR LIRA 161215Z 21007KT 150V280 9999 SCT020 35/19 Q1016=
200908161145 METAR LIRA 161145Z 24006KT 180V300 9999 FEW020 35/17 Q1017=
200908161115 METAR LIRA 161115Z 24003KT 9999 FEW020 35/17 Q1017=
200908161045 METAR LIRA 161045Z 21004KT 180V260 9999 FEW020 35/16 Q1017=
200908161015 METAR LIRA 161015Z 20004KT 9999 FEW020 34/17 Q1017=
200908160945 METAR LIRA 160945Z 14001KT CAVOK 34/17 Q1017=
200908160915 METAR LIRA 160915Z 12002KT CAVOK 33/17 Q1017=
200908160845 METAR LIRA 160845Z 27002KT CAVOK 31/18 Q1017=
200908160815 METAR LIRA 160815Z 01002KT CAVOK 30/18 Q1017=
200908160745 METAR LIRA 160745Z 02004KT CAVOK 29/18 Q1017=
200908160715 METAR LIRA 160715Z 02004KT CAVOK 28/18 Q1017=
200908160645 METAR LIRA 160645Z 35002KT CAVOK 26/18 Q1017=
200908160615 METAR LIRA 160615Z 35002KT CAVOK 25/17 Q1017=
200908160545 METAR LIRA 160545Z 00000KT CAVOK 24/16 Q1017=
200908160515 METAR LIRA 160515Z 00000KT CAVOK 24/16 Q1017=
200908160445 METAR LIRA 160445Z 12003KT CAVOK 23/16 Q1017=
200908160415 METAR LIRA 160415Z 07002KT CAVOK 23/15 Q1017=
200908160345 METAR LIRA 160345Z 36002KT CAVOK 23/16 Q1017=
200908160315 METAR LIRA 160315Z 09002KT CAVOK 23/15 Q1017=
200908160245 METAR LIRA 160245Z 04003KT CAVOK 23/16 Q1017=
200908160215 METAR LIRA 160215Z 04003KT CAVOK 23/15 Q1017=
200908160145 METAR LIRA 160145Z 04003KT CAVOK 24/15 Q1017=
200908160045 METAR LIRA 160045Z 08003KT CAVOK 24/15 Q1017=
200908160015 METAR LIRA 160015Z 08003KT CAVOK 24/15 Q1017=
200908152350 METAR LIRA 160045Z 08003KT CAVOK 24/15 Q1017=
200908152345 METAR LIRA 152345Z 09003KT CAVOK 25/16 Q1017=
200908152315 METAR LIRA 152315Z 14002KT CAVOK 25/15 Q1018=
200908152245 METAR LIRA 152245Z 12002KT CAVOK 25/16 Q1018=
200908152215 METAR LIRA 152215Z 12001KT CAVOK 25/16 Q1018=
200908152145 METAR LIRA 152145Z 11002KT CAVOK 25/16 Q1018=
200908152115 METAR LIRA 152115Z 11003KT CAVOK 26/17 Q1017=
200908152045 METAR LIRA 152045Z 14002KT CAVOK 27/16 Q1017=
200908152015 METAR LIRA 152015Z 15002KT CAVOK 27/17 Q1017=
200908151945 METAR LIRA 151945Z 20003KT CAVOK 28/17 Q1017=
200908151915 METAR LIRA 151915Z 21003KT CAVOK 28/17 Q1017=
200908151845 METAR LIRA 151845Z 22003KT CAVOK 28/16 Q1016=
200908151815 METAR LIRA 151815Z 22004KT 9999 FEW070 29/16 Q1016=
200908151745 METAR LIRA 151745Z 24005KT 200V270 9999 FEW070 30/16 Q1016=
200908151715 METAR LIRA 151715Z 26007KT 200V320 9999 FEW070 31/17 Q1016=
200908151645 METAR LIRA 151645Z 25008KT 160V310 9999 FEW070 31/18 Q1017=
200908151615 METAR LIRA 151615Z 26006KT 200V320 9999 FEW018 32/19 Q1017=
200908151545 METAR LIRA 151545Z 23005KT 200V280 9999 FEW018 33/17 Q1017=
200908151515 METAR LIRA 151515Z 21006KT 150V260 9999 FEW018 33/17 Q1017=
200908151445 METAR LIRA 151445Z 20006KT 150V250 9999 FEW018 FEW020CB 34/18
                        Q1017=
200908151415 METAR LIRA 151415Z 21006KT 9999 FEW018 33/17 Q1017=
200908151345 METAR LIRA 151345Z 19009KT 150V240 9999 FEW018 33/16 Q1017=
200908151315 METAR LIRA 151315Z 20008KT 150V260 9999 FEW018 FEW020TCU
                        33/16 Q1018=
200908151245 METAR LIRA 151245Z 22009KT 160V270 9999 FEW018 FEW020TCU
                        33/17 Q1018=
200908151215 METAR LIRA 151215Z 22008KT 120V270 9999 FEW020 34/17 Q1018=
200908151145 METAR LIRA 151145Z 24007KT 160V300 9999 FEW020 33/17 Q1018=
200908151115 METAR LIRA 151115Z 25007KT 180V300 9999 FEW020 34/17 Q1018=
200908151045 METAR LIRA 151045Z 21005KT 150V270 9999 FEW020 33/15 Q1018=
200908151015 METAR LIRA 151015Z 04003KT 9999 FEW020 33/16 Q1018=
200908150945 METAR LIRA 150945Z 27002KT 9999 FEW020 33/17 Q1018=
200908150915 METAR LIRA 150915Z 30003KT 9999 FEW020 32/17 Q1018=
200908150845 METAR LIRA 150845Z 25003KT CAVOK 31/17 Q1018=
200908150815 METAR LIRA 150815Z 36003KT CAVOK 30/16 Q1018=
200908150745 METAR LIRA 150745Z 02003KT CAVOK 28/17 Q1018=
200908150715 METAR LIRA 150715Z 05003KT CAVOK 27/18 Q1018=
200908150645 METAR LIRA 150645Z 03003KT CAVOK 25/17 Q1017=
200908150615 METAR LIRA 150615Z 02003KT CAVOK 24/17 Q1017=
200908150545 METAR LIRA 150545Z 01004KT CAVOK 22/17 Q1017=
200908150515 METAR LIRA 150515Z 05002KT CAVOK 22/17 Q1017=
200908150445 METAR LIRA 150445Z 01001KT CAVOK 21/17 Q1016=
200908150415 METAR LIRA 150415Z 04002KT CAVOK 21/16 Q1016=
200908150345 METAR LIRA 150345Z 03002KT CAVOK 21/17 Q1016=
200908150315 METAR LIRA 150315Z 02003KT CAVOK 21/17 Q1016=
200908150245 METAR LIRA 150245Z 03003KT CAVOK 22/17 Q1016=
200908150215 METAR LIRA 150215Z 04003KT CAVOK 22/17 Q1016=
200908150145 METAR LIRA 150145Z 05003KT CAVOK 22/17 Q1016=
200908150115 METAR LIRA 150115Z 04004KT CAVOK 22/17 Q1016=
200908150045 METAR LIRA 150045Z 03002KT CAVOK 22/18 Q1016=
200908150015 METAR LIRA 150015Z 00000KT CAVOK 22/19 Q1016=
200908142350 METAR LIRA 150045Z 03002KT CAVOK 22/18 Q1016=
200908142345 METAR LIRA 142345Z 00000KT CAVOK 23/20 Q1016=
200908142315 METAR LIRA 142315Z 00000KT CAVOK 23/20 Q1016=
200908142245 METAR LIRA 142245Z 07003KT CAVOK 23/20 Q1016=
200908142215 METAR LIRA 142215Z 05002KT CAVOK 24/22 Q1016=
200908142145 METAR LIRA 142145Z 00000KT 9999 SCT080 24/22 Q1016=
200908142115 METAR LIRA 142115Z 25001KT 9999 FEW040 25/23 Q1016=
200908142045 METAR LIRA 142045Z 20003KT CAVOK 25/23 Q1016=
200908142015 METAR LIRA 142015Z 21002KT CAVOK 25/23 Q1016=
200908141945 METAR LIRA 141945Z 23002KT 9999 FEW020 26/22 Q1015=
200908141915 METAR LIRA 141915Z 25002KT 9999 FEW020 26/21 Q1015=
200908141845 METAR LIRA 141845Z 23002KT 9999 FEW020TCU 27/21 Q1015=
200908141815 METAR LIRA 141815Z 26004KT 220V330 9999 FEW020CB SCT200 28/19
                        Q1015=
200908141745 METAR LIRA 141745Z 28006KT 210V320 9999 FEW020CB 28/18 Q1015=
200908141715 METAR LIRA 141715Z 28005KT 230V330 9999 FEW020CB 30/19 Q1015=
200908141645 METAR LIRA 141645Z 26006KT 190V290 9999 FEW020CB 30/18 Q1015=
200908141615 METAR LIRA 141615Z 28007KT 210V340 9999 FEW020CB 30/17 Q1015=
200908141545 METAR LIRA 141545Z 25006KT 200V310 9999 FEW020CB 31/16 Q1014=
200908141515 METAR LIRA 141515Z 24008KT 180V290 9999 FEW020 31/15 Q1014=
200908141445 METAR LIRA 141445Z 24008KT 180V310 9999 FEW018 31/15 Q1014=
200908141415 METAR LIRA 141415Z 25011KT 200V320 9999 SCT020 31/15 Q1014=
200908141345 METAR LIRA 141345Z 23010KT 180V290 9999 SCT020 32/15 Q1014=
200908141315 METAR LIRA 141315Z 24009KT 190V300 9999 SCT020 32/15 Q1014=
200908141245 METAR LIRA 141245Z 24007G17KT 190V300 9999 SCT020 33/16 Q1014=
200908141215 METAR LIRA 141215Z 26004KT 200V310 9999 SCT022 33/15 Q1014=
200908141145 METAR LIRA 141145Z 24001KT 9999 SCT022 33/15 Q1014=
200908141115 METAR LIRA 141115Z 19002KT 9999 FEW022 32/15 Q1014=
200908141045 METAR LIRA 141045Z 00000KT 9999 FEW022 32/16 Q1015=
200908141015 METAR LIRA 141015Z 31004KT 290V010 9999 FEW022 32/16 Q1015=
200908140945 METAR LIRA 140945Z 01005KT 330V090 9999 FEW022 30/15 Q1015=
200908140915 METAR LIRA 140915Z 36006KT 330V030 9999 FEW022 30/16 Q1015=
200908140845 METAR LIRA 140845Z 36008KT 300V040 CAVOK 29/16 Q1015=
200908140815 METAR LIRA 140815Z 02005KT 330V100 CAVOK 29/17 Q1014=
200908140745 METAR LIRA 140745Z 03005KT CAVOK 27/17 Q1014=
200908140715 METAR LIRA 140715Z 03003KT CAVOK 26/18 Q1014=
200908140645 METAR LIRA 140645Z 04004KT 360V080 CAVOK 25/15 Q1014=
200908140615 METAR LIRA 140615Z 36003KT CAVOK 23/18 Q1014=
200908140545 METAR LIRA 140545Z 36003KT CAVOK 22/18 Q1014=
200908140515 METAR LIRA 140515Z 04002KT CAVOK 21/18 Q1014=
200908140445 METAR LIRA 140445Z 05002KT CAVOK 21/18 Q1014=
200908140415 METAR LIRA 140415Z 36001KT CAVOK 21/18 Q1014=
200908140345 METAR LIRA 140345Z 09002KT CAVOK 21/18 Q1014=
200908140315 METAR LIRA 140315Z 04003KT CAVOK 21/18 Q1014=
200908140245 METAR LIRA 140245Z 13003KT CAVOK 21/18 Q1014=
200908140215 METAR LIRA 140215Z 00000KT CAVOK 21/19 Q1014=
200908140145 METAR LIRA 140145Z 00000KT CAVOK 21/18 Q1014=
200908140115 METAR LIRA 140115Z 00000KT CAVOK 22/18 Q1014=
200908140045 METAR LIRA 140045Z 00000KT CAVOK 22/18 Q1014=
200908140015 METAR LIRA 140015Z 00000KT CAVOK 23/18 Q1014=
200908132350 METAR LIRA 140045Z 00000KT CAVOK 22/18 Q1014=
200908132345 METAR LIRA 132345Z 00000KT 9999 FEW020 23/18 Q1014=
200908132315 METAR LIRA 132315Z 00000KT 9999 FEW020 24/17 Q1014=
200908132245 METAR LIRA 132245Z 29002KT 9999 FEW020 24/18 Q1014=
200908132215 METAR LIRA 132215Z 00000KT CAVOK 25/18 Q1014=
200908132145 METAR LIRA 132145Z 09005KT 9999 FEW070 25/18 Q1014=
200908132115 METAR LIRA 132115Z 11004KT CAVOK 25/17 Q1014=
200908132045 METAR LIRA 132045Z 00000KT CAVOK 25/17 Q1014=
200908132015 METAR LIRA 132015Z 00000KT CAVOK 25/17 Q1014=
200908131945 METAR LIRA 131945Z 35002KT CAVOK 26/18 Q1014=
200908131915 METAR LIRA 131915Z 33001KT CAVOK 26/17 Q1014=
200908131845 METAR LIRA 131845Z 31001KT 9999 FEW080 27/17 Q1014=
200908131815 METAR LIRA 131815Z 24003KT 9999 FEW080 28/18 Q1014=
200908131745 METAR LIRA 131745Z 28005KT 200V320 9999 FEW018 30/16 Q1014=
200908131715 METAR LIRA 131715Z 28005KT 200V320 9999 FEW018 29/14 Q1014=
200908131645 METAR LIRA 131645Z 22006KT 160V290 9999 FEW018 FEW022TCU
                        30/14 Q1014=
200908131615 METAR LIRA 131615Z 24007KT 180V260 9999 FEW018 FEW022TCU
                        30/14 Q1014=
200908131545 METAR LIRA 131545Z 25006KT 150V300 9999 FEW018 FEW022TCU
                        30/14 Q1014=
200908131515 METAR LIRA 131515Z 21006KT 150V290 9999 FEW018 FEW022TCU
                        31/14 Q1014=
200908131445 METAR LIRA 131445Z 22011KT 170V260 9999 SCT018 FEW022TCU
                        31/14 Q1014=
200908131415 METAR LIRA 131415Z 19010KT 170V290 9999 SCT018 FEW022TCU
                        31/15 Q1014=
200908131345 METAR LIRA 131345Z 23012KT 170V290 9999 SCT018 FEW022TCU
                        31/15 Q1014=
200908131315 METAR LIRA 131315Z 19009KT 160V270 9999 SCT018 FEW022TCU
                        31/16 Q1014=
200908131245 METAR LIRA 131245Z 23013KT 150V280 9999 SCT018 FEW022TCU
                        32/16 Q1014=
200908131215 METAR LIRA 131215Z 24011KT 180V300 9999 SCT018 FEW022TCU
                        32/16 Q1014=
200908131145 METAR LIRA 131145Z 22008KT 180V330 9999 SCT018 32/16 Q1014=
200908131115 METAR LIRA 131115Z 20006KT 140V280 9999 SCT018 32/16 Q1014=
200908131045 METAR LIRA 131045Z 22004KT 9999 SCT018 32/15 Q1014=
200908131015 METAR LIRA 131015Z 18005KT 9999 FEW020 33/15 Q1014=
200908130945 METAR LIRA 130945Z 25004KT 9999 FEW020 32/16 Q1014=
200908130915 METAR LIRA 130915Z 20003KT 9999 FEW020 32/16 Q1014=
200908130845 METAR LIRA 130845Z 11002KT 9999 FEW020 30/18 Q1014=
200908130815 METAR LIRA 130815Z 33002KT CAVOK 29/18 Q1014=
200908130745 METAR LIRA 130745Z 01001KT CAVOK 28/18 Q1015=
200908130715 METAR LIRA 130715Z 00000KT CAVOK 27/18 Q1015=
200908130645 METAR LIRA 130645Z 01003KT CAVOK 25/19 Q1015=
200908130615 METAR LIRA 130615Z 03003KT CAVOK 24/19 Q1015=
200908130545 METAR LIRA 130545Z 05002KT CAVOK 23/18 Q1015=
200908130515 METAR LIRA 130515Z 06002KT CAVOK 22/18 Q1015=
200908130445 METAR LIRA 130445Z 04003KT 9999 FEW070 21/17 Q1015=
200908130415 METAR LIRA 130415Z 02002KT 9999 FEW070 21/17 Q1015=
200908130345 METAR LIRA 130345Z 00000KT 9999 SCT080 22/17 Q1015=
200908130315 METAR LIRA 130315Z 00000KT 9999 FEW080 22/18 Q1015=
200908130245 METAR LIRA 130245Z 00000KT CAVOK 22/18 Q1015=
200908130215 METAR LIRA 130215Z 00000KT CAVOK 22/18 Q1015=
200908130145 METAR LIRA 130145Z 00000KT CAVOK 22/16 Q1015=
200908130115 METAR LIRA 130115Z 21001KT CAVOK 22/17 Q1015=
200908130015 METAR LIRA 130015Z 04003KT CAVOK 23/17 Q1015=
200908122345 METAR LIRA 122345Z 05003KT CAVOK 23/17 Q1015=
200908122315 METAR LIRA 122315Z 03003KT CAVOK 23/16 Q1016=
200908122245 METAR LIRA 122245Z 00000KT CAVOK 23/17 Q1016=
200908122215 METAR LIRA 122215Z 00000KT CAVOK 24/17 Q1016=
200908122145 METAR LIRA 122145Z 23002KT CAVOK 24/16 Q1016=
200908122115 METAR LIRA 122115Z 00000KT CAVOK 25/16 Q1016=
200908122045 METAR LIRA 122045Z 11004KT CAVOK 25/16 Q1016=
200908122015 METAR LIRA 122015Z 12004KT CAVOK 26/17 Q1016=
200908121945 METAR LIRA 121945Z 00000KT CAVOK 26/17 Q1016=
200908121915 METAR LIRA 121915Z 16003KT CAVOK 26/16 Q1015=
200908121845 METAR LIRA 121845Z 21003KT 9999 FEW020 27/16 Q1015=
200908121815 METAR LIRA 121815Z 22005KT 9999 FEW020 28/13 Q1015=
200908121745 METAR LIRA 121745Z 23005KT 9999 FEW020 29/12 Q1015=
200908121715 METAR LIRA 121715Z 22005KT 9999 FEW020 FEW021CB 29/13 Q1015=
200908121645 METAR LIRA 121645Z 24006KT 210V270 9999 FEW020 FEW021CB 29/13
                        Q1015=
200908121615 METAR LIRA 121615Z 24004KT 200V290 9999 FEW020 FEW021CB 30/13
                        Q1015=
200908121545 METAR LIRA 121545Z 22007KT 160V280 9999 FEW020TCU 31/14 Q1016=
200908121515 METAR LIRA 121515Z 22008KT 170V270 9999 FEW020CB 31/16 Q1016=
200908121445 METAR LIRA 121445Z 21008KT 140V290 9999 FEW020CB 31/18 Q1016=
200908121415 METAR LIRA 121415Z 22007KT 140V260 9999 FEW018 FEW020CB 31/18
                        Q1016=
200908121345 METAR LIRA 121345Z 20010KT 140V260 9999 FEW018 FEW020CB 31/18
                        Q1016=
200908121315 METAR LIRA 121315Z 18010KT 150V270 9999 FEW018 FEW020CB 31/19
                        Q1016=
200908121245 METAR LIRA 121245Z 19010KT 150V240 9999 FEW018 FEW020CB 30/20
                        Q1016=
200908121215 METAR LIRA 121215Z 20009KT 150V250 9999 FEW018 FEW020CB 30/20
                        Q1016=
200908121145 METAR LIRA 121145Z 20009KT 160V260 9999 SCT018 FEW020CB 31/20
                        Q1016=
200908121115 METAR LIRA 121115Z 23010KT 140V260 9999 FEW017TCU SCT018
                        31/21 Q1016=
200908121045 METAR LIRA 121045Z 20007KT 130V240 9999 FEW017TCU SCT018
                        31/21 Q1016=
200908121015 METAR LIRA 121015Z 22006KT 160V280 9999 FEW017TCU SCT018
                        30/20 Q1016=
200908120945 METAR LIRA 120945Z 28004KT 9999 SCT020 31/18 Q1016=
200908120915 METAR LIRA 120915Z 17003KT 9999 SCT020 31/18 Q1016=
200908120845 METAR LIRA 120845Z 09002KT 9999 FEW020 30/19 Q1017=
200908120815 METAR LIRA 120815Z 10003KT 9999 FEW020 29/19 Q1017=
200908120745 METAR LIRA 120745Z 02003KT 9999 FEW020 28/20 Q1017=
200908120715 METAR LIRA 120715Z 02002KT 9999 FEW020 27/20 Q1017=
200908120645 METAR LIRA 120645Z 04002KT CAVOK 25/20 Q1016=
200908120615 METAR LIRA 120615Z 02003KT CAVOK 24/20 Q1016=
200908120545 METAR LIRA 120545Z 36002KT CAVOK 24/21 Q1016=
200908120515 METAR LIRA 120515Z 00000KT CAVOK 23/21 Q1016=
200908120445 METAR LIRA 120445Z 08002KT CAVOK 22/20 Q1016=
200908120415 METAR LIRA 120415Z 05003KT CAVOK 22/20 Q1016=
200908120345 METAR LIRA 120345Z 09001KT CAVOK 23/21 Q1016=
200908120315 METAR LIRA 120315Z 12001KT CAVOK 23/21 Q1016=
200908120245 METAR LIRA 120245Z 17003KT CAVOK 23/21 Q1016=
200908120215 METAR LIRA 120215Z 16004KT CAVOK 23/21 Q1016=
200908120145 METAR LIRA 120145Z 18002KT CAVOK 23/21 Q1016=
200908120115 METAR LIRA 120115Z 17002KT CAVOK 23/21 Q1016=
200908120045 METAR LIRA 120045Z 19004KT CAVOK 24/20 Q1016=
200908120015 METAR LIRA 120015Z 17002KT CAVOK 24/22 Q1016=
200908112345 METAR LIRA 112345Z 00000KT CAVOK 24/22 Q1016=
200908112315 METAR LIRA 112315Z 00000KT CAVOK 24/22 Q1016=
200908112245 METAR LIRA 112245Z 15003KT CAVOK 24/23 Q1015=
200908112215 METAR LIRA 112215Z 18003KT CAVOK 25/23 Q1015=
200908112145 METAR LIRA 112145Z 16004KT CAVOK 25/23 Q1015=
200908112115 METAR LIRA 112115Z 18003KT CAVOK 25/23 Q1015=
200908112045 METAR LIRA 112045Z 21003KT CAVOK 25/23 Q1015=
200908112015 METAR LIRA 112015Z 23004KT CAVOK 25/22 Q1015=
200908111945 METAR LIRA 111945Z 18004KT CAVOK 27/21 Q1015=
200908111915 METAR LIRA 111915Z 22002KT 9999 FEW020 27/21 Q1014=
200908111845 METAR LIRA 111845Z 22003KT 9999 FEW020 27/21 Q1014=
200908111815 METAR LIRA 111815Z 21005KT 9999 FEW021 28/21 Q1014=
200908111745 METAR LIRA 111745Z 23005KT 200V290 9999 FEW020 29/19 Q1014=
200908111715 METAR LIRA 111715Z 27007KT 220V330 9999 FEW020 29/19 Q1014=
200908111645 METAR LIRA 111645Z 27008KT 240V330 9999 FEW020 FEW022TCU
                        30/20 Q1014=
200908111615 METAR LIRA 111615Z 27010KT 220V330 9999 FEW020 FEW022TCU
                        29/20 Q1014=
200908111545 METAR LIRA 111545Z 26013KT 220V320 9999 FEW020 FEW021TCU
                        29/19 Q1014=
200908111515 METAR LIRA 111515Z 27012KT 190V330 9999 FEW020 FEW021TCU
                        30/21 Q1014=
200908111445 METAR LIRA 111445Z 27010KT 220V330 9999 FEW020 31/21 Q1014=
200908111415 METAR LIRA 111415Z 26009KT 180V360 9999 FEW020 32/21 Q1015=
200908111345 METAR LIRA 111345Z 25009KT 200V010 9999 SCT020 32/20 Q1015=
200908111315 METAR LIRA 111315Z 28012KT 230V330 9999 SCT020 33/19 Q1015=
200908111245 METAR LIRA 111245Z 31006KT 210V360 9999 SCT020 32/15 Q1015=
200908111215 METAR LIRA 111215Z 31011KT 280V030 9999 SCT020 32/15 Q1015=
200908111200 METAR LIRA INTER DIST LGT NW/NE/SW=
200908111145 METAR LIRA 111145Z 35004KT 290V030 9999 FEW021 32/17 Q1016=
200908111115 METAR LIRA 111115Z 33007KT 200V350 9999 FEW021 32/17 Q1016=
200908111045 METAR LIRA 111045Z 28002KT 280V030 9999 FEW021 30/16 Q1016=
200908111015 METAR LIRA 111015Z 33006KT 280V060 9999 FEW021 30/17 Q1016=
200908110945 METAR LIRA 110945Z 33007KT 280V360 9999 FEW021 30/17 Q1017=
200908110915 METAR LIRA 110915Z 01005KT 270V100 9999 FEW021 29/18 Q1017=
200908110845 METAR LIRA 110845Z 02003KT 320V020 9999 FEW021 28/18 Q1017=
200908110815 METAR LIRA 110815Z 04003KT 340V090 9999 FEW021 28/20 Q1017=
200908110745 METAR LIRA 110745Z 04005KT 330V080 9999 FEW021 27/21 Q1017=
200908110715 METAR LIRA 110715Z 04005KT 360V070 9999 FEW020 26/19 Q1016=
200908110645 METAR LIRA 110645Z 01003KT 9999 FEW021 25/20 Q1016=
200908110615 METAR LIRA 110615Z 35003KT 9999 FEW021 24/20 Q1016=
200908110545 METAR LIRA 110545Z 06002KT 9999 FEW021 23/19 Q1016=
200908110515 METAR LIRA 110515Z 06001KT 9999 FEW021 22/18 Q1016=
200908110445 METAR LIRA 110445Z 11003KT 9999 FEW021 21/17 Q1016=
200908110415 METAR LIRA 110415Z 11003KT CAVOK 21/17 Q1016=
200908110345 METAR LIRA 110345Z 13001KT CAVOK 21/16 Q1016=
200908110315 METAR LIRA 110315Z 06001KT CAVOK 21/17 Q1016=
200908110245 METAR LIRA 110245Z 05001KT CAVOK 22/17 Q1016=
200908110215 METAR LIRA 110215Z 08002KT CAVOK 22/18 Q1016=
200908110115 METAR LIRA 110115Z 11003KT CAVOK 22/18 Q1017=
200908110045 METAR LIRA 110045Z 12003KT CAVOK 22/18 Q1017=
200908110015 METAR LIRA 110015Z 14003KT CAVOK 23/19 Q1017=
200908102350 METAR LIRA 110045Z 12003KT CAVOK 22/18 Q1017=
200908102345 METAR LIRA 102345Z 14003KT CAVOK 23/20 Q1016=
200908102315 METAR LIRA 102315Z 22001KT CAVOK 23/21 Q1016=
200908102215 METAR LIRA 102215Z 24002KT 9999 FEW018 23/21 Q1017=
200908102145 METAR LIRA 102145Z 26007KT 9999 FEW018 28/26 Q1016=
200908102115 METAR LIRA 102115Z 00000KT 9999 FEW018 24/22 Q1016=
200908102045 METAR LIRA 102045Z 23003KT 9999 FEW018 24/21 Q1016=
200908102015 METAR LIRA 102015Z 22002KT 9999 FEW018 25/21 Q1016=
200908101945 METAR LIRA 101945Z 23003KT 9999 FEW018 25/21 Q1016=
200908101915 METAR LIRA 101915Z 23002KT 9999 FEW018 SCT200 25/22 Q1016=
200908101845 METAR LIRA 101845Z 22003KT 9999 FEW018 SCT200 26/21 Q1016=
200908101815 METAR LIRA 101815Z 22003KT 9999 FEW018 SCT200 26/17 Q1016=
200908101745 METAR LIRA 101745Z 24004KT 9999 FEW018 SCT200 27/19 Q1016=
200908101715 METAR LIRA 101715Z 22005KT 180V250 9999 FEW018 SCT070 28/18
                        Q1016=
200908101645 METAR LIRA 101645Z 21006KT 180V270 9999 FEW018 SCT070 28/18
                        Q1016=
200908101615 METAR LIRA 101615Z 22007KT 140V280 9999 FEW018 SCT200 29/20
                        Q1016=
200908101545 METAR LIRA 101545Z 19008KT 160V260 9999 FEW018 29/20 Q1017=
200908101515 METAR LIRA 101515Z 20009KT 150V250 9999 FEW018 29/19 Q1017=
200908101445 METAR LIRA 101445Z 21010KT 150V260 9999 FEW018 30/20 Q1017=
200908101415 METAR LIRA 101415Z 21011KT 110V250 9999 FEW018 30/20 Q1017=
200908101345 METAR LIRA 101345Z 20010KT 140V260 9999 FEW018 30/22 Q1017=
200908101315 METAR LIRA 101315Z 21011KT 120V260 9999 FEW018 30/22 Q1017=
200908101245 METAR LIRA 101245Z 19012KT 150V270 9999 FEW018 30/22 Q1017=
200908101215 METAR LIRA 101215Z 18010KT 130V260 9999 FEW018 31/22 Q1017=
200908101145 METAR LIRA 101145Z 21009KT 150V290 9999 FEW018 31/22 Q1017=
200908101115 METAR LIRA 101115Z 21009KT 160V260 9999 SCT018 31/22 Q1017=
200908101045 METAR LIRA 101045Z 21007KT 120V290 9999 FEW018 31/21 Q1017=
200908101015 METAR LIRA 101015Z 19009KT 130V220 9999 FEW018 31/18 Q1017=
200908100945 METAR LIRA 100945Z 17008KT 130V220 CAVOK 30/17 Q1017=
200908100915 METAR LIRA 100915Z 18007KT 090V310 CAVOK 30/17 Q1017=
200908100845 METAR LIRA 100845Z 20004KT 140V230 CAVOK 29/17 Q1017=
200908100815 METAR LIRA 100815Z 11003KT CAVOK 29/17 Q1017=
200908100745 METAR LIRA 100745Z 21004KT CAVOK 27/19 Q1017=
200908100715 METAR LIRA 100715Z 30002KT CAVOK 26/19 Q1017=
200908100645 METAR LIRA 100645Z 33003KT CAVOK 25/19 Q1017=
200908100615 METAR LIRA 100615Z 31001KT CAVOK 24/20 Q1016=
200908100545 METAR LIRA 100545Z 35002KT CAVOK 23/19 Q1016=
200908100515 METAR LIRA 100515Z 04002KT CAVOK 22/19 Q1016=
200908100445 METAR LIRA 100445Z 00000KT 9999 FEW070 21/19 Q1016=
200908100415 METAR LIRA 100415Z 18001KT CAVOK 21/19 Q1016=
200908100345 METAR LIRA 100345Z 00000KT CAVOK 21/18 Q1016=
200908100315 METAR LIRA 100315Z 09004KT CAVOK 21/19 Q1016=
200908100245 METAR LIRA 100245Z 09005KT CAVOK 22/19 Q1016=
200908100215 METAR LIRA 100215Z 10003KT 9999 FEW018 22/19 Q1016=
200908100145 METAR LIRA 100145Z 16002KT 9999 FEW018 SCT200 22/20 Q1016=
200908100115 METAR LIRA 100115Z 17002KT 9999 FEW070 23/19 Q1016=
200908100045 METAR LIRA 100045Z 13002KT CAVOK 23/19 Q1016=
200908100015 METAR LIRA 100015Z 00000KT CAVOK 23/20 Q1016=
200908092350 METAR LIRA 100045Z 13002KT CAVOK 23/19 Q1016=
200908092345 METAR LIRA 092345Z 12002KT CAVOK 23/21 Q1016=
200908092315 METAR LIRA 092315Z 00000KT CAVOK 23/21 Q1016=
200908092245 METAR LIRA 092245Z 13001KT CAVOK 23/20 Q1016=
200908092215 METAR LIRA 092215Z 20001KT CAVOK 24/20 Q1016=
200908092145 METAR LIRA 092145Z 20003KT CAVOK 24/20 Q1015=
200908092115 METAR LIRA 092115Z 22005KT CAVOK 25/19 Q1015=
200908092045 METAR LIRA 092045Z 20003KT CAVOK 25/20 Q1015=
200908092015 METAR LIRA 092015Z 20003KT CAVOK 25/19 Q1015=
200908091945 METAR LIRA 091945Z 21004KT CAVOK 26/20 Q1014=
200908091915 METAR LIRA 091915Z 21003KT CAVOK 26/19 Q1014=
200908091845 METAR LIRA 091845Z 22002KT CAVOK 26/20 Q1014=
200908091815 METAR LIRA 091815Z 23005KT 190V260 9999 FEW018 28/20 Q1014=
200908091745 METAR LIRA 091745Z 24005KT 210V280 9999 FEW018 FEW020TCU
                        29/19 Q1014=
200908091715 METAR LIRA 091715Z 23005KT 160V260 9999 FEW018 FEW020TCU
                        30/17 Q1014=
200908091645 METAR LIRA 091645Z 23006KT 170V260 9999 FEW018 FEW020TCU
                        30/15 Q1014=
200908091615 METAR LIRA 091615Z 23006KT 160V300 9999 FEW018 FEW020TCU
                        30/15 Q1014=
200908091545 METAR LIRA 091545Z 21005KT 140V270 9999 FEW018 FEW020TCU
                        30/15 Q1014=
200908091515 METAR LIRA 091515Z 22006KT 160V280 9999 FEW018 FEW020CB 31/16
                        Q1014=
200908091445 METAR LIRA 091445Z 18008KT 140V260 9999 FEW018 FEW020CB 31/16
                        Q1013=
200908091415 METAR LIRA 091415Z 21010KT 150V280 9999 FEW018 FEW020CB FEW022TCU
                        31/15 Q1013=
200908091345 METAR LIRA 091345Z 25010G20KT 150V270 9999 FEW018 FEW020CB
                        FEW022TCU 32/16 Q1013=
200908091315 METAR LIRA 091315Z 21007KT 150V270 9999 FEW018 FEW022TCU
                        32/16 Q1013=
200908091245 METAR LIRA 091245Z 22009KT 150V270 9999 FEW018 FEW022TCU
                        31/17 Q1013=
200908091215 METAR LIRA 091215Z 24010KT 150V270 9999 SCT020 32/18 Q1013=
200908091145 METAR LIRA 091145Z 23008KT 150V280 9999 SCT020 31/18 Q1014=
200908091115 METAR LIRA 091115Z 21004KT 130V240 9999 FEW020 31/17 Q1014=
200908091045 METAR LIRA 091045Z 19007KT 150V270 9999 FEW020 31/16 Q1014=
200908091015 METAR LIRA 091015Z 22003KT 150V250 9999 FEW025 30/16 Q1014=
200908090915 METAR LIRA 090915Z 16002KT 120V240 9999 FEW025 30/17 Q1014=
200908090845 METAR LIRA 090845Z 20005KT 160V280 9999 FEW025 29/17 Q1014=
200908090815 METAR LIRA 090815Z 22005KT 140V250 CAVOK 28/20 Q1014=
200908090745 METAR LIRA 090745Z 10002KT CAVOK 27/20 Q1014=
200908090715 METAR LIRA 090715Z 06002KT CAVOK 26/20 Q1014=
200908090645 METAR LIRA 090645Z 23002KT CAVOK 24/20 Q1014=
200908090615 METAR LIRA 090615Z 15001KT 9999 1800S FEW003 23/22 Q1013=
200908090545 METAR LIRA 090545Z 24002KT 9999 1600S FEW003 SCT025 22/21
                        Q1013=
200908090515 METAR LIRA 090515Z 00000KT 9999 FEW040 21/19 Q1013=
200908090445 METAR LIRA 090445Z 15001KT 9999 FEW040 21/18 Q1013=
200908090415 METAR LIRA 090415Z 17002KT CAVOK 21/16 Q1013=
200908090345 METAR LIRA 090345Z 00000KT CAVOK 21/15 Q1013=
200908090315 METAR LIRA 090315Z 00000KT CAVOK 21/15 Q1013=
200908090245 METAR LIRA 090245Z 00000KT CAVOK 21/14 Q1013=
200908090215 METAR LIRA 090215Z 10003KT CAVOK 22/14 Q1013=
200908090145 METAR LIRA 090145Z 12002KT CAVOK 22/15 Q1013=
200908090115 METAR LIRA 090115Z 00000KT CAVOK 22/15 Q1013=
200908090045 METAR LIRA 090045Z 11003KT CAVOK 22/15 Q1013=
200908090015 METAR LIRA 090015Z 11003KT CAVOK 22/17 Q1013=
200908082345 METAR LIRA 082345Z 15003KT CAVOK 23/19 Q1013=
200908082315 METAR LIRA 082315Z 15003KT CAVOK 23/20 Q1013=
200908082215 METAR LIRA 082215Z 16003KT CAVOK 24/21 Q1013=
200908082145 METAR LIRA 082145Z 15002KT CAVOK 24/21 Q1013=
200908082115 METAR LIRA 082115Z 19003KT CAVOK 24/22 Q1013=
200908082045 METAR LIRA 082045Z 19004KT 9999 FEW020 24/22 Q1013=
200908082015 METAR LIRA 082015Z 19004KT CAVOK 25/20 Q1013=
200908081945 METAR LIRA 081945Z 20003KT CAVOK 26/17 Q1013=
200908081915 METAR LIRA 081915Z 20003KT CAVOK 27/16 Q1012=
200908081845 METAR LIRA 081845Z 18004KT CAVOK 28/18 Q1012=
200908081815 METAR LIRA 081815Z 20004KT CAVOK 28/19 Q1012=
200908081715 METAR LIRA 081715Z 21007KT 170V250 9999 FEW020TCU 29/19 Q1012=
200908081645 METAR LIRA 081645Z 23007KT 170V260 9999 FEW020TCU 30/19 Q1012=
200908081615 METAR LIRA 081615Z 23006KT 180V280 9999 FEW020TCU 30/19 Q1012=
200908081545 METAR LIRA 081545Z 21009KT 180V280 9999 FEW020TCU 32/16 Q1012=
200908081515 METAR LIRA 081515Z 21005KT 180V300 9999 FEW020TCU 32/16 Q1012=
200908081445 METAR LIRA 081445Z 21008KT 150V280 9999 FEW018 FEW020TCU
                        32/16 Q1012=
200908081415 METAR LIRA 081415Z 23009KT 150V280 9999 FEW018 FEW020TCU
                        33/17 Q1012=
200908081345 METAR LIRA 081345Z 22008KT 160V310 9999 FEW018 FEW020TCU
                        33/17 Q1012=
200908081315 METAR LIRA 081315Z 24007KT 210V310 9999 FEW018 FEW020TCU
                        32/17 Q1012=
200908081245 METAR LIRA 081245Z 23007KT 170V290 9999 FEW018 FEW020TCU
                        32/19 Q1012=
200908081215 METAR LIRA 081215Z 24008KT 180V330 9999 SCT018 32/19 Q1012=
200908081145 METAR LIRA 081145Z 22007KT 140V290 9999 SCT018 32/19 Q1012=
200908081115 METAR LIRA 081115Z 20004KT 130V250 9999 SCT018 33/19 Q1012=
200908081045 METAR LIRA 081045Z 23004KT 150V280 9999 FEW018 32/17 Q1013=
200908081015 METAR LIRA 081015Z 33003KT 9999 FEW018 32/17 Q1013=
200908080945 METAR LIRA 080945Z 08002KT 9999 FEW018 31/17 Q1013=
200908080915 METAR LIRA 080915Z 27003KT CAVOK 31/18 Q1013=
200908080845 METAR LIRA 080845Z 16003KT 140V220 CAVOK 30/18 Q1013=
200908080815 METAR LIRA 080815Z 19004KT CAVOK 29/19 Q1013=
200908080745 METAR LIRA 080745Z 02002KT CAVOK 27/18 Q1013=
200908080715 METAR LIRA 080715Z 03002KT CAVOK 26/18 Q1013=
200908080645 METAR LIRA 080645Z 36003KT CAVOK 25/17 Q1013=
200908080615 METAR LIRA 080615Z 36002KT CAVOK 23/16 Q1013=
200908080545 METAR LIRA 080545Z 36003KT CAVOK 23/17 Q1013=
200908080515 METAR LIRA 080515Z 03002KT 9999 FEW070 22/17 Q1012=
200908080445 METAR LIRA 080445Z 00000KT 9999 FEW070 21/16 Q1012=
200908080415 METAR LIRA 080415Z 00000KT 9999 FEW070 21/16 Q1012=
200908080345 METAR LIRA 080345Z 00000KT 9999 FEW070 21/16 Q1012=
200908080315 METAR LIRA 080315Z 00000KT CAVOK 21/16 Q1013=
200908080245 METAR LIRA 080245Z 00000KT CAVOK 21/16 Q1013=
200908080215 METAR LIRA 080215Z 02004KT CAVOK 22/17 Q1013=
200908080145 METAR LIRA 080145Z 03003KT CAVOK 22/17 Q1013=
200908080115 METAR LIRA 080115Z 00000KT CAVOK 22/17 Q1013=
200908080045 METAR LIRA 080045Z 04003KT CAVOK 22/17 Q1013=
200908080015 METAR LIRA 080015Z 34003KT CAVOK 22/17 Q1013=
200908072350 METAR LIRA 080045Z 04003KT CAVOK 22/17 Q1013=
200908072345 METAR LIRA 072345Z 05004KT CAVOK 23/17 Q1013=
200908072315 METAR LIRA 072315Z 03002KT CAVOK 23/17 Q1013=
200908072245 METAR LIRA 072245Z 03002KT CAVOK 23/17 Q1013=
200908072215 METAR LIRA 072215Z 03001KT CAVOK 23/16 Q1013=
200908072145 METAR LIRA 072145Z 14003KT CAVOK 24/17 Q1013=
200908072115 METAR LIRA 072115Z 18004KT CAVOK 25/19 Q1013=
200908072045 METAR LIRA 072045Z 17005KT CAVOK 25/19 Q1013=
200908072015 METAR LIRA 072015Z 17005KT CAVOK 25/19 Q1013=
200908071945 METAR LIRA 071945Z 18005KT CAVOK 26/19 Q1012=
200908071915 METAR LIRA 071915Z 19007KT 160V220 CAVOK 26/17 Q1012=
200908071845 METAR LIRA 071845Z 19005KT 150V230 CAVOK 27/16 Q1012=
200908071815 METAR LIRA 071815Z 20006KT 160V250 CAVOK 28/15 Q1012=
200908071745 METAR LIRA 071745Z 19007KT 150V260 9999 FEW025 29/13 Q1012=
200908071715 METAR LIRA 071715Z 22006KT 180V250 9999 FEW025 29/14 Q1012=
200908071645 METAR LIRA 071645Z 24007KT 190V270 9999 FEW025 30/16 Q1012=
200908071615 METAR LIRA 071615Z 23008KT 180V280 9999 FEW025 30/16 Q1012=
200908071545 METAR LIRA 071545Z 20006KT 160V270 9999 FEW025 30/16 Q1012=
200908071445 METAR LIRA 071445Z 22009KT 170V270 9999 FEW025 31/16 Q1012=
200908071415 METAR LIRA 071415Z 21010KT 170V300 9999 FEW025 31/16 Q1012=
200908071345 METAR LIRA 071345Z 21008KT 160V270 9999 FEW025 31/15 Q1012=
200908071315 METAR LIRA 071315Z 23008KT 170V290 9999 FEW025 32/16 Q1012=
200908071245 METAR LIRA 071245Z 27008KT 180V300 9999 FEW020 32/16 Q1012=
200908071215 METAR LIRA 071215Z 28005KT 210V320 9999 FEW020 32/15 Q1013=
200908071145 METAR LIRA 071145Z 20007KT 130V270 9999 FEW020 32/16 Q1013=
200908071115 METAR LIRA 071115Z 31001KT 9999 FEW020 32/14 Q1013=
200908071045 METAR LIRA 071045Z 02001KT 9999 FEW020 31/14 Q1013=
200908071015 METAR LIRA 071015Z 32002KT 270V010 9999 FEW020 31/15 Q1013=
200908070945 METAR LIRA 070945Z 07003KT 9999 FEW020 30/15 Q1013=
200908070915 METAR LIRA 070915Z 19004KT 9999 FEW025 29/16 Q1013=
200908070845 METAR LIRA 070845Z 08003KT CAVOK 28/16 Q1013=
200908070815 METAR LIRA 070815Z 05004KT CAVOK 27/16 Q1013=
200908070745 METAR LIRA 070745Z 01006KT 310V060 CAVOK 26/15 Q1013=
200908070715 METAR LIRA 070715Z 01006KT 330V090 CAVOK 25/15 Q1013=
200908070645 METAR LIRA 070645Z 05006KT 350V080 CAVOK 24/16 Q1013=
200908070615 METAR LIRA 070615Z 04005KT 360V090 CAVOK 22/16 Q1013=
200908070545 METAR LIRA 070545Z 03004KT 360V090 CAVOK 21/16 Q1013=
200908070515 METAR LIRA 070515Z 04002KT CAVOK 20/16 Q1013=
200908070445 METAR LIRA 070445Z 05002KT CAVOK 20/16 Q1013=
200908070415 METAR LIRA 070415Z 05003KT CAVOK 19/16 Q1013=
200908070345 METAR LIRA 070345Z 02002KT CAVOK 20/16 Q1013=
200908070315 METAR LIRA 070315Z 01002KT CAVOK 20/16 Q1013=
200908070215 METAR LIRA 070215Z 02005KT 340V070 CAVOK 21/16 Q1013=
200908070145 METAR LIRA 070145Z 03003KT CAVOK 21/16 Q1013=
200908070115 METAR LIRA 070115Z 02003KT CAVOK 22/17 Q1013=
200908070045 METAR LIRA 070045Z 01002KT CAVOK 22/17 Q1013=
200908070015 METAR LIRA 070015Z 03003KT CAVOK 22/18 Q1013=
200908062350 METAR LIRA 070045Z 01002KT CAVOK 22/17 Q1013=
200908062345 METAR LIRA 062345Z 01002KT CAVOK 22/20 Q1013=
200908062315 METAR LIRA 062315Z 06003KT CAVOK 22/20 Q1013=
200908062245 METAR LIRA 062245Z 03002KT CAVOK 22/20 Q1013=
200908062215 METAR LIRA 062215Z 00000KT CAVOK 23/19 Q1013=
200908062145 METAR LIRA 062145Z 06002KT CAVOK 23/18 Q1013=
200908062115 METAR LIRA 062115Z 11003KT CAVOK 24/19 Q1013=
200908062045 METAR LIRA 062045Z 16003KT CAVOK 25/21 Q1013=
200908062015 METAR LIRA 062015Z 16005KT CAVOK 25/21 Q1013=
200908061945 METAR LIRA 061945Z 16006KT CAVOK 25/21 Q1013=
200908061915 METAR LIRA 061915Z 19006KT 150V210 CAVOK 26/21 Q1013=
200908061845 METAR LIRA 061845Z 18006KT 150V220 9999 FEW030 27/20 Q1013=
200908061815 METAR LIRA 061815Z 19008KT 170V230 9999 FEW025 27/19 Q1013=
200908061745 METAR LIRA 061745Z 20005KT 150V240 9999 FEW025 28/19 Q1013=
200908061715 METAR LIRA 061715Z 22006KT 150V270 9999 FEW018 29/18 Q1013=
200908061645 METAR LIRA 061645Z 22008KT 160V340 9999 FEW018 29/16 Q1013=
200908061615 METAR LIRA 061615Z 25009KT 200V310 9999 FEW018 29/16 Q1013=
200908061545 METAR LIRA 061545Z 25009KT 200V300 9999 FEW018 28/16 Q1013=
200908061515 METAR LIRA 061515Z 23009KT 200V290 9999 FEW018 29/17 Q1013=
200908061445 METAR LIRA 061445Z 23009KT 180V310 9999 FEW018 30/17 Q1013=
200908061415 METAR LIRA 061415Z 26009KT 200V300 9999 FEW018 30/17 Q1013=
200908061345 METAR LIRA 061345Z 24011KT 180V300 9999 FEW018 31/17 Q1013=
200908061315 METAR LIRA 061315Z 26010KT 200V300 9999 FEW018 31/16 Q1013=
200908061245 METAR LIRA 061245Z 24012KT 190V300 9999 FEW018 31/12 Q1013=
200908061215 METAR LIRA 061215Z 25002KT 9999 FEW018 32/14 Q1014=
200908061145 METAR LIRA 061145Z 31009KT 230V350 9999 FEW018 32/15 Q1014=
200908061015 METAR LIRA 061015Z 32004KT 270V030 9999 FEW018 29/15 Q1014=
200908060945 METAR LIRA 060945Z 35003KT 260V350 9999 FEW018 29/16 Q1014=
200908060915 METAR LIRA 060915Z 29008KT 220V310 9999 FEW018 28/17 Q1014=
200908060845 METAR LIRA 060845Z 35003KT 300V030 9999 FEW018 28/18 Q1014=
200908060815 METAR LIRA 060815Z 35003KT 300V050 9999 FEW018 26/17 Q1014=
200908060745 METAR LIRA 060745Z 36003KT 320V030 CAVOK 25/15 Q1014=
200908060715 METAR LIRA 060715Z 01005KT 310V040 CAVOK 24/16 Q1014=
200908060645 METAR LIRA 060645Z 35006KT 320V100 CAVOK 23/16 Q1014=
200908060615 METAR LIRA 060615Z 02006KT 320V060 CAVOK 22/17 Q1014=
200908060545 METAR LIRA 060545Z 04005KT 360V070 CAVOK 21/16 Q1014=
200908060515 METAR LIRA 060515Z 05004KT CAVOK 20/15 Q1014=
200908060445 METAR LIRA 060445Z 04005KT 330V080 CAVOK 20/15 Q1013=
200908060415 METAR LIRA 060415Z 03005KT CAVOK 20/15 Q1013=
200908060345 METAR LIRA 060345Z 05002KT CAVOK 20/15 Q1013=
200908060315 METAR LIRA 060315Z 02002KT CAVOK 21/15 Q1013=
200908060245 METAR LIRA 060245Z 04004KT CAVOK 21/15 Q1013=
200908060215 METAR LIRA 060215Z 03003KT CAVOK 21/15 Q1013=
200908060145 METAR LIRA 060145Z 02005KT 320V060 CAVOK 21/16 Q1013=
200908060115 METAR LIRA 060115Z 03005KT CAVOK 22/15 Q1013=
200908060045 METAR LIRA 060045Z 02004KT 300V040 CAVOK 22/15 Q1013=
200908060015 METAR LIRA 060015Z 08002KT CAVOK 22/15 Q1013=
200908052350 METAR LIRA 060045Z 02004KT 300V040 CAVOK 22/15 Q1013=
200908052345 METAR LIRA 052345Z 35003KT CAVOK 23/14 Q1013=
200908052315 METAR LIRA 052315Z 35005KT 330V030 CAVOK 23/13 Q1014=
200908052245 METAR LIRA 052245Z 04005KT CAVOK 23/12 Q1014=
200908052215 METAR LIRA 052215Z 03003KT CAVOK 24/13 Q1014=
200908052145 METAR LIRA 052145Z 34006KT 310V030 CAVOK 25/12 Q1014=
200908052115 METAR LIRA 052115Z 34004KT CAVOK 26/12 Q1013=
200908052045 METAR LIRA 052045Z 35005KT 310V030 CAVOK 26/13 Q1013=
200908052015 METAR LIRA 052015Z 01005KT 320V060 CAVOK 27/13 Q1013=
200908051945 METAR LIRA 051945Z 33007KT 280V030 CAVOK 28/13 Q1013=
200908051915 METAR LIRA 051915Z 30007KT 270V010 CAVOK 28/13 Q1013=
200908051845 METAR LIRA 051845Z 33008KT 300V360 CAVOK 29/13 Q1013=
200908051815 METAR LIRA 051815Z 33012KT 290V010 9999 FEW020 30/14 Q1013=
200908051745 METAR LIRA 051745Z 33008KT 290V040 9999 FEW020 31/14 Q1012=
200908051715 METAR LIRA 051715Z 17004KT 140V230 9999 FEW020 30/17 Q1013=
200908051645 METAR LIRA 051645Z 20005KT 150V240 9999 FEW020 30/17 Q1013=
200908051615 METAR LIRA 051615Z 22006KT 160V270 9999 FEW020 30/17 Q1013=
200908051545 METAR LIRA 051545Z 19005KT 150V270 9999 FEW020 30/17 Q1013=
200908051515 METAR LIRA 051515Z 21006KT 150V270 9999 FEW020 30/17 Q1013=
200908051445 METAR LIRA 051445Z 19009KT 150V260 9999 FEW020 30/16 Q1013=
200908051415 METAR LIRA 051415Z 21010KT 160V280 9999 FEW020 30/17 Q1013=
200908051345 METAR LIRA 051345Z 22009KT 160V260 9999 FEW020 30/16 Q1013=
200908051315 METAR LIRA 051315Z 24006KT 180V300 9999 SCT020 30/17 Q1013=
200908051245 METAR LIRA 051245Z 21012KT 180V300 9999 SCT020 31/17 Q1013=
200908051215 METAR LIRA 051215Z 14004KT 9999 SCT020 31/13 Q1013=
200908051145 METAR LIRA 051145Z 25003KT 9999 SCT020 31/13 Q1013=
200908051115 METAR LIRA 051115Z 28002KT 310V060 9999 FEW020 30/12 Q1013=
200908051045 METAR LIRA 051045Z 33005KT 270V360 9999 FEW020 29/13 Q1013=
200908051015 METAR LIRA 051015Z 02006KT 300V060 9999 FEW020 29/13 Q1013=
200908050945 METAR LIRA 050945Z 02002KT 330V060 9999 FEW020 28/14 Q1013=
200908050915 METAR LIRA 050915Z 02005KT 320V090 9999 FEW020 27/14 Q1013=
200908050845 METAR LIRA 050845Z 33005KT 310V060 9999 FEW020 26/15 Q1013=
200908050815 METAR LIRA 050815Z 33007KT 260V030 9999 FEW020 25/15 Q1013=
200908050745 METAR LIRA 050745Z 02007KT 330V080 9999 FEW020 25/15 Q1013=
200908050715 METAR LIRA 050715Z 02006KT 330V090 9999 FEW020 24/15 Q1013=
200908050645 METAR LIRA 050645Z 01006KT 310V080 9999 FEW020 22/16 Q1013=
200908050615 METAR LIRA 050615Z 04008KT 360V090 9999 FEW020 21/16 Q1013=
200908050545 METAR LIRA 050545Z 03006KT 340V070 9999 FEW025 20/16 Q1013=
200908050515 METAR LIRA 050515Z 02005KT 320V050 CAVOK 19/16 Q1013=
200908050445 METAR LIRA 050445Z 02004KT CAVOK 19/16 Q1012=
200908050415 METAR LIRA 050415Z 02004KT 360V080 CAVOK 18/16 Q1012=
200908050345 METAR LIRA 050345Z 04005KT CAVOK 18/15 Q1012=
200908050315 METAR LIRA 050315Z 05003KT CAVOK 19/16 Q1012=
200908050245 METAR LIRA 050245Z 35005KT CAVOK 20/16 Q1012=
200908050215 METAR LIRA 050215Z 36004KT CAVOK 20/16 Q1012=
200908050145 METAR LIRA 050145Z 36006KT 320V030 CAVOK 20/16 Q1013=
200908050115 METAR LIRA 050115Z 35005KT 320V030 CAVOK 20/16 Q1013=
200908050045 METAR LIRA 050045Z 03004KT CAVOK 20/16 Q1013=
200908050015 METAR LIRA 050015Z 00000KT CAVOK 21/17 Q1013=
200908042350 METAR LIRA 050045Z 03004KT CAVOK 20/16 Q1013=
200908042345 METAR LIRA 042345Z 34003KT CAVOK 21/17 Q1013=
200908042315 METAR LIRA 042315Z 33003KT CAVOK 21/17 Q1013=
200908042245 METAR LIRA 042245Z 00000KT CAVOK 22/17 Q1013=
200908042215 METAR LIRA 042215Z 01003KT CAVOK 22/17 Q1013=
200908042145 METAR LIRA 042145Z 00000KT 9999 FEW060 22/18 Q1013=
200908042115 METAR LIRA 042115Z 26003KT 9999 FEW030 23/19 Q1013=
200908042045 METAR LIRA 042045Z 29002KT 9999 FEW030 23/19 Q1012=
200908042015 METAR LIRA 042015Z 25003KT 9999 FEW030 23/19 Q1013=
200908041945 METAR LIRA 041945Z 26003KT 9999 FEW025 23/19 Q1012=
200908041915 METAR LIRA 041915Z 27003KT 9999 FEW025 24/18 Q1012=
200908041845 METAR LIRA 041845Z 27006KT 210V310 9999 FEW025 24/18 Q1012=
200908041815 METAR LIRA 041815Z 26008KT 210V320 9999 FEW025 25/17 Q1011=
200908041745 METAR LIRA 041745Z 27007KT 220V320 9999 FEW025 26/16 Q1011=
200908041715 METAR LIRA 041715Z 26006KT 210V310 9999 FEW025 26/17 Q1011=
200908041645 METAR LIRA 041645Z 28010KT 200V320 9999 FEW018 SCT025 26/17
                        Q1011=
200908041615 METAR LIRA 041615Z 27011KT 240V310 9999 FEW025 27/18 Q1011=
200908041545 METAR LIRA 041545Z 28010KT 9999 FEW016 27/17 Q1011=
200908041515 METAR LIRA 041515Z 28014KT 230V340 9999 FEW016 26/16 Q1011=
200908041445 METAR LIRA 041445Z 28011G21KT 230V320 9999 SCT016 SCT025
                        26/17 Q1011=
200908041415 METAR LIRA 041415Z 26009KT 210V310 9999 SCT016 SCT025 27/16
                        Q1011=
200908041345 METAR LIRA 041345Z 16001KT 9999 FEW016 27/17 Q1011=
200908041315 METAR LIRA 041315Z 16003KT 9999 SCT016 SCT025 27/17 Q1011=
200908041245 METAR LIRA 041245Z 12005KT 9999 SCT016 SCT025 27/19 Q1011=
200908041215 METAR LIRA 041215Z 12005KT 9999 SCT016 SCT025 25/19 Q1011=
200908041145 METAR LIRA 041145Z 07005KT 9999 -RA SCT016 SCT025 25/19 Q1011=
200908041115 METAR LIRA 041115Z 15004KT 9999 SCT016 26/20 Q1011=
200908041045 METAR LIRA 041045Z 23002KT 9999 -DZ SCT016 SCT025 25/21 Q1011=
200908041015 METAR LIRA 041015Z 19007KT 110V280 9999 -DZ SCT016 SCT025
                        27/15 Q1011=
200908040945 METAR LIRA 040945Z 18007KT 120V220 9999 FEW018 SCT025 28/14
                        Q1011=
200908040915 METAR LIRA 040915Z 19009KT 110V230 9999 FEW018 27/15 Q1011=
200908040845 METAR LIRA 040845Z 17013KT 120V250 9999 FEW018 SCT070 26/14
                        Q1011=
200908040815 METAR LIRA 040815Z 17012KT 120V230 9999 FEW018 SCT070 26/15
                        Q1011=
200908040745 METAR LIRA 040745Z 18009KT 130V230 9999 FEW018 SCT070 25/16
                        Q1011=
200908040715 METAR LIRA 040715Z 17007KT 140V250 9999 FEW018 SCT070 25/16
                        Q1011=
200908040645 METAR LIRA 040645Z 18006KT 130V210 9999 FEW018 SCT070 24/15
                        Q1011=
200908040615 METAR LIRA 040615Z 20005KT 160V250 9999 FEW018 SCT025 23/15
                        Q1012=
200908040545 METAR LIRA 040545Z 19005KT 130V220 9999 SCT018 23/16 Q1012=
200908040515 METAR LIRA 040515Z 21003KT 160V230 9999 SCT018 SCT025 23/16
                        Q1011=
200908040445 METAR LIRA 040445Z 19006KT 150V230 9999 SCT018 SCT025 23/17
                        Q1011=
200908040415 METAR LIRA 040415Z 18003KT 150V240 9999 SCT020 SCT025 23/17
                        Q1011=
200908040345 METAR LIRA 040345Z 17006KT 130V190 9999 SCT020 23/17 Q1011=
200908040315 METAR LIRA 040315Z 17006KT CAVOK 23/18 Q1012=
200908040245 METAR LIRA 040245Z 17008KT CAVOK 23/19 Q1012=
200908040215 METAR LIRA 040215Z 18007KT 140V210 CAVOK 23/20 Q1012=
200908040145 METAR LIRA 040145Z 17008KT 150V220 CAVOK 23/20 Q1012=
200908040115 METAR LIRA 040115Z 18007KT CAVOK 23/19 Q1012=
200908040045 METAR LIRA 040045Z 15006KT CAVOK 23/19 Q1012=
200908040015 METAR LIRA 040015Z 16005KT CAVOK 23/20 Q1012=
200908032350 METAR LIRA 040045Z 15006KT CAVOK 23/19 Q1012=
200908032345 METAR LIRA 032345Z 15004KT CAVOK 23/21 Q1012=
200908032315 METAR LIRA 032315Z 16004KT 9999 FEW020 23/21 Q1012=
200908032245 METAR LIRA 032245Z 20003KT 9999 FEW018 23/21 Q1012=
200908032215 METAR LIRA 032215Z 19004KT 160V230 9999 SCT018 23/22 Q1012=
200908032145 METAR LIRA 032145Z 18004KT 9999 SCT018 24/22 Q1012=
200908032115 METAR LIRA 032115Z 18004KT 9999 FEW018 24/22 Q1012=
200908032045 METAR LIRA 032045Z 19003KT 9999 FEW018 24/23 Q1012=
200908032015 METAR LIRA 032015Z 19006KT 160V250 9999 FEW017 FEW018TCU
                        SCT070 25/23 Q1012=
200908031945 METAR LIRA 031945Z 18006KT 150V220 9999 FEW017 FEW018TCU
                        SCT080 25/23 Q1012=
200908031915 METAR LIRA 031915Z 16005KT 9999 FEW017 FEW018TCU BKN080 25/23
                        Q1012=
200908031845 METAR LIRA 031845Z 20005KT 150V250 9999 FEW017 FEW018TCU
                        BKN080 25/22 Q1012=
200908031815 METAR LIRA 031815Z 18006KT 140V210 9999 FEW017 FEW018TCU
                        SCT030 BKN080 25/22 Q1012=
200908031745 METAR LIRA 031745Z 21003KT 9999 FEW017 FEW018TCU SCT025 BKN080
                        25/22 Q1011=
200908031715 METAR LIRA 031715Z 21005KT 180V250 9999 FEW017 FEW018TCU
                        SCT025 BKN080 25/22 Q1012=
200908031645 METAR LIRA 031645Z 21008KT 170V250 9999 FEW017 FEW018TCU
                        SCT025 BKN080 25/23 Q1012=
200908031615 METAR LIRA 031615Z 21009KT 180V260 9999 FEW017 FEW018TCU
                        SCT025 BKN080 26/23 Q1012=
200908031545 METAR LIRA 031545Z 20008KT 160V260 9999 FEW018 SCT025 26/24
                        Q1012=
200908031515 METAR LIRA 031515Z 22008KT 150V260 9999 FEW018 BKN025 27/22
                        Q1012=
200908031445 METAR LIRA 031445Z 21010KT 140V270 9999 FEW018 BKN025 27/24
                        Q1012=
200908031415 METAR LIRA 031415Z 22008KT 170V280 9999 FEW018 BKN025 28/24
                        Q1012=
200908031345 METAR LIRA 031345Z 20010KT 150V250 9999 FEW018 BKN025 28/26
                        Q1012=
200908031315 METAR LIRA 031315Z 21010G23KT 160V290 9999 FEW018 BKN025
                        29/26 Q1012=
200908031245 METAR LIRA 031245Z 21014KT 150V260 9999 FEW018 BKN025 30/26
                        Q1012=
200908031215 METAR LIRA 031215Z 19013KT 150V230 9999 FEW018 BKN025 29/24
                        Q1012=
200908031145 METAR LIRA 031145Z 18014G24KT 140V230 9999 FEW018 BKN025
                        29/24 Q1012=
200908031115 METAR LIRA 031115Z 15016G26KT 110V220 9999 BKN018 31/24 Q1012=
200908031045 METAR LIRA 031045Z 14017KT 110V190 9999 SCT018 30/23 Q1012=
200908031015 METAR LIRA 031015Z 16015KT 110V200 9999 SCT018 31/23 Q1012=
200908030945 METAR LIRA 030945Z 15017KT 100V190 9999 SCT018 31/22 Q1012=
200908030915 METAR LIRA 030915Z 15018KT 9999 FEW018 SCT070 29/21 Q1013=
200908030845 METAR LIRA 030845Z 16016KT 120V180 9999 FEW018 SCT070 29/21
                        Q1013=
200908030815 METAR LIRA 030815Z 17014KT 130V200 9999 FEW018 29/18 Q1013=
200908030745 METAR LIRA 030745Z 18012KT 130V230 9999 FEW018 SCT070 30/13
                        Q1013=
200908030715 METAR LIRA 030715Z 15012KT 130V200 9999 FEW018 SCT070 29/15
                        Q1013=
200908030645 METAR LIRA 030645Z 15008KT 090V170 9999 SCT070 28/15 Q1013=
200908030615 METAR LIRA 030615Z 03002KT 9999 FEW070 26/15 Q1013=
200908030545 METAR LIRA 030545Z 01003KT 9999 FEW070 25/15 Q1012=
200908030515 METAR LIRA 030515Z 02003KT CAVOK 25/13 Q1012=
200908030445 METAR LIRA 030445Z 14009KT 9999 FEW070 24/13 Q1012=
200908030415 METAR LIRA 030415Z 14009KT 110V180 9999 FEW070 21/10 Q1012=
200908030345 METAR LIRA 030345Z 00000KT 9999 FEW080 20/13 Q1012=
200908030315 METAR LIRA 030315Z 00000KT CAVOK 19/13 Q1012=
200908030245 METAR LIRA 030245Z 00000KT CAVOK 20/13 Q1012=
200908030215 METAR LIRA 030215Z 00000KT CAVOK 20/12 Q1012=
200908030145 METAR LIRA 030145Z 00000KT CAVOK 21/12 Q1013=
200908030115 METAR LIRA 030115Z 00000KT CAVOK 21/12 Q1013=
200908030045 METAR LIRA 030045Z 00000KT CAVOK 21/13 Q1013=
200908030015 METAR LIRA 030015Z 00000KT CAVOK 22/14 Q1013=
200908022350 METAR LIRA 030045Z 00000KT CAVOK 21/13 Q1013=
200908022345 METAR LIRA 022345Z 12003KT CAVOK 23/14 Q1013=
200908022315 METAR LIRA 022315Z 10002KT CAVOK 23/13 Q1014=
200908022245 METAR LIRA 022245Z 05002KT CAVOK 23/12 Q1014=
200908022215 METAR LIRA 022215Z 09001KT CAVOK 24/12 Q1014=
200908022145 METAR LIRA 022145Z 18006KT 160V220 CAVOK 26/11 Q1014=
200908022115 METAR LIRA 022115Z 19007KT 150V240 CAVOK 24/15 Q1014=
200908022045 METAR LIRA 022045Z 22006KT CAVOK 24/19 Q1014=
200908022015 METAR LIRA 022015Z 22006KT CAVOK 25/19 Q1014=
200908021945 METAR LIRA 021945Z 21005KT CAVOK 26/19 Q1014=
200908021915 METAR LIRA 021915Z 21004KT 9999 FEW080 27/18 Q1013=
200908021845 METAR LIRA 021845Z 21004KT 9999 FEW070 28/16 Q1013=
200908021815 METAR LIRA 021815Z 19006KT 150V240 9999 FEW070 29/15 Q1013=
200908021745 METAR LIRA 021745Z 19007KT 160V230 9999 FEW070 29/13 Q1013=
200908021715 METAR LIRA 021715Z 20008KT 150V250 9999 FEW025 30/13 Q1013=
200908021645 METAR LIRA 021645Z 23010KT 200V270 9999 FEW025 31/13 Q1013=
200908021615 METAR LIRA 021615Z 23010KT 200V280 9999 FEW025 32/13 Q1014=
200908021545 METAR LIRA 021545Z 18007KT 120V250 9999 FEW070 33/11 Q1013=
200908021515 METAR LIRA 021515Z 19007KT 120V250 9999 FEW070 33/11 Q1014=
200908021445 METAR LIRA 021445Z 19010KT 140V280 9999 FEW070 33/09 Q1014=
200908021415 METAR LIRA 021415Z 19005KT 150V240 CAVOK 34/10 Q1014=
200908021345 METAR LIRA 021345Z 18007KT 070V250 CAVOK 33/09 Q1014=
200908021315 METAR LIRA 021315Z 19003KT 110V270 CAVOK 33/11 Q1014=
200908021245 METAR LIRA 021245Z 17007KT 130V330 CAVOK 33/12 Q1015=
200908021215 METAR LIRA 021215Z 24005KT 180V330 CAVOK 32/13 Q1015=
200908021145 METAR LIRA 021145Z 21005KT 170V360 CAVOK 32/14 Q1015=
200908021115 METAR LIRA 021115Z 25010KT 180V340 CAVOK 32/14 Q1015=
200908021045 METAR LIRA 021045Z 23009KT 160V260 CAVOK 32/11 Q1014=
200908021015 METAR LIRA 021015Z 24006KT 110V320 CAVOK 32/11 Q1014=
200908020945 METAR LIRA 020945Z 19005KT 110V230 CAVOK 33/12 Q1015=
200908020915 METAR LIRA 020915Z 27005KT 200V320 CAVOK 32/12 Q1015=
200908020845 METAR LIRA 020845Z 29006KT 250V340 CAVOK 30/14 Q1015=
200908020815 METAR LIRA 020815Z 31006KT 230V350 CAVOK 29/13 Q1015=
200908020745 METAR LIRA 020745Z 29003KT 230V360 CAVOK 28/16 Q1014=
200908020715 METAR LIRA 020715Z 00000KT CAVOK 26/15 Q1014=
200908020645 METAR LIRA 020645Z 34001KT CAVOK 25/15 Q1014=
200908020615 METAR LIRA 020615Z 32001KT CAVOK 22/18 Q1014=
200908020545 METAR LIRA 020545Z 01002KT CAVOK 20/17 Q1014=
200908020515 METAR LIRA 020515Z 36002KT CAVOK 20/16 Q1014=
200908020445 METAR LIRA 020445Z 03001KT CAVOK 19/16 Q1014=
200908020415 METAR LIRA 020415Z 05003KT CAVOK 19/13 Q1014=
200908020345 METAR LIRA 020345Z 06002KT CAVOK 19/12 Q1014=
200908020315 METAR LIRA 020315Z 03002KT CAVOK 19/11 Q1014=
200908020245 METAR LIRA 020245Z 07002KT CAVOK 19/11 Q1014=
200908020215 METAR LIRA 020215Z 07001KT CAVOK 20/12 Q1014=
200908020145 METAR LIRA 020145Z 00000KT CAVOK 20/12 Q1014=
200908020115 METAR LIRA 020115Z 10002KT CAVOK 20/12 Q1015=
200908020045 METAR LIRA 020045Z 10003KT CAVOK 20/11 Q1015=
200908020015 METAR LIRA 020015Z 11002KT CAVOK 21/10 Q1015=
200908012350 METAR LIRA 020045Z 10003KT CAVOK 20/11 Q1015=
200908012345 METAR LIRA 012345Z 14002KT CAVOK 21/11 Q1015=
200908012315 METAR LIRA 012315Z 11004KT CAVOK 21/12 Q1015=
200908012245 METAR LIRA 012245Z 00000KT CAVOK 22/18 Q1015=
200908012215 METAR LIRA 012215Z 00000KT CAVOK 22/19 Q1015=
200908012145 METAR LIRA 012145Z 00000KT CAVOK 23/20 Q1015=
200908012115 METAR LIRA 012115Z 07002KT CAVOK 23/19 Q1015=
200908012045 METAR LIRA 012045Z 16002KT CAVOK 24/21 Q1015=
200908012015 METAR LIRA 012015Z 21002KT CAVOK 24/21 Q1015=
200908011945 METAR LIRA 011945Z 22002KT CAVOK 24/21 Q1015=
200908011915 METAR LIRA 011915Z 22003KT CAVOK 24/21 Q1014=
200908011845 METAR LIRA 011845Z 22004KT CAVOK 26/22 Q1014=
200908011815 METAR LIRA 011815Z 23004KT CAVOK 27/20 Q1014=
200908011745 METAR LIRA 011745Z 20004KT 160V250 CAVOK 28/20 Q1014=
200908011715 METAR LIRA 011715Z 21007KT 160V250 CAVOK 28/20 Q1014=
200908011645 METAR LIRA 011645Z 20006KT 130V250 CAVOK 29/20 Q1014=
200908011615 METAR LIRA 011615Z 21007KT 140V270 CAVOK 29/19 Q1014=
200908011545 METAR LIRA 011545Z 21008KT 160V260 CAVOK 30/18 Q1014=
200908011515 METAR LIRA 011515Z 21008KT 150V240 CAVOK 30/17 Q1014=
200908011445 METAR LIRA 011445Z 20011KT 130V250 9999 FEW025 30/15 Q1014=
200908011415 METAR LIRA 011415Z 22008KT 160V250 9999 FEW025 31/16 Q1014=
200908011345 METAR LIRA 011345Z 20006KT 170V270 9999 FEW025 31/16 Q1014=
200908011315 METAR LIRA 011315Z 21007KT 160V260 9999 FEW025 31/16 Q1014=
200908011245 METAR LIRA 011245Z 20009KT 150V270 9999 FEW025 31/15 Q1015=
200908011215 METAR LIRA 011215Z 20006KT 150V270 CAVOK 32/16 Q1015=
200908011145 METAR LIRA 011145Z 22007KT 150V260 CAVOK 32/16 Q1015=
200908011115 METAR LIRA 011115Z 22006KT 150V270 CAVOK 32/15 Q1015=
200908011045 METAR LIRA 011045Z 21007KT 130V260 CAVOK 31/16 Q1015=
200908011015 METAR LIRA 011015Z 20008KT 150V270 CAVOK 31/16 Q1015=
200908010945 METAR LIRA 010945Z 18009KT 140V270 CAVOK 31/16 Q1015=
200908010915 METAR LIRA 010915Z 18007KT 140V230 CAVOK 31/16 Q1015=
200908010845 METAR LIRA 010845Z 17008KT 130V250 CAVOK 29/17 Q1015=
200908010815 METAR LIRA 010815Z 20004KT 170V270 CAVOK 28/19 Q1015=
200908010745 METAR LIRA 010745Z 22004KT 150V270 CAVOK 27/18 Q1015=
200908010715 METAR LIRA 010715Z 22005KT 150V240 CAVOK 26/17 Q1015=
200908010645 METAR LIRA 010645Z 21003KT CAVOK 25/16 Q1015=
200908010615 METAR LIRA 010615Z 06001KT CAVOK 24/19 Q1015=
200908010545 METAR LIRA 010545Z 04002KT CAVOK 23/20 Q1015=
200908010515 METAR LIRA 010515Z 05003KT CAVOK 21/19 Q1015=
200908010445 METAR LIRA 010445Z 07002KT CAVOK 20/17 Q1015=
200908010415 METAR LIRA 010415Z 07003KT CAVOK 20/17 Q1015=
200908010345 METAR LIRA 010345Z 08001KT CAVOK 21/16 Q1015=
200908010315 METAR LIRA 010315Z 09002KT CAVOK 21/16 Q1015=
200908010245 METAR LIRA 010245Z 00000KT CAVOK 21/18 Q1015=
200908010215 METAR LIRA 010215Z 00000KT 9999 FEW005 21/19 Q1015=
200908010045 METAR LIRA 010045Z 00000KT 7000 SCT005 22/21 Q1016=
200908010015 METAR LIRA 010015Z 00000KT 7000 SCT005 22/21 Q1016=

</pre>

</body>
</html>
