##########################################################
# Query made at 11/10/2014 14:27:32 UTC
# Time interval: from 08/01/2008 00:00  to 08/31/2008 23:59  UTC
##########################################################

##########################################################
# LIRA, Roma / Ciampino (Italy)
# WMO index: 16239
# Latitude 41-47N. Longitude 012-35E. Altitude 129 m.
##########################################################

###################################
#  METAR/SPECI from LIRA
###################################
200808312145 METAR LIRA 312145Z 19004KT CAVOK 24/20 Q1016=
200808312115 METAR LIRA 312115Z 19004KT CAVOK 24/19 Q1016=
200808312045 METAR LIRA 312045Z 21004KT CAVOK 25/17 Q1016=
200808312015 METAR LIRA 312015Z 20005KT CAVOK 25/13 Q1016=
200808311945 METAR LIRA 311945Z 19005KT CAVOK 25/13 Q1016=
200808311915 METAR LIRA 311915Z 21004KT CAVOK 25/13 Q1015=
200808311845 METAR LIRA 311845Z 19004KT CAVOK 27/13 Q1015=
200808311815 METAR LIRA 311815Z 19005KT CAVOK 28/12 Q1015=
200808311745 METAR LIRA 311745Z 22004KT CAVOK 29/12 Q1015=
200808311715 METAR LIRA 311715Z 25004KT 210V270 CAVOK 30/12 Q1015=
200808311645 METAR LIRA 311645Z 24005KT 210V320 9999 FEW020 31/12 Q1015=
200808311615 METAR LIRA 311615Z 26009KT 210V310 9999 FEW020 31/12 Q1015=
200808311545 METAR LIRA 311545Z 25009KT 210V330 9999 FEW018 32/13 Q1015=
200808311515 METAR LIRA 311515Z 29011KT 230V340 9999 FEW018 32/12 Q1015=
200808311445 METAR LIRA 311445Z 28010KT 210V350 9999 FEW018 32/10 Q1015=
200808311415 METAR LIRA 311415Z 27009KT 220V330 9999 FEW018 33/11 Q1015=
200808311345 METAR LIRA 311345Z 29011KT 210V330 9999 FEW018 33/13 Q1015=
200808311315 METAR LIRA 311315Z 29010KT 200V010 9999 FEW018 33/16 Q1015=
200808311245 METAR LIRA 311245Z 28007KT 220V360 9999 FEW018 32/18 Q1016=
200808311215 METAR LIRA 311215Z 23004KT 160V330 9999 FEW018 32/18 Q1016=
200808311145 METAR LIRA 311145Z 22005KT 170V270 9999 FEW018 32/17 Q1016=
200808311115 METAR LIRA 311115Z 27005KT 200V010 9999 FEW018 31/14 Q1016=
200808311045 METAR LIRA 311045Z 25008KT 210V320 CAVOK 31/16 Q1016=
200808311015 METAR LIRA 311015Z 32002KT 200V300 CAVOK 30/16 Q1016=
200808310945 METAR LIRA 310945Z 31004KT 260V330 CAVOK 28/15 Q1017=
200808310915 METAR LIRA 310915Z 25004KT CAVOK 27/14 Q1017=
200808310845 METAR LIRA 310845Z 27001KT CAVOK 27/16 Q1017=
200808310815 METAR LIRA 310815Z 00000KT CAVOK 25/16 Q1017=
200808310745 METAR LIRA 310745Z 02002KT CAVOK 23/15 Q1017=
200808310715 METAR LIRA 310715Z 02003KT CAVOK 22/15 Q1016=
200808310645 METAR LIRA 310645Z 02002KT CAVOK 20/15 Q1016=
200808310615 METAR LIRA 310615Z 03002KT CAVOK 19/15 Q1016=
200808310545 METAR LIRA 310545Z 04003KT CAVOK 19/14 Q1015=
200808310515 METAR LIRA 310515Z 00000KT CAVOK 19/14 Q1015=
200808310445 METAR LIRA 310445Z 05003KT CAVOK 20/15 Q1015=
200808310415 METAR LIRA 310415Z 01002KT CAVOK 20/14 Q1015=
200808310345 METAR LIRA 310345Z 00000KT CAVOK 20/15 Q1015=
200808310315 METAR LIRA 310315Z 33001KT CAVOK 20/15 Q1015=
200808310245 METAR LIRA 310245Z 06002KT CAVOK 21/15 Q1015=
200808310215 METAR LIRA 310215Z 00000KT CAVOK 21/14 Q1015=
200808310145 METAR LIRA 310145Z 09002KT CAVOK 21/15 Q1015=
200808310115 METAR LIRA 310115Z 12002KT CAVOK 22/16 Q1015=
200808310045 METAR LIRA 310045Z 09002KT CAVOK 22/19 Q1015=
200808310015 METAR LIRA 310015Z 12002KT CAVOK 23/21 Q1015=
200808302345 METAR LIRA 302345Z 16002KT CAVOK 23/21 Q1015=
200808302315 METAR LIRA 302315Z 18003KT CAVOK 24/21 Q1015=
200808302245 METAR LIRA 302245Z 18005KT CAVOK 24/21 Q1015=
200808302215 METAR LIRA 302215Z 19004KT CAVOK 24/21 Q1015=
200808302145 METAR LIRA 302145Z 17004KT CAVOK 24/21 Q1015=
200808302115 METAR LIRA 302115Z 19006KT CAVOK 24/19 Q1015=
200808302045 METAR LIRA 302045Z 19005KT CAVOK 25/19 Q1015=
200808302015 METAR LIRA 302015Z 18007KT 9999 FEW070 25/18 Q1015=
200808301945 METAR LIRA 301945Z 18006KT CAVOK 26/18 Q1015=
200808301915 METAR LIRA 301915Z 19006KT CAVOK 26/17 Q1015=
200808301845 METAR LIRA 301845Z 19006KT 170V230 CAVOK 27/16 Q1014=
200808301815 METAR LIRA 301815Z 19006KT 160V240 9999 FEW025 27/16 Q1014=
200808301745 METAR LIRA 301745Z 22005KT 180V260 9999 FEW025 28/14 Q1014=
200808301715 METAR LIRA 301715Z 23006KT 200V270 9999 FEW025 29/13 Q1014=
200808301645 METAR LIRA 301645Z 24010KT 210V330 9999 FEW020 30/13 Q1014=
200808301615 METAR LIRA 301615Z 26007KT 190V330 9999 FEW020 31/12 Q1014=
200808301545 METAR LIRA 301545Z 25010KT 220V300 9999 FEW020 31/12 Q1014=
200808301515 METAR LIRA 301515Z 26010KT 210V300 9999 FEW020 31/12 Q1014=
200808301445 METAR LIRA 301445Z 27009KT 190V340 9999 FEW020 32/13 Q1014=
200808301415 METAR LIRA 301415Z 28011KT 220V320 9999 FEW020 32/13 Q1014=
200808301345 METAR LIRA 301345Z 29010KT 190V340 9999 FEW020 33/12 Q1014=
200808301315 METAR LIRA 301315Z 29010KT 190V340 9999 FEW020 32/12 Q1014=
200808301245 METAR LIRA 301245Z 26006KT 210V330 9999 FEW020 32/10 Q1014=
200808301215 METAR LIRA 301215Z 29006KT 270V030 9999 FEW020 32/11 Q1014=
200808301145 METAR LIRA 301145Z 23004KT 120V300 9999 FEW020 31/11 Q1015=
200808301115 METAR LIRA 301115Z 24006KT 210V310 CAVOK 31/12 Q1015=
200808301045 METAR LIRA 301045Z 29006KT 250V320 CAVOK 30/12 Q1015=
200808301015 METAR LIRA 301015Z 32002KT CAVOK 29/12 Q1015=
200808300945 METAR LIRA 300945Z 33003KT CAVOK 27/12 Q1015=
200808300915 METAR LIRA 300915Z 00000KT CAVOK 26/12 Q1015=
200808300845 METAR LIRA 300845Z 32002KT CAVOK 25/13 Q1015=
200808300815 METAR LIRA 300815Z 00000KT CAVOK 24/14 Q1015=
200808300745 METAR LIRA 300745Z 01002KT CAVOK 23/15 Q1015=
200808300715 METAR LIRA 300715Z 06002KT CAVOK 22/15 Q1015=
200808300645 METAR LIRA 300645Z 04002KT CAVOK 20/15 Q1015=
200808300615 METAR LIRA 300615Z 32002KT CAVOK 18/13 Q1015=
200808300545 METAR LIRA 300545Z 00000KT CAVOK 18/14 Q1015=
200808300515 METAR LIRA 300515Z 32001KT CAVOK 18/12 Q1015=
200808300445 METAR LIRA 300445Z 09003KT CAVOK 19/13 Q1015=
200808300415 METAR LIRA 300415Z 08002KT 9999 FEW010 20/18 Q1015=
200808300345 METAR LIRA 300345Z 35002KT 8000 FEW010 20/16 Q1015=
200808300315 METAR LIRA 300315Z 13002KT 7000 FEW010 20/15 Q1015=
200808300245 METAR LIRA 300245Z 15005KT 5000 2000SE BR SCT005 19/13 Q1015=
200808300215 METAR LIRA 300215Z 17002KT CAVOK 20/14 Q1015=
200808300145 METAR LIRA 300145Z 18002KT CAVOK 20/14 Q1015=
200808300115 METAR LIRA 300115Z 15003KT CAVOK 20/14 Q1015=
200808300045 METAR LIRA 300045Z 16001KT CAVOK 21/15 Q1015=
200808300015 METAR LIRA 300015Z 14001KT CAVOK 21/15 Q1015=
200808292345 METAR LIRA 292345Z 15003KT CAVOK 21/16 Q1015=
200808292315 METAR LIRA 292315Z 12003KT CAVOK 22/14 Q1015=
200808292245 METAR LIRA 292245Z 15003KT CAVOK 22/14 Q1015=
200808292215 METAR LIRA 292215Z 18002KT CAVOK 23/15 Q1015=
200808292145 METAR LIRA 292145Z 17002KT CAVOK 23/19 Q1015=
200808292115 METAR LIRA 292115Z 00000KT CAVOK 23/19 Q1015=
200808292045 METAR LIRA 292045Z 00000KT CAVOK 24/20 Q1015=
200808292015 METAR LIRA 292015Z 23002KT CAVOK 24/18 Q1015=
200808291945 METAR LIRA 291945Z 21003KT CAVOK 24/17 Q1015=
200808291915 METAR LIRA 291915Z 20003KT CAVOK 25/16 Q1014=
200808291845 METAR LIRA 291845Z 21002KT 9999 FEW070 25/16 Q1014=
200808291815 METAR LIRA 291815Z 25002KT 9999 FEW070 26/18 Q1014=
200808291745 METAR LIRA 291745Z 26003KT 9999 FEW030 27/18 Q1014=
200808291715 METAR LIRA 291715Z 27005KT 220V310 CAVOK 28/17 Q1014=
200808291645 METAR LIRA 291645Z 23006KT 210V280 CAVOK 28/18 Q1014=
200808291615 METAR LIRA 291615Z 25007KT 210V280 9999 FEW020 29/18 Q1014=
200808291545 METAR LIRA 291545Z 25007KT 190V320 9999 FEW020 30/16 Q1014=
200808291515 METAR LIRA 291515Z 25007KT 190V310 9999 FEW020 30/16 Q1014=
200808291445 METAR LIRA 291445Z 25007KT 210V300 9999 FEW020 30/17 Q1014=
200808291415 METAR LIRA 291415Z 27009KT 200V300 9999 FEW023 30/16 Q1014=
200808291345 METAR LIRA 291345Z 23008KT 170V300 9999 FEW023 31/17 Q1015=
200808291315 METAR LIRA 291315Z 24007KT 190V300 9999 FEW023 31/15 Q1015=
200808291245 METAR LIRA 291245Z 23008KT 180V300 9999 FEW023 31/11 Q1015=
200808291215 METAR LIRA 291215Z 22007KT 160V270 9999 FEW023 31/11 Q1015=
200808291145 METAR LIRA 291145Z 28004KT 9999 FEW023 30/12 Q1015=
200808291115 METAR LIRA 291115Z 35002KT 9999 FEW023 30/12 Q1015=
200808291045 METAR LIRA 291045Z 27005KT 9999 FEW023 29/13 Q1015=
200808291015 METAR LIRA 291015Z 31005KT 270V340 9999 FEW023 29/13 Q1016=
200808290945 METAR LIRA 290945Z 30002KT 9999 FEW023 27/14 Q1016=
200808290915 METAR LIRA 290915Z 00000KT CAVOK 25/14 Q1016=
200808290845 METAR LIRA 290845Z 03001KT CAVOK 24/15 Q1016=
200808290815 METAR LIRA 290815Z 33002KT CAVOK 23/15 Q1016=
200808290745 METAR LIRA 290745Z 03003KT CAVOK 22/16 Q1016=
200808290715 METAR LIRA 290715Z 36003KT CAVOK 21/15 Q1016=
200808290645 METAR LIRA 290645Z 01003KT CAVOK 19/16 Q1015=
200808290615 METAR LIRA 290615Z 04003KT CAVOK 18/15 Q1015=
200808290545 METAR LIRA 290545Z 06004KT CAVOK 18/15 Q1015=
200808290515 METAR LIRA 290515Z 05004KT CAVOK 17/16 Q1015=
200808290445 METAR LIRA 290445Z 05003KT CAVOK 18/16 Q1014=
200808290415 METAR LIRA 290415Z 07003KT CAVOK 18/16 Q1015=
200808290345 METAR LIRA 290345Z 06002KT CAVOK 18/15 Q1014=
200808290315 METAR LIRA 290315Z 06002KT CAVOK 18/15 Q1014=
200808290245 METAR LIRA 290245Z 04003KT CAVOK 18/15 Q1014=
200808290215 METAR LIRA 290215Z 08002KT CAVOK 19/16 Q1014=
200808290145 METAR LIRA 290145Z 19002KT CAVOK 19/16 Q1014=
200808290115 METAR LIRA 290115Z 19001KT CAVOK 20/16 Q1014=
200808290045 METAR LIRA 290045Z 16002KT CAVOK 20/16 Q1014=
200808290015 METAR LIRA 290015Z 17001KT CAVOK 20/16 Q1015=
200808282350 METAR LIRA 290045Z 16002KT CAVOK 20/16 Q1014=
200808282345 METAR LIRA 282345Z 13002KT CAVOK 21/17 Q1015=
200808282315 METAR LIRA 282315Z 15002KT CAVOK 21/17 Q1015=
200808282245 METAR LIRA 282245Z 02001KT CAVOK 21/17 Q1015=
200808282215 METAR LIRA 282215Z 12004KT CAVOK 21/17 Q1015=
200808282145 METAR LIRA 282145Z 00000KT 9999 FEW070 21/18 Q1015=
200808282115 METAR LIRA 282115Z 00000KT 9999 FEW070 22/18 Q1015=
200808282045 METAR LIRA 282045Z 18002KT 9999 FEW070 22/18 Q1015=
200808282015 METAR LIRA 282015Z 00000KT 9999 FEW070 22/16 Q1015=
200808281945 METAR LIRA 281945Z 00000KT 9999 FEW070 23/16 Q1015=
200808281915 METAR LIRA 281915Z 25002KT 9999 FEW070 23/16 Q1014=
200808281845 METAR LIRA 281845Z 23002KT 9999 FEW070 24/15 Q1014=
200808281815 METAR LIRA 281815Z 24005KT 9999 FEW070 25/16 Q1014=
200808281745 METAR LIRA 281745Z 24006KT 9999 FEW020 26/16 Q1014=
200808281715 METAR LIRA 281715Z 26005KT 9999 FEW020 26/16 Q1014=
200808281645 METAR LIRA 281645Z 25007KT 220V320 9999 FEW020 FEW022CB 27/16
                        Q1014=
200808281615 METAR LIRA 281615Z 21008KT 210V340 9999 FEW020 FEW022CB 28/16
                        Q1014=
200808281545 METAR LIRA 281545Z 28007KT 230V330 9999 FEW022 FEW023CB 29/16
                        Q1014=
200808281515 METAR LIRA 281515Z 26007KT 210V330 9999 FEW022 FEW023CB 29/16
                        Q1014=
200808281445 METAR LIRA 281445Z 25010KT 210V330 9999 FEW022 FEW023CB 30/15
                        Q1014=
200808281415 METAR LIRA 281415Z 25009G19KT 180V320 9999 FEW022 FEW023CB
                        31/12 Q1014=
200808281345 METAR LIRA 281345Z 27009KT 210V320 9999 FEW022 FEW023TCU
                        31/13 Q1014=
200808281315 METAR LIRA 281315Z 29009KT 210V330 9999 FEW022 FEW023TCU
                        31/13 Q1015=
200808281245 METAR LIRA 281245Z 26011KT 190V330 9999 FEW022 FEW023TCU
                        30/14 Q1015=
200808281215 METAR LIRA 281215Z 24010KT 190V320 9999 FEW022 FEW023TCU
                        30/14 Q1015=
200808281145 METAR LIRA 281145Z 27004KT 240V320 9999 FEW022 FEW023TCU
                        30/13 Q1015=
200808281115 METAR LIRA 281115Z 27005KT 210V330 9999 FEW022 FEW023TCU
                        29/13 Q1015=
200808281045 METAR LIRA 281045Z 24003KT 200V280 9999 FEW022 FEW023TCU
                        28/15 Q1016=
200808281015 METAR LIRA 281015Z 26006KT 9999 FEW023 27/15 Q1016=
200808280945 METAR LIRA 280945Z 35003KT 310V030 9999 FEW023 27/14 Q1016=
200808280915 METAR LIRA 280915Z 31004KT 9999 FEW023 26/15 Q1016=
200808280845 METAR LIRA 280845Z 02003KT 9999 FEW023 25/15 Q1016=
200808280815 METAR LIRA 280815Z 05004KT CAVOK 24/15 Q1016=
200808280745 METAR LIRA 280745Z 03004KT 360V070 CAVOK 22/15 Q1016=
200808280715 METAR LIRA 280715Z 05004KT CAVOK 21/15 Q1016=
200808280645 METAR LIRA 280645Z 04004KT CAVOK 19/16 Q1016=
200808280615 METAR LIRA 280615Z 04004KT CAVOK 18/15 Q1016=
200808280545 METAR LIRA 280545Z 02002KT CAVOK 18/15 Q1016=
200808280515 METAR LIRA 280515Z 04002KT CAVOK 18/16 Q1015=
200808280445 METAR LIRA 280445Z 06004KT CAVOK 18/16 Q1015=
200808280415 METAR LIRA 280415Z 01002KT CAVOK 19/17 Q1015=
200808280345 METAR LIRA 280345Z 04003KT CAVOK 19/17 Q1015=
200808280315 METAR LIRA 280315Z 05004KT CAVOK 19/18 Q1016=
200808280245 METAR LIRA 280245Z 05002KT CAVOK 20/18 Q1016=
200808280215 METAR LIRA 280215Z 02002KT CAVOK 20/18 Q1016=
200808280145 METAR LIRA 280145Z 10003KT CAVOK 20/18 Q1016=
200808280115 METAR LIRA 280115Z 10003KT CAVOK 21/19 Q1016=
200808280045 METAR LIRA 280045Z 15003KT CAVOK 21/19 Q1017=
200808280015 METAR LIRA 280015Z 17004KT CAVOK 21/19 Q1017=
200808272345 METAR LIRA 272345Z 17002KT CAVOK 21/19 Q1017=
200808272315 METAR LIRA 272315Z 17002KT CAVOK 22/18 Q1017=
200808272245 METAR LIRA 272245Z 12002KT 9999 FEW080 23/19 Q1017=
200808272215 METAR LIRA 272215Z 12002KT 9999 FEW080 23/20 Q1017=
200808272145 METAR LIRA 272145Z 00000KT 9999 SCT080 23/20 Q1017=
200808272115 METAR LIRA 272115Z 00000KT 9999 SCT080 23/20 Q1017=
200808272045 METAR LIRA 272045Z 19002KT 9999 SCT080 24/20 Q1017=
200808272015 METAR LIRA 272015Z 17003KT 9999 FEW018 SCT080 24/20 Q1017=
200808271945 METAR LIRA 271945Z 19003KT 9999 FEW018 SCT080 24/20 Q1017=
200808271915 METAR LIRA 271915Z 20004KT 9999 FEW018 SCT080 25/20 Q1017=
200808271845 METAR LIRA 271845Z 24004KT 9999 FEW018 SCT080 25/20 Q1016=
200808271815 METAR LIRA 271815Z 21004KT 9999 FEW018 SCT080 26/20 Q1016=
200808271745 METAR LIRA 271745Z 24002KT 9999 FEW018 SCT080 27/20 Q1016=
200808271715 METAR LIRA 271715Z 24005KT 210V270 9999 FEW018 SCT200 27/20
                        Q1016=
200808271645 METAR LIRA 271645Z 24004KT 9999 FEW018 FEW020CB SCT080 27/20
                        Q1016=
200808271615 METAR LIRA 271615Z 32002KT 9999 FEW018 FEW020CB SCT080 27/20
                        Q1016=
200808271545 METAR LIRA 271545Z 18003KT 9999 FEW018 FEW022CB SCT070 27/19
                        Q1016=
200808271515 METAR LIRA 271515Z 21005KT 180V250 9999 SCT018 FEW022CB SCT070
                        27/19 Q1016=
200808271445 METAR LIRA 271445Z 18005KT 140V220 9999 SCT018 FEW022CB SCT070
                        26/19 Q1017 RETS=
200808271415 METAR LIRA 271415Z 17006KT 9999 SCT018 FEW022CB 26/19 Q1017
                        RETS=
200808271345 METAR LIRA 271345Z 15010KT 120V200 9999 TS SCT018 FEW022CB
                        26/19 Q1017=
200808271315 METAR LIRA 271315Z 17008KT 120V250 9999 -TSRA SCT018 FEW022CB
                        27/19 Q1017=
200808271245 METAR LIRA 271245Z 20008KT 160V260 9999 -TSRA FEW018 FEW020CB
                        27/19 Q1017=
200808271215 METAR LIRA 271215Z 24004KT 9999 SCT018 FEW022CB 29/16 Q1017=
200808271145 METAR LIRA 271145Z 24005KT 200V310 9999 FEW020 FEW022CB FEW024TCU
                        29/17 Q1017=
200808271115 METAR LIRA 271115Z 10002KT 9999 FEW020 FEW022CB FEW024TCU
                        29/17 Q1017=
200808271045 METAR LIRA 271045Z 11003KT 9999 FEW020 FEW022CB FEW024TCU
                        29/17 Q1018=
200808271015 METAR LIRA 271015Z 03002KT 9999 FEW020 28/16 Q1018=
200808270945 METAR LIRA 270945Z 25002KT 9999 FEW020 28/16 Q1018=
200808270915 METAR LIRA 270915Z 32001KT 9999 FEW020 FEW024TCU 27/16 Q1018=
200808270845 METAR LIRA 270845Z 36001KT 9999 FEW020 25/16 Q1018=
200808270815 METAR LIRA 270815Z 10002KT 9999 FEW020 25/15 Q1018=
200808270745 METAR LIRA 270745Z 03004KT 360V120 CAVOK 24/15 Q1018=
200808270715 METAR LIRA 270715Z 06004KT CAVOK 23/15 Q1017=
200808270645 METAR LIRA 270645Z 03004KT CAVOK 22/14 Q1017=
200808270615 METAR LIRA 270615Z 04003KT 9999 FEW080 21/14 Q1017=
200808270545 METAR LIRA 270545Z 02003KT 9999 FEW080 20/13 Q1017=
200808270515 METAR LIRA 270515Z 02002KT 9999 FEW080 20/16 Q1017=
200808270445 METAR LIRA 270445Z 05002KT CAVOK 19/16 Q1016=
200808270415 METAR LIRA 270415Z 05002KT CAVOK 19/16 Q1016=
200808270345 METAR LIRA 270345Z 05002KT 9999 FEW070 19/14 Q1016=
200808270315 METAR LIRA 270315Z 05002KT 9999 FEW070 20/14 Q1016=
200808270245 METAR LIRA 270245Z 35001KT 9999 FEW070 20/13 Q1016=
200808270215 METAR LIRA 270215Z 03002KT 9999 FEW070 20/14 Q1016=
200808270145 METAR LIRA 270145Z 06002KT 9999 FEW070 21/13 Q1016=
200808270115 METAR LIRA 270115Z 04002KT 9999 FEW070 20/13 Q1017=
200808262215 METAR LIRA 262215Z 16002KT 9999 FEW070 22/12 Q1017=
200808262145 METAR LIRA 262145Z 16004KT CAVOK 23/12 Q1017=
200808262115 METAR LIRA 262115Z 16002KT CAVOK 24/12 Q1017=
200808262045 METAR LIRA 262045Z 22001KT CAVOK 25/11 Q1017=
200808262015 METAR LIRA 262015Z 24001KT 9999 SCT070 25/10 Q1017=
200808261945 METAR LIRA 261945Z 24003KT 9999 BKN070 25/11 Q1017=
200808261915 METAR LIRA 261915Z 18002KT 9999 BKN070 26/12 Q1017=
200808261845 METAR LIRA 261845Z 19004KT 9999 FEW015 26/12 Q1017=
200808261815 METAR LIRA 261815Z 19005KT 9999 FEW015 27/13 Q1017=
200808261745 METAR LIRA 261745Z 23004KT 9999 FEW015CB 28/14 Q1017=
200808261715 METAR LIRA 261715Z 25006KT 200V270 9999 FEW020CB 28/14 Q1016=
200808261645 METAR LIRA 261645Z 24007KT 190V280 9999 FEW015CB 28/14 Q1016=
200808261615 METAR LIRA 261615Z 24006KT 200V290 9999 FEW015CB 29/14 Q1016=
200808261545 METAR LIRA 261545Z 28008KT 210V310 9999 FEW018 FEW020TCU
                        29/14 Q1017=
200808261515 METAR LIRA 261515Z 25008KT 190V280 9999 FEW018 FEW020CB 30/14
                        Q1017=
200808261445 METAR LIRA 261445Z 24008KT 150V300 9999 FEW018 FEW020CB 30/14
                        Q1017=
200808261415 METAR LIRA 261415Z 24009KT 180V290 9999 FEW018 FEW020TCU
                        30/11 Q1017=
200808261345 METAR LIRA 261345Z 23007KT 180V330 9999 FEW018 FEW020CB 30/12
                        Q1017=
200808261315 METAR LIRA 261315Z 26009KT 200V310 9999 FEW018 FEW020CB 30/12
                        Q1017=
200808261245 METAR LIRA 261245Z 31008KT 270V030 9999 FEW018 FEW020CB 31/11
                        Q1017=
200808261215 METAR LIRA 261215Z 24003KT 200V310 9999 FEW018 FEW020CB 31/13
                        Q1017=
200808261145 METAR LIRA 261145Z 25005KT 210V320 9999 FEW018 FEW020CB 30/12
                        Q1017=
200808261115 METAR LIRA 261115Z 32005KT 210V020 9999 FEW018 30/12 Q1017=
200808261045 METAR LIRA 261045Z 24003KT 260V330 9999 FEW018 29/12 Q1018=
200808261015 METAR LIRA 261015Z 32005KT 9999 FEW018 28/13 Q1018=
200808260945 METAR LIRA 260945Z 24003KT 9999 FEW018 27/14 Q1018=
200808260915 METAR LIRA 260915Z 13002KT 9999 FEW018 26/13 Q1017=
200808260845 METAR LIRA 260845Z 28002KT 9999 FEW018 24/15 Q1017=
200808260815 METAR LIRA 260815Z 36002KT 9999 FEW018 23/17 Q1017=
200808260745 METAR LIRA 260745Z 01003KT CAVOK 22/15 Q1017=
200808260715 METAR LIRA 260715Z 03003KT CAVOK 20/15 Q1017=
200808260645 METAR LIRA 260645Z 01003KT CAVOK 19/16 Q1017=
200808260615 METAR LIRA 260615Z 36002KT CAVOK 18/15 Q1017=
200808260545 METAR LIRA 260545Z 03001KT CAVOK 17/16 Q1017=
200808260515 METAR LIRA 260515Z 30001KT CAVOK 17/16 Q1016=
200808260445 METAR LIRA 260445Z 08002KT 9999 FEW080 17/15 Q1016=
200808260415 METAR LIRA 260415Z 07004KT 9999 FEW080 17/15 Q1016=
200808260345 METAR LIRA 260345Z 06004KT CAVOK 17/13 Q1016=
200808260315 METAR LIRA 260315Z 06004KT CAVOK 18/12 Q1016=
200808260245 METAR LIRA 260245Z 11002KT CAVOK 18/12 Q1016=
200808260215 METAR LIRA 260215Z 10003KT CAVOK 18/13 Q1016=
200808260145 METAR LIRA 260145Z 17001KT CAVOK 18/14 Q1016=
200808260115 METAR LIRA 260115Z 16002KT CAVOK 19/15 Q1016=
200808260045 METAR LIRA 260045Z 11003KT CAVOK 19/17 Q1016=
200808260015 METAR LIRA 260015Z 11004KT CAVOK 19/16 Q1016=
200808252345 METAR LIRA 252345Z 15002KT CAVOK 20/17 Q1016=
200808252315 METAR LIRA 252315Z 16003KT CAVOK 20/17 Q1016=
200808252245 METAR LIRA 252245Z 14003KT CAVOK 20/18 Q1016=
200808252215 METAR LIRA 252215Z 16001KT CAVOK 20/18 Q1016=
200808252145 METAR LIRA 252145Z 15004KT CAVOK 21/19 Q1016=
200808252115 METAR LIRA 252115Z 17002KT CAVOK 22/20 Q1016=
200808252045 METAR LIRA 252045Z 19003KT CAVOK 22/20 Q1016=
200808252015 METAR LIRA 252015Z 16004KT CAVOK 23/20 Q1016=
200808251945 METAR LIRA 251945Z 19004KT CAVOK 23/19 Q1016=
200808251915 METAR LIRA 251915Z 19004KT CAVOK 24/18 Q1015=
200808251845 METAR LIRA 251845Z 19003KT 9999 FEW020 SCT200 24/17 Q1015=
200808251815 METAR LIRA 251815Z 22004KT 9999 FEW020 SCT200 25/17 Q1015=
200808251745 METAR LIRA 251745Z 24004KT 180V260 9999 FEW020 SCT200 26/19
                        Q1014=
200808251715 METAR LIRA 251715Z 23005KT 190V280 9999 FEW020 SCT200 26/18
                        Q1014=
200808251645 METAR LIRA 251645Z 23007KT 190V270 9999 FEW020 SCT200 27/16
                        Q1014=
200808251615 METAR LIRA 251615Z 24010KT 160V280 9999 FEW020 27/17 Q1014=
200808251545 METAR LIRA 251545Z 23008KT 170V260 9999 FEW020 27/15 Q1014=
200808251515 METAR LIRA 251515Z 22008KT 150V270 9999 FEW020 28/15 Q1014=
200808251445 METAR LIRA 251445Z 20009KT 150V270 9999 FEW020 28/13 Q1014=
200808251415 METAR LIRA 251415Z 23008KT 150V280 9999 FEW020 29/14 Q1014=
200808251345 METAR LIRA 251345Z 23010KT 150V230 9999 FEW017 29/15 Q1014=
200808251315 METAR LIRA 251315Z 23008KT 140V290 9999 FEW017 29/14 Q1014=
200808251245 METAR LIRA 251245Z 24007KT 200V280 9999 FEW017 30/14 Q1014=
200808251215 METAR LIRA 251215Z 23009KT 160V300 9999 FEW017 30/14 Q1014=
200808251145 METAR LIRA 251145Z 27009KT 200V320 9999 FEW017 29/14 Q1014=
200808251115 METAR LIRA 251115Z 27007KT 180V320 9999 FEW017 29/14 Q1014=
200808251045 METAR LIRA 251045Z 25007KT 210V310 9999 FEW017 28/12 Q1015=
200808251015 METAR LIRA 251015Z 24006KT 180V280 9999 FEW017 28/13 Q1015=
200808250945 METAR LIRA 250945Z 31005KT 9999 FEW016 27/16 Q1015=
200808250915 METAR LIRA 250915Z 25002KT 9999 FEW015 27/19 Q1015=
200808250845 METAR LIRA 250845Z 30004KT 9999 FEW015 26/20 Q1015=
200808250815 METAR LIRA 250815Z 23003KT 9999 FEW015 24/19 Q1015=
200808250745 METAR LIRA 250745Z 24004KT 9999 FEW015 23/18 Q1014=
200808250715 METAR LIRA 250715Z 21004KT 9999 FEW017 21/19 Q1014=
200808250645 METAR LIRA 250645Z 22003KT 9999 FEW017 21/18 Q1014=
200808250615 METAR LIRA 250615Z 23002KT 9999 FEW017 20/18 Q1014=
200808250545 METAR LIRA 250545Z 25002KT CAVOK 20/18 Q1013=
200808250515 METAR LIRA 250515Z 17005KT CAVOK 20/18 Q1013=
200808250445 METAR LIRA 250445Z 18003KT CAVOK 20/18 Q1013=
200808250415 METAR LIRA 250415Z 17003KT CAVOK 20/18 Q1012=
200808250345 METAR LIRA 250345Z 15004KT CAVOK 21/18 Q1012=
200808250315 METAR LIRA 250315Z 16004KT CAVOK 21/18 Q1012=
200808250245 METAR LIRA 250245Z 16002KT CAVOK 22/19 Q1012=
200808250215 METAR LIRA 250215Z 16004KT CAVOK 22/19 Q1012=
200808250145 METAR LIRA 250145Z 16002KT CAVOK 22/20 Q1012=
200808250115 METAR LIRA 250115Z 19003KT CAVOK 22/20 Q1012=
200808250045 METAR LIRA 250045Z 20003KT CAVOK 23/19 Q1012=
200808250015 METAR LIRA 250015Z 19003KT CAVOK 22/19 Q1012=
200808242350 METAR LIRA 250045Z 20003KT CAVOK 23/19 Q1012=
200808242145 METAR LIRA 242145Z 20003KT 9999 FEW020 SCT200 23/19 Q1013=
200808242115 METAR LIRA 242115Z 18004KT 9999 FEW020 SCT200 23/19 Q1013=
200808242045 METAR LIRA 242045Z 20003KT 9999 FEW020 SCT200 23/18 Q1012=
200808242015 METAR LIRA 242015Z 19003KT 9999 FEW020 SCT200 24/18 Q1012=
200808241945 METAR LIRA 241945Z 23001KT 9999 FEW020 SCT200 24/18 Q1012=
200808241915 METAR LIRA 241915Z 21002KT 9999 FEW020 SCT200 24/18 Q1012=
200808241845 METAR LIRA 241845Z 24002KT 9999 FEW020 SCT200 25/18 Q1012=
200808241815 METAR LIRA 241815Z 27002KT 9999 FEW020 SCT200 25/18 Q1012=
200808241745 METAR LIRA 241745Z 24003KT 9999 FEW020 SCT200 26/18 Q1011=
200808241715 METAR LIRA 241715Z 29005KT 220V330 9999 FEW020 BKN200 26/18
                        Q1011=
200808241645 METAR LIRA 241645Z 24006KT 9999 FEW020 BKN200 26/17 Q1011=
200808241615 METAR LIRA 241615Z 25005KT 220V310 9999 FEW020 BKN200 27/17
                        Q1011=
200808241545 METAR LIRA 241545Z 24007KT 170V280 9999 FEW022 BKN200 27/17
                        Q1011=
200808241515 METAR LIRA 241515Z 24007KT 190V280 9999 FEW022 BKN200 28/17
                        Q1011=
200808241445 METAR LIRA 241445Z 23007KT 170V260 9999 FEW022 BKN200 28/16
                        Q1010=
200808241415 METAR LIRA 241415Z 21008KT 140V250 9999 FEW022 BKN200 29/17
                        Q1010=
200808241345 METAR LIRA 241345Z 23008KT 140V270 9999 FEW022 BKN200 29/16
                        Q1010=
200808241315 METAR LIRA 241315Z 21008KT 120V280 9999 FEW025 BKN200 29/15
                        Q1010=
200808241245 METAR LIRA 241245Z 22007KT 160V250 9999 FEW025 BKN200 29/13
                        Q1010=
200808241215 METAR LIRA 241215Z 27003KT 9999 FEW025 BKN200 28/13 Q1010=
200808241145 METAR LIRA 241145Z 21005KT 100V220 9999 FEW025 BKN200 28/14
                        Q1011=
200808241115 METAR LIRA 241115Z 18003KT 140V220 9999 FEW025 BKN200 27/15
                        Q1011=
200808241045 METAR LIRA 241045Z 19006KT 080V250 9999 FEW025 BKN200 27/16
                        Q1011=
200808241015 METAR LIRA 241015Z 15006KT 100V200 9999 FEW022 SCT200 25/15
                        Q1011=
200808240945 METAR LIRA 240945Z 16008KT 120V210 9999 FEW022 SCT200 25/16
                        Q1011=
200808240915 METAR LIRA 240915Z 15007KT 110V240 9999 SCT018 SCT200 25/16
                        Q1011=
200808240845 METAR LIRA 240845Z 18007KT 120V250 9999 SCT018 SCT200 24/18
                        Q1011=
200808240815 METAR LIRA 240815Z 18007KT 100V250 9999 SCT018 SCT200 24/17
                        Q1011=
200808240745 METAR LIRA 240745Z 16005KT 130V220 9999 SCT015 SCT200 23/18
                        Q1010=
200808240715 METAR LIRA 240715Z 17008KT 130V210 9999 SCT015 SCT200 22/19
                        Q1010=
200808240645 METAR LIRA 240645Z 17005KT 9999 SCT015 SCT200 21/18 Q1010=
200808240615 METAR LIRA 240615Z 19004KT 9999 SCT015 SCT200 20/17 Q1010=
200808240545 METAR LIRA 240545Z 14004KT 9999 FEW015 SCT200 20/17 Q1009=
200808240515 METAR LIRA 240515Z 15002KT 9999 FEW015 SCT200 20/17 Q1009=
200808240445 METAR LIRA 240445Z 18006KT 9999 FEW015 SCT200 20/17 Q1009=
200808240415 METAR LIRA 240415Z 16003KT 9999 FEW015 20/17 Q1009=
200808240345 METAR LIRA 240345Z 18004KT 9999 FEW015 20/16 Q1009=
200808240315 METAR LIRA 240315Z 24001KT 9999 FEW015 21/17 Q1009=
200808240245 METAR LIRA 240245Z 25001KT 9999 SCT015 22/18 Q1009=
200808240215 METAR LIRA 240215Z 18004KT 9999 SCT015 22/18 Q1010=
200808240145 METAR LIRA 240145Z 18004KT 9999 SCT015 22/18 Q1010=
200808240115 METAR LIRA 240115Z 18003KT 9999 SCT015 22/18 Q1010=
200808240045 METAR LIRA 240045Z 18003KT 9999 BKN015 22/18 Q1010=
200808240015 METAR LIRA 240015Z 18002KT 9999 SCT015 22/18 Q1010=
200808232345 METAR LIRA 232345Z 20002KT 9999 SCT015 22/18 Q1010=
200808232315 METAR LIRA 232315Z 19003KT 9999 SCT015 23/19 Q1010=
200808232245 METAR LIRA 232245Z 18006KT 9999 FEW007 23/18 Q1010=
200808232215 METAR LIRA 232215Z 19005KT 9999 FEW007 23/18 Q1010=
200808232145 METAR LIRA 232145Z 18004KT 9999 FEW007 23/18 Q1010=
200808232115 METAR LIRA 232115Z 18003KT CAVOK 23/19 Q1010=
200808232045 METAR LIRA 232045Z 18003KT CAVOK 23/18 Q1010=
200808232015 METAR LIRA 232015Z 20006KT CAVOK 24/18 Q1010=
200808231945 METAR LIRA 231945Z 18004KT CAVOK 24/18 Q1010=
200808231915 METAR LIRA 231915Z 15008KT 110V200 CAVOK 24/18 Q1010=
200808231845 METAR LIRA 231845Z 19006KT CAVOK 24/18 Q1010=
200808231815 METAR LIRA 231815Z 20006KT CAVOK 25/18 Q1010=
200808231745 METAR LIRA 231745Z 20010KT 150V240 CAVOK 26/17 Q1010=
200808231715 METAR LIRA 231715Z 21007KT 170V270 CAVOK 26/18 Q1010=
200808231645 METAR LIRA 231645Z 21009KT 9999 FEW020 26/18 Q1010=
200808231615 METAR LIRA 231615Z 22009KT 150V270 9999 FEW020 SCT200 27/18
                        Q1010=
200808231545 METAR LIRA 231545Z 21011KT 170V260 9999 FEW020 SCT200 27/18
                        Q1010=
200808231515 METAR LIRA 231515Z 21011KT 170V270 9999 FEW020 SCT200 27/19
                        Q1010=
200808231445 METAR LIRA 231445Z 20010KT 150V250 9999 FEW018 SCT200 28/20
                        Q1011=
200808231415 METAR LIRA 231415Z 21011KT 170V270 9999 FEW018 SCT200 28/20
                        Q1011=
200808231345 METAR LIRA 231345Z 22008KT 170V270 9999 SCT018 SCT200 28/19
                        Q1011=
200808231315 METAR LIRA 231315Z 21014KT 170V270 9999 SCT018 SCT200 28/19
                        Q1011=
200808231245 METAR LIRA 231245Z 21010KT 120V260 9999 FEW017 SCT200 29/20
                        Q1011=
200808231215 METAR LIRA 231215Z 21010KT 150V260 9999 FEW017 SCT200 29/20
                        Q1011=
200808231145 METAR LIRA 231145Z 21011KT 150V270 9999 SCT017 27/20 Q1012=
200808231115 METAR LIRA 231115Z 20011KT 150V240 9999 FEW016 27/20 Q1012=
200808231045 METAR LIRA 231045Z 22009KT 150V270 9999 FEW016 26/19 Q1012=
200808231015 METAR LIRA 231015Z 22006KT 150V260 9999 FEW016 SCT080 28/20
                        Q1012=
200808230945 METAR LIRA 230945Z 21007KT 140V280 9999 FEW016 SCT025 28/20
                        Q1013=
200808230915 METAR LIRA 230915Z 22006KT 140V280 9999 FEW016 SCT025 27/20
                        Q1013=
200808230845 METAR LIRA 230845Z 20009KT 150V270 9999 FEW016 26/19 Q1012=
200808230815 METAR LIRA 230815Z 18005KT 140V240 9999 FEW016 26/20 Q1012=
200808230745 METAR LIRA 230745Z 18006KT 140V240 9999 FEW016 25/20 Q1013=
200808230715 METAR LIRA 230715Z 21004KT 9999 FEW015 24/20 Q1013=
200808230645 METAR LIRA 230645Z 22004KT CAVOK 23/19 Q1012=
200808230615 METAR LIRA 230615Z 18004KT CAVOK 22/18 Q1012=
200808230545 METAR LIRA 230545Z 17002KT CAVOK 20/17 Q1012=
200808230515 METAR LIRA 230515Z 17003KT 9999 FEW080 19/16 Q1012=
200808230445 METAR LIRA 230445Z 13004KT 9999 FEW080 20/17 Q1012=
200808230415 METAR LIRA 230415Z 11006KT 9999 FEW013 20/16 Q1012=
200808230345 METAR LIRA 230345Z 13002KT 9999 FEW080 20/16 Q1012=
200808230315 METAR LIRA 230315Z 14002KT 9999 FEW070 20/16 Q1012=
200808230245 METAR LIRA 230245Z 13003KT 9999 FEW080 20/16 Q1012=
200808230215 METAR LIRA 230215Z 12004KT CAVOK 20/16 Q1013=
200808230145 METAR LIRA 230145Z 17003KT CAVOK 21/16 Q1013=
200808230115 METAR LIRA 230115Z 18002KT CAVOK 21/16 Q1013=
200808230045 METAR LIRA 230045Z 18002KT CAVOK 21/16 Q1013=
200808230015 METAR LIRA 230015Z 16002KT CAVOK 21/16 Q1013=
200808222350 METAR LIRA 230045Z 18002KT CAVOK 21/16 Q1013=
200808222345 METAR LIRA 222345Z 11004KT CAVOK 21/18 Q1013=
200808222315 METAR LIRA 222315Z 11004KT CAVOK 21/19 Q1013=
200808222245 METAR LIRA 222245Z 18002KT CAVOK 22/20 Q1014=
200808222215 METAR LIRA 222215Z 00000KT CAVOK 22/20 Q1014=
200808222145 METAR LIRA 222145Z 00000KT CAVOK 23/20 Q1014=
200808222115 METAR LIRA 222115Z 16002KT CAVOK 23/20 Q1014=
200808222045 METAR LIRA 222045Z 27003KT CAVOK 23/19 Q1013=
200808222015 METAR LIRA 222015Z 26002KT CAVOK 24/18 Q1013=
200808221945 METAR LIRA 221945Z 27002KT CAVOK 25/18 Q1013=
200808221915 METAR LIRA 221915Z 26003KT CAVOK 25/17 Q1013=
200808221845 METAR LIRA 221845Z 24003KT CAVOK 26/15 Q1013=
200808221815 METAR LIRA 221815Z 21002KT CAVOK 27/15 Q1013=
200808221745 METAR LIRA 221745Z 26004KT CAVOK 28/16 Q1013=
200808221715 METAR LIRA 221715Z 25005KT CAVOK 31/17 Q1013=
200808221645 METAR LIRA 221645Z 27006KT 200V330 CAVOK 32/17 Q1013=
200808221615 METAR LIRA 221615Z 29010KT 210V310 CAVOK 32/16 Q1013=
200808221545 METAR LIRA 221545Z 28008KT 210V310 CAVOK 31/15 Q1013=
200808221515 METAR LIRA 221515Z 25008KT 210V310 CAVOK 32/15 Q1013=
200808221445 METAR LIRA 221445Z 02006KT 190V290 9999 FEW020 33/15 Q1013=
200808221415 METAR LIRA 221415Z 24007KT 190V330 9999 FEW020 32/15 Q1014=
200808221345 METAR LIRA 221345Z 23008KT 180V310 9999 FEW020 32/15 Q1014=
200808221315 METAR LIRA 221315Z 23007KT 150V300 9999 FEW020 33/16 Q1014=
200808221245 METAR LIRA 221245Z 24006KT 160V320 9999 FEW020 32/16 Q1015=
200808221215 METAR LIRA 221215Z 24010KT 180V300 9999 FEW020 32/16 Q1015=
200808221145 METAR LIRA 221145Z 23010KT 170V280 9999 FEW020 32/18 Q1015=
200808221115 METAR LIRA 221115Z 02009KT 160V260 CAVOK 32/17 Q1015=
200808221045 METAR LIRA 221045Z 19009KT 170V250 CAVOK 32/17 Q1015=
200808221015 METAR LIRA 221015Z 20008KT 140V230 CAVOK 32/17 Q1015=
200808220945 METAR LIRA 220945Z 21010KT 150V240 CAVOK 31/14 Q1015=
200808220915 METAR LIRA 220915Z 21006KT 200V006 CAVOK 30/15 Q1015=
200808220845 METAR LIRA 220845Z 32003KT CAVOK 29/15 Q1015=
200808220815 METAR LIRA 220815Z 12001KT CAVOK 27/14 Q1015=
200808220745 METAR LIRA 220745Z 12002KT CAVOK 26/14 Q1015=
200808220715 METAR LIRA 220715Z 00000KT CAVOK 23/12 Q1015=
200808220645 METAR LIRA 220645Z 32001KT CAVOK 23/14 Q1014=
200808220615 METAR LIRA 220615Z 36003KT CAVOK 20/13 Q1014=
200808220545 METAR LIRA 220545Z 00000KT CAVOK 19/13 Q1014=
200808220515 METAR LIRA 220515Z 00000KT CAVOK 19/12 Q1014=
200808220445 METAR LIRA 220445Z 27002KT CAVOK 19/12 Q1014=
200808220415 METAR LIRA 220415Z 07003KT CAVOK 19/11 Q1014=
200808220345 METAR LIRA 220345Z 35002KT CAVOK 20/11 Q1014=
200808220315 METAR LIRA 220315Z 09002KT CAVOK 20/11 Q1014=
200808220245 METAR LIRA 220245Z 09002KT CAVOK 20/11 Q1015=
200808220215 METAR LIRA 220215Z 09002KT CAVOK 21/11 Q1015=
200808220145 METAR LIRA 220145Z 12001KT CAVOK 21/11 Q1015=
200808220115 METAR LIRA 220115Z 11001KT CAVOK 21/10 Q1015=
200808220045 METAR LIRA 220045Z 11001KT CAVOK 22/10 Q1015=
200808220015 METAR LIRA 220015Z 00000KT CAVOK 22/10 Q1015=
200808212350 METAR LIRA 220045Z 11001KT CAVOK 22/10 Q1015=
200808212345 METAR LIRA 212345Z 00000KT CAVOK 24/10 Q1015=
200808212315 METAR LIRA 212315Z 00000KT CAVOK 24/10 Q1015=
200808212245 METAR LIRA 212245Z 12004KT CAVOK 25/10 Q1015=
200808212215 METAR LIRA 212215Z 12002KT CAVOK 25/10 Q1015=
200808212145 METAR LIRA 212145Z 13002KT CAVOK 25/11 Q1015=
200808212115 METAR LIRA 212115Z 16003KT CAVOK 26/11 Q1015=
200808212045 METAR LIRA 212045Z 12003KT CAVOK 27/12 Q1015=
200808212015 METAR LIRA 212015Z 13003KT CAVOK 28/12 Q1015=
200808211945 METAR LIRA 211945Z 19002KT CAVOK 27/12 Q1015=
200808211915 METAR LIRA 211915Z 20002KT CAVOK 28/12 Q1015=
200808211845 METAR LIRA 211845Z 17004KT CAVOK 29/12 Q1015=
200808211815 METAR LIRA 211815Z 18005KT CAVOK 30/11 Q1015=
200808211745 METAR LIRA 211745Z 21003KT CAVOK 31/10 Q1015=
200808211715 METAR LIRA 211715Z 24004KT 220V290 CAVOK 32/10 Q1015=
200808211645 METAR LIRA 211645Z 25007KT 210V330 CAVOK 33/11 Q1014=
200808211615 METAR LIRA 211615Z 26010KT 220V310 CAVOK 33/11 Q1014=
200808211545 METAR LIRA 211545Z 29009KT 210V360 CAVOK 33/11 Q1015=
200808211515 METAR LIRA 211515Z 26009KT 190V310 CAVOK 34/09 Q1015=
200808211445 METAR LIRA 211445Z 28011KT 200V310 CAVOK 35/10 Q1015=
200808211415 METAR LIRA 211415Z 29010KT 230V020 CAVOK 35/11 Q1015=
200808211345 METAR LIRA 211345Z 27008KT 210V340 CAVOK 35/12 Q1015=
200808211315 METAR LIRA 211315Z 30008KT 230V350 9999 FEW018 35/10 Q1015=
200808211245 METAR LIRA 211245Z 30009KT 240V330 9999 FEW018 35/09 Q1015=
200808211215 METAR LIRA 211215Z 30007KT 210V330 CAVOK 34/11 Q1015=
200808211145 METAR LIRA 211145Z 33006KT 270V030 CAVOK 34/10 Q1016=
200808211115 METAR LIRA 211115Z 30007KT 250V360 CAVOK 34/11 Q1016=
200808211045 METAR LIRA 211045Z 25002KT CAVOK 33/12 Q1016=
200808211015 METAR LIRA 211015Z 01003KT CAVOK 31/14 Q1016=
200808210945 METAR LIRA 210945Z 25002KT CAVOK 30/16 Q1016=
200808210915 METAR LIRA 210915Z 00000KT CAVOK 28/15 Q1016=
200808210845 METAR LIRA 210845Z 36001KT CAVOK 26/15 Q1016=
200808210815 METAR LIRA 210815Z 29001KT CAVOK 25/15 Q1016=
200808210745 METAR LIRA 210745Z 34003KT CAVOK 23/14 Q1016=
200808210715 METAR LIRA 210715Z 34002KT CAVOK 23/16 Q1016=
200808210645 METAR LIRA 210645Z 05003KT CAVOK 22/15 Q1016=
200808210615 METAR LIRA 210615Z 02003KT CAVOK 21/15 Q1015=
200808210545 METAR LIRA 210545Z 03003KT CAVOK 20/15 Q1015=
200808210515 METAR LIRA 210515Z 04004KT CAVOK 19/15 Q1015=
200808210445 METAR LIRA 210445Z 05005KT 360V110 CAVOK 19/14 Q1015=
200808210415 METAR LIRA 210415Z 06006KT CAVOK 20/14 Q1015=
200808210345 METAR LIRA 210345Z 04004KT CAVOK 21/15 Q1015=
200808210315 METAR LIRA 210315Z 02005KT 330V070 CAVOK 20/14 Q1014=
200808210245 METAR LIRA 210245Z 02005KT 350V060 CAVOK 21/14 Q1014=
200808210215 METAR LIRA 210215Z 04005KT CAVOK 21/15 Q1014=
200808210145 METAR LIRA 210145Z 02005KT CAVOK 21/14 Q1015=
200808202345 METAR LIRA 202345Z 04003KT CAVOK 21/16 Q1015=
200808202315 METAR LIRA 202315Z 08002KT CAVOK 22/17 Q1015=
200808202245 METAR LIRA 202245Z 00000KT CAVOK 23/17 Q1015=
200808202215 METAR LIRA 202215Z 18001KT CAVOK 23/16 Q1015=
200808202145 METAR LIRA 202145Z 23002KT CAVOK 24/17 Q1015=
200808202115 METAR LIRA 202115Z 25001KT CAVOK 24/16 Q1015=
200808202045 METAR LIRA 202045Z 19003KT CAVOK 25/17 Q1015=
200808202015 METAR LIRA 202015Z 18002KT CAVOK 25/15 Q1015=
200808201945 METAR LIRA 201945Z 21001KT CAVOK 26/15 Q1015=
200808201915 METAR LIRA 201915Z 21002KT CAVOK 26/15 Q1014=
200808201845 METAR LIRA 201845Z 19005KT CAVOK 27/14 Q1014=
200808201815 METAR LIRA 201815Z 21003KT CAVOK 28/15 Q1014=
200808201745 METAR LIRA 201745Z 23004KT CAVOK 29/15 Q1014=
200808201715 METAR LIRA 201715Z 24005KT 210V290 CAVOK 30/15 Q1015=
200808201645 METAR LIRA 201645Z 27005KT 200V340 CAVOK 29/14 Q1015=
200808201615 METAR LIRA 201615Z 26007KT 220V320 CAVOK 30/14 Q1014=
200808201545 METAR LIRA 201545Z 27008KT 200V330 CAVOK 31/15 Q1014=
200808201515 METAR LIRA 201515Z 27010KT 230V350 CAVOK 31/15 Q1014=
200808201445 METAR LIRA 201445Z 28010KT 190V320 CAVOK 32/13 Q1014=
200808201415 METAR LIRA 201415Z 26011KT 220V330 CAVOK 32/11 Q1014=
200808201345 METAR LIRA 201345Z 25009KT CAVOK 32/12 Q1014=
200808201315 METAR LIRA 201315Z 27010KT 200V320 CAVOK 32/14 Q1014=
200808201245 METAR LIRA 201245Z 26011KT 220V340 CAVOK 32/15 Q1014=
200808201215 METAR LIRA 201215Z 26010KT 180V340 CAVOK 32/14 Q1014=
200808201145 METAR LIRA 201145Z 27008KT 220V010 CAVOK 32/13 Q1014=
200808201115 METAR LIRA 201115Z 27004KT 250V350 CAVOK 32/13 Q1014=
200808201045 METAR LIRA 201045Z 31007KT 260V360 CAVOK 31/13 Q1014=
200808201015 METAR LIRA 201015Z 33004KT CAVOK 30/13 Q1014=
200808200945 METAR LIRA 200945Z 34003KT CAVOK 29/13 Q1014=
200808200915 METAR LIRA 200915Z 15002KT 9999 FEW025 28/14 Q1014=
200808200845 METAR LIRA 200845Z 01003KT 9999 FEW025 26/14 Q1014=
200808200815 METAR LIRA 200815Z 04004KT CAVOK 25/14 Q1013=
200808200745 METAR LIRA 200745Z 05003KT CAVOK 23/14 Q1013=
200808200715 METAR LIRA 200715Z 01003KT 9999 FEW070 22/14 Q1013=
200808200645 METAR LIRA 200645Z 03005KT 9999 FEW070 21/14 Q1013=
200808200615 METAR LIRA 200615Z 04004KT 9999 FEW070 20/13 Q1013=
200808200545 METAR LIRA 200545Z 03001KT 9999 FEW070 19/13 Q1013=
200808200515 METAR LIRA 200515Z 07002KT CAVOK 18/13 Q1013=
200808200445 METAR LIRA 200445Z 02001KT CAVOK 19/12 Q1013=
200808200415 METAR LIRA 200415Z 08001KT CAVOK 19/13 Q1013=
200808200345 METAR LIRA 200345Z 06002KT CAVOK 19/13 Q1013=
200808200315 METAR LIRA 200315Z 02002KT CAVOK 19/13 Q1013=
200808200245 METAR LIRA 200245Z 02002KT CAVOK 20/13 Q1013=
200808200215 METAR LIRA 200215Z 30001KT CAVOK 20/13 Q1013=
200808200145 METAR LIRA 200145Z 03002KT CAVOK 21/13 Q1013=
200808200115 METAR LIRA 200115Z 05002KT CAVOK 21/13 Q1013=
200808200045 METAR LIRA 200045Z 05003KT CAVOK 21/13 Q1012=
200808200015 METAR LIRA 200015Z 07003KT CAVOK 23/13 Q1013=
200808192345 METAR LIRA 192345Z 10003KT CAVOK 22/12 Q1013=
200808192245 METAR LIRA 192245Z 15002KT CAVOK 22/15 Q1013=
200808192215 METAR LIRA 192215Z 16003KT CAVOK 23/17 Q1013=
200808192145 METAR LIRA 192145Z 19002KT CAVOK 23/15 Q1013=
200808192115 METAR LIRA 192115Z 22002KT CAVOK 24/15 Q1013=
200808192045 METAR LIRA 192045Z 20001KT CAVOK 25/16 Q1013=
200808192015 METAR LIRA 192015Z 21002KT CAVOK 25/17 Q1013=
200808191945 METAR LIRA 191945Z 20003KT CAVOK 25/17 Q1013=
200808191915 METAR LIRA 191915Z 22004KT CAVOK 25/16 Q1013=
200808191845 METAR LIRA 191845Z 21005KT CAVOK 26/12 Q1013=
200808191815 METAR LIRA 191815Z 22003KT CAVOK 27/12 Q1013=
200808191745 METAR LIRA 191745Z 24004KT CAVOK 29/12 Q1013=
200808191715 METAR LIRA 191715Z 27005KT 220V310 CAVOK 30/11 Q1013=
200808191645 METAR LIRA 191645Z 28007KT 220V330 CAVOK 30/10 Q1013=
200808191615 METAR LIRA 191615Z 29009KT 230V330 CAVOK 30/10 Q1014=
200808191545 METAR LIRA 191545Z 25009KT 210V330 CAVOK 31/11 Q1014=
200808191515 METAR LIRA 191515Z 27007KT 210V330 CAVOK 31/12 Q1014=
200808191445 METAR LIRA 191445Z 26009KT 210V330 CAVOK 31/12 Q1014=
200808191415 METAR LIRA 191415Z 28009KT 220V320 CAVOK 33/10 Q1014=
200808191345 METAR LIRA 191345Z 27009KT 210V320 CAVOK 33/09 Q1014=
200808191315 METAR LIRA 191315Z 28004KT 9999 FEW024 33/09 Q1015=
200808191245 METAR LIRA 191245Z 31007KT 240V350 9999 FEW024 32/09 Q1015=
200808191215 METAR LIRA 191215Z 30005KT 9999 FEW024 32/10 Q1015=
200808191145 METAR LIRA 191145Z 34002KT 9999 FEW024 32/11 Q1015=
200808191115 METAR LIRA 191115Z 07005KT 020V140 9999 FEW024 30/11 Q1015=
200808191045 METAR LIRA 191045Z 31006KT 300V030 9999 FEW024 30/13 Q1016=
200808191015 METAR LIRA 191015Z 27002KT 9999 FEW024 30/13 Q1016=
200808190945 METAR LIRA 190945Z 06002KT 9999 FEW024 28/13 Q1016=
200808190915 METAR LIRA 190915Z 11003KT 9999 FEW024 27/13 Q1016=
200808190845 METAR LIRA 190845Z 36001KT 9999 FEW023 26/15 Q1017=
200808190815 METAR LIRA 190815Z 36003KT CAVOK 24/14 Q1017=
200808190745 METAR LIRA 190745Z 04003KT CAVOK 22/13 Q1016=
200808190715 METAR LIRA 190715Z 04003KT CAVOK 21/14 Q1016=
200808190645 METAR LIRA 190645Z 03003KT CAVOK 19/15 Q1016=
200808190615 METAR LIRA 190615Z 04002KT CAVOK 18/15 Q1016=
200808190545 METAR LIRA 190545Z 01002KT CAVOK 18/16 Q1016=
200808190515 METAR LIRA 190515Z 04003KT CAVOK 18/15 Q1016=
200808190445 METAR LIRA 190445Z 04003KT CAVOK 19/15 Q1016=
200808190415 METAR LIRA 190415Z 03003KT CAVOK 19/16 Q1016=
200808190345 METAR LIRA 190345Z 03003KT CAVOK 19/15 Q1015=
200808190315 METAR LIRA 190315Z 04004KT CAVOK 19/16 Q1015=
200808190245 METAR LIRA 190245Z 03002KT CAVOK 19/16 Q1016=
200808190215 METAR LIRA 190215Z 03002KT CAVOK 19/16 Q1016=
200808190145 METAR LIRA 190145Z 03002KT CAVOK 19/16 Q1016=
200808190115 METAR LIRA 190115Z 04003KT CAVOK 19/15 Q1016=
200808190045 METAR LIRA 190045Z 05002KT CAVOK 19/16 Q1016=
200808190015 METAR LIRA 190015Z 07003KT CAVOK 20/17 Q1016=
200808182345 METAR LIRA 182345Z 00000KT CAVOK 20/17 Q1016=
200808182315 METAR LIRA 182315Z 00000KT CAVOK 21/18 Q1016=
200808182245 METAR LIRA 182245Z 19001KT CAVOK 21/18 Q1017=
200808182215 METAR LIRA 182215Z 17002KT CAVOK 21/19 Q1017=
200808182145 METAR LIRA 182145Z 16003KT CAVOK 22/19 Q1017=
200808182115 METAR LIRA 182115Z 18002KT CAVOK 23/20 Q1017=
200808182045 METAR LIRA 182045Z 20004KT CAVOK 23/20 Q1017=
200808182015 METAR LIRA 182015Z 20002KT CAVOK 23/19 Q1017=
200808181945 METAR LIRA 181945Z 20003KT CAVOK 24/18 Q1017=
200808181915 METAR LIRA 181915Z 21004KT CAVOK 24/19 Q1016=
200808181845 METAR LIRA 181845Z 22002KT CAVOK 25/19 Q1016=
200808181815 METAR LIRA 181815Z 21004KT CAVOK 26/19 Q1016=
200808181745 METAR LIRA 181745Z 24002KT 200V320 CAVOK 27/19 Q1016=
200808181715 METAR LIRA 181715Z 26006KT 210V320 CAVOK 27/13 Q1016=
200808181645 METAR LIRA 181645Z 27007KT 220V340 CAVOK 27/10 Q1016=
200808181615 METAR LIRA 181615Z 30011KT 220V340 CAVOK 27/10 Q1016=
200808181545 METAR LIRA 181545Z 27010KT 210V330 CAVOK 29/11 Q1016=
200808181515 METAR LIRA 181515Z 28011KT 240V320 CAVOK 30/12 Q1016=
200808181445 METAR LIRA 181445Z 29009KT 220V330 CAVOK 30/10 Q1016=
200808181415 METAR LIRA 181415Z 28016KT 220V330 CAVOK 30/10 Q1016=
200808181345 METAR LIRA 181345Z 28010KT 240V320 9999 FEW023 31/11 Q1016=
200808181315 METAR LIRA 181315Z 28012KT 220V340 9999 FEW023 31/10 Q1016=
200808181245 METAR LIRA 181245Z 28010KT 210V330 CAVOK 31/09 Q1016=
200808181215 METAR LIRA 181215Z 34008KT 290V020 CAVOK 31/09 Q1017=
200808181145 METAR LIRA 181145Z 35009KT 270V050 CAVOK 30/09 Q1017=
200808181115 METAR LIRA 181115Z 32008KT 250V020 CAVOK 30/10 Q1017=
200808181045 METAR LIRA 181045Z 01004KT 300V080 CAVOK 29/09 Q1017=
200808181015 METAR LIRA 181015Z 35005KT 300V060 CAVOK 28/09 Q1017=
200808180945 METAR LIRA 180945Z 36006KT 300V030 CAVOK 27/10 Q1017=
200808180915 METAR LIRA 180915Z 36006KT 290V040 CAVOK 26/12 Q1017=
200808180845 METAR LIRA 180845Z 01005KT 300V040 CAVOK 23/16 Q1017=
200808180815 METAR LIRA 180815Z 05004KT CAVOK 22/15 Q1017=
200808180745 METAR LIRA 180745Z 35004KT CAVOK 20/15 Q1017=
200808180715 METAR LIRA 180715Z 02005KT 350V060 CAVOK 19/16 Q1017=
200808180645 METAR LIRA 180645Z 02004KT 330V080 CAVOK 18/15 Q1017=
200808180615 METAR LIRA 180615Z 03004KT 330V080 CAVOK 17/15 Q1017=
200808180545 METAR LIRA 180545Z 03002KT CAVOK 16/14 Q1016=
200808180515 METAR LIRA 180515Z 04003KT CAVOK 16/14 Q1016=
200808180445 METAR LIRA 180445Z 05004KT CAVOK 17/14 Q1016=
200808180415 METAR LIRA 180415Z 07003KT CAVOK 17/14 Q1016=
200808180345 METAR LIRA 180345Z 00000KT CAVOK 17/14 Q1015=
200808180315 METAR LIRA 180315Z 00000KT CAVOK 17/14 Q1015=
200808180245 METAR LIRA 180245Z 00000KT CAVOK 18/13 Q1015=
200808180215 METAR LIRA 180215Z 00000KT CAVOK 18/14 Q1015=
200808180145 METAR LIRA 180145Z 00000KT CAVOK 19/14 Q1015=
200808180115 METAR LIRA 180115Z 18002KT CAVOK 19/15 Q1015=
200808180045 METAR LIRA 180045Z 17002KT CAVOK 19/15 Q1015=
200808180015 METAR LIRA 180015Z 11002KT CAVOK 20/15 Q1015=
200808172350 METAR LIRA 180045Z 17002KT CAVOK 19/15 Q1015=
200808172345 METAR LIRA 172345Z 00000KT CAVOK 20/15 Q1015=
200808172315 METAR LIRA 172315Z 00000KT CAVOK 20/14 Q1015=
200808172245 METAR LIRA 172245Z 00000KT CAVOK 21/16 Q1015=
200808172215 METAR LIRA 172215Z 00000KT CAVOK 21/15 Q1014=
200808172145 METAR LIRA 172145Z 00000KT CAVOK 21/15 Q1014=
200808172115 METAR LIRA 172115Z 20002KT CAVOK 21/16 Q1014=
200808172045 METAR LIRA 172045Z 12002KT CAVOK 22/16 Q1014=
200808172015 METAR LIRA 172015Z 00000KT CAVOK 22/16 Q1014=
200808171945 METAR LIRA 171945Z 00000KT CAVOK 23/15 Q1014=
200808171915 METAR LIRA 171915Z 24001KT 9999 FEW018 24/15 Q1013=
200808171845 METAR LIRA 171845Z 25002KT 9999 FEW018 24/15 Q1013=
200808171815 METAR LIRA 171815Z 26003KT 9999 FEW018 25/15 Q1013=
200808171745 METAR LIRA 171745Z 26004KT 230V310 9999 FEW018 26/14 Q1012=
200808171715 METAR LIRA 171715Z 26006KT 210V310 CAVOK 26/14 Q1012=
200808171645 METAR LIRA 171645Z 28007KT 220V350 9999 FEW018 27/13 Q1012=
200808171615 METAR LIRA 171615Z 28008KT 200V330 9999 FEW018 27/14 Q1012=
200808171545 METAR LIRA 171545Z 24008KT 190V330 9999 FEW018 27/14 Q1012=
200808171515 METAR LIRA 171515Z 27007KT 200V360 9999 FEW018 27/14 Q1012=
200808171445 METAR LIRA 171445Z 23008KT 200V280 9999 SCT018 27/12 Q1012=
200808171415 METAR LIRA 171415Z 26008KT 210V320 9999 SCT018 27/13 Q1012=
200808171345 METAR LIRA 171345Z 24009KT 200V330 9999 SCT018 28/13 Q1012=
200808171315 METAR LIRA 171315Z 24007KT 180V310 9999 SCT018 27/13 Q1012=
200808171245 METAR LIRA 171245Z 26009KT 180V330 9999 SCT018 28/13 Q1012=
200808171215 METAR LIRA 171215Z 27004KT 260V350 9999 SCT018 27/13 Q1012=
200808171145 METAR LIRA 171145Z 28006KT 200V030 9999 SCT018 28/13 Q1012=
200808171115 METAR LIRA 171115Z 24004KT 180V340 9999 SCT018 27/14 Q1012=
200808171045 METAR LIRA 171045Z 17006KT 130V300 9999 SCT018 27/15 Q1012=
200808171015 METAR LIRA 171015Z 03004KT 9999 SCT018 25/14 Q1012=
200808170945 METAR LIRA 170945Z 07004KT 9999 SCT018 25/15 Q1012=
200808170915 METAR LIRA 170915Z 34004KT 9999 SCT018 24/15 Q1012=
200808170845 METAR LIRA 170845Z 33002KT 9999 FEW020 23/16 Q1012=
200808170815 METAR LIRA 170815Z 31002KT 9999 FEW020 23/17 Q1011=
200808170745 METAR LIRA 170745Z 07003KT 9999 FEW020 22/18 Q1011=
200808170715 METAR LIRA 170715Z 04003KT CAVOK 21/16 Q1011=
200808170645 METAR LIRA 170645Z 05002KT CAVOK 19/15 Q1010=
200808170615 METAR LIRA 170615Z 04002KT CAVOK 18/15 Q1010=
200808170545 METAR LIRA 170545Z 06002KT CAVOK 17/13 Q1010=
200808170515 METAR LIRA 170515Z 11004KT CAVOK 18/14 Q1010=
200808170445 METAR LIRA 170445Z 06002KT CAVOK 18/14 Q1010=
200808170415 METAR LIRA 170415Z 21001KT CAVOK 18/15 Q1010=
200808170345 METAR LIRA 170345Z 15004KT CAVOK 18/15 Q1010=
200808170315 METAR LIRA 170315Z 18002KT CAVOK 19/15 Q1010=
200808170245 METAR LIRA 170245Z 12004KT CAVOK 19/15 Q1010=
200808170215 METAR LIRA 170215Z 12003KT CAVOK 19/15 Q1010=
200808170145 METAR LIRA 170145Z 13004KT CAVOK 19/15 Q1010=
200808170115 METAR LIRA 170115Z 17003KT CAVOK 20/16 Q1010=
200808170045 METAR LIRA 170045Z 16005KT CAVOK 20/16 Q1010=
200808170015 METAR LIRA 170015Z 15005KT CAVOK 20/16 Q1010=
200808162345 METAR LIRA 162345Z 16005KT CAVOK 21/16 Q1010=
200808162315 METAR LIRA 162315Z 16005KT CAVOK 21/16 Q1010=
200808162245 METAR LIRA 162245Z 16004KT CAVOK 21/16 Q1010=
200808162215 METAR LIRA 162215Z 14002KT CAVOK 22/16 Q1010=
200808162145 METAR LIRA 162145Z 18004KT CAVOK 22/16 Q1010=
200808162115 METAR LIRA 162115Z 18004KT CAVOK 22/16 Q1010=
200808162045 METAR LIRA 162045Z 19003KT CAVOK 22/16 Q1010=
200808162015 METAR LIRA 162015Z 20003KT CAVOK 22/16 Q1010=
200808161945 METAR LIRA 161945Z 20003KT CAVOK 23/16 Q1010=
200808161915 METAR LIRA 161915Z 26001KT 9999 FEW025 24/14 Q1009=
200808161845 METAR LIRA 161845Z 23003KT 9999 FEW025 24/14 Q1009=
200808161815 METAR LIRA 161815Z 26005KT 9999 FEW025 25/14 Q1009=
200808161745 METAR LIRA 161745Z 27005KT 230V330 9999 FEW025 26/13 Q1009=
200808161715 METAR LIRA 161715Z 27006KT 230V330 9999 FEW025 26/13 Q1008=
200808161645 METAR LIRA 161645Z 27007KT 230V340 9999 SCT022 26/13 Q1008=
200808161615 METAR LIRA 161615Z 29009KT 200V330 9999 SCT022 27/17 Q1008=
200808161545 METAR LIRA 161545Z 28011KT 220V330 9999 SCT018 27/11 Q1008=
200808161515 METAR LIRA 161515Z 25011KT 210V310 9999 SCT018 28/11 Q1008=
200808161445 METAR LIRA 161445Z 27010KT 210V020 9999 SCT018 28/12 Q1008=
200808161415 METAR LIRA 161415Z 27010KT 200V360 9999 SCT018 28/12 Q1008=
200808161345 METAR LIRA 161345Z 25008KT 200V350 9999 SCT018 28/12 Q1008=
200808161315 METAR LIRA 161315Z 29009KT 210V340 9999 SCT018 28/11 Q1008=
200808161245 METAR LIRA 161245Z 27011KT 210V330 9999 SCT018 26/11 Q1008=
200808161215 METAR LIRA 161215Z 27009KT 230V330 9999 2000 SCT018 26/11
                        Q1008=
200808161145 METAR LIRA 161145Z 23007G17KT 210V330 9999 BKN018 26/11 Q1008=
200808161115 METAR LIRA 161115Z 31006KT 180V360 9999 BKN018 27/11 Q1008=
200808161045 METAR LIRA 161045Z 29005KT 230V010 9999 BKN018 26/12 Q1008=
200808161015 METAR LIRA 161015Z 31003KT 260V020 9999 BKN018 26/13 Q1008=
200808160945 METAR LIRA 160945Z 32008KT 290V030 9999 SCT018 25/13 Q1008=
200808160915 METAR LIRA 160915Z 29005KT 270V050 9999 SCT018 25/13 Q1008=
200808160845 METAR LIRA 160845Z 29008KT 240V060 9999 SCT018 25/14 Q1007=
200808160815 METAR LIRA 160815Z 36006KT 250V020 9999 SCT018 24/16 Q1007=
200808160745 METAR LIRA 160745Z 33001KT 9999 SCT018 23/16 Q1007=
200808160715 METAR LIRA 160715Z 33003KT 9999 SCT018 23/16 Q1007=
200808160645 METAR LIRA 160645Z 00000KT 9999 FEW018 22/16 Q1007=
200808160615 METAR LIRA 160615Z 18004KT 9999 FEW018 21/16 Q1006=
200808160545 METAR LIRA 160545Z 17005KT 9999 FEW018 21/16 Q1006=
200808160515 METAR LIRA 160515Z 18005KT 9999 FEW018 20/16 Q1006=
200808160445 METAR LIRA 160445Z 17005KT 9999 SCT020 19/15 Q1006=
200808160415 METAR LIRA 160415Z 17006KT 9999 SCT020 20/15 Q1006=
200808160345 METAR LIRA 160345Z 17004KT 9999 FEW020 20/15 Q1006=
200808160315 METAR LIRA 160315Z 19004KT 9999 FEW020 20/15 Q1006=
200808160245 METAR LIRA 160245Z 16006KT 9999 FEW020 21/16 Q1006=
200808160215 METAR LIRA 160215Z 22003KT 170V260 9999 FEW020 21/16 Q1006=
200808160145 METAR LIRA 160145Z 18005KT 9999 FEW020 SCT070 21/16 Q1006=
200808160115 METAR LIRA 160115Z 18005KT 160V220 9999 SCT017 SCT070 21/16
                        Q1006=
200808160045 METAR LIRA 160045Z 19006KT 9999 SCT017 SCT070 21/15 Q1006=
200808152350 METAR LIRA 160045Z 19006KT 9999 SCT017 SCT070 21/15 Q1006=
200808152215 METAR LIRA 152215Z 23004KT 170V260 9999 SCT017 SCT070 22/15
                        Q1007=
200808152145 METAR LIRA 152145Z 24007KT 180V280 9999 SCT017 SCT070 22/15
                        Q1008=
200808152115 METAR LIRA 152115Z 24009KT 200V300 9999 SCT017 SCT070 22/14
                        Q1008=
200808152045 METAR LIRA 152045Z 24006KT 180V290 9999 SCT017 SCT070 22/14
                        Q1008=
200808152015 METAR LIRA 152015Z 24007KT 200V280 9999 FEW017 SCT070 24/14
                        Q1008=
200808151945 METAR LIRA 151945Z 26011G23KT 210V310 9999 FEW015CB SCT025
                        24/16 Q1007=
200808151915 METAR LIRA 151915Z 26010G21KT 220V310 9999 FEW015CB SCT025
                        24/16 Q1007 RETS=
200808151845 METAR LIRA 151845Z 24007KT 190V320 9999 FEW015CB SCT025 25/17
                        Q1006 RETS=
200808151815 METAR LIRA 151815Z 27008KT 180V320 9999 TS FEW015CB SCT025
                        26/17 Q1006=
200808151745 METAR LIRA 151745Z 27012G22KT 210V340 9999 TS FEW015CB SCT025
                        26/18 Q1006=
200808151715 METAR LIRA 151715Z 26007KT 220V290 9999 FEW015 SCT025 27/18
                        Q1006=
200808151645 METAR LIRA 151645Z 27009KT 190V330 9999 FEW015 SCT025 28/17
                        Q1006=
200808151615 METAR LIRA 151615Z 25009KT 210V330 9999 FEW015 SCT025 28/20
                        Q1006=
200808151545 METAR LIRA 151545Z 25014KT 210V330 9999 FEW015 SCT200 28/21
                        Q1006=
200808151515 METAR LIRA 151515Z 25009G22KT 210V330 9999 FEW015 SCT200
                        29/22 Q1006=
200808151445 METAR LIRA 151445Z 26010KT 200V330 9999 FEW016 SCT080 30/23
                        Q1006=
200808151415 METAR LIRA 151415Z 24012KT 200V300 9999 FEW016 SCT080 30/22
                        Q1006=
200808151345 METAR LIRA 151345Z 23012KT 170V270 9999 FEW016 SCT025 31/22
                        Q1006=
200808151315 METAR LIRA 151315Z 21014KT 150V240 9999 SCT016 SCT022 30/23
                        Q1006=
200808151245 METAR LIRA 151245Z 17010KT 120V220 9999 FEW016 SCT022 31/21
                        Q1006=
200808151215 METAR LIRA 151215Z 17013KT 110V200 9999 FEW016 SCT022 31/21
                        Q1006=
200808151145 METAR LIRA 151145Z 21012KT 160V270 9999 FEW016 SCT022 30/20
                        Q1007=
200808151115 METAR LIRA 151115Z 18013KT 150V240 9999 SCT016 SCT200 30/21
                        Q1007=
200808151045 METAR LIRA 151045Z 20014G24KT 150V230 9999 FEW016 SCT022
                        29/21 Q1007=
200808151015 METAR LIRA 151015Z 20014KT 160V240 9999 SCT016 SCT080 30/21
                        Q1007=
200808150945 METAR LIRA 150945Z 16012KT 120V240 9999 SCT015 SCT200 30/22
                        Q1007=
200808150915 METAR LIRA 150915Z 17012KT 120V200 9999 SCT015 SCT200 29/21
                        Q1008=
200808150845 METAR LIRA 150845Z 17014KT 120V220 9999 FEW015 SCT200 28/21
                        Q1008=
200808150815 METAR LIRA 150815Z 19013KT 150V230 9999 FEW015 SCT200 28/20
                        Q1008=
200808150745 METAR LIRA 150745Z 19010KT 150V230 CAVOK 27/19 Q1008=
200808150715 METAR LIRA 150715Z 18009KT 140V230 CAVOK 25/21 Q1008=
200808150645 METAR LIRA 150645Z 00000KT 9000 NSC 23/21 Q1008=
200808150615 METAR LIRA 150615Z 00000KT 8000 NSC 23/21 Q1008=
200808150545 METAR LIRA 150545Z 07003KT 8000 NSC 22/21 Q1008=
200808150515 METAR LIRA 150515Z 29003KT 8000 FEW080 21/20 Q1008=
200808150445 METAR LIRA 150445Z 12003KT 7000 FEW080 21/21 Q1008=
200808150415 METAR LIRA 150415Z 00000KT 7000 FEW025 22/21 Q1008=
200808150345 METAR LIRA 150345Z 00000KT CAVOK 21/20 Q1008=
200808150315 METAR LIRA 150315Z 00000KT CAVOK 22/21 Q1008=
200808150245 METAR LIRA 150245Z 00000KT CAVOK 22/21 Q1008=
200808150215 METAR LIRA 150215Z 00000KT CAVOK 22/21 Q1008=
200808150145 METAR LIRA 150145Z 00000KT CAVOK 22/21 Q1009=
200808150015 METAR LIRA 150015Z 18005KT CAVOK 24/22 Q1011=
200808142345 METAR LIRA 142345Z 18005KT CAVOK 24/23 Q1012=
200808142315 METAR LIRA 142315Z 19004KT CAVOK 24/23 Q1012=
200808142245 METAR LIRA 142245Z 21003KT CAVOK 24/22 Q1012=
200808142145 METAR LIRA 142145Z 22001KT CAVOK 24/22 Q1012=
200808142115 METAR LIRA 142115Z 18002KT CAVOK 24/22 Q1012=
200808142045 METAR LIRA 142045Z 19002KT CAVOK 25/23 Q1012=
200808142015 METAR LIRA 142015Z 24002KT CAVOK 25/22 Q1012=
200808141945 METAR LIRA 141945Z 24002KT CAVOK 25/22 Q1012=
200808141915 METAR LIRA 141915Z 23002KT CAVOK 25/22 Q1012=
200808141845 METAR LIRA 141845Z 23003KT CAVOK 26/23 Q1012=
200808141815 METAR LIRA 141815Z 23005KT CAVOK 27/21 Q1012=
200808141745 METAR LIRA 141745Z 23006KT 200V280 CAVOK 28/23 Q1013=
200808141715 METAR LIRA 141715Z 22006KT 190V280 CAVOK 29/21 Q1013=
200808141645 METAR LIRA 141645Z 23008KT 140V300 CAVOK 30/21 Q1013=
200808141615 METAR LIRA 141615Z 21009KT 190V270 CAVOK 30/22 Q1012=
200808141545 METAR LIRA 141545Z 24009KT 180V280 CAVOK 31/22 Q1013=
200808141515 METAR LIRA 141515Z 22006KT 170V310 CAVOK 31/22 Q1013=
200808141445 METAR LIRA 141445Z 19010KT 160V310 CAVOK 31/22 Q1013=
200808141415 METAR LIRA 141415Z 24008KT 180V280 CAVOK 32/21 Q1013=
200808141345 METAR LIRA 141345Z 24008KT 160V280 CAVOK 32/21 Q1013=
200808141315 METAR LIRA 141315Z 25009KT 180V290 CAVOK 32/22 Q1013=
200808141245 METAR LIRA 141245Z 23006KT 160V320 CAVOK 32/22 Q1013=
200808141215 METAR LIRA 141215Z 20010KT 170V260 CAVOK 32/21 Q1013=
200808141145 METAR LIRA 141145Z 19008KT 160V250 CAVOK 32/20 Q1014=
200808141115 METAR LIRA 141115Z 20008KT 150V310 CAVOK 32/18 Q1014=
200808141045 METAR LIRA 141045Z 20007KT 180V320 CAVOK 31/16 Q1014=
200808141015 METAR LIRA 141015Z 22007KT 180V270 CAVOK 31/19 Q1014=
200808140945 METAR LIRA 140945Z 26010KT 200V300 CAVOK 31/19 Q1014=
200808140915 METAR LIRA 140915Z 22008KT 170V280 CAVOK 31/19 Q1014=
200808140845 METAR LIRA 140845Z 22006KT 170V260 CAVOK 29/18 Q1014=
200808140815 METAR LIRA 140815Z 00000KT CAVOK 28/18 Q1014=
200808140745 METAR LIRA 140745Z 08002KT CAVOK 26/17 Q1014=
200808140715 METAR LIRA 140715Z 01004KT CAVOK 25/17 Q1014=
200808140645 METAR LIRA 140645Z 01004KT 360V070 CAVOK 24/18 Q1014=
200808140615 METAR LIRA 140615Z 04005KT 010V090 CAVOK 22/17 Q1014=
200808140545 METAR LIRA 140545Z 06004KT CAVOK 21/19 Q1015=
200808140515 METAR LIRA 140515Z 03001KT CAVOK 20/18 Q1015=
200808140445 METAR LIRA 140445Z 01001KT CAVOK 21/18 Q1015=
200808140415 METAR LIRA 140415Z 07002KT CAVOK 21/18 Q1014=
200808140345 METAR LIRA 140345Z 08003KT CAVOK 21/17 Q1014=
200808140315 METAR LIRA 140315Z 12003KT 9999 FEW002 21/17 Q1014=
200808140245 METAR LIRA 140245Z 12003KT 9999 FEW002 21/18 Q1014=
200808140215 METAR LIRA 140215Z 12003KT 9999 FEW002 22/18 Q1014=
200808140145 METAR LIRA 140145Z 12002KT 9999 FEW002 22/18 Q1014=
200808140115 METAR LIRA 140115Z 12003KT 9999 FEW010 22/19 Q1014=
200808140045 METAR LIRA 140045Z 11008KT 9999 FEW010 22/19 Q1014=
200808140015 METAR LIRA 140015Z 11008KT CAVOK 22/19 Q1014=
200808132345 METAR LIRA 132345Z 17003KT CAVOK 23/20 Q1014=
200808132315 METAR LIRA 132315Z 18002KT CAVOK 23/19 Q1014=
200808132245 METAR LIRA 132245Z 00000KT CAVOK 23/21 Q1014=
200808132215 METAR LIRA 132215Z 00000KT CAVOK 23/21 Q1013=
200808132145 METAR LIRA 132145Z 00000KT CAVOK 24/21 Q1013=
200808132115 METAR LIRA 132115Z 00000KT CAVOK 24/22 Q1013=
200808132045 METAR LIRA 132045Z 22001KT CAVOK 24/22 Q1013=
200808132015 METAR LIRA 132015Z 23002KT CAVOK 25/22 Q1013=
200808131945 METAR LIRA 131945Z 22002KT CAVOK 25/22 Q1013=
200808131915 METAR LIRA 131915Z 23003KT CAVOK 25/22 Q1013=
200808131845 METAR LIRA 131845Z 24002KT CAVOK 26/20 Q1013=
200808131815 METAR LIRA 131815Z 24004KT CAVOK 27/21 Q1013=
200808131745 METAR LIRA 131745Z 24007KT CAVOK 29/21 Q1013=
200808131715 METAR LIRA 131715Z 23007KT 190V280 CAVOK 29/19 Q1013=
200808131645 METAR LIRA 131645Z 22007KT 180V300 CAVOK 30/18 Q1013=
200808131615 METAR LIRA 131615Z 22007KT 180V300 CAVOK 30/18 Q1013=
200808131545 METAR LIRA 131545Z 23008KT 170V280 CAVOK 31/18 Q1013=
200808131515 METAR LIRA 131515Z 22007KT 160V280 9999 FEW022 31/17 Q1013=
200808131445 METAR LIRA 131445Z 23006KT 150V280 9999 FEW022 32/17 Q1013=
200808131345 METAR LIRA 131345Z 24008KT 9999 FEW020 32/17 Q1013=
200808131315 METAR LIRA 131315Z 23009KT 180V310 9999 FEW022 33/18 Q1013=
200808131245 METAR LIRA 131245Z 20007KT 160V310 9999 FEW022 33/18 Q1013=
200808131215 METAR LIRA 131215Z 19008KT 120V240 9999 FEW022 33/18 Q1013=
200808131145 METAR LIRA 131145Z 20011KT 140V340 9999 FEW022 32/16 Q1013=
200808131115 METAR LIRA 131115Z 22009KT 120V300 9999 FEW022 32/16 Q1013=
200808131045 METAR LIRA 131045Z 19009KT 120V230 9999 FEW022 31/17 Q1013=
200808131015 METAR LIRA 131015Z 18007KT 120V230 9999 FEW022 31/17 Q1013=
200808130945 METAR LIRA 130945Z 19008KT 130V250 9999 FEW022 30/21 Q1013=
200808130915 METAR LIRA 130915Z 21007KT 120V270 9999 FEW022 29/21 Q1013=
200808130845 METAR LIRA 130845Z 21009KT 120V240 9999 FEW022 28/20 Q1013=
200808130815 METAR LIRA 130815Z 19009KT 120V220 CAVOK 27/21 Q1012=
200808130745 METAR LIRA 130745Z 15007KT 130V190 CAVOK 26/20 Q1012=
200808130715 METAR LIRA 130715Z 16007KT 140V220 CAVOK 26/15 Q1012=
200808130645 METAR LIRA 130645Z 18007KT 140V200 CAVOK 25/15 Q1011=
200808130615 METAR LIRA 130615Z 10003KT CAVOK 23/14 Q1011=
200808130545 METAR LIRA 130545Z 09004KT CAVOK 22/13 Q1011=
200808130515 METAR LIRA 130515Z 00000KT CAVOK 21/12 Q1011=
200808130445 METAR LIRA 130445Z 00000KT CAVOK 20/12 Q1011=
200808130415 METAR LIRA 130415Z 13001KT CAVOK 20/12 Q1011=
200808130345 METAR LIRA 130345Z 10001KT CAVOK 21/14 Q1011=
200808130315 METAR LIRA 130315Z 09002KT CAVOK 20/13 Q1011=
200808130245 METAR LIRA 130245Z 11003KT CAVOK 21/13 Q1011=
200808130215 METAR LIRA 130215Z 11002KT CAVOK 22/14 Q1011=
200808130145 METAR LIRA 130145Z 12002KT CAVOK 21/13 Q1011=
200808130115 METAR LIRA 130115Z 12002KT CAVOK 21/13 Q1011=
200808130045 METAR LIRA 130045Z 12003KT CAVOK 22/13 Q1011=
200808130015 METAR LIRA 130015Z 13004KT CAVOK 22/13 Q1011=
200808122345 METAR LIRA 122345Z 11003KT CAVOK 23/15 Q1011=
200808122315 METAR LIRA 122315Z 10002KT CAVOK 23/16 Q1011=
200808122245 METAR LIRA 122245Z 16004KT CAVOK 23/16 Q1011=
200808122215 METAR LIRA 122215Z 16005KT CAVOK 23/16 Q1011=
200808122145 METAR LIRA 122145Z 19003KT CAVOK 24/17 Q1011=
200808122115 METAR LIRA 122115Z 20006KT CAVOK 25/18 Q1011=
200808122045 METAR LIRA 122045Z 20005KT 130V230 CAVOK 25/18 Q1011=
200808122015 METAR LIRA 122015Z 18006KT CAVOK 26/18 Q1011=
200808121945 METAR LIRA 121945Z 18006KT 150V210 CAVOK 26/18 Q1010=
200808121915 METAR LIRA 121915Z 19006KT 150V220 CAVOK 26/17 Q1010=
200808121845 METAR LIRA 121845Z 20004KT CAVOK 27/17 Q1010=
200808121815 METAR LIRA 121815Z 21007KT 180V250 CAVOK 29/15 Q1010=
200808121745 METAR LIRA 121745Z 21007KT 170V240 CAVOK 29/14 Q1010=
200808121715 METAR LIRA 121715Z 21008KT 180V260 CAVOK 30/12 Q1010=
200808121645 METAR LIRA 121645Z 21007KT 150V270 CAVOK 31/13 Q1011=
200808121615 METAR LIRA 121615Z 21008KT 170V260 CAVOK 31/12 Q1011=
200808121545 METAR LIRA 121545Z 20007KT 160V260 CAVOK 31/12 Q1011=
200808121515 METAR LIRA 121515Z 20008KT 150V270 CAVOK 32/12 Q1011=
200808121445 METAR LIRA 121445Z 20007KT 150V270 CAVOK 32/13 Q1011=
200808121415 METAR LIRA 121415Z 23006KT 170V270 CAVOK 32/12 Q1011=
200808121345 METAR LIRA 121345Z 24009KT 170V300 CAVOK 32/12 Q1011=
200808121315 METAR LIRA 121315Z 21008KT 170V270 CAVOK 32/12 Q1011=
200808121245 METAR LIRA 121245Z 24010KT 170V270 CAVOK 32/14 Q1011=
200808121215 METAR LIRA 121215Z 23007KT 170V270 CAVOK 32/16 Q1011=
200808121145 METAR LIRA 121145Z 23008KT 160V270 CAVOK 32/12 Q1012=
200808121115 METAR LIRA 121115Z 22009KT 130V280 CAVOK 31/10 Q1012=
200808121045 METAR LIRA 121045Z 16008KT 110V200 CAVOK 31/10 Q1012=
200808121015 METAR LIRA 121015Z 20006KT 130V250 CAVOK 31/10 Q1012=
200808120945 METAR LIRA 120945Z 20009KT 130V250 CAVOK 30/11 Q1012=
200808120915 METAR LIRA 120915Z 19007KT 140V220 CAVOK 29/11 Q1012=
200808120845 METAR LIRA 120845Z 19007KT 140V240 CAVOK 28/12 Q1011=
200808120815 METAR LIRA 120815Z 17009KT 120V240 CAVOK 27/13 Q1011=
200808120800 METAR LIRA INTER CB NW/SE-SW LOW CLOUDS MVG N=
200808120745 METAR LIRA 120745Z 21006KT 150V250 CAVOK 24/14 Q1011=
200808120715 METAR LIRA 120715Z 21004KT CAVOK 23/14 Q1011=
200808120645 METAR LIRA 120645Z 22002KT CAVOK 21/12 Q1010=
200808120615 METAR LIRA 120615Z 32001KT CAVOK 21/09 Q1010=
200808120545 METAR LIRA 120545Z 33001KT CAVOK 19/09 Q1010=
200808120515 METAR LIRA 120515Z 12004KT CAVOK 19/10 Q1009=
200808120445 METAR LIRA 120445Z 12005KT CAVOK 19/11 Q1009=
200808120415 METAR LIRA 120415Z 06001KT CAVOK 19/11 Q1009=
200808120345 METAR LIRA 120345Z 11002KT CAVOK 19/13 Q1009=
200808120315 METAR LIRA 120315Z 11002KT CAVOK 19/14 Q1009=
200808120245 METAR LIRA 120245Z 11002KT CAVOK 20/13 Q1009=
200808120215 METAR LIRA 120215Z 01002KT CAVOK 20/12 Q1009=
200808120145 METAR LIRA 120145Z 11003KT CAVOK 20/11 Q1009=
200808120115 METAR LIRA 120115Z 11003KT CAVOK 20/12 Q1009=
200808120045 METAR LIRA 120045Z 12003KT CAVOK 22/12 Q1009=
200808120015 METAR LIRA 120015Z 12003KT CAVOK 22/12 Q1009=
200808112345 METAR LIRA 112345Z 13002KT CAVOK 22/15 Q1010=
200808112315 METAR LIRA 112315Z 14002KT CAVOK 22/16 Q1010=
200808112245 METAR LIRA 112245Z 17003KT CAVOK 22/16 Q1010=
200808112215 METAR LIRA 112215Z 16003KT CAVOK 23/17 Q1010=
200808112145 METAR LIRA 112145Z 14001KT CAVOK 24/19 Q1010=
200808112115 METAR LIRA 112115Z 12003KT CAVOK 24/19 Q1010=
200808112045 METAR LIRA 112045Z 13002KT CAVOK 25/18 Q1011=
200808112015 METAR LIRA 112015Z 21001KT CAVOK 26/15 Q1011=
200808111945 METAR LIRA 111945Z 20002KT CAVOK 27/15 Q1010=
200808111915 METAR LIRA 111915Z 22002KT CAVOK 28/14 Q1010=
200808111845 METAR LIRA 111845Z 23003KT CAVOK 29/13 Q1010=
200808111815 METAR LIRA 111815Z 23004KT CAVOK 29/12 Q1009=
200808111745 METAR LIRA 111745Z 24005KT 210V270 CAVOK 30/12 Q1009=
200808111715 METAR LIRA 111715Z 25007KT 210V320 CAVOK 31/11 Q1009=
200808111645 METAR LIRA 111645Z 24007KT 210V310 CAVOK 31/11 Q1009=
200808111615 METAR LIRA 111615Z 25008KT 200V320 CAVOK 32/11 Q1009=
200808111545 METAR LIRA 111545Z 26008KT 200V330 CAVOK 32/11 Q1009=
200808111515 METAR LIRA 111515Z 25009KT 200V300 CAVOK 32/10 Q1009=
200808111445 METAR LIRA 111445Z 24008KT 200V330 CAVOK 32/10 Q1010=
200808111415 METAR LIRA 111415Z 24011KT 210V330 9999 FEW018 32/09 Q1010=
200808111345 METAR LIRA 111345Z 27008KT 210V330 9999 FEW018 32/12 Q1010=
200808111315 METAR LIRA 111315Z 28009KT 210V340 9999 FEW018 32/13 Q1010=
200808111245 METAR LIRA 111245Z 26007KT 200V330 9999 FEW018 32/14 Q1010=
200808111215 METAR LIRA 111215Z 26006KT 220V350 9999 FEW018 32/14 Q1010=
200808111145 METAR LIRA 111145Z 27008KT 190V310 9999 FEW018 32/15 Q1010=
200808111115 METAR LIRA 111115Z 27007KT 170V020 9999 FEW018 32/15 Q1010=
200808111045 METAR LIRA 111045Z 25003KT 170V270 9999 FEW018 31/13 Q1010=
200808111015 METAR LIRA 111015Z 21004KT 200V330 CAVOK 31/15 Q1010=
200808110945 METAR LIRA 110945Z 21005KT 120V320 CAVOK 30/14 Q1010=
200808110915 METAR LIRA 110915Z 26004KT 190V310 CAVOK 30/15 Q1010=
200808110845 METAR LIRA 110845Z 26005KT CAVOK 27/15 Q1011=
200808110815 METAR LIRA 110815Z 19001KT CAVOK 26/16 Q1011=
200808110745 METAR LIRA 110745Z 03002KT CAVOK 24/15 Q1011=
200808110715 METAR LIRA 110715Z 00000KT CAVOK 22/14 Q1011=
200808110700 METAR LIRA INTER=
200808110645 METAR LIRA 110645Z 32002KT CAVOK 21/14 Q1011=
200808110615 METAR LIRA 110615Z 32002KT CAVOK 20/14 Q1010=
200808110545 METAR LIRA 110545Z 06002KT CAVOK 19/12 Q1010=
200808110515 METAR LIRA 110515Z 06003KT CAVOK 19/12 Q1010=
200808110445 METAR LIRA 110445Z 06003KT CAVOK 20/12 Q1010=
200808110415 METAR LIRA 110415Z 02003KT CAVOK 20/13 Q1010=
200808110345 METAR LIRA 110345Z 05003KT CAVOK 19/12 Q1010=
200808110315 METAR LIRA 110315Z 05002KT CAVOK 20/13 Q1010=
200808110245 METAR LIRA 110245Z 05003KT CAVOK 23/17 Q1010=
200808110215 METAR LIRA 110215Z 09002KT CAVOK 23/17 Q1010=
200808110045 METAR LIRA 110045Z 13002KT CAVOK 23/17 Q1010=
200808110015 METAR LIRA 110015Z 13002KT CAVOK 23/17 Q1010=
200808102350 METAR LIRA 110045Z 13002KT CAVOK 23/17 Q1010=
200808102345 METAR LIRA 102345Z 16004KT CAVOK 24/17 Q1011=
200808102315 METAR LIRA 102315Z 17004KT CAVOK 23/17 Q1011=
200808102245 METAR LIRA 102245Z 14003KT CAVOK 24/17 Q1011=
200808102215 METAR LIRA 102215Z 15004KT CAVOK 24/17 Q1011=
200808102145 METAR LIRA 102145Z 15004KT CAVOK 24/17 Q1011=
200808102115 METAR LIRA 102115Z 19004KT CAVOK 24/17 Q1011=
200808102045 METAR LIRA 102045Z 18004KT CAVOK 25/17 Q1011=
200808102015 METAR LIRA 102015Z 18005KT CAVOK 25/15 Q1011=
200808101945 METAR LIRA 101945Z 17006KT 140V200 CAVOK 26/13 Q1011=
200808101915 METAR LIRA 101915Z 18006KT CAVOK 26/12 Q1011=
200808101845 METAR LIRA 101845Z 19004KT CAVOK 28/12 Q1010=
200808101815 METAR LIRA 101815Z 20004KT CAVOK 28/12 Q1010=
200808101745 METAR LIRA 101745Z 23005KT 210V270 CAVOK 29/13 Q1010=
200808101715 METAR LIRA 101715Z 26007KT 210V320 9999 FEW020 29/12 Q1010=
200808101645 METAR LIRA 101645Z 27006KT 180V340 9999 FEW020 30/14 Q1010=
200808101615 METAR LIRA 101615Z 25007KT 220V310 9999 FEW020 30/13 Q1010=
200808101545 METAR LIRA 101545Z 26008KT 210V320 9999 FEW020 30/14 Q1010=
200808101515 METAR LIRA 101515Z 25006KT 200V310 9999 SCT018 30/15 Q1010=
200808101445 METAR LIRA 101445Z 24008KT 170V280 9999 SCT018 30/18 Q1011=
200808101415 METAR LIRA 101415Z 23008KT 190V300 9999 SCT018 31/18 Q1011=
200808101345 METAR LIRA 101345Z 23008KT 160V310 9999 SCT018 31/20 Q1011=
200808101315 METAR LIRA 101315Z 23009KT 180V010 9999 SCT018 FEW022TCU
                        30/19 Q1011=
200808101245 METAR LIRA 101245Z 25008KT 170V330 9999 SCT018 FEW022TCU
                        30/19 Q1011=
200808101215 METAR LIRA 101215Z 22006KT 160V330 9999 SCT018 FEW022TCU
                        30/19 Q1011=
200808101145 METAR LIRA 101145Z 25006KT 200V290 9999 SCT018 30/17 Q1012=
200808101115 METAR LIRA 101115Z 24009KT 150V310 9999 SCT018 FEW022TCU
                        30/16 Q1012=
200808101045 METAR LIRA 101045Z 18004KT 130V250 9999 SCT018 SCT200 30/17
                        Q1012=
200808101015 METAR LIRA 101015Z 22006KT 140V240 9999 SCT018 SCT200 29/18
                        Q1012=
200808100945 METAR LIRA 100945Z 20007KT 180V300 9999 SCT018 SCT200 28/18
                        Q1012=
200808100915 METAR LIRA 100915Z 30001KT 9999 SCT018 SCT200 27/17 Q1012=
200808100845 METAR LIRA 100845Z 09002KT 9999 FEW020 SCT200 25/17 Q1012=
200808100815 METAR LIRA 100815Z 24001KT 9999 FEW020 24/16 Q1011=
200808100800 METAR LIRA INT, CB SW-NE=
200808100745 METAR LIRA 100745Z 29001KT 9999 FEW020 23/14 Q1011=
200808100715 METAR LIRA 100715Z 04005KT 9999 FEW020 22/14 Q1011=
200808100645 METAR LIRA 100645Z 02004KT 320V040 9999 FEW020 21/14 Q1011=
200808100615 METAR LIRA 100615Z 03004KT 9999 FEW020 20/15 Q1011=
200808100600 METAR LIRA INTER LOW CLDS MVNG N CB AQ=
200808100545 METAR LIRA 100545Z 05004KT CAVOK 19/17 Q1011=
200808100515 METAR LIRA 100515Z 05005KT CAVOK 20/17 Q1011=
200808100445 METAR LIRA 100445Z 06003KT 9999 FEW070 20/18 Q1010=
200808100415 METAR LIRA 100415Z 05004KT CAVOK 20/18 Q1010=
200808100345 METAR LIRA 100345Z 02003KT CAVOK 20/17 Q1010=
200808100315 METAR LIRA 100315Z 03004KT CAVOK 21/18 Q1010=
200808100245 METAR LIRA 100245Z 02002KT CAVOK 21/19 Q1010=
200808100215 METAR LIRA 100215Z 04002KT CAVOK 22/19 Q1010=
200808100145 METAR LIRA 100145Z 02003KT CAVOK 21/18 Q1010=
200808100115 METAR LIRA 100115Z 02004KT CAVOK 22/19 Q1010=
200808100045 METAR LIRA 100045Z 02002KT CAVOK 22/19 Q1010=
200808100015 METAR LIRA 100015Z 05004KT CAVOK 23/19 Q1010=
200808092345 METAR LIRA 092345Z 02005KT CAVOK 23/19 Q1010=
200808092315 METAR LIRA 092315Z 36003KT CAVOK 23/15 Q1010=
200808092245 METAR LIRA 092245Z 13003KT CAVOK 24/15 Q1010=
200808092215 METAR LIRA 092215Z 07003KT CAVOK 23/15 Q1010=
200808092145 METAR LIRA 092145Z 11008KT 9999 FEW020CB 24/14 Q1010=
200808092115 METAR LIRA 092115Z 12008KT 9999 FEW020 25/15 Q1009=
200808092045 METAR LIRA 092045Z 02007KT 9999 FEW022CB 25/15 Q1009=
200808092015 METAR LIRA 092015Z 17006KT 9999 FEW022CB 26/17 Q1009=
200808091945 METAR LIRA 091945Z 19006KT 9999 FEW022CB 26/16 Q1009=
200808091915 METAR LIRA 091915Z 19006KT 9999 FEW080 27/15 Q1008=
200808091845 METAR LIRA 091845Z 20007KT 9999 FEW020 27/17 Q1008=
200808091815 METAR LIRA 091815Z 20006KT 9999 FEW020 FEW022CB 28/17 Q1008=
200808091745 METAR LIRA 091745Z 24006KT 190V270 9999 FEW020 FEW022CB 28/18
                        Q1008=
200808091715 METAR LIRA 091715Z 26007KT 190V330 9999 FEW020 SCT080 29/18
                        Q1008=
200808091645 METAR LIRA 091645Z 25009KT 220V320 9999 FEW020 29/18 Q1008=
200808091615 METAR LIRA 091615Z 25006KT 200V340 9999 SCT020 FEW022TCU
                        30/18 Q1008=
200808091545 METAR LIRA 091545Z 25007KT 200V300 9999 FEW018 FEW020TCU
                        29/18 Q1008=
200808091515 METAR LIRA 091515Z 30007KT 190V350 9999 FEW018 FEW020TCU
                        30/19 Q1008=
200808091445 METAR LIRA 091445Z 24009KT 180V280 9999 FEW018 FEW020CB 30/17
                        Q1008=
200808091415 METAR LIRA 091415Z 27009KT 200V340 9999 FEW018 FEW020TCU
                        31/15 Q1008=
200808091345 METAR LIRA 091345Z 24010KT 130V300 9999 FEW018 FEW020CB 33/16
                        Q1008=
200808091315 METAR LIRA 091315Z 12004KT 9999 FEW018 FEW020CB 32/15 Q1008=
200808091245 METAR LIRA 091245Z 15002KT 9999 FEW018 FEW020CB 32/15 Q1008=
200808091215 METAR LIRA 091215Z 27004KT 200V330 9999 FEW018 FEW020CB 31/15
                        Q1008=
200808091145 METAR LIRA 091145Z 12005KT 060V210 9999 FEW018 31/15 Q1008=
200808091115 METAR LIRA 091115Z 22005KT 180V280 9999 FEW018 31/16 Q1008=
200808091045 METAR LIRA 091045Z 15004KT 080V220 9999 FEW018 30/16 Q1008=
200808091015 METAR LIRA 091015Z 20003KT 150V240 9999 FEW018 30/16 Q1008=
200808090945 METAR LIRA 090945Z 18005KT 090V250 9999 FEW018 29/17 Q1008=
200808090915 METAR LIRA 090915Z 18006KT 110V240 9999 FEW018 29/18 Q1008=
200808090845 METAR LIRA 090845Z 15008KT 060V210 9999 FEW018 28/20 Q1008=
200808090815 METAR LIRA 090815Z 15012KT 130V210 9999 FEW018 27/19 Q1008=
200808090745 METAR LIRA 090745Z 16008KT 120V210 9999 FEW018 26/20 Q1008=
200808090715 METAR LIRA 090715Z 16011KT 120V210 9999 FEW018 26/19 Q1008=
200808090645 METAR LIRA 090645Z 11008KT 110V220 9999 FEW018 25/20 Q1008=
200808090615 METAR LIRA 090615Z 16006KT 100V210 9999 FEW018 24/20 Q1008=
200808090545 METAR LIRA 090545Z 17006KT 120V220 9999 FEW018 23/20 Q1007=
200808090515 METAR LIRA 090515Z 16006KT 9999 FEW018 SCT035 23/20 Q1007=
200808090445 METAR LIRA 090445Z 15005KT 9999 FEW018 SCT035 24/20 Q1007=
200808090415 METAR LIRA 090415Z 18003KT 9999 FEW020 SCT040 24/20 Q1007=
200808090345 METAR LIRA 090345Z 18004KT 9999 SCT020 24/20 Q1007=
200808090315 METAR LIRA 090315Z 19004KT 9999 SCT020 24/21 Q1008=
200808090245 METAR LIRA 090245Z 19004KT 9999 SCT020 24/21 Q1008=
200808090215 METAR LIRA 090215Z 18004KT 9999 SCT020 24/21 Q1008=
200808090145 METAR LIRA 090145Z 18005KT 9999 SCT020 24/21 Q1008=
200808090115 METAR LIRA 090115Z 19005KT 9999 SCT020 24/22 Q1008=
200808082215 METAR LIRA 082215Z 18007KT 9999 FEW020 25/23 Q1008=
200808082145 METAR LIRA 082145Z 18006KT 130V200 9999 FEW020 26/24 Q1008=
200808082115 METAR LIRA 082115Z 17006KT 130V200 9999 FEW020 26/24 Q1008=
200808082045 METAR LIRA 082045Z 21004KT 9999 SCT020 26/24 Q1008=
200808082015 METAR LIRA 082015Z 20004KT 9999 SCT020 27/24 Q1008=
200808081945 METAR LIRA 081945Z 22003KT 9999 FEW020 26/23 Q1008=
200808081915 METAR LIRA 081915Z 18005KT 140V220 9999 SCT020 27/23 Q1008=
200808081845 METAR LIRA 081845Z 21005KT 180V240 9999 SCT020 28/23 Q1007=
200808081815 METAR LIRA 081815Z 23004KT 200V270 9999 SCT020 29/24 Q1007=
200808081745 METAR LIRA 081745Z 23006KT 130V290 9999 SCT022 29/23 Q1007=
200808081715 METAR LIRA 081715Z 23007KT 190V270 9999 SCT022 30/22 Q1007=
200808081645 METAR LIRA 081645Z 23007KT 180V280 9999 FEW018 SCT200 29/23
                        Q1007=
200808081615 METAR LIRA 081615Z 21009KT 170V270 9999 FEW022 SCT200 30/23
                        Q1008=
200808081545 METAR LIRA 081545Z 21009G19KT 160V270 9999 FEW025 SCT200
                        30/23 Q1008=
200808081515 METAR LIRA 081515Z 22010KT 170V270 9999 FEW025 SCT200 31/22
                        Q1008=
200808081445 METAR LIRA 081445Z 25013KT 180V270 9999 FEW025 SCT200 32/16
                        Q1008=
200808081415 METAR LIRA 081415Z 24012KT 200V290 9999 FEW025 SCT080 32/17
                        Q1008=
200808081345 METAR LIRA 081345Z 24013KT 190V290 CAVOK 35/15 Q1008=
200808081315 METAR LIRA 081315Z 21010KT 160V260 CAVOK 35/16 Q1008=
200808081245 METAR LIRA 081245Z 20011KT 160V250 CAVOK 34/16 Q1008=
200808081215 METAR LIRA 081215Z 18012KT 150V250 CAVOK 35/17 Q1008=
200808081145 METAR LIRA 081145Z 17011KT 140V240 CAVOK 34/17 Q1008=
200808081115 METAR LIRA 081115Z 17014KT 120V230 CAVOK 34/17 Q1009=
200808081045 METAR LIRA 081045Z 16011KT 150V240 9999 FEW025 32/17 Q1009=
200808081015 METAR LIRA 081015Z 17014KT 150V240 9999 FEW025 32/18 Q1009=
200808080945 METAR LIRA 080945Z 16002KT 120V210 9999 SCT025 30/20 Q1009=
200808080915 METAR LIRA 080915Z 15009KT 110V210 9999 SCT025 30/19 Q1010=
200808080845 METAR LIRA 080845Z 17009KT 140V230 9999 SCT025 30/20 Q1010=
200808080815 METAR LIRA 080815Z 16015KT 9999 SCT025 SCT060 29/20 Q1009=
200808080745 METAR LIRA 080745Z 17013KT 120V210 9999 SCT025 27/22 Q1009=
200808080715 METAR LIRA 080715Z 17012KT 140V240 9999 SCT080 27/21 Q1009=
200808080645 METAR LIRA 080645Z 10002KT 9999 SCT080 24/17 Q1009=
200808080615 METAR LIRA 080615Z 11005KT 9999 BKN080 24/17 Q1009=
200808080545 METAR LIRA 080545Z 10003KT 9999 BKN080 21/15 Q1009=
200808080515 METAR LIRA 080515Z 02002KT 9999 FEW080 22/15 Q1009=
200808080445 METAR LIRA 080445Z 30004KT 9999 FEW080 21/14 Q1009=
200808080415 METAR LIRA 080415Z 15001KT CAVOK 21/14 Q1009=
200808080345 METAR LIRA 080345Z 36002KT CAVOK 22/14 Q1009=
200808080315 METAR LIRA 080315Z 00000KT CAVOK 23/14 Q1009=
200808080245 METAR LIRA 080245Z 00000KT CAVOK 23/14 Q1009=
200808080215 METAR LIRA 080215Z 17002KT CAVOK 22/14 Q1010=
200808080145 METAR LIRA 080145Z 12003KT CAVOK 22/16 Q1010=
200808080115 METAR LIRA 080115Z 12003KT CAVOK 22/16 Q1010=
200808080045 METAR LIRA 080045Z 15003KT CAVOK 22/16 Q1010=
200808080015 METAR LIRA 080015Z 10003KT CAVOK 23/15 Q1011=
200808072345 METAR LIRA 072345Z 11003KT CAVOK 24/17 Q1011=
200808072315 METAR LIRA 072315Z 11003KT CAVOK 24/20 Q1011=
200808072245 METAR LIRA 072245Z 14001KT CAVOK 25/21 Q1011=
200808072215 METAR LIRA 072215Z 16002KT CAVOK 25/22 Q1011=
200808072145 METAR LIRA 072145Z 11002KT CAVOK 25/21 Q1011=
200808072115 METAR LIRA 072115Z 19002KT CAVOK 25/21 Q1011=
200808072045 METAR LIRA 072045Z 22003KT CAVOK 26/21 Q1011=
200808072015 METAR LIRA 072015Z 21004KT CAVOK 27/18 Q1011=
200808071945 METAR LIRA 071945Z 25003KT CAVOK 28/16 Q1011=
200808071915 METAR LIRA 071915Z 24004KT CAVOK 29/14 Q1011=
200808071845 METAR LIRA 071845Z 16004KT CAVOK 30/13 Q1011=
200808071815 METAR LIRA 071815Z 23005KT CAVOK 31/13 Q1011=
200808071745 METAR LIRA 071745Z 24006KT CAVOK 32/12 Q1011=
200808071715 METAR LIRA 071715Z 25006KT 210V280 CAVOK 33/13 Q1011=
200808071645 METAR LIRA 071645Z 25005KT 200V270 CAVOK 33/12 Q1011=
200808071615 METAR LIRA 071615Z 25007KT 180V300 CAVOK 33/13 Q1011=
200808071545 METAR LIRA 071545Z 27005KT 190V360 9999 FEW020 34/12 Q1011=
200808071515 METAR LIRA 071515Z 26007KT 190V310 9999 FEW020 34/13 Q1011=
200808071445 METAR LIRA 071445Z 24007KT 190V290 9999 FEW020 34/14 Q1011=
200808071415 METAR LIRA 071415Z 29006KT 200V360 9999 FEW020 34/16 Q1012=
200808071345 METAR LIRA 071345Z 25007KT 260V330 9999 FEW020 34/16 Q1012=
200808071315 METAR LIRA 071315Z 23007KT 160V320 9999 FEW020 34/16 Q1012=
200808071245 METAR LIRA 071245Z 25008KT 170V330 9999 FEW020 33/17 Q1012=
200808071215 METAR LIRA 071215Z 25008KT 170V310 9999 FEW020 33/17 Q1012=
200808071145 METAR LIRA 071145Z 22004KT 120V300 9999 FEW020 33/17 Q1012=
200808071115 METAR LIRA 071115Z 30005KT 200V330 9999 FEW020 33/16 Q1012=
200808071045 METAR LIRA 071045Z 27006KT 160V340 9999 FEW020 32/17 Q1012=
200808071015 METAR LIRA 071015Z 26004KT 160V280 9999 FEW020 32/17 Q1012=
200808070945 METAR LIRA 070945Z 26007KT 060V330 CAVOK 31/18 Q1012=
200808070915 METAR LIRA 070915Z 20006KT 160V230 CAVOK 31/18 Q1012=
200808070845 METAR LIRA 070845Z 24004KT 200V300 CAVOK 30/21 Q1012=
200808070815 METAR LIRA 070815Z 23002KT CAVOK 27/14 Q1012=
200808070745 METAR LIRA 070745Z 20004KT CAVOK 26/13 Q1012=
200808070715 METAR LIRA 070715Z 22002KT CAVOK 26/13 Q1012=
200808070645 METAR LIRA 070645Z 21003KT CAVOK 25/13 Q1012=
200808070615 METAR LIRA 070615Z 20004KT CAVOK 25/13 Q1012=
200808070545 METAR LIRA 070545Z 21003KT CAVOK 24/15 Q1012=
200808070515 METAR LIRA 070515Z 21005KT CAVOK 24/15 Q1012=
200808070445 METAR LIRA 070445Z 21005KT CAVOK 23/16 Q1012=
200808070415 METAR LIRA 070415Z 00000KT CAVOK 23/16 Q1012=
200808070345 METAR LIRA 070345Z 00000KT CAVOK 23/17 Q1012=
200808070315 METAR LIRA 070315Z 00000KT CAVOK 23/16 Q1012=
200808070245 METAR LIRA 070245Z 20001KT CAVOK 24/17 Q1012=
200808070215 METAR LIRA 070215Z 18001KT CAVOK 24/19 Q1012=
200808070145 METAR LIRA 070145Z 12002KT CAVOK 24/19 Q1012=
200808070115 METAR LIRA 070115Z 16003KT CAVOK 24/20 Q1012=
200808070045 METAR LIRA 070045Z 14002KT CAVOK 24/22 Q1013=
200808070015 METAR LIRA 070015Z 14002KT CAVOK 24/22 Q1013=
200808062345 METAR LIRA 062345Z 23002KT CAVOK 24/22 Q1013=
200808062315 METAR LIRA 062315Z 26001KT CAVOK 25/23 Q1013=
200808062245 METAR LIRA 062245Z 26002KT CAVOK 25/23 Q1013=
200808062215 METAR LIRA 062215Z 23002KT CAVOK 26/24 Q1013=
200808062145 METAR LIRA 062145Z 21004KT CAVOK 26/24 Q1013=
200808062115 METAR LIRA 062115Z 00000KT CAVOK 26/24 Q1013=
200808062045 METAR LIRA 062045Z 17004KT CAVOK 26/24 Q1013=
200808062015 METAR LIRA 062015Z 19003KT CAVOK 27/24 Q1013=
200808061945 METAR LIRA 061945Z 24004KT CAVOK 27/24 Q1012=
200808061915 METAR LIRA 061915Z 24004KT CAVOK 27/24 Q1012=
200808061845 METAR LIRA 061845Z 23002KT CAVOK 29/20 Q1012=
200808061815 METAR LIRA 061815Z 25004KT CAVOK 30/20 Q1012=
200808061745 METAR LIRA 061745Z 24004KT 220V300 CAVOK 30/20 Q1011=
200808061715 METAR LIRA 061715Z 26004KT 230V320 9999 FEW025 31/21 Q1011=
200808061645 METAR LIRA 061645Z 25005KT 180V270 9999 FEW025 31/21 Q1011=
200808061615 METAR LIRA 061615Z 24006KT 190V290 9999 FEW025 32/22 Q1011=
200808061545 METAR LIRA 061545Z 26006KT 190V320 9999 FEW025 33/22 Q1011=
200808061515 METAR LIRA 061515Z 22006KT 170V280 9999 FEW025 33/22 Q1012=
200808061445 METAR LIRA 061445Z 23007KT 180V300 9999 FEW025 32/22 Q1012=
200808061415 METAR LIRA 061415Z 23006KT 190V310 9999 FEW025 32/22 Q1012=
200808061345 METAR LIRA 061345Z 25007KT 170V300 9999 FEW025 33/21 Q1012=
200808061315 METAR LIRA 061315Z 24010KT 170V300 9999 FEW025 33/22 Q1012=
200808061245 METAR LIRA 061245Z 23005KT 170V270 9999 FEW025 33/21 Q1012=
200808061215 METAR LIRA 061215Z 21008KT 140V240 9999 FEW025 33/21 Q1012=
200808061145 METAR LIRA 061145Z 31007KT 260V360 9999 FEW025 34/14 Q1012=
200808061115 METAR LIRA 061115Z 35004KT 270V360 9999 FEW025 34/14 Q1012=
200808061045 METAR LIRA 061045Z 27002KT CAVOK 32/13 Q1012=
200808061015 METAR LIRA 061015Z 02004KT CAVOK 32/15 Q1013=
200808060945 METAR LIRA 060945Z 21003KT CAVOK 31/18 Q1013=
200808060915 METAR LIRA 060915Z 13003KT CAVOK 30/18 Q1013=
200808060845 METAR LIRA 060845Z 08002KT CAVOK 29/20 Q1013=
200808060815 METAR LIRA 060815Z 10001KT CAVOK 28/21 Q1013=
200808060745 METAR LIRA 060745Z 10002KT CAVOK 26/20 Q1013=
200808060715 METAR LIRA 060715Z 01003KT CAVOK 26/21 Q1013=
200808060645 METAR LIRA 060645Z 03003KT CAVOK 24/20 Q1013=
200808060615 METAR LIRA 060615Z 02002KT CAVOK 24/20 Q1013=
200808060545 METAR LIRA 060545Z 03003KT CAVOK 22/22 Q1013=
200808060515 METAR LIRA 060515Z 03002KT CAVOK 21/20 Q1013=
200808060445 METAR LIRA 060445Z 06003KT CAVOK 21/20 Q1013=
200808060415 METAR LIRA 060415Z 05002KT CAVOK 22/20 Q1013=
200808060345 METAR LIRA 060345Z 10002KT CAVOK 21/19 Q1013=
200808060315 METAR LIRA 060315Z 11003KT CAVOK 22/20 Q1013=
200808060245 METAR LIRA 060245Z 13002KT CAVOK 22/20 Q1013=
200808060215 METAR LIRA 060215Z 13002KT CAVOK 22/20 Q1013=
200808060145 METAR LIRA 060145Z 36002KT CAVOK 23/19 Q1013=
200808060115 METAR LIRA 060115Z 11005KT CAVOK 24/20 Q1013=
200808060045 METAR LIRA 060045Z 12003KT CAVOK 25/22 Q1013=
200808060015 METAR LIRA 060015Z 18002KT CAVOK 24/21 Q1013=
200808052350 METAR LIRA 060045Z 12003KT CAVOK 25/22 Q1013=
200808052345 METAR LIRA 052345Z 00000KT CAVOK 24/22 Q1013=
200808052315 METAR LIRA 052315Z 00000KT CAVOK 24/22 Q1013=
200808052245 METAR LIRA 052245Z 11004KT CAVOK 24/22 Q1013=
200808052215 METAR LIRA 052215Z 19004KT CAVOK 24/22 Q1013=
200808052145 METAR LIRA 052145Z 18002KT CAVOK 25/23 Q1013=
200808052115 METAR LIRA 052115Z 18002KT CAVOK 25/23 Q1013=
200808052045 METAR LIRA 052045Z 19004KT CAVOK 26/24 Q1013=
200808052015 METAR LIRA 052015Z 20003KT 9999 FEW018 26/23 Q1013=
200808051945 METAR LIRA 051945Z 20004KT CAVOK 26/23 Q1013=
200808051915 METAR LIRA 051915Z 23003KT CAVOK 27/23 Q1013=
200808051845 METAR LIRA 051845Z 22003KT 9999 FEW018 27/22 Q1013=
200808051815 METAR LIRA 051815Z 23005KT 200V270 CAVOK 28/22 Q1013=
200808051745 METAR LIRA 051745Z 24007KT 200V270 CAVOK 29/22 Q1013=
200808051715 METAR LIRA 051715Z 23005KT 130V300 CAVOK 30/19 Q1013=
200808051645 METAR LIRA 051645Z 24006KT 180V290 CAVOK 30/18 Q1013=
200808051615 METAR LIRA 051615Z 24006KT 180V280 CAVOK 31/17 Q1013=
200808051545 METAR LIRA 051545Z 25007KT 180V280 CAVOK 32/17 Q1013=
200808051515 METAR LIRA 051515Z 24009KT 200V300 CAVOK 32/17 Q1013=
200808051445 METAR LIRA 051445Z 21008KT 160V280 CAVOK 32/17 Q1014=
200808051415 METAR LIRA 051415Z 26009KT 180V310 9999 FEW023 33/16 Q1014=
200808051345 METAR LIRA 051345Z 23011KT 180V280 CAVOK 33/18 Q1014=
200808051315 METAR LIRA 051315Z 24010KT 200V300 CAVOK 32/18 Q1014=
200808051245 METAR LIRA 051245Z 24010KT 180V340 CAVOK 33/19 Q1014=
200808051215 METAR LIRA 051215Z 24007KT 170V330 CAVOK 33/18 Q1014=
200808051145 METAR LIRA 051145Z 25008KT 180V310 CAVOK 33/19 Q1014=
200808051115 METAR LIRA 051115Z 25005KT 210V330 CAVOK 32/18 Q1014=
200808051045 METAR LIRA 051045Z 28008KT 230V330 CAVOK 32/16 Q1014=
200808051015 METAR LIRA 051015Z 28006KT CAVOK 32/15 Q1014=
200808050945 METAR LIRA 050945Z 18002KT CAVOK 31/15 Q1014=
200808050915 METAR LIRA 050915Z 24004KT CAVOK 30/15 Q1014=
200808050845 METAR LIRA 050845Z 00000KT CAVOK 29/16 Q1014=
200808050815 METAR LIRA 050815Z 00000KT CAVOK 27/18 Q1014=
200808050745 METAR LIRA 050745Z 33002KT CAVOK 26/19 Q1014=
200808050715 METAR LIRA 050715Z 03003KT CAVOK 25/20 Q1014=
200808050645 METAR LIRA 050645Z 06004KT CAVOK 24/20 Q1014=
200808050615 METAR LIRA 050615Z 04002KT CAVOK 23/19 Q1014=
200808050545 METAR LIRA 050545Z 07002KT CAVOK 21/19 Q1014=
200808050515 METAR LIRA 050515Z 00000KT 8000 SKC 20/18 Q1014=
200808050445 METAR LIRA 050445Z 00000KT 8000 SKC 21/19 Q1013=
200808050415 METAR LIRA 050415Z 08002KT 8000 SKC 21/19 Q1013=
200808050345 METAR LIRA 050345Z 11002KT 8000 SKC 21/19 Q1013=
200808050315 METAR LIRA 050315Z 12003KT 7000 SKC 21/18 Q1014=
200808050245 METAR LIRA 050245Z 11003KT 7000 SKC 22/19 Q1014=
200808050215 METAR LIRA 050215Z 16001KT 7000 SKC 21/19 Q1014=
200808050145 METAR LIRA 050145Z 12002KT 7000 SKC 22/19 Q1014=
200808050115 METAR LIRA 050115Z 12001KT 7000 SKC 23/21 Q1014=
200808050045 METAR LIRA 050045Z 00000KT 7000 SKC 23/22 Q1014=
200808050015 METAR LIRA 050015Z 00000KT 7000 SKC 23/22 Q1014=
200808050000 METAR LIRA INT=
200808042350 METAR LIRA 050045Z 00000KT 7000 SKC 23/22 Q1014=
200808042345 METAR LIRA 042345Z 31002KT 7000 SKC 23/22 Q1014=
200808042315 METAR LIRA 042315Z 00000KT 8000 SKC 23/22 Q1014=
200808042245 METAR LIRA 042245Z 29002KT CAVOK 24/23 Q1014=
200808042215 METAR LIRA 042215Z 26001KT 9999 FEW030 24/23 Q1014=
200808042145 METAR LIRA 042145Z 00000KT 9999 FEW030 24/23 Q1014=
200808042115 METAR LIRA 042115Z 00000KT 9999 FEW030 24/23 Q1015=
200808042045 METAR LIRA 042045Z 00000KT 9999 FEW030 25/23 Q1014=
200808042015 METAR LIRA 042015Z 30002KT CAVOK 25/23 Q1014=
200808041945 METAR LIRA 041945Z 27003KT CAVOK 26/23 Q1014=
200808041915 METAR LIRA 041915Z 27003KT CAVOK 26/22 Q1014=
200808041845 METAR LIRA 041845Z 25003KT CAVOK 27/20 Q1014=
200808041815 METAR LIRA 041815Z 26003KT CAVOK 28/20 Q1014=
200808041745 METAR LIRA 041745Z 28004KT 240V330 CAVOK 29/20 Q1014=
200808041715 METAR LIRA 041715Z 26005KT 210V330 CAVOK 30/18 Q1014=
200808041645 METAR LIRA 041645Z 25007KT 210V310 CAVOK 31/19 Q1014=
200808041615 METAR LIRA 041615Z 25007KT 210V310 CAVOK 31/18 Q1014=
200808041545 METAR LIRA 041545Z 28008KT 220V310 CAVOK 31/17 Q1014=
200808041515 METAR LIRA 041515Z 25006KT 190V210 CAVOK 32/17 Q1014=
200808041445 METAR LIRA 041445Z 25009KT 210V330 CAVOK 32/18 Q1015=
200808041415 METAR LIRA 041415Z 28008KT 220V330 9999 FEW016 32/18 Q1015=
200808041345 METAR LIRA 041345Z 29008KT 230V330 9999 FEW022 33/19 Q1015=
200808041315 METAR LIRA 041315Z 31011KT 220V340 9999 FEW022 32/19 Q1015=
200808041245 METAR LIRA 041245Z 27009KT 180V330 9999 FEW022 32/17 Q1015=
200808041215 METAR LIRA 041215Z 29008KT 240V330 9999 FEW022 33/18 Q1015=
200808041145 METAR LIRA 041145Z 32007KT 210V350 9999 FEW022 33/17 Q1015=
200808041115 METAR LIRA 041115Z 29008KT 210V340 9999 FEW022 33/16 Q1015=
200808041045 METAR LIRA 041045Z 27005KT 220V330 CAVOK 32/16 Q1015=
200808041015 METAR LIRA 041015Z 25002KT 210V300 CAVOK 32/16 Q1015=
200808040945 METAR LIRA 040945Z 21004KT CAVOK 31/16 Q1015=
200808040915 METAR LIRA 040915Z 24004KT CAVOK 30/17 Q1016=
200808040845 METAR LIRA 040845Z 19003KT CAVOK 28/17 Q1016=
200808040815 METAR LIRA 040815Z 25003KT CAVOK 27/17 Q1016=
200808040745 METAR LIRA 040745Z 02001KT CAVOK 25/16 Q1016=
200808040715 METAR LIRA 040715Z 36001KT CAVOK 24/16 Q1016=
200808040645 METAR LIRA 040645Z 05003KT CAVOK 23/18 Q1016=
200808040615 METAR LIRA 040615Z 05003KT CAVOK 21/17 Q1015=
200808040545 METAR LIRA 040545Z 06003KT CAVOK 19/15 Q1015=
200808040515 METAR LIRA 040515Z 07002KT 8000 NSC 20/16 Q1015=
200808040445 METAR LIRA 040445Z 00000KT 8000 FEW003 20/16 Q1015=
200808040415 METAR LIRA 040415Z 25002KT 8000 SCT003 20/15 Q1015=
200808040345 METAR LIRA 040345Z 11002KT 9999 SCT003 20/15 Q1015=
200808040315 METAR LIRA 040315Z 13001KT 9999 SCT003 20/16 Q1015=
200808040245 METAR LIRA 040245Z 00000KT 9999 SCT003 22/17 Q1015=
200808040215 METAR LIRA 040215Z 00000KT 9999 FEW003 22/17 Q1015=
200808040145 METAR LIRA 040145Z 00000KT 9999 FEW003 22/17 Q1015=
200808040115 METAR LIRA 040115Z 00000KT 9999 FEW003 22/17 Q1015=
200808040045 METAR LIRA 040045Z 00000KT 9999 FEW003 22/18 Q1015=
200808040015 METAR LIRA 040015Z 00000KT CAVOK 23/18 Q1015=
200808032345 METAR LIRA 032345Z 11002KT CAVOK 23/19 Q1015=
200808032315 METAR LIRA 032315Z 02001KT CAVOK 23/18 Q1015=
200808032245 METAR LIRA 032245Z 00000KT CAVOK 23/19 Q1015=
200808032215 METAR LIRA 032215Z 00000KT CAVOK 23/19 Q1015=
200808032145 METAR LIRA 032145Z 00000KT CAVOK 24/19 Q1015=
200808032115 METAR LIRA 032115Z 23001KT CAVOK 24/19 Q1015=
200808032045 METAR LIRA 032045Z 26002KT CAVOK 25/19 Q1015=
200808032015 METAR LIRA 032015Z 23002KT CAVOK 26/19 Q1015=
200808031945 METAR LIRA 031945Z 22002KT CAVOK 26/19 Q1015=
200808031915 METAR LIRA 031915Z 22002KT CAVOK 27/17 Q1014=
200808031845 METAR LIRA 031845Z 24003KT CAVOK 28/16 Q1014=
200808031815 METAR LIRA 031815Z 24004KT CAVOK 29/15 Q1014=
200808031745 METAR LIRA 031745Z 24005KT CAVOK 30/15 Q1014=
200808031715 METAR LIRA 031715Z 24005KT 200V310 CAVOK 31/15 Q1014=
200808031645 METAR LIRA 031645Z 25005KT 210V310 9999 FEW020 32/16 Q1015=
200808031615 METAR LIRA 031615Z 26007KT 200V310 9999 FEW020 32/16 Q1015=
200808031545 METAR LIRA 031545Z 26009KT 230V330 CAVOK 33/16 Q1015=
200808031515 METAR LIRA 031515Z 29009KT 220V320 CAVOK 33/16 Q1015=
200808031445 METAR LIRA 031445Z 25008KT 210V300 9999 FEW025 33/15 Q1015=
200808031415 METAR LIRA 031415Z 24008KT 200V280 9999 FEW025 33/15 Q1015=
200808031345 METAR LIRA 031345Z 26009KT 180V300 9999 FEW025 34/17 Q1015=
200808031315 METAR LIRA 031315Z 23008KT 160V280 9999 FEW025 34/17 Q1015=
200808031245 METAR LIRA 031245Z 25009KT 200V320 9999 FEW025 34/17 Q1015=
200808031215 METAR LIRA 031215Z 27008KT 190V320 9999 FEW025 34/16 Q1015=
200808031145 METAR LIRA 031145Z 27005KT 180V300 CAVOK 34/16 Q1015=
200808031115 METAR LIRA 031115Z 24006KT 180V300 CAVOK 33/16 Q1015=
200808031045 METAR LIRA 031045Z 28004KT 200V320 CAVOK 33/16 Q1016=
200808031015 METAR LIRA 031015Z 25004KT 200V320 CAVOK 32/16 Q1016=
200808030945 METAR LIRA 030945Z 14001KT CAVOK 31/15 Q1016=
200808030915 METAR LIRA 030915Z 19003KT CAVOK 30/15 Q1016=
200808030845 METAR LIRA 030845Z 26002KT CAVOK 29/14 Q1016=
200808030815 METAR LIRA 030815Z 33001KT CAVOK 28/15 Q1016=
200808030745 METAR LIRA 030745Z 04001KT CAVOK 26/15 Q1015=
200808030715 METAR LIRA 030715Z 00000KT CAVOK 25/15 Q1015=
200808030645 METAR LIRA 030645Z 02002KT CAVOK 24/15 Q1015=
200808030615 METAR LIRA 030615Z 05003KT CAVOK 23/15 Q1015=
200808030545 METAR LIRA 030545Z 00000KT CAVOK 20/15 Q1015=
200808030515 METAR LIRA 030515Z 05001KT CAVOK 20/15 Q1015=
200808030445 METAR LIRA 030445Z 30001KT CAVOK 20/15 Q1015=
200808030415 METAR LIRA 030415Z 28012KT CAVOK 20/15 Q1015=
200808030345 METAR LIRA 030345Z 10003KT CAVOK 20/15 Q1015=
200808030315 METAR LIRA 030315Z 00000KT CAVOK 21/17 Q1015=
200808030245 METAR LIRA 030245Z 12003KT CAVOK 22/18 Q1015=
200808030215 METAR LIRA 030215Z 12003KT CAVOK 22/18 Q1015=
200808030145 METAR LIRA 030145Z 00000KT CAVOK 22/19 Q1015=
200808030015 METAR LIRA 030015Z 22001KT CAVOK 23/20 Q1015=
200808022345 METAR LIRA 022345Z 00000KT CAVOK 24/20 Q1016=
200808022315 METAR LIRA 022315Z 00000KT CAVOK 24/21 Q1016=
200808022245 METAR LIRA 022245Z 20002KT CAVOK 25/21 Q1016=
200808022215 METAR LIRA 022215Z 23003KT CAVOK 25/20 Q1016=
200808022145 METAR LIRA 022145Z 23002KT CAVOK 25/20 Q1016=
200808022115 METAR LIRA 022115Z 24002KT CAVOK 26/20 Q1016=
200808022045 METAR LIRA 022045Z 16005KT CAVOK 25/21 Q1016=
200808022015 METAR LIRA 022015Z 18003KT CAVOK 26/23 Q1016=
200808021945 METAR LIRA 021945Z 24002KT CAVOK 27/24 Q1015=
200808021915 METAR LIRA 021915Z 26003KT 9999 FEW020 28/23 Q1015=
200808021845 METAR LIRA 021845Z 27003KT CAVOK 29/21 Q1015=
200808021815 METAR LIRA 021815Z 26004KT 9999 FEW020 30/20 Q1015=
200808021745 METAR LIRA 021745Z 27006KT 9999 FEW020 31/15 Q1015=
200808021715 METAR LIRA 021715Z 26005KT 9999 FEW020 32/14 Q1015=
200808021645 METAR LIRA 021645Z 28008KT 210V330 9999 FEW020 32/13 Q1015=
200808021615 METAR LIRA 021615Z 28007KT 210V330 9999 FEW020 33/13 Q1015=
200808021545 METAR LIRA 021545Z 27011KT 210V320 9999 FEW020 33/12 Q1015=
200808021515 METAR LIRA 021515Z 25009KT 220V330 9999 FEW020 34/12 Q1015=
200808021445 METAR LIRA 021445Z 28011KT 210V330 9999 FEW020 FEW022CB 35/09
                        Q1016=
200808021415 METAR LIRA 021415Z 28008KT 210V350 9999 FEW020 FEW022CB 35/08
                        Q1016=
200808021345 METAR LIRA 021345Z 28009KT 220V340 9999 FEW020 FEW024CB 35/09
                        Q1016=
200808021315 METAR LIRA 021315Z 21008KT 210V320 9999 FEW020 35/14 Q1016=
200808021245 METAR LIRA 021245Z 31007KT 210V010 9999 FEW020 35/13 Q1016=
200808021215 METAR LIRA 021215Z 31009KT 210V360 9999 FEW020 35/13 Q1016=
200808021145 METAR LIRA 021145Z 34002KT 300V030 9999 FEW020 34/12 Q1016=
200808021115 METAR LIRA 021115Z 30005KT 270V020 9999 FEW020 34/13 Q1016=
200808021045 METAR LIRA 021045Z 29004KT 290V010 CAVOK 33/17 Q1016=
200808021015 METAR LIRA 021015Z 03003KT 300V030 CAVOK 33/16 Q1017=
200808020945 METAR LIRA 020945Z 03002KT CAVOK 32/15 Q1017=
200808020915 METAR LIRA 020915Z 33002KT CAVOK 30/14 Q1017=
200808020845 METAR LIRA 020845Z 30002KT CAVOK 29/15 Q1017=
200808020815 METAR LIRA 020815Z 33005KT CAVOK 29/16 Q1016=
200808020745 METAR LIRA 020745Z 06003KT CAVOK 28/16 Q1016=
200808020715 METAR LIRA 020715Z 04004KT CAVOK 26/17 Q1016=
200808020645 METAR LIRA 020645Z 02005KT CAVOK 25/17 Q1016=
200808020615 METAR LIRA 020615Z 36002KT CAVOK 24/17 Q1016=
200808020545 METAR LIRA 020545Z 05002KT CAVOK 22/16 Q1016=
200808020515 METAR LIRA 020515Z 26001KT CAVOK 21/15 Q1015=
200808020445 METAR LIRA 020445Z 03002KT CAVOK 21/15 Q1015=
200808020415 METAR LIRA 020415Z 03002KT CAVOK 20/14 Q1015=
200808020345 METAR LIRA 020345Z 09004KT 9999 FEW080 20/14 Q1015=
200808020315 METAR LIRA 020315Z 08003KT CAVOK 22/20 Q1015=
200808020245 METAR LIRA 020245Z 10001KT CAVOK 22/20 Q1016=
200808020215 METAR LIRA 020215Z 15003KT CAVOK 22/20 Q1016=
200808020145 METAR LIRA 020145Z 16003KT CAVOK 23/19 Q1016=
200808020115 METAR LIRA 020115Z 16004KT CAVOK 23/19 Q1016=
200808020045 METAR LIRA 020045Z 19004KT CAVOK 23/20 Q1016=
200808020015 METAR LIRA 020015Z 19003KT CAVOK 24/17 Q1016=
200808012345 METAR LIRA 012345Z 17002KT CAVOK 24/17 Q1016=
200808012315 METAR LIRA 012315Z 20003KT CAVOK 25/17 Q1016=
200808012245 METAR LIRA 012245Z 19003KT CAVOK 25/17 Q1016=
200808012215 METAR LIRA 012215Z 20004KT CAVOK 25/16 Q1016=
200808012145 METAR LIRA 012145Z 23003KT CAVOK 25/16 Q1016=
200808012115 METAR LIRA 012115Z 23003KT CAVOK 26/16 Q1016=
200808012045 METAR LIRA 012045Z 16004KT CAVOK 26/18 Q1015=
200808012015 METAR LIRA 012015Z 21003KT CAVOK 26/17 Q1015=
200808011945 METAR LIRA 011945Z 23003KT 9999 FEW080 27/17 Q1015=
200808011915 METAR LIRA 011915Z 22003KT 9999 FEW070 28/17 Q1015=
200808011845 METAR LIRA 011845Z 21003KT 9999 FEW080 28/16 Q1015=
200808011815 METAR LIRA 011815Z 22005KT 190V270 9999 FEW080 29/16 Q1015=
200808011745 METAR LIRA 011745Z 24006KT 190V270 9999 FEW070 30/17 Q1014=
200808011715 METAR LIRA 011715Z 24007KT 180V280 9999 FEW070 30/16 Q1014=
200808011645 METAR LIRA 011645Z 26009KT 220V320 9999 FEW060 31/15 Q1014=
200808011615 METAR LIRA 011615Z 27011KT 230V330 9999 FEW030 32/16 Q1014=
200808011545 METAR LIRA 011545Z 28009KT 220V330 9999 FEW020 32/16 Q1014=
200808011515 METAR LIRA 011515Z 27008KT 220V320 9999 FEW020 33/16 Q1014=
200808011445 METAR LIRA 011445Z 26009G22KT 200V330 9999 FEW020 33/14 Q1014=
200808011415 METAR LIRA 011415Z 27010KT 230V330 9999 FEW020 FEW025CB 34/14
                        Q1014=
200808011345 METAR LIRA 011345Z 29011KT 230V320 9999 FEW020 FEW025CB 35/15
                        Q1014=
200808011315 METAR LIRA 011315Z 28010KT 220V320 9999 FEW020 FEW025CB 35/15
                        Q1015=
200808011245 METAR LIRA 011245Z 27008KT 200V330 9999 FEW025CB 35/14 Q1015=
200808011215 METAR LIRA 011215Z 30009KT 240V360 CAVOK 35/12 Q1015=
200808011145 METAR LIRA 011145Z 02003KT 360V090 CAVOK 34/13 Q1015=
200808011115 METAR LIRA 011115Z 32002KT CAVOK 33/13 Q1015=
200808011045 METAR LIRA 011045Z 34004KT 270V020 CAVOK 33/14 Q1016=
200808011015 METAR LIRA 011015Z 29003KT 270V020 CAVOK 32/15 Q1016=
200808010945 METAR LIRA 010945Z 30003KT CAVOK 31/14 Q1016=
200808010915 METAR LIRA 010915Z 33004KT CAVOK 30/14 Q1016=
200808010845 METAR LIRA 010845Z 02005KT 330V060 CAVOK 29/13 Q1016=
200808010815 METAR LIRA 010815Z 36003KT 330V060 CAVOK 28/14 Q1016=
200808010745 METAR LIRA 010745Z 03004KT CAVOK 26/14 Q1016=
200808010715 METAR LIRA 010715Z 03005KT CAVOK 26/14 Q1016=
200808010645 METAR LIRA 010645Z 02004KT CAVOK 24/15 Q1016=
200808010615 METAR LIRA 010615Z 02004KT CAVOK 23/15 Q1016=
200808010545 METAR LIRA 010545Z 04004KT CAVOK 21/15 Q1016=
200808010515 METAR LIRA 010515Z 02003KT CAVOK 20/15 Q1016=
200808010445 METAR LIRA 010445Z 04003KT CAVOK 21/17 Q1016=
200808010415 METAR LIRA 010415Z 03003KT CAVOK 21/17 Q1015=
200808010345 METAR LIRA 010345Z 34002KT CAVOK 21/18 Q1015=
200808010315 METAR LIRA 010315Z 05002KT CAVOK 21/20 Q1015=
200808010245 METAR LIRA 010245Z 07001KT CAVOK 21/19 Q1015=
200808010215 METAR LIRA 010215Z 35002KT CAVOK 22/19 Q1015=
200808010145 METAR LIRA 010145Z 19002KT CAVOK 22/20 Q1015=
200808010115 METAR LIRA 010115Z 17004KT CAVOK 22/20 Q1016=
200808010045 METAR LIRA 010045Z 25003KT CAVOK 23/20 Q1016=
200808010015 METAR LIRA 010015Z 23002KT CAVOK 23/21 Q1016=

</pre>

</body>
</html>
