##########################################################
# Query made at 11/10/2014 17:02:39 UTC
# Time interval: from 08/01/2012 00:00  to 08/31/2012 23:59  UTC
##########################################################

##########################################################
# LIRA, Roma / Ciampino (Italy)
# WMO index: 16239
# Latitude 41-47N. Longitude 012-35E. Altitude 129 m.
##########################################################

###################################
#  METAR/SPECI from LIRA
###################################
201208312350 METAR LIRA 010045Z 16007KT 9999 SCT080 20/15 Q1013=
201208312345 METAR LIRA 312345Z 16006KT 9999 SCT080 20/15 Q1013=
201208312315 METAR LIRA 312315Z 15007KT 9999 SCT080 21/16 Q1013=
201208312245 METAR LIRA 312245Z 16007KT 9999 SCT080 21/16 Q1013=
201208312215 METAR LIRA 312215Z 16006KT 9999 SCT080 21/16 Q1013=
201208312145 METAR LIRA 312145Z 18007KT 9999 SCT080 21/16 Q1013=
201208312115 METAR LIRA 312115Z 18006KT 9999 SCT080 22/16 Q1012=
201208312045 METAR LIRA 312045Z 18006KT 9999 SCT080 22/16 Q1012=
201208312015 METAR LIRA 312015Z 18007KT 9999 SCT080 22/16 Q1012=
201208311945 METAR LIRA 311945Z 15007KT 9999 SCT080 22/18 Q1012=
201208311915 METAR LIRA 311915Z 17006KT 9999 FEW080 22/18 Q1012=
201208311845 METAR LIRA 311845Z 18006KT 9999 FEW080 22/18 Q1012=
201208311815 METAR LIRA 311815Z 18007KT 9999 FEW080 23/18 Q1012=
201208311745 METAR LIRA 311745Z 21006KT 180V240 9999 FEW080 24/19 Q1012=
201208311715 METAR LIRA 311715Z 22007KT 9999 FEW080 24/18 Q1012=
201208311645 METAR LIRA 311645Z 22007KT 9999 FEW080 25/17 Q1012=
201208311615 METAR LIRA 311615Z 22009KT 190V260 9999 FEW017 26/16 Q1012=
201208311545 METAR LIRA 311545Z 23008KT 210V270 9999 FEW017 SCT070 26/15
                        Q1012=
201208311515 METAR LIRA 311515Z 20009KT 9999 FEW017 SCT022 26/15 Q1012=
201208311445 METAR LIRA 311445Z 21007KT 180V240 9999 FEW015 SCT022 26/15
                        Q1012=
201208311415 METAR LIRA 311415Z 21008KT 170V260 9999 SCT022 SCT070 27/19
                        Q1012=
201208311345 METAR LIRA 311345Z 23009KT 200V270 9999 FEW018CB SCT020 26/19
                        Q1012=
201208311315 METAR LIRA 311315Z 19008KT 9999 FEW015 FEW018CB SCT025 26/22
                        Q1012=
201208311245 METAR LIRA 311245Z 23006KT 200V260 8000 SCT017 FEW018CB SCT025
                        26/24 Q1012 RERA=
201208311215 METAR LIRA 311215Z 23010KT 7000 -SHRA FEW016CB SCT017 25/23
                        Q1012 RERA=
201208311145 METAR LIRA 311145Z 18017KT 150V220 9999 FEW016CB SCT017 29/21
                        Q1012=
201208311115 METAR LIRA 311115Z 17017KT 9999 SCT017 FEW018CB 30/21 Q1011=
201208311045 METAR LIRA 311045Z 18013KT 160V220 9999 SCT017 FEW018TCU
                        29/21 Q1012=
201208311015 METAR LIRA 311015Z 17015KT 9999 BKN018 29/21 Q1012=
201208310945 METAR LIRA 310945Z 17012KT 130V200 9999 SCT018 29/21 Q1013=
201208310915 METAR LIRA 310915Z 17013KT 9999 SCT018 28/21 Q1013=
201208310845 METAR LIRA 310845Z 16013KT 9999 SCT018 27/22 Q1013=
201208310815 METAR LIRA 310815Z 17012KT 130V210 9999 SCT018 27/22 Q1013=
201208310745 METAR LIRA 310745Z 16013KT 9999 SCT018 26/23 Q1013=
201208310715 METAR LIRA 310715Z 15011KT 9999 SCT020 26/23 Q1013=
201208310645 METAR LIRA 310645Z 16011KT 9999 FEW020 25/23 Q1013=
201208310615 METAR LIRA 310615Z 16009KT 9999 FEW020 25/22 Q1013=
201208310545 METAR LIRA 310545Z 15008KT 9999 FEW030 24/20 Q1013=
201208310515 METAR LIRA 310515Z 17007KT 9999 FEW030 24/21 Q1013=
201208310445 METAR LIRA 310445Z 18007KT 9999 FEW030 23/21 Q1013=
201208310415 METAR LIRA 310415Z 18008KT 9999 FEW030 23/20 Q1013=
201208310345 METAR LIRA 310345Z 20005KT 9999 FEW070 21/19 Q1013=
201208310315 METAR LIRA 310315Z 22004KT 9999 FEW070 21/18 Q1014=
201208310245 METAR LIRA 310245Z 17003KT 9999 FEW070 21/17 Q1014=
201208310215 METAR LIRA 310215Z 16004KT 9999 FEW070 21/16 Q1014=
201208310145 METAR LIRA 310145Z 15002KT 9999 FEW070 21/18 Q1014=
201208310115 METAR LIRA 310115Z 11002KT 9999 FEW070 21/18 Q1014=
201208310045 METAR LIRA 310045Z 10002KT 9999 FEW070 21/18 Q1014=
201208310015 METAR LIRA 310015Z 11004KT 9999 SCT070 22/19 Q1015=
201208302350 METAR LIRA 310045Z 10002KT 9999 FEW070 21/18 Q1014=
201208302345 METAR LIRA 302345Z 15002KT 9999 SCT070 22/20 Q1015=
201208302315 METAR LIRA 302315Z 11005KT 9999 SCT070 22/20 Q1015=
201208302245 METAR LIRA 302245Z 11006KT 9999 SCT070 22/21 Q1016=
201208302215 METAR LIRA 302215Z 11002KT 9999 SCT070 23/21 Q1016=
201208302145 METAR LIRA 302145Z 22002KT 9999 FEW070 24/22 Q1016=
201208302115 METAR LIRA 302115Z 20002KT 9999 FEW070 24/22 Q1016=
201208302045 METAR LIRA 302045Z 20002KT 9999 FEW070 24/22 Q1016=
201208302015 METAR LIRA 302015Z 22002KT 9999 FEW070 24/22 Q1016=
201208301945 METAR LIRA 301945Z 19003KT 9999 FEW070 25/22 Q1016=
201208301915 METAR LIRA 301915Z 22003KT 9999 FEW020 25/23 Q1015=
201208301845 METAR LIRA 301845Z 24004KT 9999 FEW020 25/22 Q1016=
201208301815 METAR LIRA 301815Z 24004KT 9999 FEW020 26/22 Q1016=
201208301745 METAR LIRA 301745Z 23004KT 9999 FEW020 SCT070 27/22 Q1016=
201208301715 METAR LIRA 301715Z 23005KT 9999 FEW020 28/22 Q1016=
201208301645 METAR LIRA 301645Z 23006KT 9999 FEW020 29/21 Q1016=
201208301615 METAR LIRA 301615Z 23007KT 9999 FEW020 30/20 Q1016=
201208301545 METAR LIRA 301545Z 23006KT 180V260 9999 FEW020 30/19 Q1016=
201208301515 METAR LIRA 301515Z 22006KT 160V270 9999 FEW020 31/20 Q1016=
201208301445 METAR LIRA 301445Z 24007KT 200V280 9999 FEW020 31/21 Q1016=
201208301415 METAR LIRA 301415Z 24009KT 190V280 9999 FEW020 31/20 Q1016=
201208301345 METAR LIRA 301345Z 21009KT 180V250 9999 FEW020 32/19 Q1016=
201208301315 METAR LIRA 301315Z 21006KT 180V290 9999 FEW020 32/21 Q1016=
201208301245 METAR LIRA 301245Z 25007KT 210V330 9999 FEW020 32/22 Q1016=
201208301215 METAR LIRA 301215Z 23008KT 190V270 9999 FEW020 32/22 Q1016=
201208301145 METAR LIRA 301145Z 22008KT 170V260 9999 FEW020 32/22 Q1016=
201208301115 METAR LIRA 301115Z 22008KT 190V250 9999 FEW020 32/22 Q1016=
201208301045 METAR LIRA 301045Z 18006KT 150V220 CAVOK 32/15 Q1017=
201208301015 METAR LIRA 301015Z 20006KT 090V250 CAVOK 32/16 Q1017=
201208300945 METAR LIRA 300945Z 23005KT 160V260 CAVOK 31/16 Q1018=
201208300915 METAR LIRA 300915Z 20005KT 180V240 CAVOK 30/15 Q1018=
201208300845 METAR LIRA 300845Z 19005KT CAVOK 29/17 Q1018=
201208300815 METAR LIRA 300815Z 18005KT CAVOK 28/19 Q1018=
201208300745 METAR LIRA 300745Z 03001KT CAVOK 28/20 Q1018=
201208300715 METAR LIRA 300715Z 16003KT CAVOK 26/18 Q1018=
201208300645 METAR LIRA 300645Z 06002KT CAVOK 25/18 Q1018=
201208300615 METAR LIRA 300615Z 00000KT CAVOK 22/18 Q1017=
201208300545 METAR LIRA 300545Z 00000KT CAVOK 21/18 Q1017=
201208300515 METAR LIRA 300515Z 33002KT CAVOK 20/16 Q1017=
201208300445 METAR LIRA 300445Z 00000KT CAVOK 20/16 Q1017=
201208300415 METAR LIRA 300415Z 00000KT CAVOK 20/16 Q1017=
201208300345 METAR LIRA 300345Z 11001KT CAVOK 21/14 Q1017=
201208300315 METAR LIRA 300315Z 09003KT CAVOK 21/15 Q1017=
201208300245 METAR LIRA 300245Z 11003KT CAVOK 21/17 Q1017=
201208300215 METAR LIRA 300215Z 09002KT CAVOK 21/18 Q1017=
201208300145 METAR LIRA 300145Z 10004KT CAVOK 22/19 Q1017=
201208300115 METAR LIRA 300115Z 10005KT CAVOK 22/19 Q1017=
201208300045 METAR LIRA 300045Z 11004KT CAVOK 22/20 Q1017=
201208300015 METAR LIRA 300015Z 10003KT CAVOK 22/21 Q1017=
201208292350 METAR LIRA 300045Z 11004KT CAVOK 22/20 Q1017=
201208292345 METAR LIRA 292345Z 16003KT 9999 FEW002 24/22 Q1018=
201208292315 METAR LIRA 292315Z 19003KT CAVOK 24/22 Q1018=
201208292245 METAR LIRA 292245Z 18002KT CAVOK 24/22 Q1018=
201208292215 METAR LIRA 292215Z 16003KT CAVOK 24/22 Q1018=
201208292145 METAR LIRA 292145Z 16002KT CAVOK 24/21 Q1018=
201208292115 METAR LIRA 292115Z 16002KT CAVOK 25/22 Q1018=
201208292045 METAR LIRA 292045Z 19002KT CAVOK 25/21 Q1018=
201208292015 METAR LIRA 292015Z 19003KT CAVOK 25/20 Q1018=
201208291945 METAR LIRA 291945Z 22003KT CAVOK 25/19 Q1018=
201208291915 METAR LIRA 291915Z 21003KT CAVOK 26/19 Q1018=
201208291845 METAR LIRA 291845Z 19004KT CAVOK 26/19 Q1018=
201208291815 METAR LIRA 291815Z 22003KT CAVOK 27/18 Q1018=
201208291745 METAR LIRA 291745Z 24004KT CAVOK 28/18 Q1017=
201208291715 METAR LIRA 291715Z 24007KT 210V280 9999 FEW070 29/17 Q1017=
201208291645 METAR LIRA 291645Z 27008KT 9999 FEW070 30/16 Q1017=
201208291615 METAR LIRA 291615Z 24008KT 200V300 9999 FEW070 30/16 Q1017=
201208291545 METAR LIRA 291545Z 25007KT 200V280 9999 FEW020 30/14 Q1018=
201208291515 METAR LIRA 291515Z 25007KT 210V320 9999 FEW020 31/14 Q1018=
201208291445 METAR LIRA 291445Z 26009KT 200V300 9999 FEW020 31/13 Q1018=
201208291415 METAR LIRA 291415Z 25009KT 9999 FEW020 32/12 Q1018=
201208291345 METAR LIRA 291345Z 25009KT 200V280 9999 FEW020 32/12 Q1018=
201208291315 METAR LIRA 291315Z 25008KT 210V330 9999 FEW020 32/13 Q1018=
201208291245 METAR LIRA 291245Z 27008KT 230V310 9999 FEW020 32/12 Q1019=
201208291215 METAR LIRA 291215Z 26008KT 220V310 9999 FEW020 32/13 Q1019=
201208291145 METAR LIRA 291145Z 23006KT 170V300 9999 FEW020 32/15 Q1019=
201208291115 METAR LIRA 291115Z 28003KT 9999 FEW020 32/16 Q1019=
201208291045 METAR LIRA 291045Z 27004KT 9999 FEW020 32/16 Q1019=
201208291015 METAR LIRA 291015Z 36003KT 9999 FEW020 31/17 Q1019=
201208290945 METAR LIRA 290945Z 34003KT 9999 FEW070 30/18 Q1019=
201208290915 METAR LIRA 290915Z 32003KT 9999 FEW070 29/19 Q1019=
201208290845 METAR LIRA 290845Z 01004KT CAVOK 28/19 Q1019=
201208290815 METAR LIRA 290815Z 02003KT CAVOK 27/19 Q1019=
201208290745 METAR LIRA 290745Z 35004KT CAVOK 26/21 Q1019=
201208290715 METAR LIRA 290715Z 36004KT CAVOK 25/20 Q1019=
201208290700 METAR LIRA CONTUS LOW CLDS MVG S=
201208290645 METAR LIRA 290645Z 02003KT CAVOK 24/20 Q1019=
201208290615 METAR LIRA 290615Z 03003KT CAVOK 23/20 Q1019=
201208290600 METAR LIRA INT=
201208290545 METAR LIRA 290545Z 35002KT CAVOK 20/18 Q1018=
201208290515 METAR LIRA 290515Z 34002KT CAVOK 20/18 Q1018=
201208290500 METAR LIRA INTER=
201208290445 METAR LIRA 290445Z 03002KT CAVOK 19/17 Q1018=
201208290415 METAR LIRA 290415Z 04003KT CAVOK 19/17 Q1018=
201208290345 METAR LIRA 290345Z 06003KT CAVOK 20/17 Q1018=
201208290315 METAR LIRA 290315Z 10002KT CAVOK 20/17 Q1019=
201208290245 METAR LIRA 290245Z 27002KT CAVOK 20/17 Q1018=
201208290215 METAR LIRA 290215Z 21001KT CAVOK 21/17 Q1019=
201208290145 METAR LIRA 290145Z 11003KT CAVOK 21/17 Q1019=
201208290115 METAR LIRA 290115Z 11003KT CAVOK 21/17 Q1019=
201208290045 METAR LIRA 290045Z 00000KT CAVOK 21/17 Q1019=
201208290015 METAR LIRA 290015Z 00000KT CAVOK 21/18 Q1019=
201208282350 METAR LIRA 290045Z 00000KT CAVOK 21/17 Q1019=
201208282345 METAR LIRA 282345Z 00000KT CAVOK 22/19 Q1019=
201208282315 METAR LIRA 282315Z 11003KT CAVOK 22/19 Q1019=
201208282245 METAR LIRA 282245Z 12003KT CAVOK 22/19 Q1019=
201208282215 METAR LIRA 282215Z 10004KT CAVOK 23/20 Q1019=
201208282145 METAR LIRA 282145Z 10002KT CAVOK 23/21 Q1019=
201208282115 METAR LIRA 282115Z 11001KT CAVOK 23/21 Q1019=
201208282045 METAR LIRA 282045Z 17002KT CAVOK 24/21 Q1019=
201208282015 METAR LIRA 282015Z 22002KT CAVOK 24/21 Q1019=
201208281945 METAR LIRA 281945Z 22003KT CAVOK 24/20 Q1019=
201208281915 METAR LIRA 281915Z 19004KT CAVOK 25/22 Q1018=
201208281845 METAR LIRA 281845Z 22003KT CAVOK 26/21 Q1018=
201208281815 METAR LIRA 281815Z 22005KT CAVOK 26/21 Q1018=
201208281745 METAR LIRA 281745Z 23006KT CAVOK 27/21 Q1018=
201208281715 METAR LIRA 281715Z 23005KT CAVOK 28/21 Q1018=
201208281645 METAR LIRA 281645Z 23005KT 190V260 CAVOK 28/21 Q1018=
201208281615 METAR LIRA 281615Z 24006KT 210V280 CAVOK 29/20 Q1018=
201208281545 METAR LIRA 281545Z 22007KT 180V260 CAVOK 29/21 Q1018=
201208281515 METAR LIRA 281515Z 23007KT 200V260 9999 FEW020 30/20 Q1018=
201208281445 METAR LIRA 281445Z 22007KT 180V260 9999 FEW020 30/20 Q1018=
201208281415 METAR LIRA 281415Z 22008KT 170V290 9999 FEW020 30/20 Q1018=
201208281345 METAR LIRA 281345Z 24008KT 170V330 9999 FEW020 31/19 Q1018=
201208281315 METAR LIRA 281315Z 22007KT 170V260 9999 FEW020 31/18 Q1019=
201208281245 METAR LIRA 281245Z 25008KT 210V330 9999 FEW020 31/18 Q1019=
201208281215 METAR LIRA 281215Z 27006KT 230V310 9999 FEW030 31/16 Q1019=
201208281145 METAR LIRA 281145Z 21006KT 140V280 9999 FEW030 31/16 Q1019=
201208281115 METAR LIRA 281115Z 26003KT CAVOK 32/16 Q1019=
201208281045 METAR LIRA 281045Z VRB03KT 330V230 CAVOK 30/15 Q1019=
201208281015 METAR LIRA 281015Z 20003KT CAVOK 30/16 Q1019=
201208280945 METAR LIRA 280945Z 29005KT 240V330 CAVOK 29/16 Q1019=
201208280915 METAR LIRA 280915Z 06003KT CAVOK 29/16 Q1019=
201208280845 METAR LIRA 280845Z 36002KT 9999 FEW040 28/15 Q1019=
201208280815 METAR LIRA 280815Z 02004KT 9999 FEW040 27/15 Q1019=
201208280745 METAR LIRA 280745Z 02004KT 9999 FEW030 26/15 Q1019=
201208280715 METAR LIRA 280715Z 03003KT 9999 FEW030 25/15 Q1019=
201208280645 METAR LIRA 280645Z 03004KT 9999 FEW030 23/14 Q1019=
201208280615 METAR LIRA 280615Z 04004KT 9999 FEW030 22/14 Q1019=
201208280545 METAR LIRA 280545Z 03004KT CAVOK 20/13 Q1019=
201208280515 METAR LIRA 280515Z 04002KT CAVOK 20/13 Q1019=
201208280445 METAR LIRA 280445Z 02001KT CAVOK 20/12 Q1018=
201208280415 METAR LIRA 280415Z 36003KT CAVOK 20/12 Q1018=
201208280345 METAR LIRA 280345Z 02003KT CAVOK 20/12 Q1018=
201208280315 METAR LIRA 280315Z 03003KT 9999 FEW070 20/12 Q1018=
201208280245 METAR LIRA 280245Z 04001KT CAVOK 20/12 Q1018=
201208280215 METAR LIRA 280215Z 09002KT CAVOK 20/11 Q1018=
201208280145 METAR LIRA 280145Z 09002KT CAVOK 21/11 Q1018=
201208280115 METAR LIRA 280115Z 08002KT CAVOK 21/10 Q1018=
201208280045 METAR LIRA 280045Z 29002KT CAVOK 21/10 Q1018=
201208280015 METAR LIRA 280015Z 00000KT CAVOK 22/10 Q1018=
201208272350 METAR LIRA 280045Z 29002KT CAVOK 21/10 Q1018=
201208272345 METAR LIRA 272345Z 36003KT CAVOK 22/10 Q1017=
201208272315 METAR LIRA 272315Z 34004KT CAVOK 22/09 Q1017=
201208272245 METAR LIRA 272245Z 34003KT CAVOK 23/09 Q1017=
201208272215 METAR LIRA 272215Z 03005KT 010V080 CAVOK 23/09 Q1017=
201208272145 METAR LIRA 272145Z 03004KT CAVOK 24/08 Q1017=
201208272115 METAR LIRA 272115Z 01003KT CAVOK 25/08 Q1017=
201208272045 METAR LIRA 272045Z 03004KT CAVOK 25/08 Q1017=
201208272015 METAR LIRA 272015Z 01004KT CAVOK 26/08 Q1017=
201208271945 METAR LIRA 271945Z 35006KT CAVOK 26/09 Q1017=
201208271915 METAR LIRA 271915Z 34006KT 300V020 CAVOK 27/09 Q1017=
201208271845 METAR LIRA 271845Z 34007KT CAVOK 28/09 Q1016=
201208271815 METAR LIRA 271815Z 33009KT 300V360 CAVOK 29/08 Q1016=
201208271745 METAR LIRA 271745Z 33010KT CAVOK 30/07 Q1015=
201208271715 METAR LIRA 271715Z 32011KT CAVOK 32/05 Q1015=
201208271645 METAR LIRA 271645Z 32010KT CAVOK 32/05 Q1015=
201208271615 METAR LIRA 271615Z 30009KT CAVOK 33/05 Q1015=
201208271545 METAR LIRA 271545Z 34008KT CAVOK 32/05 Q1015=
201208271515 METAR LIRA 271515Z 33006KT 280V020 CAVOK 33/06 Q1015=
201208271445 METAR LIRA 271445Z 31009KT CAVOK 33/05 Q1015=
201208271415 METAR LIRA 271415Z 04004KT 320V060 CAVOK 33/06 Q1015=
201208271345 METAR LIRA 271345Z 31004KT 240V010 9999 FEW018 33/05 Q1015=
201208271315 METAR LIRA 271315Z 31007KT 260V340 9999 FEW018 32/05 Q1015=
201208271245 METAR LIRA 271245Z 18005KT 9999 FEW018 32/07 Q1015=
201208271215 METAR LIRA 271215Z 32008KT 260V070 9999 FEW018 33/07 Q1015=
201208271145 METAR LIRA 271145Z 32007KT 260V020 9999 FEW018 32/10 Q1015=
201208271115 METAR LIRA 271115Z 34007KT 300V070 CAVOK 31/12 Q1015=
201208271045 METAR LIRA 271045Z 35006KT CAVOK 30/13 Q1016=
201208271015 METAR LIRA 271015Z 01008KT 300V070 CAVOK 30/14 Q1016=
201208270945 METAR LIRA 270945Z 01008KT 330V060 CAVOK 28/14 Q1016=
201208270915 METAR LIRA 270915Z 02008KT 340V060 CAVOK 28/15 Q1016=
201208270845 METAR LIRA 270845Z 01008KT 310V070 CAVOK 26/17 Q1016=
201208270815 METAR LIRA 270815Z 36007KT 330V050 CAVOK 26/16 Q1016=
201208270745 METAR LIRA 270745Z 02006KT 340V090 CAVOK 25/17 Q1015=
201208270715 METAR LIRA 270715Z 36006KT 330V030 CAVOK 24/17 Q1015=
201208270645 METAR LIRA 270645Z 02006KT 350V060 CAVOK 22/18 Q1015=
201208270615 METAR LIRA 270615Z 02007KT 340V070 CAVOK 22/17 Q1015=
201208270545 METAR LIRA 270545Z 03005KT CAVOK 21/18 Q1015=
201208270515 METAR LIRA 270515Z 02004KT CAVOK 20/17 Q1014=
201208270445 METAR LIRA 270445Z 03003KT CAVOK 20/16 Q1014=
201208270415 METAR LIRA 270415Z 02004KT CAVOK 21/17 Q1014=
201208270345 METAR LIRA 270345Z 01005KT CAVOK 21/17 Q1013=
201208270315 METAR LIRA 270315Z 01006KT 330V060 CAVOK 21/17 Q1013=
201208270245 METAR LIRA 270245Z 01004KT CAVOK 22/18 Q1013=
201208270215 METAR LIRA 270215Z 02006KT 9999 SCT020 SCT070 22/18 Q1013=
201208270145 METAR LIRA 270145Z 36008KT 320V040 9999 SCT020 SCT070 22/19
                        Q1013=
201208270115 METAR LIRA 270115Z 36007KT 310V030 9999 FEW020 SCT070 22/20
                        Q1013=
201208270045 METAR LIRA 270045Z 03002KT 9999 FEW020 22/21 Q1013=
201208270015 METAR LIRA 270015Z 03003KT 9999 FEW020 22/20 Q1013=
201208262350 METAR LIRA 270045Z 03002KT 9999 FEW020 22/21 Q1013=
201208262345 METAR LIRA 262345Z 08001KT 9999 FEW020 22/20 Q1013=
201208262315 METAR LIRA 262315Z 09002KT 9999 FEW020 23/21 Q1012=
201208262245 METAR LIRA 262245Z 06002KT 9999 FEW020 23/21 Q1012=
201208262215 METAR LIRA 262215Z 11004KT 9999 FEW070 24/22 Q1012=
201208262145 METAR LIRA 262145Z 14005KT 9999 FEW070 24/22 Q1012=
201208262115 METAR LIRA 262115Z 14005KT 9999 FEW070 24/22 Q1012=
201208262045 METAR LIRA 262045Z 15004KT 9999 FEW080 25/23 Q1012=
201208262015 METAR LIRA 262015Z 15004KT 9999 FEW080 25/23 Q1011=
201208261945 METAR LIRA 261945Z 17005KT 9999 FEW080 25/23 Q1011=
201208261915 METAR LIRA 261915Z 17005KT 9999 FEW080 25/23 Q1011=
201208261845 METAR LIRA 261845Z 20005KT 9999 FEW020 25/23 Q1010=
201208261815 METAR LIRA 261815Z 20006KT 9999 SCT020 FEW022TCU 26/23 Q1010=
201208261745 METAR LIRA 261745Z 22007KT 9999 SCT020 FEW022TCU 27/24 Q1010=
201208261715 METAR LIRA 261715Z 22007KT 9999 SCT020 28/24 Q1010=
201208261645 METAR LIRA 261645Z 22006KT 200V280 9999 SCT020 28/24 Q1010=
201208261615 METAR LIRA 261615Z 24008KT 200V280 9999 SCT020 29/24 Q1010=
201208261545 METAR LIRA 261545Z 24007KT 220V280 9999 SCT020 30/24 Q1010=
201208261515 METAR LIRA 261515Z 22008KT 170V280 9999 SCT018 31/24 Q1010=
201208261445 METAR LIRA 261445Z 21007KT 180V250 9999 SCT018 30/23 Q1010=
201208261415 METAR LIRA 261415Z 24008KT 200V290 9999 SCT018 30/23 Q1010=
201208261345 METAR LIRA 261345Z 22009KT 170V260 9999 FEW017TCU SCT018
                        30/24 Q1010=
201208261315 METAR LIRA 261315Z 21010KT 180V240 9999 FEW017TCU SCT018
                        30/24 Q1010=
201208261245 METAR LIRA 261245Z 20013KT 170V230 9999 FEW017TCU SCT018
                        30/23 Q1011=
201208261215 METAR LIRA 261215Z 22012KT 180V270 9999 SCT018 31/22 Q1010=
201208261145 METAR LIRA 261145Z 22012KT 160V240 9999 FEW018TCU SCT020
                        30/24 Q1010=
201208261115 METAR LIRA 261115Z 22011KT 170V250 9999 FEW018CB SCT020 30/24
                        Q1011=
201208261045 METAR LIRA 261045Z 22010KT 9999 FEW018CB SCT020 30/24 Q1011=
201208261015 METAR LIRA 261015Z 20013G23KT 9999 FEW018CB SCT020 30/24
                        Q1011=
201208260945 METAR LIRA 260945Z 16013KT 9999 FEW018TCU SCT020 30/23 Q1011=
201208260915 METAR LIRA 260915Z 16013KT 130V200 9999 FEW018TCU SCT020
                        30/24 Q1011=
201208260845 METAR LIRA 260845Z 15011KT 9999 SCT020 30/24 Q1011=
201208260815 METAR LIRA 260815Z 17010KT 9999 SCT020 29/24 Q1012=
201208260745 METAR LIRA 260745Z 16011KT 9999 SCT020 28/24 Q1012=
201208260715 METAR LIRA 260715Z 16011KT 9999 FEW020 28/24 Q1011=
201208260645 METAR LIRA 260645Z 16010KT 9999 FEW020 27/23 Q1011=
201208260615 METAR LIRA 260615Z 16007KT 9999 FEW020 26/23 Q1011=
201208260545 METAR LIRA 260545Z 18002KT 9999 FEW020 25/22 Q1011=
201208260515 METAR LIRA 260515Z 17002KT 9999 FEW080 24/21 Q1011=
201208260445 METAR LIRA 260445Z 09001KT 9999 FEW030 23/20 Q1011=
201208260415 METAR LIRA 260415Z 03001KT 9999 FEW070 23/20 Q1011=
201208260345 METAR LIRA 260345Z 10006KT 9999 SCT070 23/21 Q1011=
201208260315 METAR LIRA 260315Z 11007KT 9999 SCT070 23/21 Q1012=
201208260245 METAR LIRA 260245Z 11006KT 9999 SCT070 23/21 Q1012=
201208260215 METAR LIRA 260215Z 10003KT 9999 FEW070 22/18 Q1012=
201208260145 METAR LIRA 260145Z 09003KT 9999 FEW070 22/18 Q1012=
201208260115 METAR LIRA 260115Z 09003KT 9999 FEW070 22/18 Q1012=
201208260045 METAR LIRA 260045Z 09003KT CAVOK 22/17 Q1013=
201208260015 METAR LIRA 260015Z 09004KT CAVOK 21/15 Q1013=
201208252350 METAR LIRA 260045Z 09003KT CAVOK 22/17 Q1013=
201208252345 METAR LIRA 252345Z 09003KT CAVOK 22/16 Q1013=
201208252315 METAR LIRA 252315Z 15004KT CAVOK 23/19 Q1013=
201208252245 METAR LIRA 252245Z 16004KT CAVOK 24/20 Q1013=
201208252215 METAR LIRA 252215Z 15004KT CAVOK 24/18 Q1013=
201208252145 METAR LIRA 252145Z 17002KT CAVOK 25/21 Q1013=
201208252115 METAR LIRA 252115Z 19003KT CAVOK 25/21 Q1013=
201208252045 METAR LIRA 252045Z 17003KT CAVOK 25/22 Q1013=
201208252015 METAR LIRA 252015Z 17003KT CAVOK 26/23 Q1013=
201208251945 METAR LIRA 251945Z 17005KT CAVOK 26/23 Q1013=
201208251915 METAR LIRA 251915Z 17006KT CAVOK 26/22 Q1012=
201208251845 METAR LIRA 251845Z 18007KT CAVOK 27/22 Q1012=
201208251815 METAR LIRA 251815Z 19007KT CAVOK 27/22 Q1012=
201208251745 METAR LIRA 251745Z 20008KT CAVOK 27/21 Q1012=
201208251715 METAR LIRA 251715Z 21008KT 180V240 9999 FEW020 28/20 Q1012=
201208251645 METAR LIRA 251645Z 21008KT 170V250 9999 FEW020 29/19 Q1012=
201208251615 METAR LIRA 251615Z 20009KT 170V230 9999 FEW020 30/19 Q1012=
201208251545 METAR LIRA 251545Z 20010KT 180V240 9999 FEW020 31/20 Q1013=
201208251515 METAR LIRA 251515Z 20009KT 140V250 9999 FEW020 30/19 Q1013=
201208251445 METAR LIRA 251445Z 20011KT 180V240 9999 FEW020 31/19 Q1013=
201208251415 METAR LIRA 251415Z 21011KT 180V260 CAVOK 31/19 Q1013=
201208251345 METAR LIRA 251345Z 21010KT 160V240 CAVOK 32/20 Q1013=
201208251315 METAR LIRA 251315Z 21010KT 180V240 CAVOK 31/21 Q1013=
201208251245 METAR LIRA 251245Z 20009KT 160V250 CAVOK 32/22 Q1014=
201208251215 METAR LIRA 251215Z 21009KT 170V240 CAVOK 32/22 Q1014=
201208251145 METAR LIRA 251145Z 21009KT 160V260 CAVOK 32/22 Q1014=
201208251115 METAR LIRA 251115Z 21010KT 170V240 9999 FEW020 33/22 Q1014=
201208251045 METAR LIRA 251045Z 18008KT 140V220 CAVOK 33/19 Q1014=
201208251015 METAR LIRA 251015Z 19008KT 130V230 CAVOK 32/17 Q1014=
201208250945 METAR LIRA 250945Z 19008KT 150V230 CAVOK 32/16 Q1014=
201208250915 METAR LIRA 250915Z 19007KT 170V230 CAVOK 32/15 Q1014=
201208250845 METAR LIRA 250845Z 09004KT CAVOK 31/17 Q1014=
201208250815 METAR LIRA 250815Z 09002KT CAVOK 29/19 Q1014=
201208250745 METAR LIRA 250745Z 05003KT CAVOK 27/19 Q1014=
201208250715 METAR LIRA 250715Z 36002KT CAVOK 26/20 Q1014=
201208250645 METAR LIRA 250645Z 33003KT CAVOK 25/19 Q1014=
201208250615 METAR LIRA 250615Z 33002KT CAVOK 24/19 Q1013=
201208250545 METAR LIRA 250545Z 16001KT CAVOK 23/20 Q1013=
201208250515 METAR LIRA 250515Z 00000KT CAVOK 21/15 Q1013=
201208250445 METAR LIRA 250445Z 00000KT CAVOK 21/15 Q1013=
201208250415 METAR LIRA 250415Z 00000KT CAVOK 21/13 Q1013=
201208250345 METAR LIRA 250345Z 13004KT CAVOK 22/13 Q1013=
201208250315 METAR LIRA 250315Z 10003KT CAVOK 22/14 Q1013=
201208250245 METAR LIRA 250245Z 09003KT CAVOK 22/16 Q1013=
201208250215 METAR LIRA 250215Z 12003KT CAVOK 22/18 Q1014=
201208250145 METAR LIRA 250145Z 10006KT CAVOK 22/17 Q1014=
201208250115 METAR LIRA 250115Z 10001KT 9999 FEW010 23/18 Q1014=
201208250045 METAR LIRA 250045Z 10004KT 9999 FEW007 23/18 Q1014=
201208250015 METAR LIRA 250015Z 11003KT 9999 SCT007 23/19 Q1014=
201208242350 METAR LIRA 250045Z 10004KT 9999 FEW007 23/18 Q1014=
201208242345 METAR LIRA 242345Z 16002KT 9999 SCT007 23/19 Q1014=
201208242315 METAR LIRA 242315Z 14003KT 9999 FEW007 23/18 Q1014=
201208242245 METAR LIRA 242245Z 14003KT CAVOK 24/18 Q1014=
201208242215 METAR LIRA 242215Z 16002KT CAVOK 24/17 Q1014=
201208242145 METAR LIRA 242145Z 21001KT CAVOK 25/19 Q1014=
201208242115 METAR LIRA 242115Z 13001KT CAVOK 25/21 Q1014=
201208242045 METAR LIRA 242045Z 16002KT CAVOK 26/23 Q1014=
201208242015 METAR LIRA 242015Z 17004KT CAVOK 26/23 Q1014=
201208241945 METAR LIRA 241945Z 19004KT CAVOK 26/24 Q1013=
201208241915 METAR LIRA 241915Z 19004KT CAVOK 27/24 Q1013=
201208241845 METAR LIRA 241845Z 19004KT CAVOK 27/24 Q1013=
201208241815 METAR LIRA 241815Z 22004KT CAVOK 28/24 Q1013=
201208241745 METAR LIRA 241745Z 20006KT 160V240 CAVOK 29/23 Q1013=
201208241715 METAR LIRA 241715Z 22006KT CAVOK 30/22 Q1013=
201208241645 METAR LIRA 241645Z 23007KT 170V260 CAVOK 31/21 Q1013=
201208241615 METAR LIRA 241615Z 21007KT 170V250 CAVOK 31/21 Q1013=
201208241545 METAR LIRA 241545Z 24007KT 190V280 9999 FEW020 31/20 Q1013=
201208241515 METAR LIRA 241515Z 22008KT 190V280 9999 FEW020 32/19 Q1013=
201208241445 METAR LIRA 241445Z 23009KT 200V270 9999 FEW020 33/17 Q1014=
201208241415 METAR LIRA 241415Z 23008KT 200V280 9999 FEW020 33/18 Q1014=
201208241345 METAR LIRA 241345Z 22007KT 190V250 9999 FEW020 34/16 Q1014=
201208241315 METAR LIRA 241315Z 23008KT 200V270 9999 FEW020 34/16 Q1014=
201208241245 METAR LIRA 241245Z 22006KT 180V260 9999 FEW020 34/15 Q1014=
201208241215 METAR LIRA 241215Z 24006KT 180V010 9999 FEW020 34/15 Q1014=
201208241145 METAR LIRA 241145Z 19005KT 160V240 9999 FEW020 34/14 Q1014=
201208241115 METAR LIRA 241115Z 15004KT 9999 FEW020 34/15 Q1014=
201208241045 METAR LIRA 241045Z 28004KT 200V300 CAVOK 33/17 Q1014=
201208241015 METAR LIRA 241015Z 26004KT 200V300 CAVOK 32/16 Q1014=
201208240945 METAR LIRA 240945Z 24005KT 170V300 CAVOK 32/17 Q1014=
201208240915 METAR LIRA 240915Z 23005KT 170V280 CAVOK 32/18 Q1014=
201208240845 METAR LIRA 240845Z 20005KT 170V260 CAVOK 30/20 Q1014=
201208240815 METAR LIRA 240815Z 21004KT 180V250 CAVOK 29/21 Q1014=
201208240745 METAR LIRA 240745Z 20004KT CAVOK 28/23 Q1014=
201208240715 METAR LIRA 240715Z 25002KT CAVOK 27/23 Q1014=
201208240645 METAR LIRA 240645Z 35001KT 9999 FEW010 26/21 Q1014=
201208240615 METAR LIRA 240615Z 00000KT 9999 FEW007 25/18 Q1014=
201208240545 METAR LIRA 240545Z 00000KT 9999 5000N BR SCT003 23/21 Q1014=
201208240515 METAR LIRA 240515Z 18001KT 9999 1100N BCFG BKN001 23/22 Q1014=
201208240445 METAR LIRA 240445Z 00000KT 1000 0500 R15/P0900 FG OVC001
                        23/22 Q1013=
201208240415 METAR LIRA 240415Z 13001KT 2000 BR BKN002 23/22 Q1014=
201208240345 METAR LIRA 240345Z 00000KT 3000 BR BKN003 22/21 Q1013=
201208240315 METAR LIRA 240315Z 00000KT 6000 SCT007 22/20 Q1014=
201208240245 METAR LIRA 240245Z 16003KT 6000 SCT007 23/21 Q1014=
201208240215 METAR LIRA 240215Z 13001KT 6000 SCT007 24/22 Q1014=
201208240145 METAR LIRA 240145Z 16002KT 6000 SCT007 24/17 Q1014=
201208240115 METAR LIRA 240115Z 16003KT 8000 NSC 23/15 Q1014=
201208240045 METAR LIRA 240045Z 00000KT CAVOK 23/18 Q1014=
201208240015 METAR LIRA 240015Z 00000KT CAVOK 24/18 Q1014=
201208232350 METAR LIRA 240045Z 00000KT CAVOK 23/18 Q1014=
201208232345 METAR LIRA 232345Z 15002KT CAVOK 24/19 Q1014=
201208232315 METAR LIRA 232315Z 00000KT CAVOK 24/19 Q1015=
201208232245 METAR LIRA 232245Z 00000KT CAVOK 24/19 Q1015=
201208232215 METAR LIRA 232215Z 11002KT CAVOK 24/17 Q1015=
201208232145 METAR LIRA 232145Z 00000KT CAVOK 25/23 Q1015=
201208232115 METAR LIRA 232115Z 00000KT CAVOK 26/23 Q1015=
201208232045 METAR LIRA 232045Z 13001KT CAVOK 26/24 Q1015=
201208232015 METAR LIRA 232015Z 16002KT CAVOK 26/24 Q1015=
201208231945 METAR LIRA 231945Z 18001KT CAVOK 27/23 Q1015=
201208231915 METAR LIRA 231915Z 22003KT CAVOK 27/23 Q1014=
201208231845 METAR LIRA 231845Z 23004KT 9999 FEW080 28/23 Q1014=
201208231815 METAR LIRA 231815Z 23004KT 9999 FEW080 28/21 Q1014=
201208231745 METAR LIRA 231745Z 23004KT 9999 FEW080 30/20 Q1014=
201208231715 METAR LIRA 231715Z 20004KT 9999 FEW020TCU 31/20 Q1014=
201208231645 METAR LIRA 231645Z 25004KT 230V290 9999 FEW020TCU 32/19 Q1014=
201208231615 METAR LIRA 231615Z 23007KT 9999 FEW020TCU 33/19 Q1014=
201208231545 METAR LIRA 231545Z 23007KT 190V280 9999 FEW020TCU 33/18 Q1014=
201208231515 METAR LIRA 231515Z 25007KT 210V290 9999 FEW020TCU 34/17 Q1015=
201208231445 METAR LIRA 231445Z 24008KT 210V280 9999 FEW020TCU 34/17 Q1015=
201208231415 METAR LIRA 231415Z 26007KT 220V300 9999 FEW020TCU 34/17 Q1015=
201208231345 METAR LIRA 231345Z 25008KT 200V290 9999 FEW020TCU 35/17 Q1015=
201208231315 METAR LIRA 231315Z 26009KT 210V310 9999 FEW020TCU 35/16 Q1015=
201208231245 METAR LIRA 231245Z 27009KT 220V300 9999 FEW020 36/17 Q1015=
201208231215 METAR LIRA 231215Z 25008KT 190V310 9999 FEW020 37/18 Q1015=
201208230915 METAR LIRA 230915Z 30002KT CAVOK 32/17 Q1016=
201208230845 METAR LIRA 230845Z 34002KT CAVOK 31/17 Q1016=
201208230815 METAR LIRA 230815Z 01002KT CAVOK 30/19 Q1016=
201208230745 METAR LIRA 230745Z 05004KT CAVOK 29/19 Q1016=
201208230715 METAR LIRA 230715Z 02004KT CAVOK 27/19 Q1016=
201208230645 METAR LIRA 230645Z 02003KT CAVOK 26/19 Q1015=
201208230615 METAR LIRA 230615Z 01002KT CAVOK 25/20 Q1015=
201208230545 METAR LIRA 230545Z 03002KT CAVOK 23/19 Q1015=
201208230515 METAR LIRA 230515Z 00000KT CAVOK 22/19 Q1015=
201208230445 METAR LIRA 230445Z 00000KT CAVOK 22/19 Q1015=
201208230415 METAR LIRA 230415Z 16001KT CAVOK 22/19 Q1015=
201208230345 METAR LIRA 230345Z 00000KT CAVOK 23/19 Q1016=
201208230315 METAR LIRA 230315Z 08001KT CAVOK 23/19 Q1016=
201208230245 METAR LIRA 230245Z 12002KT CAVOK 23/19 Q1016=
201208230215 METAR LIRA 230215Z 00000KT CAVOK 23/20 Q1016=
201208230145 METAR LIRA 230145Z 00000KT CAVOK 23/20 Q1016=
201208230115 METAR LIRA 230115Z 16001KT CAVOK 24/20 Q1016=
201208230045 METAR LIRA 230045Z 18001KT CAVOK 24/20 Q1016=
201208230015 METAR LIRA 230015Z 10002KT CAVOK 24/19 Q1016=
201208222350 METAR LIRA 230045Z 18001KT CAVOK 24/20 Q1016=
201208222345 METAR LIRA 222345Z 00000KT CAVOK 24/20 Q1017=
201208222315 METAR LIRA 222315Z 00000KT CAVOK 24/22 Q1017=
201208222245 METAR LIRA 222245Z 00000KT CAVOK 25/23 Q1016=
201208222215 METAR LIRA 222215Z 00000KT CAVOK 26/23 Q1016=
201208222145 METAR LIRA 222145Z 21002KT CAVOK 26/24 Q1017=
201208222115 METAR LIRA 222115Z 22003KT CAVOK 27/24 Q1017=
201208222045 METAR LIRA 222045Z 20002KT 9999 FEW060 27/23 Q1017=
201208222015 METAR LIRA 222015Z 20002KT 9999 FEW060 27/24 Q1017=
201208221945 METAR LIRA 221945Z 21003KT CAVOK 28/24 Q1017=
201208221915 METAR LIRA 221915Z 22003KT CAVOK 28/23 Q1016=
201208221845 METAR LIRA 221845Z 21005KT CAVOK 29/22 Q1016=
201208221815 METAR LIRA 221815Z 21004KT CAVOK 30/22 Q1016=
201208221745 METAR LIRA 221745Z 22005KT CAVOK 30/22 Q1016=
201208221715 METAR LIRA 221715Z 20007KT 160V220 9999 FEW012 31/22 Q1016=
201208221645 METAR LIRA 221645Z 23006KT 180V240 9999 FEW012 32/23 Q1016=
201208221615 METAR LIRA 221615Z 22006KT 200V270 9999 FEW013 33/22 Q1016=
201208221545 METAR LIRA 221545Z 22008KT 170V250 9999 FEW025 33/19 Q1016=
201208221515 METAR LIRA 221515Z 24008KT 200V270 9999 FEW025 34/19 Q1016=
201208221445 METAR LIRA 221445Z 24008KT 170V280 9999 FEW018TCU 34/19 Q1016=
201208221415 METAR LIRA 221415Z 27008KT 230V310 9999 FEW018TCU 34/19 Q1016=
201208221345 METAR LIRA 221345Z 24010KT 220V290 9999 FEW018TCU 34/19 Q1016=
201208221315 METAR LIRA 221315Z 26007KT 190V320 9999 FEW018TCU 35/18 Q1016=
201208221245 METAR LIRA 221245Z 27009KT 220V320 CAVOK 35/18 Q1016=
201208221215 METAR LIRA 221215Z 27007KT 220V310 CAVOK 35/18 Q1017=
201208221145 METAR LIRA 221145Z 27008KT 220V300 CAVOK 35/18 Q1017=
201208221115 METAR LIRA 221115Z 25005KT 200V320 CAVOK 35/18 Q1017=
201208221045 METAR LIRA 221045Z 23004KT CAVOK 35/19 Q1017=
201208221015 METAR LIRA 221015Z 14003KT CAVOK 34/19 Q1017=
201208220945 METAR LIRA 220945Z 26002KT 240V300 CAVOK 34/20 Q1017=
201208220915 METAR LIRA 220915Z 26004KT CAVOK 33/22 Q1017=
201208220845 METAR LIRA 220845Z 30003KT CAVOK 32/21 Q1017=
201208220815 METAR LIRA 220815Z 33002KT CAVOK 31/21 Q1017=
201208220745 METAR LIRA 220745Z 03001KT CAVOK 29/22 Q1017=
201208220715 METAR LIRA 220715Z 18001KT CAVOK 28/23 Q1017=
201208220645 METAR LIRA 220645Z 16002KT CAVOK 26/23 Q1017=
201208220615 METAR LIRA 220615Z 00000KT CAVOK 25/22 Q1017=
201208220545 METAR LIRA 220545Z 31001KT CAVOK 24/22 Q1016=
201208220515 METAR LIRA 220515Z 33002KT CAVOK 23/21 Q1016=
201208220445 METAR LIRA 220445Z 04003KT CAVOK 23/21 Q1016=
201208220415 METAR LIRA 220415Z 04004KT CAVOK 23/21 Q1016=
201208220345 METAR LIRA 220345Z 05001KT 8000 NSC 23/21 Q1016=
201208220315 METAR LIRA 220315Z 00000KT 8000 NSC 23/22 Q1016=
201208220245 METAR LIRA 220245Z 00000KT CAVOK 24/22 Q1017=
201208220215 METAR LIRA 220215Z 00000KT CAVOK 24/22 Q1017=
201208220145 METAR LIRA 220145Z 10002KT CAVOK 24/22 Q1017=
201208220115 METAR LIRA 220115Z 10004KT 9999 FEW080 24/23 Q1017=
201208220045 METAR LIRA 220045Z 12001KT 9999 FEW080 25/23 Q1017=
201208220015 METAR LIRA 220015Z 00000KT 9999 FEW080 25/23 Q1017=
201208212350 METAR LIRA 220045Z 12001KT 9999 FEW080 25/23 Q1017=
201208212345 METAR LIRA 212345Z 19001KT 9999 FEW080 25/24 Q1017=
201208212315 METAR LIRA 212315Z 18001KT CAVOK 25/23 Q1017=
201208212245 METAR LIRA 212245Z 19002KT CAVOK 26/23 Q1017=
201208212215 METAR LIRA 212215Z 17003KT CAVOK 26/24 Q1017=
201208212145 METAR LIRA 212145Z 17003KT CAVOK 26/24 Q1017=
201208212115 METAR LIRA 212115Z 18004KT CAVOK 27/24 Q1017=
201208212045 METAR LIRA 212045Z 18004KT CAVOK 27/24 Q1017=
201208212015 METAR LIRA 212015Z 18004KT 9999 FEW080 27/25 Q1017=
201208211945 METAR LIRA 211945Z 20004KT 9999 FEW080 27/25 Q1017=
201208211915 METAR LIRA 211915Z 20006KT 9999 FEW080 27/25 Q1016=
201208211845 METAR LIRA 211845Z 20006KT 9999 FEW018 28/25 Q1016=
201208211815 METAR LIRA 211815Z 20005KT 9999 FEW018 29/24 Q1016=
201208211745 METAR LIRA 211745Z 21005KT 9999 FEW018 30/23 Q1016=
201208211715 METAR LIRA 211715Z 20007KT 9999 FEW018 30/23 Q1016=
201208211645 METAR LIRA 211645Z 21007KT 170V250 9999 FEW018 31/24 Q1016=
201208211615 METAR LIRA 211615Z 22008KT 180V250 9999 FEW018 32/24 Q1016=
201208211545 METAR LIRA 211545Z 23008KT 200V260 CAVOK 33/23 Q1016=
201208211515 METAR LIRA 211515Z 24008KT 190V280 CAVOK 34/22 Q1016=
201208211445 METAR LIRA 211445Z 23008KT 210V280 CAVOK 34/22 Q1016=
201208211415 METAR LIRA 211415Z 23008KT 180V280 CAVOK 34/22 Q1016=
201208211345 METAR LIRA 211345Z 21008KT 160V270 CAVOK 34/22 Q1016=
201208211315 METAR LIRA 211315Z 23007KT 190V280 CAVOK 35/21 Q1016=
201208211245 METAR LIRA 211245Z 22008KT 180V290 CAVOK 35/21 Q1017=
201208211215 METAR LIRA 211215Z 23006KT 130V290 CAVOK 35/20 Q1017=
201208211145 METAR LIRA 211145Z 23007KT 200V260 CAVOK 35/20 Q1017=
201208211115 METAR LIRA 211115Z 34004KT CAVOK 35/20 Q1017=
201208211045 METAR LIRA 211045Z 25005KT 200V280 CAVOK 35/19 Q1017=
201208211015 METAR LIRA 211015Z 20005KT 100V230 CAVOK 34/19 Q1017=
201208210945 METAR LIRA 210945Z 05003KT CAVOK 34/19 Q1017=
201208210915 METAR LIRA 210915Z 25004KT CAVOK 32/19 Q1017=
201208210845 METAR LIRA 210845Z 20003KT CAVOK 32/20 Q1017=
201208210815 METAR LIRA 210815Z 18002KT CAVOK 31/20 Q1018=
201208210745 METAR LIRA 210745Z 33002KT CAVOK 28/20 Q1018=
201208210715 METAR LIRA 210715Z 33003KT CAVOK 27/20 Q1018=
201208210645 METAR LIRA 210645Z 36001KT CAVOK 26/19 Q1018=
201208210615 METAR LIRA 210615Z 02002KT CAVOK 25/19 Q1018=
201208210545 METAR LIRA 210545Z 03002KT CAVOK 24/19 Q1018=
201208210515 METAR LIRA 210515Z 06002KT CAVOK 23/19 Q1017=
201208210445 METAR LIRA 210445Z 06001KT CAVOK 22/18 Q1017=
201208210415 METAR LIRA 210415Z 07002KT CAVOK 22/18 Q1017=
201208210345 METAR LIRA 210345Z 05001KT CAVOK 22/19 Q1017=
201208210315 METAR LIRA 210315Z 03002KT CAVOK 23/19 Q1018=
201208210245 METAR LIRA 210245Z 08001KT CAVOK 23/19 Q1018=
201208210215 METAR LIRA 210215Z 05001KT CAVOK 23/19 Q1018=
201208210145 METAR LIRA 210145Z 00000KT CAVOK 23/19 Q1018=
201208210115 METAR LIRA 210115Z 34002KT CAVOK 23/19 Q1018=
201208210045 METAR LIRA 210045Z 00000KT CAVOK 24/18 Q1018=
201208210015 METAR LIRA 210015Z 12001KT CAVOK 24/18 Q1018=
201208202350 METAR LIRA 210045Z 00000KT CAVOK 24/18 Q1018=
201208202345 METAR LIRA 202345Z 00000KT CAVOK 24/19 Q1019=
201208202315 METAR LIRA 202315Z 07002KT CAVOK 25/19 Q1019=
201208202245 METAR LIRA 202245Z 00000KT CAVOK 25/19 Q1019=
201208202215 METAR LIRA 202215Z 11003KT CAVOK 25/19 Q1019=
201208202145 METAR LIRA 202145Z 05001KT CAVOK 25/20 Q1019=
201208202115 METAR LIRA 202115Z 14001KT CAVOK 26/23 Q1019=
201208202045 METAR LIRA 202045Z 16001KT CAVOK 26/23 Q1019=
201208202015 METAR LIRA 202015Z 22002KT CAVOK 26/22 Q1019=
201208201945 METAR LIRA 201945Z 23003KT CAVOK 27/22 Q1019=
201208201915 METAR LIRA 201915Z 21001KT CAVOK 27/22 Q1018=
201208201845 METAR LIRA 201845Z 23003KT CAVOK 28/22 Q1018=
201208201815 METAR LIRA 201815Z 23004KT CAVOK 28/20 Q1018=
201208201745 METAR LIRA 201745Z 22004KT CAVOK 30/20 Q1018=
201208201715 METAR LIRA 201715Z 23006KT CAVOK 31/19 Q1018=
201208201645 METAR LIRA 201645Z 23006KT 210V280 CAVOK 32/19 Q1018=
201208201615 METAR LIRA 201615Z 24009KT 180V270 CAVOK 32/18 Q1018=
201208201545 METAR LIRA 201545Z 24009KT 170V260 CAVOK 33/18 Q1018=
201208201515 METAR LIRA 201515Z 24010KT 210V280 CAVOK 33/17 Q1018=
201208201445 METAR LIRA 201445Z 24009KT 170V280 CAVOK 33/16 Q1018=
201208201415 METAR LIRA 201415Z 23010KT 200V300 CAVOK 34/17 Q1018=
201208201345 METAR LIRA 201345Z 19009KT 150V270 CAVOK 34/17 Q1018=
201208201315 METAR LIRA 201315Z 23010KT 160V260 CAVOK 34/17 Q1018=
201208201245 METAR LIRA 201245Z 21006KT 170V270 CAVOK 34/18 Q1019=
201208201215 METAR LIRA 201215Z 20010KT 160V260 CAVOK 34/19 Q1019=
201208201145 METAR LIRA 201145Z 22008KT CAVOK 35/19 Q1019=
201208201115 METAR LIRA 201115Z 19008KT 160V260 CAVOK 35/20 Q1019=
201208201045 METAR LIRA 201045Z 23008KT 170V260 CAVOK 34/18 Q1019=
201208201015 METAR LIRA 201015Z 16007KT 120V230 CAVOK 34/17 Q1019=
201208200945 METAR LIRA 200945Z 18009KT CAVOK 34/16 Q1019=
201208200915 METAR LIRA 200915Z 20006KT 160V280 CAVOK 34/16 Q1019=
201208200845 METAR LIRA 200845Z 29005KT CAVOK 31/18 Q1019=
201208200815 METAR LIRA 200815Z 27003KT CAVOK 30/17 Q1019=
201208200745 METAR LIRA 200745Z 01002KT CAVOK 28/18 Q1019=
201208200715 METAR LIRA 200715Z 35001KT CAVOK 27/18 Q1019=
201208200645 METAR LIRA 200645Z 33002KT CAVOK 26/19 Q1019=
201208200615 METAR LIRA 200615Z 36002KT CAVOK 25/18 Q1019=
201208200545 METAR LIRA 200545Z 02001KT CAVOK 25/18 Q1019=
201208200515 METAR LIRA 200515Z 08002KT CAVOK 22/18 Q1018=
201208200445 METAR LIRA 200445Z 05003KT CAVOK 22/18 Q1018=
201208200415 METAR LIRA 200415Z 04003KT CAVOK 22/18 Q1018=
201208200345 METAR LIRA 200345Z 06003KT CAVOK 22/18 Q1018=
201208200315 METAR LIRA 200315Z 03001KT CAVOK 23/18 Q1018=
201208200245 METAR LIRA 200245Z 35001KT CAVOK 23/16 Q1018=
201208200215 METAR LIRA 200215Z 06002KT CAVOK 23/18 Q1019=
201208200145 METAR LIRA 200145Z 01003KT CAVOK 23/18 Q1019=
201208200115 METAR LIRA 200115Z 01002KT CAVOK 23/18 Q1019=
201208200045 METAR LIRA 200045Z 07003KT CAVOK 23/18 Q1019=
201208200015 METAR LIRA 200015Z 06003KT CAVOK 23/17 Q1019=
201208192350 METAR LIRA 200045Z 07003KT CAVOK 23/18 Q1019=
201208192345 METAR LIRA 192345Z 06003KT CAVOK 24/18 Q1019=
201208192315 METAR LIRA 192315Z 00000KT CAVOK 25/17 Q1019=
201208192245 METAR LIRA 192245Z 06001KT CAVOK 25/17 Q1019=
201208192215 METAR LIRA 192215Z 00000KT CAVOK 25/18 Q1019=
201208192145 METAR LIRA 192145Z 00000KT CAVOK 25/19 Q1019=
201208192115 METAR LIRA 192115Z 07002KT CAVOK 25/19 Q1019=
201208192045 METAR LIRA 192045Z 09002KT CAVOK 26/22 Q1019=
201208192015 METAR LIRA 192015Z 13001KT CAVOK 26/23 Q1019=
201208191945 METAR LIRA 191945Z 20002KT CAVOK 27/22 Q1019=
201208191915 METAR LIRA 191915Z 22002KT CAVOK 27/22 Q1019=
201208191845 METAR LIRA 191845Z 23003KT CAVOK 27/21 Q1019=
201208191815 METAR LIRA 191815Z 24003KT CAVOK 28/21 Q1018=
201208191745 METAR LIRA 191745Z 24005KT CAVOK 30/19 Q1018=
201208191715 METAR LIRA 191715Z 24007KT CAVOK 30/17 Q1018=
201208191645 METAR LIRA 191645Z 20010KT 170V240 CAVOK 32/16 Q1018=
201208191615 METAR LIRA 191615Z 21007KT 170V250 CAVOK 32/15 Q1017=
201208191545 METAR LIRA 191545Z 19010KT CAVOK 33/15 Q1017=
201208191515 METAR LIRA 191515Z 22010KT 180V240 CAVOK 34/15 Q1017=
201208191445 METAR LIRA 191445Z 20011KT 9999 FEW020 33/15 Q1018=
201208191415 METAR LIRA 191415Z 27008KT 160V240 9999 FEW020 34/15 Q1018=
201208191345 METAR LIRA 191345Z 22010KT 130V230 9999 FEW020 34/15 Q1018=
201208191315 METAR LIRA 191315Z 22007KT 140V240 9999 FEW020 35/15 Q1018=
201208191245 METAR LIRA 191245Z 19011KT 160V230 9999 FEW020 35/13 Q1018=
201208191215 METAR LIRA 191215Z 19008KT 160V230 CAVOK 35/13 Q1018=
201208191145 METAR LIRA 191145Z 21005KT CAVOK 35/13 Q1018=
201208191115 METAR LIRA 191115Z 16010KT 120V210 CAVOK 34/12 Q1018=
201208191045 METAR LIRA 191045Z 19008KT 130V240 CAVOK 34/12 Q1018=
201208191015 METAR LIRA 191015Z 20007KT 110V250 CAVOK 34/12 Q1018=
201208190945 METAR LIRA 190945Z 13004KT 120V190 CAVOK 33/12 Q1018=
201208190915 METAR LIRA 190915Z 17007KT 130V210 CAVOK 32/12 Q1018=
201208190845 METAR LIRA 190845Z 17004KT CAVOK 32/14 Q1018=
201208190815 METAR LIRA 190815Z 02003KT CAVOK 30/18 Q1018=
201208190745 METAR LIRA 190745Z 05005KT 010V100 CAVOK 29/19 Q1018=
201208190715 METAR LIRA 190715Z 04004KT CAVOK 28/21 Q1018=
201208190645 METAR LIRA 190645Z 02003KT CAVOK 26/20 Q1018=
201208190615 METAR LIRA 190615Z 04004KT CAVOK 25/20 Q1018=
201208190545 METAR LIRA 190545Z 04003KT CAVOK 24/20 Q1018=
201208190515 METAR LIRA 190515Z 04002KT CAVOK 23/19 Q1018=
201208190445 METAR LIRA 190445Z 05002KT CAVOK 22/19 Q1018=
201208190415 METAR LIRA 190415Z 09001KT CAVOK 22/19 Q1017=
201208190345 METAR LIRA 190345Z 11001KT CAVOK 22/18 Q1018=
201208190315 METAR LIRA 190315Z 11002KT CAVOK 23/19 Q1018=
201208190245 METAR LIRA 190245Z 00000KT CAVOK 23/17 Q1018=
201208190215 METAR LIRA 190215Z 00000KT CAVOK 23/18 Q1018=
201208190145 METAR LIRA 190145Z 15001KT CAVOK 24/18 Q1018=
201208190115 METAR LIRA 190115Z 15001KT CAVOK 24/20 Q1018=
201208190045 METAR LIRA 190045Z 11001KT CAVOK 25/21 Q1018=
201208190015 METAR LIRA 190015Z 14001KT CAVOK 24/20 Q1018=
201208182350 METAR LIRA 190045Z 11001KT CAVOK 25/21 Q1018=
201208182345 METAR LIRA 182345Z 15001KT CAVOK 25/20 Q1018=
201208182315 METAR LIRA 182315Z 32001KT CAVOK 25/20 Q1018=
201208182245 METAR LIRA 182245Z 33002KT CAVOK 26/19 Q1017=
201208182215 METAR LIRA 182215Z 15001KT CAVOK 27/20 Q1017=
201208182145 METAR LIRA 182145Z 14002KT CAVOK 27/21 Q1017=
201208182115 METAR LIRA 182115Z 14003KT CAVOK 28/22 Q1017=
201208182045 METAR LIRA 182045Z 15005KT CAVOK 28/23 Q1017=
201208182015 METAR LIRA 182015Z 14005KT CAVOK 28/23 Q1017=
201208181945 METAR LIRA 181945Z 16005KT CAVOK 29/22 Q1017=
201208181915 METAR LIRA 181915Z 17003KT CAVOK 29/20 Q1017=
201208181845 METAR LIRA 181845Z 18005KT CAVOK 30/19 Q1017=
201208181815 METAR LIRA 181815Z 21004KT CAVOK 30/19 Q1017=
201208181745 METAR LIRA 181745Z 24005KT CAVOK 31/20 Q1016=
201208181715 METAR LIRA 181715Z 26006KT 220V300 CAVOK 32/20 Q1016=
201208181645 METAR LIRA 181645Z 23006KT CAVOK 33/21 Q1016=
201208181615 METAR LIRA 181615Z 21007KT 160V260 CAVOK 33/19 Q1016=
201208181545 METAR LIRA 181545Z 21008KT 180V250 9999 FEW020 33/21 Q1016=
201208181515 METAR LIRA 181515Z 23007KT 200V280 9999 FEW020 33/21 Q1016=
201208181445 METAR LIRA 181445Z 21008KT 170V290 9999 FEW022 33/19 Q1016=
201208181415 METAR LIRA 181415Z 22009KT 170V280 9999 FEW022 34/19 Q1016=
201208181345 METAR LIRA 181345Z 19010KT 140V220 9999 FEW022 34/18 Q1016=
201208181315 METAR LIRA 181315Z 18009KT 9999 FEW022 34/19 Q1016=
201208181245 METAR LIRA 181245Z 22008KT 180V260 9999 FEW022 34/18 Q1016=
201208181215 METAR LIRA 181215Z 22008KT 170V250 9999 FEW022 35/19 Q1016=
201208181145 METAR LIRA 181145Z 21008KT 170V260 9999 SCT022 35/19 Q1016=
201208181115 METAR LIRA 181115Z 24007KT 190V300 9999 SCT022 34/18 Q1016=
201208181045 METAR LIRA 181045Z 28007KT 230V290 9999 FEW022 35/18 Q1016=
201208181015 METAR LIRA 181015Z 26005KT 9999 FEW022 34/17 Q1017=
201208180945 METAR LIRA 180945Z 22004KT 200V300 CAVOK 34/19 Q1017=
201208180915 METAR LIRA 180915Z 25002KT CAVOK 33/19 Q1017=
201208180845 METAR LIRA 180845Z 29002KT CAVOK 32/19 Q1017=
201208180815 METAR LIRA 180815Z 33002KT CAVOK 31/18 Q1017=
201208180745 METAR LIRA 180745Z 01003KT CAVOK 29/18 Q1017=
201208180715 METAR LIRA 180715Z 04004KT CAVOK 28/18 Q1017=
201208180645 METAR LIRA 180645Z 03004KT CAVOK 27/18 Q1017=
201208180615 METAR LIRA 180615Z 03003KT CAVOK 25/18 Q1017=
201208180545 METAR LIRA 180545Z 04002KT CAVOK 25/18 Q1016=
201208180515 METAR LIRA 180515Z 04002KT CAVOK 24/18 Q1016=
201208180445 METAR LIRA 180445Z 06002KT CAVOK 23/17 Q1015=
201208180415 METAR LIRA 180415Z 07002KT CAVOK 23/17 Q1015=
201208180345 METAR LIRA 180345Z 04004KT CAVOK 23/16 Q1015=
201208180315 METAR LIRA 180315Z 02003KT CAVOK 23/16 Q1015=
201208180245 METAR LIRA 180245Z 02003KT CAVOK 24/16 Q1016=
201208180215 METAR LIRA 180215Z 13001KT CAVOK 24/16 Q1015=
201208180145 METAR LIRA 180145Z 04002KT CAVOK 24/16 Q1015=
201208180115 METAR LIRA 180115Z 05003KT CAVOK 24/17 Q1015=
201208180045 METAR LIRA 180045Z 05003KT CAVOK 24/17 Q1016=
201208180015 METAR LIRA 180015Z 03003KT CAVOK 24/18 Q1016=
201208172350 METAR LIRA 180045Z 05003KT CAVOK 24/17 Q1016=
201208172345 METAR LIRA 172345Z 04003KT CAVOK 25/18 Q1016=
201208172315 METAR LIRA 172315Z 04001KT CAVOK 25/20 Q1016=
201208172245 METAR LIRA 172245Z 00000KT CAVOK 25/20 Q1016=
201208172215 METAR LIRA 172215Z 34002KT CAVOK 25/19 Q1016=
201208172145 METAR LIRA 172145Z 13001KT CAVOK 26/19 Q1016=
201208172115 METAR LIRA 172115Z 26002KT 9999 FEW080 26/19 Q1015=
201208172045 METAR LIRA 172045Z 12002KT 9999 FEW080 27/18 Q1015=
201208172015 METAR LIRA 172015Z 10001KT 9999 FEW080 27/17 Q1015=
201208171945 METAR LIRA 171945Z 13002KT 9999 SCT070 27/19 Q1015=
201208171915 METAR LIRA 171915Z 18002KT 9999 SCT060 28/20 Q1015=
201208171845 METAR LIRA 171845Z 23002KT 9999 FEW030 28/20 Q1015=
201208171815 METAR LIRA 171815Z 22004KT 9999 FEW030 29/20 Q1015=
201208171745 METAR LIRA 171745Z 24005KT 9999 FEW030 30/19 Q1015=
201208171715 METAR LIRA 171715Z 25005KT 230V300 CAVOK 31/18 Q1014=
201208171645 METAR LIRA 171645Z 25005KT 200V360 CAVOK 31/18 Q1014=
201208171615 METAR LIRA 171615Z 23007KT CAVOK 32/18 Q1015=
201208171545 METAR LIRA 171545Z 27007KT 220V330 CAVOK 32/15 Q1015=
201208171515 METAR LIRA 171515Z 27006KT 220V310 CAVOK 32/14 Q1014=
201208171445 METAR LIRA 171445Z 26010KT 230V310 9999 FEW030 34/15 Q1014=
201208171415 METAR LIRA 171415Z 26008KT 200V300 9999 FEW030 34/16 Q1015=
201208171345 METAR LIRA 171345Z 27010KT 230V310 9999 FEW030 34/17 Q1015=
201208171315 METAR LIRA 171315Z /////KT 9999 FEW030 34/14 Q1015=
201208171245 METAR LIRA 171245Z /////KT 9999 FEW030 35/14 Q1015=
201208171215 METAR LIRA 171215Z /////KT 9999 FEW030 34/15 Q1015=
201208171145 METAR LIRA 171145Z /////KT 9999 FEW030 34/17 Q1015=
201208171115 METAR LIRA 171115Z /////KT 9999 FEW030 33/17 Q1015=
201208171045 METAR LIRA 171045Z /////KT 9999 FEW030 33/18 Q1015=
201208171015 METAR LIRA 171015Z /////KT CAVOK 32/18 Q1015=
201208170945 METAR LIRA 170945Z /////KT CAVOK 32/18 Q1015=
201208170915 METAR LIRA 170915Z /////KT CAVOK 30/20 Q1015=
201208170845 METAR LIRA 170845Z /////KT CAVOK 29/21 Q1015=
201208170815 METAR LIRA 170815Z /////KT CAVOK 28/21 Q1015=
201208170745 METAR LIRA 170745Z /////KT CAVOK 27/21 Q1015=
201208170715 METAR LIRA 170715Z /////KT CAVOK 26/21 Q1015=
201208170645 METAR LIRA 170645Z /////KT CAVOK 24/20 Q1015=
201208170615 METAR LIRA 170615Z /////KT CAVOK 23/20 Q1015=
201208170545 METAR LIRA 170545Z /////KT CAVOK 22/21 Q1015=
201208170515 METAR LIRA 170515Z /////KT CAVOK 22/20 Q1015=
201208170445 METAR LIRA 170445Z /////KT CAVOK 21/19 Q1015=
201208170415 METAR LIRA 170415Z /////KT CAVOK 21/20 Q1015=
201208170345 METAR LIRA 170345Z /////KT CAVOK 21/20 Q1015=
201208170315 METAR LIRA 170315Z /////KT CAVOK 22/20 Q1015=
201208170245 METAR LIRA 170245Z /////KT CAVOK 22/20 Q1015=
201208170215 METAR LIRA 170215Z /////KT CAVOK 22/21 Q1015=
201208170145 METAR LIRA 170145Z /////KT 9999 FEW022 23/21 Q1015=
201208170115 METAR LIRA 170115Z /////KT 9999 FEW022 23/21 Q1015=
201208170045 METAR LIRA 170045Z /////KT 9999 FEW020 23/20 Q1015=
201208170015 METAR LIRA 170015Z /////KT 9999 FEW022 23/20 Q1015=
201208162350 METAR LIRA 170045Z /////KT 9999 FEW020 23/20 Q1015=
201208162345 METAR LIRA 162345Z /////KT 9999 FEW022 23/21 Q1015=
201208162315 METAR LIRA 162315Z /////KT 9999 FEW021 23/21 Q1015=
201208162245 METAR LIRA 162245Z /////KT 9999 FEW021 23/21 Q1015=
201208162215 METAR LIRA 162215Z /////KT 9999 FEW020 23/21 Q1015=
201208162145 METAR LIRA 162145Z /////KT 9999 FEW020 24/22 Q1015=
201208162115 METAR LIRA 162115Z /////KT 9999 FEW020 24/22 Q1015=
201208162045 METAR LIRA 162045Z /////KT 9999 FEW020 25/22 Q1015=
201208162015 METAR LIRA 162015Z /////KT 9999 FEW020 SCT200 25/22 Q1015=
201208161945 METAR LIRA 161945Z /////KT 9999 FEW020 SCT200 25/22 Q1015=
201208161915 METAR LIRA 161915Z /////KT 9999 FEW020 SCT200 26/22 Q1015=
201208161845 METAR LIRA 161845Z /////KT 9999 FEW020 SCT200 27/20 Q1015=
201208161815 METAR LIRA 161815Z /////KT 9999 FEW020 SCT200 27/21 Q1015=
201208161745 METAR LIRA 161745Z /////KT 9999 FEW020 SCT200 28/21 Q1015=
201208161715 METAR LIRA 161715Z /////KT 9999 FEW020 SCT200 29/21 Q1015=
201208161645 METAR LIRA 161645Z /////KT 9999 SCT022 29/21 Q1015=
201208161615 METAR LIRA 161615Z /////KT 9999 SCT022 29/21 Q1015=
201208161545 METAR LIRA 161545Z /////KT 9999 SCT020 31/22 Q1015=
201208161515 METAR LIRA 161515Z /////KT 9999 SCT022 31/21 Q1015=
201208161445 METAR LIRA 161445Z /////KT 9999 SCT022 31/21 Q1015=
201208161415 METAR LIRA 161415Z /////KT 9999 SCT022 32/21 Q1015=
201208161345 METAR LIRA 161345Z /////KT 9999 SCT025 32/21 Q1015=
201208161315 METAR LIRA 161315Z /////KT CAVOK 33/19 Q1015=
201208161245 METAR LIRA 161245Z /////KT 9999 FEW025 33/19 Q1015=
201208161215 METAR LIRA 161215Z /////KT 9999 FEW025 32/19 Q1015=
201208161145 METAR LIRA 161145Z /////KT 9999 FEW025 32/19 Q1015=
201208161115 METAR LIRA 161115Z /////KT 9999 FEW025 32/20 Q1015=
201208161045 METAR LIRA 161045Z /////KT 9999 FEW025 32/20 Q1015=
201208161015 METAR LIRA 161015Z /////KT 9999 FEW025 32/21 Q1015=
201208161000 METAR LIRA CONTUS CB ALL QUADS=
201208160945 METAR LIRA 160945Z /////KT 9999 FEW025 31/20 Q1015=
201208160915 METAR LIRA 160915Z /////KT 9999 FEW025 31/20 Q1015=
201208160900 METAR LIRA CONTUS CB ALL QUADS=
201208160845 METAR LIRA 160845Z /////KT CAVOK 29/19 Q1015=
201208160815 METAR LIRA 160815Z /////KT CAVOK 29/20 Q1016=
201208160745 METAR LIRA 160745Z /////KT CAVOK 28/21 Q1016=
201208160715 METAR LIRA 160715Z /////KT CAVOK 26/20 Q1016=
201208160645 METAR LIRA 160645Z /////KT CAVOK 25/20 Q1016=
201208160615 METAR LIRA 160615Z /////KT CAVOK 24/19 Q1015=
201208160545 METAR LIRA 160545Z /////KT CAVOK 23/20 Q1015=
201208160515 METAR LIRA 160515Z /////KT CAVOK 21/18 Q1015=
201208160445 METAR LIRA 160445Z /////KT CAVOK 21/20 Q1014=
201208160415 METAR LIRA 160415Z /////KT CAVOK 22/20 Q1014=
201208160345 METAR LIRA 160345Z /////KT CAVOK 22/20 Q1015=
201208160315 METAR LIRA 160315Z /////KT CAVOK 22/20 Q1015=
201208160245 METAR LIRA 160245Z /////KT CAVOK 23/20 Q1015=
201208160215 METAR LIRA 160215Z /////KT 9999 FEW015 23/20 Q1015=
201208160145 METAR LIRA 160145Z /////KT 9999 FEW015 23/20 Q1015=
201208160045 METAR LIRA 160045Z /////KT 9999 SCT015 23/20 Q1015=
201208160015 METAR LIRA 160015Z /////KT 9999 FEW015 23/20 Q1015=
201208152350 METAR LIRA 160045Z /////KT 9999 SCT015 23/20 Q1015=
201208152345 METAR LIRA 152345Z /////KT 9999 FEW015 23/21 Q1015=
201208152315 METAR LIRA 152315Z /////KT 9999 FEW015 23/21 Q1015=
201208152245 METAR LIRA 152245Z /////KT 9999 FEW015 24/22 Q1015=
201208152215 METAR LIRA 152215Z /////KT 9999 SCT015 24/22 Q1015=
201208152145 METAR LIRA 152145Z /////KT 9999 SCT015 23/21 Q1015=
201208152115 METAR LIRA 152115Z /////KT CAVOK 24/22 Q1014=
201208152045 METAR LIRA 152045Z /////KT CAVOK 24/22 Q1014=
201208152015 METAR LIRA 152015Z /////KT CAVOK 25/22 Q1014=
201208151945 METAR LIRA 151945Z /////KT CAVOK 25/22 Q1014=
201208151915 METAR LIRA 151915Z /////KT CAVOK 26/22 Q1014=
201208151845 METAR LIRA 151845Z /////KT CAVOK 26/19 Q1014=
201208151815 METAR LIRA 151815Z /////KT CAVOK 27/22 Q1014=
201208151745 METAR LIRA 151745Z /////KT 9999 FEW022 28/20 Q1014=
201208151715 METAR LIRA 151715Z /////KT 9999 FEW020 29/20 Q1014=
201208151645 METAR LIRA 151645Z /////KT 9999 FEW020 29/19 Q1014=
201208151615 METAR LIRA 151615Z /////KT 9999 FEW020 30/19 Q1013=
201208151545 METAR LIRA 151545Z /////KT 9999 FEW020 31/18 Q1013=
201208151515 METAR LIRA 151515Z /////KT 9999 FEW020 31/17 Q1013=
201208151445 METAR LIRA 151445Z /////KT 9999 FEW020 32/18 Q1013=
201208151415 METAR LIRA 151415Z /////KT 9999 FEW020 32/17 Q1013=
201208151345 METAR LIRA 151345Z /////KT 9999 FEW020 33/17 Q1013=
201208151315 METAR LIRA 151315Z /////KT 9999 FEW020 33/16 Q1013=
201208151245 METAR LIRA 151245Z /////KT 9999 FEW020 33/16 Q1013=
201208151215 METAR LIRA 151215Z /////KT 9999 FEW020 33/17 Q1013=
201208151145 METAR LIRA 151145Z /////KT 9999 FEW020 33/15 Q1014=
201208151115 METAR LIRA 151115Z /////KT 9999 FEW020 33/16 Q1014=
201208151045 METAR LIRA 151045Z /////KT 9999 FEW020 33/17 Q1014=
201208151015 METAR LIRA 151015Z /////KT 9999 FEW020 32/19 Q1014=
201208150945 METAR LIRA 150945Z /////KT 9999 FEW020 31/20 Q1014=
201208150915 METAR LIRA 150915Z /////KT 9999 FEW020 30/21 Q1014=
201208150845 METAR LIRA 150845Z /////KT 9999 FEW020 29/22 Q1014=
201208150815 METAR LIRA 150815Z /////KT 9999 FEW020 28/21 Q1014=
201208150745 METAR LIRA 150745Z /////KT 9999 FEW020 27/22 Q1014=
201208150715 METAR LIRA 150715Z /////KT 9999 FEW010 27/22 Q1014=
201208150645 METAR LIRA 150645Z /////KT 9999 FEW010 25/22 Q1014=
201208150615 METAR LIRA 150615Z /////KT 9999 FEW010 23/21 Q1013=
201208150545 METAR LIRA 150545Z /////KT 9999 FEW010 22/20 Q1013=
201208150515 METAR LIRA 150515Z /////KT 9999 FEW010 22/20 Q1013=
201208150445 METAR LIRA 150445Z /////KT 9999 FEW010 21/19 Q1013=
201208150415 METAR LIRA 150415Z /////KT 9999 FEW010 21/19 Q1012=
201208150345 METAR LIRA 150345Z /////KT CAVOK 21/19 Q1012=
201208150315 METAR LIRA 150315Z /////KT CAVOK 22/20 Q1013=
201208150245 METAR LIRA 150245Z /////KT 9999 FEW008 22/20 Q1013=
201208150215 METAR LIRA 150215Z /////KT 9999 FEW008 22/20 Q1013=
201208150145 METAR LIRA 150145Z /////KT 9999 FEW008 22/20 Q1013=
201208150115 METAR LIRA 150115Z /////KT 9999 FEW008 23/20 Q1013=
201208150045 METAR LIRA 150045Z /////KT 9999 FEW008 23/21 Q1013=
201208150015 METAR LIRA 150015Z /////KT CAVOK 23/20 Q1013=
201208142350 METAR LIRA 150045Z /////KT 9999 FEW008 23/21 Q1013=
201208142345 METAR LIRA 142345Z /////KT CAVOK 23/21 Q1013=
201208142315 METAR LIRA 142315Z /////KT CAVOK 23/21 Q1013=
201208142245 METAR LIRA 142245Z /////KT CAVOK 23/22 Q1013=
201208142215 METAR LIRA 142215Z /////KT CAVOK 24/22 Q1013=
201208142145 METAR LIRA 142145Z /////KT CAVOK 24/22 Q1013=
201208142115 METAR LIRA 142115Z /////KT CAVOK 24/23 Q1013=
201208142045 METAR LIRA 142045Z /////KT CAVOK 25/23 Q1013=
201208142015 METAR LIRA 142015Z /////KT CAVOK 25/23 Q1013=
201208141945 METAR LIRA 141945Z /////KT 9999 FEW018 26/23 Q1013=
201208141915 METAR LIRA 141915Z /////KT 9999 FEW018 27/24 Q1012=
201208141845 METAR LIRA 141845Z /////KT 9999 FEW018 27/23 Q1012=
201208141815 METAR LIRA 141815Z /////KT 9999 FEW018 27/24 Q1012=
201208141745 METAR LIRA 141745Z /////KT 9999 FEW018 28/24 Q1012=
201208141715 METAR LIRA 141715Z /////KT 9999 SCT018 28/23 Q1012=
201208141645 METAR LIRA 141645Z /////KT 9999 SCT018 29/23 Q1011=
201208141615 METAR LIRA 141615Z /////KT 9999 SCT018 FEW020TCU 29/22 Q1012=
201208141545 METAR LIRA 141545Z /////KT 9999 SCT018 FEW020TCU 30/22 Q1011=
201208141515 METAR LIRA 141515Z /////KT 9999 SCT018 FEW020TCU 30/21 Q1011=
201208141445 METAR LIRA 141445Z /////KT 9999 FEW018 FEW020TCU 30/21 Q1011=
201208141415 METAR LIRA 141415Z /////KT 9999 SCT020 31/22 Q1011=
201208141345 METAR LIRA 141345Z /////KT 9999 SCT020 32/23 Q1011=
201208141315 METAR LIRA 141315Z /////KT 9999 SCT020 32/23 Q1011=
201208141245 METAR LIRA 141245Z /////KT 9999 SCT020 32/22 Q1011=
201208141215 METAR LIRA 141215Z /////KT 9999 SCT020 32/22 Q1011=
201208141145 METAR LIRA 141145Z /////KT 9999 BKN020 32/22 Q1012=
201208141115 METAR LIRA 141115Z 29006KT 210V320 9999 BKN020 30/21 Q1012=
201208141045 METAR LIRA 141045Z 29005KT 9999 BKN020 29/21 Q1012=
201208141015 METAR LIRA 141015Z 26004KT 9999 BKN020 29/21 Q1012=
201208140945 METAR LIRA 140945Z 23003KT 9999 BKN020 30/21 Q1012=
201208140915 METAR LIRA 140915Z 20003KT 9999 BKN020 28/22 Q1012=
201208140845 METAR LIRA 140845Z 26003KT 9999 SCT020 29/22 Q1012=
201208140815 METAR LIRA 140815Z 12002KT 9999 SCT020 29/22 Q1012=
201208140745 METAR LIRA 140745Z 34002KT 9999 FEW020 28/21 Q1012=
201208140715 METAR LIRA 140715Z 20002KT 9999 FEW020 27/22 Q1012=
201208140700 LIRA CB AQ=
201208140645 METAR LIRA 140645Z 04003KT 9999 FEW020 26/21 Q1012=
201208140615 METAR LIRA 140615Z 04003KT 9999 FEW020 24/21 Q1011=
201208140545 METAR LIRA 140545Z 03002KT CAVOK 23/21 Q1011=
201208140515 METAR LIRA 140515Z 02002KT CAVOK 22/21 Q1011=
201208140445 METAR LIRA 140445Z 07001KT CAVOK 22/21 Q1011=
201208140415 METAR LIRA 140415Z 08001KT CAVOK 22/21 Q1011=
201208140345 METAR LIRA 140345Z 07002KT CAVOK 22/20 Q1010=
201208140315 METAR LIRA 140315Z 11003KT CAVOK 22/20 Q1010=
201208140245 METAR LIRA 140245Z 00000KT CAVOK 22/20 Q1011=
201208140215 METAR LIRA 140215Z 11001KT CAVOK 22/20 Q1011=
201208140145 METAR LIRA 140145Z 13002KT CAVOK 23/21 Q1011=
201208140115 METAR LIRA 140115Z 12002KT CAVOK 22/21 Q1011=
201208140045 METAR LIRA 140045Z 10002KT CAVOK 22/21 Q1011=
201208140015 METAR LIRA 140015Z 09002KT CAVOK 23/21 Q1011=
201208132350 METAR LIRA 140045Z 10002KT CAVOK 22/21 Q1011=
201208132345 METAR LIRA 132345Z 06001KT CAVOK 24/22 Q1011=
201208132315 METAR LIRA 132315Z 04002KT CAVOK 24/22 Q1011=
201208132245 METAR LIRA 132245Z 03003KT CAVOK 24/23 Q1011=
201208132215 METAR LIRA 132215Z 05001KT CAVOK 24/23 Q1011=
201208132145 METAR LIRA 132145Z 00000KT CAVOK 25/23 Q1011=
201208132115 METAR LIRA 132115Z 03001KT CAVOK 25/23 Q1011=
201208132045 METAR LIRA 132045Z 14003KT CAVOK 25/23 Q1011=
201208132015 METAR LIRA 132015Z 16003KT CAVOK 25/24 Q1011=
201208131945 METAR LIRA 131945Z 15005KT 9999 FEW025 25/23 Q1011=
201208131915 METAR LIRA 131915Z 16006KT 100V190 9999 FEW018TCU SCT025
                        26/24 Q1010=
201208131845 METAR LIRA 131845Z 17005KT 9999 FEW016 FEW018TCU SCT025 26/24
                        Q1010 RETS=
201208131815 METAR LIRA 131815Z 18006KT 9999 FEW016 FEW018CB SCT025 27/25
                        Q1010 RETS=
201208131745 METAR LIRA 131745Z 19005KT 160V230 9999 -TSRA FEW016 SCT018CB
                        27/23 Q1010=
201208131715 METAR LIRA 131715Z 18008KT 150V220 9999 -TSRA FEW016 SCT018CB
                        28/24 Q1010=
201208131645 METAR LIRA 131645Z 18008KT 150V210 9999 -TSRA FEW016 SCT018CB
                        29/24 Q1010=
201208131615 METAR LIRA 131615Z 19009KT 9999 TS FEW016 SCT018CB 29/23
                        Q1010=
201208131545 METAR LIRA 131545Z 18011KT 150V220 9999 TS FEW016 SCT018CB
                        29/23 Q1010=
201208131515 METAR LIRA 131515Z 15012KT 110V200 9999 TS FEW016 SCT018CB
                        31/23 Q1009=
201208131445 METAR LIRA 131445Z 13013KT 9999 FEW016 SCT018CB 31/24 Q1010=
201208131415 METAR LIRA 131415Z 16014KT 9999 FEW018CB SCT020 30/23 Q1010=
201208131345 METAR LIRA 131345Z 15016KT 9999 FEW018CB SCT020 31/23 Q1010=
201208131315 METAR LIRA 131315Z 16015KT 130V190 9999 FEW018CB SCT020 31/23
                        Q1010=
201208131245 METAR LIRA 131245Z 16015KT 140V200 9999 FEW020TCU SCT022
                        31/23 Q1010=
201208131215 METAR LIRA 131215Z 16014KT 9999 FEW020TCU SCT022 30/22 Q1010=
201208131145 METAR LIRA 131145Z 16013KT 9999 FEW020TCU SCT022 30/23 Q1011=
201208131115 METAR LIRA 131115Z 16011KT 120V190 9999 FEW020TCU SCT022
                        30/23 Q1011=
201208131045 METAR LIRA 131045Z 16014KT 9999 FEW020TCU SCT022 30/23 Q1011=
201208131015 METAR LIRA 131015Z 16011KT 9999 FEW020TCU SCT022 29/22 Q1011=
201208130945 METAR LIRA 130945Z 14011KT 120V190 9999 SCT022 29/21 Q1011=
201208130915 METAR LIRA 130915Z 16012KT 120V200 9999 SCT022 29/21 Q1011=
201208130845 METAR LIRA 130845Z 15011KT 110V170 9999 FEW022 29/16 Q1011=
201208130815 METAR LIRA 130815Z 16012KT 120V200 9999 FEW022 29/15 Q1011=
201208130745 METAR LIRA 130745Z 17010KT 130V190 9999 FEW022 28/16 Q1011=
201208130715 METAR LIRA 130715Z 18008KT 120V220 9999 FEW022 28/15 Q1011=
201208130645 METAR LIRA 130645Z 16008KT CAVOK 28/15 Q1011=
201208130615 METAR LIRA 130615Z 02002KT CAVOK 26/20 Q1011=
201208130545 METAR LIRA 130545Z 35001KT CAVOK 23/18 Q1010=
201208130515 METAR LIRA 130515Z 34001KT 9999 FEW030 SCT070 22/17 Q1010=
201208130445 METAR LIRA 130445Z 00000KT 9999 FEW020 SCT060 21/16 Q1010=
201208130415 METAR LIRA 130415Z 31002KT 9999 FEW020 SCT060 22/16 Q1010=
201208130345 METAR LIRA 130345Z 31003KT 9999 FEW020 SCT070 23/16 Q1011=
201208130315 METAR LIRA 130315Z 30002KT 9999 FEW020 SCT070 23/15 Q1011=
201208130245 METAR LIRA 130245Z 31002KT 9999 FEW020 SCT070 23/14 Q1011=
201208130215 METAR LIRA 130215Z 08002KT 9999 FEW020 SCT070 24/13 Q1011=
201208130145 METAR LIRA 130145Z 10002KT 9999 FEW020 SCT070 24/13 Q1011=
201208130115 METAR LIRA 130115Z 11007KT 9999 FEW020 SCT070 23/13 Q1011=
201208130045 METAR LIRA 130045Z 11007KT 9999 FEW020 SCT070 23/13 Q1011=
201208130015 METAR LIRA 130015Z 13003KT 9999 FEW020 SCT070 23/14 Q1012=
201208122350 METAR LIRA 130045Z 11007KT 9999 FEW020 SCT070 23/13 Q1011=
201208122345 METAR LIRA 122345Z 15002KT 9999 FEW020 SCT070 23/16 Q1012=
201208122315 METAR LIRA 122315Z 02001KT 9999 FEW020 SCT070 23/16 Q1012=
201208122245 METAR LIRA 122245Z 00000KT 9999 FEW070 23/16 Q1012=
201208122215 METAR LIRA 122215Z 06002KT 9999 FEW070 23/17 Q1012=
201208122145 METAR LIRA 122145Z 06002KT 9999 FEW070 24/16 Q1012=
201208122115 METAR LIRA 122115Z 17003KT CAVOK 25/16 Q1012=
201208122045 METAR LIRA 122045Z 15004KT 9999 FEW020 25/19 Q1012=
201208122015 METAR LIRA 122015Z 18005KT 9999 FEW020 25/20 Q1012=
201208121945 METAR LIRA 121945Z 19005KT 9999 FEW020 SCT070 26/20 Q1012=
201208121915 METAR LIRA 121915Z 19005KT 9999 FEW020 SCT070 26/20 Q1012=
201208121845 METAR LIRA 121845Z 18005KT 9999 FEW030 SCT070 26/20 Q1012=
201208121815 METAR LIRA 121815Z 20007KT 9999 FEW030 SCT070 27/19 Q1012=
201208121745 METAR LIRA 121745Z 22006KT 180V240 9999 FEW030 SCT070 28/18
                        Q1012=
201208121715 METAR LIRA 121715Z 21005KT 200V260 9999 FEW030 SCT070 29/17
                        Q1012=
201208121645 METAR LIRA 121645Z 21005KT 9999 FEW025 SCT070 29/18 Q1012=
201208121615 METAR LIRA 121615Z 21007KT 180V240 9999 FEW025 SCT070 29/18
                        Q1012=
201208121545 METAR LIRA 121545Z 22009KT 170V260 9999 FEW030 29/20 Q1012=
201208121515 METAR LIRA 121515Z 18008KT 150V220 9999 FEW030 29/19 Q1012=
201208121445 METAR LIRA 121445Z 21007KT 170V250 9999 FEW030 30/18 Q1012=
201208121415 METAR LIRA 121415Z 20009KT 160V240 9999 FEW030 30/16 Q1012=
201208121345 METAR LIRA 121345Z 21009KT 180V240 9999 FEW030 31/15 Q1012=
201208121315 METAR LIRA 121315Z 20011KT 170V240 CAVOK 32/13 Q1012=
201208121245 METAR LIRA 121245Z 18012KT 150V210 CAVOK 32/14 Q1012=
201208121215 METAR LIRA 121215Z 19013KT 150V220 9999 FEW030 32/15 Q1012=
201208121145 METAR LIRA 121145Z 19011KT 140V220 9999 FEW030 32/16 Q1012=
201208121115 METAR LIRA 121115Z 19011KT 9999 FEW030 32/16 Q1012=
201208121045 METAR LIRA 121045Z 16010KT 120V230 CAVOK 32/18 Q1012=
201208121015 METAR LIRA 121015Z 19011KT 160V230 CAVOK 32/19 Q1013=
201208120945 METAR LIRA 120945Z 17009KT 140V250 CAVOK 30/17 Q1013=
201208120915 METAR LIRA 120915Z 18009KT 140V230 CAVOK 30/16 Q1013=
201208120845 METAR LIRA 120845Z 20007KT 150V230 CAVOK 29/15 Q1013=
201208120815 METAR LIRA 120815Z 20007KT 170V230 CAVOK 29/19 Q1013=
201208120745 METAR LIRA 120745Z 14003KT CAVOK 27/19 Q1013=
201208120715 METAR LIRA 120715Z 34002KT CAVOK 24/17 Q1013=
201208120645 METAR LIRA 120645Z 35003KT CAVOK 24/17 Q1013=
201208120615 METAR LIRA 120615Z 01003KT CAVOK 22/17 Q1012=
201208120545 METAR LIRA 120545Z 35001KT CAVOK 21/17 Q1012=
201208120515 METAR LIRA 120515Z 03002KT CAVOK 20/16 Q1012=
201208120445 METAR LIRA 120445Z 00000KT CAVOK 20/16 Q1012=
201208120415 METAR LIRA 120415Z 12001KT CAVOK 21/17 Q1012=
201208120345 METAR LIRA 120345Z 09003KT CAVOK 21/16 Q1012=
201208120315 METAR LIRA 120315Z 07003KT CAVOK 21/17 Q1012=
201208120245 METAR LIRA 120245Z 00000KT CAVOK 21/16 Q1012=
201208120215 METAR LIRA 120215Z 00000KT CAVOK 21/16 Q1012=
201208120145 METAR LIRA 120145Z 00000KT CAVOK 21/16 Q1012=
201208120115 METAR LIRA 120115Z 18004KT CAVOK 22/16 Q1012=
201208120045 METAR LIRA 120045Z 00000KT CAVOK 22/16 Q1012=
201208120015 METAR LIRA 120015Z 00000KT CAVOK 23/16 Q1012=
201208112350 METAR LIRA 120045Z 00000KT CAVOK 22/16 Q1012=
201208112345 METAR LIRA 112345Z 05002KT CAVOK 23/16 Q1012=
201208112315 METAR LIRA 112315Z 03002KT CAVOK 23/16 Q1012=
201208112245 METAR LIRA 112245Z 03002KT CAVOK 23/16 Q1012=
201208112215 METAR LIRA 112215Z 08002KT CAVOK 24/16 Q1011=
201208112145 METAR LIRA 112145Z 10005KT CAVOK 24/17 Q1011=
201208112115 METAR LIRA 112115Z 12003KT CAVOK 25/17 Q1011=
201208112045 METAR LIRA 112045Z 17003KT CAVOK 26/18 Q1011=
201208112015 METAR LIRA 112015Z 17004KT CAVOK 26/18 Q1011=
201208111945 METAR LIRA 111945Z 18005KT 9999 FEW020 26/18 Q1011=
201208111915 METAR LIRA 111915Z 17006KT 9999 FEW020 26/16 Q1011=
201208111845 METAR LIRA 111845Z 17005KT 9999 FEW020 27/17 Q1010=
201208111815 METAR LIRA 111815Z 20006KT 9999 FEW020 27/16 Q1010=
201208111745 METAR LIRA 111745Z 24006KT 210V290 9999 FEW020 29/16 Q1010=
201208111715 METAR LIRA 111715Z 24007KT 9999 FEW020 29/15 Q1010=
201208111645 METAR LIRA 111645Z 22008KT 170V260 9999 FEW020 30/14 Q1011=
201208111615 METAR LIRA 111615Z 24010KT 210V280 9999 SCT020 FEW025TCU
                        30/08 Q1011=
201208111545 METAR LIRA 111545Z 23008KT 180V260 9999 SCT020 FEW025TCU
                        30/15 Q1011=
201208111515 METAR LIRA 111515Z 25009KT 200V300 9999 SCT020 FEW025TCU
                        31/16 Q1011=
201208111445 METAR LIRA 111445Z 23010KT 200V270 9999 SCT020 FEW025TCU
                        31/17 Q1011=
201208111415 METAR LIRA 111415Z 22011KT 180V240 9999 SCT020 31/16 Q1011=
201208111345 METAR LIRA 111345Z 24009KT 200V300 9999 SCT018 FEW020TCU
                        32/17 Q1011=
201208111315 METAR LIRA 111315Z 24010G20KT 180V290 9999 SCT018 FEW020TCU
                        31/17 Q1012=
201208111245 METAR LIRA 111245Z 22010KT 170V280 9999 SCT018 FEW020TCU
                        31/15 Q1012=
201208111215 METAR LIRA 111215Z 31007KT 290V350 9999 SCT018 33/12 Q1012=
201208111145 METAR LIRA 111145Z 30005KT 250V320 9999 SCT018 32/11 Q1012=
201208111115 METAR LIRA 111115Z 36006KT 310V060 9999 SCT018 FEW020TCU
                        32/12 Q1012=
201208111045 METAR LIRA 111045Z 27003KT 9999 SCT020 31/14 Q1012=
201208111015 METAR LIRA 111015Z 25004KT 9999 SCT018 31/15 Q1013=
201208110945 METAR LIRA 110945Z 32002KT 9999 SCT018 30/15 Q1013=
201208110915 METAR LIRA 110915Z 11004KT 9999 SCT018 30/15 Q1013=
201208110845 METAR LIRA 110845Z 02005KT 330V050 9999 FEW018 29/15 Q1013=
201208110815 METAR LIRA 110815Z 02006KT 350V070 9999 FEW020 27/14 Q1013=
201208110745 METAR LIRA 110745Z 01007KT 330V050 CAVOK 26/15 Q1013=
201208110715 METAR LIRA 110715Z 02008KT 350V060 CAVOK 26/16 Q1013=
201208110645 METAR LIRA 110645Z 02008KT 350V080 CAVOK 25/16 Q1013=
201208110615 METAR LIRA 110615Z 03005KT CAVOK 24/17 Q1012=
201208110545 METAR LIRA 110545Z 04005KT 360V050 CAVOK 23/17 Q1012=
201208110515 METAR LIRA 110515Z 04005KT 350V060 CAVOK 22/17 Q1012=
201208110445 METAR LIRA 110445Z 03004KT CAVOK 21/17 Q1012=
201208110415 METAR LIRA 110415Z 36006KT 340V060 CAVOK 21/17 Q1012=
201208110345 METAR LIRA 110345Z 35006KT CAVOK 20/16 Q1012=
201208110315 METAR LIRA 110315Z 36006KT CAVOK 20/16 Q1012=
201208110245 METAR LIRA 110245Z 03004KT 9999 FEW070 21/17 Q1012=
201208110215 METAR LIRA 110215Z 36003KT 9999 FEW070 21/16 Q1012=
201208110145 METAR LIRA 110145Z 02004KT 9999 FEW070 21/16 Q1013=
201208110115 METAR LIRA 110115Z 01004KT 9999 FEW070 22/17 Q1013=
201208110045 METAR LIRA 110045Z 01003KT 9999 FEW070 23/17 Q1013=
201208110015 METAR LIRA 110015Z 01004KT 9999 FEW070 23/17 Q1013=
201208102350 METAR LIRA 110045Z 01003KT 9999 FEW070 23/17 Q1013=
201208102345 METAR LIRA 102345Z 01002KT 9999 FEW070 23/17 Q1013=
201208102315 METAR LIRA 102315Z 05004KT CAVOK 23/16 Q1013=
201208102245 METAR LIRA 102245Z 03003KT 9999 FEW070 24/17 Q1013=
201208102215 METAR LIRA 102215Z 04004KT 9999 FEW070 24/17 Q1013=
201208102145 METAR LIRA 102145Z 04003KT 9999 FEW070 24/17 Q1013=
201208102115 METAR LIRA 102115Z 10002KT 9999 FEW018 24/17 Q1013=
201208102045 METAR LIRA 102045Z 04004KT 9999 FEW018 25/18 Q1013=
201208102015 METAR LIRA 102015Z 35002KT 9999 FEW018 25/18 Q1013=
201208101945 METAR LIRA 101945Z 05003KT 9999 FEW018 25/17 Q1013=
201208101915 METAR LIRA 101915Z 10006KT 9999 FEW018 26/18 Q1013=
201208101845 METAR LIRA 101845Z 12010KT 9999 FEW018 26/18 Q1013=
201208101815 METAR LIRA 101815Z 13008KT 9999 FEW018 FEW022TCU 26/18 Q1013=
201208101745 METAR LIRA 101745Z 13013KT 9999 FEW018 FEW022TCU 27/18 Q1012=
201208101715 METAR LIRA 101715Z 16008KT 120V220 9999 FEW017 FEW018CB 30/22
                        Q1012=
201208101645 METAR LIRA 101645Z 18007KT 150V230 9999 FEW017 FEW018CB 30/21
                        Q1012=
201208101615 METAR LIRA 101615Z 24007KT 9999 FEW017 FEW018CB 30/21 Q1012=
201208101545 METAR LIRA 101545Z 23009KT 180V260 9999 FEW017 FEW018CB 32/21
                        Q1012=
201208101515 METAR LIRA 101515Z 23010KT 180V260 9999 FEW017 FEW018CB 32/21
                        Q1012=
201208101445 METAR LIRA 101445Z 21009KT 180V260 9999 FEW017 FEW018CB 33/20
                        Q1012=
201208101415 METAR LIRA 101415Z 21010KT 170V260 9999 FEW017 FEW018CB 33/20
                        Q1012=
201208101345 METAR LIRA 101345Z 19010KT 160V230 9999 FEW017 FEW018CB 33/22
                        Q1013=
201208101315 METAR LIRA 101315Z 20011KT 170V230 9999 FEW017 FEW018CB 33/21
                        Q1013=
201208101245 METAR LIRA 101245Z 22011KT 180V250 9999 FEW017 FEW018TCU
                        33/20 Q1013=
201208101215 METAR LIRA 101215Z 18009KT 130V210 9999 FEW017 FEW018TCU
                        33/19 Q1013=
201208101145 METAR LIRA 101145Z 19008KT 120V260 9999 FEW017 33/20 Q1013=
201208101115 METAR LIRA 101115Z 19006KT 090V260 9999 FEW017 33/19 Q1014=
201208101045 METAR LIRA 101045Z 18007KT 120V240 9999 FEW017 33/18 Q1014=
201208101015 METAR LIRA 101015Z 17006KT 120V210 9999 FEW017 33/18 Q1014=
201208100945 METAR LIRA 100945Z 21003KT 9999 FEW017 32/19 Q1014=
201208100915 METAR LIRA 100915Z 10004KT CAVOK 32/19 Q1014=
201208100845 METAR LIRA 100845Z 10004KT CAVOK 31/18 Q1015=
201208100815 METAR LIRA 100815Z 04003KT CAVOK 30/18 Q1015=
201208100745 METAR LIRA 100745Z 06003KT CAVOK 29/19 Q1015=
201208100715 METAR LIRA 100715Z 04001KT CAVOK 27/18 Q1015=
201208100645 METAR LIRA 100645Z 02002KT CAVOK 25/17 Q1014=
201208100615 METAR LIRA 100615Z 36002KT CAVOK 24/17 Q1014=
201208100545 METAR LIRA 100545Z 05002KT CAVOK 24/17 Q1014=
201208100515 METAR LIRA 100515Z 05002KT CAVOK 22/17 Q1014=
201208100445 METAR LIRA 100445Z 06003KT CAVOK 21/16 Q1014=
201208100415 METAR LIRA 100415Z 00000KT CAVOK 21/16 Q1014=
201208100345 METAR LIRA 100345Z 06001KT CAVOK 21/16 Q1014=
201208100315 METAR LIRA 100315Z 35003KT CAVOK 22/16 Q1014=
201208100245 METAR LIRA 100245Z 00000KT CAVOK 22/16 Q1014=
201208100215 METAR LIRA 100215Z 14002KT CAVOK 22/16 Q1014=
201208100145 METAR LIRA 100145Z 14001KT CAVOK 22/16 Q1014=
201208100115 METAR LIRA 100115Z 07001KT CAVOK 22/15 Q1014=
201208100045 METAR LIRA 100045Z 09001KT CAVOK 22/16 Q1014=
201208100015 METAR LIRA 100015Z 00000KT CAVOK 23/17 Q1014=
201208092350 METAR LIRA 100045Z 09001KT CAVOK 22/16 Q1014=
201208092345 METAR LIRA 092345Z 13001KT CAVOK 23/18 Q1014=
201208092315 METAR LIRA 092315Z 14003KT CAVOK 24/17 Q1014=
201208092245 METAR LIRA 092245Z 17002KT CAVOK 24/17 Q1014=
201208092215 METAR LIRA 092215Z 20001KT CAVOK 25/20 Q1014=
201208092145 METAR LIRA 092145Z 16003KT CAVOK 25/20 Q1015=
201208092115 METAR LIRA 092115Z 18004KT CAVOK 26/20 Q1015=
201208092045 METAR LIRA 092045Z 20004KT 9999 FEW020 26/20 Q1015=
201208092015 METAR LIRA 092015Z 18004KT 9999 FEW030 26/22 Q1015=
201208091945 METAR LIRA 091945Z 18004KT CAVOK 26/22 Q1015=
201208091915 METAR LIRA 091915Z 19004KT 9999 FEW035 27/21 Q1015=
201208091845 METAR LIRA 091845Z 21004KT 9999 FEW035 28/22 Q1014=
201208091815 METAR LIRA 091815Z 22005KT 9999 FEW020 29/21 Q1014=
201208091745 METAR LIRA 091745Z 22005KT 9999 FEW020 30/20 Q1014=
201208091715 METAR LIRA 091715Z 24007KT 180V270 9999 FEW020 31/19 Q1014=
201208091645 METAR LIRA 091645Z 23007KT 180V260 9999 FEW020 31/20 Q1014=
201208091615 METAR LIRA 091615Z 23008KT 190V260 9999 FEW020 32/20 Q1014=
201208091545 METAR LIRA 091545Z 24008KT 220V280 9999 FEW020 31/19 Q1015=
201208091515 METAR LIRA 091515Z 27009KT 230V320 9999 FEW020 32/16 Q1015=
201208091445 METAR LIRA 091445Z 24011KT 210V280 9999 FEW020 32/17 Q1015=
201208091415 METAR LIRA 091415Z 25007KT 230V290 9999 FEW020 33/16 Q1015=
201208091345 METAR LIRA 091345Z 27010KT 230V320 9999 FEW020 34/16 Q1015=
201208091315 METAR LIRA 091315Z 25008KT 220V320 CAVOK 35/16 Q1015=
201208091245 METAR LIRA 091245Z 23009KT 200V270 CAVOK 35/17 Q1015=
201208091215 METAR LIRA 091215Z 26007KT 210V310 CAVOK 35/12 Q1015=
201208091145 METAR LIRA 091145Z 27009G19KT 230V150 CAVOK 35/09 Q1015=
201208091115 METAR LIRA 091115Z 25005KT 220V280 CAVOK 35/13 Q1015=
201208091045 METAR LIRA 091045Z 20003KT CAVOK 35/14 Q1016=
201208091015 METAR LIRA 091015Z 34003KT CAVOK 33/14 Q1016=
201208090945 METAR LIRA 090945Z 29004KT CAVOK 32/14 Q1016=
201208090915 METAR LIRA 090915Z 36004KT CAVOK 32/14 Q1016=
201208090845 METAR LIRA 090845Z 21002KT CAVOK 30/14 Q1016=
201208090815 METAR LIRA 090815Z 04002KT CAVOK 29/15 Q1016=
201208090745 METAR LIRA 090745Z 02003KT CAVOK 27/15 Q1016=
201208090715 METAR LIRA 090715Z 36003KT CAVOK 25/15 Q1016=
201208090645 METAR LIRA 090645Z 01003KT CAVOK 25/15 Q1016=
201208090615 METAR LIRA 090615Z 03003KT CAVOK 23/15 Q1015=
201208090545 METAR LIRA 090545Z 03003KT CAVOK 21/15 Q1015=
201208090515 METAR LIRA 090515Z 03003KT CAVOK 20/15 Q1015=
201208090445 METAR LIRA 090445Z 04001KT CAVOK 20/13 Q1015=
201208090415 METAR LIRA 090415Z 03002KT CAVOK 20/14 Q1015=
201208090345 METAR LIRA 090345Z 09001KT CAVOK 20/15 Q1015=
201208090315 METAR LIRA 090315Z 03003KT CAVOK 21/15 Q1015=
201208090245 METAR LIRA 090245Z 09001KT CAVOK 21/15 Q1015=
201208090215 METAR LIRA 090215Z 09001KT CAVOK 21/15 Q1015=
201208090145 METAR LIRA 090145Z 08001KT CAVOK 22/15 Q1015=
201208090115 METAR LIRA 090115Z 09002KT CAVOK 22/15 Q1015=
201208090045 METAR LIRA 090045Z 16002KT CAVOK 23/17 Q1015=
201208090015 METAR LIRA 090015Z 17002KT CAVOK 22/18 Q1016=
201208082350 METAR LIRA 090045Z 16002KT CAVOK 23/17 Q1015=
201208082345 METAR LIRA 082345Z 17002KT CAVOK 22/17 Q1016=
201208082315 METAR LIRA 082315Z 16001KT CAVOK 23/17 Q1016=
201208082245 METAR LIRA 082245Z 22002KT CAVOK 23/17 Q1016=
201208082215 METAR LIRA 082215Z 00000KT CAVOK 24/17 Q1016=
201208082145 METAR LIRA 082145Z 19004KT CAVOK 25/18 Q1016=
201208082115 METAR LIRA 082115Z 18003KT CAVOK 26/18 Q1016=
201208082045 METAR LIRA 082045Z 18003KT CAVOK 26/18 Q1016=
201208082015 METAR LIRA 082015Z 18003KT CAVOK 26/19 Q1016=
201208081945 METAR LIRA 081945Z 17003KT CAVOK 26/18 Q1016=
201208081915 METAR LIRA 081915Z 18003KT CAVOK 26/18 Q1016=
201208081845 METAR LIRA 081845Z 22004KT CAVOK 27/18 Q1016=
201208081815 METAR LIRA 081815Z 24007KT 220V290 CAVOK 27/16 Q1016=
201208081745 METAR LIRA 081745Z 24010KT 210V310 CAVOK 28/15 Q1016=
201208081715 METAR LIRA 081715Z 25008KT 220V290 CAVOK 29/14 Q1015=
201208081645 METAR LIRA 081645Z 25008KT 220V290 CAVOK 31/13 Q1015=
201208081615 METAR LIRA 081615Z 26009KT 220V290 CAVOK 32/12 Q1015=
201208081545 METAR LIRA 081545Z 26008KT 220V310 CAVOK 33/11 Q1015=
201208081515 METAR LIRA 081515Z 24009KT 200V280 CAVOK 33/10 Q1015=
201208081445 METAR LIRA 081445Z 24009KT 190V270 CAVOK 34/10 Q1015=
201208081415 METAR LIRA 081415Z 26007KT 220V320 CAVOK 34/09 Q1015=
201208081345 METAR LIRA 081345Z 28010KT 250V310 CAVOK 34/08 Q1016=
201208081315 METAR LIRA 081315Z 26009KT 230V300 CAVOK 35/07 Q1016=
201208081245 METAR LIRA 081245Z 26007KT 180V340 CAVOK 35/07 Q1016=
201208081215 METAR LIRA 081215Z 26006KT 220V340 CAVOK 35/07 Q1017=
201208081145 METAR LIRA 081145Z 34005KT 200V360 CAVOK 35/09 Q1017=
201208081115 METAR LIRA 081115Z 27004KT CAVOK 34/09 Q1017=
201208081045 METAR LIRA 081045Z 35004KT CAVOK 34/10 Q1017=
201208081015 METAR LIRA 081015Z 33003KT CAVOK 33/10 Q1017=
201208080945 METAR LIRA 080945Z 32005KT 300V080 CAVOK 32/09 Q1017=
201208080915 METAR LIRA 080915Z 33005KT CAVOK 32/11 Q1017=
201208080845 METAR LIRA 080845Z 34005KT CAVOK 30/11 Q1017=
201208080815 METAR LIRA 080815Z 34006KT 310V010 CAVOK 29/11 Q1017=
201208080745 METAR LIRA 080745Z 01004KT CAVOK 28/12 Q1017=
201208080715 METAR LIRA 080715Z 04005KT 360V060 CAVOK 27/11 Q1017=
201208080645 METAR LIRA 080645Z 02005KT 350V060 CAVOK 26/12 Q1017=
201208080615 METAR LIRA 080615Z 02006KT CAVOK 25/12 Q1017=
201208080545 METAR LIRA 080545Z 02004KT CAVOK 24/14 Q1016=
201208080515 METAR LIRA 080515Z 04003KT CAVOK 23/15 Q1016=
201208080445 METAR LIRA 080445Z 03003KT CAVOK 20/16 Q1016=
201208080415 METAR LIRA 080415Z 04003KT CAVOK 20/16 Q1016=
201208080345 METAR LIRA 080345Z 06003KT CAVOK 20/15 Q1016=
201208080315 METAR LIRA 080315Z 03002KT CAVOK 20/15 Q1016=
201208080245 METAR LIRA 080245Z 06003KT CAVOK 21/16 Q1016=
201208080215 METAR LIRA 080215Z 14001KT CAVOK 21/20 Q1016=
201208080145 METAR LIRA 080145Z 16002KT CAVOK 22/20 Q1016=
201208080115 METAR LIRA 080115Z 16003KT CAVOK 22/20 Q1016=
201208080045 METAR LIRA 080045Z 17003KT CAVOK 23/21 Q1017=
201208080015 METAR LIRA 080015Z 16003KT CAVOK 23/21 Q1017=
201208072350 METAR LIRA 080045Z 17003KT CAVOK 23/21 Q1017=
201208072345 METAR LIRA 072345Z 18003KT CAVOK 25/21 Q1017=
201208072315 METAR LIRA 072315Z 18003KT CAVOK 25/20 Q1017=
201208072245 METAR LIRA 072245Z 17004KT CAVOK 25/19 Q1017=
201208072215 METAR LIRA 072215Z 18005KT CAVOK 26/19 Q1017=
201208072145 METAR LIRA 072145Z 20005KT CAVOK 26/20 Q1017=
201208072115 METAR LIRA 072115Z 17004KT CAVOK 26/20 Q1017=
201208072045 METAR LIRA 072045Z 20003KT CAVOK 27/20 Q1017=
201208072015 METAR LIRA 072015Z 19003KT CAVOK 28/20 Q1017=
201208071945 METAR LIRA 071945Z 16003KT CAVOK 28/18 Q1017=
201208071915 METAR LIRA 071915Z 18004KT CAVOK 29/18 Q1016=
201208071845 METAR LIRA 071845Z 18004KT CAVOK 29/17 Q1016=
201208071815 METAR LIRA 071815Z 21003KT CAVOK 30/16 Q1016=
201208071745 METAR LIRA 071745Z 21004KT CAVOK 31/15 Q1016=
201208071715 METAR LIRA 071715Z 24007KT 220V280 CAVOK 31/15 Q1016=
201208071645 METAR LIRA 071645Z 27009KT CAVOK 33/17 Q1016=
201208071615 METAR LIRA 071615Z 26009KT 230V310 CAVOK 33/17 Q1016=
201208071545 METAR LIRA 071545Z 25009KT 210V300 CAVOK 35/17 Q1016=
201208071515 METAR LIRA 071515Z 26008KT 220V290 CAVOK 35/17 Q1016=
201208071445 METAR LIRA 071445Z 25007KT 200V300 CAVOK 36/16 Q1016=
201208071415 METAR LIRA 071415Z 27008KT 230V330 9999 FEW070 37/14 Q1016=
201208071345 METAR LIRA 071345Z 27009KT 190V290 9999 FEW070 37/13 Q1016=
201208071315 METAR LIRA 071315Z 28010KT 230V330 9999 FEW070 37/12 Q1016=
201208071245 METAR LIRA 071245Z 27008KT 230V310 9999 FEW070 38/13 Q1016=
201208071215 METAR LIRA 071215Z 31004KT 210V310 9999 FEW080 39/13 Q1016=
201208071145 METAR LIRA 071145Z 28005KT 240V350 9999 FEW080 38/13 Q1016=
201208071115 METAR LIRA 071115Z 06004KT CAVOK 37/12 Q1017=
201208071045 METAR LIRA 071045Z 35003KT 310V010 CAVOK 37/12 Q1017=
201208071015 METAR LIRA 071015Z 01004KT 330V050 CAVOK 37/14 Q1017=
201208070945 METAR LIRA 070945Z 02004KT CAVOK 36/16 Q1017=
201208070915 METAR LIRA 070915Z 03004KT CAVOK 34/17 Q1017=
201208070845 METAR LIRA 070845Z 02004KT CAVOK 33/17 Q1017=
201208070815 METAR LIRA 070815Z 02005KT CAVOK 31/17 Q1017=
201208070745 METAR LIRA 070745Z 02004KT CAVOK 30/18 Q1017=
201208070715 METAR LIRA 070715Z 02005KT 330V050 CAVOK 29/17 Q1017=
201208070645 METAR LIRA 070645Z 02005KT CAVOK 27/17 Q1017=
201208070615 METAR LIRA 070615Z 01004KT 330V060 CAVOK 27/18 Q1017=
201208070545 METAR LIRA 070545Z 03004KT CAVOK 25/18 Q1017=
201208070515 METAR LIRA 070515Z 02004KT CAVOK 24/20 Q1017=
201208070445 METAR LIRA 070445Z 03004KT CAVOK 24/21 Q1017=
201208070415 METAR LIRA 070415Z 04004KT CAVOK 24/21 Q1017=
201208070345 METAR LIRA 070345Z 03003KT CAVOK 24/21 Q1016=
201208070315 METAR LIRA 070315Z 04001KT CAVOK 24/22 Q1016=
201208070245 METAR LIRA 070245Z 31002KT CAVOK 25/22 Q1016=
201208070215 METAR LIRA 070215Z 11003KT CAVOK 25/21 Q1016=
201208070145 METAR LIRA 070145Z 10003KT CAVOK 25/23 Q1016=
201208070115 METAR LIRA 070115Z 09004KT CAVOK 25/23 Q1017=
201208070045 METAR LIRA 070045Z 13006KT CAVOK 25/24 Q1017=
201208070015 METAR LIRA 070015Z 23002KT CAVOK 25/22 Q1017=
201208062350 METAR LIRA 070045Z 13006KT CAVOK 25/24 Q1017=
201208062345 METAR LIRA 062345Z 24004KT CAVOK 26/21 Q1016=
201208062315 METAR LIRA 062315Z 16006KT CAVOK 26/20 Q1016=
201208062245 METAR LIRA 062245Z 19004KT CAVOK 27/20 Q1016=
201208062215 METAR LIRA 062215Z 19005KT CAVOK 27/18 Q1016=
201208062145 METAR LIRA 062145Z 22004KT CAVOK 27/17 Q1016=
201208062115 METAR LIRA 062115Z 21004KT CAVOK 28/17 Q1015=
201208062045 METAR LIRA 062045Z 33001KT CAVOK 29/17 Q1015=
201208062015 METAR LIRA 062015Z 03002KT CAVOK 30/17 Q1015=
201208061945 METAR LIRA 061945Z 06003KT CAVOK 30/17 Q1015=
201208061915 METAR LIRA 061915Z 10003KT CAVOK 30/16 Q1015=
201208061845 METAR LIRA 061845Z 32002KT CAVOK 30/15 Q1015=
201208061815 METAR LIRA 061815Z 33003KT CAVOK 31/16 Q1015=
201208061745 METAR LIRA 061745Z 33004KT CAVOK 32/16 Q1015=
201208061715 METAR LIRA 061715Z 11004KT CAVOK 32/16 Q1015=
201208061645 METAR LIRA 061645Z 27003KT CAVOK 33/16 Q1016=
201208061615 METAR LIRA 061615Z 25004KT CAVOK 33/15 Q1016=
201208061545 METAR LIRA 061545Z 29006KT 250V310 CAVOK 33/15 Q1016=
201208061515 METAR LIRA 061515Z 27008KT 220V310 9999 FEW080 34/15 Q1016=
201208061445 METAR LIRA 061445Z 24008KT 190V310 9999 FEW070 35/14 Q1016=
201208061415 METAR LIRA 061415Z 23010KT 9999 FEW070 36/15 Q1015=
201208061345 METAR LIRA 061345Z 20008KT 170V240 CAVOK 36/14 Q1015=
201208061315 METAR LIRA 061315Z 18010KT 130V220 CAVOK 36/14 Q1015=
201208061245 METAR LIRA 061245Z 18008KT 120V220 CAVOK 36/16 Q1015=
201208061215 METAR LIRA 061215Z 19009KT 130V280 CAVOK 36/16 Q1015=
201208061145 METAR LIRA 061145Z 17008KT 130V200 CAVOK 35/16 Q1015=
201208061115 METAR LIRA 061115Z 17008G19KT 130V240 CAVOK 35/16 Q1015=
201208061045 METAR LIRA 061045Z 18007KT 150V210 CAVOK 34/16 Q1016=
201208061015 METAR LIRA 061015Z 21006KT 170V230 CAVOK 34/17 Q1016=
201208060945 METAR LIRA 060945Z 16007KT 9999 SCT080 33/16 Q1015=
201208060915 METAR LIRA 060915Z 18009G20KT 140V200 9999 SCT080 33/16 Q1015=
201208060845 METAR LIRA 060845Z 18009KT 140V220 9999 SCT070 33/16 Q1015=
201208060815 METAR LIRA 060815Z 18009KT 160V220 9999 SCT070 32/16 Q1015=
201208060745 METAR LIRA 060745Z 20006KT 140V250 9999 SCT070 32/16 Q1015=
201208060715 METAR LIRA 060715Z 32002KT CAVOK 30/19 Q1015=
201208060645 METAR LIRA 060645Z 32004KT 9999 SCT080 29/20 Q1015=
201208060615 METAR LIRA 060615Z 05003KT 9999 SCT070 28/20 Q1014=
201208060545 METAR LIRA 060545Z 02002KT 9999 SCT070 26/20 Q1014=
201208060515 METAR LIRA 060515Z 09005KT 9999 SCT070 25/19 Q1014=
201208060445 METAR LIRA 060445Z 09005KT 9999 SCT070 24/19 Q1014=
201208060415 METAR LIRA 060415Z 09002KT CAVOK 23/20 Q1014=
201208060345 METAR LIRA 060345Z 06002KT CAVOK 23/20 Q1014=
201208060315 METAR LIRA 060315Z 06002KT CAVOK 23/20 Q1014=
201208060245 METAR LIRA 060245Z 05002KT CAVOK 23/21 Q1014=
201208060215 METAR LIRA 060215Z 09004KT 9999 FEW080 23/21 Q1014=
201208060145 METAR LIRA 060145Z 09004KT 9999 FEW080 23/21 Q1014=
201208060115 METAR LIRA 060115Z 09001KT 9999 FEW070 24/21 Q1014=
201208060045 METAR LIRA 060045Z 08004KT CAVOK 23/20 Q1014=
201208060015 METAR LIRA 060015Z 07003KT CAVOK 23/19 Q1013=
201208052350 METAR LIRA 060045Z 08004KT CAVOK 23/20 Q1014=
201208052345 METAR LIRA 052345Z 16004KT CAVOK 25/20 Q1013=
201208052315 METAR LIRA 052315Z 17006KT CAVOK 26/21 Q1013=
201208052245 METAR LIRA 052245Z 14006KT CAVOK 25/20 Q1013=
201208052215 METAR LIRA 052215Z 16004KT CAVOK 26/20 Q1013=
201208052145 METAR LIRA 052145Z 19004KT CAVOK 27/20 Q1013=
201208052115 METAR LIRA 052115Z 18003KT CAVOK 27/20 Q1013=
201208052045 METAR LIRA 052045Z 19004KT CAVOK 27/20 Q1012=
201208052015 METAR LIRA 052015Z 20008KT 180V240 CAVOK 27/23 Q1012=
201208051945 METAR LIRA 051945Z 18008KT CAVOK 27/23 Q1012=
201208051915 METAR LIRA 051915Z 20011KT CAVOK 27/23 Q1012=
201208051845 METAR LIRA 051845Z 20012KT CAVOK 28/23 Q1012=
201208051815 METAR LIRA 051815Z 20009KT CAVOK 29/22 Q1012=
201208051745 METAR LIRA 051745Z 19009KT CAVOK 29/21 Q1012=
201208051715 METAR LIRA 051715Z 18012KT CAVOK 30/21 Q1012=
201208051645 METAR LIRA 051645Z 18011KT 150V210 CAVOK 31/20 Q1012=
201208051615 METAR LIRA 051615Z 17013KT 150V220 CAVOK 32/21 Q1012=
201208051545 METAR LIRA 051545Z 17015KT CAVOK 32/21 Q1012=
201208051515 METAR LIRA 051515Z 19014KT CAVOK 32/22 Q1012=
201208051445 METAR LIRA 051445Z 18015G26KT 130V220 CAVOK 32/23 Q1012=
201208051415 METAR LIRA 051415Z 18016KT CAVOK 32/23 Q1012=
201208051345 METAR LIRA 051345Z 16018KT 120V200 CAVOK 33/20 Q1012=
201208051315 METAR LIRA 051315Z 17016G26KT CAVOK 34/17 Q1012=
201208051245 METAR LIRA 051245Z 16017KT CAVOK 33/17 Q1012=
201208051215 METAR LIRA 051215Z 18015KT 160V230 CAVOK 33/19 Q1012=
201208051145 METAR LIRA 051145Z 17016KT CAVOK 33/20 Q1012=
201208051115 METAR LIRA 051115Z 18018KT CAVOK 33/18 Q1012=
201208051045 METAR LIRA 051045Z 16018KT CAVOK 33/16 Q1012=
201208051015 METAR LIRA 051015Z 17017G31KT CAVOK 33/15 Q1012=
201208050945 METAR LIRA 050945Z 15016KT CAVOK 33/15 Q1012=
201208050915 METAR LIRA 050915Z 16016KT CAVOK 32/14 Q1012=
201208050845 METAR LIRA 050845Z 16015KT CAVOK 33/15 Q1012=
201208050815 METAR LIRA 050815Z 16014KT 110V190 CAVOK 32/13 Q1012=
201208050745 METAR LIRA 050745Z 17010KT 140V200 CAVOK 31/13 Q1011=
201208050715 METAR LIRA 050715Z 15008KT 110V210 CAVOK 31/14 Q1011=
201208050645 METAR LIRA 050645Z 16007KT 120V220 CAVOK 30/14 Q1011=
201208050615 METAR LIRA 050615Z 36001KT CAVOK 26/19 Q1011=
201208050545 METAR LIRA 050545Z 33002KT CAVOK 24/19 Q1011=
201208050515 METAR LIRA 050515Z 31001KT CAVOK 23/18 Q1011=
201208050445 METAR LIRA 050445Z 34001KT CAVOK 23/19 Q1011=
201208050415 METAR LIRA 050415Z 07003KT CAVOK 23/18 Q1011=
201208050345 METAR LIRA 050345Z 08004KT CAVOK 22/19 Q1011=
201208050315 METAR LIRA 050315Z 06004KT CAVOK 22/19 Q1012=
201208050245 METAR LIRA 050245Z 07004KT CAVOK 22/19 Q1012=
201208050215 METAR LIRA 050215Z 06003KT CAVOK 23/19 Q1012=
201208050145 METAR LIRA 050145Z 08001KT CAVOK 22/17 Q1012=
201208050115 METAR LIRA 050115Z 10003KT CAVOK 22/17 Q1012=
201208050045 METAR LIRA 050045Z 07002KT CAVOK 22/17 Q1012=
201208050015 METAR LIRA 050015Z 00000KT CAVOK 22/17 Q1012=
201208042350 METAR LIRA 050045Z 07002KT CAVOK 22/17 Q1012=
201208042345 METAR LIRA 042345Z 00000KT CAVOK 23/18 Q1012=
201208042315 METAR LIRA 042315Z 10001KT CAVOK 23/19 Q1012=
201208042245 METAR LIRA 042245Z 01001KT CAVOK 24/19 Q1012=
201208042215 METAR COR LIRA 042215Z 23000KT CAVOK 25/19 Q1012=
201208042145 METAR LIRA 042145Z 05002KT CAVOK 26/19 Q1012=
201208042115 METAR LIRA 042115Z 06005KT CAVOK 26/19 Q1012=
201208042045 METAR LIRA 042045Z 12004KT CAVOK 27/17 Q1012=
201208042015 METAR LIRA 042015Z 18005KT CAVOK 27/18 Q1012=
201208041945 METAR LIRA 041945Z 21004KT CAVOK 27/19 Q1012=
201208041915 METAR LIRA 041915Z 00000KT CAVOK 27/21 Q1012=
201208041845 METAR LIRA 041845Z 20007KT CAVOK 28/22 Q1012=
201208041815 METAR LIRA 041815Z 20008KT CAVOK 29/22 Q1012=
201208041745 METAR LIRA 041745Z 19011KT 160V220 CAVOK 31/14 Q1012=
201208041715 METAR LIRA 041715Z 19011KT CAVOK 32/12 Q1012=
201208041645 METAR LIRA 041645Z 18012KT CAVOK 32/13 Q1012=
201208041615 METAR LIRA 041615Z 17011KT CAVOK 32/12 Q1012=
201208041545 METAR LIRA 041545Z 17012KT 150V210 CAVOK 33/13 Q1012=
201208041515 METAR LIRA 041515Z 19010KT CAVOK 33/14 Q1012=
201208041445 METAR LIRA 041445Z 20012KT CAVOK 33/13 Q1012=
201208041415 METAR LIRA 041415Z 19011KT 150V220 CAVOK 33/15 Q1012=
201208041345 METAR LIRA 041345Z 20012KT 170V230 CAVOK 33/16 Q1012=
201208041315 METAR LIRA 041315Z 20012KT 170V250 CAVOK 33/16 Q1012=
201208041245 METAR LIRA 041245Z 20012KT 170V250 CAVOK 34/15 Q1012=
201208041215 METAR LIRA 041215Z 16012KT CAVOK 35/14 Q1013=
201208041145 METAR LIRA 041145Z 20008KT 140V230 CAVOK 35/15 Q1013=
201208041115 METAR LIRA 041115Z 18009G19KT 140V230 CAVOK 35/15 Q1013=
201208041045 METAR LIRA 041045Z 18008G19KT 140V230 CAVOK 35/16 Q1013=
201208041015 METAR LIRA 041015Z 18009KT 150V230 CAVOK 34/15 Q1013=
201208040945 METAR LIRA 040945Z 20009KT 140V240 CAVOK 33/14 Q1013=
201208040915 METAR LIRA 040915Z 12003KT CAVOK 32/14 Q1013=
201208040845 METAR LIRA 040845Z 02002KT CAVOK 31/15 Q1013=
201208040815 METAR LIRA 040815Z 27002KT CAVOK 29/15 Q1013=
201208040745 METAR LIRA 040745Z 02003KT CAVOK 27/16 Q1013=
201208040715 METAR LIRA 040715Z 03002KT CAVOK 26/17 Q1013=
201208040645 METAR LIRA 040645Z 34002KT CAVOK 25/17 Q1013=
201208040615 METAR LIRA 040615Z 02002KT CAVOK 24/17 Q1013=
201208040545 METAR LIRA 040545Z 04001KT CAVOK 23/17 Q1013=
201208040515 METAR LIRA 040515Z 06002KT CAVOK 22/16 Q1013=
201208040445 METAR LIRA 040445Z 06003KT CAVOK 20/15 Q1013=
201208040415 METAR LIRA 040415Z 07001KT CAVOK 20/14 Q1013=
201208040345 METAR LIRA 040345Z 23004KT CAVOK 20/13 Q1013=
201208040315 METAR LIRA 040315Z 18002KT CAVOK 20/10 Q1012=
201208040245 METAR LIRA 040245Z 00000KT CAVOK 21/09 Q1012=
201208040215 METAR LIRA 040215Z 12002KT CAVOK 21/10 Q1012=
201208040145 METAR LIRA 040145Z 06002KT CAVOK 21/11 Q1013=
201208040115 METAR LIRA 040115Z 09002KT CAVOK 22/12 Q1013=
201208040045 METAR LIRA 040045Z 10001KT CAVOK 22/14 Q1013=
201208040015 METAR LIRA 040015Z 10002KT CAVOK 22/13 Q1014=
201208032350 METAR LIRA 040045Z 10001KT CAVOK 22/14 Q1013=
201208032345 METAR LIRA 032345Z 09002KT CAVOK 22/14 Q1014=
201208032315 METAR LIRA 032315Z 10003KT CAVOK 22/14 Q1014=
201208032245 METAR LIRA 032245Z 10003KT CAVOK 22/14 Q1014=
201208032215 METAR LIRA 032215Z 10003KT CAVOK 23/14 Q1014=
201208032145 METAR LIRA 032145Z 15002KT CAVOK 23/16 Q1014=
201208032115 METAR LIRA 032115Z 00000KT CAVOK 24/21 Q1014=
201208032045 METAR LIRA 032045Z 00000KT CAVOK 24/21 Q1014=
201208032015 METAR LIRA 032015Z 23004KT CAVOK 24/20 Q1014=
201208031945 METAR LIRA 031945Z 23003KT CAVOK 25/20 Q1014=
201208031915 METAR LIRA 031915Z 24003KT CAVOK 26/20 Q1014=
201208031845 METAR LIRA 031845Z 24002KT CAVOK 28/17 Q1013=
201208031815 METAR LIRA 031815Z 20004KT CAVOK 28/17 Q1013=
201208031745 METAR LIRA 031745Z 20006KT 180V240 CAVOK 29/17 Q1013=
201208031715 METAR LIRA 031715Z 22007KT CAVOK 30/13 Q1013=
201208031645 METAR LIRA 031645Z 21009KT 170V240 CAVOK 31/15 Q1013=
201208031615 METAR LIRA 031615Z 20010KT 180V240 CAVOK 31/14 Q1013=
201208031545 METAR LIRA 031545Z 21011KT 180V230 CAVOK 31/14 Q1014=
201208031515 METAR LIRA 031515Z 22009KT 170V260 CAVOK 32/15 Q1014=
201208031445 METAR LIRA 031445Z 22009KT 160V250 CAVOK 32/15 Q1014=
201208031415 METAR LIRA 031415Z 19010KT 160V220 CAVOK 32/15 Q1014=
201208031345 METAR LIRA 031345Z 20008KT 130V250 CAVOK 33/15 Q1014=
201208031315 METAR LIRA 031315Z 22009KT 180V250 CAVOK 34/16 Q1014=
201208031245 METAR LIRA 031245Z 21009KT 180V260 CAVOK 34/16 Q1014=
201208031215 METAR LIRA 031215Z 20009KT 160V260 CAVOK 34/16 Q1014=
201208031145 METAR LIRA 031145Z 21009KT 170V260 CAVOK 34/16 Q1014=
201208031115 METAR LIRA 031115Z 22008KT 190V270 CAVOK 34/16 Q1014=
201208031045 METAR LIRA 031045Z 22006KT 140V310 CAVOK 34/15 Q1014=
201208031015 METAR LIRA 031015Z 19006KT 160V220 CAVOK 33/14 Q1014=
201208030945 METAR LIRA 030945Z 22003KT CAVOK 33/14 Q1015=
201208030915 METAR LIRA 030915Z 20005KT 170V240 9999 FEW030 32/15 Q1015=
201208030845 METAR LIRA 030845Z 19004KT CAVOK 30/15 Q1014=
201208030815 METAR LIRA 030815Z 21003KT CAVOK 30/17 Q1014=
201208030745 METAR LIRA 030745Z 22004KT CAVOK 28/17 Q1014=
201208030715 METAR LIRA 030715Z 27002KT CAVOK 27/18 Q1014=
201208030645 METAR LIRA 030645Z 35001KT CAVOK 25/18 Q1014=
201208030615 METAR LIRA 030615Z 33002KT CAVOK 24/18 Q1014=
201208030545 METAR LIRA 030545Z 14001KT CAVOK 22/17 Q1014=
201208030515 METAR LIRA 030515Z 26001KT CAVOK 21/17 Q1014=
201208030445 METAR LIRA 030445Z 00000KT CAVOK 20/16 Q1014=
201208030415 METAR LIRA 030415Z 00000KT CAVOK 19/15 Q1014=
201208030345 METAR LIRA 030345Z 13001KT CAVOK 21/15 Q1014=
201208030315 METAR LIRA 030315Z 09002KT CAVOK 21/15 Q1014=
201208030245 METAR LIRA 030245Z 04002KT CAVOK 21/15 Q1014=
201208030215 METAR LIRA 030215Z 09002KT CAVOK 21/14 Q1014=
201208030145 METAR LIRA 030145Z 12003KT CAVOK 21/14 Q1014=
201208030115 METAR LIRA 030115Z 11002KT CAVOK 21/15 Q1014=
201208030045 METAR LIRA 030045Z 10002KT CAVOK 21/15 Q1014=
201208030015 METAR LIRA 030015Z 17002KT CAVOK 22/14 Q1014=
201208022350 METAR LIRA 030045Z 10002KT CAVOK 21/15 Q1014=
201208022345 METAR LIRA 022345Z 17001KT CAVOK 22/14 Q1014=
201208022315 METAR LIRA 022315Z 13002KT CAVOK 22/14 Q1014=
201208022245 METAR LIRA 022245Z 11003KT CAVOK 23/15 Q1014=
201208022215 METAR LIRA 022215Z 16002KT CAVOK 23/16 Q1014=
201208022145 METAR LIRA 022145Z 19001KT CAVOK 23/19 Q1014=
201208022115 METAR LIRA 022115Z 20001KT CAVOK 24/21 Q1014=
201208022045 METAR LIRA 022045Z 20001KT CAVOK 25/21 Q1014=
201208022015 METAR LIRA 022015Z 20001KT CAVOK 25/22 Q1014=
201208021945 METAR LIRA 021945Z 23002KT CAVOK 26/22 Q1014=
201208021915 METAR LIRA 021915Z 23003KT CAVOK 26/21 Q1014=
201208021845 METAR LIRA 021845Z 23003KT CAVOK 27/20 Q1014=
201208021815 METAR LIRA 021815Z 23004KT CAVOK 29/20 Q1014=
201208021745 METAR LIRA 021745Z 21005KT 180V250 CAVOK 30/19 Q1014=
201208021715 METAR LIRA 021715Z 23007KT 180V250 CAVOK 30/18 Q1013=
201208021645 METAR LIRA 021645Z 23006KT 190V270 CAVOK 31/18 Q1013=
201208021615 METAR LIRA 021615Z 23007KT CAVOK 31/17 Q1013=
201208021545 METAR LIRA 021545Z 23008KT 180V260 9999 FEW030TCU 32/17 Q1014=
201208021515 METAR LIRA 021515Z 22008KT 190V270 CAVOK 32/17 Q1014=
201208021445 METAR LIRA 021445Z 22009KT 210V290 CAVOK 32/17 Q1014=
201208021415 METAR LIRA 021415Z 26007KT 190V280 CAVOK 33/18 Q1014=
201208021345 METAR LIRA 021345Z 24008KT 190V280 CAVOK 33/16 Q1014=
201208021315 METAR LIRA 021315Z 24007KT 200V280 9999 FEW030 33/17 Q1014=
201208021245 METAR LIRA 021245Z 21008KT 160V260 9999 FEW030 33/16 Q1014=
201208021215 METAR LIRA 021215Z 24008KT 180V310 9999 FEW030 34/15 Q1014=
201208021145 METAR LIRA 021145Z 22008KT 140V250 9999 FEW030 33/15 Q1014=
201208021115 METAR LIRA 021115Z 20006KT 160V290 9999 FEW030 34/15 Q1014=
201208021045 METAR LIRA 021045Z 23008KT 160V250 9999 FEW030 34/17 Q1014=
201208021015 METAR LIRA 021015Z 23008G18KT 180V280 CAVOK 34/16 Q1014=
201208020945 METAR LIRA 020945Z 20004KT 160V240 CAVOK 33/16 Q1014=
201208020915 METAR LIRA 020915Z 20008KT 130V230 CAVOK 32/16 Q1014=
201208020845 METAR LIRA 020845Z 18007KT 150V230 CAVOK 32/17 Q1013=
201208020815 METAR LIRA 020815Z 18004KT 170V240 CAVOK 31/17 Q1013=
201208020745 METAR LIRA 020745Z 21007KT 180V240 CAVOK 29/18 Q1013=
201208020715 METAR LIRA 020715Z 25003KT CAVOK 28/19 Q1013=
201208020645 METAR LIRA 020645Z 28001KT CAVOK 26/20 Q1013=
201208020615 METAR LIRA 020615Z 06001KT CAVOK 26/20 Q1013=
201208020545 METAR LIRA 020545Z 04001KT CAVOK 24/19 Q1013=
201208020515 METAR LIRA 020515Z 33001KT CAVOK 22/17 Q1013=
201208020445 METAR LIRA 020445Z 08002KT CAVOK 22/17 Q1013=
201208020415 METAR LIRA 020415Z 09003KT CAVOK 22/20 Q1013=
201208020345 METAR LIRA 020345Z 12002KT CAVOK 22/20 Q1013=
201208020315 METAR LIRA 020315Z 14003KT CAVOK 22/20 Q1013=
201208020245 METAR LIRA 020245Z 17002KT CAVOK 22/19 Q1013=
201208020215 METAR LIRA 020215Z 16002KT CAVOK 23/18 Q1013=
201208020145 METAR LIRA 020145Z 16002KT CAVOK 23/17 Q1013=
201208020115 METAR LIRA 020115Z 15003KT CAVOK 23/18 Q1013=
201208020045 METAR LIRA 020045Z 15001KT CAVOK 23/20 Q1013=
201208020015 METAR LIRA 020015Z 13002KT CAVOK 23/19 Q1013=
201208012350 METAR LIRA 020045Z 15001KT CAVOK 23/20 Q1013=
201208012345 METAR LIRA 012345Z 14002KT CAVOK 24/20 Q1013=
201208012315 METAR LIRA 012315Z 17002KT CAVOK 24/21 Q1013=
201208012245 METAR LIRA 012245Z 19003KT CAVOK 24/20 Q1013=
201208012215 METAR LIRA 012215Z 21003KT CAVOK 24/20 Q1013=
201208012145 METAR LIRA 012145Z 21002KT CAVOK 24/20 Q1013=
201208012115 METAR LIRA 012115Z 24002KT CAVOK 25/20 Q1013=
201208012045 METAR LIRA 012045Z 15004KT CAVOK 27/20 Q1013=
201208012015 METAR LIRA 012015Z 18004KT CAVOK 27/19 Q1012=
201208011945 METAR LIRA 011945Z 19004KT CAVOK 27/18 Q1012=
201208011915 METAR LIRA 011915Z 18004KT 9999 FEW018 27/17 Q1012=
201208011845 METAR LIRA 011845Z 20005KT 9999 FEW018 28/17 Q1012=
201208011815 METAR LIRA 011815Z 20003KT 9999 FEW018 29/17 Q1012=
201208011745 METAR LIRA 011745Z 21003KT 9999 FEW018 30/18 Q1012=
201208011715 METAR LIRA 011715Z 24007KT 9999 FEW018 31/18 Q1012=
201208011645 METAR LIRA 011645Z 22005KT 180V270 9999 FEW018 31/18 Q1012=
201208011615 METAR LIRA 011615Z 23007KT 200V270 9999 FEW018TCU 32/17 Q1012=
201208011545 METAR LIRA 011545Z 20007KT 160V240 CAVOK 32/17 Q1012=
201208011515 METAR LIRA 011515Z 21008KT 160V230 CAVOK 32/17 Q1012=
201208011445 METAR LIRA 011445Z 22009KT CAVOK 33/17 Q1012=
201208011415 METAR LIRA 011415Z 20008KT 170V240 CAVOK 33/17 Q1012=
201208011345 METAR LIRA 011345Z 21008KT 180V250 CAVOK 34/17 Q1012=
201208011315 METAR LIRA 011315Z 22009KT 180V260 CAVOK 34/17 Q1012=
201208011245 METAR LIRA 011245Z 23008KT 190V260 9999 FEW025 34/18 Q1012=
201208011215 METAR LIRA 011215Z 23010KT 210V270 9999 FEW025 34/18 Q1013=
201208011145 METAR LIRA 011145Z 22007KT 180V250 9999 FEW025 34/18 Q1013=
201208011115 METAR LIRA 011115Z 24007G17KT 190V270 9999 FEW020 34/19 Q1013=
201208011045 METAR LIRA 011045Z 20007KT 130V250 9999 FEW020 34/18 Q1013=
201208011015 METAR LIRA 011015Z 22007KT 180V260 CAVOK 34/18 Q1013=
201208010945 METAR LIRA 010945Z 23004KT CAVOK 33/18 Q1013=
201208010915 METAR LIRA 010915Z 23003KT CAVOK 32/19 Q1013=
201208010845 METAR LIRA 010845Z 25002KT CAVOK 31/18 Q1013=
201208010815 METAR LIRA 010815Z 02003KT CAVOK 30/19 Q1013=
201208010745 METAR LIRA 010745Z 03004KT CAVOK 29/19 Q1013=
201208010715 METAR LIRA 010715Z 05004KT CAVOK 28/19 Q1013=
201208010645 METAR LIRA 010645Z 03005KT CAVOK 26/19 Q1013=
201208010615 METAR LIRA 010615Z 01003KT CAVOK 25/18 Q1013=
201208010545 METAR LIRA 010545Z 04003KT CAVOK 25/19 Q1013=
201208010515 METAR LIRA 010515Z 04004KT CAVOK 24/19 Q1013=
201208010445 METAR LIRA 010445Z 07003KT CAVOK 22/18 Q1012=
201208010415 METAR LIRA 010415Z 08001KT CAVOK 22/18 Q1012=
201208010345 METAR LIRA 010345Z 18001KT CAVOK 21/17 Q1012=
201208010315 METAR LIRA 010315Z 25002KT CAVOK 22/18 Q1012=
201208010245 METAR LIRA 010245Z 06003KT CAVOK 22/18 Q1012=
201208010215 METAR LIRA 010215Z 03003KT CAVOK 23/18 Q1012=
201208010145 METAR LIRA 010145Z 04003KT CAVOK 22/18 Q1012=
201208010115 METAR LIRA 010115Z 04003KT CAVOK 23/18 Q1012=
201208010045 METAR LIRA 010045Z 01002KT CAVOK 23/19 Q1012=
201208010015 METAR LIRA 010015Z 01002KT CAVOK 23/19 Q1012=

</pre>

</body>
</html>
