##########################################################
# Query made at 11/10/2014 15:56:48 UTC
# Time interval: from 12/01/2010 00:00  to 12/31/2010 23:59  UTC
##########################################################

##########################################################
# LIRA, Roma / Ciampino (Italy)
# WMO index: 16239
# Latitude 41-47N. Longitude 012-35E. Altitude 129 m.
##########################################################

###################################
#  METAR/SPECI from LIRA
###################################
201012312350 METAR LIRA 010045Z 02002KT 4000 BR FU SCT035 BKN070 07/05
                        Q1019=
201012312345 METAR LIRA 312345Z 03002KT 4000 BR FU SCT035 BKN070 06/05
                        Q1019=
201012312315 METAR LIRA 312315Z 05002KT 5000 BR FU SCT035 BKN070 07/05
                        Q1020=
201012312245 METAR LIRA 312245Z 03002KT 6000 SCT035 BKN070 07/04 Q1020=
201012312215 METAR LIRA 312215Z 03002KT 6000 SCT035 BKN070 07/04 Q1020=
201012312145 METAR LIRA 312145Z 04003KT 6000 FEW023 SCT035 BKN070 07/04
                        Q1020=
201012312115 METAR LIRA 312115Z 04003KT 7000 -RA FEW023 SCT035 BKN070
                        07/04 Q1020=
201012312045 METAR LIRA 312045Z 04003KT 7000 -RA FEW023 SCT035 07/04 Q1019=
201012312015 METAR LIRA 312015Z 03003KT 7000 -RA FEW023 BKN035 07/04 Q1020=
201012311945 METAR LIRA 311945Z 02003KT 7000 -RA FEW023 BKN035 07/04 Q1019=
201012311915 METAR LIRA 311915Z 01003KT 8000 FEW025 SCT035 07/03 Q1019=
201012311845 METAR LIRA 311845Z 03003KT 8000 FEW025 SCT035 07/03 Q1019=
201012311815 METAR LIRA 311815Z 04004KT 8000 FEW025 SCT035 07/03 Q1019=
201012311745 METAR LIRA 311745Z 04003KT 8000 FEW025 SCT030 07/03 Q1019=
201012311715 METAR LIRA 311715Z 03004KT 8000 SCT030 SCT070 07/03 Q1019=
201012311645 METAR LIRA 311645Z 04005KT 360V080 7000 SCT030 SCT080 07/03
                        Q1019=
201012311615 METAR LIRA 311615Z 04005KT 010V070 7000 SCT030 SCT080 07/03
                        Q1019=
201012311545 METAR LIRA 311545Z 03005KT 350V060 7000 BKN030 08/03 Q1019=
201012311515 METAR LIRA 311515Z 02005KT 320V060 7000 SCT030 BKN080 08/03
                        Q1020=
201012311445 METAR LIRA 311445Z 01004KT 7000 FEW025 SCT030 BKN070 08/03
                        Q1020=
201012311415 METAR LIRA 311415Z 01003KT 7000 FEW022 SCT030 BKN080 08/03
                        Q1020=
201012311345 METAR LIRA 311345Z 02003KT 7000 FEW025 SCT030 BKN080 08/03
                        Q1020=
201012311315 METAR LIRA 311315Z 36004KT 7000 FEW022 SCT030 BKN080 08/03
                        Q1019=
201012311245 METAR LIRA 311245Z 02003KT 7000 FEW022 SCT030 BKN080 07/03
                        Q1020=
201012311215 METAR LIRA 311215Z 02005KT 7000 FEW025 SCT030 BKN080 07/03
                        Q1020=
201012311145 METAR LIRA 311145Z 04004KT 7000 SCT030 BKN080 07/03 Q1021=
201012311115 METAR LIRA 311115Z 03003KT 7000 SCT030 BKN080 07/03 Q1021=
201012311045 METAR LIRA 311045Z 04004KT 7000 SCT030 BKN080 06/03 Q1021=
201012311015 METAR LIRA 311015Z 01002KT 8000 SCT030 BKN080 06/03 Q1021=
201012310945 METAR LIRA 310945Z 01002KT 8000 SCT030 BKN080 06/03 Q1021=
201012310915 METAR LIRA 310915Z 03004KT 330V060 8000 SCT030 BKN080 05/03
                        Q1021=
201012310845 METAR LIRA 310845Z 03006KT 350V060 8000 SCT030 BKN080 05/03
                        Q1021=
201012310815 METAR LIRA 310815Z 36003KT 8000 SCT030 BKN080 05/02 Q1021=
201012310745 METAR LIRA 310745Z 34001KT 8000 SCT030 BKN080 05/02 Q1021=
201012310715 METAR LIRA 310715Z 35002KT 8000 SCT025 BKN070 05/02 Q1021=
201012310645 METAR LIRA 310645Z 03001KT 8000 SCT025 BKN070 05/02 Q1021=
201012310615 METAR LIRA 310615Z 03003KT 8000 FEW025 BKN080 05/02 Q1021=
201012310545 METAR LIRA 310545Z 03002KT 7000 -DZ FEW025 BKN080 05/02 Q1020=
201012310515 METAR LIRA 310515Z 33002KT 7000 FEW025 BKN080 05/02 Q1021=
201012310445 METAR LIRA 310445Z 35002KT 7000 FEW025 BKN080 05/02 Q1021=
201012310415 METAR LIRA 310415Z 03002KT 7000 FEW025 BKN080 05/02 Q1021=
201012310345 METAR LIRA 310345Z 02003KT 7000 FEW025 BKN080 05/02 Q1021=
201012310315 METAR LIRA 310315Z 36002KT 7000 FEW025 BKN080 05/02 Q1021=
201012310245 METAR LIRA 310245Z 35002KT 7000 FEW025 BKN070 05/02 Q1021=
201012310215 METAR LIRA 310215Z 00000KT 7000 FEW025 SCT070 04/02 Q1021=
201012310145 METAR LIRA 310145Z 03002KT 6000 FEW010 SCT070 04/02 Q1021=
201012310115 METAR LIRA 310115Z 36003KT 7000 FEW010 SCT070 04/02 Q1021=
201012310045 METAR LIRA 310045Z 02002KT 6000 FEW010 SCT070 03/02 Q1021=
201012310015 METAR LIRA 310015Z 03002KT 6000 FEW030 SCT070 03/02 Q1022=
201012302350 METAR LIRA 310045Z 02002KT 6000 FEW010 SCT070 03/02 Q1021=
201012302345 METAR LIRA 302345Z 01003KT 6000 FEW030 SCT070 03/02 Q1022=
201012302315 METAR LIRA 302315Z 03002KT 6000 FEW005 SCT070 03/02 Q1022=
201012302245 METAR LIRA 302245Z 02002KT 6000 FEW005 SCT070 03/02 Q1022=
201012302215 METAR LIRA 302215Z 03003KT 6000 FEW005 03/01 Q1022=
201012302145 METAR LIRA 302145Z 04003KT 7000 FEW030 04/02 Q1022=
201012302115 METAR LIRA 302115Z 00000KT 7000 FEW070 04/02 Q1021=
201012302045 METAR LIRA 302045Z 00000KT 7000 FEW080 04/02 Q1021=
201012302015 METAR LIRA 302015Z 14002KT 7000 FEW005 05/01 Q1021=
201012301945 METAR LIRA 301945Z 09004KT 7000 FEW005 05/00 Q1021=
201012301915 METAR LIRA 301915Z 12003KT 7000 FEW005 05/01 Q1021=
201012301845 METAR LIRA 301845Z 12003KT 6000 FEW005 05/01 Q1021=
201012301815 METAR LIRA 301815Z 10004KT 6000 NSC 05/02 Q1021=
201012301745 METAR LIRA 301745Z 10005KT 7000 NSC 06/02 Q1021=
201012301715 METAR LIRA 301715Z 13002KT 7000 NSC 06/02 Q1021=
201012301645 METAR LIRA 301645Z 10002KT 7000 NSC 07/02 Q1021=
201012301615 METAR LIRA 301615Z 07003KT 8000 NSC 08/02 Q1021=
201012301545 METAR LIRA 301545Z 02001KT CAVOK 09/02 Q1021=
201012301515 METAR LIRA 301515Z 33001KT 9999 FEW080 10/02 Q1021=
201012301445 METAR LIRA 301445Z 01002KT 9999 FEW022 SCT080 11/01 Q1021=
201012301415 METAR LIRA 301415Z 36001KT 9999 FEW022 11/01 Q1021=
201012301345 METAR LIRA 301345Z 34002KT 9999 FEW022 11/00 Q1021=
201012301315 METAR LIRA 301315Z 01002KT 9999 FEW022 11/01 Q1022=
201012301245 METAR LIRA 301245Z 03002KT 9999 FEW022 11/01 Q1022=
201012301215 METAR LIRA 301215Z 03003KT 9999 FEW022 11/01 Q1022=
201012301145 METAR LIRA 301145Z 36002KT 9999 FEW022 10/01 Q1022=
201012301115 METAR LIRA 301115Z 04003KT 9999 FEW022 10/01 Q1023=
201012301045 METAR LIRA 301045Z 01003KT 9999 FEW025 08/01 Q1023=
201012301015 METAR LIRA 301015Z 02004KT 9999 FEW070 07/01 Q1023=
201012300945 METAR LIRA 300945Z 01003KT 9999 FEW070 06/02 Q1023=
201012300915 METAR LIRA 300915Z 34005KT 300V010 9999 FEW080 05/01 Q1023=
201012300845 METAR LIRA 300845Z 01002KT 9999 FEW080 05/00 Q1023=
201012300815 METAR LIRA 300815Z 09002KT 9999 FEW080 05/M01 Q1023=
201012300745 METAR LIRA 300745Z 13003KT 9999 FEW080 03/M01 Q1022=
201012300715 METAR LIRA 300715Z 09002KT 9999 FEW080 00/M02 Q1022=
201012300645 METAR LIRA 300645Z 08002KT 9999 FEW070 00/M01 Q1022=
201012300615 METAR LIRA 300615Z 06002KT 9999 FEW070 00/M01 Q1023=
201012300545 METAR LIRA 300545Z 01002KT 9999 FEW070 M00/M01 Q1022=
201012300515 METAR LIRA 300515Z 04004KT 8000 FEW070 M00/M01 Q1021=
201012300445 METAR LIRA 300445Z 06003KT 7000 NSC M01/M02 Q1021=
201012300415 METAR LIRA 300415Z 06004KT 7000 NSC M01/M02 Q1021=
201012300400 METAR LIRA INTER LOW CLDS OVHD MOVING S=
201012300345 METAR LIRA 300345Z 02002KT 7000 FEW070 M00/M01 Q1021=
201012300315 METAR LIRA 300315Z 36002KT 7000 FEW070 M00/M02 Q1021=
201012300245 METAR LIRA 300245Z 00000KT 7000 FEW070 00/M01 Q1021=
201012300215 METAR LIRA 300215Z 09002KT 7000 FEW070 01/M01 Q1021=
201012300145 METAR LIRA 300145Z 02001KT 7000 FEW070 01/M01 Q1022=
201012300115 METAR LIRA 300115Z 34003KT 7000 FEW070 01/M01 Q1022=
201012300045 METAR LIRA 300045Z 03003KT 7000 SCT070 01/M01 Q1022=
201012300015 METAR LIRA 300015Z 05002KT 7000 SCT070 01/M01 Q1022=
201012292350 METAR LIRA 300045Z 03003KT 7000 SCT070 01/M01 Q1022=
201012292345 METAR LIRA 292345Z 08002KT 6000 SCT070 01/M01 Q1022=
201012292315 METAR LIRA 292315Z 05003KT 6000 FEW070 01/M01 Q1022=
201012292245 METAR LIRA 292245Z 02002KT 6000 FEW004 01/M01 Q1022=
201012292215 METAR LIRA 292215Z 01003KT 7000 FEW004 01/M00 Q1022=
201012292145 METAR LIRA 292145Z 35001KT 7000 FEW004 01/M00 Q1022=
201012292115 METAR LIRA 292115Z 03002KT 7000 SKC 02/00 Q1022=
201012292045 METAR LIRA 292045Z 00000KT 9999 FEW070 02/00 Q1022=
201012292015 METAR LIRA 292015Z 07001KT 9999 FEW070 03/00 Q1021=
201012291945 METAR LIRA 291945Z 09001KT 9999 FEW070 03/M00 Q1021=
201012291915 METAR LIRA 291915Z 03002KT 9999 FEW070 03/00 Q1021=
201012291845 METAR LIRA 291845Z 00000KT 9999 FEW070 03/M00 Q1021=
201012291815 METAR LIRA 291815Z 00000KT 9999 FEW030 04/M00 Q1021=
201012291745 METAR LIRA 291745Z 05002KT 9999 FEW030 05/M01 Q1021=
201012291715 METAR LIRA 291715Z 05003KT 9999 FEW030 05/M00 Q1021=
201012291645 METAR LIRA 291645Z 07003KT 9999 FEW030 06/M00 Q1021=
201012291615 METAR LIRA 291615Z 03003KT 9999 FEW030 07/M01 Q1021=
201012291545 METAR LIRA 291545Z 36002KT 9999 FEW030 07/M01 Q1021=
201012291515 METAR LIRA 291515Z 36003KT 9999 FEW030 SCT080 08/M02 Q1021=
201012291445 METAR LIRA 291445Z 01003KT 9999 FEW030 SCT070 08/M01 Q1021=
201012291415 METAR LIRA 291415Z 01004KT 9999 FEW030 SCT080 08/M02 Q1021=
201012291345 METAR LIRA 291345Z 02004KT 9999 FEW030 SCT080 08/M02 Q1021=
201012291315 METAR LIRA 291315Z 03005KT 360V090 9999 FEW030 SCT080 08/M01
                        Q1021=
201012291245 METAR LIRA 291245Z 03004KT 350V120 9999 FEW030 SCT080 07/M00
                        Q1021=
201012291215 METAR LIRA 291215Z 03004KT 330V080 9999 FEW030 SCT080 07/01
                        Q1022=
201012291145 METAR LIRA 291145Z 02003KT 9999 FEW030 SCT080 06/01 Q1022=
201012291115 METAR LIRA 291115Z 05004KT 9999 FEW030 SCT080 06/01 Q1022=
201012291045 METAR LIRA 291045Z 03005KT 9999 FEW030 SCT080 05/01 Q1022=
201012291015 METAR LIRA 291015Z 03005KT 9999 FEW030 05/01 Q1022=
201012290945 METAR LIRA 290945Z 36005KT 8000 FEW030 SCT070 04/00 Q1022=
201012290915 METAR LIRA 290915Z 33005KT 8000 FEW030 SCT080 03/00 Q1022=
201012290845 METAR LIRA 290845Z 03004KT 8000 SCT030 03/01 Q1021=
201012290815 METAR LIRA 290815Z 04004KT 8000 SCT030 02/00 Q1021=
201012290745 METAR LIRA 290745Z 36003KT 8000 SCT030 01/M01 Q1021=
201012290715 METAR LIRA 290715Z 05004KT 8000 FEW080 01/M00 Q1021=
201012290645 METAR LIRA 290645Z 06006KT 030V110 8000 FEW080 SCT200 00/M01
                        Q1021=
201012290615 METAR LIRA 290615Z 06005KT 7000 FEW080 M00/M01 Q1021=
201012290545 METAR LIRA 290545Z 03004KT 350V060 7000 FEW080 M00/M01 Q1021=
201012290515 METAR LIRA 290515Z 01004KT 7000 FEW080 M01/M01 Q1021=
201012290445 METAR LIRA 290445Z 07005KT 7000 FEW070 M01/M02 Q1021=
201012290415 METAR LIRA 290415Z 02003KT 7000 FEW070 00/M01 Q1021=
201012290345 METAR LIRA 290345Z 29004KT 7000 FEW070 00/M01 Q1021=
201012290315 METAR LIRA 290315Z 22003KT 7000 FEW070 M00/M01 Q1021=
201012290245 METAR LIRA 290245Z 33003KT 7000 SCT070 M00/M02 Q1021=
201012290215 METAR LIRA 290215Z 32003KT 7000 FEW070 00/M01 Q1021=
201012290145 METAR LIRA 290145Z 04006KT 7000 FEW070 01/M01 Q1021=
201012290115 METAR LIRA 290115Z 05005KT 7000 FEW070 00/M00 Q1021=
201012290045 METAR LIRA 290045Z 07005KT 7000 00/M01 Q1021=
201012290015 METAR LIRA 290015Z 06004KT 7000 FEW004 00/M00 Q1021=
201012282350 METAR LIRA 290045Z 07005KT 7000 00/M01 Q1021=
201012282345 METAR LIRA 282345Z 02003KT 7000 FEW004 01/00 Q1021=
201012282315 METAR LIRA 282315Z 33003KT 7000 FEW004 01/00 Q1021=
201012282245 METAR LIRA 282245Z 01001KT 8000 FEW004 02/01 Q1021=
201012282215 METAR LIRA 282215Z 05003KT 8000 FEW004 02/00 Q1021=
201012282145 METAR LIRA 282145Z 03003KT 9999 FEW004 02/01 Q1021=
201012282115 METAR LIRA 282115Z 06002KT 9999 FEW004 03/01 Q1021=
201012282045 METAR LIRA 282045Z 10003KT 9999 FEW004 03/01 Q1021=
201012282015 METAR LIRA 282015Z 10003KT 9999 FEW004 SCT070 03/01 Q1020=
201012281945 METAR LIRA 281945Z 10002KT 9999 FEW004 SCT070 03/M00 Q1020=
201012281915 METAR LIRA 281915Z 12001KT 9999 FEW004 03/00 Q1020=
201012281845 METAR LIRA 281845Z 15002KT 9999 FEW004 04/01 Q1020=
201012281815 METAR LIRA 281815Z 12003KT 9999 FEW004 03/01 Q1020=
201012281745 METAR LIRA 281745Z 15002KT 9999 FEW004 04/01 Q1020=
201012281715 METAR LIRA 281715Z 13003KT 9999 FEW021 03/00 Q1020=
201012281645 METAR LIRA 281645Z 11002KT 9999 FEW021 05/M00 Q1020=
201012281615 METAR LIRA 281615Z 00000KT 9999 FEW021 05/M00 Q1020=
201012281545 METAR LIRA 281545Z 00000KT 9999 FEW021 07/M01 Q1020=
201012281515 METAR LIRA 281515Z 00000KT 9999 FEW021 08/M02 Q1020=
201012281445 METAR LIRA 281445Z 34001KT 9999 FEW021 08/M02 Q1020=
201012281415 METAR LIRA 281415Z 33001KT 9999 FEW021 08/M02 Q1020=
201012281345 METAR LIRA 281345Z 25002KT 9999 FEW021 08/M01 Q1021=
201012281315 METAR LIRA 281315Z 32003KT 9999 FEW020 08/M01 Q1021=
201012281245 METAR LIRA 281245Z 31005KT 9999 FEW020 07/M01 Q1021=
201012281215 METAR LIRA 281215Z 35004KT 9999 FEW020 07/M01 Q1021=
201012281145 METAR LIRA 281145Z 02004KT 9999 FEW020 07/M01 Q1021=
201012281115 METAR LIRA 281115Z 34003KT 9999 FEW030 07/M01 Q1021=
201012281045 METAR LIRA 281045Z 01005KT 9999 FEW030 SCT200 06/M01 Q1022=
201012281015 METAR LIRA 281015Z 02002KT 9999 FEW020 SCT200 05/M02 Q1022=
201012280945 METAR LIRA 280945Z 01005KT 310V050 9999 FEW020 SCT200 04/M02
                        Q1022=
201012280915 METAR LIRA 280915Z 01006KT 350V060 9999 FEW070 SCT200 03/M03
                        Q1022=
201012280845 METAR LIRA 280845Z 01006KT 330V080 9999 FEW070 SCT200 03/M03
                        Q1022=
201012280815 METAR LIRA 280815Z 02005KT 300V060 9999 FEW070 SCT200 01/M03
                        Q1021=
201012280745 METAR LIRA 280745Z 03004KT 9999 FEW070 SCT200 00/M03 Q1021=
201012280715 METAR LIRA 280715Z 04005KT 360V070 9999 FEW070 SCT200 M01/M04
                        Q1021=
201012280645 METAR LIRA 280645Z 04004KT 9999 FEW070 SCT200 M01/M05 Q1021=
201012280615 METAR LIRA 280615Z 02004KT CAVOK M01/M04 Q1021=
201012280545 METAR LIRA 280545Z 04006KT 360V090 CAVOK M01/M04 Q1020=
201012280515 METAR LIRA 280515Z 04005KT CAVOK M01/M03 Q1020=
201012280445 METAR LIRA 280445Z 04005KT 010V070 9999 FEW080 M01/M04 Q1020=
201012280415 METAR LIRA 280415Z 04004KT 9999 FEW080 M01/M04 Q1020=
201012280345 METAR LIRA 280345Z 04004KT 360V070 9999 FEW080 M00/M03 Q1020=
201012280315 METAR LIRA 280315Z 05006KT 9999 FEW080 M00/M03 Q1020=
201012280245 METAR LIRA 280245Z 05005KT 020V090 9999 FEW080 M00/M03 Q1021=
201012280215 METAR LIRA 280215Z 05006KT 9999 FEW025 00/M04 Q1021=
201012280145 METAR LIRA 280145Z 04005KT 350V070 9999 FEW025 SCT070 00/M04
                        Q1021=
201012280115 METAR LIRA 280115Z 02005KT 9999 FEW025 SCT070 00/M03 Q1020=
201012280045 METAR LIRA 280045Z 02003KT 9999 FEW070 00/M03 Q1020=
201012280015 METAR LIRA 280015Z 03003KT 9999 FEW005 00/M03 Q1020=
201012272350 METAR LIRA 280045Z 02003KT 9999 FEW070 00/M03 Q1020=
201012272345 METAR LIRA 272345Z 03005KT 9999 FEW005 01/M02 Q1020=
201012272315 METAR LIRA 272315Z 05006KT 9999 FEW005 01/M02 Q1020=
201012272245 METAR LIRA 272245Z 04005KT 360V090 9999 FEW005 01/M01 Q1020=
201012272215 METAR LIRA 272215Z 04004KT CAVOK 01/M01 Q1020=
201012272145 METAR LIRA 272145Z 03004KT CAVOK 01/M02 Q1020=
201012272115 METAR LIRA 272115Z 04004KT CAVOK 02/M03 Q1020=
201012272045 METAR LIRA 272045Z 01004KT CAVOK 02/M03 Q1020=
201012272015 METAR LIRA 272015Z 01004KT CAVOK 02/M03 Q1020=
201012271945 METAR LIRA 271945Z 02004KT 320V060 CAVOK 03/M03 Q1019=
201012271915 METAR LIRA 271915Z 02004KT 330V050 CAVOK 03/M03 Q1019=
201012271845 METAR LIRA 271845Z 36005KT 300V030 CAVOK 04/M03 Q1019=
201012271815 METAR LIRA 271815Z 36006KT 320V070 CAVOK 04/M02 Q1019=
201012271745 METAR LIRA 271745Z 01006KT 330V070 CAVOK 04/M02 Q1019=
201012271715 METAR LIRA 271715Z 03004KT 9999 FEW080 04/M05 Q1019=
201012271645 METAR LIRA 271645Z 01006KT 330V050 9999 FEW040 SCT070 05/M04
                        Q1018=
201012271615 METAR LIRA 271615Z 01004KT 9999 FEW040 SCT070 06/M03 Q1018=
201012271545 METAR LIRA 271545Z 15006KT 320V050 9999 FEW040 SCT070 07/M03
                        Q1018=
201012271515 METAR LIRA 271515Z 35006KT 310V040 9999 FEW018 SCT070 07/M03
                        Q1018=
201012271445 METAR LIRA 271445Z 03005KT 340V080 9999 FEW018 SCT070 07/00
                        Q1018=
201012271415 METAR LIRA 271415Z 03007KT 340V080 9999 FEW018 BKN070 07/00
                        Q1018=
201012271345 METAR LIRA 271345Z 02005KT 320V070 9999 FEW018 BKN070 07/M00
                        Q1018=
201012271315 METAR LIRA 271315Z 36007KT 300V050 9999 FEW018 SCT040 BKN070
                        07/M00 Q1018=
201012271245 METAR LIRA 271245Z 01006KT 320V050 9999 FEW018 SCT040 BKN070
                        06/00 Q1018=
201012271215 METAR LIRA 271215Z 02007KT 320V090 9999 FEW018 SCT040 BKN070
                        06/M00 Q1018=
201012271145 METAR LIRA 271145Z 01009KT 320V060 9999 FEW018 SCT040 BKN070
                        06/M00 Q1017=
201012271115 METAR LIRA 271115Z 36008KT 320V070 9999 FEW014 SCT040 BKN070
                        06/00 Q1017=
201012271045 METAR LIRA 271045Z 01007KT 330V060 9999 FEW014 SCT040 06/01
                        Q1017=
201012271015 METAR LIRA 271015Z 02007KT 330V080 9999 SCT040 SCT070 05/00
                        Q1017=
201012270945 METAR LIRA 270945Z 02005KT 300V080 9999 SCT040 SCT070 05/00
                        Q1017=
201012270915 METAR LIRA 270915Z 03007KT 350V070 9999 SCT040 SCT070 05/00
                        Q1017=
201012270845 METAR LIRA 270845Z 04005KT 360V080 9999 SCT040 SCT070 04/00
                        Q1016=
201012270815 METAR LIRA 270815Z 04006KT 300V080 9999 SCT040 SCT070 04/00
                        Q1016=
201012270745 METAR LIRA 270745Z 04007KT 010V080 9999 SCT040 SCT070 03/00
                        Q1016=
201012270715 METAR LIRA 270715Z 04006KT 010V080 9999 SCT040 SCT070 03/00
                        Q1016=
201012270645 METAR LIRA 270645Z 05008KT 010V080 9999 SCT040 02/00 Q1015=
201012270615 METAR LIRA 270615Z 05006KT 010V070 9999 FEW040 SCT070 02/00
                        Q1015=
201012270545 METAR LIRA 270545Z 04006KT 300V080 9999 SCT070 02/00 Q1015=
201012270515 METAR LIRA 270515Z 03006KT 350V080 9999 FEW070 02/M00 Q1014=
201012270445 METAR LIRA 270445Z 05006KT 9999 FEW030 02/M00 Q1014=
201012270415 METAR LIRA 270415Z 04006KT 9999 FEW030 02/00 Q1014=
201012270345 METAR LIRA 270345Z 04006KT 9999 FEW030 02/M00 Q1013=
201012270315 METAR LIRA 270315Z 05007KT 9999 FEW070 03/01 Q1013=
201012270245 METAR LIRA 270245Z 05008KT 010V080 9999 FEW070 03/01 Q1013=
201012270215 METAR LIRA 270215Z 04005KT 9999 FEW070 03/02 Q1013=
201012270145 METAR LIRA 270145Z 04005KT 9999 FEW070 03/02 Q1013=
201012270115 METAR LIRA 270115Z 02005KT 350V060 9999 FEW030 04/02 Q1012=
201012270045 METAR LIRA 270045Z 03004KT 9999 FEW030 04/03 Q1012=
201012270015 METAR LIRA 270015Z 05005KT 9999 FEW030 04/03 Q1012=
201012262350 METAR LIRA 270045Z 03004KT 9999 FEW030 04/03 Q1012=
201012262345 METAR LIRA 262345Z 35003KT 9999 FEW030 05/03 Q1012=
201012262315 METAR LIRA 262315Z 03004KT 9999 FEW030 05/03 Q1012=
201012262245 METAR LIRA 262245Z 05005KT 340V080 9999 FEW030 05/04 Q1012=
201012262215 METAR LIRA 262215Z 04006KT 340V080 9999 FEW030 SCT070 05/03
                        Q1012=
201012262145 METAR LIRA 262145Z 36006KT 320V030 9999 FEW030 SCT070 05/03
                        Q1011=
201012262115 METAR LIRA 262115Z 36003KT 9999 FEW020 SCT070 05/03 Q1011=
201012262045 METAR LIRA 262045Z 10001KT 9999 FEW030 05/03 Q1011=
201012262015 METAR LIRA 262015Z 08002KT 9999 FEW030 06/03 Q1011=
201012261945 METAR LIRA 261945Z 02003KT 9999 FEW030 06/03 Q1011=
201012261915 METAR LIRA 261915Z 09002KT 9999 FEW020 07/04 Q1011=
201012261845 METAR LIRA 261845Z 06003KT 9999 FEW020 SCT030 07/04 Q1010=
201012261815 METAR LIRA 261815Z 06004KT 9999 FEW020 SCT030 07/04 Q1010=
201012261745 METAR LIRA 261745Z 10003KT 9999 FEW020 SCT030 08/04 Q1010=
201012261715 METAR LIRA 261715Z 09005KT 9999 SCT020 SCT030 08/04 Q1009=
201012261645 METAR LIRA 261645Z 13004KT 9999 SCT020 SCT030 07/04 Q1009=
201012261615 METAR LIRA 261615Z 14005KT 9999 SCT018 SCT030 08/04 Q1009=
201012261545 METAR LIRA 261545Z 16005KT 9999 SCT018 SCT030 09/04 Q1009=
201012261515 METAR LIRA 261515Z 16006KT 9999 SCT018 SCT030 09/04 Q1009=
201012261445 METAR LIRA 261445Z 17004KT 9999 SCT018 SCT030 09/03 Q1009=
201012261415 METAR LIRA 261415Z 17006KT 120V200 9999 SCT018 SCT030 10/03
                        Q1009=
201012261345 METAR LIRA 261345Z 17006KT 120V210 9999 SCT018 10/02 Q1009=
201012261315 METAR LIRA 261315Z 18007KT 140V230 9999 SCT018 11/03 Q1009=
201012261245 METAR LIRA 261245Z 15007KT 110V200 9999 SCT018 11/03 Q1009=
201012261215 METAR LIRA 261215Z 17005KT 090V240 9999 SCT018 11/03 Q1009=
201012261145 METAR LIRA 261145Z 18004KT 9999 FEW020 11/02 Q1009=
201012261115 METAR LIRA 261115Z 18006KT 130V220 9999 FEW020 10/02 Q1009=
201012261045 METAR LIRA 261045Z 17005KT 120V200 9999 FEW020 SCT070 10/02
                        Q1009=
201012261015 METAR LIRA 261015Z 16005KT 100V210 9999 FEW020 SCT070 10/03
                        Q1009=
201012260945 METAR LIRA 260945Z 14005KT 9999 FEW020 SCT070 10/03 Q1009=
201012260915 METAR LIRA 260915Z 14007KT 9999 FEW020 SCT070 10/04 Q1009=
201012260845 METAR LIRA 260845Z 13006KT 9999 FEW020 SCT070 09/04 Q1009=
201012260815 METAR LIRA 260815Z 10004KT 9999 FEW020 SCT030 06/03 Q1008=
201012260745 METAR LIRA 260745Z 12006KT 9999 FEW017 SCT030 06/03 Q1008=
201012260715 METAR LIRA 260715Z 11007KT 9999 FEW017 SCT030 05/03 Q1008=
201012260645 METAR LIRA 260645Z 11007KT 9999 FEW017 SCT070 05/03 Q1007=
201012260615 METAR LIRA 260615Z 10007KT 9999 FEW017 SCT030 05/03 Q1007=
201012260545 METAR LIRA 260545Z 13003KT 9999 FEW017 SCT030 05/03 Q1007=
201012260515 METAR LIRA 260515Z 11004KT 9999 FEW017 SCT070 05/03 Q1007=
201012260445 METAR LIRA 260445Z 12003KT 9999 FEW017 SCT030 06/04 Q1007=
201012260415 METAR LIRA 260415Z 11003KT 9999 FEW017 SCT025 05/04 Q1007=
201012260345 METAR LIRA 260345Z 12002KT 9999 FEW017 SCT070 05/04 Q1007=
201012260315 METAR LIRA 260315Z 10005KT 9999 FEW017 05/04 Q1008=
201012260245 METAR LIRA 260245Z 12005KT 9000 -RA FEW017 SCT025 06/05 Q1008=
201012260215 METAR LIRA 260215Z 15004KT 8000 -RA FEW016 FEW018TCU SCT025
                        06/05 Q1008=
201012260145 METAR LIRA 260145Z 15002KT 9000 -RA FEW016 FEW018TCU SCT025
                        07/05 Q1008=
201012260115 METAR LIRA 260115Z 17003KT 7000 -RA FEW017TCU SCT025 07/05
                        Q1007=
201012260045 METAR LIRA 260045Z 11005KT 8000 -RA FEW017TCU SCT025 07/05
                        Q1007=
201012260015 METAR LIRA 260015Z 13006KT 8000 -RA FEW017TCU SCT025 06/04
                        Q1007=
201012252350 METAR LIRA 260045Z 11005KT 8000 -RA FEW017TCU SCT025 07/05
                        Q1007=
201012252345 METAR LIRA 252345Z 13005KT 9999 -RA FEW017TCU SCT025 07/05
                        Q1007=
201012252315 METAR LIRA 252315Z 13005KT 9999 -RA FEW017TCU SCT025 07/05
                        Q1007=
201012252245 METAR LIRA 252245Z 14005KT 9999 -RA FEW017TCU SCT025 07/05
                        Q1007=
201012252215 METAR LIRA 252215Z 20004KT 140V250 9999 -RA FEW017TCU SCT025
                        07/05 Q1007=
201012252145 METAR LIRA 252145Z 14005KT 9000 FEW014 SCT023 07/06 Q1007=
201012252115 METAR LIRA 252115Z 13004KT 9000 -RA FEW014 SCT025 07/06 Q1007=
201012252045 METAR LIRA 252045Z 18004KT 9000 -RA FEW016 SCT025 07/06 Q1007=
201012252015 METAR LIRA 252015Z 16004KT 7000 -RA FEW014 SCT022 BKN070
                        07/05 Q1006=
201012251945 METAR LIRA 251945Z 16004KT 7000 -RA FEW014 SCT022 BKN070
                        07/05 Q1006=
201012251915 METAR LIRA 251915Z 16004KT 7000 -RA FEW014 SCT025 BKN070
                        07/05 Q1006=
201012251845 METAR LIRA 251845Z 17004KT 7000 -RA FEW014 SCT025 BKN070
                        07/06 Q1006=
201012251815 METAR COR LIRA 251815Z 15004KT 7000 -RA FEW014 SCT025 BKN070
                        07/06 Q1006=
201012251745 METAR LIRA 251745Z 19004KT 160V240 7000 -RA FEW014 SCT025
                        BKN070 07/05 Q1006=
201012251715 METAR LIRA 251715Z 16004KT 7000 -RA FEW014 SCT025 BKN070
                        07/06 Q1005=
201012251645 METAR LIRA 251645Z 17006KT 7000 -RA FEW015 SCT025 BKN070
                        07/05 Q1005=
201012251615 METAR LIRA 251615Z 18005KT 7000 -RA FEW010 SCT015 BKN023
                        07/05 Q1005=
201012251545 METAR LIRA 251545Z 19007KT 140V240 6000 -RA FEW010 SCT016
                        BKN025 07/06 Q1005=
201012251515 METAR LIRA 251515Z 17004KT 8000 -RA FEW016 BKN025 08/06 Q1004=
201012251445 METAR LIRA 251445Z 19005KT 160V220 7000 -RA SCT016 BKN023
                        08/06 Q1004=
201012251415 METAR LIRA 251415Z 20005KT 160V250 7000 -RA SCT016 BKN023
                        08/06 Q1004=
201012251345 METAR LIRA 251345Z 20007KT 150V260 5000 -RA BR FEW010 SCT016
                        BKN023 08/06 Q1004=
201012251315 METAR LIRA 251315Z 19008KT 150V240 5000 -RA BR SCT006 BKN023
                        08/07 Q1004=
201012251245 METAR LIRA 251245Z 21005KT 150V250 6000 -RA FEW010 SCT016
                        BKN023 08/07 Q1004=
201012251215 METAR LIRA 251215Z 19007KT 150V240 7000 -RA SCT016 BKN025
                        08/07 Q1004=
201012251145 METAR LIRA 251145Z 19008KT 150V240 7000 -RA SCT015 BKN025
                        08/06 Q1003=
201012251115 METAR LIRA 251115Z 19009KT 150V240 7000 -RA SCT015 BKN025
                        08/06 Q1003=
201012251045 METAR LIRA 251045Z 20009KT 170V250 7000 -DZ SCT015 BKN025
                        09/07 Q1003=
201012251015 METAR LIRA 251015Z 21009KT 8000 -DZ SCT015 BKN025 09/06 Q1003=
201012250945 METAR LIRA 250945Z 19007KT 140V240 8000 -DZ FEW015 BKN025
                        09/05 Q1003=
201012250915 METAR LIRA 250915Z 21007KT 170V270 8000 -DZ SCT015 BKN023
                        09/05 Q1002=
201012250845 METAR LIRA 250845Z 21008KT 170V260 8000 -DZ SCT015 BKN023
                        09/06 Q1002=
201012250815 METAR LIRA 250815Z 21010KT 140V250 8000 -DZ SCT015 BKN023
                        09/05 Q1002=
201012250745 METAR LIRA 250745Z 22009KT 180V270 8000 -DZ SCT015 BKN023
                        09/05 Q1001=
201012250715 METAR LIRA 250715Z 22011KT 180V260 9999 SCT015 BKN023 09/05
                        Q1001=
201012250645 METAR LIRA 250645Z 22011KT 160V260 9999 SCT016 BKN025 09/05
                        Q1000=
201012250615 METAR LIRA 250615Z 21009KT 150V260 9999 FEW020 SCT035 BKN070
                        09/04 Q1000=
201012250545 METAR LIRA 250545Z 22009KT 170V270 9999 FEW015 BKN070 09/05
                        Q0999=
201012250515 METAR LIRA 250515Z 22011KT 180V260 9000 FEW015 BKN070 09/05
                        Q0999=
201012250445 METAR LIRA 250445Z 22010KT 170V250 8000 SCT015 BKN023 09/05
                        Q0998=
201012250415 METAR LIRA 250415Z 22009KT 180V260 8000 SCT015 BKN023 09/05
                        Q0998=
201012250345 METAR LIRA 250345Z 22010KT 180V270 7000 SCT015 BKN023 10/06
                        Q0997=
201012250315 METAR LIRA 250315Z 22009KT 130V260 7000 SCT015 BKN023 10/06
                        Q0997=
201012250245 METAR LIRA 250245Z 22009KT 180V270 7000 SCT015 BKN023 10/07
                        Q0997=
201012250215 METAR LIRA 250215Z 21009KT 170V270 7000 SCT015 BKN023 10/08
                        Q0996=
201012250145 METAR LIRA 250145Z 16007KT 7000 SCT015 BKN023 10/08 Q0996=
201012250115 METAR LIRA 250115Z 17005KT 7000 SCT015 BKN023 10/09 Q0996=
201012250045 METAR LIRA 250045Z 17006KT 140V200 7000 SCT015 BKN023 10/08
                        Q0996=
201012250015 METAR LIRA 250015Z 17008KT 7000 SCT015 BKN023 10/07 Q0996=
201012242350 METAR LIRA 250045Z 17006KT 140V200 7000 SCT015 BKN023 10/08
                        Q0996=
201012242345 METAR LIRA 242345Z 17007KT 7000 SCT015 BKN023 09/07 Q0996=
201012242315 METAR LIRA 242315Z 19008KT 160V230 6000 -RA SCT015 FEW017CB
                        BKN023 09/07 Q0995=
201012242245 METAR LIRA 242245Z 20008KT 150V250 6000 -RA SCT015 FEW017CB
                        BKN023 09/07 Q0995=
201012242215 METAR LIRA 242215Z 19007KT 160V250 6000 -RA SCT015 FEW017CB
                        BKN023 09/07 Q0995=
201012242145 METAR LIRA 242145Z 21008KT 170V250 6000 -RA SCT015 FEW017CB
                        BKN023 09/08 Q0995=
201012242115 METAR LIRA 242115Z 21007KT 140V250 6000 -BR SCT015 FEW018CB
                        BKN023 09/08 Q0995=
201012242045 METAR LIRA 242045Z 19008KT 140V250 5000 -RA BR SCT015 FEW017CB
                        BKN023 09/08 Q0995=
201012242015 METAR LIRA 242015Z 21006KT 130V260 5000 -RA BR SCT015 FEW017CB
                        BKN023 09/07 Q0995=
201012241945 METAR LIRA 241945Z 20006KT 150V250 5000 BR SCT015 FEW017CB
                        BKN023 09/08 Q0994=
201012241915 METAR LIRA 241915Z 21006KT 160V260 5000 BR SCT015 FEW017CB
                        BKN023 10/09 Q0994=
201012241845 METAR LIRA 241845Z 21005KT 150V260 5000 BR SCT015 FEW017CB
                        BKN023 10/09 Q0994=
201012241815 METAR LIRA 241815Z 18005KT 5000 -RA BR SCT015 FEW017CB BKN023
                        10/09 Q0994=
201012241745 METAR LIRA 241745Z 19005KT 160V220 4000 RA BR SCT013 FEW017CB
                        BKN023 10/09 Q0994=
201012241715 METAR LIRA 241715Z 18005KT 140V220 3000 RA BR FEW009 SCT014
                        FEW015CB 10/09 Q0994=
201012241645 METAR LIRA 241645Z 15007KT 4000 RA BR FEW009 SCT014 FEW015CB
                        10/08 Q0994=
201012241615 METAR LIRA 241615Z 11005KT 060V160 4000 RA BR FEW009 SCT014
                        FEW015CB 10/09 Q0993=
201012241545 METAR LIRA 241545Z 10006KT 3500 RA BR FEW009 SCT014 FEW015CB
                        10/09 Q0994 RETS=
201012241515 METAR LIRA 241515Z 16005KT 3500 -TSRA BR FEW009 SCT014 FEW015CB
                        10/09 Q0994 RETS=
201012241445 METAR LIRA 241445Z 21006KT 170V260 3000 SHRA BR FEW009 SCT014
                        FEW015CB 10/09 Q0994=
201012241415 METAR LIRA 241415Z 15009KT 120V190 5000 -SHRA BR FEW012 SCT014
                        FEW016CB 10/08 Q0993=
201012241345 METAR LIRA 241345Z 14011KT 7000 -SHRA FEW012 SCT014 FEW016CB
                        10/09 Q0993=
201012241315 METAR LIRA 241315Z 14013KT 4000 -SHRA BR SCT014 FEW016CB
                        SCT080 11/09 Q0994=
201012241245 METAR LIRA 241245Z 14016KT 4000 -SHRA BR FEW011 SCT014 FEW018CB
                        12/10 Q0994=
201012241215 METAR LIRA 241215Z 16014KT 130V190 3500 -SHRA BR FEW011 SCT014
                        FEW018CB 12/10 Q0994 RERA=
201012241145 METAR LIRA 241145Z 16013KT 130V210 5000 -SHRA BR SCT014 FEW016CB
                        SCT080 12/11 Q0994 RERA=
201012241115 METAR LIRA 241115Z 18012KT 150V230 2000 SHRA BR FEW011 SCT014
                        SCT018CB 13/11 Q0994=
201012241045 METAR LIRA 241045Z 19012KT 160V240 4000 -SHRA BR FEW011 SCT014
                        SCT018CB 13/11 Q0994 RERA=
201012241015 METAR LIRA 241015Z 19012KT 150V250 5000 -SHRA BR FEW011 SCT014
                        SCT018CB 13/12 Q0994 RERA=
201012240945 METAR LIRA 240945Z 18008KT 140V220 6000 -RA FEW011 SCT014
                        SCT018CB 14/12 Q0995=
201012240915 METAR LIRA 240915Z 19009KT 150V230 6000 -RA FEW011 SCT014
                        SCT018CB 13/12 Q0995=
201012240845 METAR LIRA 240845Z 19008KT 140V230 6000 -RA FEW011 SCT014
                        FEW018CB 13/12 Q0995=
201012240815 METAR LIRA 240815Z 18009KT 150V240 7000 -RA FEW011 SCT013
                        FEW018CB 13/12 Q0995 RERA=
201012240745 METAR LIRA 240745Z 17011KT 120V220 6000 -RA FEW011 SCT013
                        FEW015CB 13/12 Q0995 RERA=
201012240715 METAR LIRA 240715Z 19007KT 150V250 9000 4000S -RA BR SCT013
                        FEW015CB SCT025 13/11 Q0995=
201012240645 METAR LIRA 240645Z 18006KT 150V220 8000 -RA BR SCT013 FEW015CB
                        SCT025 13/11 Q0995=
201012240615 METAR LIRA 240615Z 19007KT 160V220 8000 -RA FEW014CB SCT015
                        13/11 Q0995=
201012240545 METAR LIRA 240545Z 19009KT 150V220 7000 -RA FEW011 SCT014
                        FEW020TCU 13/12 Q0994=
201012240515 METAR COR LIRA 240515Z 19010KT 140V230 7000 -RA FEW012 SCT014
                        13/12 Q0994=
201012240445 METAR LIRA 240445Z 19010KT 150V260 7000 -RA SCT014 SCT020
                        13/12 Q0994=
201012240415 METAR LIRA 240415Z 19012KT 160V220 6000 -RA FEW014TCU BKN020
                        13/12 Q0994 RETS=
201012240345 METAR LIRA 240345Z 18012KT 150V220 7000 -RA FEW014TCU SCT020
                        13/12 Q0994 RETS=
201012240315 METAR LIRA 240315Z 19014KT 150V240 3500 -TSRA BR SCT004 FEW014CB
                        SCT020 BKN070 13/12 Q0994=
201012240245 METAR LIRA 240245Z 18012KT 140V220 2500 -TSRA BR SCT003 FEW014CB
                        SCT020 BKN070 12/11 Q0994=
201012240215 METAR LIRA 240215Z 17015KT 130V200 7000 -TSRA FEW014CB SCT020
                        BKN060 13/12 Q0994=
201012240145 METAR LIRA 240145Z 16016KT 130V200 7000 -TSRA FEW016CB SCT020
                        BKN060 13/11 Q0994=
201012240115 METAR LIRA 240115Z 16014KT 130V200 7000 -TSRA FEW016CB SCT020
                        BKN060 13/12 Q0995=
201012240045 METAR LIRA 240045Z 16015KT 130V200 6000 -TSRA FEW016CB SCT020
                        BKN060 13/12 Q0995=
201012240015 METAR LIRA 240015Z 16016KT 120V190 6000 -TSRA FEW016CB SCT020
                        BKN060 13/11 Q0995=
201012232350 METAR LIRA 240045Z 16015KT 130V200 6000 -TSRA FEW016CB SCT020
                        BKN060 13/12 Q0995=
201012232345 METAR LIRA 232345Z 15015KT 120V180 9999 FEW018 SCT025 BKN070
                        13/11 Q0996=
201012232315 METAR LIRA 232315Z 16015KT 130V190 9999 FEW018 SCT025 13/11
                        Q0996=
201012232245 METAR LIRA 232245Z 16014KT 9999 -RA FEW016CB SCT020 13/12
                        Q0996=
201012232215 METAR LIRA 232215Z 16013KT 9000 -RA FEW016CB SCT020 13/11
                        Q0996=
201012232145 METAR LIRA 232145Z 17011KT 140V200 8000 -RA FEW016CB SCT030
                        BKN060 13/11 Q0996=
201012232115 METAR LIRA 232115Z 19015KT 150V220 8000 -RA FEW016CB SCT020
                        BKN060 13/11 Q0996 RETS=
201012232045 METAR LIRA 232045Z 20010KT 140V290 9999 -RA FEW018CB SCT025
                        13/11 Q0995 RETS=
201012232015 METAR LIRA 232015Z 19013KT 140V270 9999 -TSRA FEW018CB SCT025
                        14/12 Q0995=
201012231945 METAR LIRA 231945Z 18018KT 140V220 8000 -TSRA FEW016CB SCT020
                        14/13 Q0994=
201012231915 METAR LIRA 231915Z 15016KT 7000 -TSRA FEW016CB SCT020 14/13
                        Q0994=
201012231845 METAR LIRA 231845Z 17021KT 130V200 6000 RA FEW016 SCT020
                        BKN060 15/14 Q0995=
201012231815 METAR LIRA 231815Z 16021KT 120V200 9999 -RA FEW018 SCT030
                        BKN070 16/13 Q0994=
201012231745 METAR LIRA 231745Z 14024KT 9999 -RA FEW018 SCT030 BKN070
                        16/13 Q0994=
201012231715 METAR LIRA 231715Z 15020KT 120V190 9999 -RA FEW018 SCT030
                        BKN070 17/12 Q0994=
201012231645 METAR LIRA 231645Z 14023KT 9999 FEW018 BKN070 17/11 Q0994=
201012231615 METAR LIRA 231615Z 15019KT 120V200 9999 FEW018 BKN070 17/11
                        Q0995=
201012231545 METAR LIRA 231545Z 14023KT 110V170 9999 FEW018 SCT070 17/11
                        Q0995=
201012231515 METAR LIRA 231515Z 14021G31KT 110V180 9999 FEW018 SCT200
                        18/11 Q0995=
201012231445 METAR LIRA 231445Z 14022G33KT 100V180 9999 FEW018 SCT200
                        18/11 Q0996=
201012231415 METAR LIRA 231415Z 14026KT 110V170 9999 FEW018 SCT200 19/10
                        Q0996=
201012231345 METAR LIRA 231345Z 14024KT 9999 FEW018 19/10 Q0996=
201012231315 METAR LIRA 231315Z 14020KT 110V170 9999 FEW018 19/10 Q0997=
201012231245 METAR LIRA 231245Z 13023KT 110V170 9999 FEW018 19/10 Q0998=
201012231145 METAR LIRA 231145Z 13018G29KT 080V160 9999 FEW018 SCT070
                        19/11 Q0999 WS RWY15=
201012231115 METAR LIRA 231115Z 12017KT 100V160 9999 FEW015 SCT070 19/12
                        Q1000 WS RWY15=
201012231045 METAR LIRA 231045Z 14018KT 100V170 9999 FEW013 BKN070 18/13
                        Q1001=
201012231015 METAR LIRA 231015Z 13021KT 100V160 9999 FEW013 BKN070 18/13
                        Q1001=
201012230945 METAR LIRA 230945Z 13024KT 9999 FEW013 SCT070 17/13 Q1001=
201012230915 METAR LIRA 230915Z 13019KT 100V170 9999 FEW013 SCT030 17/13
                        Q1001 WS RWY15=
201012230845 METAR LIRA 230845Z 13023KT 9999 FEW013 SCT030 16/13 Q1002
                        RMK WS RWY15=
201012230815 METAR LIRA 230815Z 13021KT 8000 FEW013 BKN030 15/12 Q1002=
201012230745 METAR LIRA 230745Z 13021KT 8000 -RA FEW014 SCT025 15/13 Q1002=
201012230715 METAR LIRA 230715Z 13022KT 8000 -RA SCT014 BKN025 15/13 Q1002=
201012230645 METAR LIRA 230645Z 14023KT 9999 FEW015 BKN025 16/11 Q1002=
201012230615 METAR LIRA 230615Z 14020KT 090V160 9999 FEW014 SCT025 16/11
                        Q1002=
201012230545 METAR LIRA 230545Z 14023KT 9999 FEW014 SCT025 17/11 Q1002=
201012230515 METAR LIRA 230515Z 14022G33KT 9999 FEW014 SCT070 17/10 Q1003=
201012230445 METAR LIRA 230445Z 13023KT 9999 FEW014 SCT025 17/10 Q1003=
201012230415 METAR LIRA 230415Z 13023KT 100V160 9999 SCT014 SCT025 BKN070
                        17/10 Q1003=
201012230345 METAR LIRA 230345Z 13022KT 9999 SCT014 SCT025 BKN070 17/10
                        Q1003=
201012230315 METAR LIRA 230315Z 13022KT 100V170 9999 FEW014 SCT025 17/10
                        Q1004=
201012230245 METAR LIRA 230245Z 13022KT 9999 FEW014 SCT025 17/10 Q1004=
201012230215 METAR LIRA 230215Z 13020KT 9999 FEW014 SCT025 17/10 Q1005=
201012230145 METAR LIRA 230145Z 13017KT 9999 SCT025 SCT080 17/09 Q1005=
201012230115 METAR LIRA 230115Z 13019KT 100V160 9999 SCT025 SCT080 17/09
                        Q1005=
201012230045 METAR LIRA 230045Z 13020KT 090V180 9999 FEW020TCU SCT025
                        BKN070 17/09 Q1006=
201012230015 METAR LIRA 230015Z 13021KT 9999 FEW025 SCT080 17/09 Q1006=
201012222350 METAR LIRA 230045Z 13020KT 090V180 9999 FEW020TCU SCT025
                        BKN070 17/09 Q1006=
201012222345 METAR LIRA 222345Z 13018G28KT 100V160 9999 FEW025 SCT080
                        17/09 Q1006=
201012222315 METAR LIRA 222315Z 13017G29KT 100V170 9999 FEW025 SCT080
                        17/09 Q1007=
201012222245 METAR LIRA 222245Z 13015KT 100V160 9999 SCT025 SCT070 17/09
                        Q1007=
201012222215 METAR LIRA 222215Z 13018KT 100V170 9999 SCT025 SCT070 17/09
                        Q1007=
201012222145 METAR LIRA 222145Z 13017KT 100V170 9999 FEW015 BKN070 16/09
                        Q1007=
201012222115 METAR LIRA 222115Z 13014KT 090V160 9999 FEW014 SCT030 BKN070
                        16/09 Q1008=
201012222045 METAR LIRA 222045Z 13010KT 100V170 9999 FEW014 SCT025 15/09
                        Q1008=
201012222015 METAR LIRA 222015Z 13009KT 080V170 9999 FEW014 SCT070 15/09
                        Q1008=
201012221945 METAR LIRA 221945Z 12011KT 080V150 9999 FEW014TCU SCT070
                        15/09 Q1008=
201012221915 METAR LIRA 221915Z 13012KT 090V170 9999 FEW014TCU SCT070
                        16/10 Q1009=
201012221845 METAR LIRA 221845Z 12011KT 080V140 9999 FEW016 SCT025 16/10
                        Q1009=
201012221815 METAR LIRA 221815Z 12011KT 090V150 9999 FEW015 SCT025 16/11
                        Q1009=
201012221745 METAR LIRA 221745Z 12012KT 090V160 9999 FEW014 SCT025 16/11
                        Q1009=
201012221715 METAR LIRA 221715Z 12009KT 090V170 9999 FEW014 SCT025 15/11
                        Q1009=
201012221645 METAR LIRA 221645Z 11008KT 080V150 9999 FEW016 SCT030 15/12
                        Q1009=
201012221615 METAR LIRA 221615Z 11012KT 080V150 9999 FEW016 SCT030 15/12
                        Q1009=
201012221545 METAR LIRA 221545Z 13012KT 090V170 9999 FEW016 SCT030 15/12
                        Q1009=
201012221515 METAR LIRA 221515Z 13012KT 090V160 9999 FEW016 SCT030 15/12
                        Q1009=
201012221445 METAR LIRA 221445Z 13011KT 080V160 9999 SCT016 SCT030 15/13
                        Q1009=
201012221415 METAR LIRA 221415Z 13011KT 100V180 9999 SCT016 SCT030 15/12
                        Q1009=
201012221345 METAR LIRA 221345Z 13013KT 100V170 9999 SCT016 SCT030 16/12
                        Q1010=
201012221315 METAR LIRA 221315Z 14014KT 9999 SCT016 SCT030 16/13 Q1010=
201012221245 METAR LIRA 221245Z 14013KT 110V180 9999 SCT015 SCT030 16/13
                        Q1010=
201012221145 METAR LIRA 221145Z 15016KT 110V180 9999 FEW015 BKN070 16/13
                        Q1010=
201012221115 METAR LIRA 221115Z 15019KT 9999 FEW015 BKN070 16/13 Q1010=
201012221045 METAR LIRA 221045Z 15018KT 9999 FEW015 BKN070 15/13 Q1010=
201012221015 METAR LIRA 221015Z 15019KT 110V180 9999 -DZ BKN015 BKN070
                        15/13 Q1010=
201012220945 METAR LIRA 220945Z 14018KT 9999 -DZ FEW015 SCT030 BKN070
                        14/12 Q1010=
201012220915 METAR LIRA 220915Z 14016KT 9999 -DZ FEW015 SCT027 BKN070
                        15/12 Q1010=
201012220845 METAR LIRA 220845Z 14015KT 9999 FEW015 BKN027 14/12 Q1011=
201012220815 METAR LIRA 220815Z 15013KT 120V180 9999 -DZ FEW009 SCT015
                        BKN025 15/12 Q1011=
201012220745 METAR LIRA 220745Z 13014KT 100V170 9999 -DZ FEW009 SCT015
                        BKN025 14/12 Q1011=
201012220715 METAR LIRA 220715Z 14014KT 9999 -DZ FEW007 SCT015 BKN025
                        14/12 Q1011=
201012220645 METAR LIRA 220645Z 15015KT 9999 -DZ FEW007 SCT015 BKN025
                        14/13 Q1011=
201012220615 METAR LIRA 220615Z 14017KT 9999 -DZ FEW015 BKN025 14/13 Q1010=
201012220545 METAR LIRA 220545Z 14017KT 9999 FEW020 SCT030 14/10 Q1010=
201012220515 METAR LIRA 220515Z 15004KT 110V180 9999 FEW020 SCT030 14/10
                        Q1011=
201012220445 METAR LIRA 220445Z 14015KT 9999 FEW020 SCT030 15/09 Q1011=
201012220415 METAR LIRA 220415Z 14013KT 110V180 9999 FEW020 SCT035 15/08
                        Q1011=
201012220345 METAR LIRA 220345Z 14014KT 9999 FEW020 SCT035 14/08 Q1011=
201012220315 METAR LIRA 220315Z 14014KT 9999 FEW020 SCT035 14/08 Q1011=
201012220245 METAR LIRA 220245Z 14013KT 100V170 9999 FEW020 SCT035 14/08
                        Q1011=
201012220215 METAR LIRA 220215Z 14013KT 9999 SCT035 14/09 Q1012=
201012220145 METAR LIRA 220145Z 14012KT 100V160 9999 FEW025 SCT035 14/08
                        Q1012=
201012220115 METAR LIRA 220115Z 14012KT 9999 FEW035 SCT070 14/08 Q1012=
201012220045 METAR LIRA 220045Z 14014KT 100V170 9999 FEW035 SCT070 14/08
                        Q1012=
201012220015 METAR LIRA 220015Z 13012KT 100V160 9999 FEW035 14/09 Q1012=
201012212350 METAR LIRA 220045Z 14014KT 100V170 9999 FEW035 SCT070 14/08
                        Q1012=
201012212345 METAR LIRA 212345Z 14013KT 110V170 9999 FEW035 SCT080 14/09
                        Q1012=
201012212315 METAR LIRA 212315Z 14010KT 9999 FEW035 SCT080 13/09 Q1012=
201012212245 METAR LIRA 212245Z 14010KT 120V180 9999 FEW035 SCT080 13/08
                        Q1012=
201012212215 METAR LIRA 212215Z 15009KT 110V180 9999 FEW035 SCT080 13/08
                        Q1012=
201012212145 METAR LIRA 212145Z 16009KT 120V200 9999 FEW035 SCT080 13/08
                        Q1012=
201012212115 METAR LIRA 212115Z 14012KT 9999 FEW035 SCT080 13/07 Q1012=
201012212045 METAR LIRA 212045Z 14010KT 110V170 9999 FEW035 SCT080 12/07
                        Q1012=
201012212015 METAR LIRA 212015Z 14011KT 9999 FEW035 SCT080 13/07 Q1012=
201012211945 METAR LIRA 211945Z 13010KT 100V160 9999 FEW035 13/07 Q1013=
201012211915 METAR LIRA 211915Z 13010KT 9999 SCT035 13/07 Q1013=
201012211845 METAR LIRA 211845Z 13010KT 9999 SCT035 13/07 Q1013=
201012211815 METAR LIRA 211815Z 13010KT 9999 FEW022 SCT035 13/07 Q1013=
201012211745 METAR LIRA 211745Z 16008KT 9999 FEW022 SCT035 13/07 Q1013=
201012211715 METAR LIRA 211715Z 16005KT 9999 FEW022 SCT035 14/07 Q1013=
201012211645 METAR LIRA 211645Z 13008KT 9999 FEW023 BKN080 14/07 Q1013=
201012211615 METAR LIRA 211615Z 13006KT 090V170 9999 FEW023 BKN030 14/07
                        Q1013=
201012211545 METAR LIRA 211545Z 12008KT 9999 FEW020 BKN030 14/07 Q1013=
201012211515 METAR LIRA 211515Z 12007KT 090V150 9999 FEW020 BKN030 14/08
                        Q1013=
201012211445 METAR LIRA 211445Z 13006KT 9999 FEW020 BKN030 15/08 Q1013=
201012211415 METAR LIRA 211415Z 14009KT 9999 FEW020 SCT030 15/07 Q1013=
201012211345 METAR LIRA 211345Z 15009KT 120V190 9999 FEW020 SCT030 15/06
                        Q1013=
201012211315 METAR LIRA 211315Z 17009KT 130V210 9999 FEW020 SCT030 15/07
                        Q1013=
201012211245 METAR LIRA 211245Z 15008KT 100V190 9999 FEW020 SCT030 16/07
                        Q1013=
201012211215 METAR LIRA 211215Z 15009KT 110V180 9999 FEW025 SCT040 16/07
                        Q1014=
201012211145 METAR LIRA 211145Z 15009KT 120V180 9999 FEW025 SCT040 16/07
                        Q1014=
201012211115 METAR LIRA 211115Z 14008KT 100V180 9999 FEW025 SCT040 16/08
                        Q1014=
201012211045 METAR LIRA 211045Z 13009KT 9999 FEW025 16/08 Q1014=
201012211015 METAR LIRA 211015Z 12006KT 100V180 9999 FEW040 14/09 Q1014=
201012210945 METAR LIRA 210945Z 11005KT 9999 BKN035 14/09 Q1014=
201012210915 METAR LIRA 210915Z 10004KT 9999 BKN035 13/08 Q1014=
201012210845 METAR LIRA 210845Z 07005KT 030V120 9999 BKN035 SCT070 13/08
                        Q1014=
201012210815 METAR LIRA 210815Z 10007KT 9999 BKN035 SCT070 12/08 Q1014=
201012210745 METAR LIRA 210745Z 11007KT 9999 FEW020 BKN035 11/09 Q1014=
201012210715 METAR LIRA 210715Z 10005KT 9999 FEW020 BKN035 11/09 Q1014=
201012210645 METAR LIRA 210645Z 11003KT 8000 FEW016 BKN030 11/10 Q1014=
201012210615 METAR LIRA 210615Z 12003KT 8000 FEW016 SCT030 11/10 Q1013=
201012210545 METAR LIRA 210545Z 11004KT 8000 FEW016 SCT030 11/10 Q1013=
201012210515 METAR LIRA 210515Z 14004KT 8000 FEW016 SCT030 11/10 Q1013=
201012210445 METAR LIRA 210445Z 14004KT 8000 FEW016 BKN060 10/09 Q1013=
201012210415 METAR LIRA 210415Z 14003KT 8000 FEW016 BKN060 10/09 Q1013=
201012210345 METAR LIRA 210345Z 17003KT 7000 SCT016 SCT070 10/09 Q1013=
201012210315 METAR LIRA 210315Z 15004KT 7000 FEW016 BKN070 11/10 Q1013=
201012210245 METAR LIRA 210245Z 17003KT 6000 FEW009 SCT070 12/11 Q1013=
201012210215 METAR LIRA 210215Z 14004KT 6000 FEW009 SCT070 11/10 Q1013=
201012210145 METAR LIRA 210145Z 14003KT 6000 FEW009 SCT070 11/10 Q1013=
201012210115 METAR LIRA 210115Z 17003KT 5000 BR FEW009 BKN025 10/10 Q1013=
201012210045 METAR LIRA 210045Z 17002KT 5000 BR FEW009 BKN025 10/09 Q1013=
201012210015 METAR LIRA 210015Z 15002KT 4000 BR SCT009 BKN025 11/10 Q1013=
201012202350 METAR LIRA 210045Z 17002KT 5000 BR FEW009 BKN025 10/09 Q1013=
201012202345 METAR LIRA 202345Z 17003KT 4000 BR SCT008 BKN025 11/10 Q1013=
201012202315 METAR LIRA 202315Z 14002KT 3000 BR SCT007 BKN025 11/10 Q1013=
201012202245 METAR LIRA 202245Z 23001KT 3000 BR SCT007 BKN025 11/10 Q1013=
201012202215 METAR LIRA 202215Z 25003KT 240V300 6000 SCT009 BKN025 12/11
                        Q1013=
201012202145 METAR LIRA 202145Z 15005KT 6000 SCT009 BKN025 12/11 Q1012=
201012202115 METAR LIRA 202115Z 19004KT 5000 BR SCT009 BKN025 12/11 Q1012=
201012202045 METAR LIRA 202045Z 15004KT 5000 BR SCT008 SCT025 12/11 Q1012=
201012202015 METAR LIRA 202015Z 22003KT 5000 BR SCT008 SCT025 12/11 Q1012=
201012201945 METAR LIRA 201945Z 18001KT 5000 BR SCT008 SCT025 12/11 Q1012=
201012201915 METAR LIRA 201915Z 18001KT 4000 -DZ BR SCT008 BKN025 12/11
                        Q1011=
201012201845 METAR LIRA 201845Z 22002KT 4000 -DZ BR SCT008 BKN025 12/11
                        Q1011=
201012201815 METAR LIRA 201815Z 21003KT 4000 -DZ BR BKN007 SCT025 12/11
                        Q1011=
201012201745 METAR LIRA 201745Z 00000KT 5000 BR SCT009 BKN027 12/11 Q1011=
201012201715 METAR LIRA 201715Z 00000KT 5000 BR SCT009 BKN027 13/12 Q1010=
201012201645 METAR LIRA 201645Z 00000KT 6000 FEW012 SCT030 13/12 Q1010=
201012201615 METAR LIRA 201615Z 08003KT 5000 BR FEW012 SCT030 13/12 Q1010=
201012201545 METAR LIRA 201545Z 17002KT 7000 SCT013 SCT030 14/12 Q1010=
201012201515 METAR LIRA 201515Z 20003KT 8000 FEW013 SCT035 14/12 Q1010=
201012201445 METAR LIRA 201445Z 19004KT 8000 FEW013 SCT035 14/12 Q1010=
201012201415 METAR LIRA 201415Z 22004KT 9000 FEW015 SCT018 14/12 Q1009=
201012201345 METAR LIRA 201345Z 19004KT 8000 FEW015 BKN030 14/12 Q1009=
201012201315 METAR LIRA 201315Z 18005KT 8000 FEW015 BKN030 14/12 Q1009=
201012201245 METAR LIRA 201245Z 32002KT 8000 FEW015 BKN030 14/12 Q1009=
201012201215 METAR LIRA 201215Z 34001KT 8000 FEW015 BKN030 14/12 Q1009=
201012201145 METAR LIRA 201145Z 32001KT 8000 FEW015 SCT030 14/12 Q1009=
201012201115 METAR LIRA 201115Z 00000KT 8000 -RA SCT018 SCT025 13/12 Q1009=
201012201045 METAR LIRA 201045Z 30002KT 8000 -RA SCT018 SCT025 13/11 Q1009=
201012201015 METAR LIRA 201015Z 01002KT 8000 -RA SCT018 SCT025 13/11 Q1009=
201012200945 METAR LIRA 200945Z 10002KT 8000 -RA SCT018 SCT025 13/11 Q1009=
201012200915 METAR LIRA 200915Z 12002KT 8000 -RA SCT018 SCT025 13/12 Q1009=
201012200845 METAR LIRA 200845Z 10002KT 8000 -DZ FEW018 SCT025 13/11 Q1008=
201012200815 METAR LIRA 200815Z 12003KT 8000 -DZ FEW010 SCT025 13/11 Q1008=
201012200745 METAR LIRA 200745Z 14004KT 080V190 8000 FEW010 SCT018 12/11
                        Q1007=
201012200715 METAR LIRA 200715Z 16005KT 8000 -DZ SCT017 SCT025 12/11 Q1007=
201012200645 METAR LIRA 200645Z 17005KT 8000 -DZ SCT017 SCT030 12/11 Q1007=
201012200615 METAR LIRA 200615Z 16006KT 140V200 7000 -DZ FEW005 SCT018
                        12/11 Q1007=
201012200545 METAR LIRA 200545Z 15010KT 130V190 7000 -DZ FEW005 SCT030
                        12/11 Q1007=
201012200515 METAR LIRA 200515Z 14011KT 7000 -DZ FEW005 SCT030 12/10 Q1006=
201012200445 METAR LIRA 200445Z 14011KT 9999 -DZ SCT015 BKN030 12/10 Q1006=
201012200415 METAR LIRA 200415Z 15012KT 120V180 9999 -DZ SCT015 BKN030
                        12/09 Q1006=
201012200345 METAR LIRA 200345Z 15012KT 9999 -DZ SCT015 SCT025 12/10 Q1006=
201012200315 METAR LIRA 200315Z 14014KT 9999 SCT015 SCT025 12/10 Q1006=
201012200245 METAR LIRA 200245Z 15014KT 9999 SCT015 SCT025 11/09 Q1006=
201012200215 METAR LIRA 200215Z 15012KT 9999 -DZ FEW015 SCT025 11/09 Q1006=
201012200145 METAR LIRA 200145Z 15015KT 9999 -DZ SCT025 SCT070 11/10 Q1006=
201012200115 METAR LIRA 200115Z 15015KT 9999 -DZ SCT025 SCT070 11/10 Q1006=
201012200045 METAR LIRA 200045Z 14015KT 120V180 9999 -DZ SCT025 BKN070
                        11/09 Q1006=
201012200015 METAR LIRA 200015Z 15015KT 9999 -DZ SCT025 SCT070 12/10 Q1006=
201012192350 METAR LIRA 200045Z 14015KT 120V180 9999 -DZ SCT025 BKN070
                        11/09 Q1006=
201012192345 METAR LIRA 192345Z 15012KT 100V180 9999 -DZ SCT025 SCT070
                        12/10 Q1006=
201012192315 METAR LIRA 192315Z 27003KT 160V340 9999 -DZ SCT025 SCT070
                        11/08 Q1006=
201012192245 METAR LIRA 192245Z 12008KT 060V140 9999 -DZ SCT025 SCT070
                        12/08 Q1006=
201012192215 METAR LIRA 192215Z 12012KT 100V160 9999 -DZ SCT025 BKN070
                        12/08 Q1006=
201012192145 METAR LIRA 192145Z 13013KT 9999 -DZ SCT025 SCT070 12/07 Q1007=
201012192115 METAR LIRA 192115Z 12012KT 090V150 9999 -DZ SCT025 BKN070
                        11/06 Q1007=
201012192045 METAR LIRA 192045Z 13013KT 9999 -DZ SCT030 BKN070 11/07 Q1007=
201012192015 METAR LIRA 192015Z 14013KT 100V170 9999 -DZ BKN030 BKN070
                        11/06 Q1007=
201012191945 METAR LIRA 191945Z 02003KT 9999 -DZ SCT025 SCT070 09/04 Q1007=
201012191915 METAR LIRA 191915Z 34003KT 9999 -DZ SCT030 BKN070 09/04 Q1007=
201012191845 METAR LIRA 191845Z 06002KT 9999 -DZ SCT025 BKN070 09/03 Q1007=
201012191815 METAR LIRA 191815Z 09008KT 9999 -DZ SCT025 SCT070 09/02 Q1007=
201012191745 METAR LIRA 191745Z 07010KT 020V120 9999 -DZ SCT025 SCT070
                        09/02 Q1007=
201012191715 METAR LIRA 191715Z 08010KT 040V120 9999 -DZ SCT025 SCT070
                        09/03 Q1007=
201012191645 METAR LIRA 191645Z 07010KT 030V100 9999 SCT030 BKN070 08/02
                        Q1007=
201012191615 METAR LIRA 191615Z 04007KT 360V070 9999 SCT030 BKN070 08/01
                        Q1007=
201012191545 METAR LIRA 191545Z 06007KT 030V130 9999 SCT030 BKN070 08/01
                        Q1008=
201012191515 METAR LIRA 191515Z 07006KT 9999 FEW021 SCT030 BKN070 08/01
                        Q1008=
201012191445 METAR LIRA 191445Z 07010KT 050V120 9999 FEW021 SCT030 BKN070
                        08/01 Q1008=
201012191415 METAR LIRA 191415Z 08008KT 050V110 9999 -RA FEW021 SCT030
                        BKN070 08/01 Q1008=
201012191345 METAR LIRA 191345Z 08007KT 9999 -RA SCT021 SCT030 BKN070
                        08/02 Q1008=
201012191315 METAR LIRA 191315Z 08007KT 050V120 9999 -RA FEW021 SCT030
                        BKN070 08/02 Q1008=
201012191245 METAR LIRA 191245Z 09009KT 9999 -RA FEW021 SCT030 BKN070
                        08/02 Q1009=
201012191215 METAR LIRA 191215Z 10009KT 9999 -RA FEW018 SCT025 BKN070
                        08/02 Q1009=
201012191145 METAR LIRA 191145Z 36002KT 9999 -RA FEW018 SCT025 BKN070
                        09/00 Q1010=
201012191115 METAR LIRA 191115Z 01002KT 9999 FEW030 SCT070 09/M01 Q1010=
201012191045 METAR LIRA 191045Z 04003KT 9999 FEW030 SCT070 09/M01 Q1010=
201012191015 METAR LIRA 191015Z 06003KT 9999 FEW030 SCT070 08/M01 Q1010=
201012190945 METAR LIRA 190945Z 04003KT CAVOK 08/M00 Q1010=
201012190915 METAR LIRA 190915Z 35002KT CAVOK 05/M01 Q1010=
201012190845 METAR LIRA 190845Z 01003KT CAVOK 04/M03 Q1010=
201012190815 METAR LIRA 190815Z 01003KT CAVOK 03/M03 Q1010=
201012190745 METAR LIRA 190745Z 02004KT CAVOK 03/M03 Q1010=
201012190715 METAR LIRA 190715Z 06006KT CAVOK 02/M04 Q1010=
201012190645 METAR LIRA 190645Z 06005KT CAVOK 02/M04 Q1010=
201012190615 METAR LIRA 190615Z 09008KT CAVOK 01/M04 Q1010=
201012190545 METAR LIRA 190545Z 08002KT CAVOK 01/M04 Q1010=
201012190515 METAR LIRA 190515Z 06002KT CAVOK 01/M04 Q1010=
201012190445 METAR LIRA 190445Z 36003KT CAVOK 01/M05 Q1010=
201012190415 METAR LIRA 190415Z 10010KT CAVOK 02/M04 Q1010=
201012190345 METAR LIRA 190345Z 11009KT CAVOK 03/M04 Q1010=
201012190315 METAR LIRA 190315Z 10011KT CAVOK 03/M03 Q1010=
201012190245 METAR LIRA 190245Z 10010KT CAVOK 03/M02 Q1010=
201012190215 METAR LIRA 190215Z 09008KT 040V120 CAVOK 02/M01 Q1010=
201012190145 METAR LIRA 190145Z 07002KT CAVOK 00/M03 Q1010=
201012190115 METAR LIRA 190115Z 09004KT CAVOK 02/M03 Q1010=
201012190045 METAR LIRA 190045Z 10008KT CAVOK 02/M03 Q1010=
201012190015 METAR LIRA 190015Z 09002KT CAVOK 00/M02 Q1009=
201012182350 METAR LIRA 190045Z 10008KT CAVOK 02/M03 Q1010=
201012182345 METAR LIRA 182345Z 00000KT CAVOK 00/M03 Q1009=
201012182315 METAR LIRA 182315Z 07001KT 9999 FEW004 01/M01 Q1009=
201012182245 METAR LIRA 182245Z 07002KT 9999 FEW004 01/M00 Q1009=
201012182215 METAR LIRA 182215Z 05006KT 310V070 9999 FEW004 01/M00 Q1009=
201012182145 METAR LIRA 182145Z 04006KT 9999 FEW004 02/M00 Q1009=
201012182115 METAR LIRA 182115Z 03004KT 9999 FEW004 02/00 Q1009=
201012182045 METAR LIRA 182045Z 03003KT 9999 FEW004 02/00 Q1008=
201012182015 METAR LIRA 182015Z 35003KT 9999 FEW004 03/00 Q1008=
201012181945 METAR LIRA 181945Z 10005KT 9999 FEW030 03/00 Q1007=
201012181915 METAR LIRA 181915Z 08003KT 9999 FEW030 03/M00 Q1007=
201012181845 METAR LIRA 181845Z 07003KT 9999 FEW030 04/M01 Q1006=
201012181815 METAR LIRA 181815Z 00000KT 9999 FEW030 04/M01 Q1006=
201012181745 METAR LIRA 181745Z 25002KT 9999 FEW020 05/M00 Q1005=
201012181715 METAR LIRA 181715Z 19002KT 9999 FEW020 06/01 Q1004=
201012181645 METAR LIRA 181645Z 22003KT 9999 FEW020 SCT030 07/01 Q1004=
201012181615 METAR LIRA 181615Z 21004KT 9999 FEW020 SCT030 07/01 Q1003=
201012181545 METAR LIRA 181545Z 18004KT 9999 FEW020 08/02 Q1003=
201012181515 METAR LIRA 181515Z 18003KT 9999 FEW020 08/01 Q1002=
201012181445 METAR LIRA 181445Z 21003KT 9999 FEW017 08/01 Q1002=
201012181415 METAR LIRA 181415Z 18005KT 9999 SCT017 08/01 Q1001=
201012181345 METAR LIRA 181345Z 14003KT 9999 FEW018 SCT025 09/02 Q1001=
201012181315 METAR LIRA 181315Z 11002KT 9999 SCT017 SCT025 08/02 Q1001=
201012181245 METAR LIRA 181245Z 06004KT 9999 SCT017 08/02 Q1001=
201012181215 METAR LIRA 181215Z 01005KT 300V060 9999 SCT017 08/01 Q1001=
201012181145 METAR LIRA 181145Z 35006KT 300V030 9999 SCT017 08/01 Q1001=
201012181115 METAR LIRA 181115Z 03003KT 9999 SCT017 SCT025 08/02 Q1001=
201012181045 METAR LIRA 181045Z 01003KT 9999 SCT017 08/03 Q1001=
201012181015 METAR LIRA 181015Z 26004KT 9999 SCT017 08/03 Q0999=
201012180945 METAR LIRA 180945Z 04005KT 340V060 9999 SCT017 07/04 Q0999=
201012180915 METAR LIRA 180915Z 05005KT 340V090 9999 SCT017 07/04 Q0999=
201012180845 METAR LIRA 180845Z 01004KT 340V050 9999 SCT017 06/04 Q0998=
201012180815 METAR LIRA 180815Z 05002KT 9999 SCT015 SCT020 06/04 Q0998=
201012180745 METAR LIRA 180745Z 02001KT 9999 SCT015 SCT022 05/03 Q0998=
201012180715 METAR LIRA 180715Z 12003KT 9999 SCT015 FEW020CB SCT022 04/03
                        Q0997=
201012180645 METAR LIRA 180645Z 17002KT 9999 -RA SCT015 FEW020CB BKN022
                        04/03 Q0997=
201012180615 METAR LIRA 180615Z 14005KT 290V020 9999 -RA SCT015 FEW020CB
                        BKN022 04/03 Q0996=
201012180545 METAR LIRA 180545Z 10003KT 040V140 9999 FEW015 FEW020TCU
                        SCT022 05/03 Q0996=
201012180515 METAR LIRA 180515Z 11007KT 9999 FEW015 SCT020 05/03 Q0996=
201012180445 METAR LIRA 180445Z 07006KT 030V100 9000 -RA FEW014TCU SCT020
                        05/03 Q0996=
201012180415 METAR LIRA 180415Z 06005KT 020V100 7000 -RA FEW012TCU SCT020
                        05/03 Q0995=
201012180345 METAR LIRA 180345Z 05005KT 020V080 9999 -RA FEW015TCU SCT025
                        05/04 Q0995=
201012180315 METAR LIRA 180315Z 01005KT 310V060 9999 -RA FEW015TCU SCT025
                        06/04 Q0995=
201012180245 METAR LIRA 180245Z 31008KT 290V360 9999 -RA FEW015CB SCT025
                        07/05 Q0994 RETS=
201012180215 METAR LIRA 180215Z 19007KT 150V250 9999 -RA FEW015CB SCT025
                        08/07 Q0995 RETS=
201012180145 METAR LIRA 180145Z 17008KT 9000 -TSRA FEW014CB SCT020 BKN070
                        08/06 Q0995=
201012180115 METAR LIRA 180115Z 19008KT 130V260 6000 -TSRA FEW014CB SCT020
                        BKN070 07/06 Q0995=
201012180045 METAR LIRA 180045Z 13003KT 6000 -TSRA FEW014CB SCT020 BKN070
                        07/05 Q0995=
201012180015 METAR LIRA 180015Z 19005KT 150V240 6000 -TSRA FEW014CB SCT020
                        BKN070 07/05 Q0995=
201012172350 METAR LIRA 180045Z 13003KT 6000 -TSRA FEW014CB SCT020 BKN070
                        07/05 Q0995=
201012172345 METAR LIRA 172345Z 27009KT 220V320 6000 -TSRA FEW014CB SCT020
                        BKN070 07/06 Q0995=
201012172315 METAR LIRA 172315Z /////KT 6000 -TSRA FEW014CB SCT020 BKN070
                        07/05 Q0995=
201012172245 METAR LIRA 172245Z 22010G29KT 150V260 6000 -TSRA FEW014CB
                        SCT020 BKN070 08/07 Q0995=
201012172215 METAR LIRA 172215Z 22012KT 170V260 8000 -TSRA FEW014CB SCT020
                        BKN070 08/06 Q0996=
201012172145 METAR LIRA 172145Z 02009KT 310V060 8000 TSRA FEW014CB SCT020
                        BKN070 05/03 Q0996=
201012172115 METAR LIRA 172115Z 10005KT 130V210 8000 TSRA FEW014CB SCT020
                        BKN070 07/05 Q0996=
201012172045 METAR LIRA 172045Z 16015KT 130V190 7000 TSRA FEW007CB SCT020
                        07/06 Q0996=
201012172015 METAR LIRA 172015Z 16010KT 130V210 6000 TSRA FEW007CB BKN020
                        BKN060 06/04 Q0997=
201012171945 METAR LIRA 171945Z 15010KT 5000 TSRA BR SCT007CB SCT020 BKN060
                        05/04 Q0998=
201012171915 METAR LIRA 171915Z 19007KT 130V300 5000 TSRA BR SCT007CB
                        SCT020 BKN060 05/04 Q0999=
201012171845 METAR LIRA 171845Z 18007KT 150V220 5000 RA SCT007 SCT018
                        BKN060 05/04 Q0999=
201012171815 METAR LIRA 171815Z 18003KT 7000 -RA SCT007 SCT020 BKN070
                        05/04 Q0999=
201012171745 METAR LIRA 171745Z 17008KT 130V230 7000 -RA SCT007 SCT020
                        BKN070 05/04 Q0999=
201012171715 METAR LIRA 171715Z 15013KT 7000 -RA SCT007 SCT023 BKN070
                        05/03 Q1000=
201012171645 METAR LIRA 171645Z 17009KT 130V230 7000 -RA SCT007 FEW018CB
                        SCT023 05/04 Q1000=
201012171615 METAR LIRA 171615Z 16014KT 6000 -RA SCT007 FEW018CB SCT023
                        05/03 Q1000=
201012171545 METAR LIRA 171545Z 15015KT 6000 -RA SCT007 FEW015CB SCT023
                        04/03 Q1000=
201012171515 METAR LIRA 171515Z 15019KT 6000 -RA SCT007 FEW015CB SCT025
                        04/02 Q1001=
201012171445 METAR LIRA 171445Z 16016KT 130V200 3500 RA BR SCT007 FEW015CB
                        BKN070 04/02 Q1001=
201012171415 METAR LIRA 171415Z 14015KT 6000 -RA FEW015CB SCT025 BKN070
                        03/01 Q1001=
201012171345 METAR LIRA 171345Z 12007KT 360V180 6000 -RA FEW015 SCT025
                        BKN070 02/01 Q1002 RESN=
201012171315 METAR LIRA 171315Z 16012KT 110V200 8000 -RA SCT025 BKN060
                        03/M03 Q1003 RESN=
201012171245 METAR LIRA 171245Z 15012KT 090V200 7000 -SN SCT009 BKN060
                        03/M06 Q1004=
201012171215 METAR LIRA 171215Z 32003KT 8000 SCT023 BKN070 02/M08 Q1004=
201012171145 METAR LIRA 171145Z 31002KT 8000 SCT027 BKN070 01/M09 Q1005=
201012171115 METAR LIRA 171115Z 01003KT 9999 FEW040 BKN080 02/M08 Q1005=
201012171045 METAR LIRA 171045Z 06005KT 9999 FEW040 OVC080 03/M10 Q1007=
201012171015 METAR LIRA 171015Z 16009KT 9999 FEW040 OVC080 02/M11 Q1007=
201012170945 METAR LIRA 170945Z 18006KT 140V230 9999 SCT040 BKN070 00/M07
                        Q1007=
201012170915 METAR LIRA 170915Z 18004KT 9999 SCT040 BKN070 02/M02 Q1007=
201012170845 METAR LIRA 170845Z 23002KT CAVOK M03/M06 Q1007=
201012170815 METAR LIRA 170815Z 09002KT 9999 BKN080 M03/M07 Q1007=
201012170745 METAR LIRA 170745Z 31003KT CAVOK M04/M07 Q1007=
201012170715 METAR LIRA 170715Z 04004KT CAVOK M05/M07 Q1008=
201012170645 METAR LIRA 170645Z 05004KT CAVOK M06/M08 Q1008=
201012170615 METAR LIRA 170615Z 05005KT CAVOK M06/M08 Q1008=
201012170545 METAR LIRA 170545Z 34003KT CAVOK M05/M07 Q1008=
201012170515 METAR LIRA 170515Z 31002KT CAVOK M05/M07 Q1007=
201012170445 METAR LIRA 170445Z 05004KT CAVOK M05/M07 Q1007=
201012170415 METAR LIRA 170415Z 36003KT CAVOK M05/M07 Q1008=
201012170345 METAR LIRA 170345Z 03003KT CAVOK M05/M07 Q1008=
201012170315 METAR LIRA 170315Z 04004KT CAVOK M04/M07 Q1008=
201012170245 METAR LIRA 170245Z 34001KT CAVOK M04/M07 Q1008=
201012170215 METAR LIRA 170215Z 03004KT CAVOK M04/M07 Q1008=
201012170145 METAR LIRA 170145Z 01006KT 330V040 CAVOK M04/M07 Q1008=
201012170115 METAR LIRA 170115Z 02007KT 350V070 CAVOK M03/M06 Q1008=
201012170045 METAR LIRA 170045Z 04006KT 360V070 CAVOK M03/M06 Q1008=
201012170015 METAR LIRA 170015Z 03005KT 360V060 CAVOK M03/M07 Q1008=
201012162350 METAR LIRA 170045Z 04006KT 360V070 CAVOK M03/M06 Q1008=
201012162345 METAR LIRA 162345Z 04004KT CAVOK M03/M07 Q1008=
201012162315 METAR LIRA 162315Z 35006KT 310V040 CAVOK M03/M07 Q1008=
201012162245 METAR LIRA 162245Z 36007KT 300V060 CAVOK M02/M08 Q1008=
201012162215 METAR LIRA 162215Z 34006KT 310V010 CAVOK M02/M08 Q1008=
201012162145 METAR LIRA 162145Z 01006KT 300V050 CAVOK M02/M08 Q1008=
201012162115 METAR LIRA 162115Z 36007KT 310V050 CAVOK M01/M08 Q1008=
201012162045 METAR LIRA 162045Z 35006KT 300V060 CAVOK M01/M09 Q1008=
201012162015 METAR LIRA 162015Z 35008KT 290V070 CAVOK M01/M09 Q1008=
201012161945 METAR LIRA 161945Z 35008KT 290V040 CAVOK M01/M10 Q1008=
201012161915 METAR LIRA 161915Z 35008KT 300V050 CAVOK M01/M10 Q1008=
201012161845 METAR LIRA 161845Z 35008KT 300V080 CAVOK M00/M10 Q1008=
201012161815 METAR LIRA 161815Z 35008KT 310V050 CAVOK 00/M10 Q1007=
201012161745 METAR LIRA 161745Z 35008KT 290V040 CAVOK 00/M10 Q1007=
201012161715 METAR LIRA 161715Z 34011KT 290V020 CAVOK 01/M11 Q1007=
201012161645 METAR LIRA 161645Z 34012KT 290V030 CAVOK 01/M11 Q1007=
201012161615 METAR LIRA 161615Z 33013KT 290V010 CAVOK 02/M12 Q1007=
201012161545 METAR LIRA 161545Z 33012KT 290V360 9999 FEW070 02/M12 Q1007=
201012161515 METAR LIRA 161515Z 33011KT 300V010 9999 FEW020 04/M10 Q1007=
201012161445 METAR LIRA 161445Z 33010KT 290V010 9999 FEW020 04/M10 Q1007=
201012161415 METAR LIRA 161415Z 32011KT 290V360 9999 FEW020 05/M10 Q1007=
201012161345 METAR LIRA 161345Z 33009KT 280V020 9999 FEW020 05/M09 Q1007=
201012161315 METAR LIRA 161315Z 34007KT 300V030 9999 FEW020 FEW022TCU
                        05/M10 Q1007=
201012161245 METAR LIRA 161245Z 35007KT 290V080 9999 FEW020 05/M09 Q1007=
201012161145 METAR LIRA 161145Z 35008KT 300V050 9999 FEW020 04/M09 Q1008=
201012161115 METAR LIRA 161115Z 36008KT 300V070 9999 FEW025 SCT070 04/M09
                        Q1008=
201012161045 METAR LIRA 161045Z 01007KT 300V060 9999 FEW020 SCT080 04/M08
                        Q1008=
201012161015 METAR LIRA 161015Z 36010KT 310V060 9999 FEW080 03/M07 Q1009=
201012160945 METAR LIRA 160945Z 02006KT 310V070 9999 FEW080 03/M05 Q1009=
201012160915 METAR LIRA 160915Z 02005KT 340V070 9999 FEW080 02/M04 Q1009=
201012160845 METAR LIRA 160845Z 03005KT 340V080 9999 FEW070 00/M05 Q1009=
201012160815 METAR LIRA 160815Z 04006KT 360V080 9999 FEW070 M01/M05 Q1009=
201012160745 METAR LIRA 160745Z 05005KT 9999 FEW070 M01/M05 Q1009=
201012160715 METAR LIRA 160715Z 05006KT 360V070 9999 FEW070 M03/M05 Q1009=
201012160645 METAR LIRA 160645Z 04006KT 360V090 9999 FEW070 M03/M05 Q1009=
201012160615 METAR LIRA 160615Z 04006KT 350V090 9999 FEW070 M03/M06 Q1009=
201012160545 METAR LIRA 160545Z 04006KT 350V070 9999 FEW070 M03/M06 Q1009=
201012160515 METAR LIRA 160515Z 05006KT 9999 FEW070 M03/M06 Q1009=
201012160445 METAR LIRA 160445Z 03005KT 9999 FEW070 M03/M06 Q1009=
201012160415 METAR LIRA 160415Z 04005KT 9999 FEW070 M03/M06 Q1009=
201012160345 METAR LIRA 160345Z 06004KT 9999 FEW070 M03/M06 Q1009=
201012160315 METAR LIRA 160315Z 01004KT 9999 FEW070 M02/M06 Q1009=
201012160245 METAR LIRA 160245Z 01005KT 9999 FEW070 M02/M06 Q1010=
201012160215 METAR LIRA 160215Z 02005KT 9999 FEW070 M02/M06 Q1010=
201012160145 METAR LIRA 160145Z 36006KT 300V040 9999 FEW070 M01/M06 Q1010=
201012160115 METAR LIRA 160115Z 36006KT 330V030 CAVOK M01/M07 Q1010=
201012160045 METAR LIRA 160045Z 36006KT 330V060 CAVOK M01/M06 Q1010=
201012160015 METAR LIRA 160015Z 36007KT 320V030 CAVOK M00/M07 Q1011=
201012152350 METAR LIRA 160045Z 36006KT 330V060 CAVOK M01/M06 Q1010=
201012152345 METAR LIRA 152345Z 35006KT 310V030 CAVOK 00/M06 Q1011=
201012152315 METAR LIRA 152315Z 01006KT 330V060 9999 FEW020 00/M06 Q1011=
201012152245 METAR LIRA 152245Z 36006KT 300V050 9999 FEW020 00/M07 Q1011=
201012152215 METAR LIRA 152215Z 01005KT 320V070 9999 FEW030 00/M07 Q1011=
201012152145 METAR LIRA 152145Z 02005KT 340V070 CAVOK 00/M07 Q1011=
201012152115 METAR LIRA 152115Z 02007KT 330V090 CAVOK 00/M06 Q1011=
201012152045 METAR LIRA 152045Z 03005KT 350V090 CAVOK 00/M07 Q1011=
201012152015 METAR LIRA 152015Z 05006KT CAVOK 01/M07 Q1011=
201012151945 METAR LIRA 151945Z 06005KT 360V120 CAVOK 02/M06 Q1011=
201012151915 METAR LIRA 151915Z 09009KT 040V150 CAVOK 02/M06 Q1011=
201012151845 METAR LIRA 151845Z 36002KT CAVOK 01/M07 Q1011=
201012151815 METAR LIRA 151815Z 11011KT CAVOK 02/M06 Q1010=
201012151745 METAR LIRA 151745Z 02003KT CAVOK 01/M07 Q1010=
201012151715 METAR LIRA 151715Z 07004KT CAVOK 02/M06 Q1010=
201012151645 METAR LIRA 151645Z 14003KT CAVOK 01/M08 Q1010=
201012151615 METAR LIRA 151615Z 00000KT 9999 FEW080 04/M09 Q1010=
201012151545 METAR LIRA 151545Z 01003KT 9999 FEW080 05/M09 Q1010=
201012151515 METAR LIRA 151515Z 36005KT 9999 FEW080 06/M09 Q1010=
201012151445 METAR LIRA 151445Z 36005KT 320V030 9999 FEW080 06/M09 Q1010=
201012151415 METAR LIRA 151415Z 35004KT 9999 FEW080 06/M09 Q1010=
201012151345 METAR LIRA 151345Z 36004KT 330V040 9999 FEW020 06/M09 Q1011=
201012151315 METAR LIRA 151315Z 35005KT 300V040 9999 FEW080 06/M09 Q1011=
201012151245 METAR LIRA 151245Z 36006KT 290V050 9999 FEW080 06/M09 Q1011=
201012151215 METAR LIRA 151215Z 01007KT 320V090 9999 FEW080 06/M09 Q1012=
201012151145 METAR LIRA 151145Z 03007KT 320V090 9999 FEW080 06/M09 Q1012=
201012151115 METAR LIRA 151115Z 03009KT 340V080 9999 FEW080 05/M09 Q1012=
201012151045 METAR LIRA 151045Z 02008KT 320V070 9999 FEW025 SCT060 05/M09
                        Q1012=
201012151015 METAR LIRA 151015Z 02009KT 310V090 9999 FEW030 SCT060 05/M08
                        Q1013=
201012150945 METAR LIRA 150945Z 03008KT 330V080 9999 FEW035 SCT080 04/M06
                        Q1013=
201012150915 METAR LIRA 150915Z 02006KT 310V090 9999 FEW035 SCT080 04/M09
                        Q1013=
201012150845 METAR LIRA 150845Z 03008KT 330V070 9999 FEW080 03/M08 Q1013=
201012150815 METAR LIRA 150815Z 03007KT 330V090 9999 FEW025 02/M07 Q1013=
201012150745 METAR LIRA 150745Z 02005KT 330V070 9999 FEW080 01/M06 Q1013=
201012150715 METAR LIRA 150715Z 03008KT 330V090 9999 FEW080 00/M06 Q1013=
201012150645 METAR LIRA 150645Z 36005KT 320V060 9999 SCT020 SCT035 00/M06
                        Q1013=
201012150615 METAR LIRA 150615Z 02006KT 330V070 9999 FEW025 SCT035 00/M06
                        Q1013=
201012150545 METAR LIRA 150545Z 02004KT 340V060 9999 BKN070 00/M06 Q1013=
201012150515 METAR LIRA 150515Z 01007KT 320V040 9999 FEW020 BKN070 M00/M06
                        Q1013=
201012150445 METAR LIRA 150445Z 00006KT 9999 FEW070 M01/M06 Q1014=
201012150415 METAR LIRA 150415Z 03005KT 9999 FEW070 M01/M06 Q1014=
201012150345 METAR LIRA 150345Z 05005KT 350V070 9999 FEW070 M01/M05 Q1014=
201012150315 METAR LIRA 150315Z 04004KT 350V070 9999 FEW070 01/M03 Q1014=
201012150245 METAR LIRA 150245Z 02003KT 9999 FEW070 M01/M05 Q1015=
201012150215 METAR LIRA 150215Z 02003KT 9999 FEW070 M01/M05 Q1015=
201012150145 METAR LIRA 150145Z 01003KT 9999 FEW070 M01/M05 Q1015=
201012150115 METAR LIRA 150115Z 35002KT 9999 FEW070 M01/M05 Q1015=
201012150045 METAR LIRA 150045Z 01002KT 9999 FEW070 M01/M05 Q1015=
201012150015 METAR LIRA 150015Z 36005KT 310V030 9999 FEW070 M00/M06 Q1015=
201012142350 METAR LIRA 150045Z 01002KT 9999 FEW070 M01/M05 Q1015=
201012142345 METAR LIRA 142345Z 36004KT 320V040 9999 FEW070 M00/M06 Q1015=
201012142315 METAR LIRA 142315Z 01006KT 330V040 9999 SCT070 M00/M06 Q1016=
201012142245 METAR LIRA 142245Z 02006KT 9999 SCT070 M00/M06 Q1016=
201012142215 METAR LIRA 142215Z 36004KT 330V040 9999 SCT070 M00/M06 Q1016=
201012142145 METAR LIRA 142145Z 01005KT 330V060 9999 SCT070 00/M07 Q1015=
201012142115 METAR LIRA 142115Z 01004KT 9999 SCT070 00/M08 Q1015=
201012142045 METAR LIRA 142045Z 03004KT 9999 SCT070 00/M08 Q1015=
201012142015 METAR LIRA 142015Z 01004KT 9999 FEW070 01/M09 Q1015=
201012141945 METAR LIRA 141945Z 03005KT 9999 FEW070 01/M10 Q1015=
201012141915 METAR LIRA 141915Z 01004KT 320V050 9999 FEW070 01/M11 Q1015=
201012141845 METAR LIRA 141845Z 03005KT 9999 FEW070 02/M11 Q1015=
201012141815 METAR LIRA 141815Z 03005KT 9999 FEW070 02/M11 Q1015=
201012141745 METAR LIRA 141745Z 36003KT 9999 FEW070 03/M11 Q1015=
201012141715 METAR LIRA 141715Z 04004KT 9999 FEW070 04/M10 Q1015=
201012141645 METAR LIRA 141645Z 36003KT 9999 FEW080 03/M13 Q1014=
201012141615 METAR LIRA 141615Z 35004KT 9999 FEW080 03/M13 Q1014=
201012141545 METAR LIRA 141545Z 36004KT 9999 FEW018 04/M13 Q1014=
201012141515 METAR LIRA 141515Z 35003KT 9999 FEW018 06/M13 Q1014=
201012141445 METAR LIRA 141445Z 33005KT 9999 FEW018 07/M13 Q1014=
201012141415 METAR LIRA 141415Z 34003KT 9999 FEW018 07/M13 Q1014=
201012141345 METAR LIRA 141345Z 34006KT 9999 FEW018 07/M12 Q1014=
201012141315 METAR LIRA 141315Z 02005KT 330V060 9999 FEW018 07/M11 Q1014=
201012141245 METAR LIRA 141245Z 35004KT 300V030 9999 FEW018 07/M11 Q1014=
201012141215 METAR LIRA 141215Z 05006KT 340V090 9999 FEW018 07/M08 Q1014=
201012141145 METAR LIRA 141145Z 01005KT 300V060 9999 FEW018 06/M08 Q1014=
201012141115 METAR LIRA 141115Z 02008KT 330V080 9999 FEW018 06/M08 Q1014=
201012141045 METAR LIRA 141045Z 01006KT 310V070 9999 FEW018 05/M07 Q1014=
201012141015 METAR LIRA 141015Z 02006KT 320V080 9999 FEW018 05/M07 Q1014=
201012140945 METAR LIRA 140945Z 01009KT 310V050 9999 FEW080 04/M06 Q1014=
201012140915 METAR LIRA 140915Z 36006KT 310V060 CAVOK 02/M06 Q1014=
201012140845 METAR LIRA 140845Z 34007KT 310V020 9999 FEW018 02/M06 Q1014=
201012140815 METAR LIRA 140815Z 02004KT 9999 FEW018 SCT080 01/M05 Q1014=
201012140745 METAR LIRA 140745Z 01005KT 320V060 9999 FEW018 SCT080 01/M06
                        Q1013=
201012140715 METAR LIRA 140715Z 01004KT 9999 FEW018 SCT080 01/M05 Q1013=
201012140645 METAR LIRA 140645Z 03004KT 9999 FEW018 SCT080 01/M05 Q1013=
201012140615 METAR LIRA 140615Z 04004KT 9999 FEW018 SCT080 01/M05 Q1013=
201012140545 METAR LIRA 140545Z 02004KT 340V050 9999 FEW018 SCT080 01/M04
                        Q1012=
201012140515 METAR LIRA 140515Z 03004KT 9999 FEW018 01/M03 Q1012=
201012140445 METAR LIRA 140445Z 36005KT 9999 FEW025 01/M03 Q1012=
201012140415 METAR LIRA 140415Z 36005KT 9999 FEW025 01/M03 Q1012=
201012140345 METAR LIRA 140345Z 01005KT 320V050 9999 FEW030 02/M02 Q1012=
201012140315 METAR LIRA 140315Z 01005KT 9999 FEW030 SCT120 02/M02 Q1012=
201012140245 METAR LIRA 140245Z 02004KT 9999 FEW030 SCT080 02/M01 Q1012=
201012140215 METAR LIRA 140215Z 03004KT 9999 FEW030 BKN080 02/M01 Q1012=
201012140145 METAR LIRA 140145Z 03005KT 9999 FEW030 BKN080 02/M00 Q1012=
201012140115 METAR LIRA 140115Z 08004KT 9999 BKN080 02/M00 Q1011=
201012140045 METAR LIRA 140045Z 04005KT 9999 SCT080 02/M01 Q1011=
201012140015 METAR LIRA 140015Z 02005KT 350V070 9999 FEW080 02/M01 Q1011=
201012132350 METAR LIRA 140045Z 04005KT 9999 SCT080 02/M01 Q1011=
201012132345 METAR LIRA 132345Z 02004KT 9999 FEW080 02/M01 Q1011=
201012132315 METAR LIRA 132315Z 04005KT 360V060 9999 FEW080 02/M01 Q1011=
201012132245 METAR LIRA 132245Z 03004KT 9999 FEW080 02/M01 Q1011=
201012132215 METAR LIRA 132215Z 05005KT 330V080 9999 FEW080 03/M01 Q1011=
201012132145 METAR LIRA 132145Z 06006KT 9999 FEW080 03/M02 Q1011=
201012132115 METAR LIRA 132115Z 05005KT CAVOK 04/M01 Q1010=
201012132045 METAR LIRA 132045Z 01005KT 350V050 CAVOK 04/M01 Q1010=
201012132015 METAR LIRA 132015Z 03005KT CAVOK 05/M01 Q1010=
201012131945 METAR LIRA 131945Z 01005KT 310V060 CAVOK 06/M01 Q1009=
201012131915 METAR LIRA 131915Z 36005KT CAVOK 05/M01 Q1009=
201012131845 METAR LIRA 131845Z 35002KT CAVOK 05/M01 Q1009=
201012131815 METAR LIRA 131815Z 05002KT CAVOK 07/M04 Q1008=
201012131745 METAR LIRA 131745Z 35007KT 310V020 CAVOK 07/M04 Q1008=
201012131715 METAR LIRA 131715Z 03005KT 9999 FEW030 07/M04 Q1008=
201012131645 METAR LIRA 131645Z 02002KT 9999 FEW020 08/M04 Q1007=
201012131615 METAR LIRA 131615Z 03002KT 9999 FEW020 08/M05 Q1006=
201012131545 METAR LIRA 131545Z 36003KT 9999 FEW020 09/M05 Q1006=
201012131515 METAR LIRA 131515Z 32004KT 9999 FEW020 10/M04 Q1006=
201012131445 METAR LIRA 131445Z 33007KT 300V030 9999 FEW020 11/M04 Q1006=
201012131415 METAR LIRA 131415Z 33006KT 9999 FEW020 SCT030 11/M03 Q1005=
201012131345 METAR LIRA 131345Z 30003KT 9999 FEW020 SCT030 10/M04 Q1005=
201012131315 METAR LIRA 131315Z 31007KT 9999 FEW020 SCT030 11/M03 Q1005=
201012131245 METAR LIRA 131245Z 30005KT 9999 FEW020 SCT040 11/M03 Q1005=
201012131215 METAR LIRA 131215Z 30003KT 9999 FEW020 11/M03 Q1005=
201012131145 METAR LIRA 131145Z 32006KT 280V060 9999 FEW020 11/M02 Q1005=
201012131115 METAR LIRA 131115Z 03005KT 010V070 9999 FEW020 SCT040 11/M01
                        Q1005=
201012131045 METAR LIRA 131045Z 36004KT 320V090 9999 FEW020 10/M01 Q1005=
201012131015 METAR LIRA 131015Z 01005KT 330V090 9999 FEW020 10/M00 Q1005=
201012130945 METAR LIRA 130945Z /////KT 9999 FEW020 09/00 Q1005=
201012130915 METAR LIRA 130915Z 36006KT 320V070 9999 FEW020 08/M00 Q1005=
201012130845 METAR LIRA 130845Z 01006KT 330V060 9999 FEW020 07/00 Q1005=
201012130815 METAR LIRA 130815Z 01004KT 320V050 9999 FEW020 06/00 Q1004=
201012130745 METAR LIRA 130745Z 35005KT 310V030 9999 FEW020 05/01 Q1003=
201012130715 METAR LIRA 130715Z 02004KT 330V050 9999 FEW020 04/00 Q1003=
201012130645 METAR LIRA 130645Z 02005KT 340V060 9999 FEW020 04/00 Q1003=
201012130615 METAR LIRA 130615Z 03005KT 340V060 9999 FEW020 04/00 Q1003=
201012130545 METAR LIRA 130545Z 02005KT 340V080 9999 FEW020 04/01 Q1002=
201012130515 METAR LIRA 130515Z 02005KT 9999 FEW070 04/01 Q1002=
201012130445 METAR LIRA 130445Z 01006KT 330V050 9999 FEW018 04/03 Q1002=
201012130415 METAR LIRA 130415Z 36007KT 300V030 8000 FEW005 04/03 Q1002=
201012130345 METAR LIRA 130345Z 03005KT 8000 FEW005 03/03 Q1002=
201012130315 METAR LIRA 130315Z 03005KT 8000 FEW005 04/03 Q1002=
201012130245 METAR LIRA 130245Z 05006KT 8000 FEW005 04/03 Q1002=
201012130215 METAR LIRA 130215Z 05006KT 8000 FEW005 04/03 Q1002=
201012130145 METAR LIRA 130145Z 03005KT 8000 FEW005 05/04 Q1002=
201012130115 METAR LIRA 130115Z 02006KT 360V060 8000 FEW005 05/04 Q1002=
201012130045 METAR LIRA 130045Z 04004KT 8000 FEW005 05/04 Q1002=
201012130015 METAR LIRA 130015Z 02005KT 010V070 8000 FEW005 05/04 Q1002=
201012122350 METAR LIRA 130045Z 04004KT 8000 FEW005 05/04 Q1002=
201012122345 METAR LIRA 122345Z 02005KT 8000 FEW005 05/04 Q1002=
201012122315 METAR LIRA 122315Z 02004KT 8000 FEW005 06/05 Q1002=
201012122245 METAR LIRA 122245Z 36006KT 300V030 9999 FEW006 06/05 Q1002=
201012122215 METAR LIRA 122215Z 36004KT 9999 FEW007 06/05 Q1002=
201012122145 METAR LIRA 122145Z 02005KT 330V060 9999 FEW015 07/05 Q1002=
201012122115 METAR LIRA 122115Z 04005KT 360V080 9999 FEW015 SCT030 07/05
                        Q1002=
201012122045 METAR LIRA 122045Z 03007KT 340V060 9999 FEW015 SCT030 08/05
                        Q1002=
201012122015 METAR LIRA 122015Z 01005KT 320V060 9999 FEW015 08/05 Q1002=
201012121945 METAR LIRA 121945Z 36003KT 9999 FEW015 SCT030 09/06 Q1002=
201012121915 METAR LIRA 121915Z 36004KT 8000 SCT015 SCT030 08/06 Q1002=
201012121845 METAR LIRA 121845Z 02002KT 7000 FEW005 SCT025 09/07 Q1002=
201012121815 METAR LIRA 121815Z 01003KT 7000 FEW005 SCT025 09/07 Q1002=
201012121745 METAR LIRA 121745Z 08003KT 7000 FEW005 SCT025 09/07 Q1002=
201012121715 METAR LIRA 121715Z 04003KT 7000 FEW005 BKN025 09/07 Q1003=
201012121645 METAR LIRA 121645Z 03004KT 8000 FEW018 BKN025 09/07 Q1003=
201012121615 METAR LIRA 121615Z 09004KT 8000 -DZ FEW018 BKN025 09/07 Q1003=
201012121545 METAR LIRA 121545Z 03004KT 8000 -DZ FEW020 BKN025 09/06 Q1003=
201012121515 METAR LIRA 121515Z 02004KT 8000 -DZ FEW020 BKN030 10/06 Q1003=
201012121445 METAR LIRA 121445Z 15005KT 8000 -DZ FEW020 BKN030 11/06 Q1003=
201012121415 METAR LIRA 121415Z 16005KT 120V210 9999 FEW020 BKN030 11/06
                        Q1004=
201012121345 METAR LIRA 121345Z 15007KT 120V190 9999 FEW020 SCT030 BKN070
                        11/06 Q1004=
201012121315 METAR LIRA 121315Z 16007KT 9999 FEW020 SCT030 BKN070 11/06
                        Q1005=
201012121245 METAR LIRA 121245Z 15007KT 9999 FEW018 SCT025 BKN070 11/06
                        Q1006=
201012121215 METAR LIRA 121215Z 17005KT 9000 FEW018 BKN025 11/06 Q1006=
201012121145 METAR LIRA 121145Z 14007KT 110V180 9000 FEW018 BKN030 11/07
                        Q1007=
201012121115 METAR LIRA 121115Z 14007KT 9000 FEW018 BKN030 11/07 Q1008=
201012121045 METAR LIRA 121045Z 16006KT 120V220 9000 FEW016 BKN030 11/07
                        Q1009=
201012121015 METAR LIRA 121015Z 15005KT 8000 FEW016 BKN030 11/07 Q1009=
201012120945 METAR LIRA 120945Z 17005KT 150V220 8000 FEW016 BKN030 10/07
                        Q1009=
201012120915 METAR LIRA 120915Z 19002KT 8000 FEW020 BKN030 08/07 Q1010=
201012120845 METAR LIRA 120845Z 06004KT 8000 FEW020 BKN025 06/05 Q1010=
201012120815 METAR LIRA 120815Z 07003KT 7000 FEW020 BKN025 06/05 Q1011=
201012120745 METAR LIRA 120745Z 35002KT 7000 FEW020 BKN025 06/05 Q1011=
201012120715 METAR LIRA 120715Z 32003KT 8000 FEW020 BKN025 06/05 Q1011=
201012120645 METAR LIRA 120645Z 11002KT 8000 FEW020 BKN025 06/04 Q1011=
201012120615 METAR LIRA 120615Z 01001KT 9999 SCT020 BKN030 05/04 Q1011=
201012120545 METAR LIRA 120545Z 00000KT 9999 FEW020 SCT030 05/03 Q1012=
201012120515 METAR LIRA 120515Z 10003KT 9999 FEW020 SCT030 05/03 Q1012=
201012120445 METAR LIRA 120445Z 06003KT 9999 FEW020 SCT025 BKN060 05/03
                        Q1012=
201012120415 METAR LIRA 120415Z 04001KT 9999 FEW020 SCT025 BKN060 05/03
                        Q1012=
201012120345 METAR LIRA 120345Z 00000KT 9999 SCT025 SCT060 05/03 Q1012=
201012120315 METAR LIRA 120315Z 12001KT 9999 FEW018 SCT022 BKN060 05/03
                        Q1013=
201012120245 METAR LIRA 120245Z 34004KT 9999 FEW020TCU SCT022 BKN060 05/03
                        Q1014=
201012120215 METAR LIRA 120215Z 02001KT 9999 SCT025 SCT060 05/03 Q1014=
201012120145 METAR LIRA 120145Z 05003KT 9999 SCT030 BKN060 05/03 Q1015=
201012120115 METAR LIRA 120115Z 04003KT 9999 SCT030 BKN070 04/03 Q1015=
201012120045 METAR LIRA 120045Z 02001KT 9999 SCT030 BKN070 03/02 Q1016=
201012120015 METAR LIRA 120015Z 06002KT 9999 FEW035 BKN070 03/02 Q1016=
201012112350 METAR LIRA 120045Z 02001KT 9999 SCT030 BKN070 03/02 Q1016=
201012112345 METAR LIRA 112345Z 36001KT 9999 FEW030 BKN080 03/02 Q1016=
201012112315 METAR LIRA 112315Z 34002KT 9999 SCT080 04/02 Q1016=
201012112245 METAR LIRA 112245Z 04001KT 9999 FEW080 04/02 Q1017=
201012112215 METAR LIRA 112215Z 01002KT 9999 FEW080 04/02 Q1017=
201012112145 METAR LIRA 112145Z 10002KT 9999 FEW080 04/02 Q1018=
201012112115 METAR LIRA 112115Z 11001KT CAVOK 04/02 Q1018=
201012112045 METAR LIRA 112045Z 10001KT CAVOK 04/02 Q1018=
201012112015 METAR LIRA 112015Z 08001KT 9999 FEW080 05/02 Q1019=
201012111945 METAR LIRA 111945Z 05002KT 9999 FEW080 06/02 Q1019=
201012111915 METAR LIRA 111915Z 06004KT 9999 FEW080 06/02 Q1019=
201012111845 METAR LIRA 111845Z 07003KT 9999 FEW080 06/02 Q1019=
201012111815 METAR LIRA 111815Z 08004KT 9999 FEW080 06/02 Q1019=
201012111745 METAR LIRA 111745Z 08004KT 9999 FEW080 06/02 Q1019=
201012111715 METAR LIRA 111715Z 08002KT 9999 FEW080 07/02 Q1019=
201012111645 METAR LIRA 111645Z 06003KT 9999 FEW020 07/M01 Q1020=
201012111615 METAR LIRA 111615Z 06004KT 9999 FEW020 08/M01 Q1020=
201012111545 METAR LIRA 111545Z 06003KT 9999 FEW020 09/M01 Q1020=
201012111515 METAR LIRA 111515Z 04002KT 9999 FEW020 10/M00 Q1020=
201012111445 METAR LIRA 111445Z 03001KT 9999 FEW020 11/00 Q1020=
201012111415 METAR LIRA 111415Z 01003KT 9999 FEW020 11/00 Q1020=
201012111345 METAR LIRA 111345Z 36001KT 9999 FEW020 SCT040 12/00 Q1021=
201012111315 METAR LIRA 111315Z 00000KT 9999 FEW020 SCT040 11/M00 Q1021=
201012111245 METAR LIRA 111245Z 05003KT 9999 FEW020 SCT040 11/M01 Q1022=
201012111215 METAR LIRA 111215Z 02004KT 9999 FEW020 SCT040 11/M01 Q1022=
201012111145 METAR LIRA 111145Z 32003KT 9999 FEW020 SCT070 11/M01 Q1022=
201012111115 METAR LIRA 111115Z 13001KT 9999 FEW020 SCT080 11/M00 Q1022=
201012111045 METAR LIRA 111045Z 35001KT 9999 FEW020 SCT080 BKN200 09/M00
                        Q1022=
201012111015 METAR LIRA 111015Z 33002KT 9999 FEW020 08/00 Q1022=
201012110945 METAR LIRA 110945Z 01003KT 9999 FEW020 SCT070 07/00 Q1023=
201012110915 METAR LIRA 110915Z 04003KT 9999 FEW010 SCT070 05/00 Q1023=
201012110845 METAR LIRA 110845Z 36003KT 9999 FEW010 03/M01 Q1023=
201012110815 METAR LIRA 110815Z 05003KT 9999 FEW010 02/M02 Q1023=
201012110745 METAR LIRA 110745Z 01002KT 9999 FEW070 01/M02 Q1023=
201012110715 METAR LIRA 110715Z 04003KT 9999 FEW070 00/M03 Q1023=
201012110645 METAR LIRA 110645Z 36002KT 9999 FEW070 00/M03 Q1023=
201012110615 METAR LIRA 110615Z 07004KT CAVOK 00/M04 Q1023=
201012110545 METAR LIRA 110545Z 02003KT CAVOK 01/M04 Q1023=
201012110515 METAR LIRA 110515Z 05004KT CAVOK 01/M04 Q1024=
201012110445 METAR LIRA 110445Z 07005KT CAVOK 02/M03 Q1024=
201012110415 METAR LIRA 110415Z 11002KT CAVOK 02/M03 Q1024=
201012110345 METAR LIRA 110345Z 08003KT CAVOK 01/M03 Q1024=
201012110315 METAR LIRA 110315Z 10003KT CAVOK 01/M02 Q1024=
201012110245 METAR LIRA 110245Z 10003KT CAVOK 01/M02 Q1024=
201012110215 METAR LIRA 110215Z 16005KT CAVOK 02/M02 Q1024=
201012110145 METAR LIRA 110145Z 17003KT CAVOK 02/M03 Q1024=
201012110115 METAR LIRA 110115Z 10001KT CAVOK 02/M02 Q1023=
201012110045 METAR LIRA 110045Z 23003KT 170V230 CAVOK 04/M03 Q1023=
201012110015 METAR LIRA 110015Z 18005KT CAVOK 04/M02 Q1023=
201012102350 METAR LIRA 110045Z 23003KT 170V230 CAVOK 04/M03 Q1023=
201012102345 METAR LIRA 102345Z 27006KT 250V310 CAVOK 04/M03 Q1023=
201012102315 METAR LIRA 102315Z 06010KT CAVOK 05/M04 Q1023=
201012102245 METAR LIRA 102245Z 04007KT CAVOK 04/M05 Q1024=
201012102215 METAR LIRA 102215Z 05007KT 010V080 CAVOK 05/M04 Q1024=
201012102145 METAR LIRA 102145Z 03005KT 360V070 CAVOK 05/M05 Q1024=
201012102115 METAR LIRA 102115Z 06005KT 030V110 CAVOK 05/M05 Q1024=
201012102045 METAR LIRA 102045Z 04005KT CAVOK 06/M05 Q1024=
201012102015 METAR LIRA 102015Z 36006KT 310V030 CAVOK 06/M05 Q1024=
201012101945 METAR LIRA 101945Z 35006KT 320V050 CAVOK 06/M05 Q1023=
201012101915 METAR LIRA 101915Z 02006KT 320V070 CAVOK 07/M06 Q1023=
201012101845 METAR LIRA 101845Z 35007KT 310V040 CAVOK 07/M07 Q1023=
201012101815 METAR LIRA 101815Z 34008KT 310V010 CAVOK 07/M07 Q1022=
201012101745 METAR LIRA 101745Z 35006KT 310V020 CAVOK 07/M07 Q1022=
201012101715 METAR LIRA 101715Z 01003KT CAVOK 07/M07 Q1021=
201012101645 METAR LIRA 101645Z 02005KT 320V070 CAVOK 08/M07 Q1021=
201012101615 METAR LIRA 101615Z 04005KT CAVOK 08/M07 Q1021=
201012101545 METAR LIRA 101545Z 34009KT 300V020 CAVOK 09/M08 Q1021=
201012101515 METAR LIRA 101515Z 34012KT 300V020 CAVOK 10/M08 Q1020=
201012101445 METAR LIRA 101445Z 32016KT 300V010 CAVOK 11/M07 Q1020=
201012101415 METAR LIRA 101415Z 34014KT 300V020 CAVOK 11/M07 Q1019=
201012101345 METAR LIRA 101345Z 33014KT 300V360 CAVOK 12/M06 Q1019=
201012101315 METAR LIRA 101315Z 33012KT 300V360 9999 FEW080 12/M06 Q1019=
201012101245 METAR LIRA 101245Z 33011KT 290V360 CAVOK 12/M06 Q1019=
201012101215 METAR LIRA 101215Z 33010KT 280V010 CAVOK 12/M04 Q1019=
201012101145 METAR LIRA 101145Z 33011KT 300V360 CAVOK 12/M04 Q1019=
201012101115 METAR LIRA 101115Z 34010KT 300V010 CAVOK 11/M04 Q1018=
201012101045 METAR LIRA 101045Z 36010KT 300V030 CAVOK 10/M03 Q1018=
201012101015 METAR LIRA 101015Z 35008KT 300V050 CAVOK 10/M03 Q1018=
201012100945 METAR LIRA 100945Z 35008KT 300V040 CAVOK 10/M02 Q1018=
201012100915 METAR LIRA 100915Z 36009KT 310V060 9999 FEW030 09/M02 Q1018=
201012100845 METAR LIRA 100845Z 36008KT 310V040 9999 FEW030 08/M00 Q1017=
201012100815 METAR LIRA 100815Z 35009KT 300V040 9999 FEW020 SCT030 07/01
                        Q1016=
201012100745 METAR LIRA 100745Z 36003KT 9999 FEW030 05/01 Q1016=
201012100715 METAR LIRA 100715Z 36005KT 9999 FEW030 05/02 Q1015=
201012100645 METAR LIRA 100645Z 04004KT 9999 FEW025 05/01 Q1015=
201012100615 METAR LIRA 100615Z 03005KT 360V070 9999 FEW025 05/01 Q1015=
201012100545 METAR LIRA 100545Z 02005KT 340V060 9999 FEW020 05/01 Q1014=
201012100515 METAR LIRA 100515Z 03004KT 9999 FEW020 05/01 Q1014=
201012100445 METAR LIRA 100445Z 02005KT 360V060 CAVOK 05/01 Q1013=
201012100415 METAR LIRA 100415Z 02005KT 350V050 CAVOK 06/02 Q1013=
201012100345 METAR LIRA 100345Z 03005KT 350V090 CAVOK 06/02 Q1012=
201012100315 METAR LIRA 100315Z 01006KT 340V060 CAVOK 06/02 Q1012=
201012100245 METAR LIRA 100245Z 02004KT CAVOK 06/02 Q1012=
201012100215 METAR LIRA 100215Z 03005KT CAVOK 06/02 Q1012=
201012100145 METAR LIRA 100145Z 05005KT CAVOK 06/02 Q1012=
201012100115 METAR LIRA 100115Z 04004KT CAVOK 07/02 Q1012=
201012100045 METAR LIRA 100045Z 03005KT CAVOK 07/02 Q1012=
201012100015 METAR LIRA 100015Z 05005KT CAVOK 08/02 Q1012=
201012092350 METAR LIRA 100045Z 03005KT CAVOK 07/02 Q1012=
201012092345 METAR LIRA 092345Z 05007KT CAVOK 08/03 Q1012=
201012092315 METAR LIRA 092315Z 05007KT 340V090 CAVOK 08/03 Q1012=
201012092245 METAR LIRA 092245Z 36006KT 280V100 9999 FEW070 09/04 Q1012=
201012092215 METAR LIRA 092215Z 02005KT 280V080 9999 FEW007 10/06 Q1011=
201012092145 METAR LIRA 092145Z 36006KT 310V040 9999 FEW007 11/08 Q1011=
201012092115 METAR LIRA 092115Z 35005KT 4000 BR SCT007 09/09 Q1011=
201012092045 METAR LIRA 092045Z 07002KT 4000 BR SCT007 10/09 Q1011=
201012092015 METAR LIRA 092015Z 03002KT 6000 FEW009 SCT070 10/09 Q1011=
201012091945 METAR LIRA 091945Z 22001KT 8000 FEW030 SCT070 10/09 Q1010=
201012091915 METAR LIRA 091915Z 00000KT 8000 FEW070 11/10 Q1010=
201012091845 METAR LIRA 091845Z 05003KT 8000 FEW070 11/10 Q1010=
201012091815 METAR LIRA 091815Z 12001KT 8000 FEW080 12/11 Q1010=
201012091745 METAR LIRA 091745Z 13002KT 9999 FEW080 12/11 Q1010=
201012091715 METAR LIRA 091715Z 06002KT 9999 FEW080 12/11 Q1009=
201012091645 METAR LIRA 091645Z 01001KT 9999 FEW070 13/12 Q1009=
201012091615 METAR LIRA 091615Z 16003KT 9999 FEW023 13/12 Q1009=
201012091545 METAR LIRA 091545Z 22002KT 9999 FEW023 SCT080 15/13 Q1009=
201012091515 METAR LIRA 091515Z 17003KT 9999 FEW023 SCT070 15/13 Q1008=
201012091445 METAR LIRA 091445Z 17005KT 130V200 9999 FEW017 SCT070 16/14
                        Q1009=
201012091415 METAR LIRA 091415Z 18006KT 150V220 9999 FEW013 SCT025 16/14
                        Q1009=
201012091345 METAR LIRA 091345Z 19005KT 150V230 8000 SCT007 BKN022 16/14
                        Q1009=
201012091315 METAR LIRA 091315Z 20005KT 150V250 8000 SCT007 BKN022 16/14
                        Q1009=
201012091245 METAR LIRA 091245Z 19007KT 150V230 8000 SCT007 BKN022 16/14
                        Q1009=
201012091215 METAR LIRA 091215Z 19008KT 150V220 8000 SCT007 BKN022 16/14
                        Q1010=
201012091145 METAR LIRA 091145Z 19008KT 130V230 8000 SCT007 BKN022 16/14
                        Q1010=
201012091115 METAR LIRA 091115Z 19007KT 150V240 9999 SCT007 BKN022 16/15
                        Q1010=
201012091045 METAR LIRA 091045Z 19008KT 150V230 9999 SCT010 SCT025 BKN070
                        16/14 Q1011=
201012091015 METAR LIRA 091015Z 18005KT 150V220 9999 FEW018 SCT025 BKN070
                        16/14 Q1011=
201012090945 METAR LIRA 090945Z 19007KT 140V220 9999 SCT025 BKN070 16/14
                        Q1011=
201012090915 METAR LIRA 090915Z 19009KT 9999 SCT025 BKN070 16/14 Q1011=
201012090845 METAR LIRA 090845Z 18006KT 150V230 9999 SCT030 BKN070 17/14
                        Q1011=
201012090815 METAR LIRA 090815Z 18005KT 9999 SCT030 BKN070 17/13 Q1011=
201012090745 METAR LIRA 090745Z 17006KT 9999 SCT030 SCT070 17/14 Q1011=
201012090715 METAR LIRA 090715Z 18005KT 140V230 9999 SCT030 SCT070 17/13
                        Q1011=
201012090645 METAR LIRA 090645Z 17006KT 110V200 9999 SCT030 SCT070 16/13
                        Q1011=
201012090615 METAR LIRA 090615Z 18006KT 160V230 9999 SCT030 SCT070 16/12
                        Q1011=
201012090545 METAR LIRA 090545Z 17006KT 9999 FEW070 15/12 Q1011=
201012090515 METAR LIRA 090515Z 17005KT 9999 FEW070 15/12 Q1011=
201012090445 METAR LIRA 090445Z 18006KT 9999 SCT070 16/12 Q1011=
201012090415 METAR LIRA 090415Z 16007KT CAVOK 15/12 Q1011=
201012090345 METAR LIRA 090345Z 16009KT CAVOK 15/12 Q1011=
201012090315 METAR LIRA 090315Z 16008KT CAVOK 15/12 Q1011=
201012090245 METAR LIRA 090245Z 18008KT 140V220 CAVOK 17/12 Q1011=
201012090215 METAR LIRA 090215Z 18007KT 140V220 CAVOK 16/11 Q1011=
201012090145 METAR LIRA 090145Z 17005KT CAVOK 16/12 Q1012=
201012090115 METAR LIRA 090115Z 16003KT CAVOK 15/10 Q1012=
201012090045 METAR LIRA 090045Z 15007KT CAVOK 16/11 Q1012=
201012090015 METAR LIRA 090015Z 16008KT CAVOK 17/12 Q1012=
201012082350 METAR LIRA 090045Z 15007KT CAVOK 16/11 Q1012=
201012082345 METAR LIRA 082345Z 17006KT CAVOK 17/12 Q1012=
201012082315 METAR LIRA 082315Z 17007KT CAVOK 17/12 Q1013=
201012082245 METAR LIRA 082245Z 16007KT 130V190 CAVOK 17/12 Q1013=
201012082215 METAR LIRA 082215Z 17007KT 130V200 CAVOK 16/12 Q1013=
201012082145 METAR LIRA 082145Z 00000KT 9999 FEW030 13/12 Q1013=
201012082115 METAR LIRA 082115Z 15002KT 9999 FEW030 13/12 Q1013=
201012082045 METAR LIRA 082045Z 19004KT 010V080 9999 FEW030 13/12 Q1012=
201012082015 METAR LIRA 082015Z 10004KT 350V080 9999 FEW030 15/12 Q1012=
201012081945 METAR LIRA 081945Z 18008KT 130V230 9999 FEW030 16/11 Q1012=
201012081915 METAR LIRA 081915Z 15013KT 130V210 9999 FEW030 SCT070 15/11
                        Q1012=
201012081845 METAR LIRA 081845Z 17013KT 150V220 9999 FEW030 SCT070 15/12
                        Q1012=
201012081815 METAR LIRA 081815Z 24002KT 9999 FEW030 SCT070 14/12 Q1012=
201012081745 METAR LIRA 081745Z 27002KT 9999 FEW030 SCT070 14/13 Q1011=
201012081715 METAR LIRA 081715Z 32004KT 9999 FEW030 SCT070 15/13 Q1011=
201012081645 METAR LIRA 081645Z 33005KT 9999 FEW030 SCT070 15/13 Q1011=
201012081615 METAR LIRA 081615Z 15001KT 9999 FEW030 SCT070 16/13 Q1011=
201012081545 METAR LIRA 081545Z 27002KT 9999 FEW030 SCT070 17/13 Q1011=
201012081515 METAR LIRA 081515Z 14011KT 9999 SCT030 SCT070 17/12 Q1011=
201012081445 METAR LIRA 081445Z 13012KT 100V160 9999 SCT030 SCT070 17/13
                        Q1012=
201012081415 METAR LIRA 081415Z 14008KT 110V180 9999 SCT027 SCT070 17/14
                        Q1012=
201012081345 METAR LIRA 081345Z 16010KT 130V200 9999 -RA SCT027 BKN070
                        16/13 Q1012=
201012081315 METAR LIRA 081315Z 16015G25KT 130V190 9999 -RA SCT027 BKN080
                        17/12 Q1012=
201012081245 METAR LIRA 081245Z 16016KT 120V190 9999 FEW030 BKN080 17/11
                        Q1012=
201012081215 METAR LIRA 081215Z 16015KT 110V250 9999 FEW030 BKN080 17/11
                        Q1012=
201012081145 METAR LIRA 081145Z 18009KT 130V250 9999 FEW030 BKN080 19/13
                        Q1012=
201012081115 METAR LIRA 081115Z 18008KT 110V220 9999 FEW030 BKN080 19/12
                        Q1012=
201012081045 METAR LIRA 081045Z 10004KT 050V120 9999 FEW030 19/13 Q1012=
201012081015 METAR LIRA 081015Z 16009KT 120V200 9999 FEW080 20/13 Q1013=
201012080945 METAR LIRA 080945Z 14007KT 9999 FEW080 20/11 Q1012=
201012080915 METAR LIRA 080915Z 02002KT 9999 FEW080 19/12 Q1012=
201012080845 METAR LIRA 080845Z 14007KT 100V200 9999 FEW080 17/12 Q1012=
201012080815 METAR LIRA 080815Z 12003KT 9999 FEW030 SCT080 17/12 Q1012=
201012080745 METAR LIRA 080745Z 14007KT 070V170 9999 FEW030 SCT080 17/12
                        Q1012=
201012080715 METAR LIRA 080715Z 15013KT 9999 FEW030 BKN080 17/11 Q1011=
201012080645 METAR LIRA 080645Z 14008KT 110V180 9999 FEW030 BKN080 16/12
                        Q1011=
201012080615 METAR LIRA 080615Z 10003KT 060V160 9999 FEW030 BKN080 15/12
                        Q1011=
201012080545 METAR LIRA 080545Z 10003KT 9999 FEW018 BKN080 16/12 Q1011=
201012080515 METAR LIRA 080515Z 09003KT 9999 FEW018 BKN070 16/12 Q1011=
201012080445 METAR LIRA 080445Z 25004KT 9999 FEW018 BKN070 15/12 Q1011=
201012080415 METAR LIRA 080415Z 02003KT 9999 FEW018 BKN070 16/12 Q1011=
201012080345 METAR LIRA 080345Z 11006KT 040V160 9999 FEW018 BKN070 16/12
                        Q1011=
201012080315 METAR LIRA 080315Z 15014KT 9999 FEW016 BKN070 16/12 Q1011=
201012080245 METAR LIRA 080245Z 15016KT 9999 FEW016 BKN070 16/12 Q1011=
201012080215 METAR LIRA 080215Z 15015KT 110V180 9999 FEW016 BKN070 16/12
                        Q1011=
201012080145 METAR LIRA 080145Z 14013KT 110V180 9999 FEW016 SCT070 16/12
                        Q1011=
201012080115 METAR LIRA 080115Z 14013KT 110V180 9999 FEW018 16/12 Q1011=
201012080045 METAR LIRA 080045Z 15011KT 090V180 9999 FEW018 16/11 Q1011=
201012080015 METAR LIRA 080015Z 15015KT 120V190 9999 FEW018 16/11 Q1011=
201012072350 METAR LIRA 080045Z 15011KT 090V180 9999 FEW018 16/11 Q1011=
201012072345 METAR LIRA 072345Z 15019KT 110V180 9999 FEW018 16/12 Q1011=
201012072315 METAR LIRA 072315Z 15017KT 110V180 CAVOK 16/12 Q1011=
201012072245 METAR LIRA 072245Z 15015KT 130V190 CAVOK 15/11 Q1011=
201012072215 METAR LIRA 072215Z 16011KT 130V200 CAVOK 16/11 Q1011=
201012072145 METAR LIRA 072145Z 17017KT 9999 FEW018 16/11 Q1011=
201012072115 METAR LIRA 072115Z 16010KT 120V200 9999 FEW018 16/11 Q1011=
201012072045 METAR LIRA 072045Z 15006KT 100V180 9999 FEW018 SCT070 16/12
                        Q1010=
201012072015 METAR LIRA 072015Z 14009KT 100V170 9999 FEW018 SCT070 16/12
                        Q1010=
201012071945 METAR LIRA 071945Z 13012KT 090V170 9999 FEW018 BKN070 16/12
                        Q1010=
201012071915 METAR LIRA 071915Z 12007KT 080V170 9999 FEW018 BKN070 16/12
                        Q1011=
201012071845 METAR LIRA 071845Z 14013KT 110V180 9999 FEW018 BKN060 16/12
                        Q1011=
201012071815 METAR LIRA 071815Z 15015KT 120V170 9999 FEW018 SCT060 16/13
                        Q1011=
201012071745 METAR LIRA 071745Z 17005KT 9999 FEW018 SCT060 15/13 Q1010=
201012071715 METAR LIRA 071715Z 11006KT 070V160 9999 FEW018 15/13 Q1011=
201012071645 METAR LIRA 071645Z 18008KT 9999 FEW018 SCT080 15/12 Q1011=
201012071615 METAR LIRA 071615Z 12007KT 9999 FEW018 SCT080 15/12 Q1010=
201012071545 METAR LIRA 071545Z 11006KT 080V150 9999 FEW018 SCT080 16/12
                        Q1010=
201012071515 METAR LIRA 071515Z 09003KT 9999 FEW018 17/12 Q1010=
201012071445 METAR LIRA 071445Z 10005KT 070V170 9999 FEW015 16/13 Q1010=
201012071415 METAR LIRA 071415Z 12003KT 090V180 9999 FEW015 17/13 Q1010=
201012071345 METAR LIRA 071345Z 13010KT 100V180 9999 FEW015 17/13 Q1010=
201012071315 METAR LIRA 071315Z 15015KT 110V200 9999 FEW015 17/13 Q1010=
201012071245 METAR LIRA 071245Z 15018KT 100V190 9999 FEW015 18/13 Q1010=
201012071215 METAR LIRA 071215Z 15014KT 110V180 9999 FEW015 18/13 Q1011=
201012071145 METAR LIRA 071145Z 14016KT 100V180 9999 FEW015 SCT080 18/13
                        Q1011=
201012071045 METAR LIRA 071045Z 15017KT 100V200 9999 FEW015 17/12 Q1011=
201012071015 METAR LIRA 071015Z 14018KT 100V200 9999 FEW015 SCT080 17/12
                        Q1011=
201012070945 METAR LIRA 070945Z 15016KT 110V190 9999 FEW015 SCT080 16/11
                        Q1011=
201012070915 METAR LIRA 070915Z 15016KT 120V190 9999 FEW015 16/12 Q1011=
201012070845 METAR LIRA 070845Z 14018KT 110V180 9999 FEW015 16/12 Q1011=
201012070815 METAR LIRA 070815Z 15022KT 9000 FEW015 SCT080 15/12 Q1010=
201012070745 METAR LIRA 070745Z 15020KT 9999 FEW015 SCT200 15/12 Q1010=
201012070715 METAR LIRA 070715Z 15020KT 9999 FEW020 SCT080 15/12 Q1010=
201012070645 METAR LIRA 070645Z 14020KT 120V190 9999 FEW020 SCT080 15/12
                        Q1010=
201012070615 METAR LIRA 070615Z 15022KT 110V180 9999 FEW020 SCT080 15/12
                        Q1009=
201012070545 METAR LIRA 070545Z 15016KT 9999 FEW020 15/12 Q1009=
201012070515 METAR LIRA 070515Z 15018KT 120V180 9999 FEW020 15/12 Q1009=
201012070445 METAR LIRA 070445Z 15018KT 9999 SCT020 15/12 Q1009=
201012070415 METAR LIRA 070415Z 16018KT 130V190 9999 FEW020 15/12 Q1009=
201012070345 METAR LIRA 070345Z 15022KT 120V180 9999 FEW020 15/12 Q1009=
201012070315 METAR LIRA 070315Z 15019KT 120V200 9999 FEW020 15/12 Q1010=
201012070245 METAR LIRA 070245Z 15020KT 9999 FEW017 SCT030 15/12 Q1010=
201012070215 METAR LIRA 070215Z 15023KT 9999 FEW017 SCT070 15/12 Q1010=
201012070145 METAR LIRA 070145Z 15024G34KT 120V180 9999 FEW015 SCT070
                        15/13 Q1010=
201012070115 METAR LIRA 070115Z 15019KT 9999 FEW020 SCT030 14/12 Q1010=
201012070045 METAR LIRA 070045Z 15021KT 9999 FEW020 SCT030 15/13 Q1010=
201012070015 METAR LIRA 070015Z 15020KT 9999 FEW012 SCT030 14/12 Q1010=
201012062350 METAR LIRA 070045Z 15021KT 9999 FEW020 SCT030 15/13 Q1010=
201012062345 METAR LIRA 062345Z 15020KT 9999 -RA FEW012 SCT030 15/12 Q1010=
201012062315 METAR LIRA 062315Z 15022KT 130V190 9999 -RA FEW012 SCT020
                        15/12 Q1010=
201012062245 METAR LIRA 062245Z 15019KT 120V210 8000 -RA FEW010 SCT025
                        BKN060 14/13 Q1010=
201012062215 METAR LIRA 062215Z 15020KT 120V180 8000 -RA FEW010 SCT025
                        BKN060 14/12 Q1010=
201012062145 METAR LIRA 062145Z 15019G29KT 120V180 8000 -RA SCT015 BKN025
                        14/12 Q1010=
201012062115 METAR LIRA 062115Z 16019KT 130V200 8000 -RA SCT015 BKN025
                        15/12 Q1010=
201012062045 METAR LIRA 062045Z 15022KT 130V190 9999 -RA SCT017 BKN030
                        15/12 Q1010=
201012062015 METAR LIRA 062015Z 15024G34KT 110V180 9999 -RA SCT015TCU
                        BKN025 15/12 Q1010=
201012061945 METAR LIRA 061945Z 14028KT 9999 -RA SCT015TCU BKN025 15/13
                        Q1009=
201012061915 METAR LIRA 061915Z 13030G40KT 110V200 9999 -RA SCT015TCU
                        BKN025 15/13 Q1009=
201012061845 METAR LIRA 061845Z 15023G33KT 130V170 9999 -RA SCT015TCU
                        BKN025 14/12 Q1009=
201012061815 METAR LIRA 061815Z 14028KT 9999 -RA SCT015TCU BKN025 14/12
                        Q1009=
201012061745 METAR LIRA 061745Z 17020KT 130V210 9999 SCT015 SCT030 15/12
                        Q1010=
201012061715 METAR LIRA 061715Z 14022KT 9999 -RA SCT015 SCT030 15/12 Q1010=
201012061645 METAR LIRA 061645Z 14017KT 120V180 9999 FEW015 SCT030 BKN070
                        15/12 Q1010=
201012061615 METAR LIRA 061615Z 15017KT 9999 FEW015 SCT030 BKN070 15/12
                        Q1011=
201012061545 METAR LIRA 061545Z 15017KT 120V180 9999 FEW015 SCT030 BKN070
                        15/12 Q1010=
201012061515 METAR LIRA 061515Z 15017KT 110V180 9999 FEW015 SCT030 BKN070
                        15/13 Q1010=
201012061445 METAR LIRA 061445Z 15017KT 9999 FEW014 SCT030 BKN070 15/13
                        Q1011=
201012061415 METAR LIRA 061415Z 15017KT 120V190 9999 FEW014 SCT030 BKN070
                        15/13 Q1011=
201012061345 METAR LIRA 061345Z 15018KT 120V180 9000 -RA FEW014 SCT030
                        BKN070 15/13 Q1011=
201012061315 METAR LIRA 061315Z 16017KT 120V190 8000 -RA FEW014 SCT030
                        BKN070 15/13 Q1011=
201012061245 METAR LIRA 061245Z 16014KT 140V200 9000 -RA FEW015 SCT030
                        BKN070 15/13 Q1011=
201012061215 METAR LIRA 061215Z 15018KT 8000 -RA FEW015 SCT030 BKN070
                        15/13 Q1012=
201012061145 METAR LIRA 061145Z 15017KT 120V190 8000 -RA FEW015 SCT030
                        BKN070 15/13 Q1012=
201012061115 METAR LIRA 061115Z 15019KT 130V190 9000 -RA FEW015 SCT030
                        BKN070 15/13 Q1011=
201012061045 METAR LIRA 061045Z 16017KT 100V190 9999 FEW015 SCT035 BKN070
                        15/12 Q1012=
201012061015 METAR LIRA 061015Z 15019KT 120V190 9999 FEW016 SCT035 BKN070
                        16/12 Q1011=
201012060945 METAR LIRA 060945Z 15019KT 110V180 9999 FEW016 BKN070 15/12
                        Q1011=
201012060915 METAR LIRA 060915Z 15018KT 120V190 9999 FEW016 BKN070 15/11
                        Q1012=
201012060845 METAR LIRA 060845Z 16016KT 160V210 9999 FEW016 BKN070 14/11
                        Q1012=
201012060815 METAR LIRA 060815Z 15017KT 110V180 9999 FEW016 SCT070 14/11
                        Q1011=
201012060745 METAR LIRA 060745Z 16016KT 9999 FEW016 SCT040 BKN070 14/10
                        Q1012=
201012060715 METAR LIRA 060715Z 15016KT 100V200 9999 FEW015 SCT040 BKN070
                        14/10 Q1012=
201012060645 METAR LIRA 060645Z 15018KT 090V180 9999 FEW015 SCT030 BKN070
                        14/11 Q1012=
201012060615 METAR LIRA 060615Z 14019KT 9999 FEW015 SCT030 BKN070 13/10
                        Q1012=
201012060545 METAR LIRA 060545Z 14013KT 110V170 9999 FEW017 SCT070 13/10
                        Q1012=
201012060515 METAR LIRA 060515Z 14017KT 9999 FEW017 SCT070 13/09 Q1013=
201012060445 METAR LIRA 060445Z 15017KT 110V180 9999 FEW017 SCT070 12/08
                        Q1013=
201012060415 METAR LIRA 060415Z 14012KT 090V180 9999 FEW017 SCT070 12/08
                        Q1013=
201012060345 METAR LIRA 060345Z 14012KT 110V180 9999 FEW017 SCT070 12/08
                        Q1014=
201012060315 METAR LIRA 060315Z 14014KT 090V180 9999 FEW017 SCT070 11/07
                        Q1014=
201012060245 METAR LIRA 060245Z 12016KT 100V160 9999 FEW017 SCT070 11/06
                        Q1014=
201012060215 METAR LIRA 060215Z 14010KT 100V170 9999 FEW017 SCT070 11/06
                        Q1014=
201012060145 METAR LIRA 060145Z 12009KT 090V170 9999 FEW017 SCT070 10/04
                        Q1015=
201012060115 METAR LIRA 060115Z 13011KT 9999 FEW017 SCT070 10/05 Q1015=
201012060045 METAR LIRA 060045Z 12012KT 100V160 9999 FEW017 SCT070 10/05
                        Q1015=
201012060015 METAR LIRA 060015Z 14007KT 100V170 9999 FEW017 SCT070 10/05
                        Q1016=
201012052350 METAR LIRA 060045Z 12012KT 100V160 9999 FEW017 SCT070 10/05
                        Q1015=
201012052345 METAR LIRA 052345Z 13010KT 9999 FEW017 BKN070 10/06 Q1017=
201012052315 METAR LIRA 052315Z 13011KT 9999 FEW017 BKN070 10/05 Q1017=
201012052245 METAR LIRA 052245Z 14010KT 9999 FEW017 BKN070 10/05 Q1017=
201012052215 METAR LIRA 052215Z 14009KT 9999 FEW017 BKN070 10/05 Q1017=
201012052145 METAR LIRA 052145Z 14012KT 9999 FEW017 BKN070 10/06 Q1018=
201012052115 METAR LIRA 052115Z 12009KT 9999 FEW017 BKN070 09/04 Q1018=
201012052045 METAR LIRA 052045Z 14010KT 110V170 9999 FEW017 SCT030 BKN070
                        09/04 Q1018=
201012052015 METAR LIRA 052015Z 14008KT 100V180 9999 SCT030 SCT080 09/03
                        Q1018=
201012051945 METAR LIRA 051945Z 14006KT 100V180 9999 SCT030 SCT080 08/02
                        Q1018=
201012051915 METAR LIRA 051915Z 12006KT 100V160 9999 SCT030 SCT080 08/01
                        Q1019=
201012051845 METAR LIRA 051845Z 15005KT 9999 SCT030 SCT080 07/02 Q1019=
201012051815 METAR LIRA 051815Z 13002KT 9999 SCT030 SCT080 07/03 Q1019=
201012051745 METAR LIRA 051745Z 16002KT 9999 SCT030 SCT080 08/03 Q1019=
201012051715 METAR LIRA 051715Z 10002KT 9000 FEW018 SCT030 07/04 Q1020=
201012051645 METAR LIRA 051645Z 04002KT 9000 FEW030 08/04 Q1020=
201012051615 METAR LIRA 051615Z 06002KT 9999 FEW040 08/03 Q1020=
201012051545 METAR LIRA 051545Z 04003KT 9999 FEW040 08/02 Q1020=
201012051515 METAR LIRA 051515Z 15004KT 9999 FEW040 09/01 Q1020=
201012051445 METAR LIRA 051445Z 17005KT 9999 FEW040 SCT060 09/00 Q1020=
201012051415 METAR LIRA 051415Z 18004KT 9999 SCT060 SCT090 09/M01 Q1020=
201012051345 METAR LIRA 051345Z 17005KT 140V220 9999 FEW070 SCT090 09/M01
                        Q1021=
201012051315 METAR LIRA 051315Z 10001KT 9999 SCT080 08/02 Q1021=
201012051245 METAR LIRA 051245Z 32001KT 9999 SCT080 08/03 Q1021=
201012051215 METAR LIRA 051215Z 05001KT 9999 SCT080 07/03 Q1022=
201012051145 METAR LIRA 051145Z 35002KT 9999 FEW050 SCT080 07/03 Q1022=
201012051115 METAR LIRA 051115Z 33002KT 9999 FEW050 SCT070 06/03 Q1022=
201012051045 METAR LIRA 051045Z 35002KT 9999 FEW050 SCT070 05/03 Q1023=
201012051015 METAR LIRA 051015Z 36002KT 9000 FEW050 SCT070 05/03 Q1023=
201012050945 METAR LIRA 050945Z 02002KT 9000 FEW050 SCT070 05/03 Q1023=
201012050915 METAR LIRA 050915Z 00000KT 9000 FEW050 SCT070 03/03 Q1023=
201012050845 METAR LIRA 050845Z 27001KT 9000 FEW050 BKN060 03/02 Q1023=
201012050815 METAR LIRA 050815Z 35003KT 9000 SCT060 03/02 Q1023=
201012050745 METAR LIRA 050745Z 03002KT 8000 FEW060 02/01 Q1023=
201012050715 METAR LIRA 050715Z 04004KT 9000 NSC 01/01 Q1023=
201012050700 METAR LIRA INT CB SW-NE=
201012050645 METAR LIRA 050645Z 04004KT CAVOK 01/01 Q1023=
201012050615 METAR LIRA 050615Z 01002KT CAVOK 01/01 Q1023=
201012050545 METAR LIRA 050545Z 04004KT 9999 FEW070 01/01 Q1022=
201012050515 METAR LIRA 050515Z 04005KT CAVOK 01/M00 Q1021=
201012050445 METAR LIRA 050445Z 05005KT 9999 FEW070 01/M00 Q1021=
201012050415 METAR LIRA 050415Z 06004KT 9999 FEW070 01/M00 Q1021=
201012050345 METAR LIRA 050345Z 04003KT 9999 FEW070 01/00 Q1020=
201012050315 METAR LIRA 050315Z 04004KT 9999 FEW070 01/00 Q1020=
201012050245 METAR LIRA 050245Z 06005KT 9999 FEW070 01/M00 Q1020=
201012050215 METAR LIRA 050215Z 05005KT 9999 FEW070 01/00 Q1020=
201012050145 METAR LIRA 050145Z 36001KT 9999 FEW070 02/01 Q1019=
201012050115 METAR LIRA 050115Z 28002KT 9999 FEW070 02/01 Q1020=
201012050045 METAR LIRA 050045Z 02004KT 9999 FEW070 02/01 Q1020=
201012050015 METAR LIRA 050015Z 04003KT 9999 FEW070 02/02 Q1020=
201012042350 METAR LIRA 050045Z 02004KT 9999 FEW070 02/01 Q1020=
201012042345 METAR LIRA 042345Z 03003KT 9999 FEW070 02/02 Q1020=
201012042315 METAR LIRA 042315Z 35001KT 9999 FEW030 03/02 Q1019=
201012042245 METAR LIRA 042245Z 00000KT 9999 FEW030 03/02 Q1019=
201012042215 METAR LIRA 042215Z 00000KT 9999 FEW030 03/02 Q1019=
201012042145 METAR LIRA 042145Z 24001KT 9999 FEW030 04/02 Q1018=
201012042115 METAR LIRA 042115Z 24002KT 9999 FEW030 04/02 Q1018=
201012042045 METAR LIRA 042045Z 00000KT 9999 FEW030 05/02 Q1018=
201012042015 METAR LIRA 042015Z 00000KT 9999 FEW018 05/03 Q1018=
201012041945 METAR LIRA 041945Z 00000KT 9999 FEW018 06/03 Q1018=
201012041915 METAR LIRA 041915Z 00000KT 9999 FEW018 SCT033 06/03 Q1017=
201012041845 METAR LIRA 041845Z 03003KT 9999 FEW018 SCT033 06/03 Q1017=
201012041815 METAR LIRA 041815Z 16003KT 9999 FEW018 SCT030 06/04 Q1017=
201012041745 METAR LIRA 041745Z 26005KT 220V310 9999 FEW020 06/03 Q1017=
201012041715 METAR LIRA 041715Z 00000KT 9999 FEW020 06/04 Q1017=
201012041645 METAR LIRA 041645Z 00000KT 9999 FEW017 FEW018TCU 08/04 Q1016=
201012041615 METAR LIRA 041615Z 01003KT 9999 FEW018 SCT030 08/04 Q1015=
201012041545 METAR LIRA 041545Z 33004KT 9999 FEW017 SCT030 08/04 Q1015=
201012041515 METAR LIRA 041515Z 34003KT 9999 FEW017 FEW018TCU 08/04 Q1015=
201012041445 METAR LIRA 041445Z 36005KT 300V030 9999 FEW017 FEW018TCU
                        SCT030 09/05 Q1015=
201012041415 METAR LIRA 041415Z 36006KT 300V060 9999 FEW017 FEW018CB SCT030
                        09/05 Q1013=
201012041345 METAR LIRA 041345Z 34006KT 300V050 9999 FEW017 FEW018CB SCT030
                        09/05 Q1013=
201012041315 METAR LIRA 041315Z 12002KT 9999 FEW017 FEW018CB SCT030 09/04
                        Q1013=
201012041245 METAR LIRA 041245Z 05006KT 340V120 9999 FEW017 FEW018CB 08/05
                        Q1013=
201012041215 METAR LIRA 041215Z 27005KT 200V300 9000 -RA FEW017 FEW018CB
                        BKN030 08/05 Q1012=
201012041145 METAR LIRA 041145Z 14007KT 100V170 9999 FEW017 FEW018CB BKN030
                        10/07 Q1012=
201012041115 METAR LIRA 041115Z 13010KT 9999 FEW017 FEW018CB 10/06 Q1012=
201012041045 METAR LIRA 041045Z 12010KT 9999 FEW017 FEW018CB 09/05 Q1012=
201012041015 METAR LIRA 041015Z 14010KT 9999 FEW017 FEW018CB 08/05 Q1012=
201012040945 METAR LIRA 040945Z 12007KT 9999 FEW018 SCT030 08/03 Q1012=
201012040915 METAR LIRA 040915Z 15010KT 9999 FEW018 SCT030 08/03 Q1012=
201012040845 METAR LIRA 040845Z 16008KT 9999 FEW018 SCT030 08/02 Q1012=
201012040815 METAR LIRA 040815Z 16007KT 120V220 9999 FEW018 07/02 Q1011=
201012040745 METAR LIRA 040745Z 17007KT 9999 FEW018 07/03 Q1010=
201012040715 METAR LIRA 040715Z 16007KT 9999 SCT018 07/02 Q1010=
201012040645 METAR LIRA 040645Z 18006KT 140V230 9999 FEW018 07/02 Q1010=
201012040615 METAR LIRA 040615Z 20005KT 170V250 9999 FEW018 SCT030 07/02
                        Q1010=
201012040545 METAR LIRA 040545Z 17005KT 9999 FEW018 SCT030 07/03 Q1010=
201012040515 METAR LIRA 040515Z 16004KT 9999 FEW018 SCT030 06/04 Q1010=
201012040445 METAR LIRA 040445Z 21003KT 9999 FEW018 BKN030 08/03 Q1010=
201012040415 METAR LIRA 040415Z 18004KT 9999 FEW018 BKN030 08/04 Q1010=
201012040345 METAR LIRA 040345Z 18005KT 9999 FEW018 BKN025 08/05 Q1010=
201012040315 METAR LIRA 040315Z 15006KT 9999 FEW018 BKN025 08/06 Q1010=
201012040245 METAR LIRA 040245Z 17006KT 9999 FEW018 BKN025 07/05 Q1010
                        RETS=
201012040215 METAR LIRA 040215Z 14006KT 9999 FEW018TCU BKN025 07/05 Q1010
                        RETS=
201012040145 METAR LIRA 040145Z 15006KT 9999 -TSRA FEW017CB SCT025 07/06
                        Q1010=
201012040115 METAR LIRA 040115Z 17008KT 130V210 9999 -TSRA FEW017CB BKN025
                        08/04 Q1011=
201012040045 METAR LIRA 040045Z 15009KT 9999 FEW018 SCT025 07/04 Q1011=
201012040015 METAR LIRA 040015Z 16008KT 120V180 9999 FEW018 SCT025 07/05
                        Q1011=
201012032350 METAR LIRA 040045Z 15009KT 9999 FEW018 SCT025 07/04 Q1011=
201012032345 METAR LIRA 032345Z 14008KT 9999 FEW018 SCT025 08/06 Q1012=
201012032315 METAR LIRA 032315Z 15005KT 8000 -RA FEW017CB SCT018 BKN025
                        07/05 Q1012 RETS=
201012032245 METAR LIRA 032245Z 16008KT 8000 -RA FEW017CB SCT025 08/06
                        Q1012 RETS=
201012032215 METAR LIRA 032215Z 16007KT 8000 -TSRA FEW017CB SCT025 08/06
                        Q1012=
201012032145 METAR LIRA 032145Z 22004KT 200V290 8000 -TSRA FEW017CB SCT025
                        08/05 Q1012=
201012032115 METAR LIRA 032115Z 12006KT 9999 FEW018 SCT025 08/04 Q1011=
201012032045 METAR LIRA 032045Z 14004KT 9999 FEW018 SCT025 07/03 Q1011=
201012032015 METAR LIRA 032015Z 12005KT 9999 FEW018 SCT025 07/04 Q1011=
201012031945 METAR LIRA 031945Z 11004KT 9999 FEW018 SCT025 06/03 Q1011=
201012031915 METAR LIRA 031915Z 11005KT 9999 FEW018 SCT025 06/03 Q1011=
201012031845 METAR LIRA 031845Z 15005KT 9999 FEW018 SCT025 07/03 Q1011=
201012031815 METAR LIRA 031815Z 15005KT 9999 FEW018 SCT025 07/03 Q1011=
201012031745 METAR LIRA 031745Z 17004KT 9999 FEW018 SCT025 07/03 Q1011=
201012031715 METAR LIRA 031715Z 15005KT 9999 FEW018 SCT025 07/03 Q1011=
201012031645 METAR LIRA 031645Z 18004KT 9999 FEW018 09/03 Q1010=
201012031615 METAR LIRA 031615Z 16005KT 9999 FEW017 09/03 Q1010=
201012031545 METAR LIRA 031545Z 20004KT 9999 FEW017 10/02 Q1010=
201012031515 METAR LIRA 031515Z 22004KT 9999 FEW017 11/03 Q1009=
201012031445 METAR LIRA 031445Z 23007KT 190V280 9999 SCT017 11/02 Q1009=
201012031415 METAR LIRA 031415Z 23007KT 170V280 9999 SCT017 11/02 Q1009=
201012031345 METAR LIRA 031345Z 24007KT 190V300 9999 SCT017 SCT025 11/04
                        Q1008=
201012031315 METAR LIRA 031315Z 26008KT 200V340 9999 SCT017 SCT025 12/04
                        Q1008=
201012031245 METAR LIRA 031245Z 24008KT 180V300 9999 SCT017 SCT025 12/03
                        Q1008=
201012031215 METAR LIRA 031215Z 26008KT 180V310 9999 SCT017 SCT025 12/04
                        Q1008=
201012031145 METAR LIRA 031145Z 26008KT 200V340 9999 SCT017 12/04 Q1009=
201012031115 METAR LIRA 031115Z 26010KT 190V350 9999 SCT017 SCT025 12/03
                        Q1009=
201012031045 METAR LIRA 031045Z 23010KT 190V300 9999 SCT017 12/04 Q1008=
201012031015 METAR LIRA 031015Z 23008KT 190V280 9999 FEW020 13/07 Q1008=
201012030945 METAR LIRA 030945Z 17004KT 9999 FEW022 11/07 Q1008=
201012030915 METAR LIRA 030915Z 23005KT 200V290 9999 FEW020 FEW022CB SCT030
                        10/07 Q1008=
201012030845 METAR LIRA 030845Z 21004KT 9999 -RA SCT018 FEW020CB SCT030
                        10/07 Q1008=
201012030815 METAR LIRA 030815Z 20004KT 9999 SCT017 FEW020CB 10/07 Q1007=
201012030745 METAR LIRA 030745Z 17004KT 9999 -RA SCT017 FEW020CB SCT025
                        09/07 Q1007=
201012030715 METAR LIRA 030715Z 19003KT 7000 -RA SCT017 FEW020CB SCT025
                        09/06 Q1007=
201012030645 METAR LIRA 030645Z 15006KT 9999 SCT018 08/06 Q1006=
201012030615 METAR LIRA 030615Z 15005KT 9999 SCT020 SCT025 08/06 Q1006=
201012030545 METAR LIRA 030545Z 16004KT 9999 FEW018TCU SCT020 08/07 Q1006=
201012030515 METAR LIRA 030515Z 18004KT 9999 FEW018 09/07 Q1005=
201012030445 METAR LIRA 030445Z 18005KT 9999 FEW018 SCT025 09/07 Q1005=
201012030415 METAR LIRA 030415Z 17004KT 9999 FEW018 SCT025 09/08 Q1005=
201012030345 METAR LIRA 030345Z 17004KT 9999 FEW018 SCT025 10/08 Q1005=
201012030315 METAR LIRA 030315Z 19004KT 9999 FEW016CB SCT025 10/08 Q1005=
201012030245 METAR LIRA 030245Z 18004KT 9999 FEW016CB SCT025 10/09 Q1005=
201012030215 METAR LIRA 030215Z 20004KT 160V240 9999 -RA FEW016CB SCT023
                        10/09 Q1005=
201012030145 METAR LIRA 030145Z 17005KT 140V210 9999 -RA FEW016CB SCT023
                        10/09 Q1005=
201012030115 METAR LIRA 030115Z 16006KT 9999 FEW016CB SCT025 10/09 Q1005=
201012030045 METAR LIRA 030045Z 16006KT 9999 FEW016CB SCT025 10/09 Q1005
                        RETS=
201012030015 METAR LIRA 030015Z 18005KT 9999 FEW016CB SCT025 10/09 Q1005
                        RETS=
201012022350 METAR LIRA 030045Z 16006KT 9999 FEW016CB SCT025 10/09 Q1005
                        RETS=
201012022345 METAR LIRA 022345Z 18005KT 150V210 9999 -TSRA FEW016CB SCT025
                        10/09 Q1005=
201012022315 METAR LIRA 022315Z 19006KT 160V220 9999 -TSRA FEW016CB SCT025
                        10/08 Q1005=
201012022245 METAR LIRA 022245Z 21007KT 150V260 9999 -TSRA FEW016CB 10/09
                        Q1005=
201012022215 METAR LIRA 022215Z VRB12KT 120V300 5000 -TSRA BR FEW014CB
                        SCT016 11/09 Q1005=
201012022145 METAR LIRA 022145Z 16013KT 9999 -TSRA FEW016CB SCT017 11/10
                        Q1005=
201012022115 METAR LIRA 022115Z 16014KT 9999 -TSRA FEW016CB SCT017 BKN018
                        11/10 Q1005=
201012022045 METAR LIRA 022045Z 16012KT 8000 -TSRA FEW016CB SCT017 BKN018
                        10/09 Q1005=
201012022015 METAR LIRA 022015Z 17012KT 140V210 6000 TSRA FEW016CB BKN018
                        10/08 Q1006=
201012021945 METAR LIRA 021945Z 17017KT 110V190 6000 TSRA FEW016CB BKN018
                        11/09 Q1005=
201012021915 METAR LIRA 021915Z 13017KT 100V160 9999 -RA FEW018 SCT025
                        BKN070 12/09 Q1005=
201012021845 METAR LIRA 021845Z 13012KT 090V160 9999 -RA FEW018 SCT030
                        BKN070 13/06 Q1006=
201012021815 METAR LIRA 021815Z 12010KT 9999 FEW018 SCT080 12/06 Q1007=
201012021745 METAR LIRA 021745Z 11004KT 9999 FEW018 SCT080 10/07 Q1007=
201012021715 METAR LIRA 021715Z 11004KT 9999 FEW018 SCT080 10/07 Q1008=
201012021645 METAR LIRA 021645Z 12002KT 9999 FEW018 SCT080 11/07 Q1009=
201012021615 METAR LIRA 021615Z 13005KT 9999 FEW018 BKN080 11/07 Q1009=
201012021545 METAR LIRA 021545Z 17003KT 9999 FEW018 BKN080 12/07 Q1009=
201012021515 METAR LIRA 021515Z 17004KT 9999 FEW018 BKN080 12/06 Q1009=
201012021445 METAR LIRA 021445Z 19004KT 9999 FEW018 SCT080 13/06 Q1009=
201012021415 METAR LIRA 021415Z 18004KT 9999 FEW018 SCT080 13/05 Q1009=
201012021345 METAR LIRA 021345Z 17004KT 9999 FEW018 14/05 Q1009=
201012021315 METAR LIRA 021315Z 18003KT 9999 FEW018 15/07 Q1010=
201012021245 METAR LIRA 021245Z 23007KT 190V270 9999 FEW018 FEW020TCU
                        15/06 Q1010=
201012021215 METAR LIRA 021215Z 23009KT 180V270 9999 FEW018 FEW020TCU
                        15/07 Q1010=
201012021145 METAR LIRA 021145Z 23009KT 180V280 9999 FEW018 SCT080 14/07
                        Q1010=
201012021115 METAR LIRA 021115Z 23008KT 190V280 9999 FEW018 SCT070 14/06
                        Q1010=
201012021045 METAR LIRA 021045Z 23010KT 160V270 9999 FEW018 FEW020TCU
                        SCT200 14/07 Q1009=
201012021015 METAR LIRA 021015Z 23010KT 180V270 9999 FEW018 FEW020TCU
                        14/07 Q1009=
201012020945 METAR LIRA 020945Z 22008KT 180V280 9999 FEW018 FEW020TCU
                        15/08 Q1009=
201012020915 METAR LIRA 020915Z 22007KT 180V260 9999 FEW018 FEW020TCU
                        14/09 Q1009=
201012020845 METAR LIRA 020845Z 22006KT 170V280 9999 FEW018 FEW020TCU
                        13/09 Q1009=
201012020815 METAR LIRA 020815Z 21006KT 150V250 9999 FEW018 FEW020TCU
                        13/09 Q1009=
201012020745 METAR LIRA 020745Z 17005KT 9999 FEW018 11/09 Q1008=
201012020715 METAR LIRA 020715Z 17005KT 9999 SCT018 SCT070 11/09 Q1008=
201012020645 METAR LIRA 020645Z 18007KT 9999 SCT018 SCT025 11/10 Q1007=
201012020615 METAR LIRA 020615Z 17005KT 9999 SCT018 SCT025 11/09 Q1007=
201012020545 METAR LIRA 020545Z 17004KT 9999 SCT018 11/09 Q1006=
201012020515 METAR LIRA 020515Z 18005KT 9999 SCT018 SCT070 11/10 Q1006=
201012020445 METAR LIRA 020445Z 17005KT 9999 SCT018 SCT070 11/10 Q1005=
201012020415 METAR LIRA 020415Z 18005KT 9999 SCT015 SCT070 11/09 Q1005=
201012020345 METAR LIRA 020345Z 17005KT 9999 SCT015 SCT070 11/10 Q1005=
201012020315 METAR LIRA 020315Z 15007KT 9999 -RA FEW015 SCT070 11/10 Q1005=
201012020245 METAR LIRA 020245Z 16004KT 9999 FEW015 SCT025 11/10 Q1005=
201012020215 METAR LIRA 020215Z 18004KT 9999 -RA FEW018 SCT025 11/09 Q1005=
201012020145 METAR LIRA 020145Z 17009KT 100V230 9000 -RA FEW020 SCT030
                        12/09 Q1005=
201012020115 METAR LIRA 020115Z 16007KT 9999 -RA FEW020 SCT030 12/10 Q1005=
201012020045 METAR LIRA 020045Z 16005KT 9999 -RA FEW020 SCT030 12/10 Q1005=
201012020015 METAR LIRA 020015Z 16005KT 9999 -RA FEW020TCU SCT030 12/10
                        Q1005=
201012012350 METAR LIRA 020045Z 16005KT 9999 -RA FEW020 SCT030 12/10 Q1005=
201012012345 METAR LIRA 012345Z 17005KT 9999 FEW014 FEW020TCU SCT030 12/09
                        Q1005=
201012012315 METAR LIRA 012315Z 17004KT 9999 FEW020 SCT030 12/10 Q1005=
201012012245 METAR LIRA 012245Z 17004KT 9999 FEW020 SCT030 12/10 Q1005=
201012012215 METAR LIRA 012215Z 15005KT 9999 FEW020TCU SCT030 12/10 Q1005=
201012012145 METAR LIRA 012145Z 17004KT 9999 FEW020TCU SCT035 12/10 Q1005=
201012012115 METAR LIRA 012115Z 16005KT 9999 FEW020TCU SCT060 12/10 Q1005=
201012012045 METAR LIRA 012045Z 18005KT 150V230 9999 FEW018TCU SCT070
                        13/10 Q1005=
201012012015 METAR LIRA 012015Z 18007KT 140V220 9999 FEW018CB FEW020TCU
                        13/09 Q1004=
201012011945 METAR LIRA 011945Z 18006KT 9999 SCT018 SCT060 13/10 Q1004=
201012011915 METAR LIRA 011915Z 18007KT 9999 FEW020 12/10 Q1004=
201012011845 METAR LIRA 011845Z 18005KT 9999 FEW020 12/10 Q1003=
201012011815 METAR LIRA 011815Z 17005KT 9999 FEW020 12/10 Q1003=
201012011745 METAR LIRA 011745Z 16005KT 9999 FEW018 SCT070 12/10 Q1003=
201012011715 METAR LIRA 011715Z 15006KT 9999 FEW020 SCT070 12/10 Q1003=
201012011645 METAR LIRA 011645Z 17005KT 9999 FEW018 12/10 Q1003=
201012011615 METAR LIRA 011615Z 20005KT 150V240 9999 FEW018 13/09 Q1002=
201012011545 METAR LIRA 011545Z 23007KT 180V270 9999 FEW018 14/10 Q1002=
201012011515 METAR LIRA 011515Z 23011KT 180V280 9999 FEW018 SCT030 15/11
                        Q1002=
201012011445 METAR LIRA 011445Z 24008KT 190V300 9999 FEW016 BKN030 15/11
                        Q1001=
201012011415 METAR LIRA 011415Z 21006KT 130V250 9999 FEW015 BKN025 15/12
                        Q1001=
201012011345 METAR LIRA 011345Z 21006KT 150V260 9999 FEW015 SCT030 BKN070
                        15/12 Q1000=
201012011315 METAR LIRA 011315Z 23006KT 9999 FEW012 SCT025 15/13 Q1000=
201012011245 METAR LIRA 011245Z 23007KT 150V270 9000 -RA FEW012 SCT025
                        BKN060 15/12 Q1000=
201012011215 METAR LIRA 011215Z 18008KT 9000 -RA FEW012 SCT025 BKN060
                        16/14 Q0999=
201012011145 METAR LIRA 011145Z 21010KT 160V260 8000 -RA FEW012 SCT025
                        BKN060 17/15 Q0998=
201012011115 METAR LIRA 011115Z 21009KT 170V240 8000 FEW010 SCT025 17/15
                        Q0998=
201012011015 METAR LIRA 011015Z 18012KT 150V240 6000 FEW009 SCT025 17/15
                        Q0997=
201012010915 METAR LIRA 010915Z 18013KT 5000 -RA BR FEW009 SCT025 BKN080
                        17/15 Q0997=
201012010715 METAR LIRA 010715Z 16016KT 100V190 4000 -RA BR FEW009 BKN025
                        16/15 Q0994=
201012010655 METAR LIRA 010655Z 16017 4000 -RA BR SCT009 BKN025 16/15
                        Q0994=
201012010645 METAR LIRA 010645Z 16017KT 4000 -RA BR SCT009 BKN025 16/15
                        Q0994=
201012010515 METAR LIRA 010515Z 15018KT 090V190 5000 -RA BR SCT015 BKN025
                        16/15 Q0995=
201012010445 METAR LIRA 010445Z 15011KT 110V200 5000 -RA BR FEW015 BKN025
                        16/15 Q0995=
201012010415 METAR LIRA 010415Z 14015KT 5000 -RA BR FEW015 BKN025 16/16
                        Q0996=
201012010345 METAR LIRA 010345Z 14016KT 110V180 5000 -RA BR FEW015 BKN025
                        16/15 Q0996=
201012010315 METAR LIRA 010315Z 15016KT 6000 -RA FEW015 BKN025 17/15 Q0996=
201012010245 METAR LIRA 010245Z 15022KT 6000 -RA FEW015 BKN025 16/15 Q0996=
201012010215 METAR LIRA 010215Z 14020KT 6000 FEW015 BKN025 17/15 Q0997=

</pre>

</body>
</html>
