##########################################################
# Query made at 11/10/2014 15:18:31 UTC
# Time interval: from 12/01/2009 00:00  to 12/31/2009 23:59  UTC
##########################################################

##########################################################
# LIRA, Roma / Ciampino (Italy)
# WMO index: 16239
# Latitude 41-47N. Longitude 012-35E. Altitude 129 m.
##########################################################

###################################
#  METAR/SPECI from LIRA
###################################
200912312350 METAR LIRA 010045Z 18006KT 140V240 9999 FEW013 SCT070 12/10
                        Q0996=
200912312345 METAR LIRA 312345Z 19008KT 150V220 9999 FEW013 SCT070 12/10
                        Q0997=
200912312315 METAR LIRA 312315Z 19007KT 9999 FEW013 BKN030 12/10 Q0997
                        RETS=
200912312245 METAR LIRA 312245Z 22008KT 170V260 9999 FEW013 FEW015CB BKN030
                        12/11 Q0997 RETS=
200912312215 METAR LIRA 312215Z 23011KT 180V270 6000 -TSRA SCT013 FEW015CB
                        BKN025 12/11 Q0997=
200912312145 METAR LIRA 312145Z 20010KT 120V310 2000 +TSRA BR SCT013 SCT015CB
                        BKN025 13/12 Q0997=
200912312115 METAR LIRA 312115Z 16014KT 120V190 7000 -RA FEW015 BKN025
                        13/12 Q0997=
200912312045 METAR LIRA 312045Z 15018KT 8000 -RA FEW015 BKN025 13/11 Q0997=
200912312015 METAR LIRA 312015Z 19012KT 150V240 9999 FEW015 BKN030 14/12
                        Q0997 RETS=
200912311945 METAR LIRA 311945Z 17013KT 120V260 9999 FEW015 BKN030 14/12
                        Q0997 RETS=
200912311915 METAR LIRA 311915Z 15015KT 9999 -TSRA FEW015 FEW017CB BKN030
                        14/11 Q0997=
200912311845 METAR LIRA 311845Z 14014KT 9999 -TSRA FEW015 FEW017CB BKN025
                        14/11 Q0997 RERA=
200912311815 METAR LIRA 311815Z 16014KT 120V230 6000 RA FEW015 BKN025
                        14/12 Q0998=
200912311745 METAR LIRA 311745Z 15009KT 9999 -RA FEW016 BKN030 14/10 Q0998=
200912311715 METAR LIRA 311715Z 16011KT 120V190 9999 FEW016 SCT030 14/10
                        Q0999 WS RWY 15=
200912311645 METAR LIRA 311645Z 17009KT 140V210 9999 -RA FEW016 SCT030
                        14/11 Q0999 WS RWY 15=
200912311615 METAR LIRA 311615Z 17014KT 130V220 9999 -RA FEW016 BKN030
                        15/11 Q0999=
200912311545 METAR LIRA 311545Z 16016KT 9999 FEW016 SCT030 14/11 Q0999=
200912311515 METAR LIRA 311515Z 16016KT 140V200 9999 FEW018 SCT035 15/11
                        Q0999=
200912311445 METAR LIRA 311445Z 16019KT 130V200 9999 FEW018 SCT035 15/10
                        Q0999=
200912311415 METAR LIRA 311415Z 17012KT 150V220 9999 FEW018 SCT070 15/10
                        Q0999=
200912311345 METAR LIRA 311345Z 15013KT 120V180 9999 FEW018 SCT070 15/10
                        Q1000=
200912311315 METAR LIRA 311315Z 15014KT 120V200 9999 FEW018 SCT070 16/11
                        Q1000=
200912311245 METAR LIRA 311245Z 16013KT 9999 FEW018 SCT035 BKN060 16/10
                        Q1001=
200912311215 METAR LIRA 311215Z 16015KT 9999 FEW020 BKN060 17/10 Q1001=
200912311145 METAR LIRA 311145Z 15015G25KT 9999 FEW018 SCT060 18/10 Q1001=
200912311115 METAR LIRA 311115Z 16017KT 130V190 9999 FEW018 17/10 Q1002=
200912311045 METAR LIRA 311045Z 16017G27KT 130V190 9999 FEW018 17/10 Q1002=
200912311015 METAR LIRA 311015Z 16017KT 130V190 9999 FEW018 16/11 Q1003=
200912302045 METAR LIRA 302045Z 20008KT 150V280 9999 FEW030 SCT080 14/11
                        Q1006=
200912302015 METAR LIRA 302015Z 19016KT 120V220 9999 FEW030 SCT080 14/09
                        Q1005=
200912301945 METAR LIRA 301945Z 17013KT 120V200 9999 FEW030 SCT080 15/10
                        Q1005=
200912301915 METAR LIRA 301915Z 15017G27KT 120V200 9999 FEW030 SCT080
                        15/10 Q1005=
200912301845 METAR LIRA 301845Z 15015KT 070V270 9999 FEW030 SCT080 15/11
                        Q1005=
200912301815 METAR LIRA 301815Z 15018KT 9999 SCT080 15/12 Q1005=
200912301745 METAR LIRA 301745Z 15016G26KT 120V220 9999 FEW020 SCT080
                        15/11 Q1005=
200912301715 METAR LIRA 301715Z 16014KT 120V200 9999 FEW020 SCT070 16/11
                        Q1005=
200912301645 METAR LIRA 301645Z 16011KT 120V220 9999 FEW020 16/11 Q1005=
200912301615 METAR LIRA 301615Z 16011KT 120V190 9999 FEW020 16/11 Q1005=
200912301545 METAR LIRA 301545Z 16010KT 9999 FEW020 16/11 Q1006=
200912301515 METAR LIRA 301515Z 15011KT 9999 FEW020 17/12 Q1006=
200912301445 METAR LIRA 301445Z 14010KT 120V200 9999 FEW018 17/12 Q1007=
200912301415 METAR LIRA 301415Z 15008KT 9999 FEW018 17/12 Q1007=
200912301345 METAR LIRA 301345Z 15007KT 120V190 9999 FEW018 17/13 Q1007=
200912301315 METAR LIRA 301315Z 17010KT 9999 FEW018 SCT040 17/13 Q1007=
200912301245 METAR LIRA 301245Z 16009KT 130V200 9999 FEW018 SCT035 17/13
                        Q1007=
200912301215 METAR LIRA 301215Z 16011KT 130V210 9999 SCT016 SCT030 17/13
                        Q1007=
200912301145 METAR LIRA 301145Z 15014KT 120V200 9999 SCT015 SCT030 17/13
                        Q1008=
200912301115 METAR LIRA 301115Z 16011KT 130V190 9999 FEW018 SCT030 17/13
                        Q1008=
200912301045 METAR LIRA 301045Z 16008KT 120V210 9999 FEW016 SCT025 16/13
                        Q1008=
200912301015 METAR LIRA 301015Z 18009KT 9999 SCT016 SCT025 16/13 Q1008=
200912300945 METAR LIRA 300945Z 13011KT 090V170 9999 SCT016 BKN025 16/13
                        Q1008=
200912300915 METAR LIRA 300915Z 15011KT 9999 SCT016 BKN025 15/13 Q1008=
200912300845 METAR LIRA 300845Z 16010KT 9999 SCT016 BKN025 15/13 Q1007=
200912300815 METAR LIRA 300815Z 15009KT 120V190 9999 SCT016 BKN025 15/13
                        Q1007=
200912300745 METAR LIRA 300745Z 15011KT 9999 SCT016 BKN025 14/12 Q1007=
200912300715 METAR LIRA 300715Z 15011KT 9999 SCT016 BKN025 14/11 Q1007=
200912300645 METAR LIRA 300645Z 16006KT 130V210 9999 SCT016 BKN025 15/12
                        Q1007=
200912300615 METAR LIRA 300615Z 16006KT 9999 FEW020 SCT040 15/13 Q1006=
200912300545 METAR LIRA 300545Z 14008KT 9999 FEW020 SCT040 13/11 Q1007=
200912300515 METAR LIRA 300515Z 14013KT 9999 FEW020 SCT040 13/11 Q1007=
200912300445 METAR LIRA 300445Z 15012KT 110V170 9999 FEW018 SCT035 13/11
                        Q1006=
200912300415 METAR LIRA 300415Z 15013KT 110V180 9999 SCT018 SCT030 13/11
                        Q1006=
200912300345 METAR LIRA 300345Z 15010KT 100V170 9999 SCT018 SCT030 13/11
                        Q1006=
200912300315 METAR LIRA 300315Z 17010KT 120V210 9999 SCT018 SCT030 13/11
                        Q1006=
200912300245 METAR LIRA 300245Z 14013KT 110V170 9999 SCT018 SCT030 14/11
                        Q1006=
200912300215 METAR LIRA 300215Z 31002KT 9999 SCT018 SCT030 12/10 Q1007=
200912300145 METAR LIRA 300145Z 13003KT 9999 SCT018 SCT030 12/10 Q1008=
200912300115 METAR LIRA 300115Z 15008KT 120V190 9999 SCT018 SCT030 13/11
                        Q1008=
200912300045 METAR LIRA 300045Z 00000KT 9999 SCT018 BKN030 13/11 Q1008=
200912300015 METAR LIRA 300015Z 14010G23KT 110V210 9999 SCT018 BKN030
                        12/10 Q1008=
200912292350 METAR LIRA 300045Z 00000KT 9999 SCT018 BKN030 13/11 Q1008=
200912292345 METAR LIRA 292345Z 05001KT 9999 SCT018 BKN030 13/11 Q1009=
200912292315 METAR LIRA 292315Z 13006KT 090V150 9999 SCT018 BKN030 13/11
                        Q1009=
200912292245 METAR LIRA 292245Z 15013KT 110V190 9999 SCT018 SCT030 13/10
                        Q1009=
200912292215 METAR LIRA 292215Z 14010G24KT 080V170 9999 SCT018 SCT030
                        13/10 Q1009=
200912292145 METAR LIRA 292145Z 13012KT 9999 FEW018 BKN030 13/10 Q1009=
200912292115 METAR LIRA 292115Z 14015KT 9999 FEW018 BKN035 13/10 Q1009=
200912292045 METAR LIRA 292045Z 14012KT 9999 SCT018 BKN035 12/10 Q1010=
200912292015 METAR LIRA 292015Z 15010KT 120V180 9999 FEW018 BKN035 12/10
                        Q1010=
200912291945 METAR LIRA 291945Z 16009KT 9999 FEW018 SCT030 12/10 Q1009=
200912291915 METAR LIRA 291915Z 27002KT 9999 FEW018 SCT030 12/10 Q1009=
200912291845 METAR LIRA 291845Z 10001KT 9999 FEW018 SCT030 12/10 Q1009=
200912291815 METAR LIRA 291815Z 00000KT 9999 FEW015 SCT030 12/10 Q1009=
200912291745 METAR LIRA 291745Z 00000KT 9000 FEW015 BKN025 11/10 Q1008=
200912291715 METAR LIRA 291715Z 00000KT 8000 FEW015 SCT025 12/10 Q1008=
200912291645 METAR LIRA 291645Z 06002KT 8000 FEW015 SCT030 BKN070 11/09
                        Q1008=
200912291615 METAR LIRA 291615Z 10004KT 8000 SCT015 BKN070 11/09 Q1008=
200912291545 METAR LIRA 291545Z 09002KT 8000 SCT015 BKN070 11/09 Q1008=
200912291515 METAR LIRA 291515Z 16008KT 8000 SCT015 SCT030 11/09 Q1008=
200912291445 METAR LIRA 291445Z 15010KT 8000 SCT015 BKN070 11/09 Q1008=
200912291415 METAR LIRA 291415Z 16008KT 8000 SCT015 BKN070 11/09 Q1008=
200912291345 METAR LIRA 291345Z 15010G20KT 090V190 8000 SCT015 BKN070
                        11/10 Q1008=
200912291315 METAR LIRA 291315Z 16008KT 120V200 8000 -RA SCT015 BKN070
                        11/10 Q1008=
200912291245 METAR LIRA 291245Z 16006KT 100V200 8000 -RA SCT015 BKN070
                        11/10 Q1008=
200912291215 METAR LIRA 291215Z 16010KT 7000 -RA SCT018 BKN030 11/10 Q1008=
200912291145 METAR LIRA 291145Z 15009KT 120V190 7000 -RA SCT018 BKN030
                        11/10 Q1009=
200912291115 METAR LIRA 291115Z 15010KT 6000 -RA SCT018 BKN030 11/09 Q1009=
200912291045 METAR LIRA 291045Z 15010KT 6000 -RA SCT018 SCT030 11/10 Q1009=
200912291015 METAR LIRA 291015Z 15005KT 6000 -RA SCT018 SCT030 11/10 Q1009=
200912290945 METAR LIRA 290945Z 14006KT 6000 -RA SCT018 SCT030 11/10 Q1009=
200912290915 METAR LIRA 290915Z 14007KT 5000 -RA BR SCT018 SCT030 11/10
                        Q1009=
200912290845 METAR LIRA 290845Z 14007KT 6000 -RA SCT018 SCT030 12/10 Q1008=
200912290815 METAR LIRA 290815Z 14009KT 8000 -DZ SCT018 SCT030 12/10 Q1008=
200912290745 METAR LIRA 290745Z 15007KT 8000 -DZ SCT016 BKN030 12/10 Q1008=
200912290715 METAR LIRA 290715Z 15008KT 110V200 8000 -DZ SCT016 BKN030
                        12/10 Q1008=
200912290645 METAR LIRA 290645Z 15009KT 8000 SCT018 SCT030 12/10 Q1008=
200912290615 METAR LIRA 290615Z 15009KT 9999 SCT018 SCT030 12/10 Q1008=
200912290545 METAR LIRA 290545Z 16008KT 9999 FEW018 SCT030 12/10 Q1008=
200912290515 METAR LIRA 290515Z 16007KT 9999 SCT028 BKN070 12/10 Q1008=
200912290445 METAR LIRA 290445Z 16007KT 9999 SCT028 BKN070 12/10 Q1008=
200912290415 METAR LIRA 290415Z 15008KT 9999 SCT022 BKN070 12/10 Q1008=
200912290345 METAR LIRA 290345Z 16007KT 9999 SCT028 BKN070 12/10 Q1008=
200912290315 METAR LIRA 290315Z 14006KT 9999 SCT028 BKN070 12/09 Q1008=
200912290245 METAR LIRA 290245Z 15007KT 9999 SCT028 BKN070 12/09 Q1008=
200912290215 METAR LIRA 290215Z 15006KT 9999 SCT028 BKN070 12/09 Q1008=
200912290145 METAR LIRA 290145Z 14006KT 9999 SCT028 BKN070 12/09 Q1008=
200912290115 METAR LIRA 290115Z 14007KT 9999 SCT028 BKN070 12/09 Q1008=
200912290045 METAR LIRA 290045Z 15007KT 9999 SCT028 BKN070 12/09 Q1008=
200912290015 METAR LIRA 290015Z 15007KT 9999 SCT028 BKN070 12/08 Q1008=
200912282350 METAR LIRA 290045Z 15007KT 9999 SCT028 BKN070 12/09 Q1008=
200912282345 METAR LIRA 282345Z 15009KT 9999 SCT028 BKN070 12/09 Q1008=
200912282315 METAR LIRA 282315Z 15012KT 9999 FEW015 BKN070 11/09 Q1008=
200912282245 METAR LIRA 282245Z 16009KT 9999 FEW015 BKN070 11/09 Q1008=
200912282215 METAR LIRA 282215Z 15007KT 9999 FEW015 BKN070 11/09 Q1008=
200912282145 METAR LIRA 282145Z 15012KT 9999 FEW015 BKN070 11/09 Q1008=
200912282115 METAR LIRA 282115Z 15010KT 9999 FEW015 BKN070 11/09 Q1008=
200912282045 METAR LIRA 282045Z 14010KT 120V180 9999 -RA FEW008 SCT022
                        BKN070 11/08 Q1008=
200912282015 METAR LIRA 282015Z 15011KT 9999 -RA FEW008 SCT022 BKN070
                        11/08 Q1008=
200912281945 METAR LIRA 281945Z 15011KT 9999 -RA FEW008 SCT022 BKN070
                        11/08 Q1008=
200912281915 METAR LIRA 281915Z 14012KT 120V180 9999 FEW006 SCT022 BKN070
                        11/07 Q1008=
200912281845 METAR LIRA 281845Z 15015KT 9999 FEW006 SCT022 BKN070 11/07
                        Q1008=
200912281815 METAR LIRA 281815Z 15016KT 120V190 9999 FEW013 BKN025 11/07
                        Q1008=
200912281745 METAR LIRA 281745Z 15016KT 9999 FEW015 BKN025 11/07 Q1008=
200912281715 METAR LIRA 281715Z 16010KT 120V180 9999 FEW015 BKN025 11/07
                        Q1008=
200912281645 METAR LIRA 281645Z 14014KT 9999 FEW015 BKN025 11/07 Q1009=
200912281615 METAR LIRA 281615Z 15012KT 9999 FEW015 BKN025 11/07 Q1010=
200912281545 METAR LIRA 281545Z 15008KT 9999 FEW015 BKN025 11/07 Q1010=
200912281515 METAR LIRA 281515Z 15010KT 9999 FEW015 SCT025 BKN080 11/08
                        Q1010=
200912281445 METAR LIRA 281445Z 16009KT 9999 FEW015 SCT025 BKN080 11/08
                        Q1010=
200912281415 METAR LIRA 281415Z 16008KT 9999 FEW015 SCT025 BKN070 11/08
                        Q1010=
200912281345 METAR LIRA 281345Z 16008KT 9999 FEW013 BKN025 11/07 Q1010=
200912281315 METAR LIRA 281315Z 15008KT 9999 FEW013 SCT025 BKN070 11/07
                        Q1011=
200912281245 METAR LIRA 281245Z 15010KT 9999 FEW010 SCT015 BKN070 11/07
                        Q1011=
200912281215 METAR LIRA 281215Z 16008KT 130V210 9999 FEW010 SCT015 BKN070
                        11/07 Q1011=
200912281145 METAR LIRA 281145Z 17008KT 120V190 9999 FEW015 SCT025 BKN070
                        11/07 Q1011=
200912281115 METAR LIRA 281115Z 16005KT 130V220 9999 FEW015 SCT025 BKN070
                        11/07 Q1011=
200912281045 METAR LIRA 281045Z 14011KT 9999 FEW015 SCT025 BKN070 11/07
                        Q1012=
200912281015 METAR LIRA 281015Z 15007KT 9999 SCT015 SCT025 10/06 Q1012=
200912280945 METAR LIRA 280945Z 16007KT 110V220 9999 FEW018 SCT025 BKN070
                        10/06 Q1012=
200912280915 METAR LIRA 280915Z 15007KT 9999 FEW018 BKN025 09/07 Q1012=
200912280845 METAR LIRA 280845Z 16002KT 9999 FEW018 BKN080 09/07 Q1012=
200912280815 METAR LIRA 280815Z 12004KT 9999 FEW018 SCT080 08/06 Q1011=
200912280745 METAR LIRA 280745Z 11004KT 9999 FEW018 SCT080 07/05 Q1012=
200912280715 METAR LIRA 280715Z 14002KT 9999 FEW018 05/04 Q1012=
200912280645 METAR LIRA 280645Z 00000KT 9999 FEW022 04/02 Q1012=
200912280615 METAR LIRA 280615Z 04002KT 9999 FEW022 03/02 Q1012=
200912280545 METAR LIRA 280545Z 12003KT 9999 FEW022 03/02 Q1011=
200912280515 METAR LIRA 280515Z 04003KT 9999 FEW022 SCT070 03/02 Q1011=
200912280445 METAR LIRA 280445Z 34001KT 9999 FEW022 SCT070 03/02 Q1011=
200912280415 METAR LIRA 280415Z 07001KT 9999 FEW022 SCT070 04/02 Q1011=
200912280345 METAR LIRA 280345Z 10003KT 9999 FEW022 SCT070 04/01 Q1011=
200912280315 METAR LIRA 280315Z 15003KT 9999 FEW022 03/01 Q1011=
200912280245 METAR LIRA 280245Z 11002KT 9999 FEW022 04/02 Q1011=
200912280215 METAR LIRA 280215Z 14003KT 9999 FEW022 03/02 Q1011=
200912280145 METAR LIRA 280145Z 11001KT 9999 FEW022 03/02 Q1011=
200912280115 METAR LIRA 280115Z 05002KT 9999 FEW022 03/02 Q1011=
200912280045 METAR LIRA 280045Z 06003KT 9999 FEW022 04/02 Q1011=
200912280015 METAR LIRA 280015Z 16001KT 9999 FEW022 03/02 Q1011=
200912272350 METAR LIRA 280045Z 06003KT 9999 FEW022 04/02 Q1011=
200912272345 METAR LIRA 272345Z 14002KT 9999 FEW022 03/01 Q1011=
200912272315 METAR LIRA 272315Z 09001KT 9999 FEW022 04/02 Q1011=
200912272245 METAR LIRA 272245Z 08002KT 9999 FEW022 04/02 Q1011=
200912272215 METAR LIRA 272215Z 08001KT 9999 FEW070 05/02 Q1011=
200912272145 METAR LIRA 272145Z 00000KT 9999 FEW022 05/03 Q1010=
200912272115 METAR LIRA 272115Z 09003KT 9999 SCT070 05/03 Q1010=
200912272045 METAR LIRA 272045Z 05004KT 9999 FEW070 05/03 Q1010=
200912272015 METAR LIRA 272015Z 03001KT 9999 SCT070 06/04 Q1010=
200912271945 METAR LIRA 271945Z 07002KT 9999 SCT070 05/04 Q1009=
200912271915 METAR LIRA 271915Z 10003KT 9999 SCT070 05/03 Q1009=
200912271845 METAR LIRA 271845Z 15002KT 9999 SCT070 05/03 Q1009=
200912271815 METAR LIRA 271815Z 00000KT 9999 FEW030 SCT070 06/03 Q1008=
200912271745 METAR LIRA 271745Z 34002KT 9999 FEW030 SCT070 07/03 Q1008=
200912271715 METAR LIRA 271715Z 35002KT 9999 FEW030 07/03 Q1007=
200912271645 METAR LIRA 271645Z 34003KT 9999 FEW030 08/04 Q1007=
200912271615 METAR LIRA 271615Z 34003KT 9999 FEW030 09/03 Q1007=
200912271545 METAR LIRA 271545Z 35005KT 9999 FEW030 09/04 Q1006=
200912271515 METAR LIRA 271515Z 35004KT 320V050 9999 FEW017 SCT030 10/04
                        Q1006=
200912271445 METAR LIRA 271445Z 33008KT 9999 FEW017 SCT030 10/05 Q1005=
200912271415 METAR LIRA 271415Z 35007KT 3290V060 9999 FEW017 10/05 Q1005=
200912271345 METAR LIRA 271345Z 36008KT 300V060 9999 FEW017 10/05 Q1005=
200912271315 METAR LIRA 271315Z 35007KT 300V050 9999 FEW017 10/05 Q1005=
200912271245 METAR LIRA 271245Z 35006KT 300V050 9999 FEW017 09/05 Q1005=
200912271145 METAR LIRA 271145Z 02005KT 300V060 9999 FEW017 SCT030 09/05
                        Q1005=
200912271115 METAR LIRA 271115Z 34005KT 290V030 9999 FEW017 SCT030 09/05
                        Q1005=
200912271045 METAR LIRA 271045Z 34008KT 300V020 9999 FEW017 SCT080 09/03
                        Q1005=
200912271015 METAR LIRA 271015Z 32006KT 290V360 9999 FEW017 SCT080 09/05
                        Q1004=
200912270945 METAR LIRA 270945Z 34006KT 9999 FEW015 SCT030 08/05 Q1004=
200912270915 METAR LIRA 270915Z 36005KT 9999 FEW015 SCT030 08/05 Q1003=
200912270845 METAR LIRA 270845Z 01004KT 9999 FEW015 SCT030 07/05 Q1003=
200912270815 METAR LIRA 270815Z 02003KT 9999 FEW015 SCT200 07/05 Q1003=
200912270745 METAR LIRA 270745Z 00000KT 9999 FEW015 SCT200 06/05 Q1002=
200912270715 METAR COR LIRA 270715Z 35002KT 9999 FEW015 SCT200 06/04 Q1002=
200912270645 METAR LIRA 270645Z 31002KT 9999 FEW015 06/04 Q1001=
200912270615 METAR LIRA 270615Z 35003KT 9999 FEW015 06/04 Q1001=
200912270545 METAR LIRA 270545Z 33002KT 9999 FEW015 SCT070 07/05 Q1001=
200912270515 METAR LIRA 270515Z 02004KT 330V070 8000 FEW015 SCT070 06/05
                        Q1000=
200912270445 METAR LIRA 270445Z 03006KT 8000 FEW005 SCT015 07/05 Q1000=
200912270415 METAR LIRA 270415Z 03005KT 8000 FEW005 SCT025 07/05 Q1000=
200912270345 METAR LIRA 270345Z 35003KT 9999 -RA FEW005 SCT015 BKN025
                        07/05 Q0999=
200912270315 METAR LIRA 270315Z 32005KT 9999 -RA FEW005 SCT015 BKN025
                        07/05 Q0999=
200912270245 METAR LIRA 270245Z 30008KT 9999 -RA FEW005 SCT015 BKN025
                        07/05 Q0999=
200912270215 METAR LIRA 270215Z 04003KT 9999 -RA FEW005 SCT015 07/05 Q0999=
200912270145 METAR LIRA 270145Z 03003KT 9999 -RA FEW005 SCT015 BKN025
                        07/05 Q0999=
200912270115 METAR LIRA 270115Z 02005KT 330V080 9999 -RA FEW005 SCT015
                        BKN025 07/05 Q0999=
200912270045 METAR LIRA 270045Z 02005KT 340V090 9999 -RA FEW005 SCT015
                        BKN025 07/06 Q0999=
200912270015 METAR LIRA 270015Z 01009KT 320V060 4000 -RA BR FEW005 SCT015
                        BKN025 07/06 Q0999=
200912262350 METAR LIRA 270045Z 02005KT 340V090 9999 -RA FEW005 SCT015
                        BKN025 07/06 Q0999=
200912262345 METAR LIRA 262345Z 36007KT 310V080 4000 -RA BR FEW005 SCT015
                        BKN025 07/06 Q0999=
200912262315 METAR LIRA 262315Z 01005KT 300V070 4000 -RA BR FEW005 SCT015
                        BKN025 07/06 Q0999=
200912262245 METAR LIRA 262245Z 36005KT 300V060 4000 -RA BR FEW005 SCT015
                        BKN025 07/06 Q0999=
200912262215 METAR LIRA 262215Z 02004KT 330V050 7000 -RA FEW005 SCT025
                        07/06 Q0999=
200912262145 METAR LIRA 262145Z 34007KT 220V030 7000 -RA FEW005 SCT025
                        08/06 Q0999=
200912262115 METAR LIRA 262115Z 33006KT 7000 -RA FEW005 SCT025 08/06 Q0999=
200912262045 METAR LIRA 262045Z 34005KT 300V020 7000 -RA FEW016 SCT025
                        BKN070 08/07 Q0999=
200912262015 METAR LIRA 262015Z 02004KT 310V070 9000 -RA FEW016 SCT025
                        BKN070 08/07 Q1000=
200912261945 METAR LIRA 261945Z 04006KT 300V090 9000 -RA FEW016 SCT025
                        BKN070 08/07 Q1000=
200912261915 METAR LIRA 261915Z 33003KT 9000 -RA FEW016 SCT025 BKN070
                        08/07 Q1000=
200912261845 METAR LIRA 261845Z 33006KT 280V350 9000 -RA FEW016 SCT025
                        BKN070 08/07 Q1001=
200912261815 METAR LIRA 261815Z 34007KT 290V020 9000 -RA FEW016 SCT025
                        BKN070 08/07 Q1001=
200912261745 METAR LIRA 261745Z 33007KT 300V060 9000 -RA FEW016 BKN025
                        08/07 Q1001=
200912261715 METAR LIRA 261715Z 02007KT 330V070 9000 -RA FEW018 BKN025
                        08/07 Q1002=
200912261645 METAR LIRA 261645Z 04008KT 360V090 7000 -RA FEW018 BKN025
                        08/07 Q1002=
200912261615 METAR LIRA 261615Z 03008KT 330V080 7000 -RA FEW018 BKN025
                        08/07 Q1002=
200912261545 METAR LIRA 261545Z 02009KT 260V080 7000 -RA FEW018 BKN025
                        08/07 Q1003=
200912261515 METAR LIRA 261515Z 03010KT 360V070 7000 -RA FEW018 BKN025
                        08/07 Q1003=
200912261445 METAR LIRA 261445Z 06011KT 010V090 6000 -RA FEW018 BKN025
                        08/07 Q1004=
200912261415 METAR LIRA 261415Z 05006KT 360V080 7000 -RA FEW018 BKN033
                        08/07 Q1005=
200912261345 METAR LIRA 261345Z 04002KT 7000 SKC 09/07 Q1006=
200912261315 METAR LIRA 261315Z 03004KT 030V100 8000 -DZ FEW018 BKN033
                        09/07 Q1007=
200912261245 METAR LIRA 261245Z 36005KT 8000 FEW018 BKN033 09/07 Q1007=
200912261215 METAR LIRA 261215Z 00000KT 9000 -DZ FEW018 BKN033 09/06 Q1009=
200912261145 METAR LIRA 261145Z 09004KT 9000 -DZ FEW018 BKN033 09/07 Q1009=
200912261115 METAR LIRA 261115Z 03001KT 9000 -DZ FEW018 BKN033 10/07 Q1009=
200912261045 METAR LIRA 261045Z 10003KT 9999 FEW018 BKN030 10/05 Q1010=
200912261015 METAR LIRA 261015Z 16004KT 9999 -DZ FEW018 BKN030 10/05 Q1010=
200912260945 METAR LIRA 260945Z 17007KT 9999 -DZ FEW018 BKN030 11/03 Q1010=
200912260915 METAR LIRA 260915Z 16007KT 130V190 9999 FEW018 BKN030 11/01
                        Q1010=
200912260845 METAR LIRA 260845Z 14008KT 9999 FEW018 BKN030 10/01 Q1010=
200912260815 METAR LIRA 260815Z 18002KT 9999 FEW018 BKN030 09/01 Q1010=
200912260745 METAR LIRA 260745Z 17003KT 9999 FEW018 BKN030 08/03 Q1010=
200912260715 METAR LIRA 260715Z 14001KT 9999 FEW025 BKN070 09/03 Q1010=
200912260645 METAR LIRA 260645Z 15002KT 9999 FEW025 BKN070 09/04 Q1010=
200912260615 METAR LIRA 260615Z 14006KT 9999 FEW025 BKN070 08/05 Q1010=
200912260545 METAR LIRA 260545Z 12006KT 9999 FEW025 SCT070 09/06 Q1010=
200912260515 METAR LIRA 260515Z 14004KT 9999 FEW025 SCT070 08/07 Q1010=
200912260445 METAR LIRA 260445Z 11004KT 9999 FEW025 SCT070 08/07 Q1010=
200912260415 METAR LIRA 260415Z 14002KT 9999 FEW025 SCT060 08/07 Q1010=
200912260345 METAR LIRA 260345Z 13005KT 9999 SCT030 07/06 Q1010=
200912260315 METAR LIRA 260315Z 12004KT 9999 SCT025 07/06 Q1010=
200912260245 METAR LIRA 260245Z 13005KT 9999 FEW025 07/06 Q1010=
200912260215 METAR LIRA 260215Z 15004KT 9999 FEW025 08/07 Q1010=
200912260145 METAR LIRA 260145Z 14005KT 9999 SCT030 08/07 Q1010=
200912260115 METAR LIRA 260115Z 17004KT 9999 FEW018 SCT040 09/08 Q1010=
200912260045 METAR LIRA 260045Z 16004KT 9999 FEW018 SCT035 09/07 Q1010=
200912260015 METAR LIRA 260015Z 15007KT 9999 FEW018 SCT035 08/06 Q1010=
200912252350 METAR LIRA 260045Z 16004KT 9999 FEW018 SCT035 09/07 Q1010=
200912252345 METAR LIRA 252345Z 19004KT 9999 FEW020 SCT060 09/07 Q1010=
200912252315 METAR LIRA 252315Z 14006KT 9999 FEW020 SCT070 08/07 Q1010=
200912252245 METAR LIRA 252245Z 18006KT 9999 FEW020 SCT060 09/08 Q1010=
200912252215 METAR LIRA 252215Z 15007KT 9999 FEW018 SCT035 08/07 Q1010=
200912252145 METAR LIRA 252145Z 14005KT 9999 FEW020 SCT040 09/07 Q1010=
200912252115 METAR LIRA 252115Z 13006KT 9999 FEW020 SCT060 09/07 Q1009=
200912252045 METAR LIRA 252045Z 18006KT 9999 FEW020 SCT035 10/08 Q1009=
200912252015 METAR LIRA 252015Z 18002KT 9999 FEW025 10/08 Q1009=
200912251945 METAR LIRA 251945Z 15004KT 9999 FEW025 10/08 Q1009=
200912251915 METAR LIRA 251915Z 17002KT 9999 FEW025 12/09 Q1008=
200912251845 METAR LIRA 251845Z 18006KT 9999 FEW025 13/10 Q1008=
200912251815 METAR LIRA 251815Z 20005KT 150V230 9999 FEW020 13/10 Q1008=
200912251745 METAR LIRA 251745Z 19005KT 130V230 CAVOK 13/10 Q1006=
200912251715 METAR LIRA 251715Z 18009KT 150V220 CAVOK 13/11 Q1006=
200912251645 METAR LIRA 251645Z 19009KT 140V250 9999 FEW030 14/12 Q1006=
200912251615 METAR LIRA 251615Z 19008KT 140V230 9999 FEW017 SCT025 14/12
                        Q1006=
200912251545 METAR LIRA 251545Z 18007KT 130V220 9999 -RA FEW017 SCT025
                        15/13 Q1005=
200912251515 METAR LIRA 251515Z 23008KT 180V270 9999 -RA FEW016 SCT030
                        15/13 Q1005=
200912251445 METAR LIRA 251445Z 17008KT 140V220 9999 FEW016 SCT070 16/13
                        Q1005=
200912251415 METAR LIRA 251415Z 17007KT 9999 SCT016 SCT030 17/13 Q1005=
200912251345 METAR LIRA 251345Z 17009KT 130V220 9999 FEW016 SCT030 17/13
                        Q1004=
200912251315 METAR LIRA 251315Z 21008KT 150V240 9999 FEW016 SCT030 17/12
                        Q1004=
200912251245 METAR LIRA 251245Z 17011KT 140V230 9999 FEW016 SCT030 18/13
                        Q1004=
200912251215 METAR LIRA 251215Z 19010KT 140V240 9999 FEW016 SCT030 18/12
                        Q1004=
200912251145 METAR LIRA 251145Z 17009KT 130V230 9999 FEW017 SCT030 18/12
                        Q1005=
200912251115 METAR LIRA 251115Z 16013KT 9999 FEW017 17/13 Q1005=
200912251045 METAR LIRA 251045Z 16014G30KT 120V210 9999 FEW017 17/13 Q1005=
200912251015 METAR LIRA 251015Z 16015KT 110V210 9999 FEW017 SCT080 17/13
                        Q1005=
200912250945 METAR LIRA 250945Z 16011G36KT 120V200 9999 FEW017 SCT080
                        17/13 Q1005=
200912250915 METAR LIRA 250915Z 17009KT 140V240 9999 FEW017 SCT080 16/12
                        Q1004=
200912250845 METAR LIRA 250845Z 15016KT 120V200 9999 FEW017 BKN080 16/12
                        Q1004=
200912250815 METAR LIRA 250815Z 16014KT 9999 FEW017 BKN080 16/12 Q1003=
200912250745 METAR LIRA 250745Z 17014KT 130V220 9999 FEW017 BKN070 16/12
                        Q1003=
200912250715 METAR LIRA 250715Z 19015KT 140V250 9999 FEW020 BKN070 16/12
                        Q1003=
200912250645 METAR LIRA 250645Z 15015KT 9999 FEW020 BKN070 16/12 Q1002=
200912250615 METAR LIRA 250615Z 15020KT 130V220 9999 FEW020 BKN070 16/12
                        Q1002=
200912250545 METAR LIRA 250545Z 15015KT 9999 FEW020 15/11 Q1002=
200912250515 METAR LIRA 250515Z 14019G29KT 9999 FEW020 15/12 Q1001=
200912250445 METAR LIRA 250445Z 16016KT 110V180 9999 FEW020 15/12 Q1001=
200912250415 METAR LIRA 250415Z 18016KT 130V210 9999 FEW025 15/12 Q1001=
200912250345 METAR LIRA 250345Z 16015KT 9999 FEW025 15/12 Q1001=
200912250315 METAR LIRA 250315Z 16018KT 120V200 9999 SCT025 15/12 Q1001=
200912250245 METAR LIRA 250245Z 15015KT 8000 FEW017 SCT030 14/12 Q1001=
200912250215 METAR LIRA 250215Z 15015KT 8000 -RA SCT018 BKN030 14/12 Q1001=
200912250145 METAR LIRA 250145Z 18018KT 8000 -RA SCT019 SCT030 14/12 Q1001=
200912250115 METAR LIRA 250115Z 16016G27KT 6000 RA SCT016 BKN030 15/12
                        Q1002=
200912250045 METAR LIRA 250045Z 19010KT 120V230 8000 -RA SCT018 SCT030
                        14/12 Q1002=
200912250015 METAR LIRA 250015Z 15017KT 110V180 7000 -RA SCT017 BKN030
                        14/12 Q1001=
200912242350 METAR LIRA 250045Z 19010KT 120V230 8000 -RA SCT018 SCT030
                        14/12 Q1002=
200912242345 METAR LIRA 242345Z 15018KT 7000 -RA FEW016 BKN030 14/12 Q1001=
200912242315 METAR LIRA 242315Z 14025G36KT 7000 -RA FEW016 BKN030 13/12
                        Q1001=
200912242245 METAR LIRA 242245Z 14025G35KT 9999 FEW017 SCT030 15/11 Q1001=
200912242215 METAR LIRA 242215Z 14020KT 9999 -RA FEW016 BKN030 15/10 Q1001=
200912242145 METAR LIRA 242145Z 16015G33KT 130V210 9999 -RA FEW016 BKN030
                        15/11 Q1002=
200912242115 METAR LIRA 242115Z 14025G36KT 120V190 9999 FEW017 SCT030
                        15/10 Q1002=
200912242045 METAR LIRA 242045Z 14022G32KT 110V180 9999 FEW018 FEW022TCU
                        SCT035 15/11 Q1002=
200912242015 METAR LIRA 242015Z 15020KT 120V210 9999 -RA FEW017 FEW022TCU
                        BKN035 14/10 Q1002=
200912241945 METAR LIRA 241945Z 14021G34KT 9999 -RA FEW017 FEW022TCU BKN030
                        15/10 Q1002=
200912241915 METAR LIRA 241915Z 15025G37KT 9999 -RA FEW017 FEW022TCU BKN030
                        15/09 Q1002=
200912241845 METAR LIRA 241845Z 15019G34KT 110V180 9999 SCT030 SCT060
                        16/09 Q1002=
200912241815 METAR LIRA 241815Z 14016KT 9999 SCT030 SCT060 15/09 Q1002=
200912241745 METAR LIRA 241745Z 14021G31KT 9999 FEW017 SCT030 16/10 Q1002=
200912241715 METAR LIRA 241715Z 14015KT 9999 FEW017 SCT030 15/10 Q1002=
200912241645 METAR LIRA 241645Z 13017KT 8000 -DZ FEW015 SCT025 BKN070
                        14/10 Q1003=
200912241615 METAR LIRA 241615Z 14014KT 100V180 7000 -RA FEW015 SCT025
                        BKN070 14/11 Q1003=
200912241545 METAR LIRA 241545Z 15014KT 7000 -RA FEW015 BKN070 15/11 Q1003=
200912241515 METAR LIRA 241515Z 12012KT 7000 -RA FEW015 SCT025 BKN070
                        15/12 Q1004=
200912241445 METAR LIRA 241445Z 13015KT 7000 RA SCT015 SCT025 BKN070 15/12
                        Q1004=
200912241415 METAR LIRA 241415Z 15014G25KT 8000 RA SCT015 SCT025 15/12
                        Q1004=
200912241345 METAR LIRA 241345Z 14013KT 8000 -DZ FEW018 SCT030 BKN070
                        15/12 Q1004=
200912241315 METAR LIRA 241315Z 15013KT 110V190 8000 -DZ FEW018 SCT030
                        BKN070 16/13 Q1005=
200912241245 METAR LIRA 241245Z 15014KT 110V190 9999 -DZ FEW018 SCT030
                        BKN070 16/11 Q1005=
200912241215 METAR LIRA 241215Z 18008KT 110V220 9999 -DZ FEW018 SCT030
                        BKN070 16/11 Q1005=
200912241145 METAR LIRA 241145Z 15016KT 9999 FEW018 SCT030 BKN070 17/11
                        Q1005=
200912241115 METAR LIRA 241115Z 16011KT 120V220 9999 FEW018 BKN070 17/11
                        Q1005=
200912241045 METAR LIRA 241045Z 15012KT 110V190 9999 FEW018 BKN070 17/10
                        Q1005=
200912241015 METAR LIRA 241015Z 16012KT 120V200 9999 FEW018 BKN070 17/11
                        Q1005=
200912240945 METAR LIRA 240945Z 17007KT 110V200 9999 FEW018 SCT030 17/10
                        Q1005=
200912240915 METAR LIRA 240915Z 18006KT 120V240 9999 FEW018 SCT030 17/10
                        Q1005=
200912240845 METAR LIRA 240845Z 15011KT 110V190 9999 FEW018 SCT030 17/10
                        Q1005=
200912240815 METAR LIRA 240815Z 15012KT 120V200 9999 FEW018 SCT070 16/10
                        Q1005=
200912240745 METAR LIRA 240745Z 15013KT 9999 FEW018 SCT030 16/10 Q1004=
200912240715 METAR LIRA 240715Z 15014KT 9999 FEW018 SCT030 16/10 Q1004=
200912240645 METAR LIRA 240645Z 15012KT 110V210 9999 FEW018 BKN070 16/10
                        Q1004=
200912240615 METAR LIRA 240615Z 18010KT 120V210 9999 FEW018 BKN070 16/10
                        Q1004=
200912240545 METAR LIRA 240545Z 15014G27KT 120V200 9999 FEW018 BKN070
                        16/09 Q1004=
200912240515 METAR LIRA 240515Z 15015KT 9999 FEW018 BKN070 15/09 Q1004=
200912240445 METAR LIRA 240445Z 16012KT 120V210 9999 FEW018 SCT070 15/09
                        Q1004=
200912240415 METAR LIRA 240415Z 15012KT 110V170 9999 FEW018 SCT070 15/09
                        Q1004=
200912240345 METAR LIRA 240345Z 14013KT 9999 FEW018 SCT070 15/09 Q1004=
200912240315 METAR LIRA 240315Z 14013G28KT 130V200 9999 FEW018 SCT070
                        15/09 Q1004=
200912240245 METAR LIRA 240245Z 14017KT 110V180 9999 FEW015 SCT070 15/09
                        Q1004=
200912240215 METAR LIRA 240215Z 14021G34KT 120V180 9999 FEW015 SCT070
                        15/09 Q1004=
200912240145 METAR LIRA 240145Z 14019G29KT 120V190 9999 FEW018 SCT070
                        14/08 Q1004=
200912240115 METAR LIRA 240115Z 14024G35KT 120V180 9999 FEW018 SCT070
                        15/08 Q1004=
200912240045 METAR LIRA 240045Z 16016G29KT 130V210 9999 FEW018 SCT070
                        15/08 Q1004=
200912240015 METAR LIRA 240015Z 17016G37KT 120V190 9999 FEW018 SCT070
                        15/08 Q1004=
200912232350 METAR LIRA 240045Z 16016G29KT 130V210 9999 FEW018 SCT070
                        15/08 Q1004=
200912232345 METAR LIRA 232345Z 15029KT 130V200 9999 FEW018 SCT070 15/08
                        Q1004=
200912232315 METAR LIRA 232315Z 14027G41KT 9999 FEW015 SCT070 16/08 Q1004=
200912232245 METAR LIRA 232245Z 14026KT 9999 -DZ FEW015 BKN070 15/09 Q1005=
200912232215 METAR LIRA 232215Z 14024KT 9999 -DZ FEW015 BKN070 14/09 Q1005=
200912232145 METAR LIRA 232145Z 13023KT 100V170 9999 -DZ FEW015 SCT070
                        15/10 Q1005=
200912232115 METAR LIRA 232115Z 14018G31KT 100V180 9999 -DZ FEW015 SCT025
                        BKN070 14/10 Q1006=
200912232045 METAR LIRA 232045Z 14020KT 9999 -DZ FEW015 SCT025 BKN070
                        13/09 Q1006 WS RWY 15=
200912232015 METAR LIRA 232015Z 15016G27KT 110V190 9999 FEW015 BKN070
                        14/09 Q1006 WS RWY 15=
200912231945 METAR LIRA 231945Z 15021KT 9999 FEW015 BKN070 13/10 Q1006=
200912231915 METAR LIRA 231915Z 15019KT 110V180 9999 FEW015 BKN070 13/09
                        Q1006=
200912231845 METAR LIRA 231845Z 14016KT 9999 FEW025 SCT080 14/09 Q1006=
200912231815 METAR LIRA 231815Z 13014KT 9999 FEW020 SCT080 13/10 Q1007=
200912231745 METAR LIRA 231745Z 14016KT 9999 FEW020 SCT080 13/10 Q1007=
200912231715 METAR LIRA 231715Z 14020KT 120V190 9999 FEW020 SCT080 13/10
                        Q1007=
200912231645 METAR LIRA 231645Z 13014KT 9999 FEW020 SCT080 13/10 Q1007=
200912231615 METAR LIRA 231615Z 15010KT 9999 FEW020 SCT080 13/10 Q1007=
200912231545 METAR LIRA 231545Z 15010KT 9999 FEW020 SCT080 13/11 Q1007=
200912231515 METAR LIRA 231515Z 15009KT 9999 FEW020 SCT080 15/13 Q1007=
200912231445 METAR LIRA 231445Z 17009KT 9999 FEW018 SCT080 14/11 Q1006=
200912231415 METAR LIRA 231415Z 16009KT 140V210 9999 FEW018 SCT080 15/11
                        Q1006=
200912231345 METAR LIRA 231345Z 17009KT 140V220 9999 FEW020 SCT080 15/10
                        Q1006=
200912231315 METAR LIRA 231315Z 18011KT 150V240 9999 FEW020 SCT080 16/10
                        Q1006=
200912231245 METAR LIRA 231245Z 18008KT 150V240 9999 FEW020 16/10 Q1006=
200912231215 METAR LIRA 231215Z 19011KT 140V220 9999 FEW020 16/10 Q1006=
200912231145 METAR LIRA 231145Z 19007KT 120V230 9999 FEW020 16/10 Q1007=
200912231115 METAR LIRA 231115Z 15011KT 120V190 9999 FEW020 17/10 Q1007=
200912231045 METAR LIRA 231045Z 19010KT 130V230 9999 FEW020 17/10 Q1007=
200912231015 METAR LIRA 231015Z 19012KT 160V240 9999 FEW020 SCT200 16/10
                        Q1007=
200912230945 METAR LIRA 230945Z 17012KT 130V220 9999 FEW020 15/11 Q1007=
200912230915 METAR LIRA 230915Z 15009KT 130V220 9999 FEW020 15/10 Q1007=
200912230845 METAR LIRA 230845Z 17012KT 130V210 9999 FEW020 15/10 Q1007=
200912230815 METAR LIRA 230815Z 17013KT 9999 FEW020 15/10 Q1007=
200912230745 METAR LIRA 230745Z 16011KT 9999 FEW020 14/09 Q1006=
200912230715 METAR LIRA 230715Z 16010KT 9999 FEW020 14/09 Q1005=
200912230645 METAR LIRA 230645Z 17012KT 9999 FEW020 14/09 Q1005=
200912230615 METAR LIRA 230615Z 16012KT 9999 FEW020 13/10 Q1004=
200912230545 METAR LIRA 230545Z 17007KT 9999 FEW018 13/10 Q1003=
200912230515 METAR LIRA 230515Z 19009KT 150V230 9999 SCT016 SCT030 13/10
                        Q1003=
200912230445 METAR LIRA 230445Z 19010G35KT 150V220 9999 -RA SCT013 BKN030
                        14/11 Q1002=
200912230415 METAR LIRA 230415Z 18012KT 130V210 9999 SCT013 BKN030 13/11
                        Q1002=
200912230345 METAR LIRA 230345Z 18011KT 120V220 9999 -RA SCT013 SCT030
                        13/11 Q1002=
200912230315 METAR LIRA 230315Z 17017KT 7000 -RA SCT013 SCT030 14/10 Q1001=
200912230245 METAR LIRA 230245Z 14017KT 7000 -RA SCT013 SCT030 13/09 Q1002=
200912230215 METAR LIRA 230215Z 15019KT 7000 -RA SCT013 SCT030 13/10 Q1002=
200912230145 METAR LIRA 230145Z 15018KT 7000 -RA SCT013 SCT030 13/09 Q1002=
200912230115 METAR LIRA 230115Z 15015KT 6000 -RA SCT013 SCT030 13/10 Q1002=
200912230045 METAR LIRA 230045Z 15018G28KT 6000 -RA SCT013 SCT030 13/11
                        Q1002=
200912230015 METAR LIRA 230015Z 15018KT 7000 -RA SCT013 SCT030 13/11 Q1002=
200912222350 METAR LIRA 230045Z 15018G28KT 6000 -RA SCT013 SCT030 13/11
                        Q1002=
200912222345 METAR LIRA 222345Z 15021KT 8000 -RA SCT013 SCT030 13/10 Q1003=
200912222315 METAR LIRA 222315Z 15018G32KT 120V190 9999 -RA SCT013 BKN030
                        13/10 Q1003=
200912222245 METAR LIRA 222245Z 15022KT 110V180 9999 -RA FEW013 BKN030
                        13/10 Q1003=
200912222215 METAR LIRA 222215Z 16019G39KT 120V190 9999 -RA FEW013 BKN030
                        13/09 Q1003=
200912222145 METAR LIRA 222145Z 14024KT 9999 -RA FEW013 SCT030 14/09 Q1003=
200912222115 METAR LIRA 222115Z 15025G39KT 100V160 9999 FEW013 SCT030
                        13/10 Q1003=
200912222045 METAR LIRA 222045Z 15020KT 9999 FEW013 SCT030 13/10 Q1004=
200912222015 METAR LIRA 222015Z 15024G34KT 110V190 9999 FEW013 SCT030
                        13/10 Q1004 WS RWY 15=
200912221945 METAR LIRA 221945Z 15020KT 8000 FEW013 SCT030 13/10 Q1004=
200912221915 METAR LIRA 221915Z 15022KT 9999 FEW010 BKN070 13/10 Q1004=
200912221845 METAR LIRA 221845Z 15023G35KT 8000 -DZ FEW010 SCT030 BKN070
                        13/10 Q1004=
200912221815 METAR LIRA 221815Z 15020G31KT 8000 -RA FEW010 SCT030 BKN070
                        13/10 Q1005=
200912221745 METAR LIRA 221745Z 15020KT 8000 -RA FEW010 SCT030 BKN070
                        13/10 Q1005=
200912221715 METAR LIRA 221715Z 14020KT 8000 -RA FEW010 SCT030 BKN070
                        13/11 Q1005=
200912221645 METAR LIRA 221645Z 15020KT 8000 -RA FEW010 SCT030 BKN080
                        13/11 Q1006=
200912221615 METAR LIRA 221615Z 14018KT 8000 -RA FEW010 SCT030 BKN080
                        13/11 Q1006=
200912221545 METAR LIRA 221545Z 15016KT 8000 -RA FEW010 SCT030 BKN080
                        13/11 Q1006=
200912221515 METAR LIRA 221515Z 15018KT 120V190 8000 -RA FEW010 SCT030
                        BKN080 13/11 Q1006=
200912221445 METAR LIRA 221445Z 15018KT 8000 -RA FEW010 SCT030 BKN080
                        13/11 Q1007=
200912221415 METAR LIRA 221415Z 15017KT 7000 -RA FEW008 SCT023 BKN080
                        13/12 Q1007=
200912221345 METAR LIRA 221345Z 15015KT 6000 -RA SCT006 BKN023 13/12 Q1007=
200912221315 METAR LIRA 221315Z 15016KT 5000 -RA BR SCT006 BKN023 13/11
                        Q1007=
200912221245 METAR LIRA 221245Z 15017KT 5000 -RA BR SCT006 BKN023 13/11
                        Q1007=
200912221215 METAR LIRA 221215Z 15017KT 5000 -RA BR SCT006 BKN023 13/11
                        Q1008=
200912221145 METAR LIRA 221145Z 16016KT 120V190 6000 -RA SCT006 BKN023
                        13/11 Q1008=
200912221115 METAR LIRA 221115Z 15018KT 6000 -RA SCT006 BKN023 13/11 Q1009=
200912221045 METAR LIRA 221045Z 15016KT 5000 -RA BR FEW009 BKN025 13/11
                        Q1009=
200912221015 METAR LIRA 221015Z 15017KT 120V200 7000 -RA FEW009 BKN025
                        13/11 Q1009=
200912220945 METAR LIRA 220945Z 15017KT 6000 -RA FEW009 BKN025 13/11 Q1009=
200912220915 METAR LIRA 220915Z 15018G30KT 6000 -RA FEW009 SCT025 BKN080
                        13/11 Q1009=
200912220845 METAR LIRA 220845Z 15020KT 6000 -RA FEW009 SCT025 BKN080
                        13/11 Q1009=
200912220815 METAR LIRA 220815Z 15020G30KT 100V200 7000 -RA FEW009 SCT025
                        BKN080 13/11 Q1009=
200912220745 METAR LIRA 220745Z 15019G29KT 7000 -RA FEW009 BKN080 12/11
                        Q1008=
200912220715 METAR LIRA 220715Z 15019KT 7000 -RA FEW009 SCT030 BKN080
                        12/11 Q1008=
200912220645 METAR LIRA 220645Z 15018KT 7000 -RA FEW009 SCT025 BKN080
                        12/11 Q1008=
200912220615 METAR LIRA 220615Z 15019G29KT 6000 -RA SCT017 BKN030 12/10
                        Q1008=
200912220545 METAR LIRA 220545Z 15018KT 120V180 6000 -RA SCT017 BKN030
                        12/10 Q1008=
200912220515 METAR LIRA 220515Z 15021KT 6000 -RA SCT017 BKN030 12/10 Q1008=
200912220445 METAR LIRA 220445Z 15019G29KT 120V150 6000 -RA SCT017 FEW020CB
                        SCT030 11/09 Q1008=
200912220415 METAR LIRA 220415Z 16019KT 6000 -RA SCT017 FEW020CB SCT030
                        11/10 Q1009=
200912220345 METAR LIRA 220345Z 16019KT 130V190 6000 -RA SCT016 FEW020CB
                        SCT030 11/10 Q1009=
200912220315 METAR LIRA 220315Z 16018KT 5000 -RA BR SCT015 FEW020CB SCT030
                        11/09 Q1009=
200912220245 METAR LIRA 220245Z 16018KT 120V190 5000 -RA BR SCT016 FEW020CB
                        SCT030 11/09 Q1009=
200912220215 METAR LIRA 220215Z 16019KT 130V190 5000 -RA BR SCT016 FEW020CB
                        SCT030 11/09 Q1009=
200912220145 METAR LIRA 220145Z 16016KT 6000 -RA SCT017 FEW022TCU SCT030
                        10/09 Q1009=
200912220115 METAR LIRA 220115Z 16021KT 130V190 6000 -RA SCT017 FEW022TCU
                        SCT030 10/09 Q1009 RERA=
200912220045 METAR LIRA 220045Z 16017G29KT 5000 RA BR SCT015 FEW018TCU
                        BKN030 10/08 Q1010=
200912220015 METAR LIRA 220015Z 15018G30KT 5000 RA BR SCT015 FEW018TCU
                        BKN030 10/08 Q1010=
200912212350 METAR LIRA 220045Z 16017G29KT 5000 RA BR SCT015 FEW018TCU
                        BKN030 10/08 Q1010=
200912212345 METAR LIRA 212345Z 16017KT 130V190 5000 RA BR SCT015 FEW018TCU
                        BKN030 10/08 Q1010=
200912212315 METAR LIRA 212315Z 16021G31KT 5000 RA BR SCT015 FEW018TCU
                        BKN030 09/08 Q1010=
200912212245 METAR LIRA 212245Z 16018G31KT 130V190 5000 RA BR SCT016 FEW020TCU
                        BKN030 09/08 Q1011=
200912212215 METAR LIRA 212215Z 16018G28KT 5000 RA BR SCT016 FEW020TCU
                        BKN030 08/07 Q1011=
200912212145 METAR LIRA 212145Z 16019KT 6000 -RA FEW016 FEW020TCU BKN030
                        08/07 Q1011=
200912212115 METAR LIRA 212115Z 16018G28KT 6000 -RA FEW016 FEW020TCU BKN030
                        08/07 Q1011=
200912212045 METAR LIRA 212045Z 15017KT 6000 -RA FEW016 FEW020TCU BKN030
                        08/07 Q1012=
200912212015 METAR LIRA 212015Z 16014KT 120V180 6000 -RA FEW016 FEW020TCU
                        BKN030 08/07 Q1012=
200912211945 METAR LIRA 211945Z 14016G26KT 7000 -RA FEW016 FEW020TCU BKN030
                        08/07 Q1012=
200912211915 METAR LIRA 211915Z 15016KT 7000 -RA FEW015 FEW020TCU BKN030
                        08/07 Q1012=
200912211845 METAR LIRA 211845Z 14018KT 100V160 7000 -RA FEW017 FEW022TCU
                        BKN030 08/07 Q1012=
200912211815 METAR LIRA 211815Z 14015KT 9999 -RA FEW018 FEW022TCU BKN030
                        08/05 Q1013 WS RWY 15=
200912211745 METAR LIRA 211745Z 13015G25KT 9999 -RA FEW017 FEW022TCU SCT030
                        07/04 Q1014 WS RWY 15=
200912211715 METAR LIRA 211715Z 13015KT 9999 -RA FEW018 SCT030 08/03 Q1014=
200912211645 METAR LIRA 211645Z 14014G24KT 100V160 9999 SCT025 BKN070
                        09/03 Q1014=
200912211615 METAR LIRA 211615Z 13014G25KT 090V180 9999 FEW015 BKN070
                        09/03 Q1014=
200912211545 METAR LIRA 211545Z 13014KT 9999 -RA FEW015 BKN070 09/04 Q1014=
200912211515 METAR LIRA 211515Z 14014KT 9999 -RA FEW015 SCT025 BKN070
                        08/05 Q1015=
200912211445 METAR LIRA 211445Z 14009KT 090V180 9999 -RA FEW015 SCT025
                        BKN070 08/05 Q1016=
200912211415 METAR LIRA 211415Z 14010KT 9999 -RA FEW015 SCT025 BKN070
                        08/05 Q1016=
200912211345 METAR LIRA 211345Z 14012KT 8000 -RA FEW015 SCT025 BKN070
                        08/05 Q1016=
200912211315 METAR LIRA 211315Z 14010KT 8000 -RA FEW015 SCT025 BKN070
                        07/04 Q1016=
200912211245 METAR LIRA 211245Z 15013KT 8000 -RA FEW015 SCT025 BKN070
                        07/04 Q1016=
200912211215 METAR LIRA 211215Z 14014KT 9999 FEW018 SCT027 BKN070 08/02
                        Q1016=
200912211145 METAR LIRA 211145Z 13012KT 100V160 9999 FEW018 SCT027 BKN070
                        08/02 Q1017=
200912211115 METAR LIRA 211115Z 15014KT 9999 -RA FEW018 SCT027 BKN070
                        08/02 Q1017=
200912211045 METAR LIRA 211045Z 15014KT 120V200 9999 FEW020 09/02 Q1017=
200912211015 METAR LIRA 211015Z 15013KT 120V200 9999 FEW020 SCT200 08/02
                        Q1018=
200912210945 METAR LIRA 210945Z 14012KT 090V180 9999 FEW020 SCT025 08/01
                        Q1018=
200912210915 METAR LIRA 210915Z 15011KT 120V180 9999 FEW020 SCT025 08/02
                        Q1018=
200912210845 METAR LIRA 210845Z 02002KT 9999 FEW020 SCT025 04/M01 Q1018=
200912210815 METAR LIRA 210815Z 05002KT 9999 FEW020 SCT025 03/M02 Q1018=
200912210745 METAR LIRA 210745Z 02002KT 9999 FEW020 SCT025 00/M03 Q1018=
200912210715 METAR LIRA 210715Z 04002KT 9999 FEW020 SCT025 00/M03 Q1018=
200912210645 METAR LIRA 210645Z 12003KT 9999 FEW020 SCT025 M00/M04 Q1017=
200912210615 METAR LIRA 210615Z 01001KT 9999 FEW022 SCT060 M01/M04 Q1017=
200912210545 METAR LIRA 210545Z 00000KT 9999 FEW022 SCT060 M01/M04 Q1017=
200912210515 METAR LIRA 210515Z 02004KT 9999 FEW025 SCT060 M01/M04 Q1017=
200912210445 METAR LIRA 210445Z 01002KT 9999 FEW025 SCT060 M01/M04 Q1017=
200912210415 METAR LIRA 210415Z 04003KT 9999 FEW018 SCT035 M01/M04 Q1016=
200912210345 METAR LIRA 210345Z 32003KT 9999 FEW020 SCT030 M02/M05 Q1016=
200912210315 METAR LIRA 210315Z 03001KT 9999 SCT030 SCT060 M02/M05 Q1016=
200912210245 METAR LIRA 210245Z 03002KT 9999 SCT030 SCT060 M02/M05 Q1016=
200912210215 METAR LIRA 210215Z 35001KT 9999 SCT030 SCT060 M02/M05 Q1016=
200912210145 METAR LIRA 210145Z 07002KT 9999 SCT030 SCT060 M03/M05 Q1016=
200912210115 METAR LIRA 210115Z 03002KT 9999 FEW030 M04/M06 Q1015=
200912210100 LIRA INT=
200912210045 METAR LIRA 210045Z 12002KT CAVOK M04/M06 Q1015=
200912210015 METAR LIRA 210015Z 00000KT CAVOK M04/M06 Q1015=
200912210000 LIRA INTER=
200912202350 METAR LIRA 210045Z 12002KT CAVOK M04/M06 Q1015=
200912202345 METAR LIRA 202345Z 10001KT CAVOK M03/M06 Q1015=
200912202315 METAR LIRA 202315Z 04002KT CAVOK M03/M06 Q1014=
200912202245 METAR LIRA 202245Z 18002KT CAVOK M03/M06 Q1014=
200912202215 METAR LIRA 202215Z 18003KT CAVOK M02/M06 Q1014=
200912202145 METAR LIRA 202145Z 02004KT CAVOK M01/M06 Q1014=
200912202115 METAR LIRA 202115Z 03002KT CAVOK M01/M06 Q1013=
200912202045 METAR LIRA 202045Z 02004KT 360V060 CAVOK M01/M06 Q1013=
200912202015 METAR LIRA 202015Z 05005KT 360V100 CAVOK M01/M07 Q1013=
200912201945 METAR LIRA 201945Z 03003KT CAVOK M01/M07 Q1013=
200912201915 METAR LIRA 201915Z 35002KT CAVOK M01/M07 Q1013=
200912201845 METAR LIRA 201845Z 04004KT CAVOK M00/M07 Q1012=
200912201815 METAR LIRA 201815Z 01004KT CAVOK 00/M07 Q1012=
200912201745 METAR LIRA 201745Z 02004KT CAVOK 01/M07 Q1011=
200912201715 METAR LIRA 201715Z 04002KT CAVOK 01/M07 Q1010=
200912201645 METAR LIRA 201645Z 36006KT 310V040 CAVOK 01/M08 Q1010=
200912201615 METAR LIRA 201615Z 01004KT CAVOK 02/M09 Q1010=
200912201545 METAR LIRA 201545Z 35007KT 300V030 CAVOK 02/M11 Q1009=
200912201515 METAR LIRA 201515Z 36006KT 310V050 CAVOK 03/M11 Q1008=
200912201445 METAR LIRA 201445Z 34009KT 310V030 CAVOK 04/M12 Q1008=
200912201415 METAR LIRA 201415Z 32009KT 300V030 CAVOK 04/M11 Q1008=
200912201345 METAR LIRA 201345Z 34007KT 290V040 CAVOK 04/M10 Q1007=
200912201315 METAR LIRA 201315Z 33011KT 300V030 CAVOK 04/M10 Q1007=
200912201245 METAR LIRA 201245Z 33009KT 290V010 CAVOK 04/M09 Q1007=
200912201215 METAR LIRA 201215Z 34008KT 300V040 CAVOK 03/M06 Q1006=
200912201145 METAR LIRA 201145Z 35008KT 300V060 CAVOK 03/M05 Q1006=
200912201115 METAR LIRA 201115Z 36005KT 300V060 CAVOK 02/M04 Q1006=
200912201045 METAR LIRA 201045Z 01006KT 300V080 CAVOK 01/M05 Q1006=
200912201015 METAR LIRA 201015Z 01004KT 330V060 CAVOK M00/M05 Q1006=
200912200945 METAR LIRA 200945Z 36005KT 310V070 CAVOK M01/M05 Q1006=
200912200915 METAR LIRA 200915Z 02005KT 340V080 CAVOK M01/M05 Q1005=
200912200845 METAR LIRA 200845Z 02006KT 320V090 CAVOK M01/M05 Q1005=
200912200815 METAR LIRA 200815Z 01005KT 330V060 CAVOK M02/M05 Q1004=
200912200745 METAR LIRA 200745Z 02005KT 330V080 CAVOK M02/M05 Q1003=
200912200715 METAR LIRA 200715Z 04005KT CAVOK M02/M04 Q1003=
200912200645 METAR LIRA 200645Z 04005KT 010V070 9999 FEW035 M02/M04 Q1003=
200912200615 METAR LIRA 200615Z 01005KT 330V040 9999 FEW035 SCT070 M02/M04
                        Q1002=
200912200545 METAR LIRA 200545Z 01005KT 340V050 9999 FEW030 SCT070 M01/M03
                        Q1002=
200912200515 METAR LIRA 200515Z 02004KT 350V050 9999 FEW030 SCT070 M01/M03
                        Q1002=
200912200445 METAR LIRA 200445Z 03003KT 310V050 8000 FEW030 SCT070 M00/M02
                        Q1002=
200912200415 METAR LIRA 200415Z 02004KT 350V060 8000 FEW030 SCT070 M00/M02
                        Q1001=
200912200345 METAR LIRA 200345Z 01004KT 8000 FEW025 SCT070 M00/M02 Q1001=
200912200315 METAR LIRA 200315Z 01004KT 8000 FEW025 BKN070 M00/M02 Q1001=
200912200245 METAR LIRA 200245Z 02003KT 320V070 8000 FEW025 SCT070 00/M01
                        Q1001=
200912200215 METAR LIRA 200215Z 36005KT 310V030 8000 FEW025 SCT070 00/M01
                        Q1000=
200912200145 METAR LIRA 200145Z 01003KT 8000 FEW025 SCT070 00/M01 Q1000=
200912200115 METAR LIRA 200115Z 01007KT 310V060 8000 FEW030 SCT080 00/M01
                        Q0999=
200912200045 METAR LIRA 200045Z 02006KT 330V060 8000 FEW030 SCT080 00/M00
                        Q0999=
200912200015 METAR LIRA 200015Z 01005KT 8000 FEW030 SCT080 00/M00 Q1000=
200912192350 METAR LIRA 200045Z 02006KT 330V060 8000 FEW030 SCT080 00/M00
                        Q0999=
200912192345 METAR LIRA 192345Z 02006KT 8000 FEW030 SCT080 00/M00 Q1000=
200912192315 METAR LIRA 192315Z 01003KT 8000 FEW030 SCT080 00/M00 Q0999=
200912192245 METAR LIRA 192245Z 01003KT 8000 FEW030 SCT080 00/M00 Q0999=
200912192215 METAR LIRA 192215Z VRB03KT 8000 FEW030 SCT080 00/M00 Q0999=
200912192145 METAR LIRA 192145Z 12001KT 8000 SCT080 01/M00 Q0999=
200912192115 METAR LIRA 192115Z 05004KT 8000 SCT080 01/M00 Q0999=
200912192045 METAR LIRA 192045Z 31004KT 8000 SCT080 01/M01 Q0999=
200912192015 METAR LIRA 192015Z 03001KT 9999 FEW080 01/M01 Q0998=
200912191945 METAR LIRA 191945Z 08003KT 9999 FEW080 02/M01 Q0998=
200912191915 METAR LIRA 191915Z 07002KT 9999 FEW080 02/M00 Q0997=
200912191845 METAR LIRA 191845Z 09001KT 9999 FEW080 02/M00 Q0997=
200912191815 METAR LIRA 191815Z 07002KT 9999 FEW030 SCT080 02/M00 Q0997=
200912191745 METAR LIRA 191745Z 09005KT 9999 FEW030 02/M00 Q0996=
200912191715 METAR LIRA 191715Z 05003KT 9999 FEW020 02/00 Q0996=
200912191645 METAR LIRA 191645Z 05003KT 9999 SCT020 03/01 Q0995=
200912191615 METAR LIRA 191615Z 00000KT 9999 FEW020 03/01 Q0995=
200912191545 METAR LIRA 191545Z 01003KT 9999 FEW020 03/01 Q0995=
200912191515 METAR LIRA 191515Z 08007KT 9999 FEW020 SCT080 03/02 Q0995=
200912191445 METAR LIRA 191445Z 05005KT 9999 FEW018 SCT030 03/02 Q0995=
200912191415 METAR LIRA 191415Z 31009KT 270V340 9000 -RA SCT009 FEW020CB
                        BKN025 04/02 Q0994=
200912191345 METAR LIRA 191345Z 34007KT 300V040 9999 SCT008 FEW020TCU
                        BKN025 06/01 Q0994=
200912191315 METAR LIRA 191315Z 33008KT 280V010 9999 FEW018 FEW020CB SCT030
                        06/M00 Q0994=
200912191245 METAR LIRA 191245Z 34010KT 300V020 9999 SCT018 FEW020CB SCT025
                        06/M02 Q0993=
200912191215 METAR LIRA 191215Z 28002KT 9999 SCT018 FEW020CB SCT030 08/00
                        Q0993=
200912191145 METAR LIRA 191145Z 11001KT 9999 SCT020 FEW022TCU 08/04 Q0994=
200912191115 METAR LIRA 191115Z 03002KT 9999 SCT020 FEW022TCU 07/03 Q0994=
200912191045 METAR LIRA 191045Z 09004KT 9999 FEW020 FEW022TCU SCT030 06/03
                        Q0994=
200912191015 METAR LIRA 191015Z 02003KT 9999 FEW020 SCT035 06/03 Q0994=
200912190945 METAR LIRA 190945Z 36004KT 330V050 9999 FEW020 BKN035 05/02
                        Q0994=
200912190915 METAR LIRA 190915Z 36006KT 9999 FEW020 SCT035 06/01 Q0994=
200912190845 METAR LIRA 190845Z 03004KT 9999 FEW020 SCT035 06/M01 Q0994=
200912190815 METAR LIRA 190815Z 23005KT 9999 FEW020 SCT035 06/M00 Q0994=
200912190745 METAR LIRA 190745Z 17004KT 9999 FEW020 SCT035 06/M01 Q0994=
200912190715 METAR LIRA 190715Z 22004KT 190V270 9999 FEW020 SCT035 06/M01
                        Q0994=
200912190645 METAR LIRA 190645Z 22005KT 180V260 9999 FEW020 SCT035 07/01
                        Q0993=
200912190615 METAR LIRA 190615Z 21004KT 180V270 9999 FEW020 SCT035 BKN070
                        07/02 Q0993=
200912190545 METAR LIRA 190545Z 23005KT 180V270 9999 FEW020 BKN070 07/02
                        Q0993=
200912190515 METAR LIRA 190515Z 18007KT 140V240 9999 FEW018 SCT070 07/02
                        Q0994=
200912190445 METAR LIRA 190445Z 18005KT 140V210 9999 FEW018 SCT070 06/02
                        Q0994=
200912190415 METAR LIRA 190415Z 17004KT 9999 -RA FEW018 SCT070 06/03 Q0994=
200912190345 METAR LIRA 190345Z 17006KT 9999 -RA FEW018 BKN070 06/04 Q0995=
200912190315 METAR LIRA 190315Z 17006KT 9999 -RA FEW018 BKN070 06/03 Q0995=
200912190245 METAR LIRA 190245Z 17007KT 9999 -RA FEW018 SCT070 05/03 Q0995=
200912190215 METAR LIRA 190215Z 17008KT 9999 -RA FEW018 FEW020CB SCT070
                        05/03 Q0995=
200912190145 METAR LIRA 190145Z 17005KT 130V210 9999 -RA FEW018 FEW020CB
                        SCT070 05/04 Q0995 RETS=
200912190115 METAR LIRA 190115Z 17008KT 130V220 9999 FEW018 FEW020CB SCT070
                        05/03 Q0995 RETS=
200912190045 METAR LIRA 190045Z 22015G30KT 120V260 5000 -TSRA BR FEW015
                        FEW020CB SCT030 05/03 Q0995=
200912190015 METAR LIRA 190015Z 14021KT 9999 -TSRA SCT015 FEW020CB SCT030
                        06/03 Q0995=
200912182350 METAR LIRA 190045Z 22015G30KT 120V260 5000 -TSRA BR FEW015
                        FEW020CB SCT030 05/03 Q0995=
200912182345 METAR LIRA 182345Z 15022KT 9999 FEW018 SCT070 07/02 Q0996=
200912182315 METAR LIRA 182315Z 14017KT 9999 FEW018 SCT070 07/02 Q0997=
200912182245 METAR LIRA 182245Z 15014G25KT 100V180 9999 FEW018 SCT030
                        06/02 Q0999=
200912182215 METAR LIRA 182215Z 14008KT 100V180 9999 -RA FEW018 SCT030
                        06/03 Q0999=
200912182145 METAR LIRA 182145Z 15006KT 100V170 9999 -RA FEW018 SCT030
                        05/02 Q0999=
200912182115 METAR LIRA 182115Z 13012KT 9999 -RA FEW018 SCT030 05/02 Q1000=
200912182045 METAR LIRA 182045Z 13015KT 110V190 9999 -RA FEW018 SCT030
                        05/02 Q1000=
200912182015 METAR LIRA 182015Z 15017KT 9999 FEW018 SCT030 06/M03 Q1000=
200912181945 METAR LIRA 181945Z 15014KT 9999 BKN080 05/M03 Q1001=
200912181915 METAR LIRA 181915Z 18006KT 130V210 9999 SCT080 04/M01 Q1001=
200912181845 METAR LIRA 181845Z 14007KT 9999 SCT080 03/M01 Q1001=
200912181815 METAR LIRA 181815Z 15002KT 9999 BKN080 03/M02 Q1002=
200912181745 METAR LIRA 181745Z 10004KT 9999 BKN080 04/M02 Q1002=
200912181715 METAR LIRA 181715Z 12002KT 9999 BKN080 04/M03 Q1002=
200912181645 METAR LIRA 181645Z 10003KT 9999 BKN080 05/M04 Q1002=
200912181615 METAR LIRA 181615Z 17003KT 9999 BKN080 05/M05 Q1002=
200912181545 METAR LIRA 181545Z 00000KT 9999 BKN080 05/M05 Q1002=
200912181515 METAR LIRA 181515Z 00000KT 9999 BKN080 06/M07 Q1001=
200912181445 METAR LIRA 181445Z 07002KT 9999 FEW030 SCT080 05/M07 Q1001=
200912181415 METAR LIRA 181415Z 06005KT 9999 SCT080 06/M06 Q1002=
200912181345 METAR LIRA 181345Z 05007KT 360V090 9999 SCT080 06/M05 Q1002=
200912181315 METAR LIRA 181315Z 05006KT 350V090 9999 SCT070 06/M03 Q1002=
200912181245 METAR LIRA 181245Z 04008KT 360V080 9999 FEW080 05/M03 Q1002=
200912181215 METAR LIRA 181215Z 02007KT 320V100 CAVOK 05/M01 Q1002=
200912181145 METAR LIRA 181145Z 04006KT 010V080 CAVOK 05/M00 Q1002=
200912181115 METAR LIRA 181115Z 02006KT 300V090 CAVOK 04/M01 Q1002=
200912181045 METAR LIRA 181045Z 03006KT 330V080 CAVOK 04/M01 Q1003=
200912181015 METAR LIRA 181015Z 02006KT 340V100 CAVOK 03/M01 Q1003=
200912180945 METAR LIRA 180945Z 02006KT 320V090 CAVOK 03/M01 Q1003=
200912180915 METAR LIRA 180915Z 02006KT 330V090 CAVOK 03/M01 Q1003=
200912180845 METAR LIRA 180845Z 36005KT 320V070 CAVOK 03/M01 Q1003=
200912180815 METAR LIRA 180815Z 02004KT 340V060 9999 FEW080 02/M01 Q1002=
200912180745 METAR LIRA 180745Z 01004KT 9999 FEW070 01/M02 Q1002=
200912180715 METAR LIRA 180715Z 03003KT 9999 FEW070 02/M00 Q1001=
200912180645 METAR LIRA 180645Z 03004KT 9999 FEW070 01/M01 Q1001=
200912180615 METAR LIRA 180615Z 02004KT 9999 FEW070 01/M01 Q1000=
200912180545 METAR LIRA 180545Z 01004KT 9999 FEW070 01/M01 Q1000=
200912180515 METAR LIRA 180515Z 04005KT 010V070 CAVOK 01/M01 Q0999=
200912180445 METAR LIRA 180445Z 01004KT 330V050 CAVOK 02/M01 Q0999=
200912180415 METAR LIRA 180415Z 36006KT 300V050 9999 FEW030 SCT060 02/M00
                        Q0999=
200912180345 METAR LIRA 180345Z 01004KT 9999 FEW018 SCT030 02/00 Q0999=
200912180315 METAR LIRA 180315Z 03004KT 010V070 9999 FEW018 SCT030 03/01
                        Q0999=
200912180245 METAR LIRA 180245Z 01005KT 320V060 9999 FEW018 SCT030 03/01
                        Q0999=
200912180215 METAR LIRA 180215Z 02005KT 330V060 9999 FEW025 SCT060 03/01
                        Q0999=
200912180145 METAR LIRA 180145Z 02004KT 9999 FEW025 SCT070 03/02 Q0998=
200912180115 METAR LIRA 180115Z 34006KT 300V030 9999 FEW018 SCT030 04/02
                        Q0998=
200912180045 METAR LIRA 180045Z 33003KT 9999 FEW020 SCT030 04/03 Q0998=
200912180015 METAR LIRA 180015Z 35003KT 9999 FEW020 SCT025 05/03 Q0998=
200912172350 METAR LIRA 180045Z 33003KT 9999 FEW020 SCT030 04/03 Q0998=
200912172345 METAR LIRA 172345Z 02003KT 9999 -RA SCT018 BKN025 05/03 Q0998=
200912172315 METAR LIRA 172315Z 33004KT 9999 -RA SCT018 BKN025 05/03 Q0998=
200912172245 METAR LIRA 172245Z 35003KT 9999 SCT018 SCT025 05/03 Q0998=
200912172215 METAR LIRA 172215Z 09002KT 9999 SCT017 SCT025 05/03 Q0998=
200912172145 METAR LIRA 172145Z 19003KT 9999 FEW017 SCT025 05/03 Q0998=
200912172115 METAR LIRA 172115Z 34004KT 9999 SCT025 SCT060 05/03 Q0998=
200912172045 METAR LIRA 172045Z 24006KT 010V120 9999 FEW025 BKN060 05/02
                        Q0998=
200912172015 METAR LIRA 172015Z 11010KT 9999 FEW025 SCT060 05/02 Q0998=
200912171945 METAR LIRA 171945Z 15008KT 9999 -RA SCT018 SCT030 06/04 Q0998=
200912171915 METAR LIRA 171915Z 22005KT 9999 -RA SCT018 SCT030 06/04 Q0998=
200912171845 METAR LIRA 171845Z 20004KT 9999 -RA SCT018 SCT030 07/05 Q0998=
200912171815 METAR LIRA 171815Z 16005KT 9999 FEW020 SCT030 07/05 Q0998=
200912171745 METAR LIRA 171745Z 17005KT 9999 FEW020 SCT030 06/04 Q0998=
200912171715 METAR LIRA 171715Z 16002KT 9999 FEW020 SCT030 07/05 Q0998=
200912171645 METAR LIRA 171645Z 00000KT 9999 FEW030 BKN070 07/04 Q0998=
200912171615 METAR LIRA 171615Z 36002KT 9999 FEW030 SCT070 07/04 Q0998=
200912171545 METAR LIRA 171545Z 01003KT 9999 FEW030 SCT070 06/03 Q0998=
200912171515 METAR LIRA 171515Z 03002KT 9999 FEW018 BKN070 07/03 Q0998=
200912171445 METAR LIRA 171445Z 04003KT 9999 FEW020 BKN070 07/03 Q0998=
200912171415 METAR LIRA 171415Z 01004KT 340V070 9999 FEW030 SCT070 08/03
                        Q0998=
200912171345 METAR LIRA 171345Z 03005KT 330V070 9999 FEW030 SCT070 08/04
                        Q0998=
200912171315 METAR LIRA 171315Z 36006KT 310V060 9999 FEW018 SCT030 08/04
                        Q0998=
200912171245 METAR LIRA 171245Z 02006KT 310V070 9999 FEW018 SCT030 08/05
                        Q0998=
200912171215 METAR LIRA 171215Z 01006KT 310V070 9999 FEW018 SCT030 08/05
                        Q0998=
200912171145 METAR LIRA 171145Z 01006KT 310V050 9999 FEW018 SCT200 08/06
                        Q0998=
200912171115 METAR LIRA 171115Z 06006KT 360V080 9999 FEW018 07/05 Q0998=
200912171045 METAR LIRA 171045Z 08008KT 040V110 9999 FEW015 SCT025 06/05
                        Q0999=
200912171015 METAR LIRA 171015Z 05008KT 360V110 7000 0000S -RA SCT013
                        BKN023 05/05 Q0999=
200912170945 METAR LIRA 170945Z 34007KT 290V050 2500 -RA BR SCT013 BKN023
                        06/05 Q0999=
200912170915 METAR LIRA 170915Z 04002KT 6000 SCT015 SCT023 06/06 Q0999=
200912170845 METAR LIRA 170845Z 09004KT 5000 -RA BR SCT013 BKN023 06/05
                        Q0999=
200912170815 METAR LIRA 170815Z 08003KT 3000 -RA BR SCT013 BKN023 06/05
                        Q0999=
200912170800 LIRA INTER=
200912170745 METAR LIRA 170745Z 04004KT 3000 -RA BR SCT013 BKN023 06/05
                        Q0999=
200912170715 METAR LIRA 170715Z 17003KT 4000 -RA BR SCT015 BKN030 06/05
                        Q0999=
200912170645 METAR LIRA 170645Z 04002KT 7000 -RA FEW018 BKN030 06/05 Q0999=
200912170615 METAR LIRA 170615Z 08002KT 8000 -RA FEW017 SCT030 06/05 Q0999=
200912170545 METAR LIRA 170545Z 11003KT 9999 -RA SCT017 BKN030 06/05 Q1000=
200912170515 METAR LIRA 170515Z 13004KT 9999 -RA SCT017 BKN030 06/05 Q1000=
200912170445 METAR LIRA 170445Z 26004KT 6000 -RA SCT017 BKN030 07/06 Q1000=
200912170415 METAR LIRA 170415Z 17007KT 130V200 9999 -DZ FEW017 SCT035
                        07/05 Q1000=
200912170345 METAR LIRA 170345Z 19010KT 160V230 9999 -RA FEW017 FEW022TCU
                        SCT030 07/05 Q1001=
200912170315 METAR LIRA 170315Z 16008KT 9999 -RA FEW017 FEW022TCU SCT030
                        07/05 Q1001=
200912170245 METAR LIRA 170245Z 16008KT 9999 -RA FEW018 FEW022TCU SCT030
                        07/05 Q1002=
200912170215 METAR LIRA 170215Z 16008KT 9999 -RA FEW017 FEW022TCU SCT030
                        07/04 Q1002=
200912170145 METAR LIRA 170145Z 16008KT 9999 -DZ FEW018 SCT030 08/03 Q1002=
200912170115 METAR LIRA 170115Z 16008KT 9999 FEW018 SCT030 08/02 Q1002=
200912170045 METAR LIRA 170045Z 17007KT 9999 FEW020 SCT030 08/01 Q1003=
200912170015 METAR LIRA 170015Z 15006KT 9999 FEW020 SCT030 07/02 Q1003=
200912162350 METAR LIRA 170045Z 17007KT 9999 FEW020 SCT030 08/01 Q1003=
200912162345 METAR LIRA 162345Z 14008KT 9999 FEW020 SCT030 07/02 Q1003=
200912162315 METAR LIRA 162315Z 14007KT 9999 FEW025 06/01 Q1004=
200912162245 METAR LIRA 162245Z 15006KT 9999 FEW025 06/02 Q1004=
200912162215 METAR LIRA 162215Z 00000KT 9999 SCT025 06/02 Q1005=
200912162145 METAR LIRA 162145Z 33002KT 9999 SCT030 SCT070 06/02 Q1005=
200912162115 METAR LIRA 162115Z 14007KT 9999 SCT030 SCT070 07/03 Q1005=
200912162045 METAR LIRA 162045Z 14003KT 9999 FEW025 SCT070 05/02 Q1005=
200912162015 METAR LIRA 162015Z 07002KT 9999 FEW025 04/02 Q1005=
200912161945 METAR LIRA 161945Z 10004KT 9999 FEW025 SCT070 04/01 Q1005=
200912161915 METAR LIRA 161915Z 10003KT 9999 FEW025 SCT070 04/01 Q1005=
200912161845 METAR LIRA 161845Z 10002KT 9999 FEW030 04/01 Q1005=
200912161815 METAR LIRA 161815Z 14006KT 9999 FEW030 04/01 Q1005=
200912161745 METAR LIRA 161745Z 14004KT 9999 FEW030 04/01 Q1005=
200912161715 METAR LIRA 161715Z 14005KT 9999 SCT025 SCT070 06/03 Q1005=
200912161645 METAR LIRA 161645Z 18004KT 9999 SCT030 BKN070 07/01 Q1005=
200912161615 METAR LIRA 161615Z 17004KT 9999 SCT030 BKN070 07/01 Q1005=
200912161545 METAR LIRA 161545Z 19004KT 9999 SCT030 BKN070 07/01 Q1005=
200912161515 METAR LIRA 161515Z 00000KT 9999 FEW030 08/00 Q1004=
200912161445 METAR LIRA 161445Z 32001KT 9999 SCT030 08/00 Q1004=
200912161415 METAR LIRA 161415Z 32003KT 9999 SCT030 SCT070 08/00 Q1004=
200912161345 METAR LIRA 161345Z 06001KT 9999 FEW030 SCT080 07/M01 Q1004=
200912161315 METAR LIRA 161315Z 31003KT 9999 FEW030 BKN080 07/00 Q1004=
200912161245 METAR LIRA 161245Z 35002KT 9999 FEW030 BKN080 06/M00 Q1004=
200912161215 METAR LIRA 161215Z 34004KT 280V010 9999 FEW080 06/M00 Q1004=
200912161145 METAR LIRA 161145Z 34003KT 280V030 CAVOK 06/00 Q1004=
200912161115 METAR LIRA 161115Z 35004KT 320V090 CAVOK 05/01 Q1004=
200912161045 METAR LIRA 161045Z 02005KT 340V070 CAVOK 05/01 Q1004=
200912161015 METAR LIRA 161015Z 05005KT 360V090 CAVOK 05/01 Q1004=
200912160945 METAR LIRA 160945Z 34006KT 300V020 CAVOK 05/01 Q1004=
200912160915 METAR LIRA 160915Z 35007KT 300V060 9999 FEW080 04/00 Q1004=
200912160845 METAR LIRA 160845Z 36006KT 320V050 9999 FEW080 04/00 Q1003=
200912160815 METAR LIRA 160815Z 01005KT 330V060 9999 FEW080 03/M00 Q1003=
200912160745 METAR LIRA 160745Z 01005KT 320V070 9999 FEW030 02/M00 Q1003=
200912160715 METAR LIRA 160715Z 01004KT 9999 FEW030 02/M00 Q1002=
200912160645 METAR LIRA 160645Z 02003KT 9999 FEW030 SCT080 03/00 Q1002=
200912160615 METAR LIRA 160615Z 35003KT 9999 SCT070 03/01 Q1001=
200912160545 METAR LIRA 160545Z 36004KT 9999 BKN070 03/02 Q1001=
200912160515 METAR LIRA 160515Z 03004KT 9999 BKN070 02/M00 Q1001=
200912160445 METAR LIRA 160445Z 03004KT 9999 BKN070 02/M00 Q1000=
200912160415 METAR LIRA 160415Z 03003KT 9999 SCT080 02/M00 Q1000=
200912160345 METAR LIRA 160345Z 04005KT 9999 SCT080 02/M00 Q1000=
200912160315 METAR LIRA 160315Z 04005KT 9999 SCT070 02/M00 Q0999=
200912160245 METAR LIRA 160245Z 04005KT 9999 SCT070 03/M00 Q0999=
200912160215 METAR LIRA 160215Z 04003KT 9999 SCT070 03/M00 Q0999=
200912160145 METAR LIRA 160145Z 01004KT 9999 FEW018 SCT070 03/M00 Q0999=
200912160115 METAR LIRA 160115Z 03004KT 350V070 9999 FEW018 SCT070 03/M00
                        Q0999=
200912160045 METAR LIRA 160045Z 05006KT 360V080 9999 FEW030 BKN070 04/M00
                        Q0999=
200912160015 METAR LIRA 160015Z 04006KT 350V070 9999 FEW030 BKN070 04/M00
                        Q0999=
200912152350 METAR LIRA 160045Z 05006KT 360V080 9999 FEW030 BKN070 04/M00
                        Q0999=
200912152345 METAR LIRA 152345Z 04006KT 360V080 9999 FEW030 BKN070 04/00
                        Q0999=
200912152315 METAR LIRA 152315Z 04006KT 300V070 9999 FEW030 BKN070 04/00
                        Q0998=
200912152245 METAR LIRA 152245Z 03006KT 360V100 9999 FEW030 BKN070 04/00
                        Q0998=
200912152215 METAR LIRA 152215Z 02005KT 350V070 9999 FEW030 BKN070 04/00
                        Q0998=
200912152145 METAR LIRA 152145Z 03004KT 9999 FEW030 BKN070 04/00 Q0998=
200912152115 METAR LIRA 152115Z 03005KT 320V070 9999 BKN070 05/M00 Q0998=
200912152045 METAR LIRA 152045Z 02005KT 330V060 9999 BKN070 05/00 Q0998=
200912152015 METAR LIRA 152015Z 01004KT 9999 BKN070 05/00 Q0997=
200912151945 METAR LIRA 151945Z 36004KT 330V080 9999 BKN070 05/M00 Q0997=
200912151915 METAR LIRA 151915Z 02008KT 320V080 9999 SCT070 05/M01 Q0997=
200912151845 METAR LIRA 151845Z 01007KT 300V100 9999 SCT070 05/M00 Q0997=
200912151815 METAR LIRA 151815Z 01004KT 330V060 9999 FEW080 05/M00 Q0996=
200912151745 METAR LIRA 151745Z 03005KT 320V060 9999 FEW080 05/00 Q0996=
200912151715 METAR LIRA 151715Z 04007KT 360V080 9999 FEW080 06/00 Q0996=
200912151645 METAR LIRA 151645Z 03008KT 350V070 9999 FEW080 06/00 Q0996=
200912151615 METAR LIRA 151615Z 03006KT 310V070 9999 FEW035 SCT080 07/01
                        Q0996=
200912151545 METAR LIRA 151545Z 02006KT 330V070 9999 FEW035 BKN080 07/01
                        Q0995=
200912151515 METAR LIRA 151515Z 01008KT 330V070 9999 FEW035 BKN080 08/01
                        Q0995=
200912151445 METAR LIRA 151445Z 36007KT 300V060 9999 FEW035 BKN080 08/01
                        Q0995=
200912151415 METAR LIRA 151415Z 36009KT 290V060 9999 FEW035 BKN080 08/02
                        Q0995=
200912151345 METAR LIRA 151345Z 36009KT 290V080 9999 FEW035 SCT080 08/02
                        Q0995=
200912151315 METAR LIRA 151315Z 36012KT 280V040 9999 FEW035 SCT080 08/02
                        Q0995=
200912151245 METAR LIRA 151245Z 36007KT 290V090 9999 FEW035 SCT080 09/03
                        Q0995=
200912151215 METAR LIRA 151215Z 35008KT 300V070 9999 FEW035 SCT080 09/03
                        Q0995=
200912151145 METAR LIRA 151145Z 36006KT 300V070 9999 FEW035 SCT080 09/03
                        Q0996=
200912151115 METAR LIRA 151115Z 36008KT 300V050 9999 FEW035 BKN100 08/02
                        Q0996=
200912151045 METAR LIRA 151045Z 01009KT 280V070 9999 FEW035 BKN100 08/02
                        Q0996=
200912151015 METAR LIRA 151015Z 01008KT 300V080 9999 FEW035 BKN100 08/02
                        Q0996=
200912150945 METAR LIRA 150945Z 36005KT 300V050 9999 FEW035 BKN100 07/03
                        Q0996=
200912150915 METAR LIRA 150915Z 01005KT 300V080 9999 -DZ SCT035 SCT080
                        07/03 Q0996=
200912150845 METAR LIRA 150845Z 01005KT 300V080 9999 -DZ SCT035 BKN080
                        06/02 Q0996=
200912150815 METAR LIRA 150815Z 36009KT 300V080 9999 -DZ SCT035 BKN080
                        06/02 Q0996=
200912150745 METAR LIRA 150745Z 02006KT 300V080 9999 -DZ SCT032 BKN080
                        06/03 Q0996=
200912150715 METAR LIRA 150715Z 01005KT 300V070 9999 -DZ SCT032 BKN080
                        06/02 Q0996=
200912150645 METAR LIRA 150645Z 01006KT 290V060 9999 -DZ SCT032 BKN080
                        06/02 Q0996=
200912150615 METAR LIRA 150615Z 01007KT 310V060 9999 -DZ SCT032 BKN080
                        07/02 Q0996=
200912150545 METAR LIRA 150545Z 01009KT 310V060 9999 SCT030 BKN080 07/02
                        Q0996=
200912150515 METAR LIRA 150515Z 01007KT 320V060 9999 SCT030 BKN070 07/02
                        Q0996=
200912150445 METAR LIRA 150445Z 01007KT 320V060 9999 SCT030 BKN070 07/02
                        Q0996=
200912150415 METAR LIRA 150415Z 01008KT 300V090 9999 SCT030 BKN070 07/02
                        Q0997=
200912150345 METAR LIRA 150345Z 36007KT 310V070 9999 SCT030 BKN070 07/03
                        Q0997=
200912150315 METAR LIRA 150315Z 03005KT 360V060 9999 SCT030 SCT070 07/03
                        Q0997=
200912150245 METAR LIRA 150245Z 03005KT 320V080 9999 SCT030 SCT070 07/03
                        Q0997=
200912150215 METAR LIRA 150215Z 02007KT 340V060 9999 SCT030 SCT070 07/03
                        Q0997=
200912150145 METAR LIRA 150145Z 02006KT 330V070 9999 SCT030 SCT070 07/03
                        Q0997=
200912150115 METAR LIRA 150115Z 36006KT 330V040 9999 SCT030 SCT070 07/04
                        Q0998=
200912150045 METAR LIRA 150045Z 35006KT 320V040 9999 SCT030 SCT070 08/04
                        Q0998=
200912150015 METAR LIRA 150015Z 01004KT 310V040 9999 SCT030 SCT070 08/05
                        Q0998=
200912142350 METAR LIRA 150045Z 35006KT 320V040 9999 SCT030 SCT070 08/04
                        Q0998=
200912142345 METAR LIRA 142345Z 01007KT 310V060 9999 SCT030 SCT070 08/05
                        Q0998=
200912142315 METAR LIRA 142315Z 01006KT 320V050 9999 SCT030 SCT070 07/05
                        Q0999=
200912142245 METAR LIRA 142245Z 36005KT 310V050 9999 SCT030 SCT070 07/05
                        Q0999=
200912142215 METAR LIRA 142215Z 36007KT 300V070 9999 SCT030 SCT070 07/05
                        Q0999=
200912142200 METAR LIRA INTER=
200912142145 METAR LIRA 142145Z 36008KT 300V070 9999 -RA FEW016 SCT025
                        BKN070 07/06 Q0999=
200912142115 METAR LIRA 142115Z 01006KT 300V050 9999 -RA FEW018 SCT025
                        BKN070 08/06 Q1000=
200912142045 METAR LIRA 142045Z 01008KT 320V060 9999 FEW035 SCT080 08/07
                        Q1000=
200912142015 METAR LIRA 142015Z 01006KT 280V060 9999 FEW035 SCT080 07/06
                        Q1000=
200912141945 METAR LIRA 141945Z 01004KT 320V050 9999 SCT035 SCT080 07/06
                        Q1000=
200912141915 METAR LIRA 141915Z 36007KT 320V060 9999 SCT035 SCT070 07/06
                        Q1000=
200912141845 METAR LIRA 141845Z 02007KT 320V080 9999 SCT035 SCT080 07/06
                        Q1000=
200912141815 METAR LIRA 141815Z 01007KT 340V060 9999 SCT035 SCT080 07/07
                        Q1001=
200912141745 METAR LIRA 141745Z 01007KT 320V070 9999 -RA SCT035 BKN070
                        08/07 Q1002=
200912141715 METAR LIRA 141715Z 01008KT 310V070 9999 -RA SCT035 BKN070
                        08/07 Q1002=
200912141645 METAR LIRA 141645Z 03008KT 330V070 9999 SCT035 BKN070 08/07
                        Q1002=
200912141615 METAR LIRA 141615Z 02006KT 330V060 9999 -RA SCT035 BKN070
                        08/07 Q1003=
200912141545 METAR LIRA 141545Z 02006KT 330V060 9999 -RA FEW020 SCT035
                        BKN070 08/07 Q1003=
200912141515 METAR LIRA 141515Z 02006KT 330V060 9999 -RA FEW020 SCT035
                        BKN070 09/08 Q1003=
200912141445 METAR LIRA 141445Z 02006KT 330V060 9999 -RA FEW020 SCT035
                        BKN070 09/08 Q1003=
200912141415 METAR LIRA 141415Z 01006KT 330V060 9999 -RA FEW020 SCT035
                        BKN070 09/08 Q1003=
200912141345 METAR LIRA 141345Z 36005KT 310V050 9999 -RA FEW020 SCT035
                        BKN070 09/08 Q1003=
200912141315 METAR LIRA 141315Z 05003KT 9999 -RA FEW020 SCT035 BKN070
                        10/08 Q1003=
200912141245 METAR LIRA 141245Z 02003KT 9999 -RA FEW020 SCT035 BKN070
                        10/08 Q1003=
200912141215 METAR LIRA 141215Z 09007KT 040V110 9999 SCT035 BKN070 10/07
                        Q1004=
200912141145 METAR LIRA 141145Z 02003KT 9999 SCT035 BKN070 10/07 Q1004=
200912141115 METAR LIRA 141115Z 36003KT 9999 FEW020 SCT035 BKN070 10/07
                        Q1004=
200912141045 METAR LIRA 141045Z 36004KT 9999 FEW020 SCT035 BKN070 10/07
                        Q1005=
200912141015 METAR LIRA 141015Z 35002KT 9999 -RA FEW020 SCT035 BKN070
                        09/07 Q1005=
200912140945 METAR LIRA 140945Z 01004KT 9999 -DZ FEW020 SCT035 BKN070
                        09/06 Q1006=
200912140915 METAR LIRA 140915Z 07004KT 9999 -DZ FEW020 SCT035 BKN070
                        09/06 Q1006=
200912140845 METAR LIRA 140845Z 03004KT 9999 -DZ FEW020 SCT035 BKN060
                        08/06 Q1006=
200912140815 METAR LIRA 140815Z 36004KT 9999 -DZ FEW020 SCT035 BKN060
                        08/05 Q1006=
200912140745 METAR LIRA 140745Z 35002KT 340V050 9999 -RA FEW018 SCT035
                        BKN060 08/06 Q1006=
200912140715 METAR LIRA 140715Z 02005KT 340V070 9000 -RA FEW018 SCT035
                        BKN060 08/06 Q1006=
200912140645 METAR LIRA 140645Z 02004KT 330V070 8000 -RA FEW018 SCT025
                        BKN070 08/06 Q1006=
200912140615 METAR LIRA 140615Z 04004KT 350V080 8000 -DZ FEW018 SCT030
                        BKN070 08/06 Q1006=
200912140545 METAR LIRA 140545Z 06008KT 020V090 8000 -DZ FEW018 SCT030
                        BKN070 08/06 Q1006=
200912140515 METAR LIRA 140515Z 07010KT 030V100 8000 -DZ FEW018 SCT030
                        BKN070 07/06 Q1006=
200912140445 METAR LIRA 140445Z 06008KT 010V100 9999 SCT018 BKN030 07/07
                        Q1006=
200912140415 METAR LIRA 140415Z 08009KT 030V120 9999 -RA SCT018 BKN030
                        07/06 Q1006=
200912140345 METAR LIRA 140345Z 17010KT 030V120 9999 -RA SCT018 BKN030
                        07/06 Q1007=
200912140315 METAR LIRA 140315Z 06010KT 9999 -RA SCT018 BKN030 07/05 Q1007=
200912140245 METAR LIRA 140245Z 07008KT 9999 -RA SCT015 BKN030 07/06 Q1007=
200912140215 METAR LIRA 140215Z 06007KT 030V110 9999 -RA SCT016 BKN030
                        07/06 Q1007=
200912140145 METAR LIRA 140145Z 04005KT 300V100 9999 FEW018 BKN030 08/06
                        Q1007=
200912140115 METAR LIRA 140115Z 01006KT 010V100 9999 -RA FEW018 BKN030
                        07/05 Q1007=
200912140045 METAR LIRA 140045Z 03006KT 330V060 9999 -RA FEW018 SCT030
                        07/05 Q1007=
200912140015 METAR LIRA 140015Z 07009KT 330V080 9999 -RA FEW018 SCT030
                        07/05 Q1008=
200912132350 METAR LIRA 140045Z 03006KT 330V060 9999 -RA FEW018 SCT030
                        07/05 Q1007=
200912132345 METAR LIRA 132345Z 34005KT 340V100 9999 -RA FEW018 SCT030
                        08/05 Q1008=
200912132315 METAR LIRA 132315Z 12010KT 110V190 9999 -RA FEW018 SCT033
                        08/05 Q1008=
200912132245 METAR LIRA 132245Z 10012G22KT 070V150 9999 -RA FEW018 SCT033
                        07/05 Q1008=
200912132215 METAR LIRA 132215Z 10012KT 060V130 9999 -RA FEW018 SCT033
                        07/05 Q1008=
200912132145 METAR LIRA 132145Z 09011KT 020V140 9999 -RA FEW018 SCT033
                        07/05 Q1008=
200912132115 METAR LIRA 132115Z 08011KT 020V110 9999 -RA FEW018 SCT033
                        07/05 Q1008=
200912132045 METAR LIRA 132045Z 05005KT 330V250 9999 -RA FEW018 SCT033
                        07/05 Q1008=
200912132015 METAR LIRA 132015Z 08005KT 010V120 9999 -RA FEW018 SCT033
                        07/05 Q1008=
200912131945 METAR LIRA 131945Z 08006KT 010V240 9999 -RA FEW018 BKN033
                        08/04 Q1009=
200912131915 METAR LIRA 131915Z 08005G15KT 020V150 9999 -DZ FEW020 BKN040
                        08/04 Q1009=
200912131845 METAR LIRA 131845Z 07007KT 040V110 9999 -DZ FEW020 SCT040
                        BKN070 08/03 Q1009=
200912131815 METAR LIRA 131815Z 08005KT 9999 FEW020 SCT040 BKN070 09/02
                        Q1009=
200912131745 METAR LIRA 131745Z 07010KT 020V110 9999 FEW020 BKN070 09/00
                        Q1009=
200912131715 METAR LIRA 131715Z 07009KT 020V120 9999 FEW020 SCT040 BKN070
                        09/01 Q1009=
200912131645 METAR LIRA 131645Z 07005KT 9999 FEW020 SCT040 BKN080 09/01
                        Q1009=
200912131615 METAR LIRA 131615Z 10008KT 040V110 9999 FEW020 SCT035 BKN070
                        10/01 Q1009=
200912131545 METAR LIRA 131545Z 04002KT 9999 FEW020 SCT035 BKN070 09/01
                        Q1009=
200912131515 METAR LIRA 131515Z 08005KT 040V100 9999 FEW020 BKN035 10/01
                        Q1009=
200912131445 METAR LIRA 131445Z 08009KT 050V120 9999 FEW020 BKN035 10/01
                        Q1009=
200912131415 METAR LIRA 131415Z 08006KT 040V120 9999 FEW020 SCT030 BKN070
                        10/02 Q1009=
200912131345 METAR LIRA 131345Z 06004KT 9999 FEW020 SCT030 BKN070 10/03
                        Q1010=
200912131315 METAR LIRA 131315Z 06005KT 9999 FEW020 SCT035 BKN070 09/03
                        Q1010=
200912131245 METAR LIRA 131245Z 30003KT 9999 FEW020 SCT025 BKN070 09/03
                        Q1011=
200912131215 METAR LIRA 131215Z 36003KT 9999 FEW020 SCT025 BKN070 09/03
                        Q1011=
200912131145 METAR LIRA 131145Z 01005KT 330V060 9999 FEW020 SCT025 BKN070
                        09/02 Q1011=
200912131115 METAR LIRA 131115Z 05005KT 010V090 9999 FEW020 SCT025 BKN070
                        09/02 Q1011=
200912131045 METAR LIRA 131045Z 06007KT 030V100 9999 FEW020 SCT030 BKN070
                        09/02 Q1011=
200912131015 METAR LIRA 131015Z 04006KT 360V080 9999 FEW020 SCT030 BKN070
                        09/02 Q1011=
200912130945 METAR LIRA 130945Z 01003KT 9999 FEW020 SCT030 BKN070 09/02
                        Q1011=
200912130915 METAR LIRA 130915Z 06006KT 010V090 9999 FEW020 SCT035 BKN070
                        08/01 Q1011=
200912130845 METAR LIRA 130845Z 03004KT 9999 FEW020 SCT035 BKN070 07/03
                        Q1011=
200912130815 METAR LIRA 130815Z 02002KT 9999 FEW020 SCT035 06/02 Q1010=
200912130745 METAR LIRA 130745Z 34003KT 9999 FEW020 SCT030 06/02 Q1010=
200912130715 METAR LIRA 130715Z 03004KT 9999 FEW020 SCT030 05/01 Q1010=
200912130515 METAR LIRA 130515Z 05003KT 9999 FEW020 SCT030 05/02 Q1009=
200912130445 METAR LIRA 130445Z 02003KT 9999 FEW020 SCT030 05/03 Q1009=
200912130415 METAR LIRA 130415Z 34002KT 9999 FEW020 SCT030 04/04 Q1009=
200912130345 METAR LIRA 130345Z 03002KT 9999 FEW020 SCT030 04/03 Q1009=
200912130315 METAR LIRA 130315Z 33001KT 9999 FEW020 SCT030 04/03 Q1009=
200912130245 METAR LIRA 130245Z 01003KT 9999 FEW020 SCT025 04/03 Q1009=
200912130215 METAR LIRA 130215Z 02002KT 9999 FEW020 SCT025 04/03 Q1009=
200912130145 METAR LIRA 130145Z 01002KT 9999 SCT020 FEW024TCU SCT070 04/03
                        Q1009=
200912130115 METAR LIRA 130115Z 04004KT 9999 FEW020 FEW022TCU SCT070 04/03
                        Q1009=
200912130045 METAR LIRA 130045Z 36001KT 9999 FEW018TCU SCT020 04/03 Q1009=
200912130015 METAR LIRA 130015Z 33001KT 9999 FEW020 SCT030 05/03 Q1009=
200912122350 METAR LIRA 130045Z 36001KT 9999 FEW018TCU SCT020 04/03 Q1009=
200912122345 METAR LIRA 122345Z 31002KT 9999 FEW020 SCT030 05/02 Q1009=
200912122315 METAR LIRA 122315Z 36003KT 9999 FEW020TCU SCT030 05/01 Q1009=
200912122245 METAR LIRA 122245Z 01002KT 9999 FEW020TCU 04/01 Q1008=
200912122215 METAR LIRA 122215Z 01003KT 9999 FEW020TCU 04/01 Q1008=
200912122145 METAR LIRA 122145Z 03003KT 9999 FEW070 03/00 Q1008=
200912122115 METAR LIRA 122115Z 03005KT CAVOK 04/00 Q1008=
200912122045 METAR LIRA 122045Z 03005KT 350V080 CAVOK 04/00 Q1008=
200912122015 METAR LIRA 122015Z 03004KT 9999 FEW070 04/00 Q1009=
200912121945 METAR LIRA 121945Z 02003KT 9999 FEW070 05/M00 Q1008=
200912121915 METAR LIRA 121915Z 01003KT 9999 FEW070 06/00 Q1008=
200912121845 METAR LIRA 121845Z 03004KT CAVOK 06/M00 Q1008=
200912121815 METAR LIRA 121815Z 03004KT CAVOK 06/M00 Q1008=
200912121745 METAR LIRA 121745Z 03005KT 330V070 CAVOK 06/M01 Q1008=
200912121715 METAR LIRA 121715Z 02005KT 320V070 CAVOK 07/M01 Q1007=
200912121645 METAR LIRA 121645Z 02004KT 9999 FEW020 08/M01 Q1007=
200912121615 METAR LIRA 121615Z 36005KT 320V050 9999 FEW020 08/M01 Q1007=
200912121545 METAR LIRA 121545Z 34005KT 9999 FEW020 09/M01 Q1007=
200912121515 METAR LIRA 121515Z 34006KT 300V040 9999 FEW020 10/M01 Q1007=
200912121445 METAR LIRA 121445Z 36007KT 300V050 9999 FEW020 11/00 Q1007=
200912121415 METAR LIRA 121415Z 35008KT 300V060 9999 FEW020 11/00 Q1007=
200912121345 METAR LIRA 121345Z 35008KT 310V060 9999 FEW020 11/01 Q1007=
200912121315 METAR LIRA 121315Z 35008KT 300V060 9999 FEW020 11/00 Q1007=
200912121245 METAR LIRA 121245Z 36009KT 300V060 9999 FEW020 11/01 Q1007=
200912121215 METAR LIRA 121215Z 35009KT 300V060 9999 FEW020 11/01 Q1007=
200912121145 METAR LIRA 121145Z 36008KT 270V080 9999 FEW020 11/03 Q1008=
200912121115 METAR LIRA 121115Z 01009KT 310V070 9999 FEW020 10/02 Q1008=
200912121045 METAR LIRA 121045Z 03006KT 310V070 9999 FEW020 09/02 Q1008=
200912121015 METAR LIRA 121015Z 03006KT 320V130 9999 FEW020 09/03 Q1008=
200912120945 METAR LIRA 120945Z 01007KT 300V080 9999 FEW020 08/03 Q1008=
200912120915 METAR LIRA 120915Z 04005KT 360V090 9999 FEW020 07/03 Q1008=
200912120845 METAR LIRA 120845Z 05006KT 010V090 9999 FEW020 06/02 Q1008=
200912120815 METAR LIRA 120815Z 04005KT 340V070 9999 FEW020 05/02 Q1008=
200912120745 METAR LIRA 120745Z 02005KT 300V070 9999 FEW020 04/01 Q1008=
200912120715 METAR LIRA 120715Z 03005KT 9999 FEW020 03/01 Q1008=
200912120645 METAR LIRA 120645Z 02004KT 9999 FEW020 03/01 Q1008=
200912120615 METAR LIRA 120615Z 05004KT 020V090 9999 FEW020 03/00 Q1008=
200912120545 METAR LIRA 120545Z 05006KT 9999 FEW070 03/01 Q1008=
200912120515 METAR LIRA 120515Z 05006KT CAVOK 03/01 Q1008=
200912120445 METAR LIRA 120445Z 05006KT CAVOK 03/01 Q1008=
200912120415 METAR LIRA 120415Z 05004KT CAVOK 03/01 Q1008=
200912120345 METAR LIRA 120345Z 03003KT CAVOK 04/01 Q1008=
200912120315 METAR LIRA 120315Z 03004KT 340V050 CAVOK 04/01 Q1008=
200912120245 METAR LIRA 120245Z 04003KT CAVOK 04/01 Q1009=
200912120215 METAR LIRA 120215Z 03004KT CAVOK 05/01 Q1009=
200912120145 METAR LIRA 120145Z 03004KT CAVOK 05/02 Q1009=
200912120115 METAR LIRA 120115Z 02005KT 360V060 9999 FEW060 05/02 Q1009=
200912120045 METAR LIRA 120045Z 02005KT 340V060 9999 FEW060 05/01 Q1009=
200912120015 METAR LIRA 120015Z 01004KT 9999 FEW060 05/02 Q1009=
200912112350 METAR LIRA 120045Z 02005KT 340V060 9999 FEW060 05/01 Q1009=
200912112345 METAR LIRA 112345Z 05004KT 9999 FEW070 05/02 Q1010=
200912112315 METAR LIRA 112315Z 06004KT 9999 FEW030 SCT070 05/02 Q1010=
200912112245 METAR LIRA 112245Z 04005KT 9999 FEW030 SCT070 05/02 Q1010=
200912112215 METAR LIRA 112215Z 03003KT 9999 FEW025 SCT080 05/02 Q1010=
200912112145 METAR LIRA 112145Z 05004KT 9999 FEW025 05/02 Q1010=
200912112115 METAR LIRA 112115Z 36003KT 9999 SCT030 05/03 Q1010=
200912112045 METAR LIRA 112045Z 01003KT 8000 FEW010 05/03 Q1010=
200912112015 METAR LIRA 112015Z 01005KT 330V040 CAVOK 05/03 Q1009=
200912111945 METAR LIRA 111945Z 36003KT CAVOK 05/03 Q1009=
200912111915 METAR LIRA 111915Z 33003KT CAVOK 06/02 Q1009=
200912111845 METAR LIRA 111845Z 02003KT CAVOK 06/03 Q1009=
200912111815 METAR LIRA 111815Z 08002KT CAVOK 06/03 Q1009=
200912111745 METAR LIRA 111745Z 10004KT CAVOK 05/03 Q1009=
200912111715 METAR LIRA 111715Z 09005KT CAVOK 06/03 Q1009=
200912111645 METAR LIRA 111645Z 10003KT CAVOK 07/04 Q1009=
200912111615 METAR LIRA 111615Z 01001KT 9999 FEW070 09/04 Q1009=
200912111545 METAR LIRA 111545Z 36002KT 9999 FEW070 10/04 Q1009=
200912111515 METAR LIRA 111515Z 36003KT 9999 FEW070 10/04 Q1010=
200912111445 METAR LIRA 111445Z 34004KT 9999 FEW030 11/05 Q1010=
200912111415 METAR LIRA 111415Z 35004KT 320V050 9999 FEW025 12/05 Q1010=
200912111345 METAR LIRA 111345Z 36005KT 310V050 9999 FEW020 12/04 Q1010=
200912111315 METAR LIRA 111315Z 31004KT 9999 FEW020 11/04 Q1010=
200912111245 METAR LIRA 111245Z 33003KT 9999 FEW020 11/05 Q1010=
200912111215 METAR LIRA 111215Z 05001KT 9999 FEW020 11/04 Q1011=
200912111145 METAR LIRA 111145Z 02003KT 9999 FEW020 10/03 Q1012=
200912111115 METAR LIRA 111115Z 35006KT 300V060 9999 FEW018 09/03 Q1012=
200912111045 METAR LIRA 111045Z 34010KT 300V030 9999 FEW020 09/03 Q1012=
200912111015 METAR LIRA 111015Z 32002KT 9999 FEW020 09/04 Q1012=
200912110945 METAR LIRA 110945Z 34003KT 9999 FEW025 07/02 Q1013=
200912110915 METAR LIRA 110915Z 02003KT 9999 FEW025 05/02 Q1013=
200912110845 METAR LIRA 110845Z 04004KT 340V070 9999 FEW025 05/02 Q1013=
200912110815 METAR LIRA 110815Z 05006KT 010V100 9999 FEW030 03/01 Q1013=
200912110745 METAR LIRA 110745Z 05002KT 9999 FEW030 03/01 Q1013=
200912110715 METAR LIRA 110715Z 06003KT CAVOK 02/00 Q1013=
200912110645 METAR LIRA 110645Z 35003KT CAVOK 02/00 Q1013=
200912110615 METAR LIRA 110615Z 03002KT CAVOK 01/M00 Q1013=
200912110545 METAR LIRA 110545Z 00000KT CAVOK 02/M00 Q1013=
200912110515 METAR LIRA 110515Z 30001KT CAVOK 01/M00 Q1013=
200912110445 METAR LIRA 110445Z 08003KT CAVOK 01/M00 Q1014=
200912110415 METAR LIRA 110415Z 08003KT CAVOK 01/M00 Q1014=
200912110345 METAR LIRA 110345Z 06005KT CAVOK 02/00 Q1015=
200912110315 METAR LIRA 110315Z 04004KT CAVOK 02/00 Q1015=
200912110245 METAR LIRA 110245Z 09002KT CAVOK 02/00 Q1015=
200912110215 METAR LIRA 110215Z 36004KT CAVOK 03/00 Q1016=
200912110145 METAR LIRA 110145Z 31005KT CAVOK 04/01 Q1016=
200912110115 METAR LIRA 110115Z 05005KT CAVOK 04/01 Q1016=
200912110045 METAR LIRA 110045Z 03002KT CAVOK 04/01 Q1016=
200912110015 METAR LIRA 110015Z 04004KT CAVOK 04/01 Q1016=
200912102350 METAR LIRA 110045Z 03002KT CAVOK 04/01 Q1016=
200912102345 METAR LIRA 102345Z 03003KT CAVOK 05/01 Q1017=
200912102315 METAR LIRA 102315Z 36003KT CAVOK 05/01 Q1017=
200912102245 METAR LIRA 102245Z 07003KT CAVOK 04/00 Q1017=
200912102215 METAR LIRA 102215Z 07003KT CAVOK 05/00 Q1017=
200912102145 METAR LIRA 102145Z 05004KT CAVOK 06/01 Q1017=
200912102115 METAR LIRA 102115Z 04005KT 360V090 CAVOK 06/01 Q1017=
200912102045 METAR LIRA 102045Z 08002KT CAVOK 06/01 Q1017=
200912102015 METAR LIRA 102015Z 10005KT CAVOK 06/01 Q1017=
200912101945 METAR LIRA 101945Z 04005KT 350V080 CAVOK 07/01 Q1018=
200912101915 METAR LIRA 101915Z 35001KT CAVOK 08/01 Q1018=
200912101845 METAR LIRA 101845Z 05001KT CAVOK 08/01 Q1018=
200912101815 METAR LIRA 101815Z 07003KT CAVOK 08/00 Q1018=
200912101745 METAR LIRA 101745Z 05004KT CAVOK 09/01 Q1018=
200912101715 METAR LIRA 101715Z 09004KT CAVOK 09/01 Q1018=
200912101645 METAR LIRA 101645Z 10002KT CAVOK 10/01 Q1018=
200912101615 METAR LIRA 101615Z 00000KT CAVOK 10/01 Q1018=
200912101545 METAR LIRA 101545Z 35003KT CAVOK 11/02 Q1018=
200912101515 METAR LIRA 101515Z 34005KT CAVOK 12/02 Q1019=
200912101445 METAR LIRA 101445Z 35007KT 290V040 CAVOK 13/02 Q1019=
200912101415 METAR LIRA 101415Z 35005KT 310V050 CAVOK 13/02 Q1019=
200912101345 METAR LIRA 101345Z 35007KT 300V040 CAVOK 13/02 Q1019=
200912101315 METAR LIRA 101315Z 35009KT 300V090 CAVOK 13/01 Q1019=
200912101245 METAR LIRA 101245Z 01005KT 300V070 CAVOK 13/02 Q1019=
200912101215 METAR LIRA 101215Z 35009KT 300V050 CAVOK 13/02 Q1019=
200912101145 METAR LIRA 101145Z 02010KT 310V070 CAVOK 13/03 Q1019=
200912101115 METAR LIRA 101115Z 02009KT 310V080 CAVOK 12/03 Q1020=
200912101045 METAR LIRA 101045Z 03005KT 350V090 CAVOK 11/03 Q1020=
200912101015 METAR LIRA 101015Z 04008KT 350V070 CAVOK 11/03 Q1020=
200912100945 METAR LIRA 100945Z 03007KT 010V100 CAVOK 10/03 Q1020=
200912100915 METAR LIRA 100915Z 01007KT 330V080 CAVOK 09/03 Q1020=
200912100845 METAR LIRA 100845Z 36004KT CAVOK 08/03 Q1020=
200912100815 METAR LIRA 100815Z 05004KT CAVOK 08/03 Q1020=
200912100745 METAR LIRA 100745Z 03003KT CAVOK 07/03 Q1019=
200912100715 METAR LIRA 100715Z 08003KT CAVOK 05/01 Q1019=
200912100645 METAR LIRA 100645Z 10003KT CAVOK 05/01 Q1019=
200912100615 METAR LIRA 100615Z 10003KT CAVOK 04/01 Q1019=
200912100545 METAR LIRA 100545Z 11002KT CAVOK 04/01 Q1019=
200912100515 METAR LIRA 100515Z 04001KT CAVOK 04/01 Q1019=
200912100445 METAR LIRA 100445Z 08003KT CAVOK 03/01 Q1019=
200912100415 METAR LIRA 100415Z 08004KT CAVOK 04/01 Q1019=
200912100345 METAR LIRA 100345Z 11004KT CAVOK 04/01 Q1019=
200912100315 METAR LIRA 100315Z 04006KT CAVOK 05/01 Q1019=
200912100245 METAR LIRA 100245Z 03003KT CAVOK 05/00 Q1019=
200912100215 METAR LIRA 100215Z 03003KT CAVOK 05/00 Q1019=
200912100145 METAR LIRA 100145Z 02003KT CAVOK 05/00 Q1019=
200912100115 METAR LIRA 100115Z 04004KT CAVOK 05/00 Q1019=
200912100045 METAR LIRA 100045Z 05003KT CAVOK 06/01 Q1019=
200912100015 METAR LIRA 100015Z 03005KT CAVOK 06/01 Q1019=
200912092350 METAR LIRA 100045Z 05003KT CAVOK 06/01 Q1019=
200912092345 METAR LIRA 092345Z 03005KT CAVOK 06/00 Q1019=
200912092315 METAR LIRA 092315Z 03003KT CAVOK 06/M00 Q1019=
200912092245 METAR LIRA 092245Z 36003KT 330V050 CAVOK 06/M01 Q1019=
200912092215 METAR LIRA 092215Z 02006KT 330V060 CAVOK 06/M01 Q1019=
200912092145 METAR LIRA 092145Z 04005KT CAVOK 06/M02 Q1018=
200912092115 METAR LIRA 092115Z 05004KT CAVOK 07/M01 Q1018=
200912092045 METAR LIRA 092045Z 04006KT 330V070 CAVOK 08/M01 Q1018=
200912092015 METAR LIRA 092015Z 03004KT CAVOK 07/M02 Q1018=
200912091945 METAR LIRA 091945Z 08003KT CAVOK 07/M02 Q1018=
200912091915 METAR LIRA 091915Z 05001KT CAVOK 08/M02 Q1017=
200912091845 METAR LIRA 091845Z 33007KT 290V360 CAVOK 09/M02 Q1017=
200912091815 METAR LIRA 091815Z 32007KT CAVOK 09/M03 Q1017=
200912091745 METAR LIRA 091745Z 31007KT 270V020 9999 FEW070 10/M02 Q1017=
200912091715 METAR LIRA 091715Z 34014KT 290V020 9999 FEW070 10/M02 Q1016=
200912091645 METAR LIRA 091645Z 33011KT 300V010 9999 FEW018 10/M01 Q1016=
200912091615 METAR LIRA 091615Z 35011KT 310V020 9999 FEW018 10/M01 Q1016=
200912091545 METAR LIRA 091545Z 33010KT 290V010 9999 FEW018 11/M00 Q1016=
200912091515 METAR LIRA 091515Z 33015KT 290V010 9999 FEW018 12/00 Q1016=
200912091445 METAR LIRA 091445Z 34012KT 290V020 9999 FEW018 12/02 Q1016=
200912091415 METAR LIRA 091415Z 33013KT 300V010 9999 FEW018 12/02 Q1015=
200912091345 METAR LIRA 091345Z 34014KT 330V020 9999 FEW018 13/02 Q1016=
200912091315 METAR LIRA 091315Z 34012KT 300V010 9999 FEW018 13/02 Q1016=
200912091245 METAR LIRA 091245Z 33013KT 270V020 9999 FEW018 13/02 Q1016=
200912091215 METAR LIRA 091215Z 35010KT 290V030 9999 FEW018 12/03 Q1016=
200912091145 METAR LIRA 091145Z 35011KT 300V040 9999 FEW018 12/02 Q1016=
200912091115 METAR LIRA 091115Z 36010KT 310V140 9999 FEW018 11/03 Q1016=
200912091045 METAR LIRA 091045Z 03006KT 330V070 CAVOK 11/04 Q1016=
200912091015 METAR LIRA 091015Z 03007KT 330V070 CAVOK 10/04 Q1016=
200912090945 METAR LIRA 090945Z 34005KT 310V070 CAVOK 09/04 Q1016=
200912090915 METAR LIRA 090915Z 01006KT 310V060 CAVOK 08/04 Q1016=
200912090845 METAR LIRA 090845Z 03006KT 330V080 CAVOK 08/03 Q1015=
200912090815 METAR LIRA 090815Z 03006KT CAVOK 06/03 Q1015=
200912090745 METAR LIRA 090745Z 03004KT CAVOK 06/03 Q1015=
200912090715 METAR LIRA 090715Z 04005KT 010V080 CAVOK 05/02 Q1014=
200912090645 METAR LIRA 090645Z 05005KT 360V070 CAVOK 05/01 Q1014=
200912090615 METAR LIRA 090615Z 02005KT CAVOK 05/02 Q1014=
200912090545 METAR LIRA 090545Z 02005KT 340V060 CAVOK 06/03 Q1014=
200912090515 METAR LIRA 090515Z 02006KT 310V060 CAVOK 07/06 Q1013=
200912090445 METAR LIRA 090445Z 02006KT 330V070 CAVOK 07/06 Q1013=
200912090415 METAR LIRA 090415Z 01004KT 7000 SKC 08/07 Q1013=
200912090345 METAR LIRA 090345Z 01002KT 5000 BR SKC 08/07 Q1013=
200912090315 METAR LIRA 090315Z 35002KT 3000 BR FEW070 09/08 Q1013=
200912090245 METAR LIRA 090245Z 00000KT 0700 0300S R15//// FG FEW070 09/08
                        Q1013=
200912090215 METAR LIRA 090215Z 00000KT 0600 0200S R15//// FG SCT070 08/08
                        Q1013=
200912090145 METAR LIRA 090145Z 03001KT 0500 0200S R15//// FG SCT070 08/08
                        Q1013=
200912090115 METAR LIRA 090115Z 10002KT 3000 BR FEW070 08/07 Q1013=
200912090045 METAR LIRA 090045Z 09001KT 3000 BR FEW070 08/07 Q1013=
200912090015 METAR LIRA 090015Z 07002KT 5000 BR FEW070 08/07 Q1013=
200912082350 METAR LIRA 090045Z 09001KT 3000 BR FEW070 08/07 Q1013=
200912082345 METAR LIRA 082345Z 14003KT 8000 FEW017 SCT070 08/07 Q1013=
200912082315 METAR LIRA 082315Z 12003KT 8000 FEW017 SCT070 08/07 Q1013=
200912082245 METAR LIRA 082245Z 15003KT 8000 FEW017 SCT070 08/07 Q1013=
200912082215 METAR LIRA 082215Z 14002KT 8000 FEW017 SCT070 08/08 Q1013=
200912082145 METAR LIRA 082145Z 32004KT 8000 FEW017 SCT070 09/08 Q1013=
200912082115 METAR LIRA 082115Z 14002KT 9000 FEW070 09/09 Q1012=
200912082045 METAR LIRA 082045Z 13003KT 9000 FEW070 09/09 Q1012=
200912082015 METAR LIRA 082015Z 10004KT 9000 FEW070 10/09 Q1012=
200912081945 METAR LIRA 081945Z 11003KT 9000 FEW015 SCT070 10/09 Q1013=
200912081915 METAR LIRA 081915Z 13003KT 9000 FEW016 SCT070 10/09 Q1012=
200912081845 METAR LIRA 081845Z 13003KT 9000 FEW015 SCT070 10/09 Q1012=
200912081815 METAR LIRA 081815Z 14006KT 8000 FEW014 SCT070 11/09 Q1012=
200912081745 METAR LIRA 081745Z 16005KT 8000 FEW014 SCT070 12/10 Q1012=
200912081715 METAR LIRA 081715Z 18006KT 130V230 8000 SCT010 SCT028 13/11
                        Q1012=
200912081645 METAR LIRA 081645Z 19008KT 150V210 8000 SCT010 SCT028 13/11
                        Q1012=
200912081615 METAR LIRA 081615Z 18006KT 150V220 8000 SCT008 FEW012TCU
                        BKN028 13/11 Q1013=
200912081545 METAR LIRA 081545Z 15005KT 8000 SCT008 FEW012TCU BKN028 13/11
                        Q1013=
200912081515 METAR LIRA 081515Z 16008KT 8000 FEW010 SCT028 BKN070 13/11
                        Q1013=
200912081445 METAR LIRA 081445Z 17009KT 8000 FEW010 SCT028 BKN070 13/12
                        Q1013=
200912081415 METAR LIRA 081415Z 17008KT 8000 -RA FEW010 SCT028 BKN070
                        14/12 Q1013=
200912081345 METAR LIRA 081345Z 18008KT 140V220 8000 -RA SCT010 FEW017TCU
                        BKN028 14/12 Q1013=
200912081315 METAR LIRA 081315Z 19008KT 8000 -RA SCT010 FEW017TCU BKN028
                        14/11 Q1013=
200912081245 METAR LIRA 081245Z 19007KT 9999 SCT008 FEW017TCU BKN028 13/11
                        Q1013=
200912081215 METAR LIRA 081215Z 18005KT 9999 SCT008 FEW017TCU BKN028 13/11
                        Q1014=
200912081145 METAR LIRA 081145Z 18005KT 130V210 8000 -RA SCT006 FEW015TCU
                        BKN025 13/11 Q1014=
200912081115 METAR LIRA 081115Z 17010KT 8000 -RA SCT006 FEW015TCU BKN025
                        13/11 Q1014=
200912081045 METAR LIRA 081045Z 16009KT 6000 -RA SCT004 SCT015TCU BKN025
                        13/11 Q1015=
200912081015 METAR LIRA 081015Z 15010KT 120V200 6000 -RA SCT004 FEW015TCU
                        BKN025 13/11 Q1015=
200912080945 METAR LIRA 080945Z 17011KT 120V200 9999 SCT010 FEW017TCU
                        BKN025 14/11 Q1015=
200912080915 METAR LIRA 080915Z 16012KT 9999 FEW015 SCT025 14/10 Q1015=
200912080845 METAR LIRA 080845Z 15013KT 9999 FEW015 SCT025 14/11 Q1016=
200912080815 METAR LIRA 080815Z 15011KT 9999 FEW015 SCT025 13/11 Q1016=
200912080745 METAR LIRA 080745Z 16010KT 120V180 9999 FEW015 SCT025 13/11
                        Q1015=
200912080715 METAR LIRA 080715Z 15011KT 9999 FEW015 SCT025 13/10 Q1016=
200912080645 METAR LIRA 080645Z 15009KT 9999 FEW015 SCT025 13/11 Q1016=
200912080615 METAR LIRA 080615Z 16007KT 9999 FEW015 SCT025 13/10 Q1016=
200912080545 METAR LIRA 080545Z 16007KT 9999 FEW015 SCT025 13/10 Q1016=
200912080515 METAR LIRA 080515Z 15009KT 9999 FEW015 SCT025 13/10 Q1016=
200912080445 METAR LIRA 080445Z 15009KT 9999 SCT030 SCT070 12/09 Q1016=
200912080415 METAR LIRA 080415Z 16007KT 9999 SCT025 SCT060 12/09 Q1017=
200912080345 METAR LIRA 080345Z 15009KT 9999 FEW017 SCT060 12/10 Q1017=
200912080315 METAR LIRA 080315Z 15008KT 9999 FEW017 SCT060 12/10 Q1017=
200912080245 METAR LIRA 080245Z 14009KT 9999 FEW017 SCT070 12/10 Q1017=
200912080215 METAR LIRA 080215Z 16008KT 9999 FEW016 SCT060 13/10 Q1018=
200912080145 METAR LIRA 080145Z 16009KT 9999 FEW016 SCT060 12/09 Q1018=
200912080115 METAR LIRA 080115Z 15009KT 9999 FEW016 SCT060 12/09 Q1018=
200912080045 METAR LIRA 080045Z 15008KT 9999 FEW016 SCT060 12/09 Q1018=
200912080015 METAR LIRA 080015Z 15008KT 9999 FEW016 SCT060 12/09 Q1018=
200912072350 METAR LIRA 080045Z 15008KT 9999 FEW016 SCT060 12/09 Q1018=
200912072345 METAR LIRA 072345Z 17006KT 9999 FEW016 SCT060 12/09 Q1018=
200912072315 METAR LIRA 072315Z 14004KT 9999 FEW016 SCT060 12/09 Q1018=
200912072245 METAR LIRA 072245Z 13004KT 9999 FEW016 SCT060 12/09 Q1019=
200912072215 METAR LIRA 072215Z 14007KT 9999 FEW016 SCT060 12/10 Q1019=
200912072145 METAR LIRA 072145Z 16004KT 9999 FEW010 SCT060 11/09 Q1019=
200912072115 METAR LIRA 072115Z 14006KT 9999 FEW010 SCT060 10/08 Q1019=
200912072045 METAR LIRA 072045Z 13006KT 9999 FEW010 SCT060 11/08 Q1019=
200912072015 METAR LIRA 072015Z 13007KT 090V160 9999 FEW010 SCT060 11/08
                        Q1019=
200912071945 METAR LIRA 071945Z 13007KT 9999 FEW010 SCT070 10/09 Q1019=
200912071915 METAR LIRA 071915Z 13006KT 9999 FEW070 10/08 Q1019=
200912071845 METAR LIRA 071845Z 14006KT 9999 FEW010 10/08 Q1019=
200912071815 METAR LIRA 071815Z 15007KT 9999 FEW010 10/09 Q1019=
200912071745 METAR LIRA 071745Z 15005KT 9999 FEW010 10/08 Q1019=
200912071715 METAR LIRA 071715Z 15005KT 9999 FEW080 10/08 Q1019=
200912071645 METAR LIRA 071645Z 14004KT 9000 FEW020 10/08 Q1019=
200912071615 METAR LIRA 071615Z 17001KT 9000 FEW020 12/09 Q1019=
200912071545 METAR LIRA 071545Z 18002KT 9000 FEW020 SCT070 14/10 Q1019=
200912071515 METAR LIRA 071515Z 17003KT 9000 FEW020 SCT070 14/10 Q1019=
200912071445 METAR LIRA 071445Z 16002KT 9000 FEW020 BKN070 13/10 Q1020=
200912071415 METAR LIRA 071415Z 17004KT 8000 FEW020 SCT030 BKN070 14/10
                        Q1020=
200912071345 METAR LIRA 071345Z 18002KT 7000 FEW020 SCT030 BKN070 14/10
                        Q1020=
200912071315 METAR LIRA 071315Z 17003KT 8000 FEW020 SCT030 BKN070 14/10
                        Q1020=
200912071245 METAR LIRA 071245Z 00000KT 7000 FEW020 SCT030 BKN070 14/10
                        Q1020=
200912071215 METAR LIRA 071215Z 01001KT 7000 FEW040 BKN070 13/09 Q1020=
200912071145 METAR LIRA 071145Z 03002KT 8000 FEW040 BKN070 13/09 Q1020=
200912071115 METAR LIRA 071115Z 02002KT 7000 FEW040 BKN070 12/10 Q1020=
200912071045 METAR LIRA 071045Z 01002KT 7000 FEW040 BKN080 12/10 Q1020=
200912071015 METAR LIRA 071015Z 33002KT 8000 FEW040 BKN070 11/10 Q1021=
200912070945 METAR LIRA 070945Z 34002KT 8000 FEW040 BKN070 10/09 Q1021=
200912070915 METAR LIRA 070915Z 34002KT 8000 FEW040 BKN080 08/08 Q1021=
200912070845 METAR LIRA 070845Z 04001KT 8000 SCT035 BKN070 08/07 Q1020=
200912070815 METAR LIRA 070815Z 01002KT 7000 SCT040 BKN070 07/06 Q1020=
200912070745 METAR LIRA 070745Z 34002KT 7000 SCT040 BKN070 07/06 Q1020=
200912070715 METAR LIRA 070715Z 05002KT 7000 SCT040 BKN070 06/05 Q1020=
200912070645 METAR LIRA 070645Z 04002KT 8000 FEW040 BKN070 06/05 Q1020=
200912070615 METAR LIRA 070615Z 30004KT 9999 FEW040 SCT070 06/05 Q1019=
200912070545 METAR LIRA 070545Z 07003KT 9999 SCT070 SCT200 05/04 Q1019=
200912070515 METAR LIRA 070515Z 03003KT 9999 FEW070 SCT200 05/04 Q1019=
200912070445 METAR LIRA 070445Z 04004KT 9999 FEW020 05/04 Q1020=
200912070415 METAR LIRA 070415Z 00000KT 9999 FEW020 SCT080 05/04 Q1020=
200912070345 METAR LIRA 070345Z 01001KT 9999 FEW025 SCT080 05/04 Q1020=
200912070315 METAR LIRA 070315Z VRB01KT 8000 FEW020 05/04 Q1020=
200912070245 METAR LIRA 070245Z 07001KT 8000 FEW010 05/05 Q1019=
200912070215 METAR LIRA 070215Z 05003KT 7000 FEW008 06/05 Q1020=
200912070145 METAR LIRA 070145Z 00000KT 7000 FEW008 06/05 Q1020=
200912070115 METAR LIRA 070115Z 00000KT 8000 FEW008 06/05 Q1020=
200912070045 METAR LIRA 070045Z 02002KT 9999 FEW080 06/05 Q1019=
200912070015 METAR LIRA 070015Z 01002KT 9999 FEW080 07/06 Q1019=
200912062350 METAR LIRA 070045Z 02002KT 9999 FEW080 06/05 Q1019=
200912062345 METAR LIRA 062345Z 01002KT 9999 FEW080 07/06 Q1019=
200912062315 METAR LIRA 062315Z 02001KT CAVOK 08/07 Q1019=
200912062245 METAR LIRA 062245Z 00000KT CAVOK 09/07 Q1019=
200912062215 METAR LIRA 062215Z 10002KT CAVOK 08/07 Q1019=
200912062145 METAR LIRA 062145Z 09003KT CAVOK 08/07 Q1019=
200912062115 METAR LIRA 062115Z 10004KT CAVOK 08/07 Q1019=
200912062045 METAR LIRA 062045Z 11002KT CAVOK 07/06 Q1019=
200912062015 METAR LIRA 062015Z 12002KT CAVOK 07/06 Q1019=
200912061945 METAR LIRA 061945Z 12002KT CAVOK 08/06 Q1019=
200912061915 METAR LIRA 061915Z 11002KT CAVOK 08/07 Q1019=
200912061845 METAR LIRA 061845Z 00000KT 9999 FEW030 SCT070 08/07 Q1019=
200912061815 METAR LIRA 061815Z 00000KT 9999 FEW070 09/07 Q1019=
200912061745 METAR LIRA 061745Z 12001KT 9999 FEW070 09/07 Q1019=
200912061715 METAR LIRA 061715Z 12001KT CAVOK 09/07 Q1019=
200912061645 METAR LIRA 061645Z 00000KT 9999 FEW080 10/07 Q1018=
200912061615 METAR LIRA 061615Z 00000KT 9999 FEW080 10/07 Q1018=
200912061545 METAR LIRA 061545Z 35001KT CAVOK 11/07 Q1018=
200912061515 METAR LIRA 061515Z 02002KT CAVOK 12/07 Q1018=
200912061445 METAR LIRA 061445Z 02002KT CAVOK 12/07 Q1018=
200912061415 METAR LIRA 061415Z 36003KT 9999 FEW080 12/07 Q1018=
200912061345 METAR LIRA 061345Z 05002KT 9999 FEW080 12/07 Q1018=
200912061315 METAR LIRA 061315Z 36001KT 9999 FEW018 SCT080 12/07 Q1018=
200912061245 METAR LIRA 061245Z 34003KT 9999 FEW020 SCT080 12/08 Q1018=
200912061215 METAR LIRA 061215Z 32004KT 9999 FEW020 BKN080 12/08 Q1018=
200912061145 METAR LIRA 061145Z 34001KT 9999 FEW020 11/08 Q1018=
200912061115 METAR LIRA 061115Z 02002KT 9999 FEW020 11/07 Q1018=
200912061045 METAR LIRA 061045Z 02002KT 9999 FEW020 10/08 Q1018=
200912061015 METAR LIRA 061015Z 00000KT 9999 FEW020 09/07 Q1018=
200912060945 METAR LIRA 060945Z 34001KT 9999 FEW030 08/07 Q1018=
200912060915 METAR LIRA 060915Z 02001KT 9999 SCT080 07/06 Q1018=
200912060845 METAR LIRA 060845Z 04003KT 9999 SCT080 06/05 Q1018=
200912060815 METAR LIRA 060815Z 01003KT 8000 SCT080 06/05 Q1018=
200912060745 METAR LIRA 060745Z 03002KT 8000 FEW026 SCT080 05/04 Q1017=
200912060715 METAR LIRA 060715Z 03002KT 8000 FEW026 SCT080 05/04 Q1017=
200912060645 METAR LIRA 060645Z 35002KT 8000 FEW026 SCT080 05/04 Q1017=
200912060615 METAR LIRA 060615Z 07002KT 9000 SCT030 05/04 Q1017=
200912060545 METAR LIRA 060545Z 06004KT 9000 SCT030 05/04 Q1017=
200912060515 METAR LIRA 060515Z 06002KT 9000 SCT030 05/04 Q1017=
200912060445 METAR LIRA 060445Z 06003KT 9000 SCT030 05/04 Q1017=
200912060415 METAR LIRA 060415Z VRB01KT 8000 SCT030 05/04 Q1017=
200912060345 METAR LIRA 060345Z VRB01KT 8000 SCT030 05/04 Q1017=
200912060315 METAR LIRA 060315Z 31003KT 8000 FEW030 05/04 Q1016=
200912060245 METAR LIRA 060245Z 06003KT 8000 FEW080 05/04 Q1016=
200912060215 METAR LIRA 060215Z 07003KT 6000 NSC 05/04 Q1016=
200912060145 METAR LIRA 060145Z 04003KT 6000 MIFG FEW003 05/04 Q1016=
200912060115 METAR LIRA 060115Z 06002KT 6000 MIFG FEW003 05/04 Q1016=
200912060045 METAR LIRA 060045Z 32003KT CAVOK 05/05 Q1016=
200912060015 METAR LIRA 060015Z 07002KT CAVOK 05/05 Q1016=
200912052350 METAR LIRA 060045Z 32003KT CAVOK 05/05 Q1016=
200912052345 METAR LIRA 052345Z 03002KT CAVOK 06/05 Q1016=
200912052315 METAR LIRA 052315Z 03003KT 9999 FEW060 06/05 Q1017=
200912052245 METAR LIRA 052245Z 06004KT 9999 FEW060 07/06 Q1017=
200912052215 METAR LIRA 052215Z 04004KT CAVOK 07/06 Q1016=
200912052145 METAR LIRA 052145Z 05002KT CAVOK 07/06 Q1016=
200912052115 METAR LIRA 052115Z 31001KT CAVOK 07/06 Q1015=
200912052045 METAR LIRA 052045Z 03002KT CAVOK 07/06 Q1015=
200912052015 METAR LIRA 052015Z 06002KT CAVOK 08/07 Q1015=
200912051945 METAR LIRA 051945Z 05003KT CAVOK 08/07 Q1015=
200912051915 METAR LIRA 051915Z 02004KT CAVOK 08/07 Q1014=
200912051845 METAR LIRA 051845Z 36002KT CAVOK 08/07 Q1014=
200912051815 METAR LIRA 051815Z 05004KT CAVOK 09/07 Q1014=
200912051745 METAR LIRA 051745Z 05005KT CAVOK 09/07 Q1014=
200912051715 METAR LIRA 051715Z 03003KT CAVOK 10/08 Q1014=
200912051645 METAR LIRA 051645Z 01004KT CAVOK 10/07 Q1013=
200912051615 METAR LIRA 051615Z 33002KT CAVOK 11/08 Q1012=
200912051545 METAR LIRA 051545Z 01002KT CAVOK 12/08 Q1012=
200912051515 METAR LIRA 051515Z 01001KT CAVOK 13/09 Q1012=
200912051445 METAR LIRA 051445Z 06003KT CAVOK 13/09 Q1011=
200912051415 METAR LIRA 051415Z 06003KT CAVOK 13/09 Q1011=
200912051345 METAR LIRA 051345Z 04002KT CAVOK 13/09 Q1011=
200912051315 METAR LIRA 051315Z 03003KT CAVOK 13/08 Q1011=
200912051245 METAR LIRA 051245Z 34004KT 320V050 CAVOK 13/08 Q1011=
200912051215 METAR LIRA 051215Z 02005KT 330V080 CAVOK 12/08 Q1010=
200912051145 METAR LIRA 051145Z 04005KT 330V080 CAVOK 12/08 Q1010=
200912051115 METAR LIRA 051115Z 05006KT 340V080 CAVOK 11/08 Q1010=
200912051045 METAR LIRA 051045Z 01003KT 330V080 CAVOK 10/07 Q1010=
200912051015 METAR LIRA 051015Z 03006KT 300V080 CAVOK 10/07 Q1010=
200912050945 METAR LIRA 050945Z 04005KT 330V080 CAVOK 09/06 Q1010=
200912050915 METAR LIRA 050915Z 02004KT 330V080 CAVOK 08/05 Q1009=
200912050845 METAR LIRA 050845Z 03008KT 350V080 CAVOK 07/05 Q1009=
200912050815 METAR LIRA 050815Z 02005KT 300V070 CAVOK 07/05 Q1008=
200912050745 METAR LIRA 050745Z 03007KT 340V090 CAVOK 06/05 Q1007=
200912050715 METAR LIRA 050715Z 04004KT 9999 FEW080 05/04 Q1007=
200912050645 METAR LIRA 050645Z 03005KT 320V090 9999 FEW080 05/04 Q1007=
200912050615 METAR LIRA 050615Z 04007KT 350V080 9999 FEW060 05/04 Q1006=
200912050545 METAR LIRA 050545Z 04007KT 350V080 9999 FEW060 05/04 Q1006=
200912050515 METAR LIRA 050515Z 04006KT 360V090 CAVOK 05/04 Q1005=
200912050445 METAR LIRA 050445Z 02004KT CAVOK 05/04 Q1005=
200912050415 METAR LIRA 050415Z 03006KT 9999 FEW030 05/05 Q1004=
200912042345 METAR LIRA 042345Z 04007KT 320V070 9999 FEW015 SCT025 09/07
                        Q1001=
200912042315 METAR LIRA 042315Z 05004KT 9999 FEW017 SCT025 09/07 Q1000=
200912042245 METAR LIRA 042245Z 06004KT 9999 FEW017 SCT025 09/07 Q1000=
200912042215 METAR LIRA 042215Z 14004KT 080V160 9999 SCT017 SCT025 09/06
                        Q1000=
200912042145 METAR LIRA 042145Z 10007KT 9999 FEW017 SCT025 09/07 Q0999=
200912042115 METAR LIRA 042115Z 11007KT 9999 FEW017 SCT070 08/07 Q0999=
200912042045 METAR LIRA 042045Z 13007KT 9999 FEW017 SCT060 09/08 Q0998=
200912042015 METAR LIRA 042015Z 14009KT 9999 FEW017 SCT060 09/08 Q0998=
200912041945 METAR LIRA 041945Z 15008KT 6000 -RA SCT017 FEW020TCU SCT060
                        09/08 Q0998=
200912041915 METAR LIRA 041915Z 13007KT 9999 SCT017 FEW020TCU 09/07 Q0998=
200912041845 METAR LIRA 041845Z 16007KT 110V180 9999 -DZ FEW008 FEW016TCU
                        SCT018 10/08 Q0998 RERA=
200912041815 METAR LIRA 041815Z 13011KT 100V210 8000 -DZ SCT006 FEW016TCU
                        SCT018 09/08 Q0998 RERA=
200912041745 METAR LIRA 041745Z 15007KT 110V190 9999 -DZ FEW008 BKN015
                        FEW017TCU 10/08 Q0998=
200912041715 METAR LIRA 041715Z 15010KT 9999 -DZ FEW008 BKN015 FEW017TCU
                        10/08 Q0998=
200912041645 METAR LIRA 041645Z 17008KT 150V220 9999 BKN015 FEW017TCU
                        11/08 Q0998=
200912041615 METAR LIRA 041615Z 14009KT 9999 BKN015 FEW017TCU 11/09 Q0998=
200912041545 METAR LIRA 041545Z 17009KT 9999 BKN015 FEW017TCU SCT025 11/08
                        Q0999=
200912041515 METAR LIRA 041515Z 16005KT 100V180 9999 SCT015 FEW017TCU
                        SCT025 11/07 Q0999=
200912041445 METAR LIRA 041445Z 09005KT 9999 SCT015 FEW017TCU SCT025 11/08
                        Q1000=
200912041415 METAR LIRA 041415Z 08004KT 050V120 9999 SCT015 FEW017TCU
                        11/09 Q1000=
200912041345 METAR LIRA 041345Z 09007KT 030V120 9999 FEW015 FEW017TCU
                        11/09 Q1000=
200912041315 METAR LIRA 041315Z 08009KT 020V090 9999 FEW013 FEW017TCU
                        SCT025 11/09 Q1000=
200912041245 METAR LIRA 041245Z 03005KT 350V080 9999 SCT013 FEW017CB 11/09
                        Q1000=
200912041215 METAR LIRA 041215Z 35005KT 280V010 9999 -RA SCT013 FEW017CB
                        BKN025 11/09 Q1000=
200912041145 METAR LIRA 041145Z 16005KT 110V180 6000 -RA SCT013 FEW017CB
                        BKN025 13/11 Q1000=
200912041115 METAR LIRA 041115Z 15006KT 110V180 9999 SCT013 SCT025 13/11
                        Q1000=
200912041045 METAR LIRA 041045Z 16005KT 9999 SCT013 SCT025 13/12 Q1001=
200912041015 METAR LIRA 041015Z 16006KT 100V190 9999 SCT013 FEW017TCU
                        SCT025 13/12 Q1001=
200912040945 METAR LIRA 040945Z 19009KT 150V240 5000 -RA BR SCT013 FEW017TCU
                        SCT025 13/11 Q1001=
200912040915 METAR LIRA 040915Z 15006KT 110V170 7000 -RA SCT015 FEW017TCU
                        SCT025 13/12 Q1001=
200912040845 METAR LIRA 040845Z 16006KT 120V180 9999 SCT015 SCT025 12/11
                        Q1001=
200912040815 METAR LIRA 040815Z 17004KT 9999 SCT015 SCT025 12/11 Q1001=
200912040745 METAR LIRA 040745Z 16006KT 100V190 9999 FEW015 SCT025 12/11
                        Q1001=
200912040715 METAR LIRA 040715Z 17007KT 130V200 9999 SCT015 SCT025 12/10
                        Q1001=
200912040645 METAR LIRA 040645Z 16011KT 9999 SCT015 SCT025 11/10 Q1001=
200912040615 METAR LIRA 040615Z 15015KT 120V180 9999 -RA FEW015 SCT025
                        BKN070 11/10 Q1001=
200912040545 METAR LIRA 040545Z 13013KT 8000 -RA FEW008 SCT025 BKN070
                        11/10 Q1001=
200912040515 METAR LIRA 040515Z 13017KT 100V160 8000 -RA FEW008 SCT025
                        BKN060 11/09 Q1001=
200912040445 METAR LIRA 040445Z 13013KT 9999 -RA SCT025 BKN070 11/09 Q1002=
200912040415 METAR LIRA 040415Z 13014KT 9999 -RA SCT025 BKN070 11/09 Q1002=
200912040345 METAR LIRA 040345Z 14016G27KT 9999 -RA SCT025 BKN070 11/08
                        Q1003=
200912040315 METAR LIRA 040315Z 13016KT 070V160 9999 -RA SCT025 BKN070
                        10/08 Q1003=
200912040245 METAR LIRA 040245Z 12016G28KT 080V170 9999 -RA SCT025 BKN070
                        10/07 Q1004=
200912040215 METAR LIRA 040215Z 13019KT 9999 -RA SCT030 BKN070 10/07 Q1004=
200912040145 METAR LIRA 040145Z 13013KT 090V180 9999 -RA SCT030 BKN070
                        11/07 Q1005=
200912040115 METAR LIRA 040115Z 13012KT 100V170 9999 SCT030 BKN070 11/07
                        Q1005=
200912040045 METAR LIRA 040045Z 13013KT 080V170 9999 -DZ SCT030 BKN070
                        12/08 Q1006=
200912040015 METAR LIRA 040015Z 12014KT 090V160 9999 SCT030 BKN070 11/06
                        Q1007=
200912032350 METAR LIRA 040045Z 13013KT 080V170 9999 -DZ SCT030 BKN070
                        12/08 Q1006=
200912032345 METAR LIRA 032345Z 12013KT 080V150 9999 FEW030 BKN070 11/06
                        Q1007=
200912032315 METAR LIRA 032315Z 12009KT 090V150 9999 FEW030 BKN070 11/06
                        Q1008=
200912032245 METAR LIRA 032245Z 09008KT 060V130 9999 FEW030 BKN070 10/05
                        Q1008=
200912032215 METAR LIRA 032215Z 12009KT 9999 BKN070 SCT200 11/06 Q1009=
200912032145 METAR LIRA 032145Z 07004KT 9999 BKN070 SCT200 09/05 Q1009=
200912032115 METAR LIRA 032115Z 06004KT 9999 BKN070 SCT200 08/05 Q1010=
200912032045 METAR LIRA 032045Z 08003KT 9999 BKN070 SCT200 08/05 Q1010=
200912032015 METAR LIRA 032015Z 07004KT 9999 BKN070 07/04 Q1010=
200912031945 METAR LIRA 031945Z 10006KT 9999 SCT070 SCT200 07/04 Q1010=
200912031915 METAR LIRA 031915Z 10008KT 9999 SCT070 07/04 Q1010=
200912031845 METAR LIRA 031845Z 10007KT 9999 SCT070 07/04 Q1011=
200912031815 METAR LIRA 031815Z 10007KT 9999 SCT070 07/04 Q1011=
200912031745 METAR LIRA 031745Z 11006KT 9999 SCT070 07/04 Q1011=
200912031715 METAR LIRA 031715Z 11007KT 9999 FEW070 07/04 Q1011=
200912031645 METAR LIRA 031645Z 01003KT CAVOK 08/05 Q1011=
200912031615 METAR LIRA 031615Z 00000KT CAVOK 09/05 Q1011=
200912031545 METAR LIRA 031545Z 08002KT CAVOK 09/05 Q1011=
200912031515 METAR LIRA 031515Z 06004KT 9999 FEW080 09/05 Q1011=
200912031445 METAR LIRA 031445Z 00000KT 9999 SCT080 11/02 Q1012=
200912031415 METAR LIRA 031415Z 00000KT 9999 SCT080 11/02 Q1012=
200912031345 METAR LIRA 031345Z 23002KT 9999 FEW080 11/03 Q1012=
200912031315 METAR LIRA 031315Z 23002KT CAVOK 11/02 Q1012=
200912031245 METAR LIRA 031245Z 00000KT CAVOK 11/04 Q1012=
200912031215 METAR LIRA 031215Z 26001KT CAVOK 11/04 Q1012=
200912031145 METAR LIRA 031145Z 00000KT CAVOK 10/04 Q1012=
200912031115 METAR LIRA 031115Z 34003KT CAVOK 09/04 Q1013=
200912031045 METAR LIRA 031045Z 02002KT CAVOK 08/03 Q1013=
200912031015 METAR LIRA 031015Z 03003KT CAVOK 07/03 Q1013=
200912030945 METAR LIRA 030945Z 36004KT CAVOK 07/04 Q1013=
200912030915 METAR LIRA 030915Z 04002KT CAVOK 06/03 Q1013=
200912030845 METAR LIRA 030845Z 04004KT CAVOK 05/03 Q1013=
200912030815 METAR LIRA 030815Z 01002KT 8000 NSC 04/03 Q1013=
200912030745 METAR LIRA 030745Z 01003KT 8000 NSC 03/02 Q1013=
200912030715 METAR LIRA 030715Z 04004KT 8000 NSC 02/02 Q1013=
200912030645 METAR LIRA 030645Z 04002KT 7000 NSC 01/01 Q1014=
200912030615 METAR LIRA 030615Z 04003KT 8000 NSC 02/01 Q1014=
200912030545 METAR LIRA 030545Z 04004KT CAVOK 02/01 Q1014=
200912030515 METAR LIRA 030515Z 04004KT CAVOK 02/01 Q1014=
200912030445 METAR LIRA 030445Z 01002KT CAVOK 02/01 Q1014=
200912030415 METAR LIRA 030415Z 05002KT CAVOK 02/01 Q1014=
200912030345 METAR LIRA 030345Z 05003KT CAVOK 02/01 Q1014=
200912030315 METAR LIRA 030315Z 02002KT CAVOK 03/02 Q1014=
200912030245 METAR LIRA 030245Z 36001KT CAVOK 03/02 Q1014=
200912030215 METAR LIRA 030215Z 04003KT CAVOK 03/02 Q1014=
200912030145 METAR LIRA 030145Z 01003KT CAVOK 03/03 Q1014=
200912030115 METAR LIRA 030115Z 05004KT CAVOK 04/03 Q1014=
200912030045 METAR LIRA 030045Z 05004KT CAVOK 04/03 Q1014=
200912030015 METAR LIRA 030015Z 05004KT CAVOK 04/03 Q1014=
200912022350 METAR LIRA 030045Z 05004KT CAVOK 04/03 Q1014=
200912022345 METAR LIRA 022345Z 00000KT CAVOK 05/04 Q1015=
200912022315 METAR LIRA 022315Z 00000KT CAVOK 05/04 Q1015=
200912022245 METAR LIRA 022245Z 00000KT CAVOK 05/04 Q1015=
200912022215 METAR LIRA 022215Z 06003KT CAVOK 05/04 Q1015=
200912022145 METAR LIRA 022145Z 06003KT CAVOK 05/04 Q1015=
200912022115 METAR LIRA 022115Z 07003KT CAVOK 05/04 Q1015=
200912022045 METAR LIRA 022045Z 07002KT CAVOK 06/04 Q1015=
200912022015 METAR LIRA 022015Z 10003KT CAVOK 06/04 Q1015=
200912021945 METAR LIRA 021945Z 10002KT CAVOK 07/05 Q1014=
200912021915 METAR LIRA 021915Z 06002KT CAVOK 07/05 Q1014=
200912021845 METAR LIRA 021845Z 10001KT CAVOK 07/05 Q1014=
200912021815 METAR LIRA 021815Z 06002KT CAVOK 07/05 Q1014=
200912021745 METAR LIRA 021745Z 07003KT CAVOK 08/05 Q1014=
200912021715 METAR LIRA 021715Z 07004KT CAVOK 08/05 Q1013=
200912021645 METAR LIRA 021645Z 04003KT 9999 FEW070 07/03 Q1013=
200912021615 METAR LIRA 021615Z 06005KT 9999 FEW070 08/04 Q1013=
200912021545 METAR LIRA 021545Z 05004KT 9999 FEW070 10/05 Q1013=
200912021515 METAR LIRA 021515Z 36003KT 9999 FEW020 11/05 Q1013=
200912021445 METAR LIRA 021445Z 01004KT 9999 FEW020 11/05 Q1013=
200912021415 METAR LIRA 021415Z 02004KT 9999 FEW022 12/06 Q1013=
200912021345 METAR LIRA 021345Z 01003KT CAVOK 11/05 Q1013=
200912021315 METAR LIRA 021315Z 01005KT CAVOK 11/05 Q1013=
200912021245 METAR LIRA 021245Z 33004KT CAVOK 11/05 Q1013=
200912021215 METAR LIRA 021215Z 35004KT CAVOK 11/05 Q1013=
200912021145 METAR LIRA 021145Z 01004KT CAVOK 11/06 Q1013=
200912021115 METAR LIRA 021115Z 35005KT 310V050 9999 FEW070 10/04 Q1013=
200912021045 METAR LIRA 021045Z 04006KT 320V080 9999 FEW070 10/05 Q1013=
200912021015 METAR LIRA 021015Z 02003KT 9999 FEW070 09/05 Q1013=
200912020945 METAR LIRA 020945Z 01004KT CAVOK 07/04 Q1013=
200912020915 METAR LIRA 020915Z 02004KT 360V090 CAVOK 07/05 Q1013=
200912020845 METAR LIRA 020845Z 05005KT 320V110 CAVOK 07/05 Q1013=
200912020815 METAR LIRA 020815Z 03004KT CAVOK 06/04 Q1013=
200912020745 METAR LIRA 020745Z 36004KT CAVOK 05/04 Q1013=
200912020715 METAR LIRA 020715Z 02002KT 9999 FEW070 05/04 Q1012=
200912020645 METAR LIRA 020645Z 03004KT 340V070 9999 FEW070 04/03 Q1012=
200912020615 METAR LIRA 020615Z 03005KT 9999 FEW070 04/03 Q1012=
200912020545 METAR LIRA 020545Z 05004KT 9999 FEW070 04/03 Q1011=
200912020515 METAR LIRA 020515Z 04005KT 9999 FEW070 04/03 Q1011=
200912020445 METAR LIRA 020445Z 35004KT CAVOK 04/04 Q1011=
200912020415 METAR LIRA 020415Z 01003KT CAVOK 05/04 Q1010=
200912020345 METAR LIRA 020345Z 06004KT 9999 SCT080 04/03 Q1010=
200912020315 METAR LIRA 020315Z 05004KT 9999 FEW030 05/04 Q1010=
200912020245 METAR LIRA 020245Z 03002KT 9999 FEW030 05/04 Q1010=
200912020215 METAR LIRA 020215Z 01003KT 9999 FEW025 06/04 Q1009=
200912020145 METAR LIRA 020145Z 01005KT 310V050 9999 FEW025 06/05 Q1009=
200912020115 METAR LIRA 020115Z 03003KT 9999 FEW025 SCT060 06/05 Q1009=
200912020045 METAR LIRA 020045Z 36003KT 9999 FEW020 07/05 Q1009=
200912020015 METAR LIRA 020015Z 35003KT 9999 FEW020 08/05 Q1008=
200912012350 METAR LIRA 020045Z 36003KT 9999 FEW020 07/05 Q1009=
200912012345 METAR LIRA 012345Z 10009KT 9999 SCT020 08/05 Q1008=
200912012315 METAR LIRA 012315Z 10010KT 9999 FEW020 09/05 Q1008=
200912012245 METAR LIRA 012245Z 11009KT 9999 FEW020 SCT030 09/05 Q1008=
200912012215 METAR LIRA 012215Z 08005KT 9999 SCT030 08/05 Q1008=
200912012145 METAR LIRA 012145Z 10006KT 9999 FEW030 08/05 Q1008=
200912012115 METAR LIRA 012115Z 10009KT 9999 FEW030 08/05 Q1008=
200912012045 METAR LIRA 012045Z 11007KT 9999 FEW030 08/05 Q1008=
200912012015 METAR LIRA 012015Z 10009KT 9999 FEW030 08/05 Q1008=
200912011945 METAR LIRA 011945Z 11006KT 9999 FEW025 08/06 Q1008=
200912011915 METAR LIRA 011915Z 11007KT 9999 FEW030 08/05 Q1007=
200912011845 METAR LIRA 011845Z 10005KT 9999 FEW018TCU 08/06 Q1007=
200912011815 METAR LIRA 011815Z 12007KT 9999 FEW018TCU 09/06 Q1007=
200912011745 METAR LIRA 011745Z 13003KT 9999 FEW018TCU 09/07 Q1007=
200912011715 METAR LIRA 011715Z 09003KT 9999 FEW020 SCT030 09/07 Q1007=
200912011645 METAR LIRA 011645Z 11004KT 9999 SCT018 FEW020CB 10/09 Q1006=
200912011615 METAR LIRA 011615Z 16004KT 9000 -RA SCT015 FEW020CB 10/08
                        Q1006=
200912011545 METAR LIRA 011545Z 23006KT 270V010 7000 -RA SCT015 FEW018CB
                        SCT070 10/08 Q1006=
200912011515 METAR LIRA 011515Z 20004KT 9999 -RA SCT015 FEW018TCU SCT030
                        11/08 Q1005=
200912011445 METAR LIRA 011445Z 15007KT 9999 SCT018 FEW019TCU 12/08 Q1005=
200912011415 METAR LIRA 011415Z 16005KT 9999 SCT018 FEW019TCU 12/08 Q1005=
200912011345 METAR LIRA 011345Z 17006KT 9999 SCT018 FEW019TCU 12/08 Q1005=
200912011315 METAR LIRA 011315Z 16007KT 9999 SCT018 FEW019CB 12/08 Q1005=
200912011245 METAR LIRA 011245Z 15008KT 9999 SCT015 FEW017CB FEW018TCU
                        12/09 Q1005=
200912011215 METAR LIRA 011215Z 17007KT 110V200 9999 SCT015 FEW017CB FEW018TCU
                        12/08 Q1005=
200912011145 METAR LIRA 011145Z 17006KT 9999 SCT015 FEW017CB FEW018TCU
                        12/08 Q1005=
200912011115 METAR LIRA 011115Z 17006KT 9999 SCT015 FEW018TCU 12/08 Q1005=
200912011045 METAR LIRA 011045Z 16009KT 9999 SCT015 FEW018TCU 12/09 Q1005=
200912011015 METAR LIRA 011015Z 16007KT 110V200 9999 SCT015 FEW018TCU
                        SCT030 12/09 Q1005=
200912010945 METAR LIRA 010945Z 16007KT 110V200 9999 SCT015 FEW018CB SCT030
                        12/08 Q1005=
200912010915 METAR LIRA 010915Z 15007KT 9999 -RA SCT015 FEW018CB SCT030
                        11/08 Q1005=
200912010845 METAR LIRA 010845Z 15005KT 9999 SCT015 FEW018CB SCT030 10/08
                        Q1005=
200912010815 METAR LIRA 010815Z 16003KT 9999 -RA SCT015 FEW018CB BKN030
                        10/07 Q1004=
200912010745 METAR LIRA 010745Z 20002KT 130V200 9999 -RA SCT015 FEW018CB
                        BKN030 10/07 Q1004=
200912010715 METAR LIRA 010715Z 15007KT 6000 -RA VCTS SCT015 FEW018CB
                        SCT030 09/07 Q1003=
200912010645 METAR LIRA 010645Z 14008KT 9999 SCT015 FEW017TCU 09/07 Q1003=
200912010615 METAR LIRA 010615Z 16004KT 9999 -RA SCT015 SCT026 09/07 Q1003=
200912010545 METAR LIRA 010545Z 16005KT 9999 -RA SCT015 SCT030 09/07 Q1003=
200912010515 METAR LIRA 010515Z 13008KT 9999 FEW015 SCT060 09/07 Q1002=
200912010445 METAR LIRA 010445Z 15008KT 120V200 9999 SCT015 SCT060 09/07
                        Q1002=
200912010415 METAR LIRA 010415Z 17003KT 9999 SCT015 SCT060 08/06 Q1002
                        RERA=
200912010345 METAR LIRA 010345Z 10003KT 8000 -RA SCT015 SCT025 08/05 Q1002=
200912010315 METAR LIRA 010315Z 09002KT 7000 -RA FEW015 BKN060 08/05 Q1002=
200912010245 METAR LIRA 010245Z 01004KT 240V040 6000 -RA FEW015 BKN060
                        08/05 Q1002=
200912010215 METAR LIRA 010215Z 07006KT 8000 -RA FEW015 BKN060 08/05 Q1003=
200912010145 METAR LIRA 010145Z 01003KT 8000 -RA FEW015 BKN060 10/06 Q1003=
200912010115 METAR LIRA 010115Z 00000KT 8000 -RA FEW015 BKN060 09/06 Q1002=
200912010045 METAR LIRA 010045Z 13006KT 100V200 8000 -RA FEW015 BKN060
                        09/06 Q1002=
200912010015 METAR LIRA 010015Z 13009KT 8000 -RA FEW015 BKN060 09/07 Q1002=

</pre>

</body>
</html>
