##########################################################
# Query made at 11/10/2014 16:36:28 UTC
# Time interval: from 12/01/2011 00:00  to 12/31/2011 23:59  UTC
##########################################################

##########################################################
# LIRA, Roma / Ciampino (Italy)
# WMO index: 16239
# Latitude 41-47N. Longitude 012-35E. Altitude 129 m.
##########################################################

###################################
#  METAR/SPECI from LIRA
###################################
201112312350 METAR LIRA 010045Z 02002KT CAVOK 02/M01 Q1018=
201112312345 METAR LIRA 312345Z 09003KT CAVOK 03/M01 Q1018=
201112312315 METAR LIRA 312315Z 06002KT CAVOK 03/M01 Q1018=
201112312245 METAR LIRA 312245Z 05002KT CAVOK 03/M01 Q1018=
201112312215 METAR LIRA 312215Z 05002KT CAVOK 04/M01 Q1018=
201112312145 METAR LIRA 312145Z 01002KT CAVOK 04/M01 Q1018=
201112312115 METAR LIRA 312115Z 09001KT CAVOK 04/M01 Q1018=
201112312045 METAR LIRA 312045Z 11001KT CAVOK 05/M01 Q1018=
201112312015 METAR LIRA 312015Z 11002KT CAVOK 05/M01 Q1018=
201112311945 METAR LIRA 311945Z 11003KT CAVOK 04/M01 Q1018=
201112311915 METAR LIRA 311915Z 12002KT CAVOK 04/M00 Q1018=
201112311845 METAR LIRA 311845Z 11001KT CAVOK 05/M01 Q1018=
201112311815 METAR LIRA 311815Z 09002KT CAVOK 05/M00 Q1017=
201112311745 METAR LIRA 311745Z 11002KT 9999 FEW080 05/01 Q1017=
201112311715 METAR LIRA 311715Z 15002KT 9999 FEW080 05/M01 Q1017=
201112311645 METAR LIRA 311645Z 29002KT 9999 FEW080 07/M00 Q1017=
201112311615 METAR LIRA 311615Z 26002KT 9999 FEW080 08/M00 Q1017=
201112311545 METAR LIRA 311545Z 00000KT 9999 FEW080 09/M01 Q1017=
201112311515 METAR LIRA 311515Z 33001KT 9999 FEW080 10/M01 Q1017=
201112311445 METAR LIRA 311445Z 00000KT 9999 FEW080 10/M02 Q1017=
201112311415 METAR LIRA 311415Z 02002KT 9999 FEW080 10/M02 Q1017=
201112311345 METAR LIRA 311345Z 03005KT 330V060 9999 FEW080 10/M01 Q1017=
201112311315 METAR LIRA 311315Z 02004KT 9999 FEW080 10/00 Q1017=
201112311245 METAR LIRA 311245Z 03005KT 330V100 CAVOK 10/01 Q1017=
201112311215 METAR LIRA 311215Z 05004KT CAVOK 09/01 Q1017=
201112311145 METAR LIRA 311145Z 05006KT 030V090 CAVOK 08/01 Q1017=
201112311115 METAR LIRA 311115Z 03003KT CAVOK 07/02 Q1017=
201112311045 METAR LIRA 311045Z 06004KT CAVOK 07/02 Q1018=
201112311015 METAR LIRA 311015Z 05005KT CAVOK 06/02 Q1018=
201112310945 METAR LIRA 310945Z 03005KT CAVOK 06/02 Q1018=
201112310915 METAR LIRA 310915Z 04003KT CAVOK 05/02 Q1018=
201112310845 METAR LIRA 310845Z 06003KT CAVOK 05/02 Q1018=
201112310815 METAR LIRA 310815Z 05004KT CAVOK 03/01 Q1017=
201112310745 METAR LIRA 310745Z 07004KT CAVOK 03/01 Q1016=
201112310715 METAR LIRA 310715Z 07005KT CAVOK 02/01 Q1015=
201112310645 METAR LIRA 310645Z 06004KT CAVOK 02/01 Q1015=
201112310615 METAR LIRA 310615Z 05006KT CAVOK 02/01 Q1014=
201112310545 METAR LIRA 310545Z 03004KT CAVOK 02/01 Q1013=
201112310515 METAR LIRA 310515Z 07003KT CAVOK 02/01 Q1013=
201112310500 METAR LIRA INTER LOW CLDS MVG S=
201112310445 METAR LIRA 310445Z 05004KT CAVOK 03/01 Q1012=
201112310415 METAR LIRA 310415Z 07005KT CAVOK 03/01 Q1012=
201112310345 METAR LIRA 310345Z 07004KT CAVOK 03/01 Q1012=
201112310315 METAR LIRA 310315Z 05001KT CAVOK 03/01 Q1012=
201112310245 METAR LIRA 310245Z 05003KT CAVOK 03/02 Q1012=
201112310215 METAR LIRA 310215Z 05002KT CAVOK 03/02 Q1011=
201112310145 METAR LIRA 310145Z 05003KT CAVOK 03/03 Q1011=
201112310115 METAR LIRA 310115Z 07001KT 9999 FEW070 03/03 Q1011=
201112310045 METAR LIRA 310045Z 00000KT 9999 FEW017 04/04 Q1011=
201112310015 METAR LIRA 310015Z 06008KT 9999 FEW017 04/04 Q1010=
201112302350 METAR LIRA 310045Z 00000KT 9999 FEW017 04/04 Q1011=
201112302345 METAR LIRA 302345Z 06008KT 9999 FEW017 04/04 Q1010=
201112302315 METAR LIRA 302315Z 05003KT 9999 FEW017 05/04 Q1010=
201112302245 METAR LIRA 302245Z 34002KT 9999 FEW017 05/05 Q1010=
201112302215 METAR LIRA 302215Z 03004KT 9999 FEW017 05/05 Q1010=
201112302145 METAR LIRA 302145Z 31005KT 9999 FEW018TCU 06/05 Q1010 RETS=
201112302115 METAR LIRA 302115Z 05002KT 9999 FEW017TCU SCT070 06/06 Q1010
                        RETS=
201112302045 METAR LIRA 302045Z 01004KT 9999 -TSRA FEW017CB SCT020 07/06
                        Q1010=
201112302015 METAR LIRA 302015Z 36017G27KT 330V030 7000 -TSRA FEW017CB
                        SCT020 07/05 Q1010=
201112301945 METAR LIRA 301945Z 36001KT 9999 FEW020 SCT070 07/05 Q1009=
201112301915 METAR LIRA 301915Z 06002KT 9999 FEW035 SCT070 07/05 Q1009=
201112301845 METAR LIRA 301845Z 06003KT 9999 FEW035 SCT060 07/06 Q1009=
201112301815 METAR LIRA 301815Z 05002KT 9999 FEW030 SCT060 07/05 Q1009=
201112301745 METAR LIRA 301745Z 00000KT 9999 FEW030 SCT060 08/06 Q1009=
201112301715 METAR LIRA 301715Z 00000KT 9999 FEW030 SCT060 09/05 Q1009=
201112301645 METAR LIRA 301645Z 00000KT 9999 FEW015 SCT070 09/05 Q1009=
201112301615 METAR LIRA 301615Z 00000KT 9999 FEW015 SCT070 09/05 Q1009=
201112301545 METAR LIRA 301545Z 27003KT 9999 FEW015 10/05 Q1009=
201112301515 METAR LIRA 301515Z 29002KT 9999 FEW015 11/04 Q1009=
201112301445 METAR LIRA 301445Z 28002KT 9999 FEW015 11/04 Q1010=
201112301415 METAR LIRA 301415Z 32004KT 9999 FEW020 11/03 Q1010=
201112301345 METAR LIRA 301345Z 34004KT 9999 FEW020 11/03 Q1010=
201112301315 METAR LIRA 301315Z 33002KT 9999 FEW020 10/04 Q1010=
201112301245 METAR LIRA 301245Z 32005KT 9999 FEW020 10/04 Q1011=
201112301215 METAR LIRA 301215Z 33005KT 9999 FEW020 10/04 Q1011=
201112301145 METAR LIRA 301145Z 33003KT 9999 FEW020 10/04 Q1011=
201112301115 METAR LIRA 301115Z 36001KT 9999 FEW020 SCT070 09/04 Q1012=
201112301045 METAR LIRA 301045Z 35001KT 9999 FEW020 SCT070 08/04 Q1012=
201112301015 METAR LIRA 301015Z 02003KT 9999 FEW020 SCT070 07/04 Q1013=
201112301000 METAR LIRA INTER=
201112300945 METAR LIRA 300945Z 02002KT 9999 FEW020 SCT070 07/05 Q1013=
201112300915 METAR LIRA 300915Z 02003KT 9999 FEW020 SCT070 06/04 Q1014=
201112300845 METAR LIRA 300845Z 03003KT 9999 FEW020 06/05 Q1014=
201112300815 METAR LIRA 300815Z 06003KT 9999 FEW020 06/05 Q1014=
201112300745 METAR LIRA 300745Z 09004KT 9999 FEW020 05/04 Q1013=
201112300715 METAR LIRA 300715Z 06003KT 9999 FEW025 04/04 Q1013=
201112300645 METAR LIRA 300645Z 06004KT 9999 FEW025 04/04 Q1013=
201112300615 METAR LIRA 300615Z 03004KT 9999 FEW025 05/04 Q1014=
201112300545 METAR LIRA 300545Z 02003KT 9999 FEW025 05/04 Q1014=
201112300515 METAR LIRA 300515Z 05004KT 9999 FEW025 05/04 Q1014=
201112300445 METAR LIRA 300445Z 07003KT 7000 FEW025 SCT070 05/04 Q1014=
201112300415 METAR LIRA 300415Z 05004KT 7000 FEW025 SCT070 06/04 Q1014=
201112300345 METAR LIRA 300345Z 02002KT 7000 FEW025 SCT070 06/04 Q1014=
201112300315 METAR LIRA 300315Z 06003KT 7000 FEW025 SCT070 06/04 Q1014=
201112300245 METAR LIRA 300245Z 02002KT 7000 FEW025 SCT070 06/04 Q1015=
201112300215 METAR LIRA 300215Z 02002KT 7000 FEW025 SCT070 06/04 Q1015=
201112300145 METAR LIRA 300145Z 04003KT 7000 FEW025 SCT070 06/04 Q1015=
201112300115 METAR LIRA 300115Z 02004KT 6000 SCT025 BKN070 07/06 Q1015=
201112300045 METAR LIRA 300045Z 04002KT 6000 SCT025 BKN070 07/06 Q1015=
201112300015 METAR LIRA 300015Z 02003KT 6000 SCT025 BKN070 07/06 Q1015=
201112292350 METAR LIRA 300045Z 04002KT 6000 SCT025 BKN070 07/06 Q1015=
201112292345 METAR LIRA 292345Z 35004KT 6000 SCT025 BKN070 07/06 Q1015=
201112292315 METAR LIRA 292315Z 34001KT 6000 FEW025 BKN070 07/06 Q1016=
201112292245 METAR LIRA 292245Z 10002KT 7000 FEW025 BKN070 07/06 Q1016=
201112292215 METAR LIRA 292215Z 00000KT 7000 FEW025 BKN070 07/07 Q1016=
201112292145 METAR LIRA 292145Z 36001KT 7000 FEW025 BKN070 07/07 Q1016=
201112292115 METAR LIRA 292115Z 33002KT 7000 FEW012 SCT070 07/07 Q1016=
201112292045 METAR LIRA 292045Z 00000KT 7000 FEW012 SCT070 07/07 Q1016=
201112292015 METAR LIRA 292015Z 07002KT 7000 FEW012 SCT070 08/07 Q1016=
201112291945 METAR LIRA 291945Z 00000KT 6000 FEW012 SCT070 08/07 Q1016=
201112291915 METAR LIRA 291915Z 01001KT 6000 FEW012 SCT070 09/07 Q1016=
201112291845 METAR LIRA 291845Z 07003KT 6000 FEW012 SCT070 10/08 Q1016=
201112291815 METAR LIRA 291815Z 34005KT 6000 FEW012 BKN070 10/08 Q1016=
201112291745 METAR LIRA 291745Z 05002KT 6000 FEW012 BKN070 10/09 Q1016=
201112291715 METAR LIRA 291715Z 12003KT 6000 FEW012 SCT030 09/08 Q1016=
201112291645 METAR LIRA 291645Z 15006KT 6000 FEW012 SCT030 10/09 Q1016=
201112291615 METAR LIRA 291615Z 20003KT 6000 FEW018 SCT030 10/09 Q1016=
201112291545 METAR LIRA 291545Z 18003KT 7000 FEW018 SCT035 11/08 Q1016=
201112291515 METAR LIRA 291515Z 19001KT 8000 FEW018 BKN035 11/08 Q1017=
201112291445 METAR LIRA 291445Z 21002KT 8000 FEW018 BKN030 11/08 Q1017=
201112291415 METAR LIRA 291415Z 20004KT 8000 FEW018 BKN030 11/08 Q1017=
201112291345 METAR LIRA 291345Z 20005KT 9999 FEW018 BKN030 11/08 Q1017=
201112291315 METAR LIRA 291315Z 20002KT 9999 FEW018 BKN030 11/07 Q1017=
201112291245 METAR LIRA 291245Z 00000KT 9999 FEW018 BKN030 11/06 Q1018=
201112291215 METAR LIRA 291215Z 00000KT 9999 FEW020 SCT070 11/06 Q1018=
201112291145 METAR LIRA 291145Z 35002KT 9999 FEW020 SCT060 11/06 Q1019=
201112291115 METAR LIRA 291115Z 35002KT 9999 FEW020 SCT030 11/06 Q1019=
201112291045 METAR LIRA 291045Z 02002KT 9999 FEW020 10/06 Q1020=
201112291015 METAR LIRA 291015Z 01004KT 9999 FEW020 09/05 Q1020=
201112290945 METAR LIRA 290945Z 03003KT 9999 FEW012 08/05 Q1021=
201112290915 METAR LIRA 290915Z 03004KT 9999 FEW012 07/05 Q1021=
201112290845 METAR LIRA 290845Z 36003KT 9999 FEW018 06/05 Q1021=
201112290815 METAR LIRA 290815Z 01003KT 9999 FEW012 05/04 Q1021=
201112290745 METAR LIRA 290745Z 02002KT 9999 FEW012 04/04 Q1021=
201112290715 METAR LIRA 290715Z 03001KT 9999 FEW012 04/03 Q1021=
201112290645 METAR LIRA 290645Z 01002KT 9999 FEW011 SCT035 04/04 Q1021=
201112290615 METAR LIRA 290615Z 02001KT 9999 FEW025 BKN035 05/04 Q1021=
201112290545 METAR LIRA 290545Z 05001KT 9999 FEW025 BKN035 04/04 Q1021=
201112290515 METAR LIRA 290515Z 01002KT 9999 FEW025 SCT035 04/03 Q1021=
201112290445 METAR LIRA 290445Z 03002KT 9999 FEW009 SCT035 04/03 Q1022=
201112290415 METAR LIRA 290415Z 02001KT 9999 FEW015 SCT035 04/04 Q1022=
201112290345 METAR LIRA 290345Z 01001KT 9999 FEW015 SCT035 05/04 Q1022=
201112290315 METAR LIRA 290315Z 06002KT 9999 FEW015 SCT035 05/04 Q1023=
201112290245 METAR LIRA 290245Z 04001KT 9999 FEW015 BKN035 05/04 Q1023=
201112290215 METAR LIRA 290215Z 01002KT 9999 FEW007 BKN035 05/04 Q1024=
201112290145 METAR LIRA 290145Z 34002KT 9999 FEW007 FEW018TCU SCT025 05/04
                        Q1024=
201112290115 METAR LIRA 290115Z 07001KT 9999 FEW007 FEW018TCU SCT025 05/04
                        Q1024=
201112290045 METAR LIRA 290045Z 02001KT 9999 FEW007 SCT017 05/04 Q1024=
201112290015 METAR LIRA 290015Z 05002KT 9999 FEW017 SCT025 05/04 Q1025=
201112282350 METAR LIRA 290045Z 02001KT 9999 FEW007 SCT017 05/04 Q1024=
201112282345 METAR LIRA 282345Z 07001KT 9999 FEW007 SCT017 05/04 Q1025=
201112282315 METAR LIRA 282315Z 01002KT 9999 FEW006 SCT018 05/04 Q1025=
201112282245 METAR LIRA 282245Z 05002KT 9999 FEW018 SCT025 05/04 Q1025=
201112282215 METAR LIRA 282215Z 01001KT 9999 FEW006 SCT018 05/04 Q1026=
201112282145 METAR LIRA 282145Z 36003KT 9999 FEW018 SCT025 06/04 Q1026=
201112282115 METAR LIRA 282115Z 09001KT 9999 FEW018 SCT025 07/05 Q1026=
201112282045 METAR LIRA 282045Z 05001KT 9999 FEW018 SCT023 07/05 Q1026=
201112282015 METAR LIRA 282015Z 12005KT 9999 SCT023 SCT070 07/05 Q1026=
201112281945 METAR LIRA 281945Z 12002KT 9999 FEW006 SCT027 07/05 Q1027=
201112281915 METAR LIRA 281915Z 11005KT 9999 FEW006 SCT040 07/05 Q1027=
201112281845 METAR LIRA 281845Z 11005KT 9999 FEW020 07/05 Q1027=
201112281815 METAR LIRA 281815Z 13003KT 9999 FEW020 07/05 Q1027=
201112281745 METAR LIRA 281745Z 14001KT 9999 FEW070 07/05 Q1027=
201112281715 METAR LIRA 281715Z 13003KT CAVOK 07/06 Q1027=
201112281645 METAR LIRA 281645Z 13002KT 9999 FEW020 06/04 Q1027=
201112281615 METAR LIRA 281615Z 00000KT 9999 FEW020 08/06 Q1027=
201112281545 METAR LIRA 281545Z 00000KT 9999 FEW020 10/05 Q1027=
201112281515 METAR LIRA 281515Z 30001KT 9999 FEW020 12/06 Q1027=
201112281445 METAR LIRA 281445Z 27002KT 9999 FEW020 12/05 Q1027=
201112281415 METAR LIRA 281415Z 26001KT 9999 FEW020 12/05 Q1027=
201112281345 METAR LIRA 281345Z 29001KT 9999 FEW020 13/06 Q1028=
201112281315 METAR LIRA 281315Z 29002KT 9999 FEW020 13/06 Q1028=
201112281245 METAR LIRA 281245Z 30002KT 9999 FEW020 12/05 Q1028=
201112281215 METAR LIRA 281215Z 26001KT 9999 FEW020 12/06 Q1028=
201112281145 METAR LIRA 281145Z 02001KT 9999 FEW020 10/04 Q1029=
201112281115 METAR LIRA 281115Z 36002KT 9999 FEW020 09/04 Q1029=
201112281045 METAR LIRA 281045Z 02002KT 9999 FEW020 08/03 Q1030=
201112281015 METAR LIRA 281015Z 01002KT 9999 FEW020 07/03 Q1030=
201112280945 METAR LIRA 280945Z 01002KT 9999 FEW020 06/02 Q1030=
201112280915 METAR LIRA 280915Z 04002KT CAVOK 05/02 Q1030=
201112280845 METAR LIRA 280845Z 02002KT CAVOK 04/02 Q1030=
201112280815 METAR LIRA 280815Z 04002KT CAVOK 03/01 Q1030=
201112280745 METAR LIRA 280745Z 03001KT CAVOK 02/01 Q1030=
201112280715 METAR LIRA 280715Z 04001KT CAVOK 01/00 Q1030=
201112280645 METAR LIRA 280645Z 04002KT CAVOK 01/M00 Q1030=
201112280615 METAR LIRA 280615Z 04002KT CAVOK 01/M00 Q1030=
201112280545 METAR LIRA 280545Z 06002KT CAVOK 00/M00 Q1030=
201112280515 METAR LIRA 280515Z 03002KT CAVOK 00/M00 Q1030=
201112280445 METAR LIRA 280445Z 03002KT CAVOK 01/01 Q1030=
201112280415 METAR LIRA 280415Z 04002KT CAVOK 01/00 Q1030=
201112280345 METAR LIRA 280345Z 36003KT CAVOK 01/00 Q1031=
201112280315 METAR LIRA 280315Z 02002KT CAVOK 01/01 Q1031=
201112280245 METAR LIRA 280245Z 02002KT CAVOK 01/01 Q1031=
201112280215 METAR LIRA 280215Z 04002KT CAVOK 02/01 Q1031=
201112280145 METAR LIRA 280145Z 05003KT CAVOK 02/01 Q1031=
201112280115 METAR LIRA 280115Z 04003KT CAVOK 02/01 Q1032=
201112280045 METAR LIRA 280045Z 03002KT CAVOK 03/02 Q1032=
201112280015 METAR LIRA 280015Z 01002KT CAVOK 03/02 Q1032=
201112272350 METAR LIRA 280045Z 03002KT CAVOK 03/02 Q1032=
201112272345 METAR LIRA 272345Z 06002KT CAVOK 04/02 Q1032=
201112272315 METAR LIRA 272315Z 02002KT CAVOK 04/02 Q1032=
201112272245 METAR LIRA 272245Z 04002KT CAVOK 04/02 Q1032=
201112272215 METAR LIRA 272215Z 16002KT CAVOK 05/02 Q1032=
201112272145 METAR LIRA 272145Z 14002KT CAVOK 05/02 Q1032=
201112272115 METAR LIRA 272115Z 13001KT CAVOK 05/02 Q1032=
201112272045 METAR LIRA 272045Z 15003KT CAVOK 04/02 Q1032=
201112272015 METAR LIRA 272015Z 14002KT CAVOK 05/02 Q1032=
201112271945 METAR LIRA 271945Z 13002KT CAVOK 04/02 Q1032=
201112271915 METAR LIRA 271915Z 14001KT CAVOK 06/02 Q1032=
201112271845 METAR LIRA 271845Z 11002KT CAVOK 06/02 Q1032=
201112271815 METAR LIRA 271815Z 14001KT CAVOK 06/03 Q1032=
201112271745 METAR LIRA 271745Z 10001KT CAVOK 08/04 Q1032=
201112271715 METAR LIRA 271715Z 17002KT CAVOK 08/04 Q1032=
201112271645 METAR LIRA 271645Z 12001KT CAVOK 08/03 Q1032=
201112271615 METAR LIRA 271615Z 00000KT CAVOK 09/03 Q1032=
201112271545 METAR LIRA 271545Z 01001KT CAVOK 11/03 Q1032=
201112271515 METAR LIRA 271515Z 01002KT CAVOK 11/03 Q1032=
201112271445 METAR LIRA 271445Z 03002KT CAVOK 11/02 Q1032=
201112271415 METAR LIRA 271415Z 02003KT CAVOK 12/02 Q1032=
201112271345 METAR LIRA 271345Z 03003KT CAVOK 12/02 Q1032=
201112271315 METAR LIRA 271315Z 25002KT CAVOK 13/03 Q1032=
201112271245 METAR LIRA 271245Z 36003KT CAVOK 12/03 Q1033=
201112271215 METAR LIRA 271215Z 35002KT CAVOK 12/04 Q1033=
201112271145 METAR LIRA 271145Z 02003KT CAVOK 11/04 Q1033=
201112271115 METAR LIRA 271115Z 34002KT CAVOK 11/04 Q1034=
201112271045 METAR LIRA 271045Z 33002KT CAVOK 10/03 Q1034=
201112271015 METAR LIRA 271015Z 00000KT CAVOK 09/04 Q1034=
201112270945 METAR LIRA 270945Z 01002KT 9999 FEW003 08/04 Q1034=
201112270915 METAR LIRA 270915Z 36002KT 9999 FEW003 07/04 Q1034=
201112270845 METAR LIRA 270845Z 04003KT 9999 FEW003 05/03 Q1034=
201112270815 METAR LIRA 270815Z 04003KT CAVOK 05/02 Q1033=
201112270745 METAR LIRA 270745Z 06002KT CAVOK 03/02 Q1033=
201112270715 METAR LIRA 270715Z 05003KT CAVOK 01/00 Q1033=
201112270645 METAR LIRA 270645Z 05002KT CAVOK 01/01 Q1033=
201112270615 METAR LIRA 270615Z 03001KT CAVOK 01/01 Q1033=
201112270545 METAR LIRA 270545Z 04003KT CAVOK 01/01 Q1033=
201112270515 METAR LIRA 270515Z 02002KT CAVOK 02/00 Q1033=
201112270445 METAR LIRA 270445Z 11002KT CAVOK 03/00 Q1032=
201112270415 METAR LIRA 270415Z 00000KT CAVOK 03/00 Q1032=
201112270345 METAR LIRA 270345Z 09002KT CAVOK 03/00 Q1032=
201112270315 METAR LIRA 270315Z 06002KT CAVOK 03/00 Q1032=
201112270245 METAR LIRA 270245Z 09001KT CAVOK 03/01 Q1032=
201112270215 METAR LIRA 270215Z 07002KT CAVOK 04/01 Q1032=
201112270145 METAR LIRA 270145Z 08002KT CAVOK 04/01 Q1032=
201112270115 METAR LIRA 270115Z 08001KT CAVOK 04/01 Q1032=
201112270045 METAR LIRA 270045Z 05003KT CAVOK 04/00 Q1032=
201112270015 METAR LIRA 270015Z 08003KT CAVOK 04/01 Q1032=
201112262350 METAR LIRA 270045Z 05003KT CAVOK 04/00 Q1032=
201112262345 METAR LIRA 262345Z 01002KT CAVOK 05/01 Q1032=
201112262315 METAR LIRA 262315Z 36002KT 9999 FEW080 06/01 Q1032=
201112262245 METAR LIRA 262245Z 00000KT 9999 FEW080 06/01 Q1032=
201112262215 METAR LIRA 262215Z 06000KT 9999 FEW080 06/01 Q1031=
201112262145 METAR LIRA 262145Z 14002KT CAVOK 06/M00 Q1031=
201112262115 METAR LIRA 262115Z 10006KT CAVOK 05/00 Q1031=
201112262045 METAR LIRA 262045Z 11001KT CAVOK 05/00 Q1031=
201112262015 METAR LIRA 262015Z 09004KT 9999 FEW080 05/01 Q1031=
201112261945 METAR LIRA 261945Z 10003KT 9999 FEW080 06/00 Q1030=
201112261915 METAR LIRA 261915Z 12001KT 9999 FEW080 06/00 Q1030=
201112261845 METAR LIRA 261845Z 12003KT 9999 FEW070 07/01 Q1030=
201112261815 METAR LIRA 261815Z 08003KT 9999 FEW060 07/02 Q1030=
201112261745 METAR LIRA 261745Z 23002KT 9999 SCT060 08/01 Q1030=
201112261715 METAR LIRA 261715Z 14004KT 9999 SCT080 08/01 Q1030=
201112261645 METAR LIRA 261645Z 19001KT CAVOK 10/00 Q1030=
201112261615 METAR LIRA 261615Z 18004KT CAVOK 10/M01 Q1030=
201112261545 METAR LIRA 261545Z 18003KT CAVOK 10/M01 Q1030=
201112261515 METAR LIRA 261515Z 20006KT CAVOK 12/M02 Q1030=
201112261445 METAR LIRA 261445Z 25001KT CAVOK 14/M03 Q1030=
201112261415 METAR LIRA 261415Z 32002KT CAVOK 14/M03 Q1030=
201112261345 METAR LIRA 261345Z 23005KT CAVOK 14/M02 Q1030=
201112261315 METAR LIRA 261315Z 34002KT CAVOK 13/M02 Q1030=
201112261245 METAR LIRA 261245Z 02001KT CAVOK 13/M01 Q1030=
201112261215 METAR LIRA 261215Z 33004KT CAVOK 12/M02 Q1030=
201112261145 METAR LIRA 261145Z 02003KT 010V080 CAVOK 12/M01 Q1030=
201112261115 METAR LIRA 261115Z 01005KT CAVOK 12/M00 Q1031=
201112261045 METAR LIRA 261045Z 04005KT CAVOK 11/00 Q1031=
201112261015 METAR LIRA 261015Z 01006KT 350V050 CAVOK 10/01 Q1031=
201112260945 METAR LIRA 260945Z 01005KT CAVOK 09/01 Q1031=
201112260915 METAR LIRA 260915Z 03004KT 360V070 CAVOK 08/01 Q1030=
201112260845 METAR LIRA 260845Z 36005KT CAVOK 06/01 Q1030=
201112260815 METAR LIRA 260815Z 03002KT CAVOK 05/00 Q1030=
201112260745 METAR LIRA 260745Z 32001KT CAVOK 04/00 Q1030=
201112260715 METAR LIRA 260715Z 02005KT CAVOK 03/M01 Q1029=
201112260645 METAR LIRA 260645Z 35001KT CAVOK 03/M01 Q1029=
201112260615 METAR LIRA 260615Z 02004KT CAVOK 04/M01 Q1029=
201112260545 METAR LIRA 260545Z 02002KT 9999 FEW070 04/M00 Q1029=
201112260515 METAR LIRA 260515Z 05005KT 9999 FEW070 03/M00 Q1029=
201112260445 METAR LIRA 260445Z 04007KT 9999 FEW070 03/M01 Q1028=
201112260415 METAR LIRA 260415Z 05004KT 9999 FEW070 03/M01 Q1028=
201112260345 METAR LIRA 260345Z 03003KT 9999 FEW070 03/M01 Q1028=
201112260315 METAR LIRA 260315Z 04003KT 9999 FEW070 03/M01 Q1028=
201112260245 METAR LIRA 260245Z 03003KT 9999 FEW070 04/M01 Q1028=
201112260215 METAR LIRA 260215Z 04005KT 9999 FEW070 04/M01 Q1028=
201112260145 METAR LIRA 260145Z 01005KT 9999 FEW070 04/M02 Q1028=
201112260115 METAR LIRA 260115Z 36004KT 9999 FEW070 04/M01 Q1027=
201112260045 METAR LIRA 260045Z 03003KT 9999 FEW070 05/M01 Q1027=
201112260015 METAR LIRA 260015Z 36003KT 9999 FEW070 05/M01 Q1027=
201112252350 METAR LIRA 260045Z 03003KT 9999 FEW070 05/M01 Q1027=
201112252345 METAR LIRA 252345Z 02006KT 9999 FEW070 05/M01 Q1027=
201112252315 METAR LIRA 252315Z 01004KT 9999 FEW070 04/M01 Q1027=
201112252245 METAR LIRA 252245Z 03004KT 9999 FEW070 04/M02 Q1027=
201112252215 METAR LIRA 252215Z 04004KT 9999 FEW070 05/M02 Q1027=
201112252145 METAR LIRA 252145Z 05002KT 9999 FEW070 05/M02 Q1027=
201112252115 METAR LIRA 252115Z 03004KT 9999 FEW070 05/M02 Q1026=
201112252045 METAR LIRA 252045Z 05005KT 9999 FEW070 06/M01 Q1026=
201112252015 METAR LIRA 252015Z 05004KT 9999 FEW070 05/M02 Q1026=
201112251945 METAR LIRA 251945Z 06006KT 9999 FEW070 06/M02 Q1025=
201112251915 METAR LIRA 251915Z 06005KT 9999 FEW070 06/M02 Q1025=
201112251845 METAR LIRA 251845Z 03005KT 9999 FEW070 07/M01 Q1025=
201112251815 METAR LIRA 251815Z 02006KT 9999 FEW070 08/M01 Q1024=
201112251745 METAR LIRA 251745Z 02007KT 350V050 9999 FEW020 09/M02 Q1024=
201112251715 METAR LIRA 251715Z 02008KT 350V080 9999 FEW020 10/M01 Q1024=
201112251645 METAR LIRA 251645Z 36008KT 330V050 9999 FEW020 11/00 Q1024=
201112251615 METAR LIRA 251615Z 03006G17KT 360V070 9999 FEW020 11/00 Q1024=
201112251545 METAR LIRA 251545Z 01006KT 340V040 9999 FEW020 12/00 Q1023=
201112251515 METAR LIRA 251515Z 01007KT 320V040 9999 FEW020 13/00 Q1023=
201112251445 METAR LIRA 251445Z 01013KT 330V040 9999 FEW020 14/01 Q1023=
201112251415 METAR LIRA 251415Z 36009KT 330V060 9999 FEW020 14/01 Q1022=
201112251345 METAR LIRA 251345Z 01010KT 350V060 9999 FEW020 14/00 Q1022=
201112251315 METAR LIRA 251315Z 02012KT 330V040 9999 FEW020 15/00 Q1022=
201112251245 METAR LIRA 251245Z 01010KT 9999 FEW020 15/01 Q1022=
201112251215 METAR LIRA 251215Z 35010KT 9999 FEW020 14/02 Q1022=
201112251145 METAR LIRA 251145Z 35008KT 9999 FEW020 14/03 Q1022=
201112251115 METAR LIRA 251115Z 34009KT 9999 FEW020 14/03 Q1022=
201112251045 METAR LIRA 251045Z 36006KT 310V020 9999 FEW020 14/04 Q1022=
201112251015 METAR LIRA 251015Z 04005KT 9999 FEW020 13/05 Q1022=
201112251000 METAR LIRA CONTUS=
201112250945 METAR LIRA 250945Z 03006KT 330V050 9999 FEW020 SCT070 12/05
                        Q1021=
201112250915 METAR LIRA 250915Z 02003KT 360V090 9999 FEW020 SCT070 11/05
                        Q1021=
201112250900 METAR LIRA CONTUS=
201112250845 METAR LIRA 250845Z 02003KT 9999 FEW020 SCT070 10/05 Q1020=
201112250815 METAR LIRA 250815Z 00000KT 9999 FEW020 SCT070 09/05 Q1020=
201112250745 METAR LIRA 250745Z 01001KT 9999 FEW020 BKN070 08/05 Q1019=
201112250715 METAR LIRA 250715Z 04003KT 9999 FEW020 BKN070 07/05 Q1018=
201112250645 METAR LIRA 250645Z 04003KT 9999 FEW020 BKN070 07/05 Q1018=
201112250615 METAR LIRA 250615Z 07004KT 9999 BKN070 08/05 Q1017=
201112250600 METAR LIRA CONTUS LOW CLDS OVHD MOVING S=
201112250545 METAR LIRA 250545Z 06004KT 9999 BKN070 08/05 Q1017=
201112250515 METAR LIRA 250515Z 03005KT 9999 BKN070 08/04 Q1017=
201112250445 METAR LIRA 250445Z 05006KT 9999 BKN070 07/04 Q1017=
201112250415 METAR LIRA 250415Z 03007KT 9999 BKN070 07/04 Q1016=
201112250345 METAR LIRA 250345Z 04008KT 340V080 9999 BKN070 07/04 Q1016=
201112250315 METAR LIRA 250315Z 04007KT 9999 FEW018 SCT070 08/04 Q1016=
201112250245 METAR LIRA 250245Z 04006KT 010V090 9999 FEW018 SCT070 08/05
                        Q1016=
201112250215 METAR LIRA 250215Z 02006KT 350V060 9999 FEW015 SCT070 08/04
                        Q1015=
201112250145 METAR LIRA 250145Z 01003KT 9999 FEW013 08/05 Q1014=
201112250115 METAR LIRA 250115Z 01004KT 9999 FEW015 SCT025 08/06 Q1014=
201112250045 METAR LIRA 250045Z 02005KT 330V050 9999 -RA FEW015 FEW020TCU
                        SCT025 08/06 Q1014=
201112250015 METAR LIRA 250015Z 36007KT 330V030 9999 -RA FEW015 FEW020TCU
                        SCT025 08/07 Q1013=
201112242350 METAR LIRA 250045Z 02005KT 330V050 9999 -RA FEW015 FEW020TCU
                        SCT025 08/06 Q1014=
201112242345 METAR LIRA 242345Z 02005KT 9999 -RA FEW015 FEW020TCU BKN025
                        08/07 Q1013=
201112242315 METAR LIRA 242315Z 36008KT 330V040 9999 -RA FEW015TCU BKN025
                        09/07 Q1013=
201112242245 METAR LIRA 242245Z 08004KT 9999 -RA FEW015TCU BKN025 10/06
                        Q1012=
201112242215 METAR LIRA 242215Z 06011KT 020V080 9999 -RA FEW015TCU BKN025
                        10/06 Q1012=
201112242145 METAR LIRA 242145Z 06009KT 010V090 9999 -RA FEW015TCU BKN025
                        10/06 Q1012=
201112242115 METAR LIRA 242115Z 03006KT 360V060 9999 -RA FEW015TCU BKN025
                        10/06 Q1012=
201112242045 METAR LIRA 242045Z 10013KT 9999 -RA SCT018 FEW020TCU SCT025
                        10/06 Q1012=
201112242015 METAR LIRA 242015Z 11013KT 9999 SCT018 SCT025 09/06 Q1012=
201112241945 METAR LIRA 241945Z 11010KT 9999 SCT016 FEW018CB SCT025 10/07
                        Q1012=
201112241915 METAR LIRA 241915Z 11005KT 8000 SCT016 FEW018CB SCT025 10/09
                        Q1012 RETS=
201112241845 METAR LIRA 241845Z 17005KT 8000 -RA FEW015 FEW018CB SCT030
                        10/09 Q1012 RETS=
201112241815 METAR LIRA 241815Z 18005KT 8000 -TSRA FEW015 FEW018CB SCT030
                        10/08 Q1012=
201112241745 METAR LIRA 241745Z 14009KT 8000 -TSRA FEW015 FEW018CB SCT030
                        10/08 Q1012=
201112241715 METAR COR LIRA 241715Z 15008KT 8000 TS FEW017CB SCT030 10/07
                        Q1012=
201112241645 METAR LIRA 241645Z 15008KT 8000 -RA FEW017CB SCT030 10/07
                        Q1012=
201112241615 METAR LIRA 241615Z 16006KT 140V200 8000 -RA FEW014 FEW016CB
                        SCT030 11/06 Q1012=
201112241545 METAR LIRA 241545Z 17005KT 7000 FEW015 SCT030 11/06 Q1012=
201112241515 METAR LIRA 241515Z 16006KT 130V220 7000 FEW015 SCT030 11/07
                        Q1012=
201112241445 METAR LIRA 241445Z 17008KT 170V220 7000 FEW015 SCT030 11/10
                        Q1013=
201112241415 METAR LIRA 241415Z 18010KT 6000 FEW015 SCT030 11/10 Q1013=
201112241345 METAR LIRA 241345Z 16011KT 140V210 6000 -RA SCT015 SCT022
                        11/11 Q1013=
201112241315 METAR LIRA 241315Z 17008KT 130V200 8000 -RA SCT020 BKN025
                        11/09 Q1013=
201112241245 METAR LIRA 241245Z 19012G24KT 160V220 9999 -RA SCT020 BKN025
                        12/09 Q1014=
201112241215 METAR LIRA 241215Z 16011KT 9999 -RA SCT020 BKN025 13/09 Q1014=
201112241145 METAR LIRA 241145Z 15008KT 9999 -RA SCT020 BKN030 12/10 Q1015=
201112241115 METAR LIRA 241115Z 18005KT 9999 FEW020 BKN025 13/09 Q1015=
201112241045 METAR LIRA 241045Z 16007KT 9999 FEW020 BKN030 13/10 Q1016=
201112241015 METAR LIRA 241015Z 15009KT 9999 FEW020 BKN030 12/11 Q1017=
201112240945 METAR LIRA 240945Z 15006KT 9999 FEW020 SCT030 12/09 Q1017=
201112240915 METAR LIRA 240915Z 14001KT 9999 FEW020 SCT030 07/05 Q1017=
201112240845 METAR LIRA 240845Z 02001KT 9999 FEW020 SCT030 07/05 Q1017=
201112240815 METAR LIRA 240815Z 15004KT 9999 FEW022 SCT030 07/05 Q1017=
201112240745 METAR LIRA 240745Z 08004KT 9999 FEW022 04/03 Q1018=
201112240715 METAR LIRA 240715Z 00000KT 9999 FEW022 02/01 Q1018=
201112240645 METAR LIRA 240645Z 00000KT 9999 FEW030 02/01 Q1018=
201112240615 METAR LIRA 240615Z 03001KT CAVOK 02/01 Q1018=
201112240545 METAR LIRA 240545Z 00000KT CAVOK 02/01 Q1018=
201112240515 METAR LIRA 240515Z 03001KT CAVOK 02/01 Q1019=
201112240445 METAR LIRA 240445Z 08003KT CAVOK 02/01 Q1019=
201112240415 METAR LIRA 240415Z 33002KT CAVOK 02/01 Q1019=
201112240345 METAR LIRA 240345Z 00000KT CAVOK 02/01 Q1019=
201112240315 METAR LIRA 240315Z 00000KT CAVOK 02/01 Q1020=
201112240245 METAR LIRA 240245Z 12002KT CAVOK 03/01 Q1020=
201112240215 METAR LIRA 240215Z 08002KT CAVOK 03/01 Q1020=
201112240145 METAR LIRA 240145Z 06002KT CAVOK 03/02 Q1020=
201112240115 METAR LIRA 240115Z 02002KT CAVOK 03/02 Q1020=
201112240045 METAR LIRA 240045Z 35002KT CAVOK 04/02 Q1020=
201112240015 METAR LIRA 240015Z 00000KT CAVOK 04/02 Q1020=
201112232350 METAR LIRA 240045Z 35002KT CAVOK 04/02 Q1020=
201112232345 METAR LIRA 232345Z 03001KT CAVOK 05/02 Q1020=
201112232315 METAR LIRA 232315Z 10007KT CAVOK 05/02 Q1020=
201112232245 METAR LIRA 232245Z 09005KT CAVOK 05/03 Q1020=
201112232215 METAR LIRA 232215Z 08007KT CAVOK 05/03 Q1021=
201112232145 METAR LIRA 232145Z 09005KT CAVOK 05/03 Q1021=
201112232115 METAR LIRA 232115Z 09004KT CAVOK 05/03 Q1021=
201112232045 METAR LIRA 232045Z 12004KT CAVOK 05/03 Q1021=
201112232015 METAR LIRA 232015Z 16001KT CAVOK 05/03 Q1021=
201112231945 METAR LIRA 231945Z 00000KT CAVOK 06/03 Q1021=
201112231915 METAR LIRA 231915Z 15003KT CAVOK 05/03 Q1021=
201112231845 METAR LIRA 231845Z 16005KT CAVOK 05/03 Q1021=
201112231815 METAR LIRA 231815Z 26003KT CAVOK 07/04 Q1020=
201112231745 METAR LIRA 231745Z 15004KT CAVOK 08/03 Q1020=
201112231715 METAR LIRA 231715Z 06004KT CAVOK 09/04 Q1020=
201112231645 METAR LIRA 231645Z 14004KT CAVOK 10/03 Q1020=
201112231615 METAR LIRA 231615Z 04003KT CAVOK 12/03 Q1019=
201112231545 METAR LIRA 231545Z 18002KT CAVOK 12/03 Q1019=
201112231515 METAR LIRA 231515Z 35003KT CAVOK 14/03 Q1019=
201112231445 METAR LIRA 231445Z 33003KT CAVOK 14/03 Q1019=
201112231415 METAR LIRA 231415Z 36004KT CAVOK 14/03 Q1019=
201112231345 METAR LIRA 231345Z 35005KT CAVOK 13/02 Q1019=
201112231315 METAR LIRA 231315Z 04004KT CAVOK 13/03 Q1019=
201112231245 METAR LIRA 231245Z 02004KT CAVOK 13/02 Q1019=
201112231215 METAR LIRA 231215Z 36004KT CAVOK 13/03 Q1020=
201112231145 METAR LIRA 231145Z 09003KT CAVOK 12/03 Q1020=
201112231115 METAR LIRA 231115Z 05003KT CAVOK 11/03 Q1020=
201112231045 METAR LIRA 231045Z 04005KT CAVOK 10/02 Q1020=
201112231015 METAR LIRA 231015Z 03004KT CAVOK 09/02 Q1020=
201112230945 METAR LIRA 230945Z 04005KT 360V070 CAVOK 08/01 Q1021=
201112230915 METAR LIRA 230915Z 02005KT 330V060 CAVOK 08/01 Q1021=
201112230845 METAR LIRA 230845Z 03003KT CAVOK 07/01 Q1021=
201112230815 METAR LIRA 230815Z 05004KT CAVOK 05/00 Q1020=
201112230745 METAR LIRA 230745Z 04004KT CAVOK 04/00 Q1020=
201112230715 METAR LIRA 230715Z 05005KT CAVOK 03/00 Q1020=
201112230645 METAR LIRA 230645Z 07003KT CAVOK 03/00 Q1020=
201112230615 METAR LIRA 230615Z 04002KT CAVOK 02/00 Q1019=
201112230545 METAR LIRA 230545Z 04002KT CAVOK 02/00 Q1019=
201112230515 METAR LIRA 230515Z 03002KT CAVOK 03/00 Q1019=
201112230445 METAR LIRA 230445Z 02002KT CAVOK 02/M01 Q1019=
201112230415 METAR LIRA 230415Z 03003KT CAVOK 02/M00 Q1019=
201112230345 METAR LIRA 230345Z 01002KT CAVOK 02/M01 Q1019=
201112230315 METAR LIRA 230315Z 04004KT CAVOK 02/M01 Q1019=
201112230245 METAR LIRA 230245Z 04004KT CAVOK 02/M01 Q1019=
201112230215 METAR LIRA 230215Z 07003KT CAVOK 02/M01 Q1019=
201112230145 METAR LIRA 230145Z 07003KT CAVOK 02/M00 Q1019=
201112230115 METAR LIRA 230115Z 05005KT CAVOK 03/00 Q1019=
201112230045 METAR LIRA 230045Z 05005KT CAVOK 03/M00 Q1019=
201112230015 METAR LIRA 230015Z 03004KT CAVOK 03/M01 Q1019=
201112222345 METAR LIRA 222345Z 04004KT CAVOK 03/M01 Q1019=
201112222315 METAR LIRA 222315Z 06004KT CAVOK 03/M01 Q1019=
201112222245 METAR LIRA 222245Z 03004KT CAVOK 04/M01 Q1019=
201112222215 METAR LIRA 222215Z 05004KT CAVOK 04/M01 Q1019=
201112222145 METAR LIRA 222145Z 04005KT 010V070 CAVOK 05/M01 Q1019=
201112222115 METAR LIRA 222115Z 35009KT CAVOK 05/M01 Q1019=
201112222045 METAR LIRA 222045Z 35008KT 310V020 CAVOK 05/M01 Q1019=
201112222015 METAR LIRA 222015Z 03004KT CAVOK 05/M01 Q1019=
201112221945 METAR LIRA 221945Z 35007KT 310V030 CAVOK 05/M01 Q1018=
201112221915 METAR LIRA 221915Z 35004KT 320V020 CAVOK 06/M01 Q1018=
201112221845 METAR LIRA 221845Z 33003KT CAVOK 06/M01 Q1018=
201112221815 METAR LIRA 221815Z 33006KT CAVOK 06/M01 Q1017=
201112221745 METAR LIRA 221745Z 32009KT CAVOK 07/M01 Q1017=
201112221715 METAR LIRA 221715Z 32010KT 9999 FEW070 07/M02 Q1017=
201112221645 METAR LIRA 221645Z 32010KT 9999 FEW070 07/M01 Q1017=
201112221615 METAR LIRA 221615Z 34012KT 9999 FEW020 08/M03 Q1016=
201112221545 METAR LIRA 221545Z 35013KT 9999 FEW020 09/M03 Q1016=
201112221515 METAR LIRA 221515Z 35013KT 9999 FEW020 10/M03 Q1016=
201112221445 METAR LIRA 221445Z 34014G25KT 9999 FEW020 10/M02 Q1016=
201112221415 METAR LIRA 221415Z 03015KT 290V010 9999 FEW020 11/M01 Q1016=
201112221345 METAR LIRA 221345Z 33014G26KT 9999 FEW020 10/M01 Q1016=
201112221315 METAR LIRA 221315Z 33016G27KT 9999 FEW020 10/M01 Q1016=
201112221245 METAR LIRA 221245Z 33017KT 9999 FEW020 10/M01 Q1016=
201112221215 METAR LIRA 221215Z 33014KT 9999 FEW020 10/M00 Q1016=
201112221145 METAR LIRA 221145Z 33014KT 9999 FEW020 09/00 Q1017=
201112221115 METAR LIRA 221115Z 34012KT 9999 FEW020 09/M00 Q1017=
201112221045 METAR LIRA 221045Z 34005KT 310V030 9999 FEW020 08/M01 Q1017=
201112221015 METAR LIRA 221015Z 05001KT 9999 FEW020 06/M01 Q1017=
201112220945 METAR LIRA 220945Z 08002KT 9999 FEW020 06/M00 Q1017=
201112220915 METAR LIRA 220915Z 08002KT 9999 FEW020 05/M01 Q1017=
201112220845 METAR LIRA 220845Z 03004KT CAVOK 03/M01 Q1017=
201112220815 METAR LIRA 220815Z 05004KT CAVOK 03/M01 Q1017=
201112220745 METAR LIRA 220745Z 06004KT CAVOK 02/M01 Q1016=
201112220715 METAR LIRA 220715Z 07005KT CAVOK 01/M02 Q1016=
201112220645 METAR LIRA 220645Z 06005KT CAVOK 01/M02 Q1016=
201112220615 METAR LIRA 220615Z 05005KT CAVOK 01/M02 Q1015=
201112220545 METAR LIRA 220545Z 04003KT CAVOK 01/M02 Q1015=
201112220515 METAR LIRA 220515Z 05004KT CAVOK 01/M01 Q1014=
201112220445 METAR LIRA 220445Z 05004KT CAVOK 01/M01 Q1014=
201112220415 METAR LIRA 220415Z 02004KT CAVOK 01/M01 Q1014=
201112220345 METAR LIRA 220345Z 35004KT CAVOK 01/M01 Q1014=
201112220315 METAR LIRA 220315Z 02003KT CAVOK 01/M01 Q1014=
201112220245 METAR LIRA 220245Z 03003KT CAVOK 01/M01 Q1014=
201112220215 METAR LIRA 220215Z 05005KT CAVOK 01/M01 Q1014=
201112220145 METAR LIRA 220145Z 04004KT CAVOK 02/M01 Q1014=
201112220115 METAR LIRA 220115Z 03006KT CAVOK 02/M01 Q1014=
201112220045 METAR LIRA 220045Z 03006KT CAVOK 02/M01 Q1014=
201112220015 METAR LIRA 220015Z 04005KT 360V070 CAVOK 02/M01 Q1014=
201112212350 METAR LIRA 220045Z 03006KT CAVOK 02/M01 Q1014=
201112212345 METAR LIRA 212345Z 05006KT CAVOK 02/M00 Q1014=
201112212315 METAR LIRA 212315Z 04006KT CAVOK 03/M00 Q1014=
201112212245 METAR LIRA 212245Z 05005KT CAVOK 03/M00 Q1014=
201112212215 METAR LIRA 212215Z 03005KT CAVOK 03/M00 Q1013=
201112212145 METAR LIRA 212145Z 05003KT CAVOK 03/00 Q1013=
201112211915 METAR LIRA 211915Z 07003KT CAVOK 05/M00 Q1013=
201112211845 METAR LIRA 211845Z 01002KT CAVOK 05/00 Q1013=
201112211815 METAR LIRA 211815Z 06002KT CAVOK 06/00 Q1013=
201112211745 METAR LIRA 211745Z 05004KT CAVOK 06/M01 Q1013=
201112211715 METAR LIRA 211715Z 03002KT CAVOK 07/M01 Q1013=
201112211645 METAR LIRA 211645Z 04002KT CAVOK 07/M02 Q1013=
201112211615 METAR LIRA 211615Z 02004KT CAVOK 08/M03 Q1013=
201112211545 METAR LIRA 211545Z 02002KT CAVOK 08/M03 Q1012=
201112211515 METAR LIRA 211515Z 34004KT CAVOK 10/M03 Q1012=
201112211445 METAR LIRA 211445Z 34004KT CAVOK 10/M03 Q1012=
201112211415 METAR LIRA 211415Z 35004KT CAVOK 10/M04 Q1013=
201112211345 METAR LIRA 211345Z 34005KT CAVOK 11/M04 Q1013=
201112211315 METAR LIRA 211315Z 23006KT CAVOK 11/M04 Q1013=
201112211245 METAR LIRA 211245Z 36004KT CAVOK 11/M04 Q1013=
201112211215 METAR LIRA 211215Z 04005KT 340V040 CAVOK 11/M04 Q1013=
201112211145 METAR LIRA 211145Z 03003KT 340V060 CAVOK 10/M04 Q1013=
201112211115 METAR LIRA 211115Z 36004KT 320V040 CAVOK 10/M03 Q1013=
201112211045 METAR LIRA 211045Z 36004KT 340V050 CAVOK 08/M02 Q1013=
201112211015 METAR LIRA 211015Z 02005KT 360V080 CAVOK 07/M02 Q1013=
201112210945 METAR LIRA 210945Z 02005KT CAVOK 07/M01 Q1013=
201112210915 METAR LIRA 210915Z 02004KT CAVOK 05/M01 Q1013=
201112210845 METAR LIRA 210845Z 03005KT 310V080 CAVOK 04/M01 Q1013=
201112210815 METAR LIRA 210815Z 02005KT 9999 FEW023 03/M01 Q1012=
201112210745 METAR LIRA 210745Z 04004KT 9999 FEW080 03/M01 Q1012=
201112210715 METAR LIRA 210715Z 03004KT 9999 FEW080 02/M01 Q1012=
201112210645 METAR LIRA 210645Z 04003KT 9999 FEW080 02/M01 Q1012=
201112210615 METAR LIRA 210615Z 05003KT 9999 FEW080 02/M01 Q1012=
201112210545 METAR LIRA 210545Z 03004KT 9999 FEW080 02/M01 Q1011=
201112210515 METAR LIRA 210515Z 06005KT 9999 FEW080 02/M02 Q1011=
201112210445 METAR LIRA 210445Z 04003KT 9999 FEW080 03/M01 Q1011=
201112210415 METAR LIRA 210415Z 03003KT 9999 FEW080 03/M01 Q1011=
201112210345 METAR LIRA 210345Z 03004KT 9999 SCT080 03/M01 Q1010=
201112210315 METAR LIRA 210315Z 04002KT 9999 FEW030 SCT080 04/M00 Q1010=
201112210245 METAR LIRA 210245Z 35004KT 330V050 9999 FEW030 SCT080 04/01
                        Q1010=
201112210215 METAR LIRA 210215Z 35006KT 9999 FEW030 SCT080 04/M02 Q1010=
201112210145 METAR LIRA 210145Z 03004KT 9999 FEW018 SCT070 05/M03 Q1010=
201112210115 METAR LIRA 210115Z 03006KT 9999 FEW018 SCT070 06/M03 Q1010=
201112210045 METAR LIRA 210045Z 06010KT 9999 FEW018 BKN070 06/M03 Q1010=
201112210015 METAR LIRA 210015Z 04007KT 9999 FEW018 BKN070 05/M01 Q1010=
201112202350 METAR LIRA 210045Z 06010KT 9999 FEW018 BKN070 06/M03 Q1010=
201112202345 METAR LIRA 202345Z 03006KT 9999 FEW018 BKN070 06/03 Q1010=
201112202315 METAR LIRA 202315Z 03004KT 9999 FEW018 BKN070 06/03 Q1011=
201112202245 METAR LIRA 202245Z 07004KT 9999 FEW018 BKN070 06/04 Q1011=
201112202215 METAR LIRA 202215Z 08004KT 9999 -RA FEW018 SCT027 BKN070
                        06/04 Q1011=
201112202145 METAR LIRA 202145Z 11009KT 9999 -RA FEW018 SCT027 BKN070
                        06/03 Q1011=
201112202115 METAR LIRA 202115Z 08003KT 9999 -RA FEW018 SCT027 BKN070
                        06/03 Q1012=
201112202045 METAR LIRA 202045Z 09007KT 9999 -RA FEW018 SCT027 BKN070
                        06/03 Q1012=
201112202015 METAR LIRA 202015Z 10005KT 9999 -RA FEW018 SCT027 BKN070
                        06/04 Q1012=
201112201945 METAR LIRA 201945Z 10004KT 9999 -RA FEW018 SCT027 BKN070
                        07/02 Q1012=
201112201915 METAR LIRA 201915Z 10006KT 9999 FEW018 SCT030 06/00 Q1012=
201112201845 METAR LIRA 201845Z 10007KT 9999 FEW018 SCT030 06/00 Q1012=
201112201815 METAR LIRA 201815Z 11006KT 9999 FEW018 SCT030 06/M01 Q1012=
201112201745 METAR LIRA 201745Z 11004KT 9999 SCT030 BKN070 06/M00 Q1012=
201112201715 METAR LIRA 201715Z 12005KT 9999 SCT030 SCT070 05/M01 Q1013=
201112201645 METAR LIRA 201645Z 11006KT 9999 FEW030 SCT080 05/M01 Q1013=
201112201615 METAR LIRA 201615Z 11006KT 9999 FEW030 SCT070 05/M01 Q1013=
201112201545 METAR LIRA 201545Z 10004KT 9999 SCT070 06/M03 Q1013=
201112201515 METAR LIRA 201515Z 09003KT 9999 FEW080 07/M03 Q1014=
201112201445 METAR LIRA 201445Z 07002KT 9999 FEW070 07/M03 Q1014=
201112201415 METAR LIRA 201415Z 00000KT 9999 FEW070 08/M05 Q1014=
201112201345 METAR LIRA 201345Z 01001KT 9999 FEW080 09/M03 Q1014=
201112201315 METAR LIRA 201315Z 35001KT 9999 FEW080 09/M04 Q1015=
201112201245 METAR LIRA 201245Z 02003KT 9999 FEW080 08/M04 Q1015=
201112201215 METAR LIRA 201215Z 05002KT 9999 SCT080 07/M01 Q1015=
201112201145 METAR LIRA 201145Z 05003KT 9999 SCT080 07/M00 Q1016=
201112201115 METAR LIRA 201115Z 36002KT 9999 SCT080 07/M00 Q1016=
201112201045 METAR LIRA 201045Z 02003KT 9999 FEW080 06/M00 Q1017=
201112201015 METAR LIRA 201015Z 35003KT 9999 FEW080 05/M00 Q1017=
201112200945 METAR LIRA 200945Z 05003KT CAVOK 05/01 Q1017=
201112200915 METAR LIRA 200915Z 01002KT CAVOK 05/01 Q1017=
201112200845 METAR LIRA 200845Z 01003KT CAVOK 04/01 Q1016=
201112200815 METAR LIRA 200815Z 02002KT CAVOK 03/01 Q1016=
201112200745 METAR LIRA 200745Z 07003KT CAVOK 02/01 Q1016=
201112200715 METAR LIRA 200715Z 01004KT CAVOK 02/00 Q1016=
201112200645 METAR LIRA 200645Z 02004KT CAVOK 01/M00 Q1016=
201112200615 METAR LIRA 200615Z 36005KT CAVOK 01/M00 Q1015=
201112200545 METAR LIRA 200545Z 33004KT CAVOK 00/M01 Q1015=
201112200515 METAR LIRA 200515Z 36002KT CAVOK 01/M01 Q1015=
201112200445 METAR LIRA 200445Z 05003KT CAVOK 01/M01 Q1014=
201112200415 METAR LIRA 200415Z 01003KT CAVOK 01/M01 Q1014=
201112200345 METAR LIRA 200345Z 01001KT CAVOK 01/M01 Q1014=
201112200315 METAR LIRA 200315Z 05003KT CAVOK 01/M01 Q1014=
201112200245 METAR LIRA 200245Z 04003KT CAVOK 01/M01 Q1014=
201112200215 METAR LIRA 200215Z 05004KT CAVOK 02/M00 Q1014=
201112200145 METAR LIRA 200145Z 03004KT CAVOK 02/M00 Q1014=
201112200115 METAR LIRA 200115Z 05004KT CAVOK 02/00 Q1014=
201112200045 METAR LIRA 200045Z 04004KT 9999 FEW070 02/00 Q1014=
201112200015 METAR LIRA 200015Z 04005KT 9999 FEW070 02/00 Q1014=
201112192350 METAR LIRA 200045Z 04004KT 9999 FEW070 02/00 Q1014=
201112192345 METAR LIRA 192345Z 05004KT 360V070 9999 FEW070 02/01 Q1014=
201112192315 METAR LIRA 192315Z 03003KT 9999 FEW070 03/00 Q1014=
201112192245 METAR LIRA 192245Z 02004KT 9999 FEW070 03/00 Q1014=
201112192215 METAR LIRA 192215Z 36005KT 9999 FEW070 03/00 Q1014=
201112192145 METAR LIRA 192145Z 36004KT 9999 FEW070 03/01 Q1014=
201112192115 METAR LIRA 192115Z 01004KT 9999 FEW070 03/01 Q1013=
201112192045 METAR LIRA 192045Z 03003KT 9999 FEW018 03/01 Q1013=
201112192015 METAR LIRA 192015Z 02003KT 9999 FEW018 04/02 Q1013=
201112191945 METAR LIRA 191945Z 04004KT 9999 FEW018 04/02 Q1013=
201112191915 METAR LIRA 191915Z 02004KT 9999 FEW018 04/02 Q1013=
201112191845 METAR LIRA 191845Z 02005KT 350V080 9999 FEW070 05/01 Q1012=
201112191815 METAR LIRA 191815Z 02004KT 9999 FEW070 05/01 Q1012=
201112191745 METAR LIRA 191745Z 33011KT 9999 FEW070 05/01 Q1011=
201112191715 METAR LIRA 191715Z 34010KT 9999 FEW070 06/01 Q1011=
201112191645 METAR LIRA 191645Z 35009KT 9999 FEW015 FEW017TCU 07/01 Q1011=
201112191615 METAR LIRA 191615Z 34009KT 9999 FEW015 FEW017TCU 07/00 Q1011=
201112191545 METAR LIRA 191545Z 34010KT 9999 FEW015 07/00 Q1010=
201112191515 METAR LIRA 191515Z 34013KT 9999 FEW015 07/M01 Q1010=
201112191445 METAR LIRA 191445Z 34014KT 280V010 9999 FEW015 07/M00 Q1010=
201112191415 METAR LIRA 191415Z 35012KT 300V020 9999 FEW015 08/M00 Q1010=
201112191345 METAR LIRA 191345Z 35013KT 320V030 9999 FEW015 08/M00 Q1010=
201112191315 METAR LIRA 191315Z 35011KT 330V040 9999 FEW015 08/00 Q1010=
201112191245 METAR LIRA 191245Z 35012KT 310V050 9999 FEW015 09/01 Q1010=
201112191215 METAR LIRA 191215Z 36013KT 320V040 9999 FEW015 08/01 Q1010=
201112191145 METAR LIRA 191145Z 36010KT 320V050 9999 FEW015 08/02 Q1010=
201112191115 METAR LIRA 191115Z 36012KT 9999 FEW015 08/03 Q1010=
201112191045 METAR LIRA 191045Z 36008KT 9999 FEW015 07/03 Q1010=
201112191015 METAR LIRA 191015Z 01003KT 9999 FEW015 06/04 Q1010=
201112190945 METAR LIRA 190945Z 02002KT 9999 FEW015 05/04 Q1010=
201112190915 METAR LIRA 190915Z 01003KT 9999 FEW015 SCT080 05/04 Q1010=
201112190845 METAR LIRA 190845Z 04004KT 9999 FEW015 SCT080 04/04 Q1010=
201112190815 METAR LIRA 190815Z 05005KT 9999 FEW015 SCT080 04/04 Q1009=
201112190745 METAR LIRA 190745Z 04003KT 9999 FEW012 03/03 Q1009=
201112190715 METAR LIRA 190715Z 01004KT 9999 FEW012 03/03 Q1009=
201112190645 METAR LIRA 190645Z 36002KT 9999 FEW012 03/03 Q1009=
201112190615 METAR LIRA 190615Z 05004KT 9999 FEW012 04/03 Q1008=
201112190545 METAR LIRA 190545Z 04006KT 9999 FEW014 SCT030 04/03 Q1007=
201112190515 METAR LIRA 190515Z 02004KT 9999 FEW014 04/03 Q1007=
201112190445 METAR LIRA 190445Z 02005KT 9999 FEW014 SCT030 04/03 Q1007=
201112190415 METAR LIRA 190415Z 36007KT 340V060 9999 FEW014 BKN025 03/03
                        Q1007=
201112190345 METAR LIRA 190345Z 02004KT 9999 FEW012 03/03 Q1007=
201112190315 METAR LIRA 190315Z 03004KT 350V060 9999 FEW015 04/03 Q1007=
201112190245 METAR LIRA 190245Z 04004KT 9999 FEW015 04/03 Q1007=
201112190215 METAR LIRA 190215Z 04003KT 9999 FEW015 SCT030 04/03 Q1007=
201112190145 METAR LIRA 190145Z 33003KT 9999 SCT015 FEW020TCU SCT030 04/04
                        Q1007=
201112190115 METAR LIRA 190115Z 01005KT 9999 -RA FEW018 FEW020TCU SCT030
                        04/04 Q1007 RETS=
201112190045 METAR LIRA 190045Z 03003KT 9999 -RA SCT015 FEW018CB SCT030
                        04/04 Q1007 RETS=
201112190015 METAR LIRA 190015Z 16004KT 9999 -TSRA SCT015 FEW018CB SCT030
                        04/04 Q1007=
201112182350 METAR LIRA 190045Z 03003KT 9999 -RA SCT015 FEW018CB SCT030
                        04/04 Q1007 RETS=
201112182345 METAR LIRA 182345Z 14003KT 9999 -TSRA SCT015 FEW018CB BKN030
                        04/04 Q1007=
201112182315 METAR LIRA 182315Z 11015KT 090V160 9999 -TSRA SCT013 FEW018CB
                        BKN030 04/03 Q1007=
201112182245 METAR LIRA 182245Z 13015KT 5000 -TSRA BR SCT013 FEW017CB
                        BKN025 04/04 Q1007=
201112182215 METAR LIRA 182215Z 17015KT 5000 -TSRA BR SCT013 FEW017CB
                        BKN025 05/03 Q1007=
201112182145 METAR LIRA 182145Z 16011KT 9999 -TSRA SCT013 FEW018CB BKN025
                        07/03 Q1007=
201112182115 METAR LIRA 182115Z 17007G17KT 9999 VCTS -RA SCT013 FEW018CB
                        BKN025 06/05 Q1006=
201112182045 METAR LIRA 182045Z 00000KT 9999 VCTS -RA SCT014 FEW018CB
                        SCT025 04/04 Q1006=
201112182015 METAR LIRA 182015Z 00000KT 9999 FEW015 SCT030 04/04 Q1007=
201112181945 METAR LIRA 181945Z 12002KT 9999 FEW014 SCT035 04/04 Q1006=
201112181915 METAR LIRA 181915Z 00000KT 9999 SCT014 SCT035 04/04 Q1006=
201112181845 METAR LIRA 181845Z 00000KT 9999 SCT014 SCT035 05/04 Q1006=
201112181815 METAR LIRA 181815Z 00000KT 9999 SCT014 SCT035 05/05 Q1006=
201112181745 METAR LIRA 181745Z 01001KT 9999 SCT014 SCT025 05/05 Q1006=
201112181715 METAR LIRA 181715Z 02005KT 9999 SCT014 FEW018CB BKN025 05/05
                        Q1006=
201112181645 METAR LIRA 181645Z 02006KT 340V060 9999 SCT015 FEW020CB BKN025
                        05/04 Q1005 RERA=
201112181615 METAR LIRA 181615Z 01005KT 9999 -RA SCT015 FEW020CB BKN025
                        05/04 Q1005=
201112181545 METAR LIRA 181545Z 36005KT 330V050 9999 -RA SCT015 FEW020CB
                        BKN025 05/04 Q1005 RETS=
201112181515 METAR LIRA 181515Z 31003KT 9999 -TSRA SCT015 FEW020CB BKN025
                        05/04 Q1005=
201112181445 METAR LIRA 181445Z 08008KT 050V130 9999 -TSRA SCT015 FEW020CB
                        BKN025 05/05 Q1005=
201112181415 METAR LIRA 181415Z 07005KT 9999 -TSRA SCT015 FEW020CB BKN025
                        05/05 Q1005=
201112181345 METAR LIRA 181345Z 10009KT 7000 -TSRA BR SCT015 FEW020CB
                        BKN025 05/04 Q1005=
201112181315 METAR LIRA 181315Z 12014KT 9999 4000S -TSRA SCT015 FEW020CB
                        SCT025 06/04 Q1005=
201112181245 METAR LIRA 181245Z 12016KT 9999 -TSRA SCT015 FEW020CB SCT025
                        06/04 Q1005=
201112181215 METAR LIRA 181215Z 11014KT 9999 SCT015 FEW020CB SCT025 07/03
                        Q1005=
201112181145 METAR LIRA 181145Z 11007KT 9999 SCT015 FEW020CB SCT025 08/04
                        Q1005=
201112181115 METAR LIRA 181115Z 12013KT 9999 FEW015 FEW020CB SCT025 10/05
                        Q1006=
201112181045 METAR LIRA 181045Z 13005KT 060V170 9999 FEW015 FEW020CB SCT025
                        09/05 Q1006=
201112181015 METAR LIRA 181015Z 24003KT 9999 FEW015 FEW020CB SCT027 07/04
                        Q1007 RETS=
201112180945 METAR LIRA 180945Z 12009KT 9999 FEW015 FEW020CB SCT025 06/05
                        Q1007 RETS=
201112180915 METAR LIRA 180915Z 13008KT 9999 -TSRA SCT015 FEW020CB BKN025
                        06/04 Q1007=
201112180845 METAR LIRA 180845Z 16015G26KT 120V210 9999 -TSRA SCT015 FEW020CB
                        BKN025 06/03 Q1007=
201112180815 METAR LIRA 180815Z 14003KT 9999 SCT015 FEW020CB BKN025 06/03
                        Q1007=
201112180745 METAR LIRA 180745Z 31002KT 9999 SCT018 FEW020CB BKN027 05/03
                        Q1007=
201112180715 METAR LIRA 180715Z 31005KT 9999 SCT018 FEW020CB BKN027 06/02
                        Q1007=
201112180645 METAR LIRA 180645Z 10006KT 9999 FEW018 FEW020CB BKN027 06/01
                        Q1007=
201112180615 METAR LIRA 180615Z 11007KT 9999 FEW018 BKN027 06/01 Q1007=
201112180545 METAR LIRA 180545Z 28002KT 9999 FEW020 SCT060 05/01 Q1007=
201112180515 METAR LIRA 180515Z 10007KT 9999 FEW020 SCT060 04/00 Q1007=
201112180445 METAR LIRA 180445Z 25001KT 9999 FEW040 04/01 Q1007=
201112180415 METAR LIRA 180415Z 11008KT 9999 FEW040 05/01 Q1007=
201112180345 METAR LIRA 180345Z 10006KT 9999 FEW060 SCT070 04/01 Q1007=
201112180315 METAR LIRA 180315Z 10007KT 9999 FEW040 SCT070 05/02 Q1007=
201112180245 METAR LIRA 180245Z 06003KT 9999 FEW040 SCT070 04/03 Q1007=
201112180215 METAR LIRA 180215Z 10002KT 9999 FEW040 SCT070 04/03 Q1007=
201112180145 METAR LIRA 180145Z 07003KT 9999 FEW040 SCT070 04/02 Q1007=
201112180115 METAR LIRA 180115Z 05003KT 9999 FEW040 SCT070 04/02 Q1007=
201112180045 METAR LIRA 180045Z 13003KT 9999 FEW040 SCT070 04/03 Q1007=
201112180015 METAR LIRA 180015Z 13003KT 9999 FEW040 SCT070 05/03 Q1007=
201112172350 METAR LIRA 180045Z 13003KT 9999 FEW040 SCT070 04/03 Q1007=
201112172345 METAR LIRA 172345Z 14004KT 9999 FEW040 05/02 Q1007=
201112172315 METAR LIRA 172315Z 13004KT 9999 FEW040 05/02 Q1007=
201112172245 METAR LIRA 172245Z 12003KT 9999 FEW040 05/02 Q1007=
201112172215 METAR LIRA 172215Z 12002KT 9999 FEW054 05/03 Q1006=
201112172145 METAR LIRA 172145Z 11009KT 9999 FEW054 05/03 Q1006=
201112172115 METAR LIRA 172115Z 10003KT 9999 FEW054 05/02 Q1006=
201112172045 METAR LIRA 172045Z 15006KT 9999 FEW054 05/01 Q1006=
201112172015 METAR LIRA 172015Z 16005KT 9999 FEW060 05/01 Q1006=
201112171945 METAR LIRA 171945Z 16005KT 9999 FEW060 05/01 Q1006=
201112171915 METAR LIRA 171915Z 12001KT 9999 FEW060 05/00 Q1005=
201112171845 METAR LIRA 171845Z 14005KT 9999 FEW060 05/01 Q1005=
201112171815 METAR LIRA 171815Z 09003KT 9999 FEW018 06/00 Q1005=
201112171745 METAR LIRA 171745Z 08005KT 030V130 9999 FEW018 06/01 Q1005=
201112171715 METAR LIRA 171715Z 32005KT 9999 FEW018 SCT060 08/01 Q1005=
201112171645 METAR LIRA 171645Z 11006KT 9999 FEW018 SCT070 06/02 Q1004=
201112171615 METAR LIRA 171615Z 22002KT 9999 FEW015 FEW020TCU SCT070 08/01
                        Q1004=
201112171545 METAR LIRA 171545Z 28003KT 9999 -RA FEW015 FEW020TCU SCT030
                        08/M01 Q1004=
201112171515 METAR LIRA 171515Z 30010KT 240V330 9999 -RA FEW015CB SCT020
                        09/M02 Q1004=
201112171445 METAR LIRA 171445Z 32008KT 300V360 9999 -RA FEW018 FEW020TCU
                        SCT030 09/M00 Q1004 RETS=
201112171415 METAR LIRA 171415Z 30009KT 9999 -RA FEW015 FEW020TCU SCT070
                        09/M00 Q1003 RETS=
201112171345 METAR LIRA 171345Z 28010KT 240V300 9999 -TSRA FEW015CB SCT030
                        09/00 Q1003=
201112171315 METAR LIRA 171315Z 24005KT 220V330 9999 -TSRA FEW015CB SCT018
                        BKN030 08/03 Q1003=
201112171245 METAR LIRA 171245Z 18006KT 9999 -TSRA FEW015CB SCT018 BKN030
                        07/03 Q1003=
201112171215 METAR LIRA 171215Z 24004KT 200V300 9999 -TSRA FEW015CB SCT018
                        BKN030 07/03 Q1003=
201112171145 METAR LIRA 171145Z 06007KT 020V090 9999 -TSRA FEW015CB SCT018
                        BKN030 07/04 Q1002=
201112171115 METAR LIRA 171115Z 03011KT 350V060 9999 -RA FEW015CB SCT018
                        BKN030 07/04 Q1002 RETS=
201112171045 METAR LIRA 171045Z 01013G26KT 340V050 9999 -TSRA FEW015 FEW020CB
                        BKN030 07/04 Q1001=
201112171015 METAR LIRA 171015Z 36014G27KT 320V080 8000 -TSRA FEW015CB
                        SCT017 BKN030 07/04 Q1001=
201112170945 METAR LIRA 170945Z 24006G16KT 220V290 9999 -RA FEW015CB SCT017
                        BKN030 08/05 Q1001=
201112170915 METAR LIRA 170915Z 25009G22KT 210V300 9999 -RA FEW015CB SCT017
                        BKN030 09/04 Q1001=
201112170845 METAR LIRA 170845Z 28014G28KT 240V310 9999 -RA FEW015CB SCT017
                        BKN030 10/03 Q1001=
201112170815 METAR LIRA 170815Z 30016G31KT 270V330 9999 -RA FEW015 FEW018CB
                        SCT025 10/03 Q1001=
201112170745 METAR LIRA 170745Z 35013G25KT 300V020 9999 FEW018 FEW020TCU
                        SCT030 11/04 Q0999=
201112170715 METAR LIRA 170715Z 36006KT 310V050 9999 FEW018 FEW020TCU
                        SCT030 11/02 Q0999=
201112170645 METAR LIRA 170645Z 27011G21KT 220V320 9999 FEW018 FEW020TCU
                        SCT030 11/03 Q0999=
201112170615 METAR LIRA 170615Z 20006KT 170V230 9999 FEW018 SCT030 11/02
                        Q0999=
201112170545 METAR LIRA 170545Z 20002KT 9999 FEW018 SCT060 11/03 Q0999=
201112170515 METAR LIRA 170515Z 30003KT 9999 FEW018 SCT060 12/02 Q0998=
201112170445 METAR LIRA 170445Z 28007KT 9999 FEW018 SCT060 12/01 Q0997=
201112170415 METAR LIRA 170415Z 27008G19KT 230V310 9999 FEW016TCU BKN060
                        12/01 Q0997=
201112170345 METAR LIRA 170345Z 28008KT 250V290 9999 FEW016TCU SCT060
                        12/M03 Q0997=
201112170315 METAR LIRA 170315Z 29006G24KT 220V320 9999 FEW016TCU SCT060
                        13/07 Q0997=
201112170245 METAR LIRA 170245Z 28010G29KT 240V320 9999 FEW016TCU SCT060
                        13/07 Q0997=
201112170215 METAR LIRA 170215Z 25011G21KT 220V290 9999 FEW016TCU SCT060
                        13/08 Q0997=
201112170145 METAR LIRA 170145Z 24006KT 210V280 9999 FEW016TCU SCT060
                        12/09 Q0997=
201112170115 METAR LIRA 170115Z 27003KT 8000 -RA FEW010 FEW016TCU SCT025
                        13/11 Q0997=
201112170045 METAR LIRA 170045Z 28006KT 250V310 8000 -RA FEW010 FEW016TCU
                        SCT025 14/12 Q0997=
201112170015 METAR LIRA 170015Z 26008KT 240V330 8000 -RA FEW010 FEW016TCU
                        SCT025 15/14 Q0996=
201112162350 METAR LIRA 170045Z 28006KT 250V310 8000 -RA FEW010 FEW016TCU
                        SCT025 14/12 Q0997=
201112162345 METAR LIRA 162345Z 24012KT 200V260 7000 -RA FEW010 FEW016TCU
                        SCT025 15/14 Q0997=
201112162315 METAR LIRA 162315Z 22011G27KT 180V280 7000 -RA FEW010 FEW015TCU
                        BKN022 14/13 Q0997 RERA=
201112162245 METAR LIRA 162245Z 21011KT 160V240 6000 -RA FEW010 FEW015TCU
                        BKN022 14/13 Q0997 RERA=
201112162215 METAR LIRA 162215Z 22015G28KT 6000 -RA FEW010 FEW016TCU BKN022
                        14/13 Q0997 RERA=
201112162145 METAR LIRA 162145Z 20018G29KT 9999 -RA FEW011 FEW016TCU SCT025
                        15/13 Q0998=
201112162115 METAR LIRA 162115Z 20015G29KT 160V240 9999 -RA FEW012 FEW016TCU
                        SCT025 16/12 Q0998=
201112162045 METAR LIRA 162045Z 19013KT 9999 -RA FEW015 FEW016TCU SCT025
                        15/13 Q0999=
201112162015 METAR LIRA 162015Z 19015KT 9999 -RA FEW015 FEW016TCU SCT025
                        16/13 Q1000=
201112161945 METAR LIRA 161945Z 17014G26KT 160V220 9999 FEW015 FEW016TCU
                        SCT030 15/13 Q1001=
201112161915 METAR LIRA 161915Z 18014KT 9999 FEW015 FEW017TCU SCT030 15/13
                        Q1002=
201112161845 METAR LIRA 161845Z 18018KT 9999 FEW015 FEW017TCU SCT030 15/13
                        Q1002=
201112161815 METAR LIRA 161815Z 18015KT 9999 FEW015 FEW017TCU SCT030 15/13
                        Q1003=
201112161745 METAR LIRA 161745Z 18014G25KT 9999 SCT015 FEW017TCU 15/13
                        Q1004=
201112161715 METAR LIRA 161715Z 17014KT 9999 FEW016CB SCT025 15/13 Q1004=
201112161645 METAR LIRA 161645Z 17015KT 9999 SCT016 14/11 Q1005=
201112161615 METAR LIRA 161615Z 16013KT 9999 FEW015 SCT025 14/11 Q1006=
201112161545 METAR LIRA 161545Z 17015KT 9999 SCT015 SCT025 14/11 Q1007=
201112161515 METAR LIRA 161515Z 17009KT 9999 SCT015 SCT025 15/11 Q1008=
201112161445 METAR LIRA 161445Z 19010KT 9999 FEW015 SCT080 15/11 Q1008=
201112161415 METAR LIRA 161415Z 19012KT 9999 SCT015 SCT080 15/09 Q1008=
201112161345 METAR LIRA 161345Z 19014KT 9999 FEW018 SCT080 16/11 Q1009=
201112161315 METAR LIRA 161315Z 19014KT 150V240 9999 FEW018 16/11 Q1010=
201112161245 METAR LIRA 161245Z 19014KT 9999 FEW018 16/12 Q1011=
201112161215 METAR LIRA 161215Z 20015KT 170V240 9999 FEW018 16/11 Q1012=
201112161145 METAR LIRA 161145Z 22014KT 9999 FEW018 17/08 Q1013=
201112161115 METAR LIRA 161115Z 22014G25KT 9999 FEW018 17/09 Q1013=
201112161045 METAR LIRA 161045Z 23015G29KT 9999 FEW015 SCT025 16/10 Q1014=
201112161015 METAR LIRA 161015Z 22012G22KT 180V270 9999 SCT015 BKN023
                        15/10 Q1015=
201112160945 METAR LIRA 160945Z 22011G21KT 9999 SCT015 BKN023 15/11 Q1015=
201112160915 METAR LIRA 160915Z 22009G20KT 190V240 9999 FEW015 SCT023
                        16/12 Q1016=
201112160845 METAR LIRA 160845Z 21010KT 180V250 9999 FEW016 SCT023 15/11
                        Q1016=
201112160815 METAR LIRA 160815Z 20009KT 160V230 9999 FEW015 SCT023 13/11
                        Q1016=
201112160745 METAR LIRA 160745Z 24005KT 170V270 9999 FEW012 SCT023 13/10
                        Q1016=
201112160715 METAR LIRA 160715Z 16006KT 9999 SCT012 BKN023 12/09 Q1017=
201112160645 METAR LIRA 160645Z 17006KT 9999 SCT012 BKN023 12/09 Q1017=
201112160615 METAR LIRA 160615Z 17005KT 9999 SCT015 BKN023 12/09 Q1016=
201112160545 METAR LIRA 160545Z 14007KT 9999 FEW017 SCT070 10/09 Q1017=
201112160515 METAR LIRA 160515Z 13006KT 9999 FEW017 08/07 Q1017=
201112160445 METAR LIRA 160445Z 16005KT 9999 FEW017 09/07 Q1017=
201112160415 METAR LIRA 160415Z 16003KT 9999 FEW017 09/05 Q1017=
201112160345 METAR LIRA 160345Z 19001KT 9999 FEW017 09/06 Q1018=
201112160315 METAR LIRA 160315Z 00000KT 9999 FEW017 08/05 Q1018=
201112160245 METAR LIRA 160245Z 12003KT 9999 FEW017 08/06 Q1018=
201112160215 METAR LIRA 160215Z 10006KT 9999 FEW017 07/05 Q1018=
201112160200 METAR LIRA CONTUS=
201112160145 METAR LIRA 160145Z 06002KT 9999 FEW017 07/05 Q1018=
201112160115 METAR LIRA 160115Z 05001KT 9999 FEW017 09/06 Q1018=
201112160045 METAR LIRA 160045Z 10001KT 9999 FEW017 09/06 Q1018=
201112160015 METAR LIRA 160015Z 00000KT 9999 FEW017 10/07 Q1018=
201112152350 METAR LIRA 160045Z 10001KT 9999 FEW017 09/06 Q1018=
201112152345 METAR LIRA 152345Z 05002KT 9999 FEW017 11/07 Q1019=
201112152315 METAR LIRA 152315Z 05002KT 9999 FEW017 11/08 Q1019=
201112152245 METAR LIRA 152245Z 05005KT 9999 FEW017 12/08 Q1019=
201112152215 METAR LIRA 152215Z 34004KT 9999 FEW015 12/08 Q1019=
201112152145 METAR LIRA 152145Z 00000KT 9999 FEW015 SCT080 12/09 Q1018=
201112152115 METAR LIRA 152115Z 22001KT 9999 FEW080 12/09 Q1017=
201112152045 METAR LIRA 152045Z 27003KT 9999 FEW080 13/09 Q1017=
201112152015 METAR LIRA 152015Z 23003KT 9999 FEW080 12/09 Q1017=
201112151945 METAR LIRA 151945Z 22003KT 9999 FEW080 11/08 Q1017=
201112151915 METAR LIRA 151915Z 25002KT 9999 FEW080 11/09 Q1017=
201112151845 METAR LIRA 151845Z 22003KT 9999 FEW080 12/09 Q1016=
201112151815 METAR LIRA 151815Z 18004KT CAVOK 12/10 Q1017=
201112151745 METAR LIRA 151745Z 20003KT CAVOK 12/10 Q1017=
201112151715 METAR LIRA 151715Z 19002KT 9999 FEW016 FEW017TCU 12/11 Q1017=
201112151645 METAR LIRA 151645Z 19003KT 9999 FEW016 FEW017TCU 12/11 Q1016=
201112151615 METAR LIRA 151615Z 18002KT 9999 FEW016 FEW017TCU 13/11 Q1016=
201112151545 METAR LIRA 151545Z 22002KT 9999 FEW017TCU 14/11 Q1016=
201112151515 METAR LIRA 151515Z 25002KT 9999 FEW017TCU 15/11 Q1016=
201112151445 METAR LIRA 151445Z 22002KT 9999 FEW017 15/11 Q1016=
201112151415 METAR LIRA 151415Z 28003KT 9999 FEW015 FEW016TCU 16/11 Q1016=
201112151345 METAR LIRA 151345Z 28006KT 240V300 9999 FEW015 FEW016CB 16/11
                        Q1016=
201112151315 METAR LIRA 151315Z 28008KT 9999 FEW015 FEW016CB SCT017 16/12
                        Q1016=
201112151245 METAR LIRA 151245Z 27009KT 230V320 9999 FEW015 FEW016CB SCT017
                        16/12 Q1017=
201112151215 METAR LIRA 151215Z 26010KT 9999 SCT016 FEW017TCU 16/12 Q1017=
201112151145 METAR LIRA 151145Z 26011G21KT 220V300 9999 SCT016 FEW017TCU
                        16/12 Q1017=
201112151115 METAR LIRA 151115Z 24010KT 200V270 9999 SCT016 FEW017TCU
                        16/12 Q1018=
201112151045 METAR LIRA 151045Z 24011KT 210V290 9999 SCT016 FEW017TCU
                        SCT070 16/13 Q1018=
201112151015 METAR LIRA 151015Z 24009KT 9999 SCT016 FEW017TCU SCT070 16/13
                        Q1018=
201112150945 METAR LIRA 150945Z 22005KT 9999 SCT016 FEW017TCU SCT070 16/14
                        Q1018=
201112150915 METAR LIRA 150915Z 20004KT 9999 SCT015 FEW017TCU SCT070 15/13
                        Q1018=
201112150845 METAR LIRA 150845Z 17003KT 9999 SCT015 FEW018TCU SCT023 15/14
                        Q1018=
201112150815 METAR LIRA 150815Z 17003KT 9999 SCT015 FEW018TCU SCT023 15/14
                        Q1018=
201112150745 METAR LIRA 150745Z 22003KT 9999 SCT015 FEW018TCU SCT023 15/14
                        Q1018=
201112150715 METAR LIRA 150715Z 21004KT 9999 SCT015 FEW018TCU 15/14 Q1018=
201112150645 METAR LIRA 150645Z 19005KT 9999 SCT015 FEW018TCU 14/13 Q1018=
201112150615 METAR LIRA 150615Z 17004KT 9999 FEW016 FEW020TCU 14/12 Q1018=
201112150545 METAR LIRA 150545Z 17003KT 9999 FEW016 FEW020TCU 15/14 Q1018=
201112150515 METAR LIRA 150515Z 18004KT 9999 FEW016 FEW020TCU 15/13 Q1018=
201112150445 METAR LIRA 150445Z 19005KT 9999 FEW017 FEW020TCU SCT070 15/13
                        Q1018=
201112150415 METAR LIRA 150415Z 19005KT 9999 FEW017 FEW020TCU SCT070 15/13
                        Q1018=
201112150345 METAR LIRA 150345Z 20007KT 9999 FEW017 FEW020TCU SCT070 15/13
                        Q1018=
201112150315 METAR LIRA 150315Z 18006KT 9999 FEW017 SCT070 15/13 Q1018=
201112150245 METAR LIRA 150245Z 17008KT 9999 FEW017 SCT070 15/13 Q1018=
201112150215 METAR LIRA 150215Z 17007KT 9999 FEW017 SCT070 15/13 Q1018=
201112150145 METAR LIRA 150145Z 16010KT 9999 FEW017 SCT070 15/13 Q1018=
201112150115 METAR LIRA 150115Z 18009KT 9999 FEW017 SCT070 15/13 Q1018=
201112150045 METAR LIRA 150045Z 17007KT 9999 FEW017 15/13 Q1018=
201112150015 METAR LIRA 150015Z 16006KT 9999 FEW017 15/14 Q1018=
201112142350 METAR LIRA 150045Z 17007KT 9999 FEW017 15/13 Q1018=
201112142345 METAR LIRA 142345Z 17007KT 9999 FEW017 SCT070 15/14 Q1018=
201112142315 METAR LIRA 142315Z 17006KT 9999 FEW017 SCT070 15/14 Q1018=
201112142245 METAR LIRA 142245Z 17007KT 9999 FEW017 SCT070 15/14 Q1018=
201112142215 METAR LIRA 142215Z 17008KT 9999 FEW017 SCT070 15/14 Q1018=
201112142145 METAR LIRA 142145Z 16008KT 9999 FEW017 SCT070 15/14 Q1018=
201112142115 METAR LIRA 142115Z 16008KT 9999 FEW017 SCT070 15/14 Q1018=
201112142045 METAR LIRA 142045Z 17007KT 9999 FEW017 SCT025 15/13 Q1018=
201112142015 METAR LIRA 142015Z 19007KT 9999 FEW015 BKN030 15/13 Q1018=
201112141945 METAR LIRA 141945Z 16008KT 9999 FEW015 BKN030 16/13 Q1018=
201112141915 METAR LIRA 141915Z 16006KT 9999 FEW015 BKN030 16/14 Q1018=
201112141845 METAR LIRA 141845Z 17007KT 9999 FEW015 BKN030 16/14 Q1018=
201112141815 METAR LIRA 141815Z 16007KT 9999 FEW015 BKN030 15/14 Q1018=
201112141745 METAR LIRA 141745Z 16005KT 9999 FEW015 BKN030 15/14 Q1018=
201112141715 METAR LIRA 141715Z 17006KT 9999 FEW015 BKN025 15/14 Q1018=
201112141645 METAR LIRA 141645Z 17006KT 9999 FEW015 BKN030 15/14 Q1018=
201112141615 METAR LIRA 141615Z 17005KT 9999 FEW015 BKN030 16/15 Q1018=
201112141545 METAR LIRA 141545Z 18006KT 9999 SCT015 FEW017TCU SCT030 16/15
                        Q1018=
201112141515 METAR LIRA 141515Z 19006KT 9999 SCT015 FEW017TCU SCT030 16/15
                        Q1018=
201112141445 METAR LIRA 141445Z 17005KT 9999 SCT015 FEW017TCU SCT030 16/15
                        Q1018=
201112141415 METAR LIRA 141415Z 18005KT 9999 SCT015 FEW017TCU 16/15 Q1018=
201112141345 METAR LIRA 141345Z 17007KT 9999 SCT015 FEW017TCU 16/15 Q1018=
201112141315 METAR LIRA 141315Z 17009KT 9999 SCT015 FEW017TCU 16/15 Q1018=
201112141245 METAR LIRA 141245Z 19008KT 9999 FEW015 FEW018TCU SCT030 16/15
                        Q1019=
201112141215 METAR LIRA 141215Z 16010KT 9999 FEW015 FEW018TCU BKN030 16/14
                        Q1019=
201112141145 METAR LIRA 141145Z 17011KT 130V220 9999 -RA FEW015 FEW018TCU
                        BKN030 16/15 Q1019=
201112141115 METAR LIRA 141115Z 16010KT 9999 -RA FEW015 FEW018TCU BKN030
                        15/14 Q1019=
201112140845 METAR LIRA 140845Z 16014KT 9999 FEW015 BKN030 15/11 Q1019=
201112140815 METAR LIRA 140815Z 17011KT 130V200 9999 FEW015 SCT030 15/12
                        Q1019=
201112140745 METAR LIRA 140745Z 16012KT 9999 SCT015 BKN030 15/12 Q1019=
201112140715 METAR LIRA 140715Z 15012KT 9999 FEW016 BKN030 14/11 Q1019=
201112140645 METAR LIRA 140645Z 15011KT 9999 FEW016 BKN030 14/11 Q1019=
201112140615 METAR LIRA 140615Z 15010KT 9999 FEW016 SCT030 14/12 Q1019=
201112140545 METAR LIRA 140545Z 14009KT 9999 FEW016 SCT030 14/11 Q1018=
201112140515 METAR LIRA 140515Z 15010KT 9999 FEW016 SCT030 14/11 Q1018=
201112140445 METAR LIRA 140445Z 15010KT 9999 FEW016 SCT030 14/12 Q1019=
201112140415 METAR LIRA 140415Z 15011KT 9999 SCT016 FEW018TCU SCT030 13/11
                        Q1019=
201112140345 METAR LIRA 140345Z 16009KT 9999 SCT013 SCT035 13/11 Q1019=
201112140315 METAR LIRA 140315Z 15008KT 9999 FEW013 BKN035 13/11 Q1019=
201112140245 METAR LIRA 140245Z 16008KT 8000 -RA SCT017 FEW020TCU SCT035
                        13/11 Q1020=
201112140215 METAR LIRA 140215Z 16007KT 9999 FEW018 FEW020TCU BKN035 13/11
                        Q1019=
201112140145 METAR LIRA 140145Z 15007KT 9999 FEW018 FEW020TCU SCT030 13/10
                        Q1019=
201112140115 METAR LIRA 140115Z 00000KT 9999 FEW018 FEW020TCU SCT030 10/09
                        Q1020=
201112140045 METAR LIRA 140045Z 00000KT 9999 FEW018 FEW020TCU SCT030 10/09
                        Q1020=
201112140015 METAR LIRA 140015Z 02002KT 9999 -DZ FEW018 FEW020TCU SCT030
                        09/08 Q1020=
201112132350 METAR LIRA 140045Z 00000KT 9999 FEW018 FEW020TCU SCT030 10/09
                        Q1020=
201112132345 METAR LIRA 132345Z 02001KT 9999 -DZ FEW018 FEW020TCU SCT030
                        09/08 Q1020=
201112132315 METAR LIRA 132315Z 02002KT 9999 FEW018 FEW020TCU SCT030 09/07
                        Q1020=
201112132245 METAR LIRA 132245Z 00000KT 9999 FEW018 FEW020TCU SCT030 10/08
                        Q1020=
201112132215 METAR LIRA 132215Z 16002KT 9999 FEW018 FEW020TCU SCT030 10/07
                        Q1020=
201112132145 METAR LIRA 132145Z 15002KT 9999 FEW018 FEW020TCU SCT030 10/07
                        Q1020=
201112132115 METAR LIRA 132115Z 11007KT 9999 FEW020 SCT030 09/05 Q1020=
201112132045 METAR LIRA 132045Z 10007KT 9999 FEW030 09/05 Q1020=
201112132015 METAR LIRA 132015Z 11007KT 9999 FEW080 09/06 Q1020=
201112131945 METAR LIRA 131945Z 11008KT 9999 FEW080 09/06 Q1020=
201112131915 METAR LIRA 131915Z 12004KT 9999 FEW010 08/06 Q1020=
201112131845 METAR LIRA 131845Z 13002KT CAVOK 09/07 Q1020=
201112131815 METAR LIRA 131815Z 14002KT CAVOK 09/07 Q1020=
201112131745 METAR LIRA 131745Z 13002KT CAVOK 09/07 Q1020=
201112131715 METAR LIRA 131715Z 13002KT CAVOK 09/07 Q1019=
201112131645 METAR LIRA 131645Z 13001KT 9999 FEW070 09/06 Q1018=
201112131615 METAR LIRA 131615Z 11004KT 9999 FEW070 SCT200 09/06 Q1018=
201112131545 METAR LIRA 131545Z 10002KT 9999 FEW020 SCT200 11/06 Q1018=
201112131515 METAR LIRA 131515Z 06001KT 9999 FEW020 SCT200 12/06 Q1018=
201112131445 METAR LIRA 131445Z 07003KT 9999 FEW020 SCT200 12/07 Q1018=
201112131415 METAR LIRA 131415Z 06001KT 9999 FEW020 SCT070 13/07 Q1018=
201112131345 METAR LIRA 131345Z 02002KT 9999 FEW020 BKN200 13/07 Q1018=
201112131315 METAR LIRA 131315Z 04002KT 9999 FEW020 BKN200 14/07 Q1018=
201112131245 METAR LIRA 131245Z 01003KT 9999 FEW020 BKN200 14/07 Q1018=
201112131215 METAR LIRA 131215Z 02003KT 9999 FEW020 SCT200 14/07 Q1018=
201112131145 METAR LIRA 131145Z 35003KT 9999 FEW020 SCT200 13/08 Q1018=
201112131115 METAR LIRA 131115Z 36002KT 9999 FEW020 SCT200 13/08 Q1018=
201112131045 METAR LIRA 131045Z 34003KT 9999 FEW020 SCT200 13/08 Q1018=
201112131015 METAR LIRA 131015Z 06002KT 9999 FEW070 SCT200 12/08 Q1018=
201112130945 METAR LIRA 130945Z 02002KT 9999 FEW070 SCT200 12/09 Q1018=
201112130915 METAR LIRA 130915Z 04002KT 9999 FEW070 11/09 Q1018=
201112130845 METAR LIRA 130845Z 03001KT 9999 FEW070 11/09 Q1017=
201112130815 METAR LIRA 130815Z 02002KT 9999 FEW070 10/08 Q1017=
201112130745 METAR LIRA 130745Z 12002KT 9999 FEW070 08/07 Q1017=
201112130715 METAR LIRA 130715Z 09002KT 9999 FEW070 07/06 Q1016=
201112130645 METAR LIRA 130645Z 16002KT 9999 FEW070 06/05 Q1016=
201112130615 METAR LIRA 130615Z 00000KT 9999 FEW070 06/05 Q1015=
201112130545 METAR LIRA 130545Z 04002KT 9999 FEW018 06/05 Q1015=
201112130515 METAR LIRA 130515Z 00000KT 9999 FEW018 06/05 Q1015=
201112130445 METAR LIRA 130445Z 00000KT 9999 FEW016 06/05 Q1015=
201112130415 METAR LIRA 130415Z 01002KT 9999 FEW016 08/07 Q1014=
201112130345 METAR LIRA 130345Z 36002KT 9999 FEW016 09/07 Q1014=
201112130315 METAR LIRA 130315Z 34003KT 9999 FEW016 10/07 Q1014=
201112130245 METAR LIRA 130245Z 35003KT 9999 FEW016 10/07 Q1014=
201112130215 METAR LIRA 130215Z 32002KT 9999 FEW014 SCT025 11/08 Q1014=
201112130145 METAR LIRA 130145Z 32002KT 9999 FEW014 SCT025 11/08 Q1014=
201112130115 METAR LIRA 130115Z 27004KT 9999 FEW013 SCT025 12/10 Q1014=
201112130045 METAR LIRA 130045Z 15007KT 9999 FEW013 SCT025 12/10 Q1014=
201112130015 METAR LIRA 130015Z 15008KT 9999 FEW013 SCT025 12/10 Q1014=
201112122350 METAR LIRA 130045Z 15007KT 9999 FEW013 SCT025 12/10 Q1014=
201112122345 METAR LIRA 122345Z 18005KT 9999 SCT013 SCT025 13/10 Q1014=
201112122315 METAR LIRA 122315Z 17006KT 160V230 9999 SCT013 SCT025 13/09
                        Q1014=
201112122245 METAR LIRA 122245Z 21006KT 180V250 9999 SCT013 SCT025 13/09
                        Q1014=
201112122215 METAR LIRA 122215Z 21007KT 180V250 9999 FEW013 SCT025 13/09
                        Q1014=
201112122145 METAR LIRA 122145Z 19007KT 9999 FEW013 SCT025 13/10 Q1014=
201112122115 METAR LIRA 122115Z 19007KT 9999 FEW013 SCT025 13/11 Q1014=
201112122045 METAR LIRA 122045Z 19006KT 170V230 9999 FEW013 SCT025 13/11
                        Q1014=
201112122015 METAR LIRA 122015Z 18007KT 9999 FEW013 SCT025 13/11 Q1014=
201112121945 METAR LIRA 121945Z 18007KT 9999 FEW013 SCT025 13/11 Q1014=
201112121915 METAR LIRA 121915Z 18006KT 9999 FEW013 SCT025 13/11 Q1014=
201112121845 METAR LIRA 121845Z 18006KT 9999 FEW013 SCT025 13/11 Q1013
                        RETS=
201112121815 METAR LIRA 121815Z 17005KT 9999 FEW013 SCT025 13/12 Q1013
                        RETS=
201112121745 METAR LIRA 121745Z 16004KT 9999 TS FEW013 FEW017CB SCT060
                        13/12 Q1013=
201112121715 METAR LIRA 121715Z 15005KT 9999 TS FEW013 FEW017CB SCT060
                        12/11 Q1013=
201112121645 METAR LIRA 121645Z 15005KT 9999 -TSRA FEW013 FEW017CB SCT025
                        BKN060 13/11 Q1014=
201112121615 METAR LIRA 121615Z 16005KT 8000 -TSRA FEW013 FEW017CB SCT025
                        BKN060 13/11 Q1014=
201112121545 METAR LIRA 121545Z 18008KT 160V220 4000 -TSRA BR FEW013 FEW017CB
                        SCT025 13/12 Q1014=
201112121515 METAR LIRA 121515Z 21004KT 5000 -TSRA BR FEW015 FEW020CB
                        SCT025 BKN060 15/13 Q1014=
201112121445 METAR LIRA 121445Z 17009KT 9999 TS FEW015 FEW020CB SCT025
                        15/12 Q1014=
201112121415 METAR LIRA 121415Z 17010KT 9999 VCTS FEW015 FEW020CB SCT030
                        15/11 Q1013=
201112121345 METAR LIRA 121345Z 16014KT 9999 VCTS FEW015 FEW020CB SCT030
                        15/11 Q1013=
201112121315 METAR LIRA 121315Z 17012KT 9999 VCTS FEW015 FEW020CB SCT030
                        15/13 Q1014=
201112121245 METAR LIRA 121245Z 15010KT 9999 FEW018 FEW020CB SCT025 17/13
                        Q1014=
201112121215 METAR LIRA 121215Z 16012KT 9999 FEW018 FEW022TCU SCT060 16/12
                        Q1015=
201112121145 METAR LIRA 121145Z 16013KT 9999 FEW018 FEW022TCU SCT070 16/11
                        Q1015=
201112121115 METAR LIRA 121115Z 16012KT 9999 FEW018 FEW020TCU SCT060 15/11
                        Q1015=
201112121045 METAR LIRA 121045Z 16013KT 9999 FEW018 FEW020TCU SCT060 15/11
                        Q1015=
201112121015 METAR LIRA 121015Z 16012KT 9999 -RA FEW018 FEW020TCU SCT030
                        14/12 Q1016 RETS=
201112120945 METAR LIRA 120945Z 16010KT 9999 -RA FEW015 FEW020TCU SCT025
                        14/12 Q1016 RETS=
201112120915 METAR LIRA 120915Z 17006KT 9999 -TSRA FEW014 FEW020CB SCT025
                        BKN060 13/11 Q1016=
201112120845 METAR LIRA 120845Z 16009KT 8000 -TSRA FEW014 FEW018CB SCT024
                        BKN060 11/10 Q1016=
201112120815 METAR LIRA 120815Z 16010KT 7000 TSRA FEW014 FEW018CB SCT024
                        BKN060 11/10 Q1016=
201112120745 METAR LIRA 120745Z 15007KT 6000 TSRA FEW014 FEW017CB SCT024
                        BKN060 11/10 Q1016=
201112120715 METAR LIRA 120715Z 11009KT 5000 TSRA BR FEW013 FEW015CB SCT022
                        BKN060 10/10 Q1016=
201112120645 METAR LIRA 120645Z 13006KT 070V210 5000 TSRA BR FEW013CB
                        SCT018 BKN022 10/10 Q1017=
201112120615 METAR LIRA 120615Z 03008KT 5000 TSRA BR FEW013CB SCT018 BKN022
                        10/10 Q1017=
201112120545 METAR LIRA 120545Z 03012KT 350V060 5000 TSRA BR FEW013CB
                        SCT018 BKN022 11/11 Q1016=
201112120515 METAR LIRA 120515Z 35016KT 330V050 5000 TSRA FEW013CB SCT018
                        BKN022 11/11 Q1016=
201112120445 METAR LIRA 120445Z 05009KT 6000 TSRA FEW013CB SCT018 BKN022
                        12/12 Q1016=
201112120415 METAR LIRA 120415Z 02005KT 310V050 6000 TSRA FEW013CB SCT018
                        BKN022 13/12 Q1017=
201112120345 METAR LIRA 120345Z 35002KT 6000 TSRA FEW011CB SCT018 BKN020
                        13/13 Q1017=
201112120315 METAR LIRA 120315Z 10005KT 8000 TSRA FEW018CB SCT020 BKN022
                        13/13 Q1017=
201112120245 METAR LIRA 120245Z 15005KT 9999 -TSRA FEW018CB BKN022 14/13
                        Q1017=
201112120215 METAR LIRA 120215Z 14009KT 9999 -TSRA FEW018CB SCT025 13/12
                        Q1018=
201112120145 METAR LIRA 120145Z 14006KT 9999 FEW018 SCT070 13/12 Q1018=
201112120115 METAR LIRA 120115Z 11003KT 9999 FEW018 SCT070 13/12 Q1019=
201112120045 METAR LIRA 120045Z 13003KT 9999 FEW018 SCT080 13/12 Q1019=
201112120015 METAR LIRA 120015Z 14004KT 9999 FEW018 SCT080 13/12 Q1019=
201112112350 METAR LIRA 120045Z 13003KT 9999 FEW018 SCT080 13/12 Q1019=
201112112345 METAR LIRA 112345Z 13006KT 9999 FEW018 SCT080 13/12 Q1019=
201112112315 METAR LIRA 112315Z 18004KT 9999 FEW018 SCT080 12/12 Q1019=
201112112245 METAR LIRA 112245Z 15004KT 9999 FEW018 SCT080 12/11 Q1019=
201112112215 METAR LIRA 112215Z 15006KT 9999 FEW018 12/11 Q1019=
201112112145 METAR LIRA 112145Z 14006KT 9999 FEW018 12/11 Q1019=
201112112115 METAR LIRA 112115Z 14005KT 9999 FEW018 12/11 Q1019=
201112112045 METAR LIRA 112045Z 13004KT 9999 FEW018 SCT080 12/11 Q1019=
201112112015 METAR LIRA 112015Z 13007KT 9999 FEW018 SCT080 13/13 Q1019=
201112111945 METAR LIRA 111945Z 13004KT 9999 FEW018 SCT080 13/13 Q1019=
201112111915 METAR LIRA 111915Z 20002KT 9999 FEW018 SCT080 14/13 Q1019=
201112111845 METAR LIRA 111845Z 19003KT 9999 FEW018 SCT080 14/13 Q1019=
201112111815 METAR LIRA 111815Z 19003KT 9999 FEW018 SCT080 13/12 Q1019=
201112111745 METAR LIRA 111745Z 15003KT 9999 FEW018 SCT080 13/12 Q1019=
201112111715 METAR LIRA 111715Z 15003KT 9999 FEW018 SCT080 12/12 Q1019=
201112111645 METAR LIRA 111645Z 17003KT 9999 FEW018 SCT080 14/12 Q1019=
201112111615 METAR LIRA 111615Z 21002KT 9999 FEW018 SCT080 14/13 Q1019=
201112111545 METAR LIRA 111545Z 22003KT 9999 FEW015 SCT080 15/13 Q1019=
201112111515 METAR LIRA 111515Z 21002KT 9999 FEW015 SCT080 16/14 Q1018=
201112111445 METAR LIRA 111445Z 23002KT 9999 FEW015 SCT035 BKN070 16/14
                        Q1018=
201112111415 METAR LIRA 111415Z 22002KT 9999 FEW015 SCT035 BKN070 16/14
                        Q1019=
201112111345 METAR LIRA 111345Z 21004KT 9999 FEW015 SCT030 BKN070 16/14
                        Q1019=
201112111315 METAR LIRA 111315Z 21005KT 9999 SCT015 SCT025 16/13 Q1019=
201112111245 METAR LIRA 111245Z 20007KT 9999 FEW015 SCT025 BKN070 16/13
                        Q1019=
201112111215 METAR LIRA 111215Z 19006KT 9999 FEW013 SCT025 BKN070 16/13
                        Q1019=
201112111145 METAR LIRA 111145Z 19005KT 9999 SCT013 SCT025 17/14 Q1019=
201112111115 METAR LIRA 111115Z 19007KT 160V240 9999 FEW013 SCT023 17/14
                        Q1019=
201112111045 METAR LIRA 111045Z 17006KT 9999 FEW013 SCT023 16/13 Q1020=
201112111015 METAR LIRA 111015Z 18006KT 9999 SCT016 SCT070 16/13 Q1020=
201112110945 METAR LIRA 110945Z 16008KT 9999 FEW016 SCT080 16/13 Q1019=
201112110915 METAR LIRA 110915Z 16008KT 9999 FEW018 SCT080 16/13 Q1019=
201112110845 METAR LIRA 110845Z 30002KT 9999 FEW018 13/12 Q1019=
201112110815 METAR LIRA 110815Z 31002KT 9999 FEW016 13/12 Q1018=
201112110745 METAR LIRA 110745Z 00000KT 9999 FEW016 12/12 Q1018=
201112110715 METAR LIRA 110715Z 12002KT 9999 FEW016 SCT080 12/12 Q1017=
201112110645 METAR LIRA 110645Z 11006KT 9999 FEW015 SCT080 12/12 Q1017=
201112110615 METAR LIRA 110615Z 11005KT 9999 FEW015 SCT035 12/11 Q1017=
201112110545 METAR LIRA 110545Z 12002KT 9999 FEW015 SCT035 11/10 Q1017=
201112110515 METAR LIRA 110515Z 31004KT 9999 FEW015 SCT035 11/10 Q1017=
201112110445 METAR LIRA 110445Z 09002KT 9999 FEW015 SCT035 11/10 Q1017=
201112110415 METAR LIRA 110415Z 13003KT 9999 FEW015 SCT035 11/10 Q1017=
201112110345 METAR LIRA 110345Z 00000KT 9999 SCT015 SCT035 10/10 Q1017=
201112110315 METAR LIRA 110315Z 00000KT 9999 FEW015 SCT070 10/10 Q1017=
201112110245 METAR LIRA 110245Z 00000KT 9999 FEW015 SCT070 11/10 Q1017=
201112110215 METAR LIRA 110215Z 03002KT 9999 FEW015 SCT070 11/10 Q1018=
201112110145 METAR LIRA 110145Z 00000KT 9999 SCT015 SCT070 12/11 Q1018=
201112110115 METAR LIRA 110115Z 00000KT 9999 FEW015 SCT070 11/11 Q1018=
201112110045 METAR LIRA 110045Z 00000KT 9999 FEW015 SCT070 12/11 Q1017=
201112110015 METAR LIRA 110015Z 00000KT 9999 FEW015 SCT070 12/11 Q1017=
201112102350 METAR LIRA 110045Z 00000KT 9999 FEW015 SCT070 12/11 Q1017=
201112102345 METAR LIRA 102345Z 03002KT 9999 FEW015 SCT070 13/12 Q1017=
201112102315 METAR LIRA 102315Z 13002KT 9999 FEW015 SCT070 13/12 Q1017=
201112102245 METAR LIRA 102245Z 15003KT 9999 FEW015 SCT070 13/12 Q1017=
201112102215 METAR LIRA 102215Z 15005KT 9999 FEW015 SCT070 14/13 Q1017=
201112102145 METAR LIRA 102145Z 17006KT 9999 FEW015 BKN070 14/14 Q1017=
201112102115 METAR LIRA 102115Z 17006KT 9999 FEW015 BKN070 15/14 Q1017=
201112102045 METAR LIRA 102045Z 16007KT 9999 FEW015 BKN070 14/14 Q1017=
201112102015 METAR LIRA 102015Z 16005KT 9999 FEW015 BKN070 14/13 Q1017=
201112101945 METAR LIRA 101945Z 14006KT 9999 FEW014 BKN070 14/13 Q1018=
201112101915 METAR LIRA 101915Z 16007KT 9999 FEW006 SCT023 14/13 Q1018=
201112101845 METAR LIRA 101845Z 15004KT 9999 FEW006 SCT023 14/13 Q1018=
201112101815 METAR LIRA 101815Z 14006KT 9999 FEW004 SCT023 13/12 Q1018=
201112101745 METAR LIRA 101745Z 12001KT 9999 FEW004 SCT023 13/13 Q1018=
201112101715 METAR LIRA 101715Z 16001KT 9999 FEW016 SCT025 13/13 Q1018=
201112101645 METAR LIRA 101645Z 16002KT 9999 FEW016 SCT025 13/13 Q1018=
201112101615 METAR LIRA 101615Z 15002KT 9999 FEW016 SCT025 14/13 Q1018=
201112101545 METAR LIRA 101545Z 14006KT 9999 FEW016 SCT025 15/13 Q1017=
201112101515 METAR LIRA 101515Z 16004KT 9999 FEW016 SCT025 15/13 Q1018=
201112101445 METAR LIRA 101445Z 17005KT 9999 FEW016 SCT025 15/12 Q1018=
201112101415 METAR LIRA 101415Z 17005KT 9999 FEW016 SCT025 16/13 Q1018=
201112101345 METAR LIRA 101345Z 17008KT 9999 FEW016 SCT025 15/12 Q1018=
201112101315 METAR LIRA 101315Z 17007KT 9999 FEW016 SCT025 16/13 Q1018=
201112101245 METAR LIRA 101245Z 17009KT 140V200 9999 FEW016 SCT025 15/12
                        Q1019=
201112101215 METAR LIRA 101215Z 18007KT 9999 FEW016 SCT025 15/12 Q1019=
201112101145 METAR LIRA 101145Z 15010KT 9999 FEW016 SCT025 15/12 Q1019=
201112101115 METAR LIRA 101115Z 15008KT 9999 FEW016 SCT025 16/13 Q1019=
201112101045 METAR LIRA 101045Z 14011KT 9999 FEW016 SCT025 16/13 Q1019=
201112101015 METAR LIRA 101015Z 15008KT 9999 FEW016 SCT025 15/13 Q1020=
201112100945 METAR LIRA 100945Z 17006KT 120V190 9999 FEW016 SCT025 14/12
                        Q1020=
201112100915 METAR LIRA 100915Z 15007KT 9999 FEW016 SCT025 14/13 Q1020=
201112100845 METAR LIRA 100845Z 16005KT 9999 FEW016 SCT025 14/13 Q1020=
201112100815 METAR LIRA 100815Z 14003KT 9999 FEW016 SCT025 13/12 Q1020=
201112100745 METAR LIRA 100745Z 15005KT 9999 FEW016 13/12 Q1019=
201112100715 METAR LIRA 100715Z 15005KT 9999 FEW016 SCT025 13/12 Q1019=
201112100645 METAR LIRA 100645Z 16005KT 9999 FEW016 BKN030 13/12 Q1019=
201112100615 METAR LIRA 100615Z 16006KT 9999 FEW017 SCT030 13/12 Q1019=
201112100545 METAR LIRA 100545Z 15005KT 9999 FEW018 SCT030 13/12 Q1019=
201112100515 METAR LIRA 100515Z 17006KT 9999 FEW018 SCT030 13/12 Q1019=
201112100445 METAR LIRA 100445Z 15008KT 9999 FEW017 SCT070 11/10 Q1019=
201112100415 METAR LIRA 100415Z 15004KT 9999 FEW017 SCT070 10/09 Q1020=
201112100345 METAR LIRA 100345Z 16004KT 9999 FEW017 BKN070 11/10 Q1020=
201112100315 METAR LIRA 100315Z 16005KT 9999 FEW017 BKN070 11/10 Q1020=
201112100245 METAR LIRA 100245Z 16004KT 9999 SCT017 SCT070 11/10 Q1021=
201112100215 METAR LIRA 100215Z 15005KT 9999 SCT017 SCT070 12/11 Q1021=
201112100145 METAR LIRA 100145Z 16004KT 9999 SCT017 SCT070 12/11 Q1021=
201112100115 METAR LIRA 100115Z 15006KT 9999 FEW017 SCT070 12/11 Q1021=
201112100045 METAR LIRA 100045Z 16007KT 9999 FEW017 SCT070 12/11 Q1021=
201112100015 METAR LIRA 100015Z 15007KT 9999 FEW017 SCT070 12/11 Q1021=
201112092350 METAR LIRA 100045Z 16007KT 9999 FEW017 SCT070 12/11 Q1021=
201112092345 METAR LIRA 092345Z 16006KT 9999 FEW017 SCT070 12/11 Q1021=
201112092315 METAR LIRA 092315Z 15007KT 9999 FEW017 SCT070 12/11 Q1021=
201112092245 METAR LIRA 092245Z 15007KT 9999 FEW017 SCT070 12/11 Q1021=
201112092215 METAR LIRA 092215Z 15009KT 9999 FEW017 SCT070 12/11 Q1021=
201112092145 METAR LIRA 092145Z 15006KT 9999 FEW017 SCT070 12/11 Q1021=
201112092115 METAR LIRA 092115Z 15007KT 9999 FEW017 SCT070 12/11 Q1022=
201112092045 METAR LIRA 092045Z 15008KT 9999 FEW017 SCT070 12/12 Q1022=
201112092015 METAR LIRA 092015Z 15007KT 9999 FEW017 SCT070 12/12 Q1022=
201112091945 METAR LIRA 091945Z 14007KT 9999 SCT015 SCT023 12/12 Q1022=
201112091915 METAR LIRA 091915Z 15006KT 9999 -DZ SCT015 SCT023 12/12 Q1022=
201112091845 METAR LIRA 091845Z 16006KT 5000 -DZ BR SCT015 SCT023 12/12
                        Q1022=
201112091815 METAR LIRA 091815Z 20005KT 5000 -DZ BR SCT015 SCT023 12/12
                        Q1022=
201112091745 METAR LIRA 091745Z 15003KT 6000 -DZ SCT015 SCT023 13/12 Q1022=
201112091715 METAR LIRA 091715Z 15004KT 7000 -DZ SCT015 SCT023 13/12 Q1022=
201112091645 METAR LIRA 091645Z 22001KT 9999 -DZ SCT015 SCT023 13/12 Q1022=
201112091615 METAR LIRA 091615Z 16007KT 9999 SCT015 SCT023 13/12 Q1022=
201112091545 METAR LIRA 091545Z 16005KT 9999 SCT015 SCT023 13/12 Q1022=
201112091515 METAR LIRA 091515Z 16007KT 9999 SCT015 SCT023 14/12 Q1022=
201112091445 METAR LIRA 091445Z 16006KT 9999 SCT015 SCT023 14/12 Q1023=
201112091415 METAR LIRA 091415Z 16007KT 9999 SCT015 SCT023 14/12 Q1023=
201112091345 METAR LIRA 091345Z 17007KT 9999 SCT015 SCT023 14/12 Q1023=
201112091315 METAR LIRA 091315Z 19005KT 9999 SCT015 SCT023 14/12 Q1023=
201112091245 METAR LIRA 091245Z 17007KT 9999 SCT015 SCT023 14/12 Q1023=
201112091215 METAR LIRA 091215Z 15006KT 9999 SCT015 SCT023 15/12 Q1024=
201112091145 METAR LIRA 091145Z 16007KT 9999 SCT015 SCT023 15/12 Q1024=
201112091115 METAR LIRA 091115Z 15007KT 9999 SCT012 SCT023 14/12 Q1024=
201112091045 METAR LIRA 091045Z 16006KT 9999 SCT012 SCT023 14/12 Q1024=
201112091015 METAR LIRA 091015Z 18006KT 9999 SCT012 SCT023 BKN070 14/12
                        Q1025=
201112090945 METAR LIRA 090945Z 16007KT 9999 SCT012 SCT023 14/12 Q1024=
201112090915 METAR LIRA 090915Z 16009KT 9999 SCT012 SCT023 14/12 Q1024=
201112090845 METAR LIRA 090845Z 15008KT 9999 SCT012 SCT023 13/11 Q1024=
201112090815 METAR LIRA 090815Z 15008KT 9999 SCT012 SCT025 13/11 Q1024=
201112090745 METAR LIRA 090745Z 15005KT 9999 SCT012 SCT025 13/11 Q1024=
201112090715 METAR LIRA 090715Z 15006KT 120V200 9999 SCT012 SCT025 13/11
                        Q1024=
201112090645 METAR LIRA 090645Z 15008KT 9999 SCT012 SCT025 12/11 Q1024=
201112090615 METAR LIRA 090615Z 15007KT 9999 SCT012 SCT025 12/11 Q1024=
201112090545 METAR LIRA 090545Z 14007KT 9999 FEW022 SCT070 12/11 Q1024=
201112090515 METAR LIRA 090515Z 17005KT 9999 FEW022 SCT070 11/11 Q1024=
201112090445 METAR LIRA 090445Z 15006KT 9999 FEW017 SCT030 11/11 Q1024=
201112090415 METAR LIRA 090415Z 16005KT 9999 FEW016 SCT030 11/11 Q1024=
201112090345 METAR LIRA 090345Z 15006KT 9999 FEW016 11/10 Q1024=
201112090315 METAR LIRA 090315Z 17005KT 9999 FEW016 SCT030 12/11 Q1024=
201112090245 METAR LIRA 090245Z 17005KT 9999 SCT017 FEW020TCU 11/11 Q1024=
201112090215 METAR LIRA 090215Z 02001KT 9999 FEW017 FEW020TCU SCT025 08/08
                        Q1024=
201112090145 METAR LIRA 090145Z 00000KT 9999 SCT017 FEW020TCU SCT025 07/06
                        Q1024=
201112090115 METAR LIRA 090115Z 30002KT 9999 FEW017 SCT025 08/07 Q1024=
201112090045 METAR LIRA 090045Z 15006KT CAVOK 08/08 Q1024=
201112090015 METAR LIRA 090015Z 15005KT CAVOK 08/08 Q1024=
201112082350 METAR LIRA 090045Z 15006KT CAVOK 08/08 Q1024=
201112082345 METAR LIRA 082345Z 17002KT CAVOK 08/07 Q1024=
201112082315 METAR LIRA 082315Z 00000KT CAVOK 07/07 Q1023=
201112082245 METAR LIRA 082245Z 15002KT CAVOK 08/08 Q1023=
201112082215 METAR LIRA 082215Z 15002KT CAVOK 09/08 Q1023=
201112082145 METAR LIRA 082145Z 15004KT CAVOK 09/08 Q1023=
201112082115 METAR LIRA 082115Z 13001KT CAVOK 09/08 Q1023=
201112082045 METAR LIRA 082045Z 12003KT CAVOK 09/08 Q1023=
201112082015 METAR LIRA 082015Z 14003KT CAVOK 09/08 Q1023=
201112081945 METAR LIRA 081945Z 16004KT CAVOK 09/08 Q1023=
201112081915 METAR LIRA 081915Z 14002KT CAVOK 09/08 Q1023=
201112081845 METAR LIRA 081845Z 00000KT CAVOK 10/09 Q1023=
201112081815 METAR LIRA 081815Z 23002KT CAVOK 11/10 Q1022=
201112081745 METAR LIRA 081745Z 08002KT CAVOK 12/09 Q1022=
201112081715 METAR LIRA 081715Z 16002KT CAVOK 12/09 Q1022=
201112081645 METAR LIRA 081645Z 10003KT 9999 FEW080 SCT200 12/09 Q1021=
201112081615 METAR LIRA 081615Z 04002KT 9999 FEW070 SCT200 13/08 Q1021=
201112081545 METAR LIRA 081545Z 33001KT 9999 FEW080 SCT200 15/09 Q1021=
201112081515 METAR LIRA 081515Z 32003KT 9999 FEW080 SCT200 16/09 Q1021=
201112081445 METAR LIRA 081445Z 33003KT 9999 FEW080 SCT200 16/08 Q1021=
201112081415 METAR LIRA 081415Z 33007KT 9999 FEW080 SCT200 16/08 Q1021=
201112081345 METAR LIRA 081345Z 32007KT 290V010 9999 FEW080 16/08 Q1021=
201112081315 METAR LIRA 081315Z 32009KT 270V340 9999 FEW080 16/09 Q1021=
201112081245 METAR LIRA 081245Z 34007KT 9999 FEW080 16/09 Q1021=
201112081215 METAR LIRA 081215Z 34005KT 9999 FEW080 15/10 Q1021=
201112081145 METAR LIRA 081145Z 33007KT 9999 FEW080 15/10 Q1021=
201112081115 METAR LIRA 081115Z 36005KT 9999 FEW080 14/10 Q1021=
201112081045 METAR LIRA 081045Z 02004KT 9999 FEW080 14/10 Q1021=
201112081015 METAR LIRA 081015Z 03004KT 9999 FEW020 12/08 Q1021=
201112080945 METAR LIRA 080945Z 04005KT 9999 FEW020 11/08 Q1020=
201112080915 METAR LIRA 080915Z 01003KT 9999 FEW020 10/08 Q1020=
201112080845 METAR LIRA 080845Z 01003KT 9999 FEW080 09/07 Q1020=
201112080815 METAR LIRA 080815Z 03002KT 9999 FEW080 08/08 Q1019=
201112080745 METAR LIRA 080745Z 06002KT 9999 FEW080 07/07 Q1019=
201112080715 METAR LIRA 080715Z 00000KT 9999 FEW080 06/06 Q1019=
201112080645 METAR LIRA 080645Z 00000KT 9999 FEW080 06/05 Q1018=
201112080615 METAR LIRA 080615Z 34001KT 9999 FEW080 06/05 Q1018=
201112080545 METAR LIRA 080545Z 06004KT 9999 FEW080 06/05 Q1018=
201112080515 METAR LIRA 080515Z 04001KT 9999 FEW080 06/05 Q1017=
201112080445 METAR LIRA 080445Z 36001KT CAVOK 06/06 Q1017=
201112080415 METAR LIRA 080415Z 15003KT CAVOK 07/06 Q1017=
201112080345 METAR LIRA 080345Z 05002KT 9999 FEW080 07/06 Q1017=
201112080315 METAR LIRA 080315Z 04002KT 9999 FEW080 07/06 Q1017=
201112080245 METAR LIRA 080245Z 03003KT CAVOK 08/07 Q1017=
201112080215 METAR LIRA 080215Z 08003KT CAVOK 09/08 Q1017=
201112080145 METAR LIRA 080145Z 13005KT CAVOK 09/08 Q1017=
201112080115 METAR LIRA 080115Z 11006KT CAVOK 09/08 Q1018=
201112080045 METAR LIRA 080045Z 09002KT CAVOK 08/07 Q1018=
201112080015 METAR LIRA 080015Z 10003KT CAVOK 07/07 Q1018=
201112072350 METAR LIRA 080045Z 09002KT CAVOK 08/07 Q1018=
201112072345 METAR LIRA 072345Z 06001KT CAVOK 08/08 Q1018=
201112072315 METAR LIRA 072315Z 03001KT CAVOK 08/08 Q1018=
201112072245 METAR LIRA 072245Z 00000KT CAVOK 08/07 Q1018=
201112072215 METAR LIRA 072215Z 00000KT CAVOK 09/08 Q1018=
201112072145 METAR LIRA 072145Z 11001KT CAVOK 09/08 Q1018=
201112072115 METAR LIRA 072115Z 06002KT CAVOK 10/08 Q1018=
201112072045 METAR LIRA 072045Z 13005KT CAVOK 11/09 Q1018=
201112072015 METAR LIRA 072015Z 15007KT 9999 FEW080 10/07 Q1018=
201112071945 METAR LIRA 071945Z 15006KT 9999 FEW080 10/08 Q1018=
201112071915 METAR LIRA 071915Z 12002KT 9999 FEW080 09/08 Q1018=
201112071845 METAR LIRA 071845Z 11005KT 9999 FEW080 10/08 Q1018=
201112071815 METAR LIRA 071815Z 13007KT 9999 FEW080 10/08 Q1018=
201112071745 METAR LIRA 071745Z 15006KT 9999 FEW080 10/09 Q1018=
201112071715 METAR LIRA 071715Z 15005KT 9999 FEW025 09/08 Q1018=
201112071645 METAR LIRA 071645Z 17004KT 9999 FEW025 11/10 Q1019=
201112071615 METAR LIRA 071615Z 19003KT 9999 FEW080 12/10 Q1018=
201112071545 METAR LIRA 071545Z 19003KT 9999 FEW018 SCT080 13/09 Q1018=
201112071515 METAR LIRA 071515Z 20003KT 9999 FEW018 15/09 Q1018=
201112071445 METAR LIRA 071445Z 22003KT 9999 FEW020 SCT200 15/08 Q1018=
201112071415 METAR LIRA 071415Z 23003KT 9999 SCT018 15/08 Q1018=
201112071345 METAR LIRA 071345Z 27002KT 9999 FEW018 SCT025 15/09 Q1018=
201112071315 METAR LIRA 071315Z 00000KT 9999 SCT020 15/09 Q1018=
201112071245 METAR LIRA 071245Z 27002KT 9999 SCT018 15/09 Q1018=
201112071215 METAR LIRA 071215Z 31005KT 9999 SCT020 15/09 Q1019=
201112071145 METAR LIRA 071145Z 34004KT 9999 SCT020 15/09 Q1019=
201112071115 METAR LIRA 071115Z 30007KT 9999 SCT020 14/08 Q1019=
201112071045 METAR LIRA 071045Z 35004KT 9999 FEW020 14/08 Q1019=
201112071015 METAR LIRA 071015Z 00000KT 9999 FEW020 14/08 Q1019=
201112070945 METAR LIRA 070945Z 07002KT 9999 FEW020 13/11 Q1019=
201112070915 METAR LIRA 070915Z 03004KT 9999 FEW020 11/10 Q1019=
201112070845 METAR LIRA 070845Z 02003KT 9999 FEW020 11/09 Q1019=
201112070815 METAR LIRA 070815Z 05001KT 9999 FEW018 SCT023 09/09 Q1019=
201112070745 METAR LIRA 070745Z 00000KT 9999 SCT023 09/08 Q1018=
201112070715 METAR LIRA 070715Z 08001KT 9999 FEW018 SCT025 09/08 Q1017=
201112070645 METAR LIRA 070645Z 04001KT 9999 FEW018 SCT025 08/08 Q1017=
201112070615 METAR LIRA 070615Z 30001KT 9999 FEW025 09/08 Q1017=
201112070545 METAR LIRA 070545Z 16001KT 9999 SCT025 SCT070 09/08 Q1016=
201112070515 METAR LIRA 070515Z 13002KT 9999 FEW025 SCT070 09/08 Q1016=
201112070445 METAR LIRA 070445Z 16002KT 9999 SCT040 SCT070 09/09 Q1016=
201112070415 METAR LIRA 070415Z 00000KT 9999 SCT040 SCT070 08/08 Q1016=
201112070345 METAR LIRA 070345Z 00000KT 9999 SCT040 SCT070 09/09 Q1016=
201112070315 METAR LIRA 070315Z 12001KT 9999 SCT040 SCT070 08/08 Q1016=
201112070245 METAR LIRA 070245Z 00000KT 9999 SCT040 SCT070 08/08 Q1016=
201112070215 METAR LIRA 070215Z 09005KT 9999 SCT030 SCT070 08/08 Q1016
                        RERA=
201112070145 METAR LIRA 070145Z 09005KT 9999 SCT030 SCT070 08/08 Q1016
                        RERA=
201112070115 METAR LIRA 070115Z 07006KT 9999 RA SCT030 SCT060 08/08 Q1016=
201112070045 METAR LIRA 070045Z 00000KT 9999 BKN070 08/07 Q1015=
201112070015 METAR LIRA 070015Z 00000KT 9999 BKN070 08/07 Q1015=
201112062350 METAR LIRA 070045Z 00000KT 9999 BKN070 08/07 Q1015=
201112062345 METAR LIRA 062345Z 09001KT 9999 FEW030 BKN070 09/07 Q1015=
201112062315 METAR LIRA 062315Z 11001KT 9999 FEW030 BKN070 09/07 Q1015=
201112062245 METAR LIRA 062245Z 11005KT 9999 FEW030 09/08 Q1015=
201112062215 METAR LIRA 062215Z 10004KT 9999 FEW030 09/08 Q1015=
201112062145 METAR LIRA 062145Z 11002KT 9999 FEW030 SCT070 09/08 Q1015=
201112062115 METAR LIRA 062115Z 17001KT 9999 FEW030 SCT070 10/09 Q1015=
201112062045 METAR LIRA 062045Z 00000KT 9999 FEW030 SCT070 10/07 Q1015=
201112062015 METAR LIRA 062015Z 19003KT 9999 FEW030 SCT070 10/07 Q1015=
201112061945 METAR LIRA 061945Z 00000KT 9999 FEW030 SCT070 10/07 Q1015=
201112061915 METAR LIRA 061915Z 00000KT 9999 FEW030 SCT070 10/07 Q1014=
201112061845 METAR LIRA 061845Z 09002KT 9999 FEW030 10/06 Q1014=
201112061815 METAR LIRA 061815Z 00000KT 9999 FEW030 10/05 Q1013=
201112061745 METAR LIRA 061745Z 06002KT 9999 FEW018 11/06 Q1013=
201112061715 METAR LIRA 061715Z 01003KT 9999 FEW018 11/06 Q1013=
201112061645 METAR LIRA 061645Z 30005KT 9999 FEW018 SCT030 12/07 Q1013=
201112061615 METAR LIRA 061615Z 32007KT 9999 FEW018 SCT030 12/07 Q1012=
201112061545 METAR LIRA 061545Z 33006KT 9999 FEW018 SCT030 12/07 Q1012=
201112061515 METAR LIRA 061515Z 30005KT 9999 FEW018 SCT030 14/08 Q1012=
201112061445 METAR LIRA 061445Z 32004KT 9999 -RA FEW018 SCT030 14/09 Q1012=
201112061415 METAR LIRA 061415Z 01003KT 9999 FEW022 SCT030 14/08 Q1012=
201112061345 METAR LIRA 061345Z 01005KT 9999 FEW022 SCT030 14/08 Q1012=
201112061315 METAR LIRA 061315Z 34006KT 9999 FEW022 SCT025 14/08 Q1012=
201112061245 METAR LIRA 061245Z 34009KT 9999 FEW022 SCT025 15/08 Q1012=
201112061215 METAR LIRA 061215Z 34011KT 9999 FEW022 SCT025 15/10 Q1012=
201112061145 METAR LIRA 061145Z 34007KT 310V030 9999 SCT022 SCT025 15/09
                        Q1012=
201112061115 METAR LIRA 061115Z 35003KT 9999 SCT022 14/08 Q1012=
201112061045 METAR LIRA 061045Z 01001KT 9999 SCT022 15/09 Q1012=
201112061015 METAR LIRA 061015Z 36002KT 9999 FEW022 15/08 Q1012=
201112060945 METAR LIRA 060945Z 06003KT 9999 FEW022 16/09 Q1012=
201112060915 METAR LIRA 060915Z 08004KT 9999 FEW080 15/09 Q1012=
201112060845 METAR LIRA 060845Z 00000KT 9999 FEW080 14/10 Q1011=
201112060815 METAR LIRA 060815Z 10001KT 9999 FEW080 12/10 Q1011=
201112060745 METAR LIRA 060745Z 13003KT 9999 FEW080 11/09 Q1011=
201112060715 METAR LIRA 060715Z 15004KT 9999 FEW080 09/08 Q1011=
201112060645 METAR LIRA 060645Z 13004KT 9999 FEW080 08/07 Q1010=
201112060615 METAR LIRA 060615Z 00000KT 9999 FEW030 09/08 Q1010=
201112060545 METAR LIRA 060545Z 00000KT 9999 SCT030 09/08 Q1010=
201112060515 METAR LIRA 060515Z 00000KT 9999 SCT030 08/07 Q1010=
201112060445 METAR LIRA 060445Z 00000KT 9999 SCT030 11/10 Q1009=
201112060415 METAR LIRA 060415Z 19003KT 9999 SCT030 11/10 Q1009=
201112060345 METAR LIRA 060345Z 23003KT 9999 FEW080 11/10 Q1009=
201112060315 METAR LIRA 060315Z 22003KT 9999 FEW080 12/11 Q1009=
201112060245 METAR LIRA 060245Z 19005KT 9999 FEW080 12/10 Q1008=
201112060215 METAR LIRA 060215Z 18006KT 9999 FEW080 12/10 Q1009=
201112060145 METAR LIRA 060145Z 17005KT 9999 FEW017 SCT070 12/10 Q1009=
201112060115 METAR LIRA 060115Z 22006KT 9999 FEW017 SCT070 13/10 Q1009=
201112060100 METAR LIRA INT=
201112060045 METAR LIRA 060045Z 20004KT 9999 FEW015 SCT070 13/10 Q1009=
201112060015 METAR LIRA 060015Z 19005KT 9999 FEW015 SCT070 13/10 Q1009=
201112052350 METAR LIRA 060045Z 20004KT 9999 FEW015 SCT070 13/10 Q1009=
201112052345 METAR LIRA 052345Z 19005KT 9999 FEW015 SCT070 13/09 Q1009=
201112052315 METAR LIRA 052315Z 22006KT 9999 FEW015 SCT070 13/10 Q1009=
201112052245 METAR LIRA 052245Z 23006KT 200V260 9999 FEW015 SCT070 14/10
                        Q1009=
201112052215 METAR LIRA 052215Z 23008KT 9999 FEW013 SCT070 14/11 Q1009=
201112052145 METAR LIRA 052145Z 24008G20KT 200V280 9999 FEW013 SCT025
                        15/11 Q1009=
201112052115 METAR LIRA 052115Z 26008KT 220V300 9999 FEW013 BKN025 15/11
                        Q1009=
201112052045 METAR LIRA 052045Z 24011KT 210V270 9999 FEW013 SCT025 15/13
                        Q1009=
201112052015 METAR LIRA 052015Z 24006KT 200V270 9999 FEW013 SCT025 16/13
                        Q1009=
201112051945 METAR LIRA 051945Z 25011G26KT 210V270 9999 FEW013 SCT025
                        16/13 Q1009=
201112051915 METAR LIRA 051915Z 24013KT 220V290 9999 FEW013 SCT025 16/13
                        Q1009=
201112051845 METAR LIRA 051845Z 23009KT 9999 FEW013 SCT025 16/13 Q1009=
201112051815 METAR LIRA 051815Z 23014G24KT 200V260 9999 FEW013 SCT025
                        16/12 Q1009=
201112051745 METAR LIRA 051745Z 24013KT 190V260 9999 FEW013 SCT025 16/12
                        Q1009=
201112051715 METAR LIRA 051715Z 22008G21KT 190V260 9999 FEW013 SCT025
                        16/12 Q1009=
201112051645 METAR LIRA 051645Z 23009KT 200V270 9999 FEW013 SCT025 BKN070
                        16/12 Q1009=
201112051615 METAR LIRA 051615Z 23008KT 190V260 9999 SCT013 SCT025 15/12
                        Q1010=
201112051545 METAR LIRA 051545Z 23007KT 190V270 9999 -RA SCT013 SCT023
                        16/13 Q1010=
201112051515 METAR LIRA 051515Z 20008KT 190V260 9999 -RA SCT013 SCT023
                        16/12 Q1010=
201112051445 METAR LIRA 051445Z 23008KT 200V260 9999 -RA FEW018 SCT025
                        BKN070 16/12 Q1010=
201112051345 METAR LIRA 051345Z 23012KT 200V260 9999 FEW018 SCT025 BKN070
                        16/12 Q1010=
201112051315 METAR LIRA 051315Z 24014KT 9999 FEW016 SCT025 BKN070 16/12
                        Q1010=
201112051245 METAR LIRA 051245Z 23012KT 9999 SCT016 SCT025 15/12 Q1011=
201112051215 METAR LIRA 051215Z 23010G23KT 9999 SCT016 BKN025 16/12 Q1011=
201112051145 METAR LIRA 051145Z 23011G31KT 190V260 9999 -RA SCT016 BKN025
                        16/13 Q1011=
201112051115 METAR LIRA 051115Z 22010KT 180V260 9999 -RA SCT016 BKN025
                        15/13 Q1011=
201112051045 METAR LIRA 051045Z 22012KT 180V250 8000 -RA FEW016 FEW020TCU
                        BKN025 16/15 Q1012=
201112051015 METAR LIRA 051015Z 23007KT 8000 -RA SCT015 FEW020TCU SCT023
                        15/14 Q1012 RERA=
201112050945 METAR LIRA 050945Z 25005KT 230V310 7000 -RA SCT013 FEW020TCU
                        SCT023 15/14 Q1012 RERA=
201112050915 METAR LIRA 050915Z 22010KT 9999 SCT013 BKN023 16/13 Q1012=
201112050845 METAR LIRA 050845Z 22011KT 180V270 9999 SCT013 BKN023 15/12
                        Q1012=
201112050815 METAR LIRA 050815Z 23011KT 9999 SCT013 BKN023 15/12 Q1012=
201112050745 METAR LIRA 050745Z 21008KT 180V250 9999 SCT013 BKN023 15/12
                        Q1012=
201112050715 METAR LIRA 050715Z 22009KT 170V260 9999 SCT013 SCT023 15/13
                        Q1013=
201112050645 METAR LIRA 050645Z 20010KT 160V230 9999 SCT013 SCT025 15/13
                        Q1013=
201112050615 METAR LIRA 050615Z 19011KT 8000 SCT013 SCT025 15/13 Q1013=
201112050545 METAR LIRA 050545Z 21008KT 170V260 8000 FEW013 SCT025 15/13
                        Q1013=
201112050515 METAR LIRA 050515Z 19009KT 150V240 8000 FEW013 SCT025 14/13
                        Q1013=
201112050445 METAR LIRA 050445Z 21009KT 160V240 8000 FEW015 SCT028 14/13
                        Q1013=
201112050415 METAR LIRA 050415Z 21005KT 8000 FEW015 SCT028 14/12 Q1013=
201112050345 METAR LIRA 050345Z 22006KT 190V250 8000 -RA FEW015 SCT028
                        14/13 Q1014=
201112050315 METAR LIRA 050315Z 20005KT 8000 -RA SCT015 SCT028 14/12 Q1014=
201112050245 METAR LIRA 050245Z 20006KT 9999 -RA SCT015 SCT030 14/13 Q1014=
201112050215 METAR LIRA 050215Z 22005KT 9999 -RA SCT015 SCT028 14/13 Q1015=
201112050145 METAR LIRA 050145Z 23006KT 180V240 9999 -RA SCT015 SCT028
                        13/12 Q1015=
201112050115 METAR LIRA 050115Z 19007G19KT 160V240 9999 -RA SCT015 SCT025
                        14/12 Q1015=
201112050045 METAR LIRA 050045Z 19006KT 9999 SCT015 SCT030 14/12 Q1015=
201112050015 METAR LIRA 050015Z 19006KT 9999 SCT015 SCT030 14/12 Q1016=
201112042350 METAR LIRA 050045Z 19006KT 9999 SCT015 SCT030 14/12 Q1015=
201112042345 METAR LIRA 042345Z 19007KT 9999 SCT017 FEW022TCU 14/11 Q1016=
201112042315 METAR LIRA 042315Z 19008KT 9999 SCT017 FEW022TCU 14/11 Q1016
                        RERA=
201112042245 METAR LIRA 042245Z 19005KT 9999 SCT015 FEW022TCU 13/12 Q1017
                        RERA=
201112042215 METAR LIRA 042215Z 18006KT 9999 SCT017 FEW022TCU 14/11 Q1017=
201112042145 METAR LIRA 042145Z 19005KT 9999 FEW017 SCT070 14/12 Q1017=
201112042115 METAR LIRA 042115Z 22007KT 9999 SCT017 SCT070 14/12 Q1017=
201112042045 METAR LIRA 042045Z 20005KT 9999 SCT015 SCT025 14/12 Q1017=
201112042015 METAR LIRA 042015Z 23007KT 190V260 9999 SCT015 SCT025 14/12
                        Q1017=
201112041945 METAR LIRA 041945Z 21006KT 170V280 9999 SCT015 SCT025 14/12
                        Q1017=
201112041915 METAR LIRA 041915Z 23007KT 9999 SCT015 SCT028 14/13 Q1016=
201112041845 METAR LIRA 041845Z 22005KT 9999 SCT015 14/13 Q1016=
201112041815 METAR LIRA 041815Z 20007KT 9999 SCT015 14/13 Q1016=
201112041745 METAR LIRA 041745Z 18004KT 9999 SCT015 14/13 Q1016=
201112041715 METAR LIRA 041715Z 19005KT 9999 SCT015 FEW017TCU 14/13 Q1016=
201112041645 METAR LIRA 041645Z 19004KT 9999 SCT015 FEW017TCU 14/13 Q1016=
201112041615 METAR LIRA 041615Z 23004KT 9999 SCT015 FEW017TCU 14/13 Q1016=
201112041545 METAR LIRA 041545Z 23004KT 9999 SCT015 FEW017TCU 15/13 Q1016=
201112041515 METAR LIRA 041515Z 24004KT 9999 SCT015 15/14 Q1016=
201112041445 METAR LIRA 041445Z 20005KT 170V230 9999 SCT015 15/13 Q1016=
201112041415 METAR LIRA 041415Z 20005KT 9999 SCT015 15/14 Q1016=
201112041345 METAR LIRA 041345Z 23006KT 200V260 9999 SCT015 15/14 Q1016=
201112041315 METAR LIRA 041315Z 21005KT 190V250 9999 FEW015 FEW017TCU
                        SCT030 15/14 Q1016=
201112041245 METAR LIRA 041245Z 22006KT 9999 SCT012 FEW015TCU BKN025 15/14
                        Q1016=
201112041215 METAR LIRA 041215Z 21006KT 170V270 9999 SCT012 FEW015TCU
                        BKN025 14/14 Q1016=
201112041145 METAR LIRA 041145Z 22006KT 190V250 9999 SCT012 FEW015CB BKN025
                        14/14 Q1016 RERA=
201112041115 METAR LIRA 041115Z 21005KT 160V220 9999 -RA SCT012 FEW015CB
                        BKN025 14/13 Q1016 RERA=
201112041045 METAR LIRA 041045Z 21007G17KT 170V240 4000 RA BR SCT007 SCT015
                        FEW017CB BKN025 13/13 Q1017=
201112041015 METAR LIRA 041015Z 18009KT 6000 -RA FEW009 SCT015 FEW017CB
                        BKN025 13/13 Q1017=
201112040945 METAR LIRA 040945Z 17008KT 5000 -RA BR FEW015 FEW017TCU BKN025
                        13/13 Q1017=
201112040915 METAR LIRA 040915Z 17007KT 9999 -RA FEW017 FEW018TCU BKN025
                        14/13 Q1017=
201112040845 METAR LIRA 040845Z 17006KT 140V200 8000 -RA FEW017 BKN025
                        13/12 Q1017=
201112040815 METAR LIRA 040815Z 16007KT 9999 FEW017 SCT030 13/11 Q1017=
201112040745 METAR LIRA 040745Z 16008KT 9999 FEW017 SCT080 13/11 Q1017=
201112040715 METAR LIRA 040715Z 17008KT 9999 SCT017 SCT030 12/10 Q1017=
201112040645 METAR LIRA 040645Z 17007KT 9999 SCT017 SCT030 12/10 Q1017=
201112040615 METAR LIRA 040615Z 17005KT 9999 FEW017 SCT070 11/10 Q1017=
201112040545 METAR LIRA 040545Z 17005KT 9999 FEW017 SCT030 11/10 Q1017=
201112040515 METAR LIRA 040515Z 17005KT 9999 SCT030 11/09 Q1017=
201112040445 METAR LIRA 040445Z 17005KT 9999 SCT030 11/09 Q1017=
201112040415 METAR LIRA 040415Z 17005KT 9999 FEW020 SCT070 11/09 Q1017=
201112040345 METAR LIRA 040345Z 17005KT 9999 FEW018 SCT070 12/11 Q1017=
201112040315 METAR LIRA 040315Z 18004KT 9999 FEW018 SCT045 12/12 Q1017=
201112040245 METAR LIRA 040245Z 17004KT 9999 FEW017 SCT040 13/12 Q1017=
201112040215 METAR LIRA 040215Z 18005KT 9999 FEW016 SCT035 12/12 Q1017=
201112040200 METAR LIRA INTER CB N LOW CLOUDS MVG S=
201112040145 METAR LIRA 040145Z 17004KT 9999 FEW015 SCT030 13/13 Q1018=
201112040115 METAR LIRA 040115Z 19005KT 9999 -RA FEW016 FEW020TCU SCT030
                        13/13 Q1018=
201112040045 METAR LIRA 040045Z 19008KT 170V230 9999 -RA FEW015 FEW020TCU
                        SCT030 13/13 Q1018=
201112040015 METAR LIRA 040015Z 18005KT 9999 -RA FEW017 FEW022TCU SCT030
                        13/13 Q1018=
201112032350 METAR LIRA 040045Z 19008KT 170V230 9999 -RA FEW015 FEW020TCU
                        SCT030 13/13 Q1018=
201112032345 METAR LIRA 032345Z 17006KT 9999 FEW017 FEW022TCU SCT030 13/13
                        Q1018 RERA=
201112032315 METAR LIRA 032315Z 17005KT 140V200 9000 FEW017 FEW022TCU
                        SCT030 13/13 Q1018 RERA=
201112032245 METAR LIRA 032245Z 17007KT 130V210 8000 RA FEW016 FEW022TCU
                        SCT030 13/13 Q1018=
201112032215 METAR LIRA 032215Z 15010KT 9999 -RA FEW016 SCT030 14/13 Q1018=
201112032145 METAR LIRA 032145Z 16008KT 9999 -RA FEW016 BKN035 14/13 Q1018=
201112032115 METAR LIRA 032115Z 16008KT 9999 FEW017 SCT035 13/12 Q1019=
201112032045 METAR LIRA 032045Z 16008KT 9999 FEW017 SCT035 13/13 Q1019=
201112032015 METAR LIRA 032015Z 15007KT 9999 FEW017 SCT070 13/12 Q1019=
201112031945 METAR LIRA 031945Z 16007KT 9999 FEW017 SCT070 13/12 Q1019=
201112031915 METAR LIRA 031915Z 16007KT 9999 FEW017 FEW022TCU 13/12 Q1019=
201112031845 METAR LIRA 031845Z 16007KT 9999 FEW017 FEW022TCU 13/12 Q1019=
201112031815 METAR LIRA 031815Z 16008KT 9999 FEW018 FEW022CB SCT070 13/12
                        Q1019=
201112031745 METAR LIRA 031745Z 15007KT 9999 FEW018 FEW022CB SCT030 13/12
                        Q1019=
201112031715 METAR LIRA 031715Z 14008KT 9999 FEW018 FEW022CB SCT030 13/13
                        Q1019=
201112031645 METAR LIRA 031645Z 15009KT 9999 FEW018 FEW020CB 13/13 Q1019=
201112031615 METAR LIRA 031615Z 16009KT 9999 SCT018 FEW020CB 14/13 Q1019=
201112031545 METAR LIRA 031545Z 17008KT 9999 SCT018 FEW020CB 14/13 Q1019=
201112031515 METAR LIRA 031515Z 17006KT 9999 SCT018 FEW020CB 14/13 Q1019=
201112031445 METAR LIRA 031445Z 17007KT 9999 SCT018 FEW020CB 14/12 Q1019=
201112031415 METAR LIRA 031415Z 17005KT 9999 SCT018 FEW020CB 15/13 Q1019
                        RETS=
201112031345 METAR LIRA 031345Z 19005KT 150V230 8000 SCT015 FEW020CB 14/13
                        Q1019 RETS=
201112031315 METAR LIRA 031315Z 04004KT 7000 -TSRA SCT015 FEW020CB 14/13
                        Q1020=
201112031245 METAR LIRA 031245Z 21006KT 170V260 4000 -TSRA BR SCT015 FEW020CB
                        14/13 Q1020=
201112031215 METAR LIRA 031215Z 17008KT 9999 -TSRA SCT018 FEW020CB 14/13
                        Q1020=
201112031145 METAR LIRA 031145Z 16009KT 9999 -RA SCT018 FEW020CB 15/13
                        Q1020=
201112031115 METAR LIRA 031115Z 15013KT 9999 SCT018 FEW022CB 15/11 Q1020=
201112031045 METAR LIRA 031045Z 16011KT 9999 FEW018 FEW022TCU 16/12 Q1021=
201112031015 METAR LIRA 031015Z 15014KT 9999 FEW018 FEW022TCU 16/12 Q1021=
201112030945 METAR LIRA 030945Z 15013KT 9999 FEW018 15/12 Q1021=
201112030815 METAR LIRA 030815Z 15011KT 9999 FEW018 15/12 Q1020=
201112030745 METAR LIRA 030745Z 15011KT 9999 FEW018 14/12 Q1020=
201112030715 METAR LIRA 030715Z 15009KT 9999 SCT018 13/12 Q1020=
201112030645 METAR LIRA 030645Z 15006KT 9999 SCT018 SCT060 13/11 Q1020=
201112030615 METAR LIRA 030615Z 14006KT 9999 SCT018 13/11 Q1020=
201112030545 METAR LIRA 030545Z 13004KT 9999 FEW018 SCT060 13/11 Q1020=
201112030515 METAR LIRA 030515Z 13004KT 9999 FEW018 SCT060 13/11 Q1020=
201112030445 METAR LIRA 030445Z 13006KT 9999 SCT060 13/11 Q1020=
201112030415 METAR LIRA 030415Z 06002KT 9999 SCT060 11/10 Q1020=
201112030345 METAR LIRA 030345Z 16004KT 9999 FEW060 12/11 Q1021=
201112030315 METAR LIRA 030315Z 02001KT 9999 FEW060 09/09 Q1021=
201112030245 METAR LIRA 030245Z 05002KT 9999 SCT060 09/09 Q1021=
201112030215 METAR LIRA 030215Z 35001KT 9999 SCT060 09/09 Q1021=
201112030145 METAR LIRA 030145Z 13002KT 9999 FEW070 10/10 Q1021=
201112030115 METAR LIRA 030115Z 11002KT 9999 FEW018 09/08 Q1022=
201112030045 METAR LIRA 030045Z 03001KT 9999 FEW018 10/10 Q1022=
201112030015 METAR LIRA 030015Z 04001KT 9999 FEW018 11/10 Q1022=
201112022350 METAR LIRA 030045Z 03001KT 9999 FEW018 10/10 Q1022=
201112022345 METAR LIRA 022345Z 14005KT 9999 FEW018 SCT070 11/11 Q1022=
201112022315 METAR LIRA 022315Z 14004KT 9999 FEW018 SCT070 11/11 Q1022=
201112022245 METAR LIRA 022245Z 00000KT 9999 FEW018 10/09 Q1022=
201112022215 METAR LIRA 022215Z 09001KT 9999 FEW018 10/09 Q1022=
201112022145 METAR LIRA 022145Z 00000KT 9999 FEW018 10/09 Q1022=
201112022115 METAR LIRA 022115Z 01002KT 9999 FEW018 11/11 Q1022=
201112022045 METAR LIRA 022045Z 14005KT 9999 FEW018 12/12 Q1022=
201112022015 METAR LIRA 022015Z 15004KT 9999 FEW018 SCT070 12/11 Q1022=
201112021945 METAR LIRA 021945Z 15006KT 9999 FEW018 SCT070 13/12 Q1022=
201112021915 METAR LIRA 021915Z 16008KT 9999 FEW018 SCT070 13/12 Q1022=
201112021845 METAR LIRA 021845Z 17007KT 9999 FEW018 SCT070 14/12 Q1022=
201112021815 METAR LIRA 021815Z 15008KT 9999 FEW018 SCT070 14/12 Q1022=
201112021745 METAR LIRA 021745Z 15005KT 9999 FEW018 SCT070 13/12 Q1022=
201112021715 METAR LIRA 021715Z 18002KT 9999 FEW018 FEW022TCU 13/12 Q1022=
201112021645 METAR LIRA 021645Z 13004KT 9999 FEW018 FEW022TCU 12/11 Q1022=
201112021615 METAR LIRA 021615Z 13004KT 9999 FEW018 FEW022TCU 13/12 Q1022=
201112021545 METAR LIRA 021545Z 16006KT 9999 FEW018 FEW022TCU SCT030 14/12
                        Q1022=
201112021515 METAR LIRA 021515Z 17008KT 9999 FEW018 FEW022TCU SCT035 15/12
                        Q1022=
201112021445 METAR LIRA 021445Z 16008KT 9999 FEW018 FEW022TCU 15/13 Q1022=
201112021415 METAR LIRA 021415Z 16009KT 9999 FEW016 FEW022TCU SCT035 15/12
                        Q1022=
201112021345 METAR LIRA 021345Z 18010KT 9999 FEW018 SCT035 16/12 Q1022=
201112021315 METAR COR LIRA 021315Z 17008KT 140V210 9999 FEW018 SCT035
                        16/12 Q1022=
201112021245 METAR LIRA 021245Z 16009KT 9999 FEW018 SCT040 16/13 Q1022=
201112021215 METAR LIRA 021215Z 17009KT 8000 FEW016 SCT035 16/13 Q1023=
201112021145 METAR LIRA 021145Z 08002KT 8000 SCT016 16/13 Q1023=
201112021115 METAR LIRA 021115Z 09004KT 8000 SCT016 16/14 Q1024=
201112021045 METAR LIRA 021045Z 12006KT 090V160 8000 FEW016 SCT025 16/14
                        Q1024=
201112021015 METAR LIRA 021015Z 13007KT 8000 FEW016 SCT070 15/13 Q1024=
201112020945 METAR LIRA 020945Z 16009KT 7000 FEW016 SCT070 15/13 Q1024=
201112020915 METAR LIRA 020915Z 16008KT 8000 FEW016 SCT070 13/12 Q1024=
201112020845 METAR LIRA 020845Z 29001KT 7000 FEW016 SCT030 13/12 Q1024=
201112020815 METAR LIRA 020815Z 08001KT 8000 FEW018 SCT025 12/11 Q1024=
201112020745 METAR LIRA 020745Z 00000KT 7000 -RA FEW018 BKN030 10/10 Q1024=
201112020715 METAR LIRA 020715Z 00000KT 7000 -RA FEW018 SCT025 10/09 Q1024=
201112020645 METAR LIRA 020645Z 00000KT 8000 FEW018 SCT025 09/08 Q1024=
201112020615 METAR LIRA 020615Z 28001KT 8000 FEW018 SCT025 08/08 Q1024=
201112020545 METAR LIRA 020545Z 29001KT 8000 FEW010 SCT020 BKN060 08/08
                        Q1024=
201112020515 METAR LIRA 020515Z 00000KT 8000 SCT025 SCT070 08/07 Q1024=
201112020445 METAR LIRA 020445Z 32001KT 9999 FEW020 SCT070 08/08 Q1024=
201112020415 METAR LIRA 020415Z 05001KT 9999 FEW020 08/08 Q1024=
201112020345 METAR LIRA 020345Z 34001KT 9999 FEW020 08/08 Q1025=
201112020315 METAR LIRA 020315Z 08001KT 9999 FEW020 SCT070 08/08 Q1025=
201112020245 METAR LIRA 020245Z 07002KT 9999 FEW020 SCT070 08/07 Q1025=
201112020215 METAR LIRA 020215Z 03001KT 9999 SCT020 07/07 Q1025=
201112020145 METAR LIRA 020145Z 06002KT CAVOK 08/07 Q1026=
201112020115 METAR LIRA 020115Z 05003KT CAVOK 07/07 Q1026=
201112020045 METAR LIRA 020045Z 09002KT CAVOK 08/07 Q1026=
201112020015 METAR LIRA 020015Z 08001KT CAVOK 08/08 Q1026=
201112012350 METAR LIRA 020045Z 09002KT CAVOK 08/07 Q1026=
201112012345 METAR LIRA 012345Z 18002KT CAVOK 09/09 Q1026=
201112012315 METAR LIRA 012315Z 15003KT CAVOK 08/08 Q1026=
201112012245 METAR LIRA 012245Z 14002KT CAVOK 08/07 Q1027=
201112012215 METAR LIRA 012215Z 15003KT CAVOK 08/07 Q1027=
201112012145 METAR LIRA 012145Z 09002KT CAVOK 09/08 Q1027=
201112012115 METAR LIRA 012115Z 00000KT CAVOK 08/07 Q1027=
201112012045 METAR LIRA 012045Z 00000KT CAVOK 09/08 Q1027=
201112012015 METAR LIRA 012015Z 05002KT 9999 FEW010 10/09 Q1027=
201112011945 METAR LIRA 011945Z 14003KT 9999 FEW010 10/10 Q1027=
201112011915 METAR LIRA 011915Z 11004KT 9999 FEW010 10/10 Q1027=
201112011845 METAR LIRA 011845Z 13002KT 9999 FEW010 11/10 Q1027=
201112011815 METAR LIRA 011815Z 15004KT 9999 FEW010 11/10 Q1027=
201112011745 METAR LIRA 011745Z 15005KT CAVOK 10/10 Q1027=
201112011715 METAR LIRA 011715Z 15004KT CAVOK 11/10 Q1027=
201112011645 METAR LIRA 011645Z 20002KT 9999 FEW025 12/10 Q1026=
201112011615 METAR LIRA 011615Z 00000KT 9999 FEW025 12/10 Q1026=
201112011545 METAR LIRA 011545Z 00000KT 9999 FEW025 14/11 Q1026=
201112011515 METAR LIRA 011515Z 00000KT 9999 FEW025 16/10 Q1026=
201112011445 METAR LIRA 011445Z 30002KT 9999 FEW020 16/11 Q1026=
201112011415 METAR LIRA 011415Z 33002KT 9999 FEW020 16/10 Q1027=
201112011345 METAR LIRA 011345Z 00000KT 9999 FEW020 16/09 Q1027=
201112011315 METAR LIRA 011315Z 36001KT 9999 FEW020 17/10 Q1027=
201112011245 METAR LIRA 011245Z 00000KT 9999 FEW020 16/09 Q1027=
201112011215 METAR LIRA 011215Z 01002KT 9999 FEW020 16/09 Q1027=
201112011145 METAR LIRA 011145Z 36001KT 9999 FEW020 15/08 Q1028=
201112011115 METAR LIRA 011115Z 35003KT 9999 FEW020 15/09 Q1028=
201112011045 METAR LIRA 011045Z 33002KT 9999 FEW020 14/08 Q1029=
201112011015 METAR LIRA 011015Z 36002KT 9999 FEW020 12/08 Q1029=
201112010945 METAR LIRA 010945Z 04001KT 9000 FEW005 12/08 Q1029=
201112010915 METAR LIRA 010915Z 03003KT 9000 FEW005 10/07 Q1029=
201112010845 METAR LIRA 010845Z 03002KT CAVOK 09/07 Q1028=
201112010815 METAR LIRA 010815Z 01002KT CAVOK 08/07 Q1028=
201112010745 METAR LIRA 010745Z 01002KT 9000 NSC 07/07 Q1028=
201112010715 METAR LIRA 010715Z 04002KT 9000 SKC 06/06 Q1028=
201112010645 METAR LIRA 010645Z 05005KT 9000 FEW030 05/05 Q1028=
201112010615 METAR LIRA 010615Z 04002KT 8000 SCT070 05/05 Q1028=
201112010545 METAR LIRA 010545Z 36002KT 8000 SCT070 05/05 Q1028=
201112010515 METAR LIRA 010515Z 05002KT 8000 SCT070 05/05 Q1028=
201112010445 METAR LIRA 010445Z 04003KT 8000 FEW080 05/05 Q1028=
201112010415 METAR LIRA 010415Z 06002KT 8000 FEW080 05/05 Q1028=
201112010345 METAR LIRA 010345Z 08003KT 8000 FEW080 05/05 Q1028=
201112010315 METAR LIRA 010315Z 05003KT 8000 FEW080 06/06 Q1028=
201112010245 METAR LIRA 010245Z 03003KT 8000 FEW080 05/05 Q1028=
201112010215 METAR LIRA 010215Z 00000KT CAVOK 05/05 Q1028=
201112010145 METAR LIRA 010145Z 04001KT CAVOK 05/05 Q1028=
201112010115 METAR LIRA 010115Z 06003KT CAVOK 05/05 Q1028=
201112010045 METAR LIRA 010045Z 06003KT CAVOK 05/05 Q1028=
201112010015 METAR LIRA 010015Z 02002KT CAVOK 06/06 Q1028=

</pre>

</body>
</html>
