##########################################################
# Query made at 11/10/2014 17:15:33 UTC
# Time interval: from 12/01/2012 00:00  to 12/31/2012 23:59  UTC
##########################################################

##########################################################
# LIRA, Roma / Ciampino (Italy)
# WMO index: 16239
# Latitude 41-47N. Longitude 012-35E. Altitude 129 m.
##########################################################

###################################
#  METAR/SPECI from LIRA
###################################
201212312350 METAR LIRA 010045Z 03001KT 7000 3000N R15/1200N BCFG BKN001
                        03/01 Q1021=
201212312345 METAR LIRA 312345Z 03001KT 8000 VCFG FEW002 03/02 Q1021=
201212312315 METAR LIRA 312315Z 02001KT 8000 FEW003 04/02 Q1021=
201212312245 METAR LIRA 312245Z 00000KT 9999 FEW005 05/02 Q1021=
201212312215 METAR LIRA 312215Z 13002KT CAVOK 05/03 Q1021=
201212312145 METAR LIRA 312145Z 14001KT CAVOK 05/02 Q1021=
201212312115 METAR LIRA 312115Z 13001KT CAVOK 04/03 Q1021=
201212312045 METAR LIRA 312045Z 16002KT 9999 FEW025 04/02 Q1021=
201212312015 METAR LIRA 312015Z 13002KT CAVOK 05/02 Q1021=
201212311945 METAR LIRA 311945Z 13002KT CAVOK 05/02 Q1022=
201212311915 METAR LIRA 311915Z 16003KT CAVOK 05/02 Q1022=
201212311845 METAR LIRA 311845Z 16003KT CAVOK 07/04 Q1022=
201212311815 METAR LIRA 311815Z 16004KT CAVOK 07/04 Q1022=
201212311745 METAR LIRA 311745Z 16003KT CAVOK 07/04 Q1022=
201212311715 METAR LIRA 311715Z 16002KT CAVOK 08/04 Q1021=
201212311645 METAR LIRA 311645Z 18001KT CAVOK 08/04 Q1021=
201212311615 METAR LIRA 311615Z 19001KT CAVOK 10/04 Q1021=
201212311545 METAR LIRA 311545Z 22002KT CAVOK 11/01 Q1021=
201212311515 METAR LIRA 311515Z 00000KT CAVOK 12/01 Q1022=
201212311445 METAR LIRA 311445Z 27002KT CAVOK 12/02 Q1022=
201212311415 METAR LIRA 311415Z 24002KT CAVOK 12/03 Q1022=
201212311345 METAR LIRA 311345Z 28003KT CAVOK 13/03 Q1022=
201212311315 METAR LIRA 311315Z 27003KT CAVOK 12/02 Q1022=
201212311245 METAR LIRA 311245Z 21001KT CAVOK 12/03 Q1022=
201212311215 METAR LIRA 311215Z 00000KT CAVOK 12/01 Q1022=
201212311145 METAR LIRA 311145Z 07001KT CAVOK 11/01 Q1023=
201212311115 METAR LIRA 311115Z 01002KT CAVOK 10/M00 Q1023=
201212311045 METAR LIRA 311045Z 01002KT CAVOK 09/01 Q1024=
201212311015 METAR LIRA 311015Z 02002KT CAVOK 08/01 Q1024=
201212310945 METAR LIRA 310945Z 02003KT CAVOK 06/00 Q1024=
201212310915 METAR LIRA 310915Z 04003KT CAVOK 05/01 Q1024=
201212310845 METAR LIRA 310845Z 01002KT CAVOK 04/00 Q1024=
201212310815 METAR LIRA 310815Z 03003KT CAVOK 03/00 Q1024=
201212310745 METAR LIRA 310745Z 05004KT CAVOK 02/00 Q1024=
201212310715 METAR LIRA 310715Z 06003KT CAVOK 01/M00 Q1024=
201212310645 METAR LIRA 310645Z 04002KT CAVOK 01/M00 Q1023=
201212310615 METAR LIRA 310615Z 06002KT CAVOK 01/M00 Q1023=
201212310545 METAR LIRA 310545Z 04001KT CAVOK 01/M00 Q1023=
201212310515 METAR LIRA 310515Z 04002KT CAVOK 01/M00 Q1023=
201212310445 METAR LIRA 310445Z 02001KT CAVOK 02/00 Q1023=
201212310415 METAR LIRA 310415Z 07001KT CAVOK 02/00 Q1023=
201212310345 METAR LIRA 310345Z 08002KT CAVOK 01/01 Q1023=
201212310315 METAR LIRA 310315Z 08002KT CAVOK 01/00 Q1023=
201212310245 METAR LIRA 310245Z 36001KT CAVOK 01/00 Q1023=
201212310215 METAR LIRA 310215Z 01001KT CAVOK 02/01 Q1023=
201212310145 METAR LIRA 310145Z 00000KT CAVOK 02/01 Q1023=
201212310115 METAR LIRA 310115Z 08002KT CAVOK 02/01 Q1023=
201212310045 METAR LIRA 310045Z 35001KT CAVOK 03/02 Q1023=
201212310015 METAR LIRA 310015Z 00000KT CAVOK 03/02 Q1023=
201212302350 METAR LIRA 310045Z 35001KT CAVOK 03/02 Q1023=
201212302345 METAR LIRA 302345Z 11001KT CAVOK 03/01 Q1023=
201212302315 METAR LIRA 302315Z 11001KT CAVOK 03/01 Q1023=
201212302245 METAR LIRA 302245Z 00000KT CAVOK 04/02 Q1023=
201212302215 METAR LIRA 302215Z 00000KT CAVOK 04/02 Q1023=
201212302145 METAR LIRA 302145Z 04001KT CAVOK 05/02 Q1023=
201212302115 METAR LIRA 302115Z 07002KT CAVOK 05/02 Q1023=
201212302045 METAR LIRA 302045Z 01002KT CAVOK 05/02 Q1023=
201212302015 METAR LIRA 302015Z 32001KT CAVOK 05/02 Q1023=
201212301945 METAR LIRA 301945Z 00000KT CAVOK 06/02 Q1023=
201212301915 METAR LIRA 301915Z 00000KT CAVOK 06/02 Q1022=
201212301845 METAR LIRA 301845Z 07002KT CAVOK 07/03 Q1022=
201212301815 METAR LIRA 301815Z 00000KT CAVOK 07/02 Q1022=
201212301745 METAR LIRA 301745Z 00000KT CAVOK 08/02 Q1022=
201212301715 METAR LIRA 301715Z 06001KT CAVOK 08/03 Q1022=
201212301645 METAR LIRA 301645Z 08002KT CAVOK 09/02 Q1022=
201212301615 METAR LIRA 301615Z 06003KT CAVOK 09/02 Q1021=
201212301545 METAR LIRA 301545Z 03001KT CAVOK 11/02 Q1021=
201212301515 METAR LIRA 301515Z 34004KT CAVOK 11/03 Q1021=
201212301445 METAR LIRA 301445Z 35003KT CAVOK 12/03 Q1021=
201212301415 METAR LIRA 301415Z 36003KT CAVOK 12/03 Q1022=
201212301345 METAR LIRA 301345Z 02003KT CAVOK 12/04 Q1022=
201212301315 METAR LIRA 301315Z 03003KT CAVOK 12/03 Q1022=
201212301245 METAR LIRA 301245Z 02003KT CAVOK 11/03 Q1022=
201212301215 METAR LIRA 301215Z 01003KT CAVOK 11/03 Q1022=
201212301145 METAR LIRA 301145Z 02003KT CAVOK 10/02 Q1023=
201212301115 METAR LIRA 301115Z 04003KT CAVOK 09/02 Q1023=
201212301045 METAR LIRA 301045Z 03003KT CAVOK 08/02 Q1023=
201212301015 METAR LIRA 301015Z 03003KT CAVOK 08/01 Q1024=
201212300945 METAR LIRA 300945Z 04005KT 360V070 CAVOK 06/01 Q1024=
201212300915 METAR LIRA 300915Z 03003KT CAVOK 05/00 Q1023=
201212300845 METAR LIRA 300845Z 02003KT CAVOK 04/01 Q1023=
201212300815 METAR LIRA 300815Z 03003KT CAVOK 04/00 Q1023=
201212300745 METAR LIRA 300745Z 04002KT CAVOK 02/M00 Q1022=
201212300715 METAR LIRA 300715Z 05002KT CAVOK 01/M01 Q1022=
201212300645 METAR LIRA 300645Z 03002KT CAVOK 01/M01 Q1022=
201212300615 METAR LIRA 300615Z 05002KT CAVOK 01/M01 Q1022=
201212300545 METAR LIRA 300545Z 01003KT CAVOK 01/M01 Q1022=
201212300515 METAR LIRA 300515Z 06003KT CAVOK 01/M01 Q1022=
201212300445 METAR LIRA 300445Z 05003KT CAVOK 01/M01 Q1021=
201212300415 METAR COR LIRA 300415Z 04002KT CAVOK 01/M01 Q1021=
201212300345 METAR LIRA 300345Z 05002KT CAVOK 01/M01 Q1022=
201212300315 METAR LIRA 300315Z 04001KT CAVOK 02/M01 Q1022=
201212300245 METAR LIRA 300245Z 03002KT CAVOK 02/M01 Q1022=
201212300215 METAR LIRA 300215Z 05003KT CAVOK 02/M01 Q1022=
201212300145 METAR LIRA 300145Z 04002KT CAVOK 02/M00 Q1022=
201212300115 METAR LIRA 300115Z 05003KT CAVOK 02/M00 Q1022=
201212300045 METAR LIRA 300045Z 02002KT CAVOK 03/00 Q1022=
201212300015 METAR LIRA 300015Z 36002KT CAVOK 03/M00 Q1022=
201212292350 METAR LIRA 300045Z 02002KT CAVOK 03/00 Q1022=
201212292345 METAR LIRA 292345Z 06002KT CAVOK 03/M00 Q1022=
201212292315 METAR LIRA 292315Z 04001KT CAVOK 03/M01 Q1022=
201212292245 METAR LIRA 292245Z 05002KT CAVOK 03/00 Q1022=
201212292215 METAR LIRA 292215Z 04001KT CAVOK 03/M00 Q1022=
201212292145 METAR LIRA 292145Z 11002KT CAVOK 03/M00 Q1021=
201212292115 METAR LIRA 292115Z 11003KT CAVOK 03/M00 Q1021=
201212292045 METAR LIRA 292045Z 14002KT CAVOK 04/00 Q1021=
201212292015 METAR LIRA 292015Z 00000KT CAVOK 04/M00 Q1021=
201212291945 METAR LIRA 291945Z 00000KT CAVOK 04/M00 Q1021=
201212291915 METAR LIRA 291915Z 00000KT CAVOK 04/M00 Q1021=
201212291845 METAR LIRA 291845Z 12002KT CAVOK 04/M01 Q1021=
201212291815 METAR LIRA 291815Z 01003KT CAVOK 07/M01 Q1021=
201212291745 METAR LIRA 291745Z 06007KT CAVOK 08/M00 Q1021=
201212291715 METAR LIRA 291715Z 06007KT CAVOK 08/M00 Q1021=
201212291645 METAR LIRA 291645Z 03005KT CAVOK 09/M01 Q1021=
201212291615 METAR LIRA 291615Z 03006KT CAVOK 10/M02 Q1021=
201212291545 METAR LIRA 291545Z 04007KT CAVOK 11/M02 Q1022=
201212291515 METAR LIRA 291515Z 35006KT 310V020 CAVOK 11/M02 Q1021=
201212291445 METAR LIRA 291445Z 35008KT 320V020 CAVOK 12/M01 Q1022=
201212291415 METAR LIRA 291415Z 02007KT 330V050 CAVOK 12/M01 Q1022=
201212291345 METAR LIRA 291345Z 01008KT 320V060 CAVOK 12/M01 Q1022=
201212291315 METAR LIRA 291315Z 36011G21KT 300V040 CAVOK 12/M01 Q1022=
201212291245 METAR LIRA 291245Z 36012KT CAVOK 12/M01 Q1022=
201212291215 METAR LIRA 291215Z 36012G22KT 310V030 CAVOK 12/M01 Q1022=
201212291145 METAR LIRA 291145Z 02008KT 330V050 CAVOK 12/M00 Q1022=
201212291115 METAR LIRA 291115Z 02014KT 340V060 CAVOK 11/01 Q1023=
201212291045 METAR LIRA 291045Z 01012KT 330V050 CAVOK 10/01 Q1023=
201212291015 METAR LIRA 291015Z 01009KT 320V030 CAVOK 10/00 Q1023=
201212290945 METAR LIRA 290945Z 01008KT 330V040 CAVOK 09/00 Q1023=
201212290915 METAR LIRA 290915Z 01008KT 320V050 CAVOK 09/M00 Q1023=
201212290845 METAR LIRA 290845Z 36005KT 320V040 CAVOK 08/M01 Q1023=
201212290815 METAR LIRA 290815Z 03005KT 360V070 CAVOK 06/M01 Q1023=
201212290745 METAR LIRA 290745Z 04006KT CAVOK 06/M00 Q1023=
201212290715 METAR LIRA 290715Z 02006KT CAVOK 05/M01 Q1023=
201212290645 METAR LIRA 290645Z 09006KT CAVOK 05/M01 Q1023=
201212290615 METAR LIRA 290615Z 04005KT CAVOK 05/M01 Q1023=
201212290545 METAR LIRA 290545Z 01001KT CAVOK 04/M01 Q1023=
201212290515 METAR LIRA 290515Z 09004KT CAVOK 03/M01 Q1023=
201212290445 METAR LIRA 290445Z 08004KT CAVOK 04/M01 Q1023=
201212290415 METAR LIRA 290415Z 10002KT CAVOK 05/M01 Q1023=
201212290345 METAR LIRA 290345Z 36003KT CAVOK 07/00 Q1023=
201212290315 METAR LIRA 290315Z 34010KT CAVOK 08/00 Q1022=
201212290245 METAR LIRA 290245Z 35008KT CAVOK 08/M00 Q1022=
201212290215 METAR LIRA 290215Z 35008KT CAVOK 08/M00 Q1022=
201212290145 METAR LIRA 290145Z 33015KT CAVOK 09/01 Q1022=
201212290115 METAR LIRA 290115Z 33016KT CAVOK 09/00 Q1022=
201212290045 METAR LIRA 290045Z 33016KT CAVOK 09/00 Q1023=
201212290015 METAR LIRA 290015Z 34011KT CAVOK 09/M00 Q1023=
201212282350 METAR LIRA 290045Z 33016KT CAVOK 09/00 Q1023=
201212282345 METAR LIRA 282345Z 35007KT CAVOK 09/M00 Q1023=
201212282315 METAR LIRA 282315Z 34005KT CAVOK 09/M01 Q1023=
201212282245 METAR LIRA 282245Z 35007KT CAVOK 09/M01 Q1023=
201212282215 METAR LIRA 282215Z 01007KT 340V050 CAVOK 10/M01 Q1023=
201212282145 METAR LIRA 282145Z 02007KT 350V060 CAVOK 10/M01 Q1023=
201212282115 METAR LIRA 282115Z 05007KT CAVOK 09/M00 Q1022=
201212282045 METAR LIRA 282045Z 03003KT CAVOK 09/M01 Q1022=
201212282015 METAR LIRA 282015Z 04005KT 350V060 CAVOK 10/01 Q1022=
201212281945 METAR LIRA 281945Z 02010KT 350V060 CAVOK 11/01 Q1021=
201212281915 METAR LIRA 281915Z 35012KT CAVOK 11/02 Q1021=
201212281845 METAR LIRA 281845Z 35010KT CAVOK 10/03 Q1021=
201212281815 METAR LIRA 281815Z 36004KT CAVOK 10/04 Q1021=
201212281745 METAR LIRA 281745Z 34005KT CAVOK 11/04 Q1020=
201212281715 METAR LIRA 281715Z 34006KT 9999 FEW017 11/04 Q1020=
201212281645 METAR LIRA 281645Z 35007KT 300V010 9999 FEW017 12/03 Q1020=
201212281615 METAR LIRA 281615Z 35006KT 310V030 9999 FEW017 13/03 Q1020=
201212281545 METAR LIRA 281545Z 34008KT 9999 FEW017 13/03 Q1019=
201212281515 METAR LIRA 281515Z 35009KT 9999 FEW017 14/03 Q1019=
201212281445 METAR LIRA 281445Z 35008KT 310V030 9999 FEW017 14/02 Q1019=
201212281415 METAR LIRA 281415Z 35010KT 9999 FEW017 15/02 Q1018=
201212281345 METAR LIRA 281345Z 34011KT 9999 FEW017 15/03 Q1018=
201212281315 METAR LIRA 281315Z 33014KT 9999 FEW017 15/03 Q1018=
201212281245 METAR LIRA 281245Z 34013KT 320V020 9999 FEW017 15/04 Q1018=
201212281215 METAR LIRA 281215Z 33011KT 280V350 9999 FEW017 15/06 Q1019=
201212281145 METAR LIRA 281145Z 33010KT 9999 FEW017 15/09 Q1019=
201212281115 METAR LIRA 281115Z 34008KT 290V010 9999 FEW017 14/09 Q1019=
201212281045 METAR LIRA 281045Z 32007KT 9999 FEW017 14/10 Q1019=
201212281015 METAR LIRA 281015Z 32005KT 9999 FEW017 13/10 Q1019=
201212280945 METAR LIRA 280945Z 31003KT CAVOK 12/09 Q1019=
201212280915 METAR LIRA 280915Z 31003KT CAVOK 11/10 Q1019=
201212280845 METAR LIRA 280845Z 06001KT CAVOK 10/09 Q1018=
201212280815 METAR LIRA 280815Z 06002KT 9999 FEW018 09/08 Q1018=
201212280745 METAR LIRA 280745Z 03001KT 9999 FEW018 08/07 Q1018=
201212280715 METAR LIRA 280715Z 00000KT 9999 FEW018 SCT030 07/07 Q1018=
201212280645 METAR LIRA 280645Z 04002KT 9999 FEW018 SCT030 07/07 Q1017=
201212280615 METAR LIRA 280615Z 00000KT 9999 FEW030 SCT070 08/07 Q1017=
201212280545 METAR LIRA 280545Z 00000KT 9999 FEW030 SCT070 08/07 Q1016=
201212280515 METAR LIRA 280515Z 01002KT 9999 FEW030 SCT070 09/08 Q1016=
201212280445 METAR LIRA 280445Z 13003KT 9999 FEW030 SCT070 09/08 Q1015=
201212280415 METAR LIRA 280415Z 15003KT 9999 FEW030 SCT070 10/09 Q1016=
201212280345 METAR LIRA 280345Z 11002KT 9999 FEW018 SCT060 10/09 Q1016=
201212280315 METAR LIRA 280315Z 10005KT 9999 FEW018 SCT060 09/08 Q1016=
201212280245 METAR LIRA 280245Z 11005KT 9999 FEW018 SCT060 09/08 Q1017=
201212280215 METAR LIRA 280215Z 15005KT 9999 FEW018 BKN060 09/08 Q1017=
201212280145 METAR LIRA 280145Z 15005KT 9999 SCT018 SCT070 09/08 Q1017=
201212280115 METAR LIRA 280115Z 14005KT 9999 FEW018 BKN070 09/08 Q1017=
201212280045 METAR LIRA 280045Z 14006KT 8000 FEW018 SCT070 10/09 Q1017=
201212280015 METAR LIRA 280015Z 14006KT 8000 FEW018 SCT070 11/10 Q1017=
201212272350 METAR LIRA 280045Z 14006KT 8000 FEW018 SCT070 10/09 Q1017=
201212272345 METAR LIRA 272345Z 17004KT 8000 FEW018 SCT070 11/10 Q1018=
201212272315 METAR LIRA 272315Z 17005KT 8000 FEW018 SCT080 12/10 Q1018=
201212272245 METAR LIRA 272245Z 17006KT 8000 FEW018 SCT080 12/10 Q1018=
201212272215 METAR LIRA 272215Z 16005KT 8000 SCT018 12/10 Q1019=
201212272145 METAR LIRA 272145Z 16007KT 8000 SCT018 SCT030 12/10 Q1019=
201212272115 METAR LIRA 272115Z 17006KT 8000 FEW012 BKN020 12/10 Q1019=
201212272045 METAR LIRA 272045Z 16008KT 8000 FEW010 BKN020 12/10 Q1019=
201212272015 METAR LIRA 272015Z 16008KT 8000 FEW010 BKN020 12/10 Q1019=
201212271945 METAR LIRA 271945Z 16008KT 8000 SCT018 BKN030 12/10 Q1019=
201212271915 METAR LIRA 271915Z 16007KT 8000 SCT018 BKN030 12/10 Q1019=
201212271845 METAR LIRA 271845Z 17006KT 8000 SCT018 SCT030 12/10 Q1019=
201212271815 METAR LIRA 271815Z 17007KT 8000 FEW010 SCT018 12/10 Q1019=
201212271745 METAR LIRA 271745Z 16006KT 8000 FEW010 SCT018 12/10 Q1019=
201212271715 METAR LIRA 271715Z 16005KT 8000 FEW010 SCT018 12/10 Q1019=
201212271645 METAR LIRA 271645Z 16005KT 9999 SCT015 SCT025 10/09 Q1020=
201212271615 METAR LIRA 271615Z 17005KT 9999 SCT015 SCT025 11/09 Q1020=
201212271545 METAR LIRA 271545Z 20006KT 9999 SCT015 SCT025 13/11 Q1020=
201212271515 METAR LIRA 271515Z 23005KT 9999 SCT015 SCT025 13/11 Q1020=
201212271445 METAR LIRA 271445Z 23005KT 9999 SCT015 SCT030 14/11 Q1020=
201212271415 METAR LIRA 271415Z 23005KT 9999 SCT015 14/10 Q1020=
201212271345 METAR LIRA 271345Z 22002KT 9999 SCT015 15/10 Q1020=
201212271315 METAR LIRA 271315Z 25002KT 9999 FEW015 15/11 Q1021=
201212271245 METAR LIRA 271245Z 24002KT 9999 FEW015 15/11 Q1021=
201212271215 METAR LIRA 271215Z 03001KT 9999 SCT015 15/11 Q1021=
201212271145 METAR LIRA 271145Z 03001KT 9999 SCT015 12/10 Q1021=
201212271115 METAR LIRA 271115Z 03002KT 9999 SCT015 12/10 Q1022=
201212271045 METAR LIRA 271045Z 04003KT 9999 BKN005 10/09 Q1022=
201212271015 METAR LIRA 271015Z 01002KT 9999 SCT005 09/08 Q1022=
201212270945 METAR LIRA 270945Z 02002KT 3000 0900S R15/0900U BCFG BR BKN001
                        08/08 Q1021=
201212270915 METAR LIRA 270915Z 01001KT 0400 FG OVC001 08/07 Q1021=
201212270845 METAR LIRA 270845Z 02002KT 0900 FG OVC001 08/07 Q1021=
201212270815 METAR LIRA 270815Z 04002KT 0900 FG OVC001 08/07 Q1020=
201212270745 METAR LIRA 270745Z 04003KT 0300 FG OVC001 08/07 Q1020=
201212270715 METAR LIRA 270715Z 03002KT 0200 R15/0200U FG OVC001 08/07
                        Q1019=
201212270645 METAR LIRA 270645Z 03001KT 0200 R15/0220U FG OVC001 08/08
                        Q1019=
201212270615 METAR LIRA 270615Z 00000KT 0300 R15/0300U FG OVC001 08/08
                        Q1018=
201212270545 METAR LIRA 270545Z 05002KT 0300 R15/0300U FG OVC001 08/08
                        Q1018=
201212270515 METAR LIRA 270515Z 04003KT 6000 0900N R15/0900U BCFG BKN001
                        08/08 Q1018=
201212270445 METAR LIRA 270445Z 35002KT 6000 1000N R15/1000U BCFG BKN001
                        08/08 Q1018=
201212270415 METAR LIRA 270415Z 06002KT 7000 1500N R15/P1500D MIFG BKN001
                        09/09 Q1018=
201212270345 METAR LIRA 270345Z 04001KT 7000 1500N R15/0500D MIFG BKN001
                        09/09 Q1018=
201212270315 METAR LIRA 270315Z 04003KT 7000 1500N R15/P1500D MIFG SCT001
                        SCT070 10/10 Q1018=
201212270245 METAR LIRA 270245Z 02003KT 5000 1500N R15/P1500N BR MIFG
                        SCT001 SCT070 10/10 Q1018=
201212270215 METAR LIRA 270215Z 03001KT 5000 0500 R15/0600D BR MIFG SCT001
                        SCT070 10/10 Q1018=
201212270145 METAR LIRA 270145Z 02001KT 9999 FEW017 FEW020TCU SCT025 11/10
                        Q1018=
201212270115 METAR LIRA 270115Z 01001KT 9999 FEW017 FEW020TCU SCT025 11/10
                        Q1018 RETS=
201212270045 METAR LIRA 270045Z 04003KT 9999 FEW017 FEW020CB SCT025 11/11
                        Q1017 RETS=
201212270015 METAR LIRA 270015Z 11003KT 9000 -TSRA FEW017 FEW020CB SCT025
                        12/12 Q1018=
201212262350 METAR LIRA 270045Z 04003KT 9999 FEW017 FEW020CB SCT025 11/11
                        Q1017 RETS=
201212262345 METAR LIRA 262345Z 15009KT 120V250 5000 -TSRA BR FEW014 FEW017CB
                        SCT025 12/12 Q1018=
201212262315 METAR LIRA 262315Z 01005KT 330V070 3000 TSRA BR FEW014 FEW017CB
                        SCT025 BKN070 12/12 Q1018=
201212262245 METAR LIRA 262245Z 08004KT 9000 -TSRA FEW015 FEW020CB SCT025
                        13/11 Q1017=
201212262215 METAR LIRA 262215Z 17006KT 9000 -TSRA FEW017 FEW020CB SCT025
                        14/12 Q1017=
201212262145 METAR LIRA 262145Z 18005KT 9000 -TSRA FEW017 FEW020CB SCT025
                        14/11 Q1016=
201212262115 METAR LIRA 262115Z 18007KT 9999 FEW017 SCT025 14/11 Q1016=
201212262045 METAR LIRA 262045Z 17007KT 9999 FEW017 SCT025 14/12 Q1016=
201212262015 METAR LIRA 262015Z 17007KT 9999 FEW017 SCT025 14/13 Q1016=
201212261945 METAR LIRA 261945Z 16007KT 9999 FEW017 SCT025 14/13 Q1016=
201212261915 METAR LIRA 261915Z 16009KT 9999 FEW017 SCT025 14/13 Q1016=
201212261845 METAR LIRA 261845Z 16006KT 9999 FEW017 SCT025 14/13 Q1016=
201212261815 METAR LIRA 261815Z 16009KT 9999 FEW017 SCT025 14/13 Q1016=
201212261745 METAR LIRA 261745Z 16009KT 9999 FEW017 SCT025 14/13 Q1015=
201212261715 METAR LIRA 261715Z 17010KT 9999 FEW017 SCT025 14/13 Q1015=
201212261645 METAR LIRA 261645Z 18009KT 9999 FEW017 SCT025 15/12 Q1014=
201212261615 METAR LIRA 261615Z 19008KT 9999 FEW017 SCT025 15/12 Q1014=
201212261545 METAR LIRA 261545Z 17007KT 9999 FEW017 SCT020 15/12 Q1014=
201212261515 METAR LIRA 261515Z 15012KT 9999 FEW017 SCT020 16/12 Q1014=
201212261445 METAR LIRA 261445Z 16009KT 9999 FEW017 SCT020 16/12 Q1014=
201212261415 METAR LIRA 261415Z 16008KT 9999 FEW017 SCT020 16/12 Q1015=
201212261345 METAR LIRA 261345Z 17009KT 150V210 9999 FEW017 SCT025 15/11
                        Q1015=
201212261315 METAR LIRA 261315Z 18010KT 9999 FEW017 SCT020 16/11 Q1015=
201212261245 METAR LIRA 261245Z 16014KT 9999 FEW017 SCT020 16/11 Q1015=
201212261215 METAR LIRA 261215Z 15012KT 9999 FEW020 SCT060 17/12 Q1015=
201212261145 METAR LIRA 261145Z 15014KT 9999 FEW020 SCT060 17/12 Q1015=
201212261115 METAR LIRA 261115Z 16012KT 130V200 9999 FEW020 17/13 Q1016=
201212261045 METAR LIRA 261045Z 15014G24KT 9999 FEW020 17/13 Q1016=
201212261015 METAR LIRA 261015Z 15013KT 9999 FEW025 16/13 Q1016=
201212260945 METAR LIRA 260945Z 14015KT 9999 FEW025 16/12 Q1015=
201212260915 METAR LIRA 260915Z 14014KT 9999 FEW014TCU SCT025 16/12 Q1016=
201212260845 METAR LIRA 260845Z 16011KT 9999 FEW014TCU BKN025 15/12 Q1016=
201212260815 METAR LIRA 260815Z 15009KT 9999 FEW014TCU SCT025 15/12 Q1015=
201212260745 METAR LIRA 260745Z 15011KT 9999 FEW014 15/12 Q1015=
201212260715 METAR LIRA 260715Z 14010KT 9999 FEW014 14/11 Q1015=
201212260645 METAR LIRA 260645Z 14011KT 9999 FEW016 SCT040 14/11 Q1015=
201212260615 METAR LIRA 260615Z 14012KT 9999 FEW016 SCT060 14/11 Q1015=
201212260545 METAR LIRA 260545Z 13012KT 9999 FEW016 BKN060 14/11 Q1016=
201212260515 METAR LIRA 260515Z 14010KT 9999 FEW016 BKN060 14/10 Q1016=
201212260445 METAR LIRA 260445Z 14012KT 9999 FEW025 BKN070 14/10 Q1016=
201212260415 METAR LIRA 260415Z 14012KT 9999 BKN070 15/11 Q1016=
201212260345 METAR LIRA 260345Z 14010KT 9999 BKN070 14/10 Q1016=
201212260315 METAR LIRA 260315Z 14012KT 9999 BKN070 15/10 Q1016=
201212260245 METAR LIRA 260245Z 14013KT 9999 BKN070 14/09 Q1016=
201212260215 METAR LIRA 260215Z 15010KT 9999 SCT070 14/09 Q1017=
201212260145 METAR LIRA 260145Z 15011KT 9999 SCT070 15/09 Q1017=
201212260115 METAR LIRA 260115Z 16009KT 9999 SCT070 15/09 Q1017=
201212260045 METAR LIRA 260045Z 17004KT 9999 FEW070 14/09 Q1017=
201212260015 METAR LIRA 260015Z 14006KT 110V180 9999 FEW070 14/08 Q1017=
201212252350 METAR LIRA 260045Z 17004KT 9999 FEW070 14/09 Q1017=
201212252345 METAR LIRA 252345Z 14005KT 9999 FEW070 13/08 Q1017=
201212252315 METAR LIRA 252315Z 16007KT 120V190 9999 FEW070 14/08 Q1018=
201212252245 METAR LIRA 252245Z 12004KT 9999 FEW070 11/07 Q1018=
201212252215 METAR LIRA 252215Z 32001KT 9999 FEW070 11/07 Q1018=
201212252145 METAR LIRA 252145Z 20003KT 9999 FEW070 14/09 Q1018=
201212252115 METAR LIRA 252115Z 16007KT 140V200 9999 FEW070 14/08 Q1017=
201212252045 METAR LIRA 252045Z 10002KT 9999 FEW070 12/07 Q1018=
201212252015 METAR LIRA 252015Z 21004KT 9999 FEW070 12/07 Q1018=
201212251945 METAR LIRA 251945Z 15005KT 9999 FEW070 13/07 Q1018=
201212251915 METAR LIRA 251915Z 15006KT 9999 FEW070 14/09 Q1018=
201212251845 METAR LIRA 251845Z 16008KT 9999 FEW070 13/09 Q1018=
201212251815 METAR LIRA 251815Z 20003KT CAVOK 11/09 Q1018=
201212251745 METAR LIRA 251745Z 30001KT CAVOK 10/09 Q1018=
201212251715 METAR LIRA 251715Z 02002KT CAVOK 11/09 Q1018=
201212251645 METAR LIRA 251645Z 09001KT CAVOK 11/09 Q1018=
201212251615 METAR LIRA 251615Z 15004KT CAVOK 12/10 Q1018=
201212251545 METAR LIRA 251545Z 22001KT CAVOK 13/10 Q1018=
201212251515 METAR LIRA 251515Z 13004KT CAVOK 14/09 Q1018=
201212251445 METAR LIRA 251445Z 14009KT CAVOK 14/10 Q1018=
201212251415 METAR LIRA 251415Z 14008KT 9999 FEW016 15/10 Q1018=
201212251345 METAR LIRA 251345Z 16012KT 9999 FEW016 15/10 Q1019=
201212251315 METAR LIRA 251315Z 13009KT 9999 FEW016 15/10 Q1019=
201212251245 METAR LIRA 251245Z 15009KT 9999 FEW016 15/11 Q1019=
201212251215 METAR LIRA 251215Z 15010KT 9999 FEW016 15/10 Q1020=
201212251145 METAR LIRA 251145Z 14013KT 9999 SCT017 15/11 Q1021=
201212251115 METAR LIRA 251115Z 16013KT 130V190 9999 FEW018 SCT025 15/11
                        Q1021=
201212251045 METAR LIRA 251045Z 16010KT 9999 FEW020 BKN025 14/10 Q1022=
201212251015 METAR LIRA 251015Z 16010KT 9999 FEW020 BKN025 14/10 Q1022=
201212250945 METAR LIRA 250945Z 16009KT 9999 FEW020 SCT025 14/11 Q1022=
201212250915 METAR LIRA 250915Z 15008KT 9999 FEW020 SCT025 14/11 Q1022=
201212250845 METAR LIRA 250845Z 15008KT 9999 FEW018 13/10 Q1022=
201212250815 METAR LIRA 250815Z 14004KT 9999 FEW018 12/09 Q1022=
201212250745 METAR LIRA 250745Z 15004KT 9999 FEW018 09/08 Q1022=
201212250715 METAR LIRA 250715Z 00000KT 9999 FEW018 08/07 Q1022=
201212250645 METAR LIRA 250645Z 13002KT 9999 FEW018 08/07 Q1021=
201212250615 METAR LIRA 250615Z 12002KT 9999 FEW018 SCT030 07/06 Q1021=
201212250545 METAR LIRA 250545Z 00000KT 9999 SCT070 06/06 Q1022=
201212250515 METAR LIRA 250515Z 00000KT 9999 FEW070 07/07 Q1022=
201212250445 METAR LIRA 250445Z 07001KT 9999 FEW070 08/08 Q1022=
201212250415 METAR LIRA 250415Z 10003KT 9999 FEW017 SCT070 08/08 Q1022=
201212250345 METAR LIRA 250345Z 11003KT 9999 FEW017 SCT070 08/08 Q1022=
201212250315 METAR LIRA 250315Z 14001KT 8000 FEW017 SCT070 09/09 Q1022=
201212250245 METAR LIRA 250245Z 11001KT 8000 FEW015 SCT070 08/08 Q1023=
201212250215 METAR LIRA 250215Z 07002KT 7000 FEW010 SCT070 08/08 Q1023=
201212250145 METAR LIRA 250145Z 05003KT 7000 FEW010 SCT070 08/08 Q1023=
201212250115 METAR LIRA 250115Z 02001KT 7000 FEW015 SCT070 08/08 Q1023=
201212250045 METAR LIRA 250045Z 00000KT 7000 SCT015 SCT070 08/08 Q1023=
201212250015 METAR LIRA 250015Z 00000KT 8000 FEW015 SCT070 08/08 Q1023=
201212242350 METAR LIRA 250045Z 00000KT 7000 SCT015 SCT070 08/08 Q1023=
201212242345 METAR LIRA 242345Z 30003KT 8000 FEW015 SCT070 09/08 Q1023=
201212242315 METAR LIRA 242315Z 09004KT 9999 FEW017 SCT080 08/08 Q1023=
201212242245 METAR LIRA 242245Z 10005KT 9999 FEW017 SCT080 09/08 Q1024=
201212242215 METAR LIRA 242215Z 31001KT 9999 FEW017 SCT080 08/08 Q1024=
201212242145 METAR LIRA 242145Z 15004KT 9999 FEW017 SCT080 08/07 Q1024=
201212242115 METAR LIRA 242115Z 14002KT 9999 FEW017 SCT080 07/07 Q1024=
201212242045 METAR LIRA 242045Z 04001KT 9999 FEW017 SCT080 08/07 Q1024=
201212242015 METAR LIRA 242015Z 08001KT 9999 FEW080 08/07 Q1023=
201212241945 METAR LIRA 241945Z 10002KT 9999 FEW080 08/07 Q1023=
201212241915 METAR LIRA 241915Z 16003KT 9999 FEW080 08/08 Q1023=
201212241845 METAR LIRA 241845Z 16002KT 9999 FEW080 09/08 Q1023=
201212241815 METAR LIRA 241815Z 16003KT CAVOK 09/09 Q1023=
201212241745 METAR LIRA 241745Z 16002KT CAVOK 10/09 Q1022=
201212241715 METAR LIRA 241715Z 15003KT 9999 FEW018 10/09 Q1022=
201212241645 METAR LIRA 241645Z 15002KT 9999 FEW018 11/09 Q1022=
201212241615 METAR LIRA 241615Z 16002KT 9999 FEW018 12/11 Q1022=
201212241545 METAR LIRA 241545Z 19003KT 9999 FEW018 14/11 Q1022=
201212241515 METAR LIRA 241515Z 19004KT 9999 FEW018 14/11 Q1022=
201212241445 METAR LIRA 241445Z 18006KT 9999 FEW016 15/11 Q1022=
201212241415 METAR LIRA 241415Z 18005KT 9999 FEW016 15/11 Q1022=
201212241345 METAR LIRA 241345Z 18006KT 9999 FEW016 15/11 Q1022=
201212241315 METAR LIRA 241315Z 18004KT 9999 SCT016 15/11 Q1023=
201212241245 METAR LIRA 241245Z 17006KT 9999 SCT017 16/12 Q1023=
201212241215 METAR LIRA 241215Z 18007KT 9999 SCT017 15/12 Q1023=
201212241145 METAR LIRA 241145Z 17007KT 130V200 9999 SCT017 15/12 Q1023=
201212241115 METAR LIRA 241115Z 33002KT 8000 SCT017 13/10 Q1024=
201212241045 METAR LIRA 241045Z 02001KT 8000 FEW010 SCT017 12/10 Q1024=
201212241015 METAR LIRA 241015Z 01002KT 8000 FEW010 SCT017 11/09 Q1024=
201212240945 METAR LIRA 240945Z 35002KT 8000 FEW010 SCT030 09/09 Q1024=
201212240915 METAR LIRA 240915Z 03001KT 8000 FEW010 SCT030 09/08 Q1024=
201212240845 METAR LIRA 240845Z 01001KT 8000 FEW010 BKN030 07/06 Q1023=
201212240815 METAR LIRA 240815Z 03002KT 8000 FEW010 07/06 Q1023=
201212240745 METAR LIRA 240745Z 03001KT 8000 FEW010 05/05 Q1023=
201212240715 METAR LIRA 240715Z 05003KT 8000 FEW010 05/05 Q1023=
201212240645 METAR LIRA 240645Z 04002KT 8000 FEW010 05/05 Q1022=
201212240615 METAR LIRA 240615Z 36002KT 9000 FEW017 SCT030 05/05 Q1022=
201212240545 METAR LIRA 240545Z 02002KT 9000 FEW017 SCT070 05/05 Q1022=
201212240515 METAR LIRA 240515Z 02001KT 9000 FEW010 05/05 Q1021=
201212240445 METAR LIRA 240445Z 03002KT 7000 FEW010 SCT070 05/05 Q1022=
201212240415 METAR LIRA 240415Z 03001KT 6000 FEW005 SCT070 05/05 Q1022=
201212240345 METAR LIRA 240345Z 36002KT 6000 FEW005 SCT070 05/05 Q1022=
201212240315 METAR LIRA 240315Z 33002KT 6000 FEW005 SCT070 05/05 Q1022=
201212240245 METAR LIRA 240245Z 03002KT 6000 FEW005 SCT070 05/05 Q1022=
201212240215 METAR LIRA 240215Z 04002KT 6000 FEW005 SCT070 06/05 Q1022=
201212240045 METAR LIRA 240045Z 03001KT 6000 FEW005 SCT025 07/06 Q1022=
201212240015 METAR LIRA 240015Z 04001KT 7000 FEW005 SCT025 07/06 Q1022=
201212232350 METAR LIRA 240045Z 03001KT 6000 FEW005 SCT025 07/06 Q1022=
201212232345 METAR LIRA 232345Z 03001KT 7000 FEW005 SCT070 07/07 Q1022=
201212232315 METAR LIRA 232315Z 35001KT 7000 FEW005 SCT070 08/07 Q1022=
201212232245 METAR LIRA 232245Z 10003KT 7000 FEW005 SCT070 08/07 Q1022=
201212232215 METAR LIRA 232215Z 10003KT 7000 FEW005 SCT070 08/07 Q1022=
201212232145 METAR LIRA 232145Z 12003KT 7000 FEW005 SCT070 08/08 Q1022=
201212232115 METAR LIRA 232115Z 10002KT 7000 FEW005 SCT070 08/08 Q1022=
201212232045 METAR LIRA 232045Z 12003KT 7000 FEW005 SCT070 08/08 Q1021=
201212232015 METAR LIRA 232015Z 10002KT 8000 FEW005 SCT070 08/08 Q1021=
201212231945 METAR LIRA 231945Z 10001KT 8000 FEW005 SCT070 08/07 Q1021=
201212231915 METAR LIRA 231915Z 09003KT 9000 FEW005 SCT070 08/08 Q1021=
201212231845 METAR LIRA 231845Z 08003KT 9000 FEW005 SCT070 08/07 Q1021=
201212231815 METAR LIRA 231815Z 11001KT 9999 SCT070 08/07 Q1020=
201212231745 METAR LIRA 231745Z 09001KT 9999 FEW018 SCT070 08/07 Q1020=
201212231715 METAR LIRA 231715Z 00000KT 9999 FEW018 SCT070 09/08 Q1020=
201212231645 METAR LIRA 231645Z 15001KT 9999 FEW018 SCT070 09/08 Q1020=
201212231615 METAR LIRA 231615Z 14001KT 9999 FEW018 SCT070 10/09 Q1020=
201212231545 METAR LIRA 231545Z 35001KT 9999 FEW018 SCT070 12/09 Q1019=
201212231515 METAR LIRA 231515Z 00000KT 9999 FEW018 SCT070 13/10 Q1019=
201212231445 METAR LIRA 231445Z 15001KT 9999 FEW018 SCT070 14/10 Q1020=
201212231415 METAR LIRA 231415Z 00000KT 9999 FEW018 SCT070 14/10 Q1020=
201212231345 METAR LIRA 231345Z 19001KT 9999 FEW018 14/10 Q1020=
201212231315 METAR LIRA 231315Z 18002KT 9999 FEW018 14/10 Q1020=
201212231245 METAR LIRA 231245Z 19004KT 9999 SCT018 14/10 Q1020=
201212231215 METAR LIRA 231215Z 21003KT 9999 FEW018 14/10 Q1020=
201212231145 METAR LIRA 231145Z 20004KT 9999 FEW018 SCT025 14/10 Q1020=
201212231115 METAR LIRA 231115Z 32001KT 9999 FEW018 12/09 Q1020=
201212231045 METAR LIRA 231045Z 34002KT 9999 FEW016 11/07 Q1020=
201212231015 METAR LIRA 231015Z 04002KT 9999 FEW018 10/08 Q1020=
201212230945 METAR LIRA 230945Z 35002KT 9999 SCT016 SCT025 09/07 Q1020=
201212230915 METAR LIRA 230915Z 33001KT 9999 SCT016 SCT025 08/07 Q1020=
201212230845 METAR LIRA 230845Z 33001KT 9999 SCT016 SCT025 05/04 Q1020=
201212230815 METAR LIRA 230815Z 04002KT 9999 FEW020 03/03 Q1020=
201212230745 METAR LIRA 230745Z 04001KT 9999 FEW020 03/02 Q1020=
201212230715 METAR LIRA 230715Z 03003KT 9999 FEW020 03/02 Q1020=
201212230645 METAR LIRA 230645Z 04002KT 9999 FEW020 02/02 Q1020=
201212230615 METAR LIRA 230615Z 00000KT 9999 FEW020 SCT025 02/02 Q1019=
201212230545 METAR LIRA 230545Z 00000KT 9999 FEW020 02/02 Q1019=
201212230515 METAR LIRA 230515Z 00000KT 9999 FEW020 02/02 Q1019=
201212230445 METAR LIRA 230445Z 00000KT 9999 FEW020 SCT025 01/01 Q1019=
201212230415 METAR LIRA 230415Z 06001KT 9999 FEW070 01/01 Q1019=
201212230345 METAR LIRA 230345Z 00000KT 9999 FEW070 02/01 Q1019=
201212230315 METAR LIRA 230315Z 00000KT CAVOK 02/01 Q1019=
201212230245 METAR LIRA 230245Z 12001KT CAVOK 02/01 Q1019=
201212230215 METAR LIRA 230215Z 00000KT CAVOK 02/01 Q1020=
201212230145 METAR LIRA 230145Z 00000KT CAVOK 03/01 Q1020=
201212230115 METAR LIRA 230115Z 10001KT CAVOK 03/02 Q1020=
201212230045 METAR LIRA 230045Z 00000KT CAVOK 03/03 Q1020=
201212230015 METAR LIRA 230015Z 11001KT CAVOK 03/03 Q1020=
201212222350 METAR LIRA 230045Z 00000KT CAVOK 03/03 Q1020=
201212222345 METAR LIRA 222345Z 10001KT CAVOK 04/03 Q1020=
201212222315 METAR LIRA 222315Z 08001KT CAVOK 05/03 Q1019=
201212222245 METAR LIRA 222245Z 08001KT CAVOK 05/03 Q1019=
201212222215 METAR LIRA 222215Z 04003KT CAVOK 05/03 Q1019=
201212222145 METAR LIRA 222145Z 05003KT CAVOK 05/04 Q1019=
201212222115 METAR LIRA 222115Z 08003KT CAVOK 07/04 Q1019=
201212222045 METAR LIRA 222045Z 07003KT CAVOK 07/05 Q1019=
201212222015 METAR LIRA 222015Z 07005KT CAVOK 07/05 Q1019=
201212221945 METAR LIRA 221945Z 07006KT CAVOK 07/05 Q1018=
201212221915 METAR LIRA 221915Z 09002KT CAVOK 07/05 Q1018=
201212221845 METAR LIRA 221845Z 08004KT CAVOK 08/05 Q1018=
201212221815 METAR LIRA 221815Z 05003KT CAVOK 09/05 Q1018=
201212221745 METAR LIRA 221745Z 05001KT CAVOK 09/05 Q1018=
201212221715 METAR LIRA 221715Z 10002KT 9999 FEW020 09/05 Q1018=
201212221645 METAR LIRA 221645Z 05001KT 9999 FEW022 BKN200 09/04 Q1017=
201212221615 METAR LIRA 221615Z 06003KT 9999 FEW022 BKN200 09/03 Q1017=
201212221545 METAR LIRA 221545Z 04004KT 9999 FEW022 SCT200 10/04 Q1017=
201212221515 METAR LIRA 221515Z 01004KT 9999 FEW022 11/04 Q1017=
201212221445 METAR LIRA 221445Z 01004KT 9999 FEW020 12/04 Q1017=
201212221415 METAR LIRA 221415Z 35007KT 320V060 9999 FEW020 12/04 Q1017=
201212221345 METAR LIRA 221345Z 36005KT 9999 FEW020 11/05 Q1016=
201212221315 METAR LIRA 221315Z 36008KT 9999 FEW020 12/05 Q1016=
201212221245 METAR LIRA 221245Z 36007KT 9999 FEW020 11/05 Q1016=
201212221215 METAR LIRA 221215Z 04007KT 350V080 9999 FEW020 10/06 Q1016=
201212221145 METAR LIRA 221145Z 02007KT 9999 FEW020 10/05 Q1017=
201212221115 METAR LIRA 221115Z 04006KT 9999 FEW020 09/05 Q1017=
201212221045 METAR LIRA 221045Z 04007KT 9999 FEW002 09/05 Q1017=
201212221015 METAR LIRA 221015Z 06007KT 9999 FEW030 08/05 Q1017=
201212220945 METAR LIRA 220945Z 05006KT 9999 FEW030 08/05 Q1017=
201212220915 METAR LIRA 220915Z 05006KT 010V090 9999 FEW030 06/04 Q1016=
201212220845 METAR LIRA 220845Z 06005KT 9999 FEW030 SCT070 06/04 Q1016=
201212220815 METAR LIRA 220815Z 06006KT 010V090 9999 FEW030 SCT070 05/04
                        Q1015=
201212220745 METAR LIRA 220745Z 04005KT 9999 FEW030 SCT070 04/04 Q1014=
201212220715 METAR LIRA 220715Z 04005KT 9999 FEW030 SCT070 04/03 Q1014=
201212220645 METAR LIRA 220645Z 05005KT 9999 FEW030 SCT070 03/03 Q1014=
201212220615 METAR LIRA 220615Z 04005KT 020V080 9999 SCT070 03/03 Q1014=
201212220545 METAR LIRA 220545Z 05005KT 9999 FEW070 03/03 Q1013=
201212220515 METAR LIRA 220515Z 05005KT 9999 FEW070 03/03 Q1013=
201212220445 METAR LIRA 220445Z 08004KT 9999 SCT070 03/03 Q1013=
201212220415 METAR LIRA 220415Z 03003KT 9999 BKN070 03/03 Q1013=
201212220345 METAR LIRA 220345Z 02003KT 9999 BKN070 03/03 Q1013=
201212220315 METAR LIRA 220315Z 02003KT 9999 BKN070 03/03 Q1012=
201212220245 METAR LIRA 220245Z 03004KT 9999 BKN070 03/03 Q1012=
201212220215 METAR LIRA 220215Z 06004KT 9999 SCT070 03/03 Q1012=
201212220145 METAR LIRA 220145Z 06004KT 9999 SCT070 03/03 Q1012=
201212220115 METAR LIRA 220115Z 02003KT 8000 FEW009 03/03 Q1012=
201212220045 METAR LIRA 220045Z 01003KT 8000 FEW009 03/03 Q1012=
201212220015 METAR LIRA 220015Z 04005KT 8000 FEW009 SCT060 03/03 Q1012=
201212212350 METAR LIRA 220045Z 01003KT 8000 FEW009 03/03 Q1012=
201212212345 METAR LIRA 212345Z 07005KT 8000 FEW009 SCT060 03/03 Q1012=
201212212315 METAR LIRA 212315Z 06006KT 8000 FEW009 SCT060 03/03 Q1012=
201212212245 METAR LIRA 212245Z 02004KT 8000 FEW009 SCT060 03/03 Q1012=
201212212215 METAR LIRA 212215Z 01003KT 9000 FEW009 04/04 Q1011=
201212212145 METAR LIRA 212145Z 03003KT 9000 FEW009 SCT060 04/04 Q1011=
201212212115 METAR LIRA 212115Z 04003KT 9000 FEW009 SCT060 04/04 Q1011=
201212212045 METAR LIRA 212045Z 02005KT 9000 FEW009 SCT060 05/05 Q1011=
201212212015 METAR LIRA 212015Z 03004KT 9000 FEW009 SCT060 05/05 Q1010=
201212211915 METAR LIRA 211915Z 36005KT 9000 FEW009 SCT025 06/06 Q1010=
201212211845 METAR LIRA 211845Z 01003KT 9000 FEW009 SCT025 06/06 Q1010=
201212211815 METAR LIRA 211815Z 03003KT 9000 FEW009 SCT025 06/06 Q1010=
201212211745 METAR LIRA 211745Z 03005KT 9000 FEW009 SCT025 05/05 Q1010=
201212211715 METAR LIRA 211715Z 02004KT 8000 SCT005 SCT070 05/05 Q1010=
201212211645 METAR LIRA 211645Z 03005KT 8000 FEW010 SCT070 06/06 Q1010=
201212211615 METAR LIRA 211615Z 02004KT 8000 FEW010 SCT070 07/07 Q1010=
201212211545 METAR LIRA 211545Z 36007KT 320V060 8000 FEW010 SCT020 BKN060
                        07/07 Q1010=
201212211515 METAR LIRA 211515Z 35002KT 9999 SCT014 SCT060 07/07 Q1009=
201212211445 METAR LIRA 211445Z 02005KT 340V050 8000 FEW010 SCT020 BKN070
                        07/07 Q1009=
201212211415 METAR LIRA 211415Z 01006KT 320V060 8000 FEW010 SCT025 BKN060
                        08/08 Q1009=
201212211345 METAR LIRA 211345Z 36007KT 9999 FEW010 SCT025 BKN060 08/08
                        Q1009=
201212211315 METAR LIRA 211315Z 02007KT 350V060 9999 FEW012 SCT025 BKN060
                        07/07 Q1009=
201212211245 METAR LIRA 211245Z 02006KT 330V050 9999 FEW018 BKN025 07/07
                        Q1009=
201212211215 METAR LIRA 211215Z 03006KT 360V070 9999 FEW018 BKN025 07/07
                        Q1009=
201212211145 METAR LIRA 211145Z 02006KT 340V050 9999 FEW014 BKN025 07/07
                        Q1009=
201212211115 METAR LIRA 211115Z 02006KT 350V070 9999 FEW018 OVC027 07/07
                        Q1010=
201212211045 METAR LIRA 211045Z 03007KT 8000 FEW018 OVC030 07/07 Q1010=
201212211015 METAR LIRA 211015Z 02006KT 350V080 8000 -DZ FEW018 OVC030
                        07/07 Q1010=
201212210945 METAR LIRA 210945Z 03008KT 350V060 9999 FEW018 OVC030 08/07
                        Q1010=
201212210915 METAR LIRA 210915Z 05005KT 020V090 9999 FEW018 OVC030 08/07
                        Q1009=
201212210845 METAR LIRA 210845Z 05004KT 9999 FEW018 OVC030 08/07 Q1009=
201212210815 METAR LIRA 210815Z 33002KT 9999 FEW018 OVC030 08/07 Q1009=
201212210745 METAR LIRA 210745Z 01003KT 9999 -DZ FEW018 OVC030 08/07 Q1009=
201212210715 METAR LIRA 210715Z 21002KT 9999 -DZ FEW018 BKN030 08/07 Q1009=
201212210645 METAR LIRA 210645Z 32005KT 9999 -DZ FEW018 BKN030 08/07 Q1009=
201212210615 METAR LIRA 210615Z 12002KT 9999 FEW018 OVC030 08/07 Q1009=
201212210545 METAR LIRA 210545Z 36005KT 9999 FEW018 SCT030 07/06 Q1010=
201212210515 METAR LIRA 210515Z 07005KT 9999 -RA FEW018 SCT025 07/06 Q1010=
201212210445 METAR LIRA 210445Z 09007KT 8000 -RA FEW018 SCT025 08/07 Q1011=
201212210415 METAR LIRA 210415Z 12005KT 8000 -RA FEW020 SCT025 08/07 Q1012=
201212210345 METAR LIRA 210345Z 09005KT 8000 FEW022 SCT026 08/06 Q1012=
201212210315 METAR LIRA 210315Z 02002KT 9999 -RA FEW022 SCT030 09/06 Q1012=
201212210245 METAR LIRA 210245Z 15004KT 9999 SCT025 SCT060 09/06 Q1013=
201212210215 METAR LIRA 210215Z 12005KT 9999 FEW025 SCT070 09/07 Q1013=
201212210145 METAR LIRA 210145Z 11002KT 9999 FEW025 SCT070 07/06 Q1013=
201212210115 METAR LIRA 210115Z 11002KT 9999 FEW030 SCT070 07/06 Q1014=
201212210045 METAR LIRA 210045Z 00000KT 9999 FEW040 SCT070 07/05 Q1014=
201212210015 METAR LIRA 210015Z 09004KT 9999 FEW020 SCT070 07/05 Q1014=
201212202350 METAR LIRA 210045Z 00000KT 9999 FEW040 SCT070 07/05 Q1014=
201212202345 METAR LIRA 202345Z 00000KT 9999 FEW020 SCT070 07/06 Q1014=
201212202315 METAR LIRA 202315Z 26003KT 9999 FEW020 SCT070 07/05 Q1015=
201212202245 METAR LIRA 202245Z 00000KT 9999 FEW025 SCT060 08/06 Q1014=
201212202215 METAR LIRA 202215Z 08003KT 9999 FEW025 SCT060 07/05 Q1014=
201212202145 METAR LIRA 202145Z 00000KT 9999 FEW027 SCT060 07/05 Q1015=
201212202115 METAR LIRA 202115Z 05003KT 9999 FEW027 BKN070 07/04 Q1015=
201212202045 METAR LIRA 202045Z 00000KT 9999 FEW027 BKN070 07/04 Q1016=
201212202015 METAR LIRA 202015Z 03001KT 9999 FEW027 SCT060 07/04 Q1016=
201212201945 METAR LIRA 201945Z 03001KT 9999 FEW027 SCT060 08/04 Q1016=
201212201915 METAR LIRA 201915Z 03001KT 9999 FEW027 BKN070 08/05 Q1017=
201212201845 METAR LIRA 201845Z 00000KT 9999 FEW030 BKN070 08/04 Q1017=
201212201815 METAR LIRA 201815Z 07002KT 9999 FEW030 BKN070 08/04 Q1017=
201212201745 METAR LIRA 201745Z 00000KT 9999 BKN070 08/04 Q1017=
201212201715 METAR LIRA 201715Z 06001KT 9999 SCT070 08/03 Q1017=
201212201645 METAR LIRA 201645Z 04001KT 9999 BKN080 08/03 Q1017=
201212201615 METAR LIRA 201615Z 03001KT 9999 BKN080 08/03 Q1017=
201212201545 METAR LIRA 201545Z 02003KT 9999 BKN080 08/02 Q1017=
201212201515 METAR LIRA 201515Z 03002KT 9999 BKN080 08/03 Q1017=
201212201445 METAR LIRA 201445Z 05003KT 9999 BKN080 08/03 Q1017=
201212201415 METAR LIRA 201415Z 06004KT CAVOK 08/03 Q1018=
201212201345 METAR LIRA 201345Z 04003KT CAVOK 08/02 Q1018=
201212201315 METAR LIRA 201315Z 05002KT CAVOK 08/02 Q1018=
201212201245 METAR LIRA 201245Z 04004KT CAVOK 08/02 Q1018=
201212201215 METAR LIRA 201215Z 02002KT CAVOK 08/02 Q1018=
201212201145 METAR LIRA 201145Z 03002KT CAVOK 08/02 Q1019=
201212201115 METAR LIRA 201115Z 04003KT CAVOK 08/02 Q1019=
201212201045 METAR LIRA 201045Z 03003KT CAVOK 07/02 Q1019=
201212201015 METAR LIRA 201015Z 04004KT CAVOK 06/01 Q1020=
201212200945 METAR LIRA 200945Z 03003KT CAVOK 05/01 Q1020=
201212200915 METAR LIRA 200915Z 03002KT CAVOK 04/01 Q1020=
201212200845 METAR LIRA 200845Z 02004KT 360V060 CAVOK 03/01 Q1019=
201212200815 METAR LIRA 200815Z 04004KT CAVOK 03/02 Q1019=
201212200745 METAR LIRA 200745Z 04004KT CAVOK 02/01 Q1019=
201212200715 METAR LIRA 200715Z 01003KT CAVOK 02/01 Q1019=
201212200645 METAR LIRA 200645Z 03004KT CAVOK 02/01 Q1019=
201212200615 METAR LIRA 200615Z 06006KT CAVOK 01/00 Q1019=
201212200545 METAR LIRA 200545Z 04005KT CAVOK 01/00 Q1019=
201212200515 METAR LIRA 200515Z 05004KT CAVOK 01/M00 Q1019=
201212200445 METAR LIRA 200445Z 04005KT CAVOK 02/00 Q1019=
201212200415 METAR LIRA 200415Z 04005KT CAVOK 02/00 Q1019=
201212200345 METAR LIRA 200345Z 05006KT CAVOK 02/00 Q1019=
201212200315 METAR LIRA 200315Z 07004KT CAVOK 02/00 Q1020=
201212200245 METAR LIRA 200245Z 05004KT CAVOK 03/00 Q1020=
201212200215 METAR LIRA 200215Z 03005KT CAVOK 03/01 Q1020=
201212200145 METAR LIRA 200145Z 05007KT CAVOK 03/00 Q1020=
201212200115 METAR LIRA 200115Z 04006KT CAVOK 03/00 Q1020=
201212200045 METAR LIRA 200045Z 04004KT CAVOK 03/01 Q1020=
201212200015 METAR LIRA 200015Z 04003KT CAVOK 03/01 Q1020=
201212192350 METAR LIRA 200045Z 04004KT CAVOK 03/01 Q1020=
201212192345 METAR LIRA 192345Z 06007KT CAVOK 03/01 Q1020=
201212192315 METAR LIRA 192315Z 06007KT CAVOK 03/01 Q1020=
201212192245 METAR LIRA 192245Z 04006KT CAVOK 04/01 Q1020=
201212192215 METAR LIRA 192215Z 05006KT CAVOK 04/01 Q1020=
201212192145 METAR LIRA 192145Z 06003KT CAVOK 03/01 Q1019=
201212192115 METAR LIRA 192115Z 07004KT CAVOK 04/01 Q1019=
201212192045 METAR LIRA 192045Z 08003KT CAVOK 04/01 Q1019=
201212192015 METAR LIRA 192015Z 02002KT CAVOK 05/01 Q1019=
201212191945 METAR LIRA 191945Z 00000KT CAVOK 04/01 Q1019=
201212191915 METAR LIRA 191915Z 32002KT CAVOK 05/01 Q1019=
201212191845 METAR LIRA 191845Z 25002KT CAVOK 05/01 Q1019=
201212191815 METAR LIRA 191815Z 00000KT CAVOK 05/01 Q1019=
201212191745 METAR LIRA 191745Z 00000KT CAVOK 07/01 Q1018=
201212191715 METAR LIRA 191715Z 07003KT CAVOK 07/01 Q1018=
201212191645 METAR LIRA 191645Z 00000KT CAVOK 08/01 Q1017=
201212191615 METAR LIRA 191615Z 14002KT CAVOK 08/01 Q1017=
201212191545 METAR LIRA 191545Z 32006KT 280V020 CAVOK 10/01 Q1017=
201212191515 METAR LIRA 191515Z 34009KT 300V020 CAVOK 10/01 Q1017=
201212191445 METAR LIRA 191445Z 34013KT CAVOK 11/02 Q1016=
201212191415 METAR LIRA 191415Z 35011G21KT 330V050 CAVOK 11/02 Q1016=
201212191345 METAR LIRA 191345Z 34009KT 300V010 CAVOK 11/02 Q1016=
201212191315 METAR LIRA 191315Z 35006KT 340V040 CAVOK 11/03 Q1016=
201212191245 METAR LIRA 191245Z 35010KT 270V050 CAVOK 11/03 Q1016=
201212191215 METAR LIRA 191215Z 35009KT 310V020 CAVOK 11/03 Q1016=
201212191145 METAR LIRA 191145Z 34012KT CAVOK 10/03 Q1016=
201212191115 METAR LIRA 191115Z 35009KT 310V030 CAVOK 09/03 Q1016=
201212191045 METAR LIRA 191045Z 34009KT CAVOK 08/04 Q1016=
201212191015 METAR LIRA 191015Z 06003KT CAVOK 07/05 Q1016=
201212190945 METAR LIRA 190945Z 05005KT CAVOK 06/05 Q1016=
201212190915 METAR LIRA 190915Z 03004KT 8000 NSC 05/04 Q1016=
201212190845 METAR LIRA 190845Z 03005KT 350V050 8000 NSC 05/04 Q1016=
201212190815 METAR LIRA 190815Z 03005KT 8000 NSC 04/03 Q1015=
201212190745 METAR LIRA 190745Z 04005KT 010V070 8000 NSC 03/02 Q1015=
201212190715 METAR LIRA 190715Z 04005KT 8000 NSC 02/02 Q1015=
201212190645 METAR LIRA 190645Z 05006KT 8000 NSC 02/02 Q1015=
201212190615 METAR LIRA 190615Z 05006KT 030V090 8000 NSC 02/02 Q1014=
201212190545 METAR LIRA 190545Z 03004KT 8000 NSC 02/02 Q1014=
201212190515 METAR LIRA 190515Z 03004KT 7000 NSC 02/02 Q1014=
201212190445 METAR LIRA 190445Z 04005KT 360V070 5000 BR SKC 03/01 Q1013=
201212190415 METAR LIRA 190415Z 03003KT 5000 BR SKC 03/01 Q1013=
201212190345 METAR LIRA 190345Z 04004KT 5000 BR SKC 03/02 Q1013=
201212190315 METAR LIRA 190315Z 05006KT 6000 SKC 03/02 Q1012=
201212190245 METAR LIRA 190245Z 06006KT 6000 SKC 03/01 Q1012=
201212190215 METAR LIRA 190215Z 22005KT 6000 SKC 03/01 Q1012=
201212190145 METAR LIRA 190145Z 05005KT 6000 SKC 03/02 Q1012=
201212190115 METAR LIRA 190115Z 03005KT 6000 SKC 03/01 Q1012=
201212190045 METAR LIRA 190045Z 05007KT 6000 SKC 03/02 Q1012=
201212190015 METAR LIRA 190015Z 05005KT 6000 SKC 03/02 Q1012=
201212182350 METAR LIRA 190045Z 05007KT 6000 SKC 03/02 Q1012=
201212182345 METAR LIRA 182345Z 06005KT 6000 SKC 03/02 Q1012=
201212182315 METAR LIRA 182315Z 02003KT 6000 SKC 04/02 Q1012=
201212182245 METAR LIRA 182245Z 03004KT 8000 SKC 04/02 Q1012=
201212182215 METAR LIRA 182215Z 03004KT 8000 SKC 04/03 Q1012=
201212182145 METAR LIRA 182145Z 05006KT 8000 SKC 04/03 Q1012=
201212182115 METAR LIRA 182115Z 05007KT 8000 SKC 04/03 Q1012=
201212182045 METAR LIRA 182045Z 05006KT 8000 SKC 04/02 Q1012=
201212182015 METAR LIRA 182015Z 04006KT 8000 SKC 05/03 Q1011=
201212181945 METAR LIRA 181945Z 05004KT 8000 SKC 05/03 Q1011=
201212181915 METAR LIRA 181915Z 05004KT 8000 SKC 06/04 Q1011=
201212181845 METAR LIRA 181845Z 05005KT 8000 SKC 06/04 Q1011=
201212181815 METAR LIRA 181815Z 04004KT 8000 FEW070 07/05 Q1010=
201212181745 METAR LIRA 181745Z 04002KT 8000 FEW070 07/05 Q1010=
201212181715 METAR LIRA 181715Z 05006KT 9999 FEW070 07/05 Q1010=
201212181645 METAR LIRA 181645Z 04004KT 9999 FEW020 08/06 Q1009=
201212181615 METAR LIRA 181615Z 02001KT 9999 FEW020 08/06 Q1009=
201212181545 METAR LIRA 181545Z 06002KT 9999 FEW020 08/06 Q1009=
201212181515 METAR LIRA 181515Z 05003KT 9999 FEW080 09/07 Q1009=
201212181445 METAR LIRA 181445Z 03003KT 9999 FEW080 09/07 Q1009=
201212181415 METAR LIRA 181415Z 04004KT 9999 FEW030 09/07 Q1009=
201212181345 METAR LIRA 181345Z 05006KT 9999 FEW030 08/07 Q1009=
201212181315 METAR LIRA 181315Z 04006KT 350V080 9999 FEW030 08/07 Q1009=
201212181245 METAR LIRA 181245Z 05007KT 9999 FEW030 07/07 Q1009=
201212181215 METAR LIRA 181215Z 05006KT 5000 BR FEW010 06/06 Q1009=
201212181145 METAR LIRA 181145Z 05005KT 5000 BR SCT010 06/05 Q1010=
201212181115 METAR LIRA 181115Z 05005KT 020V090 0800 R15/0900N FG BKN003
                        05/05 Q1010=
201212181045 METAR LIRA 181045Z 05005KT 0600 R15/0700N FG BKN001 05/05
                        Q1010=
201212181015 METAR LIRA 181015Z 04005KT 350V070 0300 R15/0400D FG BKN001
                        05/05 Q1010=
201212180945 METAR LIRA 180945Z 04005KT 0100 R15/0300D FG BKN001 03/03
                        Q1010=
201212180915 METAR LIRA 180915Z 04004KT 0100 R15/0200N FG BKN001 04/03
                        Q1010=
201212180845 METAR LIRA 180845Z 01003KT 0050 R15/0200N FG BKN001 04/03
                        Q1010=
201212180815 METAR LIRA 180815Z 02003KT 1300 R15/1300 BCFG SCT004 04/03
                        Q1010=
201212180745 METAR LIRA 180745Z 02003KT 9999 FEW030 04/03 Q1010=
201212180715 METAR LIRA 180715Z 01002KT 9999 FEW030 04/03 Q1009=
201212180645 METAR LIRA 180645Z 03003KT 9999 FEW030 04/03 Q1009=
201212180615 METAR LIRA 180615Z 03002KT 9999 FEW030 04/04 Q1009=
201212180545 METAR LIRA 180545Z 06003KT 9999 SCT080 04/03 Q1009=
201212180515 METAR LIRA 180515Z 35001KT 9999 FEW030 SCT070 04/04 Q1009=
201212180445 METAR LIRA 180445Z 05002KT 9999 FEW030 05/04 Q1009=
201212180415 METAR LIRA 180415Z 04001KT CAVOK 05/04 Q1009=
201212180345 METAR LIRA 180345Z 04002KT CAVOK 05/04 Q1009=
201212180315 METAR LIRA 180315Z 04004KT CAVOK 05/05 Q1009=
201212180245 METAR LIRA 180245Z 05004KT CAVOK 05/05 Q1009=
201212180215 METAR LIRA 180215Z 05003KT CAVOK 06/05 Q1009=
201212180145 METAR LIRA 180145Z 05005KT CAVOK 06/05 Q1009=
201212180115 METAR LIRA 180115Z 04003KT CAVOK 06/05 Q1009=
201212180045 METAR LIRA 180045Z 06003KT 9999 FEW030 SCT070 05/04 Q1009=
201212180015 METAR LIRA 180015Z 05004KT 9999 FEW030 05/04 Q1009=
201212172350 METAR LIRA 180045Z 06003KT 9999 FEW030 SCT070 05/04 Q1009=
201212172345 METAR LIRA 172345Z 07005KT 9999 FEW030 05/04 Q1009=
201212172315 METAR LIRA 172315Z 08002KT 9999 FEW030 SCT070 06/05 Q1009=
201212172245 METAR LIRA 172245Z 05004KT 9999 FEW030 SCT070 06/05 Q1009=
201212172215 METAR LIRA 172215Z 04001KT 9999 FEW025 SCT070 07/05 Q1009=
201212172145 METAR LIRA 172145Z 07002KT 9999 FEW020 07/06 Q1008=
201212172115 METAR LIRA 172115Z 05003KT 9999 FEW080 07/06 Q1008=
201212172045 METAR LIRA 172045Z 03003KT 9999 FEW080 07/06 Q1008=
201212172015 METAR LIRA 172015Z 00000KT 9999 FEW030 SCT080 07/06 Q1008=
201212171945 METAR LIRA 171945Z 32002KT 9999 FEW080 07/06 Q1008=
201212171915 METAR LIRA 171915Z 28001KT CAVOK 08/06 Q1008=
201212171845 METAR LIRA 171845Z 35002KT 9999 FEW030 08/06 Q1008=
201212171815 METAR LIRA 171815Z 05003KT 9999 FEW030 SCT070 09/06 Q1007=
201212171745 METAR LIRA 171745Z 05004KT 9999 FEW030 SCT070 09/06 Q1007=
201212171715 METAR LIRA 171715Z 06007KT 9999 -RA FEW015 FEW020TCU SCT070
                        09/06 Q1007=
201212171645 METAR LIRA 171645Z 03010KT 9999 -RA FEW015 FEW018CB SCT025
                        10/08 Q1007=
201212171615 METAR LIRA 171615Z 01005G26KT 320V030 9999 SCT013 FEW015CB
                        SCT025 13/11 Q1006=
201212171545 METAR LIRA 171545Z 24003KT 8000 FEW013 FEW015CB SCT025 14/11
                        Q1006=
201212171515 METAR LIRA 171515Z 27004KT 9999 SCT013 FEW015CB SCT025 14/10
                        Q1006=
201212171445 METAR LIRA 171445Z 03005KT 9999 FEW015 FEW020CB 14/11 Q1007=
201212171415 METAR LIRA 171415Z 25007KT 200V300 9999 FEW015 FEW020CB SCT025
                        14/11 Q1007=
201212171345 METAR LIRA 171345Z 24004KT 9999 FEW015 FEW020CB BKN025 14/12
                        Q1008 RETS=
201212171315 METAR LIRA 171315Z 23003KT 9999 FEW015 FEW020CB BKN025 14/12
                        Q1008=
201212171245 METAR LIRA 171245Z 29002KT 7000 -TSRA FEW015 FEW017CB BKN025
                        14/11 Q1008=
201212171215 METAR LIRA 171215Z 22004KT 9999 -RA FEW018 BKN030 14/11 Q1009=
201212171145 METAR LIRA 171145Z 23004KT 9999 FEW018 BKN025 14/11 Q1009=
201212171115 METAR LIRA 171115Z 20006KT 9999 FEW018 BKN025 14/11 Q1009=
201212171045 METAR LIRA 171045Z 19006KT 9999 FEW018 BKN025 13/10 Q1010=
201212171015 METAR LIRA 171015Z 19006KT 9999 FEW018 BKN025 13/11 Q1010=
201212170945 METAR LIRA 170945Z 18007KT 140V220 9999 FEW018 BKN025 14/11
                        Q1011=
201212170915 METAR LIRA 170915Z 18009KT 9999 FEW018 SCT025 14/11 Q1011=
201212170845 METAR LIRA 170845Z 17009KT 9999 FEW018 SCT025 13/11 Q1011=
201212170815 METAR LIRA 170815Z 17007KT 9999 FEW018 SCT070 12/10 Q1011=
201212170745 METAR LIRA 170745Z 14006KT 9999 SCT018 12/10 Q1011=
201212170715 METAR LIRA 170715Z 15008KT 9999 SCT018 12/10 Q1011=
201212170645 METAR LIRA 170645Z 17006KT 9999 FEW018 SCT070 12/10 Q1011=
201212170615 METAR LIRA 170615Z 18008KT 9999 FEW018 SCT070 12/10 Q1011=
201212170545 METAR LIRA 170545Z 16007KT 9999 FEW025 SCT070 11/10 Q1011=
201212170515 METAR LIRA 170515Z 16004KT 9999 FEW025 SCT070 10/09 Q1011=
201212170445 METAR LIRA 170445Z 13003KT 9999 SCT025 BKN070 09/08 Q1012=
201212170415 METAR LIRA 170415Z 13004KT 9999 SCT025 BKN070 09/08 Q1012=
201212170345 METAR LIRA 170345Z 26001KT 9999 SCT025 BKN070 09/08 Q1012=
201212170315 METAR LIRA 170315Z 00000KT 9999 SCT025 BKN070 09/08 Q1012=
201212170245 METAR LIRA 170245Z 34001KT 9999 FEW013 SCT025 BKN070 09/08
                        Q1012=
201212170215 METAR LIRA 170215Z 00000KT 9999 FEW013 SCT025 09/08 Q1012=
201212170145 METAR LIRA 170145Z 00000KT 9999 FEW013 SCT025 09/08 Q1012=
201212170115 METAR LIRA 170115Z 13002KT 9999 FEW013 SCT070 09/08 Q1013=
201212170045 METAR LIRA 170045Z 11005KT 9999 FEW016 09/08 Q1013=
201212170015 METAR LIRA 170015Z 13004KT 9999 FEW016 09/07 Q1013=
201212162350 METAR LIRA 170045Z 11005KT 9999 FEW016 09/08 Q1013=
201212162345 METAR LIRA 162345Z 17002KT 9999 FEW016 SCT030 11/09 Q1013=
201212162315 METAR LIRA 162315Z 11002KT 9999 FEW016 SCT030 10/09 Q1013=
201212162245 METAR LIRA 162245Z 16003KT 9999 FEW016 SCT030 10/09 Q1013=
201212162215 METAR LIRA 162215Z 21002KT 9999 FEW016 SCT030 12/10 Q1013=
201212162145 METAR LIRA 162145Z 18006KT 9999 FEW016 12/10 Q1013=
201212162115 METAR LIRA 162115Z 18005KT 9999 FEW016 12/10 Q1013=
201212162045 METAR LIRA 162045Z 17003KT 9999 FEW016 12/10 Q1013=
201212162015 METAR LIRA 162015Z 16006KT 9999 FEW016 12/10 Q1014=
201212161945 METAR LIRA 161945Z 15004KT 9999 FEW016 12/10 Q1014=
201212161915 METAR LIRA 161915Z 16004KT 9999 FEW016 SCT070 13/11 Q1013=
201212161845 METAR LIRA 161845Z 17007KT 9999 FEW016 SCT030 13/11 Q1013=
201212161815 METAR LIRA 161815Z 17005KT 9999 FEW016 SCT030 13/11 Q1013=
201212161745 METAR LIRA 161745Z 17007KT 9999 SCT016 SCT030 13/10 Q1013=
201212161715 METAR LIRA 161715Z 18006KT 9999 SCT016 SCT030 13/10 Q1013=
201212161645 METAR LIRA 161645Z 16007KT 9999 SCT016 SCT030 14/11 Q1014=
201212161615 METAR LIRA 161615Z 16005KT 9999 SCT020 SCT030 14/11 Q1014=
201212161545 METAR LIRA 161545Z 17004KT 9999 SCT020 SCT030 15/11 Q1014=
201212161515 METAR LIRA 161515Z 17006KT 9999 SCT020 SCT030 15/11 Q1014=
201212161445 METAR LIRA 161445Z 20007KT 170V240 9999 SCT020 SCT030 15/12
                        Q1014=
201212161415 METAR LIRA 161415Z 18005KT 9999 SCT020 SCT030 15/12 Q1014=
201212161345 METAR LIRA 161345Z 19004KT 9999 SCT020 SCT030 15/11 Q1014=
201212161315 METAR LIRA 161315Z 20004KT 9999 SCT020 SCT030 16/12 Q1014=
201212161245 METAR LIRA 161245Z 22003KT 9999 SCT020 SCT070 16/12 Q1015=
201212161215 METAR LIRA 161215Z 20005KT 9999 SCT020 SCT025 16/12 Q1015=
201212161145 METAR LIRA 161145Z 20006KT 160V240 9999 SCT020 SCT025 15/12
                        Q1016=
201212161115 METAR LIRA 161115Z 20006KT 160V230 9999 SCT016 SCT070 15/12
                        Q1016=
201212161045 METAR LIRA 161045Z 20006KT 9999 SCT016 SCT070 15/12 Q1016=
201212161015 METAR LIRA 161015Z 19005KT 9999 SCT016 SCT060 14/13 Q1016=
201212160945 METAR LIRA 160945Z 19006KT 9999 SCT016 BKN060 14/13 Q1016=
201212160915 METAR LIRA 160915Z 19005KT 9999 SCT016 BKN070 14/13 Q1016=
201212160845 METAR LIRA 160845Z 18005KT 9999 FEW016 SCT070 14/13 Q1016=
201212160815 METAR LIRA 160815Z 18004KT 9999 FEW017 SCT070 14/13 Q1016=
201212160745 METAR LIRA 160745Z 15003KT 9999 FEW017 SCT070 13/12 Q1016=
201212160715 METAR LIRA 160715Z 17006KT 8000 FEW015 SCT070 13/12 Q1016=
201212160645 METAR LIRA 160645Z 17001KT 8000 FEW015 BKN070 13/12 Q1016=
201212160615 METAR LIRA 160615Z 18002KT 8000 FEW015 SCT025 13/12 Q1015=
201212160545 METAR LIRA 160545Z 17004KT 8000 SCT015 SCT025 13/12 Q1016=
201212160515 METAR LIRA 160515Z 17003KT 8000 SCT015 SCT025 14/12 Q1015=
201212160445 METAR LIRA 160445Z 18004KT 8000 SCT015 14/12 Q1015=
201212160415 METAR LIRA 160415Z 17005KT 8000 SCT015 SCT026 14/12 Q1015=
201212160345 METAR LIRA 160345Z 16006KT 7000 SCT015 SCT026 14/12 Q1015=
201212160315 METAR LIRA 160315Z 18004KT 8000 SCT016 SCT026 14/12 Q1016=
201212160245 METAR LIRA 160245Z 19004KT 9000 SCT016 SCT027 14/13 Q1016=
201212160215 METAR LIRA 160215Z 18004KT 8000 SCT016 SCT070 14/13 Q1016=
201212160145 METAR LIRA 160145Z 20005KT 8000 SCT016 SCT070 15/13 Q1012=
201212160115 METAR LIRA 160115Z 19006KT 8000 SCT016 SCT070 15/13 Q1016=
201212160045 METAR LIRA 160045Z 19006KT 9000 SCT016 SCT070 15/13 Q1016=
201212160015 METAR LIRA 160015Z 18005KT 9000 SCT016 SCT070 15/13 Q1016=
201212152350 METAR LIRA 160045Z 19006KT 9000 SCT016 SCT070 15/13 Q1016=
201212152345 METAR LIRA 152345Z 18007KT 9000 SCT016 SCT070 15/13 Q1016=
201212152315 METAR LIRA 152315Z 16007KT 8000 SCT016 SCT027 15/13 Q1016=
201212152245 METAR LIRA 152245Z 17007KT 9000 SCT016 SCT027 15/13 Q1016=
201212152215 METAR LIRA 152215Z 17007KT 9000 SCT016 SCT027 15/13 Q1016=
201212152145 METAR LIRA 152145Z 18008KT 9000 SCT016 SCT027 15/13 Q1016=
201212152115 METAR LIRA 152115Z 17008KT 9000 -RA SCT016 SCT025 15/13 Q1016=
201212152045 METAR LIRA 152045Z 16010KT 9000 -RA SCT016 SCT025 15/13 Q1016=
201212152015 METAR LIRA 152015Z 16009KT 8000 -RA FEW010 SCT015CB 15/13
                        Q1016=
201212151945 METAR LIRA 151945Z 16011KT 7000 -RA FEW010 SCT015 14/13 Q1016=
201212151915 METAR LIRA 151915Z 16011KT 7000 -RA FEW010 SCT015 14/13 Q1016=
201212151845 METAR LIRA 151845Z 16014KT 6000 -RA FEW009 SCT015 14/13 Q1016=
201212151815 METAR LIRA 151815Z 15014KT 6000 -RA FEW009 SCT023 14/12 Q1016=
201212151745 METAR LIRA 151745Z 16014KT 6000 -RA FEW009 SCT023 14/12 Q1015=
201212151715 METAR LIRA 151715Z 15015KT 6000 -RA FEW008 SCT015 14/12 Q1015=
201212151645 METAR LIRA 151645Z 15013KT 7000 -RA FEW010 SCT018 BKN060
                        13/11 Q1016=
201212151615 METAR LIRA 151615Z 15013KT 7000 -RA FEW010 SCT018 BKN060
                        13/11 Q1016=
201212151545 METAR LIRA 151545Z 16010KT 7000 -RA FEW010 SCT018 BKN060
                        13/11 Q1016=
201212151515 METAR LIRA 151515Z 16011KT 7000 FEW010 SCT018 BKN060 13/11
                        Q1016=
201212151445 METAR LIRA 151445Z 17012KT 7000 -RA FEW010 SCT025 BKN060
                        13/12 Q1016=
201212151415 METAR LIRA 151415Z 17011KT 7000 -RA FEW010 SCT018 BKN060
                        13/12 Q1016=
201212151345 METAR LIRA 151345Z 18010KT 7000 -RA FEW010 SCT016 BKN060
                        13/12 Q1016=
201212151315 METAR LIRA 151315Z 18013KT 8000 FEW010 SCT018 BKN070 14/13
                        Q1016=
201212151245 METAR LIRA 151245Z 17011KT 8000 FEW010 SCT018 BKN070 14/13
                        Q1017=
201212151215 METAR LIRA 151215Z 17012KT 8000 -RA FEW010 SCT018 BKN070
                        13/12 Q1017=
201212151145 METAR LIRA 151145Z 17011KT 8000 -RA FEW010 SCT018 BKN070
                        13/12 Q1017=
201212151115 METAR LIRA 151115Z 18010KT 8000 -RA FEW010 SCT018 BKN070
                        13/12 Q1017=
201212151045 METAR LIRA 151045Z 17012KT 8000 -RA FEW010 SCT018 BKN070
                        13/12 Q1017=
201212151015 METAR LIRA 151015Z 17014KT 8000 -RA FEW012 SCT018 BKN070
                        14/12 Q1017=
201212150945 METAR LIRA 150945Z 15014KT 8000 -RA FEW012 SCT018 BKN070
                        14/11 Q1017=
201212150915 METAR LIRA 150915Z 16014KT 8000 SCT012 SCT018 BKN070 14/12
                        Q1018=
201212150845 METAR LIRA 150845Z 16015KT 8000 SCT012 SCT018 BKN070 14/12
                        Q1018=
201212150815 METAR LIRA 150815Z 16012KT 8000 -RA SCT012 SCT018 BKN070
                        13/11 Q1018=
201212150745 METAR LIRA 150745Z 15012KT 8000 -RA FEW012 SCT018 BKN070
                        13/11 Q1018=
201212150715 METAR LIRA 150715Z 16013KT 8000 -RA SCT012 BKN018 13/11 Q1018=
201212150645 METAR LIRA 150645Z 16011KT 9999 SCT012 BKN018 13/11 Q1018=
201212150615 METAR LIRA 150615Z 16012KT 9999 -RA SCT012 FEW016TCU BKN070
                        13/12 Q1018=
201212150545 METAR LIRA 150545Z 17012KT 9999 -RA FEW012 FEW016TCU BKN070
                        13/11 Q1018=
201212150515 METAR LIRA 150515Z 16011KT 9999 FEW012 FEW016TCU BKN070 13/11
                        Q1018=
201212150445 METAR LIRA 150445Z 17012KT 9999 FEW012 FEW016TCU BKN070 13/12
                        Q1017=
201212150415 METAR LIRA 150415Z 16014G24KT 9999 FEW012 FEW016TCU BKN070
                        13/11 Q1017=
201212150345 METAR LIRA 150345Z 16014KT 9999 FEW012 FEW016TCU BKN070 13/11
                        Q1017=
201212150315 METAR LIRA 150315Z 16012KT 9999 FEW012 FEW016TCU BKN070 13/12
                        Q1018=
201212150245 METAR LIRA 150245Z 16012KT 9999 FEW012 FEW016TCU BKN070 13/11
                        Q1018=
201212150215 METAR LIRA 150215Z 16011KT 9999 FEW012 FEW016TCU BKN070 13/11
                        Q1018=
201212150145 METAR LIRA 150145Z 16011KT 9999 FEW012 FEW016TCU BKN070 13/12
                        Q1018=
201212150115 METAR LIRA 150115Z 16010KT 9999 FEW012 FEW016TCU BKN070 13/11
                        Q1018=
201212150045 METAR LIRA 150045Z 16010KT 9999 FEW012 FEW016TCU SCT070 12/11
                        Q1018=
201212150015 METAR LIRA 150015Z 16011KT 9999 FEW012 FEW016TCU SCT070 13/11
                        Q1018=
201212142350 METAR LIRA 150045Z 16010KT 9999 FEW012 FEW016TCU SCT070 12/11
                        Q1018=
201212142345 METAR LIRA 142345Z 16010KT 9999 FEW015 SCT070 13/11 Q1018=
201212142315 METAR LIRA 142315Z 16012KT 9999 -RA SCT012 SCT070 13/11 Q1018=
201212142245 METAR LIRA 142245Z 16010KT 9999 SCT015 SCT070 13/11 Q1018=
201212142215 METAR LIRA 142215Z 15011KT 9999 FEW015 SCT070 13/11 Q1018=
201212142145 METAR LIRA 142145Z 15009KT 9999 FEW017 BKN080 12/10 Q1018=
201212142115 METAR LIRA 142115Z 14007KT 9999 FEW017 BKN080 12/10 Q1018=
201212142045 METAR LIRA 142045Z 14006KT 9999 FEW017 BKN080 12/10 Q1018=
201212142015 METAR LIRA 142015Z 15008KT 9999 FEW017 BKN080 12/10 Q1018=
201212141945 METAR LIRA 141945Z 15008KT 9999 FEW017 SCT080 11/09 Q1018=
201212141915 METAR LIRA 141915Z 16007KT 9999 FEW017 SCT070 11/10 Q1018=
201212141815 METAR LIRA 141815Z 16006KT 9999 FEW017 SCT070 12/10 Q1018=
201212141745 METAR LIRA 141745Z 15006KT 9999 FEW017 11/10 Q1018=
201212141715 METAR LIRA 141715Z 15005KT 9999 FEW017 10/09 Q1018=
201212141645 METAR LIRA 141645Z 15006KT 9999 FEW017 10/09 Q1018=
201212141615 METAR LIRA 141615Z 16004KT 9999 FEW017 11/09 Q1018=
201212141545 METAR LIRA 141545Z 16005KT 9999 SCT017 SCT070 13/10 Q1018=
201212141515 METAR LIRA 141515Z 16006KT 9999 SCT017 FEW018TCU SCT070 13/11
                        Q1018=
201212141445 METAR LIRA 141445Z 17007KT 9999 SCT017 FEW018TCU SCT070 14/11
                        Q1018=
201212141415 METAR LIRA 141415Z 17009KT 9999 SCT017 FEW018TCU 14/11 Q1017=
201212141345 METAR LIRA 141345Z 18007KT 110V240 9999 SCT017 FEW018TCU
                        14/11 Q1017=
201212141315 METAR LIRA 141315Z 17009KT 9999 SCT016 FEW017TCU 15/11 Q1017=
201212141245 METAR LIRA 141245Z 16009KT 9999 SCT016 FEW017CB 14/11 Q1017=
201212141215 METAR LIRA 141215Z 17008KT 120V190 9999 SCT017 FEW018TCU
                        14/11 Q1017=
201212141145 METAR LIRA 141145Z 17009KT 9999 SCT017 FEW018TCU 14/11 Q1017=
201212141115 METAR LIRA 141115Z 17008KT 9999 SCT017 FEW018TCU 14/11 Q1018=
201212141045 METAR LIRA 141045Z 17008KT 9999 SCT017 FEW018TCU 13/11 Q1018=
201212141015 METAR LIRA 141015Z 15010KT 120V200 9000 FEW016 FEW017TCU
                        SCT080 12/10 Q1018=
201212140945 METAR LIRA 140945Z 14012KT 9000 -RA FEW016 FEW017TCU SCT030
                        12/10 Q1018=
201212140915 METAR LIRA 140915Z 15015KT 9000 -RA FEW016 FEW018TCU SCT030
                        12/10 Q1018=
201212140845 METAR LIRA 140845Z 15012KT 7000 -RA FEW016 FEW018TCU SCT030
                        12/10 Q1017 RERA=
201212140815 METAR LIRA 140815Z 15014KT 6000 -RA FEW016 FEW018CB SCT030
                        11/10 Q1017 RERA=
201212140745 METAR LIRA 140745Z 14017G27KT 6000 -RA FEW013 SCT030 12/10
                        Q1017=
201212140715 METAR LIRA 140715Z 14017G28KT 7000 -RA FEW013 SCT030 12/10
                        Q1016=
201212140645 METAR LIRA 140645Z 14019KT 7000 -RA FEW010 SCT030 12/09 Q1016=
201212140615 METAR LIRA 140615Z 13015KT 9999 -DZ FEW020 SCT030 12/09 Q1016=
201212140545 METAR LIRA 140545Z 14015KT 9999 -DZ FEW020 SCT025 11/09 Q1017=
201212140515 METAR LIRA 140515Z 14014KT 9999 -DZ FEW020 SCT025 11/09 Q1017=
201212140445 METAR LIRA 140445Z 13018KT 9999 -DZ SCT010 SCT025 11/08 Q1017=
201212140415 METAR LIRA 140415Z 14017KT 9999 -DZ SCT010 SCT025 11/08 Q1017=
201212140345 METAR LIRA 140345Z 15015G27KT 9999 -DZ SCT010 SCT025 11/08
                        Q1017=
201212140315 METAR LIRA 140315Z 15013KT 9999 SCT010 SCT025 11/08 Q1018=
201212140245 METAR LIRA 140245Z 14009KT 9999 SCT010 SCT025 11/07 Q1018=
201212140215 METAR LIRA 140215Z 13012KT 9999 FEW010 BKN025 11/06 Q1018=
201212140145 METAR LIRA 140145Z 13012KT 9999 FEW010 BKN025 11/06 Q1018=
201212140115 METAR LIRA 140115Z 13012KT 9999 FEW010 BKN025 10/05 Q1018=
201212140045 METAR LIRA 140045Z 08003G15KT 090V210 9999 FEW010 BKN025
                        09/04 Q1019=
201212140015 METAR LIRA 140015Z 06008KT 9999 FEW010 BKN025 09/02 Q1019=
201212132350 METAR LIRA 140045Z 08003G15KT 090V210 9999 FEW010 BKN025
                        09/04 Q1019=
201212132345 METAR LIRA 132345Z 04002KT 9999 FEW010 BKN025 09/03 Q1020=
201212132315 METAR LIRA 132315Z 07004KT 010V150 9999 FEW010 BKN025 09/04
                        Q1020=
201212132245 METAR LIRA 132245Z 13010G20KT 080V150 9999 FEW010 BKN025
                        10/03 Q1020=
201212132215 METAR LIRA 132215Z 13010KT 080V160 9999 FEW015 BKN030 10/03
                        Q1020=
201212132145 METAR LIRA 132145Z 14013KT 9999 -DZ FEW015 BKN030 10/03 Q1020=
201212132115 METAR LIRA 132115Z 13010KT 9999 -DZ FEW015 BKN025 09/03 Q1020=
201212132045 METAR LIRA 132045Z 14012KT 9999 -DZ FEW015 BKN025 09/03 Q1020=
201212132015 METAR LIRA 132015Z 14011G21KT 9999 -DZ FEW015 BKN025 09/03
                        Q1020=
201212131945 METAR LIRA 131945Z 14012KT 9999 -DZ FEW015 BKN025 09/03 Q1020=
201212131915 METAR LIRA 131915Z 13013G24KT 9999 -DZ FEW015 BKN025 09/03
                        Q1020=
201212131845 METAR LIRA 131845Z 15012KT 9999 -DZ FEW015 BKN025 09/03 Q1020=
201212131815 METAR LIRA 131815Z 14013KT 9999 -DZ SCT015 SCT025 09/04 Q1020=
201212131745 METAR LIRA 131745Z 15009KT 100V170 9999 -DZ SCT015 SCT025
                        09/03 Q1020=
201212131715 METAR LIRA 131715Z 14007KT 9999 SCT030 BKN070 09/02 Q1020=
201212131645 METAR LIRA 131645Z 13007KT 100V170 9999 SCT030 BKN080 09/02
                        Q1020=
201212131615 METAR LIRA 131615Z 08005KT 070V140 9999 SCT030 BKN080 07/M01
                        Q1020=
201212131545 METAR LIRA 131545Z 09001KT 9999 SCT030 BKN080 07/M01 Q1020=
201212131515 METAR LIRA 131515Z 33002KT 9999 SCT030 BKN080 07/M01 Q1020=
201212131445 METAR LIRA 131445Z 07004KT 9999 SCT030 BKN080 07/M01 Q1020=
201212131415 METAR LIRA 131415Z 06003KT 9999 SCT030 BKN080 07/M01 Q1020=
201212131345 METAR LIRA 131345Z 07003KT 9999 SCT030 BKN080 08/M01 Q1021=
201212131315 METAR LIRA 131315Z 06005KT 9999 SCT030 BKN080 07/M03 Q1021=
201212131245 METAR LIRA 131245Z 00000KT 9999 SCT030 BKN080 07/M04 Q1021=
201212131215 METAR LIRA 131215Z 06003KT 9999 SCT030 BKN080 07/M04 Q1021=
201212131145 METAR LIRA 131145Z 07003KT 9999 SCT030 BKN080 08/M03 Q1021=
201212131115 METAR LIRA 131115Z 09003KT 9999 SCT030 SCT080 07/M03 Q1022=
201212131045 METAR LIRA 131045Z 00000KT 9999 FEW030 SCT080 07/M01 Q1022=
201212131015 METAR LIRA 131015Z 33001KT 9999 FEW030 06/M02 Q1023=
201212130945 METAR LIRA 130945Z 00000KT 9999 FEW017 SCT080 05/M02 Q1023=
201212130915 METAR LIRA 130915Z 06002KT 9999 FEW017 05/M01 Q1023=
201212130845 METAR LIRA 130845Z 33001KT 9999 FEW017 03/M01 Q1022=
201212130815 METAR LIRA 130815Z 00000KT 9999 FEW017 01/M03 Q1022=
201212130745 METAR LIRA 130745Z 00000KT 9999 FEW017 SCT200 00/M03 Q1022=
201212130715 METAR LIRA 130715Z 36001KT 9999 FEW030 BKN080 M00/M03 Q1021=
201212130645 METAR LIRA 130645Z 02002KT 9999 FEW030 SCT080 M00/M03 Q1021=
201212130615 METAR LIRA 130615Z 00000KT 9999 FEW030 SCT080 M02/M04 Q1021=
201212130545 METAR LIRA 130545Z 01002KT CAVOK M02/M04 Q1021=
201212130515 METAR LIRA 130515Z 04001KT CAVOK M02/M04 Q1021=
201212130445 METAR LIRA 130445Z 02001KT CAVOK M02/M04 Q1021=
201212130415 METAR LIRA 130415Z 03002KT CAVOK M02/M04 Q1021=
201212130345 METAR LIRA 130345Z 02001KT CAVOK M02/M04 Q1021=
201212130315 METAR LIRA 130315Z 02002KT CAVOK M01/M03 Q1021=
201212130245 METAR LIRA 130245Z 00000KT CAVOK M01/M04 Q1021=
201212130215 METAR LIRA 130215Z 01001KT CAVOK M01/M03 Q1021=
201212130145 METAR LIRA 130145Z 01002KT CAVOK M01/M04 Q1021=
201212130115 METAR LIRA 130115Z 00000KT CAVOK M01/M04 Q1021=
201212130045 METAR LIRA 130045Z 02001KT CAVOK M01/M03 Q1021=
201212130015 METAR LIRA 130015Z 03002KT CAVOK M01/M03 Q1021=
201212122350 METAR LIRA 130045Z 02001KT CAVOK M01/M03 Q1021=
201212122345 METAR LIRA 122345Z 02002KT CAVOK M01/M03 Q1021=
201212122315 METAR LIRA 122315Z 03003KT CAVOK M00/M03 Q1021=
201212122245 METAR LIRA 122245Z 04002KT CAVOK 00/M03 Q1021=
201212122215 METAR LIRA 122215Z 08001KT CAVOK 00/M05 Q1021=
201212122145 METAR LIRA 122145Z 09003KT CAVOK 00/M04 Q1021=
201212122115 METAR LIRA 122115Z 08002KT CAVOK 00/M05 Q1021=
201212122045 METAR LIRA 122045Z 09001KT CAVOK 01/M04 Q1021=
201212122015 METAR LIRA 122015Z 10003KT CAVOK 01/M04 Q1021=
201212121945 METAR LIRA 121945Z 12001KT CAVOK 01/M04 Q1020=
201212121915 METAR LIRA 121915Z 11001KT CAVOK 01/M03 Q1020=
201212121845 METAR LIRA 121845Z 10001KT CAVOK 02/M03 Q1020=
201212121815 METAR LIRA 121815Z 00000KT CAVOK 02/M03 Q1020=
201212121745 METAR LIRA 121745Z 07002KT CAVOK 03/M03 Q1019=
201212121715 METAR LIRA 121715Z 09003KT CAVOK 03/M03 Q1019=
201212121645 METAR LIRA 121645Z 07002KT 9999 FEW020 05/M05 Q1019=
201212121615 METAR LIRA 121615Z 08002KT 9999 FEW020 05/M03 Q1019=
201212121545 METAR LIRA 121545Z 06002KT 9999 FEW020 06/M03 Q1019=
201212121515 METAR LIRA 121515Z 02002KT 9999 FEW020 07/M02 Q1019=
201212121445 METAR LIRA 121445Z 01004KT 9999 FEW020 08/M02 Q1018=
201212121415 METAR LIRA 121415Z 06004KT 9999 FEW020 08/M01 Q1018=
201212121345 METAR LIRA 121345Z 01003KT 9999 FEW020 08/M02 Q1018=
201212121315 METAR LIRA 121315Z 02003KT 9999 FEW020 07/M02 Q1018=
201212121245 METAR LIRA 121245Z 34004KT 9999 FEW020 07/M02 Q1018=
201212121215 METAR LIRA 121215Z 01003KT CAVOK 07/M03 Q1018=
201212121145 METAR LIRA 121145Z 03003KT CAVOK 07/M02 Q1018=
201212121115 METAR LIRA 121115Z 36003KT CAVOK 06/M02 Q1018=
201212121045 METAR LIRA 121045Z 02003KT CAVOK 05/M01 Q1018=
201212121015 METAR LIRA 121015Z 02004KT CAVOK 04/M02 Q1018=
201212120945 METAR LIRA 120945Z 02004KT CAVOK 04/M02 Q1018=
201212120915 METAR LIRA 120915Z 02003KT CAVOK 03/M01 Q1018=
201212120845 METAR LIRA 120845Z 02006KT 350V060 CAVOK 02/M02 Q1018=
201212120815 METAR LIRA 120815Z 02003KT CAVOK 01/M02 Q1017=
201212120745 METAR LIRA 120745Z 05003KT CAVOK M00/M03 Q1017=
201212120715 METAR LIRA 120715Z 05004KT CAVOK M01/M03 Q1017=
201212120645 METAR LIRA 120645Z 03002KT CAVOK M01/M03 Q1017=
201212120615 METAR LIRA 120615Z 03002KT CAVOK M01/M03 Q1016=
201212120545 METAR LIRA 120545Z 04004KT CAVOK M01/M04 Q1016=
201212120515 METAR LIRA 120515Z 04004KT CAVOK M00/M03 Q1016=
201212120445 METAR LIRA 120445Z 36005KT CAVOK M00/M04 Q1016=
201212120415 METAR LIRA 120415Z 02002KT CAVOK M00/M04 Q1015=
201212120345 METAR LIRA 120345Z 02002KT CAVOK M00/M03 Q1015=
201212120315 METAR LIRA 120315Z 05003KT CAVOK M00/M04 Q1015=
201212120245 METAR LIRA 120245Z 05003KT CAVOK M00/M04 Q1015=
201212120215 METAR LIRA 120215Z 04003KT CAVOK 00/M03 Q1015=
201212120145 METAR LIRA 120145Z 04003KT CAVOK 00/M03 Q1015=
201212111815 METAR LIRA 111815Z 12003KT CAVOK 04/M01 Q1012=
201212111745 METAR LIRA 111745Z 10002KT CAVOK 04/M01 Q1012=
201212111715 METAR LIRA 111715Z 10001KT CAVOK 04/M00 Q1012=
201212111645 METAR LIRA 111645Z 10001KT CAVOK 05/M02 Q1012=
201212111615 METAR LIRA 111615Z 00000KT 9999 FEW080 06/M03 Q1011=
201212111545 METAR LIRA 111545Z 00000KT 9999 FEW020 08/M04 Q1011=
201212111515 METAR LIRA 111515Z 33002KT 9999 FEW020 09/M04 Q1011=
201212111445 METAR LIRA 111445Z 33003KT 9999 FEW020 09/M04 Q1011=
201212111415 METAR LIRA 111415Z 36002KT 9999 FEW020 09/M03 Q1011=
201212111345 METAR LIRA 111345Z 34002KT 9999 FEW020 09/M02 Q1011=
201212111315 METAR LIRA 111315Z 34003KT 9999 FEW020 09/M02 Q1011=
201212111245 METAR LIRA 111245Z 34002KT CAVOK 09/M01 Q1011=
201212111215 METAR LIRA 111215Z 33003KT CAVOK 09/M01 Q1011=
201212111145 METAR LIRA 111145Z 35004KT 9999 FEW020 08/M00 Q1011=
201212111115 METAR LIRA 111115Z 01004KT CAVOK 08/00 Q1011=
201212111045 METAR LIRA 111045Z 05003KT CAVOK 07/01 Q1011=
201212111015 METAR LIRA 111015Z 02007KT 330V060 CAVOK 07/00 Q1011=
201212110945 METAR LIRA 110945Z 01005KT 320V040 CAVOK 06/00 Q1011=
201212110915 METAR LIRA 110915Z 02006KT 330V120 CAVOK 05/00 Q1011=
201212110845 METAR LIRA 110845Z 36005KT CAVOK 04/01 Q1011=
201212110815 METAR LIRA 110815Z 06002KT CAVOK 04/01 Q1011=
201212110745 METAR LIRA 110745Z 02002KT CAVOK 03/00 Q1010=
201212110715 METAR LIRA 110715Z 04001KT CAVOK 02/M00 Q1010=
201212110645 METAR LIRA 110645Z 36003KT CAVOK 02/M00 Q1009=
201212110615 METAR LIRA 110615Z 06002KT 9999 FEW070 02/M00 Q1009=
201212110545 METAR LIRA 110545Z 04003KT CAVOK 02/M00 Q1009=
201212110515 METAR LIRA 110515Z 01005KT CAVOK 03/00 Q1008=
201212110445 METAR LIRA 110445Z 04005KT CAVOK 02/00 Q1008=
201212110415 METAR LIRA 110415Z 06003KT CAVOK 03/M00 Q1007=
201212110345 METAR LIRA 110345Z 03006KT 330V060 CAVOK 03/01 Q1007=
201212110315 METAR LIRA 110315Z 36008KT 320V030 CAVOK 04/01 Q1007=
201212110245 METAR LIRA 110245Z 01005KT 340V040 CAVOK 04/02 Q1006=
201212110215 METAR LIRA 110215Z 01004KT CAVOK 04/02 Q1006=
201212110145 METAR LIRA 110145Z 33007KT 9999 FEW025 04/02 Q1006=
201212110115 METAR LIRA 110115Z 33004KT 9999 FEW010 05/03 Q1006=
201212110045 METAR LIRA 110045Z 06005KT 9999 FEW010 05/03 Q1005=
201212110015 METAR LIRA 110015Z 34008KT 9999 FEW010 05/03 Q1005=
201212102350 METAR LIRA 110045Z 06005KT 9999 FEW010 05/03 Q1005=
201212102345 METAR LIRA 102345Z 34007KT 9999 FEW010 05/03 Q1004=
201212102315 METAR LIRA 102315Z 34005KT 9999 FEW010 05/04 Q1004=
201212102245 METAR LIRA 102245Z 00003KT 9999 SCT010 06/04 Q1005=
201212102215 METAR LIRA 102215Z 04004KT 9999 SCT010 06/04 Q1005=
201212102145 METAR LIRA 102145Z 34009KT 9999 SCT010 05/04 Q1004=
201212102115 METAR LIRA 102115Z 35006KT 9999 FEW018 06/05 Q1004=
201212102045 METAR LIRA 102045Z 02004KT 350V070 9999 FEW018 SCT030 06/05
                        Q1004=
201212102015 METAR LIRA 102015Z 02007KT 320V050 8000 FEW015 FEW018CB SCT025
                        07/05 Q1003=
201212101945 METAR LIRA 101945Z 36012G25KT 6000 -RA FEW015 FEW018CB SCT025
                        07/06 Q1003=
201212101915 METAR LIRA 101915Z 18004KT 8000 -RA FEW018 SCT070 09/08 Q1002=
201212101845 METAR LIRA 101845Z 17005KT 8000 FEW017 08/07 Q1003=
201212101815 METAR LIRA 101815Z 16005KT 8000 FEW017 08/07 Q1003=
201212101745 METAR LIRA 101745Z 17005KT 7000 FEW015 SCT027 09/08 Q1003=
201212101715 METAR LIRA 101715Z 20008KT 6000 -RA FEW015 SCT025 10/08 Q1003=
201212101645 METAR LIRA 101645Z 21006KT 170V250 8000 -RA FEW025 SCT030
                        BKN070 10/08 Q1004=
201212101615 METAR LIRA 101615Z 19007KT 8000 -RA FEW025 SCT030 BKN070
                        10/08 Q1005=
201212101545 METAR LIRA 101545Z 21006KT 170V240 8000 FEW025 SCT030 BKN070
                        10/08 Q1005=
201212101515 METAR LIRA 101515Z 22006KT 8000 FEW025 SCT030 BKN070 10/08
                        Q1005=
201212101445 METAR LIRA 101445Z 22007KT 190V260 8000 -RA FEW025 SCT030
                        BKN070 10/08 Q1006=
201212101415 METAR LIRA 101415Z 22005KT 180V260 8000 -RA FEW025 SCT030
                        BKN070 10/08 Q1006=
201212101345 METAR LIRA 101345Z 20005KT 160V250 8000 -RA FEW025 SCT030
                        BKN070 10/09 Q1006=
201212101315 METAR LIRA 101315Z 18007KT 8000 -RA FEW025 SCT030 BKN070
                        09/08 Q1007=
201212101245 METAR LIRA 101245Z 18009KT 8000 -RA FEW025 SCT030 BKN070
                        09/08 Q1007=
201212101215 METAR LIRA 101215Z 19009KT 160V220 8000 -RA FEW025 SCT030
                        BKN070 09/08 Q1008=
201212101145 METAR LIRA 101145Z 17010KT 8000 -RA FEW025 SCT030 BKN070
                        09/07 Q1008=
201212101115 METAR LIRA 101115Z 17010KT 8000 -RA FEW025 SCT030 BKN070
                        09/08 Q1010=
201212101045 METAR LIRA 101045Z 17009KT 8000 -RA FEW025 SCT030 BKN070
                        09/07 Q1010=
201212101015 METAR COR LIRA 101015Z 17011KT 8000 -RA FEW025 SCT030 BKN070
                        09/07 Q1011=
201212100945 METAR LIRA 100945Z 17011KT 8000 -RA FEW025 SCT030 BKN070
                        08/05 Q1011=
201212100915 METAR LIRA 100915Z 17013KT 8000 -RA FEW025 SCT030 BKN070
                        09/05 Q1011=
201212100845 METAR LIRA 100845Z 17011KT 8000 -RA SCT030 BKN070 07/03 Q1011=
201212100815 METAR LIRA 100815Z 15014KT 8000 -RA SCT030 BKN070 07/02 Q1012=
201212100745 METAR LIRA 100745Z 16009KT 8000 -RA SCT030 BKN070 06/02 Q1012=
201212100715 METAR LIRA 100715Z 16007KT 8000 -RA SCT030 BKN070 05/00 Q1013=
201212100645 METAR LIRA 100645Z 14002KT 9999 SCT030 BKN070 03/M02 Q1013=
201212100615 METAR LIRA 100615Z 09001KT 9999 SCT030 BKN070 01/M04 Q1013=
201212100545 METAR LIRA 100545Z 10001KT 9999 FEW030 BKN070 02/M04 Q1013=
201212100515 METAR LIRA 100515Z 14002KT 9999 FEW030 BKN070 02/M03 Q1013=
201212100445 METAR LIRA 100445Z 15001KT 9999 FEW030 BKN070 01/M04 Q1014=
201212100415 METAR LIRA 100415Z 10002KT 9999 FEW030 SCT070 M04/M09 Q1015=
201212100345 METAR LIRA 100345Z 08001KT CAVOK M08/M13 Q1016=
201212100315 METAR LIRA 100315Z 08002KT CAVOK M01/M06 Q1016=
201212100245 METAR LIRA 100245Z 00000KT CAVOK M01/M06 Q1016=
201212100215 METAR LIRA 100215Z 09001KT CAVOK M00/M05 Q1016=
201212100145 METAR LIRA 100145Z 09001KT CAVOK M00/M05 Q1017=
201212100115 METAR LIRA 100115Z 09001KT CAVOK M01/M06 Q1017=
201212100045 METAR LIRA 100045Z 08001KT CAVOK M02/M06 Q1017=
201212100015 METAR LIRA 100015Z 07001KT CAVOK M02/M06 Q1017=
201212092350 METAR LIRA 100045Z 08001KT CAVOK M02/M06 Q1017=
201212092345 METAR LIRA 092345Z 06005KT CAVOK M00/M08 Q1017=
201212092315 METAR LIRA 092315Z 07006KT CAVOK M01/M07 Q1017=
201212092245 METAR LIRA 092245Z 04002KT CAVOK 00/M06 Q1017=
201212092215 METAR LIRA 092215Z 00000KT CAVOK 00/M07 Q1017=
201212092145 METAR LIRA 092145Z 06001KT CAVOK 01/M06 Q1017=
201212092115 METAR LIRA 092115Z 05002KT CAVOK 01/M07 Q1017=
201212092045 METAR LIRA 092045Z 05004KT CAVOK 01/M07 Q1017=
201212092015 METAR LIRA 092015Z 06002KT CAVOK 02/M07 Q1017=
201212091945 METAR LIRA 091945Z 33006KT CAVOK 02/M07 Q1017=
201212091915 METAR LIRA 091915Z 33008KT CAVOK 03/M07 Q1017=
201212091845 METAR LIRA 091845Z 31006KT CAVOK 03/M07 Q1017=
201212091815 METAR LIRA 091815Z 33004KT CAVOK 03/M08 Q1017=
201212091745 METAR LIRA 091745Z 34010KT CAVOK 04/M08 Q1016=
201212091715 METAR LIRA 091715Z 34007KT CAVOK 03/M09 Q1016=
201212091645 METAR LIRA 091645Z 33007KT CAVOK 04/M09 Q1016=
201212091615 METAR LIRA 091615Z 33008KT 9999 FEW070 05/M10 Q1016=
201212091545 METAR LIRA 091545Z 35009KT 9999 FEW070 06/M10 Q1016=
201212091515 METAR LIRA 091515Z 35012G25KT CAVOK 07/M09 Q1015=
201212091445 METAR LIRA 091445Z 36013G23KT CAVOK 07/M09 Q1015=
201212091415 METAR LIRA 091415Z 35016G26KT 320V040 9999 FEW022 07/M09
                        Q1015=
201212091345 METAR LIRA 091345Z 35016G26KT 9999 FEW022 08/M08 Q1015=
201212091315 METAR LIRA 091315Z 35015G25KT 310V030 9999 FEW022 08/M08
                        Q1015=
201212091245 METAR LIRA 091245Z 36010KT 330V050 9999 FEW022 08/M08 Q1014=
201212091215 METAR LIRA 091215Z 34015G25KT 300V010 9999 FEW020 08/M07
                        Q1014=
201212091145 METAR LIRA 091145Z 36015G26KT 330V030 9999 FEW020 07/M07
                        Q1014=
201212091115 METAR LIRA 091115Z 36014G25KT 320V020 9999 FEW020 07/M07
                        Q1014=
201212091045 METAR LIRA 091045Z 36014G26KT 330V050 CAVOK 07/M07 Q1013=
201212091015 METAR LIRA 091015Z 36018G28KT 320V030 9999 FEW070 06/M07
                        Q1014=
201212090945 METAR LIRA 090945Z 34015KT 310V010 9999 FEW070 06/M06 Q1015=
201212090915 METAR LIRA 090915Z 35015G25KT 310V010 9999 FEW070 05/M05
                        Q1014=
201212090845 METAR LIRA 090845Z 36012G25KT 9999 FEW070 04/M05 Q1013=
201212090815 METAR LIRA 090815Z 36020G32KT 330V040 9999 FEW070 04/M05
                        Q1013=
201212090745 METAR LIRA 090745Z 35017G28KT 9999 FEW070 04/M05 Q1013=
201212090715 METAR LIRA 090715Z 35017G31KT 9999 FEW070 03/M05 Q1012=
201212090645 METAR LIRA 090645Z 36015G25KT 320V020 9999 FEW070 03/M05
                        Q1011=
201212090615 METAR LIRA 090615Z 35015G27KT 310V020 9999 FEW070 03/M05
                        Q1010=
201212090545 METAR LIRA 090545Z 35015KT CAVOK 03/M05 Q1010=
201212090515 METAR LIRA 090515Z 35017G27KT 300V020 CAVOK 03/M05 Q1010=
201212090445 METAR LIRA 090445Z 35015G26KT 320V020 CAVOK 02/M06 Q1009=
201212090415 METAR COR LIRA 090415Z 36016G28KT CAVOK 02/M05 Q1009=
201212090345 METAR LIRA 090345Z 36015G29KT 330V030 CAVOK 02/M05 Q1009=
201212090315 METAR LIRA 090315Z 36016G35KT 330V040 CAVOK 02/M06 Q1008=
201212090245 METAR LIRA 090245Z 35015G26KT CAVOK 02/M06 Q1008=
201212090215 METAR LIRA 090215Z 35014G25KT 310V010 9999 SCT080 02/M05
                        Q1007=
201212090145 METAR LIRA 090145Z 36013G29KT 330V040 9999 FEW030 SCT080
                        02/M06 Q1007=
201212090115 METAR LIRA 090115Z 35014G28KT 9999 FEW030 SCT080 02/M05 Q1007=
201212090045 METAR LIRA 090045Z 35013G26KT 340V020 9999 FEW030 SCT080
                        02/M03 Q1007=
201212090015 METAR LIRA 090015Z 35014G25KT 300V020 9999 FEW030 SCT080
                        03/M04 Q1007=
201212082350 METAR LIRA 090045Z 35013G26KT 340V020 9999 FEW030 SCT080
                        02/M03 Q1007=
201212082345 METAR LIRA 082345Z 35015G25KT 320V040 9999 FEW030 SCT080
                        03/M04 Q1007=
201212082315 METAR LIRA 082315Z 35015G27KT 310V030 9999 FEW030 SCT080
                        03/M04 Q1007=
201212082245 METAR LIRA 082245Z 33015G25KT 9999 FEW030 BKN080 03/M03 Q1006=
201212082215 METAR LIRA 082215Z 35014G25KT 9999 FEW030 BKN080 04/M02 Q1006=
201212082145 METAR LIRA 082145Z 35011KT 9999 FEW030 BKN080 04/M02 Q1006=
201212082115 METAR LIRA 082115Z 35012G24KT 9999 FEW030 SCT080 03/M03 Q1005=
201212082045 METAR LIRA 082045Z 36014G25KT 330V040 9999 FEW030 SCT080
                        03/M02 Q1004=
201212082015 METAR LIRA 082015Z 36011G22KT 9999 FEW030 SCT080 02/M03 Q1004=
201212081945 METAR LIRA 081945Z 35012G22KT 310V020 9999 FEW030 SCT080
                        02/M03 Q1004=
201212081915 METAR LIRA 081915Z 34013KT 9999 FEW030 SCT080 03/M03 Q1003=
201212081845 METAR LIRA 081845Z 34011KT 300V020 9999 FEW030 SCT080 03/M03
                        Q1003=
201212081815 METAR LIRA 081815Z 33011G22KT 9999 FEW080 03/M03 Q1003=
201212081745 METAR LIRA 081745Z 34011KT 300V030 9999 FEW080 03/M04 Q1003=
201212081715 METAR LIRA 081715Z 34012G23KT 9999 FEW030 SCT070 03/M04 Q1003=
201212081645 METAR LIRA 081645Z 34010KT 9999 FEW030 SCT070 04/M04 Q1002=
201212081615 METAR LIRA 081615Z 34015KT 9999 FEW030 SCT070 04/M04 Q1002=
201212081545 METAR LIRA 081545Z 33014KT 9999 FEW030 SCT070 05/M04 Q1001=
201212081515 METAR LIRA 081515Z 35013KT 9999 FEW018 SCT070 05/M03 Q1001=
201212081445 METAR LIRA 081445Z 34011KT 310V020 9999 FEW018 SCT070 05/M03
                        Q1001=
201212081415 METAR LIRA 081415Z 34011KT 310V020 9999 FEW018 SCT070 05/M03
                        Q1001=
201212081345 METAR LIRA 081345Z 34011G21KT 9999 FEW018 SCT030 08/M01 Q1001=
201212081315 METAR LIRA 081315Z 34011KT 300V360 9999 FEW018 SCT030 08/M01
                        Q1001=
201212081245 METAR LIRA 081245Z 35012KT 310V040 9999 FEW018 SCT030 07/M01
                        Q1001=
201212081215 METAR LIRA 081215Z 34012KT 9999 FEW018 SCT030 07/01 Q1001=
201212081145 METAR LIRA 081145Z 35009G19KT 320V030 9999 FEW018 SCT030
                        07/01 Q1001=
201212081115 METAR LIRA 081115Z 35008KT 310V030 9999 FEW018 SCT030 07/01
                        Q1001=
201212081045 METAR LIRA 081045Z 35009KT 310V010 9999 FEW018 SCT030 08/02
                        Q1001=
201212081015 METAR LIRA 081015Z 01008KT 9999 FEW020 SCT070 08/03 Q1001=
201212080945 METAR LIRA 080945Z 01010KT 340V040 9999 FEW020 07/03 Q1001=
201212080915 METAR LIRA 080915Z 36008KT 330V030 9999 FEW020 SCT070 06/03
                        Q1001=
201212080845 METAR LIRA 080845Z 36006KT 9999 FEW030 SCT070 06/02 Q1001=
201212080815 METAR LIRA 080815Z 35007KT 9999 FEW030 SCT070 05/02 Q1001=
201212080745 METAR LIRA 080745Z 04002KT 9999 FEW030 SCT070 04/01 Q1000=
201212080715 METAR LIRA 080715Z 03002KT 9999 FEW030 SCT070 04/01 Q1000=
201212080645 METAR LIRA 080645Z 30003KT 9999 FEW030 SCT070 04/01 Q1000=
201212080615 METAR LIRA 080615Z 16002KT 9999 FEW030 SCT070 04/02 Q1000=
201212080545 METAR LIRA 080545Z 00000KT 9999 SCT030 05/02 Q1000=
201212080515 METAR LIRA 080515Z 36002KT 9999 FEW018 SCT040 05/02 Q1000=
201212080445 METAR LIRA 080445Z 02003KT 9999 FEW018 SCT040 06/02 Q1000=
201212080415 METAR LIRA 080415Z 33007KT 9999 FEW018 SCT040 07/03 Q1000=
201212080345 METAR LIRA 080345Z 03005KT 9999 FEW018 SCT040 07/04 Q1000=
201212080315 METAR LIRA 080315Z 01003KT 9999 FEW018 SCT040 08/05 Q1000=
201212080245 METAR LIRA 080245Z 05002KT 9999 FEW018 SCT040 08/05 Q1001
                        RETS=
201212080215 METAR LIRA 080215Z 36003KT 9999 FEW017 FEW020TCU SCT040 08/05
                        Q1000 RETS=
201212080145 METAR LIRA 080145Z 32015G25KT 9999 -TSRA SCT015 FEW020CB
                        BKN030 09/08 Q1000=
201212080115 METAR LIRA 080115Z 24007KT 200V300 9999 SCT015 FEW020TCU
                        SCT030 10/08 Q1000 RETS=
201212080045 METAR LIRA 080045Z 20010KT 9999 FEW015 FEW020TCU SCT030 10/08
                        Q1000 RETS=
201212080015 METAR LIRA 080015Z 20012KT 160V260 8000 -TSRA FEW015 FEW020CB
                        BKN030 09/08 Q1000=
201212072350 METAR LIRA 080045Z 20010KT 9999 FEW015 FEW020TCU SCT030 10/08
                        Q1000 RETS=
201212072345 METAR LIRA 072345Z 22010G25KT 5000 -TSRA BR SCT015 FEW020CB
                        BKN030 09/08 Q1002=
201212072315 METAR LIRA 072315Z 20010KT 180V240 5000 -TSRA BR SCT015 FEW020CB
                        BKN030 10/08 Q1002=
201212072245 METAR LIRA 072245Z 22009G19KT 190V260 7000 -RA SCT015 FEW020TCU
                        BKN030 10/06 Q1003=
201212072215 METAR LIRA 072215Z 19009KT 9999 SCT017 SCT030 10/05 Q1003=
201212072145 METAR LIRA 072145Z 18006KT 9999 SCT017 SCT030 09/07 Q1004=
201212072115 METAR LIRA 072115Z 18010KT 9999 -RA SCT017 SCT030 09/07 Q1004=
201212072045 METAR LIRA 072045Z 16011KT 7000 -RA SCT015 FEW020TCU BKN030
                        09/07 Q1005=
201212072015 METAR LIRA 072015Z 17012KT 5000 -RA BR SCT015 FEW020TCU BKN030
                        09/07 Q1005=
201212071945 METAR LIRA 071945Z 16011KT 5000 -RA BR SCT015 FEW020TCU BKN030
                        08/07 Q1006=
201212071915 METAR LIRA 071915Z 17006KT 120V210 7000 -RA SCT015 FEW020TCU
                        BKN030 08/07 Q1006=
201212071845 METAR LIRA 071845Z 15004KT 7000 -RA SCT015 FEW020TCU BKN030
                        08/07 Q1007=
201212071815 METAR LIRA 071815Z 16008KT 7000 -RA SCT015 FEW020TCU BKN030
                        08/07 Q1007=
201212071745 METAR LIRA 071745Z 24002KT 7000 -RA SCT015 FEW020TCU BKN030
                        08/06 Q1008=
201212071715 METAR LIRA 071715Z 17009KT 8000 -RA FEW017 FEW018TCU BKN030
                        08/06 Q1008=
201212071645 METAR LIRA 071645Z 16006KT 9999 -RA FEW017 FEW018TCU SCT030
                        08/05 Q1008=
201212071615 METAR LIRA 071615Z 15005KT 9999 -RA FEW017 FEW018TCU SCT030
                        08/05 Q1009=
201212071545 METAR LIRA 071545Z 15009KT 9999 -RA FEW017 FEW018TCU SCT070
                        08/04 Q1009=
201212071515 METAR LIRA 071515Z 17005KT 9999 FEW017 BKN080 09/03 Q1009=
201212071445 METAR LIRA 071445Z 19005KT 9999 FEW017 BKN080 09/03 Q1010=
201212071415 METAR LIRA 071415Z 17007KT 9999 FEW017 SCT030 09/03 Q1010=
201212071345 METAR LIRA 071345Z 18009KT 9999 FEW017 SCT070 09/03 Q1010=
201212071315 METAR LIRA 071315Z 17010KT 9999 FEW017 SCT070 09/03 Q1010=
201212071245 METAR LIRA 071245Z 16010KT 9999 FEW030 SCT070 09/03 Q1011=
201212071215 METAR LIRA 071215Z 17008KT 9999 FEW030 SCT070 09/03 Q1011=
201212071145 METAR LIRA 071145Z 15011KT 9999 FEW030 SCT080 08/01 Q1011=
201212071115 METAR LIRA 071115Z 14011KT 9999 SCT030 BKN070 07/M01 Q1012=
201212071045 METAR LIRA 071045Z 15011KT 9999 -DZ SCT030 BKN070 07/M00
                        Q1012=
201212071015 METAR LIRA 071015Z 28002KT 9999 -DZ SCT030 BKN070 03/M00
                        Q1013=
201212070945 METAR LIRA 070945Z 00000KT 9999 SCT030 BKN080 03/M00 Q1013=
201212070915 METAR LIRA 070915Z 02001KT 9999 SCT030 SCT080 01/M01 Q1013=
201212070845 METAR LIRA 070845Z 03001KT 9999 SCT030 SCT080 00/M01 Q1013=
201212070815 METAR LIRA 070815Z 03002KT 9999 FEW030 SCT080 00/M01 Q1013=
201212070745 METAR LIRA 070745Z 04002KT 9999 FEW080 M01/M02 Q1013=
201212070715 METAR LIRA 070715Z 05002KT 8000 FEW080 M02/M04 Q1013=
201212070645 METAR LIRA 070645Z 04003KT 8000 FEW080 M02/M03 Q1013=
201212070615 METAR LIRA 070615Z 05004KT 8000 FEW080 M02/M03 Q1013=
201212070545 METAR LIRA 070545Z 02002KT 8000 FEW008 M02/M03 Q1013=
201212070515 METAR LIRA 070515Z 03002KT 9999 FEW008 M02/M03 Q1013=
201212070445 METAR LIRA 070445Z 05002KT 9999 FEW080 M02/M03 Q1013=
201212070415 METAR LIRA 070415Z 02003KT 9999 FEW080 SCT200 M01/M02 Q1013=
201212070345 METAR LIRA 070345Z 03002KT 9999 FEW080 M01/M02 Q1013=
201212070315 METAR LIRA 070315Z 06002KT 9999 FEW003 M01/M02 Q1013=
201212070245 METAR LIRA 070245Z 05002KT 9999 FEW003 M01/M02 Q1013=
201212070215 METAR LIRA 070215Z 04002KT 9999 FEW003 M01/M03 Q1013=
201212070145 METAR LIRA 070145Z 05001KT 9999 FEW003 M01/M03 Q1013=
201212070115 METAR LIRA 070115Z 35001KT 9999 FEW080 M01/M03 Q1013=
201212070045 METAR LIRA 070045Z 36002KT 9999 FEW080 M01/M02 Q1013=
201212070015 METAR LIRA 070015Z 35001KT 8000 FEW003 00/M01 Q1013=
201212062350 METAR LIRA 070045Z 36002KT 9999 FEW080 M01/M02 Q1013=
201212062345 METAR LIRA 062345Z 04003KT 8000 FEW003 00/M01 Q1012=
201212062315 METAR LIRA 062315Z 05004KT 8000 FEW003 01/M01 Q1012=
201212062245 METAR LIRA 062245Z 04003KT 8000 FEW003 01/M01 Q1012=
201212062215 METAR LIRA 062215Z 02002KT 8000 FEW003 01/M00 Q1012=
201212062145 METAR LIRA 062145Z 05003KT 8000 FEW003 01/M00 Q1012=
201212062115 METAR LIRA 062115Z 05001KT CAVOK 02/00 Q1012=
201212062045 METAR LIRA 062045Z 02002KT CAVOK 02/00 Q1012=
201212062015 METAR LIRA 062015Z 04004KT CAVOK 03/01 Q1012=
201212061945 METAR LIRA 061945Z 05005KT 360V070 CAVOK 03/00 Q1012=
201212061915 METAR LIRA 061915Z 04004KT CAVOK 03/00 Q1011=
201212061845 METAR LIRA 061845Z 05005KT 360V070 CAVOK 03/00 Q1011=
201212061815 METAR LIRA 061815Z 05005KT CAVOK 03/00 Q1011=
201212061745 METAR LIRA 061745Z 04003KT CAVOK 04/M00 Q1010=
201212061715 METAR LIRA 061715Z 11001KT CAVOK 04/M00 Q1010=
201212061645 METAR LIRA 061645Z 33003KT CAVOK 05/M00 Q1010=
201212061615 METAR LIRA 061615Z 02002KT CAVOK 06/M01 Q1009=
201212061545 METAR LIRA 061545Z 05002KT CAVOK 07/M01 Q1009=
201212061515 METAR LIRA 061515Z 01004KT CAVOK 08/M01 Q1009=
201212061445 METAR LIRA 061445Z 36005KT CAVOK 08/M00 Q1008=
201212061415 METAR LIRA 061415Z 01005KT CAVOK 09/00 Q1008=
201212061345 METAR LIRA 061345Z 35006KT CAVOK 09/00 Q1008=
201212061315 METAR LIRA 061315Z 01005KT 330V040 CAVOK 09/00 Q1008=
201212061245 METAR LIRA 061245Z 01006KT 310V050 CAVOK 09/00 Q1008=
201212061215 METAR LIRA 061215Z 36005KT 9999 FEW020 09/01 Q1007=
201212061145 METAR LIRA 061145Z 01004KT 9999 FEW025 08/02 Q1007=
201212061115 METAR LIRA 061115Z 34003KT CAVOK 07/01 Q1007=
201212061045 METAR LIRA 061045Z 34004KT 9999 FEW040 06/01 Q1007=
201212061015 METAR LIRA 061015Z 03005KT 9999 FEW040 05/01 Q1007=
201212060945 METAR LIRA 060945Z 03004KT 9999 FEW040 05/02 Q1007=
201212060915 METAR LIRA 060915Z 03005KT 9999 FEW040 SCT080 05/01 Q1007=
201212060845 METAR LIRA 060845Z 34004KT 9999 FEW025 SCT070 03/01 Q1007=
201212060815 METAR LIRA 060815Z 00000KT 9999 FEW025 SCT030 02/00 Q1007=
201212060745 METAR LIRA 060745Z 34004KT 9999 FEW020CB SCT035 02/01 Q1006=
201212060715 METAR LIRA 060715Z 03003KT 9999 FEW016 FEW020CB SCT030 02/00
                        Q1006=
201212060645 METAR LIRA 060645Z 04003KT 9999 FEW016 FEW020TCU SCT030 02/00
                        Q1006=
201212060615 METAR LIRA 060615Z 06004KT 9999 FEW016CB BKN025 02/00 Q1006=
201212060545 METAR LIRA 060545Z 03006KT 9999 FEW020CB BKN025 01/M00 Q1006=
201212060515 METAR LIRA 060515Z 07005KT 9999 FEW008 FEW020CB SCT025 01/M00
                        Q1006=
201212060445 METAR LIRA 060445Z 03005KT 340V060 9999 FEW020CB SCT025 01/M00
                        Q1006=
201212060415 METAR LIRA 060415Z 34002KT 9999 FEW020CB 01/M01 Q1005=
201212060345 METAR LIRA 060345Z 36002KT 9999 FEW025 00/M01 Q1005=
201212060315 METAR LIRA 060315Z 05006KT 9999 FEW080 01/M01 Q1005=
201212060245 METAR LIRA 060245Z 04004KT 9999 FEW080 01/M01 Q1005=
201212060215 METAR LIRA 060215Z 03002KT 9999 FEW080 01/M00 Q1005=
201212060145 METAR LIRA 060145Z 02004KT 9999 FEW070 01/M00 Q1005=
201212060115 METAR LIRA 060115Z 03002KT 9999 FEW070 01/M00 Q1005=
201212060045 METAR LIRA 060045Z 05005KT 9999 FEW070 01/M00 Q1005=
201212060015 METAR LIRA 060015Z 03002KT 9999 FEW070 02/00 Q1005=
201212052350 METAR LIRA 060045Z 05005KT 9999 FEW070 01/M00 Q1005=
201212052345 METAR LIRA 052345Z 04004KT 9999 FEW070 02/00 Q1005=
201212052315 METAR LIRA 052315Z 00000KT 9999 FEW070 02/01 Q1005=
201212052245 METAR LIRA 052245Z 04004KT 9999 FEW070 02/01 Q1004=
201212052215 METAR LIRA 052215Z 01001KT 9999 FEW070 03/01 Q1004=
201212052145 METAR LIRA 052145Z 00000KT 9999 FEW070 03/01 Q1004=
201212052115 METAR LIRA 052115Z 05004KT 9999 FEW070 03/01 Q1004=
201212052045 METAR LIRA 052045Z 05004KT 360V060 9999 FEW030 03/01 Q1004=
201212052015 METAR LIRA 052015Z 04006KT 020V080 9999 FEW030 04/01 Q1004=
201212051945 METAR LIRA 051945Z 02006KT 320V050 9999 FEW030 05/M00 Q1004=
201212051915 METAR LIRA 051915Z 04002KT 9999 FEW018CB 05/00 Q1003=
201212051845 METAR LIRA 051845Z 03002KT 9999 FEW017CB 06/01 Q1003 RETS=
201212051815 METAR LIRA 051815Z 02004KT 9999 FEW017CB 06/00 Q1003 RETS=
201212051745 METAR LIRA 051745Z 36001KT 9999 -TSRA FEW015 FEW016CB SCT070
                        06/M00 Q1003 RETS WS RWY 15=
201212051715 METAR LIRA 051715Z 09007KT 9999 -TSRA FEW014 FEW015CB 05/02
                        Q1002 RETS WS RWY 15=
201212051645 METAR LIRA 051645Z 06009KT 9999 TSRA FEW014 SCT015CB 05/02
                        Q1003=
201212051615 METAR LIRA 051615Z 02012KT 350V060 9999 TSRA FEW014 SCT015CB
                        06/03 Q1002=
201212051545 METAR LIRA 051545Z 34011G21KT 310V050 9999 TSGR FEW014 SCT015CB
                        08/03 Q1001=
201212051515 METAR LIRA 051515Z 17004KT 9999 FEW017 FEW018CB 10/04 Q1000=
201212051445 METAR LIRA 051445Z 17006KT 9999 -SHRA FEW017 FEW018CB 10/03
                        Q1001=
201212051415 METAR LIRA 051415Z 17006KT 9999 FEW017 FEW018CB 10/03 Q1001=
201212051345 METAR LIRA 051345Z 12002KT 9999 FEW017 FEW018CB SCT025 10/04
                        Q1001=
201212051315 METAR LIRA 051315Z 05003KT 9999 FEW017 FEW018CB SCT025 10/03
                        Q1002=
201212051245 METAR LIRA 051245Z 36005KT 9999 FEW017 FEW018CB SCT025 11/02
                        Q1002=
201212051215 METAR LIRA 051215Z 16004KT 330V030 9999 FEW017 FEW018TCU
                        SCT025 11/02 Q1002=
201212051145 METAR LIRA 051145Z 00000KT 9999 FEW017 FEW018CB SCT025 11/04
                        Q1002=
201212051115 METAR LIRA 051115Z 24003KT 9999 FEW017 FEW018CB SCT025 12/04
                        Q1003=
201212051045 METAR LIRA 051045Z 30008KT 9999 FEW017 FEW018CB SCT025 11/03
                        Q1003=
201212051015 METAR LIRA 051015Z 29006KT 250V340 9999 FEW017 FEW018CB SCT025
                        11/04 Q1003=
201212050945 METAR LIRA 050945Z 35007KT 300V010 9999 FEW017 FEW018CB SCT025
                        10/03 Q1003=
201212050915 METAR LIRA 050915Z 13002KT 9999 FEW017 FEW018CB SCT025 11/01
                        Q1003=
201212050845 METAR LIRA 050845Z 14002KT 9999 FEW017 FEW018CB 10/03 Q1003=
201212050815 METAR LIRA 050815Z 13002KT 9999 FEW017 FEW018CB 08/02 Q1003=
201212050745 METAR LIRA 050745Z 13002KT 9999 FEW017 FEW018CB 07/04 Q1003=
201212050715 METAR LIRA 050715Z 11003KT 9999 FEW017 FEW018CB 05/03 Q1003=
201212050645 METAR LIRA 050645Z 16003KT 9999 TS FEW017 FEW018CB 06/01
                        Q1003=
201212050615 METAR LIRA 050615Z 00000KT 9999 TS FEW017 FEW018CB 06/00
                        Q1003=
201212050545 METAR LIRA 050545Z 16002KT 9999 TS FEW017 FEW018CB SCT025
                        06/04 Q1003=
201212050515 METAR LIRA 050515Z 00000KT 9999 TS FEW017 FEW018CB SCT025
                        05/03 Q1002=
201212050445 METAR COR LIRA 050445Z 00000KT 9999 FEW018 FEW020CB SCT070
                        05/04 Q1002=
201212050415 METAR LIRA 050415Z 28001KT 9999 FEW030 05/03 Q1001=
201212050345 METAR LIRA 050345Z 09001KT 9999 FEW080 05/03 Q1001=
201212050315 METAR LIRA 050315Z 13001KT 9999 FEW080 05/03 Q1001=
201212050245 METAR LIRA 050245Z 16002KT 9999 FEW080 05/03 Q1001=
201212050215 METAR LIRA 050215Z 22002KT 9999 SCT080 07/05 Q1001 RETS=
201212050145 METAR LIRA 050145Z 17003KT 8000 FEW015 FEW018CB SCT028 07/04
                        Q1001 RETS=
201212050115 METAR LIRA 050115Z 15003KT 8000 -TSRA FEW015 FEW018CB SCT028
                        07/05 Q1001=
201212050045 METAR LIRA 050045Z 19002KT 9999 FEW018 SCT080 07/05 Q1001=
201212050015 METAR LIRA 050015Z 10003KT 9999 FEW015 BKN080 07/05 Q1001=
201212042350 METAR LIRA 050045Z 19002KT 9999 FEW018 SCT080 07/05 Q1001=
201212042345 METAR LIRA 042345Z 10005KT 9999 -RA FEW015 SCT025 BKN080
                        07/05 Q1001=
201212042315 METAR LIRA 042315Z 08005KT 9999 -RA FEW015 SCT025 BKN080
                        08/05 Q1002=
201212042245 METAR LIRA 042245Z 35007KT 9999 -RA FEW015 SCT025 BKN080
                        08/06 Q1002=
201212042215 METAR LIRA 042215Z 32010KT 9999 -RA FEW015 SCT025 BKN080
                        09/05 Q1002=
201212042145 METAR LIRA 042145Z 18001KT 9999 -RA FEW015 SCT080 09/05 Q1001=
201212042115 METAR LIRA 042115Z 00000KT 9999 FEW015 SCT080 10/04 Q1001=
201212042045 METAR LIRA 042045Z 33007KT 9999 FEW015 SCT080 11/05 Q1001=
201212042015 METAR LIRA 042015Z 27006G16KT 220V360 8000 SCT015 SCT080
                        12/08 Q1001=
201212041945 METAR LIRA 041945Z 22005KT 8000 SCT015 SCT080 12/09 Q1001=
201212041915 METAR LIRA 041915Z 23005KT 8000 SCT015 SCT080 12/10 Q1001=
201212041845 METAR LIRA 041845Z 22005KT 8000 SCT015 SCT080 12/10 Q1002=
201212041815 METAR LIRA 041815Z 22004KT 8000 SCT012 SCT080 12/10 Q1002=
201212041745 METAR LIRA 041745Z 21006KT 170V250 8000 -RA SCT012 BKN080
                        12/10 Q1002=
201212041715 METAR LIRA 041715Z 19007KT 8000 -RA FEW004 SCT016 BKN080
                        12/10 Q1002=
201212041645 METAR LIRA 041645Z 23006KT 8000 -RA SCT016 13/10 Q1002=
201212041615 METAR LIRA 041615Z 23006KT 200V270 8000 SCT016 13/09 Q1003=
201212041545 METAR LIRA 041545Z 24007KT 7000 -RA SCT016 13/09 Q1003=
201212041515 METAR LIRA 041515Z 24009KT 6000 -RA SCT016 13/10 Q1003=
201212041445 METAR LIRA 041445Z 23009G21KT 220V260 6000 -RA SCT016 FEW017CB
                        13/09 Q1004=
201212041415 METAR LIRA 041415Z 24014G25KT 6000 -RA SCT016 FEW017CB 14/09
                        Q1004=
201212041345 METAR LIRA 041345Z 23008G19KT 190V260 6000 -RA SCT016 FEW017CB
                        SCT025 14/09 Q1005=
201212041315 METAR LIRA 041315Z 22013G24KT 180V260 7000 -RA SCT016 FEW017CB
                        SCT025 14/09 Q1005=
201212041245 METAR LIRA 041245Z 21009G19KT 160V250 8000 -RA SCT016 FEW017CB
                        SCT060 14/08 Q1006=
201212041215 METAR LIRA 041215Z 22010KT 170V260 9000 -RA SCT016 FEW017CB
                        SCT060 14/08 Q1006=
201212041145 METAR LIRA 041145Z 19012KT 150V220 9000 -RA SCT016 FEW017CB
                        SCT060 13/09 Q1007=
201212041115 METAR LIRA 041115Z 18011KT 9000 -RA SCT016 FEW017CB SCT070
                        12/09 Q1007=
201212041045 METAR LIRA 041045Z 17011KT 8000 -RA SCT016 FEW017CB SCT070
                        12/09 Q1008=
201212041015 METAR LIRA 041015Z 17011KT 8000 -RA SCT016 FEW018CB SCT030
                        11/09 Q1009=
201212040945 METAR LIRA 040945Z 16014KT 8000 -RA SCT016 FEW018CB SCT030
                        11/08 Q1009=
201212040915 METAR LIRA 040915Z 16015KT 9999 SCT017 FEW018CB SCT030 12/07
                        Q1010=
201212040845 METAR LIRA 040845Z 16013KT 9999 FEW020 SCT030 12/07 Q1010=
201212040815 METAR LIRA 040815Z 17010G20KT 9999 FEW020 SCT060 11/06 Q1010=
201212040745 METAR LIRA 040745Z 18012KT 140V210 9999 FEW025 SCT060 11/06
                        Q1010=
201212040715 METAR LIRA 040715Z 15015KT 9999 FEW025 SCT060 10/06 Q1010=
201212040645 METAR LIRA 040645Z 14005KT 9999 FEW020 SCT060 07/03 Q1011=
201212040615 METAR LIRA 040615Z 11002KT 9999 FEW020 SCT060 05/01 Q1011=
201212040545 METAR LIRA 040545Z 00000KT 9999 FEW070 05/M00 Q1012=
201212040515 METAR LIRA 040515Z 00000KT 9999 FEW070 05/01 Q1012=
201212040445 METAR LIRA 040445Z 30002KT 9999 SCT025 SCT070 05/01 Q1012=
201212040415 METAR LIRA 040415Z 36001KT 9999 SCT025 SCT070 05/00 Q1012=
201212040345 METAR LIRA 040345Z 03001KT 9999 SCT025 SCT070 04/00 Q1013=
201212040315 METAR LIRA 040315Z 35002KT 9999 SCT025 SCT070 04/00 Q1013=
201212040245 METAR LIRA 040245Z 02001KT 9999 SCT025 SCT070 04/M00 Q1014=
201212040215 METAR LIRA 040215Z 05001KT 9999 SCT025 SCT070 04/M01 Q1014=
201212040145 METAR LIRA 040145Z 36001KT 9999 SCT025 04/M01 Q1015=
201212040115 METAR LIRA 040115Z 13003KT 9999 SCT025 05/M02 Q1015=
201212040045 METAR LIRA 040045Z 07004KT 9999 SCT025 04/M02 Q1015=
201212040015 METAR LIRA 040015Z 10006KT CAVOK 04/M02 Q1015=
201212032350 METAR LIRA 040045Z 07004KT 9999 SCT025 04/M02 Q1015=
201212032345 METAR LIRA 032345Z 10004KT CAVOK 03/M03 Q1016=
201212032315 METAR LIRA 032315Z 10005KT CAVOK 02/M03 Q1016=
201212032245 METAR LIRA 032245Z 10006KT CAVOK 02/M04 Q1016=
201212032215 METAR LIRA 032215Z 10006KT CAVOK 02/M03 Q1017=
201212032145 METAR LIRA 032145Z 10003KT CAVOK 02/M03 Q1017=
201212032115 METAR LIRA 032115Z 09004KT CAVOK 02/M03 Q1017=
201212032045 METAR LIRA 032045Z 11005KT CAVOK 02/M03 Q1017=
201212032015 METAR LIRA 032015Z 14002KT CAVOK 02/M03 Q1017=
201212031945 METAR LIRA 031945Z 15001KT CAVOK 03/M03 Q1017=
201212031915 METAR LIRA 031915Z 12002KT CAVOK 03/M03 Q1016=
201212031845 METAR LIRA 031845Z 11003KT CAVOK 02/M03 Q1016=
201212031815 METAR LIRA 031815Z 10002KT CAVOK 03/M01 Q1016=
201212031745 METAR LIRA 031745Z 15002KT 9999 FEW010 04/M02 Q1016=
201212031715 METAR LIRA 031715Z 00000KT CAVOK 04/M03 Q1016=
201212031645 METAR LIRA 031645Z 02002KT CAVOK 05/M04 Q1016=
201212031615 METAR LIRA 031615Z 04001KT CAVOK 05/M06 Q1015=
201212031545 METAR LIRA 031545Z 35003KT CAVOK 07/M06 Q1015=
201212031515 METAR LIRA 031515Z 35006KT 330V030 CAVOK 08/M07 Q1015=
201212031445 METAR LIRA 031445Z 35009KT 330V050 CAVOK 08/M06 Q1015=
201212031415 METAR LIRA 031415Z 34010KT CAVOK 09/M05 Q1015=
201212031345 METAR LIRA 031345Z 34012KT 300V010 CAVOK 09/M05 Q1015=
201212031315 METAR LIRA 031315Z 34012KT CAVOK 09/M05 Q1015=
201212031245 METAR LIRA 031245Z 34013KT 300V020 CAVOK 09/M04 Q1015=
201212031215 METAR LIRA 031215Z 35013G25KT 300V020 9999 FEW018 09/M03
                        Q1014=
201212031145 METAR LIRA 031145Z 34014KT 9999 FEW018 08/M01 Q1014=
201212031115 METAR LIRA 031115Z 34015G26KT 9999 FEW018 08/M01 Q1014=
201212031045 METAR LIRA 031045Z 34017G27KT 310V020 9999 FEW018 08/M00
                        Q1014=
201212031015 METAR LIRA 031015Z 34015KT 9999 FEW018 07/M01 Q1014=
201212030945 METAR LIRA 030945Z 34017G27KT 9999 FEW018 07/00 Q1013=
201212030915 METAR LIRA 030915Z 33014KT 9999 FEW018 06/02 Q1013=
201212030845 METAR LIRA 030845Z 34017G27KT 310V010 9999 FEW018 06/01 Q1012=
201212030815 METAR LIRA 030815Z 33015KT 9999 FEW018 06/02 Q1012=
201212030745 METAR LIRA 030745Z 33010KT 9999 FEW018 05/02 Q1011=
201212030715 METAR LIRA 030715Z 33004KT 310V010 9999 FEW018 05/02 Q1010=
201212030645 METAR LIRA 030645Z 01005KT 330V030 9999 FEW018 SCT080 04/02
                        Q1009=
201212030615 METAR LIRA 030615Z 36009KT 330V040 9999 FEW018 SCT070 04/02
                        Q1009=
201212030545 METAR LIRA 030545Z 01007KT 340V050 9999 FEW018 SCT070 04/02
                        Q1009=
201212030515 METAR LIRA 030515Z 35006KT 320V050 9999 FEW080 04/02 Q1008=
201212030445 METAR LIRA 030445Z 35006KT 310V040 9999 FEW010 04/02 Q1008=
201212030415 METAR LIRA 030415Z 33007KT 9999 FEW018 04/03 Q1007=
201212030345 METAR LIRA 030345Z 33007KT 270V360 9999 FEW018 05/03 Q1007=
201212030315 METAR LIRA 030315Z 33006KT 9999 FEW018 05/03 Q1007=
201212030245 METAR LIRA 030245Z 36004KT 9999 FEW018 05/04 Q1006=
201212030215 METAR LIRA 030215Z 34009KT 9999 FEW018 05/04 Q1006=
201212030145 METAR LIRA 030145Z 04002KT 9999 FEW015 FEW020CB 05/04 Q1006=
201212030115 METAR LIRA 030115Z 30001KT 9999 SCT015 FEW020CB 05/04 Q1005
                        RETS=
201212030045 METAR LIRA 030045Z 30002KT 9999 SCT015 FEW020CB 06/05 Q1005
                        RETS=
201212030015 METAR LIRA 030015Z 07002KT 9999 -TSRA SCT015 FEW020CB SCT030
                        06/05 Q1005=
201212022350 METAR LIRA 030045Z 30002KT 9999 SCT015 FEW020CB 06/05 Q1005
                        RETS=
201212022345 METAR LIRA 022345Z 04001KT 9999 -TSRA SCT015 FEW020CB BKN030
                        06/05 Q1005=
201212022315 METAR LIRA 022315Z 04006KT 360V060 9999 -TSRA SCT013 FEW015CB
                        BKN025 06/05 Q1005=
201212022245 METAR LIRA 022245Z 04007KT 360V060 9999 -TSRA SCT013 FEW015CB
                        BKN025 06/05 Q1005=
201212022215 METAR LIRA 022215Z 36011G22KT 320V070 9999 -TSRA SCT013 FEW015CB
                        BKN025 06/05 Q1005=
201212022145 METAR LIRA 022145Z 34014KT 310V010 9999 -TSRA SCT013 FEW015CB
                        BKN025 07/06 Q1005=
201212022115 METAR COR LIRA 022115Z 36010G23KT 300V040 9999 SCT015 FEW017CB
                        BKN025 08/07 Q1005 RETS=
201212022045 METAR LIRA 022045Z 01002KT 9999 SCT015 FEW017CB SCT030 08/07
                        Q1005 RETS=
201212022015 METAR LIRA 022015Z 13006KT 9999 -TSRA SCT015 FEW017CB SCT025
                        08/07 Q1005=
201212021945 METAR LIRA 021945Z 12001KT 8000 -TSRA SCT015 FEW017CB BKN025
                        08/07 Q1006=
201212021915 METAR LIRA 021915Z 24011G21KT 200V270 6000 -TSRA SCT015 FEW017CB
                        BKN025 08/07 Q1006=
201212021845 METAR LIRA 021845Z 15003KT 9999 SCT025 09/07 Q1005=
201212021815 METAR LIRA 021815Z 13001KT 9999 FEW025 08/06 Q1005=
201212021745 METAR LIRA 021745Z 11002KT 9999 FEW017 FEW020TCU SCT025 09/06
                        Q1005=
201212021715 METAR LIRA 021715Z 10002KT 9999 FEW017 FEW020TCU SCT025 09/07
                        Q1006=
201212021645 METAR LIRA 021645Z 07006KT 9999 FEW017 FEW019TCU SCT020 09/07
                        Q1006=
201212021615 METAR LIRA 021615Z 16002KT 9999 FEW017 FEW019TCU SCT020 10/08
                        Q1006=
201212021545 METAR LIRA 021545Z 21001KT 9999 FEW017 SCT020 11/08 Q1006=
201212021515 METAR LIRA 021515Z 22003KT 9999 SCT019 FEW020TCU 12/08 Q1005=
201212021445 METAR LIRA 021445Z 21003KT 9999 SCT017 12/09 Q1005=
201212021415 METAR LIRA 021415Z 20005KT 9999 SCT017 FEW019TCU 12/08 Q1006=
201212021345 METAR LIRA 021345Z 23005KT 9999 SCT017 FEW019CB 13/08 Q1006=
201212021315 METAR LIRA 021315Z 24004KT 9999 FEW017 FEW019CB SCT025 13/07
                        Q1006=
201212021245 METAR LIRA 021245Z 20005KT 170V230 9999 SCT017 FEW019CB SCT025
                        13/08 Q1006=
201212021215 METAR LIRA 021215Z 19003KT 9999 SCT017 FEW019CB SCT025 13/07
                        Q1006=
201212021145 METAR LIRA 021145Z 23002KT 9999 SCT017 FEW019TCU SCT030 13/07
                        Q1007=
201212021115 METAR LIRA 021115Z 00000KT 9999 SCT017 SCT040 12/07 Q1007=
201212021045 METAR LIRA 021045Z 00000KT 9999 FEW020 SCT040 12/09 Q1007=
201212021015 METAR LIRA 021015Z 06002KT 9999 FEW020CB 11/09 Q1007=
201212020945 METAR LIRA 020945Z 10003KT 9999 FEW020CB SCT027 10/09 Q1007=
201212020915 METAR LIRA 020915Z 34002KT 9999 FEW018 FEW020CB SCT027 10/09
                        Q1007=
201212020845 METAR LIRA 020845Z 28001KT 9999 FEW018 FEW020CB SCT027 10/08
                        Q1007=
201212020815 METAR LIRA 020815Z 29002KT 9999 FEW018 FEW020CB BKN027 09/08
                        Q1007=
201212020745 METAR LIRA 020745Z 28003KT 9999 FEW018 FEW020CB BKN027 10/08
                        Q1007=
201212020715 METAR LIRA 020715Z 12003KT 9999 FEW018 FEW020CB SCT030 09/07
                        Q1007=
201212020645 METAR LIRA 020645Z 12002KT 9999 VCTS FEW018 FEW020CB SCT030
                        08/07 Q1007=
201212020615 METAR LIRA 020615Z 12001KT 9999 FEW018 SCT030 09/07 Q1007=
201212020545 METAR LIRA 020545Z 05002KT 9999 FEW018 SCT030 09/08 Q1007=
201212020515 METAR LIRA 020515Z 13005KT 9999 -RA FEW017 BKN025 09/08 Q1007=
201212020445 METAR LIRA 020445Z 00000KT 9999 -RA FEW017 BKN020 09/08 Q1007
                        RETS=
201212020415 METAR LIRA 020415Z 08003KT 8000 -RA FEW014CB BKN018 09/08
                        Q1007 RETS=
201212020345 METAR LIRA 020345Z 14005KT 8000 -TSRA FEW014CB BKN018 09/08
                        Q1008=
201212020315 METAR LIRA 020315Z 12005KT 8000 -TSRA FEW014CB SCT018 09/08
                        Q1008=
201212020245 METAR LIRA 020245Z 05003KT 8000 -TSRA FEW014CB SCT020 09/08
                        Q1008=
201212020215 METAR LIRA 020215Z 01002KT 9999 -TSRA FEW014CB SCT020 09/08
                        Q1008=
201212020145 METAR LIRA 020145Z 32005KT 9999 -TSRA FEW014CB SCT020 09/08
                        Q1008=
201212020115 METAR LIRA 020115Z 28004KT 9999 -TSRA FEW014CB SCT020 09/08
                        Q1008=
201212020045 METAR LIRA 020045Z 07004KT 9999 -TSRA FEW015CB SCT025 09/08
                        Q1008=
201212020015 METAR LIRA 020015Z 11006KT 8000 -TSRA FEW014 FEW015CB BKN025
                        09/08 Q1008=
201212012350 METAR LIRA 020045Z 07004KT 9999 -TSRA FEW015CB SCT025 09/08
                        Q1008=
201212012345 METAR LIRA 012345Z 15007KT 8000 -TSRA FEW014 SCT015CB BKN025
                        10/09 Q1009=
201212012315 METAR LIRA 012315Z 17008KT 150V220 8000 -TSRA FEW014 SCT015CB
                        BKN025 10/09 Q1009=
201212012245 METAR LIRA 012245Z 33005KT 9999 -TSRA FEW014 SCT015CB 09/08
                        Q1008=
201212012215 METAR LIRA 012215Z 34002KT 9999 -TSRA FEW014 FEW015CB SCT025
                        09/08 Q1008=
201212012145 METAR LIRA 012145Z 32005KT 9999 FEW014 SCT025 09/08 Q1008=
201212012115 METAR LIRA 012115Z 29002KT 9999 FEW014 09/07 Q1008=
201212012045 METAR LIRA 012045Z 00000KT 9999 FEW014 09/07 Q1008=
201212012015 METAR LIRA 012015Z 07003KT 9999 -RA FEW014 FEW015CB SCT025
                        10/08 Q1008=
201212011945 METAR LIRA 011945Z 14003KT 9999 -RA FEW014 FEW015CB SCT025
                        11/08 Q1008=
201212011915 METAR LIRA 011915Z 00000KT 9999 -RA FEW014 FEW015CB SCT025
                        09/07 Q1008=
201212011845 METAR LIRA 011845Z 03002KT 9999 FEW014 FEW015CB SCT025 09/06
                        Q1008=
201212011815 METAR LIRA 011815Z 11003KT 9999 FEW014 FEW015CB SCT025 09/07
                        Q1008=
201212011745 METAR LIRA 011745Z 09004KT 9999 FEW014 FEW015CB SCT025 09/07
                        Q1008=
201212011715 METAR LIRA 011715Z 11009KT 9999 FEW020 FEW025TCU SCT030 10/07
                        Q1008=
201212011645 METAR LIRA 011645Z 11008KT 9999 FEW020 FEW025TCU SCT030 09/07
                        Q1008=
201212011615 METAR LIRA 011615Z 11007KT 9999 FEW020 FEW025TCU SCT030 09/07
                        Q1008=
201212011545 METAR LIRA 011545Z 11007KT 9999 FEW020 SCT030 10/07 Q1007=
201212011515 METAR LIRA 011515Z 12008KT 9999 FEW020 SCT030 11/07 Q1007=
201212011445 METAR LIRA 011445Z 09004KT 9999 FEW020 SCT030 12/07 Q1007=
201212011415 METAR LIRA 011415Z 08001KT 9999 FEW020 SCT030 12/07 Q1007=
201212011345 METAR LIRA 011345Z 32003KT 9999 FEW020 SCT030 11/07 Q1007=
201212011315 METAR LIRA 011315Z 09006KT 060V140 9999 FEW020 SCT025 11/06
                        Q1007=
201212011245 METAR LIRA 011245Z 12008KT 9999 FEW020 SCT030 11/07 Q1007=
201212011215 METAR LIRA 011215Z 11011KT 9999 -RA FEW015 FEW020TCU SCT030
                        10/08 Q1007=
201212011145 METAR LIRA 011145Z 11013KT 8000 -RA FEW013 FEW017CB SCT025
                        09/08 Q1007 RERA=
201212011115 METAR LIRA 011115Z 09006KT 070V140 8000 -RA FEW013 FEW017CB
                        SCT025 08/07 Q1007 RERA=
201212011045 METAR LIRA 011045Z 04007KT 010V080 4000 RA BR FEW013 FEW017CB
                        SCT025 08/07 Q1008=
201212011015 METAR LIRA 011015Z 30008KT 4000 RA BR FEW013 FEW017CB SCT025
                        08/07 Q1007=
201212010945 METAR LIRA 010945Z 10002KT 9999 -RA FEW020 FEW025CB SCT030
                        11/07 Q1007=
201212010915 METAR LIRA 010915Z 07002KT 9999 FEW020 FEW025CB SCT030 10/07
                        Q1007=
201212010845 METAR LIRA 010845Z 32002KT 9999 FEW020 FEW025CB SCT030 10/06
                        Q1006=
201212010815 METAR LIRA 010815Z 07002KT 9999 FEW020 SCT030 10/06 Q1006=
201212010745 METAR LIRA 010745Z 07005KT 9999 FEW020 SCT030 09/06 Q1006=
201212010715 METAR LIRA 010715Z 09008KT 9999 FEW020 SCT030 09/06 Q1005=
201212010645 METAR LIRA 010645Z 09008KT 040V110 9999 FEW020 SCT030 08/06
                        Q1005=
201212010615 METAR LIRA 010615Z 07004KT 9999 FEW020 FEW025TCU SCT030 08/07
                        Q1005=
201212010545 METAR LIRA 010545Z 07005KT 030V100 9999 -RA FEW020 FEW025CB
                        SCT030 08/07 Q1005=
201212010515 METAR LIRA 010515Z 06004KT 9999 -RA FEW020 FEW025CB SCT030
                        07/07 Q1005=
201212010445 METAR LIRA 010445Z 06005KT 9000 -RA FEW020 FEW025CB SCT030
                        07/07 Q1005=
201212010415 METAR LIRA 010415Z 06008KT 9000 -RA FEW020 FEW025CB SCT030
                        08/07 Q1006=
201212010345 METAR LIRA 010345Z 07008KT 8000 -RA SCT020 FEW025CB SCT030
                        08/07 Q1006=
201212010315 METAR LIRA 010315Z 06007KT 020V090 8000 -RA SCT020 SCT025
                        07/07 Q1006 RETS=
201212010245 METAR LIRA 010245Z 04008KT 350V080 8000 -RA FEW018CB SCT025
                        08/06 Q1006 RETS=
201212010215 METAR LIRA 010215Z 07010KT 7000 -TSRA FEW018CB SCT025 08/06
                        Q1006=
201212010145 METAR LIRA 010145Z 01006KT 340V040 9999 -TSRA FEW020CB SCT025
                        08/06 Q1006=
201212010115 METAR LIRA 010115Z 32010G21KT 9999 TS FEW025 FEW030CB SCT060
                        09/04 Q1005=
201212010045 METAR LIRA 010045Z 13008KT 9999 TS FEW025 FEW030CB SCT060
                        09/05 Q1004=
201212010015 METAR LIRA 010015Z 14007KT 9999 TS FEW025 FEW030CB SCT060
                        09/04 Q1004=

</pre>

</body>
</html>
