##########################################################
# Query made at 11/10/2014 14:40:17 UTC
# Time interval: from 12/01/2008 00:00  to 12/31/2008 23:59  UTC
##########################################################

##########################################################
# LIRA, Roma / Ciampino (Italy)
# WMO index: 16239
# Latitude 41-47N. Longitude 012-35E. Altitude 129 m.
##########################################################

###################################
#  METAR/SPECI from LIRA
###################################
200812312350 METAR LIRA 010045Z 00000KT 5000 BR SCT030 SCT060 06/04 Q1026=
200812312345 METAR LIRA 312345Z 00000KT 6000 FEW030 SCT060 06/04 Q1027=
200812312315 METAR LIRA 312315Z 26002KT 7000 SCT030 SCT060 06/04 Q1027=
200812312245 METAR LIRA 312245Z 31001KT 8000 FEW040 SCT060 06/04 Q1028=
200812312215 METAR LIRA 312215Z 28002KT 8000 SCT040 SCT060 07/04 Q1028=
200812312145 METAR LIRA 312145Z 34002KT 8000 FEW035 SCT060 07/04 Q1028=
200812312115 METAR LIRA 312115Z 32003KT 8000 FEW040 SCT060 07/04 Q1028=
200812312045 METAR LIRA 312045Z 00000KT 8000 SCT035 SCT060 07/04 Q1029=
200812312015 METAR LIRA 312015Z 26004KT 8000 SCT035 SCT060 07/04 Q1029=
200812311945 METAR LIRA 311945Z 26003KT 8000 SCT035 SCT060 07/04 Q1029=
200812311915 METAR LIRA 311915Z 16001KT 8000 SCT040 SCT060 06/03 Q1029=
200812311845 METAR LIRA 311845Z 10003KT 8000 FEW040 SCT060 06/02 Q1029=
200812311815 METAR LIRA 311815Z 13002KT 8000 SCT060 06/02 Q1029=
200812311745 METAR LIRA 311745Z 11002KT 8000 FEW070 07/03 Q1029=
200812311715 METAR LIRA 311715Z 13001KT 8000 NSC 07/03 Q1029=
200812311645 METAR LIRA 311645Z 18002KT 8000 NSC 08/03 Q1029=
200812311615 METAR LIRA 311615Z 00000KT 8000 NSC 08/03 Q1029=
200812311545 METAR LIRA 311545Z 19001KT CAVOK 10/03 Q1029=
200812311515 METAR LIRA 311515Z 00000KT CAVOK 10/03 Q1029=
200812311445 METAR LIRA 311445Z 31002KT CAVOK 11/03 Q1029=
200812311415 METAR LIRA 311415Z 33003KT CAVOK 11/03 Q1029=
200812311345 METAR LIRA 311345Z 34005KT 300V010 CAVOK 11/03 Q1030=
200812311315 METAR LIRA 311315Z 34004KT CAVOK 11/02 Q1030=
200812311245 METAR LIRA 311245Z 36004KT 9999 FEW030 10/03 Q1030=
200812311215 METAR LIRA 311215Z 02005KT 350V080 9999 FEW030 10/02 Q1030=
200812311145 METAR LIRA 311145Z 01004KT 9999 FEW030 10/02 Q1030=
200812311115 METAR LIRA 311115Z 35003KT 9999 SCT030 09/02 Q1031=
200812311045 METAR LIRA 311045Z 34003KT 9999 SCT030 08/02 Q1031=
200812311015 METAR LIRA 311015Z 04003KT 9999 FEW030 07/02 Q1031=
200812311000 METAR LIRA INT, CB NW-NE=
200812310945 METAR LIRA 310945Z 04003KT 9999 BKN030 05/02 Q1032=
200812310915 METAR LIRA 310915Z 05003KT 9999 BKN030 05/01 Q1032=
200812310845 METAR LIRA 310845Z 36004KT 9999 SCT030 03/01 Q1032=
200812310815 METAR LIRA 310815Z 03003KT 9999 FEW030 02/M00 Q1031=
200812310745 METAR LIRA 310745Z 33003KT 9999 FEW030 02/00 Q1031=
200812310715 METAR LIRA 310715Z 04002KT 9999 FEW070 02/00 Q1031=
200812310645 METAR LIRA 310645Z 35003KT 9999 FEW070 02/00 Q1031=
200812310615 METAR LIRA 310615Z 04001KT 9999 FEW070 02/00 Q1031=
200812310545 METAR LIRA 310545Z 01002KT 9999 FEW020 SCT070 02/M01 Q1031=
200812310515 METAR LIRA 310515Z 00000KT 9999 FEW030 SCT070 02/M01 Q1031=
200812310445 METAR LIRA 310445Z 35003KT 9999 FEW030 SCT070 03/02 Q1032=
200812310415 METAR LIRA 310415Z 00000KT 9999 FEW030 SCT070 03/02 Q1032=
200812310345 METAR LIRA 310345Z 05002KT 9999 FEW030 SCT070 03/02 Q1032=
200812310315 METAR LIRA 310315Z 01002KT 9999 FEW030 SCT070 03/02 Q1032=
200812310245 METAR LIRA 310245Z 05003KT 9999 FEW030 BKN070 03/02 Q1032=
200812310215 METAR LIRA 310215Z 08004KT 9999 FEW030 BKN070 03/02 Q1032=
200812310145 METAR LIRA 310145Z 01002KT 9999 BKN070 03/02 Q1032=
200812310115 METAR LIRA 310115Z 36003KT 9999 BKN070 03/02 Q1032=
200812310045 METAR LIRA 310045Z 01002KT 9999 BKN070 03/03 Q1032=
200812310015 METAR LIRA 310015Z 00000KT 9999 BKN070 03/02 Q1032=
200812302345 METAR LIRA 302345Z 00000KT 9999 BKN070 03/02 Q1032=
200812302315 METAR LIRA 302315Z 01002KT 9999 BKN070 03/02 Q1032=
200812302245 METAR LIRA 302245Z 34002KT 9999 FEW070 03/02 Q1032=
200812302215 METAR LIRA 302215Z 34003KT 9999 FEW070 04/02 Q1032=
200812302145 METAR LIRA 302145Z 36002KT CAVOK 04/03 Q1032=
200812302115 METAR LIRA 302115Z 30001KT CAVOK 05/03 Q1032=
200812302045 METAR LIRA 302045Z 01001KT CAVOK 05/03 Q1031=
200812302015 METAR LIRA 302015Z 09002KT CAVOK 05/03 Q1031=
200812301945 METAR LIRA 301945Z 00000KT CAVOK 06/04 Q1031=
200812301915 METAR LIRA 301915Z 06002KT CAVOK 06/04 Q1031=
200812301845 METAR LIRA 301845Z 05004KT CAVOK 06/03 Q1031=
200812301815 METAR LIRA 301815Z 07003KT 9999 FEW070 06/03 Q1031=
200812301745 METAR LIRA 301745Z 06005KT 9999 FEW070 07/04 Q1031=
200812301715 METAR LIRA 301715Z 07003KT 9999 FEW070 08/02 Q1031=
200812301645 METAR LIRA 301645Z 07002KT 9999 FEW070 08/02 Q1030=
200812301615 METAR LIRA 301615Z 04002KT 9999 FEW070 09/03 Q1030=
200812301545 METAR LIRA 301545Z 36003KT 9999 FEW020 09/03 Q1030=
200812301515 METAR LIRA 301515Z 01003KT CAVOK 10/03 Q1030=
200812301445 METAR LIRA 301445Z 34003KT 9999 FEW020 11/03 Q1030=
200812301415 METAR LIRA 301415Z 36003KT 9999 FEW020 11/04 Q1030=
200812301345 METAR LIRA 301345Z 36004KT 9999 FEW020 11/04 Q1030=
200812301315 METAR LIRA 301315Z 36004KT 9999 FEW020 11/04 Q1030=
200812301245 METAR LIRA 301245Z 36005KT 9999 FEW020 11/04 Q1030=
200812301215 METAR LIRA 301215Z 36004KT 9999 FEW020 11/04 Q1030=
200812301145 METAR LIRA 301145Z 03003KT 9999 FEW020 10/04 Q1030=
200812301115 METAR LIRA 301115Z 01005KT 9999 FEW020 09/03 Q1030=
200812301045 METAR LIRA 301045Z 02006KT 320V090 CAVOK 08/03 Q1030=
200812301015 METAR LIRA 301015Z 03005KT 330V060 CAVOK 06/02 Q1030=
200812300945 METAR LIRA 300945Z 03006KT 280V090 CAVOK 06/02 Q1030=
200812300915 METAR LIRA 300915Z 04005KT 320V080 CAVOK 05/02 Q1030=
200812300845 METAR LIRA 300845Z 03005KT CAVOK 04/02 Q1030=
200812300815 METAR LIRA 300815Z 04004KT 350V004 CAVOK 03/01 Q1030=
200812300745 METAR LIRA 300745Z 03004KT 340V070 CAVOK 02/01 Q1030=
200812300715 METAR LIRA 300715Z 04003KT CAVOK 02/01 Q1029=
200812300645 METAR LIRA 300645Z 05004KT CAVOK 02/01 Q1029=
200812300615 METAR LIRA 300615Z 04004KT CAVOK 02/01 Q1029=
200812300545 METAR LIRA 300545Z 05004KT CAVOK 02/01 Q1028=
200812300515 METAR LIRA 300515Z 06004KT CAVOK 02/01 Q1028=
200812300445 METAR LIRA 300445Z 04004KT CAVOK 02/01 Q1028=
200812300415 METAR LIRA 300415Z 06004KT CAVOK 02/01 Q1028=
200812300345 METAR LIRA 300345Z 06004KT CAVOK 02/01 Q1028=
200812300315 METAR LIRA 300315Z 03004KT CAVOK 02/01 Q1028=
200812300245 METAR LIRA 300245Z 04004KT CAVOK 03/02 Q1028=
200812300215 METAR LIRA 300215Z 04004KT CAVOK 03/02 Q1028=
200812300145 METAR LIRA 300145Z 05004KT CAVOK 03/02 Q1028=
200812300115 METAR LIRA 300115Z 06007KT CAVOK 04/02 Q1027=
200812300045 METAR LIRA 300045Z 05004KT CAVOK 04/02 Q1027=
200812300015 METAR LIRA 300015Z 04005KT 010V080 CAVOK 04/02 Q1027=
200812292345 METAR LIRA 292345Z 03005KT 360V070 CAVOK 05/03 Q1027=
200812292315 METAR LIRA 292315Z 05005KT 360V090 CAVOK 05/03 Q1027=
200812292245 METAR LIRA 292245Z 03005KT 360V080 CAVOK 06/02 Q1027=
200812292215 METAR LIRA 292215Z 04004KT 350V100 CAVOK 06/02 Q1027=
200812292145 METAR LIRA 292145Z 01007KT 330V060 CAVOK 07/02 Q1026=
200812292115 METAR LIRA 292115Z 03005KT 350V080 CAVOK 07/02 Q1026=
200812292045 METAR LIRA 292045Z 04007KT 010V080 CAVOK 07/02 Q1026=
200812292015 METAR LIRA 292015Z 04005KT 360V080 CAVOK 07/02 Q1026=
200812291945 METAR LIRA 291945Z 07006KT 030V100 CAVOK 08/03 Q1026=
200812291915 METAR LIRA 291915Z 05006KT 040V130 CAVOK 08/03 Q1025=
200812291845 METAR LIRA 291845Z 06004KT 9999 FEW070 09/03 Q1025=
200812291815 METAR LIRA 291815Z 07008KT 9999 FEW070 09/03 Q1025=
200812291745 METAR LIRA 291745Z 07010KT 9999 FEW070 10/04 Q1024=
200812291715 METAR LIRA 291715Z 06008KT 9999 FEW030 10/04 Q1024=
200812291645 METAR LIRA 291645Z 06006KT 9999 FEW030 10/04 Q1024=
200812291615 METAR LIRA 291615Z 05004KT 9999 FEW030 SCT070 10/04 Q1023=
200812291545 METAR LIRA 291545Z 04004KT 9999 FEW030 SCT070 11/05 Q1023=
200812291515 METAR LIRA 291515Z 08005KT 9999 FEW030 SCT070 12/04 Q1023=
200812291445 METAR LIRA 291445Z 07006KT 030V100 9999 FEW030 BKN070 12/04
                        Q1023=
200812291415 METAR LIRA 291415Z 05007KT 360V110 9999 SCT030 BKN070 12/05
                        Q1023=
200812291345 METAR LIRA 291345Z 07009KT 9999 SCT030 BKN070 12/05 Q1023=
200812291315 METAR LIRA 291315Z 04007KT 360V100 9999 SCT030 BKN070 12/04
                        Q1023=
200812291245 METAR LIRA 291245Z 06009KT 010V100 9999 SCT030 BKN070 12/04
                        Q1023=
200812291215 METAR LIRA 291215Z 06008KT 020V110 9999 SCT030 BKN070 12/04
                        Q1023=
200812291145 METAR LIRA 291145Z 05005KT 360V100 9999 FEW030 BKN070 12/04
                        Q1023=
200812291115 METAR LIRA 291115Z 07004KT 030V110 9999 FEW030 BKN070 11/03
                        Q1023=
200812291045 METAR LIRA 291045Z 06004KT 9999 FEW030 BKN070 11/03 Q1022=
200812291015 METAR LIRA 291015Z 05005KT 010V100 9999 FEW030 BKN070 11/04
                        Q1023=
200812290945 METAR LIRA 290945Z 02007KT 350V090 9999 FEW030 BKN070 10/02
                        Q1022=
200812290915 METAR LIRA 290915Z 05006KT 350V100 9999 FEW030 BKN070 10/02
                        Q1022=
200812290845 METAR LIRA 290845Z 01002KT 320V090 9999 FEW030 SCT070 10/02
                        Q1022=
200812290815 METAR LIRA 290815Z 03003KT 9999 FEW020 SCT070 09/03 Q1022=
200812290745 METAR LIRA 290745Z 05007KT 010V100 9999 FEW020 SCT070 07/03
                        Q1021=
200812290715 METAR LIRA 290715Z 04006KT 360V090 9999 FEW020 SCT070 07/02
                        Q1021=
200812290645 METAR LIRA 290645Z 03007KT 350V090 9999 FEW020 SCT030 08/02
                        Q1021=
200812290615 METAR LIRA 290615Z 04006KT 360V100 9999 FEW020 SCT030 08/03
                        Q1021=
200812290545 METAR LIRA 290545Z 05008KT 350V090 9999 FEW020 SCT030 08/02
                        Q1021=
200812290515 METAR LIRA 290515Z 02004KT 9999 FEW020 SCT030 07/02 Q1021=
200812290445 METAR LIRA 290445Z 05008KT 360V100 9999 FEW020 SCT030 07/02
                        Q1020=
200812290415 METAR LIRA 290415Z 04006KT 350V080 9999 FEW020 SCT030 07/02
                        Q1020=
200812290345 METAR LIRA 290345Z 04008KT 010V090 9999 SCT030 SCT060 07/02
                        Q1020=
200812290315 METAR LIRA 290315Z 06009KT 030V090 9999 SCT030 SCT060 07/03
                        Q1020=
200812290245 METAR LIRA 290245Z 05009KT 030V090 9999 SCT030 SCT060 07/02
                        Q1020=
200812290215 METAR LIRA 290215Z 05009KT 360V100 9999 SCT030 SCT060 07/02
                        Q1020=
200812290145 METAR LIRA 290145Z 03006KT 360V070 9999 SCT030 SCT060 07/02
                        Q1020=
200812290115 METAR LIRA 290115Z 05008KT 010V080 9999 FEW020 SCT030 07/02
                        Q1020=
200812290045 METAR LIRA 290045Z 05010KT 340V080 9999 FEW020 SCT030 07/03
                        Q1020=
200812290015 METAR LIRA 290015Z 03009KT 310V100 9999 FEW020 SCT030 06/03
                        Q1020=
200812282350 METAR LIRA 290045Z 05010KT 340V080 9999 FEW020 SCT030 07/03
                        Q1020=
200812282345 METAR LIRA 282345Z 05007KT 350V090 9999 FEW020 SCT030 06/03
                        Q1020=
200812282315 METAR LIRA 282315Z 02005KT 320V060 9999 FEW020 SCT030 07/03
                        Q1020=
200812282245 METAR LIRA 282245Z 02005KT 340V090 9999 FEW018TCU SCT030
                        07/03 Q1020=
200812282215 METAR LIRA 282215Z 03004KT 340V060 9999 FEW018TCU SCT030
                        07/03 Q1020=
200812282145 METAR LIRA 282145Z 04005KT 360V080 9999 FEW020 SCT030 06/03
                        Q1020=
200812282115 METAR LIRA 282115Z 04006KT 350V100 9999 FEW020 SCT030 06/03
                        Q1020=
200812282045 METAR LIRA 282045Z 02006KT 330V090 9999 FEW020 BKN025 05/03
                        Q1019=
200812282015 METAR LIRA 282015Z 01007KT 330V060 9999 FEW020 BKN025 06/03
                        Q1020=
200812281945 METAR LIRA 281945Z 03007KT 320V090 9999 FEW020 BKN025 06/03
                        Q1019=
200812281915 METAR LIRA 281915Z 02009KT 330V070 9999 FEW020 SCT025 06/03
                        Q1019=
200812281845 METAR LIRA 281845Z 03007KT 350V090 9999 FEW020 SCT025 07/03
                        Q1019=
200812281815 METAR LIRA 281815Z 36006KT 320V060 9999 FEW020 SCT025 07/03
                        Q1019=
200812281745 METAR LIRA 281745Z 06005KT 030V110 9999 SCT025 SCT070 05/03
                        Q1019=
200812281715 METAR LIRA 281715Z 08010G20KT 030V120 9999 SCT025 SCT070
                        05/03 Q1018=
200812281645 METAR LIRA 281645Z 36002KT 9999 SCT025 SCT070 05/03 Q1018=
200812281615 METAR LIRA 281615Z 04005KT 350V110 9999 SCT025 SCT070 05/03
                        Q1018=
200812281545 METAR LIRA 281545Z 02004KT 340V070 9999 SCT025 SCT070 05/03
                        Q1018=
200812281515 METAR LIRA 281515Z 03005KT 340V090 9999 SCT025 SCT070 05/03
                        Q1018=
200812281445 METAR LIRA 281445Z 04007KT 010V080 9999 SCT025 SCT070 04/03
                        Q1018=
200812281415 METAR LIRA 281415Z 04006KT 350V090 9999 FEW001 SCT025 05/03
                        Q1018=
200812281345 METAR LIRA 281345Z 05010KT 360V090 7000 FEW001 SCT025 04/03
                        Q1018=
200812281315 METAR LIRA 281315Z 03008KT 350V080 7000 FEW012 SCT025 04/03
                        Q1018=
200812281245 METAR LIRA 281245Z 02009KT 340V080 7000 FEW012 SCT025 04/03
                        Q1018=
200812281215 METAR LIRA 281215Z 03007KT 340V080 7000 SCT012 SCT025 04/03
                        Q1018=
200812281145 METAR LIRA 281145Z 04010KT 310V090 7000 SCT012 SCT025 04/03
                        Q1019=
200812281115 METAR LIRA 281115Z 04009KT 350V090 6000 FEW002 SCT012 03/03
                        Q1019=
200812281045 METAR LIRA 281045Z 05011KT 010V090 6000 -RA FEW002 SCT025
                        03/03 Q1019=
200812281015 METAR LIRA 281015Z 03008KT 320V070 5000 -RA BR FEW001 SCT015
                        BKN025 03/03 Q1019 RERA=
200812280945 METAR LIRA 280945Z 03006KT 330V090 5000 -RA BR FEW001 SCT015
                        BKN025 03/03 Q1019 RERA=
200812280915 METAR LIRA 280915Z 04008KT 010V080 6000 RA BR SCT015 BKN025
                        03/02 Q1019=
200812280845 METAR LIRA 280845Z 04007KT 360V090 5000 RA BR SCT015 BKN025
                        03/02 Q1019=
200812280815 METAR LIRA 280815Z 04006KT 350V090 5000 -RA BR SCT015 BKN025
                        03/02 Q1019=
200812280745 METAR LIRA 280745Z 05007KT 010V090 6000 -RA SCT015 BKN025
                        03/02 Q1019=
200812280715 METAR LIRA 280715Z 03007KT 340V090 6000 -RA SCT015 BKN025
                        03/02 Q1018=
200812280645 METAR LIRA 280645Z 02003KT 340V080 8000 -RA SCT015 BKN025
                        03/02 Q1018=
200812280615 METAR LIRA 280615Z 03006KT 340V070 9999 -RA SCT020 BKN030
                        03/02 Q1018=
200812280545 METAR LIRA 280545Z 02006KT 350V060 9999 -RA SCT020 BKN030
                        03/02 Q1018=
200812280515 METAR LIRA 280515Z 04005KT 350V080 9999 -RA SCT020 BKN030
                        03/02 Q1018=
200812280445 METAR LIRA 280445Z 04008KT 360V100 9999 -RA SCT020 BKN030
                        04/02 Q1018=
200812280415 METAR LIRA 280415Z 02005KT 310V070 9999 -RA SCT020 BKN035
                        04/02 Q1018=
200812280345 METAR LIRA 280345Z 04006KT 350V100 9999 -RA SCT018 BKN030
                        04/02 Q1018=
200812280315 METAR LIRA 280315Z 07011KT 030V110 9999 -RA FEW020 BKN030
                        04/03 Q1018=
200812280245 METAR LIRA 280245Z 05006KT 360V080 9999 -DZ FEW020 BKN035
                        04/03 Q1018=
200812280215 METAR LIRA 280215Z 05006KT 350V090 8000 -RA FEW018 BKN030
                        04/04 Q1019=
200812280145 METAR LIRA 280145Z 01003KT 8000 -RA FEW018 BKN030 04/03 Q1019=
200812280115 METAR LIRA 280115Z 01002KT 8000 -RA FEW020 BKN030 04/03 Q1019=
200812280045 METAR LIRA 280045Z 34004KT 8000 -RA FEW020 BKN030 04/03 Q1019=
200812280015 METAR LIRA 280015Z 00000KT 8000 -RA FEW020 BKN030 04/03 Q1019=
200812272345 METAR LIRA 272345Z 08004KT 8000 -RA FEW018 BKN030 05/03 Q1019=
200812272315 METAR LIRA 272315Z 05001KT 8000 -RA FEW018 BKN030 05/02 Q1019=
200812272245 METAR LIRA 272245Z 36002KT 8000 -RA FEW018 BKN030 05/02 Q1019=
200812272215 METAR LIRA 272215Z 03004KT 9999 -RA BKN030 SCT060 05/01 Q1019=
200812272145 METAR LIRA 272145Z 01004KT 320V070 9999 -RA BKN030 SCT060
                        05/01 Q1019=
200812272115 METAR LIRA 272115Z 36007KT 320V030 9999 -DZ SCT030 SCT060
                        05/M00 Q1019=
200812272045 METAR LIRA 272045Z 01009KT 310V030 9999 SCT025 SCT060 06/M00
                        Q1019=
200812272015 METAR LIRA 272015Z 01008KT 330V040 9999 SCT030 SCT060 06/M00
                        Q1019=
200812271945 METAR LIRA 271945Z 02005KT 330V080 9999 SCT025 SCT060 06/M00
                        Q1019=
200812271915 METAR LIRA 271915Z 01005KT 320V060 9999 SCT025 SCT060 06/M00
                        Q1019=
200812271845 METAR LIRA 271845Z 01006KT 330V040 9999 FEW020 SCT030 06/M00
                        Q1019=
200812271815 METAR LIRA 271815Z 01006KT 320V050 9999 SCT030 SCT070 06/M00
                        Q1019=
200812271745 METAR LIRA 271745Z 02007KT 330V060 9999 SCT030 SCT060 06/M00
                        Q1019=
200812271715 METAR LIRA 271715Z 03006KT 330V090 9999 SCT035 SCT060 06/M01
                        Q1019=
200812271645 METAR LIRA 271645Z 02005KT 340V070 9999 BKN070 SCT200 07/M00
                        Q1019=
200812271615 METAR LIRA 271615Z 02007KT 330V060 9999 BKN070 SCT200 07/M00
                        Q1019=
200812271545 METAR LIRA 271545Z 01005KT 330V070 9999 BKN070 SCT200 08/00
                        Q1019=
200812271515 METAR LIRA 271515Z 36006KT 330V060 9999 BKN070 SCT200 08/M00
                        Q1019=
200812271445 METAR LIRA 271445Z 01004KT 9999 BKN070 SCT200 08/M00 Q1019=
200812271415 METAR LIRA 271415Z 01004KT 9999 BKN070 SCT200 08/M00 Q1019=
200812271345 METAR LIRA 271345Z 36005KT 320V030 9999 BKN070 SCT200 09/00
                        Q1019=
200812271315 METAR LIRA 271315Z 01007KT 320V060 9999 SCT080 BKN200 09/01
                        Q1019=
200812271245 METAR LIRA 271245Z 36007KT 290V060 9999 SCT080 BKN200 09/01
                        Q1020=
200812271215 METAR LIRA 271215Z 02007KT 340V090 9999 SCT080 BKN200 08/00
                        Q1020=
200812271145 METAR LIRA 271145Z 01006KT 270V070 9999 SCT080 SCT200 08/01
                        Q1020=
200812271115 METAR LIRA 271115Z 36006KT 310V100 9999 SCT080 SCT200 08/01
                        Q1020=
200812271045 METAR LIRA 271045Z 02006KT 9999 FEW070 SCT200 07/01 Q1021=
200812271015 METAR LIRA 271015Z 02006KT 310V080 9999 FEW070 SCT200 06/01
                        Q1021=
200812270945 METAR LIRA 270945Z 02008KT 330V070 9999 FEW070 SCT200 05/M01
                        Q1021=
200812270915 METAR LIRA 270915Z 01007KT 310V060 9999 FEW070 SCT200 05/M00
                        Q1021=
200812270845 METAR LIRA 270845Z 36008KT 310V050 9999 SCT070 SCT200 05/00
                        Q1021=
200812270815 METAR LIRA 270815Z 01008KT 310V050 9999 SCT070 SCT200 05/00
                        Q1020=
200812270745 METAR LIRA 270745Z 02004KT 320V050 9999 SCT070 SCT200 04/M00
                        Q1020=
200812270715 METAR LIRA 270715Z 01008KT 330V040 9999 SCT070 SCT200 03/M01
                        Q1020=
200812270645 METAR LIRA 270645Z 35007KT 320V040 9999 FEW080 SCT200 04/M01
                        Q1020=
200812270615 METAR LIRA 270615Z 36005KT 9999 FEW080 SCT200 04/M01 Q1020=
200812270545 METAR LIRA 270545Z 01006KT 330V050 9999 SCT070 05/M01 Q1020=
200812270515 METAR LIRA 270515Z 01007KT 330V050 9999 SCT070 05/M01 Q1020=
200812270445 METAR LIRA 270445Z 03007KT 340V060 9999 FEW070 05/M02 Q1020=
200812270415 METAR LIRA 270415Z 01008KT 330V040 9999 FEW070 05/M01 Q1020=
200812270345 METAR LIRA 270345Z 03008KT 330V060 9999 FEW025 SCT070 05/M01
                        Q1020=
200812270245 METAR LIRA 270245Z 01008KT 330V050 9999 FEW025 SCT070 06/M01
                        Q1020=
200812270215 METAR LIRA 270215Z 01007KT 330V050 9999 FEW025 SCT070 06/M01
                        Q1020=
200812270145 METAR LIRA 270145Z 03008KT 330V040 9999 FEW025 SCT070 06/M00
                        Q1020=
200812270115 METAR LIRA 270115Z 02007KT 340V050 9999 FEW025 SCT070 06/M01
                        Q1020=
200812270015 METAR LIRA 270015Z 04006KT 350V100 9999 FEW025 SCT070 07/00
                        Q1020=
200812262345 METAR LIRA 262345Z 04005KT 350V080 9999 FEW025 SCT070 07/M00
                        Q1020=
200812262315 METAR LIRA 262315Z 03007KT 350V100 9999 SCT025 SCT070 07/M00
                        Q1020=
200812262245 METAR LIRA 262245Z 06005KT 010V080 9999 SCT025 SCT070 07/M01
                        Q1020=
200812262215 METAR LIRA 262215Z 05006KT 010V080 9999 SCT025 SCT070 07/M00
                        Q1020=
200812262145 METAR LIRA 262145Z 04006KT 340V090 9999 FEW025 SCT070 08/M00
                        Q1020=
200812262115 METAR LIRA 262115Z 06008KT 040V100 9999 SCT025 SCT070 08/00
                        Q1020=
200812262045 METAR LIRA 262045Z 06009KT 030V120 9999 SCT025 SCT070 08/M01
                        Q1020=
200812262015 METAR LIRA 262015Z 05009KT 010V080 9999 SCT025 BKN070 08/00
                        Q1020=
200812261945 METAR LIRA 261945Z 04006KT 340V080 9999 SCT025 BKN070 08/00
                        Q1019=
200812261915 METAR LIRA 261915Z 04008KT 340V080 9999 SCT025 BKN070 08/00
                        Q1019=
200812261845 METAR LIRA 261845Z 05007KT 020V080 9999 SCT025 BKN070 09/00
                        Q1019=
200812261815 METAR LIRA 261815Z 05008KT 020V080 9999 SCT025 BKN070 09/01
                        Q1019=
200812261745 METAR LIRA 261745Z 06010KT 020V080 9999 SCT025 BKN070 09/00
                        Q1019=
200812261715 METAR LIRA 261715Z 05008KT 360V090 9999 SCT025 BKN070 09/00
                        Q1019=
200812261645 METAR LIRA 261645Z 07008KT 340V090 9999 SCT025 BKN070 09/00
                        Q1019=
200812261615 METAR LIRA 261615Z 04005KT 010V090 9999 BKN025 SCT060 09/M00
                        Q1019=
200812261545 METAR LIRA 261545Z 09006KT 060V130 9999 BKN025 SCT060 10/M01
                        Q1019=
200812261515 METAR LIRA 261515Z 10004KT 9999 FEW018CB BKN025 10/M00 Q1018=
200812261445 METAR LIRA 261445Z 08010KT 030V130 9999 FEW018CB BKN025 10/00
                        Q1018=
200812261415 METAR LIRA 261415Z 05010KT 010V110 9999 FEW018CB BKN025 10/01
                        Q1018=
200812261345 METAR LIRA 261345Z 03008KT 320V080 9999 FEW018CB BKN025 10/00
                        Q1018=
200812261315 METAR LIRA 261315Z 04008KT 350V100 9999 FEW018CB BKN025 10/01
                        Q1018=
200812261245 METAR LIRA 261245Z 10007KT 060V140 9999 FEW017CB SCT025 10/02
                        Q1018=
200812261215 METAR LIRA 261215Z 11007KT 060V160 9999 FEW017CB SCT025 10/01
                        Q1018=
200812261145 METAR LIRA 261145Z 29007KT 070V180 9999 FEW017CB SCT025 09/00
                        Q1018=
200812261115 METAR LIRA 261115Z 01002KT 9999 FEW017CB BKN025 09/01 Q1018=
200812261045 METAR LIRA 261045Z 10009KT 050V140 9999 FEW017CB BKN025 09/01
                        Q1018=
200812261015 METAR LIRA 261015Z 06004KT 040V150 9999 FEW017CB BKN025 09/01
                        Q1018=
200812260945 METAR LIRA 260945Z 14007KT 9999 FEW017CB SCT025 09/02 Q1018=
200812260915 METAR LIRA 260915Z 05006KT 350V100 9999 -RA FEW018 SCT025
                        08/01 Q1017=
200812260845 METAR LIRA 260845Z 05008KT 9999 -RA FEW018 SCT025 08/01 Q1017=
200812260815 METAR LIRA 260815Z 10016G28KT 050V140 9999 FEW018 SCT025
                        08/01 Q1016=
200812260745 METAR LIRA 260745Z 09012G27KT 040V130 9999 FEW018 SCT025
                        08/01 Q1016=
200812260715 METAR LIRA 260715Z 10018G33KT 160V130 9999 FEW018 BKN025
                        08/02 Q1015=
200812260645 METAR LIRA 260645Z 10017G27KT 060V130 9999 SCT018 BKN030
                        08/03 Q1015=
200812260615 METAR LIRA 260615Z 09018G28KT 040V140 9999 SCT018 BKN030
                        08/02 Q1015=
200812260545 METAR LIRA 260545Z 10018G28KT 060V150 9999 SCT018 BKN030
                        08/03 Q1014=
200812260515 METAR LIRA 260515Z 10020G30KT 9999 SCT018 BKN030 08/03 Q1013=
200812260445 METAR LIRA 260445Z 08013G26KT 020V150 8000 SCT015 BKN025
                        07/04 Q1013=
200812260415 METAR LIRA 260415Z 06008KT 010V120 8000 SCT015 BKN025 07/04
                        Q1013=
200812260345 METAR LIRA 260345Z 07013KT 030V110 8000 SCT015 BKN025 07/05
                        Q1013=
200812260315 METAR LIRA 260315Z 05009KT 350V110 8000 -RA SCT010 BKN025
                        07/04 Q1013=
200812260245 METAR LIRA 260245Z 06010KT 360V100 8000 -RA SCT010 BKN025
                        07/04 Q1013=
200812260215 METAR LIRA 260215Z 04008KT 360V120 7000 -RA SCT010 BKN025
                        08/04 Q1013=
200812260145 METAR LIRA 260145Z 10003KT 7000 -RA SCT010 BKN025 08/04 Q1013=
200812260115 METAR LIRA 260115Z 05004KT 7000 -RA SCT010 BKN025 08/04 Q1013=
200812260045 METAR LIRA 260045Z 17002KT 330V170 7000 -RA SCT010 BKN025
                        08/04 Q1013=
200812260015 METAR LIRA 260015Z 04004KT 300V110 7000 -RA SCT012 BKN025
                        09/04 Q1013=
200812252345 METAR LIRA 252345Z 07008KT 030V130 7000 -DZ SCT010 BKN025
                        09/05 Q1014=
200812252315 METAR LIRA 252315Z 09007KT 090V150 5000 -DZ BR SCT010 BKN025
                        09/07 Q1014=
200812252245 METAR LIRA 252245Z 09008KT 5000 -DZ SCT010 BKN025 08/07 Q1014=
200812252215 METAR LIRA 252215Z 12005KT 5000 -DZ BR SCT010 BKN025 08/07
                        Q1014=
200812252145 METAR LIRA 252145Z 02003KT 5000 -DZ BR SCT010 BKN025 08/07
                        Q1014=
200812252115 METAR LIRA 252115Z 02003KT 5000 -DZ BR SCT010 BKN025 08/07
                        Q1014=
200812252045 METAR LIRA 252045Z 04003KT 5000 BR SCT010 BKN025 08/07 Q1015=
200812252015 METAR LIRA 252015Z 07004KT 5000 BR SCT010 BKN025 08/07 Q1015=
200812251945 METAR LIRA 251945Z 05006KT 010V090 5000 -DZ BR SCT010 BKN025
                        08/07 Q1015=
200812251915 METAR LIRA 251915Z 03003KT 5000 -DZ BR SCT010 BKN025 08/07
                        Q1015=
200812251845 METAR LIRA 251845Z 04004KT 5000 -DZ BR SCT010 BKN025 08/07
                        Q1015=
200812251815 METAR LIRA 251815Z 03003KT 5000 -DZ BR SCT010 BKN025 09/07
                        Q1015=
200812251745 METAR LIRA 251745Z 09002KT 5000 -DZ BR SCT010 BKN025 09/07
                        Q1015=
200812251715 METAR LIRA 251715Z 00000KT 5000 BR SCT010 BKN025 09/07 Q1015=
200812251645 METAR LIRA 251645Z 00000KT 5000 BR SCT014 BKN025 10/07 Q1016=
200812251615 METAR LIRA 251615Z 33002KT 5000 BR SCT014 BKN070 10/07 Q1016=
200812251545 METAR LIRA 251545Z 31001KT 7000 SCT025 BKN070 10/06 Q1016=
200812251515 METAR LIRA 251515Z 30001KT 7000 SCT030 BKN070 10/06 Q1016=
200812251445 METAR LIRA 251445Z 04003KT 8000 SCT030 BKN070 10/06 Q1016=
200812251415 METAR LIRA 251415Z 03003KT 8000 SCT030 BKN070 10/06 Q1016=
200812251345 METAR LIRA 251345Z 35002KT 8000 SCT025 BKN060 10/06 Q1016=
200812251315 METAR LIRA 251315Z 04003KT 8000 SCT025 BKN060 10/06 Q1017=
200812251245 METAR LIRA 251245Z 04003KT 8000 SCT025 BKN060 10/07 Q1017=
200812251215 METAR LIRA 251215Z 02003KT 9000 SCT025 BKN060 09/06 Q1018=
200812251145 METAR LIRA 251145Z 34001KT 9000 SCT025 BKN060 09/06 Q1018=
200812251115 METAR LIRA 251115Z 33001KT 9000 SCT025 BKN060 09/07 Q1018=
200812251045 METAR LIRA 251045Z 34002KT 9000 SCT025 BKN060 09/07 Q1019=
200812251015 METAR LIRA 251015Z 02003KT 9000 SCT025 BKN060 09/07 Q1019=
200812250945 METAR LIRA 250945Z 02003KT 9000 SCT025 BKN060 09/07 Q1019=
200812250915 METAR LIRA 250915Z 35001KT 9000 SCT025 BKN060 09/07 Q1019=
200812250845 METAR LIRA 250845Z 02003KT 9000 SCT025 BKN060 09/07 Q1019=
200812250815 METAR LIRA 250815Z 18002KT 9000 SCT025 BKN060 09/07 Q1019=
200812250745 METAR LIRA 250745Z 15001KT 9000 SCT025 BKN060 08/07 Q1019=
200812250715 METAR LIRA 250715Z 00000KT 9000 -DZ SCT025 BKN060 08/06 Q1019=
200812250645 METAR LIRA 250645Z 16001KT 7000 -DZ SCT025 BKN060 07/06 Q1019=
200812250615 METAR LIRA 250615Z 04003KT 7000 SCT010 BKN070 08/06 Q1019=
200812250545 METAR LIRA 250545Z 34002KT 7000 SCT003 BKN070 08/06 Q1019=
200812250515 METAR LIRA 250515Z 00000KT 8000 SCT003 SCT070 08/06 Q1019=
200812250445 METAR LIRA 250445Z 08001KT 8000 SCT003 SCT070 08/07 Q1020=
200812250415 METAR LIRA 250415Z 35001KT 8000 SCT003 SCT070 09/07 Q1020=
200812250345 METAR LIRA 250345Z 00000KT 8000 SCT003 SCT070 09/07 Q1020=
200812250315 METAR LIRA 250315Z 15003KT 8000 SCT003 SCT025 07/06 Q1020=
200812250245 METAR LIRA 250245Z 19001KT 8000 SCT003 SCT025 07/05 Q1020=
200812250215 METAR LIRA 250215Z 16002KT 8000 SCT003 SCT025 07/06 Q1020=
200812250145 METAR LIRA 250145Z 15002KT 6000 SCT003 SCT025 07/06 Q1021=
200812250115 METAR LIRA 250115Z 07002KT 6000 SCT003 SCT025 07/05 Q1022=
200812250045 METAR LIRA 250045Z 01003KT 6000 SCT003 SCT025 07/06 Q1022=
200812250015 METAR LIRA 250015Z 14002KT 6000 SCT005 SCT025 07/06 Q1022=
200812250000 METAR LIRA INTER=
200812242345 METAR LIRA 242345Z 01001KT 6000 SCT005 SCT025 08/07 Q1023=
200812242315 METAR LIRA 242315Z 32001KT 7000 SCT010 SCT025 08/06 Q1023=
200812242245 METAR LIRA 242245Z 16001KT 7000 SCT012 08/07 Q1024=
200812242215 METAR LIRA 242215Z 11004KT 7000 SCT012 07/06 Q1024=
200812242145 METAR LIRA 242145Z 15003KT 7000 SCT012 07/06 Q1024=
200812242115 METAR LIRA 242115Z 09003KT 7000 SCT002 05/04 Q1024=
200812242045 METAR LIRA 242045Z 11002KT 5000 BR SCT002 05/04 Q1024=
200812242015 METAR LIRA 242015Z 05002KT 5000 BR SCT002 05/04 Q1025=
200812241945 METAR LIRA 241945Z 16003KT 7000 NSC 06/04 Q1024=
200812241915 METAR LIRA 241915Z 18001KT 7000 SKC 07/05 Q1024=
200812241845 METAR LIRA 241845Z 17004KT 7000 NSC 06/04 Q1025=
200812241815 METAR LIRA 241815Z 16005KT 7000 SKC 07/04 Q1025=
200812241745 METAR LIRA 241745Z 15002KT 7000 NSC 09/05 Q1025=
200812241715 METAR LIRA 241715Z 15002KT 7000 SKC 09/06 Q1025=
200812241645 METAR LIRA 241645Z 00000KT 7000 NSC 11/07 Q1026=
200812241615 METAR LIRA 241615Z 06002KT 7000 NSC 12/06 Q1026=
200812241545 METAR LIRA 241545Z 00000KT 8000 NSC 13/04 Q1026=
200812241515 METAR LIRA 241515Z 20005KT CAVOK 13/04 Q1026=
200812241445 METAR LIRA 241445Z 19004KT CAVOK 13/03 Q1026=
200812241415 METAR LIRA 241415Z 19005KT 140V230 CAVOK 13/04 Q1026=
200812241345 METAR LIRA 241345Z 20005KT 130V240 CAVOK 12/06 Q1027=
200812241315 METAR LIRA 241315Z 33002KT CAVOK 11/06 Q1027=
200812241245 METAR LIRA 241245Z 00000KT CAVOK 10/06 Q1027=
200812241215 METAR LIRA 241215Z 01005KT CAVOK 10/06 Q1027=
200812241145 METAR LIRA 241145Z 03004KT CAVOK 09/04 Q1028=
200812241115 METAR LIRA 241115Z 02003KT CAVOK 08/05 Q1028=
200812241045 METAR LIRA 241045Z 04005KT CAVOK 06/05 Q1028=
200812241015 METAR LIRA 241015Z 04004KT 8000 SKC 05/04 Q1029=
200812240945 METAR LIRA 240945Z 05006KT 350V090 8000 SKC 04/03 Q1029=
200812240915 METAR LIRA 240915Z 05006KT 010V090 7000 SKC 03/02 Q1028=
200812240845 METAR LIRA 240845Z 05005KT 2000 MIFG FEW007 02/01 Q1028=
200812240815 METAR LIRA 240815Z 05004KT 0300 R15//// FG BKN002 01/01 Q1028=
200812240800 LIRA CONTUS=
200812240745 METAR LIRA 240745Z 06004KT 0150 R15//// FG BKN002 01/00 Q1027=
200812240715 METAR LIRA 240715Z 05003KT 0200 R15//// FG BKN002 01/01 Q1027=
200812240645 METAR LIRA 240645Z 05004KT 0300 R15//// FG BKN002 01/01 Q1026=
200812240615 METAR LIRA 240615Z 06004KT 0400 R15//// FG BKN002 02/02 Q1026=
200812240545 METAR LIRA 240545Z 06004KT 0200 R15//// FG BKN002 02/02 Q1026=
200812240515 METAR LIRA 240515Z 07005KT 030V100 0200 R15//// FG BKN002
                        02/02 Q1026=
200812240445 METAR LIRA 240445Z 05006KT 0150 R15//// FG BKN005 02/02 Q1026=
200812240415 METAR LIRA 240415Z 06004KT 0150 R15//// FG BKN005 02/02 Q1026=
200812240345 METAR LIRA 240345Z 05005KT 0150 R15//// FG BKN005 02/02 Q1026=
200812240315 METAR LIRA 240315Z 06006KT 020V100 0150 FG BKN005 02/02 Q1026=
200812240245 METAR LIRA 240245Z 06006KT 010V120 0150 R15//// FG BKN005
                        02/02 Q1025=
200812240215 METAR LIRA 240215Z 02006KT 330V090 0150 R15//// FG BKN005
                        02/02 Q1025=
200812240145 METAR LIRA 240145Z 06004KT 0150 R15//// FG BKN005 03/02 Q1025=
200812240115 METAR LIRA 240115Z 05006KT 350V080 0150 R15//// FG BKN005
                        03/02 Q1025=
200812240045 METAR LIRA 240045Z 05006KT 350V090 0150 R15//// FG BKN005
                        03/03 Q1025=
200812240015 METAR LIRA 240015Z 04007KT 340V090 0150 R15//// FG BKN003
                        03/03 Q1026=
200812232350 METAR LIRA 240045Z 05006KT 350V090 0150 R15//// FG BKN005
                        03/03 Q1025=
200812232345 METAR LIRA 232345Z 06006KT 360V090 0150 R15//// FG BKN003
                        03/03 Q1026=
200812232315 METAR LIRA 232315Z 07009KT 0150 R15//// FG BKN005 03/03 Q1026=
200812232245 METAR LIRA 232245Z 04005KT 0300 0100S R15//// FG BKN003 03/03
                        Q1026=
200812232215 METAR LIRA 232215Z 02004KT 6000 SKC 04/03 Q1026=
200812232145 METAR LIRA 232145Z 05004KT 6000 SKC 04/03 Q1026=
200812232115 METAR LIRA 232115Z 05005KT 6000 SKC 04/03 Q1026=
200812232045 METAR LIRA 232045Z 06004KT 6000 SKC 05/04 Q1025=
200812232015 METAR LIRA 232015Z 06003KT 6000 SKC 05/04 Q1025=
200812231945 METAR LIRA 231945Z 05004KT 7000 SKC 06/04 Q1025=
200812231915 METAR LIRA 231915Z 01002KT 7000 SKC 06/04 Q1025=
200812231845 METAR LIRA 231845Z 06005KT 040V100 CAVOK 06/03 Q1025=
200812231815 METAR LIRA 231815Z 05004KT 7000 SKC 06/03 Q1025=
200812231745 METAR LIRA 231745Z 06004KT 7000 SKC 07/04 Q1025=
200812231715 METAR LIRA 231715Z 06004KT 7000 SKC 07/04 Q1024=
200812231645 METAR LIRA 231645Z 04002KT 7000 FEW010 09/04 Q1024=
200812231615 METAR LIRA 231615Z 04001KT 7000 FEW010 09/04 Q1024=
200812231545 METAR LIRA 231545Z 00000KT 9000 NSC 10/04 Q1024=
200812231515 METAR LIRA 231515Z 00000KT 9000 NSC 11/04 Q1024=
200812231445 METAR LIRA 231445Z 33002KT 9000 NSC 11/04 Q1024=
200812231415 METAR LIRA 231415Z 33004KT 9000 NSC 11/04 Q1024=
200812231345 METAR LIRA 231345Z 33002KT 9000 NSC 11/04 Q1024=
200812231315 METAR LIRA 231315Z 01002KT 8000 NSC 11/04 Q1024=
200812231245 METAR LIRA 231245Z 02002KT 8000 NSC 10/03 Q1024=
200812231215 METAR LIRA 231215Z 01002KT 8000 NSC 10/03 Q1025=
200812231145 METAR LIRA 231145Z 02003KT 8000 NSC 10/04 Q1025=
200812231115 METAR LIRA 231115Z 01001KT 8000 SKC 08/03 Q1026=
200812231045 METAR LIRA 231045Z 02004KT 8000 NSC 08/03 Q1026=
200812231015 METAR LIRA 231015Z 02004KT 8000 NSC 07/03 Q1026=
200812230945 METAR LIRA 230945Z 05003KT 7000 NSC 06/02 Q1026=
200812230915 METAR LIRA 230915Z 06004KT 7000 NSC 06/03 Q1026=
200812230845 METAR LIRA 230845Z 05003KT 7000 NSC 05/03 Q1025=
200812230815 METAR LIRA 230815Z 06002KT 7000 NSC 04/03 Q1025=
200812230745 METAR LIRA 230745Z 05002KT 7000 NSC 03/02 Q1025=
200812230715 METAR LIRA 230715Z 05002KT 7000 FEW008 03/02 Q1025=
200812230645 METAR LIRA 230645Z 04003KT 8000 FEW008 03/02 Q1024=
200812230615 METAR LIRA 230615Z 05002KT 9999 FEW008 03/02 Q1024=
200812230545 METAR LIRA 230545Z 07002KT CAVOK 03/02 Q1024=
200812230515 METAR LIRA 230515Z 04003KT 9999 FEW008 03/02 Q1024=
200812230445 METAR LIRA 230445Z 04004KT CAVOK 03/02 Q1024=
200812230415 METAR LIRA 230415Z 06005KT CAVOK 03/02 Q1024=
200812230345 METAR LIRA 230345Z 06004KT CAVOK 03/02 Q1024=
200812230315 METAR LIRA 230315Z 09001KT CAVOK 03/02 Q1024=
200812230245 METAR LIRA 230245Z 04002KT 7000 FEW010 03/03 Q1024=
200812230215 METAR LIRA 230215Z 00000KT 7000 FEW010 04/03 Q1024=
200812230145 METAR LIRA 230145Z 00000KT 8000 FEW010 04/03 Q1024=
200812230115 METAR LIRA 230115Z 00000KT 7000 FEW010 05/04 Q1024=
200812230045 METAR LIRA 230045Z 36001KT 5000 BR SCT010 05/04 Q1024=
200812230015 METAR LIRA 230015Z 05002KT 4000 BR SCT010 05/05 Q1024=
200812222345 METAR LIRA 222345Z 00000KT 5000 2200SE BR MIFG SCT008 06/06
                        Q1024=
200812222315 METAR LIRA 222315Z 32001KT 6000 FEW010 06/06 Q1025=
200812222245 METAR LIRA 222245Z 16003KT CAVOK 06/06 Q1024=
200812222215 METAR LIRA 222215Z 19005KT CAVOK 07/03 Q1024=
200812222145 METAR LIRA 222145Z 19004KT CAVOK 06/04 Q1025=
200812222115 METAR LIRA 222115Z 12002KT CAVOK 07/05 Q1025=
200812222045 METAR LIRA 222045Z 16003KT CAVOK 07/05 Q1025=
200812222015 METAR LIRA 222015Z 17004KT CAVOK 07/05 Q1025=
200812221945 METAR LIRA 221945Z 17003KT CAVOK 07/05 Q1025=
200812221915 METAR LIRA 221915Z 15004KT CAVOK 08/06 Q1025=
200812221845 METAR LIRA 221845Z 16004KT CAVOK 08/06 Q1025=
200812221815 METAR LIRA 221815Z 15003KT CAVOK 08/06 Q1025=
200812221745 METAR LIRA 221745Z 16005KT CAVOK 09/07 Q1025=
200812221715 METAR LIRA 221715Z 17005KT CAVOK 09/07 Q1025=
200812221645 METAR LIRA 221645Z 17003KT CAVOK 11/06 Q1025=
200812221615 METAR LIRA 221615Z 21002KT CAVOK 11/06 Q1025=
200812221545 METAR LIRA 221545Z 22002KT CAVOK 13/06 Q1025=
200812221515 METAR LIRA 221515Z 26002KT CAVOK 14/06 Q1025=
200812221445 METAR LIRA 221445Z 26002KT CAVOK 14/03 Q1025=
200812221415 METAR LIRA 221415Z 00000KT CAVOK 14/03 Q1026=
200812221345 METAR LIRA 221345Z 32001KT CAVOK 14/03 Q1026=
200812221315 METAR LIRA 221315Z 33006KT CAVOK 14/03 Q1026=
200812221245 METAR LIRA 221245Z 31004KT CAVOK 13/04 Q1026=
200812221215 METAR LIRA 221215Z 32002KT CAVOK 13/04 Q1027=
200812221145 METAR LIRA 221145Z 04002KT CAVOK 12/04 Q1027=
200812221115 METAR LIRA 221115Z 32002KT CAVOK 12/04 Q1027=
200812221045 METAR LIRA 221045Z 08002KT CAVOK 11/04 Q1028=
200812221015 METAR LIRA 221015Z 05004KT CAVOK 08/03 Q1028=
200812220945 METAR LIRA 220945Z 05002KT CAVOK 07/03 Q1028=
200812220915 METAR LIRA 220915Z 03004KT CAVOK 06/02 Q1028=
200812220845 METAR LIRA 220845Z 05003KT 340V060 CAVOK 05/02 Q1027=
200812220815 METAR LIRA 220815Z 03003KT CAVOK 04/02 Q1027=
200812220745 METAR LIRA 220745Z 02003KT CAVOK 03/01 Q1027=
200812220715 METAR LIRA 220715Z 04003KT CAVOK 03/01 Q1027=
200812220645 METAR LIRA 220645Z 03003KT CAVOK 03/01 Q1027=
200812220615 METAR LIRA 220615Z 02002KT CAVOK 03/01 Q1027=
200812220545 METAR LIRA 220545Z 04001KT CAVOK 03/01 Q1027=
200812220515 METAR LIRA 220515Z 34002KT 030V090 CAVOK 03/00 Q1027=
200812220445 METAR LIRA 220445Z 07005KT 010V100 CAVOK 03/02 Q1027=
200812220415 METAR LIRA 220415Z 08003KT CAVOK 03/02 Q1027=
200812220345 METAR LIRA 220345Z 04004KT CAVOK 03/02 Q1027=
200812220315 METAR LIRA 220315Z 02006KT CAVOK 03/02 Q1027=
200812220245 METAR LIRA 220245Z 02003KT CAVOK 04/02 Q1027=
200812220215 METAR LIRA 220215Z 11001KT CAVOK 03/03 Q1027=
200812220145 METAR LIRA 220145Z 07002KT CAVOK 04/03 Q1027=
200812220115 METAR LIRA 220115Z 09003KT CAVOK 04/02 Q1027=
200812220045 METAR LIRA 220045Z 05004KT CAVOK 04/02 Q1027=
200812220015 METAR LIRA 220015Z 01002KT CAVOK 04/02 Q1027=
200812212345 METAR LIRA 212345Z 01003KT CAVOK 04/02 Q1027=
200812212315 METAR LIRA 212315Z 11004KT CAVOK 05/02 Q1026=
200812212245 METAR LIRA 212245Z 13002KT CAVOK 05/03 Q1026=
200812212215 METAR LIRA 212215Z 07004KT CAVOK 05/03 Q1026=
200812212145 METAR LIRA 212145Z 08003KT CAVOK 05/03 Q1026=
200812212115 METAR LIRA 212115Z 09002KT CAVOK 06/03 Q1026=
200812212045 METAR LIRA 212045Z 09004KT CAVOK 06/03 Q1026=
200812212015 METAR LIRA 212015Z 00000KT CAVOK 06/02 Q1025=
200812211945 METAR LIRA 211945Z 35001KT CAVOK 06/02 Q1025=
200812211915 METAR LIRA 211915Z 23001KT CAVOK 06/02 Q1024=
200812211845 METAR LIRA 211845Z 17001KT CAVOK 06/02 Q1024=
200812211815 METAR LIRA 211815Z 15002KT CAVOK 08/03 Q1024=
200812211745 METAR LIRA 211745Z 10004KT CAVOK 09/04 Q1025=
200812211715 METAR LIRA 211715Z 18003KT CAVOK 09/03 Q1025=
200812211645 METAR LIRA 211645Z 10004KT CAVOK 10/04 Q1024=
200812211615 METAR LIRA 211615Z 16002KT CAVOK 10/03 Q1024=
200812211545 METAR LIRA 211545Z 04002KT CAVOK 12/04 Q1023=
200812211515 METAR LIRA 211515Z 09004KT CAVOK 12/04 Q1022=
200812211445 METAR LIRA 211445Z 05004KT 9999 FEW080 12/03 Q1022=
200812211415 METAR LIRA 211415Z 06002KT 9999 FEW080 12/03 Q1022=
200812211345 METAR LIRA 211345Z 06004KT CAVOK 12/03 Q1022=
200812211315 METAR LIRA 211315Z 06004KT CAVOK 12/03 Q1022=
200812211245 METAR LIRA 211245Z 04003KT CAVOK 11/03 Q1022=
200812211215 METAR LIRA 211215Z 07007KT 020V140 CAVOK 11/02 Q1023=
200812211145 METAR LIRA 211145Z 04003KT CAVOK 10/02 Q1023=
200812211115 METAR LIRA 211115Z 08005KT 030V120 CAVOK 09/01 Q1023=
200812211045 METAR LIRA 211045Z 07005KT 020V100 CAVOK 08/00 Q1023=
200812211015 METAR LIRA 211015Z 05004KT 330V060 CAVOK 08/00 Q1023=
200812210945 METAR LIRA 210945Z 36002KT CAVOK 07/01 Q1023=
200812210915 METAR LIRA 210915Z 33003KT CAVOK 06/00 Q1023=
200812210845 METAR LIRA 210845Z 34001KT CAVOK 05/00 Q1023=
200812210815 METAR LIRA 210815Z 05003KT 010V090 CAVOK 05/00 Q1023=
200812210745 METAR LIRA 210745Z 05004KT CAVOK 04/M00 Q1023=
200812210715 METAR LIRA 210715Z 07005KT CAVOK 02/M02 Q1023=
200812210645 METAR LIRA 210645Z 07005KT 030V120 CAVOK 02/M00 Q1022=
200812210615 METAR LIRA 210615Z 10004KT CAVOK 03/M00 Q1022=
200812210545 METAR LIRA 210545Z 35002KT CAVOK 02/M00 Q1022=
200812210515 METAR LIRA 210515Z 06003KT CAVOK 02/M00 Q1022=
200812210445 METAR LIRA 210445Z 05005KT CAVOK 03/M00 Q1022=
200812210415 METAR LIRA 210415Z 05005KT CAVOK 03/M01 Q1022=
200812210345 METAR LIRA 210345Z 05003KT CAVOK 03/M00 Q1022=
200812210315 METAR LIRA 210315Z 05003KT CAVOK 04/00 Q1022=
200812210245 METAR LIRA 210245Z 07003KT CAVOK 04/00 Q1023=
200812210215 METAR LIRA 210215Z 01001KT 9999 FEW080 04/00 Q1023=
200812210145 METAR LIRA 210145Z 04004KT 9999 FEW080 04/00 Q1023=
200812210115 METAR LIRA 210115Z 05005KT 9999 FEW080 04/00 Q1023=
200812210045 METAR LIRA 210045Z 05007KT 9999 FEW080 04/01 Q1023=
200812210015 METAR LIRA 210015Z 03005KT CAVOK 05/01 Q1023=
200812202345 METAR LIRA 202345Z 06004KT CAVOK 05/01 Q1024=
200812202315 METAR LIRA 202315Z 07005KT CAVOK 05/02 Q1024=
200812202245 METAR LIRA 202245Z 03002KT CAVOK 05/02 Q1024=
200812202215 METAR LIRA 202215Z 34002KT CAVOK 06/02 Q1024=
200812202145 METAR LIRA 202145Z 07002KT CAVOK 06/02 Q1023=
200812202115 METAR LIRA 202115Z 09002KT CAVOK 06/02 Q1024=
200812202045 METAR LIRA 202045Z 05003KT CAVOK 06/02 Q1023=
200812202015 METAR LIRA 202015Z 02004KT CAVOK 06/02 Q1023=
200812201945 METAR LIRA 201945Z 36006KT CAVOK 06/03 Q1023=
200812201915 METAR LIRA 201915Z 00000KT CAVOK 06/03 Q1023=
200812201845 METAR LIRA 201845Z 36001KT CAVOK 06/02 Q1022=
200812201815 METAR LIRA 201815Z 00000KT CAVOK 07/03 Q1022=
200812201745 METAR LIRA 201745Z 34002KT CAVOK 07/03 Q1022=
200812201715 METAR LIRA 201715Z 24001KT CAVOK 08/03 Q1022=
200812201645 METAR LIRA 201645Z 13002KT CAVOK 11/03 Q1021=
200812201615 METAR LIRA 201615Z 00000KT CAVOK 11/03 Q1021=
200812201545 METAR LIRA 201545Z 35004KT 9999 FEW080 BKN200 13/04 Q1021=
200812201515 METAR LIRA 201515Z 35002KT 9999 FEW080 SCT200 13/04 Q1021=
200812201445 METAR LIRA 201445Z 34002KT 9999 FEW080 SCT200 13/03 Q1021=
200812201415 METAR LIRA 201415Z 34002KT 9999 FEW020 SCT200 12/03 Q1021=
200812201345 METAR LIRA 201345Z 36004KT 9999 FEW018 SCT200 12/04 Q1021=
200812201315 METAR LIRA 201315Z 03002KT 9999 FEW018 SCT200 12/05 Q1021=
200812201245 METAR LIRA 201245Z 04002KT 9999 FEW018 SCT200 11/05 Q1021=
200812201215 METAR LIRA 201215Z 04004KT 9999 FEW018 SCT200 11/05 Q1021=
200812201145 METAR LIRA 201145Z 05004KT 360V080 9999 FEW018 SCT200 10/04
                        Q1022=
200812201115 METAR LIRA 201115Z 03005KT 330V090 CAVOK 09/04 Q1022=
200812201045 METAR LIRA 201045Z 06005KT 330V100 CAVOK 08/03 Q1022=
200812201015 METAR LIRA 201015Z 02006KT 320V110 CAVOK 08/03 Q1022=
200812200945 METAR LIRA 200945Z 05005KT 360V110 CAVOK 07/03 Q1022=
200812200915 METAR LIRA 200915Z 04007KT 330V090 CAVOK 07/03 Q1022=
200812200845 METAR LIRA 200845Z 36009KT 330V040 CAVOK 07/03 Q1021=
200812200815 METAR LIRA 200815Z 36004KT 330V030 CAVOK 06/03 Q1021=
200812200745 METAR LIRA 200745Z 36007KT 330V030 CAVOK 04/02 Q1021=
200812200715 METAR LIRA 200715Z 06003KT 9999 FEW070 04/02 Q1021=
200812200645 METAR LIRA 200645Z 04004KT 020V110 9999 FEW070 04/02 Q1020=
200812200615 METAR LIRA 200615Z 06008KT 9999 FEW070 04/02 Q1020=
200812200545 METAR LIRA 200545Z 04003KT 010V080 9999 FEW070 04/02 Q1020=
200812200515 METAR LIRA 200515Z 06004KT 9999 FEW070 05/02 Q1019=
200812200445 METAR LIRA 200445Z 02003KT 9999 FEW030 SCT070 05/03 Q1019=
200812200415 METAR LIRA 200415Z 04004KT 9999 FEW030 SCT070 05/03 Q1019=
200812200345 METAR LIRA 200345Z 05006KT 030V110 9999 FEW030 05/03 Q1019=
200812200315 METAR LIRA 200315Z 06007KT 9999 FEW030 04/03 Q1019=
200812200245 METAR LIRA 200245Z 06005KT CAVOK 04/02 Q1019=
200812200215 METAR LIRA 200215Z 07005KT CAVOK 04/03 Q1019=
200812200145 METAR LIRA 200145Z 06004KT 9999 FEW070 04/03 Q1019=
200812200115 METAR LIRA 200115Z 03003KT 9999 FEW080 05/03 Q1019=
200812200045 METAR LIRA 200045Z 06004KT 9999 FEW080 05/03 Q1019=
200812200015 METAR LIRA 200015Z 07004KT 9999 FEW080 05/03 Q1019=
200812192350 METAR LIRA 200045Z 06004KT 9999 FEW080 05/03 Q1019=
200812192345 METAR LIRA 192345Z 06004KT 9999 FEW080 05/03 Q1019=
200812192315 METAR LIRA 192315Z 06005KT CAVOK 05/02 Q1019=
200812192245 METAR LIRA 192245Z 04004KT 9999 FEW080 06/02 Q1019=
200812192215 METAR LIRA 192215Z 07005KT 010V120 9999 FEW080 06/03 Q1019=
200812192145 METAR LIRA 192145Z 06005KT 9999 FEW080 06/04 Q1019=
200812192115 METAR LIRA 192115Z 05004KT 9999 FEW080 06/04 Q1019=
200812192045 METAR LIRA 192045Z 06004KT 9999 SCT080 07/04 Q1018=
200812192015 METAR LIRA 192015Z 05005KT 010V090 9999 SCT080 07/04 Q1018=
200812191945 METAR LIRA 191945Z 36005KT 9999 SCT080 07/04 Q1018=
200812191915 METAR LIRA 191915Z 02003KT 9999 SCT080 07/04 Q1017=
200812191845 METAR LIRA 191845Z 03004KT 9999 SCT080 07/04 Q1017=
200812191815 METAR LIRA 191815Z 07002KT 9999 FEW080 07/04 Q1017=
200812191745 METAR LIRA 191745Z 00000KT 9999 FEW080 07/04 Q1017=
200812191715 METAR LIRA 191715Z 00000KT CAVOK 09/05 Q1017=
200812191645 METAR LIRA 191645Z 08002KT 9999 FEW080 09/05 Q1017=
200812191615 METAR LIRA 191615Z 04002KT 9999 FEW080 10/04 Q1017=
200812191545 METAR LIRA 191545Z 34002KT 9999 FEW080 11/04 Q1016=
200812191515 METAR LIRA 191515Z 04002KT 9999 FEW022 11/04 Q1016=
200812191445 METAR LIRA 191445Z 02003KT 330V050 9999 FEW022 11/04 Q1016=
200812191415 METAR LIRA 191415Z 35006KT 300V020 9999 FEW022 11/04 Q1016=
200812191345 METAR LIRA 191345Z 02003KT 9999 FEW022 10/04 Q1016=
200812191315 METAR LIRA 191315Z 02002KT 9999 FEW022 10/04 Q1016=
200812191245 METAR LIRA 191245Z 36005KT 9999 FEW022 10/04 Q1016=
200812191215 METAR LIRA 191215Z 04003KT 9999 FEW022 10/05 Q1016=
200812191145 METAR COR LIRA 191145Z 04004KT 340V060 9999 FEW022 09/04
                        Q1016=
200812191115 METAR LIRA 191115Z 02006KT 320V060 9999 FEW022 08/03 Q1016=
200812191045 METAR LIRA 191045Z 03006KT 9999 FEW022 08/05 Q1016=
200812191015 METAR LIRA 191015Z 03004KT 9999 FEW022 07/05 Q1016=
200812190945 METAR LIRA 190945Z 04003KT 9999 FEW022 07/05 Q1016=
200812190915 METAR LIRA 190915Z 05004KT 360V090 9999 FEW080 06/05 Q1016=
200812190845 METAR LIRA 190845Z 04005KT 7000 FEW080 05/04 Q1015=
200812190815 METAR LIRA 190815Z 03004KT 6000 FEW080 04/04 Q1015=
200812190745 METAR LIRA 190745Z 02001KT 6000 FEW070 04/03 Q1015=
200812190715 METAR LIRA 190715Z 03003KT 5000 BR FEW070 04/03 Q1015=
200812190645 METAR LIRA 190645Z 06001KT 3000 MIFG FEW010 04/03 Q1014=
200812190615 METAR LIRA 190615Z 06002KT 2500 MIFG FEW010 04/03 Q1014=
200812190545 METAR LIRA 190545Z 04003KT 5000 BR FEW009 04/03 Q1014=
200812190515 METAR LIRA 190515Z 05003KT 7000 FEW018 04/03 Q1013=
200812190445 METAR LIRA 190445Z 04004KT 9999 FEW018 04/02 Q1013=
200812190415 METAR LIRA 190415Z 02003KT 9999 FEW018 05/02 Q1013=
200812190345 METAR LIRA 190345Z 04003KT 9999 FEW018 SCT070 05/02 Q1013=
200812190315 METAR LIRA 190315Z 05002KT 9999 FEW018 SCT070 05/02 Q1013=
200812190245 METAR LIRA 190245Z 06003KT 9999 FEW018 SCT070 05/02 Q1013=
200812190215 METAR LIRA 190215Z 06002KT 9999 FEW018 SCT070 06/03 Q1013=
200812190200 METAR LIRA INT, LOW CLDS MVG S=
200812190100 METAR LIRA INT=
200812190045 METAR LIRA 190045Z 35001KT 9999 FEW018 BKN070 07/04 Q1013=
200812190015 METAR LIRA 190015Z 33001KT 9999 FEW018 BKN070 07/05 Q1013=
200812182345 METAR LIRA 182345Z 04001KT 9999 FEW018 BKN070 07/05 Q1013=
200812182315 METAR LIRA 182315Z 34001KT 9999 FEW018 BKN070 08/05 Q1012=
200812182245 METAR LIRA 182245Z 02002KT 9999 FEW018 BKN070 08/05 Q1012=
200812182215 METAR LIRA 182215Z 02003KT 9999 FEW018 BKN070 08/05 Q1012=
200812182145 METAR LIRA 182145Z 02003KT 9999 FEW018 SCT070 08/05 Q1012=
200812182115 METAR LIRA 182115Z 02003KT 9999 FEW018 SCT070 08/05 Q1012=
200812182045 METAR LIRA 182045Z 08003KT 9999 FEW018 SCT070 08/05 Q1012=
200812182015 METAR LIRA 182015Z 05004KT 9999 FEW018 SCT070 08/05 Q1012=
200812181945 METAR LIRA 181945Z 04005KT 360V080 9999 FEW018 SCT070 08/05
                        Q1011=
200812181915 METAR LIRA 181915Z 04005KT 360V100 9999 FEW018 SCT070 08/05
                        Q1011=
200812181845 METAR LIRA 181845Z 07003KT 9999 FEW018 SCT070 08/05 Q1011=
200812181815 METAR LIRA 181815Z 03003KT 9999 FEW018 SCT070 09/06 Q1010=
200812181745 METAR LIRA 181745Z 02003KT 9999 FEW018 SCT070 09/06 Q1010=
200812181715 METAR LIRA 181715Z 05003KT 9999 FEW018 SCT200 09/02 Q1010=
200812181645 METAR LIRA 181645Z 05003KT 9999 FEW018 SCT200 09/02 Q1009=
200812181615 METAR LIRA 181615Z 01003KT 9999 FEW018 SCT200 10/02 Q1009=
200812181545 METAR LIRA 181545Z 03003KT 9999 FEW018 BKN200 11/02 Q1009=
200812181515 METAR LIRA 181515Z 03003KT 350V040 9999 FEW018 BKN200 11/03
                        Q1009=
200812181445 METAR LIRA 181445Z 02005KT 9999 FEW018 FEW020TCU BKN200 12/03
                        Q1008=
200812181415 METAR LIRA 181415Z 32004KT 9999 FEW018 FEW020TCU BKN200 12/03
                        Q1007=
200812181345 METAR LIRA 181345Z 30002KT 9999 FEW018 FEW020TCU SCT200 12/04
                        Q1007=
200812181315 METAR LIRA 181315Z 20003KT 9999 FEW018 FEW020TCU SCT200 12/05
                        Q1007=
200812181245 METAR LIRA 181245Z 26001KT 9999 FEW018 FEW020TCU SCT200 11/06
                        Q1008=
200812181215 METAR LIRA 181215Z 12001KT 9999 FEW018 FEW020TCU SCT200 10/06
                        Q1008=
200812181145 METAR LIRA 181145Z 30001KT 9999 FEW018 FEW020TCU SCT200 09/06
                        Q1008=
200812181115 METAR LIRA 181115Z 04003KT 9999 FEW018 SCT200 09/06 Q1008=
200812181045 METAR LIRA 181045Z 02003KT 9999 FEW018 SCT200 08/05 Q1008=
200812181015 METAR LIRA 181015Z 04003KT 9999 FEW018 SCT200 08/05 Q1008=
200812180945 METAR LIRA 180945Z 01003KT 9999 FEW018 SCT200 07/05 Q1008=
200812180915 METAR LIRA 180915Z 35003KT 9999 FEW018 BKN200 06/05 Q1008=
200812180845 METAR LIRA 180845Z 34001KT 8000 FEW018 SCT200 05/04 Q1007=
200812180815 METAR LIRA 180815Z 36001KT 8000 FEW018 SCT200 05/04 Q1007=
200812180800 METAR LIRA INTER CB AQ=
200812180745 METAR LIRA 180745Z 02002KT 8000 FEW018 SCT200 05/04 Q1006=
200812180715 METAR LIRA 180715Z 05001KT 8000 FEW018 SCT200 05/04 Q1006=
200812180645 METAR LIRA 180645Z 09001KT 8000 FEW018 SCT200 04/04 Q1006=
200812180615 METAR LIRA 180615Z 06001KT 8000 FEW070 SCT200 04/03 Q1006=
200812180545 METAR LIRA 180545Z 00000KT 9999 FEW070 SCT200 04/04 Q1005=
200812180515 METAR LIRA 180515Z 27002KT 9999 FEW070 SCT200 05/04 Q1005=
200812180445 METAR LIRA 180445Z 18003KT 9999 FEW060 05/04 Q1004=
200812180415 METAR LIRA 180415Z 22001KT CAVOK 05/04 Q1004=
200812180345 METAR LIRA 180345Z 00000KT CAVOK 06/05 Q1004=
200812180315 METAR LIRA 180315Z 34002KT 9999 FEW070 06/05 Q1004=
200812180245 METAR LIRA 180245Z 07002KT 9999 SCT060 07/05 Q1004=
200812180215 METAR LIRA 180215Z 05001KT 9999 SCT060 07/06 Q1004=
200812180145 METAR LIRA 180145Z 03003KT 9999 FEW040 SCT100 07/06 Q1004=
200812180115 METAR LIRA 180115Z 06004KT 9999 SCT045 07/05 Q1005=
200812180045 METAR LIRA 180045Z 01003KT 9999 SCT045 08/06 Q1005=
200812180015 METAR LIRA 180015Z 34003KT 9999 SCT045 08/06 Q1005=
200812172345 METAR LIRA 172345Z 01003KT 9999 SCT040 08/06 Q1005=
200812172315 METAR LIRA 172315Z 07002KT 9999 FEW018 SCT040 08/06 Q1004=
200812172245 METAR LIRA 172245Z 10004KT 9999 FEW020 SCT040 09/07 Q1005=
200812172215 METAR LIRA 172215Z 36003KT 9999 SCT040 SCT070 09/07 Q1005=
200812172145 METAR LIRA 172145Z 36003KT 9999 SCT035 SCT070 09/07 Q1005=
200812172115 METAR LIRA 172115Z 36002KT 9999 SCT035 09/07 Q1005=
200812172045 METAR LIRA 172045Z 11003KT 9999 SCT035 SCT060 09/07 Q1005=
200812172015 METAR LIRA 172015Z 34002KT 9999 SCT040 10/07 Q1005=
200812171945 METAR LIRA 171945Z 05002KT 9999 FEW020 SCT040 10/07 Q1005=
200812171915 METAR LIRA 171915Z 01003KT 9999 FEW020 SCT035 10/08 Q1006=
200812171845 METAR LIRA 171845Z 06002KT 9999 FEW020 SCT030 10/07 Q1006=
200812171815 METAR LIRA 171815Z 36003KT 9999 FEW020 SCT035 10/07 Q1006=
200812171745 METAR LIRA 171745Z 35003KT 9999 FEW018 SCT030 10/07 Q1006=
200812171715 METAR LIRA 171715Z 00000KT 9999 FEW018 SCT030 11/07 Q1006=
200812171645 METAR LIRA 171645Z 33001KT 9999 FEW016 SCT070 11/06 Q1007=
200812171615 METAR LIRA 171615Z 00000KT 9999 FEW016 SCT030 12/06 Q1007=
200812171545 METAR LIRA 171545Z 26002KT 9999 FEW016 SCT200 13/05 Q1007=
200812171515 METAR LIRA 171515Z 28003KT 9999 FEW018 SCT030 13/05 Q1007=
200812171445 METAR LIRA 171445Z 27002KT 9999 FEW018 SCT200 13/05 Q1007=
200812171415 METAR LIRA 171415Z 24002KT 9999 FEW018 SCT200 13/05 Q1007=
200812171345 METAR LIRA 171345Z 19004KT 9999 SCT018 SCT200 14/04 Q1007=
200812171315 METAR LIRA 171315Z 24005KT 210V280 9999 SCT018 14/05 Q1007=
200812171245 METAR LIRA 171245Z 21003KT 9999 SCT018 14/05 Q1008=
200812171215 METAR LIRA 171215Z 26002KT 9999 SCT018 15/06 Q1008=
200812171145 METAR LIRA 171145Z 22002KT 9999 SCT018 14/07 Q1008=
200812171115 METAR LIRA 171115Z 24003KT 9999 FEW018 12/10 Q1009=
200812171045 METAR LIRA 171045Z 15002KT 9999 FEW018 11/10 Q1009=
200812171015 METAR LIRA 171015Z 06003KT 9999 FEW018 SCT025 11/09 Q1009=
200812170945 METAR LIRA 170945Z 03001KT 9000 FEW018 11/09 Q1009=
200812170915 METAR LIRA 170915Z 35001KT 7000 FEW018 SCT025 10/09 Q1009=
200812170845 METAR LIRA 170845Z 01001KT 7000 FEW018 SCT025 09/09 Q1009=
200812170815 METAR LIRA 170815Z 02002KT 7000 FEW018 SCT025 09/07 Q1009=
200812170800 METAR LIRA INT=
200812170745 METAR LIRA 170745Z 08003KT 7000 FEW018 SCT025 08/07 Q1008=
200812170715 METAR LIRA 170715Z 04002KT 7000 FEW015 SCT023 09/07 Q1008=
200812170645 METAR LIRA 170645Z 04002KT 7000 FEW015 SCT023 09/08 Q1008=
200812170615 METAR LIRA 170615Z 17004KT 8000 FEW018 09/08 Q1008=
200812170545 METAR LIRA 170545Z 16005KT 8000 FEW018 FEW020CB 09/08 Q1007
                        RETS=
200812170515 METAR LIRA 170515Z 10004KT 8000 FEW016 FEW018CB SCT025 09/08
                        Q1007 RETS=
200812170445 METAR LIRA 170445Z 19002KT 9999 TS FEW017CB SCT025 09/08
                        Q1007=
200812170415 METAR LIRA 170415Z 27001KT 9999 FEW018 SCT025 09/08 Q1007=
200812170345 METAR LIRA 170345Z 00000KT 9999 FEW018 BKN030 09/08 Q1007=
200812170315 METAR LIRA 170315Z 06002KT 9999 SCT030 SCT070 09/08 Q1007=
200812170245 METAR LIRA 170245Z 04005KT 020V090 9999 SCT030 09/08 Q1008=
200812170215 METAR LIRA 170215Z 04002KT 9999 FEW020 SCT030 09/08 Q1008=
200812170145 METAR LIRA 170145Z 32002KT 9999 FEW020 SCT035 09/08 Q1009=
200812170115 METAR LIRA 170115Z 09004KT 9999 FEW020 BKN035 09/08 Q1009=
200812170045 METAR LIRA 170045Z 00000KT 4000 RA BR SCT016 BKN020 09/08
                        Q1009=
200812170015 METAR LIRA 170015Z 00000KT 7000 -RA FEW017 SCT020 09/08 Q1009=
200812162345 METAR LIRA 162345Z 00000KT 6000 -RA SCT017 SCT020 09/08 Q1009=
200812162315 METAR LIRA 162315Z 01001KT 9999 FEW030 SCT070 09/08 Q1009=
200812162245 METAR LIRA 162245Z 07001KT 9999 FEW030 SCT070 09/08 Q1009=
200812162215 METAR LIRA 162215Z 05001KT 9999 FEW040 BKN080 09/08 Q1009=
200812162145 METAR LIRA 162145Z 00000KT 9999 FEW035 SCT070 09/08 Q1009=
200812162115 METAR LIRA 162115Z 02002KT 9999 FEW030 SCT070 09/08 Q1009=
200812162045 METAR LIRA 162045Z 00000KT 9999 FEW030 SCT070 10/09 Q1010=
200812162015 METAR LIRA 162015Z 08004KT 9999 FEW030 SCT060 10/09 Q1010=
200812161945 METAR LIRA 161945Z 10009KT 070V130 9999 FEW030 SCT060 10/09
                        Q1010=
200812161915 METAR LIRA 161915Z 07003KT 9999 FEW018 SCT030 BKN070 10/09
                        Q1010=
200812161845 METAR LIRA 161845Z 06001KT 9999 FEW018 SCT030 10/09 Q1010=
200812161815 METAR LIRA 161815Z 00000KT 9999 FEW018 SCT030 10/09 Q1010=
200812161745 METAR LIRA 161745Z 27003KT 9999 FEW017 SCT030 11/09 Q1010=
200812161715 METAR LIRA 161715Z 33002KT 9999 FEW017 SCT030 11/10 Q1010=
200812161645 METAR LIRA 161645Z 18002KT 9999 FEW017 SCT025 12/10 Q1010=
200812161615 METAR LIRA 161615Z 19003KT 9999 FEW017 SCT025 BKN070 12/10
                        Q1010=
200812161545 METAR LIRA 161545Z 16003KT 9999 FEW017 SCT025 BKN070 12/10
                        Q1010=
200812161515 METAR LIRA 161515Z 19002KT 9999 FEW017 SCT030 BKN070 12/10
                        Q1010=
200812161445 METAR LIRA 161445Z 23003KT 9999 SCT015 BKN030 13/09 Q1010=
200812161415 METAR LIRA 161415Z 24003KT 9999 SCT015 SCT030 BKN070 13/09
                        Q1010=
200812161345 METAR LIRA 161345Z 21006KT 150V240 9999 SCT015 SCT025 BKN070
                        13/09 Q1010=
200812161315 METAR LIRA 161315Z 18007KT 9999 FEW015 SCT025 13/09 Q1010=
200812161245 METAR LIRA 161245Z 18011KT 130V210 9999 FEW015 SCT025 13/09
                        Q1010=
200812161215 METAR LIRA 161215Z 17010KT 9999 SCT015 SCT025 12/08 Q1010=
200812161145 METAR LIRA 161145Z 17011KT 130V210 9999 FEW015 SCT025 BKN070
                        12/08 Q1010=
200812161115 METAR LIRA 161115Z 19010KT 140V230 9999 FEW015 SCT025 BKN070
                        12/08 Q1010=
200812161045 METAR LIRA 161045Z 06001KT 9999 -RA FEW015 SCT025 BKN070
                        10/09 Q1010=
200812161015 METAR LIRA 161015Z 05008KT 010V090 9999 -RA FEW015 SCT025
                        BKN070 10/09 Q1010=
200812160945 METAR LIRA 160945Z 06009KT 360V100 9000 -RA FEW014 SCT025
                        BKN070 09/09 Q1011=
200812160915 METAR LIRA 160915Z 07009KT 020V100 5000 -RA BR SCT010 SCT025
                        BKN070 09/08 Q1011=
200812160845 METAR LIRA 160845Z 07011KT 020V110 5000 -RA BR SCT010 FEW018CB
                        BKN070 09/08 Q1011=
200812160815 METAR LIRA 160815Z 06009KT 360V100 5000 -RA BR SCT010 FEW018CB
                        BKN025 09/09 Q1011=
200812160745 METAR LIRA 160745Z 06009KT 010V110 3500 -RA SCT010 FEW018CB
                        BKN070 10/09 Q1010 RETS=
200812160715 METAR LIRA 160715Z 05006KT 010V100 2000 -TSRA BR SCT010 FEW018CB
                        SCT023 10/09 Q1010 RETS=
200812160645 METAR LIRA 160645Z 07006KT 2000 TSRA BR FEW010 SCT015 FEW018CB
                        10/09 Q1010=
200812160615 METAR LIRA 160615Z 31004KT 270V350 2000 TSRA BR FEW010 SCT015
                        FEW018CB 11/10 Q1010=
200812160545 METAR LIRA 160545Z 29012KT 240V350 2500 TSRA BR SCT015 FEW018CB
                        SCT023 12/10 Q1009=
200812160515 METAR LIRA 160515Z 22013KT 140V270 6000 -RA SCT015 FEW018CB
                        SCT070 13/11 Q1009=
200812160445 METAR LIRA 160445Z 14016KT 090V180 6000 -RA SCT015 FEW018CB
                        SCT070 14/10 Q1008=
200812160415 METAR LIRA 160415Z 14020KT 090V180 8000 -RA FEW015 FEW018CB
                        SCT070 14/09 Q1008=
200812160345 METAR LIRA 160345Z 14016KT 100V180 9999 -RA FEW015 FEW018CB
                        SCT070 15/09 Q1008=
200812160315 METAR LIRA 160315Z 14022G32KT 090V180 9999 -RA FEW015 FEW018CB
                        SCT070 15/09 Q1008=
200812160245 METAR LIRA 160245Z 13019G29KT 090V180 9999 FEW015 FEW018CB
                        SCT025 15/10 Q1009=
200812160215 METAR LIRA 160215Z 14016G28KT 090V170 9999 SCT015 FEW018CB
                        BKN025 14/09 Q1009 RETS=
200812160145 METAR LIRA 160145Z 14013KT 090V180 8000 SCT015 FEW018CB BKN025
                        14/10 Q1009 RETS=
200812160115 METAR LIRA 160115Z 13020KT 100V170 8000 -TSRA SCT015 FEW018CB
                        BKN025 14/09 Q1009=
200812160045 METAR LIRA 160045Z 13019G31KT 100V180 6000 -TSRA SCT015 FEW018CB
                        BKN025 14/10 Q1009=
200812160015 METAR LIRA 160015Z 14019KT 100V180 6000 -TSRA SCT015 FEW018CB
                        BKN025 13/10 Q1009=
200812152350 METAR LIRA 160045Z 13019G31KT 100V180 6000 -TSRA SCT015 FEW018CB
                        BKN025 14/10 Q1009=
200812152345 METAR LIRA 152345Z 12015KT 090V160 7000 -TSRA SCT015 FEW018CB
                        BKN025 14/11 Q1009=
200812152315 METAR LIRA 152315Z 12016G26KT 050V140 7000 -TSRA SCT015 FEW018CB
                        BKN025 13/09 Q1009=
200812152245 METAR LIRA 152245Z 09008KT 050V140 7000 -TSRA SCT015 FEW018CB
                        BKN025 12/10 Q1010=
200812152215 METAR LIRA 152215Z 13016KT 070V180 7000 -TSRA SCT015 FEW018CB
                        BKN025 12/10 Q1010=
200812152145 METAR LIRA 152145Z 09008KT 050V150 7000 -TSRA SCT015 FEW018CB
                        BKN025 13/10 Q1010=
200812152115 METAR LIRA 152115Z 13017G27KT 090V180 6000 -TSRA SCT015 FEW018CB
                        BKN025 14/10 Q1010=
200812152045 METAR LIRA 152045Z 13010KT 080V160 8000 -TSRA FEW015 FEW018CB
                        BKN025 14/10 Q1010=
200812152015 METAR LIRA 152015Z 13013KT 8000 -TSRA FEW015 FEW018CB BKN025
                        14/10 Q1010=
200812151945 METAR LIRA 151945Z 14013G27KT 100V160 9999 FEW018 SCT030
                        BKN070 13/08 Q1010=
200812151915 METAR LIRA 151915Z 12015KT 050V160 9999 FEW018 SCT030 BKN070
                        12/07 Q1010=
200812151845 METAR LIRA 151845Z 09009KT 040V130 9999 FEW018 SCT030 BKN070
                        12/07 Q1010=
200812151815 METAR LIRA 151815Z 11007KT 060V140 8000 FEW018 SCT030 BKN070
                        12/08 Q1009=
200812151745 METAR LIRA 151745Z 12012G22KT 070V160 8000 FEW018 SCT030
                        BKN070 12/08 Q1009=
200812151715 METAR LIRA 151715Z 09010KT 070V130 8000 FEW018 SCT030 BKN070
                        12/08 Q1010=
200812151645 METAR LIRA 151645Z 09010KT 080V130 8000 FEW015 FEW018CB SCT030
                        12/08 Q1009=
200812151615 METAR LIRA 151615Z 10009KT 070V150 8000 FEW015 FEW018CB SCT030
                        13/09 Q1009=
200812151545 METAR LIRA 151545Z 11013KT 100V150 6000 FEW015 FEW017CB SCT025
                        13/08 Q1009=
200812151515 METAR LIRA 151515Z 13011KT 6000 FEW015 FEW017CB BKN025 13/08
                        Q1009 RETS=
200812151445 METAR LIRA 151445Z 15011KT 6000 FEW015 FEW017CB BKN025 11/09
                        Q1009 RETS=
200812151415 METAR LIRA 151415Z 14013KT 5000 -TSRA BR FEW010 SCT015 FEW017CB
                        11/09 Q1009 RETS=
200812151345 METAR LIRA 151345Z 14016G26KT 2000 R15//// -TSRA BR SCT010
                        SCT015 SCT017CB 10/09 Q1008 RETS=
200812151315 METAR LIRA 151315Z 13012KT 100V190 3000 1300S R15//// TSRA
                        BR SCT010 SCT015 SCT017CB 11/09 Q1009=
200812151245 METAR LIRA 151245Z 17019KT 120V200 3000 1300S R15//// TSRA
                        BR FEW010 SCT015 FEW017CB BKN025
                        11/10 Q1008=
200812151215 METAR LIRA 151215Z 15016KT 3000 1300S TSRA BR FEW010 SCT015
                        FEW017CB 12/10 Q1008=
200812151145 METAR LIRA 151145Z 15015KT 4000 1500S -TSRA BR FEW010 SCT015
                        FEW017CB 13/10 Q1007=
200812151115 METAR LIRA 151115Z 15017KT 120V200 4000 -RA BR FEW010 SCT015
                        FEW017CB BKN025 14/11 Q1007=
200812151045 METAR LIRA 151045Z 13015G26KT 130V210 3000 -RA BR FEW010
                        SCT015 FEW017CB BKN025 14/10 Q1007=
200812151015 METAR LIRA 151015Z 15013KT 4000 -RA BR FEW010 SCT015 FEW017CB
                        BKN025 13/10 Q1007 RERA=
200812150945 METAR LIRA 150945Z 15012KT 3000 -RA BR FEW010 SCT015 FEW017CB
                        BKN025 13/11 Q1007=
200812150915 METAR LIRA 150915Z 17011KT 120V210 2000 RA BR FEW010 SCT015
                        FEW017CB BKN025 13/10 Q1007=
200812150845 METAR LIRA 150845Z 15012KT 5000 -RA BR FEW010 FEW017CB BKN025
                        12/10 Q1007=
200812150815 METAR LIRA 150815Z 21013KT 140V230 5000 -RA BR FEW010 FEW017CB
                        SCT025 12/10 Q1006 RERA=
200812150745 METAR LIRA 150745Z 14011KT 4000 -RA BR FEW010 SCT015 FEW016CB
                        BKN025 12/10 Q1006 RERA=
200812150715 METAR LIRA 150715Z 16016KT 2000 RA BR FEW010 SCT015 FEW016CB
                        BKN025 12/10 Q1006=
200812150645 METAR LIRA 150645Z 18014KT 130V210 2000 RA BR FEW010 SCT015
                        FEW016CB BKN025 12/10 Q1005=
200812150615 METAR LIRA 150615Z 16017G27KT 120V200 4000 -RA BR FEW015
                        BKN025 11/09 Q1004=
200812150545 METAR LIRA 150545Z 14015KT 100V170 5000 -RA BR FEW015 BKN025
                        11/10 Q1004 RERA=
200812150515 METAR LIRA 150515Z 15014KT 7000 -RA FEW015 SCT025 BKN070
                        11/09 Q1004=
200812150445 METAR LIRA 150445Z 17016KT 130V200 4000 RA BR FEW015 SCT025
                        BKN070 12/08 Q1004=
200812150415 METAR LIRA 150415Z 15020G30KT 6000 RA FEW015 SCT025 BKN070
                        12/08 Q1004=
200812150345 METAR LIRA 150345Z 15020G30KT 110V180 6000 RA FEW015 SCT025
                        BKN070 11/08 Q1004=
200812150315 METAR LIRA 150315Z 14015KT 100V180 6000 RA FEW015 SCT025
                        BKN070 11/08 Q1004=
200812150245 METAR LIRA 150245Z 15015KT 120V190 7000 -RA FEW015 SCT025
                        BKN070 11/08 Q1004=
200812150215 METAR LIRA 150215Z 16015KT 8000 -RA FEW018 BKN070 11/08 Q1004=
200812150145 METAR LIRA 150145Z 14013KT 8000 RA FEW018 BKN070 11/07 Q1005=
200812150115 METAR LIRA 150115Z 15020KT 8000 -RA FEW018 BKN070 11/08 Q1005=
200812150045 METAR LIRA 150045Z 14013KT 8000 -RA FEW018 BKN070 11/07 Q1005=
200812150015 METAR LIRA 150015Z 13011KT 110V170 8000 -RA FEW018 BKN070
                        11/07 Q1005=
200812142350 METAR LIRA 150045Z 14013KT 8000 -RA FEW018 BKN070 11/07 Q1005=
200812142345 METAR LIRA 142345Z 13021G33KT 090V180 8000 -RA FEW018 BKN070
                        11/08 Q1005=
200812142315 METAR LIRA 142315Z 13016G27KT 090V160 8000 -RA FEW018 BKN070
                        11/09 Q1005=
200812142245 METAR LIRA 142245Z 13010KT 7000 -RA FEW018 BKN070 11/08 Q1005=
200812142215 METAR LIRA 142215Z 14019KT 090V180 7000 -RA SCT018 BKN070
                        12/08 Q1005 WS RWY 15=
200812142145 METAR LIRA 142145Z 16017KT 110V180 9999 FEW018 BKN070 12/08
                        Q1005 WS RWY 15=
200812142115 METAR LIRA 142115Z 15018G28KT 090V180 9999 FEW018 BKN070
                        12/08 Q1005=
200812142045 METAR LIRA 142045Z 13021G31KT 9999 FEW018 BKN070 12/09 Q1005=
200812142015 METAR LIRA 142015Z 14013KT 060V160 9999 SCT018 SCT025 BKN070
                        12/08 Q1005=
200812141945 METAR LIRA 141945Z 14014G30KT 9999 -DZ SCT018 SCT025 BKN070
                        12/07 Q1005=
200812141915 METAR COR LIRA 141915Z 14013G26KT 110V180 9999 -DZ SCT018
                        BKN070 12/07 Q1005=
200812141845 METAR LIRA 141845Z 13011KT 9999 FEW018 SCT070 12/06 Q1005=
200812141815 METAR LIRA 141815Z 13011KT 110V170 9999 FEW018 SCT070 12/06
                        Q1005=
200812141745 METAR LIRA 141745Z 13012KT 090V180 9999 FEW018 SCT070 12/06
                        Q1005=
200812141715 METAR LIRA 141715Z 14014KT 090V180 9999 FEW018 SCT070 12/05
                        Q1005=
200812141645 METAR LIRA 141645Z 12009KT 090V170 9999 FEW018 SCT070 12/07
                        Q1005=
200812141615 METAR LIRA 141615Z 13010KT 090V160 9999 FEW018 SCT070 12/06
                        Q1005=
200812141545 METAR LIRA 141545Z 12009KT 9999 FEW018 SCT070 13/05 Q1005=
200812141515 METAR LIRA 141515Z 12013KT 9999 FEW018 SCT070 13/06 Q1005=
200812141445 METAR LIRA 141445Z 12011KT 9999 FEW018 SCT070 13/05 Q1005=
200812141415 METAR LIRA 141415Z 12012KT 090V170 9999 FEW018 SCT070 14/06
                        Q1005=
200812141345 METAR LIRA 141345Z 13015KT 090V180 9999 FEW018 SCT040 14/06
                        Q1005=
200812141315 METAR LIRA 141315Z 13015KT 9999 FEW018 SCT040 14/05 Q1005=
200812141245 METAR LIRA 141245Z 15013KT 120V180 9999 FEW018 SCT070 14/06
                        Q1005=
200812141215 METAR LIRA 141215Z 15015KT 9999 FEW018 SCT070 14/06 Q1006=
200812141145 METAR LIRA 141145Z 14014KT 9999 FEW018 SCT070 14/05 Q1006=
200812141115 METAR LIRA 141115Z 15016KT 120V200 9999 FEW020 SCT070 13/05
                        Q1006=
200812141045 METAR LIRA 141045Z 16013KT 9999 FEW020 SCT070 13/05 Q1007=
200812141015 METAR LIRA 141015Z 16013KT 120V200 9999 FEW020 SCT200 13/05
                        Q1007=
200812140945 METAR LIRA 140945Z 16010KT 120V210 9999 FEW020 11/06 Q1007=
200812140915 METAR LIRA 140915Z 15013KT 9999 FEW020 10/05 Q1007=
200812140845 METAR LIRA 140845Z 23001KT 9999 FEW020 09/05 Q1007=
200812140815 METAR LIRA 140815Z 27002KT 9999 FEW020 SCT200 09/04 Q1007=
200812140745 METAR LIRA 140745Z 30005KT 9999 FEW020 SCT200 09/05 Q1007=
200812140715 METAR LIRA 140715Z 30004KT 270V350 9999 FEW020 SCT080 08/05
                        Q1007=
200812140645 METAR LIRA 140645Z 23008KT 180V270 9999 FEW020 SCT080 07/04
                        Q1007=
200812140615 METAR LIRA 140615Z 34003KT 9999 FEW020 SCT070 06/04 Q1007=
200812140545 METAR LIRA 140545Z 35003KT 9999 FEW025 BKN070 06/04 Q1008=
200812140515 METAR LIRA 140515Z 34003KT 9999 FEW025 BKN070 07/04 Q1008=
200812140445 METAR LIRA 140445Z 00000KT 9999 FEW018 BKN070 07/04 Q1009=
200812140415 METAR LIRA 140415Z 29002KT 9999 FEW018 SCT070 07/04 Q1010=
200812140345 METAR LIRA 140345Z 25004KT 9999 FEW018 SCT070 07/04 Q1010=
200812140315 METAR LIRA 140315Z 25005KT 9999 FEW018 SCT070 07/04 Q1010=
200812140245 METAR LIRA 140245Z 24004KT 9999 FEW018 SCT070 07/04 Q1010=
200812140215 METAR LIRA 140215Z 22004KT 9999 FEW018 SCT070 07/04 Q1010=
200812140115 METAR LIRA 140115Z 24010KT 9999 FEW020 SCT070 07/05 Q1010=
200812140045 METAR LIRA 140045Z 24009KT 9999 FEW020 SCT070 07/05 Q1010=
200812140015 METAR LIRA 140015Z 24009KT 9999 FEW030 SCT070 07/05 Q1011=
200812132345 METAR LIRA 132345Z 24009KT 9999 FEW030 SCT070 08/04 Q1011=
200812132315 METAR LIRA 132315Z 23005KT 120V250 9999 FEW020 SCT070 08/04
                        Q1011=
200812132245 METAR LIRA 132245Z 21007KT 9999 FEW030 SCT070 08/05 Q1011=
200812132215 METAR LIRA 132215Z 21007KT 9999 FEW020 08/05 Q1011=
200812132145 METAR LIRA 132145Z 21005KT 9999 FEW020 09/06 Q1011=
200812132115 METAR LIRA 132115Z 21007KT 9999 FEW020 09/06 Q1011=
200812132045 METAR LIRA 132045Z 20007KT 9999 FEW020 SCT030 10/07 Q1011=
200812132015 METAR LIRA 132015Z 20007KT 9999 FEW020 SCT030 10/07 Q1011=
200812131945 METAR LIRA 131945Z 19005KT 9999 FEW020 SCT030 09/07 Q1011=
200812131915 METAR LIRA 131915Z 20006KT 8000 FEW020 SCT030 09/07 Q1011=
200812131845 METAR LIRA 131845Z 19004KT 8000 FEW020 SCT030 10/08 Q1011
                        RERA=
200812131815 METAR LIRA 131815Z 20006KT 8000 FEW020 SCT030 10/08 Q1010
                        RERA=
200812131745 METAR LIRA 131745Z 20008KT 8000 -RA FEW020 SCT030 10/08 Q1010=
200812131715 METAR LIRA 131715Z 19007KT 6000 -RA FEW020 BKN030 10/07 Q1010=
200812131645 METAR LIRA 131645Z 19006KT 8000 -RA FEW020 BKN030 10/08 Q1010=
200812131615 METAR LIRA 131615Z 20008KT 8000 -RA FEW020 BKN030 11/07 Q1010=
200812131545 METAR LIRA 131545Z 19009KT 8000 -RA FEW020 BKN030 11/08 Q1009=
200812131515 METAR LIRA 131515Z 19007KT 170V240 9999 -RA FEW020 BKN035
                        12/08 Q1009=
200812131445 METAR LIRA 131445Z 19006KT 9999 FEW020 BKN040 12/07 Q1009=
200812131415 METAR LIRA 131415Z 20004KT 9999 FEW020 BKN040 12/07 Q1009=
200812131345 METAR LIRA 131345Z 21004KT 9999 FEW020 SCT040 12/06 Q1009=
200812131315 METAR LIRA 131315Z 20004KT 9999 FEW020 SCT040 12/06 Q1009=
200812131245 METAR LIRA 131245Z 22004KT 9999 FEW020 SCT070 12/08 Q1010=
200812131215 METAR LIRA 131215Z 23004KT 9999 FEW020 11/08 Q1010=
200812131145 METAR LIRA 131145Z 20005KT 9999 FEW020 09/07 Q1010=
200812131115 METAR LIRA 131115Z 20002KT 9999 FEW020 08/07 Q1011=
200812131045 METAR LIRA 131045Z 00000KT 9999 FEW020 07/06 Q1011=
200812131015 METAR LIRA 131015Z 34002KT 9999 FEW020 06/05 Q1011=
200812130945 METAR LIRA 130945Z 34001KT 9999 FEW020 05/04 Q1010=
200812130915 METAR LIRA 130915Z 32001KT 9999 FEW080 05/04 Q1010=
200812130845 METAR LIRA 130845Z 00000KT 9999 FEW080 04/03 Q1010=
200812130815 METAR LIRA 130815Z 31002KT 9999 FEW080 03/02 Q1010=
200812130745 METAR LIRA 130745Z 04003KT 7000 FEW080 03/02 Q1009=
200812130715 METAR LIRA 130715Z 32002KT 3000 MIFG FEW070 03/02 Q1009=
200812130645 METAR LIRA 130645Z 00000KT 0300 R15//// BCFG FEW010 03/02
                        Q1009=
200812130615 METAR LIRA 130615Z 00000KT 0600 R15//// BCFG FEW010 03/03
                        Q1008=
200812130545 METAR LIRA 130545Z 00000KT 0900 R15//// BCFG SCT002 03/03
                        Q1008=
200812130515 METAR LIRA 130515Z 00000KT 0500 R15//// FG BKN001 03/03 Q1007=
200812130445 METAR LIRA 130445Z 35003KT 0400 R15//// BCFG BKN001 04/03
                        Q1006=
200812130415 METAR LIRA 130415Z 32001KT 7000 FEW070 04/03 Q1006=
200812130345 METAR LIRA 130345Z 28004KT 8000 SCT070 04/03 Q1006=
200812130315 METAR LIRA 130315Z 26005KT 6000 FEW010 SCT060 05/04 Q1006=
200812130245 METAR LIRA 130245Z 00000KT 0800 R15//// FG BKN002 05/04 Q1006=
200812130215 METAR LIRA 130215Z 33001KT 0800 R15//// FG BKN002 05/04 Q1006=
200812130145 METAR LIRA 130145Z 34003KT 5000 BR SCT004 05/05 Q1006=
200812130115 METAR LIRA 130115Z 34003KT 5000 BR FEW005 SCT070 06/05 Q1006=
200812130045 METAR LIRA 130045Z 06003KT 9999 FEW025 SCT060 06/05 Q1006=
200812130015 METAR LIRA 130015Z 08003KT 9999 FEW025 BKN060 06/05 Q1005=
200812122345 METAR LIRA 122345Z 07003KT 9999 FEW030 SCT060 06/05 Q1005=
200812122315 METAR LIRA 122315Z 06003KT 9999 FEW030 SCT060 07/05 Q1005=
200812122245 METAR LIRA 122245Z 02003KT 9999 FEW030 SCT060 07/05 Q1005=
200812122215 METAR LIRA 122215Z 01003KT 340V050 9999 FEW020 SCT060 07/05
                        Q1005=
200812122145 METAR LIRA 122145Z 04003KT 9999 FEW020 SCT060 07/05 Q1004=
200812122115 METAR LIRA 122115Z 03002KT 9999 SCT030 SCT060 07/05 Q1004=
200812122045 METAR LIRA 122045Z 04004KT 8000 FEW018 BKN025 07/05 Q1004=
200812122015 METAR LIRA 122015Z 02002KT 8000 SCT025 SCT070 07/06 Q1004=
200812121945 METAR LIRA 121945Z 04003KT 8000 FEW018 SCT030 BKN060 07/06
                        Q1003=
200812121915 METAR LIRA 121915Z 04003KT 8000 SCT018 SCT030 07/06 Q1003=
200812121845 METAR LIRA 121845Z 03003KT 8000 SCT018 SCT030 07/06 Q1003=
200812121815 METAR LIRA 121815Z 32003KT 8000 SCT018 SCT030 07/07 Q1003=
200812121745 METAR LIRA 121745Z 32004KT 7000 SCT018 SCT030 07/07 Q1002=
200812121715 METAR LIRA 121715Z 31005KT 7000 SCT018 BKN025 08/07 Q1002=
200812121645 METAR LIRA 121645Z 33002KT 4000 -RA BR FEW005 BKN020 08/07
                        Q1001=
200812121615 METAR LIRA 121615Z 30002KT 4000 -RA BR FEW005 BKN020 08/06
                        Q1001=
200812121545 METAR LIRA 121545Z 35003KT 6000 -RA FEW005 SCT015 BKN021
                        08/06 Q1000=
200812121515 METAR LIRA 121515Z 34004KT 6000 -RA FEW005 SCT015 BKN021
                        09/07 Q1000=
200812121445 METAR LIRA 121445Z 33003KT 7000 -RA FEW005 SCT015 BKN023
                        09/07 Q1000=
200812121415 METAR LIRA 121415Z 24002KT 8000 -RA SCT015 BKN023 08/07 Q0999=
200812121345 METAR LIRA 121345Z 21005KT 6000 -RA SCT014 BKN021 09/07 Q0999=
200812121315 METAR LIRA 121315Z 19006KT 160V220 5000 -RA BR SCT014 BKN021
                        08/07 Q0999=
200812121245 METAR LIRA 121245Z 17010KT 140V200 4000 -RA BR SCT014 BKN020
                        08/07 Q0999=
200812121215 METAR LIRA 121215Z 19010KT 6000 -RA SCT014 BKN021 08/07 Q0999=
200812121145 METAR LIRA 121145Z 19009KT 140V220 6000 -RA SCT014 BKN021
                        08/07 Q0999=
200812121115 METAR LIRA 121115Z 19008KT 6000 -RA SCT014 BKN021 08/07 Q1000=
200812121045 METAR LIRA 121045Z 19009KT 6000 -RA SCT014 BKN021 08/07 Q1000=
200812121015 METAR LIRA 121015Z 18007KT 150V220 6000 -RA SCT014 BKN021
                        08/07 Q1000=
200812120945 METAR LIRA 120945Z 18007KT 6000 -RA SCT014 BKN021 08/07 Q1000=
200812120915 METAR LIRA 120915Z 19006KT 6000 -RA SCT014 BKN021 08/07 Q1000=
200812120845 METAR LIRA 120845Z 18006KT 6000 -RA SCT014 BKN021 07/06 Q1000=
200812120815 METAR LIRA 120815Z 18007KT 150V220 6000 -RA SCT014 BKN021
                        08/07 Q1000=
200812120745 METAR LIRA 120745Z 18005KT 6000 -RA SCT014 BKN021 08/07 Q1000=
200812120715 METAR LIRA 120715Z 21005KT 170V240 6000 -RA SCT014 BKN021
                        08/07 Q1000=
200812120645 METAR LIRA 120645Z 20005KT 160V240 6000 -RA SCT014 BKN021
                        08/06 Q1000=
200812120615 METAR LIRA 120615Z 22005KT 180V260 6000 -RA SCT014 BKN021
                        07/06 Q1000=
200812120545 METAR LIRA 120545Z 19005KT 170V230 6000 -RA SCT014 BKN021
                        07/06 Q1000=
200812120515 METAR LIRA 120515Z 20008KT 180V240 6000 -RA SCT014 BKN021
                        07/07 Q1000=
200812120445 METAR LIRA 120445Z 21007KT 170V250 5000 -RA BR SCT014 BKN020
                        07/07 Q1000=
200812120415 METAR LIRA 120415Z 23006KT 140V280 4000 -RA BR SCT014 BKN020
                        07/07 Q1000=
200812120345 METAR LIRA 120345Z 23005KT 160V270 4000 -RA BR SCT014 BKN020
                        08/07 Q1000=
200812120315 METAR LIRA 120315Z 22004KT 180V260 5000 -RA BR SCT014 BKN020
                        08/07 Q1000=
200812120245 METAR LIRA 120245Z 22006KT 180V270 4000 -RA BR SCT014 BKN020
                        08/07 Q1000=
200812120215 METAR LIRA 120215Z 20007KT 4000 -RA BR SCT014 BKN020 08/06
                        Q1000=
200812120145 METAR LIRA 120145Z 23004KT 4000 -RA BR SCT014 BKN020 08/06
                        Q1000=
200812120115 METAR LIRA 120115Z 24005KT 180V280 4000 -RA BR SCT014 BKN020
                        09/08 Q1000=
200812120045 METAR LIRA 120045Z 25006KT 180V310 4000 -RA BR SCT014 BKN020
                        09/08 Q1000=
200812120015 METAR LIRA 120015Z 25006KT 210V290 3000 -RA BR FEW006 SCT012
                        BKN020 09/08 Q1000=
200812112345 METAR LIRA 112345Z 25007KT 220V300 3000 -RA BR FEW006 SCT012
                        BKN020 10/09 Q1000=
200812112315 METAR LIRA 112315Z 23006KT 170V290 3000 -RA BR FEW006 SCT012
                        BKN020 10/09 Q1000=
200812112245 METAR LIRA 112245Z 22006KT 180V280 3000 -RA BR FEW006 SCT011
                        BKN020 10/09 Q1000=
200812112215 METAR LIRA 112215Z 19004KT 5000 -RA BR SCT015 BKN020 10/09
                        Q1000=
200812112145 METAR LIRA 112145Z 19004KT 5000 -RA BR SCT015 BKN020 10/09
                        Q1000=
200812112115 METAR LIRA 112115Z 18005KT 8000 -RA SCT015 BKN020 10/09 Q1000=
200812112045 METAR LIRA 112045Z 23004KT 9000 -RA FEW015 BKN020 10/09 Q1000=
200812112015 METAR LIRA 112015Z 21004KT 7000 -RA FEW015 BKN020 10/09 Q1000=
200812111945 METAR LIRA 111945Z 27005KT 5000 -RA BR SCT015 BKN020 10/09
                        Q1000=
200812111915 METAR LIRA 111915Z 22005KT 5000 -RA BR SCT015 BKN020 10/09
                        Q1000=
200812111845 METAR LIRA 111845Z 19007KT 5000 -RA BR SCT015 BKN020 10/09
                        Q1000=
200812111815 METAR LIRA 111815Z 19007KT 5000 -RA BR SCT015 BKN020 10/09
                        Q1000=
200812111745 METAR LIRA 111745Z 27006KT 230V310 9999 -RA SCT018 BKN025
                        10/09 Q1000=
200812111715 METAR LIRA 111715Z 31003KT 9999 FEW015 BKN035 10/09 Q1000=
200812111645 METAR LIRA 111645Z 00000KT 9999 FEW015 BKN035 11/09 Q1000=
200812111615 METAR LIRA 111615Z 29002KT 9999 FEW015 BKN035 11/09 Q0999=
200812111545 METAR LIRA 111545Z 35004KT 9999 -RA FEW015 BKN035 11/08 Q0999=
200812111515 METAR LIRA 111515Z 11007KT 080V170 9999 -RA FEW015 BKN035
                        11/09 Q0999=
200812111445 METAR LIRA 111445Z 21004KT 9999 -RA FEW015 BKN030 11/09 Q0999=
200812111415 METAR LIRA 111415Z 00000KT 9999 -RA FEW015 SCT030 BKN090
                        11/09 Q0999=
200812111345 METAR LIRA 111345Z 25005KT 8000 -RA FEW015 SCT030 BKN080
                        11/09 Q0998=
200812111315 METAR LIRA 111315Z 26004KT 8000 -RA FEW015 SCT030 BKN080
                        11/08 Q0998=
200812111245 METAR LIRA 111245Z 27006KT 230V310 9999 -RA FEW015 SCT030
                        BKN080 12/08 Q0998=
200812111215 METAR LIRA 111215Z 24016KT 9999 -RA FEW015 SCT030 BKN080
                        12/08 Q0999=
200812111145 METAR LIRA 111145Z 23022KT 190V270 9999 -RA FEW015 SCT030
                        BKN070 13/08 Q0999=
200812111115 METAR LIRA 111115Z 16017G27KT 120V210 9999 -RA FEW015 SCT030
                        BKN070 13/09 Q1000=
200812111045 METAR LIRA 111045Z 21012KT 9999 -RA FEW015 BKN030 12/08 Q1000=
200812111015 METAR LIRA 111015Z 20006KT 130V230 9999 -RA FEW015 BKN030
                        11/08 Q1001=
200812110945 METAR LIRA 110945Z 01003KT 9999 -RA FEW015 BKN030 10/09 Q1001=
200812110915 METAR LIRA 110915Z 33002KT 270V350 9999 SCT015 SCT025 BKN090
                        10/09 Q1001=
200812110845 METAR LIRA 110845Z 34001KT 9999 SCT015 SCT025 BKN090 10/09
                        Q1001=
200812110815 METAR LIRA 110815Z 35002KT 9999 SCT015 SCT025 BKN090 10/09
                        Q1001=
200812110745 METAR LIRA 110745Z 30004KT 270V020 9999 -RA SCT015 FEW018CB
                        BKN090 10/09 Q1001=
200812110715 METAR LIRA 110715Z 27006KT 6000 -TSRA SCT010 FEW015CB BKN080
                        11/10 Q1002 RETS=
200812110645 METAR LIRA 110645Z 22007KT 200V290 6000 -TSRA SCT009 SCT015CB
                        BKN070 10/09 Q1002 RETS=
200812110615 METAR LIRA 110615Z 20007KT 3000 TSRA BR SCT005 SCT015CB BKN022
                        09/08 Q1002=
200812110545 METAR LIRA 110545Z 20008KT 180V260 3000 TSRA BR SCT005 SCT015CB
                        BKN022 09/08 Q1003=
200812110515 METAR LIRA 110515Z 24001KT 3000 TSRA BR SCT005 SCT015CB BKN022
                        10/09 Q1003=
200812110445 METAR LIRA 110445Z 32009KT 280V350 3000 TSRA SCT005 SCT015CB
                        BKN022 10/09 Q1003=
200812110415 METAR LIRA 110415Z 32009KT 270V360 8000 -TSRA SCT008 SCT015CB
                        BKN022 10/09 Q1002=
200812110345 METAR LIRA 110345Z 30009KT 260V360 6000 -TSRA SCT007 SCT015CB
                        BKN022 10/09 Q1003=
200812110315 METAR LIRA 110315Z 34009KT 270V090 6000 -TSRA SCT005 SCT015CB
                        BKN022 10/09 Q1004=
200812110245 METAR LIRA 110245Z 29009KT 250V360 6000 -TSRA SCT005 SCT015CB
                        BKN022 10/09 Q1005 RETS=
200812110215 METAR LIRA 110215Z 32007KT 300V360 4000 -TSRA SCT005 SCT015CB
                        BKN022 11/09 Q1005 RETS=
200812110145 METAR LIRA 110145Z 35012KT 260V010 3000 TSRA SCT005 SCT012CB
                        BKN022 11/09 Q1005=
200812110115 METAR LIRA 110115Z 04011G24KT 300V120 3000 TSRA SCT005 SCT012CB
                        BKN022 11/09 Q1004=
200812110045 METAR LIRA 110045Z 30017KT 240V330 3000 -TSRA BR SCT007 SCT010CB
                        BKN025 12/09 Q1005=
200812110015 METAR LIRA 110015Z 24005KT 090V360 2500 -TSRA BR SCT007 SCT010CB
                        BKN025 12/08 Q1006=
200812102345 METAR LIRA 102345Z 21011KT 180V270 4000 -TSRA BR SCT010 SCT015CB
                        BKN025 13/10 Q1006=
200812102315 METAR LIRA 102315Z 19010KT 8000 -TSRA SCT015 FEW017CB SCT025
                        13/11 Q1006=
200812102245 METAR LIRA 102245Z 22016KT 7000 -TSRA SCT015 SCT017CB 13/11
                        Q1006=
200812102215 METAR LIRA 102215Z 19016KT 5000 -TSRA SCT015 SCT017CB 13/11
                        Q1006=
200812102145 METAR LIRA 102145Z 20016KT 8000 -RA SCT015 FEW020CB SCT070
                        13/11 Q1006=
200812102115 METAR LIRA 102115Z 20019KT 9999 SCT015 FEW020TCU SCT080 14/11
                        Q1006=
200812102045 METAR LIRA 102045Z 20020KT 9999 -RA SCT015 FEW020TCU SCT080
                        14/12 Q1007=
200812102015 METAR LIRA 102015Z 20019G29KT 8000 -RA SCT015 FEW020TCU SCT070
                        14/12 Q1007=
200812101945 METAR LIRA 101945Z 20020KT 8000 -RA SCT015 FEW020TCU SCT070
                        14/11 Q1007=
200812101915 METAR LIRA 101915Z 21020KT 7000 -RA SCT015 FEW020TCU SCT070
                        14/12 Q1007=
200812101845 METAR LIRA 101845Z 20021KT 7000 -RA SCT015 FEW020TCU SCT070
                        14/11 Q1007=
200812101815 METAR LIRA 101815Z 20019G33KT 7000 SCT015 FEW020TCU SCT070
                        14/11 Q1007=
200812101745 METAR LIRA 101745Z 19015KT 7000 -RA SCT015 FEW020TCU SCT070
                        13/11 Q1007=
200812101715 METAR LIRA 101715Z 20014KT 8000 SCT015 FEW020TCU 13/11 Q1008
                        RERA=
200812101645 METAR LIRA 101645Z 19016KT 160V230 6000 -RA SCT015 FEW018CB
                        SCT070 14/11 Q1008 RERA=
200812101615 METAR LIRA 101615Z 20016KT 8000 SCT015 FEW018CB BKN200 14/11
                        Q1008=
200812101545 METAR LIRA 101545Z 20016KT 7000 SCT015 FEW017CB BKN200 14/11
                        Q1008=
200812101515 METAR LIRA 101515Z 18016KT 7000 SCT015 FEW018CB BKN200 14/11
                        Q1008=
200812101445 METAR LIRA 101445Z 19017G27KT 7000 SCT015 FEW018CB BKN200
                        14/11 Q1008=
200812101415 METAR LIRA 101415Z 19017G27KT 7000 -RA FEW010 FEW018CB SCT200
                        14/12 Q1009=
200812101345 METAR LIRA 101345Z 20018KT 6000 -RA FEW010 SCT015 FEW018CB
                        14/12 Q1009=
200812101315 METAR LIRA 101315Z 19019G29KT 6000 -RA FEW010 SCT015 FEW018CB
                        14/11 Q1009=
200812101245 METAR LIRA 101245Z 19022G32KT 6000 -RA FEW010 FEW018CB SCT025
                        14/12 Q1009 RERA=
200812101215 METAR LIRA 101215Z 19017KT 6000 -RA SCT015 FEW018CB SCT025
                        14/12 Q1009 RERA=
200812101145 METAR LIRA 101145Z 19016G26KT 3000 RA BR SCT015 FEW018CB
                        BKN025 13/11 Q1009=
200812101115 METAR LIRA 101115Z 19015G30KT 6000 -RA SCT015 FEW018CB SCT025
                        13/12 Q1010=
200812101045 METAR LIRA 101045Z 20020G30KT 6000 -RA SCT015 FEW018CB SCT025
                        13/12 Q1010 RERA=
200812101015 METAR LIRA 101015Z 18016KT 6000 -RA SCT015 FEW018CB SCT025
                        13/11 Q1010 RERA=
200812100945 METAR LIRA 100945Z 20020KT 3000 RA BR SCT015 FEW018CB BKN025
                        13/11 Q1011=
200812100915 METAR LIRA 100915Z 20018KT 8000 -RA SCT015 FEW018CB SCT025
                        12/11 Q1011=
200812100845 METAR LIRA 100845Z 20022KT 6000 -RA SCT015 FEW018CB SCT025
                        12/10 Q1011=
200812100815 METAR LIRA 100815Z 21022G34KT 7000 -RA SCT015 FEW018CB SCT025
                        12/10 Q1011=
200812100745 METAR LIRA 100745Z 21020G32KT 9999 4000S -RA BR SCT015 FEW018CB
                        SCT025 12/10 Q1011=
200812100715 METAR LIRA 100715Z 20022G36KT 9000 SCT015 FEW018CB SCT070
                        12/10 Q1011=
200812100645 METAR LIRA 100645Z 21024G39KT 7000 -RA SCT015 FEW018CB SCT020
                        12/10 Q1011 RERA=
200812100615 METAR LIRA 100615Z 21023G33KT 4000 R15//// -RA BR SCT016
                        SCT020 12/10 Q1011 RERA=
200812100545 METAR LIRA 100545Z 20021KT 8000 -RA FEW017 SCT025 BKN070
                        12/10 Q1011=
200812100515 METAR LIRA 100515Z 21024G35KT 7000 -RA SCT017 SCT025 BKN070
                        11/09 Q1011=
200812100445 METAR LIRA 100445Z 22020G31KT 190V270 5000 -RA BR FEW017
                        SCT025 BKN070 11/09 Q1011=
200812100415 METAR LIRA 100415Z 22022G32KT 5000 -RA BR FEW017 SCT025 BKN070
                        11/09 Q1011=
200812100345 METAR LIRA 100345Z 21023G33KT 120V260 6000 -RA FEW017 SCT025
                        BKN070 10/08 Q1012=
200812100315 METAR LIRA 100315Z 14018G31KT 120V240 5000 -RA BR FEW017
                        SCT025 BKN070 10/08 Q1012=
200812100245 METAR LIRA 100245Z 15013KT 130V210 6000 -RA FEW017 SCT025
                        BKN070 11/08 Q1014=
200812100215 METAR LIRA 100215Z 14009KT 060V180 7000 -RA FEW017 SCT025
                        BKN070 10/06 Q1014=
200812100145 METAR LIRA 100145Z 12016G29KT 090V250 7000 -RA FEW017 SCT025
                        BKN070 10/06 Q1014=
200812100115 METAR LIRA 100115Z 21014KT 360V280 7000 -RA FEW017 SCT025
                        BKN070 10/05 Q1015=
200812100045 METAR LIRA 100045Z 12009KT 070V180 7000 -RA FEW017 SCT025
                        BKN070 09/05 Q1016=
200812100015 METAR LIRA 100015Z 15010KT 100V270 8000 -RA FEW017 SCT025
                        BKN070 10/04 Q1016=
200812092345 METAR LIRA 092345Z 23007G17KT 100V300 8000 -RA FEW017 SCT025
                        BKN070 10/05 Q1017=
200812092315 METAR LIRA 092315Z 08006KT 260V100 8000 -RA FEW017 SCT025
                        BKN070 10/06 Q1017=
200812092245 METAR LIRA 092245Z 06009KT 270V100 6000 -RA FEW017 SCT022
                        BKN070 11/05 Q1017=
200812092215 METAR LIRA 092215Z 14010KT 6000 -RA FEW017 SCT022 BKN070
                        11/04 Q1018=
200812092145 METAR LIRA 092145Z 15013KT 120V240 8000 -RA SCT025 BKN070
                        10/02 Q1018=
200812092115 METAR LIRA 092115Z 13010KT 060V260 8000 -RA FEW030 BKN070
                        10/02 Q1018=
200812092045 METAR LIRA 092045Z 07005KT 280V120 8000 FEW030 SCT070 10/02
                        Q1019=
200812092015 METAR LIRA 092015Z 12007KT 070V270 8000 FEW030 SCT070 10/01
                        Q1019=
200812091945 METAR LIRA 091945Z 21008KT 080V270 8000 FEW030 SCT070 10/01
                        Q1019=
200812091915 METAR LIRA 091915Z 11008KT 080V270 8000 FEW030 SCT070 09/01
                        Q1020=
200812091845 METAR LIRA 091845Z 12005KT 100V250 8000 FEW030 SCT080 09/01
                        Q1020=
200812091815 METAR LIRA 091815Z 14006KT 100V240 9000 FEW030 BKN200 08/02
                        Q1020=
200812091745 METAR LIRA 091745Z 18007KT 090V250 9000 FEW030 BKN200 08/02
                        Q1020=
200812091715 METAR LIRA 091715Z 18005KT 9000 FEW030 SCT080 08/03 Q1020=
200812091645 METAR LIRA 091645Z 11005KT 9000 FEW030 SCT080 09/03 Q1021=
200812091615 METAR LIRA 091615Z 14006KT 100V230 9000 FEW030 SCT080 10/03
                        Q1021=
200812091545 METAR LIRA 091545Z 16004KT 9999 SCT080 BKN200 11/03 Q1021=
200812091515 METAR LIRA 091515Z 17004KT 9999 FEW080 BKN200 11/03 Q1021=
200812091445 METAR LIRA 091445Z 20006KT 180V240 9999 FEW080 BKN200 12/03
                        Q1021=
200812091415 METAR LIRA 091415Z 22004KT 9999 FEW080 BKN200 12/01 Q1021=
200812091345 METAR LIRA 091345Z 24003KT 9999 FEW080 BKN200 12/02 Q1021=
200812091315 METAR LIRA 091315Z 00000KT 9999 FEW080 BKN200 12/03 Q1022=
200812091245 METAR LIRA 091245Z 31005KT 9999 FEW080 SCT200 12/04 Q1022=
200812091215 METAR LIRA 091215Z 34003KT 9999 FEW080 SCT200 11/04 Q1023=
200812091145 METAR LIRA 091145Z 35004KT 9999 FEW020 SCT200 10/04 Q1023=
200812091115 METAR LIRA 091115Z 35003KT 9999 FEW020 SCT200 09/03 Q1024=
200812091045 METAR LIRA 091045Z 31002KT 9999 FEW020 SCT200 08/02 Q1024=
200812091015 METAR LIRA 091015Z 33002KT 9999 FEW016 SCT200 07/02 Q1025=
200812090945 METAR LIRA 090945Z 35002KT 9999 FEW016 SCT200 06/02 Q1025=
200812090915 METAR LIRA 090915Z 34002KT 9999 FEW016 05/01 Q1025=
200812090845 METAR LIRA 090845Z 34002KT 9999 FEW016 04/01 Q1025=
200812090815 METAR LIRA 090815Z 32002KT 9999 FEW016 03/01 Q1025=
200812090745 METAR LIRA 090745Z 33003KT 9999 FEW016 03/01 Q1024=
200812090715 METAR LIRA 090715Z 03002KT 9999 FEW016 02/00 Q1024=
200812090645 METAR LIRA 090645Z 05002KT 9999 FEW015 02/00 Q1024=
200812090615 METAR LIRA 090615Z 04003KT 9999 FEW015 SCT070 02/00 Q1024=
200812090545 METAR LIRA 090545Z 04002KT 9999 FEW015 SCT070 01/M00 Q1024=
200812090515 METAR LIRA 090515Z 04002KT 9999 FEW015 SCT070 01/M00 Q1024=
200812090445 METAR LIRA 090445Z 31002KT 8000 SCT015 02/01 Q1024=
200812090415 METAR LIRA 090415Z 34003KT 8000 FEW015 02/00 Q1025=
200812090345 METAR LIRA 090345Z 05003KT 8000 FEW015 02/01 Q1025=
200812090315 METAR LIRA 090315Z 06003KT 8000 FEW015 02/01 Q1025=
200812090245 METAR LIRA 090245Z 03003KT 8000 FEW015 02/01 Q1025=
200812090215 METAR LIRA 090215Z 01002KT 8000 FEW015 02/01 Q1025=
200812090145 METAR LIRA 090145Z 04003KT 8000 FEW015 03/02 Q1025=
200812090115 METAR LIRA 090115Z 03003KT 8000 NSC 04/03 Q1025=
200812090045 METAR LIRA 090045Z 02002KT 8000 NSC 04/03 Q1025=
200812090015 METAR LIRA 090015Z 03003KT 8000 SKC 04/03 Q1025=
200812082350 METAR LIRA 090045Z 02002KT 8000 NSC 04/03 Q1025=
200812082345 METAR LIRA 082345Z 06004KT 8000 NSC 04/01 Q1025=
200812082315 METAR LIRA 082315Z 31004KT 8000 NSC 04/02 Q1025=
200812082245 METAR LIRA 082245Z 04003KT 8000 NSC 05/01 Q1025=
200812082215 METAR LIRA 082215Z 28003KT 8000 NSC 05/02 Q1025=
200812082145 METAR LIRA 082145Z 01002KT 8000 NSC 05/02 Q1025=
200812082115 METAR LIRA 082115Z 09003KT 8000 SKC 06/02 Q1025=
200812082045 METAR LIRA 082045Z 24005KT 8000 NSC 06/03 Q1025=
200812082015 METAR LIRA 082015Z 22004KT 8000 SKC 06/03 Q1025=
200812081945 METAR LIRA 081945Z 22002KT 8000 SKC 06/03 Q1025=
200812081915 METAR LIRA 081915Z 23002KT 8000 SKC 06/04 Q1025=
200812081845 METAR LIRA 081845Z 18004KT 8000 SKC 06/03 Q1025=
200812081815 METAR LIRA 081815Z 18003KT CAVOK 07/03 Q1025=
200812081745 METAR LIRA 081745Z 15002KT CAVOK 08/03 Q1025=
200812081715 METAR LIRA 081715Z 20003KT CAVOK 08/03 Q1025=
200812081645 METAR LIRA 081645Z 24004KT 9999 FEW020 10/04 Q1025=
200812081615 METAR LIRA 081615Z 00000KT 9999 FEW020 11/04 Q1025=
200812081545 METAR LIRA 081545Z 35001KT 9999 FEW020 12/03 Q1025=
200812081515 METAR LIRA 081515Z 36002KT 9999 FEW020 12/03 Q1025=
200812081445 METAR LIRA 081445Z 35003KT 9999 FEW020 12/02 Q1025=
200812081415 METAR LIRA 081415Z 04003KT 9999 FEW020 12/02 Q1025=
200812081345 METAR LIRA 081345Z 03005KT 9999 FEW020 12/02 Q1025=
200812081315 METAR LIRA 081315Z 02003KT 9999 FEW020 12/02 Q1025=
200812081245 METAR LIRA 081245Z 04004KT 9999 FEW020 11/02 Q1025=
200812081215 METAR LIRA 081215Z 05004KT 9999 FEW020 11/02 Q1025=
200812081145 METAR LIRA 081145Z 35004KT 9999 FEW020 10/03 Q1026=
200812081115 METAR LIRA 081115Z 01005KT 9999 FEW020 09/02 Q1026=
200812081045 METAR LIRA 081045Z 34005KT 280V060 9999 FEW020 08/02 Q1026=
200812081015 METAR LIRA 081015Z 03006KT 320V070 9999 FEW020 07/02 Q1026=
200812080945 METAR LIRA 080945Z 31007KT 270V020 9999 FEW023 06/02 Q1026=
200812080915 METAR LIRA 080915Z 32005KT 280V360 9999 FEW023 05/02 Q1025=
200812080845 METAR LIRA 080845Z 32004KT 280V360 9999 FEW023 04/02 Q1025=
200812080815 METAR LIRA 080815Z 34004KT 9999 FEW025 03/01 Q1025=
200812080745 METAR LIRA 080745Z 33002KT 9999 FEW025 02/01 Q1024=
200812080715 METAR LIRA 080715Z 31002KT 9999 FEW030 02/01 Q1024=
200812080645 METAR LIRA 080645Z 31002KT 9999 FEW040 02/01 Q1024=
200812080615 METAR LIRA 080615Z 31003KT 9999 FEW040 02/01 Q1024=
200812080545 METAR LIRA 080545Z 33003KT 9999 SCT070 02/01 Q1023=
200812080515 METAR LIRA 080515Z 33002KT 9999 SCT070 02/01 Q1023=
200812080445 METAR LIRA 080445Z 33002KT 9999 SCT070 02/01 Q1022=
200812080415 METAR LIRA 080415Z 32004KT CAVOK 02/01 Q1022=
200812080345 METAR LIRA 080345Z 31004KT CAVOK 02/01 Q1022=
200812080315 METAR LIRA 080315Z 32002KT 300V060 CAVOK 02/01 Q1022=
200812080245 METAR LIRA 080245Z 32003KT CAVOK 02/02 Q1022=
200812080215 METAR LIRA 080215Z 33003KT CAVOK 02/02 Q1022=
200812080145 METAR LIRA 080145Z 32003KT CAVOK 03/02 Q1022=
200812080115 METAR LIRA 080115Z 36003KT CAVOK 03/02 Q1021=
200812080045 METAR LIRA 080045Z 31004KT 310V060 CAVOK 03/02 Q1021=
200812080015 METAR LIRA 080015Z 30004KT CAVOK 04/03 Q1021=
200812072345 METAR LIRA 072345Z 31006KT 280V070 CAVOK 05/04 Q1021=
200812072315 METAR LIRA 072315Z 36006KT 280V080 CAVOK 05/04 Q1021=
200812072245 METAR LIRA 072245Z 34006KT 270V080 CAVOK 05/03 Q1021=
200812072215 METAR LIRA 072215Z 30006KT 260V100 CAVOK 05/03 Q1021=
200812072145 METAR LIRA 072145Z 33005KT 240V070 CAVOK 06/04 Q1021=
200812072115 METAR LIRA 072115Z 34006KT CAVOK 06/04 Q1021=
200812072045 METAR LIRA 072045Z 28004KT CAVOK 06/04 Q1020=
200812072015 METAR LIRA 072015Z 25006KT 240V360 CAVOK 06/05 Q1020=
200812071945 METAR LIRA 071945Z 35005KT CAVOK 07/04 Q1020=
200812071915 METAR LIRA 071915Z 05004KT CAVOK 08/05 Q1020=
200812071845 METAR LIRA 071845Z 02005KT CAVOK 08/05 Q1020=
200812071815 METAR LIRA 071815Z 32003KT CAVOK 08/05 Q1019=
200812071745 METAR LIRA 071745Z 30004KT CAVOK 08/04 Q1019=
200812071715 METAR LIRA 071715Z 30002KT CAVOK 09/05 Q1019=
200812071645 METAR LIRA 071645Z 32004KT CAVOK 10/05 Q1018=
200812071615 METAR LIRA 071615Z 35003KT CAVOK 10/04 Q1018=
200812071545 METAR LIRA 071545Z 35003KT CAVOK 12/05 Q1018=
200812071515 METAR LIRA 071515Z 35004KT 9999 FEW020 12/05 Q1018=
200812071445 METAR LIRA 071445Z 33005KT 9999 FEW020 13/05 Q1017=
200812071415 METAR LIRA 071415Z 32004KT 9999 FEW020 13/05 Q1017=
200812071345 METAR LIRA 071345Z 34003KT 9999 FEW020 13/06 Q1017=
200812071315 METAR LIRA 071315Z 33003KT 9999 FEW020 13/06 Q1017=
200812071245 METAR LIRA 071245Z 35006KT 9999 FEW020 12/06 Q1018=
200812071215 METAR LIRA 071215Z 31003KT 9999 FEW025 12/05 Q1018=
200812071145 METAR LIRA 071145Z 02003KT 9999 FEW025 11/06 Q1018=
200812071115 METAR LIRA 071115Z 03005KT 330V060 9999 FEW025 11/05 Q1018=
200812071045 METAR LIRA 071045Z 03005KT 330V060 9999 FEW025 10/06 Q1018=
200812071015 METAR LIRA 071015Z 03005KT 340V090 9999 FEW060 09/05 Q1018=
200812070945 METAR LIRA 070945Z 03005KT 340V060 9999 FEW060 08/05 Q1017=
200812070915 METAR LIRA 070915Z 04003KT 9999 FEW060 08/05 Q1017=
200812070845 METAR LIRA 070845Z 02002KT 9999 FEW070 05/05 Q1017=
200812070815 METAR LIRA 070815Z 03002KT 9999 FEW070 05/04 Q1017=
200812070745 METAR LIRA 070745Z 35002KT 9999 FEW070 04/03 Q1016=
200812070715 METAR LIRA 070715Z 30003KT 9999 FEW070 04/03 Q1016=
200812070645 METAR LIRA 070645Z 29003KT 9999 FEW070 04/03 Q1016=
200812070615 METAR LIRA 070615Z 29002KT 9999 FEW070 04/03 Q1016=
200812070545 METAR LIRA 070545Z 33002KT 9999 FEW070 04/03 Q1015=
200812070515 METAR LIRA 070515Z 29003KT 9999 FEW070 04/04 Q1015=
200812070445 METAR LIRA 070445Z 29003KT CAVOK 04/04 Q1015=
200812070415 METAR LIRA 070415Z 00000KT 9999 FEW060 05/04 Q1015=
200812070345 METAR LIRA 070345Z 19001KT 9999 FEW060 04/04 Q1014=
200812070315 METAR LIRA 070315Z 10001KT 9999 SCT025 04/04 Q1014=
200812070245 METAR LIRA 070245Z 33001KT 9999 SCT025 05/04 Q1014=
200812070215 METAR LIRA 070215Z 27001KT 9999 FEW060 06/05 Q1014=
200812070145 METAR LIRA 070145Z 00000KT CAVOK 06/05 Q1014=
200812070115 METAR LIRA 070115Z 33002KT 9999 FEW070 06/05 Q1014=
200812070045 METAR LIRA 070045Z 14002KT 9999 FEW060 07/06 Q1013=
200812070015 METAR LIRA 070015Z 07002KT 9999 FEW030 06/05 Q1013=
200812062350 METAR LIRA 070045Z 14002KT 9999 FEW060 07/06 Q1013=
200812062345 METAR LIRA 062345Z 19003KT 9999 FEW030 SCT060 07/05 Q1013=
200812062315 METAR LIRA 062315Z 21001KT 9999 FEW030 SCT060 07/05 Q1013=
200812062245 METAR LIRA 062245Z 23002KT 9999 FEW030 08/05 Q1013=
200812062215 METAR LIRA 062215Z 31002KT 9999 FEW030 SCT060 09/05 Q1013=
200812062145 METAR LIRA 062145Z 00000KT 9999 FEW020 SCT030 09/05 Q1012=
200812062115 METAR LIRA 062115Z 34004KT 9999 FEW020 SCT060 09/06 Q1012=
200812062045 METAR LIRA 062045Z 26003KT 9999 FEW018 SCT060 10/06 Q1012=
200812062015 METAR LIRA 062015Z 32003KT 9999 -RA FEW020 SCT030 10/05 Q1012=
200812061945 METAR LIRA 061945Z 08007KT 260V090 9999 -RA SCT020 SCT030
                        10/05 Q1012=
200812061915 METAR LIRA 061915Z 07006KT 270V100 9999 SCT020 SCT030 11/06
                        Q1012=
200812061845 METAR LIRA 061845Z 33004KT 9999 SCT020 SCT030 11/07 Q1012=
200812061815 METAR LIRA 061815Z 24003KT 9999 SCT025 11/08 Q1011=
200812061745 METAR LIRA 061745Z 23004KT 9999 FEW018 SCT030 12/08 Q1011=
200812061715 METAR LIRA 061715Z 23004KT 9999 FEW018 12/08 Q1011=
200812061645 METAR LIRA 061645Z 20006KT 9999 SCT018 13/09 Q1011=
200812061615 METAR LIRA 061615Z 22006KT 190V260 9999 SCT018 13/08 Q1011=
200812061545 METAR LIRA 061545Z 20005KT 170V260 9999 SCT018 13/08 Q1011=
200812061515 METAR LIRA 061515Z 25007KT 200V300 9999 SCT018 14/08 Q1011=
200812061445 METAR LIRA 061445Z 27007KT 200V340 9999 SCT018 14/07 Q1011=
200812061415 METAR LIRA 061415Z 26009KT 210V330 9999 SCT018 14/07 Q1011=
200812061345 METAR LIRA 061345Z 26010G20KT 210V310 9999 SCT018 14/08 Q1011=
200812061315 METAR LIRA 061315Z 27011KT 230V330 9999 SCT018 14/08 Q1011=
200812061245 METAR LIRA 061245Z 27012KT 210V320 9999 SCT018 14/08 Q1011=
200812061215 METAR LIRA 061215Z 27009KT 220V320 9999 SCT018 14/08 Q1011=
200812061145 METAR LIRA 061145Z 27007KT 190V320 9999 SCT018 14/08 Q1011=
200812061115 METAR LIRA 061115Z 26009G24KT 210V320 9999 SCT018 14/08 Q1011=
200812061045 METAR LIRA 061045Z 26015KT 210V320 9999 SCT018 14/09 Q1011=
200812061015 METAR LIRA 061015Z 25007G19KT 200V330 9999 SCT018 14/09 Q1011=
200812060945 METAR LIRA 060945Z 24008KT 190V310 9999 SCT018 14/08 Q1011=
200812060915 METAR LIRA 060915Z 24008KT 190V310 9999 SCT018 13/08 Q1011=
200812060845 METAR LIRA 060845Z 24008KT 170V270 9999 SCT018 13/08 Q1011=
200812060815 METAR LIRA 060815Z 24007KT 170V260 9999 SCT018 12/08 Q1011=
200812060745 METAR LIRA 060745Z 20005KT 9999 SCT018 11/08 Q1011=
200812060715 METAR LIRA 060715Z 20006KT 9999 SCT018 11/08 Q1011=
200812060645 METAR LIRA 060645Z 18007KT 9999 SCT018 11/08 Q1010=
200812060615 METAR LIRA 060615Z 19006KT 9999 BKN018 11/08 Q1010=
200812060545 METAR LIRA 060545Z 19006KT 9999 SCT018 11/08 Q1010=
200812060515 METAR LIRA 060515Z 19006KT 9999 SCT018 11/08 Q1010=
200812060445 METAR LIRA 060445Z 19007KT 9999 SCT020 10/08 Q1009=
200812060415 METAR LIRA 060415Z 18006KT 9999 SCT020 09/08 Q1009=
200812060345 METAR LIRA 060345Z 22008KT 9999 FEW020 09/07 Q1009=
200812060315 METAR LIRA 060315Z 21007KT 9999 FEW020 10/07 Q1009=
200812060245 METAR LIRA 060245Z 18005KT 9999 SCT017 10/08 Q1010=
200812060215 METAR LIRA 060215Z 18004KT 9999 SCT017 11/09 Q1010=
200812060145 METAR LIRA 060145Z 18005KT 9999 SCT017 11/08 Q1010=
200812060115 METAR LIRA 060115Z 18006KT 9999 SCT017 11/08 Q1009=
200812060045 METAR LIRA 060045Z 18004KT 9999 FEW017 11/08 Q1009=
200812060015 METAR LIRA 060015Z 19005KT 9999 SCT015 FEW017TCU 11/09 Q1009=
200812052345 METAR LIRA 052345Z 20005KT 9999 SCT015 FEW017TCU 12/10 Q1009=
200812052315 METAR LIRA 052315Z 21005KT 9999 SCT015 FEW017TCU 12/10 Q1009=
200812052245 METAR LIRA 052245Z 22007KT 180V260 9999 SCT015 FEW017TCU
                        12/10 Q1009=
200812052215 METAR LIRA 052215Z 20006KT 9999 SCT015 FEW017TCU 12/10 Q1008=
200812052145 METAR LIRA 052145Z 20008KT 9999 SCT015 FEW017TCU 12/11 Q1008=
200812052115 METAR LIRA 052115Z 19011KT 8000 SCT012 SCT070 12/10 Q1008=
200812052045 METAR LIRA 052045Z 19009KT 8000 SCT010 SCT025 12/10 Q1008=
200812052015 METAR LIRA 052015Z 19009KT 8000 SCT010 SCT025 12/11 Q1008=
200812051945 METAR LIRA 051945Z 19008KT 7000 -RA SCT010 FEW015TCU BKN025
                        12/11 Q1007=
200812051915 METAR LIRA 051915Z 19010KT 7000 -RA SCT007 FEW015TCU BKN025
                        12/11 Q1007=
200812051845 METAR LIRA 051845Z 18010KT 5000 -RA BR SCT007 FEW015TCU BKN020
                        13/11 Q1007 RERA=
200812051815 METAR LIRA 051815Z 18015KT 5000 -RA BR SCT007 FEW015TCU BKN022
                        13/11 Q1006 RERA=
200812051745 METAR LIRA 051745Z 20014G25KT 3000 RA BR SCT004 FEW015TCU
                        BKN020 12/11 Q1006=
200812051715 METAR LIRA 051715Z 20013KT 4000 -RA BR SCT006 FEW015TCU BKN022
                        12/11 Q1006=
200812051645 METAR LIRA 051645Z 20016G26KT 4000 -RA BR SCT010 FEW018TCU
                        BKN023 12/11 Q1006=
200812051615 METAR LIRA 051615Z 20013KT 4000 -RA BR SCT008 FEW018TCU BKN023
                        12/11 Q1006=
200812051545 METAR LIRA 051545Z 20017KT 3000 -RA BR SCT008 FEW018TCU BKN023
                        12/11 Q1006=
200812051515 METAR LIRA 051515Z 20016G26KT 3000 -RA BR SCT008 FEW018TCU
                        BKN023 13/11 Q1006=
200812051445 METAR LIRA 051445Z 20020G33KT 180V260 6000 -RA SCT013 FEW018TCU
                        BKN025 14/10 Q1006=
200812051415 METAR LIRA 051415Z 20017KT 6000 -RA SCT015 FEW018TCU BKN025
                        14/11 Q1006 WS RWY 15=
200812051345 METAR LIRA 051345Z 21022G35KT 180V260 6000 -RA SCT015 FEW018TCU
                        BKN025 14/12 Q1006 WS RWY 15=
200812051315 METAR LIRA 051315Z 21024G34KT 6000 -RA SCT015 FEW018TCU BKN025
                        14/11 Q1006=
200812051245 METAR LIRA 051245Z 20012KT 6000 -RA SCT015 FEW018TCU BKN025
                        14/10 Q1006=
200812051215 METAR LIRA 051215Z 20017G28KT 6000 -RA SCT015 FEW018TCU BKN025
                        14/11 Q1007=
200812051145 METAR LIRA 051145Z 21014G28KT 180V260 6000 -RA SCT015 FEW018TCU
                        BKN025 15/09 Q1007=
200812051115 METAR LIRA 051115Z 21018G28KT 180V260 9999 -RA SCT015 FEW018TCU
                        BKN025 15/10 Q1008=
200812051045 METAR LIRA 051045Z 20015G26KT 180V270 9999 SCT015 FEW018TCU
                        BKN025 15/10 Q1008=
200812051015 METAR LIRA 051015Z 21016G26KT 180V260 9999 SCT015 FEW018TCU
                        BKN025 15/10 Q1008=
200812050945 METAR LIRA 050945Z 21013G23KT 180V260 9999 SCT015 FEW018TCU
                        SCT025 15/10 Q1008=
200812050915 METAR LIRA 050915Z 21013KT 180V260 9999 SCT015 SCT025 14/11
                        Q1009=
200812050845 METAR LIRA 050845Z 20011KT 9999 SCT015 SCT025 13/10 Q1009=
200812050815 METAR LIRA 050815Z 18012KT 9999 SCT015 BKN025 12/09 Q1009=
200812050745 METAR LIRA 050745Z 19010KT 9000 SCT015 SCT025 BKN080 12/09
                        Q1009=
200812050715 METAR LIRA 050715Z 19007KT 9000 -RA SCT015 SCT025 BKN080
                        12/09 Q1009=
200812050645 METAR LIRA 050645Z 19013G24KT 170V250 6000 -RA SCT015 BKN023
                        12/09 Q1009=
200812050615 METAR LIRA 050615Z 18009KT 8000 -RA SCT018 BKN025 12/09 Q1009=
200812050545 METAR LIRA 050545Z 19008KT 9999 SCT017 BKN030 12/09 Q1009=
200812050515 METAR LIRA 050515Z 19012KT 9999 SCT017 BKN030 12/09 Q1009=
200812050445 METAR LIRA 050445Z 18010KT 9999 -RA SCT017 SCT070 11/07 Q1009=
200812050415 METAR LIRA 050415Z 18010KT 9999 SCT017 SCT070 11/07 Q1009=
200812050345 METAR LIRA 050345Z 19012KT 9999 SCT017 SCT070 11/06 Q1009=
200812050315 METAR LIRA 050315Z 19011KT 9999 SCT017 SCT070 11/06 Q1009=
200812050245 METAR LIRA 050245Z 20011KT 9999 SCT017 SCT070 11/06 Q1009=
200812050215 METAR LIRA 050215Z 20007KT 9999 SCT017 SCT070 11/07 Q1009=
200812050145 METAR LIRA 050145Z 18008KT 9999 SCT017 SCT070 11/07 Q1010=
200812050115 METAR LIRA 050115Z 19008KT 9999 SCT017 SCT070 10/06 Q1010=
200812050045 METAR LIRA 050045Z 19008KT 9999 SCT017 SCT070 10/06 Q1010=
200812050015 METAR LIRA 050015Z 19010KT 9999 SCT017 SCT070 10/07 Q1010=
200812042350 METAR LIRA 050045Z 19008KT 9999 SCT017 SCT070 10/06 Q1010=
200812042345 METAR LIRA 042345Z 18009KT 9999 SCT017 SCT070 11/07 Q1010=
200812042315 METAR LIRA 042315Z 19009KT 9999 SCT017 SCT028 10/07 Q1010=
200812042245 METAR LIRA 042245Z 18009KT 9999 SCT017 SCT030 10/06 Q1010=
200812042215 METAR LIRA 042215Z 19008KT 9999 FEW017 SCT030 10/06 Q1010=
200812042145 METAR LIRA 042145Z 19009KT 9999 FEW017 SCT028 10/06 Q1010=
200812042115 METAR LIRA 042115Z 18007KT 9999 FEW017 SCT028 09/06 Q1009=
200812042045 METAR LIRA 042045Z 20009KT 9999 FEW017 SCT028 09/05 Q1009=
200812042015 METAR LIRA 042015Z 21004KT 9999 -RA SCT028 SCT070 09/05 Q1009=
200812041945 METAR LIRA 041945Z 22004KT 9999 -RA SCT028 SCT070 08/04 Q1009=
200812041915 METAR LIRA 041915Z 24006KT 9999 SCT028 SCT070 08/03 Q1009=
200812041845 METAR LIRA 041845Z 24006KT 9999 SCT028 SCT070 07/02 Q1009=
200812041815 METAR LIRA 041815Z 21005KT 9999 SCT028 06/00 Q1008=
200812041745 METAR LIRA 041745Z 19004KT 9999 SCT028 07/01 Q1008=
200812041715 METAR LIRA 041715Z 25006KT 9999 FEW080 06/00 Q1007=
200812041645 METAR LIRA 041645Z 24003KT CAVOK 09/02 Q1007=
200812041615 METAR LIRA 041615Z 00000KT CAVOK 09/01 Q1007=
200812041545 METAR LIRA 041545Z 00000KT CAVOK 10/01 Q1006=
200812041515 METAR LIRA 041515Z 00000KT CAVOK 10/01 Q1005=
200812041445 METAR LIRA 041445Z 08002KT CAVOK 10/01 Q1005=
200812041415 METAR LIRA 041415Z 07003KT CAVOK 09/01 Q1004=
200812041345 METAR LIRA 041345Z 07004KT CAVOK 09/02 Q1004=
200812041315 METAR LIRA 041315Z 04002KT CAVOK 08/01 Q1004=
200812041245 METAR LIRA 041245Z 31005KT 250V350 CAVOK 08/02 Q1004=
200812041215 METAR LIRA 041215Z 29006KT 260V350 CAVOK 07/02 Q1004=
200812041145 METAR LIRA 041145Z 30006KT 270V360 CAVOK 06/02 Q1004=
200812041115 METAR LIRA 041115Z 30005KT CAVOK 06/02 Q1004=
200812041045 METAR LIRA 041045Z 32004KT 260V360 CAVOK 06/02 Q1004=
200812041015 METAR LIRA 041015Z 34007KT 270V360 CAVOK 05/02 Q1004=
200812040945 METAR LIRA 040945Z 33005KT 280V360 9999 FEW080 05/03 Q1004=
200812040915 METAR LIRA 040915Z 31007KT 270V360 9999 FEW080 04/02 Q1004=
200812040845 METAR LIRA 040845Z 31008KT 8000 FEW023 SCT200 03/02 Q1004=
200812040815 METAR LIRA 040815Z 30008KT 8000 FEW020 SCT200 02/01 Q1004=
200812040745 METAR LIRA 040745Z 32006KT 270V350 5000 BR FEW013 SCT200
                        02/01 Q1004=
200812040715 METAR LIRA 040715Z 31005KT 270V350 4500 BR FEW010 SCT200
                        02/01 Q1004=
200812040645 METAR LIRA 040645Z 31006KT 260V360 4000 BR FEW008 02/02 Q1003=
200812040615 METAR LIRA 040615Z 31006KT 270V360 3000 BR FEW001 02/01 Q1003=
200812040545 METAR LIRA 040545Z 31004KT 240V330 4000 BR FEW002 02/01 Q1004=
200812040515 METAR LIRA 040515Z 04007KT 350V090 4000 BR FEW002 02/02 Q1004=
200812040445 METAR LIRA 040445Z 30006KT 3500 BR FEW001 02/02 Q1004=
200812040415 METAR LIRA 040415Z 31005KT 3000 BR SCT001 03/02 Q1004=
200812040345 METAR LIRA 040345Z 31005KT 3000 BR SCT001 02/02 Q1005=
200812040315 METAR LIRA 040315Z 30007KT 2500 BR FEW001 03/02 Q1005=
200812040245 METAR LIRA 040245Z 29009KT 2500 BR FEW001 03/02 Q1005=
200812040215 METAR LIRA 040215Z 29008KT 260V320 2000 BR FEW001 03/02 Q1005=
200812040145 METAR LIRA 040145Z 33004KT 1000 R15//// BR SCT001 03/02 Q1007=
200812040115 METAR LIRA 040115Z 31008KT 260V360 4000 BR NSC 03/02 Q1006=
200812040045 METAR LIRA 040045Z 33005KT 250V360 4000 BR NSC 03/02 Q1006=
200812040015 METAR LIRA 040015Z 30007KT 270V340 4000 BR NSC 04/03 Q1006=
200812032345 METAR LIRA 032345Z 30007KT 280V350 4000 BR NSC 04/03 Q1006=
200812032315 METAR LIRA 032315Z 30005KT 7000 SKC 03/02 Q1007=
200812032245 METAR LIRA 032245Z 30003KT 7000 SKC 03/02 Q1007=
200812032215 METAR LIRA 032215Z 36005KT 7000 NSC 04/03 Q1007=
200812032145 METAR LIRA 032145Z 33004KT 280V360 7000 NSC04/03 Q1007=
200812032115 METAR LIRA 032115Z 31005KT 260V360 8000 NSC 05/03 Q1007=
200812032045 METAR LIRA 032045Z 30005KT 8000 NSC 05/04 Q1007=
200812032015 METAR LIRA 032015Z 30004KT 8000 NSC 06/04 Q1008=
200812031945 METAR LIRA 031945Z 32004KT 8000 NSC 06/04 Q1007=
200812031915 METAR LIRA 031915Z 35005KT 8000 NSC 06/04 Q1007=
200812031845 METAR LIRA 031845Z 31004KT 9000 NSC 06/04 Q1007=
200812031815 METAR LIRA 031815Z 31004KT 9000 NSC 07/05 Q1007=
200812031745 METAR LIRA 031745Z 31004KT 9000 NSC 07/05 Q1007=
200812031715 METAR LIRA 031715Z 29003KT 8000 NSC 07/05 Q1007=
200812031645 METAR LIRA 031645Z 31003KT 8000 FEW017 07/04 Q1007=
200812031615 METAR LIRA 031615Z 27005KT 8000 FEW017 07/05 Q1006=
200812031545 METAR LIRA 031545Z 28004KT 9999 FEW017 07/05 Q1006=
200812031515 METAR LIRA 031515Z 29003KT 9999 FEW017 07/06 Q1006=
200812031445 METAR LIRA 031445Z 30003KT 9999 FEW017 07/06 Q1006=
200812031415 METAR LIRA 031415Z 28006KT 240V100 9999 FEW017 07/06 Q1006=
200812031345 METAR LIRA 031345Z 31004KT 260V360 9999 SCT017 07/06 Q1006=
200812031315 METAR LIRA 031315Z 06006KT 010V090 8000 SCT010 07/06 Q1007=
200812031245 METAR LIRA 031245Z 34005KT 260V100 5000 BR SCT010 06/06 Q1007=
200812031215 METAR LIRA 031215Z 03005KT 300V100 2500 BR SCT007 06/06 Q1007=
200812031145 METAR LIRA 031145Z 06006KT 360V090 2000 BR SCT007 06/06 Q1007=
200812031115 METAR LIRA 031115Z 04005KT 330V080 1700 BR SCT007 06/05 Q1007=
200812031045 METAR LIRA 031045Z 05007KT 360V090 0600 R15//// FG SCT003
                        05/05 Q1007=
200812031015 METAR LIRA 031015Z 05005KT 270V090 0300 R15//// FG SCT002
                        05/05 Q1008=
200812030945 METAR LIRA 030945Z 31007KT 250V030 0300 R15//// FG SCT002
                        05/05 Q1008=
200812030915 METAR LIRA 030915Z 33005KT 260V360 0300 R15//// FG SCT002
                        05/04 Q1008=
200812030845 METAR LIRA 030845Z 33004KT 270V360 0200 R15//// FG SCT002
                        04/04 Q1008=
200812030815 METAR LIRA 030815Z 31006KT 240V360 0200 R15//// FG SCT002
                        04/04 Q1008=
200812030745 METAR LIRA 030745Z 04003KT 350V070 0200 R15//// FG SCT002
                        04/04 Q1008=
200812030715 METAR LIRA 030715Z 36006KT 330V060 0200 R15//// FG SCT002
                        04/04 Q1007=
200812030645 METAR LIRA 030645Z 06005KT 0100 R15//// FG SCT002 04/04 Q1007=
200812030615 METAR LIRA 030615Z 03001KT 3000 0800SW R15//// BCFG FEW003
                        05/04 Q1007=
200812030545 METAR LIRA 030545Z 01002KT 7000 SKC 05/04 Q1007=
200812030515 METAR LIRA 030515Z 02002KT 7000 SKC 05/05 Q1007=
200812030445 METAR LIRA 030445Z 06005KT 280V080 CAVOK 05/05 Q1007=
200812030415 METAR LIRA 030415Z 06005KT 7000 FEW060 06/05 Q1007=
200812030345 METAR LIRA 030345Z 02003KT 7000 FEW080 06/05 Q1008=
200812030315 METAR LIRA 030315Z 07004KT CAVOK 06/05 Q1008=
200812030245 METAR LIRA 030245Z 08002KT 7000 FEW080 06/06 Q1008=
200812030215 METAR LIRA 030215Z 00000KT 8000 3500SE FEW070 06/06 Q1008=
200812030145 METAR LIRA 030145Z 00000KT 8000 FEW060 06/06 Q1008=
200812030115 METAR LIRA 030115Z 00000KT 9999 FEW060 07/06 Q1008=
200812030045 METAR LIRA 030045Z 07002KT 9999 FEW030 07/07 Q1009=
200812030015 METAR LIRA 030015Z 29001KT 9999 FEW030 08/06 Q1009=
200812022350 METAR LIRA 030045Z 07002KT 9999 FEW030 07/07 Q1009=
200812022345 METAR LIRA 022345Z 36004KT 9999 FEW030 08/07 Q1009=
200812022315 METAR LIRA 022315Z 17002KT 9999 FEW030 08/07 Q1009=
200812022245 METAR LIRA 022245Z 12002KT 9999 SCT035 09/08 Q1009=
200812022215 METAR LIRA 022215Z 10004KT 9999 FEW018 SCT030 09/08 Q1009=
200812022145 METAR LIRA 022145Z 05002KT 9999 FEW018 SCT040 09/08 Q1010=
200812022115 METAR LIRA 022115Z 34004KT 9999 FEW020 SCT040 09/08 Q1010=
200812022045 METAR LIRA 022045Z 35002KT 9999 SCT020 SCT030 09/08 Q1010=
200812022015 METAR LIRA 022015Z 07002KT 9999 -RA SCT020 SCT030 09/08 Q1010=
200812021945 METAR LIRA 021945Z 23001KT 9999 -RA SCT020 SCT030 10/08 Q1010=
200812021915 METAR LIRA 021915Z 11003KT 9999 -RA SCT020 BKN030 10/05 Q1010=
200812021845 METAR LIRA 021845Z 12007KT 9999 SCT020 SCT035 10/05 Q1010=
200812021815 METAR LIRA 021815Z 11006KT 080V140 9999 SCT020 SCT030 09/07
                        Q1010=
200812021745 METAR LIRA 021745Z 11006KT 9999 SCT018 FEW022TCU SCT030 09/07
                        Q1010=
200812021715 METAR LIRA 021715Z 11008KT 080V140 9999 SCT018 FEW022TCU
                        SCT030 09/08 Q1010=
200812021645 METAR LIRA 021645Z 12007KT 8000 -RA SCT018 FEW020CB SCT070
                        10/08 Q1010=
200812021615 METAR LIRA 021615Z 12008KT 7000 -RA SCT018 FEW020CB BKN030
                        10/08 Q1010=
200812021545 METAR LIRA 021545Z 12005KT 7000 -RA SCT018 FEW020CB BKN030
                        10/09 Q1010=
200812021515 METAR LIRA 021515Z 13007KT 7000 -RA SCT018 FEW020CB BKN030
                        10/09 Q1010=
200812021445 METAR LIRA 021445Z 12004KT 7000 -RA SCT018 FEW020CB BKN030
                        10/09 Q1010=
200812021415 METAR LIRA 021415Z 08003KT 7000 -RA SCT018 FEW020CB BKN035
                        10/09 Q1010=
200812021345 METAR LIRA 021345Z 19002KT 6000 -RA SCT016 FEW020CB BKN025
                        17/16 Q1011=
200812021315 METAR LIRA 021315Z 10004KT 6000 -RA SCT016 FEW020CB BKN025
                        10/08 Q1011=
200812021245 METAR LIRA 021245Z 05003KT 8000 -RA SCT016 FEW020CB BKN030
                        10/09 Q1011=
200812021215 METAR LIRA 021215Z 07006KT 020V100 8000 -RA SCT016 FEW020CB
                        BKN030 10/09 Q1011=
200812021145 METAR LIRA 021145Z 07004KT 9999 -RA SCT015 FEW017CB BKN025
                        09/08 Q1011 RETS=
200812021115 METAR LIRA 021115Z 12004KT 8000 -RA SCT015 FEW017CB BKN025
                        09/08 Q1012 RETS=
200812021045 METAR LIRA 021045Z 13001KT 6000 -TSRA SCT015 FEW017CB BKN025
                        10/08 Q1012=
200812021015 METAR LIRA 021015Z 17005KT 120V240 6000 -TSRA SCT015 FEW017CB
                        BKN025 10/08 Q1012=
200812020945 METAR LIRA 020945Z 36004KT 330V060 8000 -TSRA SCT015 FEW017CB
                        BKN025 10/06 Q1011=
200812020915 METAR LIRA 020915Z 08006KT 010V100 9999 -RA SCT015 FEW017CB
                        SCT025 11/06 Q1011=
200812020845 METAR LIRA 020845Z 15003KT 9999 -RA SCT015 FEW017CB SCT025
                        10/06 Q1011=
200812020815 METAR LIRA 020815Z 13011KT 9999 -RA SCT015 FEW017CB SCT025
                        10/06 Q1011=
200812020745 METAR LIRA 020745Z 11009KT 9999 FEW015 FEW020CB BKN200 09/07
                        Q1011=
200812020715 METAR LIRA 020715Z 12010KT 9999 FEW015 BKN200 09/06 Q1011=
200812020645 METAR LIRA 020645Z 12011KT 9999 FEW015 BKN200 09/06 Q1011=
200812020615 METAR LIRA 020615Z 12008KT 9999 FEW015 BKN200 08/07 Q1011=
200812020545 METAR LIRA 020545Z 12008KT 9999 FEW015 SCT070 09/08 Q1011=
200812020515 METAR LIRA 020515Z 15004KT 9999 FEW015 SCT070 10/08 Q1011=
200812020445 METAR LIRA 020445Z 14005KT 9999 FEW015 SCT025 09/07 Q1011
                        RERA=
200812020415 METAR LIRA 020415Z 15009KT 9999 -RA FEW015 SCT025 09/08 Q1011=
200812020345 METAR LIRA 020345Z 06003KT 9999 -RA FEW015 SCT025 09/08 Q1011=
200812020315 METAR LIRA 020315Z 06004KT 9999 FEW015 SCT025 10/08 Q1011
                        RERA=
200812020245 METAR LIRA 020245Z 13004KT 9999 FEW015 SCT025 10/09 Q1011
                        RERA=
200812020215 METAR LIRA 020215Z 12006KT 9999 -RA FEW015 SCT030 10/08 Q1011=
200812020145 METAR LIRA 020145Z 19004KT 9999 -RA SCT015 SCT030 10/08 Q1011=
200812020115 METAR LIRA 020115Z 29003KT 9999 FEW015 SCT030 10/08 Q1011
                        RERA=
200812020045 METAR LIRA 020045Z 00000KT 9999 FEW015 SCT030 10/08 Q1011
                        RERA=
200812020015 METAR LIRA 020015Z 18005KT 9999 -RA SCT015 BKN030 10/08 Q1011=
200812012345 METAR LIRA 012345Z 14007KT 9999 -RA SCT015 BKN030 10/08 Q1011=
200812012315 METAR LIRA 012315Z 18007KT 9999 -RA SCT015 BKN030 10/07 Q1011=
200812012245 METAR LIRA 012245Z 09001KT 9999 -RA FEW018 SCT030 10/07 Q1011=
200812012215 METAR LIRA 012215Z 23002KT 9999 FEW020TCU SCT030 10/07 Q1011=
200812012145 METAR LIRA 012145Z 12004KT 9999 FEW020TCU SCT030 11/06 Q1011=
200812012115 METAR LIRA 012115Z 19002KT 9999 FEW020TCU SCT030 11/06 Q1011
                        WS RWY 15=
200812012045 METAR LIRA 012045Z 30007KT 150V340 9999 FEW020TCU SCT025
                        11/07 Q1011=
200812012015 METAR LIRA 012015Z 16008KT 9999 -RA SCT020 SCT030 10/07 Q1010=
200812011945 METAR LIRA 011945Z 14005KT 9999 SCT030 SCT060 11/08 Q1010=
200812011915 METAR LIRA 011915Z 18004KT 9999 FEW020 SCT035 11/08 Q1010=
200812011845 METAR LIRA 011845Z 19003KT 9999 FEW020 BKN060 10/08 Q1010=
200812011815 METAR LIRA 011815Z 18006KT 9999 FEW020 SCT040 10/08 Q1010=
200812011745 METAR LIRA 011745Z 17005KT 9999 FEW018 11/06 Q1009=
200812011715 METAR LIRA 011715Z 24010KT 200V310 9999 -DZ FEW018TCU SCT020
                        11/07 Q1009=
200812011645 METAR LIRA 011645Z 25009G19KT 200V290 9999 -RA FEW015 FEW018CB
                        FEW020TCU SCT023 13/07 Q1009=
200812011615 METAR LIRA 011615Z 26006KT 210V310 9999 -RA FEW015 FEW018CB
                        FEW020TCU SCT023 14/06 Q1008=
200812011545 METAR LIRA 011545Z 20011KT 170V240 9999 FEW015 FEW018CB FEW020TCU
                        SCT023 13/06 Q1008=
200812011515 METAR LIRA 011515Z 20010KT 170V260 9999 FEW015 FEW018CB FEW020TCU
                        SCT030 13/07 Q1008=
200812011445 METAR LIRA 011445Z 18008KT 9999 FEW015 FEW018CB FEW020TCU
                        SCT030 13/08 Q1008=
200812011415 METAR COR LIRA 011415Z 19007KT 150V230 9999 SCT018 BKN025
                        12/08 Q1008 RETS=
200812011345 METAR LIRA 011345Z 20009KT 160V260 9999 SCT015 FEW020CB SCT025
                        11/07 Q1008 RETS=
200812011315 METAR LIRA 011315Z 22007KT 190V290 9999 TS SCT015 FEW020CB
                        SCT025 14/09 Q1008=
200812011245 METAR LIRA 011245Z 23010KT 8000 -TSRA SCT015 FEW020CB SCT025
                        15/06 Q1008=
200812011215 METAR LIRA 011215Z 20014G25KT 160V240 9999 SCT018 SCT070
                        15/05 Q1008=
200812011145 METAR LIRA 011145Z 22012G22KT 170V280 9999 SCT018 SCT070
                        15/04 Q1008=
200812011115 METAR LIRA 011115Z 22010KT 170V270 9999 SCT018 14/05 Q1008=
200812011045 METAR LIRA 011045Z 22009KT 180V260 9999 SCT018 14/05 Q1008=
200812011015 METAR LIRA 011015Z 21013G25KT 160V250 9999 SCT015 FEW020TCU
                        14/06 Q1008=
200812010945 METAR LIRA 010945Z 22014G29KT 160V260 9999 SCT015 FEW018TCU
                        12/06 Q1008=
200812010915 METAR LIRA 010915Z 22014G25KT 160V260 9999 FEW015 FEW018TCU
                        13/05 Q1007=
200812010845 METAR LIRA 010845Z 23010KT 180V270 9999 FEW015 FEW018TCU
                        13/06 Q1007=
200812010815 METAR LIRA 010815Z 23013G23KT 180V270 9999 SCT015 FEW018TCU
                        SCT023 13/06 Q1007=
200812010745 METAR LIRA 010745Z 22011G21KT 180V270 9999 SCT015 FEW018TCU
                        BKN023 13/07 Q1006=
200812010715 METAR LIRA 010715Z 23008KT 170V270 9999 SCT015 FEW018TCU
                        BKN023 13/07 Q1006=
200812010645 METAR LIRA 010645Z 22012G24KT 170V270 9999 SCT015 FEW018TCU
                        BKN023 13/07 Q1005 RETS=
200812010615 METAR LIRA 010615Z 22009KT 180V270 9999 SCT015 FEW018TCU
                        BKN023 13/07 Q1005 RETS=
200812010545 METAR LIRA 010545Z 23010KT 180V270 9999 TS FEW018 FEW020CB
                        SCT025 14/08 Q1004=
200812010515 METAR LIRA 010515Z 24012G22KT 190V270 9999 TS FEW015 FEW020CB
                        SCT030 14/08 Q1003=
200812010445 METAR LIRA 010445Z 22013G23KT 140V260 9999 SCT015 FEW017TCU
                        SCT028 15/07 Q1003=
200812010415 METAR LIRA 010415Z 20017G32KT 150V240 9999 SCT015 FEW017TCU
                        SCT028 15/07 Q1002=
200812010345 METAR LIRA 010345Z 20022G32KT 160V260 9999 SCT015 FEW017CB
                        SCT025 15/10 Q1002 RETS=
200812010315 METAR LIRA 010315Z 21018G32KT 160V250 9999 SCT015 FEW017CB
                        SCT025 15/10 Q1002 RETS=
200812010245 METAR LIRA 010245Z 21024G40KT 160V240 8000 TS SCT015 FEW017CB
                        SCT025 15/10 Q1002 RETS=
200812010215 METAR LIRA 010215Z 18020G32KT 150V220 8000 -TSRA SCT015 FEW017CB
                        BKN025 15/10 Q1002=
200812010145 METAR LIRA 010145Z 17019KT 8000 SCT015 FEW018TCU SCT028 15/11
                        Q1002=
200812010115 METAR LIRA 010115Z 17022G34KT 140V200 8000 SCT015 FEW018TCU
                        SCT028 15/10 Q1003=
200812010045 METAR LIRA 010045Z 17022G32KT 8000 SCT015 FEW018TCU SCT028
                        14/11 Q1003=
200812010015 METAR LIRA 010015Z 17021KT 8000 SCT015 FEW018CB SCT028 13/11
                        Q1004=

</pre>

</body>
</html>
