##########################################################
# Query made at 11/10/2014 14:08:29 UTC
# Time interval: from 02/01/2008 00:00  to 03/02/2008 23:59  UTC
##########################################################

##########################################################
# LIRA, Roma / Ciampino (Italy)
# WMO index: 16239
# Latitude 41-47N. Longitude 012-35E. Altitude 129 m.
##########################################################

###################################
#  METAR/SPECI from LIRA
###################################
200803022350 METAR LIRA 030045Z 14001KT 6000 SKC 09/08 Q1016=
200803022345 METAR LIRA 022345Z 17009KT 7000 FEW070 09/08 Q1016=
200803022315 METAR LIRA 022315Z 16007KT 4000 BR FEW070 09/07 Q1016=
200803022245 METAR LIRA 022245Z 24002KT 4000 BR FEW015 09/07 Q1017=
200803022215 METAR LIRA 022215Z 24002KT 3000 BR FEW070 10/07 Q1017=
200803022145 METAR LIRA 022145Z 00000KT 5000 BR FEW070 10/08 Q1016=
200803022115 METAR LIRA 022115Z 15001KT 3000 BR SCT070 11/09 Q1016=
200803022045 METAR LIRA 022045Z 00000KT 4000 BR SCT070 12/10 Q1016=
200803022015 METAR LIRA 022015Z 00000KT 4000 BR SCT070 12/09 Q1016=
200803021945 METAR LIRA 021945Z 17005KT 4000 BR FEW015 11/08 Q1016=
200803021915 METAR LIRA 021915Z 23004KT 4000 BR FEW070 11/08 Q1016=
200803021845 METAR LIRA 021845Z 25005KT 6000 FEW070 12/09 Q1016=
200803021815 METAR LIRA 021815Z 24006KT 8000 FEW070 12/09 Q1015=
200803021745 METAR LIRA 021745Z 23006KT 170V280 9999 FEW070 13/09 Q1014=
200803021715 METAR LIRA 021715Z 23007KT 9999 SCT070 SCT200 13/10 Q1014=
200803021645 METAR LIRA 021645Z 23007KT 190V270 9999 FEW020 SCT070 17/13
                        Q1014=
200803021615 METAR LIRA 021615Z 23006KT 190V260 9999 SCT080 SCT200 17/12
                        Q1014=
200803021545 METAR LIRA 021545Z 24007KT 210V280 9999 FEW020 BKN200 18/12
                        Q1014=
200803021515 METAR LIRA 021515Z 22006KT 180V250 9999 FEW020 BKN200 18/12
                        Q1014=
200803021445 METAR LIRA 021445Z 22005KT 150V270 9999 FEW016 BKN200 18/12
                        Q1014=
200803021415 METAR LIRA 021415Z 21007KT 180V280 9999 FEW016 BKN200 18/12
                        Q1014=
200803021345 METAR LIRA 021345Z 21006KT 160V260 9999 FEW016 BKN200 18/12
                        Q1014=
200803021315 METAR LIRA 021315Z 22005KT 9999 FEW016 18/12 Q1015=
200803021245 METAR LIRA 021245Z 21007KT 160V270 9999 FEW016 18/13 Q1015=
200803021215 METAR LIRA 021215Z 23004KT 150V260 9999 FEW016 18/12 Q1015=
200803021145 METAR LIRA 021145Z 24006KT 170V270 9999 SCT016 17/12 Q1015=
200803021115 METAR LIRA 021115Z 21004KT 180V250 9999 FEW016 17/12 Q1015=
200803021045 METAR LIRA 021045Z 23006KT 180V300 9999 FEW016 16/12 Q1015=
200803021015 METAR LIRA 021015Z 24003KT 9999 FEW016 15/12 Q1015=
200803020945 METAR LIRA 020945Z 33003KT 9000 SKC 14/11 Q1015=
200803020915 METAR LIRA 020915Z 14002KT 9000 SKC 13/11 Q1015=
200803020845 METAR LIRA 020845Z 00000KT 8000 SKC 11/10 Q1015=
200803020815 METAR LIRA 020815Z 04003KT 7000 SKC 10/10 Q1015=
200803020745 METAR LIRA 020745Z 32002KT 7000 SKC 09/09 Q1015=
200803020715 METAR LIRA 020715Z 00000KT 7000 SKC 08/08 Q1015=
200803020645 METAR LIRA 020645Z 08002KT 7000 SKC 06/06 Q1014=
200803020615 METAR LIRA 020615Z 03002KT 7000 SKC 05/05 Q1013=
200803020545 METAR LIRA 020545Z 15003KT 7000 SKC 07/07 Q1012=
200803020515 METAR LIRA 020515Z 08002KT 6000 SKC 07/07 Q1012=
200803020445 METAR LIRA 020445Z 08002KT 6000 SKC 07/07 Q1012=
200803020415 METAR LIRA 020415Z 08003KT 6000 SKC 07/07 Q1012=
200803020345 METAR LIRA 020345Z 10001KT 6000 SKC 08/08 Q1012=
200803020315 METAR LIRA 020315Z 05005KT 6000 SKC 08/08 Q1012=
200803020245 METAR LIRA 020245Z 03003KT 5000 1500S MIFG BR FEW004 08/08
                        Q1011=
200803020215 METAR LIRA 020215Z 03002KT 5000 1500S MIFG BR FEW004 08/08
                        Q1011=
200803020145 METAR LIRA 020145Z 09003KT 6000 FEW010 08/08 Q1011=
200803020115 METAR LIRA 020115Z 35003KT 8000 NSC 08/08 Q1011=
200803020045 METAR LIRA 020045Z 14001KT 6000 FEW070 09/08 Q1011=
200803020015 METAR LIRA 020015Z 12004KT 6000 FEW070 09/08 Q1011=
200803012345 METAR LIRA 012345Z 36001KT 6000 FEW070 09/09 Q1011=
200803012315 METAR LIRA 012315Z 12002KT 6000 FEW070 10/09 Q1011=
200803012245 METAR LIRA 012245Z 00000KT 6000 FEW070 11/10 Q1011=
200803012215 METAR LIRA 012215Z 16005KT 6000 FEW018 SCT070 11/11 Q1011=
200803012145 METAR LIRA 012145Z 17004KT 6000 SCT018 BKN060 12/12 Q1011=
200803012115 METAR LIRA 012115Z 18006KT 6000 SCT020 SCT060 12/12 Q1011=
200803012045 METAR LIRA 012045Z 18005KT 5000 BR SCT015 SCT040 12/12 Q1011=
200803012015 METAR LIRA 012015Z 19006KT 6000 SCT025 SCT070 12/12 Q1011=
200803011945 METAR LIRA 011945Z 19007KT 6000 FEW020 SCT040 BKN060 12/12
                        Q1011=
200803011915 METAR LIRA 011915Z 17008KT 5000 BR FEW020 SCT040 12/12 Q1011=
200803011845 METAR LIRA 011845Z 18005KT 5000 BR FEW020 SCT040 BKN070 12/11
                        Q1011=
200803011815 METAR LIRA 011815Z 16007KT 5000 BR SCT020 SCT040 12/11 Q1011=
200803011745 METAR LIRA 011745Z 15007KT 5000 BR SCT015 BKN030 13/12 Q1011=
200803011715 METAR LIRA 011715Z 17004KT 4000 BR SCT015 BKN025 13/12 Q1011=
200803011645 METAR LIRA 011645Z 17006KT 4000 -DZ BR SCT015 BKN023 13/12
                        Q1011=
200803011615 METAR LIRA 011615Z 17006KT 6000 -DZ SCT015 BKN025 13/12 Q1010=
200803011545 METAR LIRA 011545Z 18007KT 6000 -DZ SCT015 BKN025 13/13 Q1010=
200803011515 METAR LIRA 011515Z 19008KT 6000 -DZ SCT015 BKN025 13/12 Q1011=
200803011445 METAR LIRA 011445Z 19009KT 6000 -DZ SCT015 BKN025 13/12 Q1011=
200803011415 METAR LIRA 011415Z 19007KT 6000 SCT015 BKN025 13/12 Q1012=
200803011345 METAR LIRA 011345Z 19008KT 6000 -DZ SCT015 BKN025 13/12 Q1012=
200803011315 METAR LIRA 011315Z 17012KT 4000 -DZ BR SCT015 BKN025 13/12
                        Q1012=
200803011245 METAR LIRA 011245Z 18011KT 150V220 5000 -DZ BR SCT015 BKN025
                        13/12 Q1012=
200803011215 METAR LIRA 011215Z 19010KT 160V230 6000 -DZ SCT015 BKN025
                        13/12 Q1013=
200803011145 METAR LIRA 011145Z 18010KT 150V240 6000 -DZ SCT015 BKN025
                        13/12 Q1014=
200803011115 METAR LIRA 011115Z 18011KT 6000 SCT015 BKN025 12/12 Q1014=
200803011045 METAR LIRA 011045Z 18011KT 150V210 5000 -DZ BR SCT014 BKN022
                        12/12 Q1015=
200803011015 METAR LIRA 011015Z 18009KT 160V220 3000 -DZ BR SCT014 BKN022
                        12/12 Q1016=
200803010945 METAR LIRA 010945Z 18005KT 160V220 4000 -DZ BR FEW015 BKN023
                        12/12 Q1016=
200803010915 METAR LIRA 010915Z 18008KT 3000 -DZ BR FEW015 BKN023 12/11
                        Q1016=
200803010845 METAR LIRA 010845Z 18006KT 3000 -DZ BR FEW015 BKN023 12/11
                        Q1017=
200803010815 METAR LIRA 010815Z 18007KT 5000 BR FEW015 SCT025 BKN070 12/12
                        Q1017=
200803010745 METAR LIRA 010745Z 19005KT 160V220 5000 BR FEW015 SCT025
                        BKN070 12/12 Q1017=
200803010715 METAR LIRA 010715Z 20004KT 5000 BR FEW015 BKN025 12/12 Q1017=
200803010645 METAR LIRA 010645Z 19006KT 160V220 4000 -DZ BR FEW015 BKN025
                        12/12 Q1017=
200803010615 METAR LIRA 010615Z 20006KT 3000 -DZ BR FEW015 BKN023 11/11
                        Q1017=
200803010545 METAR LIRA 010545Z 19004KT 4000 -DZ FEW015 BKN023 11/11 Q1018=
200803010515 METAR LIRA 010515Z 18004KT 5000 BR SCT018 BKN025 11/11 Q1018=
200803010445 METAR LIRA 010445Z 18004KT 4000 BR SCT015 BKN030 12/12 Q1018=
200803010415 METAR LIRA 010415Z 21004KT 5000 BR SCT015 BKN025 12/12 Q1018=
200803010345 METAR LIRA 010345Z 19005KT 6000 SCT015 SCT025 11/11 Q1018=
200803010315 METAR LIRA 010315Z 19004KT 5000 BR SCT015 SCT025 11/11 Q1019=
200803010245 METAR LIRA 010245Z 15006KT 5000 BR FEW015 SCT030 11/11 Q1019=
200803010215 METAR LIRA 010215Z 19004KT 4000 BR SCT015 SCT025 13/12 Q1020=
200803010145 METAR LIRA 010145Z 19003KT 4000 BR SCT010 SCT025 13/12 Q1020=
200803010115 METAR LIRA 010115Z 21001KT 5000 BR SCT010 SCT025 12/11 Q1021=
200803010045 METAR LIRA 010045Z 23002KT 6000 -DZ SCT018 BKN025 12/11 Q1021=
200803010015 METAR LIRA 010015Z 21002KT 6000 -DZ SCT010 BKN025 11/10 Q1021=
200802292345 METAR LIRA 292345Z 17004KT 9999 BKN020 SCT060 11/10 Q1021=
200802292315 METAR LIRA 292315Z 15003KT 9999 SCT015 BKN025 11/10 Q1022=
200802292245 METAR LIRA 292245Z 17002KT 9999 FEW015 SCT025 11/10 Q1022=
200802292215 METAR LIRA 292215Z 17004KT 9999 FEW020 BKN060 10/10 Q1022=
200802292145 METAR LIRA 292145Z 16004KT 9999 FEW020 BKN060 10/10 Q1022=
200802292115 METAR LIRA 292115Z 16004KT CAVOK 10/10 Q1022=
200802292045 METAR LIRA 292045Z 15004KT 9999 FEW080 10/10 Q1022=
200802292015 METAR LIRA 292015Z 16005KT 9000 FEW040 11/11 Q1022=
200802291945 METAR LIRA 291945Z 19003KT 7000 SCT030 SCT070 11/11 Q1022=
200802291915 METAR LIRA 291915Z 18002KT 6000 FEW018 SCT030 13/12 Q1022=
200802291845 METAR LIRA 291845Z 19002KT 6000 SCT015 SCT030 13/12 Q1022=
200802291815 METAR LIRA 291815Z 20002KT 6000 SCT015 SCT025 13/11 Q1022=
200802291745 METAR LIRA 291745Z 22001KT 5000 BR SCT015 BKN025 13/11 Q1022=
200802291715 METAR LIRA 291715Z 23003KT 5000 BR SCT015 BKN025 13/11 Q1022=
200802291645 METAR LIRA 291645Z 24004KT 9999 FEW010 BKN030 14/11 Q1022=
200802291615 METAR LIRA 291615Z 25005KT 6000 FEW010 BKN030 14/11 Q1022=
200802291545 METAR LIRA 291545Z 26002KT 6000 FEW010 BKN030 14/11 Q1022=
200802291515 METAR LIRA 291515Z 25003KT 6000 FEW010 BKN040 14/11 Q1022=
200802291445 METAR LIRA 291445Z 26002KT 6000 FEW010 BKN040 14/11 Q1022=
200802291415 METAR LIRA 291415Z 28003KT 6000 FEW007 SCT030 BKN070 14/11
                        Q1022=
200802291345 METAR LIRA 291345Z 26005KT 6000 FEW007 SCT030 BKN070 14/11
                        Q1022=
200802291315 METAR LIRA 291315Z 26004KT 6000 FEW010 SCT030 BKN070 14/11
                        Q1023=
200802291245 METAR LIRA 291245Z 27005KT 6000 FEW010 SCT030 BKN070 14/11
                        Q1023=
200802291215 METAR LIRA 291215Z 24006KT 200V280 6000 SCT010 BKN030 15/12
                        Q1023=
200802291145 METAR LIRA 291145Z 25003KT 6000 FEW010 BKN030 15/12 Q1024=
200802291115 METAR LIRA 291115Z 30001KT 6000 FEW010 BKN030 14/12 Q1024=
200802291045 METAR LIRA 291045Z 27002KT 5000 BR SCT007 BKN060 14/12 Q1024=
200802291015 METAR LIRA 291015Z 00000KT 5000 BR SCT007 BKN060 13/11 Q1024=
200802290945 METAR LIRA 290945Z 00000KT 5000 BR SCT007 BKN060 12/11 Q1025=
200802290915 METAR LIRA 290915Z 00000KT 5000 BR SCT007 BKN060 11/10 Q1025=
200802290845 METAR LIRA 290845Z 00000KT 7000 FEW010 BKN060 10/10 Q1025=
200802290815 METAR LIRA 290815Z 00000KT 7000 FEW010 BKN070 10/10 Q1025=
200802290745 METAR LIRA 290745Z 00000KT 7000 FEW030 BKN070 09/09 Q1025=
200802290715 METAR LIRA 290715Z 00000KT 7000 FEW030 BKN070 09/09 Q1024=
200802290645 METAR LIRA 290645Z 00000KT 7000 BKN070 09/09 Q1024=
200802290615 METAR LIRA 290615Z 00000KT 7000 BKN070 09/08 Q1024=
200802290545 METAR LIRA 290545Z 00000KT 6000 FEW010 BKN070 08/08 Q1024=
200802290515 METAR LIRA 290515Z 00000KT 5000 BR SCT010 SCT070 08/07 Q1024=
200802290445 METAR LIRA 290445Z 00000KT 5000 BR SCT010 SCT070 08/07 Q1024=
200802290415 METAR LIRA 290415Z 00000KT 5000 BR SCT010 SCT070 08/07 Q1024=
200802290345 METAR LIRA 290345Z 12002KT 5000 BR SCT007 07/07 Q1024=
200802290315 METAR LIRA 290315Z 11004KT 5000 BR FEW007 07/07 Q1024=
200802290245 METAR LIRA 290245Z 12004KT 5000 BR SCT005 07/07 Q1024=
200802290215 METAR LIRA 290215Z 12002KT 5000 BR FEW007 07/06 Q1024=
200802290145 METAR LIRA 290145Z 14001KT 5000 BR FEW010 07/06 Q1024=
200802290115 METAR LIRA 290115Z 14003KT 5000 BR FEW010 08/07 Q1025=
200802290045 METAR LIRA 290045Z 00000KT 5000 BR FEW010 09/08 Q1025=
200802290015 METAR LIRA 290015Z 00000KT 5000 BR FEW010 09/08 Q1025=
200802282350 METAR LIRA 290045Z 00000KT 5000 BR FEW010 09/08 Q1025=
200802282345 METAR LIRA 282345Z 00000KT 5000 BR FEW010 09/08 Q1025=
200802282315 METAR LIRA 282315Z 12004KT 5000 BR FEW010 SCT070 09/08 Q1025=
200802282245 METAR LIRA 282245Z 12004KT 5000 BR FEW010 SCT070 09/08 Q1025=
200802282215 METAR LIRA 282215Z 15001KT 5000 BR FEW010 09/08 Q1025=
200802282145 METAR LIRA 282145Z 16001KT 5000 BR FEW010 10/09 Q1025=
200802282115 METAR LIRA 282115Z 16002KT 5000 BR FEW010 11/10 Q1024=
200802282045 METAR LIRA 282045Z 14002KT 5000 BR FEW010 11/10 Q1024=
200802282015 METAR LIRA 282015Z 19002KT 5000 BR SCT010 SCT070 11/10 Q1024=
200802281945 METAR LIRA 281945Z 17003KT 5000 BR SCT010 SCT070 12/10 Q1024=
200802281915 METAR LIRA 281915Z 19002KT 5000 BR SCT010 SCT070 12/11 Q1024=
200802281845 METAR LIRA 281845Z 19001KT 5000 BR SCT010 SCT027 12/11 Q1023=
200802281815 METAR LIRA 281815Z 19002KT 5000 BR FEW010 BKN027 13/11 Q1023=
200802281745 METAR LIRA 281745Z 24002KT 5000 BR FEW018 BKN027 13/12 Q1023=
200802281715 METAR LIRA 281715Z 25003KT 5000 BR SCT018 BKN030 13/11 Q1023=
200802281645 METAR LIRA 281645Z 23002KT 5000 BR SCT018 BKN030 13/12 Q1023=
200802281615 METAR LIRA 281615Z 24005KT 5000 BR SCT018 BKN030 14/11 Q1023=
200802281545 METAR LIRA 281545Z 24004KT 5000 BR FEW015 BKN030 14/12 Q1023=
200802281515 METAR LIRA 281515Z 21004KT 170V260 6000 FEW015 BKN030 14/11
                        Q1023=
200802281445 METAR LIRA 281445Z 24005KT 200V270 8000 FEW015 BKN025 15/10
                        Q1023=
200802281415 METAR LIRA 281415Z 23004KT 9999 SCT015 SCT025 15/09 Q1022=
200802281345 METAR LIRA 281345Z 20002KT 9999 SCT015 SCT025 15/09 Q1022=
200802281315 METAR LIRA 281315Z 21004KT 9999 SCT015 SCT025 15/10 Q1023=
200802281245 METAR LIRA 281245Z 20005KT 170V230 9999 SCT015 FEW018TCU
                        SCT080 16/11 Q1023=
200802281215 METAR LIRA 281215Z 19005KT 170V250 9999 SCT015 FEW016TCU
                        SCT080 16/11 Q1023=
200802281145 METAR LIRA 281145Z 21008KT 170V270 9999 SCT015 SCT080 16/11
                        Q1023=
200802281115 METAR LIRA 281115Z 22005KT 170V250 9999 SCT015 SCT080 15/11
                        Q1023=
200802281045 METAR LIRA 281045Z 21005KT 9000 SCT020 SCT080 15/11 Q1023=
200802281015 METAR LIRA 281015Z 00000KT 6000 SCT020 SCT025 14/12 Q1023=
200802280945 METAR LIRA 280945Z 00000KT 5000 BR FEW020 BKN025 13/12 Q1023=
200802280915 METAR LIRA 280915Z 00000KT 6000 SCT030 BKN080 12/10 Q1023=
200802280845 METAR LIRA 280845Z 00000KT 7000 FEW020 SCT030 BKN080 11/10
                        Q1023=
200802280815 METAR LIRA 280815Z 00000KT 7000 FEW020 SCT025 BKN080 12/10
                        Q1022=
200802280745 METAR LIRA 280745Z 12002KT 7000 FEW020 SCT025 BKN080 12/10
                        Q1022=
200802280715 METAR LIRA 280715Z 00000KT 7000 FEW020 SCT025 BKN080 11/09
                        Q1022=
200802280645 METAR LIRA 280645Z 00000KT 7000 FEW020 SCT025 BKN070 11/09
                        Q1021=
200802280615 METAR LIRA 280615Z 00000KT 7000 SCT020 SCT025 11/09 Q1021=
200802280545 METAR LIRA 280545Z 00000KT 8000 SCT020 SCT025 11/09 Q1021=
200802280515 METAR LIRA 280515Z 00000KT 8000 FEW020 SCT025 11/09 Q1021=
200802280445 METAR LIRA 280445Z 00000KT 8000 FEW010 SCT025 11/09 Q1021=
200802280415 METAR LIRA 280415Z 00000KT 8000 FEW010 SCT025 11/09 Q1020=
200802280345 METAR LIRA 280345Z 00000KT 8000 FEW010 SCT025 11/10 Q1020=
200802280315 METAR LIRA 280315Z 00000KT 8000 FEW010 SCT025 11/10 Q1020=
200802280245 METAR LIRA 280245Z 10002KT 8000 FEW010 SCT025 11/10 Q1020=
200802280215 METAR LIRA 280215Z 00000KT 8000 FEW010 SCT025 11/10 Q1020=
200802280145 METAR LIRA 280145Z 00000KT 8000 FEW010 SCT025 11/11 Q1020=
200802280115 METAR LIRA 280115Z 11002KT 8000 FEW010 SCT025 11/11 Q1020=
200802280045 METAR LIRA 280045Z 10001KT 8000 FEW010 SCT025 11/11 Q1021=
200802280015 METAR LIRA 280015Z 00000KT 8000 FEW010 SCT025 11/11 Q1021=
200802272350 METAR LIRA 280045Z 10001KT 8000 FEW010 SCT025 11/11 Q1021=
200802272345 METAR LIRA 272345Z 07001KT 8000 FEW010 SCT025 11/11 Q1021=
200802272315 METAR LIRA 272315Z 33001KT 8000 FEW010 SCT023 BKN070 12/11
                        Q1021=
200802272245 METAR LIRA 272245Z 17001KT 8000 FEW010 SCT023 BKN070 12/11
                        Q1021=
200802272215 METAR LIRA 272215Z 00000KT 8000 FEW010 SCT023 BKN070 12/12
                        Q1021=
200802272145 METAR LIRA 272145Z 17002KT 8000 FEW010 SCT023 BKN070 12/11
                        Q1021=
200802272115 METAR LIRA 272115Z 18002KT 8000 FEW010 SCT023 BKN070 12/11
                        Q1021=
200802272045 METAR LIRA 272045Z 19003KT 8000 FEW010 SCT023 BKN070 12/11
                        Q1020=
200802272015 METAR LIRA 272015Z 21002KT 8000 FEW010 SCT023 BKN070 12/11
                        Q1020=
200802271945 METAR LIRA 271945Z 00000KT 8000 FEW010 SCT023 BKN070 12/11
                        Q1020=
200802271915 METAR LIRA 271915Z 19003KT 8000 FEW010 SCT023 BKN070 12/11
                        Q1020=
200802271845 METAR LIRA 271845Z 23001KT 8000 FEW010 SCT023 BKN070 13/11
                        Q1020=
200802271815 METAR LIRA 271815Z 23002KT 8000 FEW010 SCT023 BKN070 13/10
                        Q1020=
200802271745 METAR LIRA 271745Z 19004KT 8000 FEW010 SCT023 BKN070 13/11
                        Q1019=
200802271715 METAR LIRA 271715Z 19005KT 8000 FEW012 SCT023 BKN070 13/11
                        Q1019=
200802271645 METAR LIRA 271645Z 22003KT 8000 FEW015 SCT023 BKN070 13/11
                        Q1019=
200802271615 METAR LIRA 271615Z 24003KT 8000 FEW015 SCT023 BKN070 13/11
                        Q1019=
200802271545 METAR LIRA 271545Z 20004KT 8000 FEW015 SCT023 BKN070 13/11
                        Q1019=
200802271515 METAR LIRA 271515Z 17006KT 130V220 7000 FEW015 BKN023 13/11
                        Q1019=
200802271445 METAR LIRA 271445Z 18006KT 7000 FEW015 BKN025 13/10 Q1020=
200802271415 METAR LIRA 271415Z 17005KT 7000 FEW012 BKN025 13/10 Q1020=
200802271345 METAR LIRA 271345Z 19007KT 150V240 7000 -DZ FEW012 BKN025
                        14/11 Q1020=
200802271315 METAR LIRA 271315Z 23005KT 180V250 8000 -DZ FEW012 BKN025
                        13/10 Q1020=
200802271245 METAR LIRA 271245Z 18007KT 160V270 9999 FEW012 SCT070 14/12
                        Q1020=
200802271215 METAR LIRA 271215Z 20006KT 9999 FEW018 SCT070 14/12 Q1020=
200802271145 METAR LIRA 271145Z 18008KT 9999 FEW018 SCT025 13/11 Q1020=
200802271115 METAR LIRA 271115Z 18009KT 9000 FEW018 SCT025 13/11 Q1020=
200802271045 METAR LIRA 271045Z 19007KT 8000 SCT025 BKN070 13/10 Q1021=
200802271015 METAR LIRA 271015Z 15007KT 8000 SCT025 BKN070 12/10 Q1021=
200802270945 METAR LIRA 270945Z 15006KT 100V180 9000 SCT025 BKN070 12/09
                        Q1021=
200802270915 METAR LIRA 270915Z 17005KT 5000 -DZ BR SCT025 BKN070 12/09
                        Q1021=
200802270845 METAR LIRA 270845Z 00000KT 5000 BR FEW020 SCT030 BKN070 11/09
                        Q1021=
200802270815 METAR LIRA 270815Z 00000KT 8000 FEW020 SCT030 BKN070 11/09
                        Q1021=
200802270745 METAR LIRA 270745Z 00000KT 8000 FEW020 SCT030 BKN070 11/09
                        Q1021=
200802270715 METAR LIRA 270715Z 00000KT 9000 FEW020 SCT025 BKN070 10/08
                        Q1020=
200802270645 METAR LIRA 270645Z 11002KT 9000 FEW020 SCT025 BKN070 10/08
                        Q1019=
200802270615 METAR LIRA 270615Z 12003KT 9000 BKN025 SCT070 09/07 Q1019=
200802270545 METAR LIRA 270545Z 05002KT 9000 BKN025 SCT070 09/07 Q1020=
200802270515 METAR LIRA 270515Z 12002KT 9000 BKN030 SCT070 09/07 Q1020=
200802270445 METAR LIRA 270445Z 02002KT 9000 FEW030 BKN070 08/06 Q1020=
200802270415 METAR LIRA 270415Z 03002KT 9000 FEW030 BKN070 08/06 Q1020=
200802270345 METAR LIRA 270345Z 00000KT 9000 FEW030 BKN070 08/05 Q1020=
200802270315 METAR LIRA 270315Z 05003KT 9000 FEW030 BKN070 08/05 Q1020=
200802270245 METAR LIRA 270245Z 06003KT 9000 FEW030 BKN070 08/05 Q1020=
200802270215 METAR LIRA 270215Z 17003KT 9000 FEW030 BKN070 08/05 Q1021=
200802270145 METAR LIRA 270145Z 18003KT 9000 FEW030 BKN070 09/06 Q1021=
200802270115 METAR LIRA 270115Z 18003KT 9000 BKN070 08/06 Q1021=
200802270045 METAR LIRA 270045Z 16004KT 9000 FEW070 07/05 Q1021=
200802270015 METAR LIRA 270015Z 16004KT 9000 FEW070 07/02 Q1021=
200802262345 METAR LIRA 262345Z 15003KT 9000 FEW070 07/04 Q1021=
200802262315 METAR LIRA 262315Z 14002KT 9000 FEW070 08/05 Q1022=
200802262245 METAR LIRA 262245Z 11001KT 9000 FEW070 08/05 Q1022=
200802262215 METAR LIRA 262215Z 12007KT 9000 FEW070 08/05 Q1022=
200802262145 METAR LIRA 262145Z 12002KT 9000 FEW033 08/05 Q1022=
200802262115 METAR LIRA 262115Z 15003KT 9000 FEW033 09/06 Q1022=
200802262045 METAR LIRA 262045Z 13002KT 9000 FEW033 10/07 Q1022=
200802262015 METAR LIRA 262015Z 16001KT 9000 FEW030 10/07 Q1022=
200802261945 METAR LIRA 261945Z 16004KT 9000 FEW030 SCT070 10/07 Q1022=
200802261915 METAR LIRA 261915Z 18003KT 9000 SCT030 SCT070 11/08 Q1021=
200802261845 METAR LIRA 261845Z 20003KT 9000 SCT030 SCT070 11/08 Q1021=
200802261815 METAR LIRA 261815Z 21004KT 9999 FEW030 SCT070 12/08 Q1021=
200802261745 METAR LIRA 261745Z 19002KT 9999 FEW030 SCT070 12/08 Q1021=
200802261715 METAR LIRA 261715Z 21001KT 9999 FEW020 SCT070 12/09 Q1021=
200802261645 METAR LIRA 261645Z 22004KT 9999 FEW018TCU SCT070 14/10 Q1021=
200802261615 METAR LIRA 261615Z 25007KT 210V270 9999 FEW018CB SCT020 14/10
                        Q1021=
200802261545 METAR LIRA 261545Z 24006KT 9999 SCT015 FEW018CB SCT025 14/09
                        Q1021=
200802261515 METAR LIRA 261515Z 25004KT 9999 SCT015 FEW018CB SCT025 14/09
                        Q1021=
200802261445 METAR LIRA 261445Z 23006KT 170V280 9999 SCT017 FEW018CB SCT025
                        15/09 Q1021=
200802261415 METAR LIRA 261415Z 27005KT 230V320 9999 SCT017 FEW018CB SCT025
                        16/09 Q1021=
200802261345 METAR LIRA 261345Z 24006KT 200V270 9999 SCT017 FEW018CB 16/09
                        Q1021=
200802261315 METAR LIRA 261315Z 25003KT 9999 SCT017 FEW018CB 15/09 Q1021=
200802261245 METAR LIRA 261245Z 34002KT 9999 SCT020 FEW021TCU 15/08 Q1022=
200802261215 METAR LIRA 261215Z 24006KT 180V280 9999 SCT020 FEW021TCU
                        16/09 Q1022=
200802261145 METAR LIRA 261145Z 23005KT 190V260 9999 SCT020 14/09 Q1022=
200802261115 METAR LIRA 261115Z 24004KT 9999 SCT020 15/10 Q1023=
200802261045 METAR LIRA 261045Z 24005KT 9000 SCT020 14/10 Q1023=
200802261015 METAR LIRA 261015Z 20005KT 8000 SCT020 14/10 Q1023=
200802260945 METAR LIRA 260945Z 21006KT 150V230 7000 SCT020 14/10 Q1023=
200802260915 METAR LIRA 260915Z 23003KT 7000 FEW020 13/10 Q1023=
200802260845 METAR LIRA 260845Z 23001KT 6000 NSC 11/08 Q1023=
200802260815 METAR LIRA 260815Z 00000KT 6000 NSC 10/08 Q1023=
200802260745 METAR LIRA 260745Z 00000KT 6000 SCT070 08/07 Q1023=
200802260715 METAR LIRA 260715Z 11001KT 6000 SCT070 07/07 Q1023=
200802260645 METAR LIRA 260645Z 11003KT 6000 FEW010 BKN070 07/07 Q1023=
200802260615 METAR LIRA 260615Z 09005KT 5000 BR FEW004 BKN070 07/07 Q1023=
200802260545 METAR LIRA 260545Z 00000KT 4000 BR FEW004 SCT025 08/08 Q1023=
200802260515 METAR LIRA 260515Z 00000KT 4000 BR FEW006 SCT025 08/08 Q1023=
200802260445 METAR LIRA 260445Z 00000KT 4000 BR FEW010 SCT025 08/08 Q1023=
200802260415 METAR LIRA 260415Z 00000KT 4000 BR FEW010 SCT025 08/08 Q1023=
200802260345 METAR LIRA 260345Z 06002KT 3500 BR FEW010 SCT025 BKN070 08/08
                        Q1023=
200802260315 METAR LIRA 260315Z 06002KT 4000 BR FEW010 SCT025 08/08 Q1024=
200802260245 METAR LIRA 260245Z 00000KT 4000 BR FEW010 SCT025 BKN070 09/09
                        Q1024=
200802260215 METAR LIRA 260215Z 00000KT 4000 BR FEW010 SCT025 BKN070 08/08
                        Q1024=
200802260145 METAR LIRA 260145Z 07002KT 3500 BR FEW010 SCT025 BKN080 08/08
                        Q1024=
200802260115 METAR LIRA 260115Z 11002KT 4000 BR FEW010 BKN080 07/07 Q1024=
200802260045 METAR LIRA 260045Z 10003KT 4000 BR FEW010 BKN080 07/07 Q1024=
200802260015 METAR LIRA 260015Z 00000KT 5000 BR FEW010 BKN080 07/07 Q1024=
200802252345 METAR LIRA 252345Z 12001KT 6000 FEW010 BKN080 07/07 Q1025=
200802252315 METAR LIRA 252315Z 10002KT 5000 BR FEW010 BKN090 07/07 Q1025=
200802252245 METAR LIRA 252245Z 07002KT 6000 FEW010 BKN090 08/07 Q1025=
200802252215 METAR LIRA 252215Z 17001KT 6000 NSC 08/07 Q1025=
200802252145 METAR LIRA 252145Z 11002KT 6000 NSC 08/08 Q1025=
200802252115 METAR LIRA 252115Z 17003KT 6000 FEW080 SCT200 09/08 Q1025=
200802252045 METAR LIRA 252045Z 16003KT 6000 FEW080 SCT200 09/08 Q1024=
200802252015 METAR LIRA 252015Z 16003KT 6000 NSC 09/08 Q1024=
200802251945 METAR LIRA 251945Z 16004KT 6000 NSC 09/08 Q1024=
200802251915 METAR LIRA 251915Z 16005KT 6000 NSC 09/08 Q1024=
200802251845 METAR LIRA 251845Z 17002KT 6000 NSC 11/09 Q1024=
200802251815 METAR LIRA 251815Z 23003KT 6000 SCT080 11/09 Q1024=
200802251745 METAR LIRA 251745Z 23003KT 6000 SCT080 11/08 Q1025=
200802251715 METAR LIRA 251715Z 00000KT 6000 SCT080 SCT200 13/09 Q1025=
200802251645 METAR LIRA 251645Z 00000KT 7000 FEW025 SCT200 13/09 Q1025=
200802251615 METAR LIRA 251615Z 23002KT 7000 FEW025 SCT200 13/09 Q1025=
200802251545 METAR LIRA 251545Z 23001KT 7000 FEW023 SCT200 14/09 Q1025=
200802251515 METAR LIRA 251515Z 20001KT 7000 FEW023 BKN200 14/09 Q1025=
200802251445 METAR LIRA 251445Z 25002KT 6000 FEW015 BKN023 13/09 Q1025=
200802251415 METAR LIRA 251415Z 24003KT 6000 FEW015 BKN023 13/09 Q1025=
200802251345 METAR LIRA 251345Z 22006KT 7000 FEW015 BKN023 14/10 Q1026=
200802251315 METAR LIRA 251315Z 24006KT 160V270 6000 FEW015 BKN023 14/10
                        Q1026=
200802251245 METAR LIRA 251245Z 21004KT 5000 BR FEW008 BKN023 14/11 Q1027=
200802251215 METAR LIRA 251215Z 20004KT 5000 BR FEW008 BKN023 14/11 Q1027=
200802251145 METAR LIRA 251145Z 24004KT 180V270 5000 BR FEW008 BKN023
                        14/11 Q1027=
200802251115 METAR LIRA 251115Z 21005KT 160V270 5000 BR FEW008 BKN013
                        13/11 Q1027=
200802251045 METAR LIRA 251045Z 19006KT 150V280 5000 BR FEW008 SCT013
                        13/11 Q1028=
200802251015 METAR LIRA 251015Z 20008KT 160V270 3500 BR SCT008 13/11 Q1028=
200802250945 METAR LIRA 250945Z 21008KT 150V250 3000 BR SCT001 13/11 Q1027=
200802250915 METAR LIRA 250915Z 21009KT 160V250 3000 BR SCT007 11/10 Q1027=
200802250845 METAR LIRA 250845Z 20010KT 170V260 2500 BR SCT005 10/09 Q1027=
200802250815 METAR LIRA 250815Z 00000KT 2000 BR SCT002 09/08 Q1027=
200802250745 METAR LIRA 250745Z 21004KT 1500 0500S BCFG SCT002 06/06 Q1027=
200802250715 METAR LIRA 250715Z 25003KT 5000 BR SKC 05/05 Q1027=
200802250645 METAR LIRA 250645Z 27001KT 6000 SKC 04/04 Q1027=
200802250615 METAR LIRA 250615Z 15001KT 6000 SKC 04/04 Q1027=
200802250545 METAR LIRA 250545Z 03001KT 6000 SKC 03/03 Q1028=
200802250515 METAR LIRA 250515Z 10002KT 3000 MIFG FEW003 04/04 Q1028=
200802250445 METAR LIRA 250445Z 14004KT 5000 BR SKC 04/03 Q1028=
200802250415 METAR LIRA 250415Z 15004KT 4000 BR SKC 04/03 Q1028=
200802250345 METAR LIRA 250345Z 23001KT 4500 2000N BR SKC 05/03 Q1028=
200802250315 METAR LIRA 250315Z VRB02KT 7000 SKC 05/03 Q1028=
200802250245 METAR LIRA 250245Z 00000KT 7000 SKC 05/03 Q1028=
200802250215 METAR LIRA 250215Z 00000KT 6000 SKC 06/03 Q1028=
200802250145 METAR LIRA 250145Z 00000KT 6000 SKC 06/04 Q1028=
200802250115 METAR LIRA 250115Z 00000KT 6000 SKC 06/04 Q1028=
200802250045 METAR LIRA 250045Z 00000KT 6000 SKC 07/05 Q1029=
200802250015 METAR LIRA 250015Z 10002KT 6000 SKC 07/05 Q1029=
200802242345 METAR LIRA 242345Z 00000KT 6000 SKC 07/06 Q1029=
200802242315 METAR LIRA 242315Z 00000KT 6000 SKC 07/06 Q1029=
200802242245 METAR LIRA 242245Z 11001KT 6000 SKC 08/07 Q1029=
200802242215 METAR LIRA 242215Z 12002KT 6000 SKC 08/08 Q1029=
200802242145 METAR LIRA 242145Z 10002KT 6000 SKC 08/08 Q1029=
200802242115 METAR LIRA 242115Z 11001KT 6000 SKC 08/08 Q1029=
200802242045 METAR LIRA 242045Z 13002KT 7000 SKC 09/08 Q1029=
200802242015 METAR LIRA 242015Z 00000KT 7000 SKC 09/08 Q1029=
200802241945 METAR LIRA 241945Z 00000KT 7000 SKC 09/08 Q1029=
200802241915 METAR LIRA 241915Z 00000KT 7000 SKC 10/08 Q1029=
200802241845 METAR LIRA 241845Z 19001KT 7000 SKC 11/08 Q1029=
200802241815 METAR LIRA 241815Z 21002KT 7000 SKC 11/08 Q1029=
200802241745 METAR LIRA 241745Z 22002KT 7000 SKC 13/09 Q1029=
200802241715 METAR LIRA 241715Z 23002KT 7000 SKC 13/08 Q1029=
200802241645 METAR LIRA 241645Z 21003KT 6000 SKC 15/09 Q1029=
200802241615 METAR LIRA 241615Z 23002KT 200V270 9000 SKC 16/10 Q1028=
200802241545 METAR LIRA 241545Z 22004KT 200V270 9000 SKC 17/11 Q1028=
200802241515 METAR LIRA 241515Z 24005KT 210V300 9000 4000SE SKC 17/11
                        Q1028=
200802241445 METAR LIRA 241445Z 23005KT 180V280 9000 4000SE SKC 17/11
                        Q1028=
200802241415 METAR LIRA 241415Z 22007KT 170V260 CAVOK 17/10 Q1028=
200802241345 METAR LIRA 241345Z 21005KT 150V240 CAVOK 18/10 Q1028=
200802241315 METAR LIRA 241315Z 19006KT CAVOK 18/09 Q1029=
200802241245 METAR LIRA 241245Z 21002KT CAVOK 17/09 Q1029=
200802241215 METAR LIRA 241215Z 26004KT 9000 4000SE SKC 17/09 Q1029=
200802241145 METAR LIRA 241145Z 25003KT 9000 4000SE SKC 16/09 Q1029=
200802241115 METAR LIRA 241115Z 24003KT 7000 SKC 16/09 Q1030=
200802241045 METAR LIRA 241045Z 00000KT 7000 SKC 14/08 Q1030=
200802241015 METAR LIRA 241015Z 00000KT 7000 SKC 13/07 Q1030=
200802240945 METAR LIRA 240945Z 36002KT 7000 SKC 11/07 Q1030=
200802240915 METAR LIRA 240915Z 02002KT 7000 SKC 10/07 Q1030=
200802240845 METAR LIRA 240845Z 07003KT 7000 SKC 08/06 Q1030=
200802240815 METAR LIRA 240815Z 02002KT 7000 SKC 08/06 Q1030=
200802240745 METAR LIRA 240745Z 06003KT 6000 SKC 06/05 Q1029=
200802240715 METAR LIRA 240715Z 06002KT 6000 SKC 05/05 Q1029=
200802240645 METAR LIRA 240645Z 06002KT 7000 NSC 05/04 Q1029=
200802240615 METAR LIRA 240615Z 03004KT 8000 NSC 05/04 Q1029=
200802240545 METAR LIRA 240545Z 05006KT 8000 SKC 05/04 Q1029=
200802240515 METAR LIRA 240515Z 04004KT 7000 SKC 05/04 Q1029=
200802240445 METAR LIRA 240445Z 05004KT 7000 SKC 05/03 Q1029=
200802240415 METAR LIRA 240415Z 08004KT 7000 SKC 05/03 Q1029=
200802240345 METAR LIRA 240345Z 04003KT 7000 SKC 05/03 Q1029=
200802240315 METAR LIRA 240315Z 04003KT 7000 SKC 05/03 Q1029=
200802240245 METAR LIRA 240245Z 08002KT 7000 SKC 05/03 Q1029=
200802240215 METAR LIRA 240215Z 10002KT 7000 SKC 06/04 Q1029=
200802240145 METAR LIRA 240145Z 08001KT 7000 SKC 06/04 Q1029=
200802240115 METAR LIRA 240115Z 04003KT 7000 SKC 06/04 Q1029=
200802240045 METAR LIRA 240045Z 03002KT 8000 SKC 06/04 Q1029=
200802240015 METAR LIRA 240015Z 00000KT 8000 SKC 06/04 Q1029=
200802232350 METAR LIRA 240045Z 03002KT 8000 SKC 06/04 Q1029=
200802232345 METAR LIRA 232345Z 00000KT 8000 SKC 07/05 Q1029=
200802232315 METAR LIRA 232315Z 00000KT 8000 SKC 08/05 Q1029=
200802232245 METAR LIRA 232245Z 00000KT 8000 SKC 08/06 Q1029=
200802232215 METAR LIRA 232215Z 03002KT 8000 SKC 08/06 Q1029=
200802232145 METAR LIRA 232145Z 00000KT 8000 SKC 08/05 Q1029=
200802232115 METAR LIRA 232115Z 12002KT 8000 SKC 08/05 Q1029=
200802232045 METAR LIRA 232045Z 19003KT 8000 SKC 09/06 Q1029=
200802232015 METAR LIRA 232015Z 18003KT CAVOK 10/07 Q1029=
200802231945 METAR LIRA 231945Z 17004KT CAVOK 10/06 Q1029=
200802231915 METAR LIRA 231915Z 17005KT CAVOK 11/07 Q1029=
200802231845 METAR LIRA 231845Z 19004KT CAVOK 12/08 Q1028=
200802231815 METAR LIRA 231815Z 19005KT CAVOK 12/08 Q1028=
200802231745 METAR LIRA 231745Z 19003KT CAVOK 12/08 Q1028=
200802231715 METAR LIRA 231715Z 19004KT CAVOK 12/08 Q1028=
200802231645 METAR LIRA 231645Z 22004KT CAVOK 14/09 Q1028=
200802231615 METAR LIRA 231615Z 25003KT CAVOK 15/10 Q1028=
200802231545 METAR LIRA 231545Z 25003KT 230V300 CAVOK 15/08 Q1028=
200802231515 METAR LIRA 231515Z 28005KT 220V320 CAVOK 15/08 Q1028=
200802231445 METAR LIRA 231445Z 27007KT 210V330 CAVOK 15/08 Q1028=
200802231415 METAR LIRA 231415Z 28008KT 220V330 CAVOK 16/09 Q1028=
200802231345 METAR LIRA 231345Z 28007KT 220V330 CAVOK 16/09 Q1028=
200802231315 METAR LIRA 231315Z 28008KT 210V330 8000 SKC 16/08 Q1028=
200802231245 METAR LIRA 231245Z 28005KT 240V360 8000 SKC 16/07 Q1028=
200802231215 METAR LIRA 231215Z 32005KT 270V360 8000 NSC 15/07 Q1028=
200802231145 METAR LIRA 231145Z 34004KT 8000 NSC 14/07 Q1029=
200802231115 METAR LIRA 231115Z 33004KT 8000 NSC 14/07 Q1029=
200802231045 METAR LIRA 231045Z 34004KT 300V030 8000 NSC 12/07 Q1029=
200802231015 METAR LIRA 231015Z 04003KT 8000 NSC 11/06 Q1029=
200802230945 METAR LIRA 230945Z 02003KT 8000 SKC 10/06 Q1029=
200802230915 METAR LIRA 230915Z 01003KT 8000 SKC 09/06 Q1029=
200802230845 METAR LIRA 230845Z 03004KT 8000 SKC 07/05 Q1029=
200802230815 METAR LIRA 230815Z 04004KT 8000 SKC 07/05 Q1029=
200802230745 METAR LIRA 230745Z 01004KT 8000 SKC 05/05 Q1029=
200802230715 METAR LIRA 230715Z 07003KT CAVOK 04/04 Q1029=
200802230645 METAR LIRA 230645Z 04002KT CAVOK 03/03 Q1029=
200802230615 METAR LIRA 230615Z 04002KT CAVOK 03/03 Q1028=
200802230545 METAR LIRA 230545Z 01002KT CAVOK 03/03 Q1028=
200802230515 METAR LIRA 230515Z 02001KT CAVOK 03/03 Q1028=
200802230445 METAR LIRA 230445Z 07003KT CAVOK 04/04 Q1028=
200802230415 METAR LIRA 230415Z 02002KT 9999 FEW010 04/04 Q1028=
200802230345 METAR LIRA 230345Z 00000KT CAVOK 05/05 Q1028=
200802230315 METAR LIRA 230315Z 00000KT CAVOK 05/04 Q1028=
200802230245 METAR LIRA 230245Z 06002KT CAVOK 05/04 Q1029=
200802230215 METAR LIRA 230215Z 03002KT CAVOK 06/05 Q1029=
200802230145 METAR LIRA 230145Z 05002KT CAVOK 05/04 Q1029=
200802230115 METAR LIRA 230115Z 05002KT CAVOK 06/03 Q1029=
200802230045 METAR LIRA 230045Z 05003KT CAVOK 06/04 Q1029=
200802230015 METAR LIRA 230015Z 16001KT CAVOK 05/03 Q1029=
200802222345 METAR LIRA 222345Z 15003KT CAVOK 06/04 Q1029=
200802222315 METAR LIRA 222315Z 15002KT CAVOK 07/05 Q1029=
200802222245 METAR LIRA 222245Z 15003KT CAVOK 07/05 Q1029=
200802222215 METAR LIRA 222215Z 15003KT CAVOK 07/05 Q1029=
200802222145 METAR LIRA 222145Z 15002KT CAVOK 08/07 Q1029=
200802222115 METAR LIRA 222115Z 14002KT CAVOK 08/07 Q1029=
200802222045 METAR LIRA 222045Z 14002KT CAVOK 09/07 Q1029=
200802222015 METAR LIRA 222015Z 12001KT CAVOK 09/07 Q1029=
200802221945 METAR LIRA 221945Z 18002KT CAVOK 09/07 Q1029=
200802221915 METAR LIRA 221915Z 16003KT CAVOK 10/07 Q1029=
200802221845 METAR LIRA 221845Z 18002KT CAVOK 10/07 Q1028=
200802221815 METAR LIRA 221815Z 18003KT CAVOK 11/07 Q1028=
200802221745 METAR LIRA 221745Z 23003KT CAVOK 12/08 Q1028=
200802221715 METAR LIRA 221715Z 23003KT CAVOK 13/06 Q1028=
200802221645 METAR LIRA 221645Z 23005KT 9999 FEW018 14/07 Q1028=
200802221615 METAR LIRA 221615Z 23004KT 9999 FEW018 15/08 Q1028=
200802221545 METAR LIRA 221545Z 23006KT 190V260 9999 FEW018 15/08 Q1028=
200802221515 METAR LIRA 221515Z 24004KT 9999 FEW018 15/09 Q1028=
200802221445 METAR LIRA 221445Z 24004KT 9999 FEW018 16/09 Q1028=
200802221415 METAR LIRA 221415Z 27003KT 9999 SCT018 15/09 Q1028=
200802221345 METAR LIRA 221345Z 29005KT 9999 SCT018 16/10 Q1028=
200802221315 METAR LIRA 221315Z 24005KT 190V260 9999 SCT018 16/10 Q1028=
200802221245 METAR LIRA 221245Z 24006KT 200V270 9999 SCT018 16/10 Q1028=
200802221215 METAR LIRA 221215Z 26005KT 170V310 9999 SCT018 16/10 Q1029=
200802221145 METAR LIRA 221145Z 25003KT 9999 SCT018 14/10 Q1029=
200802221115 METAR LIRA 221115Z 30001KT 9999 SCT018 14/10 Q1029=
200802221045 METAR LIRA 221045Z 00000KT 9999 FEW018 12/09 Q1029=
200802221015 METAR LIRA 221015Z 30001KT 9999 FEW018 11/08 Q1029=
200802220945 METAR LIRA 220945Z 00000KT 9999 FEW018 10/07 Q1029=
200802220915 METAR LIRA 220915Z 00000KT CAVOK 08/07 Q1029=
200802220845 METAR LIRA 220845Z 05002KT 9000 FEW080 07/05 Q1029=
200802220815 METAR LIRA 220815Z 03002KT 9000 FEW080 06/05 Q1029=
200802220745 METAR LIRA 220745Z 05002KT 9000 FEW080 05/04 Q1029=
200802220715 METAR LIRA 220715Z 04002KT 9000 FEW080 04/03 Q1028=
200802220645 METAR LIRA 220645Z 00000KT 9000 FEW080 04/03 Q1028=
200802220615 METAR LIRA 220615Z 00000KT 7000 FEW080 03/03 Q1028=
200802220545 METAR LIRA 220545Z 05003KT 8000 FEW080 04/03 Q1027=
200802220515 METAR LIRA 220515Z 05002KT 8000 FEW080 04/03 Q1027=
200802220445 METAR LIRA 220445Z 05002KT 8000 NSC 04/03 Q1027=
200802220415 METAR LIRA 220415Z 02002KT 8000 FEW070 SCT200 04/03 Q1027=
200802220345 METAR LIRA 220345Z 00000KT 8000 FEW070 SCT200 05/03 Q1027=
200802220315 METAR LIRA 220315Z 00000KT 8000 FEW070 SCT200 05/03 Q1027=
200802220245 METAR LIRA 220245Z 00000KT 8000 FEW070 SCT200 05/04 Q1027=
200802220045 METAR LIRA 220045Z 04002KT 9000 FEW030 SCT070 07/06 Q1028=
200802220015 METAR LIRA 220015Z 04002KT 9000 FEW030 SCT070 08/06 Q1028=
200802212345 METAR LIRA 212345Z 03003KT 9000 FEW030 SCT070 07/06 Q1028=
200802212315 METAR LIRA 212315Z 00000KT 9999 FEW030 SCT070 08/06 Q1028=
200802212245 METAR LIRA 212245Z 00000KT 9999 FEW030 SCT070 08/06 Q1028=
200802212215 METAR LIRA 212215Z 00000KT 9999 FEW030 SCT070 09/06 Q1027=
200802212145 METAR LIRA 212145Z 00000KT 8000 FEW030 BKN070 09/07 Q1027=
200802212115 METAR LIRA 212115Z 00000KT 9999 FEW030 BKN070 09/08 Q1027=
200802212045 METAR LIRA 212045Z 00000KT 9999 FEW030 BKN070 09/08 Q1027=
200802212015 METAR LIRA 212015Z 16002KT 9999 FEW030 BKN070 09/07 Q1027=
200802211945 METAR LIRA 211945Z 14005KT 9999 FEW030 BKN070 09/07 Q1026=
200802211915 METAR LIRA 211915Z 08004KT 9999 FEW030 SCT070 10/08 Q1026=
200802211845 METAR LIRA 211845Z 12009KT 9999 FEW020 SCT025 BKN070 10/08
                        Q1026=
200802211815 METAR LIRA 211815Z 12006KT 9999 FEW030 SCT070 10/09 Q1026=
200802211745 METAR LIRA 211745Z 14001KT 9999 FEW020 SCT025 BKN070 10/09
                        Q1026=
200802211715 METAR LIRA 211715Z 15005KT 9999 FEW020 SCT030 BKN070 10/09
                        Q1026=
200802211645 METAR LIRA 211645Z 17002KT 9999 -RA FEW020 SCT025 11/10 Q1025=
200802211615 METAR LIRA 211615Z 13003KT 9999 -RA FEW020 SCT025 11/09 Q1025=
200802211545 METAR LIRA 211545Z 12007KT 090V160 9999 -RA FEW020 SCT025
                        11/09 Q1025=
200802211515 METAR LIRA 211515Z 00000KT 9999 FEW020 SCT025 11/09 Q1025=
200802211445 METAR LIRA 211445Z 08001KT 9999 -RA FEW018 SCT025 BKN070
                        12/10 Q1025=
200802211415 METAR LIRA 211415Z 01002KT 9999 FEW018 SCT025 BKN070 11/09
                        Q1025=
200802211345 METAR LIRA 211345Z 04002KT 9999 -RA FEW018 SCT025 BKN070
                        11/09 Q1026=
200802211315 METAR LIRA 211315Z 12006KT 100V160 9999 -RA FEW018 SCT025
                        BKN070 11/09 Q1026=
200802211245 METAR LIRA 211245Z 13001KT 9999 FEW018 SCT025 BKN070 11/09
                        Q1026=
200802211215 METAR LIRA 211215Z 09008KT 030V120 8000 -RA FEW018 SCT025
                        BKN070 10/09 Q1026=
200802211145 METAR LIRA 211145Z 11003KT 8000 -RA FEW018 SCT025 BKN070
                        10/08 Q1027=
200802211115 METAR LIRA 211115Z 00000KT 8000 -RA FEW018 SCT025 BKN070
                        10/08 Q1027=
200802211045 METAR LIRA 211045Z 09006KT 070V130 8000 -RA FEW020 SCT030
                        BKN070 10/06 Q1027=
200802211015 METAR LIRA 211015Z 11008KT 8000 FEW020 SCT030 BKN070 10/06
                        Q1027=
200802210945 METAR LIRA 210945Z 12010KT 9999 -RA FEW020 SCT030 BKN070
                        10/06 Q1027=
200802210915 METAR LIRA 210915Z 12015KT 9999 -RA FEW020 SCT030 BKN070
                        10/06 Q1026=
200802210845 METAR LIRA 210845Z 12009KT 090V150 9999 FEW020 SCT030 BKN070
                        11/07 Q1026=
200802210815 METAR LIRA 210815Z 08004KT 9999 FEW020 SCT030 BKN070 10/07
                        Q1026=
200802210745 METAR LIRA 210745Z 09007KT 9999 FEW020 SCT030 BKN070 09/06
                        Q1026=
200802210715 METAR LIRA 210715Z 09012KT 070V130 9999 -RA FEW020 SCT030
                        BKN070 09/06 Q1026=
200802210645 METAR LIRA 210645Z 06004KT 9999 SCT030 BKN070 08/05 Q1026=
200802210615 METAR LIRA 210615Z 06003KT 9999 SCT030 BKN070 08/06 Q1026=
200802210545 METAR LIRA 210545Z 04002KT 9999 SCT030 BKN070 08/06 Q1025=
200802210515 METAR LIRA 210515Z 05003KT 9999 SCT030 BKN070 08/05 Q1025=
200802210445 METAR LIRA 210445Z 01003KT 9999 SCT030 BKN070 08/05 Q1025=
200802210415 METAR LIRA 210415Z 00000KT 9999 SCT030 SCT070 08/05 Q1025=
200802210345 METAR LIRA 210345Z 03002KT 9999 FEW025 SCT070 08/06 Q1025=
200802210315 METAR LIRA 210315Z 05005KT 9999 FEW030 BKN070 08/05 Q1025=
200802210245 METAR LIRA 210245Z 09003KT 9999 FEW030 BKN070 08/05 Q1026=
200802210215 METAR LIRA 210215Z 11001KT 9999 FEW025 BKN070 09/06 Q1026=
200802210145 METAR LIRA 210145Z 28003KT 9999 SCT030 SCT060 08/05 Q1026=
200802210115 METAR LIRA 210115Z 21001KT 9999 SCT030 SCT060 08/05 Q1026=
200802210045 METAR LIRA 210045Z 00000KT 9999 SCT025 SCT060 09/06 Q1026=
200802210015 METAR LIRA 210015Z 08003KT 9999 SCT025 SCT060 09/05 Q1026=
200802202345 METAR LIRA 202345Z 00000KT 9999 SCT025 SCT060 09/06 Q1026=
200802202315 METAR LIRA 202315Z 20004KT 8000 BKN025 SCT060 10/06 Q1026=
200802202245 METAR LIRA 202245Z 19003KT 8000 -DZ SCT025 SCT060 10/05 Q1026=
200802202215 METAR LIRA 202215Z 00000KT 9999 -DZ SCT025 SCT060 10/05 Q1026=
200802202145 METAR LIRA 202145Z 00000KT 9999 SCT025 SCT060 10/06 Q1026=
200802202115 METAR LIRA 202115Z 00000KT 9999 BKN025 SCT060 10/05 Q1026=
200802202045 METAR LIRA 202045Z 36002KT 9999 SCT025 SCT060 10/05 Q1026=
200802202015 METAR LIRA 202015Z 00000KT 9999 SCT025 SCT060 10/04 Q1026=
200802201945 METAR LIRA 201945Z 00000KT 9999 SCT025 SCT060 10/05 Q1026=
200802201915 METAR LIRA 201915Z 18004KT 9999 SCT025 BKN060 10/05 Q1026=
200802201845 METAR LIRA 201845Z 18005KT 9999 SCT030 BKN060 10/03 Q1026=
200802201815 METAR LIRA 201815Z 17007KT 9999 SCT030 BKN070 10/03 Q1026=
200802201745 METAR LIRA 201745Z 18007KT 9999 SCT030 BKN060 11/03 Q1026=
200802201715 METAR LIRA 201715Z 18009KT 9999 SCT030 BKN060 11/03 Q1026=
200802201645 METAR LIRA 201645Z 20007KT 9999 SCT025 BKN070 12/04 Q1026=
200802201615 METAR LIRA 201615Z 19006KT 9999 FEW025 BKN070 12/04 Q1026=
200802201545 METAR LIRA 201545Z 22003KT 9999 FEW035 BKN080 12/04 Q1026=
200802201515 METAR LIRA 201515Z 19007KT 9999 FEW022 SCT080 12/05 Q1026=
200802201445 METAR LIRA 201445Z 20007KT 160V240 9999 FEW022 SCT035 BKN080
                        12/05 Q1026=
200802201415 METAR LIRA 201415Z 22007KT 170V270 9999 FEW022 SCT035 BKN080
                        13/05 Q1026=
200802201345 METAR LIRA 201345Z 00000KT 9999 FEW022 SCT080 13/06 Q1027=
200802201315 METAR LIRA 201315Z 34003KT 9999 FEW022 SCT080 BKN200 13/06
                        Q1027=
200802201245 METAR LIRA 201245Z 33002KT 9999 FEW022 SCT040 BKN080 13/06
                        Q1027=
200802201215 METAR LIRA 201215Z 36004KT 9999 FEW022 SCT040 BKN080 13/07
                        Q1028=
200802201145 METAR LIRA 201145Z 00000KT 9999 FEW022 BKN200 13/07 Q1028=
200802201115 METAR LIRA 201115Z 16004KT 9999 FEW022 BKN200 12/06 Q1028=
200802201045 METAR LIRA 201045Z 00000KT 9999 FEW023 BKN200 11/04 Q1029=
200802201015 METAR LIRA 201015Z 00000KT 8000 FEW023 SCT035 BKN080 10/05
                        Q1029=
200802200945 METAR LIRA 200945Z 04003KT 8000 FEW035 BKN080 10/05 Q1029=
200802200915 METAR LIRA 200915Z 04004KT 8000 FEW040 BKN070 09/04 Q1029=
200802200900 METAR LIRA INT CB NW/NE=
200802200845 METAR LIRA 200845Z 01001KT 8000 FEW040 SCT070 07/04 Q1028=
200802200815 METAR LIRA 200815Z 01002KT 7000 FEW040 SCT070 05/02 Q1028=
200802200745 METAR LIRA 200745Z 36001KT 7000 FEW040 SCT200 04/02 Q1028=
200802200715 METAR LIRA 200715Z 03001KT 7000 FEW035 03/01 Q1028=
200802200645 METAR LIRA 200645Z 03004KT 8000 SCT035 02/02 Q1028=
200802200615 METAR LIRA 200615Z 01003KT 8000 FEW035 02/02 Q1028=
200802200545 METAR LIRA 200545Z 03002KT 9999 FEW035 SCT070 02/02 Q1028=
200802200515 METAR LIRA 200515Z 05005KT 9999 FEW035 BKN070 01/01 Q1028=
200802200445 METAR LIRA 200445Z 05003KT 9999 FEW020 BKN070 01/01 Q1028=
200802200415 METAR LIRA 200415Z 04004KT 9999 FEW020 BKN070 01/01 Q1028=
200802200345 METAR LIRA 200345Z 03003KT 9999 BKN070 01/01 Q1029=
200802200315 METAR LIRA 200315Z 04003KT 9999 SCT070 01/01 Q1029=
200802200245 METAR LIRA 200245Z 04003KT 9999 SCT070 02/01 Q1029=
200802200215 METAR LIRA 200215Z 06004KT 9999 SCT070 02/02 Q1029=
200802200145 METAR LIRA 200145Z 06003KT 9999 FEW070 03/02 Q1029=
200802200115 METAR LIRA 200115Z VRB01KT 9999 FEW070 03/02 Q1029=
200802200045 METAR LIRA 200045Z 00000KT 9999 FEW070 03/02 Q1029=
200802200015 METAR LIRA 200015Z 12003KT 9999 FEW070 04/02 Q1029=
200802192345 METAR LIRA 192345Z 12004KT CAVOK 03/02 Q1029=
200802192315 METAR LIRA 192315Z 11004KT CAVOK 04/02 Q1029=
200802192245 METAR LIRA 192245Z 12005KT CAVOK 04/02 Q1029=
200802192215 METAR LIRA 192215Z 11006KT CAVOK 04/02 Q1029=
200802192145 METAR LIRA 192145Z 12005KT CAVOK 04/02 Q1029=
200802192115 METAR LIRA 192115Z 12005KT CAVOK 04/02 Q1029=
200802192045 METAR LIRA 192045Z 12006KT CAVOK 04/03 Q1029=
200802192015 METAR LIRA 192015Z 11004KT 8000 SKC 04/02 Q1029=
200802191945 METAR LIRA 191945Z 16004KT CAVOK 05/03 Q1029=
200802191915 METAR LIRA 191915Z 16004KT CAVOK 05/03 Q1029=
200802191845 METAR LIRA 191845Z 16004KT CAVOK 06/03 Q1029=
200802191815 METAR LIRA 191815Z 17003KT CAVOK 07/03 Q1029=
200802191745 METAR LIRA 191745Z 18003KT CAVOK 07/02 Q1028=
200802191715 METAR LIRA 191715Z 20003KT CAVOK 08/03 Q1029=
200802191645 METAR LIRA 191645Z 23004KT CAVOK 10/01 Q1029=
200802191615 METAR LIRA 191615Z 23006KT 180V260 CAVOK 10/01 Q1028=
200802191545 METAR LIRA 191545Z 26003KT CAVOK 11/01 Q1028=
200802191515 METAR LIRA 191515Z 00000KT CAVOK 11/02 Q1028=
200802191445 METAR LIRA 191445Z 00000KT CAVOK 11/02 Q1028=
200802191415 METAR LIRA 191415Z 28003KT CAVOK 11/02 Q1029=
200802191345 METAR LIRA 191345Z 29003KT 9999 FEW030 11/02 Q1029=
200802191315 METAR LIRA 191315Z 22003KT 9999 FEW030 11/02 Q1029=
200802191245 METAR LIRA 191245Z 20005KT 180V320 9999 FEW030 11/02 Q1029=
200802191215 METAR LIRA 191215Z 28002KT 9999 FEW030 10/01 Q1030=
200802191145 METAR LIRA 191145Z 26001KT 9999 FEW070 09/01 Q1030=
200802191115 METAR LIRA 191115Z 28001KT 9999 FEW070 09/01 Q1030=
200802191045 METAR LIRA 191045Z 28002KT 9999 FEW070 08/02 Q1030=
200802191015 METAR LIRA 191015Z 02001KT 8000 FEW070 07/01 Q1030=
200802190945 METAR LIRA 190945Z 00000KT 8000 FEW070 06/01 Q1030=
200802190915 METAR LIRA 190915Z 03001KT 9999 FEW070 04/01 Q1030=
200802190845 METAR LIRA 190845Z 03002KT 9999 FEW070 02/M00 Q1030=
200802190815 METAR LIRA 190815Z 02002KT 9999 FEW070 02/M01 Q1030=
200802190745 METAR LIRA 190745Z 02003KT 9999 FEW070 M00/M01 Q1030=
200802190715 METAR LIRA 190715Z 03002KT CAVOK M01/M02 Q1030=
200802190645 METAR LIRA 190645Z 04002KT CAVOK M01/M03 Q1029=
200802190615 METAR LIRA 190615Z 05001KT 9999 FEW070 M01/M03 Q1029=
200802190545 METAR LIRA 190545Z 09001KT 9999 FEW070 M02/M03 Q1029=
200802190515 METAR LIRA 190515Z 06004KT 9999 FEW070 M02/M03 Q1029=
200802190445 METAR LIRA 190445Z 03001KT CAVOK M02/M02 Q1029=
200802190415 METAR LIRA 190415Z 10002KT CAVOK M01/M02 Q1029=
200802190345 METAR LIRA 190345Z 06003KT CAVOK M01/M01 Q1029=
200802190315 METAR LIRA 190315Z 36001KT CAVOK M01/M01 Q1029=
200802190245 METAR LIRA 190245Z 02003KT CAVOK M00/M01 Q1029=
200802190215 METAR LIRA 190215Z 04002KT CAVOK 00/M00 Q1029=
200802190145 METAR LIRA 190145Z 02002KT CAVOK 00/M01 Q1029=
200802190115 METAR LIRA 190115Z 08004KT CAVOK 00/M01 Q1030=
200802190045 METAR LIRA 190045Z 06005KT CAVOK 00/M00 Q1030=
200802190015 METAR LIRA 190015Z 05003KT CAVOK 01/00 Q1030=
200802182345 METAR LIRA 182345Z 13002KT CAVOK 00/M00 Q1030=
200802182315 METAR LIRA 182315Z 15002KT CAVOK 00/M02 Q1030=
200802182245 METAR LIRA 182245Z 16003KT CAVOK 02/00 Q1030=
200802182215 METAR LIRA 182215Z 13004KT CAVOK 02/00 Q1030=
200802182145 METAR LIRA 182145Z 12002KT CAVOK 02/00 Q1030=
200802182115 METAR LIRA 182115Z 15001KT CAVOK 03/01 Q1030=
200802182045 METAR LIRA 182045Z 00000KT CAVOK 03/00 Q1030=
200802182015 METAR LIRA 182015Z 17004KT CAVOK 03/01 Q1030=
200802181945 METAR LIRA 181945Z 18003KT CAVOK 04/01 Q1031=
200802181915 METAR LIRA 181915Z 18002KT CAVOK 04/01 Q1030=
200802181845 METAR LIRA 181845Z 18003KT CAVOK 05/01 Q1030=
200802181815 METAR LIRA 181815Z 19004KT CAVOK 06/01 Q1030=
200802181745 METAR LIRA 181745Z 18003KT CAVOK 07/01 Q1030=
200802181715 METAR LIRA 181715Z 21002KT CAVOK 07/00 Q1031=
200802181645 METAR LIRA 181645Z 27003KT CAVOK 08/01 Q1031=
200802181615 METAR LIRA 181615Z 27006KT 210V320 CAVOK 09/00 Q1031=
200802181545 METAR LIRA 181545Z 27006KT 210V330 CAVOK 09/M05 Q1031=
200802181515 METAR LIRA 181515Z 27006KT 210V330 CAVOK 10/M06 Q1031=
200802181445 METAR LIRA 181445Z 27008KT 210V330 CAVOK 10/M09 Q1031=
200802181415 METAR LIRA 181415Z 29005KT 260V340 CAVOK 11/M09 Q1031=
200802181345 METAR LIRA 181345Z 28005KT CAVOK 11/M09 Q1032=
200802181315 METAR LIRA 181315Z 34005KT CAVOK 11/M08 Q1032=
200802181245 METAR LIRA 181245Z 31004KT CAVOK 10/M07 Q1033=
200802181215 METAR LIRA 181215Z 23003KT CAVOK 10/M08 Q1033=
200802181145 METAR LIRA 181145Z 30002KT CAVOK 08/M07 Q1034=
200802181115 METAR LIRA 181115Z 36002KT CAVOK 07/M06 Q1034=
200802181045 METAR LIRA 181045Z 33005KT CAVOK 06/M05 Q1034=
200802181015 METAR LIRA 181015Z 06003KT CAVOK 05/M06 Q1034=
200802180945 METAR LIRA 180945Z 36004KT CAVOK 05/M05 Q1035=
200802180915 METAR LIRA 180915Z 03002KT CAVOK 02/M05 Q1035=
200802180845 METAR LIRA 180845Z 36002KT CAVOK 00/M06 Q1035=
200802180815 METAR LIRA 180815Z 02002KT CAVOK M01/M07 Q1035=
200802180745 METAR LIRA 180745Z 04003KT CAVOK M02/M05 Q1035=
200802180715 METAR LIRA 180715Z 05003KT CAVOK M03/M06 Q1035=
200802180645 METAR LIRA 180645Z 05003KT CAVOK M04/M07 Q1035=
200802180615 METAR LIRA 180615Z 06004KT CAVOK M04/M07 Q1034=
200802180545 METAR LIRA 180545Z 05003KT CAVOK M04/M06 Q1034=
200802180515 METAR LIRA 180515Z 04003KT CAVOK M03/M06 Q1034=
200802180445 METAR LIRA 180445Z 05003KT CAVOK M03/M06 Q1034=
200802180415 METAR LIRA 180415Z 04002KT CAVOK M03/M06 Q1034=
200802180345 METAR LIRA 180345Z 05002KT CAVOK M03/M06 Q1034=
200802180315 METAR LIRA 180315Z 04002KT CAVOK M03/M06 Q1034=
200802180245 METAR LIRA 180245Z 06004KT CAVOK M02/M06 Q1034=
200802180215 METAR LIRA 180215Z 06002KT CAVOK M01/M06 Q1035=
200802180145 METAR LIRA 180145Z 06003KT CAVOK M01/M06 Q1035=
200802180115 METAR LIRA 180115Z 04001KT CAVOK M01/M06 Q1035=
200802180045 METAR LIRA 180045Z 02001KT CAVOK M01/M06 Q1025=
200802180015 METAR LIRA 180015Z 04003KT CAVOK M01/M07 Q1036=
200802172350 METAR LIRA 180045Z 02001KT CAVOK M01/M06 Q1035=
200802172345 METAR LIRA 172345Z 06003KT CAVOK M00/M06 Q1036=
200802172315 METAR LIRA 172315Z 10002KT CAVOK 00/M05 Q1037=
200802172245 METAR LIRA 172245Z 06004KT CAVOK M01/M06 Q1037=
200802172215 METAR LIRA 172215Z 10002KT CAVOK M01/M06 Q1037=
200802172145 METAR LIRA 172145Z 32001KT CAVOK 00/M05 Q1037=
200802172115 METAR LIRA 172115Z 00000KT CAVOK 01/M06 Q1038=
200802172045 METAR LIRA 172045Z 25001KT CAVOK 02/M05 Q1038=
200802172015 METAR LIRA 172015Z 07002KT CAVOK 02/M06 Q1038=
200802171945 METAR LIRA 171945Z 04002KT CAVOK 03/M06 Q1038=
200802171915 METAR LIRA 171915Z 00000KT CAVOK 03/M06 Q1038=
200802171845 METAR LIRA 171845Z 22001KT CAVOK 03/M06 Q1038=
200802171815 METAR LIRA 171815Z 17003KT CAVOK 04/M08 Q1038=
200802171745 METAR LIRA 171745Z 21001KT CAVOK 05/M07 Q1038=
200802171715 METAR LIRA 171715Z 26002KT CAVOK 06/M08 Q1038=
200802171645 METAR LIRA 171645Z 27005KT 210V310 CAVOK 07/M09 Q1038=
200802171615 METAR LIRA 171615Z 24006KT 220V300 CAVOK 08/M09 Q1038=
200802171545 METAR LIRA 171545Z 26003KT CAVOK 08/M08 Q1038=
200802171515 METAR LIRA 171515Z 25004KT CAVOK 08/M08 Q1038=
200802171445 METAR LIRA 171445Z 24004KT CAVOK 08/M08 Q1038=
200802171415 METAR LIRA 171415Z 22005KT 200V350 CAVOK 08/M08 Q1038=
200802171345 METAR LIRA 171345Z 23003KT CAVOK 07/M08 Q1038=
200802171315 METAR LIRA 171315Z 26005KT 210V320 CAVOK 08/M07 Q1038=
200802171245 METAR LIRA 171245Z 00000KT CAVOK 08/M07 Q1038=
200802171215 METAR LIRA 171215Z 00000KT CAVOK 07/M08 Q1039=
200802171145 METAR LIRA 171145Z 02002KT CAVOK 06/M08 Q1039=
200802171115 METAR LIRA 171115Z 36006KT 320V080 CAVOK 05/M08 Q1039=
200802171045 METAR LIRA 171045Z 06005KT 310V120 CAVOK 05/M09 Q1039=
200802171015 METAR LIRA 171015Z 03006KT 340V100 CAVOK 04/M09 Q1039=
200802170945 METAR LIRA 170945Z 05010KT 340V090 CAVOK 04/M09 Q1038=
200802170915 METAR LIRA 170915Z 04011KT 010V090 9999 FEW080 03/M09 Q1038=
200802170845 METAR LIRA 170845Z 04010KT 320V090 9999 FEW030 02/M07 Q1038=
200802170815 METAR LIRA 170815Z 03008G24KT 330V080 9999 FEW030 01/M08
                        Q1038=
200802170745 METAR LIRA 170745Z 02008KT 330V080 9999 FEW030 M00/M09 Q1038=
200802170715 METAR LIRA 170715Z 05007KT 330V100 9999 FEW030 M00/M09 Q1037=
200802170645 METAR LIRA 170645Z 02005KT 350V090 9999 FEW030 00/M09 Q1037=
200802170615 METAR LIRA 170615Z 02006KT 330V060 9999 FEW080 00/M09 Q1037=
200802170545 METAR LIRA 170545Z 03005KT 350V060 9999 FEW080 00/M09 Q1036=
200802170515 METAR LIRA 170515Z 03006KT 340V080 9999 FEW080 00/M08 Q1036=
200802170445 METAR LIRA 170445Z 04005KT 360V080 9999 FEW070 00/M08 Q1036=
200802170415 METAR LIRA 170415Z 03005KT 9999 FEW070 M00/M09 Q1035=
200802170345 METAR LIRA 170345Z 03006KT 9999 FEW070 M00/M10 Q1035=
200802170315 METAR LIRA 170315Z 04005KT 9999 FEW070 M00/M10 Q1036=
200802170245 METAR LIRA 170245Z 03005KT 340V070 9999 FEW070 00/M09 Q1036=
200802170215 METAR LIRA 170215Z 02004KT 9999 FEW070 01/M11 Q1035=
200802170145 METAR LIRA 170145Z 03006KT 9999 FEW070 01/M11 Q1035=
200802170115 METAR LIRA 170115Z 03004KT 9999 FEW070 01/M12 Q1035=
200802170045 METAR LIRA 170045Z 03005KT 9999 FEW070 01/M12 Q1035=
200802170015 METAR LIRA 170015Z 02006KT 350V070 9999 FEW070 01/M12 Q1034=
200802162345 METAR LIRA 162345Z 36005KT 340V060 9999 FEW070 02/M12 Q1034=
200802162315 METAR LIRA 162315Z 36007KT 9999 FEW070 02/M12 Q1034=
200802162245 METAR LIRA 162245Z 03006KT 340V050 9999 FEW070 03/M12 Q1033=
200802162215 METAR LIRA 162215Z 02007KT 330V020 9999 FEW070 03/M13 Q1032=
200802162145 METAR LIRA 162145Z 01008KT 330V040 9999 SCT070 03/M13 Q1032=
200802162115 METAR LIRA 162115Z 02007KT 340V060 9999 SCT070 03/M13 Q1032=
200802162045 METAR LIRA 162045Z 03008KT 350V090 9999 SCT080 04/M13 Q1032=
200802162015 METAR LIRA 162015Z 02008KT 330V060 CAVOK 03/M11 Q1032=
200802161945 METAR LIRA 161945Z 01008KT 340V080 CAVOK 05/M10 Q1031=
200802161915 METAR LIRA 161915Z 02012KT CAVOK 05/M12 Q1031=
200802161845 METAR LIRA 161845Z 03003KT CAVOK 05/M13 Q1031=
200802161815 METAR LIRA 161815Z 08005KT 010V110 CAVOK 06/M15 Q1030=
200802161745 METAR LIRA 161745Z 36012KT 330V050 CAVOK 07/M15 Q1030=
200802161715 METAR LIRA 161715Z 01010KT 320V060 CAVOK 07/M16 Q1030=
200802161645 METAR LIRA 161645Z 03010KT 340V080 CAVOK 09/M14 Q1029=
200802161615 METAR LIRA 161615Z 01009KT 320V070 CAVOK 10/M13 Q1029=
200802161545 METAR LIRA 161545Z 02012KT 340V070 CAVOK 10/M13 Q1028=
200802161515 METAR LIRA 161515Z 02013G24KT 320V050 CAVOK 11/M13 Q1028=
200802161445 METAR LIRA 161445Z 02012KT 340V070 CAVOK 11/M13 Q1028=
200802161415 METAR LIRA 161415Z 01012G22KT 320V060 CAVOK 11/M11 Q1028=
200802161345 METAR LIRA 161345Z 35013KT 320V080 CAVOK 10/M08 Q1028=
200802161315 METAR LIRA 161315Z 32008KT 310V030 CAVOK 10/M08 Q1028=
200802161245 METAR LIRA 161245Z 34010KT 280V010 CAVOK 10/M07 Q1028=
200802161215 METAR LIRA 161215Z 34008KT 280V030 CAVOK 10/M08 Q1028=
200802161145 METAR LIRA 161145Z 33010KT 290V010 CAVOK 09/M05 Q1027=
200802161115 METAR LIRA 161115Z 35009KT 310V030 CAVOK 09/M05 Q1027=
200802161045 METAR LIRA 161045Z 35010KT 330V050 CAVOK 08/M05 Q1027=
200802161015 METAR LIRA 161015Z 01014KT 320V050 CAVOK 08/M05 Q1027=
200802160945 METAR LIRA 160945Z 35014KT 320V030 CAVOK 07/M04 Q1027=
200802160915 METAR LIRA 160915Z 36008KT 320V060 CAVOK 06/M03 Q1027=
200802160845 METAR LIRA 160845Z 02012KT 330V060 CAVOK 05/M05 Q1027=
200802160815 METAR LIRA 160815Z 01010KT 320V080 CAVOK 04/M01 Q1027=
200802160745 METAR LIRA 160745Z 05007KT CAVOK 04/M01 Q1027=
200802160715 METAR LIRA 160715Z 05005KT CAVOK 02/M01 Q1026=
200802160645 METAR LIRA 160645Z 04006KT CAVOK 01/M02 Q1026=
200802160615 METAR LIRA 160615Z 03003KT 8000 SKC 01/M02 Q1026=
200802160545 METAR LIRA 160545Z 05004KT 8000 SKC 01/M01 Q1025=
200802160515 METAR LIRA 160515Z 04005KT 8000 SKC 02/M01 Q1025=
200802160445 METAR LIRA 160445Z 02004KT 8000 SKC 02/M01 Q1025=
200802160415 METAR LIRA 160415Z 04004KT 8000 FEW080 02/M01 Q1025=
200802160345 METAR LIRA 160345Z 04003KT 7000 FEW080 03/M00 Q1025=
200802160315 METAR LIRA 160315Z 02005KT 7000 SCT080 03/M00 Q1025=
200802160245 METAR LIRA 160245Z 02003KT 7000 SKC 03/02 Q1024=
200802160215 METAR LIRA 160215Z 03005KT 7000 SKC 03/02 Q1024=
200802160145 METAR LIRA 160145Z 03004KT 7000 SKC 03/02 Q1024=
200802160115 METAR LIRA 160115Z 04005KT 7000 SKC 03/02 Q1024=
200802160045 METAR LIRA 160045Z 04004KT 6000 SKC 02/02 Q1024=
200802160015 METAR LIRA 160015Z 04004KT 6000 SKC 02/02 Q1024=
200802152345 METAR LIRA 152345Z 01002KT 7000 SKC 03/02 Q1024=
200802152315 METAR LIRA 152315Z 04004KT 6000 SKC 03/02 Q1023=
200802152245 METAR LIRA 152245Z 00000KT 7000 SKC 03/01 Q1023=
200802152215 METAR LIRA 152215Z 11002KT 7000 SKC 04/02 Q1023=
200802152145 METAR LIRA 152145Z 11001KT 8000 SKC 05/03 Q1023=
200802152115 METAR LIRA 152115Z 11002KT 8000 SKC 05/03 Q1023=
200802152045 METAR LIRA 152045Z 16001KT 7000 SKC 06/03 Q1023=
200802152015 METAR LIRA 152015Z 13002KT 8000 SKC 06/04 Q1023=
200802151945 METAR LIRA 151945Z 13002KT 8000 SKC 06/03 Q1023=
200802151915 METAR LIRA 151915Z 16003KT 8000 SKC 06/03 Q1023=
200802151845 METAR LIRA 151845Z 09003KT CAVOK 07/03 Q1023=
200802151815 METAR LIRA 151815Z 05002KT CAVOK 08/04 Q1023=
200802151745 METAR LIRA 151745Z 00000KT 8000 SKC 09/04 Q1023=
200802151715 METAR LIRA 151715Z 31002KT 8000 SKC 09/04 Q1023=
200802151645 METAR LIRA 151645Z 31004KT CAVOK 10/01 Q1023=
200802151615 METAR LIRA 151615Z 30005KT CAVOK 11/02 Q1023=
200802151545 METAR LIRA 151545Z 30005KT 240V330 CAVOK 12/01 Q1023=
200802151515 METAR LIRA 151515Z 28005KT 220V310 CAVOK 12/01 Q1023=
200802151445 METAR LIRA 151445Z 30003KT 9999 FEW022 13/M00 Q1023=
200802151415 METAR LIRA 151415Z 35005KT 300V360 CAVOK 12/M00 Q1024=
200802151345 METAR LIRA 151345Z 33005KT 280V030 CAVOK 12/M01 Q1024=
200802151315 METAR LIRA 151315Z 33004KT 250V010 CAVOK 12/M01 Q1024=
200802151245 METAR LIRA 151245Z 33004KT 9999 FEW020 12/03 Q1024=
200802151215 METAR LIRA 151215Z 29004KT 290V040 9999 FEW020 11/03 Q1025=
200802151145 METAR LIRA 151145Z 36004KT 8000 FEW020 11/03 Q1026=
200802151115 METAR LIRA 151115Z 34004KT 8000 SKC 10/03 Q1026=
200802151045 METAR LIRA 151045Z 03003KT 8000 SKC 10/03 Q1026=
200802151015 METAR LIRA 151015Z 36003KT 8000 SKC 09/03 Q1026=
200802150945 METAR LIRA 150945Z 00003KT 7000 SKC 07/03 Q1026=
200802150915 METAR LIRA 150915Z 03003KT 7000 FEW022 06/03 Q1027=
200802150845 METAR LIRA 150845Z 03003KT 7000 SKC 03/02 Q1027=
200802150815 METAR LIRA 150815Z 03003KT 6000 SKC 03/02 Q1027=
200802150745 METAR LIRA 150745Z 03002KT 6000 SKC 02/01 Q1027=
200802150715 METAR LIRA 150715Z 03002KT 6000 SKC 01/01 Q1027=
200802150645 METAR LIRA 150645Z 06003KT 5000 BR SKC 01/01 Q1027=
200802150615 METAR LIRA 150615Z 05003KT 4000 BR SKC 00/00 Q1026=
200802150545 METAR LIRA 150545Z 05004KT 5000 BR NSC 00/00 Q1027=
200802150515 METAR LIRA 150515Z 03001KT 5000 BR FEW010 01/01 Q1027=
200802150445 METAR LIRA 150445Z 00000KT 5000 BR SCT015 01/01 Q1027=
200802150415 METAR LIRA 150415Z 03002KT 5000 BR SKC 01/01 Q1027=
200802150345 METAR LIRA 150345Z 06003KT 6000 SKC 02/01 Q1027=
200802150315 METAR LIRA 150315Z 07003KT 6000 SKC 02/02 Q1028=
200802150245 METAR LIRA 150245Z 05003KT 6000 SKC 02/02 Q1028=
200802150215 METAR LIRA 150215Z 04003KT 7000 SKC 03/02 Q1028=
200802150145 METAR LIRA 150145Z 12002KT 7000 SKC 03/02 Q1028=
200802150115 METAR LIRA 150115Z 10002KT 7000 SKC 03/02 Q1029=
200802150045 METAR LIRA 150045Z 07004KT 7000 SKC 03/02 Q1029=
200802150015 METAR LIRA 150015Z 06003KT 8000 SKC 03/02 Q1029=
200802142350 METAR LIRA 150045Z 07004KT 7000 SKC 03/02 Q1029=
200802142345 METAR LIRA 142345Z 15003KT 8000 SKC 04/02 Q1029=
200802142315 METAR LIRA 142315Z 15003KT 7000 SKC 03/02 Q1030=
200802142245 METAR LIRA 142245Z 15003KT 7000 SKC 05/03 Q1030=
200802142215 METAR LIRA 142215Z 16003KT 7000 SKC 05/03 Q1030=
200802142145 METAR LIRA 142145Z 16004KT 7000 SKC 05/03 Q1030=
200802142115 METAR LIRA 142115Z 13002KT 7000 SKC 05/03 Q1030=
200802142045 METAR LIRA 142045Z 17002KT 7000 SKC 06/03 Q1030=
200802142015 METAR LIRA 142015Z 17002KT 7000 SKC 06/03 Q1030=
200802141945 METAR LIRA 141945Z 17003KT 8000 SKC 06/03 Q1030=
200802141915 METAR LIRA 141915Z 16003KT 8000 SKC 07/03 Q1030=
200802141845 METAR LIRA 141845Z 17004KT 8000 SKC 07/02 Q1030=
200802141815 METAR LIRA 141815Z 16004KT 8000 SKC 07/02 Q1030=
200802141745 METAR LIRA 141745Z 19003KT 8000 SKC 08/02 Q1030=
200802141715 METAR LIRA 141715Z 26002KT 8000 SKC 10/02 Q1030=
200802141645 METAR LIRA 141645Z 28004KT CAVOK 11/01 Q1030=
200802141615 METAR LIRA 141615Z 29005KT CAVOK 11/01 Q1029=
200802141545 METAR LIRA 141545Z 28005KT 220V330 CAVOK 12/01 Q1029=
200802141515 METAR LIRA 141515Z 27005KT 240V300 CAVOK 13/00 Q1030=
200802141445 METAR LIRA 141445Z 26004KT CAVOK 13/01 Q1030=
200802141415 METAR LIRA 141415Z 34004KT CAVOK 13/M00 Q1030=
200802141345 METAR LIRA 141345Z 25003KT CAVOK 13/M00 Q1030=
200802141315 METAR LIRA 141315Z 26003KT CAVOK 12/00 Q1031=
200802141245 METAR LIRA 141245Z 11001KT CAVOK 12/01 Q1031=
200802141215 METAR LIRA 141215Z 28005KT CAVOK 11/00 Q1031=
200802141145 METAR LIRA 141145Z 31002KT 8000 SKC 10/00 Q1032=
200802141115 METAR LIRA 141115Z 32003KT 8000 SKC 10/01 Q1032=
200802141045 METAR LIRA 141045Z 35002KT 8000 SKC 08/02 Q1032=
200802141015 METAR LIRA 141015Z 31003KT 8000 SKC 07/01 Q1032=
200802141000 METAR LIRA CONTUS=
200802140945 METAR LIRA 140945Z 31003KT 8000 SKC 06/01 Q1032=
200802140915 METAR LIRA 140915Z 01003KT 8000 SKC 05/01 Q1032=
200802140845 METAR LIRA 140845Z 02004KT 8000 SKC 04/00 Q1032=
200802140815 METAR LIRA 140815Z 04006KT 360V080 8000 SKC 03/01 Q1032=
200802140800 METAR LIRA CONTUS CB SE=
200802140745 METAR LIRA 140745Z 05004KT 8000 SKC 01/M01 Q1032=
200802140715 METAR LIRA 140715Z 06005KT 8000 SKC 01/M00 Q1032=
200802140645 METAR LIRA 140645Z 06003KT 8000 SKC M00/M01 Q1032=
200802140615 METAR LIRA 140615Z 06004KT 8000 SKC M00/M03 Q1032=
200802140545 METAR LIRA 140545Z 03005KT 8000 SKC M00/M07 Q1032=
200802140515 METAR LIRA 140515Z 04003KT 6000 SKC 00/M07 Q1031=
200802140445 METAR LIRA 140445Z 01001KT 6000 SKC 00/M06 Q1032=
200802140415 METAR LIRA 140415Z 03003KT 6000 SKC 00/M07 Q1032=
200802140345 METAR LIRA 140345Z 05003KT 6000 SKC 00/M07 Q1032=
200802140315 METAR LIRA 140315Z 03003KT 6000 SKC 01/M06 Q1032=
200802140245 METAR LIRA 140245Z 05005KT 6000 SKC 01/M06 Q1032=
200802140215 METAR LIRA 140215Z 07003KT 6000 SKC 01/M06 Q1032=
200802140145 METAR LIRA 140145Z 08001KT 6000 SKC 01/M07 Q1032=
200802140115 METAR LIRA 140115Z 05004KT 8000 SKC 01/M07 Q1032=
200802140045 METAR LIRA 140045Z 00000KT 8000 SKC 02/M06 Q1032=
200802140015 METAR LIRA 140015Z 00000KT 8000 SKC 02/M06 Q1032=
200802132345 METAR LIRA 132345Z 00000KT 8000 SKC 02/M06 Q1032=
200802132315 METAR LIRA 132315Z 00000KT 8000 SKC 04/M04 Q1032=
200802132245 METAR LIRA 132245Z 12002KT 8000 SKC 04/M04 Q1032=
200802132215 METAR LIRA 132215Z 13002KT 8000 SKC 04/M04 Q1032=
200802132145 METAR LIRA 132145Z 15001KT 8000 SKC 04/M04 Q1032=
200802132115 METAR LIRA 132115Z 17003KT 8000 SKC 05/M04 Q1032=
200802132045 METAR LIRA 132045Z 13002KT 8000 SKC 05/M04 Q1032=
200802132015 METAR LIRA 132015Z 14002KT CAVOK 06/M04 Q1032=
200802131945 METAR LIRA 131945Z 17003KT CAVOK 06/M04 Q1032=
200802131915 METAR LIRA 131915Z 16003KT CAVOK 06/M04 Q1032=
200802131845 METAR LIRA 131845Z 16003KT CAVOK 08/M02 Q1032=
200802131815 METAR LIRA 131815Z 17003KT CAVOK 08/M02 Q1032=
200802131745 METAR LIRA 131745Z 18003KT CAVOK 09/M02 Q1032=
200802131715 METAR LIRA 131715Z 20002KT CAVOK 10/M01 Q1031=
200802131645 METAR LIRA 131645Z 24003KT CAVOK 10/M01 Q1031=
200802131615 METAR LIRA 131615Z 25004KT CAVOK 11/M01 Q1031=
200802131545 METAR LIRA 131545Z 26004KT 230V340 CAVOK 12/00 Q1031=
200802131515 METAR LIRA 131515Z 28005KT 240V330 9999 FEW030 12/00 Q1031=
200802131445 METAR LIRA 131445Z 29006KT 230V330 9999 FEW030 12/00 Q1031=
200802131415 METAR LIRA 131415Z 29003KT 9999 FEW030 12/01 Q1031=
200802131345 METAR LIRA 131345Z 32003KT 9999 SCT030 13/01 Q1031=
200802131315 METAR LIRA 131315Z 02003KT 9999 SCT030 12/01 Q1031=
200802131245 METAR LIRA 131245Z 27002KT 9999 FEW030 11/01 Q1031=
200802131215 METAR LIRA 131215Z 00000KT 9999 FEW030 11/02 Q1032=
200802131145 METAR LIRA 131145Z 01003KT 9999 FEW030 10/03 Q1032=
200802131115 METAR LIRA 131115Z 36002KT 6000 FEW030 09/04 Q1032=
200802131045 METAR LIRA 131045Z 01003KT 6000 FEW025 08/03 Q1032=
200802131015 METAR LIRA 131015Z 02005KT 6000 FEW001 07/03 Q1032=
200802131000 METAR LIRA INT=
200802130945 METAR LIRA 130945Z 05005KT 360V100 5000 BR FEW001 06/02 Q1032=
200802130915 METAR LIRA 130915Z 03004KT 330V080 5000 BR FEW001 05/02 Q1032=
200802130845 METAR LIRA 130845Z 03007KT 330V070 5000 BR FEW001 04/02 Q1032=
200802130815 METAR LIRA 130815Z 05005KT 010V100 5000 BR FEW001 02/01 Q1032=
200802130745 METAR LIRA 130745Z 06006KT 020V130 5000 BR FEW001 01/01 Q1031=
200802130715 METAR LIRA 130715Z 05004KT 6000 SKC 01/00 Q1031=
200802130645 METAR LIRA 130645Z 04003KT 7000 SKC 01/00 Q1031=
200802130615 METAR LIRA 130615Z 04002KT 7000 SKC 01/00 Q1030=
200802130545 METAR LIRA 130545Z 06003KT 8000 SKC 02/01 Q1030=
200802130515 METAR LIRA 130515Z 01004KT 6000 SKC 02/01 Q1030=
200802130445 METAR LIRA 130445Z 04002KT 8000 FEW070 02/M04 Q1030=
200802130415 METAR LIRA 130415Z 05002KT 8000 FEW070 03/M04 Q1030=
200802130345 METAR LIRA 130345Z 06003KT 8000 FEW070 03/M03 Q1029=
200802130315 METAR LIRA 130315Z 06003KT 8000 FEW070 03/M03 Q1029=
200802130245 METAR LIRA 130245Z 03003KT 8000 SCT070 04/M03 Q1029=
200802130215 METAR LIRA 130215Z 05003KT 8000 SCT070 04/M03 Q1029=
200802130145 METAR LIRA 130145Z 00000KT 8000 FEW030 SCT070 04/M03 Q1029=
200802130115 METAR LIRA 130115Z 00000KT 8000 FEW030 SCT070 05/M03 Q1029=
200802130045 METAR LIRA 130045Z 13001KT 8000 FEW030 SCT070 05/M03 Q1029=
200802130015 METAR LIRA 130015Z 09001KT 8000 FEW030 SCT070 05/M03 Q1029=
200802122345 METAR LIRA 122345Z 03004KT 8000 FEW030 SCT070 05/M02 Q1029=
200802122315 METAR LIRA 122315Z 01005KT 8000 FEW030 SCT070 06/M02 Q1028=
200802122245 METAR LIRA 122245Z 11004KT 8000 SCT030 SCT070 06/M02 Q1028=
200802122215 METAR LIRA 122215Z 05003KT 8000 SCT030 BKN070 07/M01 Q1028=
200802122145 METAR LIRA 122145Z 36002KT 8000 SCT030 BKN070 07/M01 Q1028=
200802122115 METAR LIRA 122115Z 03002KT 8000 SCT030 BKN070 07/M01 Q1028=
200802122045 METAR LIRA 122045Z 06003KT 8000 SCT030 BKN070 07/M01 Q1028=
200802122015 METAR LIRA 122015Z 04003KT 8000 SCT030 BKN070 07/M01 Q1028=
200802121945 METAR LIRA 121945Z 06003KT 8000 SCT030 BKN070 07/M01 Q1028=
200802121915 METAR LIRA 121915Z 06002KT 8000 SCT030 BKN070 07/M01 Q1028=
200802121845 METAR LIRA 121845Z 00000KT 8000 SCT030 SCT070 07/M01 Q1028=
200802121815 METAR LIRA 121815Z 00000KT 8000 SCT030 SCT070 08/M01 Q1028=
200802121745 METAR LIRA 121745Z 00000KT 8000 SCT030 SCT070 08/M01 Q1027=
200802121715 METAR LIRA 121715Z 33002KT 9999 FEW020 SCT070 08/M01 Q1027=
200802121645 METAR LIRA 121645Z 30002KT 9999 FEW020 SCT030 10/00 Q1027=
200802121615 METAR LIRA 121615Z 31003KT 9999 FEW020 SCT030 10/00 Q1027=
200802121545 METAR LIRA 121545Z 29003KT 9999 FEW020 SCT030 10/00 Q1027=
200802121515 METAR LIRA 121515Z 24003KT 9999 FEW020 SCT030 10/M00 Q1027=
200802121445 METAR LIRA 121445Z 25004KT 9999 FEW020 SCT030 11/01 Q1027=
200802121415 METAR LIRA 121415Z 22004KT 9999 FEW020 SCT030 11/02 Q1028=
200802121345 METAR LIRA 121345Z 04002KT 9999 FEW020 SCT200 11/02 Q1028=
200802121315 METAR LIRA 121315Z 26001KT 9999 FEW020 SCT080 10/02 Q1028=
200802121245 METAR LIRA 121245Z 24004KT 9999 FEW020 SCT080 10/02 Q1028=
200802121215 METAR LIRA 121215Z 25004KT 9999 FEW020 SCT030 BKN080 10/02
                        Q1028=
200802121145 METAR LIRA 121145Z 28005KT 9999 FEW020 SCT200 10/02 Q1028=
200802121115 METAR LIRA 121115Z 27003KT 9999 FEW080 BKN200 09/02 Q1029=
200802121045 METAR LIRA 121045Z 30002KT 9999 FEW080 SCT200 08/02 Q1029=
200802121015 METAR LIRA 121015Z 31002KT 9999 SCT080 SCT200 07/02 Q1029=
200802120945 METAR LIRA 120945Z 33004KT 9999 SCT070 05/01 Q1029=
200802120915 METAR LIRA 120915Z 36003KT 9999 SCT070 04/01 Q1029=
200802120845 METAR LIRA 120845Z 01003KT 9999 FEW070 02/01 Q1029=
200802120815 METAR LIRA 120815Z 04004KT 9999 FEW070 00/M00 Q1028=
200802120745 METAR LIRA 120745Z 01003KT 9999 FEW020 M00/M01 Q1028=
200802120715 METAR LIRA 120715Z 05003KT 9999 FEW020 M01/M01 Q1028=
200802120645 METAR LIRA 120645Z 04003KT 9999 FEW020 M01/M01 Q1028=
200802120615 METAR LIRA 120615Z 04003KT CAVOK M01/M01 Q1028=
200802120545 METAR LIRA 120545Z 06003KT CAVOK M00/M01 Q1028=
200802120515 METAR LIRA 120515Z 05004KT CAVOK 00/M01 Q1028=
200802120445 METAR LIRA 120445Z 06004KT CAVOK 00/M01 Q1028=
200802120415 METAR LIRA 120415Z 06004KT CAVOK 00/M01 Q1028=
200802120345 METAR LIRA 120345Z 05005KT CAVOK 00/M02 Q1028=
200802120315 METAR LIRA 120315Z 05005KT CAVOK 00/M01 Q1028=
200802120245 METAR LIRA 120245Z 01004KT CAVOK 01/M01 Q1028=
200802120215 METAR LIRA 120215Z 05005KT CAVOK 01/M01 Q1028=
200802120145 METAR LIRA 120145Z 05005KT 010V090 CAVOK 01/M01 Q1028=
200802120115 METAR LIRA 120115Z 05006KT 360V080 CAVOK 01/M01 Q1028=
200802120045 METAR LIRA 120045Z 05006KT 020V080 CAVOK 01/M00 Q1028=
200802120015 METAR LIRA 120015Z 06006KT 030V090 CAVOK 02/M00 Q1028=
200802112345 METAR LIRA 112345Z 06005KT CAVOK 02/M00 Q1028=
200802112315 METAR LIRA 112315Z 05005KT CAVOK 03/00 Q1028=
200802112245 METAR LIRA 112245Z 06005KT 020V090 CAVOK 03/M01 Q1028=
200802112215 METAR LIRA 112215Z 05005KT CAVOK 03/M01 Q1028=
200802112145 METAR LIRA 112145Z 05005KT CAVOK 04/M01 Q1028=
200802112115 METAR LIRA 112115Z 05004KT CAVOK 05/00 Q1028=
200802112045 METAR LIRA 112045Z 02002KT 350V060 CAVOK 05/M00 Q1028=
200802112015 METAR LIRA 112015Z 36006KT 330V040 CAVOK 05/M01 Q1027=
200802111945 METAR LIRA 111945Z 01005KT 350V050 CAVOK 06/M00 Q1027=
200802111915 METAR LIRA 111915Z 05004KT 350V080 CAVOK 06/M00 Q1027=
200802111845 METAR LIRA 111845Z 04004KT CAVOK 05/M01 Q1027=
200802111815 METAR LIRA 111815Z 00000KT CAVOK 07/00 Q1027=
200802111745 METAR LIRA 111745Z 00000KT 9999 FEW070 07/M02 Q1027=
200802111715 METAR LIRA 111715Z 27001KT 9999 FEW018 08/M02 Q1027=
200802111645 METAR LIRA 111645Z 24003KT 9999 FEW018 09/M01 Q1026=
200802111615 METAR LIRA 111615Z 26002KT 9999 FEW018 10/M01 Q1026=
200802111545 METAR LIRA 111545Z 28005KT 9999 FEW018 10/M01 Q1026=
200802111515 METAR LIRA 111515Z 29005KT 230V320 9999 FEW018 11/00 Q1026=
200802111445 METAR LIRA 111445Z 27005KT 9999 FEW018 11/00 Q1026=
200802111415 METAR LIRA 111415Z 29005KT 240V330 9999 FEW018 11/02 Q1026=
200802111345 METAR LIRA 111345Z 31005KT 9999 FEW018 11/02 Q1026=
200802111315 METAR LIRA 111315Z 31004KT 9999 FEW018 SCT070 10/01 Q1026=
200802111245 METAR LIRA 111245Z 29004KT 9999 FEW018 SCT070 10/01 Q1026=
200802111215 METAR LIRA 111215Z 30003KT 9999 FEW018 SCT070 10/01 Q1026=
200802111145 METAR LIRA 111145Z 27005KT 9999 FEW018 SCT070 10/01 Q1026=
200802111115 METAR LIRA 111115Z 30002KT 9999 FEW020 SCT070 10/01 Q1026=
200802111045 METAR LIRA 111045Z 36004KT 9999 FEW018 SCT070 09/02 Q1026=
200802111015 METAR LIRA 111015Z 07005KT 360V100 9999 FEW020 SCT070 08/02
                        Q1026=
200802110945 METAR LIRA 110945Z 04004KT 330V100 9999 FEW020 08/04 Q1026=
200802110915 METAR LIRA 110915Z 03005KT 350V090 9999 FEW020 06/02 Q1026=
200802110845 METAR LIRA 110845Z 03008KT 350V070 9999 FEW020 05/01 Q1026=
200802110815 METAR LIRA 110815Z 03004KT 350V090 9999 FEW020 04/00 Q1026=
200802110745 METAR LIRA 110745Z 03005KT 360V070 9999 FEW020 04/00 Q1026=
200802110715 METAR LIRA 110715Z 07003KT 9999 SCT070 03/M00 Q1026=
200802110645 METAR LIRA 110645Z 08003KT 9999 SCT070 03/M00 Q1026=
200802110615 METAR LIRA 110615Z 05002KT 9999 FEW030 BKN070 04/M00 Q1026=
200802110600 METAR LIRA INT=
200802110545 METAR LIRA 110545Z 03003KT 9999 FEW030 BKN070 03/M00 Q1026=
200802110515 METAR LIRA 110515Z 03004KT 9999 FEW030 SCT070 03/M00 Q1026=
200802110445 METAR LIRA 110445Z 09001KT 9999 FEW040 SCT070 03/M01 Q1026=
200802110415 METAR LIRA 110415Z 01003KT 9999 BKN070 03/M01 Q1026=
200802110345 METAR LIRA 110345Z 03004KT 9999 BKN070 03/M00 Q1026=
200802110315 METAR LIRA 110315Z 30001KT 9999 SCT070 03/M00 Q1026=
200802110245 METAR LIRA 110245Z 24001KT 9999 FEW040 SCT080 03/M01 Q1026=
200802110215 METAR LIRA 110215Z 00000KT 9999 FEW040 BKN080 04/M01 Q1027=
200802110145 METAR LIRA 110145Z 33002KT 9999 BKN080 04/M00 Q1027=
200802110115 METAR LIRA 110115Z 06001KT 9999 BKN080 04/M00 Q1027=
200802110045 METAR LIRA 110045Z 01003KT 9999 BKN080 04/M00 Q1026=
200802110015 METAR LIRA 110015Z 05003KT 9999 BKN080 04/00 Q1026=
200802110000 METAR LIRA INT, LOW CLDS MVG S=
200802102350 METAR LIRA 110045Z 01003KT 9999 BKN080 04/M00 Q1026=
200802102345 METAR LIRA 102345Z 03003KT 9999 BKN080 05/01 Q1026=
200802102315 METAR LIRA 102315Z 03004KT CAVOK 05/01 Q1026=
200802102245 METAR LIRA 102245Z 35003KT 9999 FEW040 05/01 Q1026=
200802102215 METAR LIRA 102215Z 07004KT 9999 SCT040 05/02 Q1026=
200802102145 METAR LIRA 102145Z 06006KT 9999 FEW040 05/02 Q1026=
200802102115 METAR LIRA 102115Z 06010KT 360V090 9999 FEW040 05/03 Q1026=
200802102045 METAR LIRA 102045Z 06005KT CAVOK 06/02 Q1026=
200802102015 METAR LIRA 102015Z 10005KT CAVOK 06/02 Q1026=
200802101945 METAR LIRA 101945Z 15003KT CAVOK 07/03 Q1026=
200802101915 METAR LIRA 101915Z 20004KT CAVOK 08/04 Q1025=
200802101845 METAR LIRA 101845Z 18005KT 9999 FEW080 SCT200 08/04 Q1025=
200802101815 METAR LIRA 101815Z 18005KT 9999 FEW080 SCT200 08/04 Q1025=
200802101745 METAR LIRA 101745Z 18006KT 9999 FEW030 SCT080 09/02 Q1025=
200802101715 METAR LIRA 101715Z 22003KT 9999 FEW030 SCT080 10/03 Q1025=
200802101645 METAR LIRA 101645Z 20005KT 9999 FEW020 SCT200 11/02 Q1025=
200802101615 METAR LIRA 101615Z 23004KT 9999 FEW020 SCT200 12/00 Q1025=
200802101545 METAR LIRA 101545Z 24004KT 9999 FEW020 SCT100 12/M00 Q1025=
200802101515 METAR LIRA 101515Z 24005KT 9999 FEW020 SCT100 13/00 Q1025=
200802101445 METAR LIRA 101445Z 23005KT 200V270 9999 FEW020 SCT080 13/M00
                        Q1025=
200802101415 METAR LIRA 101415Z 26004KT 220V280 9999 FEW020 SCT080 13/00
                        Q1025=
200802101345 METAR LIRA 101345Z 21002KT 9999 FEW020 SCT080 13/00 Q1026=
200802101315 METAR LIRA 101315Z 25005KT 9999 FEW020 SCT080 13/01 Q1026=
200802101245 METAR LIRA 101245Z 00000KT 9999 FEW020 BKN200 12/01 Q1026=
200802101215 METAR LIRA 101215Z 29002KT 9999 FEW020 BKN200 12/01 Q1026=
200802101145 METAR LIRA 101145Z 28002KT 9999 FEW020 BKN200 12/02 Q1026=
200802101115 METAR LIRA 101115Z 10003KT 9999 FEW020 BKN200 11/02 Q1027=
200802101045 METAR LIRA 101045Z 03004KT 9999 FEW020 SCT200 10/02 Q1027=
200802101015 METAR LIRA 101015Z 04006KT 350V080 9999 FEW020 09/02 Q1027=
200802101000 METAR LIRA INTER=
200802100945 METAR LIRA 100945Z 02006KT 330V070 9999 FEW020 07/02 Q1027=
200802100915 METAR LIRA 100915Z 01006KT 310V080 9999 FEW020 07/02 Q1027=
200802100900 METAR LIRA INTER=
200802100845 METAR LIRA 100845Z 06003KT 9999 FEW020 05/01 Q1027=
200802100815 METAR LIRA 100815Z 05004KT 330V110 9999 FEW020 04/01 Q1027=
200802100745 METAR LIRA 100745Z 05005KT 9999 FEW020 02/01 Q1027=
200802100715 METAR LIRA 100715Z 03002KT 9999 FEW020 02/00 Q1027=
200802100645 METAR LIRA 100645Z 03004KT 350V070 9999 FEW020 01/M00 Q1027=
200802100615 METAR LIRA 100615Z 06004KT 9999 FEW020 02/M00 Q1027=
200802100600 METAR LIRA INT=
200802100545 METAR LIRA 100545Z 06004KT CAVOK 02/M00 Q1027=
200802100515 METAR LIRA 100515Z 06005KT CAVOK 02/M00 Q1026=
200802100445 METAR LIRA 100445Z 05005KT CAVOK 02/00 Q1027=
200802100415 METAR LIRA 100415Z 05005KT 360V070 CAVOK 03/00 Q1027=
200802100345 METAR LIRA 100345Z 05003KT CAVOK 02/M01 Q1027=
200802100315 METAR LIRA 100315Z 02003KT CAVOK 03/M00 Q1027=
200802100245 METAR LIRA 100245Z 06002KT CAVOK 03/M00 Q1027=
200802100215 METAR LIRA 100215Z 05003KT CAVOK 04/M00 Q1027=
200802100145 METAR LIRA 100145Z 04004KT CAVOK 04/M00 Q1027=
200802100115 METAR LIRA 100115Z 06005KT CAVOK 04/00 Q1027=
200802100045 METAR LIRA 100045Z 03004KT CAVOK 04/00 Q1027=
200802100015 METAR LIRA 100015Z 01006KT CAVOK 04/00 Q1027=
200802092345 METAR LIRA 092345Z 02005KT CAVOK 04/00 Q1027=
200802092315 METAR LIRA 092315Z 05004KT CAVOK 05/01 Q1027=
200802092245 METAR LIRA 092245Z 03003KT CAVOK 05/01 Q1027=
200802092215 METAR LIRA 092215Z 01003KT CAVOK 05/01 Q1027=
200802092145 METAR LIRA 092145Z 06006KT 350V090 CAVOK 05/01 Q1027=
200802092115 METAR LIRA 092115Z 05006KT CAVOK 06/01 Q1027=
200802092045 METAR LIRA 092045Z 06005KT CAVOK 06/00 Q1027=
200802092015 METAR LIRA 092015Z 03003KT CAVOK 07/01 Q1027=
200802091945 METAR LIRA 091945Z 02001KT CAVOK 08/01 Q1027=
200802091915 METAR LIRA 091915Z 02004KT CAVOK 08/00 Q1027=
200802091845 METAR LIRA 091845Z 04005KT CAVOK 08/02 Q1026=
200802091815 METAR LIRA 091815Z 11003KT CAVOK 08/03 Q1026=
200802091745 METAR LIRA 091745Z 16002KT CAVOK 08/01 Q1026=
200802091715 METAR LIRA 091715Z 00000KT CAVOK 10/02 Q1026=
200802091645 METAR LIRA 091645Z 24002KT CAVOK 12/M01 Q1026=
200802091615 METAR LIRA 091615Z 24001KT CAVOK 12/M00 Q1026=
200802091545 METAR LIRA 091545Z 18005KT 9999 FEW020 13/M00 Q1026=
200802091515 METAR LIRA 091515Z 22005KT 170V250 9999 FEW020 13/M00 Q1026=
200802091445 METAR LIRA 091445Z 24010KT 180V270 9999 FEW020 14/00 Q1026=
200802091415 METAR LIRA 091415Z 21006KT 160V250 9999 FEW020 15/01 Q1026=
200802091345 METAR LIRA 091345Z 24003KT 9999 FEW025 15/01 Q1026=
200802091315 METAR LIRA 091315Z 21005KT 200V280 9999 FEW025 15/01 Q1026=
200802091245 METAR LIRA 091245Z 29003KT 9999 FEW025 14/00 Q1026=
200802091215 METAR LIRA 091215Z 32002KT 9999 FEW025 14/01 Q1027=
200802091145 METAR LIRA 091145Z 00000KT 9999 FEW025 13/02 Q1027=
200802091115 METAR LIRA 091115Z 05003KT 9999 FEW030 12/02 Q1027=
200802091045 METAR LIRA 091045Z 04005KT 020V100 CAVOK 11/03 Q1027=
200802091015 METAR LIRA 091015Z 03004KT CAVOK 11/02 Q1027=
200802090945 METAR LIRA 090945Z 36005KT 330V090 CAVOK 08/01 Q1027=
200802090915 METAR LIRA 090915Z 02003KT CAVOK 08/01 Q1027=
200802090845 METAR LIRA 090845Z 06004KT CAVOK 06/M01 Q1027=
200802090815 METAR LIRA 090815Z 02002KT CAVOK 06/M02 Q1027=
200802090800 METAR LIRA INT=
200802090745 METAR LIRA 090745Z 06004KT CAVOK 03/M04 Q1027=
200802090715 METAR LIRA 090715Z 08004KT CAVOK 02/M05 Q1027=
200802090645 METAR LIRA 090645Z 05004KT CAVOK 02/M06 Q1026=
200802090615 METAR LIRA 090615Z 06004KT CAVOK 02/M06 Q1026=
200802090600 METAR LIRA INT LOW CLDS MVG S=
200802090545 METAR LIRA 090545Z 05005KT CAVOK 03/M05 Q1026=
200802090515 METAR LIRA 090515Z 03005KT CAVOK 03/M06 Q1026=
200802090500 METAR LIRA INT LOW CLDS MVG S=
200802090445 METAR LIRA 090445Z 05004KT CAVOK 03/M05 Q1026=
200802090415 METAR LIRA 090415Z 03005KT CAVOK 03/M06 Q1026=
200802090400 METAR LIRA INT LOW CLDS MVG S=
200802090345 METAR LIRA 090345Z 07003KT CAVOK 03/M06 Q1026=
200802090315 METAR LIRA 090315Z 07003KT CAVOK 03/M06 Q1026=
200802090245 METAR LIRA 090245Z 03005KT CAVOK 03/M06 Q1027=
200802090215 METAR LIRA 090215Z 04004KT CAVOK 03/M06 Q1027=
200802090145 METAR LIRA 090145Z 03006KT 350V060 CAVOK 04/M06 Q1027=
200802090115 METAR LIRA 090115Z 03005KT CAVOK 04/M06 Q1027=
200802090045 METAR LIRA 090045Z 03004KT CAVOK 04/M06 Q1027=
200802090015 METAR LIRA 090015Z 03003KT CAVOK 05/M06 Q1027=
200802082350 METAR LIRA 090045Z 03004KT CAVOK 04/M06 Q1027=
200802082345 METAR LIRA 082345Z 05004KT CAVOK 05/M06 Q1027=
200802082315 METAR LIRA 082315Z 04006KT 360V090 CAVOK 05/M06 Q1027=
200802082245 METAR LIRA 082245Z 03005KT CAVOK 05/M06 Q1027=
200802082215 METAR LIRA 082215Z 03006KT CAVOK 05/M06 Q1027=
200802082145 METAR LIRA 082145Z 03006KT 330V070 CAVOK 06/M06 Q1027=
200802082115 METAR LIRA 082115Z 05006KT 360V070 CAVOK 06/M06 Q1027=
200802082045 METAR LIRA 082045Z 02006KT CAVOK 06/M07 Q1027=
200802082015 METAR LIRA 082015Z 02005KT CAVOK 07/M06 Q1027=
200802081945 METAR LIRA 081945Z 03004KT 330V090 CAVOK 07/M06 Q1027=
200802081915 METAR LIRA 081915Z 03005KT 350V090 CAVOK 07/M06 Q1026=
200802081845 METAR LIRA 081845Z 03005KT 350V090 CAVOK 09/M05 Q1026=
200802081815 METAR LIRA 081815Z 05005KT CAVOK 09/M05 Q1026=
200802081745 METAR LIRA 081745Z 06008KT 010V090 CAVOK 10/M05 Q1026=
200802081715 METAR LIRA 081715Z 04005KT 340V090 CAVOK 11/M05 Q1026=
200802081645 METAR LIRA 081645Z 04006KT 360V010 CAVOK 12/M04 Q1026=
200802081615 METAR LIRA 081615Z 03006KT 330V080 CAVOK 12/M03 Q1025=
200802081545 METAR LIRA 081545Z 03010KT 330V080 CAVOK 13/M03 Q1025=
200802081515 METAR LIRA 081515Z 03012KT 330V090 9999 FEW035 13/M02 Q1025=
200802081445 METAR LIRA 081445Z 03011KT 340V080 9999 FEW035 13/M02 Q1025=
200802081415 METAR LIRA 081415Z 02010KT 340V070 9999 FEW035 14/M02 Q1025=
200802081345 METAR LIRA 081345Z 02012KT 330V070 9999 FEW035 14/M02 Q1025=
200802081315 METAR LIRA 081315Z 01013KT 320V070 CAVOK 14/M01 Q1026=
200802081245 METAR LIRA 081245Z 02013KT 340V060 9999 FEW035 13/M02 Q1026=
200802081215 METAR LIRA 081215Z 01011KT 330V100 9999 FEW035 13/M02 Q1026=
200802081145 METAR LIRA 081145Z 02011KT 300V080 9999 FEW020 12/M02 Q1026=
200802081115 METAR LIRA 081115Z 36016KT 310V040 9999 FEW020 12/M02 Q1026=
200802081045 METAR LIRA 081045Z 36013KT 320V040 9999 FEW020 11/M02 Q1027=
200802081015 METAR LIRA 081015Z 36007KT 300V050 9999 FEW020 10/M03 Q1027=
200802080945 METAR LIRA 080945Z 36014KT 310V050 9999 FEW020 10/M03 Q1027=
200802080915 METAR LIRA 080915Z 36012KT 320V040 9999 FEW030 09/M03 Q1027=
200802080845 METAR LIRA 080845Z 01010KT 320V060 9999 FEW030 08/M03 Q1026=
200802080815 METAR LIRA 080815Z 02008KT 330V060 9999 FEW030 08/M03 Q1026=
200802080745 METAR LIRA 080745Z 06006KT 010V100 9999 FEW030 06/M05 Q1026=
200802080715 METAR LIRA 080715Z 05005KT 030V120 9999 FEW030 04/M06 Q1026=
200802080645 METAR LIRA 080645Z 05005KT 360V090 CAVOK 05/M06 Q1026=
200802080615 METAR LIRA 080615Z 08003KT CAVOK 06/M06 Q1026=
200802080545 METAR LIRA 080545Z 04006KT 330V090 CAVOK 06/M06 Q1026=
200802080515 METAR LIRA 080515Z 02007KT 340V070 CAVOK 06/M07 Q1026=
200802080445 METAR LIRA 080445Z 04005KT 330V080 CAVOK 06/M07 Q1026=
200802080415 METAR LIRA 080415Z 05006KT 330V080 CAVOK 07/M06 Q1026=
200802080345 METAR LIRA 080345Z 35009KT CAVOK 08/M06 Q1026=
200802080315 METAR LIRA 080315Z 35010KT CAVOK 08/M06 Q1026=
200802080245 METAR LIRA 080245Z 35015KT CAVOK 08/M06 Q1026=
200802080215 METAR LIRA 080215Z 36011KT 320V040 CAVOK 09/M06 Q1026=
200802080145 METAR LIRA 080145Z 35009KT CAVOK 09/M06 Q1026=
200802080115 METAR LIRA 080115Z 36013G23KT 330V060 CAVOK 09/M05 Q1026=
200802080045 METAR LIRA 080045Z 01013KT 320V050 CAVOK 10/M04 Q1026=
200802080015 METAR LIRA 080015Z 01013KT 340V060 CAVOK 10/M05 Q1026=
200802072345 METAR LIRA 072345Z 02016KT 330V090 CAVOK 10/M05 Q1026=
200802072315 METAR LIRA 072315Z 01016KT 330V060 CAVOK 09/M06 Q1026=
200802072245 METAR LIRA 072245Z 36012KT 310V050 CAVOK 09/M06 Q1026=
200802072215 METAR LIRA 072215Z 01015KT 330V040 CAVOK 09/M06 Q1026=
200802072145 METAR LIRA 072145Z 01014KT 330V040 CAVOK 09/M07 Q1027=
200802072115 METAR LIRA 072115Z 35009KT 330V040 CAVOK 09/M06 Q1027=
200802072045 METAR LIRA 072045Z 01011G21KT 330V040 CAVOK 10/M06 Q1027=
200802072015 METAR LIRA 072015Z 01011KT 320V050 CAVOK 10/M07 Q1027=
200802071945 METAR LIRA 071945Z 01014KT 310V040 CAVOK 11/M06 Q1027=
200802071915 METAR LIRA 071915Z 01012KT 330V060 CAVOK 11/M06 Q1026=
200802071845 METAR LIRA 071845Z 02014G25KT 330V050 CAVOK 12/M06 Q1026=
200802071815 METAR LIRA 071815Z 36011KT 320V040 CAVOK 13/M05 Q1026=
200802071745 METAR LIRA 071745Z 01013G23KT 330V050 CAVOK 13/M05 Q1026=
200802071715 METAR LIRA 071715Z 01015G27KT 350V060 9999 FEW020 13/M05
                        Q1025=
200802071645 METAR LIRA 071645Z 03011KT 330V070 9999 FEW020 14/M04 Q1025=
200802071615 METAR LIRA 071615Z 02012G22KT 350V070 9999 FEW020 15/M03
                        Q1025=
200802071545 METAR LIRA 071545Z 02012KT 330V070 9999 FEW020 15/M03 Q1025
                        WS RWY 33=
200802071515 METAR LIRA 071515Z 01012KT 320V060 9999 FEW020 16/M02 Q1025
                        WS RWY 33=
200802071445 METAR LIRA 071445Z 02016KT 320V070 9999 FEW020 17/00 Q1024=
200802071415 METAR LIRA 071415Z 02015G26KT 330V060 9999 FEW020 17/01 Q1024=
200802071345 METAR LIRA 071345Z 01011KT 330V070 9999 FEW020 16/04 Q1024=
200802071315 METAR LIRA 071315Z 01004KT 310V060 9999 FEW020 16/06 Q1024=
200802071245 METAR LIRA 071245Z 35012KT 9999 FEW020 16/06 Q1024=
200802071215 METAR LIRA 071215Z 33015KT 9999 FEW020 15/06 Q1024=
200802071145 METAR LIRA 071145Z 34008KT 300V030 9999 FEW022 14/07 Q1025=
200802071115 METAR LIRA 071115Z 01005KT 9999 FEW022 13/07 Q1025=
200802071045 METAR LIRA 071045Z 36006KT 9999 FEW022 12/09 Q1025=
200802071015 METAR LIRA 071015Z 03004KT 9999 FEW022 11/08 Q1025=
200802070945 METAR LIRA 070945Z 06006KT 9999 FEW022 10/07 Q1025=
200802070915 METAR LIRA 070915Z 06006KT 9999 FEW022 09/07 Q1025=
200802070845 METAR LIRA 070845Z 04003KT 9999 FEW022 08/06 Q1025=
200802070815 METAR LIRA 070815Z 04004KT 9000 FEW022 07/05 Q1025=
200802070745 METAR LIRA 070745Z 03005KT 340V070 8000 FEW022 06/03 Q1024=
200802070715 METAR LIRA 070715Z 04005KT 7000 FEW023 06/03 Q1024=
200802070645 METAR LIRA 070645Z 04006KT 010V070 7000 FEW023 06/03 Q1023=
200802070615 METAR LIRA 070615Z 03005KT 7000 SKC 05/03 Q1023=
200802070545 METAR LIRA 070545Z 04003KT 7000 SKC 05/03 Q1022=
200802070515 METAR LIRA 070515Z 06004KT 6000 SKC 05/03 Q1022=
200802070445 METAR LIRA 070445Z 03004KT 5000 BR SKC 05/03 Q1022=
200802070415 METAR LIRA 070415Z 03004KT 5000 BR SKC 05/03 Q1023=
200802070345 METAR LIRA 070345Z 05003KT 5000 BR NSC 05/02 Q1023=
200802070315 METAR LIRA 070315Z 06004KT 5000 BR NSC 05/03 Q1023=
200802070245 METAR LIRA 070245Z 04002KT 5000 BR NSC 05/02 Q1023=
200802070215 METAR LIRA 070215Z 03003KT 5000 BR NSC 05/02 Q1023=
200802070145 METAR LIRA 070145Z 01002KT 5000 BR NSC 05/02 Q1024=
200802070115 METAR LIRA 070115Z 03002KT 5000 BR NSC 06/03 Q1024=
200802070045 METAR LIRA 070045Z 05003KT 5000 BR NSC 06/04 Q1024=
200802070015 METAR LIRA 070015Z 36001KT 7000 NSC 07/04 Q1025=
200802062345 METAR LIRA 062345Z 34002KT 8000 NSC 07/04 Q1025=
200802062315 METAR LIRA 062315Z 03001KT CAVOK 07/04 Q1024=
200802062245 METAR LIRA 062245Z 00000KT CAVOK 07/04 Q1024=
200802062215 METAR LIRA 062215Z 17003KT CAVOK 07/04 Q1025=
200802062145 METAR LIRA 062145Z 21002KT CAVOK 07/04 Q1025=
200802062115 METAR LIRA 062115Z 15002KT 9999 FEW020 07/03 Q1025=
200802062045 METAR LIRA 062045Z 14003KT CAVOK 07/03 Q1026=
200802062015 METAR LIRA 062015Z 11003KT CAVOK 07/03 Q1026=
200802061945 METAR LIRA 061945Z 00000KT CAVOK 08/05 Q1026=
200802061915 METAR LIRA 061915Z 19001KT CAVOK 08/05 Q1026=
200802061845 METAR LIRA 061845Z 19002KT CAVOK 09/06 Q1026=
200802061815 METAR LIRA 061815Z 18003KT CAVOK 10/06 Q1026=
200802061745 METAR LIRA 061745Z 16002KT CAVOK 10/06 Q1026=
200802061715 METAR LIRA 061715Z 22002KT CAVOK 10/06 Q1026=
200802061645 METAR LIRA 061645Z 26002KT CAVOK 12/08 Q1025=
200802061615 METAR LIRA 061615Z 27004KT 9999 FEW023 13/08 Q1025=
200802061545 METAR LIRA 061545Z 27005KT CAVOK 14/06 Q1025=
200802061515 METAR LIRA 061515Z 27007KT CAVOK 14/06 Q1025=
200802061445 METAR LIRA 061445Z 31003KT CAVOK 15/05 Q1025=
200802061415 METAR LIRA 061415Z 34002KT 9999 FEW022 SCT200 15/05 Q1026=
200802061345 METAR LIRA 061345Z 32004KT 9999 FEW020 SCT200 15/05 Q1026=
200802061315 METAR LIRA 061315Z 00000KT 9999 FEW020 14/05 Q1026=
200802061245 METAR LIRA 061245Z 27001KT 9999 FEW020 13/05 Q1026=
200802061215 METAR LIRA 061215Z 00000KT 9999 FEW020 13/05 Q1027=
200802061145 METAR LIRA 061145Z 34005KT 9999 FEW020 12/05 Q1027=
200802061115 METAR LIRA 061115Z 34005KT 9999 FEW020 11/04 Q1028=
200802061045 METAR LIRA 061045Z 36004KT CAVOK 10/04 Q1028=
200802061015 METAR LIRA 061015Z 33002KT CAVOK 09/04 Q1028=
200802060945 METAR LIRA 060945Z 03003KT CAVOK 08/05 Q1028=
200802060915 METAR LIRA 060915Z 02003KT CAVOK 06/04 Q1028=
200802060845 METAR LIRA 060845Z 36003KT CAVOK 05/03 Q1028=
200802060815 METAR LIRA 060815Z 04003KT CAVOK 05/03 Q1028=
200802060745 METAR LIRA 060745Z 02002KT CAVOK 04/03 Q1027=
200802060715 METAR LIRA 060715Z 07003KT CAVOK 03/03 Q1027=
200802060645 METAR LIRA 060645Z 08002KT CAVOK 03/03 Q1027=
200802060615 METAR LIRA 060615Z 03002KT CAVOK 03/03 Q1027=
200802060545 METAR LIRA 060545Z 06003KT CAVOK 03/03 Q1026=
200802060515 METAR LIRA 060515Z 05002KT CAVOK 03/03 Q1026=
200802060445 METAR LIRA 060445Z 01002KT CAVOK 03/03 Q1026=
200802060415 METAR LIRA 060415Z 02002KT CAVOK 02/02 Q1026=
200802060345 METAR LIRA 060345Z 04003KT CAVOK 03/03 Q1026=
200802060315 METAR LIRA 060315Z 09002KT CAVOK 03/03 Q1026=
200802060245 METAR LIRA 060245Z 07003KT CAVOK 04/03 Q1025=
200802060215 METAR LIRA 060215Z 07004KT CAVOK 04/03 Q1025=
200802060145 METAR LIRA 060145Z 06005KT CAVOK 04/02 Q1025=
200802060115 METAR LIRA 060115Z 06005KT CAVOK 05/03 Q1025=
200802052245 METAR LIRA 052245Z 11002KT CAVOK 06/04 Q1025=
200802052215 METAR LIRA 052215Z 11001KT CAVOK 06/04 Q1025=
200802052145 METAR LIRA 052145Z 05003KT CAVOK 06/04 Q1025=
200802052115 METAR LIRA 052115Z 11002KT CAVOK 07/05 Q1024=
200802052045 METAR LIRA 052045Z 13002KT CAVOK 07/04 Q1024=
200802052015 METAR LIRA 052015Z 29001KT CAVOK 07/04 Q1024=
200802051945 METAR LIRA 051945Z 12003KT CAVOK 08/04 Q1024=
200802051915 METAR LIRA 051915Z 16001KT CAVOK 08/04 Q1023=
200802051845 METAR LIRA 051845Z 00000KT CAVOK 08/04 Q1023=
200802051815 METAR LIRA 051815Z 31003KT CAVOK 10/05 Q1023=
200802051745 METAR LIRA 051745Z 34003KT CAVOK 11/05 Q1022=
200802051715 METAR LIRA 051715Z 34003KT CAVOK 11/05 Q1022=
200802051645 METAR LIRA 051645Z 34005KT 9999 FEW040 12/04 Q1021=
200802051615 METAR LIRA 051615Z 34006KT 300V020 9999 FEW033 12/03 Q1021=
200802051545 METAR LIRA 051545Z 33007KT 300V360 9999 FEW033 13/04 Q1020=
200802051515 METAR LIRA 051515Z 34008KT 300V010 9999 FEW018 13/04 Q1020=
200802051445 METAR LIRA 051445Z 36007KT 310V030 9999 FEW018 13/04 Q1019=
200802051415 METAR LIRA 051415Z 34008KT 300V030 9999 FEW020 12/07 Q1019=
200802051345 METAR LIRA 051345Z 36009KT 300V030 9999 FEW020 12/07 Q1019=
200802051315 METAR LIRA 051315Z 34007KT 300V040 9999 FEW020 12/07 Q1019=
200802051245 METAR LIRA 051245Z 31005KT 9999 FEW020 SCT030 12/07 Q1019=
200802051215 METAR LIRA 051215Z 02006KT 9999 FEW018 SCT030 11/07 Q1019=
200802051145 METAR LIRA 051145Z 33004KT 9999 FEW018 SCT030 11/06 Q1019=
200802051115 METAR LIRA 051115Z 33002KT 9999 FEW018 SCT030 10/06 Q1019=
200802051045 METAR LIRA 051045Z 32001KT 9999 FEW018 SCT030 10/06 Q1019=
200802051015 METAR LIRA 051015Z 01002KT 9999 FEW018 SCT030 09/07 Q1019=
200802050945 METAR LIRA 050945Z 33002KT 9999 FEW018 SCT030 09/06 Q1018=
200802050915 METAR LIRA 050915Z 20002KT 9999 FEW018 BKN070 08/06 Q1018=
200802050845 METAR LIRA 050845Z 30004KT 9999 FEW018 BKN070 08/06 Q1018=
200802050815 METAR LIRA 050815Z 35001KT 9999 FEW018 BKN070 07/05 Q1018=
200802050745 METAR LIRA 050745Z 08003KT 9999 FEW015 FEW020CB SCT070 07/04
                        Q1017=
200802050715 METAR LIRA 050715Z 13004KT 9999 FEW015 FEW020CB SCT070 07/04
                        Q1016 RERA=
200802050645 METAR LIRA 050645Z 11001KT 9999 FEW015 FEW020CB SCT070 07/05
                        Q1016 RERA=
200802050615 METAR LIRA 050615Z 29012KT 220V340 8000 RA FEW015 SCT025
                        07/05 Q1016=
200802050545 METAR LIRA 050545Z 26003KT 210V040 9999 -RA FEW016 FEW020CB
                        SCT070 07/04 Q1015=
200802050515 METAR LIRA 050515Z 05003KT 9999 FEW018 FEW020CB SCT070 07/05
                        Q1014=
200802050445 METAR LIRA 050445Z 07005KT 9999 SCT018 FEW020CB SCT070 08/04
                        Q1014=
200802050415 METAR LIRA 050415Z 00000KT 9999 SCT018 FEW020CB SCT070 08/05
                        Q1014=
200802050345 METAR LIRA 050345Z 09008KT 050V150 8000 -RA SCT018 FEW020CB
                        BKN070 08/06 Q1014=
200802050315 METAR LIRA 050315Z 10005KT 8000 -RA SCT018 FEW020CB SCT070
                        08/06 Q1014=
200802050245 METAR LIRA 050245Z 05005KT 8000 SCT018 FEW020CB SCT070 08/06
                        Q1013 RETS=
200802050215 METAR LIRA 050215Z 09002KT 8000 SCT018 FEW020CB SCT070 09/08
                        Q1013 RETS=
200802050145 METAR LIRA 050145Z 29003KT 6000 -TSRA SCT015 FEW017CB SCT025
                        10/08 Q1013=
200802050115 METAR LIRA 050115Z 17004KT 6000 -TSRA SCT015 FEW017CB SCT025
                        10/08 Q1013=
200802050045 METAR LIRA 050045Z 18004KT 8000 SCT015 FEW017TCU 10/08 Q1013=
200802050015 METAR LIRA 050015Z 23005KT 170V280 8000 SCT015 SCT030 10/08
                        Q1013=
200802042345 METAR LIRA 042345Z 23005KT 190V280 8000 SCT015 FEW017CB SCT030
                        10/08 Q1013 RETS=
200802042315 METAR LIRA 042315Z 20005KT 170V230 7000 SCT012 FEW015CB SCT025
                        10/09 Q1013 RETS=
200802042245 METAR LIRA 042245Z 17006KT 6000 -TSRA SCT012 FEW015CB SCT025
                        11/10 Q1013 RETS=
200802042215 METAR LIRA 042215Z 17005KT 6000 -TSRA SCT012 FEW015CB SCT025
                        12/10 Q1013 RETS=
200802042145 METAR LIRA 042145Z 17017KT 6000 -TSRA SCT012 SCT015CB BKN023
                        13/11 Q1012=
200802042115 METAR LIRA 042115Z 16021KT 7000 SCT015 FEW017CB SCT025 13/11
                        Q1012=
200802042045 METAR LIRA 042045Z 17018KT 8000 SCT015 FEW017CB 13/10 Q1013=
200802042015 METAR LIRA 042015Z 17016KT 8000 SCT015 FEW017CB 13/09 Q1013=
200802041945 METAR LIRA 041945Z 17018KT 120V190 8000 SCT015 FEW017CB SCT070
                        13/10 Q1014=
200802041915 METAR LIRA 041915Z 17016KT 8000 SCT015 FEW017CB SCT070 13/10
                        Q1014=
200802041845 METAR LIRA 041845Z 16019KT 8000 SCT015 FEW017CB SCT025 13/10
                        Q1014=
200802041815 METAR LIRA 041815Z 16020KT 8000 SCT015 FEW017TCU SCT025 13/09
                        Q1014=
200802041745 METAR LIRA 041745Z 16021KT 8000 SCT015 FEW017TCU SCT023 13/09
                        Q1015=
200802041715 METAR LIRA 041715Z 15021KT 8000 SCT015 FEW017CB SCT025 13/09
                        Q1015=
200802041645 METAR LIRA 041645Z 16021KT 8000 FEW015 FEW017TCU BKN025 13/10
                        Q1015=
200802041615 METAR LIRA 041615Z 16017KT 9999 FEW015 FEW017TCU BKN025 13/10
                        Q1015=
200802041545 METAR LIRA 041545Z 17019KT 9999 FEW015 SCT025 BKN200 13/10
                        Q1015=
200802041515 METAR LIRA 041515Z 17018KT 9999 FEW015 SCT025 14/10 Q1016=
200802041445 METAR LIRA 041445Z 18016KT 140V220 9999 FEW015 FEW017TCU
                        BKN025 14/10 Q1016=
200802041415 METAR LIRA 041415Z 18018KT 9999 SCT015 FEW017TCU BKN025 13/09
                        Q1016=
200802041345 METAR LIRA 041345Z 18017G27KT 140V220 9999 SCT015 FEW017TCU
                        BKN025 14/11 Q1017=
200802041315 METAR LIRA 041315Z 18017KT 140V220 9999 SCT015 FEW017TCU
                        BKN025 14/10 Q1017=
200802041245 METAR LIRA 041245Z 18015KT 9999 -RA SCT015 FEW017TCU BKN025
                        12/09 Q1017=
200802041215 METAR LIRA 041215Z 17012KT 9999 -RA SCT015 FEW017TCU BKN025
                        13/09 Q1018=
200802041145 METAR LIRA 041145Z 19015KT 160V220 9999 -RA SCT015 FEW017TCU
                        SCT025 14/10 Q1018=
200802041115 METAR LIRA 041115Z 18014KT 9999 SCT015 FEW017TCU SCT025 14/10
                        Q1019=
200802041045 METAR LIRA 041045Z 17013KT 9999 SCT015 FEW017TCU SCT025 14/11
                        Q1019=
200802041015 METAR LIRA 041015Z 18015KT 140V210 9999 SCT015 FEW017TCU
                        SCT025 13/10 Q1019=
200802040945 METAR LIRA 040945Z 17014KT 9999 SCT015 SCT025 13/11 Q1019=
200802040915 METAR LIRA 040915Z 16016KT 9999 -RA SCT015 SCT025 13/11 Q1019=
200802040845 METAR LIRA 040845Z 17013KT 9999 FEW008 SCT030 13/11 Q1019=
200802040815 METAR LIRA 040815Z 18014KT 9999 FEW008 SCT025 12/10 Q1019=
200802040745 METAR LIRA 040745Z 18015KT 9999 FEW015 FEW017TCU SCT025 12/10
                        Q1019=
200802040715 METAR LIRA 040715Z 17014KT 8000 -RA FEW015 FEW017CB BKN025
                        12/10 Q1019 RETS=
200802040645 METAR LIRA 040645Z 17013KT 8000 FEW015 FEW017CB BKN025 12/10
                        Q1018 RETS=
200802040615 METAR LIRA 040615Z 17012KT 7000 TS FEW015 FEW017CB SCT025
                        12/10 Q1018=
200802040545 METAR LIRA 040545Z 18013KT 130V210 7000 -TSRA FEW015 FEW017CB
                        SCT025 11/09 Q1018=
200802040515 METAR LIRA 040515Z 14002KT 100V170 5000 -TSRA SCT015 FEW017CB
                        BKN025 10/08 Q1018=
200802040445 METAR LIRA 040445Z 17012KT 5000 -TSRA SCT015 FEW017CB BKN025
                        10/08 Q1018=
200802040415 METAR LIRA 040415Z 15005KT 100V180 5000 -TSRA SCT015 FEW017CB
                        BKN025 10/09 Q1019=
200802040345 METAR LIRA 040345Z 17010KT 150V220 4000 -TSRA SCT015 SCT017CB
                        BKN025 10/09 Q1018=
200802040315 METAR LIRA 040315Z 15015KT 7000 -TSRA FEW015 FEW017CB BKN025
                        11/08 Q1019=
200802040245 METAR LIRA 040245Z 16014KT 9999 FEW015 FEW017CB SCT025 11/08
                        Q1019 RETS=
200802040215 METAR LIRA 040215Z 17014KT 120V190 9999 FEW015 FEW017CB SCT025
                        10/08 Q1019 RETS=
200802040145 METAR LIRA 040145Z /////KT 8000 -TSRA FEW015 FEW017CB BKN070
                        10/08 Q1019=
200802040115 METAR LIRA 040115Z 16014KT 8000 -TSRA FEW015 FEW017CB BKN070
                        10/07 Q1019=
200802040045 METAR LIRA 040045Z 16014KT 6000 -TSRA SCT012 SCT017CB BKN070
                        10/08 Q1020=
200802040015 METAR LIRA 040015Z 16016KT 8000 -TSRA SCT012 SCT017CB BKN070
                        10/08 Q1020=
200802032345 METAR LIRA 032345Z 15016KT 8000 -RA FEW015 FEW018CB BKN070
                        11/08 Q1020 RETS=
200802032315 METAR LIRA 032315Z 16016KT 9999 FEW015 FEW018CB BKN070 10/08
                        Q1020 RETS=
200802032245 METAR LIRA 032245Z 16014KT 8000 -TSRA FEW015 FEW018CB BKN070
                        11/08 Q1020=
200802032215 METAR LIRA 032215Z 15018KT 8000 -TSRA FEW015 FEW018CB BKN070
                        11/08 Q1020=
200802032145 METAR LIRA 032145Z 17017KT 140V210 8000 -TSRA FEW015 FEW018CB
                        BKN070 12/08 Q1020=
200802032115 METAR LIRA 032115Z 14010KT 100V180 9000 -RA FEW015 FEW018CB
                        BKN070 12/08 Q1020=
200802032045 METAR LIRA 032045Z 15014KT 100V170 6000 -RA FEW015 FEW018CB
                        SCT070 12/08 Q1020=
200802032015 METAR LIRA 032015Z 15014KT 100V170 9999 FEW015 SCT070 11/07
                        Q1020=
200802031945 METAR LIRA 031945Z 14009KT 090V160 9999 FEW015 BKN070 10/07
                        Q1021=
200802031915 METAR LIRA 031915Z 10002KT 9000 FEW015 BKN070 10/07 Q1021
                        RETS=
200802031845 METAR LIRA 031845Z 08007KT 040V120 9000 FEW018 SCT025 BKN070
                        10/07 Q1021 RETS=
200802031815 METAR LIRA 031815Z 10009KT 7000 -TSRA FEW015 FEW018CB BKN025
                        09/08 Q1021=
200802031745 METAR LIRA 031745Z 26002KT 170V240 7000 -TSRA FEW015 FEW018CB
                        BKN025 09/08 Q1021=
200802031715 METAR LIRA 031715Z 04002KT 7000 FEW015 FEW020CB BKN025 09/08
                        Q1021=
200802031645 METAR LIRA 031645Z 04004KT 7000 -RA FEW015 FEW020CB BKN025
                        09/08 Q1021=
200802031615 METAR LIRA 031615Z 30002KT 7000 -RA FEW013 BKN025 09/08 Q1022=
200802031545 METAR LIRA 031545Z 14004KT 7000 -RA FEW003 FEW020CB BKN023
                        09/08 Q1022=
200802031515 METAR LIRA 031515Z 17002KT 5000 -RA SCT003 FEW020CB BKN023
                        09/08 Q1022=
200802031445 METAR LIRA 031445Z 22003KT 2500 -TSRA SCT003 FEW020CB BKN023
                        10/09 Q1021=
200802031415 METAR LIRA 031415Z 33007KT 280V360 6000 -TSRA SCT018 FEW020CB
                        BKN030 10/09 Q1022=
200802031345 METAR LIRA 031345Z 30003KT 6000 -RA SCT018 FEW020CB BKN030
                        12/08 Q1022=
200802031315 METAR LIRA 031315Z 31002KT 7000 -RA FEW018 FEW020CB BKN030
                        12/07 Q1022=
200802031245 METAR LIRA 031245Z 18007KT 9999 -RA FEW020 BKN030 14/06 Q1022=
200802031215 METAR LIRA 031215Z 16009KT 120V210 9999 FEW020 BKN030 13/05
                        Q1022=
200802031145 METAR LIRA 031145Z 15010KT 090V180 9999 SCT030 BKN070 12/07
                        Q1022=
200802031115 METAR LIRA 031115Z 13013KT 090V180 9999 FEW020 BKN070 12/08
                        Q1022=
200802031045 METAR LIRA 031045Z 13011KT 090V180 9999 FEW015 SCT030 BKN070
                        12/08 Q1022=
200802031015 METAR LIRA 031015Z 14012KT 9999 FEW015 SCT025 BKN070 12/07
                        Q1022=
200802030945 METAR LIRA 030945Z 16018KT 9999 FEW015 SCT030 BKN070 11/07
                        Q1022=
200802030915 METAR LIRA 030915Z 16014KT 140V220 9999 FEW015 SCT030 BKN070
                        09/08 Q1022=
200802030845 METAR LIRA 030845Z 14007KT 090V170 9999 FEW015 SCT040 BKN200
                        08/07 Q1022=
200802030815 METAR LIRA 030815Z 14007KT 9999 FEW015 SCT070 BKN200 08/07
                        Q1021=
200802030745 METAR LIRA 030745Z 00000KT 9999 FEW020 SCT040 BKN200 06/05
                        Q1021=
200802030715 METAR LIRA 030715Z 00000KT 9999 FEW020 SCT030 BKN200 06/05
                        Q1021=
200802030645 METAR LIRA 030645Z 03001KT 9999 FEW020 BKN200 06/05 Q1021=
200802030615 METAR LIRA 030615Z 09002KT 9999 FEW020 SCT090 BKN200 06/05
                        Q1021=
200802030545 METAR LIRA 030545Z 00000KT 9999 FEW030 SCT200 07/07 Q1020=
200802030515 METAR LIRA 030515Z 34003KT 9999 FEW025 05/04 Q1020=
200802030445 METAR LIRA 030445Z 12004KT 9999 FEW025 SCT080 05/04 Q1020=
200802030415 METAR LIRA 030415Z 10001KT 9999 FEW025 SCT080 05/04 Q1020=
200802030345 METAR LIRA 030345Z 36001KT 9999 FEW020 SCT080 05/04 Q1020=
200802030315 METAR LIRA 030315Z 00000KT 9999 SCT080 05/04 Q1019=
200802030245 METAR LIRA 030245Z 00000KT 9999 SCT080 05/04 Q1019=
200802030215 METAR LIRA 030215Z 05004KT 9999 SCT080 05/04 Q1019=
200802030145 METAR LIRA 030145Z 00000KT 9999 FEW080 05/04 Q1019=
200802030115 METAR LIRA 030115Z 04002KT 9999 FEW080 05/04 Q1019=
200802030045 METAR LIRA 030045Z 00000KT 9999 FEW080 06/04 Q1019=
200802030015 METAR LIRA 030015Z 00000KT 9999 FEW080 06/04 Q1019=
200802022345 METAR LIRA 022345Z 00000KT 9999 FEW080 06/04 Q1019=
200802022315 METAR LIRA 022315Z 00000KT 9999 FEW080 07/04 Q1019=
200802022245 METAR LIRA 022245Z 00000KT 9999 SCT080 07/05 Q1019=
200802022215 METAR LIRA 022215Z 00000KT 9999 SCT080 08/05 Q1019=
200802022145 METAR LIRA 022145Z 00000KT 9999 BKN080 08/05 Q1018=
200802022115 METAR LIRA 022115Z 12001KT 9999 BKN080 08/05 Q1018=
200802022045 METAR LIRA 022045Z 13005KT 9999 BKN080 07/04 Q1018=
200802022015 METAR LIRA 022015Z 09002KT 9999 BKN080 07/05 Q1018=
200802021945 METAR LIRA 021945Z 26001KT 9999 SCT080 07/05 Q1018=
200802021915 METAR LIRA 021915Z 11004KT 9999 SCT080 08/05 Q1017=
200802021845 METAR LIRA 021845Z 28003KT 9999 FEW020 08/04 Q1017=
200802021815 METAR LIRA 021815Z 16003KT 9999 FEW020 09/05 Q1017=
200802021745 METAR LIRA 021745Z 15003KT 9999 FEW020 10/06 Q1017=
200802021715 METAR LIRA 021715Z 16005KT 9999 FEW020 10/05 Q1016=
200802021645 METAR LIRA 021645Z 16007KT 9999 FEW017 11/06 Q1016=
200802021615 METAR LIRA 021615Z 16008KT 120V210 9999 FEW014 11/06 Q1016=
200802021545 METAR LIRA 021545Z 18009KT 9999 FEW014 SCT030 12/07 Q1016=
200802021515 METAR LIRA 021515Z 19009KT 150V220 9999 FEW014 SCT025 12/07
                        Q1016=
200802021445 METAR LIRA 021445Z 18009KT 9999 FEW014 SCT025 13/07 Q1015=
200802021415 METAR LIRA 021415Z 17011KT 9999 FEW014 SCT025 13/07 Q1015=
200802021345 METAR LIRA 021345Z 16013KT 9999 FEW014 SCT030 13/07 Q1015=
200802021315 METAR LIRA 021315Z 17011KT 9999 FEW016 SCT030 13/06 Q1015=
200802021245 METAR LIRA 021245Z 16013KT 120V210 9999 FEW016 SCT030 13/08
                        Q1015=
200802021215 METAR LIRA 021215Z 17010KT 9999 FEW016 SCT030 13/08 Q1016=
200802021145 METAR LIRA 021145Z 17011KT 140V220 9999 FEW016 SCT030 13/08
                        Q1016=
200802021115 METAR LIRA 021115Z 18011KT 140V230 9999 FEW016 SCT030 12/07
                        Q1016=
200802021045 METAR LIRA 021045Z 18008KT 120V210 9999 FEW016 BKN070 11/07
                        Q1016=
200802021015 METAR LIRA 021015Z 16014KT 9999 FEW016 BKN070 11/07 Q1016=
200802020945 METAR LIRA 020945Z 16013KT 9999 FEW016 SCT025 BKN070 11/07
                        Q1016=
200802020915 METAR LIRA 020915Z 16008KT 9999 FEW016 SCT025 BKN070 11/07
                        Q1016=
200802020845 METAR LIRA 020845Z 15009KT 9999 FEW016 SCT025 BKN070 10/07
                        Q1016=
200802020815 METAR LIRA 020815Z 16011KT 9999 FEW016 SCT025 BKN070 10/07
                        Q1015=
200802020745 METAR LIRA 020745Z 16007KT 9999 FEW016 SCT025 BKN070 09/06
                        Q1015=
200802020715 METAR LIRA 020715Z 16008KT 9999 -DZ FEW016 SCT025 BKN070
                        09/06 Q1015=
200802020645 METAR LIRA 020645Z 15009KT 9999 FEW016 SCT025 BKN070 09/06
                        Q1015=
200802020615 METAR LIRA 020615Z 16008KT 8000 FEW017 SCT025 BKN070 09/06
                        Q1015=
200802020545 METAR LIRA 020545Z 15010KT 6000 -DZ FEW017 SCT025 09/07 Q1015=
200802020515 METAR LIRA 020515Z 18009KT 6000 -DZ FEW017 SCT025 09/07 Q1015=
200802020445 METAR LIRA 020445Z 17008KT 9999 FEW017 SCT025 10/09 Q1015=
200802020415 METAR LIRA 020415Z 17009KT 9999 FEW017 SCT025 10/08 Q1016=
200802020345 METAR LIRA 020345Z 16008KT 9999 -DZ FEW017 SCT025 10/08 Q1016=
200802020315 METAR LIRA 020315Z 18008KT 8000 -DZ FEW017 SCT025 10/08 Q1016=
200802020245 METAR LIRA 020245Z 17007KT 8000 -DZ FEW017 SCT025 BKN070
                        10/08 Q1016=
200802020215 METAR LIRA 020215Z 17008KT 8000 -DZ FEW018 SCT025 BKN070
                        10/08 Q1016=
200802020145 METAR LIRA 020145Z 16009KT 8000 -DZ FEW018 SCT025 BKN070
                        10/08 Q1016=
200802020115 METAR LIRA 020115Z 16007KT 8000 DZ FEW020 SCT025 BKN070 10/08
                        Q1017=
200802020045 METAR LIRA 020045Z 16008KT 7000 DZ FEW018 SCT025 BKN070 10/08
                        Q1017=
200802020015 METAR LIRA 020015Z 18007KT 7000 FEW018 SCT025 BKN070 10/08
                        Q1018=
200802012345 METAR LIRA 012345Z 17008KT 8000 BR FEW020 SCT025 BKN070 10/08
                        Q1018=
200802012315 METAR LIRA 012315Z 18009KT 7000 DZ FEW020 SCT025 10/06 Q1018=
200802012245 METAR LIRA 012245Z 15009KT 7000 DZ FEW018 SCT025 09/08 Q1018=
200802012215 METAR LIRA 012215Z 17008KT 7000 DZ FEW018 SCT030 BKN070 09/08
                        Q1018=
200802012145 METAR LIRA 012145Z 19006KT 7000 DZ FEW020 SCT030 BKN070 09/08
                        Q1018=
200802012115 METAR LIRA 012115Z 18007KT 5000 DZ BR FEW017 SCT030 BKN070
                        09/08 Q1018=
200802012045 METAR LIRA 012045Z 17011KT 5000 -DZ BR FEW018 BKN025 10/08
                        Q1018=
200802012015 METAR LIRA 012015Z 17009KT 9999 -DZ FEW018 SCT030 BKN070
                        10/07 Q1018=
200802011945 METAR LIRA 011945Z 18008KT 9999 FEW017 SCT025 10/07 Q1018=
200802011915 METAR LIRA 011915Z 17007KT 9999 FEW017 SCT030 10/06 Q1018=
200802011845 METAR LIRA 011845Z 17008KT 9999 FEW017 BKN070 10/06 Q1018=
200802011815 METAR LIRA 011815Z 18005KT 9999 FEW017 BKN070 10/06 Q1018=
200802011745 METAR LIRA 011745Z 16005KT 9999 -DZ FEW017 BKN070 10/06 Q1018=
200802011715 METAR LIRA 011715Z 17005KT 9999 -DZ FEW017 BKN070 10/06 Q1018=
200802011645 METAR LIRA 011645Z 20004KT 9999 SCT018 SCT070 11/06 Q1019=
200802011615 METAR LIRA 011615Z 17004KT 9999 SCT018 12/06 Q1019=
200802011545 METAR LIRA 011545Z 24006KT 9999 SCT018 12/06 Q1019=
200802011515 METAR LIRA 011515Z 18005KT 170V240 9999 SCT018 12/05 Q1019=
200802011445 METAR LIRA 011445Z 22005KT 200V270 9999 SCT018 FEW020TCU
                        13/06 Q1019=
200802011415 METAR LIRA 011415Z 24009KT 190V290 9999 SCT018 FEW020TCU
                        13/06 Q1019=
200802011345 METAR LIRA 011345Z 23007KT 190V270 9999 SCT018 FEW020TCU
                        SCT070 13/06 Q1019=
200802011315 METAR LIRA 011315Z 21009KT 9999 SCT018 FEW020TCU SCT070 12/08
                        Q1019=
200802011245 METAR LIRA 011245Z 24005KT 9999 SCT018 SCT070 12/07 Q1019=
200802011215 METAR LIRA 011215Z 20006KT 9999 SCT018 FEW020TCU SCT070 12/07
                        Q1020=
200802011145 METAR LIRA 011145Z 19008KT 120V230 9999 SCT018 FEW020TCU
                        12/06 Q1020=
200802011115 METAR LIRA 011115Z 19008KT 150V240 9999 SCT018 FEW020TCU
                        11/06 Q1020=
200802011045 METAR LIRA 011045Z 19009KT 130V240 9999 FEW018 SCT025 13/07
                        Q1020=
200802011015 METAR LIRA 011015Z 16011KT 130V200 9999 FEW018 SCT025 12/06
                        Q1020=
200802010945 METAR LIRA 010945Z 16014KT 130V200 9999 FEW018 12/07 Q1020=
200802010915 METAR LIRA 010915Z 14012KT 110V180 9999 FEW018 SCT070 12/07
                        Q1020=
200802010845 METAR LIRA 010845Z 18007KT 130V200 9999 FEW018 SCT070 11/08
                        Q1020=
200802010815 METAR LIRA 010815Z 15008KT 110V190 9999 FEW018 SCT070 10/07
                        Q1020=
200802010745 METAR LIRA 010745Z 14004KT 9999 SCT018 SCT025 09/07 Q1020=
200802010715 METAR LIRA 010715Z 14004KT 9999 SCT018 SCT025 09/06 Q1019=
200802010645 METAR LIRA 010645Z 15004KT 9999 -RA SCT018 SCT025 09/07 Q1019=
200802010615 METAR LIRA 010615Z 14004KT 9999 -RA SCT018 SCT025 09/07 Q1019=
200802010545 METAR LIRA 010545Z 13005KT 9999 SCT018 SCT070 09/06 Q1019=
200802010515 METAR LIRA 010515Z 16006KT 9999 SCT020 SCT070 08/06 Q1019=
200802010445 METAR LIRA 010445Z 14005KT 9999 SCT020 SCT070 08/06 Q1019=
200802010415 METAR LIRA 010415Z 14004KT 9999 SCT020 SCT070 08/06 Q1019=
200802010345 METAR LIRA 010345Z 14007KT 9999 SCT018 SCT070 08/06 Q1019=
200802010315 METAR LIRA 010315Z 15006KT 9999 SCT018 SCT070 08/06 Q1019=
200802010245 METAR LIRA 010245Z 16007KT 9999 SCT020 SCT070 09/06 Q1020=
200802010215 METAR LIRA 010215Z 16006KT 9999 SCT020 SCT070 09/06 Q1020=
200802010145 METAR LIRA 010145Z 15008KT 9999 FEW020 SCT070 07/05 Q1020=
200802010115 METAR LIRA 010115Z 16006KT 9999 FEW020 07/05 Q1020=
200802010045 METAR LIRA 010045Z 16006KT 9999 FEW020 SCT070 07/05 Q1020=
200802010015 METAR LIRA 010015Z 15006KT 9999 FEW020 07/05 Q1020=

</pre>

</body>
</html>
