##########################################################
# Query made at 11/10/2014 14:46:38 UTC
# Time interval: from 02/01/2009 00:00  to 03/03/2009 23:59  UTC
##########################################################

##########################################################
# LIRA, Roma / Ciampino (Italy)
# WMO index: 16239
# Latitude 41-47N. Longitude 012-35E. Altitude 129 m.
##########################################################

###################################
#  METAR/SPECI from LIRA
###################################
200903032345 METAR LIRA 032345Z 09001KT 9999 BKN025 SCT070 10/08 Q1012=
200903032315 METAR LIRA 032315Z 03003KT 9999 SCT030 BKN070 10/07 Q1013=
200903032245 METAR LIRA 032245Z 05001KT 9999 SCT030 BKN070 10/07 Q1013=
200903032215 METAR LIRA 032215Z 13003KT 9999 SCT030 BKN070 11/08 Q1013=
200903032145 METAR LIRA 032145Z 11001KT 9999 SCT030 BKN070 11/08 Q1014=
200903032115 METAR LIRA 032115Z 12003KT 9999 FEW030 BKN070 10/08 Q1014=
200903032045 METAR LIRA 032045Z 14003KT 9999 FEW018 SCT070 10/08 Q1014=
200903032015 METAR LIRA 032015Z 14002KT 9999 FEW018 SCT070 10/08 Q1014=
200903031945 METAR LIRA 031945Z 16001KT 9999 FEW018 SCT070 10/08 Q1014=
200903031915 METAR LIRA 031915Z 18003KT 9999 FEW018 SCT070 10/07 Q1014=
200903031845 METAR LIRA 031845Z 15004KT 9999 FEW080 11/08 Q1014=
200903031815 METAR LIRA 031815Z 18004KT 9999 FEW070 11/09 Q1014=
200903031745 METAR LIRA 031745Z 19002KT 9999 FEW080 12/09 Q1014=
200903031715 METAR LIRA 031715Z 19004KT 9999 FEW017 SCT200 12/08 Q1014=
200903031645 METAR LIRA 031645Z 21004KT 9999 FEW017 SCT200 14/09 Q1014=
200903031615 METAR LIRA 031615Z 20006KT 140V240 9999 FEW017 FEW020TCU
                        SCT200 14/09 Q1014=
200903031545 METAR LIRA 031545Z 20006KT 160V240 9999 FEW015 FEW020TCU
                        SCT030 14/09 Q1014=
200903031515 METAR LIRA 031515Z 22006KT 190V260 9999 FEW015 FEW020TCU
                        SCT025 14/09 Q1014=
200903031445 METAR LIRA 031445Z 22008KT 160V250 9999 FEW015 SCT030 15/09
                        Q1014=
200903031415 METAR LIRA 031415Z 20006KT 150V260 9999 SCT015 SCT030 15/09
                        Q1014=
200903031345 METAR LIRA 031345Z 20008KT 140V240 9999 SCT015 SCT030 14/09
                        Q1014=
200903031315 METAR LIRA 031315Z 19009KT 150V240 9999 SCT015 SCT030 14/09
                        Q1015=
200903031245 METAR LIRA 031245Z 20008KT 160V260 9999 SCT015 SCT030 14/09
                        Q1015=
200903031215 METAR LIRA 031215Z 19008KT 140V240 9999 SCT015 SCT030 14/09
                        Q1015=
200903031145 METAR LIRA 031145Z 19010KT 160V230 9999 SCT015 SCT030 14/10
                        Q1016=
200903031115 METAR LIRA 031115Z 20007KT 160V240 9999 SCT015 BKN030 13/10
                        Q1016=
200903031045 METAR LIRA 031045Z 19010KT 140V240 9999 SCT015 BKN030 13/10
                        Q1016=
200903031015 METAR LIRA 031015Z 17005KT 160V230 9999 SCT015 BKN030 13/10
                        Q1016=
200903030945 METAR LIRA 030945Z 17004KT 9000 SCT015 BKN030 13/11 Q1016=
200903030915 METAR LIRA 030915Z 18004KT 9000 SCT015 BKN030 13/10 Q1016=
200903030845 METAR LIRA 030845Z 17006KT 120V200 8000 FEW015 SCT030 BKN070
                        12/10 Q1016=
200903030815 METAR LIRA 030815Z 17004KT 8000 -RA SCT015 SCT070 12/10 Q1016=
200903030745 METAR LIRA 030745Z 16006KT 8000 -RA SCT015 SCT070 12/10 Q1016=
200903030715 METAR LIRA 030715Z 16006KT 8000 -RA SCT015 SCT070 12/10 Q1016=
200903030645 METAR LIRA 030645Z 16004KT 8000 -RA SCT015 SCT070 10/09 Q1015=
200903030615 METAR LIRA 030615Z 15003KT 8000 -RA SCT015 SCT030 10/09 Q1015=
200903030545 METAR LIRA 030545Z 14002KT 8000 SCT017 SCT030 10/09 Q1015=
200903030515 METAR LIRA 030515Z 12002KT 8000 SCT017 SCT030 10/09 Q1015=
200903030445 METAR LIRA 030445Z 10002KT 8000 SCT017 SCT030 10/09 Q1015=
200903030415 METAR LIRA 030415Z 13006KT 100V200 8000 -DZ SCT016 SCT030
                        10/09 Q1015=
200903030345 METAR LIRA 030345Z 00000KT 9999 SCT018 SCT030 09/08 Q1015=
200903030315 METAR LIRA 030315Z 13001KT 9999 FEW017 SCT060 09/08 Q1015=
200903030245 METAR LIRA 030245Z 00000KT 9999 FEW017 SCT060 09/08 Q1015=
200903030215 METAR LIRA 030215Z 13003KT 9999 FEW018 SCT060 09/09 Q1016=
200903030145 METAR LIRA 030145Z 15003KT 9999 FEW017 SCT060 11/09 Q1016=
200903030115 METAR LIRA 030115Z 16003KT 9999 FEW017 SCT060 11/09 Q1016=
200903030045 METAR LIRA 030045Z 16004KT 9999 FEW017 SCT060 11/10 Q1016=
200903030015 METAR LIRA 030015Z 17005KT 9999 SCT017 SCT030 11/10 Q1016=
200903022350 METAR LIRA 030045Z 16004KT 9999 FEW017 SCT060 11/10 Q1016=
200903022345 METAR LIRA 022345Z 15003KT 9999 SCT025 SCT060 10/09 Q1016=
200903022315 METAR LIRA 022315Z 15004KT 8000 FEW017 SCT060 11/10 Q1016=
200903022245 METAR LIRA 022245Z 15005KT 8000 FEW017 SCT035 11/10 Q1016=
200903022215 METAR LIRA 022215Z 16005KT 8000 FEW017 SCT060 11/10 Q1016=
200903022145 METAR LIRA 022145Z 15003KT 8000 SCT017 SCT030 11/10 Q1016=
200903022115 METAR LIRA 022115Z 17004KT 8000 SCT017 SCT030 11/10 Q1016=
200903022045 METAR LIRA 022045Z 16003KT 8000 SCT018 SCT060 11/10 Q1015=
200903022015 METAR LIRA 022015Z 16003KT 8000 FEW018 SCT060 11/10 Q1015=
200903021945 METAR LIRA 021945Z 16004KT 8000 SCT018 11/10 Q1015=
200903021915 METAR LIRA 021915Z 18004KT 8000 SCT018 11/10 Q1015=
200903021845 METAR LIRA 021845Z 16004KT 8000 SCT018 12/11 Q1015=
200903021815 METAR LIRA 021815Z 19005KT 8000 SCT018 12/11 Q1014=
200903021745 METAR LIRA 021745Z 21003KT 160V240 8000 SCT016 SCT070 13/10
                        Q1014=
200903021715 METAR LIRA 021715Z 22006KT 190V270 8000 SCT015 SCT030 13/10
                        Q1014=
200903021645 METAR LIRA 021645Z 23005KT 180V270 8000 SCT015 SCT030 13/10
                        Q1014=
200903021615 METAR LIRA 021615Z 23006KT 180V260 8000 BKN015 SCT030 13/09
                        Q1014=
200903021545 METAR LIRA 021545Z 23008KT 190V260 8000 SCT015 FEW020CB SCT030
                        13/10 Q1014=
200903021515 METAR LIRA 021515Z 22010KT 190V270 8000 BKN015 FEW020CB SCT030
                        13/09 Q1014=
200903021445 METAR LIRA 021445Z 22012KT 190V260 8000 BKN015 FEW020CB SCT030
                        14/10 Q1013=
200903021415 METAR LIRA 021415Z 23009KT 180V270 9999 BKN015 FEW020CB SCT025
                        14/10 Q1014=
200903021345 METAR LIRA 021345Z 23011KT 160V270 9999 SCT015 FEW016CB SCT030
                        14/10 Q1014=
200903021315 METAR LIRA 021315Z 23009KT 190V300 9999 SCT015 FEW016CB SCT030
                        14/11 Q1014=
200903021245 METAR LIRA 021245Z 21008KT 180V270 9000 SCT016 SCT030 14/11
                        Q1014=
200903021215 METAR LIRA 021215Z 23012KT 180V260 9000 SCT016 SCT030 14/11
                        Q1014=
200903021145 METAR LIRA 021145Z 21007KT 150V260 9000 BKN015 15/11 Q1014=
200903021115 METAR LIRA 021115Z 21007KT 160V270 9000 BKN015 14/10 Q1014=
200903021045 METAR LIRA 021045Z 23008KT 200V280 9000 SCT015 SCT025 14/11
                        Q1014=
200903021015 METAR LIRA 021015Z 22007KT 150V260 8000 SCT015 SCT070 13/10
                        Q1014=
200903020945 METAR LIRA 020945Z 21004KT 8000 SCT015 SCT070 13/10 Q1014=
200903020915 METAR LIRA 020915Z 18005KT 7000 SCT015 SCT025 12/10 Q1014=
200903020845 METAR LIRA 020845Z 19005KT 160V230 6000 SCT013 FEW022TCU
                        SCT025 12/10 Q1014=
200903020815 METAR LIRA 020815Z 19006KT 160V260 5000 -RA BR SCT013 BKN025
                        12/11 Q1013=
200903020745 METAR LIRA 020745Z 18006KT 140V220 7000 SCT013 BKN025 11/10
                        Q1013=
200903020715 METAR LIRA 020715Z 18005KT 8000 SCT013 BKN025 11/10 Q1013=
200903020645 METAR LIRA 020645Z 17006KT 130V200 8000 SCT016 BKN025 10/10
                        Q1013=
200903020615 METAR LIRA 020615Z 19002KT 7000 -RA SCT015 BKN025 09/09 Q1013=
200903020545 METAR LIRA 020545Z 09002KT 7000 -RA SCT015 BKN025 09/09 Q1012=
200903020515 METAR LIRA 020515Z 27001KT 7000 -RA SCT018 BKN030 09/09 Q1012=
200903020445 METAR LIRA 020445Z 00000KT 8000 -RA SCT018 BKN030 09/09 Q1013=
200903020415 METAR LIRA 020415Z 00000KT 9999 FEW018 SCT030 10/09 Q1013=
200903020345 METAR LIRA 020345Z 00000KT 9999 -DZ SCT018 BKN030 09/09 Q1013=
200903020315 METAR LIRA 020315Z 00000KT 9999 -RA SCT018 BKN030 10/09 Q1013=
200903020245 METAR LIRA 020245Z 00000KT 9999 -RA SCT018 BKN030 10/09 Q1013=
200903020215 METAR LIRA 020215Z 34002KT 9999 -RA FEW018 BKN030 10/09 Q1013=
200903020200 METAR LIRA INTER=
200903020115 METAR LIRA 020115Z 33002KT 9999 -DZ FEW018 BKN030 10/09 Q1014=
200903020045 METAR LIRA 020045Z 34002KT 9999 FEW018 BKN030 10/09 Q1014=
200903020015 METAR LIRA 020015Z 01002KT 9999 FEW018 BKN030 10/09 Q1014=
200903012345 METAR LIRA 012345Z 33002KT 9999 FEW018 BKN030 10/09 Q1014=
200903012315 METAR LIRA 012315Z 00000KT 9999 SCT018 SCT030 10/08 Q1014=
200903012245 METAR LIRA 012245Z 33002KT 9999 SCT018 SCT030 11/09 Q1014=
200903012215 METAR LIRA 012215Z 28001KT 9999 FEW018 SCT030 11/09 Q1014=
200903012145 METAR LIRA 012145Z 13005KT 090V160 9999 FEW018 SCT030 11/09
                        Q1014=
200903012115 METAR LIRA 012115Z 13005KT 9999 FEW018 SCT035 11/09 Q1014=
200903012045 METAR LIRA 012045Z 14008KT 9999 FEW018 SCT035 11/09 Q1014=
200903012015 METAR LIRA 012015Z 14008KT 9999 FEW018 SCT035 11/08 Q1014=
200903011945 METAR LIRA 011945Z 13011KT 9999 FEW018 SCT035 11/08 Q1014=
200903011915 METAR LIRA 011915Z 13010KT 110V180 9999 FEW018 SCT035 11/08
                        Q1014=
200903011845 METAR LIRA 011845Z 14009KT 090V170 9999 FEW018 BKN035 10/09
                        Q1014=
200903011815 METAR LIRA 011815Z 14007KT 100V260 8000 SCT018 BKN030 10/08
                        Q1014=
200903011745 METAR LIRA 011745Z 28003KT 8000 -DZ FEW016 SCT018 BKN030
                        09/08 Q1013=
200903011715 METAR LIRA 011715Z 08001KT 8000 SCT018 BKN030 09/08 Q1013=
200903011645 METAR LIRA 011645Z 03004KT 9000 -RA FEW017 BKN027 09/08 Q1013=
200903011615 METAR LIRA 011615Z 08007KT 7000 -RA FEW017 SCT025 BKN070
                        10/08 Q1013=
200903011545 METAR LIRA 011545Z 09010KT 7000 -RA FEW017 BKN070 10/08 Q1013=
200903011515 METAR LIRA 011515Z 11009KT 8000 -RA SCT020 BKN070 10/08 Q1013=
200903011445 METAR LIRA 011445Z 08006KT 030V110 9999 -RA SCT020 BKN070
                        11/07 Q1014=
200903011415 METAR LIRA 011415Z 10008KT 060V150 9999 -RA FEW020 BKN070
                        11/08 Q1014=
200903011345 METAR LIRA 011345Z 12011KT 9999 FEW020 BKN070 11/08 Q1014=
200903011315 METAR LIRA 011315Z 11012KT 8000 -RA FEW020 BKN070 11/08 Q1015=
200903011245 METAR LIRA 011245Z 14014KT 6000 -RA FEW023 BKN070 11/09 Q1015=
200903011215 METAR LIRA 011215Z 14015KT 6000 -RA FEW023 BKN070 12/04 Q1015=
200903011145 METAR LIRA 011145Z 14012KT 7000 -RA FEW023 BKN070 13/08 Q1016=
200903011115 METAR LIRA 011115Z 15012KT 8000 -RA FEW023 BKN080 13/08 Q1016=
200903011045 METAR LIRA 011045Z 14013KT 9999 -RA FEW023 BKN080 13/05 Q1016=
200903011015 METAR LIRA 011015Z 15011KT 9999 FEW023 BKN080 13/05 Q1016=
200903010945 METAR LIRA 010945Z 14013KT 9999 FEW025 BKN070 13/02 Q1016=
200903010915 METAR LIRA 010915Z 14014KT 090V180 9999 FEW025 BKN070 12/01
                        Q1016=
200903010900 METAR LIRA INTER=
200903010845 METAR LIRA 010845Z 14010KT 100V180 9999 FEW025 SCT080 BKN200
                        11/02 Q1016=
200903010815 METAR LIRA 010815Z 14007KT 090V180 9999 FEW025 SCT080 BKN200
                        11/03 Q1016=
200903010745 METAR LIRA 010745Z 12004KT 9999 FEW025 SCT080 BKN200 11/04
                        Q1017=
200903010715 METAR LIRA 010715Z 12009KT 090V180 9999 SCT025 BKN070 11/04
                        Q1017=
200903010645 METAR LIRA 010645Z 13008KT 9999 SCT025 BKN080 11/05 Q1017=
200903010615 METAR LIRA 010615Z 13009KT 9999 SCT025 BKN080 10/04 Q1017=
200903010545 METAR LIRA 010545Z 14009KT 9999 SCT025 SCT070 10/03 Q1017=
200903010515 METAR LIRA 010515Z 16006KT 9999 FEW030 SCT070 10/05 Q1018=
200903010445 METAR LIRA 010445Z 14008KT 9999 FEW030 SCT080 10/05 Q1018=
200903010415 METAR LIRA 010415Z 14007KT 120V190 8000 FEW030 SCT080 10/08
                        Q1018=
200903010345 METAR LIRA 010345Z 00000KT 8000 FEW030 SCT080 09/07 Q1018=
200903010315 METAR LIRA 010315Z 12002KT 8000 FEW080 10/08 Q1018=
200903010245 METAR LIRA 010245Z 13008KT 8000 FEW080 10/08 Q1018=
200903010215 METAR LIRA 010215Z 07007KT 8000 FEW080 10/07 Q1018=
200903010145 METAR LIRA 010145Z 14003KT 8000 FEW080 10/08 Q1019=
200903010115 METAR LIRA 010115Z 24004KT 8000 FEW080 10/08 Q1019=
200903010045 METAR LIRA 010045Z 09003KT 8000 FEW080 10/09 Q1019=
200903010015 METAR LIRA 010015Z 13006KT 8000 FEW080 10/07 Q1019=
200902282345 METAR LIRA 282345Z 13007KT 8000 FEW080 09/07 Q1019=
200902282315 METAR LIRA 282315Z 13007KT 8000 FEW080 09/07 Q1019=
200902282245 METAR LIRA 282245Z 00000KT 8000 FEW080 09/08 Q1019=
200902282215 METAR LIRA 282215Z 10003KT 8000 FEW080 09/08 Q1019=
200902282145 METAR LIRA 282145Z 12004KT 8000 NSC 09/08 Q1019=
200902282115 METAR LIRA 282115Z 12007KT 8000 NSC 10/08 Q1019=
200902282045 METAR LIRA 282045Z 17003KT 8000 NSC 10/09 Q1019=
200902282015 METAR LIRA 282015Z 17004KT 8000 NSC 10/08 Q1019=
200902281945 METAR LIRA 281945Z 18004KT 8000 NSC 11/09 Q1019=
200902281915 METAR LIRA 281915Z 16002KT 8000 NSC 11/09 Q1019=
200902281845 METAR LIRA 281845Z 15009KT 100V170 CAVOK 11/09 Q1019=
200902281815 METAR LIRA 281815Z 16007KT 130V210 CAVOK 12/09 Q1019=
200902281745 METAR LIRA 281745Z 20006KT 160V240 CAVOK 12/09 Q1019=
200902281715 METAR LIRA 281715Z 20006KT 170V230 CAVOK 12/09 Q1019=
200902281645 METAR LIRA 281645Z 23006KT CAVOK 14/09 Q1019=
200902281615 METAR LIRA 281615Z 23008KT 190V250 CAVOK 15/09 Q1019=
200902281545 METAR LIRA 281545Z 22007KT 170V250 CAVOK 16/07 Q1019=
200902281515 METAR LIRA 281515Z 20008KT 150V250 CAVOK 16/08 Q1019=
200902281445 METAR LIRA 281445Z 21006KT 160V240 CAVOK 16/06 Q1019=
200902281415 METAR LIRA 281415Z 22006KT 130V270 9999 FEW018 16/04 Q1019=
200902281345 METAR LIRA 281345Z 16008KT 120V230 9999 FEW018 16/05 Q1020=
200902281315 METAR LIRA 281315Z 17006KT 140V220 9999 FEW018 16/06 Q1020=
200902281245 METAR LIRA 281245Z 19004KT 160V230 9999 FEW018 15/07 Q1020=
200902281215 METAR LIRA 281215Z 21004KT 150V270 9999 FEW018 15/07 Q1020=
200902281145 METAR LIRA 281145Z 18004KT 9999 FEW018 15/06 Q1021=
200902281115 METAR LIRA 281115Z 20005KT 130V240 9999 FEW018 15/07 Q1021=
200902281045 METAR LIRA 281045Z 21006KT 130V260 9000 FEW018 15/07 Q1021=
200902281015 METAR LIRA 281015Z 21005KT 160V260 8000 FEW018 14/08 Q1021=
200902280945 METAR LIRA 280945Z 20005KT 160V260 7000 FEW018 12/08 Q1021=
200902280915 METAR LIRA 280915Z 00000KT 6000 NSC 10/07 Q1021=
200902280845 METAR LIRA 280845Z 00000KT 6000 NSC 09/07 Q1021=
200902280815 METAR LIRA 280815Z 00000KT 6000 NSC 07/06 Q1021=
200902280745 METAR LIRA 280745Z 00000KT 6000 NSC 05/05 Q1020=
200902280715 METAR LIRA 280715Z 00000KT 6000 NSC 05/04 Q1020=
200902280645 METAR LIRA 280645Z 00000KT 6000 NSC 04/04 Q1020=
200902280615 METAR LIRA 280615Z 05003KT 7000 NSC 04/03 Q1019=
200902280545 METAR LIRA 280545Z 00000KT 7000 NSC 04/03 Q1019=
200902280515 METAR LIRA 280515Z 00000KT CAVOK 05/04 Q1019=
200902280445 METAR LIRA 280445Z 00000KT CAVOK 04/03 Q1019=
200902280415 METAR LIRA 280415Z 10004KT CAVOK 04/03 Q1019=
200902280345 METAR LIRA 280345Z 00000KT CAVOK 03/03 Q1019=
200902280315 METAR LIRA 280315Z 04004KT CAVOK 04/03 Q1019=
200902280245 METAR LIRA 280245Z 00000KT CAVOK 04/04 Q1019=
200902280215 METAR LIRA 280215Z 09002KT CAVOK 05/04 Q1019=
200902280145 METAR LIRA 280145Z 07003KT CAVOK 05/04 Q1019=
200902280115 METAR LIRA 280115Z 22001KT CAVOK 05/04 Q1019=
200902280045 METAR LIRA 280045Z 00000KT CAVOK 06/04 Q1019=
200902280015 METAR LIRA 280015Z 15002KT CAVOK 07/05 Q1018=
200902272345 METAR LIRA 272345Z 14003KT CAVOK 06/04 Q1018=
200902272315 METAR LIRA 272315Z 09003KT CAVOK 07/05 Q1018=
200902272245 METAR LIRA 272245Z 14002KT CAVOK 08/06 Q1018=
200902272215 METAR LIRA 272215Z 15002KT CAVOK 08/06 Q1018=
200902272145 METAR LIRA 272145Z 16002KT CAVOK 07/05 Q1018=
200902272115 METAR LIRA 272115Z 10004KT 9999 FEW070 08/06 Q1018=
200902272045 METAR LIRA 272045Z 14003KT 9999 FEW070 08/07 Q1018=
200902272015 METAR LIRA 272015Z 11004KT 9999 FEW070 09/07 Q1018=
200902271945 METAR LIRA 271945Z 10003KT 9999 FEW018 09/07 Q1017=
200902271915 METAR LIRA 271915Z 14002KT 9999 FEW018 09/07 Q1017=
200902271845 METAR LIRA 271845Z 15003KT 9999 FEW018 10/07 Q1016=
200902271815 METAR LIRA 271815Z 22002KT 9999 FEW018 SCT200 10/07 Q1016=
200902271745 METAR LIRA 271745Z 19003KT 9999 FEW018 SCT200 11/07 Q1016=
200902271715 METAR LIRA 271715Z 18002KT 9999 FEW018 BKN200 12/07 Q1015=
200902271645 METAR LIRA 271645Z 26004KT 9999 FEW018 BKN200 12/07 Q1015=
200902271615 METAR LIRA 271615Z 25004KT 200V300 9999 FEW018 BKN200 13/07
                        Q1015=
200902271545 METAR LIRA 271545Z 25005KT 210V310 9999 FEW018 BKN200 13/07
                        Q1015=
200902271515 METAR LIRA 271515Z 26006KT 200V300 9999 FEW018 SCT200 13/07
                        Q1015=
200902271445 METAR LIRA 271445Z 26009KT 200V310 9999 SCT017 13/06 Q1014=
200902271415 METAR LIRA 271415Z 27007KT 220V310 9999 SCT017 14/04 Q1014=
200902271345 METAR LIRA 271345Z 27007KT 9999 BKN017 14/04 Q1014=
200902271315 METAR LIRA 271315Z 24007KT 200V330 9999 SCT017 14/04 Q1015=
200902271245 METAR LIRA 271245Z 25005KT 210V330 9999 SCT017 14/03 Q1015=
200902271215 METAR LIRA 271215Z 27005KT 9999 SCT017 13/05 Q1015=
200902271145 METAR LIRA 271145Z 27005KT 9999 SCT017 13/05 Q1016=
200902271115 METAR LIRA 271115Z 04001KT 9999 FEW017 13/05 Q1016=
200902271045 METAR LIRA 271045Z 32003KT 9999 FEW017 13/06 Q1016=
200902271015 METAR LIRA 271015Z 33005KT 9999 FEW017 SCT070 13/05 Q1016=
200902270945 METAR LIRA 270945Z 34003KT 9999 FEW017 SCT200 11/06 Q1016=
200902270915 METAR LIRA 270915Z 05005KT 9999 FEW030 SCT200 10/06 Q1016=
200902270845 METAR LIRA 270845Z 04002KT 9999 FEW030 SCT200 09/07 Q1016=
200902270815 METAR LIRA 270815Z 06002KT 8000 FEW030 SCT200 06/05 Q1016=
200902270745 METAR LIRA 270745Z 09001KT 8000 FEW080 SCT200 05/04 Q1016=
200902270715 METAR LIRA 270715Z 00000KT 8000 FEW080 SCT200 05/04 Q1016=
200902270645 METAR LIRA 270645Z 03002KT 8000 FEW030 SCT200 04/03 Q1016=
200902270615 METAR LIRA 270615Z 00000KT 8000 FEW030 SCT080 04/03 Q1016=
200902270545 METAR LIRA 270545Z 10002KT 8000 FEW080 03/03 Q1016=
200902270515 METAR LIRA 270515Z 08003KT 9999 FEW030 SCT070 03/02 Q1016=
200902270445 METAR LIRA 270445Z 03003KT 9999 FEW030 SCT070 03/02 Q1016=
200902270415 METAR LIRA 270415Z 06002KT 9999 FEW030 03/02 Q1016=
200902270345 METAR LIRA 270345Z 06003KT 9999 FEW030 03/02 Q1016=
200902270315 METAR LIRA 270315Z 00000KT 9999 FEW070 04/02 Q1017=
200902270245 METAR LIRA 270245Z 00000KT 9999 FEW030 SCT070 05/03 Q1017=
200902270215 METAR LIRA 270215Z 13002KT 9999 FEW030 SCT070 05/04 Q1018=
200902270145 METAR LIRA 270145Z 10002KT 9999 FEW030 SCT070 06/05 Q1018=
200902270115 METAR LIRA 270115Z 00000KT 9999 FEW003 SCT070 06/05 Q1018=
200902270045 METAR LIRA 270045Z 00000KT 9999 FEW030 SCT070 05/04 Q1018=
200902270015 METAR LIRA 270015Z 16003KT 9999 FEW070 SCT200 05/04 Q1018=
200902262345 METAR LIRA 262345Z 00000KT CAVOK 05/04 Q1019=
200902262315 METAR LIRA 262315Z 19001KT CAVOK 06/05 Q1019=
200902262245 METAR LIRA 262245Z 15002KT CAVOK 06/05 Q1019=
200902262215 METAR LIRA 262215Z 15002KT CAVOK 06/04 Q1019=
200902262145 METAR LIRA 262145Z 14003KT CAVOK 06/04 Q1019=
200902262115 METAR LIRA 262115Z 17003KT CAVOK 07/05 Q1020=
200902262045 METAR LIRA 262045Z 17002KT CAVOK 07/05 Q1020=
200902262015 METAR LIRA 262015Z 16003KT CAVOK 07/05 Q1020=
200902261945 METAR LIRA 261945Z 16003KT CAVOK 07/05 Q1020=
200902261915 METAR LIRA 261915Z 16002KT CAVOK 08/04 Q1020=
200902261845 METAR LIRA 261845Z 16004KT CAVOK 08/05 Q1020=
200902261815 METAR LIRA 261815Z 21002KT CAVOK 09/05 Q1020=
200902261745 METAR LIRA 261745Z 27004KT 240V310 CAVOK 10/05 Q1020=
200902261715 METAR LIRA 261715Z 27006KT CAVOK 11/02 Q1020=
200902261645 METAR LIRA 261645Z 28009KT 230V350 CAVOK 12/03 Q1020=
200902261615 METAR LIRA 261615Z 26005KT 220V310 CAVOK 12/03 Q1020=
200902261545 METAR LIRA 261545Z 26009KT 240V300 CAVOK 12/02 Q1020=
200902261515 METAR LIRA 261515Z 26008KT 180V300 CAVOK 12/01 Q1020=
200902261445 METAR LIRA 261445Z 27009KT 230V300 CAVOK 13/M02 Q1021=
200902261415 METAR LIRA 261415Z 28008KT 230V330 CAVOK 12/M04 Q1021=
200902261345 METAR LIRA 261345Z 31004KT 260V030 CAVOK 12/M03 Q1021=
200902261315 METAR LIRA 261315Z 33009KT 260V070 CAVOK 11/M04 Q1021=
200902261245 METAR LIRA 261245Z 29006KT 220V070 CAVOK 11/M04 Q1022=
200902261215 METAR LIRA 261215Z 33003KT 280V360 CAVOK 10/M04 Q1023=
200902261145 METAR LIRA 261145Z 34006KT 320V020 CAVOK 09/M02 Q1024=
200902261115 METAR LIRA 261115Z 32004KT 330V040 CAVOK 09/M02 Q1024=
200902261045 METAR LIRA 261045Z 36006KT 320V070 CAVOK 08/M01 Q1024=
200902261015 METAR LIRA 261015Z 02006KT 320V080 CAVOK 07/M01 Q1024=
200902260945 METAR LIRA 260945Z 02005KT 320V070 CAVOK 06/M02 Q1024=
200902260915 METAR LIRA 260915Z 03004KT 330V080 CAVOK 05/M02 Q1024=
200902260845 METAR LIRA 260845Z 01005KT 340V090 CAVOK 04/M01 Q1024=
200902260815 METAR LIRA 260815Z 04005KT CAVOK 03/M01 Q1024=
200902260745 METAR LIRA 260745Z 02005KT 340V080 CAVOK 01/M02 Q1024=
200902260715 METAR LIRA 260715Z 03005KT CAVOK 01/M02 Q1024=
200902260645 METAR LIRA 260645Z 06005KT CAVOK 01/M02 Q1024=
200902260615 METAR LIRA 260615Z 03004KT CAVOK 00/M04 Q1024=
200902260545 METAR LIRA 260545Z 01005KT 330V040 CAVOK 00/M04 Q1024=
200902260515 METAR LIRA 260515Z 01006KT 350V060 CAVOK 00/M04 Q1024=
200902260445 METAR LIRA 260445Z 06008KT 020V080 CAVOK 00/M02 Q1024=
200902260415 METAR LIRA 260415Z 06008KT CAVOK 00/M02 Q1024=
200902260345 METAR LIRA 260345Z 02005KT CAVOK 00/M02 Q1024=
200902260315 METAR LIRA 260315Z 04002KT CAVOK 01/M03 Q1024=
200902260245 METAR LIRA 260245Z 04004KT CAVOK 01/M02 Q1024=
200902260215 METAR LIRA 260215Z 03004KT CAVOK 01/M02 Q1024=
200902260145 METAR LIRA 260145Z 05006KT CAVOK 02/M02 Q1024=
200902260115 METAR LIRA 260115Z 03004KT CAVOK 02/M02 Q1024=
200902260045 METAR LIRA 260045Z 06003KT CAVOK 02/M01 Q1024=
200902260015 METAR LIRA 260015Z 03004KT CAVOK 03/M01 Q1024=
200902252350 METAR LIRA 260045Z 06003KT CAVOK 02/M01 Q1024=
200902252345 METAR LIRA 252345Z 01003KT CAVOK 03/M01 Q1024=
200902252315 METAR LIRA 252315Z 04004KT CAVOK 03/M01 Q1024=
200902252245 METAR LIRA 252245Z 02005KT CAVOK 04/M01 Q1024=
200902252215 METAR LIRA 252215Z 04003KT CAVOK 04/M01 Q1024=
200902252145 METAR LIRA 252145Z 03005KT CAVOK 05/M01 Q1024=
200902252115 METAR LIRA 252115Z 04005KT CAVOK 06/M01 Q1024=
200902252045 METAR LIRA 252045Z 35007KT 300V040 CAVOK 06/M02 Q1024=
200902252015 METAR LIRA 252015Z 35010KT 300V020 CAVOK 06/M02 Q1024=
200902251945 METAR LIRA 251945Z 34006KT 300V030 CAVOK 07/M03 Q1023=
200902251915 METAR LIRA 251915Z 35007KT 300V010 CAVOK 07/M04 Q1023=
200902251845 METAR LIRA 251845Z 33007KT CAVOK 08/M05 Q1023=
200902251815 METAR LIRA 251815Z 36006KT 310V050 9999 FEW080 08/M05 Q1022=
200902251745 METAR LIRA 251745Z 34004KT 9999 FEW030 09/M05 Q1022=
200902251715 METAR LIRA 251715Z 02003KT 9999 FEW030 10/M07 Q1022=
200902251645 METAR LIRA 251645Z 01005KT 310V060 9999 FEW020 10/M01 Q1022=
200902251615 METAR LIRA 251615Z 36008KT 320V040 9999 FEW020 11/M01 Q1022=
200902251545 METAR LIRA 251545Z 36006KT 320V060 9999 SCT030 12/M01 Q1021=
200902251515 METAR LIRA 251515Z 36010KT 300V040 9999 SCT030 12/M01 Q1021=
200902251445 METAR LIRA 251445Z 34010KT 300V030 9999 SCT030 12/M01 Q1021=
200902251415 METAR LIRA 251415Z 35011KT 310V030 9999 FEW020 SCT030 13/M01
                        Q1021=
200902251345 METAR LIRA 251345Z 36013KT 320V060 9999 FEW020 SCT030 12/M01
                        Q1021=
200902251315 METAR LIRA 251315Z 36012KT 290V030 9999 FEW020 SCT030 13/M02
                        Q1021=
200902251245 METAR LIRA 251245Z 31010KT 9999 FEW020 SCT030 12/M02 Q1021=
200902251215 METAR LIRA 251215Z 34007G21KT 300V010 9999 FEW020 12/M04
                        Q1021=
200902251145 METAR LIRA 251145Z 01008G18KT 300V120 9999 FEW020 12/M01
                        Q1021=
200902251115 METAR LIRA 251115Z 33013KT 270V010 9999 FEW020 SCT030 11/M00
                        Q1021=
200902251045 METAR LIRA 251045Z 01005KT 310V070 9999 SCT030 11/04 Q1021=
200902251015 METAR LIRA 251015Z 02004KT 300V050 9999 SCT030 10/03 Q1021=
200902250945 METAR LIRA 250945Z 04006KT 330V070 9999 SCT030 08/03 Q1021=
200902250915 METAR LIRA 250915Z 03006KT 340V080 9999 FEW030 07/02 Q1021=
200902250845 METAR LIRA 250845Z 01005KT 330V070 9999 FEW030 06/01 Q1021=
200902250815 METAR LIRA 250815Z 02006KT 330V020 9999 FEW030 05/01 Q1021=
200902250745 METAR LIRA 250745Z 36007KT 310V070 9999 FEW030 04/M00 Q1020=
200902250715 METAR LIRA 250715Z 02008KT 340V060 9999 FEW020 03/M00 Q1020=
200902250645 METAR LIRA 250645Z 03006KT 340V080 9999 FEW020 03/01 Q1019=
200902250615 METAR LIRA 250615Z 03006KT 340V060 9999 FEW030 02/M00 Q1019=
200902250545 METAR LIRA 250545Z 04007KT 9999 FEW030 02/M01 Q1018=
200902250515 METAR LIRA 250515Z 04005KT 9999 FEW030 SCT070 02/00 Q1018=
200902250445 METAR LIRA 250445Z 01006KT 330V080 9999 FEW030 SCT070 03/00
                        Q1018=
200902250415 METAR LIRA 250415Z 02004KT 9999 FEW030 SCT070 03/01 Q1018=
200902250345 METAR LIRA 250345Z 03005KT 350V070 9999 FEW030 SCT070 03/02
                        Q1018=
200902250315 METAR LIRA 250315Z 04003KT 9999 FEW030 03/02 Q1018=
200902250245 METAR LIRA 250245Z 07003KT 9999 FEW070 04/03 Q1018=
200902250215 METAR LIRA 250215Z 03005KT 9999 SCT070 04/03 Q1018=
200902250145 METAR LIRA 250145Z 01003KT 8000 FEW070 04/03 Q1018=
200902250115 METAR LIRA 250115Z 06003KT 8000 FEW080 04/04 Q1018=
200902250045 METAR LIRA 250045Z 03003KT 8000 FEW080 05/05 Q1018=
200902250015 METAR LIRA 250015Z 36004KT 8000 FEW070 05/04 Q1018=
200902242345 METAR LIRA 242345Z 36003KT 9000 FEW030 05/05 Q1018=
200902242315 METAR LIRA 242315Z 02003KT 9000 FEW030 SCT070 05/05 Q1018=
200902242245 METAR LIRA 242245Z 06003KT 8000 FEW030 SCT080 05/05 Q1017=
200902242215 METAR LIRA 242215Z 05004KT 8000 FEW030 SCT080 05/05 Q1017=
200902242145 METAR LIRA 242145Z 04005KT 8000 FEW030 SCT080 05/05 Q1017=
200902242115 METAR LIRA 242115Z 05003KT 8000 FEW080 06/05 Q1016=
200902242045 METAR LIRA 242045Z 06001KT 8000 FEW080 06/05 Q1016=
200902242015 METAR LIRA 242015Z 03002KT 9999 FEW020TCU SCT080 06/05 Q1016=
200902241945 METAR LIRA 241945Z 02002KT 9999 FEW018TCU SCT080 06/05 Q1016=
200902241915 METAR LIRA 241915Z 14002KT 9999 FEW018TCU SCT070 06/05 Q1016=
200902241845 METAR LIRA 241845Z 00000KT 9999 FEW018TCU SCT070 07/05 Q1015=
200902241815 METAR LIRA 241815Z 22002KT 9999 FEW018TCU SCT070 07/06 Q1015=
200902241745 METAR LIRA 241745Z 28003KT 9999 -RA FEW017CB SCT020 07/05
                        Q1015=
200902241715 METAR LIRA 241715Z 25002KT 9999 FEW017CB SCT020 BKN070 07/05
                        Q1014=
200902241645 METAR LIRA 241645Z 17005KT 8000 -SHRA FEW010 FEW017CB SCT018
                        08/05 Q1013=
200902241615 METAR LIRA 241615Z 34005G15KT 300V080 7000 -SHRA FEW016 FEW017CB
                        SCT018 08/05 Q1013=
200902241545 METAR LIRA 241545Z 18003KT 9000 -SHRA FEW016 SCT018 FEW020CB
                        09/04 Q1013=
200902241515 METAR LIRA 241515Z 12001KT 9000 -SHRA FEW016 SCT018 FEW020CB
                        09/05 Q1013=
200902241445 METAR LIRA 241445Z 17004KT 9000 FEW013 SCT018 FEW020CB 10/03
                        Q1013=
200902241415 METAR LIRA 241415Z 22003KT 150V270 7000 -SHRA FEW013 SCT018
                        FEW020CB 11/04 Q1013=
200902241345 METAR LIRA 241345Z 16004KT 130V220 9999 SCT018 FEW020CB SCT070
                        11/04 Q1012=
200902241315 METAR LIRA 241315Z 21006KT 180V310 9999 SCT018 FEW020CB SCT060
                        10/04 Q1012=
200902241245 METAR LIRA 241245Z 32004KT 9999 BKN018 SCT070 10/04 Q1012=
200902241215 METAR LIRA 241215Z 20005KT 9999 SCT018 SCT070 09/03 Q1012=
200902241145 METAR LIRA 241145Z 27001KT 9999 FEW018 SCT070 09/04 Q1012=
200902241115 METAR LIRA 241115Z 21002KT 9999 FEW018 SCT070 09/04 Q1012=
200902241045 METAR LIRA 241045Z 32004KT 9999 SCT018 SCT200 09/04 Q1012=
200902241015 METAR LIRA 241015Z 34002KT 9999 SCT018 SCT070 08/04 Q1012=
200902240945 METAR LIRA 240945Z 06040KT 9999 SCT013 SCT023 08/05 Q1012=
200902240915 METAR LIRA 240915Z 02004KT 320V100 9999 FEW013 SCT023 07/05
                        Q1012=
200902240845 METAR LIRA 240845Z 02006KT 9999 FEW013 SCT023 07/04 Q1012=
200902240815 METAR LIRA 240815Z 02006KT 340V080 9999 FEW015 SCT027 06/04
                        Q1011=
200902240745 METAR LIRA 240745Z 05008KT 010V100 9999 FEW015 SCT027 BKN070
                        06/04 Q1011=
200902240715 METAR LIRA 240715Z 05004KT 9999 FEW015 SCT027 06/04 Q1011=
200902240645 METAR LIRA 240645Z 02004KT 9999 FEW015 SCT027 06/03 Q1011=
200902240615 METAR LIRA 240615Z 06005KT 010V120 9999 FEW015 SCT027 BKN070
                        05/04 Q1011=
200902240545 METAR LIRA 240545Z 09004KT 8000 -RA SCT015 BKN027 05/05 Q1011=
200902240515 METAR LIRA 240515Z 03003KT 7000 -RA SCT015 BKN027 05/05 Q1011=
200902240445 METAR LIRA 240445Z 00000KT 7000 -RA SCT015 BKN027 05/04 Q1011=
200902240415 METAR LIRA 240415Z 33001KT 4000 -RA BR SCT005 BKN022 05/04
                        Q1011=
200902240345 METAR LIRA 240345Z 35001KT 4000 -RA BR SCT005 BKN022 05/04
                        Q1011=
200902240315 METAR LIRA 240315Z 04004KT 4000 -RA BR SCT005 BKN022 05/04
                        Q1011=
200902240245 METAR LIRA 240245Z 05002KT 4000 -RA BR SCT005 BKN022 06/05
                        Q1011=
200902240215 METAR LIRA 240215Z 08002KT 4000 -RA BR SCT005 BKN022 06/05
                        Q1011=
200902240145 METAR LIRA 240145Z 07004KT 4000 -RA BR SCT005 BKN022 06/06
                        Q1011=
200902240115 METAR LIRA 240115Z 08004KT 4000 -RA BR SCT005 BKN022 06/06
                        Q1012=
200902240045 METAR LIRA 240045Z 00000KT 4000 -RA BR SCT005 BKN022 06/06
                        Q1012=
200902240015 METAR LIRA 240015Z 00000KT 4000 -RA BR SCT005 BKN022 07/07
                        Q1012=
200902232345 METAR LIRA 232345Z 00000KT 4000 -RA BR SCT005 BKN022 07/07
                        Q1012=
200902232315 METAR LIRA 232315Z 00000KT 4000 -RA BR SCT005 BKN022 07/06
                        Q1012=
200902232245 METAR LIRA 232245Z 29001KT 5000 -RA BR SCT007 SCT025 BKN070
                        07/06 Q1012=
200902232215 METAR LIRA 232215Z 29003KT 6000 -RA SCT008 SCT025 BKN070
                        07/06 Q1012=
200902232145 METAR LIRA 232145Z 24003KT 6000 -RA FEW015 BKN070 07/06 Q1011=
200902232115 METAR LIRA 232115Z 10004KT 9999 FEW017 BKN070 07/06 Q1011=
200902232045 METAR LIRA 232045Z 35001KT 9999 FEW017 BKN070 07/06 Q1011=
200902232015 METAR LIRA 232015Z 06003KT 9999 FEW017 SCT070 07/07 Q1011=
200902231945 METAR LIRA 231945Z 05006KT 350V090 9999 FEW017 SCT070 08/07
                        Q1011 RETS=
200902231915 METAR LIRA 231915Z 14009KT 090V160 9999 FEW012 FEW018CB SCT070
                        09/07 Q1011 RETS=
200902231845 METAR LIRA 231845Z 13010KT 090V160 8000 -TSRA SCT010 FEW018CB
                        BKN070 09/06 Q1011=
200902231815 METAR LIRA 231815Z 21004KT 090V260 5000 -TSRA SCT007 FEW018CB
                        BKN070 10/07 Q1011=
200902231745 METAR LIRA 231745Z 19005KT 150V220 9999 -TSRA FEW018 FEW020CB
                        SCT070 10/06 Q1011=
200902231715 METAR LIRA 231715Z 17006KT 9999 TS FEW018 FEW020CB SCT070
                        11/06 Q1010=
200902231645 METAR LIRA 231645Z 18006KT 9999 FEW018 FEW020TCU SCT070 BKN200
                        11/05 Q1010=
200902231615 METAR LIRA 231615Z 18007KT 150V260 9999 FEW018 FEW020TCU
                        SCT080 BKN200 11/05 Q1010=
200902231545 METAR LIRA 231545Z 19008KT 150V270 9999 FEW018 FEW020TCU
                        SCT080 BKN200 12/05 Q1010=
200902231515 METAR LIRA 231515Z 19008KT 140V240 9999 SCT020 SCT080 BKN200
                        12/05 Q1010=
200902231445 METAR LIRA 231445Z 18008KT 150V260 9999 FEW020 BKN200 12/05
                        Q1010=
200902231415 METAR LIRA 231415Z 19007KT 150V240 9999 FEW020 BKN200 12/05
                        Q1010=
200902231345 METAR LIRA 231345Z 19006KT 150V260 9999 SCT020 BKN200 13/05
                        Q1011=
200902231315 METAR LIRA 231315Z 19007KT 150V260 9999 SCT020 BKN200 13/05
                        Q1011=
200902231245 METAR LIRA 231245Z 20003KT 160V270 9999 SCT020 BKN200 14/04
                        Q1011=
200902231215 METAR LIRA 231215Z 21004KT 9999 SCT020 BKN200 14/04 Q1012=
200902231145 METAR LIRA 231145Z 22003KT 9999 FEW020 BKN200 13/04 Q1012=
200902231115 METAR LIRA 231115Z 23003KT 9000 FEW020 BKN200 11/04 Q1012=
200902231045 METAR LIRA 231045Z 32003KT 8000 FEW020 BKN200 11/04 Q1013=
200902231015 METAR LIRA 231015Z 32003KT 8000 FEW020 BKN200 10/03 Q1013=
200902230945 METAR LIRA 230945Z 31001KT 7000 FEW020 08/03 Q1013=
200902230915 METAR LIRA 230915Z 34003KT 7000 FEW020 08/03 Q1013=
200902230845 METAR LIRA 230845Z 01003KT 7000 FEW020 05/01 Q1013=
200902230815 METAR LIRA 230815Z 36005KT 8000 FEW020 04/02 Q1013=
200902230745 METAR LIRA 230745Z 03004KT 8000 NSC 03/01 Q1013=
200902230715 METAR LIRA 230715Z 08002KT CAVOK 02/00 Q1013=
200902230645 METAR LIRA 230645Z 04001KT CAVOK 01/00 Q1013=
200902230615 METAR LIRA 230615Z 01003KT CAVOK 01/01 Q1013=
200902230545 METAR LIRA 230545Z 04002KT CAVOK 01/01 Q1013=
200902230515 METAR LIRA 230515Z 06003KT CAVOK 01/01 Q1013=
200902230445 METAR LIRA 230445Z 02002KT CAVOK 02/02 Q1013=
200902230415 METAR LIRA 230415Z 05002KT CAVOK 02/02 Q1014=
200902230345 METAR LIRA 230345Z 28002KT CAVOK 03/01 Q1014=
200902230315 METAR LIRA 230315Z 11003KT CAVOK 03/02 Q1014=
200902230245 METAR LIRA 230245Z 09002KT CAVOK 03/02 Q1014=
200902230215 METAR LIRA 230215Z 06003KT 9999 SCT070 03/02 Q1015=
200902230145 METAR LIRA 230145Z 10002KT 9999 SCT070 03/02 Q1015=
200902230115 METAR LIRA 230115Z 09002KT 9999 FEW070 04/02 Q1015=
200902230045 METAR LIRA 230045Z 08002KT 9999 FEW070 04/02 Q1015=
200902230015 METAR LIRA 230015Z 14004KT 9999 FEW070 04/02 Q1015=
200902222350 METAR LIRA 230045Z 08002KT 9999 FEW070 04/02 Q1015=
200902222345 METAR LIRA 222345Z 17004KT 9999 FEW070 04/02 Q1015=
200902222315 METAR LIRA 222315Z 16003KT 9999 FEW070 05/03 Q1016=
200902222245 METAR LIRA 222245Z 11002KT 9999 FEW070 04/03 Q1016=
200902222215 METAR LIRA 222215Z 16001KT 9999 FEW070 05/04 Q1016=
200902222145 METAR LIRA 222145Z 16001KT CAVOK 05/03 Q1016=
200902222115 METAR LIRA 222115Z 14002KT CAVOK 05/04 Q1016=
200902222045 METAR LIRA 222045Z 16003KT CAVOK 07/05 Q1016=
200902222015 METAR LIRA 222015Z 16003KT CAVOK 07/05 Q1016=
200902221945 METAR LIRA 221945Z 12003KT 9999 FEW070 08/05 Q1016=
200902221915 METAR LIRA 221915Z 14001KT 9999 FEW030 08/05 Q1016=
200902221845 METAR LIRA 221845Z 30003KT 9999 FEW030 SCT070 08/06 Q1016=
200902221815 METAR LIRA 221815Z 28003KT 9999 FEW070 10/07 Q1016=
200902221745 METAR LIRA 221745Z 27003KT 9999 FEW070 11/07 Q1016=
200902221715 METAR LIRA 221715Z 26005KT 220V300 9999 FEW025 SCT070 11/06
                        Q1016=
200902221645 METAR LIRA 221645Z 27005KT 230V330 9999 FEW025 SCT070 12/03
                        Q1017=
200902221615 METAR LIRA 221615Z 27006KT 240V310 9999 FEW025 SCT070 13/03
                        Q1017=
200902221545 METAR LIRA 221545Z 26007KT 230V330 9999 FEW020 SCT070 13/M01
                        Q1017=
200902221515 METAR LIRA 221515Z 27006KT 240V340 9999 FEW020 SCT080 13/M03
                        Q1018=
200902221445 METAR LIRA 221445Z 27009KT 220V310 9999 FEW020 SCT080 13/M03
                        Q1018=
200902221415 METAR LIRA 221415Z 26007KT 210V310 9999 FEW020 SCT200 13/M02
                        Q1018=
200902221345 METAR LIRA 221345Z 30005KT 250V340 9999 FEW020 SCT200 12/M01
                        Q1018=
200902221315 METAR LIRA 221315Z 33007KT 280V040 9999 FEW022 SCT200 12/M01
                        Q1019=
200902221245 METAR LIRA 221245Z 32003KT 280V030 9999 FEW022 SCT200 11/00
                        Q1019=
200902221215 METAR LIRA 221215Z 35006KT 280V030 9999 FEW022 SCT200 11/01
                        Q1019=
200902221145 METAR LIRA 221145Z 34006KT 280V040 9999 FEW022 SCT200 10/02
                        Q1020=
200902221115 METAR LIRA 221115Z 33003KT 9999 FEW022 SCT200 09/02 Q1020=
200902221045 METAR LIRA 221045Z 33003KT 9999 FEW022 SCT200 08/02 Q1021=
200902221015 METAR LIRA 221015Z 34006KT 9999 FEW022 SCT200 07/02 Q1021=
200902220945 METAR LIRA 220945Z 36005KT 9999 FEW080 SCT200 05/M01 Q1021=
200902220915 METAR LIRA 220915Z 01003KT 9999 FEW080 SCT200 04/01 Q1021=
200902220845 METAR LIRA 220845Z 02004KT 9999 FEW080 BKN200 03/M00 Q1021=
200902220815 METAR LIRA 220815Z 03005KT 9999 FEW080 BKN200 02/M00 Q1021=
200902220745 METAR LIRA 220745Z 03003KT 9999 FEW040 BKN200 01/M01 Q1021=
200902220715 METAR LIRA 220715Z 04004KT 9999 FEW080 BKN200 01/M01 Q1021=
200902220645 METAR LIRA 220645Z 04003KT CAVOK 00/M01 Q1021=
200902220615 METAR LIRA 220615Z 05005KT CAVOK 00/M01 Q1021=
200902220545 METAR LIRA 220545Z 03002KT CAVOK 01/M01 Q1021=
200902220515 METAR LIRA 220515Z 06002KT CAVOK 01/M01 Q1021=
200902220445 METAR LIRA 220445Z 04003KT CAVOK 01/M01 Q1021=
200902220415 METAR LIRA 220415Z 03002KT CAVOK 01/M01 Q1021=
200902220345 METAR LIRA 220345Z 05003KT CAVOK 01/M01 Q1021=
200902220315 METAR LIRA 220315Z 06003KT CAVOK 01/M01 Q1022=
200902220245 METAR LIRA 220245Z 04001KT CAVOK 01/M01 Q1022=
200902220215 METAR LIRA 220215Z 00000KT CAVOK 01/M01 Q1022=
200902220145 METAR LIRA 220145Z 13002KT CAVOK 02/M00 Q1022=
200902220115 METAR LIRA 220115Z 01002KT CAVOK 02/M00 Q1022=
200902220045 METAR LIRA 220045Z 00000KT 9999 FEW070 02/M01 Q1023=
200902220015 METAR LIRA 220015Z 06001KT 9999 FEW070 03/M01 Q1023=
200902212345 METAR LIRA 212345Z 03003KT 9999 FEW070 03/M00 Q1023=
200902212315 METAR LIRA 212315Z 09002KT 9999 FEW070 03/00 Q1023=
200902212245 METAR LIRA 212245Z 04003KT 9999 FEW070 03/M00 Q1023=
200902212215 METAR LIRA 212215Z 11003KT 9999 FEW070 05/01 Q1023=
200902212145 METAR LIRA 212145Z 12001KT 9999 FEW070 05/01 Q1023=
200902212115 METAR LIRA 212115Z 14004KT 9999 FEW070 05/01 Q1023=
200902212045 METAR LIRA 212045Z 15004KT 9999 FEW070 05/00 Q1023=
200902212015 METAR LIRA 212015Z 11003KT 9999 FEW070 06/01 Q1023=
200902211945 METAR LIRA 211945Z 15003KT 9999 FEW070 07/01 Q1023=
200902211915 METAR LIRA 211915Z 12003KT 9999 SCT070 07/01 Q1023=
200902211845 METAR LIRA 211845Z 19007KT 9999 SCT070 08/02 Q1023=
200902211815 METAR LIRA 211815Z 19001KT 9999 SCT070 09/02 Q1022=
200902211745 METAR LIRA 211745Z 26002KT 9999 SCT070 09/03 Q1022=
200902211715 METAR LIRA 211715Z 26004KT 9999 FEW020 SCT070 10/03 Q1022=
200902211645 METAR LIRA 211645Z 24003KT 9999 FEW020 SCT070 11/02 Q1022=
200902211615 METAR LIRA 211615Z 23004KT 200V260 9999 FEW020 SCT200 12/03
                        Q1022=
200902211545 METAR LIRA 211545Z 23004KT 9999 FEW020 SCT200 12/03 Q1023=
200902211515 METAR LIRA 211515Z 19006KT 150V240 9999 FEW020 SCT200 12/02
                        Q1023=
200902211445 METAR LIRA 211445Z 24004KT 180V260 9999 FEW020 SCT200 13/03
                        Q1023=
200902211415 METAR LIRA 211415Z 23006KT 170V270 9999 FEW020 SCT200 13/03
                        Q1023=
200902211345 METAR LIRA 211345Z 23006KT 160V270 9999 FEW020 SCT200 12/03
                        Q1023=
200902211315 METAR LIRA 211315Z 23007KT 130V300 9999 FEW020 SCT200 12/03
                        Q1023=
200902211245 METAR LIRA 211245Z 28004KT 210V300 9999 FEW022 SCT200 12/02
                        Q1023=
200902211215 METAR LIRA 211215Z 28004KT 9999 FEW022 SCT200 12/01 Q1024=
200902211145 METAR LIRA 211145Z 29006KT 220V320 9999 FEW022 SCT200 11/02
                        Q1024=
200902211115 METAR LIRA 211115Z 11001KT 9999 FEW022 SCT200 09/00 Q1024=
200902211045 METAR LIRA 211045Z 00000KT 9999 FEW022 SCT200 08/M00 Q1024=
200902211015 METAR LIRA 211015Z 02002KT 9999 FEW022 SCT200 08/M01 Q1024=
200902210945 METAR LIRA 210945Z 04004KT CAVOK 07/M01 Q1024=
200902210915 METAR LIRA 210915Z 34004KT 300V020 CAVOK 06/M01 Q1024=
200902210845 METAR LIRA 210845Z 33002KT CAVOK 05/M01 Q1024=
200902210815 METAR LIRA 210815Z 00000KT CAVOK 01/M02 Q1024=
200902210745 METAR LIRA 210745Z 08003KT CAVOK 00/M03 Q1024=
200902210715 METAR LIRA 210715Z 03001KT CAVOK 00/M04 Q1024=
200902210645 METAR LIRA 210645Z 34002KT CAVOK 00/M03 Q1024=
200902210615 METAR LIRA 210615Z 01001KT CAVOK 00/M03 Q1024=
200902210545 METAR LIRA 210545Z 06003KT CAVOK 01/M03 Q1024=
200902210515 METAR LIRA 210515Z 04002KT CAVOK 01/M03 Q1024=
200902210445 METAR LIRA 210445Z 35001KT CAVOK 01/M03 Q1024=
200902210415 METAR LIRA 210415Z 32003KT CAVOK 01/M03 Q1024=
200902210345 METAR LIRA 210345Z 03001KT CAVOK 01/M03 Q1024=
200902210315 METAR LIRA 210315Z 01001KT CAVOK 01/M03 Q1024=
200902210245 METAR LIRA 210245Z 01003KT CAVOK 01/M04 Q1024=
200902210215 METAR LIRA 210215Z 01002KT CAVOK 02/M04 Q1024=
200902210145 METAR LIRA 210145Z 00000KT CAVOK 02/M04 Q1024=
200902210115 METAR LIRA 210115Z 36001KT CAVOK 02/M04 Q1024=
200902210045 METAR LIRA 210045Z 00000KT CAVOK 02/M04 Q1024=
200902210015 METAR LIRA 210015Z 09001KT CAVOK 03/M04 Q1024=
200902202345 METAR LIRA 202345Z 03006KT CAVOK 02/M04 Q1024=
200902202315 METAR LIRA 202315Z 07002KT CAVOK 03/M05 Q1024=
200902202245 METAR LIRA 202245Z 08004KT CAVOK 03/M05 Q1024=
200902202215 METAR LIRA 202215Z 07004KT CAVOK 03/M05 Q1024=
200902202145 METAR LIRA 202145Z 02004KT CAVOK 04/M06 Q1024=
200902202115 METAR LIRA 202115Z 35003KT CAVOK 05/M06 Q1024=
200902202045 METAR LIRA 202045Z 01001KT CAVOK 05/M07 Q1023=
200902202015 METAR LIRA 202015Z 00000KT CAVOK 05/M07 Q1023=
200902201945 METAR LIRA 201945Z 02002KT CAVOK 05/M07 Q1023=
200902201915 METAR LIRA 201915Z 03004KT CAVOK 06/M08 Q1023=
200902201845 METAR LIRA 201845Z 02002KT CAVOK 06/M08 Q1023=
200902201815 METAR LIRA 201815Z 04002KT CAVOK 07/M07 Q1022=
200902201745 METAR LIRA 201745Z 36005KT CAVOK 08/M07 Q1022=
200902201715 METAR LIRA 201715Z 36005KT CAVOK 09/M07 Q1022=
200902201645 METAR LIRA 201645Z 33009KT 300V020 CAVOK 09/M06 Q1022=
200902201615 METAR LIRA 201615Z 34006KT 290V010 CAVOK 10/M06 Q1022=
200902201545 METAR LIRA 201545Z 33008KT 300V010 CAVOK 10/M06 Q1022=
200902201515 METAR LIRA 201515Z 32007KT 290V020 CAVOK 11/M06 Q1022=
200902201445 METAR LIRA 201445Z 34004KT 300V030 CAVOK 11/M06 Q1022=
200902201415 METAR LIRA 201415Z 32007KT 300V040 CAVOK 10/M06 Q1022=
200902201345 METAR LIRA 201345Z 33008KT 270V020 CAVOK 10/M06 Q1022=
200902201315 METAR LIRA 201315Z 34007KT 300V060 9999 FEW070 10/M06 Q1022=
200902201245 METAR LIRA 201245Z 35009KT 270V050 CAVOK 10/M06 Q1022=
200902201215 METAR LIRA 201215Z 31008KT 300V060 CAVOK 09/M06 Q1023=
200902201145 METAR LIRA 201145Z 36050KT 310V070 CAVOK 08/M07 Q1023=
200902201115 METAR LIRA 201115Z 02008KT 320V070 CAVOK 07/M06 Q1023=
200902201045 METAR LIRA 201045Z 01008KT 300V080 CAVOK 07/M05 Q1023=
200902201015 METAR LIRA 201015Z 03008KT 330V080 CAVOK 05/M04 Q1023=
200902200945 METAR LIRA 200945Z 01008KT 300V070 CAVOK 05/M01 Q1022=
200902200915 METAR LIRA 200915Z 02008KT 320V090 CAVOK 03/M03 Q1022=
200902200845 METAR LIRA 200845Z 04007KT 330V090 CAVOK 02/M05 Q1022=
200902200815 METAR LIRA 200815Z 02006KT 340V090 CAVOK 02/M03 Q1022=
200902200745 METAR LIRA 200745Z 02006KT 330V100 CAVOK 01/M04 Q1022=
200902200715 METAR LIRA 200715Z 05006KT 020V090 CAVOK M00/M05 Q1022=
200902200645 METAR LIRA 200645Z 04003KT 010V080 CAVOK M01/M06 Q1021=
200902200615 METAR LIRA 200615Z 05005KT CAVOK M02/M07 Q1021=
200902200545 METAR LIRA 200545Z 02005KT CAVOK M02/M07 Q1021=
200902200515 METAR LIRA 200515Z 02003KT CAVOK M01/M07 Q1021=
200902200445 METAR LIRA 200445Z 03004KT CAVOK M01/M07 Q1021=
200902200415 METAR LIRA 200415Z 02004KT CAVOK M01/M07 Q1021=
200902200345 METAR LIRA 200345Z 04005KT CAVOK M01/M07 Q1021=
200902200315 METAR LIRA 200315Z 01005KT 340V050 CAVOK M01/M07 Q1021=
200902200245 METAR LIRA 200245Z 01006KT 340V040 CAVOK M00/M08 Q1020=
200902200215 METAR LIRA 200215Z 02005KT 350V050 CAVOK 00/M07 Q1020=
200902200145 METAR LIRA 200145Z 02005KT 340V050 CAVOK 00/M07 Q1020=
200902200115 METAR LIRA 200115Z 02005KT 340V050 CAVOK 00/M08 Q1020=
200902200045 METAR LIRA 200045Z 01006KT 330V080 CAVOK 01/M07 Q1020=
200902200015 METAR LIRA 200015Z 01004KT 340V050 CAVOK 01/M07 Q1019=
200902192345 METAR LIRA 192345Z 02006KT 310V070 CAVOK 01/M07 Q1019=
200902192315 METAR LIRA 192315Z 01007KT 330V040 CAVOK 00/M07 Q1019=
200902192245 METAR LIRA 192245Z 01007KT 330V060 CAVOK 00/M08 Q1019=
200902192215 METAR LIRA 192215Z 01005KT CAVOK 01/M08 Q1019=
200902192145 METAR LIRA 192145Z 02005KT CAVOK 01/M07 Q1019=
200902192115 METAR LIRA 192115Z 01005KT 340V080 CAVOK 01/M08 Q1018=
200902192045 METAR LIRA 192045Z 03005KT 350V060 CAVOK 02/M08 Q1018=
200902192015 METAR LIRA 192015Z 01005KT CAVOK 02/M08 Q1018=
200902191945 METAR LIRA 191945Z 01004KT 310V060 CAVOK 03/M08 Q1018=
200902191915 METAR LIRA 191915Z 03006KT 360V070 CAVOK 03/M09 Q1017=
200902191845 METAR LIRA 191845Z 04006KT 330V080 CAVOK 04/M09 Q1017=
200902191815 METAR LIRA 191815Z 35008KT 310V050 CAVOK 04/M09 Q1017=
200902191745 METAR LIRA 191745Z 34007KT 290V030 CAVOK 05/M09 Q1017=
200902191715 METAR LIRA 191715Z 34009KT 300V020 CAVOK 06/M09 Q1017=
200902191645 METAR LIRA 191645Z 34009KT CAVOK 06/M09 Q1016=
200902191615 METAR LIRA 191615Z 34006KT 310V030 CAVOK 07/M08 Q1016=
200902191545 METAR LIRA 191545Z 34007KT 310V040 CAVOK 08/M08 Q1016=
200902191515 METAR LIRA 191515Z 34011KT 290V040 CAVOK 08/M08 Q1016=
200902191445 METAR LIRA 191445Z 32007KT 280V030 CAVOK 08/M08 Q1016=
200902191415 METAR LIRA 191415Z 34008KT 300V040 CAVOK 08/M07 Q1016=
200902191345 METAR LIRA 191345Z 35008KT 310V040 CAVOK 08/M07 Q1016=
200902191315 METAR LIRA 191315Z 35009KT 300V030 CAVOK 07/M08 Q1016=
200902191245 METAR LIRA 191245Z 34011KT 290V050 CAVOK 07/M07 Q1016=
200902191215 METAR LIRA 191215Z 34008KT 270V030 CAVOK 07/M07 Q1016=
200902191145 METAR LIRA 191145Z 32007KT 270V030 CAVOK 07/M07 Q1016=
200902191115 METAR LIRA 191115Z 35010KT 280V030 CAVOK 06/M07 Q1016=
200902191045 METAR LIRA 191045Z 35011KT 300V030 CAVOK 06/M07 Q1016=
200902191015 METAR LIRA 191015Z 01012KT 310V060 CAVOK 05/M07 Q1016=
200902190945 METAR LIRA 190945Z 35008KT 300V060 CAVOK 05/M06 Q1016=
200902190915 METAR LIRA 190915Z 35011KT 300V040 CAVOK 04/M06 Q1016=
200902190845 METAR LIRA 190845Z 36010KT 300V060 CAVOK 03/M06 Q1017=
200902190815 METAR LIRA 190815Z 01005KT 320V070 CAVOK 02/M05 Q1017=
200902190745 METAR LIRA 190745Z 05004KT CAVOK M01/M06 Q1017=
200902190715 METAR LIRA 190715Z 05005KT CAVOK M01/M06 Q1016=
200902190645 METAR LIRA 190645Z 06002KT CAVOK M02/M06 Q1016=
200902190615 METAR LIRA 190615Z 01003KT CAVOK M02/M06 Q1016=
200902190545 METAR LIRA 190545Z 03005KT 330V060 CAVOK M02/M06 Q1016=
200902190515 METAR LIRA 190515Z 06003KT CAVOK M02/M06 Q1016=
200902190445 METAR LIRA 190445Z 01004KT CAVOK M02/M06 Q1016=
200902190415 METAR LIRA 190415Z 02003KT CAVOK M02/M07 Q1015=
200902190345 METAR LIRA 190345Z 03003KT CAVOK M02/M08 Q1015=
200902190315 METAR LIRA 190315Z 03002KT CAVOK M01/M07 Q1015=
200902190245 METAR LIRA 190245Z 03004KT CAVOK M01/M07 Q1015=
200902190215 METAR LIRA 190215Z 09002KT CAVOK M01/M07 Q1015=
200902190145 METAR LIRA 190145Z 02002KT CAVOK M00/M06 Q1015=
200902190115 METAR LIRA 190115Z 10002KT CAVOK 00/M06 Q1015=
200902190045 METAR LIRA 190045Z 02002KT CAVOK 00/M07 Q1015=
200902190015 METAR LIRA 190015Z 01003KT CAVOK 00/M07 Q1015=
200902182350 METAR LIRA 190045Z 02002KT CAVOK 00/M07 Q1015=
200902182345 METAR LIRA 182345Z 36005KT 340V040 CAVOK 01/M08 Q1015=
200902182315 METAR LIRA 182315Z 01006KT 320V040 CAVOK 01/M08 Q1015=
200902182245 METAR LIRA 182245Z 36004KT 340V040 CAVOK 01/M09 Q1014=
200902182215 METAR LIRA 182215Z 36007KT 300V030 CAVOK 01/M09 Q1014=
200902182145 METAR LIRA 182145Z 35009KT CAVOK 01/M09 Q1014=
200902182115 METAR LIRA 182115Z 36009KT 310V050 CAVOK 01/M10 Q1014=
200902182045 METAR LIRA 182045Z 36010KT 300V050 CAVOK 01/M09 Q1014=
200902182015 METAR LIRA 182015Z 35012KT 320V030 CAVOK 01/M10 Q1014=
200902181945 METAR LIRA 181945Z 35014KT 290V030 CAVOK 01/M10 Q1014=
200902181915 METAR LIRA 181915Z 35011KT 310V040 CAVOK 01/M10 Q1014=
200902181845 METAR LIRA 181845Z 35010KT 310V050 CAVOK 02/M10 Q1013=
200902181815 METAR LIRA 181815Z 32010KT 300V010 CAVOK 02/M10 Q1013=
200902181745 METAR LIRA 181745Z 33010KT 300V020 CAVOK 02/M11 Q1013=
200902181715 METAR LIRA 181715Z 34010KT 300V020 CAVOK 02/M11 Q1012=
200902181645 METAR LIRA 181645Z 33010KT 290V010 9999 FEW070 04/M12 Q1012=
200902181615 METAR LIRA 181615Z 34018G29KT 300V040 9999 FEW070 04/M12
                        Q1012=
200902181545 METAR LIRA 181545Z 35015G32KT 300V060 9999 FEW070 05/M11
                        Q1011=
200902181515 METAR LIRA 181515Z 36012G32KT 300V060 9999 FEW020 06/M12
                        Q1011=
200902181445 METAR LIRA 181445Z 36017KT 310V040 9999 FEW020 05/M13 Q1010=
200902181415 METAR LIRA 181415Z 35018G28KT 280V050 9999 FEW020 06/M13
                        Q1010=
200902181345 METAR LIRA 181345Z 36018KT 290V040 9999 FEW020 06/M12 Q1009=
200902181315 METAR LIRA 181315Z 36018G32KT 310V050 9999 FEW020 06/M12
                        Q1009=
200902181245 METAR LIRA 181245Z 35021G33KT 310V050 9999 FEW020 06/M09
                        Q1009=
200902181215 METAR LIRA 181215Z 36018G33KT 300V060 9999 FEW025 06/M10
                        Q1009=
200902181145 METAR LIRA 181145Z 35017G31KT 300V040 9999 FEW025 05/M10
                        Q1008=
200902181115 METAR COR LIRA 181115Z 34021G34KT 300V010 9999 FEW020 06/M09
                        Q1008=
200902181045 METAR LIRA 181045Z 33020G31KT 290V010 9999 FEW020 06/M05
                        Q1008=
200902181015 METAR LIRA 181015Z 34019G35KT 300V020 9999 FEW020 06/M02
                        Q1008=
200902180945 METAR LIRA 180945Z 31015G29KT 310V040 9999 FEW015 05/M01
                        Q1008=
200902180915 METAR LIRA 180915Z 34014KT 290V020 9999 FEW015 05/M01 Q1008=
200902180845 METAR LIRA 180845Z 34018G29KT 310V020 9999 FEW015 04/00 Q1008=
200902180815 METAR LIRA 180815Z 35013KT 300V050 9999 FEW015 05/03 Q1007=
200902180745 METAR LIRA 180745Z 34013KT 300V020 9999 FEW010 FEW018CB 04/03
                        Q1007=
200902180715 METAR LIRA 180715Z 34015KT 310V030 9999 4000S BR FEW010 FEW017CB
                        SCT025 05/04 Q1007=
200902180645 METAR LIRA 180645Z 35010KT 300V020 9999 4000S FEW010 FEW017CB
                        SCT025 05/04 Q1006=
200902180615 METAR LIRA 180615Z 04004KT 360V090 9000 FEW017CB SCT025 05/05
                        Q1006 RETS=
200902180545 METAR LIRA 180545Z 09008KT 050V150 9000 -TSRA FEW010 FEW017CB
                        SCT025 05/05 Q1006=
200902180515 METAR LIRA 180515Z 01007KT 310V050 5000 -TSRA BR FEW010 FEW017CB
                        SCT025 05/05 Q1007=
200902180445 METAR LIRA 180445Z 04004KT 8000 -TSRA FEW010 FEW017CB SCT025
                        05/05 Q1006=
200902180415 METAR LIRA 180415Z 06004KT 8000 FEW010 SCT025 05/05 Q1007=
200902180345 METAR LIRA 180345Z 06005KT 360V090 8000 FEW010 SCT025 06/05
                        Q1007=
200902180315 METAR LIRA 180315Z 05003KT 6000 -RA SCT004 BKN025 06/05 Q1008=
200902180245 METAR LIRA 180245Z 05004KT 6000 -RA SCT004 BKN025 07/04 Q1008=
200902180215 METAR LIRA 180215Z 32004KT 8000 -RA FEW010 SCT025 BKN070
                        07/03 Q1009=
200902180145 METAR LIRA 180145Z 15002KT 9999 FEW015 SCT025 BKN070 07/03
                        Q1009=
200902180115 METAR LIRA 180115Z 17006KT 9999 FEW015 SCT025 BKN070 07/03
                        Q1009=
200902180045 METAR LIRA 180045Z 16005KT 9999 FEW015 SCT025 BKN070 06/03
                        Q1009=
200902180015 METAR LIRA 180015Z 15005KT 9999 FEW015 SCT025 BKN070 07/02
                        Q1010=
200902172345 METAR LIRA 172345Z 14007KT 9999 FEW015 SCT025 BKN070 07/02
                        Q1010=
200902172315 METAR LIRA 172315Z 15004KT 9999 FEW015 SCT025 BKN070 06/01
                        Q1010=
200902172245 METAR LIRA 172245Z 11005KT 9999 FEW015 SCT025 BKN070 06/02
                        Q1011=
200902172215 METAR LIRA 172215Z 11007KT 9999 FEW015 SCT025 BKN070 06/02
                        Q1012=
200902172145 METAR LIRA 172145Z 13007KT 9999 FEW015 SCT025 BKN070 06/02
                        Q1012=
200902172115 METAR LIRA 172115Z 10005KT 9999 FEW015 SCT025 06/02 Q1012=
200902172045 METAR LIRA 172045Z 11005KT 9999 FEW015 SCT025 07/03 Q1013=
200902172015 METAR LIRA 172015Z 09003KT 9999 FEW030 SCT070 07/03 Q1013=
200902171945 METAR LIRA 171945Z 12002KT 9999 FEW030 SCT070 07/02 Q1013=
200902171915 METAR LIRA 171915Z 16003KT 9999 FEW017 SCT030 07/02 Q1014=
200902171845 METAR LIRA 171845Z 17003KT 9999 FEW017 SCT030 BKN070 07/02
                        Q1014=
200902171815 METAR LIRA 171815Z 18001KT 9999 FEW017 SCT030 BKN070 07/02
                        Q1014=
200902171745 METAR LIRA 171745Z 18001KT 9999 FEW017 BKN070 08/02 Q1015=
200902171715 METAR LIRA 171715Z 18002KT 9999 FEW020 SCT070 BKN200 08/02
                        Q1015=
200902171645 METAR LIRA 171645Z 23002KT 9999 FEW018 BKN200 08/01 Q1015=
200902171615 METAR LIRA 171615Z 24002KT 9999 FEW020 BKN200 09/00 Q1015=
200902171545 METAR LIRA 171545Z 26005KT 200V290 9999 FEW020 BKN200 09/M02
                        Q1015=
200902171515 METAR LIRA 171515Z 26007KT 200V300 9999 FEW020 BKN200 10/M02
                        Q1015=
200902171445 METAR LIRA 171445Z 27008KT 210V330 9999 FEW018 SCT080 10/M01
                        Q1016=
200902171415 METAR LIRA 171415Z 28007KT 210V310 9999 FEW018 SCT200 10/M01
                        Q1016=
200902171345 METAR LIRA 171345Z 24007KT 190V300 9999 FEW018 SCT070 10/M01
                        Q1016=
200902171315 METAR LIRA 171315Z 28007KT 240V350 9999 FEW018 SCT070 10/M01
                        Q1016=
200902171245 METAR LIRA 171245Z 25006KT 210V310 9999 FEW018 SCT200 10/M01
                        Q1017=
200902171215 METAR LIRA 171215Z 25002KT 9999 FEW018 SCT200 10/M01 Q1017=
200902171145 METAR LIRA 171145Z 24003KT 9999 FEW018 SCT200 09/M03 Q1018=
200902171115 METAR LIRA 171115Z 34003KT 280V070 9999 FEW018 SCT200 08/M02
                        Q1018=
200902171045 METAR LIRA 171045Z 36004KT 9999 FEW018 SCT200 07/M02 Q1019=
200902171015 METAR LIRA 171015Z 33001KT 9999 FEW018 SCT200 06/M01 Q1019=
200902170945 METAR LIRA 170945Z 34004KT 340V040 9999 FEW018 SCT200 06/01
                        Q1019=
200902170915 METAR LIRA 170915Z 33007KT 9999 FEW018 SCT200 03/M01 Q1019=
200902170845 METAR LIRA 170845Z 01002KT 9999 FEW018 SCT200 02/M02 Q1019=
200902170815 METAR LIRA 170815Z 03002KT 9999 FEW018 SCT200 02/M01 Q1019=
200902170745 METAR LIRA 170745Z 04003KT 9999 FEW018 01/M01 Q1019=
200902170715 METAR LIRA 170715Z 03003KT 9999 FEW018 SCT030 01/M01 Q1019=
200902170645 METAR LIRA 170645Z 36004KT 9999 FEW018 SCT030 01/M01 Q1019=
200902170615 METAR LIRA 170615Z 02003KT 9999 SCT030 SCT070 01/M01 Q1019=
200902170545 METAR LIRA 170545Z 01002KT 9999 SCT030 SCT070 01/M01 Q1019=
200902170515 METAR LIRA 170515Z 03002KT 9999 SCT030 SCT070 01/M01 Q1019=
200902170445 METAR LIRA 170445Z 36002KT 9999 SCT030 BKN070 01/M02 Q1019=
200902170415 METAR LIRA 170415Z 02002KT 9999 SCT030 BKN070 01/M02 Q1020=
200902170345 METAR LIRA 170345Z 02002KT 9999 SCT030 BKN070 01/M02 Q1020=
200902170315 METAR LIRA 170315Z 02002KT 9999 SCT030 BKN070 01/M02 Q1020=
200902170245 METAR LIRA 170245Z 03002KT 9999 SCT030 BKN070 01/M02 Q1020=
200902170215 METAR LIRA 170215Z 09002KT 9999 SCT030 BKN070 01/M02 Q1020=
200902170145 METAR LIRA 170145Z 03003KT 9999 SCT030 BKN070 00/M03 Q1020=
200902170115 METAR LIRA 170115Z 02003KT 9999 SCT030 BKN070 00/M03 Q1020=
200902170045 METAR LIRA 170045Z 04004KT 9999 FEW030 SCT070 01/M02 Q1020=
200902170015 METAR LIRA 170015Z 04002KT 9999 FEW030 01/M02 Q1020=
200902162345 METAR LIRA 162345Z 10006KT 9999 FEW030 SCT200 02/M02 Q1020=
200902162315 METAR LIRA 162315Z 09003KT 9999 FEW030 02/M01 Q1020=
200902162245 METAR LIRA 162245Z 09002KT 9999 FEW030 SCT200 02/M01 Q1020=
200902162215 METAR LIRA 162215Z 06003KT 9999 FEW030 SCT200 02/M01 Q1020=
200902162145 METAR LIRA 162145Z 06004KT 9999 FEW030 SCT200 03/M01 Q1021=
200902162115 METAR LIRA 162115Z 10006KT 9999 FEW030 SCT200 03/M01 Q1021=
200902162045 METAR LIRA 162045Z 09005KT 9999 FEW030 SCT200 03/M01 Q1021=
200902162015 METAR LIRA 162015Z 09005KT 9999 FEW030 SCT200 03/M02 Q1021=
200902161945 METAR LIRA 161945Z 09003KT 9999 FEW030 SCT200 03/M02 Q1021=
200902161915 METAR LIRA 161915Z 12003KT 9999 FEW030 SCT200 05/M01 Q1021=
200902161845 METAR LIRA 161845Z 09005KT 9999 FEW030 SCT200 05/M02 Q1021=
200902161815 METAR LIRA 161815Z 12001KT 9999 FEW030 SCT200 05/M01 Q1021=
200902161745 METAR LIRA 161745Z 00000KT 9999 FEW080 SCT200 05/M04 Q1021=
200902161715 METAR LIRA 161715Z 00000KT 9999 FEW020 SCT200 06/M03 Q1020=
200902161645 METAR LIRA 161645Z 00000KT 9999 FEW020 SCT200 08/M04 Q1020=
200902161615 METAR LIRA 161615Z 35002KT 9999 FEW020 SCT200 08/M03 Q1020=
200902161545 METAR LIRA 161545Z 28003KT 9999 FEW020 BKN200 08/M04 Q1020=
200902161515 METAR LIRA 161515Z 33002KT 9999 FEW020 BKN200 08/M04 Q1020=
200902161445 METAR LIRA 161445Z 32005KT 9999 FEW020 SCT080 BKN200 09/M03
                        Q1020=
200902161415 METAR LIRA 161415Z 29003KT 9999 FEW020 SCT080 BKN200 09/M03
                        Q1021=
200902161345 METAR LIRA 161345Z 30003KT 9999 FEW020 SCT080 BKN200 09/M04
                        Q1021=
200902161315 METAR LIRA 161315Z 08001KT 9999 FEW020 SCT070 BKN200 08/M05
                        Q1021=
200902161245 METAR LIRA 161245Z 28004KT 260V340 9999 FEW020 BKN200 09/M04
                        Q1021=
200902161215 METAR LIRA 161215Z 33004KT 290V040 9999 FEW010 BKN200 09/M04
                        Q1021=
200902161145 METAR LIRA 161145Z 36003KT 9999 FEW020 BKN200 08/M06 Q1022=
200902161115 METAR LIRA 161115Z 01002KT 9999 FEW020 SCT200 07/M06 Q1022=
200902161045 METAR LIRA 161045Z 03003KT 9999 FEW020 SCT200 06/M04 Q1022=
200902161015 METAR LIRA 161015Z 02002KT 9999 FEW020 SCT200 05/M05 Q1022=
200902160945 METAR LIRA 160945Z 01004KT 330V070 9999 FEW020 SCT200 04/M03
                        Q1022=
200902160915 METAR LIRA 160915Z 02005KT 330V070 9999 FEW020 SCT200 03/M01
                        Q1022=
200902160845 METAR LIRA 160845Z 03006KT 330V060 9999 FEW020 SCT200 01/M04
                        Q1023=
200902160815 METAR LIRA 160815Z 02005KT 340V070 9999 FEW020 00/M05 Q1023=
200902160745 METAR LIRA 160745Z 03004KT 9999 FEW020 SCT040 M01/M05 Q1023=
200902160715 METAR LIRA 160715Z 02003KT 9999 FEW020 M02/M06 Q1023=
200902160645 METAR LIRA 160645Z 04003KT 9999 FEW020 M02/M05 Q1022=
200902160615 METAR LIRA 160615Z 05006KT 360V060 9999 FEW020 M02/M06 Q1022=
200902160545 METAR LIRA 160545Z 04003KT 9999 FEW020 M02/M06 Q1022=
200902160515 METAR LIRA 160515Z 06004KT CAVOK M01/M06 Q1022=
200902160445 METAR LIRA 160445Z 03003KT 9999 FEW035 M01/M07 Q1022=
200902160415 METAR LIRA 160415Z 03005KT 9999 FEW035 M01/M07 Q1022=
200902160345 METAR LIRA 160345Z 05003KT 9999 FEW035 M01/M07 Q1022=
200902160315 METAR LIRA 160315Z 03002KT 9999 FEW035 M01/M07 Q1022=
200902160245 METAR LIRA 160245Z 04003KT 9999 FEW035 M01/M07 Q1022=
200902160215 METAR LIRA 160215Z 04005KT 9999 FEW035 M01/M07 Q1022=
200902160145 METAR LIRA 160145Z 36004KT 9999 FEW035 00/M06 Q1022=
200902160115 METAR LIRA 160115Z 36004KT 9999 FEW035 00/M06 Q1021=
200902160045 METAR LIRA 160045Z 36005KT 9999 FEW035 00/M06 Q1021=
200902160015 METAR LIRA 160015Z 04004KT CAVOK 00/M07 Q1021=
200902152345 METAR LIRA 152345Z 04005KT CAVOK 00/M09 Q1021=
200902152315 METAR LIRA 152315Z 01004KT CAVOK 01/M09 Q1021=
200902152245 METAR LIRA 152245Z 03004KT 350V080 CAVOK 01/M09 Q1021=
200902152215 METAR LIRA 152215Z 05003KT 9999 FEW035 02/M10 Q1021=
200902152145 METAR LIRA 152145Z 34004KT 9999 FEW035 02/M09 Q1021=
200902152115 METAR LIRA 152115Z 34005KT 290V030 9999 FEW035 03/M07 Q1021=
200902152045 METAR LIRA 152045Z 34007KT 300V020 9999 FEW035 03/M07 Q1021=
200902152015 METAR LIRA 152015Z 31011KT 310V020 9999 FEW035 04/M07 Q1021=
200902151945 METAR LIRA 151945Z 34011KT 300V020 9999 FEW035 04/M08 Q1020=
200902151915 METAR LIRA 151915Z 31007KT 310V040 9999 FEW035 04/M09 Q1020=
200902151845 METAR LIRA 151845Z 34010KT 310V040 9999 FEW020 05/M08 Q1020=
200902151815 METAR LIRA 151815Z 35008KT 300V040 9999 FEW020 06/M09 Q1020=
200902151745 METAR LIRA 151745Z 34010KT 300V020 9999 FEW020 06/M09 Q1019=
200902151715 METAR LIRA 151715Z 33012KT 290V020 9999 FEW020 07/M09 Q1019=
200902151645 METAR LIRA 151645Z 33014G24KT 300V020 9999 FEW020 08/M08
                        Q1019=
200902151615 METAR LIRA 151615Z 33014KT 9999 FEW020 08/M08 Q1019=
200902151545 METAR LIRA 151545Z 32013KT 300V030 9999 FEW020 09/M08 Q1018=
200902151515 METAR LIRA 151515Z 33010KT 270V360 9999 FEW020 09/M08 Q1018=
200902151445 METAR LIRA 151445Z 31009KT 270V360 9999 FEW020 10/M08 Q1018=
200902151415 METAR LIRA 151415Z 33010KT 270V360 9999 FEW020 09/M09 Q1018=
200902151345 METAR LIRA 151345Z 32009KT 9999 FEW020 09/M09 Q1018=
200902151315 METAR LIRA 151315Z 32011KT 260V020 9999 FEW020 09/M08 Q1018=
200902151245 METAR LIRA 151245Z 01008KT 290V030 9999 FEW020 09/M08 Q1019=
200902151215 METAR LIRA 151215Z 34011KT 300V060 9999 FEW020 09/M07 Q1019=
200902151145 METAR LIRA 151145Z 35009KT 310V060 9999 FEW020 08/M07 Q1019=
200902151115 METAR LIRA 151115Z 35010KT 310V060 9999 FEW018 08/M06 Q1019=
200902151045 METAR LIRA 151045Z 36012KT 300V040 9999 FEW018 07/M06 Q1019=
200902151015 METAR LIRA 151015Z 36011KT 300V050 CAVOK 07/M06 Q1018=
200902150945 METAR LIRA 150945Z 01013KT 330V070 CAVOK 05/M03 Q1018=
200902150915 METAR LIRA 150915Z 01009KT 300V060 CAVOK 05/M03 Q1018=
200902150845 METAR LIRA 150845Z 03006KT 300V060 CAVOK 03/M03 Q1018=
200902150815 METAR LIRA 150815Z 03005KT 340V070 CAVOK 03/M03 Q1018=
200902150745 METAR LIRA 150745Z 05006KT CAVOK 01/M04 Q1018=
200902150715 METAR LIRA 150715Z 06006KT CAVOK M01/M04 Q1017=
200902150645 METAR LIRA 150645Z 05004KT CAVOK M01/M04 Q1017=
200902150615 METAR LIRA 150615Z 05004KT CAVOK M00/M03 Q1017=
200902150545 METAR LIRA 150545Z 06005KT CAVOK M01/M03 Q1016=
200902150515 METAR LIRA 150515Z 04006KT 360V080 CAVOK M01/M04 Q1016=
200902150445 METAR LIRA 150445Z 05005KT CAVOK M01/M03 Q1016=
200902150415 METAR LIRA 150415Z 05005KT CAVOK M01/M04 Q1016=
200902150345 METAR LIRA 150345Z 05004KT CAVOK M00/M03 Q1015=
200902150315 METAR LIRA 150315Z 05006KT CAVOK 00/M04 Q1015=
200902150245 METAR LIRA 150245Z 05006KT CAVOK 00/M04 Q1015=
200902150215 METAR LIRA 150215Z 02006KT 320V100 CAVOK 01/M04 Q1015=
200902150145 METAR LIRA 150145Z 02006KT 340V060 CAVOK 00/M04 Q1015=
200902150115 METAR LIRA 150115Z 03005KT CAVOK 00/M04 Q1015=
200902150045 METAR LIRA 150045Z 36004KT CAVOK 01/M04 Q1015=
200902150015 METAR LIRA 150015Z 04005KT CAVOK 01/M04 Q1015=
200902142345 METAR LIRA 142345Z 02005KT 340V060 9999 FEW070 01/M04 Q1014=
200902142315 METAR LIRA 142315Z 02006KT 330V070 9999 FEW070 01/M04 Q1014=
200902142245 METAR LIRA 142245Z 05005KT 9999 FEW070 02/M04 Q1014=
200902142215 METAR LIRA 142215Z 02005KT 320V080 9999 FEW080 02/M05 Q1014=
200902142145 METAR LIRA 142145Z 02007KT 340V070 9999 FEW080 02/M05 Q1014=
200902142115 METAR LIRA 142115Z 02006KT 320V060 CAVOK 03/M05 Q1014=
200902142045 METAR LIRA 142045Z 02006KT 330V060 CAVOK 03/M05 Q1014=
200902142015 METAR LIRA 142015Z 01008KT 320V080 CAVOK 03/M05 Q1013=
200902141945 METAR LIRA 141945Z 01008KT 330V060 CAVOK 03/M06 Q1013=
200902141915 METAR LIRA 141915Z 36008KT 300V060 9999 FEW080 04/M06 Q1013=
200902141845 METAR LIRA 141845Z 01008KT 290V060 9999 FEW030 05/M07 Q1012=
200902141815 METAR LIRA 141815Z 01008KT 330V080 9999 FEW030 SCT070 05/M08
                        Q1012=
200902141745 METAR LIRA 141745Z 01008KT 320V060 9999 FEW020 SCT030 06/M08
                        Q1012=
200902141715 METAR LIRA 141715Z 01008KT 290V050 9999 FEW020 SCT030 06/M08
                        Q1011=
200902141645 METAR LIRA 141645Z 35008KT 300V040 9999 FEW020 SCT030 07/M08
                        Q1010=
200902141615 METAR LIRA 141615Z 35008KT 310V060 9999 FEW020 SCT030 07/M08
                        Q1010=
200902141545 METAR LIRA 141545Z 34007KT 300V040 9999 FEW020 SCT030 07/M08
                        Q1010=
200902141515 METAR LIRA 141515Z 35009KT 9999 FEW020 SCT030 08/M07 Q1010=
200902141445 METAR LIRA 141445Z 33010KT 300V060 9999 FEW018 SCT030 07/M08
                        Q1010=
200902141415 METAR LIRA 141415Z 36005KT 300V040 9999 FEW018 SCT030 07/M08
                        Q1010=
200902141315 METAR LIRA 141315Z 32004KT 270V010 9999 FEW018 SCT030 08/M07
                        Q1010=
200902141245 METAR LIRA 141245Z 34003KT 300V060 9999 FEW018 SCT030 08/M06
                        Q1010=
200902141215 METAR LIRA 141215Z 34003KT 300V060 9999 FEW018 07/M07 Q1010=
200902141145 METAR LIRA 141145Z 34009KT 300V060 9999 SCT020 07/M06 Q1010=
200902141115 METAR LIRA 141115Z 03006KT 330V070 9999 FEW020 06/M07 Q1011=
200902141045 METAR LIRA 141045Z 04007KT 330V070 9999 FEW018 05/M05 Q1011=
200902141015 METAR LIRA 141015Z 36008KT 300V060 9999 FEW018 05/M05 Q1011=
200902140945 METAR LIRA 140945Z 01007KT 330V060 CAVOK 03/M05 Q1011=
200902140915 METAR LIRA 140915Z 01005KT 330V060 CAVOK 03/M05 Q1011=
200902140845 METAR LIRA 140845Z 02007KT 320V060 CAVOK 01/M05 Q1011=
200902140815 METAR LIRA 140815Z 02007KT 330V060 CAVOK 00/M05 Q1010=
200902140745 METAR LIRA 140745Z 02007KT 330V060 CAVOK M01/M05 Q1010=
200902140715 METAR LIRA 140715Z 03004KT CAVOK M03/M06 Q1010=
200902140645 METAR LIRA 140645Z 03004KT CAVOK M03/M06 Q1010=
200902140615 METAR LIRA 140615Z 03004KT 340V060 CAVOK M03/M06 Q1009=
200902140545 METAR LIRA 140545Z 03005KT 9999 FEW020 M03/M06 Q1009=
200902140515 METAR LIRA 140515Z 03005KT CAVOK M02/M06 Q1009=
200902140445 METAR LIRA 140445Z 02005KT CAVOK M03/M06 Q1009=
200902140415 METAR LIRA 140415Z 02005KT CAVOK M02/M06 Q1009=
200902140345 METAR LIRA 140345Z 03005KT CAVOK M02/M07 Q1009=
200902140315 METAR LIRA 140315Z 03004KT CAVOK M02/M07 Q1009=
200902140245 METAR LIRA 140245Z 03004KT CAVOK M01/M07 Q1009=
200902140215 METAR LIRA 140215Z 02003KT CAVOK M00/M07 Q1009=
200902140145 METAR LIRA 140145Z 03004KT 350V050 CAVOK 00/M06 Q1009=
200902140115 METAR LIRA 140115Z 03004KT CAVOK 00/M06 Q1009=
200902140045 METAR LIRA 140045Z 02004KT CAVOK 00/M07 Q1009=
200902140015 METAR LIRA 140015Z 36005KT CAVOK 01/M07 Q1009=
200902132350 METAR LIRA 140045Z 02004KT CAVOK 00/M07 Q1009=
200902132345 METAR LIRA 132345Z 01003KT CAVOK 01/M07 Q1009=
200902132315 METAR LIRA 132315Z 02004KT CAVOK 01/M07 Q1009=
200902132245 METAR LIRA 132245Z 03004KT CAVOK 02/M07 Q1009=
200902132215 METAR LIRA 132215Z 01005KT 350V070 CAVOK 02/M08 Q1009=
200902132145 METAR LIRA 132145Z 02005KT 340V060 CAVOK 02/M08 Q1009=
200902132115 METAR LIRA 132115Z 03006KT 340V070 CAVOK 03/M08 Q1009=
200902132045 METAR LIRA 132045Z 36006KT 320V060 CAVOK 03/M07 Q1009=
200902132015 METAR LIRA 132015Z 35006KT 310V020 CAVOK 04/M07 Q1009=
200902131945 METAR LIRA 131945Z 36007KT 320V030 CAVOK 04/M07 Q1009=
200902131915 METAR LIRA 131915Z 35007KT 320V030 CAVOK 04/M08 Q1009=
200902131845 METAR LIRA 131845Z 36007KT CAVOK 05/M08 Q1009=
200902131815 METAR LIRA 131815Z 35008KT 300V030 9999 FEW020 05/M08 Q1008=
200902131745 METAR LIRA 131745Z 02005KT 350V060 9999 FEW020 FEW022CB 06/M09
                        Q1008=
200902131715 METAR LIRA 131715Z 05007KT 330V070 9999 FEW020 FEW022CB 07/M09
                        Q1008=
200902131615 METAR LIRA 131615Z 01009KT 330V040 9999 FEW020CB 08/M09 Q1008=
200902131545 METAR LIRA 131545Z 01008KT 290V100 9999 FEW018 09/M08 Q1007=
200902131515 METAR LIRA 131515Z 01007KT 310V060 9999 FEW018 09/M07 Q1007=
200902131445 METAR LIRA 131445Z 36010KT 310V080 9999 FEW018 09/M07 Q1007=
200902131415 METAR LIRA 131415Z 35009KT 300V050 9999 FEW018 09/M06 Q1007=
200902131345 METAR LIRA 131345Z 36010KT 310V030 9999 SCT018 SCT200 09/M06
                        Q1007=
200902131315 METAR LIRA 131315Z 35011KT 300V050 9999 SCT018 SCT200 09/M06
                        Q1007=
200902131245 METAR LIRA 131245Z 02010KT 300V070 9999 FEW018 SCT200 09/M06
                        Q1007=
200902131215 METAR LIRA 131215Z 36009KT 320V100 9999 FEW018 SCT200 08/M05
                        Q1008=
200902131145 METAR LIRA 131145Z 02009KT 290V090 9999 FEW020 SCT200 08/M03
                        Q1007=
200902131115 METAR LIRA 131115Z 03007KT 310V100 9999 FEW020 SCT200 07/M03
                        Q1008=
200902131045 METAR LIRA 131045Z 01007KT 310V060 9999 FEW020 SCT200 07/M01
                        Q1008=
200902131015 METAR LIRA 131015Z 36009KT 320V080 9999 FEW030 SCT090 BKN200
                        05/M01 Q1008=
200902130945 METAR LIRA 130945Z 03009KT 320V080 9999 FEW030 SCT090 BKN200
                        04/M01 Q1008=
200902130915 METAR LIRA 130915Z 08006KT 010V130 9999 FEW030 SCT090 BKN200
                        04/M01 Q1008=
200902130845 METAR LIRA 130845Z 04006KT 340V080 9999 FEW030 SCT090 BKN200
                        03/M01 Q1008=
200902130815 METAR LIRA 130815Z 04004KT 9999 FEW030 SCT090 BKN200 02/M02
                        Q1007=
200902130745 METAR LIRA 130745Z 03008KT 350V080 9999 FEW030 SCT090 BKN200
                        02/M03 Q1007=
200902130715 METAR LIRA 130715Z 08004KT 9999 FEW030 SCT080 BKN200 01/M04
                        Q1007=
200902130645 METAR LIRA 130645Z 06003KT 9999 FEW030 SCT080 BKN200 00/M04
                        Q1007=
200902130615 METAR LIRA 130615Z 04005KT 340V100 9999 FEW030 SCT070 BKN200
                        00/M04 Q1007=
200902130545 METAR LIRA 130545Z 02005KT 9999 FEW030 SCT070 M00/M04 Q1007=
200902130515 METAR LIRA 130515Z 04005KT 9999 FEW070 SCT200 M00/M04 Q1007=
200902130445 METAR LIRA 130445Z 02004KT 9999 FEW070 M00/M04 Q1007=
200902130415 METAR LIRA 130415Z 04003KT CAVOK M00/M04 Q1006=
200902130345 METAR LIRA 130345Z 02003KT CAVOK 00/M04 Q1006=
200902130315 METAR LIRA 130315Z 03004KT CAVOK 00/M04 Q1006=
200902130245 METAR LIRA 130245Z 04005KT CAVOK 00/M05 Q1006=
200902130215 METAR LIRA 130215Z 04005KT CAVOK 00/M05 Q1006=
200902130145 METAR LIRA 130145Z 04005KT CAVOK 01/M05 Q1006=
200902130115 METAR LIRA 130115Z 04005KT CAVOK 01/M05 Q1006=
200902130045 METAR LIRA 130045Z 03004KT CAVOK 02/M05 Q1006=
200902130015 METAR LIRA 130015Z 03004KT CAVOK 02/M05 Q1006=
200902122350 METAR LIRA 130045Z 03004KT CAVOK 02/M05 Q1006=
200902122345 METAR LIRA 122345Z 04004KT CAVOK 02/M05 Q1006=
200902122315 METAR LIRA 122315Z 01003KT 9999 FEW070 02/M05 Q1006=
200902122245 METAR LIRA 122245Z 04003KT 9999 FEW070 03/M04 Q1006=
200902122215 METAR LIRA 122215Z 01005KT CAVOK 03/M04 Q1006=
200902122145 METAR LIRA 122145Z 02003KT 330V040 CAVOK 03/M05 Q1006=
200902122115 METAR LIRA 122115Z 01003KT CAVOK 04/M05 Q1006=
200902122045 METAR LIRA 122045Z 01003KT CAVOK 04/M05 Q1006=
200902122015 METAR LIRA 122015Z 03005KT CAVOK 04/M05 Q1006=
200902121945 METAR LIRA 121945Z 01003KT CAVOK 05/M05 Q1006=
200902121915 METAR LIRA 121915Z 01004KT CAVOK 05/M05 Q1006=
200902121845 METAR LIRA 121845Z 35006KT 310V030 CAVOK 06/M05 Q1006=
200902121815 METAR LIRA 121815Z 36008KT 320V090 CAVOK 07/M06 Q1005=
200902121745 METAR LIRA 121745Z 36008KT 300V040 CAVOK 08/M06 Q1005=
200902121715 METAR LIRA 121715Z 34011KT 300V040 9999 FEW020 09/M04 Q1006=
200902121645 METAR LIRA 121645Z 33010KT 9999 FEW020 09/M05 Q1006=
200902121615 METAR LIRA 121615Z 33011KT 290V030 9999 FEW020 09/M04 Q1006=
200902121545 METAR LIRA 121545Z 35010KT 290V030 9999 FEW020 10/M04 Q1005=
200902121515 METAR LIRA 121515Z 34011KT 300V030 9999 SCT020 10/M04 Q1005=
200902121445 METAR LIRA 121445Z 36011KT 300V030 9999 FEW020 10/M03 Q1005=
200902121415 METAR LIRA 121415Z 29020KT 290V020 9999 SCT020 10/M03 Q1005=
200902121345 METAR LIRA 121345Z 34013KT 300V040 9999 FEW020 10/M01 Q1005=
200902121315 METAR LIRA 121315Z 32011KT 290V360 9999 FEW020 SCT200 10/M00
                        Q1005=
200902121245 METAR LIRA 121245Z 34010KT 300V030 9999 FEW020 SCT200 10/M01
                        Q1006=
200902121215 METAR LIRA 121215Z 34008KT 330V030 9999 FEW020 SCT200 09/M01
                        Q1006=
200902121145 METAR LIRA 121145Z 34012KT 280V040 9999 FEW020 SCT200 09/M00
                        Q1006=
200902121115 METAR LIRA 121115Z 34013KT 310V030 9999 FEW020 SCT200 08/00
                        Q1006=
200902121045 METAR LIRA 121045Z 35011KT 330V040 9999 FEW020 SCT200 08/00
                        Q1006=
200902121015 METAR LIRA 121015Z 01008KT 320V060 9999 FEW020 SCT200 07/00
                        Q1006=
200902120945 METAR LIRA 120945Z 02011KT 320V080 9999 FEW080 SCT200 06/01
                        Q1006=
200902120915 METAR LIRA 120915Z 01009KT 310V080 9999 FEW080 SCT200 05/01
                        Q1005=
200902120845 METAR LIRA 120845Z 04011KT 350V080 9999 FEW070 SCT200 04/01
                        Q1005=
200902120815 METAR LIRA 120815Z 04005KT 9999 FEW035 03/01 Q1005=
200902120745 METAR LIRA 120745Z 04005KT 9999 FEW035 03/00 Q1004=
200902120715 METAR LIRA 120715Z 02003KT 9999 FEW030 03/01 Q1004=
200902120645 METAR LIRA 120645Z 06007KT 9999 FEW018 03/01 Q1004=
200902120615 METAR LIRA 120615Z 02006KT 330V080 9999 FEW018 03/00 Q1003=
200902120545 METAR LIRA 120545Z 03006KT 330V080 9999 FEW018 BKN070 03/00
                        Q1002=
200902120515 METAR LIRA 120515Z 02005KT 9999 FEW018 SCT070 03/01 Q1002=
200902120445 METAR LIRA 120445Z 03006KT 340V070 9999 FEW015 SCT070 03/01
                        Q1002=
200902120415 METAR LIRA 120415Z 02006KT 340V070 9999 FEW015 SCT070 03/01
                        Q1002=
200902120345 METAR LIRA 120345Z 04006KT 9999 FEW015 SCT070 03/01 Q1002=
200902120315 METAR LIRA 120315Z 01006KT 310V060 9999 FEW015 SCT070 03/01
                        Q1002=
200902120245 METAR LIRA 120245Z 01005KT 310V060 9999 FEW015 SCT070 03/01
                        Q1002=
200902120215 METAR LIRA 120215Z 02004KT 9999 FEW015 SCT070 03/01 Q1002=
200902120145 METAR LIRA 120145Z 04005KT 360V090 9999 FEW015 SCT070 03/01
                        Q1002=
200902120115 METAR LIRA 120115Z 03005KT 330V060 9999 FEW015 SCT070 03/01
                        Q1002=
200902120045 METAR LIRA 120045Z 03005KT 9999 FEW015 03/01 Q1002=
200902120015 METAR LIRA 120015Z 03005KT 350V080 9999 FEW015 03/01 Q1002=
200902112350 METAR LIRA 120045Z 03005KT 9999 FEW015 03/01 Q1002=
200902112345 METAR LIRA 112345Z 02007KT 350V090 9999 FEW015 03/01 Q1002=
200902112315 METAR LIRA 112315Z 04004KT 350V070 9999 FEW015 03/01 Q1002=
200902112245 METAR LIRA 112245Z 06005KT 9999 FEW015 03/01 Q1002=
200902112215 METAR LIRA 112215Z 04007KT 9999 FEW015 03/00 Q1002=
200902112145 METAR LIRA 112145Z 03007KT 340V070 9999 FEW020 SCT070 03/02
                        Q1002=
200902112115 METAR LIRA 112115Z 01005KT 9999 FEW020 SCT070 03/02 Q1002=
200902112045 METAR LIRA 112045Z 36005KT 320V050 9999 FEW018 SCT070 04/02
                        Q1003=
200902112015 METAR LIRA 112015Z 01007KT 300V080 9999 BKN070 04/03 Q1003=
200902111945 METAR LIRA 111945Z 06002KT 9999 FEW020 SCT070 04/02 Q1003=
200902111915 METAR LIRA 111915Z 00000KT 9999 FEW018 SCT070 03/02 Q1003=
200902111845 METAR LIRA 111845Z 05002KT 9999 FEW020 04/03 Q1002=
200902111815 METAR LIRA 111815Z 34003KT 9999 FEW020 SCT070 04/03 Q1002=
200902111745 METAR LIRA 111745Z 03002KT 9999 FEW020 SCT070 04/03 Q1002=
200902111715 METAR LIRA 111715Z 03003KT 9999 FEW015 FEW020CB SCT060 05/03
                        Q1002 RETS=
200902111645 METAR LIRA 111645Z 07002KT 9999 FEW015 FEW020CB SCT060 05/04
                        Q1002 RETS=
200902111615 METAR LIRA 111615Z 03011KT 320V100 6000 -TSRA FEW010 SCT020CB
                        07/03 Q1003=
200902111545 METAR LIRA 111545Z 02008KT 340V070 9999 FEW018 FEW020CB SCT070
                        07/03 Q1002=
200902111515 METAR LIRA 111515Z 04010KT 360V080 9999 FEW015 SCT070 06/03
                        Q1002=
200902111445 METAR LIRA 111445Z 03011KT 330V080 9999 FEW015 FEW016CB SCT070
                        06/03 Q1001=
200902111415 METAR LIRA 111415Z 06010KT 330V100 8000 -RA FEW013 FEW016CB
                        SCT023 06/03 Q1001=
200902111345 METAR LIRA 111345Z 36009KT 320V050 6000 -SHGR SCT010 FEW016CB
                        SCT025 05/04 Q1001=
200902111315 METAR LIRA 111315Z 15009KT 9999 FEW013 FEW016CB SCT025 05/03
                        Q1001=
200902111245 METAR LIRA 111245Z 16008KT 9999 FEW009 FEW016CB SCT023 05/03
                        Q1001 RETS=
200902111215 METAR LIRA 111215Z 14011KT 100V190 7000 -TSRA SCT009 FEW016CB
                        BKN023 07/05 Q1001=
200902111145 METAR LIRA 111145Z 12004KT 7000 -TSRA SCT009 FEW016CB BKN023
                        08/03 Q1003=
200902111115 METAR LIRA 111115Z 27015KT 220V280 7000 -TSRA SCT009 FEW016CB
                        BKN023 09/03 Q1002=
200902111045 METAR LIRA 111045Z 08004KT 9999 -TSRA FEW009 FEW016CB BKN023
                        09/03 Q1002=
200902111015 METAR LIRA 111015Z 08005KT 310V150 9999 -TSRA FEW013 FEW017CB
                        BKN025 09/02 Q1003=
200902110945 METAR LIRA 110945Z 17006KT 9999 FEW013 FEW017CB BKN025 08/03
                        Q1003=
200902110915 METAR LIRA 110915Z 31002KT 9999 FEW016 FEW017CB SCT025 08/02
                        Q1003=
200902110845 METAR LIRA 110845Z 00000KT 9999 FEW016 FEW017CB SCT025 08/02
                        Q1003=
200902110815 METAR LIRA 110815Z 16002KT 9999 FEW016 FEW017CB SCT025 08/02
                        Q1003=
200902110745 METAR LIRA 110745Z 36002KT 310V020 9999 FEW016 BKN025 09/03
                        Q1004=
200902110715 METAR LIRA 110715Z 31005KT 290V350 9999 FEW018 SCT030 08/03
                        Q1004=
200902110645 METAR LIRA 110645Z 29002KT 270V340 9999 FEW018 SCT030 08/04
                        Q1004=
200902110615 METAR LIRA 110615Z 30002KT 9999 FEW018 SCT070 09/04 Q1003=
200902110545 METAR LIRA 110545Z 25002KT 9999 FEW018 SCT070 10/04 Q1003=
200902110515 METAR LIRA 110515Z 27003KT 9999 FEW018 SCT070 10/04 Q1003=
200902110445 METAR LIRA 110445Z 27002KT 9999 FEW017 SCT070 10/05 Q1004=
200902110415 METAR LIRA 110415Z 24003KT 9999 FEW017 SCT070 11/04 Q1004=
200902110345 METAR LIRA 110345Z 25003KT 9999 SCT017 SCT030 11/04 Q1004=
200902110315 METAR LIRA 110315Z 24005KT 190V290 9999 SCT017 SCT030 11/05
                        Q1004=
200902110245 METAR LIRA 110245Z 25005KT 200V300 9999 FEW017 SCT030 11/05
                        Q1005=
200902110215 METAR LIRA 110215Z 26007KT 200V310 9999 FEW017 SCT070 11/06
                        Q1005=
200902110145 METAR LIRA 110145Z 23007KT 200V280 9999 FEW017 SCT070 11/07
                        Q1005=
200902110115 METAR LIRA 110115Z 23008KT 180V260 9999 FEW017 SCT070 11/06
                        Q1006=
200902110045 METAR LIRA 110045Z 23008KT 200V300 9999 FEW017 BKN200 11/07
                        Q1006=
200902110015 METAR LIRA 110015Z 24007KT 190V310 9999 FEW017 SCT200 11/08
                        Q1006=
200902102345 METAR LIRA 102345Z 24011G21KT 210V300 9999 FEW017 SCT200
                        11/07 Q1007=
200902102315 METAR LIRA 102315Z 24008KT 190V300 9999 FEW017 SCT200 11/08
                        Q1007=
200902102245 METAR LIRA 102245Z 24007KT 180V280 9999 FEW015 SCT200 11/08
                        Q1007=
200902102215 METAR LIRA 102215Z 24009KT 200V270 9999 FEW015 SCT200 11/08
                        Q1007=
200902102145 METAR LIRA 102145Z 23008KT 190V280 9999 FEW015 SCT200 11/08
                        Q1007=
200902102115 METAR LIRA 102115Z 21003KT 9999 FEW015 SCT080 12/09 Q1007=
200902102045 METAR LIRA 102045Z 21004KT 180V270 9999 FEW015 SCT080 12/09
                        Q1007=
200902102015 METAR LIRA 102015Z 22004KT 160V250 9999 FEW015 SCT200 12/09
                        Q1007=
200902101945 METAR LIRA 101945Z 20006KT 150V250 9999 FEW015 SCT200 12/10
                        Q1007=
200902101915 METAR LIRA 101915Z 19007KT 160V240 8000 FEW015 12/10 Q1007=
200902101845 METAR LIRA 101845Z 18007KT 8000 FEW015 SCT070 12/11 Q1007=
200902101815 METAR LIRA 101815Z 19007KT 140V220 8000 SCT015 12/11 Q1007=
200902101745 METAR LIRA 101745Z 16008KT 130V190 8000 FEW015 BKN030 12/10
                        Q1007=
200902101715 METAR LIRA 101715Z 17010KT 8000 FEW015 BKN030 12/10 Q1007=
200902101645 METAR LIRA 101645Z 17009KT 9999 FEW015 BKN025 12/10 Q1007=
200902101615 METAR LIRA 101615Z 17008KT 140V230 9999 FEW015 BKN025 12/10
                        Q1007=
200902101545 METAR LIRA 101545Z 17009KT 140V200 9999 FEW015 SCT030 11/10
                        Q1008=
200902101515 METAR LIRA 101515Z 17010KT 9999 FEW015 SCT030 11/10 Q1008=
200902101445 METAR LIRA 101445Z 15010KT 9999 FEW015 SCT025 12/10 Q1008=
200902101415 METAR LIRA 101415Z 15010KT 9000 SCT014 BKN025 11/10 Q1008=
200902101345 METAR LIRA 101345Z 15009KT 4000 -DZ BR SCT015 SCT025 12/07
                        Q1009=
200902101315 METAR LIRA 101315Z 16011KT 6000 -DZ SCT014 BKN025 12/08 Q1009=
200902101245 METAR LIRA 101245Z 16014KT 6000 -DZ SCT015 SCT025 12/08 Q1009=
200902101145 METAR LIRA 101145Z 15014KT 120V210 9999 SCT014 BKN025 12/08
                        Q1010=
200902101115 METAR LIRA 101115Z 15019KT 9999 SCT014 BKN025 12/08 Q1010=
200902101045 METAR LIRA 101045Z 14017KT 090V170 9999 FEW018 BKN025 11/08
                        Q1011=
200902101015 METAR LIRA 101015Z 14019KT 9999 SCT015 SCT025 11/08 Q1011=
200902100945 METAR LIRA 100945Z 15019KT 9999 FEW018 BKN025 11/08 Q1011=
200902100915 METAR LIRA 100915Z 15018KT 9999 SCT015 BKN025 11/07 Q1011=
200902100845 METAR LIRA 100845Z 14015KT 100V180 9999 SCT015 SCT025 11/07
                        Q1011=
200902100815 METAR LIRA 100815Z 15010KT 110V190 9999 SCT017 SCT025 11/07
                        Q1011=
200902100745 METAR LIRA 100745Z 15014KT 9999 SCT017 SCT025 11/07 Q1011=
200902100715 METAR LIRA 100715Z 15015KT 9999 SCT017 SCT025 11/07 Q1012=
200902100645 METAR LIRA 100645Z 15012KT 9999 SCT017 SCT025 10/07 Q1012=
200902100615 METAR LIRA 100615Z 16009KT 120V210 9999 SCT017 SCT025 10/07
                        Q1012=
200902100545 METAR LIRA 100545Z 14009KT 9999 FEW020 SCT030 10/07 Q1012=
200902100515 METAR LIRA 100515Z 13010KT 9999 FEW020 SCT030 10/07 Q1012=
200902100445 METAR LIRA 100445Z 15008KT 9999 FEW020 SCT030 09/07 Q1013=
200902100415 METAR LIRA 100415Z 14007KT 9999 FEW020 SCT080 08/06 Q1013=
200902100345 METAR LIRA 100345Z 14008KT 9999 FEW020 SCT080 08/06 Q1013=
200902100315 METAR LIRA 100315Z 15006KT 9999 FEW020 SCT070 07/05 Q1013=
200902100245 METAR LIRA 100245Z 15006KT 9999 FEW020 06/05 Q1013=
200902100215 METAR LIRA 100215Z 14006KT 9999 FEW020 SCT060 07/05 Q1013=
200902100145 METAR LIRA 100145Z 14005KT CAVOK 06/05 Q1014=
200902100115 METAR LIRA 100115Z 14002KT CAVOK 07/05 Q1014=
200902100045 METAR LIRA 100045Z 12003KT CAVOK 07/06 Q1014=
200902100015 METAR LIRA 100015Z 13003KT 9999 FEW080 07/06 Q1014=
200902092345 METAR LIRA 092345Z 12002KT 9999 FEW080 SCT200 06/05 Q1014=
200902092315 METAR LIRA 092315Z 11002KT 9999 FEW020 07/05 Q1014=
200902092245 METAR LIRA 092245Z 14003KT CAVOK 07/05 Q1014=
200902092215 METAR LIRA 092215Z 16004KT CAVOK 07/05 Q1014=
200902092145 METAR LIRA 092145Z 15004KT CAVOK 07/06 Q1014=
200902092045 METAR LIRA 092045Z 14002KT 9999 FEW025 07/06 Q1014=
200902092015 METAR LIRA 092015Z 16002KT 9999 FEW025 08/06 Q1013=
200902091945 METAR LIRA 091945Z 17002KT 9999 FEW025 09/07 Q1013=
200902091915 METAR LIRA 091915Z 19001KT 9999 FEW025 09/06 Q1013=
200902091845 METAR LIRA 091845Z 17001KT 9999 FEW025 09/06 Q1013=
200902091815 METAR LIRA 091815Z 24002KT 9999 FEW025 10/07 Q1012=
200902091745 METAR LIRA 091745Z 28002KT 9999 FEW018 SCT200 10/07 Q1012=
200902091715 METAR LIRA 091715Z 24002KT 9999 SCT018 11/07 Q1012=
200902091645 METAR LIRA 091645Z 28006KT 240V330 9999 SCT018 12/06 Q1012=
200902091615 METAR LIRA 091615Z 27008KT 220V320 9999 FEW025 12/06 Q1011=
200902091545 METAR LIRA 091545Z 26002KT 9999 SCT024 13/03 Q1011=
200902091515 METAR LIRA 091515Z 29005KT 9999 SCT024 13/03 Q1011=
200902091445 METAR LIRA 091445Z 34007KT 270V020 9999 SCT024 13/03 Q1010=
200902091415 METAR LIRA 091415Z 33009KT 9999 SCT024 SCT200 13/03 Q1010=
200902091345 METAR LIRA 091345Z 32008KT 270V020 9999 SCT024 SCT200 13/03
                        Q1010=
200902091315 METAR LIRA 091315Z 34006KT 270V010 9999 SCT024 SCT200 12/03
                        Q1010=
200902091245 METAR LIRA 091245Z 33005KT 290V030 9999 SCT020 SCT200 12/04
                        Q1010=
200902091215 METAR LIRA 091215Z 36006KT 300V050 9999 SCT020 SCT200 11/04
                        Q1010=
200902091145 METAR LIRA 091145Z 35007KT 300V040 9999 SCT020 11/04 Q1010=
200902091115 METAR LIRA 091115Z 02004KT 320V050 9999 FEW020 SCT200 10/05
                        Q1009=
200902091045 METAR LIRA 091045Z 02006KT 330V080 9999 FEW030 10/05 Q1009=
200902091015 METAR LIRA 091015Z 35005KT 300V030 9999 FEW020 09/04 Q1009=
200902091000 METAR LIRA CONTUS=
200902090945 METAR LIRA 090945Z 32005KT 260V350 9999 FEW020 08/04 Q1009=
200902090915 METAR LIRA 090915Z 33002KT 9999 FEW020 07/03 Q1007=
200902090845 METAR LIRA 090845Z 03004KT 9999 FEW020 06/05 Q1007=
200902090815 METAR LIRA 090815Z 02004KT 9999 FEW030 06/05 Q1007=
200902090800 METAR LIRA INT=
200902090745 METAR LIRA 090745Z 36002KT 9999 FEW030 05/05 Q1006=
200902090715 METAR LIRA 090715Z 02002KT 9999 -DZ SCT030 SCT060 05/05 Q1006=
200902090700 METAR LIRA INTER=
200902090645 METAR LIRA 090645Z 00000KT 9999 -DZ SCT030 SCT060 05/05 Q1006=
200902090615 METAR LIRA 090615Z 00000KT 9999 -DZ SCT030 SCT060 04/03 Q1005=
200902090600 METAR LIRA INTER=
200902090545 METAR LIRA 090545Z 28004KT 9999 -DZ SCT030 SCT060 04/03 Q1005=
200902090515 METAR LIRA 090515Z 12002KT 9999 SCT030 04/03 Q1005=
200902090500 METAR LIRA INTER=
200902090445 METAR LIRA 090445Z 05002KT 9999 SCT030 04/03 Q1005=
200902090415 METAR LIRA 090415Z 35003KT 9999 FEW030 04/03 Q1005=
200902090345 METAR LIRA 090345Z 06003KT 9999 FEW030 04/02 Q1004=
200902090315 METAR LIRA 090315Z 34003KT 9999 FEW030 05/04 Q1004=
200902090245 METAR LIRA 090245Z 13004KT CAVOK 05/03 Q1004=
200902090145 METAR LIRA 090145Z 14003KT 9999 FEW080 05/04 Q1003=
200902090115 METAR LIRA 090115Z 09002KT 9999 FEW070 06/04 Q1003=
200902090045 METAR LIRA 090045Z 04002KT 9999 FEW070 06/04 Q1003=
200902090015 METAR LIRA 090015Z 15004KT 9999 FEW020 06/05 Q1002=
200902082345 METAR LIRA 082345Z 14007KT 9999 FEW020 06/04 Q1002=
200902082315 METAR LIRA 082315Z 14007KT 9999 FEW018 07/04 Q1002=
200902082245 METAR LIRA 082245Z 14007KT 9999 FEW018 07/04 Q1002=
200902082215 METAR LIRA 082215Z 15006KT 9999 FEW018 07/04 Q1002=
200902082145 METAR LIRA 082145Z 15008KT 9999 FEW018 07/04 Q1002=
200902082115 METAR LIRA 082115Z 16003KT 9999 FEW018 08/04 Q1001=
200902082045 METAR LIRA 082045Z 14006KT 9999 FEW018 09/04 Q1001=
200902081945 METAR LIRA 081945Z 16006KT 9999 SCT018 SCT030 09/05 Q1000=
200902081915 METAR LIRA 081915Z 16006KT 9999 SCT018 SCT030 09/05 Q0999=
200902081845 METAR LIRA 081845Z 17005KT 9999 SCT017 SCT030 08/05 Q0999=
200902081815 METAR LIRA 081815Z 17005KT 9999 SCT017 SCT030 09/04 Q0998=
200902081745 METAR LIRA 081745Z 15004KT 9999 SCT017 10/05 Q0998=
200902081715 METAR LIRA 081715Z 17005KT 9999 SCT017 FEW018TCU 10/05 Q0998=
200902081645 METAR LIRA 081645Z 21004KT 160V250 9999 SCT017 FEW018TCU
                        SCT030 10/05 Q0997=
200902081615 METAR LIRA 081615Z 19006KT 190V230 9999 SCT017 FEW018TCU
                        SCT030 11/06 Q0997=
200902081545 METAR LIRA 081545Z 22006KT 180V260 9999 SCT017 FEW018TCU
                        SCT030 12/04 Q0997=
200902081515 METAR LIRA 081515Z 22004KT 9999 SCT018 SCT030 11/04 Q0996=
200902081445 METAR LIRA 081445Z 21005KT 180V260 9999 FEW016 SCT030 11/04
                        Q0996=
200902081415 METAR LIRA 081415Z 20005KT 150V270 9999 FEW016 SCT030 11/04
                        Q0996=
200902081345 METAR LIRA 081345Z 18008KT 150V220 9999 FEW016 SCT030 11/03
                        Q0996=
200902081315 METAR LIRA 081315Z 19007KT 140V250 9999 FEW016 SCT030 10/03
                        Q0995=
200902081245 METAR LIRA 081245Z 21007KT 160V270 9999 SCT016 FEW018TCU
                        SCT030 11/03 Q0995=
200902081215 METAR LIRA 081215Z 21007KT 160V260 9999 SCT015 FEW018TCU
                        SCT030 10/04 Q0995=
200902081145 METAR LIRA 081145Z 21006KT 170V270 9999 FEW015 FEW018TCU
                        SCT030 10/04 Q0995=
200902081115 METAR LIRA 081115Z 21009KT 160V260 9999 FEW015 FEW018TCU
                        SCT030 10/05 Q0995=
200902081045 METAR LIRA 081045Z 22007KT 160V280 9999 FEW015 FEW018TCU
                        SCT030 09/05 Q0995=
200902081015 METAR LIRA 081015Z 19007KT 150V240 9999 FEW015 FEW018TCU
                        SCT030 09/06 Q0995=
200902080945 METAR LIRA 080945Z 22004KT 200V260 9000 FEW015 FEW018TCU
                        SCT030 07/05 Q0995=
200902080915 METAR LIRA 080915Z 17007KT 140V200 9000 -RA SCT015 FEW018TCU
                        SCT030 09/06 Q0994=
200902080845 METAR LIRA 080845Z 16006KT 100V180 6000 -RA SCT015 FEW018TCU
                        BKN030 07/05 Q0994=
200902080815 METAR LIRA 080815Z 13007KT 100V180 9999 -RA SCT015 FEW018TCU
                        SCT030 07/05 Q0993=
200902080745 METAR LIRA 080745Z 14008KT 9999 SCT015 FEW018TCU SCT030 08/07
                        Q0993=
200902080715 METAR LIRA 080715Z 12010KT 9999 -RA SCT015 FEW018TCU SCT030
                        08/07 Q0992=
200902080645 METAR LIRA 080645Z 13008KT 9999 4500S SCT015 FEW017CB BKN025
                        08/08 Q0992=
200902080615 METAR LIRA 080615Z 10002KT 5000 -RA BR SCT015 FEW017CB BKN025
                        08/07 Q0992=
200902080545 METAR LIRA 080545Z 21003KT 260V340 8000 -RA SCT015 FEW017CB
                        BKN025 08/07 Q0992 RERA=
200902080515 METAR LIRA 080515Z 17006KT 9999 -RA SCT015 FEW017CB BKN025
                        08/07 Q0991 RERA=
200902080445 METAR LIRA 080445Z 22007KT 210V320 7000 RA SCT010 FEW015CB
                        BKN025 08/06 Q0991=
200902080415 METAR LIRA 080415Z 21006KT 170V240 9999 RA FEW012CB SCT025
                        08/06 Q0990=
200902080345 METAR LIRA 080345Z 17005KT 9999 FEW015CB 08/06 Q0990 RETS=
200902080315 METAR LIRA 080315Z 19007KT 150V250 9999 FEW015CB SCT025 08/06
                        Q0990 RETS=
200902080245 METAR LIRA 080245Z 13003KT 9999 -TSRA FEW015CB SCT025 08/07
                        Q0989=
200902080215 METAR LIRA 080215Z 22009KT 160V250 9999 TSRA FEW015CB SCT025
                        08/07 Q0989=
200902080145 METAR LIRA 080145Z 17005KT 9999 TS FEW015CB SCT025 08/07
                        Q0989=
200902080115 METAR LIRA 080115Z 17005KT 9999 TS FEW015CB SCT025 08/07
                        Q0989=
200902080045 METAR LIRA 080045Z 16005KT 9999 FEW015CB SCT025 08/07 Q0989
                        RETS=
200902080015 METAR LIRA 080015Z 16005KT 140V210 9999 -TSRA SCT012CB SCT025
                        08/06 Q0990=
200902072345 METAR LIRA 072345Z 20010KT 130V260 6000 TSRA SCT012CB BKN025
                        08/06 Q0990=
200902072315 METAR LIRA 072315Z 16008KT 9999 -TSRA SCT012CB SCT025 08/06
                        Q0990=
200902072245 METAR LIRA 072245Z 17018KT 130V220 9999 TSGR SCT012CB SCT025
                        08/06 Q0990=
200902072215 METAR LIRA 072215Z 16008KT 9999 -TSRA FEW012 SCT025 08/06
                        Q0990=
200902072145 METAR LIRA 072145Z 16007KT 9999 -RA FEW012CB SCT025 08/06
                        Q0990 RETS=
200902072115 METAR LIRA 072115Z 12004KT 9999 -TSRA FEW012CB SCT025 09/06
                        Q0990=
200902072045 METAR LIRA 072045Z 13009KT 9999 TSRA FEW012CB BKN025 10/06
                        Q0990=
200902072015 METAR LIRA 072015Z 15009KT 110V180 9999 -TSRA FEW012CB BKN025
                        09/06 Q0990=
200902071945 METAR LIRA 071945Z 15018KT 120V190 9999 -TSRA FEW012CB BKN025
                        09/07 Q0990=
200902071915 METAR LIRA 071915Z 13009KT 9999 TS FEW012 FEW015CB SCT025
                        09/07 Q0990=
200902071845 METAR LIRA 071845Z 13009KT 9999 FEW012 SCT025 09/08 Q0990=
200902071815 METAR LIRA 071815Z 14013KT 8000 FEW010 SCT025 09/07 Q0990=
200902071745 METAR LIRA 071745Z 14014KT 8000 FEW010 SCT025 09/07 Q0990=
200902071715 METAR LIRA 071715Z 14013KT 9999 FEW007 SCT025 09/07 Q0991=
200902071645 METAR LIRA 071645Z 15009KT 8000 -RA SCT007 BKN025 11/07 Q0990=
200902071615 METAR LIRA 071615Z 15012KT 6000 -RA SCT007 BKN025 11/07 Q0990=
200902071545 METAR LIRA 071545Z 15014G24KT 9999 -RA SCT012 BKN025 11/06
                        Q0990=
200902071515 METAR LIRA 071515Z 15013KT 120V190 9999 SCT012 BKN025 11/07
                        Q0990=
200902071445 METAR LIRA 071445Z 15014KT 9999 SCT012 BKN025 11/08 Q0990=
200902071415 METAR LIRA 071415Z 14013KT 9999 FEW012 SCT080 11/08 Q0990=
200902071345 METAR LIRA 071345Z 16011KT 9999 -RA SCT012 BKN025 12/09 Q0991=
200902071315 METAR LIRA 071315Z 19008KT 160V230 9999 -RA SCT012 BKN025
                        13/09 Q0991=
200902071245 METAR LIRA 071245Z 20011KT 130V250 9999 SCT012 BKN025 13/10
                        Q0992=
200902071215 METAR LIRA 071215Z 19013G23KT 160V240 9999 SCT012 BKN025
                        12/10 Q0993=
200902071145 METAR LIRA 071145Z 16009KT 8000 -RA SCT012 BKN025 12/10 Q0993=
200902071115 METAR LIRA 071115Z 17009KT 140V200 8000 -RA SCT012 BKN025
                        12/10 Q0993=
200902071045 METAR LIRA 071045Z 18007KT 150V210 9999 -RA SCT012 BKN025
                        12/09 Q0993=
200902071015 METAR LIRA 071015Z 19007KT 150V230 9999 -RA SCT012 BKN025
                        13/10 Q0993=
200902070945 METAR LIRA 070945Z 19009KT 150V230 9999 SCT012 BKN025 13/10
                        Q0993=
200902070915 METAR LIRA 070915Z 20008KT 150V250 8000 -RA SCT010 BKN025
                        13/11 Q0993=
200902070845 METAR LIRA 070845Z 19011KT 160V230 8000 -RA SCT010 BKN025
                        13/12 Q0992=
200902070815 METAR LIRA 070815Z 19008KT 150V240 8000 -RA SCT009 BKN025
                        13/12 Q0992=
200902070745 METAR LIRA 070745Z 18015KT 130V200 3000 -RA BR SCT005 BKN022
                        12/12 Q0992=
200902070715 METAR LIRA 070715Z 17011KT 3000 -RA BR SCT005 BKN020 12/12
                        Q0992=
200902070645 METAR LIRA 070645Z 18010KT 4000 -RA BR SCT008 BKN019 13/12
                        Q0992=
200902070615 METAR LIRA 070615Z 17014KT 6000 -RA SCT010 BKN023 13/11 Q0992=
200902070545 METAR LIRA 070545Z 16018KT 8000 -RA FEW014 SCT025 BKN070
                        13/11 Q0992=
200902070515 METAR LIRA 070515Z 14018KT 9999 -RA FEW018 SCT030 BKN070
                        13/10 Q0992=
200902070445 METAR LIRA 070445Z 15019G29KT 100V180 9999 -RA FEW018 SCT030
                        BKN070 12/09 Q0992=
200902070415 METAR LIRA 070415Z 14020KT 9999 -RA SCT030 BKN070 12/09 Q0993=
200902070345 METAR LIRA 070345Z 14023KT 9999 -RA SCT030 BKN070 12/09 Q0993=
200902070315 METAR LIRA 070315Z 14020KT 9999 -RA SCT030 BKN070 12/09 Q0994=
200902070245 METAR LIRA 070245Z 13025KT 9999 -RA FEW030 BKN070 12/08 Q0995=
200902070215 METAR LIRA 070215Z 13025KT 9999 -RA FEW030 BKN070 13/08 Q0995=
200902070145 METAR LIRA 070145Z 13021KT 9999 -RA FEW018 BKN070 12/08 Q0995=
200902070045 METAR LIRA 070045Z 13019KT 9999 FEW030 BKN070 12/07 Q0996=
200902070015 METAR LIRA 070015Z 13017KT 9999 FEW030 BKN070 13/08 Q0997=
200902062345 METAR LIRA 062345Z 13017KT 9999 FEW018 BKN070 12/08 Q0997=
200902062315 METAR LIRA 062315Z 15014KT 9999 FEW030 SCT070 12/08 Q0998=
200902062245 METAR LIRA 062245Z 14017KT 120V180 9999 FEW018 BKN070 12/10
                        Q0999=
200902062215 METAR LIRA 062215Z 15015KT 120V180 9999 FEW018 BKN070 12/10
                        Q0999=
200902062145 METAR LIRA 062145Z 15012KT 9999 FEW017 BKN070 12/10 Q0999=
200902062115 METAR LIRA 062115Z 15013KT 9999 FEW017 BKN070 12/11 Q0999=
200902062045 METAR LIRA 062045Z 15010KT 9999 FEW017 BKN070 12/11 Q0999=
200902062015 METAR LIRA 062015Z 22010KT 9999 FEW017 BKN070 12/11 Q0999=
200902061945 METAR LIRA 061945Z 15008KT 9999 FEW017 BKN070 12/11 Q0999=
200902061915 METAR LIRA 061915Z 16007KT 9999 FEW018 BKN070 12/10 Q0999=
200902061845 METAR LIRA 061845Z 16007KT 9999 FEW017 SCT070 12/10 Q1000=
200902061815 METAR LIRA 061815Z 19008KT 9999 FEW017 SCT070 13/10 Q0999=
200902061745 METAR LIRA 061745Z 16008KT 9999 SCT017 SCT030 13/11 Q0999=
200902061715 METAR LIRA 061715Z 15011KT 8000 SCT015 BKN025 13/11 Q0999=
200902061645 METAR LIRA 061645Z 14014KT 8000 FEW015 SCT025 13/11 Q0999=
200902061615 METAR LIRA 061615Z 15014KT 8000 FEW015 SCT070 13/11 Q0998=
200902061545 METAR LIRA 061545Z 15015KT 8000 FEW015 SCT070 12/12 Q0998=
200902061515 METAR LIRA 061515Z 14015KT 120V180 8000 -RA SCT015 SCT025
                        13/11 Q0998=
200902061445 METAR LIRA 061445Z 15011KT 080V180 8000 -RA SCT015 SCT025
                        14/10 Q0999=
200902061415 METAR LIRA 061415Z 15014KT 6000 -RA SCT015 BKN025 14/10 Q0999=
200902061345 METAR LIRA 061345Z 15015KT 8000 -RA SCT018 BKN025 13/09 Q0998=
200902061315 METAR LIRA 061315Z 15020KT 110V180 8000 -RA SCT018 BKN025
                        13/10 Q0998=
200902061215 METAR LIRA 061215Z 13015KT 9999 -RA SCT018 BKN025 14/09 Q0999=
200902061145 METAR LIRA 061145Z 13017G27KT 9999 -RA SCT018 BKN025 15/10
                        Q1000=
200902061115 METAR LIRA 061115Z 13010KT 090V160 9999 FEW018 BKN028 15/09
                        Q1001=
200902061045 METAR LIRA 061045Z 14015KT 9999 FEW018 SCT030 15/10 Q1000=
200902061015 METAR LIRA 061015Z 12015KT 080V160 9999 FEW018 SCT030 15/10
                        Q1000=
200902060945 METAR LIRA 060945Z 13015KT 100V170 9999 FEW018 SCT030 15/10
                        Q1001=
200902060915 METAR LIRA 060915Z 14014KT 9999 FEW018 SCT030 14/09 Q1000=
200902060845 METAR LIRA 060845Z 13015KT 100V170 9999 FEW018 SCT030 14/09
                        Q1000=
200902060815 METAR LIRA 060815Z 14016KT 9999 FEW018 SCT030 13/08 Q1000=
200902060745 METAR LIRA 060745Z 13008KT 090V170 9999 FEW018 SCT030 BKN070
                        13/08 Q1000=
200902060715 METAR LIRA 060715Z 13010KT 090V170 9999 -DZ FEW018 SCT030
                        BKN070 12/09 Q1000=
200902060645 METAR LIRA 060645Z 13009KT 090V170 9999 -DZ FEW018 SCT025
                        BKN070 13/08 Q1000=
200902060615 METAR COR LIRA 060615Z 13008KT 9999 -DZ FEW018 SCT025 13/08
                        Q1000=
200902060545 METAR LIRA 060545Z 13007KT 100V160 9999 -DZ FEW018 SCT025
                        13/09 Q1001=
200902060515 METAR LIRA 060515Z 14010KT 9999 -DZ FEW018 SCT025 13/09 Q1001=
200902060445 METAR LIRA 060445Z 11006KT 9999 -DZ FEW018 SCT025 12/07 Q1002=
200902060415 METAR LIRA 060415Z 14012KT 9999 -DZ FEW018 SCT025 12/07 Q1002=
200902060345 METAR LIRA 060345Z 15014KT 9999 -DZ FEW020 BKN070 12/07 Q1002=
200902060315 METAR LIRA 060315Z 14015KT 9999 -DZ FEW020 SCT070 12/06 Q1002=
200902060245 METAR LIRA 060245Z 14019G31KT 9999 FEW020 SCT070 13/06 Q1002=
200902060215 METAR LIRA 060215Z 14020KT 9999 FEW020 SCT070 14/05 Q1002=
200902060145 METAR LIRA 060145Z 16016G26KT 100V190 9999 FEW020 BKN070
                        14/06 Q1003=
200902060115 METAR LIRA 060115Z 14016KT 9999 FEW020 SCT070 14/05 Q1003=
200902060045 METAR LIRA 060045Z 13013KT 090V170 9999 FEW030 BKN070 14/05
                        Q1003=
200902060015 METAR LIRA 060015Z 15018KT 9999 FEW030 BKN070 14/06 Q1004=
200902052345 METAR LIRA 052345Z 13015KT 9999 FEW030 BKN070 13/06 Q1005=
200902052315 METAR LIRA 052315Z 13014KT 9999 FEW030 SCT070 13/06 Q1005=
200902052245 METAR LIRA 052245Z 13014KT 9999 FEW070 SCT200 13/06 Q1005=
200902052215 METAR LIRA 052215Z 12015G25KT 090V180 9999 FEW070 13/06 Q1005=
200902052145 METAR LIRA 052145Z 13012KT 090V170 9999 FEW070 SCT200 13/09
                        Q1005=
200902052115 METAR LIRA 052115Z 13010KT 090V170 9999 FEW070 13/08 Q1005=
200902052045 METAR LIRA 052045Z 13010KT 090V170 9999 FEW070 13/08 Q1006=
200902052015 METAR LIRA 052015Z 13012KT 070V180 9999 FEW040 13/08 Q1006=
200902051945 METAR LIRA 051945Z 14011KT 090V170 9999 FEW070 13/09 Q1006=
200902051915 METAR LIRA 051915Z 13012KT 080V170 9999 FEW040 SCT070 13/09
                        Q1006=
200902051845 METAR LIRA 051845Z 13010KT 9999 FEW030 SCT070 13/09 Q1006=
200902051815 METAR LIRA 051815Z 14009KT 100V180 9999 FEW040 SCT070 13/09
                        Q1007=
200902051745 METAR LIRA 051745Z 14009KT 9999 FEW040 SCT070 13/10 Q1007=
200902051715 METAR LIRA 051715Z 15011KT 100V180 9999 SCT040 BKN070 14/10
                        Q1007=
200902051645 METAR LIRA 051645Z 15011KT 110V180 9999 FEW018 SCT040 14/10
                        Q1007=
200902051615 METAR LIRA 051615Z 14008KT 080V180 9999 FEW018 SCT040 15/10
                        Q1007=
200902051545 METAR LIRA 051545Z 14008KT 090V180 9999 FEW016 SCT040 15/11
                        Q1007=
200902051515 METAR LIRA 051515Z 14010KT 9999 FEW016 SCT040 14/11 Q1007=
200902051445 METAR LIRA 051445Z 14011KT 110V180 9999 FEW016 SCT040 14/10
                        Q1007=
200902051415 METAR LIRA 051415Z 15013KT 120V190 9999 -RA FEW015 SCT035
                        14/12 Q1008=
200902051345 METAR LIRA 051345Z 15012KT 120V190 9999 -RA FEW015 BKN035
                        14/12 Q1008=
200902051315 METAR LIRA 051315Z 15011KT 120V180 9999 FEW015 BKN035 14/12
                        Q1008=
200902051245 METAR LIRA 051245Z 14010KT 120V180 9999 FEW015 BKN035 15/11
                        Q1009=
200902051215 METAR LIRA 051215Z 15009KT 9999 -RA FEW014 BKN035 15/09 Q1009=
200902051145 METAR LIRA 051145Z 17007KT 9999 -RA SCT014 BKN035 15/10 Q1010=
200902051115 METAR LIRA 051115Z 16011KT 9999 SCT014 BKN035 16/10 Q1010=
200902051045 METAR LIRA 051045Z 17010KT 140V210 9999 FEW014 BKN035 15/10
                        Q1010=
200902051015 METAR LIRA 051015Z 17010KT 120V190 9999 FEW017 SCT035 14/10
                        Q1010=
200902050945 METAR LIRA 050945Z 16011KT 9999 FEW016 SCT030 14/10 Q1010=
200902050915 METAR LIRA 050915Z 16011KT 9999 FEW015 SCT030 14/10 Q1010=
200902050845 METAR LIRA 050845Z 15010KT 9999 FEW015 SCT030 13/11 Q1010=
200902050815 METAR LIRA 050815Z 14010KT 9999 FEW015 12/11 Q1009=
200902050745 METAR LIRA 050745Z 15009KT 9999 SCT015 12/10 Q1009=
200902050715 METAR LIRA 050715Z 15009KT 9999 SCT015 12/10 Q1009=
200902050645 METAR LIRA 050645Z 15010KT 9999 SCT015 12/10 Q1008=
200902050615 METAR LIRA 050615Z 15010KT 9999 SCT015 SCT025 12/10 Q1008=
200902050545 METAR LIRA 050545Z 15010KT 9999 FEW015 SCT025 12/10 Q1008=
200902050515 METAR LIRA 050515Z 15011KT 9999 FEW017 SCT025 12/10 Q1008=
200902050445 METAR LIRA 050445Z 15013KT 9999 SCT016 SCT025 12/10 Q1008=
200902050415 METAR LIRA 050415Z 15013KT 9999 SCT016 SCT025 12/10 Q1008=
200902050345 METAR LIRA 050345Z 15012KT 9999 FEW016 SCT025 12/10 Q1008=
200902050315 METAR LIRA 050315Z 16009KT 130V210 9999 FEW016 SCT025 12/10
                        Q1008=
200902050245 METAR LIRA 050245Z 15011KT 9999 -RA FEW016 SCT025 12/10 Q1008=
200902050215 METAR LIRA 050215Z 15011KT 120V180 9999 -RA FEW016 SCT030
                        11/09 Q1008=
200902050145 METAR LIRA 050145Z 15012KT 9999 -RA FEW016 SCT030 12/09 Q1008=
200902050115 METAR LIRA 050115Z 14013KT 9999 -RA FEW020 SCT030 12/09 Q1007=
200902050045 METAR LIRA 050045Z 15010KT 9999 FEW020 SCT060 11/08 Q1008=
200902050015 METAR LIRA 050015Z 14010KT 9999 FEW020 SCT060 11/08 Q1008=
200902042345 METAR LIRA 042345Z 13010KT 9999 FEW030 SCT060 11/08 Q1008=
200902042315 METAR LIRA 042315Z 15010KT 9999 FEW035 SCT070 11/08 Q1008=
200902042245 METAR LIRA 042245Z 15009KT 9999 SCT035 SCT070 12/08 Q1008=
200902042215 METAR LIRA 042215Z 15009KT 9999 FEW020 SCT035 11/08 Q1008=
200902042145 METAR LIRA 042145Z 15009KT 120V190 9999 FEW020 SCT035 11/08
                        Q1007=
200902042115 METAR LIRA 042115Z 14011KT 9999 FEW020 SCT030 11/08 Q1007=
200902042045 METAR LIRA 042045Z 15010KT 9999 FEW020 SCT030 11/08 Q1007=
200902042015 METAR LIRA 042015Z 15007KT 110V170 9999 FEW018 BKN030 11/07
                        Q1007=
200902041945 METAR LIRA 041945Z 15004KT 9999 FEW016 BKN030 11/07 Q1006=
200902041815 METAR LIRA 041815Z 15006KT 9999 FEW016 BKN030 11/08 Q1006=
200902041745 METAR LIRA 041745Z 16006KT 130V190 9999 FEW016 SCT030 11/07
                        Q1006=
200902041715 METAR LIRA 041715Z 14007KT 9999 FEW016 SCT030 11/08 Q1006=
200902041645 METAR LIRA 041645Z 17006KT 9999 FEW015 SCT030 12/08 Q1006=
200902041615 METAR LIRA 041615Z 18006KT 150V260 9999 FEW015 SCT030 12/08
                        Q1005=
200902041545 METAR LIRA 041545Z 21005KT 160V270 9999 SCT015 BKN030 12/09
                        Q1005=
200902041515 METAR LIRA 041515Z 21005KT 160V260 9999 -RA SCT015 BKN030
                        12/10 Q1004=
200902041445 METAR LIRA 041445Z 19006KT 160V250 9999 -RA SCT015 BKN030
                        12/09 Q1004=
200902041415 METAR COR LIRA 041415Z 21007KT 160V270 9999 -RA SCT015 BKN030
                        12/08 Q1004=
200902041345 METAR LIRA 041345Z 22008KT 180V270 9999 SCT015 BKN030 13/08
                        Q1003=
200902041315 METAR LIRA 041315Z 20007KT 160V250 9999 FEW015 FEW017TCU
                        BKN030 13/08 Q1003=
200902041245 METAR LIRA 041245Z 20012KT 140V250 9999 FEW015 FEW017TCU
                        BKN030 13/08 Q1003=
200902041215 METAR LIRA 041215Z 19011KT 160V250 9999 FEW015 FEW017TCU
                        BKN030 13/08 Q1003=
200902041145 METAR LIRA 041145Z 19011KT 160V260 9999 FEW015 SCT030 12/08
                        Q1003=
200902041115 METAR LIRA 041115Z 19010KT 150V250 9000 SCT015 BKN030 12/09
                        Q1003=
200902041045 METAR LIRA 041045Z 20009KT 160V250 9000 SCT015 BKN030 12/09
                        Q1002=
200902041015 METAR LIRA 041015Z 19009KT 150V230 9000 SCT015 BKN030 12/09
                        Q1002=
200902040915 METAR LIRA 040915Z 17006KT 8000 SCT015 BKN025 11/10 Q1002=
200902040845 METAR LIRA 040845Z 17006KT 6000 -RA FEW012 BKN025 11/09 Q1001=
200902040815 METAR LIRA 040815Z 19006KT 150V230 5000 -RA BR FEW011 SCT030
                        BKN060 10/09 Q1001=
200902040745 METAR LIRA 040745Z 19003KT 9999 -RA FEW015 BKN035 10/09 Q1000=
200902040715 METAR LIRA 040715Z 00000KT 9999 -RA FEW015 SCT035 10/09 Q1000=
200902040645 METAR LIRA 040645Z 01002KT 9999 FEW015 BKN035 10/09 Q0999=
200902040615 METAR LIRA 040615Z 04002KT 9999 FEW015 BKN035 10/09 Q0999=
200902040545 METAR LIRA 040545Z 05003KT 8000 FEW015 SCT025 10/10 Q0999=
200902040515 METAR LIRA 040515Z 07005KT 5000 -RA BR FEW010 BKN025 10/09
                        Q0998=
200902040445 METAR LIRA 040445Z 05004KT 5000 -RA BR SCT010 FEW012CB BKN025
                        10/10 Q0998=
200902040415 METAR LIRA 040415Z 02004KT 350V080 5000 BR SCT010 FEW012CB
                        BKN025 10/10 Q0997 RETS=
200902040345 METAR LIRA 040345Z 03003KT 4000 -TSRA SCT007 FEW012CB BKN022
                        11/10 Q0997 RERA=
200902040315 METAR LIRA 040315Z 27006KT 240V040 3000 TSRA SCT007 FEW012CB
                        BKN022 11/10 Q0997 RERA=
200902040245 METAR LIRA 040245Z 35006KT 300V040 4000 RA BR SCT007 FEW012CB
                        BKN022 11/11 Q0997=
200902040215 METAR LIRA 040215Z 36002KT 4000 RA BR SCT007 FEW012CB BKN022
                        11/10 Q0997=
200902040145 METAR LIRA 040145Z 21002KT 4000 -RA BR SCT007 FEW012CB BKN022
                        11/10 Q0997=
200902040115 METAR LIRA 040115Z 00000KT 4000 BR SCT007 SCT070 11/10 Q0997=
200902040045 METAR LIRA 040045Z 00000KT 4000 BR SCT007 SCT070 11/10 Q0997=
200902040015 METAR LIRA 040015Z 28001KT 4000 BR SCT007 SCT070 11/10 Q0997=
200902032345 METAR LIRA 032345Z 02002KT 4000 BR SCT007 SCT070 11/11 Q0997=
200902032315 METAR LIRA 032315Z 01001KT 4000 BR SCT007 SCT070 12/11 Q0997=
200902032245 METAR LIRA 032245Z 06002KT 4000 -RA BR SCT007 BKN070 12/10
                        Q0997=
200902032215 METAR LIRA 032215Z 02002KT 4000 -RA BR SCT007 BKN070 13/10
                        Q0997=
200902032145 METAR LIRA 032145Z 35003KT 4000 -RA BR SCT007 BKN070 13/10
                        Q0997=
200902032115 METAR LIRA 032115Z 21001KT 4000 -RA BR SCT007 BKN070 13/10
                        Q0997=
200902032045 METAR LIRA 032045Z 01005KT 340V070 4000 -DZ BR SCT007 BKN070
                        13/09 Q0997=
200902032015 METAR LIRA 032015Z 08007KT 030V210 4000 BR SCT007 SCT070
                        13/09 Q0997=
200902031945 METAR LIRA 031945Z 04005KT 4000 BR SCT007 SCT070 13/10 Q0997=
200902031915 METAR LIRA 031915Z 15003KT 4000 BR SCT007 SCT070 13/10 Q0997=
200902031845 METAR LIRA 031845Z 00000KT 4000 -DZ BR SCT007 BKN070 12/10
                        Q0997=
200902031815 METAR LIRA 031815Z 35003KT 300V050 4000 BR SCT007 SCT025
                        12/10 Q0997=
200902031745 METAR LIRA 031745Z 35004KT 300V020 2500 BR SCT007 SCT027
                        13/11 Q0997=
200902031715 METAR LIRA 031715Z 34005KT 2500 -RA BR SCT007 SCT027 13/11
                        Q0997=
200902031645 METAR LIRA 031645Z 04003KT 1600 -RA BR BKN007 BKN060 14/13
                        Q0997=
200902031615 METAR COR LIRA 031615Z 11005KT 1500 -RA BR SCT007 OVC060
                        13/12 Q0997=
200902031545 METAR LIRA 031545Z 08005KT 050V120 1500 -RA BR SCT007 OVC070
                        13/12 Q0997=
200902031515 METAR LIRA 031515Z 04004KT 1500 -RA BR SCT007 OVC060 13/11
                        Q0998=
200902031445 METAR LIRA 031445Z 14005KT 1500 -RA BR SCT007 OVC060 14/11
                        Q0997=
200902031415 METAR LIRA 031415Z 13011KT 110V170 1500 BR -RA SCT007 OVC060
                        15/12 Q0997=
200902031345 METAR LIRA 031345Z 14013KT 2000 -RA BR SCT008 OVC070 15/13
                        Q0997=
200902031315 METAR LIRA 031315Z 14012KT 3000 -RA BR FEW015 OVC070 15/11
                        Q0997=
200902031245 METAR LIRA 031245Z 13016KT 100V170 3500 -RA BR FEW015 SCT030
                        BKN070 15/11 Q0997=
200902031215 METAR LIRA 031215Z 13016KT 100V160 3500 BR -RA FEW015 SCT030
                        BKN070 15/12 Q0997=
200902031145 METAR LIRA 031145Z 14013KT 100V170 5000 BR -RA FEW015 SCT035
                        BKN080 16/13 Q0997=
200902031115 METAR LIRA 031115Z 13017G29KT 6000 FEW015 SCT035 BKN080 16/11
                        Q0997=
200902031045 METAR LIRA 031045Z 14018KT 090V180 6000 FEW015 SCT035 BKN080
                        16/11 Q0998=
200902031015 METAR LIRA 031015Z 13019G29KT 100V180 6000 FEW015 SCT035
                        BKN080 16/11 Q0998=
200902030945 METAR LIRA 030945Z 14011KT 080V180 6000 FEW015 SCT035 BKN080
                        16/10 Q0998=
200902030915 METAR LIRA 030915Z 12010KT 040V150 6000 -RA FEW015 SCT035
                        BKN080 14/10 Q0999=
200902030845 METAR LIRA 030845Z 07006KT 020V110 7000 -RA FEW015 SCT035
                        BKN080 13/10 Q0999=
200902030815 METAR LIRA 030815Z 09009KT 050V120 8000 -RA FEW015 SCT035
                        BKN080 12/10 Q0999=
200902030745 METAR LIRA 030745Z 08011KT 040V100 8000 -RA FEW015 SCT035
                        BKN080 13/11 Q0999=
200902030715 METAR LIRA 030715Z 07006KT 040V130 7000 -RA FEW015 SCT025
                        BKN060 13/10 Q0999=
200902030645 METAR LIRA 030645Z 08011KT 7000 -RA FEW015 SCT025 BKN060
                        13/11 Q0999=
200902030615 METAR LIRA 030615Z 09011KT 060V130 9999 -RA FEW015 SCT025
                        BKN070 13/11 Q0999=
200902030545 METAR LIRA 030545Z 10015KT 9999 -RA FEW015 SCT025 BKN070
                        13/10 Q0999=
200902030515 METAR LIRA 030515Z 09007KT 050V150 9999 -RA FEW015 SCT025
                        13/09 Q0999=
200902030445 METAR LIRA 030445Z 12013KT 080V160 9999 -RA FEW015 SCT025
                        14/09 Q1000=
200902030415 METAR LIRA 030415Z 13015KT 9999 -RA FEW015 SCT025 13/09 Q0999=
200902030345 METAR LIRA 030345Z 14018KT 9999 FEW015 SCT025 BKN070 14/10
                        Q0999=
200902030315 METAR LIRA 030315Z 13021KT 9999 FEW015 SCT025 BKN070 14/10
                        Q1000=
200902030245 METAR LIRA 030245Z 12024KT 9999 FEW015 SCT025 BKN070 14/10
                        Q1000=
200902030215 METAR LIRA 030215Z 13020G30KT 9999 FEW015 SCT025 BKN070 15/10
                        Q1000=
200902030145 METAR LIRA 030145Z 13017KT 9999 FEW015 SCT025 BKN070 15/11
                        Q1000=
200902030115 METAR LIRA 030115Z 14020G30KT 100V180 9999 FEW015 SCT025
                        BKN070 15/10 Q1000=
200902030045 METAR LIRA 030045Z 20010G28KT 130V230 9999 FEW015 SCT025
                        BKN070 15/11 Q1001=
200902030015 METAR LIRA 030015Z 14019G29KT 9999 FEW015 SCT025 BKN070 15/11
                        Q1000=
200902022345 METAR LIRA 022345Z 15019G29KT 120V180 9999 FEW015 SCT025
                        BKN070 15/11 Q1001=
200902022315 METAR LIRA 022315Z 14018G30KT 9999 FEW015 SCT025 BKN070 15/11
                        Q1001=
200902022245 METAR LIRA 022245Z 14019G31KT 9999 -RA FEW015 SCT025 BKN070
                        14/12 Q1001=
200902022215 METAR LIRA 022215Z 14020KT 9999 -RA FEW015 SCT025 BKN070
                        14/12 Q1001=
200902022145 METAR LIRA 022145Z 14021KT 100V170 9999 -RA FEW015 SCT025
                        BKN070 15/09 Q1001=
200902022115 METAR LIRA 022115Z 15021G32KT 110V170 9999 FEW015 SCT025
                        BKN070 15/09 Q1001=
200902022045 METAR LIRA 022045Z 16026G38KT 9999 FEW015 SCT025 BKN070 15/09
                        Q1000=
200902022015 METAR LIRA 022015Z 14022G38KT 9999 FEW015 SCT025 BKN070 15/09
                        Q1001=
200902021945 METAR LIRA 021945Z 13027G39KT 100V160 9999 -RA FEW015 SCT025
                        BKN070 15/08 Q1000=
200902021915 METAR LIRA 021915Z 13028G39KT 9999 -RA FEW015 SCT025 BKN070
                        15/08 Q1000=
200902021845 METAR LIRA 021845Z 13032G42KT 9999 -RA FEW015 SCT025 BKN070
                        15/07 Q1000=
200902021815 METAR LIRA 021815Z 13027G38KT 9999 -RA FEW015 SCT025 BKN070
                        15/07 Q1001=
200902021745 METAR LIRA 021745Z 13028G38KT 9999 -RA FEW015 SCT025 BKN070
                        15/05 Q1000=
200902021715 METAR LIRA 021715Z 13026G42KT 9999 FEW015 SCT025 BKN070 15/05
                        Q1000=
200902021645 METAR LIRA 021645Z 14025G38KT 9999 FEW018 SCT070 BKN200 15/03
                        Q1000=
200902021615 METAR LIRA 021615Z 13026G39KT 090V150 9999 FEW018 SCT070
                        BKN200 15/03 Q1000=
200902021545 METAR LIRA 021545Z 13025G35KT 090V180 9999 FEW018 SCT080
                        BKN200 15/04 Q1000=
200902021515 METAR LIRA 021515Z 13024G36KT 090V160 9999 FEW018 SCT080
                        BKN200 15/04 Q1000 WS RWY 15=
200902021445 METAR LIRA 021445Z 13023G34KT 9999 FEW018 BKN080 14/05 Q1001
                        WS RWY 15=
200902021415 METAR LIRA 021415Z 12019G32KT 090V160 9999 FEW018 BKN080
                        14/06 Q1002=
200902021345 METAR LIRA 021345Z 13016KT 9999 FEW018 BKN070 14/06 Q1002=
200902021315 METAR LIRA 021315Z 13014KT 070V180 9999 FEW018 BKN080 14/07
                        Q1002=
200902021245 METAR LIRA 021245Z 13021KT 9999 FEW018 SCT080 BKN200 14/08
                        Q1003=
200902021215 METAR LIRA 021215Z 12016KT 100V160 9999 FEW018 SCT040 BKN070
                        13/07 Q1003=
200902021145 METAR LIRA 021145Z 13016KT 090V150 9999 FEW018 BKN070 13/08
                        Q1004=
200902021115 METAR LIRA 021115Z 13020KT 9999 -DZ FEW018 BKN070 13/09 Q1005=
200902021045 METAR LIRA 021045Z 13019KT 090V160 9999 -DZ FEW018 BKN070
                        13/09 Q1005=
200902021015 METAR LIRA 021015Z 14016KT 100V180 9999 FEW018 BKN070 13/09
                        Q1006=
200902021000 METAR LIRA INT=
200902020945 METAR LIRA 020945Z 13013KT 9999 FEW018 BKN070 13/09 Q1006=
200902020915 METAR LIRA 020915Z 13016KT 9999 FEW018 BKN070 12/09 Q1005=
200902020845 METAR LIRA 020845Z 13015KT 090V160 9999 FEW018 BKN070 12/09
                        Q1006=
200902020815 METAR LIRA 020815Z 12015KT 9999 FEW018 SCT070 12/09 Q1006=
200902020745 METAR LIRA 020745Z 13013KT 9999 FEW018 BKN030 11/09 Q1006=
200902020715 METAR LIRA 020715Z 13012KT 9999 FEW018 BKN030 11/09 Q1005=
200902020645 METAR LIRA 020645Z 13010KT 9999 FEW018 BKN030 11/08 Q1005=
200902020615 METAR LIRA 020615Z 13011KT 9999 FEW018 BKN030 11/09 Q1005=
200902020545 METAR LIRA 020545Z 12010KT 090V160 9999 FEW020 SCT030 11/08
                        Q1005=
200902020515 METAR LIRA 020515Z 13012KT 9999 SCT025 SCT070 11/07 Q1005=
200902020500 METAR LIRA CONTUS LOW CLDS MVG S=
200902020445 METAR LIRA 020445Z 13014KT 9999 SCT025 SCT070 11/07 Q1005=
200902020415 METAR LIRA 020415Z 01013KT 9999 SCT025 SCT070 10/07 Q1005=
200902020400 METAR LIRA INT=
200902020345 METAR LIRA 020345Z 13009KT 9999 SCT030 SCT070 10/06 Q1005=
200902020315 METAR LIRA 020315Z 14010KT 9999 SCT030 SCT070 10/07 Q1005=
200902020245 METAR LIRA 020245Z 05004KT 9999 FEW030 SCT070 09/06 Q1005=
200902020215 METAR LIRA 020215Z 08003KT 9999 FEW030 SCT070 09/06 Q1005=
200902020145 METAR LIRA 020145Z 05003KT 9999 FEW025 SCT070 09/05 Q1005=
200902020115 METAR LIRA 020115Z 05002KT 9999 FEW030 SCT070 09/05 Q1005=
200902020045 METAR LIRA 020045Z 07003KT 9999 FEW030 SCT070 10/06 Q1005=
200902020015 METAR LIRA 020015Z 12007KT 9999 FEW025 10/08 Q1005=
200902012350 METAR LIRA 020045Z 07003KT 9999 FEW030 SCT070 10/06 Q1005=
200902012345 METAR LIRA 012345Z 11008KT 060V150 9999 FEW025 08/05 Q1005=
200902012315 METAR LIRA 012315Z 05003KT 9999 SCT025 08/05 Q1005=
200902012245 METAR LIRA 012245Z 00000KT 9999 FEW030 08/05 Q1005=
200902012215 METAR LIRA 012215Z 00000KT 9999 FEW030 08/05 Q1004=
200902012145 METAR LIRA 012145Z 00000KT 9999 FEW030 08/05 Q1004=
200902012115 METAR LIRA 012115Z 05003KT 9999 FEW030 09/05 Q1004=
200902012045 METAR LIRA 012045Z 06003KT 9999 FEW030 09/03 Q1004=
200902012015 METAR LIRA 012015Z 06001KT 9999 FEW030 SCT070 09/07 Q1004=
200902011945 METAR LIRA 011945Z 01002KT 9999 FEW030 SCT070 09/05 Q1004=
200902011915 METAR LIRA 011915Z 06007KT 9999 FEW030 SCT070 09/05 Q1003=
200902011845 METAR LIRA 011845Z 07004KT 9999 FEW030 SCT070 10/05 Q1003=
200902011815 METAR LIRA 011815Z 05003KT 9999 FEW030 SCT070 10/05 Q1003=
200902011745 METAR LIRA 011745Z 05002KT 9999 SCT030 SCT070 10/05 Q1003=
200902011715 METAR LIRA 011715Z 09002KT 9999 SCT030 SCT070 11/04 Q1003=
200902011645 METAR LIRA 011645Z 11005KT 9999 SCT030 SCT070 12/04 Q1002=
200902011615 METAR LIRA 011615Z 10008KT 9999 SCT030 SCT070 12/04 Q1002=
200902011545 METAR LIRA 011545Z 08005KT 9999 SCT030 SCT070 12/03 Q1002=
200902011515 METAR LIRA 011515Z 35002KT 9999 SCT030 SCT070 13/03 Q1002=
200902011445 METAR LIRA 011445Z 15003KT 9999 SCT030 BKN080 13/02 Q1002=
200902011415 METAR LIRA 011415Z 19003KT 9999 -RA SCT030 BKN080 14/03 Q1001=
200902011345 METAR LIRA 011345Z 05004KT 9999 FEW030 BKN080 13/03 Q1001=
200902011315 METAR LIRA 011315Z 08005KT 020V110 9999 FEW030 BKN080 13/03
                        Q1001=
200902011245 METAR LIRA 011245Z 05004KT 030V090 9999 FEW020 SCT080 13/03
                        Q1001=
200902011215 METAR COR LIRA 011215Z 08005KT 040V110 9999 FEW020 SCT080
                        13/04 Q1001=
200902011145 METAR LIRA 011145Z 09005KT 060V130 9999 FEW020 SCT080 12/05
                        Q1002=
200902011115 METAR LIRA 011115Z 03003KT 350V070 9999 FEW020 SCT200 12/05
                        Q1002=
200902011045 METAR LIRA 011045Z 06009KT 020V090 9999 FEW018 SCT070 11/04
                        Q1002=
200902011015 METAR LIRA 011015Z 06006KT 030V100 9999 FEW020 SCT070 11/05
                        Q1003=
200902010945 METAR LIRA 010945Z 09011KT 040V110 9999 FEW020 SCT070 10/06
                        Q1003=
200902010915 METAR LIRA 010915Z 06006KT 360V090 9999 FEW020 SCT070 08/04
                        Q1003=
200902010845 METAR LIRA 010845Z 05008KT 020V100 9999 FEW018 SCT070 BKN200
                        08/04 Q1003=
200902010815 METAR LIRA 010815Z 05010KT 010V090 9999 FEW018 SCT070 BKN200
                        07/04 Q1003=
200902010800 METAR LIRA CONTUS=
200902010745 METAR LIRA 010745Z 03010KT 340V070 9999 FEW018 SCT070 BKN200
                        07/05 Q1004=
200902010715 METAR LIRA 010715Z 05009KT 360V080 9999 FEW018 SCT040 BKN070
                        07/04 Q1004=
200902010700 METAR LIRA INT=
200902010645 METAR LIRA 010645Z 05010KT 360V080 9999 FEW018 SCT040 BKN070
                        07/05 Q1004=
200902010615 METAR LIRA 010615Z 05008KT 9999 SCT025 BKN070 07/04 Q1004=
200902010545 METAR LIRA 010545Z 05011KT 9999 SCT025 BKN070 06/04 Q1004=
200902010515 METAR LIRA 010515Z 07010KT 020V110 9999 SCT025 BKN070 07/05
                        Q1004=
200902010445 METAR LIRA 010445Z 09008KT 030V120 9999 SCT025 SCT060 07/05
                        Q1004=
200902010415 METAR LIRA 010415Z 07007KT 020V110 9999 SCT030 SCT060 07/05
                        Q1005=
200902010345 METAR LIRA 010345Z 09009KT 8000 -RA FEW018 BKN030 07/03 Q1005=
200902010315 METAR LIRA 010315Z 10008KT 9999 -RA BKN025 SCT060 08/03 Q1005=
200902010245 METAR LIRA 010245Z 12009KT 9999 SCT025 SCT060 08/04 Q1006=
200902010215 METAR LIRA 010215Z 10012KT 060V120 9999 SCT030 SCT060 08/04
                        Q1006=
200902010145 METAR LIRA 010145Z 05004KT 9999 SCT030 SCT070 08/04 Q1007=
200902010115 METAR LIRA 010115Z 32004KT 050V140 9999 FEW025 SCT070 09/05
                        Q1007=
200902010045 METAR LIRA 010045Z 13009KT 090V160 9999 FEW025 SCT060 08/04
                        Q1007=
200902010015 METAR LIRA 010015Z 14009KT 9999 FEW030 SCT080 09/05 Q1007=

</pre>

</body>
</html>
