##########################################################
# Query made at 11/10/2014 16:03:14 UTC
# Time interval: from 02/01/2011 00:00  to 03/03/2011 23:59  UTC
##########################################################

##########################################################
# LIRA, Roma / Ciampino (Italy)
# WMO index: 16239
# Latitude 41-47N. Longitude 012-35E. Altitude 129 m.
##########################################################

###################################
#  METAR/SPECI from LIRA
###################################
201103032350 METAR LIRA 040045Z 10007KT 9999 FEW017 08/07 Q1022=
201103032345 METAR LIRA 032345Z 06004KT 9999 FEW017 07/06 Q1022=
201103032315 METAR LIRA 032315Z 05004KT 9999 FEW017 07/07 Q1022=
201103032245 METAR LIRA 032245Z 08005KT 9999 FEW014 FEW016TCU 08/07 Q1022=
201103032215 METAR LIRA 032215Z 08004KT 9999 FEW014 FEW016TCU 08/07 Q1022=
201103032145 METAR LIRA 032145Z 11003KT 8000 -RA FEW014 FEW016CB SCT025
                        08/07 Q1022=
201103032115 METAR LIRA 032115Z 13008KT 8000 RA FEW014 FEW016CB 09/07
                        Q1022=
201103032045 METAR LIRA 032045Z 15006KT 8000 -RA FEW014 FEW016TCU SCT025
                        09/08 Q1022=
201103032015 METAR LIRA 032015Z 14006KT 9999 FEW016 FEW017TCU 08/07 Q1022=
201103031945 METAR LIRA 031945Z 14004KT 9999 FEW016 SCT035 09/07 Q1022=
201103031915 METAR LIRA 031915Z 14006KT 9999 SCT016 BKN030 09/08 Q1022=
201103031845 METAR LIRA 031845Z 14007KT 9999 SCT016 BKN030 10/08 Q1021=
201103031815 METAR LIRA 031815Z 15007KT 9999 SCT016 FEW020TCU SCT025 10/08
                        Q1021=
201103031745 METAR LIRA 031745Z 15006KT 9999 SCT016 FEW020TCU SCT025 09/08
                        Q1021=
201103031715 METAR LIRA 031715Z 18005KT 9999 SCT017 FEW020CB 10/07 Q1020=
201103031645 METAR LIRA 031645Z 19006KT 9999 SCT017 FEW020CB SCT025 11/07
                        Q1020=
201103031615 METAR LIRA 031615Z 18010KT 9999 FEW015 BKN025 11/08 Q1019=
201103031545 METAR LIRA 031545Z 17008KT 9999 FEW015 BKN025 11/08 Q1019=
201103031515 METAR LIRA 031515Z 17010KT 9999 FEW015 FEW017CB SCT025 12/10
                        Q1018=
201103031445 METAR LIRA 031445Z 18013KT 8000 -RA SCT015 FEW017CB BKN025
                        11/08 Q1018=
201103031415 METAR LIRA 031415Z 16009KT 5000 RA BR SCT015 FEW017CB BKN025
                        11/09 Q1018=
201103031345 METAR LIRA 031345Z 15010KT 8000 -RA FEW015 FEW017TCU BKN025
                        11/10 Q1018=
201103031315 METAR LIRA 031315Z 15014KT 9999 -RA FEW015 FEW017TCU BKN025
                        12/08 Q1018=
201103031245 METAR LIRA 031245Z 14014KT 9999 FEW015 FEW017TCU SCT025 13/09
                        Q1018=
201103031215 METAR LIRA 031215Z 14011KT 9999 -RA SCT015 BKN025 12/09 Q1018=
201103031145 METAR LIRA 031145Z 17010KT 9999 -RA SCT015 BKN025 11/09 Q1018=
201103031115 METAR LIRA 031115Z 16012KT 9999 -RA SCT015 BKN025 12/08 Q1018=
201103031045 METAR LIRA 031045Z 13016KT 9999 SCT015 BKN025 13/07 Q1017=
201103031015 METAR LIRA 031015Z 13011KT 9999 SCT015 14/08 Q1017=
201103030945 METAR LIRA 030945Z 15012KT 9999 SCT015 FEW020TCU 13/07 Q1017=
201103030915 METAR LIRA 030915Z 14011KT 100V180 9999 FEW015 FEW020TCU
                        SCT070 13/07 Q1016=
201103030845 METAR LIRA 030845Z 14011KT 9999 FEW015 FEW020TCU SCT070 12/06
                        Q1016=
201103030815 METAR LIRA 030815Z 12007KT 090V150 9999 FEW013 FEW018CB SCT025
                        13/08 Q1016=
201103030745 METAR LIRA 030745Z 13012KT 9999 FEW013 FEW018CB SCT025 11/06
                        Q1015=
201103030715 METAR LIRA 030715Z 11007KT 9999 FEW013 FEW018CB SCT025 09/06
                        Q1015=
201103030645 METAR LIRA 030645Z 11012KT 9999 FEW013 FEW015CB SCT025 08/06
                        Q1015=
201103030615 METAR LIRA 030615Z 11011KT 9999 SCT013 FEW015TCU BKN025 08/06
                        Q1015=
201103030545 METAR LIRA 030545Z 10013KT 9999 FEW016 BKN025 08/06 Q1014=
201103030515 METAR LIRA 030515Z 11012KT 9999 SCT014 SCT025 08/06 Q1014=
201103030445 METAR LIRA 030445Z 10005KT 9999 FEW014 SCT025 08/07 Q1014=
201103030415 METAR LIRA 030415Z 10010KT 8000 -RA FEW014 SCT025 08/07 Q1014=
201103030345 METAR LIRA 030345Z 08010KT 8000 -RA FEW014 BKN025 08/06 Q1014=
201103030315 METAR LIRA 030315Z 08009KT 8000 -RA FEW014 SCT025 08/06 Q1014=
201103030245 METAR LIRA 030245Z 10010KT 8000 -RA FEW014 BKN025 08/05 Q1014=
201103030215 METAR LIRA 030215Z 10010KT 8000 -RA FEW014 BKN025 08/06 Q1014=
201103030145 METAR LIRA 030145Z 09010KT 9999 -RA FEW014 BKN025 08/06 Q1014=
201103030115 METAR LIRA 030115Z 10013KT 8000 -RA FEW014 BKN025 07/05 Q1014=
201103030045 METAR LIRA 030045Z 09008G18KT 8000 -RA FEW012 BKN025 07/06
                        Q1014=
201103030015 METAR LIRA 030015Z 09012KT 7000 -RA FEW012 SCT025 07/05 Q1014=
201103022350 METAR LIRA 030045Z 09008G18KT 8000 -RA FEW012 BKN025 07/06
                        Q1014=
201103022345 METAR LIRA 022345Z 08010KT 7000 -RA FEW012 SCT025 07/05 Q1013=
201103022315 METAR LIRA 022315Z 10013KT 060V120 7000 -RA SCT012 SCT025
                        07/05 Q1013=
201103022245 METAR LIRA 022245Z 09015KT 7000 -RA SCT012 SCT025 07/05 Q1014=
201103022215 METAR LIRA 022215Z 09017G27KT 7000 -RA SCT012 SCT025 07/05
                        Q1014=
201103022145 METAR LIRA 022145Z 09014KT 7000 -RA SCT012 SCT025 07/05 Q1014=
201103022115 METAR LIRA 022115Z 09015KT 7000 -RA SCT012 SCT025 07/05 Q1014=
201103022045 METAR LIRA 022045Z 10017G27KT 7000 -RA FEW009 FEW010TCU SCT025
                        07/05 Q1015=
201103022015 METAR LIRA 022015Z 10016KT 7000 -RA FEW009 FEW010TCU SCT025
                        07/05 Q1015=
201103021945 METAR LIRA 021945Z 10015KT 7000 -RA FEW009 FEW010TCU SCT025
                        07/05 Q1014=
201103021915 METAR LIRA 021915Z 10017G28KT 7000 -RA FEW009 FEW010TCU SCT025
                        07/05 Q1014=
201103021845 METAR LIRA 021845Z 09014G25KT 7000 -RA FEW009 FEW010TCU SCT025
                        07/04 Q1014=
201103021815 METAR LIRA 021815Z 09013KT 070V130 7000 -RA FEW009 FEW010TCU
                        SCT025 07/05 Q1014=
201103021745 METAR LIRA 021745Z 09011KT 7000 -RA FEW009 FEW010TCU SCT025
                        08/05 Q1014 WS RWY 15=
201103021715 METAR LIRA 021715Z 07009G20KT 030V110 7000 -RA FEW009 FEW010TCU
                        BKN025 07/05 Q1014 WS RWY 15=
201103021645 METAR LIRA 021645Z 08008KT 040V120 7000 -RA FEW009 BKN025
                        07/05 Q1013=
201103021615 METAR LIRA 021615Z 10009KT 6000 -RA FEW009 FEW020TCU BKN025
                        07/05 Q1014=
201103021545 METAR LIRA 021545Z 08011KT 7000 -RA FEW009 FEW020TCU BKN030
                        08/05 Q1014=
201103021515 METAR LIRA 021515Z 08008KT 040V120 7000 -RA FEW009 FEW020TCU
                        BKN030 08/06 Q1014=
201103021445 METAR LIRA 021445Z 10003KT 7000 -RA FEW009 FEW020TCU BKN030
                        08/06 Q1013=
201103021415 METAR LIRA 021415Z 13006KT 7000 -RA FEW009 FEW018CB BKN020
                        08/06 Q1013=
201103021345 METAR LIRA 021345Z 16005KT 6000 -RA FEW009 FEW018CB BKN020
                        08/07 Q1013=
201103021315 METAR LIRA 021315Z 18008KT 150V220 5000 -RA BR SCT009 FEW018CB
                        BKN020 08/07 Q1013=
201103021245 METAR LIRA 021245Z 08005KT 050V120 7000 -RA FEW014 FEW018CB
                        BKN025 09/07 Q1013=
201103021215 METAR LIRA 021215Z 08007KT 9999 -RA FEW014 FEW018CB SCT030
                        BKN070 09/06 Q1013=
201103021145 METAR LIRA 021145Z 08008KT 9999 -RA FEW014 FEW018CB SCT030
                        BKN070 09/05 Q1013=
201103021115 METAR LIRA 021115Z 08008KT 9999 FEW014 FEW018CB SCT030 09/05
                        Q1013=
201103021045 METAR LIRA 021045Z 08011KT 9999 FEW014 FEW018CB SCT030 09/06
                        Q1013=
201103021015 METAR LIRA 021015Z 06009KT 9999 FEW014 FEW018CB SCT030 09/07
                        Q1012=
201103020945 METAR LIRA 020945Z 05009KT 9999 -RA SCT014 SCT030 08/06 Q1012=
201103020915 METAR LIRA 020915Z 09009KT 9999 -RA FEW013 FEW020TCU BKN030
                        08/06 Q1013=
201103020845 METAR LIRA 020845Z 07005KT 9999 -RA FEW013 FEW020TCU BKN030
                        07/05 Q1012=
201103020815 METAR LIRA 020815Z 05007KT 9999 FEW013 FEW020TCU BKN030 05/04
                        Q1012=
201103020745 METAR LIRA 020745Z 04006KT 360V070 8000 FEW013 FEW020TCU
                        SCT030 05/04 Q1012=
201103020715 METAR LIRA 020715Z 04007KT 8000 FEW003 FEW020CB SCT025 05/04
                        Q1012=
201103020645 METAR LIRA 020645Z 03005KT 9000 -RA FEW003 FEW020CB SCT025
                        05/04 Q1012=
201103020615 METAR LIRA 020615Z 03004KT 9000 -RA FEW003 FEW018CB SCT025
                        05/04 Q1012=
201103020545 METAR LIRA 020545Z 04005KT 9999 -RA FEW016 FEW020CB SCT025
                        04/04 Q1011=
201103020515 METAR LIRA 020515Z 03005KT 9999 -RA FEW020TCU SCT035 04/03
                        Q1011=
201103020445 METAR LIRA 020445Z 03005KT 340V060 9999 FEW020TCU SCT035
                        04/03 Q1010=
201103020415 METAR LIRA 020415Z 04005KT 9999 FEW035 04/03 Q1010=
201103020345 METAR LIRA 020345Z 03004KT 9999 FEW080 05/04 Q1010=
201103020315 METAR LIRA 020315Z 04005KT 9999 FEW017 SCT080 05/04 Q1010=
201103020245 METAR LIRA 020245Z 03004KT 9000 FEW004 SCT080 05/04 Q1010=
201103020215 METAR LIRA 020215Z 03004KT 7000 FEW004 05/05 Q1010=
201103020145 METAR LIRA 020145Z 04005KT 5000 BR SCT004 SCT080 05/05 Q1010=
201103020115 METAR LIRA 020115Z 04005KT 5000 BR SCT006 SCT014 FEW017CB
                        05/04 Q1010=
201103020045 METAR LIRA 020045Z 03006KT 010V070 5000 -RA BR SCT006 SCT014
                        FEW017CB 06/05 Q1010=
201103020015 METAR LIRA 020015Z 02006KT 350V070 5000 -RA BR SCT006 SCT014
                        FEW017CB 07/06 Q1010=
201103012350 METAR LIRA 020045Z 03006KT 010V070 5000 -RA BR SCT006 SCT014
                        FEW017CB 06/05 Q1010=
201103012345 METAR LIRA 012345Z 03006KT 6000 -RA SCT007 SCT014 FEW020CB
                        07/06 Q1010=
201103012315 METAR LIRA 012315Z 01005KT 330V040 5000 -RA BR SCT006 SCT014
                        FEW017CB 07/06 Q1010=
201103012245 METAR LIRA 012245Z 03006KT 340V050 6000 SCT006 SCT014 07/07
                        Q1009=
201103012215 METAR LIRA 012215Z 02005KT 350V070 6000 SCT006 SCT014 08/07
                        Q1009=
201103012145 METAR LIRA 012145Z 04004KT 6000 -RA SCT006 SCT014 08/07 Q1009=
201103012115 METAR LIRA 012115Z 03005KT 7000 -RA FEW006 SCT014 BKN030
                        08/07 Q1009=
201103012045 METAR LIRA 012045Z 03005KT 7000 -RA FEW008 SCT014 BKN030
                        08/07 Q1010=
201103012015 METAR LIRA 012015Z 04005KT 7000 -RA FEW010 SCT015 08/07 Q1009
                        RETS=
201103011945 METAR LIRA 011945Z 03003KT 7000 -RA SCT014 FEW018CB BKN030
                        08/07 Q1008 RETS=
201103011915 METAR LIRA 011915Z 00000KT 6000 -TSRA FEW010 SCT015 FEW018CB
                        BKN025 08/07 Q1008=
201103011845 METAR LIRA 011845Z 06005KT 030V100 6000 -TSRA FEW010 SCT015
                        FEW018CB BKN025 08/07 Q1008=
201103011815 METAR LIRA 011815Z 07007KT 050V110 4000 -TSRA BR FEW010 SCT015
                        FEW017CB 08/07 Q1008=
201103011745 METAR LIRA 011745Z 10004KT 5000 -RA BR FEW010 SCT015 BKN060
                        09/07 Q1007 RERA=
201103011715 METAR LIRA 011715Z 13005KT 5000 RA BR FEW010 SCT015 BKN060
                        09/08 Q1007=
201103011645 METAR LIRA 011645Z 12005KT 6000 -RA FEW010 SCT014 BKN025
                        09/08 Q1007=
201103011615 METAR LIRA 011615Z 16005KT 6000 -RA FEW010 SCT014 BKN025
                        09/08 Q1007=
201103011545 METAR LIRA 011545Z 17008KT 9999 -RA SCT014 SCT025 10/09 Q1007=
201103011515 METAR LIRA 011515Z 19008KT 9999 -RA SCT016 SCT030 10/09 Q1007=
201103011445 METAR LIRA 011445Z 18005KT 9999 -RA SCT016 SCT030 10/09 Q1007=
201103011415 METAR LIRA 011415Z 20003KT 9999 -RA SCT016 SCT030 10/09 Q1007=
201103011345 METAR LIRA 011345Z 22003KT 8000 -RA SCT017 SCT030 11/09 Q1007=
201103011315 METAR LIRA 011315Z 31003KT 9999 -RA SCT018 BKN030 11/09 Q1007=
201103011245 METAR LIRA 011245Z 21002KT 9999 SCT018 BKN030 11/09 Q1008=
201103011215 METAR LIRA 011215Z 24004KT 9999 SCT018 BKN030 11/09 Q1008=
201103011145 METAR LIRA 011145Z 21003KT 9999 FEW018 BKN035 11/08 Q1009=
201103011115 METAR LIRA 011115Z 21001KT 9999 FEW018 BKN035 11/08 Q1009=
201103011045 METAR LIRA 011045Z 06004KT 9999 -RA FEW018 BKN035 10/07 Q1009=
201103011015 METAR LIRA 011015Z 07006KT 8000 -RA FEW018 BKN035 10/07 Q1009=
201103010945 METAR LIRA 010945Z 10003KT 8000 FEW018 BKN035 10/06 Q1009=
201103010915 METAR LIRA 010915Z 10008KT 6000 -RA FEW018 BKN035 10/06 Q1009=
201103010845 METAR LIRA 010845Z 09007KT 8000 -RA SCT018 BKN035 11/06 Q1009=
201103010815 METAR LIRA 010815Z 09012KT 060V130 9999 FEW018 BKN030 10/05
                        Q1009=
201103010745 METAR LIRA 010745Z 09009KT 9999 FEW018 BKN030 08/05 Q1009=
201103010715 METAR LIRA 010715Z 01003KT 9999 -RA FEW018 BKN030 07/06 Q1010=
201103010645 METAR LIRA 010645Z 03004KT 9999 -RA FEW018 BKN030 07/06 Q1010=
201103010615 METAR LIRA 010615Z 19003KT 9999 -RA FEW018 BKN030 07/06 Q1010=
201103010545 METAR LIRA 010545Z 05002KT 9999 -RA FEW018 SCT030 07/06 Q1010=
201103010515 METAR LIRA 010515Z 04002KT 9999 FEW020 SCT030 07/06 Q1010=
201103010445 METAR LIRA 010445Z 01001KT 9999 FEW020 SCT030 07/06 Q1010=
201103010415 METAR LIRA 010415Z 06003KT 9999 FEW020 SCT030 07/06 Q1011=
201103010345 METAR LIRA 010345Z 08001KT 9999 FEW020 SCT030 07/06 Q1011=
201103010315 METAR LIRA 010315Z 03001KT 9999 FEW020 SCT030 07/06 Q1011=
201103010245 METAR LIRA 010245Z 01002KT 9999 FEW020 SCT030 07/07 Q1012=
201103010215 METAR LIRA 010215Z 01003KT 9999 FEW020 BKN070 08/07 Q1012=
201103010145 METAR LIRA 010145Z 01004KT 9999 FEW020 BKN070 08/07 Q1013=
201103010115 METAR LIRA 010115Z 02004KT 9999 FEW020 BKN070 08/07 Q1013=
201103010045 METAR LIRA 010045Z 02003KT 9999 FEW020 BKN070 08/06 Q1013=
201103010015 METAR LIRA 010015Z 02003KT 9999 FEW020 BKN070 08/06 Q1014=
201102282345 METAR LIRA 282345Z 02005KT 9999 FEW020 BKN070 09/06 Q1014=
201102282315 METAR LIRA 282315Z 05004KT 9999 FEW020 BKN070 09/06 Q1014=
201102282245 METAR LIRA 282245Z 06004KT 9999 FEW020 BKN070 09/07 Q1014=
201102282215 METAR LIRA 282215Z 07006KT 9999 FEW020 BKN070 09/06 Q1014=
201102282145 METAR LIRA 282145Z 07005KT 9999 FEW020 BKN070 08/06 Q1014=
201102282115 METAR LIRA 282115Z 08005KT 9999 FEW020 BKN080 08/06 Q1014=
201102282045 METAR LIRA 282045Z 09010KT 9999 FEW020 BKN070 08/05 Q1014=
201102282015 METAR LIRA 282015Z 06004KT 9999 FEW020 BKN070 08/06 Q1014=
201102281945 METAR LIRA 281945Z 08006KT 9999 FEW020 BKN080 09/06 Q1014=
201102281915 METAR LIRA 281915Z 11007KT 9999 FEW020 BKN080 08/06 Q1014=
201102281845 METAR LIRA 281845Z 09007KT 9999 FEW020 BKN080 08/06 Q1014=
201102281815 METAR LIRA 281815Z 09002KT 9999 FEW016 BKN070 08/06 Q1014=
201102281745 METAR LIRA 281745Z 10006KT 9999 -RA FEW016 BKN030 08/07 Q1013=
201102281715 METAR LIRA 281715Z 11006KT 9999 -RA FEW016 FEW020CB SCT035
                        08/07 Q1013=
201102281645 METAR LIRA 281645Z 12009KT 9999 -RA FEW016 FEW020CB SCT035
                        08/06 Q1013=
201102281615 METAR LIRA 281615Z 12013KT 9999 -RA FEW016 FEW020TCU SCT040
                        08/05 Q1012=
201102281545 METAR LIRA 281545Z 12006KT 9999 -RA FEW016 FEW020TCU SCT030
                        09/05 Q1012=
201102281515 METAR LIRA 281515Z 11006KT 9999 FEW016 FEW020TCU SCT030 09/05
                        Q1012=
201102281445 METAR LIRA 281445Z 10006KT 060V130 9999 FEW016 FEW020TCU
                        SCT035 09/05 Q1012=
201102281415 METAR LIRA 281415Z 11012KT 9999 FEW016 FEW020TCU SCT035 09/05
                        Q1013=
201102281345 METAR LIRA 281345Z 11015KT 9999 FEW016 FEW020TCU SCT035 09/05
                        Q1013=
201102281315 METAR LIRA 281315Z 12013KT 9999 FEW016 FEW020TCU SCT035 10/06
                        Q1013=
201102281245 METAR LIRA 281245Z 11013KT 9999 FEW016 FEW020TCU SCT035 10/06
                        Q1013=
201102281215 METAR LIRA 281215Z 14012KT 090V160 9999 FEW018 FEW020TCU
                        SCT030 12/05 Q1013=
201102281145 METAR LIRA 281145Z 14012KT 9999 -RA FEW018 FEW020TCU SCT030
                        11/06 Q1013=
201102281115 METAR LIRA 281115Z 11007KT 9999 -RA FEW018 FEW020TCU SCT030
                        11/07 Q1013=
201102281045 METAR LIRA 281045Z 10009KT 060V120 9000 -RA FEW018 FEW020TCU
                        SCT030 11/07 Q1013=
201102281015 METAR LIRA 281015Z 11014KT 9000 -RA FEW015 FEW018CB SCT030
                        08/06 Q1013=
201102280945 METAR LIRA 280945Z 11014KT 8000 -RA FEW015 FEW018CB SCT030
                        08/06 Q1013=
201102280915 METAR LIRA 280915Z 11013KT 8000 SCT015 FEW020TCU SCT060 09/05
                        Q1012=
201102280845 METAR LIRA 280845Z 11013KT 9999 FEW018 FEW020TCU BKN070 09/05
                        Q1012=
201102280815 METAR LIRA 280815Z 11013KT 9000 FEW016 FEW020TCU BKN070 09/05
                        Q1012=
201102280745 METAR LIRA 280745Z 11013KT 8000 SCT016 FEW019TCU SCT060 08/05
                        Q1012=
201102280715 METAR LIRA 280715Z 09010KT 8000 SCT016 FEW019CB SCT060 07/05
                        Q1012 RERA=
201102280645 METAR LIRA 280645Z 11014KT 8000 SCT015 FEW018CB SCT060 07/05
                        Q1011 RERA=
201102280615 METAR LIRA 280615Z 11014KT 9999 SCT015 FEW017CB SCT060 07/04
                        Q1011=
201102280545 METAR LIRA 280545Z 11014KT 9999 SCT015 FEW018TCU SCT025 07/04
                        Q1011=
201102280515 METAR LIRA 280515Z 11013KT 9999 FEW015 FEW018TCU SCT025 07/04
                        Q1011=
201102280445 METAR LIRA 280445Z 11005KT 9999 FEW015 SCT025 07/04 Q1010=
201102280415 METAR LIRA 280415Z 11011KT 9999 FEW018 SCT025 07/03 Q1010=
201102280345 METAR LIRA 280345Z 11014G24KT 9999 FEW018 SCT025 07/03 Q1010=
201102280315 METAR LIRA 280315Z 11011KT 9999 SCT030 BKN070 07/03 Q1010=
201102280245 METAR LIRA 280245Z 12016KT 9999 FEW030 SCT070 07/04 Q1010=
201102280215 METAR LIRA 280215Z 11015KT 9999 FEW030 SCT070 07/04 Q1010=
201102280145 METAR LIRA 280145Z 12017KT 9999 FEW030 SCT070 07/04 Q1010=
201102280115 METAR LIRA 280115Z 11010KT 9999 FEW030 SCT070 06/04 Q1011=
201102280045 METAR LIRA 280045Z 13008KT 9999 FEW018 SCT070 06/04 Q1011=
201102280015 METAR LIRA 280015Z 11014KT 9999 SCT070 06/04 Q1011=
201102272350 METAR LIRA 280045Z 13008KT 9999 FEW018 SCT070 06/04 Q1011=
201102272345 METAR LIRA 272345Z 11002KT 9999 FEW018 SCT070 06/04 Q1011=
201102272315 METAR LIRA 272315Z 10014KT 9999 FEW018 SCT070 06/04 Q1011=
201102272245 METAR LIRA 272245Z 08007KT 060V120 9999 -RA FEW018 SCT030
                        06/03 Q1011=
201102272215 METAR LIRA 272215Z 09008KT 9999 -RA FEW018 SCT070 06/04 Q1011=
201102272145 METAR LIRA 272145Z 11003KT 9999 FEW018 SCT070 06/05 Q1011=
201102272115 METAR LIRA 272115Z 31003KT 9999 FEW017 FEW018CB SCT070 06/06
                        Q1011 RETS=
201102272045 METAR LIRA 272045Z 05007KT 9999 FEW017 FEW018CB BKN030 06/06
                        Q1012 RETS=
201102272015 METAR LIRA 272015Z 05007KT 330V080 8000 -TSRA SCT015 FEW018CB
                        BKN030 06/06 Q1012=
201102271945 METAR LIRA 271945Z 04005KT 5000 -TSRA BR SCT015 FEW018CB
                        BKN025 07/07 Q1012=
201102271915 METAR LIRA 271915Z 31008KT 250V330 5000 -TSRA BR SCT015 FEW017CB
                        BKN025 07/07 Q1012 WS RWY 15=
201102271845 METAR LIRA 271845Z 14013KT 050V160 9000 -TSRA SCT017 FEW018CB
                        BKN025 09/05 Q1010 WS RWY 15=
201102271815 METAR LIRA 271815Z 13022KT 7000 TS SCT017 FEW018CB SCT030
                        09/05 Q1010=
201102271745 METAR LIRA 271745Z 13014KT 9999 FEW017 FEW018CB SCT030 09/06
                        Q1010=
201102271715 METAR LIRA 271715Z 14013KT 9999 SCT017 FEW020CB 08/05 Q1010=
201102271645 METAR LIRA 271645Z 14015KT 8000 -RA SCT017 FEW020CB SCT030
                        09/07 Q1011 RERA=
201102271615 METAR LIRA 271615Z 15014KT 9999 SCT017 09/06 Q1011=
201102271545 METAR LIRA 271545Z 15014KT 8000 SCT015 SCT025 09/07 Q1011=
201102271515 METAR LIRA 271515Z 17011G22KT 7000 SCT015 SCT025 09/07 Q1011=
201102271445 METAR LIRA 271445Z 17012KT 8000 SCT015 SCT025 09/06 Q1011=
201102271415 METAR LIRA 271415Z 17011KT 7000 -RA SCT015 SCT025 09/07 Q1011=
201102271345 METAR LIRA 271345Z 18008KT 130V200 8000 -RA SCT018 SCT030
                        10/07 Q1011=
201102271315 METAR LIRA 271315Z 17013KT 8000 SCT018 SCT030 10/05 Q1011=
201102271245 METAR LIRA 271245Z 16011KT 8000 SCT018 BKN070 10/05 Q1012=
201102271215 METAR LIRA 271215Z 16011KT 8000 FEW020 SCT035 BKN080 10/05
                        Q1012=
201102271145 METAR LIRA 271145Z 17012KT 8000 FEW020 SCT035 BKN080 10/05
                        Q1012=
201102271115 METAR LIRA 271115Z 16014KT 130V200 8000 FEW040 BKN080 10/04
                        Q1012=
201102271045 METAR LIRA 271045Z 16008KT 8000 FEW040 BKN080 10/04 Q1013=
201102271015 METAR LIRA 271015Z 16007KT 8000 FEW040 BKN080 09/04 Q1013=
201102270945 METAR LIRA 270945Z 16006KT 7000 FEW040 BKN080 09/04 Q1013=
201102270915 METAR LIRA 270915Z 00000KT 6000 FEW040 BKN080 06/04 Q1013=
201102270845 METAR LIRA 270845Z 00000KT 7000 FEW040 BKN080 06/04 Q1013=
201102270815 METAR LIRA 270815Z 00000KT 7000 FEW040 BKN080 06/05 Q1013=
201102270800 LIRA CONTUS=
201102270745 METAR LIRA 270745Z 14002KT 7000 FEW040 BKN080 06/05 Q1013=
201102270715 METAR LIRA 270715Z 11004KT 7000 FEW040 BKN080 03/02 Q1013=
201102270645 METAR LIRA 270645Z 03002KT 7000 FEW040 BKN080 01/01 Q1013=
201102270615 METAR LIRA 270615Z 04002KT 8000 FEW040 SCT080 01/00 Q1013=
201102270545 METAR LIRA 270545Z 01001KT 8000 FEW080 01/00 Q1013=
201102270515 METAR LIRA 270515Z 00000KT 9999 FEW080 01/00 Q1013=
201102270445 METAR LIRA 270445Z 00000KT CAVOK 01/M00 Q1014=
201102270415 METAR LIRA 270415Z 36001KT CAVOK 01/M00 Q1014=
201102270345 METAR LIRA 270345Z 06001KT CAVOK 01/M01 Q1014=
201102270315 METAR LIRA 270315Z 09001KT CAVOK 02/M00 Q1014=
201102270245 METAR LIRA 270245Z 09004KT CAVOK 01/M01 Q1015=
201102270215 METAR LIRA 270215Z 09004KT CAVOK 01/M01 Q1015=
201102270145 METAR LIRA 270145Z 00000KT CAVOK 01/M01 Q1015=
201102270115 METAR LIRA 270115Z 00000KT CAVOK 01/M00 Q1015=
201102270045 METAR LIRA 270045Z 00000KT CAVOK 02/M00 Q1015=
201102270015 METAR LIRA 270015Z 00000KT CAVOK 02/00 Q1015=
201102262350 METAR LIRA 270045Z 00000KT CAVOK 02/M00 Q1015=
201102262345 METAR LIRA 262345Z 15003KT CAVOK 02/00 Q1015=
201102262315 METAR LIRA 262315Z 15004KT CAVOK 02/01 Q1015=
201102262245 METAR LIRA 262245Z 16004KT CAVOK 02/00 Q1015=
201102262215 METAR LIRA 262215Z 24002KT CAVOK 03/00 Q1015=
201102262145 METAR LIRA 262145Z 00000KT CAVOK 03/01 Q1015=
201102262115 METAR LIRA 262115Z 10002KT CAVOK 04/01 Q1015=
201102262045 METAR LIRA 262045Z 00000KT CAVOK 04/01 Q1015=
201102262015 METAR LIRA 262015Z 33001KT CAVOK 04/01 Q1015=
201102261945 METAR LIRA 261945Z 09005KT CAVOK 05/01 Q1015=
201102261915 METAR LIRA 261915Z 05002KT CAVOK 06/01 Q1015=
201102261845 METAR LIRA 261845Z 05002KT CAVOK 06/00 Q1015=
201102261815 METAR LIRA 261815Z 00000KT CAVOK 07/01 Q1015=
201102261745 METAR LIRA 261745Z 36004KT CAVOK 06/M01 Q1015=
201102261715 METAR LIRA 261715Z 35006KT 320V020 CAVOK 07/00 Q1015=
201102261645 METAR LIRA 261645Z 34006KT CAVOK 08/M00 Q1015=
201102261615 METAR LIRA 261615Z 35006KT 9999 FEW030 09/01 Q1015=
201102261545 METAR LIRA 261545Z 33010KT 300V010 9999 FEW030 09/M01 Q1014=
201102261515 METAR LIRA 261515Z 35007KT 320V050 9999 FEW030 10/M01 Q1014=
201102261445 METAR LIRA 261445Z 34009KT 300V030 9999 FEW030 09/M01 Q1014=
201102261415 METAR LIRA 261415Z 34008KT 9999 FEW030 09/M01 Q1014=
201102261345 METAR LIRA 261345Z 33010KT 290V360 9999 FEW030 09/M01 Q1014=
201102261315 METAR LIRA 261315Z 30008KT 9999 FEW030 09/M01 Q1015=
201102261245 METAR LIRA 261245Z 36008KT 300V070 9999 FEW022 SCT070 09/M01
                        Q1015=
201102261215 METAR LIRA 261215Z 36004KT 320V030 9999 FEW022 SCT070 09/M01
                        Q1015=
201102261145 METAR LIRA 261145Z 34008KT 310V020 9999 FEW022 SCT070 09/M02
                        Q1015=
201102261115 METAR LIRA 261115Z 35006KT 300V020 9999 FEW022 08/M01 Q1016=
201102261045 METAR LIRA 261045Z 35007KT 330V050 9999 FEW070 08/M01 Q1016=
201102261015 METAR LIRA 261015Z 03007KT 320V007 9999 FEW070 SCT080 06/M00
                        Q1016=
201102260945 METAR LIRA 260945Z 05005KT 010V090 9999 SCT070 SCT080 04/00
                        Q1016=
201102260915 METAR LIRA 260915Z 02009KT 340V050 9999 FEW030 SCT090 03/M00
                        Q1016=
201102260845 METAR LIRA 260845Z 01007KT 9999 FEW030 SCT080 03/M01 Q1016=
201102260815 METAR LIRA 260815Z 02010KT 9999 FEW030 SCT080 02/M01 Q1016=
201102260745 METAR LIRA 260745Z 02007KT 330V050 9999 FEW030 BKN070 02/M01
                        Q1016=
201102260715 METAR LIRA 260715Z 02008KT 9999 SCT070 SCT200 01/M02 Q1016=
201102260645 METAR LIRA 260645Z 02006KT 9999 FEW070 SCT200 00/M03 Q1016=
201102260615 METAR LIRA 260615Z 02007KT 9999 FEW070 M00/M03 Q1016=
201102260545 METAR LIRA 260545Z 03004KT 9999 FEW070 M00/M03 Q1016=
201102260515 METAR LIRA 260515Z 04006KT CAVOK 00/M03 Q1016=
201102260445 METAR LIRA 260445Z 02005KT CAVOK 00/M04 Q1016=
201102260415 METAR LIRA 260415Z 03004KT CAVOK 00/M05 Q1016=
201102260345 METAR LIRA 260345Z 01007KT CAVOK 01/M05 Q1016=
201102260315 METAR LIRA 260315Z 01005KT 330V040 CAVOK 01/M06 Q1016=
201102260245 METAR LIRA 260245Z 01005KT 340V060 CAVOK 01/M07 Q1016=
201102260215 METAR LIRA 260215Z 36005KT CAVOK 01/M07 Q1016=
201102260145 METAR LIRA 260145Z 02002KT CAVOK 01/M07 Q1016=
201102260115 METAR LIRA 260115Z 36002KT 310V040 CAVOK 02/M08 Q1016=
201102260045 METAR LIRA 260045Z 35010KT CAVOK 02/M07 Q1016=
201102260015 METAR LIRA 260015Z 35009KT 330V030 CAVOK 02/M07 Q1017=
201102252350 METAR LIRA 260045Z 35010KT CAVOK 02/M07 Q1016=
201102252345 METAR LIRA 252345Z 06003KT CAVOK 02/M08 Q1017=
201102252315 METAR LIRA 252315Z 35012KT 300V020 CAVOK 02/M08 Q1017=
201102252245 METAR LIRA 252245Z 05005KT CAVOK 02/M08 Q1017=
201102252215 METAR LIRA 252215Z 01012KT 330V040 CAVOK 03/M08 Q1017=
201102252145 METAR LIRA 252145Z 35013G25KT CAVOK 03/M09 Q1018=
201102252115 METAR LIRA 252115Z 01011KT 320V030 CAVOK 03/M10 Q1018=
201102252045 METAR LIRA 252045Z 36011KT CAVOK 04/M11 Q1018=
201102252015 METAR LIRA 252015Z 35008KT 300V040 9999 FEW080 04/M11 Q1017=
201102251945 METAR LIRA 251945Z 35010KT 300V010 CAVOK 05/M12 Q1018=
201102251915 METAR LIRA 251915Z 35011KT 330V030 CAVOK 05/M12 Q1017=
201102251845 METAR LIRA 251845Z 36011KT 320V030 CAVOK 05/M13 Q1017=
201102251815 METAR LIRA 251815Z 36013KT CAVOK 05/M13 Q1017=
201102251745 METAR LIRA 251745Z 35018G29KT CAVOK 06/M14 Q1017=
201102251715 METAR LIRA 251715Z 35015G30KT 320V020 CAVOK 07/M13 Q1017=
201102251645 METAR LIRA 251645Z 34019G33KT CAVOK 07/M12 Q1017=
201102251615 METAR LIRA 251615Z 34017KT CAVOK 08/M11 Q1016=
201102251545 METAR LIRA 251545Z 35016G31KT CAVOK 09/M11 Q1017=
201102251515 METAR LIRA 251515Z 33016G27KT CAVOK 10/M10 Q1017=
201102251445 METAR LIRA 251445Z 03010KT 340V060 CAVOK 10/M10 Q1017=
201102251415 METAR LIRA 251415Z 01014KT 330V060 9999 FEW035 11/M09 Q1017=
201102251345 METAR LIRA 251345Z 36016G26KT CAVOK 11/M09 Q1017=
201102251315 METAR LIRA 251315Z 36015G27KT 330V030 CAVOK 11/M10 Q1017=
201102251245 METAR LIRA 251245Z 02016G27KT CAVOK 11/M10 Q1017=
201102251215 METAR LIRA 251215Z 01018G30KT 340V060 CAVOK 11/M10 Q1017=
201102251145 METAR LIRA 251145Z 36016G30KT 320V030 CAVOK 11/M11 Q1017=
201102251115 METAR LIRA 251115Z 02018G31KT 330V060 CAVOK 11/M11 Q1018=
201102251045 METAR LIRA 251045Z 02015G28KT 320V050 CAVOK 11/M10 Q1018=
201102251015 METAR LIRA 251015Z 36019G30KT 310V020 CAVOK 10/M10 Q1018=
201102250945 METAR LIRA 250945Z 36011KT 310V050 CAVOK 10/M05 Q1018=
201102250915 METAR LIRA 250915Z 09001KT CAVOK 09/M04 Q1017=
201102250845 METAR LIRA 250845Z 00000KT CAVOK 07/M05 Q1018=
201102250815 METAR LIRA 250815Z 35002KT CAVOK 05/M05 Q1018=
201102250745 METAR LIRA 250745Z 01002KT CAVOK 04/M05 Q1018=
201102250715 METAR LIRA 250715Z 06004KT CAVOK 03/M05 Q1018=
201102250645 METAR LIRA 250645Z 03005KT 360V070 CAVOK 02/M06 Q1017=
201102250615 METAR LIRA 250615Z 03006KT 360V060 CAVOK 02/M07 Q1017=
201102250545 METAR LIRA 250545Z 02011KT 350V060 CAVOK 02/M08 Q1017=
201102250515 METAR LIRA 250515Z 01010KT 330V050 CAVOK 02/M08 Q1017=
201102250445 METAR LIRA 250445Z 02002KT CAVOK 01/M10 Q1017=
201102250415 METAR LIRA 250415Z 04003KT CAVOK 01/M10 Q1017=
201102250345 METAR LIRA 250345Z 05004KT CAVOK 02/M11 Q1017=
201102250315 METAR LIRA 250315Z 04008KT 010V070 CAVOK 02/M10 Q1017=
201102250245 METAR LIRA 250245Z 02010KT 340V060 CAVOK 02/M10 Q1017=
201102250215 METAR LIRA 250215Z 03007KT 340V090 CAVOK 02/M10 Q1018=
201102250145 METAR LIRA 250145Z 02009KT 350V060 CAVOK 02/M11 Q1018=
201102250115 METAR LIRA 250115Z 36009KT 310V030 CAVOK 02/M11 Q1018=
201102250045 METAR LIRA 250045Z 02008KT 350V060 CAVOK 02/M11 Q1018=
201102250015 METAR LIRA 250015Z 03007KT 350V060 CAVOK 02/M11 Q1018=
201102242350 METAR LIRA 250045Z 02008KT 350V060 CAVOK 02/M11 Q1018=
201102242345 METAR LIRA 242345Z 03009KT CAVOK 02/M10 Q1018=
201102242315 METAR LIRA 242315Z 02005KT 350V050 CAVOK 02/M11 Q1018=
201102242245 METAR LIRA 242245Z 08004KT CAVOK 02/M11 Q1018=
201102242215 METAR LIRA 242215Z 36008KT 330V030 CAVOK 03/M11 Q1018=
201102242145 METAR LIRA 242145Z 01010KT 330V040 CAVOK 03/M11 Q1018=
201102242115 METAR LIRA 242115Z 36008KT 320V040 CAVOK 03/M11 Q1018=
201102242045 METAR LIRA 242045Z 35010KT 320V020 CAVOK 03/M11 Q1018=
201102242015 METAR LIRA 242015Z 36009KT CAVOK 04/M10 Q1017=
201102241945 METAR LIRA 241945Z 36009KT CAVOK 04/M10 Q1017=
201102241915 METAR LIRA 241915Z 35013KT CAVOK 04/M10 Q1017=
201102241845 METAR LIRA 241845Z 36010G20KT 300V020 CAVOK 04/M10 Q1017=
201102241815 METAR LIRA 241815Z 35010KT 310V040 CAVOK 05/M10 Q1017=
201102241745 METAR LIRA 241745Z 34015KT 310V030 CAVOK 05/M11 Q1017=
201102241715 METAR LIRA 241715Z 34015KT CAVOK 06/M11 Q1016=
201102241645 METAR LIRA 241645Z 33014KT CAVOK 07/M11 Q1016=
201102241615 METAR LIRA 241615Z 34017G29KT CAVOK 08/M11 Q1016=
201102241545 METAR LIRA 241545Z 34018G30KT CAVOK 08/M10 Q1015=
201102241515 METAR LIRA 241515Z 34018G28KT CAVOK 08/M10 Q1015=
201102241445 METAR LIRA 241445Z 34019G32KT CAVOK 09/M10 Q1015=
201102241415 METAR LIRA 241415Z 33017G28KT CAVOK 09/M09 Q1015=
201102241345 METAR LIRA 241345Z 34019G31KT 290V010 CAVOK 09/M09 Q1015=
201102241315 METAR LIRA 241315Z 35018G30KT CAVOK 09/M09 Q1015=
201102241245 METAR LIRA 241245Z 35017G30KT 290V020 CAVOK 09/M08 Q1016=
201102241215 METAR LIRA 241215Z 35019G39KT 310V010 CAVOK 09/M08 Q1016=
201102241145 METAR LIRA 241145Z 36018G31KT 320V020 CAVOK 08/M09 Q1016=
201102241115 METAR LIRA 241115Z 35018G31KT 310V020 CAVOK 08/M09 Q1016=
201102241045 METAR LIRA 241045Z 36020G32KT CAVOK 07/M09 Q1016=
201102241015 METAR LIRA 241015Z 36018G30KT 330V040 CAVOK 07/M08 Q1016=
201102240945 METAR LIRA 240945Z 36019G30KT 320V030 CAVOK 06/M09 Q1016=
201102240915 METAR LIRA 240915Z 36016G26KT CAVOK 05/M09 Q1016=
201102240845 METAR LIRA 240845Z 36014G32KT 310V060 CAVOK 04/M09 Q1016=
201102240815 METAR LIRA 240815Z 36016G29KT 320V030 CAVOK 03/M10 Q1016=
201102240745 METAR LIRA 240745Z 36013G28KT CAVOK 03/M09 Q1016=
201102240715 METAR LIRA 240715Z 01013G26KT 330V040 CAVOK 02/M09 Q1016=
201102240645 METAR LIRA 240645Z 36012G23KT 320V030 CAVOK 02/M09 Q1016=
201102240615 METAR LIRA 240615Z 36016G26KT CAVOK 01/M09 Q1015=
201102240545 METAR LIRA 240545Z 36013KT CAVOK 01/M10 Q1015=
201102240515 METAR LIRA 240515Z 35011G21KT CAVOK 01/M10 Q1015=
201102240445 METAR LIRA 240445Z 35012G28KT 310V010 CAVOK 01/M09 Q1015=
201102240415 METAR LIRA 240415Z 34015KT CAVOK 01/M09 Q1015=
201102240345 METAR LIRA 240345Z 34012KT CAVOK 01/M09 Q1015=
201102240315 METAR LIRA 240315Z 35010KT CAVOK 02/M09 Q1015=
201102240245 METAR LIRA 240245Z 35009KT CAVOK 01/M09 Q1015=
201102240215 METAR LIRA 240215Z 35011KT 310V020 CAVOK 02/M09 Q1015=
201102240145 METAR LIRA 240145Z 35011G25KT 330V050 CAVOK 02/M10 Q1015=
201102240115 METAR LIRA 240115Z 01015KT CAVOK 02/M10 Q1015=
201102240045 METAR LIRA 240045Z 01013G23KT CAVOK 02/M09 Q1015=
201102240015 METAR LIRA 240015Z 36012G23KT CAVOK 02/M09 Q1015=
201102232350 METAR LIRA 240045Z 01013G23KT CAVOK 02/M09 Q1015=
201102232345 METAR LIRA 232345Z 01012G22KT 340V060 CAVOK 02/M10 Q1015=
201102232315 METAR LIRA 232315Z 36013KT 330V060 CAVOK 02/M10 Q1015=
201102232245 METAR LIRA 232245Z 35013G24KT CAVOK 02/M10 Q1014=
201102232215 METAR LIRA 232215Z 01010G23KT 350V050 CAVOK 02/M09 Q1014=
201102232145 METAR LIRA 232145Z 01010KT 340V050 CAVOK 02/M09 Q1014=
201102232115 METAR LIRA 232115Z 36009G23KT 320V030 CAVOK 02/M09 Q1014
                        WS RWY 33=
201102232045 METAR LIRA 232045Z 35011KT 320V030 CAVOK 02/M09 Q1014 RMK
                        WS RWY 33=
201102232015 METAR LIRA 232015Z 34010KT CAVOK 03/M09 Q1014=
201102231945 METAR LIRA 231945Z 36012KT CAVOK 03/M09 Q1014=
201102231915 METAR LIRA 231915Z 35015KT 300V020 CAVOK 04/M09 Q1013=
201102231845 METAR LIRA 231845Z 35013KT CAVOK 04/M09 Q1013=
201102231815 METAR LIRA 231815Z 34013KT CAVOK 04/M09 Q1012=
201102231745 METAR LIRA 231745Z 35017G27KT CAVOK 05/M09 Q1012=
201102231715 METAR LIRA 231715Z 35012G29KT 320V020 9999 FEW018 06/M08
                        Q1012=
201102231645 METAR LIRA 231645Z 35015KT 9999 FEW018 07/M07 Q1011=
201102231615 METAR LIRA 231615Z 35017G29KT 9999 FEW022 08/M06 Q1011=
201102231545 METAR LIRA 231545Z 34016G27KT 9999 FEW022 09/M05 Q1010=
201102231515 METAR LIRA 231515Z 34015G25KT 300V010 9999 FEW022 10/M04
                        Q1010=
201102231445 METAR LIRA 231445Z 34017KT 310V020 9999 FEW025 10/M04 Q1010=
201102231415 METAR LIRA 231415Z 36013G26KT 320V060 9999 FEW025 11/M03
                        Q1010=
201102231345 METAR LIRA 231345Z 35016G26KT 9999 FEW017 FEW022TCU 12/M03
                        Q1010=
201102231315 METAR LIRA 231315Z 35017G28KT 320V020 9999 FEW017 FEW022CB
                        12/M02 Q1010=
201102231245 METAR LIRA 231245Z 34015G26KT 310V010 9999 SCT025 SCT070
                        12/M01 Q1010=
201102231215 METAR LIRA 231215Z 35012G22KT 310V020 9999 SCT025 SCT070
                        11/M01 Q1010=
201102231145 METAR LIRA 231145Z 35012KT 320V020 9999 FEW025 SCT080 11/M00
                        Q1010=
201102231115 METAR LIRA 231115Z 34012KT 9999 FEW025 11/M00 Q1010=
201102231045 METAR LIRA 231045Z 36008KT 330V050 9999 FEW025 11/01 Q1010=
201102231015 METAR LIRA 231015Z 36011KT 310V040 9999 FEW025 10/01 Q1010=
201102230945 METAR LIRA 230945Z 36008KT 300V050 9999 FEW030 10/01 Q1010=
201102230915 METAR LIRA 230915Z 36008KT 280V030 9999 FEW035 SCT060 08/01
                        Q1010=
201102230845 METAR LIRA 230845Z 02005KT 320V050 9999 FEW035 SCT060 08/01
                        Q1010=
201102230815 METAR LIRA 230815Z 05005KT 9999 FEW035 SCT060 07/02 Q1009=
201102230745 METAR LIRA 230745Z 03005KT 360V060 9999 FEW030 SCT060 06/02
                        Q1009=
201102230715 METAR LIRA 230715Z 01006KT 330V040 9999 FEW060 05/01 Q1009=
201102230645 METAR LIRA 230645Z 35004KT 9999 FEW070 03/01 Q1008=
201102230615 METAR LIRA 230615Z 04003KT 9999 FEW080 03/01 Q1007=
201102230545 METAR LIRA 230545Z 03005KT 9999 FEW080 03/01 Q1007=
201102230515 METAR LIRA 230515Z 02003KT CAVOK 03/01 Q1007=
201102230445 METAR LIRA 230445Z 02006KT 9999 FEW070 04/01 Q1007=
201102230415 METAR LIRA 230415Z 36006KT 9999 FEW070 04/02 Q1007=
201102230345 METAR LIRA 230345Z 01005KT 9999 FEW070 04/M00 Q1007=
201102230315 METAR LIRA 230315Z 02005KT 9999 FEW070 04/02 Q1007=
201102230245 METAR LIRA 230245Z 01006KT 9999 FEW070 04/02 Q1007=
201102230215 METAR LIRA 230215Z 01007KT 9999 FEW070 04/02 Q1007=
201102230145 METAR LIRA 230145Z 03002KT 9999 FEW070 04/02 Q1007=
201102230115 METAR LIRA 230115Z 03004KT 9999 FEW070 05/02 Q1007=
201102230045 METAR LIRA 230045Z 02004KT 9999 SCT070 05/03 Q1007=
201102230015 METAR LIRA 230015Z 01005KT 9999 SCT070 06/04 Q1007=
201102222350 METAR LIRA 230045Z 02004KT 9999 SCT070 05/03 Q1007=
201102222345 METAR LIRA 222345Z 01004KT 9999 SCT070 07/05 Q1007=
201102222315 METAR LIRA 222315Z 01005KT 9999 FEW030 SCT070 07/06 Q1007=
201102222245 METAR LIRA 222245Z 36003KT 9999 FEW030 SCT070 07/05 Q1007=
201102222215 METAR LIRA 222215Z 35001KT 9999 FEW030 SCT070 08/05 Q1007=
201102222145 METAR LIRA 222145Z 10002KT 9999 FEW030 BKN070 08/05 Q1007=
201102222115 METAR LIRA 222115Z 03001KT 9999 FEW030 SCT070 08/06 Q1007=
201102222045 METAR LIRA 222045Z 06003KT 9999 FEW030 SCT070 08/06 Q1007=
201102222015 METAR LIRA 222015Z 04003KT 9999 FEW030 SCT070 08/06 Q1007=
201102221945 METAR LIRA 221945Z 06002KT 9999 FEW030 SCT080 08/06 Q1006=
201102221915 METAR LIRA 221915Z 00000KT 9999 FEW030 SCT070 08/06 Q1006=
201102221845 METAR LIRA 221845Z 00000KT 9999 FEW030 BKN080 09/06 Q1006=
201102221815 METAR LIRA 221815Z 00000KT 9999 FEW018 BKN070 09/07 Q1006=
201102221745 METAR LIRA 221745Z 18002KT 9999 FEW018 BKN070 09/06 Q1005=
201102221715 METAR LIRA 221715Z 22001KT 9999 SCT018 FEW020TCU SCT070 09/06
                        Q1005=
201102221645 METAR LIRA 221645Z 24002KT 9999 SCT018 FEW020TCU 10/06 Q1005=
201102221615 METAR LIRA 221615Z 22004KT 9999 SCT018 FEW020TCU 11/06 Q1005=
201102221545 METAR LIRA 221545Z 23003KT 9999 SCT018 FEW020TCU 11/06 Q1005=
201102221515 METAR LIRA 221515Z 23005KT 9999 SCT018 FEW020TCU 12/06 Q1005=
201102221445 METAR LIRA 221445Z 23006KT 210V270 9999 SCT018 FEW020TCU
                        13/06 Q1005=
201102221415 METAR LIRA 221415Z 24005KT 9999 SCT018 FEW020TCU 13/05 Q1005=
201102221345 METAR LIRA 221345Z 24004KT 9999 SCT018 12/05 Q1006=
201102221315 METAR LIRA 221315Z 25004KT 240V300 9999 SCT018 13/06 Q1006=
201102221245 METAR LIRA 221245Z 22003KT 9999 SCT018 13/05 Q1006=
201102221215 METAR LIRA 221215Z 15003KT 9999 SCT018 13/05 Q1006=
201102221145 METAR LIRA 221145Z 18001KT 9999 FEW017 13/06 Q1007=
201102221115 METAR LIRA 221115Z 21002KT 9999 FEW017 13/07 Q1007=
201102221045 METAR LIRA 221045Z 25002KT 9999 FEW017 11/06 Q1007=
201102221015 METAR COR LIRA 221015Z 34001KT 9999 FEW018 SCT200 09/05 Q1007=
201102220945 METAR LIRA 220945Z 03002KT 9999 FEW017 08/05 Q1007=
201102220915 METAR LIRA 220915Z 02003KT 9999 FEW080 07/04 Q1007=
201102220845 METAR LIRA 220845Z 02005KT 9999 FEW080 06/04 Q1007=
201102220815 METAR LIRA 220815Z 04004KT 9999 FEW080 05/03 Q1007=
201102220745 METAR LIRA 220745Z 01002KT 9999 FEW080 04/03 Q1007=
201102220715 METAR LIRA 220715Z 35001KT 9999 FEW080 04/03 Q1007=
201102220645 METAR LIRA 220645Z 04002KT 9999 FEW080 03/02 Q1007=
201102220615 METAR LIRA 220615Z 05002KT 9999 FEW080 02/01 Q1007=
201102220545 METAR LIRA 220545Z 02004KT CAVOK 02/02 Q1007=
201102220515 METAR LIRA 220515Z 05004KT CAVOK 02/02 Q1007=
201102220500 METAR LIRA CONTUS=
201102220445 METAR LIRA 220445Z 05005KT CAVOK 02/02 Q1007=
201102220415 METAR LIRA 220415Z 02004KT CAVOK 03/03 Q1007=
201102220345 METAR LIRA 220345Z 04003KT CAVOK 03/03 Q1007=
201102220315 METAR LIRA 220315Z 04002KT CAVOK 03/03 Q1007=
201102220300 METAR LIRA INTER LOW CLDS MOVING S=
201102220245 METAR LIRA 220245Z 03001KT CAVOK 03/03 Q1008=
201102220215 METAR LIRA 220215Z 05003KT CAVOK 04/03 Q1008=
201102220145 METAR LIRA 220145Z 05004KT CAVOK 04/03 Q1008=
201102220115 METAR LIRA 220115Z 06004KT CAVOK 03/03 Q1008=
201102220045 METAR LIRA 220045Z 06001KT CAVOK 03/03 Q1008=
201102220015 METAR LIRA 220015Z 00000KT CAVOK 04/03 Q1008=
201102212350 METAR LIRA 220045Z 06001KT CAVOK 03/03 Q1008=
201102212345 METAR LIRA 212345Z 04001KT CAVOK 04/03 Q1008=
201102212315 METAR LIRA 212315Z 00000KT CAVOK 04/03 Q1008=
201102212245 METAR LIRA 212245Z 03002KT CAVOK 05/03 Q1008=
201102212215 METAR LIRA 212215Z 03003KT CAVOK 05/03 Q1008=
201102212145 METAR LIRA 212145Z 03002KT CAVOK 06/03 Q1008=
201102212115 METAR LIRA 212115Z 02003KT CAVOK 06/04 Q1008=
201102212045 METAR LIRA 212045Z 36004KT CAVOK 06/04 Q1008=
201102212015 METAR LIRA 212015Z 36001KT 9999 FEW030 07/04 Q1008=
201102211945 METAR LIRA 211945Z 02002KT 9999 FEW030 07/03 Q1008=
201102211915 METAR LIRA 211915Z 36003KT 9999 FEW030 08/03 Q1008=
201102211845 METAR LIRA 211845Z 01004KT 9999 FEW030 09/03 Q1008=
201102211815 METAR LIRA 211815Z 34007KT 300V040 9999 FEW070 09/04 Q1008=
201102211745 METAR LIRA 211745Z 34008KT 9999 FEW070 09/04 Q1007=
201102211715 METAR LIRA 211715Z 34010KT 9999 FEW080 10/04 Q1007=
201102211645 METAR LIRA 211645Z 33009KT 9999 FEW030 11/05 Q1005=
201102211615 METAR LIRA 211615Z 34009KT 9999 FEW030 13/06 Q1005=
201102211545 METAR LIRA 211545Z 33010KT 9999 FEW018 13/04 Q1005=
201102211515 METAR LIRA 211515Z 35006KT 310V010 9999 FEW018 SCT025 13/06
                        Q1005=
201102211445 METAR LIRA 211445Z 33007KT 9999 SCT018 SCT025 11/04 Q1005=
201102211415 METAR LIRA 211415Z 33007KT 9999 SCT018 SCT025 11/04 Q1005=
201102211345 METAR LIRA 211345Z 34006KT 9999 SCT018 SCT025 11/05 Q1005=
201102211315 METAR LIRA 211315Z 32005KT 9999 SCT018 SCT025 11/06 Q1005=
201102211245 METAR LIRA 211245Z 35005KT 9999 SCT018 SCT025 11/06 Q1006=
201102211215 METAR LIRA 211215Z 32009KT 9999 SCT018 SCT025 10/07 Q1006=
201102211145 METAR LIRA 211145Z 32006KT 260V350 9999 SCT018 BKN025 11/08
                        Q1006=
201102211115 METAR LIRA 211115Z 35004KT 9999 SCT018 BKN025 10/07 Q1006=
201102211045 METAR LIRA 211045Z 36004KT 9999 SCT018 BKN025 10/07 Q1006=
201102211015 METAR LIRA 211015Z 03004KT 9999 FEW010 SCT018 BKN025 09/08
                        Q1006=
201102210945 METAR LIRA 210945Z 02005KT 350V060 9999 FEW010 SCT018 BKN025
                        09/08 Q1006=
201102210915 METAR LIRA 210915Z 04007KT 9999 SCT010 SCT025 09/08 Q1006=
201102210845 METAR LIRA 210845Z 01006KT 330V050 6000 SCT010 SCT025 08/08
                        Q1006=
201102210815 METAR LIRA 210815Z 33005KT 6000 BKN010 SCT025 08/07 Q1006=
201102210745 METAR LIRA 210745Z 18001KT 6000 BKN010 07/07 Q1006=
201102210715 METAR LIRA 210715Z 00000KT 5000 BR SCT007 06/06 Q1006=
201102210645 METAR LIRA 210645Z 00000KT 4000 BR MIFG SCT001 06/06 Q1005=
201102210615 METAR LIRA 210615Z 32001KT 8000 MIFG FEW002 SCT070 06/06
                        Q1005=
201102210545 METAR LIRA 210545Z 13001KT 8000 SCT015 06/06 Q1005=
201102210515 METAR LIRA 210515Z 15003KT 8000 -RA SCT015 SCT025 06/06 Q1005=
201102210445 METAR LIRA 210445Z 32003KT 8000 -RA SCT005 SCT015 BKN025
                        08/08 Q1005=
201102210415 METAR LIRA 210415Z 00000KT 9999 -RA SCT015 SCT030 BKN070
                        08/08 Q1005=
201102210345 METAR LIRA 210345Z 00000KT 9999 SCT013 SCT030 BKN070 09/08
                        Q1005=
201102210315 METAR LIRA 210315Z 21001KT 9999 FEW010 SCT014 BKN060 09/08
                        Q1005=
201102210245 METAR LIRA 210245Z 18003KT 9999 -RA SCT013 FEW018CB SCT025
                        09/09 Q1005 RETS=
201102210215 METAR LIRA 210215Z 18008KT 9999 -RA SCT015 FEW018CB SCT025
                        09/09 Q1005 RETS=
201102210145 METAR LIRA 210145Z 18006KT 8000 -TSRA SCT015 FEW018CB SCT025
                        08/08 Q1005=
201102210115 METAR LIRA 210115Z 17011KT 9999 -TSRA SCT015 FEW018CB SCT025
                        09/08 Q1005=
201102210045 METAR LIRA 210045Z 14011KT 9000 -RA FEW015 SCT025 08/08 Q1006=
201102210015 METAR LIRA 210015Z 15011KT 8000 -RA FEW015 SCT025 08/08 Q1006=
201102202350 METAR LIRA 210045Z 14011KT 9000 -RA FEW015 SCT025 08/08 Q1006=
201102202345 METAR LIRA 202345Z 15010KT 7000 -RA SCT015 SCT025 BKN060
                        08/08 Q1006=
201102202315 METAR LIRA 202315Z 18007KT 7000 -RA SCT015 SCT025 BKN060
                        09/09 Q1006=
201102202245 METAR LIRA 202245Z 15004KT 7000 -RA SCT015 SCT025 BKN060
                        08/08 Q1007=
201102202215 METAR LIRA 202215Z 16003KT 8000 -RA SCT016 SCT030 BKN060
                        08/08 Q1007=
201102202145 METAR LIRA 202145Z 14003KT 8000 -RA SCT016 SCT030 BKN060
                        08/08 Q1007=
201102202115 METAR LIRA 202115Z 16002KT 8000 -RA SCT016 SCT030 BKN060
                        09/08 Q1008=
201102202045 METAR LIRA 202045Z 13006KT 8000 -RA SCT016 SCT030 BKN060
                        08/08 Q1009=
201102202015 METAR LIRA 202015Z 14005KT 8000 -RA SCT016 SCT030 BKN060
                        08/08 Q1009=
201102201945 METAR LIRA 201945Z 20006KT 8000 -RA SCT016 SCT030 BKN060
                        09/06 Q1009=
201102201915 METAR LIRA 201915Z 24003KT 8000 -RA SCT016 SCT030 BKN060
                        09/08 Q1009=
201102201845 METAR LIRA 201845Z 18006KT 130V200 9000 -RA SCT016 SCT030
                        BKN060 11/09 Q1009=
201102201815 METAR LIRA 201815Z 16008KT 9999 FEW016 SCT030 BKN060 11/10
                        Q1009=
201102201745 METAR LIRA 201745Z 16008KT 9999 FEW016 SCT030 BKN060 11/10
                        Q1009=
201102201715 METAR LIRA 201715Z 17006KT 9999 FEW018 SCT030 BKN080 11/10
                        Q1009=
201102201645 METAR LIRA 201645Z 17006KT 9999 FEW018 BKN080 12/10 Q1010=
201102201615 METAR LIRA 201615Z 18006KT 9999 FEW018 SCT030 BKN070 12/10
                        Q1010=
201102201545 METAR LIRA 201545Z 20007KT 160V240 9999 FEW018 SCT030 BKN070
                        12/10 Q1009=
201102201515 METAR LIRA 201515Z 21006KT 9999 FEW020 BKN080 13/10 Q1010=
201102201445 METAR LIRA 201445Z 20007KT 180V240 9999 FEW020 BKN080 13/07
                        Q1010=
201102201415 METAR LIRA 201415Z 17008KT 9999 FEW020 BKN080 13/06 Q1010=
201102201345 METAR LIRA 201345Z 17008KT 9999 FEW020 BKN080 14/07 Q1010=
201102201315 METAR LIRA 201315Z 18006KT 150V220 9999 FEW020 SCT080 14/07
                        Q1011=
201102201245 METAR LIRA 201245Z 18009KT 140V200 9999 FEW020 SCT080 14/08
                        Q1011=
201102201215 METAR LIRA 201215Z 15011KT 9999 FEW020 SCT080 14/08 Q1011=
201102201145 METAR LIRA 201145Z 17009KT 9999 FEW020 SCT035 13/09 Q1012=
201102201115 METAR LIRA 201115Z 17011KT 9999 FEW020 SCT035 13/09 Q1012=
201102201045 METAR LIRA 201045Z 17008KT 9999 SCT035 SCT080 12/08 Q1012=
201102201015 METAR LIRA 201015Z 00000KT 9999 SCT040 SCT080 10/05 Q1012=
201102200945 METAR LIRA 200945Z 02001KT 9999 SCT040 SCT080 09/04 Q1012=
201102200915 METAR LIRA 200915Z 04001KT 9999 FEW023 SCT040 09/04 Q1012=
201102200845 METAR LIRA 200845Z 04001KT 9999 FEW023 SCT040 07/04 Q1012=
201102200815 METAR LIRA 200815Z 05006KT 9999 FEW023 SCT040 07/04 Q1012=
201102200745 METAR LIRA 200745Z 00000KT 9999 FEW035 BKN080 06/03 Q1012=
201102200715 METAR LIRA 200715Z 05001KT 9999 FEW035 BKN080 06/03 Q1012=
201102200645 METAR LIRA 200645Z 00000KT 9999 BKN080 05/02 Q1012=
201102200615 METAR LIRA 200615Z 05001KT 9999 SCT080 04/02 Q1011=
201102200545 METAR LIRA 200545Z 00000KT 9999 SCT080 04/02 Q1012=
201102200515 METAR LIRA 200515Z 00000KT CAVOK 05/02 Q1012=
201102200445 METAR LIRA 200445Z 00000KT CAVOK 05/03 Q1012=
201102200415 METAR LIRA 200415Z 00000KT CAVOK 05/02 Q1012=
201102200345 METAR LIRA 200345Z 00000KT CAVOK 05/02 Q1012=
201102200315 METAR LIRA 200315Z 00000KT CAVOK 05/02 Q1012=
201102200245 METAR LIRA 200245Z 07004KT CAVOK 05/02 Q1011=
201102200215 METAR LIRA 200215Z 09002KT CAVOK 05/02 Q1012=
201102200145 METAR LIRA 200145Z 00000KT CAVOK 06/02 Q1012=
201102200115 METAR LIRA 200115Z 36001KT CAVOK 06/02 Q1012=
201102200045 METAR LIRA 200045Z 05003KT CAVOK 06/02 Q1012=
201102200015 METAR LIRA 200015Z 00000KT CAVOK 06/02 Q1012=
201102192350 METAR LIRA 200045Z 05003KT CAVOK 06/02 Q1012=
201102192345 METAR LIRA 192345Z 04004KT CAVOK 07/03 Q1012=
201102192315 METAR LIRA 192315Z 04003KT CAVOK 08/02 Q1012=
201102192245 METAR LIRA 192245Z 05003KT CAVOK 08/03 Q1012=
201102192215 METAR LIRA 192215Z 05004KT CAVOK 08/03 Q1012=
201102192145 METAR LIRA 192145Z 08002KT CAVOK 09/03 Q1012=
201102192115 METAR LIRA 192115Z 02002KT CAVOK 09/03 Q1011=
201102192045 METAR LIRA 192045Z 06003KT CAVOK 09/02 Q1011=
201102192015 METAR LIRA 192015Z 00000KT CAVOK 10/03 Q1011=
201102191945 METAR LIRA 191945Z 32005KT 290V350 CAVOK 11/03 Q1010=
201102191915 METAR LIRA 191915Z 33008KT CAVOK 12/03 Q1010=
201102191845 METAR LIRA 191845Z 34007KT CAVOK 12/03 Q1009=
201102191815 METAR LIRA 191815Z 31006KT CAVOK 13/02 Q1009=
201102191745 METAR LIRA 191745Z 33008KT CAVOK 13/03 Q1009=
201102191715 METAR LIRA 191715Z 34008KT CAVOK 13/02 Q1009=
201102191645 METAR LIRA 191645Z 33009KT CAVOK 14/01 Q1009=
201102191615 METAR LIRA 191615Z 33015G26KT CAVOK 15/02 Q1009=
201102191545 METAR LIRA 191545Z 35013KT 300V020 CAVOK 15/02 Q1008=
201102191515 METAR LIRA 191515Z 35011KT 300V010 CAVOK 16/02 Q1008=
201102191445 METAR LIRA 191445Z 35010KT CAVOK 16/03 Q1008=
201102191415 METAR LIRA 191415Z 35012KT 310V030 CAVOK 16/04 Q1008=
201102191345 METAR LIRA 191345Z 33009KT 300V360 CAVOK 16/05 Q1008=
201102191315 METAR LIRA 191315Z /////KT CAVOK 15/05 Q1008=
201102191245 METAR LIRA 191245Z /////KT CAVOK 15/05 Q1008=
201102191215 METAR LIRA 191215Z /////KT CAVOK 15/05 Q1008=
201102191145 METAR LIRA 191145Z /////KT CAVOK 14/06 Q1008=
201102191115 METAR LIRA 191115Z /////KT CAVOK 14/06 Q1008=
201102191045 METAR LIRA 191045Z /////KT CAVOK 13/07 Q1008=
201102191015 METAR LIRA 191015Z /////KT CAVOK 13/07 Q1008=
201102190945 METAR LIRA 190945Z /////KT CAVOK 12/07 Q1008=
201102190915 METAR LIRA 190915Z /////KT CAVOK 11/07 Q1008=
201102190845 METAR LIRA 190845Z /////KT CAVOK 10/07 Q1008=
201102190815 METAR LIRA 190815Z /////KT CAVOK 09/07 Q1007=
201102190745 METAR LIRA 190745Z /////KT CAVOK 08/07 Q1007=
201102190715 METAR LIRA 190715Z /////KT CAVOK 07/06 Q1007=
201102190645 METAR LIRA 190645Z /////KT CAVOK 06/05 Q1007=
201102190615 METAR LIRA 190615Z /////KT CAVOK 05/04 Q1006=
201102190545 METAR LIRA 190545Z /////KT CAVOK 06/04 Q1005=
201102190515 METAR LIRA 190515Z /////KT CAVOK 06/04 Q1005=
201102190445 METAR LIRA 190445Z /////KT CAVOK 07/05 Q1005=
201102190415 METAR LIRA 190415Z /////KT CAVOK 07/05 Q1004=
201102190345 METAR LIRA 190345Z /////KT CAVOK 07/05 Q1004=
201102190315 METAR LIRA 190315Z /////KT CAVOK 07/05 Q1004=
201102190245 METAR LIRA 190245Z /////KT 9999 FEW080 07/05 Q1004=
201102190215 METAR LIRA 190215Z /////KT 9999 FEW080 07/05 Q1004=
201102190145 METAR LIRA 190145Z /////KT 9999 FEW030 SCT080 07/05 Q1004=
201102190115 METAR LIRA 190115Z /////KT 9999 FEW030 SCT080 08/05 Q1004=
201102190045 METAR LIRA 190045Z /////KT 9999 FEW030 SCT080 08/05 Q1004=
201102190015 METAR LIRA 190015Z /////KT 9999 FEW030 SCT070 08/05 Q1004=
201102182350 METAR LIRA 190045Z /////KT 9999 FEW030 SCT080 08/05 Q1004=
201102182345 METAR LIRA 182345Z /////KT 9999 FEW030 SCT070 09/05 Q1004=
201102182315 METAR LIRA 182315Z /////KT 9999 FEW030 SCT070 09/06 Q1004=
201102182245 METAR LIRA 182245Z /////KT 9999 FEW030 SCT080 09/06 Q1004=
201102182215 METAR LIRA 182215Z /////KT 9999 FEW030 SCT080 10/06 Q1003=
201102182145 METAR LIRA 182145Z /////KT 9999 FEW030 SCT080 10/06 Q1003=
201102182115 METAR LIRA 182115Z /////KT 9999 FEW030 SCT080 10/05 Q1003=
201102182045 METAR LIRA 182045Z /////KT 9999 FEW030 SCT080 11/05 Q1002=
201102182015 METAR LIRA 182015Z /////KT 9999 FEW030 SCT080 12/05 Q1002=
201102181945 METAR LIRA 181945Z /////KT 9999 FEW030 SCT080 12/04 Q1001=
201102181915 METAR LIRA 181915Z /////KT 9999 FEW030 SCT080 12/04 Q1001=
201102181845 METAR LIRA 181845Z /////KT 9999 FEW030 SCT080 12/04 Q1001=
201102181815 METAR LIRA 181815Z /////KT 9999 FEW080 13/05 Q1001=
201102181745 METAR LIRA 181745Z /////KT 9999 FEW080 13/04 Q1000=
201102181715 METAR LIRA 181715Z /////KT 9999 FEW025 SCT070 14/05 Q1000=
201102181645 METAR LIRA 181645Z /////KT 9999 FEW025 BKN200 15/05 Q1000=
201102181615 METAR LIRA 181615Z /////KT 9999 FEW025 BKN200 17/05 Q0999=
201102181545 METAR LIRA 181545Z /////KT 9999 FEW025 BKN200 17/05 Q0999=
201102181515 METAR LIRA 181515Z /////KT 9999 FEW025 BKN200 17/05 Q0999=
201102181445 METAR LIRA 181445Z /////KT 9999 FEW025 BKN200 17/06 Q0999=
201102181415 METAR LIRA 181415Z /////KT 9999 FEW025 BKN200 17/05 Q0999=
201102181345 METAR LIRA 181345Z /////KT 9999 FEW080 17/05 Q0999=
201102181315 METAR LIRA 181315Z /////KT 9999 FEW080 17/06 Q0999=
201102181245 METAR LIRA 181245Z /////KT CAVOK 17/06 Q0999=
201102181215 METAR LIRA 181215Z /////KT CAVOK 16/06 Q0999=
201102181145 METAR LIRA 181145Z /////KT CAVOK 16/07 Q1000=
201102181115 METAR LIRA 181115Z /////KT CAVOK 14/07 Q1000=
201102181045 METAR LIRA 181045Z /////KT CAVOK 13/07 Q1000=
201102181015 METAR LIRA 181015Z /////KT 9999 FEW060 13/07 Q1000=
201102180945 METAR LIRA 180945Z /////KT 9999 SCT060 12/07 Q1000=
201102180915 METAR LIRA 180915Z /////KT 9999 FEW060 SCT080 09/04 Q1000=
201102180845 METAR LIRA 180845Z /////KT 9999 FEW020 SCT080 08/05 Q1000=
201102180815 METAR LIRA 180815Z /////KT 9999 FEW060 SCT080 08/05 Q1000=
201102180745 METAR LIRA 180745Z /////KT 9999 FEW060 SCT080 08/06 Q1000=
201102180715 METAR LIRA 180715Z /////KT 9999 FEW035 BKN070 07/05 Q1000=
201102180645 METAR LIRA 180645Z /////KT 9999 SCT030 SCT070 07/04 Q1000=
201102180615 METAR LIRA 180615Z /////KT 9999 SCT030 SCT070 06/04 Q1000=
201102180545 METAR LIRA 180545Z /////KT 9999 SCT030 SCT070 06/04 Q1000=
201102180515 METAR LIRA 180515Z /////KT 9999 FEW030 SCT070 06/04 Q1001=
201102180445 METAR LIRA 180445Z /////KT 9999 FEW030 SCT070 06/04 Q1002=
201102180415 METAR LIRA 180415Z /////KT 9999 FEW030 SCT070 06/04 Q1002=
201102180345 METAR LIRA 180345Z /////KT 9999 FEW030 SCT070 06/04 Q1002=
201102180315 METAR LIRA 180315Z /////KT 9999 FEW020 SCT070 06/04 Q1002=
201102180245 METAR LIRA 180245Z /////KT 9999 FEW020 SCT070 06/04 Q1002=
201102180215 METAR LIRA 180215Z /////KT 9999 FEW030 SCT070 06/04 Q1002=
201102180145 METAR LIRA 180145Z /////KT 9999 FEW030 SCT070 06/04 Q1002=
201102180115 METAR LIRA 180115Z /////KT 9999 FEW030 SCT070 07/05 Q1002=
201102180045 METAR LIRA 180045Z /////KT 9999 FEW030 SCT070 07/05 Q1003=
201102180015 METAR LIRA 180015Z /////KT 9999 FEW030 SCT070 07/05 Q1003=
201102172350 METAR LIRA 180045Z /////KT 9999 FEW030 SCT070 07/05 Q1003=
201102172345 METAR LIRA 172345Z /////KT 9999 FEW030 SCT070 07/04 Q1003=
201102172315 METAR LIRA 172315Z /////KT 9999 SCT070 SCT200 07/04 Q1003=
201102172245 METAR LIRA 172245Z /////KT 9999 FEW030 SCT070 07/03 Q1003=
201102172215 METAR LIRA 172215Z /////KT 9999 FEW030 SCT200 07/03 Q1003=
201102172145 METAR LIRA 172145Z /////KT 9999 FEW030 SCT200 08/03 Q1003=
201102172115 METAR LIRA 172115Z /////KT 9999 FEW030 08/03 Q1003=
201102172045 METAR LIRA 172045Z /////KT 9999 FEW030 SCT070 10/03 Q1002=
201102172015 METAR LIRA 172015Z /////KT 9999 FEW020 SCT070 10/04 Q1003=
201102171945 METAR LIRA 171945Z /////KT 9999 FEW020 SCT070 10/04 Q1003=
201102171915 METAR LIRA 171915Z /////KT 9999 FEW020 SCT070 10/04 Q1003=
201102171845 METAR LIRA 171845Z /////KT 9999 FEW020 SCT070 09/05 Q1003=
201102171815 METAR LIRA 171815Z /////KT 9999 FEW020 SCT070 10/05 Q1003=
201102171745 METAR LIRA 171745Z /////KT 9999 FEW017 SCT070 10/05 Q1003=
201102171715 METAR LIRA 171715Z /////KT 9999 FEW017 SCT070 10/05 Q1003=
201102171645 METAR LIRA 171645Z /////KT 9999 FEW016 SCT070 12/06 Q1003=
201102171615 METAR LIRA 171615Z /////KT 9999 FEW016 SCT070 12/07 Q1003=
201102171545 METAR LIRA 171545Z /////KT 9999 FEW016 FEW018TCU SCT070 12/07
                        Q1003=
201102171515 METAR LIRA 171515Z /////KT 9999 FEW016 FEW018TCU BKN070 11/09
                        Q1003=
201102171445 METAR LIRA 171445Z /////KT 9999 FEW016 FEW018TCU BKN070 11/09
                        Q1003=
201102171415 METAR LIRA 171415Z /////KT 8000 -RA FEW016 FEW018TCU BKN070
                        11/09 Q1003=
201102171345 METAR LIRA 171345Z /////KT 6000 -RA FEW016 FEW018TCU BKN070
                        11/09 Q1004=
201102171315 METAR LIRA 171315Z /////KT 9999 -RA FEW016 FEW018TCU BKN070
                        11/08 Q1004=
201102171245 METAR LIRA 171245Z /////KT 8000 -RA FEW016 FEW018TCU BKN070
                        11/07 Q1004=
201102171215 METAR LIRA 171215Z /////KT 9999 -RA FEW018 FEW020TCU BKN070
                        12/07 Q1004=
201102171145 METAR LIRA 171145Z /////KT 9999 FEW018 FEW020TCU BKN070 13/05
                        Q1003=
201102171115 METAR LIRA 171115Z /////KT 9999 FEW020 SCT070 14/07 Q1004=
201102171045 METAR LIRA 171045Z /////KT 9999 FEW020 SCT070 14/07 Q1004=
201102170945 METAR LIRA 170945Z /////KT 9999 FEW020 SCT070 14/08 Q1004=
201102170915 METAR LIRA 170915Z /////KT 9999 FEW015 SCT070 13/08 Q1004=
201102170845 METAR LIRA 170845Z /////KT 9999 FEW015 SCT080 12/07 Q1004=
201102170815 METAR LIRA 170815Z /////KT 9999 FEW015 SCT080 11/06 Q1004=
201102170745 METAR LIRA 170745Z /////KT 9999 FEW015 SCT080 11/06 Q1003=
201102170715 METAR LIRA 170715Z /////KT 9999 FEW015 SCT080 08/05 Q1003=
201102170645 METAR LIRA 170645Z /////KT 9999 FEW015 SCT080 07/05 Q1003=
201102170615 METAR LIRA 170615Z /////KT 9999 FEW015 07/05 Q1003=
201102170600 METAR LIRA CONTUS LOW CLDS MOVING S=
201102170545 METAR LIRA 170545Z /////KT 9999 FEW080 06/04 Q1003=
201102170515 METAR LIRA 170515Z /////KT 9999 FEW080 06/04 Q1003=
201102170445 METAR LIRA 170445Z /////KT 9999 FEW080 06/05 Q1003=
201102170415 METAR LIRA 170415Z /////KT 9999 FEW020 08/06 Q1003=
201102170345 METAR LIRA 170345Z /////KT 9999 FEW020 SCT030 09/07 Q1003=
201102170315 METAR LIRA 170315Z /////KT 9999 FEW016 SCT030 09/07 Q1003=
201102170245 METAR LIRA 170245Z /////KT 9999 SCT016 SCT030 09/07 Q1003=
201102170215 METAR LIRA 170215Z /////KT 9999 SCT014 SCT030 08/06 Q1003=
201102170200 METAR LIRA CONTUS LOW CLDS MOVING S=
201102170145 METAR LIRA 170145Z /////KT 9999 -RA SCT014 SCT030 09/06 Q1003=
201102170115 METAR LIRA 170115Z /////KT 9999 -RA SCT013 BKN025 10/07 Q1003=
201102170100 METAR LIRA CONTUS LOW CLDS MOVING S=
201102170045 METAR LIRA 170045Z /////KT 9999 FEW016 BKN040 10/06 Q1003=
201102170015 METAR LIRA 170015Z /////KT 9999 FEW016 BKN022 10/07 Q1002=
201102170000 METAR LIRA CONTUS LOW CLDS MVNG S=
201102162350 METAR LIRA 170045Z /////KT 9999 FEW016 BKN040 10/06 Q1003=
201102162345 METAR LIRA 162345Z /////KT 9999 FEW016 BKN022 10/07 Q1002=
201102162315 METAR LIRA 162315Z /////KT 9999 SCT016 SCT022 10/07 Q1002=
201102162245 METAR LIRA 162245Z /////KT 9999 SCT016 SCT022 10/07 Q1001=
201102162215 METAR LIRA 162215Z /////KT 9999 FEW016 09/07 Q1001=
201102162145 METAR LIRA 162145Z /////KT 9999 FEW016 09/07 Q1001=
201102162115 METAR LIRA 162115Z /////KT 9999 FEW016 SCT022 09/07 Q1001=
201102162045 METAR LIRA 162045Z /////KT 9999 FEW016 SCT022 09/08 Q1000
                        RETS=
201102162015 METAR LIRA 162015Z /////KT 9999 FEW016 FEW018CB SCT070 09/08
                        Q1000 RETS=
201102161945 METAR LIRA 161945Z /////KT 9999 -TSRA FEW016 FEW018CB SCT030
                        10/07 Q1000=
201102161915 METAR LIRA 161915Z /////KT 9999 -TSRA FEW016 FEW018CB SCT040
                        10/08 Q1000=
201102161845 METAR LIRA 161845Z /////KT 9999 SCT016 SCT070 09/07 Q0999=
201102161815 METAR LIRA 161815Z /////KT 9999 SCT016 10/08 Q0999=
201102161745 METAR LIRA 161745Z /////KT 9999 FEW016 SCT030 11/08 Q0999=
201102161715 METAR LIRA 161715Z /////KT 9000 SCT013 FEW016CB SCT023 11/09
                        Q0999=
201102161645 METAR LIRA 161645Z /////KT 8000 SCT013 FEW015CB SCT023 11/09
                        Q0998=
201102161615 METAR LIRA 161615Z /////KT 8000 SCT013 BKN023 12/10 Q0998=
201102161545 METAR LIRA 161545Z /////KT 8000 SCT013 BKN023 12/09 Q0998=
201102161515 METAR LIRA 161515Z /////KT 7000 SCT013 BKN023 12/09 Q0998=
201102161445 METAR LIRA 161445Z /////KT 7000 SCT013 FEW015CB SCT023 12/09
                        Q0998 RERA=
201102161415 METAR LIRA 161415Z /////KT 7000 BR SCT013 FEW015CB BKN023
                        12/10 Q0998 RERA=
201102161345 METAR LIRA 161345Z /////KT 5000 -RA BR SCT013 FEW015CB BKN022
                        12/11 Q0998=
201102161315 METAR LIRA 161315Z /////KT 4000 -RA BR SCT013 FEW015CB BKN022
                        12/11 Q0998=
201102161245 METAR LIRA 161245Z /////KT 3000 RA BR SCT013 BKN022 12/11
                        Q0998=
201102161215 METAR LIRA 161215Z /////KT 3000 RA BR SCT013 BKN022 11/10
                        Q0998 WS RWY 15=
201102161145 METAR LIRA 161145Z /////KT 3000 -RA BR SCT013 BKN022 11/10
                        Q0999=
201102161115 METAR LIRA 161115Z /////KT 3000 -RA BR SCT013 BKN022 10/09
                        Q1000=
201102161045 METAR LIRA 161045Z /////KT 3000 -RA BR SCT014 BKN022 10/09
                        Q1000=
201102161015 METAR LIRA 161015Z /////KT 4000 -RA BR SCT014 BKN023 10/09
                        Q1001=
201102160945 METAR LIRA 160945Z /////KT 4000 -RA BR SCT014 BKN022 11/09
                        Q1001=
201102160915 METAR LIRA 160915Z /////KT 4000 -RA BR SCT014 BKN023 10/08
                        Q1002=
201102160845 METAR LIRA 160845Z /////KT 4000 -RA BR SCT014 BKN023 10/08
                        Q1002=
201102160815 METAR LIRA 160815Z /////KT 4000 -RA BR SCT014 BKN022 10/08
                        Q1002=
201102160745 METAR LIRA 160745Z /////KT 5000 -RA BR SCT014 BKN022 10/09
                        Q1002=
201102160715 METAR LIRA 160715Z /////KT 5000 -RA BR SCT014 BKN023 10/09
                        Q1002=
201102160645 METAR LIRA 160645Z /////KT 6000 -RA SCT014 BKN023 10/09 Q1002=
201102160615 METAR LIRA 160615Z /////KT 8000 -RA SCT014 SCT033 BKN070
                        11/09 Q1002=
201102160545 METAR LIRA 160545Z /////KT 9999 -RA SCT014 SCT033 11/09 Q1003=
201102160515 METAR LIRA 160515Z /////KT 9999 -RA SCT014 BKN025 10/09 Q1003=
201102160445 METAR LIRA 160445Z /////KT 9999 -RA SCT014 SCT025 10/08 Q1003=
201102160415 METAR LIRA 160415Z /////KT 9999 -RA SCT014 SCT025 10/08 Q1003=
201102160345 METAR LIRA 160345Z /////KT 9999 -RA SCT014 SCT025 10/08 Q1004=
201102160315 METAR LIRA 160315Z /////KT 8000 -RA SCT016 BKN025 09/07 Q1004=
201102160245 METAR LIRA 160245Z /////KT 9999 -RA FEW016 BKN025 10/08 Q1004=
201102160215 METAR LIRA 160215Z /////KT 9999 -RA FEW016 SCT030 10/06 Q1004=
201102160145 METAR LIRA 160145Z /////KT 9999 -RA FEW016 SCT025 10/07 Q1004=
201102160115 METAR LIRA 160115Z /////KT 9999 -RA FEW016 SCT025 BKN060
                        10/06 Q1005=
201102160045 METAR LIRA 160045Z /////KT 9999 -RA FEW016 BKN060 11/07 Q1005=
201102160015 METAR LIRA 160015Z /////KT 9999 -RA FEW016 BKN060 11/07 Q1005=
201102152350 METAR LIRA 160045Z /////KT 9999 -RA FEW016 BKN060 11/07 Q1005=
201102152345 METAR LIRA 152345Z /////KT 9999 FEW016 BKN060 11/07 Q1005=
201102152315 METAR LIRA 152315Z /////KT 9999 FEW016 BKN060 11/07 Q1006=
201102152245 METAR LIRA 152245Z /////KT 9999 FEW016 BKN060 11/07 Q1006=
201102152215 METAR LIRA 152215Z /////KT 9999 FEW016 SCT030 BKN060 10/07
                        Q1006=
201102152145 METAR LIRA 152145Z /////KT 9999 FEW016 SCT060 10/07 Q1006=
201102152115 METAR LIRA 152115Z /////KT 9999 FEW016 SCT060 09/07 Q1006=
201102152045 METAR LIRA 152045Z /////KT 9999 FEW016 SCT060 10/07 Q1006=
201102152015 METAR LIRA 152015Z /////KT 9999 FEW018 BKN060 10/07 Q1006=
201102151945 METAR LIRA 151945Z /////KT 9999 FEW018 BKN060 10/07 Q1007=
201102151915 METAR LIRA 151915Z /////KT 9999 FEW018 10/07 Q1007=
201102151845 METAR LIRA 151845Z /////KT 9999 FEW018 10/07 Q1007=
201102151815 METAR LIRA 151815Z /////KT 9999 SCT018 09/07 Q1007=
201102151745 METAR LIRA 151745Z /////KT 9999 SCT018 10/06 Q1007=
201102151715 METAR LIRA 151715Z /////KT 9999 FEW020 10/07 Q1007=
201102151645 METAR LIRA 151645Z /////KT 9999 FEW020 11/06 Q1006=
201102151615 METAR LIRA 151615Z /////KT 9999 FEW020 12/05 Q1006=
201102151545 METAR LIRA 151545Z /////KT 9999 FEW016 12/04 Q1007=
201102151515 METAR LIRA 151515Z /////KT 9999 FEW016 13/04 Q1007=
201102151445 METAR LIRA 151445Z /////KT 9999 FEW017 13/04 Q1008=
201102151415 METAR LIRA 151415Z /////KT 9999 SCT016 SCT025 13/05 Q1008=
201102151345 METAR LIRA 151345Z /////KT 9999 SCT016 SCT025 13/06 Q1008=
201102151315 METAR LIRA 151315Z /////KT 9999 SCT018 SCT025 13/05 Q1008=
201102151245 METAR LIRA 151245Z /////KT 9999 SCT018 SCT025 14/05 Q1008=
201102151215 METAR LIRA 151215Z /////KT 9999 BKN018 13/06 Q1008=
201102151145 METAR LIRA 151145Z /////KT 9999 BKN018 14/05 Q1008=
201102151115 METAR COR LIRA 151115Z /////KT 9999 BKN018 14/05 Q1008=
201102151045 METAR LIRA 151045Z /////KT 9999 FEW018 15/08 Q1008=
201102151015 METAR LIRA 151015Z /////KT 9999 FEW018 13/07 Q1009=
201102150945 METAR LIRA 150945Z 00000KT 9999 FEW018 14/08 Q1009=
201102150915 METAR LIRA 150915Z /////KT 9000 FEW020 12/08 Q1009=
201102150845 METAR LIRA 150845Z /////KT 8000 FEW020 09/06 Q1008=
201102150815 METAR LIRA 150815Z /////KT 8000 NSC 07/05 Q1008=
201102150745 METAR LIRA 150745Z /////KT 8000 NSC 06/05 Q1008=
201102150715 METAR LIRA 150715Z /////KT 7000 NSC 05/03 Q1008=
201102150645 METAR LIRA 150645Z /////KT 7000 FEW080 04/02 Q1008=
201102150615 METAR LIRA 150615Z /////KT 7000 FEW080 03/02 Q1008=
201102150545 METAR LIRA 150545Z /////KT 8000 FEW023 02/02 Q1008=
201102150515 METAR LIRA 150515Z /////KT 8000 NSC 02/01 Q1008=
201102150445 METAR LIRA 150445Z /////KT 8000 NSC 02/02 Q1008=
201102150415 METAR LIRA 150415Z /////KT 8000 NSC 03/02 Q1008=
201102150345 METAR LIRA 150345Z /////KT CAVOK 03/03 Q1008=
201102150315 METAR LIRA 150315Z /////KT 9999 FEW080 04/03 Q1009=
201102150245 METAR LIRA 150245Z /////KT 9999 FEW080 04/03 Q1009=
201102150215 METAR LIRA 150215Z /////KT 9999 FEW080 04/03 Q1009=
201102150145 METAR LIRA 150145Z /////KT CAVOK 04/03 Q1009=
201102150115 METAR LIRA 150115Z /////KT 9999 FEW080 06/04 Q1010=
201102150045 METAR LIRA 150045Z /////KT 9999 FEW080 06/04 Q1010=
201102150015 METAR LIRA 150015Z /////KT 9999 FEW080 06/04 Q1010=
201102142350 METAR LIRA 150045Z /////KT 9999 FEW080 06/04 Q1010=
201102142345 METAR LIRA 142345Z /////KT 9999 FEW080 06/04 Q1010=
201102142315 METAR LIRA 142315Z /////KT 9999 FEW035 SCT080 06/04 Q1010=
201102142245 METAR LIRA 142245Z /////KT CAVOK 06/05 Q1010=
201102142215 METAR LIRA 142215Z /////KT CAVOK 07/05 Q1010=
201102142145 METAR LIRA 142145Z /////KT CAVOK 07/05 Q1010=
201102142115 METAR LIRA 142115Z /////KT CAVOK 07/05 Q1010=
201102142045 METAR LIRA 142045Z /////KT CAVOK 08/06 Q1010=
201102142015 METAR LIRA 142015Z /////KT CAVOK 08/06 Q1010=
201102141945 METAR LIRA 141945Z /////KT CAVOK 08/06 Q1010=
201102141915 METAR LIRA 141915Z /////KT 9999 FEW080 08/07 Q1010=
201102141845 METAR LIRA 141845Z /////KT 9999 FEW080 09/07 Q1010=
201102141815 METAR LIRA 141815Z /////KT 9999 FEW080 10/07 Q1010=
201102141745 METAR LIRA 141745Z /////KT 9999 FEW080 10/07 Q1010=
201102141715 METAR LIRA 141715Z /////KT 9999 FEW035 11/07 Q1010=
201102141645 METAR LIRA 141645Z /////KT 9999 FEW023 12/06 Q1010=
201102141615 METAR LIRA 141615Z /////KT 9999 FEW023 13/06 Q1010=
201102141545 METAR LIRA 141545Z /////KT 9999 FEW023 14/06 Q1010=
201102141515 METAR LIRA 141515Z /////KT 9999 FEW023 14/06 Q1010=
201102141445 METAR LIRA 141445Z /////KT 9999 FEW023 14/04 Q1010=
201102141415 METAR LIRA 141415Z /////KT 9999 SCT023 14/05 Q1010=
201102141345 METAR LIRA 141345Z /////KT 9999 SCT023 14/01 Q1010=
201102141315 METAR LIRA 141315Z /////KT 9999 SCT023 15/03 Q1010=
201102141245 METAR LIRA 141245Z /////KT 9999 SCT023 16/03 Q1011=
201102141145 METAR LIRA 141145Z /////KT 9999 SCT023 14/03 Q1012=
201102141115 METAR LIRA 141115Z /////KT 9999 SCT023 14/04 Q1012=
201102141045 METAR LIRA 141045Z /////KT 9999 FEW023 13/05 Q1012=
201102141015 METAR LIRA 141015Z /////KT 9999 FEW023 12/05 Q1012=
201102140945 METAR LIRA 140945Z /////KT 9999 FEW023 12/05 Q1012=
201102140915 METAR LIRA 140915Z /////KT 9999 FEW040 10/06 Q1012=
201102140845 METAR LIRA 140845Z /////KT CAVOK 08/04 Q1012=
201102140815 METAR LIRA 140815Z /////KT CAVOK 08/05 Q1012=
201102140745 METAR LIRA 140745Z /////KT CAVOK 06/05 Q1012=
201102140715 METAR LIRA 140715Z /////KT CAVOK 04/03 Q1012=
201102140645 METAR LIRA 140645Z /////KT 9999 FEW025 04/03 Q1012=
201102140615 METAR LIRA 140615Z /////KT 9999 FEW025 04/03 Q1012=
201102140545 METAR LIRA 140545Z /////KT 9999 FEW020 SCT025 04/03 Q1012=
201102140515 METAR LIRA 140515Z /////KT 9999 FEW020 SCT025 04/03 Q1013=
201102140445 METAR LIRA 140445Z /////KT 9999 FEW020 SCT025 05/03 Q1013=
201102140415 METAR LIRA 140415Z /////KT 9999 FEW020 SCT025 05/03 Q1013=
201102140345 METAR LIRA 140345Z /////KT 9999 FEW020 SCT025 05/03 Q1013=
201102140315 METAR LIRA 140315Z /////KT 9999 FEW020 SCT025 05/04 Q1013=
201102140245 METAR LIRA 140245Z /////KT 9999 FEW020 SCT025 06/04 Q1014=
201102140215 METAR LIRA 140215Z /////KT 9999 FEW020 SCT025 05/03 Q1014=
201102140145 METAR LIRA 140145Z /////KT 9999 FEW020 SCT025 05/03 Q1014=
201102140115 METAR LIRA 140115Z /////KT 9999 FEW020 05/03 Q1015=
201102140045 METAR LIRA 140045Z /////KT 9999 FEW020 05/03 Q1015=
201102140015 METAR LIRA 140015Z /////KT 9999 FEW020 06/03 Q1015=
201102132350 METAR LIRA 140045Z /////KT 9999 FEW020 05/03 Q1015=
201102132345 METAR LIRA 132345Z /////KT 9999 FEW020 06/04 Q1015=
201102132315 METAR LIRA 132315Z /////KT 9999 FEW020 06/04 Q1015=
201102132245 METAR LIRA 132245Z /////KT 9999 FEW020 06/04 Q1015=
201102132215 METAR LIRA 132215Z /////KT 9999 FEW020 06/04 Q1015=
201102132145 METAR LIRA 132145Z /////KT 9999 FEW080 06/04 Q1015=
201102132115 METAR LIRA 132115Z /////KT 9999 FEW080 06/04 Q1015=
201102132045 METAR LIRA 132045Z /////KT 9999 FEW080 06/05 Q1015=
201102132015 METAR LIRA 132015Z /////KT 9999 FEW080 07/05 Q1015=
201102131945 METAR LIRA 131945Z /////KT 9999 FEW080 07/05 Q1014=
201102131915 METAR LIRA 131915Z /////KT 9999 FEW080 08/06 Q1014=
201102131845 METAR LIRA 131845Z /////KT 9999 FEW020 08/06 Q1014=
201102131815 METAR LIRA 131815Z /////KT 9999 FEW020 08/06 Q1014=
201102131745 METAR LIRA 131745Z /////KT 9999 FEW020 09/06 Q1014=
201102131715 METAR LIRA 131715Z /////KT 9999 FEW020TCU 10/07 Q1014=
201102131645 METAR LIRA 131645Z /////KT 9999 FEW020TCU 11/07 Q1014=
201102131615 METAR LIRA 131615Z /////KT 9999 FEW020 FEW022TCU 12/08 Q1014=
201102131545 METAR LIRA 131545Z /////KT 9999 SCT020 FEW022TCU 12/06 Q1014=
201102131515 METAR LIRA 131515Z /////KT 9999 SCT020 FEW022TCU SCT070 13/03
                        Q1014=
201102131445 METAR LIRA 131445Z /////KT 9999 SCT020 FEW022TCU 13/04 Q1015=
201102131415 METAR LIRA 131415Z /////KT 9999 SCT020 FEW022TCU 14/04 Q1015=
201102131345 METAR LIRA 131345Z /////KT 9999 SCT020 FEW022TCU 13/04 Q1015=
201102131315 METAR LIRA 131315Z /////KT 9999 SCT020 FEW022TCU 13/04 Q1016=
201102131245 METAR LIRA 131245Z /////KT 9999 SCT020 FEW022TCU SCT070 13/04
                        Q1016=
201102131215 METAR LIRA 131215Z /////KT 9999 SCT020 SCT070 14/05 Q1016=
201102131145 METAR LIRA 131145Z /////KT 9999 SCT020 SCT070 14/04 Q1016=
201102131115 METAR LIRA 131115Z /////KT 9999 SCT020 SCT080 14/05 Q1017=
201102131045 METAR LIRA 131045Z /////KT 9999 FEW020 SCT070 13/07 Q1017=
201102131015 METAR LIRA 131015Z /////KT 9999 FEW020 BKN060 13/07 Q1017=
201102130945 METAR LIRA 130945Z /////KT 7000 FEW020 BKN060 12/07 Q1017=
201102130915 METAR LIRA 130915Z /////KT 7000 FEW020 BKN060 10/06 Q1017=
201102130845 METAR LIRA 130845Z /////KT 7000 FEW040 BKN060 09/06 Q1017=
201102130815 METAR LIRA 130815Z /////KT 8000 FEW040 BKN060 08/06 Q1017=
201102130745 METAR LIRA 130745Z /////KT 8000 FEW040 BKN060 08/06 Q1017=
201102130715 METAR LIRA 130715Z /////KT 8000 FEW040 BKN060 07/05 Q1017=
201102130645 METAR LIRA 130645Z /////KT 8000 FEW040 BKN060 06/05 Q1017=
201102130615 METAR LIRA 130615Z /////KT 9999 FEW030 BKN060 06/05 Q1017=
201102130545 METAR LIRA 130545Z /////KT 9999 FEW030 BKN060 06/04 Q1017=
201102130515 METAR LIRA 130515Z /////KT 9999 FEW025 SCT070 06/04 Q1017=
201102130500 METAR LIRA CONTUS CB NW=
201102130445 METAR LIRA 130445Z /////KT 9999 SCT025 BKN070 06/04 Q1018=
201102130415 METAR LIRA 130415Z /////KT 9999 SCT030 BKN070 05/03 Q1018=
201102130400 METAR LIRA INTER LOW CLDS MVG S=
201102130345 METAR LIRA 130345Z /////KT 9999 SCT030 BKN070 05/03 Q1018=
201102130315 METAR LIRA 130315Z /////KT 9999 SCT030 BKN070 05/03 Q1018=
201102130245 METAR LIRA 130245Z /////KT 9999 SCT030 BKN070 05/04 Q1018=
201102130215 METAR LIRA 130215Z /////KT 9999 SCT030 BKN070 05/04 Q1018=
201102130145 METAR LIRA 130145Z /////KT 9999 FEW030 SCT070 04/03 Q1018=
201102130115 METAR LIRA 130115Z /////KT 9999 FEW030 SCT070 04/03 Q1018=
201102130045 METAR LIRA 130045Z /////KT 9999 FEW070 05/04 Q1019=
201102130015 METAR LIRA 130015Z /////KT 9999 FEW030 05/03 Q1019=
201102122350 METAR LIRA 130045Z /////KT 9999 FEW070 05/04 Q1019=
201102122345 METAR LIRA 122345Z /////KT 9999 FEW030 06/04 Q1019=
201102122315 METAR LIRA 122315Z /////KT 9999 FEW030 06/04 Q1019=
201102122245 METAR LIRA 122245Z /////KT 9999 FEW030 SCT070 06/04 Q1019=
201102122215 METAR LIRA 122215Z /////KT 9999 SCT030 SCT070 07/05 Q1019=
201102122145 METAR LIRA 122145Z /////KT 9999 SCT030 SCT070 08/05 Q1019=
201102122115 METAR LIRA 122115Z /////KT 9999 FEW030 SCT070 09/05 Q1019=
201102122045 METAR LIRA 122045Z /////KT 9999 SCT030 SCT070 09/07 Q1019=
201102122015 METAR LIRA 122015Z /////KT 9999 SCT030 SCT070 09/05 Q1019=
201102121945 METAR LIRA 121945Z /////KT 9999 SCT030 SCT070 09/06 Q1019=
201102121915 METAR LIRA 121915Z /////KT 9999 SCT030 SCT070 08/04 Q1018=
201102121845 METAR LIRA 121845Z /////KT 9999 SCT030 SCT070 08/05 Q1018=
201102121815 METAR LIRA 121815Z /////KT 9999 SCT030 SCT070 09/05 Q1018=
201102121745 METAR LIRA 121745Z /////KT 9999 SCT030 09/05 Q1018=
201102121715 METAR LIRA 121715Z /////KT 9999 SCT030 10/05 Q1018=
201102121645 METAR LIRA 121645Z /////KT 9999 SCT030 11/04 Q1018=
201102121615 METAR LIRA 121615Z /////KT 9999 SCT030 12/05 Q1018=
201102121545 METAR LIRA 121545Z /////KT 9999 SCT030 13/04 Q1018=
201102121515 METAR LIRA 121515Z /////KT 9999 SCT030 13/03 Q1018=
201102121445 METAR LIRA 121445Z /////KT 9999 SCT030 13/02 Q1018=
201102121415 METAR LIRA 121415Z /////KT 9999 SCT030 13/01 Q1018=
201102121345 METAR LIRA 121345Z /////KT 9999 SCT030 13/02 Q1018=
201102121315 METAR LIRA 121315Z /////KT 9999 SCT030 13/02 Q1019=
201102121245 METAR LIRA 121245Z /////KT 9999 SCT030 13/01 Q1019=
201102121215 METAR LIRA 121215Z /////KT 9999 SCT030 12/01 Q1019=
201102121145 METAR LIRA 121145Z /////KT 9999 SCT030 12/01 Q1019=
201102121115 METAR LIRA 121115Z /////KT 9999 BKN030 12/01 Q1019=
201102121045 METAR LIRA 121045Z /////KT 9999 SCT030 12/02 Q1020=
201102121015 METAR LIRA 121015Z /////KT 9999 SCT030 11/03 Q1020=
201102120945 METAR LIRA 120945Z /////KT 9999 FEW020 11/06 Q1020=
201102120915 METAR LIRA 120915Z /////KT 9999 FEW020 10/06 Q1020=
201102120845 METAR LIRA 120845Z /////KT 9999 FEW080 09/05 Q1020=
201102120815 METAR LIRA 120815Z /////KT 8000 FEW030 08/05 Q1020=
201102120745 METAR LIRA 120745Z /////KT 7000 FEW030 07/05 Q1020=
201102120715 METAR LIRA 120715Z /////KT 7000 FEW010 SCT030 05/04 Q1019=
201102120645 METAR LIRA 120645Z /////KT 6000 FEW009 SCT030 05/04 Q1019=
201102120615 METAR LIRA 120615Z /////KT 6000 FEW009 BKN027 05/03 Q1019=
201102120545 METAR LIRA 120545Z /////KT 6000 FEW009 SCT027 05/03 Q1019=
201102120515 METAR LIRA 120515Z /////KT 7000 FEW009 SCT027 05/03 Q1019=
201102120445 METAR LIRA 120445Z /////KT 7000 FEW005 SCT018 BKN030 05/03
                        Q1019=
201102120415 METAR LIRA 120415Z /////KT 7000 FEW005 SCT018 BKN030 05/03
                        Q1019=
201102120345 METAR LIRA 120345Z /////KT 7000 FEW005 SCT018 BKN035 05/03
                        Q1019=
201102120315 METAR LIRA 120315Z /////KT 7000 FEW005 SCT018 BKN030 05/04
                        Q1019=
201102120245 METAR LIRA 120245Z /////KT 8000 FEW005 SCT018 05/04 Q1020=
201102120215 METAR LIRA 120215Z /////KT 9999 SCT005 SCT025 04/02 Q1021=
201102120145 METAR LIRA 120145Z /////KT 9999 SCT007 SCT025 04/02 Q1021=
201102120115 METAR LIRA 120115Z /////KT 9999 FEW007 SCT025 04/02 Q1021=
201102120045 METAR LIRA 120045Z /////KT 9999 FEW007 SCT025 04/02 Q1021=
201102120015 METAR LIRA 120015Z /////KT 9999 SCT025 SCT070 03/02 Q1021=
201102112350 METAR LIRA 120045Z /////KT 9999 FEW007 SCT025 04/02 Q1021=
201102112345 METAR LIRA 112345Z /////KT 9999 FEW030 03/02 Q1021=
201102112315 METAR LIRA 112315Z /////KT 9999 FEW070 03/02 Q1021=
201102112245 METAR LIRA 112245Z /////KT 9999 FEW005 04/02 Q1021=
201102112215 METAR LIRA 112215Z /////KT 9999 FEW005 04/02 Q1021=
201102112145 METAR LIRA 112145Z /////KT 9999 FEW005 04/02 Q1021=
201102112115 METAR LIRA 112115Z /////KT 9999 FEW005 05/02 Q1021=
201102112045 METAR LIRA 112045Z /////KT CAVOK 06/03 Q1021=
201102112015 METAR LIRA 112015Z /////KT CAVOK 07/04 Q1021=
201102111945 METAR LIRA 111945Z /////KT CAVOK 07/04 Q1021=
201102111915 METAR LIRA 111915Z /////KT CAVOK 07/04 Q1021=
201102111845 METAR LIRA 111845Z /////KT CAVOK 07/04 Q1021=
201102111815 METAR LIRA 111815Z /////KT 9999 FEW070 08/04 Q1022=
201102111745 METAR LIRA 111745Z /////KT 9999 FEW070 07/03 Q1022=
201102111715 METAR LIRA 111715Z /////KT 9000 FEW030 09/04 Q1022=
201102111645 METAR LIRA 111645Z /////KT 9000 FEW030 10/05 Q1022=
201102111615 METAR LIRA 111615Z /////KT 7000 FEW070 11/05 Q1022=
201102111545 METAR LIRA 111545Z /////KT 7000 FEW025 SCT070 12/04 Q1022=
201102111515 METAR LIRA 111515Z /////KT 8000 FEW025 SCT070 12/03 Q1022=
201102111445 METAR LIRA 111445Z /////KT 8000 FEW025 12/04 Q1022=
201102111415 METAR LIRA 111415Z /////KT 8000 FEW020 13/05 Q1023=
201102111345 METAR LIRA 111345Z /////KT 8000 SCT020 13/05 Q1023=
201102111315 METAR LIRA 111315Z /////KT 7000 FEW020 13/04 Q1023=
201102111245 METAR LIRA 111245Z /////KT 7000 FEW020 13/06 Q1023=
201102111215 METAR LIRA 111215Z /////KT 5000 BR FEW080 12/05 Q1024=
201102111145 METAR LIRA 111145Z /////KT 3000 BR FEW010 10/05 Q1024=
201102111115 METAR LIRA 111115Z /////KT 2000 MIFG FEW005 SCT025 08/05
                        Q1024=
201102111045 METAR LIRA 111045Z /////KT 2000 MIFG SCT005 BKN023 07/04
                        Q1024=
201102111015 METAR LIRA 111015Z /////KT 2000 MIFG SCT005 BKN023 07/04
                        Q1024=
201102110945 METAR LIRA 110945Z /////KT 2000 MIFG SCT005 BKN023 06/04
                        Q1024=
201102110915 METAR LIRA 110915Z /////KT 3000 BR FEW005 BKN023 05/03 Q1023=
201102110845 METAR LIRA 110845Z /////KT 3000 BR FEW005 BKN023 05/03 Q1023=
201102110815 METAR LIRA 110815Z /////KT 3000 BR FEW005 BKN025 04/03 Q1023=
201102110745 METAR LIRA 110745Z /////KT 4000 BR FEW005 SCT025 04/03 Q1023=
201102110715 METAR LIRA 110715Z /////KT 2000 MIFG FEW005 SCT025 03/03
                        Q1023=
201102110645 METAR LIRA 110645Z /////KT 2000 MIFG FEW005 SCT025 02/01
                        Q1023=
201102110615 METAR LIRA 110615Z /////KT 2000 MIFG FEW005 02/01 Q1022=
201102110545 METAR LIRA 110545Z /////KT 4000 BR FEW005 02/01 Q1023=
201102110515 METAR LIRA 110515Z /////KT 3000 BR FEW004 02/01 Q1023=
201102110445 METAR LIRA 110445Z /////KT 2000 BCFG BKN004 02/01 Q1023=
201102110415 METAR LIRA 110415Z /////KT 1000 R15//// BCFG BKN004 02/01
                        Q1023=
201102110345 METAR LIRA 110345Z /////KT 2000 MIFG SCT004 02/02 Q1023=
201102110315 METAR LIRA 110315Z /////KT 2000 MIFG SCT005 02/02 Q1023=
201102110245 METAR LIRA 110245Z /////KT 2000 BR SCT006 03/02 Q1023=
201102110215 METAR LIRA 110215Z /////KT 2500 BR SCT006 03/02 Q1023=
201102110145 METAR LIRA 110145Z /////KT 3000 BR SCT007 03/03 Q1023=
201102110115 METAR LIRA 110115Z /////KT 4000 BR FEW010 04/03 Q1023=
201102110045 METAR LIRA 110045Z /////KT 4000 BR FEW010 04/03 Q1023=
201102110015 METAR LIRA 110015Z /////KT 4000 BR FEW010 04/03 Q1023=
201102102350 METAR LIRA 110045Z /////KT 4000 BR FEW010 04/03 Q1023=
201102102345 METAR LIRA 102345Z /////KT 4000 BR FEW010 04/03 Q1023=
201102102315 METAR LIRA 102315Z /////KT 5000 BR NSC 04/03 Q1023=
201102102245 METAR LIRA 102245Z /////KT 5000 BR NSC 06/04 Q1023=
201102102215 METAR LIRA 102215Z /////KT 5000 BR NSC 06/04 Q1023=
201102102145 METAR LIRA 102145Z /////KT 5000 BR NSC 06/04 Q1023=
201102102115 METAR LIRA 102115Z /////KT 6000 NSC 06/04 Q1023=
201102102045 METAR LIRA 102045Z /////KT 6000 NSC 06/04 Q1023=
201102102015 METAR LIRA 102015Z /////KT 6000 NSC 06/04 Q1023=
201102101945 METAR LIRA 101945Z /////KT 6000 NSC 06/04 Q1022=
201102101915 METAR LIRA 101915Z /////KT 6000 NSC 06/05 Q1022=
201102101845 METAR LIRA 101845Z /////KT 6000 NSC 07/05 Q1022=
201102101815 METAR LIRA 101815Z /////KT 6000 NSC 07/05 Q1022=
201102101745 METAR LIRA 101745Z /////KT 6000 NSC 08/06 Q1022=
201102101715 METAR LIRA 101715Z /////KT 6000 NSC 10/07 Q1022=
201102101645 METAR LIRA 101645Z /////KT 6000 NSC 10/06 Q1022=
201102101615 METAR LIRA 101615Z /////KT 6000 NSC 12/06 Q1022=
201102101545 METAR LIRA 101545Z /////KT 6000 NSC 13/03 Q1022=
201102101515 METAR LIRA 101515Z /////KT 6000 FEW010 13/04 Q1022=
201102101445 METAR LIRA 101445Z /////KT 9000 4000S FEW009 13/05 Q1022=
201102101415 METAR LIRA 101415Z /////KT 8000 3000S FEW006 13/05 Q1022=
201102101345 METAR LIRA 101345Z /////KT 8000 3000S FEW009 14/07 Q1022=
201102101315 METAR LIRA 101315Z /////KT 8000 3000S FEW009 13/07 Q1022=
201102101245 METAR LIRA 101245Z /////KT 8000 3000S FEW009 13/07 Q1023=
201102101215 METAR LIRA 101215Z /////KT 7000 3000S FEW006 12/07 Q1023=
201102101145 METAR LIRA 101145Z /////KT 7000 3000S FEW006 11/07 Q1023=
201102101115 METAR COR LIRA 101115Z /////KT 7000 3000S FEW006 10/07 Q1023=
201102101045 METAR LIRA 101045Z 01003KT 7000 3000S FEW006 09/05 Q1023=
201102101015 METAR LIRA 101015Z 03005KT 340V070 2500 BR FEW006 08/04 Q1023=
201102100945 METAR LIRA 100945Z 36003KT 2500 BR FEW006 07/03 Q1023=
201102100915 METAR LIRA 100915Z 01003KT 2500 BR FEW006 06/04 Q1023=
201102100845 METAR LIRA 100845Z 02003KT 2500 BR FEW006 05/03 Q1023=
201102100815 METAR LIRA 100815Z 01003KT 2000 BR FEW006 04/03 Q1023=
201102100745 METAR LIRA 100745Z 01001KT 2000 BR FEW006 03/02 Q1023=
201102100715 METAR LIRA 100715Z 03002KT 2000 BR FEW006 02/02 Q1022=
201102100645 METAR LIRA 100645Z 06003KT 2500 BR FEW006 02/02 Q1022=
201102100615 METAR LIRA 100615Z 03003KT 2500 BR FEW006 02/02 Q1022=
201102100545 METAR LIRA 100545Z 03003KT 4000 BR FEW006 02/02 Q1022=
201102100515 METAR LIRA 100515Z 06003KT 4000 BR FEW006 02/02 Q1022=
201102100445 METAR LIRA 100445Z 07002KT 4000 BR FEW006 02/02 Q1022=
201102100415 METAR LIRA 100415Z 07002KT 4000 BR FEW006 03/02 Q1021=
201102100345 METAR LIRA 100345Z 11002KT 4000 BR FEW006 03/02 Q1021=
201102100315 METAR LIRA 100315Z 09003KT 4500 BR FEW006 03/02 Q1021=
201102100245 METAR LIRA 100245Z 01003KT 6000 FEW008 03/02 Q1021=
201102100215 METAR LIRA 100215Z 00000KT 6000 FEW009 03/01 Q1021=
201102100145 METAR LIRA 100145Z 03002KT 6000 FEW009 04/02 Q1021=
201102100115 METAR LIRA 100115Z 05004KT 6000 FEW009 04/02 Q1021=
201102100045 METAR LIRA 100045Z 06004KT 6000 FEW009 04/02 Q1021=
201102100015 METAR LIRA 100015Z 07002KT 6000 FEW009 03/02 Q1021=
201102092350 METAR LIRA 100045Z 06004KT 6000 FEW009 04/02 Q1021=
201102092345 METAR LIRA 092345Z 01001KT 6000 FEW009 04/02 Q1021=
201102092315 METAR LIRA 092315Z 06003KT 6000 FEW009 04/02 Q1021=
201102092245 METAR LIRA 092245Z 05002KT 7000 FEW009 05/03 Q1021=
201102092215 METAR LIRA 092215Z 34001KT 7000 FEW009 05/03 Q1021=
201102092145 METAR LIRA 092145Z 08002KT 7000 FEW009 05/03 Q1020=
201102092115 METAR LIRA 092115Z 10002KT 7000 FEW009 05/03 Q1020=
201102092045 METAR LIRA 092045Z 06002KT 7000 FEW009 06/04 Q1020=
201102092015 METAR LIRA 092015Z 00000KT 8000 FEW009 07/05 Q1020=
201102091945 METAR LIRA 091945Z 13002KT 9999 FEW009 08/06 Q1020=
201102091915 METAR LIRA 091915Z 15003KT 9999 FEW009 08/06 Q1020=
201102091845 METAR LIRA 091845Z 16004KT 9999 FEW009 08/06 Q1020=
201102091815 METAR LIRA 091815Z 15005KT 9999 FEW010 08/06 Q1020=
201102091745 METAR LIRA 091745Z 17004KT 9999 FEW010 09/07 Q1020=
201102091715 METAR LIRA 091715Z 16003KT CAVOK 09/06 Q1020=
201102091645 METAR LIRA 091645Z 22003KT CAVOK 11/06 Q1020=
201102091615 METAR LIRA 091615Z 23004KT CAVOK 12/05 Q1019=
201102091545 METAR LIRA 091545Z 26004KT CAVOK 13/04 Q1019=
201102091515 METAR LIRA 091515Z 26005KT 210V300 CAVOK 14/04 Q1019=
201102091445 METAR LIRA 091445Z 23004KT CAVOK 15/03 Q1020=
201102091415 METAR LIRA 091415Z 23003KT CAVOK 15/03 Q1020=
201102091345 METAR LIRA 091345Z 14001KT CAVOK 15/01 Q1020=
201102091315 METAR LIRA 091315Z 34001KT CAVOK 15/01 Q1020=
201102091245 METAR LIRA 091245Z 34003KT CAVOK 13/01 Q1020=
201102091215 METAR LIRA 091215Z 34003KT CAVOK 14/04 Q1020=
201102091145 METAR LIRA 091145Z 27003KT 9000 NSC 13/04 Q1021=
201102091115 METAR LIRA 091115Z 28002KT 8000 NSC 11/03 Q1021=
201102091045 METAR LIRA 091045Z 09001KT 7000 NSC 12/05 Q1021=
201102091015 METAR LIRA 091015Z 03001KT 4000 BR FEW010 09/05 Q1021=
201102090945 METAR LIRA 090945Z 01003KT 2000 MIFG FEW004 08/05 Q1021=
201102090915 METAR LIRA 090915Z 03003KT 2000 MIFG FEW004 07/07 Q1021=
201102090845 METAR LIRA 090845Z 02002KT 2000 MIFG SCT003 06/05 Q1020=
201102090815 METAR LIRA 090815Z 03003KT 2000 MIFG SCT010 06/05 Q1020=
201102090745 METAR LIRA 090745Z 01002KT 2000 MIFG SCT009 05/05 Q1020=
201102090715 METAR LIRA 090715Z 21002KT 0800 R15//// BCFG BKN003 06/05
                        Q1020=
201102090645 METAR LIRA 090645Z 17004KT 0600 R15//// BCFG OVC001 05/04
                        Q1020=
201102090615 METAR LIRA 090615Z 15001KT 2000 MIFG OVC001 02/01 Q1019=
201102090545 METAR LIRA 090545Z 17001KT 4000 BR SCT002 02/00 Q1019=
201102090515 METAR LIRA 090515Z 11002KT 4000 BR NSC 01/M01 Q1019=
201102090445 METAR LIRA 090445Z 08001KT 4000 BR SKC 02/M00 Q1018=
201102090415 METAR LIRA 090415Z 09002KT 4000 BR NSC 01/M00 Q1018=
201102090345 METAR LIRA 090345Z 11001KT 4000 BR NSC 01/M01 Q1018=
201102090315 METAR LIRA 090315Z 07002KT 4000 BR NSC 01/M00 Q1018=
201102090245 METAR LIRA 090245Z 14002KT 4000 BR FEW005 01/M00 Q1018=
201102090215 METAR LIRA 090215Z 00000KT 4000 BR FEW005 02/01 Q1018=
201102090145 METAR LIRA 090145Z 00000KT 4000 BR FEW005 03/02 Q1018=
201102090115 METAR LIRA 090115Z 10002KT 4000 BR FEW005 03/02 Q1018=
201102090045 METAR LIRA 090045Z 09002KT 4000 BR SCT005 03/03 Q1018=
201102090015 METAR LIRA 090015Z 04003KT 3000 BR SCT005 03/02 Q1018=
201102082350 METAR LIRA 090045Z 09002KT 4000 BR SCT005 03/03 Q1018=
201102082345 METAR LIRA 082345Z 10002KT 3000 BR SCT005 04/03 Q1018=
201102082315 METAR LIRA 082315Z 15001KT 3000 BR SCT005 04/03 Q1018=
201102082245 METAR LIRA 082245Z 10002KT 3000 BR SCT004 05/05 Q1018=
201102082215 METAR LIRA 082215Z 08002KT 3000 BR SCT004 05/05 Q1018=
201102082145 METAR LIRA 082145Z 10002KT 3000 BR SCT005 06/05 Q1018=
201102082115 METAR LIRA 082115Z 07001KT 3000 BR SCT005 06/05 Q1018=
201102082045 METAR LIRA 082045Z 11002KT 3000 BR SCT005 07/06 Q1018=
201102082015 METAR LIRA 082015Z 08001KT 3000 BR SCT005 07/06 Q1018=
201102081945 METAR LIRA 081945Z 12002KT 3000 BR SCT005 07/06 Q1019=
201102081915 METAR LIRA 081915Z 14001KT 3000 BR SCT005 08/07 Q1019=
201102081845 METAR LIRA 081845Z 17002KT 3000 BR SCT005 08/07 Q1019=
201102081815 METAR LIRA 081815Z 20002KT 3000 BR SCT005 09/08 Q1019=
201102081745 METAR LIRA 081745Z 21002KT 3000 BR SCT005 10/08 Q1018=
201102081715 METAR LIRA 081715Z 00000KT 2000 BR SCT005 11/09 Q1018=
201102081645 METAR LIRA 081645Z 27003KT 2000 BR SCT005 12/10 Q1018=
201102081615 METAR LIRA 081615Z 26003KT 3500 BR NSC 13/09 Q1018=
201102081545 METAR LIRA 081545Z 26004KT 3500 BR NSC 13/10 Q1019=
201102081515 METAR LIRA 081515Z 23005KT 4500 BR NSC 14/10 Q1019=
201102081445 METAR LIRA 081445Z 23003KT 5000 BR NSC 15/08 Q1019=
201102081415 METAR LIRA 081415Z 23003KT 4000 BR NSC 15/08 Q1019=
201102081345 METAR LIRA 081345Z 24004KT 220V300 4000 BR NSC 15/09 Q1020=
201102081315 METAR LIRA 081315Z 24005KT 200V300 4000 BR NSC 15/09 Q1020=
201102081245 METAR LIRA 081245Z 20003KT 3000 BR FEW003 14/09 Q1020=
201102081215 METAR LIRA 081215Z 23003KT 3000 BR FEW002 14/09 Q1020=
201102081145 METAR LIRA 081145Z 21004KT 3000 BR FEW002 13/09 Q1021=
201102081115 METAR LIRA 081115Z 23002KT 3500 BR FEW001 13/08 Q1021=
201102081045 METAR LIRA 081045Z 21002KT 4000 BR FEW001 12/08 Q1021=
201102081015 METAR LIRA 081015Z 30003KT 4000 BR FEW001 10/05 Q1022=
201102080945 METAR LIRA 080945Z 30002KT 3000 BR NSC 08/06 Q1022=
201102080915 METAR LIRA 080915Z 32001KT 2500 BR NSC 08/07 Q1022=
201102080845 METAR LIRA 080845Z 30002KT 3000 1200N R15//// BR SCT005 07/06
                        Q1022=
201102080815 METAR LIRA 080815Z 29002KT 7000 NSC 06/02 Q1022=
201102080745 METAR LIRA 080745Z 22003KT CAVOK 05/02 Q1021=
201102080715 METAR LIRA 080715Z 10001KT CAVOK 03/01 Q1021=
201102080645 METAR LIRA 080645Z 05003KT CAVOK 03/01 Q1021=
201102080615 METAR LIRA 080615Z 08002KT CAVOK 03/00 Q1021=
201102080545 METAR LIRA 080545Z 06003KT CAVOK 03/02 Q1021=
201102080515 METAR LIRA 080515Z 03003KT CAVOK 02/01 Q1022=
201102080445 METAR LIRA 080445Z 01002KT 7000 FEW005 02/01 Q1022=
201102080415 METAR LIRA 080415Z 08003KT 7000 FEW005 02/01 Q1022=
201102080345 METAR LIRA 080345Z 08003KT 7000 FEW005 03/01 Q1022=
201102080315 METAR LIRA 080315Z 05004KT 7000 FEW005 03/01 Q1022=
201102080245 METAR LIRA 080245Z 03003KT 7000 FEW005 03/00 Q1022=
201102080215 METAR LIRA 080215Z 13002KT 7000 FEW005 03/M00 Q1022=
201102080145 METAR LIRA 080145Z 09002KT 7000 FEW005 03/01 Q1022=
201102080115 METAR LIRA 080115Z 11002KT 7000 FEW005 03/01 Q1022=
201102080045 METAR LIRA 080045Z 13003KT 7000 FEW010 03/01 Q1022=
201102080015 METAR LIRA 080015Z 14001KT 7000 FEW010 03/02 Q1022=
201102072350 METAR LIRA 080045Z 13003KT 7000 FEW010 03/01 Q1022=
201102072345 METAR LIRA 072345Z 13002KT 7000 FEW010 04/02 Q1022=
201102072315 METAR LIRA 072315Z 35001KT 7000 FEW010 05/02 Q1023=
201102072245 METAR LIRA 072245Z 06003KT 7000 FEW010 05/03 Q1023=
201102072215 METAR LIRA 072215Z 05003KT 7000 FEW010 06/03 Q1023=
201102072145 METAR LIRA 072145Z 05001KT 7000 FEW010 06/03 Q1023=
201102072115 METAR LIRA 072115Z 05002KT 7000 FEW010 06/03 Q1023=
201102072045 METAR LIRA 072045Z 09001KT 7000 FEW010 06/04 Q1023=
201102072015 METAR LIRA 072015Z 16001KT 8000 FEW010 07/04 Q1024=
201102071945 METAR LIRA 071945Z 11002KT CAVOK 07/05 Q1024=
201102071915 METAR LIRA 071915Z 14002KT CAVOK 07/05 Q1024=
201102071845 METAR LIRA 071845Z 12002KT CAVOK 07/05 Q1024=
201102071815 METAR LIRA 071815Z 16003KT CAVOK 08/07 Q1024=
201102071745 METAR LIRA 071745Z 16003KT CAVOK 10/08 Q1024=
201102071715 METAR LIRA 071715Z 17003KT CAVOK 10/07 Q1023=
201102071645 METAR LIRA 071645Z 21003KT CAVOK 13/09 Q1023=
201102071615 METAR LIRA 071615Z 23005KT 200V290 CAVOK 13/09 Q1023=
201102071545 METAR LIRA 071545Z 25004KT 220V300 CAVOK 16/09 Q1024=
201102071515 METAR LIRA 071515Z 30003KT CAVOK 18/02 Q1024=
201102071445 METAR LIRA 071445Z 30002KT CAVOK 18/01 Q1024=
201102071415 METAR LIRA 071415Z 30002KT CAVOK 18/02 Q1024=
201102071345 METAR LIRA 071345Z 33002KT CAVOK 17/02 Q1024=
201102071315 METAR LIRA 071315Z 01003KT CAVOK 17/02 Q1024=
201102071245 METAR LIRA 071245Z 01005KT CAVOK 16/02 Q1024=
201102071215 METAR LIRA 071215Z 34003KT CAVOK 16/03 Q1025=
201102071145 METAR LIRA 071145Z 34004KT CAVOK 15/02 Q1026=
201102071115 METAR LIRA 071115Z 34003KT CAVOK 14/03 Q1026=
201102071045 METAR LIRA 071045Z 36003KT CAVOK 13/02 Q1026=
201102071015 METAR LIRA 071015Z 01003KT CAVOK 12/03 Q1027=
201102070945 METAR LIRA 070945Z 01003KT CAVOK 11/03 Q1027=
201102070915 METAR LIRA 070915Z 01003KT CAVOK 09/02 Q1027=
201102070845 METAR LIRA 070845Z 02003KT CAVOK 08/03 Q1027=
201102070815 METAR LIRA 070815Z 01003KT CAVOK 07/02 Q1026=
201102070745 METAR LIRA 070745Z 04003KT CAVOK 07/03 Q1026=
201102070715 METAR LIRA 070715Z 04005KT 8000 NSC 05/02 Q1026=
201102070645 METAR LIRA 070645Z 04005KT 8000 NSC 04/01 Q1025=
201102070615 METAR LIRA 070615Z 06003KT 8000 NSC 04/02 Q1025=
201102070545 METAR LIRA 070545Z 05004KT CAVOK 04/01 Q1025=
201102070515 METAR LIRA 070515Z 04004KT CAVOK 04/02 Q1026=
201102070445 METAR LIRA 070445Z 04004KT CAVOK 05/02 Q1026=
201102070415 METAR LIRA 070415Z 05004KT CAVOK 04/02 Q1026=
201102070345 METAR LIRA 070345Z 06006KT CAVOK 04/02 Q1026=
201102070315 METAR LIRA 070315Z 05004KT 7000 NSC 04/02 Q1026=
201102070245 METAR LIRA 070245Z 05003KT 7000 NSC 04/02 Q1026=
201102070215 METAR LIRA 070215Z 05003KT 7000 NSC 05/03 Q1026=
201102070145 METAR LIRA 070145Z 05003KT 7000 NSC 05/02 Q1026=
201102070115 METAR LIRA 070115Z 06004KT 7000 NSC 04/02 Q1026=
201102070045 METAR LIRA 070045Z 05003KT 7000 NSC 04/02 Q1026=
201102070015 METAR LIRA 070015Z 07002KT 7000 NSC 04/03 Q1026=
201102062350 METAR LIRA 070045Z 05003KT 7000 NSC 04/02 Q1026=
201102062345 METAR LIRA 062345Z 03003KT 7000 NSC 05/03 Q1026=
201102062315 METAR LIRA 062315Z 02003KT 8000 NSC 05/03 Q1026=
201102062245 METAR LIRA 062245Z 03002KT 8000 NSC 06/03 Q1026=
201102062215 METAR LIRA 062215Z 05003KT 8000 NSC 06/03 Q1026=
201102062145 METAR LIRA 062145Z 03002KT CAVOK 07/03 Q1026=
201102062115 METAR LIRA 062115Z 04004KT CAVOK 07/04 Q1026=
201102062045 METAR LIRA 062045Z 05004KT CAVOK 08/05 Q1026=
201102062015 METAR LIRA 062015Z 06003KT CAVOK 08/06 Q1026=
201102061945 METAR LIRA 061945Z 10002KT CAVOK 08/05 Q1026=
201102061915 METAR LIRA 061915Z 09002KT CAVOK 08/06 Q1026=
201102061845 METAR LIRA 061845Z 09002KT CAVOK 08/07 Q1026=
201102061815 METAR LIRA 061815Z 11002KT CAVOK 08/06 Q1026=
201102061745 METAR LIRA 061745Z 20001KT CAVOK 10/07 Q1026=
201102061715 METAR LIRA 061715Z 22002KT CAVOK 11/06 Q1026=
201102061645 METAR LIRA 061645Z 24003KT CAVOK 12/04 Q1025=
201102061615 METAR LIRA 061615Z 26003KT CAVOK 15/03 Q1025=
201102061545 METAR LIRA 061545Z 26003KT CAVOK 15/02 Q1025=
201102061515 METAR LIRA 061515Z 26003KT CAVOK 17/03 Q1025=
201102061445 METAR LIRA 061445Z 26003KT CAVOK 17/03 Q1025=
201102061415 METAR LIRA 061415Z 02001KT CAVOK 17/01 Q1025=
201102061345 METAR LIRA 061345Z 04001KT CAVOK 17/01 Q1025=
201102061315 METAR LIRA 061315Z 33002KT CAVOK 16/00 Q1026=
201102061245 METAR LIRA 061245Z 31003KT CAVOK 15/M00 Q1026=
201102061215 METAR LIRA 061215Z 29003KT CAVOK 15/M00 Q1026=
201102061145 METAR LIRA 061145Z 30002KT CAVOK 15/00 Q1026=
201102061115 METAR LIRA 061115Z 28002KT CAVOK 13/02 Q1026=
201102061045 METAR LIRA 061045Z 33001KT CAVOK 12/02 Q1026=
201102061015 METAR LIRA 061015Z 33003KT CAVOK 11/02 Q1026=
201102060945 METAR LIRA 060945Z 34003KT CAVOK 09/02 Q1026=
201102060915 METAR LIRA 060915Z 01002KT CAVOK 08/02 Q1026=
201102060845 METAR LIRA 060845Z 36004KT CAVOK 07/01 Q1026=
201102060815 METAR LIRA 060815Z 03002KT CAVOK 06/01 Q1026=
201102060745 METAR LIRA 060745Z 03005KT 350V080 CAVOK 06/00 Q1026=
201102060715 METAR LIRA 060715Z 03004KT 340V090 CAVOK 05/00 Q1026=
201102060645 METAR LIRA 060645Z 05006KT 360V090 CAVOK 03/M00 Q1026=
201102060615 METAR LIRA 060615Z 06005KT CAVOK 02/M01 Q1026=
201102060545 METAR LIRA 060545Z 04005KT CAVOK 02/00 Q1026=
201102060515 METAR LIRA 060515Z 04002KT CAVOK 03/00 Q1026=
201102060445 METAR LIRA 060445Z 02004KT 9000 NSC 03/M00 Q1026=
201102060415 METAR LIRA 060415Z 06004KT 8000 NSC 03/01 Q1026=
201102060345 METAR LIRA 060345Z 04006KT 7000 NSC 03/03 Q1026=
201102060315 METAR LIRA 060315Z 04005KT 6000 NSC 03/02 Q1026=
201102060245 METAR LIRA 060245Z 05004KT 6000 NSC 03/02 Q1027=
201102060215 METAR LIRA 060215Z 03003KT 7000 NSC 03/02 Q1027=
201102060145 METAR LIRA 060145Z 35002KT 7000 NSC 04/02 Q1027=
201102060115 METAR LIRA 060115Z 03003KT 7000 NSC 04/03 Q1027=
201102060045 METAR LIRA 060045Z 05004KT 7000 NSC 04/03 Q1027=
201102060015 METAR LIRA 060015Z 06002KT 7000 NSC 05/03 Q1028=
201102052350 METAR LIRA 060045Z 05004KT 7000 NSC 04/03 Q1027=
201102052345 METAR LIRA 052345Z 07003KT 7000 NSC 05/03 Q1028=
201102052315 METAR LIRA 052315Z 01003KT 8000 NSC 06/04 Q1028=
201102052245 METAR LIRA 052245Z 04002KT 8000 NSC 06/04 Q1028=
201102052215 METAR LIRA 052215Z 34003KT 8000 NSC 06/03 Q1028=
201102052145 METAR LIRA 052145Z 09002KT CAVOK 07/03 Q1028=
201102052115 METAR LIRA 052115Z 09003KT CAVOK 06/02 Q1028=
201102052045 METAR LIRA 052045Z 10003KT CAVOK 07/04 Q1028=
201102052015 METAR LIRA 052015Z 09003KT CAVOK 07/05 Q1027=
201102051945 METAR LIRA 051945Z 10004KT CAVOK 08/05 Q1027=
201102051915 METAR LIRA 051915Z 11002KT CAVOK 08/07 Q1027=
201102051845 METAR LIRA 051845Z 15002KT CAVOK 08/06 Q1027=
201102051815 METAR LIRA 051815Z 15003KT CAVOK 09/06 Q1027=
201102051745 METAR LIRA 051745Z 16004KT CAVOK 09/05 Q1027=
201102051715 METAR LIRA 051715Z 16004KT CAVOK 10/04 Q1027=
201102051645 METAR LIRA 051645Z 23002KT CAVOK 12/04 Q1027=
201102051615 METAR LIRA 051615Z 26002KT CAVOK 13/05 Q1027=
201102051545 METAR LIRA 051545Z 26004KT CAVOK 15/05 Q1027=
201102051515 METAR LIRA 051515Z 31003KT CAVOK 16/M03 Q1027=
201102051445 METAR LIRA 051445Z 33002KT CAVOK 16/M02 Q1027=
201102051415 METAR LIRA 051415Z 31003KT CAVOK 16/M01 Q1027=
201102051345 METAR LIRA 051345Z 32003KT CAVOK 15/M00 Q1027=
201102051315 METAR LIRA 051315Z 20003KT CAVOK 16/00 Q1027=
201102051245 METAR LIRA 051245Z 20002KT CAVOK 15/00 Q1027=
201102051215 METAR LIRA 051215Z 30003KT CAVOK 14/00 Q1028=
201102051145 METAR LIRA 051145Z 23003KT CAVOK 15/01 Q1028=
201102051115 METAR LIRA 051115Z 30002KT 9999 FEW080 13/02 Q1028=
201102051045 METAR LIRA 051045Z 02001KT 9999 FEW080 12/02 Q1028=
201102051015 METAR LIRA 051015Z 04004KT 9999 FEW080 10/02 Q1028=
201102050945 METAR LIRA 050945Z 01004KT 9999 FEW018 09/02 Q1028=
201102050915 METAR LIRA 050915Z 03004KT 320V070 CAVOK 08/01 Q1028=
201102050845 METAR LIRA 050845Z 01004KT 9999 FEW018 06/01 Q1028=
201102050815 METAR LIRA 050815Z 03002KT CAVOK 05/01 Q1028=
201102050745 METAR LIRA 050745Z 03003KT CAVOK 04/01 Q1028=
201102050715 METAR LIRA 050715Z 02003KT CAVOK 03/01 Q1028=
201102050645 METAR LIRA 050645Z 03002KT CAVOK 01/M00 Q1027=
201102050615 METAR LIRA 050615Z 04002KT CAVOK 02/M00 Q1027=
201102050545 METAR LIRA 050545Z 07004KT CAVOK 01/M01 Q1027=
201102050515 METAR LIRA 050515Z 04003KT CAVOK 02/M00 Q1027=
201102050445 METAR LIRA 050445Z 02002KT CAVOK 02/M01 Q1027=
201102050415 METAR LIRA 050415Z 06002KT CAVOK 03/M00 Q1026=
201102050345 METAR LIRA 050345Z 05003KT CAVOK 03/00 Q1026=
201102050315 METAR LIRA 050315Z 06003KT CAVOK 03/00 Q1026=
201102050245 METAR LIRA 050245Z 08002KT CAVOK 03/00 Q1026=
201102050215 METAR LIRA 050215Z 03003KT CAVOK 03/00 Q1027=
201102050145 METAR LIRA 050145Z 02001KT CAVOK 04/00 Q1026=
201102050115 METAR LIRA 050115Z 09002KT CAVOK 04/01 Q1026=
201102050045 METAR LIRA 050045Z 04004KT CAVOK 04/01 Q1026=
201102050015 METAR LIRA 050015Z 05005KT 010V070 CAVOK 04/02 Q1026=
201102042350 METAR LIRA 050045Z 04004KT CAVOK 04/01 Q1026=
201102042345 METAR LIRA 042345Z 05003KT CAVOK 05/02 Q1026=
201102042315 METAR LIRA 042315Z 03004KT CAVOK 05/02 Q1026=
201102042245 METAR LIRA 042245Z 36004KT CAVOK 06/02 Q1026=
201102042215 METAR LIRA 042215Z 00000KT CAVOK 06/02 Q1026=
201102042145 METAR LIRA 042145Z 03005KT CAVOK 06/02 Q1026=
201102042115 METAR LIRA 042115Z 06002KT CAVOK 05/02 Q1026=
201102042045 METAR LIRA 042045Z 00000KT CAVOK 05/02 Q1026=
201102042015 METAR LIRA 042015Z 26001KT CAVOK 06/02 Q1026=
201102041945 METAR LIRA 041945Z 14002KT CAVOK 06/02 Q1026=
201102041915 METAR LIRA 041915Z 14004KT CAVOK 07/03 Q1026=
201102041845 METAR LIRA 041845Z 13002KT CAVOK 08/04 Q1026=
201102041815 METAR LIRA 041815Z 14005KT CAVOK 08/05 Q1026=
201102041745 METAR LIRA 041745Z 14006KT CAVOK 08/06 Q1026=
201102041715 METAR LIRA 041715Z 17005KT CAVOK 10/05 Q1026=
201102041645 METAR LIRA 041645Z 19004KT CAVOK 11/03 Q1025=
201102041615 METAR LIRA 041615Z 21004KT CAVOK 12/03 Q1025=
201102041545 METAR LIRA 041545Z 23007KT 200V280 CAVOK 14/05 Q1025=
201102041515 METAR LIRA 041515Z 23005KT 180V290 CAVOK 15/01 Q1025=
201102041445 METAR LIRA 041445Z 21004KT CAVOK 16/M03 Q1025=
201102041415 METAR LIRA 041415Z 22004KT CAVOK 15/M03 Q1025=
201102041345 METAR LIRA 041345Z 31003KT CAVOK 15/M03 Q1025=
201102041315 METAR LIRA 041315Z 04002KT CAVOK 15/M03 Q1025=
201102041245 METAR LIRA 041245Z 20002KT CAVOK 15/M03 Q1025=
201102041215 METAR LIRA 041215Z 17003KT CAVOK 15/M02 Q1025=
201102041145 METAR LIRA 041145Z 18001KT CAVOK 13/M02 Q1025=
201102041115 METAR LIRA 041115Z 22001KT 9999 FEW080 11/M02 Q1025=
201102041045 METAR LIRA 041045Z 33004KT 9999 FEW080 10/M02 Q1025=
201102041015 METAR LIRA 041015Z 32005KT 270V360 9999 FEW080 10/M01 Q1025=
201102040945 METAR LIRA 040945Z 04001KT 9999 FEW080 10/M03 Q1024=
201102040915 METAR LIRA 040915Z 02002KT 9999 FEW080 08/M01 Q1024=
201102040845 METAR LIRA 040845Z 03002KT 9999 FEW080 06/M00 Q1024=
201102040815 METAR LIRA 040815Z 32006KT 9999 FEW040 SCT080 05/01 Q1023=
201102040745 METAR LIRA 040745Z 08006KT 050V110 9999 FEW040 SCT080 05/01
                        Q1023=
201102040715 METAR LIRA 040715Z 04003KT 9999 FEW040 SCT080 02/M01 Q1022=
201102040645 METAR LIRA 040645Z 06003KT 9999 FEW040 SCT080 02/M02 Q1022=
201102040615 METAR LIRA 040615Z 25001KT 9999 FEW040 SCT080 02/M02 Q1021=
201102040545 METAR LIRA 040545Z 15001KT 9999 SCT080 02/M02 Q1021=
201102040515 METAR LIRA 040515Z 34003KT CAVOK 03/M02 Q1021=
201102040445 METAR LIRA 040445Z 05005KT CAVOK 03/M02 Q1020=
201102040415 METAR LIRA 040415Z 05007KT CAVOK 02/M02 Q1020=
201102040345 METAR LIRA 040345Z 04006KT CAVOK 01/M02 Q1020=
201102040315 METAR LIRA 040315Z 04005KT CAVOK 01/M02 Q1020=
201102040245 METAR LIRA 040245Z 04005KT CAVOK 02/M02 Q1020=
201102040215 METAR LIRA 040215Z 03005KT 340V060 CAVOK 03/M01 Q1020=
201102040145 METAR LIRA 040145Z 04005KT CAVOK 03/M01 Q1020=
201102040115 METAR LIRA 040115Z 05005KT CAVOK 03/M01 Q1020=
201102040045 METAR LIRA 040045Z 04005KT 360V060 CAVOK 03/M01 Q1020=
201102040015 METAR LIRA 040015Z 04006KT CAVOK 04/M01 Q1020=
201102032350 METAR LIRA 040045Z 04005KT 360V060 CAVOK 03/M01 Q1020=
201102032345 METAR LIRA 032345Z 05006KT CAVOK 04/M01 Q1020=
201102032315 METAR LIRA 032315Z 04005KT CAVOK 03/M01 Q1020=
201102032245 METAR LIRA 032245Z 08004KT CAVOK 03/M01 Q1019=
201102032215 METAR LIRA 032215Z 05001KT CAVOK 04/M01 Q1019=
201102032145 METAR LIRA 032145Z 34004KT CAVOK 05/M01 Q1019=
201102032115 METAR LIRA 032115Z 34006KT CAVOK 05/M00 Q1018=
201102032045 METAR LIRA 032045Z 03001KT CAVOK 05/M01 Q1018=
201102032015 METAR LIRA 032015Z 28002KT CAVOK 06/M01 Q1018=
201102031945 METAR LIRA 031945Z 09001KT CAVOK 06/M01 Q1018=
201102031915 METAR LIRA 031915Z 33006KT CAVOK 07/M00 Q1017=
201102031845 METAR LIRA 031845Z 33006KT 300V360 CAVOK 07/M00 Q1017=
201102031815 METAR LIRA 031815Z 35004KT 300V050 CAVOK 08/00 Q1017=
201102031745 METAR LIRA 031745Z 35006KT 320V020 CAVOK 09/M00 Q1016=
201102031715 METAR LIRA 031715Z 01005KT 340V050 CAVOK 10/M01 Q1016=
201102031645 METAR LIRA 031645Z 01009KT 330V050 CAVOK 11/M02 Q1016=
201102031615 METAR LIRA 031615Z 35007KT 310V040 CAVOK 12/M01 Q1016=
201102031545 METAR LIRA 031545Z 35009KT 300V040 CAVOK 14/M01 Q1016=
201102031515 METAR LIRA 031515Z 34009KT 290V030 CAVOK 14/M02 Q1016=
201102031445 METAR LIRA 031445Z 36010KT 300V060 CAVOK 14/M06 Q1016=
201102031415 METAR LIRA 031415Z 36011KT 320V060 9999 FEW040 14/M04 Q1016=
201102031345 METAR LIRA 031345Z 36010KT 300V060 9999 FEW040 14/M04 Q1016=
201102031315 METAR LIRA 031315Z 35011KT 300V050 9999 FEW040 13/M04 Q1016=
201102031245 METAR LIRA 031245Z 01008KT 310V060 9999 FEW040 13/M04 Q1016=
201102031215 METAR LIRA 031215Z 01009KT 310V050 9999 FEW040 13/M02 Q1016=
201102031145 METAR LIRA 031145Z 02006KT 280V080 9999 FEW070 12/M01 Q1016=
201102031115 METAR LIRA 031115Z 03005KT 330V070 9999 FEW030 11/M00 Q1017=
201102031045 METAR LIRA 031045Z 06005KT 020V090 9999 FEW030 10/01 Q1017=
201102031015 METAR LIRA 031015Z 04006KT 360V080 9999 FEW030 09/01 Q1017=
201102030945 METAR LIRA 030945Z 04006KT 360V090 9999 FEW030 07/M00 Q1017=
201102030915 METAR LIRA 030915Z 04007KT 360V080 9999 FEW030 06/M00 Q1017=
201102030845 METAR LIRA 030845Z 02008KT 330V070 9999 FEW030 05/M01 Q1016=
201102030815 METAR LIRA 030815Z 36009KT 320V050 9999 FEW030 04/M02 Q1016=
201102030745 METAR LIRA 030745Z 01006KT 330V050 9999 FEW020 03/M03 Q1016=
201102030715 METAR LIRA 030715Z 06004KT 9999 FEW020 SCT070 02/M02 Q1016=
201102030645 METAR LIRA 030645Z 08002KT 9999 FEW020 SCT070 02/M01 Q1015=
201102030615 METAR LIRA 030615Z 05004KT 9999 FEW020 02/M01 Q1015=
201102030545 METAR LIRA 030545Z 35004KT 9999 SCT020 SCT070 02/M01 Q1015=
201102030515 METAR LIRA 030515Z 36005KT 320V040 9999 FEW020 SCT070 02/M01
                        Q1015=
201102030445 METAR LIRA 030445Z 08008KT 9999 FEW020 SCT070 02/M01 Q1015=
201102030415 METAR LIRA 030415Z 01006KT 9999 SCT070 01/M02 Q1015=
201102030345 METAR LIRA 030345Z 05004KT 9999 FEW070 01/M01 Q1015=
201102030315 METAR LIRA 030315Z 05004KT 9999 FEW080 01/M02 Q1015=
201102030245 METAR LIRA 030245Z 35004KT 9999 FEW015 02/M01 Q1015=
201102030215 METAR LIRA 030215Z 36003KT 9999 FEW010 03/M00 Q1015=
201102030145 METAR LIRA 030145Z 04005KT 9999 FEW080 03/M00 Q1015=
201102030115 METAR LIRA 030115Z 01003KT 9999 FEW080 04/M01 Q1015=
201102030045 METAR LIRA 030045Z 01003KT 9999 FEW080 04/M01 Q1015=
201102030015 METAR LIRA 030015Z 01003KT 9999 FEW080 04/M01 Q1015=
201102022350 METAR LIRA 030045Z 01003KT 9999 FEW080 04/M01 Q1015=
201102022345 METAR LIRA 022345Z 02004KT 300V070 CAVOK 05/00 Q1015=
201102022315 METAR LIRA 022315Z 02004KT 9999 FEW080 05/M00 Q1015=
201102022245 METAR LIRA 022245Z 01005KT 340V060 9999 FEW080 05/00 Q1015=
201102022215 METAR LIRA 022215Z 02005KT 9999 FEW080 05/M00 Q1015=
201102022145 METAR LIRA 022145Z 01005KT 330V050 9999 FEW080 06/01 Q1015=
201102022115 METAR LIRA 022115Z 36004KT 9999 FEW080 06/02 Q1015=
201102022045 METAR LIRA 022045Z 03004KT 9999 FEW080 06/02 Q1015=
201102022015 METAR LIRA 022015Z 05002KT 9999 FEW080 06/02 Q1014=
201102021945 METAR LIRA 021945Z 04002KT 9999 FEW080 07/03 Q1014=
201102021915 METAR LIRA 021915Z 09005KT 9999 FEW070 07/03 Q1014=
201102021845 METAR LIRA 021845Z 08006KT 9999 FEW080 07/04 Q1014=
201102021815 METAR LIRA 021815Z 13006KT 9999 FEW080 08/05 Q1014=
201102021745 METAR LIRA 021745Z 15005KT 100V190 9999 FEW080 09/05 Q1014=
201102021715 METAR LIRA 021715Z 17006KT 9999 FEW080 10/05 Q1013=
201102021645 METAR LIRA 021645Z 18005KT 9999 FEW080 11/03 Q1013=
201102021615 METAR LIRA 021615Z 24001KT 9999 FEW080 13/02 Q1013=
201102021545 METAR LIRA 021545Z 32002KT 9999 FEW080 14/02 Q1013=
201102021515 METAR LIRA 021515Z 31003KT 9999 FEW080 14/01 Q1013=
201102021445 METAR LIRA 021445Z 31004KT 9999 FEW020 13/02 Q1013=
201102021415 METAR LIRA 021415Z 32003KT 9999 FEW020 13/02 Q1013=
201102021345 METAR LIRA 021345Z 05002KT 9999 FEW020 13/02 Q1013=
201102021315 METAR LIRA 021315Z 36002KT 9999 FEW020 SCT080 13/02 Q1014=
201102021245 METAR LIRA 021245Z 36003KT 9999 FEW080 12/02 Q1014=
201102021215 METAR LIRA 021215Z 36004KT 9999 FEW080 12/02 Q1014=
201102021145 METAR LIRA 021145Z 36004KT 330V060 9999 FEW080 12/03 Q1014=
201102021115 METAR LIRA 021115Z 02005KT 330V060 9999 SCT080 11/03 Q1015=
201102021045 METAR LIRA 021045Z 36004KT 340V060 9999 SCT080 10/04 Q1015=
201102021015 METAR LIRA 021015Z 36004KT 9999 SCT080 09/03 Q1015=
201102020945 METAR LIRA 020945Z 01006KT 320V070 9999 SCT080 09/03 Q1015=
201102020915 METAR LIRA 020915Z 01005KT 300V060 9999 SCT080 08/04 Q1015=
201102020845 METAR LIRA 020845Z 02004KT 9999 FEW080 06/03 Q1015=
201102020815 METAR LIRA 020815Z 01004KT 9999 FEW080 05/03 Q1015=
201102020745 METAR LIRA 020745Z 04003KT 9999 FEW080 05/03 Q1015=
201102020715 METAR LIRA 020715Z 03004KT 9999 FEW080 04/02 Q1015=
201102020645 METAR LIRA 020645Z 04005KT 350V070 9999 FEW080 04/02 Q1014=
201102020615 METAR LIRA 020615Z 03005KT 9999 FEW080 04/02 Q1014=
201102020545 METAR LIRA 020545Z 03005KT 9999 FEW080 04/02 Q1014=
201102020515 METAR LIRA 020515Z 02005KT 330V070 9999 FEW080 05/03 Q1014=
201102020445 METAR LIRA 020445Z 36005KT 330V030 9999 SCT080 05/03 Q1014=
201102020415 METAR LIRA 020415Z 01004KT 9999 SCT080 05/03 Q1014=
201102020345 METAR LIRA 020345Z 02004KT 9999 SCT080 05/03 Q1014=
201102020315 METAR LIRA 020315Z 01005KT 330V060 9999 SCT080 06/03 Q1014=
201102020245 METAR LIRA 020245Z 36006KT 330V030 9999 SCT080 06/03 Q1014=
201102020215 METAR LIRA 020215Z 01006KT 310V060 9999 FEW080 07/03 Q1014=
201102020145 METAR LIRA 020145Z 36006KT 320V030 9999 SCT080 07/03 Q1014=
201102020115 METAR LIRA 020115Z 01007KT 320V050 9999 SCT080 08/03 Q1014=
201102020045 METAR LIRA 020045Z 05010KT 010V080 9999 SCT080 09/02 Q1014=
201102020015 METAR LIRA 020015Z 01011KT 330V060 9999 SCT080 09/02 Q1014=
201102012350 METAR LIRA 020045Z 05010KT 010V080 9999 SCT080 09/02 Q1014=
201102012345 METAR LIRA 012345Z 05007KT 9999 SCT080 09/02 Q1014=
201102012315 METAR LIRA 012315Z 05008KT 010V070 9999 SCT080 09/02 Q1014=
201102012245 METAR LIRA 012245Z 04004KT 360V100 9999 SCT080 09/02 Q1014=
201102012215 METAR LIRA 012215Z 03008KT 340V060 9999 SCT080 10/02 Q1014=
201102012145 METAR LIRA 012145Z 01005KT 330V060 9999 SCT080 09/02 Q1014=
201102012115 METAR LIRA 012115Z 02009KT 330V060 9999 SCT080 10/02 Q1014
                        WS RWY 15=
201102012045 METAR LIRA 012045Z 04008KT 350V080 9999 SCT080 10/02 Q1014
                        RMK WS RWY 15=
201102012015 METAR LIRA 012015Z 03006KT 340V080 9999 SCT080 10/02 Q1014=
201102011945 METAR LIRA 011945Z 04007KT 350V070 9999 SCT080 10/04 Q1014=
201102011915 METAR LIRA 011915Z 04007KT 360V070 9999 SCT080 10/03 Q1014=
201102011845 METAR LIRA 011845Z 02008KT 310V080 9999 SCT080 11/03 Q1013=
201102011815 METAR LIRA 011815Z 03006KT 340V070 9999 SCT080 10/03 Q1013=
201102011745 METAR LIRA 011745Z 02003KT 9999 FEW035 SCT080 10/04 Q1013=
201102011715 METAR LIRA 011715Z 05006KT 020V080 9999 FEW030 SCT080 10/04
                        Q1013=
201102011645 METAR LIRA 011645Z 05008KT 010V100 9999 FEW030 SCT080 11/04
                        Q1013=
201102011615 METAR LIRA 011615Z 02004KT 9999 FEW030 SCT080 11/03 Q1013=
201102011545 METAR LIRA 011545Z 06004KT 9999 FEW030 SCT080 12/04 Q1012=
201102011515 METAR LIRA 011515Z 03005KT 340V080 9999 FEW030 SCT080 13/03
                        Q1012=
201102011445 METAR LIRA 011445Z 03005KT 340V090 9999 FEW033 BKN080 13/03
                        Q1012=
201102011415 METAR LIRA 011415Z 03005KT 010V090 9999 FEW030 BKN080 14/03
                        Q1013=
201102011345 METAR LIRA 011345Z 03005KT 330V070 9999 FEW033 BKN080 14/02
                        Q1013=
201102011315 METAR LIRA 011315Z 05007KT 010V110 9999 FEW030 BKN070 13/02
                        Q1013=
201102011245 METAR LIRA 011245Z 06005KT 020V100 9999 FEW030 BKN070 13/02
                        Q1013=
201102011215 METAR LIRA 011215Z 04006KT 360V080 9999 FEW030 BKN070 13/03
                        Q1014=
201102011145 METAR LIRA 011145Z 04010KT 360V080 9999 FEW030 SCT070 12/02
                        Q1014=
201102011115 METAR LIRA 011115Z 05012KT 010V080 9999 FEW030 BKN070 12/03
                        Q1014=
201102011045 METAR LIRA 011045Z 06011KT 020V100 9999 FEW030 SCT200 11/02
                        Q1015=
201102011015 METAR LIRA 011015Z 04011KT 320V090 9999 FEW030 SCT200 11/01
                        Q1015=
201102010945 METAR LIRA 010945Z 05010KT 350V090 9999 FEW030 SCT070 12/03
                        Q1015=
201102010915 METAR LIRA 010915Z 03006KT 340V070 9999 FEW030 SCT070 11/02
                        Q1015=
201102010845 METAR LIRA 010845Z 02004KT 9999 FEW030 BKN070 08/04 Q1015=
201102010815 METAR LIRA 010815Z 36005KT 320V060 9999 FEW030 BKN070 07/03
                        Q1015=
201102010745 METAR LIRA 010745Z 02007KT 330V090 9999 FEW030 BKN070 06/03
                        Q1015=
201102010715 METAR LIRA 010715Z 02007KT 9999 FEW030 BKN070 05/03 Q1015=
201102010645 METAR LIRA 010645Z 35004KT 310V040 9999 FEW030 BKN070 05/02
                        Q1015=
201102010615 METAR LIRA 010615Z 36004KT 310V040 9999 FEW030 BKN070 05/02
                        Q1015=
201102010545 METAR LIRA 010545Z 02008KT 320V060 9999 FEW030 SCT070 06/02
                        Q1015=
201102010515 METAR LIRA 010515Z 01007KT 330V070 9999 FEW030 SCT070 06/02
                        Q1015=
201102010445 METAR LIRA 010445Z 01008KT 330V060 9999 SCT080 06/03 Q1016=
201102010415 METAR LIRA 010415Z 01007KT 320V060 9999 BKN080 07/03 Q1015=
201102010345 METAR LIRA 010345Z 01005KT 330V060 9999 BKN080 07/04 Q1015=
201102010315 METAR LIRA 010315Z 02006KT 330V070 9999 BKN080 07/03 Q1015=
201102010245 METAR LIRA 010245Z 03006KT 320V080 9999 SCT080 07/04 Q1015=
201102010215 METAR LIRA 010215Z 02006KT 350V060 9999 SCT080 06/03 Q1016=
201102010145 METAR LIRA 010145Z 01004KT 9999 FEW080 06/04 Q1016=
201102010115 METAR LIRA 010115Z 36005KT 300V060 9999 FEW080 06/04 Q1016=
201102010045 METAR LIRA 010045Z 01004KT CAVOK 06/04 Q1016=
201102010015 METAR LIRA 010015Z 01005KT 340V060 CAVOK 06/04 Q1016=

</pre>

</body>
</html>
