##########################################################
# Query made at 11/10/2014 16:43:01 UTC
# Time interval: from 02/01/2012 00:00  to 03/02/2012 23:59  UTC
##########################################################

##########################################################
# LIRA, Roma / Ciampino (Italy)
# WMO index: 16239
# Latitude 41-47N. Longitude 012-35E. Altitude 129 m.
##########################################################

###################################
#  METAR/SPECI from LIRA
###################################
201203022350 METAR LIRA 030045Z 21001KT 0100 R15/0500 FG 001 VV/// 10/09
                        Q1025=
201203022345 METAR LIRA 022345Z 22001KT 0100 R15/0400N FG 001 VV/// 10/09
                        Q1025=
201203022315 METAR LIRA 022315Z 14002KT 0100 R15/0400D FG 001 VV/// 10/09
                        Q1025=
201203022245 METAR LIRA 022245Z 17002KT 0800 R15/0800D FG OVC001 10/10
                        Q1025=
201203022215 METAR LIRA 022215Z 17001KT 1200 BR VCFG BKN001 10/10 Q1025=
201203022145 METAR LIRA 022145Z 16001KT 2000 BR VCFG BKN001 10/10 Q1025=
201203022115 METAR LIRA 022115Z 17003KT 2500 BR VCFG BKN001 11/10 Q1025=
201203022045 METAR LIRA 022045Z 18003KT 3000 BR VCFG BKN002 11/10 Q1025=
201203022015 METAR LIRA 022015Z 19003KT 3000 BR VCFG BKN002 11/10 Q1025=
201203021945 METAR LIRA 021945Z 19002KT 2500 0900N R15/P1500 PRFG BKN001
                        11/10 Q1025=
201203021915 METAR LIRA 021915Z 21004KT 2500 0900N R15/P1500 PRFG BKN001
                        11/11 Q1025=
201203021845 METAR LIRA 021845Z 20005KT 3500 BR VCFG BKN002 11/11 Q1025=
201203021815 METAR LIRA 021815Z 21005KT 5000 BR SCT005 12/12 Q1024=
201203021745 METAR LIRA 021745Z 22005KT CAVOK 12/12 Q1024=
201203021715 METAR LIRA 021715Z 22004KT CAVOK 14/13 Q1024=
201203021645 METAR LIRA 021645Z 22005KT CAVOK 15/13 Q1025=
201203021615 METAR LIRA 021615Z 23006KT 9999 FEW070 16/13 Q1025=
201203021545 METAR LIRA 021545Z 23007KT 190V270 9999 FEW070 17/13 Q1025=
201203021515 METAR LIRA 021515Z 23007KT 9999 FEW070 18/14 Q1025=
201203021445 METAR LIRA 021445Z 23006KT 200V280 9999 FEW070 19/13 Q1025=
201203021415 METAR LIRA 021415Z 22006KT 180V250 9999 FEW070 19/13 Q1025=
201203021345 METAR LIRA 021345Z 22004KT 9999 FEW070 19/13 Q1025=
201203021315 METAR LIRA 021315Z 23005KT 9999 FEW070 19/13 Q1025=
201203021245 METAR LIRA 021245Z 24005KT 9999 FEW070 19/13 Q1025=
201203021215 METAR LIRA 021215Z 22003KT 9999 FEW070 19/12 Q1025=
201203021145 METAR LIRA 021145Z 25004KT 9999 FEW005 18/11 Q1025=
201203021115 METAR LIRA 021115Z 21004KT 9999 FEW005 18/11 Q1025=
201203021045 METAR LIRA 021045Z 04003KT 9999 FEW005 17/10 Q1025=
201203021015 METAR LIRA 021015Z 17001KT 9999 FEW005 17/07 Q1025=
201203020945 METAR LIRA 020945Z 33001KT 9999 FEW005 15/07 Q1025=
201203020915 METAR LIRA 020915Z 05001KT 9999 FEW005 14/07 Q1025=
201203020845 METAR LIRA 020845Z 34002KT 9999 FEW005 12/07 Q1025=
201203020815 METAR LIRA 020815Z 00000KT 9999 FEW005 11/07 Q1025=
201203020745 METAR LIRA 020745Z 07002KT 9999 FEW007 10/07 Q1025=
201203020715 METAR LIRA 020715Z 36002KT 9999 FEW007 09/06 Q1025=
201203020645 METAR LIRA 020645Z 35002KT 9999 FEW007 07/05 Q1025=
201203020615 METAR LIRA 020615Z 15001KT 9999 FEW007 07/05 Q1025=
201203020545 METAR LIRA 020545Z 15003KT 9999 FEW005 06/04 Q1024=
201203020515 METAR LIRA 020515Z 11001KT 9999 FEW004 05/04 Q1024=
201203020445 METAR LIRA 020445Z 00000KT 9999 FEW017 06/05 Q1024=
201203020415 METAR LIRA 020415Z 00000KT 9999 FEW017 06/05 Q1024=
201203020345 METAR LIRA 020345Z 05002KT 8000 FEW007 07/05 Q1024=
201203020315 METAR LIRA 020315Z 06001KT 8000 FEW007 07/05 Q1024=
201203020245 METAR LIRA 020245Z 35002KT 8000 FEW007 07/05 Q1024=
201203020215 METAR LIRA 020215Z 09001KT 8000 FEW007 07/05 Q1024=
201203020145 METAR LIRA 020145Z 16002KT 8000 FEW007 08/05 Q1025=
201203020115 METAR LIRA 020115Z 00000KT CAVOK 07/05 Q1025=
201203020045 METAR LIRA 020045Z 33001KT CAVOK 08/06 Q1025=
201203020015 METAR LIRA 020015Z 00000KT CAVOK 09/06 Q1024=
201203012350 METAR LIRA 020045Z 33001KT CAVOK 08/06 Q1025=
201203012345 METAR LIRA 012345Z 01001KT CAVOK 09/06 Q1024=
201203012315 METAR LIRA 012315Z 08002KT CAVOK 10/06 Q1024=
201203012245 METAR LIRA 012245Z 12004KT 9999 FEW010 10/06 Q1024=
201203012215 METAR LIRA 012215Z 14002KT 9999 FEW010 10/06 Q1024=
201203012145 METAR LIRA 012145Z 12002KT 9999 FEW010 11/07 Q1024=
201203012115 METAR LIRA 012115Z 14002KT 9999 FEW010 10/06 Q1024=
201203012045 METAR LIRA 012045Z 13001KT 9999 FEW010 11/07 Q1024=
201203012015 METAR LIRA 012015Z 11001KT CAVOK 12/09 Q1023=
201203011945 METAR LIRA 011945Z 13003KT CAVOK 12/10 Q1023=
201203011915 METAR LIRA 011915Z 16003KT CAVOK 12/10 Q1023=
201203011845 METAR LIRA 011845Z 28002KT CAVOK 13/10 Q1023=
201203011815 METAR LIRA 011815Z 25003KT CAVOK 13/09 Q1023=
201203011745 METAR LIRA 011745Z 19006KT CAVOK 15/09 Q1022=
201203011715 METAR LIRA 011715Z 22005KT 180V240 CAVOK 15/09 Q1022=
201203011645 METAR LIRA 011645Z 21004KT CAVOK 17/09 Q1022=
201203011615 METAR LIRA 011615Z 20005KT CAVOK 18/07 Q1022=
201203011545 METAR LIRA 011545Z 22005KT CAVOK 19/07 Q1021=
201203011515 METAR LIRA 011515Z 20007KT 120V240 9999 FEW020 20/05 Q1021=
201203011445 METAR LIRA 011445Z 20008KT 9999 FEW020 20/05 Q1021=
201203011415 METAR LIRA 011415Z 21006KT 180V260 9999 FEW020 21/06 Q1021=
201203011345 METAR LIRA 011345Z 20007KT 9999 FEW025 20/06 Q1021=
201203011315 METAR LIRA 011315Z 23006KT 9999 FEW025 21/07 Q1021=
201203011245 METAR LIRA 011245Z 20005KT 190V230 9999 FEW020 21/06 Q1021=
201203011215 METAR LIRA 011215Z 20005KT 140V240 9999 FEW020 21/06 Q1021=
201203011145 METAR LIRA 011145Z 21005KT 150V230 CAVOK 21/07 Q1021=
201203011115 METAR LIRA 011115Z 22003KT CAVOK 20/08 Q1021=
201203011045 METAR LIRA 011045Z 25002KT CAVOK 18/07 Q1021=
201203011015 METAR LIRA 011015Z 34001KT CAVOK 18/08 Q1021=
201203010945 METAR LIRA 010945Z 03003KT CAVOK 16/07 Q1021=
201203010915 METAR LIRA 010915Z 35002KT CAVOK 15/08 Q1021=
201203010845 METAR LIRA 010845Z 01001KT 9999 FEW005 13/08 Q1020=
201203010815 METAR LIRA 010815Z 04004KT 8000 FEW005 12/08 Q1020=
201203010745 METAR LIRA 010745Z 02004KT 9999 FEW005 11/07 Q1020=
201203010715 METAR LIRA 010715Z 04003KT 9999 FEW070 10/08 Q1020=
201203010645 METAR LIRA 010645Z 05003KT 9999 FEW070 09/07 Q1019=
201203010615 METAR LIRA 010615Z 05003KT 9999 FEW070 07/06 Q1019=
201203010545 METAR LIRA 010545Z 06005KT 040V100 9999 FEW070 07/06 Q1019=
201203010515 METAR LIRA 010515Z 05002KT 9999 FEW070 07/06 Q1018=
201203010445 METAR LIRA 010445Z 06005KT 9999 FEW070 07/06 Q1018=
201203010415 METAR LIRA 010415Z 05004KT 9999 FEW070 07/06 Q1018=
201203010345 METAR LIRA 010345Z 03003KT 9999 FEW070 07/06 Q1018=
201203010315 METAR LIRA 010315Z 03004KT 9999 FEW070 08/06 Q1018=
201203010245 METAR LIRA 010245Z 05002KT 9000 FEW070 08/07 Q1018=
201203010215 METAR LIRA 010215Z 34002KT 9000 FEW070 08/07 Q1018=
201203010145 METAR LIRA 010145Z 04002KT 9000 FEW070 08/07 Q1018=
201203010115 METAR LIRA 010115Z 04004KT 9000 FEW070 09/08 Q1018=
201203010045 METAR LIRA 010045Z 05004KT 9000 FEW070 09/07 Q1018=
201203010015 METAR LIRA 010015Z 06005KT 9000 FEW070 08/07 Q1018=
201202292350 METAR LIRA 010045Z 05004KT 9000 FEW070 09/07 Q1018=
201202292345 METAR LIRA 292345Z 06004KT 9000 NSC 08/07 Q1018=
201202292315 METAR LIRA 292315Z 00000KT 9000 NSC 09/07 Q1017=
201202292245 METAR LIRA 292245Z 32001KT 9000 NSC 09/07 Q1017=
201202292215 METAR LIRA 292215Z 05002KT CAVOK 10/08 Q1017=
201202292145 METAR LIRA 292145Z 05002KT CAVOK 09/08 Q1017=
201202292115 METAR LIRA 292115Z 02001KT CAVOK 10/09 Q1017=
201202292045 METAR LIRA 292045Z 00000KT CAVOK 10/09 Q1017=
201202292015 METAR LIRA 292015Z 28002KT CAVOK 10/09 Q1017=
201202291945 METAR LIRA 291945Z 00000KT CAVOK 10/09 Q1017=
201202291915 METAR LIRA 291915Z 00000KT CAVOK 11/09 Q1017=
201202291845 METAR LIRA 291845Z 26002KT CAVOK 12/10 Q1017=
201202291815 METAR LIRA 291815Z 27002KT CAVOK 13/09 Q1017=
201202291745 METAR LIRA 291745Z 03003KT CAVOK 14/08 Q1017=
201202291715 METAR LIRA 291715Z 03003KT CAVOK 15/08 Q1017=
201202291645 METAR LIRA 291645Z 35007KT 330V030 CAVOK 16/07 Q1017=
201202291615 METAR LIRA 291615Z 36005KT CAVOK 16/07 Q1017=
201202291545 METAR LIRA 291545Z 02008KT 330V090 CAVOK 16/07 Q1017=
201202291515 METAR LIRA 291515Z 36009KT 340V010 CAVOK 16/07 Q1017=
201202291445 METAR LIRA 291445Z 36008KT 330V040 CAVOK 17/07 Q1017=
201202291415 METAR LIRA 291415Z 36009KT 9999 FEW080 17/07 Q1017=
201202291345 METAR LIRA 291345Z 36009KT 310V040 9999 FEW080 17/07 Q1017=
201202291315 METAR LIRA 291315Z 35009KT 9999 FEW080 17/07 Q1017=
201202291245 METAR LIRA 291245Z 34009KT 310V020 CAVOK 16/07 Q1018=
201202291215 METAR LIRA 291215Z 34012KT CAVOK 16/07 Q1018=
201202291145 METAR LIRA 291145Z 33014KT 9999 FEW080 15/06 Q1019=
201202291115 METAR LIRA 291115Z 33012KT 9999 FEW080 15/07 Q1019=
201202291045 METAR LIRA 291045Z 35013KT 9999 FEW070 14/06 Q1020=
201202291015 METAR LIRA 291015Z 34012KT 300V010 9999 FEW070 13/06 Q1020=
201202290945 METAR LIRA 290945Z 33011KT 320V030 8000 FEW005 12/06 Q1020=
201202290915 METAR LIRA 290915Z 35008KT 320V030 8000 FEW005 11/07 Q1020=
201202290845 METAR LIRA 290845Z 35005KT 8000 FEW005 10/07 Q1020=
201202290815 METAR LIRA 290815Z 02005KT 350V060 7000 FEW005 08/07 Q1020=
201202290745 METAR LIRA 290745Z 01006KT 9999 FEW070 08/06 Q1020=
201202290715 METAR LIRA 290715Z 01002KT 7000 FEW002 06/05 Q1020=
201202290645 METAR LIRA 290645Z 01002KT 6000 FEW002 05/04 Q1020=
201202290615 METAR LIRA 290615Z 05002KT 6000 FEW002 04/03 Q1021=
201202290545 METAR LIRA 290545Z 04003KT 5000 BR SCT002 04/03 Q1021=
201202290515 METAR LIRA 290515Z 02003KT 5000 BR SCT002 04/03 Q1021=
201202290445 METAR LIRA 290445Z 03001KT 7000 FEW009 04/04 Q1021=
201202290415 METAR LIRA 290415Z 06003KT 7000 FEW009 04/04 Q1022=
201202290345 METAR LIRA 290345Z 04004KT 7000 FEW009 04/04 Q1022=
201202290315 METAR LIRA 290315Z 02001KT CAVOK 04/04 Q1022=
201202290245 METAR LIRA 290245Z 00000KT CAVOK 04/04 Q1022=
201202290215 METAR LIRA 290215Z 00000KT CAVOK 04/04 Q1022=
201202290145 METAR LIRA 290145Z 00000KT CAVOK 05/05 Q1022=
201202290115 METAR LIRA 290115Z 09002KT CAVOK 05/05 Q1022=
201202290045 METAR LIRA 290045Z 13001KT CAVOK 05/05 Q1022=
201202290015 METAR LIRA 290015Z 11001KT CAVOK 06/05 Q1022=
201202282350 METAR LIRA 290045Z 13001KT CAVOK 05/05 Q1022=
201202282345 METAR LIRA 282345Z 10001KT CAVOK 05/05 Q1022=
201202282315 METAR LIRA 282315Z 00000KT CAVOK 05/05 Q1022=
201202282245 METAR LIRA 282245Z 16001KT CAVOK 06/06 Q1022=
201202282215 METAR LIRA 282215Z 00000KT CAVOK 07/06 Q1022=
201202282145 METAR LIRA 282145Z 15001KT CAVOK 07/06 Q1022=
201202282115 METAR LIRA 282115Z 17001KT CAVOK 07/06 Q1022=
201202282045 METAR LIRA 282045Z 00000KT CAVOK 08/07 Q1022=
201202282015 METAR LIRA 282015Z 09001KT CAVOK 09/07 Q1022=
201202281945 METAR LIRA 281945Z 00000KT CAVOK 09/08 Q1022=
201202281915 METAR LIRA 281915Z 00000KT CAVOK 09/08 Q1022=
201202281845 METAR LIRA 281845Z 00000KT CAVOK 10/08 Q1022=
201202281815 METAR LIRA 281815Z 18002KT CAVOK 10/08 Q1021=
201202281745 METAR LIRA 281745Z 23002KT 9999 FEW080 10/08 Q1021=
201202281715 METAR LIRA 281715Z 27002KT 9999 FEW025 11/08 Q1021=
201202281645 METAR LIRA 281645Z 27004KT 9999 FEW025 11/08 Q1021=
201202281615 METAR LIRA 281615Z 28005KT 240V320 9999 FEW020 12/08 Q1021=
201202281545 METAR LIRA 281545Z 26007KT 230V300 9999 FEW020 13/07 Q1021=
201202281515 METAR LIRA 281515Z 27009KT 220V300 CAVOK 13/05 Q1021=
201202281445 METAR LIRA 281445Z 28009KT 230V300 CAVOK 14/04 Q1021=
201202281415 METAR LIRA 281415Z 26005KT 230V320 CAVOK 14/M00 Q1022=
201202281345 METAR LIRA 281345Z 30004KT CAVOK 14/M02 Q1022=
201202281315 METAR LIRA 281315Z 30005KT 260V350 CAVOK 14/M03 Q1022=
201202281245 METAR LIRA 281245Z 26003KT CAVOK 14/M03 Q1022=
201202281215 METAR LIRA 281215Z 26004KT 240V310 CAVOK 14/M04 Q1022=
201202281145 METAR LIRA 281145Z 30002KT CAVOK 13/M04 Q1022=
201202281115 METAR LIRA 281115Z 26002KT CAVOK 13/M04 Q1023=
201202281045 METAR LIRA 281045Z 21002KT CAVOK 13/M03 Q1023=
201202281015 METAR LIRA 281015Z 22001KT CAVOK 11/M05 Q1023=
201202280945 METAR LIRA 280945Z 11001KT CAVOK 10/M02 Q1023=
201202280915 METAR LIRA 280915Z 01003KT CAVOK 09/M00 Q1023=
201202280900 METAR LIRA CONTUS=
201202280845 METAR LIRA 280845Z 35006KT 320V020 CAVOK 07/M02 Q1022=
201202280815 METAR LIRA 280815Z 35002KT CAVOK 06/M01 Q1022=
201202280745 METAR LIRA 280745Z 09001KT CAVOK 04/M02 Q1022=
201202280715 METAR LIRA 280715Z 08003KT CAVOK 03/M01 Q1022=
201202280645 METAR LIRA 280645Z 04001KT CAVOK 02/M03 Q1022=
201202280615 METAR LIRA 280615Z 00000KT CAVOK 02/M03 Q1022=
201202280545 METAR LIRA 280545Z 00000KT CAVOK 01/M03 Q1022=
201202280515 METAR LIRA 280515Z 28003KT CAVOK 01/M03 Q1022=
201202280445 METAR LIRA 280445Z 08001KT CAVOK 01/M04 Q1022=
201202280415 METAR LIRA 280415Z 06003KT CAVOK 01/M04 Q1022=
201202280345 METAR LIRA 280345Z 01002KT CAVOK 02/M03 Q1022=
201202280315 METAR LIRA 280315Z 00000KT CAVOK 02/M03 Q1022=
201202280245 METAR LIRA 280245Z 08004KT CAVOK 02/M02 Q1022=
201202280215 METAR LIRA 280215Z 04002KT 9999 FEW070 02/M03 Q1022=
201202280145 METAR LIRA 280145Z 05004KT 9999 FEW070 03/M03 Q1022=
201202280115 METAR LIRA 280115Z 02001KT 9999 FEW070 03/M04 Q1022=
201202280045 METAR LIRA 280045Z 36001KT 9999 FEW070 03/M04 Q1022=
201202280015 METAR LIRA 280015Z 26001KT 9999 FEW070 03/M05 Q1022=
201202272350 METAR LIRA 280045Z 36001KT 9999 FEW070 03/M04 Q1022=
201202272345 METAR LIRA 272345Z 26001KT 9999 FEW070 04/M05 Q1022=
201202272315 METAR LIRA 272315Z 09005KT 9999 FEW070 04/M05 Q1022=
201202272245 METAR LIRA 272245Z 05004KT 9999 FEW070 05/M07 Q1022=
201202272215 METAR LIRA 272215Z 00000KT 9999 FEW070 05/M07 Q1022=
201202272145 METAR LIRA 272145Z 07003KT CAVOK 06/M06 Q1021=
201202272115 METAR LIRA 272115Z 33004KT CAVOK 06/M06 Q1021=
201202272045 METAR LIRA 272045Z 35003KT CAVOK 07/M06 Q1021=
201202272015 METAR LIRA 272015Z 36004KT CAVOK 07/M05 Q1020=
201202271945 METAR LIRA 271945Z 01001KT CAVOK 07/M06 Q1020=
201202271915 METAR LIRA 271915Z 10003KT CAVOK 08/M06 Q1020=
201202271845 METAR LIRA 271845Z 02004KT CAVOK 09/M06 Q1019=
201202271815 METAR LIRA 271815Z 35007KT CAVOK 10/M06 Q1019=
201202271745 METAR LIRA 271745Z 35009KT CAVOK 11/M07 Q1019=
201202271715 METAR LIRA 271715Z 35009KT CAVOK 11/M07 Q1019=
201202271645 METAR LIRA 271645Z 35013KT 320V030 CAVOK 12/M07 Q1019=
201202271615 METAR LIRA 271615Z 34015KT CAVOK 12/M06 Q1019=
201202271545 METAR LIRA 271545Z 34015KT CAVOK 13/M07 Q1018=
201202271515 METAR LIRA 271515Z 34017G27KT 320V030 CAVOK 13/M07 Q1018
                        WS RWY 33=
201202271445 METAR LIRA 271445Z 03013G23KT 350V140 CAVOK 13/M08 Q1018=
201202271415 METAR LIRA 271415Z 02013G28KT 340V080 9999 FEW018 13/M07
                        Q1018=
201202271345 METAR LIRA 271345Z 02014G24KT 360V090 9999 FEW018 13/M07
                        Q1018=
201202271315 METAR LIRA 271315Z 03013G26KT 360V080 9999 FEW018 13/M07
                        Q1018=
201202271245 METAR LIRA 271245Z 04014G26KT 340V060 9999 FEW018 13/M07
                        Q1018=
201202271215 METAR LIRA 271215Z 02016G30KT 330V060 9999 FEW018 13/M07
                        Q1018=
201202271145 METAR LIRA 271145Z 01017G30KT 330V050 9999 FEW018 13/M07
                        Q1018=
201202271115 METAR LIRA 271115Z 02015G30KT 350V050 9999 FEW018 13/M06
                        Q1018=
201202271045 METAR LIRA 271045Z 01018G32KT 340V060 9999 FEW018 12/M05
                        Q1018=
201202271015 METAR LIRA 271015Z 35014G25KT 320V040 9999 FEW018 12/M02
                        Q1018=
201202270945 METAR LIRA 270945Z 35015G28KT 310V010 9999 FEW018 11/M01
                        Q1018=
201202270915 METAR LIRA 270915Z 35013KT 330V050 9999 FEW018 11/01 Q1018=
201202270845 METAR LIRA 270845Z 35012KT 310V030 9999 FEW018 09/02 Q1018=
201202270815 METAR LIRA 270815Z 34014KT 9999 FEW018 08/02 Q1018=
201202270745 METAR LIRA 270745Z 33010KT 300V360 9999 FEW020 08/02 Q1018=
201202270715 METAR LIRA 270715Z 34010KT 9999 FEW020 07/02 Q1017=
201202270645 METAR LIRA 270645Z 34010KT 9999 FEW020 06/02 Q1017=
201202270615 METAR LIRA 270615Z 34013KT 9999 FEW020 06/01 Q1016=
201202270545 METAR LIRA 270545Z 34008KT 300V360 9999 FEW020 05/00 Q1016=
201202270515 METAR LIRA 270515Z 33006KT CAVOK 05/M00 Q1016=
201202270445 METAR LIRA 270445Z 34005KT 300V020 CAVOK 05/M00 Q1015=
201202270415 METAR LIRA 270415Z 33007KT CAVOK 05/M00 Q1015=
201202270345 METAR LIRA 270345Z 34005KT CAVOK 05/M01 Q1014=
201202270315 METAR LIRA 270315Z 36001KT CAVOK 04/M01 Q1014=
201202270245 METAR LIRA 270245Z 06003KT CAVOK 05/M00 Q1014=
201202270215 METAR LIRA 270215Z 05005KT CAVOK 05/M00 Q1014=
201202270145 METAR LIRA 270145Z 07005KT CAVOK 06/01 Q1014=
201202270115 METAR LIRA 270115Z 05003KT CAVOK 06/M00 Q1014=
201202270045 METAR LIRA 270045Z 05005KT CAVOK 06/00 Q1014=
201202270015 METAR LIRA 270015Z 04003KT CAVOK 07/M00 Q1013=
201202262350 METAR LIRA 270045Z 05005KT CAVOK 06/00 Q1014=
201202262345 METAR LIRA 262345Z 36005KT 320V050 CAVOK 08/M00 Q1013=
201202262315 METAR LIRA 262315Z 36008KT 320V020 CAVOK 08/M00 Q1013=
201202262245 METAR LIRA 262245Z 36009KT 340V030 CAVOK 08/00 Q1012=
201202262215 METAR LIRA 262215Z 36009KT 330V030 CAVOK 08/01 Q1012=
201202262145 METAR LIRA 262145Z 35008KT 320V020 CAVOK 08/01 Q1011=
201202262115 METAR LIRA 262115Z 35010KT CAVOK 09/02 Q1010=
201202262045 METAR LIRA 262045Z 34013KT 9999 FEW070 09/02 Q1010=
201202262015 METAR LIRA 262015Z 35011KT 330V040 9999 FEW030 09/02 Q1010=
201202261945 METAR LIRA 261945Z 36009KT 310V040 9999 FEW030 09/03 Q1009=
201202261915 METAR LIRA 261915Z 05010KT 9999 FEW020CB SCT030 09/04 Q1009=
201202261845 METAR LIRA 261845Z 06018G29KT 030V090 9999 FEW020CB SCT027
                        09/05 Q1010=
201202261815 METAR LIRA 261815Z 03014G27KT 350V100 9000 VCTS -RA FEW020CB
                        BKN027 12/05 Q1009=
201202261745 METAR LIRA 261745Z 00000KT 9999 -RA SCT030 BKN070 13/07 Q1008=
201202261715 METAR LIRA 261715Z 12002KT 9999 SCT030 BKN070 13/07 Q1008=
201202261645 METAR LIRA 261645Z 35001KT 9999 SCT030 SCT070 12/05 Q1007=
201202261615 METAR LIRA 261615Z 34002KT 9999 FEW017 13/06 Q1007=
201202261545 METAR LIRA 261545Z 33007KT 9999 FEW017 13/07 Q1007=
201202261515 METAR LIRA 261515Z 34007KT 310V020 9999 FEW017 13/07 Q1007=
201202261445 METAR LIRA 261445Z 33010KT 9999 FEW015 SCT030 13/06 Q1007=
201202261415 METAR LIRA 261415Z 33010KT 310V010 9999 FEW015 SCT030 14/07
                        Q1007=
201202261345 METAR LIRA 261345Z 32008KT 9999 FEW015 SCT030 13/06 Q1008=
201202261315 METAR LIRA 261315Z 01006KT 330V070 9999 FEW015 SCT030 13/07
                        Q1008=
201202261245 METAR LIRA 261245Z 33007KT 9999 FEW015 SCT030 13/07 Q1008=
201202261215 METAR LIRA 261215Z 33004KT 280V030 9999 FEW015 SCT030 13/07
                        Q1008=
201202261145 METAR LIRA 261145Z 33005KT 290V360 9999 FEW015 SCT030 13/07
                        Q1009=
201202261115 METAR LIRA 261115Z 31005KT 300V010 9999 FEW015 SCT030 13/08
                        Q1009=
201202261045 METAR LIRA 261045Z 05002KT 9999 FEW015 SCT030 12/08 Q1010=
201202261015 METAR LIRA 261015Z 36003KT 9999 FEW015 BKN027 11/08 Q1010=
201202260945 METAR LIRA 260945Z 01003KT 9999 FEW015 BKN025 11/08 Q1010=
201202260915 METAR LIRA 260915Z 02003KT 8000 FEW015 BKN025 09/08 Q1010=
201202260845 METAR LIRA 260845Z 01003KT 8000 FEW015 BKN025 09/08 Q1010=
201202260815 METAR LIRA 260815Z 01003KT 8000 FEW015 BKN025 08/07 Q1011=
201202260745 METAR LIRA 260745Z 02002KT 8000 FEW015 BKN025 08/07 Q1011=
201202260715 METAR LIRA 260715Z 04002KT 8000 FEW015 BKN025 07/06 Q1011=
201202260645 METAR LIRA 260645Z 02001KT 8000 FEW015 BKN025 07/06 Q1011=
201202260615 METAR LIRA 260615Z 03002KT 8000 FEW015 BKN025 07/06 Q1011=
201202260545 METAR LIRA 260545Z 06002KT 9999 FEW015 BKN025 07/06 Q1011=
201202260515 METAR LIRA 260515Z 35003KT 9999 FEW015 BKN020 07/06 Q1012=
201202260445 METAR LIRA 260445Z 00000KT 9999 FEW015 BKN020 08/07 Q1012=
201202260415 METAR LIRA 260415Z 36001KT 9999 FEW015 BKN020 09/08 Q1012=
201202260345 METAR LIRA 260345Z 14003KT 9999 FEW015 BKN020 09/08 Q1012=
201202260315 METAR LIRA 260315Z 16003KT 9999 FEW015 BKN020 09/08 Q1013=
201202260245 METAR LIRA 260245Z 17001KT 9999 FEW015 BKN020 08/07 Q1013=
201202260215 METAR LIRA 260215Z 16001KT 9999 FEW015 BKN020 09/08 Q1013=
201202260145 METAR LIRA 260145Z 15001KT 9999 FEW015 BKN020 09/08 Q1014=
201202260115 METAR LIRA 260115Z 15002KT 9999 FEW015 BKN020 09/08 Q1014=
201202260045 METAR LIRA 260045Z 17002KT 9999 FEW015 BKN020 09/08 Q1015=
201202260015 METAR LIRA 260015Z 16003KT 9999 FEW015 SCT020 08/07 Q1015=
201202252350 METAR LIRA 260045Z 17002KT 9999 FEW015 BKN020 09/08 Q1015=
201202252345 METAR LIRA 252345Z 16004KT 9999 FEW020 08/07 Q1015=
201202252315 METAR LIRA 252315Z 18004KT 9999 FEW020 09/08 Q1015=
201202252245 METAR LIRA 252245Z 18003KT 9999 FEW020 09/08 Q1016=
201202252215 METAR LIRA 252215Z 17003KT 9999 FEW020 08/07 Q1016=
201202252145 METAR LIRA 252145Z 17004KT 9999 FEW020 09/08 Q1016=
201202252115 METAR LIRA 252115Z 17003KT 9999 FEW020 10/09 Q1016=
201202252045 METAR LIRA 252045Z 17004KT 9999 FEW020 09/08 Q1016=
201202252015 METAR LIRA 252015Z 17004KT 9999 FEW020 10/09 Q1016=
201202251945 METAR LIRA 251945Z 17004KT CAVOK 10/09 Q1016=
201202251915 METAR LIRA 251915Z 17004KT 9999 FEW020 10/09 Q1016=
201202251845 METAR LIRA 251845Z 20003KT CAVOK 10/09 Q1017=
201202251815 METAR LIRA 251815Z 21003KT CAVOK 11/08 Q1017=
201202251745 METAR LIRA 251745Z 20002KT CAVOK 11/07 Q1017=
201202251715 METAR LIRA 251715Z 24002KT CAVOK 12/06 Q1017=
201202251645 METAR LIRA 251645Z 24003KT CAVOK 14/07 Q1017=
201202251615 METAR LIRA 251615Z 25004KT CAVOK 14/06 Q1017=
201202251545 METAR LIRA 251545Z 26006KT 220V310 CAVOK 15/06 Q1017=
201202251515 METAR LIRA 251515Z 26007KT CAVOK 15/05 Q1017=
201202251445 METAR LIRA 251445Z 25007KT 210V280 CAVOK 16/06 Q1018=
201202251415 METAR LIRA 251415Z 23006KT 190V260 CAVOK 17/06 Q1018=
201202251345 METAR LIRA 251345Z 23008KT CAVOK 17/07 Q1018=
201202251315 METAR LIRA 251315Z 23009KT 200V270 CAVOK 18/07 Q1019=
201202251245 METAR LIRA 251245Z 27003KT CAVOK 18/01 Q1019=
201202251215 METAR LIRA 251215Z 25004KT CAVOK 17/02 Q1019=
201202251145 METAR LIRA 251145Z 26001KT CAVOK 16/04 Q1020=
201202251115 METAR LIRA 251115Z 30003KT CAVOK 16/06 Q1020=
201202251045 METAR LIRA 251045Z 28002KT CAVOK 15/05 Q1021=
201202251015 METAR LIRA 251015Z 29001KT 8000 NSC 14/06 Q1021=
201202250945 METAR LIRA 250945Z 31001KT 8000 NSC 12/05 Q1021=
201202250915 METAR LIRA 250915Z 36003KT 8000 NSC 11/05 Q1021=
201202250845 METAR LIRA 250845Z 35004KT 8000 NSC 10/05 Q1022=
201202250815 METAR LIRA 250815Z 07003KT 8000 SKC 10/05 Q1022=
201202250745 METAR LIRA 250745Z 06002KT 8000 NSC 07/05 Q1022=
201202250715 METAR LIRA 250715Z 04002KT 8000 NSC 06/05 Q1022=
201202250645 METAR LIRA 250645Z 00000KT CAVOK 05/04 Q1022=
201202250615 METAR LIRA 250615Z 10001KT CAVOK 04/03 Q1022=
201202250545 METAR LIRA 250545Z 00000KT CAVOK 04/03 Q1022=
201202250515 METAR LIRA 250515Z 00000KT CAVOK 04/03 Q1022=
201202250445 METAR LIRA 250445Z 02002KT CAVOK 05/03 Q1022=
201202250415 METAR LIRA 250415Z 00000KT CAVOK 05/03 Q1022=
201202250345 METAR LIRA 250345Z 04003KT CAVOK 05/03 Q1022=
201202250315 METAR LIRA 250315Z 02002KT CAVOK 05/03 Q1022=
201202250245 METAR LIRA 250245Z 03001KT CAVOK 05/03 Q1023=
201202250215 METAR LIRA 250215Z 04002KT CAVOK 06/03 Q1023=
201202250145 METAR LIRA 250145Z 10001KT CAVOK 06/04 Q1023=
201202250115 METAR LIRA 250115Z 06001KT CAVOK 06/04 Q1024=
201202250045 METAR LIRA 250045Z 00000KT CAVOK 07/04 Q1024=
201202250015 METAR LIRA 250015Z 00000KT CAVOK 07/05 Q1024=
201202242350 METAR LIRA 250045Z 00000KT CAVOK 07/04 Q1024=
201202242345 METAR LIRA 242345Z 17003KT CAVOK 08/06 Q1024=
201202242315 METAR LIRA 242315Z 16004KT CAVOK 08/07 Q1024=
201202242245 METAR LIRA 242245Z 18004KT CAVOK 09/08 Q1024=
201202242215 METAR LIRA 242215Z 17003KT CAVOK 08/07 Q1024=
201202242145 METAR LIRA 242145Z 18003KT CAVOK 10/09 Q1024=
201202242115 METAR LIRA 242115Z 15004KT CAVOK 09/08 Q1025=
201202242045 METAR LIRA 242045Z 16003KT CAVOK 09/07 Q1025=
201202242015 METAR LIRA 242015Z 18003KT CAVOK 10/09 Q1024=
201202241945 METAR LIRA 241945Z 19003KT CAVOK 10/08 Q1024=
201202241915 METAR LIRA 241915Z 19003KT CAVOK 11/08 Q1024=
201202241845 METAR LIRA 241845Z 18003KT CAVOK 11/08 Q1024=
201202241815 METAR LIRA 241815Z 17003KT CAVOK 12/08 Q1024=
201202241745 METAR LIRA 241745Z 19003KT CAVOK 12/08 Q1024=
201202241715 METAR LIRA 241715Z 18003KT CAVOK 13/08 Q1024=
201202241645 METAR LIRA 241645Z 22003KT CAVOK 14/04 Q1025=
201202241615 METAR LIRA 241615Z 26004KT CAVOK 15/04 Q1025=
201202241545 METAR LIRA 241545Z 25005KT 220V290 CAVOK 16/04 Q1025=
201202241515 METAR LIRA 241515Z 27005KT 220V330 CAVOK 16/06 Q1025=
201202241445 METAR LIRA 241445Z 25006KT 220V300 CAVOK 16/06 Q1025=
201202241415 METAR LIRA 241415Z 27007KT 220V310 CAVOK 17/06 Q1025=
201202241345 METAR LIRA 241345Z 27005KT 240V300 CAVOK 17/06 Q1025=
201202241315 METAR LIRA 241315Z 25004KT CAVOK 18/03 Q1025=
201202241245 METAR LIRA 241245Z 24003KT CAVOK 17/02 Q1026=
201202241215 METAR LIRA 241215Z 26002KT CAVOK 16/02 Q1026=
201202241145 METAR LIRA 241145Z 04002KT CAVOK 15/01 Q1026=
201202241115 METAR LIRA 241115Z 32001KT CAVOK 15/04 Q1026=
201202241045 METAR LIRA 241045Z 30003KT CAVOK 14/03 Q1026=
201202241015 METAR LIRA 241015Z 35002KT CAVOK 13/04 Q1025=
201202240945 METAR LIRA 240945Z 35003KT CAVOK 12/05 Q1025=
201202240915 METAR LIRA 240915Z 34002KT CAVOK 10/04 Q1025=
201202240845 METAR LIRA 240845Z 34003KT CAVOK 09/04 Q1025=
201202240815 METAR LIRA 240815Z 35002KT CAVOK 07/04 Q1025=
201202240745 METAR LIRA 240745Z 04005KT 9999 FEW070 06/04 Q1025=
201202240715 METAR LIRA 240715Z 04005KT 9999 FEW070 05/03 Q1024=
201202240645 METAR LIRA 240645Z 05004KT 9999 FEW070 04/03 Q1024=
201202240615 METAR LIRA 240615Z 07002KT 9999 FEW070 03/03 Q1024=
201202240545 METAR LIRA 240545Z 03003KT 9999 FEW070 03/03 Q1023=
201202240515 METAR LIRA 240515Z 06003KT CAVOK 03/02 Q1023=
201202240445 METAR LIRA 240445Z 00000KT CAVOK 04/03 Q1023=
201202240415 METAR LIRA 240415Z 06002KT CAVOK 04/03 Q1023=
201202240345 METAR LIRA 240345Z 06003KT CAVOK 04/03 Q1023=
201202240315 METAR LIRA 240315Z 04005KT CAVOK 04/03 Q1023=
201202240245 METAR LIRA 240245Z 36002KT CAVOK 04/04 Q1023=
201202240215 METAR LIRA 240215Z 36002KT CAVOK 04/03 Q1023=
201202240145 METAR LIRA 240145Z 00000KT CAVOK 05/04 Q1023=
201202240115 METAR LIRA 240115Z 07002KT CAVOK 05/03 Q1023=
201202240045 METAR LIRA 240045Z 10002KT CAVOK 05/04 Q1023=
201202240015 METAR LIRA 240015Z 04001KT CAVOK 05/04 Q1023=
201202232350 METAR LIRA 240045Z 10002KT CAVOK 05/04 Q1023=
201202232345 METAR LIRA 232345Z 13002KT CAVOK 06/05 Q1023=
201202232315 METAR LIRA 232315Z 14002KT CAVOK 06/04 Q1023=
201202232245 METAR LIRA 232245Z 00000KT CAVOK 06/04 Q1023=
201202232215 METAR LIRA 232215Z 19001KT CAVOK 07/05 Q1022=
201202232145 METAR LIRA 232145Z 18003KT CAVOK 07/05 Q1022=
201202232115 METAR LIRA 232115Z 15001KT CAVOK 08/04 Q1022=
201202232045 METAR LIRA 232045Z 16003KT CAVOK 08/06 Q1022=
201202232015 METAR LIRA 232015Z 10003KT CAVOK 08/06 Q1022=
201202231945 METAR LIRA 231945Z 09002KT CAVOK 08/06 Q1022=
201202231915 METAR LIRA 231915Z 16003KT CAVOK 10/07 Q1022=
201202231845 METAR LIRA 231845Z 18004KT CAVOK 10/07 Q1021=
201202231815 METAR LIRA 231815Z 17004KT CAVOK 10/07 Q1021=
201202231745 METAR LIRA 231745Z 17004KT CAVOK 11/08 Q1021=
201202231715 METAR LIRA 231715Z 24004KT CAVOK 12/07 Q1021=
201202231645 METAR LIRA 231645Z 26005KT CAVOK 14/07 Q1020=
201202231615 METAR LIRA 231615Z 24006KT CAVOK 15/06 Q1020=
201202231545 METAR LIRA 231545Z 25005KT 220V290 9999 FEW020 16/06 Q1020=
201202231515 METAR LIRA 231515Z 25006KT 220V280 9999 FEW020 16/05 Q1020=
201202231445 METAR LIRA 231445Z 24006KT 9999 FEW020 17/04 Q1020=
201202231415 METAR LIRA 231415Z 28006KT 220V320 9999 FEW030 17/02 Q1020=
201202231345 METAR LIRA 231345Z 28005KT 260V330 9999 FEW025 17/03 Q1020=
201202231315 METAR LIRA 231315Z 28005KT 220V310 9999 FEW025 17/03 Q1020=
201202231245 METAR LIRA 231245Z 28004KT 260V320 9999 FEW025 17/04 Q1020=
201202231215 METAR LIRA 231215Z 28003KT 9999 FEW022 16/03 Q1020=
201202231145 METAR LIRA 231145Z 29003KT 9999 FEW020 16/03 Q1020=
201202231115 METAR LIRA 231115Z 20001KT 9999 FEW020 15/04 Q1020=
201202231045 METAR LIRA 231045Z 01003KT 9999 FEW020 14/06 Q1020=
201202231015 METAR LIRA 231015Z 01003KT CAVOK 13/05 Q1020=
201202230945 METAR LIRA 230945Z 01004KT 340V070 CAVOK 13/05 Q1020=
201202230915 METAR LIRA 230915Z 36005KT 320V030 CAVOK 11/05 Q1020=
201202230845 METAR LIRA 230845Z 02004KT CAVOK 10/05 Q1020=
201202230815 METAR LIRA 230815Z 02004KT CAVOK 09/04 Q1019=
201202230745 METAR LIRA 230745Z 02004KT 9999 FEW080 08/05 Q1019=
201202230715 METAR LIRA 230715Z 04005KT 360V070 9999 FEW080 07/04 Q1019=
201202230645 METAR LIRA 230645Z 02004KT 9999 FEW080 06/03 Q1018=
201202230615 METAR LIRA 230615Z 03004KT 9999 FEW040 05/03 Q1018=
201202230545 METAR LIRA 230545Z 03003KT 9999 FEW040 05/03 Q1018=
201202230515 METAR LIRA 230515Z 03005KT 9999 SCT060 05/03 Q1018=
201202230445 METAR LIRA 230445Z 02004KT 9999 FEW080 05/03 Q1018=
201202230415 METAR LIRA 230415Z 02002KT 9999 FEW080 05/03 Q1018=
201202230345 METAR LIRA 230345Z 01002KT CAVOK 06/03 Q1018=
201202230315 METAR LIRA 230315Z 03004KT CAVOK 06/03 Q1018=
201202230245 METAR LIRA 230245Z 02005KT CAVOK 06/03 Q1018=
201202230215 METAR LIRA 230215Z 03004KT CAVOK 06/03 Q1018=
201202230145 METAR LIRA 230145Z 02006KT 330V050 CAVOK 06/03 Q1018=
201202230115 METAR LIRA 230115Z 35004KT 9999 FEW080 06/03 Q1018=
201202230045 METAR LIRA 230045Z 01005KT 9999 FEW080 06/03 Q1018=
201202230015 METAR LIRA 230015Z 03004KT CAVOK 06/03 Q1018=
201202222350 METAR LIRA 230045Z 01005KT 9999 FEW080 06/03 Q1018=
201202222345 METAR LIRA 222345Z 02003KT CAVOK 07/02 Q1018=
201202222315 METAR LIRA 222315Z 02005KT CAVOK 07/03 Q1018=
201202222245 METAR LIRA 222245Z 02005KT 360V060 CAVOK 08/03 Q1018=
201202222215 METAR LIRA 222215Z 01005KT 330V050 CAVOK 08/03 Q1018=
201202222145 METAR LIRA 222145Z 03004KT CAVOK 08/03 Q1017=
201202222115 METAR LIRA 222115Z 02004KT CAVOK 09/03 Q1017=
201202222045 METAR LIRA 222045Z 03007KT 360V060 CAVOK 09/03 Q1017=
201202222015 METAR LIRA 222015Z 01006KT 290V030 CAVOK 10/03 Q1017=
201202221945 METAR LIRA 221945Z 36008KT 330V030 CAVOK 10/02 Q1017=
201202221915 METAR LIRA 221915Z 02006KT 9999 FEW080 11/02 Q1016=
201202221845 METAR LIRA 221845Z 07003KT 9999 SCT080 11/02 Q1016=
201202221815 METAR LIRA 221815Z 02003KT 9999 SCT080 12/01 Q1016=
201202221745 METAR LIRA 221745Z 32003KT 9999 SCT080 12/02 Q1016=
201202221715 METAR LIRA 221715Z 31006KT 280V350 9999 FEW018 SCT070 13/02
                        Q1016=
201202221645 METAR LIRA 221645Z 01002KT 9999 FEW018 SCT070 13/01 Q1015=
201202221615 METAR LIRA 221615Z 03005KT 360V070 9999 FEW018 SCT070 14/01
                        Q1015=
201202221545 METAR LIRA 221545Z 02005KT 340V080 9999 FEW018 SCT070 14/02
                        Q1015=
201202221515 METAR LIRA 221515Z 01009KT 330V060 9999 FEW018 SCT070 16/01
                        Q1015=
201202221445 METAR LIRA 221445Z 02008KT 360V080 9999 FEW018 SCT070 17/02
                        Q1016=
201202221415 METAR LIRA 221415Z 04012KT 020V090 9999 FEW018 SCT070 17/02
                        Q1016=
201202221345 METAR LIRA 221345Z 06014KT 9999 FEW018 SCT070 16/03 Q1016=
201202221315 METAR LIRA 221315Z 05012KT 9999 FEW018 SCT070 16/03 Q1016=
201202221245 METAR LIRA 221245Z 02012G22KT 350V060 9999 FEW018 SCT070
                        16/03 Q1016=
201202221215 METAR LIRA 221215Z 03013KT 360V070 9999 FEW018 SCT070 16/04
                        Q1016=
201202221145 METAR LIRA 221145Z 04012G22KT 010V080 9999 FEW018 SCT070
                        16/05 Q1017=
201202221115 METAR LIRA 221115Z 04008KT 360V090 9999 FEW018 SCT070 15/05
                        Q1017=
201202221045 METAR LIRA 221045Z 04005KT 9999 FEW018 SCT070 14/05 Q1018=
201202221015 METAR LIRA 221015Z 34005KT 320V030 9999 FEW018 SCT070 13/06
                        Q1018=
201202220845 METAR LIRA 220845Z 03002KT 9999 FEW018 SCT070 09/05 Q1018=
201202220745 METAR LIRA 220745Z 06001KT 9999 FEW018 SCT070 08/04 Q1018=
201202220715 METAR LIRA 220715Z 06001KT 9999 FEW018 BKN070 07/04 Q1018=
201202220645 METAR LIRA 220645Z 05004KT 9999 FEW018 BKN070 06/03 Q1018=
201202220615 METAR LIRA 220615Z 05005KT 9999 FEW018 SCT070 06/03 Q1018=
201202220545 METAR LIRA 220545Z 01002KT 9999 FEW030 SCT070 07/03 Q1018=
201202220515 METAR LIRA 220515Z 03005KT 360V070 9999 FEW030 SCT070 07/03
                        Q1018=
201202220445 METAR LIRA 220445Z 02005KT 9999 FEW020 SCT070 07/03 Q1018=
201202220415 METAR LIRA 220415Z 36006KT 9999 SCT070 07/02 Q1018=
201202220345 METAR LIRA 220345Z 01004KT 9999 SCT070 07/03 Q1019=
201202220315 METAR LIRA 220315Z 01004KT 9999 SCT070 07/03 Q1019=
201202220245 METAR LIRA 220245Z 01005KT 9999 SCT070 07/03 Q1019=
201202220215 METAR LIRA 220215Z 01005KT 340V060 9999 SCT070 07/03 Q1019=
201202220145 METAR LIRA 220145Z 01005KT 9999 SCT070 07/03 Q1020=
201202220115 METAR LIRA 220115Z 01004KT 9999 SCT070 07/03 Q1020=
201202220045 METAR LIRA 220045Z 01005KT 330V060 9999 SCT070 07/03 Q1021=
201202220015 METAR LIRA 220015Z 01005KT 9999 FEW020 SCT070 07/03 Q1021=
201202212345 METAR LIRA 212345Z 02004KT 9999 FEW020 SCT070 08/03 Q1021=
201202212315 METAR LIRA 212315Z 01005KT 310V070 9999 FEW020 SCT070 08/03
                        Q1021=
201202212245 METAR LIRA 212245Z 30005KT 9999 FEW018 SCT070 08/03 Q1021=
201202212215 METAR LIRA 212215Z 01004KT 9999 FEW018 SCT070 09/03 Q1021=
201202212145 METAR LIRA 212145Z 01004KT 9999 FEW018 SCT070 09/03 Q1021=
201202212115 METAR LIRA 212115Z 02004KT 9999 FEW018 SCT070 09/03 Q1021=
201202212045 METAR LIRA 212045Z 01005KT 340V050 9999 FEW018 SCT070 09/02
                        Q1021=
201202212015 METAR LIRA 212015Z 01004KT 9999 FEW018 SCT070 09/02 Q1021=
201202211945 METAR LIRA 211945Z 04005KT 9999 FEW018 SCT070 09/02 Q1021=
201202211915 METAR LIRA 211915Z 04005KT 340V070 9999 FEW018 SCT070 09/02
                        Q1021=
201202211845 METAR LIRA 211845Z 06006KT 020V100 9999 FEW018 SCT070 10/02
                        Q1021=
201202211815 METAR LIRA 211815Z 06008KT 9999 SCT018 10/02 Q1021=
201202211745 METAR LIRA 211745Z 04007KT 340V080 9999 SCT018 11/03 Q1021=
201202211715 METAR LIRA 211715Z 07007KT 9999 SCT018 12/04 Q1021=
201202211645 METAR LIRA 211645Z 03004KT 9999 SCT018 SCT070 14/05 Q1021=
201202211615 METAR LIRA 211615Z 33002KT 9999 FEW018 SCT025 14/05 Q1021=
201202211545 METAR LIRA 211545Z 01002KT 9999 SCT018 SCT070 14/06 Q1021=
201202211515 METAR LIRA 211515Z 32005KT 9999 SCT018 SCT070 15/06 Q1021=
201202211445 METAR LIRA 211445Z 34005KT 300V010 9999 SCT018 SCT070 14/05
                        Q1021=
201202211415 METAR LIRA 211415Z 34004KT 9999 SCT017 SCT070 14/05 Q1022=
201202211345 METAR LIRA 211345Z 34008KT 9999 SCT017 FEW020TCU 14/05 Q1022=
201202211315 METAR LIRA 211315Z 35006KT 310V050 9999 FEW015 FEW020TCU
                        14/06 Q1022=
201202211245 METAR LIRA 211245Z 35006KT 300V020 9999 FEW015 FEW020TCU
                        14/06 Q1023=
201202211215 METAR LIRA 211215Z 35005KT 9999 SCT015 14/06 Q1023=
201202211145 METAR LIRA 211145Z 01004KT 330V040 9999 FEW014 13/07 Q1023=
201202211115 METAR COR LIRA 211115Z 36005KT 310V030 9999 FEW014 12/07
                        Q1024=
201202211045 METAR LIRA 211045Z 02005KT 350V060 9999 FEW013 SCT070 12/08
                        Q1024=
201202211015 METAR LIRA 211015Z 02005KT 9999 FEW013 SCT070 11/07 Q1024=
201202210945 METAR LIRA 210945Z 01006KT 320V080 9999 FEW014 SCT070 10/08
                        Q1024=
201202210915 METAR LIRA 210915Z 04006KT 020V090 9999 FEW015 SCT030 09/07
                        Q1024=
201202210845 METAR LIRA 210845Z 02004KT 9999 FEW020 SCT030 07/06 Q1024=
201202210815 METAR LIRA 210815Z 03005KT 360V080 9999 FEW018 SCT025 07/06
                        Q1024=
201202210745 METAR LIRA 210745Z 02004KT 9999 SCT025 SCT070 07/06 Q1024=
201202210715 METAR LIRA 210715Z 03004KT 9999 FEW018 BKN025 07/06 Q1024=
201202210645 METAR LIRA 210645Z 04006KT 9999 FEW015 BKN025 07/06 Q1023=
201202210615 METAR LIRA 210615Z 02006KT 9999 FEW015 BKN025 07/06 Q1023=
201202210545 METAR LIRA 210545Z 02004KT 9999 -RA FEW015 BKN025 07/06 Q1023=
201202210515 METAR LIRA 210515Z 36004KT 9999 -RA FEW015 BKN025 08/07 Q1023=
201202210445 METAR LIRA 210445Z 01004KT 9999 -RA FEW015 BKN025 08/07 Q1023=
201202210415 METAR LIRA 210415Z 36003KT 9999 -RA FEW015 BKN025 08/07 Q1023=
201202210345 METAR LIRA 210345Z 31002KT 9999 -RA FEW015 BKN025 08/07 Q1023=
201202210315 METAR LIRA 210315Z 32001KT 9999 -RA FEW015 BKN025 08/07 Q1023=
201202210245 METAR LIRA 210245Z 03002KT 9999 FEW015 SCT025 07/07 Q1023=
201202210215 METAR LIRA 210215Z 03002KT 9999 FEW015 SCT025 07/06 Q1023=
201202210145 METAR LIRA 210145Z 00000KT 9999 FEW015 SCT025 07/06 Q1023=
201202210115 METAR LIRA 210115Z 01002KT 9999 FEW015 SCT025 07/06 Q1023=
201202210045 METAR LIRA 210045Z 02002KT 9999 FEW015 SCT025 08/06 Q1023=
201202210015 METAR LIRA 210015Z 02002KT 9999 FEW015 SCT025 08/06 Q1023=
201202202350 METAR LIRA 210045Z 02002KT 9999 FEW015 SCT025 08/06 Q1023=
201202202345 METAR LIRA 202345Z 05004KT 9999 FEW015 BKN025 08/06 Q1022=
201202202315 METAR LIRA 202315Z 09006KT 9999 FEW015 BKN025 09/07 Q1022=
201202202245 METAR LIRA 202245Z 08005KT 9999 FEW015 BKN025 09/07 Q1022=
201202202215 METAR LIRA 202215Z 07005KT 9999 -RA FEW015 BKN025 09/08 Q1022=
201202202145 METAR LIRA 202145Z 11009KT 9999 -RA FEW015 SCT025 09/07 Q1022=
201202202115 METAR LIRA 202115Z 09010KT 9999 FEW015 SCT025 09/07 Q1022=
201202202045 METAR LIRA 202045Z 09006KT 9999 FEW015 SCT025 09/07 Q1022=
201202202015 METAR LIRA 202015Z 09008KT 9999 FEW015 SCT025 09/07 Q1021=
201202201945 METAR LIRA 201945Z 08002KT 9999 FEW015 SCT025 09/07 Q1021=
201202201915 METAR LIRA 201915Z 10008KT 9999 FEW015 SCT025 09/07 Q1021=
201202201845 METAR LIRA 201845Z 11006KT 9999 FEW013 BKN025 09/06 Q1020=
201202201815 METAR LIRA 201815Z 00000KT 9999 FEW013 BKN025 09/07 Q1020=
201202201745 METAR LIRA 201745Z 05004KT 9999 FEW013 BKN025 09/08 Q1020=
201202201715 METAR LIRA 201715Z 09005KT 8000 -RA SCT012 BKN025 09/08 Q1020=
201202201645 METAR LIRA 201645Z 11006KT 7000 -RA FEW013 FEW018CB BKN025
                        10/08 Q1020=
201202201615 METAR LIRA 201615Z 09006KT 8000 -RA FEW013 FEW018CB BKN024
                        10/06 Q1020=
201202201545 METAR LIRA 201545Z 12007KT 090V150 9999 FEW013 FEW018CB SCT024
                        BKN070 11/07 Q1019=
201202201515 METAR LIRA 201515Z 13010KT 9999 FEW013 FEW018CB SCT024 BKN060
                        11/06 Q1019=
201202201445 METAR LIRA 201445Z 13009KT 9999 FEW013 FEW017CB SCT024 BKN060
                        12/07 Q1019=
201202201415 METAR LIRA 201415Z 13013KT 090V160 9999 FEW013 FEW017CB SCT025
                        11/07 Q1019=
201202201345 METAR LIRA 201345Z 13011KT 9999 FEW013 FEW018CB SCT025 BKN060
                        11/07 Q1019=
201202201315 METAR LIRA 201315Z 14014KT 9999 FEW013 FEW017TCU BKN025 11/07
                        Q1019=
201202201245 METAR LIRA 201245Z 14015KT 9999 FEW013 FEW017TCU SCT025 BKN070
                        11/07 Q1019=
201202201215 METAR LIRA 201215Z 15011KT 9999 FEW013 FEW017CB SCT025 BKN070
                        12/08 Q1019=
201202201145 METAR LIRA 201145Z 13009KT 9999 FEW013 FEW017CB SCT025 BKN070
                        12/08 Q1019=
201202201115 METAR LIRA 201115Z 13009KT 9999 -RA FEW013 FEW017CB SCT025
                        BKN070 12/08 Q1020=
201202201045 METAR LIRA 201045Z 15003KT 9999 -RA FEW013 FEW017TCU SCT025
                        BKN060 11/08 Q1020=
201202201015 METAR LIRA 201015Z 11002KT 9999 -RA FEW013 FEW017TCU SCT025
                        BKN060 11/08 Q1020=
201202200945 METAR LIRA 200945Z 03001KT 9999 FEW013 SCT025 BKN060 10/08
                        Q1020=
201202200915 METAR LIRA 200915Z 34002KT 9999 FEW013 SCT025 BKN060 09/09
                        Q1020=
201202200845 METAR LIRA 200845Z 01002KT 9999 -RA FEW006 FEW017TCU SCT025
                        BKN060 09/08 Q1020=
201202200815 METAR LIRA 200815Z 04002KT 9000 -RA FEW006 FEW013CB SCT025
                        09/08 Q1020=
201202200745 METAR LIRA 200745Z 01002KT 9000 -RA FEW006 FEW013CB SCT025
                        09/08 Q1020=
201202200715 METAR LIRA 200715Z 06004KT 7000 -RA FEW013 FEW015CB SCT030
                        08/07 Q1019 RETS=
201202200645 METAR LIRA 200645Z 10002KT 7000 -RA FEW013 FEW015CB SCT030
                        08/07 Q1019 RETS=
201202200615 METAR LIRA 200615Z 19008KT 160V240 7000 -TSRA FEW011 FEW015CB
                        SCT018 09/07 Q1019=
201202200545 METAR LIRA 200545Z 25002KT 6000 -TSRA FEW016CB SCT018 BKN030
                        08/07 Q1019=
201202200515 METAR LIRA 200515Z 15004KT 9000 -TSRA FEW016CB SCT017 09/08
                        Q1019=
201202200445 METAR LIRA 200445Z 09004KT 8000 -TSRA FEW016CB SCT017 08/07
                        Q1019=
201202200415 METAR LIRA 200415Z 09007KT 9000 -TSRA FEW015CB SCT025 08/07
                        Q1019=
201202200345 METAR LIRA 200345Z 10007KT 9000 FEW015TCU SCT025 08/07 Q1019=
201202200315 METAR LIRA 200315Z 16007KT 7000 -RA FEW015 SCT025 09/07 Q1019=
201202200245 METAR LIRA 200245Z 14006KT 7000 -RA FEW015 SCT016 09/07 Q1019=
201202200215 METAR LIRA 200215Z 13009KT 6000 -RA FEW015CB SCT017 09/07
                        Q1020=
201202200145 METAR LIRA 200145Z 14007KT 8000 -RA FEW015TCU SCT030 09/07
                        Q1020=
201202200115 METAR LIRA 200115Z 15006KT 9000 -RA FEW015TCU SCT030 09/07
                        Q1020=
201202200045 METAR LIRA 200045Z 14010KT 9000 -RA FEW015TCU SCT030 09/07
                        Q1020=
201202200015 METAR LIRA 200015Z 15015G25KT 7000 -RA FEW015TCU SCT016 09/07
                        Q1020=
201202192350 METAR LIRA 200045Z 14010KT 9000 -RA FEW015TCU SCT030 09/07
                        Q1020=
201202192345 METAR LIRA 192345Z 14005KT 9999 FEW017 SCT035 09/07 Q1020=
201202192315 METAR LIRA 192315Z 15006KT 9999 FEW017 SCT035 09/07 Q1020=
201202192245 METAR LIRA 192245Z 15006KT 9000 -RA FEW015TCU SCT035 09/08
                        Q1020=
201202192215 METAR LIRA 192215Z 15010KT 9000 -RA FEW017 SCT035 09/08 Q1020=
201202192145 METAR LIRA 192145Z 14004KT 8000 -RA SCT016 SCT030 09/09 Q1020=
201202192115 METAR LIRA 192115Z 14008KT 9000 FEW016 SCT030 10/09 Q1020=
201202192045 METAR LIRA 192045Z 13007KT 9000 -RA FEW014 SCT030 09/08 Q1020=
201202192015 METAR LIRA 192015Z 16004KT 6000 -RA SCT016 SCT030 09/08 Q1020=
201202191945 METAR LIRA 191945Z 18006KT 130V240 7000 -RA SCT017 SCT030
                        09/08 Q1020=
201202191915 METAR LIRA 191915Z 00000KT 9000 -RA FEW017 SCT030 09/08 Q1020=
201202191845 METAR LIRA 191845Z 07003KT 8000 -RA FEW015 SCT030 09/08 Q1020=
201202191815 METAR LIRA 191815Z 07004KT 8000 -RA FEW015 SCT030 09/08 Q1020=
201202191745 METAR LIRA 191745Z 15002KT 8000 -RA FEW015 SCT017 BKN030
                        09/08 Q1020=
201202191715 METAR LIRA 191715Z 24002KT 6000 -RA FEW016CB SCT017 BKN025
                        10/09 Q1020=
201202191645 METAR LIRA 191645Z 18004KT 140V220 8000 -RA FEW017 BKN022
                        10/08 Q1020=
201202191615 METAR LIRA 191615Z 16007KT 9999 FEW018 BKN025 11/09 Q1020=
201202191545 METAR LIRA 191545Z 15007KT 9999 FEW018 BKN025 11/08 Q1020=
201202191515 METAR LIRA 191515Z 16007KT 9999 FEW018 BKN025 11/08 Q1020=
201202191445 METAR LIRA 191445Z 13001KT 9999 FEW018 SCT025 BKN060 11/09
                        Q1020=
201202191415 METAR LIRA 191415Z 26002KT 9999 FEW018 SCT025 BKN060 11/09
                        Q1020=
201202191345 METAR LIRA 191345Z 24004KT 9999 -RA FEW017 FEW022CB SCT025
                        BKN060 11/07 Q1020=
201202191315 METAR LIRA 191315Z 20013G24KT 8000 -RA FEW018 FEW022CB SCT025
                        BKN060 12/09 Q1020=
201202191245 METAR LIRA 191245Z 19007KT 9999 FEW018 SCT030 BKN070 11/07
                        Q1020=
201202191215 METAR LIRA 191215Z 18002KT 9999 -RA FEW018 SCT030 BKN070
                        11/08 Q1020=
201202191145 METAR LIRA 191145Z 19015KT 8000 -RA FEW018 SCT030 BKN070
                        12/08 Q1020=
201202191115 METAR LIRA 191115Z 16006KT 9999 FEW018 SCT030 BKN070 12/08
                        Q1020=
201202191045 METAR LIRA 191045Z 18009KT 9999 FEW018 SCT030 BKN070 13/08
                        Q1020=
201202191015 METAR LIRA 191015Z 17009KT 130V190 9999 FEW018 SCT030 BKN070
                        12/08 Q1020=
201202190945 METAR LIRA 190945Z 15011KT 140V210 9999 SCT018 SCT070 13/08
                        Q1020=
201202190915 METAR LIRA 190915Z 16011KT 9999 SCT018 SCT070 13/09 Q1020=
201202190845 METAR LIRA 190845Z 15009KT 9999 FEW018 SCT030 11/08 Q1020=
201202190815 METAR LIRA 190815Z 15010KT 9999 FEW018 SCT030 10/08 Q1020=
201202190745 METAR LIRA 190745Z 14004KT 9999 FEW018 SCT030 09/08 Q1020=
201202190715 METAR LIRA 190715Z 11005KT 9999 FEW018 SCT030 07/06 Q1020=
201202190645 METAR LIRA 190645Z 11007KT 9999 FEW018 SCT030 05/05 Q1020=
201202190615 METAR LIRA 190615Z 11005KT 9999 FEW018 SCT030 05/05 Q1020=
201202190545 METAR LIRA 190545Z 12002KT 9999 FEW018 SCT030 06/05 Q1020=
201202190515 METAR LIRA 190515Z 32001KT 9999 FEW018 SCT030 06/05 Q1020=
201202190445 METAR LIRA 190445Z 12003KT 9999 FEW018 SCT030 06/05 Q1020=
201202190415 METAR LIRA 190415Z 09002KT 9999 FEW018 SCT030 06/05 Q1020=
201202190345 METAR LIRA 190345Z 10001KT 9999 FEW018 SCT030 05/05 Q1020=
201202190315 METAR LIRA 190315Z 04001KT 9999 FEW018 SCT080 05/05 Q1020=
201202190245 METAR LIRA 190245Z 08001KT 9999 FEW018 SCT080 05/04 Q1020=
201202190215 METAR LIRA 190215Z 00000KT 9999 FEW018 SCT080 06/05 Q1020=
201202190145 METAR LIRA 190145Z 14002KT 9999 FEW018 BKN080 06/05 Q1021=
201202190115 METAR LIRA 190115Z 00000KT 9999 FEW018 BKN080 06/05 Q1021=
201202190045 METAR LIRA 190045Z 00000KT 9999 FEW018 BKN080 06/05 Q1021=
201202190015 METAR LIRA 190015Z 07001KT 9999 FEW018 BKN080 06/05 Q1021=
201202182350 METAR LIRA 190045Z 00000KT 9999 FEW018 BKN080 06/05 Q1021=
201202182345 METAR LIRA 182345Z 00000KT 9999 SCT080 07/05 Q1021=
201202182315 METAR LIRA 182315Z 10003KT 9999 SCT080 07/05 Q1021=
201202182245 METAR LIRA 182245Z 11004KT 9999 SCT080 07/06 Q1021=
201202182215 METAR LIRA 182215Z 12005KT 9999 SCT080 07/06 Q1021=
201202182145 METAR LIRA 182145Z 11003KT 9999 FEW080 07/05 Q1021=
201202182115 METAR LIRA 182115Z 15004KT 9999 FEW080 07/05 Q1021=
201202182045 METAR LIRA 182045Z 13003KT 9999 FEW080 07/05 Q1021=
201202182015 METAR LIRA 182015Z 14004KT 9999 FEW030 07/05 Q1021=
201202181945 METAR LIRA 181945Z 15003KT 9999 FEW030 SCT080 08/06 Q1021=
201202181915 METAR LIRA 181915Z 14004KT 9999 FEW030 SCT070 08/06 Q1021=
201202181845 METAR LIRA 181845Z 15004KT 9999 FEW030 08/06 Q1020=
201202181815 METAR LIRA 181815Z 15005KT 9999 FEW030 SCT080 09/06 Q1020=
201202181745 METAR LIRA 181745Z 17003KT 9999 FEW030 10/07 Q1020=
201202181715 METAR LIRA 181715Z 17003KT 9999 FEW020 SCT030 10/07 Q1020=
201202181645 METAR LIRA 181645Z 18004KT 9999 FEW020 11/07 Q1020=
201202181615 METAR LIRA 181615Z 18006KT 9999 FEW020 SCT060 12/06 Q1021=
201202181545 METAR LIRA 181545Z 18005KT 9999 FEW020 SCT060 13/06 Q1021=
201202181515 METAR LIRA 181515Z 21005KT 160V220 9999 SCT020 13/06 Q1021=
201202181445 METAR LIRA 181445Z 19005KT 9999 FEW020 13/06 Q1021=
201202181415 METAR LIRA 181415Z 20004KT 9999 FEW020 13/06 Q1021=
201202181345 METAR LIRA 181345Z 16005KT 9999 SCT020 13/06 Q1022=
201202181315 METAR LIRA 181315Z 18005KT 150V220 9999 SCT020 SCT035 13/06
                        Q1022=
201202181245 METAR LIRA 181245Z 19008KT 160V230 9999 SCT020 SCT035 13/06
                        Q1022=
201202181215 METAR LIRA 181215Z 18004KT 9999 FEW020 13/06 Q1022=
201202181145 METAR LIRA 181145Z 20004KT 9999 FEW020 SCT060 12/05 Q1022=
201202181115 METAR LIRA 181115Z 21004KT 9999 FEW035 BKN060 11/05 Q1023=
201202181045 METAR LIRA 181045Z 00000KT 9999 FEW035 BKN060 10/06 Q1023=
201202181015 METAR LIRA 181015Z 00000KT 9000 FEW035 SCT060 08/05 Q1022=
201202180945 METAR LIRA 180945Z 36002KT 9000 FEW035 SCT060 07/05 Q1022=
201202180915 METAR LIRA 180915Z 01001KT 9000 FEW035 SCT060 07/05 Q1022=
201202180845 METAR LIRA 180845Z 06002KT 9000 FEW030 05/04 Q1022=
201202180815 METAR LIRA 180815Z 30001KT 8000 FEW030 04/03 Q1022=
201202180745 METAR LIRA 180745Z 03002KT 8000 FEW020 SCT060 03/03 Q1022=
201202180715 METAR LIRA 180715Z 04002KT 8000 FEW020 SCT060 02/02 Q1022=
201202180645 METAR LIRA 180645Z 04001KT 8000 FEW020 SCT030 02/01 Q1022=
201202180615 METAR LIRA 180615Z 00000KT 8000 FEW020 SCT030 01/01 Q1022=
201202180545 METAR LIRA 180545Z 03002KT 8000 SCT035 01/01 Q1022=
201202180515 METAR LIRA 180515Z 04002KT 8000 FEW070 01/00 Q1022=
201202180445 METAR LIRA 180445Z 05002KT 8000 FEW070 01/00 Q1022=
201202180415 METAR LIRA 180415Z 00000KT 8000 FEW005 01/M00 Q1022=
201202180345 METAR LIRA 180345Z 05002KT 8000 NSC 02/00 Q1022=
201202180315 METAR LIRA 180315Z 04001KT 8000 NSC 02/01 Q1022=
201202180245 METAR LIRA 180245Z 04002KT CAVOK 02/01 Q1022=
201202180215 METAR LIRA 180215Z 04002KT CAVOK 03/01 Q1022=
201202180145 METAR LIRA 180145Z 03002KT CAVOK 03/02 Q1022=
201202180115 METAR LIRA 180115Z 10002KT CAVOK 03/02 Q1022=
201202180045 METAR LIRA 180045Z 07001KT CAVOK 04/03 Q1022=
201202180015 METAR LIRA 180015Z 09002KT CAVOK 04/03 Q1022=
201202172350 METAR LIRA 180045Z 07001KT CAVOK 04/03 Q1022=
201202172345 METAR LIRA 172345Z 18001KT CAVOK 04/02 Q1022=
201202172315 METAR LIRA 172315Z 13001KT CAVOK 05/03 Q1022=
201202172245 METAR LIRA 172245Z 11003KT CAVOK 05/04 Q1022=
201202172215 METAR LIRA 172215Z 12003KT CAVOK 05/04 Q1022=
201202172145 METAR LIRA 172145Z 11004KT CAVOK 05/04 Q1022=
201202172115 METAR LIRA 172115Z 12002KT CAVOK 05/04 Q1022=
201202172045 METAR LIRA 172045Z 14002KT CAVOK 05/04 Q1022=
201202172015 METAR LIRA 172015Z 14002KT CAVOK 05/04 Q1022=
201202171945 METAR LIRA 171945Z 14001KT CAVOK 07/05 Q1022=
201202171915 METAR LIRA 171915Z 12003KT CAVOK 06/05 Q1021=
201202171845 METAR LIRA 171845Z 15004KT CAVOK 08/06 Q1021=
201202171815 METAR LIRA 171815Z 16002KT CAVOK 08/07 Q1021=
201202171745 METAR LIRA 171745Z 21002KT 9999 FEW020 09/07 Q1021=
201202171715 METAR LIRA 171715Z 19003KT 9999 FEW018 10/07 Q1021=
201202171645 METAR LIRA 171645Z 17003KT 9999 FEW020 10/06 Q1021=
201202171615 METAR LIRA 171615Z 17003KT 9999 FEW020 10/06 Q1021=
201202171545 METAR LIRA 171545Z 22002KT 9999 SCT018 SCT070 11/06 Q1021=
201202171515 METAR LIRA 171515Z 23002KT 9999 SCT018 SCT070 11/05 Q1021=
201202171445 METAR LIRA 171445Z 23003KT 9999 SCT018 SCT030 12/06 Q1021=
201202171415 METAR LIRA 171415Z 20005KT 9999 SCT018 SCT070 12/06 Q1021=
201202171345 METAR LIRA 171345Z 20003KT 9999 SCT018 12/06 Q1022=
201202171315 METAR LIRA 171315Z 20005KT 9999 SCT018 13/06 Q1022=
201202171245 METAR LIRA 171245Z 17005KT 9999 SCT018 11/05 Q1022=
201202171215 METAR LIRA 171215Z 19006KT 170V230 9999 SCT018 12/05 Q1022=
201202171145 METAR LIRA 171145Z 17008KT 9999 SCT018 11/04 Q1023=
201202171115 METAR LIRA 171115Z 15007KT 120V190 9999 FEW018 SCT080 11/05
                        Q1023=
201202171045 METAR LIRA 171045Z 17010KT 9999 FEW018 SCT070 11/04 Q1023=
201202171015 METAR LIRA 171015Z 17009KT 9999 FEW018 SCT070 10/04 Q1023=
201202170945 METAR LIRA 170945Z 18010KT 9999 FEW018 SCT070 10/04 Q1023=
201202170915 METAR LIRA 170915Z 17011KT 9999 FEW018 10/04 Q1022=
201202170845 METAR LIRA 170845Z 17008KT 9999 FEW018 09/04 Q1022=
201202170815 METAR LIRA 170815Z 25001KT 9999 FEW018 05/01 Q1022=
201202170745 METAR LIRA 170745Z 00000KT 9999 SCT016 04/00 Q1022=
201202170715 METAR LIRA 170715Z 00000KT 9999 SCT016 02/M01 Q1022=
201202170645 METAR LIRA 170645Z 00000KT 9999 SCT015 SCT025 02/M01 Q1022=
201202170615 METAR LIRA 170615Z 03001KT 9999 SCT015 SCT025 01/M01 Q1021=
201202170545 METAR LIRA 170545Z 03001KT 9999 SCT015 01/M01 Q1021=
201202170515 METAR LIRA 170515Z 01002KT 9999 SCT015 01/M01 Q1021=
201202170445 METAR LIRA 170445Z 05002KT 9999 FEW013 SCT018 01/M01 Q1021=
201202170415 METAR LIRA 170415Z 02002KT 9999 FEW013 SCT018 02/M01 Q1021=
201202170345 METAR LIRA 170345Z 03001KT 9999 FEW013 SCT018 02/M00 Q1021=
201202170315 METAR LIRA 170315Z 00000KT 9999 SCT013 02/00 Q1021=
201202170245 METAR LIRA 170245Z 00000KT 9999 SCT013 02/00 Q1021=
201202170215 METAR LIRA 170215Z 03001KT 9999 SCT013 02/01 Q1020=
201202170145 METAR LIRA 170145Z 02001KT 9999 SCT013 02/01 Q1021=
201202170115 METAR LIRA 170115Z 04001KT 9999 FEW013 SCT015 03/01 Q1021=
201202170045 METAR LIRA 170045Z 04001KT 9999 FEW006 03/01 Q1021=
201202170015 METAR LIRA 170015Z 04002KT 9999 FEW015 SCT020 03/01 Q1021=
201202162350 METAR LIRA 170045Z 04001KT 9999 FEW006 03/01 Q1021=
201202162345 METAR LIRA 162345Z 04001KT 9999 SCT015 03/01 Q1021=
201202162315 METAR LIRA 162315Z 36002KT 9999 FEW015 04/02 Q1020=
201202162245 METAR LIRA 162245Z 02003KT 9999 SCT018 04/03 Q1020=
201202162215 METAR LIRA 162215Z 06003KT 9999 FEW018 05/03 Q1019=
201202162145 METAR LIRA 162145Z 06003KT CAVOK 05/03 Q1019=
201202162115 METAR LIRA 162115Z 03003KT CAVOK 05/03 Q1019=
201202162045 METAR LIRA 162045Z 14004KT CAVOK 06/03 Q1018=
201202162015 METAR LIRA 162015Z 14005KT CAVOK 05/03 Q1018=
201202161945 METAR LIRA 161945Z 14005KT CAVOK 05/03 Q1018=
201202161915 METAR LIRA 161915Z 13004KT CAVOK 06/03 Q1017=
201202161845 METAR LIRA 161845Z 14005KT CAVOK 06/03 Q1017=
201202161815 METAR LIRA 161815Z 11006KT CAVOK 08/02 Q1016=
201202161745 METAR LIRA 161745Z 09005KT 9999 FEW020 08/01 Q1016=
201202161715 METAR LIRA 161715Z 10003KT 9999 FEW018 09/01 Q1015=
201202161645 METAR LIRA 161645Z 13003KT 9999 FEW018 10/M00 Q1015=
201202161615 METAR LIRA 161615Z 04003KT 9999 FEW018 10/M02 Q1015=
201202161545 METAR LIRA 161545Z 03003KT 9999 FEW018 11/M02 Q1014=
201202161515 METAR LIRA 161515Z 36005KT 330V050 9999 FEW018 12/M03 Q1013=
201202161445 METAR LIRA 161445Z 03004KT 9999 FEW018 12/M03 Q1013=
201202161415 METAR LIRA 161415Z 01005KT 330V050 9999 FEW018 12/M02 Q1013=
201202161345 METAR LIRA 161345Z 01004KT 300V040 9999 FEW018 13/M01 Q1012=
201202161315 METAR LIRA 161315Z 36007KT 320V060 9999 FEW018 12/M02 Q1012=
201202161245 METAR LIRA 161245Z 32008KT 320V050 9999 FEW018 11/M01 Q1012=
201202161215 METAR LIRA 161215Z 35006KT 340V080 9999 FEW018 11/01 Q1012=
201202161145 METAR LIRA 161145Z 02006KT 350V070 9999 FEW070 10/02 Q1012=
201202161115 METAR LIRA 161115Z 03006KT 350V090 9999 FEW070 10/01 Q1012=
201202161045 METAR LIRA 161045Z 01007KT 330V050 9999 FEW080 09/01 Q1012=
201202161015 METAR LIRA 161015Z 04007KT 340V080 9999 FEW080 08/02 Q1012=
201202160945 METAR LIRA 160945Z 06007KT 9999 FEW080 07/03 Q1011=
201202160915 METAR LIRA 160915Z 04005KT 360V070 9999 FEW080 05/02 Q1011=
201202160845 METAR LIRA 160845Z 06003KT 9999 FEW080 04/02 Q1011=
201202160815 METAR LIRA 160815Z 02006KT 360V080 9999 FEW080 03/01 Q1011=
201202160745 METAR LIRA 160745Z 05003KT 9999 FEW080 02/01 Q1010=
201202160715 METAR LIRA 160715Z 06001KT 9999 FEW080 01/M00 Q1010=
201202160645 METAR LIRA 160645Z 04001KT 9999 FEW080 00/M01 Q1010=
201202160615 METAR LIRA 160615Z 03003KT CAVOK 00/M01 Q1009=
201202160545 METAR LIRA 160545Z 04003KT 9999 FEW005 00/M01 Q1009=
201202160515 METAR LIRA 160515Z 01004KT 9999 FEW005 01/M00 Q1009=
201202160445 METAR LIRA 160445Z 02003KT CAVOK 01/M00 Q1009=
201202160415 METAR LIRA 160415Z 02003KT CAVOK 01/M00 Q1008=
201202160345 METAR LIRA 160345Z 02003KT CAVOK 01/M01 Q1008=
201202160315 METAR LIRA 160315Z 02002KT CAVOK 02/M00 Q1008=
201202160245 METAR LIRA 160245Z 01002KT CAVOK 02/M00 Q1008=
201202160215 METAR LIRA 160215Z 01002KT 9999 FEW020 02/00 Q1008=
201202160145 METAR LIRA 160145Z 04003KT 9999 FEW020 03/01 Q1008=
201202160115 METAR LIRA 160115Z 36004KT 9999 FEW017 03/01 Q1008=
201202160045 METAR LIRA 160045Z 33001KT 9000 FEW017 SCT022 04/03 Q1008=
201202160015 METAR LIRA 160015Z 00000KT 8000 FEW017 BKN022 05/03 Q1008=
201202152350 METAR LIRA 160045Z 33001KT 9000 FEW017 SCT022 04/03 Q1008=
201202152345 METAR LIRA 152345Z 07002KT 8000 FEW017 BKN022 05/03 Q1008=
201202152315 METAR LIRA 152315Z 04004KT 8000 FEW017 BKN022 05/04 Q1009=
201202152245 METAR LIRA 152245Z 06004KT 8000 FEW017 BKN022 05/04 Q1009=
201202152215 METAR LIRA 152215Z 05004KT 8000 -RA SCT017 BKN022 05/04 Q1009=
201202152145 METAR LIRA 152145Z 07001KT 8000 -RA SCT017 BKN022 05/03 Q1009=
201202152115 METAR LIRA 152115Z 07001KT 8000 -RA SCT017 BKN022 05/04 Q1009=
201202152045 METAR LIRA 152045Z 12005KT 8000 FEW017 BKN025 06/03 Q1008=
201202152015 METAR LIRA 152015Z 14007KT 8000 -RA FEW017 BKN025 05/03 Q1008=
201202151945 METAR LIRA 151945Z 17005KT 8000 -RA FEW017 BKN025 05/04 Q1008=
201202151915 METAR LIRA 151915Z 17003KT 9999 -RA FEW017 BKN025 05/02 Q1008=
201202151845 METAR LIRA 151845Z 15008KT 9999 FEW017 SCT022 05/02 Q1009=
201202151815 METAR LIRA 151815Z 14007KT 9999 FEW017 SCT022 05/02 Q1009=
201202151745 METAR LIRA 151745Z 14005KT 9999 FEW017TCU SCT020 05/01 Q1009=
201202151715 METAR LIRA 151715Z 14006KT 9999 FEW017TCU SCT020 05/01 Q1010=
201202151645 METAR LIRA 151645Z 17004KT 9999 FEW017TCU SCT020 FEW022CB
                        07/02 Q1009=
201202151615 METAR LIRA 151615Z 20005KT 170V230 9999 FEW018 SCT020 FEW022CB
                        08/01 Q1009=
201202151545 METAR LIRA 151545Z 23006KT 9999 FEW020 FEW022CB SCT025 09/01
                        Q1010=
201202151515 METAR LIRA 151515Z 23006KT 9999 FEW018 SCT020 09/00 Q1010=
201202151445 METAR LIRA 151445Z 24007KT 9999 SCT020 SCT025 09/M00 Q1010=
201202151415 METAR LIRA 151415Z 19004KT 170V250 9999 FEW018 SCT022 FEW025TCU
                        08/M00 Q1011=
201202151345 METAR LIRA 151345Z 21005KT 190V250 9999 SCT018 SCT020 FEW024TCU
                        08/M00 Q1011=
201202151315 METAR LIRA 151315Z 20005KT 9999 SCT018 SCT020 09/M01 Q1011=
201202151245 METAR LIRA 151245Z 23007KT 200V260 9999 FEW018 SCT020 09/M05
                        Q1012=
201202151215 METAR LIRA 151215Z 24005KT 220V290 9999 SCT020 SCT027 09/M04
                        Q1012=
201202151145 METAR LIRA 151145Z 23004KT 9999 FEW040 08/M06 Q1013=
201202151115 METAR LIRA 151115Z 23004KT 190V270 9999 FEW080 08/M09 Q1014=
201202151045 METAR LIRA 151045Z 00000KT 9999 FEW080 07/M07 Q1014=
201202151015 METAR LIRA 151015Z 04001KT 9999 FEW080 BKN200 07/M06 Q1014=
201202150945 METAR LIRA 150945Z 00000KT 9999 FEW080 04/M03 Q1015=
201202150915 METAR LIRA 150915Z 01001KT 9999 FEW080 02/M03 Q1015=
201202150845 METAR LIRA 150845Z 04004KT CAVOK 01/M04 Q1015=
201202150815 METAR LIRA 150815Z 04004KT CAVOK M00/M04 Q1015=
201202150745 METAR LIRA 150745Z 01003KT CAVOK M01/M04 Q1015=
201202150715 METAR LIRA 150715Z 00000KT CAVOK M02/M04 Q1014=
201202150645 METAR LIRA 150645Z 36003KT CAVOK M03/M05 Q1014=
201202150615 METAR LIRA 150615Z 02001KT CAVOK M04/M05 Q1014=
201202150545 METAR LIRA 150545Z 05003KT CAVOK M04/M05 Q1014=
201202150515 METAR LIRA 150515Z 02001KT CAVOK M04/M05 Q1014=
201202150500 METAR LIRA CONTUS LOW CLDS MVG S=
201202150445 METAR LIRA 150445Z 06002KT CAVOK M03/M05 Q1014=
201202150415 METAR LIRA 150415Z 36003KT CAVOK M03/M05 Q1014=
201202150400 METAR LIRA INTER=
201202150345 METAR LIRA 150345Z 01002KT CAVOK M03/M05 Q1014=
201202150315 METAR LIRA 150315Z 05003KT CAVOK M02/M05 Q1014=
201202150300 METAR LIRA CONTUS=
201202150245 METAR LIRA 150245Z 03003KT CAVOK M02/M05 Q1015=
201202150215 METAR LIRA 150215Z 03002KT CAVOK M02/M05 Q1015=
201202150200 METAR LIRA INTER=
201202150145 METAR LIRA 150145Z 05004KT CAVOK M02/M04 Q1015=
201202150115 METAR LIRA 150115Z 04004KT CAVOK M02/M05 Q1014=
201202150045 METAR LIRA 150045Z 01005KT CAVOK M02/M04 Q1014=
201202150015 METAR LIRA 150015Z 04003KT CAVOK M02/M05 Q1014=
201202142350 METAR LIRA 150045Z 01005KT CAVOK M02/M04 Q1014=
201202142345 METAR LIRA 142345Z 03002KT CAVOK M01/M04 Q1014=
201202142315 METAR LIRA 142315Z 01002KT CAVOK M01/M04 Q1014=
201202142245 METAR LIRA 142245Z 05004KT CAVOK M01/M04 Q1014=
201202142215 METAR LIRA 142215Z 03004KT CAVOK 00/M04 Q1014=
201202142145 METAR LIRA 142145Z 03002KT CAVOK 00/M04 Q1014=
201202142115 METAR LIRA 142115Z 06002KT CAVOK 00/M04 Q1013=
201202142045 METAR LIRA 142045Z 02002KT CAVOK 01/M05 Q1013=
201202142015 METAR LIRA 142015Z 01003KT CAVOK 01/M06 Q1013=
201202141945 METAR LIRA 141945Z 02002KT CAVOK 02/M05 Q1013=
201202141915 METAR LIRA 141915Z 01002KT CAVOK 02/M06 Q1013=
201202141845 METAR LIRA 141845Z 34003KT CAVOK 03/M05 Q1012=
201202141815 METAR LIRA 141815Z 35006KT CAVOK 03/M06 Q1012=
201202141745 METAR LIRA 141745Z 35005KT CAVOK 03/M06 Q1012=
201202141715 METAR LIRA 141715Z 34003KT CAVOK 04/M06 Q1012=
201202141645 METAR LIRA 141645Z 36003KT CAVOK 05/M07 Q1011=
201202141615 METAR LIRA 141615Z 36003KT CAVOK 06/M06 Q1011=
201202141545 METAR LIRA 141545Z 02004KT 9999 FEW020 07/M07 Q1011=
201202141515 METAR LIRA 141515Z 02003KT 9999 FEW020 07/M06 Q1011=
201202141445 METAR LIRA 141445Z 36004KT 330V040 9999 FEW020 07/M05 Q1011=
201202141415 METAR LIRA 141415Z 35006KT 9999 FEW020 07/M05 Q1011=
201202141345 METAR LIRA 141345Z 35005KT 310V030 9999 FEW020 07/M05 Q1011=
201202141315 METAR LIRA 141315Z 36004KT 340V070 9999 FEW020 07/M04 Q1011=
201202141245 METAR LIRA 141245Z 02004KT 320V040 9999 FEW020 06/M04 Q1011=
201202141215 METAR LIRA 141215Z 04006KT 350V070 9999 FEW020 06/M03 Q1011=
201202141145 METAR LIRA 141145Z 03005KT 350V090 9999 FEW020 05/M01 Q1011=
201202141115 METAR LIRA 141115Z 03005KT 350V090 CAVOK 05/M02 Q1012=
201202141045 METAR LIRA 141045Z 01005KT 320V040 CAVOK 04/M02 Q1012=
201202141015 METAR LIRA 141015Z 02005KT CAVOK 03/M03 Q1012=
201202140945 METAR LIRA 140945Z 01004KT CAVOK 02/M03 Q1012=
201202140915 METAR LIRA 140915Z 01005KT CAVOK 01/M03 Q1012=
201202140845 METAR LIRA 140845Z 01004KT CAVOK M00/M03 Q1012=
201202140815 METAR LIRA 140815Z 02004KT CAVOK M02/M03 Q1012=
201202140745 METAR LIRA 140745Z 04004KT CAVOK M02/M04 Q1011=
201202140715 METAR LIRA 140715Z 05003KT CAVOK M03/M04 Q1011=
201202140645 METAR LIRA 140645Z 04003KT CAVOK M04/M05 Q1011=
201202140615 METAR LIRA 140615Z 04003KT CAVOK M04/M05 Q1011=
201202140545 METAR LIRA 140545Z 03003KT CAVOK M04/M05 Q1011=
201202140515 METAR LIRA 140515Z 03003KT CAVOK M03/M04 Q1012=
201202140445 METAR LIRA 140445Z 01002KT CAVOK M03/M04 Q1012=
201202140415 METAR LIRA 140415Z 02003KT CAVOK M03/M04 Q1012=
201202140345 METAR LIRA 140345Z 06006KT CAVOK M03/M04 Q1012=
201202140315 METAR LIRA 140315Z 05005KT CAVOK M03/M04 Q1012=
201202140245 METAR LIRA 140245Z 02002KT CAVOK M03/M04 Q1012=
201202140215 METAR LIRA 140215Z 04005KT CAVOK M03/M04 Q1012=
201202140145 METAR LIRA 140145Z 03003KT CAVOK M02/M04 Q1012=
201202140115 METAR LIRA 140115Z 04004KT CAVOK M02/M04 Q1013=
201202140045 METAR LIRA 140045Z 03002KT CAVOK M02/M04 Q1013=
201202140015 METAR LIRA 140015Z 02002KT CAVOK M02/M04 Q1013=
201202132350 METAR LIRA 140045Z 03002KT CAVOK M02/M04 Q1013=
201202132345 METAR LIRA 132345Z 05003KT CAVOK M02/M04 Q1013=
201202132315 METAR LIRA 132315Z 04003KT CAVOK M01/M03 Q1013=
201202132245 METAR LIRA 132245Z 03003KT CAVOK M01/M03 Q1013=
201202132215 METAR LIRA 132215Z 03002KT CAVOK M00/M03 Q1013=
201202132145 METAR LIRA 132145Z 02003KT CAVOK 00/M04 Q1013=
201202132115 METAR LIRA 132115Z 01002KT CAVOK 01/M03 Q1013=
201202132045 METAR LIRA 132045Z 36004KT CAVOK 01/M04 Q1013=
201202132015 METAR LIRA 132015Z 01004KT CAVOK 02/M02 Q1013=
201202131945 METAR LIRA 131945Z 02003KT CAVOK 02/M02 Q1013=
201202131915 METAR LIRA 131915Z 02002KT CAVOK 02/M02 Q1013=
201202131845 METAR LIRA 131845Z 05003KT CAVOK 02/M02 Q1013=
201202131815 METAR LIRA 131815Z 07003KT CAVOK 02/M03 Q1013=
201202131745 METAR LIRA 131745Z 03002KT CAVOK 03/M02 Q1013=
201202131715 METAR LIRA 131715Z 03002KT CAVOK 04/M02 Q1013=
201202131645 METAR LIRA 131645Z 03002KT CAVOK 04/M03 Q1013=
201202131615 METAR LIRA 131615Z 35005KT CAVOK 05/M02 Q1013=
201202131545 METAR LIRA 131545Z 34003KT CAVOK 06/M02 Q1013=
201202131515 METAR LIRA 131515Z 36004KT 9999 FEW023 06/M02 Q1013=
201202131445 METAR LIRA 131445Z 34004KT 9999 FEW023 06/M01 Q1013=
201202131415 METAR LIRA 131415Z 36003KT 9999 FEW018 06/M01 Q1014=
201202131345 METAR LIRA 131345Z 35002KT 9999 FEW018 06/M01 Q1014=
201202131315 METAR LIRA 131315Z 35004KT 9999 FEW020 06/M00 Q1014=
201202131245 METAR LIRA 131245Z 04004KT 9999 FEW018 05/M01 Q1014=
201202131215 METAR LIRA 131215Z 02004KT 330V030 9999 FEW018 05/M01 Q1014=
201202131145 METAR LIRA 131145Z 02005KT 360V080 9999 FEW018 05/M01 Q1015=
201202131115 METAR LIRA 131115Z 01006KT 330V050 9999 FEW018 04/M01 Q1015=
201202131045 METAR LIRA 131045Z 03006KT 350V090 9999 FEW018 03/M01 Q1016=
201202131015 METAR LIRA 131015Z 02006KT 350V060 9999 FEW018 02/M02 Q1016=
201202131000 METAR LIRA INT=
201202130945 METAR LIRA 130945Z 03006KT 9999 FEW018 02/M02 Q1016=
201202130915 METAR LIRA 130915Z 02006KT 340V040 9999 FEW018 01/M03 Q1016=
201202130845 METAR LIRA 130845Z 02005KT 340V050 9999 FEW018 00/M03 Q1016=
201202130815 METAR LIRA 130815Z 01006KT 9999 FEW018 M01/M04 Q1016=
201202130745 METAR LIRA 130745Z 03006KT 9999 FEW015 M01/M04 Q1016=
201202130715 METAR LIRA 130715Z 03005KT 340V070 9999 FEW015 M02/M03 Q1016=
201202130645 METAR LIRA 130645Z 04003KT CAVOK M02/M03 Q1015=
201202130615 METAR LIRA 130615Z 05006KT CAVOK M03/M04 Q1015=
201202130545 METAR LIRA 130545Z 03003KT CAVOK M03/M04 Q1015=
201202130515 METAR LIRA 130515Z 06004KT CAVOK M03/M04 Q1015=
201202130445 METAR LIRA 130445Z 03004KT CAVOK M02/M04 Q1015=
201202130415 METAR LIRA 130415Z 01002KT CAVOK M02/M04 Q1015=
201202130345 METAR LIRA 130345Z 04003KT 9999 FEW080 M02/M04 Q1015=
201202130315 METAR LIRA 130315Z 04001KT 9999 FEW080 M01/M03 Q1015=
201202130245 METAR LIRA 130245Z 04005KT 9999 FEW070 M01/M03 Q1016=
201202130215 METAR LIRA 130215Z 01005KT 9999 FEW030 M01/M02 Q1016=
201202130145 METAR LIRA 130145Z 04004KT 9999 FEW030 M00/M02 Q1016=
201202130115 METAR LIRA 130115Z 03005KT 9999 FEW030 SCT070 00/M01 Q1016=
201202130045 METAR LIRA 130045Z 07007KT 9999 FEW030 SCT070 00/M01 Q1016=
201202130015 METAR LIRA 130015Z 04004KT 9999 FEW030 SCT070 00/M00 Q1016=
201202122350 METAR LIRA 130045Z 07007KT 9999 FEW030 SCT070 00/M01 Q1016=
201202122345 METAR LIRA 122345Z 34001KT 9999 FEW030 SCT070 00/M00 Q1015=
201202122315 METAR LIRA 122315Z 00000KT 9999 FEW030 SCT070 00/M01 Q1015=
201202122245 METAR LIRA 122245Z 00000KT 9999 FEW030 01/00 Q1015=
201202122215 METAR LIRA 122215Z 00000KT 9999 FEW030 01/00 Q1014=
201202122145 METAR LIRA 122145Z 27005KT 9999 FEW020 SCT070 02/01 Q1014=
201202122115 METAR LIRA 122115Z 11005KT 9999 FEW020 SCT070 02/01 Q1014=
201202122045 METAR LIRA 122045Z 05003KT 9999 FEW021 SCT070 02/01 Q1014=
201202122015 METAR LIRA 122015Z 07006KT 9999 FEW018 BKN070 02/01 Q1014=
201202121945 METAR LIRA 121945Z 08005KT 050V110 9999 FEW018 SCT070 02/01
                        Q1014=
201202121915 METAR LIRA 121915Z 06005KT 9999 FEW018 SCT070 02/01 Q1014=
201202121845 METAR LIRA 121845Z 03004KT 9999 FEW018 SCT070 02/01 Q1014=
201202121815 METAR LIRA 121815Z 36002KT 9999 FEW018 SCT070 02/M00 Q1014=
201202121745 METAR LIRA 121745Z 02003KT 9999 FEW018 SCT070 02/M01 Q1014=
201202121715 METAR LIRA 121715Z 02003KT 9999 FEW018 SCT060 03/M00 Q1013=
201202121645 METAR LIRA 121645Z 02004KT 9999 SCT018 03/00 Q1013=
201202121615 METAR LIRA 121615Z 04003KT 9999 SCT018 04/M01 Q1013=
201202121545 METAR LIRA 121545Z 02003KT 9999 SCT018 05/M01 Q1013=
201202121515 METAR LIRA 121515Z 02003KT 9999 SCT018 05/M01 Q1013=
201202121445 METAR LIRA 121445Z 03005KT 9999 SCT018 04/00 Q1013=
201202121415 METAR LIRA 121415Z 05006KT 9999 SCT018 04/M00 Q1013=
201202121345 METAR LIRA 121345Z 02005KT 9999 SCT018 03/00 Q1013=
201202121315 METAR LIRA 121315Z 01005KT 9999 SCT018 03/M01 Q1013=
201202121245 METAR LIRA 121245Z 04005KT 9999 SCT018 02/M01 Q1013=
201202121215 METAR LIRA 121215Z 02006KT 9999 SCT018 FEW025CB 01/M02 Q1014=
201202121145 METAR LIRA 121145Z 03006KT 350V070 8000 FEW018 SCT025 01/M02
                        Q1014=
201202121115 METAR LIRA 121115Z 03006KT 330V060 7000 FEW015 SCT025 00/M02
                        Q1013=
201202121045 METAR LIRA 121045Z 04006KT 320V060 6000 FEW009 SCT015 00/M02
                        Q1013=
201202121015 METAR LIRA 121015Z 04006KT 340V080 4000 BR SCT004 SCT006
                        01/M01 Q1013=
201202120945 METAR LIRA 120945Z 04008KT 3000 BR SCT004 SCT006 M01/M03
                        Q1013=
201202120915 METAR LIRA 120915Z 03007KT 2000 BR SCT004 SCT006 M02/M02
                        Q1013=
201202120845 METAR LIRA 120845Z 02007KT 1800 BR SCT004 SCT006 M02/M02
                        Q1013=
201202120815 METAR LIRA 120815Z 01004KT 0900 R15/1300U SCT003 SCT005 M01/M02
                        Q1013=
201202120745 METAR LIRA 120745Z 02005KT 0600 R15/1200N FZFG BKN001 SCT003
                        M01/M02 Q1013=
201202120715 METAR LIRA 120715Z 01004KT 0800 R15/1200U FZFG SCT001 SCT004
                        M01/M01 Q1013=
201202120645 METAR LIRA 120645Z 02005KT 0600 R15/1100D FZFG BKN001 SCT003
                        M01/M01 Q1013=
201202120615 METAR COR LIRA 120615Z 03006KT 0600 R15/1200D FZFG BKN001
                        SCT003 M01/M01 Q1013=
201202120545 METAR LIRA 120545Z 03004KT 1200 BR VCFG SCT001 SCT008 M01/M01
                        Q1013=
201202120515 METAR LIRA 120515Z 36006KT 2000 BR SCT002 BKN008 M01/M01
                        Q1013=
201202120445 METAR LIRA 120445Z 02005KT 360V080 2000 BR SCT002 BKN008
                        M01/M01 Q1013=
201202120415 METAR LIRA 120415Z 03004KT 1800 BR SCT002 BKN008 M00/M01
                        Q1013=
201202120345 METAR LIRA 120345Z 03004KT 1600 BR SCT002 BKN008 M00/M01
                        Q1013=
201202120315 METAR LIRA 120315Z 01004KT 1600 BR SCT002 SCT008 M00/M01
                        Q1013=
201202120245 METAR LIRA 120245Z 01004KT 1600 BR SCT002 SCT008 M00/M01
                        Q1013=
201202120215 METAR LIRA 120215Z 03004KT 1600 BR SCT002 SCT008 00/M00 Q1013=
201202120145 METAR LIRA 120145Z 01002KT 1800 BR SCT002 SCT008 00/M00 Q1014=
201202120115 METAR LIRA 120115Z 35004KT 2000 BR SCT002 SCT008 00/M00 Q1014=
201202120045 METAR LIRA 120045Z 02003KT 2000 BR SCT002 SCT008 00/M00 Q1014=
201202120015 METAR LIRA 120015Z 03004KT 2000 BR SCT002 SCT008 00/M00 Q1014=
201202112350 METAR LIRA 120045Z 02003KT 2000 BR SCT002 SCT008 00/M00 Q1014=
201202112345 METAR LIRA 112345Z 01004KT 2000 BR SCT001 SCT008 00/M00 Q1014=
201202112315 METAR LIRA 112315Z 01003KT 1500 BR SCT001 SCT008 00/M00 Q1014=
201202112245 METAR LIRA 112245Z 36005KT 0900 R15/P1500 FZFG SCT001 SCT006
                        00/M00 Q1014=
201202112215 METAR LIRA 112215Z 03003KT 0800 R15/1500 FZFG SCT001 SCT006
                        00/M00 Q1014=
201202112145 METAR LIRA 112145Z 04002KT 0800 R15/1400U FG SCT001 SCT006
                        00/M00 Q1014=
201202112115 METAR LIRA 112115Z 00000KT 0500 R15/0700D FG BKN001 SCT006
                        00/M00 Q1014=
201202112045 METAR LIRA 112045Z 31002KT 3000 BR SCT002 SCT006 01/00 Q1013=
201202112015 METAR LIRA 112015Z 17001KT 4000 BR FEW002 SCT013 01/00 Q1013=
201202111945 METAR LIRA 111945Z 22004KT 4000 BR FEW002 SCT006 01/00 Q1012=
201202111915 METAR LIRA 111915Z 23004KT 5000 BR FEW006 SCT013 01/01 Q1012=
201202111845 METAR LIRA 111845Z 14006KT 110V200 5000 BR FEW002 SCT013
                        01/01 Q1011=
201202111815 METAR LIRA 111815Z 02002KT 340V060 4000 BR FEW002 SCT013
                        01/00 Q1011=
201202111745 METAR LIRA 111745Z 33006KT 4000 BR FEW002 SCT013 01/00 Q1011=
201202111715 METAR LIRA 111715Z 01003KT 3500 BR SCT002 SCT013 BKN060 01/00
                        Q1011=
201202111645 METAR LIRA 111645Z 03002KT 4000 BR SCT015 BKN060 00/M00 Q1011=
201202111615 METAR LIRA 111615Z 03003KT 3000 -SN BR FEW015 SCT060 00/M00
                        Q1011=
201202111545 METAR LIRA 111545Z 03006KT 6000 FEW015 BKN060 01/M00 Q1011
                        RETS RESN=
201202111515 METAR LIRA 111515Z 05008KT 010V090 6000 FEW015 SCT060 01/M00
                        Q1011 RETS RESN=
201202111445 METAR LIRA 111445Z 05006KT 2500 TSSN BR SCT015 FEW020CB BKN022
                        00/M00 Q1011=
201202111415 METAR LIRA 111415Z 05008KT 0800 TSSN SCT015 FEW020CB BKN022
                        00/M00 Q1011=
201202111345 METAR LIRA 111345Z 31002KT 0600 0800 TSSN BR SCT015 FEW020CB
                        BKN022 01/00 Q1011=
201202111315 METAR LIRA 111315Z 01002KT 0800 R15//// TSRA BR SCT015 FEW020CB
                        BKN022 01/M00 Q1011=
201202111245 METAR LIRA 111245Z 28006KT 2500 TSRA SCT015 FEW020CB SCT022
                        02/00 Q1012=
201202111215 METAR LIRA 111215Z 33005KT 9999 -RASN SCT018 SCT025 03/M00
                        Q1012=
201202111145 METAR LIRA 111145Z 12008KT 060V150 9999 -RASN SCT018 SCT025
                        04/M01 Q1012=
201202111115 METAR LIRA 111115Z 12008KT 9999 SCT018 SCT025 04/M02 Q1012=
201202111045 METAR LIRA 111045Z 12002KT 9999 SCT018 SCT070 06/M03 Q1012=
201202111015 METAR LIRA 111015Z 13004KT 9999 SCT018 SCT070 05/M02 Q1012=
201202111000 METAR LIRA CONTUS=
201202110945 METAR LIRA 110945Z 14002KT 9999 FEW018 SCT070 05/M03 Q1012=
201202110915 METAR LIRA 110915Z 14005KT 9999 FEW018 04/M01 Q1012=
201202110900 METAR LIRA INTER=
201202110845 METAR LIRA 110845Z 15005KT 9999 FEW018 02/M02 Q1011=
201202110815 METAR LIRA 110815Z 15004KT 9999 FEW015 SCT070 02/M01 Q1011=
201202110745 METAR LIRA 110745Z 15004KT 9999 FEW015 SCT070 01/M00 Q1011=
201202110715 METAR LIRA 110715Z 15007KT 9999 SCT015 00/M00 Q1011=
201202110645 METAR LIRA 110645Z 15006KT 9999 SCT015 00/M01 Q1010=
201202110615 METAR LIRA 110615Z 15007KT 9999 FEW015 M00/M01 Q1010=
201202110545 METAR LIRA 110545Z 16003KT 9999 FEW015 SCT070 M00/M01 Q1010=
201202110515 METAR LIRA 110515Z 14005KT 9999 FEW015 M00/M01 Q1010=
201202110445 METAR LIRA 110445Z 14006KT 8000 -SN FEW002 SCT015 BKN020
                        M00/M01 Q1010=
201202110415 METAR LIRA 110415Z 17004KT 9999 FEW002 SCT025 00/M00 Q1010=
201202110345 METAR LIRA 110345Z 17006KT 8000 FEW002 SCT020 00/M01 Q1009=
201202110315 METAR LIRA 110315Z 19008KT 4000 -SN BR FEW002 SCT010 BKN017
                        01/01 Q1009=
201202110245 METAR LIRA 110245Z 17005KT 6000 -SN FEW005 SCT015 BKN025
                        00/M00 Q1009=
201202110215 METAR LIRA 110215Z 15004KT 8000 FEW005 SCT025 00/M00 Q1009
                        RMK R15/520250=
201202110145 METAR LIRA 110145Z 15004KT 6000 FEW005 SCT015 00/M00 Q1009
                        RMK R15/520250=
201202110115 METAR LIRA 110115Z 19004KT 6000 FEW005 SCT015 00/M00 Q1008
                        RESN R15/520250=
201202110045 METAR LIRA 110045Z 19002KT 4500 BR SCT005 BKN025 00/M00 Q1008
                        RESN RMK R15/520250=
201202110015 METAR LIRA 110015Z 23002KT 4500 -SN BR SCT005 BKN025 00/M00
                        Q1007 RMK R15/520250=
201202102350 METAR LIRA 110045Z 19002KT 4500 BR SCT005 BKN025 00/M00 Q1008
                        RESN RMK R15/520250=
201202102345 METAR LIRA 102345Z 24003KT 4000 -SN BR SCT005 BKN025 00/M00
                        Q1007=
201202102315 METAR LIRA 102315Z 24004KT 4000 -SN BR SCT006 BKN020 00/M00
                        Q1006=
201202102245 METAR LIRA 102245Z 34006KT 2500 -SN BR SCT002 BKN017 00/M00
                        Q1005=
201202102215 METAR LIRA 102215Z 33008KT 2000 SN BR SCT002 BKN017 00/M00
                        Q1005=
201202102145 METAR LIRA 102145Z 36002KT 350V060 4000 -RA FEW002 SCT020
                        BKN060 02/01 Q1004=
201202102115 METAR LIRA 102115Z 04006KT 350V080 4000 -RA FEW002 SCT020
                        02/01 Q1004=
201202102045 METAR LIRA 102045Z 34009KT 300V030 9000 FEW002 SCT030 02/01
                        Q1004=
201202102015 METAR LIRA 102015Z 03007KT 360V060 8000 FEW002 SCT025 03/01
                        Q1004=
201202101945 METAR LIRA 101945Z 03005KT 8000 -RA FEW003 BKN025 03/01 Q1004=
201202101915 METAR LIRA 101915Z 05004KT 330V080 8000 -RA FEW003 BKN025
                        02/01 Q1004=
201202101845 METAR LIRA 101845Z 07009KT 040V130 6000 RA FEW003 BKN020
                        03/01 Q1004=
201202101815 METAR LIRA 101815Z 11006G18KT 330V120 8000 -RA FEW006 BKN016
                        03/01 Q1004=
201202101745 METAR LIRA 101745Z 04008G18KT 010V110 8000 FEW006 BKN016
                        03/01 Q1004=
201202101715 METAR LIRA 101715Z 08009KT 030V100 8000 FEW006 BKN016 03/02
                        Q1004=
201202101645 METAR LIRA 101645Z 01005KT 340V050 5000 BR FEW006 BKN016
                        02/02 Q1004=
201202101615 METAR LIRA 101615Z 02010KT 320V060 5000 -RA BR FEW006 BKN016
                        02/02 Q1005=
201202101545 METAR LIRA 101545Z 02012KT 340V060 4000 -RA BR FEW006 BKN016
                        02/02 Q1005=
201202101515 METAR LIRA 101515Z 02011KT 350V060 4000 -RASN BR FEW006 BKN016
                        02/01 Q1005=
201202101445 METAR LIRA 101445Z 02009KT 330V080 4000 -RASN BR FEW006 BKN016
                        02/01 Q1005=
201202101415 METAR LIRA 101415Z 04012KT 020V080 3000 -SNRA BR FEW006 BKN016
                        02/01 Q1005=
201202101345 METAR LIRA 101345Z 05010KT 020V080 3000 -SNRA BR FEW008 BKN020
                        02/02 Q1006=
201202101315 METAR LIRA 101315Z 03013G24KT 010V070 3000 -SNRA BR SCT012
                        BKN020 02/01 Q1005=
201202101245 METAR LIRA 101245Z 05011G26KT 020V100 3000 -SNRA BR SCT012
                        BKN020 03/02 Q1006=
201202101215 METAR LIRA 101215Z 08017G29KT 040V120 3000 -SNRA BR SCT016
                        BKN020 03/02 Q1007=
201202101145 METAR LIRA 101145Z 09017G30KT 4000 -RA BR FEW016 BKN020 04/02
                        Q1007=
201202101115 METAR LIRA 101115Z 08010G20KT 040V110 5000 -RA BR FEW016
                        SCT020 BKN070 04/04 Q1008=
201202101045 METAR LIRA 101045Z 05007KT 360V090 5000 -RA BR FEW016 SCT020
                        BKN070 03/03 Q1008=
201202101015 METAR LIRA 101015Z 10014KT 060V120 5000 -RA BR FEW016 SCT020
                        BKN070 03/02 Q1009=
201202100945 METAR LIRA 100945Z 12018KT 9000 3500S -DZ FEW002 SCT023 BKN070
                        04/02 Q1009=
201202100915 METAR LIRA 100915Z 10011G23KT 070V130 9999 -DZ FEW002 SCT023
                        BKN070 04/01 Q1009=
201202100845 METAR LIRA 100845Z 08009G20KT 040V130 9999 FEW017 SCT025
                        BKN070 04/01 Q1010=
201202100815 METAR LIRA 100815Z 02005KT 9999 FEW017 SCT025 04/00 Q1010=
201202100745 METAR LIRA 100745Z 04005G19KT 320V050 9999 FEW017 SCT025
                        04/00 Q1010=
201202100715 METAR LIRA 100715Z 05004KT 010V120 8000 FEW017 SCT025 04/01
                        Q1011=
201202100645 METAR LIRA 100645Z 06008KT 8000 FEW017 SCT025 03/01 Q1010=
201202100615 METAR LIRA 100615Z 08010KT 8000 FEW017 SCT025 03/01 Q1010=
201202100545 METAR LIRA 100545Z 08010KT 050V110 8000 FEW017 SCT025 03/01
                        Q1010=
201202100515 METAR LIRA 100515Z 09011KT 060V120 8000 FEW017 SCT025 03/01
                        Q1011=
201202100445 METAR LIRA 100445Z 09008KT 8000 FEW017 SCT025 04/01 Q1011=
201202100415 METAR LIRA 100415Z 08007KT 8000 FEW018 SCT025 04/01 Q1011=
201202100345 METAR LIRA 100345Z 06006KT 9000 FEW018 SCT070 04/01 Q1012=
201202100315 METAR LIRA 100315Z 04002KT 8000 FEW017 SCT025 04/01 Q1012=
201202100245 METAR LIRA 100245Z 06002KT 8000 FEW017 SCT025 04/02 Q1012=
201202100215 METAR LIRA 100215Z 00000KT 8000 FEW017 SCT025 04/02 Q1013=
201202100145 METAR LIRA 100145Z 07001KT 9000 FEW016 SCT030 BKN070 04/02
                        Q1013=
201202100115 METAR LIRA 100115Z 00000KT 9000 FEW016 SCT030 BKN070 04/03
                        Q1014=
201202100045 METAR LIRA 100045Z 03002KT 9000 FEW016 SCT030 BKN070 04/03
                        Q1014=
201202100015 METAR LIRA 100015Z 00000KT 9000 FEW016 SCT030 BKN070 05/03
                        Q1014=
201202092350 METAR LIRA 100045Z 03002KT 9000 FEW016 SCT030 BKN070 04/03
                        Q1014=
201202092345 METAR LIRA 092345Z 00000KT 9999 FEW016 SCT030 BKN070 05/03
                        Q1014=
201202092315 METAR LIRA 092315Z 16001KT 9999 FEW017 SCT030 05/03 Q1014=
201202092245 METAR LIRA 092245Z 00000KT 9999 FEW017 BKN030 05/03 Q1014=
201202092215 METAR LIRA 092215Z 12001KT 9999 FEW017 BKN030 04/03 Q1014=
201202092145 METAR LIRA 092145Z 15002KT 9999 FEW017 SCT030 04/02 Q1014=
201202092115 METAR LIRA 092115Z 14003KT 9999 FEW017 SCT030 04/02 Q1014=
201202092045 METAR LIRA 092045Z 14004KT 9999 FEW030 BKN070 03/02 Q1014=
201202092015 METAR LIRA 092015Z 14004KT 9999 FEW030 SCT070 03/02 Q1015=
201202091945 METAR LIRA 091945Z 13005KT 9999 FEW030 03/02 Q1015=
201202091915 METAR LIRA 091915Z 14004KT 9999 FEW070 03/02 Q1015=
201202091845 METAR LIRA 091845Z 14005KT 9999 FEW030 03/01 Q1015=
201202091815 METAR LIRA 091815Z 16005KT 8000 FEW030 05/02 Q1015=
201202091745 METAR LIRA 091745Z 17006KT 9000 FEW020 06/02 Q1015=
201202091715 METAR LIRA 091715Z 17006KT 8000 FEW015 SCT025 06/02 Q1015=
201202091645 METAR LIRA 091645Z 18005KT 8000 FEW015TCU SCT025 07/02 Q1016=
201202091615 METAR LIRA 091615Z 19005KT 7000 FEW015TCU SCT025 07/01 Q1016=
201202091545 METAR LIRA 091545Z 23006KT 170V250 8000 FEW014 BKN030 08/02
                        Q1016=
201202091515 METAR LIRA 091515Z 20007KT 170V230 9999 FEW014 BKN025 08/01
                        Q1016=
201202091445 METAR LIRA 091445Z 20006KT 180V240 9999 FEW014 BKN025 08/01
                        Q1017=
201202091415 METAR LIRA 091415Z 17005KT 160V220 9999 FEW014 SCT025 08/01
                        Q1017=
201202091345 METAR LIRA 091345Z 19008KT 160V240 9999 FEW014 SCT025 09/01
                        Q1017=
201202091315 METAR LIRA 091315Z 22003KT 9999 FEW014 BKN025 07/M00 Q1017=
201202091245 METAR LIRA 091245Z 20003KT 9999 FEW014 BKN025 08/M00 Q1018=
201202091215 METAR LIRA 091215Z 00000KT 7000 FEW003 SCT020 08/M00 Q1018=
201202091145 METAR LIRA 091145Z 02004KT 7000 FEW003 SCT020 07/M01 Q1018=
201202091115 METAR LIRA 091115Z 02006KT 330V040 7000 FEW003 SCT020 07/M01
                        Q1018=
201202091045 METAR LIRA 091045Z 33005KT 6000 FEW003 07/M01 Q1018=
201202091015 METAR LIRA 091015Z 36007KT 320V040 6000 FEW003 06/M02 Q1018=
201202090945 METAR LIRA 090945Z 35003KT 6000 FEW003 05/M01 Q1018=
201202090915 METAR LIRA 090915Z 01004KT 6000 FEW003 03/M02 Q1018=
201202090845 METAR LIRA 090845Z 02003KT 350V060 6000 FEW003 03/M03 Q1018=
201202090815 METAR LIRA 090815Z 02007KT 330V060 CAVOK 02/M03 Q1018=
201202090745 METAR LIRA 090745Z 02008KT CAVOK 01/M03 Q1018=
201202090715 METAR LIRA 090715Z 03007KT 360V060 CAVOK 00/M03 Q1018=
201202090645 METAR LIRA 090645Z 03006KT 360V060 CAVOK 00/M03 Q1018=
201202090615 METAR LIRA 090615Z 02004KT CAVOK M00/M03 Q1018=
201202090545 METAR LIRA 090545Z 03004KT CAVOK M00/M04 Q1018=
201202090515 METAR LIRA 090515Z 04004KT CAVOK M00/M04 Q1018=
201202090445 METAR LIRA 090445Z 04005KT CAVOK 00/M03 Q1018=
201202090415 METAR LIRA 090415Z 02003KT CAVOK 00/M02 Q1018=
201202090345 METAR LIRA 090345Z 03005KT CAVOK 00/M03 Q1018=
201202090315 METAR LIRA 090315Z 03006KT 340V070 CAVOK 00/M03 Q1018=
201202090245 METAR LIRA 090245Z 03005KT CAVOK 00/M02 Q1018=
201202090215 METAR LIRA 090215Z 03005KT CAVOK 00/M02 Q1018=
201202090145 METAR LIRA 090145Z 02006KT 9999 FEW080 01/M03 Q1018=
201202090115 METAR LIRA 090115Z 02006KT 330V060 9999 SCT080 01/M02 Q1018=
201202090045 METAR LIRA 090045Z 02007KT 9999 SCT080 01/M02 Q1018=
201202090015 METAR LIRA 090015Z 02008KT 9999 SCT080 02/M02 Q1018=
201202082350 METAR LIRA 090045Z 02007KT 9999 SCT080 01/M02 Q1018=
201202082345 METAR LIRA 082345Z 01006KT 9999 BKN080 02/M01 Q1018=
201202082315 METAR LIRA 082315Z 02005KT 350V050 9999 SCT080 02/M01 Q1018=
201202082245 METAR LIRA 082245Z 02006KT 9999 SCT080 02/M01 Q1018=
201202082215 METAR LIRA 082215Z 03040KT 010V090 9999 SCT080 02/M01 Q1017=
201202082145 METAR LIRA 082145Z 02007KT 350V050 9999 SCT080 03/M01 Q1017=
201202082115 METAR LIRA 082115Z 02006KT 360V070 9999 FEW080 03/M01 Q1017=
201202082045 METAR LIRA 082045Z 03007KT 360V080 9999 FEW080 03/M01 Q1017=
201202082015 METAR LIRA 082015Z 01006KT 9999 SCT080 03/M01 Q1017=
201202081945 METAR LIRA 081945Z 02006KT 9999 SCT080 04/M01 Q1017=
201202081915 METAR LIRA 081915Z 01005KT 9999 SCT080 04/M01 Q1016=
201202081845 METAR LIRA 081845Z 02007KT 340V060 9999 SCT080 05/M01 Q1016=
201202081815 METAR LIRA 081815Z 01005KT 320V050 9999 SCT080 05/M01 Q1016=
201202081745 METAR LIRA 081745Z 36005KT 350V050 9999 SCT080 05/M01 Q1015=
201202081715 METAR LIRA 081715Z 01006KT 310V050 9999 SCT080 06/M02 Q1015=
201202081645 METAR LIRA 081645Z 02007KT 330V050 9999 FEW070 07/M02 Q1015=
201202081615 METAR LIRA 081615Z 05006KT 9999 FEW080 08/M01 Q1014=
201202081545 METAR LIRA 081545Z 05006KT 9999 FEW070 08/M01 Q1014=
201202081515 METAR LIRA 081515Z 36007KT 330V030 9999 FEW080 09/M01 Q1014=
201202081445 METAR LIRA 081445Z 36010KT 330V030 9999 FEW070 09/M00 Q1014=
201202081415 METAR LIRA 081415Z 36007KT 330V060 9999 FEW030 SCT060 09/M01
                        Q1014=
201202081345 METAR LIRA 081345Z 35007KT 9999 FEW030 SCT060 09/M00 Q1014=
201202081315 METAR LIRA 081315Z 36008KT 300V060 9999 FEW030 BKN060 09/M00
                        Q1014=
201202081300 METAR LIRA INTER=
201202081245 METAR LIRA 081245Z 36007KT 330V040 9999 FEW030 BKN060 08/M00
                        Q1014=
201202081215 METAR LIRA 081215Z 01008KT 320V040 9999 FEW030 SCT070 08/M00
                        Q1014=
201202081145 METAR LIRA 081145Z 36011KT 330V050 9999 FEW025 SCT070 08/M00
                        Q1014=
201202081115 METAR LIRA 081115Z 36011KT 9999 FEW025 SCT080 08/M01 Q1014=
201202081045 METAR LIRA 081045Z 35009KT 310V020 9999 FEW030 SCT070 07/M01
                        Q1014=
201202081015 METAR LIRA 081015Z 36008KT 330V060 9999 FEW035 SCT070 05/M01
                        Q1014=
201202080945 METAR LIRA 080945Z 01007KT 330V050 9999 FEW035 SCT080 05/M01
                        Q1014=
201202080915 METAR LIRA 080915Z 01006KT 9999 FEW035 SCT080 04/00 Q1014=
201202080845 METAR LIRA 080845Z 03004KT 9999 FEW035 SCT080 04/M00 Q1013=
201202080815 METAR LIRA 080815Z 02003KT 9999 FEW035 BKN070 03/M01 Q1012=
201202080745 METAR LIRA 080745Z 04003KT 9999 FEW035 SCT060 02/M01 Q1012=
201202080715 METAR LIRA 080715Z 02004KT 9999 SCT035 SCT060 02/M01 Q1012=
201202080645 METAR LIRA 080645Z 03004KT 9999 FEW030 SCT070 02/M01 Q1011=
201202080615 METAR LIRA 080615Z 02004KT 9999 BKN020 SCT070 01/M01 Q1011=
201202080545 METAR LIRA 080545Z 01002KT 9999 FEW017 SCT030 01/M01 Q1011=
201202080515 METAR LIRA 080515Z 01004KT 9999 FEW015 SCT030 01/M01 Q1010=
201202080445 METAR LIRA 080445Z 03005KT 9999 FEW015 SCT030 BKN070 01/M02
                        Q1010=
201202080415 METAR LIRA 080415Z 05002KT 9999 FEW015 SCT030 BKN070 01/M01
                        Q1010=
201202080345 METAR LIRA 080345Z 02004KT 8000 FEW015 SCT030 BKN070 01/M02
                        Q1009=
201202080315 METAR LIRA 080315Z 01004KT 8000 FEW015 SCT030 BKN070 01/M02
                        Q1009=
201202080245 METAR LIRA 080245Z 02003KT 8000 FEW015 SCT030 BKN070 01/M02
                        Q1009=
201202080215 METAR LIRA 080215Z 01003KT 8000 FEW015 SCT030 BKN070 01/M02
                        Q1009=
201202080145 METAR LIRA 080145Z 04004KT 8000 FEW015 SCT030 BKN070 01/M02
                        Q1008=
201202080115 METAR LIRA 080115Z 03004KT 8000 FEW015 SCT030 BKN070 01/M02
                        Q1008=
201202080045 METAR LIRA 080045Z 02003KT 8000 FEW015 SCT030 BKN070 01/M02
                        Q1008=
201202080015 METAR LIRA 080015Z 01003KT 8000 FEW015 SCT030 BKN070 01/M02
                        Q1008=
201202072350 METAR LIRA 080045Z 02003KT 8000 FEW015 SCT030 BKN070 01/M02
                        Q1008=
201202072345 METAR LIRA 072345Z 03003KT 8000 FEW015 SCT030 BKN070 02/M01
                        Q1008=
201202072315 METAR LIRA 072315Z 02002KT 8000 FEW015 SCT030 BKN070 02/M01
                        Q1008=
201202072245 METAR LIRA 072245Z 36004KT 8000 FEW015 SCT030 BKN070 02/M01
                        Q1007=
201202072215 METAR LIRA 072215Z 36002KT 8000 SCT030 BKN070 02/M01 Q1007=
201202072145 METAR LIRA 072145Z 02002KT 8000 SCT030 BKN070 02/M01 Q1006=
201202072115 METAR LIRA 072115Z 03002KT 8000 SCT030 BKN070 02/M01 Q1006=
201202072045 METAR LIRA 072045Z 03001KT 8000 SCT030 BKN070 02/M01 Q1006=
201202072015 METAR LIRA 072015Z 35004KT 8000 SCT030 BKN070 02/M01 Q1005=
201202071945 METAR LIRA 071945Z 35004KT 8000 SCT030 BKN070 02/M00 Q1005=
201202071915 METAR LIRA 071915Z 05004KT 8000 SCT030 BKN070 03/M00 Q1004=
201202071845 METAR LIRA 071845Z 03006KT 8000 SCT030 BKN070 03/M01 Q1004=
201202071815 METAR LIRA 071815Z 01004KT 8000 SCT030 BKN070 03/M00 Q1004=
201202071745 METAR LIRA 071745Z 04006KT 8000 SCT030 BKN070 03/M00 Q1004=
201202071715 METAR LIRA 071715Z 05004KT 8000 SCT030 BKN080 03/00 Q1003=
201202071645 METAR LIRA 071645Z 06004KT 9999 SCT030 BKN080 04/00 Q1002=
201202071615 METAR LIRA 071615Z 04006KT 9999 SCT030 BKN080 04/M01 Q1002=
201202071545 METAR LIRA 071545Z 01003KT 9999 SCT030 BKN080 04/M02 Q1002=
201202071515 METAR LIRA 071515Z 36002KT 9999 FEW030 BKN080 04/M02 Q1002=
201202071445 METAR LIRA 071445Z 07005KT 9999 FEW030 BKN080 04/M02 Q1001=
201202071415 METAR LIRA 071415Z 04002KT 9999 FEW030 BKN080 04/M02 Q1001=
201202071345 METAR LIRA 071345Z 04003KT 9999 SCT030 BKN080 04/M03 Q1001=
201202071315 METAR LIRA 071315Z 03004KT 9999 SCT030 BKN080 04/M02 Q1001=
201202071245 METAR LIRA 071245Z 02006KT 010V070 9999 FEW030 BKN080 03/M03
                        Q1001=
201202071215 METAR LIRA 071215Z 02005KT 310V050 9999 FEW030 BKN080 03/M03
                        Q1001=
201202071145 METAR LIRA 071145Z 01006KT 340V060 9999 FEW030 BKN080 03/M03
                        Q1001=
201202071115 METAR LIRA 071115Z 01007KT 330V050 9999 FEW030 BKN070 03/M04
                        Q1001=
201202071045 METAR LIRA 071045Z 03007KT 350V060 9999 FEW030 BKN070 02/M04
                        Q1001=
201202071015 METAR LIRA 071015Z 02006KT 360V120 9999 FEW030 BKN080 02/M03
                        Q1000=
201202070945 METAR LIRA 070945Z 36008KT 330V030 9999 FEW030 BKN080 01/M03
                        Q1000=
201202070915 METAR LIRA 070915Z 01006KT 330V040 9999 FEW030 BKN080 00/M04
                        Q1000=
201202070845 METAR LIRA 070845Z 07006KT 9999 FEW030 BKN080 00/M04 Q1000=
201202070815 METAR LIRA 070815Z 03005KT 360V080 9999 FEW030 BKN080 00/M03
                        Q1000=
201202070745 METAR LIRA 070745Z 03005KT 9999 FEW030 BKN080 M01/M04 Q1000=
201202070715 METAR LIRA 070715Z 05005KT 9999 FEW030 BKN080 M01/M04 Q1000=
201202070645 METAR LIRA 070645Z 04007KT 360V070 9999 FEW030 BKN070 M01/M04
                        Q1000=
201202070615 METAR LIRA 070615Z 04007KT 360V070 9999 FEW030 SCT070 M01/M04
                        Q1000=
201202070545 METAR LIRA 070545Z 03007KT 360V070 9999 FEW030 SCT070 M01/M05
                        Q1000=
201202070515 METAR LIRA 070515Z 03007KT 350V080 9999 FEW030 SCT070 M01/M05
                        Q1000=
201202070445 METAR LIRA 070445Z 03006KT 9999 FEW030 SCT070 M01/M05 Q1000=
201202070415 METAR LIRA 070415Z 04005KT 020V080 9999 FEW035 SCT070 M02/M05
                        Q1000=
201202070345 METAR LIRA 070345Z 03005KT 9999 FEW035 SCT070 M02/M05 Q1000=
201202070315 METAR LIRA 070315Z 05007KT 9999 FEW035 SCT070 M01/M05 Q1001=
201202070245 METAR LIRA 070245Z 05006KT 020V090 9999 FEW035 SCT070 M02/M05
                        Q1001=
201202070215 METAR LIRA 070215Z 06006KT 9999 FEW035 SCT070 M02/M05 Q1001=
201202070145 METAR LIRA 070145Z 04004KT 9999 FEW035 SCT070 M02/M05 Q1001=
201202070115 METAR LIRA 070115Z 04004KT 9999 SCT070 M02/M05 Q1002=
201202070045 METAR LIRA 070045Z 05005KT 010V090 9999 FEW070 M02/M05 Q1002=
201202070015 METAR LIRA 070015Z 04006KT 010V070 9999 FEW070 M02/M05 Q1002=
201202062350 METAR LIRA 070045Z 05005KT 010V090 9999 FEW070 M02/M05 Q1002=
201202062345 METAR LIRA 062345Z 04004KT 9999 FEW070 M02/M05 Q1002=
201202062315 METAR LIRA 062315Z 03006KT 350V060 9999 FEW070 SCT200 M02/M05
                        Q1002=
201202062245 METAR LIRA 062245Z 03006KT 010V070 9999 FEW070 SCT200 M02/M05
                        Q1002=
201202062215 METAR LIRA 062215Z 03006KT 350V080 CAVOK M01/M05 Q1003=
201202062145 METAR LIRA 062145Z 03007KT 350V060 CAVOK M01/M05 Q1003=
201202062115 METAR LIRA 062115Z 02008KT 330V050 CAVOK M01/M05 Q1003=
201202062045 METAR LIRA 062045Z 04009KT 010V080 CAVOK M01/M05 Q1003=
201202062015 METAR LIRA 062015Z 02007KT 340V050 CAVOK M01/M05 Q1003=
201202061945 METAR LIRA 061945Z 02009KT 340V050 CAVOK M00/M05 Q1004=
201202061915 METAR LIRA 061915Z 02008KT 340V060 CAVOK M00/M06 Q1004=
201202061845 METAR LIRA 061845Z 02005KT 340V060 9999 SCT070 00/M05 Q1004=
201202061815 METAR LIRA 061815Z 03006KT 360V060 9999 SCT070 00/M05 Q1004=
201202061745 METAR LIRA 061745Z 04006KT 340V050 9999 SCT070 01/M05 Q1004=
201202061715 METAR LIRA 061715Z 01008KT 340V050 9999 SCT070 01/M05 Q1004=
201202061645 METAR LIRA 061645Z 01006KT 300V060 9999 FEW030 SCT070 01/M05
                        Q1004=
201202061615 METAR LIRA 061615Z 34010KT 320V050 9999 FEW030 02/M05 Q1004=
201202061545 METAR LIRA 061545Z 34010KT 310V020 9999 FEW030 03/M04 Q1005=
201202061515 METAR LIRA 061515Z 34009KT 290V020 9999 FEW030 03/M04 Q1005=
201202061445 METAR LIRA 061445Z 33011KT 9999 FEW030 03/M04 Q1006=
201202061415 METAR LIRA 061415Z 34011KT 9999 FEW030 03/M04 Q1006=
201202061345 METAR LIRA 061345Z 35010G20KT 280V030 9999 FEW030 SCT070
                        03/M04 Q1006=
201202061315 METAR LIRA 061315Z 35009KT 9999 FEW030 03/M04 Q1007=
201202061245 METAR LIRA 061245Z 34009KT 310V020 9999 FEW030 03/M04 Q1007=
201202061215 METAR LIRA 061215Z 34010KT 300V010 9999 FEW030 SCT070 03/M04
                        Q1008=
201202061145 METAR LIRA 061145Z 36008KT 310V050 9999 FEW030 SCT070 03/M04
                        Q1008=
201202061115 METAR LIRA 061115Z 01009KT 330V070 9999 FEW030 SCT070 03/M03
                        Q1008=
201202061045 METAR LIRA 061045Z 01009KT 330V030 9999 FEW030 SCT070 02/M04
                        Q1008=
201202061015 METAR LIRA 061015Z 36010KT 9999 FEW018 02/M04 Q1009=
201202060945 METAR LIRA 060945Z 36008KT 9999 FEW018 SCT030 01/M04 Q1010=
201202060915 METAR LIRA 060915Z 36009KT 310V040 9999 FEW015 SCT030 M00/M04
                        Q1010=
201202060845 METAR LIRA 060845Z 01007KT 340V050 9999 FEW015 BKN030 M00/M04
                        Q1010=
201202060815 METAR LIRA 060815Z 02006KT 330V040 9999 FEW015 BKN030 M01/M04
                        Q1010=
201202060745 METAR LIRA 060745Z 01006KT 350V060 9999 FEW018 BKN030 M00/M03
                        Q1010=
201202060715 METAR LIRA 060715Z 01005KT 9999 FEW015 BKN030 M01/M04 Q1010=
201202060645 METAR LIRA 060645Z 03006KT 9999 FEW015 BKN026 M01/M03 Q1010=
201202060615 METAR LIRA 060615Z 03006KT 350V060 9999 FEW015 BKN026 M01/M03
                        Q1010=
201202060545 METAR LIRA 060545Z 03005KT 9999 FEW015 BKN026 M01/M03 Q1011=
201202060515 METAR LIRA 060515Z 04006KT 9999 FEW015 BKN026 M01/M03 Q1011=
201202060445 METAR LIRA 060445Z 04005KT 360V060 8000 FEW014 BKN026 M01/M03
                        Q1011=
201202060415 METAR LIRA 060415Z 02005KT 8000 FEW014 BKN026 M01/M03 Q1011=
201202060345 METAR LIRA 060345Z 04006KT 8000 SCT014 BKN026 M01/M02 Q1012=
201202060315 METAR LIRA 060315Z 03005KT 8000 SCT014 BKN026 M01/M02 Q1012=
201202060245 METAR LIRA 060245Z 03004KT 8000 SCT014 BKN026 M01/M02 Q1012=
201202060215 METAR LIRA 060215Z 04007KT 8000 SCT014 BKN026 M01/M02 Q1012=
201202060145 METAR LIRA 060145Z 04006KT 010V080 8000 SCT014 BKN026 M01/M02
                        Q1013=
201202060115 METAR LIRA 060115Z 03005KT 8000 SCT014 BKN026 M01/M02 Q1013=
201202060045 METAR LIRA 060045Z 05008KT 8000 SCT014 BKN026 M01/M02 Q1013=
201202060015 METAR LIRA 060015Z 04003KT 8000 SCT014 BKN033 M00/M01 Q1014=
201202052350 METAR LIRA 060045Z 05008KT 8000 SCT014 BKN026 M01/M02 Q1013=
201202052345 METAR LIRA 052345Z 04004KT 7000 SCT014 BKN040 M01/M02 Q1014=
201202052315 METAR LIRA 052315Z 02003KT 6000 SCT014 BKN040 M01/M03 Q1014=
201202052245 METAR LIRA 052245Z 04004KT 7000 FEW014 SCT020 BKN040 M01/M02
                        Q1014=
201202052215 METAR LIRA 052215Z 04002KT 6000 FEW014 SCT020 M02/M03 Q1014=
201202052145 METAR LIRA 052145Z 02003KT 6000 FEW014 M00/M01 Q1015=
201202052115 METAR LIRA 052115Z 03004KT 4500 BR FEW004 SCT060 00/M00 Q1015=
201202052045 METAR LIRA 052045Z 03004KT 4500 BR FEW004 SCT060 00/M01 Q1015=
201202052015 METAR LIRA 052015Z 02005KT 7000 FEW014 00/M01 Q1015=
201202051945 METAR LIRA 051945Z 05005KT 020V080 7000 FEW014 00/M01 Q1015=
201202051915 METAR LIRA 051915Z 04003KT 7000 FEW018 SCT060 00/M01 Q1015=
201202051845 METAR LIRA 051845Z 05002KT 7000 FEW018 SCT060 00/M00 Q1015=
201202051815 METAR LIRA 051815Z 05003KT 7000 FEW018 SCT060 01/M01 Q1015=
201202051745 METAR LIRA 051745Z 04002KT 7000 FEW018 SCT060 01/M01 Q1015=
201202051715 METAR LIRA 051715Z 03002KT 7000 FEW018 SCT023 BKN060 01/M01
                        Q1015=
201202051645 METAR LIRA 051645Z 02003KT 7000 FEW018 SCT023 BKN060 01/M01
                        Q1014=
201202051615 METAR LIRA 051615Z 01003KT 7000 FEW018 SCT025 02/M00 Q1015=
201202051545 METAR LIRA 051545Z 02005KT 350V060 7000 FEW013 SCT025 BKN060
                        02/M00 Q1015=
201202051515 METAR LIRA 051515Z 04006KT 7000 FEW013 BKN024 02/M00 Q1015=
201202051445 METAR LIRA 051445Z 03006KT 350V060 7000 FEW013 BKN024 02/M00
                        Q1015=
201202051415 METAR LIRA 051415Z 04007KT 6000 FEW003 SCT022 BKN060 02/M00
                        Q1015=
201202051345 METAR LIRA 051345Z 03006KT 350V050 6000 FEW003 SCT022 BKN060
                        02/M00 Q1015=
201202051315 METAR LIRA 051315Z 03006KT 5000 BR FEW003 SCT022 BKN060 01/M01
                        Q1016=
201202051245 METAR LIRA 051245Z 04007KT 010V080 5000 BR FEW003 BKN022
                        01/M01 Q1016=
201202051215 METAR LIRA 051215Z 04006KT 5000 BR FEW003 BKN022 01/M01 Q1017=
201202051145 METAR LIRA 051145Z 02005KT 5000 BR FEW003 SCT011 01/M01 Q1017=
201202051115 METAR LIRA 051115Z 02006KT 5000 BR FEW003 SCT013 01/M01 Q1017=
201202051045 METAR LIRA 051045Z 35006KT 320V020 7000 FEW003 SCT025 00/M01
                        Q1017=
201202051015 METAR LIRA 051015Z 36006KT 320V030 7000 FEW003 SCT025 M00/M02
                        Q1017=
201202050945 METAR LIRA 050945Z 02006KT 7000 FEW003 SCT025 M01/M03 Q1018=
201202050915 METAR LIRA 050915Z 01004KT 7000 R15/1400U FEW003 SCT025 M02/M04
                        Q1017=
201202050845 METAR LIRA 050845Z 03006KT 360V070 9999 FEW003 SCT013 M02/M04
                        Q1017=
201202050815 METAR LIRA 050815Z 03005KT 7000 FEW003 SCT025 M02/M03 Q1017=
201202050745 METAR LIRA 050745Z 04007KT 7000 FEW013 BKN025 M02/M04 Q1017=
201202050715 METAR LIRA 050715Z 03006KT 7000 FEW013 SCT025 M02/M04 Q1018=
201202050645 METAR LIRA 050645Z 04008KT 360V090 8000 SCT013 SCT040 M02/M03
                        Q1018=
201202050615 METAR LIRA 050615Z 03006KT 360V070 6000 -SN FEW003 SCT013
                        BKN060 M03/M03 Q1017=
201202050545 METAR LIRA 050545Z 02006KT 4500 -SN BR FEW003 SCT013 BKN060
                        M03/M04 Q1017=
201202050515 METAR LIRA 050515Z 02006KT 350V070 4500 BR FEW003 SCT013
                        BKN060 M02/M03 Q1017=
201202050500 METAR LIRA INT LOW CLDS MVNG S=
201202050445 METAR LIRA 050445Z 01006KT 4500 BR FEW003 SCT013 BKN060 M02/M04
                        Q1018=
201202050415 METAR LIRA 050415Z 03006KT 6000 FEW003 SCT013 BKN060 M02/M04
                        Q1018=
201202050345 METAR LIRA 050345Z 01006KT 4000 BR SCT003 SCT013 BKN060 M03/M04
                        Q1018=
201202050315 METAR LIRA 050315Z 01005KT 340V040 4000 -SN BR SCT003 SCT013
                        BKN060 M03/M04 Q1018=
201202050245 METAR LIRA 050245Z 04006KT 360V070 3000 -SN BR SCT003 SCT013
                        BKN060 M02/M03 Q1018=
201202050215 METAR LIRA 050215Z 03005KT 4500 BR SCT003 SCT013 BKN060 M02/M03
                        Q1018=
201202050145 METAR LIRA 050145Z 04004KT 4500 BR SCT003 SCT013 M02/M04
                        Q1018=
201202050115 METAR LIRA 050115Z 03005KT 360V060 4500 BR SCT003 SCT013
                        M02/M03 Q1018=
201202050100 METAR LIRA INT LOW CLDS MVNG S=
201202050045 METAR LIRA 050045Z 02005KT 4500 BR SCT003 SCT013 M02/M03
                        Q1018=
201202050015 METAR LIRA 050015Z 01006KT 4500 BR SCT002 SCT013 M02/M03
                        Q1018=
201202042350 METAR LIRA 050045Z 02005KT 4500 BR SCT003 SCT013 M02/M03
                        Q1018=
201202042315 METAR LIRA 042315Z 02005KT 340V050 1200 R15/P1500D BR BKN001
                        SCT013 M03/M03 Q1019=
201202042245 METAR LIRA 042245Z 03005KT 3000 BR SCT002 SCT013 M02/M03
                        Q1018=
201202042215 METAR LIRA 042215Z 04005KT 4000 BR SCT003 M02/M04 Q1018=
201202042145 METAR LIRA 042145Z 02004KT 4000 BR SCT003 M02/M04 Q1018=
201202042115 METAR LIRA 042115Z 02004KT 4500 BR FEW003 SCT015 BKN070 M02/M04
                        Q1018=
201202042045 METAR LIRA 042045Z 36004KT 4500 BR FEW003 SCT015 BKN060 M02/M03
                        Q1018=
201202042015 METAR LIRA 042015Z 02005KT 350V060 4500 BR SCT003 M01/M02
                        Q1018=
201202041945 METAR LIRA 041945Z 03004KT 350V070 4500 BR SCT003 SCT015
                        M01/M03 Q1018=
201202041915 METAR LIRA 041915Z 03005KT 4500 BR SCT003 SCT015 M01/M02
                        Q1017=
201202041845 METAR LIRA 041845Z 02005KT 5000 BR SCT003 M01/M02 Q1017=
201202041815 METAR LIRA 041815Z 36005KT 6000 SCT003 M01/M02 Q1017=
201202041745 METAR LIRA 041745Z 04005KT 010V070 6000 SCT003 M01/M02 Q1017=
201202041715 METAR LIRA 041715Z 04004KT 6000 SCT003 00/M01 Q1016=
201202041645 METAR LIRA 041645Z 01004KT 9999 FEW006 00/M01 Q1016=
201202041615 METAR LIRA 041615Z 04002KT 9999 FEW006 01/M01 Q1016=
201202041545 METAR LIRA 041545Z 03003KT 9999 FEW007 01/M00 Q1015=
201202041515 METAR LIRA 041515Z 06003KT 9999 FEW006 SCT022 01/M00 Q1015=
201202041445 METAR LIRA 041445Z 05001KT 9999 FEW006 SCT020 01/M00 Q1015
                        15//0820=
201202041415 METAR LIRA 041415Z 05002KT 9999 FEW006 BKN020 01/M00 Q1014
                        15//0820=
201202041345 METAR LIRA 041345Z 01003KT 9999 FEW004 SCT019 00/M01 Q1014
                        15//0820=
201202041315 METAR LIRA 041315Z 01004KT 9999 FEW004 SCT018 00/M00 Q1014
                        15//0820=
201202041245 METAR LIRA 041245Z 36004KT 8000 FEW004 BKN015 00/M00 Q1013
                        15//0820=
201202041215 METAR LIRA 041215Z 02004KT 8000 FEW004 BKN015 00/M00 Q1013
                        15//0820=
201202041145 METAR LIRA 041145Z 02003KT 8000 FEW004 BKN015 00/M00 Q1013
                        15//0820=
201202041115 METAR LIRA 041115Z 02003KT 6000 BKN004 SCT015 00/M00 Q1012
                        15//0820=
201202041045 METAR LIRA 041045Z 04003KT 6000 BKN004 SCT015 M00/M01 Q1012
                        15//0820=
201202041015 METAR LIRA 041015Z 03002KT 5000 BR OVC004 M00/M01 Q1012 15//0820=
201202040945 METAR LIRA 040945Z 01001KT 5000 BR OVC004 M01/M01 Q1011 15//0820=
201202040915 METAR LIRA 040915Z 02003KT 5000 BR OVC004 M01/M01 Q1010 15//0820=
201202040845 METAR LIRA 040845Z 01003KT 5000 BR OVC004 M01/M02 Q1010 15//0820=
201202040815 METAR LIRA 040815Z 03003KT 5000 BR OVC004 M01/M02 Q1010 15//0820=
201202040745 METAR LIRA 040745Z 02003KT 4000 BR OVC004 M01/M01 Q1009 15//820=
201202040715 METAR LIRA 040715Z 01002KT 4000 BR OVC004 M01/M01 Q1009=
201202040645 METAR LIRA 040645Z 01004KT 4000 BR BKN004 SCT015 M01/M01
                        Q1008=
201202040615 METAR LIRA 040615Z 02005KT 360V080 2000 -SN BR BKN004 SCT015
                        M01/M01 Q1007=
201202040545 METAR LIRA 040545Z 02004KT 2000 -SN BR BKN004 SCT015 M01/M01
                        Q1007=
201202040515 METAR LIRA 040515Z 02005KT 330V050 2000 -SN BR BKN004 SCT015
                        M01/M01 Q1006=
201202040445 METAR LIRA 040445Z 01005KT 320V030 2000 -SN BR BKN004 SCT015
                        M00/M00 Q1006=
201202040415 METAR LIRA 040415Z 01005KT 360V060 2000 SN BR BKN004 SCT015
                        M00/M01 Q1005=
201202040345 METAR LIRA 040345Z 01006KT 320V040 1600 SN BR BKN004 SCT015
                        M00/M01 Q1005=
201202040315 METAR LIRA 040315Z 01005KT 340V050 1600 SN BR BKN004 SCT015
                        00/M00 Q1004=
201202040245 METAR LIRA 040245Z 36005KT 1200 R15/1400 SN FZFG BKN004 SCT015
                        00/M00 Q1004=
201202040215 METAR LIRA 040215Z 02006KT 350V070 1200 R15/1300 SN FZFG
                        BKN004 SCT015 00/M00 Q1004=
201202040145 METAR LIRA 040145Z 02006KT 2000 SN BR BKN004 SCT015 00/M00
                        Q1004=
201202040115 METAR LIRA 040115Z 01007KT 340V040 3000 SN BR BKN004 SCT015
                        00/M00 Q1004=
201202040045 METAR LIRA 040045Z 02008KT 3000 SN BR SCT004 BKN015 00/M00
                        Q1004=
201202040015 METAR LIRA 040015Z 02008KT 340V060 4000 SN BR SCT006 BKN015
                        00/M00 Q1004=
201202032350 METAR LIRA 040045Z 02008KT 3000 SN BR SCT004 BKN015 00/M00
                        Q1004=
201202032345 METAR LIRA 032345Z 01007G18KT 330V040 4000 -SN BR SCT006
                        BKN015 00/M00 Q1004=
201202032315 METAR LIRA 032315Z 01007KT 340V040 4000 -SNRA BR SCT002 SCT015
                        BKN020 00/M00 Q1004=
201202032245 METAR LIRA 032245Z 01009KT 330V070 6000 -RA SCT002 SCT015
                        BKN020 01/M00 Q1004=
201202032215 METAR LIRA 032215Z 36012KT 320V040 6000 -RA FEW002 SCT015
                        BKN020 01/M00 Q1004=
201202032145 METAR LIRA 032145Z 01011KT 330V060 6000 -RA SCT001 BKN020
                        01/00 Q1004=
201202032115 METAR LIRA 032115Z 01011KT 6000 -RA SCT002 SCT012 BKN025
                        01/00 Q1004=
201202032045 METAR LIRA 032045Z 01010G22KT 6000 -RA SCT004 SCT016 BKN025
                        01/01 Q1004=
201202032015 METAR LIRA 032015Z 01010KT 7000 -RA SCT004 SCT016 BKN025
                        01/00 Q1004=
201202031945 METAR LIRA 031945Z 01010KT 7000 -RA SCT004 SCT016 BKN025
                        01/00 Q1004=
201202031915 METAR LIRA 031915Z 01010KT 330V060 7000 -RA SCT004 SCT016
                        BKN025 01/00 Q1004=
201202031845 METAR LIRA 031845Z 01012KT 330V040 8000 -RA SCT004 SCT016
                        BKN025 02/01 Q1004=
201202031815 METAR LIRA 031815Z 36011KT 8000 SCT004 SCT016 BKN025 01/01
                        Q1004=
201202031745 METAR LIRA 031745Z 01012G22KT 290V060 6000 SCT004 SCT016
                        BKN025 01/01 Q1004=
201202031715 METAR LIRA 031715Z 02011KT 330V070 4000 -RA SCT004 SCT016
                        BKN025 01/01 Q1004=
201202031645 METAR LIRA 031645Z 36013G24KT 310V040 5000 -RA BR SCT004
                        SCT016 BKN025 01/01 Q1004=
201202031615 METAR LIRA 031615Z 36012KT 320V060 4000 -RA BR SCT005 SCT015
                        BKN025 01/01 Q1004=
201202031545 METAR LIRA 031545Z 36011KT 330V030 3500 -RASN BR SCT005 SCT014
                        BKN023 01/01 Q1004=
201202031515 METAR LIRA 031515Z 36013G24KT 320V030 2500 -RASN BR SCT003
                        SCT014 BKN023 01/01 Q1004=
201202031445 METAR LIRA 031445Z 01011KT 340V050 2000 -RASN BR SCT002 SCT014
                        FEW015CB BKN025 01/01 Q1004 RERADZSN=
201202031415 METAR LIRA 031415Z 36012KT 340V040 1900 -RASN BR SCT002 SCT014
                        FEW015CB BKN025 01/01 Q1004 RERADZSN=
201202031345 METAR LIRA 031345Z 01012KT 1600 RASN BR SCT002 SCT014 FEW015CB
                        BKN022 01/01 Q1004=
201202031315 METAR LIRA 031315Z 02012KT 350V070 1500 RASN BR SCT002 SCT014
                        FEW015CB BKN022 01/01 Q1004=
201202031245 METAR LIRA 031245Z 01012G24KT 330V040 1700 -RASN BR SCT002
                        SCT014 FEW015CB BKN023 01/00 Q1004
                        RERADZSN=
201202031215 METAR LIRA 031215Z 01010KT 320V040 2000 RASN BR SCT003 SCT014
                        FEW015CB BKN025 01/01 Q1004=
201202031145 METAR LIRA 031145Z 01010KT 330V050 3000 RA BR SCT004 SCT014
                        BKN025 01/01 Q1005=
201202031115 METAR LIRA 031115Z 36011KT 330V050 4500 -RA BR SCT007 SCT014
                        BKN030 02/01 Q1005=
201202031045 METAR LIRA 031045Z 36012G23KT 320V040 6000 -RA FEW009 SCT015
                        02/01 Q1005=
201202031015 METAR LIRA 031015Z 01012KT 8000 -RA FEW010 SCT016 02/01 Q1005=
201202030945 METAR LIRA 030945Z 01012KT 340V050 6000 -RA FEW012 SCT015
                        02/02 Q1005=
201202030915 METAR LIRA 030915Z 03010G20KT 340V060 7000 -RA FEW008 SCT015
                        03/02 Q1005=
201202030845 METAR LIRA 030845Z 03013KT 6000 -RA FEW008 SCT015 03/03 Q1005=
201202030815 METAR LIRA 030815Z 04016G27KT 350V070 7000 -RA FEW008 SCT015
                        03/03 Q1005 RERA=
201202030745 METAR LIRA 030745Z 03012G25KT 360V060 8000 -RA FEW007 SCT014
                        03/03 Q1005 RERA=
201202030715 METAR LIRA 030715Z 04012KT 6000 RA FEW004 SCT014 BKN030 03/03
                        Q1005=
201202030645 METAR LIRA 030645Z 03010KT 360V080 5000 RA BR FEW004 SCT013
                        BKN025 03/02 Q1005=
201202030615 METAR LIRA 030615Z 02009KT 5000 -RASN BR SCT004 SCT012 02/01
                        Q1005=
201202030545 METAR LIRA 030545Z 01010KT 330V050 5000 -RASN BR SCT004 SCT012
                        02/01 Q1005=
201202030515 METAR LIRA 030515Z 01010KT 320V050 6000 -RASN FEW004 SCT025
                        01/01 Q1006=
201202030445 METAR LIRA 030445Z 01008KT 310V040 4000 -SNRA BR FEW002 SCT010
                        00/M00 Q1006=
201202030415 METAR LIRA 030415Z 01007KT 330V040 3000 -SNRA BR SCT002 00/M00
                        Q1006 RESN=
201202030345 METAR LIRA 030345Z 03007KT 3000 -SN SCT003 00/M00 Q1006 RESN=
201202030315 METAR LIRA 030315Z 03007KT 360V060 3000 SN BR FEW002 SCT010
                        00/M00 Q1006=
201202030245 METAR LIRA 030245Z 04008KT 360V060 3000 SN BR FEW002 SCT010
                        00/M00 Q1007=
201202030215 METAR LIRA 030215Z 02010KT 3000 -SN BR FEW003 SCT013 01/00
                        Q1007=
201202030145 METAR LIRA 030145Z 36012KT 300V060 4000 -SNRA BR FEW003 SCT013
                        01/01 Q1007=
201202030115 METAR LIRA 030115Z 36011KT 320V030 4000 -RA BR FEW003 SCT013
                        02/01 Q1007=
201202030045 METAR LIRA 030045Z 02010KT 360V080 5000 -RA BR FEW003 SCT013
                        02/01 Q1007=
201202030015 METAR LIRA 030015Z 05010KT 5000 -RA BR FEW003 SCT013 02/01
                        Q1007=
201202022345 METAR LIRA 022345Z 04008KT 4000 -RA BR FEW003 SCT013 02/01
                        Q1008=
201202022315 METAR LIRA 022315Z 03008KT 360V080 4000 -RA BR SCT003 SCT013
                        02/01 Q1008=
201202022245 METAR LIRA 022245Z 03008KT 350V060 3000 -RA BR FEW005 SCT020
                        02/02 Q1008=
201202022215 METAR LIRA 022215Z 03008KT 360V070 4000 -RA BR SCT013 SCT023
                        02/02 Q1008=
201202022145 METAR LIRA 022145Z 04009KT 010V080 4000 -RA BR SCT013 SCT023
                        03/02 Q1008=
201202022115 METAR LIRA 022115Z 02007KT 330V050 4000 -DZ BR SCT006 SCT023
                        03/03 Q1008=
201202022045 METAR LIRA 022045Z 01008KT 340V050 4000 -DZ BR SCT006 SCT023
                        03/03 Q1009=
201202022015 METAR LIRA 022015Z 03008KT 360V060 5000 -DZ BR SCT012 SCT024
                        04/03 Q1009=
201202021945 METAR LIRA 021945Z 02007KT 340V050 6000 -DZ SCT015 SCT025
                        04/03 Q1008=
201202021915 METAR LIRA 021915Z 05008KT 010V070 6000 -DZ SCT015 SCT025
                        05/04 Q1008=
201202021845 METAR LIRA 021845Z 02004KT 6000 -DZ SCT015 SCT025 05/04 Q1009=
201202021815 METAR LIRA 021815Z 03005KT 6000 -DZ FEW015 BKN025 05/04 Q1009=
201202021745 METAR LIRA 021745Z 04005KT 6000 -DZ FEW015 BKN025 05/04 Q1009=
201202021715 METAR LIRA 021715Z 05004KT 6000 -DZ FEW015 BKN025 05/04 Q1009=
201202021645 METAR LIRA 021645Z 03006KT 6000 -DZ FEW015 BKN025 05/05 Q1009=
201202021615 METAR LIRA 021615Z 36004KT 6000 -DZ FEW015 BKN025 05/05 Q1009=
201202021545 METAR LIRA 021545Z 32002KT 7000 -DZ FEW015 BKN025 06/05 Q1010=
201202021515 METAR LIRA 021515Z 00000KT 7000 -DZ FEW015 BKN025 06/05 Q1010=
201202021445 METAR LIRA 021445Z 04002KT 7000 -DZ BKN025 SCT070 06/05 Q1010=
201202021415 METAR LIRA 021415Z 12002KT 7000 -DZ BKN025 SCT070 06/04 Q1010=
201202021345 METAR LIRA 021345Z 14005KT 8000 -DZ BKN025 SCT070 06/05 Q1010=
201202021315 METAR LIRA 021315Z 13006KT 100V170 8000 -DZ BKN025 SCT070
                        06/04 Q1010=
201202021245 METAR LIRA 021245Z 13006KT 090V180 9999 -DZ SCT025 BKN080
                        06/04 Q1010=
201202021215 METAR LIRA 021215Z 08005KT 9999 -DZ SCT025 BKN080 06/04 Q1010=
201202021145 METAR LIRA 021145Z 36002KT 9999 SCT025 BKN080 06/04 Q1010=
201202021115 METAR LIRA 021115Z 34002KT 9999 SCT025 BKN080 06/04 Q1010=
201202021045 METAR LIRA 021045Z 34002KT 8000 SCT025 BKN080 05/04 Q1010=
201202021015 METAR LIRA 021015Z 36002KT 8000 SCT025 BKN080 04/04 Q1010=
201202020945 METAR LIRA 020945Z 33001KT 8000 SCT025 BKN080 03/03 Q1010=
201202020915 METAR LIRA 020915Z 33002KT 8000 SCT025 BKN080 03/03 Q1010=
201202020845 METAR LIRA 020845Z 00000KT 8000 SCT025 SCT080 01/01 Q1009=
201202020815 METAR LIRA 020815Z 00000KT 8000 FEW025 BKN080 01/01 Q1009=
201202020745 METAR LIRA 020745Z 00000KT 8000 FEW025 BKN080 00/00 Q1009=
201202020715 METAR LIRA 020715Z 05002KT 8000 FEW025 SCT080 00/00 Q1009=
201202020645 METAR LIRA 020645Z 00000KT 8000 FEW025 SCT080 00/00 Q1008=
201202020615 METAR LIRA 020615Z 04001KT 8000 FEW010 00/00 Q1008=
201202020545 METAR LIRA 020545Z 02001KT 8000 FEW010 00/00 Q1008=
201202020515 METAR LIRA 020515Z 00000KT 8000 FEW010 00/00 Q1008=
201202020445 METAR LIRA 020445Z 04001KT 8000 FEW006 00/M00 Q1008=
201202020415 METAR LIRA 020415Z 00000KT 9000 NSC 00/M00 Q1008=
201202020345 METAR LIRA 020345Z 00000KT 9000 NSC M00/M01 Q1008=
201202020315 METAR LIRA 020315Z 06002KT 8000 NSC M00/M01 Q1008=
201202020245 METAR LIRA 020245Z 06003KT 8000 SCT006 M00/M01 Q1007=
201202020215 METAR LIRA 020215Z 05002KT 9999 4000S FEW006 00/M00 Q1007=
201202020145 METAR LIRA 020145Z 02002KT 9999 FEW006 00/M00 Q1007=
201202020115 METAR LIRA 020115Z 36002KT 9999 FEW013 01/00 Q1007=
201202020045 METAR LIRA 020045Z 01003KT 9999 FEW025 01/01 Q1007=
201202020015 METAR LIRA 020015Z 02004KT 9999 FEW015 SCT023 01/00 Q1007=
201202012345 METAR LIRA 012345Z 03002KT 9999 FEW015 SCT023 01/00 Q1007=
201202012315 METAR LIRA 012315Z 04001KT 9999 FEW015 SCT023 01/00 Q1007=
201202012245 METAR LIRA 012245Z 01001KT 9999 FEW005 SCT020 02/01 Q1007=
201202012215 METAR LIRA 012215Z 01002KT 9999 FEW006 SCT023 02/01 Q1007=
201202012145 METAR LIRA 012145Z 01004KT 9999 FEW006 SCT023 02/01 Q1007=
201202012115 METAR LIRA 012115Z 01004KT 9999 FEW006 SCT023 02/01 Q1006=
201202012045 METAR LIRA 012045Z 34006KT 9999 FEW006 SCT023 03/01 Q1006=
201202012015 METAR LIRA 012015Z 01004KT 9999 FEW006 SCT023 03/02 Q1006=
201202011945 METAR LIRA 011945Z 00000KT 9999 FEW006 03/02 Q1006=
201202011915 METAR LIRA 011915Z 34003KT 9999 FEW006 03/02 Q1005=
201202011845 METAR LIRA 011845Z 03004KT 9999 FEW008 03/02 Q1005=
201202011815 METAR LIRA 011815Z 01003KT 9999 FEW008 SCT015 04/03 Q1005=
201202011745 METAR LIRA 011745Z 34005KT 9999 FEW015 SCT025 05/03 Q1005=
201202011715 METAR LIRA 011715Z 34006KT 300V020 9999 FEW015 SCT025 05/02
                        Q1004=
201202011645 METAR LIRA 011645Z 36008KT 310V030 9999 SCT015 SCT025 05/03
                        Q1003=
201202011615 METAR LIRA 011615Z 34009KT 9999 SCT015 SCT025 05/03 Q1002=
201202011545 METAR LIRA 011545Z 33010KT 9999 SCT015 FEW020CB SCT025 05/03
                        Q1002=
201202011515 METAR LIRA 011515Z 35002KT 9999 SCT015 FEW020CB 05/03 Q1002=
201202011445 METAR LIRA 011445Z 01002KT 9999 -RA SCT015 FEW020CB SCT025
                        05/03 Q1001=
201202011415 METAR LIRA 011415Z 06009KT 010V100 9999 -RA SCT015 FEW020CB
                        SCT025 05/03 Q1001=
201202011345 METAR LIRA 011345Z 05014KT 360V090 9999 SCT015 FEW020CB SCT070
                        05/03 Q1000=
201202011315 METAR LIRA 011315Z 05010KT 9999 SCT015 FEW020CB SCT070 06/03
                        Q1000=
201202011245 METAR LIRA 011245Z 07011KT 9999 SCT015 FEW020CB SCT070 06/03
                        Q1000=
201202011215 METAR LIRA 011215Z 08011KT 050V130 9999 SCT015 FEW020CB SCT025
                        05/04 Q1001=
201202011145 METAR LIRA 011145Z 07007KT 9999 -RA SCT013 FEW018CB SCT022
                        05/04 Q1001=
201202011115 METAR LIRA 011115Z 11007KT 080V160 9999 -RA SCT013 FEW018CB
                        SCT022 05/04 Q1001=
201202011045 METAR LIRA 011045Z 09011KT 8000 -RA SCT013 FEW018CB SCT022
                        05/04 Q1002=
201202011015 METAR LIRA 011015Z 15005KT 8000 -RA SCT013 FEW018CB SCT022
                        05/04 Q1002=
201202010945 METAR LIRA 010945Z 09006KT 8000 -RA SCT013 FEW018CB SCT022
                        06/05 Q1002 RETS=
201202010915 METAR LIRA 010915Z 18002KT 8000 -RA SCT013 FEW018CB SCT022
                        05/04 Q1002 RETS=
201202010845 METAR LIRA 010845Z 19008KT 8000 -TSRA SCT013 FEW018CB SCT022
                        05/04 Q1002=
201202010815 METAR LIRA 010815Z 14011KT 8000 -TSRA SCT013 FEW018CB SCT022
                        05/04 Q1002=
201202010745 METAR LIRA 010745Z 14011KT 9999 4000S -TSRA SCT013 FEW018CB
                        SCT022 05/04 Q1002=
201202010715 METAR LIRA 010715Z 15009KT 7000 -TSRA SCT013 FEW018CB SCT022
                        05/04 Q1002=
201202010645 METAR LIRA 010645Z 15009KT 9999 -RA SCT013 FEW018CB SCT022
                        05/04 Q1003=
201202010615 METAR LIRA 010615Z 03004KT 8000 RA SCT013 BKN025 03/02 Q1003=
201202010545 METAR LIRA 010545Z 01006KT 310V070 8000 RA SCT013 BKN025
                        03/02 Q1003=
201202010515 METAR LIRA 010515Z 17007KT 120V230 5000 RA BR SCT013 BKN025
                        04/03 Q1004=
201202010445 METAR LIRA 010445Z 22012KT 180V250 6000 RA FEW014 BKN025
                        05/05 Q1004=
201202010415 METAR LIRA 010415Z 14013KT 8000 RA FEW014 BKN025 06/06 Q1004=
201202010345 METAR LIRA 010345Z 13014KT 8000 RA FEW014 SCT020 07/06 Q1004=
201202010315 METAR LIRA 010315Z 13018G31KT 6000 RA SCT013 SCT020 07/06
                        Q1006=
201202010245 METAR LIRA 010245Z 13013KT 8000 RA SCT014 SCT020 07/06 Q1007=
201202010215 METAR LIRA 010215Z 15014KT 8000 RA SCT014 SCT020 06/06 Q1008=
201202010145 METAR LIRA 010145Z 14012KT 8000 RA SCT014 SCT020 06/05 Q1009=
201202010115 METAR LIRA 010115Z 15009KT 8000 -RA SCT014 SCT020 07/06 Q1010=
201202010045 METAR LIRA 010045Z 15008KT 8000 -RA SCT014 SCT020 07/06 Q1011=
201202010015 METAR LIRA 010015Z 14010KT 8000 -RA SCT014 SCT020 07/07 Q1012=

</pre>

</body>
</html>
