##########################################################
# Query made at 11/10/2014 14:05:25 UTC
# Time interval: from 01/01/2008 00:00  to 01/31/2008 23:59  UTC
##########################################################

##########################################################
# LIRA, Roma / Ciampino (Italy)
# WMO index: 16239
# Latitude 41-47N. Longitude 012-35E. Altitude 129 m.
##########################################################

###################################
#  METAR/SPECI from LIRA
###################################
200801312345 METAR LIRA 312345Z 16006KT 9999 FEW020 SCT070 07/05 Q1020=
200801312315 METAR LIRA 312315Z 16006KT 9999 FEW020 07/05 Q1021=
200801312245 METAR LIRA 312245Z 15006KT 9999 FEW020 07/05 Q1021=
200801312215 METAR LIRA 312215Z 16005KT 9999 FEW018 SCT070 07/05 Q1021=
200801312145 METAR LIRA 312145Z 16004KT 9999 FEW018 07/04 Q1021=
200801312115 METAR LIRA 312115Z 18004KT 9999 FEW018 SCT070 09/07 Q1020=
200801312045 METAR LIRA 312045Z 18004KT 9999 SCT018 09/07 Q1020=
200801312015 METAR LIRA 312015Z 19004KT 8000 FEW018 SCT070 10/07 Q1020=
200801311945 METAR LIRA 311945Z 19004KT 6000 FEW018 SCT025 10/07 Q1020=
200801311915 METAR LIRA 311915Z 19003KT 6000 SCT018 SCT025 10/07 Q1020=
200801311845 METAR LIRA 311845Z 19002KT 6000 FEW018 SCT070 10/07 Q1020=
200801311815 METAR LIRA 311815Z 20001KT 6000 FEW018 SCT025 11/08 Q1020=
200801311745 METAR LIRA 311745Z 23002KT 6000 SCT015 SCT025 11/08 Q1019=
200801311715 METAR LIRA 311715Z 23001KT 6000 SCT012 SCT025 11/08 Q1019=
200801311645 METAR LIRA 311645Z 24002KT 6000 SCT012 BKN025 11/08 Q1019=
200801311615 METAR LIRA 311615Z 24004KT 8000 SCT012 SCT025 11/08 Q1019=
200801311545 METAR LIRA 311545Z 23001KT 7000 FEW018 BKN025 12/08 Q1019=
200801311515 METAR LIRA 311515Z 23005KT 190V260 8000 FEW018 SCT025 BKN070
                        13/08 Q1019=
200801311445 METAR LIRA 311445Z 22004KT 9999 FEW018 BKN025 13/08 Q1019=
200801311415 METAR LIRA 311415Z 22005KT 9999 FEW018 SCT025 12/08 Q1019=
200801311345 METAR LIRA 311345Z 23004KT 9000 FEW018 SCT025 12/08 Q1019=
200801311315 METAR LIRA 311315Z 18001KT 8000 FEW017 SCT027 12/08 Q1020=
200801311245 METAR LIRA 311245Z 21001KT 8000 FEW018 SCT027 11/08 Q1020=
200801311215 METAR LIRA 311215Z 19004KT 160V240 8000 -DZ FEW017 BKN027
                        11/08 Q1020=
200801311145 METAR LIRA 311145Z 19005KT 160V230 8000 -DZ FEW017 BKN025
                        11/08 Q1021=
200801311115 METAR LIRA 311115Z 18005KT 160V230 8000 -DZ FEW017 BKN025
                        11/07 Q1021=
200801311045 METAR LIRA 311045Z 20006KT 160V240 8000 -DZ FEW017 SCT025
                        11/07 Q1021=
200801311015 METAR LIRA 311015Z 18007KT 140V200 8000 FEW017 SCT025 BKN070
                        12/07 Q1021=
200801310945 METAR LIRA 310945Z 17008KT 9999 FEW017 BKN070 12/07 Q1021=
200801310915 METAR LIRA 310915Z 18009KT 130V200 8000 FEW017 BKN070 11/07
                        Q1021=
200801310845 METAR LIRA 310845Z 16008KT 8000 FEW017 SCT025 BKN070 11/07
                        Q1021=
200801310815 METAR LIRA 310815Z 15009KT 8000 FEW017 SCT025 BKN070 11/07
                        Q1021=
200801310745 METAR LIRA 310745Z 15006KT 8000 FEW017 SCT025 BKN070 10/07
                        Q1021=
200801310715 METAR LIRA 310715Z 15005KT 8000 FEW017 BKN070 09/07 Q1021=
200801310645 METAR LIRA 310645Z 15005KT 8000 FEW017 SCT025 09/07 Q1021=
200801310615 METAR LIRA 310615Z 16005KT 8000 FEW017 SCT025 09/07 Q1021=
200801310545 METAR LIRA 310545Z 18004KT 9999 FEW017 SCT025 10/07 Q1021=
200801310515 METAR LIRA 310515Z 17005KT 9999 FEW017 SCT025 BKN070 10/06
                        Q1021=
200801310445 METAR LIRA 310445Z 20005KT 180V240 9999 FEW018 BKN070 10/07
                        Q1021=
200801310415 METAR LIRA 310415Z 21005KT 190V300 9999 FEW020 BKN070 10/07
                        Q1021=
200801310345 METAR LIRA 310345Z 18004KT 9999 FEW020 BKN070 10/07 Q1021=
200801310315 METAR LIRA 310315Z 17007KT 9999 FEW020 BKN070 09/07 Q1021=
200801310245 METAR LIRA 310245Z 17007KT 9999 FEW020 BKN070 09/06 Q1021=
200801310215 METAR LIRA 310215Z 00000KT 9999 FEW020 BKN070 09/07 Q1022=
200801310145 METAR LIRA 310145Z 00000KT 9999 FEW020 SCT070 09/08 Q1022=
200801310115 METAR LIRA 310115Z 00000KT 9999 SCT020 SCT040 10/06 Q1022=
200801310045 METAR LIRA 310045Z 15002KT 9999 SCT020 SCT070 10/06 Q1022=
200801310015 METAR LIRA 310015Z 16004KT 9999 SCT020 SCT070 09/07 Q1023=
200801302350 METAR LIRA 310045Z 15002KT 9999 SCT020 SCT070 10/06 Q1022=
200801302345 METAR LIRA 302345Z 00000KT 9999 SCT020 SCT070 09/08 Q1023=
200801302315 METAR LIRA 302315Z 15002KT 9999 BKN020 SCT070 09/08 Q1023=
200801302245 METAR LIRA 302245Z 00000KT 9999 SCT020 SCT070 10/08 Q1023=
200801302215 METAR LIRA 302215Z 15002KT 9999 SCT020 SCT070 10/08 Q1023=
200801302145 METAR LIRA 302145Z 14005KT 9999 FEW020 SCT070 08/07 Q1023=
200801302115 METAR LIRA 302115Z 15002KT 9999 FEW020 SCT070 08/07 Q1023=
200801302045 METAR LIRA 302045Z 16005KT 9999 FEW020 10/08 Q1023=
200801302015 METAR LIRA 302015Z 17003KT 9999 SCT020 10/08 Q1024=
200801301945 METAR LIRA 301945Z 18003KT 9999 SCT020 11/09 Q1024=
200801301915 METAR LIRA 301915Z 21002KT 9999 SCT018 SCT025 11/09 Q1023=
200801301845 METAR LIRA 301845Z 21004KT 9999 SCT018 SCT025 11/09 Q1023=
200801301815 METAR LIRA 301815Z 19004KT 9999 SCT018 SCT020 11/09 Q1023=
200801301745 METAR LIRA 301745Z 25003KT 9999 SCT020 SCT025 11/08 Q1023=
200801301715 METAR LIRA 301715Z 20003KT 9999 FEW020 11/08 Q1023=
200801301645 METAR LIRA 301645Z 21003KT 9999 FEW020 12/08 Q1023=
200801301615 METAR LIRA 301615Z 22005KT 9999 FEW020 12/08 Q1023=
200801301545 METAR LIRA 301545Z 20004KT 180V260 9999 FEW020 14/09 Q1023=
200801301515 METAR LIRA 301515Z 23006KT 180V260 9999 FEW020 14/08 Q1023=
200801301445 METAR LIRA 301445Z 21007KT 130V240 9999 FEW020 14/08 Q1023=
200801301415 METAR LIRA 301415Z 21010KT 150V270 9999 FEW018 14/08 Q1023=
200801301345 METAR LIRA 301345Z 19011KT 9999 SCT018 14/07 Q1024=
200801301315 METAR LIRA 301315Z 19007KT 130V230 9999 SCT018 15/08 Q1024=
200801301245 METAR LIRA 301245Z 16006KT 120V210 9999 SCT018 14/07 Q1024=
200801301215 METAR LIRA 301215Z 19006KT 110V240 9999 FEW015 SCT030 14/07
                        Q1025=
200801301145 METAR LIRA 301145Z 17010KT 110V200 9999 FEW015 SCT030 14/08
                        Q1026=
200801301115 METAR LIRA 301115Z 17007KT 140V220 9999 FEW015 BKN030 13/08
                        Q1026=
200801301045 METAR LIRA 301045Z 19007KT 140V220 9999 FEW015 BKN030 13/08
                        Q1026=
200801301015 METAR LIRA 301015Z 17007KT 9999 FEW015 BKN030 13/08 Q1026=
200801300945 METAR LIRA 300945Z 19004KT 9999 FEW017 SCT030 13/08 Q1026=
200801300915 METAR LIRA 300915Z 18008KT 140V220 9999 FEW017 SCT030 11/07
                        Q1026=
200801300845 METAR LIRA 300845Z 16007KT 110V210 9999 FEW017 SCT030 11/08
                        Q1026=
200801300815 METAR LIRA 300815Z 13004KT 9999 FEW017 SCT030 10/08 Q1026=
200801300745 METAR LIRA 300745Z 14005KT 9999 FEW017 SCT025 07/05 Q1026=
200801300715 METAR LIRA 300715Z 19001KT 9999 FEW017 BKN025 07/05 Q1026=
200801300645 METAR LIRA 300645Z 04001KT 9999 FEW017 BKN025 07/05 Q1026=
200801300615 METAR LIRA 300615Z 30002KT 9999 FEW017 BKN025 07/05 Q1026=
200801300545 METAR LIRA 300545Z 11001KT 8000 FEW017 SCT025 07/06 Q1026=
200801300515 METAR LIRA 300515Z 13001KT 8000 FEW017 SCT025 07/05 Q1026=
200801300445 METAR LIRA 300445Z 00000KT 8000 FEW017 SCT025 07/06 Q1026=
200801300415 METAR LIRA 300415Z 13005KT 8000 FEW017 SCT025 07/06 Q1026=
200801300345 METAR LIRA 300345Z 00000KT 8000 FEW017 SCT025 08/07 Q1026=
200801300315 METAR LIRA 300315Z 00000KT 8000 SCT025 07/07 Q1026=
200801300245 METAR LIRA 300245Z 14003KT 9999 SCT025 07/06 Q1027=
200801300215 METAR LIRA 300215Z 12002KT 9999 SCT025 07/06 Q1027=
200801300145 METAR LIRA 300145Z 13002KT 9999 SCT025 07/05 Q1027=
200801300115 METAR LIRA 300115Z 13002KT 9999 SCT025 06/04 Q1027=
200801300045 METAR LIRA 300045Z 00000KT 9999 FEW025 06/04 Q1027=
200801300015 METAR LIRA 300015Z 13002KT 9999 FEW025 06/04 Q1027=
200801292350 METAR LIRA 300045Z 00000KT 9999 FEW025 06/04 Q1027=
200801292345 METAR LIRA 292345Z 12002KT 9999 FEW025 06/04 Q1027=
200801292315 METAR LIRA 292315Z 00000KT 9999 FEW025 06/04 Q1027=
200801292245 METAR LIRA 292245Z 00000KT 9999 FEW025 07/06 Q1027=
200801292215 METAR LIRA 292215Z 12002KT 9999 FEW025 08/07 Q1027=
200801292145 METAR LIRA 292145Z 12003KT CAVOK 09/07 Q1027=
200801292115 METAR LIRA 292115Z 12003KT CAVOK 09/07 Q1027=
200801292045 METAR LIRA 292045Z 12004KT CAVOK 09/07 Q1027=
200801292015 METAR LIRA 292015Z 12004KT 9999 FEW015 10/08 Q1027=
200801291945 METAR LIRA 291945Z 16004KT 9999 FEW015 10/08 Q1027=
200801291915 METAR LIRA 291915Z 16007KT 9999 FEW015 09/07 Q1027=
200801291845 METAR LIRA 291845Z 15007KT CAVOK 10/07 Q1027=
200801291815 METAR LIRA 291815Z 17006KT CAVOK 11/08 Q1027=
200801291745 METAR LIRA 291745Z 18005KT CAVOK 11/08 Q1027=
200801291715 METAR LIRA 291715Z 21005KT CAVOK 11/07 Q1027=
200801291645 METAR LIRA 291645Z 20006KT CAVOK 13/07 Q1026=
200801291615 METAR LIRA 291615Z 20005KT CAVOK 13/06 Q1026=
200801291545 METAR LIRA 291545Z 21004KT 180V270 CAVOK 15/07 Q1027=
200801291515 METAR LIRA 291515Z 23004KT CAVOK 15/07 Q1027=
200801291445 METAR LIRA 291445Z 20001KT CAVOK 15/07 Q1027=
200801291415 METAR LIRA 291415Z 00000KT CAVOK 15/07 Q1027=
200801291345 METAR LIRA 291345Z 23003KT CAVOK 16/08 Q1027=
200801291315 METAR LIRA 291315Z 00000KT CAVOK 16/08 Q1027=
200801291245 METAR LIRA 291245Z 00000KT CAVOK 16/08 Q1028=
200801291215 METAR LIRA 291215Z 34001KT CAVOK 15/08 Q1028=
200801291145 METAR LIRA 291145Z 00000KT CAVOK 14/08 Q1028=
200801291115 METAR LIRA 291115Z 34002KT 8000 NSC 14/08 Q1029=
200801291045 METAR LIRA 291045Z 00000KT 8000 NSC 13/07 Q1029=
200801291015 METAR LIRA 291015Z 03001KT 8000 FEW015 12/07 Q1029=
200801290945 METAR LIRA 290945Z 00000KT 8000 FEW015 10/07 Q1029=
200801290915 METAR LIRA 290915Z 00000KT 8000 FEW015 09/06 Q1029=
200801290845 METAR LIRA 290845Z 00000KT 8000 FEW015 07/05 Q1029=
200801290815 METAR LIRA 290815Z 00000KT 8000 FEW015 07/05 Q1029=
200801290745 METAR LIRA 290745Z 00000KT 9999 FEW080 03/02 Q1029=
200801290715 METAR LIRA 290715Z 00000KT CAVOK 03/02 Q1029=
200801290645 METAR LIRA 290645Z 00000KT CAVOK 03/02 Q1028=
200801290615 METAR LIRA 290615Z 00000KT CAVOK 03/02 Q1028=
200801290545 METAR LIRA 290545Z 00000KT CAVOK 04/02 Q1028=
200801290515 METAR LIRA 290515Z 00000KT 8000 SKC 04/02 Q1028=
200801290445 METAR LIRA 290445Z 00000KT 8000 SKC 04/02 Q1028=
200801290415 METAR LIRA 290415Z 00000KT 8000 SKC 04/02 Q1028=
200801290345 METAR LIRA 290345Z 00000KT 8000 SKC 04/01 Q1028=
200801290315 METAR LIRA 290315Z 00000KT 8000 SKC 04/01 Q1028=
200801290245 METAR LIRA 290245Z 00000KT 8000 SKC 04/01 Q1028=
200801290215 METAR LIRA 290215Z 00000KT 8000 SKC 05/02 Q1028=
200801290145 METAR LIRA 290145Z 00000KT 8000 SKC 05/01 Q1028=
200801290115 METAR LIRA 290115Z 00000KT 8000 SKC 05/01 Q1028=
200801290045 METAR LIRA 290045Z 17004KT 8000 SKC 06/01 Q1028=
200801290015 METAR LIRA 290015Z 17003KT 8000 SKC 06/02 Q1028=
200801282345 METAR LIRA 282345Z 00000KT 8000 SKC 06/01 Q1028=
200801282315 METAR LIRA 282315Z 13003KT 8000 SKC 06/01 Q1028=
200801282245 METAR LIRA 282245Z 00000KT 8000 SKC 05/01 Q1028=
200801282215 METAR LIRA 282215Z 00000KT 8000 SKC 05/01 Q1028=
200801282145 METAR LIRA 282145Z 12003KT 8000 SKC 07/05 Q1028=
200801282115 METAR LIRA 282115Z 09002KT 8000 SKC 08/06 Q1028=
200801282045 METAR LIRA 282045Z 12002KT 8000 SKC 08/06 Q1028=
200801282015 METAR LIRA 282015Z 00000KT 7000 SKC 08/07 Q1028=
200801281945 METAR LIRA 281945Z 00000KT 7000 SKC 08/07 Q1027=
200801281915 METAR LIRA 281915Z 00000KT 7000 SKC 09/07 Q1027=
200801281845 METAR LIRA 281845Z 00000KT 7000 FEW010 09/08 Q1027=
200801281815 METAR LIRA 281815Z 00000KT 7000 FEW010 09/08 Q1027=
200801281745 METAR LIRA 281745Z 25001KT 8000 SKC 09/07 Q1027=
200801281715 METAR LIRA 281715Z 23001KT 8000 FEW080 12/08 Q1026=
200801281645 METAR LIRA 281645Z 20002KT 180V240 8000 FEW080 13/09 Q1026=
200801281615 METAR LIRA 281615Z 21006KT 8000 FEW080 14/08 Q1026=
200801281545 METAR LIRA 281545Z 00000KT CAVOK 15/03 Q1025=
200801281515 METAR LIRA 281515Z 24003KT CAVOK 15/04 Q1025=
200801281445 METAR LIRA 281445Z 23007KT CAVOK 16/05 Q1025=
200801281415 METAR LIRA 281415Z 24004KT CAVOK 17/08 Q1025=
200801281345 METAR LIRA 281345Z 18005KT CAVOK 16/07 Q1025=
200801281315 METAR LIRA 281315Z 33003KT 8000 NSC 15/06 Q1025=
200801281245 METAR LIRA 281245Z 00000KT 8000 NSC 15/06 Q1026=
200801281215 METAR LIRA 281215Z 00000KT 8000 NSC 14/06 Q1026=
200801281145 METAR LIRA 281145Z 00000KT 7000 NSC 13/05 Q1026=
200801281115 METAR LIRA 281115Z 00000KT 7000 NSC 11/05 Q1026=
200801281045 METAR LIRA 281045Z 30001KT 7000 NSC 11/06 Q1025=
200801281015 METAR LIRA 281015Z 05002KT 7000 NSC 10/06 Q1025=
200801280945 METAR LIRA 280945Z 00000KT 7000 NSC 08/04 Q1025=
200801280915 METAR LIRA 280915Z 02002KT 7000 NSC 07/03 Q1025=
200801280845 METAR LIRA 280845Z 04004KT 6000 NSC 06/03 Q1025=
200801280815 METAR LIRA 280815Z 02002KT 8000 NSC 04/02 Q1025=
200801280745 METAR LIRA 280745Z 00000KT 8000 NSC 03/01 Q1025=
200801280715 METAR LIRA 280715Z 03004KT 8000 NSC 03/01 Q1024=
200801280645 METAR LIRA 280645Z 04002KT 8000 FEW080 BKN200 03/01 Q1024=
200801280615 METAR LIRA 280615Z 12002KT 8000 FEW080 BKN200 04/02 Q1024=
200801280545 METAR LIRA 280545Z 06005KT 8000 NSC 05/02 Q1023=
200801280515 METAR LIRA 280515Z 01002KT 8000 NSC 05/02 Q1023=
200801280445 METAR LIRA 280445Z 06001KT 8000 NSC 05/02 Q1023=
200801280415 METAR LIRA 280415Z 04004KT 8000 FEW080 06/03 Q1023=
200801280345 METAR LIRA 280345Z 05005KT 8000 SCT080 05/02 Q1023=
200801280315 METAR LIRA 280315Z 05004KT 8000 SCT070 06/03 Q1023=
200801280245 METAR LIRA 280245Z 05004KT 8000 SCT070 06/03 Q1023=
200801280215 METAR LIRA 280215Z 04005KT 8000 SCT080 05/03 Q1023=
200801280145 METAR LIRA 280145Z 05006KT 8000 SCT080 04/02 Q1023=
200801280115 METAR LIRA 280115Z 05006KT 8000 SCT080 04/01 Q1023=
200801280045 METAR LIRA 280045Z 08003KT 8000 SCT080 04/01 Q1023=
200801280015 METAR LIRA 280015Z 35002KT 8000 BKN080 04/01 Q1023=
200801272345 METAR LIRA 272345Z 08002KT 8000 BKN080 04/01 Q1023=
200801272315 METAR LIRA 272315Z 04002KT 8000 FEW010 SCT070 04/02 Q1024=
200801272245 METAR LIRA 272245Z 09002KT 8000 FEW010 SCT070 04/02 Q1024=
200801272215 METAR LIRA 272215Z 04003KT 8000 FEW010 SCT070 04/02 Q1024=
200801272145 METAR LIRA 272145Z 06003KT 8000 FEW010 SCT070 05/03 Q1024=
200801272115 METAR LIRA 272115Z 35003KT 8000 FEW010 SCT070 05/03 Q1024=
200801272045 METAR LIRA 272045Z 06002KT 8000 FEW010 SCT070 06/05 Q1024=
200801272015 METAR LIRA 272015Z 22001KT 8000 SCT070 07/06 Q1025=
200801271945 METAR LIRA 271945Z 02002KT 8000 SCT070 07/06 Q1025=
200801271915 METAR LIRA 271915Z 11002KT 8000 SCT070 07/06 Q1025=
200801271845 METAR LIRA 271845Z 00000KT 8000 SCT070 07/06 Q1025=
200801271815 METAR LIRA 271815Z 13002KT 6000 FEW010 SCT070 07/05 Q1025=
200801271745 METAR LIRA 271745Z 10002KT 6000 FEW010 SCT070 08/05 Q1025=
200801271715 METAR LIRA 271715Z 09002KT 6000 FEW009 SCT200 08/05 Q1025=
200801271645 METAR LIRA 271645Z 11002KT 6000 FEW009 SCT200 08/02 Q1026=
200801271615 METAR LIRA 271615Z 15001KT 7000 FEW009 SCT200 08/03 Q1026=
200801271545 METAR LIRA 271545Z 06001KT 8000 FEW040 SCT200 09/03 Q1027=
200801271515 METAR LIRA 271515Z 35001KT 8000 FEW040 SCT200 09/03 Q1027=
200801271445 METAR LIRA 271445Z 08002KT 8000 FEW040 SCT100 09/02 Q1027=
200801271415 METAR LIRA 271415Z 07002KT 8000 FEW040 SCT100 09/01 Q1027=
200801271345 METAR LIRA 271345Z 01002KT 8000 FEW035 BKN100 09/00 Q1027=
200801271315 METAR LIRA 271315Z 35001KT 8000 FEW035 BKN100 09/00 Q1028=
200801271245 METAR LIRA 271245Z 00000KT 8000 FEW035 SCT100 09/01 Q1028=
200801271215 METAR LIRA 271215Z 10002KT 8000 FEW035 SCT100 08/01 Q1028=
200801271145 METAR LIRA 271145Z 00000KT 8000 FEW035 BKN080 07/M01 Q1028=
200801271115 METAR LIRA 271115Z 01002KT 8000 FEW035 BKN080 06/M01 Q1029=
200801271045 METAR LIRA 271045Z 36003KT 8000 SCT080 BKN200 06/M00 Q1030=
200801271015 METAR LIRA 271015Z 02002KT 8000 NSC 05/M01 Q1030=
200801270945 METAR LIRA 270945Z 04002KT 8000 NSC 04/M01 Q1030=
200801270915 METAR LIRA 270915Z 05003KT 8000 NSC 03/M01 Q1030=
200801270845 METAR LIRA 270845Z 03002KT 8000 NSC 02/M02 Q1030=
200801270815 METAR LIRA 270815Z 03001KT 8000 NSC 01/M02 Q1030=
200801270745 METAR LIRA 270745Z 06004KT 8000 NSC 00/M02 Q1030=
200801270715 METAR LIRA 270715Z 07003KT 8000 NSC 00/M02 Q1030=
200801270645 METAR LIRA 270645Z 06001KT 8000 NSC 00/M02 Q1030=
200801270615 METAR LIRA 270615Z 04002KT CAVOK 00/M01 Q1030=
200801270545 METAR LIRA 270545Z 04003KT CAVOK 00/M01 Q1030=
200801270515 METAR LIRA 270515Z 05004KT CAVOK 00/M01 Q1031=
200801270445 METAR LIRA 270445Z 07004KT CAVOK 00/M01 Q1031=
200801270415 METAR LIRA 270415Z 07003KT 8000 SKC 00/M01 Q1031=
200801270345 METAR LIRA 270345Z 05002KT 8000 SKC 01/M01 Q1031=
200801270315 METAR LIRA 270315Z 06003KT 8000 SKC 01/M01 Q1031=
200801270245 METAR LIRA 270245Z 04004KT 8000 SKC 01/00 Q1031=
200801270215 METAR LIRA 270215Z 04003KT 8000 SKC 02/00 Q1031=
200801270145 METAR LIRA 270145Z 00000KT 8000 SKC 02/01 Q1031=
200801270115 METAR LIRA 270115Z 13002KT 8000 SKC 02/00 Q1032=
200801270045 METAR LIRA 270045Z 02002KT 8000 SKC 02/01 Q1032=
200801270015 METAR LIRA 270015Z VRB01KT 8000 SKC 03/01 Q1032=
200801262345 METAR LIRA 262345Z 08003KT CAVOK 03/M00 Q1032=
200801262315 METAR LIRA 262315Z 02004KT CAVOK 03/M00 Q1032=
200801262245 METAR LIRA 262245Z 11004KT CAVOK 03/M01 Q1032=
200801262215 METAR LIRA 262215Z 14002KT CAVOK 03/M01 Q1032=
200801262145 METAR LIRA 262145Z 16001KT CAVOK 04/01 Q1032=
200801262115 METAR LIRA 262115Z 16004KT CAVOK 05/02 Q1033=
200801262045 METAR LIRA 262045Z 16003KT 8000 SKC 05/03 Q1033=
200801262015 METAR LIRA 262015Z 13002KT 8000 SKC 06/03 Q1033=
200801261945 METAR LIRA 261945Z 11002KT CAVOK 06/03 Q1033=
200801261915 METAR LIRA 261915Z 15002KT CAVOK 06/03 Q1033=
200801261845 METAR LIRA 261845Z 16003KT CAVOK 08/04 Q1033=
200801261815 METAR LIRA 261815Z 18003KT CAVOK 08/04 Q1033=
200801261745 METAR LIRA 261745Z 17004KT CAVOK 08/03 Q1033=
200801261715 METAR LIRA 261715Z 19003KT CAVOK 08/03 Q1032=
200801261645 METAR LIRA 261645Z 24002KT CAVOK 11/01 Q1032=
200801261615 METAR LIRA 261615Z 25003KT CAVOK 12/M02 Q1032=
200801261545 METAR LIRA 261545Z 24002KT CAVOK 14/M01 Q1032=
200801261515 METAR LIRA 261515Z 30003KT CAVOK 15/M01 Q1031=
200801261445 METAR LIRA 261445Z 27002KT CAVOK 14/M01 Q1031=
200801261415 METAR LIRA 261415Z 25005KT CAVOK 14/00 Q1032=
200801261345 METAR LIRA 261345Z 26002KT CAVOK 14/02 Q1032=
200801261315 METAR LIRA 261315Z 00000KT CAVOK 14/03 Q1032=
200801261245 METAR LIRA 261245Z 33002KT CAVOK 13/02 Q1032=
200801261215 METAR LIRA 261215Z 30002KT CAVOK 13/02 Q1032=
200801261145 METAR LIRA 261145Z 35001KT CAVOK 11/03 Q1032=
200801261115 METAR LIRA 261115Z 03002KT CAVOK 11/03 Q1033=
200801261045 METAR LIRA 261045Z 02003KT CAVOK 10/01 Q1033=
200801261015 METAR LIRA 261015Z 04004KT 350V090 CAVOK 09/01 Q1033=
200801260945 METAR LIRA 260945Z 03005KT 320V100 CAVOK 08/01 Q1033=
200801260915 METAR LIRA 260915Z 04007KT 330V080 CAVOK 07/00 Q1032=
200801260845 METAR LIRA 260845Z 03004KT CAVOK 07/00 Q1032=
200801260815 METAR LIRA 260815Z 03005KT 9999 FEW005 06/03 Q1032=
200801260745 METAR LIRA 260745Z 06002KT 9999 FEW005 05/00 Q1032=
200801260715 METAR LIRA 260715Z 06005KT CAVOK 04/00 Q1032=
200801260645 METAR LIRA 260645Z 04005KT CAVOK 04/M00 Q1032=
200801260615 METAR LIRA 260615Z 05006KT CAVOK 03/M01 Q1032=
200801260545 METAR LIRA 260545Z 05007KT CAVOK 03/M01 Q1031=
200801260515 METAR LIRA 260515Z 07007KT CAVOK 02/M01 Q1031=
200801260445 METAR LIRA 260445Z 07006KT 040V100 CAVOK 02/M02 Q1031=
200801260415 METAR LIRA 260415Z 07006KT 9999 FEW080 02/M02 Q1031=
200801260345 METAR LIRA 260345Z 06004KT CAVOK 02/M02 Q1031=
200801260315 METAR LIRA 260315Z 06003KT CAVOK 03/M01 Q1031=
200801260245 METAR LIRA 260245Z 04002KT CAVOK 04/M02 Q1031=
200801260215 METAR LIRA 260215Z 05002KT 9999 FEW080 04/M02 Q1031=
200801260145 METAR LIRA 260145Z 05003KT CAVOK 04/M02 Q1032=
200801260115 METAR LIRA 260115Z 06006KT 9999 FEW080 04/M02 Q1032=
200801260045 METAR LIRA 260045Z 05005KT 9999 SCT070 04/M01 Q1032=
200801260015 METAR LIRA 260015Z 06006KT 9999 SCT070 04/M01 Q1031=
200801252345 METAR LIRA 252345Z 05004KT 9999 SCT070 03/00 Q1031=
200801252315 METAR LIRA 252315Z 07005KT 9999 FEW070 03/00 Q1032=
200801252245 METAR LIRA 252245Z 02004KT 9999 FEW080 04/01 Q1031=
200801252215 METAR LIRA 252215Z 05004KT 010V110 8000 FEW080 04/01 Q1031=
200801252145 METAR LIRA 252145Z 04004KT 8000 NSC 04/M00 Q1031=
200801252115 METAR LIRA 252115Z 11003KT 8000 NSC 05/00 Q1031=
200801252045 METAR LIRA 252045Z 10003KT 8000 NSC 05/01 Q1031=
200801252015 METAR LIRA 252015Z 11003KT 8000 NSC 05/01 Q1031=
200801251945 METAR LIRA 251945Z 12002KT 8000 FEW010 SCT200 05/01 Q1031=
200801251915 METAR LIRA 251915Z 13003KT 8000 FEW010 BKN200 05/01 Q1031=
200801251845 METAR LIRA 251845Z 16002KT 8000 NSC 06/03 Q1031=
200801251815 METAR LIRA 251815Z 14002KT 8000 NSC 06/03 Q1031=
200801251745 METAR LIRA 251745Z 16002KT CAVOK 07/03 Q1030=
200801251715 METAR LIRA 251715Z 21001KT CAVOK 07/03 Q1030=
200801251645 METAR LIRA 251645Z 27003KT CAVOK 10/03 Q1030=
200801251615 METAR LIRA 251615Z 25003KT CAVOK 11/M02 Q1030=
200801251545 METAR LIRA 251545Z 08003KT CAVOK 11/M02 Q1030=
200801251515 METAR LIRA 251515Z 03003KT CAVOK 12/M01 Q1029=
200801251445 METAR LIRA 251445Z 07003KT CAVOK 12/M02 Q1029=
200801251415 METAR LIRA 251415Z 07003KT CAVOK 11/M03 Q1029=
200801251345 METAR LIRA 251345Z 03004KT CAVOK 11/M02 Q1029=
200801251315 METAR LIRA 251315Z 02004KT CAVOK 11/M02 Q1029=
200801251245 METAR LIRA 251245Z 02004KT CAVOK 10/M01 Q1029=
200801251215 METAR LIRA 251215Z 35005KT CAVOK 10/M00 Q1030=
200801251145 METAR LIRA 251145Z 34003KT CAVOK 09/M00 Q1030=
200801251115 METAR LIRA 251115Z 35003KT CAVOK 08/00 Q1031=
200801251045 METAR LIRA 251045Z 02004KT CAVOK 07/M00 Q1031=
200801251015 METAR LIRA 251015Z 02003KT CAVOK 06/M01 Q1031=
200801250945 METAR LIRA 250945Z 04004KT CAVOK 05/M01 Q1031=
200801250915 METAR LIRA 250915Z 04004KT CAVOK 05/M00 Q1031=
200801250845 METAR LIRA 250845Z 04004KT CAVOK 03/M01 Q1030=
200801250815 METAR LIRA 250815Z 03003KT CAVOK 02/M02 Q1030=
200801250745 METAR LIRA 250745Z 02003KT CAVOK 01/M02 Q1030=
200801250715 METAR LIRA 250715Z 07003KT CAVOK 01/M02 Q1030=
200801250645 METAR LIRA 250645Z 05005KT 020V090 CAVOK M00/M02 Q1030=
200801250615 METAR LIRA 250615Z 07006KT CAVOK M00/M02 Q1030=
200801250545 METAR LIRA 250545Z 07005KT 9999 FEW009 00/M02 Q1030=
200801250515 METAR LIRA 250515Z 04003KT 8000 FEW009 00/M02 Q1029=
200801250445 METAR LIRA 250445Z 05002KT 8000 FEW009 00/M02 Q1029=
200801250415 METAR LIRA 250415Z 04003KT 8000 SKC 01/M01 Q1030=
200801250345 METAR LIRA 250345Z 05003KT 8000 FEW009 01/M01 Q1030=
200801250315 METAR LIRA 250315Z 05003KT 8000 FEW009 01/M01 Q1030=
200801250245 METAR LIRA 250245Z 07003KT 7000 FEW009 01/M01 Q1030=
200801250215 METAR LIRA 250215Z 03001KT 7000 FEW009 01/M01 Q1030=
200801250145 METAR LIRA 250145Z 03002KT 8000 FEW009 02/M01 Q1030=
200801250115 METAR LIRA 250115Z 03002KT CAVOK 02/M01 Q1030=
200801250045 METAR LIRA 250045Z 01001KT CAVOK 03/M01 Q1030=
200801250015 METAR LIRA 250015Z 01002KT CAVOK 03/M01 Q1030=
200801242345 METAR LIRA 242345Z 15002KT CAVOK 04/M01 Q1030=
200801242315 METAR LIRA 242315Z 14002KT CAVOK 05/01 Q1030=
200801242245 METAR LIRA 242245Z 13005KT CAVOK 05/01 Q1030=
200801242215 METAR LIRA 242215Z 15003KT CAVOK 05/01 Q1030=
200801242145 METAR LIRA 242145Z 14004KT CAVOK 05/01 Q1030=
200801242115 METAR LIRA 242115Z 13003KT CAVOK 04/01 Q1030=
200801242045 METAR LIRA 242045Z 13003KT CAVOK 04/02 Q1030=
200801242015 METAR LIRA 242015Z 11005KT CAVOK 05/02 Q1030=
200801241945 METAR LIRA 241945Z 13004KT CAVOK 05/01 Q1030=
200801241915 METAR LIRA 241915Z 15002KT CAVOK 05/01 Q1029=
200801241845 METAR LIRA 241845Z 17004KT CAVOK 05/00 Q1029=
200801241815 METAR LIRA 241815Z 17005KT CAVOK 05/M00 Q1029=
200801241745 METAR LIRA 241745Z 17005KT CAVOK 06/M02 Q1029=
200801241715 METAR LIRA 241715Z 18003KT CAVOK 07/M03 Q1028=
200801241645 METAR LIRA 241645Z 20002KT CAVOK 09/M05 Q1028=
200801241615 METAR LIRA 241615Z 00000KT CAVOK 10/M04 Q1028=
200801241545 METAR LIRA 241545Z 00000KT CAVOK 11/M04 Q1027=
200801241515 METAR LIRA 241515Z 30002KT CAVOK 11/M04 Q1027=
200801241445 METAR LIRA 241445Z 35004KT CAVOK 11/M04 Q1027=
200801241415 METAR LIRA 241415Z 07003KT CAVOK 11/M04 Q1027=
200801241345 METAR LIRA 241345Z 03006KT 350V100 CAVOK 11/M05 Q1028=
200801241315 METAR LIRA 241315Z 04006KT 350V100 CAVOK 11/M04 Q1028=
200801241245 METAR LIRA 241245Z 05003KT 360V100 CAVOK 11/M03 Q1028=
200801241215 METAR LIRA 241215Z 04007KT 350V110 CAVOK 10/M03 Q1028=
200801241145 METAR LIRA 241145Z 05006KT CAVOK 09/M02 Q1028=
200801241115 METAR LIRA 241115Z 31002KT CAVOK 09/M02 Q1029=
200801241045 METAR LIRA 241045Z 01002KT CAVOK 08/M01 Q1029=
200801241015 METAR LIRA 241015Z 08004KT CAVOK 07/M01 Q1028=
200801240945 METAR LIRA 240945Z 05005KT 340V090 9999 FEW080 06/M02 Q1028=
200801240915 METAR LIRA 240915Z 32002KT 9999 FEW080 05/M02 Q1028=
200801240845 METAR LIRA 240845Z 33003KT 9999 FEW080 03/M03 Q1027=
200801240815 METAR LIRA 240815Z 03003KT 9999 FEW080 02/M03 Q1027=
200801240745 METAR LIRA 240745Z 06006KT 010V110 9999 FEW070 01/M04 Q1027=
200801240715 METAR LIRA 240715Z 07003KT 9999 FEW070 00/M05 Q1027=
200801240645 METAR LIRA 240645Z 00000KT 9999 FEW070 01/M05 Q1027=
200801240615 METAR LIRA 240615Z 01004KT 9999 FEW080 01/M05 Q1026=
200801240545 METAR LIRA 240545Z 25004KT 9999 FEW080 02/M04 Q1026=
200801240515 METAR LIRA 240515Z 03007KT 350V070 CAVOK 01/M05 Q1025=
200801240445 METAR LIRA 240445Z 27003KT 9999 FEW080 01/M05 Q1025=
200801240415 METAR LIRA 240415Z 01005KT 330V070 CAVOK 03/M05 Q1024=
200801240345 METAR LIRA 240345Z 07012KT 030V100 CAVOK 02/M05 Q1024=
200801240315 METAR LIRA 240315Z 04008KT 360V080 CAVOK 03/M05 Q1025=
200801240245 METAR LIRA 240245Z 04006KT 290V080 CAVOK 03/M05 Q1025=
200801240215 METAR LIRA 240215Z 06008KT 030V090 CAVOK 02/M05 Q1026=
200801240145 METAR LIRA 240145Z 04007KT 350V080 CAVOK 02/M05 Q1026=
200801240115 METAR LIRA 240115Z 03006KT 350V080 CAVOK 02/M05 Q1026=
200801240045 METAR LIRA 240045Z 05006KT 360V080 CAVOK 02/M05 Q1026=
200801240015 METAR LIRA 240015Z 05004KT 350V080 CAVOK 02/M05 Q1025=
200801232350 METAR LIRA 240045Z 05006KT 360V080 CAVOK 02/M05 Q1026=
200801232345 METAR LIRA 232345Z 04004KT CAVOK 03/M06 Q1025=
200801232315 METAR LIRA 232315Z 03006KT 350V080 CAVOK 03/M06 Q1025=
200801232245 METAR LIRA 232245Z 04004KT 340V080 CAVOK 04/M06 Q1025=
200801232215 METAR LIRA 232215Z 02006KT 330V070 CAVOK 04/M06 Q1025=
200801232145 METAR LIRA 232145Z 02009KT 340V090 CAVOK 04/M06 Q1024=
200801232115 METAR LIRA 232115Z 02009KT 330V060 CAVOK 05/M06 Q1024=
200801232045 METAR LIRA 232045Z 03008KT 330V080 CAVOK 05/M06 Q1024=
200801232015 METAR LIRA 232015Z 01011KT 310V050 CAVOK 05/M06 Q1024=
200801231945 METAR LIRA 231945Z 01010KT 340V070 CAVOK 05/M06 Q1024=
200801231915 METAR LIRA 231915Z 36008KT 320V060 CAVOK 05/M05 Q1023=
200801231845 METAR LIRA 231845Z 35007KT 300V020 CAVOK 05/M06 Q1023=
200801231815 METAR LIRA 231815Z 35012KT 330V030 CAVOK 06/M07 Q1023=
200801231745 METAR LIRA 231745Z 34013KT 320V020 CAVOK 07/M08 Q1022=
200801231715 METAR LIRA 231715Z 34013KT CAVOK 08/M08 Q1022=
200801231645 METAR LIRA 231645Z 01008KT 310V060 CAVOK 08/M08 Q1022=
200801231615 METAR LIRA 231615Z 36008KT 300V060 CAVOK 09/M08 Q1021=
200801231545 METAR LIRA 231545Z 01009KT 320V060 CAVOK 10/M07 Q1021=
200801231515 METAR LIRA 231515Z 36012KT 320V040 CAVOK 10/M07 Q1021=
200801231445 METAR LIRA 231445Z 36009KT 320V060 CAVOK 10/M07 Q1021=
200801231415 METAR LIRA 231415Z 01013KT 340V060 CAVOK 11/M07 Q1021=
200801231345 METAR LIRA 231345Z 02015KT 330V070 CAVOK 11/M07 Q1020=
200801231315 METAR LIRA 231315Z 01002KT 320V060 CAVOK 10/M07 Q1020=
200801231245 METAR LIRA 231245Z 35021G31KT 300V040 CAVOK 10/M07 Q1020=
200801231215 METAR LIRA 231215Z 35019KT 9999 FEW018 11/M07 Q1020=
200801231145 METAR LIRA 231145Z 35015G27KT 9999 FEW018 10/M07 Q1020=
200801231115 METAR LIRA 231115Z 36016KT 300V010 9999 FEW018 10/M07 Q1020=
200801231045 METAR LIRA 231045Z 35010KT 300V050 9999 FEW018 10/M06 Q1020=
200801231015 METAR LIRA 231015Z 36006KT 9999 FEW018 10/M05 Q1020=
200801230945 METAR LIRA 230945Z 35011G26KT 350V070 9999 FEW018 09/M04
                        Q1020=
200801230915 METAR LIRA 230915Z 36014KT 9999 FEW018 09/M04 Q1019=
200801230845 METAR LIRA 230845Z 35014KT 9999 FEW018 08/M04 Q1018=
200801230815 METAR LIRA 230815Z 36011KT 330V070 9999 FEW018 07/M04 Q1018=
200801230745 METAR LIRA 230745Z 02004KT 350V070 9999 FEW018 07/M06 Q1017=
200801230715 METAR LIRA 230715Z 36009KT 330V060 9999 FEW018 06/M06 Q1017=
200801230645 METAR LIRA 230645Z 03011KT 330V060 CAVOK 06/M06 Q1016=
200801230615 METAR LIRA 230615Z 01013KT 340V060 CAVOK 06/M05 Q1015=
200801230545 METAR LIRA 230545Z 04010KT 350V120 CAVOK 07/00 Q1015=
200801230515 METAR LIRA 230515Z 02010G22KT 330V070 CAVOK 06/02 Q1014=
200801230445 METAR LIRA 230445Z 03008KT 310V110 CAVOK 06/02 Q1014=
200801230415 METAR LIRA 230415Z 06005KT 030V100 CAVOK 07/02 Q1014=
200801230345 METAR LIRA 230345Z 01005KT 340V100 CAVOK 07/04 Q1013=
200801230315 METAR LIRA 230315Z 01005KT 320V040 CAVOK 07/05 Q1013=
200801230245 METAR LIRA 230245Z 36010KT 300V040 CAVOK 07/05 Q1013=
200801230215 METAR LIRA 230215Z 35011KT 320V040 CAVOK 07/05 Q1012=
200801230145 METAR LIRA 230145Z 34010KT CAVOK 06/05 Q1012=
200801230115 METAR LIRA 230115Z 09005KT 6000 FEW005 06/05 Q1011=
200801230045 METAR LIRA 230045Z 05005KT 4000 BR FEW005 06/05 Q1011=
200801230015 METAR LIRA 230015Z 06005KT 4000 BR FEW005 06/05 Q1011=
200801222350 METAR LIRA 230045Z 05005KT 4000 BR FEW005 06/05 Q1011=
200801222345 METAR LIRA 222345Z 04002KT 4000 BR FEW005 06/05 Q1011=
200801222315 METAR LIRA 222315Z 12002KT 4000 FEW005 07/06 Q1011=
200801222245 METAR LIRA 222245Z 09002KT 4000 BR FEW005 07/06 Q1010=
200801222215 METAR LIRA 222215Z 00000KT 4000 BR FEW005 07/06 Q1010=
200801222145 METAR LIRA 222145Z 36003KT 4000 BR FEW005 07/06 Q1010=
200801222115 METAR LIRA 222115Z 07002KT 4000 BR FEW005 08/07 Q1010=
200801222045 METAR LIRA 222045Z 06002KT 3000 BR FEW005 08/07 Q1010=
200801222015 METAR LIRA 222015Z 05005KT 3500 BR FEW005 08/07 Q1010=
200801221945 METAR LIRA 221945Z 00000KT 2000 MIFG SCT004 08/08 Q1010=
200801221915 METAR LIRA 221915Z 33002KT 4000 BR FEW010 09/08 Q1009=
200801221845 METAR LIRA 221845Z 31006KT 3500 BR FEW010 09/08 Q1009=
200801221815 METAR LIRA 221815Z 01003KT 3000 BR SCT010 SCT023 09/08 Q1009=
200801221745 METAR LIRA 221745Z 05003KT 3500 BR SCT010 09/08 Q1009=
200801221715 METAR LIRA 221715Z 00004KT 4000 BR FEW017 09/08 Q1009=
200801221645 METAR LIRA 221645Z 02004KT 330V030 3000 BR FEW013 10/09 Q1009=
200801221615 METAR LIRA 221615Z 36006KT 3500 BR SCT013 BKN023 10/09 Q1009=
200801221545 METAR LIRA 221545Z 02004KT 4000 BR FEW013 SCT025 11/09 Q1008=
200801221515 METAR LIRA 221515Z 01006KT 4000 -RA BR SCT013 SCT025 11/09
                        Q1008=
200801221415 METAR LIRA 221415Z 17007KT 9000 SCT013 SCT025 11/09 Q1007=
200801221345 METAR LIRA 221345Z 16008KT 6000 -RA FEW009 SCT013 BKN025
                        11/09 Q1009=
200801221315 METAR LIRA 221315Z 16008KT 5000 -RA BR FEW009 SCT013 BKN023
                        11/09 Q1009=
200801221245 METAR LIRA 221245Z 18008KT 6000 -RA FEW009 SCT013 BKN023
                        11/09 Q1010=
200801221215 METAR LIRA 221215Z 17010KT 4000 -RA BR SCT013 BKN023 11/09
                        Q1011=
200801221145 METAR LIRA 221145Z 18006KT 7000 -DZ FEW013 BKN023 11/08 Q1011=
200801221115 METAR LIRA 221115Z 18007KT 7000 -DZ FEW013 BKN025 11/08 Q1012=
200801221045 METAR LIRA 221045Z 17007KT 8000 FEW013 BKN021 11/08 Q1013=
200801221015 METAR LIRA 221015Z 18008KT 8000 FEW013 BKN023 11/08 Q1014=
200801220915 METAR LIRA 220915Z 19005KT 7000 FEW013 BKN023 11/08 Q1015=
200801220845 METAR LIRA 220845Z 20005KT 170V240 7000 FEW013 BKN025 11/08
                        Q1014=
200801220815 METAR LIRA 220815Z 20006KT 140V270 7000 -DZ FEW009 BKN025
                        10/08 Q1015=
200801220745 METAR LIRA 220745Z 19006KT 7000 -DZ FEW009 BKN025 10/08 Q1016=
200801220715 METAR LIRA 220715Z 18007KT 5000 -DZ BR SCT009 BKN025 10/08
                        Q1016=
200801220645 METAR LIRA 220645Z 19004KT 7000 SCT009 BKN025 11/09 Q1017=
200801220615 METAR LIRA 220615Z 19004KT 8000 SCT025 BKN070 11/09 Q1017=
200801220545 METAR LIRA 220545Z 19005KT 8000 SCT025 SCT070 11/09 Q1017=
200801220515 METAR LIRA 220515Z 19008KT 160V220 8000 SCT025 SCT070 11/09
                        Q1017=
200801220445 METAR LIRA 220445Z 18006KT 8000 SCT025 SCT070 10/09 Q1017=
200801220415 METAR LIRA 220415Z 16007KT 8000 SCT025 SCT070 10/09 Q1018=
200801220345 METAR LIRA 220345Z 18006KT 8000 FEW010 SCT025 10/09 Q1018=
200801220315 METAR LIRA 220315Z 18005KT 8000 FEW010 SCT025 10/09 Q1019=
200801220245 METAR LIRA 220245Z 17006KT 8000 FEW010 SCT025 10/09 Q1019=
200801220215 METAR LIRA 220215Z 18006KT 8000 FEW010 SCT025 11/08 Q1020=
200801220145 METAR LIRA 220145Z 17006KT 8000 FEW010 SCT025 11/08 Q1020=
200801220115 METAR LIRA 220115Z 18007KT 160V220 8000 SCT025 SCT060 11/08
                        Q1021=
200801220045 METAR LIRA 220045Z 18005KT 8000 SCT025 SCT060 11/08 Q1021=
200801220015 METAR LIRA 220015Z 18006KT 8000 BKN025 11/08 Q1022=
200801212350 METAR LIRA 220045Z 18005KT 8000 SCT025 SCT060 11/08 Q1021=
200801212345 METAR LIRA 212345Z 18007KT 8000 BKN025 10/07 Q1022=
200801212315 METAR LIRA 212315Z 17004KT 8000 BKN025 SCT060 10/07 Q1022=
200801212245 METAR LIRA 212245Z 16004KT 8000 -DZ FEW010 BKN030 10/07 Q1023=
200801212215 METAR LIRA 212215Z 15005KT 8000 FEW010 BKN030 10/07 Q1023=
200801212145 METAR LIRA 212145Z 17003KT 8000 FEW010 BKN030 10/07 Q1023=
200801212115 METAR LIRA 212115Z 09001KT 8000 BKN030 10/06 Q1023=
200801212045 METAR LIRA 212045Z 19001KT 8000 FEW010 SCT025 10/07 Q1024=
200801212015 METAR LIRA 212015Z 18002KT 8000 FEW010 SCT025 10/07 Q1024=
200801211945 METAR LIRA 211945Z 17002KT 8000 FEW010 SCT025 09/07 Q1024=
200801211915 METAR LIRA 211915Z 00000KT 8000 FEW010 SCT025 09/07 Q1024=
200801211845 METAR LIRA 211845Z 00000KT 8000 SCT025 SCT060 10/07 Q1025=
200801211815 METAR LIRA 211815Z 00000KT 8000 SCT025 SCT060 10/07 Q1025=
200801211745 METAR LIRA 211745Z 00000KT 8000 SCT025 SCT060 10/07 Q1025=
200801211715 METAR LIRA 211715Z 11001KT 8000 SCT025 SCT060 10/06 Q1025=
200801211645 METAR LIRA 211645Z 05003KT 8000 BKN025 10/06 Q1025=
200801211615 METAR LIRA 211615Z 06004KT 8000 BKN025 10/06 Q1025=
200801211545 METAR LIRA 211545Z 04002KT 9999 BKN030 SCT060 11/06 Q1025=
200801211515 METAR LIRA 211515Z 06004KT 9999 BKN030 SCT060 11/06 Q1026=
200801211445 METAR LIRA 211445Z 05003KT 9999 BKN030 SCT070 11/06 Q1026=
200801211415 METAR LIRA 211415Z 04003KT 9999 SCT030 BKN060 11/06 Q1026=
200801211345 METAR LIRA 211345Z 05003KT 9999 SCT030 BKN070 11/06 Q1026=
200801211315 METAR LIRA 211315Z 06005KT 020V100 9999 SCT030 BKN070 11/06
                        Q1026=
200801211245 METAR LIRA 211245Z 06004KT 9999 SCT030 BKN070 10/06 Q1027=
200801211215 METAR LIRA 211215Z 05005KT 360V100 9999 SCT030 BKN070 10/07
                        Q1027=
200801211145 METAR LIRA 211145Z 05006KT 9999 SCT030 BKN070 10/07 Q1028=
200801211115 METAR LIRA 211115Z 01004KT 9999 SCT030 BKN070 09/07 Q1028=
200801211045 METAR LIRA 211045Z 05005KT 010V090 8000 SCT030 BKN070 08/07
                        Q1028=
200801211015 METAR LIRA 211015Z 01003KT 8000 SCT030 BKN070 07/07 Q1029=
200801210945 METAR LIRA 210945Z 06005KT 7000 FEW010 BKN025 06/06 Q1029=
200801210915 METAR LIRA 210915Z 07006KT 040V140 7000 FEW010 BKN025 06/05
                        Q1029=
200801210845 METAR LIRA 210845Z 06004KT 7000 FEW010 BKN025 05/04 Q1029=
200801210815 METAR LIRA 210815Z 04004KT 7000 FEW010 SCT025 05/04 Q1029=
200801210745 METAR LIRA 210745Z 02004KT 9000 SCT025 BKN060 05/04 Q1029=
200801210715 METAR LIRA 210715Z 04003KT 9000 BKN025 SCT060 05/04 Q1029=
200801210645 METAR LIRA 210645Z 36004KT 9000 BKN025 SCT060 05/04 Q1029=
200801210615 METAR LIRA 210615Z 07003KT 040V130 7000 BKN025 05/04 Q1029=
200801210545 METAR LIRA 210545Z 05005KT 010V090 7000 FEW010 BKN025 05/04
                        Q1029=
200801210515 METAR LIRA 210515Z 06005KT 6000 FEW010 BKN025 04/04 Q1029=
200801210445 METAR LIRA 210445Z 06004KT 030V110 6000 FEW010 BKN025 04/03
                        Q1029=
200801210415 METAR LIRA 210415Z 07005KT 6000 SCT010 SCT020 04/03 Q1029=
200801210345 METAR LIRA 210345Z 06005KT 0450 R15//// FG OVC002 04/03 Q1029=
200801210315 METAR LIRA 210315Z 05006KT 350V100 0300 R15//// FG OVC001
                        04/03 Q1029=
200801210245 METAR LIRA 210245Z 02006KT 340V060 0250 R15//// FG OVC001
                        04/04 Q1029=
200801210215 METAR LIRA 210215Z 04005KT 010V080 0300 R15//// FG OVC001
                        04/04 Q1029=
200801210145 METAR LIRA 210145Z 04005KT 360V090 0300 R15//// FG OVC001
                        05/04 Q1029=
200801210115 METAR LIRA 210115Z 04005KT 350V080 0300 FG BKN001 05/04 Q1029=
200801210045 METAR LIRA 210045Z 05004KT 0300 FG BKN001 05/04 Q1029=
200801210015 METAR LIRA 210015Z 04004KT 0300 BCFG BKN002 05/04 Q1029=
200801202350 METAR LIRA 210045Z 05004KT 0300 FG BKN001 05/04 Q1029=
200801202345 METAR LIRA 202345Z 05004KT 3000 BR SCT007 05/04 Q1029=
200801202315 METAR LIRA 202315Z 03003KT 4000 BR SCT010 SCT060 05/04 Q1029=
200801202245 METAR LIRA 202245Z 03002KT 4500 BR SCT010 05/04 Q1029=
200801202215 METAR LIRA 202215Z 07004KT 5000 BR FEW010 06/05 Q1029=
200801202145 METAR LIRA 202145Z 04002KT 4000 BR SCT005 06/05 Q1029=
200801202115 METAR LIRA 202115Z 27001KT 7000 SKC 06/05 Q1029=
200801202045 METAR LIRA 202045Z 13002KT 8000 SKC 07/06 Q1029=
200801202015 METAR LIRA 202015Z 12004KT 8000 SKC 06/05 Q1029=
200801201945 METAR LIRA 201945Z 14002KT 8000 SKC 07/06 Q1029=
200801201915 METAR LIRA 201915Z 17001KT 8000 SKC 07/05 Q1029=
200801201845 METAR LIRA 201845Z 14001KT 8000 SKC 07/05 Q1029=
200801201815 METAR LIRA 201815Z 18002KT 7000 SKC 07/05 Q1029=
200801201745 METAR LIRA 201745Z 21001KT 8000 SKC 09/07 Q1029=
200801201715 METAR LIRA 201715Z 25002KT 8000 SKC 10/08 Q1029=
200801201645 METAR LIRA 201645Z 27003KT 8000 SKC 11/05 Q1028=
200801201545 METAR LIRA 201545Z 28002KT CAVOK 13/04 Q1029=
200801201515 METAR LIRA 201515Z 00000KT CAVOK 13/04 Q1029=
200801201445 METAR LIRA 201445Z 00000KT CAVOK 13/03 Q1029=
200801201415 METAR LIRA 201415Z 34002KT CAVOK 13/03 Q1029=
200801201345 METAR LIRA 201345Z 35002KT CAVOK 13/03 Q1029=
200801201315 METAR LIRA 201315Z 33002KT CAVOK 12/05 Q1029=
200801201245 METAR LIRA 201245Z 33003KT CAVOK 12/05 Q1030=
200801201215 METAR LIRA 201215Z 35003KT CAVOK 11/05 Q1030=
200801201145 METAR LIRA 201145Z 33003KT CAVOK 11/06 Q1030=
200801201115 METAR LIRA 201115Z 36002KT CAVOK 09/05 Q1030=
200801201045 METAR LIRA 201045Z 36003KT 9000 FEW007 09/05 Q1031=
200801201015 METAR LIRA 201015Z 04003KT 8000 FEW007 07/04 Q1030=
200801200945 METAR LIRA 200945Z 02004KT 8000 FEW007 07/04 Q1030=
200801200915 METAR LIRA 200915Z 02003KT 8000 FEW007 06/04 Q1029=
200801200845 METAR LIRA 200845Z 05003KT 9999 FEW007 05/03 Q1029=
200801200815 METAR LIRA 200815Z 02004KT CAVOK 04/03 Q1029=
200801200745 METAR LIRA 200745Z 03002KT CAVOK 04/03 Q1028=
200801200715 METAR LIRA 200715Z 08003KT CAVOK 03/02 Q1028=
200801200645 METAR LIRA 200645Z 08003KT CAVOK 03/02 Q1028=
200801200615 METAR LIRA 200615Z 05003KT CAVOK 03/02 Q1028=
200801200545 METAR LIRA 200545Z 03004KT 8000 BR SKC 03/02 Q1028=
200801200515 METAR LIRA 200515Z 06005KT 5000 BR SKC 03/02 Q1028=
200801200445 METAR LIRA 200445Z 06005KT 5000 BR SKC 03/02 Q1028=
200801200415 METAR LIRA 200415Z 06004KT 5000 BR SKC 03/03 Q1028=
200801200345 METAR LIRA 200345Z 06004KT 5000 BR SKC 04/03 Q1028=
200801200315 METAR LIRA 200315Z 05004KT 5000 BR SKC 04/03 Q1028=
200801200245 METAR LIRA 200245Z 03004KT 5000 BR SKC 04/03 Q1028=
200801200215 METAR LIRA 200215Z 01003KT 5000 BR SKC 04/04 Q1028=
200801200145 METAR LIRA 200145Z 04002KT 5000 BR SKC 05/04 Q1028=
200801200115 METAR LIRA 200115Z 03002KT 6000 SKC 05/04 Q1028=
200801200045 METAR LIRA 200045Z 06002KT 7000 SKC 05/03 Q1028=
200801200015 METAR LIRA 200015Z 04003KT 7000 SKC 05/03 Q1028=
200801192345 METAR LIRA 192345Z 06004KT 7000 NSC 05/04 Q1028=
200801192315 METAR LIRA 192315Z 05003KT 7000 NSC 06/04 Q1028=
200801192245 METAR LIRA 192245Z 07003KT 7000 NSC 06/05 Q1028=
200801192215 METAR LIRA 192215Z 07003KT 7000 NSC 06/04 Q1028=
200801192145 METAR LIRA 192145Z 10002KT 7000 NSC 06/04 Q1028=
200801192115 METAR LIRA 192115Z 00000KT 7000 NSC 06/04 Q1028=
200801192045 METAR LIRA 192045Z 10002KT 7000 NSC 06/05 Q1028=
200801192015 METAR LIRA 192015Z 15001KT 7000 NSC 07/05 Q1028=
200801191945 METAR LIRA 191945Z 15002KT 8000 NSC 07/05 Q1028=
200801191915 METAR LIRA 191915Z 18003KT 8000 NSC 07/05 Q1028=
200801191845 METAR LIRA 191845Z 20002KT 8000 NSC 08/06 Q1028=
200801191815 METAR LIRA 191815Z 17004KT 8000 NSC 09/07 Q1028=
200801191745 METAR LIRA 191745Z 17003KT CAVOK 10/04 Q1028=
200801191715 METAR LIRA 191715Z 00000KT CAVOK 11/04 Q1028=
200801191645 METAR LIRA 191645Z 00000KT CAVOK 12/05 Q1027=
200801191615 METAR LIRA 191615Z 26001KT CAVOK 12/05 Q1027=
200801191545 METAR LIRA 191545Z 28002KT CAVOK 13/05 Q1027=
200801191515 METAR LIRA 191515Z 34002KT 9999 FEW080 SCT200 13/05 Q1027=
200801191445 METAR LIRA 191445Z 33002KT 9999 FEW080 SCT200 13/06 Q1027=
200801191415 METAR LIRA 191415Z 36002KT 9999 SCT080 13/05 Q1027=
200801191345 METAR LIRA 191345Z 35003KT CAVOK 13/06 Q1027=
200801191315 METAR LIRA 191315Z 34003KT CAVOK 13/06 Q1028=
200801191245 METAR LIRA 191245Z 34005KT CAVOK 13/07 Q1028=
200801191215 METAR LIRA 191215Z 33005KT CAVOK 12/06 Q1028=
200801191145 METAR LIRA 191145Z 01003KT CAVOK 11/07 Q1028=
200801191115 METAR LIRA 191115Z 02003KT 9999 FEW020 10/06 Q1029=
200801191045 METAR LIRA 191045Z 06004KT 9999 FEW020 09/05 Q1029=
200801191015 METAR LIRA 191015Z 04003KT CAVOK 08/05 Q1029=
200801190945 METAR LIRA 190945Z 03004KT CAVOK 08/05 Q1029=
200801190915 METAR LIRA 190915Z 01005KT 330V050 CAVOK 07/05 Q1029=
200801190845 METAR LIRA 190845Z 05004KT 350V070 CAVOK 06/05 Q1028=
200801190815 METAR LIRA 190815Z 05004KT CAVOK 05/04 Q1028=
200801190745 METAR LIRA 190745Z 03003KT CAVOK 04/03 Q1028=
200801190715 METAR LIRA 190715Z 04003KT CAVOK 04/03 Q1027=
200801190645 METAR LIRA 190645Z 06003KT CAVOK 03/03 Q1027=
200801190615 METAR LIRA 190615Z 07003KT CAVOK 03/02 Q1027=
200801190545 METAR LIRA 190545Z 04003KT 8000 SKC 04/03 Q1027=
200801190515 METAR LIRA 190515Z 06004KT 8000 SKC 04/03 Q1027=
200801190445 METAR LIRA 190445Z 06002KT 6000 SKC 04/03 Q1026=
200801190415 METAR LIRA 190415Z 08002KT 6000 SKC 04/03 Q1026=
200801190345 METAR LIRA 190345Z 02002KT 6000 SKC 04/03 Q1026=
200801190315 METAR LIRA 190315Z 05002KT 6000 SKC 04/03 Q1026=
200801190245 METAR LIRA 190245Z 07004KT 5000 BR SKC 04/03 Q1026=
200801190215 METAR LIRA 190215Z 04002KT 5000 BR SKC 04/04 Q1026=
200801190145 METAR LIRA 190145Z 03003KT 5000 BR SKC 05/04 Q1026=
200801190115 METAR LIRA 190115Z 07005KT 6000 SKC 05/04 Q1026=
200801190045 METAR LIRA 190045Z 07005KT 5000 BR SKC 05/04 Q1026=
200801190015 METAR LIRA 190015Z 06005KT 5000 BR SKC 05/04 Q1026=
200801182345 METAR LIRA 182345Z 03002KT 5000 BR SKC 05/04 Q1026=
200801182315 METAR LIRA 182315Z 05002KT 7000 SKC 06/04 Q1026=
200801182245 METAR LIRA 182245Z 08002KT 7000 SKC 06/04 Q1026=
200801182215 METAR LIRA 182215Z 09001KT 7000 NSC 07/05 Q1026=
200801182145 METAR LIRA 182145Z 09002KT 7000 NSC 07/05 Q1026=
200801182115 METAR LIRA 182115Z 01001KT 7000 NSC 07/05 Q1026=
200801182045 METAR LIRA 182045Z 09002KT 7000 NSC 07/05 Q1026=
200801182015 METAR LIRA 182015Z 07001KT 7000 NSC 08/06 Q1026=
200801181945 METAR LIRA 181945Z 09002KT 7000 NSC 08/06 Q1025=
200801181915 METAR LIRA 181915Z 08002KT 7000 NSC 09/06 Q1025=
200801181845 METAR LIRA 181845Z 09002KT 7000 NSC 09/07 Q1024=
200801181815 METAR LIRA 181815Z 10002KT 7000 NSC 09/07 Q1024=
200801181745 METAR LIRA 181745Z 34001KT 7000 NSC 10/07 Q1024=
200801181715 METAR LIRA 181715Z 09001KT 7000 FEW080 SCT200 10/06 Q1024=
200801181645 METAR LIRA 181645Z 04003KT 8000 FEW080 SCT200 11/07 Q1023=
200801181615 METAR LIRA 181615Z 04002KT 9999 FEW080 SCT200 11/07 Q1023=
200801181545 METAR LIRA 181545Z 35004KT 9999 FEW018 SCT200 12/08 Q1023=
200801181515 METAR LIRA 181515Z 32004KT 9999 FEW018 SCT200 13/08 Q1023=
200801181445 METAR LIRA 181445Z 32003KT 9999 FEW017 SCT200 13/08 Q1023=
200801181415 METAR LIRA 181415Z 30002KT 9999 FEW016 SCT200 13/08 Q1023=
200801181345 METAR LIRA 181345Z 32002KT 9999 FEW016 SCT080 13/08 Q1023=
200801181315 METAR LIRA 181315Z 33004KT 9999 FEW016 FEW020TCU SCT080 14/08
                        Q1022=
200801181245 METAR LIRA 181245Z 24003KT 9999 SCT016 13/09 Q1022=
200801181215 METAR LIRA 181215Z 19002KT 9999 SCT016 12/09 Q1022=
200801181145 METAR LIRA 181145Z 27003KT 9999 SCT016 11/09 Q1022=
200801181115 METAR LIRA 181115Z 27002KT 7000 FEW016 SCT200 11/09 Q1022=
200801181045 METAR LIRA 181045Z 00000KT 7000 FEW016 SCT070 09/07 Q1022=
200801181015 METAR LIRA 181015Z 01001KT 6000 FEW016 BKN070 09/07 Q1022=
200801180945 METAR LIRA 180945Z 02001KT 7000 FEW017 BKN080 09/07 Q1022=
200801180845 METAR LIRA 180845Z 12002KT 9999 FEW016 SCT040 BKN070 08/06
                        Q1021=
200801180815 METAR LIRA 180815Z 09003KT 9999 FEW016 BKN070 08/06 Q1021=
200801180745 METAR LIRA 180745Z 10002KT 9999 FEW016 BKN070 07/06 Q1021=
200801180715 METAR LIRA 180715Z 07003KT 9999 FEW016 SCT035 BKN070 07/06
                        Q1020=
200801180645 METAR LIRA 180645Z 07002KT 9999 FEW016 SCT030 07/05 Q1020=
200801180615 METAR LIRA 180615Z 07003KT 9999 BKN030 06/04 Q1019=
200801180545 METAR LIRA 180545Z 05003KT 9999 SCT030 05/04 Q1019=
200801180515 METAR LIRA 180515Z 13002KT 9999 SCT030 06/05 Q1019=
200801180445 METAR LIRA 180445Z 15002KT 9999 FEW030 SCT070 07/05 Q1018=
200801180415 METAR LIRA 180415Z 16003KT 9999 SCT030 SCT070 07/05 Q1018=
200801180345 METAR LIRA 180345Z 15003KT 9999 SCT030 SCT070 1010/100 Q1018=
200801180315 METAR LIRA 180315Z 15003KT 9999 SCT030 SCT070 07/05 Q1018=
200801180245 METAR LIRA 180245Z 15002KT 9999 SCT030 SCT070 07/06 Q1018=
200801180215 METAR LIRA 180215Z 15003KT 9999 FEW025 SCT070 06/05 Q1018=
200801180145 METAR LIRA 180145Z 16003KT 9999 FEW025 SCT070 06/05 Q1018=
200801180115 METAR LIRA 180115Z 15003KT 9999 FEW025 06/05 Q1018=
200801180045 METAR LIRA 180045Z 13003KT 9999 FEW025 06/05 Q1018=
200801180015 METAR LIRA 180015Z 15003KT 9999 FEW070 06/05 Q1018=
200801172345 METAR LIRA 172345Z 15003KT 9999 FEW010 07/05 Q1018=
200801172315 METAR LIRA 172315Z 14002KT 9999 FEW020 SCT070 07/05 Q1017=
200801172245 METAR LIRA 172245Z 14003KT 9999 FEW030 SCT070 07/05 Q1017=
200801172215 METAR LIRA 172215Z 14003KT 9999 FEW030 SCT070 07/05 Q1017=
200801172115 METAR LIRA 172115Z 12005KT 9999 FEW070 07/05 Q1017=
200801172015 METAR LIRA 172015Z 17005KT 9999 FEW070 08/06 Q1016=
200801171945 METAR LIRA 171945Z 17005KT 9999 FEW070 08/06 Q1016=
200801171915 METAR LIRA 171915Z 16007KT 120V190 9999 SCT070 08/06 Q1016=
200801171845 METAR LIRA 171845Z 18004KT 9999 SCT080 07/06 Q1016=
200801171815 METAR LIRA 171815Z 15006KT 9999 FEW030 07/05 Q1015=
200801171745 METAR LIRA 171745Z 16006KT 9999 FEW030 08/06 Q1015=
200801171715 METAR LIRA 171715Z 18004KT 9999 FEW020 SCT080 09/07 Q1014=
200801171645 METAR LIRA 171645Z 19003KT 9999 FEW020 SCT080 11/08 Q1014=
200801171615 METAR LIRA 171615Z /////KT 9999 FEW018 11/07 Q1013=
200801171545 METAR LIRA 171545Z /////KT 9999 FEW018 SCT070 12/08 Q1013=
200801171515 METAR LIRA 171515Z /////KT 9999 FEW018 SCT070 12/08 Q1012=
200801171445 METAR LIRA 171445Z /////KT 9999 FEW015 SCT025 12/08 Q1012=
200801171415 METAR LIRA 171415Z /////KT 9999 SCT015 BKN023 12/09 Q1012=
200801171345 METAR LIRA 171345Z /////KT 9999 SCT015 BKN023 12/09 Q1012=
200801171315 METAR LIRA 171315Z /////KT 9999 SCT015 BKN023 11/09 Q1011=
200801171245 METAR LIRA 171245Z /////KT 9999 SCT015 BKN023 11/09 Q1011=
200801171215 METAR LIRA 171215Z /////KT 9999 FEW015 BKN025 11/09 Q1011=
200801171145 METAR LIRA 171145Z /////KT 7000 FEW012 SCT025 BKN060 10/09
                        Q1011=
200801171115 METAR LIRA 171115Z /////KT 6000 -RA SCT003 BKN023 11/10 Q1011=
200801171045 METAR LIRA 171045Z /////KT 5000 -RA SCT005 BKN023 12/08 Q1010=
200801171015 METAR LIRA 171015Z /////KT 3500 -RA SCT005 BKN025 12/08 Q1010=
200801171000 METAR LIRA INTER=
200801170945 METAR LIRA 170945Z /////KT 7000 -RA FEW015 BKN025 12/08 Q1010=
200801170845 METAR LIRA 170845Z /////KT 9000 FEW015 BKN025 12/09 Q1009=
200801170815 METAR LIRA 170815Z /////KT 9000 FEW015 BKN025 11/09 Q1009=
200801170745 METAR LIRA 170745Z /////KT 8000 FEW015 SCT025 10/09 Q1009=
200801170715 METAR LIRA 170715Z /////KT 7000 FEW009 BKN023 10/09 Q1009
                        RERA=
200801170645 METAR LIRA 170645Z /////KT 7000 -RA FEW009 BKN023 11/10 Q1008
                        RERA=
200801170615 METAR LIRA 170615Z /////KT 5000 RA BR FEW013 SCT023 BKN070
                        11/10 Q1008 RERA=
200801170545 METAR LIRA 170545Z /////KT 6000 -RA FEW013 SCT023 BKN070
                        11/10 Q1007 RERA=
200801170515 METAR LIRA 170515Z /////KT 6000 RA SCT013 BKN023 11/10 Q1007=
200801170445 METAR LIRA 170445Z /////KT 8000 -RA SCT025 SCT070 11/10 Q1007=
200801170415 METAR LIRA 170415Z /////KT 8000 -RA SCT025 SCT070 11/09 Q1007=
200801170345 METAR LIRA 170345Z /////KT 8000 -RA SCT025 SCT070 11/09 Q1007=
200801170315 METAR LIRA 170315Z /////KT 7000 -RA SCT025 SCT070 11/10 Q1007=
200801170245 METAR LIRA 170245Z /////KT 7000 -RA SCT025 SCT070 11/10 Q1007=
200801170215 METAR LIRA 170215Z /////KT 6000 -RA BKN025 SCT070 11/10 Q1007=
200801170145 METAR LIRA 170145Z /////KT 6000 -RA BKN025 SCT070 11/08 Q1007=
200801170115 METAR LIRA 170115Z /////KT 8000 -RA BKN025 SCT060 11/08 Q1007=
200801170045 METAR LIRA 170045Z /////KT 8000 -RA SCT020 BKN030 11/08 Q1008=
200801170015 METAR LIRA 170015Z /////KT 9999 SCT025 SCT060 11/08 Q1008=
200801162345 METAR LIRA 162345Z /////KT 9999 SCT025 SCT060 11/08 Q1008=
200801162315 METAR LIRA 162315Z /////KT 9999 SCT025 SCT060 11/08 Q1008=
200801162245 METAR LIRA 162245Z /////KT 9999 FEW020 SCT030 11/09 Q1009=
200801162215 METAR LIRA 162215Z /////KT 9999 -DZ FEW020 SCT030 11/09 Q1009=
200801162145 METAR LIRA 162145Z /////KT 9999 -DZ FEW020 SCT030 11/10 Q1009=
200801162115 METAR LIRA 162115Z /////KT 7000 -RA FEW004 SCT023 11/10 Q1009=
200801162045 METAR LIRA 162045Z /////KT 7000 -RA FEW005 SCT025 10/10 Q1009=
200801162015 METAR LIRA 162015Z /////KT 7000 -RA FEW015 SCT025 BKN060
                        10/10 Q1010=
200801161945 METAR LIRA 161945Z /////KT 7000 -RA FEW010 SCT025 10/10 Q1010=
200801161915 METAR LIRA 161915Z /////KT 7000 -RA FEW010 SCT025 10/09 Q1010=
200801161845 METAR LIRA 161845Z /////KT 7000 -RA FEW015 SCT025 10/09 Q1010=
200801161815 METAR LIRA 161815Z /////KT 7000 -RA FEW015 SCT025 10/08 Q1010=
200801161745 METAR LIRA 161745Z /////KT 7000 -RA FEW015 SCT025 10/08 Q1010=
200801161715 METAR LIRA 161715Z /////KT 7000 -RA FEW015 SCT025 BKN060
                        10/08 Q1010=
200801161645 METAR LIRA 161645Z /////KT 5000 -RA BR FEW015 SCT025 BKN060
                        10/07 Q1011=
200801161615 METAR LIRA 161615Z /////KT 5000 -RA BR FEW015 SCT025 BKN060
                        10/07 Q1011=
200801161545 METAR LIRA 161545Z /////KT 5000 -RA BR SCT015 BKN060 11/08
                        Q1011=
200801161515 METAR LIRA 161515Z /////KT 9999 -DZ SCT015 BKN070 11/08 Q1011=
200801161445 METAR LIRA 161445Z /////KT 9999 SCT015 BKN070 12/08 Q1011=
200801161415 METAR LIRA 161415Z /////KT 9999 SCT015 BKN070 12/08 Q1011=
200801161345 METAR LIRA 161345Z /////KT 9999 SCT015 BKN070 11/08 Q1012=
200801161315 METAR LIRA 161315Z /////KT 9999 SCT015 BKN070 12/08 Q1012=
200801161245 METAR LIRA 161245Z /////KT 9999 FEW015 SCT025 BKN070 12/08
                        Q1012=
200801161215 METAR LIRA 161215Z /////KT 9999 FEW015 SCT025 BKN070 12/08
                        Q1013=
200801161145 METAR LIRA 161145Z /////KT 9999 FEW015 SCT025 BKN070 12/08
                        Q1014=
200801161115 METAR LIRA 161115Z /////KT 9999 FEW015 SCT025 BKN070 12/08
                        Q1014=
200801161045 METAR LIRA 161045Z /////KT 9999 SCT015 SCT070 12/08 Q1014=
200801161015 METAR LIRA 161015Z /////KT 9999 SCT015 SCT070 11/08 Q1014=
200801160945 METAR LIRA 160945Z /////KT 9999 SCT015 SCT070 11/08 Q1015=
200801160915 METAR LIRA 160915Z /////KT 9999 FEW015 SCT080 11/08 Q1015=
200801160845 METAR LIRA 160845Z /////KT 9999 FEW015 SCT070 11/08 Q1015=
200801160815 METAR LIRA 160815Z /////KT 9999 FEW015 SCT080 10/07 Q1015=
200801160800 METAR LIRA CONTUS RETS=
200801160745 METAR LIRA 160745Z /////KT 9999 FEW015 SCT070 10/07 Q1015=
200801160715 METAR LIRA 160715Z /////KT 9999 FEW015 SCT080 07/05 Q1015=
200801160645 METAR LIRA 160645Z /////KT 9999 FEW015 SCT080 06/05 Q1015=
200801160615 METAR LIRA 160615Z /////KT 9999 FEW015 SCT200 06/05 Q1015=
200801160545 METAR LIRA 160545Z /////KT 9999 FEW015 07/05 Q1015=
200801160515 METAR LIRA 160515Z /////KT 9999 FEW020 07/05 Q1015=
200801160445 METAR LIRA 160445Z /////KT 9999 FEW030 08/07 Q1016=
200801160415 METAR LIRA 160415Z /////KT 9999 SCT030 10/07 Q1016=
200801160345 METAR LIRA 160345Z /////KT 9999 SCT030 10/07 Q1016=
200801160315 METAR LIRA 160315Z /////KT 9999 SCT030 SCT070 09/07 Q1016=
200801160245 METAR LIRA 160245Z /////KT 9999 SCT030 09/07 Q1016=
200801160215 METAR LIRA 160215Z /////KT 9999 FEW030 SCT070 10/07 Q1016=
200801160145 METAR LIRA 160145Z /////KT 9999 FEW030 10/08 Q1016=
200801152345 METAR LIRA 152345Z /////KT 9999 FEW030 09/07 Q1017=
200801152315 METAR LIRA 152315Z /////KT 9999 FEW030 09/07 Q1017=
200801152245 METAR LIRA 152245Z /////KT 9999 SCT030 SCT060 10/08 Q1017=
200801152215 METAR LIRA 152215Z /////KT 9999 SCT030 10/08 Q1017=
200801152145 METAR LIRA 152145Z /////KT 9999 FEW025 SCT060 10/08 Q1018=
200801152115 METAR LIRA 152115Z /////KT 9999 FEW025 10/08 Q1018=
200801152045 METAR LIRA 152045Z /////KT 9999 FEW025 10/08 Q1018=
200801152015 METAR LIRA 152015Z /////KT 9999 FEW025 SCT070 10/08 Q1018=
200801151945 METAR LIRA 151945Z /////KT 9999 FEW025 SCT070 10/08 Q1018=
200801151915 METAR LIRA 151915Z /////KT 9999 SCT030 SCT070 10/08 Q1018=
200801151845 METAR LIRA 151845Z /////KT 9999 SCT025 SCT070 10/09 Q1018=
200801151815 METAR LIRA 151815Z /////KT 8000 -DZ SCT025 SCT070 10/08 Q1018=
200801151745 METAR LIRA 151745Z /////KT 8000 -DZ SCT025 SCT060 10/08 Q1018=
200801151715 METAR LIRA 151715Z /////KT 6000 RA SCT010 BKN025 10/08 Q1018=
200801151645 METAR LIRA 151645Z /////KT 6000 -RA FEW007 SCT025 BKN070
                        11/09 Q1018=
200801151615 METAR LIRA 151615Z /////KT 7000 -RA FEW010 SCT025 BKN070
                        11/08 Q1017=
200801151545 METAR LIRA 151545Z /////KT 8000 FEW015 SCT025 BKN070 11/08
                        Q1017=
200801151515 METAR LIRA 151515Z /////KT 8000 -RA FEW015 SCT025 BKN070
                        11/07 Q1017=
200801151445 METAR LIRA 151445Z /////KT 8000 -RA FEW015 SCT025 BKN070
                        10/07 Q1017=
200801151415 METAR LIRA 151415Z /////KT 8000 -RA FEW020 SCT025 BKN070
                        11/07 Q1018=
200801151345 METAR LIRA 151345Z /////KT 9999 -DZ FEW020 SCT025 BKN070
                        11/05 Q1018=
200801151315 METAR LIRA 151315Z /////KT 9999 FEW020 SCT030 BKN070 12/05
                        Q1018=
200801151245 METAR LIRA 151245Z /////KT 9999 SCT030 SCT070 11/05 Q1018=
200801151215 METAR LIRA 151215Z /////KT 9999 FEW030 BKN070 11/05 Q1019=
200801151145 METAR LIRA 151145Z /////KT 9999 FEW030 BKN070 11/05 Q1019=
200801151115 METAR LIRA 151115Z /////KT 9999 FEW030 SCT070 BKN090 11/05
                        Q1020=
200801151045 METAR LIRA 151045Z /////KT 9999 FEW030 SCT070 12/06 Q1020=
200801151015 METAR LIRA 151015Z /////KT 9999 FEW030 SCT070 12/06 Q1020=
200801150945 METAR LIRA 150945Z /////KT 9999 FEW030 SCT070 10/04 Q1021=
200801150915 METAR LIRA 150915Z /////KT 9999 FEW030 SCT070 10/05 Q1021=
200801150845 METAR LIRA 150845Z /////KT 9999 FEW030 SCT070 09/05 Q1021=
200801150815 METAR LIRA 150815Z /////KT 9999 FEW030 SCT070 09/05 Q1021=
200801150745 METAR LIRA 150745Z /////KT 9999 FEW030 SCT070 07/04 Q1020=
200801150715 METAR LIRA 150715Z /////KT 9999 FEW030 SCT070 06/04 Q1020=
200801150645 METAR LIRA 150645Z /////KT 9999 FEW030 SCT070 06/04 Q1020=
200801150615 METAR LIRA 150615Z /////KT 9999 FEW030 SCT070 05/03 Q1020=
200801150545 METAR LIRA 150545Z /////KT 9999 FEW030 SCT070 04/02 Q1020=
200801150515 METAR LIRA 150515Z /////KT 9999 FEW070 04/02 Q1020=
200801150445 METAR LIRA 150445Z /////KT 9999 FEW070 04/02 Q1021=
200801150415 METAR LIRA 150415Z /////KT CAVOK 05/02 Q1021=
200801150345 METAR LIRA 150345Z /////KT CAVOK 05/03 Q1021=
200801150315 METAR LIRA 150315Z /////KT CAVOK 05/03 Q1021=
200801150245 METAR LIRA 150245Z /////KT CAVOK 05/03 Q1021=
200801150215 METAR LIRA 150215Z /////KT CAVOK 05/02 Q1021=
200801150145 METAR LIRA 150145Z /////KT CAVOK 05/02 Q1021=
200801150115 METAR LIRA 150115Z /////KT CAVOK 05/02 Q1021=
200801150045 METAR LIRA 150045Z /////KT CAVOK 05/03 Q1022=
200801150015 METAR LIRA 150015Z /////KT 9999 FEW070 05/03 Q1022=
200801142345 METAR LIRA 142345Z /////KT 9999 FEW070 05/02 Q1022=
200801142315 METAR LIRA 142315Z /////KT 9999 FEW070 05/03 Q1022=
200801142245 METAR LIRA 142245Z /////KT 9999 FEW070 05/03 Q1022=
200801142215 METAR LIRA 142215Z /////KT 9999 FEW070 05/03 Q1022=
200801142145 METAR LIRA 142145Z /////KT CAVOK 05/03 Q1022=
200801142115 METAR LIRA 142115Z /////KT CAVOK 05/03 Q1022=
200801142045 METAR LIRA 142045Z /////KT CAVOK 05/03 Q1022=
200801142015 METAR LIRA 142015Z /////KT CAVOK 05/03 Q1022=
200801141945 METAR LIRA 141945Z /////KT CAVOK 05/03 Q1022=
200801141915 METAR LIRA 141915Z /////KT CAVOK 06/03 Q1022=
200801141845 METAR LIRA 141845Z /////KT CAVOK 06/04 Q1022=
200801141815 METAR LIRA 141815Z /////KT CAVOK 06/03 Q1022=
200801141745 METAR LIRA 141745Z /////KT 9999 FEW070 SCT200 07/03 Q1021=
200801141715 METAR LIRA 141715Z /////KT 9999 FEW070 SCT200 08/03 Q1021=
200801141645 METAR LIRA 141645Z /////KT 9999 FEW024 BKN200 09/03 Q1021=
200801141615 METAR LIRA 141615Z /////KT 9999 FEW024 BKN200 10/03 Q1021=
200801141545 METAR LIRA 141545Z /////KT 9999 FEW024 BKN200 11/02 Q1020=
200801141515 METAR LIRA 141515Z /////KT 9999 FEW024 BKN200 11/02 Q1020=
200801141445 METAR LIRA 141445Z /////KT 9999 FEW020 SCT200 10/02 Q1020=
200801141415 METAR LIRA 141415Z /////KT 9999 FEW020 SCT200 10/02 Q1020=
200801141345 METAR LIRA 141345Z /////KT 9999 FEW020 SCT200 11/03 Q1020=
200801141315 METAR LIRA 141315Z /////KT 9999 FEW020 SCT200 10/03 Q1020=
200801141245 METAR LIRA 141245Z /////KT 9999 FEW020 10/03 Q1020=
200801141215 METAR LIRA 141215Z /////KT 9999 FEW020 09/03 Q1020=
200801141145 METAR LIRA 141145Z /////KT 9999 FEW020 08/03 Q1021=
200801141115 METAR LIRA 141115Z /////KT 9999 FEW020 08/03 Q1021=
200801141045 METAR LIRA 141045Z /////KT 9999 FEW020 07/03 Q1021=
200801141015 METAR LIRA 141015Z /////KT 9999 FEW020 06/03 Q1021=
200801140945 METAR LIRA 140945Z /////KT 9999 FEW020 04/03 Q1021=
200801140915 METAR LIRA 140915Z /////KT CAVOK 04/03 Q1021=
200801140845 METAR LIRA 140845Z /////KT CAVOK 02/02 Q1021=
200801140815 METAR LIRA 140815Z /////KT CAVOK 02/02 Q1021=
200801140745 METAR LIRA 140745Z /////KT CAVOK 01/01 Q1020=
200801140715 METAR LIRA 140715Z /////KT CAVOK 00/00 Q1020=
200801140645 METAR LIRA 140645Z /////KT CAVOK 01/01 Q1020=
200801140615 METAR LIRA 140615Z /////KT CAVOK 01/01 Q1020=
200801140545 METAR LIRA 140545Z /////KT 8000 SKC 01/01 Q1020=
200801140515 METAR LIRA 140515Z /////KT 8000 SKC 00/00 Q1019=
200801140445 METAR LIRA 140445Z /////KT 9000 SKC 01/01 Q1019=
200801140415 METAR LIRA 140415Z /////KT 9000 SKC 01/01 Q1019=
200801140345 METAR LIRA 140345Z /////KT CAVOK 01/01 Q1019=
200801140315 METAR LIRA 140315Z /////KT CAVOK 01/01 Q1019=
200801140245 METAR LIRA 140245Z /////KT CAVOK 02/01 Q1019=
200801140215 METAR LIRA 140215Z /////KT CAVOK 03/02 Q1019=
200801140145 METAR LIRA 140145Z /////KT CAVOK 03/02 Q1019=
200801140015 METAR LIRA 140015Z /////KT CAVOK 03/01 Q1018=
200801132345 METAR LIRA 132345Z /////KT CAVOK 04/03 Q1018=
200801132315 METAR LIRA 132315Z /////KT CAVOK 04/03 Q1018=
200801132245 METAR LIRA 132245Z /////KT CAVOK 04/02 Q1018=
200801132215 METAR LIRA 132215Z /////KT CAVOK 04/02 Q1018=
200801132145 METAR LIRA 132145Z /////KT CAVOK 04/02 Q1018=
200801132115 METAR LIRA 132115Z /////KT CAVOK 04/02 Q1018=
200801132045 METAR LIRA 132045Z /////KT CAVOK 04/02 Q1017=
200801132015 METAR LIRA 132015Z /////KT 9999 FEW070 05/03 Q1017=
200801131945 METAR LIRA 131945Z /////KT 9999 FEW070 05/03 Q1017=
200801131915 METAR LIRA 131915Z /////KT 9999 FEW070 05/02 Q1017=
200801131845 METAR LIRA 131845Z /////KT 9999 FEW020 06/02 Q1017=
200801131815 METAR LIRA 131815Z /////KT 9999 FEW020 06/03 Q1016=
200801131745 METAR LIRA 131745Z /////KT 9999 FEW020 06/02 Q1016=
200801131715 METAR LIRA 131715Z /////KT 9999 FEW020 06/02 Q1016=
200801131645 METAR LIRA 131645Z /////KT 9999 FEW020 SCT030 07/02 Q1016=
200801131615 METAR LIRA 131615Z /////KT 9999 FEW020 SCT030 07/02 Q1016=
200801131545 METAR LIRA 131545Z /////KT 9999 FEW020 SCT080 08/03 Q1016=
200801131515 METAR LIRA 131515Z /////KT 9999 FEW020 SCT200 08/03 Q1015=
200801131445 METAR LIRA 131445Z /////KT 9999 FEW020 SCT200 08/03 Q1015=
200801131415 METAR LIRA 131415Z /////KT 9999 FEW020 SCT090 08/03 Q1015=
200801131345 METAR LIRA 131345Z /////KT 9999 FEW020 SCT090 08/05 Q1015=
200801131315 METAR LIRA 131315Z /////KT 9999 FEW020 SCT090 07/04 Q1015=
200801131245 METAR LIRA 131245Z /////KT 9000 -RA FEW013 FEW018CB SCT030
                        07/04 Q1016=
200801131215 METAR LIRA 131215Z /////KT 8000 -RA FEW007 FEW018CB SCT025
                        08/03 Q1016=
200801131145 METAR LIRA 131145Z /////KT 7000 -RA FEW004 FEW018CB SCT025
                        08/03 Q1016=
200801131115 METAR LIRA 131115Z /////KT 7000 -RA SCT003 SCT018CB 08/03
                        Q1016=
200801131045 METAR LIRA 131045Z /////KT 9999 FEW016 FEW018CB SCT025 09/04
                        Q1016=
200801131015 METAR LIRA 131015Z /////KT 9999 FEW016 FEW018CB SCT080 08/04
                        Q1016=
200801130945 METAR LIRA 130945Z /////KT 9999 FEW015 SCT200 07/03 Q1016=
200801130915 METAR LIRA 130915Z /////KT 9999 FEW015 SCT070 07/06 Q1016=
200801130845 METAR LIRA 130845Z /////KT 9999 FEW015 SCT070 06/05 Q1016=
200801130815 METAR LIRA 130815Z /////KT 9999 FEW015 SCT070 05/04 Q1016=
200801130745 METAR LIRA 130745Z /////KT 8000 -RA FEW015 FEW018CB SCT070
                        05/03 Q1016=
200801130715 METAR LIRA 130715Z /////KT 8000 -RA SCT013 FEW018CB SCT025
                        05/03 Q1015=
200801130645 METAR LIRA 130645Z /////KT 8000 -RA SCT013 BKN023 05/03 Q1014=
200801130615 METAR LIRA 130615Z /////KT 9999 FEW014 SCT025 BKN070 05/03
                        Q1014=
200801130545 METAR LIRA 130545Z /////KT 9999 FEW014 SCT025 BKN070 06/04
                        Q1013=
200801130515 METAR LIRA 130515Z /////KT 9999 -RA FEW014 SCT025 BKN070
                        06/04 Q1013=
200801130445 METAR LIRA 130445Z /////KT 9999 -RA SCT014 BKN025 06/04 Q1013=
200801130415 METAR LIRA 130415Z /////KT 9999 -RA SCT014 BKN025 06/04 Q1013=
200801130345 METAR LIRA 130345Z /////KT 9999 -RA SCT014 BKN025 06/04 Q1013=
200801130315 METAR LIRA 130315Z /////KT 9999 -RA SCT014 BKN025 06/05 Q1013=
200801130245 METAR LIRA 130245Z /////KT 9999 -RA SCT010 BKN025 07/05 Q1013=
200801130215 METAR LIRA 130215Z /////KT 9999 -RA SCT010 SCT025 07/05 Q1012=
200801130145 METAR LIRA 130145Z /////KT 9999 -RA SCT010 SCT025 07/02 Q1012=
200801130115 METAR LIRA 130115Z /////KT 9999 SCT010 BKN025 07/05 Q1012=
200801130045 METAR LIRA 130045Z /////KT 9999 -RA SCT010 SCT025 07/05 Q1012=
200801130015 METAR LIRA 130015Z /////KT 9999 SCT010 07/04 Q1012=
200801122350 METAR LIRA 130045Z /////KT 9999 -RA SCT010 SCT025 07/05 Q1012=
200801122345 METAR LIRA 122345Z /////KT 9999 FEW005 07/05 Q1012=
200801122315 METAR LIRA 122315Z /////KT 9999 FEW015 SCT070 07/04 Q1012=
200801122245 METAR LIRA 122245Z /////KT 9999 FEW015 SCT070 08/05 Q1012=
200801122215 METAR LIRA 122215Z /////KT 9999 FEW014 SCT070 07/05 Q1012=
200801122145 METAR LIRA 122145Z /////KT 9999 FEW014 SCT030 09/07 Q1012=
200801122115 METAR LIRA 122115Z /////KT 9999 FEW014 SCT030 09/07 Q1012=
200801122045 METAR LIRA 122045Z /////KT 9999 FEW005 SCT025 09/06 Q1012=
200801122015 METAR LIRA 122015Z /////KT 9999 FEW005 SCT025 09/07 Q1012
                        RERA=
200801121945 METAR LIRA 121945Z /////KT 9999 -RA FEW005 FEW020CB SCT030
                        09/07 Q1012=
200801121915 METAR LIRA 121915Z /////KT 9999 -RA FEW005 FEW017CB SCT030
                        09/07 Q1012=
200801121845 METAR LIRA 121845Z /////KT 9999 FEW005 FEW020CB SCT070 09/07
                        Q1012=
200801121815 METAR LIRA 121815Z /////KT 9999 FEW005 FEW020CB SCT070 09/07
                        Q1012 RERA=
200801121745 METAR LIRA 121745Z /////KT 9999 FEW005 FEW020CB SCT070 09/07
                        Q1011 RERA=
200801121715 METAR LIRA 121715Z /////KT 9999 -RA SCT005 FEW015CB BKN020
                        09/08 Q1010=
200801121645 METAR LIRA 121645Z /////KT 5000 -RA SCT002 FEW015CB BKN020
                        09/07 Q1010=
200801121615 METAR LIRA 121615Z /////KT 4000 -RA BR SCT002 FEW015CB BKN020
                        10/08 Q1009 RERA=
200801121545 METAR LIRA 121545Z /////KT 5000 -RA BR SCT004 FEW015CB BKN022
                        11/09 Q1009 RERA=
200801121515 METAR LIRA 121515Z /////KT 3000 -SHRA SCT007 FEW015CB BKN022
                        12/10 Q1009=
200801121445 METAR LIRA 121445Z /////KT 7000 -RA SCT007 FEW015CB BKN022
                        12/10 Q1009=
200801121415 METAR LIRA 121415Z /////KT 7000 SCT007 FEW015CB BKN022 13/11
                        Q1009 RETS=
200801121345 METAR LIRA 121345Z /////KT 4000 -TSRA BKN002 SCT012CB 12/10
                        Q1010=
200801121315 METAR LIRA 121315Z 17022KT 3000 -TSRA SCT003 FEW015CB BKN020
                        13/11 Q1010=
200801121245 METAR LIRA 121245Z 17023KT 3000 -SHRA SCT003 FEW015CB BKN020
                        13/11 Q1010 RERA=
200801121215 METAR LIRA 121215Z 17014KT 130V210 8000 -SHRA SCT006 FEW015CB
                        SCT022 13/10 Q1012=
200801121145 METAR LIRA 121145Z 17024G34KT 8000 SCT010 FEW015CB SCT025
                        13/11 Q1012=
200801121115 METAR LIRA 121115Z 17024G35KT 6000 SCT010 FEW015CB SCT025
                        13/11 Q1013=
200801121045 METAR LIRA 121045Z 17020KT 130V210 6000 -RA SCT008 FEW015CB
                        SCT025 13/11 Q1013=
200801121015 METAR LIRA 121015Z 16022KT 7000 -RA SCT008 FEW015CB SCT022
                        12/10 Q1014 WS RWY 15=
200801120945 METAR LIRA 120945Z 18023G33KT 130V220 5000 RA BR SCT007 FEW015CB
                        SCT022 12/10 Q1014=
200801120915 METAR LIRA 120915Z 17015KT 150V220 7000 SCT010 FEW015CB SCT022
                        12/10 Q1014=
200801120845 METAR LIRA 120845Z 17019KT 120V210 5000 -RA BR SCT004 FEW015CB
                        SCT022 12/10 Q1015=
200801120815 METAR LIRA 120815Z 16016G26KT 130V210 5000 -RA SCT004 FEW015CB
                        SCT022 12/10 Q1015=
200801120745 METAR LIRA 120745Z 18016KT 4000 -RA BR SCT004 FEW015CB SCT022
                        12/10 Q1015 WS RWY 15=
200801120715 METAR LIRA 120715Z 17015G26KT 140V220 5000 -RA BR SCT004
                        FEW015CB SCT022 12/10 Q1015 RERA
                        WS RWY 15=
200801120645 METAR LIRA 120645Z 16014KT 6000 -RA SCT007 FEW015CB SCT025
                        12/10 Q1015 RERA=
200801120615 METAR LIRA 120615Z 17016G26KT 7000 -RA SCT015 BKN025 12/10
                        Q1015=
200801120545 METAR LIRA 120545Z 17012KT 130V210 7000 -RA SCT015 BKN025
                        12/10 Q1015=
200801120515 METAR LIRA 120515Z 15022KT 7000 -RA SCT015 BKN025 12/10 Q1016=
200801120445 METAR LIRA 120445Z 18012KT 130V210 7000 -RA SCT016 SCT025
                        12/10 Q1016=
200801120415 METAR LIRA 120415Z 17018KT 7000 RA SCT015 SCT025 12/10 Q1016=
200801120345 METAR LIRA 120345Z 17017KT 8000 -RA SCT020 SCT030 12/10 Q1017=
200801120315 METAR LIRA 120315Z 17018KT 8000 FEW020 SCT030 13/10 Q1017=
200801120245 METAR LIRA 120245Z 17017KT 130V200 8000 FEW020 BKN030 13/10
                        Q1017=
200801120215 METAR LIRA 120215Z 19012KT 8000 FEW020 BKN030 13/10 Q1018=
200801120145 METAR LIRA 120145Z 18014KT 8000 FEW020 SCT030 13/10 Q1018=
200801120115 METAR LIRA 120115Z 16014KT 8000 FEW020 SCT030 13/10 Q1018=
200801120045 METAR LIRA 120045Z 17014KT 7000 -DZ FEW015 BKN025 13/11 Q1019=
200801120015 METAR LIRA 120015Z 17016KT 7000 -DZ FEW015 BKN025 13/11 Q1019=
200801112345 METAR LIRA 112345Z 18015KT 7000 FEW015TCU BKN025 13/11 Q1019=
200801112315 METAR LIRA 112315Z 19011KT 140V210 8000 FEW015TCU BKN025
                        13/11 Q1019=
200801112245 METAR LIRA 112245Z 18012KT 7000 -DZ FEW015TCU SCT025 13/10
                        Q1020=
200801112215 METAR LIRA 112215Z 17013KT 7000 -DZ FEW015TCU SCT025 13/10
                        Q1020=
200801112145 METAR LIRA 112145Z 18011KT 7000 SCT020 SCT070 13/11 Q1020=
200801112115 METAR LIRA 112115Z 18010KT 7000 FEW015 SCT025 13/11 Q1020=
200801112045 METAR LIRA 112045Z 17012KT 7000 -DZ FEW015 BKN025 13/10 Q1020=
200801112015 METAR LIRA 112015Z 17011KT 8000 FEW016 SCT025 13/10 Q1020=
200801111945 METAR LIRA 111945Z 18012KT 7000 FEW015 BKN025 13/10 Q1020=
200801111915 METAR LIRA 111915Z 17009KT 130V220 8000 FEW016 SCT025 13/10
                        Q1020=
200801111845 METAR LIRA 111845Z 17011KT 140V200 8000 FEW016 SCT025 13/10
                        Q1020=
200801111815 METAR LIRA 111815Z 17008KT 8000 FEW015 SCT025 13/10 Q1020=
200801111745 METAR LIRA 111745Z 17009KT 8000 FEW015 BKN025 12/10 Q1020=
200801111715 METAR LIRA 111715Z 17007KT 130V200 8000 FEW015 SCT025 12/10
                        Q1020=
200801111645 METAR LIRA 111645Z 17010KT 8000 FEW016 SCT025 12/10 Q1020=
200801111615 METAR LIRA 111615Z 18009KT 150V210 8000 FEW016 SCT025 BKN070
                        12/10 Q1020=
200801111545 METAR LIRA 111545Z 17011KT 8000 FEW016 SCT025 BKN070 13/10
                        Q1020=
200801111515 METAR LIRA 111515Z 17007KT 8000 FEW016 SCT025 BKN070 13/10
                        Q1021=
200801111445 METAR LIRA 111445Z 17011KT 8000 FEW016 SCT025 BKN070 13/10
                        Q1021=
200801111415 METAR LIRA 111415Z 16010KT 8000 -DZ FEW009 SCT016 BKN025
                        13/09 Q1021=
200801111345 METAR LIRA 111345Z 18009KT 120V210 8000 SCT015 BKN025 13/09
                        Q1021=
200801111315 METAR LIRA 111315Z 17008KT 8000 FEW009 SCT016 BKN025 14/10
                        Q1021=
200801111245 METAR LIRA 111245Z 17008KT 120V210 8000 FEW009 SCT016 BKN025
                        13/10 Q1022=
200801111215 METAR LIRA 111215Z 18009KT 130V200 8000 FEW009 SCT016 BKN025
                        13/10 Q1022=
200801111145 METAR LIRA 111145Z 16005KT 130V210 8000 -DZ FEW009 SCT016
                        BKN025 13/10 Q1022=
200801111115 METAR LIRA 111115Z 17009KT 8000 FEW009 SCT016 BKN025 13/10
                        Q1023=
200801111045 METAR LIRA 111045Z 17008KT 8000 FEW009 SCT016 BKN060 14/11
                        Q1023=
200801111015 METAR LIRA 111015Z 17009KT 120V240 7000 FEW009 SCT015 14/11
                        Q1023=
200801110945 METAR LIRA 110945Z 18009KT 160V210 5000 BR FEW008 BKN060
                        14/11 Q1023=
200801110915 METAR LIRA 110915Z 18010KT 130V210 5000 BR FEW008 SCT013
                        13/11 Q1023=
200801110845 METAR LIRA 110845Z 18009KT 150V220 5000 BR SCT013 SCT025
                        13/11 Q1023=
200801110815 METAR LIRA 110815Z 18006KT 120V210 5000 BR SCT013 SCT023
                        12/10 Q1023=
200801110745 METAR LIRA 110745Z 17003KT 4000 BR SCT013 BKN023 12/10 Q1023=
200801110715 METAR LIRA 110715Z 18005KT 7000 SCT013 BKN023 12/10 Q1023=
200801110645 METAR LIRA 110645Z 17006KT 6000 SCT013 BKN023 12/10 Q1023=
200801110615 METAR LIRA 110615Z 17005KT 8000 SCT013 BKN023 12/10 Q1022=
200801110545 METAR LIRA 110545Z 16007KT 8000 FEW015 BKN025 12/10 Q1023=
200801110515 METAR LIRA 110515Z 17005KT 8000 FEW007 SCT025 BKN070 12/10
                        Q1023=
200801110445 METAR LIRA 110445Z 15002KT 8000 FEW007 SCT025 BKN070 11/10
                        Q1023=
200801110415 METAR LIRA 110415Z 00000KT 8000 FEW007 SCT025 BKN070 12/10
                        Q1023=
200801110345 METAR LIRA 110345Z 00000KT 8000 SCT025 SCT070 11/10 Q1023=
200801110315 METAR LIRA 110315Z 00000KT 8000 SCT025 SCT070 11/10 Q1024=
200801110245 METAR LIRA 110245Z 00000KT 8000 SCT025 SCT070 11/10 Q1024=
200801110215 METAR LIRA 110215Z 00000KT 8000 SCT025 SCT070 11/10 Q1024=
200801110145 METAR LIRA 110145Z 00000KT 8000 SCT025 SCT070 11/10 Q1024=
200801110115 METAR LIRA 110115Z 00000KT 8000 SCT025 SCT070 11/10 Q1024=
200801110045 METAR LIRA 110045Z 00000KT 8000 SCT025 SCT070 11/10 Q1024=
200801110015 METAR LIRA 110015Z 00000KT 8000 SCT025 SCT070 11/10 Q1025=
200801102350 METAR LIRA 110045Z 00000KT 8000 SCT025 SCT070 11/10 Q1024=
200801102345 METAR LIRA 102345Z 00000KT 8000 SCT025 SCT070 11/10 Q1025=
200801102315 METAR LIRA 102315Z 00000KT 8000 SCT025 SCT070 11/10 Q1025=
200801102245 METAR LIRA 102245Z 00000KT 7000 -DZ FEW010 BKN025 11/10 Q1025=
200801102215 METAR LIRA 102215Z 00000KT 7000 FEW010 BKN025 11/10 Q1025=
200801102145 METAR LIRA 102145Z 00000KT 7000 FEW010 BKN025 12/10 Q1025=
200801102115 METAR LIRA 102115Z 10002KT 8000 BKN025 SCT070 12/10 Q1025=
200801102045 METAR LIRA 102045Z 17004KT 8000 SCT025 SCT070 12/10 Q1025=
200801102015 METAR LIRA 102015Z 18005KT 8000 -DZ SCT025 SCT070 12/10 Q1025=
200801101945 METAR LIRA 101945Z 17004KT 8000 SCT025 SCT070 12/10 Q1025=
200801101915 METAR LIRA 101915Z 23001KT 8000 FEW010 SCT025 12/10 Q1025=
200801101845 METAR LIRA 101845Z 15002KT 8000 SCT025 SCT070 12/10 Q1025=
200801101815 METAR LIRA 101815Z 19004KT 7000 FEW010 SCT025 BKN070 12/10
                        Q1025=
200801101745 METAR LIRA 101745Z 21005KT 7000 FEW010 SCT025 BKN070 12/10
                        Q1025=
200801101715 METAR LIRA 101715Z 20004KT 6000 FEW010 SCT025 BKN070 12/10
                        Q1025=
200801101645 METAR LIRA 101645Z 24002KT 7000 FEW010 SCT025 BKN070 13/10
                        Q1024=
200801101615 METAR LIRA 101615Z 25002KT 7000 FEW010 SCT025 BKN070 13/10
                        Q1024=
200801101545 METAR LIRA 101545Z 00000KT 7000 -RA FEW010 SCT025 BKN070
                        13/09 Q1024=
200801101515 METAR LIRA 101515Z 22001KT 7000 -RA FEW010 SCT025 BKN070
                        13/09 Q1024=
200801101445 METAR LIRA 101445Z 18004KT 8000 FEW010 BKN027 13/09 Q1024=
200801101415 METAR LIRA 101415Z 08002KT 8000 FEW010 BKN027 14/09 Q1024=
200801101345 METAR LIRA 101345Z 07003KT 9999 FEW018 SCT030 BKN080 14/09
                        Q1024=
200801101315 METAR LIRA 101315Z 20002KT 9999 FEW018 SCT030 14/09 Q1024=
200801101245 METAR LIRA 101245Z 21003KT 9999 FEW018 SCT030 BKN080 13/09
                        Q1025=
200801101215 METAR LIRA 101215Z 21004KT 9999 FEW018 SCT030 BKN080 13/09
                        Q1025=
200801101145 METAR LIRA 101145Z 00000KT 9999 FEW018 SCT030 BKN080 13/09
                        Q1025=
200801101115 METAR LIRA 101115Z 02002KT 9999 FEW018 BKN080 13/09 Q1025=
200801101045 METAR LIRA 101045Z 00000KT 9999 FEW018 BKN080 12/09 Q1025=
200801101015 METAR LIRA 101015Z 01001KT 9999 FEW018 BKN080 12/09 Q1025=
200801100945 METAR LIRA 100945Z 05002KT 9999 FEW018 BKN080 10/08 Q1025=
200801100915 METAR LIRA 100915Z 04001KT 9999 FEW018 BKN080 10/08 Q1025=
200801100845 METAR LIRA 100845Z 00000KT 9999 FEW030 BKN080 10/08 Q1025=
200801100815 METAR LIRA 100815Z 03002KT 9999 FEW030 BKN080 10/08 Q1025=
200801100745 METAR LIRA 100745Z 36002KT 9999 FEW030 BKN080 10/08 Q1025=
200801100715 METAR LIRA 100715Z 04002KT 9999 FEW030 BKN080 10/08 Q1024=
200801100645 METAR LIRA 100645Z 36001KT 9999 FEW030 BKN070 10/08 Q1024=
200801100615 METAR LIRA 100615Z 15003KT 9999 FEW030 BKN070 10/08 Q1024=
200801100545 METAR LIRA 100545Z 23002KT 9999 FEW030 BKN070 10/08 Q1024=
200801100515 METAR LIRA 100515Z 00000KT 9999 FEW030 BKN070 10/08 Q1024=
200801100445 METAR LIRA 100445Z 14001KT 9999 FEW030 BKN070 10/08 Q1024=
200801100415 METAR LIRA 100415Z 15002KT 9999 FEW030 BKN070 10/08 Q1024=
200801100345 METAR LIRA 100345Z 00000KT 9999 FEW030 BKN070 10/08 Q1024=
200801100315 METAR LIRA 100315Z 03002KT 9999 FEW010 SCT030 09/08 Q1024=
200801100245 METAR LIRA 100245Z 00000KT 9999 FEW010 SCT030 09/08 Q1024=
200801100215 METAR LIRA 100215Z 00000KT 9999 FEW010 SCT030 09/08 Q1024=
200801100145 METAR LIRA 100145Z 00000KT 9999 FEW030 SCT070 09/08 Q1024=
200801100115 METAR LIRA 100115Z 15004KT 9999 FEW030 SCT070 09/08 Q1024=
200801100045 METAR LIRA 100045Z 16004KT 9999 FEW030 SCT070 09/08 Q1024=
200801100015 METAR LIRA 100015Z 12002KT 9999 FEW030 SCT070 09/08 Q1024=
200801092345 METAR LIRA 092345Z 11003KT 9999 SCT070 08/07 Q1024=
200801092315 METAR LIRA 092315Z 12002KT 9999 SCT070 08/07 Q1024=
200801092245 METAR LIRA 092245Z 18002KT 9999 SCT070 10/08 Q1024=
200801092215 METAR LIRA 092215Z 00000KT 9999 SCT070 10/08 Q1024=
200801092145 METAR LIRA 092145Z 32002KT 9999 SCT070 10/08 Q1024=
200801092115 METAR LIRA 092115Z 14002KT 9999 SCT070 10/08 Q1024=
200801092045 METAR LIRA 092045Z 12004KT 9999 FEW070 11/08 Q1024=
200801092015 METAR LIRA 092015Z 14005KT 9999 FEW070 11/09 Q1024=
200801091945 METAR LIRA 091945Z 13005KT 9999 FEW070 SCT200 10/08 Q1024=
200801091915 METAR LIRA 091915Z 14006KT 9999 FEW070 SCT200 10/08 Q1024=
200801091845 METAR LIRA 091845Z 19002KT 9999 FEW070 SCT200 11/08 Q1023=
200801091815 METAR LIRA 091815Z 15005KT 9999 FEW070 SCT200 12/09 Q1023=
200801091745 METAR LIRA 091745Z 16007KT 9999 FEW070 BKN200 12/08 Q1023=
200801091715 METAR LIRA 091715Z 19004KT 9999 FEW070 BKN200 12/08 Q1023=
200801091645 METAR LIRA 091645Z 20003KT 9999 FEW030 SCT080 BKN200 12/07
                        Q1023=
200801091615 METAR LIRA 091615Z 22003KT 9999 FEW030 SCT080 BKN200 13/07
                        Q1022=
200801091545 METAR LIRA 091545Z 19005KT 9999 SCT030 BKN070 13/07 Q1022=
200801091515 METAR LIRA 091515Z 18004KT 9999 SCT030 BKN070 14/07 Q1022=
200801091445 METAR LIRA 091445Z 19004KT 9999 SCT030 BKN070 14/07 Q1022=
200801091415 METAR LIRA 091415Z 20004KT 9999 FEW020 SCT070 15/07 Q1022=
200801091345 METAR LIRA 091345Z 20007KT 9999 FEW020 SCT030 BKN200 15/07
                        Q1022=
200801091315 METAR LIRA 091315Z 20007KT 9999 FEW020 SCT030 16/08 Q1022=
200801091245 METAR LIRA 091245Z 02006KT 9999 FEW020 SCT030 16/08 Q1022=
200801091215 METAR LIRA 091215Z 25002KT 9999 FEW020 SCT030 15/08 Q1023=
200801091145 METAR LIRA 091145Z 32001KT 9999 FEW020 SCT030 14/09 Q1023=
200801091115 METAR LIRA 091115Z 01003KT 9999 FEW020 SCT030 BKN200 13/09
                        Q1023=
200801091045 METAR LIRA 091045Z 34002KT 9999 FEW020 BKN200 12/09 Q1023=
200801091015 METAR LIRA 091015Z 34003KT 9999 FEW020 BKN200 12/09 Q1023=
200801090945 METAR LIRA 090945Z 00000KT 9999 FEW017 BKN200 11/09 Q1023=
200801090915 METAR LIRA 090915Z 00000KT 9999 FEW015 SCT030 10/09 Q1023=
200801090845 METAR LIRA 090845Z 00000KT 9999 FEW015 BKN030 09/08 Q1023=
200801090815 METAR LIRA 090815Z 00000KT 9999 FEW015 BKN030 08/07 Q1023=
200801090745 METAR LIRA 090745Z 00000KT 9999 FEW013 BKN030 07/07 Q1023=
200801090715 METAR LIRA 090715Z 00000KT 9999 FEW013 BKN030 07/06 Q1023=
200801090645 METAR LIRA 090645Z 00000KT 9999 7000N FEW013 BKN025 07/06
                        Q1023=
200801090615 METAR LIRA 090615Z 00000KT 9999 FEW023 BKN025 07/06 Q1023=
200801090545 METAR LIRA 090545Z 00000KT 6000 FEW013 BKN025 07/06 Q1023=
200801090515 METAR LIRA 090515Z 00000KT 6000 FEW013 BKN025 07/06 Q1023=
200801090445 METAR LIRA 090445Z 00000KT 6000 FEW013 BKN025 07/05 Q1023=
200801090415 METAR LIRA 090415Z 04001KT 5000 BR BKN013 07/05 Q1023=
200801090345 METAR LIRA 090345Z 04001KT 5000 BR BKN013 07/05 Q1023=
200801090315 METAR LIRA 090315Z 31001KT 5000 BR FEW003 BKN013 07/05 Q1023=
200801090245 METAR LIRA 090245Z 01002KT 5000 BR FEW003 BKN013 06/05 Q1023=
200801090215 METAR LIRA 090215Z 36002KT 3000 BR BKN002 07/05 Q1023=
200801090145 METAR LIRA 090145Z 17001KT 6000 FEW070 07/05 Q1023=
200801090115 METAR LIRA 090115Z 17001KT 6000 FEW070 07/05 Q1023=
200801090045 METAR LIRA 090045Z 12002KT 6000 FEW070 07/05 Q1023=
200801090015 METAR LIRA 090015Z 11002KT 6000 FEW070 07/05 Q1023=
200801082350 METAR LIRA 090045Z 12002KT 6000 FEW070 07/05 Q1023=
200801082345 METAR LIRA 082345Z 16002KT 6000 FEW070 08/06 Q1023=
200801082315 METAR LIRA 082315Z 12004KT 6000 FEW070 08/06 Q1023=
200801082245 METAR LIRA 082245Z 13004KT 6000 FEW025 08/06 Q1023=
200801082215 METAR LIRA 082215Z 15003KT 6000 FEW025 08/06 Q1023=
200801082145 METAR LIRA 082145Z 14002KT 6000 FEW025 SCT070 09/07 Q1023=
200801082115 METAR LIRA 082115Z 16003KT 6000 FEW025 SCT070 09/07 Q1022=
200801082045 METAR LIRA 082045Z 11003KT 8000 FEW025 SCT070 09/07 Q1023=
200801082015 METAR LIRA 082015Z 00000KT 7000 FEW025 09/07 Q1023=
200801081945 METAR LIRA 081945Z 12005KT 7000 FEW070 09/07 Q1023=
200801081915 METAR LIRA 081915Z 00000KT 7000 FEW025 10/08 Q1023=
200801081845 METAR LIRA 081845Z 00000KT 7000 FEW025 10/08 Q1022=
200801081815 METAR LIRA 081815Z 00000KT 7000 FEW013 11/08 Q1022=
200801081745 METAR LIRA 081745Z 00000KT 7000 FEW013 11/09 Q1022=
200801081715 METAR LIRA 081715Z 00000KT 7000 SCT013 SCT025 12/09 Q1022=
200801081645 METAR LIRA 081645Z 24003KT 7000 FEW018 BKN025 14/10 Q1022=
200801081615 METAR LIRA 081615Z 00000KT 9999 FEW018 BKN025 14/09 Q1022=
200801081545 METAR LIRA 081545Z 06002KT 9999 FEW018 SCT030 14/10 Q1022=
200801081515 METAR LIRA 081515Z 04004KT 9999 FEW018 15/10 Q1022=
200801081445 METAR LIRA 081445Z 05004KT 9999 FEW016 15/10 Q1022=
200801081415 METAR LIRA 081415Z 04005KT 9999 FEW015 16/10 Q1022=
200801081345 METAR LIRA 081345Z 00000KT 9999 FEW015 15/10 Q1022=
200801081315 METAR LIRA 081315Z 00000KT 9999 FEW015 15/11 Q1022=
200801081245 METAR LIRA 081245Z 00000KT 9999 FEW015 14/11 Q1023=
200801081215 METAR LIRA 081215Z 00000KT 9999 FEW015 13/11 Q1023=
200801081145 METAR LIRA 081145Z 00000KT 8000 FEW015 12/10 Q1023=
200801081115 METAR LIRA 081115Z 00000KT 6000 FEW015 SCT023 12/10 Q1023=
200801081045 METAR LIRA 081045Z 02002KT 4500 BR FEW004 SCT015 11/09 Q1023=
200801081015 METAR LIRA 081015Z 02004KT 5000 BR SCT003 10/09 Q1023=
200801080945 METAR LIRA 080945Z 36003KT 6000 SCT003 10/09 Q1023=
200801080915 METAR LIRA 080915Z 36002KT 5000 BR SCT003 09/08 Q1022=
200801080845 METAR LIRA 080845Z 01004KT 4500 BR FEW003 09/08 Q1022=
200801080815 METAR LIRA 080815Z 02001KT 2000 BR FEW002 08/07 Q1022=
200801080745 METAR LIRA 080745Z 04001KT 6000 SKC 07/06 Q1022=
200801080715 METAR LIRA 080715Z 04002KT 6000 SKC 07/06 Q1021=
200801080645 METAR LIRA 080645Z 00000KT 2500 MIFG SKC 07/07 Q1021=
200801080615 METAR LIRA 080615Z 06002KT 7000 FEW070 08/07 Q1021=
200801080545 METAR LIRA 080545Z 00000KT 8000 FEW030 SCT070 08/07 Q1020=
200801080515 METAR LIRA 080515Z 00000KT 8000 FEW030 SCT070 07/07 Q1020=
200801080445 METAR LIRA 080445Z 09002KT 8000 FEW010 BKN070 09/09 Q1020=
200801080415 METAR LIRA 080415Z 00000KT 6000 FEW010 SCT070 08/08 Q1020=
200801080345 METAR LIRA 080345Z 00000KT 6000 FEW010 SCT070 08/08 Q1020=
200801080315 METAR LIRA 080315Z 00000KT 6000 FEW004 SCT070 08/08 Q1020=
200801080245 METAR LIRA 080245Z 00000KT 6000 FEW004 SCT070 08/07 Q1020=
200801080215 METAR LIRA 080215Z 00000KT 7000 FEW004 SCT070 08/07 Q1020=
200801080145 METAR LIRA 080145Z 00000KT 7000 FEW002 08/07 Q1020=
200801080115 METAR LIRA 080115Z 17002KT 3000 BR BKN002 08/07 Q1020=
200801080045 METAR LIRA 080045Z 00000KT 0400 FG BKN002 08/07 Q1020=
200801080015 METAR LIRA 080015Z 00000KT 0800 BCFG BKN003 08/07 Q1020=
200801072345 METAR LIRA 072345Z 06003KT 0900 BCFG BKN003 08/07 Q1020=
200801072315 METAR LIRA 072315Z 00000KT 7000 FEW070 09/08 Q1020=
200801072245 METAR LIRA 072245Z 00000KT 8000 FEW070 08/07 Q1020=
200801072215 METAR LIRA 072215Z 00000KT 8000 FEW070 09/08 Q1020=
200801072145 METAR LIRA 072145Z 13003KT 8000 FEW070 10/09 Q1020=
200801072115 METAR LIRA 072115Z 12005KT 8000 FEW070 10/09 Q1020=
200801072045 METAR LIRA 072045Z 12005KT 7000 FEW004 10/09 Q1020=
200801072015 METAR LIRA 072015Z 09004KT 7000 FEW004 SCT070 10/08 Q1020=
200801071945 METAR LIRA 071945Z 13004KT 9999 FEW030 SCT070 10/09 Q1020=
200801071915 METAR LIRA 071915Z 13004KT 9999 FEW030 SCT070 11/09 Q1020=
200801071845 METAR LIRA 071845Z 20004KT 9999 SCT070 12/10 Q1020=
200801071815 METAR LIRA 071815Z 20007KT 9999 SCT070 12/10 Q1019=
200801071745 METAR LIRA 071745Z 18007KT 9999 SCT060 12/10 Q1019=
200801071715 METAR LIRA 071715Z 20006KT 160V240 9999 BKN060 12/10 Q1019=
200801071645 METAR LIRA 071645Z 20006KT 8000 FEW015 BKN070 12/10 Q1019=
200801071615 METAR LIRA 071615Z 19006KT 8000 FEW015 SCT200 13/10 Q1019=
200801071545 METAR LIRA 071545Z 19006KT 8000 FEW013 SCT200 13/10 Q1019=
200801071515 METAR LIRA 071515Z 18006KT 8000 FEW013 SCT020 13/11 Q1019=
200801071445 METAR LIRA 071445Z 18007KT 8000 FEW013 SCT020 14/11 Q1019=
200801071415 METAR LIRA 071415Z 19007KT 150V240 8000 SCT013 BKN020 14/12
                        Q1019=
200801071345 METAR LIRA 071345Z 19007KT 8000 SCT013 BKN020 14/12 Q1020=
200801071315 METAR LIRA 071315Z 19006KT 150V220 8000 FEW008 SCT013 BKN020
                        14/12 Q1020=
200801071245 METAR LIRA 071245Z 19007KT 150V230 8000 FEW008 BKN020 14/12
                        Q1020=
200801071215 METAR LIRA 071215Z 19006KT 150V230 8000 FEW013 SCT023 16/14
                        Q1020=
200801071145 METAR LIRA 071145Z 18007KT 150V230 8000 FEW013 SCT023 14/12
                        Q1020=
200801071115 METAR LIRA 071115Z 18006KT 8000 FEW013 SCT023 BKN070 14/12
                        Q1020=
200801071045 METAR LIRA 071045Z 18009KT 8000 FEW013 SCT023 BKN060 14/12
                        Q1020=
200801071015 METAR LIRA 071015Z 17009KT 8000 FEW015 SCT025 BKN060 14/12
                        Q1021=
200801070945 METAR LIRA 070945Z 17010KT 9999 FEW015 SCT025 14/12 Q1021=
200801070915 METAR LIRA 070915Z 18009KT 130V210 9999 FEW015 SCT025 14/12
                        Q1021=
200801070845 METAR LIRA 070845Z 11002KT 9999 FEW015 SCT025 12/11 Q1021=
200801070815 METAR LIRA 070815Z 00000KT 9999 SCT015 SCT023 BKN060 11/10
                        Q1021=
200801070745 METAR LIRA 070745Z 00000KT 9999 SCT015 BKN023 10/09 Q1021=
200801070715 METAR LIRA 070715Z 00000KT 9999 SCT013 BKN020 10/09 Q1020=
200801070645 METAR LIRA 070645Z 04001KT 9999 SCT013 BKN020 10/09 Q1020=
200801070615 METAR LIRA 070615Z 00000KT 9999 SCT013 BKN020 10/09 Q1020=
200801070545 METAR LIRA 070545Z 00000KT 9999 FEW015 SCT070 09/08 Q1020=
200801070515 METAR LIRA 070515Z 00000KT 9999 FEW015 SCT070 09/08 Q1020=
200801070445 METAR LIRA 070445Z 00000KT 9999 FEW017 SCT023 09/08 Q1020=
200801070415 METAR LIRA 070415Z 01002KT 9999 FEW017 SCT023 09/08 Q1020=
200801070345 METAR LIRA 070345Z 00000KT 9999 FEW018 09/07 Q1020=
200801070315 METAR LIRA 070315Z 00000KT 9999 FEW018 09/08 Q1020=
200801070245 METAR LIRA 070245Z 00000KT 9999 FEW023 09/08 Q1020=
200801070215 METAR LIRA 070215Z 00000KT 9999 FEW023 10/08 Q1020=
200801070145 METAR LIRA 070145Z 00000KT 9999 FEW015 SCT023 10/08 Q1020=
200801070115 METAR LIRA 070115Z 00000KT 9999 SCT025 SCT070 10/08 Q1020=
200801070015 METAR LIRA 070015Z 14001KT 9999 SCT023 SCT070 10/09 Q1020=
200801062345 METAR LIRA 062345Z 00000KT 9999 SCT023 SCT070 11/09 Q1020=
200801062315 METAR LIRA 062315Z 00000KT 9999 SCT023 SCT070 12/10 Q1020=
200801062245 METAR LIRA 062245Z 13005KT 9999 SCT023 SCT070 12/10 Q1020=
200801062215 METAR LIRA 062215Z 16006KT 9999 FEW018 SCT025 12/10 Q1020=
200801062145 METAR LIRA 062145Z 17006KT 9999 FEW018 SCT030 12/10 Q1020=
200801062115 METAR LIRA 062115Z 15009KT 120V190 9999 FEW018 SCT025 12/11
                        Q1020=
200801062045 METAR LIRA 062045Z 18005KT 9999 FEW018 SCT025 12/10 Q1020=
200801062015 METAR LIRA 062015Z 16006KT 9999 FEW018 SCT025 12/10 Q1020=
200801061945 METAR LIRA 061945Z 18007KT 150V220 7000 FEW018 SCT025 12/10
                        Q1019=
200801061915 METAR LIRA 061915Z 17008KT 130V200 7000 FEW018 SCT025 12/10
                        Q1019=
200801061845 METAR LIRA 061845Z 17008KT 7000 FEW018 SCT025 12/10 Q1019=
200801061815 METAR LIRA 061815Z 17008KT 7000 FEW018 SCT025 BKN070 12/10
                        Q1019=
200801061745 METAR LIRA 061745Z 16007KT 7000 FEW018 SCT025 BKN070 12/09
                        Q1019=
200801061715 METAR LIRA 061715Z 15008KT 7000 FEW018 SCT025 BKN070 13/09
                        Q1019=
200801061645 METAR LIRA 061645Z 17009KT 8000 FEW018 SCT025 BKN070 13/09
                        Q1019=
200801061615 METAR LIRA 061615Z 17010KT 8000 FEW018 SCT025 BKN070 13/09
                        Q1018=
200801061545 METAR LIRA 061545Z 18010KT 140V200 9000 FEW018 SCT025 BKN070
                        13/09 Q1018=
200801061515 METAR LIRA 061515Z 17007KT 120V220 9000 FEW018 SCT025 BKN070
                        13/09 Q1018=
200801061445 METAR LIRA 061445Z 19006KT 9000 FEW018 BKN070 12/09 Q1018=
200801061415 METAR LIRA 061415Z 19009KT 8000 FEW018 BKN070 12/09 Q1019=
200801061345 METAR LIRA 061345Z 18008KT 8000 FEW018 BKN070 12/09 Q1019=
200801061315 METAR LIRA 061315Z 20008KT 150V220 8000 FEW018 BKN070 12/10
                        Q1019 RERA=
200801061245 METAR LIRA 061245Z 20006KT 150V220 8000 -RA FEW013 BKN070
                        12/10 Q1019=
200801061215 METAR LIRA 061215Z 18008KT 7000 -RA SCT013 SCT018 BKN070
                        12/10 Q1019=
200801061145 METAR LIRA 061145Z 21008KT 4000 -RA BR SCT013 SCT018 BKN070
                        12/10 Q1019=
200801061115 METAR LIRA 061115Z 20009KT 6000 -RA SCT013 SCT018 BKN070
                        13/11 Q1019=
200801061045 METAR LIRA 061045Z 19004KT 4000 -RA BR SCT013 SCT018 BKN070
                        13/11 Q1020=
200801061015 METAR LIRA 061015Z 19008KT 170V240 6000 -RA BR SCT013 SCT018
                        BKN070 12/11 Q1019=
200801060945 METAR LIRA 060945Z 19009KT 150V250 6000 -RA BR SCT013 SCT018
                        BKN070 12/11 Q1019=
200801060915 METAR LIRA 060915Z 21011G21KT 150V250 5000 -RA BR SCT013
                        BKN018 12/11 Q1019=
200801060845 METAR LIRA 060845Z 20008KT 150V240 5000 -RA BR SCT013 SCT018
                        BKN070 12/11 Q1019=
200801060815 METAR LIRA 060815Z 20008KT 170V240 5000 -RA BR SCT013 SCT018
                        BKN070 12/11 Q1019=
200801060745 METAR LIRA 060745Z 19009KT 5000 -RA BR SCT013 SCT018 BKN070
                        12/11 Q1019=
200801060715 METAR LIRA 060715Z 18009KT 5000 -RA BR SCT013 SCT018 BKN070
                        12/10 Q1019=
200801060645 METAR LIRA 060645Z 18008KT 5000 -RA BR SCT013 SCT018 BKN070
                        12/10 Q1019=
200801060615 METAR LIRA 060615Z 19010KT 6000 -RA FEW013 SCT018 BKN070
                        12/10 Q1019=
200801060545 METAR LIRA 060545Z 18009KT 9000 FEW013 SCT018 12/10 Q1019=
200801060515 METAR LIRA 060515Z 18009KT 9000 SCT020 SCT060 12/09 Q1020=
200801060445 METAR LIRA 060445Z 18010KT 160V220 9999 SCT020 SCT060 12/10
                        Q1020=
200801060415 METAR LIRA 060415Z 17008KT 8000 -RA SCT020 SCT060 12/10 Q1020=
200801060345 METAR LIRA 060345Z 17011KT 9999 FEW020 SCT060 12/10 Q1020=
200801060315 METAR LIRA 060315Z 18010KT 9999 FEW020 SCT060 12/10 Q1020=
200801060245 METAR LIRA 060245Z 16010KT 9999 FEW020 SCT060 11/09 Q1021=
200801060215 METAR LIRA 060215Z 17009KT 9999 SCT030 SCT060 11/09 Q1021=
200801060145 METAR LIRA 060145Z 17009KT 9999 SCT040 SCT060 11/09 Q1021=
200801060115 METAR LIRA 060115Z 16007KT 8000 -DZ SCT030 SCT060 11/09 Q1021=
200801060045 METAR LIRA 060045Z 19006KT 160V230 9999 SCT035 SCT060 10/08
                        Q1021=
200801060015 METAR LIRA 060015Z 15007KT 9999 FEW025 SCT060 09/07 Q1021=
200801052345 METAR LIRA 052345Z 16005KT 9999 FEW060 10/08 Q1021=
200801052315 METAR LIRA 052315Z 17005KT 9999 FEW020 10/08 Q1021=
200801052245 METAR LIRA 052245Z 17004KT 9999 FEW070 11/09 Q1021=
200801052215 METAR LIRA 052215Z 20006KT 9999 FEW070 11/09 Q1021=
200801052145 METAR LIRA 052145Z 17006KT 9999 FEW060 11/09 Q1021=
200801052115 METAR LIRA 052115Z 17007KT 9999 FEW020 SCT060 11/09 Q1021=
200801052045 METAR LIRA 052045Z 17006KT 8000 FEW015 BKN060 11/10 Q1021=
200801052015 METAR LIRA 052015Z 16009KT 8000 SCT020 SCT060 11/09 Q1021=
200801051945 METAR LIRA 051945Z 17009KT 7000 SCT020 SCT060 11/10 Q1020=
200801051915 METAR LIRA 051915Z 17006KT 7000 -RA FEW015 SCT025 BKN045
                        11/09 Q1020=
200801051845 METAR LIRA 051845Z 00000KT 7000 -DZ FEW015 SCT025 BKN050
                        10/09 Q1020=
200801051815 METAR LIRA 051815Z 33004KT 5000 -RA FEW010 SCT020 BKN035
                        10/09 Q1020=
200801051745 METAR LIRA 051745Z 05003KT 7000 -DZ FEW010 SCT020 BKN035
                        10/09 Q1020=
200801051715 METAR LIRA 051715Z 08004KT 7000 -RA FEW010 SCT020 BKN030
                        10/09 Q1020=
200801051645 METAR LIRA 051645Z 07005KT 8000 -RA SCT010 FEW020CB BKN026
                        10/09 Q1020=
200801051615 METAR LIRA 051615Z 10007KT 5000 -TSRA BR SCT010 FEW020CB
                        BKN023 10/09 Q1020=
200801051545 METAR LIRA 051545Z 12003KT 5000 -TSRA BR SCT010 FEW020CB
                        BKN023 10/09 Q1020=
200801051515 METAR LIRA 051515Z 00000KT 5000 -RA BR SCT010 FEW020CB BKN025
                        11/09 Q1020 RETS=
200801051445 METAR LIRA 051445Z /////KT 6000 SCT010 FEW020CB BKN025 11/09
                        Q1020=
200801051415 METAR LIRA 051415Z 08006KT 060V130 8000 -RA FEW010 FEW020CB
                        SCT025 BKN070 11/09 Q1020 RETS=
200801051345 METAR LIRA 051345Z 21013KT 170V270 3000 TSRA BR SCT010 FEW020CB
                        BKN025 11/09 Q1020=
200801051315 METAR LIRA 051315Z 28002KT 4000 TSRA BR SCT015 FEW020CB BKN025
                        12/09 Q1020=
200801051245 METAR LIRA 051245Z 25005KT 9999 -RA FEW020 SCT030 BKN070
                        13/09 Q1020=
200801051215 METAR LIRA 051215Z 24009G19KT 180V300 9999 -RA FEW020 SCT030
                        BKN070 14/09 Q1020=
200801051145 METAR LIRA 051145Z 17011KT 120V200 9999 -RA FEW020 SCT030
                        BKN070 15/09 Q1020=
200801051115 METAR LIRA 051115Z 16013KT 9999 FEW020 SCT030 BKN070 15/09
                        Q1020=
200801051045 METAR LIRA 051045Z 17008KT 160V230 9999 FEW020 BKN070 15/09
                        Q1020=
200801051015 METAR LIRA 051015Z 16014KT 9999 FEW020 BKN070 15/10 Q1020=
200801050945 METAR LIRA 050945Z 15014KT 9999 FEW020 BKN070 15/11 Q1020=
200801050915 METAR LIRA 050915Z 15014KT 9999 FEW020 BKN070 14/10 Q1020=
200801050845 METAR LIRA 050845Z 16013KT 9999 FEW020 BKN070 14/10 Q1020=
200801050815 METAR LIRA 050815Z 15011KT 9999 FEW020 BKN070 14/10 Q1019=
200801050745 METAR LIRA 050745Z 14012KT 9999 FEW020 BKN070 14/09 Q1019=
200801050715 METAR LIRA 050715Z 15011KT 9999 FEW020 BKN070 14/09 Q1019=
200801050645 METAR LIRA 050645Z 14014KT 9999 FEW020 SCT026 BKN070 14/09
                        Q1019=
200801050615 METAR LIRA 050615Z 14016KT 9999 FEW020 BKN070 14/09 Q1019=
200801050545 METAR LIRA 050545Z 14015KT 110V180 9999 FEW020 BKN070 14/09
                        Q1019=
200801050515 METAR LIRA 050515Z 15013KT 9999 FEW020 BKN070 14/09 Q1018=
200801050445 METAR LIRA 050445Z 14012KT 110V180 9999 FEW020 BKN070 14/09
                        Q1018=
200801050415 METAR LIRA 050415Z 14011KT 9999 FEW020 BKN070 14/08 Q1018=
200801050345 METAR LIRA 050345Z 14012KT 9999 FEW020 BKN070 13/08 Q1018=
200801050315 METAR LIRA 050315Z 13011KT 110V180 9999 FEW020 BKN070 13/08
                        Q1018=
200801050245 METAR LIRA 050245Z 13014KT 110V180 9999 FEW020 BKN070 14/08
                        Q1018=
200801050215 METAR LIRA 050215Z 14006KT 030V210 9999 FEW020 BKN070 12/08
                        Q1019=
200801050145 METAR LIRA 050145Z 26002KT 9999 SCT030 SCT070 10/05 Q1019=
200801050115 METAR LIRA 050115Z 33002KT 9999 SCT030 SCT070 10/05 Q1019=
200801050045 METAR LIRA 050045Z 33001KT 9999 SCT030 SCT070 11/06 Q1019=
200801050015 METAR LIRA 050015Z 01001KT 9999 SCT030 SCT070 12/07 Q1019=
200801042350 METAR LIRA 050045Z 33001KT 9999 SCT030 SCT070 11/06 Q1019=
200801042345 METAR LIRA 042345Z VRB03KT 360V210 9999 SCT030 SCT070 10/05
                        Q1019=
200801042315 METAR LIRA 042315Z 05002KT 9999 SCT030 SCT070 11/05 Q1019=
200801042245 METAR LIRA 042245Z 07002KT 9999 SCT030 SCT070 12/06 Q1018=
200801042215 METAR LIRA 042215Z 05006KT 340V090 9999 SCT030 SCT070 11/05
                        Q1018=
200801042145 METAR LIRA 042145Z 02003KT 9999 SCT030 SCT070 13/07 Q1018=
200801042115 METAR LIRA 042115Z VRB02KT 350V170 9999 SCT030 SCT070 14/08
                        Q1018=
200801042045 METAR LIRA 042045Z 15012KT 120V200 9999 SCT030 SCT070 11/05
                        Q1018=
200801042015 METAR LIRA 042015Z 29003KT 9999 FEW030 SCT070 12/06 Q1017=
200801041945 METAR LIRA 041945Z 08004KT 030V220 9999 FEW070 SCT200 13/07
                        Q1017=
200801041915 METAR LIRA 041915Z 16006KT 080V230 9999 FEW070 SCT200 11/05
                        Q1017=
200801041845 METAR LIRA 041845Z 33002KT 9999 FEW030 SCT100 11/05 Q1017=
200801041815 METAR LIRA 041815Z 06008KT 020V150 9999 FEW030 SCT100 10/04
                        Q1017=
200801041745 METAR LIRA 041745Z 08004KT 040V180 9999 FEW030 SCT070 13/07
                        Q1016=
200801041715 METAR LIRA 041715Z 14009G19KT 100V170 9999 FEW030 SCT070
                        12/05 Q1016=
200801041645 METAR LIRA 041645Z 07006KT 9999 SCT035 SCT070 13/06 Q1017=
200801041615 METAR LIRA 041615Z 12009KT 9999 SCT030 SCT070 13/06 Q1016=
200801041545 METAR LIRA 041545Z 09003KT 9999 SCT035 SCT070 13/06 Q1016=
200801041515 METAR LIRA 041515Z 07004KT 9999 SCT035 SCT070 12/06 Q1016=
200801041445 METAR LIRA 041445Z 13003G13KT 070V200 9999 SCT035 SCT060
                        12/06 Q1015=
200801041415 METAR LIRA 041415Z 36002KT 9999 SCT035 SCT060 12/06 Q1015=
200801041345 METAR LIRA 041345Z 11006KT 9999 SCT035 SCT060 12/05 Q1015=
200801041315 METAR LIRA 041315Z 11011KT 9999 -DZ SCT040 SCT060 12/04 Q1015=
200801041245 METAR LIRA 041245Z 11010KT 9999 -DZ SCT040 SCT060 13/04 Q1015=
200801041215 METAR LIRA 041215Z 10011KT 060V130 9999 SCT045 SCT070 13/04
                        Q1015=
200801041145 METAR LIRA 041145Z 08007KT 030V110 9999 SCT045 SCT060 12/04
                        Q1015=
200801041115 METAR LIRA 041115Z 05007KT 020V100 9999 FEW030 SCT060 BKN200
                        12/03 Q1016=
200801041045 METAR LIRA 041045Z 04007KT 350V080 9999 FEW030 SCT060 BKN200
                        12/04 Q1016=
200801041015 METAR LIRA 041015Z 06006KT 340V120 9999 FEW030 SCT070 BKN200
                        11/03 Q1016=
200801040945 METAR LIRA 040945Z 13002KT 9999 FEW030 SCT060 10/03 Q1016=
200801040915 METAR LIRA 040915Z 10006KT 040V130 9999 SCT060 SCT200 09/03
                        Q1016=
200801040845 METAR LIRA 040845Z 07010KT 040V130 9999 SCT060 SCT200 09/02
                        Q1015=
200801040815 METAR LIRA 040815Z 09009KT 040V120 9999 FEW060 SCT180 08/02
                        Q1015=
200801040745 METAR LIRA 040745Z 06009KT 9999 FEW070 SCT200 06/01 Q1015=
200801040715 METAR LIRA 040715Z 10003KT 9999 FEW060 SCT200 06/01 Q1015=
200801040645 METAR LIRA 040645Z 00000KT 9999 FEW070 SCT200 07/01 Q1015=
200801040615 METAR LIRA 040615Z 08006KT 060V120 9999 FEW070 SCT200 07/01
                        Q1015=
200801040545 METAR LIRA 040545Z 09008KT 060V130 9999 FEW070 SCT200 06/01
                        Q1014=
200801040515 METAR LIRA 040515Z 10008KT 9999 FEW070 07/02 Q1014=
200801040445 METAR LIRA 040445Z 08009KT 9999 FEW070 07/02 Q1015=
200801040415 METAR LIRA 040415Z 08007KT 9999 FEW030 SCT070 08/02 Q1015=
200801040345 METAR LIRA 040345Z 08007KT 9999 FEW030 SCT070 08/03 Q1015=
200801040315 METAR LIRA 040315Z 07006KT 9999 FEW030 SCT070 08/03 Q1015=
200801040245 METAR LIRA 040245Z 07005KT 050V110 9999 FEW030 SCT070 08/03
                        Q1015=
200801040215 METAR LIRA 040215Z 07006KT 9999 FEW030 SCT070 08/03 Q1015=
200801040145 METAR LIRA 040145Z 07007KT 9999 FEW030 SCT070 09/03 Q1015=
200801040115 METAR LIRA 040115Z 07008KT 040V100 9999 FEW030 SCT070 09/03
                        Q1015=
200801040045 METAR LIRA 040045Z 07006KT 9999 FEW030 BKN070 09/03 Q1015=
200801040015 METAR LIRA 040015Z 05008KT 010V100 9999 FEW030 BKN070 09/03
                        Q1015=
200801032345 METAR LIRA 032345Z 09006KT 040V150 9999 FEW030 BKN070 09/03
                        Q1015=
200801032315 METAR LIRA 032315Z 09004KT 9999 FEW030 BKN070 08/03 Q1015=
200801032245 METAR LIRA 032245Z 05004KT 040V100 9999 FEW030 BKN070 08/02
                        Q1015=
200801032215 METAR LIRA 032215Z 06006KT 030V100 9999 FEW030 BKN070 09/03
                        Q1015=
200801032145 METAR LIRA 032145Z 13004KT 030V110 9999 SCT030 BKN070 09/03
                        Q1014=
200801032115 METAR LIRA 032115Z 10006KT 050V140 9999 SCT030 BKN070 09/03
                        Q1014=
200801032045 METAR LIRA 032045Z 07005KT 050V120 9999 SCT030 BKN070 09/03
                        Q1014=
200801032015 METAR LIRA 032015Z 09006KT 030V150 9999 SCT030 BKN070 08/03
                        Q1014=
200801031945 METAR LIRA 031945Z 07008KT 9999 FEW030 SCT070 08/03 Q1014=
200801031915 METAR LIRA 031915Z 07007KT 9999 FEW030 SCT070 08/03 Q1014=
200801031845 METAR LIRA 031845Z 08007KT 060V150 9999 FEW030 SCT070 08/03
                        Q1014=
200801031815 METAR LIRA 031815Z 07006KT 9999 FEW030 SCT070 09/03 Q1014=
200801031745 METAR LIRA 031745Z 08007KT 050V180 9999 FEW030 SCT070 10/04
                        Q1014=
200801031715 METAR LIRA 031715Z 10006KT 060V160 9999 FEW018 SCT070 08/04
                        Q1014=
200801031645 METAR LIRA 031645Z 15014KT 9999 FEW020 SCT070 08/04 Q1014=
200801031615 METAR LIRA 031615Z 10006KT 060V150 9999 FEW020 SCT070 08/04
                        Q1014=
200801031545 METAR LIRA 031545Z 09006KT 060V150 9999 FEW020 SCT070 08/04
                        Q1013=
200801031515 METAR LIRA 031515Z 10007KT 9999 FEW020 SCT070 09/04 Q1013=
200801031445 METAR LIRA 031445Z 09009KT 040V170 9999 FEW020 SCT070 09/04
                        Q1013=
200801031415 METAR LIRA 031415Z 09009KT 9999 FEW020 SCT070 11/05 Q1013=
200801031345 METAR LIRA 031345Z 10006KT 9999 FEW020 SCT070 12/06 Q1013=
200801031315 METAR LIRA 031315Z 15016KT 090V180 9999 FEW020 BKN070 11/06
                        Q1013=
200801031245 METAR LIRA 031245Z 12007KT 090V160 9999 FEW020 SCT035 BKN080
                        11/06 Q1013=
200801031215 METAR LIRA 031215Z 06006KT 360V120 9999 FEW020 SCT035 BKN080
                        10/06 Q1013=
200801031145 METAR LIRA 031145Z 14015KT 9999 FEW020 SCT035 BKN080 10/05
                        Q1014=
200801031115 METAR LIRA 031115Z 15016KT 090V180 9999 FEW022 SCT035 BKN080
                        11/04 Q1014=
200801031045 METAR LIRA 031045Z 15010KT 9999 FEW022 BKN080 10/03 Q1014=
200801031015 METAR LIRA 031015Z 13010KT 060V170 9999 FEW022 BKN080 08/00
                        Q1014=
200801030945 METAR LIRA 030945Z 06007KT 020V100 9999 FEW022 BKN080 08/00
                        Q1014=
200801030915 METAR LIRA 030915Z 07008KT 030V120 9999 FEW020 BKN070 07/M01
                        Q1015=
200801030845 METAR LIRA 030845Z 07010KT 040V110 9999 FEW020 BKN070 07/M01
                        Q1015=
200801030815 METAR LIRA 030815Z 07008KT 040V110 9999 FEW020 SCT030 BKN070
                        07/M01 Q1015=
200801030745 METAR LIRA 030745Z 08007KT 060V120 9999 FEW020 SCT030 BKN070
                        07/M01 Q1014=
200801030715 METAR LIRA 030715Z 11009KT 9999 FEW020 SCT030 BKN070 07/M01
                        Q1014=
200801030645 METAR LIRA 030645Z 11010KT 060V130 9999 FEW020 SCT030 BKN070
                        07/M01 Q1014=
200801030615 METAR LIRA 030615Z 11013KT 9999 FEW020 SCT030 BKN070 07/M01
                        Q1014=
200801030545 METAR LIRA 030545Z 13010KT 090V210 9999 SCT030 BKN070 07/M01
                        Q1013=
200801030515 METAR LIRA 030515Z 11013KT 9999 -DZ SCT025 SCT070 06/M01
                        Q1013=
200801030445 METAR LIRA 030445Z 04006KT 340V080 9999 SCT025 SCT070 06/M01
                        Q1013=
200801030415 METAR LIRA 030415Z 05006KT 010V080 9999 SCT025 SCT070 06/M01
                        Q1014=
200801030345 METAR LIRA 030345Z 08001KT 9999 SCT025 SCT070 06/M01 Q1014=
200801030315 METAR LIRA 030315Z 08008KT 9999 SCT025 SCT070 06/01 Q1014=
200801030245 METAR LIRA 030245Z 04004KT 9999 SCT030 SCT070 05/M01 Q1014=
200801030215 METAR LIRA 030215Z 03004KT 9999 SCT025 SCT070 05/M01 Q1014=
200801030145 METAR LIRA 030145Z 06004KT 9999 SCT025 SCT070 05/M01 Q1015=
200801030115 METAR LIRA 030115Z 10005KT 030V090 9999 SCT025 SCT070 05/M01
                        Q1015=
200801030045 METAR LIRA 030045Z 08007KT 9999 SCT025 SCT070 05/M01 Q1015=
200801030015 METAR LIRA 030015Z 09006KT 9999 SCT025 SCT070 05/M00 Q1016=
200801022345 METAR LIRA 022345Z 08007KT 9999 -DZ SCT025 SCT070 05/01 Q1016=
200801022315 METAR LIRA 022315Z 10005KT 9999 FEW020 SCT030 05/01 Q1016=
200801022245 METAR LIRA 022245Z 11006KT 9999 FEW020 SCT030 06/01 Q1016=
200801022215 METAR LIRA 022215Z 09003KT 9999 FEW020 SCT030 05/01 Q1017=
200801022145 METAR LIRA 022145Z 10003KT 9999 FEW020 SCT030 05/01 Q1017=
200801022115 METAR LIRA 022115Z 02002KT 9999 FEW020 SCT030 06/01 Q1017=
200801022045 METAR LIRA 022045Z 00000KT 9999 FEW020 SCT030 06/00 Q1017=
200801022015 METAR LIRA 022015Z 10003KT 9999 FEW020 BKN070 06/M00 Q1017=
200801021945 METAR LIRA 021945Z 12003KT 9999 FEW020 BKN070 05/M00 Q1017=
200801021915 METAR LIRA 021915Z 10002KT 9999 FEW020 BKN070 06/00 Q1017=
200801021845 METAR LIRA 021845Z 00000KT 9999 FEW020 BKN070 05/M01 Q1017=
200801021815 METAR LIRA 021815Z 00000KT 9999 FEW020 BKN070 06/M01 Q1017=
200801021745 METAR LIRA 021745Z 00000KT 9999 FEW020 BKN070 06/M01 Q1017=
200801021715 METAR LIRA 021715Z 00000KT 9999 FEW020 BKN070 06/M02 Q1017=
200801021645 METAR LIRA 021645Z 06002KT 9999 FEW017 BKN070 07/M03 Q1017=
200801021615 METAR LIRA 021615Z 07003KT 9999 FEW017 BKN070 07/M02 Q1017=
200801021545 METAR LIRA 021545Z 07001KT 9999 FEW017 BKN070 07/M02 Q1017=
200801021515 METAR LIRA 021515Z 35001KT 9999 FEW030 BKN070 08/M03 Q1017=
200801021445 METAR LIRA 021445Z 01003KT 9999 FEW030 BKN070 08/M03 Q1017=
200801021415 METAR LIRA 021415Z 02002KT 9999 SCT030 BKN070 08/M03 Q1017=
200801021345 METAR LIRA 021345Z 02004KT 9999 FEW030 SCT070 08/M02 Q1017=
200801021315 METAR LIRA 021315Z 03003KT 9999 FEW030 SCT070 08/M02 Q1017=
200801021245 METAR LIRA 021245Z 02004KT 9999 FEW030 SCT070 07/M02 Q1018=
200801021215 METAR LIRA 021215Z 02003KT 9999 FEW030 SCT070 07/M02 Q1018=
200801021145 METAR LIRA 021145Z 03004KT 320V080 9999 FEW030 SCT070 06/M02
                        Q1018=
200801021115 METAR LIRA 021115Z 02004KT 340V090 9999 FEW030 SCT070 06/M02
                        Q1019=
200801021045 METAR LIRA 021045Z 36005KT 340V100 9999 SCT030 06/M01 Q1019=
200801021015 METAR LIRA 021015Z 02005KT 350V080 9999 SCT030 05/M02 Q1019=
200801020945 METAR LIRA 020945Z 01006KT 340V060 9999 SCT030 03/M03 Q1019=
200801020915 METAR LIRA 020915Z 02005KT 010V080 9999 SCT030 02/M03 Q1019=
200801020845 METAR LIRA 020845Z 03006KT 350V060 9999 BKN025 01/M04 Q1019=
200801020815 METAR LIRA 020815Z 04004KT 360V080 9999 SCT025 01/M04 Q1019=
200801020745 METAR LIRA 020745Z 06003KT 9999 SCT025 00/M04 Q1019=
200801020715 METAR LIRA 020715Z 05004KT 9999 SCT025 00/M04 Q1019=
200801020645 METAR LIRA 020645Z 04004KT 9999 SCT025 M00/M04 Q1019=
200801020615 METAR LIRA 020615Z 06004KT 9999 SCT025 SCT060 M00/M04 Q1018=
200801020545 METAR LIRA 020545Z 06004KT 9999 FEW040 M01/M05 Q1018=
200801020515 METAR LIRA 020515Z 05004KT 9999 SCT040 M00/M05 Q1018=
200801020445 METAR LIRA 020445Z 05005KT 9999 BKN070 M00/M05 Q1018=
200801020415 METAR LIRA 020415Z 04004KT 9999 SCT070 M00/M05 Q1018=
200801020345 METAR LIRA 020345Z 03005KT 9999 FEW070 M00/M05 Q1018=
200801020315 METAR LIRA 020315Z 04004KT 9999 FEW070 M00/M05 Q1018=
200801020245 METAR LIRA 020245Z 05004KT 9999 FEW070 M00/M05 Q1018=
200801020215 METAR LIRA 020215Z 04004KT 9999 FEW070 00/M05 Q1018=
200801020145 METAR LIRA 020145Z 07005KT 9999 FEW070 00/M05 Q1018=
200801020115 METAR LIRA 020115Z 06005KT 9999 FEW030 BKN200 01/M05 Q1018=
200801020045 METAR LIRA 020045Z 06005KT 9999 FEW030 BKN200 01/M04 Q1018=
200801020015 METAR LIRA 020015Z 04003KT 9999 SCT030 SCT070 01/M05 Q1018=
200801012345 METAR LIRA 012345Z 03004KT 9999 SCT030 SCT070 01/M05 Q1018=
200801012315 METAR LIRA 012315Z 03003KT 9999 SCT030 SCT070 01/M05 Q1018=
200801012245 METAR LIRA 012245Z 05004KT 9999 SCT030 SCT070 01/M05 Q1018=
200801012215 METAR LIRA 012215Z 04005KT 340V060 9999 SCT070 01/M05 Q1018=
200801012145 METAR LIRA 012145Z 04004KT 9999 SCT070 01/M06 Q1019=
200801012115 METAR LIRA 012115Z 05005KT 9999 SCT070 01/M06 Q1018=
200801012045 METAR LIRA 012045Z 06004KT 9999 FEW080 02/M06 Q1018=
200801012015 METAR LIRA 012015Z 05003KT 9999 FEW080 02/M06 Q1018=
200801011945 METAR LIRA 011945Z 02005KT 340V050 9999 FEW080 03/M06 Q1019=
200801011915 METAR LIRA 011915Z 04004KT 9999 FEW080 03/M06 Q1019=
200801011845 METAR LIRA 011845Z 04006KT 010V080 9999 FEW080 03/M06 Q1019=
200801011815 METAR LIRA 011815Z 05005KT 010V080 9999 FEW080 04/M06 Q1018=
200801011745 METAR LIRA 011745Z 01005KT 9999 FEW080 04/M06 Q1018=
200801011715 METAR LIRA 011715Z 09003KT 9999 FEW080 05/M07 Q1018=
200801011645 METAR LIRA 011645Z 02006KT 330V060 CAVOK 06/M07 Q1017=
200801011615 METAR LIRA 011615Z 35009KT 320V050 CAVOK 07/M07 Q1017=
200801011545 METAR LIRA 011545Z 35007KT 310V040 CAVOK 08/M05 Q1016=
200801011515 METAR LIRA 011515Z 36011KT 310V040 CAVOK 08/M05 Q1016=
200801011445 METAR LIRA 011445Z 36013KT 320V050 CAVOK 09/M07 Q1016=
200801011415 METAR LIRA 011415Z 36011KT 310V050 CAVOK 09/M08 Q1016=
200801011345 METAR LIRA 011345Z 36010KT 320V040 CAVOK 09/M06 Q1016=
200801011315 METAR LIRA 011315Z 35011KT 310V030 CAVOK 09/M06 Q1016=
200801011245 METAR LIRA 011245Z 02010KT 330V060 CAVOK 09/M06 Q1017=
200801011215 METAR LIRA 011215Z 36013KT 330V040 CAVOK 09/M06 Q1017=
200801011145 METAR LIRA 011145Z 02009KT 320V080 CAVOK 08/M05 Q1017=
200801011115 METAR LIRA 011115Z 02009KT 330V070 CAVOK 08/M05 Q1017=
200801011045 METAR LIRA 011045Z 04003KT 350V090 CAVOK 06/M02 Q1018=
200801011015 METAR LIRA 011015Z 06006KT 020V090 CAVOK 05/M02 Q1018=
200801010945 METAR LIRA 010945Z 05004KT CAVOK 05/00 Q1018=
200801010915 METAR LIRA 010915Z 05009KT 350V100 CAVOK 04/M01 Q1018=
200801010845 METAR LIRA 010845Z 05008KT 010V090 CAVOK 03/M01 Q1018=
200801010815 METAR LIRA 010815Z 06008KT 030V090 9999 FEW018 02/M02 Q1018=
200801010745 METAR LIRA 010745Z 07005KT 9999 FEW018 01/M02 Q1018=
200801010715 METAR LIRA 010715Z 06005KT 9999 FEW018 01/M02 Q1018=
200801010645 METAR LIRA 010645Z 08006KT 030V110 9999 FEW018 00/M01 Q1017=
200801010615 METAR LIRA 010615Z 06006KT 030V100 CAVOK 01/M01 Q1017=
200801010545 METAR LIRA 010545Z 08005KT CAVOK 01/M01 Q1017=
200801010515 METAR LIRA 010515Z 05006KT 9999 FEW030 01/M01 Q1017=
200801010445 METAR LIRA 010445Z 05007KT 9999 FEW030 01/M00 Q1017=
200801010415 METAR LIRA 010415Z 07006KT 9999 FEW030 SCT060 01/M00 Q1017=
200801010345 METAR LIRA 010345Z 04005KT 360V090 9999 FEW030 SCT060 01/M01
                        Q1017=
200801010315 METAR LIRA 010315Z 06005KT 8000 FEW030 01/M01 Q1017=
200801010245 METAR LIRA 010245Z 06006KT 8000 FEW060 01/M01 Q1017=
200801010215 METAR LIRA 010215Z 05006KT CAVOK 01/M01 Q1017=
200801010145 METAR LIRA 010145Z 05006KT CAVOK 02/M01 Q1017=
200801010115 METAR LIRA 010115Z 04006KT 360V070 CAVOK 02/M00 Q1017=
200801010045 METAR LIRA 010045Z 05006KT CAVOK 02/M01 Q1017=
200801010015 METAR LIRA 010015Z 06005KT 8000 SKC 03/M01 Q1017=

</pre>

</body>
</html>
