##########################################################
# Query made at 11/10/2014 15:21:41 UTC
# Time interval: from 01/01/2010 00:00  to 01/31/2010 23:59  UTC
##########################################################

##########################################################
# LIRA, Roma / Ciampino (Italy)
# WMO index: 16239
# Latitude 41-47N. Longitude 012-35E. Altitude 129 m.
##########################################################

###################################
#  METAR/SPECI from LIRA
###################################
201001312350 METAR LIRA 010045Z 01003KT 9999 FEW020 00/M02 Q1005=
201001312345 METAR LIRA 312345Z 06003KT 9999 FEW020 01/M01 Q1004=
201001312315 METAR LIRA 312315Z 14001KT 9999 SCT035 SCT070 02/M01 Q1005=
201001312245 METAR LIRA 312245Z 30006KT 270V340 9999 FEW018 SCT030 BKN070
                        02/00 Q1004=
201001312215 METAR LIRA 312215Z 07003KT 9999 SCT035 SCT060 02/M01 Q1004=
201001312145 METAR LIRA 312145Z 08004KT 9999 FEW020 SCT060 01/M01 Q1003=
201001312115 METAR LIRA 312115Z 10004KT 9999 FEW020 SCT045 01/M01 Q1003=
201001312045 METAR LIRA 312045Z 32004KT 9999 FEW020 01/M01 Q1003=
201001312015 METAR LIRA 312015Z 13002KT 9999 FEW020 02/M01 Q1002=
201001311945 METAR LIRA 311945Z 12002KT 9999 FEW018 02/M01 Q1002=
201001311915 METAR LIRA 311915Z 16004KT 9999 FEW018 02/M00 Q1002=
201001311845 METAR LIRA 311845Z 16004KT 9999 FEW018 02/M00 Q1002=
201001311815 METAR LIRA 311815Z 15002KT 9999 FEW018 03/00 Q1001=
201001311745 METAR LIRA 311745Z 15003KT 9999 FEW020 03/00 Q1001=
201001311715 METAR LIRA 311715Z 14006KT 9999 FEW017 03/01 Q1001=
201001311645 METAR LIRA 311645Z 00000KT 9999 FEW018 FEW020CB SCT025 04/00
                        Q1001=
201001311615 METAR LIRA 311615Z 30010KT 9999 -RA FEW018 BKN025 05/00 Q1001=
201001311545 METAR LIRA 311545Z 19002KT 9999 FEW018 BKN025 06/03 Q1000=
201001311515 METAR LIRA 311515Z 16002KT 9999 FEW018 SCT025 06/03 Q0999=
201001311445 METAR LIRA 311445Z 17003KT 9999 FEW018 SCT025 06/02 Q0999=
201001311415 METAR LIRA 311415Z 10004KT 9999 FEW018 SCT025 06/03 Q0999=
201001311345 METAR LIRA 311345Z 12006KT 9999 FEW018 SCT025 05/03 Q0999=
201001311315 METAR LIRA 311315Z 10006KT 9999 FEW018 BKN025 04/03 Q0999=
201001311245 METAR LIRA 311245Z 10007KT 7000 SCT015 SCT025 03/02 Q0999=
201001311215 METAR LIRA 311215Z 07007KT 6000 -RA SCT015 BKN025 03/02 Q0999=
201001311145 METAR LIRA 311145Z 09006KT 6000 SCT015 BKN025 03/02 Q0999=
201001311115 METAR LIRA 311115Z 12006KT 4000 -RA BR SCT015 FEW020CB BKN025
                        04/01 Q0999=
201001311045 METAR LIRA 311045Z 16010G20KT 130V230 6000 -RA BR SCT015
                        FEW020CB BKN025 05/M01 Q0998=
201001311015 METAR LIRA 311015Z 07002KT 9999 SCT015 BKN025 07/01 Q0998=
201001310945 METAR LIRA 310945Z 07002KT 9999 SCT015 BKN025 07/01 Q0998=
201001310915 METAR LIRA 310915Z 34004KT 9999 SCT015 SCT025 07/00 Q0997=
201001310845 METAR LIRA 310845Z 01002KT 9999 SCT018 06/02 Q0997=
201001310815 METAR LIRA 310815Z 08005KT 050V140 9999 SCT018 05/02 Q0997=
201001310745 METAR LIRA 310745Z 08005KT 010V110 9999 SCT018 SCT026 05/02
                        Q0997=
201001310715 METAR LIRA 310715Z 34005KT 9999 SCT018 SCT025 04/02 Q0996=
201001310645 METAR LIRA 310645Z 05004KT 9999 SCT018 SCT025 04/02 Q0996=
201001310615 METAR LIRA 310615Z 35005KT 9999 SCT018 BKN025 05/01 Q0995=
201001310545 METAR LIRA 310545Z 03001KT 9999 SCT018 SCT025 04/01 Q0995=
201001310515 METAR LIRA 310515Z 07003KT 9999 FEW018 SCT025 04/01 Q0995=
201001310445 METAR LIRA 310445Z 15002KT 9999 SCT025 SCT060 03/01 Q0995=
201001310415 METAR LIRA 310415Z 09005KT 9999 FEW025 SCT060 03/01 Q0995=
201001310345 METAR LIRA 310345Z 08003KT 9999 FEW025 04/01 Q0995=
201001310315 METAR LIRA 310315Z 02004KT 9999 FEW018 SCT035 04/02 Q0995=
201001310245 METAR LIRA 310245Z 18006KT 9999 FEW018 SCT035 BKN080 04/03
                        Q0995=
201001310215 METAR LIRA 310215Z 14003KT 9999 FEW018 SCT040 04/03 Q0995=
201001310145 METAR LIRA 310145Z 14003KT 9999 FEW020 SCT070 04/03 Q0994=
201001310115 METAR LIRA 310115Z 18003KT 9999 -RA FEW020 SCT030 BKN060
                        05/03 Q0994=
201001310045 METAR LIRA 310045Z 28007KT 180V340 9999 RA FEW020 SCT030
                        BKN060 05/03 Q0994=
201001302350 METAR LIRA 310045Z 28007KT 180V340 9999 RA FEW020 SCT030
                        BKN060 05/03 Q0994=
201001302345 METAR LIRA 302345Z 07004KT 9999 -RA FEW020 SCT030 BKN060
                        05/03 Q0993=
201001302315 METAR LIRA 302315Z 35002KT 9999 -RA FEW017 SCT030 BKN060
                        06/02 Q0993=
201001302245 METAR LIRA 302245Z 30004KT 9999 FEW017 SCT030 BKN060 06/01
                        Q0992=
201001302215 METAR LIRA 302215Z 32005KT 9999 FEW017 SCT030 06/01 Q0993=
201001302145 METAR LIRA 302145Z 23006KT 170V270 9999 FEW017 06/M01 Q0992=
201001302115 METAR LIRA 302115Z 24007KT 9999 FEW017 SCT030 08/00 Q0992=
201001302045 METAR LIRA 302045Z 24011KT 190V270 9999 FEW017 SCT030 08/M01
                        Q0992=
201001302015 METAR LIRA 302015Z 22006KT 160V260 9999 FEW017 SCT030 08/M01
                        Q0992=
201001301945 METAR LIRA 301945Z 22012KT 170V260 9999 FEW018 07/M01 Q0992=
201001301915 METAR LIRA 301915Z 22008KT 150V260 9999 FEW018 08/M00 Q0991=
201001301845 METAR LIRA 301845Z 22010KT 180V260 9999 FEW018 08/01 Q0991=
201001301815 METAR LIRA 301815Z 21008KT 150V260 9999 FEW017 SCT030 09/03
                        Q0991=
201001301745 METAR LIRA 301745Z 21006KT 100V250 9999 FEW017 09/04 Q0991=
201001301715 METAR LIRA 301715Z 21007KT 160V260 9999 FEW017 SCT030 09/05
                        Q0991=
201001301645 METAR LIRA 301645Z 22011KT 180V260 9999 FEW015 FEW018TCU
                        SCT025 09/05 Q0990=
201001301615 METAR LIRA 301615Z 21008KT 180V260 9999 FEW015 FEW018TCU
                        SCT025 10/05 Q0990=
201001301545 METAR LIRA 301545Z 23011KT 190V260 9999 FEW015 FEW018TCU
                        SCT025 10/06 Q0990=
201001301515 METAR LIRA 301515Z 21010KT 170V250 9999 FEW015 FEW018TCU
                        BKN025 10/05 Q0990=
201001301445 METAR LIRA 301445Z 22007KT 160V260 9999 FEW017TCU BKN025
                        10/05 Q0990=
201001301415 METAR LIRA 301415Z 22010G20KT 160V270 9999 SCT017TCU BKN025
                        10/05 Q0991=
201001301345 METAR LIRA 301345Z 23012KT 200V270 9999 SCT017TCU BKN025
                        11/05 Q0991=
201001301315 METAR LIRA 301315Z 23012KT 180V260 9999 FEW015 FEW020TCU
                        SCT025 11/06 Q0991=
201001301245 METAR LIRA 301245Z 22013KT 160V280 9999 FEW015 FEW018CB SCT025
                        11/06 Q0991=
201001301215 METAR LIRA 301215Z 23011KT 180V280 9999 -RA SCT015 FEW020TCU
                        SCT025 10/06 Q0991 RETS=
201001301145 METAR LIRA 301145Z 22010G20KT 160V260 9999 SCT015 FEW018CB
                        SCT025 10/07 Q0991 RETS=
201001301115 METAR LIRA 301115Z 17007KT 150V230 7000 -TSRA FEW015 FEW018CB
                        BKN025 09/07 Q0991=
201001301045 METAR LIRA 301045Z 26008KT 210V320 4000 RA BR FEW015 FEW018TCU
                        BKN025 10/08 Q0992=
201001301015 METAR LIRA 301015Z 20006KT 150V260 8000 -RA FEW015 FEW018TCU
                        BKN025 10/07 Q0992=
201001301000 METAR LIRA INT, CB SE/SW=
201001300945 METAR LIRA 300945Z 19008G19KT 150V250 9999 SCT015 BKN025
                        10/06 Q0992=
201001300915 METAR LIRA 300915Z 20006KT 160V250 9999 FEW015 BKN027 10/06
                        Q0992=
201001300900 METAR LIRA INT, CB ALL QUADS=
201001300845 METAR LIRA 300845Z 20006KT 140V250 9999 SCT015 BKN025 09/06
                        Q0992=
201001300815 METAR LIRA 300815Z 19007KT 150V250 9999 SCT015 BKN025 09/06
                        Q0992=
201001300745 METAR LIRA 300745Z 19008KT 150V240 9000 -RA FEW017 BKN025
                        09/07 Q0992=
201001300715 METAR LIRA 300715Z 19009KT 130V230 4000 -RA BR FEW017 BKN025
                        08/07 Q0992=
201001300645 METAR LIRA 300645Z 27008KT 210V320 6000 -RA FEW017 BKN025
                        09/07 Q0992=
201001300615 METAR LIRA 300615Z 21008KT 140V270 7000 -RA FEW017 SCT025
                        BKN070 08/07 Q0992=
201001300545 METAR LIRA 300545Z 23005KT 140V260 7000 -RA FEW017 SCT025
                        BKN070 08/07 Q0992=
201001300515 METAR LIRA 300515Z 19007KT 150V250 6000 -RA FEW017 SCT025
                        BKN070 08/07 Q0992=
201001300445 METAR LIRA 300445Z 19008KT 150V230 7000 -RA FEW017 SCT025
                        BKN070 07/05 Q0993=
201001300415 METAR LIRA 300415Z 18004KT 7000 -RA FEW017 SCT025 BKN070
                        07/05 Q0992=
201001300345 METAR LIRA 300345Z 18007KT 7000 -RA FEW017 SCT025 BKN070
                        07/05 Q0993=
201001300315 METAR LIRA 300315Z 17008KT 8000 FEW017 SCT025 BKN070 07/05
                        Q0993=
201001300245 METAR LIRA 300245Z 18008KT 140V200 8000 FEW017 SCT025 BKN070
                        07/05 Q0993=
201001300215 METAR LIRA 300215Z 18007KT 140V210 8000 FEW017 SCT025 BKN070
                        06/04 Q0993=
201001300145 METAR LIRA 300145Z 18007KT 8000 FEW017 BKN070 07/05 Q0994=
201001300115 METAR LIRA 300115Z 18008KT 130V210 8000 FEW017 BKN070 06/05
                        Q0994=
201001300045 METAR LIRA 300045Z 16009KT 8000 FEW017 BKN070 06/05 Q0994=
201001300015 METAR LIRA 300015Z 17008KT 130V190 8000 -DZ FEW017 SCT025
                        BKN070 06/05 Q0994=
201001292350 METAR LIRA 300045Z 16009KT 8000 FEW017 BKN070 06/05 Q0994=
201001292345 METAR LIRA 292345Z 18006KT 8000 -DZ FEW016 BKN025 06/05 Q0995=
201001292315 METAR LIRA 292315Z 18006KT 140V220 8000 -DZ FEW016 BKN025
                        07/05 Q0995=
201001292245 METAR LIRA 292245Z 18005KT 8000 -DZ FEW016 BKN025 07/05 Q0995=
201001292215 METAR LIRA 292215Z 18009KT 150V220 8000 -DZ FEW016 BKN025
                        07/05 Q0995=
201001292145 METAR LIRA 292145Z 17009KT 150V220 8000 -DZ FEW016 BKN025
                        07/05 Q0995=
201001292115 METAR LIRA 292115Z 17008KT 150V210 8000 -DZ FEW016 BKN025
                        07/05 Q0995=
201001292045 METAR LIRA 292045Z 16010KT 8000 -DZ FEW016 BKN025 07/05 Q0995=
201001292015 METAR LIRA 292015Z 18007KT 8000 -DZ FEW016 BKN025 07/05 Q0995=
201001291945 METAR LIRA 291945Z 17006KT 7000 -DZ SCT010 BKN022 07/05 Q0995=
201001291915 METAR LIRA 291915Z 16008KT 8000 -DZ FEW018 BKN025 07/05 Q0995=
201001291845 METAR LIRA 291845Z 16008KT 8000 FEW018 BKN030 07/05 Q0995=
201001291815 METAR LIRA 291815Z 17007KT 110V230 8000 FEW018 BKN030 07/05
                        Q0995=
201001291745 METAR LIRA 291745Z 16006KT 8000 -RA FEW018 BKN030 07/05 Q0995=
201001291715 METAR LIRA 291715Z 15008KT 7000 -RA FEW018 BKN030 07/04 Q0995=
201001291645 METAR LIRA 291645Z 15006KT 7000 FEW018 BKN030 07/04 Q0996=
201001291615 METAR LIRA 291615Z 13006KT 7000 FEW018 BKN030 07/04 Q0996=
201001291545 METAR LIRA 291545Z 14008KT 090V160 7000 FEW018 BKN030 07/05
                        Q0996=
201001291515 METAR LIRA 291515Z 16006KT 5000 -RA BR FEW018 BKN030 07/05
                        Q0996=
201001291445 METAR LIRA 291445Z 22007KT 170V260 6000 -RA FEW010 FEW018TCU
                        BKN030 07/05 Q0996=
201001291415 METAR LIRA 291415Z 19008KT 150V240 9999 FEW018TCU BKN030
                        09/03 Q0996=
201001291345 METAR LIRA 291345Z 20006KT 150V240 9999 FEW020 SCT030 10/02
                        Q0997=
201001291315 METAR LIRA 291315Z 19006KT 150V240 9999 FEW020 BKN030 10/03
                        Q0997=
201001291245 METAR LIRA 291245Z 18006KT 140V230 9999 FEW022 SCT035 10/02
                        Q0997=
201001291215 METAR LIRA 291215Z 19006KT 150V240 8000 FEW024 SCT070 10/03
                        Q0997=
201001291145 METAR LIRA 291145Z 15006KT 090V210 7000 FEW023 09/05 Q0998=
201001291115 METAR LIRA 291115Z 28003KT 7000 FEW023 07/04 Q0998=
201001291045 METAR LIRA 291045Z 33002KT 5000 BR FEW023 07/04 Q0999=
201001291015 METAR LIRA 291015Z 32001KT 6000 FEW023 06/04 Q0999=
201001290945 METAR LIRA 290945Z 04002KT 4000 BR FEW023 05/03 Q0999=
201001290915 METAR LIRA 290915Z 05004KT 4000 BR FEW023 04/03 Q0999=
201001290845 METAR LIRA 290845Z 04005KT 010V080 6000 FEW080 04/03 Q0998=
201001290815 METAR LIRA 290815Z 02003KT 6000 FEW040 02/01 Q0998=
201001290745 METAR LIRA 290745Z 02004KT 6000 FEW040 02/01 Q0998=
201001290715 METAR LIRA 290715Z 05005KT 310V060 6000 FEW040 02/01 Q0998=
201001290645 METAR LIRA 290645Z 04003KT 7000 FEW040 02/01 Q0998=
201001290615 METAR LIRA 290615Z 03004KT 7000 FEW040 01/01 Q0998=
201001290545 METAR LIRA 290545Z 02002KT 7000 FEW040 01/00 Q0998=
201001290515 METAR LIRA 290515Z 05001KT 7000 FEW070 01/01 Q0998=
201001290445 METAR LIRA 290445Z 07004KT 8000 FEW070 01/01 Q0998=
201001290415 METAR LIRA 290415Z 03003KT 8000 FEW015 SCT070 02/01 Q0998=
201001290345 METAR LIRA 290345Z 02003KT 8000 FEW015 03/02 Q0998=
201001290315 METAR LIRA 290315Z 02003KT 8000 FEW015 SCT025 03/01 Q0998=
201001290245 METAR LIRA 290245Z 03003KT 8000 FEW015 SCT025 03/02 Q0998=
201001290215 METAR LIRA 290215Z 03001KT 8000 FEW015 SCT070 03/02 Q0998=
201001290145 METAR LIRA 290145Z 03002KT 8000 FEW015 04/02 Q0998=
201001290115 METAR LIRA 290115Z 33003KT 8000 FEW015 SCT070 04/03 Q0998=
201001290045 METAR LIRA 290045Z 07003KT 8000 FEW015 SCT070 04/02 Q0998=
201001290015 METAR LIRA 290015Z 05003KT 8000 FEW015 SCT025 04/03 Q0998=
201001282350 METAR LIRA 290045Z 07003KT 8000 FEW015 SCT070 04/02 Q0998=
201001282345 METAR LIRA 282345Z 03004KT 8000 FEW015 SCT025 04/03 Q0998=
201001282315 METAR LIRA 282315Z 01005KT 8000 FEW018 SCT070 04/02 Q0998=
201001282245 METAR LIRA 282245Z 01005KT 8000 FEW018 SCT070 04/02 Q0998=
201001282215 METAR LIRA 282215Z 34003KT 8000 FEW018 SCT070 04/03 Q0998=
201001282145 METAR LIRA 282145Z 01001KT 8000 FEW015 SCT070 05/03 Q0998=
201001282115 METAR LIRA 282115Z 35002KT 8000 FEW015 SCT070 05/03 Q0998=
201001282045 METAR LIRA 282045Z 09007KT 8000 FEW015 SCT070 05/03 Q0998=
201001282015 METAR LIRA 282015Z 10008KT 8000 FEW018 SCT070 05/03 Q0999=
201001281945 METAR LIRA 281945Z 07005KT 8000 FEW018 SCT070 04/03 Q0999=
201001281915 METAR LIRA 281915Z 04004KT 7000 SCT015 BKN025 06/04 Q0999=
201001281845 METAR LIRA 281845Z 06006KT 020V100 6000 -RA SCT014 BKN022
                        06/04 Q0999=
201001281815 METAR LIRA 281815Z 10004KT 6000 -RA SCT014 BKN020 06/05 Q0999=
201001281745 METAR LIRA 281745Z 13006KT 7000 -RA SCT014 BKN022 06/04 Q1000=
201001281715 METAR LIRA 281715Z 13006KT 7000 -RA SCT014 BKN022 06/04 Q1000=
201001281645 METAR LIRA 281645Z 13006KT 100V180 8000 -RA SCT014 BKN022
                        06/05 Q1000=
201001281615 METAR LIRA 281615Z 13008KT 6000 -RA SCT010 BKN022 06/05 Q1001=
201001281545 METAR LIRA 281545Z 13004KT 5000 -RA BR SCT010 BKN022 06/05
                        Q1001=
201001281515 METAR LIRA 281515Z 13004KT 5000 -RA BR SCT010 BKN022 07/05
                        Q1002=
201001281445 METAR LIRA 281445Z 17004KT 8000 -DZ SCT015 BKN022 07/03 Q1002=
201001281415 METAR LIRA 281415Z 16006KT 130V190 8000 -DZ SCT015 BKN022
                        08/04 Q1002=
201001281345 METAR LIRA 281345Z 18005KT 9999 FEW020 BKN025 08/02 Q1002=
201001281315 METAR LIRA 281315Z 17004KT 9999 FEW020 BKN030 08/02 Q1003=
201001281245 METAR LIRA 281245Z 24004KT 9999 -RA FEW020 BKN030 09/01 Q1003=
201001281215 METAR LIRA 281215Z 20002KT 9999 FEW020 BKN025 09/00 Q1004=
201001281145 METAR LIRA 281145Z 00000KT 9999 FEW020 BKN025 09/00 Q1005=
201001281115 METAR LIRA 281115Z 18002KT 9999 FEW020 BKN030 09/01 Q1005=
201001281045 METAR LIRA 281045Z 23002KT 9999 FEW020 SCT030 09/02 Q1006=
201001281015 METAR LIRA 281015Z 18002KT 9999 FEW020 SCT080 07/02 Q1006=
201001280945 METAR LIRA 280945Z 36002KT 9999 FEW017 SCT080 06/01 Q1006=
201001280915 METAR LIRA 280915Z 00000KT 9999 FEW017 05/01 Q1006=
201001280845 METAR LIRA 280845Z 00000KT 9999 FEW017 SCT200 03/01 Q1006=
201001280815 METAR LIRA 280815Z 05003KT 9999 FEW017 SCT200 01/M00 Q1006=
201001280745 METAR LIRA 280745Z 00000KT 9999 FEW017 00/M01 Q1007=
201001280715 METAR LIRA 280715Z 03002KT 9999 FEW030 M00/M01 Q1007=
201001280645 METAR LIRA 280645Z 02002KT 9999 FEW030 M00/M01 Q1007=
201001280615 METAR LIRA 280615Z 02003KT 9999 FEW030 M01/M02 Q1007=
201001280545 METAR LIRA 280545Z 03004KT 9999 FEW030 M01/M02 Q1007=
201001280515 METAR LIRA 280515Z 04004KT 9999 FEW030 M01/M02 Q1007=
201001280445 METAR LIRA 280445Z 05004KT 9999 FEW010 M01/M02 Q1007=
201001280415 METAR LIRA 280415Z 01003KT 9999 SCT010 M01/M02 Q1008=
201001280345 METAR LIRA 280345Z 04003KT 9999 SCT010 M00/M01 Q1008=
201001280315 METAR LIRA 280315Z 03003KT 9999 SCT010 M00/M01 Q1008=
201001280245 METAR LIRA 280245Z 01002KT 9999 FEW010 M00/M02 Q1009=
201001280215 METAR LIRA 280215Z 02004KT CAVOK 00/M01 Q1009=
201001280145 METAR LIRA 280145Z 03004KT CAVOK 00/M01 Q1010=
201001280115 METAR LIRA 280115Z 05005KT CAVOK 01/M00 Q1010=
201001280045 METAR LIRA 280045Z 03005KT CAVOK 01/M01 Q1010=
201001280015 METAR LIRA 280015Z 03005KT CAVOK 01/M01 Q1010=
201001272350 METAR LIRA 280045Z 03005KT CAVOK 01/M01 Q1010=
201001272345 METAR LIRA 272345Z 03005KT CAVOK 02/M00 Q1010=
201001272315 METAR LIRA 272315Z 05006KT CAVOK 02/00 Q1011=
201001272245 METAR LIRA 272245Z 02003KT CAVOK 02/00 Q1011=
201001272215 METAR LIRA 272215Z 03004KT CAVOK 03/01 Q1011=
201001272145 METAR LIRA 272145Z 03004KT CAVOK 03/01 Q1011=
201001272115 METAR LIRA 272115Z 02005KT 340V060 CAVOK 03/01 Q1011=
201001272045 METAR LIRA 272045Z 02005KT CAVOK 04/01 Q1011=
201001272015 METAR LIRA 272015Z 03005KT 340V110 CAVOK 04/01 Q1011=
201001271945 METAR LIRA 271945Z 36005KT 320V050 CAVOK 04/00 Q1011=
201001271915 METAR LIRA 271915Z 35008KT 310V050 CAVOK 05/01 Q1011=
201001271845 METAR LIRA 271845Z 35006KT 310V020 CAVOK 05/01 Q1010=
201001271815 METAR LIRA 271815Z 03005KT 340V070 CAVOK 06/01 Q1011=
201001271745 METAR LIRA 271745Z 02005KT 350V070 CAVOK 06/01 Q1011=
201001271715 METAR LIRA 271715Z 03005KT 340V070 CAVOK 07/01 Q1011=
201001271645 METAR LIRA 271645Z 01006KT CAVOK 09/01 Q1011=
201001271615 METAR LIRA 271615Z 35008KT 310V040 CAVOK 09/02 Q1011=
201001271545 METAR LIRA 271545Z 34009KT 300V030 CAVOK 10/02 Q1011=
201001271515 METAR LIRA 271515Z 35007KT 300V040 CAVOK 11/03 Q1011=
201001271445 METAR LIRA 271445Z 35006KT 310V040 9999 FEW070 11/04 Q1011=
201001271415 METAR LIRA 271415Z 35007KT 320V070 9999 FEW040 11/04 Q1011=
201001271345 METAR LIRA 271345Z 35008KT 300V040 9999 FEW040 SCT070 10/04
                        Q1011=
201001271315 METAR LIRA 271315Z 35009KT 300V030 9999 BKN040 10/04 Q1011=
201001271245 METAR LIRA 271245Z 01005KT 310V060 9999 BKN040 10/04 Q1012=
201001271215 METAR LIRA 271215Z 01007KT 320V050 9999 BKN040 10/04 Q1012=
201001271145 METAR LIRA 271145Z 36006KT 320V050 9999 BKN040 SCT070 09/04
                        Q1013=
201001271115 METAR LIRA 271115Z 36007KT 330V070 9999 BKN040 SCT070 09/04
                        Q1013=
201001271045 METAR LIRA 271045Z 01007KT 330V070 9999 BKN040 08/03 Q1013=
201001271015 METAR LIRA 271015Z 01009KT 300V050 9999 BKN040 08/03 Q1013=
201001270945 METAR LIRA 270945Z 01009KT 330V050 9999 BKN040 07/03 Q1013=
201001270915 METAR LIRA 270915Z 36007KT 310V060 9999 SCT035 07/03 Q1013=
201001270845 METAR LIRA 270845Z 36008KT 330V040 9999 BKN035 07/03 Q1013=
201001270815 METAR LIRA 270815Z 36008KT 310V060 9999 SCT030 SCT070 07/04
                        Q1013=
201001270745 METAR LIRA 270745Z 01007KT 330V060 9999 SCT030 SCT070 07/04
                        Q1013=
201001270715 METAR LIRA 270715Z 35006KT 310V040 9999 SCT030 SCT070 06/04
                        Q1012=
201001270645 METAR LIRA 270645Z 35007KT 300V030 9999 SCT025 BKN060 06/04
                        Q1012=
201001270615 METAR LIRA 270615Z 02006KT 330V090 9999 SCT025 BKN060 05/04
                        Q1012=
201001270600 METAR LIRA CONTUS=
201001270545 METAR LIRA 270545Z 36008KT 320V050 9999 -RA SCT030 BKN060
                        05/03 Q1012=
201001270515 METAR LIRA 270515Z 36007KT 320V040 9999 -RA SCT030 SCT060
                        05/03 Q1012=
201001270500 METAR LIRA CONTUS=
201001270445 METAR LIRA 270445Z 35009KT 320V040 9999 -RA SCT030 SCT060
                        05/03 Q1012=
201001270415 METAR LIRA 270415Z 36010KT 320V050 9999 SCT030 SCT060 06/03
                        Q1012=
201001270400 METAR LIRA CONTUS=
201001270345 METAR LIRA 270345Z 01011KT 310V070 9999 SCT030 SCT060 05/03
                        Q1012=
201001270315 METAR LIRA 270315Z 02008KT 320V080 9999 FEW030 SCT060 05/03
                        Q1013=
201001270300 METAR LIRA INTER=
201001270245 METAR LIRA 270245Z 02008KT 330V060 9999 SCT035 SCT060 05/03
                        Q1013=
201001270215 METAR LIRA 270215Z 02009KT 320V060 9999 SCT035 SCT060 05/03
                        Q1013=
201001270145 METAR LIRA 270145Z 03007KT 320V070 9999 SCT035 SCT060 05/03
                        Q1013=
201001270115 METAR LIRA 270115Z 36007KT 320V050 9999 -DZ SCT035 SCT060
                        05/04 Q1014=
201001270045 METAR LIRA 270045Z 01006KT 330V060 9999 -DZ SCT030 SCT060
                        05/04 Q1014=
201001270015 METAR LIRA 270015Z 36007KT 320V050 9999 SCT040 SCT070 05/04
                        Q1014=
201001262350 METAR LIRA 270045Z 01006KT 330V060 9999 -DZ SCT030 SCT060
                        05/04 Q1014=
201001262345 METAR LIRA 262345Z 01008KT 320V060 9999 SCT030 SCT060 05/04
                        Q1014=
201001262315 METAR LIRA 262315Z 01007KT 310V060 9999 FEW025 SCT060 05/04
                        Q1015=
201001262245 METAR LIRA 262245Z 01005KT 310V050 9999 FEW035 SCT080 05/04
                        Q1015=
201001262215 METAR LIRA 262215Z 02006KT 320V090 9999 FEW030 SCT080 06/04
                        Q1015=
201001262145 METAR LIRA 262145Z 01004KT 340V060 9999 FEW030 SCT070 06/04
                        Q1015=
201001262115 METAR LIRA 262115Z 36006KT 330V040 9999 SCT045 SCT070 06/04
                        Q1015=
201001262045 METAR LIRA 262045Z 36005KT 340V050 9999 SCT045 SCT070 06/04
                        Q1015=
201001262015 METAR LIRA 262015Z 03004KT 330V070 9999 SCT040 SCT070 06/04
                        Q1015=
201001261945 METAR LIRA 261945Z 02004KT 9999 SCT040 SCT070 07/04 Q1015=
201001261915 METAR LIRA 261915Z 04005KT 340V100 9999 SCT035 SCT070 08/04
                        Q1015=
201001261845 METAR LIRA 261845Z 10007KT 030V160 9999 FEW020 SCT040 09/03
                        Q1015=
201001261815 METAR LIRA 261815Z 13010KT 9999 FEW020 SCT040 09/04 Q1015=
201001261745 METAR LIRA 261745Z 13009KT 100V160 9999 FEW018 SCT040 09/04
                        Q1015=
201001261715 METAR LIRA 261715Z 11006KT 070V150 9999 FEW018 SCT030 09/04
                        Q1015=
201001261645 METAR LIRA 261645Z 07003KT 050V180 8000 FEW018 SCT030 BKN060
                        09/05 Q1015=
201001261615 METAR LIRA 261615Z 11007KT 090V160 8000 FEW018 SCT030 BKN060
                        10/05 Q1015=
201001261545 METAR LIRA 261545Z 13007KT 100V160 9999 FEW018 SCT030 BKN070
                        10/05 Q1015=
201001261515 METAR LIRA 261515Z 12009KT 090V160 8000 FEW018 BKN030 09/06
                        Q1015=
201001261445 METAR LIRA 261445Z 12010KT 080V170 8000 FEW018 BKN030 09/06
                        Q1016=
201001261415 METAR LIRA 261415Z 11005KT 360V140 8000 FEW018 BKN030 08/06
                        Q1016=
201001261345 METAR LIRA 261345Z 03003KT 330V110 8000 FEW018 BKN030 07/06
                        Q1016=
201001261315 METAR LIRA 261315Z 03008KT 350V070 7000 FEW018 BKN030 06/05
                        Q1017=
201001261245 METAR LIRA 261245Z 02009KT 300V070 7000 FEW018 BKN030 06/05
                        Q1018=
201001261215 METAR LIRA 261215Z 01007KT 300V080 6000 FEW018 BKN025 07/06
                        Q1018=
201001261145 METAR LIRA 261145Z 04006KT 360V070 6000 -RA FEW018 BKN025
                        07/06 Q1019=
201001261115 METAR LIRA 261115Z 04007KT 330V120 6000 -RA FEW018 BKN025
                        07/06 Q1020=
201001261045 METAR LIRA 261045Z 04006KT 360V080 7000 -RA FEW018 BKN027
                        07/06 Q1020=
201001261015 METAR LIRA 261015Z 07007KT 020V090 7000 -RA FEW018 BKN027
                        07/06 Q1020=
201001260945 METAR LIRA 260945Z 04005KT 360V080 7000 FEW018 BKN025 07/06
                        Q1021=
201001260915 METAR LIRA 260915Z 02003KT 6000 -RA FEW018 BKN027 07/06 Q1020=
201001260845 METAR LIRA 260845Z 03004KT 350V070 6000 -RA SCT018 BKN027
                        07/05 Q1020=
201001260815 METAR LIRA 260815Z 04006KT 360V070 7000 -RA FEW018 BKN027
                        07/05 Q1020=
201001260745 METAR LIRA 260745Z 01005KT 340V070 9999 FEW018 SCT030 BKN070
                        07/05 Q1020=
201001260715 METAR LIRA 260715Z 02006KT 330V070 9999 FEW018 SCT030 BKN070
                        07/04 Q1020=
201001260645 METAR LIRA 260645Z 05007KT 9999 FEW018 SCT030 BKN070 07/05
                        Q1021=
201001260615 METAR LIRA 260615Z 05006KT 020V090 9999 FEW018 SCT030 06/04
                        Q1021=
201001260545 METAR LIRA 260545Z 05007KT 9999 FEW018 BKN030 06/04 Q1021=
201001260515 METAR LIRA 260515Z 02005KT 300V130 9999 FEW018 SCT030 06/04
                        Q1021=
201001260445 METAR LIRA 260445Z 01007KT 330V050 9999 FEW020 SCT035 06/04
                        Q1021=
201001260415 METAR LIRA 260415Z 34006KT 280V100 9999 -DZ FEW018 SCT035
                        06/04 Q1021=
201001260245 METAR LIRA 260245Z 05009KT 010V090 7000 FEW018 SCT035 05/03
                        Q1021=
201001260215 METAR LIRA 260215Z 06009KT 010V090 7000 -RA FEW017 BKN035
                        06/04 Q1022=
201001260145 METAR LIRA 260145Z 03007KT 350V090 9999 -DZ FEW020 SCT035
                        06/03 Q1022=
201001260115 METAR LIRA 260115Z 04006KT 330V090 9999 FEW020 SCT030 06/03
                        Q1022=
201001260045 METAR LIRA 260045Z 06010KT 350V090 9999 FEW020 SCT030 06/02
                        Q1022=
201001260015 METAR LIRA 260015Z 04008KT 330V100 9999 FEW020 BKN070 06/02
                        Q1023=
201001252350 METAR LIRA 260045Z 06010KT 350V090 9999 FEW020 SCT030 06/02
                        Q1022=
201001252345 METAR LIRA 252345Z 06008KT 010V100 9999 FEW020 BKN070 05/02
                        Q1023=
201001252315 METAR LIRA 252315Z 07010KT 030V110 9999 FEW020 BKN070 05/02
                        Q1023=
201001252245 METAR LIRA 252245Z 07011KT 020V110 9999 FEW020 BKN070 05/02
                        Q1023=
201001252215 METAR LIRA 252215Z 07011KT 020V110 9999 FEW020 SCT040 05/02
                        Q1023=
201001252145 METAR LIRA 252145Z 07010KT 030V120 8000 -RA FEW020 SCT030
                        BKN080 04/02 Q1023=
201001252115 METAR LIRA 252115Z 05009KT 360V080 8000 FEW020 SCT040 BKN080
                        04/02 Q1023=
201001252045 METAR LIRA 252045Z 06010KT 010V080 8000 FEW020 SCT035 BKN080
                        04/03 Q1023=
201001252015 METAR LIRA 252015Z 06011KT 030V100 8000 -DZ FEW020 SCT035
                        BKN080 04/02 Q1023=
201001251945 METAR LIRA 251945Z 05010KT 020V090 6000 -RA FEW017 SCT030
                        BKN070 04/03 Q1023=
201001251915 METAR LIRA 251915Z 04007KT 350V090 6000 -RA FEW017 SCT030
                        BKN070 04/03 Q1023=
201001251845 METAR LIRA 251845Z 05007KT 020V090 6000 -RA FEW017 SCT030
                        BKN070 04/03 Q1023=
201001251815 METAR LIRA 251815Z 04008KT 020V090 6000 -RA FEW017 SCT030
                        BKN070 04/03 Q1023=
201001251745 METAR LIRA 251745Z 04004KT 6000 -RA FEW017 SCT030 BKN070
                        04/03 Q1023=
201001251715 METAR LIRA 251715Z 04003KT 6000 -RA FEW017 SCT030 BKN070
                        04/03 Q1023=
201001251645 METAR LIRA 251645Z 09010KT 040V140 6000 -RA FEW020 SCT030
                        BKN080 05/03 Q1023=
201001251615 METAR LIRA 251615Z 07009KT 020V100 6000 -RA FEW020 SCT030
                        BKN080 05/03 Q1023=
201001251545 METAR LIRA 251545Z 06008KT 020V100 6000 -RA FEW020 SCT030
                        BKN080 05/03 Q1023=
201001251515 METAR LIRA 251515Z 05006KT 020V100 6000 -RA FEW022 SCT080
                        05/03 Q1023=
201001251445 METAR LIRA 251445Z 06007KT 030V110 6000 -RA FEW022 SCT080
                        05/03 Q1023=
201001251415 METAR LIRA 251415Z 08008KT 030V100 6000 -DZ FEW022 SCT080
                        05/03 Q1023=
201001251345 METAR LIRA 251345Z 06004KT 6000 -DZ SCT080 06/03 Q1023=
201001251315 METAR LIRA 251315Z 13004KT 8000 -DZ SCT080 06/03 Q1024=
201001251245 METAR LIRA 251245Z 15008KT 120V210 9000 -DZ SCT070 06/02
                        Q1024=
201001251215 METAR LIRA 251215Z 12006KT 090V180 9000 -DZ SCT080 07/01
                        Q1024=
201001251145 METAR LIRA 251145Z 14002KT 9000 -DZ SCT080 07/01 Q1024=
201001251115 METAR LIRA 251115Z 15007KT 090V180 9000 -DZ SCT080 08/00
                        Q1024=
201001251045 METAR LIRA 251045Z 06003KT 9000 SCT080 07/00 Q1024=
201001251015 METAR LIRA 251015Z 11009KT 070V150 9000 SCT080 07/M01 Q1024=
201001250945 METAR LIRA 250945Z 09008KT 060V150 9000 SCT080 07/M00 Q1024=
201001250915 METAR LIRA 250915Z 10008KT 060V150 9000 FEW025 SCT080 07/M00
                        Q1024=
201001250845 METAR LIRA 250845Z 09004KT 9000 FEW025 SCT080 07/M00 Q1024=
201001250815 METAR LIRA 250815Z 12008KT 060V150 9000 FEW025 SCT080 06/M00
                        Q1023=
201001250745 METAR LIRA 250745Z 09009KT 060V150 8000 FEW025 SCT080 06/M00
                        Q1023=
201001250715 METAR LIRA 250715Z 11008KT 060V150 7000 FEW025 SCT080 05/00
                        Q1023=
201001250645 METAR LIRA 250645Z 11009KT 7000 FEW020 SCT070 05/00 Q1023=
201001250615 METAR LIRA 250615Z 05004KT 020V120 7000 FEW020 SCT030 BKN070
                        05/00 Q1023=
201001250545 METAR LIRA 250545Z 06006KT 010V100 7000 FEW020 BKN070 05/01
                        Q1023=
201001250515 METAR LIRA 250515Z 03002KT 7000 FEW022 BKN070 05/01 Q1023=
201001250445 METAR LIRA 250445Z 05005KT 7000 FEW022 BKN070 04/02 Q1024=
201001250415 METAR LIRA 250415Z 03003KT 7000 FEW022 BKN070 04/02 Q1024=
201001250400 METAR LIRA INT, LOW CLDS MVG S=
201001250345 METAR LIRA 250345Z 00000KT 7000 FEW022 BKN070 04/03 Q1024=
201001250315 METAR LIRA 250315Z 03001KT 7000 FEW022 BKN070 04/03 Q1024=
201001250245 METAR LIRA 250245Z 03003KT 7000 FEW022 BKN070 04/03 Q1024=
201001250215 METAR LIRA 250215Z 03003KT 7000 FEW022 BKN070 04/03 Q1024=
201001250145 METAR LIRA 250145Z 01001KT 7000 FEW022 BKN070 04/03 Q1024=
201001250115 METAR LIRA 250115Z 01002KT 7000 FEW022 BKN070 05/03 Q1024=
201001250045 METAR LIRA 250045Z 30002KT 7000 FEW022 BKN070 05/02 Q1024=
201001250015 METAR LIRA 250015Z 31001KT 7000 FEW022 BKN070 05/02 Q1024=
201001242350 METAR LIRA 250045Z 30002KT 7000 FEW022 BKN070 05/02 Q1024=
201001242345 METAR LIRA 242345Z 08003KT 8000 FEW022 BKN070 05/01 Q1024=
201001242315 METAR LIRA 242315Z 12002KT 8000 FEW022 BKN070 05/02 Q1024=
201001242245 METAR LIRA 242245Z 00000KT 8000 FEW022 SCT030 05/02 Q1024=
201001242215 METAR LIRA 242215Z 00000KT 8000 FEW022 SCT030 05/02 Q1024=
201001242145 METAR LIRA 242145Z 07005KT 8000 FEW022 SCT030 05/02 Q1024=
201001242115 METAR LIRA 242115Z 09005KT 090V160 8000 FEW022 SCT030 05/02
                        Q1024=
201001242045 METAR LIRA 242045Z 13005KT 8000 FEW022 SCT030 05/03 Q1024=
201001242015 METAR LIRA 242015Z 10004KT 8000 FEW022 SCT030 05/03 Q1024=
201001241945 METAR LIRA 241945Z 13004KT 8000 FEW022 SCT030 04/03 Q1024=
201001241915 METAR LIRA 241915Z 12003KT 7000 SCT030 04/03 Q1023=
201001241845 METAR LIRA 241845Z 12004KT 7000 SCT030 03/02 Q1023=
201001241815 METAR LIRA 241815Z 14004KT 7000 FEW030 03/01 Q1023=
201001241745 METAR LIRA 241745Z 13003KT 7000 FEW030 04/02 Q1023=
201001241715 METAR LIRA 241715Z 15004KT 5000 BR FEW017 SCT030 05/02 Q1023=
201001241645 METAR LIRA 241645Z 17004KT 5000 BR FEW017 SCT030 06/01 Q1023=
201001241615 METAR LIRA 241615Z 18003KT 5000 BR FEW017 SCT030 08/04 Q1023=
201001241545 METAR LIRA 241545Z 18003KT 5000 BR FEW017 SCT030 09/03 Q1023=
201001241515 METAR LIRA 241515Z 00000KT 5000 BR FEW017 SCT030 09/02 Q1023=
201001241445 METAR LIRA 241445Z 00000KT 5000 BR FEW017 SCT030 09/02 Q1023=
201001241415 METAR LIRA 241415Z 00000KT 5000 BR FEW017 SCT030 09/02 Q1023=
201001241345 METAR LIRA 241345Z 00000KT 5000 BR FEW017 SCT030 09/02 Q1023=
201001241315 METAR LIRA 241315Z 33003KT 5000 BR FEW017 SCT030 09/02 Q1023=
201001241245 METAR LIRA 241245Z 30002KT 5000 BR FEW017 SCT030 09/02 Q1023=
201001241215 METAR LIRA 241215Z 33003KT 6000 FEW017 SCT030 09/02 Q1023=
201001241145 METAR LIRA 241145Z 36002KT 4000 BR FEW003 SCT030 07/02 Q1024=
201001241115 METAR LIRA 241115Z 36002KT 4000 BR FEW003 SCT030 07/02 Q1024=
201001241045 METAR LIRA 241045Z 01002KT 4000 BR FEW001 SCT030 05/01 Q1024=
201001241015 METAR LIRA 241015Z 34002KT 4000 BR FEW017 SCT030 05/01 Q1024=
201001240945 METAR LIRA 240945Z 35002KT 6000 FEW017 SCT030 04/01 Q1024=
201001240915 METAR LIRA 240915Z 35002KT 8000 FEW017 SCT030 03/00 Q1024=
201001240845 METAR LIRA 240845Z 01002KT 7000 FEW017 02/M00 Q1023=
201001240815 METAR LIRA 240815Z 34002KT 7000 FEW003 01/M01 Q1023=
201001240745 METAR LIRA 240745Z 01001KT 6000 FEW001 00/M01 Q1023=
201001240715 METAR LIRA 240715Z 04003KT 8000 FEW020 SCT030 00/M01 Q1023=
201001240645 METAR LIRA 240645Z 03002KT 8000 FEW020 SCT030 M00/M01 Q1023=
201001240615 METAR LIRA 240615Z 04002KT 8000 FEW020 SCT030 M00/M01 Q1023=
201001240545 METAR LIRA 240545Z 03002KT 8000 FEW020 SCT070 M01/M02 Q1023=
201001240515 METAR LIRA 240515Z 01003KT 8000 FEW020 SCT070 M01/M02 Q1023=
201001240445 METAR LIRA 240445Z 04002KT 8000 FEW020 SCT070 M01/M02 Q1023=
201001240415 METAR LIRA 240415Z 01002KT 8000 FEW023 SCT070 M02/M02 Q1023=
201001240345 METAR LIRA 240345Z 04002KT 8000 FEW023 M01/M02 Q1023=
201001240315 METAR LIRA 240315Z 02002KT 8000 FEW023 M01/M02 Q1023=
201001240245 METAR LIRA 240245Z 03002KT 8000 FEW023 M01/M02 Q1023=
201001240215 METAR LIRA 240215Z 03002KT 8000 FEW070 M01/M01 Q1023=
201001240145 METAR LIRA 240145Z 03003KT 8000 FEW070 M00/M01 Q1023=
201001240115 METAR LIRA 240115Z 35004KT 8000 FEW023 M00/M01 Q1023=
201001240045 METAR LIRA 240045Z 03003KT 8000 FEW023 00/M00 Q1023=
201001240015 METAR LIRA 240015Z 03002KT 8000 FEW023 01/M00 Q1023=
201001232350 METAR LIRA 240045Z 03003KT 8000 FEW023 00/M00 Q1023=
201001232345 METAR LIRA 232345Z 36002KT 8000 FEW023 01/00 Q1023=
201001232315 METAR LIRA 232315Z 02003KT 8000 FEW023 01/00 Q1023=
201001232245 METAR LIRA 232245Z 04003KT 8000 FEW023 02/M00 Q1023=
201001232215 METAR LIRA 232215Z 03003KT 8000 FEW023 02/00 Q1023=
201001232145 METAR LIRA 232145Z 04004KT 9999 FEW023 03/01 Q1023=
201001232115 METAR LIRA 232115Z 08002KT 9999 FEW023 03/00 Q1023=
201001232045 METAR LIRA 232045Z 11003KT 9999 FEW028 03/00 Q1023=
201001232015 METAR LIRA 232015Z 13002KT 9999 FEW028 03/00 Q1023=
201001231945 METAR LIRA 231945Z 13003KT 9999 FEW030 03/01 Q1023=
201001231915 METAR LIRA 231915Z 15002KT 9999 FEW030 03/M00 Q1022=
201001231845 METAR LIRA 231845Z 13002KT 9999 FEW030 03/M00 Q1022=
201001231815 METAR LIRA 231815Z 12002KT 9999 FEW030 02/M01 Q1022=
201001231745 METAR LIRA 231745Z 14003KT 9999 FEW030 05/M01 Q1022=
201001231715 METAR LIRA 231715Z 23001KT 9999 FEW022 05/M02 Q1022=
201001231645 METAR LIRA 231645Z 23002KT 9999 FEW022 06/M01 Q1022=
201001231615 METAR LIRA 231615Z 22001KT 9999 FEW022 08/00 Q1021=
201001231545 METAR LIRA 231545Z 21002KT 9999 FEW022 09/01 Q1021=
201001231515 METAR LIRA 231515Z 22003KT 9999 FEW022 09/01 Q1021=
201001231445 METAR LIRA 231445Z 23004KT 9999 SCT022 09/01 Q1021=
201001231415 METAR LIRA 231415Z 20003KT 9999 SCT022 10/01 Q1022=
201001231345 METAR LIRA 231345Z 00000KT 9999 SCT022 09/00 Q1022=
201001231315 METAR LIRA 231315Z 23003KT 9999 SCT022 09/00 Q1022=
201001231245 METAR LIRA 231245Z 27004KT 9999 SCT022 09/00 Q1022=
201001231215 METAR LIRA 231215Z 13004KT 180V270 9999 FEW022 09/00 Q1022=
201001231145 METAR LIRA 231145Z 17004KT 140V230 9999 FEW022 09/01 Q1022=
201001231115 METAR LIRA 231115Z 08002KT 9999 FEW022 07/M01 Q1022=
201001231045 METAR LIRA 231045Z 04004KT 9999 FEW022 06/M01 Q1022=
201001231015 METAR LIRA 231015Z 03003KT 9999 SCT025 05/M02 Q1022=
201001230945 METAR LIRA 230945Z 03004KT 330V070 9999 FEW025 04/M03 Q1022=
201001230915 METAR LIRA 230915Z 02004KT 9999 FEW025 02/M03 Q1021=
201001230845 METAR LIRA 230845Z 36003KT 9999 FEW025 01/M03 Q1021=
201001230815 METAR LIRA 230815Z 05004KT 9999 FEW025 M00/M04 Q1021=
201001230745 METAR LIRA 230745Z 36003KT 9999 SCT030 M01/M04 Q1021=
201001230715 METAR LIRA 230715Z 01002KT 9999 FEW030 M01/M04 Q1021=
201001230645 METAR LIRA 230645Z 01004KT 9999 FEW070 M01/M05 Q1020=
201001230615 METAR LIRA 230615Z 03003KT 9999 FEW070 M01/M05 Q1020=
201001230545 METAR LIRA 230545Z 36003KT 9999 FEW070 M01/M05 Q1020=
201001230515 METAR LIRA 230515Z 03004KT 9999 FEW070 M01/M05 Q1019=
201001230445 METAR LIRA 230445Z 03004KT 9999 FEW070 M01/M05 Q1019=
201001230415 METAR LIRA 230415Z 04006KT 9999 FEW070 M01/M05 Q1019=
201001230345 METAR LIRA 230345Z 03005KT 9999 FEW070 M01/M05 Q1019=
201001230315 METAR LIRA 230315Z 01006KT 9999 FEW070 M01/M05 Q1019=
201001230245 METAR LIRA 230245Z 03005KT 360V060 9999 SCT070 M01/M05 Q1019=
201001230215 METAR LIRA 230215Z 04006KT 9999 SCT070 M01/M05 Q1019=
201001230145 METAR LIRA 230145Z 04006KT 010V080 CAVOK M00/M05 Q1019=
201001230115 METAR LIRA 230115Z 05006KT 9999 FEW070 M00/M05 Q1019=
201001230100 METAR LIRA INT, LOW CLDS OVHD MVG S=
201001230045 METAR LIRA 230045Z 05006KT CAVOK 00/M05 Q1019=
201001230015 METAR LIRA 230015Z 03004KT CAVOK 00/M05 Q1019=
201001222350 METAR LIRA 230045Z 05006KT CAVOK 00/M05 Q1019=
201001222345 METAR LIRA 222345Z 03005KT CAVOK 00/M05 Q1019=
201001222315 METAR LIRA 222315Z 05005KT 360V070 CAVOK 00/M05 Q1019=
201001222300 METAR LIRA INTER LOW CLDS MVNG S=
201001222245 METAR LIRA 222245Z 05004KT CAVOK 01/M05 Q1019=
201001222215 METAR LIRA 222215Z 03007KT 360V070 CAVOK 01/M05 Q1019=
201001222145 METAR LIRA 222145Z 01006KT 340V040 CAVOK 02/M05 Q1018=
201001222115 METAR LIRA 222115Z 35007KT 310V020 CAVOK 02/M05 Q1018=
201001222045 METAR LIRA 222045Z 36008KT 310V030 CAVOK 03/M05 Q1018=
201001222015 METAR LIRA 222015Z 35008KT 310V050 CAVOK 03/M05 Q1018=
201001221945 METAR LIRA 221945Z 36007KT 310V050 CAVOK 03/M05 Q1018=
201001221915 METAR LIRA 221915Z 35007KT 310V030 CAVOK 03/M05 Q1018=
201001221845 METAR LIRA 221845Z 01006KT 300V050 CAVOK 04/M06 Q1018=
201001221815 METAR LIRA 221815Z 36004KT 300V060 CAVOK 04/M06 Q1018=
201001221745 METAR LIRA 221745Z 35007KT 310V030 CAVOK 04/M06 Q1017=
201001221715 METAR LIRA 221715Z 35011KT 300V040 CAVOK 05/M06 Q1017=
201001221645 METAR LIRA 221645Z 35011KT 300V020 CAVOK 06/M05 Q1017=
201001221615 METAR LIRA 221615Z 34013KT 300V020 CAVOK 06/M05 Q1017=
201001221545 METAR LIRA 221545Z 33011KT 300V360 CAVOK 07/M04 Q1016=
201001221515 METAR LIRA 221515Z 32016KT 280V360 CAVOK 08/M04 Q1016=
201001221445 METAR LIRA 221445Z 34013KT 290V010 9999 FEW022 09/M02 Q1016=
201001221415 METAR LIRA 221415Z 33010KT 300V020 9999 FEW022 10/M02 Q1016=
201001221345 METAR LIRA 221345Z 34010KT 270V030 9999 FEW022 10/M01 Q1016=
201001221315 METAR LIRA 221315Z 35006KT 310V060 9999 FEW022 09/M01 Q1016=
201001221245 METAR LIRA 221245Z 35005KT 300V080 9999 FEW022 09/00 Q1017=
201001221215 METAR LIRA 221215Z 34007KT 290V060 9999 FEW022 09/00 Q1017=
201001221145 METAR LIRA 221145Z 36006KT 320V060 9999 FEW022 08/M00 Q1017=
201001221115 METAR LIRA 221115Z 02005KT 320V040 9999 FEW022 07/01 Q1018=
201001221045 METAR LIRA 221045Z 01004KT 300V050 CAVOK 06/M00 Q1018=
201001221015 METAR LIRA 221015Z 35005KT CAVOK 06/02 Q1019=
201001220945 METAR LIRA 220945Z 02005KT 340V060 CAVOK 05/M00 Q1019=
201001220915 METAR LIRA 220915Z 36005KT 320V040 CAVOK 04/00 Q1019=
201001220845 METAR LIRA 220845Z 03006KT 340V060 CAVOK 03/M00 Q1018=
201001220815 METAR LIRA 220815Z 04008KT 350V070 9999 FEW080 02/M00 Q1018=
201001220745 METAR LIRA 220745Z 05005KT 360V100 9999 FEW080 01/M01 Q1018=
201001220715 METAR LIRA 220715Z 05003KT 9999 FEW080 M01/M02 Q1018=
201001220645 METAR LIRA 220645Z 04006KT 010V090 9999 FEW080 M01/M02 Q1017=
201001220615 METAR LIRA 220615Z 03004KT 9999 FEW080 M01/M03 Q1017=
201001220545 METAR LIRA 220545Z 04004KT 9999 FEW080 M01/M03 Q1017=
201001220515 METAR LIRA 220515Z 36003KT 9999 FEW070 M06/M08 Q1017=
201001220445 METAR LIRA 220445Z 02004KT 9999 FEW070 M01/M03 Q1017=
201001220415 METAR LIRA 220415Z 05005KT CAVOK M01/M02 Q1017=
201001220345 METAR LIRA 220345Z 03005KT CAVOK M00/M02 Q1017=
201001220315 METAR LIRA 220315Z 03005KT CAVOK M01/M02 Q1017=
201001220245 METAR LIRA 220245Z 05005KT CAVOK M00/M02 Q1017=
201001220215 METAR LIRA 220215Z 04005KT CAVOK M00/M02 Q1017=
201001220145 METAR LIRA 220145Z 01004KT CAVOK 00/M02 Q1017=
201001220115 METAR LIRA 220115Z 04005KT CAVOK 01/M01 Q1017=
201001220045 METAR LIRA 220045Z 03003KT CAVOK 01/M02 Q1017=
201001220015 METAR LIRA 220015Z 04004KT CAVOK 01/M02 Q1017=
201001212350 METAR LIRA 220045Z 03003KT CAVOK 01/M02 Q1017=
201001212345 METAR LIRA 212345Z 03004KT CAVOK 02/M02 Q1017=
201001212315 METAR LIRA 212315Z 02002KT CAVOK 02/M01 Q1017=
201001212245 METAR LIRA 212245Z 02005KT CAVOK 02/M01 Q1016=
201001212215 METAR LIRA 212215Z 03005KT 340V070 CAVOK 03/M02 Q1016=
201001212145 METAR LIRA 212145Z 36006KT 310V050 CAVOK 03/M01 Q1016=
201001212115 METAR LIRA 212115Z 36004KT CAVOK 03/M01 Q1016=
201001212045 METAR LIRA 212045Z 01004KT CAVOK 03/M01 Q1016=
201001212015 METAR LIRA 212015Z 04004KT CAVOK 04/M01 Q1016=
201001211945 METAR LIRA 211945Z 01006KT 320V060 CAVOK 05/M02 Q1015=
201001211915 METAR LIRA 211915Z 01004KT 340V050 CAVOK 05/M03 Q1015=
201001211845 METAR LIRA 211845Z 35005KT CAVOK 05/M02 Q1015=
201001211815 METAR LIRA 211815Z 36006KT CAVOK 06/M02 Q1014=
201001211745 METAR LIRA 211745Z 03004KT CAVOK 07/M02 Q1014=
201001211715 METAR LIRA 211715Z 34005KT CAVOK 07/M02 Q1013=
201001211645 METAR LIRA 211645Z 32006KT CAVOK 08/M01 Q1013=
201001211615 METAR LIRA 211615Z 32006KT 9999 FEW020 09/M03 Q1012=
201001211545 METAR LIRA 211545Z 33007KT 9999 FEW020 10/M03 Q1012=
201001211515 METAR LIRA 211515Z 34008KT 310V020 9999 FEW020 11/M03 Q1012=
201001211445 METAR LIRA 211445Z 30006KT 9999 FEW020 12/M04 Q1012=
201001211415 METAR LIRA 211415Z 33004KT 260V350 9999 FEW020 12/M03 Q1012=
201001211345 METAR LIRA 211345Z 36004KT 250V020 9999 FEW020 12/M03 Q1012=
201001211315 METAR LIRA 211315Z 32004KT 9999 FEW020 11/M04 Q1012=
201001211245 METAR LIRA 211245Z 34001KT 9999 FEW020 11/M02 Q1012=
201001211215 METAR LIRA 211215Z 34003KT 9999 FEW020 SCT200 11/M03 Q1012=
201001211145 METAR LIRA 211145Z 36005KT 320V050 9999 FEW020 SCT200 10/M01
                        Q1012=
201001211115 METAR LIRA 211115Z 35006KT 250V060 9999 FEW020 SCT200 09/02
                        Q1012=
201001211045 METAR LIRA 211045Z 35007KT 310V030 9999 FEW020 SCT200 08/M00
                        Q1012=
201001211015 METAR LIRA 211015Z 29007KT 310V080 9999 FEW020 SCT200 07/01
                        Q1012=
201001210945 METAR LIRA 210945Z 36006KT 310V080 9999 FEW020 SCT200 08/01
                        Q1012=
201001210915 METAR LIRA 210915Z 36006KT 280V030 9999 FEW020 SCT070 07/01
                        Q1012=
201001210845 METAR LIRA 210845Z 35006KT 310V050 9999 FEW020 SCT070 07/01
                        Q1011=
201001210815 METAR LIRA 210815Z 01005KT 340V060 9999 FEW020 SCT070 06/01
                        Q1011=
201001210745 METAR LIRA 210745Z 35002KT 9999 FEW020 SCT070 04/01 Q1011=
201001210715 METAR LIRA 210715Z 01004KT 9999 FEW030 SCT070 03/00 Q1010=
201001210645 METAR LIRA 210645Z 36005KT 9999 FEW030 SCT070 03/M00 Q1010=
201001210615 METAR LIRA 210615Z 01004KT 9999 FEW030 SCT070 03/M01 Q1010=
201001210545 METAR LIRA 210545Z 04006KT 9999 FEW030 SCT070 03/M01 Q1010=
201001210515 METAR LIRA 210515Z 03004KT 9999 FEW030 SCT070 04/M01 Q1010=
201001210445 METAR LIRA 210445Z 02005KT 340V060 9999 FEW030 SCT070 04/M00
                        Q1010=
201001210415 METAR LIRA 210415Z 01003KT 9999 FEW030 SCT070 04/M00 Q1010=
201001210345 METAR LIRA 210345Z 35002KT 9999 FEW025 SCT070 04/01 Q1010=
201001210315 METAR LIRA 210315Z 33003KT 9999 FEW025 SCT060 04/01 Q1010=
201001210245 METAR LIRA 210245Z 35004KT 310V030 9999 SCT030 SCT060 05/01
                        Q1010=
201001210215 METAR LIRA 210215Z 34003KT 9999 SCT030 SCT070 05/01 Q1011=
201001210145 METAR LIRA 210145Z 08005KT 9999 SCT030 SCT070 05/01 Q1011=
201001210115 METAR LIRA 210115Z 04002KT 9999 FEW025 BKN070 05/01 Q1011=
201001210045 METAR LIRA 210045Z 10007KT 9999 FEW025 BKN070 04/01 Q1011=
201001210015 METAR LIRA 210015Z 00000KT 9999 SCT025 SCT070 04/01 Q1011=
201001202350 METAR LIRA 210045Z 10007KT 9999 FEW025 BKN070 04/01 Q1011=
201001202345 METAR COR LIRA 202345Z 02004KT 9999 SCT025 SCT070 05/01 Q1012=
201001202315 METAR LIRA 202315Z 05005KT 010V110 9999 FEW025 SCT070 06/01
                        Q1012=
201001202245 METAR LIRA 202245Z 06005KT 9999 SCT027 SCT070 06/01 Q1012=
201001202215 METAR LIRA 202215Z 08004KT 9999 SCT027 SCT070 06/01 Q1013=
201001202145 METAR LIRA 202145Z 10003KT 9999 FEW030 SCT070 05/02 Q1013=
201001202115 METAR LIRA 202115Z 07005KT 050V140 9999 FEW030 SCT070 06/02
                        Q1013=
201001202045 METAR LIRA 202045Z 04002KT 9999 FEW030 SCT070 06/00 Q1013=
201001202015 METAR LIRA 202015Z 09002KT 9999 FEW030 SCT070 06/01 Q1013=
201001201945 METAR LIRA 201945Z 15001KT 8000 FEW060 06/02 Q1013=
201001201915 METAR LIRA 201915Z 17002KT 8000 FEW060 06/02 Q1013=
201001201845 METAR LIRA 201845Z 06003KT 7000 FEW030 BKN070 06/03 Q1013=
201001201815 METAR LIRA 201815Z 11005KT 8000 FEW030 SCT070 06/03 Q1013=
201001201745 METAR LIRA 201745Z 11003KT 8000 FEW030 SCT070 07/03 Q1013=
201001201715 METAR LIRA 201715Z 10003KT 9999 FEW030 SCT070 07/04 Q1013=
201001201645 METAR LIRA 201645Z 13006KT 9999 FEW030 SCT080 07/03 Q1013=
201001201615 METAR LIRA 201615Z 17004KT 9999 FEW020 SCT030 09/04 Q1014=
201001201545 METAR LIRA 201545Z 18005KT 9999 FEW020 SCT030 09/04 Q1014=
201001201515 METAR LIRA 201515Z 18005KT 9999 FEW020 SCT030 10/04 Q1014=
201001201445 METAR LIRA 201445Z 17005KT 9999 FEW020 SCT030 10/03 Q1014=
201001201415 METAR LIRA 201415Z 17005KT 9999 FEW020 SCT030 11/03 Q1014=
201001201345 METAR LIRA 201345Z 18004KT 150V240 9999 FEW020 SCT080 11/03
                        Q1014=
201001201315 METAR LIRA 201315Z 20004KT 160V240 9999 FEW020 SCT080 11/01
                        Q1014=
201001201245 METAR LIRA 201245Z 00000KT 9999 FEW020 11/01 Q1014=
201001201215 METAR LIRA 201215Z 15005KT 150V250 9999 FEW020 11/02 Q1014=
201001201145 METAR LIRA 201145Z 12002KT 9999 FEW020 10/03 Q1015=
201001201115 METAR LIRA 201115Z 33002KT 9999 FEW025 08/03 Q1016=
201001201045 METAR LIRA 201045Z 35001KT 9999 FEW025 07/02 Q1016=
201001201015 METAR LIRA 201015Z 35002KT 9999 FEW030 06/02 Q1016=
201001200945 METAR LIRA 200945Z 04003KT 9999 FEW030 SCT070 04/M00 Q1016=
201001200915 METAR LIRA 200915Z 02005KT 9999 FEW030 SCT070 03/M00 Q1016=
201001200845 METAR LIRA 200845Z 04003KT 9999 SCT070 02/M00 Q1016=
201001200815 METAR LIRA 200815Z 02002KT 9999 SCT070 02/M00 Q1016=
201001200745 METAR LIRA 200745Z 00000KT 9999 SCT070 01/M01 Q1016=
201001200715 METAR LIRA 200715Z 04001KT 9999 SCT070 M01/M02 Q1016=
201001200645 METAR LIRA 200645Z 02002KT 9999 FEW070 M01/M02 Q1016=
201001200615 METAR LIRA 200615Z 04003KT 9999 FEW070 M01/M02 Q1016=
201001200545 METAR LIRA 200545Z 02003KT 8000 SKC M01/M03 Q1016=
201001200515 METAR LIRA 200515Z 05003KT 8000 SKC M01/M03 Q1016=
201001200445 METAR LIRA 200445Z 02003KT 8000 NSC M00/M02 Q1016=
201001200415 METAR LIRA 200415Z 04003KT 8000 NSC M00/M02 Q1017=
201001200345 METAR LIRA 200345Z 02003KT 8000 SKC M00/M02 Q1017=
201001200315 METAR LIRA 200315Z 03003KT 8000 NSC M00/M02 Q1017=
201001200245 METAR LIRA 200245Z 33001KT CAVOK M00/M02 Q1017=
201001200215 METAR LIRA 200215Z 01003KT CAVOK 00/M01 Q1017=
201001200145 METAR LIRA 200145Z 03003KT CAVOK 00/M01 Q1017=
201001192345 METAR LIRA 192345Z 11001KT CAVOK 02/M03 Q1019=
201001192315 METAR LIRA 192315Z 13001KT CAVOK 02/M02 Q1019=
201001192245 METAR LIRA 192245Z 11004KT CAVOK 02/M02 Q1019=
201001192215 METAR LIRA 192215Z 11003KT CAVOK 03/M02 Q1019=
201001192145 METAR LIRA 192145Z 11002KT CAVOK 03/M02 Q1019=
201001192115 METAR LIRA 192115Z 14003KT CAVOK 03/M02 Q1019=
201001192045 METAR LIRA 192045Z 14003KT CAVOK 03/M01 Q1019=
201001192015 METAR LIRA 192015Z 12002KT CAVOK 03/M01 Q1019=
201001191945 METAR LIRA 191945Z 14004KT CAVOK 03/M01 Q1019=
201001191915 METAR LIRA 191915Z 15004KT CAVOK 04/M00 Q1019=
201001191845 METAR LIRA 191845Z 15003KT CAVOK 04/M00 Q1019=
201001191815 METAR LIRA 191815Z 12002KT CAVOK 05/00 Q1019=
201001191745 METAR LIRA 191745Z 12002KT CAVOK 06/01 Q1019=
201001191715 METAR LIRA 191715Z 00000KT CAVOK 07/02 Q1019=
201001191645 METAR LIRA 191645Z 00000KT CAVOK 07/01 Q1019=
201001191615 METAR LIRA 191615Z 00000KT 9999 FEW015 09/00 Q1019=
201001191545 METAR LIRA 191545Z 30001KT 9999 FEW015 10/00 Q1019=
201001191515 METAR LIRA 191515Z 00000KT 9999 FEW018 11/M00 Q1019=
201001191445 METAR LIRA 191445Z 32002KT 9999 FEW018 11/00 Q1019=
201001191415 METAR LIRA 191415Z 28001KT 9999 FEW018 11/01 Q1019=
201001191345 METAR LIRA 191345Z 29003KT 9999 FEW018 11/02 Q1019=
201001191315 METAR LIRA 191315Z 00000KT 9999 FEW018 11/02 Q1019=
201001191245 METAR LIRA 191245Z 35002KT 9999 FEW018 10/02 Q1020=
201001191215 METAR LIRA 191215Z 02004KT 9999 FEW020 09/01 Q1020=
201001191145 METAR LIRA 191145Z 04003KT 9999 FEW020 09/01 Q1021=
201001191115 METAR LIRA 191115Z 36004KT 9999 FEW020 08/01 Q1021=
201001191045 METAR LIRA 191045Z 01004KT 9999 FEW020 08/02 Q1021=
201001191015 METAR LIRA 191015Z 36004KT 9999 FEW020 07/02 Q1021=
201001190945 METAR LIRA 190945Z 02004KT 350V080 9999 FEW020 06/01 Q1021=
201001190915 METAR LIRA 190915Z 02005KT 330V060 9999 FEW020 05/01 Q1021=
201001190845 METAR LIRA 190845Z 03004KT CAVOK 04/01 Q1021=
201001190815 METAR LIRA 190815Z 02003KT 350V070 CAVOK 03/01 Q1021=
201001190745 METAR LIRA 190745Z 02002KT CAVOK 02/01 Q1020=
201001190715 METAR LIRA 190715Z 03002KT CAVOK 01/00 Q1020=
201001190645 METAR LIRA 190645Z 04003KT CAVOK 01/00 Q1020=
201001190615 METAR LIRA 190615Z 03006KT 350V070 CAVOK 01/00 Q1020=
201001190545 METAR LIRA 190545Z 05003KT CAVOK 01/00 Q1020=
201001190515 METAR LIRA 190515Z 03004KT 7000 FEW024 01/01 Q1020=
201001190445 METAR LIRA 190445Z 04005KT 7000 FEW023 02/01 Q1021=
201001190415 METAR LIRA 190415Z 04005KT 7000 FEW023 02/01 Q1021=
201001190345 METAR LIRA 190345Z 05005KT 7000 FEW023 02/01 Q1021=
201001190315 METAR LIRA 190315Z 02004KT 7000 FEW023 02/01 Q1021=
201001190245 METAR LIRA 190245Z 00000KT 7000 FEW030 02/02 Q1021=
201001190215 METAR LIRA 190215Z 36001KT 7000 FEW035 03/02 Q1021=
201001190145 METAR LIRA 190145Z 00000KT 7000 FEW035 03/03 Q1021=
201001190115 METAR LIRA 190115Z 03005KT 360V090 7000 SCT035 04/03 Q1021=
201001190045 METAR LIRA 190045Z 02003KT 7000 FEW035 SCT070 05/03 Q1021=
201001190015 METAR LIRA 190015Z 02006KT 7000 FEW035 SCT070 05/03 Q1021=
201001182350 METAR LIRA 190045Z 02003KT 7000 FEW035 SCT070 05/03 Q1021=
201001182345 METAR LIRA 182345Z 03005KT 010V070 7000 FEW035 SCT070 05/03
                        Q1021=
201001182315 METAR LIRA 182315Z 03004KT 7000 FEW035 SCT070 05/04 Q1021=
201001182245 METAR LIRA 182245Z 36002KT 7000 FEW035 SCT070 06/04 Q1021=
201001182215 METAR LIRA 182215Z 02002KT 7000 FEW035 SCT070 06/04 Q1021=
201001182145 METAR LIRA 182145Z 02002KT 7000 FEW035 SCT070 06/04 Q1021=
201001182115 METAR LIRA 182115Z 04005KT 7000 FEW035 SCT070 07/04 Q1021=
201001182045 METAR LIRA 182045Z 03003KT 7000 FEW035 SCT070 07/05 Q1021=
201001182015 METAR LIRA 182015Z 02003KT 7000 FEW035 SCT070 07/05 Q1021=
201001181945 METAR LIRA 181945Z 05003KT 7000 FEW035 SCT070 07/05 Q1021=
201001181915 METAR LIRA 181915Z 06003KT 7000 SCT035 BKN070 08/05 Q1021=
201001181845 METAR LIRA 181845Z 04002KT 7000 SCT035 BKN070 08/05 Q1021=
201001181815 METAR LIRA 181815Z 06005KT 7000 SCT035 BKN070 08/05 Q1021=
201001181745 METAR LIRA 181745Z 07003KT 6000 SCT035 BKN070 08/05 Q1021=
201001181715 METAR LIRA 181715Z 08003KT 6000 SCT036 BKN070 08/04 Q1021=
201001181645 METAR LIRA 181645Z 00000KT 6000 SCT045 SCT070 09/05 Q1021=
201001181615 METAR LIRA 181615Z 03001KT 6000 SCT045 SCT070 09/05 Q1021=
201001181545 METAR LIRA 181545Z 06002KT 8000 SCT045 SCT070 09/04 Q1021=
201001181515 METAR LIRA 181515Z 35003KT 8000 SCT045 BKN070 09/05 Q1021=
201001181445 METAR LIRA 181445Z 04002KT 8000 SCT045 BKN070 09/05 Q1021=
201001181415 METAR LIRA 181415Z 36003KT 8000 SCT045 BKN070 10/05 Q1021=
201001181345 METAR LIRA 181345Z 02002KT 8000 SCT040 BKN070 09/05 Q1021=
201001181315 METAR LIRA 181315Z 00000KT 8000 SCT040 BKN070 09/05 Q1021=
201001181245 METAR LIRA 181245Z 35001KT 8000 FEW020 SCT040 BKN070 09/05
                        Q1021=
201001181215 METAR LIRA 181215Z 01004KT 8000 FEW020 SCT040 BKN070 09/05
                        Q1021=
201001181145 METAR LIRA 181145Z 36004KT 8000 FEW020 SCT040 BKN070 09/05
                        Q1021=
201001181115 METAR LIRA 181115Z 01003KT 8000 FEW020 SCT040 BKN070 09/05
                        Q1021=
201001181045 METAR LIRA 181045Z 03004KT 7000 FEW020 SCT035 BKN070 07/05
                        Q1021=
201001181015 METAR LIRA 181015Z 03004KT 7000 FEW020 SCT035 BKN070 07/04
                        Q1021=
201001180945 METAR LIRA 180945Z 02004KT 7000 FEW020 SCT035 BKN070 06/04
                        Q1021=
201001180915 METAR LIRA 180915Z 02002KT 6000 FEW020 SCT035 BKN070 05/04
                        Q1021=
201001180845 METAR LIRA 180845Z 04004KT 6000 FEW020 SCT035 BKN070 05/04
                        Q1021=
201001180815 METAR LIRA 180815Z 03003KT 6000 FEW020 SCT035 BKN070 05/04
                        Q1021=
201001180745 METAR LIRA 180745Z 02001KT 6000 FEW035 BKN080 04/03 Q1021=
201001180715 METAR LIRA 180715Z 02002KT 6000 FEW035 BKN080 03/03 Q1021=
201001180645 METAR LIRA 180645Z 36002KT 6000 FEW035 BKN080 03/02 Q1020=
201001180615 METAR LIRA 180615Z 35002KT 6000 SCT030 SCT070 03/02 Q1020=
201001180545 METAR LIRA 180545Z 00000KT 6000 FEW070 03/02 Q1020=
201001180515 METAR LIRA 180515Z 04003KT 6000 FEW080 03/03 Q1020=
201001180445 METAR LIRA 180445Z 04003KT 6000 FEW070 04/03 Q1020=
201001180415 METAR LIRA 180415Z 02002KT 6000 FEW010 SCT070 04/03 Q1020=
201001180345 METAR LIRA 180345Z 03004KT 6000 FEW010 SCT070 04/03 Q1020=
201001180315 METAR LIRA 180315Z 04002KT 6000 FEW010 SCT070 04/02 Q1020=
201001180245 METAR LIRA 180245Z 36002KT 6000 FEW010 SCT070 04/03 Q1020=
201001180215 METAR LIRA 180215Z 36001KT 6000 FEW010 SCT070 06/04 Q1020=
201001180145 METAR LIRA 180145Z 04003KT 6000 FEW010 SCT070 06/04 Q1020=
201001180115 METAR LIRA 180115Z 00000KT 5000 BR FEW010 SCT070 06/05 Q1020=
201001180045 METAR LIRA 180045Z 00000KT 5000 BR FEW010 SCT070 07/05 Q1020=
201001180015 METAR LIRA 180015Z 00000KT 5000 BR FEW010 SCT030 BKN070 07/05
                        Q1020=
201001172350 METAR LIRA 180045Z 00000KT 5000 BR FEW010 SCT070 07/05 Q1020=
201001172345 METAR LIRA 172345Z 34001KT 5000 BR FEW010 SCT030 BKN070 07/05
                        Q1020=
201001172315 METAR LIRA 172315Z 36002KT 5000 BR FEW010 SCT030 BKN070 07/05
                        Q1020=
201001172245 METAR LIRA 172245Z 05002KT 5000 BR FEW010 SCT030 BKN070 07/05
                        Q1020=
201001172215 METAR LIRA 172215Z 00000KT 5000 BR FEW010 SCT030 BKN070 07/05
                        Q1020=
201001172145 METAR LIRA 172145Z 04003KT 5000 BR FEW010 SCT030 BKN070 07/05
                        Q1020=
201001172115 METAR LIRA 172115Z 01003KT 5000 BR FEW010 SCT030 BKN070 07/05
                        Q1020=
201001172045 METAR LIRA 172045Z 02001KT 5000 BR FEW010 SCT030 07/05 Q1020=
201001172015 METAR LIRA 172015Z 02003KT 5000 BR FEW010 BKN027 07/05 Q1020=
201001171945 METAR LIRA 171945Z 02001KT 5000 BR FEW010 SCT027 08/05 Q1020=
201001171915 METAR LIRA 171915Z 01001KT 6000 FEW010 SCT027 08/05 Q1020=
201001171845 METAR LIRA 171845Z 09001KT 6000 FEW010 BKN027 08/05 Q1020=
201001171815 METAR LIRA 171815Z 00000KT 6000 FEW010 BKN025 08/05 Q1020=
201001171745 METAR LIRA 171745Z 02002KT 5000 BR FEW010 BKN025 08/05 Q1020=
201001171715 METAR LIRA 171715Z 00000KT 5000 BR SCT018 BKN025 08/05 Q1020=
201001171645 METAR LIRA 171645Z 03001KT 4000 BR SCT018 BKN025 08/05 Q1020=
201001171615 METAR LIRA 171615Z 02002KT 4000 BR SCT018 BKN025 08/05 Q1020=
201001171545 METAR LIRA 171545Z 04002KT 5000 BR FEW020 SCT030 BKN070 08/05
                        Q1020=
201001171515 METAR LIRA 171515Z 03002KT 5000 BR FEW020 SCT030 BKN070 08/05
                        Q1020=
201001171445 METAR LIRA 171445Z 04003KT 6000 FEW020 SCT030 BKN070 08/04
                        Q1020=
201001171415 METAR LIRA 171415Z 03003KT 6000 SCT040 BKN070 08/04 Q1020=
201001171345 METAR LIRA 171345Z 05003KT 6000 SCT040 BKN070 08/04 Q1020=
201001171315 METAR LIRA 171315Z 02003KT 6000 SCT040 BKN070 08/04 Q1021=
201001171245 METAR LIRA 171245Z 03002KT 6000 FEW020 SCT040 BKN070 07/04
                        Q1021=
201001171215 METAR LIRA 171215Z 06002KT 6000 FEW020 SCT040 BKN070 07/04
                        Q1021=
201001171145 METAR LIRA 171145Z 32003KT 8000 FEW020 SCT040 BKN080 07/04
                        Q1021=
201001171115 METAR LIRA 171115Z 34004KT 8000 FEW020 SCT035 BKN080 07/04
                        Q1022=
201001171045 METAR LIRA 171045Z 36002KT 8000 -DZ FEW020 SCT035 BKN080
                        07/04 Q1022=
201001171015 METAR LIRA 171015Z 35002KT 8000 -DZ FEW020 SCT030 BKN080
                        06/03 Q1022=
201001170945 METAR LIRA 170945Z 04002KT 8000 FEW018 SCT025 BKN070 05/03
                        Q1022=
201001170915 METAR LIRA 170915Z 09002KT 8000 FEW015 SCT023 BKN060 05/02
                        Q1022=
201001170845 METAR LIRA 170845Z 06002KT 8000 FEW015 SCT023 BKN060 04/02
                        Q1022=
201001170815 METAR LIRA 170815Z 04002KT 8000 FEW015 SCT023 BKN060 04/02
                        Q1022=
201001170800 LIRA=
201001170745 METAR LIRA 170745Z 03002KT 8000 SCT015 BKN023 04/02 Q1022=
201001170715 METAR LIRA 170715Z 04002KT 9999 SCT015 BKN023 04/01 Q1022=
201001170645 METAR LIRA 170645Z 36001KT 9999 SCT015 BKN023 03/01 Q1021=
201001170615 METAR LIRA 170615Z 04002KT 9999 FEW015 SCT023 BKN070 03/01
                        Q1021=
201001170545 METAR LIRA 170545Z 04002KT 9999 FEW023 SCT070 03/01 Q1021=
201001170515 METAR LIRA 170515Z 02002KT 9999 FEW023 SCT070 03/01 Q1021=
201001170445 METAR LIRA 170445Z 34002KT 9999 FEW020 SCT080 03/01 Q1020=
201001170415 METAR LIRA 170415Z 34002KT 9999 FEW018 SCT035 03/01 Q1021=
201001170345 METAR LIRA 170345Z 04002KT 9999 FEW018 SCT030 03/01 Q1021=
201001170315 METAR LIRA 170315Z 04002KT 9999 SCT025 SCT060 03/01 Q1021=
201001170245 METAR LIRA 170245Z 02002KT 9999 SCT030 SCT060 03/01 Q1021=
201001170215 METAR LIRA 170215Z 03001KT 9999 SCT030 SCT070 02/00 Q1021=
201001170145 METAR LIRA 170145Z 02001KT 9999 SCT030 SCT060 02/01 Q1021=
201001170115 METAR LIRA 170115Z 04004KT 9999 FEW030 02/01 Q1021=
201001170045 METAR LIRA 170045Z 04002KT 9999 FEW025 SCT060 02/01 Q1021=
201001170015 METAR LIRA 170015Z 01002KT 9999 FEW030 SCT070 02/01 Q1022=
201001162350 METAR LIRA 170045Z 04002KT 9999 FEW025 SCT060 02/01 Q1021=
201001162345 METAR LIRA 162345Z 04003KT 9999 FEW030 03/01 Q1022=
201001162315 METAR LIRA 162315Z 02003KT 9999 FEW025 03/01 Q1022=
201001162245 METAR LIRA 162245Z 03003KT 9999 FEW025 03/01 Q1022=
201001162215 METAR LIRA 162215Z 04003KT 9999 FEW025 03/01 Q1022=
201001162145 METAR LIRA 162145Z 02003KT 9999 FEW025 04/01 Q1022=
201001162115 METAR LIRA 162115Z 04005KT 9999 FEW025 04/01 Q1022=
201001162045 METAR LIRA 162045Z 05005KT 9999 FEW025 04/01 Q1022=
201001162015 METAR LIRA 162015Z 04004KT 9999 SCT035 SCT070 05/02 Q1022=
201001161945 METAR LIRA 161945Z 04003KT 9999 FEW025 SCT060 05/01 Q1022=
201001161915 METAR LIRA 161915Z 03002KT 9999 FEW025 06/01 Q1021=
201001161845 METAR LIRA 161845Z 14003KT 9999 FEW020 06/01 Q1021=
201001161815 METAR LIRA 161815Z 04003KT 9999 FEW020 06/02 Q1021=
201001161745 METAR LIRA 161745Z 04003KT 9999 FEW020 SCT070 07/01 Q1021=
201001161715 METAR LIRA 161715Z 04005KT 9999 FEW020 SCT060 07/02 Q1021=
201001161645 METAR LIRA 161645Z 05002KT 9999 FEW020 08/02 Q1020=
201001161615 METAR LIRA 161615Z 00000KT 9999 FEW018 08/02 Q1020=
201001161545 METAR LIRA 161545Z 23002KT 9999 FEW020 10/02 Q1020=
201001161515 METAR LIRA 161515Z 24002KT 9999 FEW020 10/01 Q1020=
201001161445 METAR LIRA 161445Z 26002KT 9999 FEW020 11/02 Q1020=
201001161415 METAR LIRA 161415Z 33002KT 9999 FEW020 11/01 Q1020=
201001161345 METAR LIRA 161345Z 33002KT 9999 FEW020 11/02 Q1019=
201001161315 METAR LIRA 161315Z 33001KT 9999 FEW020 10/01 Q1019=
201001161245 METAR LIRA 161245Z 01003KT 9999 FEW020 10/02 Q1019=
201001161215 METAR LIRA 161215Z 36005KT 9999 FEW020 10/02 Q1020=
201001161145 METAR LIRA 161145Z 03006KT 320V080 9999 FEW020 09/02 Q1020=
201001161115 METAR LIRA 161115Z 03005KT 330V080 9999 FEW020 09/03 Q1020=
201001161045 METAR LIRA 161045Z 03005KT 300V080 9999 FEW020 08/03 Q1020=
201001161015 METAR LIRA 161015Z 02006KT 310V070 CAVOK 07/02 Q1020=
201001160945 METAR LIRA 160945Z 01007KT 320V080 CAVOK 07/02 Q1020=
201001160915 METAR LIRA 160915Z 02007KT 310V070 CAVOK 04/01 Q1020=
201001160845 METAR LIRA 160845Z 03005KT 330V070 CAVOK 04/01 Q1019=
201001160815 METAR LIRA 160815Z 04005KT 320V080 CAVOK 03/01 Q1019=
201001160745 METAR LIRA 160745Z 03004KT CAVOK 02/M00 Q1019=
201001160715 METAR LIRA 160715Z 04005KT CAVOK 01/M01 Q1019=
201001160645 METAR LIRA 160645Z 05005KT CAVOK 01/M00 Q1018=
201001160615 METAR LIRA 160615Z 05004KT CAVOK 01/M00 Q1018=
201001160545 METAR LIRA 160545Z 04004KT CAVOK 01/00 Q1018=
201001160515 METAR LIRA 160515Z 04006KT CAVOK 01/00 Q1018=
201001160445 METAR LIRA 160445Z 05006KT CAVOK 01/M00 Q1018=
201001160415 METAR LIRA 160415Z 06006KT CAVOK 01/M00 Q1017=
201001160345 METAR LIRA 160345Z 03005KT 360V060 CAVOK 02/00 Q1018=
201001160315 METAR LIRA 160315Z 04004KT CAVOK 02/00 Q1017=
201001160245 METAR LIRA 160245Z 05002KT CAVOK 02/01 Q1017=
201001160215 METAR LIRA 160215Z 05005KT CAVOK 02/01 Q1017=
201001160145 METAR LIRA 160145Z 03005KT 360V060 CAVOK 03/01 Q1017=
201001160115 METAR LIRA 160115Z 05006KT CAVOK 03/01 Q1017=
201001160045 METAR LIRA 160045Z 03005KT CAVOK 03/01 Q1017=
201001160015 METAR LIRA 160015Z 36002KT CAVOK 03/01 Q1017=
201001152350 METAR LIRA 160045Z 03005KT CAVOK 03/01 Q1017=
201001152345 METAR LIRA 152345Z 02005KT CAVOK 04/01 Q1017=
201001152315 METAR LIRA 152315Z 03004KT CAVOK 04/01 Q1017=
201001152245 METAR LIRA 152245Z 06003KT CAVOK 04/01 Q1016=
201001152215 METAR LIRA 152215Z 04004KT CAVOK 04/01 Q1016=
201001152145 METAR LIRA 152145Z 05003KT CAVOK 05/01 Q1016=
201001152115 METAR LIRA 152115Z 04003KT CAVOK 05/01 Q1016=
201001152045 METAR LIRA 152045Z 29001KT CAVOK 05/00 Q1015=
201001152015 METAR LIRA 152015Z 04004KT CAVOK 06/01 Q1015=
201001151945 METAR LIRA 151945Z 05004KT CAVOK 06/01 Q1015=
201001151915 METAR LIRA 151915Z 06005KT CAVOK 06/01 Q1015=
201001151845 METAR LIRA 151845Z 07005KT CAVOK 05/01 Q1014=
201001151815 METAR LIRA 151815Z 07006KT 320V180 9000 NSC 06/02 Q1014=
201001151745 METAR LIRA 151745Z 02003KT 8000 NSC 06/02 Q1014=
201001151715 METAR LIRA 151715Z 09003KT 8000 NSC 06/02 Q1013=
201001151645 METAR LIRA 151645Z 08002KT 8000 NSC 07/01 Q1013=
201001151615 METAR LIRA 151615Z 08004KT 8000 NSC 08/02 Q1013=
201001151545 METAR LIRA 151545Z 08001KT CAVOK 09/02 Q1013=
201001151515 METAR LIRA 151515Z 06003KT CAVOK 10/02 Q1013=
201001151445 METAR LIRA 151445Z 04003KT CAVOK 10/03 Q1012=
201001151415 METAR COR LIRA 151415Z 36004KT 9999 FEW070 10/02 Q1012=
201001151345 METAR LIRA 151345Z 35006KT 310V050 9999 FEW070 SCT200 10/03
                        Q1012=
201001151315 METAR LIRA 151315Z 36004KT 330V060 9999 FEW070 10/03 Q1012=
201001151245 METAR LIRA 151245Z 36005KT 300V050 9999 FEW027 SCT080 10/02
                        Q1012=
201001151215 METAR LIRA 151215Z 35007KT 310V060 9999 FEW027 BKN080 09/03
                        Q1012=
201001151145 METAR LIRA 151145Z 36006KT 300V060 9999 FEW027 BKN080 09/03
                        Q1012=
201001151115 METAR LIRA 151115Z 36007KT 310V050 9999 FEW027 BKN080 09/02
                        Q1012=
201001151045 METAR LIRA 151045Z 35006KT 310V030 9999 FEW027 BKN080 10/01
                        Q1012=
201001151015 METAR LIRA 151015Z 04006KT 350V080 9999 FEW027 BKN080 10/01
                        Q1012=
201001150945 METAR LIRA 150945Z 03007KT 350V070 9999 FEW027 BKN080 09/02
                        Q1011=
201001150915 METAR LIRA 150915Z 04007KT 010V080 9999 FEW027 BKN080 08/01
                        Q1011=
201001150900 METAR LIRA INTER=
201001150845 METAR LIRA 150845Z 03009KT 330V060 9999 FEW027 BKN080 08/01
                        Q1011=
201001150815 METAR LIRA 150815Z 03007KT 330V080 9999 FEW027 BKN080 07/01
                        Q1010=
201001150745 METAR LIRA 150745Z 04006KT 350V090 9999 FEW033 BKN080 07/01
                        Q1010=
201001150715 METAR LIRA 150715Z 03004KT 9999 FEW033 06/01 Q1010=
201001150645 METAR LIRA 150645Z 02004KT 9999 SCT033 06/01 Q1010=
201001150615 METAR LIRA 150615Z 01005KT 330V060 9999 SCT033 SCT070 06/01
                        Q1009=
201001150545 METAR LIRA 150545Z 02005KT 330V060 9999 FEW020 06/01 Q1009=
201001150515 METAR LIRA 150515Z 04005KT 360V080 9999 FEW020 06/02 Q1009=
201001150445 METAR LIRA 150445Z 04006KT 9999 FEW020 06/02 Q1009=
201001150415 METAR LIRA 150415Z 03004KT 9999 FEW020 SCT070 06/02 Q1009=
201001150345 METAR LIRA 150345Z 03004KT 010V070 9999 FEW020 SCT070 07/02
                        Q1009=
201001150315 METAR LIRA 150315Z 04005KT 350V100 9999 FEW035 SCT070 07/01
                        Q1009=
201001150245 METAR LIRA 150245Z 09008KT 050V130 9999 SCT035 SCT070 08/01
                        Q1009=
201001150215 METAR LIRA 150215Z 03003KT 9999 SCT035 SCT070 07/02 Q1009=
201001150145 METAR LIRA 150145Z 06006KT 9999 SCT035 SCT070 07/02 Q1009=
201001150115 METAR LIRA 150115Z 05005KT 010V080 9999 SCT035 SCT070 07/02
                        Q1009=
201001150045 METAR LIRA 150045Z 06007KT 020V110 9000 SCT040 SCT070 07/02
                        Q1009=
201001150015 METAR LIRA 150015Z 06007KT 020V100 9000 SCT040 SCT070 07/02
                        Q1009=
201001142350 METAR LIRA 150045Z 06007KT 020V110 9000 SCT040 SCT070 07/02
                        Q1009=
201001142345 METAR LIRA 142345Z 06004KT 9000 SCT040 SCT070 07/03 Q1009=
201001142315 METAR LIRA 142315Z 07007KT 030V110 9000 SCT040 SCT070 06/03
                        Q1009=
201001142245 METAR LIRA 142245Z 06005KT 9000 SCT040 SCT070 06/03 Q1009=
201001142215 METAR LIRA 142215Z 08004KT 9000 SCT040 SCT070 06/03 Q1009=
201001142145 METAR LIRA 142145Z 07004KT 9000 SCT040 SCT070 06/03 Q1009=
201001142115 METAR LIRA 142115Z 00000KT 9000 FEW040 SCT070 06/03 Q1009=
201001142045 METAR LIRA 142045Z 05005KT 9999 FEW040 SCT060 06/03 Q1009=
201001142015 METAR LIRA 142015Z 05001KT 9999 FEW040 SCT070 06/03 Q1009=
201001141945 METAR LIRA 141945Z 09003KT 9999 FEW040 06/03 Q1009=
201001141915 METAR LIRA 141915Z 00000KT 9999 FEW040 06/03 Q1008=
201001141845 METAR LIRA 141845Z 13006KT 9999 FEW040 SCT070 06/03 Q1008=
201001141815 METAR LIRA 141815Z 11006KT 080V150 9999 FEW040 SCT080 06/03
                        Q1008=
201001141745 METAR LIRA 141745Z 23002KT 9999 FEW040 06/01 Q1009=
201001141715 METAR LIRA 141715Z 00000KT 9999 SCT080 06/02 Q1008=
201001141645 METAR LIRA 141645Z 06005KT 050V120 9999 FEW020 07/02 Q1008=
201001141615 METAR LIRA 141615Z 19004KT 9999 FEW020 08/02 Q1008=
201001141545 METAR LIRA 141545Z 14005KT 9999 FEW020 08/02 Q1008=
201001141515 METAR LIRA 141515Z 17003KT 9999 FEW020 09/02 Q1008=
201001141445 METAR LIRA 141445Z 21003KT 9999 FEW020 09/M00 Q1008=
201001141415 METAR LIRA 141415Z 20003KT 9999 FEW020 BKN200 10/M01 Q1008=
201001141345 METAR LIRA 141345Z 21006KT 9999 FEW020 BKN200 10/M01 Q1008=
201001141315 METAR LIRA 141315Z 19007KT CAVOK 11/M01 Q1008=
201001141245 METAR LIRA 141245Z 20005KT CAVOK 11/M01 Q1008=
201001141215 METAR LIRA 141215Z 17006KT 150V240 CAVOK 11/00 Q1008=
201001141145 METAR LIRA 141145Z 21004KT 150V270 CAVOK 11/01 Q1009=
201001141115 METAR LIRA 141115Z 30001KT 9000 NSC 10/04 Q1009=
201001141045 METAR LIRA 141045Z 26003KT 9000 NSC 08/04 Q1009=
201001141015 METAR LIRA 141015Z 29001KT 8000 NSC 07/03 Q1009=
201001140945 METAR LIRA 140945Z 01002KT 8000 NSC 05/03 Q1009=
201001140915 METAR LIRA 140915Z 00000KT 8000 NSC 04/02 Q1009=
201001140845 METAR LIRA 140845Z 01002KT 8000 NSC 03/02 Q1009=
201001140815 METAR LIRA 140815Z 03002KT 8000 NSC 03/02 Q1009=
201001140745 METAR LIRA 140745Z 00000KT 8000 NSC 02/01 Q1009=
201001140715 METAR LIRA 140715Z 03002KT 8000 NSC 01/00 Q1008=
201001140645 METAR LIRA 140645Z 06003KT 8000 NSC 01/00 Q1008=
201001140615 METAR LIRA 140615Z 02003KT 8000 NSC 01/00 Q1008=
201001140545 METAR LIRA 140545Z 02003KT 8000 NSC 02/00 Q1008=
201001140515 METAR LIRA 140515Z 05004KT 8000 FEW080 02/01 Q1008=
201001140445 METAR LIRA 140445Z 03003KT 8000 FEW070 02/01 Q1008=
201001140415 METAR LIRA 140415Z 04003KT 8000 FEW080 02/01 Q1008=
201001140345 METAR LIRA 140345Z 03003KT 8000 FEW080 02/01 Q1008=
201001140315 METAR LIRA 140315Z 04002KT 8000 FEW080 03/01 Q1008=
201001140245 METAR LIRA 140245Z 03001KT 8000 FEW080 03/01 Q1008=
201001140145 METAR LIRA 140145Z 00000KT 8000 FEW080 03/01 Q1007=
201001140115 METAR LIRA 140115Z 02003KT 8000 FEW080 04/01 Q1007=
201001140045 METAR LIRA 140045Z 03004KT 8000 FEW080 04/01 Q1008=
201001140015 METAR LIRA 140015Z 02003KT 8000 FEW001 SCT080 04/01 Q1008=
201001132350 METAR LIRA 140045Z 03004KT 8000 FEW080 04/01 Q1008=
201001132345 METAR LIRA 132345Z 03004KT 8000 FEW030 SCT080 04/01 Q1008=
201001132315 METAR LIRA 132315Z 06006KT 020V090 8000 FEW018 SCT070 04/02
                        Q1008=
201001132245 METAR LIRA 132245Z 07003KT 8000 FEW018 SCT070 04/02 Q1008=
201001132215 METAR LIRA 132215Z 05002KT 8000 FEW018 SCT070 04/01 Q1008=
201001132145 METAR LIRA 132145Z 36002KT 8000 FEW030 SCT080 04/02 Q1007=
201001132115 METAR LIRA 132115Z 35002KT 8000 FEW030 SCT070 05/01 Q1007=
201001132045 METAR LIRA 132045Z 05004KT 8000 FEW030 SCT080 05/02 Q1007=
201001132015 METAR LIRA 132015Z 06004KT 8000 FEW018 SCT030 05/02 Q1007=
201001131945 METAR LIRA 131945Z 05004KT 8000 FEW018 SCT030 05/02 Q1007=
201001131915 METAR LIRA 131915Z 05003KT 8000 FEW018 SCT030 06/02 Q1006=
201001131845 METAR LIRA 131845Z 01002KT 8000 FEW018 SCT030 06/03 Q1006=
201001131815 METAR LIRA 131815Z 36002KT 8000 FEW018 SCT030 05/02 Q1005=
201001131745 METAR LIRA 131745Z 03002KT 8000 FEW018 SCT035 BKN070 05/03
                        Q1005=
201001131715 METAR LIRA 131715Z 04003KT 8000 FEW018 SCT035 BKN070 06/03
                        Q1005=
201001131645 METAR LIRA 131645Z 04002KT 8000 FEW018 SCT035 BKN070 06/02
                        Q1005=
201001131615 METAR LIRA 131615Z 01003KT 8000 FEW018 BKN070 06/02 Q1004=
201001131545 METAR LIRA 131545Z 01003KT 8000 FEW018 BKN060 06/02 Q1004=
201001131515 METAR LIRA 131515Z 03006KT 350V080 8000 -DZ FEW018 SCT026
                        BKN060 06/02 Q1004=
201001131445 METAR LIRA 131445Z 05007KT 8000 -DZ FEW018 SCT026 BKN060
                        06/02 Q1004=
201001131415 METAR LIRA 131415Z 04008KT 360V070 8000 -DZ FEW018 SCT026
                        BKN070 06/02 Q1004=
201001131345 METAR LIRA 131345Z 04008KT 340V080 8000 -DZ FEW018 SCT026
                        BKN060 06/02 Q1004=
201001131315 METAR LIRA 131315Z 05011KT 010V080 8000 -DZ SCT018 SCT026
                        BKN070 06/03 Q1004=
201001131245 METAR LIRA 131245Z 06010KT 030V090 8000 -DZ SCT018 SCT026
                        BKN060 07/03 Q1005=
201001131215 METAR LIRA 131215Z 05007KT 360V080 8000 DZ SCT018 SCT026
                        BKN070 06/02 Q1005=
201001131145 METAR LIRA 131145Z 06007KT 360V110 8000 -DZ SCT020 SCT027
                        BKN070 06/01 Q1005=
201001131115 METAR LIRA 131115Z 06009KT 020V110 8000 -DZ FEW020 BKN030
                        06/01 Q1006=
201001131045 METAR LIRA 131045Z 08009KT 040V100 8000 -DZ FEW020 BKN030
                        06/01 Q1006=
201001131015 METAR LIRA 131015Z 08009KT 8000 -DZ FEW023 BKN030 06/01 Q1006=
201001130945 METAR LIRA 130945Z 08007KT 040V120 8000 -DZ FEW023 BKN030
                        06/01 Q1006=
201001130915 METAR LIRA 130915Z 07005KT 030V120 9999 -DZ FEW023 BKN030
                        06/02 Q1007=
201001130845 METAR LIRA 130845Z 07007KT 040V120 9999 -DZ FEW023 BKN030
                        06/02 Q1007=
201001130815 METAR LIRA 130815Z 07004KT 030V110 9999 -DZ FEW023 SCT030
                        BKN070 06/02 Q1007=
201001130745 METAR LIRA 130745Z 00000KT 9999 -DZ FEW023 BKN030 06/02 Q1007=
201001130715 METAR LIRA 130715Z 08004KT 9999 -DZ FEW023 BKN030 06/01 Q1007=
201001130645 METAR LIRA 130645Z 11007KT 9999 -DZ FEW023 BKN030 05/00 Q1007=
201001130615 METAR LIRA 130615Z 11007KT 9999 FEW018 SCT025 BKN070 05/02
                        Q1007=
201001130545 METAR LIRA 130545Z 12008KT 070V170 8000 FEW018 BKN070 05/01
                        Q1007=
201001130515 METAR LIRA 130515Z 09006KT 8000 FEW015 SCT025 04/01 Q1007=
201001130445 METAR LIRA 130445Z 08003KT 040V110 8000 FEW015 SCT025 04/00
                        Q1007=
201001130415 METAR LIRA 130415Z 09004KT 8000 FEW015 SCT025 03/M00 Q1008=
201001130345 METAR LIRA 130345Z 35004KT 8000 FEW015 SCT025 03/M00 Q1009=
201001130315 METAR LIRA 130315Z 07002KT 8000 FEW015 SCT025 02/01 Q1009=
201001130245 METAR LIRA 130245Z 06001KT 8000 FEW015 SCT030 02/01 Q1010=
201001130215 METAR LIRA 130215Z 00000KT 8000 FEW015 SCT030 02/01 Q1010=
201001130145 METAR LIRA 130145Z 28003KT 8000 FEW015 SCT025 02/01 Q1010=
201001130115 METAR LIRA 130115Z 00000KT 8000 FEW015 SCT025 02/00 Q1010=
201001130045 METAR LIRA 130045Z 06001KT 8000 FEW015 SCT025 02/00 Q1010=
201001130015 METAR LIRA 130015Z 02002KT 8000 FEW015 SCT025 01/M00 Q1011=
201001122350 METAR LIRA 130045Z 06001KT 8000 FEW015 SCT025 02/00 Q1010=
201001122345 METAR LIRA 122345Z 32002KT 8000 FEW030 SCT070 01/M00 Q1011=
201001122315 METAR LIRA 122315Z 32003KT 8000 FEW030 SCT070 01/M01 Q1011=
201001122245 METAR LIRA 122245Z 00000KT 9999 SCT070 01/M00 Q1012=
201001122215 METAR LIRA 122215Z 29001KT 9999 SCT070 02/01 Q1012=
201001122145 METAR LIRA 122145Z 03003KT 9999 SCT070 02/M01 Q1012=
201001122115 METAR LIRA 122115Z 05006KT 9999 FEW070 03/01 Q1012=
201001122045 METAR LIRA 122045Z 10005KT 9999 FEW070 04/01 Q1013=
201001122015 METAR LIRA 122015Z 12002KT 9999 FEW070 04/01 Q1013=
201001121945 METAR LIRA 121945Z 12003KT CAVOK 03/00 Q1013=
201001121915 METAR LIRA 121915Z 10005KT 9999 FEW070 03/00 Q1013=
201001121845 METAR LIRA 121845Z 12002KT 9999 FEW070 03/00 Q1013=
201001121815 METAR LIRA 121815Z 14003KT CAVOK 03/01 Q1012=
201001121745 METAR LIRA 121745Z 00000KT CAVOK 04/02 Q1012=
201001121715 METAR LIRA 121715Z 00000KT CAVOK 04/03 Q1012=
201001121645 METAR LIRA 121645Z 09002KT CAVOK 06/02 Q1012=
201001121615 METAR LIRA 121615Z 07003KT CAVOK 06/02 Q1012=
201001121545 METAR LIRA 121545Z 05003KT CAVOK 07/02 Q1012=
201001121515 METAR LIRA 121515Z 03002KT 9999 FEW018 08/02 Q1013=
201001121445 METAR LIRA 121445Z 35001KT 9999 FEW018 08/04 Q1013=
201001121415 METAR LIRA 121415Z 33003KT 9999 FEW018 07/04 Q1013=
201001121345 METAR LIRA 121345Z 00000KT 9999 FEW018 06/04 Q1013=
201001121315 METAR LIRA 121315Z 01002KT 9999 FEW018 06/04 Q1013=
201001121245 METAR LIRA 121245Z 02003KT 9999 FEW016 05/04 Q1013=
201001121215 METAR LIRA 121215Z 04002KT 8000 FEW016 05/04 Q1013=
201001121145 METAR LIRA 121145Z 08004KT 5000 BR FEW012 03/03 Q1014=
201001121115 METAR LIRA 121115Z 06003KT 4000 BR FEW007 03/02 Q1014=
201001121045 METAR LIRA 121045Z 04005KT 0900 R15//// BCFG BKN003 03/01
                        Q1014=
201001121015 METAR LIRA 121015Z 05006KT 0400 R15//// FG OVC001 02/01 Q1014=
201001120945 METAR LIRA 120945Z 04007KT 360V090 0400 R15//// FG OVC001
                        02/01 Q1014=
201001120915 METAR LIRA 120915Z 03007KT 340V080 0400 R15//// FG OVC001
                        01/00 Q1014=
201001120845 METAR LIRA 120845Z 04006KT 350V070 0200 R15//// FG OVC001
                        00/M00 Q1014=
201001120815 METAR LIRA 120815Z 03005KT 360V100 0200 R15//// FG OVC001
                        00/M00 Q1014=
201001120745 METAR LIRA 120745Z 04004KT 360V080 0200 R15//// FG OVC001
                        00/M00 Q1014=
201001120715 METAR LIRA 120715Z 04007KT 300V070 0300 R15//// FG OVC001
                        00/M00 Q1013=
201001120645 METAR LIRA 120645Z 04007KT 300V090 0300 R15//// FG OVC001
                        00/M00 Q1013=
201001120615 METAR LIRA 120615Z 04006KT 360V080 0300 R15//// FG OVC001
                        00/M00 Q1013=
201001120545 METAR LIRA 120545Z 04006KT 300V070 0200 R15//// FG OVC001
                        01/M00 Q1013=
201001120515 METAR LIRA 120515Z 04002KT 0200 R15//// FG OVC001 01/00 Q1013=
201001120445 METAR LIRA 120445Z VRB01KT 0250 R15//// BCFG OVC001 01/00
                        Q1013=
201001120415 METAR LIRA 120415Z 00000KT 7000 FEW007 01/00 Q1013=
201001120345 METAR LIRA 120345Z 00000KT 8000 FEW025 01/01 Q1013=
201001120315 METAR LIRA 120315Z 04002KT 7000 FEW010 02/01 Q1013=
201001120245 METAR LIRA 120245Z 02002KT 4000 BR SCT004 02/02 Q1013=
201001120215 METAR LIRA 120215Z 01002KT 6000 FEW006 02/02 Q1013=
201001120145 METAR LIRA 120145Z 02002KT 6000 FEW006 03/02 Q1013=
201001120115 METAR LIRA 120115Z 02002KT 7000 FEW020 04/03 Q1013=
201001120045 METAR LIRA 120045Z 04002KT 7000 FEW023 04/03 Q1013=
201001120015 METAR LIRA 120015Z 05003KT 7000 FEW023 04/04 Q1013=
201001112350 METAR LIRA 120045Z 04002KT 7000 FEW023 04/03 Q1013=
201001112345 METAR LIRA 112345Z 04003KT 7000 SCT023 05/03 Q1013=
201001112315 METAR LIRA 112315Z 04005KT 360V070 6000 SCT023 SCT060 05/04
                        Q1013=
201001112245 METAR LIRA 112245Z 01002KT 7000 SCT030 SCT060 05/03 Q1013=
201001112215 METAR LIRA 112215Z 00000KT 8000 SCT030 SCT060 05/04 Q1013=
201001112145 METAR LIRA 112145Z 00000KT 8000 SCT035 SCT070 05/04 Q1013=
201001112115 METAR LIRA 112115Z 00000KT 8000 SCT035 SCT070 05/04 Q1013=
201001112045 METAR LIRA 112045Z 09001KT 8000 SCT035 SCT070 05/04 Q1012=
201001112015 METAR LIRA 112015Z 09002KT 8000 FEW018 SCT035 06/04 Q1013=
201001111945 METAR LIRA 111945Z 14002KT 8000 FEW017 SCT035 06/05 Q1012=
201001111915 METAR LIRA 111915Z 11003KT 8000 FEW017 SCT035 06/05 Q1012=
201001111845 METAR LIRA 111845Z 12002KT 7000 -RA SCT017 SCT030 05/04 Q1012=
201001111815 METAR LIRA 111815Z 00000KT 7000 -RA SCT017 SCT030 06/04 Q1012=
201001111745 METAR LIRA 111745Z 06001KT 8000 -DZ FEW018 SCT030 06/04 Q1012=
201001111715 METAR LIRA 111715Z 00000KT 7000 -DZ FEW018 BKN025 06/04 Q1012=
201001111645 METAR LIRA 111645Z 00000KT 9999 -DZ FEW018 BKN025 06/04 Q1011=
201001111615 METAR LIRA 111615Z 00000KT 9999 -RA FEW018 BKN025 07/05 Q1011=
201001111545 METAR LIRA 111545Z 27003KT 9999 -RA FEW018 BKN025 07/04 Q1011=
201001111515 METAR LIRA 111515Z 00000KT 9999 FEW018 BKN030 07/03 Q1011=
201001111445 METAR LIRA 111445Z 10004KT 9999 FEW018 SCT030 BKN070 07/04
                        Q1011=
201001111415 METAR LIRA 111415Z 09004KT 9999 FEW018 SCT030 BKN070 07/04
                        Q1012=
201001111345 METAR LIRA 111345Z 12002KT 9999 FEW018 SCT030 BKN070 08/05
                        Q1012=
201001111315 METAR LIRA 111315Z 13004KT 9999 FEW018 BKN070 07/04 Q1012=
201001111245 METAR LIRA 111245Z 11004KT 9999 FEW018 SCT030 BKN070 06/04
                        Q1012=
201001111215 METAR LIRA 111215Z 13005KT 8000 FEW015 SCT025 BKN070 06/03
                        Q1012=
201001111145 METAR LIRA 111145Z 16006KT 8000 -RA FEW015 SCT025 BKN070
                        06/04 Q1013=
201001111115 METAR LIRA 111115Z 18004KT 8000 -RA FEW018 SCT030 BKN070
                        07/03 Q1013=
201001111045 METAR LIRA 111045Z 16005KT 9999 FEW018 SCT030 BKN070 06/03
                        Q1013=
201001111015 METAR LIRA 111015Z 14009KT 100V170 9999 FEW018 SCT030 06/03
                        Q1013=
201001110945 METAR LIRA 110945Z 15010KT 9999 FEW018 SCT025 06/03 Q1014=
201001110915 METAR LIRA 110915Z 15010KT 110V190 9999 FEW018 SCT025 06/03
                        Q1014=
201001110845 METAR LIRA 110845Z 15010KT 120V180 9999 FEW018 SCT025 07/03
                        Q1014=
201001110815 METAR LIRA 110815Z 16007KT 9999 FEW018 SCT027 BKN070 07/02
                        Q1013=
201001110745 METAR LIRA 110745Z 14007KT 9999 SCT018 FEW020CB BKN027 07/02
                        Q1013=
201001110715 METAR LIRA 110715Z 13007KT 100V170 9999 SCT018 FEW020CB BKN027
                        06/02 Q1013=
201001110645 METAR LIRA 110645Z 10001KT 9999 SCT018 BKN025 06/04 Q1013=
201001110615 METAR LIRA 110615Z 14004KT 9999 FEW018 SCT030 BKN070 06/04
                        Q1013=
201001110600 METAR LIRA INT=
201001110545 METAR LIRA 110545Z 14006KT 9999 -DZ FEW018 SCT040 BKN070
                        06/04 Q1013=
201001110515 METAR LIRA 110515Z 13005KT 9999 FEW018 SCT040 05/03 Q1013=
201001110500 METAR LIRA INT=
201001110445 METAR LIRA 110445Z 13005KT 9999 FEW018 SCT040 04/03 Q1013=
201001110415 METAR LIRA 110415Z 14002KT 9999 FEW017 SCT040 04/03 Q1013=
201001110400 METAR LIRA INT, LOW CLDS MVG S=
201001110345 METAR LIRA 110345Z 06003KT 9999 FEW017 SCT035 05/04 Q1013=
201001110315 METAR LIRA 110315Z 00000KT 9999 FEW017 SCT035 05/04 Q1013=
201001110300 METAR LIRA INT, LOW CLDS MVG S=
201001110245 METAR LIRA 110245Z 12002KT 9999 FEW017 SCT035 05/04 Q1013=
201001110215 METAR LIRA 110215Z VRB02KT 8000 -RA SCT018 BKN030 05/04 Q1013=
201001110200 METAR LIRA CONTUS=
201001110145 METAR LIRA 110145Z VRB01KT 9999 -DZ SCT017 SCT030 06/03 Q1013=
201001110115 METAR LIRA 110115Z 14002KT 9999 SCT018 SCT035 06/04 Q1013=
201001110100 METAR LIRA INT=
201001110045 METAR LIRA 110045Z 00000KT 9999 FEW018 BKN040 06/04 Q1012=
201001110015 METAR LIRA 110015Z 19003KT 9999 FEW018 BKN035 06/03 Q1012=
201001110000 METAR LIRA INT=
201001102350 METAR LIRA 110045Z 00000KT 9999 FEW018 BKN040 06/04 Q1012=
201001102345 METAR LIRA 102345Z 16004KT 9999 FEW018 BKN035 06/03 Q1012=
201001102315 METAR LIRA 102315Z 16006KT 9999 FEW018 BKN035 06/03 Q1012=
201001102245 METAR LIRA 102245Z 18005KT 150V210 9999 FEW018 BKN035 06/03
                        Q1012=
201001102215 METAR LIRA 102215Z 15006KT 9999 FEW018 BKN035 06/03 Q1012=
201001102145 METAR LIRA 102145Z 16004KT 9999 FEW017 SCT030 06/03 Q1012=
201001102115 METAR LIRA 102115Z 16008KT 9999 SCT017 SCT035 05/02 Q1012=
201001102045 METAR LIRA 102045Z 16006KT 9999 FEW018 SCT035 05/03 Q1012=
201001102015 METAR LIRA 102015Z 13008KT 100V170 9999 SCT018 SCT035 05/03
                        Q1012=
201001101945 METAR LIRA 101945Z 17005KT 110V170 9000 -RA SCT018 BKN035
                        05/03 Q1012 RERA=
201001101915 METAR LIRA 101915Z 17010KT 150V210 7000 RA SCT018 BKN030
                        05/03 Q1011=
201001101845 METAR LIRA 101845Z 19010KT 140V220 9999 -RA SCT018 BKN035
                        07/02 Q1011=
201001101815 METAR LIRA 101815Z 16009KT 9999 FEW018 BKN035 06/02 Q1011=
201001101745 METAR LIRA 101745Z 18006KT 9999 SCT018 SCT030 07/01 Q1010=
201001101715 METAR LIRA 101715Z 18006KT 150V220 9999 SCT018 BKN030 07/01
                        Q1010=
201001101645 METAR LIRA 101645Z 19007KT 160V240 9999 FEW017 BKN030 07/00
                        Q1010=
201001101615 METAR LIRA 101615Z 19007KT 140V230 9999 FEW017 BKN030 07/01
                        Q1010=
201001101545 METAR LIRA 101545Z 19007KT 160V250 9999 FEW017 SCT030 07/00
                        Q1009=
201001101515 METAR LIRA 101515Z 19008KT 170V260 9999 FEW017 BKN030 07/00
                        Q1009=
201001101445 METAR LIRA 101445Z 20005KT 140V250 9999 FEW017 BKN030 07/00
                        Q1009=
201001101415 METAR LIRA 101415Z 22006KT 150V250 9999 FEW017 BKN030 07/01
                        Q1009=
201001101345 METAR LIRA 101345Z 21008KT 170V260 9999 FEW017 BKN030 07/00
                        Q1009=
201001101315 METAR LIRA 101315Z 21008KT 150V250 9999 FEW017 FEW019TCU
                        BKN030 08/01 Q1009=
201001101245 METAR LIRA 101245Z 20009KT 160V250 9999 SCT017 FEW019TCU
                        SCT030 08/01 Q1009=
201001101215 METAR LIRA 101215Z 21007KT 140V260 9999 SCT017 SCT030 08/01
                        Q1009=
201001101145 METAR LIRA 101145Z 17008KT 140V220 9999 SCT017 SCT030 07/02
                        Q1009=
201001101115 METAR LIRA 101115Z 18008KT 150V240 9999 FEW015 SCT030 08/03
                        Q1009=
201001101045 METAR LIRA 101045Z 19004KT 140V230 9999 FEW015 BKN030 08/04
                        Q1009=
201001101015 METAR LIRA 101015Z 18006KT 110V210 9999 FEW015 BKN030 08/03
                        Q1009=
201001100945 METAR LIRA 100945Z 17006KT 140V230 9999 FEW015 BKN030 08/03
                        Q1008=
201001100915 METAR LIRA 100915Z 17004KT 9999 FEW015 SCT030 07/04 Q1008=
201001100845 METAR LIRA 100845Z 11004KT 9999 FEW015 SCT030 06/03 Q1007=
201001100815 METAR LIRA 100815Z 13004KT 9999 FEW015 SCT030 05/03 Q1007=
201001100745 METAR LIRA 100745Z 09006KT 9999 FEW015 SCT030 04/03 Q1007=
201001100715 METAR LIRA 100715Z 07005KT 030V120 9000 -RA FEW015 SCT030
                        04/03 Q1007=
201001100645 METAR LIRA 100645Z 06008KT 350V080 7000 -RA FEW015 BKN030
                        04/03 Q1007=
201001100615 METAR LIRA 100615Z 00000KT 8000 -RA FEW015 BKN030 04/03 Q1006=
201001100545 METAR LIRA 100545Z 00000KT 7000 -RA FEW015 BKN030 04/03 Q1006=
201001100515 METAR LIRA 100515Z 00000KT 7000 -RA FEW015 BKN030 05/04 Q1006=
201001100445 METAR LIRA 100445Z 28005KT 8000 -RA FEW015 BKN030 05/03 Q1005=
201001100415 METAR LIRA 100415Z 27002KT 9999 FEW015 SCT030 05/03 Q1005=
201001100345 METAR LIRA 100345Z 06005KT 030V090 9999 FEW015 SCT030 05/03
                        Q1005=
201001100315 METAR LIRA 100315Z 10005KT 7000 -RA SCT008 FEW017TCU SCT030
                        05/03 Q1005=
201001100245 METAR LIRA 100245Z 15008KT 120V190 7000 -RA SCT008 FEW017TCU
                        BKN070 05/03 Q1005=
201001100215 METAR LIRA 100215Z 14007KT 120V190 9999 -RA SCT008 FEW017TCU
                        BKN070 05/03 Q1005=
201001100145 METAR LIRA 100145Z 12007KT 6000 -RA SCT008 FEW017TCU BKN070
                        05/04 Q1005=
201001100115 METAR LIRA 100115Z 17009KT 6000 -RA SCT008 FEW017TCU BKN070
                        05/03 Q1005=
201001100045 METAR LIRA 100045Z 17006KT 150V240 9999 -DZ FEW016 FEW018TCU
                        BKN070 05/03 Q1005=
201001100015 METAR LIRA 100015Z 12002KT 9999 FEW016 FEW018TCU BKN070 05/03
                        Q1004=
201001092350 METAR LIRA 100045Z 17006KT 150V240 9999 -DZ FEW016 FEW018TCU
                        BKN070 05/03 Q1005=
201001092345 METAR LIRA 092345Z 14001KT 9999 FEW017 SCT070 05/03 Q1004=
201001092315 METAR LIRA 092315Z 16001KT 9999 FEW017 SCT070 04/02 Q1004=
201001092245 METAR LIRA 092245Z 13002KT 9999 FEW017 SCT070 04/02 Q1004=
201001092215 METAR LIRA 092215Z 11002KT 9999 FEW017 05/02 Q1004=
201001092145 METAR LIRA 092145Z 13002KT 9999 FEW017 05/02 Q1004=
201001092115 METAR LIRA 092115Z 15004KT 9999 FEW017 SCT070 05/03 Q1004=
201001092045 METAR LIRA 092045Z 15002KT 9999 FEW017 SCT070 05/03 Q1004=
201001092015 METAR LIRA 092015Z 17005KT 9999 FEW017 SCT070 06/02 Q1004=
201001091945 METAR LIRA 091945Z 18005KT 150V210 9999 FEW015 SCT030 07/02
                        Q1004=
201001091915 METAR LIRA 091915Z 21005KT 160V250 9999 FEW015 SCT030 07/02
                        Q1003=
201001091845 METAR LIRA 091845Z 19006KT 160V250 9999 FEW015 BKN030 07/02
                        Q1003=
201001091815 METAR LIRA 091815Z 19006KT 150V220 9999 FEW015 BKN030 07/02
                        Q1002=
201001091745 METAR LIRA 091745Z 19005KT 090V250 9999 FEW015 BKN030 07/02
                        Q1001=
201001091715 METAR LIRA 091715Z 21006KT 160V250 9000 FEW015 FEW018CB BKN030
                        07/03 Q1001=
201001091645 METAR LIRA 091645Z 21005KT 160V250 9000 -RA FEW015 FEW018CB
                        BKN030 07/04 Q1001=
201001091615 METAR LIRA 091615Z 19007KT 150V240 7000 -RA FEW015 FEW018CB
                        BKN030 07/04 Q1000=
201001091545 METAR LIRA 091545Z 21003KT 7000 -RA FEW015 FEW018CB BKN030
                        07/04 Q1000=
201001091515 METAR LIRA 091515Z 22005G18KT 180V270 8000 -RA FEW015 FEW018CB
                        BKN030 08/05 Q0999=
201001091445 METAR LIRA 091445Z 18006KT 8000 -RA FEW015 FEW018CB BKN030
                        08/06 Q0999=
201001091415 METAR LIRA 091415Z 17006KT 140V230 8000 -RA FEW015 FEW018CB
                        BKN030 08/06 Q0998 RERA=
201001091345 METAR LIRA 091345Z 17008KT 130V230 7000 -RA FEW015 FEW018CB
                        BKN030 08/06 Q0998 RERA=
201001091315 METAR LIRA 091315Z 16006KT 120V200 4000 RA BR FEW011 SCT015
                        FEW018CB BKN030 07/05 Q0997=
201001091245 METAR LIRA 091245Z 17010KT 130V230 4000 RA BR FEW011 SCT015
                        FEW018CB BKN030 08/06 Q0997=
201001091215 METAR LIRA 091215Z 16012G23KT 130V200 4000 RA BR FEW011 SCT015
                        FEW018CB BKN025 08/05 Q0997=
201001091145 METAR LIRA 091145Z 16012KT 110V210 8000 -RA SCT015 FEW018CB
                        BKN025 08/05 Q0996=
201001091115 METAR LIRA 091115Z 15013KT 120V200 9000 -RA SCT015 FEW018CB
                        BKN025 07/05 Q0997=
201001091045 METAR LIRA 091045Z 16010KT 120V200 8000 -RA SCT013 FEW018CB
                        BKN025 07/05 Q0997 RERA=
201001091015 METAR LIRA 091015Z 15014KT 8000 -RA SCT013 FEW018CB BKN025
                        07/05 Q0997 RERA=
201001090945 METAR LIRA 090945Z 15015G26KT 110V180 7000 3000S RA BR SCT013
                        FEW018CB BKN020 08/06 Q0997=
201001090915 METAR LIRA 090915Z 14013KT 110V180 8000 3000E -RA BR SCT015
                        FEW018CB BKN025 08/05 Q0996 RERA=
201001090845 METAR LIRA 090845Z 14014KT 9999 SCT017 FEW020CB BKN025 09/05
                        Q0996=
201001090815 METAR LIRA 090815Z 14014KT 9999 SCT017 08/05 Q0996=
201001090745 METAR LIRA 090745Z 15013KT 9999 FEW011 SCT015 08/05 Q0996=
201001090715 METAR LIRA 090715Z 16012KT 9000 SCT015 SCT030 07/05 Q0996=
201001090645 METAR LIRA 090645Z 15013KT 8000 -RA SCT014 BKN030 07/06 Q0996=
201001090615 METAR LIRA 090615Z 16012KT 120V180 9000 -RA SCT015 BKN030
                        07/06 Q0996=
201001090545 METAR LIRA 090545Z 16012KT 5000 -RA BR SCT015 BKN030 07/06
                        Q0996=
201001090515 METAR LIRA 090515Z 16010KT 5000 -RA BR SCT013 BKN023 07/05
                        Q0996=
201001090445 METAR LIRA 090445Z 16009KT 3000 -RA BR SCT013 BKN023 07/05
                        Q0996=
201001090415 METAR LIRA 090415Z 19008KT 150V230 6000 -RA FEW014 BKN023
                        07/05 Q0995=
201001090345 METAR LIRA 090345Z 21017G32KT 160V250 5000 -RA BR FEW013
                        BKN023 07/06 Q0993=
201001090315 METAR LIRA 090315Z 19025G48KT 130V240 4000 -RA BR FEW013
                        BKN023 08/07 Q0991=
201001090245 METAR LIRA 090245Z 11018G32KT 040V170 9999 FEW018 SCT025
                        BKN070 11/07 Q0989=
201001090215 METAR LIRA 090215Z 10010G21KT 040V180 9999 FEW030 SCT070
                        11/08 Q0994=
201001090145 METAR LIRA 090145Z 10010KT 040V180 9999 FEW030 SCT070 11/08
                        Q0994=
201001090115 METAR LIRA 090115Z 09009KT 9999 FEW025 SCT070 BKN080 10/08
                        Q0994=
201001090045 METAR LIRA 090045Z 09008KT 9999 FEW025 SCT070 10/08 Q0995=
201001090015 METAR LIRA 090015Z 07005KT 8000 FEW025 SCT070 10/08 Q0996=
201001082350 METAR LIRA 090045Z 09008KT 9999 FEW025 SCT070 10/08 Q0995=
201001082345 METAR LIRA 082345Z 08002KT 8000 FEW025 SCT070 10/08 Q0996=
201001082315 METAR LIRA 082315Z 08002KT 9999 FEW013 SCT070 10/08 Q0997=
201001082245 METAR LIRA 082245Z 09003KT 9999 FEW013 SCT025 11/09 Q0997=
201001082215 METAR LIRA 082215Z 09003KT 9999 SCT030 BKN070 11/09 Q0998=
201001082145 METAR LIRA 082145Z 13005KT 9999 SCT030 BKN070 10/09 Q0998=
201001082115 METAR LIRA 082115Z 15005KT 9999 FEW030 BKN070 10/09 Q0999=
201001082045 METAR LIRA 082045Z 14005KT 9999 -DZ SCT025 BKN070 10/09 Q0999=
201001082015 METAR LIRA 082015Z 12004KT 9999 -DZ SCT025 BKN070 10/09 Q0999=
201001081945 METAR LIRA 081945Z 05001KT 8000 FEW030 BKN070 11/10 Q0999=
201001081915 METAR LIRA 081915Z 05005KT 9999 FEW025 BKN070 11/10 Q0998=
201001081845 METAR LIRA 081845Z 15004KT 9999 FEW025 SCT070 11/09 Q0998=
201001081815 METAR LIRA 081815Z 30002KT 8000 FEW018 SCT070 11/10 Q0998=
201001081745 METAR LIRA 081745Z 29002KT 8000 FEW008 FEW020CB SCT025 12/11
                        Q0998=
201001081715 METAR LIRA 081715Z 23005KT 190V330 8000 -RA SCT008 FEW012CB
                        BKN025 13/11 Q0998=
201001081645 METAR LIRA 081645Z 22006KT 170V250 5000 -RA BR SCT008 FEW012CB
                        BKN025 13/11 Q0997=
201001081615 METAR LIRA 081615Z 20007KT 150V250 4000 -RA BR SCT008 FEW013CB
                        BKN025 13/11 Q0997=
201001081545 METAR LIRA 081545Z 18008KT 130V230 4000 -RA BR SCT008 FEW013CB
                        BKN025 13/12 Q0997=
201001081515 METAR LIRA 081515Z 17009KT 140V220 6000 FEW008 SCT015 BKN025
                        13/12 Q0996=
201001081445 METAR LIRA 081445Z 16012KT 6000 FEW008 SCT015 BKN025 13/11
                        Q0996=
201001081415 METAR LIRA 081415Z 17010KT 6000 FEW008 SCT015 BKN025 13/12
                        Q0996=
201001081345 METAR LIRA 081345Z 17011KT 130V200 6000 FEW008 SCT015 BKN025
                        13/12 Q0996=
201001081315 METAR LIRA 081315Z 17011KT 140V200 6000 FEW008 SCT015 BKN025
                        13/12 Q0996=
201001081245 METAR LIRA 081245Z 17012KT 6000 FEW008 SCT015 BKN025 14/11
                        Q0996=
201001081215 METAR LIRA 081215Z 16016KT 6000 SCT015 BKN025 14/12 Q0997=
201001081145 METAR LIRA 081145Z 15016KT 8000 SCT015 BKN025 14/12 Q0997=
201001081115 METAR LIRA 081115Z 15017KT 120V210 8000 SCT015 BKN025 14/12
                        Q0997=
201001081045 METAR LIRA 081045Z 15019G29KT 110V180 8000 SCT015 BKN025
                        14/12 Q0997=
201001081015 METAR LIRA 081015Z 14016KT 7000 -RA SCT015 SCT025 BKN070
                        14/11 Q0997=
201001081000 METAR LIRA INTER=
201001080945 METAR LIRA 080945Z 12015G26KT 090V180 6000 -RA SCT008 SCT015
                        BKN025 13/11 Q0998=
201001080915 METAR LIRA 080915Z 13019G29KT 8000 SCT008 SCT015 BKN025 13/10
                        Q0998=
201001080900 METAR LIRA INTER=
201001080845 METAR LIRA 080845Z 13018G28KT 090V160 7000 -RA SCT008 SCT015
                        BKN025 13/10 Q0998=
201001080815 METAR LIRA 080815Z 12018G28KT 090V170 7000 -RA SCT008 SCT015
                        BKN025 12/10 Q0998=
201001080800 METAR LIRA INTER=
201001080745 METAR LIRA 080745Z 13017KT 090V160 8000 -RA SCT015 SCT025
                        BKN070 12/09 Q0998=
201001080715 METAR LIRA 080715Z 13019G29KT 100V160 8000 -RA FEW015 SCT025
                        BKN070 12/09 Q0998=
201001080645 METAR LIRA 080645Z 12021KT 080V160 8000 -RA FEW009 SCT015
                        BKN025 11/09 Q0998=
201001080615 METAR LIRA 080615Z 13019KT 100V170 8000 -RA FEW015 SCT025
                        BKN070 11/09 Q0999=
201001080545 METAR LIRA 080545Z 13021G32KT 100V160 8000 -RA FEW015 SCT025
                        BKN070 11/09 Q0999=
201001080515 METAR LIRA 080515Z 12010G24KT 060V160 8000 -RA FEW015 SCT030
                        BKN070 12/08 Q0999=
201001080445 METAR LIRA 080445Z 11013KT 9999 -RA FEW020 SCT030 BKN070
                        11/07 Q0999=
201001080415 METAR LIRA 080415Z 12020G31KT 080V170 9999 -RA FEW020 SCT030
                        12/07 Q0999=
201001080345 METAR LIRA 080345Z 12017KT 9999 -RA FEW020 SCT030 12/06 Q1000=
201001080315 METAR LIRA 080315Z 09012KT 9999 FEW020 SCT030 12/06 Q1000=
201001080245 METAR LIRA 080245Z 01008KT 9999 FEW020 SCT030 12/06 Q1001=
201001080215 METAR LIRA 080215Z 08011KT 9999 FEW020 SCT030 11/05 Q1001=
201001080145 METAR LIRA 080145Z 07009KT 9999 -RA FEW020 SCT030 11/05 Q1002=
201001080115 METAR LIRA 080115Z 12016KT 9999 -RA FEW020 SCT030 12/04 Q1002=
201001080045 METAR LIRA 080045Z 10010KT 9999 FEW020 SCT030 12/03 Q1003=
201001080015 METAR LIRA 080015Z 09010KT 9999 FEW030 BKN070 11/02 Q1003=
201001072350 METAR LIRA 080045Z 10010KT 9999 FEW020 SCT030 12/03 Q1003=
201001072345 METAR LIRA 072345Z 10009KT 060V140 9999 FEW030 BKN070 11/04
                        Q1004=
201001072315 METAR LIRA 072315Z 08008KT 050V120 9999 FEW020 BKN070 11/05
                        Q1005=
201001072245 METAR LIRA 072245Z 08003G16KT 040V120 9999 FEW030 SCT070
                        11/06 Q1006=
201001072215 METAR LIRA 072215Z 09011KT 050V120 9999 FEW020 SCT070 11/06
                        Q1006=
201001072145 METAR LIRA 072145Z 10009KT 050V140 9999 FEW020 BKN070 10/05
                        Q1006=
201001072115 METAR LIRA 072115Z 10011KT 060V130 9999 FEW020 SCT070 10/06
                        Q1007=
201001072045 METAR LIRA 072045Z 08007KT 9999 FEW020 10/05 Q1007=
201001072015 METAR LIRA 072015Z 07006KT 040V110 9999 FEW020 SCT030 10/05
                        Q1007=
201001071945 METAR LIRA 071945Z 06005KT 9999 FEW020 SCT030 09/06 Q1008=
201001071915 METAR LIRA 071915Z 06005KT 020V090 9999 FEW020 BKN030 09/06
                        Q1008=
201001071845 METAR LIRA 071845Z 06004KT 9999 FEW020 BKN030 09/07 Q1008=
201001071815 METAR LIRA 071815Z 36002KT 9999 FEW020 SCT025 09/06 Q1008=
201001071745 METAR LIRA 071745Z 18002KT 9999 FEW020 09/06 Q1008=
201001071715 METAR LIRA 071715Z 13005KT 9999 FEW020 09/06 Q1008=
201001071645 METAR LIRA 071645Z 09003KT 9999 FEW020 09/06 Q1009=
201001071615 METAR LIRA 071615Z 14004KT 9999 FEW020 09/05 Q1009=
201001071545 METAR LIRA 071545Z 14097KT 100V180 9999 FEW020 SCT030 11/06
                        Q1009=
201001071515 METAR LIRA 071515Z 15007KT 120V190 9999 SCT020 11/05 Q1009=
201001071445 METAR LIRA 071445Z 15008KT 9999 FEW020 SCT035 11/04 Q1009=
201001071415 METAR LIRA 071415Z 15008KT 120V180 9999 FEW020 BKN035 12/04
                        Q1009=
201001071345 METAR LIRA 071345Z 17007KT 120V220 9999 FEW020 SCT040 12/04
                        Q1009=
201001071315 METAR LIRA 071315Z 18007KT 130V230 9999 FEW018 SCT030 12/05
                        Q1009=
201001071245 METAR LIRA 071245Z 18007KT 150V220 9999 FEW018 SCT030 12/04
                        Q1009=
201001071215 METAR LIRA 071215Z 16009KT 130V190 9999 FEW018 SCT030 12/04
                        Q1009=
201001071145 METAR LIRA 071145Z 18009KT 150V220 9999 SCT018 SCT030 12/05
                        Q1010=
201001071115 METAR LIRA 071115Z 16009KT 120V200 9999 SCT018 12/05 Q1010=
201001071045 METAR LIRA 071045Z 17010KT 130V220 9999 SCT018 11/05 Q1010=
201001071015 METAR LIRA 071015Z 17010KT 140V220 9999 SCT018 11/06 Q1010=
201001070945 METAR LIRA 070945Z 18010KT 140V230 9999 FEW018 11/06 Q1010=
201001070915 METAR LIRA 070915Z 17006KT 140V220 9999 FEW018 11/07 Q1009=
201001070845 METAR LIRA 070845Z 16005KT 9999 FEW018 10/07 Q1009=
201001070815 METAR LIRA 070815Z 14007KT 9999 FEW016 09/07 Q1009=
201001070745 METAR LIRA 070745Z 16004KT 9999 SCT016 08/06 Q1008=
201001070715 METAR LIRA 070715Z 14006KT 100V180 9999 SCT016 SCT070 08/06
                        Q1008=
201001070645 METAR LIRA 070645Z 16005KT 9999 SCT015 SCT023 08/06 Q1007=
201001070615 METAR LIRA 070615Z 17003KT 9999 FEW016 07/05 Q1007=
201001070545 METAR LIRA 070545Z 18003KT 9999 FEW016 SCT070 08/07 Q1006=
201001070515 METAR LIRA 070515Z 20004KT 9999 FEW018 SCT070 08/07 Q1006=
201001070445 METAR LIRA 070445Z 17005KT 9999 FEW018 SCT070 08/07 Q1006=
201001070415 METAR LIRA 070415Z 16004KT 9999 FEW018 08/07 Q1005=
201001070345 METAR LIRA 070345Z 19005KT 9999 FEW018 SCT070 09/07 Q1005=
201001070315 METAR LIRA 070315Z 29005KT 160V300 9999 FEW018 BKN070 10/07
                        Q1005=
201001070245 METAR LIRA 070245Z 18009KT 140V240 9999 FEW023 BKN070 10/06
                        Q1004=
201001070145 METAR LIRA 070145Z 21003KT 190V260 9999 FEW023 BKN070 10/06
                        Q1004=
201001070115 METAR LIRA 070115Z 17006KT 130V200 9999 FEW023 BKN070 09/06
                        Q1004=
201001070045 METAR LIRA 070045Z 15007KT 100V190 9999 FEW017 SCT070 09/06
                        Q1004=
201001070015 METAR LIRA 070015Z 14008KT 100V170 9999 -DZ FEW017 BKN070
                        09/07 Q1004=
201001062350 METAR LIRA 070045Z 15007KT 100V190 9999 FEW017 SCT070 09/06
                        Q1004=
201001062345 METAR LIRA 062345Z 13008KT 100V170 9999 -DZ FEW017 BKN070
                        09/07 Q1004=
201001062315 METAR LIRA 062315Z 14005KT 9999 -DZ FEW017 BKN070 09/07 Q1004=
201001062245 METAR LIRA 062245Z 15007KT 9999 FEW017 SCT070 10/07 Q1004=
201001062215 METAR LIRA 062215Z 14007KT 9999 FEW017 SCT070 09/07 Q1004=
201001062145 METAR LIRA 062145Z 14006KT 9999 FEW017 SCT070 09/06 Q1004=
201001062115 METAR LIRA 062115Z 14007KT 090V160 9999 FEW017 SCT070 09/06
                        Q1004=
201001062045 METAR LIRA 062045Z 13007KT 9999 FEW017 SCT070 09/07 Q1005=
201001062015 METAR LIRA 062015Z 14007KT 9999 -RA FEW017 BKN070 09/07 Q1005=
201001061945 METAR LIRA 061945Z 13007KT 9999 FEW017 BKN070 09/07 Q1005=
201001061915 METAR LIRA 061915Z 14008KT 9999 FEW017 SCT070 09/06 Q1005=
201001061845 METAR LIRA 061845Z 15004KT 9999 FEW017 SCT070 09/06 Q1005=
201001061815 METAR LIRA 061815Z 14006KT 9999 FEW017 SCT070 08/05 Q1004=
201001061745 METAR LIRA 061745Z 15006KT 9999 SCT030 SCT070 08/05 Q1004=
201001061715 METAR LIRA 061715Z 15005KT 9999 FEW030 SCT070 08/05 Q1004=
201001061645 METAR LIRA 061645Z 14005KT 9999 FEW030 SCT080 08/06 Q1003=
201001061615 METAR LIRA 061615Z 17003KT 9999 FEW030 09/05 Q1003=
201001061545 METAR LIRA 061545Z 21004KT 9999 FEW015 SCT070 10/05 Q1003=
201001061515 METAR LIRA 061515Z 23005KT 200V270 9999 FEW015 SCT080 10/05
                        Q1003=
201001061445 METAR LIRA 061445Z 23004KT 9999 FEW015 SCT080 11/05 Q1002=
201001061415 METAR LIRA 061415Z 23004KT 9999 FEW015 SCT080 12/03 Q1002=
201001061345 METAR LIRA 061345Z 22003KT 9999 FEW015 SCT080 12/05 Q1002=
201001061315 METAR LIRA 061315Z 26004KT 9999 FEW015 SCT080 12/03 Q1002=
201001061245 METAR LIRA 061245Z 29006KT 220V340 9999 FEW015 SCT080 12/03
                        Q1001=
201001061215 METAR LIRA 061215Z 29005KT 240V360 9999 FEW015 SCT080 12/03
                        Q1001=
201001061145 METAR LIRA 061145Z 29004KT 9999 FEW015 BKN080 12/05 Q1001=
201001061115 METAR LIRA 061115Z 28003KT 9999 FEW015 SCT080 12/06 Q1001=
201001061045 METAR LIRA 061045Z 25004KT 9999 FEW015 12/09 Q1001=
201001061015 METAR LIRA 061015Z 00000KT 9999 FEW015 11/09 Q1000=
201001060945 METAR LIRA 060945Z 25004KT 210V290 9999 FEW015 SCT030 10/08
                        Q1000=
201001060915 METAR LIRA 060915Z 23005KT 210V270 9999 FEW015 SCT027 10/09
                        Q1000=
201001060845 METAR LIRA 060845Z 22004KT 9999 FEW015 SCT070 10/09 Q0999=
201001060815 METAR LIRA 060815Z 16004KT 9999 FEW015 SCT027 10/09 Q0998=
201001060745 METAR LIRA 060745Z 20003KT 8000 SCT008 BKN025 10/09 Q0998=
201001060715 METAR LIRA 060715Z 20003KT 6000 SCT008 BKN025 11/09 Q0997=
201001060645 METAR LIRA 060645Z 19005KT 170V240 6000 SCT008 BKN025 10/09
                        Q0997 RERA=
201001060615 METAR LIRA 060615Z 23007KT 180V270 4000 -RA BR SCT006 BKN025
                        10/09 Q0997 RERA=
201001060545 METAR LIRA 060545Z 21007G17KT 150V250 4000 RA BR SCT006 BKN025
                        12/10 Q0996=
201001060515 METAR LIRA 060515Z 21005KT 150V250 8000 -RA SCT015 SCT035
                        11/10 Q0996=
201001060445 METAR LIRA 060445Z 18005KT 160V220 8000 -RA SCT015 SCT035
                        11/10 Q0996=
201001060415 METAR LIRA 060415Z 17004KT 8000 -RA SCT015 SCT035 11/10 Q0996=
201001060345 METAR LIRA 060345Z 19005KT 150V240 8000 -RA FEW015 BKN035
                        11/10 Q0996=
201001060315 METAR LIRA 060315Z 23006KT 180V260 6000 -RA SCT013 FEW015TCU
                        SCT030 11/10 Q0996=
201001060245 METAR LIRA 060245Z 21006KT 160V260 6000 -RA SCT013 FEW015TCU
                        SCT030 12/10 Q0995=
201001060215 METAR LIRA 060215Z 19007KT 150V240 9000 SCT016 SCT035 12/11
                        Q0996=
201001060145 METAR LIRA 060145Z 19008KT 160V230 9000 FEW015TCU SCT016
                        12/10 Q0995=
201001060115 METAR LIRA 060115Z 19009KT 150V240 9000 FEW015TCU SCT016
                        12/10 Q0995=
201001060045 METAR LIRA 060045Z 18011KT 130V210 9000 -RA SCT013 FEW015CB
                        SCT030 12/11 Q0995=
201001060015 METAR LIRA 060015Z 17013KT 140V220 8000 -RA SCT013 FEW015CB
                        SCT030 12/11 Q0995=
201001052350 METAR LIRA 060045Z 18011KT 130V210 9000 -RA SCT013 FEW015CB
                        SCT030 12/11 Q0995=
201001052345 METAR LIRA 052345Z 18012KT 140V021 8000 -RA SCT013 FEW015CB
                        SCT030 12/11 Q0995=
201001052315 METAR LIRA 052315Z 16012KT 8000 SCT015 SCT030 12/11 Q0996=
201001052245 METAR LIRA 052245Z 16013KT 140V200 8000 -RA SCT015 SCT030
                        12/11 Q0996=
201001052215 METAR LIRA 052215Z 16013KT 8000 -RA FEW017 SCT030 12/11 Q0996=
201001052145 METAR LIRA 052145Z 15013KT 9000 -RA FEW017 SCT070 12/11 Q0996=
201001052115 METAR LIRA 052115Z 15014KT 130V190 9000 -RA FEW016 SCT030
                        12/10 Q0996=
201001052045 METAR LIRA 052045Z 16013KT 130V200 8000 -RA FEW016 SCT030
                        12/10 Q0996=
201001052015 METAR LIRA 052015Z 16015KT 120V190 9000 -RA FEW016 SCT030
                        12/10 Q0997 RERA=
201001051945 METAR LIRA 051945Z 15013KT 120V180 8000 -RA FEW015 SCT030
                        11/10 Q0997 RERA=
201001051915 METAR LIRA 051915Z 15010KT 7000 RA SCT015 SCT030 11/10 Q0997=
201001051845 METAR LIRA 051845Z 17010KT 140V200 9999 -RA FEW018 SCT030
                        12/10 Q0997=
201001051815 METAR LIRA 051815Z 19011KT 150V230 9999 -RA FEW018 SCT030
                        13/08 Q0997=
201001051745 METAR LIRA 051745Z 14022G32KT 110V170 9999 FEW017 BKN070
                        13/08 Q0995=
201001051715 METAR LIRA 051715Z 13024G36KT 9999 FEW017 BKN070 13/08 Q0995=
201001051645 METAR LIRA 051645Z 13021G35KT 9999 FEW013 BKN070 12/08 Q0996=
201001051615 METAR LIRA 051615Z 13021G31KT 9999 FEW013 BKN070 12/08 Q0997=
201001051545 METAR LIRA 051545Z 13015KT 9999 FEW013 BKN070 12/08 Q0997=
201001051515 METAR LIRA 051515Z 14019KT 8000 -RA SCT013 BKN070 12/08 Q0998=
201001051445 METAR LIRA 051445Z 15017KT 080V180 9999 SCT013 BKN070 13/09
                        Q0999=
201001051415 METAR LIRA 051415Z 14018KT 120V180 9999 FEW013 BKN060 13/09
                        Q0999=
201001051345 METAR LIRA 051345Z 14014KT 9999 FEW013 BKN060 12/09 Q1000=
201001051315 METAR LIRA 051315Z 15013KT 9999 FEW013 BKN060 12/09 Q1000=
201001051245 METAR LIRA 051245Z 14016KT 110V170 9000 -RA FEW013 BKN060
                        12/09 Q1000=
201001051215 METAR LIRA 051215Z 15016KT 110V180 7000 -RA SCT013 BKN060
                        11/09 Q1001=
201001051145 METAR LIRA 051145Z 15016KT 8000 -RA SCT013 BKN070 12/09 Q1001=
201001051115 METAR LIRA 051115Z 15012KT 120V180 8000 -RA FEW015 SCT025
                        BKN070 11/08 Q1002=
201001051045 METAR LIRA 051045Z 14012KT 9999 -RA FEW015 BKN070 11/08 Q1002=
201001051015 METAR LIRA 051015Z 14012KT 100V170 8000 -RA FEW015 BKN070
                        11/08 Q1002=
201001050945 METAR LIRA 050945Z 16009KT 130V230 8000 -RA FEW015 BKN070
                        11/08 Q1003=
201001050915 METAR LIRA 050915Z 15014KT 120V190 9000 -RA FEW015 SCT030
                        BKN070 11/08 Q1003=
201001050845 METAR LIRA 050845Z 15017KT 110V190 8000 -RA FEW015 BKN070
                        11/09 Q1002=
201001050815 METAR LIRA 050815Z 15015KT 7000 -RA FEW011 SCT025 BKN070
                        11/10 Q1003=
201001050745 METAR LIRA 050745Z 15014KT 080V190 6000 -RA FEW011 SCT025
                        BKN070 11/09 Q1003=
201001050715 METAR LIRA 050715Z 14010KT 7000 -RA FEW011 SCT025 BKN080
                        11/10 Q1003=
201001050645 METAR LIRA 050645Z 00000KT 9999 -DZ FEW018 SCT030 BKN070
                        09/08 Q1003=
201001050615 METAR LIRA 050615Z 00000KT 9999 -DZ FEW018 SCT030 BKN080
                        08/07 Q1004=
201001050545 METAR LIRA 050545Z 06004KT 9999 -DZ FEW018 SCT030 BKN070
                        07/06 Q1004=
201001050515 METAR LIRA 050515Z 00000KT 9999 -DZ FEW018 SCT030 BKN070
                        07/06 Q1004=
201001050445 METAR LIRA 050445Z 00000KT 9999 -DZ FEW018 SCT025 BKN070
                        07/06 Q1005=
201001050415 METAR LIRA 050415Z 00000KT 9999 -DZ FEW018 BKN070 07/06 Q1005=
201001050345 METAR LIRA 050345Z 00000KT 9999 -DZ FEW018 BKN070 07/06 Q1005=
201001050315 METAR LIRA 050315Z 00000KT 9999 FEW018 BKN070 07/06 Q1005=
201001050245 METAR LIRA 050245Z 00000KT 9999 FEW018 SCT070 07/06 Q1006=
201001050215 METAR LIRA 050215Z 08002KT 9999 FEW018 SCT070 07/06 Q1006=
201001050145 METAR LIRA 050145Z 00000KT 9999 FEW018 BKN070 07/06 Q1007=
201001050115 METAR LIRA 050115Z 00000KT 9999 FEW018 BKN070 07/06 Q1007=
201001050045 METAR LIRA 050045Z 29002KT 9999 FEW018 BKN070 07/06 Q1007=
201001050015 METAR LIRA 050015Z 00000KT 9999 FEW018 SCT070 07/06 Q1007=
201001042350 METAR LIRA 050045Z 29002KT 9999 FEW018 BKN070 07/06 Q1007=
201001042345 METAR LIRA 042345Z 29002KT 9999 FEW018 SCT070 08/06 Q1007=
201001042315 METAR LIRA 042315Z 34003KT 9999 FEW018 SCT070 08/06 Q1008=
201001042245 METAR LIRA 042245Z 06003KT 9999 -RA FEW018 BKN070 08/06 Q1008=
201001042215 METAR LIRA 042215Z 09005KT 9999 -RA FEW018 BKN070 08/06 Q1008=
201001042145 METAR LIRA 042145Z 06003KT 9999 FEW018 BKN070 08/05 Q1008=
201001042115 METAR LIRA 042115Z 03003KT 9999 FEW018 BKN070 09/05 Q1008=
201001042045 METAR LIRA 042045Z 08003KT 9999 FEW018 BKN070 08/04 Q1008=
201001042015 METAR LIRA 042015Z 08003KT 9999 FEW018 BKN070 09/04 Q1009=
201001041945 METAR LIRA 041945Z 00000KT 9999 FEW018 BKN070 09/03 Q1009=
201001041915 METAR LIRA 041915Z 10005KT 9999 FEW018 BKN070 09/04 Q1009=
201001041845 METAR LIRA 041845Z 10006KT 9999 FEW018 BKN070 08/03 Q1009=
201001041815 METAR LIRA 041815Z 10008KT 9999 FEW018 BKN070 08/03 Q1010=
201001041745 METAR LIRA 041745Z 10008KT 9999 FEW018 BKN070 08/03 Q1010=
201001041715 METAR LIRA 041715Z 33002KT 9999 FEW018 BKN080 08/04 Q1010=
201001041645 METAR LIRA 041645Z 36004KT 9999 FEW018 BKN080 09/03 Q1010=
201001041615 METAR LIRA 041615Z 05001KT 060V150 9999 FEW018 SCT030 BKN080
                        09/03 Q1010=
201001041545 METAR LIRA 041545Z 11005KT 060V150 9999 FEW018 SCT030 BKN070
                        09/03 Q1011=
201001041515 METAR LIRA 041515Z 13010KT 090V180 9999 FEW018 SCT030 BKN070
                        09/03 Q1011=
201001041445 METAR LIRA 041445Z 12005KT 060V180 9999 FEW018 SCT030 BKN070
                        09/03 Q1011=
201001041415 METAR LIRA 041415Z 06006KT 030V120 9999 FEW018 SCT030 BKN070
                        08/03 Q1011=
201001041345 METAR LIRA 041345Z 36006KT 320V050 9999 FEW018 SCT030 BKN070
                        07/02 Q1012=
201001041315 METAR LIRA 041315Z 34003KT 330V090 9999 FEW018 SCT030 BKN070
                        07/03 Q1012=
201001041245 METAR LIRA 041245Z 04003KT 010V100 9999 FEW018 SCT030 BKN070
                        09/04 Q1012=
201001041215 METAR LIRA 041215Z 12005KT 320V070 9999 FEW018 SCT030 BKN070
                        08/03 Q1013=
201001041145 METAR LIRA 041145Z 12008KT 080V170 9999 FEW018 SCT030 BKN070
                        08/03 Q1013=
201001041115 METAR LIRA 041115Z 12011KT 090V170 9999 FEW018 SCT030 BKN070
                        07/04 Q1014=
201001041045 METAR LIRA 041045Z 12011KT 090V180 9999 -DZ FEW018 BKN070
                        07/04 Q1015=
201001041015 METAR LIRA 041015Z 14011KT 090V180 9999 -DZ FEW018 BKN070
                        06/03 Q1016=
201001040945 METAR LIRA 040945Z 13007KT 080V200 9999 -DZ FEW018 BKN070
                        06/03 Q1016=
201001040915 METAR LIRA 040915Z 05003KT 9999 -DZ FEW020 BKN080 05/02 Q1016=
201001040845 METAR LIRA 040845Z 04004KT 9999 -DZ FEW025 SCT080 05/01 Q1016=
201001040815 METAR LIRA 040815Z 04004KT 9999 FEW025 SCT080 05/00 Q1016=
201001040745 METAR LIRA 040745Z 03004KT 9999 FEW020 SCT080 05/M00 Q1016=
201001040715 METAR LIRA 040715Z 06003KT 9999 -DZ FEW025 SCT080 BKN100
                        05/M01 Q1016=
201001040645 METAR LIRA 040645Z 06004KT 9999 -DZ FEW025 SCT080 05/M01
                        Q1016=
201001040615 METAR LIRA 040615Z 06005KT 020V100 9999 -DZ FEW020 BKN070
                        04/M01 Q1016=
201001040545 METAR LIRA 040545Z 05003KT 010V100 9999 -DZ FEW020 BKN070
                        04/01 Q1017=
201001040515 METAR LIRA 040515Z 10005KT 9999 -DZ FEW020 BKN070 05/00 Q1017=
201001040445 METAR LIRA 040445Z 10007KT 060V120 9999 -DZ FEW020 BKN070
                        05/M01 Q1017=
201001040415 METAR LIRA 040415Z 10004KT 9999 FEW020 BKN070 05/M01 Q1017=
201001040345 METAR LIRA 040345Z 11005KT 9999 FEW020 BKN070 05/M01 Q1018=
201001040315 METAR LIRA 040315Z 00000KT 9999 FEW020 BKN070 05/01 Q1018=
201001040245 METAR LIRA 040245Z 01002KT 9999 BKN070 04/00 Q1018=
201001040215 METAR LIRA 040215Z 36002KT 9999 BKN070 04/01 Q1018=
201001040145 METAR LIRA 040145Z 14003KT 9999 BKN070 05/M03 Q1018=
201001040115 METAR LIRA 040115Z 13005KT 9999 BKN070 05/M04 Q1018=
201001040045 METAR LIRA 040045Z 00000KT 9999 BKN070 04/00 Q1018=
201001040015 METAR LIRA 040015Z 33003KT 9999 BKN070 04/00 Q1018=
201001032350 METAR LIRA 040045Z 00000KT 9999 BKN070 04/00 Q1018=
201001032345 METAR LIRA 032345Z 16001KT 9999 BKN070 04/00 Q1018=
201001032315 METAR LIRA 032315Z 00000KT 9999 BKN070 04/M01 Q1019=
201001032245 METAR LIRA 032245Z 00000KT 9999 BKN070 04/M01 Q1019=
201001032215 METAR LIRA 032215Z 00000KT 9999 BKN070 04/M02 Q1019=
201001032145 METAR LIRA 032145Z 02002KT 9999 BKN070 04/M02 Q1019=
201001032115 METAR LIRA 032115Z 03002KT 9999 SCT070 04/M02 Q1018=
201001032045 METAR LIRA 032045Z 04003KT 9999 SCT070 04/M02 Q1019=
201001032015 METAR LIRA 032015Z 03002KT 9999 SCT070 04/M02 Q1019=
201001031945 METAR LIRA 031945Z 01002KT 9999 FEW040 SCT080 04/M03 Q1019=
201001031915 METAR LIRA 031915Z 05003KT 9999 FEW040 SCT080 04/M02 Q1019=
201001031845 METAR LIRA 031845Z 07003KT 9999 FEW040 SCT080 04/M02 Q1019=
201001031815 METAR LIRA 031815Z 07002KT 9999 SCT080 04/M02 Q1019=
201001031745 METAR LIRA 031745Z 08001KT 9999 SCT080 04/M04 Q1019=
201001031715 METAR LIRA 031715Z 02003KT 9999 SCT080 04/M04 Q1020=
201001031645 METAR LIRA 031645Z 36002KT 9999 FEW080 04/M06 Q1019=
201001031545 METAR LIRA 031545Z 35003KT CAVOK 06/M08 Q1019=
201001031515 METAR LIRA 031515Z 33005KT 300V360 CAVOK 07/M07 Q1019=
201001031445 METAR LIRA 031445Z 32007KT 290V360 CAVOK 07/M06 Q1019=
201001031415 METAR LIRA 031415Z 33008KT 300V010 CAVOK 07/M05 Q1019=
201001031345 METAR LIRA 031345Z 32006KT 290V360 9999 FEW022 08/M05 Q1019=
201001031315 METAR LIRA 031315Z 32008KT 280V360 9999 FEW022 08/M04 Q1019=
201001031245 METAR LIRA 031245Z 33007KT 290V360 9999 FEW022 08/M03 Q1020=
201001031215 METAR LIRA 031215Z 36002KT 9999 FEW022 07/M01 Q1020=
201001031145 METAR LIRA 031145Z 35005KT 300V030 9999 FEW020 07/00 Q1020=
201001031115 METAR LIRA 031115Z 34004KT 9999 FEW020 07/00 Q1020=
201001031045 METAR LIRA 031045Z 35005KT CAVOK 06/M00 Q1020=
201001031015 METAR LIRA 031015Z 35006KT 330V040 CAVOK 05/M00 Q1020=
201001030945 METAR LIRA 030945Z 36007KT 320V060 CAVOK 05/M00 Q1020=
201001030915 METAR LIRA 030915Z 36005KT 320V060 CAVOK 04/M01 Q1019=
201001030845 METAR LIRA 030845Z 01006KT 330V060 CAVOK 03/M01 Q1019=
201001030815 METAR LIRA 030815Z 36006KT 320V040 CAVOK 02/M01 Q1019=
201001030745 METAR LIRA 030745Z 07004KT CAVOK 02/M01 Q1018=
201001030715 METAR LIRA 030715Z 05004KT CAVOK 01/M01 Q1018=
201001030645 METAR LIRA 030645Z 04005KT CAVOK 01/M01 Q1017=
201001030615 METAR LIRA 030615Z 06002KT CAVOK 01/M01 Q1017=
201001030545 METAR LIRA 030545Z 03004KT CAVOK 02/M01 Q1016=
201001030515 METAR LIRA 030515Z 04004KT CAVOK 02/M01 Q1016=
201001030445 METAR LIRA 030445Z 04005KT 350V070 9999 SCT070 02/M01 Q1015=
201001030415 METAR LIRA 030415Z 04004KT 9999 SCT070 03/M01 Q1015=
201001030345 METAR LIRA 030345Z 03004KT 9999 SCT070 03/M01 Q1015=
201001030315 METAR LIRA 030315Z 02004KT 9999 SCT070 03/M01 Q1014=
201001030245 METAR LIRA 030245Z 04003KT 9999 SCT070 03/M01 Q1014=
201001030215 METAR LIRA 030215Z 33005KT 9999 SCT070 03/M01 Q1014=
201001022145 METAR LIRA 022145Z 29009KT 9999 FEW070 06/00 Q1010=
201001022115 METAR LIRA 022115Z 28007KT 240V320 9999 FEW070 06/01 Q1010=
201001022045 METAR LIRA 022045Z 25003KT 9999 FEW020 06/01 Q1010=
201001022015 METAR LIRA 022015Z 33001KT 9999 FEW018 06/02 Q1009=
201001021945 METAR LIRA 021945Z 32003KT 9999 FEW018 SCT070 06/02 Q1009
                        RETS=
201001021915 METAR LIRA 021915Z 29002KT 9999 FEW018 FEW020CB 07/03 Q1009
                        RETS=
201001021845 METAR LIRA 021845Z 27003KT 9999 TS SCT018 FEW020CB 07/02
                        Q1009=
201001021815 METAR LIRA 021815Z 28008KT 210V340 9999 -TSRA SCT018 FEW020CB
                        07/03 Q1008=
201001021745 METAR LIRA 021745Z 33006KT 300V020 9999 SCT018 09/01 Q1008=
201001021715 METAR LIRA 021715Z 24006KT 190V300 9999 FEW017 10/04 Q1007=
201001021645 METAR LIRA 021645Z 24007KT 190V320 9999 FEW017 FEW020TCU
                        10/02 Q1007=
201001021615 METAR LIRA 021615Z 27010G22KT 220V310 9999 FEW017 FEW020TCU
                        11/02 Q1006=
201001021545 METAR LIRA 021545Z 27008G21KT 190V320 9999 FEW017 FEW020TCU
                        11/01 Q1006=
201001021515 METAR LIRA 021515Z 27010KT 230V340 9999 FEW017 FEW020TCU
                        12/01 Q1006=
201001021445 METAR LIRA 021445Z 28010KT 220V320 9999 FEW017 FEW020TCU
                        12/05 Q1006=
201001021415 METAR LIRA 021415Z 27012KT 230V330 9999 FEW017 FEW020TCU
                        13/06 Q1006=
201001021345 METAR LIRA 021345Z 29013G23KT 230V330 9999 SCT017 FEW020TCU
                        13/07 Q1006=
201001021315 METAR LIRA 021315Z 28011KT 230V320 9999 SCT017 FEW020TCU
                        12/06 Q1006=
201001021245 METAR LIRA 021245Z 28012KT 230V330 9999 SCT017 FEW020TCU
                        12/07 Q1006=
201001021215 METAR LIRA 021215Z 26008G22KT 200V330 9999 SCT017 FEW020TCU
                        13/07 Q1006=
201001021145 METAR LIRA 021145Z 27010KT 200V320 9999 SCT017 12/08 Q1006=
201001021115 METAR LIRA 021115Z 27012G22KT 220V330 9999 FEW017 SCT025
                        12/07 Q1006=
201001021045 METAR LIRA 021045Z 22005KT 170V270 9999 FEW017 SCT025 12/07
                        Q1006=
201001021015 METAR LIRA 021015Z 18002KT 9999 FEW020 SCT030 11/07 Q1006=
201001020945 METAR LIRA 020945Z 00000KT 9999 FEW020 SCT030 11/07 Q1005=
201001020915 METAR LIRA 020915Z 21001KT 9999 FEW020 SCT030 10/08 Q1005=
201001020845 METAR LIRA 020845Z 06001KT 9999 FEW020 SCT070 09/07 Q1005=
201001020815 METAR LIRA 020815Z 00000KT 9999 FEW030 SCT070 09/07 Q1004=
201001020745 METAR LIRA 020745Z 13002KT 9999 FEW030 08/07 Q1004=
201001020715 METAR LIRA 020715Z 13002KT 9999 FEW030 SCT080 07/07 Q1003=
201001020645 METAR LIRA 020645Z 10002KT 9999 FEW030 SCT080 08/07 Q1003=
201001020615 METAR LIRA 020615Z 11003KT 9999 FEW030 SCT070 07/06 Q1003=
201001020545 METAR LIRA 020545Z 09001KT 9999 FEW030 SCT070 06/05 Q1002=
201001020515 METAR LIRA 020515Z 11003KT 9999 FEW030 SCT070 06/05 Q1002=
201001020445 METAR LIRA 020445Z 12002KT 9999 FEW030 06/05 Q1001=
201001020415 METAR LIRA 020415Z 14003KT 9999 FEW030 07/06 Q1001=
201001020345 METAR LIRA 020345Z 16002KT 9999 FEW030 07/06 Q1000=
201001020315 METAR LIRA 020315Z 00000KT 9999 FEW018 SCT070 08/07 Q1000=
201001020245 METAR LIRA 020245Z 00000KT 9999 -RA FEW017TCU 08/07 Q1000=
201001020215 METAR LIRA 020215Z 00000KT 8000 -RA FEW017 FEW018CB SCT030
                        08/07 Q1000=
201001020145 METAR LIRA 020145Z 00000KT 9000 -RA FEW017 FEW018CB SCT030
                        08/07 Q0999=
201001020115 METAR LIRA 020115Z 29007KT 220V330 7000 -RA SCT017 FEW018CB
                        BKN030 09/08 Q0999=
201001020045 METAR LIRA 020045Z 30005KT 290V350 8000 -RA SCT017 FEW018CB
                        BKN030 09/08 Q0999=
201001020015 METAR LIRA 020015Z 29006KT 240V320 8000 -RA SCT017 FEW018CB
                        BKN030 09/07 Q0998=
201001012350 METAR LIRA 020045Z 30005KT 290V350 8000 -RA SCT017 FEW018CB
                        BKN030 09/08 Q0999=
201001012345 METAR LIRA 012345Z 33003KT 8000 -RA SCT017 FEW018CB SCT030
                        09/07 Q0998=
201001012315 METAR LIRA 012315Z 28005KT 240V340 9000 -RA SCT017 FEW018CB
                        SCT030 10/07 Q0998=
201001012245 METAR LIRA 012245Z 32002KT 9000 SCT017 FEW018CB SCT030 10/07
                        Q0997=
201001012215 METAR LIRA 012215Z 30003KT 9000 -RA SCT017 FEW018CB 10/07
                        Q0997=
201001012145 METAR LIRA 012145Z 26007KT 200V330 9000 -RA SCT017 FEW018CB
                        SCT030 10/07 Q0996=
201001012115 METAR LIRA 012115Z 24008KT 200V300 8000 -RA SCT017 FEW018CB
                        SCT030 10/07 Q0996=
201001012045 METAR LIRA 012045Z 24013G28KT 210V340 8000 -RA SCT017 FEW018CB
                        SCT030 10/07 Q0996=
201001012015 METAR LIRA 012015Z 25011G23KT 190V300 8000 -RA SCT016 FEW018CB
                        SCT030 10/05 Q0996=
201001011945 METAR LIRA 011945Z 25012G23KT 190V320 9000 SCT016 FEW018CB
                        SCT030 10/05 Q0996=
201001011915 METAR LIRA 011915Z 25012G31KT 190V300 9000 -RA SCT015 FEW018CB
                        SCT030 10/06 Q0996=
201001011845 METAR LIRA 011845Z 24011G24KT 200V330 9000 -RA SCT015 FEW018CB
                        BKN025 10/06 Q0996=
201001011815 METAR LIRA 011815Z 24011KT 200V300 8000 -RA FEW013 SCT015
                        BKN025 11/06 Q0995=
201001011745 METAR LIRA 011745Z 24014G28KT 190V290 8000 -RA FEW013 SCT015
                        BKN025 11/06 Q0995=
201001011715 METAR LIRA 011715Z 24013G29KT 200V300 8000 -RA SCT008 BKN025
                        10/06 Q0995=
201001011645 METAR LIRA 011645Z 24011G21KT 190V290 8000 -RA SCT008 BKN025
                        09/07 Q0994=
201001011615 METAR LIRA 011615Z 24011G24KT 190V290 7000 -RA SCT008 BKN023
                        09/07 Q0994=
201001011545 METAR LIRA 011545Z 23011G27KT 190V280 4000 -RA BR SCT006
                        BKN023 09/07 Q0994=
201001011515 METAR LIRA 011515Z 24014G29KT 190V290 4000 -RA BR SCT006
                        BKN023 09/07 Q0994=
201001011445 METAR LIRA 011445Z 24019G36KT 190V270 9999 -RA FEW016 BKN025
                        10/06 Q0993=
201001011415 METAR LIRA 011415Z 23017G31KT 180V260 9999 FEW016 FEW020CB
                        BKN025 10/06 Q0993=
201001011345 METAR LIRA 011345Z 22013G26KT 180V260 9999 FEW016 FEW020CB
                        BKN025 10/06 Q0993=
201001011315 METAR LIRA 011315Z 22013G27KT 150V260 9999 -RA FEW016 FEW020CB
                        BKN025 10/06 Q0994=
201001011145 METAR LIRA 011145Z 22010KT 170V260 9999 -RA FEW018 FEW020CB
                        SCT025 11/05 Q0994=
201001011115 METAR LIRA 011115Z 22010KT 170V260 9999 FEW018 SCT030 BKN070
                        11/06 Q0994=
201001011045 METAR LIRA 011045Z 21010KT 150V260 9999 FEW018 SCT030 BKN070
                        11/06 Q0994=
201001011015 METAR LIRA 011015Z 22013G28KT 180V260 9999 SCT016 FEW018CB
                        SCT030 11/07 Q0994 RETS=
201001010945 METAR LIRA 010945Z 19010KT 150V240 9999 -RA SCT015 FEW018CB
                        BKN030 11/08 Q0994=
201001010915 METAR LIRA 010915Z 18010KT 120V260 6000 -TSRA SCT010 FEW018CB
                        BKN023 11/08 Q0994=
201001010845 METAR LIRA 010845Z 17009KT 9999 SCT016 BKN030 11/09 Q0994=
201001010815 METAR LIRA 010815Z 17009KT 9999 SCT016 BKN030 11/08 Q0994=
201001010745 METAR LIRA 010745Z 16009KT 9999 SCT015 BKN030 10/08 Q0994=
201001010715 METAR LIRA 010715Z 16009KT 9999 FEW016 BKN035 10/08 Q0994=
201001010645 METAR LIRA 010645Z 16008KT 9999 FEW015 BKN030 10/08 Q0994=
201001010615 METAR LIRA 010615Z 18007KT 9999 FEW015 SCT030 10/08 Q0994
                        RETS=
201001010545 METAR LIRA 010545Z 17009KT 9999 SCT015 FEW018CB BKN025 10/08
                        Q0994 RETS=
201001010515 METAR LIRA 010515Z 23013KT 180V270 8000 -TSRA SCT013 FEW016CB
                        BKN025 10/08 Q0994=
201001010445 METAR LIRA 010445Z 16008G26KT 130V250 8000 -TSRA SCT013 BKN025
                        12/10 Q0994=
201001010415 METAR LIRA 010415Z 17007KT 9999 FEW015 SCT070 12/10 Q0995=
201001010345 METAR LIRA 010345Z 17006KT 9999 FEW013 SCT070 12/10 Q0995=
201001010315 METAR LIRA 010315Z 17006KT 130V210 9999 FEW013 SCT070 12/10
                        Q0995=
201001010245 METAR LIRA 010245Z 18007KT 150V210 9999 FEW013 SCT030 12/10
                        Q0995=
201001010215 METAR LIRA 010215Z 18007KT 9999 FEW013 SCT030 12/10 Q0996=
201001010145 METAR LIRA 010145Z 18007KT 130V230 9999 FEW013 SCT030 12/10
                        Q0996=
201001010115 METAR LIRA 010115Z 17005KT 150V210 9999 FEW013 SCT030 12/10
                        Q0996=
201001010045 METAR LIRA 010045Z 18006KT 140V240 9999 FEW013 SCT070 12/10
                        Q0996=
201001010015 METAR LIRA 010015Z 19007KT 160V240 9999 FEW013 SCT070 12/10
                        Q0997=

</pre>

</body>
</html>
