##########################################################
# Query made at 11/10/2014 16:39:40 UTC
# Time interval: from 01/01/2012 00:00  to 01/31/2012 23:59  UTC
##########################################################

##########################################################
# LIRA, Roma / Ciampino (Italy)
# WMO index: 16239
# Latitude 41-47N. Longitude 012-35E. Altitude 129 m.
##########################################################

###################################
#  METAR/SPECI from LIRA
###################################
201201312350 METAR LIRA 010045Z 15008KT 8000 -RA SCT014 SCT020 07/06 Q1011=
201201312345 METAR LIRA 312345Z 00000KT 8000 -RA SCT014 SCT020 06/06 Q1012=
201201312315 METAR LIRA 312315Z 34001KT 8000 -RA SCT014 SCT020 06/06 Q1012=
201201312245 METAR LIRA 312245Z 00000KT 8000 -RA SCT014 SCT020 06/06 Q1013=
201201312215 METAR LIRA 312215Z 08002KT 8000 -RA SCT014 SCT020 06/05 Q1013=
201201312145 METAR LIRA 312145Z 03002KT 8000 -RA SCT014 SCT020 06/05 Q1013=
201201312115 METAR LIRA 312115Z 17006KT 8000 -RA FEW016 BKN020 07/05 Q1014=
201201312045 METAR LIRA 312045Z 18004KT 8000 -RA FEW016 BKN020 07/06 Q1014=
201201312015 METAR LIRA 312015Z 05001KT 8000 -RA FEW016 SCT020 06/06 Q1014=
201201311945 METAR LIRA 311945Z 05002KT 8000 -RA FEW016 SCT020 06/05 Q1014=
201201311915 METAR LIRA 311915Z 05004KT 8000 -RA FEW016 SCT020 06/05 Q1014=
201201311845 METAR LIRA 311845Z 07002KT 8000 -RA FEW016 SCT020 07/06 Q1015=
201201311815 METAR LIRA 311815Z 28002KT 8000 -RA FEW016 SCT020 07/06 Q1015=
201201311745 METAR LIRA 311745Z 00000KT 9000 -DZ FEW016 SCT020 07/05 Q1015=
201201311715 METAR LIRA 311715Z 05002KT 9000 FEW016 SCT025 BKN080 07/05
                        Q1015=
201201311645 METAR LIRA 311645Z 00000KT 9000 FEW016 SCT025 BKN080 07/05
                        Q1015=
201201311615 METAR LIRA 311615Z 00000KT 9000 FEW016 BKN020 FEW022TCU 08/05
                        Q1015=
201201311545 METAR LIRA 311545Z 02001KT 9000 FEW016 BKN020 FEW022TCU 08/05
                        Q1015=
201201311515 METAR LIRA 311515Z 05002KT 9000 FEW017 BKN020 FEW022TCU 08/05
                        Q1015=
201201311445 METAR LIRA 311445Z 11002KT 9000 FEW017 BKN020 08/05 Q1015=
201201311415 METAR LIRA 311415Z 04001KT 9000 FEW017 BKN020 08/05 Q1015=
201201311345 METAR LIRA 311345Z 00000KT 9000 FEW017 BKN022 09/06 Q1015=
201201311315 METAR LIRA 311315Z 21001KT 9000 FEW017 BKN022 08/05 Q1015=
201201311245 METAR LIRA 311245Z 22001KT 9000 FEW017 BKN023 08/05 Q1016=
201201311215 METAR LIRA 311215Z 30002KT 9000 FEW017 BKN023 08/05 Q1016=
201201311145 METAR LIRA 311145Z 00000KT 9999 OVC025 07/03 Q1016=
201201311115 METAR LIRA 311115Z 01001KT 9999 FEW018 BKN025 06/03 Q1016=
201201311045 METAR LIRA 311045Z 36002KT 9999 BKN025 SCT060 06/03 Q1016=
201201311015 METAR LIRA 311015Z 03001KT 9999 -DZ OVC025 06/02 Q1016=
201201310945 METAR LIRA 310945Z 09002KT 9999 BKN025 05/02 Q1016=
201201310915 METAR LIRA 310915Z 04002KT 9999 BKN023 05/02 Q1016=
201201310845 METAR LIRA 310845Z 02001KT 9999 OVC023 05/01 Q1016=
201201310815 METAR LIRA 310815Z 36002KT 9999 BKN023 SCT060 04/01 Q1016=
201201310745 METAR LIRA 310745Z 36002KT 9999 BKN025 SCT060 04/01 Q1016=
201201310715 METAR LIRA 310715Z 03002KT 9999 SCT024 BKN060 04/01 Q1015=
201201310645 METAR LIRA 310645Z 06002KT 9999 SCT025 BKN060 04/01 Q1015=
201201310615 METAR LIRA 310615Z 35002KT 9999 FEW018 SCT025 BKN070 04/01
                        Q1015=
201201310545 METAR LIRA 310545Z 32003KT 9999 FEW018 SCT030 BKN070 04/01
                        Q1015=
201201310515 METAR LIRA 310515Z 01001KT 9999 FEW020 SCT030 04/00 Q1015=
201201310445 METAR LIRA 310445Z 07002KT 9999 FEW020 SCT070 04/00 Q1015=
201201310415 METAR LIRA 310415Z 02003KT 9999 FEW020 SCT060 04/01 Q1016=
201201310345 METAR LIRA 310345Z 03002KT 9999 FEW020 SCT060 04/01 Q1016=
201201310315 METAR LIRA 310315Z 04003KT 9999 FEW020 SCT070 04/01 Q1016=
201201310245 METAR LIRA 310245Z 04002KT 9999 FEW035 BKN070 04/01 Q1016=
201201310215 METAR LIRA 310215Z 04003KT 9999 FEW035 BKN070 04/01 Q1016=
201201310145 METAR LIRA 310145Z 04004KT 9999 FEW035 BKN070 04/01 Q1016=
201201310115 METAR LIRA 310115Z 03003KT 9999 BKN070 04/01 Q1016=
201201310045 METAR LIRA 310045Z 03003KT 9999 BKN070 05/00 Q1016=
201201310015 METAR LIRA 310015Z 03001KT 9999 BKN070 05/01 Q1016=
201201302350 METAR LIRA 310045Z 03003KT 9999 BKN070 05/00 Q1016=
201201302345 METAR LIRA 302345Z 02004KT 9999 BKN070 05/01 Q1016=
201201302315 METAR LIRA 302315Z 02004KT 9999 BKN070 05/00 Q1015=
201201302245 METAR LIRA 302245Z 01004KT 9999 BKN070 05/00 Q1015=
201201302215 METAR LIRA 302215Z 36004KT 9999 BKN070 06/01 Q1015=
201201302145 METAR LIRA 302145Z 36004KT 9999 BKN070 06/01 Q1015=
201201302115 METAR LIRA 302115Z 36006KT 9999 BKN070 06/01 Q1015=
201201302045 METAR LIRA 302045Z 30006KT 330V030 9999 BKN070 07/01 Q1015=
201201302015 METAR LIRA 302015Z 36005KT 9999 BKN070 07/01 Q1015=
201201301945 METAR LIRA 301945Z 36006KT 340V040 9999 FEW060 SCT080 07/01
                        Q1015=
201201301915 METAR LIRA 301915Z 01005KT 9999 SCT060 08/01 Q1014=
201201301845 METAR LIRA 301845Z 01006KT 360V060 9999 SCT060 08/01 Q1014=
201201301815 METAR LIRA 301815Z 01006KT 340V070 9999 SCT060 08/00 Q1014=
201201301745 METAR LIRA 301745Z 01005KT 9999 FEW060 09/01 Q1014=
201201301715 METAR LIRA 301715Z 36005KT 9999 FEW080 09/01 Q1014=
201201301645 METAR LIRA 301645Z 35006KT 310V030 9999 FEW070 10/01 Q1014=
201201301615 METAR LIRA 301615Z 35009KT 9999 SCT060 SCT200 11/M00 Q1014=
201201301545 METAR LIRA 301545Z 34005KT 9999 SCT060 SCT080 12/00 Q1014=
201201301515 METAR LIRA 301515Z 33007KT 9999 SCT060 SCT080 12/00 Q1014=
201201301445 METAR LIRA 301445Z 33008KT 9999 SCT060 SCT080 12/M00 Q1014=
201201301415 METAR LIRA 301415Z 35006KT 9999 FEW070 13/00 Q1014=
201201301345 METAR LIRA 301345Z 33008KT 300V030 9999 FEW070 13/00 Q1014=
201201301315 METAR LIRA 301315Z 02005KT 9999 FEW070 13/02 Q1015=
201201301245 METAR LIRA 301245Z 01003KT 330V070 9999 FEW070 13/02 Q1015=
201201301215 METAR LIRA 301215Z 36007KT 340V030 9999 FEW070 12/01 Q1015=
201201301145 METAR LIRA 301145Z 35007KT 310V040 9999 FEW070 12/03 Q1015=
201201301115 METAR LIRA 301115Z 01008KT 360V060 9999 FEW070 11/04 Q1015=
201201301045 METAR LIRA 301045Z 01007KT 330V050 9999 FEW070 10/03 Q1015=
201201301015 METAR LIRA 301015Z 03006KT 350V070 9999 FEW070 09/04 Q1015=
201201300945 METAR LIRA 300945Z 01007KT 9999 FEW070 07/02 Q1015=
201201300915 METAR LIRA 300915Z 03007KT 360V070 9999 FEW070 06/03 Q1015=
201201300845 METAR LIRA 300845Z 04004KT 360V060 9999 FEW070 05/03 Q1015=
201201300815 METAR LIRA 300815Z 04007KT 9999 FEW070 05/02 Q1015=
201201300745 METAR LIRA 300745Z 05004KT 9999 FEW070 03/01 Q1015=
201201300715 METAR LIRA 300715Z 04003KT CAVOK 03/01 Q1015=
201201300645 METAR LIRA 300645Z 06004KT CAVOK 02/00 Q1015=
201201300615 METAR LIRA 300615Z 05004KT 9999 FEW080 02/00 Q1015=
201201300545 METAR LIRA 300545Z 06005KT 9999 FEW080 02/00 Q1015=
201201300515 METAR LIRA 300515Z 06004KT CAVOK 01/M01 Q1015=
201201300445 METAR LIRA 300445Z 04004KT 9999 FEW080 02/M00 Q1015=
201201300415 METAR LIRA 300415Z 04003KT 9999 FEW080 02/M00 Q1015=
201201300345 METAR LIRA 300345Z 03004KT 9999 FEW080 02/M00 Q1015=
201201300315 METAR LIRA 300315Z 04005KT 9999 FEW080 02/M00 Q1015=
201201300245 METAR LIRA 300245Z 00000KT 9999 FEW080 03/M00 Q1015=
201201300215 METAR LIRA 300215Z 00000KT 9999 FEW080 03/M01 Q1015=
201201300145 METAR LIRA 300145Z 05002KT 9999 FEW080 03/M00 Q1015=
201201300115 METAR LIRA 300115Z 02002KT 9999 FEW080 04/00 Q1015=
201201300045 METAR LIRA 300045Z 04005KT 9999 FEW080 04/00 Q1015=
201201300015 METAR LIRA 300015Z 03004KT 9999 FEW080 05/M01 Q1015=
201201292350 METAR LIRA 300045Z 04005KT 9999 FEW080 04/00 Q1015=
201201292345 METAR LIRA 292345Z 03004KT 9999 FEW080 05/M00 Q1015=
201201292315 METAR LIRA 292315Z 09005KT 9999 FEW080 05/M00 Q1015=
201201292245 METAR LIRA 292245Z 06007KT 9999 FEW080 05/00 Q1015=
201201292215 METAR LIRA 292215Z 05008KT 9999 FEW080 05/00 Q1015=
201201292145 METAR LIRA 292145Z 06008KT 9999 FEW080 05/00 Q1015=
201201292115 METAR LIRA 292115Z 05006KT 9999 FEW080 05/01 Q1015=
201201292045 METAR LIRA 292045Z 01002KT 8000 FEW080 06/01 Q1015=
201201292015 METAR LIRA 292015Z 35001KT 8000 FEW070 06/02 Q1015=
201201291945 METAR LIRA 291945Z 35001KT 8000 FEW080 06/02 Q1015=
201201291915 METAR LIRA 291915Z 10001KT 8000 SCT070 06/03 Q1015=
201201291845 METAR LIRA 291845Z 06002KT 8000 SCT080 07/03 Q1015=
201201291815 METAR LIRA 291815Z 06001KT 9999 FEW080 SCT200 07/02 Q1015=
201201291745 METAR LIRA 291745Z 00000KT 9999 FEW080 09/02 Q1015=
201201291715 METAR LIRA 291715Z 02001KT 9999 FEW070 09/01 Q1015=
201201291645 METAR LIRA 291645Z 00000KT 9999 FEW060 10/01 Q1015=
201201291615 METAR LIRA 291615Z 00000KT 9999 FEW060 11/02 Q1015=
201201291545 METAR LIRA 291545Z 00000KT 9999 FEW060 11/01 Q1015=
201201291515 METAR LIRA 291515Z 00000KT 9999 FEW080 12/02 Q1015=
201201291445 METAR LIRA 291445Z 00000KT 9999 FEW080 11/01 Q1015=
201201291415 METAR LIRA 291415Z 00000KT 9999 FEW080 11/02 Q1015=
201201291345 METAR LIRA 291345Z 02001KT 9999 FEW080 11/02 Q1015=
201201291315 METAR LIRA 291315Z 05002KT CAVOK 11/02 Q1015=
201201291245 METAR LIRA 291245Z 35002KT CAVOK 11/02 Q1015=
201201291215 METAR LIRA 291215Z 00000KT CAVOK 11/01 Q1015=
201201291145 METAR LIRA 291145Z 35001KT CAVOK 11/02 Q1015=
201201291115 METAR LIRA 291115Z 33003KT CAVOK 10/02 Q1016=
201201291045 METAR LIRA 291045Z 33003KT CAVOK 10/02 Q1016=
201201291015 METAR LIRA 291015Z 26001KT CAVOK 10/02 Q1016=
201201290945 METAR LIRA 290945Z 00000KT CAVOK 09/02 Q1016=
201201290915 METAR LIRA 290915Z 01001KT CAVOK 08/02 Q1015=
201201290845 METAR LIRA 290845Z 35001KT CAVOK 07/03 Q1015=
201201290815 METAR LIRA 290815Z 33001KT 9999 FEW040 07/02 Q1015=
201201290745 METAR LIRA 290745Z 02001KT 9999 FEW020 SCT080 07/02 Q1015=
201201290715 METAR LIRA 290715Z 00000KT 9999 FEW020 SCT080 07/02 Q1015=
201201290645 METAR LIRA 290645Z 06001KT 9999 FEW020 SCT070 07/02 Q1016=
201201290615 METAR LIRA 290615Z 01002KT 9999 FEW020 SCT070 07/02 Q1016=
201201290545 METAR LIRA 290545Z 07003KT 9999 FEW020 SCT035 07/02 Q1016=
201201290445 METAR LIRA 290445Z 00000KT 9999 SCT018 SCT027 07/03 Q1017=
201201290415 METAR LIRA 290415Z 03002KT 9999 SCT018 SCT027 07/02 Q1017=
201201290345 METAR LIRA 290345Z 05003KT 9999 SCT018 SCT027 07/02 Q1017=
201201290315 METAR LIRA 290315Z 04003KT 9999 SCT018 SCT027 07/02 Q1017=
201201290245 METAR LIRA 290245Z 05004KT 9999 SCT018 SCT027 07/02 Q1017=
201201290215 METAR LIRA 290215Z 08002KT 9999 SCT018 SCT027 07/02 Q1018=
201201290145 METAR LIRA 290145Z 02001KT 9999 SCT017 SCT027 07/03 Q1018=
201201290115 METAR LIRA 290115Z 09004KT 9999 SCT018 SCT027 07/03 Q1018=
201201290045 METAR LIRA 290045Z 06004KT 9999 SCT018 SCT027 07/03 Q1018=
201201290015 METAR LIRA 290015Z 07004KT 9999 SCT018 SCT027 07/03 Q1018=
201201282350 METAR LIRA 290045Z 06004KT 9999 SCT018 SCT027 07/03 Q1018=
201201282345 METAR LIRA 282345Z 06004KT 9999 SCT018 SCT027 07/03 Q1018=
201201282315 METAR LIRA 282315Z 08003KT 9999 SCT018 SCT027 07/03 Q1019=
201201282245 METAR LIRA 282245Z 08004KT 9999 SCT018 SCT027 07/04 Q1019=
201201282215 METAR LIRA 282215Z 06003KT 9999 FEW018 BKN070 07/06 Q1019=
201201282145 METAR LIRA 282145Z 05004KT 9999 FEW018 SCT027 08/06 Q1019=
201201282115 METAR LIRA 282115Z 06003KT 9999 FEW018 SCT027 08/06 Q1020=
201201282045 METAR LIRA 282045Z 05004KT 9999 -RA FEW018 SCT027 08/07 Q1020=
201201282015 METAR LIRA 282015Z 11005KT 9999 -RA SCT030 BKN070 08/06 Q1020=
201201281945 METAR LIRA 281945Z 13002KT 9999 SCT030 BKN070 08/04 Q1020=
201201281915 METAR LIRA 281915Z 13001KT 9999 SCT030 BKN070 08/04 Q1020=
201201281845 METAR LIRA 281845Z 13004KT 9999 SCT030 BKN070 08/05 Q1020=
201201281815 METAR LIRA 281815Z 16002KT 9999 SCT030 BKN070 08/04 Q1020=
201201281745 METAR LIRA 281745Z 16003KT 9999 SCT030 BKN070 09/04 Q1020=
201201281715 METAR LIRA 281715Z 17005KT 9999 FEW080 BKN200 08/04 Q1020=
201201281645 METAR LIRA 281645Z 18006KT 9999 FEW080 08/03 Q1020=
201201281615 METAR LIRA 281615Z 20003KT 9999 FEW080 10/04 Q1020=
201201281545 METAR LIRA 281545Z 21006KT 9999 FEW023 10/04 Q1021=
201201281515 METAR LIRA 281515Z 20006KT 9999 FEW023 11/02 Q1021=
201201281445 METAR LIRA 281445Z 21004KT 9999 FEW023 11/02 Q1021=
201201281415 METAR LIRA 281415Z 21008KT 160V230 9999 FEW023 11/02 Q1021=
201201281345 METAR LIRA 281345Z 19006KT 170V240 9999 FEW023 11/02 Q1022=
201201281315 METAR LIRA 281315Z 17005KT CAVOK 11/M01 Q1022=
201201281245 METAR LIRA 281245Z 20006KT 170V250 CAVOK 12/M00 Q1022=
201201281215 METAR LIRA 281215Z 20005KT CAVOK 12/00 Q1022=
201201281145 METAR LIRA 281145Z 29002KT CAVOK 11/02 Q1022=
201201281115 METAR LIRA 281115Z 29003KT CAVOK 10/02 Q1023=
201201281045 METAR LIRA 281045Z 30002KT CAVOK 09/02 Q1023=
201201281015 METAR LIRA 281015Z 32001KT CAVOK 07/01 Q1024=
201201280945 METAR LIRA 280945Z 34002KT 9999 FEW080 06/01 Q1024=
201201280915 METAR LIRA 280915Z 01003KT 9999 FEW080 04/M00 Q1024=
201201280845 METAR LIRA 280845Z 01002KT 8000 FEW080 03/00 Q1024=
201201280815 METAR LIRA 280815Z 36001KT 8000 FEW080 02/M00 Q1023=
201201280745 METAR LIRA 280745Z 36001KT 8000 FEW080 01/M01 Q1023=
201201280715 METAR LIRA 280715Z 03001KT 8000 FEW080 00/M01 Q1023=
201201280700 METAR LIRA INTER CB SE/SW=
201201280645 METAR LIRA 280645Z 04002KT 8000 FEW080 00/M01 Q1023=
201201280615 METAR LIRA 280615Z 03002KT 8000 FEW080 00/M01 Q1023=
201201280545 METAR LIRA 280545Z 04002KT 9999 FEW080 00/M01 Q1023=
201201280515 METAR LIRA 280515Z 04002KT 9999 FEW025 01/M00 Q1023=
201201280500 METAR LIRA INTER CB NE/SE=
201201280445 METAR LIRA 280445Z 06001KT 9999 FEW025 01/M01 Q1023=
201201280415 METAR LIRA 280415Z 02002KT 9999 FEW025 01/M00 Q1023=
201201280345 METAR LIRA 280345Z 01002KT 9999 FEW025 01/00 Q1023=
201201280315 METAR LIRA 280315Z 02002KT 9999 FEW025 01/00 Q1023=
201201280245 METAR LIRA 280245Z 02002KT 9999 FEW025 01/01 Q1023=
201201280215 METAR LIRA 280215Z 03002KT 9999 FEW025 01/01 Q1023=
201201280145 METAR LIRA 280145Z 01002KT CAVOK 02/00 Q1023=
201201280115 METAR LIRA 280115Z 06002KT CAVOK 02/01 Q1023=
201201280045 METAR LIRA 280045Z 03002KT CAVOK 03/01 Q1023=
201201280015 METAR LIRA 280015Z 09003KT CAVOK 03/01 Q1023=
201201272350 METAR LIRA 280045Z 03002KT CAVOK 03/01 Q1023=
201201272345 METAR LIRA 272345Z 08002KT CAVOK 04/01 Q1023=
201201272315 METAR LIRA 272315Z 10002KT CAVOK 04/02 Q1023=
201201272245 METAR LIRA 272245Z 10003KT CAVOK 04/02 Q1023=
201201272215 METAR LIRA 272215Z 00000KT CAVOK 04/02 Q1023=
201201272145 METAR LIRA 272145Z 11003KT CAVOK 04/02 Q1023=
201201272115 METAR LIRA 272115Z 11002KT CAVOK 04/02 Q1023=
201201272045 METAR LIRA 272045Z 07001KT CAVOK 05/02 Q1023=
201201272015 METAR LIRA 272015Z 05003KT CAVOK 05/03 Q1023=
201201271945 METAR LIRA 271945Z 12001KT CAVOK 04/03 Q1023=
201201271915 METAR LIRA 271915Z 12002KT CAVOK 04/02 Q1023=
201201271845 METAR LIRA 271845Z 13002KT CAVOK 04/02 Q1023=
201201271815 METAR LIRA 271815Z 15005KT CAVOK 05/03 Q1023=
201201271745 METAR LIRA 271745Z 15005KT CAVOK 06/04 Q1023=
201201271715 METAR LIRA 271715Z 15004KT CAVOK 07/04 Q1022=
201201271645 METAR LIRA 271645Z 18002KT 9999 FEW030 SCT200 08/04 Q1022=
201201271615 METAR LIRA 271615Z 22002KT 9999 FEW025 SCT200 10/03 Q1022=
201201271545 METAR LIRA 271545Z 24003KT 9999 FEW030 SCT200 10/01 Q1022=
201201271515 METAR LIRA 271515Z 24002KT 9999 FEW030 SCT200 10/M02 Q1022=
201201271445 METAR LIRA 271445Z 30005KT 9999 FEW070 SCT200 11/M03 Q1023=
201201271415 METAR LIRA 271415Z 29004KT 9999 FEW070 SCT200 11/M03 Q1023=
201201271345 METAR LIRA 271345Z 28004KT 9999 FEW070 SCT200 11/M01 Q1023=
201201271315 METAR LIRA 271315Z 26003KT 9999 FEW070 SCT200 11/M01 Q1023=
201201271245 METAR LIRA 271245Z 25003KT 9999 FEW070 SCT200 11/M01 Q1023=
201201271215 METAR LIRA 271215Z 23003KT 9999 FEW070 SCT200 11/M01 Q1023=
201201271145 METAR LIRA 271145Z 23003KT 9999 FEW070 SCT200 11/M01 Q1023=
201201271115 METAR LIRA 271115Z 00000KT 9999 FEW070 SCT200 10/M01 Q1023=
201201271045 METAR LIRA 271045Z 35002KT 9999 FEW070 SCT200 07/M05 Q1023=
201201271015 METAR LIRA 271015Z 01003KT 9999 FEW070 SCT200 06/M06 Q1023=
201201270945 METAR LIRA 270945Z 02004KT 9999 FEW070 SCT200 05/M07 Q1023=
201201270915 METAR LIRA 270915Z 03004KT 9999 FEW070 SCT200 04/M07 Q1023=
201201270845 METAR LIRA 270845Z 03004KT 9999 FEW070 SCT200 03/M05 Q1023=
201201270815 METAR LIRA 270815Z 36003KT 9999 FEW070 SCT200 02/M05 Q1022=
201201270745 METAR LIRA 270745Z 04002KT 9999 FEW070 SCT200 01/M04 Q1022=
201201270715 METAR LIRA 270715Z 07002KT 9999 FEW070 SCT200 00/M04 Q1022=
201201270645 METAR LIRA 270645Z 06004KT 9999 FEW070 M01/M05 Q1022=
201201270615 METAR LIRA 270615Z 04003KT 9999 FEW070 M01/M05 Q1022=
201201270545 METAR LIRA 270545Z 05003KT CAVOK M01/M05 Q1022=
201201270515 METAR LIRA 270515Z 02002KT CAVOK M01/M05 Q1021=
201201270445 METAR LIRA 270445Z 00000KT CAVOK M01/M05 Q1021=
201201270415 METAR LIRA 270415Z 00000KT CAVOK M01/M05 Q1021=
201201270345 METAR LIRA 270345Z 04003KT CAVOK M01/M05 Q1021=
201201270315 METAR LIRA 270315Z 01001KT CAVOK M01/M06 Q1021=
201201270245 METAR LIRA 270245Z 02002KT CAVOK M00/M06 Q1021=
201201270215 METAR LIRA 270215Z 00000KT CAVOK 00/M06 Q1021=
201201270200 METAR LIRA CONTUS=
201201270145 METAR LIRA 270145Z 04003KT CAVOK 00/M06 Q1021=
201201270115 METAR LIRA 270115Z 03003KT CAVOK 00/M05 Q1021=
201201270100 METAR LIRA INTER=
201201270045 METAR LIRA 270045Z 34002KT CAVOK 01/M05 Q1020=
201201270015 METAR LIRA 270015Z 07003KT CAVOK 01/M05 Q1020=
201201262350 METAR LIRA 270045Z 34002KT CAVOK 01/M05 Q1020=
201201262345 METAR LIRA 262345Z 05002KT CAVOK 02/M05 Q1020=
201201262315 METAR LIRA 262315Z 04002KT CAVOK 01/M05 Q1020=
201201262245 METAR LIRA 262245Z 06002KT CAVOK 02/M05 Q1020=
201201262215 METAR LIRA 262215Z 05004KT CAVOK 02/M05 Q1020=
201201262145 METAR LIRA 262145Z 02003KT CAVOK 02/M05 Q1020=
201201262115 METAR LIRA 262115Z 08002KT CAVOK 02/M05 Q1019=
201201262045 METAR LIRA 262045Z 00000KT CAVOK 03/M05 Q1019=
201201262015 METAR LIRA 262015Z 13001KT CAVOK 03/M07 Q1019=
201201261945 METAR LIRA 261945Z 00000KT CAVOK 04/M07 Q1019=
201201261915 METAR LIRA 261915Z 00000KT CAVOK 04/M07 Q1019=
201201261845 METAR LIRA 261845Z 00000KT CAVOK 05/M08 Q1019=
201201261815 METAR LIRA 261815Z 00000KT CAVOK 05/M08 Q1018=
201201261745 METAR LIRA 261745Z 31003KT CAVOK 06/M08 Q1018=
201201261715 METAR LIRA 261715Z 34002KT CAVOK 07/M07 Q1018=
201201261645 METAR LIRA 261645Z 03001KT CAVOK 08/M07 Q1018=
201201261615 METAR LIRA 261615Z 32001KT CAVOK 09/M06 Q1017=
201201261545 METAR LIRA 261545Z 33005KT CAVOK 09/M06 Q1017=
201201261515 METAR LIRA 261515Z 34006KT CAVOK 10/M07 Q1017=
201201261445 METAR LIRA 261445Z 35004KT CAVOK 10/M06 Q1017=
201201261415 METAR LIRA 261415Z 01006KT 310V080 CAVOK 10/M06 Q1017=
201201261345 METAR LIRA 261345Z 01007KT 340V060 CAVOK 10/M06 Q1017=
201201261315 METAR LIRA 261315Z 35009KT 330V020 CAVOK 10/M05 Q1017=
201201261245 METAR LIRA 261245Z 36008KT 320V030 CAVOK 09/M06 Q1017=
201201261215 METAR LIRA 261215Z 34008KT 330V010 CAVOK 09/M04 Q1017=
201201261145 METAR LIRA 261145Z 36008KT 330V040 CAVOK 08/M04 Q1018=
201201261115 METAR LIRA 261115Z 01008KT 340V050 CAVOK 08/M03 Q1018=
201201261045 METAR LIRA 261045Z 36009KT CAVOK 07/M02 Q1018=
201201261015 METAR LIRA 261015Z 36004KT CAVOK 06/M02 Q1018=
201201260945 METAR LIRA 260945Z 02005KT CAVOK 05/M01 Q1018=
201201260915 METAR LIRA 260915Z 03005KT CAVOK 04/M02 Q1018=
201201260845 METAR LIRA 260845Z 04006KT 350V060 CAVOK 03/M02 Q1018=
201201260815 METAR LIRA 260815Z 04003KT CAVOK 02/M02 Q1018=
201201260745 METAR LIRA 260745Z 33001KT CAVOK 01/M03 Q1018=
201201260715 METAR LIRA 260715Z 05005KT CAVOK 00/M03 Q1018=
201201260645 METAR LIRA 260645Z 05005KT CAVOK M00/M03 Q1017=
201201260615 METAR LIRA 260615Z 06004KT CAVOK M01/M04 Q1017=
201201260545 METAR LIRA 260545Z 00000KT CAVOK M00/M03 Q1017=
201201260515 METAR LIRA 260515Z 06006KT CAVOK 00/M03 Q1017=
201201260445 METAR LIRA 260445Z 07006KT CAVOK M00/M03 Q1017=
201201260415 METAR LIRA 260415Z 06006KT CAVOK M01/M03 Q1017=
201201260400 METAR LIRA CONTUS LOW CLDS MOVING S=
201201260345 METAR LIRA 260345Z 08005KT CAVOK M01/M03 Q1017=
201201260315 METAR LIRA 260315Z 09001KT CAVOK 00/M03 Q1017=
201201260300 METAR LIRA INTER LOW CLDS MOVING S=
201201260245 METAR LIRA 260245Z 00000KT CAVOK 01/M04 Q1017=
201201260215 METAR LIRA 260215Z 00000KT CAVOK 01/M04 Q1017=
201201260145 METAR LIRA 260145Z 05003KT CAVOK 01/M04 Q1017=
201201260115 METAR LIRA 260115Z 03005KT CAVOK 02/M03 Q1017=
201201260045 METAR LIRA 260045Z 02006KT 340V040 CAVOK 02/M03 Q1017=
201201260015 METAR LIRA 260015Z 02006KT 340V080 CAVOK 02/M02 Q1017=
201201252350 METAR LIRA 260045Z 02006KT 340V040 CAVOK 02/M03 Q1017=
201201252345 METAR LIRA 252345Z 02006KT 330V080 CAVOK 02/M03 Q1017=
201201252315 METAR LIRA 252315Z 36005KT 300V030 CAVOK 03/M04 Q1017=
201201252245 METAR LIRA 252245Z 05005KT CAVOK 02/M06 Q1017=
201201252215 METAR LIRA 252215Z 05005KT CAVOK 02/M06 Q1017=
201201252145 METAR LIRA 252145Z 04003KT CAVOK 02/M06 Q1017=
201201252115 METAR LIRA 252115Z 29001KT CAVOK 04/M06 Q1017=
201201252045 METAR LIRA 252045Z 32005KT CAVOK 04/M07 Q1017=
201201252015 METAR LIRA 252015Z 35007KT CAVOK 05/M07 Q1016=
201201251945 METAR LIRA 251945Z 01006KT CAVOK 05/M09 Q1016=
201201251915 METAR LIRA 251915Z 36008KT CAVOK 06/M08 Q1016=
201201251845 METAR LIRA 251845Z 34008KT CAVOK 06/M08 Q1016=
201201251815 METAR LIRA 251815Z 34008KT CAVOK 06/M08 Q1016=
201201251745 METAR LIRA 251745Z 34009KT CAVOK 06/M08 Q1016=
201201251715 METAR LIRA 251715Z 34009KT CAVOK 07/M07 Q1015=
201201251645 METAR LIRA 251645Z 34011KT 9999 FEW023 08/M08 Q1015=
201201251615 METAR LIRA 251615Z 34010KT 9999 FEW023 08/M09 Q1015=
201201251545 METAR LIRA 251545Z 01007KT 9999 FEW023 09/M08 Q1014=
201201251515 METAR LIRA 251515Z 03007KT 9999 FEW023 09/M08 Q1014=
201201251445 METAR LIRA 251445Z 03011G21KT 9999 FEW023 10/M07 Q1014=
201201251415 METAR LIRA 251415Z 01011KT 340V070 9999 FEW023 10/M07 Q1014=
201201251345 METAR LIRA 251345Z 03009KT 340V070 9999 FEW023 10/M07 Q1014=
201201251145 METAR LIRA 251145Z 01014G27KT 320V070 CAVOK 09/M04 Q1015=
201201251115 METAR LIRA 251115Z 02014G25KT 310V030 CAVOK 09/M04 Q1015=
201201251045 METAR LIRA 251045Z 36013G25KT 320V020 CAVOK 09/M03 Q1015=
201201251015 METAR LIRA 251015Z 36016G28KT 330V030 CAVOK 08/M03 Q1016=
201201250945 METAR LIRA 250945Z 36015KT 310V020 CAVOK 07/M02 Q1016=
201201250915 METAR LIRA 250915Z 34009KT 310V010 CAVOK 07/M01 Q1016=
201201250845 METAR LIRA 250845Z 01004KT CAVOK 05/M00 Q1016=
201201250815 METAR LIRA 250815Z 03004KT CAVOK 04/M01 Q1016=
201201250745 METAR LIRA 250745Z 06004KT 9999 FEW080 04/M00 Q1015=
201201250715 METAR LIRA 250715Z 04003KT 9999 FEW080 03/M00 Q1015=
201201250645 METAR LIRA 250645Z 08004KT 9999 FEW080 02/M01 Q1015=
201201250615 METAR LIRA 250615Z 08005KT CAVOK 01/M01 Q1015=
201201250545 METAR LIRA 250545Z 06004KT CAVOK 01/M01 Q1015=
201201250515 METAR LIRA 250515Z 05002KT CAVOK 02/M01 Q1015=
201201250445 METAR LIRA 250445Z 06002KT CAVOK 02/M01 Q1014=
201201250415 METAR LIRA 250415Z 05004KT 9999 FEW080 02/M02 Q1014=
201201250345 METAR LIRA 250345Z 03003KT 9999 FEW080 03/M01 Q1014=
201201250315 METAR LIRA 250315Z 36005KT 9999 FEW080 03/M00 Q1014=
201201250300 METAR LIRA INTER=
201201250245 METAR LIRA 250245Z 04005KT 9999 FEW080 04/M00 Q1014=
201201250215 METAR LIRA 250215Z 36006KT 330V060 CAVOK 04/M01 Q1014=
201201250145 METAR LIRA 250145Z 36005KT 330V050 CAVOK 05/M01 Q1014=
201201250115 METAR LIRA 250115Z 05004KT CAVOK 05/M00 Q1014=
201201250045 METAR LIRA 250045Z 02007KT 330V060 CAVOK 06/M00 Q1014=
201201250015 METAR LIRA 250015Z 35011KT CAVOK 06/M00 Q1013=
201201242350 METAR LIRA 250045Z 02007KT 330V060 CAVOK 06/M00 Q1014=
201201242345 METAR LIRA 242345Z 34007KT CAVOK 06/00 Q1013=
201201242315 METAR LIRA 242315Z 35009KT 320V020 CAVOK 07/00 Q1012=
201201242245 METAR LIRA 242245Z 34011KT 300V360 CAVOK 07/00 Q1012=
201201242215 METAR LIRA 242215Z 03001KT CAVOK 07/01 Q1012=
201201242145 METAR LIRA 242145Z 33008KT CAVOK 07/01 Q1012=
201201242115 METAR LIRA 242115Z 34012KT CAVOK 08/00 Q1012=
201201242045 METAR LIRA 242045Z 35012KT 310V020 CAVOK 08/M00 Q1012=
201201242015 METAR LIRA 242015Z 34013KT CAVOK 09/01 Q1011=
201201241945 METAR LIRA 241945Z 34010KT CAVOK 09/01 Q1011=
201201241915 METAR LIRA 241915Z 34012KT CAVOK 10/02 Q1011=
201201241845 METAR LIRA 241845Z 34012KT CAVOK 10/02 Q1011=
201201241815 METAR LIRA 241815Z 34013KT CAVOK 11/03 Q1010=
201201241745 METAR LIRA 241745Z 34009KT 9999 FEW018 11/05 Q1010=
201201241715 METAR LIRA 241715Z 33004KT 9999 FEW018 11/06 Q1010=
201201241645 METAR LIRA 241645Z 34004KT 9999 FEW018 12/06 Q1009=
201201241615 METAR LIRA 241615Z 36005KT 9999 SCT018 12/06 Q1009=
201201241545 METAR LIRA 241545Z 33006KT 9999 SCT018 13/06 Q1009=
201201241515 METAR LIRA 241515Z 32006KT 9999 SCT018 14/07 Q1009=
201201241445 METAR LIRA 241445Z 32006KT 9999 FEW016 FEW018TCU 14/07 Q1009=
201201241415 METAR LIRA 241415Z 32007KT 300V010 9999 FEW016 FEW018TCU
                        14/07 Q1010=
201201241345 METAR LIRA 241345Z 32007KT 300V360 9999 FEW017 FEW020TCU
                        14/07 Q1010=
201201241315 METAR LIRA 241315Z 32006KT 280V360 9999 FEW020 13/08 Q1010=
201201241245 METAR LIRA 241245Z 34002KT 9999 FEW020 SCT060 13/08 Q1010=
201201241215 METAR LIRA 241215Z 35003KT 8000 FEW020 SCT030 12/08 Q1011=
201201241145 METAR LIRA 241145Z 34004KT 8000 FEW020 SCT030 12/08 Q1011=
201201241115 METAR LIRA 241115Z 31004KT 8000 FEW018 SCT030 12/08 Q1011=
201201241045 METAR LIRA 241045Z 31002KT 8000 FEW018 SCT030 12/09 Q1011=
201201241015 METAR LIRA 241015Z 00000KT 8000 FEW018 SCT030 11/09 Q1011=
201201240945 METAR LIRA 240945Z 01001KT 8000 FEW018 SCT035 11/09 Q1011=
201201240915 METAR LIRA 240915Z 33002KT 7000 FEW007 SCT035 10/09 Q1011=
201201240845 METAR LIRA 240845Z 05001KT 7000 FEW006 SCT035 10/09 Q1011=
201201240815 METAR LIRA 240815Z 03001KT 7000 FEW006 SCT035 09/08 Q1011=
201201240745 METAR LIRA 240745Z 03001KT 6000 FEW006 BKN070 09/08 Q1011=
201201240715 METAR LIRA 240715Z 01002KT 6000 FEW006 BKN070 08/07 Q1011=
201201240645 METAR LIRA 240645Z 05002KT 8000 FEW030 BKN070 08/07 Q1011=
201201240615 METAR LIRA 240615Z 05003KT 9999 SCT030 SCT060 08/07 Q1011=
201201240545 METAR LIRA 240545Z 08001KT 9999 FEW025 SCT060 08/07 Q1011=
201201240515 METAR LIRA 240515Z 00000KT 9999 FEW023 SCT060 07/06 Q1012=
201201240445 METAR LIRA 240445Z 11001KT 9999 SCT030 SCT060 07/06 Q1012=
201201240415 METAR LIRA 240415Z 00000KT 9999 FEW002 06/06 Q1012=
201201240345 METAR LIRA 240345Z 35002KT 9999 FEW002 06/06 Q1012=
201201240315 METAR LIRA 240315Z 35003KT 9999 FEW002 SCT070 06/06 Q1012=
201201240245 METAR LIRA 240245Z 13002KT 9999 FEW002 07/06 Q1012=
201201240215 METAR LIRA 240215Z 14001KT 9999 FEW002 07/06 Q1012=
201201240145 METAR LIRA 240145Z 00000KT 9999 FEW025 07/06 Q1012=
201201240115 METAR LIRA 240115Z 00000KT 9999 FEW018 07/06 Q1012=
201201240045 METAR LIRA 240045Z 05001KT 9999 FEW018 SCT025 09/08 Q1013=
201201240015 METAR LIRA 240015Z 03002KT 9999 FEW005 SCT025 10/08 Q1013=
201201232350 METAR LIRA 240045Z 05001KT 9999 FEW018 SCT025 09/08 Q1013=
201201232345 METAR LIRA 232345Z 05001KT 9999 FEW018 SCT025 11/08 Q1013=
201201232315 METAR LIRA 232315Z 06002KT 9999 SCT025 SCT070 10/08 Q1013=
201201232245 METAR LIRA 232245Z 05003KT 9999 SCT025 SCT070 10/09 Q1013=
201201232215 METAR LIRA 232215Z 05002KT 9999 SCT025 SCT070 10/09 Q1013=
201201232145 METAR LIRA 232145Z 13001KT 9999 SCT025 SCT070 10/09 Q1013=
201201232115 METAR LIRA 232115Z 14002KT 9999 SCT025 SCT070 10/09 Q1013=
201201232045 METAR LIRA 232045Z 16003KT 9999 SCT025 SCT070 10/09 Q1013=
201201232015 METAR LIRA 232015Z 14001KT 9999 SCT025 SCT070 10/09 Q1013=
201201231945 METAR LIRA 231945Z 14002KT 9999 FEW018 SCT025 10/09 Q1013=
201201231915 METAR LIRA 231915Z 17001KT 9999 FEW018 SCT025 11/10 Q1013=
201201231845 METAR LIRA 231845Z 18004KT 9999 SCT025 SCT070 11/10 Q1013=
201201231815 METAR LIRA 231815Z 16003KT 9999 FEW018 SCT025 11/09 Q1013=
201201231745 METAR LIRA 231745Z 22001KT 9999 SCT025 SCT070 11/09 Q1013=
201201231715 METAR LIRA 231715Z 14002KT 9999 SCT030 SCT070 11/09 Q1012=
201201231645 METAR LIRA 231645Z 00000KT 9999 SCT030 SCT070 12/10 Q1012=
201201231615 METAR LIRA 231615Z 00000KT 9999 SCT030 SCT070 14/09 Q1012=
201201231545 METAR LIRA 231545Z 00000KT 9999 SCT030 SCT070 14/08 Q1012=
201201231515 METAR LIRA 231515Z 34001KT 9999 SCT030 SCT070 14/07 Q1012=
201201231445 METAR LIRA 231445Z 34003KT 9999 FEW017 SCT030 14/07 Q1013=
201201231415 METAR LIRA 231415Z 34002KT 9999 FEW017 BKN030 14/08 Q1013=
201201231345 METAR LIRA 231345Z 07001KT 9999 FEW017 SCT030 14/08 Q1013=
201201231315 METAR LIRA 231315Z 16002KT 9999 FEW017 SCT030 15/10 Q1013=
201201231245 METAR LIRA 231245Z 36002KT 9999 FEW017 SCT030 15/08 Q1014=
201201231215 METAR LIRA 231215Z 31003KT 9999 FEW017 SCT030 15/08 Q1014=
201201231145 METAR LIRA 231145Z 22001KT 9999 FEW017 BKN070 15/11 Q1014=
201201231115 METAR LIRA 231115Z 19011KT 9999 FEW017 BKN070 14/11 Q1014=
201201231045 METAR LIRA 231045Z 23001KT 9999 FEW017 BKN070 14/11 Q1014=
201201231015 METAR LIRA 231015Z 00000KT 9999 FEW017 SCT030 BKN070 13/10
                        Q1014=
201201230945 METAR LIRA 230945Z 31001KT 9999 BKN030 SCT070 12/10 Q1014=
201201230915 METAR LIRA 230915Z 04002KT 9999 BKN030 SCT070 12/10 Q1014=
201201230845 METAR LIRA 230845Z 34001KT 9999 BKN030 11/10 Q1014=
201201230815 METAR LIRA 230815Z 31002KT 9999 SCT030 SCT070 11/10 Q1013=
201201230745 METAR LIRA 230745Z 19001KT 9999 SCT030 SCT070 11/09 Q1013=
201201230715 METAR LIRA 230715Z 14003KT 9999 FEW015 BKN030 10/09 Q1013=
201201230645 METAR LIRA 230645Z 14001KT 9999 FEW015 BKN030 10/09 Q1013=
201201230615 METAR LIRA 230615Z 00000KT 9999 FEW015 BKN025 10/09 Q1013=
201201230545 METAR LIRA 230545Z 00000KT 9999 FEW015 BKN025 10/09 Q1013=
201201230515 METAR LIRA 230515Z 00000KT 9999 FEW015 BKN025 10/10 Q1013=
201201230445 METAR LIRA 230445Z 03002KT 9999 FEW015 BKN025 10/10 Q1013=
201201230415 METAR LIRA 230415Z 03001KT 9999 FEW015 BKN025 11/10 Q1013=
201201230345 METAR LIRA 230345Z 36001KT 9999 FEW015 SCT025 11/10 Q1013=
201201230315 METAR LIRA 230315Z 00000KT 9999 FEW015 SCT025 11/10 Q1013=
201201230245 METAR LIRA 230245Z 11004KT 9999 FEW015 BKN025 11/10 Q1013=
201201230215 METAR LIRA 230215Z 10005KT 9999 FEW015 BKN025 11/10 Q1014=
201201230145 METAR LIRA 230145Z 09004KT 8000 -DZ FEW015 BKN025 11/10 Q1014=
201201230115 METAR LIRA 230115Z 00000KT 8000 -DZ FEW015 BKN025 11/10 Q1014=
201201230045 METAR LIRA 230045Z 24002KT 8000 -DZ FEW015 BKN025 11/10 Q1014=
201201230015 METAR LIRA 230015Z 20001KT 9999 FEW015 BKN025 11/10 Q1014=
201201222350 METAR LIRA 230045Z 24002KT 8000 -DZ FEW015 BKN025 11/10 Q1014=
201201222345 METAR LIRA 222345Z 00000KT 9999 FEW015 BKN025 11/10 Q1014=
201201222315 METAR LIRA 222315Z 32002KT 9999 FEW015 BKN025 12/10 Q1014=
201201222245 METAR LIRA 222245Z 14003KT 9999 FEW017 BKN025 12/10 Q1014=
201201222215 METAR LIRA 222215Z 16005KT 9999 FEW017 BKN025 12/10 Q1014=
201201222145 METAR LIRA 222145Z 15005KT 9999 FEW017 BKN025 12/10 Q1014=
201201222115 METAR LIRA 222115Z 15006KT 9999 FEW017 SCT025 12/10 Q1014=
201201222045 METAR LIRA 222045Z 16005KT 9999 FEW017 SCT025 12/10 Q1014=
201201222015 METAR LIRA 222015Z 17007KT 9999 FEW017 SCT025 12/10 Q1014=
201201221945 METAR LIRA 221945Z 16006KT 9999 SCT017 BKN025 12/10 Q1014=
201201221915 METAR LIRA 221915Z 14005KT 9999 FEW018 BKN027 12/10 Q1014=
201201221845 METAR LIRA 221845Z 16004KT 9999 FEW017 BKN027 12/10 Q1014=
201201221815 METAR LIRA 221815Z 14007KT 9999 FEW017 BKN025 12/10 Q1014=
201201221745 METAR LIRA 221745Z 15006KT 9999 FEW017 BKN025 12/10 Q1014=
201201221715 METAR LIRA 221715Z 15005KT 9999 FEW017 BKN025 12/10 Q1014=
201201221645 METAR LIRA 221645Z 15006KT 9999 FEW017 BKN025 12/10 Q1013=
201201221615 METAR LIRA 221615Z 15007KT 9999 SCT017 SCT025 12/10 Q1013=
201201221545 METAR LIRA 221545Z 16008KT 9999 SCT017 SCT025 12/10 Q1013=
201201221515 METAR LIRA 221515Z 16009KT 9999 SCT017 SCT025 12/10 Q1013=
201201221445 METAR LIRA 221445Z 17010KT 9999 SCT016 BKN025 12/10 Q1013=
201201221415 METAR LIRA 221415Z 16010KT 9999 SCT016 SCT025 12/10 Q1014=
201201221345 METAR LIRA 221345Z 15009KT 9999 FEW016 SCT025 BKN070 12/10
                        Q1014=
201201221315 METAR LIRA 221315Z 16009KT 9999 FEW016 SCT025 BKN070 13/10
                        Q1014=
201201221245 METAR LIRA 221245Z 17011KT 9999 FEW016 SCT025 BKN070 13/09
                        Q1014=
201201221215 METAR LIRA 221215Z 17011KT 9999 FEW016 SCT025 BKN070 13/09
                        Q1014=
201201221145 METAR LIRA 221145Z 17010KT 9999 FEW016 SCT025 BKN070 13/10
                        Q1014=
201201221115 METAR LIRA 221115Z 16009KT 9999 FEW016 SCT025 BKN070 13/10
                        Q1014=
201201221045 METAR LIRA 221045Z 15010KT 9999 FEW016 SCT025 BKN070 12/10
                        Q1014=
201201221015 METAR LIRA 221015Z 15010KT 9999 FEW018 SCT025 BKN070 12/09
                        Q1014=
201201220945 METAR LIRA 220945Z 15009KT 9999 FEW016 SCT025 BKN070 11/09
                        Q1014=
201201220915 METAR LIRA 220915Z 15009KT 9999 FEW016 SCT025 BKN070 11/09
                        Q1014=
201201220745 METAR LIRA 220745Z 14009KT 100V180 9999 FEW016 SCT025 11/08
                        Q1014=
201201220715 METAR LIRA 220715Z 15010KT 9999 FEW016 SCT025 11/08 Q1014=
201201220645 METAR LIRA 220645Z 15009KT 9999 SCT016 BKN025 11/08 Q1014=
201201220615 METAR LIRA 220615Z 16005KT 9999 FEW018 SCT025 10/08 Q1014=
201201220545 METAR LIRA 220545Z 15004KT 9999 FEW018 SCT070 08/07 Q1015=
201201220515 METAR LIRA 220515Z 11001KT 9999 FEW030 SCT070 07/06 Q1015=
201201220445 METAR LIRA 220445Z 14003KT 9999 SCT070 07/07 Q1015=
201201220415 METAR LIRA 220415Z 15003KT 9999 SCT070 07/06 Q1015=
201201220345 METAR LIRA 220345Z 16002KT 9999 SCT070 07/07 Q1015=
201201220315 METAR LIRA 220315Z 15003KT 9999 BKN070 08/07 Q1015=
201201220245 METAR LIRA 220245Z 11004KT 9999 BKN070 07/06 Q1015=
201201220215 METAR LIRA 220215Z 14003KT 9999 SCT070 07/06 Q1016=
201201220145 METAR LIRA 220145Z 11005KT 9999 FEW070 05/05 Q1016=
201201220115 METAR LIRA 220115Z 13003KT 9999 FEW060 06/06 Q1016=
201201220045 METAR LIRA 220045Z 16002KT 9999 FEW060 07/07 Q1016=
201201220015 METAR LIRA 220015Z 16004KT 9999 FEW015 SCT060 07/06 Q1016=
201201212350 METAR LIRA 220045Z 16002KT 9999 FEW060 07/07 Q1016=
201201212345 METAR LIRA 212345Z 15004KT 9999 FEW015 SCT060 07/06 Q1016=
201201212315 METAR LIRA 212315Z 13002KT 9999 FEW014 07/06 Q1017=
201201212245 METAR LIRA 212245Z 16003KT 9999 FEW014 SCT070 07/06 Q1017=
201201212215 METAR LIRA 212215Z 13002KT 9999 FEW014 07/06 Q1017=
201201212145 METAR LIRA 212145Z 14002KT 9999 FEW014 SCT020 07/06 Q1017=
201201212115 METAR LIRA 212115Z 16004KT 9999 FEW010 08/07 Q1017=
201201212045 METAR LIRA 212045Z 16005KT 9999 FEW015 08/07 Q1017=
201201212015 METAR LIRA 212015Z 16004KT 9999 FEW015 08/06 Q1017=
201201211945 METAR LIRA 211945Z 15004KT 9999 FEW010 07/06 Q1017=
201201211915 METAR LIRA 211915Z 15003KT 9999 FEW010 07/06 Q1017=
201201211845 METAR LIRA 211845Z 16004KT CAVOK 08/05 Q1017=
201201211815 METAR LIRA 211815Z 09003KT CAVOK 08/06 Q1017=
201201211745 METAR LIRA 211745Z 15001KT CAVOK 09/07 Q1017=
201201211715 METAR LIRA 211715Z 23002KT CAVOK 10/06 Q1017=
201201211645 METAR LIRA 211645Z 23002KT CAVOK 10/05 Q1016=
201201211615 METAR LIRA 211615Z 00000KT CAVOK 12/05 Q1016=
201201211545 METAR LIRA 211545Z 33001KT CAVOK 13/05 Q1016=
201201211515 METAR LIRA 211515Z 31002KT CAVOK 14/06 Q1016=
201201211445 METAR LIRA 211445Z 33002KT CAVOK 14/06 Q1016=
201201211415 METAR LIRA 211415Z 35003KT CAVOK 14/07 Q1016=
201201211345 METAR LIRA 211345Z 32005KT CAVOK 14/07 Q1016=
201201211315 METAR LIRA 211315Z 33003KT CAVOK 13/08 Q1016=
201201211245 METAR LIRA 211245Z 36005KT CAVOK 13/08 Q1016=
201201211215 METAR LIRA 211215Z 01005KT 330V060 CAVOK 12/08 Q1016=
201201211145 METAR LIRA 211145Z 33003KT CAVOK 11/08 Q1016=
201201211115 METAR LIRA 211115Z 03003KT CAVOK 10/08 Q1017=
201201211045 METAR LIRA 211045Z 01003KT 9999 FEW020 09/07 Q1017=
201201211015 METAR LIRA 211015Z 02003KT 9999 FEW019 08/07 Q1017=
201201210945 METAR LIRA 210945Z 02002KT 9999 FEW019 07/07 Q1016=
201201210915 METAR LIRA 210915Z 03004KT 8000 FEW019 06/05 Q1016=
201201210845 METAR LIRA 210845Z 01002KT 5000 BR SCT003 05/04 Q1016=
201201210815 METAR LIRA 210815Z 02003KT 8000 FEW003 04/04 Q1015=
201201210745 METAR LIRA 210745Z 04002KT 8000 FEW006 03/03 Q1015=
201201210715 METAR LIRA 210715Z 04001KT 8000 FEW019 SCT030 03/03 Q1015=
201201210645 METAR LIRA 210645Z 03003KT 6000 FEW018 SCT030 03/02 Q1014=
201201210615 METAR LIRA 210615Z 34002KT 0400 FG SCT002 SCT030 03/02 Q1014=
201201210545 METAR LIRA 210545Z 00000KT 0200 FG OVC002 03/03 Q1014=
201201210515 METAR LIRA 210515Z 31002KT 9000 1500N BR FEW002 04/03 Q1013=
201201210445 METAR LIRA 210445Z 04003KT 9999 FEW008 04/04 Q1013=
201201210415 METAR LIRA 210415Z 05002KT 9999 FEW022 04/03 Q1013=
201201210345 METAR LIRA 210345Z 06002KT 9999 FEW060 04/03 Q1013=
201201210315 METAR LIRA 210315Z 00000KT CAVOK 05/04 Q1013=
201201210245 METAR LIRA 210245Z 10002KT 9999 FEW008 05/04 Q1013=
201201210215 METAR LIRA 210215Z 13002KT 9999 FEW010 05/05 Q1012=
201201210145 METAR LIRA 210145Z 11002KT CAVOK 05/05 Q1012=
201201210115 METAR LIRA 210115Z 15003KT 9999 BKN070 05/05 Q1012=
201201210045 METAR LIRA 210045Z 00000KT 9999 FEW013 BKN070 06/06 Q1012=
201201210015 METAR LIRA 210015Z 15001KT 9999 FEW020 BKN070 06/06 Q1012=
201201202350 METAR LIRA 210045Z 00000KT 9999 FEW013 BKN070 06/06 Q1012=
201201202345 METAR LIRA 202345Z 12002KT 9999 FEW020 BKN070 07/06 Q1013=
201201202315 METAR LIRA 202315Z 11001KT 9999 FEW020 SCT070 06/06 Q1013=
201201202245 METAR LIRA 202245Z 12001KT 9999 FEW020 SCT070 07/06 Q1013=
201201202215 METAR LIRA 202215Z 23001KT 9999 FEW020 SCT070 08/07 Q1013=
201201202145 METAR LIRA 202145Z 00000KT 9999 FEW020 SCT070 08/07 Q1013=
201201202115 METAR LIRA 202115Z 00000KT 9999 FEW020 08/07 Q1013=
201201202045 METAR LIRA 202045Z 09003KT 9999 FEW012 09/08 Q1013=
201201202015 METAR LIRA 202015Z 08002KT 9999 FEW013 SCT070 09/08 Q1012=
201201201945 METAR LIRA 201945Z 17004KT 9999 FEW013 SCT080 09/08 Q1012=
201201201915 METAR LIRA 201915Z 17004KT 9999 FEW013 SCT070 09/08 Q1012=
201201201845 METAR LIRA 201845Z 17002KT 9999 FEW013 08/07 Q1013=
201201201815 METAR LIRA 201815Z 18003KT 9999 FEW014 10/09 Q1013=
201201201745 METAR LIRA 201745Z 00000KT CAVOK 09/08 Q1013=
201201201715 METAR LIRA 201715Z 24002KT 9999 FEW030 12/10 Q1013=
201201201645 METAR LIRA 201645Z 21002KT 9999 FEW016 SCT025 12/10 Q1013=
201201201615 METAR LIRA 201615Z 22004KT 9999 FEW016 SCT025 13/11 Q1013=
201201201545 METAR LIRA 201545Z 18004KT 9999 FEW016 SCT025 13/11 Q1013=
201201201515 METAR LIRA 201515Z 20002KT 9999 FEW016 SCT025 13/12 Q1013=
201201201445 METAR LIRA 201445Z 17008KT 9999 FEW016 SCT025 14/12 Q1012=
201201201415 METAR LIRA 201415Z 17008KT 9000 SCT016 SCT025 13/11 Q1013=
201201201345 METAR LIRA 201345Z 16005KT 9000 SCT016 SCT025 13/11 Q1013=
201201201315 METAR LIRA 201315Z 17008KT 8000 SCT016 13/12 Q1014=
201201201245 METAR LIRA 201245Z 17007KT 7000 FEW008 SCT016 14/13 Q1014=
201201201215 METAR LIRA 201215Z 17009KT 7000 FEW008 SCT015 14/12 Q1015=
201201201145 METAR LIRA 201145Z 16006KT 7000 FEW007 SCT015 13/12 Q1016=
201201201115 METAR LIRA 201115Z 17008KT 7000 FEW010 BKN025 13/12 Q1016=
201201201045 METAR LIRA 201045Z 17007KT 7000 SCT009 BKN025 13/12 Q1017=
201201201015 METAR LIRA 201015Z 18008KT 7000 SCT009 BKN025 12/11 Q1018=
201201200945 METAR LIRA 200945Z 17009KT 7000 FEW009 BKN025 12/11 Q1018=
201201200915 METAR LIRA 200915Z 18010KT 7000 -DZ SCT009 BKN025 12/11 Q1018=
201201200845 METAR LIRA 200845Z 19011KT 7000 -DZ SCT007 BKN025 11/10 Q1019=
201201200815 METAR LIRA 200815Z 18008KT 7000 -DZ BR BKN007 SCT023 11/10
                        Q1019=
201201200745 METAR LIRA 200745Z 18009KT 5000 -DZ BR BKN007 SCT023 11/10
                        Q1019=
201201200715 METAR LIRA 200715Z 16012KT 5000 -DZ BR BKN007 SCT023 11/10
                        Q1019=
201201200645 METAR LIRA 200645Z 17009KT 6000 -DZ SCT009 BKN023 10/10 Q1019=
201201200615 METAR LIRA 200615Z 15011KT 6000 SCT010 BKN025 10/09 Q1020=
201201200545 METAR LIRA 200545Z 17011KT 6000 -DZ SCT010 BKN025 10/09 Q1020=
201201200515 METAR LIRA 200515Z 17009KT 6000 -DZ SCT010 BKN025 10/09 Q1021=
201201200445 METAR LIRA 200445Z 15009KT 6000 -DZ SCT009 BKN025 10/09 Q1022=
201201200415 METAR LIRA 200415Z 16008KT 6000 -DZ SCT009 BKN025 10/09 Q1022=
201201200345 METAR LIRA 200345Z 16009KT 6000 -DZ SCT009 BKN025 09/09 Q1022=
201201200315 METAR LIRA 200315Z 16008KT 6000 -DZ SCT009 BKN025 09/09 Q1023=
201201200245 METAR LIRA 200245Z 15008KT 6000 -DZ SCT009 BKN027 10/09 Q1024=
201201200215 METAR LIRA 200215Z 17006KT 8000 FEW017 BKN030 10/09 Q1024=
201201200145 METAR LIRA 200145Z 16007KT 9999 FEW022 SCT070 10/08 Q1025=
201201200115 METAR LIRA 200115Z 17005KT 9999 FEW022 SCT070 10/08 Q1025=
201201200045 METAR LIRA 200045Z 16006KT 9999 FEW022 SCT070 10/08 Q1026=
201201200015 METAR LIRA 200015Z 17006KT 9999 FEW022 SCT070 10/07 Q1026=
201201192350 METAR LIRA 200045Z 16006KT 9999 FEW022 SCT070 10/08 Q1026=
201201192345 METAR LIRA 192345Z 16007KT 9999 FEW022 SCT070 10/07 Q1027=
201201192315 METAR LIRA 192315Z 17006KT 9999 FEW022 SCT070 10/08 Q1027=
201201192245 METAR LIRA 192245Z 18005KT 9999 FEW022 SCT070 10/08 Q1027=
201201192215 METAR LIRA 192215Z 18003KT 9999 FEW022 SCT070 10/08 Q1027=
201201192145 METAR LIRA 192145Z 16006KT 9999 FEW022 SCT070 10/07 Q1028=
201201192115 METAR LIRA 192115Z 18004KT 9999 FEW022 SCT030 10/07 Q1028=
201201192045 METAR LIRA 192045Z 17004KT 9999 FEW022 SCT030 10/08 Q1029=
201201192015 METAR LIRA 192015Z 17005KT 9999 FEW022 SCT030 10/07 Q1029=
201201191945 METAR LIRA 191945Z 17004KT 9999 FEW022 SCT030 10/07 Q1029=
201201191915 METAR LIRA 191915Z 15004KT 9999 FEW022 SCT030 10/07 Q1029=
201201191845 METAR LIRA 191845Z 16005KT 9999 FEW022 BKN030 09/07 Q1029=
201201191815 METAR LIRA 191815Z 15002KT 9999 FEW022 BKN030 08/06 Q1029=
201201191745 METAR LIRA 191745Z 16002KT 9999 FEW022 BKN030 09/07 Q1029=
201201191715 METAR LIRA 191715Z 16003KT 9999 FEW022 SCT030 08/06 Q1029=
201201191645 METAR LIRA 191645Z 12004KT 9999 FEW022 SCT070 08/05 Q1030=
201201191615 METAR LIRA 191615Z 00000KT 9999 FEW023 SCT060 09/03 Q1030=
201201191545 METAR LIRA 191545Z 08001KT 9999 FEW023 SCT060 10/04 Q1030=
201201191515 METAR LIRA 191515Z 06002KT 9999 FEW023 SCT070 10/04 Q1030=
201201191445 METAR LIRA 191445Z 05004KT 9999 FEW023 11/04 Q1031=
201201191415 METAR LIRA 191415Z 36003KT 9999 FEW023 SCT035 11/03 Q1031=
201201191345 METAR LIRA 191345Z 06003KT 9999 FEW023 SCT035 12/04 Q1032=
201201191315 METAR LIRA 191315Z 07003KT 9999 FEW023 SCT040 12/03 Q1032=
201201191245 METAR LIRA 191245Z 03003KT 9999 FEW023 BKN060 11/04 Q1032=
201201191215 METAR LIRA 191215Z 03003KT 9999 FEW023 SCT060 11/04 Q1032=
201201191145 METAR LIRA 191145Z 04003KT 9999 FEW025 SCT060 09/04 Q1032=
201201191115 METAR LIRA 191115Z 01004KT 9000 FEW040 BKN060 09/04 Q1034=
201201191045 METAR LIRA 191045Z 02003KT 8000 SCT035 SCT060 08/04 Q1034=
201201191015 METAR LIRA 191015Z 05004KT 8000 SCT035 SCT060 07/03 Q1034=
201201190945 METAR LIRA 190945Z 04004KT 8000 BKN060 06/02 Q1034=
201201190915 METAR LIRA 190915Z 04005KT 8000 BKN060 05/02 Q1034=
201201190845 METAR LIRA 190845Z 05003KT 8000 FEW060 03/02 Q1034=
201201190815 METAR LIRA 190815Z 02003KT 8000 FEW060 02/02 Q1034=
201201190745 METAR LIRA 190745Z 03002KT 8000 FEW060 00/M00 Q1034=
201201190715 METAR LIRA 190715Z 04003KT 8000 NSC M00/M01 Q1033=
201201190645 METAR LIRA 190645Z 04002KT 9000 NSC M00/M01 Q1033=
201201190615 METAR LIRA 190615Z 04002KT 9000 NSC M00/M01 Q1033=
201201190545 METAR LIRA 190545Z 03003KT 9000 NSC M01/M01 Q1033=
201201190515 METAR LIRA 190515Z 01002KT 7000 FEW004 M00/M00 Q1033=
201201190445 METAR LIRA 190445Z 05003KT 7000 FEW004 M00/M00 Q1033=
201201190415 METAR LIRA 190415Z 02001KT 7000 FEW002 M00/M00 Q1033=
201201190345 METAR LIRA 190345Z 01001KT 8000 FEW001 M00/M00 Q1033=
201201190315 METAR LIRA 190315Z 03001KT 8000 FEW001 00/00 Q1033=
201201190245 METAR LIRA 190245Z 06002KT 8000 FEW005 00/M00 Q1033=
201201190215 METAR LIRA 190215Z 05002KT 8000 FEW005 00/M00 Q1033=
201201190145 METAR LIRA 190145Z 06002KT 8000 FEW005 00/M00 Q1033=
201201190115 METAR LIRA 190115Z 01002KT CAVOK 01/00 Q1033=
201201190045 METAR LIRA 190045Z 04002KT CAVOK 00/M00 Q1033=
201201190015 METAR LIRA 190015Z 04002KT CAVOK 00/M00 Q1033=
201201182350 METAR LIRA 190045Z 04002KT CAVOK 00/M00 Q1033=
201201182345 METAR LIRA 182345Z 10001KT CAVOK 01/01 Q1033=
201201182315 METAR LIRA 182315Z 01001KT CAVOK 02/01 Q1033=
201201182245 METAR LIRA 182245Z 05001KT CAVOK 02/01 Q1032=
201201182215 METAR LIRA 182215Z 00000KT CAVOK 03/01 Q1032=
201201182145 METAR LIRA 182145Z 11002KT CAVOK 03/02 Q1032=
201201182115 METAR LIRA 182115Z 12001KT CAVOK 04/02 Q1032=
201201182045 METAR LIRA 182045Z 10002KT CAVOK 04/02 Q1032=
201201182015 METAR LIRA 182015Z 12002KT CAVOK 04/02 Q1032=
201201181945 METAR LIRA 181945Z 13001KT CAVOK 04/03 Q1032=
201201181915 METAR LIRA 181915Z 13001KT CAVOK 04/02 Q1032=
201201181845 METAR LIRA 181845Z 13001KT CAVOK 04/02 Q1032=
201201181815 METAR LIRA 181815Z 13002KT 9999 FEW080 04/02 Q1031=
201201181745 METAR LIRA 181745Z 13002KT 9999 FEW080 05/03 Q1031=
201201181715 METAR LIRA 181715Z 00000KT 9999 FEW080 05/M00 Q1031=
201201181645 METAR LIRA 181645Z 00000KT 9999 FEW080 07/02 Q1031=
201201181615 METAR LIRA 181615Z 00000KT 9999 FEW080 09/02 Q1031=
201201181545 METAR LIRA 181545Z 00000KT 9999 FEW080 10/02 Q1031=
201201181515 METAR LIRA 181515Z 00000KT 9999 FEW018 09/00 Q1030=
201201181445 METAR LIRA 181445Z 00000KT 9999 FEW018 11/02 Q1031=
201201181415 METAR LIRA 181415Z 00000KT 9999 FEW018 10/01 Q1031=
201201181345 METAR LIRA 181345Z 02003KT 9999 FEW030 09/01 Q1031=
201201181315 METAR LIRA 181315Z 06002KT 9999 FEW030 07/00 Q1031=
201201181245 METAR LIRA 181245Z 00000KT 9999 FEW018 SCT070 07/00 Q1031=
201201181215 METAR LIRA 181215Z 00000KT 9999 FEW018 BKN070 07/00 Q1031=
201201181145 METAR LIRA 181145Z 00000KT 9999 FEW018 BKN070 06/00 Q1031=
201201181115 METAR LIRA 181115Z 00000KT 9999 FEW018 SCT070 06/01 Q1031=
201201181045 METAR LIRA 181045Z 35001KT 9999 FEW018 SCT070 05/M00 Q1031=
201201181015 METAR LIRA 181015Z 35001KT 9999 FEW018 SCT070 04/M00 Q1031=
201201180945 METAR LIRA 180945Z 04002KT 9999 FEW018 SCT070 04/M00 Q1031=
201201180915 METAR LIRA 180915Z 02003KT 9999 FEW018 BKN030 03/M00 Q1030=
201201180845 METAR LIRA 180845Z 00000KT 9999 FEW018 BKN030 02/M01 Q1030=
201201180815 METAR LIRA 180815Z 03003KT 9999 FEW018 BKN030 01/M01 Q1030=
201201180745 METAR LIRA 180745Z 08001KT 9999 FEW018 SCT030 00/M02 Q1030=
201201180715 METAR LIRA 180715Z 01001KT 9999 FEW018 SCT030 M01/M03 Q1029=
201201180645 METAR LIRA 180645Z 00000KT 9999 FEW018 SCT070 M01/M03 Q1029=
201201180615 METAR LIRA 180615Z 34002KT 9999 FEW018 SCT070 M01/M03 Q1029=
201201180545 METAR LIRA 180545Z 00000KT 9999 FEW080 M02/M03 Q1029=
201201180515 METAR LIRA 180515Z 00000KT CAVOK M02/M03 Q1028=
201201180445 METAR LIRA 180445Z 00000KT CAVOK M02/M04 Q1028=
201201180415 METAR LIRA 180415Z 08003KT 9999 FEW040 M02/M04 Q1028=
201201180345 METAR LIRA 180345Z 01002KT 9999 FEW050 M02/M04 Q1029=
201201180315 METAR LIRA 180315Z 00000KT 9999 FEW060 M02/M04 Q1028=
201201180245 METAR LIRA 180245Z 05001KT 9999 FEW060 M02/M03 Q1028=
201201180215 METAR LIRA 180215Z 02001KT 9999 FEW060 M02/M03 Q1028=
201201180145 METAR LIRA 180145Z 00000KT CAVOK M01/M03 Q1028=
201201180115 METAR LIRA 180115Z 02001KT CAVOK M01/M03 Q1028=
201201180045 METAR LIRA 180045Z 05001KT CAVOK M01/M03 Q1028=
201201180015 METAR LIRA 180015Z 05002KT CAVOK M00/M03 Q1028=
201201172350 METAR LIRA 180045Z 05001KT CAVOK M01/M03 Q1028=
201201172345 METAR LIRA 172345Z 06002KT CAVOK M00/M04 Q1028=
201201172315 METAR LIRA 172315Z 01001KT CAVOK M00/M04 Q1028=
201201172245 METAR LIRA 172245Z 08001KT CAVOK 01/M05 Q1028=
201201172215 METAR LIRA 172215Z 11001KT CAVOK 02/M04 Q1028=
201201172145 METAR LIRA 172145Z 12002KT CAVOK 02/M04 Q1028=
201201172115 METAR LIRA 172115Z 00000KT CAVOK 02/M04 Q1028=
201201172045 METAR LIRA 172045Z 12003KT CAVOK 02/M04 Q1028=
201201172015 METAR LIRA 172015Z 13001KT CAVOK 02/M04 Q1027=
201201171945 METAR LIRA 171945Z 15002KT CAVOK 02/M04 Q1027=
201201171915 METAR LIRA 171915Z 14001KT CAVOK 02/M03 Q1027=
201201171845 METAR LIRA 171845Z 16001KT CAVOK 03/M03 Q1027=
201201171815 METAR LIRA 171815Z 13001KT CAVOK 04/M02 Q1027=
201201171745 METAR LIRA 171745Z 15002KT CAVOK 05/M02 Q1026=
201201171715 METAR LIRA 171715Z 15001KT CAVOK 03/M04 Q1026=
201201171645 METAR LIRA 171645Z 00000KT CAVOK 05/M05 Q1025=
201201171615 METAR LIRA 171615Z 00000KT CAVOK 08/M06 Q1025=
201201171545 METAR LIRA 171545Z 36001KT CAVOK 09/M05 Q1025=
201201171515 METAR LIRA 171515Z 32001KT CAVOK 09/M05 Q1025=
201201171445 METAR LIRA 171445Z 00000KT CAVOK 09/M05 Q1026=
201201171415 METAR LIRA 171415Z 30002KT CAVOK 10/M05 Q1026=
201201171345 METAR LIRA 171345Z 25003KT CAVOK 10/M05 Q1026=
201201171315 METAR LIRA 171315Z 14001KT CAVOK 10/M05 Q1026=
201201171245 METAR LIRA 171245Z 16001KT CAVOK 10/M05 Q1026=
201201171215 METAR LIRA 171215Z 30001KT CAVOK 09/M04 Q1026=
201201171145 METAR LIRA 171145Z 04002KT CAVOK 09/M03 Q1026=
201201171115 METAR LIRA 171115Z 02003KT CAVOK 07/M02 Q1026=
201201171045 METAR LIRA 171045Z 01004KT CAVOK 07/M01 Q1026=
201201171015 METAR LIRA 171015Z 01003KT CAVOK 05/M02 Q1026=
201201170945 METAR LIRA 170945Z 01004KT CAVOK 04/M02 Q1026=
201201170915 METAR LIRA 170915Z 04003KT CAVOK 03/M03 Q1026=
201201170845 METAR LIRA 170845Z 02003KT CAVOK 02/M03 Q1026=
201201170815 METAR LIRA 170815Z 02002KT CAVOK 01/M03 Q1025=
201201170745 METAR LIRA 170745Z 03002KT CAVOK M00/M03 Q1025=
201201170715 METAR LIRA 170715Z 04001KT CAVOK M01/M05 Q1025=
201201170645 METAR LIRA 170645Z 00000KT CAVOK M02/M06 Q1024=
201201170615 METAR LIRA 170615Z 05003KT CAVOK M02/M05 Q1024=
201201170545 METAR LIRA 170545Z 02004KT CAVOK M01/M05 Q1024=
201201170515 METAR LIRA 170515Z 04001KT CAVOK M02/M06 Q1024=
201201170445 METAR LIRA 170445Z 04002KT CAVOK M01/M05 Q1024=
201201170415 METAR LIRA 170415Z 01002KT CAVOK M00/M04 Q1024=
201201170345 METAR LIRA 170345Z 01002KT CAVOK 00/M04 Q1024=
201201170315 METAR LIRA 170315Z 02002KT CAVOK 00/M04 Q1024=
201201170245 METAR LIRA 170245Z 36005KT CAVOK 01/M05 Q1024=
201201170215 METAR LIRA 170215Z 36005KT CAVOK 01/M05 Q1024=
201201170145 METAR LIRA 170145Z 01003KT CAVOK 02/M04 Q1024=
201201170115 METAR LIRA 170115Z 02004KT CAVOK 02/M04 Q1024=
201201170045 METAR LIRA 170045Z 02004KT CAVOK 02/M04 Q1023=
201201170015 METAR LIRA 170015Z 04005KT CAVOK 02/M04 Q1023=
201201162350 METAR LIRA 170045Z 02004KT CAVOK 02/M04 Q1023=
201201162345 METAR LIRA 162345Z 05006KT CAVOK 02/M02 Q1023=
201201162315 METAR LIRA 162315Z 06006KT CAVOK 02/M02 Q1023=
201201162245 METAR LIRA 162245Z 06005KT CAVOK 01/M03 Q1023=
201201162215 METAR LIRA 162215Z 05004KT CAVOK 03/M02 Q1023=
201201162145 METAR LIRA 162145Z 05003KT CAVOK 03/M02 Q1023=
201201162115 METAR LIRA 162115Z 05004KT CAVOK 04/M01 Q1022=
201201162045 METAR LIRA 162045Z 05003KT 9999 FEW080 04/M01 Q1022=
201201162015 METAR LIRA 162015Z 05002KT 9999 FEW080 03/M02 Q1022=
201201161945 METAR LIRA 161945Z 10004KT 9999 FEW080 05/M00 Q1022=
201201161915 METAR LIRA 161915Z 10004KT 9999 FEW020 04/M01 Q1022=
201201161845 METAR LIRA 161845Z 06002KT 9999 FEW020 05/M01 Q1021=
201201161815 METAR LIRA 161815Z 11003KT 9999 FEW020 05/M01 Q1021=
201201161745 METAR LIRA 161745Z 13001KT 9999 FEW020 05/M03 Q1020=
201201161715 METAR LIRA 161715Z 17002KT 9999 FEW025 07/M01 Q1020=
201201161645 METAR LIRA 161645Z 13003KT 9999 FEW025 06/M02 Q1020=
201201161615 METAR LIRA 161615Z 20002KT 9999 FEW025 08/M03 Q1020=
201201161545 METAR LIRA 161545Z 25002KT 9999 FEW030 09/M04 Q1019=
201201161515 METAR LIRA 161515Z 31001KT 9999 FEW030 09/M05 Q1019=
201201161445 METAR LIRA 161445Z 00000KT 9999 FEW030 SCT080 09/M06 Q1019=
201201161415 METAR LIRA 161415Z 36001KT 9999 FEW030 SCT080 10/M06 Q1019=
201201161345 METAR LIRA 161345Z 28004KT 9999 FEW030 SCT080 10/M06 Q1019=
201201161315 METAR LIRA 161315Z 25004KT 9999 SCT070 10/M05 Q1019=
201201161245 METAR LIRA 161245Z 31002KT 9999 SCT070 10/M05 Q1019=
201201161215 METAR LIRA 161215Z 22005KT 9999 FEW070 10/M04 Q1019=
201201161145 METAR LIRA 161145Z 20004KT 9999 FEW070 10/M03 Q1019=
201201161115 METAR LIRA 161115Z 26003KT 9999 FEW070 09/M01 Q1019=
201201161045 METAR LIRA 161045Z 28003KT 9999 FEW040 08/M02 Q1019=
201201161015 METAR LIRA 161015Z 22003KT 9999 FEW040 08/00 Q1019=
201201160945 METAR LIRA 160945Z 36004KT 9999 FEW040 06/M00 Q1019=
201201160915 METAR LIRA 160915Z 01003KT 9999 FEW045 04/M01 Q1019=
201201160845 METAR LIRA 160845Z 36003KT 9999 FEW045 03/M01 Q1019=
201201160815 METAR LIRA 160815Z 03001KT 9999 FEW050 01/M01 Q1019=
201201160745 METAR LIRA 160745Z 04002KT 9999 FEW060 00/M02 Q1019=
201201160715 METAR LIRA 160715Z 04002KT 9999 FEW060 M01/M03 Q1019=
201201160645 METAR LIRA 160645Z 04002KT 9999 FEW070 M00/M03 Q1018=
201201160615 METAR LIRA 160615Z 00000KT CAVOK M00/M03 Q1018=
201201160545 METAR LIRA 160545Z 04001KT CAVOK M00/M03 Q1018=
201201160515 METAR LIRA 160515Z 00000KT CAVOK M00/M03 Q1018=
201201160445 METAR LIRA 160445Z 02002KT CAVOK M00/M02 Q1018=
201201160415 METAR LIRA 160415Z 04002KT CAVOK 00/M02 Q1018=
201201160345 METAR LIRA 160345Z 03002KT CAVOK 00/M02 Q1018=
201201160315 METAR LIRA 160315Z 02001KT CAVOK 00/M02 Q1018=
201201160245 METAR LIRA 160245Z 01002KT 9999 FEW080 00/M02 Q1018=
201201160215 METAR LIRA 160215Z 09001KT 9999 FEW060 01/M03 Q1018=
201201160145 METAR LIRA 160145Z 11002KT 9999 FEW020 01/M02 Q1018=
201201160115 METAR LIRA 160115Z 33002KT 9999 FEW020 03/M02 Q1018=
201201160045 METAR LIRA 160045Z 01001KT 9999 FEW020 03/M01 Q1018=
201201160015 METAR LIRA 160015Z 08003KT 9999 FEW020 02/M01 Q1018=
201201152350 METAR LIRA 160045Z 01001KT 9999 FEW020 03/M01 Q1018=
201201152345 METAR LIRA 152345Z 08002KT 9999 FEW025 02/M01 Q1018=
201201152315 METAR LIRA 152315Z 00000KT CAVOK 03/M01 Q1018=
201201152245 METAR LIRA 152245Z 14007KT CAVOK 04/M02 Q1018=
201201152215 METAR LIRA 152215Z 15008KT CAVOK 05/M01 Q1018=
201201152145 METAR LIRA 152145Z 15005KT CAVOK 04/M01 Q1018=
201201152115 METAR LIRA 152115Z 15006KT CAVOK 04/M01 Q1018=
201201152045 METAR LIRA 152045Z 14005KT CAVOK 04/M01 Q1018=
201201152015 METAR LIRA 152015Z 13005KT CAVOK 04/M01 Q1018=
201201151945 METAR LIRA 151945Z 13005KT CAVOK 04/M01 Q1018=
201201151915 METAR LIRA 151915Z 13006KT CAVOK 04/M01 Q1018=
201201151845 METAR LIRA 151845Z 15006KT CAVOK 04/M00 Q1017=
201201151815 METAR LIRA 151815Z 15007KT CAVOK 05/M00 Q1017=
201201151745 METAR LIRA 151745Z 16005KT CAVOK 05/M00 Q1017=
201201151715 METAR LIRA 151715Z 15005KT 9999 FEW060 05/M01 Q1017=
201201151645 METAR LIRA 151645Z 22002KT 9999 FEW022 07/M03 Q1017=
201201151615 METAR LIRA 151615Z 20001KT 9999 FEW022 08/M06 Q1017=
201201151545 METAR LIRA 151545Z 24001KT 9999 FEW022 10/M03 Q1017=
201201151515 METAR LIRA 151515Z 23002KT 9999 FEW022 11/M04 Q1017=
201201151445 METAR LIRA 151445Z 23001KT 9999 FEW022 10/M04 Q1017=
201201151415 METAR LIRA 151415Z 00000KT 9999 FEW022 11/M03 Q1017=
201201151345 METAR LIRA 151345Z 32004KT 9999 FEW022 11/M03 Q1017=
201201151315 METAR LIRA 151315Z 26001KT 9999 FEW022 11/M03 Q1017=
201201151245 METAR LIRA 151245Z 30002KT 9999 FEW022 11/M01 Q1017=
201201151215 METAR LIRA 151215Z 30002KT 9999 FEW080 09/M01 Q1018=
201201151145 METAR LIRA 151145Z 28003KT 9999 FEW080 09/M01 Q1018=
201201151115 METAR LIRA 151115Z 00000KT 9999 FEW080 09/M01 Q1018=
201201151045 METAR LIRA 151045Z 03001KT 9999 FEW080 07/M00 Q1018=
201201151015 METAR LIRA 151015Z 35002KT 9999 FEW080 06/M00 Q1018=
201201150945 METAR LIRA 150945Z 01003KT 9999 FEW080 05/M00 Q1018=
201201150915 METAR LIRA 150915Z 36002KT 9999 FEW080 04/M02 Q1018=
201201150845 METAR LIRA 150845Z 02004KT 9999 FEW080 02/M02 Q1018=
201201150815 METAR LIRA 150815Z 36004KT 9999 FEW080 01/M02 Q1018=
201201150745 METAR LIRA 150745Z 06002KT 9999 FEW080 01/M02 Q1018=
201201150715 METAR LIRA 150715Z 03002KT 9999 FEW080 00/M03 Q1017=
201201150645 METAR LIRA 150645Z 03002KT 9999 FEW080 00/M03 Q1017=
201201150615 METAR LIRA 150615Z 03002KT 9999 FEW080 00/M03 Q1017=
201201150545 METAR LIRA 150545Z 05002KT 9999 FEW080 01/M03 Q1017=
201201150515 METAR LIRA 150515Z 03003KT 9999 FEW080 01/M03 Q1017=
201201150445 METAR LIRA 150445Z 01001KT 9999 FEW080 01/M03 Q1017=
201201150415 METAR LIRA 150415Z 04001KT 9999 FEW030 02/M02 Q1017=
201201150345 METAR LIRA 150345Z 06003KT 9999 FEW030 SCT070 02/M02 Q1017=
201201150315 METAR LIRA 150315Z 03004KT 9999 FEW030 SCT070 03/M01 Q1017=
201201150245 METAR LIRA 150245Z 34003KT 9999 FEW030 SCT070 04/M01 Q1017=
201201150215 METAR LIRA 150215Z 02003KT 9999 FEW017 SCT030 04/M01 Q1017=
201201150145 METAR LIRA 150145Z 03003KT 9999 FEW017 BKN070 04/M01 Q1017=
201201150115 METAR LIRA 150115Z 01004KT 9999 FEW017 BKN070 04/01 Q1017=
201201150045 METAR LIRA 150045Z 02003KT 9999 FEW017 BKN070 03/00 Q1017=
201201150015 METAR LIRA 150015Z 04005KT 9999 FEW017 SCT070 03/01 Q1017=
201201142350 METAR LIRA 150045Z 02003KT 9999 FEW017 BKN070 03/00 Q1017=
201201142345 METAR LIRA 142345Z 02004KT 9999 FEW017 SCT070 04/02 Q1017=
201201142315 METAR LIRA 142315Z 32002KT 9999 FEW017 04/02 Q1017=
201201142245 METAR LIRA 142245Z 00000KT 9999 FEW017 04/02 Q1017=
201201142215 METAR LIRA 142215Z 00000KT 9999 FEW017 SCT070 04/02 Q1017=
201201142145 METAR LIRA 142145Z 00000KT 9999 FEW017 SCT070 04/02 Q1017=
201201142115 METAR LIRA 142115Z 00000KT 9999 FEW017 04/02 Q1017=
201201142045 METAR LIRA 142045Z 10002KT 9999 FEW017 06/02 Q1017=
201201142015 METAR LIRA 142015Z 00000KT 9999 FEW017 07/02 Q1017=
201201141945 METAR LIRA 141945Z 01004KT 9999 FEW017 07/02 Q1017=
201201141915 METAR LIRA 141915Z 17004KT 9999 FEW030 08/02 Q1016=
201201141845 METAR LIRA 141845Z 17006KT 9999 FEW030 08/02 Q1016=
201201141815 METAR LIRA 141815Z 18005KT 9999 FEW030 SCT070 09/03 Q1016=
201201141745 METAR LIRA 141745Z 18005KT 9999 FEW030 09/04 Q1016=
201201141715 METAR LIRA 141715Z 20004KT 9999 FEW022 SCT070 09/04 Q1016=
201201141645 METAR LIRA 141645Z 22002KT 9999 FEW022 SCT070 11/05 Q1016=
201201141615 METAR LIRA 141615Z 23003KT 9999 FEW022 11/04 Q1016=
201201141545 METAR LIRA 141545Z 23002KT 9999 FEW022 SCT030 12/M02 Q1015=
201201141515 METAR LIRA 141515Z 31001KT 9999 FEW022 13/M01 Q1015=
201201141445 METAR LIRA 141445Z 36002KT 9999 FEW022 13/M00 Q1015=
201201141415 METAR LIRA 141415Z 01002KT 9999 FEW022 13/M00 Q1016=
201201141345 METAR LIRA 141345Z 01002KT 9999 FEW020TCU 13/M00 Q1016=
201201141315 METAR LIRA 141315Z 36004KT 9999 FEW020TCU SCT030 13/M00 Q1016=
201201141245 METAR LIRA 141245Z 01003KT 9999 FEW020TCU SCT030 13/M01 Q1016=
201201141215 METAR LIRA 141215Z 01004KT 9999 FEW020 SCT030 13/M01 Q1016=
201201141145 METAR LIRA 141145Z 02006KT 330V080 9999 FEW020 13/M00 Q1016=
201201141115 METAR LIRA 141115Z 04006KT 340V070 9999 FEW020 SCT060 13/01
                        Q1017=
201201141045 METAR LIRA 141045Z 03004KT 9999 FEW020 SCT060 11/05 Q1017=
201201141015 METAR LIRA 141015Z 03005KT 350V050 9999 FEW020 10/05 Q1017=
201201140945 METAR LIRA 140945Z 03005KT 9999 FEW025 10/06 Q1017=
201201140915 METAR LIRA 140915Z 04004KT 9999 FEW025 09/06 Q1017=
201201140845 METAR LIRA 140845Z 03004KT 9999 FEW030 SCT060 08/06 Q1016=
201201140815 METAR LIRA 140815Z 04003KT 9999 FEW070 06/05 Q1016=
201201140745 METAR LIRA 140745Z 00000KT 9999 FEW080 05/04 Q1016=
201201140715 METAR LIRA 140715Z 36003KT 9999 FEW080 04/03 Q1016=
201201140645 METAR LIRA 140645Z 06003KT CAVOK 04/03 Q1016=
201201140615 METAR LIRA 140615Z 03003KT CAVOK 04/03 Q1015=
201201140545 METAR LIRA 140545Z 04003KT CAVOK 04/04 Q1015=
201201140515 METAR LIRA 140515Z 01004KT 9999 FEW010 05/04 Q1015=
201201140445 METAR LIRA 140445Z 02003KT 9999 FEW010 05/03 Q1015=
201201140415 METAR LIRA 140415Z 07001KT 9999 FEW010 05/04 Q1015=
201201140345 METAR LIRA 140345Z 06003KT 9999 FEW030 06/05 Q1016=
201201140315 METAR LIRA 140315Z 11006KT 9999 FEW030 06/05 Q1016=
201201140300 METAR LIRA CONTUS LOW CLDS MVNG S=
201201140245 METAR LIRA 140245Z 05001KT 9999 SCT030 06/05 Q1016=
201201140215 METAR LIRA 140215Z 08004KT 9999 SCT030 06/05 Q1016=
201201140200 METAR LIRA CONTUS LOW CLDS MVNG S=
201201140145 METAR LIRA 140145Z 04003KT 9999 SCT030 07/05 Q1016=
201201140115 METAR LIRA 140115Z 10005KT 9999 SCT030 07/06 Q1016=
201201140045 METAR LIRA 140045Z 09005KT 9999 FEW020 SCT030 07/06 Q1016=
201201140015 METAR LIRA 140015Z 09003KT 9999 FEW016 SCT027 08/07 Q1016=
201201132350 METAR LIRA 140045Z 09005KT 9999 FEW020 SCT030 07/06 Q1016=
201201132345 METAR LIRA 132345Z 15004KT 9999 FEW016 SCT027 09/08 Q1016=
201201132315 METAR LIRA 132315Z 14005KT 9999 SCT016 SCT025 09/08 Q1016=
201201132245 METAR LIRA 132245Z 15004KT 9999 SCT016 SCT025 09/08 Q1017=
201201132215 METAR LIRA 132215Z 16003KT 9999 SCT016 SCT025 10/08 Q1017=
201201132145 METAR LIRA 132145Z 15004KT 9999 SCT016 SCT025 10/08 Q1017=
201201132115 METAR LIRA 132115Z 17004KT 9999 SCT016 SCT025 10/08 Q1017=
201201132100 LIRA COUNTUS=
201201132045 METAR LIRA 132045Z 16005KT 9999 SCT016 SCT025 10/08 Q1017=
201201132015 METAR LIRA 132015Z 17004KT 9999 SCT016 SCT025 10/08 Q1017=
201201131945 METAR LIRA 131945Z 17004KT 9999 SCT016 SCT025 10/08 Q1017=
201201131915 METAR LIRA 131915Z 17004KT 9999 SCT016 SCT025 10/08 Q1017=
201201131845 METAR LIRA 131845Z 17003KT 9999 FEW017 SCT025 10/08 Q1017=
201201131815 METAR LIRA 131815Z 16003KT 9999 SCT017 09/08 Q1017=
201201131745 METAR LIRA 131745Z 14004KT 9999 SCT017 10/08 Q1017=
201201131715 METAR LIRA 131715Z 15005KT 9999 SCT017 09/08 Q1018=
201201131645 METAR LIRA 131645Z 15004KT 9999 FEW017 09/08 Q1018=
201201131615 METAR LIRA 131615Z 18002KT 9999 FEW017 11/08 Q1018=
201201131545 METAR LIRA 131545Z 21003KT 9999 FEW017 12/08 Q1018=
201201131515 METAR LIRA 131515Z 23003KT 9999 FEW017 13/08 Q1019=
201201131445 METAR LIRA 131445Z 23004KT 9999 FEW017 13/08 Q1019=
201201131415 METAR LIRA 131415Z 19006KT 9999 SCT017 12/08 Q1019=
201201131345 METAR LIRA 131345Z 19006KT 9999 SCT017 13/08 Q1019=
201201131315 METAR LIRA 131315Z 19004KT 9999 SCT017 13/07 Q1019=
201201131245 METAR LIRA 131245Z 17005KT 120V220 9999 FEW017 13/07 Q1020=
201201131215 METAR LIRA 131215Z 17005KT 9999 FEW016 SCT030 13/08 Q1020=
201201131145 METAR LIRA 131145Z 19005KT 9999 FEW016 SCT030 13/08 Q1021=
201201131115 METAR LIRA 131115Z 17005KT 9999 FEW016 SCT025 12/07 Q1021=
201201131045 METAR LIRA 131045Z 17005KT 9999 FEW016 SCT025 12/07 Q1022=
201201131015 METAR LIRA 131015Z 17005KT 9999 FEW016 BKN025 11/07 Q1022=
201201130945 METAR LIRA 130945Z 18005KT 150V210 9999 FEW016 BKN025 11/07
                        Q1022=
201201130915 METAR LIRA 130915Z 17009KT 140V200 9999 FEW016 BKN025 12/09
                        Q1022=
201201130845 METAR LIRA 130845Z 15004KT 9999 FEW016 BKN025 11/08 Q1022=
201201130815 METAR LIRA 130815Z 17006KT 9999 FEW016 BKN025 11/08 Q1022=
201201130745 METAR LIRA 130745Z 16007KT 9999 FEW016 BKN025 10/07 Q1022=
201201130715 METAR LIRA 130715Z 15007KT 9999 FEW016 BKN025 09/07 Q1022=
201201130645 METAR LIRA 130645Z 15005KT 9999 FEW016 BKN025 08/07 Q1022=
201201130615 METAR LIRA 130615Z 14005KT 9999 FEW016 BKN025 07/06 Q1022=
201201130545 METAR LIRA 130545Z 12001KT 9999 FEW016 SCT025 05/04 Q1023=
201201130515 METAR LIRA 130515Z 13001KT 9999 SCT016 SCT025 05/04 Q1023=
201201130445 METAR LIRA 130445Z 15002KT 9999 SCT016 SCT025 05/04 Q1023=
201201130415 METAR LIRA 130415Z 00000KT 9999 SCT017 SCT027 05/04 Q1024=
201201130345 METAR LIRA 130345Z 04001KT 9999 SCT017 SCT027 05/04 Q1024=
201201130315 METAR LIRA 130315Z 36002KT 9999 FEW017 SCT027 05/04 Q1024=
201201130245 METAR LIRA 130245Z 00000KT 9999 SCT016 SCT026 05/04 Q1025=
201201130215 METAR LIRA 130215Z 01001KT 9999 SCT015 SCT026 05/05 Q1025=
201201130145 METAR LIRA 130145Z 00000KT 9999 SCT015 FEW020TCU SCT026 06/06
                        Q1025=
201201130115 METAR LIRA 130115Z 14002KT 9999 SCT015 FEW020TCU SCT026 04/04
                        Q1026=
201201130045 METAR LIRA 130045Z 00000KT 9999 SCT015 FEW020TCU SCT030 04/04
                        Q1026=
201201130015 METAR LIRA 130015Z 06002KT 9999 SCT015 FEW020TCU SCT025 04/04
                        Q1026=
201201122350 METAR LIRA 130045Z 00000KT 9999 SCT015 FEW020TCU SCT030 04/04
                        Q1026=
201201122345 METAR LIRA 122345Z 12002KT 9999 FEW006 04/04 Q1026=
201201122315 METAR LIRA 122315Z 12002KT 9999 FEW006 04/04 Q1026=
201201122245 METAR LIRA 122245Z 14002KT 9999 FEW006 04/04 Q1027=
201201122215 METAR LIRA 122215Z 15003KT 9999 FEW006 04/04 Q1027=
201201122145 METAR LIRA 122145Z 14002KT 9999 FEW013 05/03 Q1027=
201201122115 METAR LIRA 122115Z 13002KT CAVOK 05/03 Q1027=
201201122045 METAR LIRA 122045Z 14002KT CAVOK 05/03 Q1027=
201201122015 METAR LIRA 122015Z 15002KT CAVOK 06/03 Q1027=
201201121945 METAR LIRA 121945Z 13002KT CAVOK 06/03 Q1027=
201201121915 METAR LIRA 121915Z 14002KT CAVOK 06/03 Q1027=
201201121845 METAR LIRA 121845Z 15002KT CAVOK 06/04 Q1028=
201201121745 METAR LIRA 121745Z 13002KT CAVOK 07/05 Q1028=
201201121715 METAR LIRA 121715Z 15002KT CAVOK 09/07 Q1028=
201201121645 METAR LIRA 121645Z 26002KT 9999 FEW030 09/06 Q1028=
201201121615 METAR LIRA 121615Z 24002KT 9999 FEW030 09/04 Q1028=
201201121545 METAR LIRA 121545Z 23002KT 9999 FEW020 12/03 Q1028=
201201121515 METAR LIRA 121515Z 24001KT 9999 FEW020 13/01 Q1028=
201201121445 METAR LIRA 121445Z 26002KT 9999 FEW020 13/01 Q1029=
201201121415 METAR LIRA 121415Z 29003KT 9999 FEW020 13/02 Q1029=
201201121345 METAR LIRA 121345Z 25002KT 9999 FEW020 13/02 Q1029=
201201121315 METAR LIRA 121315Z 31002KT 9999 FEW020 13/02 Q1029=
201201121245 METAR LIRA 121245Z 35001KT 9999 FEW020 13/03 Q1029=
201201121215 METAR LIRA 121215Z 33001KT 9999 FEW020 12/03 Q1030=
201201121145 METAR LIRA 121145Z 33001KT 9999 FEW020 11/03 Q1030=
201201121115 METAR LIRA 121115Z 01001KT 9999 FEW020 10/03 Q1030=
201201121045 METAR LIRA 121045Z 01002KT 9999 FEW020 09/03 Q1031=
201201121015 METAR LIRA 121015Z 05003KT 9999 FEW070 08/02 Q1031=
201201120945 METAR LIRA 120945Z 02003KT 9999 FEW070 07/02 Q1031=
201201120915 METAR LIRA 120915Z 03003KT 9999 FEW010 05/03 Q1030=
201201120845 METAR LIRA 120845Z 03001KT 9999 FEW010 04/02 Q1030=
201201120815 METAR LIRA 120815Z 04002KT 9999 FEW010 03/01 Q1030=
201201120745 METAR LIRA 120745Z 03002KT 9999 FEW010 02/00 Q1030=
201201120715 METAR LIRA 120715Z 03002KT 9999 FEW010 01/00 Q1030=
201201120645 METAR LIRA 120645Z 05002KT 9999 FEW010 01/00 Q1030=
201201120615 METAR LIRA 120615Z 07003KT 9999 FEW010 00/M01 Q1031=
201201120545 METAR LIRA 120545Z 02003KT 9999 FEW010 00/M00 Q1031=
201201120515 METAR LIRA 120515Z 08001KT CAVOK 01/00 Q1031=
201201120445 METAR LIRA 120445Z 06001KT CAVOK 02/00 Q1031=
201201120415 METAR LIRA 120415Z 05004KT CAVOK 02/00 Q1031=
201201120345 METAR LIRA 120345Z 02003KT CAVOK 02/00 Q1031=
201201120315 METAR LIRA 120315Z 07001KT CAVOK 01/M00 Q1031=
201201120245 METAR LIRA 120245Z 07001KT CAVOK 01/M00 Q1031=
201201120215 METAR LIRA 120215Z 04003KT CAVOK 01/M00 Q1030=
201201120145 METAR LIRA 120145Z 04001KT CAVOK 02/M01 Q1030=
201201120115 METAR LIRA 120115Z 00000KT CAVOK 02/00 Q1030=
201201120045 METAR LIRA 120045Z 13002KT CAVOK 02/M00 Q1030=
201201120015 METAR LIRA 120015Z 13002KT CAVOK 02/M00 Q1030=
201201112350 METAR LIRA 120045Z 13002KT CAVOK 02/M00 Q1030=
201201112345 METAR LIRA 112345Z 09002KT CAVOK 03/01 Q1030=
201201112315 METAR LIRA 112315Z 12002KT CAVOK 03/M00 Q1030=
201201112245 METAR LIRA 112245Z 10001KT CAVOK 03/M00 Q1030=
201201112215 METAR LIRA 112215Z 06002KT CAVOK 04/M00 Q1029=
201201112145 METAR LIRA 112145Z 00000KT CAVOK 05/M00 Q1029=
201201112115 METAR LIRA 112115Z 36002KT CAVOK 05/00 Q1029=
201201112045 METAR LIRA 112045Z 11001KT CAVOK 02/M02 Q1029=
201201112015 METAR LIRA 112015Z 10001KT CAVOK 06/02 Q1029=
201201111945 METAR LIRA 111945Z 08001KT CAVOK 06/02 Q1029=
201201111915 METAR LIRA 111915Z 07003KT CAVOK 06/01 Q1029=
201201111845 METAR LIRA 111845Z 05002KT CAVOK 06/01 Q1029=
201201111815 METAR LIRA 111815Z 07003KT CAVOK 06/M00 Q1029=
201201111745 METAR LIRA 111745Z 08002KT CAVOK 07/M00 Q1029=
201201111715 METAR LIRA 111715Z 05001KT CAVOK 08/00 Q1028=
201201111645 METAR LIRA 111645Z 02001KT CAVOK 09/M01 Q1028=
201201111615 METAR LIRA 111615Z 06001KT CAVOK 10/M02 Q1028=
201201111545 METAR LIRA 111545Z 36002KT CAVOK 11/M02 Q1028=
201201111515 METAR LIRA 111515Z 34004KT CAVOK 12/M02 Q1028=
201201111445 METAR LIRA 111445Z 02003KT CAVOK 13/M02 Q1028=
201201111415 METAR LIRA 111415Z 02003KT CAVOK 13/M00 Q1028=
201201111345 METAR LIRA 111345Z 01005KT 330V040 CAVOK 12/M01 Q1028=
201201111315 METAR LIRA 111315Z 36004KT 320V030 CAVOK 12/M01 Q1028=
201201111245 METAR LIRA 111245Z 36006KT CAVOK 12/M00 Q1029=
201201111215 METAR LIRA 111215Z 34005KT CAVOK 11/M00 Q1029=
201201111145 METAR LIRA 111145Z 34005KT CAVOK 11/M00 Q1029=
201201111115 METAR LIRA 111115Z 33004KT CAVOK 10/02 Q1030=
201201111045 METAR LIRA 111045Z 01004KT 9999 8000S FEW002 09/01 Q1030=
201201111015 METAR LIRA 111015Z 03005KT 9999 7000S FEW002 08/01 Q1030=
201201110945 METAR LIRA 110945Z 35004KT CAVOK 07/01 Q1030=
201201110915 METAR LIRA 110915Z 03004KT 9999 FEW013 06/02 Q1030=
201201110845 METAR LIRA 110845Z 36005KT 330V030 9999 8000S FEW002 05/01
                        Q1030=
201201110815 METAR LIRA 110815Z 36004KT 9999 8000S FEW002 04/01 Q1029=
201201110745 METAR LIRA 110745Z 05005KT 020V080 9999 7000S FEW002 03/M00
                        Q1029=
201201110715 METAR LIRA 110715Z 04005KT CAVOK 02/M00 Q1029=
201201110645 METAR LIRA 110645Z 04005KT CAVOK 02/00 Q1029=
201201110615 METAR LIRA 110615Z 06003KT CAVOK 01/00 Q1029=
201201110545 METAR LIRA 110545Z 04003KT CAVOK 01/00 Q1029=
201201110515 METAR LIRA 110515Z 36003KT CAVOK 01/00 Q1028=
201201110445 METAR LIRA 110445Z 05005KT CAVOK 01/00 Q1028=
201201110415 METAR LIRA 110415Z 01003KT CAVOK 02/01 Q1028=
201201110345 METAR LIRA 110345Z 06005KT CAVOK 02/00 Q1028=
201201110315 METAR LIRA 110315Z 03004KT CAVOK 02/01 Q1028=
201201110245 METAR LIRA 110245Z 05004KT CAVOK 02/01 Q1028=
201201110215 METAR LIRA 110215Z 04004KT CAVOK 03/01 Q1029=
201201110145 METAR LIRA 110145Z 06002KT CAVOK 04/02 Q1029=
201201110115 METAR LIRA 110115Z 03005KT 350V060 CAVOK 04/01 Q1029=
201201110045 METAR LIRA 110045Z 02006KT CAVOK 04/01 Q1028=
201201110015 METAR LIRA 110015Z 06004KT CAVOK 03/01 Q1028=
201201102350 METAR LIRA 110045Z 02006KT CAVOK 04/01 Q1028=
201201102345 METAR LIRA 102345Z 01004KT CAVOK 02/01 Q1028=
201201102315 METAR LIRA 102315Z 02002KT CAVOK 03/01 Q1028=
201201102245 METAR LIRA 102245Z 09003KT CAVOK 03/02 Q1028=
201201102215 METAR LIRA 102215Z 07003KT CAVOK 03/02 Q1028=
201201102145 METAR LIRA 102145Z 05005KT CAVOK 05/03 Q1028=
201201102115 METAR LIRA 102115Z 06002KT CAVOK 05/03 Q1027=
201201102045 METAR LIRA 102045Z 00000KT 9999 FEW060 05/03 Q1027=
201201102015 METAR LIRA 102015Z 02002KT 9999 FEW060 06/03 Q1027=
201201101945 METAR LIRA 101945Z 08003KT 9999 FEW060 07/03 Q1026=
201201101915 METAR LIRA 101915Z 05002KT 9999 FEW060 07/03 Q1026=
201201101845 METAR LIRA 101845Z 04003KT 9999 FEW040 08/03 Q1026=
201201101815 METAR LIRA 101815Z 02002KT 9999 FEW020 08/03 Q1026=
201201101745 METAR LIRA 101745Z 35002KT 9999 SCT070 09/03 Q1025=
201201101715 METAR LIRA 101715Z 32002KT 9999 SCT070 09/03 Q1025=
201201101645 METAR LIRA 101645Z 33001KT 9999 BKN080 09/03 Q1025=
201201101615 METAR LIRA 101615Z 34001KT 9999 SCT080 10/02 Q1025=
201201101545 METAR LIRA 101545Z 00000KT 9999 SCT080 11/02 Q1025=
201201101515 METAR LIRA 101515Z 01002KT 9999 SCT080 11/02 Q1025=
201201101445 METAR LIRA 101445Z 33004KT 9999 SCT080 12/04 Q1025=
201201101415 METAR LIRA 101415Z 33003KT 9999 FEW080 12/04 Q1025=
201201101345 METAR LIRA 101345Z 31004KT CAVOK 12/01 Q1025=
201201101315 METAR LIRA 101315Z 32004KT CAVOK 12/00 Q1026=
201201101245 METAR LIRA 101245Z 33007KT CAVOK 11/M01 Q1027=
201201101215 METAR LIRA 101215Z 36001KT CAVOK 11/M01 Q1027=
201201101145 METAR LIRA 101145Z 34001KT CAVOK 10/M01 Q1027=
201201101115 METAR LIRA 101115Z 05002KT CAVOK 09/00 Q1027=
201201101045 METAR LIRA 101045Z 36002KT CAVOK 08/00 Q1028=
201201101015 METAR LIRA 101015Z 01002KT CAVOK 07/M02 Q1028=
201201100945 METAR LIRA 100945Z 01003KT CAVOK 06/M03 Q1029=
201201100915 METAR LIRA 100915Z 02003KT CAVOK 05/M03 Q1029=
201201100845 METAR LIRA 100845Z 03001KT CAVOK 04/M01 Q1029=
201201100815 METAR LIRA 100815Z 02001KT CAVOK 02/M02 Q1028=
201201100745 METAR LIRA 100745Z 35001KT CAVOK 01/M03 Q1028=
201201100715 METAR LIRA 100715Z 12001KT CAVOK 00/M03 Q1028=
201201100645 METAR LIRA 100645Z 06003KT CAVOK M01/M03 Q1028=
201201100615 METAR LIRA 100615Z 06001KT CAVOK M01/M03 Q1028=
201201100545 METAR LIRA 100545Z 00000KT CAVOK M01/M03 Q1028=
201201100515 METAR LIRA 100515Z 00000KT CAVOK M01/M02 Q1028=
201201100445 METAR LIRA 100445Z 33001KT 9999 FEW080 M00/M02 Q1028=
201201100415 METAR LIRA 100415Z 06002KT CAVOK 00/M02 Q1028=
201201100345 METAR LIRA 100345Z 00000KT CAVOK 01/M02 Q1028=
201201100315 METAR LIRA 100315Z 00000KT CAVOK 01/M02 Q1028=
201201100245 METAR LIRA 100245Z 00000KT CAVOK 01/M02 Q1028=
201201100215 METAR LIRA 100215Z 09004KT CAVOK 02/M02 Q1028=
201201100145 METAR LIRA 100145Z 00000KT CAVOK 02/M03 Q1028=
201201100115 METAR LIRA 100115Z 02004KT 9999 FEW080 02/M03 Q1028=
201201100045 METAR LIRA 100045Z 06004KT 9999 FEW080 02/M03 Q1028=
201201100015 METAR LIRA 100015Z 08002KT 9999 FEW080 02/M03 Q1028=
201201092350 METAR LIRA 100045Z 06004KT 9999 FEW080 02/M03 Q1028=
201201092345 METAR LIRA 092345Z 11001KT 9999 FEW080 03/M03 Q1028=
201201092315 METAR LIRA 092315Z 08003KT CAVOK 03/M02 Q1028=
201201092245 METAR LIRA 092245Z 09002KT CAVOK 03/M02 Q1028=
201201092215 METAR LIRA 092215Z 04001KT CAVOK 03/M02 Q1027=
201201092145 METAR LIRA 092145Z 34003KT CAVOK 03/M01 Q1027=
201201092115 METAR LIRA 092115Z 30004KT CAVOK 03/M02 Q1026=
201201092045 METAR LIRA 092045Z 11001KT CAVOK 03/M02 Q1026=
201201092015 METAR LIRA 092015Z 00000KT CAVOK 04/M03 Q1026=
201201091945 METAR LIRA 091945Z 00000KT CAVOK 06/M02 Q1026=
201201091915 METAR LIRA 091915Z 04003KT CAVOK 06/M01 Q1026=
201201091845 METAR LIRA 091845Z 08003KT CAVOK 06/M02 Q1025=
201201091815 METAR LIRA 091815Z 02004KT CAVOK 07/M01 Q1025=
201201091745 METAR LIRA 091745Z 02002KT CAVOK 07/M01 Q1024=
201201091715 METAR LIRA 091715Z 07003KT CAVOK 07/M02 Q1024=
201201091645 METAR LIRA 091645Z 11002KT 9999 FEW023 07/M04 Q1024=
201201091615 METAR LIRA 091615Z 06001KT 9999 FEW023 10/M03 Q1023=
201201091545 METAR LIRA 091545Z 34002KT 9999 FEW023 11/M03 Q1023=
201201091515 METAR LIRA 091515Z 34006KT 9999 FEW023 12/M03 Q1023=
201201091445 METAR LIRA 091445Z 35006KT 9999 FEW023 12/M03 Q1023=
201201091415 METAR LIRA 091415Z 01008KT 320V040 9999 FEW023 13/M03 Q1022=
201201091345 METAR LIRA 091345Z 36011KT 330V040 9999 FEW023 13/M03 Q1022=
201201091315 METAR LIRA 091315Z 35011KT 320V040 9999 FEW023 13/M03 Q1022=
201201091245 METAR LIRA 091245Z 36010KT 9999 FEW023 12/M03 Q1022=
201201091215 METAR LIRA 091215Z 03007KT 9999 FEW023 12/M03 Q1022=
201201091145 METAR LIRA 091145Z 36006KT 320V040 9999 FEW023 11/M02 Q1023=
201201091115 METAR LIRA 091115Z 02007KT 9999 FEW023 10/M01 Q1023=
201201091045 METAR LIRA 091045Z 03004KT 010V100 9999 FEW023 09/01 Q1023=
201201091015 METAR LIRA 091015Z 01005KT 320V040 9999 FEW023 08/00 Q1023=
201201090945 METAR LIRA 090945Z 04007KT 360V080 9999 FEW023 06/M01 Q1022=
201201090915 METAR LIRA 090915Z 04006KT 350V060 9999 FEW023 06/M00 Q1022=
201201090845 METAR LIRA 090845Z 03006KT 9999 FEW023 05/00 Q1021=
201201090815 METAR LIRA 090815Z 02005KT 9999 FEW023 03/00 Q1021=
201201090745 METAR LIRA 090745Z 06007KT 9999 FEW023 02/M01 Q1020=
201201090715 METAR LIRA 090715Z 06005KT CAVOK 01/M01 Q1020=
201201090645 METAR LIRA 090645Z 02004KT CAVOK 01/M01 Q1020=
201201090615 METAR LIRA 090615Z 03003KT CAVOK 01/M01 Q1019=
201201090545 METAR LIRA 090545Z 05005KT CAVOK 01/M01 Q1018=
201201090515 METAR LIRA 090515Z 03005KT CAVOK 01/M00 Q1018=
201201090445 METAR LIRA 090445Z 05005KT CAVOK 02/01 Q1017=
201201090415 METAR LIRA 090415Z 05006KT CAVOK 02/01 Q1017=
201201090345 METAR LIRA 090345Z 36003KT CAVOK 03/01 Q1016=
201201090315 METAR LIRA 090315Z 03005KT CAVOK 03/01 Q1016=
201201090245 METAR LIRA 090245Z 06006KT CAVOK 03/02 Q1017=
201201090215 METAR LIRA 090215Z 06006KT CAVOK 03/02 Q1017=
201201090145 METAR LIRA 090145Z 06005KT 9999 FEW070 03/02 Q1017=
201201090115 METAR LIRA 090115Z 02004KT 9999 FEW070 04/03 Q1016=
201201090045 METAR LIRA 090045Z 03004KT 9999 FEW070 04/04 Q1016=
201201090015 METAR LIRA 090015Z 05003KT 9999 FEW070 04/04 Q1016=
201201082350 METAR LIRA 090045Z 03004KT 9999 FEW070 04/04 Q1016=
201201082345 METAR LIRA 082345Z 03001KT 9999 FEW070 04/04 Q1016=
201201082315 METAR LIRA 082315Z 02002KT 9999 FEW070 05/04 Q1016=
201201082245 METAR LIRA 082245Z 03004KT 9999 FEW070 06/05 Q1016=
201201082215 METAR LIRA 082215Z 02005KT 9999 FEW070 06/05 Q1016=
201201082145 METAR LIRA 082145Z 02004KT 9999 FEW030 07/06 Q1016=
201201082115 METAR LIRA 082115Z 04005KT 9999 FEW030 SCT070 08/07 Q1015=
201201082045 METAR LIRA 082045Z 05004KT 9999 FEW030 SCT060 09/07 Q1015=
201201082015 METAR LIRA 082015Z 36001KT 9999 SCT030 SCT060 09/07 Q1015=
201201081945 METAR LIRA 081945Z 05002KT 9999 SCT030 SCT060 09/07 Q1015=
201201081915 METAR LIRA 081915Z 04003KT 9999 FEW017 SCT030 09/07 Q1015=
201201081845 METAR LIRA 081845Z 03002KT 9999 FEW017 SCT030 09/07 Q1015=
201201081815 METAR LIRA 081815Z 00000KT 9999 FEW017 SCT070 09/07 Q1015=
201201081745 METAR LIRA 081745Z 00000KT 9999 FEW017 SCT070 09/07 Q1015=
201201081715 METAR LIRA 081715Z 08001KT 9999 FEW017 SCT070 10/07 Q1015=
201201081645 METAR LIRA 081645Z 12001KT 9999 FEW017 SCT080 10/07 Q1015=
201201081615 METAR LIRA 081615Z 00000KT 9999 FEW017 SCT080 11/07 Q1015=
201201081545 METAR LIRA 081545Z 00000KT 9999 FEW017 SCT080 12/08 Q1015=
201201081515 METAR LIRA 081515Z 28005KT 9999 FEW080 12/07 Q1015=
201201081445 METAR LIRA 081445Z 27007KT 230V300 9999 SCT080 12/07 Q1015=
201201081415 METAR LIRA 081415Z 28006KT 9999 FEW080 12/06 Q1015=
201201081345 METAR LIRA 081345Z 26003KT 9999 FEW080 12/05 Q1015=
201201081315 METAR LIRA 081315Z 34003KT 9999 FEW080 12/05 Q1015=
201201081245 METAR LIRA 081245Z 05003KT CAVOK 11/05 Q1015=
201201081215 METAR LIRA 081215Z 02004KT 340V070 CAVOK 11/05 Q1015=
201201081145 METAR LIRA 081145Z 02007KT CAVOK 11/04 Q1016=
201201081115 METAR LIRA 081115Z 35005KT CAVOK 10/04 Q1017=
201201081045 METAR LIRA 081045Z 35001KT CAVOK 08/03 Q1017=
201201081015 METAR LIRA 081015Z 30002KT CAVOK 08/03 Q1017=
201201081000 METAR LIRA CONTUS=
201201080945 METAR LIRA 080945Z 05003KT CAVOK 07/02 Q1017=
201201080915 METAR LIRA 080915Z 33004KT CAVOK 06/02 Q1017=
201201080900 METAR LIRA CONTUS=
201201080845 METAR LIRA 080845Z 04002KT 9999 FEW070 05/01 Q1017=
201201080815 METAR LIRA 080815Z 05002KT 9999 FEW017 03/M00 Q1017=
201201080800 METAR LIRA CONTUS=
201201080745 METAR LIRA 080745Z 03001KT 9999 FEW017 02/M01 Q1017=
201201080715 METAR LIRA 080715Z 00000KT 9999 FEW017 01/M01 Q1016=
201201080700 METAR LIRA INTER=
201201080645 METAR LIRA 080645Z 07003KT 9999 FEW017 01/M01 Q1016=
201201080615 METAR LIRA 080615Z 03002KT 9999 FEW017 SCT060 01/M01 Q1016=
201201080600 METAR LIRA INT=
201201080545 METAR LIRA 080545Z 05001KT 9999 FEW017 01/M01 Q1016=
201201080515 METAR LIRA 080515Z 33002KT 9999 FEW017 02/M01 Q1016=
201201080445 METAR LIRA 080445Z 04003KT CAVOK 03/M02 Q1016=
201201080415 METAR LIRA 080415Z 03004KT CAVOK 02/M02 Q1017=
201201080345 METAR LIRA 080345Z 05005KT CAVOK 02/M01 Q1017=
201201080315 METAR LIRA 080315Z 05005KT CAVOK 02/M01 Q1017=
201201080245 METAR LIRA 080245Z 05004KT CAVOK 02/M00 Q1017=
201201080215 METAR LIRA 080215Z 06004KT CAVOK 02/M01 Q1017=
201201080145 METAR LIRA 080145Z 05001KT CAVOK 02/M00 Q1017=
201201080115 METAR LIRA 080115Z 03002KT CAVOK 02/M00 Q1017=
201201080045 METAR LIRA 080045Z 05002KT CAVOK 03/M00 Q1017=
201201080015 METAR LIRA 080015Z 03001KT CAVOK 03/M00 Q1017=
201201072350 METAR LIRA 080045Z 05002KT CAVOK 03/M00 Q1017=
201201072345 METAR LIRA 072345Z 03001KT CAVOK 03/M01 Q1017=
201201072315 METAR LIRA 072315Z 04002KT CAVOK 03/M01 Q1018=
201201072245 METAR LIRA 072245Z 04001KT CAVOK 04/M02 Q1018=
201201072215 METAR LIRA 072215Z 05002KT CAVOK 04/M02 Q1018=
201201072145 METAR LIRA 072145Z 05002KT CAVOK 04/M02 Q1018=
201201072115 METAR LIRA 072115Z 04004KT CAVOK 05/M02 Q1018=
201201072045 METAR LIRA 072045Z 01001KT CAVOK 04/M03 Q1018=
201201072015 METAR LIRA 072015Z 05003KT CAVOK 05/M03 Q1018=
201201071945 METAR LIRA 071945Z 06004KT CAVOK 05/M03 Q1019=
201201071915 METAR LIRA 071915Z 07003KT CAVOK 06/M02 Q1019=
201201071845 METAR LIRA 071845Z 34001KT CAVOK 06/M02 Q1018=
201201071815 METAR LIRA 071815Z 06003KT CAVOK 06/M03 Q1018=
201201071745 METAR LIRA 071745Z 03001KT 9999 FEW080 08/M05 Q1018=
201201071715 METAR LIRA 071715Z 00000KT 9999 FEW080 08/M05 Q1018=
201201071645 METAR LIRA 071645Z 34001KT 9999 FEW080 09/M05 Q1018=
201201071615 METAR LIRA 071615Z 30001KT 9999 FEW080 10/M05 Q1018=
201201071545 METAR LIRA 071545Z 31004KT 9999 FEW070 11/M05 Q1017=
201201071515 METAR LIRA 071515Z 31003KT 9999 FEW070 12/M05 Q1017=
201201071445 METAR LIRA 071445Z 31006KT 9999 FEW070 12/M06 Q1017=
201201071415 METAR LIRA 071415Z 31006KT 9999 FEW070 12/M05 Q1017=
201201071345 METAR LIRA 071345Z 36004KT 9999 FEW070 12/M05 Q1017=
201201071315 METAR LIRA 071315Z 33006KT 290V360 CAVOK 13/M04 Q1017=
201201071245 METAR LIRA 071245Z 35007KT CAVOK 13/M04 Q1017=
201201071215 METAR LIRA 071215Z 35006KT 310V040 CAVOK 12/M04 Q1017=
201201071145 METAR LIRA 071145Z 35006KT 320V040 CAVOK 12/M03 Q1018=
201201071115 METAR LIRA 071115Z 35006KT 310V020 CAVOK 11/M03 Q1018=
201201071045 METAR LIRA 071045Z 35004KT CAVOK 10/M01 Q1018=
201201071015 METAR LIRA 071015Z 01004KT CAVOK 10/M01 Q1019=
201201070915 METAR LIRA 070915Z 08001KT CAVOK 08/M01 Q1018=
201201070845 METAR LIRA 070845Z 00000KT CAVOK 07/M01 Q1018=
201201070815 METAR LIRA 070815Z 18003KT CAVOK 05/M01 Q1017=
201201070745 METAR LIRA 070745Z 33002KT CAVOK 04/M02 Q1017=
201201070715 METAR LIRA 070715Z 06001KT CAVOK 02/M03 Q1017=
201201070645 METAR LIRA 070645Z 00000KT CAVOK 03/M03 Q1017=
201201070615 METAR LIRA 070615Z 01005KT CAVOK 03/M03 Q1016=
201201070545 METAR LIRA 070545Z 01005KT CAVOK 03/M04 Q1016=
201201070515 METAR LIRA 070515Z 02004KT CAVOK 04/M04 Q1016=
201201070445 METAR LIRA 070445Z 03006KT 360V060 CAVOK 04/M03 Q1016=
201201070415 METAR LIRA 070415Z 05004KT CAVOK 05/M03 Q1015=
201201070345 METAR LIRA 070345Z 34010KT CAVOK 06/M03 Q1015=
201201070315 METAR LIRA 070315Z 34011KT CAVOK 06/M04 Q1015=
201201070245 METAR LIRA 070245Z 32006KT CAVOK 05/M04 Q1014=
201201070215 METAR LIRA 070215Z 34006KT 310V010 CAVOK 06/M05 Q1013=
201201070145 METAR LIRA 070145Z 35004KT CAVOK 06/M05 Q1013=
201201070115 METAR LIRA 070115Z 01003KT CAVOK 06/M04 Q1013=
201201070045 METAR LIRA 070045Z 05003KT CAVOK 06/M05 Q1012=
201201070015 METAR LIRA 070015Z 34006KT 310V020 CAVOK 07/M05 Q1012=
201201062350 METAR LIRA 070045Z 05003KT CAVOK 06/M05 Q1012=
201201062345 METAR LIRA 062345Z 01007KT 330V060 CAVOK 07/M05 Q1011=
201201062315 METAR LIRA 062315Z 36014G25KT CAVOK 07/M06 Q1011=
201201062245 METAR LIRA 062245Z 35013KT 300V060 CAVOK 07/M06 Q1010=
201201062215 METAR LIRA 062215Z 34015KT CAVOK 07/M06 Q1010=
201201062145 METAR LIRA 062145Z 34016G26KT CAVOK 07/M06 Q1010=
201201062115 METAR LIRA 062115Z 35015KT 320V030 CAVOK 07/M05 Q1009=
201201062045 METAR LIRA 062045Z 34014KT CAVOK 07/M05 Q1009=
201201062015 METAR LIRA 062015Z 34010KT CAVOK 07/M05 Q1009=
201201061945 METAR LIRA 061945Z 33011KT CAVOK 07/M06 Q1009=
201201061915 METAR LIRA 061915Z 33011KT CAVOK 08/M06 Q1008=
201201061845 METAR LIRA 061845Z 33014KT CAVOK 08/M07 Q1007=
201201061815 METAR LIRA 061815Z 33015KT CAVOK 09/M06 Q1007=
201201061745 METAR LIRA 061745Z 34014G24KT CAVOK 09/M06 Q1006=
201201061715 METAR LIRA 061715Z 34013KT CAVOK 09/M06 Q1005=
201201061645 METAR LIRA 061645Z 34013KT 9999 FEW015 09/M08 Q1005=
201201061615 METAR LIRA 061615Z 34012KT 9999 FEW015 09/M07 Q1005=
201201061545 METAR LIRA 061545Z 34016G27KT 9999 FEW015 10/M07 Q1004=
201201061515 METAR LIRA 061515Z 34016KT 9999 FEW015 11/M06 Q1004=
201201061445 METAR LIRA 061445Z 34012KT 9999 FEW015 SCT070 11/M05 Q1003=
201201061415 METAR LIRA 061415Z 35019G29KT 9999 FEW015 SCT070 10/M06 Q1003=
201201061345 METAR LIRA 061345Z 33015KT 9999 FEW015 SCT070 11/M04 Q1002=
201201061315 METAR LIRA 061315Z 34017G27KT 310V020 9999 FEW015 SCT070
                        11/M01 Q1002=
201201061245 METAR LIRA 061245Z 35015G30KT 9999 FEW015 SCT070 10/M01 Q1001=
201201061215 METAR LIRA 061215Z 35015G30KT 9999 FEW015 SCT070 10/M01 Q1001=
201201061145 METAR LIRA 061145Z 34015G26KT 9999 FEW015 BKN070 10/01 Q1000=
201201061115 METAR LIRA 061115Z 34015KT 9999 FEW015 BKN070 10/01 Q1000=
201201061045 METAR LIRA 061045Z 32010G21KT 320V020 9999 FEW015 BKN070
                        10/01 Q1000=
201201061015 METAR LIRA 061015Z 36007KT 330V030 9999 FEW015 BKN070 10/02
                        Q1000=
201201060945 METAR LIRA 060945Z 01006KT 330V050 9999 FEW015 BKN070 09/01
                        Q1000=
201201060915 METAR LIRA 060915Z 35008KT 9999 FEW015 BKN080 09/03 Q1000=
201201060845 METAR LIRA 060845Z 35007KT 9999 FEW015 BKN080 08/04 Q0999=
201201060815 METAR LIRA 060815Z 03005KT 9999 FEW015 SCT080 07/04 Q0999=
201201060745 METAR LIRA 060745Z 03004KT 9999 FEW015 07/04 Q0998=
201201060715 METAR LIRA 060715Z 04004KT 9999 FEW015 06/04 Q0998=
201201060645 METAR LIRA 060645Z 05003KT 9999 FEW015 05/03 Q0997=
201201060615 METAR LIRA 060615Z 09005KT 9999 FEW015 06/03 Q0997=
201201060545 METAR LIRA 060545Z 04001KT 9999 FEW080 06/03 Q0997=
201201060515 METAR LIRA 060515Z 03004KT 9999 FEW070 07/03 Q0995=
201201060445 METAR LIRA 060445Z 34008KT 310V030 9999 FEW015 07/04 Q0995
                        RETS RERA=
201201060415 METAR LIRA 060415Z 35011KT 9999 FEW015 07/04 Q0994 RETS RERA=
201201060345 METAR LIRA 060345Z 34013KT 9999 TSRA FEW015CB SCT025 07/05
                        Q0994=
201201060315 METAR LIRA 060315Z 33016G26KT 9999 TSRA SCT015CB BKN030 07/05
                        Q0994=
201201060245 METAR LIRA 060245Z 32012KT 9999 TSRA FEW015CB BKN030 07/06
                        Q0994=
201201060215 METAR LIRA 060215Z 33016G26KT 7000 TSRA SCT015CB BKN030 09/08
                        Q0994=
201201060145 METAR LIRA 060145Z 34012G22KT 7000 TSRA SCT015CB BKN030 09/08
                        Q0994=
201201060115 METAR LIRA 060115Z 34006KT 9999 RA FEW016CB BKN070 10/09
                        Q0993=
201201060045 METAR LIRA 060045Z 16005KT 9999 RA FEW016CB BKN070 10/09
                        Q0993=
201201060015 METAR LIRA 060015Z 16006KT 9999 FEW016CB BKN070 10/09 Q0994=
201201052350 METAR LIRA 060045Z 16005KT 9999 RA FEW016CB BKN070 10/09
                        Q0993=
201201052345 METAR LIRA 052345Z 15003KT 9999 -RA FEW015 BKN070 10/10 Q0995=
201201052315 METAR LIRA 052315Z 11002KT 9999 -RA FEW015 BKN070 10/09 Q0995=
201201052245 METAR LIRA 052245Z 17002KT 9999 -RA FEW015 BKN070 10/09 Q0996=
201201052215 METAR LIRA 052215Z 16004KT 9999 FEW015 BKN080 10/09 Q0996=
201201052145 METAR LIRA 052145Z 07002KT 9999 FEW015 BKN080 10/09 Q0997=
201201052115 METAR LIRA 052115Z 15003KT 9999 FEW015 BKN070 10/09 Q0997=
201201052045 METAR LIRA 052045Z 17006KT 9999 FEW015 BKN070 11/09 Q0998=
201201052015 METAR LIRA 052015Z 17006KT 9999 FEW015 11/09 Q0998=
201201051945 METAR LIRA 051945Z 15008KT 9999 FEW015 11/09 Q0999=
201201051915 METAR LIRA 051915Z 16008KT 9999 FEW013 11/10 Q1000=
201201051845 METAR LIRA 051845Z 16008KT 9999 FEW013 SCT023 11/10 Q1000=
201201051815 METAR LIRA 051815Z 16011KT 9999 FEW013 SCT023 11/10 Q1001=
201201051745 METAR LIRA 051745Z 15012KT 9999 FEW013 SCT023 11/10 Q1002=
201201051715 METAR LIRA 051715Z 16009KT 9999 FEW013 SCT023 11/10 Q1002=
201201051645 METAR LIRA 051645Z 15011KT 9999 FEW013 SCT023 11/08 Q1003=
201201051615 METAR LIRA 051615Z 17011KT 9999 FEW013 BKN023 11/09 Q1004=
201201051545 METAR LIRA 051545Z 17007KT 9999 FEW015 BKN023 12/09 Q1005=
201201051515 METAR LIRA 051515Z 17008KT 9999 FEW016 BKN023 12/09 Q1006=
201201051445 METAR LIRA 051445Z 20006KT 9999 FEW016 BKN023 12/08 Q1007=
201201051415 METAR LIRA 051415Z 20012KT 170V250 9999 FEW016 BKN023 12/09
                        Q1008=
201201051345 METAR LIRA 051345Z 23008KT 210V280 9999 SCT016 BKN023 12/08
                        Q1009=
201201051315 METAR LIRA 051315Z 22005KT 9999 SCT016 BKN023 13/09 Q1009=
201201051245 METAR LIRA 051245Z 23005KT 9999 SCT016 SCT023 13/09 Q1010=
201201051215 METAR LIRA 051215Z 22008KT 9999 SCT016 SCT023 13/10 Q1010=
201201051145 METAR LIRA 051145Z 24004KT 9999 SCT015 SCT023 13/09 Q1011=
201201051115 METAR LIRA 051115Z 20006KT 9999 BKN022 13/09 Q1012=
201201051045 METAR LIRA 051045Z 23006KT 180V250 9999 BKN022 14/10 Q1013=
201201051015 METAR LIRA 051015Z 21003KT 9999 FEW035 SCT070 13/09 Q1013=
201201050945 METAR LIRA 050945Z 22002KT 9999 FEW035 11/10 Q1014=
201201050915 METAR LIRA 050915Z 24003KT 9999 FEW035 10/09 Q1014=
201201050845 METAR LIRA 050845Z 26003KT 9999 FEW035 09/07 Q1014=
201201050815 METAR LIRA 050815Z 00000KT 9999 FEW035 SCT070 08/07 Q1013=
201201050745 METAR LIRA 050745Z 10001KT 9999 FEW035 SCT070 08/07 Q1014=
201201050715 METAR LIRA 050715Z 02001KT 9999 FEW035 SCT070 08/07 Q1014=
201201050645 METAR LIRA 050645Z 09006KT 9999 FEW035 SCT070 08/07 Q1015=
201201050615 METAR LIRA 050615Z 05002KT 9999 FEW023 SCT070 08/07 Q1015=
201201050545 METAR LIRA 050545Z 07005KT 9999 FEW023 SCT070 08/07 Q1015=
201201050515 METAR LIRA 050515Z 03002KT 9999 FEW023 SCT070 08/07 Q1015=
201201050445 METAR LIRA 050445Z 36003KT 9999 FEW023 SCT070 08/08 Q1015=
201201050415 METAR LIRA 050415Z 00000KT 9999 FEW023 SCT070 08/08 Q1015=
201201050345 METAR LIRA 050345Z 32003KT 9999 FEW023 SCT070 09/08 Q1015=
201201050315 METAR LIRA 050315Z 09003KT 9999 FEW023 SCT070 09/08 Q1015=
201201050245 METAR LIRA 050245Z 34002KT 9999 FEW023 SCT070 10/08 Q1015=
201201050215 METAR LIRA 050215Z 33002KT 9999 FEW023 SCT070 10/08 Q1016=
201201050145 METAR LIRA 050145Z 06003KT 9999 SCT025 SCT070 10/09 Q1016=
201201050115 METAR LIRA 050115Z 05003KT 9999 SCT025 SCT070 11/08 Q1016=
201201050045 METAR LIRA 050045Z 02006KT 350V050 9999 SCT025 SCT070 11/09
                        Q1015=
201201050015 METAR LIRA 050015Z 01006KT 9999 SCT025 SCT070 11/09 Q1015=
201201042350 METAR LIRA 050045Z 02006KT 350V050 9999 SCT025 SCT070 11/09
                        Q1015=
201201042345 METAR LIRA 042345Z 01003KT 9999 SCT025 SCT070 11/09 Q1015=
201201042315 METAR LIRA 042315Z 06003KT 9999 FEW025 11/09 Q1014=
201201042245 METAR LIRA 042245Z 11006KT 9999 FEW025 11/09 Q1014=
201201042215 METAR LIRA 042215Z 06005KT 9999 FEW028 SCT070 11/09 Q1014=
201201042145 METAR LIRA 042145Z 10005KT 030V120 9999 FEW028 SCT070 11/09
                        Q1015=
201201042115 METAR LIRA 042115Z 00000KT 9999 FEW028 SCT070 11/09 Q1015=
201201042045 METAR LIRA 042045Z 09003KT 9999 FEW028 SCT070 11/09 Q1015=
201201042015 METAR LIRA 042015Z 00000KT 9999 FEW015 SCT028 11/09 Q1015=
201201041945 METAR LIRA 041945Z 11009KT 9999 FEW015 SCT028 11/09 Q1015=
201201041915 METAR LIRA 041915Z 11011KT 9999 FEW015 SCT028 11/09 Q1015=
201201041845 METAR LIRA 041845Z 11009KT 9999 FEW015 SCT028 11/10 Q1015=
201201041815 METAR LIRA 041815Z 08002KT 9999 SCT015 SCT028 12/11 Q1015=
201201041745 METAR LIRA 041745Z 13009KT 8000 SCT015 SCT028 12/12 Q1015=
201201041715 METAR LIRA 041715Z 14008KT 8000 -RA SCT012 BKN025 12/11 Q1015=
201201041645 METAR LIRA 041645Z 14008KT 6000 -RA SCT012 BKN023 11/11 Q1015=
201201041615 METAR LIRA 041615Z 14007KT 7000 -RA SCT012 BKN023 11/11 Q1015=
201201041545 METAR LIRA 041545Z 16008KT 4000 -RA BR SCT012 BKN023 12/11
                        Q1016=
201201041515 METAR LIRA 041515Z 17006KT 9999 -RA SCT015 BKN025 13/10 Q1016=
201201041445 METAR LIRA 041445Z 17007KT 9999 SCT016 FEW020TCU SCT025 13/10
                        Q1016=
201201041415 METAR LIRA 041415Z 18006KT 150V220 9999 SCT016 FEW020TCU
                        SCT025 13/10 Q1017=
201201041345 METAR LIRA 041345Z 22004KT 9999 SCT016 FEW020TCU SCT025 14/10
                        Q1017=
201201041315 METAR LIRA 041315Z 19006KT 170V240 9999 SCT016 FEW020TCU
                        14/10 Q1018=
201201041245 METAR LIRA 041245Z 21009KT 200V270 9999 SCT016 FEW020TCU
                        14/10 Q1018=
201201041215 METAR LIRA 041215Z 23008KT 200V270 9999 FEW015 FEW020CB SCT025
                        14/10 Q1019=
201201041145 METAR LIRA 041145Z 23006KT 9999 SCT015 FEW020CB SCT025 14/11
                        Q1019=
201201041115 METAR LIRA 041115Z 23009KT 9999 SCT015 FEW020TCU SCT025 15/11
                        Q1020=
201201041045 METAR LIRA 041045Z 19008KT 9000 FEW015 FEW020TCU SCT025 15/12
                        Q1020=
201201041015 METAR LIRA 041015Z 18007KT 8000 FEW016 FEW020TCU SCT025 13/11
                        Q1021=
201201040945 METAR LIRA 040945Z 18003KT 7000 SCT016 SCT025 13/12 Q1021=
201201040915 METAR LIRA 040915Z 23001KT 8000 FEW018 SCT025 12/11 Q1022=
201201040845 METAR LIRA 040845Z 00000KT 8000 FEW020 SCT035 12/11 Q1022=
201201040815 METAR LIRA 040815Z 00000KT 9999 FEW020 BKN035 12/11 Q1022=
201201040745 METAR LIRA 040745Z 00000KT 9999 FEW020 BKN035 11/10 Q1022=
201201040715 METAR LIRA 040715Z 16001KT 9999 FEW020 BKN035 10/10 Q1022=
201201040645 METAR LIRA 040645Z 15002KT 9999 FEW020 OVC027 10/09 Q1022=
201201040615 METAR LIRA 040615Z 16001KT 9999 FEW020 OVC027 10/09 Q1022=
201201040545 METAR LIRA 040545Z 22001KT 9999 FEW018 SCT035 09/08 Q1022=
201201040515 METAR LIRA 040515Z 13001KT 9999 FEW022 SCT040 10/09 Q1022=
201201040445 METAR LIRA 040445Z 12002KT 9999 BKN070 09/08 Q1023=
201201040415 METAR LIRA 040415Z 09001KT 9999 BKN070 09/08 Q1023=
201201040345 METAR LIRA 040345Z 10002KT 9999 BKN070 08/07 Q1023=
201201040315 METAR LIRA 040315Z 00000KT 9999 BKN070 07/07 Q1023=
201201040245 METAR LIRA 040245Z 00000KT 9999 BKN070 08/07 Q1023=
201201040215 METAR LIRA 040215Z 28001KT 9999 BKN070 08/07 Q1023=
201201040145 METAR LIRA 040145Z 12002KT 9999 BKN070 08/07 Q1023=
201201040115 METAR LIRA 040115Z 00000KT 9999 BKN070 09/08 Q1023=
201201040045 METAR LIRA 040045Z 31003KT 9999 BKN070 08/07 Q1023=
201201040015 METAR LIRA 040015Z 10001KT 9999 BKN070 08/08 Q1023=
201201032350 METAR LIRA 040045Z 31003KT 9999 BKN070 08/07 Q1023=
201201032345 METAR LIRA 032345Z 10003KT 9999 BKN070 08/07 Q1024=
201201032315 METAR LIRA 032315Z 09001KT 9999 FEW070 08/07 Q1024=
201201032245 METAR LIRA 032245Z 14002KT 9999 FEW070 08/07 Q1024=
201201032215 METAR LIRA 032215Z 11002KT 9999 FEW070 08/08 Q1024=
201201032145 METAR LIRA 032145Z 06002KT 9999 FEW070 09/08 Q1024=
201201032115 METAR LIRA 032115Z 00000KT 9999 FEW070 10/09 Q1024=
201201032045 METAR LIRA 032045Z 04001KT 9999 FEW070 10/08 Q1024=
201201032015 METAR LIRA 032015Z 05003KT 9999 FEW070 11/08 Q1024=
201201031945 METAR LIRA 031945Z 07001KT 9999 FEW030 11/09 Q1024=
201201031915 METAR LIRA 031915Z 07002KT 9999 FEW015 BKN025 12/10 Q1024=
201201031845 METAR LIRA 031845Z 08002KT 9999 FEW015 BKN025 12/10 Q1024=
201201031815 METAR LIRA 031815Z 09002KT 9999 FEW015 BKN025 12/11 Q1023=
201201031745 METAR LIRA 031745Z 09001KT 9999 FEW015 BKN025 12/11 Q1023=
201201031715 METAR LIRA 031715Z 11002KT 9999 FEW015 BKN025 12/11 Q1022=
201201031645 METAR LIRA 031645Z 00000KT 9999 FEW015 SCT025 13/11 Q1022=
201201031615 METAR LIRA 031615Z 00000KT 9999 SCT015 BKN025 13/11 Q1021=
201201031545 METAR LIRA 031545Z 00000KT 9999 FEW015TCU BKN025 13/10 Q1021=
201201031515 METAR LIRA 031515Z 32002KT 9999 FEW015TCU SCT025 13/10 Q1021=
201201031445 METAR LIRA 031445Z 35002KT 9999 FEW015TCU SCT025 13/10 Q1021=
201201031415 METAR LIRA 031415Z 34004KT 9999 FEW015TCU SCT025 14/11 Q1020=
201201031345 METAR LIRA 031345Z 34002KT 9999 FEW015TCU SCT025 14/11 Q1020=
201201031315 METAR LIRA 031315Z 28001KT 9999 FEW015TCU SCT025 13/10 Q1020=
201201031245 METAR LIRA 031245Z 27001KT 9999 FEW016 SCT025 13/11 Q1020=
201201031215 METAR LIRA 031215Z 06005KT 9999 FEW016 SCT030 13/11 Q1020=
201201031145 METAR LIRA 031145Z 36004KT 9999 FEW016 SCT030 13/11 Q1020=
201201031115 METAR LIRA 031115Z 29005KT 9999 FEW016 SCT030 13/12 Q1020=
201201031045 METAR LIRA 031045Z 20002KT 9999 FEW016 SCT025 13/12 Q1020=
201201031015 METAR LIRA 031015Z 26002KT 9999 FEW016 SCT030 12/11 Q1020=
201201030945 METAR LIRA 030945Z 13001KT 9999 FEW016 SCT030 11/11 Q1020=
201201030915 METAR LIRA 030915Z 35001KT 9999 FEW016 SCT040 11/10 Q1019=
201201030845 METAR LIRA 030845Z 36001KT 9999 FEW016 SCT040 11/10 Q1019=
201201030815 METAR LIRA 030815Z 05002KT 9999 FEW016 SCT040 10/09 Q1018=
201201030745 METAR LIRA 030745Z 05002KT 9999 FEW016 SCT025 10/09 Q1018=
201201030715 METAR LIRA 030715Z 08005KT 9999 FEW016 SCT025 10/09 Q1018=
201201030645 METAR LIRA 030645Z 01001KT 9999 FEW018 SCT030 10/09 Q1017=
201201030615 METAR LIRA 030615Z 15002KT 9999 -RA FEW018 SCT030 10/09 Q1017=
201201030545 METAR LIRA 030545Z 13001KT 9999 -RA FEW016 FEW018TCU SCT025
                        10/09 Q1017=
201201030515 METAR LIRA 030515Z 12001KT 9999 -RA FEW016 FEW018TCU SCT025
                        10/09 Q1017=
201201030445 METAR LIRA 030445Z 34002KT 9999 -RA FEW016 FEW018TCU SCT025
                        11/10 Q1017=
201201030415 METAR LIRA 030415Z 12002KT 9999 -RA FEW016 FEW018TCU SCT025
                        11/10 Q1017=
201201030345 METAR LIRA 030345Z 05002KT 7000 -RA SCT013 FEW015CB SCT025
                        11/10 Q1017 RETS=
201201030315 METAR LIRA 030315Z 12006KT 8000 -RA SCT013 FEW015CB SCT025
                        11/10 Q1017 RETS=
201201030245 METAR LIRA 030245Z 13003KT 5000 -TSRA BR SCT013 FEW015CB
                        SCT025 11/10 Q1017=
201201030215 METAR LIRA 030215Z 26004KT 4000 TSRA BR FEW013 SCT015CB 12/11
                        Q1017=
201201030145 METAR LIRA 030145Z 18009KT 160V220 7000 -TSRA SCT013 FEW015CB
                        BKN025 13/12 Q1017=
201201030115 METAR LIRA 030115Z 16011KT 7000 -TSRA SCT013 FEW020CB BKN025
                        13/12 Q1017=
201201030045 METAR LIRA 030045Z 17012KT 9999 -DZ SCT013 FEW020TCU BKN025
                        13/13 Q1017=
201201030015 METAR LIRA 030015Z 16014KT 9999 -DZ SCT013 FEW020TCU BKN025
                        13/13 Q1017=
201201022350 METAR LIRA 030045Z 17012KT 9999 -DZ SCT013 FEW020TCU BKN025
                        13/13 Q1017=
201201022345 METAR LIRA 022345Z 16012KT 9999 -DZ SCT013 FEW020TCU BKN025
                        13/13 Q1018=
201201022315 METAR LIRA 022315Z 17012KT 9999 -DZ SCT013 FEW020TCU BKN025
                        14/13 Q1018=
201201022245 METAR LIRA 022245Z 16012KT 9999 -DZ SCT013 FEW020TCU BKN025
                        14/13 Q1019=
201201022215 METAR LIRA 022215Z 16011KT 9999 -DZ SCT013 BKN025 14/13 Q1019=
201201022145 METAR LIRA 022145Z 15012KT 9999 -DZ SCT013 BKN025 14/13 Q1019=
201201022115 METAR LIRA 022115Z 15014KT 9999 SCT013 BKN025 14/13 Q1019=
201201022045 METAR LIRA 022045Z 15014KT 9999 SCT012 BKN027 14/13 Q1019=
201201022015 METAR LIRA 022015Z 15013KT 9999 SCT012 BKN027 14/13 Q1020=
201201021945 METAR LIRA 021945Z 16012KT 9999 SCT013 BKN027 14/13 Q1020=
201201021915 METAR LIRA 021915Z 16012KT 130V200 9999 SCT013 BKN030 14/13
                        Q1020=
201201021845 METAR LIRA 021845Z 15012KT 9999 SCT013 BKN030 14/13 Q1020=
201201021815 METAR LIRA 021815Z 15012KT 9999 FEW015 BKN030 14/12 Q1020=
201201021745 METAR LIRA 021745Z 16010KT 9999 FEW015 BKN030 14/13 Q1021=
201201021715 METAR LIRA 021715Z 16009KT 9999 FEW015 BKN030 14/13 Q1020=
201201021645 METAR LIRA 021645Z 16008KT 9999 FEW015 SCT030 13/12 Q1021=
201201021615 METAR LIRA 021615Z 16009KT 9999 FEW015 SCT030 14/11 Q1021=
201201021545 METAR LIRA 021545Z 16009KT 9999 FEW015 SCT030 14/12 Q1021=
201201021515 METAR LIRA 021515Z 17007KT 9999 FEW015 BKN030 14/12 Q1021=
201201021445 METAR LIRA 021445Z 16006KT 9999 FEW010 FEW014TCU BKN030 15/13
                        Q1021=
201201021415 METAR LIRA 021415Z 17006KT 9999 FEW010 FEW014TCU BKN030 15/13
                        Q1022=
201201021345 METAR LIRA 021345Z 13004KT 9999 FEW010 FEW014TCU BKN030 14/12
                        Q1022=
201201021315 METAR LIRA 021315Z 13004KT 9999 FEW010 FEW014TCU BKN030 14/12
                        Q1022=
201201021245 METAR LIRA 021245Z 16006KT 9999 FEW010 BKN030 15/13 Q1022=
201201021215 METAR LIRA 021215Z 17006KT 9999 FEW010 BKN030 15/13 Q1022=
201201021145 METAR LIRA 021145Z 18007KT 9999 FEW010 BKN030 15/13 Q1023=
201201021115 METAR LIRA 021115Z 17006KT 9999 FEW010 BKN030 15/13 Q1023=
201201021045 METAR LIRA 021045Z 17007KT 9999 FEW010 BKN030 14/13 Q1023=
201201021015 METAR LIRA 021015Z 17006KT 9999 FEW010 BKN020 14/12 Q1024=
201201020945 METAR LIRA 020945Z 17007KT 8000 -DZ FEW010 BKN020 13/12 Q1024=
201201020915 METAR LIRA 020915Z 18008KT 150V230 8000 -DZ FEW010 BKN020
                        13/13 Q1024=
201201020845 METAR LIRA 020845Z 19009KT 8000 -DZ FEW010 BKN020 13/13 Q1024=
201201020815 METAR LIRA 020815Z 16010KT 8000 FEW010 BKN025 13/12 Q1023=
201201020745 METAR LIRA 020745Z 16009KT 8000 FEW010 BKN020 13/12 Q1023=
201201020715 METAR LIRA 020715Z 16009KT 8000 -DZ FEW014 BKN025 13/12 Q1023=
201201020645 METAR LIRA 020645Z 15009KT 8000 -DZ FEW014 BKN020 12/11 Q1023=
201201020615 METAR LIRA 020615Z 15008KT 8000 DZ FEW014 BKN020 13/12 Q1023=
201201020545 METAR LIRA 020545Z 16011KT 8000 DZ FEW014 BKN020 13/12 Q1023=
201201020515 METAR LIRA 020515Z 16011KT 9999 -DZ FEW015 BKN025 13/11 Q1023=
201201020445 METAR LIRA 020445Z 15012KT 9999 -DZ FEW015 BKN025 13/12 Q1023=
201201020415 METAR LIRA 020415Z 19001KT 9999 FEW015 BKN025 12/11 Q1023=
201201020345 METAR LIRA 020345Z 16005KT 9999 FEW015 BKN025 13/12 Q1023=
201201020315 METAR LIRA 020315Z 14005KT 9999 -DZ FEW015 BKN025 12/12 Q1023=
201201020245 METAR LIRA 020245Z 14004KT 9999 -DZ FEW015 BKN025 09/08 Q1023=
201201020215 METAR LIRA 020215Z 00000KT 8000 FEW015 BKN030 09/07 Q1024=
201201020145 METAR LIRA 020145Z 11002KT 7000 -DZ SCT010 BKN025 08/06 Q1024=
201201020115 METAR LIRA 020115Z 08001KT 7000 FEW010 BKN030 08/06 Q1024=
201201020045 METAR LIRA 020045Z 07001KT 6000 SCT010 BKN025 09/06 Q1024=
201201020015 METAR LIRA 020015Z 06002KT 6000 SCT010 BKN025 09/07 Q1024=
201201012350 METAR LIRA 020045Z 07001KT 6000 SCT010 BKN025 09/06 Q1024=
201201012345 METAR LIRA 012345Z 33002KT 6000 SCT010 BKN025 09/07 Q1024=
201201012315 METAR LIRA 012315Z 27002KT 6000 FEW010 BKN030 09/07 Q1024=
201201012245 METAR LIRA 012245Z 08003KT 6000 FEW010 BKN030 09/07 Q1024=
201201012215 METAR LIRA 012215Z 04003KT 5000 BR SCT008 BKN025 09/07 Q1025=
201201012145 METAR LIRA 012145Z 00000KT 5000 BR SCT008 BKN025 09/07 Q1025=
201201012115 METAR LIRA 012115Z 00000KT 5000 BR SCT008 BKN025 09/07 Q1025=
201201012045 METAR LIRA 012045Z 02001KT 5000 BR SCT008 BKN025 09/06 Q1025=
201201012015 METAR LIRA 012015Z 05001KT 5000 BR SCT009 BKN025 09/05 Q1025=
201201011945 METAR LIRA 011945Z 03001KT 6000 SCT009 BKN025 09/05 Q1024=
201201011915 METAR LIRA 011915Z 05003KT 7000 FEW009 BKN025 09/05 Q1024=
201201011845 METAR LIRA 011845Z 01001KT 6000 SCT009 BKN025 09/05 Q1024=
201201011815 METAR LIRA 011815Z 24002KT 6000 SCT009 BKN024 10/05 Q1024=
201201011745 METAR LIRA 011745Z 24001KT 7000 SCT009 BKN024 10/05 Q1024=
201201011715 METAR LIRA 011715Z 03002KT 7000 SCT010 BKN025 10/05 Q1023=
201201011645 METAR LIRA 011645Z 05002KT 7000 SCT025 SCT060 09/04 Q1023=
201201011615 METAR LIRA 011615Z 05001KT 7000 SCT025 SCT060 09/04 Q1023=
201201011545 METAR LIRA 011545Z 06002KT 9999 SCT030 SCT060 09/04 Q1023=
201201011515 METAR LIRA 011515Z 30001KT 9999 SCT030 SCT060 10/03 Q1023=
201201011445 METAR LIRA 011445Z 03001KT 9999 SCT030 SCT060 10/03 Q1023=
201201011415 METAR LIRA 011415Z 05001KT 9999 SCT030 SCT060 10/03 Q1022=
201201011345 METAR LIRA 011345Z 05001KT 9999 SCT030 SCT060 10/03 Q1022=
201201011315 METAR LIRA 011315Z 05001KT 9999 SCT035 SCT060 09/02 Q1022=
201201011245 METAR LIRA 011245Z 00000KT 9999 SCT035 SCT060 08/01 Q1022=
201201011215 METAR LIRA 011215Z 36002KT 9999 SCT035 SCT060 08/01 Q1022=
201201011145 METAR LIRA 011145Z 36003KT 9999 SCT035 SCT060 07/01 Q1022=
201201011115 METAR LIRA 011115Z 04001KT 9999 SCT035 SCT060 07/01 Q1023=
201201011045 METAR LIRA 011045Z 36001KT 9999 SCT035 SCT060 06/00 Q1023=
201201011015 METAR LIRA 011015Z 36002KT 9999 SCT035 SCT060 06/00 Q1023=
201201010945 METAR LIRA 010945Z 02003KT 9999 SCT035 SCT060 05/M00 Q1023=
201201010915 METAR LIRA 010915Z 08002KT 9999 FEW003 SCT035 04/00 Q1023=
201201010845 METAR LIRA 010845Z 03002KT 9999 SCT035 SCT060 03/M01 Q1023=
201201010815 METAR LIRA 010815Z 06004KT 9999 SCT035 SCT060 02/M01 Q1022=
201201010745 METAR LIRA 010745Z 36002KT 9999 SCT060 SCT200 01/M01 Q1022=
201201010715 METAR LIRA 010715Z 00000KT 9999 FEW020 SCT060 01/M01 Q1021=
201201010700 METAR LIRA CONTUS CB SE=
201201010645 METAR LIRA 010645Z 35002KT 9999 FEW020 SCT070 01/M02 Q1021=
201201010615 METAR LIRA 010615Z 06003KT 9999 FEW020 SCT070 00/M02 Q1020=
201201010545 METAR LIRA 010545Z 05002KT 9999 FEW070 00/M02 Q1020=
201201010515 METAR LIRA 010515Z 06005KT 9999 FEW070 00/M02 Q1019=
201201010445 METAR LIRA 010445Z 05001KT CAVOK M00/M03 Q1019=
201201010415 METAR LIRA 010415Z 03001KT CAVOK M00/M03 Q1019=
201201010400 METAR LIRA INTER LOW CLDS OVHD=
201201010345 METAR LIRA 010345Z 12001KT CAVOK 01/M01 Q1019=
201201010315 METAR LIRA 010315Z 00000KT CAVOK 01/M01 Q1018=
201201010245 METAR LIRA 010245Z 03001KT CAVOK 01/M00 Q1018=
201201010215 METAR LIRA 010215Z 04001KT CAVOK 01/M00 Q1018=
201201010145 METAR LIRA 010145Z 03001KT CAVOK 01/M00 Q1018=
201201010115 METAR LIRA 010115Z 04002KT CAVOK 01/M01 Q1018=
201201010045 METAR LIRA 010045Z 02002KT CAVOK 02/M01 Q1018=
201201010015 METAR LIRA 010015Z 35002KT CAVOK 03/M00 Q1018=
201201010000 METAR LIRA INTER CB NW LOW CLOUDS MVNG S=

</pre>

</body>
</html>
