##########################################################
# Query made at 11/10/2014 14:43:27 UTC
# Time interval: from 01/01/2009 00:00  to 01/31/2009 23:59  UTC
##########################################################

##########################################################
# LIRA, Roma / Ciampino (Italy)
# WMO index: 16239
# Latitude 41-47N. Longitude 012-35E. Altitude 129 m.
##########################################################

###################################
#  METAR/SPECI from LIRA
###################################
200901312345 METAR LIRA 312345Z 12007KT 100V160 9999 FEW030 SCT070 09/05
                        Q1008=
200901312315 METAR LIRA 312315Z 12009KT 9999 SCT030 SCT060 09/05 Q1008=
200901312245 METAR LIRA 312245Z 14009KT 9999 SCT030 SCT060 09/06 Q1009=
200901312215 METAR LIRA 312215Z 12006KT 090V160 9999 SCT030 SCT060 07/04
                        Q1009=
200901312145 METAR LIRA 312145Z 03002KT 9999 SCT030 SCT060 07/04 Q1009=
200901312115 METAR LIRA 312115Z 01001KT 9999 FEW025 SCT060 08/04 Q1009=
200901312045 METAR LIRA 312045Z 00000KT 9999 SCT060 08/03 Q1009=
200901312015 METAR LIRA 312015Z 06002KT 030V110 9999 FEW030 SCT060 08/04
                        Q1010=
200901311945 METAR LIRA 311945Z 14006KT 9999 FEW030 SCT060 08/03 Q1010=
200901311915 METAR LIRA 311915Z 14008KT 9999 FEW030 SCT060 09/04 Q1010=
200901311845 METAR LIRA 311845Z 16007KT 120V190 9999 FEW030 SCT060 09/04
                        Q1010=
200901311815 METAR LIRA 311815Z 14007KT 9999 FEW030 SCT060 09/04 Q1010=
200901311745 METAR LIRA 311745Z 14007KT 100V160 9999 FEW030 SCT060 09/04
                        Q1010=
200901311715 METAR LIRA 311715Z 13005KT 110V170 9999 FEW020 SCT060 08/03
                        Q1010=
200901311645 METAR LIRA 311645Z 15004KT 9999 FEW018 10/04 Q1010=
200901311615 METAR LIRA 311615Z 16005KT 9999 FEW018 10/04 Q1010=
200901311545 METAR LIRA 311545Z 16007KT 9999 SCT018 FEW022TCU 10/03 Q1010=
200901311515 METAR LIRA 311515Z 18003KT 9999 SCT018 FEW022TCU 11/04 Q1010=
200901311445 METAR LIRA 311445Z 18009KT 130V230 9999 SCT018 FEW022TCU
                        SCT025 12/04 Q1010=
200901311415 METAR LIRA 311415Z 17004KT 120V240 9999 SCT018 FEW022TCU
                        SCT025 12/04 Q1010=
200901311345 METAR LIRA 311345Z 18008KT 160V240 9999 SCT018 FEW022TCU
                        12/04 Q1010=
200901311315 METAR LIRA 311315Z 19002KT 9999 SCT018 11/04 Q1010=
200901311245 METAR LIRA 311245Z 01001KT 9999 FEW018 11/04 Q1011=
200901311215 METAR LIRA 311215Z 35001KT 9999 FEW018 10/03 Q1011=
200901311145 METAR LIRA 311145Z 35002KT 9999 FEW018 10/02 Q1011=
200901311115 METAR LIRA 311115Z 36003KT 9999 FEW018 09/02 Q1012=
200901311045 METAR LIRA 311045Z 02003KT 9999 FEW018 08/03 Q1012=
200901311015 METAR LIRA 311015Z 35003KT 9999 FEW018 08/03 Q1012=
200901310945 METAR LIRA 310945Z 04004KT 9999 FEW018 06/01 Q1012=
200901310915 METAR LIRA 310915Z 03004KT 320V070 9999 FEW018 05/01 Q1012=
200901310845 METAR LIRA 310845Z 02005KT 9999 FEW018 04/01 Q1012=
200901310815 METAR LIRA 310815Z 03004KT 9999 FEW018 03/01 Q1012=
200901310745 METAR LIRA 310745Z 03003KT 350V060 9999 FEW018 01/M00 Q1012=
200901310715 METAR LIRA 310715Z 02004KT 9999 FEW018 01/M01 Q1012=
200901310645 METAR LIRA 310645Z 03003KT 9999 FEW018 01/M01 Q1012=
200901310615 METAR LIRA 310615Z 04004KT 9999 FEW018 00/M01 Q1012=
200901310545 METAR LIRA 310545Z 03003KT CAVOK 00/M01 Q1012=
200901310515 METAR LIRA 310515Z 05003KT CAVOK 00/M01 Q1012=
200901310445 METAR LIRA 310445Z 05003KT CAVOK 01/M01 Q1012=
200901310415 METAR LIRA 310415Z 04003KT CAVOK 01/M00 Q1012=
200901310345 METAR LIRA 310345Z 04002KT CAVOK 01/M00 Q1012=
200901310315 METAR LIRA 310315Z 36002KT CAVOK 02/00 Q1012=
200901310245 METAR LIRA 310245Z 05003KT CAVOK 02/M00 Q1012=
200901310215 METAR LIRA 310215Z 07003KT CAVOK 02/00 Q1012=
200901310145 METAR LIRA 310145Z 05004KT CAVOK 03/01 Q1013=
200901310115 METAR LIRA 310115Z 04003KT CAVOK 03/01 Q1012=
200901310045 METAR LIRA 310045Z 05004KT CAVOK 03/01 Q1012=
200901310015 METAR LIRA 310015Z 05006KT CAVOK 03/01 Q1012=
200901302345 METAR LIRA 302345Z 03006KT 330V060 CAVOK 03/01 Q1013=
200901302315 METAR LIRA 302315Z 02005KT 350V090 CAVOK 03/01 Q1013=
200901302245 METAR LIRA 302245Z 05006KT CAVOK 04/01 Q1013=
200901302215 METAR LIRA 302215Z 05005KT 340V100 CAVOK 05/02 Q1013=
200901302145 METAR LIRA 302145Z 03004KT CAVOK 05/02 Q1013=
200901302115 METAR LIRA 302115Z 05004KT CAVOK 05/02 Q1013=
200901302045 METAR LIRA 302045Z 03004KT CAVOK 05/02 Q1013=
200901302015 METAR LIRA 302015Z 03004KT CAVOK 06/02 Q1013=
200901301945 METAR LIRA 301945Z 28002KT CAVOK 07/02 Q1013=
200901301915 METAR LIRA 301915Z 01004KT CAVOK 07/02 Q1013=
200901301845 METAR LIRA 301845Z 03003KT CAVOK 07/01 Q1013=
200901301815 METAR LIRA 301815Z 32003KT CAVOK 08/02 Q1012=
200901301745 METAR LIRA 301745Z 30004KT CAVOK 09/01 Q1012=
200901301715 METAR LIRA 301715Z 34002KT CAVOK 10/M00 Q1012=
200901301645 METAR LIRA 301645Z 33006KT 9999 FEW070 12/M00 Q1012=
200901301615 METAR LIRA 301615Z 32004KT 9999 FEW025 12/M02 Q1012=
200901301545 METAR LIRA 301545Z 33005KT 9999 FEW025 12/00 Q1012=
200901301515 METAR LIRA 301515Z 32003KT 9999 FEW025 12/M01 Q1012=
200901301445 METAR LIRA 301445Z 31002KT 9999 FEW020 12/M01 Q1012=
200901301415 METAR LIRA 301415Z 32003KT 9999 FEW020 12/00 Q1012=
200901301345 METAR LIRA 301345Z 34004KT 9999 FEW020 12/01 Q1012=
200901301315 METAR LIRA 301315Z 01005KT 9999 FEW021 12/01 Q1012=
200901301245 METAR LIRA 301245Z 31006KT 270V350 9999 FEW021 11/01 Q1012=
200901301215 METAR LIRA 301215Z 34004KT 300V030 9999 FEW021 11/01 Q1013=
200901301145 METAR LIRA 301145Z 34006KT 310V040 9999 FEW021 10/01 Q1013=
200901301115 METAR LIRA 301115Z 32004KT 9999 FEW021 09/03 Q1014=
200901301045 METAR LIRA 301045Z 35005KT 9999 FEW021 09/03 Q1014=
200901301015 METAR LIRA 301015Z 01004KT 330V060 9999 FEW030 08/04 Q1014=
200901300945 METAR LIRA 300945Z 01005KT 340V050 9999 FEW030 07/03 Q1014=
200901300915 METAR LIRA 300915Z 01004KT 9999 FEW030 SCT070 06/02 Q1014=
200901300845 METAR LIRA 300845Z 02006KT 330V060 9999 FEW030 SCT070 05/02
                        Q1013=
200901300815 METAR LIRA 300815Z 02005KT 9999 FEW030 SCT070 05/02 Q1013=
200901300745 METAR LIRA 300745Z 03004KT 9999 FEW030 SCT070 04/02 Q1013=
200901300715 METAR LIRA 300715Z 03004KT 350V070 9999 FEW030 SCT070 04/02
                        Q1012=
200901300645 METAR LIRA 300645Z 04005KT 9999 FEW030 SCT070 03/01 Q1012=
200901300615 METAR LIRA 300615Z 04004KT 9999 FEW030 SCT070 03/01 Q1012=
200901300545 METAR LIRA 300545Z 04004KT 9999 FEW030 SCT070 03/01 Q1012=
200901300515 METAR LIRA 300515Z 05004KT 9999 FEW030 BKN070 03/01 Q1012=
200901300445 METAR LIRA 300445Z 05004KT 9999 FEW030 BKN070 03/01 Q1012=
200901300415 METAR LIRA 300415Z 04003KT 9999 FEW030 BKN070 03/01 Q1012=
200901300345 METAR LIRA 300345Z 03005KT 9999 SCT070 SCT200 03/01 Q1012=
200901300315 METAR LIRA 300315Z 06004KT 9999 SCT070 SCT200 03/01 Q1012=
200901300245 METAR LIRA 300245Z 04003KT 9999 FEW070 03/01 Q1012=
200901300215 METAR LIRA 300215Z 06003KT 9999 FEW070 03/01 Q1012=
200901300145 METAR LIRA 300145Z 04005KT 9999 FEW070 03/01 Q1011=
200901300115 METAR LIRA 300115Z 03004KT 9999 FEW070 03/01 Q1011=
200901300045 METAR LIRA 300045Z 03004KT CAVOK 03/01 Q1011=
200901300015 METAR LIRA 300015Z 03005KT CAVOK 03/01 Q1011=
200901292350 METAR LIRA 300045Z 03004KT CAVOK 03/01 Q1011=
200901292345 METAR LIRA 292345Z 03006KT 010V070 CAVOK 04/02 Q1011=
200901292315 METAR LIRA 292315Z 05005KT CAVOK 04/02 Q1011=
200901292245 METAR LIRA 292245Z 02005KT 360V070 CAVOK 05/02 Q1011=
200901292215 METAR LIRA 292215Z 06004KT CAVOK 05/02 Q1012=
200901292145 METAR LIRA 292145Z 05003KT CAVOK 05/02 Q1012=
200901292115 METAR LIRA 292115Z 04003KT CAVOK 05/01 Q1012=
200901292045 METAR LIRA 292045Z 05003KT CAVOK 05/01 Q1012=
200901292015 METAR LIRA 292015Z 04004KT CAVOK 06/01 Q1012=
200901291945 METAR LIRA 291945Z 33002KT CAVOK 06/01 Q1011=
200901291915 METAR LIRA 291915Z 35004KT CAVOK 07/02 Q1011=
200901291845 METAR LIRA 291845Z 01001KT CAVOK 07/02 Q1011=
200901291815 METAR LIRA 291815Z 01001KT CAVOK 08/01 Q1011=
200901291745 METAR LIRA 291745Z 35005KT CAVOK 08/01 Q1010=
200901291715 METAR LIRA 291715Z 31002KT CAVOK 09/01 Q1010=
200901291645 METAR LIRA 291645Z 33008KT CAVOK 10/00 Q1010=
200901291615 METAR LIRA 291615Z 34010KT 300V010 9999 FEW020 11/01 Q1010=
200901291545 METAR LIRA 291545Z 34008KT CAVOK 12/01 Q1009=
200901291515 METAR LIRA 291515Z 35007KT 310V050 9999 FEW020 12/00 Q1009=
200901291445 METAR LIRA 291445Z 33005KT 9999 FEW020 12/01 Q1009=
200901291415 METAR LIRA 291415Z 03005KT 350V060 9999 FEW020 12/01 Q1009=
200901291345 METAR LIRA 291345Z 36003KT 9999 FEW020 11/00 Q1009=
200901291315 METAR LIRA 291315Z 31005KT 280V360 9999 FEW020 11/02 Q1009=
200901291245 METAR LIRA 291245Z 30006KT 270V340 9999 FEW020 11/02 Q1009=
200901291215 METAR LIRA 291215Z 33005KT 280V360 9999 FEW020 10/02 Q1009=
200901291145 METAR LIRA 291145Z 02004KT 330V070 9999 FEW020 09/03 Q1009=
200901291115 METAR LIRA 291115Z 01006KT 320V090 9999 FEW020 09/03 Q1009=
200901291045 METAR LIRA 291045Z 02004KT 320V080 9999 FEW020 08/02 Q1009=
200901291015 METAR LIRA 291015Z 03006KT 310V060 9999 FEW020 07/02 Q1009=
200901290945 METAR LIRA 290945Z 01005KT 330V060 9999 FEW020 06/02 Q1009=
200901290915 METAR LIRA 290915Z 01006KT 330V070 9999 FEW020 06/02 Q1009=
200901290845 METAR LIRA 290845Z 01005KT 330V110 CAVOK 04/02 Q1008=
200901290815 METAR LIRA 290815Z 03005KT 330V080 CAVOK 03/01 Q1008=
200901290745 METAR LIRA 290745Z 05006KT 010V080 CAVOK 02/01 Q1008=
200901290715 METAR LIRA 290715Z 05004KT CAVOK 02/01 Q1008=
200901290645 METAR LIRA 290645Z 05005KT CAVOK 02/01 Q1008=
200901290615 METAR LIRA 290615Z 04006KT CAVOK 02/01 Q1007=
200901290545 METAR LIRA 290545Z 03005KT CAVOK 02/01 Q1007=
200901290515 METAR LIRA 290515Z 05005KT CAVOK 02/01 Q1007=
200901290445 METAR LIRA 290445Z 04005KT CAVOK 02/01 Q1007=
200901290415 METAR LIRA 290415Z 04005KT CAVOK 03/02 Q1007=
200901290345 METAR LIRA 290345Z 05006KT CAVOK 03/01 Q1007=
200901290315 METAR LIRA 290315Z 05005KT 010V070 CAVOK 03/02 Q1007=
200901290245 METAR LIRA 290245Z 05006KT CAVOK 03/02 Q1006=
200901290215 METAR LIRA 290215Z 04005KT CAVOK 03/02 Q1006=
200901290145 METAR LIRA 290145Z 03004KT 360V070 CAVOK 03/02 Q1006=
200901290115 METAR LIRA 290115Z 05005KT CAVOK 03/02 Q1006=
200901290045 METAR LIRA 290045Z 05005KT 010V090 CAVOK 04/02 Q1006=
200901290015 METAR LIRA 290015Z 04005KT CAVOK 04/02 Q1006=
200901282345 METAR LIRA 282345Z 02005KT 010V090 CAVOK 04/03 Q1006=
200901282315 METAR LIRA 282315Z 04004KT CAVOK 04/02 Q1006=
200901282245 METAR LIRA 282245Z 04006KT CAVOK 05/03 Q1006=
200901282215 METAR LIRA 282215Z 04005KT CAVOK 06/03 Q1006=
200901282145 METAR LIRA 282145Z 06006KT 030V100 CAVOK 06/04 Q1006=
200901282115 METAR LIRA 282115Z 03003KT CAVOK 06/03 Q1006=
200901282045 METAR LIRA 282045Z 02003KT CAVOK 07/03 Q1006=
200901282015 METAR LIRA 282015Z 03004KT CAVOK 07/03 Q1006=
200901281945 METAR LIRA 281945Z 36005KT CAVOK 08/04 Q1006=
200901281915 METAR LIRA 281915Z 02004KT CAVOK 08/04 Q1005=
200901281845 METAR LIRA 281845Z 35004KT 320V020 CAVOK 08/05 Q1005=
200901281815 METAR LIRA 281815Z 35005KT CAVOK 08/06 Q1004=
200901281745 METAR LIRA 281745Z 35002KT CAVOK 09/06 Q1004=
200901281715 METAR COR LIRA 281715Z 00000KT 9999 FEW070 10/07 Q1004=
200901281645 METAR LIRA 281645Z 06002KT 9999 FEW018 SCT200 10/04 Q1003=
200901281615 METAR LIRA 281615Z 08002KT 9999 FEW018 SCT200 11/04 Q1003=
200901281545 METAR LIRA 281545Z 06005KT 9999 FEW018 SCT200 11/04 Q1003=
200901281515 METAR LIRA 281515Z 01003KT 9999 FEW018 SCT200 12/04 Q1003=
200901281445 METAR LIRA 281445Z 03004KT 9999 FEW018 FEW020TCU SCT070 11/04
                        Q1003=
200901281415 METAR LIRA 281415Z 05003KT 9999 FEW018 FEW020TCU SCT080 11/04
                        Q1003=
200901281345 METAR LIRA 281345Z 01003KT 9999 FEW018 FEW020TCU 10/04 Q1003=
200901281315 METAR LIRA 281315Z 36002KT 9999 FEW018 FEW020TCU 10/04 Q1003=
200901281245 METAR LIRA 281245Z 36002KT 9999 FEW020 10/04 Q1003=
200901281215 METAR LIRA 281215Z 36006KT 9999 FEW020 09/05 Q1003=
200901281145 METAR LIRA 281145Z 34006KT 300V030 9999 FEW023 SCT070 09/05
                        Q1003=
200901281115 METAR LIRA 281115Z 36005KT 320V060 9999 FEW023 SCT070 08/04
                        Q1003=
200901281045 METAR LIRA 281045Z 02004KT 320V050 9999 FEW023 06/03 Q1003=
200901281015 METAR LIRA 281015Z 05006KT 350V080 9999 FEW023 06/03 Q1003=
200901280945 METAR LIRA 280945Z 03005KT 330V060 9999 FEW035 06/03 Q1003=
200901280915 METAR LIRA 280915Z 03004KT 360V080 9999 FEW035 05/03 Q1003=
200901280845 METAR LIRA 280845Z 04006KT 010V080 9999 FEW035 04/03 Q1003=
200901280815 METAR LIRA 280815Z 05005KT 360V080 9999 FEW035 04/03 Q1003=
200901280745 METAR LIRA 280745Z 05005KT 9999 FEW035 05/03 Q1003=
200901280715 METAR LIRA 280715Z 02005KT 310V060 9999 FEW034 SCT070 04/03
                        Q1002=
200901280645 METAR LIRA 280645Z 03005KT 330V070 9999 FEW035 SCT070 04/03
                        Q1002=
200901280615 METAR LIRA 280615Z 04006KT 010V080 9999 FEW035 SCT070 04/03
                        Q1002=
200901280545 METAR LIRA 280545Z 04006KT 9999 SCT070 05/03 Q1002=
200901280515 METAR LIRA 280515Z 04005KT 360V070 9999 SCT070 05/03 Q1002=
200901280445 METAR LIRA 280445Z 03005KT 9999 SCT070 05/03 Q1001=
200901280415 METAR LIRA 280415Z 01004KT 9999 SCT070 05/03 Q1001=
200901280345 METAR LIRA 280345Z 02004KT 9999 SCT070 05/04 Q1001=
200901280315 METAR LIRA 280315Z 05005KT 9999 BKN070 05/04 Q1001=
200901280245 METAR LIRA 280245Z 05006KT 9999 BKN070 05/04 Q1001=
200901280215 METAR LIRA 280215Z 02004KT 330V060 9999 SCT070 05/01 Q1001=
200901280145 METAR LIRA 280145Z 36006KT 9999 FEW070 05/02 Q1001=
200901280115 METAR LIRA 280115Z 36005KT 300V050 9999 FEW070 06/03 Q1000=
200901280045 METAR LIRA 280045Z 01007KT 310V060 9999 FEW070 06/04 Q1000=
200901280015 METAR LIRA 280015Z 02004KT 330V090 9999 SCT070 07/04 Q1000=
200901272345 METAR LIRA 272345Z 36004KT 9999 SCT070 07/04 Q1000=
200901272315 METAR LIRA 272315Z 06004KT 9999 SCT070 07/04 Q1000=
200901272245 METAR LIRA 272245Z 06005KT 9999 BKN070 07/04 Q1000=
200901272215 METAR LIRA 272215Z 05006KT 9999 SCT070 07/03 Q1000=
200901272145 METAR LIRA 272145Z 06009KT 9999 SCT070 07/04 Q1000=
200901272115 METAR LIRA 272115Z 07004KT 9999 BKN070 07/04 Q1000=
200901272045 METAR LIRA 272045Z 04002KT 9999 SCT070 07/05 Q1000=
200901272015 METAR LIRA 272015Z 06006KT 9999 SCT070 08/05 Q1000=
200901271945 METAR LIRA 271945Z 11004KT 360V120 9999 FEW030 SCT070 08/05
                        Q0999=
200901271915 METAR LIRA 271915Z 06004KT 030V110 9999 FEW030 SCT070 08/05
                        Q0999=
200901271845 METAR LIRA 271845Z 07006KT 040V120 9999 FEW018 SCT070 08/05
                        Q0999=
200901271815 METAR LIRA 271815Z 05003KT 9999 FEW018 SCT025 08/04 Q0999=
200901271745 METAR LIRA 271745Z 11006KT 9999 FEW016 BKN070 08/04 Q0999
                        RERA=
200901271715 METAR LIRA 271715Z 11016KT 9999 FEW016 SCT025 08/05 Q0998
                        RERA=
200901271645 METAR LIRA 271645Z 11014KT 9999 -RA FEW016 SCT025 08/05 Q0998=
200901271615 METAR LIRA 271615Z 10014KT 9999 FEW016 SCT025 BKN070 08/05
                        Q0998=
200901271545 METAR LIRA 271545Z 11013KT 8000 -RA FEW016 SCT025 BKN070
                        08/04 Q0998=
200901271515 METAR LIRA 271515Z 11008KT 8000 -RA FEW016 SCT025 BKN070
                        08/04 Q0998=
200901271445 METAR LIRA 271445Z 11013KT 080V150 9999 -RA FEW016 SCT025
                        BKN070 08/05 Q0998=
200901271415 METAR LIRA 271415Z 11008KT 8000 -RA SCT016 BKN025 09/05 Q0998=
200901271345 METAR LIRA 271345Z 14011KT 8000 FEW016 FEW018CB BKN025 09/05
                        Q0997=
200901271315 METAR LIRA 271315Z 14006KT 9999 -RA FEW016 FEW018CB BKN025
                        09/05 Q0997=
200901271245 METAR LIRA 271245Z 11011KT 070V160 9999 -RA FEW016 FEW018CB
                        SCT025 09/06 Q0997=
200901271215 METAR LIRA 271215Z 11007KT 360V160 9999 -RA FEW016 FEW018CB
                        BKN025 09/05 Q0997=
200901271145 METAR LIRA 271145Z 10006KT 060V150 9999 -RA FEW016 FEW018CB
                        BKN025 09/05 Q0997=
200901271115 METAR LIRA 271115Z 10008KT 060V140 9999 -RA FEW016 FEW018CB
                        BKN030 09/05 Q0997=
200901271045 METAR LIRA 271045Z 08007KT 9999 -RA FEW016 FEW018CB BKN030
                        10/06 Q0997=
200901271015 METAR LIRA 271015Z 10011G23KT 070V150 7000 - FEW016 FEW018CB
                        BKN030 10/06 Q0998=
200901270945 METAR LIRA 270945Z 11010G20KT 9999 FEW016 FEW018CB SCT030
                        11/06 Q0998=
200901270915 METAR LIRA 270915Z 10004KT 9999 -RA FEW016 FEW018CB SCT030
                        09/05 Q0998=
200901270845 METAR LIRA 270845Z 07007KT 020V110 9999 FEW015 FEW018CB SCT080
                        09/05 Q0998=
200901270815 METAR LIRA 270815Z 07010KT 030V120 9999 FEW015 FEW018TCU
                        SCT200 07/05 Q0998=
200901270745 METAR LIRA 270745Z 05008KT 360V090 9999 FEW015 FEW018TCU
                        SCT200 07/05 Q0998=
200901270715 METAR LIRA 270715Z 07005KT 9999 FEW015 FEW018TCU SCT200 06/04
                        Q0998=
200901270645 METAR LIRA 270645Z 10006KT 9999 FEW015 FEW017TCU SCT040 06/04
                        Q0998=
200901270615 METAR LIRA 270615Z 10010KT 9999 FEW017 FEW018TCU 06/04 Q0998=
200901270545 METAR LIRA 270545Z 10010KT 9999 FEW040 06/03 Q0998=
200901270515 METAR LIRA 270515Z 11012KT 9999 FEW040 06/04 Q0998=
200901270445 METAR LIRA 270445Z 08005KT 9999 FEW030 05/04 Q0998=
200901270415 METAR LIRA 270415Z 07005KT 9999 FEW030 05/05 Q0999=
200901270345 METAR LIRA 270345Z 06004KT 9999 FEW025 05/05 Q0999=
200901270315 METAR LIRA 270315Z 07005KT 9999 FEW018TCU SCT030 06/06 Q1000=
200901270245 METAR LIRA 270245Z 34002KT 7000 FEW017TCU SCT030 06/06 Q1000=
200901270215 METAR LIRA 270215Z 26006KT 080V340 9999 -RA FEW018TCU BKN025
                        06/04 Q0999=
200901270145 METAR LIRA 270145Z 10007KT 9999 FEW020TCU SCT030 06/04 Q0999=
200901270115 METAR LIRA 270115Z 35001KT 9999 FEW018TCU SCT030 06/04 Q0999=
200901270045 METAR LIRA 270045Z 03005KT 010V100 9999 FEW025 SCT070 07/05
                        Q0999=
200901270015 METAR LIRA 270015Z 03006KT 9999 FEW018TCU SCT040 07/06 Q0999=
200901262345 METAR LIRA 262345Z 05005KT 9999 -RA FEW018CB BKN030 07/06
                        Q1000=
200901262315 METAR LIRA 262315Z 06006KT 9999 -RA FEW020TCU BKN035 07/06
                        Q1000=
200901262245 METAR LIRA 262245Z 06005KT 030V120 9999 FEW020TCU BKN035
                        08/06 Q1000=
200901262215 METAR LIRA 262215Z 08009KT 060V130 8000 -TSRA SCT018CB BKN030
                        08/05 Q1000=
200901262145 METAR LIRA 262145Z 13005KT 110V190 7000 -TSRA SCT018CB BKN025
                        08/05 Q1000=
200901262115 METAR LIRA 262115Z 17010KT 130V210 6000 -RA VCTS FEW020CB
                        BKN030 09/05 Q1000=
200901262045 METAR LIRA 262045Z 12008KT 9999 FEW018TCU SCT030 09/05 Q1000=
200901262015 METAR LIRA 262015Z 12010KT 9999 FEW020TCU SCT030 09/05 Q1000=
200901261945 METAR LIRA 261945Z 12008KT 9999 -RA FEW018CB BKN025 09/05
                        Q1000=
200901261915 METAR LIRA 261915Z 15010KT 9999 VCTS FEW018CB BKN025 10/04
                        Q1000=
200901261845 METAR LIRA 261845Z 15009KT 9999 VCTS FEW018CB BKN025 10/05
                        Q0999=
200901261815 METAR LIRA 261815Z 15008KT 9999 VCTS FEW015 FEW020CB BKN025
                        10/08 Q0999=
200901261745 METAR LIRA 261745Z 16004KT 9999 FEW016 FEW020TCU SCT025 10/08
                        Q0999=
200901261715 METAR LIRA 261715Z 16005KT 9999 FEW015 FEW020TCU SCT025 11/06
                        Q0999=
200901261645 METAR LIRA 261645Z 19005KT 8000 FEW015 FEW020CB SCT025 11/05
                        Q0999=
200901261615 METAR LIRA 261615Z 02002KT 8000 FEW015 FEW020CB SCT025 10/07
                        Q0999=
200901261545 METAR LIRA 261545Z 18003KT 8000 FEW015 FEW020CB BKN025 10/07
                        Q0998 RERA=
200901261515 METAR LIRA 261515Z 18004KT 8000 FEW015 FEW020CB SCT025 11/08
                        Q0998 RERA=
200901261445 METAR LIRA 261445Z 19005KT 150V230 8000 -RA FEW015 FEW020CB
                        SCT022 BKN070 11/09 Q0998=
200901261415 METAR LIRA 261415Z 18007KT 7000 -RA FEW015 FEW020CB SCT022
                        BKN070 11/09 Q0998=
200901261315 METAR LIRA 261315Z 17015KT 3000 -RA BR FEW018 FEW020CB SCT025
                        BKN070 11/08 Q0997=
200901261245 METAR LIRA 261245Z 15017KT 090V170 8000 FEW018 FEW020CB SCT025
                        BKN070 13/09 Q0997=
200901261215 METAR LIRA 261215Z 13022KT 8000 -RA FEW018 FEW020CB SCT025
                        BKN070 12/08 Q0997=
200901261145 METAR LIRA 261145Z 12019KT 8000 -RA FEW018 FEW020CB SCT025
                        BKN070 12/08 Q0998=
200901261115 METAR LIRA 261115Z 12021G31KT 070V160 8000 FEW018 FEW020CB
                        SCT025 BKN070 11/07 Q0998 RERA=
200901261045 METAR LIRA 261045Z 13019G29KT 100V180 8000 -RA FEW018 FEW020CB
                        SCT025 BKN070 11/08 Q0999=
200901261015 METAR LIRA 261015Z 13015KT 8000 -RA FEW018 FEW020CB SCT025
                        BKN070 11/07 Q1000=
200901261000 LIRA CONTUS CB NW/NE=
200901260945 METAR LIRA 260945Z 13013KT 080V170 9999 FEW018 FEW020CB SCT025
                        BKN070 11/05 Q1000=
200901260915 METAR LIRA 260915Z 13012KT 9999 FEW018 SCT025 BKN070 11/05
                        Q1000=
200901260845 METAR LIRA 260845Z 12008KT 100V160 9999 FEW018 SCT025 10/05
                        Q1000=
200901260815 METAR LIRA 260815Z 12011KT 9999 FEW018 SCT025 09/06 Q1001=
200901260745 METAR LIRA 260745Z 12011KT 9999 FEW018 SCT070 09/05 Q1001=
200901260715 METAR LIRA 260715Z 15009KT 9999 FEW018 SCT070 09/05 Q1001=
200901260645 METAR LIRA 260645Z 13008KT 9999 FEW018 07/05 Q1001=
200901260615 METAR LIRA 260615Z 13007KT 9999 FEW018 06/04 Q1001=
200901260545 METAR LIRA 260545Z 00000KT 9999 FEW018 SCT070 05/03 Q1001=
200901260515 METAR LIRA 260515Z 00000KT 9999 FEW018 SCT025 04/03 Q1000=
200901260445 METAR LIRA 260445Z 11004KT 9999 FEW020 SCT060 04/03 Q1000=
200901260415 METAR LIRA 260415Z 00000KT 9999 FEW025 SCT060 03/02 Q1000=
200901260345 METAR LIRA 260345Z 23002KT 9999 FEW060 04/03 Q1000=
200901260315 METAR LIRA 260315Z 12002KT 9999 FEW025 SCT060 04/03 Q1000=
200901260245 METAR LIRA 260245Z 24001KT 9999 FEW025 SCT060 04/03 Q1000=
200901260215 METAR LIRA 260215Z 08004KT 9999 FEW060 04/02 Q1000=
200901260145 METAR LIRA 260145Z 07001KT 9999 FEW060 04/03 Q1000=
200901260115 METAR LIRA 260115Z 36002KT CAVOK 04/03 Q1000=
200901260045 METAR LIRA 260045Z 08001KT CAVOK 04/03 Q1000=
200901260015 METAR LIRA 260015Z 00000KT CAVOK 05/03 Q1000=
200901252345 METAR LIRA 252345Z 11002KT CAVOK 05/03 Q1000=
200901252315 METAR LIRA 252315Z 11002KT CAVOK 05/03 Q1000=
200901252245 METAR LIRA 252245Z 08001KT CAVOK 05/03 Q1000=
200901252215 METAR LIRA 252215Z 10001KT CAVOK 05/03 Q1000=
200901252145 METAR LIRA 252145Z 07003KT CAVOK 04/03 Q0999=
200901252115 METAR LIRA 252115Z 09003KT CAVOK 05/04 Q0999=
200901252045 METAR LIRA 252045Z 10004KT 9999 FEW060 06/04 Q0999=
200901252015 METAR LIRA 252015Z 11001KT CAVOK 06/04 Q0999=
200901251945 METAR LIRA 251945Z 00000KT CAVOK 06/04 Q0998=
200901251915 METAR LIRA 251915Z 36001KT 9999 FEW070 07/04 Q0998=
200901251845 METAR LIRA 251845Z 28002KT 9999 SCT060 07/04 Q0998=
200901251815 METAR LIRA 251815Z 29003KT 9999 SCT060 08/04 Q0997=
200901251745 METAR LIRA 251745Z 29003KT 9999 FEW030 09/04 Q0997=
200901251715 METAR LIRA 251715Z 31005KT 300V010 9999 FEW030 SCT060 09/04
                        Q0997=
200901251645 METAR LIRA 251645Z 34006KT 300V040 9999 SCT020 SCT070 10/05
                        Q0996=
200901251615 METAR LIRA 251615Z 34009KT 9999 SCT020 SCT070 10/04 Q0996=
200901251545 METAR LIRA 251545Z 33008KT 300V040 9999 FEW020 BKN070 10/04
                        Q0995=
200901251515 METAR LIRA 251515Z 34006KT 9999 FEW020 BKN070 10/05 Q0995=
200901251445 METAR LIRA 251445Z 32007KT 9999 SCT030 SCT070 11/05 Q0994=
200901251415 METAR LIRA 251415Z 31006KT 290V010 9999 SCT030 SCT070 11/05
                        Q0994=
200901251345 METAR LIRA 251345Z 34009KT 300V020 9999 SCT020 SCT070 11/05
                        Q0994=
200901251315 METAR LIRA 251315Z 32005KT 280V030 9999 SCT020 SCT070 11/06
                        Q0993=
200901251245 METAR LIRA 251245Z 33010KT 9999 BKN020 SCT070 10/05 Q0993=
200901251215 METAR LIRA 251215Z 33007KT 270V010 9999 SCT020 SCT070 10/06
                        Q0993=
200901251145 METAR LIRA 251145Z 33009KT 300V030 9999 BKN020 SCT070 09/07
                        Q0993=
200901251115 METAR LIRA 251115Z 35005KT 300V050 9999 SCT023 09/07 Q0993=
200901251045 METAR LIRA 251045Z 35008KT 300V030 9999 SCT023 SCT060 09/07
                        Q0993=
200901251015 METAR LIRA 251015Z 35006KT 300V030 9999 SCT023 SCT060 09/07
                        Q0993=
200901250945 METAR LIRA 250945Z 34005KT 310V040 9999 BKN023 SCT060 08/07
                        Q0992=
200901250915 METAR LIRA 250915Z 01004KT 330V060 9999 SCT014 SCT070 08/06
                        Q0992=
200901250845 METAR LIRA 250845Z 36005KT 300V040 9999 FEW014 BKN080 07/06
                        Q0991=
200901250815 METAR LIRA 250815Z 32008KT 300V020 9999 FEW025 SCT080 07/07
                        Q0991=
200901250745 METAR LIRA 250745Z 35003KT 9999 FEW030 BKN080 07/06 Q0990=
200901250715 METAR LIRA 250715Z 02003KT 9999 FEW030 BKN080 07/06 Q0989=
200901250645 METAR LIRA 250645Z 07004KT 9999 FEW025 BKN080 07/06 Q0989=
200901250615 METAR LIRA 250615Z 07005KT 9999 -DZ FEW025 BKN070 07/07 Q0989=
200901250545 METAR LIRA 250545Z 31002KT 9999 -DZ FEW012 SCT070 07/06 Q0989=
200901250515 METAR LIRA 250515Z 28003KT 9999 -DZ FEW012 SCT070 07/06 Q0989=
200901250445 METAR LIRA 250445Z 03001KT 9999 FEW012 SCT070 07/06 Q0988=
200901250415 METAR LIRA 250415Z 01002KT 9999 FEW012 SCT070 07/06 Q0987=
200901250345 METAR LIRA 250345Z 01002KT 9999 FEW012 SCT070 07/06 Q0987=
200901250315 METAR LIRA 250315Z 01003KT 9999 FEW012 SCT070 07/06 Q0987=
200901250245 METAR LIRA 250245Z 35003KT 9999 FEW012 SCT070 08/07 Q0987=
200901250215 METAR LIRA 250215Z 31002KT 9999 FEW012 SCT070 08/07 Q0987=
200901250145 METAR LIRA 250145Z 05004KT 8000 -DZ FEW012 SCT025 BKN070
                        08/07 Q0987=
200901250115 METAR LIRA 250115Z 02004KT 8000 -DZ FEW012 SCT025 BKN070
                        08/07 Q0987=
200901250045 METAR LIRA 250045Z 04005KT 8000 -DZ FEW012 SCT025 BKN070
                        09/08 Q0987=
200901250015 METAR LIRA 250015Z 06006KT 020V090 8000 -DZ FEW012 SCT025
                        BKN070 09/09 Q0987=
200901242350 METAR LIRA 250045Z 04005KT 8000 -DZ FEW012 SCT025 BKN070
                        09/08 Q0987=
200901242345 METAR LIRA 242345Z 05008KT 350V080 7000 -RA SCT004 SCT022
                        BKN070 10/09 Q0987=
200901242315 METAR LIRA 242315Z 08001KT 7000 -RA FEW012 SCT022 BKN070
                        10/08 Q0987=
200901242245 METAR LIRA 242245Z 00000KT 7000 -RA FEW012 SCT025 BKN070
                        10/09 Q0986=
200901242215 METAR LIRA 242215Z 21007KT 150V250 7000 -RA FEW012 SCT025
                        BKN070 09/08 Q0987=
200901242145 METAR LIRA 242145Z 21007KT 170V250 6000 -RA FEW012 SCT025
                        BKN070 09/08 Q0987=
200901242115 METAR LIRA 242115Z 19006KT 140V230 5000 -RA BR SCT008 BKN022
                        09/09 Q0987=
200901242045 METAR LIRA 242045Z 15006KT 4000 -RA BR SCT008 BKN022 09/08
                        Q0987=
200901242015 METAR LIRA 242015Z 11003KT 7000 -DZ SCT008 BKN025 10/08 Q0986=
200901241945 METAR LIRA 241945Z 20002KT 6000 -DZ SCT008 BKN025 10/08 Q0986=
200901241915 METAR LIRA 241915Z 23007KT 220V290 7000 -DZ SCT008 BKN025
                        10/08 Q0986=
200901241845 METAR LIRA 241845Z 24004KT 160V250 9999 FEW015 BKN025 11/07
                        Q0986=
200901241815 METAR LIRA 241815Z 22009KT 170V250 9999 FEW015 BKN025 11/07
                        Q0986=
200901241745 METAR LIRA 241745Z 22010KT 170V270 9999 FEW015 BKN025 11/07
                        Q0985=
200901241715 METAR LIRA 241715Z 21012G31KT 160V250 9999 FEW015 BKN025
                        11/08 Q0985=
200901241645 METAR LIRA 241645Z 20012KT 160V250 9000 FEW015 SCT025 11/08
                        Q0985 RERA=
200901241615 METAR LIRA 241615Z 17014KT 9000 FEW015 SCT023 12/10 Q0985
                        RERA=
200901241545 METAR LIRA 241545Z 17022G37KT 130V230 5000 RA BR SCT010 BKN023
                        12/11 Q0985=
200901241515 METAR LIRA 241515Z 14012KT 9999 -RA FEW015 SCT023 BKN070
                        12/11 Q0985=
200901241445 METAR LIRA 241445Z 15012KT 9999 -RA FEW015 SCT023 BKN070
                        12/11 Q0986=
200901241415 METAR LIRA 241415Z 18010KT 150V240 9999 SCT022 BKN060 13/11
                        Q0986=
200901241345 METAR LIRA 241345Z 15014KT 9999 -RA SCT023 BKN060 14/10 Q0986=
200901241315 METAR LIRA 241315Z 16015G29KT 120V200 9999 SCT023 14/11 Q0986=
200901241245 METAR LIRA 241245Z 16017KT 9999 SCT023 BKN060 13/09 Q0986=
200901241215 METAR LIRA 241215Z 15011KT 9999 SCT023 BKN060 12/09 Q0986=
200901241145 METAR LIRA 241145Z 11003KT 120V210 9000 -RA SCT020 BKN060
                        11/08 Q0987=
200901241115 METAR LIRA 241115Z 16004KT 9000 -RA SCT022 BKN060 11/08 Q0988=
200901241045 METAR LIRA 241045Z 15004KT 8000 -RA SCT022 BKN060 11/08 Q0989=
200901241015 METAR LIRA 241015Z 14012KT 100V180 9999 -DZ SCT022 BKN070
                        12/08 Q0989=
200901240945 METAR LIRA 240945Z 16010KT 9999 -DZ SCT022 BKN080 12/08 Q0989=
200901240915 METAR LIRA 240915Z 16011KT 9999 -DZ SCT022 BKN080 12/07 Q0989=
200901240845 METAR LIRA 240845Z 18003KT 9999 FEW030 BKN080 BKN200 11/07
                        Q0989=
200901240815 METAR LIRA 240815Z 16005KT 9999 FEW030 BKN080 BKN200 10/06
                        Q0989=
200901240745 METAR LIRA 240745Z 13006KT 090V180 9999 FEW035 BKN080 10/06
                        Q0990=
200901240715 METAR LIRA 240715Z 15005KT 9999 SCT080 BKN200 09/06 Q0990=
200901240645 METAR LIRA 240645Z 15004KT 9999 SCT080 BKN200 08/07 Q0990=
200901240615 METAR LIRA 240615Z 12002KT 9999 SCT080 SCT200 08/06 Q0990=
200901240545 METAR LIRA 240545Z 14005KT CAVOK 07/06 Q0990=
200901240515 METAR LIRA 240515Z 15005KT CAVOK 08/07 Q0990=
200901240445 METAR LIRA 240445Z 17007KT CAVOK 07/06 Q0990=
200901240415 METAR LIRA 240415Z 16005KT CAVOK 08/05 Q0990=
200901240345 METAR LIRA 240345Z 17001KT CAVOK 08/05 Q0990=
200901240315 METAR LIRA 240315Z 06001KT CAVOK 09/04 Q0990=
200901240245 METAR LIRA 240245Z 06003KT CAVOK 11/08 Q0991=
200901240215 METAR LIRA 240215Z 34003KT CAVOK 12/09 Q0991=
200901240145 METAR LIRA 240145Z 01003KT 9999 FEW070 SCT200 11/09 Q0991=
200901240115 METAR LIRA 240115Z 31005KT 9999 FEW015 BKN070 12/10 Q0991=
200901240045 METAR LIRA 240045Z 28005KT 9999 FEW015 BKN070 12/10 Q0991=
200901240015 METAR LIRA 240015Z 14004KT 9999 FEW015 BKN070 12/11 Q0991=
200901232345 METAR LIRA 232345Z 18005KT 9999 FEW010 BKN070 12/10 Q0991=
200901232315 METAR LIRA 232315Z 19008KT 150V210 9999 FEW010 BKN070 11/09
                        Q0990=
200901232245 METAR LIRA 232245Z 17012KT 9999 SCT010 BKN070 11/10 Q0990=
200901232215 METAR LIRA 232215Z 17012KT 8000 SCT010 SCT025 BKN070 10/09
                        Q0990=
200901232145 METAR LIRA 232145Z 17013KT 120V200 7000 -DZ SCT010 BKN070
                        10/09 Q0990=
200901232115 METAR LIRA 232115Z 16016KT 130V200 5000 -DZ BR SCT007 BKN070
                        10/08 Q0990=
200901232045 METAR LIRA 232045Z 16018KT 5000 -DZ BR SCT009 BKN025 09/07
                        Q0991=
200901232015 METAR LIRA 232015Z 16016KT 5000 -DZ BR FEW009 BKN025 09/07
                        Q0992=
200901231945 METAR LIRA 231945Z 16012KT 120V200 9999 FEW018 SCT025 BKN070
                        09/07 Q0993=
200901231915 METAR LIRA 231915Z 17014KT 120V190 9999 FEW018 SCT025 BKN070
                        10/07 Q0994=
200901231845 METAR LIRA 231845Z 18009KT 9999 FEW018 SCT025 BKN070 09/08
                        Q0994=
200901231815 METAR LIRA 231815Z 19005KT 130V230 9999 FEW018 SCT025 BKN080
                        09/06 Q0994=
200901231745 METAR LIRA 231745Z 14008KT 9999 SCT025 BKN070 10/06 Q0994=
200901231715 METAR LIRA 231715Z 12006KT 9999 -DZ SCT025 BKN070 10/06 Q0996=
200901231645 METAR LIRA 231645Z 16003KT 9999 SCT080 BKN200 10/05 Q0996=
200901231615 METAR LIRA 231615Z 18003KT 9999 SCT080 BKN200 10/03 Q0997=
200901231545 METAR LIRA 231545Z 21002KT 9999 SCT080 BKN200 11/03 Q0997=
200901231515 METAR LIRA 231515Z 25003KT 9999 SCT080 BKN200 11/M00 Q0997=
200901231445 METAR LIRA 231445Z 27004KT 230V300 9999 FEW080 OVC200 11/M00
                        Q0997=
200901231415 METAR LIRA 231415Z 28005KT 9999 FEW080 BKN200 11/M01 Q0997=
200901231345 METAR LIRA 231345Z 27005KT 210V310 CAVOK 11/M01 Q0997=
200901231315 METAR LIRA 231315Z 27006KT CAVOK 11/M00 Q0997=
200901231245 METAR LIRA 231245Z 29004KT CAVOK 11/01 Q0997=
200901231215 METAR LIRA 231215Z 30004KT CAVOK 10/02 Q0997=
200901231145 METAR LIRA 231145Z 30003KT CAVOK 09/04 Q0998=
200901231115 METAR LIRA 231115Z 34006KT 290V020 CAVOK 08/04 Q0999=
200901231045 METAR LIRA 231045Z 30007KT 270V360 CAVOK 08/03 Q0999=
200901231015 METAR LIRA 231015Z 33008KT CAVOK 07/03 Q0998=
200901230945 METAR LIRA 230945Z 03005KT CAVOK 07/03 Q0998=
200901230915 METAR LIRA 230915Z 03007KT 340V060 CAVOK 06/04 Q0998=
200901230845 METAR LIRA 230845Z 04008KT 360V080 CAVOK 05/04 Q0999=
200901230815 METAR LIRA 230815Z 04005KT 360V090 CAVOK 04/03 Q0999=
200901230745 METAR LIRA 230745Z 03004KT CAVOK 04/02 Q0999=
200901230715 METAR LIRA 230715Z 06004KT CAVOK 04/02 Q0999=
200901230645 METAR LIRA 230645Z 05002KT 9999 FEW022 05/03 Q0999=
200901230615 METAR LIRA 230615Z 28002KT 9999 FEW022 04/03 Q0999=
200901230545 METAR LIRA 230545Z 34004KT 300V040 CAVOK 05/03 Q0999=
200901230515 METAR LIRA 230515Z 03005KT CAVOK 04/01 Q0999=
200901230445 METAR LIRA 230445Z 04004KT CAVOK 05/02 Q0999=
200901230415 METAR LIRA 230415Z 04004KT CAVOK 05/02 Q0999=
200901230345 METAR LIRA 230345Z 04004KT CAVOK 06/02 Q0999=
200901230315 METAR LIRA 230315Z 03003KT CAVOK 06/02 Q0999=
200901230245 METAR LIRA 230245Z 03004KT CAVOK 06/02 Q1000=
200901230215 METAR LIRA 230215Z 00003KT 9999 FEW070 SCT200 06/02 Q1000=
200901230115 METAR LIRA 230115Z 04003KT 9999 SCT070 SCT200 06/02 Q1000=
200901230045 METAR LIRA 230045Z 04002KT 9999 SCT070 SCT200 06/03 Q1000=
200901230015 METAR LIRA 230015Z 05002KT 9999 SCT070 SCT200 07/03 Q1000=
200901222350 METAR LIRA 230045Z 04002KT 9999 SCT070 SCT200 06/03 Q1000=
200901222345 METAR LIRA 222345Z 33001KT 9999 SCT070 SCT200 07/03 Q1000=
200901222315 METAR LIRA 222315Z 01002KT 9999 SCT070 SCT200 07/03 Q1001=
200901222245 METAR LIRA 222245Z 02003KT 9999 SCT070 BKN200 07/03 Q1002=
200901222215 METAR LIRA 222215Z 01003KT 9999 SCT070 SCT200 08/03 Q1002=
200901222145 METAR LIRA 222145Z 01005KT 330V050 9999 SCT070 SCT200 08/04
                        Q1002=
200901222115 METAR LIRA 222115Z 35003KT 9999 SCT070 SCT200 08/04 Q1002=
200901222045 METAR LIRA 222045Z 35003KT 9999 SCT070 SCT200 08/03 Q1002=
200901222015 METAR LIRA 222015Z 01004KT 9999 SCT070 SCT200 08/04 Q1002=
200901221945 METAR LIRA 221945Z 34005KT 9999 SCT070 08/06 Q1002=
200901221915 METAR LIRA 221915Z 33004KT 9999 FEW018 SCT070 08/06 Q1002=
200901221845 METAR LIRA 221845Z 34003KT 9999 FEW018 SCT070 09/07 Q1002=
200901221815 METAR LIRA 221815Z 34002KT 9999 FEW018 SCT070 09/07 Q1002=
200901221745 METAR LIRA 221745Z 30003KT 9999 FEW018 SCT070 09/06 Q1002=
200901221715 METAR LIRA 221715Z 30004KT 9999 FEW018 SCT070 09/07 Q1002=
200901221645 METAR LIRA 221645Z 27002KT 9999 FEW018 SCT070 10/07 Q1003=
200901221615 METAR LIRA 221615Z 34003KT 9999 FEW018 SCT200 11/07 Q1003=
200901221545 METAR LIRA 221545Z 02002KT 9999 FEW018 SCT030 BKN070 11/07
                        Q1003=
200901221515 METAR LIRA 221515Z 04003KT 9999 FEW018 BKN030 11/07 Q1003=
200901221445 METAR LIRA 221445Z 04003KT 9999 FEW018 SCT030 11/07 Q1004=
200901221415 METAR LIRA 221415Z 02003KT 9999 FEW018 SCT040 11/07 Q1004=
200901221345 METAR LIRA 221345Z 35005KT 9999 FEW018 SCT040 11/06 Q1004=
200901221315 METAR LIRA 221315Z 04002KT 9999 FEW018 SCT070 BKN200 11/07
                        Q1004=
200901221245 METAR LIRA 221245Z 01003KT 9999 FEW018 BKN080 11/07 Q1004=
200901221215 METAR LIRA 221215Z 36005KT 310V040 9999 FEW018 BKN080 10/07
                        Q1005=
200901221145 METAR LIRA 221145Z 34005KT 280V360 9999 FEW018 SCT080 10/07
                        Q1005=
200901221115 METAR LIRA 221115Z 35004KT 9000 FEW018 SCT080 10/07 Q1005=
200901221045 METAR LIRA 221045Z 03004KT 8000 FEW018 SCT080 09/07 Q1005=
200901221015 METAR LIRA 221015Z 33004KT 8000 FEW018 SCT070 08/07 Q1006=
200901220945 METAR LIRA 220945Z 03003KT 7000 FEW015 SCT070 08/07 Q1006=
200901220915 METAR LIRA 220915Z 36005KT 330V050 5000 BR FEW007 SCT070
                        07/06 Q1006=
200901220845 METAR LIRA 220845Z 33005KT 3000 MIFG FEW007 SCT070 06/06
                        Q1006=
200901220815 METAR LIRA 220815Z 34005KT 2000 MIFG FEW007 SCT030 06/06
                        Q1006=
200901220745 METAR LIRA 220745Z 03005KT 5000 BR SCT030 SCT070 06/06 Q1006=
200901220715 METAR LIRA 220715Z 01005KT 7000 SCT030 SCT070 06/06 Q1006=
200901220645 METAR LIRA 220645Z 03004KT 6000 SCT030 SCT070 06/05 Q1005=
200901220615 METAR LIRA 220615Z 03005KT 5000 BR SCT030 SCT080 06/05 Q1005=
200901220545 METAR LIRA 220545Z 03001KT 4000 BR FEW009 05/05 Q1005=
200901220515 METAR COR LIRA 220515Z 01001KT 4000 BR FEW004 05/05 Q1004=
200901220445 METAR LIRA 220445Z 05004KT 3000 BR SCT004 05/05 Q1004=
200901220415 METAR LIRA 220415Z 05002KT 4000 1300NE R15//// MIFG BR SCT003
                        06/06 Q1004=
200901220345 METAR LIRA 220345Z 30003KT 5000 1200SE R15//// MIFG BR SCT003
                        07/06 Q1004=
200901220315 METAR LIRA 220315Z 03003KT 8000 SCT060 07/06 Q1004=
200901220245 METAR LIRA 220245Z 05004KT 8000 FEW020 SCT060 07/06 Q1004=
200901220215 METAR LIRA 220215Z 04002KT 3500 1300 R15//// MIFG BR SCT003
                        SCT060 07/06 Q1004=
200901220145 METAR LIRA 220145Z 35003KT 3000 1300SE R15//// MIFG BR SCT003
                        07/07 Q1004=
200901220115 METAR LIRA 220115Z 02002KT 3500 1500SE R15//// MIFG BR SCT003
                        08/07 Q1004=
200901220045 METAR LIRA 220045Z 00000KT 5000 1500SE R15//// MIFG BR SCT003
                        08/08 Q1004=
200901220015 METAR LIRA 220015Z 28001KT 5000 1500SE R15//// MIFG BR SCT003
                        08/08 Q1004=
200901212350 METAR LIRA 220045Z 00000KT 5000 1500SE R15//// MIFG BR SCT003
                        08/08 Q1004=
200901212345 METAR LIRA 212345Z 00000KT 7000 FEW010 08/08 Q1004=
200901212315 METAR LIRA 212315Z 00000KT 8000 FEW018 SCT060 09/08 Q1004=
200901212245 METAR LIRA 212245Z 00000KT 9999 FEW018 SCT060 09/09 Q1004=
200901212215 METAR LIRA 212215Z 00000KT 9999 FEW018 SCT060 10/09 Q1003=
200901212145 METAR LIRA 212145Z 00000KT 9999 SCT060 10/09 Q1003=
200901212115 METAR LIRA 212115Z 04002KT 7000 FEW018 SCT060 10/09 Q1003=
200901212045 METAR LIRA 212045Z 05003KT 7000 FEW018 SCT040 10/09 Q1003=
200901212015 METAR LIRA 212015Z 00000KT 7000 SCT018 SCT060 10/09 Q1003=
200901211945 METAR LIRA 211945Z 00000KT 7000 FEW018 SCT045 10/09 Q1002=
200901211915 METAR LIRA 211915Z 00000KT 7000 FEW018 SCT040 10/10 Q1002=
200901211845 METAR LIRA 211845Z 00000KT 7000 FEW018 SCT040 10/10 Q1002=
200901211815 METAR LIRA 211815Z 00000KT 6000 SCT018 SCT070 10/10 Q1002=
200901211745 METAR LIRA 211745Z 00000KT 6000 SCT018 SCT060 10/10 Q1001=
200901211715 METAR LIRA 211715Z 35001KT 7000 SCT020 SCT070 11/10 Q1001=
200901211645 METAR LIRA 211645Z 01005KT 6000 -DZ SCT015 BKN025 10/09 Q1000=
200901211615 METAR LIRA 211615Z 01003KT 6000 -DZ SCT015 BKN025 11/09 Q1000=
200901211545 METAR LIRA 211545Z 02004KT 6000 -DZ SCT015 BKN025 11/10 Q1000=
200901211515 METAR LIRA 211515Z 36006KT 330V030 9999 -DZ SCT015 SCT025
                        11/09 Q0999=
200901211445 METAR LIRA 211445Z 01005KT 330V070 9999 -DZ SCT015 BKN070
                        11/10 Q0999=
200901211415 METAR LIRA 211415Z 02006KT 340V080 9999 -DZ SCT015 BKN070
                        11/10 Q0999=
200901211345 METAR LIRA 211345Z 02008KT 320V050 9999 -DZ SCT015 BKN070
                        11/10 Q0999=
200901211315 METAR LIRA 211315Z 02006KT 340V050 7000 -DZ SCT015 BKN070
                        11/10 Q0999=
200901211245 METAR LIRA 211245Z 01003KT 330V060 9999 -DZ FEW015 BKN070
                        11/09 Q0999=
200901211215 METAR LIRA 211215Z 03004KT 8000 -DZ FEW015 BKN070 11/09 Q1000=
200901211145 METAR LIRA 211145Z 03003KT 8000 -DZ FEW015 BKN070 11/09 Q1000=
200901211115 METAR LIRA 211115Z 04003KT 8000 -DZ FEW015 BKN070 11/09 Q1000=
200901211045 METAR LIRA 211045Z 00000KT 8000 -DZ FEW018 BKN070 11/09 Q1000=
200901211015 METAR LIRA 211015Z 00000KT 9999 -DZ FEW015 BKN070 11/09 Q1000=
200901210945 METAR LIRA 210945Z 00000KT 9999 -DZ FEW015 BKN070 12/09 Q1000=
200901210915 METAR LIRA 210915Z 00000KT 9999 -DZ FEW018 BKN070 11/09 Q1000=
200901210845 METAR LIRA 210845Z 00000KT 9999 -DZ FEW033 BKN070 11/08 Q1000=
200901210815 METAR LIRA 210815Z 00000KT 9999 -DZ FEW033 BKN070 11/08 Q1000=
200901210745 METAR LIRA 210745Z 00000KT 9999 FEW033 BKN070 11/08 Q0999=
200901210715 METAR LIRA 210715Z 00000KT 9999 FEW033 BKN070 11/08 Q0999=
200901210645 METAR LIRA 210645Z 00000KT 9999 FEW033 BKN070 10/08 Q0999=
200901210615 METAR LIRA 210615Z 33001KT 9000 -RA FEW018 BKN033 11/08 Q0999=
200901210545 METAR LIRA 210545Z 33001KT 9000 -RA FEW018 BKN033 11/09 Q0999=
200901210515 METAR LIRA 210515Z 10005KT 9999 -RA FEW018TCU BKN035 11/09
                        Q0999=
200901210445 METAR LIRA 210445Z 10005KT 9999 -RA FEW018TCU BKN035 11/09
                        Q0999=
200901210415 METAR LIRA 210415Z 11005KT 9999 -RA FEW018TCU BKN035 11/09
                        Q0999=
200901210345 METAR LIRA 210345Z 08005KT 9999 -DZ SCT018TCU BKN035 11/09
                        Q1000=
200901210315 METAR LIRA 210315Z 09006KT 9999 -DZ SCT018TCU BKN035 12/08
                        Q1000=
200901210245 METAR LIRA 210245Z 06005KT 9999 -RA SCT018TCU BKN030 12/08
                        Q1000=
200901210215 METAR LIRA 210215Z 09005KT 050V120 9999 -RA SCT018TCU BKN030
                        12/09 Q1000=
200901210145 METAR LIRA 210145Z 11006KT 9999 -RA SCT018TCU BKN030 13/10
                        Q1000=
200901210115 METAR LIRA 210115Z 13009KT 100V160 9999 -RA SCT018TCU BKN030
                        13/10 Q1000=
200901210045 METAR LIRA 210045Z 13011KT 9999 FEW018TCU SCT035 13/10 Q1000=
200901210015 METAR LIRA 210015Z 14009KT 9999 FEW018TCU SCT035 13/11 Q1000=
200901202345 METAR LIRA 202345Z 14009KT 9999 FEW018TCU SCT040 13/11 Q1001=
200901202315 METAR LIRA 202315Z 14009KT 9999 FEW018TCU SCT040 13/11 Q1001=
200901202245 METAR LIRA 202245Z 15012KT 9999 FEW018TCU SCT040 13/12 Q1001=
200901202215 METAR LIRA 202215Z 16010KT 9999 FEW015TCU SCT040 13/11 Q1001=
200901202145 METAR LIRA 202145Z 16008KT 100V190 9999 FEW015TCU SCT040
                        13/11 Q1001=
200901202115 METAR LIRA 202115Z 16010KT 130V190 9999 FEW015TCU SCT060
                        13/11 Q1001=
200901202045 METAR LIRA 202045Z 16010KT 120V190 9999 FEW015TCU SCT060
                        13/11 Q1001=
200901202015 METAR LIRA 202015Z 15013KT 9999 FEW015TCU SCT070 13/11 Q1001=
200901201945 METAR LIRA 201945Z 15013KT 110V180 9999 FEW018TCU SCT070
                        13/11 Q1001=
200901201915 METAR LIRA 201915Z 15014G27KT 9999 FEW015 SCT070 13/11 Q1001=
200901201845 METAR LIRA 201845Z 15014KT 110V180 9999 FEW015 SCT070 13/11
                        Q1001=
200901201815 METAR LIRA 201815Z 15018KT 9999 FEW018TCU SCT030 13/10 Q1002=
200901201745 METAR LIRA 201745Z 14015KT 9999 FEW015 SCT022 13/10 Q1002=
200901201715 METAR LIRA 201715Z 14015KT 100V170 9999 FEW018TCU SCT022
                        13/10 Q1002=
200901201645 METAR LIRA 201645Z 15012G22KT 100V180 9999 FEW018TCU BKN022
                        14/11 Q1001=
200901201615 METAR LIRA 201615Z 14014KT 9999 FEW018TCU BKN022 14/11 Q1001=
200901201545 METAR LIRA 201545Z 14011KT 9999 FEW018TCU SCT022 14/11 Q1001=
200901201515 METAR LIRA 201515Z 15016KT 9999 SCT022 BKN200 14/11 Q1002=
200901201445 METAR LIRA 201445Z 15016KT 9999 SCT025 BKN200 14/10 Q1002=
200901201415 METAR LIRA 201415Z 15014KT 9999 FEW018 SCT030 14/10 Q1002=
200901201345 METAR LIRA 201345Z 15014KT 130V210 9999 FEW018 SCT030 14/10
                        Q1002=
200901201315 METAR LIRA 201315Z 15016KT 100V180 9999 FEW018 SCT030 15/10
                        Q1002=
200901201245 METAR LIRA 201245Z 16013KT 120V200 9999 FEW018 BKN030 14/10
                        Q1003=
200901201215 METAR LIRA 201215Z 16015KT 120V200 9999 FEW018 BKN030 14/10
                        Q1003=
200901201145 METAR LIRA 201145Z 16017KT 120V200 9999 FEW018 SCT030 15/10
                        Q1004=
200901201115 METAR LIRA 201115Z 17017KT 120V210 9999 FEW018 SCT030 BKN200
                        15/11 Q1004=
200901201045 METAR LIRA 201045Z 15014KT 120V210 9999 FEW018 SCT030 BKN200
                        14/11 Q1005=
200901201015 METAR LIRA 201015Z 15014KT 9999 FEW018 SCT030 BKN200 14/11
                        Q1005=
200901200945 METAR LIRA 200945Z 15015KT 9999 FEW018 SCT030 BKN200 13/10
                        Q1005=
200901200915 METAR LIRA 200915Z 15014KT 9999 SCT015 SCT030 13/10 Q1005=
200901200845 METAR LIRA 200845Z 14014KT 9999 SCT015 SCT030 12/09 Q1005=
200901200815 METAR LIRA 200815Z 14013KT 9999 SCT015 SCT030 12/09 Q1005=
200901200745 METAR LIRA 200745Z 14013KT 9999 SCT015 SCT030 12/09 Q1005=
200901200715 METAR LIRA 200715Z 14014KT 9999 SCT015 SCT030 12/09 Q1006=
200901200645 METAR LIRA 200645Z 14013KT 9999 SCT015 SCT030 12/09 Q1006=
200901200615 METAR LIRA 200615Z 15011KT 9999 FEW015 SCT025 12/09 Q1006=
200901200545 METAR LIRA 200545Z 14017KT 9999 FEW015 SCT027 12/09 Q1006=
200901200515 METAR LIRA 200515Z 15015KT 9999 FEW015 SCT027 12/09 Q1006=
200901200445 METAR LIRA 200445Z 14014KT 9999 FEW015 SCT027 12/09 Q1007=
200901200415 METAR LIRA 200415Z 16009KT 9999 FEW015 BKN027 12/08 Q1007=
200901200345 METAR LIRA 200345Z 14013KT 9999 FEW015 SCT027 12/09 Q1008=
200901200315 METAR LIRA 200315Z 16012KT 9999 FEW015 SCT070 12/09 Q1008=
200901200245 METAR LIRA 200245Z 13010KT 120V200 9999 FEW015 SCT070 12/09
                        Q1008=
200901200215 METAR LIRA 200215Z 16013KT 9999 FEW015 SCT070 12/10 Q1008=
200901200145 METAR LIRA 200145Z 16011KT 130V200 9999 FEW015 SCT070 12/10
                        Q1008=
200901200115 METAR LIRA 200115Z 15008KT 9999 FEW015 SCT070 12/10 Q1009=
200901200045 METAR LIRA 200045Z 15011KT 9999 SCT015 SCT070 12/10 Q1009=
200901200015 METAR LIRA 200015Z 15012KT 9999 SCT015 SCT070 12/10 Q1009=
200901192350 METAR LIRA 200045Z 15011KT 9999 SCT015 SCT070 12/10 Q1009=
200901192345 METAR LIRA 192345Z 16012KT 9999 SCT015 BKN070 12/10 Q1010=
200901192315 METAR LIRA 192315Z 16010KT 9999 SCT015 BKN070 12/10 Q1010=
200901192245 METAR LIRA 192245Z 16009KT 120V200 9999 FEW015 SCT023 12/10
                        Q1010=
200901192215 METAR LIRA 192215Z 15013KT 120V180 9999 FEW015 SCT023 12/09
                        Q1010=
200901192145 METAR LIRA 192145Z 15014KT 9999 FEW015 SCT023 12/09 Q1010=
200901192115 METAR LIRA 192115Z 15012KT 9999 FEW015 SCT023 12/09 Q1011=
200901192045 METAR LIRA 192045Z 15015KT 9999 FEW015 SCT023 12/09 Q1011=
200901192015 METAR LIRA 192015Z 16015KT 120V190 9999 FEW015 SCT070 12/09
                        Q1011=
200901191945 METAR LIRA 191945Z 15011KT 120V200 9999 FEW015 SCT070 12/09
                        Q1011=
200901191915 METAR LIRA 191915Z 14014KT 9999 FEW017 SCT070 12/10 Q1011=
200901191845 METAR LIRA 191845Z 14013KT 100V180 9999 FEW017 12/10 Q1011=
200901191815 METAR LIRA 191815Z 15010KT 120V180 9999 FEW017 12/09 Q1012=
200901191745 METAR LIRA 191745Z 16011KT 110V180 9999 FEW017 SCT025 12/09
                        Q1012=
200901191715 METAR LIRA 191715Z 16007KT 120V190 9999 FEW017 SCT025 12/09
                        Q1012=
200901191645 METAR LIRA 191645Z 14009KT 8000 FEW017 SCT023 13/09 Q1012=
200901191615 METAR LIRA 191615Z 15007KT 8000 SCT017 BKN023 13/09 Q1013=
200901191545 METAR LIRA 191545Z 15008KT 9999 FEW017 SCT023 13/09 Q1013=
200901191515 METAR LIRA 191515Z 16007KT 110V180 9999 SCT017 SCT023 13/10
                        Q1013=
200901191445 METAR LIRA 191445Z 16008KT 9999 SCT016 SCT023 13/10 Q1013=
200901191415 METAR LIRA 191415Z 16008KT 120V190 9999 SCT016 BKN023 13/09
                        Q1013=
200901191345 METAR LIRA 191345Z 15011KT 9999 SCT016 BKN023 13/10 Q1013=
200901191315 METAR LIRA 191315Z 16010KT 120V190 9999 SCT016 BKN025 13/10
                        Q1014=
200901191245 METAR LIRA 191245Z 15009KT 110V180 9999 SCT016 BKN025 13/09
                        Q1014=
200901191215 METAR LIRA 191215Z 15006KT 8000 FEW015 BKN025 13/09 Q1015=
200901191145 METAR LIRA 191145Z 16008KT 8000 FEW015 BKN025 12/10 Q1015=
200901191115 METAR LIRA 191115Z 16009KT 8000 FEW015 SCT025 BKN070 12/10
                        Q1015=
200901191045 METAR LIRA 191045Z 14008KT 8000 FEW009 SCT016 BKN025 12/10
                        Q1016=
200901191015 METAR LIRA 191015Z 15008KT 8000 FEW009 SCT016 BKN025 12/10
                        Q1016=
200901190945 METAR LIRA 190945Z 15007KT 8000 FEW009 SCT015 BKN025 12/10
                        Q1016=
200901190915 METAR LIRA 190915Z 17006KT 120V200 8000 SCT015 BKN025 11/10
                        Q1016=
200901190845 METAR LIRA 190845Z 15007KT 8000 -DZ SCT015 BKN025 11/10 Q1016=
200901190815 METAR LIRA 190815Z 16007KT 8000 -DZ SCT008 BKN023 11/10 Q1016=
200901190745 METAR LIRA 190745Z 16006KT 8000 -DZ SCT007 BKN023 11/09 Q1016=
200901190715 METAR LIRA 190715Z 16008KT 8000 SCT007 BKN023 11/09 Q1016=
200901190645 METAR LIRA 190645Z 15007KT 8000 SCT007 BKN023 11/09 Q1016=
200901190615 METAR LIRA 190615Z 15007KT 9999 SCT013 BKN023 11/09 Q1016=
200901190545 METAR LIRA 190545Z 16007KT 9999 FEW015 SCT025 10/09 Q1016=
200901190515 METAR LIRA 190515Z 15005KT 9999 FEW015 SCT025 10/08 Q1015=
200901190445 METAR LIRA 190445Z 15007KT 9999 FEW010 SCT025 10/08 Q1016=
200901190415 METAR LIRA 190415Z 14005KT 9999 FEW010 SCT025 11/09 Q1016=
200901190345 METAR LIRA 190345Z 15005KT 9999 FEW010 SCT025 10/08 Q1016=
200901190315 METAR LIRA 190315Z 16004KT 9999 FEW010 SCT025 10/08 Q1017=
200901190245 METAR LIRA 190245Z 17004KT 9999 FEW010 SCT025 10/08 Q1017=
200901190215 METAR LIRA 190215Z 18004KT 9999 SCT025 SCT070 10/08 Q1017=
200901190145 METAR LIRA 190145Z 16004KT 9999 SCT025 SCT070 11/08 Q1017=
200901190115 METAR LIRA 190115Z 17004KT 9999 SCT025 SCT070 11/08 Q1017=
200901190045 METAR LIRA 190045Z 19007KT 150V230 9999 SCT025 11/08 Q1017=
200901190015 METAR LIRA 190015Z 18007KT 160V230 9999 FEW010 SCT025 10/08
                        Q1017=
200901182345 METAR LIRA 182345Z 17006KT 9999 FEW010 SCT025 10/08 Q1017=
200901182315 METAR LIRA 182315Z 18004KT 9999 FEW010 SCT025 10/08 Q1017=
200901182245 METAR LIRA 182245Z 16004KT 9999 SCT025 SCT070 10/08 Q1017=
200901182215 METAR LIRA 182215Z 17005KT 140V210 9999 SCT025 11/08 Q1017=
200901182145 METAR LIRA 182145Z 18006KT 9999 FEW025 11/09 Q1017=
200901182115 METAR LIRA 182115Z 17005KT 9999 FEW025 SCT070 11/09 Q1017=
200901182045 METAR LIRA 182045Z 16006KT 9999 FEW025 SCT070 11/09 Q1016=
200901182015 METAR LIRA 182015Z 17006KT 9999 SCT015 SCT025 12/09 Q1017=
200901181945 METAR LIRA 181945Z 18006KT 9999 SCT015 SCT025 12/10 Q1017=
200901181915 METAR LIRA 181915Z 18008KT 130V240 9999 SCT015 SCT025 12/09
                        Q1017=
200901181845 METAR LIRA 181845Z 16011KT 130V190 9999 FEW015 SCT025 12/09
                        Q1017=
200901181815 METAR LIRA 181815Z 16010KT 130V200 9999 FEW015 SCT025 12/08
                        Q1017=
200901181745 METAR LIRA 181745Z 15010KT 9999 FEW015 SCT025 12/08 Q1017=
200901181715 METAR LIRA 181715Z 15012KT 9999 FEW015 SCT025 12/08 Q1017=
200901181645 METAR LIRA 181645Z 16009KT 120V180 9999 SCT018 SCT025 12/08
                        Q1017=
200901181615 METAR LIRA 181615Z 15009KT 120V180 9999 SCT018 BKN070 12/08
                        Q1017=
200901181545 METAR LIRA 181545Z 16010KT 9999 SCT018 SCT025 12/08 Q1018=
200901181515 METAR LIRA 181515Z 16007KT 130V200 9999 FEW018 BKN070 12/08
                        Q1018=
200901181445 METAR LIRA 181445Z 16011KT 9999 SCT018 SCT070 12/08 Q1018=
200901181415 METAR LIRA 181415Z 15011KT 120V180 9999 SCT018 SCT070 12/08
                        Q1018=
200901181345 METAR LIRA 181345Z 15012KT 070V170 9999 SCT018 SCT025 13/08
                        Q1019=
200901181315 METAR LIRA 181315Z 15011KT 120V190 9999 FEW018 SCT025 BKN070
                        14/08 Q1019=
200901181245 METAR LIRA 181245Z 14014KT 110V190 9999 FEW018 SCT025 13/07
                        Q1019=
200901181215 METAR LIRA 181215Z 15014KT 9999 FEW018 SCT070 13/07 Q1020=
200901181145 METAR LIRA 181145Z 15012KT 120V180 9999 FEW018 SCT070 13/07
                        Q1020=
200901181115 METAR LIRA 181115Z 17010KT 120V200 9999 FEW018 SCT070 13/06
                        Q1021=
200901181045 METAR LIRA 181045Z 15012KT 100V170 9999 FEW020 SCT070 12/06
                        Q1021=
200901181015 METAR LIRA 181015Z 14011KT 9999 FEW020 SCT070 12/07 Q1021=
200901180945 METAR LIRA 180945Z 14009KT 100V180 9999 FEW020 SCT070 11/06
                        Q1021=
200901180915 METAR LIRA 180915Z 14012KT 9999 FEW020 SCT200 10/06 Q1022=
200901180845 METAR LIRA 180845Z 15010KT 120V180 9999 FEW020 SCT200 08/05
                        Q1022=
200901180815 METAR LIRA 180815Z 13007KT 9999 FEW020 SCT200 08/05 Q1022=
200901180745 METAR LIRA 180745Z 13007KT 9999 FEW020 SCT070 07/04 Q1022=
200901180715 METAR LIRA 180715Z 14008KT 9999 FEW020 SCT070 07/04 Q1022=
200901180645 METAR LIRA 180645Z 15008KT 9999 FEW020 SCT070 07/03 Q1022=
200901180615 METAR LIRA 180615Z 16008KT 9999 FEW020 SCT070 08/03 Q1022=
200901180545 METAR LIRA 180545Z 15006KT 100V170 9999 FEW020 SCT070 08/03
                        Q1022=
200901180515 METAR LIRA 180515Z 15007KT 9999 FEW020 SCT070 07/04 Q1022=
200901180445 METAR LIRA 180445Z 14006KT 9999 FEW020 SCT070 07/04 Q1023=
200901180415 METAR LIRA 180415Z 14007KT 9999 FEW020 SCT070 07/04 Q1023=
200901180345 METAR LIRA 180345Z 13005KT 9999 FEW020 SCT030 06/05 Q1023=
200901180315 METAR LIRA 180315Z 13004KT 9999 FEW020 SCT025 05/04 Q1024=
200901180245 METAR LIRA 180245Z 10003KT 9999 FEW020 SCT030 05/04 Q1024=
200901180215 METAR LIRA 180215Z 10002KT 9999 FEW020 SCT030 05/04 Q1024=
200901180145 METAR LIRA 180145Z 16001KT 9999 FEW020 06/04 Q1024=
200901180115 METAR LIRA 180115Z 11002KT 9999 FEW020 06/04 Q1024=
200901180045 METAR LIRA 180045Z 07002KT 9999 FEW020 06/04 Q1024=
200901180015 METAR LIRA 180015Z 03001KT 9999 FEW020 06/04 Q1024=
200901172345 METAR LIRA 172345Z 10006KT 9999 FEW020 06/04 Q1024=
200901172315 METAR LIRA 172315Z 12003KT 9999 FEW010 06/04 Q1024=
200901172245 METAR LIRA 172245Z 12003KT 9999 FEW010 06/04 Q1024=
200901172215 METAR LIRA 172215Z 11003KT 9999 FEW010 05/04 Q1024=
200901172145 METAR LIRA 172145Z 12003KT 9999 FEW010 05/03 Q1024=
200901172115 METAR LIRA 172115Z 13002KT 9999 FEW080 06/04 Q1024=
200901172045 METAR LIRA 172045Z 11004KT 9999 FEW080 07/05 Q1024=
200901172015 METAR LIRA 172015Z 11003KT 9999 FEW080 07/06 Q1024=
200901171945 METAR LIRA 171945Z 13002KT 9999 FEW080 07/06 Q1024=
200901171915 METAR LIRA 171915Z 13003KT 9999 FEW080 07/06 Q1024=
200901171845 METAR LIRA 171845Z 13003KT 9999 FEW080 07/05 Q1024=
200901171815 METAR LIRA 171815Z 16004KT 9999 FEW080 08/05 Q1024=
200901171745 METAR LIRA 171745Z 15003KT 9999 FEW070 08/05 Q1024=
200901171715 METAR LIRA 171715Z 16001KT 9999 FEW020 09/06 Q1024=
200901171645 METAR LIRA 171645Z 25002KT 9999 FEW020 11/05 Q1024=
200901171615 METAR LIRA 171615Z 25002KT 9999 FEW020 12/06 Q1024=
200901171545 METAR LIRA 171545Z 26003KT 9999 FEW020 13/04 Q1024=
200901171515 METAR LIRA 171515Z 27005KT 9999 FEW020 13/04 Q1024=
200901171445 METAR LIRA 171445Z 26004KT 9999 FEW020 13/04 Q1024=
200901171415 METAR LIRA 171415Z 26002KT 9999 FEW020 13/05 Q1024=
200901171345 METAR LIRA 171345Z 34002KT 9999 FEW020 13/05 Q1024=
200901171315 METAR LIRA 171315Z 33001KT 9999 FEW020 13/05 Q1024=
200901171245 METAR LIRA 171245Z 35002KT 9999 FEW020 12/06 Q1025=
200901171215 METAR LIRA 171215Z 29002KT 9999 FEW020 SCT200 12/06 Q1025=
200901171145 METAR LIRA 171145Z 02002KT 9999 FEW020 BKN200 10/05 Q1026=
200901171115 METAR LIRA 171115Z 36002KT 9999 FEW020 BKN200 10/05 Q1026=
200901171045 METAR LIRA 171045Z 01003KT CAVOK 09/05 Q1026=
200901171015 METAR LIRA 171015Z 34002KT CAVOK 08/05 Q1026=
200901170945 METAR LIRA 170945Z 32005KT 280V340 CAVOK 07/04 Q1025=
200901170915 METAR LIRA 170915Z 00000KT CAVOK 06/04 Q1025=
200901170845 METAR LIRA 170845Z 06002KT CAVOK 04/03 Q1025=
200901170815 METAR LIRA 170815Z 03002KT CAVOK 03/02 Q1025=
200901170745 METAR LIRA 170745Z 04003KT CAVOK 02/02 Q1025=
200901170715 METAR LIRA 170715Z 02003KT CAVOK 01/01 Q1025=
200901170645 METAR LIRA 170645Z 05003KT 6000 NSC 02/01 Q1025=
200901170615 METAR LIRA 170615Z 04004KT 6000 NSC 02/01 Q1024=
200901170545 METAR LIRA 170545Z 05004KT 8000 NSC 02/01 Q1024=
200901170515 METAR LIRA 170515Z 04002KT 8000 NSC 02/01 Q1024=
200901170445 METAR LIRA 170445Z 03002KT 8000 NSC 02/02 Q1024=
200901170415 METAR LIRA 170415Z 01001KT 8000 NSC 02/02 Q1024=
200901170345 METAR LIRA 170345Z 04003KT 8000 FEW080 03/02 Q1024=
200901170315 METAR LIRA 170315Z 04004KT 8000 FEW080 02/02 Q1024=
200901170245 METAR LIRA 170245Z 03003KT 7000 FEW010 02/02 Q1024=
200901170215 METAR LIRA 170215Z 05002KT 7000 FEW010 03/02 Q1024=
200901170145 METAR LIRA 170145Z 35001KT 7000 FEW010 03/02 Q1024=
200901170115 METAR LIRA 170115Z 00000KT 8000 FEW080 04/03 Q1023=
200901170045 METAR LIRA 170045Z 08002KT 8000 FEW080 04/03 Q1023=
200901170015 METAR LIRA 170015Z 11002KT 8000 FEW070 04/04 Q1023=
200901162345 METAR LIRA 162345Z 06002KT 7000 FEW010 04/03 Q1023=
200901162315 METAR LIRA 162315Z 03001KT CAVOK 05/04 Q1023=
200901162245 METAR LIRA 162245Z 36002KT CAVOK 05/03 Q1023=
200901162215 METAR LIRA 162215Z 35001KT CAVOK 06/04 Q1023=
200901162145 METAR LIRA 162145Z 09003KT CAVOK 06/04 Q1023=
200901162115 METAR LIRA 162115Z 11002KT CAVOK 06/04 Q1023=
200901162045 METAR LIRA 162045Z 09002KT CAVOK 06/04 Q1023=
200901162015 METAR LIRA 162015Z 10003KT CAVOK 06/04 Q1023=
200901161945 METAR LIRA 161945Z 13002KT CAVOK 06/04 Q1023=
200901161915 METAR LIRA 161915Z 12002KT CAVOK 06/05 Q1023=
200901161845 METAR LIRA 161845Z 00000KT CAVOK 07/05 Q1022=
200901161815 METAR LIRA 161815Z 25002KT CAVOK 08/05 Q1022=
200901161745 METAR LIRA 161745Z 11004KT CAVOK 08/06 Q1022=
200901161715 METAR LIRA 161715Z 10002KT CAVOK 09/07 Q1022=
200901161645 METAR LIRA 161645Z 08002KT 9000 FEW018 10/07 Q1022=
200901161615 METAR LIRA 161615Z 06001KT 9999 FEW018 10/06 Q1022=
200901161545 METAR LIRA 161545Z 06001KT 9999 FEW020 11/06 Q1022=
200901161515 METAR LIRA 161515Z 06002KT 9999 FEW020 11/06 Q1022=
200901161445 METAR LIRA 161445Z 32003KT 9999 SCT018 11/07 Q1022=
200901161415 METAR LIRA 161415Z 36002KT 9999 SCT018 11/08 Q1022=
200901161345 METAR LIRA 161345Z 34004KT 9999 SCT018 11/08 Q1022=
200901161315 METAR LIRA 161315Z 32004KT 9999 SCT018 11/09 Q1022=
200901161245 METAR LIRA 161245Z 03003KT 9999 FEW018 09/07 Q1022=
200901161215 METAR LIRA 161215Z 03003KT 9999 SCT018 08/07 Q1022=
200901161145 METAR LIRA 161145Z 03004KT 9999 FEW015 SCT060 06/06 Q1022=
200901161115 METAR LIRA 161115Z 36004KT 9999 FEW015 SCT060 05/05 Q1022=
200901161045 METAR LIRA 161045Z 35004KT 290V050 9999 FEW015 SCT060 05/04
                        Q1022=
200901161015 METAR LIRA 161015Z 03004KT 010V080 0700 R15//// FG BKN005
                        05/04 Q1021=
200901160945 METAR LIRA 160945Z 05005KT 350V070 0200 FG BKN002 04/04 Q1021=
200901160915 METAR LIRA 160915Z 04004KT 0200 R15//// FG BKN002 04/03 Q1021=
200901160845 METAR LIRA 160845Z 04003KT 0200 FG BKN002 03/03 Q1021=
200901160815 METAR LIRA 160815Z 02004KT 0200 R15//// FG BKN002 03/03 Q1020=
200901160745 METAR LIRA 160745Z 04004KT 0200 R15//// FG BKN002 03/02 Q1020=
200901160715 METAR LIRA 160715Z 01004KT 0200 R15//// FG BKN002 02/02 Q1020=
200901160645 METAR LIRA 160645Z 04005KT 360V080 0200 FG BKN002 03/02 Q1020=
200901160615 METAR LIRA 160615Z 00005KT 0200 R15//// FG BKN002 03/02 Q1019=
200901160545 METAR LIRA 160545Z 03003KT 0200 FG BKN002 03/02 Q1019=
200901160515 METAR LIRA 160515Z /////KT 2500 1200N R15//// BR BKN002 03/02
                        Q1019=
200901160445 METAR LIRA 160445Z 01003KT 5000 BR FEW008 03/03 Q1019=
200901160415 METAR LIRA 160415Z 06003KT 2000 BR SCT003 03/03 Q1019=
200901160345 METAR LIRA 160345Z 06004KT 0200 R15//// FG BKN001 03/03 Q1019=
200901160315 METAR LIRA 160315Z 36004KT 4000 BR FEW004 03/03 Q1019=
200901160245 METAR LIRA 160245Z 03004KT 5000 BR FEW007 04/04 Q1019=
200901160215 METAR LIRA 160215Z 06004KT 5000 BR FEW007 04/03 Q1019=
200901160145 METAR LIRA 160145Z 03002KT 5000 BR FEW007 04/03 Q1019=
200901160115 METAR LIRA 160115Z 02003KT 0600 R15//// FG BKN001 04/03 Q1019=
200901160045 METAR LIRA 160045Z 01001KT 7000 2000NE MIFG FEW010 04/04
                        Q1019=
200901160015 METAR LIRA 160015Z 09001KT 8000 FEW010 05/04 Q1019=
200901152345 METAR LIRA 152345Z 00000KT 9999 FEW010 05/04 Q1019=
200901152315 METAR LIRA 152315Z 07002KT 9999 FEW010 06/04 Q1019=
200901152245 METAR LIRA 152245Z 02002KT CAVOK 06/04 Q1019=
200901152215 METAR LIRA 152215Z 07003KT 9999 FEW030 07/05 Q1019=
200901152145 METAR LIRA 152145Z 16001KT 9999 FEW025 07/05 Q1019=
200901152115 METAR LIRA 152115Z 10002KT 9999 FEW025 07/05 Q1019=
200901152045 METAR LIRA 152045Z 10006KT 9999 FEW020 08/07 Q1019=
200901152015 METAR LIRA 152015Z 12004KT 9999 FEW017 SCT070 08/07 Q1019=
200901151945 METAR LIRA 151945Z 14001KT 9999 FEW017 SCT070 08/07 Q1018=
200901151915 METAR LIRA 151915Z 15004KT 9999 FEW015 SCT030 08/07 Q1018=
200901151845 METAR LIRA 151845Z 15002KT 9999 FEW018 SCT030 07/07 Q1018=
200901151815 METAR LIRA 151815Z 23003KT 9999 FEW015 SCT070 07/06 Q1018=
200901151745 METAR LIRA 151745Z 13005KT 9999 FEW015 08/06 Q1017=
200901151715 METAR LIRA 151715Z 12002KT CAVOK 09/07 Q1017=
200901151645 METAR LIRA 151645Z 00000KT 9999 FEW014 10/07 Q1017=
200901151615 METAR LIRA 151615Z 00000KT 9999 FEW013 10/07 Q1016=
200901151545 METAR LIRA 151545Z 00000KT 9999 FEW015 SCT025 11/07 Q1016=
200901151515 METAR LIRA 151515Z 00000KT 9999 FEW015 SCT025 11/07 Q1016=
200901151445 METAR LIRA 151445Z 28001KT 9999 FEW015 SCT025 11/07 Q1016=
200901151415 METAR LIRA 151415Z 29003KT 9999 FEW015 BKN023 11/08 Q1016=
200901151345 METAR LIRA 151345Z 28004KT 9999 FEW015 SCT025 10/09 Q1016=
200901151315 METAR LIRA 151315Z 27004KT 9000 FEW015 FEW018TCU SCT025 10/09
                        Q1015=
200901151245 METAR LIRA 151245Z 16006KT 8000 -RA FEW015 SCT018TCU BKN025
                        11/08 Q1015=
200901151215 METAR LIRA 151215Z 15012KT 6000 -RA SCT010 SCT025 BKN060
                        11/08 Q1015=
200901151145 METAR LIRA 151145Z 16008KT 6000 -RA FEW007 SCT025 BKN070
                        12/08 Q1015=
200901151115 METAR LIRA 151115Z 15013KT 6000 -RA FEW007 SCT025 BKN070
                        11/07 Q1015=
200901151045 METAR LIRA 151045Z 14014KT 9000 FEW015 SCT030 10/07 Q1015=
200901151015 METAR LIRA 151015Z 21004KT 9000 -RA SCT014 BKN025 10/07 Q1016=
200901150945 METAR LIRA 150945Z 16010KT 6000 -RA FEW007 BKN025 10/08 Q1016=
200901150915 METAR LIRA 150915Z 00000KT 9999 -RA FEW015 BKN030 10/08 Q1015=
200901150900 METAR LIRA CONTUS=
200901150845 METAR LIRA 150845Z 00000KT 9999 -DZ FEW015 BKN030 10/07 Q1015=
200901150815 METAR LIRA 150815Z 08003KT 9999 -DZ FEW015 BKN030 09/07 Q1015=
200901150800 METAR LIRA CONTUS=
200901150745 METAR LIRA 150745Z 11008KT 9999 -DZ FEW015 BKN030 09/05 Q1014=
200901150715 METAR LIRA 150715Z 13005KT 9999 -DZ FEW015 BKN030 09/05 Q1014=
200901150645 METAR LIRA 150645Z 15005KT 9999 FEW015 BKN030 09/05 Q1014=
200901150615 METAR LIRA 150615Z 15003KT 9999 FEW015 BKN030 08/05 Q1014=
200901150545 METAR LIRA 150545Z 14006KT 9999 FEW015 SCT030 07/05 Q1014=
200901150515 METAR LIRA 150515Z 13007KT 9999 FEW015 SCT030 07/05 Q1013=
200901150445 METAR LIRA 150445Z 11003KT 9999 FEW015 SCT030 07/05 Q1013=
200901150415 METAR LIRA 150415Z 11004KT 9999 FEW015 SCT030 07/06 Q1013=
200901150345 METAR LIRA 150345Z 11004KT 9999 FEW015 SCT030 07/05 Q1013=
200901150315 METAR LIRA 150315Z 11003KT 9999 FEW015 SCT070 07/06 Q1013=
200901150245 METAR LIRA 150245Z 14004KT 9999 FEW015 SCT080 07/06 Q1013=
200901150215 METAR LIRA 150215Z 13005KT 9999 FEW015 09/07 Q1013=
200901150145 METAR LIRA 150145Z 15005KT 9999 FEW015 FEW017TCU 09/07 Q1013=
200901150115 METAR LIRA 150115Z 16006KT 9999 FEW015 FEW017TCU 09/08 Q1013=
200901150045 METAR LIRA 150045Z 16006KT 9999 FEW015 FEW017TCU SCT070 09/07
                        Q1013=
200901150015 METAR LIRA 150015Z 18005KT 9999 FEW015 FEW017TCU SCT070 09/08
                        Q1012=
200901142350 METAR LIRA 150045Z 16006KT 9999 FEW015 FEW017TCU SCT070 09/07
                        Q1013=
200901142345 METAR LIRA 142345Z 15007KT 9999 FEW015 SCT070 09/08 Q1012=
200901142315 METAR LIRA 142315Z 18005KT 9999 FEW015 SCT070 09/07 Q1012=
200901142245 METAR LIRA 142245Z 16007KT 8000 -RA FEW012 SCT025 BKN070
                        08/07 Q1012=
200901142215 METAR LIRA 142215Z 13002KT 9999 FEW030 SCT070 08/06 Q1011=
200901142145 METAR LIRA 142145Z 15004KT 9999 FEW030 SCT200 08/06 Q1011=
200901142115 METAR LIRA 142115Z 13004KT 9999 FEW015 SCT030 08/07 Q1011=
200901142045 METAR LIRA 142045Z 14004KT 100V180 9999 FEW015 SCT030 08/07
                        Q1011=
200901142015 METAR LIRA 142015Z 15005KT 9999 FEW015 SCT070 08/07 Q1011=
200901141945 METAR LIRA 141945Z 17005KT 9999 FEW015 SCT070 09/07 Q1010=
200901141915 METAR LIRA 141915Z 17004KT 9999 FEW015 SCT070 09/08 Q1010=
200901141845 METAR LIRA 141845Z 17005KT 9999 SCT010 SCT070 09/08 Q1010=
200901141815 METAR LIRA 141815Z 17003KT 9999 SCT008 SCT070 10/09 Q1009=
200901141745 METAR LIRA 141745Z 17003KT 7000 -DZ SCT004 SCT025 BKN070
                        10/09 Q1009=
200901141715 METAR LIRA 141715Z 20003KT 5000 -DZ BR SCT002 SCT022 BKN070
                        11/09 Q1008=
200901141645 METAR LIRA 141645Z 20006KT 180V260 5000 -DZ BR SCT002 SCT022
                        BKN070 11/10 Q1008=
200901141615 METAR LIRA 141615Z 22002KT 9999 FEW014 SCT022 BKN060 11/10
                        Q1008=
200901141545 METAR LIRA 141545Z 26003KT 210V300 9999 SCT022 BKN070 11/08
                        Q1007=
200901141515 METAR LIRA 141515Z 21003KT 9999 SCT022 BKN070 11/08 Q1007=
200901141445 METAR LIRA 141445Z 17003KT 9999 SCT022 BKN070 11/07 Q1006=
200901141415 METAR LIRA 141415Z 13003KT 9999 SCT022 BKN070 11/07 Q1006=
200901141345 METAR LIRA 141345Z 16002KT 9999 SCT025 BKN070 11/07 Q1006=
200901141315 METAR LIRA 141315Z 16001KT 9999 SCT025 BKN070 10/07 Q1005=
200901141245 METAR LIRA 141245Z 33001KT 9999 SCT025 BKN070 10/07 Q1005=
200901141215 METAR LIRA 141215Z 03004KT 9999 SCT025 BKN070 10/07 Q1005=
200901141145 METAR LIRA 141145Z 03003KT 9999 SCT025 BKN070 10/07 Q1005=
200901141115 METAR LIRA 141115Z 04004KT 350V070 9999 SCT025 BKN070 10/07
                        Q1005=
200901141045 METAR LIRA 141045Z 03003KT 9999 SCT022 BKN070 10/07 Q1005=
200901141015 METAR LIRA 141015Z 02004KT 360V100 9999 SCT022 BKN070 09/07
                        Q1005=
200901140945 METAR LIRA 140945Z 05006KT 350V100 9999 SCT022 BKN070 09/07
                        Q1005=
200901140915 METAR LIRA 140915Z 04007KT 330V060 9999 SCT022 BKN070 08/07
                        Q1005=
200901140845 METAR LIRA 140845Z 01005KT 330V060 9999 SCT022 BKN070 08/07
                        Q1004=
200901140815 METAR LIRA 140815Z 01006KT 310V060 9999 SCT022 BKN070 07/07
                        Q1004=
200901140745 METAR LIRA 140745Z 03004KT 360V090 9999 -RA SCT022 BKN070
                        07/07 Q1004=
200901140715 METAR LIRA 140715Z 05003KT 9999 -RA SCT025 BKN070 08/07 Q1004=
200901140645 METAR LIRA 140645Z 03004KT 9999 -RA SCT025 BKN070 08/07 Q1004=
200901140615 METAR LIRA 140615Z 03005KT 340V070 9999 -RA SCT025 BKN070
                        08/07 Q1004=
200901140545 METAR LIRA 140545Z 35006KT 320V060 9999 -RA SCT025 BKN070
                        08/07 Q1004=
200901140515 METAR LIRA 140515Z 01004KT 9999 -RA SCT025 BKN070 08/06 Q1003=
200901140445 METAR LIRA 140445Z 03004KT 9999 -RA FEW010 SCT025 08/06 Q1003=
200901140415 METAR LIRA 140415Z 01004KT 9999 -RA FEW010 SCT025 08/06 Q1003=
200901140345 METAR LIRA 140345Z 05003KT 9999 FEW010 SCT025 08/06 Q1003=
200901140315 METAR LIRA 140315Z 35005KT 320V030 9999 FEW010 SCT025 08/07
                        Q1003=
200901140245 METAR LIRA 140245Z 36004KT 330V040 9999 FEW010 SCT025 08/06
                        Q1003=
200901140215 METAR LIRA 140215Z 36006KT 330V040 9999 FEW010 SCT025 08/07
                        Q1003=
200901140200 METAR LIRA INT LOW CLDS MVNG SW=
200901140145 METAR LIRA 140145Z 01004KT 9999 FEW010 SCT025 08/06 Q1003=
200901140115 METAR LIRA 140115Z 01006KT 330V060 9999 FEW010 SCT025 08/07
                        Q1003=
200901140045 METAR LIRA 140045Z 03003KT 9999 FEW010 SCT025 08/07 Q1003=
200901140015 METAR LIRA 140015Z 02007KT 330V060 9999 FEW010 SCT025 08/07
                        Q1004=
200901132350 METAR LIRA 140045Z 03003KT 9999 FEW010 SCT025 08/07 Q1003=
200901132345 METAR LIRA 132345Z 02008KT 340V070 9999 FEW010 SCT025 08/07
                        Q1004=
200901132315 METAR LIRA 132315Z 03009KT 350V070 9999 FEW010 SCT025 08/07
                        Q1004=
200901132245 METAR LIRA 132245Z 03008KT 330V080 8000 FEW010 SCT025 08/07
                        Q1004=
200901132215 METAR LIRA 132215Z 03008KT 340V070 8000 -RA SCT010 BKN025
                        08/07 Q1005=
200901132145 METAR LIRA 132145Z 01008KT 320V040 8000 -RA SCT010 BKN025
                        08/07 Q1005=
200901132115 METAR COR LIRA 132115Z 02010KT 330V070 8000 -RA SCT010 BKN025
                        08/07 Q1005=
200901132045 METAR LIRA 132045Z 02009KT 330V100 8000 -RA SCT010 BKN025
                        08/07 Q1006=
200901132015 METAR LIRA 132015Z 02009KT 330V100 6000 -RA SCT010 BKN025
                        08/07 Q1006=
200901131945 METAR LIRA 131945Z 02008KT 330V070 6000 -RA SCT010 BKN025
                        08/08 Q1007=
200901131915 METAR LIRA 131915Z 03006KT 330V090 5000 -RA BR SCT007 BKN025
                        08/07 Q1007=
200901131845 METAR LIRA 131845Z 02006KT 330V070 5000 -RA BR SCT007 BKN025
                        08/08 Q1007=
200901131815 METAR LIRA 131815Z 01005KT 320V030 5000 -RA BR SCT009 BKN025
                        08/08 Q1008=
200901131745 METAR LIRA 131745Z 01006KT 320V040 5000 -RA BR SCT009 BKN025
                        08/08 Q1008=
200901131715 METAR LIRA 131715Z 01004KT 5000 -RA BR SCT009 BKN025 08/07
                        Q1008=
200901131645 METAR LIRA 131645Z 36004KT 5000 -RA BR SCT009 BKN025 09/07
                        Q1008=
200901131615 METAR LIRA 131615Z 02004KT 5000 -RA BR SCT009 BKN025 09/07
                        Q1008=
200901131545 METAR LIRA 131545Z 02008KT 320V080 5000 -RA BR SCT009 SCT025
                        09/07 Q1009=
200901131515 METAR LIRA 131515Z 02006KT 300V060 7000 -RA SCT030 SCT070
                        09/07 Q1009=
200901131445 METAR LIRA 131445Z 36005KT 340V060 7000 -RA FEW016 BKN035
                        09/07 Q1009=
200901131415 METAR LIRA 131415Z 04006KT 310V080 7000 -RA FEW016 BKN035
                        09/07 Q1009=
200901131345 METAR LIRA 131345Z 04010KT 350V050 9999 -RA FEW016 SCT035
                        BKN070 10/06 Q1010=
200901131315 METAR LIRA 131315Z 04007KT 340V070 9999 -RA FEW016 BKN070
                        10/06 Q1010=
200901131245 METAR LIRA 131245Z 02007KT 320V090 9999 FEW016 BKN070 10/05
                        Q1011=
200901131215 METAR LIRA 131215Z 05009KT 9999 FEW016 BKN070 10/05 Q1012=
200901131145 METAR LIRA 131145Z 01005KT 9999 FEW016 BKN070 10/05 Q1012=
200901131045 METAR LIRA 131045Z 03008KT 340V090 9999 FEW016 BKN070 09/05
                        Q1013=
200901131015 METAR LIRA 131015Z 03009KT 330V070 8000 FEW016 BKN070 09/05
                        Q1014=
200901130945 METAR LIRA 130945Z 03010KT 350V080 8000 FEW016 BKN070 09/04
                        Q1015=
200901130915 METAR LIRA 130915Z 02008KT 340V060 8000 FEW016 BKN070 08/04
                        Q1015=
200901130845 METAR LIRA 130845Z 04011KT 360V070 8000 FEW016 BKN070 08/04
                        Q1015=
200901130815 METAR LIRA 130815Z /////KT 8000 FEW015 SCT030 BKN070 07/04
                        Q1016=
200901130745 METAR LIRA 130745Z /////KT 8000 FEW015 SCT030 BKN070 08/05
                        Q1016=
200901130715 METAR LIRA 130715Z /////KT 8000 FEW015 BKN070 07/04 Q1016=
200901130700 METAR LIRA CONTUS=
200901130645 METAR LIRA 130645Z /////KT 8000 FEW015 BKN070 07/04 Q1016=
200901130615 METAR LIRA 130615Z /////KT 8000 FEW015 SCT070 07/04 Q1016=
200901130600 METAR LIRA INT=
200901130545 METAR LIRA 130545Z /////KT 8000 FEW015 SCT080 07/04 Q1017=
200901130515 METAR COR LIRA 130515Z /////KT 8000 FEW015 BKN080 07/05 Q1017=
200901130445 METAR LIRA 130445Z /////KT 8000 FEW015 SCT025 07/06 Q1018=
200901130415 METAR LIRA 130415Z /////KT 8000 FEW015 SCT025 07/06 Q1018=
200901130345 METAR LIRA 130345Z /////KT 8000 FEW015 SCT025 07/05 Q1018=
200901130315 METAR LIRA 130315Z /////KT 9000 FEW025 BKN070 06/05 Q1019=
200901130245 METAR LIRA 130245Z /////KT 9000 FEW025 BKN070 07/06 Q1019=
200901130215 METAR LIRA 130215Z /////KT 8000 FEW015 SCT025 BKN070 07/05
                        Q1020=
200901130145 METAR LIRA 130145Z /////KT 8000 FEW015 SCT025 BKN070 06/04
                        Q1020=
200901130115 METAR LIRA 130115Z /////KT 8000 FEW015 SCT025 06/04 Q1020=
200901130045 METAR LIRA 130045Z /////KT 8000 FEW015 BKN025 06/05 Q1021=
200901130015 METAR LIRA 130015Z /////KT 9999 FEW015 BKN025 07/05 Q1021=
200901122345 METAR LIRA 122345Z /////KT 8000 FEW015 BKN025 07/06 Q1021=
200901122315 METAR LIRA 122315Z /////KT 8000 FEW015 BKN025 07/06 Q1021=
200901122245 METAR LIRA 122245Z /////KT 8000 FEW015 BKN025 07/06 Q1021=
200901122215 METAR LIRA 122215Z /////KT 8000 FEW015 BKN025 07/06 Q1022=
200901122145 METAR LIRA 122145Z /////KT 8000 FEW015 BKN025 07/06 Q1022=
200901122115 METAR LIRA 122115Z /////KT 8000 FEW015 SCT025 07/06 Q1022=
200901122045 METAR LIRA 122045Z /////KT 8000 FEW015 SCT025 07/06 Q1023=
200901122015 METAR LIRA 122015Z /////KT 7000 FEW015 BKN025 07/06 Q1023
                        RERA=
200901121945 METAR LIRA 121945Z /////KT 7000 FEW015 BKN025 07/06 Q1023
                        RERA=
200901121915 METAR LIRA 121915Z /////KT 7000 -RA FEW015 BKN025 07/06 Q1023=
200901121845 METAR LIRA 121845Z /////KT 6000 -RA FEW015 SCT025 07/07 Q1023=
200901121815 METAR LIRA 121815Z /////KT 5000 -RA BR FEW014 BKN023 07/07
                        Q1023=
200901121745 METAR LIRA 121745Z /////KT 5000 -RA BR FEW014 BKN023 08/07
                        Q1023=
200901121715 METAR LIRA 121715Z /////KT 6000 -RA FEW015 SCT025 08/07 Q1023=
200901121645 METAR LIRA 121645Z /////KT 6000 -RA FEW015 SCT025 BKN070
                        08/08 Q1023=
200901121615 METAR LIRA 121615Z /////KT 6000 -RA FEW015 SCT025 BKN070
                        09/08 Q1023=
200901121545 METAR LIRA 121545Z /////KT 7000 -RA FEW016 SCT025 BKN070
                        09/08 Q1023=
200901121515 METAR LIRA 121515Z /////KT 8000 -RA FEW016 SCT025 BKN070
                        10/07 Q1023=
200901121445 METAR LIRA 121445Z /////KT 8000 -RA FEW017 SCT025 BKN070
                        10/07 Q1023=
200901121415 METAR LIRA 121415Z /////KT 8000 -RA FEW017 SCT025 BKN070
                        10/07 Q1023=
200901121345 METAR LIRA 121345Z /////KT 8000 -RA FEW017 SCT025 BKN070
                        11/07 Q1023=
200901121315 METAR LIRA 121315Z /////KT 8000 -RA FEW017 SCT030 BKN070
                        11/07 Q1023=
200901121245 METAR LIRA 121245Z /////KT 9999 FEW017 SCT030 BKN070 11/07
                        Q1023=
200901121215 METAR LIRA 121215Z /////KT 9999 FEW017 SCT040 BKN070 11/07
                        Q1024=
200901121145 METAR LIRA 121145Z /////KT 9999 FEW020 SCT040 BKN070 10/07
                        Q1024=
200901121115 METAR LIRA 121115Z /////KT 9999 FEW020 SCT040 BKN070 08/04
                        Q1025=
200901121045 METAR LIRA 121045Z /////KT 9999 -RA SCT040 BKN070 07/04 Q1025=
200901121015 METAR LIRA 121015Z /////KT 9999 -RA SCT040 BKN070 07/04 Q1026=
200901120945 METAR LIRA 120945Z /////KT 9999 SCT040 BKN070 07/03 Q1026=
200901120915 METAR LIRA 120915Z /////KT 9999 FEW040 BKN070 04/02 Q1026=
200901120845 METAR LIRA 120845Z /////KT 9999 FEW040 BKN070 04/02 Q1026=
200901120815 METAR LIRA 120815Z /////KT 9999 FEW040 BKN070 04/02 Q1026=
200901120800 METAR LIRA CONTUS=
200901120745 METAR LIRA 120745Z /////KT 9999 FEW050 BKN070 04/02 Q1025=
200901120715 METAR LIRA 120715Z /////KT 9999 FEW040 SCT070 04/02 Q1025=
200901120700 METAR LIRA INTE LOW CLDS MVG S=
200901120645 METAR LIRA 120645Z /////KT 9999 FEW040 SCT070 04/02 Q1025=
200901120615 METAR LIRA 120615Z /////KT 9999 FEW040 04/02 Q1025=
200901120545 METAR LIRA 120545Z /////KT 9999 FEW040 04/02 Q1025=
200901120515 METAR LIRA 120515Z /////KT 9999 FEW040 04/02 Q1025=
200901120445 METAR LIRA 120445Z /////KT 9999 SCT060 04/02 Q1025=
200901120415 METAR LIRA 120415Z /////KT 9999 SCT070 SCT200 04/01 Q1025=
200901120400 METAR LIRA INTER=
200901120345 METAR LIRA 120345Z /////KT 9999 SCT070 SCT200 04/02 Q1025=
200901120315 METAR LIRA 120315Z /////KT 9999 SCT070 04/02 Q1025=
200901120245 METAR LIRA 120245Z /////KT 9999 SCT060 04/02 Q1025=
200901120215 METAR LIRA 120215Z /////KT 9999 SCT060 04/02 Q1025=
200901120145 METAR LIRA 120145Z /////KT 9999 SCT080 04/03 Q1025=
200901120115 METAR LIRA 120115Z /////KT 9999 FEW080 05/04 Q1025=
200901120045 METAR LIRA 120045Z /////KT CAVOK 05/04 Q1025=
200901120015 METAR LIRA 120015Z /////KT CAVOK 05/04 Q1025=
200901112350 METAR LIRA 120045Z /////KT CAVOK 05/04 Q1025=
200901112345 METAR LIRA 112345Z /////KT 9999 FEW060 05/04 Q1026=
200901112315 METAR LIRA 112315Z /////KT 9999 SCT060 05/04 Q1026=
200901112245 METAR LIRA 112245Z /////KT 9999 SCT060 06/04 Q1026=
200901112215 METAR LIRA 112215Z /////KT 9999 FEW025 06/04 Q1026=
200901112145 METAR LIRA 112145Z /////KT 9999 FEW025 06/04 Q1026=
200901112115 METAR LIRA 112115Z /////KT 9999 FEW025 07/04 Q1025=
200901112045 METAR LIRA 112045Z /////KT CAVOK 07/04 Q1025=
200901112015 METAR LIRA 112015Z /////KT CAVOK 07/03 Q1025=
200901111945 METAR LIRA 111945Z /////KT CAVOK 08/04 Q1025=
200901111915 METAR LIRA 111915Z /////KT CAVOK 08/04 Q1025=
200901111845 METAR LIRA 111845Z /////KT CAVOK 08/05 Q1025=
200901111815 METAR LIRA 111815Z /////KT CAVOK 08/03 Q1025=
200901111745 METAR LIRA 111745Z /////KT CAVOK 10/04 Q1025=
200901111715 METAR LIRA 111715Z /////KT CAVOK 11/04 Q1025=
200901111645 METAR LIRA 111645Z /////KT CAVOK 12/04 Q1025=
200901111615 METAR LIRA 111615Z /////KT 9999 FEW020 13/04 Q1025=
200901111545 METAR LIRA 111545Z /////KT 9999 FEW020 13/04 Q1025=
200901111515 METAR LIRA 111515Z /////KT 9999 FEW020 13/04 Q1025=
200901111445 METAR LIRA 111445Z /////KT 9999 FEW020 12/06 Q1025=
200901111415 METAR LIRA 111415Z /////KT 9999 FEW020 12/05 Q1025=
200901111345 METAR LIRA 111345Z /////KT 9999 FEW020 12/05 Q1025=
200901111315 METAR LIRA 111315Z /////KT 9999 FEW020 12/05 Q1025=
200901111245 METAR LIRA 111245Z /////KT 9999 FEW020 11/05 Q1025=
200901111215 METAR LIRA 111215Z /////KT 9999 FEW020 11/05 Q1025=
200901111145 METAR LIRA 111145Z /////KT 9999 FEW020 10/05 Q1025=
200901111115 METAR LIRA 111115Z /////KT CAVOK 10/06 Q1025=
200901111045 METAR LIRA 111045Z /////KT CAVOK 10/05 Q1025=
200901111015 METAR LIRA 111015Z /////KT CAVOK 09/05 Q1025=
200901110945 METAR LIRA 110945Z /////KT CAVOK 07/03 Q1026=
200901110915 METAR LIRA 110915Z /////KT CAVOK 07/03 Q1025=
200901110845 METAR LIRA 110845Z /////KT 9999 FEW070 07/03 Q1025=
200901110815 METAR LIRA 110815Z /////KT 9999 FEW070 06/03 Q1025=
200901110745 METAR LIRA 110745Z /////KT 9999 FEW070 05/03 Q1025=
200901110715 METAR LIRA 110715Z /////KT 9999 FEW070 05/02 Q1024=
200901110645 METAR LIRA 110645Z /////KT 9999 FEW070 05/03 Q1024=
200901110615 METAR LIRA 110615Z /////KT 9999 FEW070 05/03 Q1024=
200901110445 METAR LIRA 110445Z /////KT 9999 FEW025 SCT060 05/03 Q1024=
200901110415 METAR LIRA 110415Z /////KT 9999 FEW025 BKN060 05/03 Q1024=
200901110345 METAR LIRA 110345Z /////KT 9999 FEW025 BKN060 05/03 Q1024=
200901110315 METAR LIRA 110315Z /////KT 9999 FEW025 SCT060 05/03 Q1023=
200901110245 METAR LIRA 110245Z /////KT 9999 FEW025 SCT060 05/03 Q1023=
200901110215 METAR LIRA 110215Z /////KT 9999 FEW030 SCT060 05/03 Q1023=
200901110145 METAR LIRA 110145Z /////KT 9999 FEW030 SCT060 05/03 Q1023=
200901110115 METAR LIRA 110115Z /////KT 9999 FEW030 SCT070 06/03 Q1023=
200901110045 METAR LIRA 110045Z /////KT 9999 FEW030 SCT070 06/04 Q1023=
200901110015 METAR LIRA 110015Z /////KT 9999 FEW030 SCT070 06/03 Q1023=
200901102345 METAR LIRA 102345Z /////KT 9999 FEW030 SCT070 06/03 Q1023=
200901102315 METAR LIRA 102315Z /////KT 9999 FEW030 SCT070 07/04 Q1023=
200901102245 METAR LIRA 102245Z /////KT 9999 FEW025 SCT060 07/04 Q1022=
200901102215 METAR LIRA 102215Z /////KT 9999 FEW025 SCT070 07/05 Q1022=
200901102145 METAR LIRA 102145Z /////KT 9999 FEW025 SCT060 07/05 Q1022=
200901102115 METAR LIRA 102115Z /////KT 9999 SCT030 SCT060 07/05 Q1022=
200901102045 METAR LIRA 102045Z /////KT 9999 SCT030 SCT060 08/05 Q1022=
200901102015 METAR LIRA 102015Z /////KT 9999 SCT025 SCT060 08/05 Q1022=
200901101945 METAR LIRA 101945Z /////KT 9999 SCT030 SCT060 08/04 Q1021=
200901101915 METAR LIRA 101915Z /////KT 9999 SCT025 SCT070 08/04 Q1021=
200901101845 METAR LIRA 101845Z /////KT 9999 SCT025 SCT060 08/04 Q1021=
200901101815 METAR LIRA 101815Z /////KT 9999 SCT025 SCT060 09/05 Q1020=
200901101745 METAR LIRA 101745Z /////KT 9999 SCT025 SCT060 09/05 Q1020=
200901101715 METAR LIRA 101715Z /////KT 9999 SCT030 SCT060 09/04 Q1020=
200901101645 METAR LIRA 101645Z /////KT 9999 SCT030 BKN070 09/04 Q1020=
200901101615 METAR LIRA 101615Z /////KT 9999 SCT030 BKN070 10/05 Q1019=
200901101545 METAR LIRA 101545Z /////KT 9999 SCT030 BKN070 10/05 Q1019=
200901101515 METAR LIRA 101515Z /////KT 9999 SCT030 BKN070 10/05 Q1019=
200901101445 METAR LIRA 101445Z /////KT 9999 SCT030 BKN070 10/05 Q1019=
200901101415 METAR LIRA 101415Z /////KT 9999 SCT030 BKN070 09/05 Q1019=
200901101345 METAR LIRA 101345Z /////KT 9999 SCT030 BKN070 09/05 Q1019=
200901101315 METAR LIRA 101315Z /////KT 9999 FEW030 BKN070 09/05 Q1019=
200901101245 METAR LIRA 101245Z /////KT 9999 FEW030 BKN060 08/05 Q1019=
200901101215 METAR LIRA 101215Z /////KT 9999 FEW030 BKN060 08/05 Q1019=
200901101145 METAR LIRA 101145Z /////KT 9999 FEW030 BKN070 07/04 Q1019=
200901101115 METAR LIRA 101115Z /////KT 9999 FEW030 BKN070 07/04 Q1020=
200901101045 METAR LIRA 101045Z /////KT 9999 -DZ FEW030 BKN070 06/03 Q1020=
200901101015 METAR LIRA 101015Z /////KT 9999 -DZ FEW030 BKN070 05/02 Q1020=
200901100945 METAR LIRA 100945Z /////KT 9999 FEW030 BKN070 05/02 Q1020=
200901100915 METAR LIRA 100915Z /////KT 9999 FEW030 BKN070 05/02 Q1020=
200901100845 METAR LIRA 100845Z /////KT 9999 FEW030 BKN070 04/02 Q1019=
200901100815 METAR LIRA 100815Z /////KT 9999 FEW030 BKN070 BKN200 04/02
                        Q1019=
200901100745 METAR LIRA 100745Z /////KT 9999 FEW030 BKN070 BKN200 04/02
                        Q1019=
200901100715 METAR LIRA 100715Z /////KT 9999 BKN070 BKN200 04/01 Q1019=
200901100645 METAR LIRA 100645Z /////KT 9999 FEW025 BKN070 04/02 Q1019=
200901100615 METAR LIRA 100615Z /////KT 9999 SCT025 BKN070 03/01 Q1019=
200901100545 METAR LIRA 100545Z /////KT 9999 SCT070 SCT200 03/01 Q1018=
200901100515 METAR LIRA 100515Z /////KT 9999 SCT070 SCT200 03/01 Q1018=
200901100445 METAR LIRA 100445Z /////KT 9999 SCT070 SCT200 03/01 Q1018=
200901100415 METAR LIRA 100415Z /////KT 9999 SCT070 SCT200 03/02 Q1018=
200901100345 METAR LIRA 100345Z /////KT 9999 SCT070 SCT200 03/02 Q1018=
200901100315 METAR LIRA 100315Z /////KT 9999 FEW070 BKN200 03/01 Q1019=
200901100245 METAR LIRA 100245Z /////KT 9999 FEW070 BKN200 03/02 Q1019=
200901100215 METAR LIRA 100215Z /////KT 9999 FEW070 BKN200 03/02 Q1019=
200901100145 METAR LIRA 100145Z /////KT 9999 FEW070 SCT200 04/01 Q1019=
200901100115 METAR LIRA 100115Z /////KT 9999 FEW070 SCT200 04/02 Q1019=
200901100045 METAR LIRA 100045Z /////KT 9999 FEW070 SCT200 04/02 Q1019=
200901100015 METAR LIRA 100015Z /////KT 9999 SCT070 SCT200 04/02 Q1019=
200901092345 METAR LIRA 092345Z /////KT 9999 SCT070 SCT200 05/03 Q1019=
200901092315 METAR LIRA 092315Z /////KT 9999 SCT070 SCT200 05/03 Q1019=
200901092245 METAR LIRA 092245Z /////KT 9999 FEW070 SCT200 05/03 Q1019=
200901092215 METAR LIRA 092215Z /////KT 9999 FEW070 SCT200 05/03 Q1019=
200901092145 METAR LIRA 092145Z /////KT 9999 FEW070 SCT200 05/03 Q1020=
200901092115 METAR LIRA 092115Z /////KT 9999 FEW070 SCT200 05/03 Q1020=
200901092045 METAR LIRA 092045Z /////KT 9999 FEW070 BKN200 06/04 Q1020=
200901092015 METAR LIRA 092015Z /////KT 9999 FEW070 BKN200 06/04 Q1020=
200901091945 METAR LIRA 091945Z /////KT 9999 FEW070 BKN200 07/04 Q1020=
200901091915 METAR LIRA 091915Z /////KT 9999 FEW070 SCT200 07/04 Q1020=
200901091845 METAR LIRA 091845Z /////KT 9999 FEW070 SCT200 08/05 Q1020=
200901091815 METAR LIRA 091815Z /////KT 9999 FEW070 SCT200 08/05 Q1020=
200901091745 METAR LIRA 091745Z /////KT 9999 FEW070 SCT200 09/05 Q1020=
200901091715 METAR LIRA 091715Z /////KT 9999 FEW070 SCT200 10/06 Q1020=
200901091645 METAR LIRA 091645Z /////KT 9999 FEW070 BKN200 10/06 Q1020=
200901091615 METAR LIRA 091615Z /////KT 9999 FEW070 BKN200 11/05 Q1020=
200901091545 METAR LIRA 091545Z /////KT 9999 FEW070 BKN200 11/05 Q1020=
200901091515 METAR LIRA 091515Z /////KT 9999 FEW021 BKN200 12/05 Q1021=
200901091445 METAR LIRA 091445Z /////KT 9999 FEW021 BKN200 12/05 Q1021=
200901091415 METAR LIRA 091415Z /////KT 9999 FEW021 BKN200 12/05 Q1021=
200901091345 METAR LIRA 091345Z /////KT 9999 FEW021 BKN200 12/06 Q1021=
200901091315 METAR LIRA 091315Z /////KT 9999 FEW070 BKN200 12/06 Q1021=
200901091245 METAR LIRA 091245Z /////KT 9999 FEW070 BKN200 11/05 Q1021=
200901091215 METAR LIRA 091215Z /////KT 9999 FEW070 BKN200 11/05 Q1022=
200901091145 METAR LIRA 091145Z /////KT 9999 FEW070 BKN200 11/05 Q1022=
200901091115 METAR LIRA 091115Z /////KT 9999 FEW070 BKN200 10/05 Q1022=
200901091045 METAR LIRA 091045Z /////KT 9999 FEW070 SCT200 10/05 Q1022=
200901091015 METAR LIRA 091015Z /////KT 9999 SCT025 SCT070 09/04 Q1022=
200901090945 METAR LIRA 090945Z /////KT 9999 SCT025 SCT070 09/04 Q1022=
200901090915 METAR LIRA 090915Z /////KT 9999 FEW025 SCT070 08/05 Q1022=
200901090845 METAR LIRA 090845Z /////KT 9999 SCT025 SCT070 07/04 Q1022=
200901090815 METAR LIRA 090815Z /////KT 9999 BKN025 SCT060 07/04 Q1022=
200901090745 METAR LIRA 090745Z /////KT 9999 BKN025 SCT060 06/03 Q1022=
200901090715 METAR LIRA 090715Z /////KT 9999 BKN025 SCT060 07/04 Q1022=
200901090645 METAR LIRA 090645Z /////KT 9999 BKN025 SCT060 07/04 Q1021=
200901090615 METAR LIRA 090615Z /////KT 9999 SCT025 SCT060 07/04 Q1021=
200901090545 METAR LIRA 090545Z /////KT 9999 SCT025 SCT070 07/04 Q1021=
200901090515 METAR LIRA 090515Z /////KT 9999 SCT025 SCT070 07/04 Q1021=
200901090445 METAR LIRA 090445Z /////KT 9999 SCT025 SCT070 07/05 Q1021=
200901090415 METAR LIRA 090415Z /////KT 9999 SCT025 SCT070 07/05 Q1021=
200901090345 METAR LIRA 090345Z /////KT 9999 SCT025 SCT070 07/05 Q1021=
200901090315 METAR LIRA 090315Z /////KT 9999 SCT025 SCT070 07/05 Q1020=
200901090245 METAR LIRA 090245Z /////KT 9999 SCT025 SCT070 08/04 Q1020=
200901090215 METAR LIRA 090215Z /////KT 9999 SCT025 SCT070 08/06 Q1020=
200901090145 METAR LIRA 090145Z /////KT 9999 SCT025 SCT070 08/06 Q1020=
200901090115 METAR LIRA 090115Z /////KT 9999 SCT025 SCT070 08/06 Q1020=
200901090045 METAR LIRA 090045Z /////KT 9999 SCT025 SCT070 09/06 Q1020=
200901090015 METAR LIRA 090015Z /////KT 9999 SCT025 SCT070 08/06 Q1020=
200901082345 METAR LIRA 082345Z /////KT 9999 SCT025 SCT070 09/06 Q1020=
200901082315 METAR LIRA 082315Z /////KT 9999 SCT025 SCT070 09/06 Q1020=
200901082245 METAR LIRA 082245Z /////KT 9999 FEW015 SCT025 09/06 Q1020=
200901082215 METAR LIRA 082215Z /////KT 9999 FEW015 SCT025 09/07 Q1020=
200901082145 METAR LIRA 082145Z /////KT 9999 FEW015 SCT025 09/07 Q1019=
200901082115 METAR LIRA 082115Z /////KT 9999 FEW015 SCT025 09/07 Q1019=
200901082045 METAR LIRA 082045Z /////KT 9999 -DZ FEW015 SCT025 09/07 Q1019=
200901082015 METAR LIRA 082015Z /////KT 9999 -DZ FEW015 SCT025 09/07 Q1019=
200901081945 METAR LIRA 081945Z /////KT 9999 -DZ FEW015 SCT030 BKN070
                        09/07 Q1019=
200901081915 METAR LIRA 081915Z /////KT 9999 -DZ FEW015 SCT030 BKN070
                        09/07 Q1019=
200901081845 METAR LIRA 081845Z /////KT 9999 -RA FEW015 SCT030 BKN070
                        09/07 Q1019=
200901081815 METAR LIRA 081815Z /////KT 8000 -RA FEW015 SCT030 BKN070
                        09/07 Q1019=
200901081745 METAR LIRA 081745Z /////KT 8000 -RA FEW015 SCT030 BKN070
                        09/07 Q1018=
200901081715 METAR LIRA 081715Z /////KT 8000 -RA FEW018 SCT030 BKN070
                        10/07 Q1018=
200901081645 METAR LIRA 081645Z /////KT 8000 -DZ FEW018 SCT030 BKN070
                        09/07 Q1018=
200901081615 METAR LIRA 081615Z /////KT 8000 -DZ FEW018 BKN030 09/07 Q1018=
200901081545 METAR LIRA 081545Z /////KT 8000 -DZ FEW018 SCT030 BKN070
                        09/08 Q1017=
200901081515 METAR LIRA 081515Z /////KT 8000 -RA FEW018 BKN030 09/08 Q1017=
200901081445 METAR LIRA 081445Z /////KT 8000 -RA FEW018 SCT030 BKN070
                        09/08 Q1017=
200901081415 METAR LIRA 081415Z /////KT 8000 -RA FEW015 SCT030 BKN070
                        09/08 Q1017=
200901081345 METAR LIRA 081345Z /////KT 7000 -RA SCT015 BKN025 09/08 Q1017=
200901081315 METAR LIRA 081315Z /////KT 7000 -RA SCT009 BKN023 09/08 Q1017=
200901081245 METAR LIRA 081245Z /////KT 5000 -RA BR SCT009 BKN023 09/08
                        Q1017=
200901081215 METAR LIRA 081215Z /////KT 4000 -RA BR SCT005 BKN023 08/08
                        Q1017=
200901081145 METAR LIRA 081145Z /////KT 4000 -RA BR SCT005 BKN023 08/07
                        Q1017=
200901081115 METAR LIRA 081115Z /////KT 5000 -RA BR SCT012 BKN030 09/08
                        Q1017=
200901081045 METAR LIRA 081045Z /////KT 6000 -RA SCT012 BKN030 08/07 Q1017
                        RERA=
200901081015 METAR LIRA 081015Z /////KT 6000 -RA SCT012 FEW018CB BKN030
                        08/07 Q1017 RERA=
200901080945 METAR LIRA 080945Z /////KT 6000 RA FEW012 FEW018CB BKN030
                        07/07 Q1017=
200901080915 METAR LIRA 080915Z /////KT 6000 RA FEW012 SCT018CB BKN030
                        07/07 Q1017=
200901080845 METAR LIRA 080845Z /////KT 8000 -TSRA FEW015 SCT018CB BKN030
                        07/07 Q1016=
200901080815 METAR LIRA 080815Z /////KT 9999 -RA FEW016 FEW020CB SCT030
                        07/07 Q1016=
200901080745 METAR LIRA 080745Z /////KT 9999 -RA FEW016 FEW020CB BKN030
                        07/07 Q1015=
200901080715 METAR LIRA 080715Z /////KT 9999 -RA FEW018 BKN035 07/06 Q1015=
200901080645 METAR LIRA 080645Z /////KT 9999 -RA FEW018 BKN035 06/06 Q1015=
200901080615 METAR LIRA 080615Z /////KT 9999 -RA FEW020 SCT035 BKN070
                        06/06 Q1014=
200901080545 METAR LIRA 080545Z /////KT 9999 -RA SCT040 BKN070 06/05 Q1014=
200901080515 METAR LIRA 080515Z /////KT 9999 FEW040 BKN070 06/05 Q1013=
200901080445 METAR LIRA 080445Z /////KT 9999 FEW070 07/04 Q1013=
200901080415 METAR LIRA 080415Z /////KT 9999 FEW070 07/04 Q1013=
200901080345 METAR LIRA 080345Z /////KT 9999 FEW070 07/04 Q1013=
200901080315 METAR LIRA 080315Z /////KT 9999 FEW070 08/05 Q1013=
200901080245 METAR LIRA 080245Z /////KT 9999 FEW025 08/05 Q1013=
200901080215 METAR LIRA 080215Z /////KT 9999 FEW025 SCT070 09/05 Q1013=
200901080145 METAR LIRA 080145Z /////KT 9999 FEW018 SCT070 09/06 Q1013=
200901080115 METAR LIRA 080115Z /////KT 9999 FEW018 SCT070 09/06 Q1013=
200901080045 METAR LIRA 080045Z /////KT 9999 FEW018 SCT070 09/06 Q1013=
200901080015 METAR LIRA 080015Z /////KT 9999 FEW018 SCT070 09/06 Q1013=
200901072345 METAR LIRA 072345Z /////KT 9999 FEW018 SCT070 10/08 Q1013=
200901072315 METAR LIRA 072315Z /////KT 9999 FEW018 SCT025 09/07 Q1012=
200901072245 METAR LIRA 072245Z /////KT 9999 FEW018 SCT070 09/07 Q1012=
200901072215 METAR LIRA 072215Z /////KT 9999 FEW018 SCT070 09/08 Q1012=
200901072145 METAR LIRA 072145Z /////KT 9999 FEW018 SCT025 09/08 Q1012=
200901072115 METAR LIRA 072115Z /////KT 9999 FEW015 FEW020CB SCT025 06/05
                        Q1012 RERA=
200901072045 METAR LIRA 072045Z 00000KT 9999 FEW015 FEW020CB SCT025 09/09
                        Q1012 RERA=
200901072015 METAR LIRA 072015Z 00000KT 9999 -RA FEW015 FEW018CB SCT025
                        09/07 Q1012=
200901071945 METAR LIRA 071945Z /////KT 9999 -RA FEW013 FEW018CB SCT025
                        10/08 Q1011=
200901071915 METAR LIRA 071915Z 00000KT 9999 -RA FEW015 FEW020CB SCT025
                        10/08 Q1011=
200901071845 METAR LIRA 071845Z /////KT 9999 -RA FEW015 FEW020CB SCT025
                        10/08 Q1011=
200901071815 METAR LIRA 071815Z /////KT 8000 -RA FEW013 FEW020CB BKN025
                        10/08 Q1010=
200901071745 METAR LIRA 071745Z /////KT 8000 -RA FEW013 FEW018CB BKN025
                        10/08 Q1009=
200901071715 METAR LIRA 071715Z /////KT 8000 -RA FEW013 FEW018CB BKN025
                        10/08 Q1009=
200901071645 METAR LIRA 071645Z /////KT 9999 FEW013 FEW018CB BKN025 11/08
                        Q1009=
200901071615 METAR LIRA 071615Z /////KT 8000 -RA FEW012 FEW015CB SCT025
                        10/08 Q1009=
200901071545 METAR LIRA 071545Z /////KT 7000 -RA FEW012 FEW020CB BKN025
                        11/08 Q1009=
200901071515 METAR LIRA 071515Z /////KT 6000 -RA FEW012 SCT025 10/09 Q1009=
200901071445 METAR LIRA 071445Z /////KT 6000 -RA FEW012 FEW020CB SCT025
                        11/08 Q1009=
200901071415 METAR LIRA 071415Z /////KT 9999 -RA FEW012 FEW020CB SCT025
                        11/08 Q1009=
200901071345 METAR LIRA 071345Z /////KT 9999 -RA FEW012 FEW020CB SCT025
                        11/08 Q1009=
200901071315 METAR LIRA 071315Z /////KT 9999 -RA FEW012 FEW020CB SCT025
                        11/08 Q1009=
200901071245 METAR LIRA 071245Z 00000KT 9999 -RA FEW012 FEW020CB SCT025
                        12/08 Q1009=
200901071215 METAR LIRA 071215Z 00000KT 9999 FEW012 FEW020CB BKN025 12/09
                        Q1010=
200901071145 METAR LIRA 071145Z /////KT 9999 FEW012 SCT025 10/08 Q1010=
200901071115 METAR LIRA 071115Z /////KT 8000 -RA FEW012 BKN025 11/09 Q1011=
200901071045 METAR LIRA 071045Z /////KT 6000 -RA FEW012 BKN025 10/08 Q1011=
200901071015 METAR LIRA 071015Z 21012KT 7000 -RA FEW012 BKN025 10/08 Q1011=
200901070945 METAR LIRA 070945Z 20013KT 6000 -RA SCT012 BKN025 10/07 Q1012=
200901070915 METAR LIRA 070915Z 21013KT 180V240 5000 -RA BR SCT012 BKN025
                        11/07 Q1012=
200901070845 METAR LIRA 070845Z 23013G25KT 180V260 9999 FEW017 SCT030
                        10/05 Q1011=
200901070815 METAR LIRA 070815Z 22013KT 190V250 9999 FEW017 SCT030 10/05
                        Q1011=
200901070745 METAR LIRA 070745Z 22012KT 180V310 9999 -RA FEW017 SCT030
                        10/05 Q1011=
200901070715 METAR LIRA 070715Z 23011KT 190V260 9999 -RA FEW017 SCT030
                        10/05 Q1011=
200901070645 METAR LIRA 070645Z 23010KT 190V260 9999 FEW017 SCT030 09/05
                        Q1010=
200901070615 METAR LIRA 070615Z 21010KT 180V310 9999 FEW017 SCT030 08/05
                        Q1011=
200901070545 METAR LIRA 070545Z 27006KT 230V300 9999 -RA FEW020 BKN030
                        09/05 Q1011=
200901070515 METAR LIRA 070515Z 30003KT 9999 -RA FEW020 BKN030 08/05 Q1011=
200901070445 METAR LIRA 070445Z 25006KT 9999 -RA FEW020 BKN030 07/04 Q1011=
200901070415 METAR LIRA 070415Z 25008KT 9999 FEW020 SCT060 07/04 Q1011=
200901070345 METAR LIRA 070345Z 27009KT 240V330 9999 FEW020TCU 07/04 Q1011=
200901070315 METAR LIRA 070315Z 26010KT 9999 FEW025 SCT060 08/04 Q1011=
200901070245 METAR LIRA 070245Z 21014KT 9999 -RA FEW020 BKN030 09/04 Q1012=
200901070215 METAR LIRA 070215Z 23011KT 9999 FEW025 SCT060 08/03 Q1012=
200901070145 METAR LIRA 070145Z 22009KT 200V260 9999 FEW025 09/03 Q1012=
200901070115 METAR LIRA 070115Z 23011KT 9999 FEW025 08/03 Q1012=
200901070045 METAR LIRA 070045Z 23011KT 200V270 9999 FEW030 SCT060 07/03
                        Q1012=
200901070015 METAR LIRA 070015Z 00000KT 9999 FEW030 SCT060 07/03 Q1012=
200901062345 METAR LIRA 062345Z 00000KT 9999 BKN030 07/02 Q1012=
200901062315 METAR LIRA 062315Z 23006KT 9999 -RA FEW020 BKN030 07/02 Q1012=
200901062245 METAR LIRA 062245Z 24008KT 9999 BKN030 06/02 Q1012=
200901062215 METAR LIRA 062215Z 24009KT 9999 FEW025 SCT060 06/02 Q1012=
200901062145 METAR LIRA 062145Z 25009KT 9999 FEW030 06/03 Q1013=
200901062115 METAR LIRA 062115Z 25008KT 9999 FEW060 08/04 Q1013=
200901062045 METAR LIRA 062045Z 23009KT 9999 FEW025 07/04 Q1013=
200901062015 METAR LIRA 062015Z 21007KT 9999 FEW025 07/04 Q1013=
200901061945 METAR LIRA 061945Z 27003KT 9999 FEW030 SCT060 08/05 Q1013=
200901061915 METAR LIRA 061915Z 28004KT 9999 FEW025 SCT060 08/05 Q1013=
200901061845 METAR LIRA 061845Z 22004KT 180V250 9999 SCT025 SCT060 09/05
                        Q1013=
200901061815 METAR LIRA 061815Z 19010KT 9999 SCT030 SCT060 08/04 Q1012=
200901061745 METAR LIRA 061745Z 22008KT 9999 FEW025 SCT060 08/04 Q1012=
200901061715 METAR LIRA 061715Z 21007KT 9999 FEW030 SCT060 08/04 Q1012=
200901061645 METAR LIRA 061645Z 21006KT 9999 FEW018 SCT025 08/04 Q1012=
200901061615 METAR LIRA 061615Z 21006KT 9999 FEW018 SCT025 09/05 Q1012=
200901061545 METAR LIRA 061545Z 21008KT 9999 FEW018 SCT025 09/05 Q1012=
200901061515 METAR LIRA 061515Z 21007KT 9999 FEW018 SCT025 BKN200 10/05
                        Q1012=
200901061445 METAR LIRA 061445Z 21007KT 180V250 9999 FEW018 SCT025 BKN200
                        10/05 Q1012=
200901061415 METAR LIRA 061415Z 21008KT 9999 FEW018 SCT025 09/06 Q1012=
200901061345 METAR LIRA 061345Z 24005KT 9999 FEW018 SCT025 BKN070 09/06
                        Q1012=
200901061315 METAR LIRA 061315Z 20010KT 9999 -RA FEW018 SCT025 BKN070
                        09/06 Q1012=
200901061245 METAR LIRA 061245Z 20012KT 9999 -RA FEW018 SCT025 BKN070
                        09/05 Q1012=
200901061215 METAR LIRA 061215Z 19012KT 9999 FEW018 SCT025 BKN070 10/05
                        Q1012=
200901061145 METAR LIRA 061145Z 19008KT 9999 FEW018 SCT025 BKN060 10/04
                        Q1012=
200901061115 METAR LIRA 061115Z 20008KT 9999 -RA SCT025 BKN060 10/04 Q1013=
200901061045 METAR LIRA 061045Z 19008KT 9999 SCT025 BKN060 10/03 Q1013=
200901061015 METAR LIRA 061015Z 20008KT 9999 FEW025 BKN060 10/03 Q1013=
200901060945 METAR LIRA 060945Z 20010KT 9999 FEW025 BKN060 10/03 Q1013=
200901060915 METAR LIRA 060915Z 20010KT 9999 FEW025 BKN060 10/03 Q1012=
200901060845 METAR LIRA 060845Z 22009KT 9999 FEW025 SCT060 09/04 Q1012=
200901060815 METAR LIRA 060815Z 22009KT 9999 SCT025 SCT060 08/03 Q1012=
200901060745 METAR LIRA 060745Z 21006KT 9999 SCT025 SCT060 04/01 Q1012=
200901060715 METAR LIRA 060715Z 00000KT 9999 SCT030 SCT060 04/01 Q1012=
200901060645 METAR LIRA 060645Z 00000KT 9999 SCT030 SCT060 04/01 Q1012=
200901060615 METAR LIRA 060615Z 32001KT 9999 SCT030 SCT060 04/01 Q1011=
200901060545 METAR LIRA 060545Z 30002KT 9999 SCT030 SCT060 03/01 Q1011=
200901060515 METAR LIRA 060515Z 28001KT 9999 SCT030 SCT060 03/00 Q1011=
200901060445 METAR LIRA 060445Z 27002KT 9999 SCT030 SCT060 03/00 Q1011=
200901060415 METAR LIRA 060415Z 29003KT 9999 SCT030 SCT060 04/00 Q1011=
200901060345 METAR LIRA 060345Z 00000KT 9999 SCT030 SCT060 03/M00 Q1011=
200901060315 METAR LIRA 060315Z 00000KT 9999 SCT030 SCT060 03/M00 Q1011=
200901060245 METAR LIRA 060245Z 26003KT 9999 FEW030 SCT060 04/M00 Q1011=
200901060215 METAR LIRA 060215Z 00000KT 9999 SCT030 SCT060 05/M01 Q1011=
200901060145 METAR LIRA 060145Z 21005KT 9999 FEW035 SCT060 04/M01 Q1011=
200901060115 METAR LIRA 060115Z 23006KT 9999 SCT060 03/M02 Q1011=
200901060045 METAR LIRA 060045Z 21002KT 9999 SCT060 03/M03 Q1011=
200901060015 METAR LIRA 060015Z 25002KT 9999 SCT060 03/M03 Q1011=
200901052345 METAR LIRA 052345Z 25008KT 9999 FEW030 SCT060 03/M03 Q1011=
200901052315 METAR LIRA 052315Z 24007KT 9999 FEW040 SCT070 03/M03 Q1011=
200901052245 METAR LIRA 052245Z 25008KT 9999 SCT060 03/M03 Q1011=
200901052215 METAR LIRA 052215Z 23004KT 9999 SCT080 02/M03 Q1011=
200901052145 METAR LIRA 052145Z 24007KT 9999 SCT080 02/M03 Q1011=
200901052115 METAR LIRA 052115Z 24006KT 9999 FEW070 02/M03 Q1011=
200901052045 METAR LIRA 052045Z 21003KT 9999 FEW070 03/M02 Q1011=
200901052015 METAR LIRA 052015Z 20003KT CAVOK 02/M02 Q1011=
200901051945 METAR LIRA 051945Z 21003KT CAVOK 02/M01 Q1011=
200901051915 METAR LIRA 051915Z 20005KT CAVOK 02/M00 Q1011=
200901051845 METAR LIRA 051845Z 20004KT CAVOK 03/01 Q1011=
200901051815 METAR LIRA 051815Z 19002KT CAVOK 04/00 Q1011=
200901051745 METAR LIRA 051745Z 23002KT CAVOK 04/00 Q1011=
200901051715 METAR LIRA 051715Z 25002KT CAVOK 05/M01 Q1010=
200901051645 METAR LIRA 051645Z 00000KT CAVOK 07/M00 Q1010=
200901051615 METAR LIRA 051615Z 00000KT CAVOK 08/M01 Q1010=
200901051545 METAR LIRA 051545Z 32002KT CAVOK 08/M00 Q1010=
200901051515 METAR LIRA 051515Z 33001KT CAVOK 09/00 Q1010=
200901051445 METAR LIRA 051445Z 34003KT CAVOK 09/00 Q1010=
200901051415 METAR LIRA 051415Z 35001KT CAVOK 09/M00 Q1011=
200901051345 METAR LIRA 051345Z 31002KT CAVOK 09/01 Q1011=
200901051315 METAR LIRA 051315Z 25002KT CAVOK 09/01 Q1011=
200901051245 METAR LIRA 051245Z 33003KT CAVOK 08/01 Q1011=
200901051215 METAR LIRA 051215Z 32001KT CAVOK 07/01 Q1011=
200901051145 METAR LIRA 051145Z 33002KT CAVOK 06/01 Q1011=
200901051115 METAR LIRA 051115Z 32002KT CAVOK 06/01 Q1011=
200901051045 METAR LIRA 051045Z 27002KT 9999 FEW018 SCT200 05/00 Q1012=
200901051015 METAR LIRA 051015Z 35003KT CAVOK 03/M01 Q1012=
200901050945 METAR LIRA 050945Z 33002KT CAVOK 02/M02 Q1012=
200901050915 METAR LIRA 050915Z 33004KT CAVOK 02/M01 Q1012=
200901050845 METAR LIRA 050845Z 34003KT CAVOK 01/M01 Q1012=
200901050815 METAR LIRA 050815Z 34002KT CAVOK M01/M02 Q1012=
200901050745 METAR LIRA 050745Z 32002KT CAVOK M01/M02 Q1012=
200901050715 METAR LIRA 050715Z 31004KT CAVOK M01/M02 Q1012=
200901050645 METAR LIRA 050645Z 33002KT 9999 FEW030 SCT200 M01/M02 Q1012=
200901050615 METAR LIRA 050615Z 34003KT CAVOK M01/M02 Q1012=
200901050545 METAR LIRA 050545Z 35002KT CAVOK M01/M01 Q1012=
200901050515 METAR LIRA 050515Z 33002KT CAVOK M01/M01 Q1012=
200901050445 METAR LIRA 050445Z 32004KT CAVOK M01/M03 Q1012=
200901050415 METAR LIRA 050415Z 34004KT CAVOK M01/M02 Q1012=
200901050345 METAR LIRA 050345Z 34005KT CAVOK M01/M02 Q1012=
200901050315 METAR LIRA 050315Z 32003KT CAVOK M01/M02 Q1012=
200901050245 METAR LIRA 050245Z 33001KT CAVOK M01/M02 Q1012=
200901050215 METAR LIRA 050215Z 34002KT CAVOK 00/M02 Q1013=
200901050145 METAR LIRA 050145Z 33003KT CAVOK 01/M01 Q1013=
200901050115 METAR LIRA 050115Z 35004KT CAVOK 00/M02 Q1013=
200901050045 METAR LIRA 050045Z 35004KT CAVOK 01/M01 Q1013=
200901050015 METAR LIRA 050015Z 34001KT CAVOK 01/M01 Q1013=
200901042350 METAR LIRA 050045Z 35004KT CAVOK 01/M01 Q1013=
200901042345 METAR LIRA 042345Z 35002KT CAVOK 01/M01 Q1013=
200901042315 METAR LIRA 042315Z 35002KT CAVOK 01/M02 Q1013=
200901042245 METAR LIRA 042245Z 32003KT CAVOK 01/M02 Q1013=
200901042215 METAR LIRA 042215Z 33003KT CAVOK 01/M02 Q1013=
200901042145 METAR LIRA 042145Z 30003KT CAVOK 02/M01 Q1013=
200901042115 METAR LIRA 042115Z 34004KT CAVOK 02/M01 Q1013=
200901042045 METAR LIRA 042045Z 33005KT CAVOK 02/M01 Q1013=
200901042015 METAR LIRA 042015Z 32004KT CAVOK 03/M00 Q1013=
200901041945 METAR LIRA 041945Z 31004KT CAVOK 03/M00 Q1013=
200901041915 METAR LIRA 041915Z 31004KT CAVOK 04/M00 Q1013=
200901041845 METAR LIRA 041845Z 30003KT CAVOK 04/M00 Q1012=
200901041815 METAR LIRA 041815Z 31004KT CAVOK 05/00 Q1012=
200901041745 METAR LIRA 041745Z 32003KT CAVOK 05/00 Q1012=
200901041715 METAR LIRA 041715Z 33004KT CAVOK 06/00 Q1012=
200901041645 METAR LIRA 041645Z 32003KT CAVOK 06/00 Q1012=
200901041615 METAR LIRA 041615Z 34003KT 9999 FEW070 06/00 Q1012=
200901041545 METAR LIRA 041545Z 34004KT 9999 FEW070 07/01 Q1012=
200901041515 METAR LIRA 041515Z 33004KT 9999 FEW020 08/01 Q1012=
200901041445 METAR LIRA 041445Z 34003KT 9999 FEW020 08/01 Q1012=
200901041415 METAR LIRA 041415Z 35005KT 9999 FEW020 08/01 Q1012=
200901041345 METAR LIRA 041345Z 31005KT 260V360 9999 FEW020 07/01 Q1012=
200901041315 METAR LIRA 041315Z 34004KT 9999 FEW020 07/01 Q1012=
200901041245 METAR LIRA 041245Z 33004KT 270V360 9999 FEW020 07/01 Q1012=
200901041215 METAR LIRA 041215Z 30005KT 270V350 9999 FEW020 07/01 Q1012=
200901041145 METAR LIRA 041145Z 31005KT 260V360 9999 FEW020 07/01 Q1012=
200901041115 METAR LIRA 041115Z 33007KT 280V360 9999 FEW020 06/00 Q1012=
200901041045 METAR LIRA 041045Z 32007KT 270V360 9999 FEW020 05/00 Q1013=
200901041015 METAR LIRA 041015Z 32008KT 270V360 9999 FEW020 04/M00 Q1013=
200901040945 METAR LIRA 040945Z 32008KT 270V360 9999 FEW030 03/M01 Q1013=
200901040915 METAR LIRA 040915Z 31008KT 270V360 9999 FEW030 03/M01 Q1013=
200901040845 METAR LIRA 040845Z 31008KT 270V360 9999 FEW030 SCT070 02/M02
                        Q1013=
200901040815 METAR LIRA 040815Z 32007KT 270V360 9999 FEW020 SCT070 01/M02
                        Q1013=
200901040745 METAR LIRA 040745Z 31007KT 270V360 9999 FEW020 01/M02 Q1012=
200901040715 METAR LIRA 040715Z 33006KT 270V360 9999 FEW020 01/M02 Q1012=
200901040645 METAR LIRA 040645Z 30007KT 250V350 9999 FEW020 SCT070 01/M01
                        Q1012=
200901040615 METAR LIRA 040615Z 31006KT 260V360 9999 FEW020 SCT070 01/M02
                        Q1012=
200901040545 METAR LIRA 040545Z 30006KT 260V340 9999 SCT070 01/M01 Q1012=
200901040515 METAR LIRA 040515Z 31004KT 270V360 9999 FEW070 01/M01 Q1011=
200901040445 METAR LIRA 040445Z 30007KT 9999 FEW070 01/M01 Q1011=
200901040415 METAR LIRA 040415Z 30007KT 9999 FEW030 02/M01 Q1011=
200901040345 METAR LIRA 040345Z 30007KT 9999 FEW030 02/M01 Q1011=
200901040315 METAR LIRA 040315Z 31006KT 260V360 9999 FEW030 02/M01 Q1011=
200901040245 METAR LIRA 040245Z 31005KT 260V340 9999 FEW030 02/M01 Q1011=
200901040215 METAR LIRA 040215Z 31006KT 280V360 9999 FEW012 SCT070 03/M01
                        Q1012=
200901040145 METAR LIRA 040145Z 32005KT 280V360 9999 FEW010 SCT070 03/M00
                        Q1012=
200901040115 METAR LIRA 040115Z 32005KT 280V360 9999 FEW010 SCT070 04/M00
                        Q1012=
200901040045 METAR LIRA 040045Z 33005KT 250V360 9999 FEW010 SCT070 04/M00
                        Q1012=
200901040015 METAR LIRA 040015Z 32005KT 280V360 9999 FEW010 SCT070 04/M00
                        Q1012=
200901032345 METAR LIRA 032345Z 33007KT 280V360 9999 FEW010 BKN030 04/M00
                        Q1012=
200901032315 METAR LIRA 032315Z 34006KT 270V360 9999 FEW010 BKN030 05/00
                        Q1012=
200901032245 METAR LIRA 032245Z 33008KT 290V360 9999 FEW010 BKN030 05/00
                        Q1013=
200901032215 METAR LIRA 032215Z 34007KT 300V360 9999 FEW010 BKN030 05/00
                        Q1013=
200901032145 METAR LIRA 032145Z 33006KT 9999 FEW010 BKN030 05/01 Q1013=
200901032115 METAR LIRA 032115Z 35006KT 9999 FEW010 BKN030 05/00 Q1012=
200901032045 METAR LIRA 032045Z 34006KT 300V360 9999 FEW010 BKN030 05/00
                        Q1012=
200901032015 METAR LIRA 032015Z 33006KT 290V360 9999 FEW010 BKN030 05/00
                        Q1012=
200901031945 METAR LIRA 031945Z 32008KT 270V360 9999 FEW010 BKN030 06/01
                        Q1012=
200901031915 METAR LIRA 031915Z 33007KT 280V360 9999 FEW010 BKN030 06/01
                        Q1012=
200901031845 METAR LIRA 031845Z 32005KT 290V360 9999 FEW010 BKN030 07/01
                        Q1012=
200901031815 METAR LIRA 031815Z 34006KT 9999 FEW010 BKN030 07/01 Q1012=
200901031745 METAR LIRA 031745Z 34007KT 9999 FEW010 BKN030 08/03 Q1012=
200901031715 METAR LIRA 031715Z 35005KT 9999 FEW010 BKN030 08/03 Q1011=
200901031645 METAR LIRA 031645Z 34004KT 9999 FEW016 BKN035 09/04 Q1011=
200901031615 METAR LIRA 031615Z 35005KT 9999 FEW016 BKN035 09/05 Q1010=
200901031545 METAR LIRA 031545Z 34004KT 9999 FEW016 SCT035 BKN070 09/06
                        Q1010=
200901031515 METAR LIRA 031515Z 34006KT 290V360 9999 FEW016 SCT040 BKN070
                        09/06 Q1010=
200901031445 METAR LIRA 031445Z 34005KT 9999 FEW016 SCT040 BKN070 09/06
                        Q1010=
200901031415 METAR LIRA 031415Z 34004KT 9999 FEW016 SCT040 BKN070 09/05
                        Q1010=
200901031345 METAR LIRA 031345Z 35003KT 9999 SCT040 BKN070 09/05 Q1010=
200901031315 METAR LIRA 031315Z 33004KT 9999 SCT040 BKN070 09/06 Q1010=
200901031245 METAR LIRA 031245Z 34006KT 9999 SCT040 BKN070 09/07 Q1010=
200901031215 METAR LIRA 031215Z 35007KT 9999 -DZ FEW015 SCT035 BKN060
                        09/07 Q1011=
200901031145 METAR LIRA 031145Z 35007KT 9999 -DZ SCT035 BKN060 09/06 Q1011=
200901031115 METAR LIRA 031115Z 35006KT 9999 -DZ SCT035 BKN060 08/06 Q1011=
200901031045 METAR LIRA 031045Z 35007KT 9999 -DZ SCT035 BKN060 08/06 Q1011=
200901031015 METAR LIRA 031015Z 32006KT 270V360 9999 -RA SCT035 BKN060
                        08/06 Q1011=
200901030945 METAR LIRA 030945Z 32007KT 260V360 9999 -RA FEW018 SCT035
                        BKN060 08/06 Q1011=
200901030915 METAR LIRA 030915Z 31007KT 260V360 8000 -RA FEW018 SCT030
                        BKN060 08/06 Q1011=
200901030845 METAR LIRA 030845Z 32010KT 270V360 8000 -RA FEW018 SCT030
                        BKN060 08/06 Q1011=
200901030815 METAR LIRA 030815Z 32008KT 270V360 8000 -RA FEW016 SCT030
                        BKN060 08/06 Q1010=
200901030745 METAR LIRA 030745Z 32008KT 270V360 8000 -RA FEW016 SCT030
                        BKN060 08/05 Q1010=
200901030715 METAR LIRA 030715Z 32009KT 270V360 8000 -RA FEW015 BKN025
                        08/06 Q1010=
200901030645 METAR LIRA 030645Z 30011KT 260V360 7000 -RA FEW015 BKN025
                        08/06 Q1009=
200901030615 METAR LIRA 030615Z 32009KT 270V360 8000 -RA FEW018 SCT025
                        BKN060 08/06 Q1009=
200901030545 METAR LIRA 030545Z 33009KT 280V360 7000 -RA FEW018 SCT025
                        BKN060 08/06 Q1009=
200901030515 METAR LIRA 030515Z 32008KT 270V360 7000 -RA FEW020 SCT025
                        BKN060 08/07 Q1008=
200901030445 METAR LIRA 030445Z 31010KT 260V360 7000 -RA FEW008 SCT025
                        BKN060 08/06 Q1009=
200901030415 METAR LIRA 030415Z 32010KT 230V360 7000 -RA FEW008 SCT025
                        BKN060 08/07 Q1009=
200901030345 METAR LIRA 030345Z 33008KT 270V360 7000 -RA FEW008 SCT025
                        BKN070 08/07 Q1009=
200901030315 METAR LIRA 030315Z 32009KT 270V360 7000 -RA FEW020 SCT025
                        BKN060 08/07 Q1009=
200901030245 METAR LIRA 030245Z 31012KT 270V360 7000 -RA FEW020 SCT025
                        BKN060 08/07 Q1009=
200901030215 METAR LIRA 030215Z 32007KT 270V360 7000 -RA FEW020 SCT025
                        BKN070 08/06 Q1010=
200901030145 METAR LIRA 030145Z 32006KT 260V360 7000 -RA FEW020 SCT025
                        BKN070 08/07 Q1010=
200901030115 METAR LIRA 030115Z 32006KT 270V360 7000 -RA FEW020 SCT025
                        BKN070 08/07 Q1010=
200901030045 METAR LIRA 030045Z 31006KT 250V360 7000 -RA FEW020 SCT025
                        BKN070 08/07 Q1010=
200901030015 METAR LIRA 030015Z 33006KT 270V360 7000 -RA FEW020 SCT025
                        BKN070 08/07 Q1010=
200901022350 METAR LIRA 030045Z 31006KT 250V360 7000 -RA FEW020 SCT025
                        BKN070 08/07 Q1010=
200901022345 METAR LIRA 022345Z 33008KT 270V010 7000 -RA FEW020 SCT025
                        BKN070 08/07 Q1010=
200901022315 METAR LIRA 022315Z 31006KT 250V360 7000 -RA FEW020 SCT025
                        BKN070 08/07 Q1011=
200901022245 METAR LIRA 022245Z 31006KT 260V010 7000 -RA FEW020 SCT025
                        BKN060 08/06 Q1011=
200901022215 METAR LIRA 022215Z 33004KT 7000 -RA FEW008 SCT025 BKN070
                        08/06 Q1011=
200901022145 METAR LIRA 022145Z 32005KT 260V360 5000 -RA BR FEW008 SCT025
                        BKN070 09/07 Q1011=
200901022115 METAR LIRA 022115Z 28006KT 210V320 5000 -RA BR FEW008 SCT025
                        BKN060 09/07 Q1011=
200901022045 METAR LIRA 022045Z 30007KT 250V340 7000 -RA FEW008 SCT025
                        BKN070 08/08 Q1012=
200901022015 METAR LIRA 022015Z 28007KT 240V320 7000 -RA FEW008 SCT025
                        BKN060 08/08 Q1012=
200901021945 METAR LIRA 021945Z 31001KT 7000 -RA FEW008 SCT025 BKN060
                        08/08 Q1012=
200901021915 METAR LIRA 021915Z 00000KT 7000 -RA FEW008 SCT025 BKN060
                        09/08 Q1013=
200901021845 METAR LIRA 021845Z 00000KT 5000 -RA BR FEW008 SCT025 BKN060
                        09/08 Q1013=
200901021815 METAR LIRA 021815Z 00000KT 5000 -RA BR FEW008 SCT025 BKN060
                        09/08 Q1013=
200901021745 METAR LIRA 021745Z 00000KT 5000 -RA BR FEW008 SCT025 BKN060
                        09/09 Q1013=
200901021715 METAR LIRA 021715Z 00000KT 5000 -RA BR FEW008 SCT025 BKN060
                        09/08 Q1014=
200901021645 METAR LIRA 021645Z 00000KT 5000 -RA BR FEW008 SCT025 BKN060
                        10/09 Q1014=
200901021615 METAR LIRA 021615Z 32002KT 5000 -RA BR FEW007 SCT025 BKN070
                        10/08 Q1014=
200901021545 METAR LIRA 021545Z 00000KT 6000 -RA FEW008 SCT025 BKN070
                        10/09 Q1014=
200901021515 METAR LIRA 021515Z 00000KT 7000 -DZ FEW016 SCT030 BKN070
                        10/08 Q1014=
200901021445 METAR LIRA 021445Z 00000KT 8000 -DZ FEW016 SCT040 BKN080
                        10/08 Q1015=
200901021415 METAR LIRA 021415Z 35002KT 8000 -DZ FEW016 SCT040 BKN080
                        10/08 Q1015=
200901021345 METAR LIRA 021345Z 35002KT 8000 FEW016 SCT040 BKN080 10/07
                        Q1015=
200901021315 METAR LIRA 021315Z 00000KT 8000 FEW040 SCT070 10/07 Q1015=
200901021245 METAR LIRA 021245Z 00000KT 8000 FEW040 SCT070 10/07 Q1015=
200901021215 METAR LIRA 021215Z 34002KT 8000 FEW040 SCT070 09/07 Q1016=
200901021145 METAR LIRA 021145Z 00000KT 8000 FEW040 SCT070 09/08 Q1017=
200901021115 METAR LIRA 021115Z 35001KT 8000 FEW040 SCT070 08/07 Q1017=
200901021045 METAR LIRA 021045Z 30001KT 8000 FEW040 SCT070 07/06 Q1017=
200901021015 METAR LIRA 021015Z 34002KT 6000 FEW001 SCT070 05/04 Q1018=
200901020945 METAR LIRA 020945Z 34001KT 5000 BR FEW001 SCT070 05/04 Q1018=
200901020915 METAR LIRA 020915Z 33001KT 1800 MIFG FEW001 SCT070 04/04
                        Q1018=
200901020900 METAR LIRA INTER CB SW-NW,E=
200901020845 METAR LIRA 020845Z 31002KT 1800 MIFG BKN001 03/03 Q1018=
200901020815 METAR COR LIRA 020815Z 32004KT 0600 R15//// FG BKN001 03/03
                        Q1018=
200901020745 METAR LIRA 020745Z 31005KT 270V350 0200 R15//// FG BKN001
                        04/03 Q1018=
200901020715 METAR LIRA 020715Z 31004KT 0300 R15//// FG BKN001 04/04 Q1018=
200901020645 METAR LIRA 020645Z 33004KT 0200 R15//// FG BKN001 04/04 Q1018=
200901020615 METAR LIRA 020615Z 32005KT 270V350 0300 R15//// FG BKN001
                        04/04 Q1018=
200901020545 METAR LIRA 020545Z 32004KT 280V360 0200 FG SCT001 05/04 Q1018=
200901020515 METAR LIRA 020515Z 31006KT 1800 MIFG SCT001 05/04 Q1018=
200901020445 METAR LIRA 020445Z 31006KT 270V350 1500 R15//// BR SCT007
                        05/04 Q1018=
200901020415 METAR LIRA 020415Z 32006KT 250V360 2000 BR SCT008 05/05 Q1018=
200901020345 METAR LIRA 020345Z 33004KT 260V360 0400 R15//// BCFG OVC002
                        05/05 Q1018=
200901020315 METAR LIRA 020315Z 31008KT 270V350 0700 R15//// BCFG BKN002
                        06/05 Q1018=
200901020245 METAR LIRA 020245Z 31007KT 270V350 5000 2000SE BR SCT007
                        06/05 Q1018=
200901020215 METAR LIRA 020215Z 31005KT 280V340 3000 BR SCT009 06/06 Q1018=
200901020145 METAR LIRA 020145Z 32004KT 3000 BR SCT008 06/06 Q1018=
200901020115 METAR LIRA 020115Z 33003KT 3000 BR SCT008 06/06 Q1018=
200901020045 METAR LIRA 020045Z 32003KT 3000 BR SCT010 07/07 Q1018=
200901020015 METAR LIRA 020015Z 33003KT 2500 BR SCT008 08/07 Q1018=
200901012345 METAR LIRA 012345Z 34004KT 2500 BR SCT009 08/08 Q1018=
200901012315 METAR LIRA 012315Z 34003KT 2000 BR BKN006 09/08 Q1018=
200901012245 METAR LIRA 012245Z 33005KT 0400 R15//// BCFG BKN002 09/09
                        Q1019=
200901012215 METAR LIRA 012215Z 31002KT 2000 BR BKN006 09/09 Q1019=
200901012145 METAR LIRA 012145Z 35004KT 0500 R15//// FG BKN004 10/09 Q1019=
200901012115 METAR LIRA 012115Z 35002KT 0300 R15//// FG OVC002 10/09 Q1019=
200901012045 METAR LIRA 012045Z 31001KT 0200 R15//// FG OVC002 09/09 Q1019=
200901012015 METAR LIRA 012015Z 31002KT 0200 FG OVC002 09/08 Q1019=
200901011945 METAR LIRA 011945Z 33002KT 2500 1000NE BR BKN006 09/09 Q1019=
200901011915 METAR LIRA 011915Z 00000KT 7000 FEW010 SCT060 10/10 Q1019=
200901011845 METAR LIRA 011845Z 00000KT 9999 FEW020 SCT060 11/10 Q1019=
200901011815 METAR LIRA 011815Z 19002KT 9999 FEW020 SCT060 11/10 Q1019=
200901011745 METAR LIRA 011745Z 00000KT 9999 FEW020 SCT060 11/11 Q1019=
200901011715 METAR LIRA 011715Z 21001KT 9999 FEW018 SCT060 12/11 Q1019=
200901011645 METAR LIRA 011645Z 23001KT 7000 -RA SCT018 BKN027 13/12 Q1018=
200901011615 METAR LIRA 011615Z 30004KT 7000 -RA SCT017 BKN027 13/12 Q1018=
200901011545 METAR LIRA 011545Z 24005KT 200V180 7000 SCT018 BKN027 13/11
                        Q1018=
200901011515 METAR LIRA 011515Z 21004KT 8000 SCT018 BKN027 14/11 Q1019=
200901011445 METAR LIRA 011445Z 20008KT 180V250 8000 SCT017 FEW018TCU
                        BKN027 14/11 Q1019=
200901011415 METAR LIRA 011415Z 23008KT 180V290 8000 SCT017 FEW018TCU
                        BKN027 14/12 Q1019=
200901011345 METAR LIRA 011345Z 22006KT 180V280 7000 SCT018 BKN027 14/12
                        Q1019=
200901011315 METAR LIRA 011315Z 23009KT 180V270 7000 SCT018 BKN027 14/13
                        Q1019=
200901011245 METAR LIRA 011245Z 23007KT 190V270 7000 SCT018 BKN027 14/11
                        Q1019=
200901011215 METAR LIRA 011215Z 21010G22KT 180V270 7000 -RA SCT018 BKN027
                        14/12 Q1019=
200901011145 METAR LIRA 011145Z 22012KT 180V270 7000 -RA SCT018 BKN070
                        14/12 Q1020=
200901011115 METAR LIRA 011115Z 21012G24KT 180V250 7000 -RA SCT018 BKN070
                        13/10 Q1020=
200901011045 METAR LIRA 011045Z 20011KT 6000 -RA SCT018 BKN070 14/11 Q1021=
200901011015 METAR LIRA 011015Z 21012KT 180V250 7000 SCT018 BKN070 14/11
                        Q1021=
200901010945 METAR LIRA 010945Z 20013KT 180V250 7000 SCT018 BKN070 13/12
                        Q1021=
200901010915 METAR LIRA 010915Z 21012KT 180V280 7000 SCT018 BKN070 12/11
                        Q1021=
200901010845 METAR LIRA 010845Z 21010KT 180V280 6000 -RA SCT018 SCT030
                        BKN070 12/11 Q1021=
200901010815 METAR LIRA 010815Z 20010KT 180V250 6000 -RA SCT018 SCT030
                        BKN070 12/11 Q1021=
200901010745 METAR LIRA 010745Z 19012KT 6000 -RA SCT018 SCT030 11/10 Q1021=
200901010715 METAR LIRA 010715Z 19014KT 6000 -RA SCT018 BKN030 11/09 Q1021=
200901010645 METAR LIRA 010645Z 19011KT 150V210 6000 RA SCT018 BKN030
                        11/10 Q1021=
200901010615 METAR LIRA 010615Z 18012KT 6000 RA SCT018 BKN030 11/10 Q1021=
200901010545 METAR LIRA 010545Z 18009KT 150V220 6000 RA SCT018 BKN030
                        11/10 Q1021=
200901010515 METAR LIRA 010515Z 17012KT 140V200 6000 RA SCT018 BKN030
                        11/10 Q1022=
200901010445 METAR LIRA 010445Z 17010KT 130V210 7000 -RA SCT018 BKN035
                        09/08 Q1022=
200901010415 METAR LIRA 010415Z 00000KT 8000 -RA SCT018 BKN035 08/08 Q1023=
200901010345 METAR LIRA 010345Z 00000KT 8000 -RA FEW018 BKN030 09/07 Q1023=
200901010315 METAR LIRA 010315Z 01004KT 9999 -RA FEW018 BKN035 09/07 Q1024=
200901010245 METAR LIRA 010245Z 14006KT 9999 -DZ FEW018 SCT035 10/09 Q1024=
200901010215 METAR LIRA 010215Z 16009KT 9999 SCT030 SCT060 10/09 Q1025=
200901010145 METAR LIRA 010145Z 16011KT 8000 -DZ SCT030 SCT060 09/07 Q1025=
200901010115 METAR LIRA 010115Z 18006KT 8000 SCT030 SCT060 08/06 Q1026=
200901010045 METAR LIRA 010045Z 00000KT 5000 BR SCT030 SCT060 06/04 Q1026=
200901010015 METAR LIRA 010015Z 00000KT 5000 BR FEW030 SCT060 06/04 Q1026=

</pre>

</body>
</html>
