##########################################################
# Query made at 11/10/2014 15:40:50 UTC
# Time interval: from 07/01/2010 00:00  to 07/31/2010 23:59  UTC
##########################################################

##########################################################
# LIRA, Roma / Ciampino (Italy)
# WMO index: 16239
# Latitude 41-47N. Longitude 012-35E. Altitude 129 m.
##########################################################

###################################
#  METAR/SPECI from LIRA
###################################
201007312350 METAR LIRA 010045Z 36003KT CAVOK 20/16 Q1015=
201007312345 METAR LIRA 312345Z 02003KT CAVOK 21/16 Q1015=
201007312315 METAR LIRA 312315Z 36004KT CAVOK 22/16 Q1015=
201007312245 METAR LIRA 312245Z 02003KT CAVOK 22/15 Q1015=
201007312215 METAR LIRA 312215Z 04004KT CAVOK 22/15 Q1015=
201007312145 METAR LIRA 312145Z 01002KT CAVOK 23/15 Q1015=
201007312115 METAR LIRA 312115Z 33005KT 270V360 CAVOK 24/14 Q1015=
201007312045 METAR LIRA 312045Z 32005KT CAVOK 24/14 Q1015=
201007312015 METAR LIRA 312015Z 31003KT CAVOK 25/13 Q1014=
201007311945 METAR LIRA 311945Z 31005KT CAVOK 25/13 Q1014=
201007311915 METAR LIRA 311915Z 33008KT CAVOK 25/13 Q1014=
201007311845 METAR LIRA 311845Z 31007KT 280V360 CAVOK 26/12 Q1014=
201007311815 METAR LIRA 311815Z 32009KT 290V360 CAVOK 27/11 Q1013=
201007311745 METAR LIRA 311745Z 32011KT 280V360 9999 FEW018 28/12 Q1013=
201007311715 METAR LIRA 311715Z 33009KT 290V010 9999 FEW018 28/11 Q1013=
201007311645 METAR LIRA 311645Z 33011KT 280V010 9999 FEW018 28/11 Q1013=
201007311615 METAR LIRA 311615Z 33009KT 280V040 9999 SCT020 28/11 Q1012=
201007311545 METAR LIRA 311545Z 33012KT 280V020 9999 SCT018 29/11 Q1012=
201007311515 METAR LIRA 311515Z 30011KT 260V360 9999 SCT018 29/11 Q1012=
201007311445 METAR LIRA 311445Z 30010KT 230V340 9999 SCT018 29/11 Q1012=
201007311415 METAR LIRA 311415Z 31010KT 250V030 9999 SCT020 29/12 Q1012=
201007311345 METAR LIRA 311345Z 33009KT 270V030 9999 SCT018 29/12 Q1012=
201007311315 METAR LIRA 311315Z 35006KT 270V040 9999 SCT018 28/11 Q1012=
201007311245 METAR LIRA 311245Z 35007KT 280V100 9999 SCT018 28/12 Q1012=
201007311215 METAR LIRA 311215Z 30010KT 240V360 9999 SCT018 28/12 Q1012=
201007311145 METAR LIRA 311145Z 32008KT 240V020 9999 SCT018 27/11 Q1012=
201007311115 METAR LIRA 311115Z 30005KT 250V010 9999 SCT018 27/11 Q1012=
201007311045 METAR LIRA 311045Z 02006KT 140V120 9999 FEW020 27/12 Q1012=
201007311015 METAR LIRA 311015Z 30006KT 240V030 9999 FEW020 26/12 Q1012=
201007310945 METAR LIRA 310945Z 32008KT 250V020 9999 FEW020 25/13 Q1012=
201007310915 METAR LIRA 310915Z 35005KT 310V040 9999 FEW020 25/13 Q1011=
201007310845 METAR LIRA 310845Z 35006KT 290V070 9999 FEW020 24/15 Q1011=
201007310815 METAR LIRA 310815Z 01006KT 280V080 9999 FEW070 23/15 Q1011=
201007310745 METAR LIRA 310745Z 02005KT 280V090 9999 FEW070 22/15 Q1011=
201007310715 METAR LIRA 310715Z 12004KT 330V090 9999 FEW070 20/15 Q1011=
201007310645 METAR LIRA 310645Z 02006KT 330V070 9999 FEW070 19/15 Q1011=
201007310615 METAR LIRA 310615Z 01005KT 310V090 9999 FEW070 18/15 Q1011=
201007310545 METAR LIRA 310545Z 03005KT 9999 FEW070 17/14 Q1010=
201007310515 METAR LIRA 310515Z 04004KT 9999 FEW020 17/14 Q1010=
201007310445 METAR LIRA 310445Z 05004KT 9999 FEW020 16/14 Q1009=
201007310415 METAR LIRA 310415Z 05004KT 9999 FEW020 16/14 Q1009=
201007310345 METAR LIRA 310345Z 05004KT CAVOK 16/14 Q1009=
201007310315 METAR LIRA 310315Z 05005KT 020V090 CAVOK 16/15 Q1009=
201007310245 METAR LIRA 310245Z 05005KT 360V070 9999 FEW030 16/14 Q1009=
201007310215 METAR LIRA 310215Z 01003KT 9999 FEW030 16/15 Q1009=
201007310145 METAR LIRA 310145Z 35004KT 9999 FEW030 16/15 Q1009=
201007310115 METAR LIRA 310115Z 04005KT 9999 FEW025 16/15 Q1009=
201007310045 METAR LIRA 310045Z 33003KT 9999 SCT025 17/15 Q1009=
201007310015 METAR LIRA 310015Z 35005KT 9999 FEW020 17/15 Q1009=
201007302350 METAR LIRA 310045Z 33003KT 9999 SCT025 17/15 Q1009=
201007302345 METAR LIRA 302345Z 01004KT 9999 FEW020 SCT060 17/16 Q1009=
201007302315 METAR LIRA 302315Z 05005KT 9999 FEW020 SCT060 17/16 Q1009=
201007302245 METAR LIRA 302245Z 05005KT 010V080 9999 FEW016 17/17 Q1009=
201007302215 METAR LIRA 302215Z 23004KT 290V360 9999 FEW016 SCT070 18/17
                        Q1009=
201007302145 METAR LIRA 302145Z 33012KT 280V360 9999 FEW017 SCT060 18/17
                        Q1008=
201007302115 METAR LIRA 302115Z 12006KT 090V180 9999 FEW020 SCT045 19/16
                        Q1008=
201007302045 METAR LIRA 302045Z 09012KT 060V120 8000 -RA FEW014 FEW020TCU
                        SCT025 18/18 Q1008 RETS=
201007302015 METAR LIRA 302015Z 05002KT 7000 -TSRA SCT015CB BKN022 18/17
                        Q1010=
201007301945 METAR LIRA 301945Z 26004KT 210V290 8000 TS SCT014CB SCT020
                        18/17 Q1010=
201007301915 METAR LIRA 301915Z 32004KT 8000 TS SCT014CB SCT020 20/15
                        Q1010=
201007301845 METAR LIRA 301845Z 30008KT 270V340 7000 TS SCT014CB BKN020
                        20/15 Q1009=
201007301815 METAR LIRA 301815Z 19006KT 140V230 7000 TS SCT015CB SCT060
                        23/17 Q1009=
201007301745 METAR LIRA 301745Z 18008KT 140V230 9999 VCTS FEW014TCU FEW016CB
                        SCT060 24/16 Q1008=
201007301715 METAR LIRA 301715Z 20008KT 150V240 9999 VCTS FEW014 FEW016CB
                        SCT030 24/15 Q1008=
201007301645 METAR LIRA 301645Z 18011KT 130V220 9999 FEW014 FEW016CB SCT060
                        25/14 Q1008=
201007301615 METAR LIRA 301615Z 19009KT 150V260 9999 FEW015 FEW020TCU
                        SCT030 25/15 Q1008=
201007301545 METAR LIRA 301545Z 20011KT 150V240 9999 SCT014 BKN060 25/13
                        Q1008=
201007301515 METAR LIRA 301515Z 19009KT 150V240 9999 SCT014 SCT060 25/13
                        Q1008=
201007301445 METAR LIRA 301445Z 18011KT 140V240 9999 SCT018 26/15 Q1008=
201007301415 METAR LIRA 301415Z 19011KT 140V240 9999 SCT018 26/16 Q1008=
201007301345 METAR LIRA 301345Z 19009KT 150V260 9999 SCT018 26/16 Q1008=
201007301315 METAR LIRA 301315Z 22009KT 140V250 9999 SCT018 28/16 Q1008=
201007301245 METAR LIRA 301245Z 21010KT 150V260 9999 SCT018 27/16 Q1008=
201007301215 METAR LIRA 301215Z 22010KT 160V260 9999 SCT018 27/16 Q1008=
201007301145 METAR LIRA 301145Z 21010KT 150V270 9999 SCT018 28/16 Q1008=
201007301115 METAR LIRA 301115Z 24010KT 190V300 9999 SCT018 27/18 Q1008=
201007301045 METAR LIRA 301045Z 21011KT 160V260 9999 SCT015 FEW020TCU
                        SCT025 27/18 Q1008=
201007301015 METAR LIRA 301015Z 21011KT 160V260 9999 SCT015 FEW020TCU
                        SCT025 27/17 Q1008=
201007300945 METAR LIRA 300945Z 20011KT 160V260 9999 SCT015 FEW018CB FEW020TCU
                        27/17 Q1008=
201007300915 METAR LIRA 300915Z 19011KT 150V260 9999 SCT015 FEW018CB FEW020TCU
                        26/18 Q1008=
201007300845 METAR LIRA 300845Z 17012KT 140V210 9999 FEW015 FEW018CB FEW020TCU
                        26/19 Q1008=
201007300815 METAR LIRA 300815Z 18012KT 150V230 9999 FEW014 FEW018CB FEW020TCU
                        25/21 Q1008=
201007300745 METAR LIRA 300745Z 18007KT 140V240 9999 FEW014 FEW018CB SCT020TCU
                        24/22 Q1008=
201007300715 METAR LIRA 300715Z 19008KT 140V240 8000 -RA FEW010 FEW018CB
                        BKN023 24/22 Q1007=
201007300645 METAR LIRA 300645Z 15017KT 120V190 6000 -RA FEW010 FEW018CB
                        BKN023 25/21 Q1007=
201007300615 METAR LIRA 300615Z 16016KT 9000 FEW015 FEW018CB SCT020TCU
                        24/22 Q1007=
201007300545 METAR LIRA 300545Z 16014KT 8000 FEW015 FEW018CB SCT020TCU
                        24/21 Q1007=
201007300515 METAR LIRA 300515Z 17012KT 130V220 8000 FEW015 FEW018CB 23/21
                        Q1007=
201007300445 METAR LIRA 300445Z 18009KT 150V230 8000 FEW015 FEW018CB 23/21
                        Q1007=
201007300415 METAR LIRA 300415Z 16012KT 8000 FEW015 FEW018CB 23/21 Q1007=
201007300345 METAR LIRA 300345Z 16012KT 9999 FEW015 FEW018CB 23/21 Q1007=
201007300315 METAR LIRA 300315Z 16009KT 120V190 9999 FEW016 FEW018CB 23/21
                        Q1007=
201007300245 METAR LIRA 300245Z 17011KT 140V200 9999 SCT016 FEW017TCU
                        FEW018CB 23/21 Q1007=
201007300215 METAR LIRA 300215Z 16011KT 130V190 9999 FEW016 FEW017TCU
                        FEW018CB 23/21 Q1008=
201007300145 METAR LIRA 300145Z 16012KT 9999 FEW016 FEW017TCU FEW018CB
                        23/21 Q1008=
201007300115 METAR LIRA 300115Z 15011KT 9999 FEW016 FEW017TCU FEW018CB
                        23/21 Q1008=
201007300045 METAR LIRA 300045Z 16011KT 9999 SCT016 FEW018TCU 23/21 Q1009=
201007300015 METAR LIRA 300015Z 16009KT 140V210 9999 FEW018TCU SCT020
                        23/21 Q1009=
201007292350 METAR LIRA 300045Z 16011KT 9999 SCT016 FEW018TCU 23/21 Q1009=
201007292345 METAR LIRA 292345Z 16011KT 9999 FEW018TCU 23/21 Q1009=
201007292315 METAR LIRA 292315Z 17012KT 9999 FEW018TCU SCT020 24/21 Q1009=
201007292245 METAR LIRA 292245Z 16011KT 130V210 9999 FEW016TCU SCT017
                        24/20 Q1009=
201007292215 METAR LIRA 292215Z 16012KT 130V200 9999 FEW016TCU FEW017CB
                        BKN070 24/20 Q1009=
201007292145 METAR LIRA 292145Z 16014KT 9999 FEW016TCU FEW017CB BKN080
                        24/21 Q1009=
201007292115 METAR LIRA 292115Z 15013KT 9999 FEW016TCU 24/21 Q1009=
201007292045 METAR LIRA 292045Z 16015KT 9999 FEW016TCU 24/21 Q1010=
201007292015 METAR LIRA 292015Z 18012KT 140V220 9999 FEW016 24/21 Q1009=
201007291945 METAR LIRA 291945Z 18009KT 150V230 9999 FEW016 24/21 Q1009=
201007291915 METAR LIRA 291915Z 16012KT 9999 FEW080 25/19 Q1009=
201007291815 METAR LIRA 291815Z 17012KT 150V200 9999 FEW018 25/18 Q1009=
201007291715 METAR LIRA 291715Z 15013KT 140V220 9999 FEW018 27/19 Q1010=
201007291615 METAR LIRA 291615Z 18012KT 150V220 9999 FEW018 28/20 Q1010=
201007291515 METAR LIRA 291515Z 18013KT 130V240 9999 SCT018 28/20 Q1011=
201007291415 METAR LIRA 291415Z 18013KT 120V240 9999 SCT018 28/20 Q1012=
201007291315 METAR LIRA 291315Z 17014KT 120V220 9999 SCT018 28/20 Q1012=
201007291245 METAR LIRA 291245Z 17014KT 140V240 9999 SCT018 28/18 Q1012=
201007291215 METAR LIRA 291215Z 17016KT 120V220 9999 SCT018 28/18 Q1012=
201007291145 METAR LIRA 291145Z 19012KT 130V250 9999 FEW018 SCT030 28/18
                        Q1012=
201007291115 METAR LIRA 291115Z 18013KT 140V220 9999 FEW018 SCT030 28/16
                        Q1013=
201007291045 METAR LIRA 291045Z 17013KT 120V230 9999 FEW018 SCT030 29/17
                        Q1013=
201007291015 METAR LIRA 291015Z 17012KT 120V220 9999 FEW018 SCT080 29/16
                        Q1013=
201007290945 METAR LIRA 290945Z 16012KT 120V230 9999 FEW018 29/16 Q1013=
201007290915 METAR LIRA 290915Z 15012KT 110V190 9999 FEW025 28/15 Q1013=
201007290845 METAR LIRA 290845Z 17011KT 120V210 9999 FEW025 28/12 Q1013=
201007290815 METAR LIRA 290815Z 17010KT 120V230 9999 FEW070 27/11 Q1013=
201007290745 METAR LIRA 290745Z 18009KT 150V240 9999 FEW070 27/11 Q1013=
201007290715 METAR LIRA 290715Z 27005KT 210V330 9999 FEW070 25/15 Q1013=
201007290645 METAR LIRA 290645Z 25003KT 9999 FEW070 25/11 Q1013=
201007290615 METAR LIRA 290615Z 13002KT 9999 FEW070 24/10 Q1013=
201007290545 METAR LIRA 290545Z 10003KT 9999 FEW080 22/10 Q1013=
201007290515 METAR LIRA 290515Z 15001KT 9999 FEW080 20/10 Q1013=
201007290445 METAR LIRA 290445Z 10006KT CAVOK 19/11 Q1013=
201007290415 METAR LIRA 290415Z 11004KT CAVOK 19/13 Q1014=
201007290345 METAR LIRA 290345Z 10003KT CAVOK 19/13 Q1014=
201007290315 METAR LIRA 290315Z 10003KT CAVOK 19/13 Q1014=
201007290245 METAR LIRA 290245Z 10004KT CAVOK 19/13 Q1014=
201007290215 METAR LIRA 290215Z 10005KT CAVOK 19/14 Q1015=
201007290145 METAR LIRA 290145Z 10005KT CAVOK 19/14 Q1015=
201007290115 METAR LIRA 290115Z 10005KT CAVOK 20/14 Q1015=
201007290045 METAR LIRA 290045Z 12003KT CAVOK 20/15 Q1015=
201007290015 METAR LIRA 290015Z 14003KT CAVOK 20/15 Q1016=
201007282350 METAR LIRA 290045Z 12003KT CAVOK 20/15 Q1015=
201007282345 METAR LIRA 282345Z 11004KT CAVOK 20/16 Q1016=
201007282315 METAR LIRA 282315Z 10005KT CAVOK 20/17 Q1016=
201007282245 METAR LIRA 282245Z 10004KT CAVOK 20/18 Q1016=
201007282215 METAR LIRA 282215Z 14003KT CAVOK 21/19 Q1016=
201007282145 METAR LIRA 282145Z 18003KT CAVOK 22/19 Q1016=
201007282115 METAR LIRA 282115Z 18003KT CAVOK 22/19 Q1016=
201007282045 METAR LIRA 282045Z 19003KT CAVOK 22/19 Q1016=
201007282015 METAR LIRA 282015Z 21003KT CAVOK 22/19 Q1016=
201007281945 METAR LIRA 281945Z 20004KT CAVOK 23/19 Q1016=
201007281915 METAR LIRA 281915Z 19004KT CAVOK 24/19 Q1016=
201007281845 METAR LIRA 281845Z 20003KT 9999 FEW080 SCT200 24/19 Q1016=
201007281815 METAR LIRA 281815Z 21004KT CAVOK 25/19 Q1016=
201007281745 METAR LIRA 281745Z 22005KT 180V260 CAVOK 26/18 Q1015=
201007281715 METAR LIRA 281715Z 23006KT 150V280 9999 FEW018 26/14 Q1015=
201007281645 METAR LIRA 281645Z 26007KT 200V320 9999 FEW018 27/14 Q1015=
201007281615 METAR LIRA 281615Z 22008KT 180V290 9999 FEW018 27/13 Q1015=
201007281545 METAR LIRA 281545Z 23008KT 180V270 CAVOK 28/12 Q1015=
201007281515 METAR LIRA 281515Z 22008KT 140V260 9999 FEW018 28/12 Q1016=
201007281445 METAR LIRA 281445Z 23010KT 190V310 9999 FEW018 29/13 Q1016=
201007281415 METAR LIRA 281415Z 24008KT 180V320 9999 FEW018 29/12 Q1016=
201007281345 METAR LIRA 281345Z 25008KT 190V320 9999 FEW018 29/12 Q1016=
201007281315 METAR LIRA 281315Z 26008KT 200V340 9999 SCT018 29/12 Q1016=
201007281245 METAR LIRA 281245Z 23009KT 190V330 9999 SCT020 29/12 Q1016=
201007281215 METAR LIRA 281215Z 22006KT 160V300 9999 SCT020 29/11 Q1017=
201007281145 METAR LIRA 281145Z 08003KT 9999 SCT020 28/09 Q1017=
201007281115 METAR LIRA 281115Z 34004KT 260V080 9999 FEW020 29/11 Q1017=
201007281045 METAR LIRA 281045Z 31007KT 260V020 9999 FEW020 29/10 Q1017=
201007281015 METAR LIRA 281015Z 29007KT 260V330 9999 FEW020 28/11 Q1017=
201007280945 METAR LIRA 280945Z 35004KT 280V350 9999 FEW020 27/11 Q1017=
201007280915 METAR LIRA 280915Z 32003KT 240V030 9999 FEW020 27/12 Q1017=
201007280845 METAR LIRA 280845Z 31004KT 9999 FEW020 26/12 Q1017=
201007280815 METAR LIRA 280815Z 16002KT CAVOK 26/11 Q1017=
201007280745 METAR LIRA 280745Z 31002KT CAVOK 24/13 Q1017=
201007280715 METAR LIRA 280715Z 01001KT CAVOK 23/14 Q1017=
201007280645 METAR LIRA 280645Z 33002KT CAVOK 22/14 Q1017=
201007280615 METAR LIRA 280615Z 04002KT CAVOK 21/15 Q1017=
201007280545 METAR LIRA 280545Z 03002KT CAVOK 20/14 Q1016=
201007280515 METAR LIRA 280515Z 02003KT CAVOK 19/15 Q1016=
201007280445 METAR LIRA 280445Z 01003KT CAVOK 17/14 Q1016=
201007280415 METAR LIRA 280415Z 03003KT CAVOK 17/15 Q1017=
201007280345 METAR LIRA 280345Z 04005KT 9999 FEW070 17/14 Q1016=
201007280315 METAR LIRA 280315Z 03002KT 9999 FEW070 18/14 Q1016=
201007280245 METAR LIRA 280245Z 03003KT 9999 FEW070 18/14 Q1016=
201007280215 METAR LIRA 280215Z 03003KT 9999 FEW070 18/14 Q1016=
201007280145 METAR LIRA 280145Z 05003KT 9999 FEW070 18/14 Q1016=
201007280115 METAR LIRA 280115Z 05003KT 9999 FEW070 18/14 Q1016=
201007280045 METAR LIRA 280045Z 02002KT 9999 FEW070 19/14 Q1016=
201007280015 METAR LIRA 280015Z 02002KT 9999 FEW070 19/14 Q1016=
201007272350 METAR LIRA 280045Z 02002KT 9999 FEW070 19/14 Q1016=
201007272345 METAR LIRA 272345Z 12001KT 9999 FEW070 20/14 Q1016=
201007272315 METAR LIRA 272315Z 35001KT 9999 FEW030 SCT070 21/14 Q1016=
201007272245 METAR LIRA 272245Z 00000KT 9999 FEW030 SCT070 21/14 Q1016=
201007272215 METAR LIRA 272215Z 02002KT 9999 FEW030 22/13 Q1016=
201007272145 METAR LIRA 272145Z 36002KT 9999 FEW018 SCT070 22/13 Q1016=
201007272115 METAR LIRA 272115Z 01003KT 9999 FEW018 SCT070 22/13 Q1016=
201007272045 METAR LIRA 272045Z 03004KT 9999 FEW018 23/14 Q1015=
201007272015 METAR LIRA 272015Z 03005KT 9999 SCT018 FEW022CB 23/14 Q1015=
201007271945 METAR LIRA 271945Z 02005KT 330V070 9999 SCT018 FEW022CB 23/12
                        Q1015=
201007271915 METAR LIRA 271915Z 34004KT 9999 FEW018 FEW022CB SCT070 24/10
                        Q1015=
201007271845 METAR LIRA 271845Z 29003KT 9999 FEW018 FEW022CB SCT070 24/09
                        Q1015=
201007271815 METAR LIRA 271815Z 25004KT 200V290 9999 FEW018 FEW020CB SCT070
                        25/08 Q1015=
201007271745 METAR LIRA 271745Z 28005KT 210V330 9999 FEW018 FEW022CB SCT070
                        25/08 Q1014=
201007271715 METAR LIRA 271715Z 26007KT 200V320 9999 FEW018 FEW022CB 26/11
                        Q1014=
201007271645 METAR LIRA 271645Z 24007KT 180V330 9999 SCT018 FEW022CB 27/10
                        Q1014=
201007271615 METAR LIRA 271615Z 23008KT 190V290 9999 SCT018 27/08 Q1013=
201007271545 METAR LIRA 271545Z 24009KT 180V310 9999 SCT018 28/08 Q1014=
201007271515 METAR LIRA 271515Z 23009KT 180V290 9999 FEW018 28/10 Q1013=
201007271445 METAR LIRA 271445Z 24009KT 190V310 9999 FEW018 FEW020CB 28/09
                        Q1013=
201007271415 METAR LIRA 271415Z 23009KT 180V320 9999 FEW018 FEW020CB 29/11
                        Q1013=
201007271345 METAR LIRA 271345Z 21009KT 150V280 9999 FEW018 FEW020CB 29/11
                        Q1013=
201007271315 METAR LIRA 271315Z 25008KT 140V360 9999 SCT018 28/10 Q1014=
201007271245 METAR LIRA 271245Z 29004KT 220V330 9999 SCT020 29/08 Q1014=
201007271215 METAR LIRA 271215Z 35005KT 280V120 9999 SCT020 29/05 Q1014=
201007271145 METAR LIRA 271145Z 33005KT 290V070 9999 SCT018 29/06 Q1014=
201007271115 METAR LIRA 271115Z 33005KT 240V090 9999 SCT018 28/07 Q1014=
201007271045 METAR LIRA 271045Z 21004KT 9999 SCT018 28/10 Q1014=
201007271015 METAR LIRA 271015Z 32005KT 270V060 9999 SCT018 27/10 Q1014=
201007270945 METAR LIRA 270945Z 09004KT 260V020 9999 FEW018 27/11 Q1014=
201007270915 METAR LIRA 270915Z 03002KT 9999 FEW018 27/11 Q1014=
201007270845 METAR LIRA 270845Z 21002KT 9999 FEW018 26/11 Q1014=
201007270815 METAR LIRA 270815Z 03003KT 9999 FEW018 25/13 Q1014=
201007270745 METAR LIRA 270745Z 01004KT 330V060 9999 FEW018 24/15 Q1014=
201007270645 METAR LIRA 270645Z 01006KT 310V060 9999 FEW018 21/14 Q1013=
201007270615 METAR LIRA 270615Z 36005KT 290V070 9999 FEW018 20/14 Q1012=
201007270545 METAR LIRA 270545Z 01004KT 9999 FEW018 20/15 Q1012=
201007270515 METAR LIRA 270515Z 05004KT 030V090 9999 FEW018 18/14 Q1012=
201007270445 METAR LIRA 270445Z 06005KT 350V090 9999 FEW018 17/14 Q1012=
201007270415 METAR LIRA 270415Z 03004KT 9999 FEW018 17/14 Q1012=
201007270345 METAR LIRA 270345Z 02004KT 9999 FEW018 17/14 Q1011=
201007270315 METAR LIRA 270315Z 03005KT 360V060 9999 FEW025 17/14 Q1011=
201007270245 METAR LIRA 270245Z 03003KT 9999 FEW025 17/14 Q1011=
201007270215 METAR LIRA 270215Z 02003KT 9999 FEW025 16/13 Q1011=
201007270145 METAR LIRA 270145Z 00000KT 9999 FEW030 17/13 Q1011=
201007270115 METAR LIRA 270115Z 00000KT CAVOK 17/13 Q1011=
201007270045 METAR LIRA 270045Z 28002KT CAVOK 18/14 Q1011=
201007270015 METAR LIRA 270015Z 26002KT CAVOK 18/13 Q1011=
201007262350 METAR LIRA 270045Z 28002KT CAVOK 18/14 Q1011=
201007262345 METAR LIRA 262345Z 08001KT CAVOK 18/13 Q1011=
201007262315 METAR LIRA 262315Z VRB01KT CAVOK 19/13 Q1011=
201007262245 METAR LIRA 262245Z 32001KT CAVOK 19/12 Q1011=
201007262215 METAR LIRA 262215Z 15001KT CAVOK 20/12 Q1010=
201007262145 METAR LIRA 262145Z 15004KT CAVOK 21/13 Q1010=
201007262115 METAR LIRA 262115Z 22001KT CAVOK 21/12 Q1010=
201007262045 METAR LIRA 262045Z 16002KT CAVOK 21/13 Q1010=
201007262015 METAR LIRA 262015Z 14003KT CAVOK 22/13 Q1010=
201007261945 METAR LIRA 261945Z 16005KT 9999 FEW030 23/13 Q1009=
201007261915 METAR LIRA 261915Z 05004KT 9999 FEW030 24/09 Q1009=
201007261845 METAR LIRA 261845Z 36007KT 310V070 9999 FEW030 26/07 Q1009=
201007261815 METAR LIRA 261815Z 33010KT 290V010 9999 FEW018 FEW020TCU
                        SCT080 27/08 Q1008=
201007261745 METAR LIRA 261745Z 34011KT 300V040 9999 FEW018 FEW020TCU
                        SCT080 27/05 Q1008=
201007261715 METAR LIRA 261715Z 34010KT 300V030 9999 FEW018 FEW020CB SCT070
                        28/05 Q1008=
201007261645 METAR LIRA 261645Z 33013KT 290V010 9999 FEW018 FEW020CB SCT070
                        29/06 Q1007=
201007261615 METAR LIRA 261615Z 34014KT 300V050 9999 FEW018 FEW020CB SCT070
                        29/06 Q1007=
201007261545 METAR LIRA 261545Z 34011KT 270V030 9999 FEW018 FEW020CB 28/06
                        Q1006=
201007261515 METAR LIRA 261515Z 32012KT 280V020 9999 FEW018 FEW020CB 29/06
                        Q1006=
201007261445 METAR LIRA 261445Z 33012KT 260V050 9999 SCT018 FEW020CB SCT070
                        29/06 Q1006=
201007261415 METAR LIRA 261415Z 33011KT 280V050 9999 SCT018 FEW020CB 30/07
                        Q1006=
201007261345 METAR LIRA 261345Z 32008KT 240V050 9999 SCT018 FEW020CB 29/07
                        Q1006=
201007261315 METAR LIRA 261315Z 35012KT 300V060 9999 SCT018 FEW020CB 29/08
                        Q1006=
201007261245 METAR LIRA 261245Z 32008KT 250V070 9999 FEW018 FEW020CB 29/07
                        Q1006=
201007261215 METAR LIRA 261215Z 31006KT 250V340 9999 FEW018 FEW020CB 29/07
                        Q1006=
201007261145 METAR LIRA 261145Z 32008KT 270V030 9999 SCT020CB 29/07 Q1007=
201007261115 METAR LIRA 261115Z 35007KT 260V090 9999 FEW020 29/07 Q1007=
201007261045 METAR LIRA 261045Z 32008KT 240V050 9999 FEW020 28/08 Q1007=
201007261015 METAR LIRA 261015Z 35005KT 280V100 9999 FEW020 28/09 Q1007=
201007260945 METAR LIRA 260945Z 01006KT 300V070 9999 FEW020 SCT070 27/10
                        Q1007=
201007260915 METAR LIRA 260915Z 36007KT 310V080 9999 FEW020 27/10 Q1007=
201007260845 METAR LIRA 260845Z 01005KT 330V080 9999 FEW020 27/11 Q1007=
201007260815 METAR LIRA 260815Z 36006KT 300V090 9999 SCT040 25/11 Q1007=
201007260745 METAR LIRA 260745Z 01007KT 310V070 9999 FEW040 24/12 Q1007=
201007260715 METAR LIRA 260715Z 01007KT 300V090 9999 FEW040 23/12 Q1007=
201007260645 METAR LIRA 260645Z 36006KT 300V060 9999 FEW030 23/13 Q1007=
201007260615 METAR LIRA 260615Z 36005KT 9999 FEW070 SCT200 21/12 Q1007=
201007260545 METAR LIRA 260545Z 02005KT 9999 FEW030 21/12 Q1007=
201007260515 METAR LIRA 260515Z 36006KT 300V040 9999 FEW030 20/13 Q1006=
201007260445 METAR LIRA 260445Z 36004KT 310V030 9999 FEW030 19/12 Q1006=
201007260415 METAR LIRA 260415Z 36006KT 310V040 9999 FEW030 19/12 Q1006=
201007260345 METAR LIRA 260345Z 02003KT 9999 FEW030 20/13 Q1006=
201007260315 METAR LIRA 260315Z 36006KT 300V060 9999 FEW030 20/13 Q1006=
201007260245 METAR LIRA 260245Z 34005KT 320V020 9999 FEW030 21/13 Q1006=
201007260215 METAR LIRA 260215Z 36003KT 9999 FEW030 21/13 Q1006=
201007260145 METAR LIRA 260145Z 36005KT 330V040 9999 FEW030 SCT060 21/14
                        Q1006=
201007260115 METAR LIRA 260115Z 36003KT 9999 SCT030 SCT060 22/15 Q1006=
201007260045 METAR LIRA 260045Z 36002KT 9999 SCT030 SCT060 22/14 Q1006=
201007260015 METAR LIRA 260015Z 04002KT 9999 SCT030 SCT060 22/15 Q1006=
201007252350 METAR LIRA 260045Z 36002KT 9999 SCT030 SCT060 22/14 Q1006=
201007252345 METAR LIRA 252345Z 36003KT 9999 FEW030 SCT060 22/15 Q1006=
201007252315 METAR LIRA 252315Z 05004KT 9999 FEW025 SCT060 22/14 Q1006=
201007252245 METAR LIRA 252245Z 01005KT 330V050 9999 FEW025 SCT060 23/14
                        Q1006=
201007252215 METAR LIRA 252215Z 06006KT 020V090 9999 FEW025 SCT070 23/14
                        Q1006=
201007252145 METAR LIRA 252145Z 07009KT 030V100 9999 FEW030 SCT070 23/15
                        Q1006=
201007252115 METAR LIRA 252115Z 05003KT 9999 SCT070 23/15 Q1006=
201007252045 METAR LIRA 252045Z 15003KT 9999 FEW030 SCT070 24/13 Q1006=
201007252015 METAR LIRA 252015Z 20002KT 9999 FEW020 26/14 Q1006=
201007251945 METAR LIRA 251945Z 23004KT 170V280 9999 SCT020 26/13 Q1005=
201007251915 METAR LIRA 251915Z 29007KT 240V360 9999 SCT020 SCT080 27/13
                        Q1005=
201007251845 METAR LIRA 251845Z 18010KT 140V210 9999 SCT020 SCT080 27/16
                        Q1005=
201007251815 METAR LIRA 251815Z 18007KT 130V240 9999 FEW016TCU SCT022
                        28/16 Q1005=
201007251745 METAR LIRA 251745Z 11010KT 090V150 9999 FEW016TCU SCT020
                        29/15 Q1004=
201007251715 METAR LIRA 251715Z 13011KT 090V180 9999 SCT020 29/13 Q1004=
201007251645 METAR LIRA 251645Z 12009KT 060V160 9999 FEW016 SCT030 30/14
                        Q1004=
201007251615 METAR LIRA 251615Z 06007KT 360V110 9999 FEW016 SCT030 30/11
                        Q1004=
201007251545 METAR LIRA 251545Z 01006KT 310V070 9999 SCT014 FEW017TCU
                        30/07 Q1004=
201007251515 METAR LIRA 251515Z 09009KT 030V120 9999 SCT014 FEW017TCU
                        30/07 Q1004=
201007251445 METAR LIRA 251445Z 34005KT 320V040 9999 SCT014 FEW017CB 31/07
                        Q1005=
201007251415 METAR LIRA 251415Z 01006KT 300V060 9999 SCT014 FEW017CB 32/08
                        Q1005=
201007251345 METAR LIRA 251345Z 35004KT 300V030 9999 SCT014 FEW017CB 31/08
                        Q1005=
201007251315 METAR LIRA 251315Z 16005KT 9999 SCT014 FEW017TCU 30/09 Q1005=
201007251245 METAR LIRA 251245Z 06006KT 360V100 9999 SCT014 30/07 Q1005=
201007251215 METAR LIRA 251215Z 25005KT 210V310 9999 SCT017 31/08 Q1005=
201007251145 METAR LIRA 251145Z 36007KT 300V060 9999 FEW017 31/08 Q1006=
201007251115 METAR LIRA 251115Z 32004KT 270V010 9999 FEW018 30/09 Q1006=
201007251045 METAR LIRA 251045Z 36005KT 260V020 9999 FEW018 30/08 Q1006=
201007251015 METAR LIRA 251015Z 01003KT 300V060 9999 FEW018 29/10 Q1006=
201007250945 METAR LIRA 250945Z 04006KT 330V060 9999 FEW018 29/09 Q1007=
201007250915 METAR LIRA 250915Z 02008KT 300V060 9999 FEW018 28/10 Q1007=
201007250845 METAR LIRA 250845Z 01008KT 300V060 9999 FEW018 28/09 Q1007=
201007250815 METAR LIRA 250815Z 36007KT 300V060 9999 FEW018 27/10 Q1007=
201007250745 METAR LIRA 250745Z 36008KT 330V060 9999 FEW025 26/11 Q1007=
201007250715 METAR LIRA 250715Z 01008KT 330V070 CAVOK 25/12 Q1007=
201007250645 METAR LIRA 250645Z 01007KT 320V070 CAVOK 24/12 Q1007=
201007250615 METAR LIRA 250615Z 01007KT 320V070 CAVOK 22/13 Q1007=
201007250545 METAR LIRA 250545Z 01007KT 330V070 CAVOK 22/12 Q1007=
201007250515 METAR LIRA 250515Z 03005KT 360V080 CAVOK 21/12 Q1007=
201007250445 METAR LIRA 250445Z 03005KT 330V070 CAVOK 20/12 Q1007=
201007250415 METAR LIRA 250415Z 03004KT CAVOK 20/12 Q1007=
201007250345 METAR LIRA 250345Z 05006KT 020V080 CAVOK 19/12 Q1007=
201007250315 METAR LIRA 250315Z 03004KT CAVOK 19/11 Q1007=
201007250245 METAR LIRA 250245Z 05005KT 010V070 CAVOK 19/12 Q1007=
201007250215 METAR LIRA 250215Z 03003KT CAVOK 20/12 Q1007=
201007250145 METAR LIRA 250145Z 01004KT CAVOK 21/13 Q1007=
201007250115 METAR LIRA 250115Z 01005KT 340V040 CAVOK 21/13 Q1007=
201007250045 METAR LIRA 250045Z 01004KT 9999 FEW080 21/14 Q1008=
201007250015 METAR LIRA 250015Z 35004KT 9999 FEW080 21/15 Q1008=
201007242350 METAR LIRA 250045Z 01004KT 9999 FEW080 21/14 Q1008=
201007242345 METAR LIRA 242345Z 02004KT CAVOK 22/15 Q1008=
201007242315 METAR LIRA 242315Z 04004KT CAVOK 23/16 Q1008=
201007242245 METAR LIRA 242245Z 36006KT 310V050 CAVOK 23/15 Q1008=
201007242215 METAR LIRA 242215Z 05003KT CAVOK 23/16 Q1008=
201007242145 METAR LIRA 242145Z 27002KT CAVOK 23/17 Q1008=
201007242115 METAR LIRA 242115Z 24002KT CAVOK 23/17 Q1008=
201007242045 METAR LIRA 242045Z 12001KT CAVOK 23/17 Q1008=
201007242015 METAR LIRA 242015Z 34002KT CAVOK 24/17 Q1008=
201007241945 METAR LIRA 241945Z 28004KT CAVOK 25/17 Q1008=
201007241915 METAR LIRA 241915Z 25004KT 200V300 9999 FEW018 26/16 Q1007=
201007241845 METAR LIRA 241845Z 25005KT 200V310 9999 FEW018TCU 26/16 Q1007=
201007241815 METAR LIRA 241815Z 26006KT 200V330 9999 FEW018TCU 27/16 Q1007=
201007241745 METAR LIRA 241745Z 25008KT 190V330 9999 FEW018TCU SCT025
                        28/14 Q1007=
201007241715 METAR LIRA 241715Z 26008KT 190V320 9999 FEW018TCU 29/10 Q1007=
201007241645 METAR LIRA 241645Z 26010KT 200V310 9999 FEW020TCU 29/12 Q1007=
201007241615 METAR LIRA 241615Z 27011KT 200V340 9999 FEW018 FEW020TCU
                        30/12 Q1007=
201007241545 METAR LIRA 241545Z 28012KT 210V330 9999 FEW018 FEW020TCU
                        30/13 Q1007=
201007241515 METAR LIRA 241515Z 27013KT 200V320 9999 FEW018 FEW020TCU
                        30/16 Q1007=
201007241445 METAR LIRA 241445Z 28017KT 240V320 9999 FEW020TCU 30/15 Q1007=
201007241415 METAR LIRA 241415Z 27015KT 190V310 9999 FEW020TCU 30/15 Q1007=
201007241345 METAR LIRA 241345Z 29018KT 210V310 9999 FEW020TCU 30/15 Q1007=
201007241315 METAR LIRA 241315Z 28015KT 210V330 9999 FEW020TCU 32/16 Q1007=
201007241245 METAR LIRA 241245Z 26013KT 210V310 9999 FEW020TCU SCT025
                        31/16 Q1007=
201007241215 METAR LIRA 241215Z 26007KT 180V310 9999 FEW020TCU SCT025
                        31/18 Q1007=
201007241145 METAR LIRA 241145Z 31007KT 240V020 9999 FEW018TCU SCT025
                        31/19 Q1008=
201007241115 METAR LIRA 241115Z 22005KT 300V070 9999 FEW018TCU SCT023
                        30/21 Q1008=
201007241045 METAR LIRA 241045Z 29005KT 220V330 9999 FEW018TCU SCT023
                        28/21 Q1008=
201007241015 METAR LIRA 241015Z 24009KT 190V320 9999 FEW018TCU FEW020CB
                        SCT023 30/21 Q1008=
201007240945 METAR LIRA 240945Z 22011KT 160V260 9999 FEW018TCU FEW020CB
                        SCT023 29/21 Q1008=
201007240915 METAR LIRA 240915Z 18011KT 9999 FEW018TCU SCT023 29/21 Q1008=
201007240845 METAR LIRA 240845Z 19010KT 120V240 9999 FEW018TCU SCT023
                        29/22 Q1008=
201007240815 METAR LIRA 240815Z 22008KT 150V270 9999 FEW018 SCT023 28/22
                        Q1009=
201007240745 METAR LIRA 240745Z 19007KT 120V240 9999 FEW018 SCT025 28/23
                        Q1009=
201007240715 METAR LIRA 240715Z 16008KT 120V210 9999 FEW018 SCT025 27/21
                        Q1009=
201007240645 METAR LIRA 240645Z 18007KT 140V230 9999 FEW018 SCT025 27/22
                        Q1009=
201007240615 METAR LIRA 240615Z 17007KT 140V240 9000 FEW018 SCT025 26/22
                        Q1009=
201007240545 METAR LIRA 240545Z 19007KT 150V240 8000 FEW020TCU BKN025
                        26/22 Q1009=
201007240515 METAR LIRA 240515Z 19006KT 140V260 8000 FEW020TCU BKN025
                        25/23 Q1009=
201007240445 METAR LIRA 240445Z 17007KT 9999 FEW020TCU SCT025 25/23 Q1009=
201007240415 METAR LIRA 240415Z 17006KT 9999 FEW020TCU 25/23 Q1009=
201007240345 METAR LIRA 240345Z 17007KT 9999 FEW020TCU 25/23 Q1010=
201007240315 METAR LIRA 240315Z 18006KT 9999 FEW020 SCT025 25/24 Q1010=
201007240245 METAR LIRA 240245Z 18007KT 120V230 9999 FEW020 SCT025 26/24
                        Q1010=
201007240215 METAR LIRA 240215Z 17007KT 120V230 9999 FEW020 SCT025 25/23
                        Q1011=
201007240145 METAR LIRA 240145Z 18007KT 140V240 9999 FEW020 SCT025 25/23
                        Q1011=
201007240115 METAR LIRA 240115Z 17008KT 130V220 9999 FEW020 SCT025 26/24
                        Q1011=
201007240045 METAR LIRA 240045Z 17007KT 130V200 9999 FEW020 SCT025 26/24
                        Q1011=
201007240015 METAR LIRA 240015Z 15009KT 9999 FEW020 26/24 Q1012=
201007232350 METAR LIRA 240045Z 17007KT 130V200 9999 FEW020 SCT025 26/24
                        Q1011=
201007232345 METAR LIRA 232345Z 15007KT 120V200 9999 FEW020 27/25 Q1012=
201007232315 METAR LIRA 232315Z 17006KT 120V200 9999 FEW060 27/25 Q1012=
201007232245 METAR LIRA 232245Z 17007KT 120V220 9999 FEW020 SCT060 26/23
                        Q1013=
201007232215 METAR LIRA 232215Z 17006KT 130V200 9999 FEW020 26/24 Q1013=
201007232145 METAR LIRA 232145Z 16006KT 9999 FEW060 26/24 Q1013=
201007232115 METAR LIRA 232115Z 20006KT 110V250 9999 FEW020 26/24 Q1013=
201007232045 METAR LIRA 232045Z 22004KT CAVOK 26/24 Q1013=
201007232015 METAR LIRA 232015Z 21003KT CAVOK 27/24 Q1013=
201007231945 METAR LIRA 231945Z 18005KT CAVOK 27/23 Q1013=
201007231915 METAR LIRA 231915Z 18005KT 140V220 CAVOK 28/23 Q1013=
201007231845 METAR LIRA 231845Z 20004KT CAVOK 28/23 Q1013=
201007231815 METAR LIRA 231815Z 21005KT 170V250 CAVOK 29/23 Q1013=
201007231745 METAR LIRA 231745Z 21006KT 160V250 CAVOK 30/22 Q1013=
201007231715 METAR LIRA 231715Z 21007KT 180V260 CAVOK 30/22 Q1014=
201007231645 METAR LIRA 231645Z 23008KT 190V280 CAVOK 31/21 Q1014=
201007231615 METAR LIRA 231615Z 23010KT 190V270 CAVOK 31/19 Q1014=
201007231545 METAR LIRA 231545Z 23010KT 170V290 CAVOK 32/19 Q1014=
201007231515 METAR LIRA 231515Z 21010KT 150V270 CAVOK 32/17 Q1014=
201007231445 METAR LIRA 231445Z 20009KT 140V280 9999 FEW060 33/16 Q1014=
201007231415 METAR LIRA 231415Z 21009KT 160V270 CAVOK 33/15 Q1014=
201007231345 METAR LIRA 231345Z 22010KT 160V270 CAVOK 34/16 Q1014=
201007231315 METAR LIRA 231315Z 22009KT 160V270 CAVOK 34/16 Q1014=
201007231245 METAR LIRA 231245Z 19008KT 110V160 CAVOK 34/16 Q1014=
201007231215 METAR LIRA 231215Z 21008KT 150V260 CAVOK 34/16 Q1014=
201007231145 METAR LIRA 231145Z 19006KT 140V240 CAVOK 35/15 Q1014=
201007231115 METAR LIRA 231115Z 19008KT 110V280 CAVOK 35/14 Q1015=
201007231045 METAR LIRA 231045Z 21007KT 150V290 CAVOK 35/14 Q1015=
201007231015 METAR LIRA 231015Z 16006KT 100V250 CAVOK 34/12 Q1015=
201007230945 METAR LIRA 230945Z 19004KT 170V250 CAVOK 34/11 Q1015=
201007230915 METAR LIRA 230915Z 20005KT 140V220 CAVOK 34/11 Q1015=
201007230845 METAR LIRA 230845Z 22003KT CAVOK 33/12 Q1015=
201007230815 METAR LIRA 230815Z 11001KT CAVOK 31/13 Q1016=
201007230745 METAR LIRA 230745Z 32002KT CAVOK 30/13 Q1016=
201007230715 METAR LIRA 230715Z 03002KT CAVOK 28/15 Q1016=
201007230645 METAR LIRA 230645Z 01002KT CAVOK 26/15 Q1016=
201007230615 METAR LIRA 230615Z 02002KT CAVOK 25/16 Q1016=
201007230545 METAR LIRA 230545Z 04003KT CAVOK 23/17 Q1015=
201007230515 METAR LIRA 230515Z 03004KT CAVOK 22/17 Q1015=
201007230445 METAR LIRA 230445Z 06004KT CAVOK 21/17 Q1015=
201007230415 METAR LIRA 230415Z 03001KT CAVOK 21/15 Q1015=
201007230345 METAR LIRA 230345Z 03002KT CAVOK 21/14 Q1014=
201007230315 METAR LIRA 230315Z 05003KT CAVOK 21/15 Q1015=
201007230245 METAR LIRA 230245Z 05003KT CAVOK 22/15 Q1015=
201007230215 METAR LIRA 230215Z 04003KT CAVOK 22/18 Q1015=
201007230145 METAR LIRA 230145Z 05003KT CAVOK 22/18 Q1015=
201007230115 METAR LIRA 230115Z 07003KT CAVOK 22/16 Q1014=
201007230045 METAR LIRA 230045Z 08003KT CAVOK 22/16 Q1014=
201007230015 METAR LIRA 230015Z 00000KT CAVOK 24/22 Q1015=
201007222350 METAR LIRA 230045Z 08003KT CAVOK 22/16 Q1014=
201007222345 METAR LIRA 222345Z 00000KT CAVOK 24/22 Q1015=
201007222315 METAR LIRA 222315Z 09002KT CAVOK 24/22 Q1015=
201007222245 METAR LIRA 222245Z 08002KT CAVOK 24/22 Q1015=
201007222215 METAR LIRA 222215Z 09002KT CAVOK 25/23 Q1015=
201007222145 METAR LIRA 222145Z 08003KT CAVOK 25/23 Q1015=
201007222115 METAR LIRA 222115Z 04002KT CAVOK 26/24 Q1015=
201007222045 METAR LIRA 222045Z 33001KT CAVOK 26/24 Q1015=
201007222015 METAR LIRA 222015Z 21001KT CAVOK 26/24 Q1015=
201007221945 METAR LIRA 221945Z 22002KT CAVOK 27/24 Q1014=
201007221915 METAR LIRA 221915Z 23004KT CAVOK 27/24 Q1014=
201007221845 METAR LIRA 221845Z 24004KT CAVOK 28/24 Q1014=
201007221815 METAR LIRA 221815Z 24006KT 190V300 CAVOK 29/24 Q1014=
201007221745 METAR LIRA 221745Z 23006KT CAVOK 30/22 Q1014=
201007221715 METAR LIRA 221715Z 22006KT 180V260 CAVOK 31/21 Q1014=
201007221645 METAR LIRA 221645Z 24008KT 170V330 CAVOK 31/20 Q1013=
201007221615 METAR LIRA 221615Z 25008KT 200V330 CAVOK 32/20 Q1013=
201007221545 METAR LIRA 221545Z 23009KT 190V300 CAVOK 32/16 Q1013=
201007221515 METAR LIRA 221515Z 23009KT 150V290 CAVOK 34/16 Q1013=
201007221445 METAR LIRA 221445Z 23009KT 180V300 CAVOK 34/16 Q1013=
201007221415 METAR LIRA 221415Z 25007KT 160V320 CAVOK 34/13 Q1014=
201007221345 METAR LIRA 221345Z 23008KT 180V300 CAVOK 34/13 Q1014 RMK
                        WS RWY 15=
201007221315 METAR LIRA 221315Z 25007KT 200V300 9999 FEW018 34/16 Q1014
                        WS RWY 15=
201007221245 METAR LIRA 221245Z 26008KT 170V320 9999 FEW018 34/17 Q1014=
201007221215 METAR LIRA 221215Z 26006KT 230V020 9999 FEW018 34/16 Q1014=
201007221145 METAR LIRA 221145Z 33004KT 210V270 9999 FEW018 34/16 Q1014=
201007221115 METAR LIRA 221115Z 33005KT 180V340 9999 FEW018 33/15 Q1014=
201007221045 METAR LIRA 221045Z 26005KT 210V320 9999 FEW018 33/16 Q1014=
201007221015 METAR LIRA 221015Z 25004KT 220V070 9999 FEW018 32/17 Q1014=
201007220945 METAR LIRA 220945Z 28005KT 240V350 9999 FEW018 32/17 Q1014=
201007220915 METAR LIRA 220915Z 28003KT 220V330 CAVOK 31/18 Q1015=
201007220845 METAR LIRA 220845Z 34002KT CAVOK 30/18 Q1015=
201007220815 METAR LIRA 220815Z 28003KT 250V340 CAVOK 30/19 Q1015=
201007220745 METAR LIRA 220745Z 31004KT CAVOK 29/19 Q1014=
201007220715 METAR LIRA 220715Z 01003KT CAVOK 28/20 Q1014=
201007220645 METAR LIRA 220645Z 01003KT CAVOK 27/21 Q1014=
201007220615 METAR LIRA 220615Z 36003KT CAVOK 25/21 Q1014=
201007220545 METAR LIRA 220545Z 36002KT CAVOK 25/22 Q1013=
201007220515 METAR LIRA 220515Z 06002KT CAVOK 24/21 Q1013=
201007220445 METAR LIRA 220445Z 06002KT CAVOK 22/20 Q1013=
201007220415 METAR LIRA 220415Z 02002KT CAVOK 22/20 Q1013=
201007220345 METAR LIRA 220345Z 10003KT CAVOK 22/20 Q1013=
201007220315 METAR LIRA 220315Z 10003KT CAVOK 22/20 Q1013=
201007220245 METAR LIRA 220245Z 00000KT CAVOK 22/20 Q1013=
201007220215 METAR LIRA 220215Z 00000KT CAVOK 22/19 Q1013=
201007220145 METAR LIRA 220145Z 33001KT CAVOK 23/20 Q1013=
201007220115 METAR LIRA 220115Z 27001KT CAVOK 23/20 Q1013=
201007220045 METAR LIRA 220045Z 09002KT CAVOK 24/20 Q1013=
201007220015 METAR LIRA 220015Z 01002KT CAVOK 24/20 Q1013=
201007212350 METAR LIRA 220045Z 09002KT CAVOK 24/20 Q1013=
201007212345 METAR LIRA 212345Z 14003KT CAVOK 24/20 Q1013=
201007212315 METAR LIRA 212315Z 21002KT CAVOK 24/20 Q1013=
201007212245 METAR LIRA 212245Z 12003KT CAVOK 25/20 Q1013=
201007212215 METAR LIRA 212215Z 14002KT CAVOK 25/21 Q1014=
201007212145 METAR LIRA 212145Z 15001KT CAVOK 25/22 Q1013=
201007212115 METAR LIRA 212115Z 21003KT CAVOK 26/22 Q1013=
201007212045 METAR LIRA 212045Z 20003KT CAVOK 26/21 Q1013=
201007212015 METAR LIRA 212015Z 22003KT CAVOK 27/21 Q1013=
201007211945 METAR LIRA 211945Z 22003KT CAVOK 28/20 Q1013=
201007211915 METAR LIRA 211915Z 21003KT CAVOK 28/20 Q1013=
201007211845 METAR LIRA 211845Z 21003KT CAVOK 29/19 Q1013=
201007211815 METAR LIRA 211815Z 23004KT 9999 FEW018 29/20 Q1013=
201007211745 METAR LIRA 211745Z 22005KT 180V250 9999 FEW018 30/20 Q1013=
201007211715 METAR LIRA 211715Z 22005KT 190V260 9999 FEW018 30/20 Q1012=
201007211645 METAR LIRA 211645Z 27006KT 210V320 9999 FEW018 31/19 Q1012=
201007211615 METAR LIRA 211615Z 26006KT 190V340 9999 FEW018 31/20 Q1012=
201007211545 METAR LIRA 211545Z 26005KT 220V330 9999 FEW018 32/20 Q1012=
201007211515 METAR LIRA 211515Z 24007KT 200V310 9999 FEW018 FEW020TCU
                        31/19 Q1012=
201007211445 METAR LIRA 211445Z 26008KT 180V330 9999 SCT020 32/18 Q1012=
201007211415 METAR LIRA 211415Z 25006KT 160V340 9999 SCT020 32/18 Q1012=
201007211345 METAR LIRA 211345Z 23009KT 170V290 9999 SCT020 32/18 Q1012=
201007211315 METAR LIRA 211315Z 23009KT 160V300 9999 SCT020 33/19 Q1012=
201007211245 METAR LIRA 211245Z 22008KT 140V300 9999 SCT020 33/17 Q1012=
201007211215 METAR LIRA 211215Z 22007KT 150V300 9999 SCT020 33/17 Q1012=
201007211145 METAR LIRA 211145Z 23008KT 180V330 9999 SCT020 32/17 Q1012=
201007211115 METAR LIRA 211115Z 24008KT 170V320 9999 SCT020 32/17 Q1013=
201007211045 METAR LIRA 211045Z 20006KT 130V240 9999 SCT020 32/18 Q1013=
201007211015 METAR LIRA 211015Z 24006KT 190V320 9999 SCT020 31/19 Q1013=
201007210945 METAR LIRA 210945Z 16005KT 120V240 9999 SCT020 32/19 Q1013=
201007210915 METAR LIRA 210915Z 16004KT 110V280 9999 SCT020 32/21 Q1013=
201007210845 METAR LIRA 210845Z 12005KT 060V150 9999 SCT020 31/20 Q1013=
201007210815 METAR LIRA 210815Z 18004KT 9999 SCT020 30/21 Q1013=
201007210745 METAR LIRA 210745Z 21004KT 130V250 9999 SCT020 29/21 Q1013=
201007210715 METAR LIRA 210715Z 19005KT 130V220 9999 FEW020 29/21 Q1013=
201007210645 METAR LIRA 210645Z 07003KT 9999 FEW020 27/23 Q1012=
201007210615 METAR LIRA 210615Z 25002KT CAVOK 25/21 Q1012=
201007210545 METAR LIRA 210545Z 36001KT CAVOK 25/21 Q1012=
201007210515 METAR LIRA 210515Z 36001KT CAVOK 24/22 Q1012=
201007210445 METAR LIRA 210445Z 02002KT CAVOK 23/22 Q1012=
201007210415 METAR LIRA 210415Z 01002KT 9000 SKC 23/22 Q1012=
201007210345 METAR LIRA 210345Z 28001KT CAVOK 23/22 Q1012=
201007210315 METAR LIRA 210315Z 07002KT 9999 FEW080 23/22 Q1012=
201007210245 METAR LIRA 210245Z 04002KT CAVOK 23/22 Q1012=
201007210215 METAR LIRA 210215Z 05004KT CAVOK 23/22 Q1012=
201007210145 METAR LIRA 210145Z 01002KT CAVOK 24/21 Q1012=
201007210115 METAR LIRA 210115Z 32001KT CAVOK 24/21 Q1012=
201007210045 METAR LIRA 210045Z 00000KT CAVOK 24/21 Q1012=
201007210015 METAR LIRA 210015Z 00000KT CAVOK 24/21 Q1012=
201007202350 METAR LIRA 210045Z 00000KT CAVOK 24/21 Q1012=
201007202345 METAR LIRA 202345Z 30002KT 9999 FEW015 25/22 Q1012=
201007202315 METAR LIRA 202315Z 05001KT 9999 FEW015 25/22 Q1012=
201007202245 METAR LIRA 202245Z 23001KT 9999 FEW015 25/23 Q1012=
201007202215 METAR LIRA 202215Z 28002KT 9999 FEW015 SCT070 26/24 Q1012=
201007202145 METAR LIRA 202145Z 29003KT 9999 FEW015 26/24 Q1012=
201007202115 METAR LIRA 202115Z 26002KT 9999 FEW020 26/24 Q1012=
201007202045 METAR LIRA 202045Z 22003KT 9999 FEW025 26/24 Q1012=
201007202015 METAR LIRA 202015Z 22003KT 9999 FEW025 27/25 Q1012=
201007201945 METAR LIRA 201945Z 22003KT 9999 FEW025 SCT080 27/25 Q1012=
201007201915 METAR LIRA 201915Z 23003KT 9999 FEW025 SCT080 27/24 Q1011=
201007201845 METAR LIRA 201845Z 22005KT 9999 FEW025 SCT080 28/25 Q1011=
201007201815 METAR LIRA 201815Z 22006KT 190V250 9999 FEW020TCU SCT080
                        29/24 Q1012=
201007201745 METAR LIRA 201745Z 23006KT 190V280 9999 FEW018CB SCT080 29/23
                        Q1012=
201007201715 METAR LIRA 201715Z 24007KT 190V300 9999 FEW018 FEW020CB SCT080
                        30/23 Q1012=
201007201645 METAR LIRA 201645Z 23008KT 190V270 9999 FEW017 FEW020CB SCT080
                        31/22 Q1012=
201007201615 METAR LIRA 201615Z 23006KT 180V290 9999 FEW017 FEW020CB SCT070
                        31/21 Q1012=
201007201545 METAR LIRA 201545Z 23008KT 190V280 9999 FEW017 FEW018CB FEW020TCU
                        31/22 Q1012=
201007201515 METAR LIRA 201515Z 22007KT 160V260 9999 FEW017 FEW018CB FEW020TCU
                        32/21 Q1012=
201007201445 METAR LIRA 201445Z 19008KT 130V240 9999 FEW017 FEW018CB FEW020TCU
                        32/20 Q1012=
201007201415 METAR LIRA 201415Z 23008KT 180V300 9999 FEW017 FEW018CB FEW020TCU
                        33/21 Q1012=
201007201345 METAR LIRA 201345Z 22009KT 130V280 9999 FEW017 FEW018CB FEW020TCU
                        33/20 Q1012=
201007201315 METAR LIRA 201315Z 22009KT 180V270 9999 FEW017 FEW018CB 33/20
                        Q1012=
201007201245 METAR LIRA 201245Z 22010KT 180V270 9999 FEW017 FEW018CB 33/20
                        Q1012=
201007201215 METAR LIRA 201215Z 21009KT 150V280 9999 FEW017 FEW020TCU
                        33/20 Q1012=
201007201145 METAR LIRA 201145Z 20007KT 150V260 9999 SCT017 FEW020TCU
                        33/20 Q1012=
201007201115 METAR LIRA 201115Z 20007KT 150V260 9999 SCT017 FEW020TCU
                        32/20 Q1013=
201007201045 METAR LIRA 201045Z 23006KT 180V280 9999 SCT017 FEW020TCU
                        32/21 Q1013=
201007201015 METAR LIRA 201015Z 20005KT 140V240 9999 SCT017 FEW020TCU
                        32/20 Q1013=
201007200945 METAR LIRA 200945Z 16006KT 110V210 9999 SCT017 FEW020TCU
                        32/20 Q1013=
201007200915 METAR LIRA 200915Z 14005KT 090V210 9999 SCT017 FEW020TCU
                        32/19 Q1013=
201007200845 METAR LIRA 200845Z 14006KT 090V190 9999 SCT017 FEW020TCU
                        32/21 Q1013=
201007200815 METAR LIRA 200815Z 19003KT 9999 SCT017 FEW020TCU 30/21 Q1013=
201007200745 METAR LIRA 200745Z 14003KT 9999 SCT017 29/22 Q1013=
201007200715 METAR LIRA 200715Z 06001KT 9999 SCT017 28/23 Q1013=
201007200645 METAR LIRA 200645Z 21001KT 9000 NSC 28/23 Q1013=
201007200615 METAR LIRA 200615Z 03002KT 9000 NSC 27/23 Q1013=
201007200545 METAR LIRA 200545Z 03002KT 9000 NSC 26/23 Q1013=
201007200515 METAR LIRA 200515Z 05001KT 9000 NSC 24/21 Q1013=
201007200445 METAR LIRA 200445Z 00000KT 9000 NSC 24/21 Q1013=
201007200415 METAR LIRA 200415Z 31001KT 9000 NSC 24/21 Q1013=
201007200345 METAR LIRA 200345Z 10003KT 9000 SKC 24/21 Q1013=
201007200315 METAR LIRA 200315Z 06002KT CAVOK 24/22 Q1013=
201007200245 METAR LIRA 200245Z 17002KT CAVOK 25/24 Q1013=
201007200215 METAR LIRA 200215Z 16002KT CAVOK 25/24 Q1013=
201007200145 METAR LIRA 200145Z 18003KT 9999 FEW022 25/24 Q1013=
201007200115 METAR LIRA 200115Z 21002KT 9999 SCT022 25/23 Q1013=
201007200045 METAR LIRA 200045Z 20002KT 9999 FEW060 25/23 Q1013=
201007200015 METAR LIRA 200015Z 20002KT 9999 FEW060 25/23 Q1013=
201007192350 METAR LIRA 200045Z 20002KT 9999 FEW060 25/23 Q1013=
201007192345 METAR LIRA 192345Z 23001KT 9999 FEW060 25/23 Q1013=
201007192315 METAR LIRA 192315Z 16001KT 9999 FEW060 25/22 Q1013=
201007192245 METAR LIRA 192245Z 00000KT 9999 FEW060 25/21 Q1013=
201007192215 METAR LIRA 192215Z 14003KT 9999 FEW060 26/22 Q1013=
201007192145 METAR LIRA 192145Z 12004KT CAVOK 26/23 Q1013=
201007192115 METAR LIRA 192115Z 08004KT CAVOK 26/21 Q1013=
201007192045 METAR LIRA 192045Z 10003KT CAVOK 27/24 Q1013=
201007192015 METAR LIRA 192015Z 20003KT 9999 FEW020 27/24 Q1013=
201007191945 METAR LIRA 191945Z 21002KT 9999 FEW020 27/24 Q1013=
201007191915 METAR LIRA 191915Z 22003KT 9999 FEW020CB 27/23 Q1013=
201007191845 METAR LIRA 191845Z 23004KT 9999 FEW020CB 28/24 Q1013=
201007191815 METAR LIRA 191815Z 23004KT 9999 FEW020TCU 29/24 Q1013=
201007191745 METAR LIRA 191745Z 24005KT 210V280 9999 FEW020TCU 30/23 Q1013=
201007191715 METAR LIRA 191715Z 21005KT 9999 FEW020TCU 30/23 Q1013=
201007191645 METAR LIRA 191645Z 23006KT 190V310 9999 FEW020TCU 31/23 Q1013=
201007191615 METAR LIRA 191615Z 22007KT 180V290 9999 FEW018 FEW020TCU
                        31/22 Q1013=
201007191545 METAR LIRA 191545Z 22007KT 180V280 9999 FEW018 FEW020TCU
                        32/21 Q1013=
201007191515 METAR LIRA 191515Z 22007KT 180V280 9999 FEW018 FEW020TCU
                        32/21 Q1013=
201007191445 METAR LIRA 191445Z 23008KT 180V300 9999 FEW018 SCT030 32/21
                        Q1013=
201007191415 METAR LIRA 191415Z 23009KT 180V280 9999 FEW018 FEW020TCU
                        32/20 Q1013=
201007191345 METAR LIRA 191345Z 22009KT 180V280 9999 FEW018 FEW020TCU
                        32/21 Q1013=
201007191315 METAR LIRA 191315Z 22011KT 180V270 9999 FEW018 FEW020TCU
                        32/21 Q1013=
201007191245 METAR LIRA 191245Z 22010KT 150V260 9999 SCT018 FEW020TCU
                        33/21 Q1013=
201007191215 METAR LIRA 191215Z 21010KT 150V260 9999 SCT018 FEW020TCU
                        33/21 Q1013=
201007191145 METAR LIRA 191145Z 22008KT 180V280 9999 SCT018 FEW020TCU
                        32/22 Q1013=
201007191115 METAR LIRA 191115Z 23008KT 180V270 9999 SCT018 FEW020TCU
                        33/19 Q1013=
201007191045 METAR LIRA 191045Z 21008KT 150V260 9999 SCT018 FEW020TCU
                        33/20 Q1014=
201007191015 METAR LIRA 191015Z 19004KT 140V240 9999 SCT018 33/19 Q1014=
201007190945 METAR LIRA 190945Z 08004KT 9999 SCT018 33/20 Q1014=
201007190915 METAR LIRA 190915Z 09005KT 060V130 9999 SCT018 33/20 Q1014=
201007190845 METAR LIRA 190845Z 06004KT 010V110 9999 FEW018 31/20 Q1014=
201007190815 METAR LIRA 190815Z 35004KT 310V070 9999 FEW070 30/19 Q1014=
201007190745 METAR LIRA 190745Z 01005KT 310V070 9999 FEW080 29/19 Q1014=
201007190715 METAR LIRA 190715Z 01005KT 320V090 CAVOK 28/19 Q1014=
201007190645 METAR LIRA 190645Z 02004KT 340V080 CAVOK 26/19 Q1014=
201007190615 METAR LIRA 190615Z 01005KT 320V080 CAVOK 25/18 Q1014=
201007190545 METAR LIRA 190545Z 02006KT 330V070 CAVOK 25/19 Q1013=
201007190515 METAR LIRA 190515Z 03003KT CAVOK 24/19 Q1013=
201007190445 METAR LIRA 190445Z 02003KT CAVOK 24/19 Q1013=
201007190415 METAR LIRA 190415Z 36004KT CAVOK 23/18 Q1013=
201007190345 METAR LIRA 190345Z 01003KT CAVOK 23/18 Q1014=
201007190315 METAR LIRA 190315Z 03002KT CAVOK 23/18 Q1014=
201007190245 METAR LIRA 190245Z 04002KT CAVOK 24/19 Q1014=
201007190215 METAR LIRA 190215Z 35003KT CAVOK 24/20 Q1014=
201007190145 METAR LIRA 190145Z 34002KT CAVOK 25/20 Q1013=
201007190115 METAR LIRA 190115Z 36002KT CAVOK 25/21 Q1013=
201007190045 METAR LIRA 190045Z 00000KT CAVOK 25/21 Q1013=
201007190015 METAR LIRA 190015Z 15003KT CAVOK 25/20 Q1013=
201007182350 METAR LIRA 190045Z 00000KT CAVOK 25/21 Q1013=
201007182345 METAR LIRA 182345Z 11005KT CAVOK 25/19 Q1013=
201007182315 METAR LIRA 182315Z 16004KT CAVOK 26/21 Q1013=
201007182245 METAR LIRA 182245Z 16005KT CAVOK 26/21 Q1013=
201007182215 METAR LIRA 182215Z 20006KT 160V240 CAVOK 26/24 Q1013=
201007182145 METAR LIRA 182145Z 19003KT CAVOK 26/25 Q1013=
201007182115 METAR LIRA 182115Z 24001KT CAVOK 26/25 Q1013=
201007182045 METAR LIRA 182045Z 33003KT CAVOK 26/24 Q1013=
201007182015 METAR LIRA 182015Z 23002KT CAVOK 27/24 Q1013=
201007181945 METAR LIRA 181945Z 21004KT CAVOK 28/24 Q1013=
201007181915 METAR LIRA 181915Z 22002KT CAVOK 30/24 Q1013=
201007181845 METAR LIRA 181845Z 23003KT 9999 FEW020 30/21 Q1013=
201007181815 METAR LIRA 181815Z 25005KT 210V300 9999 FEW020TCU 31/17 Q1013=
201007181745 METAR LIRA 181745Z 26006KT 200V330 9999 FEW020TCU 32/15 Q1013=
201007181715 METAR LIRA 181715Z 25006KT 200V310 9999 FEW020TCU 33/15 Q1013=
201007181645 METAR LIRA 181645Z 25007KT 180V300 9999 FEW020TCU 34/15 Q1013=
201007181615 METAR LIRA 181615Z 24008KT 200V300 9999 FEW020TCU 34/15 Q1013=
201007181545 METAR LIRA 181545Z 25009KT 190V310 9999 FEW020TCU 35/15 Q1013=
201007181515 METAR LIRA 181515Z 25009KT 200V300 9999 FEW020TCU 35/14 Q1013=
201007181445 METAR LIRA 181445Z 24009KT 190V300 9999 FEW020TCU 35/15 Q1013=
201007181415 METAR LIRA 181415Z 26008KT 200V330 9999 FEW020TCU 35/16 Q1014=
201007181345 METAR LIRA 181345Z 26009KT 170V330 9999 FEW020TCU 35/16 Q1014=
201007181315 METAR LIRA 181315Z 29008KT 170V350 9999 FEW018TCU 36/21 Q1014=
201007181245 METAR LIRA 181245Z 30006KT 230V310 9999 FEW018 35/21 Q1014=
201007181215 METAR LIRA 181215Z 28008KT 190V340 9999 FEW018 34/20 Q1014=
201007181145 METAR LIRA 181145Z 23009KT 190V280 9999 FEW018 34/22 Q1014=
201007181115 METAR LIRA 181115Z 27007KT 180V360 9999 FEW017 35/20 Q1014=
201007181045 METAR LIRA 181045Z VRB07G20KT 9999 FEW017 36/13 Q1014=
201007181015 METAR LIRA 181015Z 02003KT 9999 FEW016 35/15 Q1014=
201007180945 METAR LIRA 180945Z 30004KT CAVOK 34/16 Q1014=
201007180915 METAR LIRA 180915Z 09003KT CAVOK 34/17 Q1014=
201007180845 METAR LIRA 180845Z 36003KT CAVOK 32/17 Q1014=
201007180815 METAR LIRA 180815Z 03002KT CAVOK 32/18 Q1014=
201007180745 METAR LIRA 180745Z 02003KT CAVOK 30/21 Q1014=
201007180715 METAR LIRA 180715Z 22001KT CAVOK 29/21 Q1014=
201007180645 METAR LIRA 180645Z 14001KT CAVOK 28/21 Q1014=
201007180615 METAR LIRA 180615Z 32002KT CAVOK 27/22 Q1014=
201007180545 METAR LIRA 180545Z 14003KT CAVOK 26/22 Q1014=
201007180515 METAR LIRA 180515Z 31002KT 9000 NSC 25/23 Q1014=
201007180445 METAR LIRA 180445Z 32001KT 9000 NSC 24/22 Q1013=
201007180415 METAR LIRA 180415Z 13002KT 9000 NSC 23/21 Q1013=
201007180345 METAR LIRA 180345Z 22002KT 9000 FEW080 24/22 Q1013=
201007180315 METAR LIRA 180315Z 13004KT 9999 SCT080 24/23 Q1014=
201007180245 METAR LIRA 180245Z 21001KT 9999 FEW070 SCT200 25/23 Q1014=
201007180215 METAR LIRA 180215Z 19003KT 9999 FEW080 SCT200 25/23 Q1014=
201007180145 METAR LIRA 180145Z 20003KT 9999 FEW080 SCT200 25/23 Q1014=
201007180115 METAR LIRA 180115Z 16004KT 9999 FEW080 BKN200 25/24 Q1014=
201007180045 METAR LIRA 180045Z 18004KT 9999 FEW080 BKN200 25/23 Q1014=
201007180015 METAR LIRA 180015Z 17004KT 9999 FEW080 BKN200 25/23 Q1014=
201007172350 METAR LIRA 180045Z 18004KT 9999 FEW080 BKN200 25/23 Q1014=
201007172345 METAR LIRA 172345Z 15004KT CAVOK 25/23 Q1014=
201007172315 METAR LIRA 172315Z 19004KT CAVOK 26/24 Q1014=
201007172245 METAR LIRA 172245Z 19004KT CAVOK 27/24 Q1014=
201007172215 METAR LIRA 172215Z 18004KT CAVOK 27/23 Q1014=
201007172145 METAR LIRA 172145Z 18004KT CAVOK 27/23 Q1014=
201007172115 METAR LIRA 172115Z 21004KT CAVOK 27/23 Q1014=
201007172045 METAR LIRA 172045Z 17004KT CAVOK 28/21 Q1014=
201007172015 METAR LIRA 172015Z 17004KT CAVOK 29/21 Q1014=
201007171945 METAR LIRA 171945Z 17004KT CAVOK 29/20 Q1014=
201007171915 METAR LIRA 171915Z 22004KT CAVOK 29/19 Q1014=
201007171845 METAR LIRA 171845Z 21004KT 190V260 CAVOK 30/18 Q1014=
201007171815 METAR LIRA 171815Z 19005KT 140V230 9999 FEW020 31/17 Q1014=
201007171745 METAR LIRA 171745Z 22006KT 200V260 9999 FEW020 32/16 Q1013=
201007171715 METAR LIRA 171715Z 23006KT 170V300 9999 FEW018 33/16 Q1013=
201007171645 METAR LIRA 171645Z 24006KT 160V300 9999 FEW018 34/16 Q1013=
201007171615 METAR LIRA 171615Z 26007KT 130V340 9999 FEW018 30/12 Q1014=
201007171545 METAR LIRA 171545Z 25008KT 200V310 9999 FEW018 35/17 Q1014=
201007171515 METAR LIRA 171515Z 25008KT 200V330 9999 FEW018 36/17 Q1014=
201007171445 METAR LIRA 171445Z 27009KT 210V360 9999 FEW018 36/18 Q1014=
201007171415 METAR LIRA 171415Z 25009KT 190V310 9999 FEW018 36/18 Q1014=
201007171345 METAR LIRA 171345Z 24009KT 190V290 9999 FEW018 35/18 Q1014=
201007171315 METAR LIRA 171315Z 27009KT 200V310 9999 FEW018 35/20 Q1014=
201007171245 METAR LIRA 171245Z 24008KT 200V310 9999 FEW018 35/18 Q1014=
201007171215 METAR LIRA 171215Z 24007KT 180V310 9999 FEW022 37/17 Q1014=
201007171145 METAR LIRA 171145Z 23009KT 180V270 9999 FEW022 36/18 Q1014=
201007171115 METAR LIRA 171115Z 19005KT 120V026 9999 FEW022 37/13 Q1014=
201007171045 METAR LIRA 171045Z 33003KT 240V360 CAVOK 36/14 Q1014=
201007171015 METAR LIRA 171015Z 32002KT CAVOK 36/14 Q1015=
201007170945 METAR LIRA 170945Z 19004KT 190V260 CAVOK 35/15 Q1015=
201007170915 METAR LIRA 170915Z 22002KT CAVOK 34/15 Q1015=
201007170845 METAR LIRA 170845Z 23002KT CAVOK 33/17 Q1015=
201007170815 METAR LIRA 170815Z 11002KT CAVOK 32/19 Q1015=
201007170745 METAR LIRA 170745Z 12002KT CAVOK 31/22 Q1015=
201007170715 METAR LIRA 170715Z 09001KT CAVOK 30/23 Q1014=
201007170645 METAR LIRA 170645Z 32001KT CAVOK 29/22 Q1014=
201007170615 METAR LIRA 170615Z 06001KT CAVOK 27/19 Q1014=
201007170545 METAR LIRA 170545Z 02001KT CAVOK 25/19 Q1014=
201007170515 METAR LIRA 170515Z 01002KT CAVOK 25/20 Q1014=
201007170445 METAR LIRA 170445Z 09002KT 9999 FEW010 24/20 Q1014=
201007170415 METAR LIRA 170415Z 15002KT 9999 FEW010 23/19 Q1014=
201007170345 METAR LIRA 170345Z 13003KT 9999 FEW010 23/16 Q1014=
201007170315 METAR LIRA 170315Z 13002KT 9999 FEW010 24/22 Q1014=
201007170245 METAR LIRA 170245Z 12001KT 8000 SCT005 25/21 Q1014=
201007170215 METAR LIRA 170215Z 10004KT 8000 SCT005 24/21 Q1014=
201007170145 METAR LIRA 170145Z 16003KT 8000 SCT005 26/24 Q1014=
201007170115 METAR LIRA 170115Z 17003KT 8000 SCT005 26/24 Q1014=
201007170045 METAR LIRA 170045Z 14004KT 8000 FEW005 25/23 Q1014=
201007170015 METAR LIRA 170015Z 16004KT 8000 SCT005 26/23 Q1014=
201007162350 METAR LIRA 170045Z 14004KT 8000 FEW005 25/23 Q1014=
201007162345 METAR LIRA 162345Z 20003KT 9999 FEW007 26/23 Q1014=
201007162315 METAR LIRA 162315Z 24002KT 9999 FEW010 26/24 Q1014=
201007162245 METAR LIRA 162245Z 31001KT 9999 FEW010 26/18 Q1014=
201007162215 METAR LIRA 162215Z 09002KT CAVOK 26/18 Q1014=
201007162145 METAR LIRA 162145Z 23002KT CAVOK 27/23 Q1014=
201007162115 METAR LIRA 162115Z 17002KT CAVOK 28/23 Q1014=
201007162045 METAR LIRA 162045Z 16004KT CAVOK 28/23 Q1014=
201007162015 METAR LIRA 162015Z 19003KT CAVOK 28/23 Q1014=
201007161945 METAR LIRA 161945Z 22004KT CAVOK 29/21 Q1014=
201007161915 METAR LIRA 161915Z 21003KT CAVOK 30/17 Q1014=
201007161845 METAR LIRA 161845Z 22003KT CAVOK 32/17 Q1014=
201007161815 METAR LIRA 161815Z 22005KT CAVOK 32/16 Q1014=
201007161745 METAR LIRA 161745Z 23005KT CAVOK 33/16 Q1014=
201007161715 METAR LIRA 161715Z 24005KT 200V300 CAVOK 33/16 Q1014=
201007161645 METAR LIRA 161645Z 26006KT 200V310 CAVOK 34/16 Q1014=
201007161615 METAR LIRA 161615Z 26006KT 190V320 CAVOK 34/17 Q1014=
201007161545 METAR LIRA 161545Z 27008KT 200V330 9999 FEW022 35/18 Q1014=
201007161515 METAR LIRA 161515Z 26008KT 200V300 9999 FEW022 36/18 Q1014=
201007161445 METAR LIRA 161445Z 25007KT 190V310 9999 FEW022 36/18 Q1014=
201007161415 METAR LIRA 161415Z 25008KT 200V300 9999 FEW022 36/18 Q1014=
201007161345 METAR LIRA 161345Z 27008KT 210V320 9999 FEW022 37/19 Q1014=
201007161315 METAR LIRA 161315Z 23009KT 200V290 9999 FEW022 37/20 Q1014=
201007161245 METAR LIRA 161245Z 26009KT 210V350 9999 FEW022 38/21 Q1014=
201007161215 METAR LIRA 161215Z 26009KT 210V350 9999 FEW022 38/20 Q1014=
201007161145 METAR LIRA 161145Z 29005KT 200V020 9999 FEW022 37/16 Q1014=
201007161115 METAR LIRA 161115Z 27002KT 9999 FEW022 37/16 Q1014=
201007161045 METAR LIRA 161045Z 36003KT 220V330 9999 FEW022 37/18 Q1014=
201007161015 METAR LIRA 161015Z 24004KT 210V320 CAVOK 36/17 Q1014=
201007160945 METAR LIRA 160945Z 21002KT CAVOK 35/17 Q1014=
201007160915 METAR LIRA 160915Z 22003KT CAVOK 33/17 Q1014=
201007160845 METAR LIRA 160845Z 31004KT CAVOK 33/18 Q1014=
201007160815 METAR LIRA 160815Z 33002KT CAVOK 31/18 Q1014=
201007160745 METAR LIRA 160745Z 33004KT CAVOK 30/18 Q1014=
201007160715 METAR LIRA 160715Z 36004KT CAVOK 29/17 Q1014=
201007160645 METAR LIRA 160645Z 36005KT 020V310 CAVOK 28/18 Q1014=
201007160615 METAR LIRA 160615Z 01005KT 320V050 CAVOK 25/17 Q1014=
201007160545 METAR LIRA 160545Z 02004KT 360V070 CAVOK 25/18 Q1013=
201007160515 METAR LIRA 160515Z 01003KT CAVOK 23/19 Q1013=
201007160445 METAR LIRA 160445Z 03004KT CAVOK 22/18 Q1013=
201007160415 METAR LIRA 160415Z 03003KT CAVOK 22/18 Q1013=
201007160345 METAR LIRA 160345Z 01003KT CAVOK 22/19 Q1013=
201007160315 METAR LIRA 160315Z 03003KT CAVOK 22/18 Q1013=
201007160245 METAR LIRA 160245Z 02002KT CAVOK 22/17 Q1013=
201007160215 METAR LIRA 160215Z 05001KT CAVOK 22/17 Q1013=
201007160145 METAR LIRA 160145Z 10001KT CAVOK 23/17 Q1013=
201007160115 METAR LIRA 160115Z 12002KT CAVOK 23/16 Q1013=
201007160045 METAR LIRA 160045Z 10004KT CAVOK 23/16 Q1013=
201007160015 METAR LIRA 160015Z 14002KT CAVOK 23/16 Q1014=
201007152350 METAR LIRA 160045Z 10004KT CAVOK 23/16 Q1013=
201007152345 METAR LIRA 152345Z 14002KT CAVOK 23/16 Q1014=
201007152315 METAR LIRA 152315Z 15002KT CAVOK 23/16 Q1013=
201007152245 METAR LIRA 152245Z 15002KT CAVOK 24/17 Q1013=
201007152215 METAR LIRA 152215Z 16002KT CAVOK 24/17 Q1013=
201007152145 METAR LIRA 152145Z 16001KT CAVOK 25/19 Q1013=
201007152115 METAR LIRA 152115Z 25001KT CAVOK 26/20 Q1013=
201007152045 METAR LIRA 152045Z 25002KT CAVOK 26/20 Q1013=
201007152015 METAR LIRA 152015Z 26003KT CAVOK 27/21 Q1013=
201007151945 METAR LIRA 151945Z 25002KT CAVOK 27/19 Q1013=
201007151915 METAR LIRA 151915Z 25002KT CAVOK 29/17 Q1013=
201007151845 METAR LIRA 151845Z 22003KT CAVOK 30/16 Q1013=
201007151815 METAR LIRA 151815Z 22004KT CAVOK 31/16 Q1013=
201007151745 METAR LIRA 151745Z 25005KT 220V300 CAVOK 31/15 Q1013=
201007151715 METAR LIRA 151715Z 25005KT 190V310 CAVOK 32/16 Q1013=
201007151645 METAR LIRA 151645Z 26007KT 210V330 CAVOK 34/16 Q1013=
201007151615 METAR LIRA 151615Z 19007KT 190V010 CAVOK 33/17 Q1013=
201007151545 METAR LIRA 151545Z 27008KT 200V320 CAVOK 34/18 Q1013=
201007151515 METAR LIRA 151515Z 26008KT 190V310 CAVOK 34/17 Q1013=
201007151445 METAR LIRA 151445Z 24008KT 180V300 CAVOK 34/17 Q1013=
201007151415 METAR LIRA 151415Z 25008KT 190V330 CAVOK 34/16 Q1013=
201007151345 METAR LIRA 151345Z 22007KT 170V270 CAVOK 35/16 Q1013=
201007151315 METAR LIRA 151315Z 23009KT 180V320 CAVOK 35/17 Q1013=
201007151245 METAR LIRA 151245Z 27007KT 210V310 CAVOK 35/17 Q1013=
201007151215 METAR LIRA 151215Z 25006KT 180V300 CAVOK 35/17 Q1013=
201007151145 METAR LIRA 151145Z 25004KT 140V260 CAVOK 34/17 Q1013=
201007151115 METAR LIRA 151115Z 19006KT 130V240 CAVOK 35/17 Q1013=
201007151045 METAR LIRA 151045Z 22005KT 150V250 CAVOK 34/17 Q1013=
201007151015 METAR LIRA 151015Z 23001KT 120V210 CAVOK 33/16 Q1013=
201007150945 METAR LIRA 150945Z 31003KT CAVOK 33/17 Q1013=
201007150915 METAR LIRA 150915Z 22003KT CAVOK 33/16 Q1013=
201007150845 METAR LIRA 150845Z 25003KT CAVOK 32/17 Q1013=
201007150815 METAR LIRA 150815Z 23005KT CAVOK 30/18 Q1013=
201007150745 METAR LIRA 150745Z 23003KT CAVOK 30/19 Q1013=
201007150715 METAR LIRA 150715Z 22002KT CAVOK 28/19 Q1013=
201007150645 METAR LIRA 150645Z 23003KT CAVOK 28/20 Q1012=
201007150615 METAR LIRA 150615Z 24002KT CAVOK 25/18 Q1012=
201007150545 METAR LIRA 150545Z 23002KT CAVOK 25/19 Q1012=
201007150515 METAR LIRA 150515Z 29001KT CAVOK 23/17 Q1012=
201007150445 METAR LIRA 150445Z 15002KT CAVOK 22/15 Q1012=
201007150415 METAR LIRA 150415Z 04003KT CAVOK 22/16 Q1012=
201007150345 METAR LIRA 150345Z 06004KT CAVOK 22/16 Q1012=
201007150315 METAR LIRA 150315Z 03004KT CAVOK 22/18 Q1012=
201007150245 METAR LIRA 150245Z 36002KT CAVOK 23/19 Q1012=
201007150215 METAR LIRA 150215Z 34001KT CAVOK 22/19 Q1012=
201007150145 METAR LIRA 150145Z 07003KT CAVOK 22/19 Q1013=
201007150115 METAR LIRA 150115Z 07004KT CAVOK 23/19 Q1013=
201007150045 METAR LIRA 150045Z 04002KT CAVOK 23/19 Q1013=
201007150015 METAR LIRA 150015Z 03003KT CAVOK 23/19 Q1013=
201007142350 METAR LIRA 150045Z 04002KT CAVOK 23/19 Q1013=
201007142345 METAR LIRA 142345Z 06003KT CAVOK 22/19 Q1013=
201007142315 METAR LIRA 142315Z 09005KT CAVOK 23/21 Q1013=
201007142245 METAR LIRA 142245Z 09004KT CAVOK 24/22 Q1013=
201007142215 METAR LIRA 142215Z 00000KT CAVOK 25/23 Q1013=
201007142145 METAR LIRA 142145Z 21001KT CAVOK 25/23 Q1013=
201007142115 METAR LIRA 142115Z 22002KT CAVOK 26/24 Q1013=
201007142045 METAR LIRA 142045Z 21002KT CAVOK 26/24 Q1013=
201007142015 METAR LIRA 142015Z 19002KT CAVOK 27/24 Q1013=
201007141945 METAR LIRA 141945Z 21003KT CAVOK 26/24 Q1013=
201007141915 METAR LIRA 141915Z 23004KT CAVOK 26/23 Q1013=
201007141845 METAR LIRA 141845Z 23006KT 210V270 CAVOK 29/23 Q1012=
201007141815 METAR LIRA 141815Z 23006KT 190V260 CAVOK 29/22 Q1012=
201007141745 METAR LIRA 141745Z 24006KT 200V280 CAVOK 30/21 Q1012=
201007141715 METAR LIRA 141715Z 19005KT 160V260 CAVOK 31/20 Q1012=
201007141645 METAR LIRA 141645Z 22005KT 170V260 CAVOK 31/21 Q1012=
201007141615 METAR LIRA 141615Z 23007KT 170V300 CAVOK 31/22 Q1013=
201007141545 METAR LIRA 141545Z 21006KT 170V280 CAVOK 31/20 Q1013=
201007141515 METAR LIRA 141515Z 24009KT 180V280 9999 FEW025 32/20 Q1013=
201007141445 METAR LIRA 141445Z 22005KT 140V240 9999 FEW025 33/21 Q1013=
201007141415 METAR LIRA 141415Z 24007KT 180V280 9999 FEW025 33/20 Q1013=
201007141345 METAR LIRA 141345Z 23006KT 180V270 9999 FEW025 34/20 Q1013=
201007141315 METAR LIRA 141315Z 21009KT 180V270 9999 FEW020 34/22 Q1013=
201007141245 METAR LIRA 141245Z 23009KT 170V290 9999 FEW018 34/22 Q1013=
201007141215 METAR LIRA 141215Z 23008KT 210V320 9999 FEW025 35/19 Q1013=
201007141145 METAR LIRA 141145Z 26004KT 270V010 9999 FEW025 34/17 Q1014=
201007141115 METAR LIRA 141115Z 29004KT 9999 FEW025 34/17 Q1014=
201007141045 METAR LIRA 141045Z 34004KT 270V020 CAVOK 33/17 Q1014=
201007141015 METAR LIRA 141015Z 03002KT CAVOK 33/17 Q1014=
201007140945 METAR LIRA 140945Z 25004KT CAVOK 32/17 Q1014=
201007140915 METAR LIRA 140915Z 25003KT CAVOK 32/18 Q1014=
201007140845 METAR LIRA 140845Z 08002KT CAVOK 31/18 Q1014=
201007140815 METAR LIRA 140815Z 21002KT CAVOK 30/18 Q1014=
201007140745 METAR LIRA 140745Z 13002KT CAVOK 29/19 Q1014=
201007140715 METAR LIRA 140715Z 25001KT CAVOK 28/22 Q1014=
201007140645 METAR LIRA 140645Z 24002KT CAVOK 27/22 Q1014=
201007140615 METAR LIRA 140615Z 24003KT CAVOK 26/22 Q1014=
201007140545 METAR LIRA 140545Z 09002KT CAVOK 25/17 Q1014=
201007140515 METAR LIRA 140515Z 11002KT CAVOK 23/16 Q1014=
201007140445 METAR LIRA 140445Z 14001KT CAVOK 22/14 Q1014=
201007140415 METAR LIRA 140415Z 09003KT CAVOK 22/15 Q1014=
201007140345 METAR LIRA 140345Z 11001KT 8000 NSC 22/16 Q1014=
201007140315 METAR LIRA 140315Z 17002KT CAVOK 22/17 Q1014=
201007140245 METAR LIRA 140245Z 11002KT CAVOK 22/16 Q1014=
201007140215 METAR LIRA 140215Z 09004KT 9999 FEW007 22/16 Q1014=
201007140145 METAR LIRA 140145Z 10003KT 9999 FEW007 22/20 Q1014=
201007140115 METAR LIRA 140115Z 08002KT 9999 FEW007 23/22 Q1014=
201007140045 METAR LIRA 140045Z 09003KT 9999 FEW007 23/22 Q1014=
201007140015 METAR LIRA 140015Z 03004KT 9999 FEW007 23/21 Q1015=
201007132350 METAR LIRA 140045Z 09003KT 9999 FEW007 23/22 Q1014=
201007132345 METAR LIRA 132345Z 08004KT 9999 FEW007 23/21 Q1015=
201007132315 METAR LIRA 132315Z 08005KT CAVOK 23/21 Q1015=
201007132245 METAR LIRA 132245Z 26001KT CAVOK 25/24 Q1015=
201007132215 METAR LIRA 132215Z 24001KT CAVOK 25/24 Q1015=
201007132145 METAR LIRA 132145Z 21003KT CAVOK 25/24 Q1015=
201007132115 METAR LIRA 132115Z 21002KT CAVOK 26/24 Q1014=
201007132045 METAR LIRA 132045Z 21003KT CAVOK 26/24 Q1014=
201007132015 METAR LIRA 132015Z 22003KT CAVOK 26/24 Q1014=
201007131945 METAR LIRA 131945Z 24003KT CAVOK 26/25 Q1014=
201007131915 METAR LIRA 131915Z 22004KT 9999 FEW080 27/24 Q1014=
201007131845 METAR LIRA 131845Z 24005KT 9999 FEW080 28/25 Q1014=
201007131815 METAR LIRA 131815Z 23006KT 200V260 9999 FEW080 28/23 Q1014=
201007131745 METAR LIRA 131745Z 23005KT 150V260 9999 FEW018CB 29/23 Q1014=
201007131715 METAR LIRA 131715Z 21005KT 170V270 9999 FEW018CB 30/23 Q1014=
201007131645 METAR LIRA 131645Z 22006KT 150V260 9999 FEW018CB 30/21 Q1014=
201007131615 METAR LIRA 131615Z 23007KT 200V280 9999 FEW018CB 31/21 Q1014=
201007131545 METAR LIRA 131545Z 23007KT 180V280 9999 FEW018CB 31/22 Q1014=
201007131515 METAR LIRA 131515Z 25008KT 160V300 9999 FEW020 31/21 Q1014=
201007131445 METAR LIRA 131445Z 23006KT 150V300 9999 FEW020 32/21 Q1014=
201007131415 METAR LIRA 131415Z 21006KT 160V300 9999 FEW020 32/20 Q1014=
201007131345 METAR LIRA 131345Z 22008KT 160V290 9999 FEW020 33/21 Q1014=
201007131315 METAR LIRA 131315Z 24005KT 190V290 9999 FEW020TCU 32/20 Q1014=
201007131245 METAR LIRA 131245Z 22008KT 170V340 9999 FEW020 32/22 Q1014=
201007131215 METAR LIRA 131215Z 22009KT 200V310 9999 FEW020 32/22 Q1014=
201007131145 METAR LIRA 131145Z 27008KT 170V310 9999 FEW018 32/22 Q1014=
201007131115 METAR LIRA 131115Z 23008KT 200V300 9999 FEW018 32/21 Q1014=
201007131045 METAR LIRA 131045Z 27005KT 150V310 9999 FEW018 33/20 Q1014=
201007131015 METAR LIRA 131015Z 28001KT 200V310 9999 FEW018 33/20 Q1014=
201007130945 METAR LIRA 130945Z 09004KT 140V220 9999 FEW020 32/17 Q1014=
201007130915 METAR LIRA 130915Z 28004KT 9999 FEW020 31/20 Q1014=
201007130845 METAR LIRA 130845Z 16005KT 9999 FEW020 30/20 Q1014=
201007130815 METAR LIRA 130815Z 29003KT 8000 FEW005 29/21 Q1014=
201007130745 METAR LIRA 130745Z 08003KT 8000 FEW005 29/22 Q1014=
201007130715 METAR LIRA 130715Z 33002KT 8000 FEW005 27/21 Q1014=
201007130645 METAR LIRA 130645Z 15002KT CAVOK 25/20 Q1014=
201007130615 METAR LIRA 130615Z 32003KT CAVOK 25/21 Q1014=
201007130545 METAR LIRA 130545Z 00000KT CAVOK 25/21 Q1014=
201007130515 METAR LIRA 130515Z 02001KT CAVOK 23/20 Q1014=
201007130445 METAR LIRA 130445Z 34003KT CAVOK 23/21 Q1014=
201007130415 METAR LIRA 130415Z 30002KT CAVOK 23/21 Q1014=
201007130345 METAR LIRA 130345Z 35002KT 9000 FEW070 23/21 Q1014=
201007130315 METAR LIRA 130315Z 01002KT 8000 FEW070 23/21 Q1014=
201007130245 METAR LIRA 130245Z 02002KT 8000 FEW007 23/21 Q1014=
201007130215 METAR LIRA 130215Z 08002KT 8000 FEW007 23/21 Q1014=
201007130145 METAR LIRA 130145Z 03002KT 8000 FEW007 24/22 Q1014=
201007130115 METAR LIRA 130115Z 03002KT 8000 FEW007 24/22 Q1014=
201007130045 METAR LIRA 130045Z 10002KT 7000 FEW007 24/23 Q1015=
201007130015 METAR LIRA 130015Z 36001KT 7000 FEW007 25/23 Q1015=
201007122350 METAR LIRA 130045Z 10002KT 7000 FEW007 24/23 Q1015=
201007122345 METAR LIRA 122345Z 33001KT 9999 FEW007 25/23 Q1015=
201007122315 METAR LIRA 122315Z 22002KT 9999 FEW025 25/23 Q1015=
201007122245 METAR LIRA 122245Z 20001KT 9999 FEW025 25/23 Q1015=
201007122215 METAR LIRA 122215Z 20002KT 9999 FEW025 25/23 Q1015=
201007122145 METAR LIRA 122145Z 18004KT 9999 FEW025 26/24 Q1015=
201007122115 METAR LIRA 122115Z 18003KT 9999 FEW025 26/24 Q1015=
201007122045 METAR LIRA 122045Z 20003KT 8000 SCT025 BKN070 26/24 Q1014=
201007122015 METAR LIRA 122015Z 19003KT 8000 FEW018 SCT200 26/24 Q1014=
201007121945 METAR LIRA 121945Z 20005KT 9000 FEW018 SCT200 27/24 Q1014=
201007121915 METAR LIRA 121915Z 21004KT 170V240 9000 FEW018 SCT200 27/24
                        Q1014=
201007121845 METAR LIRA 121845Z 22006KT 180V250 9000 FEW018 SCT200 28/24
                        Q1014=
201007121815 METAR LIRA 121815Z 30004KT 9999 FEW018 SCT200 29/20 Q1014=
201007121745 METAR LIRA 121745Z 22004KT 9999 FEW018 FEW020CB SCT200 30/21
                        Q1014=
201007121715 METAR LIRA 121715Z 21004KT 150V240 9999 FEW018 FEW020CB SCT200
                        30/21 Q1014=
201007121645 METAR LIRA 121645Z 09007KT 020V120 9999 FEW018 FEW020CB SCT200
                        30/18 Q1015=
201007121615 METAR LIRA 121615Z 10009KT 010V100 9999 SCT018 FEW020CB SCT030
                        29/20 Q1015=
201007121545 METAR LIRA 121545Z 23006KT 180V300 9999 SCT018 FEW020CB 31/21
                        Q1015=
201007121515 METAR LIRA 121515Z 24006KT 170V300 9999 SCT018 31/24 Q1015=
201007121445 METAR LIRA 121445Z 22008KT 150V330 9999 SCT018 FEW020TCU
                        31/24 Q1015=
201007121415 METAR LIRA 121415Z 20008KT 160V270 9999 SCT018 FEW020CB 31/24
                        Q1015=
201007121345 METAR LIRA 121345Z 23008KT 150V260 9999 SCT018 FEW020CB 31/24
                        Q1015=
201007121315 METAR LIRA 121315Z 19010KT 120V310 9999 SCT018 FEW020TCU
                        31/24 Q1015=
201007121245 METAR LIRA 121245Z 22010KT 160V260 9999 SCT018 FEW020TCU
                        31/24 Q1016=
201007121215 METAR LIRA 121215Z 22008KT 140V290 9999 SCT018 FEW020TCU
                        32/24 Q1016=
201007121145 METAR LIRA 121145Z 23010KT 180V290 9999 SCT018 31/24 Q1016=
201007121115 METAR LIRA 121115Z 23009KT 190V280 9999 SCT018 31/24 Q1016=
201007121045 METAR LIRA 121045Z 23008KT 140V280 9999 SCT018 31/24 Q1016=
201007121015 METAR LIRA 121015Z 17009KT 110V250 9999 4000NE FU SCT018
                        32/22 Q1016=
201007120945 METAR LIRA 120945Z 15007KT 110V210 9999 FEW018 31/21 Q1016=
201007120915 METAR LIRA 120915Z 14004KT 090V290 9999 FEW018 31/21 Q1016=
201007120845 METAR LIRA 120845Z 18007KT 130V220 9999 FEW018 30/21 Q1016=
201007120815 METAR LIRA 120815Z 16007KT 120V230 9999 FEW018 29/21 Q1016=
201007120745 METAR LIRA 120745Z 18007KT 140V240 9999 FEW018 28/22 Q1016=
201007120715 METAR LIRA 120715Z 22005KT 140V250 9999 FEW018 28/23 Q1016=
201007120645 METAR LIRA 120645Z 21005KT 9999 FEW018 27/22 Q1016=
201007120615 METAR LIRA 120615Z 23002KT 9999 FEW018 25/22 Q1016=
201007120545 METAR LIRA 120545Z 29003KT CAVOK 25/22 Q1016=
201007120515 METAR LIRA 120515Z 31001KT CAVOK 24/21 Q1016=
201007120445 METAR LIRA 120445Z 00000KT CAVOK 23/20 Q1016=
201007120415 METAR LIRA 120415Z 09002KT CAVOK 23/19 Q1016=
201007120345 METAR LIRA 120345Z 14001KT CAVOK 23/19 Q1016=
201007120315 METAR LIRA 120315Z 11004KT CAVOK 23/20 Q1016=
201007120245 METAR LIRA 120245Z 11001KT CAVOK 23/21 Q1016=
201007120215 METAR LIRA 120215Z 11005KT 8000 FEW007 23/21 Q1016=
201007120145 METAR LIRA 120145Z 10004KT 8000 FEW007 23/21 Q1016=
201007120115 METAR LIRA 120115Z 10004KT 8000 FEW006 23/21 Q1016=
201007120045 METAR LIRA 120045Z 09003KT 8000 FEW006 24/21 Q1017=
201007120015 METAR LIRA 120015Z 12002KT 9999 FEW006 24/23 Q1017=
201007112350 METAR LIRA 120045Z 09003KT 8000 FEW006 24/21 Q1017=
201007112345 METAR LIRA 112345Z 15002KT 9999 FEW006 25/23 Q1017=
201007112315 METAR LIRA 112315Z 15002KT CAVOK 25/23 Q1017=
201007112245 METAR LIRA 112245Z 15003KT CAVOK 25/24 Q1017=
201007112215 METAR LIRA 112215Z 20004KT CAVOK 25/24 Q1017=
201007112145 METAR LIRA 112145Z 22003KT CAVOK 25/24 Q1017=
201007112115 METAR LIRA 112115Z 24003KT CAVOK 25/24 Q1017=
201007112045 METAR LIRA 112045Z 20005KT CAVOK 26/24 Q1016=
201007112015 METAR LIRA 112015Z 23003KT CAVOK 26/24 Q1016=
201007111945 METAR LIRA 111945Z 20004KT 150V220 CAVOK 27/24 Q1016=
201007111915 METAR LIRA 111915Z 20006KT 150V240 CAVOK 27/24 Q1016=
201007111845 METAR LIRA 111845Z 22006KT CAVOK 28/25 Q1016=
201007111815 METAR LIRA 111815Z 23005KT 200V270 CAVOK 28/24 Q1016=
201007111745 METAR LIRA 111745Z 21005KT 150V270 9999 FEW025 29/24 Q1016=
201007111715 METAR LIRA 111715Z 22008KT 160V260 9999 FEW025CB 29/23 Q1016=
201007111645 METAR LIRA 111645Z 19008KT 150V260 9999 FEW020CB 29/23 Q1016=
201007111615 METAR LIRA 111615Z 20008KT 150V250 9999 FEW020CB 30/22 Q1016=
201007111545 METAR LIRA 111545Z 21008KT 150V270 9999 FEW018 FEW022CB 30/21
                        Q1016=
201007111515 METAR LIRA 111515Z 20008KT 130V250 9999 FEW018 30/21 Q1016=
201007111445 METAR LIRA 111445Z 20009KT 130V270 9999 SCT018 31/21 Q1016=
201007111415 METAR LIRA 111415Z 20008KT 150V250 9999 SCT018 31/22 Q1016=
201007111345 METAR LIRA 111345Z 22008KT 140V300 9999 SCT018 32/22 Q1016=
201007111315 METAR LIRA 111315Z 22008KT 140V270 9999 SCT018 32/22 Q1016=
201007111245 METAR LIRA 111245Z 19007KT 130V290 9999 SCT018 32/22 Q1016=
201007111215 METAR LIRA 111215Z 21006KT 090V300 9999 SCT018 32/22 Q1016=
201007111145 METAR LIRA 111145Z 20007KT 140V260 9999 SCT018 32/22 Q1016=
201007111115 METAR LIRA 111115Z 24007KT 9999 SCT018 32/21 Q1016=
201007111045 METAR LIRA 111045Z 19007KT 120V260 9999 SCT018 32/20 Q1017=
201007111015 METAR LIRA 111015Z 18006KT 100V240 9999 SCT018 32/19 Q1017=
201007110945 METAR LIRA 110945Z 19005KT 120V250 9999 FEW019 31/20 Q1017=
201007110915 METAR LIRA 110915Z 16005KT 120V200 9999 FEW018 30/20 Q1017=
201007110845 METAR LIRA 110845Z 24005KT 200V300 9999 FEW018 30/21 Q1017=
201007110815 METAR LIRA 110815Z 19004KT 9999 FEW020 29/20 Q1017=
201007110745 METAR LIRA 110745Z 34003KT CAVOK 29/21 Q1017=
201007110715 METAR LIRA 110715Z 01002KT CAVOK 28/21 Q1017=
201007110645 METAR LIRA 110645Z 34002KT CAVOK 26/20 Q1017=
201007110615 METAR LIRA 110615Z 01003KT CAVOK 25/20 Q1016=
201007110545 METAR LIRA 110545Z 01002KT CAVOK 24/20 Q1016=
201007110515 METAR LIRA 110515Z 05003KT CAVOK 23/20 Q1016=
201007110445 METAR LIRA 110445Z 06002KT CAVOK 22/19 Q1016=
201007110415 METAR LIRA 110415Z 05002KT CAVOK 22/19 Q1016=
201007110345 METAR LIRA 110345Z 04003KT CAVOK 22/19 Q1016=
201007110315 METAR LIRA 110315Z 07001KT CAVOK 22/19 Q1016=
201007110245 METAR LIRA 110245Z 11004KT CAVOK 22/19 Q1016=
201007110215 METAR LIRA 110215Z 09002KT CAVOK 22/19 Q1017=
201007110145 METAR LIRA 110145Z 09003KT CAVOK 22/19 Q1017=
201007110115 METAR LIRA 110115Z 11002KT CAVOK 22/19 Q1017=
201007110045 METAR LIRA 110045Z 09002KT CAVOK 23/19 Q1017=
201007110015 METAR LIRA 110015Z 10002KT CAVOK 23/19 Q1017=
201007102350 METAR LIRA 110045Z 09002KT CAVOK 23/19 Q1017=
201007102345 METAR LIRA 102345Z 11003KT CAVOK 23/20 Q1017=
201007102315 METAR LIRA 102315Z 13004KT CAVOK 24/23 Q1017=
201007102245 METAR LIRA 102245Z 14004KT CAVOK 25/23 Q1017=
201007102215 METAR LIRA 102215Z 16004KT CAVOK 25/24 Q1017=
201007102145 METAR LIRA 102145Z 16004KT CAVOK 25/23 Q1017=
201007102115 METAR LIRA 102115Z 20002KT CAVOK 25/23 Q1017=
201007102045 METAR LIRA 102045Z 23004KT CAVOK 25/23 Q1017=
201007102015 METAR LIRA 102015Z 22004KT CAVOK 26/24 Q1017=
201007101945 METAR LIRA 101945Z 21004KT CAVOK 27/24 Q1017=
201007101915 METAR LIRA 101915Z 22004KT CAVOK 27/24 Q1017=
201007101845 METAR LIRA 101845Z 19005KT 170V230 CAVOK 27/24 Q1017=
201007101815 METAR LIRA 101815Z 22005KT 180V250 CAVOK 28/24 Q1017=
201007101745 METAR LIRA 101745Z 21006KT 160V260 CAVOK 29/22 Q1017=
201007101715 METAR LIRA 101715Z 19008KT 160V230 CAVOK 29/22 Q1016=
201007101645 METAR LIRA 101645Z 21007KT 130V270 CAVOK 30/23 Q1016=
201007101615 METAR LIRA 101615Z 21007KT 160V260 CAVOK 30/23 Q1016=
201007101545 METAR LIRA 101545Z 20007KT 150V260 9999 FEW020 31/22 Q1017=
201007101515 METAR LIRA 101515Z 22008KT 170V270 9999 FEW020 32/23 Q1017=
201007101445 METAR LIRA 101445Z 24009KT 180V300 9999 FEW025 32/22 Q1017=
201007101415 METAR LIRA 101415Z 24009KT 190V300 9999 FEW025 31/22 Q1017=
201007101345 METAR LIRA 101345Z 19006KT 160V270 9999 FEW025 32/22 Q1017=
201007101315 METAR LIRA 101315Z 23011KT 180V300 9999 FEW025 32/21 Q1017=
201007101245 METAR LIRA 101245Z 23006KT 190V320 9999 FEW025 33/19 Q1017=
201007101215 METAR LIRA 101215Z 26005KT 260V010 9999 FEW025 34/15 Q1017=
201007101145 METAR LIRA 101145Z 30004KT 260V010 9999 FEW025 34/16 Q1017=
201007101115 METAR LIRA 101115Z 31005KT 230V330 9999 FEW025 33/16 Q1018=
201007101045 METAR LIRA 101045Z 25004KT 9999 FEW025 32/17 Q1018=
201007101015 METAR LIRA 101015Z 32004KT 270V020 9999 FEW025 31/17 Q1018=
201007100945 METAR LIRA 100945Z 28006KT 9999 FEW025 31/18 Q1018=
201007100915 METAR LIRA 100915Z 10003KT 9999 FEW025 31/18 Q1018=
201007100845 METAR LIRA 100845Z 19002KT CAVOK 29/18 Q1018=
201007100815 METAR LIRA 100815Z 02002KT CAVOK 29/18 Q1018=
201007100745 METAR LIRA 100745Z 27003KT CAVOK 28/19 Q1018=
201007100715 METAR LIRA 100715Z 04002KT CAVOK 27/21 Q1018=
201007100645 METAR LIRA 100645Z 03002KT CAVOK 25/20 Q1018=
201007100615 METAR LIRA 100615Z 36002KT CAVOK 24/19 Q1018=
201007100545 METAR LIRA 100545Z 03003KT CAVOK 23/19 Q1018=
201007100515 METAR LIRA 100515Z 01002KT CAVOK 21/18 Q1018=
201007100445 METAR LIRA 100445Z 02001KT CAVOK 20/18 Q1018=
201007100415 METAR LIRA 100415Z 08004KT CAVOK 20/18 Q1018=
201007100345 METAR LIRA 100345Z 07002KT CAVOK 20/18 Q1018=
201007100315 METAR LIRA 100315Z 10003KT CAVOK 21/18 Q1018=
201007100245 METAR LIRA 100245Z 36001KT CAVOK 21/18 Q1018=
201007100215 METAR LIRA 100215Z 10002KT CAVOK 21/17 Q1018=
201007100145 METAR LIRA 100145Z 07001KT CAVOK 21/17 Q1018=
201007100115 METAR LIRA 100115Z 11003KT CAVOK 23/17 Q1018=
201007100045 METAR LIRA 100045Z 11003KT CAVOK 23/18 Q1018=
201007100015 METAR LIRA 100015Z 10002KT CAVOK 23/18 Q1019=
201007092350 METAR LIRA 100045Z 11003KT CAVOK 23/18 Q1018=
201007092345 METAR LIRA 092345Z 12002KT CAVOK 23/18 Q1019=
201007092315 METAR LIRA 092315Z 13002KT CAVOK 23/20 Q1019=
201007092245 METAR LIRA 092245Z 13002KT CAVOK 23/19 Q1019=
201007092215 METAR LIRA 092215Z 24003KT CAVOK 23/19 Q1019=
201007092145 METAR LIRA 092145Z 23003KT CAVOK 24/20 Q1019=
201007092115 METAR LIRA 092115Z 00000KT CAVOK 25/19 Q1019=
201007092045 METAR LIRA 092045Z 22002KT CAVOK 25/19 Q1019=
201007092015 METAR LIRA 092015Z 15005KT CAVOK 26/19 Q1019=
201007091945 METAR LIRA 091945Z 16005KT CAVOK 26/19 Q1019=
201007091915 METAR LIRA 091915Z 20003KT CAVOK 26/19 Q1019=
201007091845 METAR LIRA 091845Z 20003KT CAVOK 27/19 Q1018=
201007091815 METAR LIRA 091815Z 19005KT CAVOK 28/19 Q1018=
201007091745 METAR LIRA 091745Z 23006KT 180V260 CAVOK 28/19 Q1018=
201007091715 METAR LIRA 091715Z 22007KT 140V260 CAVOK 28/20 Q1018=
201007091645 METAR LIRA 091645Z 23007KT 180V300 9999 FEW020 29/21 Q1018=
201007091615 METAR LIRA 091615Z 24007KT 180V300 9999 FEW020 30/22 Q1018=
201007091545 METAR LIRA 091545Z 23008KT 180V280 9999 FEW020 30/22 Q1018=
201007091515 METAR LIRA 091515Z 20005KT 160V300 9999 SCT020 30/22 Q1018=
201007091445 METAR LIRA 091445Z 23006KT 180V280 9999 SCT020 30/22 Q1019=
201007091415 METAR LIRA 091415Z 20007KT 150V270 9999 SCT020 30/22 Q1019=
201007091345 METAR LIRA 091345Z 21006KT 180V300 9999 SCT018 30/22 Q1019=
201007091315 METAR LIRA 091315Z 23008KT 170V270 9999 SCT018 30/22 Q1019=
201007091245 METAR LIRA 091245Z 19006KT 120V240 9999 SCT018 30/21 Q1019=
201007091215 METAR LIRA 091215Z 23008KT 180V270 9999 SCT018 30/21 Q1019=
201007091145 METAR LIRA 091145Z 27006KT 210V310 9999 SCT018 31/20 Q1019=
201007091115 METAR LIRA 091115Z 19005KT 150V240 9999 FEW018 31/16 Q1019=
201007091045 METAR LIRA 091045Z 20005KT 170V270 9999 FEW018 31/16 Q1019=
201007091015 METAR LIRA 091015Z 06004KT 340V080 9999 FEW018 30/17 Q1019=
201007090945 METAR LIRA 090945Z 05002KT 9999 FEW018 30/17 Q1019=
201007090915 METAR LIRA 090915Z 36002KT 9999 FEW018 29/17 Q1019=
201007090845 METAR LIRA 090845Z 12004KT 9000 FEW018 28/18 Q1019=
201007090815 METAR LIRA 090815Z 19002KT 8000 FEW018 27/19 Q1019=
201007090745 METAR LIRA 090745Z 23002KT 7000 FEW007 27/20 Q1019=
201007090715 METAR LIRA 090715Z 08004KT 9999 FEW005 26/21 Q1019=
201007090645 METAR LIRA 090645Z 36003KT 9999 FEW004 25/20 Q1019=
201007090615 METAR LIRA 090615Z 36002KT 9999 4000NE FEW004 24/21 Q1019=
201007090545 METAR LIRA 090545Z 02003KT 5000 BR FEW005 24/21 Q1019=
201007090515 METAR LIRA 090515Z 34001KT 5000 BR FEW005 23/21 Q1019=
201007090445 METAR LIRA 090445Z 36003KT 5000 BR FEW005 SCT025 23/21 Q1019=
201007090415 METAR LIRA 090415Z 01003KT 5000 BR FEW005 SCT025 23/21 Q1019=
201007090345 METAR LIRA 090345Z 30002KT 9000 FEW005 BKN080 22/21 Q1019=
201007090315 METAR LIRA 090315Z 01001KT 9000 FEW005 BKN080 23/21 Q1019=
201007090245 METAR LIRA 090245Z 07002KT 9000 FEW005 BKN070 23/22 Q1019=
201007090215 METAR LIRA 090215Z 10003KT 9000 FEW005 BKN070 23/22 Q1019=
201007090145 METAR LIRA 090145Z 10004KT 9000 SCT005 SCT070 23/22 Q1019=
201007090115 METAR LIRA 090115Z 14002KT 9000 SCT005 23/21 Q1019=
201007090045 METAR LIRA 090045Z 21001KT 9999 SCT005 24/22 Q1019=
201007090015 METAR LIRA 090015Z 00000KT 9999 FEW005 24/23 Q1019=
201007082350 METAR LIRA 090045Z 21001KT 9999 SCT005 24/22 Q1019=
201007082345 METAR LIRA 082345Z 00000KT 9999 SCT006 24/23 Q1019=
201007082315 METAR LIRA 082315Z 15002KT 9999 SCT008 23/22 Q1019=
201007082245 METAR LIRA 082245Z 25002KT 9999 FEW008 23/22 Q1019=
201007082215 METAR LIRA 082215Z 20003KT 9999 FEW008 24/22 Q1019=
201007082145 METAR LIRA 082145Z 21003KT 9999 FEW070 24/22 Q1019=
201007082115 METAR LIRA 082115Z 23003KT 9999 FEW070 24/22 Q1019=
201007082045 METAR LIRA 082045Z 18004KT 9999 FEW070 25/22 Q1019=
201007082015 METAR LIRA 082015Z 20004KT 9999 FEW023 25/22 Q1019=
201007081945 METAR LIRA 081945Z 19003KT 9999 FEW023 25/22 Q1019=
201007081915 METAR LIRA 081915Z 21003KT 9999 FEW023 25/22 Q1019=
201007081845 METAR LIRA 081845Z 24004KT 9999 FEW060 26/22 Q1019=
201007081815 METAR LIRA 081815Z 21004KT CAVOK 27/21 Q1019=
201007081745 METAR LIRA 081745Z 22004KT 180V280 9999 FEW020 27/20 Q1019=
201007081715 METAR LIRA 081715Z 24007KT 180V300 9999 FEW020 28/20 Q1019=
201007081645 METAR LIRA 081645Z 24006KT 180V310 9999 FEW020 28/18 Q1019=
201007081615 METAR LIRA 081615Z 22006KT 160V270 9999 FEW020 29/17 Q1019=
201007081545 METAR LIRA 081545Z 22007KT 160V260 9999 FEW020 29/16 Q1019=
201007081515 METAR LIRA 081515Z 23008KT 190V310 9999 FEW020 29/16 Q1019=
201007081445 METAR LIRA 081445Z 22007KT 180V300 9999 FEW020 29/16 Q1019=
201007081415 METAR LIRA 081415Z 24007KT 180V300 9999 FEW020 30/17 Q1019=
201007081345 METAR LIRA 081345Z 25007KT 150V330 9999 FEW018 31/17 Q1019=
201007081315 METAR LIRA 081315Z 25007KT 180V310 9999 FEW018 30/17 Q1019=
201007081245 METAR LIRA 081245Z 27007KT 170V030 9999 FEW018 30/17 Q1020=
201007081215 METAR LIRA 081215Z 27008KT 180V310 9999 FEW018 30/17 Q1020=
201007081145 METAR LIRA 081145Z 23008KT 170V310 9999 SCT018 29/18 Q1019=
201007081115 METAR LIRA 081115Z 22008KT 170V330 9999 SCT018 30/18 Q1019=
201007081045 METAR LIRA 081045Z 24006KT 170V310 9999 SCT018 29/17 Q1019=
201007081015 METAR LIRA 081015Z 26006KT 190V330 9999 SCT018 29/18 Q1019=
201007080945 METAR LIRA 080945Z 21007KT 150V290 9999 SCT018 29/19 Q1019=
201007080915 METAR LIRA 080915Z 24006KT 210V310 9999 BKN018 28/20 Q1019=
201007080845 METAR LIRA 080845Z 27003KT 9999 SCT018 28/21 Q1019=
201007080815 METAR LIRA 080815Z 23002KT 180V250 9999 SCT018 27/20 Q1019=
201007080745 METAR LIRA 080745Z 25004KT 260V320 9999 SCT018 FEW020TCU
                        27/21 Q1019=
201007080715 METAR LIRA 080715Z 35004KT 9999 SCT018 FEW020TCU 27/20 Q1019=
201007080645 METAR LIRA 080645Z 35004KT 9999 FEW020 SCT030 27/21 Q1018=
201007080615 METAR LIRA 080615Z 04004KT 9999 FEW020 SCT030 26/21 Q1018=
201007080545 METAR LIRA 080545Z 01003KT 9999 FEW020 SCT080 24/19 Q1018=
201007080515 METAR LIRA 080515Z 03003KT 9999 FEW020 24/21 Q1018=
201007080445 METAR LIRA 080445Z 05004KT 9999 FEW020 23/20 Q1018=
201007080415 METAR LIRA 080415Z 04004KT 9999 FEW020 SCT030 23/20 Q1018=
201007080345 METAR LIRA 080345Z 06003KT 9999 FEW020 SCT030 23/20 Q1017=
201007080315 METAR LIRA 080315Z 03003KT 9999 FEW030 SCT070 23/21 Q1017=
201007080245 METAR LIRA 080245Z 02001KT 9999 FEW030 SCT070 24/21 Q1017=
201007080215 METAR LIRA 080215Z 05003KT 9999 SCT070 24/21 Q1017=
201007080145 METAR LIRA 080145Z 07005KT 9999 SCT070 24/21 Q1017=
201007080115 METAR LIRA 080115Z 12005KT 9999 SCT070 24/21 Q1017=
201007080045 METAR LIRA 080045Z 14005KT 9999 SCT070 24/21 Q1017=
201007080015 METAR LIRA 080015Z 13004KT 9999 FEW070 24/22 Q1017=
201007072350 METAR LIRA 080045Z 14005KT 9999 SCT070 24/21 Q1017=
201007072345 METAR LIRA 072345Z 14003KT 9999 FEW070 24/22 Q1017=
201007072315 METAR LIRA 072315Z 14004KT 9999 FEW070 25/23 Q1017=
201007072245 METAR LIRA 072245Z 20003KT 9999 FEW070 25/23 Q1017=
201007072215 METAR LIRA 072215Z 23002KT 9999 FEW070 25/23 Q1017=
201007072145 METAR LIRA 072145Z 20003KT 9999 BKN070 25/23 Q1017=
201007072115 METAR LIRA 072115Z 21004KT 9999 BKN070 25/23 Q1017=
201007072045 METAR LIRA 072045Z 16004KT 9999 FEW070 25/23 Q1017=
201007072015 METAR LIRA 072015Z 22002KT 9999 FEW070 25/23 Q1017=
201007071945 METAR LIRA 071945Z 23003KT 9999 FEW070 26/23 Q1016=
201007071915 METAR LIRA 071915Z 23002KT 9999 FEW070 26/23 Q1016=
201007071845 METAR LIRA 071845Z 26004KT 210V310 9999 FEW018 26/22 Q1016=
201007071815 METAR LIRA 071815Z 26006KT 210V310 9999 FEW018 SCT070 28/23
                        Q1016=
201007071745 METAR LIRA 071745Z 25004KT 200V290 9999 FEW018 SCT070 28/22
                        Q1016=
201007071715 METAR LIRA 071715Z 25006KT 200V320 9999 FEW018 BKN070 29/22
                        Q1016=
201007071645 METAR LIRA 071645Z 24005KT 200V310 9999 FEW018 BKN070 29/23
                        Q1016=
201007071615 METAR LIRA 071615Z 27007KT 200V320 9999 FEW018 SCT070 29/23
                        Q1016=
201007071545 METAR LIRA 071545Z 23006KT 150V310 9999 FEW018 SCT070 30/23
                        Q1016=
201007071515 METAR LIRA 071515Z 20004KT 150V270 9999 FEW018 SCT070 30/23
                        Q1016=
201007071445 METAR LIRA 071445Z 22006KT 190V280 9999 FEW018 SCT030 29/25
                        Q1016=
201007071415 METAR LIRA 071415Z 19004KT 150V240 9999 -RA SCT018 FEW020CB
                        SCT030 28/24 Q1016 RETS=
201007071345 METAR LIRA 071345Z 19005KT 180V250 9999 SCT018 FEW020CB SCT030
                        29/23 Q1016 RETS=
201007071315 METAR LIRA 071315Z 21006KT 150V260 9999 -TSRA SCT018 FEW020CB
                        29/24 Q1016=
201007071245 METAR LIRA 071245Z 23006KT 180V300 9999 -TSRA BKN018 FEW020CB
                        29/22 Q1016=
201007071215 METAR LIRA 071215Z 22007KT 160V310 9999 SCT020 FEW022TCU
                        31/23 Q1016=
201007071145 METAR LIRA 071145Z 20008KT 140V260 9999 SCT020 FEW022TCU
                        30/23 Q1016=
201007071115 METAR LIRA 071115Z 21007KT 160V300 9999 BKN022 30/23 Q1016=
201007071045 METAR LIRA 071045Z 23006KT 190V300 9999 BKN022 30/23 Q1016=
201007071015 METAR LIRA 071015Z 21008KT 170V280 9999 SCT022 30/23 Q1016=
201007070945 METAR LIRA 070945Z 19006KT 100V250 9999 SCT022 30/21 Q1016=
201007070915 METAR LIRA 070915Z 19003KT 140V250 9999 SCT022 30/21 Q1016=
201007070845 METAR LIRA 070845Z 27004KT 220V300 9999 SCT022 29/21 Q1016=
201007070815 METAR LIRA 070815Z 06001KT 9999 FEW022 29/22 Q1016=
201007070745 METAR LIRA 070745Z 32004KT 9999 FEW022 27/21 Q1016=
201007070715 METAR LIRA 070715Z 33005KT 280V360 9999 FEW080 27/21 Q1016=
201007070645 METAR LIRA 070645Z 33005KT 9999 FEW080 26/21 Q1015=
201007070615 METAR LIRA 070615Z 32004KT 9999 FEW080 25/21 Q1015=
201007070545 METAR LIRA 070545Z 25001KT 9000 FEW080 24/21 Q1015=
201007070515 METAR LIRA 070515Z 08002KT 7000 FEW080 24/21 Q1015=
201007070445 METAR LIRA 070445Z 01002KT 6000 FEW080 23/21 Q1015=
201007070415 METAR LIRA 070415Z 03002KT 5000 BR FEW007 22/20 Q1015=
201007070345 METAR LIRA 070345Z 07001KT 4000 BR SCT007 22/20 Q1015=
201007070315 METAR LIRA 070315Z 03001KT 7000 FEW007 23/20 Q1015=
201007070245 METAR LIRA 070245Z 32003KT CAVOK 23/21 Q1015=
201007070215 METAR LIRA 070215Z 07001KT 9999 FEW007 23/22 Q1015=
201007070145 METAR LIRA 070145Z 00000KT 9999 FEW007 24/23 Q1015=
201007070115 METAR LIRA 070115Z 13003KT 8000 FEW007 24/23 Q1015=
201007070045 METAR LIRA 070045Z 17003KT 8000 SCT007 24/23 Q1015=
201007070015 METAR LIRA 070015Z 16002KT 8000 FEW007 24/23 Q1015=
201007062350 METAR LIRA 070045Z 17003KT 8000 SCT007 24/23 Q1015=
201007062345 METAR LIRA 062345Z 18002KT 9999 FEW080 24/23 Q1015=
201007062315 METAR LIRA 062315Z 14003KT 9999 FEW080 24/22 Q1015=
201007062245 METAR LIRA 062245Z 19002KT 9999 FEW080 24/22 Q1015=
201007062215 METAR LIRA 062215Z 19004KT 9999 FEW070 24/22 Q1015=
201007062145 METAR LIRA 062145Z 22003KT 9999 FEW070 25/23 Q1015=
201007062115 METAR LIRA 062115Z 16005KT 9999 FEW030 SCT070 25/23 Q1015=
201007062045 METAR LIRA 062045Z 20003KT 9999 FEW030 25/23 Q1015=
201007062015 METAR LIRA 062015Z 22004KT 9999 FEW030 26/23 Q1015=
201007061945 METAR LIRA 061945Z 22002KT 9999 FEW018 FEW020CB SCT035 26/22
                        Q1015=
201007061915 METAR LIRA 061915Z 23002KT 9999 FEW018 FEW020CB SCT035 26/22
                        Q1014=
201007061845 METAR LIRA 061845Z 23004KT 190V290 9999 FEW018 FEW020CB SCT035
                        27/22 Q1014=
201007061815 METAR LIRA 061815Z 23005KT 200V260 9999 FEW020 FEW022CB 28/22
                        Q1014=
201007061745 METAR LIRA 061745Z 24005KT 190V290 9999 FEW020 FEW022CB 28/22
                        Q1015=
201007061715 METAR LIRA 061715Z 23002KT 9999 FEW020 FEW022CB 29/23 Q1015=
201007061645 METAR LIRA 061645Z 23005KT 190V250 9999 FEW020 FEW022CB 30/23
                        Q1014=
201007061615 METAR LIRA 061615Z 24008KT 180V300 9999 FEW020 FEW022CB 30/23
                        Q1014=
201007061545 METAR LIRA 061545Z 19010KT 150V250 9999 SCT020 FEW022CB 30/21
                        Q1013=
201007061515 METAR LIRA 061515Z 19005KT 160V250 9999 SCT020 FEW022CB 30/21
                        Q1014=
201007061445 METAR LIRA 061445Z 26008KT 180V310 9999 SCT020 FEW022CB 30/21
                        Q1014=
201007061415 METAR LIRA 061415Z 22007KT 140V280 9999 SCT020 FEW022CB 30/23
                        Q1014=
201007061345 METAR LIRA 061345Z 22008KT 180V310 9999 SCT020 FEW022CB 31/23
                        Q1014=
201007061315 METAR LIRA 061315Z 24011KT 180V270 9999 SCT020 FEW022CB 31/23
                        Q1014=
201007061245 METAR LIRA 061245Z 24007KT 160V300 9999 FEW020 FEW024TCU
                        31/22 Q1014=
201007061215 METAR LIRA 061215Z 23008KT 150V340 9999 FEW020 31/22 Q1014=
201007061145 METAR LIRA 061145Z 22008KT 160V270 9999 FEW020 31/22 Q1014=
201007061115 METAR LIRA 061115Z 17009KT 100V280 9999 FEW020 32/20 Q1014=
201007061045 METAR LIRA 061045Z 29005KT 280V010 9999 FEW020 33/17 Q1014=
201007061015 METAR LIRA 061015Z 12002KT 9999 FEW020 32/17 Q1015=
201007061000 METAR LIRA CONTUS/CB NE/S=
201007060945 METAR LIRA 060945Z 20002KT 9999 FEW020 30/17 Q1015=
201007060915 METAR LIRA 060915Z 32003KT 9999 FEW020 30/17 Q1015=
201007060900 METAR LIRA CONTUS RETS CB NW=
201007060845 METAR LIRA 060845Z 19002KT CAVOK 28/18 Q1015=
201007060815 METAR LIRA 060815Z 30003KT CAVOK 28/18 Q1015=
201007060800 LIRA CONTUS LOW CLDS MOVING W=
201007060745 METAR LIRA 060745Z 06002KT CAVOK 27/18 Q1015=
201007060715 METAR LIRA 060715Z 06004KT CAVOK 26/18 Q1015=
201007060645 METAR LIRA 060645Z 02005KT CAVOK 25/19 Q1015=
201007060615 METAR LIRA 060615Z 35004KT CAVOK 23/19 Q1014=
201007060545 METAR LIRA 060545Z 02003KT CAVOK 23/20 Q1014=
201007060515 METAR LIRA 060515Z 03002KT CAVOK 22/20 Q1014=
201007060445 METAR LIRA 060445Z 35001KT CAVOK 21/19 Q1014=
201007060415 METAR LIRA 060415Z 35002KT CAVOK 20/19 Q1014=
201007060345 METAR LIRA 060345Z 05003KT 8000 NSC 20/19 Q1014=
201007060315 METAR LIRA 060315Z 05001KT CAVOK 21/19 Q1014=
201007060245 METAR LIRA 060245Z 04003KT CAVOK 21/19 Q1014=
201007060215 METAR LIRA 060215Z 06002KT CAVOK 21/19 Q1014=
201007060145 METAR LIRA 060145Z 05003KT CAVOK 21/19 Q1014=
201007060115 METAR LIRA 060115Z 04001KT CAVOK 22/20 Q1014=
201007060045 METAR LIRA 060045Z 04003KT CAVOK 22/19 Q1014=
201007060015 METAR LIRA 060015Z 04003KT CAVOK 22/19 Q1015=
201007052350 METAR LIRA 060045Z 04003KT CAVOK 22/19 Q1014=
201007052345 METAR LIRA 052345Z 05003KT CAVOK 22/20 Q1015=
201007052315 METAR LIRA 052315Z 04003KT CAVOK 22/19 Q1015=
201007052245 METAR LIRA 052245Z 04002KT CAVOK 22/19 Q1015=
201007052215 METAR LIRA 052215Z 10003KT CAVOK 23/20 Q1015=
201007052145 METAR LIRA 052145Z 09003KT CAVOK 23/22 Q1015=
201007052115 METAR LIRA 052115Z 36002KT CAVOK 24/22 Q1015=
201007052045 METAR LIRA 052045Z 24001KT CAVOK 24/23 Q1015=
201007052015 METAR LIRA 052015Z 18003KT CAVOK 24/23 Q1015=
201007051945 METAR LIRA 051945Z 21002KT CAVOK 25/23 Q1015=
201007051915 METAR LIRA 051915Z 23003KT CAVOK 25/22 Q1015=
201007051845 METAR LIRA 051845Z 23005KT 200V280 CAVOK 25/21 Q1015=
201007051815 METAR LIRA 051815Z 22006KT 180V250 CAVOK 27/22 Q1015=
201007051745 METAR LIRA 051745Z 21008KT 170V250 CAVOK 28/22 Q1014=
201007051715 METAR LIRA 051715Z 23006KT 200V270 CAVOK 29/21 Q1014=
201007051645 METAR LIRA 051645Z 22006KT 190V260 CAVOK 29/21 Q1014=
201007051615 METAR LIRA 051615Z 17004KT 150V270 9999 FEW018 30/20 Q1014=
201007051545 METAR LIRA 051545Z 21006KT 130V270 9999 FEW018 FEW020CB 30/20
                        Q1014=
201007051515 METAR LIRA 051515Z 23006KT 180V270 9999 FEW018 FEW020CB 30/23
                        Q1014=
201007051445 METAR LIRA 051445Z 23007KT 170V280 9999 FEW018 FEW022CB 30/20
                        Q1015=
201007051415 METAR LIRA 051415Z 22009KT 160V270 9999 FEW018TCU FEW022CB
                        30/20 Q1015=
201007051345 METAR LIRA 051345Z 21008KT 150V260 9999 FEW018TCU FEW022CB
                        30/20 Q1015=
201007051315 METAR LIRA 051315Z 20007KT 150V260 9999 FEW018 31/20 Q1015=
201007051245 METAR LIRA 051245Z 23007KT 160V270 9999 FEW018 32/20 Q1015=
201007051215 METAR LIRA 051215Z 22009KT 170V270 9999 FEW018 32/17 Q1015=
201007051145 METAR LIRA 051145Z 22007KT 170V280 9999 FEW018 32/17 Q1015=
201007051115 METAR LIRA 051115Z 23008KT 170V280 9999 FEW020 32/17 Q1015=
201007051045 METAR LIRA 051045Z 18007KT 140V270 9999 FEW020 32/17 Q1016=
201007051015 METAR LIRA 051015Z 22006KT 150V270 9999 FEW020 31/17 Q1015=
201007050945 METAR LIRA 050945Z 18006KT 090V250 9999 FEW020 31/19 Q1015=
201007050915 METAR LIRA 050915Z 23007KT 130V260 9999 FEW020 30/18 Q1015=
201007050845 METAR LIRA 050845Z 19004KT CAVOK 30/19 Q1016=
201007050815 METAR LIRA 050815Z 05002KT CAVOK 29/21 Q1016=
201007050745 METAR LIRA 050745Z 06003KT CAVOK 28/22 Q1016=
201007050715 METAR LIRA 050715Z 16002KT CAVOK 27/22 Q1016=
201007050645 METAR LIRA 050645Z 30002KT CAVOK 26/21 Q1016=
201007050615 METAR LIRA 050615Z 05001KT CAVOK 25/21 Q1016=
201007050545 METAR LIRA 050545Z 04003KT CAVOK 24/22 Q1016=
201007050515 METAR LIRA 050515Z 04003KT 9999 FEW020 23/21 Q1016=
201007050445 METAR LIRA 050445Z 02002KT 9999 FEW020 22/20 Q1015=
201007050415 METAR LIRA 050415Z 19002KT 9999 FEW020 23/20 Q1015=
201007050345 METAR LIRA 050345Z 16003KT 9999 FEW015 22/20 Q1015=
201007050315 METAR LIRA 050315Z 18003KT 9999 FEW015 22/20 Q1015=
201007050245 METAR LIRA 050245Z 20004KT CAVOK 22/20 Q1015=
201007050215 METAR LIRA 050215Z 21003KT CAVOK 22/20 Q1015=
201007050145 METAR LIRA 050145Z 16003KT CAVOK 22/20 Q1015=
201007050115 METAR LIRA 050115Z 16004KT CAVOK 23/21 Q1016=
201007050045 METAR LIRA 050045Z 17003KT CAVOK 23/21 Q1016=
201007050015 METAR LIRA 050015Z 17004KT CAVOK 24/21 Q1016=
201007042350 METAR LIRA 050045Z 17003KT CAVOK 23/21 Q1016=
201007042345 METAR LIRA 042345Z 18002KT 9999 FEW080 24/21 Q1016=
201007042315 METAR LIRA 042315Z 13002KT 9999 FEW080 24/21 Q1016=
201007042245 METAR LIRA 042245Z 13003KT 9999 FEW070 24/21 Q1016=
201007042215 METAR LIRA 042215Z 13005KT 9999 FEW070 25/22 Q1016=
201007042145 METAR LIRA 042145Z 18003KT 9999 FEW070 25/21 Q1016=
201007042115 METAR LIRA 042115Z 16005KT 9999 FEW070 25/21 Q1016=
201007042045 METAR LIRA 042045Z 21005KT 9999 FEW070 25/20 Q1016=
201007042015 METAR LIRA 042015Z 19005KT 9999 FEW070 26/19 Q1016=
201007041945 METAR LIRA 041945Z 18003KT 9999 FEW020 26/18 Q1015=
201007041915 METAR LIRA 041915Z 24003KT 9999 FEW022TCU SCT060 27/18 Q1015=
201007041845 METAR LIRA 041845Z 05005KT 010V100 9999 FEW022TCU SCT070
                        27/16 Q1015=
201007041815 METAR LIRA 041815Z 33005KT 9999 FEW015TCU SCT060 30/18 Q1015=
201007041745 METAR LIRA 041745Z 21003KT 9999 FEW015 SCT060 30/17 Q1015=
201007041715 METAR LIRA 041715Z 14007KT 110V180 9999 FEW018TCU FEW020CB
                        31/17 Q1016=
201007041645 METAR LIRA 041645Z 29004KT 200V300 9999 FEW018TCU FEW020CB
                        SCT025 31/17 Q1016=
201007041615 METAR LIRA 041615Z 24008KT 200V300 9999 FEW018TCU FEW020CB
                        31/17 Q1015=
201007041545 METAR LIRA 041545Z 24009KT 200V320 9999 FEW018TCU FEW022CB
                        32/17 Q1015=
201007041515 METAR LIRA 041515Z 27007KT 240V330 9999 FEW018TCU FEW022CB
                        32/17 Q1015=
201007041445 METAR LIRA 041445Z 25009KT 210V310 9999 FEW018 FEW022CB 32/18
                        Q1015=
201007041415 METAR LIRA 041415Z 26009KT 200V320 9999 FEW018 FEW022CB 32/18
                        Q1015=
201007041345 METAR LIRA 041345Z 26010KT 210V320 9999 FEW020TCU FEW022CB
                        32/18 Q1015=
201007041315 METAR LIRA 041315Z 26012KT 240V330 9999 FEW020TCU FEW022CB
                        32/20 Q1015=
201007041245 METAR LIRA 041245Z 29012KT 230V330 9999 FEW018 FEW022TCU
                        34/19 Q1015=
201007041215 METAR LIRA 041215Z 30010KT 240V360 9999 FEW018 33/18 Q1016=
201007041145 METAR LIRA 041145Z 27005KT 240V350 9999 FEW020 33/16 Q1016=
201007041115 METAR LIRA 041115Z 03002KT 330V060 9999 FEW020 33/16 Q1016=
201007041045 METAR LIRA 041045Z 28008KT 270V030 9999 FEW020 33/15 Q1016=
201007041015 METAR LIRA 041015Z 34003KT CAVOK 31/15 Q1016=
201007041000 LIRA CONTUS SLT TS=
201007040945 METAR LIRA 040945Z 04003KT CAVOK 31/16 Q1016=
201007040915 METAR LIRA 040915Z 33002KT 260V020 CAVOK 30/18 Q1016=
201007040845 METAR LIRA 040845Z 31003KT CAVOK 29/18 Q1016=
201007040815 METAR LIRA 040815Z 35005KT 300V030 CAVOK 28/19 Q1016=
201007040745 METAR LIRA 040745Z 33004KT CAVOK 27/19 Q1016=
201007040715 METAR LIRA 040715Z 31003KT CAVOK 27/19 Q1016=
201007040645 METAR LIRA 040645Z 28001KT CAVOK 25/19 Q1016=
201007040615 METAR LIRA 040615Z 34002KT CAVOK 24/19 Q1016=
201007040545 METAR LIRA 040545Z 36002KT CAVOK 23/18 Q1015=
201007040515 METAR LIRA 040515Z 04004KT CAVOK 22/19 Q1015=
201007040445 METAR LIRA 040445Z 05005KT CAVOK 21/19 Q1015=
201007040415 METAR LIRA 040415Z 06005KT CAVOK 21/19 Q1015=
201007040345 METAR LIRA 040345Z 01004KT CAVOK 21/19 Q1015=
201007040315 METAR LIRA 040315Z 34002KT CAVOK 21/19 Q1015=
201007040245 METAR LIRA 040245Z 03002KT CAVOK 21/19 Q1015=
201007040215 METAR LIRA 040215Z 28001KT CAVOK 21/19 Q1015=
201007040145 METAR LIRA 040145Z 02001KT CAVOK 21/19 Q1015=
201007040115 METAR LIRA 040115Z 30002KT CAVOK 22/19 Q1015=
201007040045 METAR LIRA 040045Z 04004KT CAVOK 22/20 Q1015=
201007040015 METAR LIRA 040015Z 02003KT CAVOK 23/20 Q1015=
201007032350 METAR LIRA 040045Z 04004KT CAVOK 22/20 Q1015=
201007032345 METAR LIRA 032345Z 03004KT CAVOK 23/21 Q1015=
201007032315 METAR LIRA 032315Z 03002KT CAVOK 23/20 Q1015=
201007032245 METAR LIRA 032245Z 31001KT CAVOK 24/21 Q1015=
201007032215 METAR LIRA 032215Z 31002KT CAVOK 24/20 Q1016=
201007032145 METAR LIRA 032145Z 14005KT CAVOK 24/20 Q1016=
201007032115 METAR LIRA 032115Z 22001KT 9999 FEW080 25/21 Q1016=
201007032045 METAR LIRA 032045Z 12002KT 9999 FEW080 25/21 Q1016=
201007032015 METAR LIRA 032015Z 08003KT 9999 FEW080 26/21 Q1015=
201007031945 METAR LIRA 031945Z 05002KT 9999 FEW080 26/20 Q1015=
201007031915 METAR LIRA 031915Z 06003KT 9999 SCT080 26/20 Q1015=
201007031845 METAR LIRA 031845Z 04006KT 9999 SCT080 26/19 Q1015=
201007031815 METAR LIRA 031815Z 24002KT 9999 SCT080 27/20 Q1015=
201007031745 METAR LIRA 031745Z 10004KT 9999 FEW020 SCT080 26/18 Q1015=
201007031715 METAR LIRA 031715Z 01006KT 320V070 9999 FEW018 FEW020CB SCT080
                        27/17 Q1015 RETS=
201007031645 METAR LIRA 031645Z 24001KT 9999 FEW018 FEW020CB SCT080 28/16
                        Q1015 RETS=
201007031615 METAR LIRA 031615Z 07005KT 060V130 9999 SCT020CB 28/17 Q1015=
201007031545 METAR LIRA 031545Z 17003KT 9999 TS SCT020CB 30/20 Q1015=
201007031515 METAR LIRA 031515Z 23008KT 180V270 9999 FEW020CB 30/20 Q1015=
201007031445 METAR LIRA 031445Z 23008KT 180V290 9999 FEW020CB 31/21 Q1015=
201007031415 METAR LIRA 031415Z 23008KT 190V280 9999 FEW020CB FEW022TCU
                        31/21 Q1015=
201007031345 METAR LIRA 031345Z 22008KT 170V280 9999 FEW020TCU 31/19 Q1015=
201007031315 METAR LIRA 031315Z 24007KT 190V300 9999 FEW020TCU 31/20 Q1015=
201007031245 METAR LIRA 031245Z 21007KT 170V280 9999 FEW020TCU 32/21 Q1015=
201007031215 METAR LIRA 031215Z 21007KT 140V280 9999 FEW020TCU 32/21 Q1015=
201007031145 METAR LIRA 031145Z 22007KT 130V290 9999 SCT025 32/20 Q1015=
201007031115 METAR LIRA 031115Z 24004KT 160V260 9999 SCT025 33/18 Q1015=
201007031045 METAR LIRA 031045Z 13004KT 050V190 9999 SCT025 33/17 Q1015=
201007031015 METAR LIRA 031015Z 04004KT 9999 FEW025 32/17 Q1015=
201007030945 METAR LIRA 030945Z 11003KT 9999 FEW025 32/18 Q1015=
201007030915 METAR LIRA 030915Z 09002KT 9999 FEW025 31/17 Q1015=
201007030845 METAR LIRA 030845Z 31002KT 9999 FEW025 30/18 Q1015=
201007030815 METAR LIRA 030815Z 01003KT 9000 FEW025 29/17 Q1016=
201007030745 METAR LIRA 030745Z 02003KT 7000 NSC 28/21 Q1016=
201007030715 METAR LIRA 030715Z 27002KT 7000 NSC 27/20 Q1015=
201007030645 METAR LIRA 030645Z 01004KT 7000 NSC 25/20 Q1015=
201007030615 METAR LIRA 030615Z 35003KT 7000 NSC 24/20 Q1015=
201007030545 METAR LIRA 030545Z 05003KT 7000 NSC 23/20 Q1015=
201007030515 METAR LIRA 030515Z 04002KT 7000 FEW007 22/19 Q1015=
201007030445 METAR LIRA 030445Z 03002KT 7000 FEW007 21/19 Q1015=
201007030415 METAR LIRA 030415Z 11002KT 7000 FEW005 21/19 Q1015=
201007030345 METAR LIRA 030345Z 17001KT 7000 FEW005 20/20 Q1015=
201007030315 METAR LIRA 030315Z 16003KT 9999 FEW005 20/19 Q1015=
201007030245 METAR LIRA 030245Z 16003KT 9999 FEW005 21/19 Q1015=
201007030215 METAR LIRA 030215Z 16003KT 9999 FEW005 21/19 Q1015=
201007030145 METAR LIRA 030145Z 23002KT 9999 FEW005 21/19 Q1015=
201007030115 METAR LIRA 030115Z 23002KT 9999 FEW010 21/19 Q1015=
201007030045 METAR LIRA 030045Z 16002KT 9999 FEW010 21/18 Q1015=
201007030015 METAR LIRA 030015Z 23001KT 9999 FEW010 22/20 Q1015=
201007022350 METAR LIRA 030045Z 16002KT 9999 FEW010 21/18 Q1015=
201007022345 METAR LIRA 022345Z 24002KT 9999 FEW010 22/20 Q1015=
201007022315 METAR LIRA 022315Z 11002KT 9999 FEW010 22/18 Q1015=
201007022245 METAR LIRA 022245Z 08002KT 9999 FEW010 23/19 Q1015=
201007022215 METAR LIRA 022215Z 04002KT 9999 FEW010 23/19 Q1015=
201007022145 METAR LIRA 022145Z 13003KT CAVOK 23/20 Q1015=
201007022115 METAR LIRA 022115Z 13001KT CAVOK 24/21 Q1015=
201007022045 METAR LIRA 022045Z 13004KT CAVOK 24/22 Q1015=
201007022015 METAR LIRA 022015Z 16003KT CAVOK 25/23 Q1015=
201007021945 METAR LIRA 021945Z 16004KT 9999 FEW020 25/23 Q1014=
201007021915 METAR LIRA 021915Z 21003KT 8000 FEW018 SCT070 25/22 Q1014=
201007021845 METAR LIRA 021845Z 24004KT 9999 FEW018 FEW022CB SCT070 26/22
                        Q1014=
201007021815 METAR LIRA 021815Z 21004KT 9999 FEW018 FEW022CB SCT070 26/23
                        Q1014=
201007021745 METAR LIRA 021745Z 18007KT 120V230 9999 FEW018 FEW022CB SCT070
                        27/23 Q1014=
201007021715 METAR LIRA 021715Z 19006KT 110V220 9999 FEW018 FEW022CB SCT070
                        27/23 Q1014=
201007021645 METAR LIRA 021645Z 23006KT 190V270 9999 FEW018 FEW022CB 28/23
                        Q1014=
201007021615 METAR LIRA 021615Z 23007KT 180V270 9999 FEW018 FEW022CB 28/23
                        Q1014=
201007021545 METAR LIRA 021545Z 22007KT 180V250 9999 FEW005 FEW013CB SCT060
                        28/22 Q1014=
201007021515 METAR LIRA 021515Z 23009KT 190V270 9999 FEW005 FEW015TCU
                        29/21 Q1014=
201007021445 METAR LIRA 021445Z 21008KT 140V260 9999 FEW020TCU 30/21 Q1014=
201007021415 METAR LIRA 021415Z 22008KT 170V270 9999 FEW020TCU 31/22 Q1015=
201007021345 METAR LIRA 021345Z 22008KT 180V290 9999 FEW020TCU 32/22 Q1015=
201007021315 METAR LIRA 021315Z 22009KT 180V280 9999 FEW020TCU SCT025
                        31/18 Q1015=
201007021245 METAR LIRA 021245Z 21006KT 180V260 9999 FEW020TCU SCT025
                        31/18 Q1015=
201007021215 METAR LIRA 021215Z 24006KT 180V320 9999 FEW020TCU 32/18 Q1015=
201007021145 METAR LIRA 021145Z 24006KT 160V300 9999 FEW020TCU 32/19 Q1015=
201007021115 METAR LIRA 021115Z 24006KT 190V290 9999 FEW020TCU 32/19 Q1015=
201007021045 METAR LIRA 021045Z 29005KT 180V330 9999 FEW022 32/18 Q1015=
201007021015 METAR LIRA 021015Z 17004KT 120V200 9999 FEW025 31/17 Q1015=
201007020945 METAR LIRA 020945Z 20004KT CAVOK 30/17 Q1015=
201007020915 METAR LIRA 020915Z 10002KT CAVOK 30/17 Q1015=
201007020845 METAR LIRA 020845Z 16002KT CAVOK 29/17 Q1015=
201007020815 METAR LIRA 020815Z 01002KT CAVOK 28/18 Q1015=
201007020745 METAR LIRA 020745Z 22002KT CAVOK 28/17 Q1015=
201007020715 METAR LIRA 020715Z 14002KT CAVOK 26/18 Q1015=
201007020645 METAR LIRA 020645Z 32001KT CAVOK 25/20 Q1015=
201007020615 METAR LIRA 020615Z 11001KT CAVOK 24/19 Q1015=
201007020545 METAR LIRA 020545Z 07001KT CAVOK 23/20 Q1015=
201007020515 METAR LIRA 020515Z 00000KT 9999 FEW080 21/19 Q1015=
201007020445 METAR LIRA 020445Z 26001KT 9999 FEW080 21/19 Q1015=
201007020415 METAR LIRA 020415Z 12002KT 9999 FEW080 21/18 Q1015=
201007020345 METAR LIRA 020345Z 16004KT 9999 FEW080 21/17 Q1015=
201007020315 METAR LIRA 020315Z 15003KT 9999 FEW080 21/17 Q1015=
201007020245 METAR LIRA 020245Z 11002KT CAVOK 21/19 Q1015=
201007020215 METAR LIRA 020215Z 36002KT CAVOK 21/18 Q1015=
201007020145 METAR LIRA 020145Z 15001KT CAVOK 21/18 Q1015=
201007020115 METAR LIRA 020115Z 26001KT CAVOK 21/20 Q1015=
201007020045 METAR LIRA 020045Z 11001KT CAVOK 22/19 Q1015=
201007020015 METAR LIRA 020015Z 00000KT CAVOK 22/19 Q1015=
201007012350 METAR LIRA 020045Z 11001KT CAVOK 22/19 Q1015=
201007012345 METAR LIRA 012345Z 11001KT CAVOK 22/19 Q1015=
201007012315 METAR LIRA 012315Z 11005KT CAVOK 22/19 Q1015=
201007012245 METAR LIRA 012245Z 34001KT CAVOK 23/20 Q1015=
201007012215 METAR LIRA 012215Z 23001KT CAVOK 23/20 Q1015=
201007012145 METAR LIRA 012145Z 13001KT CAVOK 23/21 Q1015=
201007012115 METAR LIRA 012115Z 00000KT 9999 FEW045 23/21 Q1015=
201007012045 METAR LIRA 012045Z 28001KT 9999 FEW040 24/22 Q1015=
201007012015 METAR LIRA 012015Z 17004KT 9999 FEW030 25/22 Q1015=
201007011945 METAR LIRA 011945Z 21003KT 9999 FEW020TCU SCT080 25/22 Q1014=
201007011915 METAR LIRA 011915Z 22003KT 9999 FEW020TCU SCT080 25/22 Q1014=
201007011845 METAR LIRA 011845Z 25003KT 9999 FEW018CB SCT035 26/22 Q1014=
201007011815 METAR LIRA 011815Z 21005KT 150V240 9999 FEW018 FEW020CB SCT080
                        27/21 Q1014=
201007011745 METAR LIRA 011745Z 22006KT 180V260 9999 FEW018 FEW020CB SCT080
                        28/20 Q1014=
201007011715 METAR LIRA 011715Z 23007KT 180V290 9999 FEW018CB SCT030 29/19
                        Q1014=
201007011645 METAR LIRA 011645Z 21008KT 160V260 9999 FEW018CB SCT030 29/16
                        Q1014=
201007011615 METAR LIRA 011615Z 23007KT 190V260 9999 FEW018CB SCT025 30/17
                        Q1014=
201007011545 METAR LIRA 011545Z 22007KT 160V260 9999 FEW018 FEW020CB 30/17
                        Q1014=
201007011515 METAR LIRA 011515Z 22008KT 160V310 9999 FEW018 FEW020CB 30/16
                        Q1014=
201007011445 METAR LIRA 011445Z 23007KT 180V320 9999 FEW020 FEW022CB 30/15
                        Q1014=
201007011415 METAR LIRA 011415Z 23008KT 180V270 9999 SCT020 FEW024TCU
                        30/15 Q1015=
201007011345 METAR LIRA 011345Z 22007KT 160V280 9999 SCT020 FEW024TCU
                        30/15 Q1015=
201007011315 METAR LIRA 011315Z 23009KT 180V290 9999 BKN020 31/16 Q1015=
201007011245 METAR LIRA 011245Z 23008KT 170V260 9999 SCT020 31/17 Q1015=
201007011215 METAR LIRA 011215Z 24007KT 190V310 9999 BKN020 30/18 Q1015=
201007011145 METAR LIRA 011145Z 16004KT 170V290 9999 BKN020 31/18 Q1015=
201007011115 METAR LIRA 011115Z 17005KT 100V220 9999 SCT020 31/15 Q1015=
201007011045 METAR LIRA 011045Z 18006KT 060V250 9999 SCT020 30/15 Q1015=
201007011015 METAR LIRA 011015Z 20004KT 100V200 9999 FEW022 30/15 Q1015=
201007010945 METAR LIRA 010945Z 16003KT 9999 FEW022 30/16 Q1015=
201007010915 METAR LIRA 010915Z 16004KT 010V120 9999 FEW020 30/17 Q1015=
201007010900 METAR LIRA CONTUS/CB NW=
201007010845 METAR LIRA 010845Z 01002KT 9999 FEW020 28/17 Q1015=
201007010815 METAR LIRA 010815Z 26002KT 9999 FEW022 27/17 Q1015=
201007010800 METAR LIRA CONTUS/CB ALQUADS=
201007010745 METAR LIRA 010745Z 31003KT 9999 FEW080 27/18 Q1015=
201007010715 METAR LIRA 010715Z 33002KT 9999 FEW080 25/18 Q1015=
201007010700 METAR LIRA CONTUS CB AQ=
201007010645 METAR LIRA 010645Z 31002KT 9999 FEW080 24/18 Q1015=
201007010615 METAR LIRA 010615Z 01003KT 9999 FEW080 23/18 Q1015=
201007010545 METAR LIRA 010545Z 36003KT 9999 FEW080 22/19 Q1015=
201007010515 METAR LIRA 010515Z 33002KT 9999 FEW080 21/18 Q1015=
201007010445 METAR LIRA 010445Z 16001KT 9999 FEW080 20/18 Q1014=
201007010415 METAR LIRA 010415Z 34003KT 9999 FEW080 20/17 Q1014=
201007010345 METAR LIRA 010345Z 12001KT 9999 FEW080 19/17 Q1015=
201007010315 METAR LIRA 010315Z 08003KT 9999 FEW080 20/17 Q1014=
201007010245 METAR LIRA 010245Z 09002KT CAVOK 20/17 Q1014=
201007010215 METAR LIRA 010215Z 11002KT 9999 FEW080 20/16 Q1014=
201007010145 METAR LIRA 010145Z 11002KT 9999 FEW070 20/16 Q1014=
201007010115 METAR LIRA 010115Z 27002KT CAVOK 20/16 Q1015=
201007010045 METAR LIRA 010045Z 07002KT 9999 FEW025 20/15 Q1015=
201007010015 METAR LIRA 010015Z 14002KT 9999 FEW010 21/17 Q1015=

</pre>

</body>
</html>
