##########################################################
# Query made at 11/10/2014 16:19:36 UTC
# Time interval: from 07/01/2011 00:00  to 07/31/2011 23:59  UTC
##########################################################

##########################################################
# LIRA, Roma / Ciampino (Italy)
# WMO index: 16239
# Latitude 41-47N. Longitude 012-35E. Altitude 129 m.
##########################################################

###################################
#  METAR/SPECI from LIRA
###################################
201107312350 METAR LIRA 010045Z 08002KT CAVOK 18/15 Q1012=
201107312345 METAR LIRA 312345Z 10004KT CAVOK 19/17 Q1012=
201107312315 METAR LIRA 312315Z 10005KT CAVOK 19/17 Q1012=
201107312245 METAR LIRA 312245Z 10005KT CAVOK 19/18 Q1012=
201107312215 METAR LIRA 312215Z 10004KT CAVOK 19/18 Q1012=
201107312145 METAR LIRA 312145Z 10002KT CAVOK 20/19 Q1012=
201107312115 METAR LIRA 312115Z 10001KT CAVOK 21/19 Q1012=
201107312045 METAR LIRA 312045Z 19003KT CAVOK 21/19 Q1012=
201107312015 METAR LIRA 312015Z 19003KT CAVOK 22/19 Q1012=
201107311945 METAR LIRA 311945Z 21003KT 9999 FEW020 22/19 Q1011=
201107311915 METAR LIRA 311915Z 21003KT 9999 FEW020 22/19 Q1011=
201107311845 METAR LIRA 311845Z 23003KT 9999 FEW020 23/19 Q1011=
201107311815 METAR LIRA 311815Z 23005KT 9999 FEW020 23/18 Q1011=
201107311745 METAR LIRA 311745Z 22007KT 180V240 9999 FEW020 24/18 Q1011=
201107311715 METAR LIRA 311715Z 24007KT 180V270 9999 FEW018 25/17 Q1011=
201107311645 METAR LIRA 311645Z 23006KT 180V260 9999 SCT018 25/17 Q1011=
201107311615 METAR LIRA 311615Z 24008KT 210V280 9999 SCT018 25/17 Q1011=
201107311545 METAR LIRA 311545Z 24008KT 9999 SCT018 25/17 Q1011=
201107311515 METAR LIRA 311515Z 22008KT 190V280 9999 SCT018 25/17 Q1011=
201107311445 METAR LIRA 311445Z 24009KT 190V260 9999 SCT017 25/17 Q1012=
201107311415 METAR LIRA 311415Z 22008KT 190V260 9999 SCT017 25/17 Q1012=
201107311345 METAR LIRA 311345Z 25009KT 210V300 9999 SCT017 26/17 Q1012=
201107311315 METAR LIRA 311315Z 24007KT 180V310 9999 SCT017 26/16 Q1012=
201107311245 METAR LIRA 311245Z 24009KT 210V280 9999 SCT017 26/16 Q1012=
201107311215 METAR LIRA 311215Z 23006KT 200V280 9999 SCT017 26/17 Q1012=
201107311145 METAR LIRA 311145Z 21008KT 160V240 9999 SCT017 26/16 Q1012=
201107311115 METAR LIRA 311115Z 22008KT 180V280 9999 BKN017 26/16 Q1012=
201107311045 METAR LIRA 311045Z 21006KT 150V300 9999 BKN017 26/15 Q1012=
201107311015 METAR LIRA 311015Z 24007KT 200V310 9999 BKN017 26/16 Q1012=
201107310945 METAR LIRA 310945Z 07004KT 130V230 9999 BKN017 25/18 Q1012=
201107310915 METAR LIRA 310915Z 25004KT 9999 SCT017 25/18 Q1012=
201107310845 METAR LIRA 310845Z 19003KT 9999 SCT018 SCT200 24/17 Q1012=
201107310815 METAR LIRA 310815Z 19003KT 9999 FEW018 SCT200 24/17 Q1012=
201107310745 METAR LIRA 310745Z 21005KT 9999 FEW018 SCT200 23/17 Q1012=
201107310715 METAR LIRA 310715Z 29003KT 9999 FEW018 SCT200 23/17 Q1012=
201107310645 METAR LIRA 310645Z 12002KT 9999 FEW080 SCT200 22/17 Q1012=
201107310615 METAR LIRA 310615Z 08002KT 9999 FEW080 SCT200 22/17 Q1012=
201107310545 METAR LIRA 310545Z 10005KT 9999 FEW070 SCT200 20/17 Q1012=
201107310515 METAR LIRA 310515Z 11004KT 9999 FEW030 SCT200 19/17 Q1012=
201107310445 METAR LIRA 310445Z 11003KT 9999 FEW030 SCT200 18/16 Q1012=
201107310415 METAR LIRA 310415Z 00000KT 9999 FEW030 SCT200 18/16 Q1012=
201107310345 METAR LIRA 310345Z 09002KT CAVOK 18/16 Q1012=
201107310315 METAR LIRA 310315Z 10003KT CAVOK 18/16 Q1012=
201107310245 METAR LIRA 310245Z 10003KT CAVOK 18/16 Q1012=
201107310215 METAR LIRA 310215Z 10003KT CAVOK 18/16 Q1012=
201107310145 METAR LIRA 310145Z 10003KT CAVOK 18/17 Q1013=
201107310115 METAR LIRA 310115Z 10003KT CAVOK 18/17 Q1013=
201107310045 METAR LIRA 310045Z 16003KT CAVOK 20/18 Q1013=
201107310015 METAR LIRA 310015Z 16003KT CAVOK 20/19 Q1013=
201107302350 METAR LIRA 310045Z 16003KT CAVOK 20/18 Q1013=
201107302345 METAR LIRA 302345Z 17003KT CAVOK 20/19 Q1013=
201107302315 METAR LIRA 302315Z 17003KT CAVOK 20/18 Q1013=
201107302245 METAR LIRA 302245Z 17003KT CAVOK 21/19 Q1013=
201107302215 METAR LIRA 302215Z 19003KT CAVOK 21/19 Q1013=
201107302145 METAR LIRA 302145Z 18003KT CAVOK 21/18 Q1012=
201107302115 METAR LIRA 302115Z 17001KT CAVOK 21/18 Q1012=
201107302045 METAR LIRA 302045Z 21001KT CAVOK 22/19 Q1012=
201107302015 METAR LIRA 302015Z 00000KT 9999 FEW020 22/18 Q1012=
201107301945 METAR LIRA 301945Z 23002KT 9999 FEW020 22/18 Q1012=
201107301915 METAR LIRA 301915Z 23003KT 9999 FEW020 23/17 Q1012=
201107301845 METAR LIRA 301845Z 23003KT 9999 FEW020 24/16 Q1012=
201107301815 METAR LIRA 301815Z 27004KT 9999 SCT020 25/15 Q1012=
201107301745 METAR LIRA 301745Z 26005KT 260V300 9999 SCT020 25/15 Q1012=
201107301715 METAR LIRA 301715Z 26006KT 9999 SCT020 FEW023CB 25/16 Q1012=
201107301645 METAR LIRA 301645Z 26006KT 230V300 9999 SCT020 FEW023CB 26/16
                        Q1012=
201107301615 METAR LIRA 301615Z 28007KT 250V310 9999 SCT020 FEW023CB 26/18
                        Q1012=
201107301545 METAR LIRA 301545Z 22007KT 180V270 9999 SCT020 FEW023CB 26/19
                        Q1013=
201107301515 METAR LIRA 301515Z 23007KT 200V270 9999 SCT020 FEW023TCU
                        27/20 Q1013=
201107301445 METAR LIRA 301445Z 18004KT 9999 SCT020 FEW023TCU 26/19 Q1013=
201107301415 METAR LIRA 301415Z 13009KT 9999 SCT020 FEW022CB FEW023TCU
                        25/17 Q1013=
201107301345 METAR LIRA 301345Z 20008KT 170V240 9999 SCT020 FEW022CB FEW023TCU
                        27/21 Q1013 RETS=
201107301315 METAR LIRA 301315Z 30004KT 270V340 9999 SCT020 FEW022CB FEW023TCU
                        26/21 Q1013 RETS=
201107301245 METAR LIRA 301245Z 21008KT 170V270 9999 TS BKN020 FEW023CB
                        27/21 Q1013=
201107301215 METAR LIRA 301215Z 21008KT 170V250 9999 BKN022 FEW023TCU
                        27/21 Q1013=
201107301145 METAR LIRA 301145Z 22007KT 170V270 9999 SCT022 FEW023TCU
                        28/19 Q1013=
201107301115 METAR LIRA 301115Z 22005KT 190V270 9999 SCT022 28/18 Q1013=
201107301045 METAR LIRA 301045Z 27003KT 9999 SCT022 27/14 Q1013=
201107301015 METAR LIRA 301015Z 01002KT 9999 FEW022 27/14 Q1013=
201107300945 METAR LIRA 300945Z 27004KT 9999 FEW022 27/16 Q1013=
201107300915 METAR LIRA 300915Z 03002KT 9999 FEW022 26/18 Q1013=
201107300845 METAR LIRA 300845Z 03002KT 9999 FEW022 26/18 Q1014=
201107300815 METAR LIRA 300815Z 34002KT 9999 FEW022 24/18 Q1014=
201107300745 METAR LIRA 300745Z 24001KT CAVOK 23/18 Q1013=
201107300715 METAR LIRA 300715Z 36002KT CAVOK 22/18 Q1013=
201107300645 METAR LIRA 300645Z 34003KT CAVOK 21/17 Q1013=
201107300615 METAR LIRA 300615Z 34002KT CAVOK 20/18 Q1013=
201107300545 METAR LIRA 300545Z 33001KT CAVOK 19/18 Q1013=
201107300515 METAR LIRA 300515Z 33001KT CAVOK 18/17 Q1013=
201107300445 METAR LIRA 300445Z 00000KT CAVOK 18/17 Q1012=
201107300415 METAR LIRA 300415Z 31001KT CAVOK 18/17 Q1012=
201107300345 METAR LIRA 300345Z 12002KT CAVOK 18/17 Q1012=
201107300315 METAR LIRA 300315Z 03001KT CAVOK 18/17 Q1012=
201107300245 METAR LIRA 300245Z 03002KT CAVOK 18/16 Q1012=
201107300215 METAR LIRA 300215Z 12001KT 9999 FEW010 19/16 Q1012=
201107300145 METAR LIRA 300145Z 00000KT 9999 FEW010 19/17 Q1013=
201107300115 METAR LIRA 300115Z 11002KT 9999 FEW010 19/17 Q1013=
201107300045 METAR LIRA 300045Z 11002KT 9999 FEW010 19/18 Q1013=
201107300015 METAR LIRA 300015Z 17002KT CAVOK 20/19 Q1013=
201107292350 METAR LIRA 300045Z 11002KT 9999 FEW010 19/18 Q1013=
201107292345 METAR LIRA 292345Z 18003KT CAVOK 21/19 Q1013=
201107292315 METAR LIRA 292315Z 15003KT CAVOK 20/18 Q1013=
201107292245 METAR LIRA 292245Z 15003KT CAVOK 21/19 Q1013=
201107292215 METAR LIRA 292215Z 16002KT CAVOK 21/19 Q1012=
201107292145 METAR LIRA 292145Z 16003KT CAVOK 21/20 Q1012=
201107292115 METAR LIRA 292115Z 17004KT CAVOK 22/20 Q1012=
201107292015 METAR LIRA 292015Z 18004KT CAVOK 22/20 Q1012=
201107291915 METAR LIRA 291915Z 22003KT 9999 FEW030 23/21 Q1012=
201107291845 METAR LIRA 291845Z 25004KT 9999 FEW018 23/21 Q1012=
201107291815 METAR LIRA 291815Z 25005KT 220V290 9999 FEW018 24/20 Q1012=
201107291745 METAR LIRA 291745Z 26005KT 230V310 9999 FEW017 FEW022TCU
                        25/20 Q1012=
201107291715 METAR LIRA 291715Z 28009KT 240V320 9999 FEW017 FEW022CB 25/19
                        Q1012=
201107291645 METAR LIRA 291645Z 28010KT 200V310 9999 FEW017 FEW020CB 25/18
                        Q1012=
201107291615 METAR LIRA 291615Z 25010G21KT 210V290 9999 FEW017 FEW018CB
                        26/18 Q1011=
201107291545 METAR LIRA 291545Z 27012KT 200V310 9999 FEW020 FEW022TCU
                        27/17 Q1012=
201107291515 METAR LIRA 291515Z 27008KT 230V300 9999 FEW020 FEW022TCU
                        27/17 Q1012=
201107291445 METAR LIRA 291445Z 28012KT 230V290 9999 FEW020 FEW022TCU
                        28/17 Q1012=
201107291415 METAR LIRA 291415Z 27011KT 220V300 9999 SCT020 28/18 Q1012=
201107291345 METAR LIRA 291345Z 26010KT 220V300 9999 SCT020 FEW022TCU
                        28/17 Q1012=
201107291315 METAR LIRA 291315Z 28010KT 230V320 9999 SCT020 FEW022TCU
                        28/18 Q1012=
201107291245 METAR LIRA 291245Z 28010KT 9999 SCT023 FEW024TCU 27/17 Q1012=
201107291215 METAR LIRA 291215Z 28008KT 220V330 9999 SCT023 27/17 Q1012=
201107291145 METAR LIRA 291145Z 29007KT 250V320 9999 SCT023 27/15 Q1012=
201107291115 METAR LIRA 291115Z 36005KT 9999 BKN023 27/15 Q1013=
201107291045 METAR LIRA 291045Z 33006KT 300V020 9999 BKN023 27/17 Q1013=
201107291015 METAR LIRA 291015Z 33005KT 300V030 9999 BKN023 26/17 Q1013=
201107290945 METAR LIRA 290945Z 33006KT 300V010 9999 SCT023 26/18 Q1013=
201107290915 METAR LIRA 290915Z 32006KT 270V350 9999 SCT023 25/18 Q1013=
201107290845 METAR LIRA 290845Z 36004KT 9999 SCT023 24/19 Q1012=
201107290815 METAR LIRA 290815Z 35005KT 290V360 9999 SCT023 23/19 Q1012=
201107290745 METAR LIRA 290745Z 35006KT 9999 FEW020 22/19 Q1012=
201107290715 METAR LIRA 290715Z 02003KT 9999 SCT020 SCT070 21/18 Q1012=
201107290645 METAR LIRA 290645Z 02003KT 9999 SCT020 SCT070 21/19 Q1012=
201107290615 METAR LIRA 290615Z 02003KT 9999 FEW020 20/18 Q1012=
201107290545 METAR LIRA 290545Z 02002KT 9999 FEW020 20/18 Q1012=
201107290515 METAR LIRA 290515Z 02002KT 9999 FEW020 19/18 Q1012=
201107290445 METAR LIRA 290445Z 05001KT 9999 FEW020 19/17 Q1012=
201107290415 METAR LIRA 290415Z 09001KT 9999 FEW020 18/17 Q1012=
201107290345 METAR LIRA 290345Z 00000KT 9999 SCT020 18/17 Q1013=
201107290315 METAR LIRA 290315Z 24001KT 9999 SCT017 FEW020TCU 19/17 Q1013=
201107290245 METAR LIRA 290245Z 19002KT 9999 FEW017 FEW020TCU 19/17 Q1013=
201107290215 METAR LIRA 290215Z 18003KT 9999 FEW017 FEW020TCU 19/17 Q1013=
201107290145 METAR LIRA 290145Z 15002KT 9999 FEW070 19/17 Q1013=
201107290115 METAR LIRA 290115Z 16002KT 9999 FEW070 19/18 Q1013=
201107290045 METAR LIRA 290045Z 18004KT 9999 FEW070 19/18 Q1013=
201107290015 METAR LIRA 290015Z 17002KT 9999 FEW020 19/18 Q1013=
201107282350 METAR LIRA 290045Z 18004KT 9999 FEW070 19/18 Q1013=
201107282345 METAR LIRA 282345Z 18003KT 9999 FEW020 20/19 Q1013=
201107282315 METAR LIRA 282315Z 20003KT 9999 FEW070 20/18 Q1014=
201107282245 METAR LIRA 282245Z 20002KT 9999 FEW070 20/18 Q1014=
201107282215 METAR LIRA 282215Z 23002KT 9999 FEW018 20/19 Q1014=
201107282145 METAR LIRA 282145Z 23002KT 9999 SCT018 20/19 Q1014=
201107282115 METAR LIRA 282115Z 22002KT 9999 SCT015 SCT060 20/19 Q1014=
201107282045 METAR LIRA 282045Z 24003KT 9999 FEW020 21/19 Q1014=
201107282015 METAR LIRA 282015Z 20002KT 9999 FEW030 21/19 Q1013=
201107281945 METAR LIRA 281945Z 21003KT 9999 FEW020 22/19 Q1013=
201107281915 METAR LIRA 281915Z 22002KT 9999 FEW018 FEW020TCU 22/19 Q1013=
201107281845 METAR LIRA 281845Z 25004KT 220V280 9999 FEW018 FEW020TCU
                        22/19 Q1013=
201107281815 METAR LIRA 281815Z 28005KT 220V290 9999 FEW017 FEW020CB 23/19
                        Q1013=
201107281745 METAR LIRA 281745Z 27006KT 220V310 9999 FEW017 FEW020CB 23/18
                        Q1013=
201107281715 METAR LIRA 281715Z 26005KT 220V310 9999 FEW017 FEW020TCU
                        24/18 Q1013=
201107281645 METAR LIRA 281645Z 27008KT 230V310 9999 FEW017 FEW020TCU
                        25/18 Q1013=
201107281615 METAR LIRA 281615Z 25007KT 210V280 9999 FEW017 FEW020TCU
                        25/18 Q1013=
201107281545 METAR LIRA 281545Z 25008KT 220V300 9999 FEW017 26/17 Q1013=
201107281515 METAR LIRA 281515Z 28009KT 240V310 9999 FEW017 26/18 Q1013=
201107281445 METAR LIRA 281445Z 27009KT 230V320 9999 FEW017 FEW018TCU
                        26/18 Q1013=
201107281415 METAR LIRA 281415Z 28008KT 260V320 9999 FEW017 FEW018TCU
                        26/18 Q1013=
201107281345 METAR LIRA 281345Z 28009KT 220V340 9999 SCT017 27/18 Q1013=
201107281315 METAR LIRA 281315Z 27006KT 210V310 9999 SCT017 27/18 Q1013=
201107281245 METAR LIRA 281245Z 28008KT 250V340 9999 SCT017 27/18 Q1014=
201107281215 METAR LIRA 281215Z 27006KT 220V010 9999 SCT017 27/18 Q1014=
201107281145 METAR LIRA 281145Z 24005KT 210V280 9999 SCT017 27/18 Q1014=
201107281115 METAR LIRA 281115Z 27006KT 190V320 9999 SCT017 27/18 Q1014=
201107281045 METAR LIRA 281045Z 24005KT 210V310 9999 SCT017 27/17 Q1014=
201107281015 METAR LIRA 281015Z 26004KT 210V300 9999 SCT017 26/18 Q1014=
201107280945 METAR LIRA 280945Z 03002KT 9999 SCT017 25/18 Q1014=
201107280915 METAR LIRA 280915Z 12003KT 9999 SCT016 25/19 Q1014=
201107280845 METAR LIRA 280845Z 23003KT 9999 SCT016 24/20 Q1014=
201107280815 METAR LIRA 280815Z 00000KT 9999 SCT016 23/20 Q1015=
201107280745 METAR LIRA 280745Z 28002KT 9999 SCT016 23/20 Q1015=
201107280715 METAR LIRA 280715Z 26002KT 9000 SCT016 22/20 Q1015=
201107280645 METAR LIRA 280645Z 32002KT 9000 FEW015TCU SCT016 21/20 Q1015=
201107280615 METAR LIRA 280615Z 31003KT 8000 FEW011 FEW015TCU SCT016 20/20
                        Q1015=
201107280545 METAR LIRA 280545Z 30001KT 8000 FEW013 FEW015TCU SCT016 20/20
                        Q1014=
201107280515 METAR LIRA 280515Z 27001KT 7000 FEW015CB SCT016 20/19 Q1014=
201107280445 METAR LIRA 280445Z 00000KT 7000 FEW008 SCT013 SCT015CB 20/19
                        Q1014=
201107280415 METAR LIRA 280415Z 00000KT 4000 BR FEW008 SCT015CB 20/19
                        Q1014=
201107280345 METAR LIRA 280345Z 00000KT 6000 FEW017 SCT020 20/19 Q1014=
201107280315 METAR LIRA 280315Z 00000KT 8000 FEW018 FEW020TCU SCT025 20/19
                        Q1014=
201107280245 METAR LIRA 280245Z 25001KT 9999 FEW018 SCT025 20/19 Q1014=
201107280215 METAR LIRA 280215Z 29003KT 9999 SCT018 SCT070 20/19 Q1014=
201107280145 METAR LIRA 280145Z 18003KT 9999 SCT018 SCT070 20/19 Q1014=
201107280115 METAR LIRA 280115Z 19003KT 9999 SCT018 SCT070 20/19 Q1014=
201107280045 METAR LIRA 280045Z 16004KT 9999 FEW018 20/19 Q1014=
201107280015 METAR LIRA 280015Z 16002KT 9999 FEW015 FEW020CB SCT025 20/18
                        Q1014=
201107272350 METAR LIRA 280045Z 16004KT 9999 FEW018 20/19 Q1014=
201107272345 METAR LIRA 272345Z 15004KT 9999 FEW015 FEW020CB SCT025 19/18
                        Q1014 RETS=
201107272315 METAR LIRA 272315Z 15004KT 9999 FEW005 FEW020CB SCT025 19/18
                        Q1014 RETS=
201107272245 METAR LIRA 272245Z 14004KT 9999 TS FEW005 SCT015 FEW020CB
                        19/18 Q1014=
201107272215 METAR LIRA 272215Z 14003KT 9999 TS FEW015 FEW020CB SCT025
                        19/18 Q1014=
201107272145 METAR LIRA 272145Z 10002KT 9999 TS FEW005 SCT013 FEW020CB
                        19/18 Q1014=
201107272115 METAR LIRA 272115Z 11002KT 9000 TSRA SCT013 SCT018CB BKN020
                        19/18 Q1014=
201107272045 METAR LIRA 272045Z 15007KT 6000 TSRA SCT013 SCT018CB 19/17
                        Q1014=
201107272015 METAR LIRA 272015Z 16008KT 4000 TSRA BR SCT013 SCT018CB BKN020
                        19/17 Q1014=
201107271945 METAR LIRA 271945Z 15004KT 4000 TSRA BR SCT013 SCT018CB BKN020
                        20/19 Q1014=
201107271915 METAR LIRA 271915Z 17018KT 5000 -TSRA BR SCT013 FEW020CB
                        SCT025 22/20 Q1012=
201107271845 METAR LIRA 271845Z 17019G32KT 5000 -TSRA BR SCT013 FEW020CB
                        SCT025 22/20 Q1012=
201107271815 METAR LIRA 271815Z 15016KT 8000 TS SCT013 FEW020CB SCT025
                        22/20 Q1013=
201107271745 METAR LIRA 271745Z 16017KT 9999 SCT013 FEW020CB SCT025 22/21
                        Q1013=
201107271715 METAR LIRA 271715Z 16016KT 9999 SCT015 FEW020CB SCT025 22/21
                        Q1014=
201107271645 METAR LIRA 271645Z 16014KT 9999 SCT015 FEW020CB SCT025 22/21
                        Q1014=
201107271615 METAR LIRA 271615Z 17011KT 9999 SCT015 FEW020CB SCT025 22/20
                        Q1014=
201107271545 METAR LIRA 271545Z 16017KT 9999 -RA FEW020 SCT025 BKN070
                        24/21 Q1015=
201107271515 METAR LIRA 271515Z 16015KT 9999 -RA FEW020 SCT025 BKN070
                        23/21 Q1015=
201107271445 METAR LIRA 271445Z 15015G29KT 8000 -RA FEW020 SCT025 BKN070
                        24/21 Q1015=
201107271415 METAR LIRA 271415Z 15012G23KT 100V180 9999 FEW020 SCT025
                        BKN070 23/20 Q1015=
201107271345 METAR LIRA 271345Z 16013KT 9999 FEW020 SCT025 BKN070 23/21
                        Q1016=
201107271315 METAR LIRA 271315Z 15012KT 9999 FEW020 SCT025 BKN070 23/21
                        Q1016=
201107271245 METAR LIRA 271245Z 16012KT 9999 FEW020 SCT025 BKN070 23/21
                        Q1016=
201107271215 METAR LIRA 271215Z 15013KT 7000 -RA FEW020 FEW023CB SCT025
                        BKN070 21/21 Q1016=
201107271145 METAR LIRA 271145Z 17012G22KT 7000 -RA FEW020 FEW023CB SCT025
                        BKN070 22/21 Q1016=
201107271115 METAR LIRA 271115Z 16015KT 9999 -RA FEW020 FEW023CB SCT025
                        BKN070 24/21 Q1016=
201107271045 METAR LIRA 271045Z 14012KT 9999 -RA FEW020 SCT025 BKN070
                        24/21 Q1016=
201107271015 METAR LIRA 271015Z 16011KT 9999 -RA FEW020 SCT025 BKN070
                        23/20 Q1017=
201107270945 METAR LIRA 270945Z 15012KT 120V180 9999 -RA FEW025 SCT030
                        BKN070 26/19 Q1017=
201107270915 METAR LIRA 270915Z 14011KT 9999 FEW020 SCT025 BKN070 25/18
                        Q1017=
201107270845 METAR LIRA 270845Z 13012KT 9999 FEW020 SCT025 BKN070 24/18
                        Q1017=
201107270815 METAR LIRA 270815Z 14011KT 9999 FEW020 SCT025 BKN070 24/18
                        Q1017=
201107270745 METAR LIRA 270745Z 14011KT 9999 FEW020 BKN070 24/18 Q1017=
201107270715 METAR LIRA 270715Z 15013KT 9999 FEW020 BKN070 24/18 Q1017=
201107270645 METAR LIRA 270645Z 15008KT 130V190 9999 FEW020 BKN070 24/18
                        Q1016=
201107270615 METAR LIRA 270615Z 13008KT 100V170 9999 FEW020 BKN070 24/18
                        Q1016=
201107270545 METAR LIRA 270545Z 13006KT 9999 FEW020 BKN070 23/19 Q1016=
201107270515 METAR LIRA 270515Z 13007KT 9999 FEW020 BKN070 22/19 Q1016=
201107270445 METAR LIRA 270445Z 13007KT 9999 FEW020 BKN070 22/19 Q1016=
201107270415 METAR LIRA 270415Z 14009KT 9999 FEW020 BKN070 22/18 Q1016=
201107270345 METAR LIRA 270345Z 14010KT 9999 FEW020 BKN070 21/17 Q1016=
201107270315 METAR LIRA 270315Z 15007KT 9999 FEW020 BKN070 22/18 Q1015=
201107270245 METAR LIRA 270245Z 14005KT 9999 FEW030 BKN070 22/18 Q1015=
201107270215 METAR LIRA 270215Z 14006KT 9999 FEW030 BKN070 22/18 Q1015=
201107270145 METAR LIRA 270145Z 13003KT 9999 BKN040 22/18 Q1015=
201107270115 METAR LIRA 270115Z 13003KT 9999 BKN040 21/18 Q1015=
201107270045 METAR LIRA 270045Z 10003KT 9999 BKN040 21/17 Q1015=
201107270015 METAR LIRA 270015Z 10003KT 9999 SCT040 21/18 Q1015=
201107262350 METAR LIRA 270045Z 10003KT 9999 BKN040 21/17 Q1015=
201107262345 METAR LIRA 262345Z 11004KT CAVOK 20/18 Q1015=
201107262315 METAR LIRA 262315Z 10004KT CAVOK 20/18 Q1015=
201107262245 METAR LIRA 262245Z 10004KT CAVOK 20/17 Q1015=
201107262215 METAR LIRA 262215Z 10004KT CAVOK 20/18 Q1015=
201107262145 METAR LIRA 262145Z 13005KT 9999 FEW020 20/18 Q1015=
201107262115 METAR LIRA 262115Z 13005KT 9999 FEW020 21/18 Q1015=
201107262045 METAR LIRA 262045Z 18005KT 9999 FEW020 21/19 Q1015=
201107262015 METAR LIRA 262015Z 18004KT 9999 FEW020 22/19 Q1015=
201107261945 METAR LIRA 261945Z 19005KT 9999 FEW018 22/19 Q1015=
201107261915 METAR LIRA 261915Z 19006KT 9999 FEW018 22/18 Q1014=
201107261845 METAR LIRA 261845Z 20006KT 9999 SCT020 23/19 Q1014=
201107261815 METAR LIRA 261815Z 21007KT 180V240 9999 FEW017 SCT020 23/19
                        Q1014=
201107261745 METAR LIRA 261745Z 19009KT 9999 FEW017 SCT020 24/18 Q1014=
201107261715 METAR LIRA 261715Z 22007KT 190V260 9999 FEW017 SCT020 24/18
                        Q1014=
201107261645 METAR LIRA 261645Z 22009KT 180V240 9999 FEW017 SCT020 24/18
                        Q1014=
201107261615 METAR LIRA 261615Z 21009KT 170V240 9999 FEW017 SCT020 24/18
                        Q1014=
201107261545 METAR LIRA 261545Z 21010KT 9999 SCT017 FEW020CB 24/17 Q1014=
201107261515 METAR LIRA 261515Z 21010KT 150V250 9999 SCT017 FEW020CB 25/16
                        Q1013=
201107261445 METAR LIRA 261445Z 22010KT 180V260 9999 SCT017 FEW020CB 25/16
                        Q1013=
201107261415 METAR LIRA 261415Z 21010KT 170V250 9999 SCT017 FEW022TCU
                        25/15 Q1013=
201107261345 METAR LIRA 261345Z 21011KT 180V250 9999 SCT017 26/16 Q1013=
201107261315 METAR LIRA 261315Z 20012KT 9999 SCT017 FEW022TCU 25/15 Q1013=
201107261245 METAR LIRA 261245Z 22009KT 180V260 9999 SCT017 FEW022TCU
                        25/16 Q1013=
201107261215 METAR LIRA 261215Z 23010KT 9999 SCT017 FEW022TCU 25/15 Q1012=
201107261145 METAR LIRA 261145Z 22010KT 170V270 9999 SCT017 FEW022TCU
                        25/15 Q1012=
201107261115 METAR LIRA 261115Z 24008KT 180V310 9999 SCT017 FEW022TCU
                        25/14 Q1012=
201107261045 METAR LIRA 261045Z 19008KT 130V240 9999 SCT017 25/12 Q1012=
201107261015 METAR LIRA 261015Z 22006KT 180V270 9999 SCT017 26/13 Q1012=
201107260945 METAR LIRA 260945Z 19007KT 140V240 9999 SCT017 25/12 Q1012=
201107260915 METAR LIRA 260915Z 22005KT 190V290 9999 SCT017 25/15 Q1012=
201107260845 METAR LIRA 260845Z 19006KT 130V240 9999 SCT017 24/15 Q1012=
201107260815 METAR LIRA 260815Z 20003KT 9999 SCT017 23/16 Q1012=
201107260745 METAR LIRA 260745Z 20002KT 9999 SCT017 23/17 Q1012=
201107260715 METAR LIRA 260715Z 24003KT 9999 SCT017 22/18 Q1010=
201107260645 METAR LIRA 260645Z 22003KT 9999 SCT017 22/18 Q1011=
201107260615 METAR LIRA 260615Z 06002KT 9999 FEW018 22/20 Q1011=
201107260545 METAR LIRA 260545Z 13001KT 9999 FEW018 20/18 Q1010=
201107260515 METAR LIRA 260515Z 10001KT 9999 FEW018 20/18 Q1010=
201107260445 METAR LIRA 260445Z 15001KT 9999 FEW018 18/17 Q1010=
201107260415 METAR LIRA 260415Z 11002KT 9999 FEW018 18/17 Q1010=
201107260345 METAR LIRA 260345Z 13001KT 9999 FEW015 18/17 Q1010=
201107260315 METAR LIRA 260315Z 16002KT 9999 FEW015 18/17 Q1010=
201107260245 METAR LIRA 260245Z 16001KT 9999 FEW015 20/18 Q1010=
201107260215 METAR LIRA 260215Z 16003KT 9999 FEW070 20/18 Q1010=
201107260145 METAR LIRA 260145Z 19003KT 9999 FEW070 19/17 Q1010=
201107260115 METAR LIRA 260115Z 19004KT 9999 FEW070 19/16 Q1010=
201107260045 METAR LIRA 260045Z 18003KT 9999 FEW070 19/15 Q1010=
201107260015 METAR LIRA 260015Z 23001KT 9999 FEW025 19/15 Q1009=
201107252350 METAR LIRA 260045Z 18003KT 9999 FEW070 19/15 Q1010=
201107252345 METAR LIRA 252345Z 24003KT 9999 FEW023 19/15 Q1009=
201107252315 METAR LIRA 252315Z 24002KT 9999 FEW023 SCT030 20/14 Q1009=
201107252245 METAR LIRA 252245Z 32001KT 9999 FEW023 SCT030 BKN070 21/14
                        Q1009=
201107252215 METAR LIRA 252215Z 23001KT 9999 FEW023 SCT030 BKN070 21/15
                        Q1009=
201107252145 METAR LIRA 252145Z 24001KT 9999 FEW023 SCT030 BKN070 21/14
                        Q1009=
201107252115 METAR LIRA 252115Z 34001KT 9999 FEW023 SCT030 BKN070 21/14
                        Q1009=
201107252045 METAR LIRA 252045Z 25002KT 9999 FEW023 SCT030 BKN070 21/15
                        Q1009=
201107252015 METAR LIRA 252015Z 30003KT 9999 FEW023 SCT030 BKN070 22/15
                        Q1008=
201107251945 METAR LIRA 251945Z 29002KT 9999 FEW023 SCT030 BKN070 22/15
                        Q1008=
201107251915 METAR LIRA 251915Z 32004KT 9999 FEW023 SCT030 BKN070 22/14
                        Q1008=
201107251845 METAR LIRA 251845Z 29005KT 9999 FEW023 SCT030 BKN070 23/14
                        Q1008=
201107251815 METAR LIRA 251815Z 30004KT 9999 FEW023 SCT030 BKN070 23/14
                        Q1007=
201107251745 METAR LIRA 251745Z 31005KT 9999 FEW023 SCT030 BKN070 23/14
                        Q1007=
201107251715 METAR LIRA 251715Z 31008KT 9999 FEW023 SCT030 BKN070 23/14
                        Q1007=
201107251645 METAR LIRA 251645Z 30016KT 270V330 9999 FEW023 SCT030 BKN070
                        24/13 Q1007=
201107251615 METAR LIRA 251615Z 28011KT 240V330 9999 FEW023 SCT070 25/13
                        Q1007=
201107251545 METAR LIRA 251545Z 27011KT 240V310 9999 FEW023 25/13 Q1007=
201107251515 METAR LIRA 251515Z 27010KT 240V310 9999 FEW023 26/13 Q1007=
201107251445 METAR LIRA 251445Z 27010KT 220V320 9999 FEW023 26/13 Q1006=
201107251415 METAR LIRA 251415Z 28010KT 230V310 9999 FEW023 SCT030 25/13
                        Q1006=
201107251345 METAR LIRA 251345Z 27010KT 230V310 9999 FEW023 SCT030 25/12
                        Q1006=
201107251315 METAR LIRA 251315Z 27011KT 220V310 9999 SCT023 26/12 Q1006=
201107251245 METAR LIRA 251245Z 27010KT 220V310 9999 SCT023 26/11 Q1006=
201107251215 METAR LIRA 251215Z 27009G19KT 240V320 9999 BKN023 25/10 Q1006=
201107251145 METAR LIRA 251145Z 33006KT 300V030 9999 BKN018 25/09 Q1007=
201107251115 METAR LIRA 251115Z 33007KT 270V010 9999 BKN018 25/10 Q1007=
201107251045 METAR LIRA 251045Z 33007KT 280V020 9999 FEW018 25/10 Q1007=
201107251015 METAR LIRA 251015Z 29008KT 240V330 9999 FEW018 24/10 Q1007=
201107250945 METAR LIRA 250945Z 30008KT 250V350 9999 FEW018 24/10 Q1007=
201107250915 METAR LIRA 250915Z 35006KT 300V060 9999 FEW018 24/11 Q1007=
201107250845 METAR LIRA 250845Z 34004KT 9999 FEW018 23/12 Q1007=
201107250815 METAR LIRA 250815Z 34005KT 290V010 9999 FEW018 22/13 Q1006=
201107250745 METAR LIRA 250745Z 34005KT 300V010 9999 FEW018 22/15 Q1006=
201107250715 METAR LIRA 250715Z 36004KT 9999 FEW018 21/15 Q1006=
201107250645 METAR LIRA 250645Z 01004KT 9999 FEW030 20/16 Q1006=
201107250615 METAR LIRA 250615Z 03002KT 9999 FEW030 19/16 Q1006=
201107250545 METAR LIRA 250545Z 02004KT 9999 FEW030 18/16 Q1006=
201107250515 METAR LIRA 250515Z 03004KT 9999 FEW030 17/15 Q1006=
201107250445 METAR LIRA 250445Z 03003KT 9999 FEW030 16/15 Q1005=
201107250415 METAR LIRA 250415Z 02002KT 9999 FEW025 16/15 Q1005=
201107250345 METAR LIRA 250345Z 03002KT 9999 FEW025 16/15 Q1005=
201107250315 METAR LIRA 250315Z 01002KT 9999 FEW070 17/15 Q1005=
201107250245 METAR LIRA 250245Z 35004KT 9999 FEW070 17/15 Q1005=
201107250215 METAR LIRA 250215Z 01002KT 9999 FEW025 18/15 Q1005=
201107250145 METAR LIRA 250145Z 05001KT 9999 FEW020 18/15 Q1006=
201107250115 METAR LIRA 250115Z 36003KT 9999 FEW020 18/16 Q1006=
201107250045 METAR LIRA 250045Z 01001KT 9999 FEW020 19/18 Q1006=
201107250015 METAR LIRA 250015Z 24002KT 9999 FEW020 SCT070 19/19 Q1006=
201107242350 METAR LIRA 250045Z 01001KT 9999 FEW020 19/18 Q1006=
201107242345 METAR LIRA 242345Z 21002KT 9999 FEW020 SCT070 19/19 Q1006=
201107242315 METAR LIRA 242315Z 19004KT 9999 FEW020 SCT070 19/19 Q1006=
201107242245 METAR LIRA 242245Z 19003KT 9999 FEW020 SCT070 20/19 Q1006=
201107242215 METAR LIRA 242215Z 18004KT 9999 FEW020 SCT035 20/19 Q1006=
201107242145 METAR LIRA 242145Z 19005KT 9999 FEW020 SCT035 20/19 Q1006=
201107242115 METAR LIRA 242115Z 19005KT 9999 FEW020 20/19 Q1006=
201107242045 METAR LIRA 242045Z 17006KT 9999 FEW020 20/18 Q1006=
201107242015 METAR LIRA 242015Z 19004KT 9999 FEW020 20/18 Q1005=
201107241945 METAR LIRA 241945Z 19005KT 9999 FEW020 20/18 Q1005=
201107241915 METAR LIRA 241915Z 21005KT 9999 FEW018 21/16 Q1005=
201107241845 METAR LIRA 241845Z 26004KT 240V310 9999 FEW018 22/17 Q1005=
201107241815 METAR LIRA 241815Z 27005KT 240V300 9999 FEW018 23/17 Q1004=
201107241745 METAR LIRA 241745Z 26006KT 210V290 9999 FEW018 23/16 Q1004=
201107241715 METAR LIRA 241715Z 25006KT 220V300 9999 FEW018 23/16 Q1004=
201107241645 METAR LIRA 241645Z 26007KT 200V310 9999 FEW018 24/16 Q1004=
201107241615 METAR LIRA 241615Z 25008KT 200V290 9999 FEW018 24/16 Q1004=
201107241545 METAR LIRA 241545Z 26009KT 220V300 9999 SCT025 24/16 Q1004=
201107241515 METAR LIRA 241515Z 25010KT 220V290 9999 SCT025 24/15 Q1004=
201107241445 METAR LIRA 241445Z 25010KT 210V290 9999 SCT025 25/15 Q1004=
201107241415 METAR LIRA 241415Z 25011KT 210V280 9999 SCT025 25/15 Q1004=
201107241345 METAR LIRA 241345Z 21010KT 170V250 9999 SCT025 26/14 Q1004=
201107241315 METAR LIRA 241315Z 20011KT 150V230 9999 FEW025 25/14 Q1004=
201107241245 METAR LIRA 241245Z 20010KT 170V250 9999 FEW025 25/13 Q1005=
201107241215 METAR LIRA 241215Z 20009KT 180V260 9999 SCT025 25/13 Q1005=
201107241145 METAR LIRA 241145Z 22009KT 180V260 9999 SCT025 25/14 Q1005=
201107241115 METAR LIRA 241115Z 23007KT 200V260 9999 SCT025 26/15 Q1005=
201107241045 METAR LIRA 241045Z 22010KT 190V270 9999 BKN025 26/14 Q1005=
201107241015 METAR LIRA 241015Z 22010KT 160V250 9999 BKN025 25/15 Q1005=
201107240945 METAR LIRA 240945Z 20009KT 160V250 9999 BKN025 25/15 Q1005=
201107240915 METAR LIRA 240915Z 20009KT 160V230 9999 BKN020 25/17 Q1005=
201107240845 METAR LIRA 240845Z 19007KT 9999 BKN020 25/17 Q1005=
201107240815 METAR LIRA 240815Z 18008KT 130V240 9999 BKN020 24/18 Q1005=
201107240745 METAR LIRA 240745Z 17007G18KT 150V250 9999 SCT018 24/18 Q1005=
201107240715 METAR LIRA 240715Z 18006KT 150V220 9999 SCT018 23/19 Q1005=
201107240700 METAR LIRA INT CB SW NE-E=
201107240645 METAR LIRA 240645Z 18007KT 9999 SCT017 22/19 Q1005=
201107240615 METAR LIRA 240615Z 17006KT 9999 BKN017 21/19 Q1005=
201107240545 METAR LIRA 240545Z 16007KT 9999 BKN017 21/19 Q1005=
201107240515 METAR LIRA 240515Z 18005KT 150V220 9999 BKN015 20/18 Q1005=
201107240445 METAR LIRA 240445Z 19007KT 9999 BKN015 20/18 Q1005=
201107240415 METAR LIRA 240415Z 18010KT 9999 SCT015 FEW018TCU 20/18 Q1005=
201107240345 METAR LIRA 240345Z 16009KT 9999 SCT015 FEW018TCU 20/18 Q1005=
201107240315 METAR LIRA 240315Z 14009KT 9999 SCT015 20/18 Q1006=
201107240245 METAR LIRA 240245Z 15008KT 9999 SCT015 19/18 Q1006=
201107240215 METAR LIRA 240215Z 15006KT 9999 FEW012 19/18 Q1006=
201107240145 METAR LIRA 240145Z 16009KT 9999 FEW012 19/18 Q1007=
201107240115 METAR LIRA 240115Z 16007KT 9999 FEW012 20/18 Q1007=
201107240045 METAR LIRA 240045Z 16006KT 9999 FEW012 20/18 Q1007=
201107240015 METAR LIRA 240015Z 16005KT 9999 FEW015 20/19 Q1007=
201107232350 METAR LIRA 240045Z 16006KT 9999 FEW012 20/18 Q1007=
201107232345 METAR LIRA 232345Z 17006KT 9999 FEW018 SCT030 20/18 Q1008=
201107232315 METAR LIRA 232315Z 17006KT 9999 FEW018 SCT030 20/18 Q1008=
201107232245 METAR LIRA 232245Z 18006KT 9999 FEW018 SCT030 20/18 Q1008=
201107232215 METAR LIRA 232215Z 17005KT 9999 SCT018 SCT070 20/17 Q1008=
201107232145 METAR LIRA 232145Z 19005KT 9999 FEW018 SCT030 BKN070 20/17
                        Q1008=
201107232115 METAR LIRA 232115Z 18005KT 9999 FEW018 SCT030 BKN070 20/17
                        Q1008=
201107232045 METAR LIRA 232045Z 17006KT 9999 FEW018 SCT070 20/17 Q1008=
201107232015 METAR LIRA 232015Z 18006KT 9999 FEW018 SCT070 20/18 Q1008=
201107231945 METAR LIRA 231945Z 18006KT 160V220 9999 FEW018 SCT070 20/17
                        Q1008=
201107231915 METAR LIRA 231915Z 20004KT 9999 FEW018 21/17 Q1008=
201107231845 METAR LIRA 231845Z 23005KT 9999 FEW018 21/17 Q1008=
201107231815 METAR LIRA 231815Z 25005KT 200V260 9999 FEW018 22/17 Q1008=
201107231745 METAR LIRA 231745Z 22007KT 9999 FEW018 23/16 Q1008=
201107231715 METAR LIRA 231715Z 23007KT 210V270 9999 FEW018 24/16 Q1008=
201107231645 METAR LIRA 231645Z 25009KT 200V270 9999 FEW018 24/16 Q1008=
201107231615 METAR LIRA 231615Z 25011KT 220V320 9999 SCT018 25/16 Q1008=
201107231545 METAR LIRA 231545Z 23008KT 200V290 9999 SCT018 25/17 Q1008=
201107231515 METAR LIRA 231515Z 23007KT 180V290 9999 SCT018 25/18 Q1008=
201107231445 METAR LIRA 231445Z 21009KT 170V270 9999 SCT018 25/18 Q1008=
201107231415 METAR LIRA 231415Z 21009KT 170V260 9999 SCT018 25/18 Q1008=
201107231345 METAR LIRA 231345Z 21008KT 160V260 9999 SCT018 26/19 Q1009=
201107231315 METAR LIRA 231315Z 19008KT 170V230 9999 SCT017 SCT070 25/18
                        Q1009=
201107231245 METAR LIRA 231245Z 23009KT 190V260 9999 SCT017 SCT070 24/17
                        Q1009=
201107231215 METAR LIRA 231215Z 23010KT 190V250 9999 FEW020 SCT070 25/17
                        Q1008=
201107231145 METAR LIRA 231145Z 22011KT 180V260 9999 FEW020 SCT070 25/18
                        Q1008=
201107231115 METAR LIRA 231115Z 23012G22KT 180V280 9999 FEW017CB SCT070
                        25/21 Q1008=
201107231045 METAR LIRA 231045Z 23011KT 190V300 9999 SCT017 FEW020CB 26/20
                        Q1008=
201107231015 METAR LIRA 231015Z 19010KT 150V230 9999 FEW020 SCT070 26/19
                        Q1008=
201107230945 METAR LIRA 230945Z 15012KT 9999 FEW016 FEW020CB SCT060 25/21
                        Q1008=
201107230915 METAR LIRA 230915Z 16011KT 9999 -RA FEW015 FEW020CB SCT080
                        23/21 Q1008=
201107230845 METAR LIRA 230845Z 19007KT 9999 -RA FEW020 BKN035 24/19 Q1009=
201107230815 METAR LIRA 230815Z 09003KT 9999 FEW020 SCT035 24/19 Q1009=
201107230745 METAR LIRA 230745Z 12003KT 9999 FEW020 SCT035 24/18 Q1009=
201107230715 METAR LIRA 230715Z 17008KT 9999 FEW025 SCT035 23/19 Q1009=
201107230645 METAR LIRA 230645Z 18006KT 160V220 9999 FEW025 BKN080 23/19
                        Q1009=
201107230615 METAR LIRA 230615Z 17007KT 9999 -RA FEW016 BKN080 22/20 Q1009=
201107230545 METAR LIRA 230545Z 15003KT 9999 -RA FEW016 SCT035 22/19 Q1009=
201107230515 METAR LIRA 230515Z 16010KT 080V200 9999 -RA SCT025 SCT030
                        22/18 Q1008=
201107230445 METAR LIRA 230445Z 20006KT 170V230 9999 -RA FEW025 SCT030
                        22/17 Q1008=
201107230415 METAR LIRA 230415Z 26004KT 9999 -RA FEW025 SCT035 21/18 Q1008=
201107230345 METAR LIRA 230345Z 07004KT 9999 SCT018 SCT025 21/17 Q1008=
201107230315 METAR LIRA 230315Z 18007KT 150V240 9999 FEW020 SCT030 22/18
                        Q1008=
201107230245 METAR LIRA 230245Z 17007KT 140V220 9999 FEW020 SCT030 22/19
                        Q1008=
201107230215 METAR LIRA 230215Z 15009KT 9999 FEW020 SCT030 22/13 Q1008=
201107230145 METAR LIRA 230145Z 08002KT 9999 FEW020 SCT070 20/16 Q1011=
201107230115 METAR LIRA 230115Z 08001KT 9999 FEW020 SCT070 20/15 Q1011=
201107230045 METAR LIRA 230045Z 00000KT 9999 FEW020 SCT070 20/15 Q1011=
201107230015 METAR LIRA 230015Z 08002KT 9999 FEW020 20/15 Q1010=
201107222345 METAR LIRA 222345Z 28001KT 9999 FEW020 21/16 Q1010=
201107222315 METAR LIRA 222315Z 05003KT 9999 FEW020 21/15 Q1011=
201107222245 METAR LIRA 222245Z 15003KT 9999 FEW020 22/16 Q1011=
201107222215 METAR LIRA 222215Z 14004KT 9999 FEW040 22/16 Q1011=
201107222145 METAR LIRA 222145Z 20003KT CAVOK 22/17 Q1011=
201107222115 METAR LIRA 222115Z 12003KT CAVOK 22/16 Q1010=
201107222045 METAR LIRA 222045Z 14003KT CAVOK 22/16 Q1010=
201107222015 METAR LIRA 222015Z 16005KT 9999 FEW080 23/16 Q1010=
201107221945 METAR LIRA 221945Z 16005KT 120V190 9999 FEW080 23/17 Q1010=
201107221915 METAR LIRA 221915Z 20006KT 170V240 9999 FEW080 23/17 Q1010=
201107221845 METAR LIRA 221845Z 20004KT CAVOK 23/16 Q1010=
201107221815 METAR LIRA 221815Z 20005KT CAVOK 24/16 Q1010=
201107221745 METAR LIRA 221745Z 20005KT CAVOK 25/15 Q1010=
201107221715 METAR LIRA 221715Z 21006KT 190V260 CAVOK 25/14 Q1010=
201107221645 METAR LIRA 221645Z 22007KT 180V250 9999 FEW020 25/14 Q1010=
201107221615 METAR LIRA 221615Z 23007KT 170V250 9999 FEW020 26/15 Q1010=
201107221545 METAR LIRA 221545Z 21008KT 170V250 9999 FEW018 26/14 Q1011=
201107221515 METAR LIRA 221515Z 19011KT 150V220 9999 FEW018 26/15 Q1011=
201107221445 METAR LIRA 221445Z 22011KT 180V260 9999 FEW018 26/16 Q1011=
201107221415 METAR LIRA 221415Z 19008KT 170V230 9999 SCT018 26/17 Q1011=
201107221345 METAR LIRA 221345Z 19012KT 160V270 9999 SCT018 26/17 Q1011=
201107221315 METAR LIRA 221315Z 20012KT 160V220 9999 SCT018 26/17 Q1010=
201107221245 METAR LIRA 221245Z 21011KT 170V260 9999 SCT018 26/16 Q1010=
201107221215 METAR LIRA 221215Z 21012KT 170V230 9999 SCT018 26/16 Q1010=
201107221145 METAR LIRA 221145Z 18015KT 160V220 9999 SCT018 27/16 Q1010=
201107221115 METAR LIRA 221115Z 21008KT 170V240 9999 SCT018 27/16 Q1010=
201107221045 METAR LIRA 221045Z 20012KT 150V230 9999 SCT018 27/17 Q1010=
201107221015 METAR LIRA 221015Z 18010KT 150V210 9999 SCT018 27/17 Q1010=
201107220945 METAR LIRA 220945Z 18009KT 150V220 9999 SCT018 26/17 Q1010=
201107220915 METAR LIRA 220915Z 15010KT 9999 SCT018 26/17 Q1010=
201107220845 METAR LIRA 220845Z 16009KT 120V210 9999 SCT018 25/17 Q1010=
201107220815 METAR LIRA 220815Z 19008KT 120V210 9999 SCT016 25/18 Q1010=
201107220745 METAR LIRA 220745Z 17011KT 150V260 9999 SCT016 24/18 Q1010=
201107220715 METAR LIRA 220715Z 19012KT 9999 SCT016 24/18 Q1010=
201107220645 METAR LIRA 220645Z 17010KT 9999 SCT016 23/19 Q1010=
201107220615 METAR LIRA 220615Z 18010KT 9999 SCT016 23/19 Q1009=
201107220545 METAR LIRA 220545Z 15008KT 9999 FEW016 22/20 Q1009=
201107220515 METAR LIRA 220515Z 15005KT 9999 SCT016 21/19 Q1009=
201107220445 METAR LIRA 220445Z 16007KT 9999 FEW015 SCT022 21/19 Q1009=
201107220415 METAR LIRA 220415Z 14007KT 9999 SCT015 SCT022 20/19 Q1009=
201107220345 METAR LIRA 220345Z 14007KT 9999 SCT016 SCT018 20/19 Q1009=
201107220315 METAR LIRA 220315Z 15007KT 9999 SCT015 SCT018 21/19 Q1009=
201107220245 METAR LIRA 220245Z 16005KT 9999 SCT015 SCT018 20/19 Q1009=
201107220215 METAR LIRA 220215Z 16006KT 9999 FEW015 SCT018 20/19 Q1009=
201107220145 METAR LIRA 220145Z 16005KT 9999 SCT015 SCT018 20/19 Q1009=
201107220115 METAR LIRA 220115Z 16005KT 9999 FEW015 SCT018 20/19 Q1009=
201107220045 METAR LIRA 220045Z 17004KT 9999 SCT015 SCT018 21/19 Q1009=
201107220015 METAR LIRA 220015Z 17005KT 9999 SCT015 SCT018 21/19 Q1009=
201107212350 METAR LIRA 220045Z 17004KT 9999 SCT015 SCT018 21/19 Q1009=
201107212345 METAR LIRA 212345Z 17006KT 9999 FEW015 SCT018 21/19 Q1010=
201107212315 METAR LIRA 212315Z 16005KT 9999 FEW015 SCT018 21/19 Q1010=
201107212245 METAR LIRA 212245Z 16006KT 9999 FEW015 SCT018 21/19 Q1010=
201107212215 METAR LIRA 212215Z 16005KT 9999 SCT018 20/19 Q1010=
201107212145 METAR LIRA 212145Z 18006KT 9999 FEW016 SCT018 20/19 Q1010=
201107212115 METAR LIRA 212115Z 19005KT 9999 FEW016 21/19 Q1010=
201107212045 METAR LIRA 212045Z 19005KT 9999 FEW016 21/19 Q1010=
201107212015 METAR LIRA 212015Z 20006KT 9999 FEW016 SCT018 21/19 Q1010=
201107211945 METAR LIRA 211945Z 20006KT 9999 FEW016 SCT017 21/19 Q1009=
201107211915 METAR LIRA 211915Z 20008KT 9999 FEW016 SCT017 21/19 Q1009=
201107211845 METAR LIRA 211845Z 20010KT 9999 FEW016 SCT017 22/20 Q1009=
201107211815 METAR LIRA 211815Z 20010KT 170V250 9999 FEW016 SCT018 22/19
                        Q1009=
201107211745 METAR LIRA 211745Z 20010KT 9999 FEW018 22/19 Q1009=
201107211715 METAR LIRA 211715Z 20010KT 9999 SCT018 23/19 Q1009=
201107211645 METAR LIRA 211645Z 20010KT 9999 SCT018 23/19 Q1009=
201107211615 METAR LIRA 211615Z 19011KT 160V220 9999 FEW018 24/18 Q1009=
201107211545 METAR LIRA 211545Z 20010KT 170V280 9999 FEW018 24/16 Q1009=
201107211515 METAR LIRA 211515Z 18012KT 9999 FEW018 24/16 Q1009=
201107211445 METAR LIRA 211445Z 21010KT 160V240 9999 FEW018 25/16 Q1009=
201107211415 METAR LIRA 211415Z 20011KT 160V250 9999 FEW018 25/16 Q1009=
201107211345 METAR LIRA 211345Z 20010KT 160V230 9999 FEW018 25/16 Q1009=
201107211315 METAR LIRA 211315Z 21009KT 150V240 9999 FEW018 25/16 Q1009=
201107211245 METAR LIRA 211245Z 22010KT 170V250 9999 FEW018 25/16 Q1009=
201107211215 METAR LIRA 211215Z 19011KT 150V250 9999 FEW018 25/16 Q1009=
201107211145 METAR LIRA 211145Z 19011KT 160V250 9999 FEW018 25/15 Q1009=
201107211115 METAR LIRA 211115Z 20009KT 130V240 9999 SCT018 26/15 Q1010=
201107211045 METAR LIRA 211045Z 20008KT 130V260 9999 SCT018 25/15 Q1010=
201107211015 METAR LIRA 211015Z 20009G20KT 150V260 9999 SCT018 25/16 Q1010=
201107210945 METAR LIRA 210945Z 20007KT 160V240 9999 SCT018 25/16 Q1010=
201107210915 METAR LIRA 210915Z 19007KT 150V230 9999 SCT018 25/15 Q1010=
201107210845 METAR LIRA 210845Z 18007KT 120V280 9999 FEW018 25/15 Q1009=
201107210815 METAR LIRA 210815Z 18006KT 100V230 9999 FEW018 24/15 Q1009=
201107210745 METAR LIRA 210745Z 19005KT 9999 FEW018 23/16 Q1009=
201107210715 METAR LIRA 210715Z 21005KT 9999 FEW010 22/16 Q1009=
201107210645 METAR LIRA 210645Z 19005KT 9999 FEW010 21/17 Q1009=
201107210615 METAR LIRA 210615Z 20001KT 9999 FEW010 20/17 Q1009=
201107210545 METAR LIRA 210545Z 05001KT 9999 FEW010 18/17 Q1009=
201107210515 METAR LIRA 210515Z 05003KT 9999 FEW010 17/15 Q1009=
201107210445 METAR LIRA 210445Z 04002KT 9999 FEW010 16/15 Q1009=
201107210415 METAR LIRA 210415Z 01003KT CAVOK 16/14 Q1009=
201107210345 METAR LIRA 210345Z 10002KT CAVOK 17/15 Q1009=
201107210315 METAR LIRA 210315Z 12003KT CAVOK 17/15 Q1009=
201107210245 METAR LIRA 210245Z 08002KT CAVOK 17/16 Q1009=
201107210215 METAR LIRA 210215Z 13003KT CAVOK 18/16 Q1009=
201107210145 METAR LIRA 210145Z 13003KT CAVOK 18/16 Q1009=
201107210115 METAR LIRA 210115Z 15003KT CAVOK 19/17 Q1009=
201107210045 METAR LIRA 210045Z 16003KT CAVOK 19/17 Q1009=
201107210015 METAR LIRA 210015Z 14004KT CAVOK 19/18 Q1009=
201107202350 METAR LIRA 210045Z 16003KT CAVOK 19/17 Q1009=
201107202345 METAR LIRA 202345Z 15003KT CAVOK 20/18 Q1009=
201107202315 METAR LIRA 202315Z 17005KT CAVOK 20/18 Q1009=
201107202245 METAR LIRA 202245Z 17005KT CAVOK 20/18 Q1009=
201107202215 METAR LIRA 202215Z 16004KT 9999 FEW012 20/18 Q1009=
201107202145 METAR LIRA 202145Z 16005KT 9999 FEW012 20/18 Q1009=
201107202115 METAR LIRA 202115Z 17004KT CAVOK 21/17 Q1009=
201107202045 METAR LIRA 202045Z 18005KT CAVOK 21/17 Q1009=
201107202015 METAR LIRA 202015Z 17006KT CAVOK 21/16 Q1008=
201107201945 METAR LIRA 201945Z 22003KT CAVOK 22/16 Q1008=
201107201915 METAR LIRA 201915Z 23004KT CAVOK 22/15 Q1008=
201107201845 METAR LIRA 201845Z 24004KT CAVOK 22/15 Q1008=
201107201815 METAR LIRA 201815Z 28008KT 240V330 CAVOK 24/14 Q1007=
201107201745 METAR LIRA 201745Z 26007KT 220V290 CAVOK 24/14 Q1007=
201107201715 METAR LIRA 201715Z 25007KT 220V300 CAVOK 24/15 Q1007=
201107201645 METAR LIRA 201645Z 25008KT 200V320 9999 FEW030 25/15 Q1007=
201107201615 METAR LIRA 201615Z 25009KT 200V290 9999 FEW030 25/13 Q1008=
201107201545 METAR LIRA 201545Z 24008KT 220V280 9999 SCT030 26/12 Q1008=
201107201515 METAR LIRA 201515Z 25008KT 200V310 9999 SCT030 26/12 Q1008=
201107201445 METAR LIRA 201445Z 24010KT 220V310 9999 SCT030 26/13 Q1008=
201107201415 METAR LIRA 201415Z 25009KT 220V280 9999 SCT030 26/13 Q1008=
201107201345 METAR LIRA 201345Z 26011KT 220V310 9999 SCT030 26/12 Q1007=
201107201315 METAR LIRA 201315Z 26010KT 220V310 9999 SCT030 26/13 Q1007=
201107201245 METAR LIRA 201245Z 27011G22KT 230V310 9999 SCT030 26/14 Q1007=
201107201215 METAR LIRA 201215Z 26012KT 230V300 9999 BKN030 26/16 Q1007=
201107201145 METAR LIRA 201145Z 28009KT 240V320 9999 BKN030 26/13 Q1007=
201107201115 METAR LIRA 201115Z 26008KT 220V300 9999 BKN030 25/12 Q1007=
201107201045 METAR LIRA 201045Z 27009KT 220V320 9999 BKN030 25/13 Q1007=
201107201015 METAR LIRA 201015Z 27008KT 220V310 9999 BKN030 25/12 Q1007=
201107200945 METAR LIRA 200945Z 25007G22KT 210V310 9999 BKN030 25/13 Q1006=
201107200915 METAR LIRA 200915Z 28005KT 250V320 9999 SCT030 25/14 Q1006=
201107200845 METAR LIRA 200845Z 29006KT 260V330 9999 SCT030 25/14 Q1006=
201107200815 METAR LIRA 200815Z 27005KT 240V310 9999 SCT030 23/14 Q1006=
201107200745 METAR LIRA 200745Z 21004KT 230V300 9999 SCT030 23/16 Q1006=
201107200715 METAR LIRA 200715Z 19005KT 9999 FEW020 22/17 Q1006=
201107200645 METAR LIRA 200645Z 16007KT 9999 FEW020 21/17 Q1006=
201107200615 METAR LIRA 200615Z 19005KT 9999 FEW020 SCT030 21/17 Q1005=
201107200600 METAR LIRA CONTUS=
201107200545 METAR LIRA 200545Z 19005KT 9999 FEW020 SCT030 20/17 Q1005=
201107200515 METAR LIRA 200515Z 18005KT 9999 FEW020 BKN030 19/17 Q1005=
201107200500 METAR LIRA CONTUS=
201107200445 METAR LIRA 200445Z 18006KT 9999 FEW020 BKN030 19/17 Q1005=
201107200415 METAR LIRA 200415Z 17007KT 9999 FEW020 SCT030 19/17 Q1005=
201107200400 METAR LIRA CONTUS=
201107200345 METAR LIRA 200345Z 17006KT 9999 FEW020 SCT030 19/16 Q1006=
201107200315 METAR LIRA 200315Z 17005KT 9999 FEW020 SCT040 19/16 Q1006=
201107200245 METAR LIRA 200245Z 19006KT 9999 FEW020 SCT040 19/16 Q1006=
201107200215 METAR LIRA 200215Z 22005KT 170V250 9999 FEW018CB SCT025 19/17
                        Q1006=
201107200200 METAR LIRA CONTUS=
201107200145 METAR LIRA 200145Z 23008KT 190V260 9999 FEW018CB SCT025 19/17
                        Q1006=
201107200115 METAR LIRA 200115Z 23007KT 190V260 9999 FEW018CB 19/18 Q1006=
201107200100 METAR LIRA INT=
201107200045 METAR LIRA 200045Z 22004KT 9999 FEW018CB SCT070 20/19 Q1007=
201107200015 METAR LIRA 200015Z 23007KT 200V260 9999 FEW018CB SCT020 BKN070
                        20/19 Q1006=
201107192350 METAR LIRA 200045Z 22004KT 9999 FEW018CB SCT070 20/19 Q1007=
201107192345 METAR LIRA 192345Z 24006KT 9999 FEW020 SCT025 BKN070 20/19
                        Q1006=
201107192315 METAR LIRA 192315Z 24005KT 200V280 9999 -RA FEW020 SCT025
                        BKN070 20/19 Q1006 RETS=
201107192300 METAR LIRA INTER=
201107192245 METAR LIRA 192245Z 20003KT 9999 -RA FEW020 SCT025 BKN070
                        21/19 Q1006 RETS=
201107192215 METAR LIRA 192215Z 19004KT 9999 VCTS -RA FEW018CB SCT020
                        BKN070 21/20 Q1006=
201107192145 METAR LIRA 192145Z 17006KT 120V200 9000 -TSRA FEW018CB SCT020
                        BKN070 21/20 Q1006=
201107192115 METAR LIRA 192115Z 15013KT 5000 TSRA BR FEW018CB SCT020 BKN070
                        21/20 Q1006=
201107192045 METAR LIRA 192045Z 15008KT 7000 TSRA FEW018CB SCT020 BKN060
                        23/22 Q1005=
201107192015 METAR LIRA 192015Z 17004KT 9999 -TSRA FEW018CB SCT020 BKN070
                        23/22 Q1006=
201107191945 METAR LIRA 191945Z 18004KT 9999 -TSRA FEW018CB SCT020 BKN070
                        24/21 Q1006=
201107191915 METAR LIRA 191915Z 26002KT 9999 -RA SCT020 SCT080 25/20 Q1006=
201107191845 METAR LIRA 191845Z 26003KT 9999 -RA SCT020 SCT080 25/21 Q1007=
201107191815 METAR LIRA 191815Z 25005KT 220V280 9999 SCT020 SCT080 25/21
                        Q1007=
201107191745 METAR LIRA 191745Z 24006KT 210V300 9999 SCT020 26/21 Q1007=
201107191715 METAR LIRA 191715Z 24006KT 210V300 9999 SCT020 27/21 Q1007=
201107191645 METAR LIRA 191645Z 26006KT 220V330 9999 SCT020 28/20 Q1007=
201107191615 METAR LIRA 191615Z 23008KT 190V300 9999 SCT020 28/20 Q1007=
201107191545 METAR LIRA 191545Z 23009KT 200V260 9999 FEW020 28/21 Q1007=
201107191515 METAR LIRA 191515Z 23009KT 190V270 9999 SCT020 29/21 Q1007=
201107191445 METAR LIRA 191445Z 23008KT 190V270 9999 SCT022 29/20 Q1007=
201107191415 METAR LIRA 191415Z 23007KT 180V260 9999 SCT022 29/19 Q1007=
201107191345 METAR LIRA 191345Z 24007KT 180V290 9999 SCT022 29/19 Q1007=
201107191315 METAR LIRA 191315Z 23008KT 180V280 9999 FEW025 28/18 Q1007=
201107191245 METAR LIRA 191245Z 22010KT 170V250 9999 FEW025 28/18 Q1007=
201107191215 METAR LIRA 191215Z 20010KT 170V240 9999 FEW025 28/18 Q1007=
201107191145 METAR LIRA 191145Z 23010KT 180V270 9999 FEW025 29/17 Q1007=
201107191115 METAR LIRA 191115Z 21010KT 180V240 9999 FEW022TCU 28/17 Q1008=
201107191045 METAR LIRA 191045Z 22010KT 190V250 9999 SCT022 SCT080 28/17
                        Q1008=
201107191015 METAR LIRA 191015Z 19008KT 170V240 9999 SCT025 SCT080 28/17
                        Q1008=
201107190945 METAR LIRA 190945Z 20006KT 150V260 9999 FEW025 SCT080 27/16
                        Q1008=
201107190915 METAR LIRA 190915Z 20005KT 170V240 9999 FEW025TCU SCT080
                        26/15 Q1008=
201107190845 METAR LIRA 190845Z 19005KT 9999 FEW025 FEW026TCU SCT070 25/15
                        Q1008=
201107190815 METAR LIRA 190815Z 18006KT 150V210 9999 FEW025 SCT070 25/16
                        Q1008=
201107190745 METAR LIRA 190745Z 19005KT 140V200 9999 FEW030 BKN070 25/17
                        Q1008=
201107190715 METAR LIRA 190715Z 20004KT 160V230 9999 FEW030 BKN060 24/17
                        Q1008=
201107190645 METAR LIRA 190645Z 20005KT 140V230 9999 FEW035 SCT060 24/18
                        Q1008=
201107190615 METAR LIRA 190615Z 20005KT 9999 FEW035 SCT060 23/19 Q1008=
201107190545 METAR LIRA 190545Z 21004KT 180V260 9999 FEW035 SCT060 22/19
                        Q1008=
201107190515 METAR LIRA 190515Z 20006KT 9999 FEW030 SCT060 22/19 Q1008=
201107190445 METAR LIRA 190445Z 19007KT 9999 FEW030 SCT060 21/19 Q1008=
201107190415 METAR LIRA 190415Z 19007KT 170V230 9999 FEW020 SCT070 21/19
                        Q1008=
201107190345 METAR LIRA 190345Z 19006KT 9999 BKN070 21/19 Q1008=
201107190315 METAR LIRA 190315Z 18005KT 9999 SCT080 21/19 Q1008=
201107190245 METAR LIRA 190245Z 18006KT 9999 SCT080 21/19 Q1008=
201107190215 METAR LIRA 190215Z 18005KT 9999 FEW080 21/18 Q1008=
201107190145 METAR LIRA 190145Z 19007KT 9999 FEW080 21/18 Q1008=
201107190115 METAR LIRA 190115Z 19007KT 9999 FEW080 21/18 Q1008=
201107190045 METAR LIRA 190045Z 18006KT 9999 FEW080 21/18 Q1008=
201107190015 METAR LIRA 190015Z 19006KT 9999 FEW080 22/18 Q1008=
201107182350 METAR LIRA 190045Z 18006KT 9999 FEW080 21/18 Q1008=
201107182345 METAR LIRA 182345Z 21006KT 9999 FEW070 22/19 Q1008=
201107182315 METAR LIRA 182315Z 20006KT 9999 FEW020 SCT070 23/19 Q1008=
201107182245 METAR LIRA 182245Z 19006KT 9999 FEW020 SCT030 23/19 Q1008=
201107182215 METAR LIRA 182215Z 18006KT 9999 FEW020 SCT070 23/19 Q1008=
201107182145 METAR LIRA 182145Z 17006KT 9999 FEW020 SCT070 23/18 Q1008=
201107182115 METAR LIRA 182115Z 18005KT 9999 FEW020 23/18 Q1008=
201107182045 METAR LIRA 182045Z 18007KT 9999 FEW070 23/18 Q1008=
201107182015 METAR LIRA 182015Z 19006KT 9999 FEW020 23/17 Q1008=
201107181945 METAR LIRA 181945Z 19005KT 9999 FEW020 SCT070 24/17 Q1008=
201107181915 METAR LIRA 181915Z 20005KT 9999 FEW020 SCT070 24/18 Q1008=
201107181845 METAR LIRA 181845Z 19007KT 170V230 9999 FEW022 SCT070 25/18
                        Q1008=
201107181815 METAR LIRA 181815Z 22007KT 190V260 9999 FEW022 SCT070 26/17
                        Q1008=
201107181745 METAR LIRA 181745Z 22008KT 180V230 9999 FEW022 SCT070 26/17
                        Q1008=
201107181715 METAR LIRA 181715Z 22009KT 190V250 9999 FEW022 SCT070 27/17
                        Q1008=
201107181645 METAR LIRA 181645Z 22009KT 9999 FEW022 28/16 Q1008=
201107181615 METAR LIRA 181615Z 22008KT 180V250 9999 FEW022 28/18 Q1008=
201107181545 METAR LIRA 181545Z 22009KT 180V260 9999 FEW022 28/19 Q1008=
201107181515 METAR LIRA 181515Z 21009KT 160V250 9999 FEW020 28/18 Q1008=
201107181445 METAR LIRA 181445Z 23009KT 200V270 9999 FEW020 29/20 Q1008=
201107181415 METAR LIRA 181415Z 24010KT 210V280 9999 FEW020 29/20 Q1008=
201107181345 METAR LIRA 181345Z 22009KT 190V260 9999 FEW020 29/22 Q1008=
201107181315 METAR LIRA 181315Z 24008KT 190V300 9999 SCT020 30/23 Q1008=
201107181245 METAR LIRA 181245Z 23010KT 220V280 9999 SCT020 30/22 Q1008=
201107181215 METAR LIRA 181215Z 23007KT 180V290 9999 SCT020 30/22 Q1008=
201107181145 METAR LIRA 181145Z 21008KT 180V260 9999 SCT020 29/21 Q1008=
201107181115 METAR LIRA 181115Z 24007KT 190V280 9999 FEW020 30/20 Q1008=
201107181045 METAR LIRA 181045Z 22008KT 180V270 9999 FEW020 30/18 Q1008=
201107181015 METAR LIRA 181015Z 20009KT 150V240 9999 FEW020 29/17 Q1008=
201107180945 METAR LIRA 180945Z 23008KT 170V260 9999 FEW020 29/18 Q1008=
201107180915 METAR LIRA 180915Z 22008KT 170V290 9999 FEW020 29/17 Q1008=
201107180845 METAR LIRA 180845Z 20006KT 150V240 9999 FEW020 29/17 Q1008=
201107180815 METAR LIRA 180815Z 20006KT 160V240 9999 FEW020 28/16 Q1008=
201107180745 METAR LIRA 180745Z 17006KT 120V210 CAVOK 27/16 Q1008=
201107180715 METAR LIRA 180715Z 18006KT CAVOK 26/18 Q1008=
201107180645 METAR LIRA 180645Z 19006KT 150V230 CAVOK 26/19 Q1008=
201107180615 METAR LIRA 180615Z 18007KT 9999 FEW070 25/19 Q1008=
201107180545 METAR LIRA 180545Z 17005KT 9999 FEW070 24/18 Q1008=
201107180515 METAR LIRA 180515Z 17005KT 9999 FEW070 22/17 Q1008=
201107180445 METAR LIRA 180445Z 16005KT 9999 FEW080 21/18 Q1008=
201107180415 METAR LIRA 180415Z 15005KT 9999 FEW080 21/17 Q1008=
201107180345 METAR LIRA 180345Z 15005KT 9999 FEW080 21/17 Q1008=
201107180315 METAR LIRA 180315Z 16003KT 9999 FEW080 21/17 Q1008=
201107180245 METAR LIRA 180245Z 19003KT CAVOK 21/17 Q1008=
201107180215 METAR LIRA 180215Z 15002KT CAVOK 21/18 Q1008=
201107180145 METAR LIRA 180145Z 03001KT CAVOK 21/17 Q1009=
201107180115 METAR LIRA 180115Z 07002KT CAVOK 21/17 Q1009=
201107180045 METAR LIRA 180045Z 08003KT CAVOK 21/19 Q1009=
201107180015 METAR LIRA 180015Z 08003KT CAVOK 21/19 Q1009=
201107172350 METAR LIRA 180045Z 08003KT CAVOK 21/19 Q1009=
201107172345 METAR LIRA 172345Z 08004KT 9999 FEW005 21/18 Q1009=
201107172315 METAR LIRA 172315Z 15001KT CAVOK 22/18 Q1009=
201107172245 METAR LIRA 172245Z 11003KT CAVOK 22/18 Q1009=
201107172215 METAR LIRA 172215Z 14004KT CAVOK 22/19 Q1009=
201107172145 METAR LIRA 172145Z 07002KT CAVOK 23/21 Q1009=
201107172115 METAR LIRA 172115Z 12002KT CAVOK 23/21 Q1009=
201107172045 METAR LIRA 172045Z 22004KT CAVOK 24/20 Q1009=
201107172015 METAR LIRA 172015Z 17005KT CAVOK 24/20 Q1009=
201107171945 METAR LIRA 171945Z 19004KT CAVOK 24/20 Q1009=
201107171915 METAR LIRA 171915Z 20004KT CAVOK 24/20 Q1009=
201107171845 METAR LIRA 171845Z 23004KT CAVOK 25/20 Q1009=
201107171815 METAR LIRA 171815Z 23005KT 190V250 CAVOK 26/19 Q1009=
201107171745 METAR LIRA 171745Z 22005KT CAVOK 26/17 Q1009=
201107171715 METAR LIRA 171715Z 24008KT 190V260 CAVOK 27/17 Q1009=
201107171645 METAR LIRA 171645Z 23007KT 200V260 CAVOK 28/16 Q1009=
201107171615 METAR LIRA 171615Z 23007KT 200V280 CAVOK 29/16 Q1009=
201107171545 METAR LIRA 171545Z 23007KT 190V260 9999 FEW017 29/14 Q1009=
201107171515 METAR LIRA 171515Z 29008KT 190V300 9999 FEW017 29/14 Q1010=
201107171445 METAR LIRA 171445Z 25007KT 220V280 9999 FEW017 30/14 Q1010=
201107171415 METAR LIRA 171415Z 24009KT 210V290 9999 FEW017 31/15 Q1010=
201107171345 METAR LIRA 171345Z 26008KT 200V310 9999 FEW017 32/14 Q1010=
201107171315 METAR LIRA 171315Z 26007KT 220V300 9999 FEW017 32/13 Q1010=
201107171245 METAR LIRA 171245Z 25007KT 180V300 9999 FEW017 31/13 Q1010=
201107171215 METAR LIRA 171215Z 22006KT 180V310 9999 FEW017 31/14 Q1011=
201107171145 METAR LIRA 171145Z 29007KT 180V300 9999 FEW017 31/14 Q1011=
201107171115 METAR LIRA 171115Z 01004KT 9999 FEW017 30/13 Q1011=
201107171045 METAR LIRA 171045Z 16003KT 9999 FEW017 30/13 Q1011=
201107171015 METAR LIRA 171015Z 27003KT 230V300 9999 FEW017 29/13 Q1011=
201107171000 LIRA INT, CB ALL QUADS=
201107170945 METAR LIRA 170945Z 10003KT 9999 FEW017 28/14 Q1011=
201107170915 METAR LIRA 170915Z 17001KT CAVOK 27/15 Q1012=
201107170845 METAR LIRA 170845Z 30002KT CAVOK 27/17 Q1012=
201107170815 METAR LIRA 170815Z 34003KT CAVOK 26/17 Q1012=
201107170745 METAR LIRA 170745Z 34004KT CAVOK 25/18 Q1012=
201107170715 METAR LIRA 170715Z 03003KT CAVOK 24/18 Q1012=
201107170645 METAR LIRA 170645Z 01004KT CAVOK 23/19 Q1012=
201107170615 METAR LIRA 170615Z 01002KT CAVOK 23/19 Q1012=
201107170545 METAR LIRA 170545Z 04001KT CAVOK 21/17 Q1012=
201107170515 METAR LIRA 170515Z 04001KT CAVOK 20/17 Q1012=
201107170445 METAR LIRA 170445Z 03002KT CAVOK 19/16 Q1012=
201107170415 METAR LIRA 170415Z 11001KT CAVOK 18/16 Q1012=
201107170345 METAR LIRA 170345Z 14004KT CAVOK 18/16 Q1012=
201107170315 METAR LIRA 170315Z 14001KT CAVOK 19/16 Q1012=
201107170245 METAR LIRA 170245Z 14001KT CAVOK 19/16 Q1012=
201107170215 METAR LIRA 170215Z 06003KT CAVOK 19/16 Q1012=
201107170145 METAR LIRA 170145Z 08003KT CAVOK 19/17 Q1012=
201107170115 METAR LIRA 170115Z 14003KT CAVOK 19/18 Q1013=
201107170045 METAR LIRA 170045Z 14003KT CAVOK 19/18 Q1013=
201107170015 METAR LIRA 170015Z 15003KT CAVOK 20/19 Q1013=
201107162350 METAR LIRA 170045Z 14003KT CAVOK 19/18 Q1013=
201107162345 METAR LIRA 162345Z 15002KT CAVOK 20/19 Q1013=
201107162315 METAR LIRA 162315Z 17002KT CAVOK 21/20 Q1013=
201107162245 METAR LIRA 162245Z 17003KT CAVOK 21/20 Q1013=
201107162215 METAR LIRA 162215Z 17003KT CAVOK 22/20 Q1013=
201107162145 METAR LIRA 162145Z 16003KT CAVOK 22/20 Q1013=
201107162115 METAR LIRA 162115Z 17003KT CAVOK 22/19 Q1013=
201107162045 METAR LIRA 162045Z 17004KT CAVOK 22/19 Q1013=
201107162015 METAR LIRA 162015Z 20002KT CAVOK 22/19 Q1013=
201107161945 METAR LIRA 161945Z 21002KT CAVOK 22/19 Q1013=
201107161915 METAR LIRA 161915Z 20003KT CAVOK 23/19 Q1013=
201107161845 METAR LIRA 161845Z 23005KT CAVOK 24/18 Q1013=
201107161815 METAR LIRA 161815Z 22005KT CAVOK 25/19 Q1013=
201107161745 METAR LIRA 161745Z 23004KT CAVOK 25/18 Q1013=
201107161715 METAR LIRA 161715Z 24007KT 200V290 CAVOK 25/15 Q1013=
201107161645 METAR LIRA 161645Z 23008KT 200V260 9999 FEW030 25/14 Q1013=
201107161615 METAR LIRA 161615Z 23010KT 190V260 9999 FEW030 25/15 Q1013=
201107161545 METAR LIRA 161545Z 22009KT 170V260 9999 FEW020 26/16 Q1013=
201107161515 METAR LIRA 161515Z 21009KT 9999 FEW020 26/17 Q1014=
201107161445 METAR LIRA 161445Z 22008KT 160V250 9999 FEW020 26/14 Q1014=
201107161415 METAR LIRA 161415Z 20009KT 170V260 9999 FEW020 26/13 Q1014=
201107161345 METAR LIRA 161345Z 19010KT 160V260 9999 FEW020 26/12 Q1014=
201107161315 METAR LIRA 161315Z 19010KT 150V220 9999 FEW020 26/12 Q1015=
201107161245 METAR LIRA 161245Z 20009KT 130V290 9999 FEW020 26/12 Q1015=
201107161215 METAR LIRA 161215Z 20010KT 160V240 9999 FEW020 26/12 Q1015=
201107161145 METAR LIRA 161145Z 23009KT 170V310 9999 SCT020 27/12 Q1015=
201107161115 METAR LIRA 161115Z 20008KT 150V240 9999 SCT020 27/12 Q1015=
201107161045 METAR LIRA 161045Z 11008KT 9999 SCT020 27/13 Q1015=
201107161015 METAR LIRA 161015Z 20008KT 160V280 9999 SCT020 27/15 Q1015=
201107160945 METAR LIRA 160945Z 20009KT 160V250 9999 FEW020 26/15 Q1016=
201107160915 METAR LIRA 160915Z 20009KT 9999 FEW020 25/15 Q1016=
201107160845 METAR LIRA 160845Z 20008KT 160V230 9999 FEW020 26/15 Q1016=
201107160815 METAR LIRA 160815Z 19007KT 120V210 9999 FEW020 26/13 Q1016=
201107160745 METAR LIRA 160745Z 22006KT 180V260 9999 FEW020 25/13 Q1016=
201107160715 METAR LIRA 160715Z 15004KT 9999 FEW020 23/12 Q1016=
201107160645 METAR LIRA 160645Z 24003KT 9999 FEW040 22/13 Q1016=
201107160615 METAR LIRA 160615Z 05002KT 9999 FEW040 22/15 Q1016=
201107160545 METAR LIRA 160545Z 02001KT 9999 FEW040 20/15 Q1016=
201107160515 METAR LIRA 160515Z 02001KT 9999 FEW040 19/15 Q1016=
201107160445 METAR LIRA 160445Z 24002KT 9999 FEW040 17/15 Q1016=
201107160415 METAR LIRA 160415Z 00000KT 9999 FEW040 17/15 Q1016=
201107160345 METAR LIRA 160345Z 17002KT 9999 FEW040 18/15 Q1016=
201107160315 METAR LIRA 160315Z 14004KT 9999 FEW040 18/15 Q1016=
201107160245 METAR LIRA 160245Z 16004KT CAVOK 19/16 Q1016=
201107160215 METAR LIRA 160215Z 15004KT CAVOK 19/17 Q1017=
201107160145 METAR LIRA 160145Z 15006KT CAVOK 19/17 Q1017=
201107160115 METAR LIRA 160115Z 15004KT CAVOK 19/17 Q1017=
201107160045 METAR LIRA 160045Z 14004KT CAVOK 19/17 Q1017=
201107160015 METAR LIRA 160015Z 17004KT CAVOK 20/17 Q1017=
201107152350 METAR LIRA 160045Z 14004KT CAVOK 19/17 Q1017=
201107152345 METAR LIRA 152345Z 17004KT CAVOK 20/17 Q1018=
201107152315 METAR LIRA 152315Z 17004KT 9999 FEW030 20/17 Q1018=
201107152245 METAR LIRA 152245Z 15005KT 9999 FEW030 21/17 Q1018=
201107152215 METAR LIRA 152215Z 16006KT 9999 FEW030 21/17 Q1018=
201107152145 METAR LIRA 152145Z 16007KT 9999 FEW030 21/17 Q1017=
201107152115 METAR LIRA 152115Z 16006KT 9999 FEW030 21/17 Q1017=
201107152045 METAR LIRA 152045Z 17007KT 9999 FEW030 21/17 Q1017=
201107152015 METAR LIRA 152015Z 18006KT 9999 FEW030 21/17 Q1017=
201107151945 METAR LIRA 151945Z 19007KT 9999 FEW030 21/17 Q1017=
201107151915 METAR LIRA 151915Z 20007KT 9999 FEW030 22/16 Q1017=
201107151845 METAR LIRA 151845Z 21008KT 180V250 9999 FEW030 22/17 Q1016=
201107151815 METAR LIRA 151815Z 21008KT CAVOK 23/15 Q1016=
201107151745 METAR LIRA 151745Z 20007KT 160V230 CAVOK 24/15 Q1016=
201107151715 METAR LIRA 151715Z 22008KT 180V260 CAVOK 24/12 Q1017=
201107151645 METAR LIRA 151645Z 20008KT 180V250 CAVOK 25/09 Q1017=
201107151615 METAR LIRA 151615Z 23008KT 200V270 CAVOK 26/11 Q1017=
201107151545 METAR LIRA 151545Z 23008KT 180V260 CAVOK 26/11 Q1017=
201107151515 METAR LIRA 151515Z 19009KT 150V210 CAVOK 26/11 Q1017=
201107151445 METAR LIRA 151445Z 19009KT 150V260 CAVOK 26/12 Q1017=
201107151415 METAR LIRA 151415Z 22010KT 180V260 CAVOK 27/14 Q1017=
201107151345 METAR LIRA 151345Z 22009KT 180V260 CAVOK 27/14 Q1017=
201107151315 METAR LIRA 151315Z 22009KT 180V250 CAVOK 27/14 Q1017=
201107151245 METAR LIRA 151245Z 21010KT 170V250 CAVOK 27/13 Q1017=
201107151215 METAR LIRA 151215Z 20011KT 170V250 CAVOK 26/14 Q1017=
201107151145 METAR LIRA 151145Z 21010KT 180V250 CAVOK 27/14 Q1017=
201107151115 METAR LIRA 151115Z 18011KT 150V230 CAVOK 27/14 Q1017=
201107151045 METAR LIRA 151045Z 19011KT 150V230 CAVOK 27/14 Q1017=
201107151015 METAR LIRA 151015Z 19010KT 150V230 CAVOK 26/15 Q1017=
201107150945 METAR LIRA 150945Z 18012KT 130V220 9999 FEW015 26/15 Q1017=
201107150915 METAR LIRA 150915Z 19012KT 9999 FEW015 26/17 Q1017=
201107150845 METAR LIRA 150845Z 18011KT 150V220 9999 FEW015 26/17 Q1016=
201107150815 METAR LIRA 150815Z 19011KT 150V230 9999 FEW015 25/18 Q1016=
201107150745 METAR LIRA 150745Z 19011KT 160V230 9999 FEW015 25/18 Q1016=
201107150715 METAR LIRA 150715Z 17009KT 9999 FEW015 24/18 Q1016=
201107150645 METAR LIRA 150645Z 19010KT 160V220 9999 FEW015 23/19 Q1016=
201107150615 METAR LIRA 150615Z 16007KT CAVOK 23/19 Q1015=
201107150545 METAR LIRA 150545Z 17007KT CAVOK 22/18 Q1015=
201107150515 METAR LIRA 150515Z 17006KT CAVOK 22/18 Q1015=
201107150445 METAR LIRA 150445Z 14005KT CAVOK 20/18 Q1015=
201107150415 METAR LIRA 150415Z 15005KT CAVOK 20/18 Q1015=
201107150345 METAR LIRA 150345Z 13005KT 9999 FEW015 20/19 Q1015=
201107150315 METAR LIRA 150315Z 14005KT 9999 FEW015 20/19 Q1015=
201107150245 METAR LIRA 150245Z 16004KT 9999 FEW015 21/19 Q1015=
201107150215 METAR LIRA 150215Z 16004KT 9999 FEW015 21/19 Q1016=
201107150145 METAR LIRA 150145Z 18005KT 9999 SCT020 21/19 Q1016=
201107150115 METAR LIRA 150115Z 17004KT 9999 SCT020 21/19 Q1016=
201107150045 METAR LIRA 150045Z 18005KT 9999 SCT020 21/19 Q1016=
201107150015 METAR LIRA 150015Z 17004KT 9999 SCT020 SCT025 21/19 Q1016=
201107142350 METAR LIRA 150045Z 18005KT 9999 SCT020 21/19 Q1016=
201107142345 METAR LIRA 142345Z 18004KT 9999 SCT020 SCT025 21/19 Q1016=
201107142315 METAR LIRA 142315Z 19004KT 9999 FEW020 SCT025 21/19 Q1016=
201107142245 METAR LIRA 142245Z 20005KT 9999 SCT020 SCT025 21/19 Q1016=
201107142215 METAR LIRA 142215Z 18004KT 9999 FEW020 SCT025 22/19 Q1016=
201107142145 METAR LIRA 142145Z 19005KT 9999 FEW025 22/19 Q1015=
201107142115 METAR LIRA 142115Z 18004KT 9999 FEW025 22/19 Q1015=
201107142045 METAR LIRA 142045Z 18005KT 9999 FEW025 22/19 Q1015=
201107142015 METAR LIRA 142015Z 19005KT CAVOK 22/19 Q1015=
201107141945 METAR LIRA 141945Z 19004KT CAVOK 23/19 Q1015=
201107141915 METAR LIRA 141915Z 21005KT CAVOK 23/19 Q1014=
201107141845 METAR LIRA 141845Z 21004KT CAVOK 24/18 Q1014=
201107141815 METAR LIRA 141815Z 22008KT 180V240 CAVOK 24/16 Q1014=
201107141745 METAR LIRA 141745Z 20007KT 180V250 CAVOK 25/16 Q1014=
201107141715 METAR LIRA 141715Z 20008KT 160V220 CAVOK 26/13 Q1014=
201107141645 METAR LIRA 141645Z 22007KT 180V290 CAVOK 27/13 Q1014=
201107141615 METAR LIRA 141615Z 21009KT CAVOK 27/14 Q1014=
201107141545 METAR LIRA 141545Z 22009KT 180V280 CAVOK 27/15 Q1014=
201107141515 METAR LIRA 141515Z 22009KT 170V250 CAVOK 27/16 Q1014=
201107141445 METAR LIRA 141445Z 23009KT 190V260 CAVOK 28/17 Q1014=
201107141415 METAR LIRA 141415Z 23009KT 180V260 CAVOK 28/16 Q1014=
201107141345 METAR LIRA 141345Z 23010KT 190V280 CAVOK 28/17 Q1013=
201107141315 METAR LIRA 141315Z 24008KT 190V290 9999 FEW030 28/17 Q1013=
201107141245 METAR LIRA 141245Z 24009KT 220V290 9999 FEW030 28/18 Q1013=
201107141215 METAR LIRA 141215Z 22008KT 180V270 9999 FEW030 29/19 Q1013=
201107141145 METAR LIRA 141145Z 24010KT 200V280 9999 FEW030 29/20 Q1013=
201107141115 METAR LIRA 141115Z 23010KT 200V270 9999 FEW030 29/20 Q1013=
201107141045 METAR LIRA 141045Z 23011KT 190V260 9999 FEW030 28/19 Q1012=
201107141015 METAR LIRA 141015Z 24010KT 200V280 9999 FEW030 29/22 Q1012=
201107140945 METAR LIRA 140945Z 23009KT 190V270 9999 FEW030 29/21 Q1012=
201107140915 METAR LIRA 140915Z 22009KT 180V260 9999 FEW030 28/21 Q1012=
201107140845 METAR LIRA 140845Z 23008KT 200V290 9999 FEW030 28/22 Q1012=
201107140815 METAR LIRA 140815Z 23007KT 190V280 9999 FEW030 29/23 Q1012=
201107140745 METAR LIRA 140745Z 20007KT 160V250 9999 FEW030 28/24 Q1012=
201107140715 METAR LIRA 140715Z 22005KT 200V280 9999 SCT030 27/23 Q1012=
201107140645 METAR LIRA 140645Z 22005KT 9999 SCT030 26/23 Q1012=
201107140615 METAR LIRA 140615Z 23006KT 9999 SCT030 25/23 Q1011=
201107140545 METAR LIRA 140545Z 20006KT 9999 SCT030 25/24 Q1011=
201107140515 METAR LIRA 140515Z 22006KT 9999 BKN030 25/24 Q1011=
201107140445 METAR LIRA 140445Z 18005KT 9999 SCT030 26/24 Q1011=
201107140415 METAR LIRA 140415Z 17005KT 9999 SCT030 25/23 Q1011=
201107140345 METAR LIRA 140345Z 17006KT 9999 FEW018 26/23 Q1011=
201107140315 METAR LIRA 140315Z 19004KT 9999 FEW018 25/23 Q1011=
201107140245 METAR LIRA 140245Z 19006KT CAVOK 26/23 Q1010=
201107140215 METAR LIRA 140215Z 17007KT CAVOK 26/21 Q1010=
201107140145 METAR LIRA 140145Z 17008KT CAVOK 26/19 Q1010=
201107140115 METAR LIRA 140115Z 17007KT CAVOK 26/17 Q1010=
201107140045 METAR LIRA 140045Z 19010KT 180V240 CAVOK 27/17 Q1010=
201107140015 METAR LIRA 140015Z 21006KT CAVOK 27/13 Q1011=
201107132350 METAR LIRA 140045Z 19010KT 180V240 CAVOK 27/17 Q1010=
201107132345 METAR LIRA 132345Z 31002KT CAVOK 27/14 Q1011=
201107132315 METAR LIRA 132315Z 15006KT CAVOK 27/13 Q1011=
201107132245 METAR LIRA 132245Z 00000KT CAVOK 27/15 Q1011=
201107132215 METAR LIRA 132215Z 16003KT CAVOK 27/15 Q1011=
201107132145 METAR LIRA 132145Z 19003KT CAVOK 28/16 Q1011=
201107132115 METAR LIRA 132115Z 13008KT 9999 FEW080 28/16 Q1011=
201107132045 METAR LIRA 132045Z 18008KT 9999 FEW080 28/18 Q1011=
201107132015 METAR LIRA 132015Z 21006KT 9999 FEW080 28/19 Q1010=
201107131945 METAR LIRA 131945Z 21005KT 9999 FEW080 28/18 Q1010=
201107131915 METAR LIRA 131915Z 17007KT 9999 FEW080 29/19 Q1010=
201107131845 METAR LIRA 131845Z 17007KT CAVOK 29/19 Q1010=
201107131815 METAR LIRA 131815Z 17009KT CAVOK 30/20 Q1010=
201107131745 METAR LIRA 131745Z 19009KT 170V230 CAVOK 30/20 Q1010=
201107131715 METAR LIRA 131715Z 19010KT 170V230 CAVOK 30/20 Q1010=
201107131645 METAR LIRA 131645Z 20015KT CAVOK 30/22 Q1010=
201107131615 METAR LIRA 131615Z 20012KT 180V250 CAVOK 31/24 Q1010=
201107131545 METAR LIRA 131545Z 19015KT 160V230 CAVOK 34/20 Q1009=
201107131515 METAR LIRA 131515Z 18016KT 150V220 CAVOK 35/18 Q1009=
201107131445 METAR LIRA 131445Z 17014KT 140V210 CAVOK 36/18 Q1009=
201107131415 METAR LIRA 131415Z 16013KT 150V210 CAVOK 36/17 Q1009=
201107131345 METAR LIRA 131345Z 17015KT 130V200 CAVOK 36/18 Q1009=
201107131315 METAR LIRA 131315Z 17014KT CAVOK 37/18 Q1009=
201107131245 METAR LIRA 131245Z 15014KT CAVOK 37/18 Q1010=
201107131215 METAR LIRA 131215Z 18013KT 150V210 CAVOK 37/18 Q1010=
201107131145 METAR LIRA 131145Z 18010KT 120V220 CAVOK 36/18 Q1010=
201107131115 METAR LIRA 131115Z 18010KT 120V220 CAVOK 36/18 Q1011=
201107131045 METAR LIRA 131045Z 17009KT CAVOK 36/20 Q1011=
201107131015 METAR LIRA 131015Z 17009KT 140V220 CAVOK 35/19 Q1011=
201107130945 METAR LIRA 130945Z 16009KT 110V190 CAVOK 35/19 Q1011=
201107130915 METAR LIRA 130915Z 17009KT 130V210 CAVOK 34/18 Q1011=
201107130845 METAR LIRA 130845Z 17008KT 130V200 CAVOK 34/18 Q1011=
201107130815 METAR LIRA 130815Z 01003KT CAVOK 33/19 Q1011=
201107130745 METAR LIRA 130745Z 03003KT CAVOK 32/19 Q1012=
201107130715 METAR LIRA 130715Z 35002KT CAVOK 30/19 Q1012=
201107130645 METAR LIRA 130645Z 25001KT CAVOK 28/18 Q1012=
201107130615 METAR LIRA 130615Z 00000KT CAVOK 27/17 Q1011=
201107130545 METAR LIRA 130545Z 03001KT CAVOK 25/18 Q1011=
201107130445 METAR LIRA 130445Z 00000KT CAVOK 23/17 Q1011=
201107130415 METAR LIRA 130415Z 30001KT CAVOK 23/16 Q1011=
201107130345 METAR LIRA 130345Z 06001KT CAVOK 23/15 Q1011=
201107130315 METAR LIRA 130315Z 10001KT CAVOK 24/15 Q1011=
201107130245 METAR LIRA 130245Z 03002KT CAVOK 24/17 Q1011=
201107130215 METAR LIRA 130215Z 08002KT 9999 FEW080 25/17 Q1011=
201107130145 METAR LIRA 130145Z 08003KT 9999 FEW080 25/16 Q1011=
201107130115 METAR LIRA 130115Z 10003KT 9999 FEW080 25/14 Q1012=
201107130045 METAR LIRA 130045Z 10005KT 9999 FEW080 25/13 Q1012=
201107130015 METAR LIRA 130015Z 10003KT 9999 FEW080 25/13 Q1012=
201107122350 METAR LIRA 130045Z 10005KT 9999 FEW080 25/13 Q1012=
201107122345 METAR LIRA 122345Z 11006KT 9999 FEW080 25/11 Q1012=
201107122315 METAR LIRA 122315Z 12001KT 9999 FEW080 25/11 Q1012=
201107122245 METAR LIRA 122245Z 15002KT 9999 FEW080 25/12 Q1012=
201107122215 METAR LIRA 122215Z 24002KT 9999 FEW080 25/11 Q1012=
201107122145 METAR LIRA 122145Z 26004KT 9999 FEW080 26/11 Q1012=
201107122115 METAR LIRA 122115Z 00000KT 9999 FEW080 27/12 Q1013=
201107122045 METAR LIRA 122045Z 10003KT 9999 FEW080 27/11 Q1013=
201107122015 METAR LIRA 122015Z 20001KT 9999 FEW080 27/10 Q1013=
201107121945 METAR LIRA 121945Z 25003KT 9999 FEW080 28/11 Q1012=
201107121915 METAR LIRA 121915Z 24004KT 9999 FEW080 29/11 Q1012=
201107121845 METAR LIRA 121845Z 22002KT 9999 FEW080 30/11 Q1012=
201107121815 METAR LIRA 121815Z 25002KT CAVOK 31/11 Q1012=
201107121745 METAR LIRA 121745Z 26005KT CAVOK 32/12 Q1012=
201107121715 METAR LIRA 121715Z 28006KT 230V330 9999 FEW018 33/13 Q1012=
201107121645 METAR LIRA 121645Z 26006KT 230V310 9999 FEW018 34/15 Q1012=
201107121615 METAR LIRA 121615Z 24005KT 210V290 9999 FEW018 34/16 Q1012=
201107121545 METAR LIRA 121545Z 26006KT 200V320 9999 FEW018 34/16 Q1013=
201107121515 METAR LIRA 121515Z 27007KT 220V320 9999 FEW018 34/16 Q1013=
201107121445 METAR LIRA 121445Z 26008KT 210V300 9999 FEW018 35/16 Q1013=
201107121415 METAR LIRA 121415Z 26008KT 220V320 9999 FEW018 35/16 Q1013=
201107121345 METAR LIRA 121345Z 27008KT 220V300 9999 FEW018 35/15 Q1013=
201107121315 METAR LIRA 121315Z 27010KT 240V310 9999 FEW018 35/15 Q1013=
201107121245 METAR LIRA 121245Z 27008KT 210V340 CAVOK 35/15 Q1013=
201107121215 METAR LIRA 121215Z 27007KT 220V360 CAVOK 35/17 Q1013=
201107121145 METAR LIRA 121145Z 27005KT 280V360 CAVOK 36/19 Q1013=
201107121115 METAR LIRA 121115Z 25003KT 220V310 CAVOK 35/15 Q1014=
201107121045 METAR LIRA 121045Z 28005KT 250V340 CAVOK 35/16 Q1014=
201107121015 METAR LIRA 121015Z 27004G18KT 200V330 CAVOK 34/16 Q1014=
201107120945 METAR LIRA 120945Z 31004KT CAVOK 33/16 Q1014=
201107120915 METAR LIRA 120915Z 26003KT CAVOK 33/16 Q1014=
201107120845 METAR LIRA 120845Z 32002KT CAVOK 31/17 Q1014=
201107120815 METAR LIRA 120815Z 03002KT CAVOK 30/16 Q1014=
201107120745 METAR LIRA 120745Z 01002KT CAVOK 28/17 Q1014=
201107120715 METAR LIRA 120715Z 01003KT CAVOK 27/18 Q1014=
201107120645 METAR LIRA 120645Z 01003KT CAVOK 26/17 Q1013=
201107120615 METAR LIRA 120615Z 01003KT CAVOK 26/17 Q1013=
201107120545 METAR LIRA 120545Z 04002KT CAVOK 24/17 Q1013=
201107120515 METAR LIRA 120515Z 01002KT CAVOK 22/17 Q1013=
201107120445 METAR LIRA 120445Z 04004KT CAVOK 22/17 Q1013=
201107120415 METAR LIRA 120415Z 03003KT CAVOK 21/17 Q1013=
201107120345 METAR LIRA 120345Z 03004KT CAVOK 21/17 Q1013=
201107120315 METAR LIRA 120315Z 05005KT CAVOK 21/17 Q1013=
201107120245 METAR LIRA 120245Z 00000KT CAVOK 21/17 Q1013=
201107120215 METAR LIRA 120215Z 24001KT CAVOK 21/16 Q1013=
201107120145 METAR LIRA 120145Z 01001KT CAVOK 22/16 Q1013=
201107120115 METAR LIRA 120115Z 34001KT CAVOK 22/16 Q1013=
201107120045 METAR LIRA 120045Z 07002KT CAVOK 22/16 Q1013=
201107120015 METAR LIRA 120015Z 08003KT CAVOK 23/16 Q1014=
201107112350 METAR LIRA 120045Z 07002KT CAVOK 22/16 Q1013=
201107112345 METAR LIRA 112345Z 00000KT CAVOK 23/17 Q1014=
201107112315 METAR LIRA 112315Z 00000KT CAVOK 23/16 Q1014=
201107112245 METAR LIRA 112245Z 00000KT CAVOK 23/17 Q1014=
201107112215 METAR LIRA 112215Z 00000KT CAVOK 24/16 Q1014=
201107112145 METAR LIRA 112145Z 09002KT CAVOK 25/18 Q1014=
201107112115 METAR LIRA 112115Z 00000KT CAVOK 25/20 Q1014=
201107112045 METAR LIRA 112045Z 19001KT CAVOK 26/20 Q1014=
201107112015 METAR LIRA 112015Z 18002KT CAVOK 26/20 Q1014=
201107111945 METAR LIRA 111945Z 20002KT CAVOK 27/20 Q1014=
201107111915 METAR LIRA 111915Z 22003KT CAVOK 27/20 Q1014=
201107111845 METAR LIRA 111845Z 23004KT CAVOK 29/16 Q1014=
201107111815 METAR LIRA 111815Z 23004KT CAVOK 30/12 Q1014=
201107111745 METAR LIRA 111745Z 23005KT CAVOK 31/11 Q1014=
201107111715 METAR LIRA 111715Z 23003KT CAVOK 32/11 Q1014=
201107111645 METAR LIRA 111645Z 23005KT 200V280 CAVOK 32/12 Q1014=
201107111615 METAR LIRA 111615Z 25006KT 210V300 CAVOK 33/12 Q1014=
201107111545 METAR LIRA 111545Z 23007KT 180V290 CAVOK 33/09 Q1014=
201107111515 METAR LIRA 111515Z 25006KT 200V310 9999 FEW020 33/09 Q1014=
201107111445 METAR LIRA 111445Z 23006KT 190V310 9999 FEW020 33/10 Q1014=
201107111415 METAR LIRA 111415Z 24007KT 200V310 9999 FEW020 33/12 Q1014=
201107111345 METAR LIRA 111345Z 26008KT 210V320 CAVOK 33/13 Q1014=
201107111315 METAR LIRA 111315Z 22008KT 160V270 CAVOK 33/15 Q1015=
201107111245 METAR LIRA 111245Z 24006KT 190V310 CAVOK 33/14 Q1015=
201107111215 METAR LIRA 111215Z 23008KT 170V280 9999 FEW020 33/15 Q1015=
201107111145 METAR LIRA 111145Z 23007KT 160V280 9999 FEW020 32/16 Q1015=
201107111115 METAR LIRA 111115Z 21007KT 160V290 9999 FEW020 32/17 Q1015=
201107111045 METAR LIRA 111045Z 23007KT 180V270 9999 FEW020 32/17 Q1015=
201107111015 METAR LIRA 111015Z 24008KT 200V280 CAVOK 32/20 Q1015=
201107110945 METAR LIRA 110945Z 20008KT CAVOK 32/16 Q1015=
201107110915 METAR LIRA 110915Z 18008KT 160V220 CAVOK 31/16 Q1015=
201107110845 METAR LIRA 110845Z 18008KT 150V220 CAVOK 31/20 Q1015=
201107110815 METAR LIRA 110815Z 20005KT 150V230 CAVOK 30/19 Q1015=
201107110745 METAR LIRA 110745Z 18003KT CAVOK 28/18 Q1015=
201107110715 METAR LIRA 110715Z 06001KT CAVOK 26/19 Q1015=
201107110645 METAR LIRA 110645Z 35002KT CAVOK 25/19 Q1015=
201107110615 METAR LIRA 110615Z 06003KT 9999 FEW070 25/20 Q1015=
201107110545 METAR LIRA 110545Z 00000KT 9999 FEW070 22/18 Q1015=
201107110515 METAR LIRA 110515Z 00000KT 9999 FEW070 22/17 Q1015=
201107110445 METAR LIRA 110445Z 00000KT 9999 FEW070 21/17 Q1015=
201107110415 METAR LIRA 110415Z 16002KT 9999 FEW070 21/17 Q1015=
201107110345 METAR LIRA 110345Z 05002KT CAVOK 21/17 Q1015=
201107110315 METAR LIRA 110315Z 03001KT CAVOK 21/18 Q1015=
201107110245 METAR LIRA 110245Z 09002KT CAVOK 21/18 Q1015=
201107110215 METAR LIRA 110215Z 07001KT CAVOK 21/18 Q1015=
201107110145 METAR LIRA 110145Z 07002KT CAVOK 21/18 Q1015=
201107110115 METAR LIRA 110115Z 08003KT CAVOK 21/17 Q1015=
201107110045 METAR LIRA 110045Z 08002KT CAVOK 22/18 Q1015=
201107110015 METAR LIRA 110015Z 11002KT CAVOK 22/20 Q1016=
201107102350 METAR LIRA 110045Z 08002KT CAVOK 22/18 Q1015=
201107102345 METAR LIRA 102345Z 13001KT CAVOK 22/20 Q1016=
201107102315 METAR LIRA 102315Z 21003KT CAVOK 22/21 Q1015=
201107102245 METAR LIRA 102245Z 21003KT CAVOK 22/21 Q1015=
201107102215 METAR LIRA 102215Z 24003KT CAVOK 23/21 Q1015=
201107102145 METAR LIRA 102145Z 00000KT CAVOK 23/22 Q1015=
201107102115 METAR LIRA 102115Z 00000KT CAVOK 24/22 Q1016=
201107102045 METAR LIRA 102045Z 10001KT CAVOK 24/23 Q1016=
201107102015 METAR LIRA 102015Z 24002KT CAVOK 24/23 Q1016=
201107101945 METAR LIRA 101945Z 19003KT CAVOK 25/23 Q1015=
201107101915 METAR LIRA 101915Z 22003KT CAVOK 25/22 Q1015=
201107101845 METAR LIRA 101845Z 24006KT CAVOK 26/22 Q1015=
201107101815 METAR LIRA 101815Z 23005KT CAVOK 26/22 Q1015=
201107101745 METAR LIRA 101745Z 23006KT CAVOK 28/21 Q1015=
201107101715 METAR LIRA 101715Z 24008KT 210V290 CAVOK 29/21 Q1015=
201107101645 METAR LIRA 101645Z 22007KT 180V270 CAVOK 30/20 Q1015=
201107101615 METAR LIRA 101615Z 20009KT 170V230 CAVOK 31/21 Q1015=
201107101545 METAR LIRA 101545Z 21008KT 170V240 CAVOK 31/21 Q1015=
201107101515 METAR LIRA 101515Z 23008KT 180V270 CAVOK 31/19 Q1015=
201107101445 METAR LIRA 101445Z 21008KT 180V240 CAVOK 31/20 Q1016=
201107101415 METAR LIRA 101415Z 24010KT CAVOK 32/22 Q1016=
201107101345 METAR LIRA 101345Z 23009KT 170V270 CAVOK 34/22 Q1016=
201107101315 METAR LIRA 101315Z 21007KT 140V250 CAVOK 34/22 Q1015=
201107101245 METAR LIRA 101245Z 20007KT 160V250 CAVOK 34/20 Q1016=
201107101215 METAR LIRA 101215Z 17006KT 110V220 CAVOK 33/18 Q1016=
201107101145 METAR LIRA 101145Z 13004KT CAVOK 33/18 Q1016=
201107101115 METAR LIRA 101115Z 16005KT 080V210 CAVOK 34/19 Q1016=
201107101045 METAR LIRA 101045Z 14001KT 110V200 CAVOK 32/17 Q1017=
201107101015 METAR LIRA 101015Z 18005KT 130V230 CAVOK 31/18 Q1017=
201107100945 METAR LIRA 100945Z 20005KT 160V240 CAVOK 31/19 Q1017=
201107100915 METAR LIRA 100915Z 16006KT 130V200 CAVOK 30/18 Q1017=
201107100845 METAR LIRA 100845Z 17004KT 150V230 CAVOK 29/18 Q1017=
201107100815 METAR LIRA 100815Z 20003KT 150V260 CAVOK 29/19 Q1017=
201107100745 METAR LIRA 100745Z 19004KT 160V230 CAVOK 28/18 Q1017=
201107100715 METAR LIRA 100715Z 25003KT CAVOK 27/21 Q1017=
201107100645 METAR LIRA 100645Z 30003KT CAVOK 25/21 Q1017=
201107100615 METAR LIRA 100615Z 33001KT CAVOK 24/19 Q1017=
201107100545 METAR LIRA 100545Z 32001KT CAVOK 23/18 Q1017=
201107100515 METAR LIRA 100515Z 02002KT CAVOK 22/17 Q1017=
201107100445 METAR LIRA 100445Z 36001KT CAVOK 21/16 Q1017=
201107100415 METAR LIRA 100415Z 17001KT CAVOK 20/15 Q1017=
201107100345 METAR LIRA 100345Z 12003KT CAVOK 19/14 Q1017=
201107100315 METAR LIRA 100315Z 06004KT CAVOK 20/14 Q1017=
201107100245 METAR LIRA 100245Z 15002KT CAVOK 20/15 Q1017=
201107100215 METAR LIRA 100215Z 09003KT CAVOK 20/15 Q1017=
201107100145 METAR LIRA 100145Z 13001KT CAVOK 21/15 Q1017=
201107100115 METAR LIRA 100115Z 10001KT CAVOK 22/16 Q1017=
201107100045 METAR LIRA 100045Z 11004KT CAVOK 21/16 Q1017=
201107100015 METAR LIRA 100015Z 11004KT CAVOK 22/16 Q1017=
201107092350 METAR LIRA 100045Z 11004KT CAVOK 21/16 Q1017=
201107092345 METAR LIRA 092345Z 00000KT CAVOK 23/17 Q1017=
201107092315 METAR LIRA 092315Z 22002KT CAVOK 23/16 Q1017=
201107092245 METAR LIRA 092245Z 06002KT CAVOK 23/15 Q1017=
201107092215 METAR LIRA 092215Z 04002KT CAVOK 24/17 Q1017=
201107092145 METAR LIRA 092145Z 13004KT CAVOK 24/17 Q1017=
201107092115 METAR LIRA 092115Z 15003KT CAVOK 25/17 Q1017=
201107092045 METAR LIRA 092045Z 15003KT CAVOK 25/18 Q1017=
201107092015 METAR LIRA 092015Z 19006KT CAVOK 25/18 Q1017=
201107091945 METAR LIRA 091945Z 22006KT CAVOK 26/17 Q1017=
201107091915 METAR LIRA 091915Z 22005KT CAVOK 27/16 Q1017=
201107091845 METAR LIRA 091845Z 19006KT CAVOK 28/14 Q1017=
201107091815 METAR LIRA 091815Z 20007KT CAVOK 29/13 Q1017=
201107091745 METAR LIRA 091745Z 19009KT CAVOK 30/14 Q1017=
201107091715 METAR LIRA 091715Z 18010KT CAVOK 30/13 Q1017=
201107091645 METAR LIRA 091645Z 21010KT 170V240 CAVOK 30/13 Q1017=
201107091615 METAR LIRA 091615Z 22009KT 140V250 CAVOK 31/12 Q1017=
201107091545 METAR LIRA 091545Z 19012KT CAVOK 31/12 Q1017=
201107091515 METAR LIRA 091515Z 20011KT CAVOK 32/12 Q1017=
201107091445 METAR LIRA 091445Z 19012KT 150V250 CAVOK 32/13 Q1017=
201107091415 METAR LIRA 091415Z 20013KT 160V230 CAVOK 32/12 Q1017=
201107091345 METAR LIRA 091345Z 19011KT 150V250 CAVOK 32/12 Q1017=
201107091315 METAR LIRA 091315Z 15012KT 120V230 CAVOK 33/13 Q1017=
201107091245 METAR LIRA 091245Z 15012G22KT 120V210 CAVOK 34/13 Q1017=
201107091215 METAR LIRA 091215Z 13011KT 120V210 CAVOK 33/13 Q1017=
201107091145 METAR LIRA 091145Z 16011KT 130V220 CAVOK 33/13 Q1017=
201107091115 METAR LIRA 091115Z 18008KT 130V220 CAVOK 33/13 Q1017=
201107091045 METAR LIRA 091045Z 12003KT 110V230 CAVOK 33/15 Q1017=
201107091015 METAR LIRA 091015Z 16006KT 110V220 CAVOK 32/14 Q1018=
201107090945 METAR LIRA 090945Z 18009KT 140V220 CAVOK 32/15 Q1018=
201107090915 METAR LIRA 090915Z 17011KT 130V200 CAVOK 32/15 Q1018=
201107090845 METAR LIRA 090845Z 15010KT 140V210 CAVOK 31/15 Q1017=
201107090815 METAR LIRA 090815Z 17010KT 150V210 CAVOK 31/15 Q1017=
201107090745 METAR LIRA 090745Z 14007KT 120V230 CAVOK 30/15 Q1017=
201107090715 METAR LIRA 090715Z 34002KT CAVOK 28/18 Q1017=
201107090645 METAR LIRA 090645Z 36003KT CAVOK 27/18 Q1017=
201107090615 METAR LIRA 090615Z 02002KT CAVOK 24/19 Q1017=
201107090545 METAR LIRA 090545Z 03001KT CAVOK 24/19 Q1017=
201107090515 METAR LIRA 090515Z 04002KT CAVOK 22/18 Q1017=
201107090445 METAR LIRA 090445Z 04003KT CAVOK 21/17 Q1017=
201107090415 METAR LIRA 090415Z 06003KT CAVOK 20/16 Q1017=
201107090345 METAR LIRA 090345Z 08002KT CAVOK 20/16 Q1017=
201107090315 METAR LIRA 090315Z 04002KT CAVOK 20/16 Q1017=
201107090245 METAR LIRA 090245Z 00000KT CAVOK 21/16 Q1017=
201107090215 METAR LIRA 090215Z 00000KT CAVOK 21/16 Q1017=
201107090145 METAR LIRA 090145Z 00000KT CAVOK 21/16 Q1017=
201107090115 METAR LIRA 090115Z 07002KT CAVOK 22/16 Q1017=
201107090045 METAR LIRA 090045Z 11001KT CAVOK 22/16 Q1017=
201107090015 METAR LIRA 090015Z 10001KT CAVOK 22/17 Q1017=
201107082350 METAR LIRA 090045Z 11001KT CAVOK 22/16 Q1017=
201107082345 METAR LIRA 082345Z 10002KT CAVOK 22/17 Q1017=
201107082315 METAR LIRA 082315Z 10004KT CAVOK 22/18 Q1017=
201107082245 METAR LIRA 082245Z 11003KT CAVOK 23/19 Q1017=
201107082215 METAR LIRA 082215Z 16005KT CAVOK 24/21 Q1017=
201107082145 METAR LIRA 082145Z 16004KT CAVOK 24/22 Q1017=
201107082115 METAR LIRA 082115Z 20006KT CAVOK 25/22 Q1017=
201107082045 METAR LIRA 082045Z 19005KT 9999 FEW080 25/23 Q1017=
201107082015 METAR LIRA 082015Z 20005KT 9999 FEW080 26/21 Q1017=
201107081945 METAR LIRA 081945Z 15004KT 9999 FEW080 26/21 Q1016=
201107081915 METAR LIRA 081915Z 18008KT 9999 FEW080 27/20 Q1016=
201107081845 METAR LIRA 081845Z 20010KT 9999 FEW070 28/20 Q1016=
201107081815 METAR LIRA 081815Z 19011KT 160V230 9999 FEW070 29/19 Q1016=
201107081745 METAR LIRA 081745Z 20013KT 9999 FEW070 29/19 Q1016=
201107081715 METAR LIRA 081715Z 20013KT 9999 FEW070 30/18 Q1016=
201107081645 METAR LIRA 081645Z 20013KT 9999 FEW018 30/17 Q1016=
201107081615 METAR LIRA 081615Z 21009KT 9999 FEW018 31/16 Q1016=
201107081545 METAR LIRA 081545Z 20010KT 160V230 9999 FEW018 31/17 Q1016=
201107081515 METAR LIRA 081515Z 21010KT 140V240 9999 FEW018 32/18 Q1016=
201107081445 METAR LIRA 081445Z 18010KT 150V210 CAVOK 33/16 Q1016=
201107081415 METAR LIRA 081415Z 18010KT CAVOK 33/16 Q1016=
201107081345 METAR LIRA 081345Z 19011KT 160V220 CAVOK 32/16 Q1016=
201107081315 METAR LIRA 081315Z 19011KT 140V220 CAVOK 32/16 Q1016=
201107081245 METAR LIRA 081245Z 18012KT CAVOK 33/17 Q1016=
201107081215 METAR LIRA 081215Z 18011KT 140V220 CAVOK 32/16 Q1016=
201107081145 METAR LIRA 081145Z 19009KT 150V220 CAVOK 31/18 Q1016=
201107081115 METAR LIRA 081115Z 19009KT 160V230 CAVOK 31/18 Q1016=
201107081045 METAR LIRA 081045Z 18008KT 140V230 CAVOK 31/17 Q1016=
201107081015 METAR LIRA 081015Z 17008KT 140V220 CAVOK 31/17 Q1016=
201107080945 METAR LIRA 080945Z 17008KT 120V230 CAVOK 30/17 Q1016=
201107080915 METAR LIRA 080915Z 18009KT 150V210 CAVOK 30/17 Q1016=
201107080845 METAR LIRA 080845Z 16010KT CAVOK 30/16 Q1016=
201107080815 METAR LIRA 080815Z 17007KT CAVOK 29/16 Q1016=
201107080745 METAR LIRA 080745Z 08003KT CAVOK 29/17 Q1016=
201107080715 METAR LIRA 080715Z 05002KT CAVOK 27/18 Q1015=
201107080645 METAR LIRA 080645Z 02002KT CAVOK 26/18 Q1015=
201107080615 METAR LIRA 080615Z 35002KT CAVOK 24/18 Q1015=
201107080545 METAR LIRA 080545Z 26001KT CAVOK 23/18 Q1015=
201107080515 METAR LIRA 080515Z 28001KT CAVOK 22/18 Q1014=
201107080445 METAR LIRA 080445Z 11002KT CAVOK 20/17 Q1014=
201107080415 METAR LIRA 080415Z 08002KT CAVOK 20/16 Q1014=
201107080345 METAR LIRA 080345Z 10002KT 9999 FEW080 20/16 Q1014=
201107080315 METAR LIRA 080315Z 07001KT 9999 FEW080 20/16 Q1014=
201107080245 METAR LIRA 080245Z 15002KT 9999 FEW080 20/15 Q1014=
201107080215 METAR LIRA 080215Z 17001KT 9999 FEW080 20/16 Q1014=
201107080145 METAR LIRA 080145Z 18001KT 9999 FEW080 21/16 Q1014=
201107080115 METAR LIRA 080115Z 00000KT 9999 FEW080 21/16 Q1014=
201107080045 METAR LIRA 080045Z 16001KT 9999 FEW080 21/16 Q1014=
201107080015 METAR LIRA 080015Z 13005KT 9999 FEW080 21/16 Q1014=
201107072350 METAR LIRA 080045Z 16001KT 9999 FEW080 21/16 Q1014=
201107072345 METAR LIRA 072345Z 11005KT 9999 FEW080 22/17 Q1014=
201107072315 METAR LIRA 072315Z 12003KT 9999 FEW080 22/18 Q1014=
201107072245 METAR LIRA 072245Z 14001KT 9999 FEW080 22/18 Q1014=
201107072215 METAR LIRA 072215Z 00000KT 9999 FEW080 23/18 Q1014=
201107072145 METAR LIRA 072145Z 00000KT 9999 FEW080 23/17 Q1014=
201107072115 METAR LIRA 072115Z 00000KT CAVOK 24/17 Q1014=
201107072045 METAR LIRA 072045Z 18002KT 9999 FEW080 24/17 Q1014=
201107072015 METAR LIRA 072015Z 21001KT 9999 FEW080 24/17 Q1014=
201107071945 METAR LIRA 071945Z 22002KT 9999 FEW080 25/16 Q1014=
201107071915 METAR LIRA 071915Z 28002KT 9999 FEW080 25/16 Q1014=
201107071845 METAR LIRA 071845Z 23003KT 9999 FEW018 26/16 Q1014=
201107071815 METAR LIRA 071815Z 26003KT 9999 FEW018 27/17 Q1014=
201107071745 METAR LIRA 071745Z 27006KT 250V340 9999 FEW018 28/17 Q1014=
201107071715 METAR LIRA 071715Z 28005KT 220V330 9999 FEW018 29/16 Q1014=
201107071645 METAR LIRA 071645Z 27005KT 220V320 9999 FEW018 30/16 Q1014=
201107071615 METAR LIRA 071615Z 26005KT 220V300 9999 FEW018 30/14 Q1014=
201107071545 METAR LIRA 071545Z 25006KT 220V300 9999 FEW018 30/14 Q1014=
201107071515 METAR LIRA 071515Z 27006KT 240V310 9999 FEW018 30/14 Q1015=
201107071445 METAR LIRA 071445Z 24007KT 180V290 9999 FEW018 31/15 Q1015=
201107071415 METAR LIRA 071415Z 25006KT 200V280 9999 FEW018 31/14 Q1015=
201107071345 METAR LIRA 071345Z 23007KT 190V280 9999 FEW018 31/14 Q1015=
201107071315 METAR LIRA 071315Z 25007KT 200V010 9999 FEW018 31/14 Q1015=
201107071245 METAR LIRA 071245Z 26008KT 220V310 9999 FEW018 31/14 Q1015=
201107071215 METAR LIRA 071215Z 23008KT 170V280 CAVOK 31/14 Q1015=
201107071145 METAR LIRA 071145Z 27009KT 200V330 CAVOK 31/14 Q1015=
201107071115 METAR LIRA 071115Z 24008KT 190V300 CAVOK 32/16 Q1015=
201107071045 METAR LIRA 071045Z 25007KT 220V300 CAVOK 31/15 Q1015=
201107071015 METAR LIRA 071015Z 30004KT CAVOK 30/15 Q1015=
201107070945 METAR LIRA 070945Z 22003KT CAVOK 30/15 Q1015=
201107070915 METAR LIRA 070915Z 31005KT 250V050 CAVOK 29/16 Q1015=
201107070845 METAR LIRA 070845Z 34003KT CAVOK 29/16 Q1015=
201107070815 METAR LIRA 070815Z 25002KT CAVOK 27/16 Q1015=
201107070745 METAR LIRA 070745Z 32003KT CAVOK 27/19 Q1015=
201107070715 METAR LIRA 070715Z 32002KT CAVOK 26/18 Q1014=
201107070645 METAR LIRA 070645Z 02002KT CAVOK 25/19 Q1014=
201107070615 METAR LIRA 070615Z 04002KT CAVOK 25/20 Q1014=
201107070545 METAR LIRA 070545Z 05002KT CAVOK 24/20 Q1014=
201107070515 METAR LIRA 070515Z 10003KT CAVOK 22/19 Q1014=
201107070445 METAR LIRA 070445Z 11004KT CAVOK 21/18 Q1013=
201107070415 METAR LIRA 070415Z 12002KT CAVOK 20/18 Q1013=
201107070345 METAR LIRA 070345Z 13001KT CAVOK 21/19 Q1013=
201107070315 METAR LIRA 070315Z 12003KT CAVOK 20/18 Q1013=
201107070245 METAR LIRA 070245Z 13001KT CAVOK 21/19 Q1013=
201107070215 METAR LIRA 070215Z 14002KT CAVOK 21/19 Q1013=
201107070145 METAR LIRA 070145Z 16002KT CAVOK 21/20 Q1013=
201107070115 METAR LIRA 070115Z 17003KT CAVOK 22/20 Q1013=
201107070045 METAR LIRA 070045Z 15004KT CAVOK 22/20 Q1013=
201107070015 METAR LIRA 070015Z 15004KT CAVOK 22/20 Q1013=
201107062350 METAR LIRA 070045Z 15004KT CAVOK 22/20 Q1013=
201107062345 METAR LIRA 062345Z 19003KT CAVOK 22/20 Q1013=
201107062315 METAR LIRA 062315Z 20003KT CAVOK 22/20 Q1013=
201107062245 METAR LIRA 062245Z 19002KT CAVOK 23/20 Q1013=
201107062215 METAR LIRA 062215Z 21003KT CAVOK 23/19 Q1013=
201107062145 METAR LIRA 062145Z 21002KT CAVOK 24/19 Q1013=
201107062115 METAR LIRA 062115Z 19002KT CAVOK 24/18 Q1013=
201107062045 METAR LIRA 062045Z 20003KT CAVOK 25/18 Q1013=
201107062015 METAR LIRA 062015Z 19003KT CAVOK 25/18 Q1013=
201107061945 METAR LIRA 061945Z 18003KT CAVOK 25/18 Q1012=
201107061915 METAR LIRA 061915Z 20003KT CAVOK 25/18 Q1012=
201107061845 METAR LIRA 061845Z 23003KT CAVOK 26/18 Q1012=
201107061815 METAR LIRA 061815Z 25006KT 220V280 9999 FEW020 27/19 Q1012=
201107061745 METAR LIRA 061745Z 26006KT 220V300 9999 FEW020 27/19 Q1012=
201107061715 METAR LIRA 061715Z 26007KT 210V290 9999 FEW020 28/20 Q1011=
201107061645 METAR LIRA 061645Z 27007KT 200V310 9999 FEW020 28/19 Q1011=
201107061615 METAR LIRA 061615Z 26008KT 230V310 9999 FEW020 29/20 Q1011=
201107061545 METAR LIRA 061545Z 27008KT 230V320 9999 FEW020 29/20 Q1012=
201107061515 METAR LIRA 061515Z 25009G19KT 200V310 9999 FEW020 29/20 Q1011=
201107061445 METAR LIRA 061445Z 26009KT 220V300 9999 FEW020 29/20 Q1012=
201107061415 METAR LIRA 061415Z 28009KT 220V320 9999 SCT020 30/20 Q1012=
201107061345 METAR LIRA 061345Z 27008KT 220V310 9999 SCT020 30/20 Q1011=
201107061315 METAR LIRA 061315Z 29011KT 250V320 9999 SCT020 30/17 Q1011=
201107061245 METAR LIRA 061245Z 04004KT 9999 SCT020 30/15 Q1011=
201107061215 METAR LIRA 061215Z 01004KT 9999 SCT020 30/15 Q1011=
201107061145 METAR LIRA 061145Z 30006KT 260V010 9999 SCT020 29/16 Q1012=
201107061115 METAR LIRA 061115Z 06004KT 9999 SCT020 29/16 Q1012=
201107061045 METAR LIRA 061045Z 31006KT 290V010 9999 SCT020 28/17 Q1012=
201107061015 METAR LIRA 061015Z 16004KT 9999 SCT020 28/17 Q1012=
201107060945 METAR LIRA 060945Z 33004KT 280V010 9999 SCT020 27/18 Q1012=
201107060915 METAR LIRA 060915Z 32002KT 9999 FEW020 26/19 Q1012=
201107060845 METAR LIRA 060845Z 34003KT 9999 FEW020 26/19 Q1012=
201107060815 METAR LIRA 060815Z 36005KT 300V040 9999 FEW020 25/20 Q1012=
201107060745 METAR LIRA 060745Z 01005KT 9999 FEW020 25/20 Q1012=
201107060715 METAR LIRA 060715Z 35004KT 9999 FEW020 24/20 Q1012=
201107060645 METAR LIRA 060645Z 02003KT 9999 FEW010 23/19 Q1012=
201107060615 METAR LIRA 060615Z 01002KT 9999 FEW010 22/19 Q1012=
201107060545 METAR LIRA 060545Z 05002KT 9999 FEW010 21/19 Q1012=
201107060515 METAR LIRA 060515Z 05003KT 9999 FEW010 20/19 Q1012=
201107060445 METAR LIRA 060445Z 05002KT 9999 FEW010 20/18 Q1011=
201107060415 METAR LIRA 060415Z 04002KT 9999 SCT010 20/18 Q1011=
201107060345 METAR LIRA 060345Z 05002KT 9999 FEW020 20/19 Q1011=
201107060315 METAR LIRA 060315Z 00000KT 9999 FEW020 20/19 Q1011=
201107060245 METAR LIRA 060245Z 13001KT 9999 FEW020 20/18 Q1011=
201107060215 METAR LIRA 060215Z 06002KT 9999 FEW020 20/18 Q1011=
201107060145 METAR LIRA 060145Z 06002KT 9999 FEW020 20/19 Q1011=
201107060115 METAR LIRA 060115Z 00000KT 9999 FEW023TCU 20/19 Q1011=
201107060045 METAR LIRA 060045Z 00000KT 9999 FEW016TCU 20/19 Q1011=
201107060015 METAR LIRA 060015Z 15001KT 9999 FEW023 20/19 Q1011=
201107052350 METAR LIRA 060045Z 00000KT 9999 FEW016TCU 20/19 Q1011=
201107052345 METAR LIRA 052345Z 16002KT 9999 FEW023 21/20 Q1011=
201107052315 METAR LIRA 052315Z 15002KT 9999 FEW023 21/20 Q1011=
201107052245 METAR LIRA 052245Z 15002KT 9999 FEW023 21/20 Q1011=
201107052215 METAR LIRA 052215Z 23001KT 9999 FEW023 SCT080 21/20 Q1011=
201107052145 METAR LIRA 052145Z 24002KT 9999 FEW023 SCT080 22/20 Q1011=
201107052115 METAR LIRA 052115Z 23002KT 9999 FEW020 SCT080 22/20 Q1011=
201107052045 METAR LIRA 052045Z 21002KT 9999 FEW020 SCT080 22/21 Q1011=
201107052015 METAR LIRA 052015Z 00000KT 9999 FEW020 SCT080 23/21 Q1011=
201107051945 METAR LIRA 051945Z 24003KT 9999 FEW016 FEW017TCU SCT040 23/21
                        Q1011=
201107051915 METAR LIRA 051915Z 25001KT 9999 FEW016 FEW017TCU 24/21 Q1010=
201107051845 METAR LIRA 051845Z 24003KT 9999 FEW016 FEW017TCU 24/21 Q1010=
201107051815 METAR LIRA 051815Z 24003KT 9999 FEW016 FEW017TCU SCT025 25/21
                        Q1010=
201107051745 METAR LIRA 051745Z 23005KT 9999 FEW016 FEW017TCU SCT025 25/21
                        Q1010=
201107051715 METAR LIRA 051715Z 23006KT 9999 FEW016 FEW017TCU SCT025 25/21
                        Q1011=
201107051645 METAR LIRA 051645Z 22005KT 160V260 9999 SCT016 FEW017TCU
                        SCT025 25/21 Q1011=
201107051615 METAR LIRA 051615Z 21006KT 170V250 9999 SCT016 FEW017TCU
                        SCT025 26/21 Q1011=
201107051545 METAR LIRA 051545Z 21007KT 180V240 9999 BKN018 FEW020TCU
                        27/20 Q1010=
201107051515 METAR LIRA 051515Z 20007KT 150V250 9999 SCT018 FEW020TCU
                        SCT025 28/20 Q1010=
201107051445 METAR LIRA 051445Z 24006KT 220V290 9999 SCT018 FEW020TCU
                        SCT025 27/20 Q1010=
201107051415 METAR LIRA 051415Z 22006KT 180V260 9999 SCT018 FEW020TCU
                        SCT023 26/21 Q1010=
201107051345 METAR LIRA 051345Z 04003KT 9999 SCT018 FEW020TCU SCT023 26/21
                        Q1010=
201107051315 METAR LIRA 051315Z 02004KT 9999 SCT018 FEW020TCU SCT023 27/20
                        Q1011=
201107051245 METAR LIRA 051245Z 23006KT 180V280 9999 FEW018 FEW020TCU
                        SCT023 27/20 Q1011=
201107051215 METAR LIRA 051215Z 23009KT 9999 FEW016 FEW018TCU SCT023 27/21
                        Q1011=
201107051145 METAR LIRA 051145Z 24007KT 210V280 9999 SCT018 SCT025 26/20
                        Q1011=
201107051115 METAR LIRA 051115Z 25004KT 190V280 9999 FEW018 SCT025 26/21
                        Q1012=
201107051045 METAR LIRA 051045Z 27005KT 9999 FEW016 SCT025 25/20 Q1012=
201107051015 METAR LIRA 051015Z 09003KT 9999 SCT016 SCT070 24/20 Q1012=
201107050945 METAR LIRA 050945Z 08004KT 9999 FEW016 SCT025 22/18 Q1013=
201107050915 METAR LIRA 050915Z 10007KT 9999 FEW016 SCT025 20/19 Q1013
                        RETS=
201107050845 METAR LIRA 050845Z 06004KT 9999 -RA FEW002 BKN025 18/18 Q1013
                        RETS=
201107050815 METAR LIRA 050815Z 08008KT 040V100 9999 -TSRA SCT012 FEW018CB
                        SCT025 17/17 Q1013=
201107050745 METAR LIRA 050745Z 05009KT 010V090 7000 3000S TS RA BR SCT012
                        SCT016CB 17/17 Q1014=
201107050715 METAR LIRA 050715Z 23012G34KT 150V340 8000 TSRA SCT012 SCT016CB
                        25/21 Q1014=
201107050645 METAR LIRA 050645Z 16012KT 9999 FEW016 FEW018CB SCT040 25/21
                        Q1012=
201107050615 METAR LIRA 050615Z 15013KT 9999 FEW016 FEW018CB SCT060 25/21
                        Q1011=
201107050545 METAR LIRA 050545Z 16011KT 9999 SCT018 SCT060 25/21 Q1012=
201107050515 METAR LIRA 050515Z 15013KT 9999 SCT013 FEW018TCU 24/21 Q1012=
201107050445 METAR LIRA 050445Z 17013KT 9999 SCT013 FEW018TCU 24/20 Q1012=
201107050415 METAR LIRA 050415Z 14014KT 9999 SCT013 24/20 Q1012=
201107050345 METAR LIRA 050345Z 15011KT 9999 FEW016 23/18 Q1013=
201107050315 METAR LIRA 050315Z 18007G17KT 150V230 9999 FEW016 23/16 Q1013=
201107050245 METAR LIRA 050245Z 15008KT CAVOK 22/13 Q1013=
201107050215 METAR LIRA 050215Z 25004KT CAVOK 21/15 Q1013=
201107050145 METAR LIRA 050145Z 06006KT 030V100 CAVOK 21/15 Q1013=
201107050115 METAR LIRA 050115Z 11007KT CAVOK 23/17 Q1014=
201107050045 METAR LIRA 050045Z 16009KT CAVOK 23/18 Q1014=
201107050015 METAR LIRA 050015Z 16009KT 9999 FEW070 24/15 Q1014=
201107042350 METAR LIRA 050045Z 16009KT CAVOK 23/18 Q1014=
201107042345 METAR LIRA 042345Z 22004KT 9999 SCT070 22/16 Q1014=
201107042315 METAR LIRA 042315Z 00000KT 9999 FEW070 22/15 Q1015=
201107042245 METAR LIRA 042245Z 04001KT CAVOK 22/15 Q1015=
201107042215 METAR LIRA 042215Z 12004KT CAVOK 22/17 Q1015=
201107042145 METAR LIRA 042145Z 11004KT 9999 FEW060 23/18 Q1015=
201107042115 METAR LIRA 042115Z 17006KT 130V200 CAVOK 24/18 Q1015=
201107042045 METAR LIRA 042045Z 14007KT CAVOK 23/20 Q1015=
201107042015 METAR LIRA 042015Z 19005KT 9999 FEW020 SCT070 24/21 Q1015=
201107041945 METAR LIRA 041945Z 18006KT 160V220 9999 FEW020 SCT060 24/20
                        Q1015=
201107041915 METAR LIRA 041915Z 19005KT 9999 FEW030 SCT060 25/19 Q1015=
201107041845 METAR LIRA 041845Z 23003KT 9999 FEW030 SCT060 25/18 Q1015=
201107041815 METAR LIRA 041815Z 25002KT 9999 FEW030 SCT060 26/13 Q1015=
201107041745 METAR LIRA 041745Z 27005KT 9999 FEW025 SCT060 26/11 Q1015=
201107041715 METAR LIRA 041715Z 06003KT 9999 FEW025 SCT070 26/11 Q1014=
201107041645 METAR LIRA 041645Z 12007KT 9999 FEW025 SCT070 26/12 Q1015=
201107041615 METAR LIRA 041615Z 16005KT 9999 FEW030 SCT080 26/13 Q1016=
201107041545 METAR LIRA 041545Z 20004KT 9999 FEW030 BKN070 26/14 Q1016=
201107041515 METAR LIRA 041515Z 23006KT 9999 FEW030 BKN070 26/13 Q1016=
201107041445 METAR LIRA 041445Z 24007KT 200V280 9999 FEW030 BKN070 27/12
                        Q1016=
201107041415 METAR LIRA 041415Z 25006KT 220V300 9999 FEW030 BKN070 27/10
                        Q1017=
201107041345 METAR LIRA 041345Z 23007KT 9999 FEW030 SCT070 28/11 Q1017=
201107041315 METAR LIRA 041315Z 24009KT 190V280 9999 FEW030 SCT070 29/12
                        Q1017=
201107041245 METAR LIRA 041245Z 23011KT 200V270 9999 FEW030 SCT070 30/13
                        Q1016=
201107041215 METAR LIRA 041215Z 24009G20KT 200V290 9999 FEW030 29/14 Q1016=
201107041145 METAR LIRA 041145Z 25007KT 210V290 9999 FEW030 30/16 Q1016=
201107041115 METAR LIRA 041115Z 27003KT 9999 FEW030 30/16 Q1016=
201107041045 METAR LIRA 041045Z 28005KT 240V300 9999 FEW030 30/17 Q1016=
201107041015 METAR LIRA 041015Z 25004KT 270V340 9999 FEW030 29/17 Q1016=
201107041000 METAR LIRA CONTUS=
201107040945 METAR LIRA 040945Z 08002KT 9999 FEW030 28/18 Q1016=
201107040915 METAR LIRA 040915Z 21002KT 9999 FEW030 27/17 Q1016=
201107040845 METAR LIRA 040845Z 20004KT 9999 FEW030 25/20 Q1016=
201107040815 METAR LIRA 040815Z 07001KT 9999 FEW030 24/20 Q1016=
201107040745 METAR LIRA 040745Z 07003KT 9999 FEW030 23/19 Q1015=
201107040715 METAR LIRA 040715Z 12001KT 9999 FEW030 22/18 Q1015=
201107040645 METAR LIRA 040645Z 23001KT 9999 FEW030 21/18 Q1015=
201107040615 METAR LIRA 040615Z 09002KT 9999 FEW025 20/17 Q1014=
201107040545 METAR LIRA 040545Z 07003KT 9999 FEW025 19/17 Q1014=
201107040515 METAR LIRA 040515Z 10003KT 8000 FEW025 19/16 Q1014=
201107040445 METAR LIRA 040445Z 14002KT 8000 FEW030 SCT080 18/15 Q1013=
201107040415 METAR LIRA 040415Z 13002KT 8000 FEW040 18/16 Q1013=
201107040345 METAR LIRA 040345Z 00000KT 8000 FEW080 17/15 Q1012=
201107040315 METAR LIRA 040315Z 14004KT 9999 FEW080 17/15 Q1012=
201107040245 METAR LIRA 040245Z 24004KT 9999 FEW080 17/16 Q1012=
201107040215 METAR LIRA 040215Z 00000KT 9999 FEW080 17/16 Q1012=
201107040145 METAR LIRA 040145Z 00000KT 9999 FEW080 17/16 Q1012=
201107040115 METAR LIRA 040115Z 27002KT 9999 FEW080 18/16 Q1012=
201107040045 METAR LIRA 040045Z 07003KT 9999 FEW080 18/16 Q1013=
201107040015 METAR LIRA 040015Z 09004KT 9999 FEW070 18/15 Q1013=
201107032350 METAR LIRA 040045Z 07003KT 9999 FEW080 18/16 Q1013=
201107032345 METAR LIRA 032345Z 09003KT 9999 FEW070 18/16 Q1013=
201107032315 METAR LIRA 032315Z 10003KT 9999 FEW070 19/16 Q1013=
201107032245 METAR LIRA 032245Z 11004KT 9999 FEW070 19/17 Q1013=
201107032215 METAR LIRA 032215Z 10004KT 9999 FEW020 20/17 Q1013=
201107032145 METAR LIRA 032145Z 15003KT 9999 FEW020 20/18 Q1013=
201107032115 METAR LIRA 032115Z 20001KT 9999 FEW020 20/18 Q1013=
201107032045 METAR LIRA 032045Z 21002KT CAVOK 21/18 Q1012=
201107032015 METAR LIRA 032015Z 22003KT 9999 FEW020 21/18 Q1012=
201107031945 METAR LIRA 031945Z 24003KT 9999 FEW020 21/18 Q1012=
201107031915 METAR LIRA 031915Z 27004KT 9999 FEW020 22/18 Q1012=
201107031845 METAR LIRA 031845Z 26004KT 220V310 9999 FEW020 23/18 Q1012=
201107031815 METAR LIRA 031815Z 27006KT 9999 FEW020 24/17 Q1011=
201107031745 METAR LIRA 031745Z 25006KT 220V300 9999 FEW020 24/17 Q1011=
201107031715 METAR LIRA 031715Z 27006KT 190V300 9999 FEW020 25/17 Q1011=
201107031645 METAR LIRA 031645Z 24002KT 200V310 9999 FEW020 25/16 Q1011=
201107031615 METAR LIRA 031615Z 26009KT 230V300 9999 FEW020 25/16 Q1010=
201107031545 METAR LIRA 031545Z 26008KT 210V300 9999 FEW020 27/16 Q1010=
201107031515 METAR LIRA 031515Z 26008KT 210V300 9999 FEW020 27/16 Q1010=
201107031445 METAR LIRA 031445Z 26008KT 210V300 9999 FEW025 27/16 Q1010=
201107031415 METAR LIRA 031415Z 25007KT 210V300 9999 SCT025 27/16 Q1010=
201107031345 METAR LIRA 031345Z 26008KT 220V300 9999 SCT025 27/16 Q1010=
201107031315 METAR LIRA 031315Z 24010KT 200V280 9999 FEW015TCU SCT025
                        27/17 Q1010=
201107031245 METAR LIRA 031245Z 23009KT 210V290 9999 FEW015TCU SCT025
                        27/17 Q1010=
201107031215 METAR LIRA 031215Z 27006KT 210V340 9999 FEW015TCU BKN025
                        26/16 Q1010=
201107031145 METAR LIRA 031145Z 23007KT 180V280 9999 FEW015TCU BKN025
                        26/16 Q1010=
201107031115 METAR LIRA 031115Z 25009KT 220V280 9999 FEW020 BKN025 26/15
                        Q1010=
201107031045 METAR LIRA 031045Z 24004KT 220V310 9999 FEW020 BKN025 26/14
                        Q1010=
201107031015 METAR LIRA 031015Z 06002KT 9999 FEW020 BKN025 26/14 Q1010=
201107030945 METAR LIRA 030945Z 28004KT 9999 FEW020 BKN025 26/15 Q1010=
201107030915 METAR LIRA 030915Z 35004KT 9999 FEW020 SCT025 25/15 Q1010=
201107030845 METAR LIRA 030845Z 22003KT 9999 FEW020 BKN025 25/15 Q1010=
201107030815 METAR LIRA 030815Z 12003KT 9999 FEW020 24/14 Q1010=
201107030745 METAR LIRA 030745Z 01003KT 9999 FEW020 24/14 Q1010=
201107030715 METAR LIRA 030715Z 32004KT 9999 FEW020 23/15 Q1010=
201107030645 METAR LIRA 030645Z 01004KT 9999 FEW020 20/13 Q1010=
201107030615 METAR LIRA 030615Z 03004KT 9999 FEW020 20/14 Q1009=
201107030545 METAR LIRA 030545Z 05004KT 9999 FEW020 SCT070 19/14 Q1009=
201107030515 METAR LIRA 030515Z 03004KT 9999 FEW020 SCT070 18/16 Q1009=
201107030445 METAR LIRA 030445Z 03005KT 9999 FEW020 SCT070 18/16 Q1009=
201107030415 METAR LIRA 030415Z 02003KT 9999 FEW020 FEW022TCU 18/17 Q1009=
201107030345 METAR LIRA 030345Z 04004KT 9999 FEW020 FEW022TCU SCT070 18/16
                        Q1009=
201107030315 METAR LIRA 030315Z 05004KT 9999 FEW020 SCT070 18/16 Q1009=
201107030245 METAR LIRA 030245Z 04005KT 9999 FEW020 SCT060 18/16 Q1009=
201107030215 METAR LIRA 030215Z 05004KT 9999 FEW020TCU SCT070 18/16 Q1009=
201107030145 METAR LIRA 030145Z 01004KT 9999 FEW020TCU SCT070 18/15 Q1009=
201107030115 METAR LIRA 030115Z 03004KT 9999 FEW020TCU SCT060 18/15 Q1009=
201107030045 METAR LIRA 030045Z 04003KT 9999 FEW020 19/15 Q1009=
201107030015 METAR LIRA 030015Z 03003KT 9999 SCT020 19/15 Q1009=
201107022350 METAR LIRA 030045Z 04003KT 9999 FEW020 19/15 Q1009=
201107022345 METAR LIRA 022345Z 02002KT 9999 FEW020 20/15 Q1009=
201107022315 METAR LIRA 022315Z 04003KT 9999 FEW020 20/15 Q1009=
201107022245 METAR LIRA 022245Z 08001KT 9999 FEW020 20/15 Q1009=
201107022215 METAR LIRA 022215Z 04001KT 9999 FEW025 SCT070 20/15 Q1009=
201107022145 METAR LIRA 022145Z 09002KT 9999 FEW080 20/15 Q1009=
201107022115 METAR LIRA 022115Z 11004KT CAVOK 20/15 Q1009=
201107022045 METAR LIRA 022045Z 10005KT 9999 FEW030 20/14 Q1009=
201107022015 METAR LIRA 022015Z 13003KT 9999 FEW030 21/14 Q1009=
201107021945 METAR LIRA 021945Z 16001KT 9999 FEW018 21/14 Q1009=
201107021915 METAR LIRA 021915Z 23001KT 9999 FEW018 22/14 Q1009=
201107021845 METAR LIRA 021845Z 24004KT 9999 SCT018 21/13 Q1009=
201107021815 METAR LIRA 021815Z 25003KT 9999 SCT018 23/14 Q1009=
201107021745 METAR LIRA 021745Z 24003KT 9999 FEW018 SCT070 23/16 Q1009=
201107021715 METAR LIRA 021715Z 23007KT CAVOK 24/16 Q1008=
201107021645 METAR LIRA 021645Z 24006KT 180V310 9999 SCT018 SCT060 25/16
                        Q1008=
201107021615 METAR LIRA 021615Z 23008KT 190V270 9999 FEW018 SCT070 24/14
                        Q1008=
201107021545 METAR LIRA 021545Z 24010KT 200V270 9999 SCT018 24/14 Q1008=
201107021515 METAR LIRA 021515Z 23010KT 180V270 9999 SCT018 24/16 Q1008=
201107021445 METAR LIRA 021445Z 22009KT 190V270 9999 SCT018 25/16 Q1008=
201107021415 METAR LIRA 021415Z 22012KT 200V260 9999 SCT018 25/15 Q1008=
201107021345 METAR LIRA 021345Z 22013KT 180V240 9999 SCT018 24/17 Q1008=
201107021315 METAR COR LIRA 021315Z 22011G22KT 180V260 9999 SCT018 FEW020TCU
                        25/18 Q1009=
201107021245 METAR LIRA 021245Z 22011KT 180V240 9999 SCT018 FEW020TCU
                        25/18 Q1009=
201107021215 METAR LIRA 021215Z 23011KT 190V280 9999 SCT018 FEW020TCU
                        25/19 Q1009=
201107021145 METAR LIRA 021145Z 22010KT 170V250 9999 SCT018 FEW020TCU
                        25/16 Q1009=
201107021115 METAR LIRA 021115Z 21012KT 170V260 9999 SCT018 25/16 Q1009=
201107021045 METAR LIRA 021045Z 19012KT 150V230 9999 SCT018 25/17 Q1009=
201107021015 METAR LIRA 021015Z 19010KT 9999 SCT018 25/19 Q1009=
201107020945 METAR LIRA 020945Z 17011KT 140V210 9999 SCT018 25/15 Q1009=
201107020915 METAR LIRA 020915Z 15011KT 120V220 9999 SCT018 25/15 Q1009=
201107020845 METAR LIRA 020845Z 15008KT 120V180 9999 SCT018 25/16 Q1009=
201107020815 METAR LIRA 020815Z 16007KT 120V200 9999 SCT018 24/16 Q1009=
201107020745 METAR LIRA 020745Z 09004KT 080V190 9999 SCT018 24/16 Q1009=
201107020715 METAR LIRA 020715Z 11006KT 060V160 9999 SCT018 23/16 Q1009=
201107020645 METAR LIRA 020645Z 17008KT 9999 SCT018 22/17 Q1009=
201107020615 METAR LIRA 020615Z 18008KT 9999 FEW018 22/18 Q1009=
201107020545 METAR LIRA 020545Z 17005KT 9999 FEW018 22/18 Q1009=
201107020515 METAR LIRA 020515Z 17005KT 9999 FEW018 21/17 Q1009=
201107020445 METAR LIRA 020445Z 15006KT 9999 FEW018 20/17 Q1009=
201107020415 METAR LIRA 020415Z 15005KT 9999 FEW016 19/17 Q1009=
201107020345 METAR LIRA 020345Z 15005KT 9999 FEW016 19/17 Q1010=
201107020315 METAR LIRA 020315Z 16005KT 9999 FEW016 19/17 Q1010=
201107020245 METAR LIRA 020245Z 15006KT 9999 FEW016 19/17 Q1010=
201107020215 METAR LIRA 020215Z 15005KT 9999 FEW016 19/17 Q1010=
201107020145 METAR LIRA 020145Z 15006KT 9999 FEW016 20/17 Q1010=
201107020115 METAR LIRA 020115Z 15006KT 9999 FEW018 19/17 Q1010=
201107020045 METAR LIRA 020045Z 18005KT 9999 FEW020 20/18 Q1010=
201107020015 METAR LIRA 020015Z 18004KT 9999 FEW010 20/18 Q1011=
201107012350 METAR LIRA 020045Z 18005KT 9999 FEW020 20/18 Q1010=
201107012345 METAR LIRA 012345Z 18004KT 9999 FEW010 20/18 Q1011=
201107012315 METAR LIRA 012315Z 19003KT 9999 FEW010 20/18 Q1011=
201107012245 METAR LIRA 012245Z 19004KT 9999 FEW010 20/18 Q1011=
201107012215 METAR LIRA 012215Z 16004KT 9999 FEW010 20/18 Q1011=
201107012145 METAR LIRA 012145Z 17004KT 9999 FEW010 20/18 Q1011=
201107012115 METAR LIRA 012115Z 18004KT 9999 FEW010 20/18 Q1011=
201107012045 METAR LIRA 012045Z 20005KT 9999 FEW010 20/18 Q1011=
201107012015 METAR LIRA 012015Z 20005KT 9999 FEW010 20/18 Q1011=
201107011945 METAR LIRA 011945Z 22004KT 9999 FEW030 21/18 Q1011=
201107011915 METAR LIRA 011915Z 23003KT 9999 FEW030 21/17 Q1011=
201107011845 METAR LIRA 011845Z 23004KT 9999 FEW030 22/15 Q1011=
201107011815 METAR LIRA 011815Z 22005KT 9999 FEW030 23/15 Q1011=
201107011745 METAR LIRA 011745Z 23006KT 9999 FEW020 24/16 Q1011=
201107011715 METAR LIRA 011715Z 22008KT 180V250 9999 FEW015 25/14 Q1011=
201107011645 METAR LIRA 011645Z 23005KT 190V270 9999 FEW015 SCT025 25/15
                        Q1010=
201107011615 METAR LIRA 011615Z 21007KT 180V250 9999 SCT025 BKN070 24/18
                        Q1011=
201107011545 METAR LIRA 011545Z 23009KT 210V280 9999 SCT015 SCT070 25/18
                        Q1011=
201107011515 METAR LIRA 011515Z 24008KT 190V270 9999 SCT015 SCT070 25/18
                        Q1011=
201107011445 METAR LIRA 011445Z 22009KT 180V250 9999 SCT015 26/19 Q1011=
201107011415 METAR LIRA 011415Z 23010KT 170V280 9999 SCT015 SCT025 26/19
                        Q1011=
201107011345 METAR LIRA 011345Z 22009KT 200V270 9999 SCT015 27/19 Q1011=
201107011315 METAR LIRA 011315Z 23010KT 9999 SCT015 27/19 Q1011=
201107011245 METAR LIRA 011245Z 23010KT 9999 SCT015 27/19 Q1011=
201107011215 METAR LIRA 011215Z 23008KT 100V260 9999 SCT015 27/19 Q1012=
201107011145 METAR LIRA 011145Z 23008KT 190V260 9999 SCT015 26/19 Q1012=
201107011115 METAR LIRA 011115Z 22006KT 180V270 9999 SCT015 SCT025 26/19
                        Q1012=
201107011045 METAR LIRA 011045Z 23007KT 180V290 9999 SCT015 SCT025 25/20
                        Q1012=
201107011015 METAR LIRA 011015Z 26005KT 220V310 9999 SCT015 SCT025 25/20
                        Q1012=
201107010945 METAR LIRA 010945Z 22005KT 180V260 9999 SCT015 BKN025 26/21
                        Q1012=
201107010915 METAR LIRA 010915Z 22005KT 160V250 9999 SCT015 BKN025 26/21
                        Q1012=
201107010845 METAR LIRA 010845Z 19007KT 170V250 9999 SCT015 BKN025 24/20
                        Q1012=
201107010815 METAR LIRA 010815Z 20005KT 130V230 9999 SCT015 BKN025 24/20
                        Q1012=
201107010745 METAR LIRA 010745Z 22006KT 8000 SCT015 BKN025 24/19 Q1011=
201107010715 METAR LIRA 010715Z 20005KT 160V240 8000 FEW010 SCT025 24/20
                        Q1011=
201107010645 METAR LIRA 010645Z 20004KT 8000 FEW010 SCT025 23/19 Q1011=
201107010615 METAR LIRA 010615Z 20003KT 8000 SCT010 SCT025 23/19 Q1011=
201107010545 METAR LIRA 010545Z 22002KT 8000 BKN010 SCT015 22/19 Q1011=
201107010515 METAR LIRA 010515Z 19003KT 8000 BKN010 SCT015 22/19 Q1011=
201107010445 METAR LIRA 010445Z 18002KT 8000 BKN010 SCT015 22/20 Q1011=
201107010415 METAR LIRA 010415Z 23001KT 8000 SCT010 SCT015 22/20 Q1011=
201107010345 METAR LIRA 010345Z 24002KT 7000 FEW010 BKN014 22/20 Q1011=
201107010315 METAR LIRA 010315Z 23004KT 7000 FEW010 SCT015 22/20 Q1011=
201107010245 METAR LIRA 010245Z 20002KT 8000 FEW010 SCT016 22/20 Q1011=
201107010215 METAR LIRA 010215Z 22002KT 8000 FEW010 SCT018 22/20 Q1011=
201107010145 METAR LIRA 010145Z 22002KT 8000 FEW010 SCT018 21/19 Q1011=
201107010115 METAR LIRA 010115Z 19003KT 8000 FEW010 SCT018 22/20 Q1011=
201107010045 METAR LIRA 010045Z 18003KT 9999 FEW010 SCT020 BKN070 22/20
                        Q1012=
201107010015 METAR LIRA 010015Z 19003KT 9999 FEW010 SCT025 BKN070 22/20
                        Q1012=

</pre>

</body>
</html>
