##########################################################
# Query made at 11/10/2014 14:24:21 UTC
# Time interval: from 07/01/2008 00:00  to 07/31/2008 23:59  UTC
##########################################################

##########################################################
# LIRA, Roma / Ciampino (Italy)
# WMO index: 16239
# Latitude 41-47N. Longitude 012-35E. Altitude 129 m.
##########################################################

###################################
#  METAR/SPECI from LIRA
###################################
200807312345 METAR LIRA 312345Z 24002KT CAVOK 23/19 Q1016=
200807312315 METAR LIRA 312315Z 12001KT CAVOK 24/21 Q1016=
200807312245 METAR LIRA 312245Z 11002KT CAVOK 24/21 Q1016=
200807312215 METAR LIRA 312215Z 00000KT CAVOK 24/21 Q1016=
200807312145 METAR LIRA 312145Z 00000KT 9999 FEW080 24/20 Q1016=
200807312115 METAR LIRA 312115Z 00000KT CAVOK 25/20 Q1016=
200807312045 METAR LIRA 312045Z 21002KT CAVOK 26/19 Q1016=
200807312015 METAR LIRA 312015Z 23003KT 9999 FEW035 SCT200 26/17 Q1016=
200807311945 METAR LIRA 311945Z 28003KT 9999 FEW030CB SCT200 27/17 Q1016=
200807311915 METAR LIRA 311915Z 28003KT 9999 FEW030CB SCT200 28/16 Q1016=
200807311845 METAR LIRA 311845Z 24004KT 9999 FEW030CB SCT200 29/15 Q1016=
200807311815 METAR LIRA 311815Z 26003KT 9999 FEW030CB SCT200 30/15 Q1016=
200807311745 METAR LIRA 311745Z 24004KT 9999 FEW025 FEW030CB SCT200 31/15
                        Q1016=
200807311715 METAR LIRA 311715Z 28003KT 9999 FEW025 FEW030CB SCT200 31/15
                        Q1016=
200807311645 METAR LIRA 311645Z 24006KT 210V270 9999 FEW025TCU FEW030CB
                        SCT200 32/15 Q1016=
200807311615 METAR LIRA 311615Z 26004KT 210V270 9999 FEW025TCU FEW030CB
                        SCT200 32/14 Q1016=
200807311545 METAR LIRA 311545Z 25008KT 200V310 9999 FEW020 FEW022CB 33/14
                        Q1016=
200807311515 METAR LIRA 311515Z 26008KT 210V330 9999 FEW020 FEW022TCU
                        33/14 Q1015=
200807311445 METAR LIRA 311445Z 26008KT 210V330 9999 FEW020 FEW022TCU
                        33/15 Q1015=
200807311415 METAR LIRA 311415Z 25010KT 210V330 9999 FEW020 FEW022TCU
                        33/15 Q1015=
200807311345 METAR LIRA 311345Z 29012KT 230V350 9999 FEW020 34/15 Q1016=
200807311315 METAR LIRA 311315Z 26009KT 210V310 9999 FEW020 FEW022TCU
                        34/16 Q1016=
200807311245 METAR LIRA 311245Z 27009KT 210V320 9999 FEW020 FEW022TCU
                        35/16 Q1016=
200807311215 METAR LIRA 311215Z 27009KT 210V310 9999 FEW020 FEW022TCU
                        35/18 Q1016=
200807311145 METAR LIRA 311145Z 25005KT 210V340 9999 FEW022 34/17 Q1016=
200807311115 METAR LIRA 311115Z 34005KT 210V350 9999 FEW022 34/17 Q1016=
200807311045 METAR LIRA 311045Z 31006KT 9999 FEW022 33/17 Q1017=
200807311015 METAR LIRA 311015Z 26004KT 180V310 9999 FEW022 32/17 Q1017=
200807310945 METAR LIRA 310945Z 34004KT 9999 FEW022 31/17 Q1017=
200807310915 METAR LIRA 310915Z 35004KT CAVOK 30/18 Q1017=
200807310845 METAR LIRA 310845Z 01003KT CAVOK 29/18 Q1017=
200807310815 METAR LIRA 310815Z 01003KT CAVOK 28/19 Q1017=
200807310745 METAR LIRA 310745Z 03004KT CAVOK 27/19 Q1017=
200807310715 METAR LIRA 310715Z 01004KT CAVOK 25/19 Q1017=
200807310645 METAR LIRA 310645Z 04003KT CAVOK 24/18 Q1017=
200807310615 METAR LIRA 310615Z 01005KT CAVOK 24/19 Q1017=
200807310545 METAR LIRA 310545Z 01002KT CAVOK 22/20 Q1016=
200807310515 METAR LIRA 310515Z 03001KT CAVOK 22/19 Q1016=
200807310500 METAR LIRA INTER=
200807310445 METAR LIRA 310445Z 06001KT CAVOK 22/20 Q1016=
200807310415 METAR LIRA 310415Z 00000KT CAVOK 22/19 Q1016=
200807310400 METAR LIRA INTER=
200807310345 METAR LIRA 310345Z 11001KT CAVOK 22/19 Q1016=
200807310315 METAR LIRA 310315Z 11002KT CAVOK 22/20 Q1016=
200807310245 METAR LIRA 310245Z 00000KT CAVOK 22/20 Q1017=
200807310215 METAR LIRA 310215Z 00000KT CAVOK 23/20 Q1017=
200807310145 METAR LIRA 310145Z 00000KT CAVOK 23/21 Q1017=
200807310115 METAR LIRA 310115Z 18002KT CAVOK 23/20 Q1017=
200807310045 METAR LIRA 310045Z 18002KT CAVOK 23/20 Q1017=
200807310015 METAR LIRA 310015Z 19002KT CAVOK 24/20 Q1017=
200807302345 METAR LIRA 302345Z 21002KT CAVOK 24/20 Q1017=
200807302045 METAR LIRA 302045Z 20004KT CAVOK 25/21 Q1017=
200807302015 METAR LIRA 302015Z 19004KT CAVOK 26/22 Q1017=
200807301945 METAR LIRA 301945Z 19007KT CAVOK 27/19 Q1017=
200807301915 METAR LIRA 301915Z 20006KT CAVOK 28/19 Q1016=
200807301845 METAR LIRA 301845Z 20005KT CAVOK 29/18 Q1016=
200807301815 METAR LIRA 301815Z 23007KT 9999 FEW070 SCT200 30/17 Q1016=
200807301745 METAR LIRA 301745Z 24006KT 190V280 9999 FEW020 SCT200 31/19
                        Q1016=
200807301715 METAR LIRA 301715Z 23006KT 200V270 9999 FEW020 FEW022CB SCT200
                        31/18 Q1016=
200807301645 METAR LIRA 301645Z 25007KT 220V320 9999 FEW020 FEW022CB 32/18
                        Q1016=
200807301615 METAR LIRA 301615Z 25007KT 180V270 9999 FEW020 FEW022CB 32/18
                        Q1016=
200807301545 METAR LIRA 301545Z 27011KT 230V320 9999 FEW020 FEW022CB 33/18
                        Q1016=
200807301515 METAR LIRA 301515Z 26008KT 220V330 9999 FEW020 FEW022CB 33/18
                        Q1016=
200807301445 METAR LIRA 301445Z 27009KT 210V320 9999 FEW020 FEW022CB 33/18
                        Q1016=
200807301415 METAR LIRA 301415Z 26006KT 190V320 9999 FEW020 FEW022CB 33/18
                        Q1017=
200807301345 METAR LIRA 301345Z 26006KT 200V330 9999 FEW020 FEW022CB 34/18
                        Q1017=
200807301315 METAR LIRA 301315Z 24008KT 190V290 9999 FEW022 34/17 Q1017=
200807301245 METAR LIRA 301245Z 26009KT 180V240 9999 SCT022 34/17 Q1017=
200807301215 METAR LIRA 301215Z 24008KT 210V330 9999 SCT022 34/15 Q1017=
200807301145 METAR LIRA 301145Z 31004KT 180V310 9999 SCT022 34/16 Q1017=
200807301115 METAR LIRA 301115Z 31005KT 9999 SCT022 33/16 Q1017=
200807301045 METAR LIRA 301045Z 30006KT 240V350 9999 FEW022 33/17 Q1017=
200807301015 METAR LIRA 301015Z 32005KT 9999 FEW022 32/17 Q1017=
200807300945 METAR LIRA 300945Z 22003KT 9999 FEW022 32/17 Q1017=
200807300915 METAR LIRA 300915Z 32003KT 9999 FEW022 31/17 Q1017=
200807300845 METAR LIRA 300845Z 19003KT CAVOK 30/17 Q1017=
200807300815 METAR LIRA 300815Z 30001KT CAVOK 28/18 Q1017=
200807300745 METAR LIRA 300745Z 33001KT CAVOK 27/18 Q1017=
200807300715 METAR LIRA 300715Z 35001KT CAVOK 26/18 Q1017=
200807300645 METAR LIRA 300645Z 36003KT CAVOK 25/18 Q1018=
200807300615 METAR LIRA 300615Z 01003KT CAVOK 24/18 Q1017=
200807300545 METAR LIRA 300545Z 02002KT CAVOK 23/18 Q1017=
200807300515 METAR LIRA 300515Z 05002KT CAVOK 21/18 Q1017=
200807300445 METAR LIRA 300445Z 00000KT CAVOK 21/18 Q1017=
200807300415 METAR LIRA 300415Z 00000KT CAVOK 21/17 Q1016=
200807300345 METAR LIRA 300345Z 00000KT CAVOK 21/17 Q1016=
200807300315 METAR LIRA 300315Z 08002KT 9999 FEW002 21/17 Q1016=
200807300245 METAR LIRA 300245Z 07003KT 9999 FEW002 22/18 Q1016=
200807300215 METAR LIRA 300215Z 00000KT 9999 FEW002 22/18 Q1016=
200807300145 METAR LIRA 300145Z 00000KT 9999 SCT002 22/18 Q1016=
200807300115 METAR LIRA 300115Z 00000KT 9999 SCT002 22/18 Q1016=
200807300045 METAR LIRA 300045Z 09001KT CAVOK 22/19 Q1016=
200807300015 METAR LIRA 300015Z 11003KT CAVOK 22/19 Q1016=
200807300000 METAR LIRA CONTUS=
200807292345 METAR LIRA 292345Z 00000KT CAVOK 22/19 Q1016=
200807292315 METAR LIRA 292315Z 00000KT CAVOK 23/20 Q1016=
200807292245 METAR LIRA 292245Z 24002KT CAVOK 24/20 Q1016=
200807292215 METAR LIRA 292215Z 18002KT CAVOK 24/21 Q1016=
200807292145 METAR LIRA 292145Z 21003KT CAVOK 24/21 Q1016=
200807292115 METAR LIRA 292115Z 00000KT CAVOK 25/21 Q1016=
200807292045 METAR LIRA 292045Z 22002KT CAVOK 25/22 Q1016=
200807292015 METAR LIRA 292015Z 00000KT CAVOK 25/20 Q1016=
200807291945 METAR LIRA 291945Z 24003KT CAVOK 25/21 Q1016=
200807291915 METAR LIRA 291915Z 25003KT CAVOK 26/20 Q1016=
200807291845 METAR LIRA 291845Z 26003KT 9999 FEW080 SCT200 27/21 Q1015=
200807291815 METAR LIRA 291815Z 27004KT 9999 FEW020 SCT200 29/18 Q1015=
200807291745 METAR LIRA 291745Z 27003KT 9999 FEW020 SCT200 29/18 Q1015=
200807291715 METAR LIRA 291715Z 25006KT 9999 FEW022 30/18 Q1015=
200807291645 METAR LIRA 291645Z 27007KT 210V330 9999 FEW022 31/18 Q1015=
200807291615 METAR LIRA 291615Z 27004KT 210V320 9999 FEW022 31/18 Q1015=
200807291545 METAR LIRA 291545Z 25005KT 220V300 9999 FEW020CB 30/17 Q1015=
200807291515 METAR LIRA 291515Z 25008KT 180V280 9999 FEW020 30/17 Q1015=
200807291445 METAR LIRA 291445Z 27008KT 160V300 9999 SCT020 31/17 Q1015=
200807291415 METAR LIRA 291415Z 25008KT 160V320 9999 SCT020 32/18 Q1015=
200807291345 METAR LIRA 291345Z 26010KT 180V310 9999 SCT020 32/18 Q1015=
200807291315 METAR LIRA 291315Z 21006KT 130V280 9999 SCT020 32/18 Q1015=
200807291245 METAR LIRA 291245Z 20010KT 160V300 9999 SCT020 31/17 Q1015=
200807291215 METAR LIRA 291215Z 24005KT 090V320 9999 SCT020 31/16 Q1015=
200807291145 METAR LIRA 291145Z 22006KT 170V270 9999 SCT020 32/16 Q1015=
200807291115 METAR LIRA 291115Z 26004KT 230V330 9999 SCT022 32/16 Q1015=
200807291045 METAR LIRA 291045Z 32002KT 040V140 9999 FEW022 32/16 Q1015=
200807291015 METAR LIRA 291015Z 07005KT 040V100 9999 FEW022 31/15 Q1015=
200807290945 METAR LIRA 290945Z 16004KT 120V190 9999 FEW022 29/16 Q1015=
200807290915 METAR LIRA 290915Z 14002KT CAVOK 29/17 Q1015=
200807290845 METAR LIRA 290845Z 02001KT CAVOK 28/17 Q1016=
200807290815 METAR LIRA 290815Z 09004KT CAVOK 26/18 Q1015=
200807290745 METAR LIRA 290745Z 10003KT CAVOK 26/18 Q1015=
200807290715 METAR LIRA 290715Z 06003KT CAVOK 25/18 Q1015=
200807290645 METAR LIRA 290645Z 01003KT CAVOK 24/19 Q1015=
200807290615 METAR LIRA 290615Z 03003KT CAVOK 22/18 Q1015=
200807290545 METAR LIRA 290545Z 02003KT CAVOK 21/18 Q1015=
200807290515 METAR LIRA 290515Z 04004KT CAVOK 20/18 Q1014=
200807290445 METAR LIRA 290445Z 06002KT CAVOK 20/17 Q1014=
200807290415 METAR LIRA 290415Z 05003KT CAVOK 20/17 Q1014=
200807290345 METAR LIRA 290345Z 05003KT CAVOK 20/17 Q1014=
200807290315 METAR LIRA 290315Z 04003KT CAVOK 20/17 Q1014=
200807290245 METAR LIRA 290245Z 04003KT CAVOK 20/17 Q1014=
200807290215 METAR LIRA 290215Z 05003KT CAVOK 21/18 Q1014=
200807290145 METAR LIRA 290145Z 05003KT CAVOK 21/18 Q1014=
200807290115 METAR LIRA 290115Z 00000KT CAVOK 21/18 Q1014=
200807290100 METAR LIRA CONTUS=
200807290045 METAR LIRA 290045Z 00000KT CAVOK 21/18 Q1014=
200807290015 METAR LIRA 290015Z 04002KT CAVOK 21/18 Q1014=
200807282345 METAR LIRA 282345Z 04002KT CAVOK 22/18 Q1014=
200807282315 METAR LIRA 282315Z 06003KT CAVOK 22/17 Q1014=
200807282245 METAR LIRA 282245Z 05003KT CAVOK 23/18 Q1014=
200807282215 METAR LIRA 282215Z 07002KT CAVOK 23/17 Q1014=
200807282145 METAR LIRA 282145Z 01001KT CAVOK 24/18 Q1014=
200807282115 METAR LIRA 282115Z 00000KT CAVOK 24/18 Q1014=
200807282045 METAR LIRA 282045Z 30003KT CAVOK 25/18 Q1014=
200807282015 METAR LIRA 282015Z 30001KT CAVOK 25/19 Q1014=
200807281945 METAR LIRA 281945Z 32003KT 9999 FEW030TCU SCT200 26/19 Q1013=
200807281915 METAR LIRA 281915Z 28003KT 9999 FEW025CB SCT200 27/19 Q1013=
200807281845 METAR LIRA 281845Z 30002KT 9999 FEW025CB FEW030TCU SCT200
                        27/18 Q1014=
200807281815 METAR LIRA 281815Z 30004KT 9999 FEW025CB FEW030TCU 28/18
                        Q1014=
200807281745 METAR LIRA 281745Z 04004KT 340V090 9999 FEW025CB SCT030 28/18
                        Q1014=
200807281715 METAR LIRA 281715Z 32003KT 9999 FEW025CB SCT030 29/18 Q1014=
200807281645 METAR LIRA 281645Z 24005KT 180V340 9999 FEW025TCU FEW030CB
                        29/17 Q1014=
200807281615 METAR LIRA 281615Z 27005KT 210V310 9999 FEW025TCU FEW030CB
                        30/17 Q1014=
200807281545 METAR LIRA 281545Z 27005KT 220V330 9999 FEW020 FEW025CB 30/15
                        Q1013=
200807281515 METAR LIRA 281515Z 26006KT 190V290 9999 FEW020 FEW025CB 30/15
                        Q1013=
200807281445 METAR LIRA 281445Z 24007KT 180V310 9999 FEW020 FEW025CB 31/15
                        Q1013=
200807281415 METAR LIRA 281415Z 21008KT 160V280 9999 FEW020 FEW025TCU
                        31/15 Q1013=
200807281345 METAR LIRA 281345Z 25008KT 180V300 9999 FEW020 FEW025TCU
                        32/15 Q1013=
200807281315 METAR LIRA 281315Z 25006KT 200V310 9999 FEW020 32/15 Q1013=
200807281245 METAR LIRA 281245Z 24008KT 210V320 9999 FEW020 32/15 Q1013=
200807281215 METAR LIRA 281215Z 25010KT 200V300 9999 FEW020 32/15 Q1013=
200807281145 METAR LIRA 281145Z 24008KT 190V300 9999 FEW020 32/15 Q1013=
200807281115 METAR LIRA 281115Z 27006KT 210V310 9999 FEW020 31/15 Q1013=
200807281045 METAR LIRA 281045Z 20002KT 9999 FEW025 30/15 Q1013=
200807281015 METAR LIRA 281015Z 22006KT 9999 FEW025 30/15 Q1013=
200807280945 METAR LIRA 280945Z 04002KT 9999 FEW025 28/14 Q1013=
200807280915 METAR LIRA 280915Z 30001KT CAVOK 28/16 Q1013=
200807280845 METAR LIRA 280845Z 36004KT CAVOK 26/17 Q1013=
200807280815 METAR LIRA 280815Z 34005KT CAVOK 25/18 Q1013=
200807280745 METAR LIRA 280745Z 03003KT 340V070 CAVOK 23/18 Q1013=
200807280715 METAR LIRA 280715Z 06004KT CAVOK 22/18 Q1013=
200807280645 METAR LIRA 280645Z 05005KT CAVOK 21/17 Q1013=
200807280615 METAR LIRA 280615Z 04005KT CAVOK 20/16 Q1013=
200807280545 METAR LIRA 280545Z 05002KT CAVOK 19/17 Q1013=
200807280515 METAR LIRA 280515Z 05003KT CAVOK 18/17 Q1013=
200807280445 METAR LIRA 280445Z 03002KT CAVOK 18/17 Q1013=
200807280415 METAR LIRA 280415Z 05002KT CAVOK 18/17 Q1013=
200807280345 METAR LIRA 280345Z 03002KT CAVOK 18/17 Q1013=
200807280315 METAR LIRA 280315Z 05002KT CAVOK 18/17 Q1013=
200807280245 METAR LIRA 280245Z 04002KT CAVOK 19/17 Q1013=
200807280215 METAR LIRA 280215Z 03002KT CAVOK 19/17 Q1013=
200807280145 METAR LIRA 280145Z 06002KT CAVOK 19/17 Q1013=
200807280115 METAR LIRA 280115Z 04002KT CAVOK 19/18 Q1013=
200807280045 METAR LIRA 280045Z 07003KT CAVOK 19/19 Q1013=
200807280015 METAR LIRA 280015Z 35004KT CAVOK 20/19 Q1013=
200807272345 METAR LIRA 272345Z 30002KT CAVOK 20/19 Q1013=
200807272315 METAR LIRA 272315Z 06001KT CAVOK 20/19 Q1013=
200807272245 METAR LIRA 272245Z 02002KT CAVOK 20/19 Q1013=
200807272215 METAR LIRA 272215Z 06003KT 9999 FEW060 20/19 Q1013=
200807272145 METAR LIRA 272145Z 03003KT 9999 FEW050 21/19 Q1013=
200807272115 METAR LIRA 272115Z 34002KT 9999 FEW050 21/19 Q1013=
200807272045 METAR LIRA 272045Z 02002KT 9999 FEW070 21/19 Q1013=
200807272015 METAR LIRA 272015Z 36001KT 9999 FEW070 21/19 Q1013=
200807271945 METAR LIRA 271945Z 08005KT 9999 FEW070 21/19 Q1013=
200807271915 METAR LIRA 271915Z 06007KT 020V100 9999 FEW060 SCT090 22/19
                        Q1013=
200807271845 METAR LIRA 271845Z 02003KT 9999 FEW060 SCT080 22/19 Q1013=
200807271815 METAR LIRA 271815Z 02004KT 9999 FEW060 SCT080 22/19 Q1012=
200807271745 METAR LIRA 271745Z 36004KT 330V060 9999 FEW025TCU BKN080
                        22/19 Q1012=
200807271715 METAR LIRA 271715Z 36006KT 310V050 9999 FEW020TCU BKN080
                        22/19 Q1012=
200807271645 METAR LIRA 271645Z 36006KT 310V060 9999 FEW020CB BKN070 21/19
                        Q1012=
200807271615 METAR LIRA 271615Z 10007KT 350V130 9999 FEW020CB BKN080 21/18
                        Q1012=
200807271545 METAR LIRA 271545Z 07012KT 040V100 9999 -TSRA FEW020CB SCT040
                        BKN070 22/16 Q1013=
200807271515 METAR LIRA 271515Z 07001KT 020V110 9999 TS FEW018 FEW020CB
                        BKN060 23/16 Q1013=
200807271445 METAR LIRA 271445Z 15006KT 100V200 9999 TS FEW018 FEW020CB
                        SCT030 24/16 Q1013=
200807271415 METAR LIRA 271415Z 12015KT 9999 TS FEW018 FEW020CB BKN030
                        25/15 Q1012=
200807271345 METAR LIRA 271345Z 07011KT 300V090 9999 TS FEW018 FEW020CB
                        BKN030 29/19 Q1012=
200807271315 METAR LIRA 271315Z 30005KT 230V310 9999 SCT018 FEW020CB SCT200
                        30/20 Q1011=
200807271245 METAR LIRA 271245Z 29004KT 220V330 9999 SCT020 FEW025CB 30/21
                        Q1011=
200807271215 METAR LIRA 271215Z 25007KT 180V310 9999 SCT020 FEW025CB 30/20
                        Q1011=
200807271145 METAR LIRA 271145Z 25012KT 200V310 9999 FEW020 FEW025CB 30/18
                        Q1011=
200807271115 METAR LIRA 271115Z 24004KT 180V280 9999 SCT020 FEW025CB 30/18
                        Q1011=
200807271045 METAR LIRA 271045Z 35001KT 9999 FEW025 29/18 Q1011=
200807271015 METAR LIRA 271015Z 09002KT 9999 FEW025 29/19 Q1011=
200807270945 METAR LIRA 270945Z 30002KT 9999 FEW025 27/18 Q1011=
200807270915 METAR LIRA 270915Z 22003KT 9999 FEW020 27/19 Q1011=
200807270845 METAR LIRA 270845Z 35006KT 330V050 9999 FEW025 26/19 Q1011=
200807270815 METAR LIRA 270815Z 35002KT 9999 FEW080 25/19 Q1011=
200807270745 METAR LIRA 270745Z 27001KT 9999 FEW030 24/20 Q1011=
200807270715 METAR LIRA 270715Z 01003KT 8000 FEW030 24/20 Q1011=
200807270645 METAR LIRA 270645Z 05003KT 7000 FEW018 23/21 Q1011=
200807270615 METAR LIRA 270615Z 00000KT 7000 FEW018 22/20 Q1011=
200807270545 METAR LIRA 270545Z 00000KT 9999 FEW025 21/18 Q1010=
200807270515 METAR LIRA 270515Z 00000KT 9999 FEW025 21/18 Q1010=
200807270445 METAR LIRA 270445Z 17002KT 9999 FEW025 21/18 Q1010=
200807270415 METAR LIRA 270415Z 14002KT 9999 SCT025 21/18 Q1010=
200807270345 METAR LIRA 270345Z 16002KT 9999 SCT025 21/18 Q1010=
200807270315 METAR LIRA 270315Z 13002KT 9999 SCT070 21/19 Q1010=
200807270245 METAR LIRA 270245Z 18003KT 9999 SCT070 21/19 Q1011=
200807270215 METAR LIRA 270215Z 14001KT 9999 SCT070 21/19 Q1011=
200807270145 METAR LIRA 270145Z 12003KT 9999 SCT070 21/19 Q1011=
200807270115 METAR LIRA 270115Z 11002KT 9999 SCT060 21/19 Q1011=
200807270045 METAR LIRA 270045Z 12002KT 9999 FEW020 SCT060 21/19 Q1011=
200807270015 METAR LIRA 270015Z 12001KT 9999 FEW020 SCT070 21/19 Q1011=
200807262350 METAR LIRA 270045Z 12002KT 9999 FEW020 SCT060 21/19 Q1011=
200807262345 METAR LIRA 262345Z 11002KT 9999 BKN025 22/21 Q1011=
200807262315 METAR LIRA 262315Z 19001KT 9999 SCT070 22/21 Q1011=
200807262245 METAR LIRA 262245Z 24001KT 9999 SCT070 23/21 Q1011=
200807262215 METAR LIRA 262215Z 17001KT 9999 FEW020 SCT070 23/21 Q1011=
200807262145 METAR LIRA 262145Z 21003KT 9999 SCT060 23/21 Q1012=
200807262115 METAR LIRA 262115Z 20002KT 9999 FEW020 SCT070 23/21 Q1011=
200807262045 METAR LIRA 262045Z 21002KT 9999 FEW018 SCT060 23/21 Q1012=
200807262015 METAR LIRA 262015Z 23003KT 9999 BKN070 23/21 Q1011=
200807261945 METAR LIRA 261945Z 25003KT 9999 SCT070 23/21 Q1011=
200807261915 METAR LIRA 261915Z 23004KT 9999 FEW060 SCT080 24/21 Q1011=
200807261845 METAR LIRA 261845Z 23005KT 200V260 9999 FEW060 25/21 Q1010=
200807261815 METAR LIRA 261815Z 24005KT 180V300 9999 FEW020 SCT070 26/20
                        Q1010=
200807261745 METAR LIRA 261745Z 23003KT 170V270 9999 FEW020 SCT070 26/19
                        Q1010=
200807261715 METAR LIRA 261715Z 23005KT 170V270 9999 FEW020 SCT080 27/19
                        Q1010=
200807261645 METAR LIRA 261645Z 23006KT 180V290 9999 FEW020 SCT080 28/19
                        Q1010=
200807261615 METAR LIRA 261615Z 23006KT 190V300 9999 FEW020 SCT080 28/19
                        Q1010=
200807261545 METAR LIRA 261545Z 23009KT 190V270 9999 FEW020 28/20 Q1010=
200807261515 METAR LIRA 261515Z 25007KT 210V280 9999 FEW020 28/19 Q1010=
200807261445 METAR LIRA 261445Z 22007KT 170V310 9999 FEW020 28/20 Q1010=
200807261415 METAR LIRA 261415Z 24010KT 190V320 9999 FEW020 29/20 Q1010=
200807261345 METAR LIRA 261345Z 24008KT 180V280 9999 FEW020 29/20 Q1010=
200807261315 METAR LIRA 261315Z 24006KT 180V270 9999 FEW020 29/15 Q1011=
200807261245 METAR LIRA 261245Z 27005KT 200V330 9999 SCT020 29/14 Q1011=
200807261215 METAR LIRA 261215Z 30005KT 190V350 9999 SCT020 29/14 Q1011=
200807261145 METAR LIRA 261145Z 25006KT 180V330 9999 SCT020 29/14 Q1011=
200807261115 METAR LIRA 261115Z 19004KT 160V290 9999 FEW020 29/15 Q1011=
200807261045 METAR LIRA 261045Z 22004KT 180V260 9999 FEW020 29/15 Q1011=
200807261015 METAR LIRA 261015Z 15003KT 150V220 9999 FEW020 29/16 Q1011=
200807260945 METAR LIRA 260945Z 27004KT 160V310 9999 FEW020 28/16 Q1011=
200807260915 METAR LIRA 260915Z 30001KT 9999 FEW020 27/16 Q1011=
200807260845 METAR LIRA 260845Z 29002KT 9999 FEW020 26/15 Q1011=
200807260815 METAR LIRA 260815Z 19002KT 9999 FEW020 26/15 Q1011=
200807260745 METAR LIRA 260745Z 04003KT CAVOK 25/15 Q1011=
200807260715 METAR LIRA 260715Z 00000KT CAVOK 24/15 Q1011=
200807260645 METAR LIRA 260645Z 00000KT CAVOK 22/15 Q1011=
200807260615 METAR LIRA 260615Z 02001KT CAVOK 21/15 Q1011=
200807260545 METAR LIRA 260545Z 00000KT CAVOK 19/16 Q1011=
200807260515 METAR LIRA 260515Z 30001KT CAVOK 18/14 Q1011=
200807260445 METAR LIRA 260445Z 06004KT CAVOK 18/14 Q1010=
200807260415 METAR LIRA 260415Z 02001KT CAVOK 18/15 Q1010=
200807260345 METAR LIRA 260345Z 11001KT CAVOK 18/16 Q1010=
200807260315 METAR LIRA 260315Z 10002KT CAVOK 19/16 Q1010=
200807260245 METAR LIRA 260245Z 10002KT CAVOK 19/16 Q1010=
200807260215 METAR LIRA 260215Z 09001KT CAVOK 20/16 Q1010=
200807260145 METAR LIRA 260145Z 12001KT CAVOK 19/16 Q1010=
200807260115 METAR LIRA 260115Z 11002KT CAVOK 20/16 Q1010=
200807260045 METAR LIRA 260045Z 11003KT CAVOK 20/17 Q1010=
200807260015 METAR LIRA 260015Z 11002KT CAVOK 20/16 Q1010=
200807252350 METAR LIRA 260045Z 11003KT CAVOK 20/17 Q1010=
200807252215 METAR LIRA 252215Z 00000KT CAVOK 21/17 Q1011=
200807252145 METAR LIRA 252145Z 22001KT CAVOK 21/17 Q1011=
200807252115 METAR LIRA 252115Z 24001KT CAVOK 22/18 Q1011=
200807252045 METAR LIRA 252045Z 23001KT CAVOK 22/17 Q1011=
200807252015 METAR LIRA 252015Z 25003KT CAVOK 23/14 Q1011=
200807251945 METAR LIRA 251945Z 23003KT CAVOK 23/14 Q1011=
200807251915 METAR LIRA 251915Z 23003KT CAVOK 24/14 Q1011=
200807251845 METAR LIRA 251845Z 22002KT CAVOK 24/14 Q1011=
200807251815 METAR LIRA 251815Z 23003KT CAVOK 25/14 Q1011=
200807251745 METAR LIRA 251745Z 23004KT CAVOK 26/14 Q1011=
200807251715 METAR LIRA 251715Z 23005KT 190V270 CAVOK 27/12 Q1011=
200807251645 METAR LIRA 251645Z 23009KT 180V270 CAVOK 27/14 Q1011=
200807251615 METAR LIRA 251615Z 25007KT 170V300 CAVOK 27/15 Q1011=
200807251545 METAR LIRA 251545Z 25008KT 200V330 CAVOK 28/15 Q1011=
200807251515 METAR LIRA 251515Z 26005KT 200V330 CAVOK 28/15 Q1011=
200807251445 METAR LIRA 251445Z 27010KT 200V330 CAVOK 28/13 Q1011=
200807251415 METAR LIRA 251415Z 23008KT 200V310 CAVOK 29/13 Q1011=
200807251345 METAR LIRA 251345Z 24009KT 170V290 CAVOK 29/12 Q1011=
200807251315 METAR LIRA 251315Z 24012KT 180V300 9999 FEW025 30/12 Q1011=
200807251245 METAR LIRA 251245Z 23008KT 190V310 9999 FEW025 30/10 Q1011=
200807251215 METAR LIRA 251215Z 24010KT 220V330 9999 FEW025 30/10 Q1011=
200807251145 METAR LIRA 251145Z 31009KT 220V330 9999 FEW025 29/11 Q1011=
200807251115 METAR LIRA 251115Z 26004KT 180V300 9999 FEW025 29/11 Q1011=
200807251045 METAR LIRA 251045Z 35005KT 270V030 9999 FEW025 28/13 Q1011=
200807251015 METAR LIRA 251015Z 26002KT 240V330 9999 FEW025 27/13 Q1012=
200807250945 METAR LIRA 250945Z 29006KT 200V330 9999 FEW020 27/13 Q1012=
200807250915 METAR LIRA 250915Z 28008KT 230V330 CAVOK 26/12 Q1012=
200807250845 METAR LIRA 250845Z 33003KT 260V360 CAVOK 25/14 Q1012=
200807250815 METAR LIRA 250815Z 29003KT CAVOK 24/13 Q1012=
200807250745 METAR LIRA 250745Z 03003KT CAVOK 23/17 Q1012=
200807250715 METAR LIRA 250715Z 34003KT CAVOK 22/17 Q1012=
200807250645 METAR LIRA 250645Z 29001KT CAVOK 21/19 Q1012=
200807250615 METAR LIRA 250615Z 00000KT CAVOK 20/18 Q1012=
200807250545 METAR LIRA 250545Z 00000KT CAVOK 19/18 Q1012=
200807250515 METAR LIRA 250515Z 00000KT 9999 FEW007 SCT025 18/18 Q1012=
200807250445 METAR LIRA 250445Z 00000KT 9999 FEW007 18/18 Q1012=
200807250415 METAR LIRA 250415Z 31002KT CAVOK 18/17 Q1012=
200807250345 METAR LIRA 250345Z 20001KT CAVOK 18/17 Q1012=
200807250315 METAR LIRA 250315Z 14003KT CAVOK 19/18 Q1011=
200807250245 METAR LIRA 250245Z 11002KT CAVOK 20/19 Q1012=
200807250215 METAR LIRA 250215Z 17002KT 9999 FEW060 20/19 Q1012=
200807250145 METAR LIRA 250145Z 16004KT CAVOK 20/18 Q1012=
200807250115 METAR LIRA 250115Z 16003KT 9999 FEW015 20/19 Q1012=
200807250045 METAR LIRA 250045Z 17004KT 9999 FEW015 20/18 Q1012=
200807250015 METAR LIRA 250015Z 17004KT 9999 FEW015 21/18 Q1012=
200807242350 METAR LIRA 250045Z 17004KT 9999 FEW015 20/18 Q1012=
200807242345 METAR LIRA 242345Z 18004KT 9999 FEW015 21/18 Q1013=
200807242315 METAR LIRA 242315Z 15005KT CAVOK 21/18 Q1013=
200807242245 METAR LIRA 242245Z 19004KT CAVOK 22/18 Q1013=
200807242215 METAR LIRA 242215Z 20004KT CAVOK 22/18 Q1013=
200807242145 METAR LIRA 242145Z 20003KT CAVOK 22/17 Q1013=
200807242115 METAR LIRA 242115Z 20002KT CAVOK 22/17 Q1013=
200807242045 METAR LIRA 242045Z 19002KT CAVOK 22/17 Q1013=
200807242015 METAR LIRA 242015Z 19003KT CAVOK 23/17 Q1012=
200807241945 METAR LIRA 241945Z 20004KT CAVOK 23/17 Q1012=
200807241915 METAR LIRA 241915Z 24003KT 9999 FEW080 SCT200 23/17 Q1012=
200807241845 METAR LIRA 241845Z 25006KT 220V300 9999 FEW030 SCT080 24/14
                        Q1012=
200807241815 METAR LIRA 241815Z 25003KT 220V310 9999 FEW025 SCT090 25/14
                        Q1012=
200807241745 METAR LIRA 241745Z 26007KT 190V310 9999 FEW025 26/12 Q1012=
200807241715 METAR LIRA 241715Z 28007KT 220V320 9999 FEW025 26/11 Q1012=
200807241645 METAR LIRA 241645Z 27008KT 210V330 9999 FEW025 27/12 Q1012=
200807241615 METAR LIRA 241615Z 25007KT 200V290 9999 FEW025 28/12 Q1012=
200807241545 METAR LIRA 241545Z 27008KT 230V310 9999 FEW022 28/11 Q1012=
200807241515 METAR LIRA 241515Z 28008KT 200V330 9999 SCT022 28/11 Q1012=
200807241445 METAR LIRA 241445Z 27012KT 220V320 9999 SCT022 28/12 Q1012=
200807241415 METAR LIRA 241415Z 26012KT 220V320 9999 SCT022 28/11 Q1012=
200807241345 METAR LIRA 241345Z 27013KT 220V320 9999 SCT022 28/12 Q1012=
200807241315 METAR LIRA 241315Z 28012KT 220V300 9999 SCT022 29/13 Q1012=
200807241245 METAR LIRA 241245Z 31015KT 250V310 9999 FEW022 29/12 Q1012=
200807241215 METAR LIRA 241215Z 30013KT 250V340 9999 FEW022 29/10 Q1012=
200807241145 METAR LIRA 241145Z 26004KT 220V090 9999 FEW022 28/10 Q1012=
200807241115 METAR LIRA 241115Z 34013KT 220V360 9999 FEW022 28/10 Q1012=
200807241045 METAR LIRA 241045Z 30007KT 230V010 9999 FEW022 28/10 Q1013=
200807241015 METAR LIRA 241015Z 24003KT 200V310 9999 FEW022 27/11 Q1014=
200807240945 METAR LIRA 240945Z 36002KT 320V070 9999 FEW022 26/09 Q1014=
200807240915 METAR LIRA 240915Z 33005KT 290V360 9999 FEW022 26/10 Q1014=
200807240845 METAR LIRA 240845Z 31002KT CAVOK 24/14 Q1014=
200807240815 METAR LIRA 240815Z 01003KT CAVOK 23/15 Q1014=
200807240745 METAR LIRA 240745Z 05006KT CAVOK 22/14 Q1014=
200807240715 METAR LIRA 240715Z 03005KT CAVOK 20/14 Q1014=
200807240645 METAR LIRA 240645Z 03003KT CAVOK 19/11 Q1013=
200807240615 METAR LIRA 240615Z 02003KT CAVOK 19/11 Q1013=
200807240545 METAR LIRA 240545Z 06003KT CAVOK 17/10 Q1013=
200807240515 METAR LIRA 240515Z 06002KT CAVOK 17/10 Q1014=
200807240445 METAR LIRA 240445Z 05004KT CAVOK 16/10 Q1013=
200807240415 METAR LIRA 240415Z 05004KT CAVOK 16/10 Q1013=
200807240345 METAR LIRA 240345Z 07002KT 9999 FEW070 16/10 Q1013=
200807240315 METAR LIRA 240315Z 03002KT 9999 FEW070 16/10 Q1014=
200807240245 METAR LIRA 240245Z 00000KT CAVOK 17/11 Q1014=
200807240215 METAR LIRA 240215Z 00000KT CAVOK 18/12 Q1014=
200807240145 METAR LIRA 240145Z 11004KT CAVOK 18/13 Q1014=
200807240115 METAR LIRA 240115Z 11003KT CAVOK 19/14 Q1014=
200807240045 METAR LIRA 240045Z 18001KT 9999 FEW070 20/15 Q1014=
200807240015 METAR LIRA 240015Z 20001KT 9999 FEW070 20/15 Q1014=
200807232350 METAR LIRA 240045Z 18001KT 9999 FEW070 20/15 Q1014=
200807232345 METAR LIRA 232345Z 21001KT 9999 FEW070 20/15 Q1014=
200807232315 METAR LIRA 232315Z 00000KT 9999 FEW070 20/16 Q1014=
200807232245 METAR LIRA 232245Z 23001KT 9999 FEW070 21/16 Q1014=
200807232145 METAR LIRA 232145Z 26002KT 9999 FEW070 21/16 Q1014=
200807232115 METAR LIRA 232115Z 27002KT 9999 SCT070 21/17 Q1014=
200807232045 METAR LIRA 232045Z 25002KT 9999 SCT070 22/17 Q1013=
200807232015 METAR LIRA 232015Z 25003KT 9999 FEW070 22/16 Q1014=
200807231945 METAR LIRA 231945Z 36004KT 9999 FEW070 22/16 Q1013=
200807231915 METAR LIRA 231915Z 27003KT 9999 FEW070 22/15 Q1013=
200807231845 METAR LIRA 231845Z 27004KT 210V320 9999 SCT020 23/15 Q1013=
200807231815 METAR LIRA 231815Z 27004KT 210V330 9999 SCT070 23/15 Q1013=
200807231745 METAR LIRA 231745Z 29010KT 210V310 9999 SCT070 24/16 Q1013=
200807231715 METAR LIRA 231715Z 30012KT 240V340 9999 FEW020 24/10 Q1013=
200807231645 METAR LIRA 231645Z 29015KT 200V320 9999 FEW020 26/11 Q1013=
200807231615 METAR LIRA 231615Z 30014KT 220V350 9999 FEW020 27/12 Q1014=
200807231545 METAR LIRA 231545Z 30013KT 250V330 9999 SCT020 27/11 Q1014=
200807231515 METAR LIRA 231515Z 29014KT 230V340 9999 SCT020 27/11 Q1014=
200807231445 METAR LIRA 231445Z 29013KT 230V330 9999 SCT020 28/11 Q1014=
200807231415 METAR LIRA 231415Z 27014KT 210V330 9999 SCT020 28/11 Q1014=
200807231345 METAR LIRA 231345Z 28013KT 210V340 9999 SCT018 28/06 Q1014=
200807231315 METAR LIRA 231315Z 33010KT 290V040 9999 SCT018 29/05 Q1014=
200807231245 METAR LIRA 231245Z 33011G24KT 290V010 9999 SCT018 28/07 Q1014=
200807231215 METAR LIRA 231215Z 33013KT 290V070 9999 SCT018 28/06 Q1015=
200807231145 METAR LIRA 231145Z 36010KT 300V080 9999 SCT020 28/06 Q1015=
200807231115 METAR LIRA 231115Z 33011KT 280V010 9999 SCT020 26/07 Q1015=
200807231045 METAR LIRA 231045Z 33009G19KT 9999 SCT020 26/07 Q1015=
200807231015 METAR LIRA 231015Z 34007KT 290V060 9999 SCT020 26/07 Q1015=
200807230945 METAR LIRA 230945Z 33008KT 230V060 9999 SCT020 25/07 Q1015=
200807230915 METAR LIRA 230915Z 35009G20KT 280V090 9999 FEW020 25/08 Q1015=
200807230845 METAR LIRA 230845Z 34006KT 300V090 9999 FEW020 24/08 Q1015=
200807230815 METAR LIRA 230815Z 05006KT 310V100 9999 FEW020 23/09 Q1015=
200807230745 METAR LIRA 230745Z 03005KT 330V110 CAVOK 22/09 Q1015=
200807230715 METAR LIRA 230715Z 06006KT 340V100 CAVOK 21/09 Q1015=
200807230645 METAR LIRA 230645Z 05008KT 300V100 CAVOK 19/09 Q1015=
200807230615 METAR LIRA 230615Z 04006KT 320V090 CAVOK 18/09 Q1015=
200807230545 METAR LIRA 230545Z 04006KT 320V100 CAVOK 17/09 Q1015=
200807230515 METAR LIRA 230515Z 03004KT CAVOK 16/09 Q1015=
200807230445 METAR LIRA 230445Z 07004KT CAVOK 15/08 Q1015=
200807230415 METAR LIRA 230415Z 06006KT CAVOK 15/09 Q1015=
200807230345 METAR LIRA 230345Z 06004KT CAVOK 16/09 Q1015=
200807230315 METAR LIRA 230315Z 06005KT 340V080 CAVOK 16/09 Q1015=
200807230245 METAR LIRA 230245Z 06006KT 350V080 CAVOK 17/09 Q1015=
200807230215 METAR LIRA 230215Z 05006KT CAVOK 17/09 Q1015=
200807230145 METAR LIRA 230145Z 06006KT 010V090 CAVOK 18/09 Q1015=
200807230115 METAR LIRA 230115Z 01009KT 320V050 CAVOK 18/09 Q1015=
200807230045 METAR LIRA 230045Z 01010KT 310V050 CAVOK 19/06 Q1015=
200807230015 METAR LIRA 230015Z 01010KT 310V050 CAVOK 19/06 Q1015=
200807222350 METAR LIRA 230045Z 01010KT 310V050 CAVOK 19/06 Q1015=
200807222345 METAR LIRA 222345Z 36006KT 320V070 CAVOK 20/05 Q1014=
200807222315 METAR LIRA 222315Z 36012KT 330V070 CAVOK 20/05 Q1015=
200807222245 METAR LIRA 222245Z 36009KT 310V050 CAVOK 20/04 Q1015=
200807222215 METAR LIRA 222215Z 36009KT 310V050 CAVOK 20/04 Q1014=
200807222145 METAR LIRA 222145Z 35013KT 320V030 CAVOK 21/04 Q1014=
200807222115 METAR LIRA 222115Z 35012KT 310V040 CAVOK 21/04 Q1014=
200807222045 METAR LIRA 222045Z 36012KT 310V060 CAVOK 22/04 Q1013=
200807222015 METAR LIRA 222015Z 36015KT 300V030 CAVOK 22/04 Q1013=
200807221945 METAR LIRA 221945Z 35013G28KT 320V040 CAVOK 23/05 Q1012=
200807221915 METAR LIRA 221915Z 34016KT 300V030 CAVOK 24/05 Q1012=
200807221845 METAR LIRA 221845Z 35012KT 300V030 9999 FEW080 25/06 Q1012=
200807221815 METAR LIRA 221815Z 33015KT 300V020 9999 FEW020 25/07 Q1011=
200807221745 METAR LIRA 221745Z 34013G24KT 300V030 9999 FEW020 27/06 Q1011=
200807221715 METAR LIRA 221715Z 36016KT 300V030 9999 FEW020 27/06 Q1011=
200807221645 METAR LIRA 221645Z 35015KT 290V080 9999 FEW018 28/08 Q1011=
200807221615 METAR LIRA 221615Z 35015G27KT 300V030 9999 FEW018 28/09 Q1010=
200807221545 METAR LIRA 221545Z 33018G28KT 310V040 9999 FEW018 30/10 Q1010=
200807221515 METAR LIRA 221515Z 36020KT 300V040 9999 FEW018 FEW020TCU
                        30/10 Q1010=
200807221445 METAR LIRA 221445Z 33020KT 300V040 9999 FEW018 FEW020TCU
                        30/10 Q1010=
200807221415 METAR LIRA 221415Z 36015G26KT 300V040 9999 FEW018 FEW020TCU
                        30/10 Q1009=
200807221345 METAR LIRA 221345Z 34018KT 300V040 9999 FEW018 FEW020CB 30/10
                        Q1009=
200807221315 METAR LIRA 221315Z 33016G26KT 300V040 9999 FEW018 FEW020CB
                        30/11 Q1009=
200807221245 METAR LIRA 221245Z 34016G26KT 300V040 9999 FEW018 FEW020CB
                        30/12 Q1009=
200807221215 METAR LIRA 221215Z 33017G35KT 300V030 9999 FEW018 FEW020CB
                        30/12 Q1009=
200807221145 METAR LIRA 221145Z 34013G23KT 300V050 9999 FEW018 FEW020CB
                        29/13 Q1009=
200807221115 METAR LIRA 221115Z 36013KT 300V040 9999 FEW018 FEW020CB 29/13
                        Q1010=
200807221045 METAR LIRA 221045Z 35012KT 300V090 9999 FEW018 FEW020CB 28/16
                        Q1010=
200807221015 METAR LIRA 221015Z 34010KT 300V030 9999 FEW018 FEW020CB 28/16
                        Q1010=
200807220945 METAR LIRA 220945Z 36010KT 300V040 9999 FEW018 27/18 Q1010=
200807220915 METAR LIRA 220915Z 35011KT 300V040 9999 SCT018 26/18 Q1010=
200807220845 METAR LIRA 220845Z 35011KT 310V050 9999 SCT018 25/19 Q1010=
200807220815 METAR LIRA 220815Z 02010KT 330V090 9999 SCT018 25/19 Q1010=
200807220745 METAR LIRA 220745Z 36007KT 320V090 9999 SCT018 24/19 Q1010=
200807220715 METAR LIRA 220715Z 01008KT 320V080 9999 SCT018 SCT030 23/19
                        Q1009=
200807220645 METAR LIRA 220645Z 04007KT 340V110 9999 FEW018 FEW020CB BKN030
                        23/20 Q1009=
200807220615 METAR LIRA 220615Z 01006KT 9999 FEW018 FEW020CB SCT030 23/20
                        Q1009=
200807220545 METAR LIRA 220545Z 08002KT 9999 FEW018 FEW020CB 22/19 Q1009=
200807220515 METAR LIRA 220515Z 14003KT 9999 FEW018 FEW020CB 21/19 Q1009=
200807220445 METAR LIRA 220445Z 16003KT 9999 FEW018 21/19 Q1009=
200807220415 METAR LIRA 220415Z 21003KT 9999 FEW018 SCT030 22/19 Q1009=
200807220345 METAR LIRA 220345Z 23002KT 9999 FEW018 SCT025 22/19 Q1009=
200807220315 METAR LIRA 220315Z 00000KT 9999 SCT020 SCT060 22/19 Q1009=
200807220245 METAR LIRA 220245Z 32001KT 9999 SCT020 SCT025 22/19 Q1009=
200807220215 METAR LIRA 220215Z 25003KT 9999 FEW018 SCT025 22/19 Q1009=
200807220145 METAR LIRA 220145Z 19006KT 150V220 9999 -RA BKN025 23/21
                        Q1009=
200807220115 METAR LIRA 220115Z 16009KT 120V200 9999 SCT030 SCT060 23/21
                        Q1010=
200807220045 METAR LIRA 220045Z 18006KT 9999 SCT030 SCT060 23/21 Q1010=
200807220015 METAR LIRA 220015Z 17007KT 9999 FEW030 SCT060 23/21 Q1010=
200807212345 METAR LIRA 212345Z 16007KT 130V200 9999 SCT030 SCT060 23/20
                        Q1010=
200807212315 METAR LIRA 212315Z 17007KT 9999 SCT035 23/20 Q1010=
200807212245 METAR LIRA 212245Z 18006KT 9999 FEW030 SCT060 24/19 Q1011=
200807212215 METAR LIRA 212215Z 19005KT 9999 FEW030 SCT060 23/18 Q1011=
200807212145 METAR LIRA 212145Z 17003KT 9999 FEW030 SCT060 24/18 Q1011=
200807212115 METAR LIRA 212115Z 18004KT 9999 FEW025 SCT060 24/18 Q1011=
200807212045 METAR LIRA 212045Z 15005KT 9999 FEW060 24/19 Q1012=
200807212015 METAR LIRA 212015Z 19005KT CAVOK 24/19 Q1011=
200807211945 METAR LIRA 211945Z 19005KT 160V220 9999 FEW025 25/19 Q1011=
200807211915 METAR LIRA 211915Z 18006KT 9999 FEW025 25/19 Q1011=
200807211845 METAR LIRA 211845Z 18007KT 150V220 9999 FEW025 SCT200 26/18
                        Q1011=
200807211815 METAR LIRA 211815Z 21005KT 170V240 9999 FEW025 SCT200 26/18
                        Q1011=
200807211745 METAR LIRA 211745Z 20007KT 160V230 9999 FEW025 SCT200 27/18
                        Q1011=
200807211715 METAR LIRA 211715Z 19007KT 160V240 9999 FEW025 SCT070 BKN200
                        27/18 Q1011=
200807211645 METAR LIRA 211645Z 19011KT 130V210 9999 SCT025 SCT070 26/19
                        Q1011=
200807211615 METAR LIRA 211615Z 16001KT 060V140 9999 SCT018 SCT025 26/19
                        Q1011=
200807211545 METAR LIRA 211545Z 15008KT 9999 SCT020 SCT025 26/19 Q1011=
200807211515 METAR LIRA 211515Z 19011KT 160V240 9999 SCT018 FEW020CB SCT025
                        26/18 Q1013 RERA=
200807211445 METAR LIRA 211445Z 20011KT 130V240 9999 SCT018 FEW020CB SCT025
                        26/19 Q1013=
200807211415 METAR LIRA 211415Z 21012KT 150V240 9999 SCT018 FEW020CB SCT025
                        27/19 Q1013=
200807211345 METAR LIRA 211345Z 18015KT 150V240 9999 SCT018 FEW022CB SCT025
                        28/17 Q1012=
200807211315 METAR LIRA 211315Z 21015KT 140V220 9999 SCT018 FEW020CB SCT025
                        30/19 Q1012=
200807211245 METAR LIRA 211245Z 16010KT 120V240 9999 FEW018 SCT030 29/19
                        Q1012=
200807211215 METAR LIRA 211215Z 20008KT 130V260 9999 SCT020 FEW022TCU
                        29/19 Q1012 RERA=
200807211145 METAR LIRA 211145Z 21008KT 150V250 9999 SCT020 FEW022TCU
                        28/18 Q1013=
200807211115 METAR LIRA 211115Z 20010KT 150V240 9999 SHRA FEW020 FEW024TCU
                        28/20 Q1013=
200807211045 METAR LIRA 211045Z 21009KT 120V260 9999 FEW020 FEW024TCU
                        29/19 Q1013=
200807211015 METAR LIRA 211015Z 21006KT 150V270 9999 FEW020 29/19 Q1014=
200807210945 METAR LIRA 210945Z 21009KT 130V240 9999 FEW020 29/19 Q1014=
200807210915 METAR LIRA 210915Z 16014KT 130V200 9999 FEW020 28/19 Q1014=
200807210845 METAR LIRA 210845Z 20010KT 140V220 9999 FEW020 28/19 Q1014=
200807210815 METAR LIRA 210815Z 17011KT 120V200 9999 FEW025 27/18 Q1014=
200807210745 METAR LIRA 210745Z 18011KT 120V200 9999 FEW030 26/20 Q1014=
200807210715 METAR LIRA 210715Z 19010KT 140V230 9999 FEW030 25/21 Q1014=
200807210645 METAR LIRA 210645Z 17011KT 9999 FEW030 25/21 Q1014=
200807210615 METAR LIRA 210615Z 17011KT 130V210 9999 FEW030 SCT200 25/20
                        Q1014=
200807210545 METAR LIRA 210545Z 17008KT 9999 FEW030 SCT200 24/20 Q1014=
200807210515 METAR LIRA 210515Z 18007KT CAVOK 24/17 Q1013=
200807210445 METAR LIRA 210445Z 19004KT 090V220 CAVOK 23/17 Q1013=
200807210415 METAR LIRA 210415Z 19006KT 150V230 CAVOK 23/16 Q1013=
200807210400 METAR LIRA INTER=
200807210345 METAR LIRA 210345Z 20006KT CAVOK 20/16 Q1013=
200807210315 METAR LIRA 210315Z 18005KT CAVOK 20/19 Q1013=
200807210245 METAR LIRA 210245Z 18005KT CAVOK 20/16 Q1013=
200807210215 METAR LIRA 210215Z 17005KT CAVOK 20/17 Q1013=
200807210115 METAR LIRA 210115Z 17002KT CAVOK 20/17 Q1015=
200807210045 METAR LIRA 210045Z 16002KT CAVOK 21/17 Q1015=
200807210015 METAR LIRA 210015Z 12002KT CAVOK 21/17 Q1015=
200807202345 METAR LIRA 202345Z 10001KT CAVOK 21/17 Q1015=
200807202315 METAR LIRA 202315Z 13003KT CAVOK 21/17 Q1016=
200807202245 METAR LIRA 202245Z 11002KT CAVOK 21/18 Q1016=
200807202215 METAR LIRA 202215Z 12002KT CAVOK 21/18 Q1016=
200807202145 METAR LIRA 202145Z 19002KT CAVOK 22/19 Q1016=
200807202115 METAR LIRA 202115Z 19003KT CAVOK 22/19 Q1016=
200807202045 METAR LIRA 202045Z 23002KT CAVOK 23/20 Q1015=
200807202015 METAR LIRA 202015Z 21003KT CAVOK 24/20 Q1015=
200807201945 METAR LIRA 201945Z 21004KT CAVOK 24/19 Q1015=
200807201915 METAR LIRA 201915Z 19003KT CAVOK 25/19 Q1015=
200807201845 METAR LIRA 201845Z 22003KT CAVOK 25/19 Q1015=
200807201815 METAR LIRA 201815Z 24005KT 250V310 CAVOK 27/17 Q1015=
200807201745 METAR LIRA 201745Z 29008KT 230V290 CAVOK 29/13 Q1015=
200807201715 METAR LIRA 201715Z 25008KT 170V310 CAVOK 28/15 Q1015=
200807201645 METAR LIRA 201645Z 25007KT 200V280 CAVOK 30/15 Q1015=
200807201615 METAR LIRA 201615Z 25008KT 190V280 CAVOK 30/15 Q1015=
200807201545 METAR LIRA 201545Z 28006KT 190V320 CAVOK 30/15 Q1015=
200807201515 METAR LIRA 201515Z 24007KT 190V320 CAVOK 30/15 Q1015=
200807201445 METAR LIRA 201445Z 24007KT 210V320 CAVOK 31/15 Q1016=
200807201415 METAR LIRA 201415Z 26009KT 210V330 CAVOK 31/15 Q1016=
200807201345 METAR LIRA 201345Z 25010KT 210V330 9999 FEW020 31/15 Q1016=
200807201315 METAR LIRA 201315Z 29010KT 210V330 9999 FEW020 31/15 Q1016=
200807201245 METAR LIRA 201245Z 25009KT 190V320 9999 FEW020 31/15 Q1016=
200807201215 METAR LIRA 201215Z 26006KT 190V320 9999 FEW020 31/16 Q1016=
200807201145 METAR LIRA 201145Z 27009KT 200V330 9999 FEW020 31/18 Q1016=
200807201115 METAR LIRA 201115Z 22004KT 200V330 9999 FEW020 31/17 Q1016=
200807201045 METAR LIRA 201045Z 22004KT 180V270 9999 FEW020 30/17 Q1016=
200807201015 METAR LIRA 201015Z 29004KT 9999 FEW020 30/16 Q1016=
200807200945 METAR LIRA 200945Z 00000KT 9999 FEW020 29/16 Q1016=
200807200915 METAR LIRA 200915Z 19003KT 9999 FEW020 29/17 Q1016=
200807200845 METAR LIRA 200845Z 20005KT 9999 FEW020 27/18 Q1016=
200807200815 METAR LIRA 200815Z 31003KT CAVOK 27/18 Q1016=
200807200745 METAR LIRA 200745Z 22003KT CAVOK 25/19 Q1016=
200807200715 METAR LIRA 200715Z 00000KT CAVOK 25/19 Q1016=
200807200645 METAR LIRA 200645Z 18002KT CAVOK 23/19 Q1016=
200807200615 METAR LIRA 200615Z 00000KT CAVOK 23/20 Q1016=
200807200545 METAR LIRA 200545Z 00000KT CAVOK 21/20 Q1015=
200807200515 METAR LIRA 200515Z 25002KT CAVOK 21/19 Q1015=
200807200445 METAR LIRA 200445Z 17003KT CAVOK 20/18 Q1015=
200807200415 METAR LIRA 200415Z 17003KT CAVOK 21/20 Q1015=
200807200345 METAR LIRA 200345Z 19002KT CAVOK 21/19 Q1015=
200807200315 METAR LIRA 200315Z 18002KT CAVOK 21/19 Q1015=
200807200245 METAR LIRA 200245Z 18002KT CAVOK 22/19 Q1015=
200807200215 METAR LIRA 200215Z 19001KT CAVOK 21/18 Q1015=
200807200145 METAR LIRA 200145Z 17002KT CAVOK 22/20 Q1015=
200807200115 METAR LIRA 200115Z 17003KT CAVOK 22/18 Q1016=
200807200045 METAR LIRA 200045Z 18002KT CAVOK 22/18 Q1016=
200807200015 METAR LIRA 200015Z 21002KT CAVOK 22/18 Q1016=
200807192345 METAR LIRA 192345Z 19003KT CAVOK 22/18 Q1016=
200807192315 METAR LIRA 192315Z 19002KT CAVOK 23/19 Q1016=
200807192245 METAR LIRA 192245Z 22001KT CAVOK 22/19 Q1016=
200807192215 METAR LIRA 192215Z 18002KT CAVOK 23/19 Q1016=
200807192145 METAR LIRA 192145Z 15001KT CAVOK 23/20 Q1016=
200807192115 METAR LIRA 192115Z 20002KT CAVOK 23/20 Q1016=
200807192045 METAR LIRA 192045Z 23003KT CAVOK 23/17 Q1016=
200807192015 METAR LIRA 192015Z 25004KT CAVOK 24/18 Q1015=
200807191945 METAR LIRA 191945Z 24003KT CAVOK 25/18 Q1015=
200807191915 METAR LIRA 191915Z 23003KT CAVOK 26/18 Q1015=
200807191845 METAR LIRA 191845Z 24003KT CAVOK 26/18 Q1015=
200807191815 METAR LIRA 191815Z 26003KT CAVOK 27/18 Q1015=
200807191745 METAR LIRA 191745Z 27005KT 250V340 CAVOK 28/18 Q1015=
200807191715 METAR LIRA 191715Z 23006KT 9999 FEW020 28/17 Q1015=
200807191645 METAR LIRA 191645Z 23006KT 200V300 9999 FEW020 28/17 Q1015=
200807191615 METAR LIRA 191615Z 24008KT 200V330 9999 FEW020 29/17 Q1014=
200807191545 METAR LIRA 191545Z 21007KT 170V310 9999 FEW020 29/20 Q1015=
200807191515 METAR LIRA 191515Z 24008KT 190V310 9999 FEW020 29/20 Q1015=
200807191445 METAR LIRA 191445Z 26009KT 200V260 9999 SCT020 29/19 Q1015=
200807191415 METAR LIRA 191415Z 24007KT 180V280 9999 SCT020 29/18 Q1015=
200807191345 METAR LIRA 191345Z 22010KT 150V260 9999 SCT020 30/18 Q1015=
200807191315 METAR LIRA 191315Z 21009KT 160V270 9999 SCT020 29/14 Q1015=
200807191245 METAR LIRA 191245Z 23006KT 190V280 9999 SCT020 29/13 Q1015=
200807191215 METAR LIRA 191215Z 22006KT 130V270 9999 FEW020 30/13 Q1015=
200807191145 METAR LIRA 191145Z 24004KT 190V270 9999 FEW020 29/13 Q1015=
200807191115 METAR LIRA 191115Z 12004KT 070V190 9999 FEW020 29/13 Q1015=
200807191045 METAR LIRA 191045Z 19003KT 080V230 9999 FEW020 29/14 Q1015=
200807191015 METAR LIRA 191015Z 18006KT 120V250 9999 FEW020 28/15 Q1015=
200807190945 METAR LIRA 190945Z 19007KT 150V300 9999 FEW020 27/15 Q1015=
200807190915 METAR LIRA 190915Z 19007KT 140V260 9999 FEW020 26/14 Q1015=
200807190845 METAR LIRA 190845Z 14004KT 210V280 9999 FEW020 26/15 Q1015=
200807190815 METAR LIRA 190815Z 21005KT 130V260 CAVOK 25/15 Q1014=
200807190745 METAR LIRA 190745Z 10004KT CAVOK 25/15 Q1014=
200807190715 METAR LIRA 190715Z 12003KT CAVOK 23/15 Q1014=
200807190645 METAR LIRA 190645Z 36002KT CAVOK 21/14 Q1014=
200807190615 METAR LIRA 190615Z 36002KT CAVOK 20/14 Q1014=
200807190545 METAR LIRA 190545Z 34001KT CAVOK 19/14 Q1014=
200807190515 METAR LIRA 190515Z 11002KT CAVOK 18/13 Q1014=
200807190445 METAR LIRA 190445Z 12002KT CAVOK 18/13 Q1014=
200807190415 METAR LIRA 190415Z 14001KT CAVOK 18/13 Q1014=
200807190345 METAR LIRA 190345Z 13001KT CAVOK 18/14 Q1013=
200807190315 METAR LIRA 190315Z 11003KT CAVOK 18/15 Q1013=
200807190245 METAR LIRA 190245Z 12006KT CAVOK 19/17 Q1013=
200807190215 METAR LIRA 190215Z 11007KT CAVOK 19/17 Q1013=
200807190145 METAR LIRA 190145Z 12003KT CAVOK 20/19 Q1013=
200807190115 METAR LIRA 190115Z 15004KT 9999 FEW025 20/19 Q1014=
200807190045 METAR LIRA 190045Z 15005KT 9999 FEW025 20/19 Q1014=
200807190015 METAR LIRA 190015Z 15004KT 9999 FEW030 20/19 Q1014=
200807182345 METAR LIRA 182345Z 15005KT 9999 FEW025 21/19 Q1014=
200807182315 METAR LIRA 182315Z 17005KT 9999 FEW025 21/19 Q1014=
200807182245 METAR LIRA 182245Z 17006KT 9999 FEW025 21/19 Q1014=
200807182215 METAR LIRA 182215Z 18004KT 9999 FEW025 21/19 Q1014=
200807182145 METAR LIRA 182145Z 19005KT CAVOK 22/20 Q1014=
200807182115 METAR LIRA 182115Z 20005KT 9999 FEW060 22/20 Q1013=
200807182045 METAR LIRA 182045Z 20005KT 170V230 CAVOK 22/20 Q1013=
200807182015 METAR LIRA 182015Z 21006KT 180V240 CAVOK 22/20 Q1013=
200807181945 METAR LIRA 181945Z 20006KT 170V230 CAVOK 23/19 Q1013=
200807181915 METAR LIRA 181915Z 22003KT CAVOK 23/19 Q1012=
200807181845 METAR LIRA 181845Z 21006KT 160V240 CAVOK 25/19 Q1012=
200807181815 METAR LIRA 181815Z 21009KT 170V280 CAVOK 25/18 Q1012=
200807181745 METAR LIRA 181745Z 21009KT 160V260 9999 FEW020 26/18 Q1012=
200807181715 METAR LIRA 181715Z 22005KT 160V270 9999 FEW020 26/19 Q1012=
200807181645 METAR LIRA 181645Z 24007KT 180V280 9999 FEW020TCU 27/18 Q1012=
200807181615 METAR LIRA 181615Z 24006KT 150V290 9999 FEW020TCU 27/18 Q1012=
200807181545 METAR LIRA 181545Z 21010G20KT 160V270 9999 FEW018 28/19 Q1011=
200807181515 METAR LIRA 181515Z 24007KT 160V270 9999 FEW018 28/19 Q1011=
200807181445 METAR LIRA 181445Z 22008KT 170V270 9999 SCT018 28/21 Q1011=
200807181415 METAR LIRA 181415Z 23010KT 170V270 9999 SCT018 28/21 Q1011=
200807181345 METAR LIRA 181345Z 24011KT 190V310 9999 SCT018 28/22 Q1011=
200807181315 METAR LIRA 181315Z 24013KT 200V330 9999 SCT018 FEW020TCU
                        28/21 Q1011=
200807181245 METAR LIRA 181245Z 23010KT 190V300 9999 SCT018 FEW020TCU
                        29/20 Q1011=
200807181215 METAR LIRA 181215Z 22011KT 160V300 9999 SCT018 FEW020TCU
                        29/20 Q1012=
200807181145 METAR LIRA 181145Z 21009KT 130V240 9999 SCT018 FEW020TCU
                        29/20 Q1012=
200807181115 METAR LIRA 181115Z 20011KT 130V240 9999 SCT018 FEW020TCU
                        28/20 Q1012=
200807181045 METAR LIRA 181045Z 20010KT 120V250 9999 SCT018 FEW020TCU
                        28/19 Q1012=
200807181015 METAR LIRA 181015Z 19009KT 140V250 9999 SCT018 FEW020TCU
                        28/19 Q1012=
200807180945 METAR LIRA 180945Z 20004KT 160V250 9999 SCT020 27/20 Q1012=
200807180915 METAR LIRA 180915Z 20009KT 160V270 9999 SCT020 27/20 Q1012=
200807180845 METAR LIRA 180845Z 17008KT 150V240 9999 SCT020 26/20 Q1012=
200807180815 METAR LIRA 180815Z 18009KT 140V270 9999 SCT020 26/21 Q1012=
200807180745 METAR LIRA 180745Z 18006KT 9999 SCT020 26/21 Q1012=
200807180715 METAR LIRA 180715Z 18008KT 9999 SCT020 25/21 Q1012=
200807180645 METAR LIRA 180645Z 17007KT 9999 FEW020 25/20 Q1011=
200807180615 METAR LIRA 180615Z 15010KT 9999 FEW020 24/19 Q1011=
200807180545 METAR LIRA 180545Z 12005KT 9999 FEW020 23/17 Q1011=
200807180515 METAR LIRA 180515Z 16004KT 9999 FEW030 22/15 Q1011=
200807180445 METAR LIRA 180445Z 10003KT 9999 FEW030 21/13 Q1012=
200807180415 METAR LIRA 180415Z 10005KT 9999 SCT060 22/12 Q1012=
200807180345 METAR LIRA 180345Z 14005KT 9999 BKN060 22/12 Q1012=
200807180315 METAR LIRA 180315Z 16006KT 130V200 9999 BKN060 20/12 Q1012=
200807180245 METAR LIRA 180245Z 16003KT 9999 BKN070 19/12 Q1012=
200807180215 METAR LIRA 180215Z 17001KT 9999 BKN080 19/13 Q1012=
200807180145 METAR LIRA 180145Z 10001KT 9999 SCT080 20/13 Q1012=
200807180115 METAR LIRA 180115Z 06004KT CAVOK 21/14 Q1013=
200807180045 METAR LIRA 180045Z 00000KT CAVOK 20/14 Q1013=
200807180015 METAR LIRA 180015Z 16004KT CAVOK 20/13 Q1013=
200807172345 METAR LIRA 172345Z 16005KT CAVOK 21/13 Q1013=
200807172315 METAR LIRA 172315Z 16005KT CAVOK 21/13 Q1013=
200807172245 METAR LIRA 172245Z 16003KT CAVOK 22/13 Q1013=
200807172215 METAR LIRA 172215Z 15004KT CAVOK 22/14 Q1013=
200807172145 METAR LIRA 172145Z 14003KT CAVOK 22/16 Q1013=
200807172115 METAR LIRA 172115Z 14003KT CAVOK 22/16 Q1013=
200807172045 METAR LIRA 172045Z 15002KT CAVOK 23/15 Q1013=
200807172015 METAR LIRA 172015Z 21004KT 9999 FEW080 23/14 Q1013=
200807171945 METAR LIRA 171945Z 22003KT 9999 SCT070 24/14 Q1013=
200807171915 METAR LIRA 171915Z 21003KT 9999 SCT060 SCT200 24/14 Q1013=
200807171845 METAR LIRA 171845Z 24003KT 9999 SCT060 BKN200 25/15 Q1013=
200807171815 METAR LIRA 171815Z 23004KT 9999 SCT060 BKN200 25/16 Q1013=
200807171745 METAR LIRA 171745Z 21005KT 9999 SCT070 BKN200 25/15 Q1013=
200807171715 METAR LIRA 171715Z 24006KT 200V300 9999 SCT070 BKN200 26/15
                        Q1014=
200807171645 METAR LIRA 171645Z 23007KT 190V260 9999 SCT070 SCT200 26/14
                        Q1014=
200807171615 METAR LIRA 171615Z 22006KT 200V270 9999 SCT080 SCT200 27/14
                        Q1014=
200807171545 METAR LIRA 171545Z 25007KT 210V310 9999 SCT070 SCT200 27/10
                        Q1014=
200807171515 METAR LIRA 171515Z 25008KT 180V300 9999 FEW070 SCT200 28/10
                        Q1014=
200807171445 METAR LIRA 171445Z 25008KT 190V310 9999 FEW070 SCT200 29/12
                        Q1014=
200807171415 METAR LIRA 171415Z 25007KT 200V320 CAVOK 29/12 Q1014=
200807171345 METAR LIRA 171345Z 25006KT 170V310 CAVOK 29/12 Q1014=
200807171315 METAR LIRA 171315Z 23006KT 170V280 CAVOK 29/12 Q1014=
200807171245 METAR LIRA 171245Z 23007KT 170V290 9999 FEW020 SCT200 29/12
                        Q1015=
200807171215 METAR LIRA 171215Z 21005KT 160V300 9999 FEW020 SCT200 29/11
                        Q1015=
200807171145 METAR LIRA 171145Z 25008KT 190V280 9999 FEW020 BKN200 30/12
                        Q1015=
200807171115 METAR LIRA 171115Z 23007KT 190V280 9999 FEW020 BKN200 29/12
                        Q1015=
200807171045 METAR LIRA 171045Z 24009KT 150V310 9999 FEW020 BKN200 29/11
                        Q1015=
200807171015 METAR LIRA 171015Z 24007KT 160V350 CAVOK 28/10 Q1015=
200807170945 METAR LIRA 170945Z 23005KT 200V340 CAVOK 28/10 Q1016=
200807170915 METAR LIRA 170915Z 25003KT 150V230 CAVOK 28/13 Q1016=
200807170845 METAR LIRA 170845Z 21003KT 9999 FEW070 BKN200 28/13 Q1016=
200807170815 METAR LIRA 170815Z 23004KT 9999 FEW070 SCT200 27/18 Q1016=
200807170745 METAR LIRA 170745Z 26002KT 9999 FEW070 SCT200 24/17 Q1015=
200807170715 METAR LIRA 170715Z 05001KT 9999 FEW070 SCT200 23/16 Q1015=
200807170645 METAR LIRA 170645Z 03002KT 9999 FEW070 23/16 Q1015=
200807170615 METAR LIRA 170615Z 03003KT 9999 FEW030 SCT070 22/17 Q1015=
200807170545 METAR LIRA 170545Z 03002KT 9999 FEW030 SCT070 20/16 Q1015=
200807170515 METAR LIRA 170515Z 36001KT 9999 SCT030 SCT070 20/16 Q1015=
200807170445 METAR LIRA 170445Z 02001KT 9999 SCT030 SCT070 19/15 Q1015=
200807170415 METAR LIRA 170415Z 06002KT 9999 SCT030 SCT070 18/15 Q1015=
200807170345 METAR LIRA 170345Z 06002KT 9999 SCT030 SCT080 18/15 Q1015=
200807170315 METAR LIRA 170315Z 00000KT 9999 FEW080 SCT200 19/15 Q1015=
200807170245 METAR LIRA 170245Z 30002KT CAVOK 19/15 Q1015=
200807170215 METAR LIRA 170215Z 00000KT CAVOK 19/15 Q1015=
200807170145 METAR LIRA 170145Z 05002KT CAVOK 20/15 Q1015=
200807170115 METAR LIRA 170115Z 11003KT CAVOK 20/15 Q1016=
200807170045 METAR LIRA 170045Z 00000KT CAVOK 20/16 Q1016=
200807170015 METAR LIRA 170015Z 13001KT CAVOK 20/15 Q1016=
200807162345 METAR LIRA 162345Z 10002KT CAVOK 20/15 Q1017=
200807162315 METAR LIRA 162315Z 11003KT CAVOK 21/17 Q1017=
200807162245 METAR LIRA 162245Z 10002KT CAVOK 22/18 Q1018=
200807162215 METAR LIRA 162215Z 16001KT CAVOK 22/18 Q1018=
200807162145 METAR LIRA 162145Z 19002KT CAVOK 23/17 Q1018=
200807162115 METAR LIRA 162115Z 20003KT CAVOK 23/17 Q1018=
200807162045 METAR LIRA 162045Z 18004KT CAVOK 23/17 Q1018=
200807162015 METAR LIRA 162015Z 22002KT CAVOK 23/18 Q1018=
200807161945 METAR LIRA 161945Z 20003KT CAVOK 23/18 Q1018=
200807161915 METAR LIRA 161915Z 23003KT CAVOK 24/18 Q1018=
200807161845 METAR LIRA 161845Z 25005KT CAVOK 25/17 Q1018=
200807161815 METAR LIRA 161815Z 24004KT 220V280 CAVOK 26/17 Q1018=
200807161745 METAR LIRA 161745Z 22006KT 180V270 CAVOK 26/17 Q1018=
200807161715 METAR LIRA 161715Z 21007KT 180V260 CAVOK 27/17 Q1018=
200807161645 METAR LIRA 161645Z 17007KT 170V290 CAVOK 27/17 Q1018=
200807161615 METAR LIRA 161615Z 24008KT 180V270 CAVOK 28/15 Q1018=
200807161545 METAR LIRA 161545Z 20009KT 160V300 CAVOK 29/16 Q1019=
200807161515 METAR LIRA 161515Z 25009KT 170V280 CAVOK 29/16 Q1019=
200807161445 METAR LIRA 161445Z 23007KT 170V280 CAVOK 29/15 Q1019=
200807161415 METAR LIRA 161415Z 23008KT 170V300 CAVOK 29/14 Q1019=
200807161345 METAR LIRA 161345Z 25006KT 200V290 9999 FEW080 30/13 Q1020=
200807161315 METAR LIRA 161315Z 23009KT 180V280 9999 FEW080 30/13 Q1020=
200807161245 METAR LIRA 161245Z 32007KT 210V350 9999 FEW080 30/15 Q1020=
200807161215 METAR LIRA 161215Z 26006KT 150V330 9999 FEW080 30/15 Q1020=
200807161145 METAR LIRA 161145Z 23002KT 190V360 9999 FEW018 30/14 Q1021=
200807161115 METAR LIRA 161115Z 24005KT 140V330 9999 FEW018 29/13 Q1021=
200807161045 METAR LIRA 161045Z 04006KT 300V070 9999 FEW018 28/13 Q1021=
200807161015 METAR LIRA 161015Z 30004KT 210V360 9999 FEW018 28/15 Q1022=
200807160945 METAR LIRA 160945Z 33005KT 270V360 9999 FEW018 28/14 Q1022=
200807160915 METAR LIRA 160915Z 31002KT 9999 FEW018 27/14 Q1022=
200807160845 METAR LIRA 160845Z 07005KT CAVOK 26/13 Q1022=
200807160815 METAR LIRA 160815Z 33003KT CAVOK 26/14 Q1022=
200807160745 METAR LIRA 160745Z 03004KT 330V070 CAVOK 25/16 Q1022=
200807160715 METAR LIRA 160715Z 03006KT 360V110 CAVOK 23/15 Q1022=
200807160645 METAR LIRA 160645Z 02005KT 340V110 CAVOK 22/15 Q1022=
200807160615 METAR LIRA 160615Z 04006KT 360V090 CAVOK 20/14 Q1022=
200807160545 METAR LIRA 160545Z 08002KT CAVOK 20/14 Q1021=
200807160515 METAR LIRA 160515Z 01002KT CAVOK 18/13 Q1021=
200807160445 METAR LIRA 160445Z 09001KT CAVOK 18/13 Q1021=
200807160415 METAR LIRA 160415Z 05003KT CAVOK 18/10 Q1021=
200807160345 METAR LIRA 160345Z 07002KT CAVOK 18/10 Q1021=
200807160315 METAR LIRA 160315Z 10002KT CAVOK 18/11 Q1021=
200807160245 METAR LIRA 160245Z 07004KT CAVOK 19/12 Q1021=
200807160215 METAR LIRA 160215Z 04002KT CAVOK 19/11 Q1021=
200807160145 METAR LIRA 160145Z 03002KT CAVOK 20/12 Q1021=
200807160045 METAR LIRA 160045Z 01003KT CAVOK 21/12 Q1022=
200807160015 METAR LIRA 160015Z 02003KT CAVOK 21/12 Q1022=
200807152345 METAR LIRA 152345Z 03003KT CAVOK 21/12 Q1022=
200807152315 METAR LIRA 152315Z 06003KT CAVOK 22/12 Q1022=
200807152245 METAR LIRA 152245Z 06004KT CAVOK 22/12 Q1021=
200807152215 METAR LIRA 152215Z 06002KT CAVOK 23/12 Q1021=
200807152145 METAR LIRA 152145Z 04004G12000KT CAVOK 24/12 Q1021=
200807152115 METAR LIRA 152115Z 02005KT CAVOK 24/12 Q1021=
200807152045 METAR LIRA 152045Z 36005KT CAVOK 25/11 Q1021=
200807152015 METAR LIRA 152015Z 08001KT CAVOK 26/10 Q1021=
200807151945 METAR LIRA 151945Z 35007KT 310V020 CAVOK 26/09 Q1020=
200807151915 METAR LIRA 151915Z 35005KT 290V030 CAVOK 26/18 Q1020=
200807151845 METAR LIRA 151845Z 29002KT CAVOK 26/18 Q1020=
200807151815 METAR LIRA 151815Z 14005KT 130V200 CAVOK 27/18 Q1020=
200807151745 METAR LIRA 151745Z 17008KT 140V220 CAVOK 28/16 Q1020=
200807151715 METAR LIRA 151715Z 18010KT 150V220 CAVOK 28/14 Q1020=
200807151645 METAR LIRA 151645Z 20010KT 160V230 9999 FEW020 29/13 Q1020=
200807151615 METAR LIRA 151615Z 22012KT 160V240 9999 FEW020 29/13 Q1020=
200807151545 METAR LIRA 151545Z 21014KT 140V240 9999 FEW020 30/12 Q1020=
200807151515 METAR LIRA 151515Z 19017KT 150V240 9999 FEW020 30/11 Q1020=
200807151445 METAR LIRA 151445Z 20013G29KT 170V270 9999 SCT020 31/10 Q1020=
200807151415 METAR LIRA 151415Z 31006KT 250V340 9999 SCT020 31/10 Q1020=
200807151345 METAR LIRA 151345Z 33006KT 300V040 9999 SCT020 31/11 Q1020=
200807151315 METAR LIRA 151315Z 36006KT 330V050 9999 SCT020 31/11 Q1020=
200807151245 METAR LIRA 151245Z 03004KT 300V080 9999 FEW020 30/11 Q1021=
200807151215 METAR LIRA 151215Z 33007KT 270V030 9999 FEW020 30/11 Q1021=
200807151145 METAR LIRA 151145Z 02003KT 9999 FEW020 29/11 Q1021=
200807151115 METAR LIRA 151115Z 15002KT 9999 FEW020 29/12 Q1021=
200807151045 METAR LIRA 151045Z 01006KT 300V030 9999 FEW020 28/12 Q1021=
200807151015 METAR LIRA 151015Z 33005KT 9999 FEW020 27/12 Q1021=
200807150945 METAR LIRA 150945Z 01004KT 300V040 CAVOK 26/13 Q1021=
200807150915 METAR LIRA 150915Z 32005KT 280V020 CAVOK 25/13 Q1021=
200807150845 METAR LIRA 150845Z 35009KT 300V080 CAVOK 24/15 Q1021=
200807150815 METAR LIRA 150815Z 36006KT 300V080 CAVOK 24/15 Q1021=
200807150745 METAR LIRA 150745Z 02005KT 300V080 CAVOK 22/15 Q1021=
200807150715 METAR LIRA 150715Z 03005KT 300V090 CAVOK 21/15 Q1021=
200807150645 METAR LIRA 150645Z 04005KT 320V090 CAVOK 20/15 Q1021=
200807150615 METAR LIRA 150615Z 03005KT CAVOK 20/15 Q1021=
200807150545 METAR LIRA 150545Z 06004KT CAVOK 18/14 Q1021=
200807150515 METAR LIRA 150515Z 04006KT 360V090 CAVOK 17/13 Q1020=
200807150445 METAR LIRA 150445Z 02004KT CAVOK 17/14 Q1020=
200807150415 METAR LIRA 150415Z 04003KT CAVOK 17/13 Q1020=
200807150345 METAR LIRA 150345Z 06003KT CAVOK 17/13 Q1020=
200807150315 METAR LIRA 150315Z 15001KT CAVOK 17/13 Q1020=
200807150245 METAR LIRA 150245Z 13001KT CAVOK 17/13 Q1020=
200807150215 METAR LIRA 150215Z 09002KT CAVOK 17/13 Q1020=
200807150145 METAR LIRA 150145Z 08004KT CAVOK 17/13 Q1020=
200807150115 METAR LIRA 150115Z 11002KT CAVOK 17/12 Q1020=
200807150045 METAR LIRA 150045Z 13003KT CAVOK 19/14 Q1020=
200807150015 METAR LIRA 150015Z 13003KT CAVOK 19/14 Q1019=
200807142345 METAR LIRA 142345Z 13002KT CAVOK 19/15 Q1019=
200807142315 METAR LIRA 142315Z 15004KT CAVOK 20/17 Q1019=
200807142245 METAR LIRA 142245Z 16005KT CAVOK 20/17 Q1019=
200807142215 METAR LIRA 142215Z 15005KT CAVOK 20/16 Q1019=
200807142145 METAR LIRA 142145Z 16005KT CAVOK 20/17 Q1018=
200807142115 METAR LIRA 142115Z 16002KT CAVOK 21/17 Q1018=
200807142045 METAR LIRA 142045Z 12005KT CAVOK 21/17 Q1018=
200807142015 METAR LIRA 142015Z 19003KT CAVOK 21/16 Q1018=
200807141945 METAR LIRA 141945Z 22002KT 9999 FEW020 22/16 Q1017=
200807141915 METAR LIRA 141915Z 24004KT 9999 SCT018 23/16 Q1017=
200807141845 METAR LIRA 141845Z 19005KT 9999 FEW018 23/16 Q1017=
200807141815 METAR LIRA 141815Z 18006KT 9999 FEW018 23/16 Q1017=
200807141745 METAR LIRA 141745Z 22005KT 180V290 9999 SCT018 24/15 Q1017=
200807141715 METAR LIRA 141715Z 24006KT 160V280 9999 SCT018 BKN200 23/15
                        Q1017=
200807141645 METAR LIRA 141645Z 21005KT 170V260 9999 SCT018 BKN200 24/15
                        Q1017=
200807141615 METAR LIRA 141615Z 20008KT 160V270 9999 SCT020 BKN200 25/14
                        Q1017=
200807141545 METAR LIRA 141545Z 23010KT 160V290 9999 FEW020 SCT200 25/13
                        Q1016=
200807141515 METAR LIRA 141515Z 21006KT 160V290 9999 FEW020 SCT200 25/13
                        Q1016=
200807141445 METAR LIRA 141445Z 24012KT 170V280 9999 FEW020 SCT200 26/13
                        Q1016=
200807141415 METAR LIRA 141415Z 20011KT 150V260 9999 SCT025 26/14 Q1016=
200807141345 METAR LIRA 141345Z 24011KT 130V280 9999 SCT025 26/15 Q1016=
200807141315 METAR LIRA 141315Z 24012KT 180V280 9999 SCT025 25/15 Q1016=
200807141245 METAR LIRA 141245Z 20012KT 170V300 9999 SCT025 25/15 Q1015=
200807141215 METAR LIRA 141215Z 25012KT 160V270 9999 BKN025 26/17 Q1015=
200807141145 METAR LIRA 141145Z 20010KT 160V290 9999 BKN025 26/15 Q1015=
200807141115 METAR LIRA 141115Z 21010KT 160V300 9999 BKN025 26/16 Q1015=
200807141045 METAR LIRA 141045Z 21010KT 170V300 9999 BKN025 25/16 Q1015=
200807141015 METAR LIRA 141015Z 23011KT 170V270 9999 SCT025 26/16 Q1014=
200807140945 METAR LIRA 140945Z 20011KT 120V260 9999 SCT025 25/16 Q1014=
200807140915 METAR LIRA 140915Z 21010KT 150V290 9999 BKN025 25/16 Q1014=
200807140845 METAR LIRA 140845Z 22007KT 160V280 9999 BKN025 25/16 Q1014=
200807140815 METAR LIRA 140815Z 21011KT 150V260 9999 SCT025 24/14 Q1014=
200807140745 METAR LIRA 140745Z 21008KT 150V260 9999 SCT022 23/16 Q1014=
200807140715 METAR LIRA 140715Z 20009KT 160V250 9999 SCT022 23/17 Q1014=
200807140645 METAR LIRA 140645Z 19008KT 150V290 9999 SCT022 23/20 Q1014=
200807140615 METAR LIRA 140615Z 20011KT 180V260 9999 SCT020 23/14 Q1014=
200807140545 METAR LIRA 140545Z 21009KT 170V250 9999 SCT020 22/18 Q1013=
200807140415 METAR LIRA 140415Z 19006KT 160V230 9999 SCT020 22/19 Q1012=
200807140345 METAR LIRA 140345Z 19006KT 160V230 9999 FEW020 22/19 Q1012=
200807140315 METAR LIRA 140315Z 18006KT CAVOK 22/20 Q1011=
200807140245 METAR LIRA 140245Z 19005KT CAVOK 23/20 Q1011=
200807140215 METAR LIRA 140215Z 18006KT 9999 FEW080 23/20 Q1011=
200807140145 METAR LIRA 140145Z 18006KT 9999 FEW080 23/21 Q1012=
200807140115 METAR LIRA 140115Z 17005KT 9999 SCT080 24/21 Q1012=
200807140045 METAR LIRA 140045Z 18004KT 9999 BKN080 24/22 Q1011=
200807140015 METAR LIRA 140015Z 24005KT 9999 FEW020 SCT080 25/23 Q1011=
200807132345 METAR LIRA 132345Z 22005KT 180V240 9999 FEW020 25/24 Q1011=
200807132315 METAR LIRA 132315Z 20005KT 160V220 9999 SCT020 SCT070 25/24
                        Q1011=
200807132245 METAR LIRA 132245Z 21006KT 170V250 9999 FEW016 SCT070 26/24
                        Q1011=
200807132215 METAR LIRA 132215Z 18007KT 9999 SCT020 SCT070 26/24 Q1011=
200807132145 METAR LIRA 132145Z 19006KT 160V220 9999 SCT020 SCT060 26/24
                        Q1011=
200807132115 METAR LIRA 132115Z 17007KT 140V210 9999 FEW020 SCT070 26/23
                        Q1011=
200807132045 METAR LIRA 132045Z 20006KT 170V260 9999 FEW020 SCT060 26/23
                        Q1011=
200807132015 METAR LIRA 132015Z 20006KT 170V240 9999 SCT020 SCT060 26/22
                        Q1010=
200807131945 METAR LIRA 131945Z 21007KT 170V250 9999 FEW018TCU SCT020
                        26/22 Q1010=
200807131915 METAR LIRA 131915Z 21008KT 170V270 9999 FEW018TCU SCT020
                        27/22 Q1010=
200807131845 METAR LIRA 131845Z 21008KT 170V260 9999 FEW020CB SCT030 27/18
                        Q1010 RETS=
200807131815 METAR LIRA 131815Z 21005KT 180V270 9999 TS SCT020CB SCT070
                        28/18 Q1010=
200807131745 METAR LIRA 131745Z 21008KT 160V250 9999 -TSRA SCT020CB SCT070
                        29/16 Q1009=
200807131715 METAR LIRA 131715Z 20013G23KT 160V260 9999 FEW018TCU FEW020CB
                        SCT070 31/15 Q1009=
200807131645 METAR LIRA 131645Z 26011KT 200V320 9999 FEW020CB SCT070 30/17
                        Q1009=
200807131615 METAR LIRA 131615Z 16019KT 100V180 9999 FEW020CB SCT030 30/16
                        Q1008=
200807131545 METAR LIRA 131545Z 16005KT 120V270 9999 FEW020 FEW024CB SCT030
                        29/14 Q1010=
200807131515 METAR LIRA 131515Z 17004KT 9999 FEW020 SCT030 30/14 Q1010=
200807131445 METAR LIRA 131445Z 23004KT 170V270 9999 FEW020 SCT030 31/14
                        Q1010=
200807131415 METAR LIRA 131415Z 19010KT 120V220 9999 FEW020 SCT030 31/15
                        Q1010=
200807131345 METAR LIRA 131345Z 16012KT 090V190 9999 FEW020 SCT070 31/14
                        Q1010=
200807131315 METAR LIRA 131315Z 18010KT 120V200 9999 FEW030 BKN070 31/14
                        Q1010=
200807131245 METAR LIRA 131245Z 18011KT 130V220 9999 FEW030 BKN070 31/13
                        Q1010=
200807131215 METAR LIRA 131215Z 16011KT 090V210 9999 FEW030 BKN070 32/12
                        Q1011=
200807131145 METAR LIRA 131145Z 17011KT 120V210 9999 FEW030 BKN070 31/12
                        Q1011=
200807131115 METAR LIRA 131115Z 17011KT 160V230 9999 FEW030 SCT070 31/11
                        Q1011=
200807131045 METAR LIRA 131045Z 18015KT 150V240 9999 FEW030 SCT070 31/12
                        Q1011=
200807131015 METAR LIRA 131015Z 12004KT 9999 FEW020 SCT070 31/12 Q1011=
200807130945 METAR LIRA 130945Z 15005KT 070V200 9999 FEW020 SCT030 30/12
                        Q1011=
200807130915 METAR LIRA 130915Z 05005KT 330V100 9999 FEW020 SCT080 30/12
                        Q1011=
200807130845 METAR LIRA 130845Z 10011KT 030V140 9999 FEW020 SCT030 BKN070
                        31/13 Q1010=
200807130815 METAR LIRA 130815Z 20007KT 090V250 9999 FEW030 SCT080 30/14
                        Q1010=
200807130745 METAR LIRA 130745Z 17004KT 150V280 9999 SCT070 29/14 Q1010=
200807130715 METAR LIRA 130715Z 16009KT 120V210 9999 FEW030 SCT070 28/14
                        Q1010=
200807130645 METAR LIRA 130645Z 16011KT 120V210 9999 FEW030 SCT070 26/13
                        Q1010=
200807130615 METAR LIRA 130615Z 17011KT 9999 FEW030 BKN070 26/15 Q1010=
200807130545 METAR LIRA 130545Z 25006KT 9999 FEW030 BKN070 23/15 Q1010=
200807130515 METAR LIRA 130515Z 24006KT 9999 FEW030 BKN070 21/13 Q1010=
200807130445 METAR LIRA 130445Z 04002KT 9999 FEW030 BKN070 21/13 Q1009=
200807130415 METAR LIRA 130415Z 32004KT 9999 FEW030 SCT070 21/12 Q1009=
200807130345 METAR LIRA 130345Z 29002KT 9999 FEW030 SCT060 21/12 Q1009=
200807130315 METAR LIRA 130315Z 31002KT 9999 FEW070 21/12 Q1009=
200807130245 METAR LIRA 130245Z 02002KT 9999 SCT070 21/13 Q1009=
200807130215 METAR LIRA 130215Z 36001KT CAVOK 21/12 Q1009=
200807130145 METAR LIRA 130145Z 10002KT 9999 SCT080 21/12 Q1009=
200807130115 METAR LIRA 130115Z 17001KT CAVOK 21/13 Q1009=
200807130045 METAR LIRA 130045Z 11003KT CAVOK 22/13 Q1009=
200807130015 METAR LIRA 130015Z 12002KT CAVOK 22/13 Q1009=
200807122345 METAR LIRA 122345Z 13003KT CAVOK 23/13 Q1009=
200807122315 METAR LIRA 122315Z 16005KT CAVOK 23/13 Q1009=
200807122245 METAR LIRA 122245Z 17003KT CAVOK 23/13 Q1010=
200807122215 METAR LIRA 122215Z 17005KT CAVOK 23/12 Q1010=
200807122145 METAR LIRA 122145Z 22004KT CAVOK 25/12 Q1010=
200807122115 METAR LIRA 122115Z 18004KT 170V230 CAVOK 24/11 Q1010=
200807122045 METAR LIRA 122045Z 22002KT CAVOK 25/08 Q1009=
200807122015 METAR LIRA 122015Z 24003KT CAVOK 25/07 Q1009=
200807121945 METAR LIRA 121945Z 21002KT CAVOK 28/06 Q1009=
200807121915 METAR LIRA 121915Z 22003KT CAVOK 28/06 Q1009=
200807121845 METAR LIRA 121845Z 18005KT CAVOK 29/07 Q1009=
200807121815 METAR LIRA 121815Z 21005KT 180V260 CAVOK 30/06 Q1009=
200807121745 METAR LIRA 121745Z 18007KT 140V230 CAVOK 31/07 Q1009=
200807121715 METAR LIRA 121715Z 19009KT 140V210 CAVOK 31/09 Q1010=
200807121645 METAR LIRA 121645Z 21005KT 160V260 CAVOK 31/10 Q1010=
200807121615 METAR LIRA 121615Z 23008KT 170V270 CAVOK 31/10 Q1010=
200807121545 METAR LIRA 121545Z 23008KT 170V270 9999 FEW025 31/08 Q1010=
200807121515 METAR LIRA 121515Z 22009KT 170V270 9999 FEW025 31/09 Q1010=
200807121445 METAR LIRA 121445Z 23007KT 170V270 9999 FEW020 31/11 Q1010=
200807121415 METAR LIRA 121415Z 22009KT 180V270 9999 FEW020 32/12 Q1011=
200807121345 METAR LIRA 121345Z 25008KT 210V290 9999 FEW020 32/16 Q1011=
200807121315 METAR LIRA 121315Z 24012KT 180V280 9999 FEW020 32/16 Q1011=
200807121245 METAR LIRA 121245Z 21007KT 140V260 9999 FEW020 32/17 Q1011=
200807121215 METAR LIRA 121215Z 22007KT 190V280 9999 FEW020 32/17 Q1011=
200807121145 METAR LIRA 121145Z 20011KT 140V240 9999 FEW020 33/18 Q1011=
200807121115 METAR LIRA 121115Z 19009KT 120V240 CAVOK 32/18 Q1011=
200807121045 METAR LIRA 121045Z 15008KT 120V210 CAVOK 31/18 Q1012=
200807121015 METAR LIRA 121015Z 20006KT 150V250 CAVOK 31/17 Q1012=
200807120945 METAR LIRA 120945Z 19009KT 160V240 CAVOK 30/17 Q1012=
200807120915 METAR LIRA 120915Z 19009KT 160V240 CAVOK 30/16 Q1012=
200807120845 METAR LIRA 120845Z 19008KT 160V250 CAVOK 30/16 Q1012=
200807120815 METAR LIRA 120815Z 17009KT CAVOK 30/16 Q1012=
200807120745 METAR LIRA 120745Z 18007KT 110V200 CAVOK 27/16 Q1012=
200807120715 METAR LIRA 120715Z 27001KT CAVOK 27/17 Q1012=
200807120645 METAR LIRA 120645Z 00000KT CAVOK 23/16 Q1012=
200807120615 METAR LIRA 120615Z 00000KT CAVOK 23/16 Q1012=
200807120545 METAR LIRA 120545Z 00000KT CAVOK 20/15 Q1012=
200807120515 METAR LIRA 120515Z 00000KT CAVOK 20/15 Q1012=
200807120445 METAR LIRA 120445Z 36002KT CAVOK 19/14 Q1012=
200807120415 METAR LIRA 120415Z 06003KT CAVOK 19/14 Q1012=
200807120345 METAR LIRA 120345Z 09002KT 9999 FEW060 SCT200 19/14 Q1012=
200807120315 METAR LIRA 120315Z 08002KT 9999 FEW060 19/13 Q1012=
200807120245 METAR LIRA 120245Z 06003KT CAVOK 20/13 Q1012=
200807120215 METAR LIRA 120215Z 08003KT CAVOK 20/13 Q1012=
200807120145 METAR LIRA 120145Z 03002KT CAVOK 20/13 Q1013=
200807120115 METAR LIRA 120115Z 10001KT CAVOK 20/13 Q1013=
200807120045 METAR LIRA 120045Z 11002KT CAVOK 21/14 Q1013=
200807120015 METAR LIRA 120015Z 00000KT 9999 FEW060 21/15 Q1013=
200807112345 METAR LIRA 112345Z 12001KT 9999 FEW030 21/15 Q1013=
200807112315 METAR LIRA 112315Z 00000KT 9999 FEW030 21/15 Q1013=
200807112245 METAR LIRA 112245Z 00000KT 9999 FEW060 22/14 Q1014=
200807112215 METAR LIRA 112215Z 10002KT CAVOK 22/15 Q1013=
200807112145 METAR LIRA 112145Z 11001KT CAVOK 23/16 Q1013=
200807112115 METAR LIRA 112115Z 17001KT CAVOK 23/16 Q1014=
200807112045 METAR LIRA 112045Z 17002KT CAVOK 24/16 Q1014=
200807112015 METAR LIRA 112015Z 23002KT CAVOK 24/15 Q1014=
200807111945 METAR LIRA 111945Z 24003KT 9999 FEW080 25/14 Q1014=
200807111915 METAR LIRA 111915Z 23002KT 9999 FEW080 25/13 Q1014=
200807111845 METAR LIRA 111845Z 25004KT CAVOK 27/12 Q1014=
200807111815 METAR LIRA 111815Z 24003KT 9999 FEW080 27/12 Q1014=
200807111745 METAR LIRA 111745Z 24004KT 9999 FEW080 28/12 Q1014=
200807111715 METAR LIRA 111715Z 23004KT 210V270 9999 FEW080 28/12 Q1014=
200807111645 METAR LIRA 111645Z 23006KT 180V290 CAVOK 29/15 Q1014=
200807111615 METAR LIRA 111615Z 24010KT 190V280 CAVOK 29/15 Q1014=
200807111545 METAR LIRA 111545Z 24009KT 180V310 9999 FEW020 30/17 Q1014=
200807111515 METAR LIRA 111515Z 25009KT 200V310 9999 FEW020 30/16 Q1014=
200807111445 METAR LIRA 111445Z 24008KT 200V300 9999 FEW020 30/15 Q1014=
200807111415 METAR LIRA 111415Z 25011KT 210V300 9999 FEW020 32/12 Q1014=
200807111345 METAR LIRA 111345Z 23008KT 190V270 9999 FEW020 33/13 Q1014=
200807111315 METAR LIRA 111315Z 22002KT 090V230 9999 FEW020 32/15 Q1014=
200807111245 METAR LIRA 111245Z 20008KT 120V310 9999 FEW020 31/18 Q1014=
200807111215 METAR LIRA 111215Z 21008KT 170V240 9999 FEW020 30/17 Q1015=
200807111145 METAR LIRA 111145Z 18005KT 150V230 9999 FEW020 30/18 Q1015=
200807111115 METAR LIRA 111115Z 21004KT 150V330 9999 FEW020 31/16 Q1015=
200807111045 METAR LIRA 111045Z 25008KT 180V290 9999 FEW023 SCT200 31/15
                        Q1015=
200807111015 METAR LIRA 111015Z 21007KT 150V270 9999 FEW023 SCT200 30/16
                        Q1015=
200807110945 METAR LIRA 110945Z 21009KT 130V280 CAVOK 30/17 Q1015=
200807110915 METAR LIRA 110915Z 19008KT 160V240 CAVOK 29/16 Q1015=
200807110845 METAR LIRA 110845Z 19006KT CAVOK 28/15 Q1015=
200807110815 METAR LIRA 110815Z 23002KT CAVOK 28/17 Q1015=
200807110745 METAR LIRA 110745Z 18002KT CAVOK 25/15 Q1016=
200807110715 METAR LIRA 110715Z 03003KT CAVOK 24/15 Q1016=
200807110645 METAR LIRA 110645Z 00000KT CAVOK 23/16 Q1016=
200807110615 METAR LIRA 110615Z 02003KT CAVOK 21/15 Q1015=
200807110545 METAR LIRA 110545Z 35002KT CAVOK 21/15 Q1015=
200807110515 METAR LIRA 110515Z 01003KT CAVOK 19/16 Q1015=
200807110445 METAR LIRA 110445Z 11003KT CAVOK 19/16 Q1014=
200807110415 METAR LIRA 110415Z 03003KT CAVOK 19/18 Q1014=
200807110345 METAR LIRA 110345Z 03002KT CAVOK 19/18 Q1014=
200807110315 METAR LIRA 110315Z 05003KT CAVOK 19/17 Q1014=
200807110245 METAR LIRA 110245Z 04002KT CAVOK 20/17 Q1014=
200807110215 METAR LIRA 110215Z 15001KT CAVOK 20/18 Q1014=
200807110145 METAR LIRA 110145Z 11003KT CAVOK 20/18 Q1015=
200807110115 METAR LIRA 110115Z 11003KT CAVOK 21/18 Q1015=
200807110045 METAR LIRA 110045Z 10005KT CAVOK 21/17 Q1015=
200807110015 METAR LIRA 110015Z 16004KT CAVOK 21/15 Q1015=
200807102345 METAR LIRA 102345Z 17003KT CAVOK 22/15 Q1015=
200807102315 METAR LIRA 102315Z 18003KT CAVOK 22/15 Q1015=
200807102245 METAR LIRA 102245Z 17002KT CAVOK 22/15 Q1015=
200807102215 METAR LIRA 102215Z 18001KT CAVOK 22/14 Q1015=
200807102145 METAR LIRA 102145Z 16002KT CAVOK 22/14 Q1015=
200807102115 METAR LIRA 102115Z 14003KT CAVOK 22/14 Q1015=
200807102045 METAR LIRA 102045Z 19003KT CAVOK 23/14 Q1015=
200807102015 METAR LIRA 102015Z 20002KT CAVOK 24/14 Q1015=
200807101945 METAR LIRA 101945Z 20002KT CAVOK 25/14 Q1015=
200807101915 METAR LIRA 101915Z 23002KT CAVOK 26/13 Q1015=
200807101845 METAR LIRA 101845Z 27003KT CAVOK 27/14 Q1015=
200807101815 METAR LIRA 101815Z 26005KT 240V320 CAVOK 28/13 Q1015=
200807101745 METAR LIRA 101745Z 26005KT 210V330 CAVOK 28/13 Q1015=
200807101715 METAR LIRA 101715Z 27006KT 230V340 CAVOK 29/13 Q1015=
200807101645 METAR LIRA 101645Z 27008KT 220V310 CAVOK 29/13 Q1015=
200807101615 METAR LIRA 101615Z 27006KT 170V320 CAVOK 29/12 Q1015=
200807101545 METAR LIRA 101545Z 28008KT 230V330 CAVOK 30/13 Q1015=
200807101515 METAR LIRA 101515Z 26005KT 200V310 CAVOK 30/12 Q1015=
200807101445 METAR LIRA 101445Z 25007KT 200V310 9999 FEW020 30/12 Q1015=
200807101415 METAR LIRA 101415Z 26010KT 190V310 9999 FEW020 30/12 Q1015=
200807101345 METAR LIRA 101345Z 26011KT 210V320 9999 FEW020 30/12 Q1015=
200807101315 METAR LIRA 101315Z 23010KT 210V300 9999 FEW020 31/13 Q1015=
200807101245 METAR LIRA 101245Z 22005KT 160V270 9999 FEW020 30/14 Q1015=
200807101215 METAR LIRA 101215Z 28009KT 220V310 9999 FEW020 30/14 Q1015=
200807101145 METAR LIRA 101145Z 24007KT 180V300 9999 FEW020 30/16 Q1015=
200807101115 METAR LIRA 101115Z 23007KT 170V270 9999 FEW025 30/15 Q1015=
200807101045 METAR LIRA 101045Z 19004KT 150V250 9999 FEW025 29/13 Q1015=
200807101015 METAR LIRA 101015Z 25004KT 180V280 9999 FEW025 29/13 Q1015=
200807100945 METAR LIRA 100945Z 20004KT 9999 FEW025 29/13 Q1015=
200807100915 METAR LIRA 100915Z 23002KT CAVOK 29/14 Q1015=
200807100845 METAR LIRA 100845Z 29004KT 250V350 CAVOK 27/14 Q1015=
200807100815 METAR LIRA 100815Z 33005KT 250V330 CAVOK 27/14 Q1015=
200807100745 METAR LIRA 100745Z 26002KT CAVOK 25/15 Q1015=
200807100715 METAR LIRA 100715Z 24003KT CAVOK 24/15 Q1015=
200807100645 METAR LIRA 100645Z 00000KT CAVOK 21/12 Q1015=
200807100615 METAR LIRA 100615Z 00000KT CAVOK 20/12 Q1015=
200807100545 METAR LIRA 100545Z 00000KT CAVOK 19/12 Q1015=
200807100515 METAR LIRA 100515Z 05001KT CAVOK 18/11 Q1015=
200807100445 METAR LIRA 100445Z 06003KT CAVOK 17/11 Q1015=
200807100415 METAR LIRA 100415Z 08002KT CAVOK 18/11 Q1015=
200807100345 METAR LIRA 100345Z 08002KT CAVOK 18/10 Q1015=
200807100315 METAR LIRA 100315Z 07002KT CAVOK 18/11 Q1015=
200807100245 METAR LIRA 100245Z 03001KT CAVOK 18/11 Q1015=
200807100215 METAR LIRA 100215Z 02003KT CAVOK 19/13 Q1015=
200807100145 METAR LIRA 100145Z 15001KT CAVOK 20/15 Q1015=
200807100115 METAR LIRA 100115Z 15002KT CAVOK 20/16 Q1015=
200807100045 METAR LIRA 100045Z 15003KT CAVOK 21/16 Q1015=
200807100015 METAR LIRA 100015Z 17005KT CAVOK 20/16 Q1015=
200807092345 METAR LIRA 092345Z 17005KT CAVOK 20/16 Q1015=
200807092315 METAR LIRA 092315Z 16005KT CAVOK 21/17 Q1015=
200807092245 METAR LIRA 092245Z 17004KT CAVOK 21/16 Q1015=
200807092215 METAR LIRA 092215Z 18003KT CAVOK 21/17 Q1015=
200807092145 METAR LIRA 092145Z 19003KT CAVOK 22/17 Q1015=
200807092115 METAR LIRA 092115Z 17003KT CAVOK 22/18 Q1015=
200807092045 METAR LIRA 092045Z 15003KT CAVOK 23/18 Q1015=
200807092015 METAR LIRA 092015Z 18002KT CAVOK 23/17 Q1015=
200807091945 METAR LIRA 091945Z 23002KT CAVOK 24/16 Q1015=
200807091915 METAR LIRA 091915Z 24002KT CAVOK 26/18 Q1014=
200807091845 METAR LIRA 091845Z 24005KT CAVOK 27/17 Q1014=
200807091815 METAR LIRA 091815Z 24005KT CAVOK 27/16 Q1014=
200807091745 METAR LIRA 091745Z 24007KT 210V300 CAVOK 28/16 Q1014=
200807091715 METAR LIRA 091715Z 23006KT 190V270 CAVOK 28/16 Q1014=
200807091645 METAR LIRA 091645Z 24008KT 190V280 CAVOK 29/16 Q1014=
200807091615 METAR LIRA 091615Z 23009KT 190V300 CAVOK 30/16 Q1014=
200807091545 METAR LIRA 091545Z 24009KT 180V290 9999 FEW020 30/19 Q1014=
200807091515 METAR LIRA 091515Z 23007KT 180V340 CAVOK 30/18 Q1014=
200807091445 METAR LIRA 091445Z 24006KT 170V310 9999 FEW020 30/17 Q1014=
200807091415 METAR LIRA 091415Z 25006KT 120V360 9999 FEW020 30/03 Q1014=
200807091345 METAR LIRA 091345Z 23007KT 130V360 CAVOK 31/03 Q1015=
200807091315 METAR LIRA 091315Z 29007KT 190V030 9999 FEW020 31/02 Q1015=
200807091245 METAR LIRA 091245Z 23009KT 180V290 9999 FEW020 32/02 Q1015=
200807091215 METAR LIRA 091215Z 25008KT 180V310 9999 FEW020 32/03 Q1015=
200807091145 METAR LIRA 091145Z 22008KT 180V310 9999 FEW020 31/05 Q1015=
200807091115 METAR LIRA 091115Z 13001KT 9999 FEW020 30/09 Q1015=
200807091045 METAR LIRA 091045Z 32003KT 9999 FEW020 30/09 Q1015=
200807091015 METAR LIRA 091015Z 17002KT 9999 FEW020 29/11 Q1015=
200807090945 METAR LIRA 090945Z 28004KT 9999 FEW020 29/18 Q1015=
200807090915 METAR LIRA 090915Z 36004KT CAVOK 27/17 Q1015=
200807090845 METAR LIRA 090845Z 02004KT 340V090 CAVOK 26/17 Q1016=
200807090815 METAR LIRA 090815Z 01004KT 350V080 9999 FEW018 24/16 Q1016=
200807090745 METAR LIRA 090745Z 04005KT 320V100 9999 FEW018 24/15 Q1016=
200807090715 METAR LIRA 090715Z 01003KT 360V100 9999 FEW020 23/19 Q1016=
200807090645 METAR LIRA 090645Z 03004KT 330V090 9999 FEW018 22/18 Q1015=
200807090615 METAR LIRA 090615Z 04006KT 330V090 9999 FEW018 20/17 Q1015=
200807090545 METAR LIRA 090545Z 00005KT 330V080 9999 FEW018 20/17 Q1015=
200807090515 METAR LIRA 090515Z 03005KT 330V060 CAVOK 18/16 Q1015=
200807090445 METAR LIRA 090445Z 07002KT 9999 FEW070 18/16 Q1014=
200807090415 METAR LIRA 090415Z 07002KT 9999 FEW060 18/16 Q1014=
200807090345 METAR LIRA 090345Z 09001KT 9999 FEW070 19/17 Q1014=
200807090315 METAR LIRA 090315Z 11002KT 9999 FEW070 19/17 Q1014=
200807090245 METAR LIRA 090245Z 16003KT CAVOK 19/17 Q1014=
200807090215 METAR LIRA 090215Z 11003KT CAVOK 20/17 Q1014=
200807090145 METAR LIRA 090145Z 15001KT CAVOK 20/16 Q1014=
200807090115 METAR LIRA 090115Z 00000KT CAVOK 20/16 Q1014=
200807090045 METAR LIRA 090045Z 16005KT CAVOK 20/16 Q1014=
200807090015 METAR LIRA 090015Z 16003KT CAVOK 20/16 Q1014=
200807082345 METAR LIRA 082345Z 20002KT CAVOK 21/16 Q1014=
200807082315 METAR LIRA 082315Z 20002KT CAVOK 21/16 Q1014=
200807082245 METAR LIRA 082245Z 22002KT CAVOK 21/16 Q1014=
200807082215 METAR LIRA 082215Z 00000KT 9999 FEW080 SCT200 22/17 Q1014=
200807082145 METAR LIRA 082145Z 16003KT 9999 FEW080 SCT200 22/18 Q1014=
200807082115 METAR LIRA 082115Z 20004KT 9999 FEW080 SCT200 23/19 Q1014=
200807082045 METAR LIRA 082045Z 00000KT 9999 FEW080 SCT200 23/19 Q1014=
200807082015 METAR LIRA 082015Z 19003KT 9999 SCT080 SCT200 23/19 Q1014=
200807081945 METAR LIRA 081945Z 22003KT 9999 FEW080 24/19 Q1014=
200807081915 METAR LIRA 081915Z 21004KT 9999 FEW080 24/19 Q1014=
200807081845 METAR LIRA 081845Z 23005KT 210V280 9999 FEW080 25/16 Q1014=
200807081815 METAR LIRA 081815Z 26005KT 220V290 CAVOK 26/17 Q1014=
200807081745 METAR LIRA 081745Z 25006KT 200V300 9999 FEW020 27/16 Q1014=
200807081715 METAR LIRA 081715Z 27011KT 220V320 CAVOK 28/16 Q1013=
200807081645 METAR LIRA 081645Z 27011KT 220V310 9999 FEW020 29/16 Q1013=
200807081615 METAR LIRA 081615Z 28010KT 230V320 9999 FEW020 29/16 Q1013=
200807081545 METAR LIRA 081545Z 28012KT 210V310 9999 FEW080 30/15 Q1013=
200807081515 METAR LIRA 081515Z 27012KT 230V320 9999 FEW018 30/15 Q1013=
200807081445 METAR LIRA 081445Z 28007KT 220V330 9999 FEW020 30/15 Q1013=
200807081415 METAR LIRA 081415Z 28010KT 210V320 9999 FEW020 31/16 Q1013=
200807081345 METAR LIRA 081345Z 29009KT 200V300 9999 FEW020 30/21 Q1013=
200807081315 METAR LIRA 081315Z 28009KT 210V310 9999 SCT020 30/20 Q1013=
200807081245 METAR LIRA 081245Z 26008KT 190V300 9999 SCT020 30/20 Q1013=
200807081215 METAR LIRA 081215Z 25005KT 190V300 9999 SCT020 30/20 Q1013=
200807081145 METAR LIRA 081145Z 24008KT 190V300 9999 SCT020 29/20 Q1013=
200807081115 METAR LIRA 081115Z 19007KT 120V240 9999 SCT020 29/20 Q1013=
200807081045 METAR LIRA 081045Z 23006KT 180V280 9999 SCT020 29/20 Q1013=
200807081015 METAR LIRA 081015Z 24006KT 180V280 9999 SCT020 28/21 Q1012=
200807080945 METAR LIRA 080945Z 24009KT 150V270 9999 SCT020 27/20 Q1012=
200807080915 METAR LIRA 080915Z 24006KT 180V270 9999 SCT020 27/20 Q1012=
200807080845 METAR LIRA 080845Z 20007KT 170V270 9999 BKN020 28/20 Q1012=
200807080815 METAR LIRA 080815Z 22005KT 150V240 9999 SCT020 SCT030 27/21
                        Q1012=
200807080745 METAR LIRA 080745Z 19007KT 150V230 9999 SCT020 SCT030 26/20
                        Q1012=
200807080715 METAR LIRA 080715Z 20005KT 170V260 9999 SCT020 25/20 Q1012=
200807080645 METAR LIRA 080645Z 20003KT 150V240 9999 FEW020 25/20 Q1012=
200807080615 METAR LIRA 080615Z 14005KT 100V190 9999 FEW020 24/20 Q1012=
200807080545 METAR LIRA 080545Z 13005KT 9999 FEW018 23/20 Q1012=
200807080515 METAR LIRA 080515Z 16005KT 9999 SCT018 SCT030 23/20 Q1012=
200807080445 METAR LIRA 080445Z 19004KT 8000 FEW018 SCT030 23/20 Q1012=
200807080415 METAR LIRA 080415Z 20005KT 8000 FEW018 24/21 Q1012=
200807080345 METAR LIRA 080345Z 23005KT 8000 FEW018 SCT030 24/21 Q1012=
200807080315 METAR LIRA 080315Z 24005KT 180V280 8000 SCT030 24/23 Q1012=
200807080245 METAR LIRA 080245Z 20005KT 180V250 8000 SCT030 25/23 Q1012=
200807080215 METAR LIRA 080215Z 18008KT 8000 SCT030 24/22 Q1012=
200807080145 METAR LIRA 080145Z 18006KT 8000 FEW030 24/23 Q1012=
200807080115 METAR LIRA 080115Z 17006KT 8000 FEW020 25/23 Q1012=
200807080045 METAR LIRA 080045Z 17008KT 8000 SKC 25/23 Q1012=
200807080015 METAR LIRA 080015Z 17010KT 8000 FEW020 25/23 Q1012=
200807072345 METAR LIRA 072345Z 18008KT 160V220 8000 SCT020 25/23 Q1012=
200807072315 METAR LIRA 072315Z 19009KT 160V220 8000 FEW015 25/24 Q1012=
200807072245 METAR LIRA 072245Z 19008KT 130V230 8000 FEW015 25/24 Q1012=
200807072215 METAR LIRA 072215Z 18009KT 150V230 8000 FEW010 25/23 Q1012=
200807072145 METAR LIRA 072145Z 20009KT 160V260 8000 SKC 25/23 Q1012=
200807072115 METAR LIRA 072115Z 19009KT 8000 SKC 25/23 Q1012=
200807072045 METAR LIRA 072045Z 17009KT 140V220 8000 SKC 25/23 Q1011=
200807072015 METAR LIRA 072015Z 20012KT 170V240 8000 SKC 25/23 Q1011=
200807071945 METAR LIRA 071945Z 20010KT 160V220 CAVOK 26/24 Q1011=
200807071915 METAR LIRA 071915Z 19010KT 150V220 CAVOK 26/24 Q1011=
200807071845 METAR LIRA 071845Z 18009KT 150V220 CAVOK 28/23 Q1011=
200807071815 METAR LIRA 071815Z 19009KT 150V220 CAVOK 29/24 Q1011=
200807071745 METAR LIRA 071745Z 19010KT 160V230 CAVOK 29/24 Q1011=
200807071715 METAR LIRA 071715Z 21011KT 160V250 CAVOK 29/24 Q1011=
200807071645 METAR LIRA 071645Z 20012KT 160V240 9999 FEW020 30/23 Q1011=
200807071615 METAR LIRA 071615Z 18013KT 150V240 9999 FEW020 30/23 Q1011=
200807071545 METAR LIRA 071545Z 19013KT 140V240 9999 FEW020 30/23 Q1011=
200807071515 METAR LIRA 071515Z 16016KT 140V210 9999 FEW020 30/23 Q1011=
200807071445 METAR LIRA 071445Z 18018KT 130V240 9999 FEW020 31/23 Q1011=
200807071415 METAR LIRA 071415Z 17018KT 140V220 9999 FEW020 31/21 Q1012=
200807071345 METAR LIRA 071345Z 19019G29KT 150V230 9999 FEW020 31/22 Q1012=
200807071315 METAR LIRA 071315Z 19018KT 150V220 9999 FEW020 31/22 Q1012=
200807071245 METAR LIRA 071245Z 17017KT 140V210 9999 FEW020 31/22 Q1012=
200807071215 METAR LIRA 071215Z 17016KT 130V210 9999 FEW020 32/23 Q1012=
200807071145 METAR LIRA 071145Z 16015KT 120V220 9999 FEW020 31/22 Q1011=
200807071115 METAR LIRA 071115Z 15016KT 130V210 9999 FEW020 31/22 Q1011=
200807071045 METAR LIRA 071045Z 15017KT 130V200 9999 SCT020 30/22 Q1012=
200807071015 METAR LIRA 071015Z 17012KT 130V200 9999 SCT020 30/21 Q1012=
200807070945 METAR LIRA 070945Z 16013KT 130V220 9999 SCT020 29/19 Q1012=
200807070915 METAR LIRA 070915Z 18012KT 140V210 9999 SCT020 28/17 Q1012=
200807070845 METAR LIRA 070845Z 17014KT 120V200 9999 SCT020 28/15 Q1012=
200807070815 METAR LIRA 070815Z 19011KT 130V230 9999 SCT020 28/13 Q1012=
200807070745 METAR LIRA 070745Z 18014G24KT 150V220 9999 FEW020 28/13 Q1012=
200807070715 METAR LIRA 070715Z 18015KT 9999 FEW020 28/12 Q1012=
200807070645 METAR LIRA 070645Z 19008KT 160V250 9999 FEW030 26/14 Q1011=
200807070615 METAR LIRA 070615Z 19005KT CAVOK 24/16 Q1011=
200807070545 METAR LIRA 070545Z 17003KT CAVOK 21/16 Q1011=
200807070515 METAR LIRA 070515Z 14006KT 100V170 CAVOK 23/16 Q1011=
200807070445 METAR LIRA 070445Z 14005KT CAVOK 21/15 Q1011=
200807070415 METAR LIRA 070415Z 13001KT CAVOK 20/16 Q1012=
200807070345 METAR LIRA 070345Z 02002KT CAVOK 21/16 Q1012=
200807070315 METAR LIRA 070315Z 23001KT CAVOK 21/16 Q1012=
200807070245 METAR LIRA 070245Z 29003KT CAVOK 21/17 Q1012=
200807070215 METAR LIRA 070215Z 30004KT CAVOK 21/16 Q1012=
200807070145 METAR LIRA 070145Z 00000KT CAVOK 21/17 Q1012=
200807070115 METAR LIRA 070115Z 16001KT CAVOK 22/18 Q1012=
200807070045 METAR LIRA 070045Z VRB01KT CAVOK 22/18 Q1012=
200807070015 METAR LIRA 070015Z 09004KT CAVOK 22/18 Q1012=
200807062345 METAR LIRA 062345Z 09004KT CAVOK 23/17 Q1013=
200807062315 METAR LIRA 062315Z 11005KT CAVOK 23/16 Q1013=
200807062245 METAR LIRA 062245Z 21001KT CAVOK 24/16 Q1013=
200807062215 METAR LIRA 062215Z 26001KT CAVOK 24/17 Q1012=
200807062145 METAR LIRA 062145Z 17003KT CAVOK 24/18 Q1012=
200807062115 METAR LIRA 062115Z 15005KT CAVOK 24/19 Q1012=
200807062045 METAR LIRA 062045Z 18005KT 150V240 9999 FEW060 24/19 Q1012=
200807062015 METAR LIRA 062015Z 21006KT 160V240 CAVOK 25/19 Q1012=
200807061945 METAR LIRA 061945Z 21007KT 180V250 9999 FEW060 25/19 Q1012=
200807061915 METAR LIRA 061915Z 22005KT 180V260 CAVOK 26/18 Q1012=
200807061845 METAR LIRA 061845Z 21005KT 180V240 CAVOK 28/16 Q1012=
200807061815 METAR LIRA 061815Z 22007KT 180V260 CAVOK 28/16 Q1012=
200807061745 METAR LIRA 061745Z 22005KT 180V260 CAVOK 29/15 Q1012=
200807061715 METAR LIRA 061715Z 21005KT 180V270 CAVOK 29/15 Q1012=
200807061645 METAR LIRA 061645Z 20006KT 170V260 CAVOK 30/15 Q1012=
200807061615 METAR LIRA 061615Z 23004KT 190V280 CAVOK 30/16 Q1012=
200807061545 METAR LIRA 061545Z 20007KT 170V280 CAVOK 30/13 Q1013=
200807061515 METAR LIRA 061515Z 23008KT 180V270 CAVOK 30/13 Q1013=
200807061445 METAR LIRA 061445Z 24008KT 170V270 CAVOK 30/13 Q1013=
200807061415 METAR LIRA 061415Z 21008KT 170V300 CAVOK 30/14 Q1013=
200807061345 METAR LIRA 061345Z 20009KT 160V240 CAVOK 30/15 Q1014=
200807061315 METAR LIRA 061315Z 22008KT 180V280 CAVOK 30/15 Q1014=
200807061245 METAR LIRA 061245Z 21010KT 160V250 9999 FEW018 30/17 Q1014=
200807061215 METAR LIRA 061215Z 21009KT 150V250 9999 FEW018 30/18 Q1014=
200807061145 METAR LIRA 061145Z 21012KT 160V270 9999 FEW018 30/17 Q1014=
200807061115 METAR LIRA 061115Z 20011KT 160V260 9999 FEW018 31/17 Q1014=
200807061045 METAR LIRA 061045Z 21010KT 120V250 CAVOK 31/21 Q1014=
200807061015 METAR LIRA 061015Z 17009KT 120V260 CAVOK 30/21 Q1014=
200807060945 METAR LIRA 060945Z 17010KT 120V230 CAVOK 29/17 Q1014=
200807060915 METAR LIRA 060915Z 19006KT 120V230 CAVOK 29/17 Q1014=
200807060900 METAR LIRA CONTUS CB NW=
200807060845 METAR LIRA 060845Z 17009KT 120V210 CAVOK 28/21 Q1014=
200807060815 METAR LIRA 060815Z 20007KT CAVOK 27/19 Q1014=
200807060745 METAR LIRA 060745Z 23001KT CAVOK 26/19 Q1014=
200807060715 METAR LIRA 060715Z 25001KT CAVOK 24/18 Q1014=
200807060645 METAR LIRA 060645Z 02003KT CAVOK 24/18 Q1013=
200807060615 METAR LIRA 060615Z 02005KT CAVOK 22/18 Q1013=
200807060600 METAR LIRA CB WNW E SW=
200807060545 METAR LIRA 060545Z 10003KT CAVOK 21/17 Q1013=
200807060515 METAR LIRA 060515Z 00000KT CAVOK 20/16 Q1013=
200807060445 METAR LIRA 060445Z 00000KT CAVOK 20/16 Q1013=
200807060415 METAR LIRA 060415Z 00000KT CAVOK 20/17 Q1012=
200807060345 METAR LIRA 060345Z 27001KT CAVOK 20/16 Q1012=
200807060315 METAR LIRA 060315Z 00000KT CAVOK 21/17 Q1012=
200807060245 METAR LIRA 060245Z 00000KT CAVOK 21/17 Q1012=
200807060215 METAR LIRA 060215Z 00000KT CAVOK 21/17 Q1013=
200807060045 METAR LIRA 060045Z 18003KT CAVOK 22/18 Q1013=
200807060015 METAR LIRA 060015Z 20003KT CAVOK 22/18 Q1013=
200807052345 METAR LIRA 052345Z 22002KT CAVOK 22/19 Q1013=
200807052315 METAR LIRA 052315Z 23002KT CAVOK 23/19 Q1014=
200807052245 METAR LIRA 052245Z 16002KT CAVOK 23/19 Q1013=
200807052215 METAR LIRA 052215Z 19002KT CAVOK 23/19 Q1013=
200807052145 METAR LIRA 052145Z 17003KT CAVOK 23/20 Q1013=
200807052115 METAR LIRA 052115Z 20004KT CAVOK 24/20 Q1013=
200807052045 METAR LIRA 052045Z 17004KT CAVOK 24/19 Q1013=
200807052015 METAR LIRA 052015Z 18005KT CAVOK 24/18 Q1013=
200807051945 METAR LIRA 051945Z 19004KT CAVOK 24/19 Q1012=
200807051915 METAR LIRA 051915Z 21004KT CAVOK 25/18 Q1012=
200807051845 METAR LIRA 051845Z 24005KT 200V290 CAVOK 26/19 Q1012=
200807051815 METAR LIRA 051815Z 23006KT 200V290 CAVOK 27/19 Q1011=
200807051745 METAR LIRA 051745Z 26007KT 190V320 CAVOK 27/19 Q1011=
200807051715 METAR LIRA 051715Z 26007KT 220V320 CAVOK 28/18 Q1011=
200807051645 METAR LIRA 051645Z 26009KT 210V320 CAVOK 30/15 Q1011=
200807051615 METAR LIRA 051615Z 28012KT 210V310 CAVOK 30/14 Q1011=
200807051545 METAR LIRA 051545Z 27012KT 200V330 CAVOK 31/14 Q1011=
200807051515 METAR LIRA 051515Z 28010KT 240V330 CAVOK 31/14 Q1011=
200807051445 METAR LIRA 051445Z 28012KT 240V340 CAVOK 32/13 Q1011=
200807051415 METAR LIRA 051415Z 27011KT 210V290 CAVOK 32/13 Q1011=
200807051345 METAR LIRA 051345Z 27012KT 220V330 CAVOK 32/13 Q1011=
200807051315 METAR LIRA 051315Z 31009KT CAVOK 32/12 Q1011=
200807051245 METAR LIRA 051245Z 33007KT 250V010 9999 FEW020 32/13 Q1011=
200807051215 METAR LIRA 051215Z 30006KT 270V360 9999 FEW020 32/12 Q1012=
200807051145 METAR LIRA 051145Z 34006KT 240V330 9999 FEW020 31/14 Q1012=
200807051115 METAR LIRA 051115Z 28005KT 220V300 9999 FEW020 30/14 Q1012=
200807051045 METAR LIRA 051045Z 34010KT 280V030 9999 FEW025 30/17 Q1012=
200807051015 METAR LIRA 051015Z 34007KT 9999 FEW025 30/17 Q1012=
200807050945 METAR LIRA 050945Z 09001KT 9999 FEW025 28/18 Q1012=
200807050915 METAR LIRA 050915Z 28001KT 9999 FEW025 28/19 Q1012=
200807050845 METAR LIRA 050845Z 35004KT 290V020 9999 FEW025 27/19 Q1012=
200807050815 METAR LIRA 050815Z 36003KT 320V090 9999 7000SE FEW012 27/19
                        Q1012=
200807050745 METAR LIRA 050745Z 06003KT 9999 6000SE FEW007 25/19 Q1012=
200807050715 METAR LIRA 050715Z 03004KT 360V080 9999 6000SE FEW007 25/19
                        Q1012=
200807050645 METAR LIRA 050645Z 03004KT 9999 6000SE SCT007 23/19 Q1012=
200807050615 METAR LIRA 050615Z 01004KT 9999 6000SE SCT007 23/17 Q1012=
200807050545 METAR LIRA 050545Z 02004KT 360V080 9999 6000SE FEW007 SCT015
                        23/18 Q1012=
200807050515 METAR LIRA 050515Z 02006KT 340V060 9999 FEW007 SCT015 23/19
                        Q1012=
200807050445 METAR LIRA 050445Z 05002KT 7000 SCT007 SCT015 22/20 Q1011=
200807050415 METAR LIRA 050415Z 04003KT 7000 SCT007 SCT015 22/20 Q1011=
200807050345 METAR LIRA 050345Z 00000KT 8000 SCT007 SCT015 22/20 Q1011=
200807050315 METAR LIRA 050315Z 00000KT 8000 SCT015 SCT070 22/20 Q1011=
200807050245 METAR LIRA 050245Z 09003KT 8000 SCT015 22/20 Q1011=
200807050215 METAR LIRA 050215Z 14003KT 8000 SKC 22/20 Q1011=
200807050145 METAR LIRA 050145Z 14004KT 8000 SKC 23/21 Q1011=
200807050115 METAR LIRA 050115Z 17002KT 8000 FEW007 23/21 Q1011=
200807050045 METAR LIRA 050045Z 17004KT 8000 FEW007 23/22 Q1011=
200807050015 METAR LIRA 050015Z 18003KT 8000 FEW007 23/22 Q1011=
200807042345 METAR LIRA 042345Z 17003KT 8000 FEW007 23/22 Q1012=
200807042315 METAR LIRA 042315Z 15003KT 8000 SCT015 23/22 Q1012=
200807042245 METAR LIRA 042245Z 17003KT 8000 FEW015 24/22 Q1012=
200807042215 METAR LIRA 042215Z 20003KT 8000 FEW020 24/22 Q1012=
200807042145 METAR LIRA 042145Z 20002KT 8000 FEW015 24/23 Q1012=
200807042115 METAR LIRA 042115Z 20004KT 8000 FEW015 24/23 Q1012=
200807042045 METAR LIRA 042045Z 17004KT 8000 SCT015 24/23 Q1011=
200807042015 METAR LIRA 042015Z 18004KT 8000 FEW015 24/23 Q1011=
200807041945 METAR LIRA 041945Z 21004KT 8000 FEW070 25/23 Q1011=
200807041915 METAR LIRA 041915Z 23005KT 190V270 9999 FEW020 25/23 Q1011=
200807041845 METAR LIRA 041845Z 24005KT 190V270 9999 FEW020 26/21 Q1010=
200807041815 METAR LIRA 041815Z 25006KT 190V280 9999 FEW020 27/22 Q1010=
200807041745 METAR LIRA 041745Z 23006KT 180V280 9999 FEW020 28/23 Q1010=
200807041715 METAR LIRA 041715Z 21007KT 150V260 9999 SCT020 28/23 Q1010=
200807041645 METAR LIRA 041645Z 22008KT 170V280 9999 SCT020 SCT200 28/20
                        Q1011=
200807041615 METAR LIRA 041615Z 25010KT 190V300 9999 SCT020 29/20 Q1011=
200807041545 METAR LIRA 041545Z 23010KT 180V280 9999 SCT020 29/20 Q1011=
200807041515 METAR LIRA 041515Z 20012KT 160V270 9999 SCT020 29/20 Q1011=
200807041445 METAR LIRA 041445Z 21010KT 160V250 9999 SCT020 31/21 Q1011=
200807041415 METAR LIRA 041415Z 20013KT 160V240 9999 SCT020 31/21 Q1011=
200807041345 METAR LIRA 041345Z 18012KT 150V230 9999 SCT020 30/20 Q1011=
200807041315 METAR LIRA 041315Z 21012KT 150V250 9999 SCT020 30/20 Q1011=
200807041245 METAR LIRA 041245Z 21015KT 160V250 9999 SCT020 30/20 Q1011=
200807041215 METAR LIRA 041215Z 18011KT 170V260 9999 SCT021 31/20 Q1011=
200807041145 METAR LIRA 041145Z 19013KT 160V250 9999 SCT021 31/21 Q1011=
200807041115 METAR LIRA 041115Z 20013KT 140V230 9999 SCT021 30/14 Q1011=
200807041045 METAR LIRA 041045Z 19012KT 120V210 9999 SCT021 30/15 Q1012=
200807041015 METAR LIRA 041015Z 18013KT 160V240 9999 SCT021 30/15 Q1012=
200807040945 METAR LIRA 040945Z 17011KT 150V270 9999 FEW021 30/16 Q1012=
200807040915 METAR LIRA 040915Z 22009KT 150V230 9999 FEW021 30/16 Q1012=
200807040845 METAR LIRA 040845Z 19008KT 140V250 9999 FEW021 30/15 Q1012=
200807040815 METAR LIRA 040815Z 18012KT 9999 FEW021 30/14 Q1012=
200807040745 METAR LIRA 040745Z 26008KT 160V240 9999 FEW021 29/17 Q1012=
200807040715 METAR LIRA 040715Z 21006KT 180V330 9999 FEW030 29/20 Q1012=
200807040645 METAR LIRA 040645Z 26001KT CAVOK 27/19 Q1011=
200807040615 METAR LIRA 040615Z 27001KT CAVOK 26/19 Q1011=
200807040445 METAR LIRA 040445Z 09002KT 9999 FEW030 SCT060 23/19 Q1011=
200807040415 METAR LIRA 040415Z 08002KT 9999 FEW030 SCT060 23/19 Q1011=
200807040345 METAR LIRA 040345Z 14004KT 9999 FEW030 SCT060 23/19 Q1011=
200807040315 METAR LIRA 040315Z 13003KT 9999 FEW030 SCT060 23/19 Q1012=
200807040245 METAR LIRA 040245Z 11003KT 9999 FEW023TCU SCT035 BKN060 23/16
                        Q1012=
200807040215 METAR LIRA 040215Z 07002KT 9999 FEW023TCU BKN060 23/17 Q1012=
200807040145 METAR LIRA 040145Z 00000KT 9999 FEW023TCU BKN060 23/17 Q1012=
200807040115 METAR LIRA 040115Z 15002KT 9999 BKN080 24/17 Q1012=
200807040045 METAR LIRA 040045Z 17001KT 9999 BKN080 24/17 Q1012=
200807040015 METAR LIRA 040015Z 12003KT 9999 SCT060 24/20 Q1012=
200807032345 METAR LIRA 032345Z 16005KT 9999 SCT060 25/22 Q1013=
200807032315 METAR LIRA 032315Z 17005KT 9999 SCT070 SCT200 25/22 Q1013=
200807032245 METAR LIRA 032245Z 17004KT 9999 FEW060 SCT200 25/23 Q1013=
200807032215 METAR LIRA 032215Z 17004KT 9999 BKN060 25/23 Q1013=
200807032145 METAR LIRA 032145Z 16003KT 9999 SCT060 25/23 Q1013=
200807032115 METAR LIRA 032115Z 21005KT 150V240 9999 FEW030 SCT200 25/23
                        Q1013=
200807032045 METAR LIRA 032045Z 25004KT CAVOK 25/23 Q1013=
200807032015 METAR LIRA 032015Z 19005KT 9999 FEW020TCU SCT200 26/21 Q1012=
200807031945 METAR LIRA 031945Z 20004KT 9999 FEW020CB SCT070 26/21 Q1013=
200807031915 METAR LIRA 031915Z 23003KT 9999 FEW023CB SCT035 BKN070 27/20
                        Q1013=
200807031845 METAR LIRA 031845Z 23003KT 9999 FEW023TCU SCT080 27/20 Q1012=
200807031815 METAR LIRA 031815Z 23003KT 9999 FEW023TCU SCT200 29/20 Q1013=
200807031745 METAR LIRA 031745Z 25004KT 210V300 9999 FEW080 BKN200 29/19
                        Q1013=
200807031715 METAR LIRA 031715Z 21007KT 200V300 9999 FEW070 BKN200 30/16
                        Q1013=
200807031645 METAR LIRA 031645Z 24006KT 200V280 9999 FEW020 BKN200 30/16
                        Q1013=
200807031615 METAR LIRA 031615Z 23005KT 180V260 9999 FEW020TCU BKN200
                        31/15 Q1013=
200807031545 METAR LIRA 031545Z 21007KT 170V280 9999 FEW020 SCT200 31/15
                        Q1013=
200807031515 METAR LIRA 031515Z 25007KT 190V280 9999 FEW020 SCT200 31/15
                        Q1013=
200807031445 METAR LIRA 031445Z 23006KT 170V300 9999 FEW020 SCT200 31/17
                        Q1013=
200807031415 METAR LIRA 031415Z 23006KT 170V300 9999 FEW020 SCT200 32/17
                        Q1013=
200807031345 METAR LIRA 031345Z 24009KT 180V280 9999 FEW020 SCT200 32/17
                        Q1013=
200807031315 METAR LIRA 031315Z 23008KT 160V290 9999 FEW020 32/17 Q1013=
200807031245 METAR LIRA 031245Z 21007KT 150V280 9999 FEW020 32/16 Q1013=
200807031215 METAR LIRA 031215Z 23009KT 180V300 9999 FEW020 32/16 Q1013=
200807031145 METAR LIRA 031145Z 24009KT 200V280 9999 FEW020 32/16 Q1013=
200807031115 METAR LIRA 031115Z 25005KT 180V300 9999 FEW020 32/16 Q1014=
200807031045 METAR LIRA 031045Z 23008KT 180V280 CAVOK 32/15 Q1014=
200807031015 METAR LIRA 031015Z 19005KT 180V260 CAVOK 31/15 Q1014=
200807030945 METAR LIRA 030945Z 23003KT 200V330 CAVOK 31/15 Q1014=
200807030915 METAR LIRA 030915Z 18008KT 110V260 CAVOK 30/15 Q1014=
200807030845 METAR LIRA 030845Z 18009KT 160V240 CAVOK 30/19 Q1014=
200807030815 METAR LIRA 030815Z 19007KT 130V270 CAVOK 29/19 Q1013=
200807030745 METAR LIRA 030745Z 23005KT 190V270 CAVOK 28/19 Q1013=
200807030715 METAR LIRA 030715Z 21004KT 140V260 CAVOK 26/19 Q1013=
200807030645 METAR LIRA 030645Z 23005KT CAVOK 26/19 Q1013=
200807030615 METAR LIRA 030615Z 00000KT CAVOK 24/19 Q1013=
200807030545 METAR LIRA 030545Z 00000KT CAVOK 23/18 Q1013=
200807030515 METAR LIRA 030515Z 00000KT CAVOK 22/19 Q1013=
200807030445 METAR LIRA 030445Z 10002KT CAVOK 21/19 Q1013=
200807030415 METAR LIRA 030415Z 00000KT CAVOK 21/19 Q1013=
200807030345 METAR LIRA 030345Z 00000KT CAVOK 21/19 Q1013=
200807030315 METAR LIRA 030315Z 07001KT CAVOK 21/19 Q1013=
200807030245 METAR LIRA 030245Z 09002KT 8000 SKC 22/20 Q1013=
200807030215 METAR LIRA 030215Z 09003KT 8000 SKC 22/20 Q1013=
200807030145 METAR LIRA 030145Z 10002KT 8000 SKC 23/20 Q1013=
200807030115 METAR LIRA 030115Z 11003KT 8000 SKC 23/21 Q1013=
200807030045 METAR LIRA 030045Z 13001KT 8000 SKC 23/21 Q1013=
200807030015 METAR LIRA 030015Z 00000KT 8000 SKC 24/21 Q1013=
200807022345 METAR LIRA 022345Z 16001KT CAVOK 24/21 Q1013=
200807022315 METAR LIRA 022315Z 21002KT CAVOK 24/20 Q1013=
200807022245 METAR LIRA 022245Z 18004KT CAVOK 24/20 Q1013=
200807022215 METAR LIRA 022215Z 21003KT CAVOK 24/20 Q1014=
200807022145 METAR LIRA 022145Z 24003KT CAVOK 25/20 Q1014=
200807022115 METAR LIRA 022115Z 18002KT CAVOK 25/20 Q1014=
200807022045 METAR LIRA 022045Z 23004KT CAVOK 25/19 Q1014=
200807022015 METAR LIRA 022015Z 24002KT CAVOK 26/19 Q1014=
200807021945 METAR LIRA 021945Z 23003KT 9999 FEW070 27/19 Q1014=
200807021915 METAR LIRA 021915Z 23002KT 9999 FEW023TCU 27/19 Q1013=
200807021845 METAR LIRA 021845Z 21003KT 9999 FEW023CB SCT200 28/19 Q1013=
200807021815 METAR LIRA 021815Z 23004KT 9999 FEW023CB 28/19 Q1013=
200807021745 METAR LIRA 021745Z 24006KT 190V260 9999 FEW020 FEW023CB 30/19
                        Q1014=
200807021715 METAR LIRA 021715Z 24005KT 200V280 9999 FEW020 FEW023CB 30/19
                        Q1013=
200807021645 METAR LIRA 021645Z 22006KT 180V250 9999 FEW020 FEW023CB 30/20
                        Q1013=
200807021615 METAR LIRA 021615Z 23005KT 130V290 9999 FEW020 FEW023CB 31/20
                        Q1013=
200807021545 METAR LIRA 021545Z 25008KT 180V280 9999 FEW020 FEW023CB 31/21
                        Q1013=
200807021515 METAR LIRA 021515Z 25007KT 200V300 9999 FEW020 FEW025CB 31/20
                        Q1013=
200807021445 METAR LIRA 021445Z 26008KT 180V310 9999 FEW020 FEW025CB SCT200
                        32/21 Q1013=
200807021415 METAR LIRA 021415Z 26006KT 190V310 9999 FEW020 FEW025CB SCT200
                        32/21 Q1013=
200807021345 METAR LIRA 021345Z 27006KT 220V330 9999 FEW020 FEW025CB SCT200
                        32/21 Q1013=
200807021315 METAR LIRA 021315Z 24010KT 190V310 9999 FEW020 FEW025CB SCT200
                        32/21 Q1013=
200807021245 METAR LIRA 021245Z 28008KT 160V320 9999 FEW020 FEW025TCU
                        SCT200 32/21 Q1014=
200807021215 METAR LIRA 021215Z 27007KT 200V330 9999 FEW020 FEW025TCU
                        SCT200 32/22 Q1014=
200807021145 METAR LIRA 021145Z 27004KT 180V330 9999 FEW020 FEW023TCU
                        SCT200 31/21 Q1014=
200807021115 METAR LIRA 021115Z 27007KT 140V290 9999 FEW020 FEW025TCU
                        SCT200 31/21 Q1014=
200807021045 METAR LIRA 021045Z 24009KT 160V280 9999 FEW020 FEW025TCU
                        SCT200 32/19 Q1014=
200807021015 METAR LIRA 021015Z 24008KT 200V330 9999 FEW023 FEW025TCU
                        SCT200 31/19 Q1014=
200807021000 METAR LIRA INTER CB ALQUADS=
200807020945 METAR LIRA 020945Z 25006KT 190V290 9999 FEW025 SCT200 31/19
                        Q1014=
200807020915 METAR LIRA 020915Z 21003KT 9999 FEW025 SCT200 30/18 Q1014=
200807020845 METAR LIRA 020845Z 23003KT CAVOK 30/19 Q1014=
200807020815 METAR LIRA 020815Z 00000KT CAVOK 29/19 Q1014=
200807020745 METAR LIRA 020745Z 19001KT CAVOK 27/19 Q1014=
200807020715 METAR LIRA 020715Z 24002KT 8000 NSC 27/19 Q1014=
200807020645 METAR LIRA 020645Z 35002KT 8000 NSC 25/20 Q1014=
200807020615 METAR LIRA 020615Z 00000KT 8000 NSC 25/20 Q1014=
200807020545 METAR LIRA 020545Z 33001KT 8000 SKC 23/20 Q1014=
200807020515 METAR LIRA 020515Z 30001KT 8000 NSC 23/20 Q1014=
200807020445 METAR LIRA 020445Z 07002KT 8000 NSC 22/20 Q1014=
200807020415 METAR LIRA 020415Z 00000KT 8000 NSC 22/21 Q1014=
200807020345 METAR LIRA 020345Z 05002KT 5000 BR FEW007 22/20 Q1013=
200807020315 METAR LIRA 020315Z 01002KT 5000 BR FEW007 23/21 Q1014=
200807020245 METAR LIRA 020245Z 36001KT 5000 BR SCT004 23/21 Q1014=
200807020215 METAR LIRA 020215Z 07001KT 5000 BR SCT004 24/21 Q1014=
200807020145 METAR LIRA 020145Z 12004KT 5000 BR SCT004 24/21 Q1014=
200807020115 METAR LIRA 020115Z 15003KT 5000 BR BKN004 24/21 Q1014=
200807020045 METAR LIRA 020045Z 12001KT 5000 BR BKN004 24/22 Q1014=
200807020015 METAR LIRA 020015Z 00000KT 6000 FEW010 24/22 Q1015=
200807012350 METAR LIRA 020045Z 12001KT 5000 BR BKN004 24/22 Q1014=
200807012345 METAR LIRA 012345Z 13002KT 6000 FEW010 25/24 Q1015=
200807012315 METAR LIRA 012315Z 20003KT 7000 SKC 25/23 Q1015=
200807012245 METAR LIRA 012245Z 18003KT 8000 SKC 25/23 Q1015=
200807012215 METAR LIRA 012215Z 19004KT 130V210 8000 NSC 25/20 Q1015=
200807012145 METAR LIRA 012145Z 17004KT 9000 FEW070 SCT200 25/21 Q1015=
200807012115 METAR LIRA 012115Z 13004KT 9000 FEW060 25/21 Q1015=
200807012045 METAR LIRA 012045Z 13005KT 9000 FEW020TCU 26/22 Q1015=
200807012015 METAR LIRA 012015Z 15007KT 8000 FEW018 FEW020TCU 26/24 Q1015=
200807011945 METAR LIRA 011945Z 21002KT 8000 FEW016 FEW020TCU 27/23 Q1014
                        RETS=
200807011915 METAR LIRA 011915Z 25006KT 200V330 9999 FEW016 FEW018CB FEW020TCU
                        28/18 Q1014 RETS=
200807011845 METAR LIRA 011845Z 19009KT 100V220 9999 TS SCT017 SCT018CB
                        29/20 Q1014=
200807011815 METAR LIRA 011815Z 12003KT 090V150 9999 TS SCT017 SCT018CB
                        30/21 Q1014=
200807011745 METAR LIRA 011745Z 24005KT 9999 FEW017 FEW018TCU FEW020CB
                        31/21 Q1014=
200807011715 METAR LIRA 011715Z 20006KT 180V260 9999 FEW017 FEW018TCU
                        FEW020CB SCT200 31/21 Q1013=
200807011645 METAR LIRA 011645Z 23006KT 170V280 9999 FEW018 FEW020TCU
                        FEW025CB 31/20 Q1013=
200807011615 METAR LIRA 011615Z 25006KT 200V300 9999 FEW020TCU FEW025CB
                        SCT200 31/20 Q1013=
200807011545 METAR LIRA 011545Z 25006KT 200V320 9999 FEW020TCU FEW025CB
                        SCT200 32/21 Q1013=
200807011515 METAR LIRA 011515Z 25008KT 200V320 9999 FEW020 FEW023CB 32/20
                        Q1013=
200807011445 METAR LIRA 011445Z 23008KT 200V300 9999 FEW020 FEW023CB 31/20
                        Q1013=
200807011415 METAR LIRA 011415Z 02008KT 180V270 9999 FEW020 FEW023CB 32/19
                        Q1013=
200807011345 METAR LIRA 011345Z 23006KT 180V020 9999 FEW020 FEW023TCU
                        34/20 Q1013=
200807011315 METAR LIRA 011315Z 27006KT 170V330 9999 FEW020 FEW023TCU
                        33/18 Q1014=
200807011245 METAR LIRA 011245Z 30010KT 200V330 9999 FEW020 FEW023TCU
                        33/18 Q1014=
200807011215 METAR LIRA 011215Z 26007KT 210V330 9999 FEW020 FEW021CB 33/17
                        Q1014=
200807011145 METAR LIRA 011145Z 29002KT 280V310 9999 FEW020 FEW021CB 33/17
                        Q1015=
200807011115 METAR LIRA 011115Z 36004KT 300V030 9999 FEW018 FEW020CB 33/18
                        Q1015=
200807011045 METAR LIRA 011045Z 29003KT 240V300 9999 FEW020 32/18 Q1015=
200807011015 METAR LIRA 011015Z 29004KT 9999 FEW020 31/18 Q1015=
200807010945 METAR LIRA 010945Z 29004KT CAVOK 31/18 Q1015=
200807010915 METAR LIRA 010915Z 27003KT CAVOK 30/18 Q1015=
200807010845 METAR LIRA 010845Z 18001KT CAVOK 29/18 Q1015=
200807010815 METAR LIRA 010815Z 00000KT CAVOK 29/19 Q1015=
200807010745 METAR LIRA 010745Z 26002KT CAVOK 27/19 Q1015=
200807010715 METAR LIRA 010715Z 05004KT CAVOK 26/19 Q1015=
200807010645 METAR LIRA 010645Z 05005KT CAVOK 25/19 Q1015=
200807010615 METAR LIRA 010615Z 05003KT CAVOK 24/19 Q1015=
200807010545 METAR LIRA 010545Z 05004KT CAVOK 23/19 Q1015=
200807010515 METAR LIRA 010515Z 04003KT CAVOK 22/19 Q1015=
200807010445 METAR LIRA 010445Z 04002KT CAVOK 21/19 Q1015=
200807010415 METAR LIRA 010415Z 02003KT CAVOK 21/19 Q1015=
200807010345 METAR LIRA 010345Z 05003KT CAVOK 21/16 Q1015=
200807010315 METAR LIRA 010315Z 03002KT CAVOK 21/16 Q1015=
200807010245 METAR LIRA 010245Z 04002KT CAVOK 22/17 Q1015=
200807010215 METAR LIRA 010215Z 00000KT CAVOK 22/17 Q1015=
200807010145 METAR LIRA 010145Z 00000KT CAVOK 22/18 Q1015=
200807010115 METAR LIRA 010115Z 00000KT CAVOK 22/18 Q1015=
200807010045 METAR LIRA 010045Z 00000KT CAVOK 23/20 Q1016=
200807010015 METAR LIRA 010015Z 11001KT CAVOK 23/21 Q1016=

</pre>

</body>
</html>
