##########################################################
# Query made at 11/10/2014 15:02:31 UTC
# Time interval: from 07/01/2009 00:00  to 07/31/2009 23:59  UTC
##########################################################

##########################################################
# LIRA, Roma / Ciampino (Italy)
# WMO index: 16239
# Latitude 41-47N. Longitude 012-35E. Altitude 129 m.
##########################################################

###################################
#  METAR/SPECI from LIRA
###################################
200907312345 METAR LIRA 312345Z 00000KT 9000 FEW005 22/22 Q1016=
200907312315 METAR LIRA 312315Z 00000KT 8000 FEW005 23/22 Q1016=
200907312245 METAR LIRA 312245Z 00000KT 8000 FEW005 23/22 Q1016=
200907312215 METAR LIRA 312215Z 21002KT 8000 FEW005 24/23 Q1016=
200907312145 METAR LIRA 312145Z 19002KT 9999 FEW070 SCT200 24/23 Q1016=
200907312115 METAR LIRA 312115Z 19002KT 9999 FEW070 SCT200 23/22 Q1016=
200907312045 METAR LIRA 312045Z 19002KT 9999 FEW070 SCT200 24/23 Q1016=
200907312015 METAR LIRA 312015Z 21003KT 9999 FEW070 SCT200 24/23 Q1016=
200907311945 METAR LIRA 311945Z 21002KT 9999 FEW070 SCT200 24/23 Q1016=
200907311915 METAR LIRA 311915Z 22004KT 9999 FEW070 SCT200 25/23 Q1015=
200907311845 METAR LIRA 311845Z 23004KT 9999 FEW020 SCT200 26/24 Q1015=
200907311815 METAR LIRA 311815Z 23005KT 9999 FEW020 SCT200 27/23 Q1015=
200907311745 METAR LIRA 311745Z 23006KT 210V270 9999 FEW020 BKN200 28/22
                        Q1015=
200907311715 METAR LIRA 311715Z 21005KT 180V260 9999 FEW020 BKN200 29/20
                        Q1015=
200907311645 METAR LIRA 311645Z 21007KT 150V260 9999 FEW020 BKN200 30/20
                        Q1015=
200907311615 METAR LIRA 311615Z 23008KT 140V260 9999 FEW020 BKN200 30/20
                        Q1015=
200907311545 METAR LIRA 311545Z 19007KT 130V260 9999 FEW020 SCT200 30/20
                        Q1015=
200907311515 METAR LIRA 311515Z 21006KT 160V270 9999 FEW020 SCT200 31/21
                        Q1015=
200907311445 METAR LIRA 311445Z 23006KT 150V300 9999 FEW020 SCT200 31/19
                        Q1015=
200907311415 METAR LIRA 311415Z 20007KT 160V260 9999 FEW020 SCT200 31/18
                        Q1015=
200907311345 METAR LIRA 311345Z 22009KT 150V250 9999 FEW020 SCT200 33/17
                        Q1015=
200907311315 METAR LIRA 311315Z 19008KT 140V230 9999 FEW020 SCT200 33/17
                        Q1015=
200907311245 METAR LIRA 311245Z 22009KT 140V290 9999 FEW070 SCT200 34/17
                        Q1015=
200907311215 METAR LIRA 311215Z 23009KT 120V300 9999 FEW070 SCT200 34/14
                        Q1015=
200907311145 METAR LIRA 311145Z 19005KT 110V310 9999 FEW070 SCT200 33/12
                        Q1016=
200907311115 METAR LIRA 311115Z 23008KT 170V290 9999 FEW070 33/15 Q1016=
200907311045 METAR LIRA 311045Z 25007KT 170V310 9999 FEW070 33/16 Q1016=
200907311015 METAR LIRA 311015Z 19006KT 140V300 9999 FEW070 32/16 Q1016=
200907310945 METAR LIRA 310945Z 20006KT 170V330 9999 FEW070 SCT200 32/18
                        Q1016=
200907310915 METAR LIRA 310915Z 17008KT 140V240 9999 FEW070 SCT200 32/14
                        Q1016=
200907310845 METAR LIRA 310845Z 19007KT 130V250 9999 FEW070 30/15 Q1016=
200907310815 METAR LIRA 310815Z 21005KT 130V250 9999 FEW070 29/17 Q1016=
200907310745 METAR LIRA 310745Z 20004KT 9999 FEW070 29/17 Q1016=
200907310715 METAR LIRA 310715Z 23004KT 9999 FEW070 28/16 Q1016=
200907310645 METAR LIRA 310645Z 00000KT CAVOK 26/15 Q1016=
200907310615 METAR LIRA 310615Z 00000KT CAVOK 25/14 Q1016=
200907310545 METAR LIRA 310545Z 00000KT CAVOK 22/13 Q1015=
200907310515 METAR LIRA 310515Z 36001KT CAVOK 21/13 Q1015=
200907310500 METAR LIRA INTER=
200907310445 METAR LIRA 310445Z 00000KT CAVOK 21/13 Q1015=
200907310415 METAR LIRA 310415Z 00000KT CAVOK 21/12 Q1015=
200907310345 METAR LIRA 310345Z 10002KT CAVOK 21/15 Q1015=
200907310315 METAR LIRA 310315Z 00000KT CAVOK 22/17 Q1015=
200907310245 METAR LIRA 310245Z 16003KT CAVOK 22/20 Q1015=
200907310215 METAR LIRA 310215Z 15004KT CAVOK 23/19 Q1015=
200907310145 METAR LIRA 310145Z 16004KT CAVOK 23/18 Q1015=
200907310115 METAR LIRA 310115Z 16002KT CAVOK 22/20 Q1015=
200907310045 METAR LIRA 310045Z 17002KT CAVOK 23/15 Q1015=
200907310015 METAR LIRA 310015Z 20002KT CAVOK 24/17 Q1016=
200907310000 METAR LIRA CONTUS=
200907302350 METAR LIRA 310045Z 17002KT CAVOK 23/15 Q1015=
200907302345 METAR LIRA 302345Z 13001KT CAVOK 24/16 Q1016=
200907302315 METAR LIRA 302315Z 15003KT CAVOK 24/16 Q1016=
200907302245 METAR LIRA 302245Z 17003KT CAVOK 25/17 Q1016=
200907302215 METAR LIRA 302215Z 19003KT CAVOK 25/16 Q1016=
200907302145 METAR LIRA 302145Z 17004KT CAVOK 26/17 Q1016=
200907302115 METAR LIRA 302115Z 17003KT CAVOK 27/17 Q1016=
200907302045 METAR LIRA 302045Z 17004KT CAVOK 26/17 Q1015=
200907302015 METAR LIRA 302015Z 18005KT CAVOK 27/17 Q1015=
200907301945 METAR LIRA 301945Z 18004KT CAVOK 28/15 Q1015=
200907301915 METAR LIRA 301915Z 19003KT CAVOK 28/13 Q1015=
200907301845 METAR LIRA 301845Z 19005KT 160V220 CAVOK 29/13 Q1015=
200907301815 METAR LIRA 301815Z 21004KT CAVOK 30/12 Q1015=
200907301745 METAR LIRA 301745Z 23005KT 180V250 CAVOK 31/10 Q1015=
200907301715 METAR LIRA 301715Z 23006KT 200V280 CAVOK 32/11 Q1015=
200907301645 METAR LIRA 301645Z 24007KT 200V300 CAVOK 33/10 Q1015=
200907301615 METAR LIRA 301615Z 25007KT 190V310 CAVOK 34/11 Q1015=
200907301545 METAR LIRA 301545Z 27010KT 210V320 CAVOK 34/10 Q1015=
200907301515 METAR LIRA 301515Z 27010KT 200V320 CAVOK 34/11 Q1015=
200907301445 METAR LIRA 301445Z 23010KT 190V280 CAVOK 34/12 Q1015=
200907301415 METAR LIRA 301415Z 24010KT 210V310 CAVOK 34/13 Q1015=
200907301345 METAR LIRA 301345Z 27010KT 170V300 9999 FEW022 35/13 Q1015=
200907301315 METAR LIRA 301315Z 25009KT 200V300 9999 FEW022 34/14 Q1015=
200907301245 METAR LIRA 301245Z 26013KT 220V320 9999 FEW022 35/16 Q1015=
200907301215 METAR LIRA 301215Z 27012KT 210V320 9999 FEW022 35/14 Q1016=
200907301145 METAR LIRA 301145Z 22005KT 180V330 9999 FEW022 36/12 Q1016=
200907301115 METAR LIRA 301115Z 32006KT 200V360 9999 FEW022 35/13 Q1016=
200907301045 METAR LIRA 301045Z 31007KT 260V010 9999 FEW022 35/15 Q1016=
200907301015 METAR LIRA 301015Z 35002KT CAVOK 33/16 Q1016=
200907300945 METAR LIRA 300945Z 30003KT CAVOK 33/16 Q1016=
200907300915 METAR LIRA 300915Z 00000KT CAVOK 32/16 Q1016=
200907300845 METAR LIRA 300845Z 07001KT CAVOK 31/17 Q1016=
200907300815 METAR LIRA 300815Z 02003KT CAVOK 30/16 Q1016=
200907300745 METAR LIRA 300745Z 03004KT CAVOK 28/17 Q1016=
200907300715 METAR LIRA 300715Z 04005KT CAVOK 27/17 Q1016=
200907300645 METAR LIRA 300645Z 02004KT CAVOK 26/17 Q1016=
200907300615 METAR LIRA 300615Z 33004KT CAVOK 25/16 Q1016=
200907300545 METAR LIRA 300545Z 35002KT CAVOK 23/16 Q1015=
200907300515 METAR LIRA 300515Z 04003KT CAVOK 23/16 Q1015=
200907300445 METAR LIRA 300445Z 04003KT 330V090 CAVOK 21/16 Q1015=
200907300415 METAR LIRA 300415Z 04006KT 330V090 CAVOK 21/16 Q1015=
200907300345 METAR LIRA 300345Z 05003KT CAVOK 21/16 Q1015=
200907300315 METAR LIRA 300315Z 00000KT CAVOK 21/17 Q1015=
200907300245 METAR LIRA 300245Z 00000KT CAVOK 22/16 Q1015=
200907300215 METAR LIRA 300215Z 10003KT CAVOK 22/18 Q1015=
200907300145 METAR LIRA 300145Z 10001KT CAVOK 22/19 Q1015=
200907300115 METAR LIRA 300115Z 13003KT CAVOK 22/20 Q1015=
200907300045 METAR LIRA 300045Z 15002KT CAVOK 23/21 Q1015=
200907300015 METAR LIRA 300015Z 14002KT CAVOK 24/21 Q1015=
200907292350 METAR LIRA 300045Z 15002KT CAVOK 23/21 Q1015=
200907292345 METAR LIRA 292345Z 16003KT CAVOK 24/23 Q1016=
200907292315 METAR LIRA 292315Z 17004KT CAVOK 24/23 Q1016=
200907292245 METAR LIRA 292245Z 19003KT CAVOK 25/23 Q1016=
200907292215 METAR LIRA 292215Z 20003KT CAVOK 25/21 Q1016=
200907292145 METAR LIRA 292145Z 21004KT CAVOK 25/19 Q1016=
200907292115 METAR LIRA 292115Z 23003KT CAVOK 26/18 Q1016=
200907292045 METAR LIRA 292045Z 17003KT CAVOK 27/18 Q1016=
200907292015 METAR LIRA 292015Z 17003KT CAVOK 27/19 Q1015=
200907291945 METAR LIRA 291945Z 17004KT CAVOK 27/20 Q1015=
200907291915 METAR LIRA 291915Z 21005KT 180V240 CAVOK 28/18 Q1015=
200907291845 METAR LIRA 291845Z 20004KT CAVOK 29/17 Q1015=
200907291815 METAR LIRA 291815Z 21004KT CAVOK 30/17 Q1015=
200907291745 METAR LIRA 291745Z 23004KT CAVOK 30/17 Q1015=
200907291715 METAR LIRA 291715Z 24006KT 190V270 CAVOK 31/18 Q1015=
200907291645 METAR LIRA 291645Z 23007KT 190V300 CAVOK 31/18 Q1015=
200907291615 METAR LIRA 291615Z 24006KT 170V310 CAVOK 32/18 Q1015=
200907291545 METAR LIRA 291545Z 23008KT 200V320 CAVOK 33/18 Q1015=
200907291515 METAR LIRA 291515Z 24008KT 190V310 CAVOK 33/18 Q1015=
200907291445 METAR LIRA 291445Z 26009KT 210V300 CAVOK 33/18 Q1015=
200907291415 METAR LIRA 291415Z 23008KT 180V290 CAVOK 34/19 Q1015=
200907291345 METAR LIRA 291345Z 23007KT 180V290 CAVOK 34/19 Q1015=
200907291315 METAR LIRA 291315Z 24009KT CAVOK 34/19 Q1015=
200907291245 METAR LIRA 291245Z 27009KT 230V310 CAVOK 34/19 Q1015=
200907291215 METAR LIRA 291215Z 11002KT CAVOK 35/10 Q1015=
200907291145 METAR LIRA 291145Z 25003KT CAVOK 35/11 Q1016=
200907291115 METAR LIRA 291115Z 25002KT CAVOK 35/13 Q1016=
200907291045 METAR LIRA 291045Z 29003KT 230V350 CAVOK 33/13 Q1016=
200907291015 METAR LIRA 291015Z 01002KT CAVOK 32/14 Q1016=
200907290945 METAR LIRA 290945Z 31003KT CAVOK 32/14 Q1017=
200907290915 METAR LIRA 290915Z 30004KT CAVOK 31/14 Q1017=
200907290845 METAR LIRA 290845Z 02003KT CAVOK 30/14 Q1017=
200907290815 METAR LIRA 290815Z 35005KT CAVOK 28/14 Q1017=
200907290745 METAR LIRA 290745Z 01003KT CAVOK 26/15 Q1017=
200907290715 METAR LIRA 290715Z 02003KT CAVOK 26/15 Q1017=
200907290645 METAR LIRA 290645Z 03003KT CAVOK 24/14 Q1017=
200907290615 METAR LIRA 290615Z 04003KT 350V070 CAVOK 23/15 Q1016=
200907290545 METAR LIRA 290545Z 36004KT CAVOK 22/15 Q1016=
200907290515 METAR LIRA 290515Z 01002KT CAVOK 20/15 Q1016=
200907290445 METAR LIRA 290445Z 06003KT CAVOK 19/14 Q1016=
200907290415 METAR LIRA 290415Z 04003KT CAVOK 19/15 Q1016=
200907290345 METAR LIRA 290345Z 03003KT CAVOK 20/15 Q1017=
200907290315 METAR LIRA 290315Z 02003KT CAVOK 20/15 Q1017=
200907290245 METAR LIRA 290245Z 03004KT CAVOK 20/12 Q1017=
200907290215 METAR LIRA 290215Z 05003KT CAVOK 20/12 Q1017=
200907290145 METAR LIRA 290145Z 07002KT CAVOK 21/13 Q1017=
200907290115 METAR LIRA 290115Z 08001KT CAVOK 21/14 Q1017=
200907290045 METAR LIRA 290045Z 00000KT CAVOK 22/15 Q1017=
200907290015 METAR LIRA 290015Z 09001KT CAVOK 21/12 Q1017=
200907282350 METAR LIRA 290045Z 00000KT CAVOK 22/15 Q1017=
200907282345 METAR LIRA 282345Z 09002KT CAVOK 22/15 Q1017=
200907282315 METAR LIRA 282315Z 00000KT CAVOK 22/15 Q1017=
200907282245 METAR LIRA 282245Z 08002KT CAVOK 22/14 Q1017=
200907282215 METAR LIRA 282215Z 10003KT CAVOK 22/14 Q1017=
200907282145 METAR LIRA 282145Z 12001KT CAVOK 23/17 Q1017=
200907282115 METAR LIRA 282115Z 00000KT CAVOK 23/20 Q1017=
200907282045 METAR LIRA 282045Z 00000KT CAVOK 24/21 Q1017=
200907282015 METAR LIRA 282015Z 18002KT CAVOK 25/20 Q1017=
200907281945 METAR LIRA 281945Z 19003KT CAVOK 25/20 Q1017=
200907281915 METAR LIRA 281915Z 22004KT CAVOK 26/19 Q1016=
200907281845 METAR LIRA 281845Z 22005KT CAVOK 27/18 Q1016=
200907281815 METAR LIRA 281815Z 23004KT CAVOK 28/17 Q1016=
200907281745 METAR LIRA 281745Z 22005KT 190V270 CAVOK 29/15 Q1016=
200907281715 METAR LIRA 281715Z 21005KT 190V280 CAVOK 30/14 Q1016=
200907281645 METAR LIRA 281645Z 21004KT 160V250 CAVOK 30/14 Q1016=
200907281615 METAR LIRA 281615Z 22008KT 170V280 CAVOK 30/13 Q1016=
200907281545 METAR LIRA 281545Z 20007KT 160V260 CAVOK 31/13 Q1016=
200907281515 METAR LIRA 281515Z 21008KT 140V280 CAVOK 32/12 Q1016=
200907281445 METAR LIRA 281445Z 22008KT 160V260 CAVOK 32/11 Q1016=
200907281415 METAR LIRA 281415Z 22009KT 160V280 CAVOK 33/12 Q1016=
200907281345 METAR LIRA 281345Z 24010KT 180V320 CAVOK 33/10 Q1016=
200907281315 METAR LIRA 281315Z 24007KT 150V320 CAVOK 34/10 Q1016=
200907281245 METAR LIRA 281245Z 20005KT 150V270 CAVOK 34/09 Q1016=
200907281215 METAR LIRA 281215Z 20004KT 150V300 CAVOK 34/10 Q1016=
200907281145 METAR LIRA 281145Z 28006KT 180V330 CAVOK 33/09 Q1017=
200907281115 METAR LIRA 281115Z 25005KT 170V280 CAVOK 33/10 Q1017=
200907281045 METAR LIRA 281045Z 22005KT 170V300 CAVOK 33/10 Q1017=
200907281015 METAR LIRA 281015Z 25007KT 140V290 CAVOK 33/11 Q1017=
200907280945 METAR LIRA 280945Z 33003KT CAVOK 32/11 Q1017=
200907280915 METAR LIRA 280915Z 21002KT CAVOK 31/12 Q1017=
200907280845 METAR LIRA 280845Z 15003KT CAVOK 31/12 Q1017=
200907280815 METAR LIRA 280815Z 25002KT CAVOK 29/11 Q1017=
200907280745 METAR LIRA 280745Z 33001KT CAVOK 28/11 Q1017=
200907280715 METAR LIRA 280715Z 32003KT 9999 FEW060 27/16 Q1017=
200907280645 METAR LIRA 280645Z 02002KT 9999 FEW050 26/17 Q1017=
200907280615 METAR LIRA 280615Z 06002KT 9999 FEW060 25/16 Q1017=
200907280545 METAR LIRA 280545Z 07001KT 9999 FEW060 23/14 Q1016=
200907280515 METAR LIRA 280515Z 34001KT CAVOK 21/13 Q1016=
200907280445 METAR LIRA 280445Z 00000KT CAVOK 21/14 Q1016=
200907280415 METAR LIRA 280415Z 09004KT CAVOK 21/14 Q1016=
200907280345 METAR LIRA 280345Z 13002KT CAVOK 21/17 Q1016=
200907280315 METAR LIRA 280315Z 12003KT CAVOK 22/17 Q1016=
200907280245 METAR LIRA 280245Z 15003KT CAVOK 22/16 Q1016=
200907280215 METAR LIRA 280215Z 15004KT CAVOK 21/14 Q1016=
200907280145 METAR LIRA 280145Z 15004KT CAVOK 22/12 Q1016=
200907280115 METAR LIRA 280115Z 14003KT CAVOK 22/11 Q1016=
200907280045 METAR LIRA 280045Z 00000KT CAVOK 23/12 Q1017=
200907280015 METAR LIRA 280015Z 00000KT CAVOK 23/11 Q1017=
200907272350 METAR LIRA 280045Z 00000KT CAVOK 23/12 Q1017=
200907272345 METAR LIRA 272345Z 15002KT CAVOK 24/17 Q1017=
200907272315 METAR LIRA 272315Z 13001KT CAVOK 24/18 Q1017=
200907272245 METAR LIRA 272245Z 11002KT CAVOK 24/18 Q1017=
200907272215 METAR LIRA 272215Z 16003KT CAVOK 25/20 Q1017=
200907272145 METAR LIRA 272145Z 15002KT CAVOK 25/20 Q1017=
200907272115 METAR LIRA 272115Z 16002KT CAVOK 25/19 Q1017=
200907272045 METAR LIRA 272045Z 22003KT CAVOK 25/18 Q1017=
200907272015 METAR LIRA 272015Z 22003KT CAVOK 26/17 Q1017=
200907271945 METAR LIRA 271945Z 22003KT CAVOK 27/16 Q1016=
200907271915 METAR LIRA 271915Z 22003KT CAVOK 28/16 Q1016=
200907271845 METAR LIRA 271845Z 24003KT CAVOK 29/16 Q1016=
200907271815 METAR LIRA 271815Z 22004KT CAVOK 29/15 Q1016=
200907271745 METAR LIRA 271745Z 28006KT 190V310 CAVOK 30/15 Q1016=
200907271715 METAR LIRA 271715Z 26006KT 190V300 CAVOK 31/15 Q1016=
200907271645 METAR LIRA 271645Z 28007KT 200V330 CAVOK 31/15 Q1016=
200907271615 METAR LIRA 271615Z 25007KT 200V310 CAVOK 31/16 Q1016=
200907271545 METAR LIRA 271545Z 25008KT 200V290 CAVOK 32/16 Q1016=
200907271515 METAR LIRA 271515Z 23010KT 230V010 CAVOK 32/17 Q1016=
200907271445 METAR LIRA 271445Z 23009KT 170V320 9999 FEW020 32/16 Q1016=
200907271415 METAR LIRA 271415Z 23006KT 180V270 9999 FEW020 32/17 Q1016=
200907271345 METAR LIRA 271345Z 23008KT 120V260 9999 FEW020 32/16 Q1016=
200907271315 METAR LIRA 271315Z 23007KT 140V270 9999 FEW020 32/17 Q1016=
200907271245 METAR LIRA 271245Z 18007KT 150V270 9999 FEW020 32/17 Q1016=
200907271215 METAR LIRA 271215Z 21009KT 150V280 9999 FEW020 33/17 Q1016=
200907271145 METAR LIRA 271145Z 23009KT 170V270 9999 FEW020 33/15 Q1016=
200907271115 METAR LIRA 271115Z 27007G17KT 140V010 9999 FEW020 33/14 Q1017=
200907271045 METAR LIRA 271045Z 31004KT 9999 FEW020 32/14 Q1017=
200907271015 METAR LIRA 271015Z 10004KT 9999 FEW020 33/15 Q1017=
200907270945 METAR LIRA 270945Z 24004KT CAVOK 32/15 Q1017=
200907270915 METAR LIRA 270915Z 14002KT CAVOK 31/15 Q1017=
200907270845 METAR LIRA 270845Z 19002KT CAVOK 30/16 Q1018=
200907270815 METAR LIRA 270815Z 08003KT CAVOK 28/16 Q1018=
200907270745 METAR LIRA 270745Z 33002KT CAVOK 27/16 Q1018=
200907270715 METAR LIRA 270715Z 35002KT CAVOK 26/17 Q1018=
200907270645 METAR LIRA 270645Z 34002KT CAVOK 25/17 Q1017=
200907270615 METAR LIRA 270615Z 35004KT CAVOK 23/17 Q1017=
200907270545 METAR LIRA 270545Z 02003KT CAVOK 23/18 Q1017=
200907270515 METAR LIRA 270515Z 04001KT CAVOK 22/17 Q1017=
200907270445 METAR LIRA 270445Z 03001KT CAVOK 21/17 Q1017=
200907270415 METAR LIRA 270415Z 08002KT CAVOK 20/16 Q1017=
200907270345 METAR LIRA 270345Z 08002KT CAVOK 20/16 Q1017=
200907270315 METAR LIRA 270315Z 00000KT CAVOK 21/18 Q1017=
200907270245 METAR LIRA 270245Z 00000KT CAVOK 21/17 Q1017=
200907270215 METAR LIRA 270215Z 00000KT CAVOK 22/17 Q1017=
200907270145 METAR LIRA 270145Z 00000KT CAVOK 22/17 Q1017=
200907270015 METAR LIRA 270015Z 15003KT CAVOK 23/16 Q1017=
200907262345 METAR LIRA 262345Z 15003KT CAVOK 23/16 Q1017=
200907262315 METAR LIRA 262315Z 15003KT CAVOK 23/18 Q1017=
200907262245 METAR LIRA 262245Z 15003KT CAVOK 24/21 Q1017=
200907262215 METAR LIRA 262215Z 15004KT CAVOK 29/25 Q1017=
200907262145 METAR LIRA 262145Z 18005KT CAVOK 24/20 Q1017=
200907262115 METAR LIRA 262115Z 18005KT CAVOK 24/20 Q1017=
200907262045 METAR LIRA 262045Z 18005KT CAVOK 24/19 Q1017=
200907262015 METAR LIRA 262015Z 20004KT 160V240 CAVOK 25/20 Q1017=
200907261945 METAR LIRA 261945Z 16006KT CAVOK 25/18 Q1017=
200907261915 METAR LIRA 261915Z 20004KT 150V230 CAVOK 27/17 Q1017=
200907261845 METAR LIRA 261845Z 19007KT CAVOK 27/17 Q1017=
200907261815 METAR LIRA 261815Z 22004KT CAVOK 28/16 Q1017=
200907261745 METAR LIRA 261745Z 22005KT 180V260 CAVOK 28/16 Q1017=
200907261715 METAR LIRA 261715Z 25005KT 190V300 9999 FEW018 29/16 Q1017=
200907261645 METAR LIRA 261645Z 27007KT 200V310 9999 FEW018 30/16 Q1017=
200907261615 METAR LIRA 261615Z 21008KT 210V320 9999 FEW018 31/09 Q1017=
200907261545 METAR LIRA 261545Z 18007KT 150V280 9999 FEW018 31/15 Q1017=
200907261515 METAR LIRA 261515Z 23010KT 180V260 9999 FEW018 31/15 Q1017=
200907261445 METAR LIRA 261445Z 24009KT 170V270 9999 FEW018 32/15 Q1017=
200907261415 METAR LIRA 261415Z 22010KT 180V280 9999 FEW018 32/15 Q1017=
200907261345 METAR LIRA 261345Z 22010KT 180V270 9999 FEW018 32/15 Q1017=
200907261315 METAR LIRA 261315Z 21009KT 150V260 CAVOK 32/16 Q1017=
200907261245 METAR LIRA 261245Z 21008KT 170V280 9999 FEW018 33/16 Q1017=
200907261215 METAR LIRA 261215Z 25004KT 180V330 9999 SCT018 33/17 Q1017=
200907261145 METAR LIRA 261145Z 27008KT 180V320 9999 SCT018 32/15 Q1017=
200907261115 METAR LIRA 261115Z 24004KT 160V300 9999 SCT018 33/16 Q1017=
200907261045 METAR LIRA 261045Z 28007KT 240V360 9999 SCT018 32/16 Q1017=
200907261015 METAR LIRA 261015Z 35004KT CAVOK 32/16 Q1017=
200907260945 METAR LIRA 260945Z 01002KT 330V060 9999 FEW018 31/17 Q1017=
200907260915 METAR LIRA 260915Z 32006KT 280V350 9999 FEW018 30/17 Q1017=
200907260845 METAR LIRA 260845Z 36002KT 330V030 9999 FEW018 29/18 Q1017=
200907260815 METAR LIRA 260815Z 34004KT 310V020 9999 FEW018 29/18 Q1017=
200907260745 METAR LIRA 260745Z 01003KT CAVOK 27/17 Q1017=
200907260715 METAR LIRA 260715Z 02003KT 310V030 CAVOK 26/17 Q1017=
200907260645 METAR LIRA 260645Z 02004KT 010V080 CAVOK 25/17 Q1017=
200907260615 METAR LIRA 260615Z 04005KT CAVOK 24/17 Q1016=
200907260545 METAR LIRA 260545Z 03004KT CAVOK 22/17 Q1016=
200907260515 METAR LIRA 260515Z 05006KT 010V070 CAVOK 22/17 Q1016=
200907260445 METAR LIRA 260445Z 06005KT CAVOK 21/17 Q1016=
200907260415 METAR LIRA 260415Z 04005KT 9999 FEW020 21/18 Q1016=
200907260345 METAR LIRA 260345Z 04003KT 9999 FEW020 22/19 Q1015=
200907260315 METAR LIRA 260315Z 01002KT CAVOK 22/18 Q1015=
200907260245 METAR LIRA 260245Z 07002KT CAVOK 22/19 Q1015=
200907260215 METAR LIRA 260215Z 03002KT CAVOK 22/20 Q1015=
200907260145 METAR LIRA 260145Z 02003KT CAVOK 23/20 Q1015=
200907260115 METAR LIRA 260115Z 03002KT CAVOK 23/20 Q1015=
200907260045 METAR LIRA 260045Z 01003KT CAVOK 23/19 Q1015=
200907260015 METAR LIRA 260015Z 01002KT CAVOK 23/18 Q1015=
200907252345 METAR LIRA 252345Z 04003KT CAVOK 23/18 Q1015=
200907252315 METAR LIRA 252315Z 00000KT CAVOK 23/20 Q1015=
200907252245 METAR LIRA 252245Z 00000KT CAVOK 24/21 Q1016=
200907252215 METAR LIRA 252215Z 20001KT CAVOK 24/21 Q1016=
200907252145 METAR LIRA 252145Z 18002KT CAVOK 24/21 Q1016=
200907252115 METAR LIRA 252115Z 17005KT CAVOK 24/22 Q1015=
200907252045 METAR LIRA 252045Z 17006KT CAVOK 25/22 Q1015=
200907252015 METAR LIRA 252015Z 18005KT CAVOK 25/22 Q1015=
200907251945 METAR LIRA 251945Z 18005KT CAVOK 25/23 Q1015=
200907251915 METAR LIRA 251915Z 19005KT CAVOK 26/23 Q1015=
200907251845 METAR LIRA 251845Z 22003KT 9999 FEW020 28/22 Q1015=
200907251815 METAR LIRA 251815Z 22005KT 9999 FEW020 28/20 Q1014=
200907251745 METAR LIRA 251745Z 22005KT 190V250 CAVOK 29/20 Q1015=
200907251715 METAR LIRA 251715Z 26005KT 190V310 9999 FEW020 30/18 Q1015=
200907251645 METAR LIRA 251645Z 25005KT 190V310 9999 FEW020 31/19 Q1015=
200907251615 METAR LIRA 251615Z 23006KT 210V280 9999 FEW020 31/19 Q1015=
200907251545 METAR LIRA 251545Z 26006KT 180V330 9999 FEW020 31/19 Q1015=
200907251515 METAR LIRA 251515Z 26007KT 180V330 9999 FEW020 31/18 Q1015=
200907251445 METAR LIRA 251445Z 28008KT 190V320 9999 FEW020 32/18 Q1015=
200907251415 METAR LIRA 251415Z 26009KT 190V320 9999 FEW020 33/17 Q1015=
200907251345 METAR LIRA 251345Z 27009KT 190V010 9999 FEW020 33/17 Q1015=
200907251315 METAR LIRA 251315Z 28006KT 180V360 9999 FEW020 33/17 Q1015=
200907251245 METAR LIRA 251245Z 27007KT 190V320 9999 FEW020 33/19 Q1015=
200907251215 METAR LIRA 251215Z 25008KT 190V320 9999 FEW020 33/20 Q1015=
200907251145 METAR LIRA 251145Z 25010KT 200V310 9999 FEW020 32/22 Q1015=
200907251115 METAR LIRA 251115Z 24008KT 210V300 9999 FEW020 34/23 Q1016=
200907251045 METAR LIRA 251045Z 27007KT 210V310 9999 FEW020 33/15 Q1016=
200907251015 METAR LIRA 251015Z 27006KT 170V340 CAVOK 33/14 Q1016=
200907250945 METAR LIRA 250945Z 30004KT 220V340 CAVOK 33/14 Q1016=
200907250915 METAR LIRA 250915Z 00000KT CAVOK 32/17 Q1016=
200907250845 METAR LIRA 250845Z 11002KT CAVOK 31/19 Q1015=
200907250815 METAR LIRA 250815Z 08002KT CAVOK 30/18 Q1015=
200907250745 METAR LIRA 250745Z 17001KT CAVOK 29/19 Q1015=
200907250715 METAR LIRA 250715Z 00000KT CAVOK 27/18 Q1015=
200907250645 METAR LIRA 250645Z 06003KT CAVOK 26/19 Q1015=
200907250615 METAR LIRA 250615Z 06001KT CAVOK 25/19 Q1015=
200907250545 METAR LIRA 250545Z 07002KT CAVOK 24/20 Q1015=
200907250515 METAR LIRA 250515Z 08003KT CAVOK 23/19 Q1015=
200907250445 METAR LIRA 250445Z 35003KT CAVOK 22/21 Q1014=
200907250415 METAR LIRA 250415Z 34003KT CAVOK 22/21 Q1014=
200907250345 METAR LIRA 250345Z 31003KT CAVOK 22/20 Q1014=
200907250315 METAR LIRA 250315Z 32006KT CAVOK 22/19 Q1014=
200907250245 METAR LIRA 250245Z 12002KT CAVOK 22/20 Q1015=
200907250215 METAR LIRA 250215Z 07003KT CAVOK 23/20 Q1015=
200907250145 METAR LIRA 250145Z 09003KT CAVOK 23/21 Q1015=
200907250115 METAR LIRA 250115Z 10005KT CAVOK 23/20 Q1015=
200907250045 METAR LIRA 250045Z 15002KT CAVOK 24/19 Q1015=
200907250015 METAR LIRA 250015Z 00000KT CAVOK 24/21 Q1015=
200907242350 METAR LIRA 250045Z 15002KT CAVOK 24/19 Q1015=
200907242345 METAR LIRA 242345Z 01001KT CAVOK 24/21 Q1015=
200907242315 METAR LIRA 242315Z 04004KT CAVOK 24/21 Q1015=
200907242245 METAR LIRA 242245Z 00000KT CAVOK 25/20 Q1015=
200907242215 METAR LIRA 242215Z 27001KT CAVOK 26/21 Q1015=
200907242145 METAR LIRA 242145Z 07003KT CAVOK 26/22 Q1015=
200907242115 METAR LIRA 242115Z 00000KT CAVOK 27/21 Q1015=
200907242045 METAR LIRA 242045Z 06003KT CAVOK 27/21 Q1015=
200907242015 METAR LIRA 242015Z 17004KT CAVOK 28/22 Q1015=
200907241945 METAR LIRA 241945Z 16007KT 130V200 CAVOK 28/22 Q1014=
200907241915 METAR LIRA 241915Z 16010KT 130V190 CAVOK 28/22 Q1014=
200907241845 METAR LIRA 241845Z 18011KT CAVOK 29/22 Q1014=
200907241815 METAR LIRA 241815Z 17013KT 150V210 CAVOK 30/21 Q1014=
200907241745 METAR LIRA 241745Z 18011KT CAVOK 32/18 Q1014=
200907241715 METAR LIRA 241715Z 18011KT 150V220 CAVOK 33/18 Q1014=
200907241645 METAR LIRA 241645Z 17013KT 140V220 CAVOK 34/18 Q1015=
200907241615 METAR LIRA 241615Z 17016KT CAVOK 34/17 Q1015=
200907241545 METAR LIRA 241545Z 18012KT 140V230 CAVOK 34/17 Q1015=
200907241515 METAR LIRA 241515Z 18011KT 150V240 CAVOK 34/17 Q1015=
200907241445 METAR LIRA 241445Z 18012KT 140V240 CAVOK 35/16 Q1015=
200907241415 METAR LIRA 241415Z 18013KT 140V240 CAVOK 35/15 Q1015=
200907241345 METAR LIRA 241345Z 17014KT 140V230 CAVOK 35/14 Q1015=
200907241315 METAR LIRA 241315Z 20013KT 120V230 CAVOK 35/14 Q1015=
200907241245 METAR LIRA 241245Z 16012KT 120V230 CAVOK 35/13 Q1015=
200907241215 METAR LIRA 241215Z 18015KT 150V240 CAVOK 35/12 Q1016=
200907241145 METAR LIRA 241145Z 16014KT 120V240 CAVOK 35/13 Q1016=
200907241115 METAR LIRA 241115Z 18011KT 130V220 CAVOK 36/15 Q1016=
200907241045 METAR LIRA 241045Z 18010KT 120V220 CAVOK 34/14 Q1016=
200907241015 METAR LIRA 241015Z 15012KT 110V220 CAVOK 34/14 Q1016=
200907240945 METAR LIRA 240945Z 16013KT 130V230 CAVOK 34/12 Q1016=
200907240915 METAR LIRA 240915Z 17011KT 130V210 CAVOK 34/10 Q1016=
200907240845 METAR LIRA 240845Z 19010KT 110V220 CAVOK 34/10 Q1016=
200907240815 METAR LIRA 240815Z 15009KT 120V210 CAVOK 34/10 Q1016=
200907240745 METAR LIRA 240745Z 13011KT 090V190 CAVOK 33/10 Q1016=
200907240715 METAR LIRA 240715Z 07005KT 030V170 CAVOK 33/13 Q1016=
200907240645 METAR LIRA 240645Z 00000KT CAVOK 30/12 Q1016=
200907240615 METAR LIRA 240615Z 33002KT CAVOK 28/12 Q1016=
200907240545 METAR LIRA 240545Z 33004KT CAVOK 28/12 Q1015=
200907240515 METAR LIRA 240515Z 11005KT 050V180 CAVOK 30/08 Q1015=
200907240445 METAR LIRA 240445Z 16008KT 120V210 CAVOK 30/08 Q1015=
200907240415 METAR LIRA 240415Z 16008KT 130V230 CAVOK 29/09 Q1015=
200907240345 METAR LIRA 240345Z 16010KT CAVOK 29/09 Q1016=
200907240315 METAR LIRA 240315Z 16011KT 120V190 CAVOK 29/09 Q1016=
200907240245 METAR LIRA 240245Z 15008KT CAVOK 29/09 Q1016=
200907240215 METAR LIRA 240215Z 15013KT 120V200 CAVOK 30/09 Q1016=
200907240145 METAR LIRA 240145Z 16009KT 140V230 CAVOK 30/08 Q1016=
200907240115 METAR LIRA 240115Z 15011KT 130V250 CAVOK 30/08 Q1016=
200907240045 METAR LIRA 240045Z 19007KT 160V240 CAVOK 31/09 Q1016=
200907240015 METAR LIRA 240015Z 17009KT 120V190 CAVOK 31/10 Q1016=
200907232350 METAR LIRA 240045Z 19007KT 160V240 CAVOK 31/09 Q1016=
200907232345 METAR LIRA 232345Z 15015KT 120V180 CAVOK 30/10 Q1016=
200907232315 METAR LIRA 232315Z 16009KT 120V220 CAVOK 30/11 Q1016=
200907232245 METAR LIRA 232245Z 15013KT 110V200 CAVOK 30/11 Q1016=
200907232215 METAR LIRA 232215Z 14009KT CAVOK 30/11 Q1016=
200907232145 METAR LIRA 232145Z 14007KT CAVOK 30/11 Q1016=
200907232115 METAR LIRA 232115Z 13009KT CAVOK 30/12 Q1016=
200907232045 METAR LIRA 232045Z 13006KT CAVOK 30/14 Q1016=
200907232015 METAR LIRA 232015Z 15009KT 110V210 CAVOK 30/13 Q1016=
200907231945 METAR LIRA 231945Z 15008KT 120V210 CAVOK 29/14 Q1016=
200907231915 METAR LIRA 231915Z 15005KT 110V190 CAVOK 29/14 Q1016=
200907231845 METAR LIRA 231845Z 16009KT 130V200 CAVOK 30/15 Q1016=
200907231815 METAR LIRA 231815Z 17009KT 130V200 CAVOK 30/14 Q1016=
200907231745 METAR LIRA 231745Z 17010KT 140V210 CAVOK 31/13 Q1016=
200907231715 METAR LIRA 231715Z 17012KT 150V220 CAVOK 32/14 Q1016=
200907231645 METAR LIRA 231645Z 18010KT 140V220 CAVOK 33/12 Q1016=
200907231615 METAR LIRA 231615Z 18012KT 140V220 CAVOK 33/12 Q1016=
200907231545 METAR LIRA 231545Z 17012KT CAVOK 34/11 Q1016=
200907231515 METAR LIRA 231515Z 17012KT 120V210 CAVOK 34/12 Q1016=
200907231445 METAR LIRA 231445Z 16009KT 120V210 CAVOK 35/12 Q1017=
200907231415 METAR LIRA 231415Z 16011KT 120V200 9999 FEW035 35/12 Q1017=
200907231345 METAR LIRA 231345Z 14010KT 090V210 9999 FEW035 35/12 Q1017=
200907231315 METAR LIRA 231315Z 16011KT 120V240 9999 FEW035 35/12 Q1017=
200907231245 METAR LIRA 231245Z 20011KT 110V230 9999 FEW035 34/12 Q1017=
200907231215 METAR LIRA 231215Z 18009KT 130V220 9999 FEW035 35/14 Q1017=
200907231145 METAR LIRA 231145Z 16011KT 120V210 9999 FEW040 35/14 Q1017=
200907231115 METAR LIRA 231115Z 14009KT 090V210 9999 FEW040 35/14 Q1018=
200907231045 METAR LIRA 231045Z 17010KT 130V220 9999 FEW040 34/13 Q1018=
200907231015 METAR LIRA 231015Z 20008KT 150V240 CAVOK 34/13 Q1018=
200907230945 METAR LIRA 230945Z 19007KT 130V240 CAVOK 33/13 Q1018=
200907230915 METAR LIRA 230915Z 16006KT 120V240 CAVOK 33/14 Q1018=
200907230845 METAR LIRA 230845Z 20005KT 150V240 CAVOK 32/12 Q1018=
200907230815 METAR LIRA 230815Z 18003KT CAVOK 31/15 Q1018=
200907230745 METAR LIRA 230745Z 33002KT CAVOK 29/17 Q1018=
200907230715 METAR LIRA 230715Z 35002KT CAVOK 27/17 Q1017=
200907230645 METAR LIRA 230645Z 03003KT CAVOK 26/17 Q1017=
200907230615 METAR LIRA 230615Z 36001KT CAVOK 25/17 Q1017=
200907230545 METAR LIRA 230545Z 00000KT CAVOK 23/17 Q1017=
200907230515 METAR LIRA 230515Z 36001KT CAVOK 22/16 Q1017=
200907230445 METAR LIRA 230445Z 00000KT CAVOK 21/15 Q1017=
200907230415 METAR LIRA 230415Z 07002KT CAVOK 20/14 Q1017=
200907230345 METAR LIRA 230345Z 06001KT CAVOK 20/14 Q1017=
200907230315 METAR LIRA 230315Z 00000KT CAVOK 20/15 Q1017=
200907230245 METAR LIRA 230245Z 00000KT CAVOK 21/15 Q1017=
200907230215 METAR LIRA 230215Z 12002KT CAVOK 22/11 Q1017=
200907230145 METAR LIRA 230145Z 11003KT CAVOK 22/10 Q1017=
200907230115 METAR LIRA 230115Z 10003KT CAVOK 22/11 Q1018=
200907230045 METAR LIRA 230045Z 10003KT CAVOK 22/11 Q1017=
200907230015 METAR LIRA 230015Z 00000KT CAVOK 22/12 Q1018=
200907222350 METAR LIRA 230045Z 10003KT CAVOK 22/11 Q1017=
200907222345 METAR LIRA 222345Z 10003KT CAVOK 22/11 Q1018=
200907222315 METAR LIRA 222315Z 10003KT CAVOK 23/11 Q1018=
200907222245 METAR LIRA 222245Z 00000KT CAVOK 23/11 Q1018=
200907222215 METAR LIRA 222215Z 00000KT CAVOK 23/11 Q1018=
200907222145 METAR LIRA 222145Z 00000KT CAVOK 24/12 Q1018=
200907222115 METAR LIRA 222115Z 00000KT CAVOK 24/13 Q1017=
200907222045 METAR LIRA 222045Z 20003KT CAVOK 25/13 Q1017=
200907222015 METAR LIRA 222015Z 21001KT CAVOK 25/13 Q1017=
200907221945 METAR LIRA 221945Z 00000KT CAVOK 25/13 Q1017=
200907221915 METAR LIRA 221915Z 23003KT CAVOK 26/13 Q1017=
200907221845 METAR LIRA 221845Z 23004KT CAVOK 27/15 Q1017=
200907221815 METAR LIRA 221815Z 22004KT CAVOK 28/15 Q1017=
200907221745 METAR LIRA 221745Z 20004KT CAVOK 30/14 Q1017=
200907221715 METAR LIRA 221715Z 24003KT CAVOK 31/15 Q1017=
200907221645 METAR LIRA 221645Z 20003KT CAVOK 31/15 Q1018=
200907221615 METAR LIRA 221615Z 19005KT 170V250 CAVOK 31/15 Q1018=
200907221545 METAR LIRA 221545Z 21005KT 180V310 CAVOK 32/15 Q1019=
200907221515 METAR LIRA 221515Z 25008KT 200V330 CAVOK 32/15 Q1019=
200907221445 METAR LIRA 221445Z 24008KT 210V310 CAVOK 33/13 Q1019=
200907221415 METAR LIRA 221415Z 25009KT 200V290 CAVOK 33/12 Q1019=
200907221345 METAR LIRA 221345Z 24005KT 200V300 CAVOK 33/13 Q1019=
200907221315 METAR LIRA 221315Z 25007KT 190V350 CAVOK 33/14 Q1019=
200907221245 METAR LIRA 221245Z 25006KT 140V320 CAVOK 33/15 Q1019=
200907221215 METAR LIRA 221215Z 26007KT 170V300 CAVOK 33/15 Q1019=
200907221145 METAR LIRA 221145Z 27010KT 200V340 CAVOK 34/17 Q1019=
200907221115 METAR LIRA 221115Z 26006KT 150V300 CAVOK 33/17 Q1019=
200907221045 METAR LIRA 221045Z 20003KT 160V250 CAVOK 33/16 Q1019=
200907221015 METAR LIRA 221015Z 18004KT 150V260 CAVOK 32/16 Q1019=
200907220945 METAR LIRA 220945Z 19006KT 070V270 CAVOK 32/17 Q1019=
200907220915 METAR LIRA 220915Z 23006KT 220V360 CAVOK 32/15 Q1018=
200907220845 METAR LIRA 220845Z 30007KT 270V360 CAVOK 31/16 Q1018=
200907220815 METAR LIRA 220815Z 33003KT CAVOK 30/16 Q1018=
200907220745 METAR LIRA 220745Z 04003KT CAVOK 29/15 Q1018=
200907220715 METAR LIRA 220715Z 04005KT 010V090 CAVOK 28/16 Q1018=
200907220645 METAR LIRA 220645Z 03005KT 340V060 CAVOK 25/16 Q1018=
200907220615 METAR LIRA 220615Z 01005KT 340V040 CAVOK 24/16 Q1018=
200907220545 METAR LIRA 220545Z 03004KT CAVOK 22/16 Q1018=
200907220515 METAR LIRA 220515Z 36003KT CAVOK 21/16 Q1018=
200907220445 METAR LIRA 220445Z 03003KT CAVOK 20/15 Q1018=
200907220415 METAR LIRA 220415Z 03004KT CAVOK 21/15 Q1018=
200907220345 METAR LIRA 220345Z 04004KT CAVOK 20/14 Q1019=
200907220145 METAR LIRA 220145Z 04003KT CAVOK 20/16 Q1019=
200907220045 METAR LIRA 220045Z 16003KT CAVOK 21/16 Q1019=
200907220015 METAR LIRA 220015Z 16002KT CAVOK 21/17 Q1019=
200907212350 METAR LIRA 220045Z 16003KT CAVOK 21/16 Q1019=
200907212345 METAR LIRA 212345Z 17002KT CAVOK 22/17 Q1019=
200907212315 METAR LIRA 212315Z 16002KT CAVOK 23/18 Q1019=
200907212245 METAR LIRA 212245Z 16002KT CAVOK 23/18 Q1019=
200907212215 METAR LIRA 212215Z 15003KT CAVOK 23/18 Q1019=
200907212145 METAR LIRA 212145Z 16003KT CAVOK 23/17 Q1019=
200907212115 METAR LIRA 212115Z 22004KT CAVOK 24/15 Q1019=
200907212045 METAR LIRA 212045Z 20003KT CAVOK 24/14 Q1019=
200907212015 METAR LIRA 212015Z 15003KT CAVOK 24/14 Q1019=
200907211945 METAR LIRA 211945Z 18005KT CAVOK 25/12 Q1019=
200907211915 METAR LIRA 211915Z 20003KT CAVOK 25/12 Q1019=
200907211845 METAR LIRA 211845Z 22006KT CAVOK 27/12 Q1018=
200907211815 METAR LIRA 211815Z 23005KT 200V280 CAVOK 27/11 Q1018=
200907211745 METAR LIRA 211745Z 23006KT 190V260 CAVOK 27/11 Q1018=
200907211715 METAR LIRA 211715Z 22009KT 180V260 CAVOK 29/11 Q1018=
200907211645 METAR LIRA 211645Z 22006KT 180V270 CAVOK 29/12 Q1018=
200907211615 METAR LIRA 211615Z 22008KT 180V290 CAVOK 30/12 Q1019=
200907211545 METAR LIRA 211545Z 24009KT 200V300 CAVOK 30/12 Q1019=
200907211515 METAR LIRA 211515Z 25007KT 200V300 CAVOK 30/12 Q1019=
200907211445 METAR LIRA 211445Z 25008KT 200V290 CAVOK 31/12 Q1019=
200907211415 METAR LIRA 211415Z 26007KT 210V330 CAVOK 32/13 Q1019=
200907211345 METAR LIRA 211345Z 27006KT 200V310 CAVOK 32/13 Q1019=
200907211315 METAR LIRA 211315Z 27008KT 200V330 9999 FEW020 32/13 Q1019=
200907211245 METAR LIRA 211245Z 28009KT 230V040 9999 FEW020 32/11 Q1019=
200907211215 METAR LIRA 211215Z 09002KT 9999 FEW020 32/10 Q1020=
200907211145 METAR LIRA 211145Z 01003KT 9999 FEW020 31/07 Q1020=
200907211115 METAR LIRA 211115Z 36003KT 270V360 9999 FEW020 30/07 Q1020=
200907211045 METAR LIRA 211045Z 34005G16KT 260V060 9999 FEW020 SCT070
                        30/10 Q1020=
200907211015 METAR LIRA 211015Z 29007KT 240V360 9999 FEW020 SCT070 29/10
                        Q1020=
200907210945 METAR LIRA 210945Z 02005KT 9999 FEW020 SCT070 29/11 Q1020=
200907210915 METAR LIRA 210915Z 07003KT 010V100 9999 FEW020 SCT070 28/12
                        Q1020=
200907210845 METAR LIRA 210845Z 05003KT 9999 FEW020 SCT070 27/15 Q1019=
200907210815 METAR LIRA 210815Z 05006KT 020V080 9999 FEW070 SCT200 25/16
                        Q1019=
200907210745 METAR LIRA 210745Z 02004KT 9999 FEW026 SCT070 24/16 Q1019=
200907210715 METAR LIRA 210715Z 36004KT 9999 FEW026 SCT070 23/17 Q1019=
200907210645 METAR LIRA 210645Z 36003KT 9999 FEW080 SCT200 22/17 Q1019=
200907210615 METAR LIRA 210615Z 01006KT 320V060 CAVOK 21/16 Q1019=
200907210545 METAR LIRA 210545Z 02006KT 330V070 CAVOK 20/16 Q1019=
200907210515 METAR LIRA 210515Z 03004KT 360V090 9999 FEW070 20/16 Q1019=
200907210445 METAR LIRA 210445Z 04003KT CAVOK 19/16 Q1019=
200907210415 METAR LIRA 210415Z 05005KT CAVOK 18/15 Q1019=
200907210345 METAR LIRA 210345Z 03004KT CAVOK 19/16 Q1019=
200907210315 METAR LIRA 210315Z 36004KT CAVOK 19/16 Q1019=
200907210245 METAR LIRA 210245Z 02003KT CAVOK 19/16 Q1019=
200907210215 METAR LIRA 210215Z 04004KT CAVOK 19/16 Q1019=
200907210145 METAR LIRA 210145Z 04004KT CAVOK 19/16 Q1019=
200907210115 METAR LIRA 210115Z 35002KT CAVOK 20/16 Q1020=
200907210045 METAR LIRA 210045Z 05004KT CAVOK 20/16 Q1020=
200907210015 METAR LIRA 210015Z 02002KT CAVOK 20/15 Q1020=
200907202350 METAR LIRA 210045Z 05004KT CAVOK 20/16 Q1020=
200907202345 METAR LIRA 202345Z 00000KT CAVOK 20/15 Q1020=
200907202315 METAR LIRA 202315Z 11002KT CAVOK 21/15 Q1020=
200907202245 METAR LIRA 202245Z 12003KT CAVOK 21/16 Q1020=
200907202215 METAR LIRA 202215Z 14002KT CAVOK 22/20 Q1020=
200907202145 METAR LIRA 202145Z 16003KT CAVOK 22/20 Q1020=
200907202115 METAR LIRA 202115Z 18004KT CAVOK 23/19 Q1020=
200907202045 METAR LIRA 202045Z 19003KT CAVOK 23/19 Q1020=
200907202015 METAR LIRA 202015Z 22003KT CAVOK 23/20 Q1019=
200907201945 METAR LIRA 201945Z 23002KT CAVOK 24/19 Q1019=
200907201915 METAR LIRA 201915Z 25003KT CAVOK 24/19 Q1019=
200907201845 METAR LIRA 201845Z 26004KT 220V300 CAVOK 25/19 Q1019=
200907201815 METAR LIRA 201815Z 23004KT CAVOK 26/18 Q1019=
200907201745 METAR LIRA 201745Z 21004KT CAVOK 27/17 Q1019=
200907201715 METAR LIRA 201715Z 23007KT CAVOK 27/16 Q1019=
200907201645 METAR LIRA 201645Z 23006KT 190V310 CAVOK 27/17 Q1019=
200907201615 METAR LIRA 201615Z 24009KT 160V300 9999 FEW022 28/18 Q1019=
200907201545 METAR LIRA 201545Z 26007KT 160V300 9999 FEW022 27/17 Q1019=
200907201515 METAR LIRA 201515Z 24007KT 160V290 9999 FEW022 27/16 Q1019=
200907201445 METAR LIRA 201445Z 21008KT 180V300 9999 FEW022 28/18 Q1019=
200907201415 METAR LIRA 201415Z 22009KT 140V300 9999 FEW022 28/18 Q1019=
200907201345 METAR LIRA 201345Z 23008KT 160V280 9999 FEW022 29/18 Q1019=
200907201245 METAR LIRA 201245Z 16005KT 120V320 9999 FEW022 30/16 Q1020=
200907201215 METAR LIRA 201215Z 23006KT 180V340 9999 FEW022 29/16 Q1020=
200907201145 METAR LIRA 201145Z 25007KT 200V320 9999 FEW022 30/15 Q1020=
200907201115 METAR LIRA 201115Z 20005KT 9999 FEW022 30/12 Q1020=
200907201045 METAR LIRA 201045Z 29005KT 260V330 CAVOK 29/11 Q1020=
200907201015 METAR LIRA 201015Z 14003KT CAVOK 29/12 Q1020=
200907200945 METAR LIRA 200945Z 23004KT CAVOK 28/13 Q1020=
200907200915 METAR LIRA 200915Z 17003KT CAVOK 27/12 Q1020=
200907200845 METAR LIRA 200845Z 07002KT CAVOK 26/16 Q1020=
200907200815 METAR LIRA 200815Z 25003KT CAVOK 25/15 Q1020=
200907200745 METAR LIRA 200745Z 06004KT 010V090 CAVOK 25/16 Q1020=
200907200715 METAR LIRA 200715Z 03004KT CAVOK 23/17 Q1020=
200907200645 METAR LIRA 200645Z 01005KT 330V060 CAVOK 22/17 Q1020=
200907200615 METAR LIRA 200615Z 02004KT CAVOK 20/16 Q1020=
200907200545 METAR LIRA 200545Z 04002KT CAVOK 19/16 Q1020=
200907200515 METAR LIRA 200515Z 03002KT CAVOK 18/16 Q1019=
200907200445 METAR LIRA 200445Z 08002KT CAVOK 17/15 Q1019=
200907200415 METAR LIRA 200415Z 06002KT CAVOK 17/15 Q1019=
200907200345 METAR LIRA 200345Z 00000KT CAVOK 17/14 Q1019=
200907200315 METAR LIRA 200315Z 00000KT CAVOK 17/14 Q1019=
200907200245 METAR LIRA 200245Z 12002KT CAVOK 17/14 Q1019=
200907200215 METAR LIRA 200215Z 00000KT CAVOK 18/14 Q1019=
200907200145 METAR LIRA 200145Z 11003KT CAVOK 18/14 Q1019=
200907200115 METAR LIRA 200115Z 11003KT CAVOK 18/14 Q1020=
200907200045 METAR LIRA 200045Z 12003KT CAVOK 18/14 Q1020=
200907200015 METAR LIRA 200015Z 11003KT CAVOK 18/14 Q1020=
200907192350 METAR LIRA 200045Z 12003KT CAVOK 18/14 Q1020=
200907192345 METAR LIRA 192345Z 10004KT CAVOK 19/16 Q1020=
200907192315 METAR LIRA 192315Z 12003KT CAVOK 19/16 Q1020=
200907192245 METAR LIRA 192245Z 14002KT CAVOK 19/17 Q1020=
200907192215 METAR LIRA 192215Z 14005KT CAVOK 20/17 Q1020=
200907192145 METAR LIRA 192145Z 13004KT CAVOK 20/17 Q1020=
200907192115 METAR LIRA 192115Z 17004KT CAVOK 21/18 Q1019=
200907192045 METAR LIRA 192045Z 17003KT CAVOK 21/18 Q1019=
200907192015 METAR LIRA 192015Z 18004KT CAVOK 21/17 Q1019=
200907191945 METAR LIRA 191945Z 18004KT CAVOK 22/18 Q1019=
200907191915 METAR LIRA 191915Z 19006KT 160V230 CAVOK 23/18 Q1018=
200907191845 METAR LIRA 191845Z 21005KT CAVOK 23/17 Q1018=
200907191815 METAR LIRA 191815Z 22006KT 170V250 CAVOK 24/15 Q1018=
200907191745 METAR LIRA 191745Z 20006KT 150V260 CAVOK 25/12 Q1018=
200907191715 METAR LIRA 191715Z 19010KT 150V230 CAVOK 26/10 Q1018=
200907191645 METAR LIRA 191645Z 19009KT 160V230 CAVOK 26/11 Q1018=
200907191615 METAR LIRA 191615Z 20009KT 160V260 9999 FEW025 25/11 Q1018=
200907191545 METAR LIRA 191545Z 20008KT 150V270 9999 FEW025 25/11 Q1018=
200907191515 METAR LIRA 191515Z 22008KT 170V280 9999 FEW025 26/11 Q1018=
200907191445 METAR LIRA 191445Z 21008KT 150V260 9999 FEW025 27/12 Q1017=
200907191415 METAR LIRA 191415Z 20010KT 130V250 9999 FEW025 27/12 Q1017=
200907191345 METAR LIRA 191345Z 20010KT 140V260 9999 FEW025 28/13 Q1017=
200907191315 METAR LIRA 191315Z 19011KT 140V250 9999 FEW025 27/13 Q1017=
200907191245 METAR LIRA 191245Z 19008KT 150V260 9999 FEW025 28/14 Q1017=
200907191215 METAR LIRA 191215Z 18010KT 120V240 9999 FEW025 28/14 Q1018=
200907191145 METAR LIRA 191145Z 19006KT 150V240 9999 FEW025 27/16 Q1018=
200907191115 METAR LIRA 191115Z 19010KT 110V210 9999 FEW020 27/15 Q1017=
200907191045 METAR LIRA 191045Z 16008KT 110V240 9999 FEW020 27/14 Q1017=
200907191015 METAR LIRA 191015Z 18009KT 110V220 9999 FEW020 27/10 Q1017=
200907190945 METAR LIRA 190945Z 13008KT 110V210 9999 FEW020 27/12 Q1017=
200907190915 METAR LIRA 190915Z 15012KT 120V220 CAVOK 26/11 Q1017=
200907190845 METAR LIRA 190845Z 19009KT 140V240 CAVOK 26/11 Q1017=
200907190815 METAR LIRA 190815Z 20008KT 150V260 CAVOK 26/10 Q1017=
200907190745 METAR LIRA 190745Z 25004KT CAVOK 24/12 Q1017=
200907190715 METAR LIRA 190715Z 05001KT CAVOK 23/11 Q1016=
200907190645 METAR LIRA 190645Z 36001KT CAVOK 21/12 Q1016=
200907190615 METAR LIRA 190615Z 05003KT CAVOK 20/13 Q1016=
200907190545 METAR LIRA 190545Z 02003KT CAVOK 19/15 Q1015=
200907190515 METAR LIRA 190515Z 02003KT CAVOK 17/14 Q1015=
200907190445 METAR LIRA 190445Z 03003KT CAVOK 17/13 Q1015=
200907190415 METAR LIRA 190415Z 02003KT CAVOK 16/13 Q1015=
200907190345 METAR LIRA 190345Z 11002KT CAVOK 16/12 Q1015=
200907190315 METAR LIRA 190315Z 05004KT CAVOK 16/13 Q1015=
200907190245 METAR LIRA 190245Z 00000KT CAVOK 17/14 Q1015=
200907190215 METAR LIRA 190215Z 09001KT CAVOK 17/15 Q1015=
200907190145 METAR LIRA 190145Z 00000KT CAVOK 18/16 Q1015=
200907190115 METAR LIRA 190115Z 00000KT CAVOK 18/15 Q1015=
200907190045 METAR LIRA 190045Z 28002KT CAVOK 18/16 Q1015=
200907190015 METAR LIRA 190015Z 26003KT CAVOK 19/17 Q1015=
200907182350 METAR LIRA 190045Z 28002KT CAVOK 18/16 Q1015=
200907182345 METAR LIRA 182345Z 00000KT CAVOK 19/16 Q1015=
200907182315 METAR LIRA 182315Z 00000KT CAVOK 19/16 Q1015=
200907182245 METAR LIRA 182245Z 19002KT CAVOK 20/16 Q1015=
200907182215 METAR LIRA 182215Z 21002KT CAVOK 21/16 Q1015=
200907182145 METAR LIRA 182145Z 14002KT CAVOK 21/16 Q1015=
200907182115 METAR LIRA 182115Z 24002KT CAVOK 21/16 Q1015=
200907182045 METAR LIRA 182045Z 24002KT CAVOK 22/16 Q1015=
200907182015 METAR LIRA 182015Z 28007KT 240V340 CAVOK 22/17 Q1014=
200907181945 METAR LIRA 181945Z 28006KT 230V330 CAVOK 22/16 Q1014=
200907181915 METAR LIRA 181915Z 27009KT 190V340 CAVOK 23/15 Q1013=
200907181845 METAR LIRA 181845Z 27008KT 220V320 9999 FEW070 23/14 Q1012=
200907181815 METAR LIRA 181815Z 28010KT 230V330 9999 FEW070 24/13 Q1012=
200907181745 METAR LIRA 181745Z 26010KT 210V320 9999 FEW030 25/12 Q1012=
200907181715 METAR LIRA 181715Z 25010KT 190V310 9999 FEW020 25/13 Q1011=
200907181645 METAR LIRA 181645Z 27012G22KT 210V340 9999 FEW020 25/12 Q1011=
200907181615 METAR LIRA 181615Z 28012KT 230V320 9999 FEW020 26/11 Q1011=
200907181545 METAR LIRA 181545Z 23010KT 200V300 9999 FEW020 26/12 Q1011=
200907181515 METAR LIRA 181515Z 24007KT 200V320 9999 FEW020 26/12 Q1011=
200907181445 METAR LIRA 181445Z 27009KT 210V320 9999 FEW020 26/12 Q1011=
200907181415 METAR LIRA 181415Z 26010KT 210V310 9999 FEW020 26/12 Q1011=
200907181345 METAR LIRA 181345Z 27008G18KT 210V330 9999 FEW020 26/12 Q1011=
200907181315 METAR LIRA 181315Z 24006KT 200V330 9999 FEW020 26/11 Q1011=
200907181245 METAR LIRA 181245Z 23008KT 200V320 9999 FEW018 26/13 Q1011=
200907181215 METAR LIRA 181215Z 23011KT 200V320 9999 FEW018 26/12 Q1011=
200907181145 METAR LIRA 181145Z 28010KT 200V330 9999 FEW018 26/13 Q1011=
200907181115 METAR LIRA 181115Z 28014KT 200V320 9999 SCT018 25/13 Q1011=
200907181045 METAR LIRA 181045Z 26012KT 210V310 9999 SCT018 25/14 Q1011
                        RMK WS RWY 15=
200907181015 METAR LIRA 181015Z 26012G22KT 190V320 9999 SCT018 25/14 Q1011
                        WS RWY 15=
200907180945 METAR LIRA 180945Z 26012KT 220V320 9999 SCT018 25/13 Q1011=
200907180915 METAR LIRA 180915Z 23011KT 180V310 9999 FEW018 25/13 Q1010=
200907180845 METAR LIRA 180845Z 27012KT 180V300 9999 FEW018 24/13 Q1010=
200907180815 METAR LIRA 180815Z 25010KT 200V290 9999 FEW018 24/13 Q1010=
200907180745 METAR LIRA 180745Z 25009KT 200V310 9999 FEW018 24/15 Q1010=
200907180715 METAR LIRA 180715Z 23010KT 150V270 9999 FEW018 23/16 Q1010=
200907180645 METAR LIRA 180645Z 24009KT 200V310 9999 FEW018 SCT030 24/16
                        Q1010=
200907180615 METAR LIRA 180615Z 23009KT 180V290 9999 FEW018 SCT030 23/17
                        Q1009=
200907180545 METAR LIRA 180545Z 22011KT 180V270 9000 FEW018 SCT030 24/18
                        Q1009=
200907180515 METAR LIRA 180515Z 18010KT 130V220 8000 FEW018 FEW020CB BKN070
                        24/22 Q1009=
200907180445 METAR LIRA 180445Z 17008KT 120V210 8000 FEW018 FEW020CB SCT070
                        24/21 Q1009=
200907180415 METAR LIRA 180415Z 16011KT 120V210 8000 FEW018 SCT030 23/21
                        Q1009=
200907180345 METAR LIRA 180345Z 18009KT 150V220 8000 SCT018 23/20 Q1009=
200907180315 METAR LIRA 180315Z 18007KT 150V220 9999 SCT018 23/21 Q1009=
200907180245 METAR LIRA 180245Z 19008KT 160V230 9999 FEW018 23/21 Q1009=
200907180215 METAR LIRA 180215Z 17009KT 150V220 9999 FEW070 24/22 Q1010=
200907180145 METAR LIRA 180145Z 21006KT 170V240 9999 FEW070 24/22 Q1010=
200907180115 METAR LIRA 180115Z 15009KT 9999 FEW070 24/21 Q1010=
200907180045 METAR LIRA 180045Z 16005KT 9999 FEW070 24/21 Q1010=
200907180015 METAR LIRA 180015Z 15006KT CAVOK 24/21 Q1011=
200907172350 METAR LIRA 180045Z 16005KT 9999 FEW070 24/21 Q1010=
200907172345 METAR LIRA 172345Z 19004KT CAVOK 24/21 Q1011=
200907172315 METAR LIRA 172315Z 17004KT CAVOK 24/22 Q1011=
200907172245 METAR LIRA 172245Z 16004KT CAVOK 25/23 Q1011=
200907172215 METAR LIRA 172215Z 16004KT CAVOK 25/23 Q1011=
200907172145 METAR LIRA 172145Z 17004KT CAVOK 25/22 Q1011=
200907172115 METAR LIRA 172115Z 17006KT CAVOK 25/23 Q1011=
200907172045 METAR LIRA 172045Z 17005KT CAVOK 25/23 Q1011=
200907172015 METAR LIRA 172015Z 18005KT 140V230 CAVOK 25/23 Q1011=
200907171945 METAR LIRA 171945Z 22005KT 180V250 CAVOK 26/23 Q1011=
200907171915 METAR LIRA 171915Z 21004KT 180V250 CAVOK 27/23 Q1011=
200907171845 METAR LIRA 171845Z 21004KT 160V240 CAVOK 28/22 Q1011=
200907171815 METAR LIRA 171815Z 22004KT CAVOK 28/20 Q1011=
200907171745 METAR LIRA 171745Z 19009KT 150V240 CAVOK 29/19 Q1011=
200907171715 METAR LIRA 171715Z 21009KT 150V270 CAVOK 30/18 Q1011=
200907171645 METAR LIRA 171645Z 21008KT 160V250 CAVOK 30/18 Q1011=
200907171615 METAR LIRA 171615Z 21006KT 140V270 CAVOK 31/18 Q1012=
200907171545 METAR LIRA 171545Z 21011KT 140V250 CAVOK 31/18 Q1012=
200907171515 METAR LIRA 171515Z 21008KT 170V270 CAVOK 31/20 Q1013=
200907171445 METAR LIRA 171445Z 20010KT 150V250 CAVOK 31/21 Q1013=
200907171415 METAR LIRA 171415Z 22009KT 170V260 CAVOK 31/20 Q1013=
200907171345 METAR LIRA 171345Z 19010KT 130V270 CAVOK 31/21 Q1013=
200907171315 METAR LIRA 171315Z 22008KT 140V260 CAVOK 32/21 Q1013=
200907171245 METAR LIRA 171245Z 21008KT 150V290 CAVOK 32/21 Q1014=
200907171215 METAR LIRA 171215Z 23012KT 160V280 CAVOK 32/20 Q1014=
200907171145 METAR LIRA 171145Z 19014KT 160V260 CAVOK 33/20 Q1014=
200907171115 METAR LIRA 171115Z 19009KT 140V240 CAVOK 32/19 Q1014=
200907171045 METAR LIRA 171045Z 19009KT 160V260 CAVOK 33/20 Q1014=
200907171015 METAR LIRA 171015Z 22009KT 130V260 CAVOK 33/15 Q1014=
200907170945 METAR LIRA 170945Z 17009KT 120V220 CAVOK 34/17 Q1014=
200907170915 METAR LIRA 170915Z 18008KT 150V240 CAVOK 33/14 Q1014=
200907170845 METAR LIRA 170845Z 17010KT 120V230 CAVOK 32/13 Q1014=
200907170815 METAR LIRA 170815Z 22003KT CAVOK 31/18 Q1014=
200907170745 METAR LIRA 170745Z 30001KT CAVOK 30/16 Q1014=
200907170715 METAR LIRA 170715Z 00000KT CAVOK 29/16 Q1014=
200907170645 METAR LIRA 170645Z 35002KT CAVOK 28/19 Q1014=
200907170615 METAR LIRA 170615Z 08002KT CAVOK 27/21 Q1015=
200907170545 METAR LIRA 170545Z 00000KT CAVOK 24/20 Q1015=
200907170515 METAR LIRA 170515Z 00000KT CAVOK 23/19 Q1015=
200907170445 METAR LIRA 170445Z 09003KT CAVOK 23/19 Q1015=
200907170415 METAR LIRA 170415Z 10002KT 9999 SCT006 23/21 Q1015=
200907170345 METAR LIRA 170345Z 00000KT 9999 SCT010 SCT020 22/19 Q1015=
200907170315 METAR LIRA 170315Z 07001KT 9999 FEW010 SCT200 23/20 Q1015=
200907170245 METAR LIRA 170245Z 09001KT CAVOK 23/20 Q1015=
200907170215 METAR LIRA 170215Z 17003KT CAVOK 23/20 Q1015=
200907170145 METAR LIRA 170145Z 17003KT CAVOK 23/21 Q1015=
200907170115 METAR LIRA 170115Z 16003KT CAVOK 23/22 Q1015=
200907170045 METAR LIRA 170045Z 15004KT CAVOK 23/21 Q1015=
200907170015 METAR LIRA 170015Z 16005KT CAVOK 23/21 Q1016=
200907162350 METAR LIRA 170045Z 15004KT CAVOK 23/21 Q1015=
200907162345 METAR LIRA 162345Z 19002KT CAVOK 23/16 Q1016=
200907162315 METAR LIRA 162315Z 17003KT CAVOK 24/17 Q1016=
200907162245 METAR LIRA 162245Z 16002KT CAVOK 24/18 Q1016=
200907162215 METAR LIRA 162215Z 17002KT CAVOK 24/17 Q1016=
200907162145 METAR LIRA 162145Z 00000KT CAVOK 24/17 Q1016=
200907162115 METAR LIRA 162115Z 23002KT CAVOK 25/18 Q1016=
200907162045 METAR LIRA 162045Z 16004KT CAVOK 26/17 Q1016=
200907162015 METAR LIRA 162015Z 24002KT CAVOK 26/15 Q1016=
200907161945 METAR LIRA 161945Z 23004KT CAVOK 27/14 Q1016=
200907161915 METAR LIRA 161915Z 24003KT CAVOK 28/12 Q1016=
200907161845 METAR LIRA 161845Z 23003KT CAVOK 29/14 Q1017=
200907161815 METAR LIRA 161815Z 24003KT CAVOK 30/15 Q1016=
200907161745 METAR LIRA 161745Z 26006KT 190V310 CAVOK 32/15 Q1017=
200907161715 METAR LIRA 161715Z 23006KT 200V290 CAVOK 32/16 Q1017=
200907161645 METAR LIRA 161645Z 24006KT 210V280 CAVOK 33/17 Q1017=
200907161615 METAR LIRA 161615Z 23007KT 180V290 CAVOK 33/17 Q1017=
200907161545 METAR LIRA 161545Z 26007KT 210V320 CAVOK 34/17 Q1017=
200907161515 METAR LIRA 161515Z 26008KT 210V320 CAVOK 34/17 Q1017=
200907161445 METAR LIRA 161445Z 28008KT 210V320 CAVOK 35/17 Q1017=
200907161415 METAR LIRA 161415Z 25007KT 220V320 CAVOK 35/17 Q1017=
200907161345 METAR LIRA 161345Z 28006KT 210V340 CAVOK 36/18 Q1017=
200907161315 METAR LIRA 161315Z 28009KT 220V330 CAVOK 36/18 Q1017=
200907161245 METAR LIRA 161245Z 33005KT CAVOK 36/16 Q1017=
200907161215 METAR LIRA 161215Z 02002KT CAVOK 36/16 Q1018=
200907161145 METAR LIRA 161145Z 34002KT 310V010 CAVOK 36/17 Q1018=
200907161115 METAR LIRA 161115Z 35003KT CAVOK 35/16 Q1019=
200907161045 METAR LIRA 161045Z 31001KT CAVOK 34/17 Q1019=
200907161015 METAR LIRA 161015Z 25004KT CAVOK 33/16 Q1019=
200907160945 METAR LIRA 160945Z 24002KT CAVOK 33/16 Q1019=
200907160915 METAR LIRA 160915Z 30003KT CAVOK 32/16 Q1019=
200907160845 METAR LIRA 160845Z 30002KT CAVOK 31/17 Q1019=
200907160815 METAR LIRA 160815Z 33003KT CAVOK 30/17 Q1019=
200907160745 METAR LIRA 160745Z 36001KT CAVOK 29/18 Q1019=
200907160715 METAR LIRA 160715Z 01003KT 9999 FEW016 28/18 Q1019=
200907160645 METAR LIRA 160645Z 03004KT 9999 FEW016 26/18 Q1019=
200907160615 METAR LIRA 160615Z 33002KT CAVOK 25/18 Q1019=
200907160545 METAR LIRA 160545Z 34002KT CAVOK 24/18 Q1018=
200907160515 METAR LIRA 160515Z 01001KT CAVOK 23/18 Q1018=
200907160445 METAR LIRA 160445Z 00000KT CAVOK 22/17 Q1018=
200907160415 METAR LIRA 160415Z 05002KT CAVOK 21/17 Q1018=
200907160345 METAR LIRA 160345Z 02001KT CAVOK 21/17 Q1018=
200907160315 METAR LIRA 160315Z 00000KT CAVOK 22/16 Q1018=
200907160245 METAR LIRA 160245Z 00000KT CAVOK 22/17 Q1019=
200907160215 METAR LIRA 160215Z 00000KT CAVOK 22/16 Q1019=
200907160145 METAR LIRA 160145Z 09002KT CAVOK 23/17 Q1019=
200907160115 METAR LIRA 160115Z 08002KT CAVOK 23/18 Q1019=
200907160045 METAR LIRA 160045Z 09002KT CAVOK 23/18 Q1019=
200907160015 METAR LIRA 160015Z 13001KT CAVOK 23/20 Q1019=
200907152350 METAR LIRA 160045Z 09002KT CAVOK 23/18 Q1019=
200907152345 METAR LIRA 152345Z 16003KT CAVOK 24/20 Q1019=
200907152315 METAR LIRA 152315Z 16002KT CAVOK 24/20 Q1019=
200907152245 METAR LIRA 152245Z 22002KT CAVOK 24/19 Q1019=
200907152215 METAR LIRA 152215Z 21002KT CAVOK 25/18 Q1019=
200907152145 METAR LIRA 152145Z 00000KT CAVOK 25/17 Q1019=
200907152115 METAR LIRA 152115Z 18002KT CAVOK 25/16 Q1019=
200907152045 METAR LIRA 152045Z 00000KT CAVOK 26/14 Q1019=
200907152015 METAR LIRA 152015Z 21002KT CAVOK 26/12 Q1019=
200907151945 METAR LIRA 151945Z 24002KT CAVOK 27/12 Q1019=
200907151915 METAR LIRA 151915Z 24002KT CAVOK 28/12 Q1019=
200907151845 METAR LIRA 151845Z 26003KT CAVOK 29/12 Q1019=
200907151815 METAR LIRA 151815Z 23003KT CAVOK 30/12 Q1019=
200907151745 METAR LIRA 151745Z 23002KT CAVOK 30/11 Q1019=
200907151715 METAR LIRA 151715Z 21005KT 160V260 CAVOK 31/12 Q1019=
200907151645 METAR LIRA 151645Z 23006KT 160V290 CAVOK 31/12 Q1019=
200907151615 METAR LIRA 151615Z 22007KT 140V270 CAVOK 31/12 Q1019=
200907151545 METAR LIRA 151545Z 23007KT 170V270 CAVOK 31/14 Q1019=
200907151515 METAR LIRA 151515Z 22009KT 150V270 CAVOK 31/13 Q1019=
200907151445 METAR LIRA 151445Z 22009KT 180V290 CAVOK 32/12 Q1019=
200907151415 METAR LIRA 151415Z 23012KT 170V260 CAVOK 32/11 Q1019=
200907151345 METAR LIRA 151345Z 18008KT 130V260 CAVOK 33/13 Q1019=
200907151315 METAR LIRA 151315Z 22007KT 150V300 CAVOK 33/13 Q1019=
200907151245 METAR LIRA 151245Z 20006KT 150V250 CAVOK 33/12 Q1019=
200907151215 METAR LIRA 151215Z 13006KT 130V250 CAVOK 33/15 Q1019=
200907151145 METAR LIRA 151145Z 19008KT 110V270 CAVOK 33/13 Q1019=
200907151115 METAR LIRA 151115Z 19008KT 150V310 CAVOK 33/15 Q1019=
200907151045 METAR LIRA 151045Z 23006KT 130V250 CAVOK 33/13 Q1019=
200907151015 METAR LIRA 151015Z 15005KT 100V220 CAVOK 33/13 Q1019=
200907150945 METAR LIRA 150945Z 19006KT 150V270 CAVOK 32/14 Q1019=
200907150915 METAR LIRA 150915Z 20006KT 150V240 CAVOK 32/14 Q1019=
200907150845 METAR LIRA 150845Z 18001KT CAVOK 32/15 Q1020=
200907150815 METAR LIRA 150815Z 07002KT CAVOK 31/13 Q1020=
200907150745 METAR LIRA 150745Z 11002KT CAVOK 29/13 Q1020=
200907150715 METAR LIRA 150715Z 03001KT CAVOK 28/17 Q1020=
200907150645 METAR LIRA 150645Z 05004KT CAVOK 27/19 Q1019=
200907150615 METAR LIRA 150615Z 03004KT CAVOK 25/18 Q1019=
200907150545 METAR LIRA 150545Z 05002KT CAVOK 24/18 Q1019=
200907150515 METAR LIRA 150515Z 05003KT CAVOK 23/19 Q1019=
200907150445 METAR LIRA 150445Z 07004KT CAVOK 21/18 Q1019=
200907150415 METAR LIRA 150415Z 06003KT CAVOK 21/17 Q1019=
200907150345 METAR LIRA 150345Z 16003KT CAVOK 22/17 Q1018=
200907150315 METAR LIRA 150315Z 20002KT CAVOK 22/17 Q1018=
200907150245 METAR LIRA 150245Z 21002KT CAVOK 22/17 Q1018=
200907150215 METAR LIRA 150215Z 23004KT CAVOK 22/18 Q1018=
200907150145 METAR LIRA 150145Z 21002KT CAVOK 23/18 Q1018=
200907150115 METAR LIRA 150115Z 13002KT CAVOK 23/18 Q1018=
200907150045 METAR LIRA 150045Z 17002KT CAVOK 23/17 Q1018=
200907150015 METAR LIRA 150015Z 12002KT CAVOK 23/16 Q1018=
200907142350 METAR LIRA 150045Z 17002KT CAVOK 23/17 Q1018=
200907142345 METAR LIRA 142345Z 09003KT CAVOK 23/16 Q1018=
200907142315 METAR LIRA 142315Z 08003KT CAVOK 23/17 Q1018=
200907142245 METAR LIRA 142245Z 04003KT CAVOK 23/17 Q1018=
200907142215 METAR LIRA 142215Z 04003KT CAVOK 23/17 Q1018=
200907142145 METAR LIRA 142145Z 04004KT CAVOK 23/17 Q1018=
200907142115 METAR LIRA 142115Z 06003KT CAVOK 23/17 Q1018=
200907142045 METAR LIRA 142045Z 00000KT CAVOK 24/17 Q1018=
200907142015 METAR LIRA 142015Z 00000KT CAVOK 25/18 Q1018=
200907141945 METAR LIRA 141945Z 20002KT CAVOK 25/17 Q1018=
200907141915 METAR LIRA 141915Z 22005KT CAVOK 25/17 Q1017=
200907141845 METAR LIRA 141845Z 23004KT CAVOK 26/17 Q1017=
200907141815 METAR LIRA 141815Z 23006KT CAVOK 27/16 Q1017=
200907141745 METAR LIRA 141745Z 23008KT 200V270 CAVOK 28/15 Q1017=
200907141715 METAR LIRA 141715Z 23007KT 190V260 CAVOK 29/16 Q1017=
200907141645 METAR LIRA 141645Z 23009KT 160V260 CAVOK 30/16 Q1017=
200907141615 METAR LIRA 141615Z 22009KT 170V270 CAVOK 30/15 Q1017=
200907141545 METAR LIRA 141545Z 22008KT 180V280 CAVOK 31/16 Q1017=
200907141515 METAR LIRA 141515Z 22009KT 160V270 CAVOK 31/16 Q1017=
200907141445 METAR LIRA 141445Z 19007KT 150V240 CAVOK 31/15 Q1017=
200907141415 METAR LIRA 141415Z 22007KT 150V260 CAVOK 32/15 Q1017=
200907141345 METAR LIRA 141345Z 22008KT 160V260 CAVOK 32/15 Q1017=
200907141315 METAR LIRA 141315Z 19010KT 120V260 CAVOK 32/14 Q1017=
200907141245 METAR LIRA 141245Z 25007KT 180V290 CAVOK 33/14 Q1017=
200907141215 METAR LIRA 141215Z 22005KT 140V260 CAVOK 32/14 Q1017=
200907141145 METAR LIRA 141145Z 21006KT 150V260 CAVOK 33/14 Q1017=
200907141115 METAR LIRA 141115Z 23011KT 150V270 CAVOK 33/13 Q1017=
200907141045 METAR LIRA 141045Z 22002KT CAVOK 32/16 Q1017=
200907141015 METAR LIRA 141015Z 03002KT CAVOK 32/16 Q1017=
200907140945 METAR LIRA 140945Z 18004KT CAVOK 31/16 Q1017=
200907140915 METAR LIRA 140915Z 29003KT CAVOK 30/15 Q1017=
200907140845 METAR LIRA 140845Z 16002KT CAVOK 30/15 Q1017=
200907140815 METAR LIRA 140815Z 12003KT CAVOK 29/16 Q1017=
200907140745 METAR LIRA 140745Z 16001KT CAVOK 27/15 Q1017=
200907140715 METAR LIRA 140715Z 33002KT CAVOK 26/16 Q1017=
200907140645 METAR LIRA 140645Z 01002KT CAVOK 24/17 Q1017=
200907140615 METAR LIRA 140615Z 36003KT CAVOK 23/17 Q1017=
200907140545 METAR LIRA 140545Z 01002KT CAVOK 23/17 Q1017=
200907140515 METAR LIRA 140515Z 32001KT CAVOK 22/17 Q1017=
200907140445 METAR LIRA 140445Z 08002KT CAVOK 21/16 Q1017=
200907140415 METAR LIRA 140415Z 00000KT CAVOK 20/16 Q1017=
200907140345 METAR LIRA 140345Z 04002KT CAVOK 20/16 Q1017=
200907140315 METAR LIRA 140315Z 02003KT CAVOK 20/16 Q1017=
200907140245 METAR LIRA 140245Z 03003KT CAVOK 20/15 Q1017=
200907140215 METAR LIRA 140215Z 04003KT CAVOK 21/16 Q1017=
200907140145 METAR LIRA 140145Z 33003KT CAVOK 21/16 Q1017=
200907140115 METAR LIRA 140115Z 09003KT CAVOK 21/16 Q1017=
200907140045 METAR LIRA 140045Z 05003KT CAVOK 21/16 Q1017=
200907140015 METAR LIRA 140015Z 08003KT CAVOK 21/16 Q1017=
200907132350 METAR LIRA 140045Z 05003KT CAVOK 21/16 Q1017=
200907132345 METAR LIRA 132345Z 09003KT CAVOK 21/16 Q1018=
200907132315 METAR LIRA 132315Z 13003KT CAVOK 21/16 Q1018=
200907132245 METAR LIRA 132245Z 00000KT CAVOK 22/18 Q1018=
200907132215 METAR LIRA 132215Z 10003KT CAVOK 22/18 Q1018=
200907132145 METAR LIRA 132145Z 14002KT CAVOK 23/18 Q1018=
200907132115 METAR LIRA 132115Z 19003KT CAVOK 23/19 Q1018=
200907132045 METAR LIRA 132045Z 19002KT CAVOK 23/18 Q1018=
200907132015 METAR LIRA 132015Z 21003KT CAVOK 23/18 Q1017=
200907131945 METAR LIRA 131945Z 21003KT CAVOK 24/17 Q1017=
200907131915 METAR LIRA 131915Z 22003KT CAVOK 24/15 Q1017=
200907131845 METAR LIRA 131845Z 22004KT 180V250 CAVOK 26/15 Q1017=
200907131815 METAR LIRA 131815Z 23004KT CAVOK 27/14 Q1017=
200907131745 METAR LIRA 131745Z 21005KT 160V250 CAVOK 28/14 Q1017=
200907131715 METAR LIRA 131715Z 22006KT 200V270 CAVOK 28/13 Q1017=
200907131645 METAR LIRA 131645Z 22008KT 190V260 CAVOK 29/13 Q1017=
200907131615 METAR LIRA 131615Z 23006KT 190V280 CAVOK 29/14 Q1017=
200907131545 METAR LIRA 131545Z 23006KT 160V300 CAVOK 30/15 Q1017=
200907131515 METAR LIRA 131515Z 21006KT 180V270 CAVOK 30/14 Q1017=
200907131445 METAR LIRA 131445Z 22010KT 150V270 CAVOK 30/13 Q1017=
200907131415 METAR LIRA 131415Z 25007KT 210V320 CAVOK 30/13 Q1017=
200907131345 METAR LIRA 131345Z 23008KT 180V280 CAVOK 31/13 Q1017=
200907131315 METAR LIRA 131315Z 27003KT 210V330 CAVOK 32/13 Q1017=
200907131245 METAR LIRA 131245Z 25004KT 210V360 CAVOK 32/12 Q1017=
200907131215 METAR LIRA 131215Z 30005KT 210V330 CAVOK 31/13 Q1017=
200907131145 METAR LIRA 131145Z 24008KT 180V310 9999 FEW025 31/13 Q1017=
200907131115 METAR LIRA 131115Z 29004KT 260V360 9999 FEW025 30/12 Q1017=
200907131045 METAR LIRA 131045Z 28005KT 210V330 9999 FEW025 30/12 Q1017=
200907131015 METAR LIRA 131015Z 31005KT 210V330 9999 FEW025 29/12 Q1017=
200907130945 METAR LIRA 130945Z 28005KT 230V350 CAVOK 29/14 Q1017=
200907130915 METAR LIRA 130915Z 28006KT 240V330 CAVOK 29/15 Q1017=
200907130845 METAR LIRA 130845Z 25002KT CAVOK 28/13 Q1018=
200907130815 METAR LIRA 130815Z 27004KT CAVOK 28/14 Q1018=
200907130745 METAR LIRA 130745Z 21002KT CAVOK 26/16 Q1018=
200907130715 METAR LIRA 130715Z 19002KT CAVOK 25/17 Q1018=
200907130645 METAR LIRA 130645Z 12001KT CAVOK 25/19 Q1017=
200907130615 METAR LIRA 130615Z 33001KT CAVOK 23/17 Q1017=
200907130545 METAR LIRA 130545Z 03001KT CAVOK 22/16 Q1017=
200907130515 METAR LIRA 130515Z 00000KT CAVOK 20/17 Q1017=
200907130445 METAR LIRA 130445Z 11001KT CAVOK 20/17 Q1017=
200907130415 METAR LIRA 130415Z 12002KT CAVOK 19/17 Q1017=
200907130345 METAR LIRA 130345Z 11002KT CAVOK 19/18 Q1017=
200907130315 METAR LIRA 130315Z 14004KT CAVOK 20/18 Q1017=
200907130245 METAR LIRA 130245Z 13003KT CAVOK 20/17 Q1017=
200907130215 METAR LIRA 130215Z 16003KT CAVOK 20/17 Q1017=
200907130145 METAR LIRA 130145Z 15003KT 9999 FEW070 20/17 Q1017=
200907130115 METAR LIRA 130115Z 15002KT 9999 FEW070 20/17 Q1017=
200907130045 METAR LIRA 130045Z 13002KT 9999 FEW060 20/17 Q1017=
200907122350 METAR LIRA 130045Z 13002KT 9999 FEW060 20/17 Q1017=
200907122315 METAR LIRA 122315Z 16002KT 9999 FEW060 22/15 Q1017=
200907122245 METAR LIRA 122245Z 17003KT 9999 FEW025 22/15 Q1017=
200907122215 METAR LIRA 122215Z 15003KT 9999 FEW025 22/17 Q1017=
200907122145 METAR LIRA 122145Z 15004KT 9999 FEW025 22/18 Q1017=
200907122115 METAR LIRA 122115Z 19002KT 9999 FEW025 23/18 Q1017=
200907122045 METAR LIRA 122045Z 18002KT 9999 FEW025 24/18 Q1017=
200907122015 METAR LIRA 122015Z 19003KT 9999 FEW025 24/18 Q1017=
200907121945 METAR LIRA 121945Z 21003KT 9999 FEW025 24/18 Q1016=
200907121915 METAR LIRA 121915Z 22002KT 9999 FEW020 24/18 Q1016=
200907121845 METAR LIRA 121845Z 22003KT 9999 FEW020 25/16 Q1016=
200907121815 METAR LIRA 121815Z 23004KT 9999 FEW016 26/17 Q1016=
200907121745 METAR LIRA 121745Z 26006KT 200V310 9999 FEW016 27/14 Q1016=
200907121715 METAR LIRA 121715Z 25005KT 180V330 9999 FEW016 SCT200 27/14
                        Q1016=
200907121645 METAR LIRA 121645Z 25006KT 190V320 9999 FEW016 SCT200 28/16
                        Q1016=
200907121615 METAR LIRA 121615Z 28007KT 200V340 9999 FEW016 SCT200 28/16
                        Q1017=
200907121545 METAR LIRA 121545Z 26006KT 190V320 9999 FEW016 SCT200 28/15
                        Q1016=
200907121515 METAR LIRA 121515Z 25007KT 180V310 9999 FEW016 SCT200 28/16
                        Q1016=
200907121445 METAR LIRA 121445Z 20006KT 9999 FEW016 29/16 Q1016=
200907121415 METAR LIRA 121415Z 21005KT 130V290 9999 SCT016 28/16 Q1016=
200907121345 METAR LIRA 121345Z 23008KT 150V330 9999 SCT016 28/17 Q1016=
200907121315 METAR LIRA 121315Z 24008KT 160V290 9999 SCT016 28/17 Q1016=
200907121245 METAR LIRA 121245Z 24010KT 160V300 9999 SCT016 28/18 Q1016=
200907121215 METAR LIRA 121215Z 22008KT 180V300 9999 SCT016 28/18 Q1016=
200907121145 METAR LIRA 121145Z 23006KT 180V280 9999 SCT016 28/17 Q1016=
200907121115 METAR LIRA 121115Z 19005KT 130V300 9999 SCT016 28/17 Q1016=
200907121045 METAR LIRA 121045Z 22006KT 130V280 9999 SCT016 29/20 Q1016=
200907121015 METAR LIRA 121015Z 24003KT 9999 SCT016 28/15 Q1016=
200907121000 METAR LIRA INT CB NE/SE=
200907120945 METAR LIRA 120945Z 27004KT 9999 FEW016 29/16 Q1016=
200907120915 METAR LIRA 120915Z 29004KT 9999 FEW016 SCT200 28/16 Q1017=
200907120845 METAR LIRA 120845Z 22001KT 9999 FEW016 SCT200 27/16 Q1017=
200907120815 METAR LIRA 120815Z 07002KT 9999 FEW016 SCT200 26/17 Q1016=
200907120745 METAR LIRA 120745Z 25001KT 9999 FEW016 SCT200 25/16 Q1016=
200907120715 METAR LIRA 120715Z 02002KT 9999 FEW016 SCT200 24/16 Q1016=
200907120645 METAR LIRA 120645Z 35002KT CAVOK 22/16 Q1016=
200907120615 METAR LIRA 120615Z 33002KT CAVOK 21/17 Q1016=
200907120545 METAR LIRA 120545Z 03002KT CAVOK 20/17 Q1015=
200907120515 METAR LIRA 120515Z 00000KT 9999 FEW080 SCT200 19/16 Q1015=
200907120445 METAR LIRA 120445Z 30002KT 9999 FEW080 SCT200 19/16 Q1015=
200907120415 METAR LIRA 120415Z 25001KT 9999 FEW080 SCT200 19/16 Q1015=
200907120345 METAR LIRA 120345Z 05002KT CAVOK 18/15 Q1015=
200907120315 METAR LIRA 120315Z 01001KT CAVOK 19/15 Q1015=
200907120245 METAR LIRA 120245Z 00000KT 9999 FEW070 19/15 Q1015=
200907120215 METAR LIRA 120215Z 00000KT 9999 FEW070 19/15 Q1015=
200907120145 METAR LIRA 120145Z 01002KT 9999 FEW070 20/14 Q1015=
200907120115 METAR LIRA 120115Z 10002KT 9999 SCT070 20/15 Q1015=
200907120045 METAR LIRA 120045Z 08002KT 9999 SCT070 20/16 Q1015=
200907120015 METAR LIRA 120015Z 13004KT CAVOK 20/16 Q1015=
200907112350 METAR LIRA 120045Z 08002KT 9999 SCT070 20/16 Q1015=
200907112345 METAR LIRA 112345Z 13002KT CAVOK 20/16 Q1015=
200907112315 METAR LIRA 112315Z 17001KT CAVOK 20/16 Q1015=
200907112245 METAR LIRA 112245Z 00000KT CAVOK 21/17 Q1015=
200907112215 METAR LIRA 112215Z 13002KT CAVOK 22/17 Q1015=
200907112145 METAR LIRA 112145Z 15003KT CAVOK 22/17 Q1015=
200907112115 METAR LIRA 112115Z 14002KT CAVOK 22/17 Q1015=
200907112045 METAR LIRA 112045Z 22003KT CAVOK 22/17 Q1014=
200907112015 METAR LIRA 112015Z 21003KT CAVOK 23/17 Q1014=
200907111945 METAR LIRA 111945Z 23002KT CAVOK 23/17 Q1014=
200907111915 METAR LIRA 111915Z 22002KT 9999 FEW020 24/16 Q1014=
200907111845 METAR LIRA 111845Z 22004KT 9999 FEW018 24/14 Q1014=
200907111815 METAR LIRA 111815Z 23004KT 9999 FEW018 SCT080 25/13 Q1013=
200907111745 METAR LIRA 111745Z 24005KT 220V320 9999 FEW018CB SCT080 25/13
                        Q1013=
200907111715 METAR LIRA 111715Z 25004KT 210V280 9999 FEW018 26/13 Q1014=
200907111645 METAR LIRA 111645Z 27008KT 230V350 9999 FEW018 26/13 Q1013=
200907111615 METAR LIRA 111615Z 24008KT 190V330 9999 FEW018 27/13 Q1013=
200907111545 METAR LIRA 111545Z 26007KT 210V320 9999 FEW018 SCT100 28/14
                        Q1013=
200907111515 METAR LIRA 111515Z 22007KT 190V330 9999 FEW018 SCT200 28/13
                        Q1013=
200907111445 METAR LIRA 111445Z 24010KT 210V310 9999 FEW018 SCT200 28/14
                        Q1013=
200907111415 METAR LIRA 111415Z 26009KT 210V310 9999 FEW018 SCT200 28/14
                        Q1013=
200907111345 METAR LIRA 111345Z 28009KT 190V350 9999 FEW018 SCT200 28/14
                        Q1013=
200907111315 METAR LIRA 111315Z 26010KT 180V320 9999 FEW018 SCT200 28/13
                        Q1013=
200907111245 METAR LIRA 111245Z 26007KT 210V330 9999 SCT018 SCT200 29/14
                        Q1013=
200907111215 METAR LIRA 111215Z 25010KT 200V330 9999 FEW018 SCT200 28/14
                        Q1013=
200907111145 METAR LIRA 111145Z 27007KT 9999 FEW018 29/11 Q1013=
200907111115 METAR LIRA 111115Z 27006KT 220V010 9999 FEW018 29/10 Q1013=
200907111045 METAR LIRA 111045Z 28007KT 240V030 9999 FEW020 SCT200 28/11
                        Q1013=
200907111015 METAR LIRA 111015Z 36004KT 9999 FEW020 27/11 Q1013=
200907110945 METAR LIRA 110945Z 30004KT 240V020 9999 FEW020 SCT200 26/12
                        Q1013=
200907110915 METAR LIRA 110915Z 33004KT 9999 FEW020 SCT200 25/13 Q1013=
200907110845 METAR LIRA 110845Z 35004KT 9999 FEW020 SCT200 25/15 Q1014=
200907110815 METAR LIRA 110815Z 30002KT 9999 FEW020 SCT200 25/16 Q1014=
200907110745 METAR LIRA 110745Z 02003KT 340V070 9999 FEW020 24/15 Q1014=
200907110715 METAR LIRA 110715Z 04003KT 9999 FEW080 23/16 Q1014=
200907110645 METAR LIRA 110645Z 20002KT 340V090 9999 FEW080 21/16 Q1013=
200907110615 METAR LIRA 110615Z 01006KT 330V060 9999 FEW080 20/16 Q1013=
200907110545 METAR LIRA 110545Z 01003KT 9999 FEW080 20/16 Q1013=
200907110515 METAR LIRA 110515Z 02002KT 9999 FEW020 19/16 Q1013=
200907110445 METAR LIRA 110445Z 05003KT CAVOK 18/16 Q1012=
200907110415 METAR LIRA 110415Z 36002KT CAVOK 17/15 Q1012=
200907110345 METAR LIRA 110345Z 34002KT CAVOK 17/15 Q1012=
200907110315 METAR LIRA 110315Z 03001KT CAVOK 17/14 Q1012=
200907110245 METAR LIRA 110245Z 05002KT 9999 FEW070 17/13 Q1012=
200907110215 METAR LIRA 110215Z 06002KT 9999 FEW070 17/13 Q1012=
200907110145 METAR LIRA 110145Z 10002KT CAVOK 17/13 Q1012=
200907110115 METAR LIRA 110115Z 09001KT CAVOK 17/12 Q1012=
200907110045 METAR LIRA 110045Z 12004KT CAVOK 17/12 Q1012=
200907110015 METAR LIRA 110015Z 06003KT CAVOK 18/12 Q1012=
200907102350 METAR LIRA 110045Z 12004KT CAVOK 17/12 Q1012=
200907102345 METAR LIRA 102345Z 10002KT CAVOK 19/14 Q1012=
200907102315 METAR LIRA 102315Z 13002KT CAVOK 19/13 Q1012=
200907102245 METAR LIRA 102245Z 11005KT CAVOK 19/16 Q1012=
200907102215 METAR LIRA 102215Z 08004KT 9999 FEW018 19/16 Q1012=
200907102145 METAR LIRA 102145Z 12004KT 9999 FEW018 20/17 Q1012=
200907102115 METAR LIRA 102115Z 13005KT 9999 FEW018 20/18 Q1012=
200907102045 METAR LIRA 102045Z 15004KT 9999 FEW018 21/18 Q1011=
200907102015 METAR LIRA 102015Z 17004KT 9999 FEW018 FEW022CB 22/18 Q1011=
200907101945 METAR LIRA 101945Z 18005KT 9999 FEW018 22/18 Q1011=
200907101915 METAR LIRA 101915Z 19004KT 9999 FEW018 22/18 Q1011=
200907101845 METAR LIRA 101845Z 21004KT 150V240 9999 FEW018 23/17 Q1011=
200907101815 METAR LIRA 101815Z 21007KT 150V250 9999 FEW018 23/17 Q1011=
200907101745 METAR LIRA 101745Z 19009KT 160V230 9999 FEW018 24/15 Q1011=
200907101715 METAR LIRA 101715Z 19009KT 140V280 9999 FEW018 24/15 Q1011=
200907101645 METAR LIRA 101645Z 23006KT 150V260 9999 FEW018 25/15 Q1012=
200907101615 METAR LIRA 101615Z 23010KT 150V280 9999 FEW018TCU 26/15 Q1012=
200907101545 METAR LIRA 101545Z 22008KT 170V260 9999 FEW020TCU 26/14 Q1012=
200907101515 METAR LIRA 101515Z 21009KT 150V270 9999 SCT018 FEW020TCU
                        26/15 Q1012=
200907101445 METAR LIRA 101445Z 22010KT 180V280 9999 SCT018 FEW020TCU
                        27/17 Q1012=
200907101415 METAR LIRA 101415Z 23006KT 160V290 9999 SCT018 FEW020TCU
                        27/17 Q1012=
200907101345 METAR LIRA 101345Z 23005KT 190V300 9999 SCT018 FEW020TCU
                        28/17 Q1012=
200907101315 METAR LIRA 101315Z 17008KT 110V270 9999 SCT018 FEW020TCU
                        27/18 Q1012=
200907101245 METAR LIRA 101245Z 23008KT 130V270 9999 SCT018 FEW020TCU
                        27/17 Q1012=
200907101215 METAR LIRA 101215Z 23005KT 150V260 9999 SCT018 27/17 Q1012=
200907101145 METAR LIRA 101145Z 26006KT 220V310 9999 SCT018 27/15 Q1012=
200907101115 METAR LIRA 101115Z 22004KT 160V240 9999 SCT018 27/15 Q1012=
200907101045 METAR LIRA 101045Z 33003KT 9999 SCT018 27/15 Q1012=
200907101015 METAR LIRA 101015Z 04004KT 9999 SCT018 27/15 Q1013=
200907100945 METAR LIRA 100945Z 08003KT 9999 SCT018 26/15 Q1013=
200907100915 METAR LIRA 100915Z 35003KT 9999 SCT018 26/15 Q1013=
200907100845 METAR LIRA 100845Z 07004KT 350V100 9999 SCT018 26/16 Q1013=
200907100815 METAR LIRA 100815Z 13003KT 9999 SCT018 25/17 Q1013=
200907100745 METAR LIRA 100745Z 13002KT 9999 SCT018 24/17 Q1013=
200907100715 METAR LIRA 100715Z 06004KT 9999 SCT018 24/16 Q1013=
200907100645 METAR LIRA 100645Z 34004KT 9999 FEW018 23/16 Q1013=
200907100615 METAR LIRA 100615Z 08002KT 9999 FEW018 22/16 Q1013=
200907100545 METAR LIRA 100545Z 07004KT 9999 FEW018 22/18 Q1013=
200907100515 METAR LIRA 100515Z 18001KT 9999 FEW018 20/17 Q1013=
200907100445 METAR LIRA 100445Z 00000KT 9999 FEW018 18/16 Q1013=
200907100415 METAR LIRA 100415Z 09003KT 9999 FEW018 18/16 Q1012=
200907100345 METAR LIRA 100345Z 11005KT 9999 FEW012 18/16 Q1012=
200907100315 METAR LIRA 100315Z /////KT 9999 FEW020 19/17 Q1012=
200907100245 METAR LIRA 100245Z /////KT 9999 FEW020 19/18 Q1012=
200907100215 METAR LIRA 100215Z 13005KT 9999 FEW020 19/18 Q1012=
200907100145 METAR LIRA 100145Z 14005KT CAVOK 19/17 Q1012=
200907100115 METAR LIRA 100115Z 13005KT CAVOK 19/16 Q1012=
200907100045 METAR LIRA 100045Z 11005KT 9999 FEW020 19/17 Q1012=
200907100015 METAR LIRA 100015Z 10002KT 9999 FEW020 20/18 Q1012=
200907092350 METAR LIRA 100045Z 11005KT 9999 FEW020 19/17 Q1012=
200907092345 METAR LIRA 092345Z 13005KT 9999 SCT020 21/19 Q1013=
200907092315 METAR LIRA 092315Z 14007KT 9999 SCT020 21/19 Q1013=
200907092245 METAR LIRA 092245Z 14006KT 9999 FEW020 21/19 Q1013=
200907092215 METAR LIRA 092215Z 16003KT 9999 FEW020 21/19 Q1013=
200907092145 METAR LIRA 092145Z 17005KT 9999 SCT020 21/18 Q1013=
200907092115 METAR LIRA 092115Z 17005KT 9999 FEW020 21/18 Q1013=
200907092045 METAR LIRA 092045Z 18004KT 9999 FEW080 22/18 Q1013=
200907092015 METAR LIRA 092015Z 18005KT 9999 FEW080 23/18 Q1013=
200907091945 METAR LIRA 091945Z 18004KT 9999 FEW080 23/18 Q1012=
200907091915 METAR LIRA 091915Z 20004KT 9999 FEW020 24/18 Q1012=
200907091845 METAR LIRA 091845Z 21006KT 190V250 9999 FEW018 24/18 Q1012=
200907091815 METAR LIRA 091815Z 22005KT 180V260 9999 SCT018 24/18 Q1012=
200907091745 METAR LIRA 091745Z 22006KT 160V250 9999 SCT018 25/16 Q1012=
200907091715 METAR LIRA 091715Z 19007KT 150V270 9999 FEW020 25/16 Q1012=
200907091645 METAR LIRA 091645Z 24008KT 180V270 9999 FEW020 26/17 Q1012=
200907091615 METAR LIRA 091615Z 22006KT 150V270 9999 FEW020 27/11 Q1012=
200907091545 METAR LIRA 091545Z 19007KT 130V240 9999 FEW020 27/12 Q1012=
200907091515 METAR LIRA 091515Z 17010KT 130V250 9999 FEW020 27/14 Q1012=
200907091445 METAR LIRA 091445Z 20009KT 130V250 9999 FEW020 26/14 Q1012=
200907091415 METAR LIRA 091415Z 22005KT 130V270 9999 FEW020 27/14 Q1012=
200907091345 METAR LIRA 091345Z 18008KT 150V250 9999 FEW020 27/15 Q1012=
200907091315 METAR LIRA 091315Z 19009KT 140V260 9999 FEW020 27/14 Q1012=
200907091245 METAR LIRA 091245Z 17010KT 120V230 9999 FEW020 27/16 Q1013=
200907091215 METAR LIRA 091215Z 20008KT 160V280 9999 FEW020 27/15 Q1013=
200907091145 METAR LIRA 091145Z 33008KT 150V250 9999 FEW020 27/16 Q1013=
200907091115 METAR LIRA 091115Z 20008KT 120V240 9999 FEW020 27/15 Q1013=
200907091045 METAR LIRA 091045Z 21009KT 140V250 9999 FEW020 27/14 Q1013=
200907091015 METAR LIRA 091015Z 20011KT 140V240 9999 FEW020 26/15 Q1013=
200907090945 METAR LIRA 090945Z 19009KT 120V240 9999 FEW020 26/15 Q1013=
200907090915 METAR LIRA 090915Z 17010KT 120V230 9999 FEW020 26/15 Q1013=
200907090845 METAR LIRA 090845Z VRB08KT 080V310 9999 FEW020 25/16 Q1013=
200907090815 METAR LIRA 090815Z 18009KT 130V230 9999 SCT020 25/17 Q1013=
200907090745 METAR LIRA 090745Z 16008KT 140V230 9999 SCT020 24/17 Q1013=
200907090715 METAR LIRA 090715Z 18007KT 140V240 9999 SCT020 24/17 Q1013=
200907090645 METAR LIRA 090645Z 18008KT 130V230 9999 SCT020 23/17 Q1013=
200907090615 METAR LIRA 090615Z 19006KT 140V240 9999 SCT020 23/18 Q1013=
200907090545 METAR LIRA 090545Z 17003KT 9999 FEW030 22/17 Q1013=
200907090515 METAR LIRA 090515Z 16004KT 130V210 9999 FEW020 22/18 Q1013=
200907090445 METAR LIRA 090445Z 16006KT 100V190 9999 FEW020 21/18 Q1013=
200907090415 METAR LIRA 090415Z 15005KT 9999 FEW025 21/19 Q1013=
200907090345 METAR LIRA 090345Z 15005KT 9999 SCT030 20/18 Q1013=
200907090315 METAR LIRA 090315Z 14003KT 9999 FEW030 20/18 Q1013=
200907090245 METAR LIRA 090245Z 13002KT 9999 FEW080 20/18 Q1013=
200907090215 METAR LIRA 090215Z 16003KT 9999 FEW080 20/19 Q1013=
200907090145 METAR LIRA 090145Z 14005KT 9999 FEW010 21/19 Q1013=
200907090115 METAR LIRA 090115Z 17005KT 9999 FEW010 21/19 Q1013=
200907090045 METAR LIRA 090045Z 18005KT 9999 FEW007 22/19 Q1013=
200907090015 METAR LIRA 090015Z 18005KT 9999 FEW007 22/20 Q1013=
200907082345 METAR LIRA 082345Z 18005KT 9999 SCT007 22/20 Q1013=
200907082315 METAR LIRA 082315Z 18007KT 9999 FEW010 22/19 Q1013=
200907082245 METAR LIRA 082245Z 15005KT CAVOK 22/19 Q1013=
200907082215 METAR LIRA 082215Z 16005KT CAVOK 22/18 Q1013=
200907082145 METAR LIRA 082145Z 17006KT CAVOK 22/18 Q1013=
200907082115 METAR LIRA 082115Z 17006KT CAVOK 22/18 Q1013=
200907082045 METAR LIRA 082045Z 19005KT 150V220 CAVOK 23/18 Q1013=
200907082015 METAR LIRA 082015Z 17005KT 160V200 CAVOK 23/18 Q1012=
200907081945 METAR LIRA 081945Z 18005KT CAVOK 23/18 Q1012=
200907081915 METAR LIRA 081915Z 18005KT 150V210 9999 FEW023 SCT200 23/17
                        Q1012=
200907081845 METAR LIRA 081845Z 20004KT 9999 FEW023 SCT200 25/18 Q1012=
200907081815 METAR LIRA 081815Z 22006KT 150V250 9999 FEW018 25/18 Q1012=
200907081745 METAR LIRA 081745Z 23007KT 170V270 9999 FEW018 26/17 Q1012=
200907081715 METAR LIRA 081715Z 23006KT 180V270 9999 FEW018 SCT200 27/17
                        Q1012=
200907081645 METAR LIRA 081645Z 22008KT 200V270 9999 FEW018 BKN200 27/15
                        Q1012=
200907081615 METAR LIRA 081615Z 26007KT 190V300 9999 FEW018 BKN200 28/14
                        Q1012=
200907081545 METAR LIRA 081545Z 26008KT 180V310 9999 FEW018 BKN200 28/15
                        Q1012=
200907081515 METAR LIRA 081515Z 22007KT 170V270 9999 FEW018 BKN200 29/16
                        Q1012=
200907081445 METAR LIRA 081445Z 25009KT 170V330 9999 FEW018 BKN200 29/14
                        Q1012=
200907081415 METAR LIRA 081415Z 23009KT 180V300 9999 FEW018 SCT200 29/16
                        Q1012=
200907081345 METAR LIRA 081345Z 21009KT 150V300 9999 FEW018 29/17 Q1012=
200907081315 METAR LIRA 081315Z 21009KT 160V260 9999 FEW018 29/16 Q1012=
200907081245 METAR LIRA 081245Z 19008KT 150V260 9999 FEW018 FEW020TCU
                        28/17 Q1012=
200907081215 METAR LIRA 081215Z 21009KT 130V260 9999 SCT018 FEW020TCU
                        28/17 Q1012=
200907081145 METAR LIRA 081145Z 20010KT 140V250 9999 SCT018 FEW020TCU
                        28/18 Q1012=
200907081115 METAR LIRA 081115Z 19011KT 150V270 9999 SCT018 FEW020TCU
                        28/18 Q1012=
200907081045 METAR LIRA 081045Z 20009KT 160V250 9999 SCT018 FEW020TCU
                        28/18 Q1012=
200907081015 METAR LIRA 081015Z 17009KT 120V230 9999 FEW018 29/18 Q1012=
200907080945 METAR LIRA 080945Z 19006KT 110V240 9999 FEW018 28/18 Q1011=
200907080915 METAR LIRA 080915Z 21010KT 140V250 9999 FEW018 28/19 Q1011=
200907080845 METAR LIRA 080845Z 19008KT 120V260 9999 SCT018 27/18 Q1011=
200907080815 METAR LIRA 080815Z 22008KT 140V250 9999 SCT018 SCT200 27/19
                        Q1011=
200907080745 METAR LIRA 080745Z 20008KT 150V280 9999 SCT018 27/19 Q1011=
200907080715 METAR LIRA 080715Z 22010KT 170V260 9999 SCT018 27/19 Q1011=
200907080645 METAR LIRA 080645Z 18009KT 140V220 9999 SCT017 26/20 Q1011=
200907080615 METAR LIRA 080615Z 19009KT 160V250 9999 SCT017 25/20 Q1011=
200907080545 METAR LIRA 080545Z 18009KT 130V220 9999 FEW017 FEW018TCU
                        25/22 Q1011=
200907080515 METAR LIRA 080515Z 19006KT 150V230 9999 SCT017 FEW018TCU
                        SCT200 25/22 Q1011=
200907080445 METAR LIRA 080445Z 17008KT 130V200 9999 SCT017 SCT200 24/22
                        Q1011=
200907080415 METAR LIRA 080415Z 17007KT 140V200 9999 SCT017 SCT200 24/22
                        Q1011=
200907080345 METAR LIRA 080345Z 16008KT 9999 FEW017 SCT200 24/21 Q1011=
200907080315 METAR LIRA 080315Z 19006KT 140V240 9999 FEW017 SCT200 24/21
                        Q1011=
200907080245 METAR LIRA 080245Z 18005KT 130V230 9999 FEW017 SCT200 25/21
                        Q1011=
200907080215 METAR LIRA 080215Z 18007KT 150V210 9999 FEW017 SCT200 24/21
                        Q1011=
200907080145 METAR LIRA 080145Z 17007KT 9999 FEW017 SCT200 25/21 Q1011=
200907080115 METAR LIRA 080115Z 15008KT 9999 FEW017 SCT200 24/21 Q1011=
200907080045 METAR LIRA 080045Z 14010KT 9999 FEW070 SCT200 24/21 Q1011=
200907080015 METAR LIRA 080015Z 16010KT 9999 SCT070 25/23 Q1011=
200907072350 METAR LIRA 080045Z 14010KT 9999 FEW070 SCT200 24/21 Q1011=
200907072345 METAR LIRA 072345Z 16010KT 9999 SCT060 25/23 Q1011=
200907072315 METAR LIRA 072315Z 16010KT 9999 SCT070 25/23 Q1011=
200907072245 METAR LIRA 072245Z 16010KT 9999 FEW020 SCT070 25/23 Q1011=
200907072215 METAR LIRA 072215Z 18009KT 140V220 9999 SCT070 25/23 Q1011=
200907072145 METAR LIRA 072145Z 16011KT 9999 FEW020 SCT070 25/23 Q1011=
200907072115 METAR LIRA 072115Z 16010KT 9999 FEW020 SCT070 25/23 Q1011=
200907072045 METAR LIRA 072045Z 19007KT 150V220 9999 FEW017 SCT070 25/22
                        Q1011=
200907072015 METAR LIRA 072015Z 19005KT 160V220 9999 FEW070 SCT200 25/22
                        Q1011=
200907071945 METAR LIRA 071945Z 20005KT 160V230 9999 FEW070 SCT200 26/21
                        Q1011=
200907071915 METAR LIRA 071915Z 20005KT 160V240 9999 FEW080 SCT200 27/21
                        Q1011=
200907071845 METAR LIRA 071845Z 20004KT 140V250 9999 FEW080 SCT200 27/21
                        Q1011=
200907071815 METAR LIRA 071815Z 20005KT 160V230 9999 FEW080 SCT200 28/19
                        Q1011=
200907071745 METAR LIRA 071745Z 20006KT 160V260 9999 FEW016 SCT200 29/16
                        Q1011=
200907071715 METAR LIRA 071715Z 20007KT 140V270 9999 FEW016 SCT200 29/13
                        Q1011=
200907071645 METAR LIRA 071645Z 19008KT 140V260 9999 FEW016 SCT080 30/12
                        Q1011=
200907071615 METAR LIRA 071615Z 21007KT 150V260 9999 FEW016 SCT080 30/11
                        Q1011=
200907071545 METAR LIRA 071545Z 19009KT 150V270 9999 FEW016 SCT200 30/10
                        Q1011=
200907071515 METAR LIRA 071515Z 20008KT 140V250 9999 FEW016 30/11 Q1011=
200907071445 METAR LIRA 071445Z 19008KT 140V260 9999 FEW016 30/12 Q1011=
200907071415 METAR LIRA 071415Z 21008KT 150V300 9999 FEW016 FEW017TCU
                        30/12 Q1011=
200907071345 METAR LIRA 071345Z 20009KT 150V260 9999 FEW016 30/12 Q1011=
200907071315 METAR LIRA 071315Z 22009KT 150V250 9999 FEW016 31/12 Q1011=
200907071245 METAR LIRA 071245Z 20009KT 150V250 9999 FEW016 30/12 Q1011=
200907071215 METAR LIRA 071215Z 21007KT 140V260 9999 FEW016 30/12 Q1011=
200907071145 METAR LIRA 071145Z 19008KT 130V250 9999 FEW016 30/13 Q1011=
200907071115 METAR LIRA 071115Z 18009KT 130V250 9999 FEW016 30/14 Q1011=
200907071045 METAR LIRA 071045Z 19010KT 150V240 9999 FEW016 30/13 Q1011=
200907071015 METAR LIRA 071015Z 19011KT 150V240 9999 FEW016 30/14 Q1011=
200907070945 METAR LIRA 070945Z 18010KT 130V230 9999 FEW016 29/17 Q1011=
200907070915 METAR LIRA 070915Z 17011KT 120V230 9999 FEW016 29/18 Q1011=
200907070845 METAR LIRA 070845Z 17011KT 160V240 9999 FEW016 29/19 Q1011=
200907070815 METAR LIRA 070815Z 18011KT 150V220 9999 FEW016 28/19 Q1009=
200907070745 METAR LIRA 070745Z 15011KT 140V210 9999 FEW016 27/20 Q1011=
200907070715 METAR LIRA 070715Z 16011KT 130V190 9999 SCT016 27/21 Q1010=
200907070645 METAR LIRA 070645Z 13011KT 110V170 9999 SCT016 27/21 Q1010=
200907070615 METAR LIRA 070615Z 18010KT 110V180 9999 FEW018 26/22 Q1010=
200907070545 METAR LIRA 070545Z 15007KT 120V180 9999 FEW018 26/22 Q1010=
200907070515 METAR LIRA 070515Z 15007KT 100V190 9999 FEW018 25/23 Q1010=
200907070445 METAR LIRA 070445Z 15006KT 9999 FEW018 24/22 Q1010=
200907070415 METAR LIRA 070415Z 15007KT 9999 FEW018 24/22 Q1010=
200907070345 METAR LIRA 070345Z 16006KT 120V190 9999 SCT018 24/22 Q1010=
200907070315 METAR LIRA 070315Z 14005KT 110V190 9999 SCT018 24/21 Q1010=
200907070245 METAR LIRA 070245Z 13006KT 9999 FEW018 23/21 Q1010=
200907070215 METAR LIRA 070215Z 13006KT CAVOK 23/21 Q1010=
200907070145 METAR LIRA 070145Z 12006KT CAVOK 23/21 Q1010=
200907070115 METAR LIRA 070115Z 12004KT CAVOK 23/21 Q1010=
200907070045 METAR LIRA 070045Z 13006KT CAVOK 23/20 Q1010=
200907070015 METAR LIRA 070015Z 14007KT CAVOK 24/20 Q1010=
200907062350 METAR LIRA 070045Z 13006KT CAVOK 23/20 Q1010=
200907062345 METAR LIRA 062345Z 14007KT CAVOK 24/20 Q1010=
200907062315 METAR LIRA 062315Z 15006KT 9999 FEW018 SCT200 24/19 Q1010=
200907062245 METAR LIRA 062245Z 16004KT 9999 FEW018 SCT200 24/19 Q1010=
200907062215 METAR LIRA 062215Z 23008KT 9999 FEW018 SCT200 24/19 Q1010=
200907062145 METAR LIRA 062145Z 14005KT 9999 FEW018 SCT200 24/19 Q1011=
200907062115 METAR LIRA 062115Z 13006KT 9999 FEW018 SCT200 24/19 Q1011=
200907062045 METAR LIRA 062045Z 14005KT 9999 FEW018 SCT200 24/19 Q1010=
200907062015 METAR LIRA 062015Z 17004KT 9999 FEW018 SCT200 25/19 Q1010=
200907061945 METAR LIRA 061945Z 17004KT 9999 FEW018 SCT200 26/20 Q1010=
200907061915 METAR LIRA 061915Z 18003KT 9999 FEW018 SCT070 26/19 Q1010=
200907061845 METAR LIRA 061845Z 21003KT 9999 FEW018 BKN200 26/20 Q1010=
200907061815 METAR LIRA 061815Z 21005KT 150V240 9999 FEW018 BKN200 27/20
                        Q1009=
200907061745 METAR LIRA 061745Z 21006KT 150V260 9999 FEW018 BKN200 27/20
                        Q1009=
200907061715 METAR LIRA 061715Z 22007KT 170V260 9999 FEW018 BKN200 27/20
                        Q1009=
200907061645 METAR LIRA 061645Z 23008KT 180V270 9999 FEW016 BKN200 27/19
                        Q1009=
200907061615 METAR LIRA 061615Z 21009KT 150V250 9999 FEW016 SCT200 28/19
                        Q1009=
200907061545 METAR LIRA 061545Z 22008KT 160V280 9999 FEW016 SCT200 29/19
                        Q1009=
200907061515 METAR LIRA 061515Z 19009KT 130V230 9999 FEW016 SCT080 29/19
                        Q1009=
200907061445 METAR LIRA 061445Z 20010KT 160V250 9999 FEW016TCU SCT080
                        29/19 Q1009=
200907061415 METAR LIRA 061415Z 20009KT 150V240 9999 FEW017 FEW020CB SCT200
                        28/21 Q1009=
200907061345 METAR LIRA 061345Z 19010KT 140V240 9999 FEW017 FEW020CB SCT200
                        29/20 Q1009=
200907061315 METAR LIRA 061315Z 18009KT 100V240 9999 FEW016TCU SCT100
                        29/20 Q1009=
200907061245 METAR LIRA 061245Z 20009KT 150V260 9999 FEW016TCU SCT017
                        29/19 Q1009=
200907061215 METAR LIRA 061215Z 19010KT 140V270 9999 FEW016TCU SCT017
                        29/20 Q1010=
200907061145 METAR LIRA 061145Z 20008KT 150V250 9999 BKN016 29/20 Q1010=
200907061115 METAR LIRA 061115Z 21008KT 140V270 9999 SCT016 30/20 Q1010=
200907061045 METAR LIRA 061045Z 19009KT 120V240 9999 BKN016 30/20 Q1010=
200907061015 METAR LIRA 061015Z 21006KT 120V260 9999 BKN016 29/20 Q1010=
200907060945 METAR LIRA 060945Z 19006KT 130V240 9999 BKN016 29/20 Q1010=
200907060915 METAR LIRA 060915Z 17008KT 9999 BKN016 29/20 Q1010=
200907060845 METAR LIRA 060845Z 19007KT 9999 BKN016 28/21 Q1010=
200907060815 METAR LIRA 060815Z 21007KT 150V240 9999 BKN016 28/21 Q1010=
200907060745 METAR LIRA 060745Z 19005KT 180V290 9999 SCT016 27/21 Q1010=
200907060715 METAR LIRA 060715Z 18002KT 9999 SCT016 27/21 Q1009=
200907060645 METAR LIRA 060645Z 00000KT 9999 SCT015 26/21 Q1009=
200907060545 METAR LIRA 060545Z 00000KT 9999 FEW060 24/21 Q1009=
200907060515 METAR LIRA 060515Z 00000KT 9999 FEW018 23/20 Q1009=
200907060445 METAR LIRA 060445Z 36002KT 9999 FEW018 22/20 Q1009=
200907060415 METAR LIRA 060415Z 08003KT 9999 FEW018 21/19 Q1008=
200907060345 METAR LIRA 060345Z 06002KT 9999 FEW018 22/19 Q1008=
200907060315 METAR LIRA 060315Z 08003KT 9999 FEW018 22/19 Q1008=
200907060245 METAR LIRA 060245Z 10004KT 9999 FEW018 22/19 Q1009=
200907060215 METAR LIRA 060215Z 10003KT 9999 FEW020 23/20 Q1009=
200907060145 METAR LIRA 060145Z 14002KT 9999 FEW025 23/20 Q1009=
200907060115 METAR LIRA 060115Z 16003KT 9999 FEW025 24/21 Q1009=
200907060045 METAR LIRA 060045Z 13003KT 9999 FEW016 24/22 Q1009=
200907060015 METAR LIRA 060015Z 00000KT 9999 FEW016 24/22 Q1009=
200907052350 METAR LIRA 060045Z 13003KT 9999 FEW016 24/22 Q1009=
200907052345 METAR LIRA 052345Z 16002KT 9999 FEW016 24/22 Q1009=
200907052315 METAR LIRA 052315Z 17002KT 9999 SCT016 24/22 Q1009=
200907052245 METAR LIRA 052245Z 17002KT 9999 SCT016 24/22 Q1009=
200907052215 METAR LIRA 052215Z 17003KT 9999 SCT016 SCT025 24/22 Q1009=
200907052145 METAR LIRA 052145Z 18003KT 9999 SCT016 SCT025 24/22 Q1009=
200907052115 METAR LIRA 052115Z 19003KT 9999 SCT018 SCT030 24/22 Q1009=
200907052045 METAR LIRA 052045Z 15002KT 9999 FEW018 SCT030 24/22 Q1009=
200907052015 METAR LIRA 052015Z 19003KT 9999 FEW018 SCT030 25/22 Q1008=
200907051945 METAR LIRA 051945Z 19005KT 9999 FEW018 FEW020CB SCT030 25/22
                        Q1008=
200907051915 METAR LIRA 051915Z 19004KT 170V240 9999 FEW018 FEW022CB SCT030
                        25/22 Q1008=
200907051845 METAR LIRA 051845Z 20004KT 130V250 9999 FEW018 FEW022CB SCT030
                        25/21 Q1008=
200907051815 METAR LIRA 051815Z 22004KT 150V240 9999 FEW018 FEW022CB SCT030
                        27/21 Q1008=
200907051745 METAR LIRA 051745Z 20007KT 150V240 9999 FEW018 FEW022CB SCT030
                        27/21 Q1008=
200907051715 METAR LIRA 051715Z 19006KT 150V220 9999 FEW018 FEW022CB SCT030
                        28/20 Q1008=
200907051645 METAR LIRA 051645Z 21004KT 9999 FEW018 FEW022CB SCT030 28/20
                        Q1009=
200907051615 METAR LIRA 051615Z 24008KT 180V280 9999 FEW018 FEW022CB SCT030
                        28/19 Q1009=
200907051545 METAR LIRA 051545Z 26003KT 9999 FEW018CB SCT030 28/20 Q1009=
200907051515 METAR LIRA 051515Z 01004KT 200V280 9999 FEW018TCU SCT030
                        27/19 Q1008=
200907051445 METAR LIRA 051445Z 24003KT 160V250 9999 FEW018 SCT030 28/20
                        Q1008=
200907051415 METAR LIRA 051415Z 22008KT 160V260 9999 FEW018 SCT030 28/20
                        Q1009=
200907051345 METAR LIRA 051345Z 22009KT 150V290 9999 FEW018 SCT030 28/21
                        Q1009=
200907051315 METAR LIRA 051315Z 24008KT 160V270 9999 FEW018 SCT030 28/20
                        Q1009=
200907051245 METAR LIRA 051245Z 21010KT 180V270 9999 SCT018 28/20 Q1009=
200907051215 METAR LIRA 051215Z 22009KT 160V280 9999 SCT018 29/21 Q1009=
200907051145 METAR LIRA 051145Z 21009KT 160V280 9999 SCT018 28/21 Q1009=
200907051115 METAR LIRA 051115Z 22010KT 170V260 9999 SCT018 29/21 Q1010=
200907051045 METAR LIRA 051045Z 19009KT 150V270 9999 SCT018 SCT070 29/21
                        Q1010=
200907051015 METAR LIRA 051015Z 19008KT 140V230 9999 SCT018 SCT070 29/21
                        Q1010=
200907050945 METAR LIRA 050945Z 18005KT 120V220 9999 SCT018 SCT070 29/21
                        Q1010=
200907050915 METAR LIRA 050915Z 17008KT 110V230 9999 SCT018 28/21 Q1010=
200907050845 METAR LIRA 050845Z 18006KT 120V240 9999 SCT018 28/21 Q1010=
200907050815 METAR LIRA 050815Z 25005KT 170V280 9999 SCT018 27/21 Q1010=
200907050745 METAR LIRA 050745Z 19003KT 9999 SCT018 27/21 Q1010=
200907050715 METAR LIRA 050715Z 03001KT 9999 SCT018 26/21 Q1009=
200907050645 METAR LIRA 050645Z 00000KT CAVOK 25/20 Q1009=
200907050615 METAR LIRA 050615Z 20004KT CAVOK 24/21 Q1009=
200907050545 METAR LIRA 050545Z 00000KT 9999 FEW070 23/19 Q1009=
200907050515 METAR LIRA 050515Z 00000KT 9999 FEW070 22/19 Q1009=
200907050445 METAR LIRA 050445Z 00000KT 9999 FEW070 22/18 Q1009=
200907050415 METAR LIRA 050415Z 28001KT 9999 FEW070 21/17 Q1009=
200907050345 METAR LIRA 050345Z 12002KT 9999 FEW060 21/17 Q1009=
200907050315 METAR LIRA 050315Z 11003KT 9999 FEW080 21/17 Q1009=
200907050245 METAR LIRA 050245Z 00000KT CAVOK 21/17 Q1009=
200907050215 METAR LIRA 050215Z 09002KT 9000 NSC 21/18 Q1009=
200907050145 METAR LIRA 050145Z 13002KT 9000 NSC 22/19 Q1009=
200907050115 METAR LIRA 050115Z 10003KT 8000 NSC 22/21 Q1010=
200907050045 METAR LIRA 050045Z 14003KT CAVOK 22/21 Q1010=
200907050015 METAR LIRA 050015Z 14003KT CAVOK 23/20 Q1010=
200907042350 METAR LIRA 050045Z 14003KT CAVOK 22/21 Q1010=
200907042345 METAR LIRA 042345Z 15002KT 9999 FEW080 23/21 Q1010=
200907042315 METAR LIRA 042315Z 16001KT CAVOK 23/21 Q1010=
200907042245 METAR LIRA 042245Z 00000KT 9999 FEW070 23/21 Q1010=
200907042215 METAR LIRA 042215Z 22001KT 9999 FEW030 24/20 Q1010=
200907042145 METAR LIRA 042145Z 17003KT 9999 FEW060 24/21 Q1010=
200907042115 METAR LIRA 042115Z 18005KT 150V240 9999 FEW060 24/22 Q1010=
200907042045 METAR LIRA 042045Z 18005KT 150V220 9999 FEW020TCU 24/22 Q1010
                        RETS=
200907042015 METAR LIRA 042015Z 23004KT 9999 FEW020CB 25/22 Q1009 RETS=
200907041945 METAR LIRA 041945Z 20003KT 9999 TS FEW018 FEW020CB SCT200
                        25/21 Q1009=
200907041915 METAR LIRA 041915Z 17003KT 9999 TS FEW018 FEW020CB SCT200
                        26/21 Q1009=
200907041845 METAR LIRA 041845Z 25003KT 9999 FEW018 FEW020CB SCT200 26/18
                        Q1009=
200907041815 METAR LIRA 041815Z 27004KT 220V300 9999 FEW020CB SCT200 27/20
                        Q1009=
200907041745 METAR LIRA 041745Z 27006KT 220V320 9999 FEW020CB SCT200 28/20
                        Q1009=
200907041715 METAR LIRA 041715Z 24005KT 200V270 9999 FEW020CB 28/20 Q1009=
200907041645 METAR LIRA 041645Z 22008KT 170V270 9999 FEW020CB 28/21 Q1008=
200907041615 METAR LIRA 041615Z 22007KT 170V290 9999 FEW020CB 29/21 Q1010=
200907041545 METAR LIRA 041545Z 24005KT 170V280 9999 FEW018 FEW022CB 29/19
                        Q1009=
200907041515 METAR LIRA 041515Z 22006KT 150V260 9999 FEW018 FEW022CB 29/20
                        Q1009=
200907041445 METAR LIRA 041445Z 22007KT 160V300 9999 FEW016 30/21 Q1009=
200907041415 METAR LIRA 041415Z 21007KT 150V270 9999 SCT016 30/21 Q1009=
200907041345 METAR LIRA 041345Z 25010KT 170V310 9999 SCT016 30/21 Q1009=
200907041315 METAR LIRA 041315Z 22006KT 170V260 9999 SCT016 30/20 Q1009=
200907041245 METAR LIRA 041245Z 17004KT 180V280 9999 SCT016 29/20 Q1010=
200907041215 METAR LIRA 041215Z 21004KT 130V300 9999 SCT016 29/20 Q1010=
200907041145 METAR LIRA 041145Z 23009KT 150V300 9999 SCT016 29/20 Q1010=
200907041115 METAR LIRA 041115Z 22005KT 160V270 9999 SCT016 29/20 Q1010=
200907041045 METAR LIRA 041045Z 21005KT 140V260 9999 SCT016 28/19 Q1010=
200907041015 METAR LIRA 041015Z 23010KT 170V320 8000 SCT020 29/21 Q1010=
200907040945 METAR LIRA 040945Z 25007KT 200V320 8000 FEW020 28/18 Q1010=
200907040915 METAR LIRA 040915Z 23006KT 170V270 7000 FEW020 28/18 Q1010=
200907040845 METAR LIRA 040845Z 23006KT 7000 FEW020 28/17 Q1010=
200907040815 METAR LIRA 040815Z 24003KT 6000 FEW020 27/20 Q1010=
200907040745 METAR LIRA 040745Z 32002KT 6000 FEW007 26/21 Q1010=
200907040715 METAR LIRA 040715Z 01002KT 6000 FEW007 25/21 Q1010=
200907040645 METAR LIRA 040645Z 04004KT 6000 SCT007 25/21 Q1010=
200907040615 METAR LIRA 040615Z 36001KT 6000 SCT007 24/20 Q1010=
200907040545 METAR LIRA 040545Z 00000KT 5000 BR SCT007 23/21 Q1010=
200907040515 METAR LIRA 040515Z 00000KT 5000 BR SCT007 22/20 Q1010=
200907040445 METAR LIRA 040445Z 00000KT 4000 BR SCT007 22/21 Q1010=
200907040415 METAR LIRA 040415Z 21002KT 4000 BR SCT007 22/21 Q1010=
200907040345 METAR LIRA 040345Z 22002KT 4000 BR SCT004 22/21 Q1010=
200907040315 METAR LIRA 040315Z 21002KT 5000 BR SCT004 22/21 Q1010=
200907040245 METAR LIRA 040245Z 00000KT 5000 BR SCT004 22/21 Q1010=
200907040215 METAR LIRA 040215Z 17001KT 5000 BR SCT007 22/21 Q1010=
200907040145 METAR LIRA 040145Z 16001KT 5000 BR SCT002 22/21 Q1010=
200907040115 METAR LIRA 040115Z 00000KT 5000 BR BKN002 22/21 Q1011=
200907040045 METAR LIRA 040045Z 21001KT 5000 BR BKN002 23/22 Q1011=
200907040015 METAR LIRA 040015Z 19002KT 5000 BR BKN002 23/22 Q1011=
200907032350 METAR LIRA 040045Z 21001KT 5000 BR BKN002 23/22 Q1011=
200907032345 METAR LIRA 032345Z 21002KT 8000 BKN004 23/22 Q1011=
200907032315 METAR LIRA 032315Z 22002KT 8000 SCT005 23/21 Q1011=
200907032245 METAR LIRA 032245Z 15003KT 9999 SCT005 23/21 Q1011=
200907032215 METAR LIRA 032215Z 18002KT 9999 SCT007 23/21 Q1012=
200907032145 METAR LIRA 032145Z 16003KT CAVOK 23/21 Q1012=
200907032115 METAR LIRA 032115Z 21003KT CAVOK 24/21 Q1012=
200907032045 METAR LIRA 032045Z 19003KT CAVOK 24/21 Q1012=
200907032015 METAR LIRA 032015Z 17004KT 9999 FEW020 24/20 Q1012=
200907031945 METAR LIRA 031945Z 22003KT 9999 FEW018 24/20 Q1011=
200907031915 METAR LIRA 031915Z 20002KT 9999 FEW018 FEW020CB 25/19 Q1011=
200907031845 METAR LIRA 031845Z 23004KT 9999 FEW018 FEW020CB 26/18 Q1011=
200907031815 METAR LIRA 031815Z 24005KT 9999 FEW018 FEW020CB 26/19 Q1011=
200907031745 METAR LIRA 031745Z 25007KT 210V300 9999 FEW018 FEW020CB 27/21
                        Q1010=
200907031715 METAR LIRA 031715Z 25006KT 180V340 9999 FEW018 FEW020CB 28/19
                        Q1010=
200907031645 METAR LIRA 031645Z 27007KT 210V350 9999 FEW018 FEW020CB SCT200
                        27/18 Q1010 RETS=
200907031615 METAR LIRA 031615Z 25007KT 200V310 9999 FEW018 FEW020CB 27/19
                        Q1011 RETS=
200907031545 METAR LIRA 031545Z 26007KT 210V300 9999 FEW018 SCT020CB 27/19
                        Q1011 RETS=
200907031515 METAR LIRA 031515Z 28006KT 230V330 9999 FEW018 SCT020CB 28/19
                        Q1011 RETS=
200907031445 METAR LIRA 031445Z 26008KT 180V320 9999 TS FEW018 SCT020CB
                        29/18 Q1011=
200907031415 METAR LIRA 031415Z 27009KT 220V310 9999 TS FEW018 SCT200
                        30/18 Q1011=
200907031345 METAR LIRA 031345Z 26006KT 200V320 9999 TS FEW018 SCT020CB
                        30/19 Q1012=
200907031315 METAR LIRA 031315Z 28008KT 210V320 9999 TS SCT018 FEW020CB
                        30/19 Q1012=
200907031245 METAR LIRA 031245Z 23005KT 210V310 9999 FEW018 FEW020CB 30/20
                        Q1012=
200907031215 METAR LIRA 031215Z 29009KT 190V340 9999 SCT018 FEW020TCU
                        29/16 Q1012=
200907031145 METAR LIRA 031145Z 26004KT 9999 SCT018 FEW020TCU 29/19 Q1012=
200907031115 METAR LIRA 031115Z 25003KT 9999 FEW018 FEW020TCU 29/18 Q1013=
200907031045 METAR LIRA 031045Z 32007KT 280V020 9999 FEW018 FEW020TCU
                        28/18 Q1013=
200907031015 METAR LIRA 031015Z 33007KT 270V340 9999 FEW018 FEW020TCU
                        28/19 Q1013=
200907030945 METAR LIRA 030945Z 34002KT 300V020 9999 FEW020 27/19 Q1013=
200907030915 METAR LIRA 030915Z 32004KT 9999 FEW020 26/18 Q1013=
200907030845 METAR LIRA 030845Z 31003KT 9999 FEW020 26/19 Q1013=
200907030815 METAR LIRA 030815Z 36003KT 9999 FEW020 25/18 Q1013=
200907030745 METAR LIRA 030745Z 35004KT 9999 FEW020 24/18 Q1013=
200907030715 METAR LIRA 030715Z 35002KT CAVOK 23/18 Q1013=
200907030645 METAR LIRA 030645Z 02003KT CAVOK 21/18 Q1013=
200907030615 METAR LIRA 030615Z 03004KT CAVOK 21/16 Q1013=
200907030545 METAR LIRA 030545Z 04004KT CAVOK 20/18 Q1013=
200907030515 METAR LIRA 030515Z 03003KT CAVOK 19/17 Q1013=
200907030445 METAR LIRA 030445Z 05003KT 9999 FEW080 18/17 Q1013=
200907030415 METAR LIRA 030415Z 35002KT 9999 FEW070 18/17 Q1013=
200907030345 METAR LIRA 030345Z 33003KT 9999 FEW070 18/17 Q1013=
200907030315 METAR LIRA 030315Z 33002KT 9999 FEW070 18/17 Q1013=
200907030245 METAR LIRA 030245Z 03002KT CAVOK 19/17 Q1013=
200907030215 METAR LIRA 030215Z 04002KT CAVOK 19/17 Q1013=
200907030145 METAR LIRA 030145Z 03003KT CAVOK 19/18 Q1013=
200907030115 METAR LIRA 030115Z 04004KT 9999 FEW070 19/18 Q1014=
200907030045 METAR LIRA 030045Z 04003KT 9999 FEW070 19/18 Q1014=
200907030015 METAR LIRA 030015Z 03003KT 9999 FEW070 19/18 Q1014=
200907022350 METAR LIRA 030045Z 04003KT 9999 FEW070 19/18 Q1014=
200907022245 METAR LIRA 022245Z 05002KT 9999 FEW070 19/18 Q1014=
200907022215 METAR LIRA 022215Z 03002KT 9999 FEW070 19/18 Q1014=
200907022145 METAR LIRA 022145Z 04002KT 9999 FEW070 19/18 Q1014=
200907022115 METAR LIRA 022115Z 05005KT 9999 FEW070 20/18 Q1014=
200907022045 METAR LIRA 022045Z 04006KT 010V080 9999 FEW070 20/18 Q1014=
200907022015 METAR LIRA 022015Z 00000KT 9999 FEW030 SCT070 21/19 Q1014=
200907021945 METAR LIRA 021945Z 32004KT 9999 FEW020 SCT070 21/20 Q1014=
200907021915 METAR LIRA 021915Z 27002KT 9999 FEW020 SCT070 22/20 Q1014
                        RETS=
200907021845 METAR LIRA 021845Z 34005KT 9999 FEW017CB SCT030 22/20 Q1014
                        RETS=
200907021815 METAR LIRA 021815Z 05005KT 9999 -TSRA FEW017CB SCT030 22/19
                        Q1014 RETS=
200907021745 METAR LIRA 021745Z 10007KT 8000 -TSRA FEW012 SCT015CB 21/19
                        Q1014 RETS=
200907021715 METAR LIRA 021715Z 10006KT 060V150 6000 TSRA SCT010 SCT015CB
                        20/18 Q1015=
200907021645 METAR LIRA 021645Z 33013G34KT 290V050 6000 TSRA SCT010 SCT015CB
                        21/18 Q1016=
200907021615 METAR LIRA 021615Z 06009KT 020V120 9999 TS SCT015 SCT017CB
                        27/17 Q1014=
200907021545 METAR LIRA 021545Z 07009KT 030V130 9999 SCT016 FEW018TCU
                        FEW020CB 26/17 Q1014=
200907021515 METAR LIRA 021515Z 30005KT 230V320 9999 SCT016 FEW018TCU
                        FEW020CB 28/21 Q1014=
200907021445 METAR LIRA 021445Z 19006KT 140V260 9999 SCT016 FEW018TCU
                        FEW020CB 28/21 Q1014=
200907021415 METAR LIRA 021415Z 23009KT 190V280 9999 SCT016 FEW018TCU
                        FEW020CB 28/21 Q1014=
200907021345 METAR LIRA 021345Z 23009KT 180V270 9999 SCT016 FEW018TCU
                        FEW020CB 28/20 Q1014 RETS=
200907021315 METAR LIRA 021315Z 22010KT 180V270 9999 BKN016 FEW020CB 28/20
                        Q1015 RETS=
200907021245 METAR LIRA 021245Z 21010KT 150V300 9999 TS BKN016 FEW020CB
                        29/20 Q1015=
200907021215 METAR LIRA 021215Z 26008KT 200V330 9999 BKN016 FEW020TCU
                        29/20 Q1015=
200907021145 METAR LIRA 021145Z 24007KT 190V310 9999 SCT016 FEW020TCU
                        29/20 Q1016=
200907021115 METAR LIRA 021115Z 32005KT 240V010 9999 SCT016 FEW020TCU
                        29/16 Q1016=
200907021045 METAR LIRA 021045Z 29006KT 240V330 9999 SCT016 FEW020TCU
                        29/18 Q1016=
200907021015 METAR LIRA 021015Z 29007KT 230V320 9999 SCT015 28/18 Q1016=
200907020945 METAR LIRA 020945Z 27001KT 9999 SCT015 28/20 Q1016=
200907020915 METAR LIRA 020915Z 01001KT 9999 SCT015 27/20 Q1016=
200907020845 METAR LIRA 020845Z 00000KT 8000 SCT015 26/21 Q1016=
200907020815 METAR LIRA 020815Z 00000KT 8000 SCT015 26/21 Q1016=
200907020745 METAR LIRA 020745Z 33002KT 8000 SCT013 25/21 Q1016=
200907020715 METAR LIRA 020715Z 18001KT 8000 FEW010 24/21 Q1016=
200907020645 METAR LIRA 020645Z 00000KT 8000 FEW010 22/20 Q1016=
200907020615 METAR LIRA 020615Z 36002KT 8000 FEW010 21/19 Q1016=
200907020545 METAR LIRA 020545Z 04002KT 6000 SCT009 20/19 Q1015=
200907020515 METAR LIRA 020515Z 00000KT 5000 BR BKN006 20/19 Q1015=
200907020445 METAR LIRA 020445Z 03002KT 8000 FEW010 SCT200 20/19 Q1015=
200907020415 METAR LIRA 020415Z 00000KT 8000 FEW080 19/18 Q1015=
200907020345 METAR LIRA 020345Z 04002KT CAVOK 19/18 Q1015=
200907020315 METAR LIRA 020315Z 01002KT CAVOK 19/18 Q1016=
200907020245 METAR LIRA 020245Z 01001KT CAVOK 19/18 Q1017=
200907020215 METAR LIRA 020215Z 01001KT CAVOK 19/18 Q1017=
200907020015 METAR LIRA 020015Z 04002KT 9999 FEW070 20/18 Q1017=
200907012345 METAR LIRA 012345Z 02002KT 9999 FEW070 20/19 Q1017=
200907012315 METAR LIRA 012315Z 10001KT 8000 FEW070 20/19 Q1017=
200907012245 METAR LIRA 012245Z 04004KT 8000 SCT070 20/19 Q1017=
200907012215 METAR LIRA 012215Z 04003KT 8000 SCT070 20/19 Q1017=
200907012145 METAR LIRA 012145Z 08001KT 8000 SCT070 21/20 Q1017=
200907012115 METAR LIRA 012115Z 00000KT 9999 SCT070 21/20 Q1017=
200907012045 METAR LIRA 012045Z 32001KT 9999 FEW018 SCT070 21/20 Q1017=
200907012015 METAR LIRA 012015Z 01001KT 9999 FEW018 SCT070 20/19 Q1017=
200907011945 METAR LIRA 011945Z 11002KT 9999 FEW018 FEW020CB SCT070 21/19
                        Q1016=
200907011915 METAR LIRA 011915Z 02003KT 9999 FEW018 FEW020CB BKN070 21/19
                        Q1016=
200907011845 METAR LIRA 011845Z 02002KT 9999 FEW018 FEW020CB BKN070 22/20
                        Q1016=
200907011815 METAR LIRA 011815Z 01004KT 9999 FEW016 FEW020CB SCT070 22/20
                        Q1016=
200907011745 METAR LIRA 011745Z 07002KT 9999 FEW016 FEW020CB SCT070 22/21
                        Q1016 RERA=
200907011715 METAR LIRA 011715Z 06003KT 350V070 9999 SCT016 FEW020CB 21/19
                        Q1016 RETS=
200907011645 METAR LIRA 011645Z 05006KT 360V080 9999 -TSRA SCT016 FEW020CB
                        20/19 Q1016=
200907011615 METAR LIRA 011615Z 36003KT 9999 -TSRA BKN016 SCT020CB 20/19
                        Q1016=
200907011545 METAR LIRA 011545Z 05005KT 320V080 6000 -TSRA SCT012 SCT017CB
                        22/20 Q1016=
200907011515 METAR LIRA 011515Z 12009KT 8000 -TSRA SCT012 SCT017CB 25/18
                        Q1016=
200907011445 METAR LIRA 011445Z 13012KT 110V180 8000 TS SCT012 SCT017CB
                        26/19 Q1015=
200907011415 METAR LIRA 011415Z 19007KT 130V240 8000 TS SCT012 SCT017CB
                        27/20 Q1015=
200907011345 METAR LIRA 011345Z 18011KT 140V220 8000 TS SCT012 SCT017CB
                        28/21 Q1015 RETS=
200907011315 METAR LIRA 011315Z 19008KT 150V230 8000 -TSRA SCT012 SCT017CB
                        27/20 Q1015=
200907011245 METAR LIRA 011245Z 23009KT 200V270 9999 -TSRA SCT015 SCT017CB
                        28/21 Q1015=
200907011215 METAR LIRA 011215Z 22006KT 140V260 9999 BKN017 FEW020CB 29/20
                        Q1016=
200907011145 METAR LIRA 011145Z 22005KT 170V270 9999 BKN017 FEW020TCU
                        FEW021CB 28/21 Q1016=
200907011115 METAR LIRA 011115Z 25005KT 210V300 9999 BKN017 FEW020TCU
                        FEW021CB 28/20 Q1016=
200907011045 METAR LIRA 011045Z 17004KT 9999 BKN017 FEW020TCU 29/19 Q1016=
200907011015 METAR LIRA 011015Z 26002KT 9999 BKN017 FEW020TCU 28/19 Q1016=
200907010945 METAR LIRA 010945Z 16004KT 9999 SCT017 FEW020TCU 27/19 Q1016=
200907010915 METAR LIRA 010915Z 15003KT 9999 SCT017 FEW020TCU 27/20 Q1016=
200907010845 METAR LIRA 010845Z 24003KT 9999 SCT017 FEW020TCU 26/20 Q1016=
200907010815 METAR LIRA 010815Z 24003KT 9999 SCT017 FEW020TCU 26/20 Q1016=
200907010745 METAR LIRA 010745Z 24001KT 9999 SCT017 FEW020TCU 25/20 Q1016=
200907010715 METAR LIRA 010715Z 15004KT 9999 FEW017 25/20 Q1016=
200907010645 METAR LIRA 010645Z 06002KT 9999 FEW017 24/19 Q1016=
200907010615 METAR LIRA 010615Z 02001KT CAVOK 23/19 Q1016=
200907010545 METAR LIRA 010545Z 02001KT 9000 NSC 21/20 Q1015=
200907010515 METAR LIRA 010515Z 04003KT 8000 NSC 20/19 Q1015=
200907010445 METAR LIRA 010445Z 36001KT 8000 NSC 20/19 Q1015=
200907010415 METAR LIRA 010415Z 05002KT 7000 FEW010 19/18 Q1015=
200907010345 METAR LIRA 010345Z 00000KT 4500 BR SCT008 20/19 Q1015=
200907010315 METAR LIRA 010315Z 02002KT 5000 BR SCT010 20/18 Q1015=
200907010245 METAR LIRA 010245Z 03002KT 6000 SCT010 20/19 Q1015=
200907010215 METAR LIRA 010215Z 00000KT 6000 SCT010 20/18 Q1016=
200907010145 METAR LIRA 010145Z 08002KT 6000 FEW010 20/18 Q1016=
200907010115 METAR LIRA 010115Z 07003KT 6000 FEW010 20/19 Q1016=
200907010045 METAR LIRA 010045Z 00000KT 6000 FEW010 21/20 Q1016=
200907010015 METAR LIRA 010015Z 16002KT 6000 FEW010 22/20 Q1016=

</pre>

</body>
</html>
