##########################################################
# Query made at 11/10/2014 16:56:09 UTC
# Time interval: from 06/01/2012 00:00  to 07/01/2012 23:59  UTC
##########################################################

##########################################################
# LIRA, Roma / Ciampino (Italy)
# WMO index: 16239
# Latitude 41-47N. Longitude 012-35E. Altitude 129 m.
##########################################################

###################################
#  METAR/SPECI from LIRA
###################################
201207012350 METAR LIRA 020045Z 13000KT CAVOK 24/14 Q1014=
201207012345 METAR LIRA 012345Z 12001KT 9999 FEW080 24/16 Q1014=
201207012315 METAR LIRA 012315Z 12001KT 9999 FEW080 25/16 Q1014=
201207012245 METAR LIRA 012245Z 00000KT 9999 FEW080 25/16 Q1014=
201207012215 METAR LIRA 012215Z 00000KT 9999 FEW080 25/16 Q1014=
201207012145 METAR LIRA 012145Z 35001KT 9999 FEW080 26/16 Q1014=
201207012115 METAR LIRA 012115Z 07001KT 9999 FEW080 26/15 Q1014=
201207012045 METAR LIRA 012045Z 27002KT 9999 FEW080 27/15 Q1013=
201207012015 METAR LIRA 012015Z 26002KT 9999 FEW080 27/14 Q1013=
201207011945 METAR LIRA 011945Z 30001KT 9999 FEW080 28/13 Q1013=
201207011915 METAR LIRA 011915Z 29001KT 9999 FEW080 29/12 Q1013=
201207011845 METAR LIRA 011845Z 26003KT 9999 FEW080 30/12 Q1013=
201207011815 METAR LIRA 011815Z 23003KT 9999 FEW080 31/11 Q1013=
201207011745 METAR LIRA 011745Z 23005KT 9999 FEW080 32/11 Q1013=
201207011715 METAR LIRA 011715Z 27006KT 9999 FEW022TCU 32/11 Q1013=
201207011645 METAR LIRA 011645Z 27006KT 9999 FEW017TCU 33/12 Q1013=
201207011615 METAR LIRA 011615Z 25006KT 200V300 9999 FEW017TCU 33/12 Q1013=
201207011545 METAR LIRA 011545Z 24008KT 200V290 9999 FEW017TCU 34/12 Q1013=
201207011515 METAR LIRA 011515Z 25007KT 220V320 9999 FEW017TCU 34/13 Q1013=
201207011445 METAR LIRA 011445Z 27009KT 210V310 CAVOK 34/13 Q1013=
201207011415 METAR LIRA 011415Z 25008KT 220V310 CAVOK 35/13 Q1014=
201207011345 METAR LIRA 011345Z 26009KT 200V310 CAVOK 35/13 Q1014=
201207011315 METAR LIRA 011315Z 26008KT 220V300 CAVOK 35/13 Q1014=
201207011245 METAR LIRA 011245Z 26009KT 220V300 CAVOK 35/14 Q1014=
201207011215 METAR LIRA 011215Z 25006KT 200V320 CAVOK 35/15 Q1014=
201207011145 METAR LIRA 011145Z 25008KT 220V300 CAVOK 36/12 Q1014=
201207011115 METAR LIRA 011115Z 30007KT 260V330 CAVOK 36/12 Q1014=
201207011045 METAR LIRA 011045Z 29006KT 240V350 CAVOK 35/12 Q1014=
201207011015 METAR LIRA 011015Z 25004KT CAVOK 35/11 Q1014=
201207011000 METAR LIRA CB ALQUADS=
201207010945 METAR LIRA 010945Z 25004KT CAVOK 34/12 Q1014=
201207010915 METAR LIRA 010915Z 04002KT CAVOK 33/17 Q1015=
201207010845 METAR LIRA 010845Z 00000KT CAVOK 31/17 Q1015=
201207010815 METAR LIRA 010815Z 02002KT CAVOK 30/18 Q1015=
201207010745 METAR LIRA 010745Z 06004KT CAVOK 29/18 Q1015=
201207010715 METAR LIRA 010715Z 06005KT CAVOK 28/19 Q1015=
201207010645 METAR LIRA 010645Z 05004KT CAVOK 27/19 Q1015=
201207010615 METAR LIRA 010615Z 01003KT CAVOK 25/19 Q1015=
201207010545 METAR LIRA 010545Z 04003KT CAVOK 24/19 Q1015=
201207010515 METAR LIRA 010515Z 03003KT CAVOK 22/18 Q1014=
201207010445 METAR LIRA 010445Z 00000KT CAVOK 22/18 Q1014=
201207010415 METAR LIRA 010415Z 00000KT CAVOK 22/17 Q1014=
201207010345 METAR LIRA 010345Z 02001KT CAVOK 22/17 Q1014=
201207010315 METAR LIRA 010315Z 08002KT CAVOK 22/16 Q1014=
201207010245 METAR LIRA 010245Z 10002KT CAVOK 22/18 Q1014=
201207010215 METAR LIRA 010215Z 22001KT CAVOK 22/17 Q1014=
201207010145 METAR LIRA 010145Z 00000KT CAVOK 23/17 Q1014=
201207010115 METAR LIRA 010115Z 23001KT CAVOK 23/21 Q1015=
201207010045 METAR LIRA 010045Z 00000KT CAVOK 23/21 Q1015=
201207010015 METAR LIRA 010015Z 23002KT CAVOK 23/20 Q1015=
201206302350 METAR LIRA 010045Z 00000KT CAVOK 23/21 Q1015=
201206302345 METAR LIRA 302345Z 17001KT CAVOK 23/18 Q1015=
201206302315 METAR LIRA 302315Z 22002KT CAVOK 24/19 Q1015=
201206302245 METAR LIRA 302245Z 24002KT CAVOK 24/19 Q1015=
201206302215 METAR LIRA 302215Z 21001KT CAVOK 24/20 Q1015=
201206302145 METAR LIRA 302145Z 00000KT CAVOK 25/19 Q1015=
201206302115 METAR LIRA 302115Z 00000KT CAVOK 25/19 Q1015=
201206302045 METAR LIRA 302045Z 28001KT CAVOK 26/20 Q1015=
201206302015 METAR LIRA 302015Z 31002KT CAVOK 27/19 Q1015=
201206301945 METAR LIRA 301945Z 28002KT CAVOK 27/19 Q1015=
201206301915 METAR LIRA 301915Z 26001KT 9999 FEW080 28/18 Q1015=
201206301845 METAR LIRA 301845Z 35002KT 9999 FEW080 29/18 Q1015=
201206301815 METAR LIRA 301815Z 24002KT 9999 FEW080 30/18 Q1015=
201206301745 METAR LIRA 301745Z 22004KT 9999 FEW080 31/18 Q1015=
201206301715 METAR LIRA 301715Z 23005KT 9999 FEW080 31/18 Q1015=
201206301645 METAR LIRA 301645Z 27006KT 230V310 9999 FEW080 32/17 Q1015=
201206301615 METAR LIRA 301615Z 28007KT 9999 FEW080 32/16 Q1015=
201206301545 METAR LIRA 301545Z 28006KT 220V320 9999 FEW080 33/16 Q1015=
201206301515 METAR LIRA 301515Z 24009KT 220V300 CAVOK 33/15 Q1015=
201206301445 METAR LIRA 301445Z 27010KT 200V300 CAVOK 34/15 Q1015=
201206301415 METAR LIRA 301415Z 27006KT 220V300 CAVOK 35/16 Q1016=
201206301345 METAR LIRA 301345Z 23007KT 180V260 CAVOK 34/15 Q1016=
201206301315 METAR LIRA 301315Z 23009KT 200V290 CAVOK 35/16 Q1016=
201206301245 METAR LIRA 301245Z 27009KT 240V310 CAVOK 35/17 Q1016=
201206301215 METAR LIRA 301215Z 27004KT 220V300 CAVOK 34/17 Q1016=
201206301145 METAR LIRA 301145Z 23004KT 200V280 CAVOK 34/21 Q1016=
201206301115 METAR LIRA 301115Z 27006KT 200V320 CAVOK 34/20 Q1016=
201206301045 METAR LIRA 301045Z 26004KT 180V260 CAVOK 34/18 Q1016=
201206301015 METAR LIRA 301015Z 25005KT 200V300 CAVOK 34/17 Q1016=
201206300945 METAR LIRA 300945Z 33004KT CAVOK 34/17 Q1016=
201206300915 METAR LIRA 300915Z 20004KT CAVOK 33/18 Q1016=
201206300845 METAR LIRA 300845Z 27001KT CAVOK 31/19 Q1016=
201206300815 METAR LIRA 300815Z 30002KT CAVOK 30/19 Q1016=
201206300745 METAR LIRA 300745Z 04001KT CAVOK 29/19 Q1016=
201206300715 METAR LIRA 300715Z 01004KT CAVOK 28/19 Q1016=
201206300645 METAR LIRA 300645Z 02004KT CAVOK 27/20 Q1016=
201206300615 METAR LIRA 300615Z 02003KT CAVOK 25/21 Q1016=
201206300545 METAR LIRA 300545Z 03003KT CAVOK 23/21 Q1016=
201206300515 METAR LIRA 300515Z 03003KT CAVOK 23/22 Q1016=
201206300445 METAR LIRA 300445Z 02003KT CAVOK 22/20 Q1015=
201206300415 METAR LIRA 300415Z 06003KT 8000 FEW010 21/20 Q1015=
201206300345 METAR LIRA 300345Z 07003KT 8000 FEW010 20/19 Q1015=
201206300315 METAR LIRA 300315Z 00000KT CAVOK 22/20 Q1015=
201206300245 METAR LIRA 300245Z 00000KT CAVOK 21/20 Q1015=
201206300215 METAR LIRA 300215Z 00000KT CAVOK 22/20 Q1015=
201206300145 METAR LIRA 300145Z 21001KT CAVOK 22/21 Q1015=
201206300115 METAR LIRA 300115Z 26002KT CAVOK 23/21 Q1015=
201206300045 METAR LIRA 300045Z 00000KT CAVOK 23/22 Q1015=
201206300015 METAR LIRA 300015Z 05001KT CAVOK 23/21 Q1015=
201206292350 METAR LIRA 300045Z 00000KT CAVOK 23/22 Q1015=
201206292345 METAR LIRA 292345Z 09003KT CAVOK 23/21 Q1015=
201206292315 METAR LIRA 292315Z 08003KT CAVOK 23/22 Q1016=
201206292245 METAR LIRA 292245Z 08001KT CAVOK 24/23 Q1016=
201206292215 METAR LIRA 292215Z 00000KT CAVOK 24/23 Q1016=
201206292145 METAR LIRA 292145Z 26001KT CAVOK 24/23 Q1016=
201206292115 METAR LIRA 292115Z 00000KT CAVOK 24/23 Q1015=
201206292045 METAR LIRA 292045Z 18002KT CAVOK 25/24 Q1015=
201206292015 METAR LIRA 292015Z 19002KT CAVOK 25/24 Q1015=
201206291945 METAR LIRA 291945Z 22004KT CAVOK 25/23 Q1015=
201206291915 METAR LIRA 291915Z 23005KT CAVOK 26/23 Q1015=
201206291845 METAR LIRA 291845Z 23004KT CAVOK 27/23 Q1015=
201206291815 METAR LIRA 291815Z 24005KT CAVOK 28/21 Q1015=
201206291745 METAR LIRA 291745Z 23005KT CAVOK 30/20 Q1015=
201206291715 METAR LIRA 291715Z 22006KT CAVOK 30/20 Q1015=
201206291645 METAR LIRA 291645Z 24006KT 210V280 9999 FEW080 30/21 Q1015=
201206291615 METAR LIRA 291615Z 24007KT 220V300 9999 FEW022CB 30/21 Q1015=
201206291545 METAR LIRA 291545Z 22007KT 180V290 9999 FEW022CB 31/22 Q1015=
201206291515 METAR LIRA 291515Z 24008KT 190V310 9999 FEW022CB 31/22 Q1015=
201206291445 METAR LIRA 291445Z 22007KT 160V280 9999 FEW022TCU 32/22 Q1015=
201206291415 METAR LIRA 291415Z 24008KT 180V280 9999 FEW020 32/23 Q1015=
201206291345 METAR LIRA 291345Z 22007KT 180V260 9999 FEW020 FEW022TCU
                        32/24 Q1015=
201206291315 METAR LIRA 291315Z 22008KT 180V260 9999 FEW020 FEW022TCU
                        32/24 Q1015=
201206291245 METAR LIRA 291245Z 23006KT 180V260 9999 FEW020 FEW022TCU
                        32/24 Q1015=
201206291215 METAR LIRA 291215Z 23006KT 180V280 9999 FEW020 32/24 Q1015=
201206291145 METAR LIRA 291145Z 25010KT 200V280 9999 FEW020 32/24 Q1015=
201206291115 METAR LIRA 291115Z 24007KT 9999 SCT020 32/24 Q1015=
201206291045 METAR LIRA 291045Z 19004KT 9999 SCT020 33/19 Q1015=
201206291015 METAR LIRA 291015Z 22003KT 160V260 9999 FEW020 33/22 Q1015=
201206290945 METAR LIRA 290945Z 15005KT 140V260 9999 FEW030 32/20 Q1015=
201206290915 METAR LIRA 290915Z 15006KT 120V200 9999 FEW035 31/21 Q1015=
201206290845 METAR LIRA 290845Z 22004KT 170V220 9999 FEW035 30/21 Q1015=
201206290815 METAR LIRA 290815Z 18003KT CAVOK 30/23 Q1015=
201206290745 METAR LIRA 290745Z 21004KT CAVOK 28/22 Q1015=
201206290715 METAR LIRA 290715Z 22004KT CAVOK 28/22 Q1015=
201206290645 METAR LIRA 290645Z 21003KT CAVOK 27/22 Q1015=
201206290615 METAR LIRA 290615Z 19006KT CAVOK 25/21 Q1015=
201206290545 METAR LIRA 290545Z 20003KT CAVOK 24/20 Q1015=
201206290515 METAR LIRA 290515Z 24002KT CAVOK 23/20 Q1014=
201206290445 METAR LIRA 290445Z 23003KT CAVOK 22/20 Q1014=
201206290415 METAR LIRA 290415Z 23001KT 9999 FEW001 22/20 Q1014=
201206290345 METAR LIRA 290345Z 12001KT CAVOK 22/20 Q1014=
201206290315 METAR LIRA 290315Z 02002KT CAVOK 22/20 Q1014=
201206290245 METAR LIRA 290245Z 04001KT CAVOK 22/20 Q1014=
201206290215 METAR LIRA 290215Z 08001KT CAVOK 22/20 Q1014=
201206290145 METAR LIRA 290145Z 00000KT CAVOK 22/20 Q1014=
201206290115 METAR LIRA 290115Z 00000KT CAVOK 23/20 Q1014=
201206290045 METAR LIRA 290045Z 00000KT CAVOK 23/20 Q1014=
201206290015 METAR LIRA 290015Z 00000KT CAVOK 23/20 Q1015=
201206282350 METAR LIRA 290045Z 00000KT CAVOK 23/20 Q1014=
201206282345 METAR LIRA 282345Z 15001KT CAVOK 23/20 Q1015=
201206282315 METAR LIRA 282315Z 20001KT CAVOK 24/19 Q1015=
201206282245 METAR LIRA 282245Z 26002KT CAVOK 24/19 Q1015=
201206282215 METAR LIRA 282215Z 24001KT CAVOK 24/19 Q1015=
201206282145 METAR LIRA 282145Z 17001KT CAVOK 24/19 Q1015=
201206282115 METAR LIRA 282115Z 15001KT CAVOK 25/20 Q1015=
201206282045 METAR LIRA 282045Z 19001KT CAVOK 25/21 Q1015=
201206282015 METAR LIRA 282015Z 21002KT CAVOK 25/21 Q1014=
201206281945 METAR LIRA 281945Z 23004KT CAVOK 26/21 Q1014=
201206281915 METAR LIRA 281915Z 22004KT CAVOK 27/20 Q1014=
201206281845 METAR LIRA 281845Z 23004KT CAVOK 28/20 Q1014=
201206281815 METAR LIRA 281815Z 23005KT CAVOK 29/19 Q1014=
201206281745 METAR LIRA 281745Z 24006KT CAVOK 29/19 Q1014=
201206281715 METAR LIRA 281715Z 22006KT CAVOK 30/20 Q1014=
201206281645 METAR LIRA 281645Z 24009KT CAVOK 31/19 Q1014=
201206281615 METAR LIRA 281615Z 24008KT 200V280 CAVOK 32/19 Q1014=
201206281545 METAR LIRA 281545Z 23007KT 190V270 CAVOK 32/18 Q1014=
201206281515 METAR LIRA 281515Z 23007KT 170V280 CAVOK 32/18 Q1014=
201206281445 METAR LIRA 281445Z 23008KT 200V270 CAVOK 33/19 Q1014=
201206281415 METAR LIRA 281415Z 24008KT 210V290 9999 FEW022 33/19 Q1014=
201206281345 METAR LIRA 281345Z 24009KT 200V290 9999 FEW022 33/18 Q1014=
201206281315 METAR LIRA 281315Z 21007KT 170V260 9999 FEW022 33/18 Q1014=
201206281245 METAR LIRA 281245Z 19009KT 160V230 9999 FEW022 32/18 Q1015=
201206281215 METAR LIRA 281215Z 21008KT 160V270 9999 FEW022 33/18 Q1015=
201206281145 METAR LIRA 281145Z 23009KT 180V300 9999 FEW020TCU 33/18 Q1015=
201206281115 METAR LIRA 281115Z 23010KT 200V270 9999 FEW020TCU 33/18 Q1015=
201206281045 METAR LIRA 281045Z 24005KT 150V230 9999 FEW020 33/19 Q1015=
201206281015 METAR LIRA 281015Z 10005KT 9999 FEW020 33/20 Q1015=
201206280945 METAR LIRA 280945Z 23005KT 150V310 9999 FEW020 33/20 Q1015=
201206280915 METAR LIRA 280915Z 23004KT 160V170 9999 FEW020 33/20 Q1015=
201206280845 METAR LIRA 280845Z 24004KT 9999 FEW020 32/19 Q1015=
201206280815 METAR LIRA 280815Z 20003KT CAVOK 31/19 Q1015=
201206280745 METAR LIRA 280745Z 23002KT CAVOK 30/20 Q1015=
201206280715 METAR LIRA 280715Z 14001KT CAVOK 29/21 Q1015=
201206280645 METAR LIRA 280645Z 04003KT CAVOK 28/21 Q1015=
201206280615 METAR LIRA 280615Z 04003KT CAVOK 27/21 Q1015=
201206280545 METAR LIRA 280545Z 03002KT CAVOK 25/20 Q1015=
201206280515 METAR LIRA 280515Z 02001KT CAVOK 23/20 Q1015=
201206280445 METAR LIRA 280445Z 04003KT CAVOK 23/20 Q1015=
201206280415 METAR LIRA 280415Z 04004KT CAVOK 22/19 Q1015=
201206280345 METAR LIRA 280345Z 04003KT 9999 FEW080 22/19 Q1015=
201206280315 METAR LIRA 280315Z 06004KT 9999 FEW080 22/19 Q1015=
201206280245 METAR LIRA 280245Z 07002KT 9999 FEW080 22/19 Q1015=
201206280215 METAR LIRA 280215Z 08002KT CAVOK 22/19 Q1015=
201206280145 METAR LIRA 280145Z 09002KT CAVOK 23/20 Q1015=
201206280115 METAR LIRA 280115Z 06002KT 9999 FEW080 23/20 Q1015=
201206280045 METAR LIRA 280045Z 36002KT 9999 FEW080 23/20 Q1015=
201206280015 METAR LIRA 280015Z 03002KT 9999 FEW080 23/20 Q1016=
201206272350 METAR LIRA 280045Z 36002KT 9999 FEW080 23/20 Q1015=
201206272345 METAR LIRA 272345Z 03001KT 9999 FEW080 24/19 Q1016=
201206272315 METAR LIRA 272315Z 02002KT 9999 FEW080 24/19 Q1016=
201206272245 METAR LIRA 272245Z 04001KT 9999 FEW080 21/17 Q1016=
201206272215 METAR LIRA 272215Z 00000KT 9999 FEW080 25/20 Q1016=
201206272145 METAR LIRA 272145Z 00000KT 9999 FEW080 25/20 Q1016=
201206272115 METAR LIRA 272115Z 00000KT 9999 FEW080 25/20 Q1016=
201206272045 METAR LIRA 272045Z 16002KT 9999 FEW080 25/19 Q1015=
201206272015 METAR LIRA 272015Z 22003KT 9999 FEW080 26/19 Q1015=
201206271945 METAR LIRA 271945Z 21004KT 9999 FEW080 26/19 Q1015=
201206271915 METAR LIRA 271915Z 22003KT 9999 FEW080 27/18 Q1015=
201206271845 METAR LIRA 271845Z 22003KT 9999 FEW018 28/17 Q1015=
201206271815 METAR LIRA 271815Z 22004KT 9999 FEW018 28/17 Q1015=
201206271745 METAR LIRA 271745Z 23006KT 200V260 9999 FEW018 30/18 Q1015=
201206271715 METAR LIRA 271715Z 23006KT 190V260 9999 FEW018TCU 30/17 Q1015=
201206271645 METAR LIRA 271645Z 23005KT 200V320 9999 FEW018TCU 31/17 Q1015=
201206271615 METAR LIRA 271615Z 24007KT 200V270 9999 FEW018TCU SCT070
                        31/17 Q1015=
201206271545 METAR LIRA 271545Z 22008KT 170V270 9999 SCT080 31/16 Q1015=
201206271515 METAR LIRA 271515Z 22007KT 180V260 9999 SCT080 32/17 Q1016=
201206271445 METAR LIRA 271445Z 23008KT 200V290 9999 SCT080 32/17 Q1016=
201206271415 METAR LIRA 271415Z 20008KT 150V240 9999 FEW025 SCT070 32/18
                        Q1016=
201206271345 METAR LIRA 271345Z 23009KT 9999 FEW025 SCT070 32/18 Q1016=
201206271315 METAR LIRA 271315Z 20011KT 160V230 9999 FEW025 SCT070 32/18
                        Q1016=
201206271245 METAR LIRA 271245Z 21009KT 170V270 9999 FEW022 32/18 Q1016=
201206271215 METAR LIRA 271215Z 22009KT 180V260 9999 FEW020TCU 32/19 Q1016=
201206271145 METAR LIRA 271145Z 21010KT 170V250 9999 FEW020TCU 32/19 Q1016=
201206271115 METAR LIRA 271115Z 22009KT 170V240 9999 FEW020TCU 31/20 Q1017=
201206271045 METAR LIRA 271045Z 21009KT 170V270 9999 FEW020 31/21 Q1016=
201206271015 METAR LIRA 271015Z 20011KT 9999 FEW020 31/21 Q1016=
201206270945 METAR LIRA 270945Z 20009G19KT 140V240 9999 FEW020 31/21 Q1016=
201206270915 METAR LIRA 270915Z 16008KT 110V200 9999 FEW020 31/21 Q1016=
201206270845 METAR LIRA 270845Z 20007KT 150V260 9999 FEW020 31/21 Q1016=
201206270815 METAR LIRA 270815Z 18007KT 120V250 CAVOK 30/21 Q1016=
201206270745 METAR LIRA 270745Z 03002KT CAVOK 30/21 Q1016=
201206270715 METAR LIRA 270715Z 35002KT CAVOK 28/21 Q1016=
201206270645 METAR LIRA 270645Z 04002KT CAVOK 28/21 Q1016=
201206270615 METAR LIRA 270615Z 04002KT CAVOK 26/21 Q1016=
201206270545 METAR LIRA 270545Z 04003KT CAVOK 26/21 Q1016=
201206270515 METAR LIRA 270515Z 04002KT CAVOK 25/21 Q1016=
201206270445 METAR LIRA 270445Z 02002KT 9999 FEW070 23/20 Q1016=
201206270415 METAR LIRA 270415Z 05002KT CAVOK 22/19 Q1015=
201206270345 METAR LIRA 270345Z 01002KT 9999 FEW070 22/19 Q1015=
201206270315 METAR LIRA 270315Z 00000KT 9999 FEW025 22/19 Q1015=
201206270245 METAR LIRA 270245Z 00000KT 9999 FEW025 22/19 Q1015=
201206270215 METAR LIRA 270215Z 00000KT 9999 FEW025 22/19 Q1015=
201206270145 METAR LIRA 270145Z 34001KT 9999 FEW025 22/18 Q1015=
201206270115 METAR LIRA 270115Z 32001KT 9999 FEW025 22/19 Q1015=
201206270045 METAR LIRA 270045Z 05001KT 9999 FEW025 23/18 Q1016=
201206270015 METAR LIRA 270015Z 10002KT 9999 FEW025 23/19 Q1016=
201206262350 METAR LIRA 270045Z 05001KT 9999 FEW025 23/18 Q1016=
201206262345 METAR LIRA 262345Z 06001KT 9999 FEW025 23/21 Q1016=
201206262315 METAR LIRA 262315Z 33001KT 9999 FEW025 23/21 Q1016=
201206262245 METAR LIRA 262245Z 27002KT 9999 FEW025 23/21 Q1016=
201206262215 METAR LIRA 262215Z 21001KT 9999 FEW070 24/22 Q1016=
201206262145 METAR LIRA 262145Z 22001KT 9999 FEW070 24/22 Q1016=
201206262115 METAR LIRA 262115Z 21002KT 9999 FEW070 24/21 Q1016=
201206262045 METAR LIRA 262045Z 22002KT 9999 FEW070 24/21 Q1016=
201206262015 METAR LIRA 262015Z 20003KT 9999 FEW070 25/21 Q1015=
201206261945 METAR LIRA 261945Z 24002KT 9999 FEW070 25/21 Q1015=
201206261915 METAR LIRA 261915Z 22004KT 9999 FEW070 25/20 Q1015=
201206261845 METAR LIRA 261845Z 23005KT 9999 FEW070 26/20 Q1015=
201206261815 METAR LIRA 261815Z 28004KT 9999 FEW070 27/21 Q1015=
201206261745 METAR LIRA 261745Z 22004KT 9999 FEW070 28/22 Q1014=
201206261715 METAR LIRA 261715Z 25005KT 9999 FEW070 28/22 Q1014=
201206261645 METAR LIRA 261645Z 25006KT 210V320 9999 FEW023 29/22 Q1014=
201206261615 METAR LIRA 261615Z 27008KT 220V300 9999 FEW023 30/22 Q1014=
201206261545 METAR LIRA 261545Z 24008KT 210V280 9999 FEW023 30/23 Q1014=
201206261515 METAR LIRA 261515Z 24008KT 210V300 9999 FEW023 30/23 Q1014=
201206261445 METAR LIRA 261445Z 23007KT 210V320 9999 FEW023 30/23 Q1014=
201206261415 METAR LIRA 261415Z 27010KT 240V310 9999 FEW023 31/22 Q1014=
201206261345 METAR LIRA 261345Z 26009KT 210V310 9999 FEW023 31/22 Q1014=
201206261315 METAR LIRA 261315Z 25008KT 210V310 9999 FEW023 32/21 Q1014=
201206261245 METAR LIRA 261245Z 28008KT 210V320 9999 FEW023 33/20 Q1014=
201206261215 METAR LIRA 261215Z 32007KT 280V010 9999 FEW023 32/19 Q1014=
201206261145 METAR LIRA 261145Z 17004KT 9999 FEW023 32/16 Q1014=
201206261115 METAR LIRA 261115Z 34001KT 330V030 9999 FEW023 32/16 Q1014=
201206261045 METAR LIRA 261045Z 27004KT 9999 FEW023 31/16 Q1014=
201206261015 METAR LIRA 261015Z 24003KT CAVOK 31/17 Q1014=
201206260945 METAR LIRA 260945Z 31005KT CAVOK 29/17 Q1014=
201206260915 METAR LIRA 260915Z 02005KT CAVOK 30/19 Q1014=
201206260845 METAR LIRA 260845Z 33003KT 300V020 CAVOK 29/19 Q1014=
201206260815 METAR LIRA 260815Z 33006KT CAVOK 28/20 Q1014=
201206260745 METAR LIRA 260745Z 01004KT CAVOK 27/20 Q1014=
201206260715 METAR LIRA 260715Z 33003KT CAVOK 27/20 Q1014=
201206260645 METAR LIRA 260645Z 33002KT CAVOK 25/20 Q1013=
201206260615 METAR LIRA 260615Z 31002KT CAVOK 24/20 Q1013=
201206260600 METAR LIRA INTER CB ALQUADS SLT TS=
201206260545 METAR LIRA 260545Z 00000KT CAVOK 23/20 Q1013=
201206260515 METAR LIRA 260515Z 00000KT CAVOK 22/20 Q1013=
201206260445 METAR LIRA 260445Z 36001KT CAVOK 21/19 Q1012=
201206260415 METAR LIRA 260415Z 04003KT CAVOK 20/18 Q1012=
201206260345 METAR LIRA 260345Z 00000KT CAVOK 20/17 Q1012=
201206260315 METAR LIRA 260315Z 00000KT CAVOK 20/17 Q1012=
201206260245 METAR LIRA 260245Z 06001KT CAVOK 20/17 Q1012=
201206260215 METAR LIRA 260215Z 03001KT CAVOK 20/17 Q1012=
201206260145 METAR LIRA 260145Z 05002KT CAVOK 22/19 Q1012=
201206260115 METAR LIRA 260115Z 07001KT CAVOK 22/19 Q1012=
201206260045 METAR LIRA 260045Z 15005KT CAVOK 22/19 Q1012=
201206260015 METAR LIRA 260015Z 14004KT CAVOK 22/18 Q1012=
201206252350 METAR LIRA 260045Z 15005KT CAVOK 22/19 Q1012=
201206252345 METAR LIRA 252345Z 12002KT CAVOK 22/17 Q1012=
201206252315 METAR LIRA 252315Z 14004KT CAVOK 22/18 Q1012=
201206252245 METAR LIRA 252245Z 15003KT CAVOK 23/17 Q1012=
201206252215 METAR LIRA 252215Z 14006KT CAVOK 23/18 Q1012=
201206252145 METAR LIRA 252145Z 14005KT CAVOK 23/19 Q1012=
201206252115 METAR LIRA 252115Z 17005KT CAVOK 24/18 Q1012=
201206252045 METAR LIRA 252045Z 18005KT CAVOK 24/20 Q1012=
201206252015 METAR LIRA 252015Z 18005KT CAVOK 24/20 Q1012=
201206251945 METAR LIRA 251945Z 18005KT CAVOK 24/20 Q1012=
201206251915 METAR LIRA 251915Z 20005KT CAVOK 25/21 Q1012=
201206251845 METAR LIRA 251845Z 20004KT CAVOK 26/20 Q1012=
201206251815 METAR LIRA 251815Z 20005KT 180V240 CAVOK 26/19 Q1012=
201206251745 METAR LIRA 251745Z 21006KT 180V240 CAVOK 27/18 Q1012=
201206251715 METAR LIRA 251715Z 23007KT 190V250 CAVOK 28/17 Q1012=
201206251645 METAR LIRA 251645Z 23008KT CAVOK 29/17 Q1012=
201206251615 METAR LIRA 251615Z 22007KT 180V260 CAVOK 30/15 Q1012=
201206251545 METAR LIRA 251545Z 24008KT 9999 FEW080 SCT200 30/14 Q1012=
201206251515 METAR LIRA 251515Z 22008KT 180V270 9999 FEW070 SCT200 30/15
                        Q1012=
201206251445 METAR LIRA 251445Z 24007KT 200V280 9999 FEW080 SCT200 30/16
                        Q1012=
201206251415 METAR LIRA 251415Z 23008KT 180V270 9999 FEW080 SCT200 30/17
                        Q1012=
201206251345 METAR LIRA 251345Z 21007KT 170V330 9999 FEW080 SCT200 30/18
                        Q1012=
201206251315 METAR LIRA 251315Z 22007KT 150V280 9999 FEW080 SCT200 30/19
                        Q1012=
201206251245 METAR LIRA 251245Z 23007KT 180V270 9999 FEW080 SCT200 30/18
                        Q1012=
201206251215 METAR LIRA 251215Z 22006KT 160V270 9999 FEW080 SCT200 30/19
                        Q1012=
201206251145 METAR LIRA 251145Z 22008KT 150V310 9999 FEW080 SCT200 31/19
                        Q1012=
201206251115 METAR LIRA 251115Z 19009KT 150V270 9999 FEW080 SCT200 31/20
                        Q1012=
201206251045 METAR LIRA 251045Z 16007KT 110V240 9999 FEW080 SCT200 32/19
                        Q1013=
201206251015 METAR LIRA 251015Z 18007KT 150V220 9999 FEW080 SCT200 30/18
                        Q1013=
201206251000 METAR LIRA INTER SLT TS CB N-SE/SW=
201206250945 METAR LIRA 250945Z 20009KT 170V240 9999 FEW080 SCT200 30/19
                        Q1013=
201206250915 METAR LIRA 250915Z 19009KT 130V230 9999 FEW080 SCT200 29/20
                        Q1013=
201206250845 METAR LIRA 250845Z 18010KT 9999 FEW080 SCT200 29/20 Q1013=
201206250815 METAR LIRA 250815Z 17011KT 9999 FEW080 SCT200 28/18 Q1013=
201206250745 METAR LIRA 250745Z 18011KT 9999 FEW080 SCT200 28/18 Q1013=
201206250715 METAR LIRA 250715Z 02002KT 9999 FEW080 SCT200 27/16 Q1013=
201206250645 METAR LIRA 250645Z 04003KT 9999 FEW080 SCT200 25/15 Q1013=
201206250615 METAR LIRA 250615Z 31003KT 9999 FEW080 SCT200 24/15 Q1013=
201206250545 METAR LIRA 250545Z 27003KT 9999 FEW080 SCT200 23/15 Q1013=
201206250515 METAR LIRA 250515Z 24002KT 9999 FEW080 SCT200 21/13 Q1013=
201206250445 METAR LIRA 250445Z 06002KT 9999 FEW080 SCT200 20/12 Q1013=
201206250415 METAR LIRA 250415Z 00000KT 9999 FEW080 SCT200 19/11 Q1013=
201206250345 METAR LIRA 250345Z 07002KT CAVOK 19/10 Q1013=
201206250315 METAR LIRA 250315Z 09003KT CAVOK 19/11 Q1013=
201206250245 METAR LIRA 250245Z 03002KT CAVOK 20/11 Q1013=
201206250215 METAR LIRA 250215Z 35002KT CAVOK 20/12 Q1013=
201206250145 METAR LIRA 250145Z 06001KT CAVOK 20/13 Q1014=
201206250115 METAR LIRA 250115Z 15002KT CAVOK 20/12 Q1014=
201206250045 METAR LIRA 250045Z 16002KT CAVOK 22/14 Q1014=
201206250015 METAR LIRA 250015Z 17003KT CAVOK 21/14 Q1014=
201206242350 METAR LIRA 250045Z 16002KT CAVOK 22/14 Q1014=
201206242345 METAR LIRA 242345Z 16003KT CAVOK 23/13 Q1014=
201206242315 METAR LIRA 242315Z 19003KT CAVOK 23/11 Q1015=
201206242245 METAR LIRA 242245Z 19001KT CAVOK 24/13 Q1015=
201206242215 METAR LIRA 242215Z 18003KT CAVOK 23/12 Q1015=
201206242145 METAR LIRA 242145Z 19002KT CAVOK 24/12 Q1015=
201206242115 METAR LIRA 242115Z 16002KT CAVOK 25/13 Q1015=
201206242045 METAR LIRA 242045Z 18003KT CAVOK 25/13 Q1015=
201206242015 METAR LIRA 242015Z 18002KT CAVOK 26/13 Q1015=
201206241945 METAR LIRA 241945Z 19003KT CAVOK 26/12 Q1015=
201206241915 METAR LIRA 241915Z 19004KT CAVOK 27/11 Q1015=
201206241845 METAR LIRA 241845Z 22003KT CAVOK 28/10 Q1015=
201206241815 METAR LIRA 241815Z 25004KT CAVOK 29/11 Q1015=
201206241745 METAR LIRA 241745Z 24006KT CAVOK 30/10 Q1015=
201206241715 METAR LIRA 241715Z 26005KT 230V310 CAVOK 31/10 Q1015=
201206241645 METAR LIRA 241645Z 27008KT 240V300 CAVOK 31/10 Q1015=
201206241615 METAR LIRA 241615Z 27009KT 230V300 CAVOK 31/10 Q1015=
201206241545 METAR LIRA 241545Z 27008KT 210V300 CAVOK 31/10 Q1015=
201206241515 METAR LIRA 241515Z 27010KT 230V300 CAVOK 32/10 Q1015=
201206241445 METAR LIRA 241445Z 27009KT 220V310 9999 FEW050 32/10 Q1016=
201206241415 METAR LIRA 241415Z 27009KT 230V300 9999 FEW040 33/10 Q1016=
201206241345 METAR LIRA 241345Z 28010KT 240V320 9999 FEW030 33/10 Q1016=
201206241315 METAR LIRA 241315Z 28009KT 220V320 9999 FEW030 33/10 Q1016=
201206241245 METAR LIRA 241245Z 29008KT 9999 FEW030 33/11 Q1016=
201206241215 METAR LIRA 241215Z 27007KT 220V320 9999 FEW030 32/12 Q1016=
201206241145 METAR LIRA 241145Z 24007KT 210V300 9999 FEW030 32/12 Q1016=
201206241115 METAR LIRA 241115Z 27005KT 210V310 9999 FEW030 32/14 Q1016=
201206241045 METAR LIRA 241045Z 20005KT 160V230 9999 FEW070 31/15 Q1017=
201206241015 METAR LIRA 241015Z 24005KT 190V280 9999 FEW070 30/15 Q1017=
201206240945 METAR LIRA 240945Z 23005KT 170V280 9999 FEW070 30/18 Q1017=
201206240915 METAR LIRA 240915Z 21005KT 160V270 9999 FEW070 30/19 Q1017=
201206240845 METAR LIRA 240845Z 25004KT 210V280 CAVOK 29/17 Q1017=
201206240815 METAR LIRA 240815Z 25004KT CAVOK 28/17 Q1017=
201206240745 METAR LIRA 240745Z 26004KT CAVOK 27/16 Q1017=
201206240715 METAR LIRA 240715Z 30004KT CAVOK 26/15 Q1017=
201206240645 METAR LIRA 240645Z 02001KT CAVOK 25/14 Q1017=
201206240615 METAR LIRA 240615Z 34003KT CAVOK 24/15 Q1017=
201206240545 METAR LIRA 240545Z 02003KT 9999 FEW020 23/14 Q1017=
201206240515 METAR LIRA 240515Z 35003KT 9999 FEW020 23/15 Q1017=
201206240445 METAR LIRA 240445Z 07003KT 9999 FEW020 21/14 Q1017=
201206240415 METAR LIRA 240415Z 02002KT CAVOK 21/13 Q1017=
201206240345 METAR LIRA 240345Z 05005KT CAVOK 20/13 Q1017=
201206240315 METAR LIRA 240315Z 04004KT CAVOK 20/13 Q1017=
201206240245 METAR LIRA 240245Z 06004KT CAVOK 20/13 Q1017=
201206240215 METAR LIRA 240215Z 04005KT CAVOK 20/13 Q1017=
201206240145 METAR LIRA 240145Z 06004KT CAVOK 21/12 Q1017=
201206240115 METAR LIRA 240115Z 05002KT CAVOK 21/12 Q1017=
201206240045 METAR LIRA 240045Z 04002KT CAVOK 21/12 Q1017=
201206240015 METAR LIRA 240015Z 00000KT CAVOK 21/12 Q1017=
201206232350 METAR LIRA 240045Z 04002KT CAVOK 21/12 Q1017=
201206232345 METAR LIRA 232345Z 00000KT CAVOK 21/12 Q1017=
201206232315 METAR LIRA 232315Z 12002KT CAVOK 22/12 Q1017=
201206232245 METAR LIRA 232245Z 00000KT CAVOK 23/10 Q1017=
201206232215 METAR LIRA 232215Z 11001KT CAVOK 24/10 Q1017=
201206232145 METAR LIRA 232145Z 11002KT CAVOK 24/09 Q1018=
201206232115 METAR LIRA 232115Z 13002KT CAVOK 25/09 Q1018=
201206232045 METAR LIRA 232045Z 17001KT CAVOK 25/08 Q1018=
201206232015 METAR LIRA 232015Z 19002KT CAVOK 27/09 Q1017=
201206231945 METAR LIRA 231945Z 19003KT CAVOK 27/08 Q1017=
201206231915 METAR LIRA 231915Z 22003KT CAVOK 28/08 Q1017=
201206231845 METAR LIRA 231845Z 24003KT CAVOK 29/09 Q1017=
201206231815 METAR LIRA 231815Z 26004KT CAVOK 30/10 Q1017=
201206231745 METAR LIRA 231745Z 27007KT 220V350 CAVOK 31/11 Q1017=
201206231715 METAR LIRA 231715Z 27006KT 230V320 CAVOK 31/11 Q1017=
201206231645 METAR LIRA 231645Z 25010KT 220V330 CAVOK 31/11 Q1017=
201206231615 METAR LIRA 231615Z 27009G19KT 210V310 CAVOK 31/11 Q1017=
201206231545 METAR LIRA 231545Z 25011KT 150V300 CAVOK 32/11 Q1017=
201206231515 METAR LIRA 231515Z 26012KT 220V310 CAVOK 32/11 Q1017=
201206231445 METAR LIRA 231445Z 28011KT 240V320 CAVOK 33/11 Q1017=
201206231415 METAR LIRA 231415Z 28011KT 250V310 CAVOK 33/11 Q1017=
201206231345 METAR LIRA 231345Z 28010KT 220V310 CAVOK 33/12 Q1017=
201206231315 METAR LIRA 231315Z 27012KT 250V320 CAVOK 33/12 Q1017=
201206231245 METAR LIRA 231245Z 29011KT 230V310 CAVOK 34/11 Q1017=
201206231215 METAR LIRA 231215Z 30010KT 220V310 CAVOK 34/06 Q1017=
201206231145 METAR LIRA 231145Z 02005G15KT 240V020 CAVOK 35/06 Q1017=
201206231115 METAR LIRA 231115Z 28004KT 240V340 CAVOK 34/05 Q1017=
201206231045 METAR LIRA 231045Z 32007KT 280V360 CAVOK 34/06 Q1018=
201206231015 METAR LIRA 231015Z 35005KT 300V010 CAVOK 34/08 Q1018=
201206230945 METAR LIRA 230945Z 33007KT 290V010 CAVOK 33/09 Q1018=
201206230915 METAR LIRA 230915Z 33010KT 290V020 CAVOK 32/12 Q1018=
201206230845 METAR LIRA 230845Z 35007KT 320V060 CAVOK 32/14 Q1017=
201206230815 METAR LIRA 230815Z 02003KT 320V070 CAVOK 31/16 Q1017=
201206230745 METAR LIRA 230745Z 05003KT CAVOK 29/19 Q1017=
201206230715 METAR LIRA 230715Z 06005KT CAVOK 28/21 Q1017=
201206230645 METAR LIRA 230645Z 04001KT CAVOK 26/21 Q1017=
201206230615 METAR LIRA 230615Z 34003KT CAVOK 25/20 Q1017=
201206230545 METAR LIRA 230545Z 35004KT CAVOK 24/20 Q1017=
201206230515 METAR LIRA 230515Z 05002KT CAVOK 24/20 Q1017=
201206230445 METAR LIRA 230445Z 05002KT CAVOK 22/20 Q1017=
201206230415 METAR LIRA 230415Z 06005KT CAVOK 21/19 Q1017=
201206230345 METAR LIRA 230345Z 01003KT CAVOK 21/19 Q1016=
201206230315 METAR LIRA 230315Z 03004KT CAVOK 22/20 Q1016=
201206230245 METAR LIRA 230245Z 03002KT CAVOK 22/20 Q1016=
201206230215 METAR LIRA 230215Z 03002KT CAVOK 22/20 Q1016=
201206230145 METAR LIRA 230145Z 31001KT CAVOK 23/20 Q1016=
201206230115 METAR LIRA 230115Z 08002KT CAVOK 22/20 Q1016=
201206230045 METAR LIRA 230045Z 00000KT CAVOK 22/20 Q1016=
201206230015 METAR LIRA 230015Z 13002KT CAVOK 22/20 Q1016=
201206222350 METAR LIRA 230045Z 00000KT CAVOK 22/20 Q1016=
201206222345 METAR LIRA 222345Z 00000KT 9999 FEW070 24/21 Q1016=
201206222315 METAR LIRA 222315Z 00000KT 9999 FEW070 24/20 Q1016=
201206222245 METAR LIRA 222245Z 10002KT 9999 FEW070 24/20 Q1015=
201206222215 METAR LIRA 222215Z 00000KT 9999 FEW070 24/20 Q1015=
201206222145 METAR LIRA 222145Z 20002KT 9999 FEW070 25/20 Q1015=
201206222115 METAR LIRA 222115Z 21002KT 9999 FEW070 25/20 Q1015=
201206222045 METAR LIRA 222045Z 17003KT 9999 FEW070 25/20 Q1015=
201206222015 METAR LIRA 222015Z 19005KT 9999 FEW070 26/19 Q1015=
201206221945 METAR LIRA 221945Z 19005KT 9999 FEW070 26/19 Q1015=
201206221915 METAR LIRA 221915Z 20007KT CAVOK 26/19 Q1015=
201206221845 METAR LIRA 221845Z 20004KT CAVOK 28/19 Q1015=
201206221815 METAR LIRA 221815Z 23006KT CAVOK 29/18 Q1014=
201206221745 METAR LIRA 221745Z 24005KT 210V270 9999 FEW022 31/18 Q1014=
201206221715 METAR LIRA 221715Z 23004KT 9999 FEW022 31/18 Q1014=
201206221645 METAR LIRA 221645Z 27007KT 190V300 9999 FEW022 31/17 Q1014=
201206221615 METAR LIRA 221615Z 26008KT 220V310 9999 FEW022 31/17 Q1014=
201206221545 METAR LIRA 221545Z 27009KT 230V300 CAVOK 31/17 Q1014=
201206221515 METAR LIRA 221515Z 29011KT 240V310 CAVOK 32/16 Q1014=
201206221445 METAR LIRA 221445Z 28011KT 220V360 CAVOK 32/16 Q1014=
201206221415 METAR LIRA 221415Z 28011KT 230V300 CAVOK 32/16 Q1014=
201206221345 METAR LIRA 221345Z 28010KT 200V310 CAVOK 33/16 Q1014=
201206221315 METAR LIRA 221315Z 28012KT 240V310 CAVOK 33/17 Q1014=
201206221245 METAR LIRA 221245Z 28010KT 230V320 CAVOK 33/16 Q1014=
201206221215 METAR LIRA 221215Z 31008KT 290V010 CAVOK 34/16 Q1014=
201206221145 METAR LIRA 221145Z 33007KT 300V040 CAVOK 33/16 Q1014=
201206221115 METAR LIRA 221115Z 30009KT 280V340 CAVOK 33/16 Q1014=
201206221045 METAR LIRA 221045Z 34006G16KT 310V050 CAVOK 32/16 Q1014=
201206221015 METAR LIRA 221015Z 33009KT 300V010 CAVOK 32/15 Q1014=
201206220945 METAR LIRA 220945Z 35007G18KT 290V100 CAVOK 32/15 Q1014=
201206220915 METAR LIRA 220915Z 32009KT 280V350 CAVOK 31/15 Q1014=
201206220845 METAR LIRA 220845Z 01008KT 320V100 CAVOK 30/15 Q1014=
201206220815 METAR LIRA 220815Z 01008KT 320V050 CAVOK 29/15 Q1014=
201206220745 METAR LIRA 220745Z 02007KT 340V070 CAVOK 28/18 Q1014=
201206220715 METAR LIRA 220715Z 02007KT 350V060 CAVOK 27/18 Q1014=
201206220645 METAR LIRA 220645Z 03005KT 340V060 CAVOK 26/19 Q1014=
201206220615 METAR LIRA 220615Z 03006KT 350V090 CAVOK 24/20 Q1014=
201206220545 METAR LIRA 220545Z 02005KT CAVOK 23/20 Q1013=
201206220515 METAR LIRA 220515Z 03005KT 8000 FEW003 22/20 Q1013=
201206220445 METAR LIRA 220445Z 01003KT 7000 FEW003 22/20 Q1013=
201206220415 METAR LIRA 220415Z 03003KT CAVOK 21/19 Q1013=
201206220345 METAR LIRA 220345Z 01002KT CAVOK 20/19 Q1012=
201206220315 METAR LIRA 220315Z 01001KT CAVOK 20/19 Q1012=
201206220245 METAR LIRA 220245Z 04003KT 9999 FEW003 20/19 Q1012=
201206220215 METAR LIRA 220215Z 04003KT 9999 FEW003 20/19 Q1012=
201206220145 METAR LIRA 220145Z 06002KT 9999 FEW003 20/19 Q1012=
201206220115 METAR LIRA 220115Z 00000KT CAVOK 21/19 Q1012=
201206220045 METAR LIRA 220045Z 27001KT CAVOK 21/19 Q1012=
201206220015 METAR LIRA 220015Z 25002KT CAVOK 21/20 Q1012=
201206212350 METAR LIRA 220045Z 27001KT CAVOK 21/19 Q1012=
201206212345 METAR LIRA 212345Z 27002KT CAVOK 21/20 Q1012=
201206212315 METAR LIRA 212315Z 00000KT CAVOK 21/20 Q1012=
201206212245 METAR LIRA 212245Z 00000KT CAVOK 21/20 Q1012=
201206212215 METAR LIRA 212215Z 02001KT CAVOK 22/20 Q1012=
201206212145 METAR LIRA 212145Z 27002KT CAVOK 22/20 Q1012=
201206212115 METAR LIRA 212115Z 25002KT CAVOK 22/21 Q1012=
201206212045 METAR LIRA 212045Z 24002KT CAVOK 23/22 Q1012=
201206212015 METAR LIRA 212015Z 22002KT CAVOK 23/21 Q1011=
201206211945 METAR LIRA 211945Z 22002KT CAVOK 24/22 Q1011=
201206211915 METAR LIRA 211915Z 22002KT 9999 FEW080 24/22 Q1011=
201206211845 METAR LIRA 211845Z 22004KT 9999 FEW080 25/22 Q1011=
201206211815 METAR LIRA 211815Z 04005KT 9999 FEW080 25/21 Q1011=
201206211745 METAR LIRA 211745Z 23007KT 200V290 9999 FEW080 26/22 Q1011=
201206211715 METAR LIRA 211715Z 24008KT 9999 FEW080 28/22 Q1011=
201206211645 METAR LIRA 211645Z 22007KT 150V260 9999 FEW080 29/17 Q1011=
201206211615 METAR LIRA 211615Z 19008KT 9999 FEW080 30/16 Q1011=
201206211545 METAR LIRA 211545Z 18008KT 150V220 CAVOK 30/16 Q1011=
201206211515 METAR LIRA 211515Z 18009KT 150V240 CAVOK 30/16 Q1011=
201206211445 METAR LIRA 211445Z 21007KT 150V250 CAVOK 30/16 Q1011=
201206211415 METAR LIRA 211415Z 20010KT 170V240 CAVOK 30/16 Q1011=
201206211345 METAR LIRA 211345Z 21010KT 180V240 CAVOK 31/15 Q1011=
201206211315 METAR LIRA 211315Z 20011KT 160V240 CAVOK 31/15 Q1011=
201206211245 METAR LIRA 211245Z 19011KT 160V220 CAVOK 31/15 Q1011=
201206211215 METAR LIRA 211215Z 19012KT 160V220 CAVOK 31/13 Q1011=
201206211200 METAR LIRA INT=
201206211145 METAR LIRA 211145Z 21011KT 170V260 CAVOK 32/11 Q1011=
201206211115 METAR LIRA 211115Z 20011KT 170V230 CAVOK 33/12 Q1011=
201206211045 METAR LIRA 211045Z 19011KT 150V220 CAVOK 33/12 Q1011=
201206211015 METAR LIRA 211015Z 19010KT CAVOK 32/14 Q1011=
201206211000 METAR LIRA INT=
201206210945 METAR LIRA 210945Z 17011KT CAVOK 32/13 Q1011=
201206210915 METAR LIRA 210915Z 17011KT 130V220 CAVOK 31/14 Q1011=
201206210900 METAR LIRA INT=
201206210845 METAR LIRA 210845Z 19011KT 150V220 CAVOK 31/13 Q1011=
201206210815 METAR LIRA 210815Z 18010KT CAVOK 30/13 Q1011=
201206210745 METAR LIRA 210745Z 18011KT CAVOK 29/13 Q1011=
201206210715 METAR LIRA 210715Z 16008KT 120V220 CAVOK 29/13 Q1011=
201206210645 METAR LIRA 210645Z 31002KT CAVOK 26/17 Q1011=
201206210615 METAR LIRA 210615Z 02003KT CAVOK 25/17 Q1011=
201206210545 METAR LIRA 210545Z 06004KT CAVOK 24/17 Q1011=
201206210515 METAR LIRA 210515Z 05004KT CAVOK 22/16 Q1011=
201206210445 METAR LIRA 210445Z 08002KT CAVOK 20/14 Q1011=
201206210415 METAR LIRA 210415Z 00000KT CAVOK 20/14 Q1011=
201206210345 METAR LIRA 210345Z 29003KT 9999 FEW010 20/13 Q1011=
201206210315 METAR LIRA 210315Z 23003KT CAVOK 20/14 Q1011=
201206210245 METAR LIRA 210245Z 27001KT CAVOK 20/13 Q1011=
201206210145 METAR LIRA 210145Z 15001KT CAVOK 22/12 Q1011=
201206210115 METAR LIRA 210115Z 13001KT CAVOK 22/12 Q1011=
201206210045 METAR LIRA 210045Z 13001KT CAVOK 22/12 Q1011=
201206210015 METAR LIRA 210015Z 16003KT CAVOK 23/13 Q1012=
201206202350 METAR LIRA 210045Z 13001KT CAVOK 22/12 Q1011=
201206202345 METAR LIRA 202345Z 12002KT CAVOK 24/12 Q1012=
201206202315 METAR LIRA 202315Z 08002KT CAVOK 23/11 Q1012=
201206202245 METAR LIRA 202245Z 07003KT CAVOK 23/12 Q1012=
201206202215 METAR LIRA 202215Z 10003KT CAVOK 23/14 Q1012=
201206202145 METAR LIRA 202145Z 09003KT CAVOK 24/14 Q1013=
201206202115 METAR LIRA 202115Z 00000KT CAVOK 24/14 Q1013=
201206202045 METAR LIRA 202045Z 00000KT CAVOK 24/14 Q1013=
201206202015 METAR LIRA 202015Z 23002KT CAVOK 25/14 Q1013=
201206201945 METAR LIRA 201945Z 22002KT CAVOK 26/13 Q1013=
201206201915 METAR LIRA 201915Z 18005KT CAVOK 26/13 Q1013=
201206201845 METAR LIRA 201845Z 20004KT CAVOK 27/12 Q1013=
201206201815 METAR LIRA 201815Z 22004KT CAVOK 28/11 Q1013=
201206201745 METAR LIRA 201745Z 24007KT 9999 FEW050 SCT080 29/11 Q1012=
201206201715 METAR LIRA 201715Z 21005KT 9999 BKN080 30/12 Q1012=
201206201645 METAR LIRA 201645Z 20007KT 9999 SCT080 31/13 Q1012=
201206201615 METAR LIRA 201615Z 24007KT 9999 FEW080 32/14 Q1012=
201206201545 METAR LIRA 201545Z 22007KT 9999 FEW080 32/14 Q1013=
201206201515 METAR LIRA 201515Z 25008KT 9999 FEW080 32/16 Q1013=
201206201445 METAR LIRA 201445Z 24009KT 210V300 9999 FEW080 33/15 Q1013=
201206201415 METAR LIRA 201415Z 24008KT 210V300 9999 FEW080 34/16 Q1013=
201206201345 METAR LIRA 201345Z 23006KT 180V310 9999 FEW080 35/15 Q1013=
201206201315 METAR LIRA 201315Z 23007KT 170V300 9999 FEW080 35/16 Q1013=
201206201245 METAR LIRA 201245Z 19004KT 160V240 CAVOK 35/15 Q1013=
201206201215 METAR LIRA 201215Z 20006KT 150V240 CAVOK 35/15 Q1013=
201206201145 METAR LIRA 201145Z 11004KT CAVOK 35/11 Q1014=
201206201115 METAR LIRA 201115Z 30003KT CAVOK 35/10 Q1014=
201206201045 METAR LIRA 201045Z 03002KT CAVOK 35/11 Q1014=
201206201015 METAR LIRA 201015Z 04002KT CAVOK 34/10 Q1015=
201206200945 METAR LIRA 200945Z 31003KT CAVOK 33/09 Q1015=
201206200915 METAR LIRA 200915Z 18002KT CAVOK 32/13 Q1015=
201206200845 METAR LIRA 200845Z 19001KT CAVOK 31/14 Q1015=
201206200815 METAR LIRA 200815Z 22002KT 9999 FEW080 30/13 Q1015=
201206200745 METAR LIRA 200745Z 11001KT 9999 FEW080 28/13 Q1015=
201206200715 METAR LIRA 200715Z 35001KT 9999 FEW080 27/14 Q1015=
201206200645 METAR LIRA 200645Z 04002KT 9999 FEW080 26/15 Q1015=
201206200615 METAR LIRA 200615Z 36002KT 9999 FEW080 24/15 Q1015=
201206200545 METAR LIRA 200545Z 01001KT 9999 FEW080 22/15 Q1014=
201206200515 METAR LIRA 200515Z 02001KT 9999 FEW080 21/14 Q1014=
201206200445 METAR LIRA 200445Z 05002KT 9999 FEW080 20/14 Q1014=
201206200415 METAR LIRA 200415Z 06002KT 9999 FEW080 19/13 Q1014=
201206200345 METAR LIRA 200345Z 07001KT CAVOK 19/14 Q1014=
201206200315 METAR LIRA 200315Z 07003KT CAVOK 19/15 Q1014=
201206200245 METAR LIRA 200245Z 35001KT CAVOK 20/15 Q1014=
201206200215 METAR LIRA 200215Z 05002KT CAVOK 20/15 Q1014=
201206200145 METAR LIRA 200145Z 00000KT CAVOK 20/16 Q1014=
201206200115 METAR LIRA 200115Z 13002KT CAVOK 20/18 Q1014=
201206200045 METAR LIRA 200045Z 27003KT CAVOK 20/16 Q1014=
201206200015 METAR LIRA 200015Z 35001KT CAVOK 21/13 Q1014=
201206192350 METAR LIRA 200045Z 27003KT CAVOK 20/16 Q1014=
201206192345 METAR LIRA 192345Z 07002KT CAVOK 21/14 Q1014=
201206192315 METAR LIRA 192315Z 00000KT CAVOK 22/17 Q1015=
201206192245 METAR LIRA 192245Z 14002KT CAVOK 22/17 Q1015=
201206192215 METAR LIRA 192215Z 21001KT CAVOK 23/18 Q1015=
201206192145 METAR LIRA 192145Z 16004KT CAVOK 24/19 Q1015=
201206192115 METAR LIRA 192115Z 20003KT CAVOK 24/17 Q1015=
201206192045 METAR LIRA 192045Z 21003KT CAVOK 24/16 Q1015=
201206192015 METAR LIRA 192015Z 23004KT CAVOK 24/15 Q1015=
201206191945 METAR LIRA 191945Z 24005KT CAVOK 24/14 Q1015=
201206191915 METAR LIRA 191915Z 22003KT CAVOK 26/14 Q1015=
201206191845 METAR LIRA 191845Z 23003KT CAVOK 27/13 Q1015=
201206191815 METAR LIRA 191815Z 23002KT CAVOK 28/12 Q1015=
201206191745 METAR LIRA 191745Z 26004KT CAVOK 29/13 Q1015=
201206191715 METAR LIRA 191715Z 26005KT CAVOK 30/13 Q1015=
201206191645 METAR LIRA 191645Z 26004KT CAVOK 30/13 Q1015=
201206191615 METAR LIRA 191615Z 26006KT 230V300 CAVOK 31/13 Q1015=
201206191545 METAR LIRA 191545Z 26007KT 220V290 CAVOK 32/12 Q1015=
201206191515 METAR LIRA 191515Z 27008KT 220V290 CAVOK 32/13 Q1015=
201206191445 METAR LIRA 191445Z 27007KT 240V310 CAVOK 33/11 Q1015=
201206191415 METAR LIRA 191415Z 24006KT 200V280 CAVOK 33/11 Q1015=
201206191345 METAR LIRA 191345Z 26007KT 210V300 CAVOK 33/12 Q1015=
201206191315 METAR LIRA 191315Z 27007KT 230V300 CAVOK 33/11 Q1015=
201206191245 METAR LIRA 191245Z 24007KT 220V280 CAVOK 34/11 Q1015=
201206191215 METAR LIRA 191215Z 22008KT 180V260 CAVOK 34/11 Q1015=
201206191145 METAR LIRA 191145Z 24009KT 190V290 CAVOK 34/13 Q1015=
201206191115 METAR LIRA 191115Z 23008KT 160V290 CAVOK 34/13 Q1015=
201206191045 METAR LIRA 191045Z 23005KT 190V290 CAVOK 35/12 Q1015=
201206191015 METAR LIRA 191015Z 15004KT CAVOK 34/11 Q1016=
201206190945 METAR LIRA 190945Z 18005KT 160V230 CAVOK 34/11 Q1016=
201206190915 METAR LIRA 190915Z 17003KT CAVOK 33/13 Q1015=
201206190845 METAR LIRA 190845Z 25004KT CAVOK 31/12 Q1015=
201206190815 METAR LIRA 190815Z 30001KT CAVOK 29/13 Q1015=
201206190745 METAR LIRA 190745Z 07001KT CAVOK 28/12 Q1015=
201206190715 METAR LIRA 190715Z 03002KT CAVOK 27/11 Q1015=
201206190645 METAR LIRA 190645Z 36003KT CAVOK 26/12 Q1015=
201206190615 METAR LIRA 190615Z 06002KT CAVOK 25/13 Q1015=
201206190545 METAR LIRA 190545Z 02002KT CAVOK 23/12 Q1015=
201206190515 METAR LIRA 190515Z 34001KT CAVOK 21/12 Q1015=
201206190445 METAR LIRA 190445Z 35002KT CAVOK 20/12 Q1015=
201206190415 METAR LIRA 190415Z 00000KT CAVOK 19/14 Q1015=
201206190345 METAR LIRA 190345Z 04002KT CAVOK 20/13 Q1015=
201206190315 METAR LIRA 190315Z 34002KT CAVOK 21/15 Q1015=
201206190245 METAR LIRA 190245Z 02003KT CAVOK 21/17 Q1015=
201206190215 METAR LIRA 190215Z 06005KT CAVOK 21/20 Q1015=
201206190145 METAR LIRA 190145Z 06003KT CAVOK 21/17 Q1015=
201206190115 METAR LIRA 190115Z 07002KT CAVOK 21/19 Q1015=
201206190045 METAR LIRA 190045Z 00000KT CAVOK 22/20 Q1016=
201206190015 METAR LIRA 190015Z 19001KT CAVOK 22/18 Q1016=
201206182350 METAR LIRA 190045Z 00000KT CAVOK 22/20 Q1016=
201206182345 METAR LIRA 182345Z 18001KT CAVOK 22/17 Q1016=
201206182315 METAR LIRA 182315Z 23001KT CAVOK 23/16 Q1016=
201206182245 METAR LIRA 182245Z 29002KT CAVOK 23/14 Q1016=
201206182215 METAR LIRA 182215Z 33001KT CAVOK 24/14 Q1016=
201206182145 METAR LIRA 182145Z 15003KT CAVOK 25/11 Q1016=
201206182115 METAR LIRA 182115Z 14002KT CAVOK 25/13 Q1016=
201206182045 METAR LIRA 182045Z 20002KT CAVOK 25/13 Q1015=
201206182015 METAR LIRA 182015Z 17004KT CAVOK 27/15 Q1015=
201206181945 METAR LIRA 181945Z 20003KT CAVOK 26/16 Q1015=
201206181915 METAR LIRA 181915Z 22003KT CAVOK 27/16 Q1015=
201206181845 METAR LIRA 181845Z 23004KT CAVOK 28/13 Q1015=
201206181815 METAR LIRA 181815Z 23003KT CAVOK 29/13 Q1015=
201206181745 METAR LIRA 181745Z 26005KT 250V290 CAVOK 30/13 Q1015=
201206181715 METAR LIRA 181715Z 27006KT 220V310 CAVOK 30/11 Q1015=
201206181645 METAR LIRA 181645Z 26007KT 220V300 CAVOK 32/11 Q1015=
201206181615 METAR LIRA 181615Z 22008KT 190V250 CAVOK 33/11 Q1014=
201206181545 METAR LIRA 181545Z 21006KT 180V250 CAVOK 33/11 Q1014=
201206181515 METAR LIRA 181515Z 24007KT 200V290 CAVOK 33/12 Q1015=
201206181445 METAR LIRA 181445Z 24008KT 210V310 CAVOK 33/12 Q1015=
201206181415 METAR LIRA 181415Z 24009KT 200V280 CAVOK 34/12 Q1015=
201206181345 METAR LIRA 181345Z 26009KT 200V310 CAVOK 34/12 Q1015=
201206181315 METAR LIRA 181315Z 26009KT 230V300 CAVOK 34/12 Q1015=
201206181245 METAR LIRA 181245Z 26009KT 210V300 CAVOK 35/12 Q1015=
201206181215 METAR LIRA 181215Z 33006KT 270V340 CAVOK 35/12 Q1015=
201206181145 METAR LIRA 181145Z 27005KT 180V310 CAVOK 34/15 Q1016=
201206181115 METAR LIRA 181115Z 13005KT CAVOK 34/17 Q1016=
201206181045 METAR LIRA 181045Z 07004KT CAVOK 34/17 Q1016=
201206181015 METAR LIRA 181015Z 25003KT CAVOK 33/17 Q1016=
201206180945 METAR LIRA 180945Z 23003KT CAVOK 33/18 Q1016=
201206180915 METAR LIRA 180915Z 14003KT CAVOK 32/17 Q1016=
201206180845 METAR LIRA 180845Z 27004KT CAVOK 32/18 Q1016=
201206180815 METAR LIRA 180815Z 24003KT CAVOK 30/19 Q1017=
201206180745 METAR LIRA 180745Z 25002KT CAVOK 29/19 Q1017=
201206180715 METAR LIRA 180715Z 29002KT CAVOK 27/18 Q1017=
201206180645 METAR LIRA 180645Z 35002KT CAVOK 26/18 Q1016=
201206180615 METAR LIRA 180615Z 01002KT CAVOK 25/18 Q1016=
201206180545 METAR LIRA 180545Z 06003KT CAVOK 24/18 Q1016=
201206180515 METAR LIRA 180515Z 04003KT CAVOK 22/17 Q1015=
201206180445 METAR LIRA 180445Z 04003KT CAVOK 21/17 Q1015=
201206180415 METAR LIRA 180415Z 04003KT CAVOK 21/16 Q1015=
201206180345 METAR LIRA 180345Z 06002KT CAVOK 20/16 Q1015=
201206180315 METAR LIRA 180315Z 36002KT CAVOK 20/16 Q1015=
201206180245 METAR LIRA 180245Z 04003KT CAVOK 21/16 Q1015=
201206180215 METAR LIRA 180215Z 03002KT CAVOK 21/16 Q1016=
201206180145 METAR LIRA 180145Z 06001KT CAVOK 22/15 Q1016=
201206180115 METAR LIRA 180115Z 03002KT CAVOK 22/15 Q1016=
201206180045 METAR LIRA 180045Z 06001KT CAVOK 22/15 Q1016=
201206180015 METAR LIRA 180015Z 00000KT CAVOK 23/15 Q1016=
201206172350 METAR LIRA 180045Z 06001KT CAVOK 22/15 Q1016=
201206172345 METAR LIRA 172345Z 09001KT CAVOK 23/16 Q1016=
201206172315 METAR LIRA 172315Z 05001KT CAVOK 23/16 Q1017=
201206172245 METAR LIRA 172245Z 09002KT CAVOK 23/16 Q1017=
201206172215 METAR LIRA 172215Z 01003KT CAVOK 24/16 Q1017=
201206172145 METAR LIRA 172145Z 10003KT CAVOK 24/15 Q1017=
201206172115 METAR LIRA 172115Z 13002KT CAVOK 25/17 Q1017=
201206172045 METAR LIRA 172045Z 12003KT CAVOK 25/16 Q1017=
201206172015 METAR LIRA 172015Z 17002KT CAVOK 25/15 Q1016=
201206171945 METAR LIRA 171945Z 18002KT CAVOK 25/15 Q1016=
201206171915 METAR LIRA 171915Z 24002KT CAVOK 26/15 Q1016=
201206171845 METAR LIRA 171845Z 26002KT CAVOK 28/16 Q1016=
201206171815 METAR LIRA 171815Z 25004KT CAVOK 29/16 Q1016=
201206171745 METAR LIRA 171745Z 24005KT CAVOK 29/13 Q1016=
201206171715 METAR LIRA 171715Z 23006KT CAVOK 30/13 Q1016=
201206171645 METAR LIRA 171645Z 24006KT 200V290 CAVOK 31/14 Q1016=
201206171615 METAR LIRA 171615Z 26006KT 220V300 CAVOK 32/14 Q1016=
201206171545 METAR LIRA 171545Z 25007KT 220V290 CAVOK 32/14 Q1016=
201206171515 METAR LIRA 171515Z 23006KT 170V260 CAVOK 33/14 Q1016=
201206171445 METAR LIRA 171445Z 20007KT 180V250 CAVOK 33/15 Q1017=
201206171415 METAR LIRA 171415Z 24007KT 200V280 CAVOK 33/15 Q1017=
201206171345 METAR LIRA 171345Z 22007KT 180V260 CAVOK 33/16 Q1017=
201206171315 METAR LIRA 171315Z 23007KT 180V270 9999 FEW030 33/17 Q1017=
201206171245 METAR LIRA 171245Z 23008KT 190V260 9999 FEW025 33/18 Q1017=
201206171215 METAR LIRA 171215Z 22007KT 160V290 9999 FEW025 33/18 Q1017=
201206171145 METAR LIRA 171145Z 23006KT 170V300 9999 FEW020 33/18 Q1017=
201206171115 METAR LIRA 171115Z 22008KT 180V260 9999 FEW020 33/18 Q1017=
201206171045 METAR LIRA 171045Z 23007KT 180V320 CAVOK 33/17 Q1017=
201206171015 METAR LIRA 171015Z 23004KT CAVOK 33/18 Q1017=
201206170945 METAR LIRA 170945Z 18003KT CAVOK 32/18 Q1018=
201206170915 METAR LIRA 170915Z 06002KT CAVOK 31/18 Q1018=
201206170845 METAR LIRA 170845Z 12001KT CAVOK 30/18 Q1017=
201206170815 METAR LIRA 170815Z 06001KT CAVOK 28/19 Q1018=
201206170745 METAR LIRA 170745Z 07002KT CAVOK 28/18 Q1018=
201206170715 METAR LIRA 170715Z 35002KT CAVOK 25/18 Q1018=
201206170645 METAR LIRA 170645Z 34002KT CAVOK 24/18 Q1018=
201206170615 METAR LIRA 170615Z 02002KT CAVOK 24/18 Q1017=
201206170545 METAR LIRA 170545Z 03002KT CAVOK 23/18 Q1017=
201206170515 METAR LIRA 170515Z 04003KT CAVOK 22/18 Q1017=
201206170445 METAR LIRA 170445Z 04002KT CAVOK 20/16 Q1017=
201206170415 METAR LIRA 170415Z 06002KT CAVOK 19/17 Q1017=
201206170345 METAR LIRA 170345Z 12001KT CAVOK 19/17 Q1017=
201206170315 METAR LIRA 170315Z 13001KT CAVOK 20/17 Q1017=
201206170245 METAR LIRA 170245Z 00000KT CAVOK 20/17 Q1017=
201206170215 METAR LIRA 170215Z 35002KT CAVOK 20/17 Q1017=
201206170145 METAR LIRA 170145Z 36002KT CAVOK 20/17 Q1017=
201206170115 METAR LIRA 170115Z 04002KT CAVOK 20/16 Q1017=
201206170045 METAR LIRA 170045Z 03002KT CAVOK 21/15 Q1017=
201206170015 METAR LIRA 170015Z 35002KT CAVOK 21/16 Q1017=
201206162350 METAR LIRA 170045Z 03002KT CAVOK 21/15 Q1017=
201206162345 METAR LIRA 162345Z 03003KT CAVOK 22/16 Q1017=
201206162315 METAR LIRA 162315Z 06004KT CAVOK 21/16 Q1018=
201206162245 METAR LIRA 162245Z 09003KT CAVOK 22/16 Q1018=
201206162215 METAR LIRA 162215Z 19002KT CAVOK 22/16 Q1018=
201206162145 METAR LIRA 162145Z 11001KT CAVOK 23/16 Q1018=
201206162115 METAR LIRA 162115Z 00000KT CAVOK 23/15 Q1018=
201206162045 METAR LIRA 162045Z 12001KT CAVOK 23/15 Q1018=
201206162015 METAR LIRA 162015Z 17001KT CAVOK 24/15 Q1018=
201206161945 METAR LIRA 161945Z 23003KT CAVOK 25/15 Q1018=
201206161915 METAR LIRA 161915Z 26002KT CAVOK 26/15 Q1018=
201206161845 METAR LIRA 161845Z 29004KT CAVOK 27/14 Q1018=
201206161815 METAR LIRA 161815Z 30004KT CAVOK 27/13 Q1018=
201206161745 METAR LIRA 161745Z 30003KT CAVOK 28/13 Q1018=
201206161715 METAR LIRA 161715Z 30006KT 240V340 CAVOK 29/15 Q1019=
201206161645 METAR LIRA 161645Z 27005KT 220V320 CAVOK 29/15 Q1019=
201206161615 METAR LIRA 161615Z 26005KT 220V290 CAVOK 30/15 Q1019=
201206161545 METAR LIRA 161545Z 24006KT 200V300 CAVOK 30/16 Q1019=
201206161515 METAR LIRA 161515Z 23005KT 200V280 CAVOK 30/16 Q1019=
201206161445 METAR LIRA 161445Z 23008KT 190V260 CAVOK 30/15 Q1019=
201206161415 METAR LIRA 161415Z 24009KT CAVOK 30/15 Q1019=
201206161345 METAR LIRA 161345Z 21007KT 170V260 CAVOK 30/14 Q1019=
201206161315 METAR LIRA 161315Z 23009KT 200V270 CAVOK 30/14 Q1019=
201206161245 METAR LIRA 161245Z 24010KT CAVOK 30/14 Q1019=
201206161215 METAR LIRA 161215Z 23009KT 200V260 CAVOK 31/15 Q1019=
201206161145 METAR LIRA 161145Z 23005KT 180V270 CAVOK 32/16 Q1019=
201206161115 METAR LIRA 161115Z 25005KT 190V260 CAVOK 32/15 Q1019=
201206161045 METAR LIRA 161045Z 35003KT CAVOK 31/15 Q1019=
201206161015 METAR LIRA 161015Z 26002KT CAVOK 31/15 Q1019=
201206160945 METAR LIRA 160945Z 06002KT CAVOK 30/16 Q1019=
201206160915 METAR LIRA 160915Z 27003KT CAVOK 29/16 Q1019=
201206160845 METAR LIRA 160845Z 23002KT CAVOK 28/17 Q1019=
201206160815 METAR LIRA 160815Z 31003KT CAVOK 27/17 Q1019=
201206160745 METAR LIRA 160745Z 31003KT CAVOK 26/17 Q1019=
201206160715 METAR LIRA 160715Z 36002KT CAVOK 24/17 Q1019=
201206160645 METAR LIRA 160645Z 01002KT CAVOK 24/17 Q1019=
201206160615 METAR LIRA 160615Z 04002KT CAVOK 22/17 Q1019=
201206160545 METAR LIRA 160545Z 01003KT CAVOK 20/15 Q1019=
201206160515 METAR LIRA 160515Z 03003KT CAVOK 19/15 Q1019=
201206160445 METAR LIRA 160445Z 01003KT CAVOK 18/15 Q1019=
201206160415 METAR LIRA 160415Z 04001KT CAVOK 17/14 Q1019=
201206160345 METAR LIRA 160345Z 04002KT CAVOK 17/14 Q1019=
201206160315 METAR LIRA 160315Z 02002KT CAVOK 18/14 Q1019=
201206160245 METAR LIRA 160245Z 01002KT CAVOK 18/14 Q1019=
201206160215 METAR LIRA 160215Z 05002KT CAVOK 18/14 Q1019=
201206160145 METAR LIRA 160145Z 02003KT CAVOK 19/14 Q1019=
201206160115 METAR LIRA 160115Z 03004KT CAVOK 19/14 Q1019=
201206160045 METAR LIRA 160045Z 03003KT CAVOK 20/13 Q1019=
201206160015 METAR LIRA 160015Z 03003KT CAVOK 20/13 Q1019=
201206152350 METAR LIRA 160045Z 03003KT CAVOK 20/13 Q1019=
201206152345 METAR LIRA 152345Z 03003KT CAVOK 20/13 Q1019=
201206152315 METAR LIRA 152315Z 01003KT CAVOK 20/13 Q1019=
201206152245 METAR LIRA 152245Z 04003KT CAVOK 21/13 Q1019=
201206152215 METAR LIRA 152215Z 06003KT CAVOK 21/13 Q1020=
201206152145 METAR LIRA 152145Z 06004KT CAVOK 21/13 Q1020=
201206152115 METAR LIRA 152115Z 06003KT CAVOK 21/14 Q1020=
201206152045 METAR LIRA 152045Z 08003KT CAVOK 21/13 Q1020=
201206152015 METAR LIRA 152015Z 07001KT CAVOK 22/13 Q1020=
201206151945 METAR LIRA 151945Z 00000KT CAVOK 22/12 Q1020=
201206151915 METAR LIRA 151915Z 24001KT CAVOK 23/12 Q1019=
201206151845 METAR LIRA 151845Z 26003KT CAVOK 24/12 Q1019=
201206151815 METAR LIRA 151815Z 26005KT 230V300 CAVOK 25/12 Q1019=
201206151745 METAR LIRA 151745Z 27004KT CAVOK 25/11 Q1019=
201206151715 METAR LIRA 151715Z 26005KT 230V300 CAVOK 26/12 Q1019=
201206151645 METAR LIRA 151645Z 24006KT 210V280 CAVOK 27/12 Q1019=
201206151615 METAR LIRA 151615Z 24007KT 200V290 CAVOK 27/11 Q1019=
201206151545 METAR LIRA 151545Z 24007KT 200V290 CAVOK 27/11 Q1019=
201206151515 METAR LIRA 151515Z 23007KT 200V280 CAVOK 28/12 Q1019=
201206151445 METAR LIRA 151445Z 23007KT 160V270 CAVOK 28/11 Q1019=
201206151415 METAR LIRA 151415Z 24005KT 210V280 CAVOK 29/12 Q1019=
201206151345 METAR LIRA 151345Z 24007KT 180V310 CAVOK 29/13 Q1019=
201206151315 METAR LIRA 151315Z 24006KT 200V300 CAVOK 29/12 Q1019=
201206151245 METAR LIRA 151245Z 26005KT 210V320 CAVOK 29/11 Q1019=
201206151215 METAR LIRA 151215Z 27006KT 200V360 CAVOK 29/11 Q1019=
201206151145 METAR LIRA 151145Z 30004KT 200V310 CAVOK 29/10 Q1019=
201206151115 METAR LIRA 151115Z 30003KT CAVOK 28/10 Q1019=
201206151045 METAR LIRA 151045Z 30004KT CAVOK 28/10 Q1019=
201206151015 METAR LIRA 151015Z 06003KT CAVOK 27/10 Q1020=
201206150945 METAR LIRA 150945Z 29002KT CAVOK 26/11 Q1020=
201206150915 METAR LIRA 150915Z 32003KT CAVOK 26/12 Q1020=
201206150845 METAR LIRA 150845Z 33003KT CAVOK 24/12 Q1020=
201206150815 METAR LIRA 150815Z 01003KT CAVOK 24/13 Q1020=
201206150745 METAR LIRA 150745Z 02003KT CAVOK 23/14 Q1020=
201206150715 METAR LIRA 150715Z 04003KT CAVOK 21/13 Q1020=
201206150645 METAR LIRA 150645Z 36003KT CAVOK 20/13 Q1020=
201206150615 METAR LIRA 150615Z 02003KT CAVOK 19/14 Q1019=
201206150545 METAR LIRA 150545Z 04005KT CAVOK 17/14 Q1019=
201206150515 METAR LIRA 150515Z 04003KT CAVOK 17/14 Q1019=
201206150445 METAR LIRA 150445Z 04003KT 9999 FEW080 15/13 Q1019=
201206150415 METAR LIRA 150415Z 05003KT 9999 FEW080 14/13 Q1018=
201206150345 METAR LIRA 150345Z 34003KT CAVOK 15/13 Q1018=
201206150315 METAR LIRA 150315Z 36002KT CAVOK 15/14 Q1018=
201206150245 METAR LIRA 150245Z 03002KT CAVOK 16/14 Q1019=
201206150215 METAR LIRA 150215Z 34002KT CAVOK 16/15 Q1019=
201206150145 METAR LIRA 150145Z 00000KT CAVOK 16/15 Q1019=
201206150115 METAR LIRA 150115Z 34001KT CAVOK 16/15 Q1019=
201206150045 METAR LIRA 150045Z 02001KT CAVOK 16/15 Q1019=
201206150015 METAR LIRA 150015Z 09002KT CAVOK 16/14 Q1019=
201206142350 METAR LIRA 150045Z 02001KT CAVOK 16/15 Q1019=
201206142345 METAR LIRA 142345Z 09002KT CAVOK 16/15 Q1019=
201206142315 METAR LIRA 142315Z 10002KT CAVOK 16/15 Q1019=
201206142245 METAR LIRA 142245Z 09003KT CAVOK 17/16 Q1019=
201206142215 METAR LIRA 142215Z 00000KT CAVOK 17/15 Q1019=
201206142145 METAR LIRA 142145Z 25001KT CAVOK 18/15 Q1019=
201206142115 METAR LIRA 142115Z 27001KT CAVOK 18/15 Q1019=
201206142045 METAR LIRA 142045Z 26002KT CAVOK 19/15 Q1019=
201206142015 METAR LIRA 142015Z 28002KT CAVOK 19/15 Q1018=
201206141945 METAR LIRA 141945Z 29002KT CAVOK 20/15 Q1018=
201206141915 METAR LIRA 141915Z 27003KT CAVOK 22/15 Q1018=
201206141845 METAR LIRA 141845Z 27003KT CAVOK 22/13 Q1018=
201206141815 METAR LIRA 141815Z 27005KT CAVOK 22/13 Q1018=
201206141745 METAR LIRA 141745Z 27005KT 230V300 CAVOK 23/10 Q1018=
201206141715 METAR LIRA 141715Z 28007KT 250V310 CAVOK 24/10 Q1018=
201206141645 METAR LIRA 141645Z 29008KT 250V310 CAVOK 24/10 Q1018=
201206141615 METAR LIRA 141615Z 25007KT 200V290 9999 FEW070 25/09 Q1018=
201206141545 METAR LIRA 141545Z 23007KT 200V260 9999 FEW070 25/10 Q1017=
201206141515 METAR LIRA 141515Z 25007KT 210V300 9999 FEW018 25/10 Q1017=
201206141445 METAR LIRA 141445Z 23008KT 200V300 9999 FEW018 25/10 Q1017=
201206141415 METAR LIRA 141415Z 27008KT 220V320 9999 FEW018 25/10 Q1017=
201206141345 METAR LIRA 141345Z 26009KT 220V300 9999 FEW018 25/11 Q1018=
201206141315 METAR LIRA 141315Z 27009KT 220V310 9999 FEW018 25/10 Q1018=
201206141245 METAR LIRA 141245Z 24008KT 200V290 9999 FEW018 25/10 Q1017=
201206141215 METAR LIRA 141215Z 24010KT 200V280 9999 FEW018 25/11 Q1017=
201206141145 METAR LIRA 141145Z 23007KT 160V270 9999 FEW018 26/11 Q1017=
201206141115 METAR LIRA 141115Z 25007KT 200V300 9999 FEW017 26/11 Q1017=
201206141045 METAR LIRA 141045Z 23005KT 120V270 9999 FEW017 26/12 Q1017=
201206141015 METAR LIRA 141015Z 18006KT 150V250 9999 FEW017 25/13 Q1018=
201206140945 METAR LIRA 140945Z 20006KT 9999 FEW017 24/13 Q1017=
201206140915 METAR LIRA 140915Z 18005KT 130V230 9999 FEW018 24/13 Q1018=
201206140845 METAR LIRA 140845Z 21005KT 170V230 9999 FEW018 23/14 Q1018=
201206140815 METAR LIRA 140815Z 20005KT 170V250 9999 FEW018 22/14 Q1018=
201206140745 METAR LIRA 140745Z 18001KT 9999 FEW070 22/15 Q1018=
201206140715 METAR LIRA 140715Z 15002KT 9999 FEW070 21/14 Q1018=
201206140645 METAR LIRA 140645Z 33002KT 9999 FEW070 19/14 Q1018=
201206140615 METAR LIRA 140615Z 35002KT 9999 FEW070 19/14 Q1017=
201206140545 METAR LIRA 140545Z 01001KT 9999 FEW070 17/13 Q1017=
201206140515 METAR LIRA 140515Z 00000KT 9999 FEW070 15/14 Q1017=
201206140445 METAR LIRA 140445Z 00000KT 9999 FEW070 14/13 Q1017=
201206140415 METAR LIRA 140415Z 00000KT 9999 FEW070 13/12 Q1017=
201206140345 METAR LIRA 140345Z 08002KT 9999 FEW070 13/11 Q1017=
201206140315 METAR LIRA 140315Z 36002KT 9999 FEW070 14/12 Q1017=
201206140245 METAR LIRA 140245Z 00000KT 9999 FEW070 14/11 Q1017=
201206140215 METAR LIRA 140215Z 00000KT CAVOK 14/10 Q1017=
201206140145 METAR LIRA 140145Z 08002KT CAVOK 14/10 Q1017=
201206140115 METAR LIRA 140115Z 11004KT CAVOK 15/10 Q1016=
201206140045 METAR LIRA 140045Z 12002KT CAVOK 15/11 Q1016=
201206140015 METAR LIRA 140015Z 09002KT CAVOK 15/11 Q1016=
201206132350 METAR LIRA 140045Z 12002KT CAVOK 15/11 Q1016=
201206132345 METAR LIRA 132345Z 13003KT CAVOK 15/11 Q1016=
201206132315 METAR LIRA 132315Z 14003KT CAVOK 15/12 Q1016=
201206132245 METAR LIRA 132245Z 14003KT CAVOK 16/14 Q1016=
201206132215 METAR LIRA 132215Z 12004KT CAVOK 16/14 Q1016=
201206132145 METAR LIRA 132145Z 13004KT CAVOK 17/16 Q1016=
201206132115 METAR LIRA 132115Z 17004KT CAVOK 18/16 Q1016=
201206132045 METAR LIRA 132045Z 17004KT CAVOK 18/16 Q1016=
201206132015 METAR LIRA 132015Z 18004KT CAVOK 18/16 Q1016=
201206131945 METAR LIRA 131945Z 19005KT CAVOK 18/16 Q1016=
201206131915 METAR LIRA 131915Z 20005KT CAVOK 19/16 Q1015=
201206131845 METAR LIRA 131845Z 20008KT CAVOK 20/16 Q1015=
201206131815 METAR LIRA 131815Z 20007KT 170V230 CAVOK 21/16 Q1015=
201206131745 METAR LIRA 131745Z 23006KT 180V240 9999 FEW020 21/16 Q1015=
201206131715 METAR LIRA 131715Z 20008KT 180V250 9999 FEW018 22/16 Q1014=
201206131645 METAR LIRA 131645Z 23008KT 9999 FEW018 23/16 Q1014=
201206131615 METAR LIRA 131615Z 21008KT 170V270 9999 FEW018 23/16 Q1014=
201206131545 METAR LIRA 131545Z 22010KT 180V250 9999 FEW018 23/15 Q1014=
201206131515 METAR LIRA 131515Z 20010KT 160V240 9999 FEW018 23/16 Q1014=
201206131445 METAR LIRA 131445Z 22007KT 140V260 9999 FEW018 23/15 Q1014=
201206131415 METAR LIRA 131415Z 21010KT 150V250 9999 FEW018 23/15 Q1014=
201206131345 METAR LIRA 131345Z 21010KT 170V240 9999 FEW018 23/14 Q1014=
201206131315 METAR LIRA 131315Z 22010KT 190V250 9999 SCT018 23/14 Q1014=
201206131245 METAR LIRA 131245Z 21010KT 180V270 9999 SCT018 24/15 Q1014=
201206131215 METAR LIRA 131215Z 21008KT 170V250 9999 SCT018 SCT020 24/15
                        Q1015=
201206131145 METAR LIRA 131145Z 21010KT 180V260 9999 SCT018 SCT020 23/15
                        Q1014=
201206131115 METAR LIRA 131115Z 21008KT 150V270 9999 SCT018 SCT020 23/15
                        Q1014=
201206131045 METAR LIRA 131045Z 21009KT 170V250 9999 SCT018 SCT020 23/15
                        Q1014=
201206131015 METAR LIRA 131015Z 22010KT 180V280 9999 BKN018 23/15 Q1014=
201206130945 METAR LIRA 130945Z 21010KT 170V260 9999 BKN018 23/15 Q1014=
201206130915 METAR LIRA 130915Z 20008KT 150V260 9999 BKN018 23/15 Q1013=
201206130845 METAR LIRA 130845Z 20009KT 160V250 9999 BKN018 23/16 Q1012=
201206130815 METAR LIRA 130815Z 16008KT 120V200 9999 BKN018 22/17 Q1012=
201206130745 METAR LIRA 130745Z 16007KT 9999 BKN018 21/17 Q1012=
201206130715 METAR LIRA 130715Z 17010KT 9999 BKN018 21/16 Q1012=
201206130645 METAR LIRA 130645Z 18008KT 9999 BKN018 20/17 Q1012=
201206130615 METAR LIRA 130615Z 17007KT 130V220 9999 FEW018 20/16 Q1011=
201206130545 METAR LIRA 130545Z 16007KT 110V190 CAVOK 20/16 Q1011=
201206130515 METAR LIRA 130515Z 15006KT 120V180 9999 FEW030 19/16 Q1011=
201206130445 METAR LIRA 130445Z 13005KT 9999 FEW030 17/15 Q1011=
201206130415 METAR LIRA 130415Z 14005KT 9999 FEW030 16/14 Q1010=
201206130400 METAR LIRA INT=
201206130345 METAR LIRA 130345Z 11002KT 9999 FEW030 16/14 Q1010=
201206130315 METAR LIRA 130315Z 10005KT 9999 FEW030 16/15 Q1010=
201206130245 METAR LIRA 130245Z 09003KT 9999 FEW080 15/15 Q1010=
201206130215 METAR LIRA 130215Z 08002KT 9999 FEW080 15/15 Q1010=
201206130145 METAR LIRA 130145Z 12003KT 9999 FEW080 15/15 Q1010=
201206130115 METAR LIRA 130115Z 16006KT CAVOK 16/15 Q1010=
201206130045 METAR LIRA 130045Z 10005KT CAVOK 16/15 Q1010=
201206130015 METAR LIRA 130015Z 15005KT CAVOK 17/16 Q1010=
201206122350 METAR LIRA 130045Z 10005KT CAVOK 16/15 Q1010=
201206122345 METAR LIRA 122345Z 16005KT 9999 FEW030 17/16 Q1010=
201206122315 METAR LIRA 122315Z 14006KT 9999 FEW030 17/16 Q1010=
201206122245 METAR LIRA 122245Z 15004KT 9999 FEW080 17/16 Q1009=
201206122215 METAR LIRA 122215Z 18005KT 9999 FEW080 18/15 Q1009=
201206122145 METAR LIRA 122145Z 16005KT 9999 FEW080 17/15 Q1009=
201206122115 METAR LIRA 122115Z 15005KT 9999 FEW080 17/15 Q1009=
201206122045 METAR LIRA 122045Z 22002KT 9999 FEW080 18/15 Q1009=
201206122015 METAR LIRA 122015Z 20004KT 9999 FEW080 18/15 Q1009=
201206121945 METAR LIRA 121945Z 18005KT 9999 FEW080 19/15 Q1008=
201206121915 METAR LIRA 121915Z 21005KT 9999 FEW080 20/15 Q1008=
201206121845 METAR LIRA 121845Z 23006KT 9999 FEW080 20/15 Q1008=
201206121815 METAR LIRA 121815Z 24007KT 9999 FEW080 21/15 Q1008=
201206121745 METAR LIRA 121745Z 22008KT 190V250 9999 SCT080 22/14 Q1008=
201206121715 METAR LIRA 121715Z 22007KT 180V250 9999 FEW018 SCT030 23/15
                        Q1008=
201206121645 METAR LIRA 121645Z 20007KT 170V240 9999 FEW018 SCT030 23/14
                        Q1007=
201206121615 METAR LIRA 121615Z 22008KT 9999 SCT017 FEW020TCU SCT070 23/13
                        Q1007=
201206121545 METAR LIRA 121545Z 24005KT 210V310 9999 SCT017 FEW020TCU
                        SCT070 23/14 Q1007=
201206121515 METAR LIRA 121515Z 26006KT 200V300 9999 SCT017 FEW020TCU
                        SCT070 24/17 Q1007=
201206121445 METAR LIRA 121445Z 26007KT 180V330 9999 SCT017 FEW020TCU
                        SCT070 23/17 Q1007=
201206121415 METAR LIRA 121415Z 24007KT 190V270 9999 SCT017 FEW020TCU
                        SCT070 24/18 Q1007=
201206121345 METAR LIRA 121345Z 22009KT 210V270 9999 SCT017 FEW020TCU
                        SCT070 25/17 Q1007=
201206121315 METAR LIRA 121315Z 22009KT 180V260 9999 SCT017 FEW020TCU
                        SCT070 25/18 Q1007=
201206121245 METAR LIRA 121245Z 25008KT 200V270 9999 SCT017 FEW020TCU
                        SCT070 27/19 Q1006=
201206121215 METAR LIRA 121215Z 21008KT 170V280 9999 SCT017 FEW020TCU
                        SCT070 26/19 Q1006=
201206121145 METAR LIRA 121145Z 22007KT 190V260 9999 SCT017 FEW020TCU
                        SCT070 27/19 Q1006=
201206121115 METAR LIRA 121115Z 23009KT 180V260 9999 SCT017 FEW020TCU
                        SCT070 27/18 Q1006=
201206121045 METAR LIRA 121045Z 22009KT 190V300 9999 SCT015 FEW017TCU
                        27/18 Q1006=
201206121015 METAR LIRA 121015Z 18011KT 160V240 9999 SCT015 FEW017TCU
                        26/19 Q1006=
201206120945 METAR LIRA 120945Z 18011KT 9999 SCT015 FEW017TCU SCT030 26/19
                        Q1006=
201206120915 METAR LIRA 120915Z 17013KT 9999 SCT015 FEW017TCU SCT030 25/19
                        Q1006=
201206120845 METAR LIRA 120845Z 20013KT 160V220 9999 SCT015 FEW017TCU
                        SCT030 24/20 Q1006=
201206120815 METAR LIRA 120815Z 15013KT 9999 SCT015 FEW017TCU SCT030 24/20
                        Q1006=
201206120745 METAR LIRA 120745Z 16009KT 130V190 9999 SCT012 FEW017CB 23/19
                        Q1005=
201206120715 METAR LIRA 120715Z 15012KT 9999 SCT012 FEW017CB 24/20 Q1005=
201206120645 METAR LIRA 120645Z 15014KT 9999 SCT012 23/20 Q1005=
201206120615 METAR LIRA 120615Z 15016KT 9999 SCT012 22/20 Q1005=
201206120545 METAR LIRA 120545Z 15012KT 9999 SCT012 22/20 Q1005=
201206120515 METAR LIRA 120515Z 14015KT 9999 SCT012 21/19 Q1005=
201206120445 METAR LIRA 120445Z 15013KT 9999 FEW015 FEW020TCU SCT025 21/19
                        Q1005=
201206120415 METAR LIRA 120415Z 15014KT 9999 FEW015 FEW020TCU SCT025 20/18
                        Q1005=
201206120345 METAR LIRA 120345Z 16014KT 9999 SCT015 SCT025 20/18 Q1004=
201206120315 METAR LIRA 120315Z 17013KT 9999 SCT015 SCT025 20/17 Q1004=
201206120245 METAR LIRA 120245Z 17017KT 140V210 9999 FEW018 SCT030 20/17
                        Q1004=
201206120215 METAR LIRA 120215Z 15019KT 9999 FEW030 SCT070 20/18 Q1004=
201206120145 METAR LIRA 120145Z 15019KT 9999 FEW030 SCT070 21/19 Q1004=
201206120115 METAR LIRA 120115Z 16017G28KT 9999 FEW030 SCT070 20/18 Q1005=
201206120045 METAR LIRA 120045Z 17015KT 9999 FEW030 SCT070 20/19 Q1005=
201206120015 METAR LIRA 120015Z 16016KT 120V200 9999 FEW030 SCT070 20/19
                        Q1005=
201206112350 METAR LIRA 120045Z 17015KT 9999 FEW030 SCT070 20/19 Q1005=
201206112345 METAR LIRA 112345Z 17014KT 9999 FEW030 SCT070 20/19 Q1005=
201206112315 METAR LIRA 112315Z 18010KT 9999 FEW030 SCT070 21/17 Q1005=
201206112300 METAR LIRA INT=
201206112245 METAR LIRA 112245Z 14009KT 9999 FEW025 SCT070 21/17 Q1006=
201206112215 METAR LIRA 112215Z 14007KT 9999 FEW018 SCT025 21/16 Q1006=
201206112145 METAR LIRA 112145Z 15007KT 9999 FEW018 SCT025 21/17 Q1006=
201206112115 METAR LIRA 112115Z 15011KT 9999 FEW018 SCT025 21/18 Q1007=
201206112045 METAR LIRA 112045Z 16008KT 9999 FEW018 SCT025 21/19 Q1007=
201206112015 METAR LIRA 112015Z 16009KT 9999 FEW018 SCT025 21/19 Q1007=
201206111945 METAR LIRA 111945Z 17009KT 9999 FEW018 SCT025 21/19 Q1007=
201206111915 METAR LIRA 111915Z 17008KT 9999 FEW020 SCT025 22/19 Q1007=
201206111845 METAR LIRA 111845Z 19007KT 9999 FEW020 SCT030 22/20 Q1007=
201206111815 METAR LIRA 111815Z 20008KT 150V230 9999 FEW020 SCT030 23/19
                        Q1007=
201206111745 METAR LIRA 111745Z 20008KT 9999 FEW020 SCT070 23/19 Q1008=
201206111715 METAR LIRA 111715Z 21007KT 160V250 9999 FEW018 SCT070 23/18
                        Q1008=
201206111645 METAR LIRA 111645Z 20007KT 180V250 9999 FEW018 BKN070 23/17
                        Q1008=
201206111615 METAR LIRA 111615Z 20007KT 170V250 9999 FEW018 SCT070 24/17
                        Q1008=
201206111545 METAR LIRA 111545Z 23005KT 190V260 9999 FEW018 SCT070 25/17
                        Q1008=
201206111515 METAR LIRA 111515Z 25005KT 210V310 9999 FEW018 26/17 Q1008=
201206111445 METAR LIRA 111445Z 24008KT 190V280 9999 FEW018 26/18 Q1008=
201206111415 METAR LIRA 111415Z 22008KT 190V300 9999 FEW018 26/18 Q1008=
201206111345 METAR LIRA 111345Z 23010G20KT 9999 FEW018 FEW020TCU 26/17
                        Q1008=
201206111315 METAR LIRA 111315Z 24009KT 210V300 9999 SCT017 FEW018TCU
                        26/17 Q1008=
201206111245 METAR LIRA 111245Z 23011KT 200V290 9999 SCT017 FEW018TCU
                        25/17 Q1008=
201206111215 METAR LIRA 111215Z 22010G20KT 180V250 9999 SCT017 FEW018TCU
                        26/18 Q1008=
201206111145 METAR LIRA 111145Z 19011KT 170V240 9999 SCT017 FEW018TCU
                        25/18 Q1009=
201206111115 METAR LIRA 111115Z 18012KT 9999 SCT017 FEW018TCU 25/19 Q1009=
201206111045 METAR LIRA 111045Z 17012KT 9999 SCT017 SCT030 25/19 Q1009=
201206111015 METAR LIRA 111015Z 18011KT 9999 SCT017 SCT030 24/18 Q1009=
201206110945 METAR LIRA 110945Z 18008KT 140V220 9999 SCT017 SCT030 24/18
                        Q1009=
201206110915 METAR LIRA 110915Z 16010KT 9999 SCT015 FEW017TCU 24/19 Q1010=
201206110845 METAR LIRA 110845Z 18011KT 120V180 9999 SCT015 FEW017TCU
                        23/18 Q1010=
201206110815 METAR LIRA 110815Z 15010KT 9999 FEW015 FEW017TCU SCT030 23/19
                        Q1010=
201206110745 METAR LIRA 110745Z 16010KT 9999 FEW015 FEW017TCU BKN030 22/18
                        Q1010=
201206110715 METAR LIRA 110715Z 18010KT 9999 FEW015 SCT030 22/18 Q1010=
201206110645 METAR LIRA 110645Z 18009KT 9999 FEW015 SCT030 22/17 Q1010=
201206110615 METAR LIRA 110615Z 18008KT 9999 FEW015 SCT030 21/18 Q1010=
201206110545 METAR LIRA 110545Z 15008KT 9999 FEW015 SCT030 21/18 Q1010=
201206110515 METAR LIRA 110515Z 16005KT 9999 FEW010 SCT030 20/18 Q1010=
201206110445 METAR LIRA 110445Z 12001KT 9999 SCT010 SCT025 19/17 Q1010=
201206110415 METAR LIRA 110415Z 00000KT 9999 SCT010 SCT025 19/17 Q1010=
201206110345 METAR LIRA 110345Z 15002KT 9999 SCT010 SCT025 19/17 Q1010=
201206110315 METAR LIRA 110315Z 16003KT 9999 FEW010 SCT025 19/17 Q1010=
201206110245 METAR LIRA 110245Z 19004KT 9999 FEW010 SCT070 20/18 Q1010=
201206110215 METAR LIRA 110215Z 15005KT 9999 FEW018 SCT070 20/18 Q1010=
201206110145 METAR LIRA 110145Z 16005KT 9999 FEW004 SCT070 20/17 Q1010=
201206110115 METAR LIRA 110115Z 17006KT 9999 SCT014 SCT070 20/17 Q1011=
201206110045 METAR LIRA 110045Z 16008KT 9999 FEW004 SCT014 20/17 Q1011=
201206110015 METAR LIRA 110015Z 16008KT 9999 FEW004 SCT014 20/17 Q1011=
201206102350 METAR LIRA 110045Z 16008KT 9999 FEW004 SCT014 20/17 Q1011=
201206102345 METAR LIRA 102345Z 17008KT 9999 FEW004 SCT014 20/17 Q1011=
201206102315 METAR LIRA 102315Z 18005KT 150V210 9999 FEW003 SCT014 20/17
                        Q1012=
201206102245 METAR LIRA 102245Z 17006KT 9999 FEW003 SCT015 20/16 Q1011=
201206102215 METAR LIRA 102215Z 17006KT 9999 FEW015 SCT025 20/16 Q1011=
201206102145 METAR LIRA 102145Z 17006KT 9999 FEW015 SCT025 20/16 Q1012=
201206102115 METAR LIRA 102115Z 17006KT 9999 FEW015 SCT025 20/16 Q1012=
201206102045 METAR LIRA 102045Z 17006KT 9999 FEW004 SCT025 20/16 Q1012=
201206102015 METAR LIRA 102015Z 18006KT 9999 FEW004 SCT025 20/16 Q1012=
201206101945 METAR LIRA 101945Z 17006KT 9999 FEW004 SCT025 20/17 Q1012=
201206101915 METAR LIRA 101915Z 18006KT 150V220 9999 FEW016 SCT025 20/18
                        Q1012=
201206101845 METAR LIRA 101845Z 22005KT 9999 FEW020 SCT025 21/17 Q1012=
201206101815 METAR LIRA 101815Z 22005KT 9999 SCT016 21/17 Q1012=
201206101745 METAR LIRA 101745Z 21004KT 9999 SCT016 22/17 Q1012=
201206101715 METAR LIRA 101715Z 24008KT 9999 FEW020 22/16 Q1012=
201206101645 METAR LIRA 101645Z 23007KT CAVOK 23/13 Q1011=
201206101615 METAR LIRA 101615Z 23008KT 190V280 CAVOK 23/13 Q1011=
201206101545 METAR LIRA 101545Z 22009KT 190V260 9999 FEW070 24/15 Q1011=
201206101515 METAR LIRA 101515Z 24009KT 200V260 9999 FEW020 24/16 Q1012=
201206101445 METAR LIRA 101445Z 22008KT 170V260 9999 SCT018 24/18 Q1012=
201206101415 METAR LIRA 101415Z 23008KT 170V280 9999 SCT018 24/18 Q1012=
201206101345 METAR LIRA 101345Z 22008KT 170V250 9999 SCT018 25/18 Q1012=
201206101315 METAR LIRA 101315Z 21008KT 180V250 9999 SCT018 25/18 Q1012=
201206101245 METAR LIRA 101245Z 24008KT 150V310 9999 SCT018 25/18 Q1012=
201206101215 METAR LIRA 101215Z 22007KT 170V290 9999 FEW018 25/17 Q1012=
201206101145 METAR LIRA 101145Z 24008KT 220V310 9999 FEW018 SCT200 25/17
                        Q1012=
201206101115 METAR LIRA 101115Z 23006KT 180V280 9999 FEW018 SCT070 25/15
                        Q1012=
201206101045 METAR LIRA 101045Z 24006KT 200V300 9999 FEW018 BKN070 24/15
                        Q1013=
201206101015 METAR LIRA 101015Z 24005KT 200V280 9999 FEW018 BKN070 23/14
                        Q1013=
201206100945 METAR LIRA 100945Z 21004KT 9999 FEW018 SCT070 23/14 Q1013=
201206100915 METAR LIRA 100915Z 21005KT 9999 FEW018 SCT070 23/14 Q1013=
201206100845 METAR LIRA 100845Z 21007KT 160V230 9999 FEW018 SCT070 22/14
                        Q1013=
201206100815 METAR LIRA 100815Z 18008KT 120V230 9999 FEW018 SCT070 22/15
                        Q1013=
201206100745 METAR LIRA 100745Z 18008KT 150V220 9999 FEW018 SCT070 21/15
                        Q1013=
201206100715 METAR LIRA 100715Z 17008KT 130V230 9999 FEW018 20/15 Q1013=
201206100645 METAR LIRA 100645Z 18008KT 140V230 9999 FEW018 20/16 Q1013=
201206100615 METAR LIRA 100615Z 19007KT 9999 FEW018 19/16 Q1013=
201206100545 METAR LIRA 100545Z 16008KT 9999 FEW020 19/17 Q1013=
201206100515 METAR LIRA 100515Z 17007KT 9999 FEW020 19/16 Q1013=
201206100445 METAR LIRA 100445Z 17005KT 9999 FEW010 18/16 Q1013=
201206100415 METAR LIRA 100415Z 17005KT 9999 FEW010 18/16 Q1013=
201206100345 METAR LIRA 100345Z 17006KT 9000 FEW010 SCT070 18/17 Q1013=
201206100315 METAR LIRA 100315Z 17005KT 9000 FEW010 SCT070 18/17 Q1013=
201206100245 METAR LIRA 100245Z 18007KT 9000 FEW010 SCT070 19/17 Q1013=
201206100215 METAR LIRA 100215Z 19005KT 8000 FEW010 SCT015 19/17 Q1013=
201206100145 METAR LIRA 100145Z 19006KT 8000 FEW010 SCT015 19/17 Q1013=
201206100115 METAR LIRA 100115Z 20008KT 8000 FEW010 SCT015 19/17 Q1013=
201206100045 METAR LIRA 100045Z 20010KT 8000 FEW010 SCT015 19/18 Q1013=
201206100015 METAR LIRA 100015Z 19009KT 170V230 8000 FEW010 SCT015 19/17
                        Q1013=
201206092350 METAR LIRA 100045Z 20010KT 8000 FEW010 SCT015 19/18 Q1013=
201206092345 METAR LIRA 092345Z 20008KT 8000 FEW010 SCT015 20/18 Q1013=
201206092315 METAR LIRA 092315Z 20007KT 8000 FEW010 SCT015 20/18 Q1013=
201206092245 METAR LIRA 092245Z 19007KT 8000 FEW010 SCT015 20/18 Q1013=
201206092215 METAR LIRA 092215Z 20007KT 8000 FEW010 SCT015 20/19 Q1013=
201206092145 METAR LIRA 092145Z 21004KT 8000 FEW010 SCT015 20/19 Q1013=
201206092115 METAR LIRA 092115Z 21005KT 8000 FEW010 SCT015 21/20 Q1013=
201206092045 METAR LIRA 092045Z 20005KT 8000 SCT010 SCT015 21/20 Q1013=
201206092015 METAR LIRA 092015Z 21007KT 9000 FEW010 SCT070 22/20 Q1013=
201206091945 METAR LIRA 091945Z 19008KT 9000 FEW010 SCT070 22/20 Q1013=
201206091915 METAR LIRA 091915Z 19008KT 150V220 9999 FEW010 22/21 Q1013=
201206091845 METAR LIRA 091845Z 19009KT 160V220 9999 FEW015 23/21 Q1013=
201206091815 METAR LIRA 091815Z 19012KT 9999 FEW015 23/21 Q1013=
201206091745 METAR LIRA 091745Z 18013KT 9999 SCT015 24/21 Q1013=
201206091715 METAR LIRA 091715Z 18015KT 160V220 9999 SCT015 SCT070 24/21
                        Q1013=
201206091645 METAR LIRA 091645Z 18014KT 9999 BKN012 SCT070 24/21 Q1013=
201206091615 METAR LIRA 091615Z 18013KT 150V220 9999 BKN012 SCT070 25/22
                        Q1013=
201206091545 METAR LIRA 091545Z 20013KT 160V230 9999 BKN012 25/22 Q1013=
201206091515 METAR LIRA 091515Z 18016G29KT 9999 SCT012 BKN070 25/22 Q1013=
201206091445 METAR LIRA 091445Z 17013KT 150V220 9999 SCT014 SCT080 25/21
                        Q1013=
201206091415 METAR LIRA 091415Z 18014KT 9999 FEW014 SCT040 25/20 Q1013=
201206091345 METAR LIRA 091345Z 18017KT 9999 FEW014 SCT040 25/19 Q1013=
201206091315 METAR LIRA 091315Z 17013KT 140V210 9999 FEW014 SCT040 BKN070
                        27/18 Q1013=
201206091245 METAR LIRA 091245Z 18012KT 9999 FEW018 SCT040 26/14 Q1013=
201206091215 METAR LIRA 091215Z 18012KT 150V230 9999 FEW018 BKN040 27/10
                        Q1013=
201206091145 METAR LIRA 091145Z 15011KT 090V180 9999 FEW018 SCT030 28/09
                        Q1012=
201206091115 METAR LIRA 091115Z 15013G24KT 110V180 9999 FEW020 SCT030
                        28/10 Q1012 RETS=
201206091045 METAR LIRA 091045Z 13011G25KT 090V130 9999 FEW018 FEW020CB
                        SCT030 26/12 Q1011 RETS=
201206091015 METAR LIRA 091015Z 12018G33KT 9999 -TSRA FEW018 SCT020CB
                        22/14 Q1011=
201206090945 METAR LIRA 090945Z 16010KT 9999 FEW018 FEW020CB BKN030 24/11
                        Q1014=
201206090915 METAR LIRA 090915Z 23010G21KT 190V270 9999 -RA SCT017 FEW020CB
                        BKN030 24/12 Q1015=
201206090845 METAR LIRA 090845Z 24006KT 220V280 9999 FEW020CB BKN030 24/10
                        Q1014=
201206090815 METAR LIRA 090815Z 17014G25KT 120V250 9999 FEW018 FEW020CB
                        SCT030 BKN070 26/10 Q1013 RETS=
201206090745 METAR LIRA 090745Z VRB05KT 360V290 9999 FEW018 FEW020CB BKN070
                        24/10 Q1012 RETS=
201206090715 METAR LIRA 090715Z 11018KT 9999 -TSRA FEW015 BKN020CB 24/11
                        Q1011=
201206090645 METAR LIRA 090645Z 15010KT 9999 -TSRA FEW015 BKN018CB 23/11
                        Q1014=
201206090615 METAR LIRA 090615Z 15010KT 120V180 9999 TS FEW020 FEW022CB
                        BKN070 25/07 Q1013=
201206090545 METAR LIRA 090545Z 14009KT 9999 SCT070 24/09 Q1013=
201206090515 METAR LIRA 090515Z 16007KT 9999 FEW020 SCT070 24/09 Q1013=
201206090445 METAR LIRA 090445Z 14008KT 9999 SCT070 21/13 Q1013=
201206090415 METAR LIRA 090415Z 17002KT 9999 SCT070 19/14 Q1013=
201206090345 METAR LIRA 090345Z 10001KT 9999 SCT070 18/13 Q1012=
201206090315 METAR LIRA 090315Z 10002KT 9999 SCT070 17/12 Q1012=
201206090245 METAR LIRA 090245Z 26001KT 9999 SCT070 18/12 Q1012=
201206090215 METAR LIRA 090215Z 26002KT 9999 SCT070 18/11 Q1012=
201206090145 METAR LIRA 090145Z 08001KT 9999 FEW070 19/11 Q1013=
201206090115 METAR LIRA 090115Z 00000KT 9999 FEW070 19/11 Q1013=
201206090045 METAR LIRA 090045Z 00000KT 9999 FEW070 20/11 Q1013=
201206090015 METAR LIRA 090015Z 16002KT 9999 FEW070 20/12 Q1014=
201206082350 METAR LIRA 090045Z 00000KT 9999 FEW070 20/11 Q1013=
201206082345 METAR LIRA 082345Z 09002KT 9999 FEW030 19/12 Q1014=
201206082315 METAR LIRA 082315Z 16003KT 9999 FEW070 20/12 Q1014=
201206082245 METAR LIRA 082245Z 13002KT 9999 FEW030 20/11 Q1014=
201206082215 METAR LIRA 082215Z 25005KT 9999 FEW030 22/09 Q1013=
201206082145 METAR LIRA 082145Z 27005KT 9999 FEW030 24/09 Q1013=
201206082115 METAR LIRA 082115Z 00000KT 9999 FEW030 SCT070 24/08 Q1013=
201206082045 METAR LIRA 082045Z 19003KT 9999 FEW030 SCT070 25/08 Q1013=
201206082015 METAR LIRA 082015Z 16004KT 9999 FEW030 SCT070 24/06 Q1013=
201206081945 METAR LIRA 081945Z 15006KT 9999 FEW030 BKN070 26/06 Q1013=
201206081915 METAR LIRA 081915Z 20005KT 9999 FEW030 BKN070 25/05 Q1013=
201206081845 METAR LIRA 081845Z 25005KT 9999 FEW040 BKN070 26/05 Q1013=
201206081815 METAR LIRA 081815Z 15004KT 9999 FEW040 BKN070 28/03 Q1012=
201206081745 METAR LIRA 081745Z 19004KT 9999 FEW040 BKN070 28/02 Q1013=
201206081715 METAR LIRA 081715Z 13006KT 9999 BKN070 29/03 Q1013=
201206081645 METAR LIRA 081645Z 14011KT 9999 SCT070 29/02 Q1013=
201206081615 METAR LIRA 081615Z 17010KT 130V200 9999 SCT070 30/03 Q1013=
201206081545 METAR LIRA 081545Z 17012KT 9999 SCT070 29/03 Q1014=
201206081515 METAR LIRA 081515Z 17016KT 140V210 9999 FEW070 29/03 Q1013=
201206081445 METAR LIRA 081445Z 17016KT 9999 FEW070 29/04 Q1013=
201206081415 METAR LIRA 081415Z 18016KT 9999 FEW070 29/08 Q1014=
201206081345 METAR LIRA 081345Z 17015KT 9999 FEW020 29/08 Q1013=
201206081315 METAR LIRA 081315Z 18014KT 140V220 CAVOK 29/09 Q1014=
201206081300 METAR LIRA CONTUS CB ALQUADS OCCL LTG SW-NE=
201206081245 METAR LIRA 081245Z 16017KT 9999 FEW070 29/09 Q1013=
201206081215 METAR LIRA 081215Z 17016KT 120V190 CAVOK 29/10 Q1013=
201206081145 METAR LIRA 081145Z 17016KT 9999 FEW070 29/11 Q1013=
201206081115 METAR LIRA 081115Z 16015KT 130V210 9999 FEW060 29/12 Q1013=
201206081045 METAR LIRA 081045Z 19014KT 160V240 9999 FEW020 29/16 Q1013=
201206081015 METAR LIRA 081015Z 17016KT 9999 FEW018 29/15 Q1013=
201206080945 METAR LIRA 080945Z 17014KT 140V220 9999 FEW020 SCT060 29/15
                        Q1013=
201206080915 METAR LIRA 080915Z 19010KT 150V220 9999 FEW020 SCT060 29/15
                        Q1014=
201206080900 METAR LIRA CONTUS CB ALQUADS=
201206080845 METAR LIRA 080845Z 21006KT 150V230 9999 FEW018 SCT060 28/17
                        Q1014=
201206080815 METAR LIRA 080815Z 27003KT 9999 FEW020 SCT060 27/16 Q1014=
201206080800 METAR LIRA CONTUS CB ALQUADS=
201206080745 METAR LIRA 080745Z 29003KT 9999 FEW020 SCT060 25/15 Q1014=
201206080715 METAR LIRA 080715Z 31003KT 9999 SCT060 24/16 Q1014=
201206080645 METAR LIRA 080645Z 32001KT 9999 FEW060 23/16 Q1014=
201206080615 METAR LIRA 080615Z 07005KT 040V100 9999 SCT060 22/16 Q1014=
201206080545 METAR LIRA 080545Z 07006KT 020V100 9999 SCT060 20/17 Q1015=
201206080515 METAR LIRA 080515Z 07006KT 9999 FEW020 SCT070 18/16 Q1016=
201206080445 METAR LIRA 080445Z 07004KT 9999 FEW020 FEW025TCU 17/15 Q1016=
201206080415 METAR LIRA 080415Z 32003KT 9999 FEW020 SCT060 17/15 Q1015=
201206080345 METAR LIRA 080345Z 29003KT 9999 SCT070 16/14 Q1013=
201206080315 METAR LIRA 080315Z 29002KT 9999 SCT070 16/14 Q1013=
201206080245 METAR LIRA 080245Z 32002KT 9999 FEW070 17/14 Q1013=
201206080215 METAR LIRA 080215Z 14001KT CAVOK 17/14 Q1013=
201206080145 METAR LIRA 080145Z 01003KT CAVOK 16/13 Q1013=
201206080115 METAR LIRA 080115Z 06003KT CAVOK 16/13 Q1013=
201206080045 METAR LIRA 080045Z 06002KT CAVOK 17/13 Q1014=
201206080015 METAR LIRA 080015Z 08003KT CAVOK 17/13 Q1014=
201206072350 METAR LIRA 080045Z 06002KT CAVOK 17/13 Q1014=
201206072345 METAR LIRA 072345Z 12003KT CAVOK 17/13 Q1014=
201206072315 METAR LIRA 072315Z 16004KT CAVOK 18/13 Q1014=
201206072245 METAR LIRA 072245Z 17002KT CAVOK 18/11 Q1014=
201206072215 METAR LIRA 072215Z 17004KT CAVOK 20/13 Q1014=
201206072145 METAR LIRA 072145Z 17002KT CAVOK 19/13 Q1014=
201206072115 METAR LIRA 072115Z 20002KT CAVOK 20/13 Q1014=
201206072045 METAR LIRA 072045Z 17002KT CAVOK 20/12 Q1014=
201206072015 METAR LIRA 072015Z 17003KT CAVOK 20/13 Q1014=
201206071945 METAR LIRA 071945Z 19003KT CAVOK 21/13 Q1014=
201206071915 METAR LIRA 071915Z 19004KT CAVOK 21/13 Q1014=
201206071845 METAR LIRA 071845Z 23004KT CAVOK 22/12 Q1014=
201206071815 METAR LIRA 071815Z 23005KT CAVOK 22/12 Q1014=
201206071745 METAR LIRA 071745Z 24005KT CAVOK 24/11 Q1014=
201206071715 METAR LIRA 071715Z 24005KT CAVOK 24/11 Q1014=
201206071645 METAR LIRA 071645Z 24005KT CAVOK 25/11 Q1014=
201206071615 METAR LIRA 071615Z 24006KT 200V280 CAVOK 25/11 Q1014=
201206071545 METAR LIRA 071545Z 24007KT 200V280 CAVOK 26/12 Q1014=
201206071515 METAR LIRA 071515Z 24006KT 200V300 CAVOK 26/12 Q1014=
201206071445 METAR LIRA 071445Z 24006KT 220V280 CAVOK 26/12 Q1014=
201206071415 METAR LIRA 071415Z 24007KT 190V300 CAVOK 27/12 Q1014=
201206071345 METAR LIRA 071345Z 23008KT 200V270 CAVOK 27/13 Q1014=
201206071315 METAR LIRA 071315Z 22007KT 180V260 CAVOK 27/13 Q1014=
201206071245 METAR LIRA 071245Z 24008KT 220V290 CAVOK 27/13 Q1014=
201206071215 METAR LIRA 071215Z 25007KT 210V290 CAVOK 27/12 Q1014=
201206071145 METAR LIRA 071145Z 22006KT 170V300 CAVOK 27/12 Q1014=
201206071115 METAR LIRA 071115Z 30006KT 250V330 CAVOK 27/12 Q1014=
201206071045 METAR LIRA 071045Z 28003KT CAVOK 27/11 Q1015=
201206071015 METAR LIRA 071015Z 25004KT CAVOK 26/11 Q1015=
201206070945 METAR LIRA 070945Z 21003KT CAVOK 25/11 Q1015=
201206070915 METAR LIRA 070915Z 36004KT 320V100 CAVOK 25/12 Q1015=
201206070845 METAR LIRA 070845Z 34002KT CAVOK 24/12 Q1015=
201206070815 METAR LIRA 070815Z 04002KT CAVOK 24/12 Q1016=
201206070745 METAR LIRA 070745Z 30002KT CAVOK 22/13 Q1016=
201206070715 METAR LIRA 070715Z 02002KT 9999 FEW030 21/14 Q1015=
201206070645 METAR LIRA 070645Z 01003KT 9999 FEW030 20/15 Q1015=
201206070615 METAR LIRA 070615Z 02002KT 9999 FEW030 19/15 Q1015=
201206070545 METAR LIRA 070545Z 04003KT 9999 FEW030 18/15 Q1015=
201206070515 METAR LIRA 070515Z 04002KT CAVOK 17/13 Q1015=
201206070445 METAR LIRA 070445Z 07002KT CAVOK 16/12 Q1015=
201206070415 METAR LIRA 070415Z 08002KT CAVOK 14/11 Q1015=
201206070345 METAR LIRA 070345Z 10002KT 9999 FEW010 14/11 Q1014=
201206070315 METAR LIRA 070315Z 00000KT CAVOK 14/12 Q1014=
201206070245 METAR LIRA 070245Z 00000KT 9999 FEW080 15/13 Q1014=
201206070215 METAR LIRA 070215Z 00000KT 9999 FEW080 15/13 Q1015=
201206070145 METAR LIRA 070145Z 10002KT 9999 FEW080 15/13 Q1015=
201206070115 METAR LIRA 070115Z 09002KT 9999 FEW080 15/12 Q1015=
201206070045 METAR LIRA 070045Z 08003KT 9999 FEW080 15/12 Q1015=
201206070015 METAR LIRA 070015Z 19002KT 9999 FEW080 15/11 Q1015=
201206062350 METAR LIRA 070045Z 08003KT 9999 FEW080 15/12 Q1015=
201206062345 METAR LIRA 062345Z 11002KT 9999 FEW080 16/12 Q1015=
201206062315 METAR LIRA 062315Z 11004KT 9999 FEW080 15/13 Q1015=
201206062245 METAR LIRA 062245Z 11003KT 9999 FEW080 16/14 Q1015=
201206062215 METAR LIRA 062215Z 12002KT 9999 FEW080 17/15 Q1015=
201206062145 METAR LIRA 062145Z 00000KT 9999 FEW080 SCT200 17/15 Q1015=
201206062115 METAR LIRA 062115Z 28001KT 9999 FEW080 SCT200 17/15 Q1015=
201206062045 METAR LIRA 062045Z 28001KT CAVOK 18/15 Q1015=
201206062015 METAR LIRA 062015Z 00000KT CAVOK 18/15 Q1015=
201206061945 METAR LIRA 061945Z 24002KT 9999 FEW080 18/15 Q1015=
201206061915 METAR LIRA 061915Z 26002KT 9999 FEW080 19/15 Q1015=
201206061845 METAR LIRA 061845Z 26002KT 9999 FEW080 20/15 Q1015=
201206061815 METAR LIRA 061815Z 27004KT 9999 FEW080 21/15 Q1015=
201206061745 METAR LIRA 061745Z 26005KT 9999 FEW080 22/15 Q1015=
201206061715 METAR LIRA 061715Z 27007KT 220V320 9999 FEW070 SCT200 23/15
                        Q1015=
201206061645 METAR LIRA 061645Z 28007KT 160V320 9999 FEW018 SCT200 23/14
                        Q1015=
201206061615 METAR LIRA 061615Z 28007KT 220V320 9999 FEW018 SCT200 24/15
                        Q1015=
201206061545 METAR LIRA 061545Z 24007KT 200V260 9999 FEW018 BKN200 24/15
                        Q1015=
201206061515 METAR LIRA 061515Z 25006KT 200V280 9999 FEW018 BKN200 23/14
                        Q1015=
201206061445 METAR LIRA 061445Z 23008KT 200V280 9999 FEW018 SCT200 24/14
                        Q1015=
201206061415 METAR LIRA 061415Z 25007KT 190V250 9999 FEW018 SCT200 24/14
                        Q1015=
201206061345 METAR LIRA 061345Z 24007KT 160V300 9999 FEW018 SCT200 25/15
                        Q1015=
201206061315 METAR LIRA 061315Z 23006KT 190V290 9999 FEW018 SCT200 25/15
                        Q1015=
201206061245 METAR LIRA 061245Z 26007KT 200V310 9999 FEW018 SCT200 24/15
                        Q1015=
201206061215 METAR LIRA 061215Z 25008KT 210V290 9999 FEW018 SCT200 25/13
                        Q1015=
201206061145 METAR LIRA 061145Z 23007KT 180V280 9999 FEW018 SCT200 25/15
                        Q1015=
201206061115 METAR LIRA 061115Z 210P99KT 170V270 9999 FEW018 SCT200 25/15
                        Q1015=
201206061045 METAR LIRA 061045Z 23007KT 160V280 9999 FEW018 25/17 Q1015=
201206061015 METAR LIRA 061015Z 20008KT 160V250 9999 FEW018 25/17 Q1015=
201206060945 METAR LIRA 060945Z 19008KT 140V230 9999 FEW018 24/17 Q1015=
201206060915 METAR LIRA 060915Z 20008KT 150V230 9999 FEW018 24/17 Q1015=
201206060845 METAR LIRA 060845Z 20007KT 160V060 9999 FEW018 23/15 Q1015=
201206060815 METAR LIRA 060815Z 19007KT 160V220 9999 FEW018 23/16 Q1015=
201206060745 METAR LIRA 060745Z 18008KT 9999 FEW018 22/16 Q1015=
201206060715 METAR LIRA 060715Z 19007KT 160V230 9999 FEW018 22/18 Q1015=
201206060645 METAR LIRA 060645Z 15003KT 9999 FEW018 20/17 Q1015=
201206060615 METAR LIRA 060615Z 19005KT 9999 FEW018 20/17 Q1015=
201206060545 METAR LIRA 060545Z 19005KT 160V230 9999 FEW018 SCT200 19/16
                        Q1014=
201206060515 METAR LIRA 060515Z 20004KT 9999 FEW018 SCT200 19/17 Q1014=
201206060445 METAR LIRA 060445Z 17004KT 9999 FEW018 SCT200 17/16 Q1014=
201206060415 METAR LIRA 060415Z 15005KT 9999 FEW015 17/16 Q1014=
201206060345 METAR LIRA 060345Z 17002KT 9999 FEW017 17/16 Q1014=
201206060315 METAR LIRA 060315Z 15004KT 9999 FEW018 SCT025 17/16 Q1013=
201206060245 METAR LIRA 060245Z 17003KT 9999 FEW018 SCT025 18/17 Q1013=
201206060215 METAR LIRA 060215Z 18003KT 9999 FEW018 SCT025 18/17 Q1013=
201206060145 METAR LIRA 060145Z 18003KT 9999 FEW018 SCT025 18/17 Q1013=
201206060115 METAR LIRA 060115Z 17003KT 9999 SCT018 SCT025 18/17 Q1013=
201206060045 METAR LIRA 060045Z 19004KT 9999 SCT018 SCT025 18/17 Q1013=
201206060015 METAR LIRA 060015Z 20003KT 9999 FEW018 SCT025 18/17 Q1013=
201206052350 METAR LIRA 060045Z 19004KT 9999 SCT018 SCT025 18/17 Q1013=
201206052345 METAR LIRA 052345Z 18004KT 9999 FEW018 SCT030 18/17 Q1013=
201206052315 METAR LIRA 052315Z 17003KT CAVOK 18/17 Q1013=
201206052245 METAR LIRA 052245Z 17004KT CAVOK 19/17 Q1014=
201206052215 METAR LIRA 052215Z 17003KT CAVOK 19/17 Q1014=
201206052145 METAR LIRA 052145Z 19003KT CAVOK 19/17 Q1014=
201206052115 METAR LIRA 052115Z 19003KT CAVOK 19/17 Q1014=
201206052045 METAR LIRA 052045Z 22002KT CAVOK 19/17 Q1013=
201206052015 METAR LIRA 052015Z 19003KT CAVOK 19/17 Q1013=
201206051945 METAR LIRA 051945Z 19005KT 9999 FEW080 20/17 Q1013=
201206051915 METAR LIRA 051915Z 21004KT CAVOK 21/17 Q1012=
201206051845 METAR LIRA 051845Z 23005KT 9999 FEW020 21/17 Q1012=
201206051815 METAR LIRA 051815Z 23004KT 9999 FEW020 23/16 Q1012=
201206051745 METAR LIRA 051745Z 24005KT 9999 FEW020 24/15 Q1012=
201206051715 METAR LIRA 051715Z 28006KT 240V320 9999 FEW020 24/15 Q1012=
201206051645 METAR LIRA 051645Z 29009KT 9999 FEW017 24/16 Q1012=
201206051615 METAR LIRA 051615Z 27008KT 230V310 9999 FEW017 24/16 Q1012=
201206051545 METAR LIRA 051545Z 29012KT 9999 FEW017 25/17 Q1012=
201206051515 METAR LIRA 051515Z 28010KT 210V320 9999 FEW017 25/18 Q1011=
201206051445 METAR LIRA 051445Z 28011KT 230V330 9999 SCT017 25/17 Q1011=
201206051415 METAR LIRA 051415Z 28008KT 210V350 9999 SCT017 26/17 Q1011=
201206051345 METAR LIRA 051345Z 28010KT 230V310 9999 SCT017 26/16 Q1011=
201206051315 METAR LIRA 051315Z 29012KT 260V310 9999 SCT017 26/16 Q1012=
201206051245 METAR LIRA 051245Z 32007KT 280V350 9999 SCT017 26/13 Q1012=
201206051215 METAR LIRA 051215Z 32008KT 270V350 9999 FEW017 26/12 Q1012=
201206051145 METAR LIRA 051145Z 32005KT 270V360 9999 FEW017 25/13 Q1012=
201206051115 METAR LIRA 051115Z 35006KT 310V030 9999 SCT017 25/13 Q1012=
201206051045 METAR LIRA 051045Z 30006KT 230V350 9999 SCT017 24/14 Q1012=
201206051015 METAR LIRA 051015Z 35005KT 320V020 9999 FEW015 23/14 Q1011=
201206050945 METAR LIRA 050945Z 29005KT 290V040 9999 FEW015 23/14 Q1011=
201206050915 METAR LIRA 050915Z 31006KT 280V360 9999 FEW015 22/15 Q1011=
201206050845 METAR LIRA 050845Z 32004KT 9999 FEW015 21/14 Q1011=
201206050815 METAR LIRA 050815Z 33006KT 300V010 9999 FEW015 20/14 Q1011=
201206050745 METAR LIRA 050745Z 35006KT 310V060 9999 FEW015 20/15 Q1011=
201206050715 METAR LIRA 050715Z 02004KT 9999 FEW015 19/15 Q1011=
201206050645 METAR LIRA 050645Z 03003KT 9999 FEW015 18/15 Q1011=
201206050615 METAR LIRA 050615Z 03002KT 9999 FEW030 17/15 Q1010=
201206050545 METAR LIRA 050545Z 36003KT 9999 SCT030 16/16 Q1010=
201206050515 METAR LIRA 050515Z 07002KT 9999 SCT030 15/15 Q1010=
201206050445 METAR LIRA 050445Z 07002KT 9999 SCT030 15/14 Q1010=
201206050415 METAR LIRA 050415Z 06002KT 9999 FEW080 13/13 Q1010=
201206050345 METAR LIRA 050345Z 05002KT CAVOK 13/12 Q1010=
201206050315 METAR LIRA 050315Z 03002KT CAVOK 14/12 Q1009=
201206050245 METAR LIRA 050245Z 03002KT CAVOK 14/12 Q1009=
201206050215 METAR LIRA 050215Z 05002KT CAVOK 14/13 Q1009=
201206050145 METAR LIRA 050145Z 05002KT CAVOK 14/13 Q1009=
201206050115 METAR LIRA 050115Z 13001KT 9999 FEW080 15/13 Q1009=
201206050045 METAR LIRA 050045Z 12001KT 9999 FEW080 15/13 Q1009=
201206050015 METAR LIRA 050015Z 13005KT 9999 FEW060 15/14 Q1009=
201206042350 METAR LIRA 050045Z 12001KT 9999 FEW080 15/13 Q1009=
201206042345 METAR LIRA 042345Z 14002KT 9999 FEW060 16/15 Q1009=
201206042315 METAR LIRA 042315Z 18002KT 9999 FEW060 16/15 Q1009=
201206042245 METAR LIRA 042245Z 13007KT 9999 FEW030 SCT060 16/15 Q1009=
201206042215 METAR LIRA 042215Z 14005KT 9999 FEW015 17/15 Q1010=
201206042145 METAR LIRA 042145Z 16005KT 9999 FEW015TCU 17/15 Q1010=
201206042115 METAR LIRA 042115Z 18005KT 9999 FEW015TCU SCT020 18/16 Q1010=
201206042045 METAR LIRA 042045Z 18005KT 9999 FEW015 SCT025 17/15 Q1010=
201206042015 METAR LIRA 042015Z 19005KT 9999 FEW015 SCT025 18/17 Q1010=
201206041945 METAR LIRA 041945Z 18005KT 9999 FEW015 SCT025 18/16 Q1010=
201206041915 METAR LIRA 041915Z 19005KT 9999 FEW020 19/16 Q1009=
201206041845 METAR LIRA 041845Z 20006KT 9999 FEW020 19/17 Q1010=
201206041815 METAR LIRA 041815Z 22007KT 9999 FEW020 20/16 Q1010=
201206041745 METAR LIRA 041745Z 23007KT 9999 FEW017 21/16 Q1010=
201206041715 METAR LIRA 041715Z 22008KT 9999 FEW016 FEW017CB SCT030 21/17
                        Q1010=
201206041645 METAR LIRA 041645Z 20010KT 170V240 9999 SCT016 FEW017TCU
                        SCT030 20/17 Q1010=
201206041615 METAR LIRA 041615Z 22008KT 190V250 9999 SCT016 FEW017CB SCT030
                        21/18 Q1010=
201206041545 METAR LIRA 041545Z 22008KT 180V250 9999 SCT016 FEW017CB SCT030
                        21/18 Q1010=
201206041515 METAR LIRA 041515Z 23011KT 200V260 9999 FEW017CB SCT018 21/18
                        Q1010=
201206041445 METAR LIRA 041445Z 23009KT 190V270 9999 FEW017TCU SCT018
                        22/18 Q1010=
201206041415 METAR LIRA 041415Z 24011KT 210V280 9999 FEW016TCU SCT017
                        22/18 Q1010=
201206041345 METAR LIRA 041345Z 23009KT 200V260 9999 BKN017 22/18 Q1010=
201206041315 METAR LIRA 041315Z 23011G21KT 9999 BKN017 22/18 Q1010=
201206041245 METAR LIRA 041245Z 23010G20KT 190V260 9999 BKN017 23/19 Q1010=
201206041215 METAR LIRA 041215Z 21011KT 180V260 9999 BKN017 23/18 Q1010=
201206041145 METAR LIRA 041145Z 19013KT 9999 FEW017TCU SCT018 22/20 Q1010=
201206041115 METAR LIRA 041115Z 19011KT 9999 FEW016 FEW017TCU SCT018 22/19
                        Q1011=
201206041045 METAR LIRA 041045Z 18011KT 140V220 9999 FEW017TCU SCT018
                        22/19 Q1011=
201206041015 METAR LIRA 041015Z 18008KT 150V220 9999 FEW017TCU SCT018
                        22/19 Q1011=
201206040945 METAR LIRA 040945Z 17010KT 140V220 9999 FEW017TCU SCT018
                        23/18 Q1011=
201206040915 METAR LIRA 040915Z 15010KT 120V200 9999 SCT018 SCT070 23/17
                        Q1011=
201206040845 METAR LIRA 040845Z 15011KT 130V190 9999 SCT020 SCT070 22/18
                        Q1011=
201206040815 METAR LIRA 040815Z 15010KT 9999 FEW020 SCT035 21/16 Q1011=
201206040745 METAR LIRA 040745Z 16010KT 9999 FEW020 SCT035 21/15 Q1011=
201206040715 METAR LIRA 040715Z 14009KT 9999 FEW020 SCT035 21/16 Q1011=
201206040645 METAR LIRA 040645Z 16006KT 110V180 9999 FEW020 SCT070 20/16
                        Q1011=
201206040615 METAR LIRA 040615Z 17006KT 9999 FEW020 20/16 Q1011=
201206040545 METAR LIRA 040545Z 17004KT 9999 FEW020 20/16 Q1012=
201206040515 METAR LIRA 040515Z 16005KT 110V170 9999 FEW018 19/13 Q1011=
201206040445 METAR LIRA 040445Z 17003KT 9999 FEW018 19/13 Q1012=
201206040415 METAR LIRA 040415Z 14005KT 9999 FEW018 SCT080 19/13 Q1012=
201206040345 METAR LIRA 040345Z 16007KT 9999 FEW080 16/11 Q1012=
201206040315 METAR LIRA 040315Z 17006KT CAVOK 15/10 Q1012=
201206040245 METAR LIRA 040245Z 22002KT CAVOK 16/11 Q1012=
201206040215 METAR LIRA 040215Z 24006KT CAVOK 16/10 Q1012=
201206040145 METAR LIRA 040145Z 06001KT CAVOK 16/11 Q1013=
201206040115 METAR LIRA 040115Z 09001KT CAVOK 17/10 Q1013=
201206040045 METAR LIRA 040045Z 09001KT CAVOK 17/10 Q1013=
201206040015 METAR LIRA 040015Z 00000KT CAVOK 18/10 Q1014=
201206032350 METAR LIRA 040045Z 09001KT CAVOK 17/10 Q1013=
201206032345 METAR LIRA 032345Z 14005KT CAVOK 18/09 Q1014=
201206032315 METAR LIRA 032315Z 16003KT CAVOK 18/09 Q1015=
201206032245 METAR LIRA 032245Z 14005KT CAVOK 20/10 Q1015=
201206032215 METAR LIRA 032215Z 15003KT CAVOK 19/10 Q1015=
201206032145 METAR LIRA 032145Z 14005KT CAVOK 19/08 Q1015=
201206032115 METAR LIRA 032115Z 16003KT CAVOK 21/09 Q1015=
201206032045 METAR LIRA 032045Z 18004KT CAVOK 21/11 Q1015=
201206032015 METAR LIRA 032015Z 17005KT CAVOK 21/11 Q1015=
201206031945 METAR LIRA 031945Z 17005KT CAVOK 21/09 Q1015=
201206031915 METAR LIRA 031915Z 20007KT CAVOK 22/08 Q1015=
201206031845 METAR LIRA 031845Z 20007KT CAVOK 23/08 Q1015=
201206031815 METAR LIRA 031815Z 20007KT 170V230 CAVOK 24/08 Q1015=
201206031745 METAR LIRA 031745Z 20008KT CAVOK 24/07 Q1015=
201206031715 METAR LIRA 031715Z 20007KT 170V230 CAVOK 25/08 Q1015=
201206031645 METAR LIRA 031645Z 21007KT 150V250 CAVOK 25/08 Q1015=
201206031615 METAR LIRA 031615Z 20009KT CAVOK 25/08 Q1015=
201206031545 METAR LIRA 031545Z 20007KT 160V220 CAVOK 25/08 Q1015=
201206031515 METAR LIRA 031515Z 20008KT CAVOK 26/09 Q1016=
201206031445 METAR LIRA 031445Z 19009KT 170V240 CAVOK 26/09 Q1016=
201206031415 METAR LIRA 031415Z 20008KT 160V230 CAVOK 27/08 Q1016=
201206031345 METAR LIRA 031345Z 19008KT 160V220 CAVOK 27/08 Q1016=
201206031315 METAR LIRA 031315Z 20009KT 170V250 CAVOK 27/09 Q1017=
201206031245 METAR LIRA 031245Z 19009KT CAVOK 27/09 Q1017=
201206031215 METAR LIRA 031215Z 20009KT 150V250 CAVOK 27/10 Q1017=
201206031145 METAR LIRA 031145Z 20008KT 140V250 CAVOK 27/10 Q1017=
201206031115 METAR LIRA 031115Z 22007KT 180V260 CAVOK 27/10 Q1017=
201206031045 METAR LIRA 031045Z 16008KT 130V200 CAVOK 26/12 Q1017=
201206031015 METAR LIRA 031015Z 17008KT 130V210 CAVOK 26/12 Q1017=
201206030945 METAR LIRA 030945Z 19009KT 140V220 CAVOK 26/10 Q1017=
201206030915 METAR LIRA 030915Z 17008KT CAVOK 25/10 Q1017=
201206030845 METAR LIRA 030845Z 19007KT 130V250 CAVOK 25/09 Q1017=
201206030815 METAR LIRA 030815Z 19008KT 150V220 CAVOK 25/11 Q1017=
201206030745 METAR LIRA 030745Z 17007KT 120V190 CAVOK 24/10 Q1017=
201206030715 METAR LIRA 030715Z 21003KT CAVOK 23/12 Q1017=
201206030645 METAR LIRA 030645Z 05002KT CAVOK 22/15 Q1017=
201206030615 METAR LIRA 030615Z 09002KT CAVOK 20/15 Q1017=
201206030545 METAR LIRA 030545Z 04002KT CAVOK 18/16 Q1017=
201206030515 METAR LIRA 030515Z 36002KT CAVOK 16/12 Q1017=
201206030445 METAR LIRA 030445Z 36001KT CAVOK 15/12 Q1017=
201206030415 METAR LIRA 030415Z 00000KT CAVOK 14/11 Q1017=
201206030345 METAR LIRA 030345Z 18001KT CAVOK 15/11 Q1017=
201206030315 METAR LIRA 030315Z 15001KT CAVOK 15/11 Q1017=
201206030245 METAR LIRA 030245Z 24001KT CAVOK 15/11 Q1017=
201206030215 METAR LIRA 030215Z 09005KT CAVOK 16/11 Q1017=
201206030145 METAR LIRA 030145Z 11006KT CAVOK 16/12 Q1017=
201206030115 METAR LIRA 030115Z 11001KT CAVOK 16/12 Q1017=
201206030045 METAR LIRA 030045Z 11001KT CAVOK 16/12 Q1017=
201206030015 METAR LIRA 030015Z 11002KT CAVOK 17/13 Q1018=
201206022350 METAR LIRA 030045Z 11001KT CAVOK 16/12 Q1017=
201206022345 METAR LIRA 022345Z 11002KT CAVOK 17/13 Q1018=
201206022315 METAR LIRA 022315Z 16001KT CAVOK 17/13 Q1017=
201206022245 METAR LIRA 022245Z 00000KT CAVOK 18/13 Q1017=
201206022215 METAR LIRA 022215Z 00000KT CAVOK 18/12 Q1017=
201206022145 METAR LIRA 022145Z 14003KT CAVOK 19/12 Q1017=
201206022115 METAR LIRA 022115Z 15005KT CAVOK 20/13 Q1017=
201206022045 METAR LIRA 022045Z 15005KT CAVOK 19/12 Q1017=
201206022015 METAR LIRA 022015Z 17005KT CAVOK 21/12 Q1017=
201206021945 METAR LIRA 021945Z 17006KT CAVOK 21/16 Q1017=
201206021915 METAR LIRA 021915Z 20006KT CAVOK 21/16 Q1017=
201206021845 METAR LIRA 021845Z 20006KT CAVOK 22/18 Q1017=
201206021815 METAR LIRA 021815Z 21006KT 180V240 CAVOK 23/16 Q1017=
201206021745 METAR LIRA 021745Z 22006KT 180V260 CAVOK 24/15 Q1017=
201206021715 METAR LIRA 021715Z 19008KT CAVOK 25/15 Q1016=
201206021645 METAR LIRA 021645Z 19009KT 160V220 CAVOK 25/15 Q1016=
201206021615 METAR LIRA 021615Z 19009KT 160V240 9999 FEW080 25/16 Q1016=
201206021545 METAR LIRA 021545Z 20009KT 160V260 9999 FEW030 26/16 Q1016=
201206021515 METAR LIRA 021515Z 19011KT 160V220 9999 FEW030 27/16 Q1016=
201206021445 METAR LIRA 021445Z 19010KT 170V230 9999 FEW030 26/17 Q1016=
201206021415 METAR LIRA 021415Z 19011KT 150V240 9999 FEW025CB 26/18 Q1017=
201206021345 METAR LIRA 021345Z 18011KT 150V220 9999 FEW025CB 26/19 Q1017=
201206021315 METAR LIRA 021315Z 19011KT 150V220 9999 FEW025CB 26/19 Q1017=
201206021245 METAR LIRA 021245Z 18012KT 160V230 9999 FEW025TCU 26/20 Q1017=
201206021215 METAR LIRA 021215Z 17012KT 140V210 9999 FEW025TCU 26/19 Q1017=
201206021145 METAR LIRA 021145Z 20011KT 170V240 9999 FEW025TCU 26/20 Q1017=
201206021115 METAR LIRA 021115Z 20010KT 9999 FEW025TCU 25/20 Q1017=
201206021045 METAR LIRA 021045Z 19010KT 9999 FEW030 25/19 Q1017=
201206021015 METAR LIRA 021015Z 18008KT 150V220 9999 FEW030 25/19 Q1017=
201206020945 METAR LIRA 020945Z 20007KT 170V250 9999 FEW030 24/18 Q1017=
201206020915 METAR LIRA 020915Z 18005KT 150V260 9999 FEW030 24/18 Q1017=
201206020845 METAR LIRA 020845Z 21005KT 180V260 9999 FEW030 23/18 Q1017=
201206020815 METAR LIRA 020815Z 17004KT 180V250 CAVOK 23/18 Q1017=
201206020745 METAR LIRA 020745Z 23003KT CAVOK 22/19 Q1016=
201206020715 METAR LIRA 020715Z 26003KT CAVOK 20/18 Q1016=
201206020645 METAR LIRA 020645Z 25003KT CAVOK 20/18 Q1016=
201206020615 METAR LIRA 020615Z 29001KT CAVOK 19/17 Q1016=
201206020545 METAR LIRA 020545Z 24001KT CAVOK 17/16 Q1016=
201206020515 METAR LIRA 020515Z 00000KT CAVOK 17/15 Q1016=
201206020445 METAR LIRA 020445Z 00000KT 9999 FEW070 16/15 Q1016=
201206020415 METAR LIRA 020415Z 05001KT 9999 FEW070 16/14 Q1016=
201206020345 METAR LIRA 020345Z 06002KT 9999 FEW070 15/13 Q1016=
201206020315 METAR LIRA 020315Z 08001KT 9999 FEW070 15/13 Q1016=
201206020245 METAR LIRA 020245Z 08002KT 9999 FEW030 15/13 Q1016=
201206020215 METAR LIRA 020215Z 08003KT 9999 FEW030 15/14 Q1016=
201206020145 METAR LIRA 020145Z 14002KT 9999 FEW030 16/14 Q1016=
201206020115 METAR LIRA 020115Z 15004KT 9999 FEW030 16/14 Q1016=
201206020045 METAR LIRA 020045Z 16004KT 9999 FEW030 17/15 Q1016=
201206020015 METAR LIRA 020015Z 17002KT 9999 FEW030 17/15 Q1016=
201206012350 METAR LIRA 020045Z 16004KT 9999 FEW030 17/15 Q1016=
201206012345 METAR LIRA 012345Z 22002KT 9999 FEW030 18/16 Q1016=
201206012315 METAR LIRA 012315Z 20005KT 9999 FEW030 18/15 Q1016=
201206012245 METAR LIRA 012245Z 17003KT 9999 FEW030 18/16 Q1016=
201206012215 METAR LIRA 012215Z 12003KT 9999 FEW030 18/16 Q1016=
201206012145 METAR LIRA 012145Z 18005KT 9999 FEW030 18/17 Q1016=
201206012115 METAR LIRA 012115Z 18007KT 9999 FEW070 18/17 Q1016=
201206012045 METAR LIRA 012045Z 18005KT 9999 FEW070 19/17 Q1016=
201206012015 METAR LIRA 012015Z 20006KT 9999 FEW070 19/17 Q1016=
201206011945 METAR LIRA 011945Z 20007KT CAVOK 19/17 Q1016=
201206011915 METAR LIRA 011915Z 21003KT 9999 FEW020 SCT200 19/17 Q1016=
201206011845 METAR LIRA 011845Z 21004KT 9999 FEW020 SCT200 19/17 Q1015=
201206011815 METAR LIRA 011815Z 20008KT 9999 FEW020 SCT200 20/18 Q1015=
201206011745 METAR LIRA 011745Z 21006KT 170V270 9999 FEW020 SCT200 20/18
                        Q1015=
201206011715 METAR LIRA 011715Z 21007KT 170V260 9999 FEW020 BKN200 21/19
                        Q1015=
201206011645 METAR LIRA 011645Z 21007KT 180V250 9999 FEW020 SCT200 22/19
                        Q1015=
201206011615 METAR LIRA 011615Z 21008KT 170V260 9999 FEW020 BKN200 22/18
                        Q1015=
201206011545 METAR LIRA 011545Z 22008KT 160V250 9999 FEW020 BKN200 22/18
                        Q1016=
201206011515 METAR LIRA 011515Z 20009KT 160V230 9999 FEW020 23/19 Q1015=
201206011445 METAR LIRA 011445Z 21009KT 160V240 9999 FEW020 24/19 Q1015=
201206011415 METAR LIRA 011415Z 21008KT 180V250 9999 SCT020 24/18 Q1016=
201206011345 METAR LIRA 011345Z 19009KT 160V230 9999 SCT020 24/18 Q1016=
201206011315 METAR LIRA 011315Z 20010KT 160V240 9999 SCT020 24/18 Q1016=
201206011245 METAR LIRA 011245Z 21009KT 180V250 9999 FEW020 24/19 Q1016=
201206011215 METAR LIRA 011215Z 20010KT 160V240 9999 FEW020 24/18 Q1016=
201206011145 METAR LIRA 011145Z 20010G20KT 160V230 9999 FEW020 24/18 Q1016=
201206011115 METAR LIRA 011115Z 19010KT 150V230 9999 FEW020 25/16 Q1016=
201206011045 METAR LIRA 011045Z 19009KT 150V240 9999 FEW020 24/17 Q1016=
201206011015 METAR LIRA 011015Z 18008KT 140V210 9999 FEW020 25/15 Q1017=
201206010945 METAR LIRA 010945Z 19008KT 9999 FEW020 24/14 Q1017=
201206010915 METAR LIRA 010915Z 19005KT 160V230 9999 FEW020 24/15 Q1017=
201206010900 METAR LIRA INTER CB W-N=
201206010845 METAR LIRA 010845Z 19004KT 180V260 CAVOK 23/15 Q1017=
201206010815 METAR LIRA 010815Z 00000KT 9999 FEW080 22/15 Q1017=
201206010745 METAR LIRA 010745Z 34002KT 9999 FEW080 21/15 Q1017=
201206010715 METAR LIRA 010715Z 04003KT 9999 FEW080 20/16 Q1017=
201206010645 METAR LIRA 010645Z 03004KT 9999 FEW080 19/15 Q1017=
201206010615 METAR LIRA 010615Z 05005KT 9999 FEW080 17/15 Q1017=
201206010545 METAR LIRA 010545Z 07005KT 9999 FEW080 16/13 Q1017=
201206010515 METAR LIRA 010515Z 10003KT 9999 FEW080 16/13 Q1017=
201206010445 METAR LIRA 010445Z 14005KT 9999 FEW080 15/13 Q1017=
201206010415 METAR LIRA 010415Z 17004KT 9999 FEW020 15/13 Q1017=
201206010345 METAR LIRA 010345Z 20004KT 9999 FEW020 15/13 Q1017=
201206010315 METAR LIRA 010315Z 15003KT 9999 FEW020 14/12 Q1017=
201206010245 METAR LIRA 010245Z 00000KT CAVOK 13/11 Q1017=
201206010215 METAR LIRA 010215Z 00000KT CAVOK 15/12 Q1017=
201206010145 METAR LIRA 010145Z 17001KT CAVOK 15/12 Q1017=
201206010115 METAR LIRA 010115Z 17003KT CAVOK 16/12 Q1017=
201206010045 METAR LIRA 010045Z 00000KT CAVOK 16/13 Q1017=
201206010015 METAR LIRA 010015Z 13005KT CAVOK 16/13 Q1017=

</pre>

</body>
</html>
