##########################################################
# Query made at 11/10/2014 14:59:19 UTC
# Time interval: from 06/01/2009 00:00  to 07/01/2009 23:59  UTC
##########################################################

##########################################################
# LIRA, Roma / Ciampino (Italy)
# WMO index: 16239
# Latitude 41-47N. Longitude 012-35E. Altitude 129 m.
##########################################################

###################################
#  METAR/SPECI from LIRA
###################################
200907012345 METAR LIRA 012345Z 02002KT 9999 FEW070 20/19 Q1017=
200907012315 METAR LIRA 012315Z 10001KT 8000 FEW070 20/19 Q1017=
200907012245 METAR LIRA 012245Z 04004KT 8000 SCT070 20/19 Q1017=
200907012215 METAR LIRA 012215Z 04003KT 8000 SCT070 20/19 Q1017=
200907012145 METAR LIRA 012145Z 08001KT 8000 SCT070 21/20 Q1017=
200907012115 METAR LIRA 012115Z 00000KT 9999 SCT070 21/20 Q1017=
200907012045 METAR LIRA 012045Z 32001KT 9999 FEW018 SCT070 21/20 Q1017=
200907012015 METAR LIRA 012015Z 01001KT 9999 FEW018 SCT070 20/19 Q1017=
200907011945 METAR LIRA 011945Z 11002KT 9999 FEW018 FEW020CB SCT070 21/19
                        Q1016=
200907011915 METAR LIRA 011915Z 02003KT 9999 FEW018 FEW020CB BKN070 21/19
                        Q1016=
200907011845 METAR LIRA 011845Z 02002KT 9999 FEW018 FEW020CB BKN070 22/20
                        Q1016=
200907011815 METAR LIRA 011815Z 01004KT 9999 FEW016 FEW020CB SCT070 22/20
                        Q1016=
200907011745 METAR LIRA 011745Z 07002KT 9999 FEW016 FEW020CB SCT070 22/21
                        Q1016 RERA=
200907011715 METAR LIRA 011715Z 06003KT 350V070 9999 SCT016 FEW020CB 21/19
                        Q1016 RETS=
200907011645 METAR LIRA 011645Z 05006KT 360V080 9999 -TSRA SCT016 FEW020CB
                        20/19 Q1016=
200907011615 METAR LIRA 011615Z 36003KT 9999 -TSRA BKN016 SCT020CB 20/19
                        Q1016=
200907011545 METAR LIRA 011545Z 05005KT 320V080 6000 -TSRA SCT012 SCT017CB
                        22/20 Q1016=
200907011515 METAR LIRA 011515Z 12009KT 8000 -TSRA SCT012 SCT017CB 25/18
                        Q1016=
200907011445 METAR LIRA 011445Z 13012KT 110V180 8000 TS SCT012 SCT017CB
                        26/19 Q1015=
200907011415 METAR LIRA 011415Z 19007KT 130V240 8000 TS SCT012 SCT017CB
                        27/20 Q1015=
200907011345 METAR LIRA 011345Z 18011KT 140V220 8000 TS SCT012 SCT017CB
                        28/21 Q1015 RETS=
200907011315 METAR LIRA 011315Z 19008KT 150V230 8000 -TSRA SCT012 SCT017CB
                        27/20 Q1015=
200907011245 METAR LIRA 011245Z 23009KT 200V270 9999 -TSRA SCT015 SCT017CB
                        28/21 Q1015=
200907011215 METAR LIRA 011215Z 22006KT 140V260 9999 BKN017 FEW020CB 29/20
                        Q1016=
200907011145 METAR LIRA 011145Z 22005KT 170V270 9999 BKN017 FEW020TCU
                        FEW021CB 28/21 Q1016=
200907011115 METAR LIRA 011115Z 25005KT 210V300 9999 BKN017 FEW020TCU
                        FEW021CB 28/20 Q1016=
200907011045 METAR LIRA 011045Z 17004KT 9999 BKN017 FEW020TCU 29/19 Q1016=
200907011015 METAR LIRA 011015Z 26002KT 9999 BKN017 FEW020TCU 28/19 Q1016=
200907010945 METAR LIRA 010945Z 16004KT 9999 SCT017 FEW020TCU 27/19 Q1016=
200907010915 METAR LIRA 010915Z 15003KT 9999 SCT017 FEW020TCU 27/20 Q1016=
200907010845 METAR LIRA 010845Z 24003KT 9999 SCT017 FEW020TCU 26/20 Q1016=
200907010815 METAR LIRA 010815Z 24003KT 9999 SCT017 FEW020TCU 26/20 Q1016=
200907010745 METAR LIRA 010745Z 24001KT 9999 SCT017 FEW020TCU 25/20 Q1016=
200907010715 METAR LIRA 010715Z 15004KT 9999 FEW017 25/20 Q1016=
200907010645 METAR LIRA 010645Z 06002KT 9999 FEW017 24/19 Q1016=
200907010615 METAR LIRA 010615Z 02001KT CAVOK 23/19 Q1016=
200907010545 METAR LIRA 010545Z 02001KT 9000 NSC 21/20 Q1015=
200907010515 METAR LIRA 010515Z 04003KT 8000 NSC 20/19 Q1015=
200907010445 METAR LIRA 010445Z 36001KT 8000 NSC 20/19 Q1015=
200907010415 METAR LIRA 010415Z 05002KT 7000 FEW010 19/18 Q1015=
200907010345 METAR LIRA 010345Z 00000KT 4500 BR SCT008 20/19 Q1015=
200907010315 METAR LIRA 010315Z 02002KT 5000 BR SCT010 20/18 Q1015=
200907010245 METAR LIRA 010245Z 03002KT 6000 SCT010 20/19 Q1015=
200907010215 METAR LIRA 010215Z 00000KT 6000 SCT010 20/18 Q1016=
200907010145 METAR LIRA 010145Z 08002KT 6000 FEW010 20/18 Q1016=
200907010115 METAR LIRA 010115Z 07003KT 6000 FEW010 20/19 Q1016=
200907010045 METAR LIRA 010045Z 00000KT 6000 FEW010 21/20 Q1016=
200907010015 METAR LIRA 010015Z 16002KT 6000 FEW010 22/20 Q1016=
200906302350 METAR LIRA 010045Z 00000KT 6000 FEW010 21/20 Q1016=
200906302345 METAR LIRA 302345Z 15003KT 6000 FEW010 22/21 Q1016=
200906302315 METAR LIRA 302315Z 14002KT 6000 SCT010 22/21 Q1016=
200906302245 METAR LIRA 302245Z 17004KT 8000 NSC 22/21 Q1016=
200906302215 METAR LIRA 302215Z 16002KT 8000 NSC 22/21 Q1016=
200906302145 METAR LIRA 302145Z 18003KT CAVOK 22/21 Q1016=
200906302115 METAR LIRA 302115Z 20003KT 9999 FEW020 SCT200 23/21 Q1016=
200906302045 METAR LIRA 302045Z 21004KT 9999 FEW020CB SCT200 23/22 Q1016=
200906302015 METAR LIRA 302015Z 16003KT 9999 FEW020CB SCT060 24/22 Q1015=
200906301945 METAR LIRA 301945Z 18003KT 9999 FEW020CB SCT080 24/22 Q1015=
200906301915 METAR LIRA 301915Z 20002KT 9999 FEW020CB SCT080 24/21 Q1015
                        RETS=
200906301845 METAR LIRA 301845Z 16004KT 9999 FEW017 FEW020CB SCT080 24/22
                        Q1015 RETS=
200906301815 METAR LIRA 301815Z 22005KT 9999 -TSRA FEW017 SCT018CB 23/21
                        Q1015 RETS=
200906301745 METAR LIRA 301745Z 26003KT 9999 TSRA SCT017 SCT020CB 26/21
                        Q1015=
200906301715 METAR LIRA 301715Z 21006KT 160V240 9999 TS FEW017 SCT021CB
                        26/20 Q1015=
200906301645 METAR LIRA 301645Z 20006KT 150V230 9999 TS FEW017 SCT021CB
                        27/20 Q1015=
200906301615 METAR LIRA 301615Z 21008KT 160V260 9999 FEW018 SCT021CB 28/21
                        Q1014=
200906301545 METAR LIRA 301545Z 22009KT 160V270 9999 SCT020 FEW022CB 27/20
                        Q1014=
200906301515 METAR LIRA 301515Z 23010KT 170V280 9999 BKN020CB 27/19 Q1014=
200906301445 METAR LIRA 301445Z 24009KT 160V300 9999 SCT020 FEW022CB 29/20
                        Q1015=
200906301415 METAR LIRA 301415Z 24009KT 150V230 9999 SCT020 FEW022CB 29/20
                        Q1015=
200906301345 METAR LIRA 301345Z 25010KT 180V280 9999 SCT020 29/20 Q1014=
200906301315 METAR LIRA 301315Z 26012KT 180V290 9999 BKN020 29/20 Q1015=
200906301245 METAR LIRA 301245Z 26012KT 190V320 9999 BKN020 29/20 Q1015=
200906301215 METAR LIRA 301215Z 25008KT 210V060 9999 BKN020 29/18 Q1015=
200906301145 METAR LIRA 301145Z 03004KT 350V090 9999 SCT020 29/16 Q1015=
200906301115 METAR LIRA 301115Z 32003KT 260V020 9999 SCT020 28/16 Q1015=
200906301045 METAR LIRA 301045Z 35002KT 300V020 9999 SCT020 28/17 Q1015=
200906301015 METAR LIRA 301015Z 32005KT 280V010 9999 SCT020 27/17 Q1015=
200906300945 METAR LIRA 300945Z 33005KT 9999 FEW020 27/17 Q1015=
200906300915 METAR COR LIRA 300915Z 34005KT 9999 FEW020 SCT200 27/18 Q1015=
200906300845 METAR LIRA 300845Z 23001KT 9999 FEW020 SCT200 25/17 Q1015=
200906300815 METAR LIRA 300815Z 32003KT 9999 FEW020 SCT200 25/18 Q1015=
200906300745 METAR LIRA 300745Z 31001KT CAVOK 24/17 Q1015=
200906300715 METAR LIRA 300715Z 02004KT CAVOK 23/18 Q1015=
200906300645 METAR LIRA 300645Z 03003KT CAVOK 22/18 Q1015=
200906300615 METAR LIRA 300615Z 02002KT CAVOK 21/17 Q1014=
200906300545 METAR LIRA 300545Z 35001KT CAVOK 20/18 Q1014=
200906300515 METAR LIRA 300515Z 04001KT CAVOK 19/17 Q1014=
200906300445 METAR LIRA 300445Z 04003KT CAVOK 18/17 Q1014=
200906300415 METAR LIRA 300415Z 04001KT CAVOK 18/17 Q1014=
200906300345 METAR LIRA 300345Z 00000KT 8000 NSC 18/17 Q1014=
200906300315 METAR LIRA 300315Z 00000KT CAVOK 18/17 Q1014=
200906300245 METAR LIRA 300245Z 08002KT CAVOK 18/17 Q1014=
200906300215 METAR LIRA 300215Z 04003KT CAVOK 18/17 Q1014=
200906300145 METAR LIRA 300145Z 00000KT CAVOK 19/17 Q1014=
200906300115 METAR LIRA 300115Z 00000KT CAVOK 19/17 Q1014=
200906300045 METAR LIRA 300045Z 00000KT CAVOK 19/17 Q1014=
200906300015 METAR LIRA 300015Z 04003KT CAVOK 19/17 Q1014=
200906292350 METAR LIRA 300045Z 00000KT CAVOK 19/17 Q1014=
200906292345 METAR LIRA 292345Z 06003KT CAVOK 19/18 Q1014=
200906292315 METAR LIRA 292315Z 06002KT CAVOK 19/18 Q1014=
200906292245 METAR LIRA 292245Z 00000KT 9999 FEW080 SCT200 19/19 Q1014=
200906292215 METAR LIRA 292215Z 30002KT 9999 FEW070 SCT200 20/19 Q1015=
200906292145 METAR LIRA 292145Z 00000KT 9999 FEW020 SCT200 20/19 Q1015=
200906292115 METAR LIRA 292115Z 00000KT 9999 FEW020TCU SCT070 20/19 Q1014=
200906292045 METAR LIRA 292045Z 00000KT 9999 FEW020CB SCT070 21/19 Q1014=
200906292015 METAR LIRA 292015Z 13002KT 9999 FEW018 FEW020CB SCT060 21/19
                        Q1014=
200906291945 METAR LIRA 291945Z 02003KT 9999 FEW018 FEW020CB SCT070 21/19
                        Q1014 RETS=
200906291915 METAR LIRA 291915Z 13005KT 9999 FEW018 FEW020CB SCT070 22/19
                        Q1014 RETS=
200906291845 METAR LIRA 291845Z 09004KT 9999 TS FEW018 FEW020CB SCT030
                        21/18 Q1014=
200906291815 METAR LIRA 291815Z 08004KT 030V110 9999 TS FEW018 FEW020CB
                        SCT030 21/19 Q1014=
200906291745 METAR LIRA 291745Z 07005KT 050V130 9999 TS FEW018 FEW020CB
                        SCT030 23/19 Q1014=
200906291615 METAR LIRA 291615Z 11006KT 080V150 9000 -TSRA FEW017 SCT020CB
                        23/21 Q1014=
200906291545 METAR LIRA 291545Z 14010KT 040V170 9999 -TSRA FEW018 FEW020TCU
                        FEW024CB 25/18 Q1013=
200906291515 METAR LIRA 291515Z 26007KT 210V300 9999 TS FEW018 FEW020TCU
                        FEW024CB 27/16 Q1013=
200906291445 METAR LIRA 291445Z 24011G21KT 190V310 9999 FEW018 FEW020TCU
                        FEW024CB 28/17 Q1013=
200906291415 METAR LIRA 291415Z 26009KT 190V310 9999 FEW018 FEW020TCU
                        FEW024CB 28/17 Q1013=
200906291345 METAR LIRA 291345Z 25010KT 200V330 9999 FEW018 FEW020TCU
                        FEW024CB 29/18 Q1013=
200906291315 METAR LIRA 291315Z 23007KT 200V310 9999 FEW018 FEW020TCU
                        FEW024CB 28/20 Q1013 RETS=
200906291245 METAR LIRA 291245Z 27009KT 210V330 9999 SCT018 FEW020TCU
                        FEW024CB 27/20 Q1013 RETS=
200906291215 METAR LIRA 291215Z 22006KT 150V240 9999 TS SCT018 FEW020TCU
                        FEW024CB 27/23 Q1013=
200906291145 METAR LIRA 291145Z 26006KT 210V310 9999 -TSRA SCT018 FEW020TCU
                        FEW024CB 25/22 Q1013=
200906291115 METAR LIRA 291115Z 27009KT 210V310 9999 SCT018 FEW020TCU
                        28/20 Q1013=
200906291045 METAR LIRA 291045Z 31005KT 250V360 9999 SCT020 29/17 Q1013=
200906291015 METAR LIRA 291015Z 27001KT 250V340 9999 SCT020 28/18 Q1013=
200906290945 METAR LIRA 290945Z 36004KT 9999 SCT020 28/18 Q1013=
200906290915 METAR LIRA 290915Z 35005KT 9999 FEW020 27/18 Q1013=
200906290845 METAR LIRA 290845Z 04003KT 300V060 9999 FEW020 27/18 Q1013=
200906290815 METAR LIRA 290815Z 03002KT 9999 FEW020 26/19 Q1013=
200906290745 METAR LIRA 290745Z 11002KT 8000 FEW020 25/19 Q1013=
200906290715 METAR LIRA 290715Z 30002KT 8000 FEW020 24/19 Q1013=
200906290645 METAR LIRA 290645Z 26001KT 8000 FEW020 23/19 Q1013=
200906290615 METAR LIRA 290615Z 04002KT 8000 FEW020 22/19 Q1013=
200906290545 METAR LIRA 290545Z 02001KT 8000 SCT060 21/19 Q1013=
200906290515 METAR LIRA 290515Z 34001KT 8000 FEW070 20/18 Q1013=
200906290445 METAR LIRA 290445Z 00000KT 8000 FEW080 SCT200 19/18 Q1013=
200906290415 METAR LIRA 290415Z 07001KT 8000 FEW080 SCT200 19/18 Q1013=
200906290345 METAR LIRA 290345Z 14002KT 8000 FEW080 19/18 Q1012=
200906290315 METAR LIRA 290315Z 00000KT 8000 FEW080 19/18 Q1012=
200906290245 METAR LIRA 290245Z 09001KT CAVOK 18/16 Q1013=
200906290215 METAR LIRA 290215Z 00000KT CAVOK 19/17 Q1013=
200906290145 METAR LIRA 290145Z 14002KT CAVOK 20/16 Q1013=
200906290115 METAR LIRA 290115Z 16002KT CAVOK 20/17 Q1013=
200906290045 METAR LIRA 290045Z 17005KT CAVOK 21/17 Q1013=
200906290015 METAR LIRA 290015Z 16006KT CAVOK 21/18 Q1013=
200906282350 METAR LIRA 290045Z 17005KT CAVOK 21/17 Q1013=
200906282345 METAR LIRA 282345Z 17005KT CAVOK 21/18 Q1012=
200906282315 METAR LIRA 282315Z 18006KT 150V220 CAVOK 21/19 Q1012=
200906282245 METAR LIRA 282245Z 19005KT 170V260 9999 FEW080 21/19 Q1012=
200906282215 METAR LIRA 282215Z 19007KT 170V240 9999 FEW080 21/20 Q1012=
200906282145 METAR LIRA 282145Z 18005KT 9999 FEW080 22/20 Q1012=
200906282115 METAR LIRA 282115Z 18003KT 9999 FEW080 22/20 Q1012=
200906282045 METAR LIRA 282045Z 20003KT 9999 FEW080 22/20 Q1012=
200906282015 METAR LIRA 282015Z 19004KT 9999 FEW020 22/20 Q1012 RETS=
200906281945 METAR LIRA 281945Z 19005KT 9999 FEW020 FEW021CB 23/20 Q1012
                        RETS=
200906281915 METAR LIRA 281915Z 17006KT 160V220 9999 TS FEW020 FEW021CB
                        23/20 Q1012=
200906281845 METAR LIRA 281845Z 21005KT 150V250 9999 TS FEW020 FEW021CB
                        23/19 Q1011=
200906281815 METAR LIRA 281815Z 23006KT 180V250 9999 FEW020 FEW021CB 25/18
                        Q1011=
200906281745 METAR LIRA 281745Z 24004KT 200V310 9999 FEW020 FEW021CB 25/18
                        Q1011=
200906281715 METAR LIRA 281715Z 25007KT 190V300 9999 FEW020 FEW021CB 25/18
                        Q1010=
200906281645 METAR LIRA 281645Z 25007KT 200V310 9999 FEW020 FEW021CB 25/17
                        Q1010=
200906281615 METAR LIRA 281615Z 26007KT 200V310 9999 FEW020TCU FEW025CB
                        26/16 Q1010=
200906281545 METAR LIRA 281545Z 27010KT 210V310 9999 FEW020TCU FEW025CB
                        27/18 Q1010=
200906281515 METAR LIRA 281515Z 28009KT 210V330 9999 FEW020TCU FEW025CB
                        27/17 Q1011=
200906281445 METAR LIRA 281445Z 26010KT 220V330 9999 FEW018 FEW025CB 27/17
                        Q1011=
200906281415 METAR LIRA 281415Z 27011KT 220V310 9999 FEW018 FEW025CB 28/18
                        Q1011=
200906281345 METAR LIRA 281345Z 27012KT 190V320 9999 FEW018 FEW025CB 28/17
                        Q1011=
200906281315 METAR LIRA 281315Z 27008KT 210V330 9999 FEW018 FEW025CB 27/17
                        Q1011=
200906281245 METAR LIRA 281245Z 25012KT 190V330 9999 SCT018 FEW020TCU
                        27/18 Q1011=
200906281215 METAR LIRA 281215Z 26012KT 210V300 9999 SCT018 FEW020TCU
                        27/18 Q1011=
200906281145 METAR LIRA 281145Z 28007KT 220V330 9999 SCT018 FEW020TCU
                        28/14 Q1011=
200906281115 METAR LIRA 281115Z 29008KT 250V330 9999 SCT018 FEW020TCU
                        28/13 Q1011=
200906281045 METAR LIRA 281045Z 30006KT 270V360 9999 SCT018 FEW020TCU
                        27/14 Q1011=
200906281015 METAR LIRA 281015Z 33005KT 270V360 9999 SCT018 FEW020TCU
                        27/15 Q1011=
200906280945 METAR LIRA 280945Z 04006KT 310V060 9999 FEW018 FEW020TCU
                        26/16 Q1011=
200906280915 METAR LIRA 280915Z 02001KT 9999 FEW018 25/16 Q1011=
200906280845 METAR LIRA 280845Z 32006KT 270V360 9999 FEW018 25/17 Q1011=
200906280815 METAR LIRA 280815Z 36003KT 9999 FEW018 24/16 Q1011=
200906280745 METAR LIRA 280745Z 36005KT 310V080 9999 FEW020 24/16 Q1011=
200906280715 METAR LIRA 280715Z 36005KT 310V040 9999 FEW020 23/17 Q1011=
200906280645 METAR LIRA 280645Z 01005KT 310V060 9999 FEW025 22/16 Q1011=
200906280615 METAR LIRA 280615Z 36005KT 310V070 9999 FEW025 SCT200 21/16
                        Q1010=
200906280545 METAR LIRA 280545Z 36005KT 9999 FEW025 SCT200 20/16 Q1010=
200906280515 METAR LIRA 280515Z 01004KT 9999 FEW070 SCT200 18/16 Q1010=
200906280445 METAR LIRA 280445Z 05004KT 9999 SCT070 SCT200 18/16 Q1010=
200906280415 METAR LIRA 280415Z 02003KT 9999 SCT070 SCT200 18/16 Q1010=
200906280345 METAR LIRA 280345Z 33004KT 9999 SCT070 SCT200 17/15 Q1010=
200906280315 METAR LIRA 280315Z 00000KT 9999 SCT070 17/15 Q1010=
200906280245 METAR LIRA 280245Z 35003KT 9999 SCT070 18/16 Q1010=
200906280215 METAR LIRA 280215Z 32002KT CAVOK 18/15 Q1010=
200906280145 METAR LIRA 280145Z 04003KT 9999 FEW070 18/15 Q1010=
200906280115 METAR LIRA 280115Z 34003KT 9999 FEW070 18/15 Q1010=
200906280045 METAR LIRA 280045Z 36002KT 9999 FEW070 18/15 Q1011=
200906280015 METAR LIRA 280015Z 02003KT CAVOK 17/15 Q1011=
200906272350 METAR LIRA 280045Z 36002KT 9999 FEW070 18/15 Q1011=
200906272345 METAR LIRA 272345Z 03002KT CAVOK 18/16 Q1011=
200906272315 METAR LIRA 272315Z 04001KT CAVOK 18/16 Q1011=
200906272245 METAR LIRA 272245Z 04003KT 9999 FEW020 19/16 Q1011=
200906272145 METAR LIRA 272145Z 16004KT 9999 FEW020 21/18 Q1011=
200906272115 METAR LIRA 272115Z 16006KT 9999 FEW020 21/17 Q1010=
200906272045 METAR LIRA 272045Z 18008KT 150V230 9999 FEW020 21/16 Q1010
                        RETS=
200906272015 METAR LIRA 272015Z 23003KT 9999 FEW020 20/15 Q1010=
200906271945 METAR LIRA 271945Z 22004KT 9999 TS FEW015 FEW017CB SCT070
                        20/15 Q1010=
200906271915 METAR LIRA 271915Z 00000KT 9999 TS FEW015 FEW017CB SCT070
                        20/16 Q1010=
200906271845 METAR LIRA 271845Z 08009KT 020V110 9999 TS SCT015 SCT017CB
                        20/16 Q1010=
200906271815 METAR LIRA 271815Z 27006KT 210V310 9999 TS SCT015 FEW017CB
                        24/20 Q1010=
200906271745 METAR LIRA 271745Z 22005KT 180V260 9999 FEW015 FEW017CB 24/19
                        Q1010=
200906271715 METAR LIRA 271715Z 22005KT 170V270 9999 SCT018 FEW020CB 25/18
                        Q1010=
200906271645 METAR LIRA 271645Z 18006KT 130V270 9999 SCT018 FEW020CB 26/18
                        Q1009=
200906271615 METAR LIRA 271615Z 24005KT 150V310 9999 SCT018 FEW020CB 26/18
                        Q1010=
200906271545 METAR LIRA 271545Z 22005KT 180V270 9999 SCT018 FEW020CB 25/18
                        Q1010=
200906271515 METAR LIRA 271515Z 23008KT 200V280 9999 SCT018 FEW020CB 26/18
                        Q1010=
200906271445 METAR LIRA 271445Z 23007KT 140V270 9999 SCT018 FEW020CB 26/16
                        Q1010=
200906271415 METAR LIRA 271415Z 26007KT 150V290 9999 FEW018 FEW020CB 27/16
                        Q1010=
200906271345 METAR LIRA 271345Z 21008KT 180V270 9999 FEW018 FEW020CB 27/15
                        Q1010=
200906271315 METAR LIRA 271315Z 23009KT 180V270 9999 FEW018 FEW020CB 26/16
                        Q1010=
200906271245 METAR LIRA 271245Z 24007KT 160V300 9999 SCT018 FEW020TCU
                        27/18 Q1010=
200906271215 METAR LIRA 271215Z 21010KT 150V270 9999 SCT018 FEW020TCU
                        27/18 Q1010=
200906271145 METAR LIRA 271145Z 23010KT 140V270 9999 SCT018 FEW020TCU
                        26/18 Q1011=
200906271115 METAR LIRA 271115Z 24008KT 170V300 9999 SCT018 26/18 Q1011=
200906271045 METAR LIRA 271045Z 22004KT 190V300 9999 SCT018 SCT025 26/18
                        Q1011=
200906271015 METAR LIRA 271015Z 21006KT 170V270 9999 SCT018 SCT025 25/17
                        Q1011=
200906270945 METAR LIRA 270945Z 15004KT 110V210 9999 SCT018 SCT025 25/17
                        Q1011=
200906270915 METAR LIRA 270915Z 19008KT 150V240 9999 BKN018 25/18 Q1011=
200906270845 METAR LIRA 270845Z 24005KT 9999 BKN018 25/18 Q1011=
200906270815 METAR LIRA 270815Z 17004KT 150V220 9999 BKN016 25/17 Q1011=
200906270745 METAR LIRA 270745Z 15005KT 9999 BKN016 25/17 Q1011=
200906270715 METAR LIRA 270715Z 18005KT 9999 SCT016 24/17 Q1011=
200906270645 METAR LIRA 270645Z 15004KT 9999 FEW016 23/17 Q1011=
200906270615 METAR LIRA 270615Z 12004KT 090V170 9999 FEW016 22/18 Q1011=
200906270545 METAR LIRA 270545Z 14005KT 120V190 9999 FEW016 21/19 Q1011=
200906270515 METAR LIRA 270515Z 15007KT 110V180 9999 FEW020 21/18 Q1011=
200906270445 METAR LIRA 270445Z 16005KT 9999 FEW020 20/18 Q1011=
200906270415 METAR LIRA 270415Z 18004KT 9999 FEW020 18/17 Q1010=
200906270345 METAR LIRA 270345Z 17005KT 9999 FEW070 18/17 Q1009=
200906270315 METAR LIRA 270315Z 17005KT 9999 FEW070 18/17 Q1009=
200906270245 METAR LIRA 270245Z 18003KT 9999 SCT070 18/17 Q1009=
200906270215 METAR LIRA 270215Z 18004KT CAVOK 18/17 Q1009=
200906270145 METAR LIRA 270145Z 18002KT CAVOK 18/16 Q1009=
200906270115 METAR LIRA 270115Z 16002KT CAVOK 18/16 Q1010=
200906270045 METAR LIRA 270045Z 03002KT CAVOK 18/16 Q1010=
200906270015 METAR LIRA 270015Z 04002KT CAVOK 18/16 Q1010=
200906262350 METAR LIRA 270045Z 03002KT CAVOK 18/16 Q1010=
200906262345 METAR LIRA 262345Z 04003KT 9999 FEW070 18/16 Q1010=
200906262315 METAR LIRA 262315Z 06004KT 9999 FEW070 18/16 Q1010=
200906262245 METAR LIRA 262245Z 16003KT 9999 FEW070 20/16 Q1010=
200906262215 METAR LIRA 262215Z 18003KT 9999 FEW070 20/17 Q1010=
200906262145 METAR LIRA 262145Z 18003KT CAVOK 20/17 Q1010=
200906262115 METAR LIRA 262115Z 19003KT CAVOK 20/17 Q1010=
200906262045 METAR LIRA 262045Z 22004KT 9999 FEW020 20/17 Q1010=
200906262015 METAR LIRA 262015Z 22002KT 9999 FEW020 20/17 Q1010=
200906261945 METAR LIRA 261945Z 23003KT 9999 FEW020 21/17 Q1010=
200906261915 METAR LIRA 261915Z 22003KT 9999 FEW020 21/17 Q1010=
200906261845 METAR LIRA 261845Z 23006KT 9999 FEW020 22/18 Q1010=
200906261815 METAR LIRA 261815Z 22009KT 200V270 9999 FEW020 FEW022CB 23/19
                        Q1010=
200906261745 METAR LIRA 261745Z 23009KT 180V260 9999 FEW020 FEW022CB 24/19
                        Q1009=
200906261715 METAR LIRA 261715Z 22009KT 180V270 9999 FEW020 FEW022CB 25/19
                        Q1009=
200906261645 METAR LIRA 261645Z 19007KT 110V250 9999 FEW020 FEW022CB 25/18
                        Q1009=
200906261615 METAR LIRA 261615Z 21009KT 160V260 9999 FEW020 FEW021CB 25/16
                        Q1009=
200906261545 METAR LIRA 261545Z 19011KT 150V250 9999 FEW020 FEW021CB 25/15
                        Q1009=
200906261515 METAR LIRA 261515Z 22010KT 160V270 9999 FEW020 FEW021CB 26/15
                        Q1009=
200906261445 METAR LIRA 261445Z 21008KT 150V280 9999 FEW020 FEW021CB 26/15
                        Q1009=
200906261415 METAR LIRA 261415Z 21009KT 150V260 9999 FEW020 FEW021CB 25/13
                        Q1009=
200906261345 METAR LIRA 261345Z 20009KT 150V240 9999 FEW020 FEW021CB 26/14
                        Q1010=
200906261315 METAR LIRA 261315Z 20009KT 130V250 9999 FEW020 FEW021CB 26/15
                        Q1010=
200906261245 METAR LIRA 261245Z 20011KT 150V250 9999 SCT020 FEW021CB 26/16
                        Q1010=
200906261215 METAR LIRA 261215Z 22008KT 150V260 9999 SCT020 FEW021CB 27/17
                        Q1010=
200906261145 METAR LIRA 261145Z 19009KT 160V250 9999 SCT020 26/17 Q1010=
200906261115 METAR LIRA 261115Z 22005KT 120V260 9999 SCT020 SCT030 27/18
                        Q1010=
200906261045 METAR LIRA 261045Z 25005KT 150V300 9999 SCT020 SCT030 26/17
                        Q1010=
200906261015 METAR LIRA 261015Z 21007KT 9999 SCT020 SCT030 26/16 Q1010=
200906260945 METAR LIRA 260945Z 20007KT 160V230 9999 SCT020 25/17 Q1010=
200906260915 METAR LIRA 260915Z 06002KT 150V220 9999 SCT020 25/16 Q1010=
200906260845 METAR LIRA 260845Z 19004KT 110V240 9999 SCT020 25/16 Q1011=
200906260815 METAR LIRA 260815Z 17006KT 130V220 9999 SCT020 24/17 Q1011=
200906260745 METAR LIRA 260745Z 20005KT 160V250 9999 SCT020 24/17 Q1011=
200906260715 METAR LIRA 260715Z 16005KT 9999 SCT020 22/18 Q1010=
200906260645 METAR LIRA 260645Z 19006KT 9999 FEW020 22/18 Q1010=
200906260615 METAR LIRA 260615Z 16005KT 130V220 9999 FEW020 22/18 Q1010=
200906260545 METAR LIRA 260545Z 16005KT 9999 FEW020 21/18 Q1010=
200906260515 METAR LIRA 260515Z 16004KT 130V190 9999 FEW020 20/16 Q1010=
200906260445 METAR LIRA 260445Z 16003KT 9999 FEW020 18/15 Q1010=
200906260415 METAR LIRA 260415Z 11004KT 9999 FEW020 SCT070 17/14 Q1010=
200906260345 METAR LIRA 260345Z 09004KT 9999 FEW020 SCT070 18/15 Q1010=
200906260315 METAR LIRA 260315Z 12002KT 9999 FEW020 SCT080 18/16 Q1010=
200906260245 METAR LIRA 260245Z 11003KT 9999 FEW020 18/16 Q1010=
200906260215 METAR LIRA 260215Z 16002KT 9999 FEW060 18/16 Q1010=
200906260145 METAR LIRA 260145Z 10003KT 9999 FEW060 18/16 Q1010=
200906260115 METAR LIRA 260115Z 12005KT 9999 FEW060 19/16 Q1010=
200906260045 METAR LIRA 260045Z 12003KT CAVOK 19/16 Q1010=
200906260015 METAR LIRA 260015Z 12003KT CAVOK 19/17 Q1010=
200906252350 METAR LIRA 260045Z 12003KT CAVOK 19/16 Q1010=
200906252345 METAR LIRA 252345Z 16003KT 9999 FEW070 20/17 Q1010=
200906252315 METAR LIRA 252315Z 16002KT 9999 FEW080 20/17 Q1011=
200906252245 METAR LIRA 252245Z 18003KT 9999 FEW080 20/18 Q1011=
200906252215 METAR LIRA 252215Z 21002KT 9999 FEW080 20/18 Q1011=
200906252145 METAR LIRA 252145Z 14003KT 9999 FEW080 21/18 Q1011=
200906252115 METAR LIRA 252115Z 19003KT 9999 SCT080 21/18 Q1010=
200906252045 METAR LIRA 252045Z 16003KT 9999 SCT060 21/18 Q1010=
200906252015 METAR LIRA 252015Z 19002KT 9999 FEW020 SCT060 21/18 Q1010=
200906251945 METAR LIRA 251945Z 22003KT 9999 FEW020TCU SCT070 22/17 Q1010=
200906251915 METAR LIRA 251915Z 25004KT 210V300 9999 FEW020TCU SCT060
                        22/17 Q1010=
200906251845 METAR LIRA 251845Z 23005KT 200V290 9999 FEW020TCU SCT060
                        23/17 Q1009=
200906251815 METAR LIRA 251815Z 23005KT 210V290 9999 FEW020CB SCT070 24/16
                        Q1009=
200906251745 METAR LIRA 251745Z 25006KT 180V310 9999 FEW020CB 25/13 Q1009=
200906251715 METAR LIRA 251715Z 24009KT 190V300 9999 FEW020CB SCT080 25/12
                        Q1009=
200906251645 METAR LIRA 251645Z 26010KT 200V310 9999 FEW020CB SCT080 26/12
                        Q1009=
200906251615 METAR LIRA 251615Z 26008KT 200V320 9999 FEW020CB SCT080 26/11
                        Q1009=
200906251545 METAR LIRA 251545Z 27012KT 210V330 9999 FEW018 FEW020TCU
                        26/11 Q1009=
200906251515 METAR LIRA 251515Z 27012KT 200V330 9999 FEW018 FEW020TCU
                        27/12 Q1009=
200906251445 METAR LIRA 251445Z 27013KT 200V310 9999 FEW018 FEW020TCU
                        27/12 Q1009=
200906251415 METAR LIRA 251415Z 26014KT 180V310 9999 FEW018 FEW020TCU
                        28/15 Q1009=
200906251345 METAR LIRA 251345Z 25006KT 180V310 9999 FEW018 FEW020TCU
                        28/15 Q1009=
200906251315 METAR LIRA 251315Z 29004KT 240V330 9999 FEW020 28/14 Q1009=
200906251245 METAR LIRA 251245Z 26008KT 210V330 9999 FEW020 28/14 Q1010=
200906251215 METAR LIRA 251215Z 30008KT 210V330 9999 FEW020 27/15 Q1010=
200906251145 METAR LIRA 251145Z 28011KT 210V320 9999 FEW020 27/14 Q1010=
200906251115 METAR LIRA 251115Z 35006KT 290V030 9999 FEW020 27/13 Q1010=
200906251045 METAR LIRA 251045Z 02005KT 310V030 9999 FEW020 27/12 Q1010=
200906251015 METAR LIRA 251015Z 29006KT 240V330 9999 FEW020 27/13 Q1010=
200906250945 METAR LIRA 250945Z 25004KT 9999 FEW020 26/15 Q1010=
200906250915 METAR LIRA 250915Z 31008KT 240V330 9999 FEW020 25/14 Q1010=
200906250845 METAR LIRA 250845Z 32004KT 9999 FEW020 24/15 Q1010=
200906250815 METAR LIRA 250815Z 24001KT 9999 FEW020 24/14 Q1010=
200906250745 METAR LIRA 250745Z 03002KT 9999 FEW020 23/15 Q1010=
200906250715 METAR LIRA 250715Z 29003KT 9999 FEW020 22/16 Q1010=
200906250645 METAR LIRA 250645Z 31001KT CAVOK 21/16 Q1009=
200906250615 METAR LIRA 250615Z 01001KT CAVOK 21/16 Q1009=
200906250545 METAR LIRA 250545Z 05002KT 9999 FEW025 20/15 Q1009=
200906250515 METAR LIRA 250515Z 03002KT 9999 FEW030 18/16 Q1009=
200906250445 METAR LIRA 250445Z 14003KT 9999 FEW030 18/16 Q1009=
200906250415 METAR LIRA 250415Z 00000KT 9999 FEW030 SCT060 17/15 Q1009=
200906250345 METAR LIRA 250345Z 00000KT 9999 FEW030 SCT070 17/14 Q1009=
200906250315 METAR LIRA 250315Z 15002KT 9999 FEW080 17/14 Q1009=
200906250245 METAR LIRA 250245Z 14002KT CAVOK 17/14 Q1009=
200906250215 METAR LIRA 250215Z 06003KT 9999 FEW080 17/14 Q1009=
200906250145 METAR LIRA 250145Z 10002KT 9999 FEW080 18/15 Q1009=
200906250115 METAR LIRA 250115Z 11002KT CAVOK 18/15 Q1009=
200906250045 METAR LIRA 250045Z 12002KT CAVOK 18/16 Q1009=
200906250015 METAR LIRA 250015Z 14002KT 9999 FEW080 18/17 Q1009=
200906242345 METAR LIRA 242345Z 20003KT 9999 FEW080 19/17 Q1009=
200906242315 METAR LIRA 242315Z 19006KT 160V230 9999 FEW070 19/17 Q1009=
200906242245 METAR LIRA 242245Z 00000KT 9999 FEW060 20/17 Q1009=
200906242215 METAR LIRA 242215Z 16004KT 9999 FEW040 20/17 Q1009=
200906242145 METAR LIRA 242145Z 20001KT 9999 FEW070 20/16 Q1008=
200906242115 METAR LIRA 242115Z 15002KT 9999 FEW070 20/17 Q1008=
200906242045 METAR LIRA 242045Z 26002KT 9999 FEW070 20/16 Q1008=
200906242015 METAR LIRA 242015Z 26003KT 9999 FEW080 21/17 Q1008=
200906241945 METAR LIRA 241945Z 27004KT 9999 SCT070 22/16 Q1008=
200906241915 METAR LIRA 241915Z 29004KT 240V320 9999 SCT070 22/16 Q1008=
200906241845 METAR LIRA 241845Z 29008KT 270V330 9999 FEW020TCU 24/14 Q1007=
200906241815 METAR LIRA 241815Z 32008KT 280V350 9999 FEW018TCU FEW020CB
                        24/13 Q1007=
200906241745 METAR LIRA 241745Z 31010KT 280V360 9999 FEW017 FEW018CB 26/13
                        Q1007=
200906241715 METAR LIRA 241715Z 30011KT 230V320 9999 FEW017 FEW018CB 26/14
                        Q1007=
200906241645 METAR LIRA 241645Z 26009KT 210V310 9999 FEW017 FEW020CB 25/14
                        Q1007=
200906241615 METAR LIRA 241615Z 27010KT 230V330 9999 FEW017 FEW020CB 25/14
                        Q1007=
200906241545 METAR LIRA 241545Z 27010G21KT 220V310 9999 FEW017 FEW020CB
                        25/14 Q1007=
200906241515 METAR LIRA 241515Z 26008KT 200V310 9999 FEW020TCU 25/13 Q1007=
200906241445 METAR LIRA 241445Z 26010KT 210V310 9999 FEW020TCU 25/13 Q1007=
200906241415 METAR LIRA 241415Z 25010KT 190V300 9999 FEW020TCU SCT030
                        25/13 Q1007=
200906241345 METAR LIRA 241345Z 26011G21KT 200V310 9999 FEW020TCU SCT030
                        24/12 Q1007=
200906241315 METAR LIRA 241315Z 25008KT 190V310 9999 FEW020TCU SCT030
                        25/12 Q1007=
200906241245 METAR LIRA 241245Z 24009KT 210V310 9999 FEW020 SCT030 26/12
                        Q1007=
200906241215 METAR LIRA 241215Z 29010KT 210V010 9999 SCT020 25/11 Q1007=
200906241145 METAR LIRA 241145Z 33005KT 270V020 9999 SCT020 25/10 Q1007=
200906241115 METAR LIRA 241115Z 02002KT 280V040 9999 SCT020 26/12 Q1007=
200906241045 METAR LIRA 241045Z 27003KT 230V350 9999 SCT020 24/11 Q1007=
200906241015 METAR LIRA 241015Z 31006KT 230V080 9999 SCT020 24/11 Q1007=
200906240945 METAR LIRA 240945Z 15002KT 9999 SCT020 23/13 Q1007=
200906240915 METAR LIRA 240915Z 31007KT 230V350 9999 FEW020 22/12 Q1008=
200906240845 METAR LIRA 240845Z 32008KT 280V010 9999 FEW020 21/12 Q1008=
200906240815 METAR LIRA 240815Z 34007KT 290V070 9999 FEW020 20/13 Q1008=
200906240745 METAR LIRA 240745Z 34008KT 300V050 9999 FEW020 19/12 Q1008=
200906240715 METAR LIRA 240715Z 33004KT 300V080 9999 FEW070 19/13 Q1008=
200906240645 METAR LIRA 240645Z 35005KT 310V070 9999 FEW070 18/13 Q1008=
200906240615 METAR LIRA 240615Z 02003KT 310V070 9999 SCT030 SCT070 17/13
                        Q1008=
200906240545 METAR LIRA 240545Z 03003KT 9999 SCT030 SCT070 16/13 Q1008=
200906240515 METAR LIRA 240515Z 04005KT 9999 SCT030 SCT070 15/12 Q1008=
200906240445 METAR LIRA 240445Z 01003KT 9999 SCT030 SCT070 15/12 Q1008=
200906240415 METAR LIRA 240415Z 03004KT 9999 SCT030 SCT070 15/12 Q1008=
200906240345 METAR LIRA 240345Z 02001KT 9999 FEW030 SCT080 15/12 Q1008=
200906240315 METAR LIRA 240315Z 01002KT 9999 FEW030 SCT080 15/12 Q1008=
200906240245 METAR LIRA 240245Z 02005KT 330V050 9999 FEW080 15/12 Q1008=
200906240215 METAR LIRA 240215Z 03005KT 330V050 9999 FEW080 16/12 Q1008=
200906240145 METAR LIRA 240145Z 02007KT 310V060 9999 FEW080 16/12 Q1008=
200906240115 METAR LIRA 240115Z 02007KT 310V060 9999 FEW080 16/12 Q1008=
200906240045 METAR LIRA 240045Z 36004KT 320V040 9999 SCT080 16/11 Q1008=
200906240015 METAR LIRA 240015Z 01004KT 300V080 9999 SCT080 16/12 Q1008=
200906232350 METAR LIRA 240045Z 36004KT 320V040 9999 SCT080 16/11 Q1008=
200906232345 METAR LIRA 232345Z 36006KT 310V050 9999 SCT080 16/12 Q1008=
200906232315 METAR LIRA 232315Z 34007KT 310V030 9999 FEW018 SCT080 17/11
                        Q1008=
200906232245 METAR LIRA 232245Z 34005KT 300V040 9999 FEW018 SCT080 17/11
                        Q1008=
200906232215 METAR LIRA 232215Z 01008KT 320V060 9999 FEW018 SCT080 17/11
                        Q1008=
200906232145 METAR LIRA 232145Z 34010KT 300V010 9999 FEW018 SCT080 17/10
                        Q1008=
200906232115 METAR LIRA 232115Z 34008KT 250V040 9999 FEW018 SCT080 18/10
                        Q1008=
200906232045 METAR LIRA 232045Z 36010KT 300V060 9999 FEW018 SCT080 19/09
                        Q1008=
200906232015 METAR LIRA 232015Z 33012KT 300V010 9999 FEW018 SCT080 19/10
                        Q1008=
200906231945 METAR LIRA 231945Z 32010KT 290V350 9999 FEW018 SCT080 20/10
                        Q1008=
200906231915 METAR LIRA 231915Z 33009KT 300V010 9999 FEW018 FEW020CB SCT030
                        20/09 Q1008=
200906231845 METAR LIRA 231845Z 35008KT 280V040 9999 FEW018 SCT030 20/09
                        Q1008=
200906231815 METAR LIRA 231815Z 04006KT 350V090 9999 FEW018 FEW020CB 19/11
                        Q1008=
200906231745 METAR LIRA 231745Z 01005KT 9999 SCT018 FEW020CB 20/11 Q1007=
200906231715 METAR LIRA 231715Z 06005KT 9999 SCT018 FEW020CB 20/11 Q1007=
200906231645 METAR LIRA 231645Z 07008KT 020V100 9999 SCT018 FEW020CB 21/12
                        Q1007=
200906231615 METAR LIRA 231615Z 05009KT 320V090 9999 SCT018 FEW020CB 22/10
                        Q1006=
200906231545 METAR LIRA 231545Z 35010KT 300V030 9999 SCT018 FEW020CB SCT025
                        23/08 Q1006=
200906231515 METAR LIRA 231515Z 33012KT 300V030 9999 SCT018 FEW020CB SCT025
                        23/09 Q1006=
200906231445 METAR LIRA 231445Z 33011KT 280V010 9999 SCT018 FEW020CB SCT025
                        23/08 Q1006=
200906231415 METAR LIRA 231415Z 30009KT 250V350 9999 SCT018 FEW020CB SCT025
                        23/08 Q1006=
200906231345 METAR LIRA 231345Z 30011KT 270V350 9999 SCT018 FEW020CB SCT025
                        23/09 Q1007=
200906231315 METAR LIRA 231315Z 33008KT 270V030 9999 SCT018 FEW020CB SCT025
                        23/09 Q1007=
200906231245 METAR LIRA 231245Z 30011KT 260V010 9999 SCT018 FEW020CB SCT025
                        23/09 Q1007=
200906231215 METAR LIRA 231215Z 30011KT 240V350 9999 SCT018 FEW020CB SCT025
                        24/08 Q1007=
200906231145 METAR LIRA 231145Z 32010KT 270V030 9999 SCT018 FEW020CB 23/09
                        Q1007=
200906231115 METAR LIRA 231115Z 31005KT 280V010 9999 SCT018 22/08 Q1007=
200906231045 METAR LIRA 231045Z 02006KT 300V030 9999 SCT018 22/09 Q1007=
200906231015 METAR LIRA 231015Z 32005KT 280V020 9999 SCT018 22/09 Q1007=
200906230945 METAR LIRA 230945Z 34010KT 290V020 9999 FEW018 22/10 Q1007=
200906230915 METAR LIRA 230915Z 34008KT 290V030 9999 FEW018 SCT070 21/10
                        Q1008=
200906230845 METAR LIRA 230845Z 02005KT 320V060 9999 FEW018 SCT070 20/10
                        Q1008=
200906230815 METAR LIRA 230815Z 36005KT 290V040 9999 FEW018 SCT070 19/10
                        Q1008=
200906230745 METAR LIRA 230745Z 35007KT 300V060 9999 FEW018 SCT070 19/10
                        Q1008=
200906230715 METAR LIRA 230715Z 35006KT 320V070 9999 SCT070 17/11 Q1008=
200906230645 METAR LIRA 230645Z 01006KT 320V080 9999 SCT080 16/11 Q1008=
200906230615 METAR LIRA 230615Z 03007KT 310V080 9999 FEW080 16/11 Q1008=
200906230545 METAR LIRA 230545Z 03009KT 340V080 9999 FEW080 15/11 Q1008=
200906230515 METAR LIRA 230515Z 03008KT 330V070 9999 FEW080 15/11 Q1008=
200906230445 METAR LIRA 230445Z 01004KT 9999 FEW080 14/11 Q1008=
200906230415 METAR LIRA 230415Z 05004KT 010V090 9999 FEW070 13/11 Q1008=
200906230345 METAR LIRA 230345Z 05004KT 9999 FEW030 13/10 Q1008=
200906230315 METAR LIRA 230315Z 03004KT 9999 FEW030 13/10 Q1009=
200906230245 METAR LIRA 230245Z 02004KT 9999 FEW020 SCT025 14/10 Q1009=
200906230215 METAR LIRA 230215Z 02003KT 9999 FEW020 SCT025 14/10 Q1009=
200906230145 METAR LIRA 230145Z 35004KT 9999 FEW020 SCT025 15/10 Q1009=
200906230115 METAR LIRA 230115Z 34002KT 9999 FEW020 SCT025 15/11 Q1009=
200906230045 METAR LIRA 230045Z 35002KT 9999 FEW020 SCT025 15/10 Q1009=
200906222350 METAR LIRA 230045Z 35002KT 9999 FEW020 SCT025 15/10 Q1009=
200906222345 METAR LIRA 222345Z 04003KT 360V080 9999 FEW020 SCT025 16/11
                        Q1009=
200906222315 METAR LIRA 222315Z 04005KT 9999 FEW020 SCT025 17/11 Q1010=
200906222245 METAR LIRA 222245Z 03005KT 9999 FEW020 SCT025 18/10 Q1010=
200906222215 METAR LIRA 222215Z 35004KT 9999 FEW020 SCT025 18/10 Q1010=
200906222145 METAR LIRA 222145Z 33006KT 280V360 9999 FEW020 SCT025 18/11
                        Q1010=
200906222115 METAR LIRA 222115Z 30005KT 270V340 9999 FEW020 SCT025 18/12
                        Q1010=
200906222045 METAR LIRA 222045Z 33004KT 9999 FEW020 18/12 Q1010=
200906222015 METAR LIRA 222015Z 00000KT 9999 FEW020 SCT025 18/12 Q1010=
200906221945 METAR LIRA 221945Z 27007KT 220V310 9999 FEW020CB SCT025 18/12
                        Q1010=
200906221915 METAR LIRA 221915Z 31003KT 300V010 9999 FEW020CB SCT025 19/09
                        Q1010=
200906221845 METAR LIRA 221845Z 33012KT 310V030 9999 FEW017CB SCT025 19/10
                        Q1010=
200906221815 METAR LIRA 221815Z 33013G23KT 300V360 9999 FEW017CB SCT025
                        21/09 Q1010=
200906221745 METAR LIRA 221745Z 29007KT 250V300 9999 FEW020CB SCT025 21/08
                        Q1009=
200906221715 METAR LIRA 221715Z 29005KT 9999 FEW015 FEW020CB SCT070 21/08
                        Q1008=
200906221645 METAR LIRA 221645Z 29012KT 260V330 9999 FEW015 SCT020CB 21/09
                        Q1009=
200906221615 METAR LIRA 221615Z 29016KT 250V310 9999 FEW015 SCT020CB 21/09
                        Q1009=
200906221545 METAR LIRA 221545Z 31012G24KT 270V350 9999 SCT018 FEW020CB
                        25/05 Q1010=
200906221515 METAR COR LIRA 221515Z 35010KT 270V050 9999 FEW018 FEW020CB
                        25/06 Q1010=
200906221445 METAR LIRA 221445Z 33012KT 300V020 9999 FEW020 FEW021TCU
                        25/05 Q1010=
200906221415 METAR LIRA 221415Z 34010KT 290V050 9999 FEW020 FEW021TCU
                        25/05 Q1010=
200906221345 METAR LIRA 221345Z 33014KT 280V030 9999 FEW020 25/05 Q1010=
200906221315 METAR LIRA 221315Z 33019KT 300V020 9999 FEW020 FEW021TCU
                        25/05 Q1010=
200906221245 METAR LIRA 221245Z 35016KT 290V040 9999 FEW020 FEW021TCU
                        25/07 Q1010=
200906221215 METAR LIRA 221215Z 18016G26KT 300V060 9999 FEW020 FEW021TCU
                        25/08 Q1010=
200906221145 METAR LIRA 221145Z 34013KT 300V030 9999 FEW020 FEW021TCU
                        25/08 Q1010=
200906221115 METAR LIRA 221115Z 33013G24KT 280V030 9999 FEW020 25/08 Q1010=
200906221045 METAR LIRA 221045Z 33015KT 300V040 9999 FEW020 24/09 Q1010=
200906221015 METAR LIRA 221015Z 34011KT 290V020 9999 FEW020 24/09 Q1010=
200906220945 METAR LIRA 220945Z 34011KT 290V010 9999 FEW020 24/09 Q1010=
200906220915 METAR LIRA 220915Z 36011KT 290V050 9999 FEW020 23/09 Q1010=
200906220845 METAR LIRA 220845Z 36010KT 300V060 9999 FEW020 21/10 Q1009=
200906220815 METAR LIRA 220815Z 35010KT 310V030 9999 FEW020 20/11 Q1009=
200906220745 METAR LIRA 220745Z 35011KT 270V050 9999 FEW020 20/11 Q1009=
200906220715 METAR LIRA 220715Z 35011KT 300V060 9999 FEW020 19/11 Q1009=
200906220645 METAR LIRA 220645Z 36006KT 320V070 9999 FEW020 18/11 Q1009=
200906220615 METAR LIRA 220615Z 01010KT 310V080 9999 FEW020 17/10 Q1008=
200906220545 METAR LIRA 220545Z 36008KT 320V060 9999 FEW020 15/12 Q1008=
200906220515 METAR LIRA 220515Z 01008G18KT 310V070 9999 FEW020 15/11 Q1008=
200906220445 METAR LIRA 220445Z 03005KT 340V070 9999 FEW020 13/10 Q1008=
200906220415 METAR LIRA 220415Z 05004KT 9999 FEW020 14/11 Q1008=
200906220345 METAR LIRA 220345Z 01005KT 9999 FEW020 SCT200 13/10 Q1008=
200906220315 METAR LIRA 220315Z 03005KT 9999 FEW020 SCT200 13/10 Q1008=
200906220245 METAR LIRA 220245Z 04006KT 9999 FEW070 SCT200 13/10 Q1008=
200906220215 METAR LIRA 220215Z 02006KT CAVOK 14/10 Q1008=
200906220145 METAR LIRA 220145Z 03003KT CAVOK 14/10 Q1008=
200906220115 METAR LIRA 220115Z 01004KT CAVOK 15/11 Q1008=
200906220045 METAR LIRA 220045Z 36005KT CAVOK 15/11 Q1008=
200906220015 METAR LIRA 220015Z 04003KT CAVOK 15/11 Q1008=
200906212350 METAR LIRA 220045Z 36005KT CAVOK 15/11 Q1008=
200906212345 METAR LIRA 212345Z 04006KT 320V070 CAVOK 15/10 Q1008=
200906212315 METAR LIRA 212315Z 02004KT 330V070 9999 FEW070 15/11 Q1008=
200906212245 METAR LIRA 212245Z 01006KT 320V070 9999 FEW070 15/11 Q1008=
200906212215 METAR LIRA 212215Z 02002KT 9999 FEW070 15/12 Q1008=
200906212145 METAR LIRA 212145Z 35002KT 9999 SCT070 16/12 Q1008=
200906212115 METAR LIRA 212115Z 01005KT 310V050 9999 SCT070 16/12 Q1008=
200906212045 METAR LIRA 212045Z 03005KT 350V070 9999 FEW070 16/12 Q1007=
200906212015 METAR LIRA 212015Z 02004KT 340V070 9999 FEW070 17/12 Q1007=
200906211945 METAR LIRA 211945Z 01004KT 9999 FEW070 17/13 Q1007=
200906211915 METAR LIRA 211915Z 36005KT 9999 FEW020 17/12 Q1007=
200906211845 METAR LIRA 211845Z 35005KT 310V050 9999 FEW020 17/12 Q1007=
200906211815 METAR LIRA 211815Z 35008KT 300V040 9999 FEW020 18/13 Q1007=
200906211745 METAR LIRA 211745Z 35006KT 310V050 9999 FEW020 19/14 Q1007=
200906211715 METAR LIRA 211715Z 36006KT 300V040 9999 FEW020 FEW022CB SCT070
                        19/15 Q1007=
200906211645 METAR LIRA 211645Z 03007KT 320V100 9999 FEW018 FEW020CB SCT070
                        18/15 Q1007=
200906211615 METAR LIRA 211615Z 04009KT 340V090 9999 FEW018 FEW020CB SCT070
                        17/15 Q1007 RERA=
200906211545 METAR LIRA 211545Z 04014KT 350V070 9999 FEW016 FEW018CB SCT070
                        17/15 Q1007 RERA=
200906211515 METAR LIRA 211515Z 04009KT 010V090 9999 -RA FEW016 FEW018CB
                        SCT035 17/16 Q1008=
200906211445 METAR LIRA 211445Z 35014KT 350V030 7000 -TSRA FEW015 FEW018CB
                        SCT023 17/16 Q1008=
200906211415 METAR LIRA 211415Z 02010G21KT 320V060 6000 -TSRA FEW015 SCT018CB
                        BKN023 17/15 Q1008=
200906211345 METAR LIRA 211345Z 19009KT 160V300 2500 -TSRA FEW015 SCT018CB
                        BKN023 19/17 Q1007=
200906211315 METAR LIRA 211315Z 36006KT 300V060 8000 -TSRA FEW016 FEW020CB
                        BKN030 22/16 Q1007=
200906211245 METAR LIRA 211245Z 34006KT 290V030 9999 FEW018 FEW020CB BKN030
                        23/15 Q1006=
200906211215 METAR LIRA 211215Z 19005KT 120V240 9999 FEW018 FEW020CB BKN030
                        24/11 Q1006=
200906211145 METAR LIRA 211145Z 14006KT 100V190 9999 FEW018 FEW020CB SCT030
                        25/12 Q1006=
200906211115 METAR LIRA 211115Z 15007KT 120V220 9999 FEW018 FEW020CB SCT030
                        25/13 Q1006=
200906211045 METAR LIRA 211045Z 18010KT 140V230 9999 FEW018 FEW020CB SCT200
                        24/13 Q1006=
200906211015 METAR LIRA 211015Z 19011KT 130V220 9999 SCT018 FEW020TCU
                        24/15 Q1006=
200906210945 METAR LIRA 210945Z 18011KT 130V220 9999 SCT018 FEW020TCU
                        23/16 Q1006=
200906210915 METAR LIRA 210915Z 16009KT 130V220 9999 FEW018 FEW020TCU
                        SCT030 23/18 Q1006=
200906210845 METAR LIRA 210845Z 16014KT 120V220 9999 SCT018 FEW020TCU
                        22/18 Q1006=
200906210815 METAR LIRA 210815Z 17009KT 9999 FEW018 FEW020TCU SCT200 22/19
                        Q1006=
200906210745 METAR LIRA 210745Z 11010KT 9999 SCT018 FEW020CB 22/20 Q1006=
200906210715 METAR LIRA 210715Z 11010KT 9999 FEW018 FEW020CB SCT030 20/19
                        Q1007 RETS=
200906210645 METAR LIRA 210645Z 11010KT 9999 -RA FEW018 FEW020CB SCT025
                        19/18 Q1007 RETS=
200906210615 METAR LIRA 210615Z 16012KT 3000 -TSRA SCT018 SCT020CB BKN023
                        19/19 Q1006=
200906210545 METAR LIRA 210545Z 16007KT 110V200 9999 -RA SCT018 FEW020CB
                        21/19 Q1006=
200906210515 METAR LIRA 210515Z 14012KT 100V180 9999 -RA SCT018 FEW020CB
                        21/19 Q1006=
200906210445 METAR LIRA 210445Z 15014KT 9999 -RA FEW018 FEW020CB 21/18
                        Q1006=
200906210415 METAR LIRA 210415Z 14011KT 9999 FEW018 FEW020CB 20/18 Q1006=
200906210345 METAR LIRA 210345Z 14012KT 9999 FEW020CB 20/16 Q1006=
200906210315 METAR LIRA 210315Z 14013KT 9999 FEW020 20/16 Q1006=
200906210245 METAR LIRA 210245Z 15013KT 9999 FEW020 20/17 Q1006=
200906210215 METAR LIRA 210215Z 14011KT 9999 FEW070 20/16 Q1006=
200906210145 METAR LIRA 210145Z 14013KT 9999 FEW030 20/17 Q1007=
200906210115 METAR LIRA 210115Z 14013KT 9999 SCT025 SCT070 20/17 Q1007=
200906202315 METAR LIRA 202315Z 14009KT 9999 SCT025 SCT070 21/18 Q1009=
200906202245 METAR LIRA 202245Z 14010KT 9999 SCT025 SCT070 22/19 Q1009=
200906202145 METAR LIRA 202145Z 15008KT 130V250 9999 SCT025 SCT070 22/19
                        Q1009=
200906202115 METAR LIRA 202115Z 18007KT 150V220 9999 SCT025 SCT070 22/19
                        Q1009=
200906202045 METAR LIRA 202045Z 16008KT 9999 SCT025 SCT070 22/18 Q1009=
200906202015 METAR LIRA 202015Z 18007KT 140V210 9999 SCT025 SCT070 22/18
                        Q1009=
200906201945 METAR LIRA 201945Z 16007KT 140V200 9999 SCT025 SCT070 22/18
                        Q1009=
200906201915 METAR LIRA 201915Z 18007KT 150V230 9999 FEW025 22/17 Q1009=
200906201845 METAR LIRA 201845Z 22006KT 150V250 9999 FEW020 23/17 Q1009=
200906201815 METAR LIRA 201815Z 22006KT 150V260 9999 FEW020 24/16 Q1009=
200906201745 METAR LIRA 201745Z 20007KT 160V260 9999 FEW020 24/15 Q1009=
200906201715 METAR LIRA 201715Z 22009KT 150V260 9999 FEW020 25/13 Q1009=
200906201645 METAR LIRA 201645Z 22011KT 160V260 9999 FEW020 26/12 Q1009=
200906201615 METAR LIRA 201615Z 23011KT 180V270 9999 SCT018 26/13 Q1009=
200906201545 METAR LIRA 201545Z 19009KT 150V260 9999 SCT018 26/17 Q1009=
200906201515 METAR LIRA 201515Z 19011KT 170V280 9999 SCT018 28/16 Q1009=
200906201445 METAR LIRA 201445Z 21010KT 160V260 9999 SCT018 28/17 Q1010=
200906201415 METAR LIRA 201415Z 23009KT 150V270 9999 SCT018 28/18 Q1010=
200906201345 METAR LIRA 201345Z 19009KT 150V260 9999 SCT018 SCT030 27/17
                        Q1010=
200906201315 METAR LIRA 201315Z 19008KT 150V270 9999 FEW018 FEW020TCU
                        SCT030 28/17 Q1010=
200906201245 METAR LIRA 201245Z 19011KT 160V240 9999 FEW018 FEW020TCU
                        SCT030 28/19 Q1010=
200906201215 METAR LIRA 201215Z 20009KT 160V240 9999 FEW018 FEW020TCU
                        SCT030 28/19 Q1010=
200906201145 METAR LIRA 201145Z 18014KT 140V250 9999 FEW018 FEW020CB SCT030
                        27/20 Q1011=
200906201115 METAR LIRA 201115Z 18014KT 120V220 9999 FEW018 FEW020CB SCT030
                        28/20 Q1011=
200906201045 METAR LIRA 201045Z 15015KT 110V190 9999 FEW018 FEW020CB SCT030
                        29/20 Q1011=
200906201015 METAR LIRA 201015Z 16014KT 110V230 9999 FEW020TCU SCT030
                        27/20 Q1011=
200906200945 METAR LIRA 200945Z 15011KT 110V200 9999 FEW018 BKN060 26/20
                        Q1011=
200906200915 METAR LIRA 200915Z 15011KT 100V190 9999 FEW018 SCT030 BKN060
                        25/21 Q1011=
200906200845 METAR LIRA 200845Z 15012KT 110V190 9999 FEW018 SCT030 BKN060
                        24/21 Q1012=
200906200815 METAR LIRA 200815Z 14014KT 9999 FEW018 SCT030 BKN060 25/21
                        Q1012=
200906200745 METAR LIRA 200745Z 15012KT 9999 FEW018 SCT030 BKN060 25/21
                        Q1012=
200906200715 METAR LIRA 200715Z 15011KT 100V180 9999 FEW018 BKN060 25/21
                        Q1012=
200906200645 METAR LIRA 200645Z 16012KT 9999 FEW018 BKN060 25/20 Q1012=
200906200615 METAR LIRA 200615Z 16011KT 130V210 9999 FEW018 BKN060 25/20
                        Q1012=
200906200545 METAR LIRA 200545Z 16010KT 9999 FEW018 SCT060 25/17 Q1012=
200906200515 METAR LIRA 200515Z 14003KT 9999 FEW018 SCT070 22/16 Q1012=
200906200445 METAR LIRA 200445Z 00000KT 9999 FEW030 SCT070 21/16 Q1012=
200906200415 METAR LIRA 200415Z 00000KT 9999 FEW030 SCT070 21/15 Q1012=
200906200345 METAR LIRA 200345Z 13006KT 9999 FEW035 SCT070 21/18 Q1012=
200906200315 METAR LIRA 200315Z 14004KT 9999 FEW030 SCT080 21/17 Q1012=
200906200245 METAR LIRA 200245Z 13007KT CAVOK 21/18 Q1012=
200906200215 METAR LIRA 200215Z 16006KT CAVOK 21/17 Q1012=
200906200145 METAR LIRA 200145Z 20003KT CAVOK 20/15 Q1013=
200906200115 METAR LIRA 200115Z 24003KT CAVOK 20/16 Q1013=
200906200045 METAR LIRA 200045Z 00000KT CAVOK 20/16 Q1013=
200906200015 METAR LIRA 200015Z 00000KT CAVOK 21/17 Q1013=
200906192350 METAR LIRA 200045Z 00000KT CAVOK 20/16 Q1013=
200906192345 METAR LIRA 192345Z 03001KT CAVOK 22/15 Q1013=
200906192315 METAR LIRA 192315Z 16002KT CAVOK 23/16 Q1013=
200906192245 METAR LIRA 192245Z 12003KT CAVOK 23/18 Q1013=
200906192215 METAR LIRA 192215Z 14006KT CAVOK 23/21 Q1013=
200906192145 METAR LIRA 192145Z 16006KT CAVOK 24/21 Q1014=
200906192115 METAR LIRA 192115Z 16004KT CAVOK 23/21 Q1014=
200906192045 METAR LIRA 192045Z 18004KT CAVOK 24/21 Q1014=
200906192015 METAR LIRA 192015Z 18004KT CAVOK 24/20 Q1014=
200906191945 METAR LIRA 191945Z 20003KT CAVOK 24/18 Q1013=
200906191915 METAR LIRA 191915Z 23004KT CAVOK 24/17 Q1013=
200906191845 METAR LIRA 191845Z 22006KT 190V250 CAVOK 26/17 Q1013=
200906191815 METAR LIRA 191815Z 21006KT 160V260 CAVOK 28/19 Q1013=
200906191745 METAR LIRA 191745Z 22005KT 180V260 CAVOK 29/19 Q1013=
200906191715 METAR LIRA 191715Z 22006KT 190V260 CAVOK 30/19 Q1013=
200906191645 METAR LIRA 191645Z 22007KT 150V260 CAVOK 29/19 Q1013=
200906191615 METAR LIRA 191615Z 24008KT 170V310 9999 FEW020 30/18 Q1013=
200906191545 METAR LIRA 191545Z 23007KT 160V270 9999 FEW020CB 30/18 Q1014=
200906191515 METAR LIRA 191515Z 20007KT 150V260 9999 FEW020CB 30/18 Q1014=
200906191445 METAR LIRA 191445Z 23010KT 150V250 9999 FEW020CB 30/17 Q1014=
200906191415 METAR LIRA 191415Z 20007KT 150V270 9999 FEW020CB 31/17 Q1014=
200906191345 METAR LIRA 191345Z 23010KT 180V290 9999 FEW020 31/17 Q1015=
200906191315 METAR LIRA 191315Z 23010KT 190V310 9999 FEW020 31/16 Q1015=
200906191245 METAR LIRA 191245Z 21008KT 150V260 9999 FEW025 32/16 Q1015=
200906191215 METAR LIRA 191215Z 21008KT 160V270 9999 FEW020 31/15 Q1015=
200906191145 METAR LIRA 191145Z 23008KT 170V280 9999 FEW020 32/20 Q1015=
200906191115 METAR LIRA 191115Z 18005KT 120V270 9999 FEW020 32/20 Q1015=
200906191045 METAR LIRA 191045Z 17007KT 140V260 9999 FEW020 31/19 Q1016=
200906191015 METAR LIRA 191015Z 19004KT 130V240 9999 FEW020 30/19 Q1016=
200906190945 METAR LIRA 190945Z 18009KT 150V230 9999 FEW020 30/19 Q1016=
200906190915 METAR LIRA 190915Z 20009KT 160V260 9999 FEW020 29/19 Q1016=
200906190845 METAR LIRA 190845Z 18009KT 130V220 9999 FEW020 29/19 Q1016=
200906190815 METAR LIRA 190815Z 19009KT 130V250 CAVOK 29/19 Q1016=
200906190745 METAR LIRA 190745Z 17009KT CAVOK 27/19 Q1016=
200906190715 METAR LIRA 190715Z 12005G15KT 090V200 CAVOK 27/19 Q1016=
200906190645 METAR LIRA 190645Z 05003KT CAVOK 26/18 Q1016=
200906190615 METAR LIRA 190615Z 03003KT CAVOK 23/18 Q1016=
200906190545 METAR LIRA 190545Z 00000KT CAVOK 22/18 Q1016=
200906190515 METAR LIRA 190515Z 00000KT CAVOK 20/18 Q1016=
200906190445 METAR LIRA 190445Z 00000KT CAVOK 20/18 Q1016=
200906190415 METAR LIRA 190415Z 29001KT CAVOK 20/18 Q1016=
200906190345 METAR LIRA 190345Z 00000KT 8000 NSC 20/17 Q1016=
200906190315 METAR LIRA 190315Z 09002KT CAVOK 21/17 Q1016=
200906190245 METAR LIRA 190245Z 05002KT CAVOK 21/16 Q1016=
200906190215 METAR LIRA 190215Z 09002KT CAVOK 21/17 Q1017=
200906190145 METAR LIRA 190145Z 09001KT CAVOK 21/16 Q1017=
200906190045 METAR LIRA 190045Z 00000KT CAVOK 21/17 Q1017=
200906182350 METAR LIRA 190045Z 00000KT CAVOK 21/17 Q1017=
200906182345 METAR LIRA 182345Z 23001KT CAVOK 23/16 Q1017=
200906182315 METAR LIRA 182315Z 23004KT CAVOK 23/17 Q1017=
200906182245 METAR LIRA 182245Z 09002KT CAVOK 24/18 Q1017=
200906182215 METAR LIRA 182215Z 11004KT CAVOK 24/20 Q1017=
200906182145 METAR LIRA 182145Z 15002KT CAVOK 24/19 Q1017=
200906182115 METAR LIRA 182115Z 00000KT CAVOK 24/19 Q1017=
200906182045 METAR LIRA 182045Z 16002KT CAVOK 25/20 Q1017=
200906182015 METAR LIRA 182015Z 21003KT CAVOK 26/20 Q1017=
200906181945 METAR LIRA 181945Z 21002KT CAVOK 26/18 Q1017=
200906181915 METAR LIRA 181915Z 22004KT CAVOK 26/17 Q1017=
200906181845 METAR LIRA 181845Z 20004KT CAVOK 28/17 Q1017=
200906181815 METAR LIRA 181815Z 19005KT 170V240 CAVOK 28/18 Q1017=
200906181745 METAR LIRA 181745Z 19006KT 170V240 CAVOK 29/18 Q1017=
200906181715 METAR LIRA 181715Z 21006KT 190V250 9999 FEW020 SCT200 30/17
                        Q1017=
200906181645 METAR LIRA 181645Z 25006KT 160V300 9999 FEW020 SCT200 31/18
                        Q1017=
200906181615 METAR LIRA 181615Z 22007KT 180V280 9999 FEW020 SCT200 31/18
                        Q1017=
200906181545 METAR LIRA 181545Z 23008KT 160V280 9999 FEW020 BKN200 31/18
                        Q1017=
200906181515 METAR LIRA 181515Z 21008KT 160V300 9999 FEW020 BKN200 31/18
                        Q1017=
200906181445 METAR LIRA 181445Z 19008KT 160V230 9999 FEW020 SCT200 31/18
                        Q1017=
200906181415 METAR LIRA 181415Z 20009KT 160V260 9999 FEW020 31/19 Q1017=
200906181345 METAR LIRA 181345Z 21006KT 170V270 9999 FEW020 31/18 Q1017=
200906181315 METAR LIRA 181315Z 24007KT 150V280 9999 FEW020 31/18 Q1017=
200906181245 METAR LIRA 181245Z 22008KT 150V320 9999 FEW020 31/18 Q1017=
200906181215 METAR LIRA 181215Z 19006KT 130V260 9999 FEW020 31/18 Q1018=
200906181145 METAR LIRA 181145Z 19006KT 130V240 9999 FEW020 SCT200 30/18
                        Q1018=
200906181115 METAR LIRA 181115Z 23009KT 150V310 9999 FEW020 BKN200 30/18
                        Q1018=
200906181045 METAR LIRA 181045Z 27007KT 170V300 9999 FEW020 BKN200 30/18
                        Q1018=
200906181015 METAR LIRA 181015Z 20005KT 160V280 9999 FEW020 BKN200 30/18
                        Q1018=
200906180945 METAR LIRA 180945Z 19007KT 140V240 9999 FEW020 BKN200 30/17
                        Q1018=
200906180915 METAR LIRA 180915Z 16007KT 130V200 CAVOK 29/18 Q1018=
200906180845 METAR LIRA 180845Z 16005KT 090V210 CAVOK 29/19 Q1018=
200906180815 METAR LIRA 180815Z 16006KT 130V250 CAVOK 27/18 Q1018=
200906180745 METAR LIRA 180745Z 19005KT 150V230 CAVOK 26/18 Q1018=
200906180715 METAR LIRA 180715Z 25002KT CAVOK 24/17 Q1018=
200906180645 METAR LIRA 180645Z 04002KT CAVOK 22/17 Q1018=
200906180615 METAR LIRA 180615Z 05005KT CAVOK 22/18 Q1018=
200906180545 METAR LIRA 180545Z 03004KT CAVOK 20/17 Q1018=
200906180515 METAR LIRA 180515Z 03006KT 350V070 CAVOK 20/18 Q1018=
200906180445 METAR LIRA 180445Z 03004KT 340V080 CAVOK 20/18 Q1017=
200906180415 METAR LIRA 180415Z 03004KT CAVOK 20/18 Q1017=
200906180345 METAR LIRA 180345Z 05004KT CAVOK 20/18 Q1017=
200906180315 METAR LIRA 180315Z 04004KT CAVOK 21/19 Q1018=
200906180215 METAR LIRA 180215Z 04003KT CAVOK 21/18 Q1018=
200906180145 METAR LIRA 180145Z 35005KT CAVOK 23/20 Q1018=
200906180115 METAR LIRA 180115Z 35004KT CAVOK 23/19 Q1018=
200906180045 METAR LIRA 180045Z 04004KT CAVOK 23/19 Q1018=
200906180015 METAR LIRA 180015Z 04004KT CAVOK 23/19 Q1018=
200906172350 METAR LIRA 180045Z 04004KT CAVOK 23/19 Q1018=
200906172345 METAR LIRA 172345Z 03003KT CAVOK 24/19 Q1018=
200906172315 METAR LIRA 172315Z 03003KT CAVOK 24/20 Q1018=
200906172245 METAR LIRA 172245Z 05001KT CAVOK 24/21 Q1018=
200906172215 METAR LIRA 172215Z 04001KT CAVOK 24/21 Q1018=
200906172145 METAR LIRA 172145Z 12003KT 9999 FEW070 24/22 Q1018=
200906172115 METAR LIRA 172115Z 15002KT 9999 FEW020 SCT070 24/22 Q1018=
200906172045 METAR LIRA 172045Z 17002KT 9999 FEW020 SCT070 25/21 Q1018=
200906172015 METAR LIRA 172015Z 28008KT 220V340 9999 SCT020 SCT070 27/19
                        Q1018=
200906171945 METAR LIRA 171945Z 27010KT 9999 SCT020 SCT070 27/19 Q1018=
200906171915 METAR LIRA 171915Z 22004KT 170V240 9999 SCT020 SCT070 27/18
                        Q1016=
200906171845 METAR LIRA 171845Z 17006KT 140V210 9999 SCT020 SCT070 28/18
                        Q1016=
200906171815 METAR LIRA 171815Z 21003KT 9999 SCT020 SCT070 28/16 Q1017=
200906171745 METAR LIRA 171745Z 26004KT 9999 SCT020 SCT070 29/17 Q1018=
200906171715 METAR LIRA 171715Z 29005KT 230V350 9999 FEW020 SCT070 29/17
                        Q1018=
200906171645 METAR LIRA 171645Z 24004KT 9999 FEW020 SCT070 29/16 Q1018=
200906171615 METAR LIRA 171615Z 23005KT 210V270 9999 FEW020 SCT070 30/16
                        Q1018=
200906171545 METAR LIRA 171545Z 27007KT 200V330 9999 FEW020 SCT200 30/15
                        Q1018=
200906171515 METAR LIRA 171515Z 27007KT 210V320 9999 FEW020 31/15 Q1018=
200906171445 METAR LIRA 171445Z 26006KT 200V320 9999 FEW020 31/15 Q1017=
200906171415 METAR LIRA 171415Z 22006KT 130V270 9999 FEW020 32/15 Q1017=
200906171345 METAR LIRA 171345Z 21007KT 170V290 9999 FEW020 32/15 Q1017=
200906171315 METAR LIRA 171315Z 19007KT 150V290 9999 FEW020 32/14 Q1017=
200906171245 METAR LIRA 171245Z 23008KT 160V300 9999 FEW020 32/16 Q1017=
200906171215 METAR LIRA 171215Z 24007KT 190V300 9999 FEW020 32/15 Q1017=
200906171200 METAR LIRA CONTUS=
200906171145 METAR LIRA 171145Z 20005KT 150V330 9999 FEW020 32/15 Q1018=
200906171115 METAR LIRA 171115Z 24005KT 150V290 9999 FEW020 32/14 Q1018=
200906171100 METAR LIRA CB ALL QUADS=
200906171045 METAR LIRA 171045Z 23004KT 120V310 9999 FEW020 31/13 Q1018=
200906171015 METAR LIRA 171015Z 20003KT 9999 FEW020 31/13 Q1018=
200906170945 METAR LIRA 170945Z 12003KT 9999 FEW020 31/14 Q1018=
200906170915 METAR LIRA 170915Z 22003KT CAVOK 30/14 Q1018=
200906170845 METAR LIRA 170845Z 22002KT CAVOK 29/15 Q1018=
200906170815 METAR LIRA 170815Z 31001KT CAVOK 27/15 Q1018=
200906170745 METAR LIRA 170745Z 34003KT CAVOK 26/14 Q1018=
200906170715 METAR LIRA 170715Z 02005KT CAVOK 25/15 Q1018=
200906170645 METAR LIRA 170645Z 04004KT CAVOK 23/14 Q1018=
200906170615 METAR LIRA 170615Z 05005KT 360V120 CAVOK 22/15 Q1018=
200906170545 METAR LIRA 170545Z 06004KT CAVOK 21/14 Q1018=
200906170515 METAR LIRA 170515Z 02003KT CAVOK 20/14 Q1017=
200906170445 METAR LIRA 170445Z 04003KT CAVOK 19/12 Q1017=
200906170415 METAR LIRA 170415Z 05002KT CAVOK 19/12 Q1017=
200906170345 METAR LIRA 170345Z 36002KT CAVOK 19/13 Q1017=
200906170315 METAR LIRA 170315Z 04002KT CAVOK 19/12 Q1017=
200906170245 METAR LIRA 170245Z 05002KT CAVOK 19/11 Q1017=
200906170215 METAR LIRA 170215Z 00000KT CAVOK 20/11 Q1017=
200906170145 METAR LIRA 170145Z 10002KT CAVOK 19/12 Q1018=
200906170115 METAR LIRA 170115Z 04002KT CAVOK 20/12 Q1018=
200906170045 METAR LIRA 170045Z 09003KT CAVOK 20/12 Q1018=
200906170015 METAR LIRA 170015Z 09003KT CAVOK 20/12 Q1018=
200906162350 METAR LIRA 170045Z 09003KT CAVOK 20/12 Q1018=
200906162345 METAR LIRA 162345Z 00000KT CAVOK 21/12 Q1018=
200906162315 METAR LIRA 162315Z 13001KT CAVOK 22/12 Q1019=
200906162245 METAR LIRA 162245Z 00000KT CAVOK 23/13 Q1019=
200906162215 METAR LIRA 162215Z 00000KT CAVOK 22/15 Q1019=
200906162145 METAR LIRA 162145Z 00000KT CAVOK 22/15 Q1019=
200906162115 METAR LIRA 162115Z 00000KT CAVOK 23/13 Q1019=
200906162045 METAR LIRA 162045Z 00000KT CAVOK 24/12 Q1019=
200906162015 METAR LIRA 162015Z 00000KT CAVOK 25/12 Q1019=
200906161945 METAR LIRA 161945Z 21002KT CAVOK 25/10 Q1018=
200906161915 METAR LIRA 161915Z 23002KT CAVOK 26/10 Q1018=
200906161845 METAR LIRA 161845Z 24003KT CAVOK 27/10 Q1018=
200906161815 METAR LIRA 161815Z 27003KT CAVOK 29/10 Q1018=
200906161745 METAR LIRA 161745Z 25004KT 220V310 CAVOK 29/11 Q1018=
200906161715 METAR LIRA 161715Z 27007KT 220V310 CAVOK 30/12 Q1018=
200906161645 METAR LIRA 161645Z 26006KT 210V320 CAVOK 31/12 Q1018=
200906161615 METAR LIRA 161615Z 27008KT 190V320 CAVOK 31/12 Q1018=
200906161545 METAR LIRA 161545Z 25007KT 210V290 CAVOK 31/12 Q1018=
200906161515 METAR LIRA 161515Z 25006KT 150V300 CAVOK 31/12 Q1018=
200906161445 METAR LIRA 161445Z 22008KT 170V300 CAVOK 32/13 Q1019=
200906161415 METAR LIRA 161415Z 26007KT 210V330 CAVOK 32/14 Q1019=
200906161345 METAR LIRA 161345Z 27007KT 170V310 CAVOK 32/14 Q1019=
200906161315 METAR LIRA 161315Z 27006KT 160V330 CAVOK 32/14 Q1019=
200906161245 METAR LIRA 161245Z 25007KT 190V340 CAVOK 31/13 Q1019=
200906161215 METAR LIRA 161215Z 26008KT 190V340 CAVOK 32/13 Q1019=
200906161145 METAR LIRA 161145Z VRB07KT 220V060 CAVOK 32/14 Q1019=
200906161115 METAR LIRA 161115Z 30008KT 260V340 CAVOK 31/14 Q1020=
200906161045 METAR LIRA 161045Z 19004KT 150V250 CAVOK 31/14 Q1020=
200906161015 METAR LIRA 161015Z 23006KT 190V250 CAVOK 31/13 Q1020=
200906160945 METAR LIRA 160945Z 30002KT 270V350 CAVOK 30/13 Q1020=
200906160915 METAR LIRA 160915Z 21004KT CAVOK 30/14 Q1020=
200906160845 METAR LIRA 160845Z 23003KT CAVOK 29/13 Q1020=
200906160815 METAR LIRA 160815Z 28004KT CAVOK 28/15 Q1020=
200906160745 METAR LIRA 160745Z 31002KT CAVOK 27/15 Q1020=
200906160715 METAR LIRA 160715Z 30002KT CAVOK 26/17 Q1020=
200906160645 METAR LIRA 160645Z 01001KT CAVOK 24/16 Q1020=
200906160615 METAR LIRA 160615Z 12001KT CAVOK 24/18 Q1020=
200906160545 METAR LIRA 160545Z 07001KT CAVOK 21/16 Q1020=
200906160515 METAR LIRA 160515Z 03003KT CAVOK 20/16 Q1020=
200906160445 METAR LIRA 160445Z 04002KT CAVOK 19/16 Q1019=
200906160415 METAR LIRA 160415Z 07003KT CAVOK 19/16 Q1019=
200906160345 METAR LIRA 160345Z 00000KT CAVOK 19/16 Q1019=
200906160315 METAR LIRA 160315Z 04002KT CAVOK 19/16 Q1019=
200906160245 METAR LIRA 160245Z 05004KT CAVOK 20/16 Q1019=
200906160215 METAR LIRA 160215Z 02003KT CAVOK 20/16 Q1019=
200906160145 METAR LIRA 160145Z 04003KT CAVOK 20/16 Q1019=
200906160115 METAR LIRA 160115Z 07002KT CAVOK 20/16 Q1019=
200906160045 METAR LIRA 160045Z 00000KT CAVOK 21/16 Q1019=
200906160015 METAR LIRA 160015Z 09002KT CAVOK 21/17 Q1019=
200906152350 METAR LIRA 160045Z 00000KT CAVOK 21/16 Q1019=
200906152345 METAR LIRA 152345Z 10003KT CAVOK 21/17 Q1019=
200906152315 METAR LIRA 152315Z 06001KT CAVOK 22/18 Q1019=
200906152245 METAR LIRA 152245Z 10002KT CAVOK 22/19 Q1020=
200906152215 METAR LIRA 152215Z 22002KT CAVOK 22/19 Q1020=
200906152145 METAR LIRA 152145Z 00000KT CAVOK 22/19 Q1020=
200906152115 METAR LIRA 152115Z 14001KT CAVOK 22/19 Q1020=
200906152045 METAR LIRA 152045Z 18002KT CAVOK 23/19 Q1020=
200906152015 METAR LIRA 152015Z 24003KT CAVOK 23/17 Q1020=
200906151945 METAR LIRA 151945Z 22003KT CAVOK 25/18 Q1020=
200906151915 METAR LIRA 151915Z 20002KT CAVOK 25/16 Q1020=
200906151845 METAR LIRA 151845Z 23003KT CAVOK 27/17 Q1020=
200906151815 METAR LIRA 151815Z 23004KT CAVOK 27/15 Q1020=
200906151745 METAR LIRA 151745Z 21006KT 140V260 CAVOK 28/16 Q1020=
200906151715 METAR LIRA 151715Z 23008KT 190V270 CAVOK 29/16 Q1020=
200906151645 METAR LIRA 151645Z 21007KT 170V270 CAVOK 29/16 Q1020=
200906151615 METAR LIRA 151615Z 20006KT 130V270 CAVOK 29/16 Q1020=
200906151545 METAR LIRA 151545Z 23010KT 180V260 CAVOK 29/15 Q1020=
200906151515 METAR LIRA 151515Z 21010KT 150V290 9999 FEW020 30/16 Q1020=
200906151445 METAR LIRA 151445Z 19006KT 110V270 9999 FEW020 30/15 Q1021=
200906151415 METAR LIRA 151415Z 22007KT 160V270 9999 FEW020 30/15 Q1021=
200906151345 METAR LIRA 151345Z 22008KT 180V270 9999 FEW020 31/15 Q1021=
200906151315 METAR LIRA 151315Z 18006KT 140V250 9999 FEW020 32/16 Q1021=
200906151245 METAR LIRA 151245Z 20006KT 140V270 9999 FEW020 32/16 Q1021=
200906151215 METAR LIRA 151215Z 19008KT 130V230 9999 FEW020 31/16 Q1021=
200906151145 METAR LIRA 151145Z 23007KT 170V270 9999 FEW020 31/17 Q1021=
200906151115 METAR LIRA 151115Z 23007KT 160V270 9999 FEW020 31/17 Q1021=
200906151045 METAR LIRA 151045Z 23006KT 160V270 9999 FEW020 30/17 Q1021=
200906151015 METAR LIRA 151015Z 20006KT 150V270 9999 FEW020 30/16 Q1021=
200906150945 METAR LIRA 150945Z 23005KT 140V300 CAVOK 30/16 Q1021=
200906150915 METAR LIRA 150915Z 18005KT 120V230 CAVOK 30/17 Q1021=
200906150845 METAR LIRA 150845Z 20006KT 140V270 CAVOK 29/17 Q1021=
200906150815 METAR LIRA 150815Z 21007KT 170V270 CAVOK 28/17 Q1021=
200906150745 METAR LIRA 150745Z 00000KT CAVOK 27/19 Q1021=
200906150715 METAR LIRA 150715Z 00000KT CAVOK 25/18 Q1021=
200906150645 METAR LIRA 150645Z 19002KT CAVOK 25/19 Q1021=
200906150615 METAR LIRA 150615Z 30001KT CAVOK 23/18 Q1021=
200906150545 METAR LIRA 150545Z 18001KT CAVOK 22/18 Q1021=
200906150515 METAR LIRA 150515Z 07002KT CAVOK 21/17 Q1021=
200906150445 METAR LIRA 150445Z 06002KT CAVOK 20/17 Q1021=
200906150415 METAR LIRA 150415Z 34002KT CAVOK 20/17 Q1021=
200906150345 METAR LIRA 150345Z 00000KT 9999 FEW080 21/17 Q1020=
200906150315 METAR LIRA 150315Z 31002KT CAVOK 21/16 Q1020=
200906150245 METAR LIRA 150245Z 10002KT CAVOK 21/17 Q1020=
200906150215 METAR LIRA 150215Z 36002KT CAVOK 21/17 Q1020=
200906150145 METAR LIRA 150145Z 06003KT 9999 FEW001 22/17 Q1020=
200906150115 METAR LIRA 150115Z 07003KT 9999 FEW001 21/16 Q1020=
200906150045 METAR LIRA 150045Z 30001KT 9999 FEW001 21/16 Q1021=
200906150015 METAR LIRA 150015Z 31002KT 9999 FEW001 21/16 Q1021=
200906142350 METAR LIRA 150045Z 30001KT 9999 FEW001 21/16 Q1021=
200906142345 METAR LIRA 142345Z 31001KT 9999 FEW001 22/16 Q1021=
200906142315 METAR LIRA 142315Z 00000KT CAVOK 22/17 Q1021=
200906142245 METAR LIRA 142245Z 00000KT CAVOK 22/18 Q1021=
200906142215 METAR LIRA 142215Z 00000KT CAVOK 23/18 Q1021=
200906142145 METAR LIRA 142145Z 00000KT CAVOK 23/18 Q1021=
200906142115 METAR LIRA 142115Z 17001KT CAVOK 23/17 Q1021=
200906142045 METAR LIRA 142045Z 21003KT CAVOK 24/18 Q1021=
200906142015 METAR LIRA 142015Z 22005KT CAVOK 25/14 Q1021=
200906141945 METAR LIRA 141945Z 23004KT CAVOK 26/14 Q1021=
200906141915 METAR LIRA 141915Z 21002KT CAVOK 27/14 Q1020=
200906141845 METAR LIRA 141845Z 20004KT 9999 FEW018CB 27/13 Q1020=
200906141815 METAR LIRA 141815Z 22002KT 9999 FEW018CB 28/12 Q1020=
200906141745 METAR LIRA 141745Z 22004KT 9999 FEW018CB 28/12 Q1020=
200906141715 METAR LIRA 141715Z 20005KT 160V250 9999 FEW018CB 29/14 Q1020=
200906141645 METAR LIRA 141645Z 23006KT 200V310 9999 FEW018CB 29/13 Q1020=
200906141615 METAR LIRA 141615Z 22006KT 170V290 9999 FEW018CB 30/14 Q1020=
200906141545 METAR LIRA 141545Z 22007KT 160V250 9999 FEW018 FEW020CB 30/14
                        Q1020=
200906141515 METAR LIRA 141515Z 20006KT 150V260 9999 FEW018 FEW020TCU
                        30/14 Q1020=
200906141445 METAR LIRA 141445Z 24005KT 190V300 9999 FEW018 FEW020TCU
                        30/14 Q1020=
200906141415 METAR LIRA 141415Z 23008KT 160V270 9999 FEW018 FEW020TCU
                        30/14 Q1021=
200906141345 METAR LIRA 141345Z 24007KT 220V320 9999 FEW018 FEW020TCU
                        30/15 Q1021=
200906141315 METAR LIRA 141315Z 25008KT 200V340 9999 FEW018 FEW020TCU
                        30/15 Q1021=
200906141245 METAR LIRA 141245Z 27009KT 180V310 9999 FEW018 FEW020TCU
                        30/15 Q1021=
200906141215 METAR LIRA 141215Z 23006KT 150V280 9999 FEW018 FEW020TCU
                        30/16 Q1021=
200906141145 METAR LIRA 141145Z 24007KT 160V340 9999 FEW018 FEW020TCU
                        30/15 Q1021=
200906141115 METAR LIRA 141115Z 22007KT 160V310 9999 FEW018 FEW020TCU
                        30/14 Q1021=
200906141045 METAR LIRA 141045Z 23008KT 180V300 9999 FEW018 FEW020TCU
                        30/15 Q1021=
200906141015 METAR LIRA 141015Z 16005KT 080V200 9999 FEW018 FEW020TCU
                        30/14 Q1021=
200906140945 METAR LIRA 140945Z 28004KT 9999 FEW022 29/14 Q1020=
200906140915 METAR LIRA 140915Z 00000KT 9999 FEW022 29/16 Q1021=
200906140845 METAR LIRA 140845Z 18002KT 9999 FEW022 27/16 Q1021=
200906140815 METAR LIRA 140815Z 32001KT 9999 FEW020 27/17 Q1020=
200906140745 METAR LIRA 140745Z 31002KT 9999 FEW020 25/19 Q1020=
200906140715 METAR LIRA 140715Z 34004KT CAVOK 24/19 Q1020=
200906140645 METAR LIRA 140645Z 35004KT CAVOK 23/19 Q1020=
200906140615 METAR LIRA 140615Z 03003KT CAVOK 22/20 Q1020=
200906140545 METAR LIRA 140545Z 04003KT CAVOK 20/18 Q1020=
200906140515 METAR LIRA 140515Z 04002KT CAVOK 19/17 Q1020=
200906140445 METAR LIRA 140445Z 00000KT CAVOK 19/17 Q1020=
200906140415 METAR LIRA 140415Z 11002KT CAVOK 19/17 Q1019=
200906140345 METAR LIRA 140345Z 00000KT CAVOK 18/17 Q1019=
200906140315 METAR LIRA 140315Z 00000KT CAVOK 19/17 Q1019=
200906140245 METAR LIRA 140245Z 00000KT CAVOK 19/17 Q1019=
200906140215 METAR LIRA 140215Z 00000KT CAVOK 19/18 Q1019=
200906140145 METAR LIRA 140145Z 00000KT CAVOK 19/18 Q1019=
200906140115 METAR LIRA 140115Z 00000KT CAVOK 19/18 Q1019=
200906140045 METAR LIRA 140045Z 00000KT CAVOK 20/19 Q1019=
200906140015 METAR LIRA 140015Z 00000KT CAVOK 20/19 Q1019=
200906132350 METAR LIRA 140045Z 00000KT CAVOK 20/19 Q1019=
200906132345 METAR LIRA 132345Z 00000KT CAVOK 20/19 Q1019=
200906132315 METAR LIRA 132315Z 00000KT CAVOK 21/19 Q1019=
200906132245 METAR LIRA 132245Z 00000KT CAVOK 21/19 Q1019=
200906132215 METAR LIRA 132215Z 00000KT CAVOK 21/19 Q1019=
200906132145 METAR LIRA 132145Z 00000KT CAVOK 21/19 Q1019=
200906132115 METAR LIRA 132115Z 26001KT CAVOK 22/20 Q1018=
200906132045 METAR LIRA 132045Z 23002KT CAVOK 22/19 Q1018=
200906132015 METAR LIRA 132015Z 18002KT 9999 FEW018 23/19 Q1018=
200906131945 METAR LIRA 131945Z 19003KT 9999 FEW018 24/18 Q1018=
200906131915 METAR LIRA 131915Z 20002KT 9999 FEW018 25/17 Q1018=
200906131845 METAR LIRA 131845Z 22004KT 9999 FEW018 26/16 Q1018=
200906131815 METAR LIRA 131815Z 26004KT 200V320 9999 FEW018 27/17 Q1018=
200906131745 METAR LIRA 131745Z 23007KT 190V260 9999 FEW018 27/18 Q1018=
200906131715 METAR LIRA 131715Z 23005KT 190V270 9999 FEW018 27/18 Q1017=
200906131645 METAR LIRA 131645Z 24007KT 190V270 9999 FEW018 27/18 Q1017=
200906131615 METAR LIRA 131615Z 22005KT 160V260 9999 FEW018 28/19 Q1017=
200906131545 METAR LIRA 131545Z 23008KT 160V260 9999 FEW020 28/19 Q1017=
200906131515 METAR LIRA 131515Z 23007KT 190V320 9999 FEW020 28/20 Q1017=
200906131445 METAR LIRA 131445Z 23006KT 140V270 9999 FEW020 27/19 Q1017=
200906131415 METAR LIRA 131415Z 18007KT 130V240 9999 FEW020 28/20 Q1017=
200906131345 METAR LIRA 131345Z 20008KT 160V270 9999 FEW020 29/19 Q1017=
200906131315 METAR LIRA 131315Z 18008KT 150V250 9999 FEW020 29/19 Q1017=
200906131245 METAR LIRA 131245Z 18007KT 140V270 9999 SCT020 28/19 Q1017=
200906131215 METAR LIRA 131215Z 23007KT 170V290 9999 SCT020 28/20 Q1017=
200906131145 METAR LIRA 131145Z 22008KT 170V270 9999 SCT020 28/17 Q1017=
200906131115 METAR LIRA 131115Z 21007KT 140V270 9999 SCT020 28/18 Q1017=
200906131045 METAR LIRA 131045Z 16007KT 140V260 9999 FEW020 27/18 Q1017=
200906131015 METAR LIRA 131015Z 19008KT 150V270 9999 FEW025 27/19 Q1017=
200906130945 METAR LIRA 130945Z 20008KT 130V230 9999 FEW025 25/19 Q1017=
200906130915 METAR LIRA 130915Z 19007KT 160V250 9999 FEW025 26/20 Q1017=
200906130845 METAR LIRA 130845Z 22008KT 160V260 9999 FEW025 25/19 Q1017=
200906130815 METAR LIRA 130815Z 21008KT 160V250 9999 FEW020 25/19 Q1017=
200906130745 METAR LIRA 130745Z 19006KT 130V260 9999 FEW020 24/18 Q1017=
200906130715 METAR LIRA 130715Z 22005KT 170V260 9999 FEW020 23/17 Q1017=
200906130645 METAR LIRA 130645Z 21004KT 140V270 9999 FEW020 22/19 Q1016=
200906130615 METAR LIRA 130615Z 21003KT 9999 FEW024 22/18 Q1016=
200906130545 METAR LIRA 130545Z 22001KT CAVOK 20/15 Q1016=
200906130515 METAR LIRA 130515Z 34001KT CAVOK 19/15 Q1016=
200906130445 METAR LIRA 130445Z 00000KT CAVOK 18/13 Q1015=
200906130415 METAR LIRA 130415Z 12002KT CAVOK 18/13 Q1015=
200906130345 METAR LIRA 130345Z 00000KT CAVOK 18/13 Q1015=
200906130315 METAR LIRA 130315Z 00000KT CAVOK 18/15 Q1015=
200906130245 METAR LIRA 130245Z 00000KT CAVOK 18/15 Q1016=
200906130215 METAR LIRA 130215Z 00000KT CAVOK 19/16 Q1016=
200906130145 METAR LIRA 130145Z 00000KT CAVOK 19/16 Q1016=
200906130045 METAR LIRA 130045Z 11002KT CAVOK 20/16 Q1016=
200906130015 METAR LIRA 130015Z 11002KT CAVOK 20/15 Q1016=
200906122350 METAR LIRA 130045Z 11002KT CAVOK 20/16 Q1016=
200906122345 METAR LIRA 122345Z 00000KT CAVOK 20/17 Q1016=
200906122315 METAR LIRA 122315Z 12003KT CAVOK 21/18 Q1016=
200906122245 METAR LIRA 122245Z 18003KT CAVOK 21/20 Q1016=
200906122215 METAR LIRA 122215Z 18003KT CAVOK 21/19 Q1016=
200906122145 METAR LIRA 122145Z 18004KT CAVOK 21/19 Q1016=
200906122115 METAR LIRA 122115Z 19005KT CAVOK 22/20 Q1016=
200906122045 METAR LIRA 122045Z 18004KT CAVOK 22/19 Q1016=
200906122015 METAR LIRA 122015Z 18004KT CAVOK 22/16 Q1015=
200906121945 METAR LIRA 121945Z 19005KT CAVOK 22/16 Q1015=
200906121915 METAR LIRA 121915Z 18005KT CAVOK 23/16 Q1015=
200906121845 METAR LIRA 121845Z 19005KT CAVOK 24/16 Q1015=
200906121815 METAR LIRA 121815Z 20006KT 170V230 CAVOK 25/16 Q1015=
200906121745 METAR LIRA 121745Z 19006KT 150V250 CAVOK 27/16 Q1015=
200906121715 METAR LIRA 121715Z 22005KT 180V260 9999 FEW018 28/16 Q1015=
200906121645 METAR LIRA 121645Z 23006KT 200V330 9999 FEW018 28/17 Q1015=
200906121615 METAR LIRA 121615Z 24007KT 150V310 9999 FEW018 28/20 Q1015=
200906121545 METAR LIRA 121545Z 26008KT 200V330 CAVOK 28/19 Q1015=
200906121515 METAR LIRA 121515Z 23008KT 200V310 9999 SCT018 28/20 Q1015=
200906121445 METAR LIRA 121445Z 25009KT 170V290 9999 SCT018 28/19 Q1015=
200906121415 METAR LIRA 121415Z 22009KT 150V260 9999 SCT018 28/19 Q1015=
200906121345 METAR LIRA 121345Z 22009KT 150V270 9999 SCT018 28/18 Q1015=
200906121315 METAR LIRA 121315Z 19007KT 140V270 9999 SCT018 28/18 Q1015=
200906121245 METAR LIRA 121245Z 23010KT 170V270 9999 SCT018 29/16 Q1015=
200906121215 METAR LIRA 121215Z 23009KT 170V290 9999 FEW020 30/12 Q1015=
200906121145 METAR LIRA 121145Z 29003KT 190V010 9999 FEW020 29/11 Q1015=
200906121115 METAR LIRA 121115Z 29002KT 240V360 9999 FEW020 29/11 Q1016=
200906121045 METAR LIRA 121045Z 31008KT 260V350 9999 FEW020 28/13 Q1016=
200906121015 METAR LIRA 121015Z 34006KT 280V030 9999 FEW020 28/13 Q1016=
200906120945 METAR LIRA 120945Z 01002KT CAVOK 27/13 Q1016=
200906120915 METAR LIRA 120915Z 32006KT CAVOK 26/13 Q1016=
200906120845 METAR LIRA 120845Z 31006KT 280V360 CAVOK 25/15 Q1016=
200906120815 METAR LIRA 120815Z 01001KT CAVOK 24/14 Q1016=
200906120745 METAR LIRA 120745Z 29002KT CAVOK 23/13 Q1016=
200906120715 METAR LIRA 120715Z 31002KT CAVOK 21/13 Q1016=
200906120645 METAR LIRA 120645Z 34004KT CAVOK 20/15 Q1016=
200906120615 METAR LIRA 120615Z 04005KT 360V080 CAVOK 19/14 Q1016=
200906120545 METAR LIRA 120545Z 36003KT CAVOK 18/15 Q1015=
200906120515 METAR LIRA 120515Z 02002KT CAVOK 16/15 Q1015=
200906120500 LIRA INTER=
200906120445 METAR LIRA 120445Z 02003KT CAVOK 16/15 Q1015=
200906120415 METAR LIRA 120415Z 08002KT CAVOK 17/15 Q1015=
200906120345 METAR LIRA 120345Z 00000KT CAVOK 17/15 Q1015=
200906120315 METAR LIRA 120315Z 00000KT CAVOK 17/15 Q1015=
200906120245 METAR LIRA 120245Z 00000KT CAVOK 17/15 Q1016=
200906120215 METAR LIRA 120215Z 00000KT CAVOK 18/16 Q1016=
200906120145 METAR LIRA 120145Z 00000KT CAVOK 18/16 Q1016=
200906120115 METAR LIRA 120115Z 10002KT CAVOK 19/16 Q1016=
200906120045 METAR LIRA 120045Z 10005KT CAVOK 19/16 Q1016=
200906120015 METAR LIRA 120015Z 12003KT CAVOK 19/16 Q1017=
200906112350 METAR LIRA 120045Z 10005KT CAVOK 19/16 Q1016=
200906112345 METAR LIRA 112345Z 14003KT CAVOK 19/16 Q1017=
200906112315 METAR LIRA 112315Z 09001KT CAVOK 19/15 Q1017=
200906112245 METAR LIRA 112245Z 11002KT CAVOK 20/14 Q1017=
200906112215 METAR LIRA 112215Z 12003KT CAVOK 20/14 Q1017=
200906112145 METAR LIRA 112145Z 12002KT CAVOK 20/14 Q1017=
200906112115 METAR LIRA 112115Z 19003KT CAVOK 21/14 Q1017=
200906112045 METAR LIRA 112045Z 14003KT CAVOK 21/16 Q1017=
200906112015 METAR LIRA 112015Z 14003KT CAVOK 21/15 Q1017=
200906111945 METAR LIRA 111945Z 18004KT CAVOK 22/12 Q1017=
200906111915 METAR LIRA 111915Z 18004KT CAVOK 23/12 Q1017=
200906111845 METAR LIRA 111845Z 17006KT 130V200 CAVOK 24/10 Q1017=
200906111815 METAR LIRA 111815Z 22005KT 190V290 CAVOK 24/12 Q1017=
200906111745 METAR LIRA 111745Z 26009KT 210V310 CAVOK 25/12 Q1017=
200906111715 METAR LIRA 111715Z 25008KT 200V300 CAVOK 25/12 Q1017=
200906111645 METAR LIRA 111645Z 26008KT 190V310 CAVOK 25/08 Q1017=
200906111615 METAR LIRA 111615Z 24007KT 190V300 CAVOK 25/07 Q1017=
200906111545 METAR LIRA 111545Z 23011KT 190V320 9999 FEW070 27/08 Q1017=
200906111515 METAR LIRA 111515Z 25008KT 190V310 CAVOK 27/09 Q1017=
200906111445 METAR LIRA 111445Z 25010KT 210V300 CAVOK 28/09 Q1017=
200906111415 METAR LIRA 111415Z 25008KT 200V320 CAVOK 28/09 Q1017=
200906111345 METAR LIRA 111345Z 25011KT 200V310 CAVOK 28/07 Q1017=
200906111315 METAR LIRA 111315Z 27008KT 200V320 CAVOK 28/07 Q1017=
200906111245 METAR LIRA 111245Z 27008KT 200V320 CAVOK 28/07 Q1018=
200906111215 METAR LIRA 111215Z 27010KT 200V320 CAVOK 28/07 Q1018=
200906111145 METAR LIRA 111145Z 26010KT 210V340 CAVOK 28/08 Q1018=
200906111115 METAR LIRA 111115Z 29007KT 240V360 CAVOK 28/08 Q1018=
200906111045 METAR LIRA 111045Z 30005KT 190V310 CAVOK 27/07 Q1018=
200906111015 METAR LIRA 111015Z 32007KT 270V010 CAVOK 27/07 Q1018=
200906110945 METAR LIRA 110945Z 33009KT 270V030 CAVOK 26/07 Q1019=
200906110915 METAR LIRA 110915Z 31007KT 270V020 CAVOK 26/08 Q1019=
200906110845 METAR LIRA 110845Z 32008KT 270V050 CAVOK 25/10 Q1019=
200906110815 METAR LIRA 110815Z 35009KT 300V060 CAVOK 24/10 Q1019=
200906110745 METAR LIRA 110745Z 01006KT 300V050 CAVOK 23/11 Q1019=
200906110715 METAR LIRA 110715Z 36006KT 320V090 CAVOK 22/11 Q1019=
200906110700 METAR LIRA INTER=
200906110645 METAR LIRA 110645Z 35006KT 300V060 CAVOK 20/13 Q1019=
200906110615 METAR LIRA 110615Z 01003KT CAVOK 20/14 Q1019=
200906110545 METAR LIRA 110545Z 01004KT CAVOK 18/14 Q1018=
200906110515 METAR LIRA 110515Z 01003KT CAVOK 18/14 Q1018=
200906110445 METAR LIRA 110445Z 03003KT CAVOK 16/15 Q1018=
200906110415 METAR LIRA 110415Z 03003KT CAVOK 16/14 Q1018=
200906110345 METAR LIRA 110345Z 04003KT CAVOK 17/15 Q1018=
200906102145 METAR LIRA 102145Z 16004KT 9999 SCT016 20/18 Q1019=
200906102115 METAR LIRA 102115Z 16004KT 9999 SCT016 20/19 Q1019=
200906102045 METAR LIRA 102045Z 17004KT CAVOK 20/18 Q1019=
200906102015 METAR LIRA 102015Z 19003KT CAVOK 20/18 Q1019=
200906101945 METAR LIRA 101945Z 22005KT CAVOK 20/18 Q1019=
200906101915 METAR LIRA 101915Z 22005KT CAVOK 21/19 Q1018=
200906101845 METAR LIRA 101845Z 23004KT CAVOK 25/13 Q1018=
200906101815 METAR LIRA 101815Z 26003KT CAVOK 25/13 Q1019=
200906101745 METAR LIRA 101745Z 24004KT CAVOK 26/12 Q1019=
200906101715 METAR LIRA 101715Z 25005KT 200V280 CAVOK 26/11 Q1019=
200906101645 METAR LIRA 101645Z 25006KT 180V300 CAVOK 27/12 Q1019=
200906101615 METAR LIRA 101615Z 25007KT 210V310 9999 FEW080 SCT200 27/12
                        Q1019=
200906101545 METAR LIRA 101545Z 26007KT 150V320 9999 FEW020 SCT200 27/14
                        Q1019=
200906101515 METAR LIRA 101515Z 22005KT 150V300 9999 FEW020 SCT200 27/14
                        Q1019=
200906101445 METAR LIRA 101445Z 20006KT 150V260 9999 FEW020 SCT200 27/15
                        Q1019=
200906101415 METAR LIRA 101415Z 21008KT 160V280 9999 FEW020 SCT200 28/08
                        Q1019=
200906101345 METAR LIRA 101345Z 25007KT 160V300 9999 FEW020 SCT200 28/15
                        Q1019=
200906101315 METAR LIRA 101315Z 25007KT 190V310 9999 FEW020 SCT070 27/13
                        Q1019=
200906101245 METAR LIRA 101245Z 23007KT 170V270 9999 FEW020 SCT070 28/13
                        Q1019=
200906101215 METAR LIRA 101215Z 23009KT 140V270 9999 FEW020 SCT070 27/12
                        Q1019=
200906101145 METAR LIRA 101145Z 24006KT 190V300 9999 FEW020 SCT080 27/14
                        Q1019=
200906101115 METAR LIRA 101115Z 23008KT 140V260 9999 FEW020 SCT080 27/17
                        Q1019=
200906101045 METAR LIRA 101045Z 20002KT 150V260 9999 FEW020 SCT080 26/17
                        Q1019=
200906101015 METAR LIRA 101015Z 23008KT 170V290 9999 FEW033 SCT080 26/15
                        Q1018=
200906100945 METAR LIRA 100945Z 25002KT 200V310 9999 FEW033 SCT080 26/13
                        Q1018=
200906100915 METAR LIRA 100915Z 26006KT 170V310 9999 FEW033 SCT080 25/14
                        Q1018=
200906100845 METAR LIRA 100845Z 26007KT 200V300 9999 FEW033 SCT080 25/16
                        Q1018=
200906100815 METAR LIRA 100815Z 19007KT 170V280 9999 FEW033 SCT080 25/15
                        Q1018=
200906100745 METAR LIRA 100745Z 24006KT 200V300 9999 FEW030 SCT080 24/18
                        Q1018=
200906100715 METAR LIRA 100715Z 20005KT 150V250 9999 FEW030 SCT080 23/17
                        Q1018=
200906100645 METAR LIRA 100645Z 24003KT 9999 FEW030 SCT080 21/16 Q1017=
200906100615 METAR LIRA 100615Z 00000KT 9999 FEW030 SCT080 20/15 Q1017=
200906100545 METAR LIRA 100545Z 28002KT 9999 FEW030 SCT080 19/15 Q1017=
200906100515 METAR LIRA 100515Z 31002KT 9999 FEW030 SCT080 19/13 Q1017=
200906100445 METAR LIRA 100445Z 11002KT 9999 FEW030 SCT070 19/13 Q1017=
200906100415 METAR LIRA 100415Z 21001KT 9999 FEW030 SCT080 18/13 Q1017=
200906100345 METAR LIRA 100345Z 23003KT 9999 FEW030 SCT070 19/13 Q1017=
200906100315 METAR LIRA 100315Z 06003KT 9999 SCT030 SCT070 19/13 Q1016=
200906100245 METAR LIRA 100245Z 07001KT 9999 SCT030 SCT070 19/13 Q1016=
200906100215 METAR LIRA 100215Z 06002KT 9999 SCT030 SCT070 19/13 Q1016=
200906100145 METAR LIRA 100145Z 06004KT 9999 SCT030 SCT070 19/12 Q1016=
200906100115 METAR LIRA 100115Z 06004KT 9999 SCT030 SCT070 19/13 Q1016=
200906100045 METAR LIRA 100045Z 06003KT 9999 SCT030 SCT070 19/13 Q1017=
200906100015 METAR LIRA 100015Z 35002KT 9999 SCT030 SCT070 20/13 Q1017=
200906092345 METAR LIRA 092345Z 02002KT 9999 SCT030 SCT070 20/13 Q1017=
200906092315 METAR LIRA 092315Z 07002KT 9999 SCT030 SCT070 20/13 Q1017=
200906092245 METAR LIRA 092245Z 09004KT 9999 SCT030 SCT070 20/13 Q1017=
200906092215 METAR LIRA 092215Z 10005KT 9999 SCT030 SCT070 20/13 Q1017=
200906092145 METAR LIRA 092145Z 10005KT 9999 SCT030 SCT070 20/13 Q1018=
200906092115 METAR LIRA 092115Z 09004KT 9999 SCT030 SCT070 20/13 Q1018=
200906092045 METAR LIRA 092045Z 10004KT 9999 SCT030 SCT070 21/14 Q1018=
200906092015 METAR LIRA 092015Z 00000KT 9999 SCT030 SCT070 21/14 Q1018=
200906091945 METAR LIRA 091945Z 12003KT 9999 SCT030 SCT070 22/13 Q1017=
200906091915 METAR LIRA 091915Z 00000KT 9999 SCT030 SCT070 22/12 Q1017=
200906091845 METAR LIRA 091845Z 23004KT 9999 SCT030 SCT070 24/13 Q1018=
200906091815 METAR LIRA 091815Z 23003KT 9999 SCT030 SCT070 24/13 Q1017=
200906091745 METAR LIRA 091745Z 26003KT 220V300 9999 SCT030 SCT070 24/13
                        Q1017=
200906091715 METAR LIRA 091715Z 23004KT 9999 SCT030 SCT070 24/13 Q1016=
200906091645 METAR LIRA 091645Z 22003KT 9999 FEW030 SCT070 24/12 Q1016=
200906091615 METAR LIRA 091615Z 20005KT 170V250 9999 FEW030 SCT070 24/13
                        Q1016=
200906091545 METAR LIRA 091545Z 27004KT 220V310 9999 FEW030 BKN060 25/12
                        Q1016=
200906091515 METAR LIRA 091515Z 24008KT 200V300 9999 FEW030 BKN060 25/12
                        Q1017=
200906091445 METAR LIRA 091445Z 25006KT 190V300 9999 FEW030 BKN060 26/12
                        Q1016=
200906091415 METAR LIRA 091415Z 23004KT 9999 FEW030 BKN060 26/11 Q1016=
200906091345 METAR LIRA 091345Z 18006KT 9999 FEW030 BKN060 25/11 Q1016=
200906091315 METAR LIRA 091315Z 16003KT 9999 SCT030 SCT060 26/11 Q1016=
200906091245 METAR LIRA 091245Z 21007KT 150V270 9999 SCT030 BKN060 27/11
                        Q1016=
200906091215 METAR LIRA 091215Z 18008KT 150V260 9999 SCT030 BKN070 27/12
                        Q1016=
200906091145 METAR LIRA 091145Z 22008KT 180V260 9999 SCT030 BKN070 27/13
                        Q1016=
200906091115 METAR LIRA 091115Z 25008KT 180V270 9999 SCT030 BKN060 27/12
                        Q1016=
200906091045 METAR LIRA 091045Z 24007KT 190V290 9999 SCT030 BKN060 28/11
                        Q1016=
200906091015 METAR LIRA 091015Z 24009KT 190V300 9999 FEW020TCU SCT030
                        28/12 Q1016=
200906090945 METAR LIRA 090945Z 24006KT 150V270 9999 FEW020TCU SCT030
                        27/10 Q1015=
200906090915 METAR LIRA 090915Z 16006KT 100V210 9999 FEW020TCU SCT030
                        27/09 Q1014=
200906090845 METAR LIRA 090845Z 13009KT 090V180 9999 FEW020TCU SCT200
                        26/09 Q1014=
200906090815 METAR LIRA 090815Z 13009KT 100V180 9999 FEW020TCU SCT200
                        25/10 Q1014=
200906090745 METAR LIRA 090745Z 21004KT 9999 FEW030 SCT070 BKN200 25/10
                        Q1016=
200906090715 METAR LIRA 090715Z 16008KT 120V210 9999 FEW030 BKN200 24/10
                        Q1016=
200906090645 METAR LIRA 090645Z 19003KT 9999 FEW060 SCT200 21/13 Q1016=
200906090615 METAR LIRA 090615Z 00000KT 9999 FEW060 SCT200 20/13 Q1016=
200906090545 METAR LIRA 090545Z 00000KT 9999 FEW060 17/12 Q1016=
200906090515 METAR LIRA 090515Z 02001KT 9999 FEW070 17/12 Q1015=
200906090445 METAR LIRA 090445Z 01001KT CAVOK 15/12 Q1015=
200906090415 METAR LIRA 090415Z 04003KT CAVOK 15/11 Q1014=
200906090345 METAR LIRA 090345Z 04003KT 9999 FEW080 15/10 Q1013=
200906090315 METAR LIRA 090315Z 00000KT 9999 FEW080 16/09 Q1013=
200906090245 METAR LIRA 090245Z 32002KT 9999 FEW080 16/08 Q1013=
200906090215 METAR LIRA 090215Z 32002KT CAVOK 17/08 Q1013=
200906090145 METAR LIRA 090145Z 03002KT CAVOK 18/09 Q1014=
200906090115 METAR LIRA 090115Z 05002KT CAVOK 18/09 Q1014=
200906090045 METAR LIRA 090045Z 10004KT CAVOK 18/09 Q1014=
200906090015 METAR LIRA 090015Z 04001KT CAVOK 18/10 Q1014=
200906082350 METAR LIRA 090045Z 10004KT CAVOK 18/09 Q1014=
200906082345 METAR LIRA 082345Z 10004KT CAVOK 18/10 Q1014=
200906082315 METAR LIRA 082315Z 10004KT CAVOK 18/12 Q1014=
200906082245 METAR LIRA 082245Z 12003KT CAVOK 18/11 Q1014=
200906082215 METAR LIRA 082215Z 10003KT CAVOK 20/11 Q1014=
200906082145 METAR LIRA 082145Z 11001KT CAVOK 20/11 Q1014=
200906082115 METAR LIRA 082115Z 09003KT CAVOK 20/11 Q1014=
200906082045 METAR LIRA 082045Z 14002KT CAVOK 21/10 Q1014=
200906082015 METAR LIRA 082015Z 12002KT CAVOK 22/10 Q1014=
200906081945 METAR LIRA 081945Z 00000KT CAVOK 23/10 Q1014=
200906081915 METAR LIRA 081915Z 22002KT CAVOK 24/10 Q1013=
200906081845 METAR LIRA 081845Z 26002KT 9999 FEW080 SCT200 24/09 Q1014=
200906081815 METAR LIRA 081815Z 29003KT 9999 FEW080 SCT200 25/09 Q1014=
200906081745 METAR LIRA 081745Z 27005KT 210V310 9999 FEW080 SCT200 25/08
                        Q1013=
200906081715 METAR LIRA 081715Z 29005KT 230V340 9999 FEW080 SCT200 25/09
                        Q1013=
200906081645 METAR LIRA 081645Z 28008KT 240V330 9999 FEW080 SCT200 26/09
                        Q1013=
200906081615 METAR LIRA 081615Z 29007KT 240V330 9999 FEW020 SCT200 27/10
                        Q1013=
200906081545 METAR LIRA 081545Z 27008KT 220V340 9999 FEW020 SCT200 27/10
                        Q1013=
200906081515 METAR LIRA 081515Z 27007KT 180V300 9999 FEW020 SCT200 27/10
                        Q1013=
200906081445 METAR LIRA 081445Z 23007KT 190V330 9999 FEW020 SCT200 27/11
                        Q1013=
200906081415 METAR LIRA 081415Z 26006KT 180V320 9999 FEW020 27/11 Q1014=
200906081345 METAR LIRA 081345Z 24009KT 190V310 9999 FEW020 27/11 Q1014=
200906081315 METAR LIRA 081315Z 26008KT 200V300 9999 FEW020 27/12 Q1014=
200906081245 METAR LIRA 081245Z 26005KT 200V320 9999 SCT020 26/13 Q1014=
200906081215 METAR LIRA 081215Z 29009KT 200V330 9999 SCT020 26/13 Q1014=
200906081145 METAR LIRA 081145Z 29006KT 250V330 9999 SCT020 26/13 Q1014=
200906081115 METAR LIRA 081115Z 31009KT 220V340 9999 SCT020 26/13 Q1014=
200906081045 METAR LIRA 081045Z 29007KT 200V340 9999 SCT020 25/14 Q1014=
200906081015 METAR LIRA 081015Z 27006KT 250V310 9999 SCT020 25/14 Q1014=
200906080945 METAR LIRA 080945Z 31006KT 9999 FEW020 24/13 Q1014=
200906080915 METAR LIRA 080915Z 16002KT 9999 FEW020 24/14 Q1014=
200906080845 METAR LIRA 080845Z 04002KT 9999 FEW020 SCT200 24/14 Q1014=
200906080815 METAR LIRA 080815Z 32003KT 280V020 9999 FEW020 SCT200 23/14
                        Q1014=
200906080745 METAR LIRA 080745Z 03004KT CAVOK 22/15 Q1014=
200906080715 METAR LIRA 080715Z 30003KT CAVOK 22/15 Q1014=
200906080645 METAR LIRA 080645Z 01002KT CAVOK 20/15 Q1014=
200906080615 METAR LIRA 080615Z 31002KT CAVOK 19/15 Q1014=
200906080545 METAR LIRA 080545Z 08001KT CAVOK 19/15 Q1013=
200906080515 METAR LIRA 080515Z 10002KT CAVOK 16/13 Q1013=
200906080445 METAR LIRA 080445Z 00000KT CAVOK 15/12 Q1013=
200906080415 METAR LIRA 080415Z 10005KT CAVOK 16/13 Q1013=
200906080345 METAR LIRA 080345Z 13003KT CAVOK 16/13 Q1013=
200906080315 METAR LIRA 080315Z 07001KT CAVOK 16/13 Q1012=
200906080245 METAR LIRA 080245Z 10002KT CAVOK 16/13 Q1012=
200906080215 METAR LIRA 080215Z 11001KT CAVOK 17/14 Q1012=
200906080145 METAR LIRA 080145Z 09002KT CAVOK 17/14 Q1012=
200906080115 METAR LIRA 080115Z 10001KT CAVOK 17/15 Q1012=
200906080045 METAR LIRA 080045Z 09004KT 9000 NSC 19/18 Q1012=
200906080015 METAR LIRA 080015Z 10002KT 9000 SCT004 18/17 Q1013=
200906072345 METAR LIRA 072345Z 00000KT 3000 BR BKN003 18/17 Q1013=
200906072315 METAR LIRA 072315Z 00000KT 4000 BR BKN003 19/18 Q1012=
200906072245 METAR LIRA 072245Z 12002KT 7000 SCT008 19/18 Q1012=
200906072215 METAR LIRA 072215Z 18002KT 8000 NSC 19/18 Q1012=
200906072145 METAR LIRA 072145Z 19004KT 8000 NSC 19/18 Q1012=
200906072115 METAR LIRA 072115Z 20003KT 8000 NSC 20/19 Q1012=
200906072045 METAR LIRA 072045Z 18002KT 8000 FEW015 20/19 Q1012=
200906072015 METAR LIRA 072015Z 16002KT 8000 FEW015 21/19 Q1012=
200906071945 METAR LIRA 071945Z 17003KT 9999 FEW015 21/18 Q1012=
200906071915 METAR LIRA 071915Z 18004KT 9999 FEW015TCU 22/19 Q1011=
200906071845 METAR LIRA 071845Z 20003KT 9999 FEW015TCU 23/19 Q1011=
200906071815 METAR LIRA 071815Z 23006KT 200V260 9999 FEW015 FEW016TCU
                        23/17 Q1011=
200906071745 METAR LIRA 071745Z 24006KT 200V280 9999 FEW015 FEW016TCU
                        23/17 Q1011=
200906071715 METAR LIRA 071715Z 22007KT 160V260 9999 FEW015 FEW016TCU
                        24/17 Q1011=
200906071645 METAR LIRA 071645Z 20005KT 140V250 9999 SCT015 24/17 Q1011=
200906071615 METAR LIRA 071615Z 22007KT 160V260 9999 SCT015 FEW016TCU
                        24/17 Q1011=
200906071545 METAR LIRA 071545Z 19007KT 130V230 9999 SCT015 24/17 Q1011=
200906071515 METAR LIRA 071515Z 23009KT 160V270 9999 SCT015 24/18 Q1011=
200906071445 METAR LIRA 071445Z 22008KT 160V260 9999 SCT015 23/19 Q1011=
200906071415 METAR LIRA 071415Z 21008KT 160V260 9999 SCT014 FEW018TCU
                        23/19 Q1011=
200906071345 METAR LIRA 071345Z 19010KT 150V230 9999 SCT014 FEW018TCU
                        23/19 Q1011=
200906071315 METAR LIRA 071315Z 16007KT 130V240 9999 SCT014 FEW018TCU
                        23/19 Q1011=
200906071245 METAR LIRA 071245Z 17010KT 130V240 9999 SCT014 FEW018TCU
                        SCT070 24/19 Q1011=
200906071215 METAR LIRA 071215Z 15008KT 130V240 9999 SCT014 FEW018TCU
                        SCT070 23/19 Q1011=
200906071145 METAR LIRA 071145Z 18013KT 9999 SCT014 FEW018TCU BKN070 23/17
                        Q1011=
200906071115 METAR LIRA 071115Z 17013KT 130V210 9999 SCT014 FEW018TCU
                        SCT070 23/18 Q1011=
200906071045 METAR LIRA 071045Z 17011KT 130V200 9999 -RA SCT014 FEW018TCU
                        SCT070 24/19 Q1011=
200906071015 METAR LIRA 071015Z 17012KT 130V210 9999 SCT014 FEW018TCU
                        SCT070 24/18 Q1011=
200906070945 METAR LIRA 070945Z 15017KT 120V180 9999 FEW014 FEW018TCU
                        SCT070 24/18 Q1011=
200906070915 METAR LIRA 070915Z 19015KT 130V210 9999 FEW014 FEW018TCU
                        SCT070 23/17 Q1011=
200906070845 METAR LIRA 070845Z 16011KT 120V200 9999 FEW014 FEW018TCU
                        SCT070 22/17 Q1011=
200906070815 METAR LIRA 070815Z 15013KT 120V190 9999 FEW014 SCT070 22/18
                        Q1010=
200906070745 METAR LIRA 070745Z 13009KT 100V190 9999 FEW014 SCT070 22/18
                        Q1009=
200906070715 METAR LIRA 070715Z 13013KT 090V160 9999 FEW014 SCT022 22/18
                        Q1009=
200906070645 METAR LIRA 070645Z 15013KT 9999 FEW014 SCT022 22/18 Q1010=
200906070615 METAR LIRA 070615Z 15012KT 110V190 9999 FEW012 SCT021 21/18
                        Q1009=
200906070545 METAR LIRA 070545Z 15010KT 120V190 9999 FEW012 SCT021 20/18
                        Q1009=
200906070515 METAR LIRA 070515Z 16008KT 120V210 9999 SCT010 20/18 Q1009=
200906070445 METAR LIRA 070445Z 16008KT 130V200 9999 SCT010 20/18 Q1008=
200906070415 METAR LIRA 070415Z 15009KT 120V210 9999 SCT008 20/18 Q1008=
200906070345 METAR LIRA 070345Z 15011KT 9999 FEW018 20/17 Q1008=
200906070315 METAR LIRA 070315Z 14010KT 9999 FEW018 20/17 Q1008=
200906070245 METAR LIRA 070245Z 14009KT 9999 SCT018 SCT025 20/17 Q1008=
200906070215 METAR LIRA 070215Z 11005KT 9999 SCT018 SCT025 19/17 Q1008=
200906070145 METAR LIRA 070145Z 14010KT 9999 SCT018 SCT025 19/18 Q1008=
200906070115 METAR LIRA 070115Z 14011KT 9999 FEW018 19/17 Q1008=
200906070045 METAR LIRA 070045Z 16010KT 9999 FEW018 20/18 Q1008=
200906070015 METAR LIRA 070015Z 15011KT 100V180 9999 FEW018 20/18 Q1008=
200906062345 METAR LIRA 062345Z 15013KT 9999 FEW018 20/18 Q1008=
200906062315 METAR LIRA 062315Z 15010KT 9999 SCT016 20/17 Q1008=
200906062245 METAR LIRA 062245Z 16010KT 9999 SCT016 20/18 Q1008=
200906062215 METAR LIRA 062215Z 15013KT 120V190 9999 SCT016 20/18 Q1008=
200906062145 METAR LIRA 062145Z 15011KT 110V190 9999 SCT018 20/18 Q1008=
200906062115 METAR LIRA 062115Z 16011KT 130V190 9999 SCT018 20/18 Q1008=
200906062045 METAR LIRA 062045Z 19007KT 150V230 9999 FEW020 20/18 Q1008=
200906062015 METAR LIRA 062015Z 15011KT 120V200 9999 FEW020 20/18 Q1007=
200906061945 METAR LIRA 061945Z 16013KT 110V190 9999 FEW020 20/19 Q1007=
200906061915 METAR LIRA 061915Z 16013KT 9999 FEW020 21/18 Q1007=
200906061845 METAR LIRA 061845Z 15014KT 120V180 9999 FEW020 21/18 Q1007=
200906061815 METAR LIRA 061815Z 16014KT 9999 FEW020 SCT200 22/18 Q1007=
200906061745 METAR LIRA 061745Z 16014KT 9999 FEW020 SCT200 22/18 Q1007=
200906061715 METAR LIRA 061715Z 17015KT 140V210 9999 FEW020 BKN200 22/18
                        Q1007=
200906061645 METAR LIRA 061645Z 16014KT 140V210 9999 FEW020 BKN200 23/18
                        Q1007=
200906061615 METAR LIRA 061615Z 16017KT 110V200 9999 FEW020 BKN200 23/18
                        Q1006=
200906061545 METAR LIRA 061545Z 17016KT 130V210 9999 FEW018 BKN200 25/18
                        Q1007=
200906061515 METAR LIRA 061515Z 16018KT 120V210 9999 FEW018 BKN200 25/18
                        Q1006=
200906061445 METAR LIRA 061445Z 16023G33KT 120V200 9999 FEW018 SCT200
                        24/19 Q1006=
200906061415 METAR LIRA 061415Z 16021G31KT 110V190 9999 FEW018 SCT200
                        24/18 Q1007=
200906061345 METAR LIRA 061345Z 15019KT 120V180 9999 FEW018 SCT200 25/19
                        Q1007=
200906061315 METAR LIRA 061315Z 16022KT 130V190 9999 SCT018 SCT200 24/19
                        Q1009=
200906061245 METAR LIRA 061245Z 16017KT 110V190 9999 FEW018 SCT030 BKN070
                        23/17 Q1009=
200906061215 METAR LIRA 061215Z 16015KT 130V220 9999 FEW018 SCT030 BKN070
                        23/16 Q1009=
200906061145 METAR LIRA 061145Z 17019KT 120V210 9999 FEW018 SCT030 BKN070
                        24/16 Q1008=
200906061115 METAR LIRA 061115Z 17022G32KT 140V200 9999 FEW018 SCT080
                        25/16 Q1008=
200906061045 METAR LIRA 061045Z 18023G35KT 130V210 9999 FEW018 SCT200
                        25/14 Q1008=
200906061015 METAR LIRA 061015Z 17026G36KT 140V220 9999 FEW018 SCT200
                        25/14 Q1008=
200906060945 METAR LIRA 060945Z 16026G36KT 130V230 9999 FEW018 SCT070
                        27/12 Q1007=
200906060915 METAR LIRA 060915Z 17022G33KT 130V220 9999 FEW018 SCT070
                        26/10 Q1007=
200906060845 METAR LIRA 060845Z 16027G37KT 130V200 9999 FEW018 SCT070
                        26/10 Q1007=
200906060815 METAR LIRA 060815Z 16022G37KT 120V210 9999 FEW018 SCT070
                        26/10 Q1006=
200906060745 METAR LIRA 060745Z 15022G33KT 120V190 9999 FEW018 SCT070
                        26/10 Q1007=
200906060715 METAR LIRA 060715Z 15022G32KT 090V210 9999 FEW018 SCT070
                        25/10 Q1007=
200906060645 METAR LIRA 060645Z 15016G32KT 080V180 9999 FEW018 SCT070
                        24/11 Q1007 RETS=
200906060615 METAR LIRA 060615Z 15021G31KT 090V180 9999 FEW018 FEW020CB
                        SCT070 23/13 Q1006 RETS=
200906060545 METAR LIRA 060545Z 13020KT 9999 -TSRA FEW018 FEW020CB BKN070
                        22/11 Q1008=
200906060515 METAR LIRA 060515Z 13015KT 9999 TS FEW018 FEW020CB BKN070
                        22/10 Q1008=
200906060445 METAR LIRA 060445Z 14013KT 090V180 9999 -TSRA FEW018 FEW020CB
                        BKN070 23/09 Q1009=
200906060415 METAR LIRA 060415Z 13018KT 110V200 9999 FEW018 FEW020CB SCT070
                        24/08 Q1009=
200906060345 METAR LIRA 060345Z 16016G27KT 120V210 9999 SCT018 FEW020CB
                        SCT070 24/08 Q1009=
200906060315 METAR LIRA 060315Z 18015KT 120V250 9999 SCT018 SCT070 24/08
                        Q1009=
200906060245 METAR LIRA 060245Z 14019G29KT 090V170 9999 SCT020 SCT070
                        24/08 Q1006=
200906060215 METAR LIRA 060215Z 12017G30KT 060V160 9999 FEW020 SCT070
                        23/11 Q1007=
200906060145 METAR LIRA 060145Z 14012G22KT 100V170 9999 SCT020 SCT070
                        22/15 Q1008=
200906060115 METAR LIRA 060115Z 15010KT 110V180 9999 SCT020 SCT070 23/15
                        Q1009=
200906060045 METAR LIRA 060045Z 16012KT 130V230 9999 SCT020 22/13 Q1009=
200906060015 METAR LIRA 060015Z 02006KT 100V200 9999 SCT020 22/14 Q1010=
200906052345 METAR LIRA 052345Z 01013KT 080V210 9999 SCT020 22/13 Q1010=
200906052315 METAR LIRA 052315Z 15003KT 070V210 9999 SCT020 21/13 Q1010=
200906052245 METAR LIRA 052245Z 23008KT 120V300 9999 SCT020 22/13 Q1011=
200906052215 METAR LIRA 052215Z 17007KT 120V300 9999 SCT020 22/13 Q1011=
200906052145 METAR LIRA 052145Z 15006KT 100V180 9999 SCT020 22/13 Q1011=
200906052115 METAR LIRA 052115Z 12006KT 080V180 9999 SCT020 22/13 Q1011=
200906052045 METAR LIRA 052045Z 15007KT 100V180 9999 FEW020 22/12 Q1011=
200906052015 METAR LIRA 052015Z 15009KT 110V190 9999 FEW020 22/13 Q1011=
200906051945 METAR LIRA 051945Z 14011KT 9999 FEW020 23/15 Q1011=
200906051915 METAR LIRA 051915Z 15011KT 120V200 9999 FEW020 SCT200 23/15
                        Q1011=
200906051845 METAR LIRA 051845Z 15010G24KT 100V190 9999 FEW020 SCT200
                        24/12 Q1011=
200906051815 METAR LIRA 051815Z 16013KT 120V190 9999 FEW020 SCT200 24/12
                        Q1011=
200906051745 METAR LIRA 051745Z 15015KT 130V210 9999 FEW020 SCT080 24/12
                        Q1011=
200906051715 METAR LIRA 051715Z 16015KT 140V210 9999 FEW020 SCT070 24/11
                        Q1011=
200906051645 METAR LIRA 051645Z 15014KT 9999 FEW020 SCT070 25/12 Q1011=
200906051615 METAR LIRA 051615Z 15011KT 120V190 9999 FEW020 SCT070 25/12
                        Q1012=
200906051545 METAR LIRA 051545Z 14015KT 110V210 9999 FEW020 25/13 Q1012=
200906051515 METAR LIRA 051515Z 17011KT 130V210 9999 FEW020 SCT200 26/18
                        Q1012=
200906051445 METAR LIRA 051445Z 17013KT 120V210 9999 FEW020 SCT200 26/17
                        Q1012=
200906051415 METAR LIRA 051415Z 17017KT 140V220 9999 FEW020 SCT200 27/17
                        Q1011=
200906051345 METAR LIRA 051345Z 18016KT 130V220 9999 FEW020 27/16 Q1011=
200906051315 METAR LIRA 051315Z 17015G25KT 130V220 9999 SCT020 SCT200
                        28/16 Q1011=
200906051245 METAR LIRA 051245Z 18012KT 110V210 9999 SCT020 SCT200 28/16
                        Q1011=
200906051215 METAR LIRA 051215Z 14016KT 090V180 9999 SCT020 SCT200 28/16
                        Q1012=
200906051145 METAR LIRA 051145Z 15010KT 100V180 9999 SCT020 SCT200 27/15
                        Q1012=
200906051115 METAR LIRA 051115Z 15009KT 090V190 9999 SCT020 SCT200 26/15
                        Q1012=
200906051045 METAR LIRA 051045Z 18012KT 110V230 9999 SCT020 SCT200 26/15
                        Q1012=
200906051015 METAR LIRA 051015Z 17010KT 110V220 9999 SCT020 26/15 Q1012=
200906050945 METAR LIRA 050945Z 14011KT 110V190 9999 SCT020 SCT200 26/15
                        Q1012=
200906050915 METAR LIRA 050915Z 15009KT 100V200 9999 FEW020 SCT200 24/17
                        Q1012=
200906050845 METAR LIRA 050845Z 15011KT 100V180 9999 FEW020 SCT200 24/16
                        Q1012=
200906050815 METAR LIRA 050815Z 15009KT 110V190 9999 FEW020 SCT200 24/16
                        Q1012=
200906050745 METAR LIRA 050745Z 16011KT 120V190 9999 FEW070 SCT200 23/17
                        Q1012=
200906050715 METAR LIRA 050715Z 15013KT 130V200 9999 FEW070 22/17 Q1012=
200906050645 METAR LIRA 050645Z 16013KT 120V190 9999 FEW070 22/15 Q1011=
200906050615 METAR LIRA 050615Z 15012KT 120V190 CAVOK 21/15 Q1011=
200906050545 METAR LIRA 050545Z 16012KT 120V200 CAVOK 20/15 Q1011=
200906050515 METAR LIRA 050515Z 16010KT 130V200 9999 FEW080 SCT200 20/15
                        Q1010=
200906050445 METAR LIRA 050445Z 17009KT 9999 FEW080 SCT200 18/14 Q1010=
200906050415 METAR LIRA 050415Z 14002KT 9999 FEW080 SCT200 18/14 Q1010=
200906050345 METAR LIRA 050345Z 23001KT 9999 FEW080 SCT200 19/14 Q1010=
200906050315 METAR LIRA 050315Z 13005KT 110V170 9999 FEW070 19/15 Q1011=
200906050245 METAR LIRA 050245Z 15004KT CAVOK 20/15 Q1011=
200906050215 METAR LIRA 050215Z 14006KT CAVOK 20/15 Q1011=
200906050145 METAR LIRA 050145Z 16005KT CAVOK 20/15 Q1011=
200906050115 METAR LIRA 050115Z 14008KT 120V190 CAVOK 21/13 Q1011=
200906050045 METAR LIRA 050045Z 17007KT 130V190 CAVOK 21/13 Q1011=
200906050015 METAR LIRA 050015Z 14006KT 120V190 CAVOK 20/13 Q1011=
200906042345 METAR LIRA 042345Z 14009KT 110V180 CAVOK 21/14 Q1011=
200906042315 METAR LIRA 042315Z 14013KT 120V180 CAVOK 20/14 Q1011=
200906042245 METAR LIRA 042245Z 15010KT 120V190 CAVOK 21/16 Q1011=
200906042215 METAR LIRA 042215Z 15011KT CAVOK 21/15 Q1011=
200906042145 METAR LIRA 042145Z 19009KT 130V230 CAVOK 21/15 Q1011=
200906042115 METAR LIRA 042115Z 16009KT 130V190 CAVOK 21/15 Q1011=
200906042045 METAR LIRA 042045Z 15012KT 110V180 CAVOK 21/15 Q1011=
200906042015 METAR LIRA 042015Z 16009KT 130V190 CAVOK 21/15 Q1011=
200906041945 METAR LIRA 041945Z 16009KT CAVOK 22/15 Q1011=
200906041915 METAR LIRA 041915Z 16012KT CAVOK 23/15 Q1011=
200906041845 METAR LIRA 041845Z 19007KT 130V240 CAVOK 23/14 Q1011=
200906041815 METAR LIRA 041815Z 16010KT 140V200 CAVOK 24/14 Q1011=
200906041745 METAR LIRA 041745Z 17011KT 120V210 CAVOK 24/12 Q1011=
200906041715 METAR LIRA 041715Z 16010KT 140V200 9999 FEW020 25/13 Q1011=
200906041645 METAR LIRA 041645Z 17010KT 140V240 9999 FEW020 25/13 Q1011=
200906041615 METAR LIRA 041615Z 18009KT 150V230 9999 FEW020 25/14 Q1011=
200906041545 METAR LIRA 041545Z 16010KT 130V220 9999 FEW020 25/15 Q1011=
200906041515 METAR LIRA 041515Z 19010KT 130V250 9999 SCT020 24/16 Q1011=
200906041445 METAR LIRA 041445Z 22009KT 140V260 9999 SCT020 24/16 Q1011=
200906041415 METAR LIRA 041415Z 19006KT 120V250 9999 SCT020 24/15 Q1011=
200906041345 METAR LIRA 041345Z 21008KT 140V250 9999 SCT020 25/17 Q1011=
200906041315 METAR LIRA 041315Z 18011KT 140V260 9999 SCT020 25/16 Q1011=
200906041245 METAR LIRA 041245Z 19009KT 150V260 9999 SCT020 25/16 Q1011=
200906041215 METAR LIRA 041215Z 20009KT 150V250 9999 SCT020 SCT030 25/16
                        Q1011=
200906041145 METAR LIRA 041145Z 22011G21KT 150V260 9999 SCT020 SCT030
                        24/15 Q1011=
200906041115 METAR LIRA 041115Z 18013KT 140V250 9999 SCT020 SCT030 24/15
                        Q1011=
200906041045 METAR LIRA 041045Z VRB10KT 110V310 9999 SCT020 SCT030 24/15
                        Q1011=
200906041015 METAR LIRA 041015Z 17011KT 130V230 9999 SCT020 SCT030 24/15
                        Q1011=
200906040945 METAR LIRA 040945Z 16012KT 130V230 9999 SCT020 SCT030 24/15
                        Q1011=
200906040915 METAR LIRA 040915Z 19011KT 160V240 9999 SCT020 SCT030 23/16
                        Q1011=
200906040845 METAR LIRA 040845Z 18012KT 130V230 9999 SCT020 SCT030 23/15
                        Q1011=
200906040815 METAR LIRA 040815Z 17008KT 120V220 9999 SCT020 22/15 Q1012=
200906040745 METAR LIRA 040745Z 19007KT 120V240 9999 FEW020 SCT200 22/16
                        Q1012=
200906040715 METAR LIRA 040715Z 17009KT 140V210 9999 FEW020 SCT200 21/16
                        Q1012=
200906040645 METAR LIRA 040645Z 15009KT 130V220 9999 FEW020 SCT200 21/16
                        Q1011=
200906040615 METAR LIRA 040615Z 17007KT 130V210 CAVOK 20/16 Q1011=
200906040545 METAR LIRA 040545Z 15007KT 120V180 CAVOK 20/16 Q1011=
200906040515 METAR LIRA 040515Z 15007KT 090V190 CAVOK 18/14 Q1010=
200906040445 METAR LIRA 040445Z 14003KT CAVOK 16/13 Q1010=
200906040415 METAR LIRA 040415Z 15003KT CAVOK 17/13 Q1010=
200906040345 METAR LIRA 040345Z 11003KT CAVOK 16/13 Q1011=
200906040315 METAR LIRA 040315Z 12004KT CAVOK 17/13 Q1011=
200906040245 METAR LIRA 040245Z 12003KT CAVOK 17/13 Q1011=
200906040215 METAR LIRA 040215Z 11004KT CAVOK 17/13 Q1011=
200906040145 METAR LIRA 040145Z 11004KT CAVOK 17/13 Q1011=
200906040115 METAR LIRA 040115Z 15006KT CAVOK 17/13 Q1011=
200906040045 METAR LIRA 040045Z 15005KT CAVOK 17/13 Q1011=
200906040015 METAR LIRA 040015Z 15004KT CAVOK 18/15 Q1012=
200906032350 METAR LIRA 040045Z 15005KT CAVOK 17/13 Q1011=
200906032345 METAR LIRA 032345Z 15005KT CAVOK 18/16 Q1012=
200906032315 METAR LIRA 032315Z 15004KT CAVOK 19/16 Q1012=
200906032245 METAR LIRA 032245Z 16004KT CAVOK 19/16 Q1012=
200906032215 METAR LIRA 032215Z 16005KT CAVOK 19/16 Q1012=
200906032145 METAR LIRA 032145Z 14004KT CAVOK 19/15 Q1012=
200906032115 METAR LIRA 032115Z 17004KT CAVOK 20/16 Q1012=
200906032045 METAR LIRA 032045Z 17003KT 9999 FEW080 SCT200 20/16 Q1012=
200906032015 METAR LIRA 032015Z 16004KT 9999 FEW080 SCT200 21/17 Q1012=
200906031945 METAR LIRA 031945Z 18005KT 9999 FEW080 SCT200 21/16 Q1011=
200906031915 METAR LIRA 031915Z 20004KT 9999 FEW018 SCT200 21/10 Q1011=
200906031845 METAR LIRA 031845Z 27004KT 9999 FEW018 FEW020CB SCT200 23/10
                        Q1011=
200906031815 METAR LIRA 031815Z 25006KT 200V310 9999 FEW018 FEW020CB 24/10
                        Q1011=
200906031745 METAR LIRA 031745Z 25006KT 180V310 9999 FEW018 FEW020CB 25/09
                        Q1010=
200906031715 METAR LIRA 031715Z 26010KT 190V320 9999 FEW018 FEW020CB 25/08
                        Q1010=
200906031645 METAR LIRA 031645Z 25009KT 220V340 9999 FEW018 FEW020CB 25/09
                        Q1010=
200906031615 METAR LIRA 031615Z 28010KT 200V350 9999 FEW018 FEW020CB 26/08
                        Q1010=
200906031545 METAR LIRA 031545Z 28012G23KT 230V310 9999 FEW020CB SCT080
                        26/10 Q1010=
200906031515 METAR LIRA 031515Z 29013KT 250V320 9999 FEW020CB 27/11 Q1010=
200906031445 METAR LIRA 031445Z 28015G25KT 230V330 9999 FEW020CB 26/11
                        Q1010=
200906031415 METAR LIRA 031415Z 27015KT 220V310 9999 FEW020CB FEW021TCU
                        27/13 Q1011=
200906031345 METAR LIRA 031345Z 26012KT 200V300 9999 FEW020CB FEW021TCU
                        26/12 Q1011=
200906031315 METAR LIRA 031315Z 25008KT 210V320 9999 FEW020CB FEW021TCU
                        26/12 Q1011=
200906031245 METAR LIRA 031245Z 27009KT 210V320 9999 FEW020CB FEW021TCU
                        26/13 Q1011=
200906031215 METAR LIRA 031215Z 25011KT 170V310 9999 FEW020TCU 26/12 Q1011=
200906031145 METAR LIRA 031145Z 25010KT 200V320 9999 FEW020TCU SCT025
                        26/09 Q1011=
200906031115 METAR LIRA 031115Z 27008KT 180V350 9999 SCT025 26/09 Q1011=
200906031045 METAR LIRA 031045Z 27007KT 250V340 9999 SCT025 25/09 Q1011=
200906031015 METAR LIRA 031015Z 35006KT 280V060 9999 FEW025 25/09 Q1011=
200906030945 METAR LIRA 030945Z 32005KT 230V010 CAVOK 24/09 Q1011=
200906030915 METAR LIRA 030915Z 33007KT 240V040 CAVOK 23/10 Q1011=
200906030845 METAR LIRA 030845Z 35007KT 290V050 CAVOK 21/10 Q1011=
200906030815 METAR LIRA 030815Z 03009KT 330V090 CAVOK 20/10 Q1011=
200906030745 METAR LIRA 030745Z 03005KT 330V090 9999 FEW025 19/09 Q1011=
200906030715 METAR LIRA 030715Z 03004KT CAVOK 18/10 Q1011=
200906030645 METAR LIRA 030645Z 01005KT 280V060 CAVOK 18/13 Q1011=
200906030615 METAR LIRA 030615Z 35004KT 290V030 CAVOK 16/11 Q1011=
200906030545 METAR LIRA 030545Z 01005KT 320V180 CAVOK 14/10 Q1011=
200906030515 METAR LIRA 030515Z 05004KT 9999 FEW080 13/09 Q1010=
200906030445 METAR LIRA 030445Z 05004KT 9999 FEW080 13/09 Q1010=
200906030415 METAR LIRA 030415Z 04004KT CAVOK 14/10 Q1010=
200906030345 METAR LIRA 030345Z 05002KT 9999 FEW070 13/09 Q1010=
200906030315 METAR LIRA 030315Z 05003KT 9999 FEW070 13/09 Q1010=
200906030245 METAR LIRA 030245Z 03003KT CAVOK 13/08 Q1010=
200906030215 METAR LIRA 030215Z 05005KT CAVOK 14/08 Q1010=
200906030145 METAR LIRA 030145Z 01004KT CAVOK 15/09 Q1010=
200906030045 METAR LIRA 030045Z 06004KT CAVOK 15/09 Q1010=
200906030015 METAR LIRA 030015Z 07004KT CAVOK 16/08 Q1010=
200906022345 METAR COR LIRA 022345Z 06005KT 9999 FEW070 16/08 Q1010=
200906022315 METAR LIRA 022315Z 36002KT 9999 FEW070 17/08 Q1009=
200906022245 METAR LIRA 022245Z 01002KT 9999 FEW070 18/08 Q1009=
200906022215 METAR LIRA 022215Z 36002KT 9999 FEW070 16/06 Q1009=
200906022145 METAR LIRA 022145Z 34003KT 9999 FEW020 18/08 Q1009=
200906022115 METAR LIRA 022115Z 01007KT 310V060 9999 FEW020 19/08 Q1009=
200906022045 METAR LIRA 022045Z 02009KT 330V060 9999 FEW020 19/08 Q1009=
200906022015 METAR LIRA 022015Z 03007KT 330V080 9999 FEW015 SCT200 20/07
                        Q1008=
200906021945 METAR LIRA 021945Z 02006KT 300V090 9999 FEW015 SCT200 20/07
                        Q1008=
200906021915 METAR LIRA 021915Z 36010KT 300V050 9999 FEW015 SCT200 21/07
                        Q1007=
200906021845 METAR LIRA 021845Z 35009KT 300V070 9999 FEW015 SCT200 21/08
                        Q1007=
200906021815 METAR LIRA 021815Z 35008KT 290V040 9999 FEW015 SCT200 22/08
                        Q1007=
200906021745 METAR LIRA 021745Z 36009KT 300V050 9999 FEW015 SCT200 23/09
                        Q1007=
200906021715 METAR LIRA 021715Z 34011G21KT 300V060 9999 FEW015 SCT030
                        24/09 Q1006=
200906021645 METAR LIRA 021645Z 36010KT 290V070 9999 FEW015 SCT030 24/09
                        Q1006=
200906021615 METAR LIRA 021615Z 34015KT 300V030 9999 FEW015 SCT030 24/09
                        Q1006=
200906021545 METAR LIRA 021545Z 33015G25KT 300V020 9999 FEW018 SCT070
                        24/10 Q1005=
200906021515 METAR LIRA 021515Z 34016G26KT 280V040 9999 FEW018 SCT080
                        24/12 Q1005=
200906021445 METAR LIRA 021445Z 34012KT 330V040 9999 FEW018 SCT080 23/12
                        Q1005=
200906021415 METAR LIRA 021415Z 33014KT 290V020 9999 FEW018 SCT080 22/12
                        Q1005=
200906021345 METAR LIRA 021345Z 33008KT 290V020 9999 FEW018 BKN080 22/13
                        Q1005=
200906021315 METAR LIRA 021315Z 33010KT 270V020 9999 FEW018 BKN080 21/12
                        Q1005=
200906021245 METAR LIRA 021245Z 33011KT 290V020 9999 FEW018 BKN080 20/11
                        Q1005=
200906021215 METAR LIRA 021215Z 34010KT 300V030 9999 FEW018 BKN080 20/12
                        Q1005=
200906021145 METAR LIRA 021145Z 34010KT 300V030 9999 FEW018 SCT040 BKN080
                        20/12 Q1005=
200906021115 METAR LIRA 021115Z 34010KT 290V010 9999 FEW018 SCT040 BKN080
                        20/14 Q1005=
200906021045 METAR LIRA 021045Z 35008KT 300V050 9999 FEW018 SCT040 BKN080
                        20/13 Q1005=
200906021015 METAR LIRA 021015Z 35008KT 330V040 9999 FEW018 SCT040 BKN080
                        21/13 Q1005=
200906020945 METAR LIRA 020945Z 33012KT 290V360 9999 FEW018 SCT040 BKN080
                        21/14 Q1005=
200906020915 METAR LIRA 020915Z 34011KT 290V070 9999 FEW018 BKN080 20/14
                        Q1005=
200906020845 METAR LIRA 020845Z 35009KT 300V090 9999 FEW018 SCT080 BKN200
                        19/14 Q1004=
200906020815 METAR LIRA 020815Z 04006KT 330V090 9999 FEW018 SCT080 BKN200
                        18/13 Q1004=
200906020745 METAR LIRA 020745Z 35010KT 290V090 9999 FEW018 SCT080 18/15
                        Q1004=
200906020715 METAR LIRA 020715Z 01006KT 330V070 9999 FEW018 SCT030 18/15
                        Q1004=
200906020645 METAR LIRA 020645Z 36008KT 320V050 9999 SCT017 SCT030 18/15
                        Q1004=
200906020615 METAR LIRA 020615Z 35008KT 310V090 9999 SCT017 SCT030 18/15
                        Q1004=
200906020545 METAR LIRA 020545Z 36010KT 300V080 9999 SCT017 SCT030 17/15
                        Q1003=
200906020515 METAR LIRA 020515Z 02008KT 300V080 9999 FEW017 SCT030 16/15
                        Q1003=
200906020445 METAR LIRA 020445Z 04009KT 330V090 9999 FEW017 SCT030 16/15
                        Q1003=
200906020415 METAR LIRA 020415Z 04006KT 360V080 9999 FEW017 BKN030 17/15
                        Q1003=
200906020345 METAR LIRA 020345Z 05006KT 020V090 9999 SCT017 SCT030 16/15
                        Q1003=
200906020315 METAR LIRA 020315Z 07007KT 020V090 9999 SCT017 SCT030 16/15
                        Q1003=
200906020245 METAR LIRA 020245Z 06006KT 020V090 9999 SCT017 SCT030 16/15
                        Q1003=
200906020145 METAR LIRA 020145Z 15009KT 030V190 9999 SCT017 SCT030 17/15
                        Q1004=
200906020115 METAR LIRA 020115Z 15010KT 9999 SCT016 SCT030 17/15 Q1004=
200906020045 METAR LIRA 020045Z 15008KT 9999 SCT016 SCT030 17/15 Q1004=
200906020015 METAR LIRA 020015Z 15010KT 9999 SCT016 SCT030 17/16 Q1004=
200906012345 METAR LIRA 012345Z 15010KT 9999 SCT016 SCT030 17/17 Q1004=
200906012315 METAR LIRA 012315Z 15009KT 9999 SCT016 SCT030 17/17 Q1004=
200906012245 METAR LIRA 012245Z 16009KT 9999 BKN016 SCT025 17/14 Q1004=
200906012215 METAR LIRA 012215Z 17009KT 9999 FEW016 FEW020CB SCT030 17/15
                        Q1004=
200906012145 METAR LIRA 012145Z 18008KT 140V220 9999 FEW016 FEW020CB SCT030
                        17/15 Q1004=
200906012115 METAR LIRA 012115Z 17012KT 150V210 9999 -RA SCT016 FEW020CB
                        SCT025 17/15 Q1004=
200906012045 METAR LIRA 012045Z /////KT 9000 -RA SCT016 FEW020CB SCT025
                        18/16 Q1004=
200906012015 METAR LIRA 012015Z 15012KT 8000 -RA SCT016 FEW018CB SCT025
                        18/16 Q1003=
200906011945 METAR LIRA 011945Z 12009KT 9999 -RA SCT016 FEW020CB SCT025
                        19/16 Q1003=
200906011915 METAR LIRA 011915Z 11009KT 9999 SCT016 FEW017CB SCT025 19/16
                        Q1003=
200906011845 METAR LIRA 011845Z 12010KT 070V160 9999 FEW016 FEW020CB 19/15
                        Q1004=
200906011815 METAR LIRA 011815Z 16010KT 100V180 9999 FEW016 FEW020CB 20/16
                        Q1004=
200906011745 METAR LIRA 011745Z 13013KT 060V170 9999 FEW016 FEW020CB 21/16
                        Q1004=
200906011715 METAR LIRA 011715Z 13009KT 090V170 9999 FEW016 FEW020CB 21/16
                        Q1004=
200906011645 METAR LIRA 011645Z 13012KT 9999 FEW016 FEW020CB 21/16 Q1004
                        RETS=
200906011615 METAR LIRA 011615Z 14012KT 100V180 9999 FEW016 FEW020CB 21/17
                        Q1004 RETS=
200906011545 METAR LIRA 011545Z 13012KT 090V180 8000 -TSRA FEW016 FEW020CB
                        SCT030 21/17 Q1004=
200906011515 METAR LIRA 011515Z 10010KT 070V160 8000 -RA FEW016 FEW020CB
                        SCT030 21/17 Q1005=
200906011445 METAR LIRA 011445Z 13010KT 100V170 9999 FEW016 FEW020CB SCT030
                        21/17 Q1006=
200906011415 METAR LIRA 011415Z 13014KT 8000 -RA FEW012 FEW016CB BKN030
                        20/16 Q1006=
200906011345 METAR LIRA 011345Z 13011KT 110V180 8000 -RA FEW012 FEW016CB
                        SCT030 20/17 Q1006=
200906011315 METAR LIRA 011315Z 12010KT 080V150 8000 -RA FEW012 FEW016CB
                        SCT030 20/17 Q1007=
200906011245 METAR LIRA 011245Z 16007KT 130V200 8000 -RA FEW012 FEW016CB
                        SCT030 20/17 Q1007 RETS=
200906011215 METAR LIRA 011215Z 15012KT 8000 -RA FEW012 FEW016CB SCT030
                        19/16 Q1007 RETS=
200906011145 METAR LIRA 011145Z 14018KT 8000 -TSRA FEW012 FEW016CB SCT025
                        19/17 Q1007=
200906011115 METAR LIRA 011115Z 14016G28KT 8000 -TSRA FEW012 FEW016CB
                        SCT025 19/17 Q1006=
200906011045 METAR LIRA 011045Z 14017G33KT 120V140 7000 -TSRA FEW012 FEW016CB
                        SCT025 21/17 Q1006=
200906011015 METAR LIRA 011015Z 14018KT 100V170 7000 -RA FEW012 FEW016CB
                        SCT025 21/17 Q1007=
200906010945 METAR LIRA 010945Z 13019KT 100V170 7000 -RA FEW012 FEW016CB
                        SCT025 20/18 Q1007=
200906010915 METAR LIRA 010915Z 13016G31KT 8000 -RA FEW015 FEW016CB SCT025
                        19/16 Q1008 WS RWY 15=
200906010845 METAR LIRA 010845Z 12016G26KT 080V160 8000 -RA FEW010 FEW015CB
                        BKN025 19/16 Q1008 WS RWY 15=
200906010815 METAR LIRA 010815Z 10008G19KT 060V140 6000 -RA FEW010 FEW015CB
                        BKN025 18/15 Q1009=
200906010745 METAR LIRA 010745Z 06005KT 010V100 7000 -RA FEW010 BKN025
                        18/15 Q1009=
200906010715 METAR LIRA 010715Z 10010KT 8000 -RA FEW010 BKN025 18/16 Q1010=
200906010645 METAR LIRA 010645Z 09012KT 030V130 8000 -RA FEW010 BKN025
                        18/15 Q1010=
200906010615 METAR LIRA 010615Z 08004KT 8000 -RA FEW010 BKN025 18/15 Q1010=
200906010545 METAR LIRA 010545Z 02003KT 360V070 8000 -RA FEW010 BKN025
                        17/15 Q1010=
200906010515 METAR LIRA 010515Z 06008KT 030V100 8000 -RA FEW010 BKN025
                        17/15 Q1011=
200906010445 METAR LIRA 010445Z 05006KT 020V100 9999 FEW020 SCT025 BKN070
                        17/15 Q1011=
200906010415 METAR LIRA 010415Z 03005KT 350V060 9999 FEW020 SCT025 BKN070
                        17/15 Q1011=
200906010345 METAR LIRA 010345Z 07005KT 9999 FEW018 BKN025 17/16 Q1011=
200906010315 METAR LIRA 010315Z 10003KT 9999 SCT018 SCT030 17/16 Q1012=
200906010245 METAR LIRA 010245Z 04005KT 9999 SCT018 SCT030 17/16 Q1012=
200906010215 METAR LIRA 010215Z 04004KT 9999 FEW017TCU SCT030 18/16 Q1013=
200906010145 METAR LIRA 010145Z 06002KT 9999 FEW017TCU SCT030 18/16 Q1014=
200906010115 METAR LIRA 010115Z 07002KT 9999 -RA FEW017TCU SCT030 18/16
                        Q1014=
200906010045 METAR LIRA 010045Z 11008KT 9999 -RA FEW017TCU SCT030 18/15
                        Q1014=
200906010015 METAR LIRA 010015Z 10005KT 9999 -RA FEW017TCU SCT030 18/15
                        Q1014=

</pre>

</body>
</html>
